sequenceNumber,corporateNumber,process,correct,updateDate,changeDate,name,nameImageId,kind,prefectureName,cityName,streetNumber,addressImageId,prefectureCode,cityCode,postCode,addressOutside,addressOutsideImageId,closeDate,closeCause,successorCorporateNumber,changeCause,assignmentDate,latest,enName,enPrefectureName,enCityName,enAddressOutside,furigana,hihyoji
2,1010001239759,新規,0,2023-11-07,2023-11-07,株式会社Ｋｏｔｏｎｏｈａ　ＡＩ,,株式会社,東京都,文京区,本郷６丁目２５番１４号,,13,105,1130033,,,,,,,2023-11-07,1,,,,,コトノハエーアイ,0
3,1010001239783,新規,0,2023-11-07,2023-11-07,株式会社まなびコンサルティング,,株式会社,東京都,中央区,銀座１丁目２２番１１号銀座大竹ビジデンス２階,,13,102,1040061,,,,,,,2023-11-07,1,,,,,マナビコンサルティング,0
4,1010001239791,新規,0,2023-11-07,2023-11-07,モミジリーシング株式会社,,株式会社,東京都,千代田区,丸の内１丁目３番２号,,13,101,1000005,,,,,,,2023-11-07,1,,,,,モミジリーシング,0
5,1010001239833,新規,0,2023-11-07,2023-11-07,株式会社ラグーンマネジメント,,株式会社,東京都,千代田区,神田猿楽町１丁目２番２－１００３号,,13,101,1010064,,,,,,,2023-11-07,1,,,,,ラグーンマネジメント,0
6,1010001239866,新規,0,2023-11-07,2023-11-07,ＰＰＰｗｅｂ株式会社,,株式会社,東京都,千代田区,神田和泉町１番地６－１６ヤマトビル４０５,,13,101,1010024,,,,,,,2023-11-07,1,,,,,ピーピーピーウェブ,0
7,1010001239874,新規,0,2023-11-07,2023-11-07,株式会社アルパインデジタルライズ,,株式会社,東京都,千代田区,神田和泉町１番地６－１６ヤマトビル４０５,,13,101,1010024,,,,,,,2023-11-07,1,,,,,アルパインデジタルライズ,0
8,1010001239890,新規,0,2023-11-07,2023-11-07,寿限無キャピタル株式会社,,株式会社,東京都,中央区,銀座６丁目１３番１６号銀座ＷａｌｌビルＵＣＦ５階,,13,102,1040061,,,,,,,2023-11-07,1,,,,,ジュゲムキャピタル,0
12,1010003042104,新規,0,2023-11-07,2023-11-07,合同会社オクト,,合同会社,東京都,中央区,晴海１丁目８番５－２１０７号,,13,102,1040053,,,,,,,2023-11-07,1,,,,,オクト,0
13,1010003042112,新規,0,2023-11-07,2023-11-07,Ｃｏｐｉｌｏｔ合同会社,,合同会社,東京都,千代田区,神田佐久間河岸５５号地朝風染常ビル２階,,13,101,1010026,,,,,,,2023-11-07,1,,,,,コパイロット,0
14,1010003042120,新規,0,2023-11-07,2023-11-07,合同会社Ｓ＆Ｉアカウンティング,,合同会社,東京都,文京区,本郷３丁目３８－１０さかえビル２Ｆ,,13,105,1130033,,,,,,,2023-11-07,1,,,,,エスアンドアイアカウンティング,0
15,1010003042129,新規,0,2023-11-07,2023-11-07,ＰＨＩＫＡ　ＪＡＰＡＮ合同会社,,合同会社,東京都,千代田区,神田佐久間町２丁目１８番地１秋葉原ＳＴＮフロント１０階,,13,101,1010025,,,,,,,2023-11-07,1,,,,,フィカージャパン,0
16,1010003042145,新規,0,2023-11-07,2023-11-07,合同会社ＦＴｇｅｎｅｒａｔｏｒ,,合同会社,東京都,中央区,銀座１丁目１２番４号Ｎ＆ＥＢＬＤ．６Ｆ,,13,102,1040061,,,,,,,2023-11-07,1,,,,,エフティージェネレータ,0
17,1010005037473,新規,0,2023-11-07,2023-11-07,税理士法人アクセス会計事務所,,その他の設立登記法人,東京都,文京区,本駒込５丁目２０番４－２０７号,,13,105,1130021,,,,,,,2023-11-07,1,,,,,アクセスカイケイジムショ,0
19,1010103002239,新規,0,2023-11-07,2023-11-07,合同会社ＴｏＢｅＦｕｔｕｒｅ,,合同会社,東京都,八王子市,七国３丁目５番１７号,,13,201,1920919,,,,,,,2023-11-07,1,,,,,トゥービーフューチャー,0
27,1010401178326,新規,0,2023-11-07,2023-11-07,ウェルテックラボ株式会社,,株式会社,東京都,港区,麻布台３丁目１番６号５Ｆ,,13,103,1060041,,,,,,,2023-11-07,1,,,,,ウェルテックラボ,0
28,1010401178334,新規,0,2023-11-07,2023-11-07,株式会社ＬＵＮＡ　ＣＡＭＥＬ,,株式会社,東京都,港区,愛宕２丁目５番１号愛宕グリーンヒルズＭＯＲＩタワー３４Ｆ,,13,103,1050002,,,,,,,2023-11-07,1,,,,,ルナキャメル,0
30,1010403031301,新規,0,2023-11-07,2023-11-07,合同会社ＢＡＣＫＢＯＮＥ　ＴＥＣＨＮＯＬＯＧＹ,,合同会社,東京都,港区,浜松町２丁目２番１５号浜松町ダイヤビル２階,,13,103,1050013,,,,,,,2023-11-07,1,,,,,バックボーンテクノロジー,0
36,1010701045093,新規,0,2023-11-07,2023-11-07,株式会社Ｂ,,株式会社,東京都,品川区,小山台１丁目２２番１０号－２０４,,13,109,1420061,,,,,,,2023-11-07,1,,,,,ビー,0
38,1010801034491,新規,0,2023-11-07,2023-11-07,株式会社Ｇｒａｎｄｅ　Ｒｉｔａ．,,株式会社,東京都,大田区,蒲田５丁目４１番５号サウンドプルーフ蒲田アネックス１Ｆ,,13,111,1440052,,,,,,,2023-11-07,1,,,,,グランデリタ,0
50,1011001158008,新規,0,2023-11-07,2023-11-07,オーシャン株式会社,,株式会社,東京都,渋谷区,円山町５番４号フィールＡ渋谷５１６,,13,113,1500044,,,,,,,2023-11-07,1,,,,,オーシャン,0
51,1011001158065,新規,0,2023-11-07,2023-11-07,株式会社ＳＡＣＨＩ,,株式会社,東京都,渋谷区,恵比寿１丁目２０番２－２０３号,,13,113,1500013,,,,,,,2023-11-07,1,,,,,サチ,0
52,1011001158073,新規,0,2023-11-07,2023-11-07,株式会社ＯＮＫＡＮ,,株式会社,東京都,渋谷区,恵比寿南２丁目３番１２号ｊｅ１ビル４階,,13,113,1500022,,,,,,,2023-11-07,1,,,,,オンカン,0
53,1011001158115,新規,0,2023-11-07,2023-11-07,株式会社ｄｉｓｈ,,株式会社,東京都,目黒区,上目黒１丁目１６番２号,,13,110,1530051,,,,,,,2023-11-07,1,,,,,ディッシュ,0
55,1011003017839,新規,0,2023-11-07,2023-11-07,ｎａｎａ合同会社,,合同会社,東京都,渋谷区,渋谷２丁目１９－１５宮益坂ビルディング６０９,,13,113,1500002,,,,,,,2023-11-07,1,,,,,ナナ,0
56,1011003017863,新規,0,2023-11-07,2023-11-07,Ｕｔｉｌｉｓ　Ｄｅｓｉｇｎ合同会社,,合同会社,東京都,渋谷区,本町６丁目３７番６号,,13,113,1510071,,,,,,,2023-11-07,1,,,,,ユーティリスデザイン,0
64,1011101105025,新規,0,2023-11-07,2023-11-07,株式会社ニューライフサポート,,株式会社,東京都,新宿区,西新宿２丁目１番１号新宿三井ビルディング３７階,,13,104,1600023,,,,,,,2023-11-07,1,,,,,ニューライフサポート,0
65,1011103013705,新規,0,2023-11-07,2023-11-07,コミタンテ合同会社,,合同会社,東京都,新宿区,西新宿６丁目５番１号新宿アイランドタワー２階,,13,104,1600023,,,,,,,2023-11-07,1,,,,,コミタンテ,0
66,1011401025583,新規,0,2023-11-07,2023-11-07,株式会社ＮＧＣ,,株式会社,東京都,板橋区,南常盤台１丁目２２－９,,13,119,1740072,,,,,,,2023-11-07,1,,,,,エヌジーシー,0
70,1011501029955,新規,0,2023-11-07,2023-11-07,株式会社モアプロ,,株式会社,東京都,北区,赤羽北３丁目２６番１－１３０３号,,13,117,1150052,,,,,,,2023-11-07,1,,,,,モアプロ,0
72,1011601027248,新規,0,2023-11-07,2023-11-07,株式会社Ｔｈｅ　Ｂｅｓｔ　Ｋｉｄ’ｓ　Ｅｎｇｌｉｓｈ,,株式会社,東京都,練馬区,立野町８番６号飯島ビル１階,,13,120,1770054,,,,,,,2023-11-07,1,,,,,ザベストキッズイングリッシュ,0
74,1011603004121,新規,0,2023-11-07,2023-11-07,ａｎｄＴ合同会社,,合同会社,東京都,練馬区,貫井４丁目４７番５９号ヴェレーナ練馬ぬくいの森４０２号,,13,120,1760021,,,,,,,2023-11-07,1,,,,,アンドティー,0
75,1011605002552,新規,0,2023-11-07,2023-11-07,一般社団法人Ｍｕ　Ａｒｔｓ　Ｊａｐａｎ,,その他の設立登記法人,東京都,練馬区,大泉町６丁目１５番５号,,13,120,1780062,,,,,,,2023-11-07,1,,,,,ムーアーツジャパン,0
83,1012301013645,新規,0,2023-11-07,2023-11-07,株式会社ファンハウスネクスト,,株式会社,東京都,町田市,金井ヶ丘４丁目１４番４７号,,13,209,1950076,,,,,,,2023-11-07,1,,,,,ファンハウスネクスト,0
84,1012303001895,新規,0,2023-11-07,2023-11-07,ルプティプレジール合同会社,,合同会社,東京都,町田市,南成瀬１丁目１９番地６,,13,209,1940045,,,,,,,2023-11-07,1,,,,,ルプティプレジール,0
86,1012401041182,新規,0,2023-11-07,2023-11-07,株式会社Ｒａｐｐｏｒｔｏ　Ｐｏｒｔａｒｅ,,株式会社,東京都,多摩市,永山２丁目１番地１－１１０５,,13,224,2060025,,,,,,,2023-11-07,1,,,,,ラッポルトポルターレ,0
89,1012701017931,新規,0,2023-11-07,2023-11-07,株式会社すけさん,,株式会社,東京都,西東京市,富士町４丁目１２番５号東伏見ハイム３０１号室,,13,229,2020014,,,,,,,2023-11-07,1,,,,,スケサン,0
93,1013301051577,新規,0,2023-11-07,2023-11-07,株式会社日本ロックホールディングス,,株式会社,東京都,豊島区,東池袋３丁目２３番１４号,,13,116,1700013,,,,,,,2023-11-07,1,,,,,ロックホールディングス,0
101,1020001154288,新規,0,2023-11-07,2023-11-07,株式会社ナフト電工,,株式会社,神奈川県,横浜市保土ケ谷区,仏向西３０番８号,,14,106,2400046,,,,,,,2023-11-07,1,,,,,ナフトデンコウ,0
102,1020001154296,新規,0,2023-11-07,2023-11-07,株式会社黒田テクノ,,株式会社,神奈川県,川崎市川崎区,京町２丁目２４番７号,,14,131,2100848,,,,,,,2023-11-07,1,,,,,クロダテクノ,0
103,1020001154305,新規,0,2023-11-07,2023-11-07,株式会社Ｐａｒａｔｕｓ,,株式会社,神奈川県,横浜市中区,石川町１丁目１８番地２花こビル１Ｆ,,14,104,2310868,,,,,,,2023-11-07,1,,,,,パラトゥス,0
104,1020001154313,新規,0,2023-11-07,2023-11-07,京浜南商事株式会社,,株式会社,神奈川県,横浜市磯子区,洋光台４丁目９番２０号,,14,107,2350045,,,,,,,2023-11-07,1,,,,,ケイヒンミナミショウジ,0
105,1020001154321,新規,0,2023-11-07,2023-11-07,Ｃｏｌｏｒｆｕｌ株式会社,,株式会社,神奈川県,横浜市中区,桜木町１丁目１－７ヒューリックみなとみらい１０Ｆ,,14,104,2310062,,,,,,,2023-11-07,1,,,,,カラフル,0
106,1020001154346,新規,0,2023-11-07,2023-11-07,株式会社ＡＬＭＡ,,株式会社,神奈川県,川崎市多摩区,登戸１９１９番地,,14,135,2140014,,,,,,,2023-11-07,1,,,,,アルマ,0
107,1020001154370,新規,0,2023-11-07,2023-11-07,株式会社ｆｌａｉｒ．ｃｏｒｐｏｒａｔｉｏｎ,,株式会社,神奈川県,横浜市南区,永田北３丁目２２番２０号,,14,105,2320071,,,,,,,2023-11-07,1,,,,,フレアコーポレーション,0
113,1020003024927,新規,0,2023-11-07,2023-11-07,合同会社ＳＨＩＯＺＡＷＡ,,合同会社,神奈川県,横浜市神奈川区,浦島町３５９番地１クリオ神奈川新町弐番館７０３号,,14,102,2210042,,,,,,,2023-11-07,1,,,,,シオザワ,0
114,1020003024935,新規,0,2023-11-07,2023-11-07,Ｔ・Ｈ合同会社,,合同会社,神奈川県,横浜市神奈川区,栄町２２番地５,,14,102,2210052,,,,,,,2023-11-07,1,,,,,ティエイチ,0
117,1021001080648,新規,0,2023-11-07,2023-11-07,株式会社星野造園,,株式会社,神奈川県,小田原市,板橋９番地の１,,14,206,2500034,,,,,,,2023-11-07,1,,,,,ホシノゾウエン,0
118,1021001080656,新規,0,2023-11-07,2023-11-07,株式会社コバヤシ,,株式会社,神奈川県,藤沢市,善行５丁目１６番８号,,14,205,2510871,,,,,,,2023-11-07,1,,,,,コバヤシ,0
119,1021001080680,新規,0,2023-11-07,2023-11-07,ＣＲＯＳＳ‐ＯＶＥＲ　ＣＡＰＩＴＡＬ株式会社,,株式会社,神奈川県,厚木市,林４丁目１６番５３号ガーネット２０２,,14,212,2430816,,,,,,,2023-11-07,1,,,,,クロスオーバーキャピタル,0
123,1021003013779,新規,0,2023-11-07,2023-11-07,合同会社ｗｅｌｌｂｅ‐ｌｉｎＱｓ,,合同会社,神奈川県,相模原市南区,新磯野１丁目４４番１０－５０１号,,14,153,2520325,,,,,,,2023-11-07,1,,,,,ウェルビーリンクス,0
128,1030001156969,新規,0,2023-11-07,2023-11-07,株式会社サトウ電工,,株式会社,埼玉県,川口市,大字新堀１３０－２,,11,203,3340061,,,,,,,2023-11-07,1,,,,,サトウデンコウ,0
129,1030001156977,新規,0,2023-11-07,2023-11-07,株式会社エム・コーポレーション,,株式会社,埼玉県,川口市,西川口１丁目２７－７,,11,203,3320021,,,,,,,2023-11-07,1,,,,,エムコーポレーション,0
130,1030001156993,新規,0,2023-11-07,2023-11-07,株式会社ジェイ・ピー・メンテナンス,,株式会社,埼玉県,さいたま市緑区,大字下野田５７４番地１,,11,109,3360962,,,,,,,2023-11-07,1,,,,,ジェイピーメンテナンス,0
131,1030001157001,新規,0,2023-11-07,2023-11-07,キングリペア株式会社,,株式会社,埼玉県,志木市,館２丁目７番６号,,11,228,3530006,,,,,,,2023-11-07,1,,,,,キングリペア,0
132,1030001157050,新規,0,2023-11-07,2023-11-07,株式会社Ｔｒｕｍｐ　Ｅｘｐｒｅｓｓ,,株式会社,埼玉県,川口市,芝高木１丁目１４番３０号,,11,203,3330868,,,,,,,2023-11-07,1,,,,,トランプエキスプレス,0
137,1030003022855,新規,0,2023-11-07,2023-11-07,合同会社サハビ,,合同会社,埼玉県,さいたま市浦和区,北浦和３丁目１９番８号,,11,107,3300074,,,,,,,2023-11-07,1,,,,,サハビ,0
143,1040001130799,新規,0,2023-11-07,2023-11-07,株式会社３６９,,株式会社,千葉県,我孫子市,根戸３６９番地,,12,222,2701168,,,,,,,2023-11-07,1,,,,,ミロク,0
144,1040001130808,新規,0,2023-11-07,2023-11-07,株式会社ルーチェ,,株式会社,千葉県,浦安市,高洲４丁目３番１－９０９号プラウド新浦安,,12,227,2790023,,,,,,,2023-11-07,1,,,,,ルーチェ,0
145,1040001130816,新規,0,2023-11-07,2023-11-07,株式会社Ｍコネクション,,株式会社,千葉県,船橋市,前原西２丁目１３番２３号フラッピ津田沼１Ｆ－Ａ,,12,204,2740825,,,,,,,2023-11-07,1,,,,,エムコネクション,0
146,1040001130840,新規,0,2023-11-07,2023-11-07,株式会社ＮＥＢＡＴＥＧＨＥ　ＧＬＯＢＡＬ　ＴＲＡＤＩＮＧ,,株式会社,千葉県,野田市,野田６４８番地の７スカイマンション３０１,,12,208,2780037,,,,,,,2023-11-07,1,,,,,ネバテゲグローバルトレーディング,0
150,1040003023654,新規,0,2023-11-07,2023-11-07,ＰＡＲＩＳ　ＡＵＴＯ　ＭＡＲＴ合同会社,,合同会社,千葉県,山武郡芝山町,高田１１８０番地３,,12,409,2891623,,,,,,,2023-11-07,1,,,,,パリスオートマート,0
152,1060001036532,新規,0,2023-11-07,2023-11-07,株式会社ＡＬＥＸ　ＧＡＲＡＧＥ,,株式会社,栃木県,宇都宮市,鶴田町３４９３番地２０５,,09,201,3200851,,,,,,,2023-11-07,1,,,,,アレックスガレージ,0
154,1060003004784,新規,0,2023-11-07,2023-11-07,ライトハウス合同会社,,合同会社,栃木県,宇都宮市,上横田町７０３番地５,,09,201,3210106,,,,,,,2023-11-07,1,,,,,ライトハウス,0
155,1060005010153,新規,0,2023-11-07,2023-11-07,行政書士法人リベルタス,,その他の設立登記法人,栃木県,小山市,大字間々田８００番地１１,,09,208,3290205,,,,,,,2023-11-07,1,,,,,リベルタス,0
158,1070001041060,新規,0,2023-11-07,2023-11-07,株式会社ＡＩ‐ＧＬＡＳＳ,,株式会社,群馬県,館林市,大街道１丁目５番１４号オリエンタルハイツＡ２０５,,10,207,3740066,,,,,,,2023-11-07,1,,,,,アイグラス,0
161,1080101024311,新規,0,2023-11-07,2023-11-07,株式会社ｍｉｋｏｔｏ,,株式会社,静岡県,富士市,平垣１０９番地の５アロマガーデンＧ号,,22,210,4160916,,,,,,,2023-11-07,1,,,,,ミコト,0
169,1090003002422,新規,0,2023-11-07,2023-11-07,合同会社クラウドデザイン研究所,,合同会社,山梨県,北杜市,小淵沢町３５０７番地２,,19,209,4080044,,,,,,,2023-11-07,1,,,,,クラウドデザインケンキュウジョ,0
185,1120001259531,新規,0,2023-11-07,2023-11-07,株式会社ＴＥＺＴＥＣ,,株式会社,大阪府,大阪市東淀川区,西淡路１丁目１－３２新大阪アーズビル４０２号室,,27,114,5330031,,,,,,,2023-11-07,1,,,,,テズテック,0
186,1120001259556,新規,0,2023-11-07,2023-11-07,株式会社Ｔ．Ｆ　ｃｏｒｐｏｒａｔｉｏｎ,,株式会社,大阪府,大阪市阿倍野区,天王寺町南２丁目１３番２号ＣＩＥＬＯＡＺＵＬ１０２号,,27,119,5450002,,,,,,,2023-11-07,1,,,,,ティーエフコーポレイション,0
187,1120001259630,新規,0,2023-11-07,2023-11-07,株式会社浦島,,株式会社,大阪府,大阪市港区,弁天５丁目６番２５号,,27,107,5520007,,,,,,,2023-11-07,1,,,,,ウラシマ,0
188,1120001259647,新規,0,2023-11-07,2023-11-07,エイエムプランニング株式会社,,株式会社,大阪府,枚方市,桜町５番１８号センチュリーひらかた１階,,27,210,5730056,,,,,,,2023-11-07,1,,,,,エイエムプランニング,0
189,1120001259663,新規,0,2023-11-07,2023-11-07,ＴＲＹＲＥＸＴ株式会社,,株式会社,大阪府,交野市,郡津４丁目３７番１２号１０５号室,,27,230,5760053,,,,,,,2023-11-07,1,,,,,トライレクスト,0
192,1120005023974,新規,0,2023-11-07,2023-11-07,特定非営利活動法人日本時計学技術研究会,,その他の設立登記法人,大阪府,大阪市阿倍野区,昭和町４丁目５番１２号,,27,119,5450011,,,,,,,2023-11-07,1,,,,,ニホントケイガクギジュツケンキュウカイ,0
196,1120101068469,新規,0,2023-11-07,2023-11-07,株式会社ＭＡＸ　ＰＬＵＳ,,株式会社,大阪府,堺市東区,草尾１５４番地２６,,27,143,5998127,,,,,,,2023-11-07,1,,,,,マックスプラス,0
197,1120901048323,新規,0,2023-11-07,2023-11-07,株式会社サイバーエデュケーション,,株式会社,大阪府,豊中市,緑丘４丁目１番３０号,,27,203,5600002,,,,,,,2023-11-07,1,,,,,サイバーエデュケーション,0
210,1140003019733,新規,0,2023-11-07,2023-11-07,合同会社カプラス,,合同会社,兵庫県,神戸市北区,南五葉４丁目６番３２号,,28,109,6511132,,,,,,,2023-11-07,1,,,,,カプラス,0
214,1150001026862,新規,0,2023-11-07,2023-11-07,株式会社ＣＲＡＦＴ,,株式会社,奈良県,御所市,大広町２９４番地の１,,29,208,6392304,,,,,,,2023-11-07,1,,,,,クラフト,0
215,1160001025467,新規,0,2023-11-07,2023-11-07,ＥＬＩＡＮＴＯ株式会社,,株式会社,滋賀県,湖南市,岩根中央３丁目１８番地,,25,211,5203254,,,,,,,2023-11-07,1,,,,,エリアント,0
216,1160001025475,新規,0,2023-11-07,2023-11-07,株式会社ＴＩＭＥ　ＨＹＰＥ,,株式会社,滋賀県,愛知郡愛荘町,沖４５０番地１,,25,425,5291213,,,,,,,2023-11-07,1,,,,,タイムハイプ,0
217,1160001025483,新規,0,2023-11-07,2023-11-07,株式会社ｓｉｎｃｅｒｅｌｙ,,株式会社,滋賀県,草津市,西渋川２丁目６番７１号,,25,206,5250025,,,,,,,2023-11-07,1,,,,,シンシアリー,0
218,1160001025491,新規,0,2023-11-07,2023-11-07,株式会社想造技研,,株式会社,滋賀県,大津市,中庄１丁目１９番１２－１３０１号,,25,201,5200837,,,,,,,2023-11-07,1,,,,,ソウゾウギケン,0
224,1180001158777,新規,0,2023-11-07,2023-11-07,Ｋストライブ株式会社,,株式会社,愛知県,知多市,八幡新町３丁目１５番地の２６,,23,224,4780052,,,,,,,2023-11-07,1,,,,,ケイストライブ,0
225,1180001158785,新規,0,2023-11-07,2023-11-07,株式会社ＯＦＦＩＣＥ　ＷＡＴＡＮＡＢＥ,,株式会社,愛知県,名古屋市千種区,観月町２丁目６２番地２,,23,101,4640831,,,,,,,2023-11-07,1,,,,,オフィスワタナベ,0
226,1180001158802,新規,0,2023-11-07,2023-11-07,株式会社ｔ．ａ．ｃ,,株式会社,愛知県,名古屋市北区,志賀町１丁目５０番地,,23,103,4620037,,,,,,,2023-11-07,1,,,,,ティーエーシー,0
227,1180001158851,新規,0,2023-11-07,2023-11-07,株式会社優美スタイル,,株式会社,愛知県,名古屋市北区,楠４丁目２２０番地の２,,23,103,4620012,,,,,,,2023-11-07,1,,,,,ユウビスタイル,0
230,1180003025950,新規,0,2023-11-07,2023-11-07,合同会社エスカンパニー,,合同会社,愛知県,小牧市,城山１丁目６番地６,,23,219,4850812,,,,,,,2023-11-07,1,,,,,エスカンパニー,0
237,1190001030860,新規,0,2023-11-07,2023-11-07,株式会社ＨＨＢ,,株式会社,三重県,四日市市,生桑町４５５番地１,,24,202,5120911,,,,,,,2023-11-07,1,,,,,エイチエイチビー,0
246,1200001041880,新規,0,2023-11-07,2023-11-07,株式会社Ｄｒｅａｍｉｓｔ,,株式会社,岐阜県,安八郡神戸町,大字神戸１１番地の２２,,21,381,5032305,,,,,,,2023-11-07,1,,,,,ドリーミスト,0
250,1220001025667,新規,0,2023-11-07,2023-11-07,株式会社Ａｍｂｉｔｉｏｕｓ．Ｗ,,株式会社,石川県,小松市,浮柳町リ３４番地１,,17,203,9230993,,,,,,,2023-11-07,1,,,,,アンビシャスダブル,0
254,1230001020089,新規,0,2023-11-07,2023-11-07,株式会社ランドコーポレーション,,株式会社,富山県,高岡市,川原本町６番９号,,16,202,9330943,,,,,,,2023-11-07,1,,,,,ランドコーポレーション,0
258,1240001062378,新規,0,2023-11-07,2023-11-07,Ｇｕｎｚｏ株式会社,,株式会社,広島県,広島市東区,戸坂出江２丁目２番１８－３０２号,,34,102,7320016,,,,,,,2023-11-07,1,,,,,グンゾー,0
262,1250001020384,新規,0,2023-11-07,2023-11-07,ＯＲＴＨＯＨＥＡＲＴ株式会社,,株式会社,山口県,下関市,一の宮町２丁目６番７号,,35,201,7510806,,,,,,,2023-11-07,1,,,,,オルソハート,0
268,1260003004491,新規,0,2023-11-07,2023-11-07,合同会社ＡＬＩ　ＳＨＯＫＡＩ,,合同会社,岡山県,赤磐市,町苅田２９７番地,,33,213,7012222,,,,,,,2023-11-07,1,,,,,アリショーカイ,0
270,1280001009061,新規,0,2023-11-07,2023-11-07,株式会社オビラボ,,株式会社,島根県,松江市,北陵町１番地テクノアークしまねインキュベーションルームＮｏ．１１,,32,201,6900816,,,,,,,2023-11-07,1,,,,,オビラボ,0
277,1290001103607,新規,0,2023-11-07,2023-11-07,株式会社リンク,,株式会社,福岡県,福岡市早良区,昭代２丁目１５番１－５０３号,,40,137,8140012,,,,,,,2023-11-07,1,,,,,リンク,0
278,1290001103631,新規,0,2023-11-07,2023-11-07,株式会社光伸,,株式会社,福岡県,大野城市,上大利５丁目３番５－４０２号,,40,219,8160955,,,,,,,2023-11-07,1,,,,,コウシン,0
280,1290003014570,新規,0,2023-11-07,2023-11-07,合同会社ネクストワーク,,合同会社,福岡県,福岡市中央区,西中洲１２－１０－６０１,,40,133,8100002,,,,,,,2023-11-07,1,,,,,ネクストワーク,0
293,1330001031431,新規,0,2023-11-07,2023-11-07,株式会社ＮＡＧＯＭＩ,,株式会社,熊本県,天草市,亀場町亀川８５２番地,,43,215,8630043,,,,,,,2023-11-07,1,,,,,ナゴミ,0
294,1330001031448,新規,0,2023-11-07,2023-11-07,株式会社久,,株式会社,熊本県,阿蘇郡南阿蘇村,大字久石６０６番地,,43,433,8691412,,,,,,,2023-11-07,1,,,,,ヒサ,0
299,1360001032773,新規,0,2023-11-07,2023-11-07,株式会社グリーンウェル国頭,,株式会社,沖縄県,国頭郡国頭村,字辺土名１４５８番地２コーポよぎ１０６号室,,47,301,9051411,,,,,,,2023-11-07,1,,,,,グリーンウェルクニガミ,0
300,1360001032781,新規,0,2023-11-07,2023-11-07,株式会社大成商事,,株式会社,沖縄県,那覇市,首里桃原町１丁目１番地,,47,201,9030822,,,,,,,2023-11-07,1,,,,,タイセイショウジ,0
311,1410001013636,新規,0,2023-11-07,2023-11-07,株式会社新成機工,,株式会社,秋田県,由利本荘市,二十六木字上鎌田野４１番地１,,05,210,0150061,,,,,,,2023-11-07,1,,,,,シンセイキコウ,0
315,1420001018477,新規,0,2023-11-07,2023-11-07,株式会社Ｓｔａｒｔ　Ｕｐ,,株式会社,青森県,南津軽郡藤崎町,大字榊字亀田２番地５０,00132536,02,361,0381216,,,,,,,2023-11-07,1,,,,,スタートアップ,0
348,2010001239551,新規,0,2023-11-07,2023-11-07,新日本警備保障株式会社,,株式会社,東京都,千代田区,神田和泉町１－１３－１１和泉町中央ビル３階,,13,101,1010024,,,,,,,2023-11-07,1,,,,,シンニホンケイビホショウ,0
349,2010001239675,新規,0,2023-11-07,2023-11-07,株式会社希翔,,株式会社,東京都,千代田区,神田三崎町３丁目３番３号太陽ビル４０４号,,13,101,1010061,,,,,,,2023-11-07,1,,,,,キショウ,0
350,2010001239717,新規,0,2023-11-07,2023-11-07,千鳥ヶ淵ＦＡＳ株式会社,,株式会社,東京都,千代田区,三番町５－１４,,13,101,1020075,,,,,,,2023-11-07,1,,,,,チドリガフチファス,0
351,2010001239782,新規,0,2023-11-07,2023-11-07,霞ヶ関マネジメントソリューションズ株式会社,,株式会社,東京都,千代田区,霞が関３丁目２番１号,,13,101,1000013,,,,,,,2023-11-07,1,,,,,カスミガセキマネジメントソリューションズ,0
352,2010001239790,新規,0,2023-11-07,2023-11-07,アオイリーシング株式会社,,株式会社,東京都,千代田区,丸の内１丁目３番２号,,13,101,1000005,,,,,,,2023-11-07,1,,,,,アオイリーシング,0
353,2010001239816,新規,0,2023-11-07,2023-11-07,Ｍｅｌｃｏ自動車機器事業分割準備株式会社,,株式会社,東京都,千代田区,丸の内２丁目７番３号,,13,101,1000005,,,,,,,2023-11-07,1,,,,,メルコジドウシャキキジギョウブンカツジュンビ,0
354,2010001239832,新規,0,2023-11-07,2023-11-07,株式会社ＭＨコーポレーション,,株式会社,東京都,中央区,日本橋箱崎町３２番３号秀和日本橋レジデンス５０５,,13,102,1030015,,,,,,,2023-11-07,1,,,,,エムエッチコーポレーション,0
355,2010001239840,新規,0,2023-11-07,2023-11-07,女性自立支援機構ＳｔａｒＶｉｃｉｎｏ株式会社,,株式会社,東京都,中央区,銀座１丁目１２－４Ｎ＆ＥＢＬＤ．７階,,13,102,1040061,,,,,,,2023-11-07,1,,,,,ジョセイジリツシエンキコウスタールヴィチーノ,0
356,2010001239865,新規,0,2023-11-07,2023-11-07,日本鳴謙株式会社,,株式会社,東京都,千代田区,佐久間町三丁目２８番地星野ビル５２２,,13,101,1000000,,,,,,,2023-11-07,1,,,,,ニホンメイケン,0
357,2010001239873,新規,0,2023-11-07,2023-11-07,株式会社セコネ,,株式会社,東京都,中央区,日本橋室町１丁目１１番１２号日本橋水野ビル７階,,13,102,1030022,,,,,,,2023-11-07,1,,,,,セコネ,0
375,2010401178110,新規,0,2023-11-07,2023-11-07,株式会社みずしろｄｅｎｓ,,株式会社,東京都,港区,北青山１丁目３番１号アールキューブ青山３階,,13,103,1070061,,,,,,,2023-11-07,1,,,,,ミズシロデンス,0
376,2010401178317,新規,0,2023-11-07,2023-11-07,株式会社ＫＤＹ,,株式会社,東京都,港区,南青山３丁目１５番１５号,,13,103,1070062,,,,,,,2023-11-07,1,,,,,ケイディワイ,0
377,2010401178333,新規,0,2023-11-07,2023-11-07,ウテナテクノロジーズ株式会社,,株式会社,東京都,港区,愛宕２丁目５番１号愛宕グリーンヒルズＭＯＲＩタワー３４Ｆ,,13,103,1050002,,,,,,,2023-11-07,1,,,,,ウテナテクノロジーズ,0
378,2010401178358,新規,0,2023-11-07,2023-11-07,株式会社ＴＲＩＤＥＮ,,株式会社,東京都,港区,南青山１丁目１４番７号ＢＥＬＬＥＭＡＩＳＯＮ２０２,,13,103,1070062,,,,,,,2023-11-07,1,,,,,トライデン,0
379,2010401178390,新規,0,2023-11-07,2023-11-07,大永投資株式会社,,株式会社,東京都,港区,西麻布４丁目５番１０－１９０４号,,13,103,1060031,,,,,,,2023-11-07,1,,,,,ダイエイトウシ,0
381,2010403031300,新規,0,2023-11-07,2023-11-07,Ｂｒｉｇｈｔ　Ｗｏｒｋｓ合同会社,,合同会社,東京都,港区,北青山１丁目３番１号アールキューブ青山３階,,13,103,1070061,,,,,,,2023-11-07,1,,,,,ブライトワークス,0
382,2010403031317,新規,0,2023-11-07,2023-11-07,黒崎まちづくり合同会社,,合同会社,東京都,港区,赤坂１丁目１２番３２号アーク森ビル２４階,,13,103,1070052,,,,,,,2023-11-07,1,,,,,クロサキマチヅクリ,0
383,2010405022644,新規,0,2023-11-07,2023-11-07,ＳＡＯ税理士法人,,その他の設立登記法人,東京都,港区,赤坂２丁目１４番５号Ｄａｉｗａ赤坂ビル７階,,13,103,1070052,,,,,,,2023-11-07,1,,,,,エスエーオー,0
384,2010405022652,新規,0,2023-11-07,2023-11-07,社会保険労務士法人ダヴィンチ,,その他の設立登記法人,東京都,港区,西新橋１丁目２０番３号虎ノ門法曹ビル３０４号,,13,103,1050003,,,,,,,2023-11-07,1,,,,,ダヴィンチ,0
388,2010501051308,新規,0,2023-11-07,2023-11-07,森不動産株式会社,,株式会社,東京都,台東区,東浅草１丁目１３－１,,13,106,1110025,,,,,,,2023-11-07,1,,,,,モリフドウサン,0
393,2010703006935,新規,0,2023-11-07,2023-11-07,合同会社ｏｍｏｉ,,合同会社,東京都,品川区,大井４丁目１７－１３－２０１,,13,109,1400014,,,,,,,2023-11-07,1,,,,,オモイ,0
398,2010901054141,新規,0,2023-11-07,2023-11-07,株式会社Ｅｒｆｏｌｇ,,株式会社,東京都,世田谷区,野毛２丁目２９番６号綴マンション１０６,,13,112,1580092,,,,,,,2023-11-07,1,,,,,エアフォルク,0
401,2010903008566,新規,0,2023-11-07,2023-11-07,合同会社ネオアセット,,合同会社,東京都,世田谷区,赤堤２丁目２４番５号,,13,112,1560044,,,,,,,2023-11-07,1,,,,,ネオアセット,0
403,2011001158048,新規,0,2023-11-07,2023-11-07,株式会社ＴＦＰ,,株式会社,東京都,渋谷区,代々木５丁目５４番８号,,13,113,1510053,,,,,,,2023-11-07,1,,,,,ティーエフピー,0
404,2011001158106,新規,0,2023-11-07,2023-11-07,ファニング株式会社,,株式会社,東京都,渋谷区,恵比寿西２丁目４番８号,,13,113,1500021,,,,,,,2023-11-07,1,,,,,ファニング,0
405,2011003017879,新規,0,2023-11-07,2023-11-07,中辻正明・都市建築研究室合同会社,00132533,合同会社,東京都,渋谷区,恵比寿西１丁目３番５－６０１号,,13,113,1500021,,,,,,,2023-11-07,1,,,,,ナカツジマサアキトシケンチクケンキュウシツ,0
411,2011101105049,新規,0,2023-11-07,2023-11-07,ＴＫキャピタル株式会社,,株式会社,東京都,新宿区,西新宿８丁目１７－２－３７０５,,13,104,1600023,,,,,,,2023-11-07,1,,,,,ティーケーキャピタル,0
412,2011103013704,新規,0,2023-11-07,2023-11-07,合同会社ピリオド,,合同会社,東京都,新宿区,北新宿２丁目２番１４号,,13,104,1690074,,,,,,,2023-11-07,1,,,,,ピリオド,0
417,2011401025590,新規,0,2023-11-07,2023-11-07,株式会社ユニティデザインワークス,,株式会社,東京都,板橋区,前野町６丁目２８番６号,,13,119,1740063,,,,,,,2023-11-07,1,,,,,,0
421,2011501029962,新規,0,2023-11-07,2023-11-07,アダシ株式会社,,株式会社,東京都,荒川区,西日暮里２丁目１８番２－９Ｆ,,13,118,1160013,,,,,,,2023-11-07,1,,,,,アダシ,0
423,2011605002551,新規,0,2023-11-07,2023-11-07,税理士法人Ｇｏｏｄ　ＯＮＥ,,その他の設立登記法人,東京都,練馬区,豊玉上２丁目２１番１３号第３桜台ファミリーマンション６０４,,13,120,1760011,,,,,,,2023-11-07,1,,,,,グッドワン,0
428,2011801043291,新規,0,2023-11-07,2023-11-07,株式会社あらたに,,株式会社,東京都,葛飾区,堀切５丁目５０番１号,,13,122,1240006,,,,,,,2023-11-07,1,,,,,アラタニ,0
433,2012403006257,新規,0,2023-11-07,2023-11-07,合同会社Ｂｏｄｙ　ｃｈａｒｇｅ,,合同会社,東京都,府中市,府中町２丁目３番地の６,,13,206,1830055,,,,,,,2023-11-07,1,,,,,ボディチャージ,0
434,2012701017930,新規,0,2023-11-07,2023-11-07,株式会社ＩＷＡＩ,,株式会社,東京都,東久留米市,下里６丁目２番６号,,13,222,2030043,,,,,,,2023-11-07,1,,,,,イワイ,0
436,2012705002375,新規,0,2023-11-07,2023-11-07,特定非営利活動法人小平井戸の会,,その他の設立登記法人,東京都,小平市,花小金井南町３丁目２番１１号,,13,211,1870003,,,,,,,2023-11-07,1,,,,,コダイライドノカイ,0
440,2013301051576,新規,0,2023-11-07,2023-11-07,株式会社ＳＭＣ　ｃｒｅａｔｉｏｎ,,株式会社,東京都,豊島区,池袋２丁目１８番２号光洋ビル２階,,13,116,1710014,,,,,,,2023-11-07,1,,,,,エスエムシークリエイション,0
447,2020001154254,新規,0,2023-11-07,2023-11-07,東生商事株式会社,,株式会社,神奈川県,横浜市旭区,鶴ケ峰１丁目３３番１８ホーユウコンフォルト鶴ヶ峰１０１,,14,112,2410022,,,,,,,2023-11-07,1,,,,,トウショウショウジ,0
448,2020001154270,新規,0,2023-11-07,2023-11-07,株式会社ジェイソン,,株式会社,神奈川県,横浜市港北区,新横浜２丁目５－１４ＷｉｓｅＮｅｘｔ新横浜３階,,14,109,2220033,,,,,,,2023-11-07,1,,,,,ジェイソン,0
449,2020001154287,新規,0,2023-11-07,2023-11-07,株式会社エーエフティー,,株式会社,神奈川県,横浜市西区,みなとみらい４丁目４－２横浜ブルーアベニュー１２階,,14,103,2200012,,,,,,,2023-11-07,1,,,,,エーエフティー,0
450,2020001154304,新規,0,2023-11-07,2023-11-07,株式会社イトケン,,株式会社,神奈川県,横浜市磯子区,中原２丁目５番９号住田荘１０１,,14,107,2350036,,,,,,,2023-11-07,1,,,,,イトケン,0
451,2020001154312,新規,0,2023-11-07,2023-11-07,株式会社Ｚ内装設計事務所,,株式会社,神奈川県,横浜市神奈川区,鶴屋町２丁目９番２２号,,14,102,2210835,,,,,,,2023-11-07,1,,,,,ゼットナイソウセッケイジムショ,0
452,2020001154329,新規,0,2023-11-07,2023-11-07,聖ホールディングス株式会社,,株式会社,神奈川県,横浜市旭区,川島町１９７８番地ロワール泉３０１,,14,112,2410011,,,,,,,2023-11-07,1,,,,,セントホールディングス,0
453,2020001154337,新規,0,2023-11-07,2023-11-07,ＡＲＥＮＡＴＯ株式会社,,株式会社,神奈川県,横浜市南区,日枝町１丁目３６番地３シャトーデＹＭイセザキ,,14,105,2320011,,,,,,,2023-11-07,1,,,,,アレナート,0
454,2020001154345,新規,0,2023-11-07,2023-11-07,株式会社ＳＥＹ,,株式会社,神奈川県,横浜市泉区,和泉町１３８５番地３,,14,116,2450016,,,,,,,2023-11-07,1,,,,,エスイーワイ,0
455,2020001154353,新規,0,2023-11-07,2023-11-07,株式会社共栄,,株式会社,神奈川県,横浜市鶴見区,駒岡２丁目１０番６号,,14,101,2300071,,,,,,,2023-11-07,1,,,,,キョウエイ,0
460,2020003024918,新規,0,2023-11-07,2023-11-07,合同会社愉家居,,合同会社,神奈川県,横浜市青葉区,あざみ野南３丁目１７番地１７,,14,117,2250012,,,,,,,2023-11-07,1,,,,,ユカイ,0
461,2020003024926,新規,0,2023-11-07,2023-11-07,合同会社リウェル,,合同会社,神奈川県,横浜市金沢区,柳町２９番地の３０,,14,108,2360026,,,,,,,2023-11-07,1,,,,,リウェル,0
462,2020003024934,新規,0,2023-11-07,2023-11-07,合同会社リベルタ,,合同会社,神奈川県,横浜市中区,本郷町３丁目１５３番地１７,,14,104,2310843,,,,,,,2023-11-07,1,,,,,リベルタ,0
463,2020003024942,新規,0,2023-11-07,2023-11-07,ＬＥＯ　Ｔｅｃｈ．合同会社,,合同会社,神奈川県,横浜市都筑区,中川５丁目３１番３９号ブライトハウスＡ棟１号室,,14,118,2240001,,,,,,,2023-11-07,1,,,,,レオテック,0
468,2021001080655,新規,0,2023-11-07,2023-11-07,株式会社ユーミー保険フロンティア,,株式会社,神奈川県,藤沢市,藤沢２２３番地の２,,14,205,2510052,,,,,,,2023-11-07,1,,,,,ユーミーホケンフロンティア,0
469,2021001080663,新規,0,2023-11-07,2023-11-07,株式会社未来,,株式会社,神奈川県,相模原市南区,下溝４５５番地座間荘Ａ－２０７,,14,153,2520335,,,,,,,2023-11-07,1,,,,,ミライ,0
470,2021001080671,新規,0,2023-11-07,2023-11-07,株式会社じゃないよ,,株式会社,神奈川県,相模原市中央区,相模原２丁目２番１５号プレジデントビル地下１階,,14,152,2520231,,,,,,,2023-11-07,1,,,,,ジャナイヨ,0
475,2021003013761,新規,0,2023-11-07,2023-11-07,Ｍａｒｉｎ企画合同会社,,合同会社,神奈川県,藤沢市,鵠沼神明５丁目１３番１０号,,14,205,2510021,,,,,,,2023-11-07,1,,,,,マリンキカク,0
477,2021005012927,新規,0,2023-11-07,2023-11-07,一般社団法人サイバーリサーチコンソーシアム,,その他の設立登記法人,神奈川県,横須賀市,光の丘８番３号,,14,201,2390847,,,,,,,2023-11-07,1,,,,,サイバーリサーチコンソーシアム,0
482,2030001156968,新規,0,2023-11-07,2023-11-07,株式会社電政,,株式会社,埼玉県,三郷市,彦成３丁目８５番地２,,11,237,3410003,,,,,,,2023-11-07,1,,,,,デンショウ,0
483,2030001156976,新規,0,2023-11-07,2023-11-07,株式会社プロリンクキャリアデザイン,,株式会社,埼玉県,ふじみ野市,中福岡２０８番地７,,11,245,3560013,,,,,,,2023-11-07,1,,,,,プロリンクキャリアデザイン,0
493,2040001130807,新規,0,2023-11-07,2023-11-07,株式会社ボイスチャージ,,株式会社,千葉県,木更津市,瓜倉８４５番地１,,12,206,2920007,,,,,,,2023-11-07,1,,,,,ボイスチャージ,0
494,2040001130815,新規,0,2023-11-07,2023-11-07,株式会社ライトニング,,株式会社,千葉県,市原市,ちはら台西２丁目１０番地１４,,12,219,2900143,,,,,,,2023-11-07,1,,,,,ライトニング,0
495,2040001130848,新規,0,2023-11-07,2023-11-07,株式会社巧美,,株式会社,千葉県,市川市,堀之内３丁目３２番１２号,,12,203,2720837,,,,,,,2023-11-07,1,,,,,タクミ,0
496,2040003023678,新規,0,2023-11-07,2023-11-07,合同会社ＫＲＡＰＨＴ,,合同会社,千葉県,船橋市,湊町３丁目１３番６号ルナコーポ１０１号,,12,204,2730011,,,,,,,2023-11-07,1,,,,,クラフト,0
499,2050001053783,新規,0,2023-11-07,2023-11-07,株式会社ＳＢＫ,,株式会社,茨城県,鹿嶋市,大字平井２番地１１１,,08,222,3140012,,,,,,,2023-11-07,1,,,,,エスビーケー,0
500,2060001036523,新規,0,2023-11-07,2023-11-07,株式会社Ｄｅ　Ｗｏｒｋｓ,,株式会社,栃木県,下都賀郡野木町,大字若林７０番地５,,09,364,3290103,,,,,,,2023-11-07,1,,,,,ディーワークス,0
501,2060001036531,新規,0,2023-11-07,2023-11-07,株式会社ねこの杜,,株式会社,栃木県,足利市,山川町９０番地６,,09,202,3260021,,,,,,,2023-11-07,1,,,,,ネコノモリ,0
504,2070003005161,新規,0,2023-11-07,2023-11-07,合同会社ＮＯＭＩＮＳ,,合同会社,群馬県,利根郡みなかみ町,政所８６番地６,,10,449,3791307,,,,,,,2023-11-07,1,,,,,,0
508,2080101024310,新規,0,2023-11-07,2023-11-07,株式会社インテリア一村,,株式会社,静岡県,熱海市,青葉町２３番３号,,22,205,4130041,,,,,,,2023-11-07,1,,,,,インテリアイチムラ,0
518,2100003007253,新規,0,2023-11-07,2023-11-07,合同会社クレーキーＪＰ,,合同会社,長野県,上高井郡小布施町,大字福原２２０番６７,,20,541,3810202,,,,,,,2023-11-07,1,,,,,クレーキージェイピー,0
532,2120001259522,新規,0,2023-11-07,2023-11-07,明哲株式会社,,株式会社,大阪府,大阪市大正区,小林東２丁目９－５－４０５,,27,108,5510011,,,,,,,2023-11-07,1,,,,,メイテス,0
533,2120001259530,新規,0,2023-11-07,2023-11-07,一馬株式会社,,株式会社,大阪府,大阪市西成区,天下茶屋２丁目６番６－４０３号,,27,122,5570014,,,,,,,2023-11-07,1,,,,,イーマー,0
534,2120001259547,新規,0,2023-11-07,2023-11-07,株式会社ＦＡＴ,,株式会社,大阪府,大阪市西区,南堀江１丁目１１番１号三共四ツ橋ビル８階,,27,106,5500015,,,,,,,2023-11-07,1,,,,,ファット,0
535,2120001259555,新規,0,2023-11-07,2023-11-07,株式会社６,,株式会社,大阪府,大阪市浪速区,元町１丁目５番７号ナンバプラザビル７０８号,,27,111,5560016,,,,,,,2023-11-07,1,,,,,ロク,0
536,2120001259613,新規,0,2023-11-07,2023-11-07,株式会社アキアンヌ,,株式会社,大阪府,大阪市福島区,福島５丁目１２－２１,,27,103,5530003,,,,,,,2023-11-07,1,,,,,アキアンヌ,0
537,2120001259646,新規,0,2023-11-07,2023-11-07,株式会社ＳＨＩＣＨＩ,,株式会社,大阪府,大阪市都島区,都島中通３丁目１３－７,,27,102,5340022,,,,,,,2023-11-07,1,,,,,シチ,0
538,2120001259654,新規,0,2023-11-07,2023-11-07,株式会社延田キャピタル,,株式会社,大阪府,大阪市中央区,心斎橋筋２丁目１番６号,,27,128,5420085,,,,,,,2023-11-07,1,,,,,ノブタキャピタル,0
539,2120001259679,新規,0,2023-11-07,2023-11-07,山水株式会社,,株式会社,大阪府,大阪市浪速区,大国１丁目３－８ロイヤルプラザ大国７０５号,,27,111,5560014,,,,,,,2023-11-07,1,,,,,サンスイ,0
546,2120101068476,新規,0,2023-11-07,2023-11-07,株式会社リンク,,株式会社,大阪府,貝塚市,小瀬５５０番地１クリスタルＩ１０３号,00132537,27,208,5970021,,,,,,,2023-11-07,1,,,,,リンク,0
547,2120901048322,新規,0,2023-11-07,2023-11-07,株式会社アール・エイチ,,株式会社,大阪府,豊中市,上新田２丁目２４番１－１２２号,,27,203,5600085,,,,,,,2023-11-07,1,,,,,アールエイチ,0
548,2120901048330,新規,0,2023-11-07,2023-11-07,株式会社Ｇｒｏｗ　Ｕｐ,,株式会社,大阪府,吹田市,南吹田５丁目２９番１８号第二田辺ビル,,27,205,5640043,,,,,,,2023-11-07,1,,,,,グローアップ,0
555,2130003009131,新規,0,2023-11-07,2023-11-07,合同会社京南ホーム,,合同会社,京都府,京都市南区,上鳥羽南唐戸町５番地,,26,107,6018107,,,,,,,2023-11-07,1,,,,,キョウナンホーム,0
560,2140001132198,新規,0,2023-11-07,2023-11-07,株式会社ＨＡＢＩＢＩ　ＨＡＹＡＴ,,株式会社,兵庫県,神戸市中央区,琴ノ緒町１丁目４番１号三木マンション２Ｆ,,28,110,6510094,,,,,,,2023-11-07,1,,,,,ハビビハヤット,0
561,2140005026792,新規,0,2023-11-07,2023-11-07,一般社団法人ｚｕｔｔｏ,,その他の設立登記法人,兵庫県,たつの市,揖西町中垣内甲１４７１番地６９,,28,229,6794002,,,,,,,2023-11-07,1,,,,,ズット,0
562,2150001026861,新規,0,2023-11-07,2023-11-07,株式会社幸貴,,株式会社,奈良県,奈良市,十輪院町２番地,,29,201,6308312,,,,,,,2023-11-07,1,,,,,コウキ,0
564,2160001025466,新規,0,2023-11-07,2023-11-07,株式会社オフィス神野,,株式会社,滋賀県,愛知郡愛荘町,安孫子８３０番地１,,25,425,5291234,,,,,,,2023-11-07,1,,,,,オフィスカミノ,0
565,2160001025474,新規,0,2023-11-07,2023-11-07,株式会社信設備,,株式会社,滋賀県,野洲市,乙窪４５６番地１０,,25,210,5202435,,,,,,,2023-11-07,1,,,,,シンセツビ,0
566,2160001025482,新規,0,2023-11-07,2023-11-07,株式会社幸道,,株式会社,滋賀県,近江八幡市,桜宮町２１２番地４,,25,204,5230893,,,,,,,2023-11-07,1,,,,,コウドウ,0
567,2160001025490,新規,0,2023-11-07,2023-11-07,株式会社ＷＩＣＥＬエレクトロリビング,,株式会社,滋賀県,大津市,別保３丁目８番８号,,25,201,5200835,,,,,,,2023-11-07,1,,,,,ウィセルエレクトロリビング,0
569,2170001017875,新規,0,2023-11-07,2023-11-07,株式会社ＷＡ,,株式会社,和歌山県,和歌山市,内原８６７番地,,30,201,6410013,,,,,,,2023-11-07,1,,,,,ダブルエー,0
576,2180001158818,新規,0,2023-11-07,2023-11-07,株式会社芽ぐむ,,株式会社,愛知県,稲沢市,駅前１丁目１３番１２号,,23,220,4928143,,,,,,,2023-11-07,1,,,,,メグム,0
577,2180001158826,新規,0,2023-11-07,2023-11-07,株式会社ＭＧＲ,,株式会社,愛知県,名古屋市中区,錦２丁目７番２９号,,23,106,4600003,,,,,,,2023-11-07,1,,,,,エムジーアール,0
584,2180301037985,新規,0,2023-11-07,2023-11-07,ｄｉｎｘ株式会社,,株式会社,愛知県,刈谷市,青山町１丁目１５６番地１５,,23,210,4480014,,,,,,,2023-11-07,1,,,,,ディンクス,0
585,2180301038001,新規,0,2023-11-07,2023-11-07,株式会社スマートサポート,,株式会社,愛知県,安城市,美園町１丁目１２番地１,,23,212,4460076,,,,,,,2023-11-07,1,,,,,スマートサポート,0
586,2180303005890,新規,0,2023-11-07,2023-11-07,ランチェスターマーケティング合同会社,,合同会社,愛知県,豊川市,市田町東堤上６１番地の６０,,23,207,4420862,,,,,,,2023-11-07,1,,,,,ランチェスターマーケティング,0
588,2190001030851,新規,0,2023-11-07,2023-11-07,ＭＡＬＩＮＴＨＩＥ　ＩＮＴＥＲＮＡＴＩＯＮＡＬ株式会社,,株式会社,三重県,鈴鹿市,桜島町４丁目１０番地の２フォーブル山一２０３,,24,207,5130817,,,,,,,2023-11-07,1,,,,,マリンシーインターナショナル,0
589,2190001030868,新規,0,2023-11-07,2023-11-07,株式会社ＥＸＰ,,株式会社,三重県,鈴鹿市,南堀江１丁目１４番１０号,,24,207,5130046,,,,,,,2023-11-07,1,,,,,イーエックスピー,0
601,2240001062360,新規,0,2023-11-07,2023-11-07,株式会社Ｚｅｎ,,株式会社,広島県,福山市,明王台５丁目１番１３号,,34,207,7200834,,,,,,,2023-11-07,1,,,,,ゼン,0
602,2240001062393,新規,0,2023-11-07,2023-11-07,株式会社岩澤商店,,株式会社,広島県,広島市中区,大手町３丁目２番２５号,,34,101,7300051,,,,,,,2023-11-07,1,,,,,イワサワショウテン,0
604,2250001020375,新規,0,2023-11-07,2023-11-07,株式会社Ｍｉｎａｔｏ,,株式会社,山口県,下関市,宮田町１丁目９番３号,,35,201,7500002,,,,,,,2023-11-07,1,,,,,ミナト,0
605,2250001020383,新規,0,2023-11-07,2023-11-07,株式会社保険ステージ,,株式会社,山口県,周南市,城ケ丘３丁目１５番２５号,,35,215,7450807,,,,,,,2023-11-07,1,,,,,ホケンステージ,0
606,2260001038466,新規,0,2023-11-07,2023-11-07,株式会社ｂｕｉｌｄ．ｗｏｒｋｓ,,株式会社,岡山県,井原市,西江原町８５０番地１,,33,207,7150006,,,,,,,2023-11-07,1,,,,,ビルドワークス,0
609,2260005011295,新規,0,2023-11-07,2023-11-07,一般社団法人おかやまベトナム交流協会,,その他の設立登記法人,岡山県,岡山市南区,西市５４９－２－３Ｆ,,33,104,7000953,,,,,,,2023-11-07,1,,,,,オカヤマベトナムコウリュウキョウカイ,0
620,2290001103597,新規,0,2023-11-07,2023-11-07,株式会社６ｆａｃｅ,,株式会社,福岡県,福岡市博多区,博多駅前３丁目１４番２２号,,40,132,8120011,,,,,,,2023-11-07,1,,,,,シックスフェイス,0
621,2290001103606,新規,0,2023-11-07,2023-11-07,ＣＲＴリノベーション株式会社,,株式会社,福岡県,福岡市博多区,神屋町９番２０号９０４号室,,40,132,8120022,,,,,,,2023-11-07,1,,,,,シーアールティーリノベーション,0
622,2290001103622,新規,0,2023-11-07,2023-11-07,株式会社ｍｅｉｐｕ　ｃｏｍｐａｎｙ,,株式会社,福岡県,福岡市南区,大橋４丁目２１－１９－１階,,40,134,8150033,,,,,,,2023-11-07,1,,,,,メイプーカンパニー,0
623,2290001103663,新規,0,2023-11-07,2023-11-07,株式会社ＲＯＮ,,株式会社,福岡県,福岡市博多区,博多駅前３丁目２３番２０,,40,132,8120011,,,,,,,2023-11-07,1,,,,,ロン,0
634,2310001018702,新規,0,2023-11-07,2023-11-07,てるしの観光株式会社,,株式会社,長崎県,長崎市,炉粕町４３－３０１,,42,201,8500021,,,,,,,2023-11-07,1,,,,,テルシノカンコウ,0
635,2320001020120,新規,0,2023-11-07,2023-11-07,株式会社エス・ケイ設計,,株式会社,大分県,大分市,下郡北３丁目６番１０号,,44,201,8700952,,,,,,,2023-11-07,1,,,,,エスケイセッケイ,0
641,2320003004220,新規,0,2023-11-07,2023-11-07,合同会社グリーンコープＴＭＲセンター,,合同会社,大分県,日田市,大字渡里３４６番地１,,44,204,8770000,,,,,,,2023-11-07,1,,,,,グリーンコープティーエムアールセンター,0
652,2330003010069,新規,0,2023-11-07,2023-11-07,合同会社ｐｅａｋｓ,,合同会社,熊本県,熊本市北区,植木町富応１６４６番地４,,43,105,8610162,,,,,,,2023-11-07,1,,,,,ピークス,0
660,2360001032789,新規,0,2023-11-07,2023-11-07,株式会社ナカムラＳｔａｒｓ,,株式会社,沖縄県,名護市,字宇茂佐１６６９番地,,47,209,9050006,,,,,,,2023-11-07,1,,,,,ナカムラスターズ,0
661,2360003013440,新規,0,2023-11-07,2023-11-07,合同会社ばんじ琉球,,合同会社,沖縄県,那覇市,安謝２丁目２０番２スプリーム１０３号室,,47,201,9000003,,,,,,,2023-11-07,1,,,,,バンジリュウキュウ,0
662,2360003013449,新規,0,2023-11-07,2023-11-07,合同会社プレシア,,合同会社,沖縄県,うるま市,字喜屋武４２８番地９,,47,213,9042225,,,,,,,2023-11-07,1,,,,,プレシア,0
668,2380001034107,新規,0,2023-11-07,2023-11-07,株式会社三協金属,,株式会社,福島県,郡山市,安積町荒井字大池下２０番地,,07,203,9630111,,,,,,,2023-11-07,1,,,,,サンキョウキンゾク,0
670,2420001018476,新規,0,2023-11-07,2023-11-07,株式会社Ｋｅｅｐ　Ｔｒｙｉｎｇ,,株式会社,青森県,青森市,本町５丁目６番２号,,02,201,0300802,,,,,,,2023-11-07,1,,,,,キープトライング,0
676,2430001090350,新規,0,2023-11-07,2023-11-07,株式会社Ｉ’ｓ,,株式会社,北海道,札幌市東区,北二十七条東５丁目３番１６号,,01,103,0650027,,,,,,,2023-11-07,1,,,,,アイズ,0
680,2430003015537,新規,0,2023-11-07,2023-11-07,ブラスト合同会社,,合同会社,北海道,札幌市中央区,北二条西２丁目３２番地,,01,101,0600002,,,,,,,2023-11-07,1,,,,,ブラスト,0
681,2430003015594,新規,0,2023-11-07,2023-11-07,Ａｕｃｋ　Ｌａｎｄ合同会社,,合同会社,北海道,札幌市北区,篠路町上篠路６０番５号,,01,102,0028052,,,,,,,2023-11-07,1,,,,,アタックランド,0
682,2430003015603,新規,0,2023-11-07,2023-11-07,ＬＥＥプランニング合同会社,,合同会社,北海道,札幌市豊平区,月寒東三条１８丁目１１番３号,,01,105,0620053,,,,,,,2023-11-07,1,,,,,リープランニング,0
683,2430005014826,新規,0,2023-11-07,2023-11-07,特定非営利活動法人どさんこコロ,,その他の設立登記法人,北海道,札幌市西区,西野五条３丁目７番１号,,01,107,0630035,,,,,,,2023-11-07,1,,,,,ドサンココロ,0
693,2500001025266,新規,0,2023-11-07,2023-11-07,株式会社フリーランドコーポレーション,,株式会社,愛媛県,今治市,郷本町１丁目２番３３号,,38,202,7940823,,,,,,,2023-11-07,1,,,,,フリーランドコーポレーション,0
701,3010001239781,新規,0,2023-11-07,2023-11-07,霞ヶ関リートアドバイザーズ株式会社,,株式会社,東京都,千代田区,霞が関３丁目２番１号,,13,101,1000013,,,,,,,2023-11-07,1,,,,,カスミガセキリートアドバイザーズ,0
702,3010001239807,新規,0,2023-11-07,2023-11-07,株式会社木環の杜,,株式会社,東京都,千代田区,大手町１丁目３番２号,,13,101,1000004,,,,,,,2023-11-07,1,,,,,コワノモリ,0
703,3010001239823,新規,0,2023-11-07,2023-11-07,株式会社ＫＡＩＳＥＲ　ＨＯＬＤＩＮＧＳ,,株式会社,東京都,中央区,日本橋１丁目１５番１号,,13,102,1030027,,,,,,,2023-11-07,1,,,,,カイザーホールディングス,0
704,3010001239831,新規,0,2023-11-07,2023-11-07,株式会社清新産業,,株式会社,東京都,中央区,銀座７丁目１３番６号サガミビル２階,,13,102,1040061,,,,,,,2023-11-07,1,,,,,セイシンサンギョウ,0
705,3010001239856,新規,0,2023-11-07,2023-11-07,株式会社ミライサイト,,株式会社,東京都,中央区,日本橋本町３丁目８－３日本橋ライフサイエンスビルディング３,,13,102,1030023,,,,,,,2023-11-07,1,,,,,ミライサイト,0
706,3010001239864,新規,0,2023-11-07,2023-11-07,ＭｅｄＶｅｎｔｕｒｅ　Ｃａｐｉｔａｌ　Ｍａｎａｇｅｍｅｎｔ株式会社,,株式会社,東京都,中央区,日本橋室町３丁目２番１号,,13,102,1030022,,,,,,,2023-11-07,1,,,,,メドベンチャーキャピタルマネジメント,0
711,3010003042093,新規,0,2023-11-07,2023-11-07,合同会社ＫＲＦ１０７,,合同会社,東京都,千代田区,内幸町２丁目１番６号,,13,101,1000011,,,,,,,2023-11-07,1,,,,,ケイアールエフヒャクナナ,0
712,3010003042127,新規,0,2023-11-07,2023-11-07,Ｇｊ合同会社,,合同会社,東京都,中央区,日本橋室町１丁目１１番１２号日本橋水野ビル７階,,13,102,1030022,,,,,,,2023-11-07,1,,,,,ジージェイ,0
713,3010003042143,新規,0,2023-11-07,2023-11-07,合同会社配布館,,合同会社,東京都,中央区,新川１丁目３番５号アルパイン茅場町７０４,,13,102,1040033,,,,,,,2023-11-07,1,,,,,ハイフカン,0
715,3010005037463,新規,0,2023-11-07,2023-11-07,一般財団法人ＵＰＤＡＴＥ　ＥＡＲＴＨ,,その他の設立登記法人,東京都,千代田区,丸の内３丁目３番１号,,13,101,1000005,,,,,,,2023-11-07,1,,,,,アップデートアース,0
716,3010005037471,新規,0,2023-11-07,2023-11-07,社会保険労務士法人本間事務所,,その他の設立登記法人,東京都,中央区,新富２丁目５番５号ＭＳビル３階,,13,102,1040041,,,,,,,2023-11-07,1,,,,,ホンマジムショ,0
721,3010401178316,新規,0,2023-11-07,2023-11-07,株式会社ＳＥＥＳＡＹ,,株式会社,東京都,港区,東新橋１丁目９番１号,,13,103,1050021,,,,,,,2023-11-07,1,,,,,シセイ,0
722,3010401178332,新規,0,2023-11-07,2023-11-07,株式会社ｓｅｅｄｓ,,株式会社,東京都,港区,愛宕２丁目５番１号愛宕グリーンヒルズＭＯＲＩタワー３４Ｆ,,13,103,1050002,,,,,,,2023-11-07,1,,,,,シーズ,0
723,3010401178349,新規,0,2023-11-07,2023-11-07,株式会社よはく,,株式会社,東京都,港区,六本木４丁目５番１１号ＳＩＸ４階,,13,103,1060032,,,,,,,2023-11-07,1,,,,,ヨハク,0
725,3010403031290,新規,0,2023-11-07,2023-11-07,合同会社Ｃａｎｖｅｒｓｅ,,合同会社,東京都,港区,北青山１丁目３番１号アールキューブ青山３階,,13,103,1070061,,,,,,,2023-11-07,1,,,,,キャンバス,0
726,3010705003558,新規,0,2023-11-07,2023-11-07,一般社団法人日本サステナブルツーリズムイニシアティブ,,その他の設立登記法人,東京都,品川区,東品川２丁目３番１４号,,13,109,1400002,,,,,,,2023-11-07,1,,,,,ニホンサステナブルツーリズムイニシアティブ,0
736,3010801034498,新規,0,2023-11-07,2023-11-07,株式会社ＥＬ,,株式会社,東京都,大田区,南蒲田３丁目１０番２９号,,13,111,1440035,,,,,,,2023-11-07,1,,,,,イーエル,0
744,3011001158006,新規,0,2023-11-07,2023-11-07,株式会社ｇｒａｎｄｓｏｎ,,株式会社,東京都,渋谷区,恵比寿２丁目２８番１０号,,13,113,1500013,,,,,,,2023-11-07,1,,,,,グランドサン,0
745,3011001158063,新規,0,2023-11-07,2023-11-07,株式会社Ｍａｃｂｅｅ　Ｘ,,株式会社,東京都,渋谷区,渋谷３丁目１１番１１号,,13,113,1500002,,,,,,,2023-11-07,1,,,,,マクビーエックス,0
746,3011001158071,新規,0,2023-11-07,2023-11-07,バ・アンド・コー株式会社,,株式会社,東京都,渋谷区,猿楽町４番１０号ＯＧ代官山１階,,13,113,1500033,,,,,,,2023-11-07,1,,,,,バアンドコー,0
747,3011001158105,新規,0,2023-11-07,2023-11-07,ノット・キャピタル１号株式会社,,株式会社,東京都,渋谷区,鶯谷町２番３号,,13,113,1500032,,,,,,,2023-11-07,1,,,,,ノットキャピタルイチゴウ,0
748,3011003017845,新規,0,2023-11-07,2023-11-07,合同会社ＬＳ,,合同会社,東京都,渋谷区,円山町２２番６パラッツォガレリア５０１号室,,13,113,1500044,,,,,,,2023-11-07,1,,,,,エルエス,0
751,3011101105023,新規,0,2023-11-07,2023-11-07,株式会社ＴＥＴＲＩＳ,,株式会社,東京都,新宿区,大久保１丁目４番２０号三島屋ビル２０１－Ｄ,,13,104,1690072,,,,,,,2023-11-07,1,,,,,テトリス,0
752,3011101105031,新規,0,2023-11-07,2023-11-07,株式会社ＮＤ,,株式会社,東京都,新宿区,高田馬場２丁目４－１５,,13,104,1690075,,,,,,,2023-11-07,1,,,,,エヌディー,0
753,3011105010847,新規,0,2023-11-07,2023-11-07,一般社団法人日本合唱指揮者協会,,その他の設立登記法人,東京都,新宿区,下落合３丁目２番地１８ニュー目白マンション４０２号室,,13,104,1610033,,,,,,,2023-11-07,1,,,,,ニホンガッショウシキシャキョウカイ,0
756,3011401025581,新規,0,2023-11-07,2023-11-07,株式会社Ｊ‐Ｐｈａｒｏｓ,,株式会社,東京都,板橋区,中丸町３９番１４－７０３号,,13,119,1730026,,,,,,,2023-11-07,1,,,,,ジェイファロス,0
757,3011603004078,新規,0,2023-11-07,2023-11-07,合同会社ブライトサンライズ,,合同会社,東京都,練馬区,北町３丁目７番１３－５０５号,,13,120,1790081,,,,,,,2023-11-07,1,,,,,ブライトサンラインズ,0
766,3011803005925,新規,0,2023-11-07,2023-11-07,合同会社ＯＮＥ,,合同会社,東京都,足立区,青井４丁目３８番４号,,13,121,1210012,,,,,,,2023-11-07,1,,,,,ワン,0
767,3012401041180,新規,0,2023-11-07,2023-11-07,ＡＲＩＡ株式会社,,株式会社,東京都,府中市,宮西町３丁目３番地の３－７０３,,13,206,1830022,,,,,,,2023-11-07,1,,,,,アリア,0
778,3013301051575,新規,0,2023-11-07,2023-11-07,栄和株式会社,,株式会社,東京都,豊島区,池袋２丁目６６－２小林ビル２階,,13,116,1710014,,,,,,,2023-11-07,1,,,,,エイワ,0
789,3020001154286,新規,0,2023-11-07,2023-11-07,株式会社ＳＬＡＳＨ,,株式会社,神奈川県,横浜市西区,浅間町１丁目４番３号ウィザードビル４０２,,14,103,2200072,,,,,,,2023-11-07,1,,,,,スラッシュ,0
790,3020001154328,新規,0,2023-11-07,2023-11-07,ｒｉｃｋｓ株式会社,,株式会社,神奈川県,横浜市神奈川区,羽沢町１１９６番地５,,14,102,2210863,,,,,,,2023-11-07,1,,,,,,0
791,3020001154344,新規,0,2023-11-07,2023-11-07,トクシュマシン株式会社,,株式会社,神奈川県,横浜市青葉区,桜台１６番地３３,,14,117,2270061,,,,,,,2023-11-07,1,,,,,トクシュマシン,0
792,3020001154352,新規,0,2023-11-07,2023-11-07,株式会社ボックス,,株式会社,神奈川県,横浜市磯子区,森が丘２丁目２５番２０号,,14,107,2350024,,,,,,,2023-11-07,1,,,,,ボックス,0
794,3020003024917,新規,0,2023-11-07,2023-11-07,合同会社ＭＫインテリア,,合同会社,神奈川県,川崎市中原区,宮内３丁目１４番２５号,,14,133,2110051,,,,,,,2023-11-07,1,,,,,エムケーインテリア,0
795,3020003024933,新規,0,2023-11-07,2023-11-07,合同会社ＳＰＪ,,合同会社,神奈川県,横浜市西区,北幸２丁目１０番地４８むつみビル３Ｆ,,14,103,2200004,,,,,,,2023-11-07,1,,,,,エスピージェイ,0
799,3021001080638,新規,0,2023-11-07,2023-11-07,ＹＡＣ株式会社,,株式会社,神奈川県,茅ヶ崎市,東海岸北４丁目１６番８号,,14,207,2530053,,,,,,,2023-11-07,1,,,,,ワイエーシー,0
800,3021001080662,新規,0,2023-11-07,2023-11-07,フリプト株式会社,,株式会社,神奈川県,足柄上郡大井町,金子１５４１番地１,,14,362,2580019,,,,,,,2023-11-07,1,,,,,フリプト,0
801,3021001080670,新規,0,2023-11-07,2023-11-07,株式会社ＰＣＤ建設,,株式会社,神奈川県,足柄上郡大井町,金子２３４番地３,,14,362,2580019,,,,,,,2023-11-07,1,,,,,ピーシーディーケンセツ,0
803,3021003013760,新規,0,2023-11-07,2023-11-07,バーデン合同会社,,合同会社,神奈川県,平塚市,老松町２－２５－８０１,,14,203,2540033,,,,,,,2023-11-07,1,,,,,バーデン,0
804,3021003013777,新規,0,2023-11-07,2023-11-07,合同会社大買舎,,合同会社,神奈川県,三浦市,三崎町諸磯１９０１－１,,14,210,2380224,,,,,,,2023-11-07,1,,,,,ダイガイシャ,0
807,3030001156926,新規,0,2023-11-07,2023-11-07,ＫＹＯＳＨＩＮ‐ＢＩＯ株式会社,,株式会社,埼玉県,富士見市,西みずほ台２丁目１１－１０万輝ハイム３０２号室,,11,235,3540018,,,,,,,2023-11-07,1,,,,,キョウシンビオ,0
808,3030001156967,新規,0,2023-11-07,2023-11-07,株式会社ＭＯＮＤＯＲＥ,,株式会社,埼玉県,川口市,柳崎３丁目１２番４３号,,11,203,3330861,,,,,,,2023-11-07,1,,,,,モンドール,0
809,3030001156991,新規,0,2023-11-07,2023-11-07,株式会社ソウジ,,株式会社,埼玉県,ふじみ野市,亀久保４丁目１５番１３号,,11,245,3560051,,,,,,,2023-11-07,1,,,,,ソウジ,0
810,3030001157065,新規,0,2023-11-07,2023-11-07,株式会社Ｂ．Ｄ．Ｓ,,株式会社,埼玉県,蕨市,中央１丁目１７番３０号ルネ蕨１号館１０１０号,,11,223,3350004,,,,,,,2023-11-07,1,,,,,ビーディーエス,0
815,3030003022952,新規,0,2023-11-07,2023-11-07,合同会社もるげんれーて,,合同会社,埼玉県,さいたま市北区,本郷町１２５６－８３,,11,102,3310802,,,,,,,2023-11-07,1,,,,,モルゲンレーテ,0
821,3040001130797,新規,0,2023-11-07,2023-11-07,株式会社山鉄,,株式会社,千葉県,我孫子市,東我孫子１丁目３番６号,,12,222,2701144,,,,,,,2023-11-07,1,,,,,ヤマテツ,0
822,3040003023669,新規,0,2023-11-07,2023-11-07,合同会社島企画,,合同会社,千葉県,佐倉市,飯田３１８番地２,,12,212,2850032,,,,,,,2023-11-07,1,,,,,シマキカク,0
830,3050003007910,新規,0,2023-11-07,2023-11-07,合同会社くま,,合同会社,茨城県,守谷市,松並青葉１丁目１－１レーベン守谷ＴＨＥＳＱＵＡＲＥ２３１,,08,224,3020132,,,,,,,2023-11-07,1,,,,,クマ,0
832,3060001036522,新規,0,2023-11-07,2023-11-07,株式会社Ｅａｒｔｈ　Ｃｏｌｏｒ,,株式会社,栃木県,佐野市,並木町３１０番地１,,09,204,3270002,,,,,,,2023-11-07,1,,,,,アースカラー,0
835,3070001041050,新規,0,2023-11-07,2023-11-07,株式会社ＭＵＢＥ　ＫＵＮＩ,,株式会社,群馬県,吾妻郡中之条町,大字入山６８２番地２,,10,421,3771701,,,,,,,2023-11-07,1,,,,,ムベクニ,0
836,3080001025960,新規,0,2023-11-07,2023-11-07,株式会社Ｐｅａｒｌ,,株式会社,静岡県,焼津市,下小田５６２番地,,22,212,4250057,,,,,,,2023-11-07,1,,,,,パール,0
837,3080001025969,新規,0,2023-11-07,2023-11-07,ＯＮ株式会社,,株式会社,静岡県,静岡市葵区,西草深町９番１０号,,22,101,4200866,,,,,,,2023-11-07,1,,,,,オーエヌ,0
840,3080103002916,新規,0,2023-11-07,2023-11-07,合同会社木農,,合同会社,静岡県,三島市,長伏３番地の１－２階,,22,206,4110824,,,,,,,2023-11-07,1,,,,,モクノウ,0
845,3100001036947,新規,0,2023-11-07,2023-11-07,株式会社橋詰ロジ,,株式会社,長野県,東筑摩郡山形村,３４９８番地１,,20,450,3901301,,,,,,,2023-11-07,1,,,,,ハシヅメロジ,0
850,3110001037960,新規,0,2023-11-07,2023-11-07,ナイトレッカー株式会社,,株式会社,新潟県,新潟市江南区,うぐいす１丁目５番１３号,,15,104,9500214,,,,,,,2023-11-07,1,,,,,ナイトレッカー,0
862,3120001259389,新規,0,2023-11-07,2023-11-07,株式会社Ａ．Ａ,,株式会社,大阪府,大阪市阿倍野区,阪南町２丁目２１番９号,,27,119,5450021,,,,,,,2023-11-07,1,,,,,エーエー,0
863,3120001259439,新規,0,2023-11-07,2023-11-07,大阪萌櫻株式会社,,株式会社,大阪府,大阪市港区,池島３丁目１０－１１船田マンション１階,,27,107,5520015,,,,,,,2023-11-07,1,,,,,オオサカホウオウ,0
864,3120001259505,新規,0,2023-11-07,2023-11-07,株式会社猿田彦,,株式会社,大阪府,大阪市東住吉区,中野４丁目１０番６号,,27,121,5460012,,,,,,,2023-11-07,1,,,,,サルタヒコ,0
865,3120001259513,新規,0,2023-11-07,2023-11-07,株式会社８‐Ｐ,,株式会社,大阪府,大阪市北区,茶屋町８番２１－１４０３号,,27,127,5300013,,,,,,,2023-11-07,1,,,,,エイトピー,0
866,3120001259604,新規,0,2023-11-07,2023-11-07,株式会社ＤＵ＆ＪＰ,,株式会社,大阪府,大阪市浪速区,浪速東１丁目１１番２号,,27,111,5560025,,,,,,,2023-11-07,1,,,,,ディーユーアンドジェイピー,0
867,3120001259661,新規,0,2023-11-07,2023-11-07,株式会社Ｋ‐ＴＯＰ,,株式会社,大阪府,大阪市東成区,東小橋１丁目７番１７号２０６号室,,27,115,5370024,,,,,,,2023-11-07,1,,,,,ケートップ,0
873,3120101068491,新規,0,2023-11-07,2023-11-07,株式会社一紗,,株式会社,大阪府,阪南市,箱作２５２０番地の１５,,27,232,5990232,,,,,,,2023-11-07,1,,,,,カズサ,0
878,3120901048305,新規,0,2023-11-07,2023-11-07,株式会社高槻ジョブプラス,,株式会社,大阪府,高槻市,高槻町１９番８号第二エーエスビル４０１号,,27,207,5690803,,,,,,,2023-11-07,1,,,,,タカツキジョブプラス,0
879,3120901048313,新規,0,2023-11-07,2023-11-07,株式会社ＳＧ,,株式会社,大阪府,摂津市,鳥飼八防１丁目１１番１８号－Ｂ０３,,27,224,5660054,,,,,,,2023-11-07,1,,,,,エスジー,0
880,3122001037543,新規,0,2023-11-07,2023-11-07,株式会社ＫＯＴ,,株式会社,大阪府,八尾市,教興寺１丁目１９３番地２,,27,212,5810874,,,,,,,2023-11-07,1,,,,,コット,0
891,3160001025440,新規,0,2023-11-07,2023-11-07,ビスタ株式会社,,株式会社,滋賀県,大津市,大江４丁目３番１８号,,25,201,5202141,,,,,,,2023-11-07,1,,,,,ビスタ,0
892,3160001025473,新規,0,2023-11-07,2023-11-07,株式会社コディカス,,株式会社,滋賀県,長浜市,勝町７３２番地,,25,203,5260042,,,,,,,2023-11-07,1,,,,,コディカス,0
893,3160001025481,新規,0,2023-11-07,2023-11-07,株式会社イーエムシー,,株式会社,滋賀県,草津市,野路７丁目２０番１７号,,25,206,5250059,,,,,,,2023-11-07,1,,,,,イーエムシー,0
898,3180001158783,新規,0,2023-11-07,2023-11-07,株式会社ＹｕＨａｒｕ,,株式会社,愛知県,名古屋市名東区,社台３丁目１７４番地,,23,115,4650092,,,,,,,2023-11-07,1,,,,,ユハル,0
899,3180001158800,新規,0,2023-11-07,2023-11-07,株式会社リユースハチクミ,,株式会社,愛知県,半田市,君ケ橋町２丁目１番地,,23,205,4750938,,,,,,,2023-11-07,1,,,,,リユースハチクミ,0
900,3180001158809,新規,0,2023-11-07,2023-11-07,株式会社Ｆｒｏｎｔｉｅｒ’Ａ,,株式会社,愛知県,名古屋市中区,丸の内２丁目８番１１号,,23,106,4600002,,,,,,,2023-11-07,1,,,,,フロンティアエー,0
911,3190001030859,新規,0,2023-11-07,2023-11-07,株式会社クラタカンパニー,,株式会社,三重県,多気郡多気町,相可１３７１番地１１,,24,441,5192181,,,,,,,2023-11-07,1,,,,,クラタカンパニー,0
919,3200003006145,新規,0,2023-11-07,2023-11-07,合同会社河合通商,,合同会社,岐阜県,大垣市,東前２丁目５１番地１,,21,202,5030835,,,,,,,2023-11-07,1,,,,,カワイツウショウ,0
933,3240001062384,新規,0,2023-11-07,2023-11-07,株式会社ＭｅＳｏｌａ,,株式会社,広島県,福山市,明神町２丁目１０番１５号,,34,207,7210961,,,,,,,2023-11-07,1,,,,,ミソラ,0
934,3240001062392,新規,0,2023-11-07,2023-11-07,株式会社Ｅｓｓｅｎｃｅ　Ｇｌｅａｍ　Ｉｎｎｏｖａｔｉｏｎｓ,,株式会社,広島県,広島市中区,大手町１丁目１番２６号大手町一番ビル３０５,,34,101,7300051,,,,,,,2023-11-07,1,,,,,エッセンスグリーンイノベーションズ,0
935,3240003006406,新規,0,2023-11-07,2023-11-07,合同会社ＮＨ,,合同会社,広島県,安芸郡府中町,大通２丁目６番１－１３０８号,,34,302,7350022,,,,,,,2023-11-07,1,,,,,エヌエイチ,0
936,3240005015677,新規,0,2023-11-07,2023-11-07,一般社団法人日本ユニカール協会,,その他の設立登記法人,広島県,広島市西区,商工センター５丁目１１番７号,,34,104,7330833,,,,,,,2023-11-07,1,,,,,ニホンユニカールキョウカイ,0
937,3250001020374,新規,0,2023-11-07,2023-11-07,株式会社白銀石材,,株式会社,山口県,岩国市,錦見１丁目６番３５号,,35,208,7410061,,,,,,,2023-11-07,1,,,,,シロカネセキザイ,0
938,3260001038465,新規,0,2023-11-07,2023-11-07,株式会社鏡野新聞販売所,,株式会社,岡山県,苫田郡鏡野町,杉９２３番地,,33,606,7080424,,,,,,,2023-11-07,1,,,,,カガミノシンブンハンバイショ,0
942,3290001103613,新規,0,2023-11-07,2023-11-07,ＩＴ通信株式会社,,株式会社,福岡県,嘉麻市,上山田４３４番地１,,40,227,8210012,,,,,,,2023-11-07,1,,,,,アイティーツウシン,0
949,3290003014577,新規,0,2023-11-07,2023-11-07,合同会社ｂＣｄ,,合同会社,福岡県,太宰府市,都府楼南２丁目１６番４５－２１１号,,40,221,8180105,,,,,,,2023-11-07,1,,,,,ビーシーディー,0
956,3310003004674,新規,0,2023-11-07,2023-11-07,合同会社ＹＯＫＯＯ,,合同会社,長崎県,佐世保市,島瀬町４番５－６０１号,,42,202,8570806,,,,,,,2023-11-07,1,,,,,ヨコオ,0
960,3320005010109,新規,0,2023-11-07,2023-11-07,未来かけはし協同組合,,その他の設立登記法人,大分県,杵築市,大田沓掛２４８７番地,,44,210,8790902,,,,,,,2023-11-07,1,,,,,ミライカケハシ,0
966,3330003010002,新規,0,2023-11-07,2023-11-07,合同会社ｎｕｔｓ,,合同会社,熊本県,熊本市東区,長嶺南３丁目１－５６,,43,102,8618039,,,,,,,2023-11-07,1,,,,,ナッツ,0
974,3360001032788,新規,0,2023-11-07,2023-11-07,琉球リゾートシステムズ株式会社,,株式会社,沖縄県,那覇市,牧志２丁目１２－２７－４０１,,47,201,9000013,,,,,,,2023-11-07,1,,,,,リュウキュウリゾートシステムズ,0
978,3370001050599,新規,0,2023-11-07,2023-11-07,株式会社プラストラスト,,株式会社,宮城県,仙台市宮城野区,福室２丁目８番１７－３１４号福室マンション,,04,102,9830005,,,,,,,2023-11-07,1,,,,,プラストラスト,0
981,3370003006351,新規,0,2023-11-07,2023-11-07,もちの合同会社,,合同会社,宮城県,富谷市,上桜木１丁目３９番地９号,,04,216,9813328,,,,,,,2023-11-07,1,,,,,モチノ,0
986,3380001034114,新規,0,2023-11-07,2023-11-07,株式会社ダーマルウェルネス,,株式会社,福島県,伊達市,保原町字栄町９７番地１,,07,213,9600601,,,,,,,2023-11-07,1,,,,,ダーマルウェルネス,0
990,3400001016448,新規,0,2023-11-07,2023-11-07,株式会社アスポートメデュア,,株式会社,岩手県,一関市,山目字才天２２１番地,,03,209,0210035,,,,,,,2023-11-07,1,,,,,アスポートメデュア,0
998,3430003015593,新規,0,2023-11-07,2023-11-07,オレンジ北海道合同会社,,合同会社,北海道,札幌市中央区,南十六条西９丁目２番２７－４０３号,,01,101,0640916,,,,,,,2023-11-07,1,,,,,オレンジホッカイドウ,0
1001,3460301005178,新規,0,2023-11-07,2023-11-07,北網圏総合研究所株式会社,,株式会社,北海道,北見市,桂町３丁目１５８番地４６,,01,208,0900053,,,,,,,2023-11-07,1,,,,,ホクモウケンソウゴウケンキュウジョ,0
1009,3700150119574,新規,0,2023-11-07,2023-11-07,Ｍａｙｅｒ　Ｂｒｏｗｎ　Ｉｎｔｅｒｎａｔｉｏｎａｌ　ＬＬＰ,,外国会社等,,,,,,,,２０１　Ｂｉｓｈｏｐｓｇａｔｅ　Ｌｏｎｄｏｎ　ＥＣ２Ｍ　３ＡＦ　Ｕｎｉｔｅｄ　Ｋｉｎｇｄｏｍ,,,,,,2023-11-07,1,,,,,メイヤーブラウンインターナシヨナルエルエルピー,0
1016,4010001239681,新規,0,2023-11-07,2023-11-07,株式会社ブルッケ,,株式会社,東京都,中央区,日本橋室町１丁目１１番１２号日本橋水野ビル７階,,13,102,1030022,,,,,,,2023-11-07,1,,,,,ブルッケ,0
1017,4010001239723,新規,0,2023-11-07,2023-11-07,ＢｅＯｐｅｎ株式会社,,株式会社,東京都,千代田区,神田須田町２丁目２５番地ＧＹＢ秋葉原４Ｆ,,13,101,1010041,,,,,,,2023-11-07,1,,,,,ビーオープン,0
1018,4010001239780,新規,0,2023-11-07,2023-11-07,株式会社ビスポーク,,株式会社,東京都,中央区,新富２丁目１２番６号新幸ビル２Ｆ,,13,102,1040041,,,,,,,2023-11-07,1,,,,,ビスポーク,0
1019,4010001239789,新規,0,2023-11-07,2023-11-07,株式会社自立コム,,株式会社,東京都,中央区,日本橋蛎殻町１丁目３２番２－９０１号,,13,102,1030014,,,,,,,2023-11-07,1,,,,,ジリツコム,0
1020,4010001239797,新規,0,2023-11-07,2023-11-07,ＳＭＦＬアクエリアス株式会社,,株式会社,東京都,千代田区,丸の内１丁目３番２号,,13,101,1000005,,,,,,,2023-11-07,1,,,,,エスエムエフエルアクエリアス,0
1021,4010001239822,新規,0,2023-11-07,2023-11-07,ハーズ株式会社,,株式会社,東京都,中央区,新川２丁目２１番１３号グラディス東京イースト６０１号,,13,102,1040033,,,,,,,2023-11-07,1,,,,,ハーズ,0
1022,4010001239830,新規,0,2023-11-07,2023-11-07,株式会社ｓｅａ　ｉｎｔｅｒｎａｔｉｏｎａｌ,,株式会社,東京都,千代田区,内神田３丁目１７番８号,,13,101,1010047,,,,,,,2023-11-07,1,,,,,シーインターナショナル,0
1023,4010001239863,新規,0,2023-11-07,2023-11-07,ロゼッタマネジメント株式会社,,株式会社,東京都,千代田区,丸の内３丁目２－２丸の内二重橋ビル２Ｆ,,13,101,1000005,,,,,,,2023-11-07,1,,,,,ロゼッタマネジメント,0
1029,4010003042092,新規,0,2023-11-07,2023-11-07,合同会社ＫＲＦ１０６,,合同会社,東京都,千代田区,内幸町２丁目１番６号,,13,101,1000011,,,,,,,2023-11-07,1,,,,,ケイアールエフヒャクロク,0
1030,4010003042118,新規,0,2023-11-07,2023-11-07,合同会社にわたづみ,,合同会社,東京都,中央区,晴海２丁目２番４２－４８１３号,,13,102,1040053,,,,,,,2023-11-07,1,,,,,ニワタヅミ,0
1038,4010401178281,新規,0,2023-11-07,2023-11-07,からさき国際人材エージェント株式会社,,株式会社,東京都,港区,芝浦２丁目１４番１８号サカイビル５階,,13,103,1080023,,,,,,,2023-11-07,1,,,,,カラサキコクサイジンザイエージェント,0
1039,4010401178307,新規,0,2023-11-07,2023-11-07,ファイントラスト株式会社,,株式会社,東京都,港区,海岸１丁目２番３号汐留芝離宮ビルディング２１階,,13,103,1050022,,,,,,,2023-11-07,1,,,,,ファイントラスト,0
1040,4010401178315,新規,0,2023-11-07,2023-11-07,プロヴェナンスコーポレートマネジメント株式会社,,株式会社,東京都,港区,新橋６丁目１４番３号御成門ＰＲＥＸ,,13,103,1050004,,,,,,,2023-11-07,1,,,,,プロヴェナンスコーポレートマネジメント,0
1041,4010401178348,新規,0,2023-11-07,2023-11-07,株式会社ｔｈｏｕｓａｎｄ　ｌｅａｆ,,株式会社,東京都,港区,三田２丁目１４番９－５０２号,,13,103,1080073,,,,,,,2023-11-07,1,,,,,サウザンドリーフ,0
1043,4010403031307,新規,0,2023-11-07,2023-11-07,Ｌｉｍｏ合同会社,,合同会社,東京都,港区,元赤坂１丁目１番８号株式会社赤坂国際会計内,,13,103,1070051,,,,,,,2023-11-07,1,,,,,リモ,0
1045,4010501051306,新規,0,2023-11-07,2023-11-07,ＮｉｐｐｏｎＮｅｓｔ株式会社,,株式会社,東京都,台東区,柳橋２丁目１６番１８号大川ビル１０４号室,,13,106,1110052,,,,,,,2023-11-07,1,,,,,ニッポンニュースト,0
1050,4010901054123,新規,0,2023-11-07,2023-11-07,株式会社０７,,株式会社,東京都,世田谷区,奥沢４丁目２７番１５号さんごやビル１Ｆ,,13,112,1580083,,,,,,,2023-11-07,1,,,,,ゼロナナ,0
1057,4011001157972,新規,0,2023-11-07,2023-11-07,株式会社ＧＥＭＩＬＹ,,株式会社,東京都,渋谷区,道玄坂１丁目１０番８号渋谷道玄坂東急ビル２Ｆ－Ｃ,,13,113,1500043,,,,,,,2023-11-07,1,,,,,ジェミリー,0
1058,4011001158038,新規,0,2023-11-07,2023-11-07,株式会社ＺＥＩＴＡＫＵ,,株式会社,東京都,渋谷区,千駄ヶ谷３丁目３９番２号,,13,113,1510051,,,,,,,2023-11-07,1,,,,,ゼイタク,0
1059,4011001158062,新規,0,2023-11-07,2023-11-07,株式会社Ｍａｃｂｅｅｖ,,株式会社,東京都,渋谷区,渋谷３丁目１１番１１号,,13,113,1500002,,,,,,,2023-11-07,1,,,,,マクビーブ,0
1060,4011001158087,新規,0,2023-11-07,2023-11-07,プロデザイン株式会社,,株式会社,東京都,目黒区,下目黒２丁目２１番２０－Ｎ７１０号,,13,110,1530064,,,,,,,2023-11-07,1,,,,,プロデザイン,0
1061,4011001158095,新規,0,2023-11-07,2023-11-07,株式会社Ｗｏｎｄｅｒ　Ｗｏｒｋｓ,,株式会社,東京都,渋谷区,桜丘町１２番８号,,13,113,1500031,,,,,,,2023-11-07,1,,,,,ワンダーワークス,0
1062,4011001158104,新規,0,2023-11-07,2023-11-07,株式会社ＮＯＲＯキャリア,,株式会社,東京都,渋谷区,代官山町２０番２３号Ｆｏｒｅｓｔｇａｔｅ・Ｄａｉｋａｎｙａｍａ・ＭＡＩＮ棟３Ｆ,,13,113,1500034,,,,,,,2023-11-07,1,,,,,ノロキャリア,0
1063,4011003017877,新規,0,2023-11-07,2023-11-07,合同会社ＵＮＩＴ・ＭＫ２,,合同会社,東京都,渋谷区,恵比寿１丁目３０番１４－１４０３号,,13,113,1500013,,,,,,,2023-11-07,1,,,,,ユニットエムケーツー,0
1066,4011105010846,新規,0,2023-11-07,2023-11-07,一般社団法人カウンセリング・キャリア推進協会,,その他の設立登記法人,東京都,新宿区,西新宿３丁目３番１３号西新宿水間ビル６階,,13,104,1600023,,,,,,,2023-11-07,1,,,,,カウンセリングキャリアスイシンキョウカイ,0
1067,4011301029153,新規,0,2023-11-07,2023-11-07,Ｍｅｔａｐｏｄ株式会社,,株式会社,東京都,杉並区,阿佐谷北２丁目１２番２１号メゾンＨＡＮＡ１Ｆ,,13,115,1660001,,,,,,,2023-11-07,1,,,,,メタポッド,0
1071,4011501029952,新規,0,2023-11-07,2023-11-07,株式会社ＤＣＧ,,株式会社,東京都,荒川区,西日暮里１丁目４８番１２号,,13,118,1160013,,,,,,,2023-11-07,1,,,,,ディーシージー,0
1074,4011701026725,新規,0,2023-11-07,2023-11-07,株式会社ＬｉＤＥＡＬ,,株式会社,東京都,江戸川区,西瑞江５丁目１５番地２４４,,13,123,1340015,,,,,,,2023-11-07,1,,,,,リデアル,0
1078,4012301013650,新規,0,2023-11-07,2023-11-07,株式会社Ｆａｗｋｅｓ　ｋ．,,株式会社,東京都,町田市,玉川学園５丁目２６番１９号,,13,209,1940041,,,,,,,2023-11-07,1,,,,,フォーキスケイ,0
1080,4012701017929,新規,0,2023-11-07,2023-11-07,株式会社フラット,,株式会社,東京都,小平市,花小金井南町２丁目２番１６－５０２号,,13,211,1870003,,,,,,,2023-11-07,1,,,,,フラット,0
1082,4012705002373,新規,0,2023-11-07,2023-11-07,一般社団法人みろん,,その他の設立登記法人,東京都,清瀬市,松山１丁目４２番６号,,13,221,2040022,,,,,,,2023-11-07,1,,,,,ミロン,0
1088,4013301051566,新規,0,2023-11-07,2023-11-07,株式会社ＷＨＩＴＥＷＡＹ,,株式会社,東京都,豊島区,池袋本町３丁目５番１４号,,13,116,1700011,,,,,,,2023-11-07,1,,,,,ホワイトウエイ,0
1089,4013301051574,新規,0,2023-11-07,2023-11-07,大田株式会社,,株式会社,東京都,豊島区,南池袋２丁目４１番１２号－６０２号室,,13,116,1710022,,,,,,,2023-11-07,1,,,,,オオタ,0
1090,4013301051590,新規,0,2023-11-07,2023-11-07,株式会社ｃｏｚｙ　ｆｏｕｒ,,株式会社,東京都,豊島区,池袋２丁目４２番３号,,13,116,1710014,,,,,,,2023-11-07,1,,,,,コージーフォー,0
1091,4013303006865,新規,0,2023-11-07,2023-11-07,合同会社創造士,,合同会社,東京都,豊島区,要町３丁目２番７号豊島マンション２０５号室,,13,116,1710043,,,,,,,2023-11-07,1,,,,,ソウゾウシ,0
1094,4020001154285,新規,0,2023-11-07,2023-11-07,株式会社一心管理,,株式会社,神奈川県,横浜市神奈川区,金港町５番地１４クアドリフォリオ８階,,14,102,2210056,,,,,,,2023-11-07,1,,,,,イッシンカンリ,0
1095,4020001154293,新規,0,2023-11-07,2023-11-07,株式会社鷹建,,株式会社,神奈川県,横浜市瀬谷区,阿久和西４丁目１３番地５アーク・ウィル２０１,,14,114,2460025,,,,,,,2023-11-07,1,,,,,タカケン,0
1096,4020001154319,新規,0,2023-11-07,2023-11-07,株式会社フォーシニアの窓口,,株式会社,神奈川県,川崎市中原区,上小田中１丁目３６番１２号ハウスＳ＆Ｋ３０１,,14,133,2110053,,,,,,,2023-11-07,1,,,,,フォーシニアノマドグチ,0
1097,4020001154335,新規,0,2023-11-07,2023-11-07,株式会社小川屋,,株式会社,神奈川県,川崎市麻生区,岡上４丁目１２番１－２１５号,,14,137,2150027,,,,,,,2023-11-07,1,,,,,オガワヤ,0
1098,4020001154343,新規,0,2023-11-07,2023-11-07,株式会社グーチョキパース,,株式会社,神奈川県,横浜市南区,蒔田町字西１０１番地,,14,105,2320043,,,,,,,2023-11-07,1,,,,,グーチョキパース,0
1099,4020001154368,新規,0,2023-11-07,2023-11-07,株式会社田中設備,,株式会社,神奈川県,川崎市多摩区,堰１丁目１５番２８号,,14,135,2140022,,,,,,,2023-11-07,1,,,,,タナカセツビ,0
1103,4020003024916,新規,0,2023-11-07,2023-11-07,合同会社ＣＫネクスト,,合同会社,神奈川県,川崎市中原区,下小田中５丁目５番４－１０４号,,14,133,2110041,,,,,,,2023-11-07,1,,,,,シーケーネクスト,0
1104,4020003024932,新規,0,2023-11-07,2023-11-07,野戸谷情報技術合同会社,,合同会社,神奈川県,横浜市泉区,和泉が丘１丁目２４番７号ルミナスＡ１０３号,,14,116,2450022,,,,,,,2023-11-07,1,,,,,ノトヤジョウホウギジュツ,0
1107,4021001080612,新規,0,2023-11-07,2023-11-07,ＳＲＩ・ＫＯＮ・ＪＡＰＡＮ株式会社,,株式会社,神奈川県,横須賀市,浦郷町２丁目３４番,,14,201,2370062,,,,,,,2023-11-07,1,,,,,スリコンジャパン,0
1108,4021001080637,新規,0,2023-11-07,2023-11-07,木村総業株式会社,,株式会社,神奈川県,小田原市,蓮正寺１５９番地,00132531,14,206,2500865,,,,,,,2023-11-07,1,,,,,キムラソウギョウ,0
1109,4021001080645,新規,0,2023-11-07,2023-11-07,株式会社ＴＳ,,株式会社,神奈川県,相模原市中央区,松が丘２丁目２９００番１４,,14,152,2520223,,,,,,,2023-11-07,1,,,,,ティーエス,0
1110,4021001080653,新規,0,2023-11-07,2023-11-07,株式会社あぐりどあ,,株式会社,神奈川県,相模原市南区,上鶴間本町７丁目２８番３０－１０２号,,14,153,2520318,,,,,,,2023-11-07,1,,,,,アグリドア,0
1111,4021001080686,新規,0,2023-11-07,2023-11-07,株式会社画星商店,,株式会社,神奈川県,中郡二宮町,富士見が丘２丁目１５番２号,,14,342,2590122,,,,,,,2023-11-07,1,,,,,エボシショウテン,0
1113,4021003013776,新規,0,2023-11-07,2023-11-07,アヴァント合同会社,,合同会社,神奈川県,中郡大磯町,大磯１７３９番地,,14,341,2550003,,,,,,,2023-11-07,1,,,,,アヴァント,0
1118,4030001156982,新規,0,2023-11-07,2023-11-07,株式会社響働,,株式会社,埼玉県,さいたま市南区,大字大谷口１２５２番地２,,11,108,3360042,,,,,,,2023-11-07,1,,,,,キョウドウ,0
1119,4030001156990,新規,0,2023-11-07,2023-11-07,株式会社システム企画,,株式会社,埼玉県,さいたま市大宮区,大成町３丁目６０８番地２,,11,103,3300852,,,,,,,2023-11-07,1,,,,,システムキカク,0
1120,4030001156999,新規,0,2023-11-07,2023-11-07,株式会社クラウンＤＳ興業,,株式会社,埼玉県,川口市,大字安行領家１１９０番地の６アルカンシェル２０２号,,11,203,3340058,,,,,,,2023-11-07,1,,,,,クラウンディーエスコウギョウ,0
1121,4030001157031,新規,0,2023-11-07,2023-11-07,Ｅｍｂｒａｃｅ　ＨＤ株式会社,,株式会社,埼玉県,鶴ヶ島市,大字藤金８７６番地８７,,11,241,3502206,,,,,,,2023-11-07,1,,,,,エンブレイスホールディングス,0
1122,4030001157080,新規,0,2023-11-07,2023-11-07,株式会社ＰＯＭ,,株式会社,埼玉県,川口市,南町２丁目２番８号,,11,203,3320026,,,,,,,2023-11-07,1,,,,,,0
1126,4030005021456,新規,0,2023-11-07,2023-11-07,一般社団法人こんにちは,,その他の設立登記法人,埼玉県,新座市,新堀２丁目５番２６号,,11,230,3520032,,,,,,,2023-11-07,1,,,,,コンニチハ,0
1133,4040001130796,新規,0,2023-11-07,2023-11-07,手伝い・ふぁくとりー株式会社,,株式会社,千葉県,船橋市,海神１丁目６番２６号１０９号室,,12,204,2730021,,,,,,,2023-11-07,1,,,,,テツダイファクトリー,0
1134,4040001130821,新規,0,2023-11-07,2023-11-07,株式会社Ｖ８興業,,株式会社,千葉県,千葉市緑区,高田町２２７０番地１２,,12,105,2660003,,,,,,,2023-11-07,1,,,,,ブイハチコウギョウ,0
1135,4040001130838,新規,0,2023-11-07,2023-11-07,株式会社啓明,,株式会社,千葉県,千葉市花見川区,南花園２丁目５番１号第一花園ビル６０３,,12,102,2620022,,,,,,,2023-11-07,1,,,,,ケイメイ,0
1138,4040003023676,新規,0,2023-11-07,2023-11-07,合同会社エール,,合同会社,千葉県,夷隅郡御宿町,須賀５７５番地１,,12,443,2995106,,,,,,,2023-11-07,1,,,,,エール,0
1140,4080003003088,新規,0,2023-11-07,2023-11-07,合同会社Ｉ　ｃａｎ　Ｌｉｖｅ,,合同会社,静岡県,静岡市清水区,原５６番地の２９ヒルサイドテラス１０５号,,22,103,4240113,,,,,,,2023-11-07,1,,,,,アイキャンリヴ,0
1144,4080401026822,新規,0,2023-11-07,2023-11-07,株式会社Ｈｕｇ　Ｍｅ,,株式会社,静岡県,浜松市中区,平田町１０８番地,,22,131,4328031,,,,,,,2023-11-07,1,,,,,ハグミー,0
1146,4090001018401,新規,0,2023-11-07,2023-11-07,株式会社日昇,,株式会社,山梨県,甲府市,伊勢１丁目２番１５号１０３号室,,19,201,4000856,,,,,,,2023-11-07,1,,,,,ニッショウ,0
1149,4100001036946,新規,0,2023-11-07,2023-11-07,株式会社なんぐうマート,,株式会社,長野県,下伊那郡阿南町,北條２０２２番地,,20,404,3991501,,,,,,,2023-11-07,1,,,,,ナングウマート,0
1150,4110005017017,新規,0,2023-11-07,2023-11-07,行政書士法人小川事務所,,その他の設立登記法人,新潟県,新潟市東区,豊２丁目６番５２号,,15,102,9500812,,,,,,,2023-11-07,1,,,,,オガワジムショ,0
1162,4120001259520,新規,0,2023-11-07,2023-11-07,株式会社上徹,,株式会社,大阪府,大阪市中央区,道頓堀１丁目東７－１１,,27,128,5420071,,,,,,,2023-11-07,1,,,,,ウエテツ,0
1163,4120001259561,新規,0,2023-11-07,2023-11-07,株式会社ＬｉｆｅｓｔｙｌｅＤｅｓｉｇｎ,,株式会社,大阪府,枚方市,西牧野１丁目２２－４,,27,210,5731148,,,,,,,2023-11-07,1,,,,,ライフスタイルデザイン,0
1164,4120001259611,新規,0,2023-11-07,2023-11-07,株式会社ナショナルシュウマイカンパニー,,株式会社,大阪府,大阪市福島区,海老江１丁目５番４０号,,27,103,5530001,,,,,,,2023-11-07,1,,,,,ナショナルシュウマイカンパニー,0
1165,4120001259628,新規,0,2023-11-07,2023-11-07,株式会社明京,,株式会社,大阪府,大阪市住之江区,南加賀屋３丁目８－２６－２階,,27,125,5590015,,,,,,,2023-11-07,1,,,,,メイキョウ,0
1170,4120003025251,新規,0,2023-11-07,2023-11-07,合同会社Ｂｉｊｏｕ,,合同会社,大阪府,大阪市浪速区,元町１丁目２番２７－９０３号,,27,111,5560016,,,,,,,2023-11-07,1,,,,,ビジュウ,0
1173,4120101068466,新規,0,2023-11-07,2023-11-07,日本グロウトップ株式会社,,株式会社,大阪府,堺市堺区,市之町東５丁目２番１４号３階,,27,141,5900952,,,,,,,2023-11-07,1,,,,,ニホングロウトップ,0
1174,4120101068474,新規,0,2023-11-07,2023-11-07,株式会社Ｒｅｔｒｅｅ,,株式会社,大阪府,堺市堺区,北清水町３丁６番８－４０２号,,27,141,5900004,,,,,,,2023-11-07,1,,,,,リツリー,0
1179,4120901048329,新規,0,2023-11-07,2023-11-07,株式会社ＫＲサービス,,株式会社,大阪府,茨木市,若草町５－３１,,27,211,5670875,,,,,,,2023-11-07,1,,,,,ケイアールサービス,0
1182,4122001037542,新規,0,2023-11-07,2023-11-07,株式会社しろっぷ,,株式会社,大阪府,東大阪市,金岡１丁目２２番８号,,27,227,5770823,,,,,,,2023-11-07,1,,,,,シロップ,0
1193,4140001132246,新規,0,2023-11-07,2023-11-07,株式会社山久グループ,,株式会社,兵庫県,神戸市長田区,野田町９丁目４番１８号,,28,106,6530051,,,,,,,2023-11-07,1,,,,,サンキューグループ,0
1194,4140001132279,新規,0,2023-11-07,2023-11-07,西和電気株式会社,,株式会社,兵庫県,姫路市,夢前町置本４５２番地１,,28,201,6712122,,,,,,,2023-11-07,1,,,,,セイワデンキ,0
1197,4140003019788,新規,0,2023-11-07,2023-11-07,合同会社ごじげん,,合同会社,兵庫県,洲本市,宇山３丁目４－１８,,28,205,6560012,,,,,,,2023-11-07,1,,,,,ゴジゲン,0
1200,4160001025472,新規,0,2023-11-07,2023-11-07,株式会社丸太,,株式会社,滋賀県,米原市,朝妻筑摩１２６７番地,,25,214,5210001,,,,,,,2023-11-07,1,,,,,マルタ,0
1201,4160001025480,新規,0,2023-11-07,2023-11-07,株式会社鵜飼仏壇工芸,,株式会社,滋賀県,湖南市,菩提寺１２３２番地,,25,211,5203242,,,,,,,2023-11-07,1,,,,,ウカイブツダンコウゲイ,0
1209,4180001158790,新規,0,2023-11-07,2023-11-07,株式会社大久保,,株式会社,愛知県,名古屋市緑区,高根山１丁目２３０２番地の４,,23,114,4598013,,,,,,,2023-11-07,1,,,,,オオクボ,0
1210,4180001158832,新規,0,2023-11-07,2023-11-07,株式会社ＤＩＧＵＰＤＥＳＩＧＮ,,株式会社,愛知県,名古屋市名東区,香南１丁目５０３番地,,23,115,4650004,,,,,,,2023-11-07,1,,,,,ディグアップデザイン,0
1211,4180001158849,新規,0,2023-11-07,2023-11-07,株式会社ＪＯＹチーム,,株式会社,愛知県,名古屋市緑区,鳴海町字前之輪２２２番地２,,23,114,4580834,,,,,,,2023-11-07,1,,,,,ジョイチーム,0
1216,4180301037983,新規,0,2023-11-07,2023-11-07,株式会社ＴＬＭ,,株式会社,愛知県,西尾市,一色町一色前新田４５番地,,23,213,4440423,,,,,,,2023-11-07,1,,,,,ティーエルエム,0
1217,4180301037991,新規,0,2023-11-07,2023-11-07,株式会社Ａ‐ｇｏｇ　Ｎａｇｏｙａ,,株式会社,愛知県,岡崎市,大門２丁目２番地１３,,23,202,4442135,,,,,,,2023-11-07,1,,,,,アゴッグナゴヤ,0
1219,4180303005889,新規,0,2023-11-07,2023-11-07,Ｓｐｉｒｉｔ合同会社,,合同会社,愛知県,田原市,赤羽根町長沢８９－３９,,23,231,4413502,,,,,,,2023-11-07,1,,,,,スピリット,0
1221,4190001030841,新規,0,2023-11-07,2023-11-07,Ｉ＆Ｔ　Ｐａｒｔｎｅｒｓ株式会社,,株式会社,三重県,鳥羽市,小浜町２３９－１２,,24,211,5170015,,,,,,,2023-11-07,1,,,,,アイアンドティーパートナーズ,0
1222,4190001030858,新規,0,2023-11-07,2023-11-07,株式会社樹工業,,株式会社,三重県,松阪市,大黒田町６０番地２,,24,204,5150063,,,,,,,2023-11-07,1,,,,,イツキコウギョウ,0
1223,4190001030874,新規,0,2023-11-07,2023-11-07,株式会社四日市サルビア空調,,株式会社,三重県,四日市市,久保田２丁目１０番１３号,,24,202,5100821,,,,,,,2023-11-07,1,,,,,ヨッカイチサルビアクウチョウ,0
1228,4190005011879,新規,0,2023-11-07,2023-11-07,一般社団法人伝承会,,その他の設立登記法人,三重県,四日市市,西伊倉町１２番６号,,24,202,5100831,,,,,,,2023-11-07,1,,,,,デンショウカイ,0
1232,4200003006144,新規,0,2023-11-07,2023-11-07,合同会社ＧＬｉｍ,,合同会社,岐阜県,大垣市,中野町４丁目３１番地８ウィッシュＩＩ２０５,00132535,21,202,5030022,,,,,,,2023-11-07,1,,,,,グリム,0
1234,4220001025680,新規,0,2023-11-07,2023-11-07,マサコンサルティング株式会社,,株式会社,石川県,河北郡津幡町,字潟端４７３番地２,,17,361,9290346,,,,,,,2023-11-07,1,,,,,マサコンサルティング,0
1238,4230001020094,新規,0,2023-11-07,2023-11-07,株式会社テックアンプ,,株式会社,富山県,富山市,婦中町蔵島１番地１８,,16,201,9392726,,,,,,,2023-11-07,1,,,,,テックアンプ,0
1240,4240001062383,新規,0,2023-11-07,2023-11-07,株式会社大電工,,株式会社,広島県,広島市東区,中山西２丁目１５番８号,,34,102,7320025,,,,,,,2023-11-07,1,,,,,ダイデンコウ,0
1241,4240001062391,新規,0,2023-11-07,2023-11-07,株式会社森総建,,株式会社,広島県,福山市,新市町大字戸手７１６番地（Ｂ１０２号）,,34,207,7293101,,,,,,,2023-11-07,1,,,,,モリソウケン,0
1242,4240005015676,新規,0,2023-11-07,2023-11-07,行政書士法人三浦昇一法務事務所,,その他の設立登記法人,広島県,安芸郡府中町,清水ケ丘１０番３号,,34,302,7350002,,,,,,,2023-11-07,1,,,,,ミウラショウイチホウムジムショ,0
1244,4250003003376,新規,0,2023-11-07,2023-11-07,合同会社ＥＩＴ,,合同会社,山口県,光市,大字三輪７２５番地１,,35,210,7430102,,,,,,,2023-11-07,1,,,,,エイティー,0
1255,4290001103579,新規,0,2023-11-07,2023-11-07,株式会社Ｈｅｒｌｉｔ,,株式会社,福岡県,福岡市南区,筑紫丘１丁目２３番９－３０６号ハウスユマニテ大橋α館,,40,134,8150036,,,,,,,2023-11-07,1,,,,,ハーリット,0
1256,4290001103604,新規,0,2023-11-07,2023-11-07,株式会社アイノテ,,株式会社,福岡県,福岡市東区,千早４丁目１番６号,,40,131,8130044,,,,,,,2023-11-07,1,,,,,アイノテ,0
1257,4290001103612,新規,0,2023-11-07,2023-11-07,株式会社三池テント広告,,株式会社,福岡県,大牟田市,真道寺町３３番地１,,40,202,8360864,,,,,,,2023-11-07,1,,,,,ミイケテントコウコク,0
1265,4320001020119,新規,0,2023-11-07,2023-11-07,株式会社青いねこ,,株式会社,大分県,大分市,今津留１丁目６番１１号１Ｆ,,44,201,8700938,,,,,,,2023-11-07,1,,,,,アオイネコ,0
1266,4320005010108,新規,0,2023-11-07,2023-11-07,行政書士法人みらいサポート,,その他の設立登記法人,大分県,大分市,中央町１丁目４番１０号第一メディアシティビル５階,,44,201,8700035,,,,,,,2023-11-07,1,,,,,ミライサポート,0
1270,4330001031429,新規,0,2023-11-07,2023-11-07,めぐみ食品株式会社,,株式会社,熊本県,下益城郡美里町,萱野２１番地１,,43,348,8614405,,,,,,,2023-11-07,1,,,,,メグミショクヒン,0
1273,4350001018647,新規,0,2023-11-07,2023-11-07,株式会社スタジオブルーノ,,株式会社,宮崎県,宮崎市,佐土原町下田島２０３１１番地６,,45,201,8800211,,,,,,,2023-11-07,1,,,,,スタジオブルーノ,0
1277,4360003013455,新規,0,2023-11-07,2023-11-07,合同会社沖縄ＦＡＥ,,合同会社,沖縄県,島尻郡南風原町,字照屋２２１－８コーポフレンディ３－Ｃ,,47,350,9011116,,,,,,,2023-11-07,1,,,,,エフエーイー,0
1282,4370001050607,新規,0,2023-11-07,2023-11-07,株式会社ササタケビズ,,株式会社,宮城県,仙台市青葉区,柏木１丁目２番３８号柏木丁ビル２階,,04,101,9810933,,,,,,,2023-11-07,1,,,,,ササタケビズ,0
1283,4370003006350,新規,0,2023-11-07,2023-11-07,合同会社プラチナ,,合同会社,宮城県,白石市,旭町１丁目８－４０－３,,04,206,9890223,,,,,,,2023-11-07,1,,,,,プラチナ,0
1284,4380001034113,新規,0,2023-11-07,2023-11-07,株式会社ダーマルトラスト,,株式会社,福島県,伊達市,保原町大泉字道城場４０番地１３,,07,213,9600634,,,,,,,2023-11-07,1,,,,,ダーマルトラスト,0
1287,4400001016455,新規,0,2023-11-07,2023-11-07,株式会社ＯＭＳ,,株式会社,岩手県,九戸郡軽米町,大字上舘第７地割６番地１,,03,501,0286301,,,,,,,2023-11-07,1,,,,,オーエムエス,0
1288,4420001018474,新規,0,2023-11-07,2023-11-07,株式会社ワイズホーム,,株式会社,青森県,弘前市,大字早稲田２丁目８番地６,,02,202,0368087,,,,,,,2023-11-07,1,,,,,ワイズホーム,0
1291,4430001090340,新規,0,2023-11-07,2023-11-07,株式会社ＮＫＲ,,株式会社,北海道,北広島市,若葉町１丁目４番地２,,01,234,0611142,,,,,,,2023-11-07,1,,,,,エヌケーアール,0
1292,4430001090349,新規,0,2023-11-07,2023-11-07,リバースプラン株式会社,,株式会社,北海道,札幌市北区,北二十五条西１６丁目３番１－１１３号,,01,102,0010025,,,,,,,2023-11-07,1,,,,,リバースプラン,0
1296,4430003015626,新規,0,2023-11-07,2023-11-07,合同会社ユーテク,,合同会社,北海道,札幌市東区,北四十五条東５丁目５番１３号－２０１,,01,103,0070845,,,,,,,2023-11-07,1,,,,,ユーテク,0
1308,4700150120820,新規,0,2023-11-07,2023-11-07,深セン市千和幸実業　有限公司,,外国会社等,,,,,,,,中国深セン市龍崗区吉華街道光華社区陽光花園Ａ３棟１単元１０２,,,,,,2023-11-07,1,,,,,シンセンシセンワコウジツギヨウユウゲンコウシ,0
1309,4700150121876,新規,0,2023-11-07,2023-11-07,兵庫・大阪連携「阪神タイガース、オリックス・バファローズ優勝記念パレード」～２０２５年大阪・関西万博５００日前！～実行委員会,,その他,大阪府,大阪市中央区,大手前２丁目１－２２,,27,128,5400008,,,,,,,2023-11-07,1,,,,,ヒョウゴオオサカレンケイハンシンタイガースオリックスバファローズユウショウキネンパレードニセンニジュウゴネンオオサカカンサイバンパクゴヒャクニチマエジッコウイインカイ,0
1319,5010001239755,新規,0,2023-11-07,2023-11-07,Ｍａｉａ株式会社,,株式会社,東京都,千代田区,永田町２丁目１４番２号山王グランドビル３階スリーアイズキャピタル株式会社内,,13,101,1000014,,,,,,,2023-11-07,1,,,,,マイア,0
1320,5010001239763,新規,0,2023-11-07,2023-11-07,株式会社ｋｉｔ,,株式会社,東京都,中央区,銀座１丁目１２番４号Ｎ＆ＥＢＬＤ．６Ｆ,,13,102,1040061,,,,,,,2023-11-07,1,,,,,キット,0
1321,5010001239788,新規,0,2023-11-07,2023-11-07,サクラリーシング株式会社,,株式会社,東京都,千代田区,丸の内１丁目３番２号,,13,101,1000005,,,,,,,2023-11-07,1,,,,,サクラリーシング,0
1322,5010001239796,新規,0,2023-11-07,2023-11-07,ＳＭＦＬレオ株式会社,,株式会社,東京都,千代田区,丸の内１丁目３番２号,,13,101,1000005,,,,,,,2023-11-07,1,,,,,エスエムエフエルレオ,0
1323,5010001239805,新規,0,2023-11-07,2023-11-07,ル・プレジール株式会社,,株式会社,東京都,中央区,佃２丁目２番１０－３７０２号,,13,102,1040051,,,,,,,2023-11-07,1,,,,,ルプレジール,0
1324,5010001239821,新規,0,2023-11-07,2023-11-07,株式会社ＳｉｍｂａＴｅｃｈ,,株式会社,東京都,中央区,銀座１丁目１２－４Ｎ＆ＥＢＬＤ．７階,,13,102,1040061,,,,,,,2023-11-07,1,,,,,シンバテック,0
1325,5010001239862,新規,0,2023-11-07,2023-11-07,ＪＳ株式会社,,株式会社,東京都,中央区,日本橋人形町２丁目１３番９号７階,,13,102,1030013,,,,,,,2023-11-07,1,,,,,ジェーエス,0
1326,5010001239887,新規,0,2023-11-07,2023-11-07,株式会社Ｅｎｂｉｔｉｏｕｓ,,株式会社,東京都,中央区,日本橋室町１丁目１１番１２号日本橋水野ビル７階,,13,102,1030022,,,,,,,2023-11-07,1,,,,,エンビシャス,0
1334,5010003042133,新規,0,2023-11-07,2023-11-07,合同会社エッセンシャルカンパニー,,合同会社,東京都,中央区,銀座７丁目１３番６号,,13,102,1040061,,,,,,,2023-11-07,1,,,,,エッセンシャルカンパニー,0
1343,5010401177869,新規,0,2023-11-07,2023-11-07,株式会社Ｙａｓｈｉｏｒｉ,,株式会社,東京都,港区,南青山３丁目１番３６号青山丸竹ビル６Ｆ,,13,103,1070062,,,,,,,2023-11-07,1,,,,,ヤシオリ,0
1344,5010401178314,新規,0,2023-11-07,2023-11-07,株式会社ＬＩＣ,,株式会社,東京都,港区,芝２丁目２９番８号Ｈａｌｕｗａ芝公園１３０７,,13,103,1050014,,,,,,,2023-11-07,1,,,,,リック,0
1345,5010401178322,新規,0,2023-11-07,2023-11-07,株式会社ひなも,,株式会社,東京都,港区,白金６丁目２－１,,13,103,1080072,,,,,,,2023-11-07,1,,,,,,0
1346,5010401178330,新規,0,2023-11-07,2023-11-07,株式会社ＴＳ　Ｃｏｒｐｏｒａｔｉｏｎ,,株式会社,東京都,港区,南青山５丁目４番６－４０３号,,13,103,1070062,,,,,,,2023-11-07,1,,,,,ティーエスコーポレーション,0
1347,5010401178339,新規,0,2023-11-07,2023-11-07,株式会社ＪＧ２１,,株式会社,東京都,港区,虎ノ門１丁目３番１号,,13,103,1050001,,,,,,,2023-11-07,1,,,,,ジェイジーニジュウイチ,0
1348,5010401178363,新規,0,2023-11-07,2023-11-07,モーリスビリー・プロジェクトマネジメント株式会社,,株式会社,東京都,港区,虎ノ門１丁目１－１虎ノ門ヒルズビジネスタワー１５階,,13,103,1050001,,,,,,,2023-11-07,1,,,,,モーリスビリープロジェクトマネジメント,0
1349,5010403031289,新規,0,2023-11-07,2023-11-07,合同会社ＴＥＣＨ　ＴＯＷＮ　ＪＡＰＡＮ,,合同会社,東京都,港区,南青山２丁目２番１５号,,13,103,1070062,,,,,,,2023-11-07,1,,,,,テックタウンジャパン,0
1350,5010403031297,新規,0,2023-11-07,2023-11-07,合同会社響グループ,,合同会社,東京都,港区,南青山２丁目２番１５号,,13,103,1070062,,,,,,,2023-11-07,1,,,,,ヒビキグループ,0
1354,5010701045065,新規,0,2023-11-07,2023-11-07,株式会社ＮＫホールディングス,,株式会社,東京都,品川区,上大崎３丁目１番３０－２２１１号,,13,109,1410021,,,,,,,2023-11-07,1,,,,,エヌケーホールディングス,0
1355,5010801034496,新規,0,2023-11-07,2023-11-07,株式会社フロンティア技研ホールディングス,,株式会社,東京都,大田区,千鳥１丁目９番１１号,,13,111,1460083,,,,,,,2023-11-07,1,,,,,フロンティアギケンホールディングス,0
1357,5010803004737,新規,0,2023-11-07,2023-11-07,Ｂｌａｚｅ　Ｃｒｅａｔｅ合同会社,,合同会社,東京都,大田区,本羽田３丁目１５番７号１Ｆ,,13,111,1440044,,,,,,,2023-11-07,1,,,,,ブレーズクリーエート,0
1359,5010901054139,新規,0,2023-11-07,2023-11-07,株式会社Ｂｅａｃｏｎ,,株式会社,東京都,世田谷区,野沢２丁目９番５号リムテラス世田谷野沢１０８,,13,112,1540003,,,,,,,2023-11-07,1,,,,,ビーコン,0
1367,5011001158078,新規,0,2023-11-07,2023-11-07,Ｕｍｉ　Ｌａｂｓ　Ｊａｐａｎ株式会社,,株式会社,東京都,渋谷区,神宮前６丁目２３番４号桑野ビル２階,,13,113,1500001,,,,,,,2023-11-07,1,,,,,ウミラボジャパン,0
1368,5011001158086,新規,0,2023-11-07,2023-11-07,株式会社ソーシャルグラム,,株式会社,東京都,目黒区,青葉台２丁目１７番３号パークビュー青葉台３０２,,13,110,1530042,,,,,,,2023-11-07,1,,,,,ソーシャルグラム,0
1371,5011003017843,新規,0,2023-11-07,2023-11-07,東京ベイ合同会社,,合同会社,東京都,目黒区,下目黒１丁目１番１４号コノトラビル７階,,13,110,1530064,,,,,,,2023-11-07,1,,,,,トウキョウベイ,0
1374,5011101105013,新規,0,2023-11-07,2023-11-07,Ｉｃｈｉ　Ｃｈｕｒｒｏ株式会社,,株式会社,東京都,新宿区,大久保１丁目１６番１４号山水林ビル４０３号,,13,104,1690072,,,,,,,2023-11-07,1,,,,,イチチュロ,0
1375,5011101105038,新規,0,2023-11-07,2023-11-07,株式会社スエルテ,,株式会社,東京都,新宿区,西新宿５丁目８番２－１４０５号,,13,104,1600023,,,,,,,2023-11-07,1,,,,,スエルテ,0
1379,5011203004220,新規,0,2023-11-07,2023-11-07,Ｃｏｕｔｕｒｅ　Ｂｏｕｑｕｅｔ合同会社,,合同会社,東京都,中野区,江古田１丁目２２番８号,,13,114,1650022,,,,,,,2023-11-07,1,,,,,クチュールブーケ,0
1385,5011601027244,新規,0,2023-11-07,2023-11-07,株式会社ジェムブリリアント,,株式会社,東京都,練馬区,練馬３丁目３０番８－２０１号,,13,120,1760001,,,,,,,2023-11-07,1,,,,,ジェムブリリアント,0
1386,5011601027252,新規,0,2023-11-07,2023-11-07,株式会社北武ビルメン,,株式会社,東京都,練馬区,中村３丁目１３番３号,,13,120,1760024,,,,,,,2023-11-07,1,,,,,ホクブビルメン,0
1387,5011603004118,新規,0,2023-11-07,2023-11-07,ファイブスタジオ合同会社,,合同会社,東京都,練馬区,石神井台３丁目３１番５号ＲｉｃｏＭｉｉ３０９号室,,13,120,1770045,,,,,,,2023-11-07,1,,,,,ファイブスタジオ,0
1389,5011801043289,新規,0,2023-11-07,2023-11-07,株式会社シャンセ,,株式会社,東京都,足立区,梅島３丁目３３番６号エンブレム西新井２階,,13,121,1210816,,,,,,,2023-11-07,1,,,,,シャンセ,0
1390,5011803005923,新規,0,2023-11-07,2023-11-07,合同会社Ｏｐｕｓ　Ｏｎｅ,,合同会社,東京都,足立区,舎人６丁目２番２－２０２号,,13,121,1210831,,,,,,,2023-11-07,1,,,,,オーパスワン,0
1394,5012401041195,新規,0,2023-11-07,2023-11-07,株式会社フリークホーム,,株式会社,東京都,武蔵野市,境南町２丁目１８番１７号,,13,203,1800023,,,,,,,2023-11-07,1,,,,,フリークホーム,0
1397,5012801022745,新規,0,2023-11-07,2023-11-07,株式会社ＦＣ＆Ｓ,,株式会社,東京都,日野市,三沢１２９１番地の１ルイシャトレ百草園ヒルズ８０６,,13,212,1910032,,,,,,,2023-11-07,1,,,,,エフシーアンドエス,0
1399,5013301051581,新規,0,2023-11-07,2023-11-07,株式会社クレアトゥール,,株式会社,東京都,豊島区,東池袋３丁目１番４号,,13,116,1700013,,,,,,,2023-11-07,1,,,,,クレアトゥール,0
1407,5020001154251,新規,0,2023-11-07,2023-11-07,賀エネルギー株式会社,,株式会社,神奈川県,横浜市南区,別所１丁目１２番１８－１０１号,,14,105,2320064,,,,,,,2023-11-07,1,,,,,ガエネルギー,0
1408,5020001154284,新規,0,2023-11-07,2023-11-07,株式会社富海,,株式会社,神奈川県,横浜市旭区,今宿西町３６４番地６３,,14,112,2410031,,,,,,,2023-11-07,1,,,,,フミ,0
1409,5020001154350,新規,0,2023-11-07,2023-11-07,株式会社Ｓｔａｒｋ　Ｃｒｅｗ　Ｃｏｍｐａｎｙ,,株式会社,神奈川県,横浜市港北区,新吉田東８丁目４８番１４－７１３号,,14,109,2230058,,,,,,,2023-11-07,1,,,,,シュタルククルーカンパニー,0
1410,5020001154400,新規,0,2023-11-07,2023-11-07,株式会社ソルトバレー,,株式会社,神奈川県,川崎市宮前区,土橋１丁目２４番地７,,14,136,2160005,,,,,,,2023-11-07,1,,,,,ソルトバレー,0
1418,5020003024915,新規,0,2023-11-07,2023-11-07,合同会社ＭＭＳ,,合同会社,神奈川県,川崎市宮前区,土橋３丁目２３番地１３,,14,136,2160005,,,,,,,2023-11-07,1,,,,,エムエムエス,0
1424,5021001080636,新規,0,2023-11-07,2023-11-07,株式会社リノクラフツ,,株式会社,神奈川県,鎌倉市,小町２丁目１２番２９号,,14,204,2480006,,,,,,,2023-11-07,1,,,,,リノクラフツ,0
1425,5021001080644,新規,0,2023-11-07,2023-11-07,株式会社ＷＡＤＡ　ＤＥＮＴＡＬ,,株式会社,神奈川県,茅ヶ崎市,高田５丁目１番１９号,,14,207,2530002,,,,,,,2023-11-07,1,,,,,ワダデンタル,0
1426,5021001080660,新規,0,2023-11-07,2023-11-07,株式会社Ａ‐ＲＩＳＥ,,株式会社,神奈川県,横須賀市,津久井１丁目２０番３３号シーレックス津久井浜Ａ３０１,,14,201,2390843,,,,,,,2023-11-07,1,,,,,エーライズ,0
1427,5021001080669,新規,0,2023-11-07,2023-11-07,ｃｏｎｓｕｌ株式会社,,株式会社,神奈川県,相模原市南区,大野台３丁目２１番８号,,14,153,2520331,,,,,,,2023-11-07,1,,,,,コンサル,0
1432,5021003013759,新規,0,2023-11-07,2023-11-07,合同会社トウレコ,,合同会社,神奈川県,座間市,東原５丁目１番１０号,,14,216,2520004,,,,,,,2023-11-07,1,,,,,トウレコ,0
1433,5021003013767,新規,0,2023-11-07,2023-11-07,合同会社ブロス,,合同会社,神奈川県,横須賀市,武２丁目１２番４０号２１１,,14,201,2380313,,,,,,,2023-11-07,1,,,,,ブロス,0
1434,5021003013775,新規,0,2023-11-07,2023-11-07,石垣工業合同会社,,合同会社,神奈川県,綾瀬市,上土棚北２丁目８番２号,,14,218,2521111,,,,,,,2023-11-07,1,,,,,イシガキコウギョウ,0
1444,5030001156973,新規,0,2023-11-07,2023-11-07,団宝家族株式会社,,株式会社,埼玉県,川口市,芝西１丁目２５番４号,,11,203,3330855,,,,,,,2023-11-07,1,,,,,ダンホウカゾク,0
1445,5030001157030,新規,0,2023-11-07,2023-11-07,株式会社茉莉電気,,株式会社,埼玉県,川口市,上青木２丁目７番２２号シャトレヤマノＡ２０３号,,11,203,3330844,,,,,,,2023-11-07,1,,,,,マツリデンキ,0
1452,5040001130795,新規,0,2023-11-07,2023-11-07,株式会社ＫＨＣ,,株式会社,千葉県,柏市,篠籠田１３８１番地１９９,,12,217,2770862,,,,,,,2023-11-07,1,,,,,ケーエイチシー,0
1453,5040001130804,新規,0,2023-11-07,2023-11-07,株式会社ＳＫホールディングス,,株式会社,千葉県,四街道市,鹿放ケ丘１１１番地１－２Ｆ,,12,228,2840008,,,,,,,2023-11-07,1,,,,,エスケイホールディングス,0
1454,5040001130812,新規,0,2023-11-07,2023-11-07,株式会社花見川サービス,,株式会社,千葉県,市原市,ちはら台東４丁目１８番地２－１０３号,,12,219,2900141,,,,,,,2023-11-07,1,,,,,ハナミガワサービス,0
1458,5040003023675,新規,0,2023-11-07,2023-11-07,ＴＲＫ　Ｔｒａｄｉｎｇ合同会社,,合同会社,千葉県,千葉市中央区,新宿２丁目１番２０号結城野ビル２,,12,101,2600021,,,,,,,2023-11-07,1,,,,,ティーアールケートレイディング,0
1462,5050003007917,新規,0,2023-11-07,2023-11-07,合同会社ＴＰＣ,,合同会社,茨城県,水戸市,見川５丁目４番地の４６,,08,201,3100912,,,,,,,2023-11-07,1,,,,,ティーピーシー,0
1464,5060001036504,新規,0,2023-11-07,2023-11-07,株式会社コルダエンターテイメント,,株式会社,栃木県,足利市,堀込町２９４５番地９,,09,202,3260831,,,,,,,2023-11-07,1,,,,,コルダエンターテイメント,0
1469,5060003004797,新規,0,2023-11-07,2023-11-07,合同会社Ｄ　Ｌｉｆｅ　Ｐｌａｎ,,合同会社,栃木県,宇都宮市,兵庫塚３丁目２番１３号,,09,201,3210138,,,,,,,2023-11-07,1,,,,,ディーライフプラン,0
1479,5100001036945,新規,0,2023-11-07,2023-11-07,株式会社ＭｏｏＮ,,株式会社,長野県,長野市,上松３丁目２４番２１号,,20,201,3800802,,,,,,,2023-11-07,1,,,,,ムーン,0
1480,5100001036953,新規,0,2023-11-07,2023-11-07,株式会社毛利,,株式会社,長野県,松本市,中央１丁目７番１７号,,20,202,3900811,,,,,,,2023-11-07,1,,,,,モウリ,0
1492,5120001259461,新規,0,2023-11-07,2023-11-07,満福株式会社,,株式会社,大阪府,大阪市淀川区,十三東３丁目２６番８号,,27,123,5320023,,,,,,,2023-11-07,1,,,,,マンフク,0
1493,5120001259552,新規,0,2023-11-07,2023-11-07,ウィルボンテ株式会社,,株式会社,大阪府,大阪市此花区,高見１丁目８番１８－５０３号,,27,104,5540001,,,,,,,2023-11-07,1,,,,,ウィルボンテ,0
1494,5120001259560,新規,0,2023-11-07,2023-11-07,Ｇｒａｃｅｆｕｌ　Ｆｌｏｗｅｒ株式会社,,株式会社,大阪府,大阪市東成区,大今里西１丁目５番１３号,,27,115,5370014,,,,,,,2023-11-07,1,,,,,グレイスフルフラワー,0
1495,5120001259585,新規,0,2023-11-07,2023-11-07,積水ハウス建設ホールディングス株式会社,,株式会社,大阪府,大阪市北区,大淀中１丁目１番８８号,,27,127,5310076,,,,,,,2023-11-07,1,,,,,セキスイハウスケンセツホールディングス,0
1496,5120001259635,新規,0,2023-11-07,2023-11-07,株式会社ＭＡＲＩＮＴＲＵＳＴ,,株式会社,大阪府,大阪市中央区,南船場２丁目３番６号第一住建長堀橋駅前ビル２階,,27,128,5420081,,,,,,,2023-11-07,1,,,,,マリントラスト,0
1497,5120001259651,新規,0,2023-11-07,2023-11-07,株式会社ベストロジスティクス,,株式会社,大阪府,大阪市西区,南堀江２丁目２番１号堀江ハイツ１０１号室,,27,106,5500015,,,,,,,2023-11-07,1,,,,,ベストロジスティクス,0
1498,5120001259676,新規,0,2023-11-07,2023-11-07,株式会社ＺＵＭＡＳＵ,,株式会社,大阪府,大阪市北区,松ケ枝町４番３－１００３号,,27,127,5300037,,,,,,,2023-11-07,1,,,,,ズマス,0
1500,5120003025267,新規,0,2023-11-07,2023-11-07,合同会社ＶＩＥＴＫＥＮ　ＭＡＲＴ,,合同会社,大阪府,大阪市平野区,長吉六反４丁目９番５８号,,27,126,5470012,,,,,,,2023-11-07,1,,,,,ベトケンマート,0
1510,5120901048328,新規,0,2023-11-07,2023-11-07,株式会社ＮＡＹＡ,,株式会社,大阪府,豊中市,本町９丁目１番４１号メゾン豊中ＰＡＲＴ１８、２０５号室,,27,203,5600021,,,,,,,2023-11-07,1,,,,,ナヤ,0
1512,5120903004907,新規,0,2023-11-07,2023-11-07,合同会社ＫＡＴＳＵＭＡ,,合同会社,大阪府,豊中市,北緑丘２丁目１番北緑丘団地１３棟５０５,,27,203,5600001,,,,,,,2023-11-07,1,,,,,カツマ,0
1513,5122003002709,新規,0,2023-11-07,2023-11-07,合同会社よりはうす,,合同会社,大阪府,東大阪市,西堤本通東１丁目２－２２,,27,227,5770045,,,,,,,2023-11-07,1,,,,,ヨリハウス,0
1525,5140001132162,新規,0,2023-11-07,2023-11-07,株式会社ボヤージュデュモンド,,株式会社,兵庫県,神戸市東灘区,御影中町４丁目５番８－１０２号,,28,101,6580054,,,,,,,2023-11-07,1,,,,,ボヤージュデュモンド,0
1537,5180001158798,新規,0,2023-11-07,2023-11-07,株式会社ｉｒｏｄｏｒｉ,,株式会社,愛知県,名古屋市西区,菊井２丁目２番１号,,23,104,4510044,,,,,,,2023-11-07,1,,,,,イロドリ,0
1538,5180001158823,新規,0,2023-11-07,2023-11-07,株式会社杉山電機サービス,,株式会社,愛知県,名古屋市港区,春田野２丁目１７０３番地,,23,111,4550873,,,,,,,2023-11-07,1,,,,,スギヤマデンキサービス,0
1542,5180003025897,新規,0,2023-11-07,2023-11-07,合同会社まちエン,,合同会社,愛知県,春日井市,旭町１丁目５番地３ライズ６０１号,,23,206,4860929,,,,,,,2023-11-07,1,,,,,マチエン,0
1543,5180003025963,新規,0,2023-11-07,2023-11-07,合同会社ＥＧＯＳＡＰＥ,,合同会社,愛知県,知多郡東浦町,大字緒川字旭１１番地の１,,23,442,4702102,,,,,,,2023-11-07,1,,,,,エゴサップ,0
1547,5180301037974,新規,0,2023-11-07,2023-11-07,ＮＩＰＰＯＮ　ＡＵＴＯ株式会社,,株式会社,愛知県,西尾市,吉良町乙川道上６１番地２,,23,213,4440512,,,,,,,2023-11-07,1,,,,,ニッポンオート,0
1553,5240001062399,新規,0,2023-11-07,2023-11-07,株式会社ＳＥＥＤ,,株式会社,広島県,広島市中区,袋町７番１１号５０ビル２階,,34,101,7300036,,,,,,,2023-11-07,1,,,,,シード,0
1555,5240003006404,新規,0,2023-11-07,2023-11-07,合同会社サニーコム,,合同会社,広島県,呉市,中央３丁目２番８号,,34,202,7370051,,,,,,,2023-11-07,1,,,,,サニーコム,0
1565,5290001103603,新規,0,2023-11-07,2023-11-07,株式会社リフィックス,,株式会社,福岡県,福岡市東区,千早４丁目１番６号,,40,131,8130044,,,,,,,2023-11-07,1,,,,,リフィックス,0
1566,5290001103669,新規,0,2023-11-07,2023-11-07,株式会社ＲＩＫＩＬＵＣＫ,,株式会社,福岡県,福岡市西区,内浜２丁目２３番１５号,,40,135,8190005,,,,,,,2023-11-07,1,,,,,リキラック,0
1568,5290003014567,新規,0,2023-11-07,2023-11-07,カルテットラボ合同会社,,合同会社,福岡県,福岡市中央区,天神２丁目２番１２号Ｔ＆Ｊビルディング７Ｆ,,40,133,8100001,,,,,,,2023-11-07,1,,,,,カルテットラボ,0
1587,5320003004226,新規,0,2023-11-07,2023-11-07,合同会社Ｒａｃｃｏｏｎ　ｄｏｇ,,合同会社,大分県,大分市,横塚２丁目９番１１－２０５号Ｐｒｏｕｄ２,,44,201,8700254,,,,,,,2023-11-07,1,,,,,,0
1596,5360001032778,新規,0,2023-11-07,2023-11-07,株式会社琉球ＳＲ,,株式会社,沖縄県,糸満市,潮崎町３丁目２３－９,,47,210,9010364,,,,,,,2023-11-07,1,,,,,リュウキュウエスアール,0
1597,5360001032794,新規,0,2023-11-07,2023-11-07,株式会社Ｒｙｕ工業,,株式会社,沖縄県,中頭郡読谷村,字楚辺１３９５番地７０,,47,324,9040304,,,,,,,2023-11-07,1,,,,,リュウコウギョウ,0
1599,5360003013454,新規,0,2023-11-07,2023-11-07,コネクト合同会社,,合同会社,沖縄県,那覇市,字仲井真３７２番地１、１０１,,47,201,9020074,,,,,,,2023-11-07,1,,,,,コネクト,0
1610,5390003002157,新規,0,2023-11-07,2023-11-07,合同会社ＬＡＦＩＯＲ,,合同会社,山形県,酒田市,こがね町１丁目１２―１３,,06,204,9980852,,,,,,,2023-11-07,1,,,,,ラフィオール,0
1611,5400001016454,新規,0,2023-11-07,2023-11-07,株式会社天馬農場,,株式会社,岩手県,九戸郡軽米町,大字軽米第７地割３１番地２,,03,501,0286302,,,,,,,2023-11-07,1,,,,,テンマノウジョウ,0
1612,5410003003862,新規,0,2023-11-07,2023-11-07,合同会社リンク,,合同会社,秋田県,湯沢市,山田字下六日町２６番地,,05,207,0120055,,,,,,,2023-11-07,1,,,,,リンク,0
1615,5420003002830,新規,0,2023-11-07,2023-11-07,合同会社浅草焼,,合同会社,青森県,青森市,桜川９丁目７番１８－１号,,02,201,0300945,,,,,,,2023-11-07,1,,,,,アサクサヤキ,0
1618,5430001090348,新規,0,2023-11-07,2023-11-07,洲悦産業株式会社,,株式会社,北海道,札幌市中央区,南二十二条西８丁目３番６‐３号,,01,101,0640922,,,,,,,2023-11-07,1,,,,,シュエツサンギョウ,0
1619,5430001090356,新規,0,2023-11-07,2023-11-07,株式会社太郎山,,株式会社,北海道,札幌市清田区,平岡十条２丁目１４番１９号,,01,110,0040880,,,,,,,2023-11-07,1,,,,,タロウヤマ,0
1620,5430001090372,新規,0,2023-11-07,2023-11-07,株式会社東日本店舗開発,,株式会社,北海道,札幌市中央区,南一条西１０丁目４番地１６３スぺチアーレ・プリーモ１１０１号,,01,101,0600061,,,,,,,2023-11-07,1,,,,,ヒガシニホンテンポカイハツ,0
1644,6010001239713,新規,0,2023-11-07,2023-11-07,株式会社ジャパン・セレモニー・ホールディングス,,株式会社,東京都,千代田区,大手町１丁目７番２号,,13,101,1000004,,,,,,,2023-11-07,1,,,,,ジャパンセレモニーホールディングス,0
1645,6010001239754,新規,0,2023-11-07,2023-11-07,Ｌｕｎａ株式会社,,株式会社,東京都,千代田区,永田町２丁目１４番２号山王グランドビル３階スリーアイズキャピタル株式会社内,,13,101,1000014,,,,,,,2023-11-07,1,,,,,ルナ,0
1646,6010001239762,新規,0,2023-11-07,2023-11-07,株式会社ＥＦＩＬ,,株式会社,東京都,中央区,新川２丁目２１番７号,,13,102,1040033,,,,,,,2023-11-07,1,,,,,エフィル,0
1647,6010001239779,新規,0,2023-11-07,2023-11-07,株式会社ビヨンド,,株式会社,東京都,中央区,銀座７丁目１３番２０号銀座ＴＨビル９階,,13,102,1040061,,,,,,,2023-11-07,1,,,,,ビヨンド,0
1648,6010001239787,新規,0,2023-11-07,2023-11-07,ウィンブルドンリーシング株式会社,,株式会社,東京都,千代田区,丸の内１丁目３番２号,,13,101,1000005,,,,,,,2023-11-07,1,,,,,ウィンブルドンリーシング,0
1649,6010001239795,新規,0,2023-11-07,2023-11-07,ＳＭＦＬジェミニ株式会社,,株式会社,東京都,千代田区,丸の内１丁目３番２号,,13,101,1000005,,,,,,,2023-11-07,1,,,,,エスエムエフエルジェミニ,0
1650,6010001239829,新規,0,2023-11-07,2023-11-07,株式会社グリーモア,,株式会社,東京都,中央区,新川１丁目３番２１号,,13,102,1040033,,,,,,,2023-11-07,1,,,,,グリーモア,0
1651,6010001239861,新規,0,2023-11-07,2023-11-07,心栄警備保障株式会社,,株式会社,東京都,文京区,本郷２丁目２５番１４号第一ライトビル５Ｆ,,13,105,1130033,,,,,,,2023-11-07,1,,,,,シンエイケイビホショウ,0
1652,6010001239894,新規,0,2023-11-07,2023-11-07,株式会社Ｌａ　ｍｉｕ,,株式会社,東京都,中央区,銀座７丁目１５番８号タウンハイツ銀座４０６,,13,102,1040061,,,,,,,2023-11-07,1,,,,,ラミウ,0
1659,6010003042099,新規,0,2023-11-07,2023-11-07,合同会社ＹｂＣｒｅａｔｉｖｅＳｔｕｄｉｏ,,合同会社,東京都,文京区,湯島２丁目４番１号ＴＯＵＲＹＵＯＣＨＡＮＯＭＩＺＵビル４０２,,13,105,1130034,,,,,,,2023-11-07,1,,,,,ワイビークリエイティブスタジオ,0
1660,6010003042108,新規,0,2023-11-07,2023-11-07,合同会社フレンズ,,合同会社,東京都,中央区,日本橋室町１丁目１１番１２号日本橋水野ビル７階,,13,102,1030022,,,,,,,2023-11-07,1,,,,,フレンズ,0
1661,6010003042157,新規,0,2023-11-07,2023-11-07,Ｓｅｖｅｎ　Ｂｒｏｓ．Ｐｉｃｔｕｒｅｓ合同会社,,合同会社,東京都,中央区,勝どき１丁目８－１勝どきビュータワー２２１ａ,,13,102,1040054,,,,,,,2023-11-07,1,,,,,セブンブロスピクチャーズ,0
1673,6010401178305,新規,0,2023-11-07,2023-11-07,株式会社ＪＴＢ　Ｉｎｂｏｕｎｄ　Ｔｒｉｐ,,株式会社,東京都,港区,高輪４丁目１０番１８号,,13,103,1080074,,,,,,,2023-11-07,1,,,,,ジェイティービーインバウンドトリップ,0
1674,6010401178313,新規,0,2023-11-07,2023-11-07,株式会社オブリガート研究所,,株式会社,東京都,港区,港南２丁目１６番１号,,13,103,1080075,,,,,,,2023-11-07,1,,,,,オブリガートケンキュウジョ,0
1675,6010401178338,新規,0,2023-11-07,2023-11-07,ニューブリッジ８株式会社,,株式会社,東京都,港区,西新橋２丁目８番６号,,13,103,1050003,,,,,,,2023-11-07,1,,,,,ニューブリッジエイト,0
1676,6010401178362,新規,0,2023-11-07,2023-11-07,株式会社エスポワール,,株式会社,東京都,港区,白金台３丁目１８番１６号Ａ,,13,103,1080071,,,,,,,2023-11-07,1,,,,,エスポワール,0
1677,6010401178370,新規,0,2023-11-07,2023-11-07,トパーズ・リージョナル１Ａ株式会社,,株式会社,東京都,港区,愛宕２丁目５番１号愛宕グリーンヒルズＭＯＲＩタワー３９階,,13,103,1050002,,,,,,,2023-11-07,1,,,,,トパーズリージョナルイチエイ,0
1686,6010901054138,新規,0,2023-11-07,2023-11-07,株式会社祐展,,株式会社,東京都,世田谷区,北烏山３丁目１４番１５号・６－２０３,,13,112,1570061,,,,,,,2023-11-07,1,,,,,ユウテン,0
1689,6011001158069,新規,0,2023-11-07,2023-11-07,梅干しサワー専門店株式会社,,株式会社,東京都,渋谷区,恵比寿西２丁目８番４号ＥＸ恵比寿西ビル５階,,13,113,1500021,,,,,,,2023-11-07,1,,,,,ウメボシサワーセンモンテン,0
1690,6011001158077,新規,0,2023-11-07,2023-11-07,株式会社ＳＣＡＰＥＳ,,株式会社,東京都,渋谷区,猿楽町１７番１０号,,13,113,1500033,,,,,,,2023-11-07,1,,,,,スケープス,0
1691,6011001158093,新規,0,2023-11-07,2023-11-07,ＡＴＥＬＩＥＲ　ＴＥＴＳＵＹＡ株式会社,,株式会社,東京都,目黒区,目黒本町５丁目１４番１４号Ｂ１Ｆ,,13,110,1520002,,,,,,,2023-11-07,1,,,,,アトリエテツヤ,0
1693,6011003017826,新規,0,2023-11-07,2023-11-07,エムズラボ合同会社,,合同会社,東京都,目黒区,目黒１丁目２－１１シャンボール第二目黒３０４,,13,110,1530063,,,,,,,2023-11-07,1,,,,,,0
1694,6011003017842,新規,0,2023-11-07,2023-11-07,渋谷合同会社,,合同会社,東京都,渋谷区,神宮前６丁目２３番４号桑野ビル２階,,13,113,1500001,,,,,,,2023-11-07,1,,,,,シブヤ,0
1695,6011003017850,新規,0,2023-11-07,2023-11-07,ＢＯＲＮＥＲＤ合同会社,,合同会社,東京都,目黒区,目黒２丁目５番１２号,,13,110,1530063,,,,,,,2023-11-07,1,,,,,ボーンナード,0
1700,6011201025028,新規,0,2023-11-07,2023-11-07,株式会社Ｊ‐ｓｔｙｌｅ,,株式会社,東京都,中野区,新井１丁目２３番２０号プリンセスパレス２０２号,,13,114,1650026,,,,,,,2023-11-07,1,,,,,ジェイスタイル,0
1703,6011401025587,新規,0,2023-11-07,2023-11-07,１０００年後に本を残すぞ株式会社,,株式会社,東京都,板橋区,成増２丁目１５番１７号,,13,119,1750094,,,,,,,2023-11-07,1,,,,,センネンゴニホンヲノコスゾ,0
1705,6011501029959,新規,0,2023-11-07,2023-11-07,株式会社ＫＭ,,株式会社,東京都,荒川区,東日暮里１丁目２番８－３０４,,13,118,1160014,,,,,,,2023-11-07,1,,,,,ケーエム,0
1706,6011601027251,新規,0,2023-11-07,2023-11-07,株式会社中村ビルマネジメント,,株式会社,東京都,練馬区,豊玉北５丁目３２番１１号,,13,120,1760012,,,,,,,2023-11-07,1,,,,,ナカムラビルマネジメント,0
1711,6011801043288,新規,0,2023-11-07,2023-11-07,ＫＹＯＫＡＲＡ株式会社,,株式会社,東京都,足立区,中央本町３丁目２番２号ＣＨ３９２－１０２,,13,121,1210011,,,,,,,2023-11-07,1,,,,,キョウカラ,0
1719,6012801022744,新規,0,2023-11-07,2023-11-07,株式会社多摩鉄建,,株式会社,東京都,武蔵村山市,中原２丁目７番地の３ＮＫパレスＩＩ２０５号,00132538,13,223,2080035,,,,,,,2023-11-07,1,,,,,タマテッケン,0
1721,6012803003222,新規,0,2023-11-07,2023-11-07,合同会社ＣＲＡＦＴ,,合同会社,東京都,国立市,西２丁目１９番地の２５,,13,215,1860005,,,,,,,2023-11-07,1,,,,,クラフト,0
1726,6013301051589,新規,0,2023-11-07,2023-11-07,龍騰商事株式会社,,株式会社,東京都,豊島区,池袋本町１丁目３３番８号,,13,116,1700011,,,,,,,2023-11-07,1,,,,,リュウトウショウジ,0
1729,6013303006847,新規,0,2023-11-07,2023-11-07,合同会社ＪＩＮＴ‐ＳＡＩＮ,,合同会社,東京都,豊島区,雑司が谷１丁目４０－４－４０２,,13,116,1710032,,,,,,,2023-11-07,1,,,,,ジントサイン,0
1741,6020001154291,新規,0,2023-11-07,2023-11-07,潤航株式会社,,株式会社,神奈川県,川崎市川崎区,小川町１６－１７ＭＦプラザ５０２,,14,131,2100023,,,,,,,2023-11-07,1,,,,,ジュンコウ,0
1742,6020001154309,新規,0,2023-11-07,2023-11-07,株式会社横浜マリン不動産,,株式会社,神奈川県,横浜市瀬谷区,下瀬谷３丁目５７－１－６－６５２,,14,114,2460035,,,,,,,2023-11-07,1,,,,,ヨコハママリンフドウサン,0
1743,6020001154333,新規,0,2023-11-07,2023-11-07,川崎興業株式会社,,株式会社,神奈川県,川崎市高津区,新作２丁目１７番１３－３号,,14,134,2130014,,,,,,,2023-11-07,1,,,,,カワサキコウギョウ,0
1744,6020001154366,新規,0,2023-11-07,2023-11-07,オッコ株式会社,,株式会社,神奈川県,川崎市中原区,小杉町３丁目４３４番地５－１５０７,,14,133,2110063,,,,,,,2023-11-07,1,,,,,オッコ,0
1750,6021001080668,新規,0,2023-11-07,2023-11-07,株式会社ＩＮＥＤＩＴ,,株式会社,神奈川県,藤沢市,大庭５０２０－４,,14,205,2510861,,,,,,,2023-11-07,1,,,,,イネディット,0
1751,6021001080676,新規,0,2023-11-07,2023-11-07,株式会社星月通信社,,株式会社,神奈川県,鎌倉市,大船１丁目１２番１０号湘南第５ビル４Ｆ,,14,204,2470056,,,,,,,2023-11-07,1,,,,,ホシヅキツウシンシャ,0
1756,6021003013774,新規,0,2023-11-07,2023-11-07,ＢＥＡＲ　ＢＵＮＮＹ　ＰＲＯＤＵＣＥ合同会社,,合同会社,神奈川県,平塚市,松風町２７番２２号,,14,203,2540812,,,,,,,2023-11-07,1,,,,,ベアバニープロデュース,0
1759,6030001156931,新規,0,2023-11-07,2023-11-07,良澤株式会社,,株式会社,埼玉県,蕨市,塚越７丁目３７番２号ブリーズコート蕨塚越テラス４０４号,,11,223,3350002,,,,,,,2023-11-07,1,,,,,ヨシザワ,0
1760,6030001156972,新規,0,2023-11-07,2023-11-07,ＳＵＳ　ＧＬＯＢＡＬ株式会社,,株式会社,埼玉県,川越市,霞ケ関東１丁目１５番地１４ティ・カトウビル２０１号室,,11,201,3501103,,,,,,,2023-11-07,1,,,,,エスユーエスグローバル,0
1761,6030001157013,新規,0,2023-11-07,2023-11-07,株式会社Ｈｏｍｅ　Ｆｉｔ,,株式会社,埼玉県,新座市,本多１丁目１番１６号,,11,230,3520022,,,,,,,2023-11-07,1,,,,,ホームフィット,0
1762,6030001157070,新規,0,2023-11-07,2023-11-07,株式会社セカンドギア,,株式会社,埼玉県,川口市,鳩ヶ谷緑町２丁目１３番地の１１西川口第２ローヤルコーポ８０２号,,11,203,3340015,,,,,,,2023-11-07,1,,,,,セカンドギア,0
1769,6030003022925,新規,0,2023-11-07,2023-11-07,ＡＮＮＡＹＡ合同会社,,合同会社,埼玉県,八潮市,大字木曽根１４７１番地１オンダエルドラド八潮２０７,,11,234,3400813,,,,,,,2023-11-07,1,,,,,,0
1770,6030003022933,新規,0,2023-11-07,2023-11-07,合同会社咲,,合同会社,埼玉県,さいたま市緑区,東浦和５丁目１２番地２１,,11,109,3360926,,,,,,,2023-11-07,1,,,,,サイ,0
1774,6040001130811,新規,0,2023-11-07,2023-11-07,株式会社Ｍ’ｓ,,株式会社,千葉県,松戸市,五香４丁目６２番地の１－１０３号,,12,207,2702213,,,,,,,2023-11-07,1,,,,,エムズ,0
1775,6040001130836,新規,0,2023-11-07,2023-11-07,株式会社ＡＫカンパニー,,株式会社,千葉県,船橋市,本中山３丁目２番２３号,,12,204,2730035,,,,,,,2023-11-07,1,,,,,エーケーカンパニー,0
1779,6040003023674,新規,0,2023-11-07,2023-11-07,はしご合同会社,,合同会社,千葉県,我孫子市,白山１丁目２２番６号,,12,222,2701154,,,,,,,2023-11-07,1,,,,,ハシゴ,0
1783,6050003007916,新規,0,2023-11-07,2023-11-07,ＭＩＡＮ合同会社,,合同会社,茨城県,つくば市,千現２丁目１２番５号学園ハイツＢ棟１１０号室,,08,220,3050047,,,,,,,2023-11-07,1,,,,,ミアン,0
1784,6060001036528,新規,0,2023-11-07,2023-11-07,株式会社シエル,,株式会社,栃木県,那須塩原市,佐野１２６番地７５,,09,213,3293142,,,,,,,2023-11-07,1,,,,,シエル,0
1786,6060003004796,新規,0,2023-11-07,2023-11-07,ＡＳＩＡＮ　ＴＲＡＤＩＮＧ合同会社,,合同会社,栃木県,足利市,鹿島町１１７－１サニーコーポ１０２,,09,202,3260844,,,,,,,2023-11-07,1,,,,,エーシエントレーディング,0
1788,6070001041048,新規,0,2023-11-07,2023-11-07,リハプライム群馬株式会社,,株式会社,群馬県,邑楽郡大泉町,住吉４３番１０号,,10,524,3700521,,,,,,,2023-11-07,1,,,,,リハプライムグンマ,0
1793,6080005007580,新規,0,2023-11-07,2023-11-07,行政書士法人コントレイル,,その他の設立登記法人,静岡県,静岡市葵区,両替町１丁目６番地の８第一松永ビル３階,,22,101,4200032,,,,,,,2023-11-07,1,,,,,コントレイル,0
1819,6120001259543,新規,0,2023-11-07,2023-11-07,株式会社サニーおおさか,,株式会社,大阪府,大阪市西区,立売堀１丁目９番１０号,,27,106,5500012,,,,,,,2023-11-07,1,,,,,サニーオオサカ,0
1823,6120003025290,新規,0,2023-11-07,2023-11-07,マック合同会社,,合同会社,大阪府,大阪市中央区,島之内２丁目６－３－９０１,,27,128,5420082,,,,,,,2023-11-07,1,,,,,マック,0
1827,6120101068480,新規,0,2023-11-07,2023-11-07,瑛進株式会社,,株式会社,大阪府,堺市西区,上野芝町５丁５番１号,,27,144,5938301,,,,,,,2023-11-07,1,,,,,エイシン,0
1830,6120103005523,新規,0,2023-11-07,2023-11-07,合同会社Ｔ‐ｒｉａｌ,,合同会社,大阪府,岸和田市,極楽寺町２丁目７番１８号,,27,202,5960832,,,,,,,2023-11-07,1,,,,,トライアル,0
1836,6120901048319,新規,0,2023-11-07,2023-11-07,宏重量機工株式会社,,株式会社,大阪府,吹田市,南吹田１丁目９番１２－２０１号,,27,205,5640043,,,,,,,2023-11-07,1,,,,,ヒロジュウリョウキコウ,0
1837,6120901048327,新規,0,2023-11-07,2023-11-07,株式会社アール,,株式会社,大阪府,茨木市,山手台６丁目１５番１６号,,27,211,5670009,,,,,,,2023-11-07,1,,,,,アール,0
1838,6120903004906,新規,0,2023-11-07,2023-11-07,合同会社ＣＰＰ,,合同会社,大阪府,箕面市,石丸２丁目４番２４号,,27,220,5620027,,,,,,,2023-11-07,1,,,,,シーピーピー,0
1844,6130001075667,新規,0,2023-11-07,2023-11-07,株式会社ＴＡＢＵＣＨＩ,,株式会社,京都府,京都市右京区,嵯峨甲塚町１－１５,00132547,26,108,6168341,,,,,,,2023-11-07,1,,,,,タブチ,0
1847,6130003009111,新規,0,2023-11-07,2023-11-07,合同会社グランドスラム,,合同会社,京都府,京都市伏見区,桃山町大島２４５リヴィエール１０７,,26,109,6128006,,,,,,,2023-11-07,1,,,,,グランドスラム,0
1850,6160001025462,新規,0,2023-11-07,2023-11-07,株式会社ＫＴＲ,,株式会社,滋賀県,大津市,大平１丁目２４番２８号,,25,201,5200867,,,,,,,2023-11-07,1,,,,,ケーティーアール,0
1851,6160001025470,新規,0,2023-11-07,2023-11-07,株式会社ビイスタッフ,,株式会社,滋賀県,草津市,志那中町１０２番地１,,25,206,5250006,,,,,,,2023-11-07,1,,,,,ビイスタッフ,0
1852,6160001025479,新規,0,2023-11-07,2023-11-07,ネジマックス株式会社,,株式会社,滋賀県,彦根市,戸賀町９５番地１８ＴＣビル１Ｆ,,25,202,5220042,,,,,,,2023-11-07,1,,,,,ネジマックス,0
1865,6180001158797,新規,0,2023-11-07,2023-11-07,ＵＮＩＴＥ株式会社,,株式会社,愛知県,一宮市,三条字ヱグロ８２番地,,23,203,4940003,,,,,,,2023-11-07,1,,,,,ユナイト,0
1868,6180003025946,新規,0,2023-11-07,2023-11-07,合同会社ＰａｌＰｅ,,合同会社,愛知県,名古屋市緑区,桃山２丁目８５番地,,23,114,4580002,,,,,,,2023-11-07,1,,,,,パルペ,0
1870,6180005020417,新規,0,2023-11-07,2023-11-07,特定非営利活動法人食品サークル,,その他の設立登記法人,愛知県,名古屋市瑞穂区,中山町４丁目１２番地の２,,23,108,4670803,,,,,,,2023-11-07,1,,,,,ショクヒンサークル,0
1872,6180301037973,新規,0,2023-11-07,2023-11-07,高内トータルホーム株式会社,,株式会社,愛知県,豊田市,若林西町六反ケ坪９番地２,,23,211,4730917,,,,,,,2023-11-07,1,,,,,タカウチトータルホーム,0
1876,6190001030856,新規,0,2023-11-07,2023-11-07,株式会社カワシマオートパーツ,,株式会社,三重県,四日市市,川島町４６２９番地４２,,24,202,5120934,,,,,,,2023-11-07,1,,,,,カワシマオートパーツ,0
1877,6190001030864,新規,0,2023-11-07,2023-11-07,株式会社新成ホールディングス,,株式会社,三重県,四日市市,釆女町１５８３番１,,24,202,5100954,,,,,,,2023-11-07,1,,,,,シンセイホールディングス,0
1878,6190001030872,新規,0,2023-11-07,2023-11-07,株式会社Ｎｏｒｔｈ　Ｂｅａｃｈ,,株式会社,三重県,四日市市,泊町１１番７号,,24,202,5100884,,,,,,,2023-11-07,1,,,,,ノースビーチ,0
1879,6190003004494,新規,0,2023-11-07,2023-11-07,合同会社セントラルテイル,,合同会社,三重県,津市,桜橋１丁目６６４番地ロイヤルクレスト津桜橋５０１号室,,24,201,5140003,,,,,,,2023-11-07,1,,,,,セントラルテイル,0
1885,6230001020092,新規,0,2023-11-07,2023-11-07,庄川不動産株式会社,,株式会社,富山県,砺波市,宮森４６２番地,,16,208,9391406,,,,,,,2023-11-07,1,,,,,ショウガワフドウサン,0
1887,6240001062373,新規,0,2023-11-07,2023-11-07,株式会社柳がわ,00132530,株式会社,広島県,広島市南区,翠３丁目１３番１５－４０１号,,34,103,7340005,,,,,,,2023-11-07,1,,,,,ヤナガワ,0
1888,6240001062398,新規,0,2023-11-07,2023-11-07,株式会社ＢＲＡＮＤ　ＶＩＳＴＡ,,株式会社,広島県,呉市,広古新開２丁目３－７,,34,202,7370112,,,,,,,2023-11-07,1,,,,,ブランドヴィスタ,0
1893,6260001038470,新規,0,2023-11-07,2023-11-07,グリーンフィールド株式会社,,株式会社,岡山県,倉敷市,下津井１４２２番地１,,33,202,7110927,,,,,,,2023-11-07,1,,,,,グリーンフィールド,0
1902,6290001103619,新規,0,2023-11-07,2023-11-07,株式会社ユーサポート,,株式会社,福岡県,福岡市中央区,大手門２丁目１番１１号ＮＸ福岡大手門テラス５Ｆ,,40,133,8100074,,,,,,,2023-11-07,1,,,,,ユーサポート,0
1903,6290001103668,新規,0,2023-11-07,2023-11-07,株式会社Ｔｉ設計,,株式会社,福岡県,那珂川市,大字市ノ瀬５４０番地１,,40,231,8111233,,,,,,,2023-11-07,1,,,,,ティーアイセッケイ,0
1916,6320001020133,新規,0,2023-11-07,2023-11-07,ｎｏｎ　ｄｅｓｉｇｎ　ｏｆｆｉｃｅ株式会社,,株式会社,大分県,豊後高田市,森４８４番地１,,44,209,8790611,,,,,,,2023-11-07,1,,,,,ノンデザインオオフィス,0
1917,6320003004225,新規,0,2023-11-07,2023-11-07,合同会社クリスタル,,合同会社,大分県,別府市,西野口町１５番７号,,44,202,8740931,,,,,,,2023-11-07,1,,,,,クリスタル,0
1924,6350001018645,新規,0,2023-11-07,2023-11-07,株式会社ＭＧＣ,,株式会社,宮崎県,都城市,都原町３３番地７,,45,202,8850094,,,,,,,2023-11-07,1,,,,,エムジーシー,0
1934,6370001050605,新規,0,2023-11-07,2023-11-07,株式会社イプサム,,株式会社,宮城県,富谷市,成田８丁目４番地１０,,04,216,9813341,,,,,,,2023-11-07,1,,,,,イプサム,0
1937,6370005010704,新規,0,2023-11-07,2023-11-07,一般社団法人イーチカラー,,その他の設立登記法人,宮城県,仙台市青葉区,上杉３丁目８番３号,,04,101,9800011,,,,,,,2023-11-07,1,,,,,イーチカラー,0
1940,6400001016461,新規,0,2023-11-07,2023-11-07,株式会社ＫＩＮＤ,,株式会社,岩手県,盛岡市,大館町１０番３７号,,03,201,0200147,,,,,,,2023-11-07,1,,,,,カインド,0
1943,6420001018472,新規,0,2023-11-07,2023-11-07,株式会社五香,,株式会社,青森県,八戸市,湊高台２丁目１２番１５号,,02,203,0310823,,,,,,,2023-11-07,1,,,,,ウーシャン,0
1944,6430001090347,新規,0,2023-11-07,2023-11-07,株式会社然,,株式会社,北海道,札幌市東区,東雁来十条２丁目５番１０－３号,,01,103,0070030,,,,,,,2023-11-07,1,,,,,ゼン,0
1952,6500003003134,新規,0,2023-11-07,2023-11-07,合同会社Ｃａｌｍｄａｙｓ　ＡｓｓｅｔＭａｎａｇｅｍｅｎｔ,,合同会社,愛媛県,四国中央市,三島金子１丁目４番１５号,,38,213,7990421,,,,,,,2023-11-07,1,,,,,カームデイズアセットマネジメント,0
1955,6700150120819,新規,0,2023-11-07,2023-11-07,深セン市英欧電子　有限公司,,外国会社等,,,,,,,,中国深セン市龍華区大浪街道工業路龍勝工業区１０棟三楼３０２,,,,,,2023-11-07,1,,,,,シンセンシエイオウデンシユウゲンコウシ,0
1956,6700150121874,新規,0,2023-11-07,2023-11-07,昭和システムエンジニアリング取引先持株会,,その他,東京都,中央区,日本橋小伝馬町１－５ＰＭＯ日本橋江戸通,,13,102,1030001,,,,,,,2023-11-07,1,,,,,ショウワシステムエンジニアリングトリヒキサキモチカブカイ,0
1961,7010001239654,新規,0,2023-11-07,2023-11-07,Ａｓｓｅｔ　Ｑｕａｌｉｔｙ株式会社,,株式会社,東京都,千代田区,二番町９番３号ＴＨＥＢＡＳＥ麹町２Ｆ,,13,101,1020084,,,,,,,2023-11-07,1,,,,,アセットクオリティー,0
1962,7010001239729,新規,0,2023-11-07,2023-11-07,Ｂｌｕｅ　Ｒｉｂｂｏｎ　Ｒｅａｌｔｙ株式会社,,株式会社,東京都,千代田区,内神田２丁目１３番６号,,13,101,1010047,,,,,,,2023-11-07,1,,,,,ブルーリボンリアルティー,0
1963,7010001239745,新規,0,2023-11-07,2023-11-07,青柳食品販売株式会社,,株式会社,東京都,千代田区,神田佐久間町３丁目３７番４号,,13,101,1010025,,,,,,,2023-11-07,1,,,,,アオヤギショクヒンハンバイ,0
1964,7010001239786,新規,0,2023-11-07,2023-11-07,株式会社Ｕｎｔｉｅｓ,,株式会社,東京都,中央区,銀座１丁目２２番１１号銀座大竹ビジデンス２Ｆ,,13,102,1040061,,,,,,,2023-11-07,1,,,,,アンタイズ,0
1965,7010001239794,新規,0,2023-11-07,2023-11-07,ＳＭＦＬトーラス株式会社,,株式会社,東京都,千代田区,丸の内１丁目３番２号,,13,101,1000005,,,,,,,2023-11-07,1,,,,,エスエムエフエルトーラス,0
1966,7010001239803,新規,0,2023-11-07,2023-11-07,株式会社メディカルサイン,,株式会社,東京都,中央区,銀座１丁目１２番４号Ｎ＆ＥＢＬＤ．７階,,13,102,1040061,,,,,,,2023-11-07,1,,,,,メディカルサイン,0
1967,7010001239811,新規,0,2023-11-07,2023-11-07,株式会社ゴールドフォックス,,株式会社,東京都,中央区,日本橋２丁目２番３号ＲＩＳＨＥビルＵＣＦ４０２,,13,102,1030027,,,,,,,2023-11-07,1,,,,,ゴールドフォックス,0
1968,7010001239828,新規,0,2023-11-07,2023-11-07,タスク・イズム株式会社,,株式会社,東京都,千代田区,神田紺屋町８番地ＮＣＯ神田紺屋町７Ｆ－１０,,13,101,1010035,,,,,,,2023-11-07,1,,,,,タスクイズム,0
1969,7010001239836,新規,0,2023-11-07,2023-11-07,株式会社エスエーテイー,,株式会社,東京都,千代田区,東神田２丁目９番１９号８０６号室,,13,101,1010031,,,,,,,2023-11-07,1,,,,,エスエーテイー,0
1970,7010001239852,新規,0,2023-11-07,2023-11-07,株式会社リボンエナジー,,株式会社,東京都,中央区,銀座７丁目１３番６号,,13,102,1040061,,,,,,,2023-11-07,1,,,,,リボンエナジー,0
1971,7010001239860,新規,0,2023-11-07,2023-11-07,株式会社創,,株式会社,東京都,中央区,銀座１丁目１２番４号Ｎ＆ＥＢＬＤ．６Ｆ,,13,102,1040061,,,,,,,2023-11-07,1,,,,,ツクル,0
1976,7010003042098,新規,0,2023-11-07,2023-11-07,合同会社ｔｅａｍＳＥＮ,,合同会社,東京都,千代田区,神田須田町２丁目１５－１１０３,,13,101,1010041,,,,,,,2023-11-07,1,,,,,チームセン,0
1977,7010003042123,新規,0,2023-11-07,2023-11-07,パーフタイル合同会社,,合同会社,東京都,千代田区,神田和泉町１番地６－１６ヤマトビル４０５,,13,101,1010024,,,,,,,2023-11-07,1,,,,,パーフタイル,0
1981,7010401178304,新規,0,2023-11-07,2023-11-07,ＳＨＩＮＥＩ株式会社,,株式会社,東京都,港区,南青山５丁目１２番５号,,13,103,1070062,,,,,,,2023-11-07,1,,,,,シンエイ,0
1982,7010401178337,新規,0,2023-11-07,2023-11-07,ニューブリッジ７株式会社,,株式会社,東京都,港区,西新橋２丁目８番６号,,13,103,1050003,,,,,,,2023-11-07,1,,,,,ニューブリッジセブン,0
1983,7010401178345,新規,0,2023-11-07,2023-11-07,華権株式会社,,株式会社,東京都,港区,南青山２丁目２番１５号ウィン青山９４２,,13,103,1070062,,,,,,,2023-11-07,1,,,,,ハナケン,0
1988,7010403031304,新規,0,2023-11-07,2023-11-07,合同会社ロベリ・プランニング・ラボ,,合同会社,東京都,港区,浜松町２丁目２番１５号浜松町ダイヤビル２Ｆ,,13,103,1050013,,,,,,,2023-11-07,1,,,,,ロベリプランニングラボ,0
1989,7010405022656,新規,0,2023-11-07,2023-11-07,Ｌｉｍｏ一般社団法人,,その他の設立登記法人,東京都,港区,元赤坂１丁目１番８号株式会社赤坂国際会計内,,13,103,1070051,,,,,,,2023-11-07,1,,,,,リモ,0
1993,7010501051286,新規,0,2023-11-07,2023-11-07,株式会社インバウンドＢＡＳＥ,,株式会社,東京都,台東区,上野１丁目１７番６号,,13,106,1100005,,,,,,,2023-11-07,1,,,,,インバウンドベース,0
2002,7010901054112,新規,0,2023-11-07,2023-11-07,株式会社マルユメ,,株式会社,東京都,世田谷区,赤堤５丁目１７番２０号,,13,112,1560044,,,,,,,2023-11-07,1,,,,,マルユメ,0
2003,7010901054129,新規,0,2023-11-07,2023-11-07,株式会社モンステラ,,株式会社,東京都,世田谷区,若林２丁目５－１２,,13,112,1540023,,,,,,,2023-11-07,1,,,,,モンステラ,0
2004,7010901054145,新規,0,2023-11-07,2023-11-07,株式会社樋口景一事務所,,株式会社,東京都,世田谷区,下馬１丁目６番１２－１０１号,,13,112,1540002,,,,,,,2023-11-07,1,,,,,ヒグチケイイチジムショ,0
2011,7011001158142,新規,0,2023-11-07,2023-11-07,株式会社Ｐｒｏｊｅｃｔ　Ｃａｒｅｅｒ,,株式会社,東京都,渋谷区,桜丘町７－３ベラコート渋谷２０３,,13,113,1500031,,,,,,,2023-11-07,1,,,,,プロジェクトキャリア,0
2013,7011003017841,新規,0,2023-11-07,2023-11-07,合同会社ＳＭＩＬＥ,,合同会社,東京都,渋谷区,恵比寿西２丁目８－４ＥＸ恵比寿西ビル５Ｆ,,13,113,1500021,,,,,,,2023-11-07,1,,,,,スマイル,0
2017,7011101105036,新規,0,2023-11-07,2023-11-07,株式会社ヘルピングハンズ,,株式会社,東京都,新宿区,西新宿６丁目１２番７号ストーク新宿１階,,13,104,1600023,,,,,,,2023-11-07,1,,,,,ヘルピングハンズ,0
2018,7011101105052,新規,0,2023-11-07,2023-11-07,株式会社ＧＩＶ,,株式会社,東京都,新宿区,西新宿３丁目３番地１３号西新宿水間ビル６階,,13,104,1600023,,,,,,,2023-11-07,1,,,,,ギブ,0
2019,7011103013708,新規,0,2023-11-07,2023-11-07,合同会社ＳＵＺＵＫＩ,,合同会社,東京都,新宿区,西新宿３丁目３番１３号西新宿水間ビル２階,,13,104,1600023,,,,,,,2023-11-07,1,,,,,スズキ,0
2020,7011105010851,新規,0,2023-11-07,2023-11-07,弁理士法人むさしの国際,,その他の設立登記法人,東京都,新宿区,四谷３丁目４番地８,,13,104,1600004,,,,,,,2023-11-07,1,,,,,ムサシノコクサイ,0
2021,7011201025027,新規,0,2023-11-07,2023-11-07,株式会社リノシュガー,,株式会社,東京都,中野区,中央２丁目３０－９山王ＭＴＧビル２０４,,13,114,1640011,,,,,,,2023-11-07,1,,,,,リノシュガー,0
2022,7011301029142,新規,0,2023-11-07,2023-11-07,株式会社グッドライフパートナー,,株式会社,東京都,杉並区,天沼３丁目２番１４号Ｅｃｏビル,,13,115,1670032,,,,,,,2023-11-07,1,,,,,グッドライフパートナー,0
2024,7011405002268,新規,0,2023-11-07,2023-11-07,一般社団法人国際シーティング自立支援協会,,その他の設立登記法人,東京都,板橋区,南常盤台２丁目２２番５号ＹＰＳビル２Ｆ,,13,119,1740072,,,,,,,2023-11-07,1,,,,,コクサイシーティングジリツシエンキョウカイ,0
2027,7011603004124,新規,0,2023-11-07,2023-11-07,合同会社元弘,,合同会社,東京都,練馬区,大泉学園町７丁目８番３０号ＹＡＦハイム１０１,,13,120,1780061,,,,,,,2023-11-07,1,,,,,ゲンコウ,0
2029,7011801043221,新規,0,2023-11-07,2023-11-07,株式会社ライファス,,株式会社,東京都,葛飾区,新小岩２丁目１番９－１５１６号,,13,122,1240024,,,,,,,2023-11-07,1,,,,,ライファス,0
2030,7011801043287,新規,0,2023-11-07,2023-11-07,アラカン株式会社,,株式会社,東京都,足立区,足立４丁目９番１４号,,13,121,1200015,,,,,,,2023-11-07,1,,,,,アラカン,0
2031,7011803005921,新規,0,2023-11-07,2023-11-07,マジック合同会社,,合同会社,東京都,葛飾区,青戸６丁目４番２５号サンドリアンビル３０３号,,13,122,1250062,,,,,,,2023-11-07,1,,,,,マジック,0
2032,7012401041185,新規,0,2023-11-07,2023-11-07,ＡＳＥＭｔｅｃｈ株式会社,,株式会社,東京都,小金井市,中町２丁目２４番１６号,,13,210,1840012,,,,,,,2023-11-07,1,,,,,エイセムテック,0
2033,7012701017934,新規,0,2023-11-07,2023-11-07,株式会社ＤＡＹ１,,株式会社,東京都,西東京市,南町１丁目１５番３号,,13,229,1880012,,,,,,,2023-11-07,1,,,,,デイワン,0
2034,7012703002851,新規,0,2023-11-07,2023-11-07,ｉｎｓｔｅａｄ合同会社,,合同会社,東京都,小平市,美園町３丁目３番１３号コーポ長坂２０１,,13,211,1870041,,,,,,,2023-11-07,1,,,,,インスティッド,0
2035,7012705002370,新規,0,2023-11-07,2023-11-07,一般財団法人プーライエ,,その他の設立登記法人,東京都,東村山市,多摩湖町４丁目２７番地３０,,13,213,1890026,,,,,,,2023-11-07,1,,,,,プーライエ,0
2038,7012801022743,新規,0,2023-11-07,2023-11-07,株式会社蓮,,株式会社,東京都,日野市,万願寺５丁目１１番地の１５－２０６,,13,212,1910024,,,,,,,2023-11-07,1,,,,,ハス,0
2039,7012801022751,新規,0,2023-11-07,2023-11-07,株式会社ｂａｌｕｓ,,株式会社,東京都,日野市,日野本町４丁目６番地の５東亜建設第１０ビル２０７,,13,212,1910011,,,,,,,2023-11-07,1,,,,,バルス,0
2047,7013301051588,新規,0,2023-11-07,2023-11-07,Ｔｈｅ　Ｆｉｒｓｔ株式会社,,株式会社,東京都,豊島区,池袋１丁目１番７号,,13,116,1700014,,,,,,,2023-11-07,1,,,,,ザファースト,0
2055,7020001154308,新規,0,2023-11-07,2023-11-07,株式会社ａｒｃａｎａ,,株式会社,神奈川県,横浜市鶴見区,栄町通２丁目１２番地１２,,14,101,2300038,,,,,,,2023-11-07,1,,,,,アルカナ,0
2056,7020001154324,新規,0,2023-11-07,2023-11-07,株式会社Ｂｒｉｇｈｔ　Ｆｕｔｕｒｅ,,株式会社,神奈川県,横浜市旭区,今宿南町１９６６番地ベルハイツ今宿Ｆ１０１,,14,112,2410034,,,,,,,2023-11-07,1,,,,,ブライトフューチャー,0
2057,7020001154332,新規,0,2023-11-07,2023-11-07,株式会社Ａｃｃｏｍｐａｎｉｓｔ,,株式会社,神奈川県,横浜市保土ケ谷区,上星川１丁目１０番３４号,,14,106,2400042,,,,,,,2023-11-07,1,,,,,アカンパニスト,0
2058,7020001154340,新規,0,2023-11-07,2023-11-07,株式会社ダイソウ,,株式会社,神奈川県,川崎市川崎区,境町１５番２０号ライオンズマンション川崎境町１０２号室,,14,131,2100838,,,,,,,2023-11-07,1,,,,,ダイソウ,0
2059,7020001154373,新規,0,2023-11-07,2023-11-07,ＹＢＮマーケティング株式会社,,株式会社,神奈川県,横浜市西区,みなとみらい２丁目２ー１横浜ランドマークプラザ５Ｆ,,14,103,2200012,,,,,,,2023-11-07,1,,,,,ワイビーエヌマーケティング,0
2061,7020003024921,新規,0,2023-11-07,2023-11-07,ＹＴユナイテッド合同会社,,合同会社,神奈川県,横浜市都筑区,牛久保西２丁目２５番Ｍ－４０２号,,14,118,2240015,,,,,,,2023-11-07,1,,,,,ワイティーユナイテッド,0
2069,7021001080642,新規,0,2023-11-07,2023-11-07,株式会社ネコトハシル,,株式会社,神奈川県,藤沢市,片瀬山１丁目１６－３,,14,205,2510033,,,,,,,2023-11-07,1,,,,,ネコトハシル,0
2070,7021001080650,新規,0,2023-11-07,2023-11-07,株式会社ＰＩＮＯＹ建設,,株式会社,神奈川県,海老名市,中新田１丁目１８番４７－１０２号,,14,215,2430422,,,,,,,2023-11-07,1,,,,,ピノイケンセツ,0
2071,7021001080667,新規,0,2023-11-07,2023-11-07,株式会社Ｆａｎｔａｓｉａ,,株式会社,神奈川県,足柄上郡大井町,金子１７７３番地１,,14,362,2580019,,,,,,,2023-11-07,1,,,,,ファンタジア,0
2075,7021003013773,新規,0,2023-11-07,2023-11-07,合同会社休日暇人倶楽部,,合同会社,神奈川県,藤沢市,葛原２２７７番地の６,,14,205,2520822,,,,,,,2023-11-07,1,,,,,キュウジツヒマジンクラブ,0
2087,7030001156955,新規,0,2023-11-07,2023-11-07,カリス興業株式会社,,株式会社,埼玉県,川口市,大字東本郷１５１８カリスビル１階,,11,203,3340063,,,,,,,2023-11-07,1,,,,,カリスコウギョウ,0
2088,7030001156963,新規,0,2023-11-07,2023-11-07,株式会社なおざね,,株式会社,埼玉県,熊谷市,広瀬４９３－６,,11,202,3600833,,,,,,,2023-11-07,1,,,,,ナオザネ,0
2089,7030001156971,新規,0,2023-11-07,2023-11-07,ＷＨＡＬＥ　ＬＯＧＩＳＴＩＣＳ　ＪＡＰＡＮ株式会社,,株式会社,埼玉県,八潮市,伊草２丁目１０番地４８,,11,234,3400806,,,,,,,2023-11-07,1,,,,,ウェイルロジスティックスジャパン,0
2090,7030001156996,新規,0,2023-11-07,2023-11-07,株式会社お片付け屋,,株式会社,埼玉県,入間市,下藤沢４丁目１５番地７ソシアＢ１０３,,11,225,3580011,,,,,,,2023-11-07,1,,,,,オカタヅケヤ,0
2091,7030001157012,新規,0,2023-11-07,2023-11-07,株式会社ｓｏｕｔｈｅｒｎ　ｒｅｔｒｅａｔ＆ｙｏｕ,,株式会社,埼玉県,川口市,大字安行北谷５３３番地の５,,11,203,3340054,,,,,,,2023-11-07,1,,,,,サザンリトリートアンドユー,0
2095,7030003022924,新規,0,2023-11-07,2023-11-07,ＡＢＥＥＨＡ合同会社,,合同会社,埼玉県,八潮市,大字木曽根１４７１番地１オンダエルドラド八潮２０７,,11,234,3400813,,,,,,,2023-11-07,1,,,,,アベハ,0
2100,7040001130810,新規,0,2023-11-07,2023-11-07,株式会社コフレ,,株式会社,千葉県,松戸市,松戸１３９５番地の３アークシティ松戸１Ｆ,,12,207,2710092,,,,,,,2023-11-07,1,,,,,コフレ,0
2101,7040001130819,新規,0,2023-11-07,2023-11-07,奏栄株式会社,,株式会社,千葉県,木更津市,高柳１４９３番地１,,12,206,2920014,,,,,,,2023-11-07,1,,,,,ソウエイ,0
2102,7040001130843,新規,0,2023-11-07,2023-11-07,株式会社あざみアセットマネジメント,,株式会社,千葉県,柏市,篠籠田１１２４番地１,,12,217,2770862,,,,,,,2023-11-07,1,,,,,アザミアセットマネジメント,0
2105,7040003023616,新規,0,2023-11-07,2023-11-07,合同会社アイエスプランニング,,合同会社,千葉県,佐倉市,鏑木町１丁目１９,,12,212,2850025,,,,,,,2023-11-07,1,,,,,アイエスプランニング,0
2106,7040003023665,新規,0,2023-11-07,2023-11-07,ウェル・ビーイング合同会社,,合同会社,千葉県,船橋市,南三咲４丁目４番１５号,,12,204,2740813,,,,,,,2023-11-07,1,,,,,ウェルビーイング,0
2107,7040003023681,新規,0,2023-11-07,2023-11-07,合同会社ＭＩＭｓ,,合同会社,千葉県,浦安市,高洲６丁目１番３－４０５号潮音の街,,12,227,2790023,,,,,,,2023-11-07,1,,,,,ミムズ,0
2108,7040003023707,新規,0,2023-11-07,2023-11-07,合同会社ＭＵＳＵＨＩ,,合同会社,千葉県,市川市,南大野３丁目２２番２５号,,12,203,2720804,,,,,,,2023-11-07,1,,,,,ムスヒ,0
2122,7060001036527,新規,0,2023-11-07,2023-11-07,株式会社ＬＩＦＥ２ＮＤ,,株式会社,栃木県,足利市,大前町７７８番地５,,09,202,3260845,,,,,,,2023-11-07,1,,,,,ライフセカンド,0
2131,7110001037957,新規,0,2023-11-07,2023-11-07,株式会社めぐろん内装,,株式会社,新潟県,長岡市,大川戸２０５番地,,15,202,9400148,,,,,,,2023-11-07,1,,,,,メグロンナイソウ,0
2146,7120001259501,新規,0,2023-11-07,2023-11-07,株式会社ＤＡＩＦＵＫＵ,,株式会社,大阪府,枚方市,田口１丁目３９番３－２１号,,27,210,5731162,,,,,,,2023-11-07,1,,,,,ダイフク,0
2147,7120001259559,新規,0,2023-11-07,2023-11-07,株式会社Ｈｅｒｍｉｔａｇｅ　ｄｕ　Ｌａｐｉｎ,,株式会社,大阪府,大阪市北区,豊崎５丁目７番１５号２０５,,27,127,5310072,,,,,,,2023-11-07,1,,,,,エルミタージュドゥラパン,0
2148,7120001259625,新規,0,2023-11-07,2023-11-07,株式会社こはくいろ,,株式会社,大阪府,大阪市都島区,都島本通３丁目７番２－４０５号,,27,102,5340021,,,,,,,2023-11-07,1,,,,,コハクイロ,0
2149,7120001259658,新規,0,2023-11-07,2023-11-07,株式会社Ｇｕｌｕｕ,,株式会社,大阪府,大阪市中央区,上本町西３丁目２番８号,,27,128,5420062,,,,,,,2023-11-07,1,,,,,グル,0
2150,7120001259666,新規,0,2023-11-07,2023-11-07,株式会社朝顔,,株式会社,大阪府,大阪市淀川区,東三国２丁目３０－１竹田東三国マンション４Ｄ,,27,123,5320002,,,,,,,2023-11-07,1,,,,,アサガオ,0
2151,7120001259674,新規,0,2023-11-07,2023-11-07,福山株式会社,,株式会社,大阪府,大阪市中央区,内本町２丁目２番１９号,,27,128,5400026,,,,,,,2023-11-07,1,,,,,フクヤマ,0
2161,7120005023960,新規,0,2023-11-07,2023-11-07,特定非営利活動法人ユニティー・エース,,その他の設立登記法人,大阪府,大阪市鶴見区,茨田大宮１丁目７番５７号,,27,124,5380031,,,,,,,2023-11-07,1,,,,,ユニティーエース,0
2162,7120005023977,新規,0,2023-11-07,2023-11-07,弁理士法人三協国際特許事務所,,その他の設立登記法人,大阪府,大阪市北区,中之島２丁目２番２号大阪中之島ビル２階,,27,127,5300005,,,,,,,2023-11-07,1,,,,,サンキョウコクサイトッキョジムショ,0
2163,7120101068505,新規,0,2023-11-07,2023-11-07,株式会社ＩＳＳＥＩ,,株式会社,大阪府,阪南市,舞１丁目１番６号,,27,232,5990224,,,,,,,2023-11-07,1,,,,,イッセイ,0
2164,7120103005522,新規,0,2023-11-07,2023-11-07,合同会社ナナラ,,合同会社,大阪府,堺市堺区,向陵西町３丁４番１３－３０５号,,27,141,5900026,,,,,,,2023-11-07,1,,,,,ナナラ,0
2166,7120901048318,新規,0,2023-11-07,2023-11-07,株式会社新勝,,株式会社,大阪府,吹田市,千里山東１丁目１６－６,,27,205,5650842,,,,,,,2023-11-07,1,,,,,シンショウ,0
2167,7120903004905,新規,0,2023-11-07,2023-11-07,合同会社ＣＬＡＳＳＹ,,合同会社,大阪府,豊中市,寺内１丁目２番１８－１０３号,,27,203,5610872,,,,,,,2023-11-07,1,,,,,クラッシ,0
2175,7130003009102,新規,0,2023-11-07,2023-11-07,合同会社アイテック,,合同会社,京都府,京都市伏見区,竹田西段川原町１２１番地,,26,109,6128429,,,,,,,2023-11-07,1,,,,,アイテック,0
2184,7140003019785,新規,0,2023-11-07,2023-11-07,青空プロパティ合同会社,,合同会社,兵庫県,神戸市中央区,山本通２丁目６番１９号ＶＩＪＡＹ５Ｆ,,28,110,6500003,,,,,,,2023-11-07,1,,,,,アオゾラプロパティ,0
2187,7160001025478,新規,0,2023-11-07,2023-11-07,株式会社ユメココロ,,株式会社,滋賀県,大津市,坂本３丁目１６番２３号,,25,201,5200113,,,,,,,2023-11-07,1,,,,,ユメココロ,0
2188,7160001025486,新規,0,2023-11-07,2023-11-07,ＥＮＴ株式会社,,株式会社,滋賀県,蒲生郡日野町,大字西大路２１５１番地３,,25,383,5291628,,,,,,,2023-11-07,1,,,,,エンター,0
2201,7180001158771,新規,0,2023-11-07,2023-11-07,朝利商事株式会社,,株式会社,愛知県,名古屋市中区,錦２丁目１６番４号,,23,106,4600003,,,,,,,2023-11-07,1,,,,,アサリショウジ,0
2202,7180001158796,新規,0,2023-11-07,2023-11-07,株式会社ＫＦＣ,,株式会社,愛知県,西春日井郡豊山町,大字豊場字青塚屋敷１７番地２,,23,342,4800202,,,,,,,2023-11-07,1,,,,,ケーエフシー,0
2203,7180001158862,新規,0,2023-11-07,2023-11-07,グランマ株式会社,,株式会社,愛知県,名古屋市緑区,鳴海町字薬師山４３番地の４,,23,114,4580846,,,,,,,2023-11-07,1,,,,,グランマ,0
2206,7180003025937,新規,0,2023-11-07,2023-11-07,サンドライト合同会社,,合同会社,愛知県,半田市,旭町４丁目７－７フレンズハイツＮＯ．１４ＦＣ号室,,23,205,4750838,,,,,,,2023-11-07,1,,,,,サンドライト,0
2207,7180003025961,新規,0,2023-11-07,2023-11-07,合同会社ダイヤモンド縫製,,合同会社,愛知県,豊明市,新田町下一ノ割７２番地１,,23,229,4701112,,,,,,,2023-11-07,1,,,,,ダイヤモンドホウセイ,0
2211,7180305009530,新規,0,2023-11-07,2023-11-07,特定非営利活動法人グリーフケアサポート羽音,,その他の設立登記法人,愛知県,豊川市,代田町２丁目１４番地の３,,23,207,4420841,,,,,,,2023-11-07,1,,,,,グリーフケアサポートハート,0
2221,7220001025661,新規,0,2023-11-07,2023-11-07,株式会社ミライズオート,,株式会社,石川県,羽咋市,大町ラ６６番地,,17,207,9250072,,,,,,,2023-11-07,1,,,,,ミライズオート,0
2222,7220001025678,新規,0,2023-11-07,2023-11-07,株式会社サクセススターツ,,株式会社,石川県,小松市,矢崎町ネ４７番地,,17,203,9230301,,,,,,,2023-11-07,1,,,,,サクセススターツ,0
2224,7240001062380,新規,0,2023-11-07,2023-11-07,株式会社Ｆｌａｒｅ,,株式会社,広島県,広島市西区,井口台１丁目１４番１５号１０２,,34,104,7330844,,,,,,,2023-11-07,1,,,,,フレア,0
2225,7240001062389,新規,0,2023-11-07,2023-11-07,株式会社楽,,株式会社,広島県,尾道市,向島町７７４９番地７,,34,205,7220073,,,,,,,2023-11-07,1,,,,,ラク,0
2229,7260001038461,新規,0,2023-11-07,2023-11-07,株式会社Ｆ２１,,株式会社,岡山県,浅口市,鴨方町六条院中１３３５番地５,,33,216,7190252,,,,,,,2023-11-07,1,,,,,エフニジュウイチ,0
2235,7290001103634,新規,0,2023-11-07,2023-11-07,株式会社ブランジェカイチ,,株式会社,福岡県,福岡市南区,高宮３丁目７番４号,,40,134,8150083,,,,,,,2023-11-07,1,,,,,ブランジェカイチ,0
2248,7320001020124,新規,0,2023-11-07,2023-11-07,株式会社創建,,株式会社,大分県,日田市,大字日高５８２番地６,,44,204,8770000,,,,,,,2023-11-07,1,,,,,ソウケン,0
2249,7320003004224,新規,0,2023-11-07,2023-11-07,合同会社Ａｐｐｒｅｃｉａｔｅ,,合同会社,大分県,大分市,京が丘南３丁目３番１４号,,44,201,8700129,,,,,,,2023-11-07,1,,,,,アプリシエイト,0
2253,7330001031434,新規,0,2023-11-07,2023-11-07,九州アジアベースボールリーグ株式会社,,株式会社,熊本県,熊本市中央区,中央街１番２８号ＲＳ－３ビル３Ｆ,,43,101,8600802,,,,,,,2023-11-07,1,,,,,キュウシュウアジアベースボールリーグ,0
2254,7330001031450,新規,0,2023-11-07,2023-11-07,株式会社Ｏｆｆｉｃｅ　Ｍｏｄｅｓｔｙ,,株式会社,熊本県,熊本市中央区,上通町２番１７号びぷれす熊日会館７階,,43,101,8600845,,,,,,,2023-11-07,1,,,,,オフィスモデスティ,0
2256,7330003010072,新規,0,2023-11-07,2023-11-07,ＭＮ合同会社,,合同会社,熊本県,天草市,有明町大島子２５４９番地,,43,215,8617314,,,,,,,2023-11-07,1,,,,,エムエヌ,0
2257,7350001018644,新規,0,2023-11-07,2023-11-07,株式会社堂原Ｒａｎｃｈ,,株式会社,宮崎県,えびの市,大字坂元１６６６番地１９０,,45,209,8894312,,,,,,,2023-11-07,1,,,,,ドウハラランチ,0
2258,7350003004477,新規,0,2023-11-07,2023-11-07,蒼乃産業合同会社,,合同会社,宮崎県,日南市,南郷町中村乙５６９３番地１４コーワコーポ１０２号,,45,204,8893204,,,,,,,2023-11-07,1,,,,,アオノサンギョウ,0
2259,7360001032776,新規,0,2023-11-07,2023-11-07,株式会社１２ｅｎｇｉ,,株式会社,沖縄県,宜野湾市,宇地泊１丁目７－２０レキオススクエア２－Ｄ,,47,205,9012227,,,,,,,2023-11-07,1,,,,,ジュウニエンジ,0
2260,7360003013452,新規,0,2023-11-07,2023-11-07,合同会社Ｍ　ｈａｐｐｙ,,合同会社,沖縄県,うるま市,字田場９８９番地１,,47,213,9042213,,,,,,,2023-11-07,1,,,,,エムハッピー,0
2262,7370001050604,新規,0,2023-11-07,2023-11-07,ハイパフォーマンス株式会社,,株式会社,宮城県,大崎市,古川東町３番２号,,04,215,9896166,,,,,,,2023-11-07,1,,,,,ハイパフォーマンス,0
2266,7400001016452,新規,0,2023-11-07,2023-11-07,株式会社ＫＴＳ,,株式会社,岩手県,釜石市,浜町３丁目１２番９号,,03,211,0260013,,,,,,,2023-11-07,1,,,,,ケーティーエス,0
2270,7420001018471,新規,0,2023-11-07,2023-11-07,株式会社岩崎,,株式会社,青森県,八戸市,高州１丁目５番１９号,,02,203,0391163,,,,,,,2023-11-07,1,,,,,イワサキ,0
2276,7430003015598,新規,0,2023-11-07,2023-11-07,リルク合同会社,,合同会社,北海道,札幌市西区,二十四軒四条３丁目４番３５号カルチェド札幌３１５,,01,107,0630804,,,,,,,2023-11-07,1,,,,,リルク,0
2277,7460001005846,新規,0,2023-11-07,2023-11-07,株式会社釧路かじやま不動産開発,,株式会社,北海道,釧路市,白金町２番３号ジャルディーノ都心白金,,01,206,0850034,,,,,,,2023-11-07,1,,,,,クシロカジヤマフドウサンカイハツ,0
2284,7500001025303,新規,0,2023-11-07,2023-11-07,株式会社ＨＯＮＥＳＴ,,株式会社,愛媛県,新居浜市,萩生１３０番地の２２,,38,205,7920050,,,,,,,2023-11-07,1,,,,,,0
2287,7700150120818,新規,0,2023-11-07,2023-11-07,深セン中睿物聯科技　有限公司,,外国会社等,,,,,,,,中国深セン市宝安区福永街道鳳凰社区鳳業七路１号２０１,,,,,,2023-11-07,1,,,,,シンセンチユウエイブツレンカギユウゲンコウシ,0
2288,7700150121873,新規,0,2023-11-07,2023-11-07,ｄｏｎｇ　ｗａｎ　ｓｈｉ　ａｏ　ｙｉｎｇ　ｆａｎｇ　ｚｈｉ　ｙｏｕ　ｘｉａｎ　ｇｏｎｇ　ｓｉ,,外国会社等,,,,,,,,ｄａ　ｌａｎｇ　ｚｈｅｎ　ｘｉａｎｇ　ｔｏｕ　ｓｈｅ　ｑｕ　ｆｕ　ｋａｎｇ　ｌｕ　６　２　ｈａｏ　ｅｒ　ｌｏｕｄｏｎｇ　ｇｕａｎ　ｓｈｉ　ｇｕａｎｇ　ｄｏｎｇ　ｓｈｅｎｇ　５２３７７５　ＣＮ,,,,,,2023-11-07,1,,,,,トウカンシオキタカユウゲンコウシ,0
2300,8010001239414,新規,0,2023-11-07,2023-11-07,チーム・エトワール株式会社,,株式会社,東京都,中央区,銀座１丁目１２番４号Ｎ＆Ｅ・ＢＬＤ．６Ｆｔｅａｍ・＿ｔｏｉｌｅｓ・Ｉｎｃ．,00132532,13,102,1040061,,,,,,,2023-11-07,1,,,,,チームエトワール,0
2301,8010001239711,新規,0,2023-11-07,2023-11-07,株式会社ａｎｔｅｃｈ,,株式会社,東京都,千代田区,一番町２２番地４一番町館１階,,13,101,1020082,,,,,,,2023-11-07,1,,,,,アンテック,0
2302,8010001239728,新規,0,2023-11-07,2023-11-07,Ｄｅｌｏｓ　Ａｄｖｉｓｏｒｓ株式会社,,株式会社,東京都,中央区,日本橋室町３丁目２番１号日本橋室町三井タワー７階グローバルサイエンスハブ,,13,102,1030022,,,,,,,2023-11-07,1,,,,,デロスアドバイザーズ,0
2303,8010001239760,新規,0,2023-11-07,2023-11-07,株式会社エムニ,,株式会社,東京都,文京区,本郷６丁目２５番１４号,,13,105,1130033,,,,,,,2023-11-07,1,,,,,エムニ,0
2304,8010001239769,新規,0,2023-11-07,2023-11-07,株式会社ウェルビーイングイノベーション,,株式会社,東京都,中央区,銀座１丁目２２番１１号,,13,102,1040061,,,,,,,2023-11-07,1,,,,,ウェルビーイングイノベーション,0
2305,8010001239793,新規,0,2023-11-07,2023-11-07,ユズコンテナサービス株式会社,,株式会社,東京都,千代田区,丸の内１丁目３番２号,,13,101,1000005,,,,,,,2023-11-07,1,,,,,ユズコンテナサービス,0
2307,8010003042031,新規,0,2023-11-07,2023-11-07,ＨＬＢ１６号合同会社,,合同会社,東京都,千代田区,霞が関３丁目２番５号,,13,101,1000013,,,,,,,2023-11-07,1,,,,,エイチエルビージュウロクゴウ,0
2308,8010003042106,新規,0,2023-11-07,2023-11-07,合同会社Ｂａｎｄ,,合同会社,東京都,中央区,日本橋富沢町７番１９－５０２号,,13,102,1030006,,,,,,,2023-11-07,1,,,,,バンド,0
2309,8010003042122,新規,0,2023-11-07,2023-11-07,Ｐｌｕｍ　Ｎｅｔｗｏｒｋｓ合同会社,,合同会社,東京都,中央区,銀座５丁目９番８号,,13,102,1040061,,,,,,,2023-11-07,1,,,,,プラムネットワークス,0
2310,8010003042130,新規,0,2023-11-07,2023-11-07,合同会社よくなる,,合同会社,東京都,中央区,日本橋本町２丁目６番１号,,13,102,1030023,,,,,,,2023-11-07,1,,,,,ヨクナル,0
2311,8010003042147,新規,0,2023-11-07,2023-11-07,Ｅｐｉｏｎ合同会社,,合同会社,東京都,中央区,銀座１丁目１２番４号Ｎ＆ＥＢＬＤ．６Ｆ,,13,102,1040061,,,,,,,2023-11-07,1,,,,,エピオン,0
2316,8010103002240,新規,0,2023-11-07,2023-11-07,合同会社春永,,合同会社,東京都,八王子市,元八王子町３丁目２１５３番地７１,,13,201,1930826,,,,,,,2023-11-07,1,,,,,ハルナガ,0
2324,8010401178294,新規,0,2023-11-07,2023-11-07,シロクマ株式会社,,株式会社,東京都,港区,南青山２丁目２番１５号,,13,103,1070062,,,,,,,2023-11-07,1,,,,,シロクマ,0
2325,8010401178303,新規,0,2023-11-07,2023-11-07,株式会社炭,,株式会社,東京都,港区,北青山２丁目７番２０号猪瀬ビル２Ｆ,,13,103,1070061,,,,,,,2023-11-07,1,,,,,スミ,0
2326,8010401178311,新規,0,2023-11-07,2023-11-07,株式会社Ｓｔｅｌｌａｒ＆Ｃｏ．,,株式会社,東京都,港区,北青山１丁目２番３号青山ビル２Ｆ,,13,103,1070061,,,,,,,2023-11-07,1,,,,,ステラアンドカンパニー,0
2327,8010401178328,新規,0,2023-11-07,2023-11-07,株式会社ハツタコーポ東京,,株式会社,東京都,港区,芝大門１丁目５番１０号,,13,103,1050012,,,,,,,2023-11-07,1,,,,,ハツタコーポトウキョウ,0
2328,8010401178336,新規,0,2023-11-07,2023-11-07,ニューブリッジ６株式会社,,株式会社,東京都,港区,西新橋２丁目８番６号,,13,103,1050003,,,,,,,2023-11-07,1,,,,,ニューブリッジシックス,0
2329,8010401178360,新規,0,2023-11-07,2023-11-07,株式会社リートンテクノロジーズジャパン,,株式会社,東京都,港区,虎ノ門２丁目３番１７号虎ノ門２丁目タワー１９Ｆ,,13,103,1050001,,,,,,,2023-11-07,1,,,,,リートンテクノロジーズジャパン,0
2332,8010403031303,新規,0,2023-11-07,2023-11-07,ＳＨＥＥＲ　ＪＡＰＡＮ合同会社,,合同会社,東京都,港区,麻布狸穴町６１番地１０３,,13,103,1060042,,,,,,,2023-11-07,1,,,,,シアージャパン,0
2333,8010403031311,新規,0,2023-11-07,2023-11-07,合同会社Ｇｒａｃｅ・Ｋ,,合同会社,東京都,港区,南青山５丁目１７番２号,,13,103,1070062,,,,,,,2023-11-07,1,,,,,グレースケイ,0
2337,8010801034493,新規,0,2023-11-07,2023-11-07,ＫＩＶＡ株式会社,,株式会社,東京都,大田区,大森北１丁目１９番１２－５０３号,,13,111,1430016,,,,,,,2023-11-07,1,,,,,キヴァ,0
2338,8010801034502,新規,0,2023-11-07,2023-11-07,株式会社３．９,,株式会社,東京都,大田区,南馬込５丁目４２番３号,,13,111,1430025,,,,,,,2023-11-07,1,,,,,サンキュー,0
2339,8010803004742,新規,0,2023-11-07,2023-11-07,合同会社翔輝興業,,合同会社,東京都,大田区,東雪谷５丁目１１番７号,,13,111,1450065,,,,,,,2023-11-07,1,,,,,トキコウギョウ,0
2341,8010903008569,新規,0,2023-11-07,2023-11-07,ＹＮマネージメント合同会社,,合同会社,東京都,世田谷区,玉川４丁目２９番２号,,13,112,1580094,,,,,,,2023-11-07,1,,,,,ワイエヌマネージメント,0
2352,8011001157985,新規,0,2023-11-07,2023-11-07,Ｍｉｃｈｉｋｕｓａ株式会社,,株式会社,東京都,目黒区,下目黒１丁目１番１４号コノトラビル７Ｆ,,13,110,1530064,,,,,,,2023-11-07,1,,,,,ミチクサ,0
2353,8011001158034,新規,0,2023-11-07,2023-11-07,株式会社Ｄ‐ＥＤＧＥ,,株式会社,東京都,目黒区,中目黒２丁目９番１１－５０１号レジディア中目黒ＩＩ,00132534,13,110,1530061,,,,,,,2023-11-07,1,,,,,ディーエッジ,0
2354,8011001158059,新規,0,2023-11-07,2023-11-07,株式会社ＳＥＶＥＮＳ　ＨＡＶＥＮ,,株式会社,東京都,渋谷区,神宮前６丁目２８番９号東武ビル３０６,,13,113,1500001,,,,,,,2023-11-07,1,,,,,セブンスヘブン,0
2355,8011001158075,新規,0,2023-11-07,2023-11-07,株式会社ＮＯＮ　ＧＡＭＥ,,株式会社,東京都,渋谷区,渋谷１丁目１５番１５－１３１３号テラス渋谷美竹,,13,113,1500002,,,,,,,2023-11-07,1,,,,,ノンゲーム,0
2356,8011001158083,新規,0,2023-11-07,2023-11-07,株式会社マーク・オフィスＫ,,株式会社,東京都,渋谷区,円山町２２番１１号ＵＳＢ２階,,13,113,1500044,,,,,,,2023-11-07,1,,,,,マークオフィスケー,0
2366,8011103013715,新規,0,2023-11-07,2023-11-07,合同会社モアコンセプト,,合同会社,東京都,新宿区,西新宿３丁目３番１３号西新宿水間ビル６階,,13,104,1600023,,,,,,,2023-11-07,1,,,,,モアコンセプト,0
2367,8011105010850,新規,0,2023-11-07,2023-11-07,一般社団法人木のみみ茸普及協会,,その他の設立登記法人,東京都,新宿区,新宿１丁目３４番１３号,,13,104,1600022,,,,,,,2023-11-07,1,,,,,キノミミタケフキュウキョウカイ,0
2372,8011405002267,新規,0,2023-11-07,2023-11-07,エイトバードカンパニー労働者協同組合,,その他の設立登記法人,東京都,板橋区,大谷口北町２７－３,,13,119,1730031,,,,,,,2023-11-07,1,,,,,エイトバードカンパニー,0
2377,8011703003644,新規,0,2023-11-07,2023-11-07,合同会社ＢＬＰ,,合同会社,東京都,江戸川区,北小岩３丁目５番９－２０４号アル・カーザ小岩,,13,123,1330051,,,,,,,2023-11-07,1,,,,,ビーエルピー,0
2378,8011801043286,新規,0,2023-11-07,2023-11-07,株式会社環研,,株式会社,東京都,足立区,中央本町１丁目１３番１６号２Ｆ,,13,121,1200011,,,,,,,2023-11-07,1,,,,,カンケン,0
2379,8011801043294,新規,0,2023-11-07,2023-11-07,株式会社エミシード,,株式会社,東京都,足立区,梅田７丁目１８番９号ブリリアントコート梅島１０２,,13,121,1230851,,,,,,,2023-11-07,1,,,,,エミシード,0
2380,8011805003311,新規,0,2023-11-07,2023-11-07,ガーデンプラザ柴又管理組合法人,,その他の設立登記法人,東京都,葛飾区,柴又２丁目５番２８号,,13,122,1250052,,,,,,,2023-11-07,1,,,,,ガーデンプラザシバマタ,0
2381,8012301013647,新規,0,2023-11-07,2023-11-07,ビジョン・アセット株式会社,,株式会社,東京都,町田市,薬師台２丁目１２番地６,,13,209,1950073,,,,,,,2023-11-07,1,,,,,ビジョンアセット,0
2385,8012401041192,新規,0,2023-11-07,2023-11-07,株式会社カニンデ,,株式会社,東京都,稲城市,大丸２２１１番地２７,,13,225,2060801,,,,,,,2023-11-07,1,,,,,カニンデ,0
2391,8020001154323,新規,0,2023-11-07,2023-11-07,三角鋼業株式会社,,株式会社,神奈川県,川崎市中原区,上平間４１０番地２０３号,,14,133,2110013,,,,,,,2023-11-07,1,,,,,ミスミコウギョウ,0
2392,8020001154331,新規,0,2023-11-07,2023-11-07,株式会社みやこホールディングス,,株式会社,神奈川県,川崎市中原区,宮内２丁目２８番７号,,14,133,2110051,,,,,,,2023-11-07,1,,,,,ミヤコホールディングス,0
2393,8020001154356,新規,0,2023-11-07,2023-11-07,株式会社ロゼシム,,株式会社,神奈川県,横浜市旭区,二俣川１丁目２６番地２１－２０１号,,14,112,2410821,,,,,,,2023-11-07,1,,,,,ロゼシム,0
2394,8020001154372,新規,0,2023-11-07,2023-11-07,株式会社Ｌａｋｉ９ｏｆｆｉｃｅ,,株式会社,神奈川県,横浜市青葉区,あざみ野南１丁目１９番地５・１Ｆ,,14,117,2250012,,,,,,,2023-11-07,1,,,,,ラキナインオフィス,0
2403,8020003024854,新規,0,2023-11-07,2023-11-07,合同会社ハチワレ,,合同会社,神奈川県,横浜市港北区,高田東２丁目１８―１０―２号,,14,109,2230065,,,,,,,2023-11-07,1,,,,,ハチワレ,0
2404,8020003024912,新規,0,2023-11-07,2023-11-07,合同会社Ｅｎ＆Ｊｏｙ,,合同会社,神奈川県,横浜市保土ケ谷区,川島町１４８５－１３・２Ｆ,,14,106,2400045,,,,,,,2023-11-07,1,,,,,エンジョイ,0
2405,8020003024920,新規,0,2023-11-07,2023-11-07,合同会社ルーペ,,合同会社,神奈川県,横浜市保土ケ谷区,権太坂２丁目２６－１権太坂店舗１０１,,14,106,2400026,,,,,,,2023-11-07,1,,,,,ルーペ,0
2415,8021001080641,新規,0,2023-11-07,2023-11-07,株式会社廚正,,株式会社,神奈川県,横須賀市,本町３丁目１３番地１,,14,201,2380041,,,,,,,2023-11-07,1,,,,,クリショウ,0
2416,8021001080674,新規,0,2023-11-07,2023-11-07,株式会社ユーミーネット西湘,,株式会社,神奈川県,平塚市,河内３７０番地,,14,203,2540903,,,,,,,2023-11-07,1,,,,,ユーミーネットセイショウ,0
2427,8030001156847,新規,0,2023-11-07,2023-11-07,株式会社協和,,株式会社,埼玉県,さいたま市大宮区,東町１丁目１４６番地２,,11,103,3300841,,,,,,,2023-11-07,1,,,,,キョウワ,0
2428,8030001156970,新規,0,2023-11-07,2023-11-07,株式会社エビトレ,,株式会社,埼玉県,草加市,瀬崎５丁目５－２２,,11,221,3400022,,,,,,,2023-11-07,1,,,,,エビトレ,0
2429,8030001156995,新規,0,2023-11-07,2023-11-07,株式会社フルオール,,株式会社,埼玉県,さいたま市見沼区,大和田町２丁目１４３８番地３ウィンステージ１０１,,11,104,3370053,,,,,,,2023-11-07,1,,,,,フルオール,0
2430,8030001157052,新規,0,2023-11-07,2023-11-07,株式会社ｗｉｓｔｅｒｉａ,,株式会社,埼玉県,本庄市,児玉町金屋１２９４番地４,,11,211,3670216,,,,,,,2023-11-07,1,,,,,ウィステリア,0
2439,8030003022948,新規,0,2023-11-07,2023-11-07,合同会社ＤＯ　ＣＵ３８,,合同会社,埼玉県,坂戸市,薬師町１０－２１アネックス北坂戸１０１号室,,11,239,3500229,,,,,,,2023-11-07,1,,,,,ドクサンハチ,0
2444,8040001130818,新規,0,2023-11-07,2023-11-07,知日株式会社,,株式会社,千葉県,成田市,取香５１３番地６５,,12,211,2860106,,,,,,,2023-11-07,1,,,,,チニチ,0
2445,8040001130850,新規,0,2023-11-07,2023-11-07,株式会社ＫＩＫＩ,,株式会社,千葉県,市川市,高谷３丁目１番１１号,,12,203,2720013,,,,,,,2023-11-07,1,,,,,,0
2450,8040003023672,新規,0,2023-11-07,2023-11-07,合同会社大藤ホームズ,,合同会社,千葉県,船橋市,夏見２丁目４番７号,,12,204,2730865,,,,,,,2023-11-07,1,,,,,ダイトウホームズ,0
2452,8040005022185,新規,0,2023-11-07,2023-11-07,一般社団法人佐倉市上下水道防災協会,,その他の設立登記法人,千葉県,佐倉市,裏新町５９番地,,12,212,2850024,,,,,,,2023-11-07,1,,,,,サクラシジョウゲスイドウボウサイキョウカイ,0
2478,8120001259509,新規,0,2023-11-07,2023-11-07,ジェイケイ・ロジスティクス株式会社,,株式会社,大阪府,大阪市中央区,博労町１丁目８番８号,,27,128,5410059,,,,,,,2023-11-07,1,,,,,ジェイケイロジスティクス,0
2479,8120001259608,新規,0,2023-11-07,2023-11-07,株式会社阪急阪神ホテルズ分割準備会社,,株式会社,大阪府,大阪市北区,芝田１丁目１６番１号,,27,127,5300012,,,,,,,2023-11-07,1,,,,,ハンキュウハンシンホテルズブンカツジュンビガイシャ,0
2480,8120001259624,新規,0,2023-11-07,2023-11-07,日本エコロジー株式会社,,株式会社,大阪府,大阪市北区,西天満６丁目２番１４号,,27,127,5300047,,,,,,,2023-11-07,1,,,,,ニホンエコロジー,0
2481,8120001259632,新規,0,2023-11-07,2023-11-07,株式会社Ｘ‐ＲＯＣＫＥＴ,,株式会社,大阪府,大阪市生野区,桃谷３丁目６番１５号,,27,116,5440034,,,,,,,2023-11-07,1,,,,,エックスロケット,0
2482,8120001259681,新規,0,2023-11-07,2023-11-07,株式会社ティー・エス・エス,,株式会社,大阪府,大阪市城東区,今福西１丁目１５番３７号,,27,118,5360004,,,,,,,2023-11-07,1,,,,,ティーエスエス,0
2485,8120003025289,新規,0,2023-11-07,2023-11-07,合同会社キーウエスト,,合同会社,大阪府,大阪市淀川区,西三国４丁目４番６－７０４号,,27,123,5320006,,,,,,,2023-11-07,1,,,,,キーウエスト,0
2488,8120101068487,新規,0,2023-11-07,2023-11-07,ＱＧＡ　ＪＡＰＡＮ株式会社,,株式会社,大阪府,岸和田市,土生町７丁目９番２号,,27,202,5960825,,,,,,,2023-11-07,1,,,,,キュージーエージャパン,0
2491,8120103005521,新規,0,2023-11-07,2023-11-07,合同会社Ｌｉｅｎ,,合同会社,大阪府,藤井寺市,小山５丁目４番９－１０２号,,27,226,5830033,,,,,,,2023-11-07,1,,,,,リアン,0
2492,8120901048300,新規,0,2023-11-07,2023-11-07,富佳株式会社,,株式会社,大阪府,豊中市,立花町３丁目１２－２ＳＱＵＡＲＥ豊中２０１,,27,203,5600025,,,,,,,2023-11-07,1,,,,,フジア,0
2493,8120901048309,新規,0,2023-11-07,2023-11-07,株式会社ＴＳトランスポート,,株式会社,大阪府,茨木市,目垣２丁目２番１５号,,27,211,5670836,,,,,,,2023-11-07,1,,,,,ティーエストランスポート,0
2494,8120901048317,新規,0,2023-11-07,2023-11-07,株式会社豊島鑑定事務所,,株式会社,大阪府,吹田市,春日２丁目２５番１－１１６号,,27,205,5650853,,,,,,,2023-11-07,1,,,,,トヨシマカンテイジムショ,0
2498,8122001037539,新規,0,2023-11-07,2023-11-07,株式会社ＣＨＡＭＰ,,株式会社,大阪府,東大阪市,太平寺２丁目９番１５号,,27,227,5770844,,,,,,,2023-11-07,1,,,,,チャンプ,0
2511,8140001132201,新規,0,2023-11-07,2023-11-07,株式会社ｃｏｃｏ　ｓａｓａｙａｍａ,,株式会社,兵庫県,丹波篠山市,貝田３００番地,,28,221,6692554,,,,,,,2023-11-07,1,,,,,ココササヤマ,0
2517,8140003019776,新規,0,2023-11-07,2023-11-07,Ｔｒａｉｌｚｅｒ合同会社,,合同会社,兵庫県,神戸市中央区,浪花町５６起業プラザひょうご内,,28,110,6500035,,,,,,,2023-11-07,1,,,,,トレイザー,0
2523,8160001025477,新規,0,2023-11-07,2023-11-07,株式会社Ｍ＆Ｉ総合サービス,,株式会社,滋賀県,米原市,梓河内１０番地,,25,214,5210211,,,,,,,2023-11-07,1,,,,,エムアンドアイソウゴウサービス,0
2531,8180001158762,新規,0,2023-11-07,2023-11-07,株式会社Ｋ‐ＳＴＹＬＥ,,株式会社,愛知県,名古屋市北区,柳原４丁目１０番７号,,23,103,4620845,,,,,,,2023-11-07,1,,,,,ケースタイル,0
2532,8180001158770,新規,0,2023-11-07,2023-11-07,株式会社ジョブトス,,株式会社,愛知県,名古屋市名東区,平和が丘３丁目７５番地の１,,23,115,4650097,,,,,,,2023-11-07,1,,,,,ジョブトス,0
2533,8180001158795,新規,0,2023-11-07,2023-11-07,ベネフィット・ソリューション株式会社,,株式会社,愛知県,名古屋市西区,牛島町５番２号名駅ＴＫビル８０１,,23,104,4510046,,,,,,,2023-11-07,1,,,,,ベネフィットソリューション,0
2534,8180001158804,新規,0,2023-11-07,2023-11-07,株式会社ｎａｐｓ　ｈａｉｒ　ｓｔｙｌｅ,,株式会社,愛知県,小牧市,大字岩崎１１９７番地１アロッジオ１０２,,23,219,4850011,,,,,,,2023-11-07,1,,,,,ナップスヘアスタイル,0
2535,8180001158812,新規,0,2023-11-07,2023-11-07,ＩＮＯＬＡＢＯ株式会社,,株式会社,愛知県,名古屋市中区,錦３丁目６番１５号先名古屋テレビ塔３階,,23,106,4600003,,,,,,,2023-11-07,1,,,,,イノラボ,0
2536,8180001158820,新規,0,2023-11-07,2023-11-07,株式会社ＬＩＧ,,株式会社,愛知県,知多郡武豊町,字山ノ神９８番地１,,23,447,4702336,,,,,,,2023-11-07,1,,,,,リグ,0
2537,8180001158829,新規,0,2023-11-07,2023-11-07,株式会社ティ・エム・ケイ,,株式会社,愛知県,名古屋市天白区,中平４丁目１４０７番地の１（グローハイツ６０６号）,,23,116,4680014,,,,,,,2023-11-07,1,,,,,ティエムケイ,0
2538,8180001158837,新規,0,2023-11-07,2023-11-07,株式会社満大,,株式会社,愛知県,稲沢市,祖父江町桜方笹原６１番地２,,23,220,4950015,,,,,,,2023-11-07,1,,,,,マンダイ,0
2540,8180005020415,新規,0,2023-11-07,2023-11-07,一般社団法人中部ペットと共に生きる共済会,,その他の設立登記法人,愛知県,名古屋市西区,十方町１２１番地,,23,104,4520837,,,,,,,2023-11-07,1,,,,,チュウブペットトトモニイキルキョウサイカイ,0
2542,8180301037971,新規,0,2023-11-07,2023-11-07,リコーエレメックスエーティー株式会社,,株式会社,愛知県,岡崎市,井田町字３丁目６９番地,,23,202,4440076,,,,,,,2023-11-07,1,,,,,リコーエレメックスエーティー,0
2543,8180301037988,新規,0,2023-11-07,2023-11-07,株式会社アバスクデザイン,,株式会社,愛知県,蒲郡市,元町６番３号,,23,214,4430043,,,,,,,2023-11-07,1,,,,,アバスクデザイン,0
2547,8190001030854,新規,0,2023-11-07,2023-11-07,株式会社伊勢富撚糸,,株式会社,三重県,伊賀市,西湯舟２３６３番地の１,,24,216,5181301,,,,,,,2023-11-07,1,,,,,イセトミネンシ,0
2548,8190001030870,新規,0,2023-11-07,2023-11-07,株式会社アクトライズ,,株式会社,三重県,桑名市,新西方３丁目２０７番地１,,24,205,5110863,,,,,,,2023-11-07,1,,,,,アクトライズ,0
2556,8230001020090,新規,0,2023-11-07,2023-11-07,株式会社広田電気商会,,株式会社,富山県,砺波市,宮村２６２番地８,,16,208,9391306,,,,,,,2023-11-07,1,,,,,ヒロタデンキショウカイ,0
2557,8230001020099,新規,0,2023-11-07,2023-11-07,株式会社Ｔｏｒａｎｏｋｏ,,株式会社,富山県,富山市,丸の内２丁目２番１号１階,,16,201,9300085,,,,,,,2023-11-07,1,,,,,トラノコ,0
2558,8230005009345,新規,0,2023-11-07,2023-11-07,特定非営利活動法人ミュージカルカンパニーＷＯＺ,,その他の設立登記法人,富山県,魚津市,吉島２丁目３番１号,,16,204,9370041,,,,,,,2023-11-07,1,,,,,,0
2559,8240001062371,新規,0,2023-11-07,2023-11-07,株式会社絆工務店,,株式会社,広島県,広島市安佐北区,亀山５丁目２番２４－１１－２号,,34,106,7310231,,,,,,,2023-11-07,1,,,,,キズナコウムテン,0
2560,8240001062396,新規,0,2023-11-07,2023-11-07,株式会社アノン,,株式会社,広島県,広島市中区,南千田西町１０番２３号,,34,101,7300055,,,,,,,2023-11-07,1,,,,,アノン,0
2564,8250003003380,新規,0,2023-11-07,2023-11-07,合同会社ジン,,合同会社,山口県,宇部市,大字西岐波７０３番地３ブルージェイ２０５号,,35,202,7550151,,,,,,,2023-11-07,1,,,,,,0
2567,8260003004493,新規,0,2023-11-07,2023-11-07,ＬｉＮｏ合同会社,,合同会社,岡山県,岡山市北区,津高４１６－２１,,33,101,7011152,,,,,,,2023-11-07,1,,,,,リノ,0
2568,8280003001786,新規,0,2023-11-07,2023-11-07,合同会社ＢＲＩＬＬＩＡＮＣＥ,,合同会社,島根県,出雲市,斐川町神氷２６８５番地７,,32,203,6990613,,,,,,,2023-11-07,1,,,,,ブリリアンス,0
2571,8290001103583,新規,0,2023-11-07,2023-11-07,株式会社エターナルポース,,株式会社,福岡県,朝倉市,甘木１１７５番地３,,40,228,8380068,,,,,,,2023-11-07,1,,,,,エターナルポース,0
2580,8310005008727,新規,0,2023-11-07,2023-11-07,医療法人荒木整形外科,,その他の設立登記法人,長崎県,佐世保市,早岐１丁目１５番８号,,42,202,8593215,,,,,,,2023-11-07,1,,,,,アラキセイケイゲカ,0
2582,8320001020131,新規,0,2023-11-07,2023-11-07,トマトデンキ株式会社,,株式会社,大分県,臼杵市,大字江無田２５５番地の１,,44,206,8750023,,,,,,,2023-11-07,1,,,,,トマトデンキ,0
2591,8330001031425,新規,0,2023-11-07,2023-11-07,桧丸通商株式会社,,株式会社,熊本県,八代市,千丁町吉王丸１１２７番地１,,43,202,8694702,,,,,,,2023-11-07,1,,,,,ヒノマルツウショウ,0
2592,8330003010063,新規,0,2023-11-07,2023-11-07,ビコルト合同会社,,合同会社,熊本県,熊本市北区,植木町舞尾１９－２,,43,105,8610134,,,,,,,2023-11-07,1,,,,,ビコルト,0
2600,8370001050603,新規,0,2023-11-07,2023-11-07,株式会社Ｌｉａｎｏ,,株式会社,宮城県,仙台市泉区,八乙女中央５丁目１７番１－６０１号,,04,105,9813135,,,,,,,2023-11-07,1,,,,,リアノ,0
2601,8370003006355,新規,0,2023-11-07,2023-11-07,合同会社Ｂｏｎ　Ｖｏｙａｇｅ,,合同会社,宮城県,東松島市,大塩字緑ケ丘三丁目１４番地８,,04,214,9810505,,,,,,,2023-11-07,1,,,,,ボンヴォヤージュ,0
2608,8380003005604,新規,0,2023-11-07,2023-11-07,合同会社ごきげん,,合同会社,福島県,いわき市,平字堂根町２番地の１デュオヒルズいわきザ・レジデンス１１０３,,07,204,9708026,,,,,,,2023-11-07,1,,,,,ゴキゲン,0
2609,8380003005612,新規,0,2023-11-07,2023-11-07,合同会社ハッピー・ワークス,,合同会社,福島県,郡山市,富田町字諏訪内３７－３１,,07,203,9638041,,,,,,,2023-11-07,1,,,,,ハッピーワークス,0
2610,8400001016451,新規,0,2023-11-07,2023-11-07,アポテコ株式会社,,株式会社,岩手県,花巻市,東和町安俵６区１４２番地２,,03,205,0280115,,,,,,,2023-11-07,1,,,,,アポテコ,0
2613,8410001013638,新規,0,2023-11-07,2023-11-07,株式会社セレディクス,,株式会社,秋田県,横手市,婦気大堤字街道下２７番地６,,05,203,0130063,,,,,,,2023-11-07,1,,,,,セレディクス,0
2616,8420001018470,新規,0,2023-11-07,2023-11-07,ゼットスリー株式会社,,株式会社,青森県,青森市,緑２丁目６番２号グレイス緑２階２－Ｂ号,,02,201,0300845,,,,,,,2023-11-07,1,,,,,ゼットスリー,0
2617,8420003002828,新規,0,2023-11-07,2023-11-07,ＭＧ合同会社,,合同会社,青森県,青森市,大字荒川字松尾３８番地１,,02,201,0300111,,,,,,,2023-11-07,1,,,,,エムジー,0
2620,8430001090361,新規,0,2023-11-07,2023-11-07,株式会社ＰＯＮＴＥＣ,,株式会社,北海道,札幌市西区,宮の沢一条４丁目１０番１８号,,01,107,0630051,,,,,,,2023-11-07,1,,,,,ポンテック,0
2622,8430003015564,新規,0,2023-11-07,2023-11-07,合同会社Ｌ’ＥＳＳＯＲ,,合同会社,北海道,登別市,札内町９５番地,,01,230,0590461,,,,,,,2023-11-07,1,,,,,レソール,0
2623,8430003015597,新規,0,2023-11-07,2023-11-07,合同会社ＳＳＡ,,合同会社,北海道,札幌市豊平区,西岡四条１２丁目１番１０－１０２号,,01,105,0620034,,,,,,,2023-11-07,1,,,,,エスエスエー,0
2632,8700150120817,新規,0,2023-11-07,2023-11-07,深セン市星鹿電子商務　有限公司,,外国会社等,,,,,,,,中国深セン市福田区蓮花街道梅レイ社区香梅路１０３６号香逸名園Ａ棟、Ｂ棟Ｂ棟４Ｈ,,,,,,2023-11-07,1,,,,,シンセンシセイロクデンシシヨウムユウゲンコウシ,0
2640,9010001239768,新規,0,2023-11-07,2023-11-07,株式会社建設総合サポート,,株式会社,東京都,文京区,本郷１丁目３４番４号,,13,105,1130033,,,,,,,2023-11-07,1,,,,,ケンセツソウゴウサポート,0
2641,9010001239784,新規,0,2023-11-07,2023-11-07,株式会社４ＷＥＬＬ,,株式会社,東京都,中央区,日本橋浜町１丁目５番１３号日本橋スカイビル８０１号,,13,102,1030007,,,,,,,2023-11-07,1,,,,,フォーウェル,0
2642,9010001239792,新規,0,2023-11-07,2023-11-07,ツバキリーシング株式会社,,株式会社,東京都,千代田区,丸の内１丁目３番２号,,13,101,1000005,,,,,,,2023-11-07,1,,,,,ツバキリーシング,0
2643,9010001239801,新規,0,2023-11-07,2023-11-07,株式会社Ａｕｔｏｎｏｍｙ,,株式会社,東京都,中央区,新富２丁目１番７号,,13,102,1040041,,,,,,,2023-11-07,1,,,,,オートノミー,0
2644,9010001239818,新規,0,2023-11-07,2023-11-07,株式会社ｍｉｋｏｔｔｏ,,株式会社,東京都,中央区,銀座１丁目１２番４号Ｎ＆ＥＢＬＤ．６階,,13,102,1040061,,,,,,,2023-11-07,1,,,,,ミコット,0
2645,9010001239834,新規,0,2023-11-07,2023-11-07,仁南商事株式会社,,株式会社,東京都,中央区,銀座８丁目１５番４号６０１,,13,102,1040061,,,,,,,2023-11-07,1,,,,,ジンナンショウジ,0
2646,9010001239883,新規,0,2023-11-07,2023-11-07,株式会社Ｈｅｃｔｏｇｏｎ,,株式会社,東京都,中央区,銀座１丁目２０－１ガーデンスクエア銀座ビル,,13,102,1040061,,,,,,,2023-11-07,1,,,,,ヘクトゴン,0
2648,9010005037474,新規,0,2023-11-07,2023-11-07,一般社団法人認識交流学会,,その他の設立登記法人,東京都,中央区,銀座７丁目１３番２０号銀座ＴＨビル９階,,13,102,1040061,,,,,,,2023-11-07,1,,,,,ニンシキコウリュウガッカイ,0
2661,9010401178293,新規,0,2023-11-07,2023-11-07,ｇｆ．Ｕ株式会社,,株式会社,東京都,港区,高輪３丁目１２番８号,,13,103,1080074,,,,,,,2023-11-07,1,,,,,ジーエフドットユー,0
2662,9010401178302,新規,0,2023-11-07,2023-11-07,株式会社オフィスＡ,,株式会社,東京都,港区,赤坂９丁目５番２９－３０１号,,13,103,1070052,,,,,,,2023-11-07,1,,,,,オフィスエイ,0
2663,9010401178310,新規,0,2023-11-07,2023-11-07,株式会社ペリカン,,株式会社,東京都,港区,赤坂９丁目６番３０－４１０号,,13,103,1070052,,,,,,,2023-11-07,1,,,,,ペリカン,0
2664,9010401178319,新規,0,2023-11-07,2023-11-07,虹空株式会社,,株式会社,東京都,港区,赤坂２丁目６番２２－１００１号,,13,103,1070052,,,,,,,2023-11-07,1,,,,,ニジゾラ,0
2665,9010401178335,新規,0,2023-11-07,2023-11-07,東京ＧＭ株式会社,,株式会社,東京都,港区,新橋１丁目７番２号成瀬ビル１Ｆ,,13,103,1050004,,,,,,,2023-11-07,1,,,,,トウキョウジーエム,0
2666,9010401178343,新規,0,2023-11-07,2023-11-07,０Ｋ１株式会社,,株式会社,東京都,港区,赤坂７丁目５番１－８０１号,,13,103,1070052,,,,,,,2023-11-07,1,,,,,ゼロケーワン,0
2669,9010403031228,新規,0,2023-11-07,2023-11-07,Ｌｅｖｅｒｅｔｔｉ　Ｓｏｌｕｔｉｏｎｓ合同会社,,合同会社,東京都,港区,六本木４丁目８番７号,,13,103,1060032,,,,,,,2023-11-07,1,,,,,レバレッティソリューションズ,0
2671,9010501051292,新規,0,2023-11-07,2023-11-07,株式会社Ｅｍｓｏｌｉｚｅ,,株式会社,東京都,台東区,北上野１丁目１５番５－１３０１カスタリア北上野,,13,106,1100014,,,,,,,2023-11-07,1,,,,,エンソライズ,0
2676,9010601064087,新規,0,2023-11-07,2023-11-07,株式会社ＮＡＵＸ,,株式会社,東京都,江東区,大島２丁目２１番１３号,,13,108,1360072,,,,,,,2023-11-07,1,,,,,ノクス,0
2680,9010801034492,新規,0,2023-11-07,2023-11-07,株式会社ＮｏＢｏｒｄｅｒ,,株式会社,東京都,大田区,大森南５丁目２番７－２号,,13,111,1430013,,,,,,,2023-11-07,1,,,,,ノーボーダー,0
2681,9010803004741,新規,0,2023-11-07,2023-11-07,ＰＩＳＴＹ　ＧＲＯＵＰ合同会社,,合同会社,東京都,大田区,萩中１丁目２－１０,,13,111,1440047,,,,,,,2023-11-07,1,,,,,ピスティグループ,0
2690,9011001157951,新規,0,2023-11-07,2023-11-07,株式会社ビヨンドブレイン,,株式会社,東京都,渋谷区,渋谷１丁目１９番１８号,,13,113,1500002,,,,,,,2023-11-07,1,,,,,ビヨンドブレイン,0
2691,9011001158017,新規,0,2023-11-07,2023-11-07,株式会社ＲＡＩＮＢＯＷ　ＣＯＮＮＥＣＴＩＯＮ,,株式会社,東京都,渋谷区,神宮前６丁目２３番４号桑野ビル２階,,13,113,1500001,,,,,,,2023-11-07,1,,,,,レインボーコネクション,0
2693,9011003017798,新規,0,2023-11-07,2023-11-07,合同会社ＨＡＧＵＭＵ,,合同会社,東京都,目黒区,下目黒１丁目１番１４号コノトラビル７Ｆ,,13,110,1530064,,,,,,,2023-11-07,1,,,,,ハグム,0
2698,9011401025576,新規,0,2023-11-07,2023-11-07,株式会社２１センチュリー,,株式会社,東京都,板橋区,舟渡２丁目３４番３－７０５号,,13,119,1740041,,,,,,,2023-11-07,1,,,,,ニジュウイチセンチュリー,0
2699,9011401025592,新規,0,2023-11-07,2023-11-07,結像株式会社,,株式会社,東京都,板橋区,若木３丁目１２番３－１０５号,,13,119,1740065,,,,,,,2023-11-07,1,,,,,ケツゾウ,0
2702,9011603004122,新規,0,2023-11-07,2023-11-07,合同会社１０回塾,,合同会社,東京都,練馬区,早宮２丁目１０番３号,,13,120,1790085,,,,,,,2023-11-07,1,,,,,ジュッカイジュク,0
2703,9011701026729,新規,0,2023-11-07,2023-11-07,Ａｄｄｆｉｘ株式会社,,株式会社,東京都,江戸川区,西葛西４丁目２番５－９０７号コンドミニアム葛西,,13,123,1340088,,,,,,,2023-11-07,1,,,,,アドフィクス,0
2706,9011801043285,新規,0,2023-11-07,2023-11-07,健康美容株式会社,,株式会社,東京都,葛飾区,青戸５丁目１６番１２号阿部ビル１０１,,13,122,1250062,,,,,,,2023-11-07,1,,,,,ケンコウビヨウ,0
2707,9011801043302,新規,0,2023-11-07,2023-11-07,株式会社富永商事,,株式会社,東京都,葛飾区,堀切４丁目１９番１３－４０３号,,13,122,1240006,,,,,,,2023-11-07,1,,,,,トミナガショウジ,0
2713,9012301013646,新規,0,2023-11-07,2023-11-07,輝興業株式会社,,株式会社,東京都,町田市,山崎町１９６番地１,,13,209,1950074,,,,,,,2023-11-07,1,,,,,アキラコウギョウ,0
2714,9012303001896,新規,0,2023-11-07,2023-11-07,合同会社ＣＨＡＮＴＯ,,合同会社,東京都,町田市,中町４丁目１番７号アーク町田２０１,,13,209,1940021,,,,,,,2023-11-07,1,,,,,チャント,0
2718,9012401041183,新規,0,2023-11-07,2023-11-07,株式会社ライフステージ,,株式会社,東京都,武蔵野市,吉祥寺本町１丁目２０番１号吉祥寺永谷シティプラザ１００２,,13,203,1800004,,,,,,,2023-11-07,1,,,,,ライフステージ,0
2735,9020001154306,新規,0,2023-11-07,2023-11-07,株式会社ビッグウエスト,,株式会社,神奈川県,横浜市青葉区,市ケ尾町１０５８番地１２,,14,117,2250024,,,,,,,2023-11-07,1,,,,,ビッグウエスト,0
2736,9020001154314,新規,0,2023-11-07,2023-11-07,株式会社灯栄,,株式会社,神奈川県,横浜市神奈川区,羽沢南２丁目２５番３－５０５号,,14,102,2210866,,,,,,,2023-11-07,1,,,,,トウエイ,0
2737,9020001154371,新規,0,2023-11-07,2023-11-07,ＫＯＰＡＮ　ＯＦＦＩＣＥ株式会社,,株式会社,神奈川県,横浜市中区,北仲通５丁目５７番地２ザ・タワー横浜北仲４３０６号室,,14,104,2310003,,,,,,,2023-11-07,1,,,,,コパンオフィス,0
2738,9020003024928,新規,0,2023-11-07,2023-11-07,合同会社ＧＩＬ電設工事,,合同会社,神奈川県,横浜市南区,南太田２丁目２７番１－４０１号,,14,105,2320006,,,,,,,2023-11-07,1,,,,,ギルデンセツコウジ,0
2739,9020003024936,新規,0,2023-11-07,2023-11-07,合同会社ｎａｋａｓｅｉ　ｃｏｍｐａｎｙ,,合同会社,神奈川県,横浜市南区,浦舟町２丁目２３－７日神パレステージ阪東橋７０３,,14,105,2320024,,,,,,,2023-11-07,1,,,,,ナカセイカンパニー,0
2745,9021001080649,新規,0,2023-11-07,2023-11-07,株式会社ヒロテックシステム,,株式会社,神奈川県,相模原市南区,古淵２丁目１２番２－８０５号,,14,153,2520344,,,,,,,2023-11-07,1,,,,,ヒロテックシステム,0
2746,9021001080657,新規,0,2023-11-07,2023-11-07,株式会社鈴木工業,,株式会社,神奈川県,相模原市南区,東林間７丁目１６番１１号,,14,153,2520311,,,,,,,2023-11-07,1,,,,,スズキコウギョウ,0
2747,9021003013788,新規,0,2023-11-07,2023-11-07,ｎｏｃｏｒ合同会社,,合同会社,神奈川県,相模原市南区,相模大野８丁目３番１０号ツルマビル２０２,,14,153,2520303,,,,,,,2023-11-07,1,,,,,ノコル,0
2754,9030001156961,新規,0,2023-11-07,2023-11-07,株式会社ミライ興業,,株式会社,埼玉県,所沢市,東所沢１丁目６番地１５パールメゾン１０２号室,,11,208,3590021,,,,,,,2023-11-07,1,,,,,ミライコウギョウ,0
2755,9030001156978,新規,0,2023-11-07,2023-11-07,株式会社Ｌｅｇａｍｅ,,株式会社,埼玉県,新座市,新堀１丁目１４番地１０,,11,230,3520032,,,,,,,2023-11-07,1,,,,,レガーメ,0
2756,9030001156994,新規,0,2023-11-07,2023-11-07,株式会社彩慎,,株式会社,埼玉県,越谷市,北越谷２丁目１９番２２号,,11,222,3430026,,,,,,,2023-11-07,1,,,,,サイシン,0
2761,9030003022947,新規,0,2023-11-07,2023-11-07,ブルーグラス合同会社,,合同会社,埼玉県,川口市,緑町２－１９,,11,203,3320027,,,,,,,2023-11-07,1,,,,,ブルーグラス,0
2765,9040001130692,新規,0,2023-11-07,2023-11-07,サンミライ株式会社,,株式会社,千葉県,流山市,三輪野山１丁目１００１番地の２インペリアルタイガー２０１,,12,220,2700175,,,,,,,2023-11-07,1,,,,,サンミライ,0
2766,9040001130759,新規,0,2023-11-07,2023-11-07,株式会社Ｔｈａｎｋ　ｙｏｕ　Ｄａｙｓ,,株式会社,千葉県,鴨川市,金束１６４番地５,,12,223,2960233,,,,,,,2023-11-07,1,,,,,サンキューデイズ,0
2767,9040001130800,新規,0,2023-11-07,2023-11-07,株式会社タイズ,,株式会社,千葉県,佐倉市,太田１４６２番地,,12,212,2850808,,,,,,,2023-11-07,1,,,,,タイズ,0
2768,9040001130809,新規,0,2023-11-07,2023-11-07,フィールコート株式会社,,株式会社,千葉県,浦安市,富士見２丁目８番１７号,,12,227,2790043,,,,,,,2023-11-07,1,,,,,フィールコート,0
2769,9040001130817,新規,0,2023-11-07,2023-11-07,株式会社ミナミ,,株式会社,千葉県,香取市,小見川９８７番地,,12,236,2890313,,,,,,,2023-11-07,1,,,,,ミナミ,0
2770,9040001130833,新規,0,2023-11-07,2023-11-07,株式会社グッドウィル,,株式会社,千葉県,市原市,寺谷６７５番地２３,,12,219,2900236,,,,,,,2023-11-07,1,,,,,グッドウィル,0
2772,9040003023688,新規,0,2023-11-07,2023-11-07,音一合同会社,,合同会社,千葉県,船橋市,丸山１丁目４３－９,,12,204,2730048,,,,,,,2023-11-07,1,,,,,オトイチ,0
2778,9050001053785,新規,0,2023-11-07,2023-11-07,ｕ．Ｔｏｐ　ｏｎｅ株式会社,,株式会社,茨城県,つくばみらい市,陽光台１丁目１番地２センチュリーつくばみらい平Ａ－１６１０,,08,235,3002358,,,,,,,2023-11-07,1,,,,,ユートップワン,0
2779,9050001053793,新規,0,2023-11-07,2023-11-07,株式会社エムズオートサービス,,株式会社,茨城県,下妻市,高道祖３１９８番地５,,08,210,3040031,,,,,,,2023-11-07,1,,,,,エムズオートサービス,0
2781,9060001036517,新規,0,2023-11-07,2023-11-07,株式会社ＮＩＨＯＮ　ＴＲＡＤＩＮＧ,,株式会社,栃木県,小山市,大字向野３２０－２７,,09,208,3230805,,,,,,,2023-11-07,1,,,,,ニホントレーディング,0
2789,9080101024320,新規,0,2023-11-07,2023-11-07,株式会社Ｎメディカル,,株式会社,静岡県,富士宮市,外神東町２１７番地の１,,22,207,4180007,,,,,,,2023-11-07,1,,,,,エヌメディカル,0
2796,9090003002415,新規,0,2023-11-07,2023-11-07,合同会社ＷＡＦ,,合同会社,山梨県,南都留郡富士河口湖町,船津３２６０‐５,,19,430,4010301,,,,,,,2023-11-07,1,,,,,ワフ,0
2819,9120001259524,新規,0,2023-11-07,2023-11-07,株式会社ＰＡＮＤＡ,,株式会社,大阪府,大阪市福島区,福島４丁目３番２３大阪福島タワー７０４,,27,103,5530003,,,,,,,2023-11-07,1,,,,,パンダ,0
2820,9120001259532,新規,0,2023-11-07,2023-11-07,誌二株式会社,,株式会社,大阪府,大阪市西成区,天下茶屋北１丁目６番５号－４０５号,,27,122,5570003,,,,,,,2023-11-07,1,,,,,シニ,0
2821,9120001259540,新規,0,2023-11-07,2023-11-07,株式会社ＩＣ,,株式会社,大阪府,大阪市浪速区,大国２丁目８番１４号,,27,111,5560014,,,,,,,2023-11-07,1,,,,,アイシー,0
2822,9120001259631,新規,0,2023-11-07,2023-11-07,株式会社Ｒｅｌｉｅ,,株式会社,大阪府,大阪市西区,新町２丁目１番２－１２０７号,,27,106,5500013,,,,,,,2023-11-07,1,,,,,ルリエ,0
2823,9120001259648,新規,0,2023-11-07,2023-11-07,株式会社ＳｔａｙＳａｆｅ,,株式会社,大阪府,大阪市中央区,本町４丁目２－１２野村不動産御堂筋本町ビル８Ｆ,,27,128,5410053,,,,,,,2023-11-07,1,,,,,ステイセーフ,0
2824,9120001259656,新規,0,2023-11-07,2023-11-07,株式会社Ｕｌｔｍ,,株式会社,大阪府,大阪市北区,梅田１丁目２番２号大阪駅前第２ビル１２－１２,,27,127,5300001,,,,,,,2023-11-07,1,,,,,アルテマ,0
2825,9120001259680,新規,0,2023-11-07,2023-11-07,株式会社ＰＣＵ,,株式会社,大阪府,大阪市北区,堂山町１０番３号,,27,127,5300027,,,,,,,2023-11-07,1,,,,,ピーシーユー,0
2829,9120003025288,新規,0,2023-11-07,2023-11-07,合同会社オハナ,,合同会社,大阪府,大阪市北区,中之島６丁目１－３８－２４１５,,27,127,5300005,,,,,,,2023-11-07,1,,,,,オハナ,0
2830,9120003025296,新規,0,2023-11-07,2023-11-07,合同会社ＬＡＴ,,合同会社,大阪府,大阪市都島区,都島本通４丁目２２番１号,,27,102,5340021,,,,,,,2023-11-07,1,,,,,エルエーティー,0
2837,9120101068478,新規,0,2023-11-07,2023-11-07,株式会社カズサン,,株式会社,大阪府,堺市中区,深井北町３１２８番地１,,27,142,5998271,,,,,,,2023-11-07,1,,,,,カズサン,0
2838,9120101068503,新規,0,2023-11-07,2023-11-07,株式会社ＴＥＳＨＩＯ,,株式会社,大阪府,和泉市,尾井町２丁目９番３６号,,27,219,5940006,,,,,,,2023-11-07,1,,,,,テシオ,0
2840,9120103005520,新規,0,2023-11-07,2023-11-07,合同会社ａｎｄ　ｐｌｕｓ　Ｃｏｍｐａｎｙ,,合同会社,大阪府,藤井寺市,春日丘１丁目２番３号,,27,226,5830026,,,,,,,2023-11-07,1,,,,,アンドプラスカンパニー,0
2841,9120901048299,新規,0,2023-11-07,2023-11-07,株式会社Ｓｕｐｅｒｊｐｍ,,株式会社,大阪府,池田市,住吉２丁目１４番８号,,27,204,5630033,,,,,,,2023-11-07,1,,,,,スーパージェイピーエム,0
2843,9120903004903,新規,0,2023-11-07,2023-11-07,合同会社Ｌａｄｙ,,合同会社,大阪府,吹田市,春日４丁目１１番１－４１５号,,27,205,5650853,,,,,,,2023-11-07,1,,,,,レディ,0
2844,9122001037538,新規,0,2023-11-07,2023-11-07,株式会社ＭＯＮＴＯＭＩＥ,,株式会社,大阪府,東大阪市,川俣１丁目９番４９号,,27,227,5770063,,,,,,,2023-11-07,1,,,,,モントミー,0
2849,9130001075689,新規,0,2023-11-07,2023-11-07,株式会社Ｍ’ｓエステート,,株式会社,京都府,京都市左京区,吉田神楽岡町８番地２０９,,26,103,6068311,,,,,,,2023-11-07,1,,,,,エムズエステート,0
2858,9140003019759,新規,0,2023-11-07,2023-11-07,Ａｇｒｉ　Ｓｔｒｅａｍ合同会社,,合同会社,兵庫県,神戸市垂水区,仲田１丁目３番５号,,28,108,6550034,,,,,,,2023-11-07,1,,,,,アグリストリーム,0
2861,9150001026855,新規,0,2023-11-07,2023-11-07,株式会社五條サービスセンター,,株式会社,奈良県,五條市,野原東１丁目５番２９号,,29,207,6370038,,,,,,,2023-11-07,1,,,,,ゴジョウサービスセンター,0
2862,9160001025476,新規,0,2023-11-07,2023-11-07,大幸商事株式会社,,株式会社,滋賀県,犬上郡甲良町,大字法養寺７番地,,25,442,5220263,,,,,,,2023-11-07,1,,,,,ダイコウショウジ,0
2863,9160001025484,新規,0,2023-11-07,2023-11-07,株式会社ビワコ建装ネクスト,,株式会社,滋賀県,栗東市,川辺５１３番地２,,25,208,5203014,,,,,,,2023-11-07,1,,,,,ビワコケンソウネクスト,0
2864,9160001025492,新規,0,2023-11-07,2023-11-07,株式会社ＹＯＵ　ＢＯＡＴ　ＳＥＲＶＩＣＥ,,株式会社,滋賀県,大津市,和邇中１０６番地の１３,,25,201,5200526,,,,,,,2023-11-07,1,,,,,ユウボートサービス,0
2872,9180001158794,新規,0,2023-11-07,2023-11-07,株式会社シタラサービス,,株式会社,愛知県,名古屋市瑞穂区,桃園町３番１１号,,23,108,4670855,,,,,,,2023-11-07,1,,,,,シタラサービス,0
2873,9180001158803,新規,0,2023-11-07,2023-11-07,株式会社ｒｏｏｍＲ,,株式会社,愛知県,名古屋市中川区,草平町２丁目５７番地の２,,23,110,4540868,,,,,,,2023-11-07,1,,,,,ルームアール,0
2874,9180001158811,新規,0,2023-11-07,2023-11-07,株式会社スフレ,,株式会社,愛知県,尾張旭市,桜ケ丘町西３７９番地,,23,226,4880857,,,,,,,2023-11-07,1,,,,,スフレ,0
2875,9180001158836,新規,0,2023-11-07,2023-11-07,株式会社ミクシル,,株式会社,愛知県,名古屋市中区,栄２丁目２番１号広小路伏見中駒ビル５階１１号室,,23,106,4600008,,,,,,,2023-11-07,1,,,,,ミクシル,0
2876,9180001158844,新規,0,2023-11-07,2023-11-07,ＲＭ　ＭＥＤＩＣＡＬ株式会社,,株式会社,愛知県,名古屋市中区,正木２丁目４番３号パークアクシス金山ウエスト１３０２号,,23,106,4600024,,,,,,,2023-11-07,1,,,,,アールエムメディカル,0
2877,9180001158852,新規,0,2023-11-07,2023-11-07,株式会社ＮＥＸＴＥＲ　ＨＯＭＥ,,株式会社,愛知県,一宮市,相生１丁目５番６号,,23,203,4910882,,,,,,,2023-11-07,1,,,,,ネクスターホーム,0
2883,9180005020414,新規,0,2023-11-07,2023-11-07,ハイレジデンス旭管理組合法人,,その他の設立登記法人,愛知県,半田市,旭町５丁目３番地の２,,23,205,4750838,,,,,,,2023-11-07,1,,,,,ハイレジデンスアサヒ,0
2884,9180301037970,新規,0,2023-11-07,2023-11-07,株式会社ＳＫＣ,,株式会社,愛知県,豊川市,牛久保町城跡２８番地８,,23,207,4420826,,,,,,,2023-11-07,1,,,,,エスケーシー,0
2885,9180301037979,新規,0,2023-11-07,2023-11-07,株式会社ＷＡＫＵ　ＷＯＲＫＳ,,株式会社,愛知県,豊橋市,下地町字操穴２６番地,,23,201,4400083,,,,,,,2023-11-07,1,,,,,ワクワークス,0
2886,9180301037987,新規,0,2023-11-07,2023-11-07,株式会社シンコー木工,,株式会社,愛知県,岡崎市,真伝吉祥１丁目１５番地１２,,23,202,4443176,,,,,,,2023-11-07,1,,,,,シンコーモッコウ,0
2887,9180301037995,新規,0,2023-11-07,2023-11-07,株式会社ＳＫＹ,,株式会社,愛知県,豊田市,曙町５丁目６７番地,,23,211,4710835,,,,,,,2023-11-07,1,,,,,スカイ,0
2888,9180301038003,新規,0,2023-11-07,2023-11-07,株式会社ＢＵＩＬＤＥＸ,,株式会社,愛知県,豊田市,西広瀬町市場２２６番地,,23,211,4700309,,,,,,,2023-11-07,1,,,,,ビルデクス,0
2889,9180303005892,新規,0,2023-11-07,2023-11-07,合同会社ＰＡＫ　ＪＡＰＡＮ　ＥＮＴＥＲＰＲＩＳＥ,,合同会社,愛知県,安城市,宇頭茶屋町北裏１３１番地３,,23,212,4460005,,,,,,,2023-11-07,1,,,,,パックジャパンエンタープライズ,0
2890,9180305009529,新規,0,2023-11-07,2023-11-07,一般社団法人いきいきライフ協会三河,,その他の設立登記法人,愛知県,岡崎市,康生通西３丁目５番地野畑証券第２ビル５階,,23,202,4440059,,,,,,,2023-11-07,1,,,,,イキイキライフキョウカイミカワ,0
2896,9200001041832,新規,0,2023-11-07,2023-11-07,株式会社建寿,,株式会社,岐阜県,土岐市,妻木町１７４２番地の５,,21,212,5095301,,,,,,,2023-11-07,1,,,,,ケンジュ,0
2897,9200001041881,新規,0,2023-11-07,2023-11-07,アール・イー・オオノ株式会社,,株式会社,岐阜県,美濃加茂市,新池町２丁目６番２４号,,21,211,5050031,,,,,,,2023-11-07,1,,,,,アールイーオオノ,0
2904,9220001025668,新規,0,2023-11-07,2023-11-07,株式会社ＣＡＣ,,株式会社,石川県,鳳珠郡穴水町,字川島ヨ３番地５,,17,461,9270027,,,,,,,2023-11-07,1,,,,,シーエーシー,0
2905,9220001025676,新規,0,2023-11-07,2023-11-07,株式会社Ｂａｒａｎｃｅ,,株式会社,石川県,金沢市,増泉２丁目７番１６号（グリーンヒルズビル・４０３号）,,17,201,9218025,,,,,,,2023-11-07,1,,,,,バランス,0
2907,9230003002103,新規,0,2023-11-07,2023-11-07,Ｙｕｚｕｎｏｋｉ合同会社,,合同会社,富山県,富山市,東岩瀬町１０２番地森家土蔵群２番,,16,201,9318358,,,,,,,2023-11-07,1,,,,,ユズノキ,0
2914,9240001062362,新規,0,2023-11-07,2023-11-07,岩井船舶装備株式会社,,株式会社,広島県,尾道市,高須町５６８５番地１１,,34,205,7290141,,,,,,,2023-11-07,1,,,,,イワイセンパクソウビ,0
2915,9240001062379,新規,0,2023-11-07,2023-11-07,株式会社ウエスギ,,株式会社,広島県,東広島市,黒瀬町津江１６９番地１,,34,212,7392732,,,,,,,2023-11-07,1,,,,,ウエスギ,0
2916,9240001062395,新規,0,2023-11-07,2023-11-07,株式会社ＨＥＲＯＥＳ,,株式会社,広島県,広島市安佐南区,伴東８丁目３２－１６,,34,105,7313164,,,,,,,2023-11-07,1,,,,,ヒーローズ,0
2927,9290001103673,新規,0,2023-11-07,2023-11-07,株式会社アートヴァディジング,,株式会社,福岡県,福岡市博多区,博多駅前２丁目１９番１７号トーカン博多第５ビル３１２号室,,40,132,8120011,,,,,,,2023-11-07,1,,,,,アートヴァディジング,0
2928,9290001103681,新規,0,2023-11-07,2023-11-07,株式会社ＦＴＯコンサルティング,,株式会社,福岡県,大野城市,白木原１丁目２番１０号,,40,219,8160943,,,,,,,2023-11-07,1,,,,,エフティーオーコンサルティング,0
2938,9310003004677,新規,0,2023-11-07,2023-11-07,合同会社未来色プロジェクト,,合同会社,長崎県,西海市,西海町中浦南郷１３６９番地１９,,42,212,8572221,,,,,,,2023-11-07,1,,,,,ミライイロプロジェクト,0
2943,9330001031432,新規,0,2023-11-07,2023-11-07,株式会社Ｓ‐ｍｉｌｅ,,株式会社,熊本県,熊本市南区,護藤町２７５０番地１,,43,104,8614117,,,,,,,2023-11-07,1,,,,,スマイル,0
2947,9330003010070,新規,0,2023-11-07,2023-11-07,合同会社ＢｏｏｔＳｔｒａｐ,,合同会社,熊本県,菊池郡大津町,大字下町３４３番地８,,43,403,8691225,,,,,,,2023-11-07,1,,,,,ブートストラップ,0
2956,9370001050585,新規,0,2023-11-07,2023-11-07,盈貴株式会社,,株式会社,宮城県,仙台市太白区,長町８丁目８番７号,,04,104,9820011,,,,,,,2023-11-07,1,,,,,ミツキ,0
2957,9370001050593,新規,0,2023-11-07,2023-11-07,株式会社ワタコー・アセットマネジメント,,株式会社,宮城県,宮城郡七ヶ浜町,東宮浜字東兼田３２番地の４－２Ｆ,,04,404,9850804,,,,,,,2023-11-07,1,,,,,ワタコーアセットマネジメント,0
2960,9380001014184,新規,0,2023-11-07,2023-11-07,株式会社ティーエスシー,,株式会社,福島県,いわき市,平上荒川字長尾７４番地の８,,07,204,9708034,,,,,,,2023-11-07,1,,,,,ティーエスシー,0
2961,9380001034109,新規,0,2023-11-07,2023-11-07,きくたに建設株式会社,,株式会社,福島県,郡山市,朝日２丁目２１番７号和同ビル１階,,07,203,9638024,,,,,,,2023-11-07,1,,,,,キクタニケンセツ,0
2962,9380003005611,新規,0,2023-11-07,2023-11-07,ＳＡＩ合同会社,,合同会社,福島県,郡山市,島２丁目３３－１,,07,203,9638034,,,,,,,2023-11-07,1,,,,,サイ,0
2970,9400001016459,新規,0,2023-11-07,2023-11-07,中村工業株式会社,,株式会社,岩手県,滝沢市,鵜飼鬼越１６番地４,,03,216,0200686,,,,,,,2023-11-07,1,,,,,ナカムラコウギョウ,0
2983,9430001090360,新規,0,2023-11-07,2023-11-07,株式会社Ｌｉａｃ,,株式会社,北海道,札幌市東区,北二十条東２１丁目３番２５―２０１号,,01,103,0650020,,,,,,,2023-11-07,1,,,,,リアック,0
2995,9480001012285,新規,0,2023-11-07,2023-11-07,株式会社モトーレン徳島,,株式会社,徳島県,徳島市,問屋町１番地,,36,201,7708056,,,,,,,2023-11-07,1,,,,,モトーレントクシマ,0
2999,9500001025284,新規,0,2023-11-07,2023-11-07,株式会社幸煌,,株式会社,愛媛県,宇和島市,津島町北灘乙１９８８番地,,38,203,7983362,,,,,,,2023-11-07,1,,,,,コウオウ,0
