sequenceNumber,corporateNumber,process,correct,updateDate,changeDate,name,nameImageId,kind,prefectureName,cityName,streetNumber,addressImageId,prefectureCode,cityCode,postCode,addressOutside,addressOutsideImageId,closeDate,closeCause,successorCorporateNumber,changeCause,assignmentDate,latest,enName,enPrefectureName,enCityName,enAddressOutside,furigana,hihyoji
15,1010005032895,登記記録の閉鎖等,0,2025-10-22,2025-10-17,一般社団法人おがログ,,その他の設立登記法人,東京都,小笠原村,父島字扇浦,,13,421,1002101,,,2025-10-17,清算の結了等,,,2021-02-05,1,,,,,オガログ,0
33,1010403016517,登記記録の閉鎖等,0,2025-10-22,2025-10-10,Ｍｉｊａ　Ｗｉｎｄｐｏｗｅｒ　Ｊａｐａｎ合同会社,,合同会社,東京都,中央区,日本橋３丁目９番１号日本橋三丁目スクエア１１階,,13,102,1030027,,,2025-10-10,清算の結了等,,,2017-05-09,1,,,,,ミイヤウインドパワージャパン,0
38,1010602005824,登記記録の閉鎖等,0,2025-10-22,2025-10-07,有限会社深川小松,,有限会社,東京都,江東区,平野１丁目１４番１６号,,13,108,1350023,,,2025-10-07,清算の結了等,,,2015-10-05,1,,,,,,0
45,1010703007018,登記記録の閉鎖等,0,2025-10-22,2025-10-14,合同会社クレイブ,,合同会社,東京都,品川区,西大井１丁目１番２－１７０６号,,13,109,1400015,,,2025-10-14,清算の結了等,,,2024-01-11,1,,,,,クレイブ,0
48,1010905000530,登記記録の閉鎖等,0,2025-10-22,2025-10-20,東京建設廃材処理協同組合,,その他の設立登記法人,東京都,世田谷区,経堂４丁目１７番２０号,,13,112,1560052,,,2025-10-20,清算の結了等,,,2015-10-05,1,,,,,トウキョウケンセツハイザイショリ,0
57,1011101010943,登記記録の閉鎖等,0,2025-10-22,2025-09-18,正文社印刷株式会社,,株式会社,東京都,新宿区,早稲田鶴巻町３０３番地,,13,104,1620041,,,2025-09-18,清算の結了等,,,2015-10-05,1,,,,,ショウブンシャインサツ,0
83,1020001036627,登記記録の閉鎖等,0,2025-10-22,2025-10-06,株式会社Ｍ＆Ａサクセション,,株式会社,神奈川県,横浜市南区,白金町２丁目３３番地ＭＫ白金１０１,,14,105,2320005,,,2025-10-06,清算の結了等,,,2015-10-05,1,,,,,エムアンドエーサクセション,0
85,1020001096349,登記記録の閉鎖等,0,2025-10-22,2025-10-07,株式会社ａｉｌｅｓ,,株式会社,神奈川県,横浜市青葉区,奈良４丁目１番地１,,14,117,2270038,,,2025-10-07,清算の結了等,,,2015-10-05,1,,,,,エール,0
109,1030002058256,登記記録の閉鎖等,0,2025-10-22,2025-10-10,有限会社落合土木,,有限会社,埼玉県,朝霞市,宮戸４丁目１２番４４号,,11,227,3510031,,,2025-10-10,清算の結了等,,,2015-10-05,1,,,,,オチアイドボク,0
134,1050002035922,登記記録の閉鎖等,0,2025-10-22,2025-10-14,有限会社金澤鉄筋工事,,有限会社,茨城県,久慈郡大子町,大字小生瀬５８３３番地,,08,364,3193512,,,2025-10-14,清算の結了等,,,2015-10-05,1,,,,,カナザワテッキンコウジ,0
150,1110001014086,登記記録の閉鎖等,0,2025-10-22,2025-10-14,コスモ株式会社,,株式会社,新潟県,三条市,今井１０６３番地,,15,204,9591141,,,2025-10-14,清算の結了等,,,2015-10-05,1,,,,,コスモ,0
156,1120001061929,登記記録の閉鎖等,0,2025-10-22,2025-10-14,株式会社エムテック,,株式会社,大阪府,大阪市北区,天神橋１丁目１９番８号,,27,127,5300041,,,2025-10-14,清算の結了等,,,2015-10-05,1,,,,,エムテック,0
162,1120001224808,登記記録の閉鎖等,0,2025-10-22,2025-10-03,株式会社Ｌｉｎｏ,,株式会社,大阪府,大阪市北区,堂島浜１丁目１番２７号,,27,127,5300004,,,2025-10-03,清算の結了等,,,2019-10-31,1,,,,,リノ,0
201,1140002052082,登記記録の閉鎖等,0,2025-10-22,2025-10-10,有限会社インターテック,,有限会社,兵庫県,姫路市,中地３６８番地２,,28,201,6700976,,,2025-10-10,清算の結了等,,,2015-10-05,1,,,,,インターテック,0
208,1180001028105,登記記録の閉鎖等,0,2025-10-22,2025-10-01,小林技研株式会社,,株式会社,愛知県,名古屋市緑区,鳴海町字石堀山１３番地,,23,114,4580801,,,2025-10-01,合併による解散等,3180001020002,令和７年１０月１日名古屋市中川区清川町一丁目１番地竹内工業株式会社（3180001020002）に合併し解散,2015-10-05,1,,,,,コバヤシギケン,0
216,1180003024060,登記記録の閉鎖等,0,2025-10-22,2025-10-17,ｌｅ　ｓｏｌｅｉｌ合同会社,,合同会社,島根県,出雲市,大社町杵築南８３９番地２,,32,203,6990711,,,2025-10-17,清算の結了等,,,2022-07-21,1,,,,,ルソレイユ,0
219,1180302023093,登記記録の閉鎖等,0,2025-10-22,2025-10-09,有限会社パウラ,,有限会社,愛知県,豊田市,林添町下三五田和１４番地１,,23,211,4442218,,,2025-10-09,清算の結了等,,,2015-10-05,1,,,,,パウラ,0
221,1190003003633,登記記録の閉鎖等,0,2025-10-22,2025-10-14,シャル合同会社,,合同会社,三重県,志摩市,大王町波切２７１番地ラウムズ大王崎２０１,,24,215,5170603,,,2025-10-14,清算の結了等,,,2021-03-29,1,,,,,シャル,0
222,1200001023714,登記記録の閉鎖等,0,2025-10-22,2025-10-14,株式会社秀建工業,,株式会社,岐阜県,恵那市,大井町字観音寺２６９５番地の４２４,,21,210,5097201,,,2025-10-14,清算の結了等,,,2015-10-05,1,,,,,シュウケンコウギョウ,0
227,1210002009174,登記記録の閉鎖等,0,2025-10-22,2025-10-16,株式会社福結び,,株式会社,福井県,吉田郡永平寺町,諏訪間第６５号１番地１,,18,322,9101222,,,2025-10-16,清算の結了等,,,2015-10-05,1,,,,,フクムスビ,0
228,1220001017185,登記記録の閉鎖等,0,2025-10-22,2025-10-17,株式会社Ｔ‐ＬＩＮＫ,,株式会社,石川県,金沢市,松村２丁目２２９番地,,17,201,9200348,,,2025-10-17,清算の結了等,,,2015-10-05,1,,,,,,0
230,1220002004570,登記記録の閉鎖等,0,2025-10-22,2025-10-14,有限会社野村ビジネスコンサルティング,,有限会社,石川県,金沢市,泉野出町４丁目１番１６号,,17,201,9218116,,,2025-10-14,清算の結了等,,,2015-10-05,1,,,,,ノムラビジネスコンサルティング,0
231,1230001008514,登記記録の閉鎖等,0,2025-10-22,2025-10-15,株式会社トラベルサービス読売,,株式会社,富山県,南砺市,二日町２１９１番地,,16,210,9391507,,,2025-10-15,清算の結了等,,,2015-10-05,1,,,,,トラベルサービスヨミウリ,0
233,1240001035326,登記記録の閉鎖等,0,2025-10-22,2025-10-16,株式会社ウインフィールド,,株式会社,広島県,福山市,北吉津町４丁目５番２２号,,34,207,7200073,,,2025-10-16,清算の結了等,,,2015-10-05,1,,,,,ウインフィールド,0
234,1240001036976,登記記録の閉鎖等,0,2025-10-22,2025-10-17,オーケー工業株式会社,,株式会社,広島県,安芸郡熊野町,新宮４丁目１５番２４号,,34,307,7314211,,,2025-10-17,清算の結了等,,,2015-10-05,1,,,,,オーケーコウギョウ,0
239,1250002016687,登記記録の閉鎖等,0,2025-10-22,2025-10-16,大日工業有限会社,,有限会社,山口県,周南市,秋月３丁目１５番３１号,,35,215,7450825,,,2025-10-16,清算の結了等,,,2015-10-05,1,,,,,ダイニチコウギョウ,0
245,1260002025704,登記記録の閉鎖等,0,2025-10-22,2025-10-10,有限会社斎藤酒店,,有限会社,岡山県,井原市,井原町４１番地,,33,207,7150019,,,2025-10-10,清算の結了等,,,2015-10-05,1,,,,,サイトウサケテン,0
258,1320002018924,登記記録の閉鎖等,0,2025-10-22,2025-10-15,有限会社小野興産,,有限会社,大分県,日田市,大字小野３７２４番地,,44,204,8770000,,,2025-10-15,清算の結了等,,,2015-10-05,1,,,,,オノコウサン,0
284,2010001229486,登記記録の閉鎖等,0,2025-10-22,2025-10-10,株式会社ＡＲＥＴＥＣＯ　ＭＡＲＫＥＴＩＮＧ　ＦＩＲＭ,,株式会社,東京都,千代田区,九段南１丁目５番６号りそな九段ビル５階ＫＳフロア,,13,101,1020074,,,2025-10-10,清算の結了等,,,2022-09-13,1,,,,,アレテコマーケティングファーム,0
286,2010001248924,登記記録の閉鎖等,0,2025-10-22,2025-10-10,株式会社新,,株式会社,東京都,千代田区,神田司町２丁目６番１号荒木ビル５階,,13,101,1010048,,,2025-10-10,清算の結了等,,,2024-10-10,1,,,,,シン,0
288,2010003027814,登記記録の閉鎖等,0,2025-10-22,2025-10-06,合同会社名駅インベストメント,,合同会社,東京都,千代田区,丸の内２丁目２番２号,,13,101,1000005,,,2025-10-06,清算の結了等,,,2018-07-02,1,,,,,メイエキインベストメント,0
293,2010401167922,登記記録の閉鎖等,0,2025-10-22,2025-09-16,株式会社ｃｏｓｍｉｃ　ｅａｒｔｈ,,株式会社,東京都,港区,白金５丁目６番７号エスセナーリオ白金４０１号,,13,103,1080072,,,2025-09-16,清算の結了等,,,2022-06-16,1,,,,,コスミックアース,0
337,2011101047547,登記記録の閉鎖等,0,2025-10-22,2025-10-10,株式会社エヌディーシーコーポレーション,,株式会社,東京都,墨田区,江東橋３丁目３番７号,,13,107,1300022,,,2025-10-10,清算の結了等,,,2015-10-05,1,,,,,エヌディーシーコーポレーション,0
345,2011501027438,登記記録の閉鎖等,0,2025-10-22,2025-10-20,株式会社ｍａｐｌｅｓ,,株式会社,東京都,荒川区,東尾久５丁目３７番１４号ドリームハウス熊野前２０１,,13,118,1160012,,,2025-10-20,清算の結了等,,,2021-10-29,1,,,,,メイプルズ,0
348,2011605001867,登記記録の閉鎖等,0,2025-10-22,2025-10-14,一般社団法人指輪ホテル,,その他の設立登記法人,東京都,練馬区,小竹町１丁目５４番５－３０２号,,13,120,1760004,,,2025-10-14,清算の結了等,,,2015-10-05,1,,,,,ユビワホテル,0
349,2011801008245,登記記録の閉鎖等,0,2025-10-22,2025-10-17,株式会社サンプレス,,株式会社,東京都,足立区,竹の塚２丁目２２番１４号,,13,121,1210813,,,2025-10-17,清算の結了等,,,2015-10-05,1,,,,,サンプレス,0
351,2011801022007,登記記録の閉鎖等,0,2025-10-22,2025-10-21,株式会社二ノ宮製作所,,株式会社,東京都,足立区,保塚町２番１５号,,13,121,1210072,,,2025-10-21,清算の結了等,,,2015-10-05,1,,,,,ニノミヤセイサクショ,0
356,2012402020911,登記記録の閉鎖等,0,2025-10-22,2025-10-14,有限会社川原,,有限会社,東京都,武蔵野市,西久保１丁目６番２１号,,13,203,1800013,,,2025-10-14,清算の結了等,,,2015-10-05,1,,,,,,0
365,2020001036411,登記記録の閉鎖等,0,2025-10-22,2025-10-06,株式会社スター・システム,,株式会社,神奈川県,横浜市金沢区,富岡西７丁目３番５号,,14,108,2360052,,,2025-10-06,清算の結了等,,,2015-10-05,1,,,,,スターシステム,0
374,2020001118060,登記記録の閉鎖等,0,2025-10-22,2025-10-09,ＩＡＣＧ　Ｊａｐａｎ株式会社,,株式会社,東京都,町田市,玉川学園８丁目７番７号玉川学園ガーデンハウスＢ－２０８、ＡＣＡ税理士法人気付,,13,209,1940041,,,2025-10-09,清算の結了等,,,2016-10-03,1,,,,,アイエーシージージャパン,0
428,2080101019137,登記記録の閉鎖等,0,2025-10-22,2025-10-16,ＢＩＧ　ＵＰ株式会社,,株式会社,静岡県,熱海市,春日町１１番１号,,22,205,4130005,,,2025-10-16,清算の結了等,,,2016-06-01,1,,,,,ビッグアップ,0
435,2090005007402,登記記録の閉鎖等,0,2025-10-22,2025-10-10,一般社団法人Ｇｌｏｂａｌ　Ｂｅａｕｔｙ,,その他の設立登記法人,山梨県,甲府市,国母７丁目４番６号,,19,201,4000043,,,2025-10-10,清算の結了等,,,2021-04-26,1,,,,,グローバルビューティー,0
443,2120001047927,登記記録の閉鎖等,0,2025-10-22,2025-10-15,株式会社本岡製作所,,株式会社,大阪府,大阪市西区,本田３丁目６番２３号,,27,106,5500022,,,2025-10-15,清算の結了等,,,2015-10-05,1,,,,,モトオカセイサクショ,0
445,2120001077783,登記記録の閉鎖等,0,2025-10-22,2025-10-08,株式会社きたむら工業,,株式会社,大阪府,大阪市中央区,玉造２丁目１６番２４号,,27,128,5400004,,,2025-10-08,清算の結了等,,,2015-10-05,1,,,,,キタムラコウギョウ,0
450,2120001183581,登記記録の閉鎖等,0,2025-10-22,2025-10-16,株式会社１１,,株式会社,大阪府,大阪市北区,天神橋５丁目６番３３号,,27,127,5300041,,,2025-10-16,清算の結了等,,,2015-10-05,1,,,,,イレブン,0
476,2120901024018,登記記録の閉鎖等,0,2025-10-22,2025-09-01,株式会社ジーエス企画,,株式会社,大阪府,豊中市,走井２丁目８番２号,,27,203,5610891,,,2025-09-01,清算の結了等,,,2015-10-05,1,,,,,ジーエスキカク,0
483,2130001031178,登記記録の閉鎖等,0,2025-10-22,2025-10-17,株式会社丸新工務店,,株式会社,京都府,京都市山科区,西野山射庭ノ上町２４７番地６,,26,110,6078307,,,2025-10-17,清算の結了等,,,2015-10-05,1,,,,,マルシンコウムテン,0
489,2140001032448,登記記録の閉鎖等,0,2025-10-22,2025-10-15,株式会社昭栄,,株式会社,兵庫県,宝塚市,安倉北３丁目９番４号,,28,214,6650821,,,2025-10-15,清算の結了等,,,2015-10-05,1,,,,,ショウエイ,0
516,2180005016476,登記記録の閉鎖等,0,2025-10-22,2025-10-20,特定非営利活動法人あいのてサポート,,その他の設立登記法人,愛知県,名古屋市西区,幅下１丁目１０番２７号,,23,104,4510041,,,2025-10-20,清算の結了等,,,2015-10-05,1,,,,,アイノテサポート,0
529,2220002005907,登記記録の閉鎖等,0,2025-10-22,2025-10-20,有限会社毛利,,有限会社,石川県,金沢市,水溜町２番２号,,17,201,9200978,,,2025-10-20,清算の結了等,,,2015-10-05,1,,,,,モウリ,0
531,2240001001863,登記記録の閉鎖等,0,2025-10-22,2025-10-16,株式会社岡田組,,株式会社,広島県,広島市東区,戸坂千足１丁目２１番１７号,,34,102,7320009,,,2025-10-16,清算の結了等,,,2015-10-05,1,,,,,オカダグミ,0
532,2240002015482,登記記録の閉鎖等,0,2025-10-22,2025-10-14,有限会社増野果物店,,有限会社,広島県,広島市西区,南観音８丁目１２番２６号,,34,104,7330035,,,2025-10-14,清算の結了等,,,2015-10-05,1,,,,,マスノクダモノテン,0
539,2290001029025,登記記録の閉鎖等,0,2025-10-22,2025-09-22,株式会社アスパラガス,,株式会社,福岡県,福岡市博多区,博多駅前３丁目７番３５号博多ハイテックビル５０５,,40,132,8120011,,,2025-09-22,清算の結了等,,,2015-10-05,1,,,,,,0
557,2290005019138,登記記録の閉鎖等,0,2025-10-22,2025-09-26,一般社団法人ミラｅファイン,,その他の設立登記法人,福岡県,福岡市中央区,天神２丁目３番１０号天神パインクレスト７１９号,,40,133,8100001,,,2025-09-26,清算の結了等,,,2023-08-31,1,,,,,,0
559,2300003001590,登記記録の閉鎖等,0,2025-10-22,2025-10-21,インテリアメイジヤ合同会社,,合同会社,佐賀県,伊万里市,二里町中里甲５６１番地,,41,205,8480034,,,2025-10-21,清算の結了等,,,2020-08-26,1,,,,,インテリアメイジヤ,0
562,2320002002761,登記記録の閉鎖等,0,2025-10-22,2025-10-14,有限会社児玉鮮魚店,,有限会社,大分県,大分市,大字田尻１０７７番地の１０,,44,201,8701143,,,2025-10-14,清算の結了等,,,2015-10-05,1,,,,,コダマセンギョテン,0
568,2370102001964,登記記録の閉鎖等,0,2025-10-22,2025-09-16,有限会社東幸電子,,有限会社,宮城県,角田市,毛萱字勝善５４番地,,04,208,9811517,,,2025-09-16,清算の結了等,,,2015-10-05,1,,,,,,0
570,2380001016419,登記記録の閉鎖等,0,2025-10-22,2025-10-02,株式会社赤井金属工業,,株式会社,福島県,双葉郡広野町,大字上北迫字二ツ沼８番地,,07,541,9790401,,,2025-10-02,清算の結了等,,,2015-10-05,1,,,,,アカイキンゾクコウギョウ,0
574,2380002031945,登記記録の閉鎖等,0,2025-10-22,2025-10-09,有限会社三栄靴店,,有限会社,福島県,会津若松市,東栄町１番３１号,,07,202,9650872,,,2025-10-09,清算の結了等,,,2015-10-05,1,,,,,サンエイクツテン,0
594,3010003033167,登記記録の閉鎖等,0,2025-10-22,2025-10-06,アストロ・ツー合同会社,,合同会社,東京都,中央区,銀座１丁目６番１１号土志田ビルディング３Ｆ,,13,102,1040061,,,2025-10-06,清算の結了等,,,2020-10-06,1,,,,,アストロツー,0
615,3010401149440,登記記録の閉鎖等,0,2025-10-22,2025-10-17,株式会社スマイルプラザ,,株式会社,東京都,港区,新橋２丁目６番１号さくら新橋ビル２Ｆ,,13,103,1050004,,,2025-10-17,合併による解散等,4290001010684,令和７年１０月１日福岡市中央区今川一丁目１番１号株式会社三好不動産（4290001010684）に合併し解散,2019-11-28,1,,,,,スマイルプラザ,0
621,3010403027009,登記記録の閉鎖等,0,2025-10-22,2025-09-22,合同会社エール,,合同会社,千葉県,松戸市,串崎新田７２番地の３８,,12,207,2702216,,,2025-09-22,清算の結了等,,,2022-02-02,1,,,,,エール,0
624,3010501022506,登記記録の閉鎖等,0,2025-10-22,2025-10-01,株式会社ファーストクルー,,株式会社,東京都,中央区,銀座２丁目８番９号,,13,102,1040061,,,2025-10-01,合併による解散等,6011101005336,令和７年１０月１日東京都中央区銀座二丁目８番９号株式会社ＣＡＤネットワークサービス（6011101005336）に合併し解散,2015-10-05,1,,,,,ファーストクルー,0
639,3010901040248,登記記録の閉鎖等,0,2025-10-22,2025-10-14,株式会社野田商店,,株式会社,東京都,世田谷区,経堂１丁目３９番１６号,,13,112,1560052,,,2025-10-14,清算の結了等,,,2017-06-08,1,,,,,ノダショウテン,0
643,3011001041525,登記記録の閉鎖等,0,2025-10-22,2025-09-16,株式会社クリエイティブシャワー,,株式会社,東京都,千代田区,神田紺屋町２８ワタナベラックビル７０２,,13,101,1010035,,,2025-09-16,清算の結了等,,,2015-10-05,1,,,,,クリエイティブシャワー,0
649,3011001148543,登記記録の閉鎖等,0,2025-10-22,2025-09-19,エステナビューティコスメ株式会社,,株式会社,東京都,渋谷区,神宮前６丁目２３番４号桑野ビル２階,,13,113,1500001,,,2025-09-19,清算の結了等,,,2022-07-07,1,,,,,エステナビューティコスメ,0
658,3011101005041,登記記録の閉鎖等,0,2025-10-22,2025-09-18,株式会社ギンセイ,,株式会社,東京都,新宿区,新宿５丁目４番１号,,13,104,1600022,,,2025-09-18,清算の結了等,,,2015-10-05,1,,,,,ギンセイ,0
660,3011101065853,登記記録の閉鎖等,0,2025-10-22,2025-10-08,シレゴテクノロジージャパン株式会社,,株式会社,東京都,江東区,豊洲３丁目２番２４号豊洲フォレシア１１階,,13,108,1350061,,,2025-10-08,清算の結了等,,,2015-10-05,1,,,,,シレゴテクノロジージャパン,0
676,3011601005301,登記記録の閉鎖等,0,2025-10-22,2025-10-14,株式会社日東生花,,株式会社,東京都,練馬区,東大泉２丁目１０番１１号リヴィンオズ大泉店,,13,120,1780063,,,2025-10-14,清算の結了等,,,2015-10-05,1,,,,,ニットウセイカ,0
683,3012301007380,登記記録の閉鎖等,0,2025-10-22,2025-10-08,株式会社ＣＳ経営研究所,,株式会社,東京都,町田市,成瀬台２丁目３５番地２６,,13,209,1940043,,,2025-10-08,清算の結了等,,,2015-10-05,1,,,,,シーエスケイエイケンキュウショ,0
698,3020001043902,登記記録の閉鎖等,0,2025-10-22,2025-10-08,株式会社アリア・ネクスト,,株式会社,神奈川県,横浜市中区,山下町７４番地１,,14,104,2310023,,,2025-10-08,清算の結了等,,,2015-10-05,1,,,,,アリアネクスト,0
706,3030001057364,登記記録の閉鎖等,0,2025-10-22,2025-10-09,株式会社アビアン,,株式会社,埼玉県,川越市,脇田本町１１－３６三田ビル２階,,11,201,3501123,,,2025-10-09,清算の結了等,,,2015-10-05,1,,,,,アビアン,0
716,3030002083616,登記記録の閉鎖等,0,2025-10-22,2025-10-14,有限会社マルス,,有限会社,埼玉県,北本市,二ツ家４丁目５５番地６,,11,233,3640014,,,2025-10-14,清算の結了等,,,2015-10-05,1,,,,,マルス,0
734,3080101004278,登記記録の閉鎖等,0,2025-10-22,2025-10-17,宝永技建株式会社,,株式会社,静岡県,御殿場市,二枚橋４１０番地の４,,22,215,4120021,,,2025-10-17,清算の結了等,,,2015-10-05,1,,,,,ホウエイギケン,0
735,3080102011876,登記記録の閉鎖等,0,2025-10-22,2025-10-20,有限会社やしろ綜建,,有限会社,静岡県,駿東郡長泉町,本宿４６９番地の１,,22,342,4110945,,,2025-10-20,清算の結了等,,,2015-10-05,1,,,,,ヤシロソウケン,0
737,3080401005868,登記記録の閉鎖等,0,2025-10-22,2025-10-14,レオックス株式会社,,株式会社,静岡県,浜松市中央区,富塚町１２２０番地の６２,,22,138,4328002,,,2025-10-14,清算の結了等,,,2015-10-05,1,,,,,レオックス,0
752,3120001206085,登記記録の閉鎖等,0,2025-10-22,2025-10-03,ＭＩＳＥＬ株式会社,,株式会社,大阪府,大阪市北区,大淀中１丁目１番３０号,,27,127,5310076,,,2025-10-03,合併による解散等,1120001120362,令和７年１０月１日大阪市北区大淀中一丁目１番３０号ＭＲＫホールディングス株式会社（1120001120362）に合併し解散,2017-06-07,1,,,,,ミセル,0
763,3120003013595,登記記録の閉鎖等,0,2025-10-22,2025-10-16,プレステージ合同会社,,合同会社,大阪府,大阪市東住吉区,公園南矢田１丁目３２－２－６０３,,27,121,5460024,,,2025-10-16,合併による解散等,7120103002247,令和７年１０月１日大阪府堺市北区北花田町四丁１１０番地１４上合同会社（7120103002247）に合併し解散,2017-11-22,1,,,,,プレステージ,0
769,3120902020238,登記記録の閉鎖等,0,2025-10-22,2025-10-06,有限会社旭興ホールディングス,,有限会社,大阪府,大阪市浪速区,下寺２丁目１番５号,,27,111,5560001,,,2025-10-06,清算の結了等,,,2015-10-05,1,,,,,キョッコウホールディングス,0
777,3140001050481,登記記録の閉鎖等,0,2025-10-22,2025-10-14,株式会社肉のさかい,,株式会社,兵庫県,尼崎市,潮江１丁目２１番１－５０２号,,28,202,6610976,,,2025-10-14,清算の結了等,,,2015-10-05,1,,,,,ニクノサカイ,0
790,3160005003137,登記記録の閉鎖等,0,2025-10-22,2025-10-16,特定非営利活動法人滋賀マスターズ陸連,,その他の設立登記法人,滋賀県,東近江市,沖野１丁目６番２３号,,25,213,5270034,,,2025-10-16,清算の結了等,,,2015-10-05,1,,,,,シガマスターズリクレン,0
799,3180005003804,登記記録の閉鎖等,0,2025-10-22,2025-10-20,協同組合アイ,,その他の設立登記法人,愛知県,名古屋市中村区,名駅４丁目４番３８号,,23,105,4500002,,,2025-10-20,清算の結了等,,,2015-10-05,1,,,,,アイ,0
803,3180302005503,登記記録の閉鎖等,0,2025-10-22,2025-10-09,有限会社サンクリーン名古屋,,有限会社,愛知県,額田郡幸田町,大字坂崎字海老子４０番地６,,23,501,4440104,,,2025-10-09,清算の結了等,,,2015-10-05,1,,,,,サンクリーンナゴヤ,0
814,3210003000865,登記記録の閉鎖等,0,2025-10-22,2025-10-15,合同会社松尾工業,,合同会社,福井県,福井市,日光２丁目２２番２８号,,18,201,9100029,,,2025-10-15,清算の結了等,,,2015-10-05,1,,,,,マツオコウギョウ,0
816,3220001018181,登記記録の閉鎖等,0,2025-10-22,2025-10-17,株式会社Ｋ’ｓｔｙｌｅ,,株式会社,石川県,野々市市,扇が丘８番４５,,17,212,9218812,,,2025-10-17,清算の結了等,,,2015-10-05,1,,,,,,0
822,3240005007245,登記記録の閉鎖等,0,2025-10-22,2025-10-15,特定非営利活動法人自然環境ネットワークＳＡＲＥＮ,,その他の設立登記法人,広島県,広島市中区,光南６丁目２番１－１００４号,,34,101,7300825,,,2025-10-15,清算の結了等,,,2015-10-05,1,,,,,シゼンカンキョウネットワークサレン,0
832,3290001077254,登記記録の閉鎖等,0,2025-10-22,2025-09-22,株式会社ＪＯＣＡＲＳ,,株式会社,福岡県,福岡市東区,三苫５丁目３番３６号,,40,131,8110201,,,2025-09-22,清算の結了等,,,2017-04-03,1,,,,,,0
846,3300002002333,登記記録の閉鎖等,0,2025-10-22,2025-10-20,有限会社総合厨房,,有限会社,佐賀県,佐賀市,鍋島町八戸溝２４８－９－８０７,,41,201,8490932,,,2025-10-20,清算の結了等,,,2015-10-05,1,,,,,ソウゴウチュウボウ,0
847,3310003002892,登記記録の閉鎖等,0,2025-10-22,2025-10-21,合同会社ハイル,,合同会社,長崎県,島原市,下川尻町８００８－４,,42,203,8550861,,,2025-10-21,清算の結了等,,,2015-10-05,1,,,,,,0
854,3330002006273,登記記録の閉鎖等,0,2025-10-22,2025-10-14,有限会社ダイドーグリーン,,有限会社,熊本県,熊本市南区,御幸笛田１丁目３番４５号,,43,104,8614172,,,2025-10-14,清算の結了等,,,2015-10-05,1,,,,,ダイドーグリーン,0
873,3380002002243,登記記録の閉鎖等,0,2025-10-22,2025-10-08,有限会社チェリー寝具,,有限会社,福島県,福島市,佐倉下字林泉４４番地,,07,201,9602154,,,2025-10-08,清算の結了等,,,2015-10-05,1,,,,,チェリーシング,0
881,3400003002792,登記記録の閉鎖等,0,2025-10-22,2025-10-06,合同会社ナイツ,,合同会社,岩手県,盛岡市,三本柳５地割３３番地４,,03,201,0200831,,,2025-10-06,清算の結了等,,,2021-06-02,1,,,,,ナイツ,0
882,3400005000381,登記記録の閉鎖等,0,2025-10-22,2025-10-08,協同組合カミカセンター,,その他の設立登記法人,岩手県,盛岡市,みたけ２丁目２２番５０号,,03,201,0200122,,,2025-10-08,清算の結了等,,,2015-10-05,1,,,,,カミカセンター,0
898,3430003013093,登記記録の閉鎖等,0,2025-10-22,2025-10-14,合同会社Ａｃｅ,,合同会社,北海道,札幌市中央区,南六条西４丁目４番４号ライトビル５階,,01,101,0640806,,,2025-10-14,清算の結了等,,,2021-08-30,1,,,,,エース,0
922,4010401150372,登記記録の閉鎖等,0,2025-10-22,2025-10-17,株式会社ティーエムマネージメント,,株式会社,東京都,練馬区,石神井町７丁目５番３号,,13,120,1770041,,,2025-10-17,合併による解散等,5010401116414,令和７年１０月１日東京都品川区西五反田七丁目２２番１７号ＴＯＣビルＴＭ　Ｌｉｎｅ株式会社（5010401116414）に合併し解散,2020-01-16,1,,,,,ティーエムマネージメント,0
951,4011001007681,登記記録の閉鎖等,0,2025-10-22,2025-10-06,株式会社工業技術コンサルタント,,株式会社,神奈川県,川崎市川崎区,砂子１丁目５番２５号,,14,131,2100006,,,2025-10-06,清算の結了等,,,2015-10-05,1,,,,,コウギョウギジュツコンサルタント,0
1001,4013202003344,登記記録の閉鎖等,0,2025-10-22,2025-09-16,有限会社ジョイハウス,,有限会社,東京都,目黒区,青葉台１丁目８番９号,,13,110,1530042,,,2025-09-16,清算の結了等,,,2015-10-05,1,,,,,ジョイハウス,0
1011,4020001059823,登記記録の閉鎖等,0,2025-10-22,2025-10-14,株式会社ビー・イー・ピー・ジャパン,,株式会社,埼玉県,所沢市,大字北秋津７３５番地の９,,11,208,3590038,,,2025-10-14,清算の結了等,,,2015-10-05,1,,,,,ビーイーピージャパン,0
1012,4020001068824,登記記録の閉鎖等,0,2025-10-22,2025-10-06,株式会社茨城鉄工所,00009736,株式会社,神奈川県,川崎市中原区,小杉御殿町２丁目７８番地,,14,133,2110068,,,2025-10-06,清算の結了等,,,2015-10-05,1,,,,,イバラキテッコウショ,0
1013,4020001106955,登記記録の閉鎖等,0,2025-10-22,2025-10-07,株式会社タベルモ,,株式会社,神奈川県,川崎市高津区,坂戸３丁目２番１号,,14,134,2130012,,,2025-10-07,清算の結了等,,,2015-10-05,1,,,,,タベルモ,0
1016,4020001149062,登記記録の閉鎖等,0,2025-10-22,2025-10-02,株式会社Ｋ．ＴＯＯＬＩＳＴ,,株式会社,神奈川県,川崎市川崎区,宮前町１２番１４－４０４号,,14,131,2100012,,,2025-10-02,清算の結了等,,,2022-11-21,1,,,,,ケイツーリスト,0
1059,4070001034268,登記記録の閉鎖等,0,2025-10-22,2025-10-17,ＮＹＮ株式会社,,株式会社,群馬県,高崎市,菅谷町７７番地１６１－２階,,10,202,3703522,,,2025-10-17,清算の結了等,,,2018-01-10,1,,,,,エヌワイエヌ,0
1064,4080102010704,登記記録の閉鎖等,0,2025-10-22,2025-10-15,有限会社セキ綜合保険,,有限会社,静岡県,田方郡函南町,平井８９２番地の２５５,,22,325,4190107,,,2025-10-15,清算の結了等,,,2015-10-05,1,,,,,セキソウゴウホケン,0
1067,4080402020188,登記記録の閉鎖等,0,2025-10-22,2025-10-10,玉内塗装有限会社,,有限会社,静岡県,磐田市,弥藤太島１７３番地の３,,22,211,4380833,,,2025-10-10,清算の結了等,,,2015-10-05,1,,,,,タマウチトソウ,0
1072,4100001021923,登記記録の閉鎖等,0,2025-10-22,2025-10-17,森田貿易金属株式会社,,株式会社,長野県,上伊那郡箕輪町,大字中箕輪１４０１６番地３４６,,20,383,3994601,,,2025-10-17,清算の結了等,,,2015-10-05,1,,,,,モリタボウエキキンゾク,0
1075,4120001107308,登記記録の閉鎖等,0,2025-10-22,2025-10-09,株式会社フジデン,,株式会社,大阪府,大阪市浪速区,日本橋東２丁目２番１４号,,27,111,5560006,,,2025-10-09,清算の結了等,,,2015-10-05,1,,,,,フジデン,0
1077,4120001178159,登記記録の閉鎖等,0,2025-10-22,2025-10-16,株式会社ＣＵＥ,,株式会社,大阪府,大阪市淀川区,宮原３丁目４番３０号,,27,123,5320003,,,2025-10-16,清算の結了等,,,2015-10-05,1,,,,,キュー,0
1089,4120001266153,登記記録の閉鎖等,0,2025-10-22,2025-10-15,東方興利管理株式会社,,株式会社,大阪府,大阪市中央区,高津３丁目３番３３号１０１,,27,128,5420072,,,2025-10-15,清算の結了等,,,2024-06-24,1,,,,,トウホウコウリカンリ,0
1095,4120002077392,登記記録の閉鎖等,0,2025-10-22,2025-10-14,有限会社カール,,有限会社,大阪府,枚方市,長尾元町２丁目１０番５号,,27,210,5730163,,,2025-10-14,清算の結了等,,,2015-10-05,1,,,,,カール,0
1096,4120003015797,登記記録の閉鎖等,0,2025-10-22,2025-10-16,ユークリッド合同会社,,合同会社,大阪府,寝屋川市,新家１丁目４番３号,,27,215,5720812,,,2025-10-16,合併による解散等,7120103002247,令和７年１０月１日大阪府堺市北区北花田町四丁１１０番地１４上合同会社（7120103002247）に合併し解散,2019-05-29,1,,,,,ユークリッド,0
1110,4120901022762,登記記録の閉鎖等,0,2025-10-22,2025-10-02,株式会社イングアドシステム,,株式会社,大阪府,豊中市,寺内２丁目１３番４－３０２号,,27,203,5610872,,,2025-10-02,清算の結了等,,,2015-10-05,1,,,,,イングアドシステム,0
1119,4130001073482,登記記録の閉鎖等,0,2025-10-22,2025-10-20,株式会社折鶴企画,,株式会社,京都府,京都市伏見区,指物町５７４番地ＹＴハウス４Ｆ,,26,109,6128074,,,2025-10-20,清算の結了等,,,2023-01-13,1,,,,,オリヅルキカク,0
1127,4140001132477,登記記録の閉鎖等,0,2025-10-22,2025-10-08,株式会社エコリングＣＯＮＮＥＣＴ,,株式会社,茨城県,水戸市,見川５丁目２番地の５,,08,201,3100912,,,2025-10-08,合併による解散等,5140001063969,令和７年１０月１日兵庫県姫路市御国野町御着３５２番地株式会社エコリング（5140001063969）に合併し解散,2023-11-27,1,,,,,エコリングコネクト,0
1138,4180001084145,登記記録の閉鎖等,0,2025-10-22,2025-10-02,イトシン興業株式会社,,株式会社,愛知県,一宮市,開明字神明廓５番地,,23,203,4940001,,,2025-10-02,合併による解散等,8180002075684,令和７年１０月１日愛知県一宮市松降一丁目７番７号伊藤シン株式会社（8180002075684）に合併し解散,2015-10-05,1,,,,,イトシンコウギョウ,0
1144,4190002015701,登記記録の閉鎖等,0,2025-10-22,2025-10-14,有限会社大台園,,有限会社,三重県,多気郡大台町,神瀬３３３番地の１,,24,443,5192425,,,2025-10-14,清算の結了等,,,2015-10-05,1,,,,,オオダイエン,0
1145,4200001008423,登記記録の閉鎖等,0,2025-10-22,2025-10-14,コモン建設株式会社,,株式会社,岐阜県,岐阜市,コモンヒルズ北山３６４５番地４３,,21,201,5013117,,,2025-10-14,清算の結了等,,,2015-10-05,1,,,,,コモンケンセツ,0
1147,4210001019659,登記記録の閉鎖等,0,2025-10-22,2025-10-15,株式会社ＡＬＬ　ＣＯＮＮＥＣＴ　Ｇｕｉｌｄ,,株式会社,福井県,福井市,栂野町第１５号１番地２,,18,201,9102178,,,2025-10-15,清算の結了等,,,2024-03-06,1,,,,,オールコネクトギルド,0
1158,4260001012543,登記記録の閉鎖等,0,2025-10-22,2025-10-14,株式会社伊原新平次商店,,株式会社,岡山県,都窪郡早島町,早島２４２７番地,,33,423,7010304,,,2025-10-14,清算の結了等,,,2015-10-05,1,,,,,イハラシンペイジショウテン,0
1167,4290001058105,登記記録の閉鎖等,0,2025-10-22,2025-09-25,株式会社Ａｓｉａｎ　Ｈａｉｒ,,株式会社,福岡県,福岡市早良区,重留５丁目１番１１号,,40,137,8111101,,,2025-09-25,清算の結了等,,,2015-10-05,1,,,,,アジアンヘアー,0
1185,4300002008552,登記記録の閉鎖等,0,2025-10-22,2025-10-20,有限会社ヘアーアンドフェイスデュエット,,有限会社,佐賀県,西松浦郡有田町,南原甲３６７番地３,,41,401,8440027,,,2025-10-20,清算の結了等,,,2015-10-05,1,,,,,ヘアーアンドフェイスデュエット,0
1189,4320002017857,登記記録の閉鎖等,0,2025-10-22,2025-10-15,有限会社靴のオオハシ,,有限会社,大分県,竹田市,大字竹田町１２３番地２,,44,208,8780012,,,2025-10-15,清算の結了等,,,2015-10-05,1,,,,,クツノオオハシ,0
1191,4330001017221,登記記録の閉鎖等,0,2025-10-22,2025-10-10,株式会社ＧＳコーポレーション,,株式会社,熊本県,阿蘇市,小里６５６番地１,,43,214,8692307,,,2025-10-10,清算の結了等,,,2015-10-05,1,,,,,ジーエスコーポレーション,0
1193,4350002001949,登記記録の閉鎖等,0,2025-10-22,2025-10-14,有限会社崎田建設,,有限会社,宮崎県,宮崎市,大字島之内３６５１番地７,,45,201,8800121,,,2025-10-14,清算の結了等,,,2015-10-05,1,,,,,サキタケンセツ,0
1194,4350005006177,登記記録の閉鎖等,0,2025-10-22,2025-10-14,特定非営利活動法人手話ランゲージ,,その他の設立登記法人,宮崎県,都城市,松元町１０街区１３号,,45,202,8850077,,,2025-10-14,清算の結了等,,,2023-09-19,1,,,,,シュワランゲージ,0
1201,4380002013165,登記記録の閉鎖等,0,2025-10-22,2025-10-07,有限会社渡辺左官工業,,有限会社,福島県,郡山市,富久山町福原字東苗内８番地２,,07,203,9638061,,,2025-10-07,清算の結了等,,,2015-10-05,1,,,,,ワタナベサカンコウギョウ,0
1206,4400001003569,登記記録の閉鎖等,0,2025-10-22,2025-10-06,ラ・パンインターナショナル株式会社,,株式会社,岩手県,盛岡市,本宮５丁目１３番１６号,,03,201,0200866,,,2025-10-06,清算の結了等,,,2015-10-05,1,,,,,ラパンインターナショナル,0
1207,4400001014054,登記記録の閉鎖等,0,2025-10-22,2025-10-06,株式会社高昌,00112769,株式会社,岩手県,北上市,大堤西２丁目８番６号,,03,206,0240053,,,2025-10-06,清算の結了等,,,2018-03-09,1,,,,,タカショウ,0
1213,4420001017311,登記記録の閉鎖等,0,2025-10-22,2025-10-15,八戸フィードワン販売株式会社,,株式会社,青森県,八戸市,大字長苗代字谷地１１番地３,,02,203,0391103,,,2025-10-15,合併による解散等,5400001003741,令和７年１０月１日岩手県紫波郡矢巾町流通センター南三丁目１番７号東北フィードワン販売株式会社（5400001003741）に合併し解散,2021-02-08,1,,,,,ハチノヘフィードワンハンバイ,0
1222,4470001009592,登記記録の閉鎖等,0,2025-10-22,2025-10-17,中讃プロダクト株式会社,,株式会社,香川県,丸亀市,天満町２丁目３番６号,,37,202,7630066,,,2025-10-17,清算の結了等,,,2015-10-05,1,,,,,チュウサンプロダクト,0
1225,4500005003381,登記記録の閉鎖等,0,2025-10-22,2025-10-16,愛媛県内水面漁業協同組合連合会,,その他の設立登記法人,愛媛県,西予市,野村町野村１２号４７０番地,,38,214,7971212,,,2025-10-16,清算の結了等,,,2015-10-05,1,,,,,エヒメケンナイスイメン,0
1226,5010001036764,登記記録の閉鎖等,0,2025-10-22,2025-10-10,株式会社岩瀬,,株式会社,東京都,中央区,勝どき２丁目８番１２号,,13,102,1040054,,,2025-10-10,清算の結了等,,,2015-10-05,1,,,,,イワセ,0
1227,5010001038397,登記記録の閉鎖等,0,2025-10-22,2025-10-01,株式会社エヌ・エス・ライフコーポレーション,,株式会社,東京都,中央区,明石町８番１号,,13,102,1040044,,,2025-10-01,合併による解散等,9010401095530,令和７年１０月１日東京都中央区八重洲二丁目２番１号株式会社ストレチア（9010401095530）に合併し解散,2015-10-05,1,,,,,エヌエスライフコーポレーション,0
1255,5010901012699,登記記録の閉鎖等,0,2025-10-22,2025-10-10,株式会社ランドウッド,,株式会社,茨城県,龍ケ崎市,佐貫４丁目１１番３号,,08,208,3010032,,,2025-10-10,清算の結了等,,,2015-10-05,1,,,,,ランドウッド,0
1257,5010901048925,登記記録の閉鎖等,0,2025-10-22,2025-10-20,株式会社Ｒｉｎｇｏ０３,,株式会社,東京都,世田谷区,北沢２丁目１０番１５号,,13,112,1550031,,,2025-10-20,清算の結了等,,,2021-06-25,1,,,,,リンゴゼロサン,0
1259,5010902003788,登記記録の閉鎖等,0,2025-10-22,2025-10-20,有限会社オレンジライン,,有限会社,東京都,世田谷区,上用賀５丁目７番２号,,13,112,1580098,,,2025-10-20,清算の結了等,,,2015-10-05,1,,,,,オレンジライン,0
1282,5011301007868,登記記録の閉鎖等,0,2025-10-22,2025-10-15,株式会社ホテイ,,株式会社,東京都,世田谷区,上馬５丁目２６番１２号,,13,112,1540011,,,2025-10-15,清算の結了等,,,2015-10-05,1,,,,,,0
1305,5020001048668,登記記録の閉鎖等,0,2025-10-22,2025-10-07,株式会社Ｂｅｎ’ｓ,,株式会社,神奈川県,横浜市旭区,若葉台２丁目２１番,,14,112,2410801,,,2025-10-07,清算の結了等,,,2015-10-05,1,,,,,ベンズ,0
1310,5020002034915,登記記録の閉鎖等,0,2025-10-22,2025-10-06,有限会社東神工機,,有限会社,神奈川県,横浜市港北区,篠原町１４２８番地の１,,14,109,2220026,,,2025-10-06,清算の結了等,,,2015-10-05,1,,,,,トウシンコウキ,0
1336,5040002091277,登記記録の閉鎖等,0,2025-10-22,2025-09-22,有限会社ピッツア・マミーサ,,有限会社,千葉県,柏市,布施８５４番地の１,,12,217,2770825,,,2025-09-22,清算の結了等,,,2015-10-05,1,,,,,ピッツアマミーサ,0
1341,5050002013338,登記記録の閉鎖等,0,2025-10-22,2025-10-08,有限会社坂本商事,,有限会社,茨城県,かすみがうら市,坂３８１３番地,,08,230,3000214,,,2025-10-08,清算の結了等,,,2015-10-05,1,,,,,サカモトショウジ,0
1342,5050003000319,登記記録の閉鎖等,0,2025-10-22,2025-10-09,合名会社宮部商店,,合名会社,茨城県,水戸市,大串２１１４番地,,08,201,3100000,,,2025-10-09,清算の結了等,,,2015-10-05,1,,,,,ミヤベショウテン,0
1344,5060001020177,登記記録の閉鎖等,0,2025-10-22,2025-10-17,株式会社アースライフコーポレーション,,株式会社,栃木県,足利市,八幡町２丁目１５番地４,,09,202,3260824,,,2025-10-17,清算の結了等,,,2015-10-05,1,,,,,アースライフコーポレーション,0
1350,5080101006917,登記記録の閉鎖等,0,2025-10-22,2025-10-20,株式会社アドバンス,,株式会社,静岡県,駿東郡清水町,長沢２６４番地の３,,22,341,4110905,,,2025-10-20,清算の結了等,,,2015-10-05,1,,,,,,0
1352,5080102015405,登記記録の閉鎖等,0,2025-10-22,2025-10-16,有限会社渡井興業,,有限会社,静岡県,富士市,厚原１３３７番地の３,,22,210,4190201,,,2025-10-16,清算の結了等,,,2015-10-05,1,,,,,ワタイコウギョウ,0
1363,5090005002747,登記記録の閉鎖等,0,2025-10-22,2025-10-14,税理士法人ふじはら,,その他の設立登記法人,山梨県,甲府市,川田町アリア２０３,,19,201,4000811,,,2025-10-14,清算の結了等,,,2015-10-05,1,,,,,フジハラ,0
1365,5120001067492,登記記録の閉鎖等,0,2025-10-22,2025-10-10,株式会社天祥技研,,株式会社,大阪府,大阪市北区,浪花町９－３,,27,127,5300022,,,2025-10-10,清算の結了等,,,2015-10-05,1,,,,,テンショウギケン,0
1382,5120003013445,登記記録の閉鎖等,0,2025-10-22,2025-10-16,オードリー合同会社,,合同会社,大阪府,大阪市此花区,朝日２丁目１８番８号３Ｆ,,27,104,5540011,,,2025-10-16,合併による解散等,7120103002247,令和７年１０月１日大阪府堺市北区北花田町四丁１１０番地１４上合同会社（7120103002247）に合併し解散,2017-10-18,1,,,,,オードリー,0
1387,5120101032644,登記記録の閉鎖等,0,2025-10-22,2025-10-09,株式会社アーバン設計,,株式会社,大阪府,藤井寺市,大井５丁目８番５号,,27,226,5830008,,,2025-10-09,清算の結了等,,,2015-10-05,1,,,,,アーバンセッケイ,0
1390,5120901016251,登記記録の閉鎖等,0,2025-10-22,2025-10-06,株式会社エノキモータース,,株式会社,大阪府,吹田市,芳野町１２番４号,,27,205,5640054,,,2025-10-06,清算の結了等,,,2015-10-05,1,,,,,エノキモータース,0
1414,5180301003588,登記記録の閉鎖等,0,2025-10-22,2025-10-20,株式会社ＤＨ,,株式会社,愛知県,豊川市,久保町社地７番地の２３,,23,207,4420856,,,2025-10-20,清算の結了等,,,2015-10-05,1,,,,,ディーエッチ,0
1417,5180301025665,登記記録の閉鎖等,0,2025-10-22,2025-10-20,株式会社Ａｉｒｓ　Ｃｒｏｗｄ,,株式会社,愛知県,豊橋市,大岩町字黒下３５番地,,23,201,4413147,,,2025-10-20,清算の結了等,,,2015-10-05,1,,,,,エアーズクラウド,0
1428,5240001044884,登記記録の閉鎖等,0,2025-10-22,2025-10-16,株式会社ランドアート,,株式会社,広島県,広島市西区,商工センター２丁目９番３２号,,34,104,7330833,,,2025-10-16,清算の結了等,,,2015-10-05,1,,,,,ランドアート,0
1431,5240002048331,登記記録の閉鎖等,0,2025-10-22,2025-10-15,有限会社高嶺工務店,,有限会社,広島県,安芸郡府中町,大須１丁目９番１２号,,34,302,7350021,,,2025-10-15,清算の結了等,,,2015-10-05,1,,,,,,0
1451,5290002020161,登記記録の閉鎖等,0,2025-10-22,2025-09-22,有限会社まつしまビル,,有限会社,福岡県,福岡市早良区,百道浜３丁目５番５－８０２号,,40,137,8140001,,,2025-09-22,清算の結了等,,,2015-10-05,1,,,,,マツシマビル,0
1455,5290005012916,登記記録の閉鎖等,0,2025-10-22,2025-09-24,ＮＰＯ法人海路明,,その他の設立登記法人,福岡県,大川市,大字鐘ケ江３６番地５,,40,212,8310008,,,2025-09-24,清算の結了等,,,2015-10-05,1,,,,,ウジアケ,0
1460,5320001006455,登記記録の閉鎖等,0,2025-10-22,2025-10-14,日豊建材工業株式会社,,株式会社,大分県,別府市,上人仲町１２番３０号,,44,202,8740034,,,2025-10-14,清算の結了等,,,2015-10-05,1,,,,,ニッポウケンザイコウギョウ,0
1470,5380002029978,登記記録の閉鎖等,0,2025-10-22,2025-10-01,有限会社啓成設計,,有限会社,福島県,双葉郡楢葉町,大字上小塙字小山１９番地,,07,542,9790515,,,2025-10-01,清算の結了等,,,2015-10-05,1,,,,,ケイセイセッケイ,0
1475,5400002011280,登記記録の閉鎖等,0,2025-10-22,2025-10-07,有限会社佐々清石材店,,有限会社,岩手県,下閉伊郡山田町,大沢第６地割４４番地７,,03,482,0281311,,,2025-10-07,清算の結了等,,,2015-10-05,1,,,,,ササセイセキザイテン,0
1483,5430002053205,登記記録の閉鎖等,0,2025-10-22,2025-10-07,有限会社森岡呉服店,,有限会社,北海道,空知郡奈井江町,字奈井江町３２番地,,01,424,0790300,,,2025-10-07,清算の結了等,,,2015-10-05,1,,,,,モリオカゴフクテン,0
1484,5430003006789,登記記録の閉鎖等,0,2025-10-22,2025-10-09,ジャパンクローラー合同会社,,合同会社,北海道,札幌市清田区,平岡三条１丁目１０番２２号,,01,110,0040873,,,2025-10-09,清算の結了等,,,2015-10-05,1,,,,,ジャパンクローラー,0
1487,5470002000649,登記記録の閉鎖等,0,2025-10-22,2025-10-17,有限会社浅田タイル店,,有限会社,香川県,高松市,木太町５０２７番地２２,,37,201,7600080,,,2025-10-17,清算の結了等,,,2015-10-05,1,,,,,,0
1497,6010001240803,登記記録の閉鎖等,0,2025-10-22,2025-10-07,株式会社ＥＹＴ,,株式会社,東京都,千代田区,富士見１丁目８番４号タウンコート富士見６０１,,13,101,1020071,,,2025-10-07,清算の結了等,,,2023-12-26,1,,,,,イーワイティー,0
1527,6010902013621,登記記録の閉鎖等,0,2025-10-22,2025-10-20,有限会社ファーストピュア,,有限会社,東京都,世田谷区,太子堂５丁目１５番４号,,13,112,1540004,,,2025-10-20,清算の結了等,,,2015-10-05,1,,,,,ファーストピュア,0
1562,6012303000587,登記記録の閉鎖等,0,2025-10-22,2025-10-07,合同会社ステューディオ・フラット,,合同会社,東京都,町田市,南成瀬３丁目１０番地１６,,13,209,1940045,,,2025-10-07,清算の結了等,,,2015-10-05,1,,,,,ステューディオフラット,0
1567,6013301007533,登記記録の閉鎖等,0,2025-10-22,2025-10-16,株式会社ティー・アイ・エル,,株式会社,東京都,北区,田端６丁目１番１号,,13,117,1140014,,,2025-10-16,清算の結了等,,,2015-10-05,1,,,,,,0
1576,6020002047032,登記記録の閉鎖等,0,2025-10-22,2025-10-01,有限会社美吉工機,,有限会社,神奈川県,横浜市都筑区,川向町９２２番地３９,,14,118,2240044,,,2025-10-01,合併による解散等,8020002072326,令和７年１０月１日横浜市都筑区川向町９２２番地２７株式会社イシイエンジニアリング（8020002072326）に合併し解散,2015-10-05,1,,,,,ミヨシコウキ,0
1594,6030001121398,登記記録の閉鎖等,0,2025-10-22,2025-10-10,株式会社東京レゾナ,,株式会社,埼玉県,所沢市,小手指南５丁目２７番地の１５,,11,208,3591146,,,2025-10-10,清算の結了等,,,2017-07-26,1,,,,,トウキョウレゾナ,0
1615,6040001020467,登記記録の閉鎖等,0,2025-10-22,2025-09-22,株式会社安全丸和輸送,,株式会社,千葉県,千葉市花見川区,作新台６丁目１１番１号,,12,102,2620045,,,2025-09-22,清算の結了等,,,2015-10-05,1,,,,,アンゼンマルワユソウ,0
1633,6050005011627,登記記録の閉鎖等,0,2025-10-22,2025-10-09,一般社団法人サポート・ラボ,,その他の設立登記法人,茨城県,神栖市,大野原８丁目７番４号,,08,232,3140144,,,2025-10-09,清算の結了等,,,2015-10-05,1,,,,,サポートラボ,0
1638,6070001035586,登記記録の閉鎖等,0,2025-10-22,2025-10-15,日本森智化学株式会社,,株式会社,群馬県,高崎市,井野町７３９番地６,,10,202,3700004,,,2025-10-15,清算の結了等,,,2019-04-03,1,,,,,ニホンモリトモカガク,0
1650,6120001125431,登記記録の閉鎖等,0,2025-10-22,2025-10-16,株式会社日本法科学鑑定センター,,株式会社,大阪府,大阪市北区,西天満４丁目５番５号,,27,127,5300047,,,2025-10-16,清算の結了等,,,2015-10-05,1,,,,,ニホンホウカガクカンテイセンター,0
1651,6120001171797,登記記録の閉鎖等,0,2025-10-22,2025-10-09,株式会社マネジメント・クルー,,株式会社,大阪府,大阪市中央区,平野町２丁目２番１２号,,27,128,5410046,,,2025-10-09,清算の結了等,,,2015-10-05,1,,,,,マネジメントクルー,0
1655,6120001226642,登記記録の閉鎖等,0,2025-10-22,2025-09-24,豊業株式会社,,株式会社,大阪府,大阪市港区,築港３丁目８－１６－４０４号室,,27,107,5520021,,,2025-09-24,清算の結了等,,,2020-01-24,1,,,,,ホウギョウ,0
1660,6120001274187,登記記録の閉鎖等,0,2025-10-22,2025-10-09,飛飛株式会社,,株式会社,大阪府,大阪市住之江区,安立２丁目１０番１４号三坂ビル１０２号室,,27,125,5590003,,,2025-10-09,清算の結了等,,,2025-04-03,1,,,,,ヒヒ,0
1677,6120101025630,登記記録の閉鎖等,0,2025-10-22,2025-10-07,株式会社ヒダ製作所,,株式会社,大阪府,松原市,一津屋４丁目７番２６号,,27,217,5800003,,,2025-10-07,清算の結了等,,,2015-10-05,1,,,,,ヒダセイサクショ,0
1678,6120101048318,登記記録の閉鎖等,0,2025-10-22,2025-10-07,株式会社凡,,株式会社,大阪府,堺市美原区,青南台２丁目９番２４号,,27,147,5870043,,,2025-10-07,清算の結了等,,,2015-10-05,1,,,,,ボン,0
1682,6120905004128,登記記録の閉鎖等,0,2025-10-22,2025-10-06,医療法人中川歯科,,その他の設立登記法人,大阪府,豊中市,庄内西町３丁目１１番２号,,27,203,5610832,,,2025-10-06,清算の結了等,,,2015-10-05,1,,,,,ナカガワシカ,0
1699,6160005010584,登記記録の閉鎖等,0,2025-10-22,2025-10-17,特定非営利活動法人ＹＯＲＩＳＯＩ　ｎｅｔｗｏｒｋ,,その他の設立登記法人,滋賀県,近江八幡市,桜宮町２０７番地６タイハイツ桜宮２Ｆ,,25,204,5230893,,,2025-10-17,清算の結了等,,,2018-05-28,1,,,,,ヨリソイネットワーク,0
1702,6170002003805,登記記録の閉鎖等,0,2025-10-22,2025-10-16,有限会社モリシンホーム,,有限会社,和歌山県,和歌山市,榎原１５０番地の１４７,,30,201,6408434,,,2025-10-16,清算の結了等,,,2015-10-05,1,,,,,モリシンホーム,0
1715,6180002078912,登記記録の閉鎖等,0,2025-10-22,2025-10-06,有限会社岐南シンワサービス,,有限会社,愛知県,一宮市,木曽川町玉ノ井字辻廻３３番地の８,00073454,23,203,4930004,,,2025-10-06,清算の結了等,,,2015-10-05,1,,,,,キナンシンワサービス,0
1720,6180302020202,登記記録の閉鎖等,0,2025-10-22,2025-10-09,有限会社フジ計器通信機,,有限会社,愛知県,碧南市,金山町５丁目８８番地,,23,209,4470085,,,2025-10-09,清算の結了等,,,2015-10-05,1,,,,,フジケイキツウシンキ,0
1724,6200001015021,登記記録の閉鎖等,0,2025-10-22,2025-10-16,株式会社タクト,,株式会社,岐阜県,養老郡養老町,大場８７３番地の１６,,21,341,5031272,,,2025-10-16,清算の結了等,,,2015-10-05,1,,,,,タクト,0
1735,6240003004183,登記記録の閉鎖等,0,2025-10-22,2025-10-16,サニーライフ合同会社,,合同会社,広島県,広島市西区,田方３丁目９０９番地１－１５２３,,34,104,7330851,,,2025-10-16,清算の結了等,,,2019-03-29,1,,,,,サニーライフ,0
1738,6260001006808,登記記録の閉鎖等,0,2025-10-22,2025-10-10,株式会社結城商店,,株式会社,岡山県,岡山市北区,表町３丁目１８番５８号,,33,101,7000822,,,2025-10-10,清算の結了等,,,2015-10-05,1,,,,,ユウキショウテン,0
1746,6280001000057,登記記録の閉鎖等,0,2025-10-22,2025-10-17,株式会社アワヤ,,株式会社,島根県,松江市,浜乃木６丁目２１番１９号,,32,201,6900044,,,2025-10-17,清算の結了等,,,2015-10-05,1,,,,,アワヤ,0
1764,6320002019174,登記記録の閉鎖等,0,2025-10-22,2025-10-14,有限会社ソシアオート,,有限会社,大分県,日田市,大字田島７６２番地の７,,44,204,8770023,,,2025-10-14,清算の結了等,,,2015-10-05,1,,,,,,0
1781,6390001008130,登記記録の閉鎖等,0,2025-10-22,2025-10-16,株式会社ムラオカ,,株式会社,山形県,鶴岡市,羽黒町川代字桜ケ丘５７番地３,,06,203,9970131,,,2025-10-16,清算の結了等,,,2015-10-05,1,,,,,ムラオカ,0
1783,6400002003351,登記記録の閉鎖等,0,2025-10-22,2025-10-08,有限会社盛岡家庭電器設備,,有限会社,岩手県,盛岡市,中屋敷町４番６３号,,03,201,0200141,,,2025-10-08,清算の結了等,,,2015-10-05,1,,,,,モリオカカテイデンキセツビ,0
1786,6400002010059,登記記録の閉鎖等,0,2025-10-22,2025-10-06,有限会社サインズアート,,有限会社,岩手県,北上市,北鬼柳１１地割１２７番地５,,03,206,0240072,,,2025-10-06,清算の結了等,,,2015-10-05,1,,,,,サインズアート,0
1787,6400501000023,登記記録の閉鎖等,0,2025-10-22,2025-10-07,株式会社池垣商店,,株式会社,岩手県,一関市,旭町８番１７－１号,,03,209,0210864,,,2025-10-07,清算の結了等,,,2015-10-05,1,,,,,イケガキショウテン,0
1791,6420001001817,登記記録の閉鎖等,0,2025-10-22,2025-10-01,株式会社ファッションプラザ,,株式会社,愛知県,海部郡大治町,大字花常字フケ５０－１,,23,424,4901136,,,2025-10-01,合併による解散等,8180001037727,令和７年１０月１日名古屋市中区丸の内二丁目１６番８号高田株式会社（8180001037727）に合併し解散,2015-10-05,1,,,,,ファッションプラザ,0
1805,6430002040284,登記記録の閉鎖等,0,2025-10-22,2025-10-08,有限会社ＳＹプロダクツ,,有限会社,北海道,札幌市西区,琴似二条６丁目１番２５号清水ビル１階,,01,107,0630812,,,2025-10-08,清算の結了等,,,2015-10-05,1,,,,,エスワイプロダクツ,0
1811,6450001000213,登記記録の閉鎖等,0,2025-10-22,2025-10-17,旭川スズキ販売株式会社,,株式会社,北海道,旭川市,永山二条２丁目４番１７号,,01,204,0798412,,,2025-10-17,合併による解散等,7430001008389,令和７年１０月１日札幌市東区北三十条東一丁目１番４４号株式会社スズキ自販北海道（7430001008389）に合併し解散,2015-10-05,1,,,,,アサヒカワスズキハンバイ,0
1816,6500001000166,登記記録の閉鎖等,0,2025-10-22,2025-10-17,株式会社森田住宅,,株式会社,愛媛県,松山市,八反地甲１６４２番地１,,38,201,7992424,,,2025-10-17,清算の結了等,,,2015-10-05,1,,,,,,0
1822,7010001144680,登記記録の閉鎖等,0,2025-10-22,2025-10-07,Ｏｐｔｉｍａｒｉｎ　Ｊａｐａｎ株式会社,,株式会社,神奈川県,横浜市西区,岡野２丁目８番１３号,,14,103,2200073,,,2025-10-07,清算の結了等,,,2015-10-05,1,,,,,オプティマリンジャパン,0
1825,7010001216620,登記記録の閉鎖等,0,2025-10-22,2025-10-06,ライフ株式会社,,株式会社,東京都,中央区,銀座１丁目２２番１１号銀座大竹ビジデンス２階,,13,102,1040061,,,2025-10-06,清算の結了等,,,2021-03-16,1,,,,,ライフ,0
1834,7010003033114,登記記録の閉鎖等,0,2025-10-22,2025-10-06,アストロ・ワン合同会社,,合同会社,東京都,中央区,銀座１丁目６番１１号土志田ビルディング３Ｆ,,13,102,1040061,,,2025-10-06,清算の結了等,,,2020-09-30,1,,,,,アストロワン,0
1840,7010401073273,登記記録の閉鎖等,0,2025-10-22,2025-09-19,株式会社ホテルホライズン,,株式会社,東京都,港区,南青山２丁目２番１５号,,13,103,1070062,,,2025-09-19,清算の結了等,,,2015-10-05,1,,,,,ホテルホライズン,0
1849,7010405022912,登記記録の閉鎖等,0,2025-10-22,2025-09-19,一般社団法人丸の内ワン,,その他の設立登記法人,東京都,港区,六本木１丁目９番１０号アークヒルズ仙石山森タワー４０階,,13,103,1060032,,,2025-09-19,清算の結了等,,,2024-02-01,1,,,,,マルノウチワン,0
1890,7011501024389,登記記録の閉鎖等,0,2025-10-22,2025-10-20,株式会社１５１Ａ,,株式会社,東京都,北区,滝野川７丁目１０番６－１４０２号,,13,117,1140023,,,2025-10-20,清算の結了等,,,2019-01-10,1,,,,,イチゴイチエ,0
1898,7012301006965,登記記録の閉鎖等,0,2025-10-22,2025-10-07,ティディエスシッピング株式会社,,株式会社,東京都,町田市,南町田３丁目４２番１－８０２号,,13,209,1940005,,,2025-10-07,清算の結了等,,,2015-10-05,1,,,,,ティディエスシッピング,0
1899,7012301008763,登記記録の閉鎖等,0,2025-10-22,2025-10-03,ポピーズケアサービス株式会社,,株式会社,東京都,町田市,森野６丁目８７番地５号,,13,209,1940022,,,2025-10-03,清算の結了等,,,2015-10-05,1,,,,,ポピーズケアサービス,0
1902,7012401021930,登記記録の閉鎖等,0,2025-10-22,2025-10-09,株式会社ティプラス,,株式会社,東京都,調布市,佐須町３丁目３９番地４,,13,208,1820016,,,2025-10-09,清算の結了等,,,2015-10-05,1,,,,,ティプラス,0
1906,7012402011006,登記記録の閉鎖等,0,2025-10-22,2025-10-16,有限会社弘伸建工,,有限会社,東京都,三鷹市,野崎２丁目１０番１号サンライズ２０４,,13,204,1810014,,,2025-10-16,清算の結了等,,,2015-10-05,1,,,,,コウシンケンコウ,0
1919,7020002011607,登記記録の閉鎖等,0,2025-10-22,2025-10-07,汲沢電設有限会社,00010276,有限会社,神奈川県,横浜市泉区,和泉中央南４丁目２３番１２号グリーンヒル和泉Ｂ１０３,,14,116,2450023,,,2025-10-07,清算の結了等,,,2015-10-05,1,,,,,グミサワデンセツ,0
1923,7020002086401,登記記録の閉鎖等,0,2025-10-22,2025-10-06,有限会社幸野建設,,有限会社,神奈川県,川崎市高津区,上作延２丁目６番２３号ハイム２６８－１０１,,14,134,2130034,,,2025-10-06,清算の結了等,,,2015-10-05,1,,,,,コウノケンセツ,0
1930,7021003011513,登記記録の閉鎖等,0,2025-10-22,2025-09-01,合同会社しろくま,,合同会社,神奈川県,藤沢市,柄沢２丁目３６－１３,,14,205,2510003,,,2025-09-01,清算の結了等,,,2022-03-25,1,,,,,シロクマ,0
1952,7050001050405,登記記録の閉鎖等,0,2025-10-22,2025-10-10,株式会社Ｒｅｇｕｌｕｓ,,株式会社,茨城県,ひたちなか市,大字東石川３２７４番地４８,,08,221,3120052,,,2025-10-10,清算の結了等,,,2022-01-07,1,,,,,レグラス,0
1971,7100003006886,登記記録の閉鎖等,0,2025-10-22,2025-10-14,安啓合同会社,,合同会社,山梨県,韮崎市,富士見３丁目５番１０号,,19,207,4070014,,,2025-10-14,清算の結了等,,,2023-02-14,1,,,,,アンケイ,0
1976,7120001044449,登記記録の閉鎖等,0,2025-10-22,2025-10-09,株式会社ステップ,,株式会社,大阪府,大阪市西区,京町堀１丁目１３番１７号,,27,106,5500003,,,2025-10-09,清算の結了等,,,2015-10-05,1,,,,,ステップ,0
1978,7120001097595,登記記録の閉鎖等,0,2025-10-22,2025-10-07,株式会社ライトハウス,,株式会社,大阪府,大阪市西区,江戸堀１丁目１５番２７号,,27,106,5500002,,,2025-10-07,合併による解散等,6290001103107,令和７年１０月１日大阪市西区江戸堀一丁目１５番２７号株式会社ライトハウス（6290001103107）に合併し解散,2015-10-05,1,,,,,ライトハウス,0
1981,7120001110515,登記記録の閉鎖等,0,2025-10-22,2025-10-09,株式会社ハートサプライ,,株式会社,大阪府,大阪市此花区,朝日２丁目１６番１０号,,27,104,5540011,,,2025-10-09,清算の結了等,,,2015-10-05,1,,,,,ハートサプライ,0
1990,7120001237300,登記記録の閉鎖等,0,2025-10-22,2025-10-02,丞皓株式会社,,株式会社,大阪府,吹田市,南吹田５丁目１５－１８－４０３,,27,205,5640043,,,2025-10-02,清算の結了等,,,2021-05-13,1,,,,,,0
1991,7120001244271,登記記録の閉鎖等,0,2025-10-22,2025-10-16,株式会社和光,,株式会社,大阪府,大阪市浪速区,元町１丁目５－１５オカダウィーンビル５０１号,,27,111,5560016,,,2025-10-16,清算の結了等,,,2022-03-04,1,,,,,ワコウ,0
2004,7120003014499,登記記録の閉鎖等,0,2025-10-22,2025-10-16,モルガン合同会社,,合同会社,大阪府,大阪市此花区,朝日２丁目１８番８号５Ｆ４３９,,27,104,5540011,,,2025-10-16,合併による解散等,7120103002247,令和７年１０月１日大阪府堺市北区北花田町四丁１１０番地１４上合同会社（7120103002247）に合併し解散,2018-07-10,1,,,,,モルガン,0
2030,7140002037152,登記記録の閉鎖等,0,2025-10-22,2025-10-10,有限会社つるし柿給食センター,,有限会社,兵庫県,高砂市,曽根町１１１６番地の１,,28,216,6760082,,,2025-10-10,清算の結了等,,,2015-10-05,1,,,,,,0
2034,7160005005501,登記記録の閉鎖等,0,2025-10-22,2025-10-16,妙行寺,,その他の設立登記法人,滋賀県,彦根市,法士町７９番地,,25,202,5220211,,,2025-10-16,清算の結了等,,,2015-10-05,1,,,,,ミョウギョウジ,0
2041,7180001140110,登記記録の閉鎖等,0,2025-10-22,2025-10-01,株式会社ＢｅａｕｔｙＳ,,株式会社,愛知県,名古屋市中区,栄４丁目１６番２４号,,23,106,4600008,,,2025-10-01,合併による解散等,7180001137957,令和７年１０月１日名古屋市中区栄四丁目１６番２４号株式会社Ｎｅｘｔ　Ｌｅｖｅｌ（7180001137957）に合併し解散,2020-02-19,1,,,,,ビューティーエス,0
2047,7180301036719,登記記録の閉鎖等,0,2025-10-22,2025-10-15,株式会社オールウィン,,株式会社,愛知県,西尾市,吉良町上横須賀六石目５番地,,23,213,4440521,,,2025-10-15,清算の結了等,,,2022-10-13,1,,,,,オールウィン,0
2048,7180302014814,登記記録の閉鎖等,0,2025-10-22,2025-09-30,有限会社メイフラワー,,有限会社,愛知県,豊川市,山道町１丁目５９番地の１,,23,207,4420873,,,2025-09-30,清算の結了等,,,2015-10-05,1,,,,,メイフラワー,0
2054,7210002014185,登記記録の閉鎖等,0,2025-10-22,2025-10-14,有限会社しむら,,有限会社,福井県,大飯郡おおい町,本郷第１２０号１０番地の２,,18,483,9192111,,,2025-10-14,清算の結了等,,,2015-10-05,1,,,,,シムラ,0
2059,7230003000430,登記記録の閉鎖等,0,2025-10-22,2025-10-14,合名会社堀川商店,,合名会社,富山県,南砺市,城端１６７番地,,16,210,9391861,,,2025-10-14,清算の結了等,,,2015-10-05,1,,,,,ホリカワショウテン,0
2061,7240001048925,登記記録の閉鎖等,0,2025-10-22,2025-10-16,株式会社和田建工,,株式会社,広島県,福山市,引野町１００６番地３,,34,207,7210942,,,2025-10-16,清算の結了等,,,2016-02-25,1,,,,,ワダケンコウ,0
2062,7240002030808,登記記録の閉鎖等,0,2025-10-22,2025-10-15,有限会社藤井総合印刷,,有限会社,広島県,安芸高田市,吉田町下入江２４５０番地,,34,214,7310531,,,2025-10-15,清算の結了等,,,2015-10-05,1,,,,,フジイソウゴウインサツ,0
2073,7280002007744,登記記録の閉鎖等,0,2025-10-22,2025-10-17,有限会社ハウディ,,有限会社,島根県,大田市,大田町大田ロ９６５番地８,,32,205,6940064,,,2025-10-17,清算の結了等,,,2015-10-05,1,,,,,,0
2085,7290002046849,登記記録の閉鎖等,0,2025-10-22,2025-09-25,有限会社大隈商事,,有限会社,福岡県,嘉麻市,下臼井１２６７番地２,,40,227,8200504,,,2025-09-25,清算の結了等,,,2015-10-05,1,,,,,,0
2109,7430001026275,登記記録の閉鎖等,0,2025-10-22,2025-10-07,株式会社京橋,,株式会社,北海道,札幌市中央区,南三条東１丁目７番地,,01,101,0600053,,,2025-10-07,清算の結了等,,,2015-10-05,1,,,,,キョウバシ,0
2122,7480002015413,登記記録の閉鎖等,0,2025-10-22,2025-10-20,有限会社大久保組,,有限会社,徳島県,三好市,山城町大野４６９番地,,36,208,7795333,,,2025-10-20,清算の結了等,,,2015-10-05,1,,,,,オオクボグミ,0
2128,8010001186235,登記記録の閉鎖等,0,2025-10-22,2025-10-14,株式会社ビジター,,株式会社,東京都,中央区,日本橋本町３丁目３番６号,,13,102,1030023,,,2025-10-14,清算の結了等,,,2017-09-14,1,,,,,ビジター,0
2143,8010401047367,登記記録の閉鎖等,0,2025-10-22,2025-09-19,ＰＦＩ区部ユース・プラザ株式会社,,株式会社,東京都,港区,港南２丁目１５番２号,,13,103,1080075,,,2025-09-19,清算の結了等,,,2015-10-05,1,,,,,ピーエフアイクブユースプラザ,0
2149,8010401127499,登記記録の閉鎖等,0,2025-10-22,2025-10-01,株式会社Ｔｒｙ　Ｔｒｉｐ　Ｊａｐａｎ,,株式会社,東京都,港区,南青山２丁目２番１５号ウィン青山９４２,,13,103,1070062,,,2025-10-01,清算の結了等,,,2016-10-17,1,,,,,トライトリップジャパン,0
2150,8010401135832,登記記録の閉鎖等,0,2025-10-22,2025-10-02,株式会社ツカサマネージメントパートナーズ,,株式会社,神奈川県,逗子市,久木８丁目１８番２９号,,14,208,2490001,,,2025-10-02,清算の結了等,,,2018-01-09,1,,,,,ツカサマネージメントパートナーズ,0
2158,8010503005462,登記記録の閉鎖等,0,2025-10-22,2025-10-16,合同会社常陸企画,,合同会社,東京都,台東区,上野６丁目１番６号１００５号室,,13,106,1100005,,,2025-10-16,合併による解散等,2010403016813,令和７年８月１日東京都港区南青山二丁目２番１５号合同会社大和企画（2010403016813）に合併し解散,2018-11-28,1,,,,,ヒタチキカク,0
2205,8012401036127,登記記録の閉鎖等,0,2025-10-22,2025-10-09,株式会社Ｉｎｃｒｅａｓｅ,,株式会社,東京都,三鷹市,牟礼４丁目１３番７号レジデンツァーノＥ,,13,204,1810002,,,2025-10-09,清算の結了等,,,2020-01-08,1,,,,,インクリース,0
2218,8020002002010,登記記録の閉鎖等,0,2025-10-22,2025-10-07,有限会社前田建築,,有限会社,神奈川県,横浜市瀬谷区,上瀬谷町１番地４,,14,114,2460006,,,2025-10-07,清算の結了等,,,2015-10-05,1,,,,,マエダケンチク,0
2223,8021001036552,登記記録の閉鎖等,0,2025-10-22,2025-10-01,関東防水株式会社,,株式会社,神奈川県,平塚市,平塚５丁目７番２５号,,14,203,2540052,,,2025-10-01,清算の結了等,,,2015-10-05,1,,,,,カントウボウスイ,0
2242,8030003004260,登記記録の閉鎖等,0,2025-10-22,2025-10-14,合同会社美創,,合同会社,埼玉県,川口市,大字安行慈林７５０番地の８,,11,203,3340071,,,2025-10-14,清算の結了等,,,2015-10-05,1,,,,,ビソウ,0
2274,8080103002671,登記記録の閉鎖等,0,2025-10-22,2025-10-16,合同会社にじ,,合同会社,静岡県,富士市,岩本２１０８番地,,22,210,4160901,,,2025-10-16,清算の結了等,,,2022-10-31,1,,,,,ニジ,0
2278,8100001029153,登記記録の閉鎖等,0,2025-10-22,2025-10-17,株式会社エム・アール・ビー,,株式会社,長野県,飯田市,松尾明４９９０番地９,,20,205,3950823,,,2025-10-17,清算の結了等,,,2016-03-11,1,,,,,エムアールビー,0
2290,8120001271174,登記記録の閉鎖等,0,2025-10-22,2025-10-14,友光云栖株式会社,,株式会社,大阪府,大阪市生野区,新今里３丁目４番１７号ＯＧビル５０７Ｂ,,27,116,5440001,,,2025-10-14,清算の結了等,,,2024-12-18,1,,,,,ユウコウウンサイ,0
2310,8130001052920,登記記録の閉鎖等,0,2025-10-22,2025-10-14,株式会社プライズ,,株式会社,京都府,京都市南区,東九条西山王町１３－２ファインエレガンスビル８０４,,26,107,6018003,,,2025-10-14,清算の結了等,,,2015-10-05,1,,,,,プライズ,0
2321,8180001038089,登記記録の閉鎖等,0,2025-10-22,2025-10-01,中部アイビー株式会社,,株式会社,愛知県,名古屋市名東区,高社２丁目１７１番地,,23,115,4650095,,,2025-10-01,合併による解散等,2180001041676,令和７年１０月１日名古屋市名東区高社二丁目１７１番地ユアサ燃料株式会社（2180001041676）に合併し解散,2015-10-05,1,,,,,チュウブアイビー,0
2322,8180001073086,登記記録の閉鎖等,0,2025-10-22,2025-10-01,のぼりマート株式会社,,株式会社,愛知県,名古屋市港区,十一屋２丁目３３７番地,,23,111,4550831,,,2025-10-01,合併による解散等,1180002006126,令和７年１０月１日名古屋市港区十一屋二丁目３３７番地株式会社アサノスクリーン（1180002006126）に合併し解散,2015-10-05,1,,,,,ノボリマート,0
2331,8180003017603,登記記録の閉鎖等,0,2025-10-22,2025-10-02,合同会社尾尻工業,,合同会社,愛知県,春日井市,出川町２丁目１９番地１７,,23,206,4870025,,,2025-10-02,清算の結了等,,,2017-01-11,1,,,,,オジリコウギョウ,0
2336,8200002006926,登記記録の閉鎖等,0,2025-10-22,2025-10-16,有限会社アプロード,,有限会社,岐阜県,各務原市,那加桜町１丁目２６番地の３,,21,213,5040912,,,2025-10-16,清算の結了等,,,2015-10-05,1,,,,,アプロード,0
2347,8260002008818,登記記録の閉鎖等,0,2025-10-22,2025-10-14,藤原木材有限会社,,有限会社,岡山県,岡山市北区,御舟入町１番１２号,,33,101,7000844,,,2025-10-14,清算の結了等,,,2015-10-05,1,,,,,,0
2348,8260002015087,登記記録の閉鎖等,0,2025-10-22,2025-10-14,有限会社サウスヴィレッジ,,有限会社,岡山県,岡山市南区,片岡２４６８番地,,33,104,7091215,,,2025-10-14,清算の結了等,,,2015-10-05,1,,,,,サウスヴィレッジ,0
2349,8260002030326,登記記録の閉鎖等,0,2025-10-22,2025-10-15,有限会社インクリメント,,有限会社,岡山県,美作市,楢原中３５３番地,,33,215,7070021,,,2025-10-15,清算の結了等,,,2015-10-05,1,,,,,インクリメント,0
2357,8290001088172,登記記録の閉鎖等,0,2025-10-22,2025-09-18,株式会社ＲＥＮＰＯＲＴ,,株式会社,東京都,渋谷区,千駄ヶ谷１丁目９－１１フレンシア外苑西６０６号,,13,113,1510051,,,2025-09-18,清算の結了等,,,2020-02-25,1,,,,,ランポール,0
2364,8290802016694,登記記録の閉鎖等,0,2025-10-22,2025-10-21,有限会社中川メカニック企画,,有限会社,福岡県,遠賀郡岡垣町,大字三吉４０９番地の１,,40,383,8114205,,,2025-10-21,清算の結了等,,,2015-10-05,1,,,,,ナカガワメカニックキカク,0
2368,8320002007318,登記記録の閉鎖等,0,2025-10-22,2025-10-15,有限会社ラボデンチャー,,有限会社,大分県,大分市,大字千歳１８２４番地,,44,201,8700132,,,2025-10-15,清算の結了等,,,2015-10-05,1,,,,,ラボデンチャー,0
2387,8430001001533,登記記録の閉鎖等,0,2025-10-22,2025-09-22,株式会社イチキ,,株式会社,北海道,札幌市北区,新川二条３丁目１番１４号,,01,102,0010922,,,2025-09-22,合併による解散等,9430001006936,令和７年９月２１日札幌市豊平区豊平一条三丁目１番１４号株式会社札商管材公社（9430001006936）に合併し解散,2015-10-05,1,,,,,,0
2389,8430002015417,登記記録の閉鎖等,0,2025-10-22,2025-10-07,有限会社野田内装,,有限会社,北海道,札幌市豊平区,平岸七条１８丁目２番２３号,,01,105,0620937,,,2025-10-07,清算の結了等,,,2015-10-05,1,,,,,ノダナイソウ,0
2394,8430005002684,登記記録の閉鎖等,0,2025-10-22,2025-10-14,北豊運輸労働組合,,その他の設立登記法人,北海道,苫小牧市,字勇払１５７番地,,01,213,0591372,,,2025-10-14,清算の結了等,,,2015-10-05,1,,,,,ホクホウウンユ,0
2402,8480001005001,登記記録の閉鎖等,0,2025-10-22,2025-10-20,桜井建設株式会社,,株式会社,徳島県,鳴門市,北灘町折野字桜井２４番地の７,,36,202,7710376,,,2025-10-20,清算の結了等,,,2015-10-05,1,,,,,サクライケンセツ,0
2406,8500002002465,登記記録の閉鎖等,0,2025-10-22,2025-10-20,有限会社グリーンズほうき,,有限会社,愛媛県,松山市,姫原３丁目甲３９８番地４,,38,201,7918012,,,2025-10-20,清算の結了等,,,2015-10-05,1,,,,,グリーンズホウキ,0
2421,9010003023212,登記記録の閉鎖等,0,2025-10-22,2025-10-02,Ｎａｒｄｅｌｌｏ＆Ｃｏ．合同会社,,合同会社,東京都,千代田区,霞が関３丁目２番６号東京倶楽部ビルディング１１階,,13,101,1000013,,,2025-10-02,清算の結了等,,,2016-03-11,1,,,,,ナルデッロアンドカンパニー,0
2439,9010402000381,登記記録の閉鎖等,0,2025-10-22,2025-09-19,有限会社アカビシ薬局,,有限会社,東京都,港区,高輪３丁目１０番３８号,,13,103,1080074,,,2025-09-19,清算の結了等,,,2015-10-05,1,,,,,アカビシヤッキョク,0
2444,9010501020413,登記記録の閉鎖等,0,2025-10-22,2025-10-20,トーコービルシステム株式会社,,株式会社,東京都,千代田区,有楽町１丁目９番４号,,13,101,1000006,,,2025-10-20,合併による解散等,3011101022747,令和７年１０月１日東京都新宿区市谷砂土原町二丁目４番地メルコビルエンジニアリング株式会社（3011101022747）に合併し解散,2015-10-05,1,,,,,トーコービルシステム,0
2450,9010602008902,登記記録の閉鎖等,0,2025-10-22,2025-10-09,有限会社オガワ,,有限会社,東京都,墨田区,業平４丁目１１番１０号,,13,107,1300002,,,2025-10-09,清算の結了等,,,2025-06-09,1,,,,,,0
2454,9010901002184,登記記録の閉鎖等,0,2025-10-22,2025-10-10,株式会社大久保製作所,,株式会社,埼玉県,入間郡三芳町,大字上富八軒家２１０２番地,,11,324,3540045,,,2025-10-10,清算の結了等,,,2015-10-05,1,,,,,オオクボセイサクショ,0
2486,9011703003800,登記記録の閉鎖等,0,2025-10-22,2025-10-10,Ｃｏ‐ｃｒｅａｔｉｏｎ合同会社,,合同会社,東京都,江戸川区,中葛西３丁目３１番１２―２０３号カーサフレスコ,,13,123,1340083,,,2025-10-10,清算の結了等,,,2024-04-05,1,,,,,コクリエイション,0
2511,9030001159881,登記記録の閉鎖等,0,2025-10-22,2025-10-10,株式会社ＡＴＡ　ＷＯＲＬＤ,,株式会社,埼玉県,さいたま市見沼区,大字御蔵１３５０番地７,,11,104,3370033,,,2025-10-10,清算の結了等,,,2024-04-17,1,,,,,エーティーエーワールド,0
2516,9030002021553,登記記録の閉鎖等,0,2025-10-22,2025-10-10,有限会社庭良,,有限会社,埼玉県,さいたま市岩槻区,大字南下新井８５６番地の３,,11,110,3390032,,,2025-10-10,清算の結了等,,,2015-10-05,1,,,,,ニワヨシ,0
2517,9030002046030,登記記録の閉鎖等,0,2025-10-22,2025-10-10,有限会社持井製作所,,有限会社,埼玉県,草加市,柿木町２１７７番地１４,,11,221,3400001,,,2025-10-10,清算の結了等,,,2015-10-05,1,,,,,モチイセイサクショ,0
2521,9040001050437,登記記録の閉鎖等,0,2025-10-22,2025-09-22,関東自動車工業株式会社,,株式会社,千葉県,木更津市,大久保４７５番地,,12,206,2920815,,,2025-09-22,清算の結了等,,,2015-10-05,1,,,,,カントウジドウシャコウギョウ,0
2525,9040002049759,登記記録の閉鎖等,0,2025-10-22,2025-09-22,有限会社渡辺酒店,,有限会社,千葉県,松戸市,稔台１丁目１２番地の１,,12,207,2702231,,,2025-09-22,清算の結了等,,,2015-10-05,1,,,,,ワタナベサケテン,0
2530,9060002034882,登記記録の閉鎖等,0,2025-10-22,2025-10-20,有限会社須藤建設,,有限会社,栃木県,栃木市,藤岡町部屋６５６番地１,,09,203,3290315,,,2025-10-20,清算の結了等,,,2015-10-05,1,,,,,スドウケンセツ,0
2536,9070001030766,登記記録の閉鎖等,0,2025-10-22,2025-10-17,ケンビ・オート株式会社,,株式会社,群馬県,高崎市,三ッ子沢町４９５番地３,,10,202,3700000,,,2025-10-17,清算の結了等,,,2015-10-05,1,,,,,ケンビオート,0
2544,9080001017184,登記記録の閉鎖等,0,2025-10-22,2025-10-14,株式会社東海眞永,,株式会社,兵庫県,丹波市,山南町谷川１６６５番地,,28,223,6693131,,,2025-10-14,清算の結了等,,,2015-10-05,1,,,,,トウカイシンエイ,0
2549,9080101019741,登記記録の閉鎖等,0,2025-10-22,2025-10-17,株式会社Ｇ－ｌｏｏｐ,,株式会社,静岡県,三島市,梅名９７番地の２,,22,206,4110816,,,2025-10-17,清算の結了等,,,2017-04-20,1,,,,,,0
2552,9080401006539,登記記録の閉鎖等,0,2025-10-22,2025-10-15,株式会社エムシースクウェアド,,株式会社,静岡県,浜松市中央区,若林町８８８番地の９２,,22,138,4328051,,,2025-10-15,清算の結了等,,,2015-10-05,1,,,,,エムシースクウェアド,0
2553,9080402009706,登記記録の閉鎖等,0,2025-10-22,2025-10-14,有限会社はしくに,,有限会社,静岡県,湖西市,新居町新居３３９７番地の１,,22,221,4310302,,,2025-10-14,清算の結了等,,,2015-10-05,1,,,,,ハシクニ,0
2558,9110001035216,登記記録の閉鎖等,0,2025-10-22,2025-10-09,株式会社ＯＨＡＳＨＩ,,株式会社,新潟県,新潟市北区,島見町３３９９番地３７,,15,101,9503102,,,2025-10-09,合併による解散等,7110001018643,令和７年１０月１日新潟市北区島見町３３９９番地３７株式会社ＯＨＡＳＨＩ（7110001018643）に合併し解散,2020-10-16,1,,,,,オオハシ,0
2583,9120101047358,登記記録の閉鎖等,0,2025-10-22,2025-10-09,株式会社ＪＩＮ,,株式会社,大阪府,河内長野市,喜多町４１６－３１番地,,27,216,5860033,,,2025-10-09,清算の結了等,,,2015-10-05,1,,,,,ジン,0
2584,9120101052812,登記記録の閉鎖等,0,2025-10-22,2025-10-09,株式会社美建,,株式会社,大阪府,堺市北区,南花田町５３５番４,,27,146,5918011,,,2025-10-09,清算の結了等,,,2015-10-05,1,,,,,ビケン,0
2590,9122001019461,登記記録の閉鎖等,0,2025-10-22,2025-10-02,東和貿易株式会社,,株式会社,大阪府,八尾市,光南町１丁目２番２７号,,27,212,5810007,,,2025-10-02,清算の結了等,,,2015-10-05,1,,,,,トウワボウエキ,0
2601,9160002011698,登記記録の閉鎖等,0,2025-10-22,2025-10-16,有限会社メディカルアーツ研究所,,有限会社,滋賀県,高島市,今津町梅原１２９１番地の５,,25,212,5201654,,,2025-10-16,清算の結了等,,,2015-10-05,1,,,,,メディカルアーツケンキュウショ,0
2612,9180002049877,登記記録の閉鎖等,0,2025-10-22,2025-10-01,有限会社豊澤園,,有限会社,愛知県,名古屋市港区,入船２丁目３番４号,,23,111,4550032,,,2025-10-01,合併による解散等,1180001073547,令和７年１０月１日名古屋市港区入船二丁目３番４号大山商事株式会社（1180001073547）に合併し解散,2015-10-05,1,,,,,ホウタクエン,0
2618,9190002002174,登記記録の閉鎖等,0,2025-10-22,2025-09-11,有限会社ファーストワン,,有限会社,三重県,津市,一志町高野１６０番地の５０１,,24,201,5152504,,,2025-09-11,清算の結了等,,,2015-10-05,1,,,,,,0
2628,9240001058039,登記記録の閉鎖等,0,2025-10-22,2025-10-17,株式会社スパロー,,株式会社,広島県,廿日市市,宮内１０９９番地１,,34,213,7380034,,,2025-10-17,清算の結了等,,,2021-06-03,1,,,,,スパロー,0
2660,9390003001709,登記記録の閉鎖等,0,2025-10-22,2025-10-16,核酸山形合同会社,,合同会社,山形県,米沢市,駅前３丁目１番９０－１０号９０３号室,,06,202,9920027,,,2025-10-16,清算の結了等,,,2020-04-30,1,,,,,カクサンヤマガタ,0
2663,9400005003668,登記記録の閉鎖等,0,2025-10-22,2025-10-06,特定非営利活動法人アクセシブル北上,,その他の設立登記法人,岩手県,北上市,中野町２丁目２７番３７号,,03,206,0240024,,,2025-10-06,清算の結了等,,,2015-10-05,1,,,,,アクセシブルキタカミ,0
2669,9430001071641,登記記録の閉鎖等,0,2025-10-22,2025-10-20,ファームフィード株式会社,,株式会社,北海道,石狩郡当別町,字金沢１６６番地８,,01,303,0610212,,,2025-10-20,清算の結了等,,,2016-05-24,1,,,,,ファームフィード,0
2670,9430001094551,登記記録の閉鎖等,0,2025-10-22,2025-10-09,株式会社藤野社中,,株式会社,北海道,札幌市南区,藤野六条６丁目１５番１号,,01,106,0612286,,,2025-10-09,清算の結了等,,,2025-06-04,1,,,,,フジノシャチュウ,0
2672,9430002022057,登記記録の閉鎖等,0,2025-10-22,2025-10-08,有限会社リバブル・ホームサービス,,有限会社,北海道,江別市,文京台南町２４番地の４,,01,217,0690835,,,2025-10-08,清算の結了等,,,2015-10-05,1,,,,,リバブルホームサービス,0
2673,9430002046568,登記記録の閉鎖等,0,2025-10-22,2025-10-06,有限会社ロング北海道,,有限会社,北海道,江別市,野幌屯田町１５番地１８,,01,217,0690803,,,2025-10-06,清算の結了等,,,2015-10-05,1,,,,,ロングホッカイドウ,0
