sequenceNumber,corporateNumber,process,correct,updateDate,changeDate,name,nameImageId,kind,prefectureName,cityName,streetNumber,addressImageId,prefectureCode,cityCode,postCode,addressOutside,addressOutsideImageId,closeDate,closeCause,successorCorporateNumber,changeCause,assignmentDate,latest,enName,enPrefectureName,enCityName,enAddressOutside,furigana,hihyoji
5,1010001254691,新規,0,2025-05-12,2025-05-12,株式会社ナイル,,株式会社,東京都,中央区,銀座６丁目６番１号銀座風月堂ビル５Ｆ,,13,102,1040061,,,,,,,2025-05-12,1,,,,,ナイル,0
6,1010001254799,新規,0,2025-05-12,2025-05-12,株式会社ウィルスマイル,,株式会社,東京都,千代田区,神田須田町１丁目７番地８ＶＯＲＴ秋葉原ＩＶ２Ｆ,00139097,13,101,1010041,,,,,,,2025-05-12,1,,,,,ウィルスマイル,0
7,1010003047185,新規,0,2025-05-12,2025-05-12,スザク合同会社,,合同会社,東京都,千代田区,霞が関３丁目２番５号,,13,101,1000013,,,,,,,2025-05-12,1,,,,,スザク,0
13,1010401189950,新規,0,2025-05-12,2025-05-12,ティーエムマリタイム株式会社,,株式会社,東京都,港区,新橋６丁目９番２号新橋第一ビル６階,,13,103,1050004,,,,,,,2025-05-12,1,,,,,ティーエムマリタイム,0
14,1010401190108,新規,0,2025-05-12,2025-05-12,Ｌａｘｉａ株式会社,,株式会社,東京都,港区,南青山２丁目２番１５号,,13,103,1070062,,,,,,,2025-05-12,1,,,,,ラクシア,0
15,1010401190149,新規,0,2025-05-12,2025-05-12,株式会社Ｂｒｉｇｈｔ　Ｇａｔｅｗａｙ,,株式会社,東京都,港区,港南２丁目１６番４号,,13,103,1080075,,,,,,,2025-05-12,1,,,,,ブライトゲートウェイ,0
16,1010401190181,新規,0,2025-05-12,2025-05-12,ＬＳ‐ＳＨＩＰ第７４号株式会社,,株式会社,東京都,港区,六本木１丁目６番１号,,13,103,1060032,,,,,,,2025-05-12,1,,,,,エルエスシップダイナナジュウヨンゴウ,0
17,1010401190207,新規,0,2025-05-12,2025-05-12,株式会社えんがわ日和,,株式会社,東京都,港区,南青山３丁目１番３６号青山丸竹ビル６Ｆ,,13,103,1070062,,,,,,,2025-05-12,1,,,,,エンガワビヨリ,0
18,1010401190215,新規,0,2025-05-12,2025-05-12,株式会社ＶＡＬＵＥ‐Ｓ,,株式会社,東京都,港区,高輪１丁目３番２号,,13,103,1080074,,,,,,,2025-05-12,1,,,,,ヴァリューズ,0
19,1010403035038,新規,0,2025-05-12,2025-05-12,合同会社ＦｌａｓｈＢａｃｋ,,合同会社,東京都,港区,南青山３丁目１番３６号青山丸竹ビル６Ｆ,,13,103,1070062,,,,,,,2025-05-12,1,,,,,フラッシュバック,0
20,1010403035046,新規,0,2025-05-12,2025-05-12,合同会社アールクラス,,合同会社,東京都,港区,北青山１丁目３番１号,,13,103,1070061,,,,,,,2025-05-12,1,,,,,アールクラス,0
21,1010403035070,新規,0,2025-05-12,2025-05-12,合同会社ラクシュミー,,合同会社,東京都,港区,新橋４丁目１４番１号新橋ＡＵＮＢＬＤＧ４階,,13,103,1050004,,,,,,,2025-05-12,1,,,,,ラクシュミー,0
25,1010501054039,新規,0,2025-05-12,2025-05-12,株式会社セイゾック,,株式会社,東京都,台東区,池之端１丁目１番１号,,13,106,1100008,,,,,,,2025-05-12,1,,,,,セイゾック,0
29,1010603011549,新規,0,2025-05-12,2025-05-12,ワンチャンス合同会社,,合同会社,東京都,江東区,東陽５丁目２５番１５号谷ビル３０６,,13,108,1350016,,,,,,,2025-05-12,1,,,,,ワンチャンス,0
33,1010901057335,新規,0,2025-05-12,2025-05-12,ｄ１ｖｅ株式会社,,株式会社,東京都,世田谷区,太子堂１丁目１２－３２－５０５,,13,112,1540004,,,,,,,2025-05-12,1,,,,,ダイブ,0
34,1010901057343,新規,0,2025-05-12,2025-05-12,Ｍａｒｋ’ｓ　Ｏｎｌｉｎｅ　Ｅｍｐｏｒｉｕｍ株式会社,,株式会社,東京都,世田谷区,三宿１丁目１４－８,,13,112,1540005,,,,,,,2025-05-12,1,,,,,マークスオンラインエンポリアム,0
39,1011001169310,新規,0,2025-05-12,2025-05-12,Ｔキャピタル株式会社,,株式会社,東京都,渋谷区,渋谷２丁目６番８－６０１号,,13,113,1500002,,,,,,,2025-05-12,1,,,,,ティーキャピタル,0
40,1011001169392,新規,0,2025-05-12,2025-05-12,株式会社カガヤキ,,株式会社,東京都,渋谷区,広尾４丁目２番１４－３０４号,,13,113,1500012,,,,,,,2025-05-12,1,,,,,カガヤキ,0
41,1011001169401,新規,0,2025-05-12,2025-05-12,ｉｐｕｌｙ株式会社,,株式会社,東京都,渋谷区,円山町５番５号Ｎａｖｉ渋谷Ｖ３階,00139100,13,113,1500044,,,,,,,2025-05-12,1,,,,,イプリー,0
42,1011001169533,新規,0,2025-05-12,2025-05-12,腸和株式会社,,株式会社,東京都,渋谷区,神宮前６丁目２８番９号東武ビル３１７号室,,13,113,1500001,,,,,,,2025-05-12,1,,,,,チョウワ,0
43,1011001169574,新規,0,2025-05-12,2025-05-12,グーゴル株式会社,,株式会社,東京都,渋谷区,大山町１番１４号,,13,113,1510065,,,,,,,2025-05-12,1,,,,,グーゴル,0
44,1011003021519,新規,0,2025-05-12,2025-05-12,Ｆｉｎｌａｂ合同会社,,合同会社,東京都,目黒区,東山３丁目１５番６号１０３,,13,110,1530043,,,,,,,2025-05-12,1,,,,,フィンラボ,0
48,1011101111634,新規,0,2025-05-12,2025-05-12,メイクコア株式会社,,株式会社,東京都,新宿区,西新宿６丁目５番１号新宿アイランドタワー２階,,13,104,1600023,,,,,,,2025-05-12,1,,,,,メイクコア,0
51,1011601028634,新規,0,2025-05-12,2025-05-12,株式会社リョーワ設備,,株式会社,東京都,練馬区,石神井台３丁目４番３４号テラスハウスＡ号棟,,13,120,1770045,,,,,,,2025-05-12,1,,,,,リョーワセツビ,0
53,1011701028328,新規,0,2025-05-12,2025-05-12,株式会社マルチテック,,株式会社,東京都,江戸川区,南小岩５丁目２０番１０号木村テラス２階１号室,,13,123,1330056,,,,,,,2025-05-12,1,,,,,マルチテック,0
54,1011703004236,新規,0,2025-05-12,2025-05-12,エニシア合同会社,,合同会社,東京都,江戸川区,春江町２丁目３１番２号,,13,123,1320003,,,,,,,2025-05-12,1,,,,,エニシア,0
55,1011801046089,新規,0,2025-05-12,2025-05-12,株式会社ＫＴ　ｃｏｎｎｅｃｔ,,株式会社,東京都,葛飾区,新小岩１丁目２５番２－６０１号ナイスシティアリーナ新小岩,,13,122,1240024,,,,,,,2025-05-12,1,,,,,ケーティコネクト,0
57,1011803006842,新規,0,2025-05-12,2025-05-12,ＳＨコンサルティングパートナーズ合同会社,,合同会社,東京都,葛飾区,東金町１丁目１番２－１００７号プラウドシティ金町アベニュー,,13,122,1250041,,,,,,,2025-05-12,1,,,,,エスエイチコンサルティングパートナーズ,0
58,1012301014362,新規,0,2025-05-12,2025-05-12,株式会社ＵＮＣＨＡＩＮ,,株式会社,東京都,町田市,小野路町１３番地１５,,13,209,1950064,,,,,,,2025-05-12,1,,,,,アンチェイン,0
59,1012301014370,新規,0,2025-05-12,2025-05-12,株式会社フランシール,,株式会社,東京都,町田市,金井１丁目６番１０号３,,13,209,1950072,,,,,,,2025-05-12,1,,,,,,0
60,1012701018855,新規,0,2025-05-12,2025-05-12,株式会社ＴＡＬＯ,,株式会社,東京都,西東京市,向台町６丁目５番３号,,13,229,1880013,,,,,,,2025-05-12,1,,,,,タロ,0
61,1012801023953,新規,0,2025-05-12,2025-05-12,株式会社ＯＫ　ＲＯＰＥ,,株式会社,東京都,日野市,旭が丘１丁目１７－３２,,13,212,1910065,,,,,,,2025-05-12,1,,,,,オーケーロープ,0
62,1012803003730,新規,0,2025-05-12,2025-05-12,マナ・アクア合同会社,,合同会社,東京都,国分寺市,東元町１丁目１９－１１,,13,214,1850022,,,,,,,2025-05-12,1,,,,,マナアクア,0
64,1013301054258,新規,0,2025-05-12,2025-05-12,株式会社泰規,,株式会社,東京都,豊島区,巣鴨１丁目４０－４メゾン清水１０３,,13,116,1700002,,,,,,,2025-05-12,1,,,,,タイキ,0
65,1013303007651,新規,0,2025-05-12,2025-05-12,合同会社Ｗｉｎｎｅｒ,,合同会社,東京都,豊島区,西池袋３丁目２９－４ジェスト７ビル地下１階,,13,116,1710021,,,,,,,2025-05-12,1,,,,,ウイナー,0
81,1020001162704,新規,0,2025-05-12,2025-05-12,株式会社ＢＥＬＤＡＹＳ,,株式会社,神奈川県,横浜市神奈川区,台町１６番４号５０１号室,,14,102,2210834,,,,,,,2025-05-12,1,,,,,ベルデイズ,0
82,1020001162720,新規,0,2025-05-12,2025-05-12,株式会社リフレホールディングス,,株式会社,神奈川県,川崎市中原区,下小田中１丁目２８番１号,,14,133,2110041,,,,,,,2025-05-12,1,,,,,リフレホールディングス,0
83,1020001162745,新規,0,2025-05-12,2025-05-12,ＥｄｕＧｌｏｂｅＸ株式会社,,株式会社,神奈川県,横浜市西区,みなとみらい４丁目４－２横浜ブルーアベニュー１２階,,14,103,2200012,,,,,,,2025-05-12,1,,,,,エデュグローブエックス,0
84,1020001162753,新規,0,2025-05-12,2025-05-12,株式会社ｗｏｒｋｓｅｅｄ,,株式会社,神奈川県,横浜市西区,北幸１丁目５－１０ＪＰＲ横浜ビル,,14,103,2200004,,,,,,,2025-05-12,1,,,,,ワークシード,0
85,1020001162778,新規,0,2025-05-12,2025-05-12,株式会社ゆかりエステート,,株式会社,神奈川県,横浜市西区,平沼１丁目４０番１１－４０９号,,14,103,2200023,,,,,,,2025-05-12,1,,,,,ユカリエステート,0
86,1020001162794,新規,0,2025-05-12,2025-05-12,株式会社答,,株式会社,神奈川県,川崎市麻生区,栗平１丁目１０番５号,,14,137,2150031,,,,,,,2025-05-12,1,,,,,コタエ,0
91,1020003028390,新規,0,2025-05-12,2025-05-12,合同会社Ｔａｂｉｓｈｏ,,合同会社,神奈川県,横浜市神奈川区,金港町５－１４クアドリフォリオ８階,,14,102,2210056,,,,,,,2025-05-12,1,,,,,,0
93,1021001085192,新規,0,2025-05-12,2025-05-12,株式会社ニナ電気,,株式会社,神奈川県,平塚市,南金目１４２３番地の８,,14,203,2591201,,,,,,,2025-05-12,1,,,,,ニナデンキ,0
96,1021003015957,新規,0,2025-05-12,2025-05-12,合同会社むきむき,,合同会社,神奈川県,茅ヶ崎市,香川４丁目３６－４,,14,207,2530082,,,,,,,2025-05-12,1,,,,,ムキムキ,0
101,1030001166431,新規,0,2025-05-12,2025-05-12,ＳＨＩＮＹＵＲＩ株式会社,,株式会社,埼玉県,志木市,本町６丁目１２番１－１０３号,,11,228,3530004,,,,,,,2025-05-12,1,,,,,シンユリ,0
102,1030001166497,新規,0,2025-05-12,2025-05-12,ＲＡＭＩ株式会社,,株式会社,埼玉県,所沢市,美原町２丁目２９３３－１０メゾンミハラ２・２０３号,,11,208,3590045,,,,,,,2025-05-12,1,,,,,ラミ,0
108,1030003026740,新規,0,2025-05-12,2025-05-12,Ｙｕｒａｌｉａ合同会社,,合同会社,埼玉県,川越市,田町１４番地１＿１－Ｂ,,11,201,3501113,,,,,,,2025-05-12,1,,,,,ユラリア,0
109,1030003026749,新規,0,2025-05-12,2025-05-12,合同会社ステイゴールド,,合同会社,埼玉県,所沢市,大字久米１８１０番地の４,,11,208,3591131,,,,,,,2025-05-12,1,,,,,ステイゴールド,0
110,1030003026757,新規,0,2025-05-12,2025-05-12,合同会社ＲＡＶＥＮ　ＬＩＮＥ,,合同会社,埼玉県,飯能市,大字中居４１番地１１,,11,209,3570002,,,,,,,2025-05-12,1,,,,,レイヴンライン,0
114,1040001138504,新規,0,2025-05-12,2025-05-12,株式会社東栄,,株式会社,千葉県,木更津市,八幡台７丁目６番３号,,12,206,2920814,,,,,,,2025-05-12,1,,,,,トウエイ,0
115,1040001138669,新規,0,2025-05-12,2025-05-12,株式会社古山商店,,株式会社,千葉県,長生郡白子町,牛込９３１番地,,12,424,2994202,,,,,,,2025-05-12,1,,,,,フルヤマショウテン,0
116,1040001138776,新規,0,2025-05-12,2025-05-12,株式会社Ｌｉｌ　ｖａｒｉａｔｉｏｎ,,株式会社,千葉県,松戸市,五香西３丁目２番地の３８ＳｃａｒｌｅｔＤ１０３号,,12,207,2702218,,,,,,,2025-05-12,1,,,,,リルバリエーション,0
118,1040003027515,新規,0,2025-05-12,2025-05-12,合同会社昌希,,合同会社,千葉県,柏市,しいの木台５丁目４７番地２２,,12,217,2770945,,,,,,,2025-05-12,1,,,,,ショウキ,0
122,1050001056622,新規,0,2025-05-12,2025-05-12,おおくぼ動物病院株式会社,,株式会社,茨城県,水戸市,笠原町５２番地の７６,,08,201,3100852,,,,,,,2025-05-12,1,,,,,オオクボドウブツビョウイン,0
123,1050001056655,新規,0,2025-05-12,2025-05-12,株式会社Ｏｈａｎａ,,株式会社,茨城県,牛久市,猪子町８１３番地１,,08,219,3001231,,,,,,,2025-05-12,1,,,,,オハナ,0
132,1070001042926,新規,0,2025-05-12,2025-05-12,株式会社ＯｎＰｉｓｔｅ,,株式会社,群馬県,高崎市,東国分町３番地８,,10,202,3703514,,,,,,,2025-05-12,1,,,,,,0
133,1070003005922,新規,0,2025-05-12,2025-05-12,合同会社翔栄堂,,合同会社,群馬県,高崎市,福島町７９８番地８,,10,202,3703523,,,,,,,2025-05-12,1,,,,,,0
134,1070005010391,新規,0,2025-05-12,2025-05-12,一般社団法人群馬県退職金制度普及協会,,その他の設立登記法人,群馬県,前橋市,南町２丁目４２番６号,,10,201,3710805,,,,,,,2025-05-12,1,,,,,グンマケンタイショクキンセイドフキュウキョウカイ,0
136,1080103003321,新規,0,2025-05-12,2025-05-12,合同会社ネクサス,,合同会社,静岡県,沼津市,下香貫楊原６５６番地の２,,22,203,4100822,,,,,,,2025-05-12,1,,,,,ネクサス,0
137,1080401027906,新規,0,2025-05-12,2025-05-12,株式会社風錬昇舎,,株式会社,静岡県,浜松市中央区,中央２丁目４－２２,,22,138,4300929,,,,,,,2025-05-12,1,,,,,フウレンショウシャ,0
139,1100003008145,新規,0,2025-05-12,2025-05-12,ひより合同会社,,合同会社,長野県,下高井郡野沢温泉村,大字豊郷７９２８番地３,,20,563,3892502,,,,,,,2025-05-12,1,,,,,ヒヨリ,0
140,1100003008153,新規,0,2025-05-12,2025-05-12,Ｊａｐａｎｓｃａｐｅ　Ａｄｖｅｎｔｕｒｅｓ合同会社,,合同会社,長野県,松本市,寿北６丁目１１－１淵庵村Ｗ－ＢＡＳＥ５,,20,202,3990011,,,,,,,2025-05-12,1,,,,,ジャパンスケープアドベンチャーズ,0
148,1120001274943,新規,0,2025-05-12,2025-05-12,方舟株式会社,,株式会社,大阪府,大阪市西成区,花園南１丁目４－１３コスモレジデンス花園南３０５号室,,27,122,5570015,,,,,,,2025-05-12,1,,,,,ホウシュウ,0
149,1120001275132,新規,0,2025-05-12,2025-05-12,株式会社ガリレオ,,株式会社,大阪府,大阪市北区,野崎町６番８号,,27,127,5300055,,,,,,,2025-05-12,1,,,,,ガリレオ,0
150,1120001275207,新規,0,2025-05-12,2025-05-12,株式会社サンズホールディングス,,株式会社,大阪府,守口市,西郷通２丁目８番２４号,,27,209,5700034,,,,,,,2025-05-12,1,,,,,サンズホールディングス,0
151,1120001275256,新規,0,2025-05-12,2025-05-12,株式会社八ＰＥＡＣＥ,,株式会社,大阪府,大阪市浪速区,桜川１丁目６番４－４０１号,,27,111,5560022,,,,,,,2025-05-12,1,,,,,ピース,0
152,1120001275272,新規,0,2025-05-12,2025-05-12,Ｈｅｌｌｏ　Ｍｏｎｄａｙ株式会社,,株式会社,大阪府,大阪市東成区,深江北３丁目４番２１号エクラ深江橋５１５Ｃ,,27,115,5370001,,,,,,,2025-05-12,1,,,,,ヘロウマンデー,0
153,1120001275347,新規,0,2025-05-12,2025-05-12,ＥＮＥＲ　ＲＥＸ株式会社,,株式会社,大阪府,守口市,馬場町１丁目２番地６,,27,209,5700062,,,,,,,2025-05-12,1,,,,,エネルレックス,0
154,1120001275388,新規,0,2025-05-12,2025-05-12,株式会社ＬＥＸ,,株式会社,大阪府,大阪市旭区,高殿６丁目２２番９－９１２号,,27,117,5350031,,,,,,,2025-05-12,1,,,,,レックス,0
155,1120001275405,新規,0,2025-05-12,2025-05-12,株式会社ミライズ,,株式会社,大阪府,大阪市浪速区,幸町２丁目２番地２４エリンデール桜川６０７号,,27,111,5560021,,,,,,,2025-05-12,1,,,,,ミライズ,0
156,1120001275438,新規,0,2025-05-12,2025-05-12,株式会社デザインＲ,,株式会社,大阪府,大阪市東淀川区,下新庄２丁目３番１２－３１８号,,27,114,5330021,,,,,,,2025-05-12,1,,,,,デザインアール,0
157,1120001275462,新規,0,2025-05-12,2025-05-12,北斗株式会社,,株式会社,大阪府,大阪市住之江区,安立２丁目１０番１４号三坂ビル２０１号室,,27,125,5590003,,,,,,,2025-05-12,1,,,,,ホクト,0
158,1120001275487,新規,0,2025-05-12,2025-05-12,株式会社ｚｅｓｔ　ｋｅｅｐ　ｆｉｔｎｅｓｓ,,株式会社,大阪府,大阪市城東区,東中浜３丁目２番２３－２０４号,,27,118,5360023,,,,,,,2025-05-12,1,,,,,ゼストキープフィットネス,0
159,1120001275495,新規,0,2025-05-12,2025-05-12,華媛株式会社,,株式会社,大阪府,大阪市西成区,長橋１丁目３番９－３０１号,,27,122,5570025,,,,,,,2025-05-12,1,,,,,ハナヒメ,0
160,1120001275512,新規,0,2025-05-12,2025-05-12,三染株式会社,,株式会社,大阪府,大阪市住吉区,大領５丁目２番２４号サンフラワー大領３０２号室,,27,120,5580001,,,,,,,2025-05-12,1,,,,,サンセン,0
161,1120001275529,新規,0,2025-05-12,2025-05-12,雨音ｇｒａｐｈｉｃｓ株式会社,,株式会社,大阪府,大阪市西区,江戸堀１丁目１４－１平和相互肥後橋ビル５０３,,27,106,5500002,,,,,,,2025-05-12,1,,,,,アマオトグラフィックス,0
162,1120001275537,新規,0,2025-05-12,2025-05-12,株式会社キョウシンリフレ,,株式会社,大阪府,大阪市淀川区,東三国４丁目４番１５号,,27,123,5320002,,,,,,,2025-05-12,1,,,,,キョウシンリフレ,0
163,1120001275545,新規,0,2025-05-12,2025-05-12,株式会社ムーア,,株式会社,大阪府,大阪市天王寺区,上汐３丁目８番２号ノバカネイチ谷九５０４号,,27,109,5430002,,,,,,,2025-05-12,1,,,,,ムーア,0
164,1120001275561,新規,0,2025-05-12,2025-05-12,ＩＲＩＥ株式会社,,株式会社,大阪府,枚方市,西牧野４丁目３番９号,,27,210,5731148,,,,,,,2025-05-12,1,,,,,イリエ,0
165,1120001275578,新規,0,2025-05-12,2025-05-12,株式会社楽,,株式会社,大阪府,大阪市北区,曾根崎新地１丁目２番１０号,,27,127,5300002,,,,,,,2025-05-12,1,,,,,ガク,0
166,1120001275586,新規,0,2025-05-12,2025-05-12,株式会社セイコーサポート,,株式会社,大阪府,大阪市平野区,加美北５丁目６番５号,,27,126,5470001,,,,,,,2025-05-12,1,,,,,セイコーサポート,0
167,1120001275594,新規,0,2025-05-12,2025-05-12,菱柴工務店株式会社,,株式会社,大阪府,大阪市鶴見区,鶴見５丁目２番１４号,,27,124,5380053,,,,,,,2025-05-12,1,,,,,リョウサイコウムテン,0
168,1120001275603,新規,0,2025-05-12,2025-05-12,株式会社ＳＨＩＮ,,株式会社,大阪府,大阪市中央区,南船場２丁目１１番９－２０７号,,27,128,5420081,,,,,,,2025-05-12,1,,,,,シン,0
169,1120001275628,新規,0,2025-05-12,2025-05-12,株式会社グラッド,,株式会社,大阪府,寝屋川市,池田３丁目８番９号,,27,215,5720039,,,,,,,2025-05-12,1,,,,,グラッド,0
170,1120001275660,新規,0,2025-05-12,2025-05-12,東元株式会社,,株式会社,大阪府,大阪市西淀川区,野里２丁目１４番１３－１０３号,,27,113,5550024,,,,,,,2025-05-12,1,,,,,トウゲン,0
171,1120001275677,新規,0,2025-05-12,2025-05-12,株式会社アールランド,,株式会社,大阪府,大阪市淀川区,東三国２丁目１２番４６号,,27,123,5320002,,,,,,,2025-05-12,1,,,,,アールランド,0
172,1120001275685,新規,0,2025-05-12,2025-05-12,嘉霖商貿株式会社,,株式会社,大阪府,大阪市城東区,東中浜８丁目５番２３号３０２号室,,27,118,5360023,,,,,,,2025-05-12,1,,,,,カリンショウボウ,0
175,1120003029395,新規,0,2025-05-12,2025-05-12,ＧＣＪヘルスケア合同会社,,合同会社,大阪府,大阪市阿倍野区,阪南町１丁目２３番１５－１０２号,,27,119,5450021,,,,,,,2025-05-12,1,,,,,ジーシージェイヘルスケア,0
177,1120101071638,新規,0,2025-05-12,2025-05-12,株式会社ななつば,,株式会社,大阪府,堺市堺区,甲斐町東５丁１番１０号甲斐町ハイツ１０１号室,,27,141,5900953,,,,,,,2025-05-12,1,,,,,ナナツバ,0
178,1120101071654,新規,0,2025-05-12,2025-05-12,株式会社ＲｅＳｔａｒｔ,,株式会社,大阪府,泉南市,鳴滝３丁目１４番２５号,,27,228,5900534,,,,,,,2025-05-12,1,,,,,リスタート,0
180,1120901050816,新規,0,2025-05-12,2025-05-12,株式会社モンビルキャピタル,,株式会社,大阪府,吹田市,豊津町３２番３３号,,27,205,5640051,,,,,,,2025-05-12,1,,,,,モンビルキャピタル,0
181,1120901050824,新規,0,2025-05-12,2025-05-12,株式会社ＨＩＲＡＫＥＮ,,株式会社,大阪府,高槻市,宮田町２丁目３０番２－２０６号,,27,207,5691142,,,,,,,2025-05-12,1,,,,,ヒラケン,0
182,1120901050832,新規,0,2025-05-12,2025-05-12,株式会社ＳＵＮ,,株式会社,大阪府,吹田市,桃山台１丁目１番７－９０３号,,27,205,5650854,,,,,,,2025-05-12,1,,,,,サン,0
183,1120901050840,新規,0,2025-05-12,2025-05-12,株式会社星野組,,株式会社,大阪府,吹田市,南高浜町１７番８号,,27,205,5640025,,,,,,,2025-05-12,1,,,,,ホシノグミ,0
187,1122001039194,新規,0,2025-05-12,2025-05-12,キタヤホーム株式会社,,株式会社,大阪府,四條畷市,楠公２丁目１０番１７号,,27,229,5750023,,,,,,,2025-05-12,1,,,,,キタヤホーム,0
188,1122001039211,新規,0,2025-05-12,2025-05-12,株式会社灰青,,株式会社,大阪府,東大阪市,森河内東１丁目８番２４号,,27,227,5770062,,,,,,,2025-05-12,1,,,,,ハイアオ,0
195,1130003010461,新規,0,2025-05-12,2025-05-12,亀鶴ハツアン合同会社,,合同会社,京都府,京都市下京区,朱雀宝蔵町４４番地協栄ビル２階京都朱雀スタジオ,,26,106,6008846,,,,,,,2025-05-12,1,,,,,キカクハツアン,0
201,1140001138403,新規,0,2025-05-12,2025-05-12,みなと地所株式会社,,株式会社,兵庫県,明石市,東仲ノ町１０番１８号みなとビル明石東仲ノ町６階,,28,203,6730886,,,,,,,2025-05-12,1,,,,,ミナトジショ,0
202,1140001138460,新規,0,2025-05-12,2025-05-12,株式会社ＬＡＮＤＳ,,株式会社,兵庫県,南あわじ市,八木鳥井４２９番地２,,28,224,6560433,,,,,,,2025-05-12,1,,,,,ランズ,0
203,1140001138469,新規,0,2025-05-12,2025-05-12,株式会社ＴＲＩＢＥ,,株式会社,兵庫県,西宮市,鳴尾町２丁目２１番１６号,,28,204,6638184,,,,,,,2025-05-12,1,,,,,トライブ,0
204,1140001138493,新規,0,2025-05-12,2025-05-12,株式会社ＳＥＩＴＥＣ,,株式会社,兵庫県,明石市,二見町東二見７５２－４,,28,203,6740092,,,,,,,2025-05-12,1,,,,,セイテック,0
205,1140005027503,新規,0,2025-05-12,2025-05-12,一般社団法人ワットアット,,その他の設立登記法人,兵庫県,神戸市西区,池上１丁目１２番地の１ウエストヒル神戸Ｂ棟９０３号,,28,111,6512111,,,,,,,2025-05-12,1,,,,,ワットアット,0
216,1180001166689,新規,0,2025-05-12,2025-05-12,株式会社リブアクト,,株式会社,愛知県,春日井市,長塚町１丁目１０７番地工場１０５,,23,206,4860934,,,,,,,2025-05-12,1,,,,,リブアクト,0
217,1180001166697,新規,0,2025-05-12,2025-05-12,Ｐｅａｃｅｆｕｌｌｙ　Ｈｏｍｅｓ株式会社,,株式会社,愛知県,名古屋市名東区,平和が丘１丁目９番地,,23,115,4650097,,,,,,,2025-05-12,1,,,,,ピースフリーホームズ,0
218,1180001166714,新規,0,2025-05-12,2025-05-12,株式会社愛光電気,,株式会社,愛知県,名古屋市南区,堤起町１丁目４８番地の１４,,23,112,4570825,,,,,,,2025-05-12,1,,,,,アイコウデンキ,0
219,1180001166755,新規,0,2025-05-12,2025-05-12,株式会社吉田電設,00139095,株式会社,愛知県,清須市,清洲１６３０番地３,,23,233,4520942,,,,,,,2025-05-12,1,,,,,ヨシダデンセツ,0
226,1180003028466,新規,0,2025-05-12,2025-05-12,合同会社シンシア,,合同会社,愛知県,名古屋市中区,千代田３丁目４番１７号ルネ鶴舞６０６号,,23,106,4600012,,,,,,,2025-05-12,1,,,,,シンシア,0
234,1190003005027,新規,0,2025-05-12,2025-05-12,合同会社身体ファクトリー,,合同会社,三重県,四日市市,松原町６‐１２,,24,202,5108015,,,,,,,2025-05-12,1,,,,,カラダファクトリー,0
237,1200001043761,新規,0,2025-05-12,2025-05-12,株式会社ＢＥ．ＬＵＶ,,株式会社,岐阜県,岐阜市,徹明通６丁目２番地,,21,201,5008879,,,,,,,2025-05-12,1,,,,,ビーラブ,0
238,1200001043778,新規,0,2025-05-12,2025-05-12,株式会社ＡＣＥ　ＨＯＬＤＩＮＧＳ,,株式会社,岐阜県,多治見市,音羽町４丁目１５－１オリエンタルタワーズＷＥＳＴ－８０２,,21,204,5070037,,,,,,,2025-05-12,1,,,,,エイスホールディングス,0
239,1210005010204,新規,0,2025-05-12,2025-05-12,一般社団法人福井県レクリエーション協会,,その他の設立登記法人,福井県,福井市,花堂北２丁目１７－３,,18,201,9188012,,,,,,,2025-05-12,1,,,,,フクイケンレクリエーションキョウカイ,0
247,1240001064928,新規,0,2025-05-12,2025-05-12,株式会社Ｌｉｎｋ　ｉｎｎ,,株式会社,広島県,広島市東区,牛田早稲田１丁目１３－１５タームアクア２０５号室,,34,102,7320062,,,,,,,2025-05-12,1,,,,,リンクイン,0
255,1290001109942,新規,0,2025-05-12,2025-05-12,株式会社インテリア三島,,株式会社,福岡県,福岡市早良区,次郎丸６丁目７番１９号,,40,137,8140165,,,,,,,2025-05-12,1,,,,,インテリアミシマ,0
256,1290001109983,新規,0,2025-05-12,2025-05-12,一心総業株式会社,,株式会社,福岡県,八女市,本１３９５番地１八女本貸家,,40,210,8340015,,,,,,,2025-05-12,1,,,,,イッシンソウギョウ,0
257,1290001109991,新規,0,2025-05-12,2025-05-12,株式会社イノベーション・ワークス,,株式会社,福岡県,春日市,桜ヶ丘４丁目４７番地２,,40,218,8160872,,,,,,,2025-05-12,1,,,,,イノベーションワークス,0
258,1290001110000,新規,0,2025-05-12,2025-05-12,株式会社よっしぃ,,株式会社,福岡県,福岡市早良区,田隈１丁目２６番３号,,40,137,8140174,,,,,,,2025-05-12,1,,,,,ヨッシィ,0
260,1290003016807,新規,0,2025-05-12,2025-05-12,合同会社経理工房,,合同会社,福岡県,福岡市博多区,東公園１－２２－２０３,,40,132,8120045,,,,,,,2025-05-12,1,,,,,ケイリコウボウ,0
261,1290003016831,新規,0,2025-05-12,2025-05-12,ＨＯＰＥ合同会社,,合同会社,福岡県,福岡市博多区,中洲４丁目１－３５岡部ビル１号館６Ｆ,,40,132,8100801,,,,,,,2025-05-12,1,,,,,ホープ,0
265,1290801031536,新規,0,2025-05-12,2025-05-12,株式会社Ｖａｍｏｓ,,株式会社,福岡県,北九州市小倉南区,星和台１丁目２－２０,,40,107,8020973,,,,,,,2025-05-12,1,,,,,バモス,0
269,1310003005014,新規,0,2025-05-12,2025-05-12,三木合同会社,,合同会社,長崎県,長崎市,小浦町６６番地１ひまわり小浦２棟１０５号,,42,201,8500067,,,,,,,2025-05-12,1,,,,,ミキ,0
277,1350001019524,新規,0,2025-05-12,2025-05-12,株式会社Ｊｏｕｓｈｉｎ,,株式会社,宮崎県,宮崎市,清武町木原４６４４番地１,,45,201,8891601,,,,,,,2025-05-12,1,,,,,ジョウシン,0
278,1360001035149,新規,0,2025-05-12,2025-05-12,ゲートウェイ株式会社,,株式会社,沖縄県,名護市,宮里１丁目２８番８号南西ビル２Ｆ,,47,209,9050011,,,,,,,2025-05-12,1,,,,,ゲートウェイ,0
279,1360001035165,新規,0,2025-05-12,2025-05-12,バイオケミス株式会社,,株式会社,沖縄県,那覇市,久茂地３丁目２６－３２ＹＳＣビル２０２,,47,201,9000015,,,,,,,2025-05-12,1,,,,,バイオケミス,0
280,1360001035173,新規,0,2025-05-12,2025-05-12,株式会社Ｉｃｈｉ,,株式会社,沖縄県,宜野湾市,嘉数４丁目８－１３,,47,205,9012226,,,,,,,2025-05-12,1,,,,,イチ,0
282,1360005007227,新規,0,2025-05-12,2025-05-12,行政書士法人きたやま,,その他の設立登記法人,沖縄県,那覇市,古波蔵３丁目１８番１８号,,47,201,9000024,,,,,,,2025-05-12,1,,,,,キタヤマ,0
284,1380001035295,新規,0,2025-05-12,2025-05-12,進和株式会社,,株式会社,福島県,いわき市,常磐湯本町宝海５５番地の４０,,07,204,9728321,,,,,,,2025-05-12,1,,,,,シンワ,0
289,1420001019120,新規,0,2025-05-12,2025-05-12,株式会社ＮＹＣ,,株式会社,青森県,黒石市,大字山形町７４番地１,,02,204,0360364,,,,,,,2025-05-12,1,,,,,エヌワイシー,0
290,1420003003114,新規,0,2025-05-12,2025-05-12,合同会社Ｆｌｏｗ　Ｂｉｚ,,合同会社,青森県,黒石市,大字二双子字村元１６番地１,,02,204,0360533,,,,,,,2025-05-12,1,,,,,フロウビズ,0
293,1430001094328,新規,0,2025-05-12,2025-05-12,株式会社ＭＭプランニング,,株式会社,北海道,札幌市東区,北十九条東１０丁目１番７－２０１号,,01,103,0650019,,,,,,,2025-05-12,1,,,,,エムエムプランニング,0
298,1430003017617,新規,0,2025-05-12,2025-05-12,合同会社コトノハ,,合同会社,北海道,札幌市白石区,北郷２４０５番地３０,,01,104,0030849,,,,,,,2025-05-12,1,,,,,コトノハ,0
299,1430003017641,新規,0,2025-05-12,2025-05-12,合同会社Ｋみらい研究所,,合同会社,北海道,札幌市中央区,旭ケ丘１丁目１番１－４０１号,,01,101,0640941,,,,,,,2025-05-12,1,,,,,ケーミライケンキュウショ,0
316,1700150130368,新規,0,2025-05-12,2025-05-12,上海璃園信息科技有限公司　日本駐在員事務所,,外国会社等,東京都,新宿区,山吹町１３０－５　ソーラ・デ・吉岡２階２０２号室,,13,104,1620801,浦東新区書院鎮麗正路１６２８号４幢１－２層,,,,,,2025-05-12,1,,,,,シヤンハイリエンシンソクカギユウゲンコウシニホンチユウザイインジムシヨ,0
322,2010001254427,新規,0,2025-05-12,2025-05-12,株式会社ＧＲＯＷＧＲＩＴ,,株式会社,東京都,千代田区,大手町１丁目６番１号,,13,101,1000004,,,,,,,2025-05-12,1,,,,,グロウグリット,0
323,2010003047192,新規,0,2025-05-12,2025-05-12,合同会社Ａｌｌｉｅｓ,,合同会社,東京都,中央区,銀座３丁目９番７号,,13,102,1040061,,,,,,,2025-05-12,1,,,,,アライズ,0
324,2010003047309,新規,0,2025-05-12,2025-05-12,合同会社アナスタジア,,合同会社,東京都,中央区,銀座７丁目１０番５号,,13,102,1040061,,,,,,,2025-05-12,1,,,,,アナスタジア,0
332,2010401190189,新規,0,2025-05-12,2025-05-12,ＬＳ‐Ａｖｉａｔｉｏｎ第７５号株式会社,,株式会社,東京都,港区,六本木１丁目６番１号,,13,103,1060032,,,,,,,2025-05-12,1,,,,,エルエスアビエーションダイナナジュウゴゴウ,0
333,2010401190197,新規,0,2025-05-12,2025-05-12,株式会社信長,,株式会社,東京都,港区,西新橋３丁目８番２号,,13,103,1050003,,,,,,,2025-05-12,1,,,,,ノブナガ,0
334,2010401190222,新規,0,2025-05-12,2025-05-12,ＭＴ　Ｏｖｅｒｓｅａｓ　Ｉｎｖｅｓｔｍｅｎｔ株式会社,,株式会社,東京都,港区,虎ノ門４丁目１番１号,,13,103,1050001,,,,,,,2025-05-12,1,,,,,エムティーオーバーシーズインベストメント,0
335,2010401190263,新規,0,2025-05-12,2025-05-12,株式会社みらいウェルネス,,株式会社,東京都,港区,芝浦４丁目１２番３８号,,13,103,1080023,,,,,,,2025-05-12,1,,,,,ミライウェルネス,0
336,2010401190271,新規,0,2025-05-12,2025-05-12,フエギア１８３３ジャパン株式会社,,株式会社,東京都,港区,北青山２丁目５番８号,,13,103,1070061,,,,,,,2025-05-12,1,,,,,フエギアイチハチサンサンジャパン,0
338,2010403035045,新規,0,2025-05-12,2025-05-12,合同会社Ｓｕｎｃｒｅｓｔ,,合同会社,東京都,港区,北青山１丁目３番１号,,13,103,1070061,,,,,,,2025-05-12,1,,,,,サンクレスト,0
339,2010403035053,新規,0,2025-05-12,2025-05-12,Ｐ＆Ｎ　Ｉｎｔｅｒｎａｔｉｏｎａｌ合同会社,,合同会社,東京都,港区,赤坂６丁目６番３号１階,,13,103,1070052,,,,,,,2025-05-12,1,,,,,ピーアンドエヌインターナショナル,0
342,2010501054062,新規,0,2025-05-12,2025-05-12,株式会社Ｃｏｎｃｅｐｔ　Ｌａｂ　ｉｎ．,,株式会社,東京都,台東区,元浅草２丁目６番６号東京日産台東ビル８階Ｅｓｔ,,13,106,1110041,,,,,,,2025-05-12,1,,,,,コンセプトラボイン,0
344,2010601067261,新規,0,2025-05-12,2025-05-12,株式会社サンユウ,,株式会社,東京都,江東区,新大橋２丁目１８番４号ドミール両国１Ｆ,,13,108,1350007,,,,,,,2025-05-12,1,,,,,サンユウ,0
345,2010601067286,新規,0,2025-05-12,2025-05-12,アグリライブ株式会社,,株式会社,東京都,江東区,有明３丁目７番１１号有明パークビル２０Ｆ,,13,108,1350063,,,,,,,2025-05-12,1,,,,,アグリライブ,0
347,2010605004459,新規,0,2025-05-12,2025-05-12,一般社団法人ベイライトチャーチ,,その他の設立登記法人,東京都,江東区,東雲１丁目９番４３－３６０８号,,13,108,1350062,,,,,,,2025-05-12,1,,,,,ベイライトチャーチ,0
348,2010701047667,新規,0,2025-05-12,2025-05-12,株式会社ブルーズ・アンド・カンパニー,,株式会社,東京都,品川区,西大井１丁目１－２Ｊタワーイーストタワー２０７,,13,109,1400015,,,,,,,2025-05-12,1,,,,,ブルーズアンドカンパニー,0
349,2010701047683,新規,0,2025-05-12,2025-05-12,日本テクノロギア株式会社,,株式会社,東京都,品川区,東五反田２丁目８－５ＫＮビル５Ｆ,,13,109,1410022,,,,,,,2025-05-12,1,,,,,ニッポンテクノロギア,0
359,2011003021518,新規,0,2025-05-12,2025-05-12,ＧＯＮＧ合同会社,,合同会社,東京都,目黒区,目黒１丁目２４番３－１０１号イニシアイオ目黒,,13,110,1530063,,,,,,,2025-05-12,1,,,,,ゴーン,0
361,2011101111757,新規,0,2025-05-12,2025-05-12,株式会社リニューアル,,株式会社,東京都,新宿区,百人町１丁目１８番８号大久保カドビル８０３,,13,104,1690073,,,,,,,2025-05-12,1,,,,,リニューアル,0
362,2011103015857,新規,0,2025-05-12,2025-05-12,ＴＨＩＮＫ合同会社,,合同会社,東京都,新宿区,西新宿６丁目５番１号新宿アイランドタワー２階,,13,104,1600023,,,,,,,2025-05-12,1,,,,,シンク,0
363,2011105011425,新規,0,2025-05-12,2025-05-12,一般社団法人日本創造教育アカデミー,,その他の設立登記法人,東京都,新宿区,高田馬場２丁目１４番５号,,13,104,1690075,,,,,,,2025-05-12,1,,,,,ニホンソウゾウキョウイクアカデミー,0
364,2011303005534,新規,0,2025-05-12,2025-05-12,合同会社ＭＥＲＡＫＩ,,合同会社,東京都,杉並区,高円寺南３丁目２６－２Ａ棟,,13,115,1660003,,,,,,,2025-05-12,1,,,,,メラキ,0
365,2011501031984,新規,0,2025-05-12,2025-05-12,ＳＴＯＲＹ株式会社,,株式会社,東京都,荒川区,東尾久２丁目２番９号三祥ビル２２６,,13,118,1160012,,,,,,,2025-05-12,1,,,,,ストリー,0
366,2011501032041,新規,0,2025-05-12,2025-05-12,株式会社ＪＳ　ＦＬＵＸ,,株式会社,東京都,荒川区,東日暮里２丁目３０番１２号,,13,118,1160014,,,,,,,2025-05-12,1,,,,,ジェイエスフラックス,0
370,2011603004707,新規,0,2025-05-12,2025-05-12,合同会社ちゃんちゃんちゃんぴょん,,合同会社,東京都,練馬区,関町南４丁目１８番２－５１２号,,13,120,1770053,,,,,,,2025-05-12,1,,,,,チャンチャンチャンピョン,0
372,2011701028335,新規,0,2025-05-12,2025-05-12,シナプステキスタイル株式会社,,株式会社,東京都,江戸川区,平井５丁目４４番６号１０２室,,13,123,1320035,,,,,,,2025-05-12,1,,,,,シナプステキスタイル,0
373,2011703004235,新規,0,2025-05-12,2025-05-12,合同会社ＫＡＮＺＡＫＩ０１,,合同会社,東京都,江戸川区,宇喜田町１４７６番地,,13,123,1340082,,,,,,,2025-05-12,1,,,,,カンザキゼロワン,0
376,2011803006833,新規,0,2025-05-12,2025-05-12,合同会社すなば,,合同会社,東京都,足立区,竹の塚３丁目１６番１０号,,13,121,1210813,,,,,,,2025-05-12,1,,,,,スナバ,0
381,2012701018854,新規,0,2025-05-12,2025-05-12,株式会社よしだ,,株式会社,東京都,東村山市,久米川町１丁目１７番地１４,,13,213,1890003,,,,,,,2025-05-12,1,,,,,ヨシダ,0
383,2013301054216,新規,0,2025-05-12,2025-05-12,株式会社イデアス,,株式会社,東京都,豊島区,東池袋２丁目６２番８号ＢＩＧオフィスプラザ池袋１２０６,,13,116,1700013,,,,,,,2025-05-12,1,,,,,イデアス,0
384,2013305003714,新規,0,2025-05-12,2025-05-12,一般社団法人パブリックサービス研究センター,,その他の設立登記法人,東京都,豊島区,南長崎６丁目３６番８号,,13,116,1710052,,,,,,,2025-05-12,1,,,,,パブリックサービスケンキュウセンター,0
390,2020001162744,新規,0,2025-05-12,2025-05-12,株式会社レイテイ,,株式会社,神奈川県,横浜市鶴見区,鶴見中央３丁目３番１３－５０３号,,14,101,2300051,,,,,,,2025-05-12,1,,,,,レイテイ,0
391,2020001162777,新規,0,2025-05-12,2025-05-12,株式会社ＯＤＰ,,株式会社,神奈川県,横浜市西区,高島２丁目１１番２号スカイメナー横浜５１９,,14,103,2200011,,,,,,,2025-05-12,1,,,,,オーディーピー,0
400,2021003015956,新規,0,2025-05-12,2025-05-12,合同会社杜人暮,,合同会社,神奈川県,足柄下郡湯河原町,吉浜７５１番地の３,,14,384,2590312,,,,,,,2025-05-12,1,,,,,モリトグラ,0
401,2021003015972,新規,0,2025-05-12,2025-05-12,合同会社Ｓ‐Ｌａｂ．,,合同会社,神奈川県,茅ヶ崎市,矢畑８９７番地１－Ｓ－１２１号パークスクエア湘南茅ヶ崎,,14,207,2530085,,,,,,,2025-05-12,1,,,,,エスラボ,0
407,2030001166265,新規,0,2025-05-12,2025-05-12,株式会社ケイズ,,株式会社,埼玉県,朝霞市,栄町５丁目４番２３号多賀ビル栄３０１,,11,227,3510012,,,,,,,2025-05-12,1,,,,,ケイズ,0
408,2030001166331,新規,0,2025-05-12,2025-05-12,株式会社ＧＬＧ,,株式会社,埼玉県,八潮市,大字大曽根１３７９番地３,,11,234,3400834,,,,,,,2025-05-12,1,,,,,ジーエルジー,0
409,2030001166364,新規,0,2025-05-12,2025-05-12,株式会社秀美,,株式会社,埼玉県,戸田市,大字新曽７０２番地プレシス戸田レジデンス５１３号室,,11,224,3350021,,,,,,,2025-05-12,1,,,,,ヒデミ,0
417,2040001138627,新規,0,2025-05-12,2025-05-12,株式会社ＳＹＬＶＯＮＺ,,株式会社,千葉県,流山市,おおたかの森北３丁目２番地の７クラインヴァルトおおたかの森３０２,,12,220,2700119,,,,,,,2025-05-12,1,,,,,シルボンズ,0
418,2040001138635,新規,0,2025-05-12,2025-05-12,豊源株式会社,,株式会社,千葉県,山武郡九十九里町,片貝５１１５－５,,12,403,2830104,,,,,,,2025-05-12,1,,,,,ホウゲン,0
419,2040001138676,新規,0,2025-05-12,2025-05-12,株式会社Ｃｈｅｒｉｅ,,株式会社,千葉県,四街道市,旭ケ丘２丁目１５番７号,,12,228,2840024,,,,,,,2025-05-12,1,,,,,シェリー,0
420,2040001138684,新規,0,2025-05-12,2025-05-12,株式会社ともリンク,,株式会社,千葉県,柏市,布施１４６番地１７,,12,217,2770825,,,,,,,2025-05-12,1,,,,,トモリンク,0
421,2040001138759,新規,0,2025-05-12,2025-05-12,株式会社ＳＴＲＥＥＴ　ＴＯ　Ｂ,,株式会社,千葉県,山武郡横芝光町,横芝４２５番地１６真砂ハイツ２０１号,,12,410,2891732,,,,,,,2025-05-12,1,,,,,ストリートトゥービー,0
424,2040003027431,新規,0,2025-05-12,2025-05-12,金海テック合同会社,,合同会社,千葉県,柏市,船戸２丁目１０番地５７,,12,217,2770802,,,,,,,2025-05-12,1,,,,,カネウミテック,0
425,2040003027489,新規,0,2025-05-12,2025-05-12,合同会社クルー,,合同会社,千葉県,我孫子市,新木野３丁目４６番６号,,12,222,2701114,,,,,,,2025-05-12,1,,,,,クルー,0
426,2040003027514,新規,0,2025-05-12,2025-05-12,合同会社ママーズ,,合同会社,千葉県,浦安市,入船１丁目５番２号,,12,227,2790012,,,,,,,2025-05-12,1,,,,,ママーズ,0
427,2040003027522,新規,0,2025-05-12,2025-05-12,合同会社フィオンザ,,合同会社,千葉県,船橋市,八木が谷１丁目６番７号,,12,204,2740802,,,,,,,2025-05-12,1,,,,,フィオンザ,0
428,2040003027539,新規,0,2025-05-12,2025-05-12,合同会社恵,,合同会社,千葉県,四街道市,大日５３９番地１,,12,228,2840001,,,,,,,2025-05-12,1,,,,,メグミ,0
436,2050001056621,新規,0,2025-05-12,2025-05-12,ジェブラリンク株式会社,,株式会社,茨城県,土浦市,神立中央２丁目４番８号,,08,203,3000011,,,,,,,2025-05-12,1,,,,,ジェブラリンク,0
439,2060001038180,新規,0,2025-05-12,2025-05-12,株式会社えむプランニング,,株式会社,栃木県,小山市,東城南３丁目３番地５,,09,208,3230829,,,,,,,2025-05-12,1,,,,,エムプランニング,0
449,2080103003320,新規,0,2025-05-12,2025-05-12,松山医事合同会社,,合同会社,静岡県,駿東郡長泉町,下土狩２６３番地の１ポレスター長泉シティコート１００１号,,22,342,4110943,,,,,,,2025-05-12,1,,,,,マツヤマイジ,0
450,2090001019252,新規,0,2025-05-12,2025-05-12,山梨学院フードサービス株式会社,,株式会社,山梨県,甲府市,酒折２丁目４番５号,,19,201,4000805,,,,,,,2025-05-12,1,,,,,ヤマナシガクインフードサービス,0
463,2120001275271,新規,0,2025-05-12,2025-05-12,安盛株式会社,,株式会社,大阪府,大阪市東成区,大今里３丁目１５番６号ＩｍａｚａｔｏＴｏｗｅｒ２０２Ａ,,27,115,5370012,,,,,,,2025-05-12,1,,,,,アンセイ,0
464,2120001275305,新規,0,2025-05-12,2025-05-12,興躍商事株式会社,,株式会社,大阪府,大阪市西成区,玉出西１丁目３－２５－３０１号室,,27,122,5570045,,,,,,,2025-05-12,1,,,,,コウヨウショウジ,0
465,2120001275354,新規,0,2025-05-12,2025-05-12,株式会社ベイ‐ｂａｅ,,株式会社,大阪府,大阪市鶴見区,今津中１丁目４番２３号,,27,124,5380042,,,,,,,2025-05-12,1,,,,,ベイ,0
466,2120001275404,新規,0,2025-05-12,2025-05-12,奥村工務店株式会社,,株式会社,大阪府,大阪市平野区,加美東１丁目９番３０－６０４号,,27,126,5470002,,,,,,,2025-05-12,1,,,,,オクムラコウムテン,0
467,2120001275437,新規,0,2025-05-12,2025-05-12,弘山株式会社,,株式会社,大阪府,大阪市中央区,南船場１丁目３番１４号ストークビル南船場１００９号室,,27,128,5420081,,,,,,,2025-05-12,1,,,,,ヒロヤマ,0
468,2120001275445,新規,0,2025-05-12,2025-05-12,株式会社ＬＵＸ,,株式会社,大阪府,大阪市天王寺区,味原町１５番３号,,27,109,5430023,,,,,,,2025-05-12,1,,,,,ラックス,0
469,2120001275461,新規,0,2025-05-12,2025-05-12,五円情報技術株式会社,,株式会社,大阪府,大阪市阿倍野区,松崎町２丁目１番２８号近鉄松崎町ビル１４号室,,27,119,5450053,,,,,,,2025-05-12,1,,,,,ゴエンジョウホウギジュツ,0
470,2120001275511,新規,0,2025-05-12,2025-05-12,安和株式会社,,株式会社,大阪府,大阪市東淀川区,北江口２丁目１０－１８レオパレスコスモス秋桜１０５号,,27,114,5330002,,,,,,,2025-05-12,1,,,,,アンワ,0
471,2120001275528,新規,0,2025-05-12,2025-05-12,ＹＡＭＡ　Ｂａｓｅ株式会社,,株式会社,大阪府,大阪市西成区,荻之茶屋二丁目６番４、１５５号,,27,122,5570000,,,,,,,2025-05-12,1,,,,,ヤマベース,0
472,2120001275536,新規,0,2025-05-12,2025-05-12,株式会社澤商,,株式会社,大阪府,大阪市西淀川区,佃３丁目７番３１号,,27,113,5550001,,,,,,,2025-05-12,1,,,,,サワショウ,0
473,2120001275552,新規,0,2025-05-12,2025-05-12,アセンド株式会社,,株式会社,大阪府,大阪市鶴見区,諸口４丁目１５番１１号,,27,124,5380051,,,,,,,2025-05-12,1,,,,,アセンド,0
474,2120001275577,新規,0,2025-05-12,2025-05-12,Ｍ＆Ｅ　Ａｓｓｅｔ　Ｍａｎａｇｅｍｅｎｔ株式会社,,株式会社,大阪府,大阪市中央区,南船場１丁目４番２３号２０１号室,,27,128,5420081,,,,,,,2025-05-12,1,,,,,エムアンドイーアセットマネジメント,0
475,2120001275585,新規,0,2025-05-12,2025-05-12,株式会社Ａ‐ｖｏｘ,,株式会社,大阪府,大阪市中央区,博労町１丁目９－８堺筋ＭＳビル８Ｆ,,27,128,5410059,,,,,,,2025-05-12,1,,,,,エーヴォックス,0
476,2120001275619,新規,0,2025-05-12,2025-05-12,ミロクノエイト株式会社,,株式会社,大阪府,大阪市阿倍野区,昭和町５丁目１０番２４号Ｒｅ：ＺＯＮＥ西田辺０１－２０８号室,,27,119,5450011,,,,,,,2025-05-12,1,,,,,ミロクノエイト,0
477,2120001275635,新規,0,2025-05-12,2025-05-12,Ａｌｐｈａ株式会社,,株式会社,大阪府,大阪市北区,堂山町１－５三共梅田ＢＬ８Ｆ,,27,127,5300027,,,,,,,2025-05-12,1,,,,,アルファ,0
478,2120001275643,新規,0,2025-05-12,2025-05-12,不去株式会社,,株式会社,大阪府,大阪市住吉区,杉本１丁目９番１６－３０５号,,27,120,5580022,,,,,,,2025-05-12,1,,,,,フキョ,0
479,2120001275676,新規,0,2025-05-12,2025-05-12,Ｌｏｓａｍ株式会社,,株式会社,大阪府,大阪市東淀川区,東中島１丁目１７番５号ステュディオ新大阪３３５号室,,27,114,5330033,,,,,,,2025-05-12,1,,,,,ローサム,0
480,2120001275684,新規,0,2025-05-12,2025-05-12,ＹＭ不動産株式会社,,株式会社,大阪府,大阪市西成区,梅南１丁目３番７号,,27,122,5570033,,,,,,,2025-05-12,1,,,,,ワイエムフドウサン,0
485,2120003029386,新規,0,2025-05-12,2025-05-12,合同会社シースリープ,,合同会社,大阪府,守口市,日吉町１丁目９‐６,,27,209,5700081,,,,,,,2025-05-12,1,,,,,シースリープ,0
491,2120101071645,新規,0,2025-05-12,2025-05-12,株式会社ＫＩＫＵＫＡＷＡ　ＥＸＰＲＥＳＳ,,株式会社,大阪府,羽曳野市,羽曳が丘９丁目１１番１４号,,27,222,5830864,,,,,,,2025-05-12,1,,,,,キクカワエクスプレス,0
492,2120101071653,新規,0,2025-05-12,2025-05-12,株式会社ＮＡ　ＴＲＡＤＩＮＧ,,株式会社,大阪府,羽曳野市,高鷲８丁目６３番地の２２,,27,222,5830882,,,,,,,2025-05-12,1,,,,,エヌエートレーディング,0
494,2120103006450,新規,0,2025-05-12,2025-05-12,合同会社にじ,,合同会社,大阪府,堺市西区,浜寺石津町西４丁２５－２１,,27,144,5928333,,,,,,,2025-05-12,1,,,,,ニジ,0
497,2120903005643,新規,0,2025-05-12,2025-05-12,合同会社ＣＬ,,合同会社,大阪府,吹田市,竹見台３丁目４－１－７０７,,27,205,5650863,,,,,,,2025-05-12,1,,,,,シーエル,0
499,2122001039210,新規,0,2025-05-12,2025-05-12,株式会社藤沢通信設備,,株式会社,大阪府,東大阪市,稲田本町２丁目１１－１２,,27,227,5770007,,,,,,,2025-05-12,1,,,,,フジサワツウシンセツビ,0
502,2130001079622,新規,0,2025-05-12,2025-05-12,株式会社山一警備保障,,株式会社,京都府,亀岡市,東つつじケ丘曙台３丁目９番５号,,26,206,6210833,,,,,,,2025-05-12,1,,,,,ヤマイチケイビホショウ,0
506,2140001138501,新規,0,2025-05-12,2025-05-12,株式会社神壱,,株式会社,兵庫県,神戸市中央区,磯辺通１丁目１番１８号カサベラ国際プラザビル７０７号室,,28,110,6510084,,,,,,,2025-05-12,1,,,,,シンイチ,0
509,2140005027502,新規,0,2025-05-12,2025-05-12,一般社団法人ＫＯＢＥ　ＰＨＯＥＮＩＸ,,その他の設立登記法人,兵庫県,神戸市兵庫区,湊川町３丁目１番６号,,28,105,6520041,,,,,,,2025-05-12,1,,,,,コウベフェニックス,0
513,2150005009697,新規,0,2025-05-12,2025-05-12,一般社団法人総合文化財研究所ミュー,,その他の設立登記法人,奈良県,奈良市,南袋町６番地１２トーマスビル２階,,29,201,6308342,,,,,,,2025-05-12,1,,,,,ソウゴウブンカザイケンキュウショミュー,0
515,2170001018626,新規,0,2025-05-12,2025-05-12,株式会社ＣＯＲＥ．,,株式会社,和歌山県,橋本市,胡麻生５５２番地,,30,203,6480066,,,,,,,2025-05-12,1,,,,,コア,0
521,2180001166630,新規,0,2025-05-12,2025-05-12,株式会社ＴＨＡＬＡＳＳＩＣ不動産,,株式会社,愛知県,名古屋市西区,樋の口町１番１５号ホーワビル２階３号,,23,104,4510034,,,,,,,2025-05-12,1,,,,,サラシックフドウサン,0
522,2180001166705,新規,0,2025-05-12,2025-05-12,株式会社Ｓｍｉｌｅ　Ｄｅｓｉｇｎ　Ｓｔｕｄｉｏ,,株式会社,愛知県,名古屋市中川区,荒子町字大門東６８番地の４,,23,110,4540861,,,,,,,2025-05-12,1,,,,,スマイルデザインスタジオ,0
523,2180001166770,新規,0,2025-05-12,2025-05-12,十番工業株式会社,,株式会社,愛知県,名古屋市中村区,太閤通９丁目２０番地公園ビル５０２号室,,23,105,4530811,,,,,,,2025-05-12,1,,,,,ジュウバンコウギョウ,0
529,2180003028432,新規,0,2025-05-12,2025-05-12,合同会社ＨＥＲＥＳＹ,,合同会社,愛知県,一宮市,西大海道字金底３２番地４３,,23,203,4910005,,,,,,,2025-05-12,1,,,,,ヘレシー,0
530,2180003028449,新規,0,2025-05-12,2025-05-12,ＧＯＯＤ‐ＳＭＩＬＥ合同会社,,合同会社,愛知県,名古屋市昭和区,滝子町２８－２０アーバン滝子２０５号,,23,107,4660053,,,,,,,2025-05-12,1,,,,,グッドスマイル,0
531,2180005021096,新規,0,2025-05-12,2025-05-12,一般社団法人ＭＥＤＵ,,その他の設立登記法人,愛知県,名古屋市千種区,城山町１丁目６０－５,,23,101,4640045,,,,,,,2025-05-12,1,,,,,メデュー,0
534,2190003005026,新規,0,2025-05-12,2025-05-12,エネ環技研合同会社,,合同会社,三重県,四日市市,楠町南五味塚９４０番地,00139094,24,202,5100104,,,,,,,2025-05-12,1,,,,,,0
535,2190003005034,新規,0,2025-05-12,2025-05-12,ＪＰＴＳ合同会社,,合同会社,三重県,四日市市,ときわ１丁目４―２２,,24,202,5100834,,,,,,,2025-05-12,1,,,,,ジャパンプラントテクノロジーサービス,0
537,2200001043728,新規,0,2025-05-12,2025-05-12,株式会社Ｄｅｌｉｇｈｔ,,株式会社,岐阜県,可児市,矢戸１４４５番地１３８,,21,214,5090252,,,,,,,2025-05-12,1,,,,,ディライト,0
538,2200001043777,新規,0,2025-05-12,2025-05-12,株式会社アイベスケア,,株式会社,岐阜県,岐阜市,茜部菱野４丁目１２９番３,,21,201,5008268,,,,,,,2025-05-12,1,,,,,アイベスケア,0
545,2230005009474,新規,0,2025-05-12,2025-05-12,一般社団法人ＰＣＥＡ連盟,,その他の設立登記法人,富山県,富山市,才覚寺７７５番地,,16,201,9398263,,,,,,,2025-05-12,1,,,,,ピーシアレンメイ,0
549,2240003007198,新規,0,2025-05-12,2025-05-12,三浦マイルド商店合同会社,,合同会社,広島県,江田島市,江田島町切串３丁目２番２７号,,34,215,7372111,,,,,,,2025-05-12,1,,,,,ミウラマイルドショウテン,0
550,2240005011900,新規,0,2025-05-12,2025-05-12,協同組合三原綜合食品卸売市場,,その他の設立登記法人,広島県,三原市,古浜２丁目１０番３９号,,34,204,7230013,,,,,,,2025-05-12,1,,,,,,0
553,2260001040174,新規,0,2025-05-12,2025-05-12,ＴＲＡＸｉＡ株式会社,,株式会社,岡山県,倉敷市,中庄２４６５番地１１,,33,202,7100016,,,,,,,2025-05-12,1,,,,,トラシア,0
554,2270001009202,新規,0,2025-05-12,2025-05-12,株式会社やまさと屋,,株式会社,鳥取県,西伯郡伯耆町,小林６９１番地５２,,31,390,6894101,,,,,,,2025-05-12,1,,,,,ヤマサトヤ,0
563,2290001109941,新規,0,2025-05-12,2025-05-12,株式会社Ｂｅ　ｐｒｏｏｆ,,株式会社,福岡県,福岡市東区,筥松２丁目１１番１０号,,40,131,8120061,,,,,,,2025-05-12,1,,,,,ビープルーフ,0
564,2290001109990,新規,0,2025-05-12,2025-05-12,株式会社清,,株式会社,福岡県,福岡市中央区,平尾１丁目８番２２－２０５号,,40,133,8100014,,,,,,,2025-05-12,1,,,,,サヤカ,0
565,2290001109999,新規,0,2025-05-12,2025-05-12,株式会社フラン,,株式会社,福岡県,福岡市中央区,六本松４丁目８番１２－１００３号,,40,133,8100044,,,,,,,2025-05-12,1,,,,,フラン,0
566,2290003016822,新規,0,2025-05-12,2025-05-12,合同会社メイ,,合同会社,福岡県,飯塚市,西徳前７番２９号,,40,205,8200031,,,,,,,2025-05-12,1,,,,,メイ,0
567,2290801031535,新規,0,2025-05-12,2025-05-12,トゥニーガミ株式会社,,株式会社,福岡県,北九州市小倉北区,浅野３丁目８番１号ＡＩＭビル６階,,40,106,8020001,,,,,,,2025-05-12,1,,,,,トゥニーガミ,0
571,2310003005013,新規,0,2025-05-12,2025-05-12,三禾合同会社,,合同会社,長崎県,長崎市,小浦町６６番地１ひまわり小浦１棟１０５号,,42,201,8500067,,,,,,,2025-05-12,1,,,,,サンワ,0
576,2330005010918,新規,0,2025-05-12,2025-05-12,医療法人繁康会,,その他の設立登記法人,熊本県,八代郡氷川町,網道２８７番地８,,43,468,8694812,,,,,,,2025-05-12,1,,,,,ハンコウカイ,0
578,2350001019515,新規,0,2025-05-12,2025-05-12,宮田工業株式会社,,株式会社,宮崎県,都城市,南鷹尾町２１街区２３号,,45,202,8850082,,,,,,,2025-05-12,1,,,,,ミヤタコウギョウ,0
582,2360001035123,新規,0,2025-05-12,2025-05-12,株式会社Ｚ‐ＵＮＩＴＥＤ,,株式会社,沖縄県,那覇市,字天久７６２番地１４クリアスビル２－Ｂ１,,47,201,9000005,,,,,,,2025-05-12,1,,,,,ゼットユナイテッド,0
583,2360001035156,新規,0,2025-05-12,2025-05-12,株式会社マリン開発,,株式会社,沖縄県,中頭郡中城村,字南上原６１７番地ヒルズ南上原６０２号,,47,328,9012424,,,,,,,2025-05-12,1,,,,,マリンカイハツ,0
584,2360001035172,新規,0,2025-05-12,2025-05-12,南北商事株式会社,,株式会社,沖縄県,豊見城市,字根差部２２９番地,,47,212,9010205,,,,,,,2025-05-12,1,,,,,ナンポクショウジ,0
586,2370001052547,新規,0,2025-05-12,2025-05-12,株式会社ＷＩＸ,,株式会社,宮城県,仙台市太白区,四郎丸字落合１１９番地,,04,104,9811101,,,,,,,2025-05-12,1,,,,,ダブルナイン,0
587,2370001052555,新規,0,2025-05-12,2025-05-12,株式会社ＬａｂｏＲｏｂｏ,,株式会社,宮城県,仙台市青葉区,荒巻字青葉４６８－１東北大学マテリアル・イノベーション・センター青葉山ガレージ,,04,101,9800845,,,,,,,2025-05-12,1,,,,,ラボロボ,0
588,2370005010955,新規,0,2025-05-12,2025-05-12,一般社団法人時事問題研究会,,その他の設立登記法人,宮城県,仙台市青葉区,一番町１丁目９番２－５０３号,,04,101,9800811,,,,,,,2025-05-12,1,,,,,ジジモンダイケンキュウカイ,0
594,2380001035294,新規,0,2025-05-12,2025-05-12,株式会社大統領,,株式会社,福島県,会津若松市,宝町３番１５号,,07,202,9650806,,,,,,,2025-05-12,1,,,,,ダイトウリョウ,0
600,2420003003105,新規,0,2025-05-12,2025-05-12,でもらめ合同会社,,合同会社,青森県,北津軽郡鶴田町,大字野木字西松虫４１,,02,384,0383532,,,,,,,2025-05-12,1,,,,,,0
601,2420003003113,新規,0,2025-05-12,2025-05-12,合同会社Ｐｕｕｐｕ　ｄｅ　Ｂｅｂｉ,,合同会社,青森県,上北郡おいらせ町,鶉久保２番地２０,,02,412,0392182,,,,,,,2025-05-12,1,,,,,プップドベビ,0
605,2430001094343,新規,0,2025-05-12,2025-05-12,恒栄土建株式会社,,株式会社,北海道,札幌市豊平区,月寒東五条１１丁目８番６号,,01,105,0620055,,,,,,,2025-05-12,1,,,,,コウエイドケン,0
606,2430001094351,新規,0,2025-05-12,2025-05-12,株式会社成進,,株式会社,北海道,札幌市東区,東雁来十条２丁目５番１号,,01,103,0070030,,,,,,,2025-05-12,1,,,,,セイシン,0
608,2430003017649,新規,0,2025-05-12,2025-05-12,合同会社エムスリーエス,,合同会社,北海道,札幌市西区,宮の沢三条４丁目１８番７号,,01,107,0630053,,,,,,,2025-05-12,1,,,,,エムスリーエス,0
614,2450001014621,新規,0,2025-05-12,2025-05-12,辰造ワークス株式会社,,株式会社,北海道,旭川市,春光台四条２丁目１番３号,,01,204,0718144,,,,,,,2025-05-12,1,,,,,,0
618,2490001011045,新規,0,2025-05-12,2025-05-12,株式会社ＮＯＢＡＳＥ,,株式会社,高知県,高知市,本町２丁目２－３１,,39,201,7800870,,,,,,,2025-05-12,1,,,,,ノーベース,0
624,3010001254806,新規,0,2025-05-12,2025-05-12,株式会社グロランジャパン,,株式会社,東京都,中央区,京橋１丁目３番２号,,13,102,1040031,,,,,,,2025-05-12,1,,,,,グロランジャパン,0
625,3010001254814,新規,0,2025-05-12,2025-05-12,株式会社清水興,,株式会社,東京都,千代田区,神田佐久間町３丁目２８星野ビル４Ｆ２３号,,13,101,1010025,,,,,,,2025-05-12,1,,,,,シミズコウ,0
626,3010003047241,新規,0,2025-05-12,2025-05-12,ＢｒｉｇｈｔＰａｔｈ合同会社,,合同会社,東京都,中央区,佃２丁目１１番６－３０９号,,13,102,1040051,,,,,,,2025-05-12,1,,,,,ブライトパス,0
627,3010003047258,新規,0,2025-05-12,2025-05-12,春山合同会社,,合同会社,東京都,中央区,勝どき２丁目９－１６勝どきハイデンス２０７室,,13,102,1040054,,,,,,,2025-05-12,1,,,,,ハルヤマ,0
633,3010401190089,新規,0,2025-05-12,2025-05-12,株式会社Ｏａｋｂｒｉｄｇｅ　Ｃｏｎｓｕｌｔｉｎｇ,,株式会社,東京都,港区,三田２丁目１－１－３０６,,13,103,1080073,,,,,,,2025-05-12,1,,,,,オークブリッジコンサルティング,0
634,3010401190097,新規,0,2025-05-12,2025-05-12,ＭａｋｉｎａＲｏｃｋｓ株式会社,,株式会社,東京都,港区,虎ノ門１丁目１７－１虎ノ門ヒルズビジネスタワー１５階,,13,103,1050001,,,,,,,2025-05-12,1,,,,,マキナロックス,0
635,3010401190114,新規,0,2025-05-12,2025-05-12,株式会社Ｒ‐ｒｅｓｏｎａｎｃｅ,,株式会社,東京都,港区,西麻布３丁目５番３３－３０２号,,13,103,1060031,,,,,,,2025-05-12,1,,,,,アールレゾナンス,0
636,3010401190155,新規,0,2025-05-12,2025-05-12,株式会社マナーコンサルティングジャパン,,株式会社,東京都,港区,南青山３丁目１番３６号青山丸竹ビル６Ｆ,,13,103,1070062,,,,,,,2025-05-12,1,,,,,マナーコンサルティングジャパン,0
637,3010401190171,新規,0,2025-05-12,2025-05-12,山下泰樹建築デザイン研究所株式会社,,株式会社,東京都,港区,南青山５丁目６番１９号,,13,103,1070062,,,,,,,2025-05-12,1,,,,,ヤマシタタイジュケンチクデザインケンキュウジョ,0
638,3010401190188,新規,0,2025-05-12,2025-05-12,ＬＳ‐Ａｖｉａｔｉｏｎ第７４号株式会社,,株式会社,東京都,港区,六本木１丁目６番１号,,13,103,1060032,,,,,,,2025-05-12,1,,,,,エルエスアビエーションダイナナジュウヨンゴウ,0
639,3010401190221,新規,0,2025-05-12,2025-05-12,ＮＭＴ株式会社,,株式会社,東京都,港区,六本木６丁目１０番１号六本木ヒルズ森タワー２３階,,13,103,1060032,,,,,,,2025-05-12,1,,,,,エヌエムティー,0
640,3010401190238,新規,0,2025-05-12,2025-05-12,株式会社リミックスポイント電力事業分割準備会社,,株式会社,東京都,港区,虎ノ門４丁目３番９号,,13,103,1050001,,,,,,,2025-05-12,1,,,,,リミックスポイントデンリョクジギョウブンカツジュンビガイシャ,0
641,3010401190270,新規,0,2025-05-12,2025-05-12,株式会社Ｓｅｖｅｎ　Ｓｅａｓ,,株式会社,東京都,港区,芝４丁目１－２３三田ＮＮビル１５Ｆ,,13,103,1080014,,,,,,,2025-05-12,1,,,,,セブンシーズ,0
642,3010401190279,新規,0,2025-05-12,2025-05-12,株式会社ＴＣＮ,,株式会社,東京都,港区,高輪４丁目２３番６号ハイホーム高輪７０８,,13,103,1080074,,,,,,,2025-05-12,1,,,,,ティーシーエヌ,0
646,3010403035052,新規,0,2025-05-12,2025-05-12,ＡｎｄＯｎｅ合同会社,,合同会社,東京都,港区,北青山１丁目３番３号三橋ビル３階,,13,103,1070061,,,,,,,2025-05-12,1,,,,,アンドワン,0
647,3010403035060,新規,0,2025-05-12,2025-05-12,合同会社フォレスト,,合同会社,東京都,港区,新橋２丁目８番１号ＭＯＭ１１Ｆ,,13,103,1050004,,,,,,,2025-05-12,1,,,,,フォレスト,0
648,3010403035069,新規,0,2025-05-12,2025-05-12,合同会社カーリー,,合同会社,東京都,港区,北青山１丁目３番１号アールキューブ青山３階,,13,103,1070061,,,,,,,2025-05-12,1,,,,,カーリー,0
649,3010403035085,新規,0,2025-05-12,2025-05-12,合同会社旅のしおり,,合同会社,東京都,港区,新橋４丁目１４番１新橋ＡＵＮＢＬＤＧ４階,,13,103,1050004,,,,,,,2025-05-12,1,,,,,タビノシオリ,0
651,3010603011547,新規,0,2025-05-12,2025-05-12,フジアセット合同会社,,合同会社,東京都,江東区,扇橋１丁目２番１５号,,13,108,1350011,,,,,,,2025-05-12,1,,,,,フジアセット,0
653,3010903009910,新規,0,2025-05-12,2025-05-12,合同会社ＺｅｎＣｈａｉｎ,,合同会社,東京都,世田谷区,太子堂２丁目３５番１－３０４号,,13,112,1540004,,,,,,,2025-05-12,1,,,,,ゼンチェイン,0
658,3011001169309,新規,0,2025-05-12,2025-05-12,株式会社Ｔ‐ＳＴＡ,,株式会社,東京都,渋谷区,渋谷２丁目６番８－６０１号,,13,113,1500002,,,,,,,2025-05-12,1,,,,,ティースタ,0
659,3011001169762,新規,0,2025-05-12,2025-05-12,株式会社ＩＥ,,株式会社,東京都,渋谷区,代官山町８－７ＤＡＩＷＡ代官山ビル２０７,,13,113,1500034,,,,,,,2025-05-12,1,,,,,アイイー,0
660,3011003021525,新規,0,2025-05-12,2025-05-12,ＹＹコーポレーション合同会社,,合同会社,東京都,渋谷区,元代々木町２４番１０号,,13,113,1510062,,,,,,,2025-05-12,1,,,,,ワイワイコーポレーション,0
664,3011103015856,新規,0,2025-05-12,2025-05-12,セントラルミュージック合同会社,,合同会社,東京都,新宿区,新宿２丁目１２番１３号新宿アントレサロンビル２階,,13,104,1600022,,,,,,,2025-05-12,1,,,,,セントラルミュージック,0
667,3011201026342,新規,0,2025-05-12,2025-05-12,株式会社ＰＯＫＥＴＴＯ,,株式会社,東京都,中野区,中央１丁目１３番１０－９０２,,13,114,1640011,,,,,,,2025-05-12,1,,,,,ポケット,0
670,3011601028624,新規,0,2025-05-12,2025-05-12,エアロプラス株式会社,,株式会社,東京都,練馬区,石神井町２丁目１７番１１－２０２号,,13,120,1770041,,,,,,,2025-05-12,1,,,,,エアロプラス,0
671,3011603004706,新規,0,2025-05-12,2025-05-12,ＩＫＷ合同会社,,合同会社,東京都,練馬区,関町南２丁目２番６－５０７号,,13,120,1770053,,,,,,,2025-05-12,1,,,,,アイケーダブリュー,0
672,3011801046104,新規,0,2025-05-12,2025-05-12,株式会社ＫＴＡ,,株式会社,東京都,葛飾区,堀切６丁目７番５号,,13,122,1240006,,,,,,,2025-05-12,1,,,,,ケーティーエー,0
685,3020001162693,新規,0,2025-05-12,2025-05-12,株式会社Ｊａｐａｎ　Ｔｒａｄｉｎｇ,,株式会社,神奈川県,横浜市港北区,篠原東１丁目９番２１号,,14,109,2220022,,,,,,,2025-05-12,1,,,,,ジャパントレーディング,0
686,3020001162702,新規,0,2025-05-12,2025-05-12,株式会社アール,,株式会社,神奈川県,川崎市宮前区,西野川２丁目４番１５号,,14,136,2160044,,,,,,,2025-05-12,1,,,,,アール,0
687,3020001162710,新規,0,2025-05-12,2025-05-12,株式会社ＲＥＧＯＬＩＴＨ,,株式会社,神奈川県,横浜市港北区,新吉田町３４２８番地１２,,14,109,2230056,,,,,,,2025-05-12,1,,,,,レゴリス,0
688,3020001162776,新規,0,2025-05-12,2025-05-12,株式会社ベイサイドクラフター,,株式会社,神奈川県,横浜市保土ケ谷区,上菅田町５９１番地３６,,14,106,2400051,,,,,,,2025-05-12,1,,,,,ベイサイドクラフター,0
695,3020003028455,新規,0,2025-05-12,2025-05-12,ＴＨＹＨ合同会社,,合同会社,神奈川県,川崎市麻生区,はるひ野５丁目１６番１３号,,14,137,2150036,,,,,,,2025-05-12,1,,,,,ティーエイチワイエイチ,0
697,3020005016838,新規,0,2025-05-12,2025-05-12,一般社団法人ＡＩＷＡＹ,,その他の設立登記法人,神奈川県,横浜市中区,桜木町１丁目１０１－１クロスゲート７階,,14,104,2310062,,,,,,,2025-05-12,1,,,,,アイウェイ,0
698,3021001085182,新規,0,2025-05-12,2025-05-12,ＡＩシズルラボ株式会社,,株式会社,神奈川県,藤沢市,本藤沢２丁目７番７～４０６号,,14,205,2510875,,,,,,,2025-05-12,1,,,,,エーアイシズルラボ,0
699,3021001085216,新規,0,2025-05-12,2025-05-12,株式会社Ｔ‐Ｐａｉｎｔ,,株式会社,神奈川県,厚木市,山際６２３番地１コスモ白井ＩＩＩ２０３,00139098,14,212,2430803,,,,,,,2025-05-12,1,,,,,ティーパイント,0
701,3021003015955,新規,0,2025-05-12,2025-05-12,ＤＩＮＯ合同会社,,合同会社,神奈川県,相模原市中央区,宮下２丁目２２－１５いっこくかん２０３,,14,152,2520212,,,,,,,2025-05-12,1,,,,,ディノ,0
702,3021003015971,新規,0,2025-05-12,2025-05-12,合同会社ＴＯＰ　ＬＩＦＥ,,合同会社,神奈川県,横須賀市,岩戸１丁目１番５号インターハイツＡ１０３,,14,201,2390844,,,,,,,2025-05-12,1,,,,,トップライフ,0
706,3030001166388,新規,0,2025-05-12,2025-05-12,株式会社栄泉,,株式会社,埼玉県,北葛飾郡松伏町,田中３丁目２２番地３２,,11,465,3430117,,,,,,,2025-05-12,1,,,,,エイセン,0
707,3030001166479,新規,0,2025-05-12,2025-05-12,株式会社ＭＭＫ,,株式会社,埼玉県,比企郡滑川町,大字福田３０６番地２,,11,341,3550803,,,,,,,2025-05-12,1,,,,,エムエムケイ,0
708,3030001166487,新規,0,2025-05-12,2025-05-12,ＱｕｅｒｙＬｉｆｔ株式会社,,株式会社,埼玉県,川口市,長蔵３丁目８番１０号,,11,203,3330807,,,,,,,2025-05-12,1,,,,,クエリリフト,0
709,3030001166495,新規,0,2025-05-12,2025-05-12,ＮＡＺＩＲ　ＴＲＡＤＩＮＧ株式会社,,株式会社,埼玉県,大里郡寄居町,大字末野７０９番地１,,11,408,3691205,,,,,,,2025-05-12,1,,,,,ナジルトレーディング,0
710,3030001166504,新規,0,2025-05-12,2025-05-12,株式会社五五企画,,株式会社,埼玉県,さいたま市大宮区,三橋１丁目３０７番地３,,11,103,3300856,,,,,,,2025-05-12,1,,,,,ゴゴキカク,0
714,3030003026714,新規,0,2025-05-12,2025-05-12,合同会社ＮｅＦｉＡ,,合同会社,埼玉県,本庄市,栄２丁目１１番２４号,,11,211,3670046,,,,,,,2025-05-12,1,,,,,ネフィア,0
715,3030003026739,新規,0,2025-05-12,2025-05-12,合同会社ヒカワホースクラブ,,合同会社,埼玉県,さいたま市大宮区,高鼻町１丁目４９番地明和マンション３０１号,,11,103,3300803,,,,,,,2025-05-12,1,,,,,ヒカワホースクラブ,0
716,3030003026755,新規,0,2025-05-12,2025-05-12,合同会社Ｃｈｉｍａｋｉ,,合同会社,埼玉県,越谷市,越ヶ谷１丁目１１番３０号有瀧ビル１０２号,,11,222,3430813,,,,,,,2025-05-12,1,,,,,チマキ,0
724,3040001138510,新規,0,2025-05-12,2025-05-12,Ｇｌｏｂａｌ　Ｔｒａｄｅ　Ｊａｐａｎ株式会社,,株式会社,千葉県,木更津市,中里２丁目８－５,,12,206,2920064,,,,,,,2025-05-12,1,,,,,グローバルトレードジャパン,0
725,3040001138634,新規,0,2025-05-12,2025-05-12,株式会社ＷＡＢＯ,,株式会社,千葉県,市川市,北国分３丁目１６－１６,,12,203,2720836,,,,,,,2025-05-12,1,,,,,ワボ,0
726,3040001138650,新規,0,2025-05-12,2025-05-12,株式会社ＭＫＳ,,株式会社,千葉県,船橋市,浜町２丁目３番３５－１５１１号,,12,204,2730012,,,,,,,2025-05-12,1,,,,,エムケーエス,0
727,3040001138659,新規,0,2025-05-12,2025-05-12,株式会社シーネクサス,,株式会社,千葉県,柏市,小青田５丁目１番地７パークホームズ柏たなか１３１６号,,12,217,2770803,,,,,,,2025-05-12,1,,,,,シーネクサス,0
728,3040001138675,新規,0,2025-05-12,2025-05-12,株式会社光英,,株式会社,千葉県,山武市,戸田５５７番地２３,,12,237,2891204,,,,,,,2025-05-12,1,,,,,コウエイ,0
729,3040001138683,新規,0,2025-05-12,2025-05-12,株式会社ｔｅｑ．,,株式会社,千葉県,船橋市,本中山２丁目１４番１３号ＳＴコア２０１,,12,204,2730035,,,,,,,2025-05-12,1,,,,,テクドット,0
730,3040001138709,新規,0,2025-05-12,2025-05-12,株式会社ｔｅｔｅ　ａｎｄ．,,株式会社,千葉県,山武郡九十九里町,田中荒生２０番地１,,12,403,2830103,,,,,,,2025-05-12,1,,,,,テテアンド,0
736,3050001056637,新規,0,2025-05-12,2025-05-12,ＯＫホールディングス株式会社,,株式会社,茨城県,古河市,東山田１５３５番地,,08,204,3060112,,,,,,,2025-05-12,1,,,,,オーケーホールディングス,0
737,3050001056661,新規,0,2025-05-12,2025-05-12,株式会社Ａｌｌ　ｍｉｇｈｔ,,株式会社,茨城県,常総市,水海道山田町４７９４番地３,,08,211,3030031,,,,,,,2025-05-12,1,,,,,オールマイト,0
758,3100001038596,新規,0,2025-05-12,2025-05-12,株式会社ＹＳトータルメンテナンス,,株式会社,長野県,塩尻市,大字広丘吉田１１１５番地３,,20,215,3990701,,,,,,,2025-05-12,1,,,,,ワイエストータルメンテナンス,0
775,3120001275312,新規,0,2025-05-12,2025-05-12,株式会社アカンパニー,,株式会社,大阪府,大阪市東成区,深江南１丁目３番２７号,,27,115,5370002,,,,,,,2025-05-12,1,,,,,アカンパニー,0
776,3120001275353,新規,0,2025-05-12,2025-05-12,株式会社Ｌｏｔｕｓ,,株式会社,大阪府,大阪市東淀川区,小松１丁目９番２１号,,27,114,5330004,,,,,,,2025-05-12,1,,,,,ロータス,0
777,3120001275394,新規,0,2025-05-12,2025-05-12,株式会社カノン,,株式会社,大阪府,大阪市北区,西天満１丁目２番２５号ＳＱＵＡＲＥ北浜５０１,,27,127,5300047,,,,,,,2025-05-12,1,,,,,カノン,0
778,3120001275403,新規,0,2025-05-12,2025-05-12,株式会社Ｇａｔｅ４３,,株式会社,大阪府,大阪市天王寺区,勝山２丁目２０番２－５０３号,,27,109,5430043,,,,,,,2025-05-12,1,,,,,ゲートヨンジュウサン,0
779,3120001275411,新規,0,2025-05-12,2025-05-12,捷隆株式会社,,株式会社,大阪府,大阪市大正区,三軒家西３丁目４番１６号中山ビル１０２６,,27,108,5510001,,,,,,,2025-05-12,1,,,,,ショウリュウ,0
780,3120001275428,新規,0,2025-05-12,2025-05-12,瑞豊株式会社,,株式会社,大阪府,大阪市西区,立売堀１丁目６－１３南本町天祥ビル２号館４１０号室,,27,106,5500012,,,,,,,2025-05-12,1,,,,,ズイホウ,0
781,3120001275469,新規,0,2025-05-12,2025-05-12,大成国金株式会社,,株式会社,大阪府,大阪市中央区,本町３丁目３－９－９Ｆ,,27,128,5410053,,,,,,,2025-05-12,1,,,,,タイセイコッキン,0
782,3120001275493,新規,0,2025-05-12,2025-05-12,ＩＳＨＩＮ株式会社,,株式会社,大阪府,大阪市淀川区,十三本町１丁目２１番３２号４０１,,27,123,5320024,,,,,,,2025-05-12,1,,,,,イシン,0
783,3120001275510,新規,0,2025-05-12,2025-05-12,森宇株式会社,,株式会社,大阪府,大阪市住吉区,大領５丁目２番２４号サンフラワー大領４０２号室,,27,120,5580001,,,,,,,2025-05-12,1,,,,,シンウ,0
784,3120001275519,新規,0,2025-05-12,2025-05-12,株式会社ＰＥＴＡ　Ｔｒａｄｉｎｇ,,株式会社,大阪府,大阪市浪速区,稲荷１丁目９番２７－２０６号,,27,111,5560023,,,,,,,2025-05-12,1,,,,,ペタトレーディング,0
785,3120001275527,新規,0,2025-05-12,2025-05-12,株式会社ＡＬＢＡＲＩＳＥ,,株式会社,大阪府,枚方市,東山２丁目６番地の１８,,27,210,5731114,,,,,,,2025-05-12,1,,,,,アルバライズ,0
786,3120001275568,新規,0,2025-05-12,2025-05-12,株式会社スリーグループ,,株式会社,大阪府,大阪市鶴見区,横堤４丁目１３番３３号,,27,124,5380052,,,,,,,2025-05-12,1,,,,,スリーグループ,0
787,3120001275576,新規,0,2025-05-12,2025-05-12,山風株式会社,,株式会社,大阪府,大阪市都島区,善源寺町１丁目５番２１号－１０１号,,27,102,5340015,,,,,,,2025-05-12,1,,,,,サンプウ,0
788,3120001275659,新規,0,2025-05-12,2025-05-12,Ｌ＆Ｒ株式会社,,株式会社,大阪府,大阪市此花区,高見３丁目１７番６号,,27,104,5540001,,,,,,,2025-05-12,1,,,,,エルアンドアール,0
789,3120001275683,新規,0,2025-05-12,2025-05-12,株式会社ＮｅｏＧｒｏｗ,,株式会社,大阪府,大阪市北区,神山町１０番３－２０１号,,27,127,5300026,,,,,,,2025-05-12,1,,,,,ネオグロー,0
793,3120003029336,新規,0,2025-05-12,2025-05-12,ｃｅｆｉｔ合同会社,,合同会社,大阪府,大阪市西区,南堀江２丁目１３－２６,,27,106,5500015,,,,,,,2025-05-12,1,,,,,セフィット,0
794,3120003029344,新規,0,2025-05-12,2025-05-12,合同会社中山推進,,合同会社,大阪府,大阪市東住吉区,矢田７丁目３番８号,,27,121,5460023,,,,,,,2025-05-12,1,,,,,ナカヤマスイシン,0
795,3120003029369,新規,0,2025-05-12,2025-05-12,青山合同会社,,合同会社,大阪府,大阪市西成区,萩之茶屋１丁目１２番７号万葉ビル７号室,,27,122,5570004,,,,,,,2025-05-12,1,,,,,アオヤマ,0
796,3120003029402,新規,0,2025-05-12,2025-05-12,維心合同会社,,合同会社,大阪府,大阪市淀川区,西宮原１丁目７番１５号ネオハイツ第３新大阪５０６号室,,27,123,5320004,,,,,,,2025-05-12,1,,,,,イシン,0
801,3120101071603,新規,0,2025-05-12,2025-05-12,株式会社ＮＡＮＯＨＡ,,株式会社,大阪府,堺市東区,日置荘北町３丁９番２３号,,27,143,5998111,,,,,,,2025-05-12,1,,,,,ナノハ,0
802,3120101071652,新規,0,2025-05-12,2025-05-12,株式会社お家屋本店,,株式会社,大阪府,堺市堺区,榎元町１丁１－４,,27,141,5900027,,,,,,,2025-05-12,1,,,,,オウチヤホンテン,0
808,3120901050822,新規,0,2025-05-12,2025-05-12,株式会社Ｒａｔｅｌ　ｓｅｃｕｒｉｔｙ,,株式会社,大阪府,豊中市,庄内東町２丁目７番１７－４１４号,,27,203,5610831,,,,,,,2025-05-12,1,,,,,ラーテルセキュリティ,0
809,3120901050830,新規,0,2025-05-12,2025-05-12,株式会社ＬＥＡＦ,,株式会社,大阪府,吹田市,江坂町１丁目２３番１９号米澤ビル第五江坂７０５号室,,27,205,5640063,,,,,,,2025-05-12,1,,,,,リーフ,0
810,3120903005650,新規,0,2025-05-12,2025-05-12,合同会社アデレイドエステート,,合同会社,大阪府,高槻市,芝谷町３２番１６号,,27,207,5691025,,,,,,,2025-05-12,1,,,,,アデレイドエステート,0
819,3140001138467,新規,0,2025-05-12,2025-05-12,誠真エンジニアリング株式会社,,株式会社,兵庫県,姫路市,飾磨区英賀西町１丁目１８番地,,28,201,6728088,,,,,,,2025-05-12,1,,,,,セイシンエンジニアリング,0
820,3140001138475,新規,0,2025-05-12,2025-05-12,株式会社阪神基礎機械,,株式会社,兵庫県,尼崎市,築地２丁目８番５号,,28,202,6600858,,,,,,,2025-05-12,1,,,,,ハンシンキソキカイ,0
821,3140003022025,新規,0,2025-05-12,2025-05-12,合同会社ｓｐｏｓ．ｊｐ,,合同会社,兵庫県,神戸市灘区,篠原中町６丁目５－２１－１０４,,28,102,6570066,,,,,,,2025-05-12,1,,,,,エスポスドットジェイピー,0
822,3140003022033,新規,0,2025-05-12,2025-05-12,合同会社Ｒ・Ｙ,,合同会社,兵庫県,芦屋市,西山町１０－１２Ｂａｉｌｅｙ－Ａ２０１,,28,206,6590083,,,,,,,2025-05-12,1,,,,,,0
829,3160001026752,新規,0,2025-05-12,2025-05-12,遊楽ダイニング株式会社,,株式会社,滋賀県,大津市,大萱１丁目１３番１３号（２０２）,,25,201,5202144,,,,,,,2025-05-12,1,,,,,ユウラクダイニング,0
833,3180001166571,新規,0,2025-05-12,2025-05-12,株式会社ケア・ソレイユ,,株式会社,愛知県,小牧市,大字文津字池田２２４番地５,,23,219,4850827,,,,,,,2025-05-12,1,,,,,ケアソレイユ,0
834,3180001166753,新規,0,2025-05-12,2025-05-12,ヤヴズ株式会社,,株式会社,愛知県,名古屋市天白区,平針５丁目２１０番地ユニーブル平針３０２,,23,116,4680011,,,,,,,2025-05-12,1,,,,,ヤヴズ,0
837,3180003028456,新規,0,2025-05-12,2025-05-12,たえちゃんファミリー合同会社,,合同会社,愛知県,名古屋市緑区,上旭１丁目３０１番地の２,,23,114,4580016,,,,,,,2025-05-12,1,,,,,タエチャンファミリー,0
839,3190001032211,新規,0,2025-05-12,2025-05-12,Ｆｏｒｅｓｔ　Ｆｉｅｌｄ株式会社,,株式会社,三重県,桑名市,大字友村１２６７番地,,24,205,5110938,,,,,,,2025-05-12,1,,,,,フォレストフィールド,0
844,3200001043751,新規,0,2025-05-12,2025-05-12,株式会社ＥＮＫＵＵＵ,,株式会社,岐阜県,郡上市,美並町大原２７０９番地,,21,219,5014107,,,,,,,2025-05-12,1,,,,,エンクウ,0
852,3240001064934,新規,0,2025-05-12,2025-05-12,株式会社メセナ,,株式会社,広島県,広島市西区,中広町３丁目６番９号,,34,104,7330012,,,,,,,2025-05-12,1,,,,,メセナ,0
868,3290001109998,新規,0,2025-05-12,2025-05-12,株式会社ケイジェイウィズ,,株式会社,福岡県,福岡市博多区,千代４丁目２９－４９－３０５号,,40,132,8120044,,,,,,,2025-05-12,1,,,,,ケイジェイウィズ,0
870,3290801031534,新規,0,2025-05-12,2025-05-12,株式会社共栄,,株式会社,福岡県,北九州市門司区,浜町１０番７－２０３号,,40,101,8010856,,,,,,,2025-05-12,1,,,,,キョウエイ,0
871,3290803005049,新規,0,2025-05-12,2025-05-12,合同会社エタニティー,,合同会社,福岡県,北九州市小倉南区,長尾５丁目４番１８号（１０２）,,40,107,8030274,,,,,,,2025-05-12,1,,,,,エタニティー,0
876,3310003005012,新規,0,2025-05-12,2025-05-12,新興置業合同会社,,合同会社,長崎県,長崎市,小浦町６６番地１ひまわり小浦１棟４０２号,,42,201,8500067,,,,,,,2025-05-12,1,,,,,シンコウチギョウ,0
877,3320001021092,新規,0,2025-05-12,2025-05-12,株式会社Ｔｕｌｕ,,株式会社,大分県,大分市,萩原２丁目９番２０号,,44,201,8700921,,,,,,,2025-05-12,1,,,,,トゥール,0
878,3330001005524,新規,0,2025-05-12,2025-05-12,株式会社藤田興産,,株式会社,熊本県,熊本市中央区,帯山４丁目１３番２７号,,43,101,8620924,,,,,,,2025-05-12,1,,,,,フジタコウサン,0
880,3330001033186,新規,0,2025-05-12,2025-05-12,株式会社スギモトエナジー,,株式会社,熊本県,宇城市,豊野町巣林５３８番地,,43,213,8614307,,,,,,,2025-05-12,1,,,,,スギモトエナジー,0
883,3330003011000,新規,0,2025-05-12,2025-05-12,合同会社ＴＡＭＩＹ,,合同会社,熊本県,熊本市北区,武蔵ケ丘７丁目４番２８号,,43,105,8618001,,,,,,,2025-05-12,1,,,,,タミー,0
884,3330003011009,新規,0,2025-05-12,2025-05-12,合同会社ｎａｖｉｇｕｅｒ,,合同会社,熊本県,熊本市中央区,新屋敷１丁目４－３５クロススクエア熊本九品寺６Ｆ－Ｂ号室,,43,101,8620975,,,,,,,2025-05-12,1,,,,,ナヴィゲ,0
885,3330005010917,新規,0,2025-05-12,2025-05-12,一般社団法人ミライオミテ,,その他の設立登記法人,熊本県,熊本市中央区,水前寺６丁目４７番２３号,,43,101,8620950,,,,,,,2025-05-12,1,,,,,ミライオミテ,0
886,3340005009867,新規,0,2025-05-12,2025-05-12,労働者協同組合こだち,,その他の設立登記法人,鹿児島県,曽於郡大崎町,岡別府３６６番地１,,46,468,8997308,,,,,,,2025-05-12,1,,,,,コダチ,0
892,3360001035139,新規,0,2025-05-12,2025-05-12,株式会社上がるだけ,,株式会社,沖縄県,那覇市,字与儀１１４・１Ｆ,,47,201,9020076,,,,,,,2025-05-12,1,,,,,アガルダケ,0
895,3360003014875,新規,0,2025-05-12,2025-05-12,合同会社ＦＭＦ,,合同会社,沖縄県,那覇市,首里石嶺町４丁目４３６－８,,47,201,9030804,,,,,,,2025-05-12,1,,,,,エフエムエフ,0
896,3360003014909,新規,0,2025-05-12,2025-05-12,合同会社寿舞樹,,合同会社,沖縄県,石垣市,字大浜１１１番地５,,47,207,9070001,,,,,,,2025-05-12,1,,,,,コトブキ,0
913,3380001035285,新規,0,2025-05-12,2025-05-12,アグリパワー株式会社,,株式会社,福島県,河沼郡湯川村,大字笈川字舘４４番地５,,07,422,9693543,,,,,,,2025-05-12,1,,,,,アグリパワー,0
914,3380001035293,新規,0,2025-05-12,2025-05-12,株式会社Ｂｌｕｅ　Ｌｅａｆ,,株式会社,福島県,会津若松市,天神町１２番１２号,,07,202,9650832,,,,,,,2025-05-12,1,,,,,ブルーリーフ,0
917,3380005012966,新規,0,2025-05-12,2025-05-12,特定非営利活動法人みんなハウス,,その他の設立登記法人,福島県,いわき市,平字菱川町１番地の３,,07,204,9708026,,,,,,,2025-05-12,1,,,,,ミンナハウス,0
919,3390001017984,新規,0,2025-05-12,2025-05-12,三芝工業承継準備株式会社,,株式会社,山形県,天童市,大字蔵増字長沼４２５２番地３,,06,210,9940075,,,,,,,2025-05-12,1,,,,,ミシバコウギョウショウケイジュンビ,0
920,3400001017033,新規,0,2025-05-12,2025-05-12,ＮＰホーム株式会社,,株式会社,岩手県,奥州市,水沢字西町４番２６号,,03,215,0230816,,,,,,,2025-05-12,1,,,,,エヌピーホーム,0
922,3400003003452,新規,0,2025-05-12,2025-05-12,合同会社ダブルエイチ,,合同会社,岩手県,盛岡市,上厨川字前潟１２６番地１７,,03,201,0200143,,,,,,,2025-05-12,1,,,,,ダブルエイチ,0
935,3430001094326,新規,0,2025-05-12,2025-05-12,Ａｇａｐｅ株式会社,,株式会社,北海道,札幌市豊平区,平岸一条１丁目４番４号,,01,105,0620931,,,,,,,2025-05-12,1,,,,,アガペ,0
936,3430001094350,新規,0,2025-05-12,2025-05-12,株式会社ＱＲＥＥＤ,,株式会社,北海道,岩内郡岩内町,字大浜１８番地１０,,01,402,0450001,,,,,,,2025-05-12,1,,,,,クリード,0
939,3430003017623,新規,0,2025-05-12,2025-05-12,合同会社三光グループ,,合同会社,北海道,札幌市中央区,南七条西４丁目４２４番地１２すすきのサンプラザビル９０９号室,,01,101,0640807,,,,,,,2025-05-12,1,,,,,サンコーグループ,0
940,3430003017631,新規,0,2025-05-12,2025-05-12,合同会社ＤＥＵＣＥ,,合同会社,北海道,登別市,若山町３丁目２９番地８,,01,230,0590026,,,,,,,2025-05-12,1,,,,,デュース,0
941,3450001014620,新規,0,2025-05-12,2025-05-12,株式会社中川運送,,株式会社,北海道,旭川市,豊岡十条１１丁目４番５号,,01,204,0788240,,,,,,,2025-05-12,1,,,,,ナカガワウンソウ,0
948,4010003047273,新規,0,2025-05-12,2025-05-12,Ｓｔｒａ．ｙ合同会社,,合同会社,東京都,中央区,銀座１丁目１２番４号Ｎ＆Ｅ・ＢＬＤ．６Ｆ,,13,102,1040061,,,,,,,2025-05-12,1,,,,,ストレイ,0
951,4010005040012,新規,0,2025-05-12,2025-05-12,一般社団法人オトナリ,,その他の設立登記法人,東京都,千代田区,神田神保町２丁目４８－２Ｆ,,13,101,1010051,,,,,,,2025-05-12,1,,,,,オトナリ,0
957,4010401189997,新規,0,2025-05-12,2025-05-12,株式会社四方パートナーズ,,株式会社,東京都,港区,港南２丁目１６番７－３１１２号,,13,103,1080075,,,,,,,2025-05-12,1,,,,,ヨモパートナーズ,0
958,4010401190138,新規,0,2025-05-12,2025-05-12,予防メディカル株式会社,,株式会社,東京都,港区,芝浦３丁目１９番１９号,,13,103,1080023,,,,,,,2025-05-12,1,,,,,ヨボウメディカル,0
959,4010401190170,新規,0,2025-05-12,2025-05-12,株式会社つたワークス,,株式会社,東京都,港区,北青山１丁目３番１号アールキューブ青山３階,,13,103,1070061,,,,,,,2025-05-12,1,,,,,ツタワークス,0
960,4010401190220,新規,0,2025-05-12,2025-05-12,ＫＫＨ株式会社,,株式会社,東京都,港区,六本木６丁目１０番１号六本木ヒルズ森タワー２３階,,13,103,1060032,,,,,,,2025-05-12,1,,,,,ケーケーエイチ,0
962,4010405024317,新規,0,2025-05-12,2025-05-12,一般社団法人アーユルヴェーダ・ライフスタイル・ジャパン,,その他の設立登記法人,東京都,港区,南青山５丁目１３番２号,,13,103,1070062,,,,,,,2025-05-12,1,,,,,アーユルヴェーダライフスタイルジャパン,0
967,4010503007834,新規,0,2025-05-12,2025-05-12,合同会社ＣｌｅａｎＸ,,合同会社,東京都,台東区,根岸３丁目１４－１１－８０２,,13,106,1100003,,,,,,,2025-05-12,1,,,,,クリーンエックス,0
971,4010605004457,新規,0,2025-05-12,2025-05-12,税理士法人Ｋｉｎｃｅｒｅ,,その他の設立登記法人,東京都,墨田区,錦糸４丁目１３番３号パークサイド３１－２階,,13,107,1300013,,,,,,,2025-05-12,1,,,,,キンシア,0
972,4010701047665,新規,0,2025-05-12,2025-05-12,株式会社愛住ホテルマネジメント,,株式会社,東京都,品川区,大崎３丁目６番１１号,,13,109,1410032,,,,,,,2025-05-12,1,,,,,アイジュウホテルマネジメント,0
973,4010901057290,新規,0,2025-05-12,2025-05-12,株式会社レティキュア,,株式会社,東京都,世田谷区,喜多見３丁目１５番２８号,,13,112,1570067,,,,,,,2025-05-12,1,,,,,レティキュア,0
974,4010901057316,新規,0,2025-05-12,2025-05-12,Ｋｏ＆Ｃｏ．株式会社,,株式会社,東京都,世田谷区,下馬１丁目２２番３号,,13,112,1540002,,,,,,,2025-05-12,1,,,,,コーアンドコー,0
979,4011001169299,新規,0,2025-05-12,2025-05-12,株式会社ＫａｗａｉｉＭｉｒａｉｅ,,株式会社,東京都,渋谷区,千駄ヶ谷４丁目４番４号,,13,113,1510051,,,,,,,2025-05-12,1,,,,,カワイイミライエ,0
980,4011001169316,新規,0,2025-05-12,2025-05-12,株式会社三ツ星計画,,株式会社,東京都,渋谷区,笹塚１丁目４８－１９－４０２,,13,113,1510073,,,,,,,2025-05-12,1,,,,,ミツボシケイカク,0
981,4011001169324,新規,0,2025-05-12,2025-05-12,株式会社Ｎｏｃｔｈｅｒａ,,株式会社,東京都,渋谷区,道玄坂１丁目１０番８号渋谷道玄坂東急ビル２Ｆ－Ｃ,,13,113,1500043,,,,,,,2025-05-12,1,,,,,ノクセラ,0
987,4011101111631,新規,0,2025-05-12,2025-05-12,株式会社ｗａｌｋｓ,,株式会社,東京都,新宿区,西新宿３丁目３番地１３号西新宿水間ビル２Ｆ,,13,104,1600023,,,,,,,2025-05-12,1,,,,,ウォークス,0
988,4011101111680,新規,0,2025-05-12,2025-05-12,アーキペラゴ日本株式会社,,株式会社,東京都,新宿区,高田馬場３丁目２番１４号天翔高田馬場ビル３階３１２号室,,13,104,1690075,,,,,,,2025-05-12,1,,,,,アーキペラゴニッポン,0
990,4011103015871,新規,0,2025-05-12,2025-05-12,絹脇合同会社,,合同会社,東京都,新宿区,若宮町３８番地１レジェンドヒルズ市ヶ谷若宮町１０５,,13,104,1620827,,,,,,,2025-05-12,1,,,,,キヌワキ,0
992,4011201026341,新規,0,2025-05-12,2025-05-12,株式会社バウム・ユー,,株式会社,東京都,中野区,若宮２丁目５番１９号ファミールＫ２０２,,13,114,1650033,,,,,,,2025-05-12,1,,,,,バウムユー,0
993,4011203004691,新規,0,2025-05-12,2025-05-12,ノアズアーク合同会社,,合同会社,東京都,中野区,上鷺宮１丁目２２番３号シエスタ上鷺宮１０３,,13,114,1650031,,,,,,,2025-05-12,1,,,,,ノアズアーク,0
999,4011501032048,新規,0,2025-05-12,2025-05-12,株式会社美容堂,,株式会社,東京都,荒川区,西日暮里２丁目７－３－３０１,,13,118,1160013,,,,,,,2025-05-12,1,,,,,ビヨウドウ,0
1000,4011502006752,新規,0,2025-05-12,2025-05-12,有限会社章商事,,有限会社,東京都,荒川区,西日暮里２丁目２５番１－３９０２号,,13,118,1160013,,,,,,,2025-05-12,1,,,,,アキラショウジ,0
1005,4011701028325,新規,0,2025-05-12,2025-05-12,株式会社ＡＴＴＲＡＣＴ,,株式会社,東京都,江戸川区,北篠崎２丁目３番１０号メープルコートＣ棟,,13,123,1330053,,,,,,,2025-05-12,1,,,,,アトラクト,0
1006,4011703004225,新規,0,2025-05-12,2025-05-12,合同会社ＵＲＤ,,合同会社,東京都,江戸川区,船堀５丁目２番２２号グローリオレジデンス船堀５０１号室,,13,123,1340091,,,,,,,2025-05-12,1,,,,,ウルド,0
1008,4011803006848,新規,0,2025-05-12,2025-05-12,合同会社リンクス,,合同会社,東京都,葛飾区,青戸８丁目３番１９号,,13,122,1250062,,,,,,,2025-05-12,1,,,,,リンクス,0
1018,4013103001447,新規,0,2025-05-12,2025-05-12,合同会社ＳＴＡ,,合同会社,東京都,青梅市,新町７丁目２０番地の２４,,13,205,1980024,,,,,,,2025-05-12,1,,,,,,0
1021,4013301054172,新規,0,2025-05-12,2025-05-12,株式会社ルシエル,,株式会社,東京都,豊島区,巣鴨４丁目１９番８号,,13,116,1700002,,,,,,,2025-05-12,1,,,,,ルシエル,0
1026,4020001162742,新規,0,2025-05-12,2025-05-12,株式会社くるま工房,,株式会社,神奈川県,横浜市旭区,笹野台４丁目６５番１６号,,14,112,2410816,,,,,,,2025-05-12,1,,,,,クルマコウボウ,0
1027,4020001162783,新規,0,2025-05-12,2025-05-12,株式会社湘南パネル建装,,株式会社,神奈川県,横浜市金沢区,富岡西４丁目３９番２号,,14,108,2360052,,,,,,,2025-05-12,1,,,,,ショウナンパネルケンソウ,0
1031,4020003028421,新規,0,2025-05-12,2025-05-12,合同会社九曜舎,,合同会社,神奈川県,川崎市宮前区,宮前平３丁目１３番地１－２０８号,,14,136,2160006,,,,,,,2025-05-12,1,,,,,クヨウシャ,0
1032,4020005016837,新規,0,2025-05-12,2025-05-12,一般社団法人なないろワーク,,その他の設立登記法人,神奈川県,横浜市緑区,台村町３２２－１第一丸正ビル３０３号,,14,113,2260014,,,,,,,2025-05-12,1,,,,,ナナイロワーク,0
1035,4021001085181,新規,0,2025-05-12,2025-05-12,株式会社サントラスト,,株式会社,神奈川県,横須賀市,山科台５０－１,,14,201,2380312,,,,,,,2025-05-12,1,,,,,サントラスト,0
1041,4030001166230,新規,0,2025-05-12,2025-05-12,株式会社Ａｌｔｒｕｉｓｍ,,株式会社,埼玉県,川口市,大字芝２７７０－１ボヌールネネ２０２,,11,203,3330866,,,,,,,2025-05-12,1,,,,,アルトルイズム,0
1042,4030001166453,新規,0,2025-05-12,2025-05-12,株式会社木語,,株式会社,埼玉県,川口市,金山町１－８ライネスハイム川口２０５号,,11,203,3320014,,,,,,,2025-05-12,1,,,,,キゴ,0
1045,4030003026738,新規,0,2025-05-12,2025-05-12,合同会社ｏｍｕｓｕｂｉコンサルティング,,合同会社,埼玉県,ふじみ野市,鶴ケ岡４丁目８番１８号,,11,245,3560045,,,,,,,2025-05-12,1,,,,,オムスビコンサルティング,0
1046,4030003026746,新規,0,2025-05-12,2025-05-12,合同会社Ｔｅｒｎ　Ｏｖｅｒ,,合同会社,埼玉県,三郷市,彦糸１丁目６番地,,11,237,3410001,,,,,,,2025-05-12,1,,,,,ターンオーバー,0
1047,4030003026762,新規,0,2025-05-12,2025-05-12,９ｒａ１０合同会社,,合同会社,埼玉県,所沢市,大字北秋津３３３－８,,11,208,3590038,,,,,,,2025-05-12,1,,,,,キュレート,0
1048,4030005022157,新規,0,2025-05-12,2025-05-12,一般社団法人八光流,,その他の設立登記法人,埼玉県,さいたま市大宮区,堀の内町２丁目１９３番地,,11,103,3300804,,,,,,,2025-05-12,1,,,,,ハッコウリュウ,0
1052,4040001138658,新規,0,2025-05-12,2025-05-12,株式会社アローズインターナショナル,,株式会社,千葉県,市川市,新井３丁目４番６号キョウエイビル３階３０１号室,,12,203,2720144,,,,,,,2025-05-12,1,,,,,アローズインターナショナル,0
1053,4040001138666,新規,0,2025-05-12,2025-05-12,Ｎサービス株式会社,,株式会社,千葉県,市川市,福栄４丁目３番１７号,,12,203,2720137,,,,,,,2025-05-12,1,,,,,エヌサービス,0
1054,4040001138682,新規,0,2025-05-12,2025-05-12,株式会社八田,,株式会社,千葉県,佐倉市,南ユーカリが丘８番地１－２号,,12,212,2850859,,,,,,,2025-05-12,1,,,,,ハッタ,0
1057,4040003027504,新規,0,2025-05-12,2025-05-12,合同会社ＰＹＴ,,合同会社,千葉県,柏市,旭町１丁目３－１４ＭＣ旭町ビル１０２号室,,12,217,2770852,,,,,,,2025-05-12,1,,,,,ピーワイティー,0
1058,4040003027529,新規,0,2025-05-12,2025-05-12,合同会社ＺＥＮ,,合同会社,千葉県,八千代市,大和田１７０―３,,12,221,2760045,,,,,,,2025-05-12,1,,,,,ゼン,0
1064,4050001056660,新規,0,2025-05-12,2025-05-12,株式会社オージー,,株式会社,茨城県,坂東市,庄右衛門新田９８番地５,,08,228,3060614,,,,,,,2025-05-12,1,,,,,オージー,0
1066,4050003009253,新規,0,2025-05-12,2025-05-12,合同会社ヤマト,,合同会社,茨城県,水戸市,住吉町７５番地の１,,08,201,3100844,,,,,,,2025-05-12,1,,,,,ヤマト,0
1069,4060001038179,新規,0,2025-05-12,2025-05-12,株式会社ＡＲＡ,,株式会社,栃木県,佐野市,浅沼町７７６番地３第２磯貝ビル３階,,09,204,3270831,,,,,,,2025-05-12,1,,,,,エーアールエー,0
1080,4100001038579,新規,0,2025-05-12,2025-05-12,株式会社ＢｅＣｒａｆｔｉｑｕｅ,,株式会社,長野県,上田市,中央北１丁目５番１９号,,20,203,3860011,,,,,,,2025-05-12,1,,,,,ビークラフティーク,0
1082,4100003008150,新規,0,2025-05-12,2025-05-12,ＴＲＫ合同会社,,合同会社,長野県,長野市,川中島町四ツ屋８４５番地１４,,20,201,3812231,,,,,,,2025-05-12,1,,,,,ティアールケイ,0
1099,4120001274916,新規,0,2025-05-12,2025-05-12,一越株式会社,,株式会社,大阪府,大阪市生野区,巽西３丁目８番４号１０１室,,27,116,5440012,,,,,,,2025-05-12,1,,,,,イチエツ,0
1100,4120001275237,新規,0,2025-05-12,2025-05-12,株式会社スマートシステム,,株式会社,大阪府,大阪市北区,梅田１丁目２番２号大阪駅前第２ビル１２－１２,,27,127,5300001,,,,,,,2025-05-12,1,,,,,スマートシステム,0
1101,4120001275385,新規,0,2025-05-12,2025-05-12,三石健株式会社,,株式会社,大阪府,大阪市西成区,天下茶屋東２丁目１４番３０－５号,,27,122,5570011,,,,,,,2025-05-12,1,,,,,サンセキケン,0
1102,4120001275393,新規,0,2025-05-12,2025-05-12,大阪雲蓮文化発展株式会社,,株式会社,大阪府,大阪市北区,梅田１丁目１３番１－１５７１号,,27,127,5300001,,,,,,,2025-05-12,1,,,,,オオサカウンレンブンカハッテン,0
1103,4120001275402,新規,0,2025-05-12,2025-05-12,株式会社Ｍｏｎｔｅｓ,,株式会社,大阪府,大阪市住吉区,苅田８丁目１１番２０号,,27,120,5580011,,,,,,,2025-05-12,1,,,,,モンテス,0
1104,4120001275451,新規,0,2025-05-12,2025-05-12,泰川株式会社,,株式会社,大阪府,大阪市都島区,都島中通２丁目１１番１０－１０１号,,27,102,5340022,,,,,,,2025-05-12,1,,,,,タイカワ,0
1105,4120001275476,新規,0,2025-05-12,2025-05-12,株式会社美貴,,株式会社,大阪府,大阪市北区,梅田２丁目５番８号千代田ビル西別館８階Ｆ号室,,27,127,5300001,,,,,,,2025-05-12,1,,,,,ビキ,0
1106,4120001275550,新規,0,2025-05-12,2025-05-12,株式会社小西設備,,株式会社,大阪府,守口市,大久保町４丁目３１番２１号,,27,209,5700012,,,,,,,2025-05-12,1,,,,,コニシセツビ,0
1107,4120001275559,新規,0,2025-05-12,2025-05-12,株式会社ライズ,,株式会社,大阪府,大阪市北区,梅田１丁目２番２号大阪駅前第２ビル１２－１２,,27,127,5300001,,,,,,,2025-05-12,1,,,,,ライズ,0
1108,4120001275600,新規,0,2025-05-12,2025-05-12,株式会社陽雪幸,,株式会社,大阪府,大阪市都島区,善源寺町２丁目２番５－８４５号,,27,102,5340015,,,,,,,2025-05-12,1,,,,,ハルユキサチ,0
1109,4120001275682,新規,0,2025-05-12,2025-05-12,株式会社Ｒｅｆｌｏ,,株式会社,大阪府,交野市,森南１丁目４７番地５,,27,230,5760031,,,,,,,2025-05-12,1,,,,,リフロ,0
1110,4120001275699,新規,0,2025-05-12,2025-05-12,株式会社ナナ,,株式会社,大阪府,大阪市西成区,太子１丁目１５番１４号２階,,27,122,5570002,,,,,,,2025-05-12,1,,,,,ナナ,0
1115,4120003029392,新規,0,2025-05-12,2025-05-12,ＫＣＧ合同会社,,合同会社,大阪府,大阪市都島区,内代町２丁目６番２１号,,27,102,5340013,,,,,,,2025-05-12,1,,,,,ケーシージー,0
1120,4120101071635,新規,0,2025-05-12,2025-05-12,株式会社日高川,,株式会社,大阪府,泉大津市,我孫子１２９番地,,27,206,5950031,,,,,,,2025-05-12,1,,,,,ヒダカガワ,0
1122,4120901050821,新規,0,2025-05-12,2025-05-12,株式会社尊斗,,株式会社,大阪府,吹田市,豊津町１番１８号エクラート江坂ビル３階,,27,205,5640051,,,,,,,2025-05-12,1,,,,,ミコト,0
1123,4120901050838,新規,0,2025-05-12,2025-05-12,株式会社Ｆ．ｏ．ｒ．,,株式会社,大阪府,茨木市,若草町４番３０－６０４号,,27,211,5670875,,,,,,,2025-05-12,1,,,,,フォー,0
1127,4130001079595,新規,0,2025-05-12,2025-05-12,華孚日本株式会社,,株式会社,京都府,京都市下京区,七条通り東洞院東入ル材木町４９９－２第一キョートビル１階１０２室,,26,106,6000000,,,,,,,2025-05-12,1,,,,,カフニホン,0
1143,4140005027500,新規,0,2025-05-12,2025-05-12,医療法人社団尚花会,,その他の設立登記法人,兵庫県,神戸市中央区,三宮町２丁目２番１号ラム三宮ビル７Ｆ,,28,110,6500021,,,,,,,2025-05-12,1,,,,,ショウカカイ,0
1145,4160001026735,新規,0,2025-05-12,2025-05-12,株式会社ハンディーメン,,株式会社,滋賀県,大津市,里７丁目９番２号,,25,201,5202276,,,,,,,2025-05-12,1,,,,,ハンディメン,0
1146,4160001026743,新規,0,2025-05-12,2025-05-12,Ａｇｕｍｉ建築株式会社,,株式会社,滋賀県,大津市,下阪本１丁目９番２０号,,25,201,5200105,,,,,,,2025-05-12,1,,,,,アグミケンチク,0
1151,4170001018624,新規,0,2025-05-12,2025-05-12,株式会社紀州板金工業,,株式会社,和歌山県,岩出市,山４０６番地,,30,209,6496258,,,,,,,2025-05-12,1,,,,,キシュウバンキンコウギョウ,0
1152,4170003002213,新規,0,2025-05-12,2025-05-12,合同会社大和水産,,合同会社,和歌山県,東牟婁郡太地町,大字太地１１６番地,,30,422,6495171,,,,,,,2025-05-12,1,,,,,ヤマトスイサン,0
1161,4180001166645,新規,0,2025-05-12,2025-05-12,株式会社風鈴,,株式会社,愛知県,名古屋市中村区,名駅４丁目２４番５号第２森ビル４０１,,23,105,4500002,,,,,,,2025-05-12,1,,,,,フウリン,0
1162,4180001166661,新規,0,2025-05-12,2025-05-12,株式会社ダブルズウォーク,,株式会社,愛知県,名古屋市中川区,江松５丁目１０６番地,,23,110,4540954,,,,,,,2025-05-12,1,,,,,ダブルズウォーク,0
1163,4180001166744,新規,0,2025-05-12,2025-05-12,株式会社ＭＥＤＩＳＹ,,株式会社,愛知県,名古屋市昭和区,鶴舞１丁目２番３２号,,23,107,4660064,,,,,,,2025-05-12,1,,,,,メディシー,0
1164,4180001166777,新規,0,2025-05-12,2025-05-12,株式会社Ｃ‐ａｓｓｉｓｔ,,株式会社,愛知県,名古屋市南区,道徳新町１丁目６番地７,,23,112,4570847,,,,,,,2025-05-12,1,,,,,シーアシスト,0
1167,4180003028430,新規,0,2025-05-12,2025-05-12,合同会社吉野事務所,00139096,合同会社,愛知県,犬山市,字西北野２０番地１,,23,215,4840905,,,,,,,2025-05-12,1,,,,,ヨシノジムショ,0
1168,4180003028463,新規,0,2025-05-12,2025-05-12,合同会社ハッピーサクセス,,合同会社,愛知県,春日井市,神屋町２２９８番地９５,,23,206,4800304,,,,,,,2025-05-12,1,,,,,ハッピーサクセス,0
1169,4180301039798,新規,0,2025-05-12,2025-05-12,株式会社ＫＥＮＺＯ,,株式会社,愛知県,安城市,住吉町荒曽根１５４番９,,23,212,4460072,,,,,,,2025-05-12,1,,,,,ケンゾー,0
1171,4190001032210,新規,0,2025-05-12,2025-05-12,株式会社マッドマーレン,,株式会社,三重県,四日市市,東坂部町５１７番地,,24,202,5120904,,,,,,,2025-05-12,1,,,,,マッドマーレン,0
1172,4190003005032,新規,0,2025-05-12,2025-05-12,合同会社ＡｂｓＴｒｕｓｅ,,合同会社,三重県,鈴鹿市,南玉垣町６１９７番地の１アグレアーブル１０１,,24,207,5130816,,,,,,,2025-05-12,1,,,,,アブストゥルース,0
1173,4200001043759,新規,0,2025-05-12,2025-05-12,株式会社ＴＳＵＭＵＧＵ　Ｃａｒｅ,,株式会社,岐阜県,瑞浪市,釜戸町２２０番地の３,,21,208,5096472,,,,,,,2025-05-12,1,,,,,ツムグケア,0
1174,4200001043767,新規,0,2025-05-12,2025-05-12,Ｖ＆Ｍ株式会社,,株式会社,岐阜県,岐阜市,神田町２丁目１２番地松久オフィスビル５階,,21,201,5008833,,,,,,,2025-05-12,1,,,,,ブイアンドエム,0
1176,4200003006813,新規,0,2025-05-12,2025-05-12,ＬＩＢＥＲＬ合同会社,,合同会社,岐阜県,大垣市,青墓町３丁目４１０番地６７,,21,202,5032221,,,,,,,2025-05-12,1,,,,,リベル,0
1180,4230001020904,新規,0,2025-05-12,2025-05-12,モデロ株式会社,,株式会社,富山県,下新川郡朝日町,金山３２８番地２,,16,343,9390727,,,,,,,2025-05-12,1,,,,,モデロ,0
1181,4230005009472,新規,0,2025-05-12,2025-05-12,一般社団法人Ｗｅｌｌ　Ｂｅｉｎｇ,,その他の設立登記法人,富山県,富山市,千歳町３丁目８番１２号,,16,201,9300018,,,,,,,2025-05-12,1,,,,,ウェルビーイング,0
1187,4250003003723,新規,0,2025-05-12,2025-05-12,合同会社Ｙｃｉｔｙ,,合同会社,山口県,宇部市,大字上宇部１９３－３１,,35,202,7550091,,,,,,,2025-05-12,1,,,,,ワイシティ,0
1188,4260001040164,新規,0,2025-05-12,2025-05-12,株式会社増成技建,,株式会社,岡山県,笠岡市,横島７１０番地,,33,205,7140043,,,,,,,2025-05-12,1,,,,,マスナリギケン,0
1189,4260001040180,新規,0,2025-05-12,2025-05-12,株式会社楽喜,,株式会社,岡山県,岡山市南区,築港緑町２丁目３番１２号,,33,104,7028055,,,,,,,2025-05-12,1,,,,,ガクキ,0
1200,4290001109931,新規,0,2025-05-12,2025-05-12,株式会社Ｓ‐Ｒｅｉｇｎ,,株式会社,福岡県,糟屋郡須惠町,大字植木１７５４,,40,344,8112112,,,,,,,2025-05-12,1,,,,,エスレイン,0
1201,4290001109964,新規,0,2025-05-12,2025-05-12,光伸株式会社,,株式会社,福岡県,福岡市南区,大楠２丁目１６番１７－２０５号,,40,134,8150082,,,,,,,2025-05-12,1,,,,,コウシン,0
1202,4290001109972,新規,0,2025-05-12,2025-05-12,株式会社博多南空調工業,,株式会社,福岡県,那珂川市,大字西畑５６４番地３,,40,231,8111246,,,,,,,2025-05-12,1,,,,,ハカタミナミクウチョウコウギョウ,0
1203,4290001109997,新規,0,2025-05-12,2025-05-12,建築全般総合工務店株式会社,,株式会社,福岡県,福岡市博多区,博多駅南４丁目１５番１１－４０６号,,40,132,8120016,,,,,,,2025-05-12,1,,,,,ケンチクゼンパンソウゴウコウムテン,0
1207,4290003016820,新規,0,2025-05-12,2025-05-12,ＫａｚｕＥｉ．Ｌａｂ合同会社,,合同会社,福岡県,福岡市博多区,博多駅前１丁目２３番２号ＰａｒｋＦｒｏｎｔ博多駅前１丁目５Ｆ－Ｂ,,40,132,8120011,,,,,,,2025-05-12,1,,,,,カズエイラボ,0
1212,4300001014188,新規,0,2025-05-12,2025-05-12,株式会社ＭＥ　ＴＩＭＥ　ＢＲＥＡＤ,,株式会社,佐賀県,佐賀市,高木町４－２４,,41,201,8400822,,,,,,,2025-05-12,1,,,,,ミータイムブレッド,0
1215,4310003005003,新規,0,2025-05-12,2025-05-12,Ｃｃ‐Ｈｕｂ合同会社,,合同会社,長崎県,長崎市,飽の浦町１番５６号,,42,201,8500063,,,,,,,2025-05-12,1,,,,,シーシーハブ,0
1216,4310005008854,新規,0,2025-05-12,2025-05-12,特定非営利活動法人平戸絶滅危惧生物調査研究会,,その他の設立登記法人,長崎県,平戸市,猪渡谷町３３１番地２,,42,207,8595502,,,,,,,2025-05-12,1,,,,,ヒラドゼツメツキグセイブツチョウサケンキュウカイ,0
1217,4320001021091,新規,0,2025-05-12,2025-05-12,株式会社ＢＯＲＮ,,株式会社,大分県,大分市,萩原２丁目２番６号,,44,201,8700921,,,,,,,2025-05-12,1,,,,,ボーン,0
1218,4340001027319,新規,0,2025-05-12,2025-05-12,株式会社日之出物流,,株式会社,鹿児島県,鹿児島市,日之出町７番９号,,46,201,8900086,,,,,,,2025-05-12,1,,,,,ヒノデブツリュウ,0
1225,4350003004934,新規,0,2025-05-12,2025-05-12,合同会社７８,,合同会社,宮崎県,都城市,小松原町１４１８番地１アーバン都城２０６,,45,202,8850022,,,,,,,2025-05-12,1,,,,,ナナハチ,0
1226,4360001035138,新規,0,2025-05-12,2025-05-12,株式会社沖縄アクセス,,株式会社,沖縄県,うるま市,字兼箇段１８８０－２９,,47,213,9042241,,,,,,,2025-05-12,1,,,,,オキナワアクセス,0
1227,4360001035146,新規,0,2025-05-12,2025-05-12,ミナト株式会社,,株式会社,沖縄県,国頭郡宜野座村,字宜野座１２７,,47,313,9041302,,,,,,,2025-05-12,1,,,,,ミナト,0
1228,4360001035179,新規,0,2025-05-12,2025-05-12,株式会社ニューゲート,,株式会社,沖縄県,沖縄市,美里５丁目１４番１号,,47,211,9042153,,,,,,,2025-05-12,1,,,,,ニューゲート,0
1229,4360001035187,新規,0,2025-05-12,2025-05-12,ＳＡＫＨＲＡＮＩ　ＩＮＶＥＳＴＭＥＮＴ株式会社,,株式会社,沖縄県,中頭郡北谷町,北谷２丁目８－４ＹｏｕｒｓＭａｎｓｉｏｎ１０１,,47,326,9040116,,,,,,,2025-05-12,1,,,,,,0
1230,4360003014899,新規,0,2025-05-12,2025-05-12,合同会社ＲＩＮＤＯＷ,,合同会社,沖縄県,中頭郡読谷村,字宇座１８６１,,47,324,9040328,,,,,,,2025-05-12,1,,,,,リンドウ,0
1231,4360003014908,新規,0,2025-05-12,2025-05-12,合同会社すん,,合同会社,沖縄県,名護市,字幸喜６９番地,,47,209,9050025,,,,,,,2025-05-12,1,,,,,スン,0
1232,4360005007224,新規,0,2025-05-12,2025-05-12,一般社団法人沖縄県中小企業家同友会,,その他の設立登記法人,沖縄県,那覇市,字小禄１８３１番地１沖縄産業支援センター６０３号,,47,201,9010152,,,,,,,2025-05-12,1,,,,,オキナワケンチュウショウキギョウカドウユウカイ,0
1234,4370001052537,新規,0,2025-05-12,2025-05-12,株式会社サトー,,株式会社,宮城県,仙台市宮城野区,仙石２９番１５号,,04,102,9830032,,,,,,,2025-05-12,1,,,,,サトー,0
1236,4380001035292,新規,0,2025-05-12,2025-05-12,株式会社善,,株式会社,福島県,西白河郡矢吹町,一本木２８３番地３,,07,466,9690236,,,,,,,2025-05-12,1,,,,,ゼン,0
1237,4380001035301,新規,0,2025-05-12,2025-05-12,株式会社Ｆｌｙ　Ｎｅｘｔ,,株式会社,福島県,郡山市,安積町荒井字鎗ケ池１番地の７,,07,203,9630111,,,,,,,2025-05-12,1,,,,,フライネクスト,0
1239,4400001017032,新規,0,2025-05-12,2025-05-12,ＨｅｒｏＦｕｎｄ株式会社,,株式会社,岩手県,西磐井郡平泉町,平泉字鈴沢６１番地鈴沢スタートアップオフィス,,03,402,0294102,,,,,,,2025-05-12,1,,,,,ヒーローファンド,0
1243,4430001094333,新規,0,2025-05-12,2025-05-12,株式会社Ｓｏｕ‐ｋｏｒｅ,,株式会社,北海道,夕張郡長沼町,旭町南１丁目５番１９号,,01,428,0691343,,,,,,,2025-05-12,1,,,,,ソウコレ,0
1244,4430001094358,新規,0,2025-05-12,2025-05-12,株式会社アールエム,,株式会社,北海道,札幌市白石区,菊水元町七条２丁目８番８号,,01,104,0030827,,,,,,,2025-05-12,1,,,,,アールエム,0
1245,4430001094374,新規,0,2025-05-12,2025-05-12,株式会社Ｗｉｎ,,株式会社,北海道,札幌市中央区,大通西１３丁目４番地１６１札幌東光ビル７Ｆ,,01,101,0600042,,,,,,,2025-05-12,1,,,,,ウィン,0
1246,4430001094390,新規,0,2025-05-12,2025-05-12,株式会社ＮＯＲＴＨ　ＬＩＮＥ,,株式会社,北海道,札幌市西区,西野八条１０丁目３番１８号,,01,107,0630038,,,,,,,2025-05-12,1,,,,,ノースライン,0
1251,4430005015236,新規,0,2025-05-12,2025-05-12,一般社団法人イロドリファクトリーズ,,その他の設立登記法人,北海道,札幌市手稲区,新発寒六条４丁目３番１３号,,01,109,0060806,,,,,,,2025-05-12,1,,,,,イロドリファクトリーズ,0
1253,4470001020707,新規,0,2025-05-12,2025-05-12,塗装カナダ株式会社,,株式会社,香川県,小豆郡小豆島町,蒲生甲１０８８番地２,,37,324,7614302,,,,,,,2025-05-12,1,,,,,トソウカナダ,0
1257,4500001026279,新規,0,2025-05-12,2025-05-12,ＥＺＵＭＩ株式会社,,株式会社,愛媛県,喜多郡内子町,平岡甲３５１番地,,38,422,7950303,,,,,,,2025-05-12,1,,,,,エズミ,0
1264,5010001254614,新規,0,2025-05-12,2025-05-12,株式会社ＦＲ,,株式会社,東京都,中央区,日本橋蛎殻町２丁目５番４―９０２号,,13,102,1030014,,,,,,,2025-05-12,1,,,,,エフアール,0
1265,5010001254705,新規,0,2025-05-12,2025-05-12,株式会社ミライサプリ,,株式会社,東京都,中央区,銀座１丁目１５番４号銀座一丁目ビル７Ｆ,,13,102,1040061,,,,,,,2025-05-12,1,,,,,ミライサプリ,0
1266,5010001254762,新規,0,2025-05-12,2025-05-12,Ｎｅｘｕｓ　Ｉｎｔｅｌｌｉｇｅｎｃｅ　Ｉｎｓｔｉｔｕｔｅ株式会社,,株式会社,東京都,千代田区,九段南１丁目６番５号,,13,101,1020074,,,,,,,2025-05-12,1,,,,,ネクサスインテリジェンスインスティチュート,0
1267,5010001254787,新規,0,2025-05-12,2025-05-12,オーリオン・キャピタル・パートナーズ株式会社,,株式会社,東京都,中央区,銀座１丁目１２番４号Ｎ＆ＥＢＬＤ７階,,13,102,1040061,,,,,,,2025-05-12,1,,,,,オーリオンキャピタルパートナーズ,0
1268,5010001254878,新規,0,2025-05-12,2025-05-12,株式会社ＨＹＤＲＡＮＧＥＡ,,株式会社,東京都,中央区,銀座８丁目７番１６号,,13,102,1040061,,,,,,,2025-05-12,1,,,,,ハイドレンジア,0
1278,5010401190137,新規,0,2025-05-12,2025-05-12,サクワ株式会社,,株式会社,東京都,港区,北青山２丁目７番１３号プラセオ青山ビル３階,,13,103,1070061,,,,,,,2025-05-12,1,,,,,サクワ,0
1279,5010401190178,新規,0,2025-05-12,2025-05-12,Ｌａｍｂｄａ　Ｃａｐｉｔａｌ株式会社,,株式会社,東京都,港区,北青山１丁目３番３号三橋ビル３階,,13,103,1070061,,,,,,,2025-05-12,1,,,,,ラムダキャピタル,0
1280,5010401190203,新規,0,2025-05-12,2025-05-12,株式会社ＯＭＯＴＩＯＮ　ＪＡＰＡＮ,,株式会社,東京都,港区,虎ノ門４丁目２－３虎ノ門トーセイビル６Ｆ,,13,103,1050001,,,,,,,2025-05-12,1,,,,,オモーションジャパン,0
1281,5010401190236,新規,0,2025-05-12,2025-05-12,株式会社ＮＵＥＶＯ,,株式会社,東京都,港区,六本木３丁目１１－５－５Ｆ,,13,103,1060032,,,,,,,2025-05-12,1,,,,,ヌエボ,0
1282,5010403035059,新規,0,2025-05-12,2025-05-12,合同会社ＲＥＳＴＡＲＴ,,合同会社,東京都,港区,北青山１丁目３番１号,,13,103,1070061,,,,,,,2025-05-12,1,,,,,リスタート,0
1283,5010403035083,新規,0,2025-05-12,2025-05-12,合同会社Ａｔｌａｓ,,合同会社,東京都,港区,南青山３丁目１番３６号青山丸竹ビル６Ｆ,,13,103,1070062,,,,,,,2025-05-12,1,,,,,アトラス,0
1284,5010501054051,新規,0,2025-05-12,2025-05-12,Ｃｕｂｅ　Ｅｄｕｃａｔｉｏｎ株式会社,,株式会社,東京都,台東区,千束４丁目４３－２プレジール入谷９０４号室,,13,106,1110031,,,,,,,2025-05-12,1,,,,,キューブエデュケーション,0
1291,5010903009909,新規,0,2025-05-12,2025-05-12,合同会社３Ｆ,,合同会社,東京都,世田谷区,北沢３丁目３－１テラス東北沢２０１,,13,112,1550031,,,,,,,2025-05-12,1,,,,,スリーエフ,0
1294,5011001169323,新規,0,2025-05-12,2025-05-12,株式会社ＵＮＣＲＥＤＩＴＥＤ,,株式会社,東京都,渋谷区,東２丁目１５番１号ｔｒｉａｓ２１５、２０１号,,13,113,1500011,,,,,,,2025-05-12,1,,,,,アンクレディテッド,0
1295,5011001169430,新規,0,2025-05-12,2025-05-12,株式会社Ｅｎｇｏｏｎ,,株式会社,東京都,渋谷区,道玄坂１丁目１０番８号渋谷道玄坂東急ビル２Ｆ－Ｃ,,13,113,1500043,,,,,,,2025-05-12,1,,,,,エングーン,0
1299,5011003021515,新規,0,2025-05-12,2025-05-12,合同会社ＢｅＴｈｅｒｅ,,合同会社,東京都,渋谷区,恵比寿西２丁目８－４,,13,113,1500021,,,,,,,2025-05-12,1,,,,,ビーゼェア,0
1300,5011101111647,新規,0,2025-05-12,2025-05-12,ＩＣＢ株式会社,,株式会社,東京都,新宿区,百人町１丁目２４－１６百人町ビル２Ｆ,,13,104,1690073,,,,,,,2025-05-12,1,,,,,アイシービー,0
1304,5011201026340,新規,0,2025-05-12,2025-05-12,株式会社パチュリー,,株式会社,東京都,中野区,東中野４丁目４番５号東中野アパートメンツ３０８号室,,13,114,1640003,,,,,,,2025-05-12,1,,,,,パチュリー,0
1309,5011401027072,新規,0,2025-05-12,2025-05-12,チームエーパックジャパン株式会社,,株式会社,東京都,板橋区,仲町２９番５号オーナーズビルド３０５,,13,119,1730022,,,,,,,2025-05-12,1,,,,,チームエーパックジャパン,0
1312,5011503006528,新規,0,2025-05-12,2025-05-12,合同会社リボディネクスト,,合同会社,東京都,北区,上十条３丁目２４番１４号,,13,117,1140034,,,,,,,2025-05-12,1,,,,,リボディネクスト,0
1316,5011701028324,新規,0,2025-05-12,2025-05-12,株式会社ＴＦＫ,,株式会社,東京都,江戸川区,平井３丁目２９番７号ヴェルト平井１００３号室,,13,123,1320035,,,,,,,2025-05-12,1,,,,,ティーエフケイ,0
1317,5011703004232,新規,0,2025-05-12,2025-05-12,合同会社リオーネ,,合同会社,東京都,江戸川区,中葛西５丁目４１番１７－８０５号,,13,123,1340083,,,,,,,2025-05-12,1,,,,,リオーネ,0
1318,5011805003454,新規,0,2025-05-12,2025-05-12,特定非営利活動法人エミールあだち,,その他の設立登記法人,東京都,足立区,東和５丁目１０番１８号メゾン・マコトーズ２，３階,,13,121,1200003,,,,,,,2025-05-12,1,,,,,エミールアダチ,0
1321,5012701018851,新規,0,2025-05-12,2025-05-12,ワイエムシーコンサルタント株式会社,,株式会社,東京都,東久留米市,上の原１丁目３番５－１０１号,,13,222,2030001,,,,,,,2025-05-12,1,,,,,ワイエムシーコンサルタント,0
1325,5013103001446,新規,0,2025-05-12,2025-05-12,ｃｆ２合同会社,,合同会社,東京都,青梅市,長淵２丁目８０１－１１,,13,205,1980052,,,,,,,2025-05-12,1,,,,,シーエフツー,0
1326,5013301054171,新規,0,2025-05-12,2025-05-12,晟貿トレーディング株式会社,,株式会社,東京都,豊島区,池袋１丁目１７番１１号パークハイツ池袋１１０５号,,13,116,1700014,,,,,,,2025-05-12,1,,,,,セイボウトレーディング,0
1337,5020001162799,新規,0,2025-05-12,2025-05-12,ティーエスコーポレーション株式会社,,株式会社,神奈川県,横浜市鶴見区,佃野町３０番２号,,14,101,2300061,,,,,,,2025-05-12,1,,,,,ティーエスコーポレーション,0
1338,5020001162808,新規,0,2025-05-12,2025-05-12,株式会社永虎,,株式会社,神奈川県,横浜市保土ケ谷区,上菅田町８３０番地,,14,106,2400051,,,,,,,2025-05-12,1,,,,,エイトラ,0
1346,5021001085107,新規,0,2025-05-12,2025-05-12,株式会社ｚｏｏｃｏｌａｚ,,株式会社,神奈川県,足柄上郡中井町,井ノ口３１９１－１,,14,361,2590151,,,,,,,2025-05-12,1,,,,,ズーコラズ,0
1347,5021001085206,新規,0,2025-05-12,2025-05-12,株式会社ＢｅｅＡｒｃ,,株式会社,神奈川県,藤沢市,南藤沢７－２沢滝ビル２Ｆ,,14,205,2510055,,,,,,,2025-05-12,1,,,,,ビーアーク,0
1353,5030001166287,新規,0,2025-05-12,2025-05-12,Ｉ２ＥＮＴ　ＡＵＴＯ株式会社,,株式会社,埼玉県,ふじみ野市,亀久保１７３０番地７,,11,245,3560051,,,,,,,2025-05-12,1,,,,,アイトエントオート,0
1354,5030001166394,新規,0,2025-05-12,2025-05-12,株式会社Ｂｌｕｅ　Ｏｃｅａｎ．,,株式会社,埼玉県,北足立郡伊奈町,寿１丁目２１９番地,,11,301,3620807,,,,,,,2025-05-12,1,,,,,ブルオーシャンテン,0
1355,5030001166411,新規,0,2025-05-12,2025-05-12,株式会社ＴＣ,,株式会社,埼玉県,富士見市,東みずほ台２丁目２８番地８,,11,235,3540015,,,,,,,2025-05-12,1,,,,,ティーシー,0
1356,5030001166444,新規,0,2025-05-12,2025-05-12,株式会社ウエスギ,,株式会社,埼玉県,川越市,大字府川７７６番地１２,,11,201,3500831,,,,,,,2025-05-12,1,,,,,ウエスギ,0
1363,5030003026729,新規,0,2025-05-12,2025-05-12,ＭＦＩＸ合同会社,,合同会社,埼玉県,戸田市,下前１丁目１１番２０－７４７号,,11,224,3350016,,,,,,,2025-05-12,1,,,,,エムフィックス,0
1365,5040001138657,新規,0,2025-05-12,2025-05-12,株式会社ＯＮＥ　ＳＴＥＰ,,株式会社,千葉県,市川市,国分３丁目１６番７号,,12,203,2720834,,,,,,,2025-05-12,1,,,,,ワンステップ,0
1366,5040001138707,新規,0,2025-05-12,2025-05-12,株式会社ＴＯＭ’ｓ,,株式会社,千葉県,匝瑳市,平木２１５番地１,,12,235,2892113,,,,,,,2025-05-12,1,,,,,トムズ,0
1367,5040001138764,新規,0,2025-05-12,2025-05-12,株式会社Ｒｙａｎ,,株式会社,千葉県,千葉市美浜区,高洲１丁目２４番４号ビギ稲毛海岸駅前ビル２階,,12,106,2610004,,,,,,,2025-05-12,1,,,,,リアン,0
1370,5040003027503,新規,0,2025-05-12,2025-05-12,ブルーシフト合同会社,,合同会社,千葉県,千葉市緑区,あすみが丘東４丁目１８番地１,,12,105,2670067,,,,,,,2025-05-12,1,,,,,ブルーシフト,0
1377,5060001038178,新規,0,2025-05-12,2025-05-12,ブリス株式会社,,株式会社,栃木県,日光市,安川町２番５１号ホテルいろは,,09,206,3211432,,,,,,,2025-05-12,1,,,,,ブリス,0
1386,5100001038594,新規,0,2025-05-12,2025-05-12,株式会社安曇野クリエーション,,株式会社,長野県,安曇野市,穂高５１６７番地７,,20,220,3998303,,,,,,,2025-05-12,1,,,,,アズミノクリエーション,0
1390,5110001039245,新規,0,2025-05-12,2025-05-12,株式会社拓デン,,株式会社,新潟県,十日町市,新座甲４０２番地１１,,15,210,9480000,,,,,,,2025-05-12,1,,,,,タクデン,0
1396,5120001274956,新規,0,2025-05-12,2025-05-12,恒悦株式会社,,株式会社,大阪府,大阪市東成区,東今里３丁目１５番２７号３０２,,27,115,5370011,,,,,,,2025-05-12,1,,,,,コウエツ,0
1397,5120001275277,新規,0,2025-05-12,2025-05-12,株式会社Ｓｕｎｎｙ　Ｓｉｄｅ,,株式会社,大阪府,大阪市生野区,林寺５丁目３番３０号,,27,116,5440023,,,,,,,2025-05-12,1,,,,,サニーサイド,0
1398,5120001275285,新規,0,2025-05-12,2025-05-12,晨光株式会社,,株式会社,大阪府,大阪市住之江区,東加賀屋３丁目１４番２５号,,27,125,5590012,,,,,,,2025-05-12,1,,,,,シンコウ,0
1399,5120001275293,新規,0,2025-05-12,2025-05-12,海通株式会社,,株式会社,大阪府,大阪市淀川区,西三国３丁目１７番１８号１Ｂ室,,27,123,5320006,,,,,,,2025-05-12,1,,,,,カイツウ,0
1400,5120001275343,新規,0,2025-05-12,2025-05-12,アバオン株式会社,,株式会社,大阪府,大阪市西区,江戸堀３丁目１番１４－１８１１号,,27,106,5500002,,,,,,,2025-05-12,1,,,,,アバオン,0
1401,5120001275351,新規,0,2025-05-12,2025-05-12,株式会社関西空調,,株式会社,大阪府,大阪市此花区,酉島６丁目１３番１７号,,27,104,5540051,,,,,,,2025-05-12,1,,,,,カンサイクウチョウ,0
1402,5120001275368,新規,0,2025-05-12,2025-05-12,Ｍａｃｈ　Ｘ　Ｉｎｔｅｒｎａｔｉｏｎａｌ株式会社,,株式会社,大阪府,大阪市西区,西本町１丁目１１番１－１００６号,,27,106,5500005,,,,,,,2025-05-12,1,,,,,マックエックスインターナショナル,0
1403,5120001275442,新規,0,2025-05-12,2025-05-12,株式会社ザイマックスカレス関西,,株式会社,大阪府,大阪市北区,堂島１丁目１番５号,,27,127,5300003,,,,,,,2025-05-12,1,,,,,ザイマックスカレスカンサイ,0
1404,5120001275483,新規,0,2025-05-12,2025-05-12,株式会社ＲＥＳＴ,,株式会社,大阪府,大阪市淀川区,三津屋南２丁目８番６号,,27,123,5320035,,,,,,,2025-05-12,1,,,,,レスト,0
1405,5120001275533,新規,0,2025-05-12,2025-05-12,株式会社ＳＯＮ,,株式会社,大阪府,大阪市中央区,島之内２丁目１１番１９－５０１号,,27,128,5420082,,,,,,,2025-05-12,1,,,,,エスオーエヌ,0
1406,5120001275541,新規,0,2025-05-12,2025-05-12,テットハウス株式会社,,株式会社,大阪府,寝屋川市,太秦東が丘８番２２号,,27,215,5720841,,,,,,,2025-05-12,1,,,,,テットハウス,0
1407,5120001275566,新規,0,2025-05-12,2025-05-12,株式会社ＴＭＣ　ＪＡＰＡＮ,,株式会社,大阪府,大阪市東淀川区,南江口１丁目２番２－７０４号,,27,114,5330003,,,,,,,2025-05-12,1,,,,,ティーエムシージャパン,0
1408,5120001275582,新規,0,2025-05-12,2025-05-12,Ｍ’ｓオフィス株式会社,,株式会社,大阪府,大阪市北区,堂山町１２－５ロイヤルハイツ梅田ＩＩ６０３号室,00139109,27,127,5300027,,,,,,,2025-05-12,1,,,,,エムズオフィス,0
1409,5120001275590,新規,0,2025-05-12,2025-05-12,ＬＣＶ株式会社,,株式会社,大阪府,大阪市北区,堂島２丁目１番３１号京阪堂島ビル５０６,,27,127,5300003,,,,,,,2025-05-12,1,,,,,エルシーブイ,0
1410,5120001275649,新規,0,2025-05-12,2025-05-12,株式会社スタジオコバ,,株式会社,大阪府,大阪市西区,南堀江２丁目５番３－１４０５号,,27,106,5500015,,,,,,,2025-05-12,1,,,,,スタジオコバ,0
1411,5120001275657,新規,0,2025-05-12,2025-05-12,ＲＳ株式会社,,株式会社,大阪府,大阪市北区,梅田１丁目２番２号大阪駅前第２ビル１２－１２,,27,127,5300001,,,,,,,2025-05-12,1,,,,,アールエス,0
1412,5120001275673,新規,0,2025-05-12,2025-05-12,昇騰株式会社,,株式会社,大阪府,大阪市西成区,北開２丁目３番５－１０１号,,27,122,5570021,,,,,,,2025-05-12,1,,,,,ショウドウ,0
1413,5120001275731,新規,0,2025-05-12,2025-05-12,株式会社髪にドラマを,,株式会社,大阪府,大阪市阿倍野区,松崎町３丁目６番１号,,27,119,5450053,,,,,,,2025-05-12,1,,,,,カミニドラマヲ,0
1415,5120003029425,新規,0,2025-05-12,2025-05-12,合同会社デオ,,合同会社,大阪府,大阪市阿倍野区,晴明通７番９号エレガントライフ晴明丘２０２号,,27,119,5450032,,,,,,,2025-05-12,1,,,,,デオ,0
1417,5120101071634,新規,0,2025-05-12,2025-05-12,ニーズ商事株式会社,,株式会社,大阪府,堺市堺区,築港八幡町１番１７１ＭＥＬＰ堺４Ｆ－４０２,,27,141,5900901,,,,,,,2025-05-12,1,,,,,ニーズショウジ,0
1418,5120101071659,新規,0,2025-05-12,2025-05-12,ｍｏｓｅｉｋｏ株式会社,,株式会社,大阪府,堺市堺区,柏木町２丁４番１９号２０２室,,27,141,5900837,,,,,,,2025-05-12,1,,,,,モセイコ,0
1425,5120901050829,新規,0,2025-05-12,2025-05-12,株式会社アオイ,,株式会社,大阪府,豊中市,三和町４丁目１番１９号,,27,203,5610828,,,,,,,2025-05-12,1,,,,,アオイ,0
1426,5120901050837,新規,0,2025-05-12,2025-05-12,株式会社東サービス,,株式会社,大阪府,豊中市,曽根西町４丁目７番５号２０１号,,27,203,5610801,,,,,,,2025-05-12,1,,,,,アズマサービス,0
1433,5130001079611,新規,0,2025-05-12,2025-05-12,アース・エコロジー株式会社,,株式会社,京都府,京都市左京区,岡崎南御所町４０番地２,,26,103,6068334,,,,,,,2025-05-12,1,,,,,アースエコロジー,0
1441,5150001028112,新規,0,2025-05-12,2025-05-12,株式会社曽我川ゴルフランド,,株式会社,奈良県,北葛城郡広陵町,大字広瀬１１１０－１８,,29,426,6350812,,,,,,,2025-05-12,1,,,,,ソガガワゴルフランド,0
1442,5160001026742,新規,0,2025-05-12,2025-05-12,株式会社ｅｔｅｌｕ,,株式会社,滋賀県,草津市,追分南５丁目１５番２６号,,25,206,5250048,,,,,,,2025-05-12,1,,,,,エテル,0
1447,5180001166603,新規,0,2025-05-12,2025-05-12,ＢＭＴ株式会社,,株式会社,愛知県,名古屋市中村区,岩塚町字郷中１１４番地の５,,23,105,4530862,,,,,,,2025-05-12,1,,,,,ビーエムティ,0
1448,5180001166644,新規,0,2025-05-12,2025-05-12,株式会社やまと精工,,株式会社,愛知県,一宮市,北今字十八丁三ノ切１８番地の１,,23,203,4940004,,,,,,,2025-05-12,1,,,,,ヤマトセイコウ,0
1449,5180001166652,新規,0,2025-05-12,2025-05-12,カミムラ工務店株式会社,,株式会社,愛知県,名古屋市緑区,若田２丁目１５１８番地,,23,114,4580034,,,,,,,2025-05-12,1,,,,,カミムラコウムテン,0
1450,5180001166669,新規,0,2025-05-12,2025-05-12,株式会社かめきちスタジオ,,株式会社,愛知県,名古屋市南区,鯛取通１丁目２７番地,,23,112,4570031,,,,,,,2025-05-12,1,,,,,カメキチスタジオ,0
1451,5180001166735,新規,0,2025-05-12,2025-05-12,株式会社エネマ,,株式会社,愛知県,名古屋市中区,新栄２丁目１２－９,,23,106,4600007,,,,,,,2025-05-12,1,,,,,エネマ,0
1453,5180003028446,新規,0,2025-05-12,2025-05-12,合同会社アルズ,,合同会社,愛知県,愛西市,大野山町坪田４４番地,,23,232,4968017,,,,,,,2025-05-12,1,,,,,アルズ,0
1454,5180003028462,新規,0,2025-05-12,2025-05-12,皇帝サウナ合同会社,,合同会社,愛知県,愛西市,西條町二町田４２番地１,,23,232,4960913,,,,,,,2025-05-12,1,,,,,コウテイサウナ,0
1459,5200001043741,新規,0,2025-05-12,2025-05-12,株式会社ＪＤＭ　ＪＩＤＯＳＨＡ,,株式会社,岐阜県,岐阜市,福光西１丁目１５番１５号下條ビル３０１,,21,201,5020814,,,,,,,2025-05-12,1,,,,,ジェイディーエムジドウシャ,0
1460,5200001043758,新規,0,2025-05-12,2025-05-12,中部テクノロジー株式会社,,株式会社,岐阜県,岐阜市,田神１番３３号,,21,201,5008158,,,,,,,2025-05-12,1,,,,,チュウブテクノロジー,0
1466,5230001020903,新規,0,2025-05-12,2025-05-12,株式会社ＢＰコンサルティング,,株式会社,富山県,高岡市,能町駅南２９番地,,16,202,9330077,,,,,,,2025-05-12,1,,,,,ビーピーコンサルティング,0
1475,5260003005164,新規,0,2025-05-12,2025-05-12,合同会社Ｄａｎｃｅ　Ｃｌｕｂ　ＶＩＶＯ,,合同会社,岡山県,岡山市中区,平井１２２９－２２,,33,102,7038282,,,,,,,2025-05-12,1,,,,,ダンスクラブビーボ,0
1480,5290001109897,新規,0,2025-05-12,2025-05-12,株式会社ＥＮＺＩＮ,,株式会社,福岡県,福岡市中央区,天神４丁目６番２８号いちご天神ノースビル７階,,40,133,8100001,,,,,,,2025-05-12,1,,,,,エンジン,0
1481,5290001109930,新規,0,2025-05-12,2025-05-12,株式会社クローバーリンク,,株式会社,福岡県,久留米市,津福本町１４５１番地１,,40,203,8300047,,,,,,,2025-05-12,1,,,,,クローバーリンク,0
1482,5290001109955,新規,0,2025-05-12,2025-05-12,株式会社ＴＭマネジメント,,株式会社,福岡県,福岡市中央区,舞鶴１丁目４番３０号,,40,133,8100073,,,,,,,2025-05-12,1,,,,,ティエムマネジメント,0
1483,5290001110005,新規,0,2025-05-12,2025-05-12,株式会社ＢＥ３ＴＥＣＨ,,株式会社,福岡県,福岡市博多区,東那珂２丁目１０－５５原まるまん第一ビル２０２,,40,132,8120892,,,,,,,2025-05-12,1,,,,,ビースリーテック,0
1484,5290001110013,新規,0,2025-05-12,2025-05-12,ウチノスマイ株式会社,,株式会社,福岡県,福岡市中央区,春吉２丁目１６－１５東峰マンション３１０号室,,40,133,8100003,,,,,,,2025-05-12,1,,,,,ウチノスマイ,0
1487,5290003016811,新規,0,2025-05-12,2025-05-12,合同会社ＣＥＲＥＮＯＶＡ,,合同会社,福岡県,福岡市中央区,天神２丁目２番１２号Ｔ＆Ｊビルディング７Ｆ,,40,133,8100001,,,,,,,2025-05-12,1,,,,,セレノヴァ,0
1488,5290003016828,新規,0,2025-05-12,2025-05-12,合同会社ニシキ,,合同会社,福岡県,春日市,大字下白水６７番地１１,,40,218,8160842,,,,,,,2025-05-12,1,,,,,ニシキ,0
1500,5330003011007,新規,0,2025-05-12,2025-05-12,合同会社しゃらら,,合同会社,熊本県,菊池郡菊陽町,大字津久礼２９８７―９,,43,404,8691101,,,,,,,2025-05-12,1,,,,,シャララ,0
1501,5330005010915,新規,0,2025-05-12,2025-05-12,一般社団法人ＷｉｌｌＡｒｃ,,その他の設立登記法人,熊本県,熊本市中央区,城東町４番７号グランガーデン熊本ビル１階,,43,101,8600846,,,,,,,2025-05-12,1,,,,,ウィルアーク,0
1507,5360001035153,新規,0,2025-05-12,2025-05-12,株式会社ＴＵＫＵＲＵ,,株式会社,沖縄県,那覇市,字国場３３５番地１コーポレーションこくばＢ棟２０５,,47,201,9020075,,,,,,,2025-05-12,1,,,,,ツクル,0
1508,5360001035161,新規,0,2025-05-12,2025-05-12,株式会社ＴＡＩＹＯＵ,,株式会社,沖縄県,中頭郡北中城村,字島袋７０１番地４（左側）,,47,327,9012301,,,,,,,2025-05-12,1,,,,,タイヨウ,0
1509,5360001035178,新規,0,2025-05-12,2025-05-12,Ｆｉｒｓｔｇｅａｒ株式会社,,株式会社,沖縄県,中頭郡中城村,字久場１８７７番地,,47,328,9012401,,,,,,,2025-05-12,1,,,,,ファーストギア,0
1511,5360003014907,新規,0,2025-05-12,2025-05-12,合同会社Ｆｌｏｗｅｒｓ,,合同会社,沖縄県,那覇市,小禄１丁目１８番１９号シティハウス照屋ＩＩ１０１号,00139099,47,201,9010152,,,,,,,2025-05-12,1,,,,,フラワーズ,0
1512,5370003007091,新規,0,2025-05-12,2025-05-12,合同会社ＡＬＩＶＥ　ＭＵＳＩＸ,,合同会社,宮城県,白石市,鷹巣西２丁目７番２１号,,04,206,9890220,,,,,,,2025-05-12,1,,,,,アライブミュージックス,0
1514,5380001035300,新規,0,2025-05-12,2025-05-12,株式会社ＣＡＧ猪俣,,株式会社,福島県,河沼郡会津坂下町,大字樋島字上野２２２６番地,,07,421,9696574,,,,,,,2025-05-12,1,,,,,シーエージーイノマタ,0
1516,5380003006035,新規,0,2025-05-12,2025-05-12,合同会社ＹＵＲＩ＆Ｍ,,合同会社,福島県,いわき市,植田町南町１丁目６番地の１１,,07,204,9748261,,,,,,,2025-05-12,1,,,,,ユリアンドエム,0
1522,5420001019125,新規,0,2025-05-12,2025-05-12,株式会社カラーズ,,株式会社,青森県,黒石市,大字上十川字北原六番１番地１７,,02,204,0360323,,,,,,,2025-05-12,1,,,,,カラーズ,0
1523,5420001019133,新規,0,2025-05-12,2025-05-12,株式会社ＡｐｒｉＦＬＥＵＲｅｔ,,株式会社,青森県,弘前市,大字大清水１丁目１５番地１８,,02,202,0368161,,,,,,,2025-05-12,1,,,,,アプリフルーレット,0
1529,5430001094340,新規,0,2025-05-12,2025-05-12,株式会社リンク,,株式会社,北海道,苫小牧市,ときわ町２丁目１５番１２号,,01,213,0591261,,,,,,,2025-05-12,1,,,,,リンク,0
1530,5430001094357,新規,0,2025-05-12,2025-05-12,株式会社ＣＯＮＥＣＴＡＬＬ,,株式会社,北海道,札幌市中央区,南二条西５丁目３１番地１ＲＭＢｌｄ．７０１,,01,101,0600062,,,,,,,2025-05-12,1,,,,,コネクタル,0
1533,5450001014610,新規,0,2025-05-12,2025-05-12,株式会社岡本組,,株式会社,北海道,旭川市,末広一条８丁目７番７号,,01,204,0718131,,,,,,,2025-05-12,1,,,,,オカモトグミ,0
1534,5450003002654,新規,0,2025-05-12,2025-05-12,合同会社ＤｅＮ,,合同会社,北海道,旭川市,新富二条１丁目１４番１３号,,01,204,0700002,,,,,,,2025-05-12,1,,,,,デン,0
1542,6010001254258,新規,0,2025-05-12,2025-05-12,株式会社４Ｄ．ｊｐ,,株式会社,東京都,千代田区,神田佐久間町２丁目７番地,,13,101,1010025,,,,,,,2025-05-12,1,,,,,フォーディードットジェイピー,0
1543,6010001254588,新規,0,2025-05-12,2025-05-12,株式会社プラスサイクルズ,,株式会社,東京都,千代田区,神田佐久間町１丁目８番地４アルテール秋葉原７０８,,13,101,1010025,,,,,,,2025-05-12,1,,,,,プラスサイクルズ,0
1544,6010001254828,新規,0,2025-05-12,2025-05-12,ワークネクト株式会社,,株式会社,東京都,中央区,日本橋室町１丁目１１番１２号　日本橋水野ビル７階,,13,102,1030022,,,,,,,2025-05-12,1,,,,,ワークネクト,0
1545,6010001254943,新規,0,2025-05-12,2025-05-12,株式会社言希,,株式会社,東京都,中央区,銀座７丁目１３番６号サガミビル２階,,13,102,1040061,,,,,,,2025-05-12,1,,,,,ゲンキ,0
1547,6010401189624,新規,0,2025-05-12,2025-05-12,Ｄｅｓｏｒｍｅａｕｘ株式会社,,株式会社,東京都,港区,芝浦２丁目９番地１プランズタワー芝浦２２０１,,13,103,1080023,,,,,,,2025-05-12,1,,,,,デサーモ,0
1548,6010401190086,新規,0,2025-05-12,2025-05-12,Ｈｉｂｉ　Ｈｏｌｄｉｎｇｓ株式会社,,株式会社,東京都,港区,麻布台３丁目４番４号コンフォリア麻布台,,13,103,1060041,,,,,,,2025-05-12,1,,,,,ヒビホールディングス,0
1549,6010401190136,新規,0,2025-05-12,2025-05-12,株式会社ステラ,,株式会社,東京都,港区,南麻布５丁目４番２号オパス有栖川テラスアンドレジデンス,,13,103,1060047,,,,,,,2025-05-12,1,,,,,ステラ,0
1550,6010401190160,新規,0,2025-05-12,2025-05-12,株式会社ＡＰアセットマネジメント,,株式会社,東京都,港区,東新橋１丁目１番１９号,,13,103,1050021,,,,,,,2025-05-12,1,,,,,エーピーアセットマネジメント,0
1551,6010401190169,新規,0,2025-05-12,2025-05-12,株式会社Ｉｂｕｋｉ,,株式会社,東京都,港区,南青山３丁目１番３６号青山丸竹ビル６Ｆ,,13,103,1070062,,,,,,,2025-05-12,1,,,,,イブキ,0
1552,6010401190177,新規,0,2025-05-12,2025-05-12,株式会社ＹＫＪ　ｐａｒｔｎｅｒｓ,,株式会社,東京都,港区,北青山１丁目３番１号アールキューブ青山３階,,13,103,1070061,,,,,,,2025-05-12,1,,,,,ワイケイジェイパートナーズ,0
1553,6010401190185,新規,0,2025-05-12,2025-05-12,ＬＳ‐ＳＨＩＰ第７８号株式会社,,株式会社,東京都,港区,六本木１丁目６番１号,,13,103,1060032,,,,,,,2025-05-12,1,,,,,エルエスシップダイナナジュウハチゴウ,0
1554,6010401190235,新規,0,2025-05-12,2025-05-12,ジーエフアジア株式会社,,株式会社,東京都,港区,高輪３丁目１２番８号,,13,103,1080074,,,,,,,2025-05-12,1,,,,,ジーエフアジア,0
1555,6010401190243,新規,0,2025-05-12,2025-05-12,東京アパレル株式会社,,株式会社,東京都,港区,三田１丁目６番３－２２０３号,,13,103,1080073,,,,,,,2025-05-12,1,,,,,トウキョウアパレル,0
1557,6010403035041,新規,0,2025-05-12,2025-05-12,ピーク・エナジー・ジャパンＤＧ１合同会社,,合同会社,東京都,港区,浜松町２丁目１０番６号,,13,103,1050013,,,,,,,2025-05-12,1,,,,,ピークエナジージャパンディージーワン,0
1558,6010403035058,新規,0,2025-05-12,2025-05-12,合同会社ゼロワン,,合同会社,東京都,港区,赤坂４丁目８番１９号赤坂フロントタウン３階,,13,103,1070052,,,,,,,2025-05-12,1,,,,,ゼロワン,0
1559,6010403035066,新規,0,2025-05-12,2025-05-12,合同会社兼清,,合同会社,東京都,港区,高輪１丁目２７番３７号高輪ザ・レジデンスタワー棟１４１２号室,,13,103,1080074,,,,,,,2025-05-12,1,,,,,カネキヨ,0
1564,6010601067274,新規,0,2025-05-12,2025-05-12,株式会社ＧＣＧ,,株式会社,東京都,江東区,亀戸５丁目２６番４号,,13,108,1360071,,,,,,,2025-05-12,1,,,,,ジーシージー,0
1565,6010603011552,新規,0,2025-05-12,2025-05-12,合同会社Ｍツリー,,合同会社,東京都,墨田区,墨田３丁目３１番３号,,13,107,1310031,,,,,,,2025-05-12,1,,,,,エムツリー,0
1566,6010801036112,新規,0,2025-05-12,2025-05-12,株式会社ＭＨビジネスサポート,,株式会社,東京都,大田区,山王２丁目５番１３号大森北口ビル５階,,13,111,1430023,,,,,,,2025-05-12,1,,,,,エムエイチビジネスサポート,0
1570,6011001169784,新規,0,2025-05-12,2025-05-12,株式会社ピボットパートナーズ,,株式会社,東京都,渋谷区,道玄坂１丁目１０番８号渋谷道玄坂東急ビル２Ｆ－Ｃ,,13,113,1500043,,,,,,,2025-05-12,1,,,,,ピボットパートナーズ,0
1572,6011003021522,新規,0,2025-05-12,2025-05-12,合同会社イークラウド,,合同会社,東京都,渋谷区,道玄坂１丁目１０番８号渋谷道玄坂東急ビル２Ｆ－Ｃ,,13,113,1500043,,,,,,,2025-05-12,1,,,,,イークラウド,0
1574,6011101111563,新規,0,2025-05-12,2025-05-12,株式会社アトラス,,株式会社,東京都,新宿区,西新宿３丁目３番１３号西新宿水間ビル２Ｆ,,13,104,1600023,,,,,,,2025-05-12,1,,,,,アトラス,0
1575,6011101111654,新規,0,2025-05-12,2025-05-12,ＶＥＴＡ株式会社,,株式会社,東京都,新宿区,西早稲田１丁目２２番３号,,13,104,1690051,,,,,,,2025-05-12,1,,,,,ヴィータ,0
1576,6011101111662,新規,0,2025-05-12,2025-05-12,株式会社ＨＩＫＥ　Ｈｏｌｄｉｎｇｓ,,株式会社,東京都,新宿区,西新宿３丁目２番４号,,13,104,1600023,,,,,,,2025-05-12,1,,,,,ハイクホールディングス,0
1577,6011101111687,新規,0,2025-05-12,2025-05-12,サンコーポレーション株式会社,,株式会社,東京都,新宿区,市谷八幡町１６番地市ヶ谷見附ハイム６０２,,13,104,1620844,,,,,,,2025-05-12,1,,,,,サンコーポレーション,0
1578,6011101111712,新規,0,2025-05-12,2025-05-12,株式会社ケイツーライズ,,株式会社,東京都,新宿区,新宿１丁目３６番２号新宿第七葉山ビル３Ｆ,,13,104,1600022,,,,,,,2025-05-12,1,,,,,ケイツーライズ,0
1579,6011103015853,新規,0,2025-05-12,2025-05-12,ＭＩＲＡ合同会社,,合同会社,東京都,新宿区,新宿１丁目２９番５号グランドメゾン新宿東２０９,,13,104,1600022,,,,,,,2025-05-12,1,,,,,ミラ,0
1580,6011103015878,新規,0,2025-05-12,2025-05-12,合同会社アミュー,,合同会社,東京都,新宿区,市谷薬王寺町２０番４８号パークリュクス市谷薬王寺６０１,,13,104,1620063,,,,,,,2025-05-12,1,,,,,アミュー,0
1585,6011501032038,新規,0,2025-05-12,2025-05-12,Ｔａｎｐｏｐｏ株式会社,,株式会社,東京都,北区,田端３丁目８－６－４０１号,,13,117,1140014,,,,,,,2025-05-12,1,,,,,タンポポ,0
1586,6011501032062,新規,0,2025-05-12,2025-05-12,ゴムマリ株式会社,,株式会社,東京都,荒川区,東日暮里３丁目９－４－７０４,,13,118,1160014,,,,,,,2025-05-12,1,,,,,ゴムマリ,0
1587,6011503006527,新規,0,2025-05-12,2025-05-12,合同会社３５７ＴＳＵＫＡＳＡ,,合同会社,東京都,荒川区,荒川５丁目８番１０号,,13,118,1160002,,,,,,,2025-05-12,1,,,,,サンゴーナナツカサ,0
1588,6011601028638,新規,0,2025-05-12,2025-05-12,株式会社メディア会議,,株式会社,東京都,練馬区,谷原３丁目１８番１４号,,13,120,1770032,,,,,,,2025-05-12,1,,,,,メディアカイギ,0
1591,6011603004703,新規,0,2025-05-12,2025-05-12,Ｃｌｕｂ　ＮＡＮｅｅＲｏ合同会社,,合同会社,東京都,練馬区,羽沢３丁目３３番１１－２０２号,,13,120,1760003,,,,,,,2025-05-12,1,,,,,クラブナニーロ,0
1592,6011701028323,新規,0,2025-05-12,2025-05-12,Ａｓｔｒｏ　Ｎｅｘｕｓ　Ｊａｐａｎ株式会社,,株式会社,東京都,江戸川区,北葛西２丁目９番１３号,,13,123,1340081,,,,,,,2025-05-12,1,,,,,アストロネクサスジャパン,0
1600,6011803006846,新規,0,2025-05-12,2025-05-12,合同会社Ａ．Ａ．商事,,合同会社,東京都,葛飾区,新小岩１丁目３５番５号本田ビル２０２号,,13,122,1240024,,,,,,,2025-05-12,1,,,,,エイエイショウジ,0
1601,6012301014358,新規,0,2025-05-12,2025-05-12,株式会社アクアファシリティーサービス,,株式会社,東京都,町田市,森野１丁目３６番２号,,13,209,1940022,,,,,,,2025-05-12,1,,,,,アクアファシリティーサービス,0
1605,6012805003336,新規,0,2025-05-12,2025-05-12,一般社団法人先代ファーストの事業承継研究会,,その他の設立登記法人,東京都,昭島市,拝島町３丁目３番３７号,,13,207,1960002,,,,,,,2025-05-12,1,,,,,センダイファーストノジギョウショウケイケンキュウカイ,0
1607,6013103001445,新規,0,2025-05-12,2025-05-12,向日葵合同会社,,合同会社,東京都,福生市,大字福生１９７４番地２６,,13,218,1970011,,,,,,,2025-05-12,1,,,,,ヒマワリ,0
1610,6013301054220,新規,0,2025-05-12,2025-05-12,株式会社Ｃｒｅａｔｉｏｎ,,株式会社,東京都,豊島区,東池袋２丁目６２番８号ＢＩＧオフィスプラザ池袋１２０６,,13,116,1700013,,,,,,,2025-05-12,1,,,,,クリエイション,0
1612,6020001162690,新規,0,2025-05-12,2025-05-12,株式会社Ｋ１Ｒ,,株式会社,神奈川県,横浜市鶴見区,鶴見中央１丁目１７－５－２０３,,14,101,2300051,,,,,,,2025-05-12,1,,,,,ケイワンアール,0
1613,6020001162781,新規,0,2025-05-12,2025-05-12,株式会社ＢＡＤ　ＤＲＥＡＭ　ＭＵＳＩＣ,,株式会社,神奈川県,川崎市高津区,下作延６丁目５番２７号グレイスイン津田山１０５,,14,134,2130033,,,,,,,2025-05-12,1,,,,,バッドドリームミュージック,0
1614,6020001162798,新規,0,2025-05-12,2025-05-12,Ｐｌａｎｔｈｒｏ株式会社,,株式会社,神奈川県,横浜市戸塚区,上柏尾町３７９－６７,,14,110,2440811,,,,,,,2025-05-12,1,,,,,プランソロ,0
1615,6020001162815,新規,0,2025-05-12,2025-05-12,株式会社流星,,株式会社,神奈川県,横浜市中区,本牧町１丁目１５番地９,,14,104,2310806,,,,,,,2025-05-12,1,,,,,リュウセイ,0
1622,6020003028411,新規,0,2025-05-12,2025-05-12,合同会社アトラス,,合同会社,神奈川県,川崎市高津区,子母口２３９－４,,14,134,2130023,,,,,,,2025-05-12,1,,,,,アトラス,0
1623,6020003028485,新規,0,2025-05-12,2025-05-12,合同会社パディ,,合同会社,神奈川県,横浜市金沢区,六浦南５丁目１１番５‐４１３号,,14,108,2360038,,,,,,,2025-05-12,1,,,,,パディ,0
1624,6020005016835,新規,0,2025-05-12,2025-05-12,一般社団法人やどりぎ,,その他の設立登記法人,神奈川県,横浜市青葉区,美しが丘１丁目１３番地１０吉村ビル１０７号,,14,117,2250002,,,,,,,2025-05-12,1,,,,,ヤドリギ,0
1629,6021001085213,新規,0,2025-05-12,2025-05-12,株式会社リプロトレーディング,,株式会社,神奈川県,厚木市,みはる野１丁目１４番５号,,14,212,2430208,,,,,,,2025-05-12,1,,,,,リプロトレーディング,0
1632,6030001166451,新規,0,2025-05-12,2025-05-12,株式会社住マイルＵＰ,,株式会社,埼玉県,越谷市,千間台西５丁目６番地４,,11,222,3430041,,,,,,,2025-05-12,1,,,,,スマイルアップ,0
1633,6030003026694,新規,0,2025-05-12,2025-05-12,合同会社日向,,合同会社,埼玉県,朝霞市,三原１丁目６番２６号メゾンセイワ１０５,,11,227,3510025,,,,,,,2025-05-12,1,,,,,ヒナタ,0
1638,6040001138664,新規,0,2025-05-12,2025-05-12,株式会社エンアンド,,株式会社,千葉県,松戸市,松戸２２８２番地の５,,12,207,2710092,,,,,,,2025-05-12,1,,,,,エンアンド,0
1639,6040001138672,新規,0,2025-05-12,2025-05-12,エムシステム株式会社,,株式会社,千葉県,印旛郡酒々井町,東酒々井２丁目２番１９０,,12,322,2850923,,,,,,,2025-05-12,1,,,,,エムシステム,0
1640,6040001138680,新規,0,2025-05-12,2025-05-12,Ｓ・Ｔ・Ｂ株式会社,,株式会社,千葉県,船橋市,芝山４丁目５番５号,,12,204,2740816,,,,,,,2025-05-12,1,,,,,エスティービー,0
1644,6040003027519,新規,0,2025-05-12,2025-05-12,合同会社古川商店,,合同会社,千葉県,銚子市,忍町４１番地,,12,202,2880867,,,,,,,2025-05-12,1,,,,,フルカワショウテン,0
1645,6050001056634,新規,0,2025-05-12,2025-05-12,株式会社杏寿,,株式会社,茨城県,牛久市,城中町１９５５番地２３,,08,219,3001223,,,,,,,2025-05-12,1,,,,,キョウジュ,0
1646,6050001056650,新規,0,2025-05-12,2025-05-12,株式会社Ｙ‐ｐａｉｎｔ,,株式会社,茨城県,行方市,蔵川４１３番地１,,08,233,3113821,,,,,,,2025-05-12,1,,,,,ワイペイント,0
1648,6050003009251,新規,0,2025-05-12,2025-05-12,合同会社Ｍａｇｉｃａｌ,,合同会社,茨城県,牛久市,南４丁目４６番地１,,08,219,3001222,,,,,,,2025-05-12,1,,,,,マジカル,0
1661,6100003008149,新規,0,2025-05-12,2025-05-12,合同会社みのる農園,,合同会社,長野県,伊那市,小沢７９０４番地１,,20,209,3960032,,,,,,,2025-05-12,1,,,,,ミノルノウエン,0
1675,6120001275219,新規,0,2025-05-12,2025-05-12,ｓｐｒｉｎｇ‐ｒｅａ株式会社,,株式会社,大阪府,大阪市都島区,友渕町１丁目５番１２－６０１号,,27,102,5340016,,,,,,,2025-05-12,1,,,,,スプリングレア,0
1676,6120001275276,新規,0,2025-05-12,2025-05-12,今村不動産ホールディングス株式会社,,株式会社,大阪府,大阪市西区,立売堀１丁目４番１２号３階,,27,106,5500012,,,,,,,2025-05-12,1,,,,,イマムラフドウサンホールディングス,0
1677,6120001275292,新規,0,2025-05-12,2025-05-12,日本浅井国際貿易株式会社,,株式会社,大阪府,大阪市東淀川区,菅原７丁目１０番２７－４０２号,,27,114,5330022,,,,,,,2025-05-12,1,,,,,ニホンアサイコクサイボウエキ,0
1678,6120001275350,新規,0,2025-05-12,2025-05-12,株式会社ＴＦＴ,,株式会社,大阪府,大阪市中央区,島之内１丁目１３番３－６０２号,,27,128,5420082,,,,,,,2025-05-12,1,,,,,ティーエフティー,0
1679,6120001275359,新規,0,2025-05-12,2025-05-12,ＹＢＬ　ＪＡＰＡＮ株式会社,,株式会社,大阪府,大阪市浪速区,下寺３丁目１番１４号,,27,111,5560001,,,,,,,2025-05-12,1,,,,,ワイビーエルジャパン,0
1680,6120001275383,新規,0,2025-05-12,2025-05-12,株式会社ヒジリガオカ,,株式会社,大阪府,大阪市北区,同心１丁目４番２号,,27,127,5300035,,,,,,,2025-05-12,1,,,,,ヒジリガオカ,0
1681,6120001275433,新規,0,2025-05-12,2025-05-12,株式会社ＳＡＬＩＬ,,株式会社,大阪府,大阪市北区,神山町９番１４号オリカ神山テナントビル５階,,27,127,5300026,,,,,,,2025-05-12,1,,,,,サリル,0
1682,6120001275474,新規,0,2025-05-12,2025-05-12,複欣商事株式会社,,株式会社,大阪府,大阪市東住吉区,矢田４丁目９－１５－３０３,,27,121,5460023,,,,,,,2025-05-12,1,,,,,フクキンショウジ,0
1683,6120001275532,新規,0,2025-05-12,2025-05-12,株式会社Ｃｅｓ,,株式会社,大阪府,大阪市東成区,中道４丁目９番９号,,27,115,5370025,,,,,,,2025-05-12,1,,,,,シーズ,0
1684,6120001275540,新規,0,2025-05-12,2025-05-12,株式会社賃貸経営不動産,,株式会社,大阪府,大阪市中央区,南船場３丁目１番８号,,27,128,5420081,,,,,,,2025-05-12,1,,,,,チンタイケイエイフドウサン,0
1685,6120001275581,新規,0,2025-05-12,2025-05-12,株式会社メルシーラボ,,株式会社,大阪府,大阪市北区,堂山町１２－５ロイヤルハイツ梅田ＩＩ２０３号室,00139108,27,127,5300027,,,,,,,2025-05-12,1,,,,,メルシーラボ,0
1686,6120001275598,新規,0,2025-05-12,2025-05-12,株式会社イースパーク,,株式会社,大阪府,大阪市中央区,南本町３丁目６番７号富士本町ビル１００１号,,27,128,5410054,,,,,,,2025-05-12,1,,,,,イースパーク,0
1687,6120001275631,新規,0,2025-05-12,2025-05-12,株式会社Ｇｏｏｄ,,株式会社,大阪府,大阪市中央区,谷町６丁目１４番１３号,,27,128,5420012,,,,,,,2025-05-12,1,,,,,グッド,0
1688,6120001275697,新規,0,2025-05-12,2025-05-12,星禾株式会社,,株式会社,大阪府,大阪市浪速区,難波中２丁目８番７０号２階,,27,111,5560011,,,,,,,2025-05-12,1,,,,,セイカ,0
1690,6120003029366,新規,0,2025-05-12,2025-05-12,合同会社山口工務店,,合同会社,大阪府,大阪市東淀川区,下新庄３丁目９番５７号,,27,114,5330021,,,,,,,2025-05-12,1,,,,,ヤマグチコウムテン,0
1691,6120003029399,新規,0,2025-05-12,2025-05-12,ＹＫ　ＣＯＭＰＡＮＹ合同会社,,合同会社,大阪府,大阪市中央区,東心斎橋１丁目１６番２４号２Ｆ,,27,128,5420083,,,,,,,2025-05-12,1,,,,,ワイケイカンパニー,0
1692,6120003029440,新規,0,2025-05-12,2025-05-12,合同会社ＫＡＮＩ,,合同会社,大阪府,大阪市平野区,長吉六反３丁目１７‐２３カニスタジオ,,27,126,5470012,,,,,,,2025-05-12,1,,,,,カニ,0
1694,6120102011877,新規,0,2025-05-12,2025-05-12,有限会社ＫＰＭオフィス,,有限会社,大阪府,堺市中区,土師町３丁１１番４８号,,27,142,5998238,,,,,,,2025-05-12,1,,,,,ケーピーエムオフィス,0
1696,6120103006447,新規,0,2025-05-12,2025-05-12,ＳＫＣ合同会社,,合同会社,大阪府,堺市中区,福田８３７番地,,27,142,5998241,,,,,,,2025-05-12,1,,,,,エスケーシー,0
1701,6120901050828,新規,0,2025-05-12,2025-05-12,株式会社ＳＤＭ,,株式会社,大阪府,豊能郡能勢町,平通１０１番地の４０１,,27,322,5630356,,,,,,,2025-05-12,1,,,,,エスディーエム,0
1702,6120901050893,新規,0,2025-05-12,2025-05-12,株式会社さくらソーシャルワークラボ,,株式会社,大阪府,箕面市,西小路３丁目３－３６ラーバンハイツ１０２号室,,27,220,5620003,,,,,,,2025-05-12,1,,,,,サクラソーシャルワークラボ,0
1703,6120903005648,新規,0,2025-05-12,2025-05-12,セールストラスト一松合同会社,,合同会社,大阪府,吹田市,千里山西６丁目９番４－３０６号,,27,205,5650851,,,,,,,2025-05-12,1,,,,,セールストラストイチマツ,0
1706,6130001079643,新規,0,2025-05-12,2025-05-12,株式会社エキサイマー,,株式会社,京都府,京都市左京区,岡崎円勝寺町９１－５８バーチェ岡崎神宮道４０１号,,26,103,6068344,,,,,,,2025-05-12,1,,,,,エキサイマー,0
1709,6140001138407,新規,0,2025-05-12,2025-05-12,株式会社はっとり,,株式会社,兵庫県,明石市,太寺３丁目７番１０号,,28,203,6730845,,,,,,,2025-05-12,1,,,,,ハットリ,0
1710,6140001138456,新規,0,2025-05-12,2025-05-12,株式会社シュウエステート,,株式会社,兵庫県,南あわじ市,山添５２４番地,,28,224,6560121,,,,,,,2025-05-12,1,,,,,シュウエステート,0
1711,6140001138480,新規,0,2025-05-12,2025-05-12,株式会社Ｔａｋａｒａ　Ｖａｌｕｅ,,株式会社,兵庫県,宝塚市,川面６丁目４番９号,,28,214,6650842,,,,,,,2025-05-12,1,,,,,タカラバリュー,0
1712,6140001138489,新規,0,2025-05-12,2025-05-12,芦屋不動産販売株式会社,,株式会社,兵庫県,芦屋市,川西町１０番１－１０１号,,28,206,6590072,,,,,,,2025-05-12,1,,,,,アシヤフドウサンハンバイ,0
1716,6160003003466,新規,0,2025-05-12,2025-05-12,合同会社ＪＪＪ,,合同会社,滋賀県,大津市,雄琴１丁目２番９号レークフロント初音６号,,25,201,5200101,,,,,,,2025-05-12,1,,,,,ジェイジェイジェイ,0
1717,6170001018622,新規,0,2025-05-12,2025-05-12,株式会社紀州食品,,株式会社,和歌山県,西牟婁郡白浜町,９１９番地の７,,30,401,6492211,,,,,,,2025-05-12,1,,,,,キシュウショクヒン,0
1723,6180001166619,新規,0,2025-05-12,2025-05-12,株式会社アキサス,,株式会社,愛知県,一宮市,千秋町加茂字長畑２０番地４,,23,203,4910801,,,,,,,2025-05-12,1,,,,,アキサス,0
1724,6180001166692,新規,0,2025-05-12,2025-05-12,株式会社Ｈｏｏｋ．ｕｐ,,株式会社,愛知県,名古屋市中区,栄１丁目２５番３号フラットベースＡ１２Ｄ,,23,106,4600008,,,,,,,2025-05-12,1,,,,,フックアップ,0
1725,6180001166718,新規,0,2025-05-12,2025-05-12,株式会社ＫＩＹＯＫＩＮ,,株式会社,愛知県,名古屋市名東区,高針原２丁目１９０９番地の３,,23,115,4650073,,,,,,,2025-05-12,1,,,,,キヨキン,0
1726,6180001166726,新規,0,2025-05-12,2025-05-12,株式会社成古屋,,株式会社,愛知県,名古屋市昭和区,大和町２丁目１７番地,,23,107,4660024,,,,,,,2025-05-12,1,,,,,ナリゴヤ,0
1727,6180001166767,新規,0,2025-05-12,2025-05-12,株式会社マルミネエクステリア,,株式会社,愛知県,日進市,赤池町モチロ６１番地９５６,,23,230,4700126,,,,,,,2025-05-12,1,,,,,マルミネエクステリア,0
1728,6180001166775,新規,0,2025-05-12,2025-05-12,Ｃ‐Ｂａｎｋｓ株式会社,,株式会社,愛知県,名古屋市瑞穂区,関取町１７番地,,23,108,4670058,,,,,,,2025-05-12,1,,,,,シーバンクス,0
1736,6180003028429,新規,0,2025-05-12,2025-05-12,合同会社Ｂｕｚｚ　Ｃｒａｆｔ,,合同会社,愛知県,名古屋市中区,松原２丁目１９番３８号,,23,106,4600017,,,,,,,2025-05-12,1,,,,,バズクラフト,0
1737,6180003028437,新規,0,2025-05-12,2025-05-12,合同会社ＲｅＢｏｈａ,,合同会社,愛知県,名古屋市東区,東桜２丁目３番７号,,23,102,4610005,,,,,,,2025-05-12,1,,,,,リボハ,0
1738,6180003028445,新規,0,2025-05-12,2025-05-12,合同会社Ｋｏｎｉ＆Ｒｅｉ,,合同会社,愛知県,名古屋市西区,香呑町６丁目３１－２,,23,104,4510015,,,,,,,2025-05-12,1,,,,,コニアンドレイ,0
1739,6180005021092,新規,0,2025-05-12,2025-05-12,一般社団法人アナトリア協会,,その他の設立登記法人,愛知県,小牧市,城山１丁目６番地１,,23,219,4850812,,,,,,,2025-05-12,1,,,,,アナトリアキョウカイ,0
1745,6180303006571,新規,0,2025-05-12,2025-05-12,合同会社ＯＫＩＲＡＫＵ,,合同会社,愛知県,豊橋市,杉山町字知原１２番地の１３１７,,23,201,4413302,,,,,,,2025-05-12,1,,,,,オキラク,0
1748,6190001032209,新規,0,2025-05-12,2025-05-12,株式会社栗原建築,,株式会社,三重県,鈴鹿市,南旭が丘３丁目７番２号,,24,207,5100213,,,,,,,2025-05-12,1,,,,,クリハラケンチク,0
1750,6190003005030,新規,0,2025-05-12,2025-05-12,合同会社ｍｉｍｏｒｉｓ,,合同会社,三重県,桑名市,大字矢田２６０番地１２,,24,205,5110821,,,,,,,2025-05-12,1,,,,,,0
1755,6200001043749,新規,0,2025-05-12,2025-05-12,株式会社Ｐｉａ　Ａｕｔｏ,,株式会社,岐阜県,土岐市,妻木町４９番地の３,,21,212,5095301,,,,,,,2025-05-12,1,,,,,ピアオート,0
1769,6260001040170,新規,0,2025-05-12,2025-05-12,株式会社ＳＵＭＩＲＥ,,株式会社,岡山県,玉野市,築港２丁目２番１９号,,33,204,7060002,,,,,,,2025-05-12,1,,,,,スミレ,0
1770,6260001040179,新規,0,2025-05-12,2025-05-12,株式会社八ッ葉,,株式会社,岡山県,赤磐市,弥上８９１番地,,33,213,7090734,,,,,,,2025-05-12,1,,,,,ヤツバ,0
1771,6260001040187,新規,0,2025-05-12,2025-05-12,株式会社彩匠,,株式会社,岡山県,総社市,北溝手６５４番地,,33,208,7191117,,,,,,,2025-05-12,1,,,,,サイショウ,0
1781,6290001109764,新規,0,2025-05-12,2025-05-12,筑後産業開発株式会社,,株式会社,福岡県,久留米市,西町１２２１番地６,,40,203,8300038,,,,,,,2025-05-12,1,,,,,チクゴサンギョウカイハツ,0
1782,6290001109946,新規,0,2025-05-12,2025-05-12,株式会社トロイス,,株式会社,福岡県,久留米市,諏訪野町１６６０番地６,,40,203,8300037,,,,,,,2025-05-12,1,,,,,トロイス,0
1783,6290001109954,新規,0,2025-05-12,2025-05-12,株式会社ミライホールディングス,,株式会社,福岡県,福岡市中央区,平尾３丁目２６番１３－２０３号,,40,133,8100014,,,,,,,2025-05-12,1,,,,,ミライホールディングス,0
1784,6290001109987,新規,0,2025-05-12,2025-05-12,西日本食品株式会社,,株式会社,福岡県,福岡市中央区,春吉２丁目５番１号,,40,133,8100003,,,,,,,2025-05-12,1,,,,,ニシニホンショクヒン,0
1785,6290003016819,新規,0,2025-05-12,2025-05-12,合同会社オルビス,,合同会社,福岡県,福岡市東区,香椎照葉７丁目６番１６号,,40,131,8130017,,,,,,,2025-05-12,1,,,,,オルビス,0
1790,6310001019597,新規,0,2025-05-12,2025-05-12,株式会社タマシロ,,株式会社,長崎県,佐世保市,針尾北町７９０番地５,,42,202,8593454,,,,,,,2025-05-12,1,,,,,タマシロ,0
1794,6330005010914,新規,0,2025-05-12,2025-05-12,明るい人事労働者協同組合,,その他の設立登記法人,熊本県,熊本市西区,春日１丁目１４番１号くまもと森都心プラザ２階ＸＯＳＳＰＯＩＮＴ．創業支援室Ｃ室,,43,103,8600047,,,,,,,2025-05-12,1,,,,,アカルイジンジ,0
1795,6340001027325,新規,0,2025-05-12,2025-05-12,株式会社マサモリ電機,,株式会社,鹿児島県,熊毛郡南種子町,中之上２７３６番地２,,46,502,8913701,,,,,,,2025-05-12,1,,,,,マサモリデンキ,0
1798,6350001019528,新規,0,2025-05-12,2025-05-12,株式会社Ｔｏ．ＰＬＡＮ,,株式会社,宮崎県,宮崎市,橘通東４丁目１番４号河北ビル２Ｆ,,45,201,8800805,,,,,,,2025-05-12,1,,,,,トゥープラン,0
1800,6350003004908,新規,0,2025-05-12,2025-05-12,ＪＡＰＡＮ　ＴＥＣＨ合同会社,,合同会社,宮崎県,宮崎市,学園木花台北３丁目１番地県営住宅２３棟１０号,,45,201,8892152,,,,,,,2025-05-12,1,,,,,ジャパンテク,0
1801,6350003004932,新規,0,2025-05-12,2025-05-12,合同会社ＳＲ,,合同会社,宮崎県,都城市,上川東４丁目５９７５番地１、２階,,45,202,8850012,,,,,,,2025-05-12,1,,,,,エスアール,0
1803,6350005006308,新規,0,2025-05-12,2025-05-12,特定非営利活動法人Ｌｉｇｈｔ照らす,,その他の設立登記法人,宮崎県,宮崎市,橘通西３丁目１０－３２,,45,201,8800001,,,,,,,2025-05-12,1,,,,,ライトテラス,0
1804,6360001035136,新規,0,2025-05-12,2025-05-12,株式会社Ｂｌｕｅ　Ｗａｇ,,株式会社,沖縄県,中頭郡北谷町,字桑江３５０番地２１,,47,326,9040103,,,,,,,2025-05-12,1,,,,,ブルーワグ,0
1805,6360001035144,新規,0,2025-05-12,2025-05-12,株式会社ソウルナビゲーター,,株式会社,沖縄県,浦添市,字港川２５２番地５プレミスト浦添港川１１０６,,47,208,9012134,,,,,,,2025-05-12,1,,,,,ソウルナビゲーター,0
1806,6360001035160,新規,0,2025-05-12,2025-05-12,株式会社沖縄ゆりの花,,株式会社,沖縄県,那覇市,東町１８番４号６Ｆ,,47,201,9000034,,,,,,,2025-05-12,1,,,,,オキナワユリノハナ,0
1807,6360001035185,新規,0,2025-05-12,2025-05-12,株式会社いえくぼ不動産,,株式会社,沖縄県,糸満市,西川町１７番２号,,47,210,9010304,,,,,,,2025-05-12,1,,,,,イエクボフドウサン,0
1810,6360003014906,新規,0,2025-05-12,2025-05-12,合同会社田所商会,,合同会社,沖縄県,那覇市,高良３丁目６番１２号,,47,201,9010145,,,,,,,2025-05-12,1,,,,,タドコロショウカイ,0
1811,6360005007230,新規,0,2025-05-12,2025-05-12,一般社団法人対人関係支援士協会,,その他の設立登記法人,沖縄県,中頭郡嘉手納町,字嘉手納２５８番地２ＫＡＤＥＮＡビル,,47,325,9040203,,,,,,,2025-05-12,1,,,,,タイジンカンケイシエンシキョウカイ,0
1816,6370003007090,新規,0,2025-05-12,2025-05-12,合同会社Ｒｅｉｔｏ,,合同会社,宮城県,柴田郡大河原町,字西桜町２６番地１６,,04,321,9891273,,,,,,,2025-05-12,1,,,,,レイト,0
1821,6380001035299,新規,0,2025-05-12,2025-05-12,株式会社エビスツーリスト,,株式会社,福島県,福島市,飯野町字町２１番地,,07,201,9601301,,,,,,,2025-05-12,1,,,,,エビスツーリスト,0
1822,6380001035308,新規,0,2025-05-12,2025-05-12,株式会社ブルーアーク,,株式会社,福島県,郡山市,安積町荒井字安倍５番地の１２,,07,203,9630111,,,,,,,2025-05-12,1,,,,,ブルーアーク,0
1829,6420001019124,新規,0,2025-05-12,2025-05-12,株式会社東高メタル,,株式会社,青森県,八戸市,売市４丁目５番２４号,,02,203,0310073,,,,,,,2025-05-12,1,,,,,トウコウメタル,0
1831,6430001094348,新規,0,2025-05-12,2025-05-12,Ａｓｓｅｔ　Ｉｎｖｅｓｔｍｅｎｔ株式会社,,株式会社,北海道,札幌市中央区,北五条西６丁目１－２３北海道通信ビル９Ｆ,,01,101,0600005,,,,,,,2025-05-12,1,,,,,アセットインベストメント,0
1832,6430001094356,新規,0,2025-05-12,2025-05-12,株式会社フェニックス,,株式会社,北海道,札幌市東区,北四十一条東１５丁目１番３５号,,01,103,0070841,,,,,,,2025-05-12,1,,,,,フェニックス,0
1833,6430001094380,新規,0,2025-05-12,2025-05-12,株式会社ＬＵＸ,,株式会社,北海道,札幌市中央区,南二条西５丁目３１－１ＲＭＢｌｄ．７０１,,01,101,0600062,,,,,,,2025-05-12,1,,,,,ラックス,0
1841,6430003017612,新規,0,2025-05-12,2025-05-12,合同会社アシェット,,合同会社,北海道,札幌市豊平区,水車町４丁目２番２４－９０５号,,01,105,0620912,,,,,,,2025-05-12,1,,,,,アシェット,0
1842,6430003017620,新規,0,2025-05-12,2025-05-12,合同会社やき鳥きたな,,合同会社,北海道,札幌市豊平区,美園七条３丁目４番１５号大森ビル,,01,105,0620007,,,,,,,2025-05-12,1,,,,,ヤキトリキタナ,0
1843,6430003017637,新規,0,2025-05-12,2025-05-12,合同会社ｊｕｋｅｂｏｘ,,合同会社,北海道,札幌市手稲区,新発寒六条５丁目５－２,,01,109,0060806,,,,,,,2025-05-12,1,,,,,ジュークボックス,0
1848,6470001020705,新規,0,2025-05-12,2025-05-12,株式会社Ｅｖｉａ,,株式会社,香川県,高松市,香西北町２３１－６,,37,201,7618011,,,,,,,2025-05-12,1,,,,,イーヴィア,0
1850,6500001026293,新規,0,2025-05-12,2025-05-12,株式会社ｚｅｎ,,株式会社,愛媛県,松山市,桜ケ丘８番３号,,38,201,7918072,,,,,,,2025-05-12,1,,,,,ゼン,0
1860,7010003047312,新規,0,2025-05-12,2025-05-12,合同会社エバリュエーション,,合同会社,東京都,中央区,銀座１丁目２２番１１号銀座大竹ビジデンス２Ｆ,,13,102,1040061,,,,,,,2025-05-12,1,,,,,,0
1866,7010401190135,新規,0,2025-05-12,2025-05-12,株式会社日テレＨＲ総合研究所,,株式会社,東京都,港区,東新橋１丁目６番１号,,13,103,1050021,,,,,,,2025-05-12,1,,,,,ニッテレエイチアールソウゴウケンキュウジョ,0
1867,7010401190151,新規,0,2025-05-12,2025-05-12,株式会社ヒーローズジャーニー,,株式会社,東京都,港区,北青山１丁目３番１号アールキューブ青山３階,,13,103,1070061,,,,,,,2025-05-12,1,,,,,ヒーローズジャーニー,0
1868,7010401190176,新規,0,2025-05-12,2025-05-12,株式会社ｆｒａｎｋ,,株式会社,東京都,港区,赤坂２丁目１２番２０号ディアシティ赤坂東館２０８号室,,13,103,1070052,,,,,,,2025-05-12,1,,,,,フランク,0
1869,7010401190184,新規,0,2025-05-12,2025-05-12,ＬＳ‐ＳＨＩＰ第７７号株式会社,,株式会社,東京都,港区,六本木１丁目６番１号,,13,103,1060032,,,,,,,2025-05-12,1,,,,,エルエスシップダイナナジュウナナゴウ,0
1870,7010401190192,新規,0,2025-05-12,2025-05-12,ＬＳ‐Ａｖｉａｔｉｏｎ第７８号株式会社,,株式会社,東京都,港区,六本木１丁目６番１号,,13,103,1060032,,,,,,,2025-05-12,1,,,,,エルエスアビエーションダイナナジュウハチゴウ,0
1871,7010401190201,新規,0,2025-05-12,2025-05-12,株式会社ｄｏｔＤａｔａ　Ｈｏｌｄｉｎｇ,,株式会社,東京都,港区,東新橋１丁目５番２号,,13,103,1050021,,,,,,,2025-05-12,1,,,,,ドットデータホールディング,0
1872,7010401190259,新規,0,2025-05-12,2025-05-12,フォーテン株式会社,,株式会社,東京都,港区,浜松町２丁目７番１号第３８荒井ビル６階,,13,103,1050013,,,,,,,2025-05-12,1,,,,,フォーテン,0
1873,7010401190300,新規,0,2025-05-12,2025-05-12,株式会社ケアサクラ,,株式会社,東京都,港区,赤坂４丁目２番３号ディライトビル４０２号室,,13,103,1070052,,,,,,,2025-05-12,1,,,,,ケアサクラ,0
1880,7010601067257,新規,0,2025-05-12,2025-05-12,株式会社Ｒｏｘ‐ｈａ,,株式会社,東京都,江東区,亀戸６丁目５６番１号,,13,108,1360071,,,,,,,2025-05-12,1,,,,,ロクハ,0
1881,7010601067265,新規,0,2025-05-12,2025-05-12,株式会社Ｓｅｅｋｅｒ,,株式会社,東京都,墨田区,錦糸４丁目１４番９－１０５号,,13,107,1300013,,,,,,,2025-05-12,1,,,,,シーカー,0
1882,7010601067273,新規,0,2025-05-12,2025-05-12,株式会社ＲＡＮＪＩ,,株式会社,東京都,江東区,東雲２丁目３番１５号,,13,108,1350062,,,,,,,2025-05-12,1,,,,,ランジ,0
1885,7010701047662,新規,0,2025-05-12,2025-05-12,アイオス株式会社,,株式会社,東京都,品川区,東品川３丁目１０番１－１４０５号,,13,109,1400002,,,,,,,2025-05-12,1,,,,,アイオス,0
1886,7010701047679,新規,0,2025-05-12,2025-05-12,株式会社ＴＡＫＵＮＡＤＡ,,株式会社,東京都,品川区,上大崎３丁目９番２７号,,13,109,1410021,,,,,,,2025-05-12,1,,,,,タクナダ,0
1891,7010903009907,新規,0,2025-05-12,2025-05-12,現在地合同会社,,合同会社,東京都,世田谷区,三宿２丁目３８番７号鈴木ビル３０１,,13,112,1540005,,,,,,,2025-05-12,1,,,,,ゲンザイチ,0
1900,7011001169305,新規,0,2025-05-12,2025-05-12,ＣＪＤ株式会社,,株式会社,東京都,渋谷区,神宮前２丁目１５番８号,,13,113,1500001,,,,,,,2025-05-12,1,,,,,シージェイディー,0
1902,7011003021521,新規,0,2025-05-12,2025-05-12,合同会社ＴＨパートナー,,合同会社,東京都,渋谷区,本町４丁目４９番１３号東邦西新宿ビル３０１,,13,113,1510071,,,,,,,2025-05-12,1,,,,,ティーエイチパートナー,0
1903,7011005010984,新規,0,2025-05-12,2025-05-12,一般社団法人カピリナ,,その他の設立登記法人,東京都,渋谷区,道玄坂１丁目１６番６号二葉ビル８階Ｂ,,13,113,1500043,,,,,,,2025-05-12,1,,,,,カピリナ,0
1906,7011101111562,新規,0,2025-05-12,2025-05-12,青木会計パートナーズ株式会社,,株式会社,東京都,新宿区,西新宿３丁目３番１３号西新宿水間ビル２Ｆ,,13,104,1600023,,,,,,,2025-05-12,1,,,,,アオキカイケイパートナーズ,0
1907,7011101111711,新規,0,2025-05-12,2025-05-12,株式会社ＧＹＭ,,株式会社,東京都,新宿区,大久保３丁目８番３号,,13,104,1690072,,,,,,,2025-05-12,1,,,,,ギム,0
1916,7011701028339,新規,0,2025-05-12,2025-05-12,株式会社ＧＲＩＴ　ＳＥＶＥＮ,,株式会社,東京都,江戸川区,中央４丁目１９番８号,,13,123,1320021,,,,,,,2025-05-12,1,,,,,グリットセブン,0
1917,7011801046083,新規,0,2025-05-12,2025-05-12,和光医薬株式会社,,株式会社,東京都,葛飾区,東金町６丁目６番５号センタービル金町４階４０９室,,13,122,1250041,,,,,,,2025-05-12,1,,,,,ワコウイヤク,0
1920,7012803003733,新規,0,2025-05-12,2025-05-12,ｅｍｉｓｉａ合同会社,,合同会社,東京都,国分寺市,本町２丁目２番１号シティタワー国分寺ザ・ツインイーストＥ１８０６,,13,214,1850012,,,,,,,2025-05-12,1,,,,,エミシア,0
1921,7013103001444,新規,0,2025-05-12,2025-05-12,合同会社アイディア製作所,,合同会社,東京都,あきる野市,小川７６８番地５,,13,228,1970821,,,,,,,2025-05-12,1,,,,,アイディアセイサクショ,0
1932,7020001162723,新規,0,2025-05-12,2025-05-12,株式会社アストレイア,,株式会社,神奈川県,川崎市高津区,梶ケ谷５丁目１０番地２９,,14,134,2130015,,,,,,,2025-05-12,1,,,,,アストレイア,0
1933,7020001162731,新規,0,2025-05-12,2025-05-12,株式会社ＲｅＦａｉｒｅ,,株式会社,神奈川県,横浜市戸塚区,平戸町１１６４番地７,,14,110,2440803,,,,,,,2025-05-12,1,,,,,ルフェール,0
1934,7020001162748,新規,0,2025-05-12,2025-05-12,株式会社プロスペール,,株式会社,神奈川県,川崎市中原区,木月２丁目１０番１－８０１号プロスペール,,14,133,2110025,,,,,,,2025-05-12,1,,,,,プロスペール,0
1935,7020001162764,新規,0,2025-05-12,2025-05-12,株式会社増安,,株式会社,神奈川県,川崎市高津区,久末２２０８番地３,,14,134,2130026,,,,,,,2025-05-12,1,,,,,マスアン,0
1936,7020001162789,新規,0,2025-05-12,2025-05-12,株式会社ＳＴＡＲＲＹ,,株式会社,神奈川県,川崎市中原区,小杉御殿町２丁目１２４番地,,14,133,2110068,,,,,,,2025-05-12,1,,,,,スターリ,0
1937,7020001162797,新規,0,2025-05-12,2025-05-12,株式会社ＳＡＬＡ,,株式会社,神奈川県,横浜市中区,相生町１丁目１５番地第２東商ビル８階－Ｃ,,14,104,2310012,,,,,,,2025-05-12,1,,,,,サラ,0
1942,7020003028435,新規,0,2025-05-12,2025-05-12,合同会社ライフォーム,,合同会社,神奈川県,横浜市南区,井土ケ谷上町２６番２９号,,14,105,2320051,,,,,,,2025-05-12,1,,,,,ライフォーム,0
1947,7021001085204,新規,0,2025-05-12,2025-05-12,株式会社ワイズ,,株式会社,神奈川県,鎌倉市,大町１丁目１番１４号,,14,204,2480007,,,,,,,2025-05-12,1,,,,,ワイズ,0
1948,7021003015968,新規,0,2025-05-12,2025-05-12,合同会社ブライトスマイル,,合同会社,神奈川県,茅ヶ崎市,室田２丁目２－３０－３,,14,207,2530018,,,,,,,2025-05-12,1,,,,,,0
1952,7030001166459,新規,0,2025-05-12,2025-05-12,株式会社ＲＥ　ＰＬＵＳ装建,,株式会社,埼玉県,加須市,多門寺１１９５番地１,,11,210,3470012,,,,,,,2025-05-12,1,,,,,リプラスソウケン,0
1953,7030001166475,新規,0,2025-05-12,2025-05-12,辰星株式会社,,株式会社,埼玉県,蕨市,北町１丁目１７－８,,11,223,3350001,,,,,,,2025-05-12,1,,,,,シンセイ,0
1954,7030001166491,新規,0,2025-05-12,2025-05-12,株式会社ランウェイ,,株式会社,埼玉県,さいたま市北区,宮原町２丁目８１番地１０ヴィラカワナベＢ１０１,,11,102,3310812,,,,,,,2025-05-12,1,,,,,ランウェイ,0
1957,7030003026751,新規,0,2025-05-12,2025-05-12,合同会社ＦＲＡＮＫＳ,,合同会社,埼玉県,春日部市,粕壁東６丁目１３－７,,11,214,3440062,,,,,,,2025-05-12,1,,,,,フランクス,0
1959,7040001138663,新規,0,2025-05-12,2025-05-12,株式会社レフトクリエイト,,株式会社,千葉県,浦安市,北栄１丁目１２番２５－６０１号,,12,227,2790002,,,,,,,2025-05-12,1,,,,,レフトクリエイト,0
1960,7040001138696,新規,0,2025-05-12,2025-05-12,株式会社ＶＥＮＤＯＲＳ,,株式会社,千葉県,市原市,松ケ島１丁目１１番地８,,12,219,2900035,,,,,,,2025-05-12,1,,,,,ベンダーズ,0
1964,7040005022748,新規,0,2025-05-12,2025-05-12,一般社団法人ＳＯＣＩＡＬ　ＤＥＳＩＧＮＥＲＳ　ＦＯＲ　Ｄ．,,その他の設立登記法人,千葉県,八千代市,緑が丘西１丁目４番地１シティテラス八千代緑が丘ブリーズコート８１１,,12,221,2760040,,,,,,,2025-05-12,1,,,,,ソーシャルデザイナーズフォーディー,0
1967,7050001056609,新規,0,2025-05-12,2025-05-12,株式会社Ｋ‐ＶＩＳ,,株式会社,茨城県,土浦市,常名１９４９番地,,08,203,3000065,,,,,,,2025-05-12,1,,,,,ケービス,0
1968,7050001056633,新規,0,2025-05-12,2025-05-12,バウム・ドル歩株式会社,,株式会社,茨城県,つくば市,二の宮２丁目９番地４,,08,220,3050051,,,,,,,2025-05-12,1,,,,,バウムドルフ,0
1969,7060001038176,新規,0,2025-05-12,2025-05-12,株式会社ＴｏｙＢａｓｅ,,株式会社,栃木県,宇都宮市,野沢町８３番地１７,,09,201,3200071,,,,,,,2025-05-12,1,,,,,トイベース,0
1970,7060001038184,新規,0,2025-05-12,2025-05-12,株式会社ハルミ設備工業,,株式会社,栃木県,芳賀郡益子町,大字七井１７５番地１,,09,342,3214106,,,,,,,2025-05-12,1,,,,,ハルミセツビコウギョウ,0
1977,7080001026930,新規,0,2025-05-12,2025-05-12,エンネクト株式会社,,株式会社,静岡県,静岡市葵区,伝馬町１－２ホテルシティオ３Ｆ,,22,101,4200858,,,,,,,2025-05-12,1,,,,,エンネクト,0
1989,7100003008148,新規,0,2025-05-12,2025-05-12,合同会社菱や不動産,,合同会社,長野県,安曇野市,豊科４７６３番地,,20,220,3998205,,,,,,,2025-05-12,1,,,,,ヒシヤフドウサン,0
1997,7120001275300,新規,0,2025-05-12,2025-05-12,富勝株式会社,,株式会社,大阪府,大阪市北区,天神橋８丁目１０番７号,,27,127,5310041,,,,,,,2025-05-12,1,,,,,トミカツ,0
1998,7120001275309,新規,0,2025-05-12,2025-05-12,株式会社天,,株式会社,大阪府,大阪市西成区,天下茶屋２丁目６番３６,,27,122,5570014,,,,,,,2025-05-12,1,,,,,テン,0
1999,7120001275325,新規,0,2025-05-12,2025-05-12,株式会社宝林,,株式会社,大阪府,大阪市淀川区,西三国１丁目１１－２グロースハイツ東三国２０１号室,,27,123,5320006,,,,,,,2025-05-12,1,,,,,ホウリン,0
2000,7120001275333,新規,0,2025-05-12,2025-05-12,株式会社ナカタ建装,,株式会社,大阪府,門真市,浜町１４番１５号,,27,223,5710054,,,,,,,2025-05-12,1,,,,,ナカタケンソウ,0
2001,7120001275341,新規,0,2025-05-12,2025-05-12,ＴＯＲＣｈ株式会社,,株式会社,大阪府,大阪市中央区,南本町２丁目６－５船場ファーストビル５０３,,27,128,5410054,,,,,,,2025-05-12,1,,,,,トーチ,0
2002,7120001275366,新規,0,2025-05-12,2025-05-12,ＨＣＭソリューション株式会社,,株式会社,大阪府,寝屋川市,仁和寺本町３丁目５番７号,,27,215,5720076,,,,,,,2025-05-12,1,,,,,エッチシーエムソリューション,0
2003,7120001275408,新規,0,2025-05-12,2025-05-12,ＡＳＧ　ＴＲＡＤＩＮＧ　ＪＡＰＡＮ株式会社,,株式会社,大阪府,大阪市西区,江戸堀１丁目２３番２６号,,27,106,5500002,,,,,,,2025-05-12,1,,,,,エーエスジートレーディングジャパン,0
2004,7120001275432,新規,0,2025-05-12,2025-05-12,潤澤軒株式会社,,株式会社,大阪府,大阪市港区,市岡元町２丁目６番１１－４０５号,,27,107,5520002,,,,,,,2025-05-12,1,,,,,ジュンサワケン,0
2005,7120001275449,新規,0,2025-05-12,2025-05-12,株式会社エスキューブ,,株式会社,大阪府,大阪市中央区,西心斎橋２丁目１６番７号ケイアンドティ心斎橋４０８,,27,128,5420086,,,,,,,2025-05-12,1,,,,,エスキューブ,0
2006,7120001275481,新規,0,2025-05-12,2025-05-12,順豊源株式会社,,株式会社,大阪府,大阪市生野区,林寺２丁目８番２号,,27,116,5440023,,,,,,,2025-05-12,1,,,,,ジュンホウゲン,0
2007,7120001275556,新規,0,2025-05-12,2025-05-12,ＬＸ　Ｉｎｔｅｒｎａｔｉｏｎａｌ株式会社,,株式会社,大阪府,大阪市淀川区,東三国２丁目１８番２０号ＣＬＥＡＲＨＩＧＡＳＨＩＭＩＫＵＮＩ２０６号室,,27,123,5320002,,,,,,,2025-05-12,1,,,,,エルエックスインターナショナル,0
2008,7120001275564,新規,0,2025-05-12,2025-05-12,株式会社Ｗｉｔｈ,,株式会社,大阪府,大阪市西成区,出城２丁目３番２－４０５号,,27,122,5570024,,,,,,,2025-05-12,1,,,,,ウィズ,0
2009,7120001275580,新規,0,2025-05-12,2025-05-12,ミリオンスペース株式会社,,株式会社,大阪府,大阪市北区,堂山町１２－５ロイヤルハイツ梅田ＩＩ６０３号室,00139106,27,127,5300027,,,,,,,2025-05-12,1,,,,,ミリオンスペース,0
2010,7120001275589,新規,0,2025-05-12,2025-05-12,スマイルサークル株式会社,,株式会社,大阪府,大阪市中央区,安土町３丁目２番１４号,,27,128,5410052,,,,,,,2025-05-12,1,,,,,スマイルサークル,0
2011,7120001275606,新規,0,2025-05-12,2025-05-12,株式会社ｂｙｓｉｄｅ,,株式会社,大阪府,大阪市福島区,福島５丁目６－１６ラグザ大阪２１８,,27,103,5530003,,,,,,,2025-05-12,1,,,,,バイサイド,0
2012,7120001275614,新規,0,2025-05-12,2025-05-12,ＳＩ　ＨＯＮＧ国際貿易株式会社,,株式会社,大阪府,大阪市住吉区,遠里小野４丁目５－２、１０１号室,,27,120,5580032,,,,,,,2025-05-12,1,,,,,シホンコクサイボウエキ,0
2013,7120001275622,新規,0,2025-05-12,2025-05-12,株式会社Ｋｏｍｚ　Ｗｏｒｋ,,株式会社,大阪府,大阪市阿倍野区,松崎町２丁目１番２８号,,27,119,5450053,,,,,,,2025-05-12,1,,,,,コムズワーク,0
2014,7120001275639,新規,0,2025-05-12,2025-05-12,開花エステイト株式会社,,株式会社,大阪府,大阪市淀川区,木川東３丁目５番２１－５Ｄ号,,27,123,5320012,,,,,,,2025-05-12,1,,,,,カイカエステイト,0
2015,7120001275655,新規,0,2025-05-12,2025-05-12,株式会社ネクストリンクス,,株式会社,大阪府,大阪市北区,梅田２丁目２番２号ヒルトンプラザウエスト１９階,,27,127,5300001,,,,,,,2025-05-12,1,,,,,ネクストリンクス,0
2016,7120001275688,新規,0,2025-05-12,2025-05-12,盛沢国際株式会社,,株式会社,大阪府,大阪市住吉区,万代東１丁目３番２２号メゾン東和２０５号室,,27,120,5580056,,,,,,,2025-05-12,1,,,,,モリサワコクサイ,0
2018,7120003029282,新規,0,2025-05-12,2025-05-12,合同会社ＫＹＭ,,合同会社,大阪府,大阪市北区,梅田１丁目２番２号大阪駅前第２ビル１２‐１２,,27,127,5300001,,,,,,,2025-05-12,1,,,,,ケーワイエム,0
2019,7120003029340,新規,0,2025-05-12,2025-05-12,友和合同会社,,合同会社,大阪府,大阪市北区,浪花町４番１２号,,27,127,5300022,,,,,,,2025-05-12,1,,,,,ユウワ,0
2020,7120003029398,新規,0,2025-05-12,2025-05-12,合同会社ＦｒａｍｅＳｈｉｆｔ　Ｆｏｒｇｅ,,合同会社,大阪府,大阪市中央区,内本町２丁目２番２－１５０４号,,27,128,5400026,,,,,,,2025-05-12,1,,,,,フレームシフトフォージ,0
2021,7120003029415,新規,0,2025-05-12,2025-05-12,合同会社ＩＤ‐ｊｏｂｓ　ｃｏｍｐａｎｙ,,合同会社,大阪府,枚方市,北中振１丁目８番２号,,27,210,5730064,,,,,,,2025-05-12,1,,,,,アイディージョブズカンパニー,0
2022,7120003029431,新規,0,2025-05-12,2025-05-12,ジェイルーツ合同会社,,合同会社,大阪府,枚方市,楠葉花園町１１番３－４０４号,,27,210,5731121,,,,,,,2025-05-12,1,,,,,ジェイルーツ,0
2025,7120101071640,新規,0,2025-05-12,2025-05-12,株式会社２ｎｄ　ＳＴＥＰ,,株式会社,大阪府,泉佐野市,俵屋４２７－１ソシア菊テナント１号室,,27,213,5980003,,,,,,,2025-05-12,1,,,,,セカンドステップ,0
2027,7120103006446,新規,0,2025-05-12,2025-05-12,合同会社ＢＩＧＩＮ,,合同会社,大阪府,富田林市,津々山台５丁目７―５,,27,214,5840086,,,,,,,2025-05-12,1,,,,,ビギン,0
2029,7120901050819,新規,0,2025-05-12,2025-05-12,株式会社ＴＫＳ,,株式会社,大阪府,茨木市,丑寅２丁目２０番３５号,,27,211,5670877,,,,,,,2025-05-12,1,,,,,ティーケーエス,0
2030,7120901050835,新規,0,2025-05-12,2025-05-12,株式会社影,,株式会社,大阪府,茨木市,上穂積３丁目２番１５－４０１号,,27,211,5670036,,,,,,,2025-05-12,1,,,,,カゲ,0
2031,7120903005647,新規,0,2025-05-12,2025-05-12,合同会社Ｋパワー,,合同会社,大阪府,茨木市,園田町８番１８号,,27,211,5670825,,,,,,,2025-05-12,1,,,,,ケーパワー,0
2034,7130001079659,新規,0,2025-05-12,2025-05-12,ＮＸ株式会社,,株式会社,京都府,京都市伏見区,深草ヲカヤ町２１－２３,,26,109,6128403,,,,,,,2025-05-12,1,,,,,エヌエックス,0
2037,7140001138406,新規,0,2025-05-12,2025-05-12,株式会社トラストロジック,,株式会社,兵庫県,神戸市東灘区,森北町７丁目１２番１２号,,28,101,6580001,,,,,,,2025-05-12,1,,,,,トラストロジック,0
2038,7140001138471,新規,0,2025-05-12,2025-05-12,株式会社Ｓａｋｕｖｉａ,,株式会社,兵庫県,川西市,満願寺町６番６５号,,28,217,6650891,,,,,,,2025-05-12,1,,,,,サクヴィア,0
2039,7140001138488,新規,0,2025-05-12,2025-05-12,株式会社ウェルビーイング,,株式会社,兵庫県,明石市,大久保町江井島７９３番地の１ウェルビーイング２０１,,28,203,6740064,,,,,,,2025-05-12,1,,,,,ウェルビーイング,0
2040,7140001138496,新規,0,2025-05-12,2025-05-12,トラガワンシステムズ株式会社,,株式会社,兵庫県,神戸市垂水区,塩屋町４丁目３番４０号竹内マンション２０２号,,28,108,6550872,,,,,,,2025-05-12,1,,,,,トラガワンシステムズ,0
2051,7180001166709,新規,0,2025-05-12,2025-05-12,株式会社ＴＳＵＢＡＳＡ,,株式会社,愛知県,瀬戸市,仲切町９５番地の１,,23,204,4890042,,,,,,,2025-05-12,1,,,,,ツバサ,0
2052,7180001166717,新規,0,2025-05-12,2025-05-12,フロンティ株式会社,,株式会社,愛知県,名古屋市中川区,中郷２丁目５２番地,,23,110,4540921,,,,,,,2025-05-12,1,,,,,フロンティ,0
2053,7180001166733,新規,0,2025-05-12,2025-05-12,株式会社ｂｉｏｈａｎａ,,株式会社,愛知県,知多市,岡田字西違脇１９番地,,23,224,4780021,,,,,,,2025-05-12,1,,,,,ビオハナ,0
2054,7180001166766,新規,0,2025-05-12,2025-05-12,株式会社塩月装飾,,株式会社,愛知県,名古屋市北区,中切町１丁目７８番地の１０,,23,103,4620051,,,,,,,2025-05-12,1,,,,,シオツキソウショク,0
2058,7190001032208,新規,0,2025-05-12,2025-05-12,株式会社みどりの風,,株式会社,三重県,四日市市,小林町３０２６番地１６,,24,202,5100946,,,,,,,2025-05-12,1,,,,,,0
2059,7200001043756,新規,0,2025-05-12,2025-05-12,株式会社マンパワーサービス,,株式会社,岐阜県,各務原市,那加土山町２丁目１５６番地３,,21,213,5040041,,,,,,,2025-05-12,1,,,,,マンパワーサービス,0
2068,7220003004028,新規,0,2025-05-12,2025-05-12,合同会社天翔,,合同会社,石川県,小松市,末広町８５番地南出ビル１階,,17,203,9230945,,,,,,,2025-05-12,1,,,,,カケル,0
2072,7240001064930,新規,0,2025-05-12,2025-05-12,株式会社タカヤマ建装工業,,株式会社,広島県,広島市安佐南区,八木４丁目２５番２号,,34,105,7310101,,,,,,,2025-05-12,1,,,,,タカヤマケンソウコウギョウ,0
2073,7240003007202,新規,0,2025-05-12,2025-05-12,合同会社ハピカム,,合同会社,広島県,福山市,御幸町大字森脇８番地３,,34,207,7200003,,,,,,,2025-05-12,1,,,,,ハピカム,0
2074,7260003005170,新規,0,2025-05-12,2025-05-12,合同会社ＡＣＲＵＸ,,合同会社,岡山県,岡山市南区,築港ひかり町１４番４号,,33,104,7028054,,,,,,,2025-05-12,1,,,,,アクルック,0
2080,7290001109854,新規,0,2025-05-12,2025-05-12,株式会社アプライドイマジネーション,,株式会社,福岡県,福岡市博多区,博多駅前１丁目２３－１ＰａｒｋＦｒｏｎｔ博多駅前１丁目５Ｆ－Ｂ,,40,132,8120011,,,,,,,2025-05-12,1,,,,,アプライドイマジネーション,0
2081,7290001109986,新規,0,2025-05-12,2025-05-12,株式会社Ｓｅｖｅｎ　Ｄａｙ　Ｌｉｆｅ,,株式会社,福岡県,糟屋郡粕屋町,大字仲原字釜屋２７２５番地２,,40,349,8112304,,,,,,,2025-05-12,1,,,,,セブンデイライフ,0
2082,7290001109994,新規,0,2025-05-12,2025-05-12,株式会社ワイズ庵,,株式会社,福岡県,糟屋郡篠栗町,庄４丁目３番５号,,40,342,8112419,,,,,,,2025-05-12,1,,,,,ワイズアン,0
2083,7290001110003,新規,0,2025-05-12,2025-05-12,株式会社Ｓｅ７ｅｎｚ　Ｌｕｃｋ,,株式会社,福岡県,糸島市,伊都の杜１丁目５番１０－１１０１号,,40,230,8191130,,,,,,,2025-05-12,1,,,,,セブンズラック,0
2087,7290003016792,新規,0,2025-05-12,2025-05-12,ＫＦＣコンサルティング合同会社,,合同会社,福岡県,福岡市早良区,有田４丁目１番３７号ツインリッチ有田２階Ａ,,40,137,8140033,,,,,,,2025-05-12,1,,,,,ケイエフシーコンサルティング,0
2088,7290003016818,新規,0,2025-05-12,2025-05-12,Ｈｅｒｍｉｔａｇｅ合同会社,,合同会社,福岡県,福岡市博多区,博多駅前１丁目２３番２号ＰａｒｋＦｒｏｎｔ博多駅前１丁目５Ｆ－Ｂ,,40,132,8120011,,,,,,,2025-05-12,1,,,,,エルミタージュ,0
2089,7290003016826,新規,0,2025-05-12,2025-05-12,合同会社福寿サービス,,合同会社,福岡県,飯塚市,楽市５０９－１,,40,205,8200074,,,,,,,2025-05-12,1,,,,,フクジュサービス,0
2090,7290003016842,新規,0,2025-05-12,2025-05-12,未来ｓｅｅｄ合同会社,,合同会社,福岡県,福岡市中央区,鳥飼１丁目４－２３－３０１,,40,133,8100053,,,,,,,2025-05-12,1,,,,,ミライシード,0
2093,7290801031530,新規,0,2025-05-12,2025-05-12,株式会社潤興,,株式会社,福岡県,北九州市小倉北区,片野１丁目４番９－８０５号,,40,106,8020064,,,,,,,2025-05-12,1,,,,,ジュンコウ,0
2096,7310001019596,新規,0,2025-05-12,2025-05-12,株式会社庄司工務店,,株式会社,長崎県,佐世保市,折橋町３２番２４号,,42,202,8570021,,,,,,,2025-05-12,1,,,,,ショウジコウムテン,0
2097,7310001019605,新規,0,2025-05-12,2025-05-12,株式会社リーガル,,株式会社,長崎県,対馬市,美津島町鷄知乙３１２番地３,00139104,42,209,8170000,,,,,,,2025-05-12,1,,,,,リーガル,0
2102,7320003004653,新規,0,2025-05-12,2025-05-12,合同会社建林業,,合同会社,大分県,玖珠郡玖珠町,大字古後５４２番地の５,,44,462,8794523,,,,,,,2025-05-12,1,,,,,タテリンギョウ,0
2104,7350001019519,新規,0,2025-05-12,2025-05-12,株式会社霧島すい,,株式会社,宮崎県,都城市,高木町６２２６番地５,,45,202,8850003,,,,,,,2025-05-12,1,,,,,キリシマスイ,0
2105,7350001019527,新規,0,2025-05-12,2025-05-12,株式会社万力,,株式会社,宮崎県,宮崎市,中央通６番１２号,,45,201,8800002,,,,,,,2025-05-12,1,,,,,マンリキ,0
2107,7360001035151,新規,0,2025-05-12,2025-05-12,株式会社サンハイムハーモニー,,株式会社,沖縄県,浦添市,城間２丁目７番１２号,,47,208,9012133,,,,,,,2025-05-12,1,,,,,サンハイムハーモニー,0
2108,7360001035184,新規,0,2025-05-12,2025-05-12,株式会社一龍,,株式会社,沖縄県,宮古島市,平良字西里２２１番,,47,214,9060012,,,,,,,2025-05-12,1,,,,,イチリュウ,0
2109,7360003014913,新規,0,2025-05-12,2025-05-12,合同会社ラーナセコンド,,合同会社,沖縄県,那覇市,松尾１丁目１０－２４ホークシティ那覇ビルＳ－０５,,47,201,9000014,,,,,,,2025-05-12,1,,,,,ラーナセコンド,0
2113,7380001035315,新規,0,2025-05-12,2025-05-12,株式会社ＱＵＡＲＩＳ,,株式会社,福島県,いわき市,郷ケ丘２丁目５番地の８,,07,204,9708045,,,,,,,2025-05-12,1,,,,,クオリス,0
2117,7380003006033,新規,0,2025-05-12,2025-05-12,合同会社パッショーネ,,合同会社,福島県,いわき市,常磐馬玉町寺作１番地１ホワイトハートレーン１０５,,07,204,9728314,,,,,,,2025-05-12,1,,,,,パッショーネ,0
2122,7420003003117,新規,0,2025-05-12,2025-05-12,合同会社ＧＰ‐ｗｏｒｋｓ,,合同会社,青森県,青森市,西大野２丁目１７番地３,,02,201,0300856,,,,,,,2025-05-12,1,,,,,ジーピーワークス,0
2124,7430001094330,新規,0,2025-05-12,2025-05-12,株式会社飯野漁業,,株式会社,北海道,余市郡余市町,黒川町１８丁目１６番地１３,,01,408,0460003,,,,,,,2025-05-12,1,,,,,イイノギョギョウ,0
2125,7430001094355,新規,0,2025-05-12,2025-05-12,株式会社丸サうおたか,,株式会社,北海道,積丹郡積丹町,大字美国町字大沢３１０番地１８,,01,405,0460201,,,,,,,2025-05-12,1,,,,,マルサウオタカ,0
2126,7430001094363,新規,0,2025-05-12,2025-05-12,Ｏｄｉｎ　Ｌｉｖｉｎｇ株式会社,,株式会社,北海道,虻田郡倶知安町,ニセコひらふ二条１丁目８番１３号,,01,400,0440089,,,,,,,2025-05-12,1,,,,,オーディンリビング,0
2129,7430005015233,新規,0,2025-05-12,2025-05-12,一般社団法人Ｇｒｏｗｔｈ　Ｓ,,その他の設立登記法人,北海道,札幌市中央区,宮の森二条１７丁目７番７号,,01,101,0640952,,,,,,,2025-05-12,1,,,,,グロースエス,0
2132,7460103001710,新規,0,2025-05-12,2025-05-12,合同会社Ｉｍｏｙａ,,合同会社,北海道,中川郡本別町,西美里別８０番地３,,01,646,0893325,,,,,,,2025-05-12,1,,,,,イモヤ,0
2136,7500001026276,新規,0,2025-05-12,2025-05-12,株式会社新清電設,,株式会社,愛媛県,新居浜市,喜光地町１丁目１番４号,,38,205,7920826,,,,,,,2025-05-12,1,,,,,シンセイデンセツ,0
2137,7500001026292,新規,0,2025-05-12,2025-05-12,株式会社碧海,,株式会社,愛媛県,宇和島市,笹町１丁目２番２６－２号,,38,203,7980054,,,,,,,2025-05-12,1,,,,,アオイ,0
2138,7700150130370,新規,0,2025-05-12,2025-05-12,ウエスト・ストリート・アジア・エクイティ・パートナーズ・Ｉ・エンプロイー・ホールドコ・エルエルシー,,外国会社等,東京都,港区,虎ノ門２丁目６番１号虎ノ門ヒルズステーションタワー,,13,103,1050001,ケイマン諸島ＫＹ１－１１０４グランド・ケイマン、ウグランド・ハウス、ピーオー・ボックス３０９、メープルズ・コーポレイト・サービセス・リミテッド気付,,,,,,2025-05-12,1,,,,,ウエストストリートアジアエクイテイパートナーズワンエンプロイーホールドコエルエルシー,0
2146,8010001254652,新規,0,2025-05-12,2025-05-12,株式会社トラスト,,株式会社,東京都,千代田区,神田和泉町１番地６－１６ヤマトビル４０５,,13,101,1010024,,,,,,,2025-05-12,1,,,,,トラスト,0
2147,8010001254702,新規,0,2025-05-12,2025-05-12,株式会社Ｇ‐ＭＫ,,株式会社,東京都,文京区,向丘１丁目１６－１６,,13,105,1130023,,,,,,,2025-05-12,1,,,,,ジーエムケー,0
2148,8010001254867,新規,0,2025-05-12,2025-05-12,株式会社銀座松島ホールディングス,,株式会社,東京都,中央区,銀座３丁目５番６号,,13,102,1040061,,,,,,,2025-05-12,1,,,,,ギンザマツシマホールディングス,0
2152,8010003047195,新規,0,2025-05-12,2025-05-12,合同会社オルタナ２８,,合同会社,東京都,千代田区,霞が関３丁目２番５号,,13,101,1000013,,,,,,,2025-05-12,1,,,,,オルタナトゥエンティエイト,0
2155,8010005040017,新規,0,2025-05-12,2025-05-12,一般社団法人アスリートキャリア研究所,,その他の設立登記法人,東京都,中央区,晴海５丁目４番１号,,13,102,1040053,,,,,,,2025-05-12,1,,,,,アスリートキャリアケンキュウジョ,0
2157,8010401189473,新規,0,2025-05-12,2025-05-12,株式会社Ｇｒａｎｓｔａｒ,,株式会社,東京都,港区,南青山２丁目２－８ＤＦビル５０７Ｋ,,13,103,1070062,,,,,,,2025-05-12,1,,,,,グランスター,0
2158,8010401190076,新規,0,2025-05-12,2025-05-12,ＴｅｒｒａＮｏｖａ株式会社,,株式会社,東京都,港区,北青山１丁目３番１号アールキューブ青山３階,,13,103,1070061,,,,,,,2025-05-12,1,,,,,テラノバ,0
2159,8010401190142,新規,0,2025-05-12,2025-05-12,株式会社Ｗａｎｄｅｒ　Ｓｔａｙ,,株式会社,東京都,港区,芝浦１丁目６番４１－１１２３号,,13,103,1050023,,,,,,,2025-05-12,1,,,,,ワンダーステイ,0
2160,8010401190183,新規,0,2025-05-12,2025-05-12,ＬＳ‐ＳＨＩＰ第７６号株式会社,,株式会社,東京都,港区,六本木１丁目６番１号,,13,103,1060032,,,,,,,2025-05-12,1,,,,,エルエスシップダイナナジュウロクゴウ,0
2161,8010401190191,新規,0,2025-05-12,2025-05-12,ＬＳ‐Ａｖｉａｔｉｏｎ第７７号株式会社,,株式会社,東京都,港区,六本木１丁目６番１号,,13,103,1060032,,,,,,,2025-05-12,1,,,,,エルエスアビエーションダイナナジュウナナゴウ,0
2164,8010403034834,新規,0,2025-05-12,2025-05-12,合同会社ｓｅｖｅｎｓ,,合同会社,東京都,港区,東麻布３丁目３番８号福神館２０１,,13,103,1060044,,,,,,,2025-05-12,1,,,,,セブンス,0
2165,8010403035064,新規,0,2025-05-12,2025-05-12,Ｈａｒｕｎａｔｉｏｎ合同会社,,合同会社,東京都,港区,赤坂５丁目２番３３号ＩｓａＩＡｋａｓａｋＡ６０６号室,,13,103,1070052,,,,,,,2025-05-12,1,,,,,ハルネーション,0
2166,8010403035089,新規,0,2025-05-12,2025-05-12,ネクサス・フェルミ合同会社,,合同会社,東京都,港区,虎ノ門２丁目１０番４号オークラプレステージタワー,,13,103,1050001,,,,,,,2025-05-12,1,,,,,ネクサスフェルミ,0
2172,8010601067256,新規,0,2025-05-12,2025-05-12,Ｄｈａｌｉａ株式会社,,株式会社,東京都,江東区,亀戸５丁目３６番６号,,13,108,1360071,,,,,,,2025-05-12,1,,,,,ダリア,0
2173,8010601067264,新規,0,2025-05-12,2025-05-12,ＹＫＲ株式会社,,株式会社,東京都,墨田区,文花１丁目１１番３号,,13,107,1310044,,,,,,,2025-05-12,1,,,,,ワイケーアール,0
2177,8010901057337,新規,0,2025-05-12,2025-05-12,Ｐｅｎｔａｒｃｈ　Ｊａｐａｎ株式会社,,株式会社,東京都,世田谷区,尾山台３丁目９番１２号オープンレジデンシア尾山台６０１,,13,112,1580086,,,,,,,2025-05-12,1,,,,,ペンタークジャパン,0
2178,8011001169279,新規,0,2025-05-12,2025-05-12,スリーナイン株式会社,,株式会社,東京都,渋谷区,渋谷３丁目１４番６号,,13,113,1500002,,,,,,,2025-05-12,1,,,,,スリーナイン,0
2179,8011001169543,新規,0,2025-05-12,2025-05-12,株式会社ｆｌｏｏｒｉｓ,,株式会社,東京都,渋谷区,東１丁目２６番２０号東京建物東渋谷ビル１０Ｆ,,13,113,1500011,,,,,,,2025-05-12,1,,,,,フロアズ,0
2181,8011005010983,新規,0,2025-05-12,2025-05-12,特定非営利活動法人コンポスト東京,,その他の設立登記法人,東京都,渋谷区,神宮前３丁目６番２１号メゾン杉山１０２,,13,113,1500001,,,,,,,2025-05-12,1,,,,,コンポストトウキョウ,0
2183,8011101111611,新規,0,2025-05-12,2025-05-12,株式会社Ｓｕｍｅｒａｇｉ,,株式会社,東京都,新宿区,下宮比町２番２８－４１５号,,13,104,1620822,,,,,,,2025-05-12,1,,,,,スメラギ,0
2184,8011101111702,新規,0,2025-05-12,2025-05-12,リキシモ株式会社,,株式会社,東京都,新宿区,西新宿６丁目５－１新宿アイランドタワー２階,,13,104,1600023,,,,,,,2025-05-12,1,,,,,リキシモ,0
2186,8011103015851,新規,0,2025-05-12,2025-05-12,辰木合同会社,,合同会社,東京都,新宿区,西落合２丁目２４－１７－１Ｆ,,13,104,1610031,,,,,,,2025-05-12,1,,,,,シンキ,0
2190,8011501032044,新規,0,2025-05-12,2025-05-12,吉澤商事株式会社,,株式会社,東京都,荒川区,西日暮里２丁目８番１０号,,13,118,1160013,,,,,,,2025-05-12,1,,,,,ヨシザワショウジ,0
2194,8011801046025,新規,0,2025-05-12,2025-05-12,盈泰株式会社,,株式会社,東京都,足立区,千住緑町１丁目２１番１０号ジャパンステイ千住３１１号室,,13,121,1200044,,,,,,,2025-05-12,1,,,,,エイタイ,0
2199,8013301054193,新規,0,2025-05-12,2025-05-12,Ｓｕｋｅ株式会社,,株式会社,東京都,豊島区,北大塚２丁目３－１２ライオンズマンション大塚角萬３０２号室,,13,116,1700004,,,,,,,2025-05-12,1,,,,,スキ,0
2212,8020001162722,新規,0,2025-05-12,2025-05-12,株式会社みあび,,株式会社,神奈川県,横浜市緑区,台村町１２９番地８,,14,113,2260014,,,,,,,2025-05-12,1,,,,,ミアビ,0
2213,8020001162730,新規,0,2025-05-12,2025-05-12,Ｅｌｅｖａｔｅ株式会社,,株式会社,神奈川県,川崎市高津区,久本１丁目６番８号,,14,134,2130011,,,,,,,2025-05-12,1,,,,,エレベイト,0
2214,8020001162739,新規,0,2025-05-12,2025-05-12,ＩＡＪコンサルティング株式会社,,株式会社,神奈川県,横浜市中区,海岸通２丁目８番地プラウド馬車道３０２,,14,104,2310002,,,,,,,2025-05-12,1,,,,,アイエージェーコンサルティング,0
2217,8020003028129,新規,0,2025-05-12,2025-05-12,合同会社Ｙｏｔａ,,合同会社,神奈川県,横浜市中区,根岸旭台５０－５,,14,104,2310854,,,,,,,2025-05-12,1,,,,,,0
2218,8020005016825,新規,0,2025-05-12,2025-05-12,一般社団法人こどもファミリーサポートネットワーク,,その他の設立登記法人,神奈川県,横浜市西区,北幸２丁目１０番４８号むつみビル３階,,14,103,2200004,,,,,,,2025-05-12,1,,,,,コドモファミリーサポートネットワーク,0
2219,8020005016833,新規,0,2025-05-12,2025-05-12,一般社団法人トキワアセットマネジメント,,その他の設立登記法人,神奈川県,横浜市港北区,新横浜３丁目１９－１１加瀬ビル８８－１００２,,14,109,2220033,,,,,,,2025-05-12,1,,,,,トキワアセットマネジメント,0
2227,8021003015967,新規,0,2025-05-12,2025-05-12,合同会社ＬＲエンジニアリングサービス,,合同会社,神奈川県,平塚市,岡崎２８３６番地の９,,14,203,2591212,,,,,,,2025-05-12,1,,,,,エルアールエンジニアリングサービス,0
2228,8021003015975,新規,0,2025-05-12,2025-05-12,合同会社Ｓｉｇｕｌｅ,,合同会社,神奈川県,茅ヶ崎市,浜見平１７番３－７号,,14,207,2530062,,,,,,,2025-05-12,1,,,,,シグレ,0
2229,8021003015991,新規,0,2025-05-12,2025-05-12,Ｖｅｎｕｓ合同会社,,合同会社,神奈川県,足柄下郡箱根町,二ノ平１０５８番地の１ライオンズガーデン箱根弐番館２０５,,14,382,2500407,,,,,,,2025-05-12,1,,,,,ビーナス,0
2237,8030003026726,新規,0,2025-05-12,2025-05-12,合同会社ｉＴｅｃｈ,,合同会社,埼玉県,蕨市,南町３丁目２－１５ＫＳＳビル,,11,223,3350003,,,,,,,2025-05-12,1,,,,,アイテック,0
2238,8030003026742,新規,0,2025-05-12,2025-05-12,合同会社ＡＳＡＬＯＡ,,合同会社,埼玉県,加須市,下高柳１１８８番地３,,11,210,3470000,,,,,,,2025-05-12,1,,,,,アサロア,0
2244,8040001138638,新規,0,2025-05-12,2025-05-12,株式会社絆愛,,株式会社,千葉県,木更津市,万石４９５番地６,,12,206,2920003,,,,,,,2025-05-12,1,,,,,キズナ,0
2245,8040001138662,新規,0,2025-05-12,2025-05-12,いちはら自動車鈑金株式会社,,株式会社,千葉県,市原市,能満２０７５番地４,,12,219,2900011,,,,,,,2025-05-12,1,,,,,イチハラジドウシャバンキン,0
2246,8040001138720,新規,0,2025-05-12,2025-05-12,株式会社ＨＵＢ,,株式会社,千葉県,香取市,高萩１３１番地１,,12,236,2870101,,,,,,,2025-05-12,1,,,,,ハブ,0
2248,8040003027517,新規,0,2025-05-12,2025-05-12,合同会社スピカ,,合同会社,千葉県,市原市,能満３１２番地２,,12,219,2900011,,,,,,,2025-05-12,1,,,,,スピカ,0
2255,8050001056624,新規,0,2025-05-12,2025-05-12,株式会社Ｍｙｃｏｔｏ,,株式会社,茨城県,水戸市,吉沢町３５４番地３０,,08,201,3100845,,,,,,,2025-05-12,1,,,,,ミコト,0
2260,8060003005545,新規,0,2025-05-12,2025-05-12,合同会社Ｇ．Ｄ．コンサル,,合同会社,栃木県,宇都宮市,横山１丁目１８番３４号,,09,201,3200005,,,,,,,2025-05-12,1,,,,,ジーディーコンサル,0
2261,8060005010337,新規,0,2025-05-12,2025-05-12,特定非営利活動法人ロバート・ペースＩＰＴＦピアノ教育研究会,,その他の設立登記法人,栃木県,小山市,大字土塔８３番地６,,09,208,3230812,,,,,,,2025-05-12,1,,,,,ロバートペースアイピーティーエフピアノキョウイクケンキュウカイ,0
2265,8070001042928,新規,0,2025-05-12,2025-05-12,株式会社ＡＷＥ,,株式会社,群馬県,桐生市,広沢町２丁目２９８３－１,,10,203,3760013,,,,,,,2025-05-12,1,,,,,,0
2269,8080101025492,新規,0,2025-05-12,2025-05-12,ＳＨＩＺＵＫＡホールディングス株式会社,,株式会社,静岡県,伊豆の国市,韮山山木６９２番地,,22,225,4102141,,,,,,,2025-05-12,1,,,,,シズカホールディングス,0
2270,8080103003315,新規,0,2025-05-12,2025-05-12,ＤＥＳＴＩＮＹ合同会社,,合同会社,静岡県,伊豆の国市,中條２９２番地の２,,22,225,4102121,,,,,,,2025-05-12,1,,,,,ディスティニー,0
2275,8110001039242,新規,0,2025-05-12,2025-05-12,株式会社Ｄ＆Ｓ,,株式会社,新潟県,長岡市,川崎２丁目２５２４－３,,15,202,9400864,,,,,,,2025-05-12,1,,,,,ディーアンドエス,0
2288,8120001275282,新規,0,2025-05-12,2025-05-12,嘉禾旺株式会社,,株式会社,大阪府,大阪市住吉区,大領５丁目２－２４サンフラワー大領４０１号室,,27,120,5580001,,,,,,,2025-05-12,1,,,,,カカオウ,0
2289,8120001275308,新規,0,2025-05-12,2025-05-12,Ｎｈａｔ　Ｍｉｎｈ　Ｔｒａｎｓｐｏｒｔ建設・運輸サービス株式会社,,株式会社,大阪府,大阪市港区,八幡屋２丁目１番１号１階,,27,107,5520014,,,,,,,2025-05-12,1,,,,,ニャットミントランスポートケンセツウンユサービス,0
2290,8120001275324,新規,0,2025-05-12,2025-05-12,株式会社未来,,株式会社,大阪府,大阪市中央区,島之内１丁目１番３号１Ｆ,,27,128,5420082,,,,,,,2025-05-12,1,,,,,ミライ,0
2291,8120001275332,新規,0,2025-05-12,2025-05-12,ＬＡＮＤＥＺ株式会社,,株式会社,大阪府,大阪市淀川区,東三国１丁目４番３０号３Ｆ,,27,123,5320002,,,,,,,2025-05-12,1,,,,,ランデーズ,0
2292,8120001275349,新規,0,2025-05-12,2025-05-12,コア・バリュー不動産株式会社,,株式会社,大阪府,大阪市中央区,瓦屋町１丁目５番１５－４０６号,,27,128,5420066,,,,,,,2025-05-12,1,,,,,コアバリューフドウサン,0
2293,8120001275357,新規,0,2025-05-12,2025-05-12,一査株式会社,00139107,株式会社,大阪府,大阪市西淀川区,福町２丁目３番９－７０１号,,27,113,5550034,,,,,,,2025-05-12,1,,,,,イッサ,0
2294,8120001275373,新規,0,2025-05-12,2025-05-12,万利株式会社,,株式会社,大阪府,大阪市港区,市岡３丁目１３－９・２０２Ａ,,27,107,5520012,,,,,,,2025-05-12,1,,,,,マンリ,0
2295,8120001275381,新規,0,2025-05-12,2025-05-12,寅田株式会社,,株式会社,大阪府,大阪市東住吉区,鷹合４丁目２１番１６号１Ｆ－Ｂ,,27,121,5460014,,,,,,,2025-05-12,1,,,,,トラダ,0
2296,8120001275407,新規,0,2025-05-12,2025-05-12,時府株式会社,,株式会社,大阪府,大阪市西成区,花園北１丁目７番１４号６０３－Ａ号室,,27,122,5570016,,,,,,,2025-05-12,1,,,,,シフ,0
2297,8120001275431,新規,0,2025-05-12,2025-05-12,株式会社ハッピー,,株式会社,大阪府,大阪市西成区,玉出東１丁目２番８号,,27,122,5570043,,,,,,,2025-05-12,1,,,,,ハッピー,0
2298,8120001275448,新規,0,2025-05-12,2025-05-12,株式会社ＫＣ,,株式会社,大阪府,大阪市西成区,花園南１丁目６番１１号２０１号室,,27,122,5570015,,,,,,,2025-05-12,1,,,,,ケーシー,0
2299,8120001275456,新規,0,2025-05-12,2025-05-12,興唐黄泓株式会社,,株式会社,大阪府,大阪市都島区,中野町２丁目６番１６－２０３号,,27,102,5340027,,,,,,,2025-05-12,1,,,,,コウトウオウオウ,0
2300,8120001275480,新規,0,2025-05-12,2025-05-12,セカンドファミリー株式会社,,株式会社,大阪府,大阪市中央区,本町４丁目３番９号,,27,128,5410053,,,,,,,2025-05-12,1,,,,,セカンドファミリー,0
2301,8120001275489,新規,0,2025-05-12,2025-05-12,株式会社ケイエフクリーン,,株式会社,大阪府,大阪市淀川区,十三本町１丁目１８番２５－１００３号,,27,123,5320024,,,,,,,2025-05-12,1,,,,,ケイエフクリーン,0
2302,8120001275497,新規,0,2025-05-12,2025-05-12,ＳＲＴ株式会社,,株式会社,大阪府,大阪市平野区,長吉出戸８丁目３番４号,,27,126,5470011,,,,,,,2025-05-12,1,,,,,エスアールティー,0
2303,8120001275514,新規,0,2025-05-12,2025-05-12,潤楽株式会社,,株式会社,大阪府,大阪市都島区,都島中通２丁目１１－１０－２０１,,27,102,5340022,,,,,,,2025-05-12,1,,,,,ジュンラク,0
2304,8120001275522,新規,0,2025-05-12,2025-05-12,Ｈｉｍａｗａｒｉ　Ｓｕｐｐｏｒｔ株式会社,,株式会社,大阪府,大阪市北区,南森町１丁目１番２５号ＭＦ南森町５ビル２階,,27,127,5300054,,,,,,,2025-05-12,1,,,,,ヒマワリサポート,0
2305,8120001275539,新規,0,2025-05-12,2025-05-12,Ｇｌｏｂａｌ　Ｆｏｏｄ株式会社,,株式会社,大阪府,大阪市中央区,南船場３丁目２番２２号おおきに南船場ビル２０５,,27,128,5420081,,,,,,,2025-05-12,1,,,,,グローバルフード,0
2306,8120001275555,新規,0,2025-05-12,2025-05-12,株式会社ＴＭ　ａｎｄ,,株式会社,大阪府,大阪市淀川区,西三国１丁目２番２９号,,27,123,5320006,,,,,,,2025-05-12,1,,,,,ティエムアンド,0
2307,8120001275571,新規,0,2025-05-12,2025-05-12,株式会社ＨＯＭＩＥ,,株式会社,大阪府,大阪市中央区,宗右衛門町２０番地６,,27,128,5420084,,,,,,,2025-05-12,1,,,,,ホーミー,0
2308,8120001275588,新規,0,2025-05-12,2025-05-12,株式会社ラポール,,株式会社,大阪府,大阪市東成区,大今里２丁目２１番８号,,27,115,5370012,,,,,,,2025-05-12,1,,,,,ラポール,0
2309,8120001275596,新規,0,2025-05-12,2025-05-12,株式会社ネオヴィレッジ,,株式会社,大阪府,門真市,ひえ島町２４－１,,27,223,5710037,,,,,,,2025-05-12,1,,,,,ネオヴィレッジ,0
2310,8120001275605,新規,0,2025-05-12,2025-05-12,株式会社ＩＮＮＯＶＡＴＩＯＮ,,株式会社,大阪府,大阪市北区,芝田２丁目２番１７号,,27,127,5300012,,,,,,,2025-05-12,1,,,,,イノベーション,0
2311,8120001275638,新規,0,2025-05-12,2025-05-12,株式会社ＰＰＡ,,株式会社,大阪府,大阪市北区,梅田１丁目２番２号大阪駅前第２ビル１２－１２,,27,127,5300001,,,,,,,2025-05-12,1,,,,,ピーピーエー,0
2312,8120001275646,新規,0,2025-05-12,2025-05-12,ハーモニクス株式会社,,株式会社,大阪府,大阪市西区,立売堀１丁目６番１３号天祥ビル２号館４０４,,27,106,5500012,,,,,,,2025-05-12,1,,,,,ハーモニクス,0
2313,8120001275654,新規,0,2025-05-12,2025-05-12,ＷＨＥＮ　ＳＨＯＥＳ株式会社,,株式会社,大阪府,大阪市浪速区,下寺３丁目７－１９セオリー夕陽丘ＤＯＯＲ７１１号室,,27,111,5560001,,,,,,,2025-05-12,1,,,,,ウェンシューズ,0
2314,8120001275662,新規,0,2025-05-12,2025-05-12,株式会社ＤＰＪ,,株式会社,大阪府,大阪市東成区,大今里南２丁目６番２１号,,27,115,5370013,,,,,,,2025-05-12,1,,,,,ディーピージェイ,0
2315,8120001275670,新規,0,2025-05-12,2025-05-12,易雲株式会社,,株式会社,大阪府,大阪市東成区,深江南２丁目８番８号メゾンホワイティ－１０２号室,,27,115,5370002,,,,,,,2025-05-12,1,,,,,イウン,0
2318,8120003029315,新規,0,2025-05-12,2025-05-12,合同会社ナンバーワン,,合同会社,大阪府,大阪市西区,京町堀１丁目１１番７号,,27,106,5500003,,,,,,,2025-05-12,1,,,,,ナンバーワン,0
2319,8120003029331,新規,0,2025-05-12,2025-05-12,ポチラボ合同会社,,合同会社,大阪府,大阪市淀川区,加島４丁目２－２１－２０１号,,27,123,5320031,,,,,,,2025-05-12,1,,,,,ポチラボ,0
2331,8120901050834,新規,0,2025-05-12,2025-05-12,株式会社ｈｉｒｏｂａ．ｃ,,株式会社,大阪府,箕面市,小野原西６丁目１３番３４号,,27,220,5620032,,,,,,,2025-05-12,1,,,,,ヒロバドットシー,0
2337,8140001138421,新規,0,2025-05-12,2025-05-12,株式会社新山富,,株式会社,兵庫県,西宮市,南郷町９番５２号,,28,204,6620038,,,,,,,2025-05-12,1,,,,,シンヤマトミ,0
2338,8140001138470,新規,0,2025-05-12,2025-05-12,株式会社藤本ポンプ,,株式会社,兵庫県,神戸市西区,玉津町今津５８２番地の６,,28,111,6512128,,,,,,,2025-05-12,1,,,,,フジモトポンプ,0
2339,8140001138504,新規,0,2025-05-12,2025-05-12,株式会社ケイ商会,,株式会社,兵庫県,神戸市中央区,磯上通８丁目１番２９号カサベラビルＣ＆Ｍ４０３号室,,28,110,6510086,,,,,,,2025-05-12,1,,,,,ケイショウカイ,0
2344,8140003022061,新規,0,2025-05-12,2025-05-12,リンケージプラス合同会社,,合同会社,兵庫県,加古川市,尾上町池田２３８５番地の１,,28,210,6750023,,,,,,,2025-05-12,1,,,,,リンケージプラス,0
2363,8180001166740,新規,0,2025-05-12,2025-05-12,株式会社雅,,株式会社,愛知県,春日井市,押沢台６丁目２番地２,,23,206,4870005,,,,,,,2025-05-12,1,,,,,ミヤビ,0
2364,8180001166765,新規,0,2025-05-12,2025-05-12,グロウアップ株式会社,,株式会社,愛知県,名古屋市天白区,平針５丁目２１２１番地,,23,116,4680011,,,,,,,2025-05-12,1,,,,,グロウアップ,0
2373,8180301039794,新規,0,2025-05-12,2025-05-12,株式会社昴不動産,,株式会社,愛知県,豊橋市,駅前大通２丁目８１番１６０４号,,23,201,4400888,,,,,,,2025-05-12,1,,,,,スバルフドウサン,0
2377,8200003006818,新規,0,2025-05-12,2025-05-12,ＰＨＵＯＮＧ　ＯＡＮＨ合同会社,,合同会社,岐阜県,可児郡御嵩町,上恵土１０３４番地２,,21,521,5050126,,,,,,,2025-05-12,1,,,,,フオンオアン,0
2382,8220001026675,新規,0,2025-05-12,2025-05-12,株式会社エイカワ,,株式会社,石川県,輪島市,門前町道下にの４９番地１道下第１団地５２号棟４号室,,17,204,9272164,,,,,,,2025-05-12,1,,,,,エイカワ,0
2389,8240003007192,新規,0,2025-05-12,2025-05-12,合同会社ＭＮＧｒｏｕｐ,,合同会社,広島県,三原市,中之町５丁目１６番８号,,34,204,7230003,,,,,,,2025-05-12,1,,,,,エムエヌグループ,0
2403,8290001109952,新規,0,2025-05-12,2025-05-12,株式会社ＭＯ　ＳＴＹＬＥ,,株式会社,福岡県,福岡市博多区,御供所町２番４８号,,40,132,8120037,,,,,,,2025-05-12,1,,,,,エムオースタイル,0
2404,8290001109969,新規,0,2025-05-12,2025-05-12,喜得株式会社,,株式会社,福岡県,福岡市中央区,渡辺通５丁目２４－３０東カン福岡第一ビル８０３号室,,40,133,8100004,,,,,,,2025-05-12,1,,,,,キトク,0
2405,8290001109977,新規,0,2025-05-12,2025-05-12,華嶋工業株式会社,,株式会社,福岡県,嘉麻市,牛隈１３５５番地８,,40,227,8200301,,,,,,,2025-05-12,1,,,,,ハナジマコウギョウ,0
2406,8290001109993,新規,0,2025-05-12,2025-05-12,大福株式会社,,株式会社,福岡県,福岡市中央区,六本松２丁目２番３３号,,40,133,8100044,,,,,,,2025-05-12,1,,,,,ダイフク,0
2410,8290003016825,新規,0,2025-05-12,2025-05-12,合同会社ＬＭＰ,,合同会社,福岡県,福岡市中央区,地行４丁目３番２３－３０２号,,40,133,8100064,,,,,,,2025-05-12,1,,,,,エルエムピー,0
2428,8350001019518,新規,0,2025-05-12,2025-05-12,株式会社相葉プロダクション,,株式会社,宮崎県,北諸県郡三股町,大字樺山３６３２番地３,,45,341,8891901,,,,,,,2025-05-12,1,,,,,アイバプロダクション,0
2429,8350001019526,新規,0,2025-05-12,2025-05-12,株式会社原田林業,,株式会社,宮崎県,東臼杵郡椎葉村,大字松尾１３８７番地１,,45,430,8831604,,,,,,,2025-05-12,1,,,,,ハラダリンギョウ,0
2432,8360001035150,新規,0,2025-05-12,2025-05-12,株式会社大陽組,,株式会社,沖縄県,沖縄市,比屋根３丁目１２番２３号カーサセレノ２０１号室,,47,211,9042173,,,,,,,2025-05-12,1,,,,,タイヨウグミ,0
2433,8360001035175,新規,0,2025-05-12,2025-05-12,株式会社レイズ,,株式会社,沖縄県,中頭郡北谷町,字浜川２４５番地２Ｆ,,47,326,9040112,,,,,,,2025-05-12,1,,,,,レイズ,0
2437,8360003014912,新規,0,2025-05-12,2025-05-12,合同会社おきなわカリマンタントレーラーキャンプ,,合同会社,沖縄県,那覇市,松川１丁目１６番５１号,,47,201,9020062,,,,,,,2025-05-12,1,,,,,オキナワカリマンタントレーラーキャンプ,0
2438,8370001052541,新規,0,2025-05-12,2025-05-12,株式会社阿部福商事,,株式会社,宮城県,塩竈市,南町７番２３号,,04,203,9850053,,,,,,,2025-05-12,1,,,,,アベフクショウジ,0
2441,8380001035289,新規,0,2025-05-12,2025-05-12,セントラル不動産株式会社,,株式会社,福島県,郡山市,富久山町久保田字石堂６７番地５,,07,203,9638071,,,,,,,2025-05-12,1,,,,,セントラルフドウサン,0
2442,8380001035297,新規,0,2025-05-12,2025-05-12,株式会社深澤,,株式会社,福島県,白河市,東栃本字南向田９番地,,07,205,9610307,,,,,,,2025-05-12,1,,,,,フカザワ,0
2444,8400001017029,新規,0,2025-05-12,2025-05-12,株式会社Ｙ・Ｍ・Ｍ,,株式会社,岩手県,北上市,飯豊９地割７３番地,,03,206,0240001,,,,,,,2025-05-12,1,,,,,ワイエムエム,0
2450,8430001094296,新規,0,2025-05-12,2025-05-12,ＡＲＳ株式会社,,株式会社,北海道,札幌市東区,伏古二条３丁目３番２０号,,01,103,0070862,,,,,,,2025-05-12,1,,,,,エーアールエス,0
2451,8430001094346,新規,0,2025-05-12,2025-05-12,株式会社ＩＮＨＡＵＳ,,株式会社,北海道,札幌市東区,北二十三条東２０丁目１番３号,,01,103,0650023,,,,,,,2025-05-12,1,,,,,インハウス,0
2452,8430001094370,新規,0,2025-05-12,2025-05-12,株式会社エヌエス・エアシステムズ,,株式会社,北海道,札幌市東区,北三十七条東２１丁目１番３６号,,01,103,0070837,,,,,,,2025-05-12,1,,,,,エヌエスエアシステムズ,0
2454,8430003017619,新規,0,2025-05-12,2025-05-12,宇宙星人合同会社,,合同会社,北海道,札幌市中央区,北二条西２丁目３２番地第３７桂和ビル５階５１８号室,,01,101,0600002,,,,,,,2025-05-12,1,,,,,ウチュウセイジン,0
2455,8430003017627,新規,0,2025-05-12,2025-05-12,合同会社エオリ,,合同会社,北海道,札幌市中央区,南十条西２２丁目１番２６号,,01,101,0640810,,,,,,,2025-05-12,1,,,,,エオリ,0
2456,8430003017635,新規,0,2025-05-12,2025-05-12,合同会社ＮｏＮＡＭＥ,,合同会社,北海道,札幌市西区,二十四軒四条５丁目３番２３－２０２号,,01,107,0630804,,,,,,,2025-05-12,1,,,,,ノーネーム,0
2461,8480001012831,新規,0,2025-05-12,2025-05-12,株式会社シミズ,,株式会社,徳島県,徳島市,鮎喰町２丁目１０番地の１クック鮎喰１０２,,36,201,7700046,,,,,,,2025-05-12,1,,,,,シミズ,0
2462,8500001026291,新規,0,2025-05-12,2025-05-12,株式会社Ｐｅｅｒｓ,,株式会社,愛媛県,今治市,喜田村７３番地４,,38,202,7991501,,,,,,,2025-05-12,1,,,,,ピアーズ,0
2466,9010001254544,新規,0,2025-05-12,2025-05-12,ＡｎｉＣｏｓｍｏｓ株式会社,,株式会社,東京都,千代田区,神田神保町１丁目１０－１、９Ｆ,,13,101,1010051,,,,,,,2025-05-12,1,,,,,アニコスモス,0
2467,9010001254718,新規,0,2025-05-12,2025-05-12,ルミナイ株式会社,,株式会社,東京都,中央区,銀座１丁目２２－１１銀座大竹ビジデンス２Ｆ,,13,102,1040061,,,,,,,2025-05-12,1,,,,,ルミナイ,0
2468,9010001254858,新規,0,2025-05-12,2025-05-12,Ｓｈｉｎ　Ｋａｉ　Ｊａｐａｎ株式会社,,株式会社,東京都,中央区,晴海５丁目１番９－１６１３号,,13,102,1040053,,,,,,,2025-05-12,1,,,,,シンカイジャパン,0
2470,9010003047285,新規,0,2025-05-12,2025-05-12,Ｓｔａｒｃｏｒｅ合同会社,,合同会社,東京都,中央区,銀座１丁目１２番４号Ｎ＆ＥＢＬＤ．６Ｆ,,13,102,1040061,,,,,,,2025-05-12,1,,,,,スターコアー,0
2471,9010005039966,新規,0,2025-05-12,2025-05-12,司法書士法人タクミパートナーズ,,その他の設立登記法人,東京都,文京区,小石川５丁目３番１３号,,13,105,1120002,,,,,,,2025-05-12,1,,,,,タクミパートナーズ,0
2474,9010401190133,新規,0,2025-05-12,2025-05-12,株式会社ハーモメディ,,株式会社,東京都,港区,高輪３丁目１９番４４―３０３号,,13,103,1080074,,,,,,,2025-05-12,1,,,,,ハーモメディ,0
2475,9010401190182,新規,0,2025-05-12,2025-05-12,ＬＳ‐ＳＨＩＰ第７５号株式会社,,株式会社,東京都,港区,六本木１丁目６番１号,,13,103,1060032,,,,,,,2025-05-12,1,,,,,エルエスシップダイナナジュウゴゴウ,0
2476,9010401190190,新規,0,2025-05-12,2025-05-12,ＬＳ‐Ａｖｉａｔｉｏｎ第７６号株式会社,,株式会社,東京都,港区,六本木１丁目６番１号,,13,103,1060032,,,,,,,2025-05-12,1,,,,,エルエスアビエーションダイナナジュウロクゴウ,0
2477,9010401190199,新規,0,2025-05-12,2025-05-12,株式会社ボッテガ・レオーネ,,株式会社,東京都,港区,赤坂２丁目１７番５０－３１０号,,13,103,1070052,,,,,,,2025-05-12,1,,,,,ボッテガレオーネ,0
2478,9010401190281,新規,0,2025-05-12,2025-05-12,株式会社ＪＧ３２,,株式会社,東京都,港区,虎ノ門１丁目３番１号,,13,103,1050001,,,,,,,2025-05-12,1,,,,,ジェージーサンジュウニ,0
2480,9010403035047,新規,0,2025-05-12,2025-05-12,合同会社マルケ,,合同会社,東京都,港区,白金１丁目１７番１－３３０７号,,13,103,1080072,,,,,,,2025-05-12,1,,,,,マルケ,0
2487,9010601067255,新規,0,2025-05-12,2025-05-12,株式会社ＡＤＥＳ,,株式会社,東京都,江東区,千田６番１３号,,13,108,1350013,,,,,,,2025-05-12,1,,,,,アデサ,0
2488,9010701047644,新規,0,2025-05-12,2025-05-12,株式会社泰成建設,,株式会社,東京都,品川区,上大崎２丁目１３－３５－４０３,,13,109,1410021,,,,,,,2025-05-12,1,,,,,タイセイケンセツ,0
2494,9010901057328,新規,0,2025-05-12,2025-05-12,株式会社梶ヶ谷オフィス,,株式会社,東京都,世田谷区,玉川３丁目２０番２号マノア玉川第三ビル５０１号室,,13,112,1580094,,,,,,,2025-05-12,1,,,,,カジガヤオフィス,0
2495,9010903009905,新規,0,2025-05-12,2025-05-12,合同会社ＩＣＨＩＧＥＫＩ,,合同会社,東京都,世田谷区,上馬４丁目２４―９プライムガーデン駒澤大学６０６号室,,13,112,1540011,,,,,,,2025-05-12,1,,,,,イチゲキ,0
2498,9011001169311,新規,0,2025-05-12,2025-05-12,株式会社エクスメディア,,株式会社,東京都,渋谷区,渋谷２丁目６番８－６０１号,,13,113,1500002,,,,,,,2025-05-12,1,,,,,エクスメディア,0
2506,9011101111692,新規,0,2025-05-12,2025-05-12,株式会社東京映像研究所,,株式会社,東京都,新宿区,新宿１丁目３４番１６号清水ビル２０３,,13,104,1600022,,,,,,,2025-05-12,1,,,,,トウキョウエイゾウケンキュウジョ,0
2508,9011501032035,新規,0,2025-05-12,2025-05-12,鏡水印佳株式会社,,株式会社,東京都,北区,浮間３丁目１番５５号３０３号室,,13,117,1150051,,,,,,,2025-05-12,1,,,,,キョウスイインカ,0
2509,9011501032043,新規,0,2025-05-12,2025-05-12,ＲＢＴ　ｎｅｘｔ株式会社,,株式会社,東京都,荒川区,南千住４丁目７番３号,,13,118,1160003,,,,,,,2025-05-12,1,,,,,アールビーティーネクスト,0
2510,9011503006532,新規,0,2025-05-12,2025-05-12,合同会社ｎｉｎｉｎコンサルティング＆カウンセリング,,合同会社,東京都,荒川区,西日暮里１丁目３８－９共栄ビル１０１,,13,118,1160013,,,,,,,2025-05-12,1,,,,,ニニンコンサルティングアンドカウンセリング,0
2512,9011601028635,新規,0,2025-05-12,2025-05-12,株式会社いろはビルト,,株式会社,東京都,練馬区,桜台３丁目２７番８号,,13,120,1760002,,,,,,,2025-05-12,1,,,,,イロハビルト,0
2514,9011703004237,新規,0,2025-05-12,2025-05-12,合同会社ニシキ,,合同会社,東京都,江戸川区,松島３丁目２６番４号,,13,123,1320031,,,,,,,2025-05-12,1,,,,,ニシキ,0
2517,9011801046024,新規,0,2025-05-12,2025-05-12,株式会社ＺｅＮ商事,,株式会社,東京都,足立区,江北４丁目１１番６－６０７号パレステージ江北,,13,121,1230872,,,,,,,2025-05-12,1,,,,,ゼンショウジ,0
2518,9011801046115,新規,0,2025-05-12,2025-05-12,株式会社オテアゲ,,株式会社,東京都,葛飾区,亀有５丁目２８番２－２０１号,,13,122,1250061,,,,,,,2025-05-12,1,,,,,オテアゲ,0
2519,9012801023954,新規,0,2025-05-12,2025-05-12,株式会社Ｔｏｐ　ＳｅｌｅｃｔｉｏＮ,,株式会社,東京都,立川市,砂川町６丁目１番地の２４,,13,202,1900031,,,,,,,2025-05-12,1,,,,,トップセレクション,0
2521,9013103001442,新規,0,2025-05-12,2025-05-12,合同会社加藤,,合同会社,東京都,福生市,大字福生１７１０,,13,218,1970011,,,,,,,2025-05-12,1,,,,,カトウ,0
2530,9020001162746,新規,0,2025-05-12,2025-05-12,株式会社ベアクロー,,株式会社,神奈川県,横浜市緑区,台村町１９０番地１,,14,113,2260014,,,,,,,2025-05-12,1,,,,,ベアクロー,0
2531,9020001162795,新規,0,2025-05-12,2025-05-12,株式会社アルカス,,株式会社,神奈川県,横浜市中区,末吉町１丁目１９番地明和ビル１０２号,,14,104,2310055,,,,,,,2025-05-12,1,,,,,アルカス,0
2534,9020003028433,新規,0,2025-05-12,2025-05-12,合同会社木村興業,,合同会社,神奈川県,川崎市川崎区,小田４丁目３１番８－４０２号,,14,131,2100846,,,,,,,2025-05-12,1,,,,,キムラコウギョウ,0
2535,9020003028441,新規,0,2025-05-12,2025-05-12,クリスタルアセットマネジメント合同会社,,合同会社,神奈川県,横浜市都筑区,中川６丁目１番Ｂ－８０２号,,14,118,2240001,,,,,,,2025-05-12,1,,,,,クリスタルアセットマネジメント,0
2536,9020003028466,新規,0,2025-05-12,2025-05-12,ＴＮＧ　Ｊａｐａｎ合同会社,,合同会社,神奈川県,横浜市西区,みなとみらい４丁目４番２号横浜ブルーアベニュー１２階,,14,103,2200012,,,,,,,2025-05-12,1,,,,,ティーエヌジージャパン,0
2539,9021001085152,新規,0,2025-05-12,2025-05-12,羅敷株式会社,,株式会社,神奈川県,海老名市,河原口５丁目７番３－１０２号,,14,215,2430433,,,,,,,2025-05-12,1,,,,,ラシキ,0
2540,9021001085185,新規,0,2025-05-12,2025-05-12,株式会社ＭＡＤ’ｊｏｙ,,株式会社,神奈川県,茅ヶ崎市,矢畑１３９０番地６,,14,207,2530085,,,,,,,2025-05-12,1,,,,,マッジョイ,0
2541,9021001085193,新規,0,2025-05-12,2025-05-12,株式会社ＳＧ,,株式会社,神奈川県,愛甲郡愛川町,中津３５２９スズキビル２０３,,14,401,2430303,,,,,,,2025-05-12,1,,,,,,0
2542,9021003015966,新規,0,2025-05-12,2025-05-12,合同会社Ａｌｂｅｒｏ　ｄｉ　Ｃｏｃｃｏ,,合同会社,神奈川県,足柄上郡山北町,山北９３１－２１,,14,364,2580113,,,,,,,2025-05-12,1,,,,,アルベロディコッコ,0
2553,9030001166374,新規,0,2025-05-12,2025-05-12,株式会社ＴＡＮＯＣ,,株式会社,埼玉県,川越市,大字上戸２８８番地４,,11,201,3500816,,,,,,,2025-05-12,1,,,,,タノック,0
2554,9030001166440,新規,0,2025-05-12,2025-05-12,株式会社コンストラテック,,株式会社,埼玉県,さいたま市緑区,大字三室２３５６番地１１,,11,109,3360911,,,,,,,2025-05-12,1,,,,,コンストラテック,0
2555,9030001166457,新規,0,2025-05-12,2025-05-12,ルミエ株式会社,,株式会社,埼玉県,川口市,芝２丁目１７番９－２号,,11,203,3330866,,,,,,,2025-05-12,1,,,,,ルミエ,0
2564,9030005022152,新規,0,2025-05-12,2025-05-12,一般社団法人日タイ友好ネットワーク,,その他の設立登記法人,埼玉県,川越市,大字笠幡４５８３番地３,,11,201,3501175,,,,,,,2025-05-12,1,,,,,ニッタイユウコウネットワーク,0
2570,9040001138645,新規,0,2025-05-12,2025-05-12,老犬ホーム九十九里パーク株式会社,,株式会社,千葉県,千葉市若葉区,千城台北２丁目６番８号,,12,104,2640005,,,,,,,2025-05-12,1,,,,,ロウケンホームクジュウクリパーク,0
2571,9040001138678,新規,0,2025-05-12,2025-05-12,株式会社ウィズ保険サービス,,株式会社,千葉県,木更津市,永井作６０番地２Ｆ,,12,206,2920053,,,,,,,2025-05-12,1,,,,,ウィズホケンサービス,0
2572,9040001138694,新規,0,2025-05-12,2025-05-12,株式会社ほけんスクエア,,株式会社,千葉県,木更津市,港南台１丁目２６番地６,,12,206,2920827,,,,,,,2025-05-12,1,,,,,ホケンスクエア,0
2578,9050001056623,新規,0,2025-05-12,2025-05-12,株式会社ＪＩＬ,,株式会社,茨城県,水戸市,吉沢町３５４番地３０,,08,201,3100845,,,,,,,2025-05-12,1,,,,,ジール,0
2580,9060001038182,新規,0,2025-05-12,2025-05-12,森蔵株式会社,,株式会社,栃木県,那須塩原市,上赤田２３８番地,,09,213,3292748,,,,,,,2025-05-12,1,,,,,モリゾウ,0
2583,9070001042919,新規,0,2025-05-12,2025-05-12,株式会社ホシノ塗装,,株式会社,群馬県,伊勢崎市,東上之宮町１３１５番地７,,10,204,3720815,,,,,,,2025-05-12,1,,,,,ホシノトソウ,0
2584,9070001042927,新規,0,2025-05-12,2025-05-12,アイネモスプロジェクト株式会社,,株式会社,群馬県,甘楽郡甘楽町,大字天引１３３７番地１,,10,384,3702217,,,,,,,2025-05-12,1,,,,,アイネモスプロジェクト,0
2586,9080003003455,新規,0,2025-05-12,2025-05-12,合同会社笑助,,合同会社,静岡県,静岡市駿河区,丸子新田５８番地の３０,,22,102,4210111,,,,,,,2025-05-12,1,,,,,,0
2588,9080101025491,新規,0,2025-05-12,2025-05-12,株式会社海寶,,株式会社,静岡県,御殿場市,川島田６００番地の２,,22,215,4120045,,,,,,,2025-05-12,1,,,,,カイホウ,0
2591,9090001019254,新規,0,2025-05-12,2025-05-12,株式会社ＡＪ‐Ｌａｂｏ,,株式会社,山梨県,富士吉田市,新西原２丁目１４番１２号,,19,202,4030017,,,,,,,2025-05-12,1,,,,,エイジェイラボ,0
2592,9090001019262,新規,0,2025-05-12,2025-05-12,株式会社ＮＡＧ,,株式会社,山梨県,甲府市,高畑１丁目１２番３４号,,19,201,4000042,,,,,,,2025-05-12,1,,,,,エヌエージー,0
2595,9100003008154,新規,0,2025-05-12,2025-05-12,ＰＩＸＥＬ　ＨＩＶＥ合同会社,,合同会社,長野県,諏訪市,大字中洲３０２３－７,,20,206,3920015,,,,,,,2025-05-12,1,,,,,ピクセルハイブ,0
2597,9110001039233,新規,0,2025-05-12,2025-05-12,ヤシキ株式会社,,株式会社,新潟県,佐渡市,吉岡８４２番地,,15,224,9520312,,,,,,,2025-05-12,1,,,,,ヤシキ,0
2610,9120001275174,新規,0,2025-05-12,2025-05-12,株式会社アムール,,株式会社,大阪府,大阪市生野区,小路東３丁目９－１２,,27,116,5440003,,,,,,,2025-05-12,1,,,,,アムール,0
2611,9120001275298,新規,0,2025-05-12,2025-05-12,佐汐商事株式会社,,株式会社,大阪府,大阪市北区,西天満３丁目５番１８第三新興ビル２０３号,,27,127,5300047,,,,,,,2025-05-12,1,,,,,サセキショウジ,0
2612,9120001275331,新規,0,2025-05-12,2025-05-12,和瑞綜合株式会社,,株式会社,大阪府,大阪市西淀川区,姫島２丁目４番１０号パークアベニュー２階Ａ室,,27,113,5550033,,,,,,,2025-05-12,1,,,,,ワズイソウゴウ,0
2613,9120001275380,新規,0,2025-05-12,2025-05-12,俊輝株式会社,,株式会社,大阪府,大阪市生野区,巽北１丁目１番１号３Ｆ－Ｂ,,27,116,5440004,,,,,,,2025-05-12,1,,,,,シュンキ,0
2614,9120001275389,新規,0,2025-05-12,2025-05-12,株式会社Ｎ．Ｌ,,株式会社,大阪府,大阪市西淀川区,佃２丁目１０番２５号ポントワーズ千舟２０１号室,,27,113,5550001,,,,,,,2025-05-12,1,,,,,エヌエル,0
2615,9120001275447,新規,0,2025-05-12,2025-05-12,株式会社勝雄,,株式会社,大阪府,大阪市西成区,岸里東２丁目９番２－３０１号,,27,122,5570042,,,,,,,2025-05-12,1,,,,,カツオ,0
2616,9120001275463,新規,0,2025-05-12,2025-05-12,＿光影業株式会社,00139105,株式会社,大阪府,大阪市城東区,関目５丁目１９番９号関目花博公館４０１Ａ,,27,118,5360008,,,,,,,2025-05-12,1,,,,,キンコウエイギョウ,0
2617,9120001275471,新規,0,2025-05-12,2025-05-12,杰慎投資管理株式会社,,株式会社,大阪府,大阪市西成区,花園南１丁目９－１３,,27,122,5570015,,,,,,,2025-05-12,1,,,,,ゲッシントウシカンリ,0
2618,9120001275513,新規,0,2025-05-12,2025-05-12,株式会社スタートリリオンジャパン,,株式会社,大阪府,大阪市北区,天満２丁目１－１２天満橋ＳＥビル４Ｆ,,27,127,5300043,,,,,,,2025-05-12,1,,,,,スタートリリオンジャパン,0
2619,9120001275538,新規,0,2025-05-12,2025-05-12,ＳＨＩＭＯＡ株式会社,,株式会社,大阪府,大阪市中央区,淡路町３丁目５番１３号創建御堂筋ビル２階,,27,128,5410047,,,,,,,2025-05-12,1,,,,,シーモア,0
2620,9120001275546,新規,0,2025-05-12,2025-05-12,株式会社ライズ,,株式会社,大阪府,大阪市住吉区,遠里小野２丁目５番１２号,,27,120,5580032,,,,,,,2025-05-12,1,,,,,ライズ,0
2621,9120001275562,新規,0,2025-05-12,2025-05-12,株式会社ＳＨＩＮ・ＲＡＩ,,株式会社,大阪府,門真市,三ツ島１丁目４番２３号,,27,223,5710015,,,,,,,2025-05-12,1,,,,,シンライ,0
2622,9120001275570,新規,0,2025-05-12,2025-05-12,株式会社ＳＩＴパートナーズ,,株式会社,大阪府,大阪市淀川区,西中島３丁目１１番２６－２０７号,,27,123,5320011,,,,,,,2025-05-12,1,,,,,エスアイティパートナーズ,0
2623,9120001275587,新規,0,2025-05-12,2025-05-12,株式会社ＨＡＫＵ,,株式会社,大阪府,大阪市中央区,内久宝寺町３丁目４番９－６０２号,,27,128,5400013,,,,,,,2025-05-12,1,,,,,ハク,0
2624,9120001275612,新規,0,2025-05-12,2025-05-12,株式会社ＳＨＡＲＥプラス,,株式会社,大阪府,大阪市中央区,南久宝寺町１丁目８番８号,,27,128,5410058,,,,,,,2025-05-12,1,,,,,シェアプラス,0
2625,9120001275653,新規,0,2025-05-12,2025-05-12,株式会社メゾンブルーム,,株式会社,大阪府,大阪市浪速区,湊町２丁目２番４５号,,27,111,5560017,,,,,,,2025-05-12,1,,,,,メゾンブルーム,0
2630,9120003029347,新規,0,2025-05-12,2025-05-12,合同会社ｃｈａｃｈａ,,合同会社,大阪府,大阪市福島区,野田５丁目５番１３号,,27,103,5530005,,,,,,,2025-05-12,1,,,,,チャチャ,0
2631,9120003029371,新規,0,2025-05-12,2025-05-12,金尊悦合同会社,,合同会社,大阪府,大阪市西成区,萩之茶屋１丁目１２番７号万葉ビル７５号室,,27,122,5570004,,,,,,,2025-05-12,1,,,,,キンソンエツ,0
2639,9120101071655,新規,0,2025-05-12,2025-05-12,株式会社ウエマツケア,,株式会社,大阪府,岸和田市,藤井町３丁目２番１１号,,27,202,5960046,,,,,,,2025-05-12,1,,,,,ウエマツケア,0
2640,9120103006444,新規,0,2025-05-12,2025-05-12,Ｈｉｋａｒｉ　Ｃｏｎｎｅｃｔ合同会社,,合同会社,大阪府,堺市北区,百舌鳥梅町３丁４８番地２９,,27,146,5918032,,,,,,,2025-05-12,1,,,,,ヒカリコネクト,0
2641,9120103006452,新規,0,2025-05-12,2025-05-12,カナモリ合同会社,,合同会社,大阪府,河内長野市,千代田南町１９番１１号,,27,216,5860018,,,,,,,2025-05-12,1,,,,,カナモリ,0
2643,9120901050817,新規,0,2025-05-12,2025-05-12,キープラスオー株式会社,,株式会社,大阪府,豊中市,三和町１丁目３－１,,27,203,5610828,,,,,,,2025-05-12,1,,,,,キープラスオー,0
2644,9120901050841,新規,0,2025-05-12,2025-05-12,株式会社Ｔｓｕｋａｓａ　Ｒｅｌａｔｅ,,株式会社,大阪府,茨木市,宇野辺２丁目１１番２８号,,27,211,5670042,,,,,,,2025-05-12,1,,,,,ツカサリレイト,0
2650,9130001079640,新規,0,2025-05-12,2025-05-12,株式会社ＲＩＮＷＥＩ,,株式会社,京都府,京都市伏見区,石田内里町７６番地１タウンハイツ醍醐２１２,,26,109,6011432,,,,,,,2025-05-12,1,,,,,リンウェイ,0
2651,9130001079649,新規,0,2025-05-12,2025-05-12,シンフォニージャパン株式会社,,株式会社,京都府,亀岡市,亀岡駅北２丁目３番地６,,26,206,6210807,,,,,,,2025-05-12,1,,,,,シンフォニージャパン,0
2658,9140003022003,新規,0,2025-05-12,2025-05-12,オメガ警備保障合同会社,,合同会社,兵庫県,養父市,八鹿町宿南１７７３,,28,222,6670003,,,,,,,2025-05-12,1,,,,,オメガケイビホショウ,0
2659,9140003022044,新規,0,2025-05-12,2025-05-12,合同会社ＫＰインベストメント,,合同会社,兵庫県,神戸市東灘区,西岡本６丁目５－５－４,,28,101,6580073,,,,,,,2025-05-12,1,,,,,ケーピーインベストメント,0
2660,9160001026730,新規,0,2025-05-12,2025-05-12,株式会社Ｓｕｎ　Ｓｍｉｌｅ,,株式会社,滋賀県,東近江市,石塔町９５３番地,,25,213,5291501,,,,,,,2025-05-12,1,,,,,サンスマイル,0
2662,9160003003463,新規,0,2025-05-12,2025-05-12,ＯｍｉＨｕｂ合同会社,,合同会社,滋賀県,彦根市,中薮一丁目７番２２号,,25,202,5220000,,,,,,,2025-05-12,1,,,,,オウミハブ,0
2663,9160005011407,新規,0,2025-05-12,2025-05-12,一般社団法人歩,,その他の設立登記法人,滋賀県,守山市,守山４丁目１３番７号南喜ビル２０４号室,,25,207,5240022,,,,,,,2025-05-12,1,,,,,アルク,0
2664,9170001018611,新規,0,2025-05-12,2025-05-12,下村興産株式会社,,株式会社,和歌山県,和歌山市,紀三井寺３３７番地５,,30,201,6410012,,,,,,,2025-05-12,1,,,,,シモムラコウサン,0
2672,9180001166665,新規,0,2025-05-12,2025-05-12,ＡＣマリン株式会社,,株式会社,愛知県,知多市,北浜町２５番地,,23,224,4780046,,,,,,,2025-05-12,1,,,,,エーシーマリン,0
2673,9180001166756,新規,0,2025-05-12,2025-05-12,ＨＩＲ‐ＴＥＣＨ株式会社,,株式会社,愛知県,名古屋市港区,東茶屋２丁目２８１番地,,23,111,4550851,,,,,,,2025-05-12,1,,,,,ヒーテック,0
2674,9180001166772,新規,0,2025-05-12,2025-05-12,株式会社ｓａｋｕｉｒｏ,,株式会社,愛知県,一宮市,東五城字出先６６番地１,,23,203,4940008,,,,,,,2025-05-12,1,,,,,サクイロ,0
2675,9180001166780,新規,0,2025-05-12,2025-05-12,株式会社ＷｉｔｈＴｅｃｈＷｏｒｋｓ,,株式会社,愛知県,名古屋市東区,白壁１丁目２８番地アーバンラフレ白壁１－１００３号,,23,102,4610011,,,,,,,2025-05-12,1,,,,,ウィズテックワークス,0
2678,9180003028459,新規,0,2025-05-12,2025-05-12,合同会社ＡＲＩＳＥ,,合同会社,愛知県,名古屋市中村区,名駅４丁目２４番５号第２森ビル４０１,,23,105,4500002,,,,,,,2025-05-12,1,,,,,アライズ,0
2683,9190001032197,新規,0,2025-05-12,2025-05-12,株式会社ｉＲｏＰｌｕｓ,,株式会社,三重県,四日市市,茂福町１３番１号,,24,202,5108012,,,,,,,2025-05-12,1,,,,,,0
2687,9200003006817,新規,0,2025-05-12,2025-05-12,Ｍａｙ合同会社,,合同会社,岐阜県,岐阜市,芋島４丁目２１－２２,,21,201,5008234,,,,,,,2025-05-12,1,,,,,メイ,0
2694,9240001064937,新規,0,2025-05-12,2025-05-12,株式会社ＭＯＲＩＴＯＨＩＴＯ,,株式会社,広島県,福山市,奈良津町３丁目１１番２４号,,34,207,7200022,,,,,,,2025-05-12,1,,,,,モリトヒト,0
2698,9250002017298,新規,0,2025-05-12,2025-05-12,有限会社とみえ,,有限会社,山口県,光市,室積１丁目１４番１号,,35,210,7430007,,,,,,,2025-05-12,1,,,,,トミエ,0
2700,9260001040176,新規,0,2025-05-12,2025-05-12,藤阿軌興株式会社,,株式会社,岡山県,岡山市東区,瀬戸町万富９９３番地３,,33,103,7090841,,,,,,,2025-05-12,1,,,,,トウアキコウ,0
2703,9270003001745,新規,0,2025-05-12,2025-05-12,合同会社ＲＣＲ,,合同会社,鳥取県,東伯郡北栄町,江北４８１番地３９,,31,372,6892101,,,,,,,2025-05-12,1,,,,,アールシーアール,0
2705,9270005005645,新規,0,2025-05-12,2025-05-12,一般社団法人鳥取県トライアスロン協会,,その他の設立登記法人,鳥取県,米子市,皆生温泉３丁目１８番３号,,31,202,6830001,,,,,,,2025-05-12,1,,,,,トットリケントライアスロンキョウカイ,0
2712,9290001109935,新規,0,2025-05-12,2025-05-12,株式会社オネストライフ,,株式会社,福岡県,春日市,松ヶ丘２丁目１２８番地２,,40,218,8160843,,,,,,,2025-05-12,1,,,,,オネストライフ,0
2713,9290001109976,新規,0,2025-05-12,2025-05-12,株式会社海輝,,株式会社,福岡県,柳川市,吉富町５９０番地,,40,207,8320055,,,,,,,2025-05-12,1,,,,,カイキ,0
2714,9290001109992,新規,0,2025-05-12,2025-05-12,株式会社ＧＡＧＡ,,株式会社,福岡県,糟屋郡篠栗町,和田１丁目１３番２２号,,40,342,8112414,,,,,,,2025-05-12,1,,,,,ガガ,0
2719,9290003016808,新規,0,2025-05-12,2025-05-12,ＮＳソリューション合同会社,,合同会社,福岡県,福岡市博多区,中洲中島町３番１５－１００３号ウェルリバービュー天神,,40,132,8100802,,,,,,,2025-05-12,1,,,,,エヌエスソリューション,0
2728,9320001021087,新規,0,2025-05-12,2025-05-12,株式会社ＡＸＩＳ,,株式会社,大分県,大分市,畑中１丁目８番２１号,,44,201,8700856,,,,,,,2025-05-12,1,,,,,アクシス,0
2731,9330001033197,新規,0,2025-05-12,2025-05-12,株式会社ＨＲＤ,,株式会社,熊本県,熊本市中央区,渡鹿６丁目２番１－２１０号ファーネスト大江東リバーサイド,,43,101,8620970,,,,,,,2025-05-12,1,,,,,エイチアールディー,0
2736,9350001019525,新規,0,2025-05-12,2025-05-12,株式会社縁丸,,株式会社,宮崎県,宮崎市,高洲町２３２番地１,,45,201,8800852,,,,,,,2025-05-12,1,,,,,エンマル,0
2737,9360001035133,新規,0,2025-05-12,2025-05-12,株式会社トンナハビーチ,,株式会社,沖縄県,中頭郡北谷町,字吉原１１９８番地１－１Ｆ,,47,326,9040105,,,,,,,2025-05-12,1,,,,,トンナハビーチ,0
2738,9360001035166,新規,0,2025-05-12,2025-05-12,株式会社Ｋｕテック,,株式会社,沖縄県,浦添市,前田２丁目２０番１２号,,47,208,9012102,,,,,,,2025-05-12,1,,,,,ケイユーテック,0
2742,9360005007228,新規,0,2025-05-12,2025-05-12,一般社団法人七色乃和,,その他の設立登記法人,沖縄県,那覇市,字仲井真３１７番地５アクセス沖縄ビル３階,,47,201,9020074,,,,,,,2025-05-12,1,,,,,ナナイロノワ,0
2745,9370001052540,新規,0,2025-05-12,2025-05-12,東北ジェネシス株式会社,,株式会社,宮城県,気仙沼市,高井４０番地,,04,205,9880613,,,,,,,2025-05-12,1,,,,,トウホクジェネシス,0
2746,9370001052549,新規,0,2025-05-12,2025-05-12,株式会社エムケージー,,株式会社,宮城県,仙台市太白区,四郎丸字昭和北１４０番地の１,,04,104,9811101,,,,,,,2025-05-12,1,,,,,エムケージー,0
2747,9370001052565,新規,0,2025-05-12,2025-05-12,株式会社アタラシイケシキ,,株式会社,宮城県,仙台市青葉区,中央４丁目１０番３号,,04,101,9800021,,,,,,,2025-05-12,1,,,,,アタラシイケシキ,0
2749,9380001035305,新規,0,2025-05-12,2025-05-12,ＦＴＦ株式会社,,株式会社,福島県,郡山市,富田町字愛宕前７８番地の２山一富田ビル２０６,,07,203,9638041,,,,,,,2025-05-12,1,,,,,エフティーエフ,0
2753,9420001019138,新規,0,2025-05-12,2025-05-12,株式会社シバ建,,株式会社,青森県,上北郡東北町,大字大浦字堀ノ内６０番地１,,02,408,0392402,,,,,,,2025-05-12,1,,,,,シバケン,0
2756,9420003003115,新規,0,2025-05-12,2025-05-12,合同会社ＧＲＥＥＮ　ＡＯＭＯＲＩ,,合同会社,青森県,弘前市,大字宮川２丁目３番地４,,02,202,0368051,,,,,,,2025-05-12,1,,,,,グリーンアオモリ,0
2758,9430001094353,新規,0,2025-05-12,2025-05-12,株式会社Ｒｅｖｏ　Ｒｅｎｔ,,株式会社,北海道,札幌市白石区,菊水元町六条１丁目６番８号,,01,104,0030826,,,,,,,2025-05-12,1,,,,,レボレント,0
2767,9430003017626,新規,0,2025-05-12,2025-05-12,ＩＵＭ合同会社,,合同会社,北海道,苫小牧市,沼ノ端中央１丁目８－１１,,01,213,0591305,,,,,,,2025-05-12,1,,,,,イウム,0
2768,9430003017634,新規,0,2025-05-12,2025-05-12,Ｋ’ＳＷＯＲＫ合同会社,,合同会社,北海道,札幌市手稲区,富丘三条７丁目４番１－２０６号,,01,109,0060013,,,,,,,2025-05-12,1,,,,,ケーズワーク,0
2770,9450001014623,新規,0,2025-05-12,2025-05-12,株式会社エニーパートナー,,株式会社,北海道,旭川市,緑町１８丁目３０３４番地１２,,01,204,0700823,,,,,,,2025-05-12,1,,,,,エニーパートナー,0
2779,9700150130369,新規,0,2025-05-12,2025-05-12,ＶＥＬＯＢＩＫＥ　ＩＮＮＯＶＡＴＩＯＮ　ＬＩＭＩＴＥＤ,,外国会社等,,,,,,,,４　Ｔｅ　Ｒｉｐｏ　Ｒｉｓｅ，Ｃａｍｂｒｉｄｇｅ，３４３４，ＮＺ,,,,,,2025-05-12,1,,,,,ベロバイクインノベーシヨンリミテイツド,0
