sequenceNumber,corporateNumber,process,correct,updateDate,changeDate,name,nameImageId,kind,prefectureName,cityName,streetNumber,addressImageId,prefectureCode,cityCode,postCode,addressOutside,addressOutsideImageId,closeDate,closeCause,successorCorporateNumber,changeCause,assignmentDate,latest,enName,enPrefectureName,enCityName,enAddressOutside,furigana,hihyoji
4,1010001241962,新規,0,2024-02-05,2024-02-05,株式会社デジタルブラストコンサルティング,,株式会社,東京都,千代田区,神田神保町１丁目１０５番地,,13,101,1010051,,,,,,,2024-02-05,1,,,,,デジタルブラストコンサルティング,0
8,1010003042830,新規,0,2024-02-05,2024-02-05,合同会社Ｈｏｒｉ＆Ｃｏ．,,合同会社,東京都,文京区,春日２丁目１９番１２ＰＨ１２０１,,13,105,1120003,,,,,,,2024-02-05,1,,,,,ホリアンドカンパニー,0
9,1010003042855,新規,0,2024-02-05,2024-02-05,ＯＸＶＥＲＧ　ＣＡＰＩＴＡＬ合同会社,,合同会社,東京都,中央区,銀座１丁目１２番４号Ｎ＆ＥＢＬＤ．６Ｆ,,13,102,1040061,,,,,,,2024-02-05,1,,,,,オックスバーグキャピタル,0
10,1010005037853,新規,0,2024-02-05,2024-02-05,一般社団法人御殿山ホールディングス,,その他の設立登記法人,東京都,千代田区,丸の内１丁目６番５号,,13,101,1000005,,,,,,,2024-02-05,1,,,,,ゴテンヤマホールディングス,0
18,1010401180067,新規,0,2024-02-05,2024-02-05,ゼータヘルスラボ株式会社,,株式会社,東京都,港区,三田５丁目１１番１０号５０７,,13,103,1080073,,,,,,,2024-02-05,1,,,,,ゼータヘルスラボ,0
19,1010401180240,新規,0,2024-02-05,2024-02-05,株式会社ＡＰ７８,,株式会社,東京都,港区,虎ノ門４丁目１番２８号虎ノ門タワーズオフィス１７階,,13,103,1050001,,,,,,,2024-02-05,1,,,,,エーピーナナジュウハチ,0
22,1010403031904,新規,0,2024-02-05,2024-02-05,合同会社リリスホワイト,,合同会社,東京都,港区,浜松町２丁目２番１５号浜松町ダイヤビル２Ｆ,,13,103,1050013,,,,,,,2024-02-05,1,,,,,リリスホワイト,0
25,1010503007333,新規,0,2024-02-05,2024-02-05,合同会社ベアトリーチェ,,合同会社,東京都,台東区,千束４丁目４３番１３号,,13,106,1110031,,,,,,,2024-02-05,1,,,,,ベアトリーチェ,0
27,1010601064573,新規,0,2024-02-05,2024-02-05,株式会社ＢｒｏｔｈｅｒＳｏｎ,,株式会社,東京都,墨田区,太平３丁目９－５メアヌイ錦糸町６０２,,13,107,1300012,,,,,,,2024-02-05,1,,,,,ブラザーサン,0
29,1010703007042,新規,0,2024-02-05,2024-02-05,合同会社マウントワン,,合同会社,東京都,品川区,西五反田３丁目３番２号プラウドタワー目黒ＭＡＲＣ２５０６,,13,109,1410031,,,,,,,2024-02-05,1,,,,,マウントワン,0
45,1011101105966,新規,0,2024-02-05,2024-02-05,林檎株式会社,,株式会社,東京都,新宿区,山吹町３３７番地都住創山吹町ビル６０４Ｇ,,13,104,1620801,,,,,,,2024-02-05,1,,,,,リンゴ,0
46,1011103014059,新規,0,2024-02-05,2024-02-05,千代信合同会社,,合同会社,東京都,新宿区,西新宿３丁目３番１３号西新宿水間ビル２Ｆ,,13,104,1600023,,,,,,,2024-02-05,1,,,,,チヨシン,0
63,1011705001818,新規,0,2024-02-05,2024-02-05,一般社団法人日本外国人経営マネジメント支援機構,,その他の設立登記法人,東京都,江戸川区,北小岩６丁目２１番５号,,13,123,1330051,,,,,,,2024-02-05,1,,,,,ニホンガイコクジンケイエイマネジメントシエンキコウ,0
64,1011801043747,新規,0,2024-02-05,2024-02-05,株式会社Ｌ・Ｌ,,株式会社,東京都,足立区,一ツ家３丁目２７－５－４４－５０５室,,13,121,1210075,,,,,,,2024-02-05,1,,,,,エルエル,0
65,1011803006058,新規,0,2024-02-05,2024-02-05,合同会社３５８８,,合同会社,東京都,葛飾区,亀有２丁目３３番１３号キティン亀有３０３,,13,122,1250061,,,,,,,2024-02-05,1,,,,,サンゴーハチハチ,0
67,1012403006398,新規,0,2024-02-05,2024-02-05,合同会社ロイヤル,,合同会社,東京都,三鷹市,中原４丁目３６番地２９号,,13,204,1810005,,,,,,,2024-02-05,1,,,,,ロイヤル,0
69,1012701018070,新規,0,2024-02-05,2024-02-05,株式会社Ｌｅ’ｄ‐Ｓｅｎｓｅ,,株式会社,東京都,小平市,天神町４丁目７番１３号セジュールダックス１０５号,,13,211,1870004,,,,,,,2024-02-05,1,,,,,リドセンス,0
70,1012801022947,新規,0,2024-02-05,2024-02-05,株式会社ＨａｔｃｈＵｐ,,株式会社,東京都,立川市,曙町２丁目８番２８号,,13,202,1900012,,,,,,,2024-02-05,1,,,,,ハッチアップ,0
74,1013301052030,新規,0,2024-02-05,2024-02-05,Ａｎｉｇｅｎ　Ｍｅｄｉａ　Ｇｒｏｕｐ株式会社,,株式会社,東京都,豊島区,東池袋３丁目１３番１２号グランメール池袋４０５,,13,116,1700013,,,,,,,2024-02-05,1,,,,,アニゲンメディアグループ,0
79,1020001155658,新規,0,2024-02-05,2024-02-05,株式会社オックス,,株式会社,神奈川県,横浜市旭区,小高町１２４番地１,,14,112,2410015,,,,,,,2024-02-05,1,,,,,オックス,0
84,1020003025479,新規,0,2024-02-05,2024-02-05,合同会社みのうお,,合同会社,神奈川県,横浜市戸塚区,柏尾町８１５番地９２,,14,110,2440812,,,,,,,2024-02-05,1,,,,,ミノウオ,0
85,1020003025487,新規,0,2024-02-05,2024-02-05,浜中鶴家本店合同会社,,合同会社,神奈川県,横浜市金沢区,幸浦２丁目１４－２,,14,108,2360003,,,,,,,2024-02-05,1,,,,,ハマナカツルヤホンテン,0
87,1021001081381,新規,0,2024-02-05,2024-02-05,株式会社ＡＭＭＣ,,株式会社,神奈川県,相模原市緑区,大島７１１番地１,,14,151,2520135,,,,,,,2024-02-05,1,,,,,エーエムエムシー,0
97,1030001158486,新規,0,2024-02-05,2024-02-05,株式会社ＹＤ関東,,株式会社,埼玉県,越谷市,蒲生寿町５－２８キャステル蒲生１番館２０１,,11,222,3430836,,,,,,,2024-02-05,1,,,,,ワイディーカントウ,0
98,1030001158494,新規,0,2024-02-05,2024-02-05,株式会社ＣＯＭＴＥＣＨ,,株式会社,埼玉県,春日部市,備後西４丁目５番３６号,,11,214,3440033,,,,,,,2024-02-05,1,,,,,コムテック,0
99,1030001158528,新規,0,2024-02-05,2024-02-05,株式会社アシスト・ワン,,株式会社,埼玉県,春日部市,藤塚１０５３番地５,,11,214,3440011,,,,,,,2024-02-05,1,,,,,アシストワン,0
102,1030003023556,新規,0,2024-02-05,2024-02-05,合同会社ｑｉｈｏ,,合同会社,埼玉県,さいたま市南区,別所７丁目１７番２６号,,11,108,3360021,,,,,,,2024-02-05,1,,,,,キホ,0
103,1030003023564,新規,0,2024-02-05,2024-02-05,ＲＭ合同会社,,合同会社,埼玉県,上尾市,大字今泉１７２番地８,,11,219,3620047,,,,,,,2024-02-05,1,,,,,アールエム,0
110,1040001132052,新規,0,2024-02-05,2024-02-05,株式会社かとり農場,,株式会社,千葉県,香取市,龍谷２５２番地４,,12,236,2890342,,,,,,,2024-02-05,1,,,,,カトリノウジョウ,0
111,1040001132077,新規,0,2024-02-05,2024-02-05,株式会社コノカタリ,,株式会社,千葉県,柏市,若柴１７８番地４柏の葉キャンパス１４８街区２ショップ＆オフィス棟６Ｆ,,12,217,2770871,,,,,,,2024-02-05,1,,,,,コノカタリ,0
118,1070003005261,新規,0,2024-02-05,2024-02-05,Ｉｋｉｇａｉ　Ｔｒａｄｉｎｇ　Ｃｏｍｐａｎｙ合同会社,,合同会社,群馬県,館林市,近藤町２番地の２７６シティーコーポラス１階Ｂ１０２号室,,10,207,3740042,,,,,,,2024-02-05,1,,,,,イキガイトレーディングカンパニー,0
120,1080001026119,新規,0,2024-02-05,2024-02-05,株式会社ＭａｒｉＧｏｌｄ,,株式会社,静岡県,静岡市葵区,春日２丁目１番３号ウイング春日ＩＩ２０１,00133623,22,101,4200823,,,,,,,2024-02-05,1,,,,,マリーゴールド,0
127,1110001038151,新規,0,2024-02-05,2024-02-05,鈴木総業株式会社,,株式会社,新潟県,村上市,塩町１２番３９号,,15,212,9580876,,,,,,,2024-02-05,1,,,,,スズキソウギョウ,0
139,1120001261917,新規,0,2024-02-05,2024-02-05,大谷電気防災株式会社,,株式会社,大阪府,大阪市天王寺区,堀越町７番２０号アヴァンセ天王寺６１１号,,27,109,5430056,,,,,,,2024-02-05,1,,,,,オオタニデンキボウサイ,0
140,1120001261958,新規,0,2024-02-05,2024-02-05,株式会社ＲＣ,,株式会社,大阪府,守口市,大久保町４丁目７番６号,,27,209,5700012,,,,,,,2024-02-05,1,,,,,アールシー,0
141,1120001261982,新規,0,2024-02-05,2024-02-05,株式会社めっちゃ未来,,株式会社,大阪府,大阪市中央区,南船場３丁目２番２２号おおきに南船場ビル２０５,,27,128,5420081,,,,,,,2024-02-05,1,,,,,メッチャミライ,0
142,1120001261999,新規,0,2024-02-05,2024-02-05,株式会社ＣＬＡＳＳ　Ｋ,,株式会社,大阪府,大阪市天王寺区,生玉前町３番２５－８０２号,,27,109,5430072,,,,,,,2024-02-05,1,,,,,クラスケー,0
143,1120001262064,新規,0,2024-02-05,2024-02-05,ａｉｍｅｒ株式会社,,株式会社,大阪府,大阪市城東区,古市１丁目１２番２２号,,27,118,5360001,,,,,,,2024-02-05,1,,,,,エメ,0
144,1120001262080,新規,0,2024-02-05,2024-02-05,株式会社それいゆ,,株式会社,大阪府,大阪市東住吉区,駒川３丁目１４番４号,,27,121,5460043,,,,,,,2024-02-05,1,,,,,ソレイユ,0
147,1120003025832,新規,0,2024-02-05,2024-02-05,合同会社Ｉ・Ｒ・Ｄ,,合同会社,大阪府,大阪市北区,梅田１丁目２番２号大阪駅前第２ビル１２－１２,,27,127,5300001,,,,,,,2024-02-05,1,,,,,アイアールディー,0
148,1120003025857,新規,0,2024-02-05,2024-02-05,合同会社ミジャス,,合同会社,大阪府,大阪市都島区,中野町４丁目１９番１６号奥村第三マンション４Ｂ号,,27,102,5340027,,,,,,,2024-02-05,1,,,,,ミジャス,0
149,1120003025865,新規,0,2024-02-05,2024-02-05,ウェイブ合同会社,,合同会社,大阪府,大阪市中央区,北浜２丁目２番２１号,,27,128,5410041,,,,,,,2024-02-05,1,,,,,ウェイブ,0
154,1120901048728,新規,0,2024-02-05,2024-02-05,株式会社Ｋ’ｓ　Ｏｆｆｉｃｅ,,株式会社,大阪府,吹田市,桃山台２丁目９番２－１００７号,,27,205,5650854,,,,,,,2024-02-05,1,,,,,ケーズオフィス,0
155,1130001076265,新規,0,2024-02-05,2024-02-05,森印株式会社,,株式会社,京都府,京都市中京区,壬生森町５６番地の２０第２８長栄四条ＳＫハイツ３０４号室,,26,104,6048862,,,,,,,2024-02-05,1,,,,,モリジルシ,0
156,1130001076281,新規,0,2024-02-05,2024-02-05,シンセリテック株式会社,,株式会社,京都府,京都市伏見区,羽束師鴨川町２７０番地９２,,26,109,6128484,,,,,,,2024-02-05,1,,,,,シンセリテック,0
158,1130003009280,新規,0,2024-02-05,2024-02-05,合同会社ノアイブ,,合同会社,京都府,八幡市,八幡柿ケ谷８０－４,,26,210,6148055,,,,,,,2024-02-05,1,,,,,ノアイブ,0
159,1140001133222,新規,0,2024-02-05,2024-02-05,株式会社ＰＡＴＩＳＳＥＲＩＥ　ＴＯＯＴＨ　ＴＯＯＴＨ‐２,,株式会社,兵庫県,神戸市中央区,波止場町２番８号,,28,110,6500042,,,,,,,2024-02-05,1,,,,,,0
160,1140001133239,新規,0,2024-02-05,2024-02-05,株式会社ＣＳＡ,,株式会社,兵庫県,姫路市,田寺８丁目８番２８号,,28,201,6700086,,,,,,,2024-02-05,1,,,,,シーエスエー,0
163,1160003003108,新規,0,2024-02-05,2024-02-05,桃栄スマイルファーム合同会社,,合同会社,滋賀県,蒲生郡日野町,大字北脇１番地１９５,,25,383,5291663,,,,,,,2024-02-05,1,,,,,トウエイスマイルファーム,0
171,1180001160048,新規,0,2024-02-05,2024-02-05,株式会社Ｏｖｅｒｃｏｍｅ,,株式会社,愛知県,名古屋市東区,筒井３丁目１番３８号,,23,102,4610003,,,,,,,2024-02-05,1,,,,,オーバーカム,0
172,1180001160072,新規,0,2024-02-05,2024-02-05,株式会社中部理化Ｔｏｇｏ,,株式会社,愛知県,愛知郡東郷町,大字諸輪字北山８０番の９,,23,302,4700151,,,,,,,2024-02-05,1,,,,,チュウブリカトウゴウ,0
178,1180005020512,新規,0,2024-02-05,2024-02-05,一般社団法人名新会,,その他の設立登記法人,愛知県,名古屋市緑区,平子が丘２６４番地,,23,114,4580826,,,,,,,2024-02-05,1,,,,,メイシンカイ,0
181,1190003004573,新規,0,2024-02-05,2024-02-05,合同会社ＫＵＲＯＳＥ　ＹＮＨ,,合同会社,三重県,伊勢市,黒瀬町８５１番地８,,24,203,5160018,,,,,,,2024-02-05,1,,,,,クロセワイエヌエイチ,0
182,1200001042128,新規,0,2024-02-05,2024-02-05,株式会社ＲＥＸ　ＦＩＥＬＤ,,株式会社,岐阜県,各務原市,川島松原町４４４番地３,,21,213,5016026,,,,,,,2024-02-05,1,,,,,レックスフィールド,0
191,1250001020509,新規,0,2024-02-05,2024-02-05,株式会社太陽,,株式会社,山口県,周南市,みなみ銀座１丁目１４－１０２,,35,215,7450033,,,,,,,2024-02-05,1,,,,,タイヨウ,0
194,1260005011313,新規,0,2024-02-05,2024-02-05,一般社団法人みちくさコミュニティデザイン,,その他の設立登記法人,岡山県,高梁市,有漢町有漢８２１３－３,,33,209,7161321,,,,,,,2024-02-05,1,,,,,ミチクサコミュニティデザイン,0
195,1270001008915,新規,0,2024-02-05,2024-02-05,株式会社ＳＡＫＡＩホールディングス,,株式会社,鳥取県,倉吉市,山根６２２番地１,,31,203,6820023,,,,,,,2024-02-05,1,,,,,サカイホールディングス,0
199,1290001104588,新規,0,2024-02-05,2024-02-05,株式会社セキュリティニシハラ,,株式会社,福岡県,福岡市西区,今宿東１丁目１３番１号,,40,135,8190161,,,,,,,2024-02-05,1,,,,,セキュリティニシハラ,0
200,1290001104613,新規,0,2024-02-05,2024-02-05,株式会社チャンエミ,,株式会社,福岡県,福岡市中央区,草香江２丁目１１－３０－１６０３号,,40,133,8100045,,,,,,,2024-02-05,1,,,,,チャンエミ,0
207,1290003014934,新規,0,2024-02-05,2024-02-05,合同会社ＳＫトレーディング,,合同会社,福岡県,宗像市,青葉台１丁目１６番地３,,40,220,8114162,,,,,,,2024-02-05,1,,,,,エスケイトレーディング,0
208,1290003014942,新規,0,2024-02-05,2024-02-05,合同会社翔香,,合同会社,福岡県,古賀市,日吉２丁目２３番１８号,,40,223,8113106,,,,,,,2024-02-05,1,,,,,ショウカ,0
210,1290801030273,新規,0,2024-02-05,2024-02-05,株式会社ＣＲＯＳＳ,,株式会社,福岡県,北九州市小倉北区,大畠２丁目６番１４－２０２号,,40,106,8020026,,,,,,,2024-02-05,1,,,,,クロス,0
211,1290803004606,新規,0,2024-02-05,2024-02-05,合同会社Ｍ‐Ｓｐｅｃ,,合同会社,福岡県,北九州市八幡西区,鷹の巣２丁目８番５－４０１号,,40,109,8060047,,,,,,,2024-02-05,1,,,,,エムスペック,0
212,1300001013614,新規,0,2024-02-05,2024-02-05,株式会社ＹＯＵＬＩＩ,,株式会社,佐賀県,唐津市,西唐津１丁目６０１７番地１,,41,202,8470875,,,,,,,2024-02-05,1,,,,,,0
221,1320003004287,新規,0,2024-02-05,2024-02-05,合同会社Ｍ・Ｋ・Ｙ,,合同会社,大分県,日田市,大字三和２６５６番地４,,44,204,8770000,,,,,,,2024-02-05,1,,,,,エムケイワイ,0
228,1340001026257,新規,0,2024-02-05,2024-02-05,株式会社ｇｒａｐｈ,,株式会社,鹿児島県,鹿児島市,加治屋町４番６号サーパス加治屋町３０１号,,46,201,8920846,,,,,,,2024-02-05,1,,,,,グラフ,0
231,1350001018781,新規,0,2024-02-05,2024-02-05,３１０６キッチン株式会社,,株式会社,宮崎県,宮崎市,清水２丁目２番１０号３１０６Ｂｌｄｇ．,,45,201,8800021,,,,,,,2024-02-05,1,,,,,サンテルキッチン,0
232,1360001033160,新規,0,2024-02-05,2024-02-05,Ｓａｔｅｌｌｉｔｅ　Ｏｆｆｉｃｅ株式会社,,株式会社,沖縄県,島尻郡与那原町,字東浜８９番地の７４,,47,348,9011304,,,,,,,2024-02-05,1,,,,,サテライトオフィス,0
236,1380001034280,新規,0,2024-02-05,2024-02-05,株式会社ＮＯ　ＯＮＥ,,株式会社,福島県,郡山市,大槻町字下西田５９番地の５,,07,203,9630201,,,,,,,2024-02-05,1,,,,,ノーワン,0
243,1430001091003,新規,0,2024-02-05,2024-02-05,株式会社ＣＯＭＰＡＳＳ,,株式会社,北海道,札幌市西区,発寒十五条２丁目６番２７号,,01,107,0630835,,,,,,,2024-02-05,1,,,,,コンパス,0
244,1430001091028,新規,0,2024-02-05,2024-02-05,株式会社ＥＭＺＥＱ,,株式会社,北海道,札幌市中央区,南十四条西１丁目２番１４－１０１号,,01,101,0640914,,,,,,,2024-02-05,1,,,,,エムゼック,0
245,1470001020016,新規,0,2024-02-05,2024-02-05,株式会社ＳＵＫＩＮＯＫＡ,,株式会社,香川県,丸亀市,津森町７１６番地,,37,202,7630052,,,,,,,2024-02-05,1,,,,,スキノカ,0
247,1480003002085,新規,0,2024-02-05,2024-02-05,合同会社Ｒ．ｅＭ,,合同会社,徳島県,徳島市,国府町南岩延６９１番地の４,,36,201,7793120,,,,,,,2024-02-05,1,,,,,アールイーエム,0
253,1500005008672,新規,0,2024-02-05,2024-02-05,税理士法人山本一郎税理士事務所,,その他の設立登記法人,愛媛県,松山市,味酒町２丁目２番地２４,,38,201,7900814,,,,,,,2024-02-05,1,,,,,ヤマモトイチロウゼイリシジムショ,0
257,1700150123776,新規,0,2024-02-05,2024-02-05,Ｌ＆Ｙ　Ｆｕｒｎｉｔｕｒｅ　Ｉｎｃ,,外国会社等,,,,,,,,３６３６　ＰＲＩＮＣＥ　ＳＴ　ＡＰＴ　７Ｄ　ＦＬＵＳＨＩＮＧ　ＮＹ　１１３５４,,,,,,2024-02-05,1,,,,,エルアンドワイファーニチャーインク,0
258,1700150123784,新規,0,2024-02-05,2024-02-05,ＸＩＡＭＥＮ　３－ＣＩＲＣＬＥＳ　ＢＡＴＴＥＲＹ　ＣＯ．，ＬＴＤ,,外国会社等,,,,,,,,Ｎｏ．５１９　ＪｉｍｅｉＮｏｒｔｈＲｏａｄ　ＪｉｍｅｉＤｉｓｔｒｉｃｔ　Ｘｉａｍｅｎ,,,,,,2024-02-05,1,,,,,アモイスリーサークルズバッテリーカンパニーリミテッド,0
259,1700150123792,新規,0,2024-02-05,2024-02-05,ＪＩＢ－Ｇｅｒｍａｎｙ　Ｔｅｃｈｎｏｌｏｇｙ　ＧｍｂＨ,,外国会社等,,,,,,,,Ｂｅｒｌｉｎ　Ａｍ　Ｌａｒｇｅ　Ｒｏｈｒｐｆｕｈｌ　２５，１２３５５　Ｂｅｒｌｉｎ,,,,,,2024-02-05,1,,,,,ジブチジャーマニィテクノロジーゲーエムベーハー,0
260,1700150123801,新規,0,2024-02-05,2024-02-05,ＱＵＡＮＺＨＯＵ　ＰＥＩＬＩＮ　ＢＡＧＳ　ＣＯ，ＬＴＤ,,外国会社等,,,,,,,,ｆｕｊｉａｎｓｈｅｎｇｑｕａｎｚｈｏｕｓｈｉｆｅｎｇｚｅｑｕｂｅｉｆｅｎｇｊｉｅｄａｏｂｅｉｆｅｎｇｓｈｅｑｕｂｅｉｑｉｎｇｄｏｎｇｌｕ５５６ｈａｏ,,,,,,2024-02-05,1,,,,,チュエンジョウペイリンバオダイヨウシエンゴンスー,0
261,2010001241771,新規,0,2024-02-05,2024-02-05,ＬＩＮＮ株式会社,,株式会社,東京都,文京区,西片１丁目１５－１３メゾン青山２１１,,13,105,1130024,,,,,,,2024-02-05,1,,,,,リン,0
262,2010001241978,新規,0,2024-02-05,2024-02-05,ＳＦＫＴ００２株式会社,,株式会社,東京都,中央区,日本橋久松町１１番６号,,13,102,1030005,,,,,,,2024-02-05,1,,,,,エスエフケイティゼロゼロニ,0
263,2010001242051,新規,0,2024-02-05,2024-02-05,東京海上脱炭素事業設立準備株式会社,,株式会社,東京都,千代田区,大手町２丁目６番４号,,13,101,1000004,,,,,,,2024-02-05,1,,,,,トウキョウカイジョウダツタンソジギョウセツリツジュンビ,0
264,2010001242084,新規,0,2024-02-05,2024-02-05,株式会社ブルーエージェント,,株式会社,東京都,中央区,京橋１丁目１番５号セントラルビル２階,,13,102,1040031,,,,,,,2024-02-05,1,,,,,ブルーエージェント,0
269,2010003042846,新規,0,2024-02-05,2024-02-05,合同会社ギルド探偵事務所,,合同会社,東京都,中央区,銀座１丁目１２番４号Ｎ＆ＥＢＬＤ．６Ｆ,,13,102,1040061,,,,,,,2024-02-05,1,,,,,ギルドタンテイジムショ,0
277,2010401180157,新規,0,2024-02-05,2024-02-05,Ｈｉ　Ｈｅｙ　Ｈｏｏｏ株式会社,,株式会社,東京都,港区,北青山１丁目３番１号アールキューブ青山３階,,13,103,1070061,,,,,,,2024-02-05,1,,,,,ハイヘイホー,0
278,2010401180165,新規,0,2024-02-05,2024-02-05,株式会社スタートエイド,,株式会社,東京都,港区,麻布十番４丁目１番１号,,13,103,1060045,,,,,,,2024-02-05,1,,,,,スタートエイド,0
282,2010405022925,新規,0,2024-02-05,2024-02-05,一般社団法人城南ファンド,,その他の設立登記法人,東京都,港区,西新橋１丁目２番９号メンターキャピタル税理士法人内,,13,103,1050003,,,,,,,2024-02-05,1,,,,,ジョウナンファンド,0
285,2010701045514,新規,0,2024-02-05,2024-02-05,株式会社Ｍｉｒａｉ　Ｂｅｙｏｎｄ,,株式会社,東京都,品川区,西五反田３丁目１０番１８,,13,109,1410031,,,,,,,2024-02-05,1,,,,,ミライビヨンド,0
288,2010703007041,新規,0,2024-02-05,2024-02-05,ＭＡＮＯＨＩＶＡ　ＪＡＰＡＮ合同会社,,合同会社,東京都,品川区,東大井１丁目１４番２４－６１５号,,13,109,1400011,,,,,,,2024-02-05,1,,,,,マノヒヴァジャパン,0
291,2010901054629,新規,0,2024-02-05,2024-02-05,Ｏｍｉｉｓａｙ株式会社,,株式会社,東京都,世田谷区,粕谷３丁目２８－２１グリーンホームズ粕谷３０４,,13,112,1570063,,,,,,,2024-02-05,1,,,,,オミセ,0
292,2010901054653,新規,0,2024-02-05,2024-02-05,ＮｕｇｇｅｔｓＴｅｃｈｎｏｌｏｇｙ株式会社,,株式会社,東京都,世田谷区,太子堂２丁目２０番２号,,13,112,1540004,,,,,,,2024-02-05,1,,,,,ナゲッツテクノロジー,0
295,2010905004571,新規,0,2024-02-05,2024-02-05,Ｅｘｓｔａｎ行政書士法人,,その他の設立登記法人,東京都,世田谷区,梅丘１丁目２３番５号,,13,112,1540022,,,,,,,2024-02-05,1,,,,,イクスタン,0
304,2011001159797,新規,0,2024-02-05,2024-02-05,株式会社ＤＡＩＤＡＩ,,株式会社,東京都,目黒区,目黒２丁目１１番９号,,13,110,1530063,,,,,,,2024-02-05,1,,,,,ダイダイ,0
305,2011001159806,新規,0,2024-02-05,2024-02-05,スターアップ株式会社,,株式会社,東京都,渋谷区,渋谷２丁目１９－１５宮益坂ビルディング６０９,,13,113,1500002,,,,,,,2024-02-05,1,,,,,スターアップ,0
306,2011001159814,新規,0,2024-02-05,2024-02-05,株式会社たべるん,,株式会社,東京都,渋谷区,宇田川町１２番７号渋谷エメラルドビル７階,,13,113,1500042,,,,,,,2024-02-05,1,,,,,タベルン,0
307,2011001159847,新規,0,2024-02-05,2024-02-05,株式会社ＴＥＯ　Ｔｒａｄｉｎｇ,,株式会社,東京都,渋谷区,東３丁目２０番１－５０１号,,13,113,1500011,,,,,,,2024-02-05,1,,,,,ティーイーオートレーディング,0
311,2011003018423,新規,0,2024-02-05,2024-02-05,合同会社ミルフレ,,合同会社,東京都,渋谷区,笹塚１丁目２２－４Ｗ１ビル１階１Ｆ号室,,13,113,1510073,,,,,,,2024-02-05,1,,,,,ミルフレ,0
312,2011003018431,新規,0,2024-02-05,2024-02-05,合同会社ＣａｒｌｅｔｏｎＥｎｔｅｒｐｒｉｓｅ,,合同会社,東京都,目黒区,下目黒１丁目３－２０－８０１,,13,110,1530064,,,,,,,2024-02-05,1,,,,,カールトンエンタープライズ,0
316,2011101106063,新規,0,2024-02-05,2024-02-05,Ｅｍｐｉｒｅ　Ａｒｔ株式会社,,株式会社,東京都,新宿区,西新宿６丁目５番１号新宿アイランドタワー２階,,13,104,1600023,,,,,,,2024-02-05,1,,,,,エンパイアアート,0
317,2011101106088,新規,0,2024-02-05,2024-02-05,株式会社Ｓ．Ｋ,,株式会社,東京都,新宿区,新宿１丁目２４番１２号３階,,13,104,1600022,,,,,,,2024-02-05,1,,,,,エスケー,0
323,2011203004297,新規,0,2024-02-05,2024-02-05,合同会社高ワークサポート企画,,合同会社,東京都,中野区,野方２丁目３番２号ファミール矢島２０１,,13,114,1650027,,,,,,,2024-02-05,1,,,,,コウワークサポートキカク,0
324,2011403004262,新規,0,2024-02-05,2024-02-05,合同会社ＬＩＤ,,合同会社,東京都,板橋区,熊野町１４－２,,13,119,1730025,,,,,,,2024-02-05,1,,,,,エルアイディー,0
328,2011501030292,新規,0,2024-02-05,2024-02-05,株式会社Ｓ．ＳＴＹＬＥ,,株式会社,東京都,北区,王子本町２丁目４番６号石田方１０１号,,13,117,1140022,,,,,,,2024-02-05,1,,,,,エススタイル,0
332,2011703003732,新規,0,2024-02-05,2024-02-05,合同会社Ｍ’ｓＦＲＯＮＴＩＥＲ,,合同会社,東京都,江戸川区,鹿骨２丁目９番１２号サウサリートＩ、１０３,00133622,13,123,1330073,,,,,,,2024-02-05,1,,,,,エムズフロンティア,0
335,2011801043746,新規,0,2024-02-05,2024-02-05,株式会社ＣＯＣＯＬＯ,,株式会社,東京都,足立区,弘道１丁目３９番９号,,13,121,1200013,,,,,,,2024-02-05,1,,,,,ココロ,0
343,2012801022946,新規,0,2024-02-05,2024-02-05,株式会社良誠テクノ,,株式会社,東京都,東大和市,仲原３丁目５－２５,,13,220,2070016,,,,,,,2024-02-05,1,,,,,リョウセイテクノ,0
347,2013303006990,新規,0,2024-02-05,2024-02-05,合同会社中川商事,,合同会社,東京都,豊島区,池袋１丁目１５番７号,,13,116,1700014,,,,,,,2024-02-05,1,,,,,ナカガワショウジ,0
350,2020001155608,新規,0,2024-02-05,2024-02-05,株式会社ｍｙＡｓｈｉｓｕｔｏ,,株式会社,神奈川県,横浜市西区,浅間町１丁目４番３号ウィザードビル４０２,,14,103,2200072,,,,,,,2024-02-05,1,,,,,マイアシスト,0
351,2020001155673,新規,0,2024-02-05,2024-02-05,株式会社三塚電気工事,,株式会社,神奈川県,横浜市旭区,鶴ケ峰１丁目７８－６,,14,112,2410022,,,,,,,2024-02-05,1,,,,,ミツヅカデンキコウジ,0
357,2021001081372,新規,0,2024-02-05,2024-02-05,株式会社チャレンジド湘南,,株式会社,神奈川県,小田原市,曽比２１９３番地の６,,14,206,2500851,,,,,,,2024-02-05,1,,,,,チャレンジドショウナン,0
358,2021001081389,新規,0,2024-02-05,2024-02-05,ＨＩＰＥＸ株式会社,,株式会社,神奈川県,藤沢市,遠藤４２２９番地１,,14,205,2520816,,,,,,,2024-02-05,1,,,,,ハイペックス,0
362,2021003014124,新規,0,2024-02-05,2024-02-05,ヒカリ合同会社,,合同会社,神奈川県,大和市,中央１丁目６番９号,,14,213,2420021,,,,,,,2024-02-05,1,,,,,ヒカリ,0
374,2030001158477,新規,0,2024-02-05,2024-02-05,株式会社ハートネクサス,,株式会社,埼玉県,白岡市,小久喜７３６番地１フエンテ２０１号室,,11,246,3490217,,,,,,,2024-02-05,1,,,,,ハートネクサス,0
375,2030001158493,新規,0,2024-02-05,2024-02-05,株式会社栗原書店,,株式会社,埼玉県,川越市,大字小堤９１０番地３０（２０１号室）,,11,201,3500811,,,,,,,2024-02-05,1,,,,,クリハラショテン,0
376,2030001158527,新規,0,2024-02-05,2024-02-05,株式会社戸田土建,,株式会社,埼玉県,川越市,今成１丁目７番地３,,11,201,3501105,,,,,,,2024-02-05,1,,,,,トダドケン,0
382,2030003023563,新規,0,2024-02-05,2024-02-05,合同会社ＪＩＮ,,合同会社,埼玉県,さいたま市南区,内谷３丁目１７番６－４０７号,,11,108,3360034,,,,,,,2024-02-05,1,,,,,,0
385,2040001132010,新規,0,2024-02-05,2024-02-05,株式会社仁,,株式会社,千葉県,富津市,大堀２丁目２４番地２大堀ハイムＢ１０３,,12,226,2930001,,,,,,,2024-02-05,1,,,,,ジン,0
386,2040001132035,新規,0,2024-02-05,2024-02-05,株式会社さとう商会,,株式会社,千葉県,松戸市,松戸８７１番地の２,,12,207,2710092,,,,,,,2024-02-05,1,,,,,サトウショウカイ,0
387,2040001132051,新規,0,2024-02-05,2024-02-05,株式会社ＩＮＴＡＬＬ,,株式会社,千葉県,松戸市,常盤平５丁目１７番地の１５,,12,207,2702261,,,,,,,2024-02-05,1,,,,,イントール,0
388,2040001132084,新規,0,2024-02-05,2024-02-05,株式会社Ｗ．Ｏｎｅ　Ｈｅａｒｔ,,株式会社,千葉県,千葉市若葉区,小倉町８８２－２,,12,104,2640007,,,,,,,2024-02-05,1,,,,,ウィズワンハート,0
389,2040001132092,新規,0,2024-02-05,2024-02-05,株式会社こさえる工務店,,株式会社,千葉県,大網白里市,大網８１３番地６,,12,239,2993251,,,,,,,2024-02-05,1,,,,,コサエルコウムテン,0
393,2040003024263,新規,0,2024-02-05,2024-02-05,合同会社ＨＡＮＤ,,合同会社,千葉県,袖ケ浦市,奈良輪３３６,,12,229,2990263,,,,,,,2024-02-05,1,,,,,ハンド,0
394,2040003024288,新規,0,2024-02-05,2024-02-05,合同会社パシフィック・コンサルティング,,合同会社,千葉県,柏市,豊上町６番地の１,,12,217,2770858,,,,,,,2024-02-05,1,,,,,パシフィックコンサルティング,0
396,2050003008125,新規,0,2024-02-05,2024-02-05,合同会社さしま茶商事,,合同会社,茨城県,結城郡八千代町,大字水口１１３番地,,08,521,3003564,,,,,,,2024-02-05,1,,,,,サシマチャショウジ,0
399,2060001036787,新規,0,2024-02-05,2024-02-05,ＭＡＬＩＫ株式会社,,株式会社,栃木県,鹿沼市,酒野谷９６４番地１,,09,205,3220047,,,,,,,2024-02-05,1,,,,,マリク,0
400,2060001036795,新規,0,2024-02-05,2024-02-05,株式会社小松工建,,株式会社,栃木県,大田原市,上奥沢４１５番地１４,,09,210,3240018,,,,,,,2024-02-05,1,,,,,コマツコウケン,0
401,2070001041349,新規,0,2024-02-05,2024-02-05,株式会社友愛建設工業,,株式会社,群馬県,安中市,松井田町二軒在家８１５番地５,,10,211,3790223,,,,,,,2024-02-05,1,,,,,ユウアイケンセツコウギョウ,0
407,2100001037186,新規,0,2024-02-05,2024-02-05,八ヶ岳高原そば平出農園株式会社,,株式会社,長野県,諏訪郡富士見町,境３９４５番地１,,20,362,3990101,,,,,,,2024-02-05,1,,,,,ヤツガタケコウゲンソバヒライデノウエン,0
420,2120003025831,新規,0,2024-02-05,2024-02-05,瑞勝合同会社,,合同会社,大阪府,大阪市東住吉区,鷹合４丁目１３番２１号若潮ビル３０１号,,27,121,5460014,,,,,,,2024-02-05,1,,,,,ズイショウ,0
421,2120003025856,新規,0,2024-02-05,2024-02-05,合同会社Ｄ‐ｌｉｆｅ,,合同会社,大阪府,大阪市北区,天神橋２丁目北１－１４－４０１,,27,127,5300041,,,,,,,2024-02-05,1,,,,,ディーライフ,0
422,2120003025864,新規,0,2024-02-05,2024-02-05,ＡＤＤＲＥＳＳ合同会社,,合同会社,大阪府,大阪市西区,江戸堀２丁目１‐１江戸堀センタービル９階,,27,106,5500002,,,,,,,2024-02-05,1,,,,,アドレス,0
427,2120005024146,新規,0,2024-02-05,2024-02-05,医療法人東医会,,その他の設立登記法人,大阪府,大阪市西区,靱本町１丁目４番１７号ＡＣＮ信濃橋ビル１階,,27,106,5500004,,,,,,,2024-02-05,1,,,,,トウイカイ,0
434,2130001076289,新規,0,2024-02-05,2024-02-05,株式会社Ｌｉｂｒｅ,,株式会社,京都府,京都市西京区,桂木ノ下町１番地１９,,26,111,6158072,,,,,,,2024-02-05,1,,,,,リブレ,0
436,2130003009288,新規,0,2024-02-05,2024-02-05,ＦＲＥＡＭ合同会社,,合同会社,京都府,京都市下京区,西七条名倉町２６番地３,,26,106,6008887,,,,,,,2024-02-05,1,,,,,フリーム,0
438,2140001133196,新規,0,2024-02-05,2024-02-05,株式会社エースクリエイト,,株式会社,兵庫県,神戸市中央区,磯上通８丁目１番２９号カサベラビルＣ＆Ｍ４０３号室,,28,110,6510086,,,,,,,2024-02-05,1,,,,,エースクリエイト,0
439,2140001133205,新規,0,2024-02-05,2024-02-05,株式会社Ｆａｉｒ　Ｌｉｎｅ　Ｊａｐａｎ,,株式会社,兵庫県,明石市,大久保町高丘７丁目６３番地の２,,28,203,6740057,,,,,,,2024-02-05,1,,,,,フェアラインジャパン,0
440,2140001133221,新規,0,2024-02-05,2024-02-05,株式会社ＴＯＯＴＨ　ＴＯＯＴＨ‐３,,株式会社,兵庫県,神戸市中央区,波止場町２番８号,,28,110,6500042,,,,,,,2024-02-05,1,,,,,,0
441,2140001133238,新規,0,2024-02-05,2024-02-05,株式会社ハピネスアセット,,株式会社,兵庫県,明石市,太寺１丁目６番２５－１号,,28,203,6730845,,,,,,,2024-02-05,1,,,,,ハピネスアセット,0
457,2180001160047,新規,0,2024-02-05,2024-02-05,旭グループ株式会社,,株式会社,愛知県,北名古屋市,九之坪北浦７４番地１,,23,234,4810041,,,,,,,2024-02-05,1,,,,,アサヒグループ,0
459,2180003026312,新規,0,2024-02-05,2024-02-05,ユキ物産合同会社,,合同会社,愛知県,名古屋市中村区,名駅南１丁目１１番１２号Ｋｉｎｊｉｒｏ名駅Ｍｉｎａｍｉビル１階,,23,105,4500003,,,,,,,2024-02-05,1,,,,,ユキブッサン,0
460,2180301038298,新規,0,2024-02-05,2024-02-05,アセットプレイス株式会社,,株式会社,愛知県,岡崎市,矢作町字西林寺９３－５グラート岡崎８０１,,23,202,4440943,,,,,,,2024-02-05,1,,,,,アセットプレイス,0
462,2190001031081,新規,0,2024-02-05,2024-02-05,株式会社ＨＩＭＥＮＯ,,株式会社,三重県,四日市市,あがたが丘３丁目２４番地３,,24,202,5121202,,,,,,,2024-02-05,1,,,,,ヒメノ,0
463,2190003004572,新規,0,2024-02-05,2024-02-05,合同会社ＴａＮａＴ,,合同会社,三重県,多気郡明和町,大字竹川７６１番地,,24,442,5150325,,,,,,,2024-02-05,1,,,,,タナット,0
467,2200003006220,新規,0,2024-02-05,2024-02-05,合同会社コネクトナイト,,合同会社,岐阜県,岐阜市,領下１５０５番地,,21,201,5008241,,,,,,,2024-02-05,1,,,,,コネクトナイト,0
475,2240001062749,新規,0,2024-02-05,2024-02-05,ＨＳＫ株式会社,,株式会社,広島県,広島市安佐南区,東野２丁目１０番４１－４号,,34,105,7310111,,,,,,,2024-02-05,1,,,,,エイチエスケイ,0
477,2250001020508,新規,0,2024-02-05,2024-02-05,株式会社永松工事,,株式会社,山口県,下松市,大字切山５４７－１,,35,207,7440042,,,,,,,2024-02-05,1,,,,,ナガマツコウジ,0
483,2290001104579,新規,0,2024-02-05,2024-02-05,株式会社ＹＧＫ,,株式会社,福岡県,柳川市,三橋町今古賀２５０番地１,,40,207,8320823,,,,,,,2024-02-05,1,,,,,ワイジーケイ,0
484,2290001104604,新規,0,2024-02-05,2024-02-05,株式会社人材コネクト,,株式会社,福岡県,福岡市東区,多の津４丁目５番１２号,,40,131,8130034,,,,,,,2024-02-05,1,,,,,ジンザイコネクト,0
489,2290003014941,新規,0,2024-02-05,2024-02-05,合同会社ＦＩＴ,,合同会社,福岡県,福岡市東区,社領１丁目５番１５号,,40,131,8120068,,,,,,,2024-02-05,1,,,,,フィット,0
491,2290801030272,新規,0,2024-02-05,2024-02-05,株式会社Ｋ‐ＮＥＸＵＳ,,株式会社,福岡県,北九州市門司区,新門司北２丁目４番１号,,40,101,8000113,,,,,,,2024-02-05,1,,,,,ケーネクサス,0
493,2300001013613,新規,0,2024-02-05,2024-02-05,株式会社スマイライフ,,株式会社,佐賀県,三養基郡基山町,大字小倉６２３番地１５,,41,341,8410201,,,,,,,2024-02-05,1,,,,,スマイライフ,0
499,2310003004717,新規,0,2024-02-05,2024-02-05,合同会社Ｈ２,,合同会社,長崎県,南島原市,有家町山川３７８番地１,,42,214,8592202,,,,,,,2024-02-05,1,,,,,エイチツー,0
501,2320003004286,新規,0,2024-02-05,2024-02-05,合同会社大黒屋,,合同会社,大分県,別府市,大字鉄輪７２４番地,,44,202,8740000,,,,,,,2024-02-05,1,,,,,ダイコクヤ,0
503,2330005010744,新規,0,2024-02-05,2024-02-05,一般社団法人ＳＩＲＡＳＵ,,その他の設立登記法人,熊本県,熊本市中央区,下通２丁目１０番１７号,,43,101,8600807,,,,,,,2024-02-05,1,,,,,シラス,0
511,2360001033151,新規,0,2024-02-05,2024-02-05,デジハナ株式会社,,株式会社,沖縄県,那覇市,前島３丁目２５番２号泊ポートビル１Ｆ,,47,201,9000016,,,,,,,2024-02-05,1,,,,,デジハナ,0
515,2370001050889,新規,0,2024-02-05,2024-02-05,ＬａＬａ株式会社,,株式会社,宮城県,宮城郡七ヶ浜町,菖蒲田浜字後田１６９番地,,04,404,9850811,,,,,,,2024-02-05,1,,,,,ララ,0
516,2370001050906,新規,0,2024-02-05,2024-02-05,株式会社敬相運送,,株式会社,宮城県,多賀城市,笠神１丁目１９番１１号,,04,209,9850831,,,,,,,2024-02-05,1,,,,,ケイアイウンソウ,0
520,2380001034288,新規,0,2024-02-05,2024-02-05,株式会社ｇｒｏｗｔｈ,,株式会社,福島県,郡山市,並木４丁目５番９号,,07,203,9638026,,,,,,,2024-02-05,1,,,,,グロース,0
530,2460003000981,新規,0,2024-02-05,2024-02-05,合同会社タカジン,,合同会社,北海道,釧路市,愛国東２丁目２２番２号,,01,206,0850058,,,,,,,2024-02-05,1,,,,,タカジン,0
535,2470003002572,新規,0,2024-02-05,2024-02-05,合同会社多島美,,合同会社,香川県,高松市,磨屋町８番地１,,37,201,7600026,,,,,,,2024-02-05,1,,,,,タトウビ,0
539,2500003003179,新規,0,2024-02-05,2024-02-05,合同会社顕徳,,合同会社,愛媛県,新居浜市,横水町１１番８号,,38,205,7920033,,,,,,,2024-02-05,1,,,,,ケントク,0
542,2700150123775,新規,0,2024-02-05,2024-02-05,ＧａｏＢｅｉＤｉａｎＳｈｉＱｉｅＦｕＳｈａｎｇＭａｏＹｏｕＸｉａｎＧｏｎｇＳｉ,,外国会社等,,,,,,,,ＧａｏＢｅｉＤｉａｎＳｈｉＨｅＰｉｎｇＬｕ１２Ｈａｏ１５Ｄｏｎｇ１ＤａｎＹｕａｎ５０２ＳｈｉＢａｏＤｉｎｇＳｈｉ　ＨｅＢｅｉＳｈｅｎｇ,,,,,,2024-02-05,1,,,,,ガオベイディエンシーチエフーシャンマオヨウシエンゴンスー,0
543,2700150123783,新規,0,2024-02-05,2024-02-05,ｓｈｅｎｚｈｅｎｓｈｉｙｏｕｄｕｏｄｕｏｄｉａｎｚｉｓｈａｎｇｗｕ　ｙｏｕｘｉａｎｇｏｎｇｓｉ,,外国会社等,,,,,,,,４００２ｈａｏ　ｈｏｎｇｌｏｎｇｓｈｉｊｉｇｕａｎｇｃｈａｎｇＣｚｕｏ２４Ｂ　ｌｕｏｈｕｑｕ　ｄｏｎｇｍｅｎｊｉｅｄａｏ　ｓｈｅｎｎａｎｌｕ　ｓｈｅｎｚｈｅｎｓｈｉ,,,,,,2024-02-05,1,,,,,シンセンシユドオドオデンシシャンウユウゲンコウシ,0
544,2700150123791,新規,0,2024-02-05,2024-02-05,ｚｈｏｎｇｓｈａｎｘｉｎｍｉｎｇｄｉａｎｚｉｓｈａｎｇｗｕ　ｙｏｕｘｉａｎｇｏｎｇｓｉ,,外国会社等,,,,,,,,ｇｕａｎｇｄｏｎｇｓｈｅｎｇ　ｚｈｏｎｇｓｈａｎｓｈｉ　ｄｏｎｇｑｕｂｏａｉｑｉｌｕ１２ｈａｏｐｉｎｆｅｎｇｈｕａｙｕａｎ４ｑｉ２７ｚｈｕａｎｇ４１９ｆａｎｇｚｈｉｙｉ（ｚｈｕｓｕｏｓｈｅｎｂａｏ）,,,,,,2024-02-05,1,,,,,チュウザンシンミンデンシショウムユウゲンコウシ,0
545,2700150123800,新規,0,2024-02-05,2024-02-05,ｓｈｅｎｚｈｅｎｓｈｉｗｅｉｌａｉｌｖｄｉａｎｎｅｎｇｙｕａｎｙｏｕｘｉａｎｇｏｎｇｓｉ,,外国会社等,,,,,,,,ｓｈｅｎｚｈｅｎｓｈｉｗｅｉｌａｉｌｖｄｉａｎｎｅｎｇｙｕａｎｙｏｕｘｉａｎｇｏｎｇｓｉｓｈｅｎｚｈｅｎｓｈｉｆｕｔｉａｎｑｕｓｈａｔｏｕｊｉｅｄａｏｔｉａｎａｎｓｈｅｑｕｔａｉｒａｎ５ｌｕ１２ｈａｏｔｉａｎａｎｓｈｕｍａｃｈｅｎｇｔｉａｎｘｉａｎｇｄａｓｈａ９Ｄ０９,,,,,,2024-02-05,1,,,,,シェンジェンシーウェイライリーディエンノンユエンヨウシエンゴンスー,0
547,3010003042820,新規,0,2024-02-05,2024-02-05,合同会社ＲＥＳＯＮＡＮＴ　ＰＨＯＴＯＮＩＣＳ,,合同会社,東京都,中央区,東日本橋２丁目２８番４号日本橋ＣＥＴビル２階,,13,102,1030004,,,,,,,2024-02-05,1,,,,,レソナントフォトニクス,0
548,3010003042861,新規,0,2024-02-05,2024-02-05,合同会社ＳＥＩＳＡＫＵ,,合同会社,東京都,中央区,月島１丁目２２－１－２３０９,,13,102,1040052,,,,,,,2024-02-05,1,,,,,セイサク,0
554,3010401180098,新規,0,2024-02-05,2024-02-05,株式会社ｈａｎａｂｕｓａ,,株式会社,東京都,港区,南青山２丁目２番１５号,,13,103,1070062,,,,,,,2024-02-05,1,,,,,ハナブサ,0
555,3010401180189,新規,0,2024-02-05,2024-02-05,株式会社ｅＣｌｅａｒ２,,株式会社,東京都,港区,南青山３丁目１１番１３号,,13,103,1070062,,,,,,,2024-02-05,1,,,,,イークリアツー,0
556,3010403031877,新規,0,2024-02-05,2024-02-05,合同会社ＪＰＮＥＷＳ通信社,,合同会社,東京都,港区,北青山１丁目３－１－３Ｆ,,13,103,1070061,,,,,,,2024-02-05,1,,,,,ジェーピーニュースツウシンシャ,0
563,3010701045513,新規,0,2024-02-05,2024-02-05,Ｊｉｇｓｏｍ株式会社,,株式会社,東京都,品川区,豊町５丁目８番４号,,13,109,1420042,,,,,,,2024-02-05,1,,,,,ジグサム,0
564,3010801034762,新規,0,2024-02-05,2024-02-05,モッツエステート株式会社,,株式会社,東京都,大田区,田園調布本町９番２号ＨａｕｓａｍＰａｒｋ２０２,,13,111,1450072,,,,,,,2024-02-05,1,,,,,モッツエステート,0
566,3010901054652,新規,0,2024-02-05,2024-02-05,株式会社ＧＬＯＶＥ,,株式会社,東京都,世田谷区,北烏山８丁目４番１８－７０１号,,13,112,1570061,,,,,,,2024-02-05,1,,,,,グローヴ,0
568,3010903008788,新規,0,2024-02-05,2024-02-05,合同会社ヒューマンスケール,,合同会社,東京都,世田谷区,経堂１丁目２３番９号,,13,112,1560052,,,,,,,2024-02-05,1,,,,,ヒューマンスケール,0
578,3011001159796,新規,0,2024-02-05,2024-02-05,株式会社ｓｕｂａｋａｓｈｉ,,株式会社,東京都,渋谷区,道玄坂１丁目１０番８号渋谷道玄坂東急ビル２Ｆ－Ｃ,,13,113,1500043,,,,,,,2024-02-05,1,,,,,スバカシ,0
579,3011001159805,新規,0,2024-02-05,2024-02-05,株式会社Ｔｈａｎｋｓ,,株式会社,東京都,渋谷区,恵比寿２丁目１７番１０号岡本ＬＫビル３階,,13,113,1500013,,,,,,,2024-02-05,1,,,,,サンクス,0
580,3011001159813,新規,0,2024-02-05,2024-02-05,株式会社ＲｅＢｅａｕｔ,,株式会社,東京都,渋谷区,渋谷１丁目１番３号アーミーホール３Ｆ,,13,113,1500002,,,,,,,2024-02-05,1,,,,,リビュート,0
585,3011003018439,新規,0,2024-02-05,2024-02-05,ｔｈｒｅｓｈｏｌｄ合同会社,,合同会社,東京都,渋谷区,道玄坂１丁目１０番８号渋谷道玄坂東急ビル２Ｆ－Ｃ,,13,113,1500043,,,,,,,2024-02-05,1,,,,,スレッショルド,0
590,3011101106013,新規,0,2024-02-05,2024-02-05,Ｎｅｏｎ　Ｃｈａｒｔｓ株式会社,,株式会社,東京都,新宿区,富久町１２－１ローレルコート新宿タワー４０３,,13,104,1620067,,,,,,,2024-02-05,1,,,,,ネオンチャート,0
591,3011101106062,新規,0,2024-02-05,2024-02-05,株式会社ＨＡＳＩＲＡ,,株式会社,東京都,新宿区,大久保１丁目３番２２－１０４号,,13,104,1690072,,,,,,,2024-02-05,1,,,,,ハシラ,0
592,3011101106070,新規,0,2024-02-05,2024-02-05,テルミヌスグループ株式会社,,株式会社,東京都,新宿区,西新宿３丁目３番１３号西新宿水間ビル６階,,13,104,1600023,,,,,,,2024-02-05,1,,,,,テルミヌスグループ,0
597,3011601027502,新規,0,2024-02-05,2024-02-05,青雲株式会社,,株式会社,東京都,練馬区,田柄２丁目２２番２１号,,13,120,1790073,,,,,,,2024-02-05,1,,,,,セイウン,0
598,3011603004235,新規,0,2024-02-05,2024-02-05,合同会社Ｗｉｎ・Ｗｉｎ,,合同会社,東京都,練馬区,高松４丁目１６－１オークレイコート高松１－１０１,,13,120,1790075,,,,,,,2024-02-05,1,,,,,ウィンウィン,0
599,3011801043737,新規,0,2024-02-05,2024-02-05,株式会社光輝,,株式会社,東京都,葛飾区,お花茶屋１丁目１９番５号スイートヒルズお花茶屋１２階,,13,122,1240003,,,,,,,2024-02-05,1,,,,,コウキ,0
600,3012301013767,新規,0,2024-02-05,2024-02-05,株式会社ＭＹ　ＳＴＹＬＥ　ＤＥＳＩＧＮ,,株式会社,東京都,町田市,森野５丁目３番２５号,,13,209,1940022,,,,,,,2024-02-05,1,,,,,マイスタイルデザイン,0
602,3012403006396,新規,0,2024-02-05,2024-02-05,合同会社ブリック,,合同会社,東京都,府中市,宮西町５丁目６番地の２アローランドマンション２０３,,13,206,1830022,,,,,,,2024-02-05,1,,,,,ブリック,0
603,3012701018069,新規,0,2024-02-05,2024-02-05,株式会社Ｒｅｆｓｕｐｐｏｒｔ設計室,,株式会社,東京都,西東京市,北原町３丁目３番５０－３０６号,,13,229,1880003,,,,,,,2024-02-05,1,,,,,レフサポートセッケイシツ,0
620,3021001081388,新規,0,2024-02-05,2024-02-05,株式会社アーキンド,,株式会社,神奈川県,中郡大磯町,東町１丁目１３番３１号,,14,341,2550002,,,,,,,2024-02-05,1,,,,,アーキンド,0
622,3021005013016,新規,0,2024-02-05,2024-02-05,一般社団法人海老名市障がい者サポートセンター,,その他の設立登記法人,神奈川県,海老名市,勝瀬１７５番地の１海老名市役所内,,14,215,2430404,,,,,,,2024-02-05,1,,,,,エビナシショウガイシャサポートセンター,0
624,3030001158468,新規,0,2024-02-05,2024-02-05,株式会社チョコレートコスモス,,株式会社,埼玉県,所沢市,寿町１９番２号,,11,208,3591122,,,,,,,2024-02-05,1,,,,,チョコレートコスモス,0
625,3030001158476,新規,0,2024-02-05,2024-02-05,株式会社ケイキッズ,,株式会社,埼玉県,鶴ヶ島市,脚折町３丁目１番３２号クリスタルマンション１０１,,11,241,3502211,,,,,,,2024-02-05,1,,,,,ケイキッズ,0
626,3030001158492,新規,0,2024-02-05,2024-02-05,株式会社ＹＫペストコントロール,,株式会社,埼玉県,春日部市,上大増新田１５９番地１,,11,214,3440037,,,,,,,2024-02-05,1,,,,,ワイケーペストコントロール,0
629,3030003023546,新規,0,2024-02-05,2024-02-05,合同会社Ｐ＆Ｅケア,,合同会社,埼玉県,東松山市,大字大谷３８８２－１,,11,212,3550008,,,,,,,2024-02-05,1,,,,,ピーアンドイーケア,0
630,3030003023554,新規,0,2024-02-05,2024-02-05,合同会社Ｃｈａｍｏｄａ　Ｅｎｔｅｒｐｒｉｓｅｓ,,合同会社,埼玉県,新座市,新堀２丁目１６番２７号清瀬ロード（中山寮）２０３号室,,11,230,3520032,,,,,,,2024-02-05,1,,,,,チャモダエンタープライゼス,0
631,3030003023562,新規,0,2024-02-05,2024-02-05,ｉｔｘ　ＧＲＯＵＰ合同会社,,合同会社,埼玉県,坂戸市,伊豆の山町２１番地４７ＫＩＶオフィス伊豆の山１号棟Ｂ号室,,11,239,3500275,,,,,,,2024-02-05,1,,,,,アイティエックスグループ,0
641,3040001132018,新規,0,2024-02-05,2024-02-05,＿天體株式会社,00133624,株式会社,千葉県,市川市,南八幡４丁目３番７号グリーンターフ南八幡３番館３０８号,,12,203,2720023,,,,,,,2024-02-05,1,,,,,リュウテンタイ,0
642,3040001132042,新規,0,2024-02-05,2024-02-05,ＭｏｏｎＷｏｏｄ新フィルム株式会社,,株式会社,千葉県,松戸市,栗山２８４番地の１７,,12,207,2710097,,,,,,,2024-02-05,1,,,,,ムーンウッドシンフィルム,0
643,3040003024279,新規,0,2024-02-05,2024-02-05,合同会社トゥビィ,,合同会社,千葉県,船橋市,本中山３丁目１３番１４号,,12,204,2730035,,,,,,,2024-02-05,1,,,,,トゥビィ,0
644,3050001054228,新規,0,2024-02-05,2024-02-05,株式会社ともえ,,株式会社,茨城県,常陸大宮市,栄町３１３７番地の１０,,08,225,3192264,,,,,,,2024-02-05,1,,,,,トモエ,0
645,3060001036786,新規,0,2024-02-05,2024-02-05,龍興商事株式会社,,株式会社,栃木県,栃木市,藤岡町藤岡１９７３番地３,,09,203,3231104,,,,,,,2024-02-05,1,,,,,リュウコウショウジ,0
646,3060001036803,新規,0,2024-02-05,2024-02-05,Ｇｒｏｏｖｙ　Ｌｉｎｅ株式会社,,株式会社,栃木県,栃木市,大宮町１５９３番地１６,,09,203,3280011,,,,,,,2024-02-05,1,,,,,グルービーライン,0
648,3070001041356,新規,0,2024-02-05,2024-02-05,株式会社東京マツシマ群馬,,株式会社,群馬県,高崎市,倉賀野町２２０７番地４,,10,202,3701201,,,,,,,2024-02-05,1,,,,,トウキョウマツシマグンマ,0
649,3080001026109,新規,0,2024-02-05,2024-02-05,株式会社ＫＡＺＵＫＯ,,株式会社,静岡県,焼津市,上小杉８８７番地の７１,,22,212,4210201,,,,,,,2024-02-05,1,,,,,カズコ,0
650,3080001026117,新規,0,2024-02-05,2024-02-05,株式会社Ｍ‐ｗｏｒｋｓ,,株式会社,静岡県,静岡市葵区,西千代田町８番７号‐３,,22,101,4200847,,,,,,,2024-02-05,1,,,,,エムワークス,0
657,3080403004950,新規,0,2024-02-05,2024-02-05,ＬＳＰ合同会社,,合同会社,静岡県,掛川市,領家５０１番地の４,,22,213,4360038,,,,,,,2024-02-05,1,,,,,エルエスピー,0
660,3090003002486,新規,0,2024-02-05,2024-02-05,４Ｋ合同会社,,合同会社,山梨県,西八代郡市川三郷町,市川大門６１６番地,,19,346,4093601,,,,,,,2024-02-05,1,,,,,ヨンケー,0
661,3100003007384,新規,0,2024-02-05,2024-02-05,合同会社ＳＥＲＶＩＣＥ　ＪＵＫＵ,,合同会社,長野県,松本市,大字里山辺１５５８番地２,,20,202,3900221,,,,,,,2024-02-05,1,,,,,サービスジュク,0
677,3120001261931,新規,0,2024-02-05,2024-02-05,雲株式会社,,株式会社,大阪府,大阪市東成区,深江北３丁目６番３０－５０２号,,27,115,5370001,,,,,,,2024-02-05,1,,,,,クモ,0
678,3120001261964,新規,0,2024-02-05,2024-02-05,旭杉株式会社,,株式会社,大阪府,大阪市東成区,深江南２丁目８番８号メゾンホワイティ５０３号室,,27,115,5370002,,,,,,,2024-02-05,1,,,,,キョクスギ,0
679,3120001261972,新規,0,2024-02-05,2024-02-05,清隆株式会社,,株式会社,大阪府,大阪市福島区,吉野２丁目８番１８号福島エンビィマンション２０３号室,,27,103,5530006,,,,,,,2024-02-05,1,,,,,セイリュウ,0
680,3120001262038,新規,0,2024-02-05,2024-02-05,ベストプランニング株式会社,,株式会社,大阪府,大阪市中央区,南本町３丁目３番９号,,27,128,5410054,,,,,,,2024-02-05,1,,,,,ベストプランニング,0
686,3120101068995,新規,0,2024-02-05,2024-02-05,にこな建設株式会社,,株式会社,大阪府,堺市西区,草部９８６番地５９,,27,144,5938312,,,,,,,2024-02-05,1,,,,,ニコナケンセツ,0
698,3120901048718,新規,0,2024-02-05,2024-02-05,株式会社ＣＨＯＪＵ,,株式会社,大阪府,吹田市,青葉丘南２番１－３０１号,,27,205,5650802,,,,,,,2024-02-05,1,,,,,チョウジュ,0
701,3120903005023,新規,0,2024-02-05,2024-02-05,合同会社河の雫,,合同会社,大阪府,豊中市,服部南町４丁目４番７号,,27,203,5610853,,,,,,,2024-02-05,1,,,,,カワノシズク,0
707,3130001076271,新規,0,2024-02-05,2024-02-05,株式会社ＧＲＡＳＰ　ＰＩＥＤ,,株式会社,京都府,京都市伏見区,深草大亀谷大山町４３－１,,26,109,6120847,,,,,,,2024-02-05,1,,,,,グラスプパイド,0
708,3130001076296,新規,0,2024-02-05,2024-02-05,株式会社インテリア一志,,株式会社,京都府,京都市山科区,西野山中臣町１９０番地２,,26,110,6078305,,,,,,,2024-02-05,1,,,,,インテリアイツシ,0
711,3130003009279,新規,0,2024-02-05,2024-02-05,ＣＳＲ合同会社,,合同会社,京都府,京都市東山区,新門前通大和大路東入西之町２０３番地,,26,105,6050088,,,,,,,2024-02-05,1,,,,,シーエスアール,0
717,3140005026940,新規,0,2024-02-05,2024-02-05,一般社団法人いきいきライフ協会苦楽園,,その他の設立登記法人,兵庫県,西宮市,南越木岩町５番１９－４０１号,,28,204,6620075,,,,,,,2024-02-05,1,,,,,イキイキライフキョウカイクラクエン,0
718,3150001027058,新規,0,2024-02-05,2024-02-05,株式会社ルミエどうぶつ病院,,株式会社,奈良県,北葛城郡河合町,星和台２丁目１番地２,,29,427,6360081,,,,,,,2024-02-05,1,,,,,ルミエドウブツビョウイン,0
719,3160001025671,新規,0,2024-02-05,2024-02-05,京都橘株式会社,,株式会社,滋賀県,大津市,大将軍２丁目８番８号,,25,201,5202145,,,,,,,2024-02-05,1,,,,,キョウトタチバナ,0
720,3160003003106,新規,0,2024-02-05,2024-02-05,合同会社ＰＥＡＫ　ＵＮＩＯＮ,,合同会社,滋賀県,愛知郡愛荘町,中宿１９２番地３,,25,425,5291314,,,,,,,2024-02-05,1,,,,,ピークユニオン,0
727,3180001160013,新規,0,2024-02-05,2024-02-05,株式会社ＡＱＵＡ,,株式会社,愛知県,名古屋市北区,楠味鋺４丁目１６６番地１,,23,103,4620014,,,,,,,2024-02-05,1,,,,,アクア,0
728,3180001160021,新規,0,2024-02-05,2024-02-05,株式会社Ｇｅｔ　Ｄｏｗｎ,,株式会社,愛知県,名古屋市中区,上前津１丁目９番７号ラクラーレ上前津２０２号,,23,106,4600013,,,,,,,2024-02-05,1,,,,,ゲットダウン,0
729,3180001160070,新規,0,2024-02-05,2024-02-05,ナゾックス株式会社,,株式会社,愛知県,名古屋市中区,新栄２丁目１－９雲竜フレックスビル西館１８０２,,23,106,4600007,,,,,,,2024-02-05,1,,,,,ナゾックス,0
730,3180003026311,新規,0,2024-02-05,2024-02-05,合同会社フットエイドラボ,,合同会社,愛知県,名古屋市中村区,西米野町２丁目５９番地,,23,105,4530812,,,,,,,2024-02-05,1,,,,,フットエイドラボ,0
739,3200001042126,新規,0,2024-02-05,2024-02-05,株式会社ＧＬＯＷＩＮＧ,,株式会社,岐阜県,多治見市,脇之島町７丁目２１番地の１４,,21,204,5070826,,,,,,,2024-02-05,1,,,,,グローウィング,0
760,3240001062748,新規,0,2024-02-05,2024-02-05,株式会社ｍａｐ,,株式会社,広島県,東広島市,西条昭和町４番３号,,34,212,7390014,,,,,,,2024-02-05,1,,,,,マップ,0
764,3250001020507,新規,0,2024-02-05,2024-02-05,株式会社井上組,,株式会社,山口県,周南市,野村２丁目９番５３号,,35,215,7460022,,,,,,,2024-02-05,1,,,,,イノウエグミ,0
766,3260001038738,新規,0,2024-02-05,2024-02-05,株式会社ＦＷ,,株式会社,岡山県,岡山市北区,久米２２２－７ガウディビル３Ｆ,,33,101,7010144,,,,,,,2024-02-05,1,,,,,フォワード,0
771,3260003004564,新規,0,2024-02-05,2024-02-05,合同会社ＨＹＣＯ,,合同会社,岡山県,倉敷市,船穂町船穂３９－１２,,33,202,7100261,,,,,,,2024-02-05,1,,,,,エイチワイカンパニー,0
784,3290001104578,新規,0,2024-02-05,2024-02-05,Ｍ．Ｋ．Ｔ株式会社,,株式会社,福岡県,福岡市東区,多の津５丁目４８－１７ウェステリアハーモニー６０４,,40,131,8130034,,,,,,,2024-02-05,1,,,,,エムケイティ,0
785,3290001104611,新規,0,2024-02-05,2024-02-05,株式会社ＨＡＧＩＦＡＲＭ,,株式会社,福岡県,福岡市博多区,吉塚４丁目３番２０号,,40,132,8120041,,,,,,,2024-02-05,1,,,,,ハギファーム,0
786,3290003014924,新規,0,2024-02-05,2024-02-05,合同会社ＴＫＳ企画システム,,合同会社,福岡県,福岡市城南区,別府１丁目１２番３号,,40,136,8140104,,,,,,,2024-02-05,1,,,,,ティケィエスキカクシステム,0
789,3290801030271,新規,0,2024-02-05,2024-02-05,株式会社Ｅｓｔ　Ｒｅｂａｎｋ,,株式会社,福岡県,北九州市八幡西区,相生町１４番１５号１Ｆ,,40,109,8060044,,,,,,,2024-02-05,1,,,,,エストリバンク,0
794,3330001031727,新規,0,2024-02-05,2024-02-05,株式会社ハララ,,株式会社,熊本県,熊本市中央区,安政町４－１４,,43,101,8600801,,,,,,,2024-02-05,1,,,,,ハララ,0
798,3360001033159,新規,0,2024-02-05,2024-02-05,株式会社ゆいそう設備,,株式会社,沖縄県,那覇市,宇栄原２丁目２０番２４号大城アパート２Ｆ,,47,201,9010153,,,,,,,2024-02-05,1,,,,,ユイソウセツビ,0
799,3360003013679,新規,0,2024-02-05,2024-02-05,合同会社紫寿,,合同会社,沖縄県,南城市,佐敷字屋比久２５番地,,47,215,9011406,,,,,,,2024-02-05,1,,,,,シズ,0
801,3370001050905,新規,0,2024-02-05,2024-02-05,株式会社ＬＩＭ,,株式会社,宮城県,仙台市青葉区,中山台２丁目６０－６ＭＩＰビル２Ｆ,,04,101,9893202,,,,,,,2024-02-05,1,,,,,リム,0
802,3370003006475,新規,0,2024-02-05,2024-02-05,合同会社えん,,合同会社,宮城県,加美郡加美町,字南寺宿５９番地１,,04,445,9814332,,,,,,,2024-02-05,1,,,,,エン,0
809,3380005012792,新規,0,2024-02-05,2024-02-05,一般社団法人あんどたいよう．,,その他の設立登記法人,福島県,いわき市,永崎字川畑９５番地の２,,07,204,9700315,,,,,,,2024-02-05,1,,,,,アンドタイヨウ,0
815,3400005008391,新規,0,2024-02-05,2024-02-05,医療法人千花,,その他の設立登記法人,岩手県,一関市,桜木町３番１９号,,03,209,0210891,,,,,,,2024-02-05,1,,,,,センカ,0
818,3410001013725,新規,0,2024-02-05,2024-02-05,ＫＣリフォーム株式会社,,株式会社,秋田県,秋田市,高陽青柳町９－３,,05,201,0100966,,,,,,,2024-02-05,1,,,,,ケーシーリフォーム,0
827,3470001020022,新規,0,2024-02-05,2024-02-05,株式会社サイシー,,株式会社,香川県,高松市,元山町２４８番地１エスポアドゥ１０４号室,,37,201,7610311,,,,,,,2024-02-05,1,,,,,サイシー,0
829,3470005006546,新規,0,2024-02-05,2024-02-05,一般社団法人瀬戸内魚食推進協会,,その他の設立登記法人,香川県,さぬき市,津田町津田１４０２番地２３,,37,206,7692401,,,,,,,2024-02-05,1,,,,,セトウチギョショクスイシンキョウカイ,0
836,3700150123774,新規,0,2024-02-05,2024-02-05,ＳＨＥＮ　ＺＨＥＮ　ＳＨＩ　ＹＵＡＮ　ＪＩ　ＪＩＡ　ＫＥ　ＪＩ　ＹＯＵ　ＸＩＡＮ　ＧＯＮＧ　ＳＩ,,外国会社等,,,,,,,,Ｒｏｏｍ　７０１－１８，Ｊｉａｎｇｎａｎ　Ｂｕｉｌｄｉｎｇ，Ｎｏ．２１　Ｙｏｎｇｘｉａｎｇ　Ｒｏａｄ　Ｅａｓｔ，Ｍａａｎｔａｎｇ　Ｃｏｍｍｕｎｉｔｙ，Ｂａｎｔｉａｎ　Ｓｔｒｅｅｔ，Ｌｏｎｇｇａｎｇ　Ｄｉｓｔｒｉｃｔ，Ｓｈｅｎｚｈｅｎ　Ｃｉｔｙ,,,,,,2024-02-05,1,,,,,シェンジェンシーユエンジージャーコージーヨウシエンゴンスー,0
837,3700150123782,新規,0,2024-02-05,2024-02-05,ｓｈｅｎｚｈｅｎｓｈｉｘｉｎｇａｉｃｈｅｎｍａｏｙｉ　ｙｏｕｘｉａｎｇｏｎｇｓｉ,,外国会社等,,,,,,,,ｊｉｈｕａｊｉｅｄａｏｇａｎｋｅｎｇｓｈｅｑｕｇａｎｌｉｅｒｌｕ３ｈａｏ　ｎａｎｈｏｎｇｚｏｎｇｈｅｌｏｕ　Ｃｄｏｎｇ　Ｃ１－１１０３　Ｓｈｅｎｚｈｅｎｓｈｉ　Ｌｏｎｇｇａｎｇｑｕ,,,,,,2024-02-05,1,,,,,シンセンシシンアイチェンマオイユウゲンコウシ,0
838,3700150123790,新規,0,2024-02-05,2024-02-05,ｓｈｅｎｚｈｅｎｓｈｉｄｅｙｉｚｈｉｋｅｊｉｆａｚｈａｎ　ｙｏｕｘｉａｎｇｏｎｇｓｉ,,外国会社等,,,,,,,,ｓｈｅｎｚｈｅｎｓｈｉ　ｌｏｎｇｇａｎｇｑｕ　ｌｏｎｇｃｈｅｎｇｊｉｅｄａｏｘｉｎｌｉａｎｓｈｅｑｕｒｕｙｉｌｕ１１４ｈａｏｂｅｉｃｅ４０２,,,,,,2024-02-05,1,,,,,シンセンシトクイチカギハッテンユウゲンコウシ,0
839,3700150123799,新規,0,2024-02-05,2024-02-05,Ｇｕａｎｇｚｈｏｕｋｕｎｙｕｅｄｉａｎｚｉｓｈａｎｇｗｕ　ｙｏｕｘｉａｎｇｏｎｇｓｉ,,外国会社等,,,,,,,,Ｒｏｏｍ１０１，Ｎｏ．１ＤｏｎｇｐｉｎｇｆａｎｇＳｔｒｅｅｔ，Ｚｈｏｎｇｗｕｙｕａｎ，ＸｉｚｈｏｕＶｉｌｌａｇｅ，ＸｉｎｔａｎｇＴｏｗｎ，ＺｅｎｇｃｈｅｎｇＤｉｓｔｒｉｃｔ，ＧｕａｎｇｚｈｏｕＣｉｔｙ，ＧｕａｎｇｄｏｎｇＰｒｏｖｉｎｃｅ，ＣＮ,,,,,,2024-02-05,1,,,,,コウシュウクンユエデンシショウムユウゲンコウシ,0
848,4010001242017,新規,0,2024-02-05,2024-02-05,株式会社ＢＣＪ‐７９,,株式会社,東京都,千代田区,丸の内１丁目１番１号パレスビル５階,,13,101,1000005,,,,,,,2024-02-05,1,,,,,ビーシージェイセブンティーナイン,0
849,4010001242025,新規,0,2024-02-05,2024-02-05,株式会社Ｋｎｏｗｌｅｄｇｅ　Ｗｏｒｋｓ,,株式会社,東京都,中央区,銀座６丁目３番１６号,,13,102,1040061,,,,,,,2024-02-05,1,,,,,ナレッジワークス,0
850,4010001242033,新規,0,2024-02-05,2024-02-05,株式会社ＣＯＵＮＴＲＹ　Ｘ,,株式会社,東京都,中央区,日本橋室町１丁目１１番１２号日本橋水野ビル７階,,13,102,1030022,,,,,,,2024-02-05,1,,,,,カントリーエックス,0
852,4010003042860,新規,0,2024-02-05,2024-02-05,テイクユーカンパニー合同会社,,合同会社,東京都,中央区,八丁堀４丁目１２－４－５０８,,13,102,1040032,,,,,,,2024-02-05,1,,,,,テイクユーカンパニー,0
853,4010005037859,新規,0,2024-02-05,2024-02-05,一般社団法人石狩再エネデータセンター,,その他の設立登記法人,東京都,千代田区,永田町２丁目１７番５号,,13,101,1000014,,,,,,,2024-02-05,1,,,,,イシカリサイエネデータセンター,0
860,4010401180106,新規,0,2024-02-05,2024-02-05,海エナジー株式会社,,株式会社,東京都,港区,赤坂８丁目４番１４号青山タワープレイス８Ｆ,,13,103,1070052,,,,,,,2024-02-05,1,,,,,カイエナジー,0
861,4010401180114,新規,0,2024-02-05,2024-02-05,株式会社メモリーメド,,株式会社,東京都,港区,虎ノ門４丁目３番１号城山トラストタワー２７階,,13,103,1050001,,,,,,,2024-02-05,1,,,,,メモリーメド,0
862,4010401180147,新規,0,2024-02-05,2024-02-05,株式会社ワライーソーコ,,株式会社,東京都,港区,芝浦１丁目１３番１０号,,13,103,1050023,,,,,,,2024-02-05,1,,,,,ワライーソーコ,0
867,4010403031884,新規,0,2024-02-05,2024-02-05,７８ｄｅｇｒｅｅｓ合同会社,,合同会社,東京都,港区,赤坂２丁目１４番５号Ｄａｉｗａ赤坂ビル４階,,13,103,1070052,,,,,,,2024-02-05,1,,,,,セブンティーエイトディグリーズ,0
877,4010601064579,新規,0,2024-02-05,2024-02-05,株式会社スマイル,,株式会社,東京都,江東区,豊洲２丁目５番１－１６０７号,,13,108,1350061,,,,,,,2024-02-05,1,,,,,スマイル,0
880,4010603010622,新規,0,2024-02-05,2024-02-05,合同会社ＫＰ,,合同会社,東京都,江東区,潮見２丁目８番１４－６０９号,,13,108,1350052,,,,,,,2024-02-05,1,,,,,ケーピー,0
881,4010701045512,新規,0,2024-02-05,2024-02-05,ＷＡｉＵ株式会社,,株式会社,東京都,品川区,旗の台３丁目４番１１号コスモス１７ビル２０３号,,13,109,1420064,,,,,,,2024-02-05,1,,,,,ワイユー,0
888,4010801034753,新規,0,2024-02-05,2024-02-05,株式会社Ｄｅｉｌｌｏ,,株式会社,東京都,大田区,西蒲田７丁目６６番１号,,13,111,1440051,,,,,,,2024-02-05,1,,,,,デイロ,0
889,4010801034761,新規,0,2024-02-05,2024-02-05,Ｋｏｉｎｏｎｉａ株式会社,,株式会社,東京都,大田区,西六郷２丁目５８－６,,13,111,1440056,,,,,,,2024-02-05,1,,,,,コイノニア,0
900,4010903008795,新規,0,2024-02-05,2024-02-05,ＨＥＡＲＴ合同会社,,合同会社,東京都,世田谷区,世田谷１丁目２９番１４号,,13,112,1540017,,,,,,,2024-02-05,1,,,,,ハート,0
908,4011001159812,新規,0,2024-02-05,2024-02-05,ＭＯＮＩＢＯ株式会社,,株式会社,東京都,渋谷区,神宮前４丁目１７－１５,,13,113,1500001,,,,,,,2024-02-05,1,,,,,モニボ,0
909,4011001159820,新規,0,2024-02-05,2024-02-05,株式会社ＳＩＬＱ　ＤＥＳＩＧＮ,,株式会社,東京都,渋谷区,神泉町２０－２１クロスシー渋谷神泉ビル６－２１,,13,113,1500045,,,,,,,2024-02-05,1,,,,,シルクデザイン,0
913,4011101106037,新規,0,2024-02-05,2024-02-05,株式会社ＣＲＵＺＴＩＭＥ,,株式会社,東京都,新宿区,歌舞伎町２丁目３番２２－１１０１号,,13,104,1600021,,,,,,,2024-02-05,1,,,,,クルーズタイム,0
914,4011101106086,新規,0,2024-02-05,2024-02-05,株式会社ＮｏｄｅＧｅａｒ,,株式会社,東京都,新宿区,市谷田町３丁目８－１市ヶ谷科学技術イノベーションセンター２Ｆ,,13,104,1620843,,,,,,,2024-02-05,1,,,,,ノードギア,0
923,4011503005943,新規,0,2024-02-05,2024-02-05,ＭＯＡ合同会社,,合同会社,東京都,荒川区,東日暮里１丁目３－７,,13,118,1160014,,,,,,,2024-02-05,1,,,,,モア,0
924,4011801043744,新規,0,2024-02-05,2024-02-05,株式会社ＮＩＴＲＯ　ＷＡＶＥ,,株式会社,東京都,葛飾区,東立石１丁目１３番４号クリオ新小岩イーストテラス３０５号室,,13,122,1240013,,,,,,,2024-02-05,1,,,,,,0
930,4012701018068,新規,0,2024-02-05,2024-02-05,株式会社ヒナタトヨル,,株式会社,東京都,小平市,鈴木町１丁目３８２番地の２,,13,211,1870011,,,,,,,2024-02-05,1,,,,,ヒナタトヨル,0
946,4021001081379,新規,0,2024-02-05,2024-02-05,株式会社アタミラ,,株式会社,神奈川県,厚木市,妻田西１丁目３２番１１号,,14,212,2430815,,,,,,,2024-02-05,1,,,,,アタミラ,0
947,4021005013015,新規,0,2024-02-05,2024-02-05,一般社団法人リニア経済協会,,その他の設立登記法人,神奈川県,相模原市緑区,橋本３丁目９番１７号,,14,151,2520143,,,,,,,2024-02-05,1,,,,,リニアケイザイキョウカイ,0
952,4030001158475,新規,0,2024-02-05,2024-02-05,株式会社はなまる気分,,株式会社,埼玉県,越谷市,大字三野宮５５６番地サンフラワー２０１,,11,222,3430036,,,,,,,2024-02-05,1,,,,,ハナマルキブン,0
953,4030001158483,新規,0,2024-02-05,2024-02-05,株式会社安倍美建,,株式会社,埼玉県,蕨市,塚越３丁目２８番９号ペア・コート１Ｆ,,11,223,3350002,,,,,,,2024-02-05,1,,,,,アベビケン,0
954,4030003023545,新規,0,2024-02-05,2024-02-05,ＨＳティンバー合同会社,,合同会社,埼玉県,さいたま市緑区,大字中尾３９９番地１浦和ユニット２Ｆ,,11,109,3360932,,,,,,,2024-02-05,1,,,,,エイチエスティンバー,0
961,4040001132033,新規,0,2024-02-05,2024-02-05,株式会社松田興業,,株式会社,千葉県,柏市,泉３８１番地６,,12,217,2701456,,,,,,,2024-02-05,1,,,,,マツダコウギョウ,0
964,4040003024237,新規,0,2024-02-05,2024-02-05,合同会社ハル,,合同会社,千葉県,柏市,塚崎１０１９番地２,,12,217,2770923,,,,,,,2024-02-05,1,,,,,ハル,0
967,4060001036793,新規,0,2024-02-05,2024-02-05,株式会社新井工業,,株式会社,栃木県,下都賀郡野木町,大字丸林２０７番地１,,09,364,3290111,,,,,,,2024-02-05,1,,,,,アライコウギョウ,0
968,4060001036802,新規,0,2024-02-05,2024-02-05,株式会社縁屋,,株式会社,栃木県,那須塩原市,鹿野崎１１２番地６０,,09,213,3293121,,,,,,,2024-02-05,1,,,,,エニシヤ,0
969,4060003004889,新規,0,2024-02-05,2024-02-05,合同会社Ｗｅ　Ｒｉｄｅ,,合同会社,栃木県,宇都宮市,西川田本町２丁目６－１８,,09,201,3210158,,,,,,,2024-02-05,1,,,,,ウィライド,0
970,4070001041330,新規,0,2024-02-05,2024-02-05,株式会社Ｍ．Ｊ．Ｌ,,株式会社,群馬県,伊勢崎市,間野谷町１１９８番地,,10,204,3792201,,,,,,,2024-02-05,1,,,,,エムジェーエル,0
971,4070001041347,新規,0,2024-02-05,2024-02-05,株式会社松平,,株式会社,群馬県,邑楽郡明和町,新里６１８番地６,,10,522,3700708,,,,,,,2024-02-05,1,,,,,マツダイラ,0
973,4080001026116,新規,0,2024-02-05,2024-02-05,Ｓ＆Ｊ株式会社,,株式会社,静岡県,静岡市駿河区,高松３０９３－３３、２階,,22,102,4228034,,,,,,,2024-02-05,1,,,,,エスアンドジェイ,0
982,4100003007383,新規,0,2024-02-05,2024-02-05,ＷＯＡ合同会社,,合同会社,長野県,下伊那郡松川町,上片桐１６９８番地６,,20,402,3993301,,,,,,,2024-02-05,1,,,,,ヲア,0
991,4120001261906,新規,0,2024-02-05,2024-02-05,株式会社Ｏｍａｋａｓｅ,,株式会社,大阪府,大阪市西区,立売堀１丁目２番２１号２Ｆ,,27,106,5500012,,,,,,,2024-02-05,1,,,,,オマカセ,0
992,4120001261930,新規,0,2024-02-05,2024-02-05,三＿貿易株式会社,00133614,株式会社,大阪府,大阪市西成区,花園北１丁目１０番１７号,,27,122,5570016,,,,,,,2024-02-05,1,,,,,サンシンボウエキ,0
993,4120001261939,新規,0,2024-02-05,2024-02-05,株式会社ＢＰｉｌｉｆｅ,,株式会社,大阪府,大阪市北区,長柄西１丁目３番５４－５１２号,,27,127,5310061,,,,,,,2024-02-05,1,,,,,ビーピーライフ,0
994,4120001261947,新規,0,2024-02-05,2024-02-05,株式会社灘優,,株式会社,大阪府,大阪市西区,西本町３丁目１番４６号奥内第五ビル６０８号,,27,106,5500005,,,,,,,2024-02-05,1,,,,,ナダユウ,0
995,4120001261963,新規,0,2024-02-05,2024-02-05,株式会社ＪＯＩＮＴ　ＭＡＴＣＨ,,株式会社,大阪府,大阪市都島区,毛馬町２丁目１－１４永澤ビル４Ｆ,,27,102,5340001,,,,,,,2024-02-05,1,,,,,ジョイントマッチ,0
996,4120001262029,新規,0,2024-02-05,2024-02-05,島之内メディカル株式会社,,株式会社,大阪府,大阪市中央区,島之内１丁目１４番３１号スナダビル２Ｆ,,27,128,5420082,,,,,,,2024-02-05,1,,,,,シマノウチメディカル,0
997,4120003025846,新規,0,2024-02-05,2024-02-05,合同会社ＬＡＦＦＹ　ＢＡＳＥ,,合同会社,大阪府,守口市,桜町２番１８号,,27,209,5700027,,,,,,,2024-02-05,1,,,,,ラフィーベース,0
998,4120003025854,新規,0,2024-02-05,2024-02-05,Ｓｉｍｐｌｉｆｙｉｎｇ合同会社,,合同会社,大阪府,大阪市北区,梅田１丁目２番２号大阪駅前第２ビル１２－１２,,27,127,5300001,,,,,,,2024-02-05,1,,,,,シンプリファイング,0
1002,4120101068994,新規,0,2024-02-05,2024-02-05,プラネットズ株式会社,,株式会社,大阪府,堺市北区,中百舌鳥町２丁３５番地,,27,146,5918023,,,,,,,2024-02-05,1,,,,,プラネットズ,0
1004,4120901048717,新規,0,2024-02-05,2024-02-05,株式会社高照,,株式会社,大阪府,豊中市,稲津町２丁目１４番１２号,,27,203,5610854,,,,,,,2024-02-05,1,,,,,タカショウ,0
1005,4120901048725,新規,0,2024-02-05,2024-02-05,株式会社エスケー技研,,株式会社,大阪府,摂津市,鳥飼下３丁目１９番１号ローズタウンＩＩ２０２号,00133625,27,224,5660071,,,,,,,2024-02-05,1,,,,,エスケーギケン,0
1007,4122003002791,新規,0,2024-02-05,2024-02-05,合同会社堀川佳子,,合同会社,大阪府,東大阪市,南四条町１１番３号カーサミウ１０３号,,27,227,5798054,,,,,,,2024-02-05,1,,,,,,0
1008,4130001076279,新規,0,2024-02-05,2024-02-05,株式会社ＢＥＡＲ’Ｓ　ＦＡＣＴＯＲＹ,,株式会社,京都府,京都市南区,西九条池ノ内町３４番地,,26,107,6018416,,,,,,,2024-02-05,1,,,,,ベアーズファクトリー,0
1009,4130001076287,新規,0,2024-02-05,2024-02-05,株式会社彩進,,株式会社,京都府,京都市伏見区,深草泓ノ壺町１６番地スペリオン１号館６号,,26,109,6128435,,,,,,,2024-02-05,1,,,,,サイシン,0
1017,4150001027057,新規,0,2024-02-05,2024-02-05,株式会社なら紀芳庵,,株式会社,奈良県,奈良市,鶴福院町１５番地,,29,201,6308393,,,,,,,2024-02-05,1,,,,,ナラキホウアン,0
1019,4160001025670,新規,0,2024-02-05,2024-02-05,株式会社ＭＥＩＳＡＩ,,株式会社,滋賀県,栗東市,坊袋１１０番地６,,25,208,5203023,,,,,,,2024-02-05,1,,,,,メイサイ,0
1028,4180001160020,新規,0,2024-02-05,2024-02-05,株式会社辰巳商店,,株式会社,愛知県,一宮市,大和町馬引２３３３番地１,,23,203,4910931,,,,,,,2024-02-05,1,,,,,タツミショウテン,0
1029,4180001160037,新規,0,2024-02-05,2024-02-05,株式会社ストヒロ,,株式会社,愛知県,名古屋市中区,栄１丁目１２番１３号タワーザファースト名古屋伏見４０５,,23,106,4600008,,,,,,,2024-02-05,1,,,,,ストヒロ,0
1030,4180001160053,新規,0,2024-02-05,2024-02-05,株式会社Ｒｏｏｆ　ｉｎｃ．,,株式会社,愛知県,名古屋市昭和区,妙見町３２－３,,23,107,4660814,,,,,,,2024-02-05,1,,,,,ルーフインク,0
1031,4180001160061,新規,0,2024-02-05,2024-02-05,株式会社山口一馬,,株式会社,愛知県,名古屋市北区,瑠璃光町２丁目５番地の３,,23,103,4620866,,,,,,,2024-02-05,1,,,,,ヤマグチカズマ,0
1032,4180003026302,新規,0,2024-02-05,2024-02-05,合同会社Ｆｏｕｒ‐Ｌｅａｆ,,合同会社,愛知県,名古屋市天白区,平針南３丁目８０６番地の１,,23,116,4680020,,,,,,,2024-02-05,1,,,,,フォーリーフ,0
1033,4180003026319,新規,0,2024-02-05,2024-02-05,合同会社ａｋｍｐ,,合同会社,愛知県,名古屋市中村区,小鴨町１０５番地,,23,105,4530844,,,,,,,2024-02-05,1,,,,,エーケーエムピー,0
1036,4180301038263,新規,0,2024-02-05,2024-02-05,株式会社ｆｏｉｒｅ,,株式会社,愛知県,岡崎市,大和町字川原６９番地９,,23,202,4440931,,,,,,,2024-02-05,1,,,,,フォワール,0
1037,4180301038288,新規,0,2024-02-05,2024-02-05,株式会社小境,,株式会社,愛知県,豊田市,柿本町２丁目７番地２オーケーズ豊田西５０４号,,23,211,4710855,,,,,,,2024-02-05,1,,,,,コザカイ,0
1044,4200001042125,新規,0,2024-02-05,2024-02-05,株式会社ギャラクシー,,株式会社,岐阜県,岐阜市,長森細畑３４４番地１,,21,201,5008247,,,,,,,2024-02-05,1,,,,,ギャラクシー,0
1049,4240001062747,新規,0,2024-02-05,2024-02-05,株式会社日興トラスト,,株式会社,広島県,東広島市,西条町寺家３８４７番地の２,,34,212,7390041,,,,,,,2024-02-05,1,,,,,ニッコウトラスト,0
1052,4240003006520,新規,0,2024-02-05,2024-02-05,合同会社みらい研究所,,合同会社,広島県,広島市中区,三川町３番１８－９０３号,,34,101,7300029,,,,,,,2024-02-05,1,,,,,ミライケンキュウジョ,0
1062,4290001104577,新規,0,2024-02-05,2024-02-05,株式会社平家工務店,,株式会社,福岡県,福岡市中央区,大名２丁目２番１号,,40,133,8100041,,,,,,,2024-02-05,1,,,,,ヘイケコウムテン,0
1063,4290001104619,新規,0,2024-02-05,2024-02-05,オーシャンリペア株式会社,,株式会社,福岡県,福岡市城南区,長尾３丁目１２番１９号,,40,136,8140123,,,,,,,2024-02-05,1,,,,,オーシャンリペア,0
1068,4320001020275,新規,0,2024-02-05,2024-02-05,株式会社美・ｉ・ｎ,,株式会社,大分県,中津市,大字中原５１４番地２８,,44,203,8710157,,,,,,,2024-02-05,1,,,,,ビイン,0
1069,4330001031718,新規,0,2024-02-05,2024-02-05,株式会社スマイルリカー,,株式会社,熊本県,熊本市東区,御領５丁目１１番５２号,,43,102,8618035,,,,,,,2024-02-05,1,,,,,スマイルリカー,0
1078,4370001050904,新規,0,2024-02-05,2024-02-05,株式会社アーリアンプレス・インターナショナル,,株式会社,宮城県,仙台市青葉区,中央２丁目２番１０号仙都会館５階,,04,101,9800021,,,,,,,2024-02-05,1,,,,,アーリアンプレスインターナショナル,0
1079,4370001050912,新規,0,2024-02-05,2024-02-05,株式会社ａｒａｇｏｓｔａ,,株式会社,宮城県,仙台市青葉区,川平３丁目１９番３３号,,04,101,9810954,,,,,,,2024-02-05,1,,,,,アラゴスタ,0
1088,4430001091017,新規,0,2024-02-05,2024-02-05,株式会社縁志,,株式会社,北海道,札幌市東区,東苗穂二条３丁目５番３５号,,01,103,0070802,,,,,,,2024-02-05,1,,,,,エニシ,0
1090,4460001005865,新規,0,2024-02-05,2024-02-05,株式会社菊池塗装,,株式会社,北海道,釧路市,昭和南６丁目４０番６号,,01,206,0840909,,,,,,,2024-02-05,1,,,,,キクチトソウ,0
1098,4500001025446,新規,0,2024-02-05,2024-02-05,株式会社Ｍｙ　ｓｅａ,,株式会社,愛媛県,八幡浜市,矢野町７丁目１４５８番地１２,,38,204,7960026,,,,,,,2024-02-05,1,,,,,マイシー,0
1099,4700150123344,新規,0,2024-02-05,2024-01-16,アンサンブル　ロジエ,,その他,千葉県,市川市,南大野３丁目２４－１２パークホームズ７０７,,12,203,2720804,,,,,,,2024-01-16,1,,,,,アンサンブルロジエ,0
1100,4700150123773,新規,0,2024-02-05,2024-02-05,Ｇｕａｎｇｚｈｏｕ　ｋｅｙｕ　ｍａｏｙｉ　ｙｏｕｘｉａｎｇｏｎｇｓｉ,,外国会社等,,,,,,,,Ｒｏｏｍ　１０５，Ｎｏ．６８，Ｓｈａｂｅｉ　Ｓｔｒｅｅｔ，Ｊｉｎｓｈａｚｈｏｕ，Ｂａｉｙｕｎ　Ｄｉｓｔｒｉｃｔ，Ｇｕａｎｇｚｈｏｕ,,,,,,2024-02-05,1,,,,,グワンジョウコーイーマオイーヨウシエンゴンスー,0
1101,4700150123781,新規,0,2024-02-05,2024-02-05,ｔａｉｚｈｏｕｓｈｉｚｕｏｃｉｄｉａｎｚｉｓｈａｎｇｗｕ　ｙｏｕｘｉａｎｇｏｎｇｓｉ,,外国会社等,,,,,,,,ｄａｘｉｚｈｅｎｌｕｎｓｉｙａｎｇｃｕｎｄｏｎｇｐｉａｎ５６０ｈａｏ　ｔａｉｚｈｏｕｓｈｉｗｅｎｌｉｎｇｓｈｉ　ｚｈｅｊｉａｎｇｓｈｅｎｇ,,,,,,2024-02-05,1,,,,,ダイシュウシゾオツデンシシャンウユウゲンコウシ,0
1102,4700150123798,新規,0,2024-02-05,2024-02-05,ｓｈｅｎｚｈｅｎｓｈｉｗａｎｇｌｉｌａｉｄｉａｎｚｉ　ｙｏｕｘｉａｎｇｏｎｇｓｉ,,外国会社等,,,,,,,,ｂａｏａｎｑｕ　ｆｕｙｏｎｇｊｉｅｄａｏｆｕｗｅｉｓｈｅｑｕｄｉｅｒｇｏｎｇｙｅｑｕＡ３ｈａｏ３０１　ｓｈｅｎｚｈｅｎ　ｇｕａｎｇｄｏｎｇ　ＣＮ,,,,,,2024-02-05,1,,,,,シンセンシワンリライデンシユウゲンコウシ,0
1107,5010001242032,新規,0,2024-02-05,2024-02-05,Ｄｉａｍｏｎｄ　Ｂａｔｔｅｒｙ　Ｓｏｌｕｔｉｏｎｓ株式会社,,株式会社,東京都,千代田区,丸の内２丁目３番１号,,13,101,1000005,,,,,,,2024-02-05,1,,,,,ダイヤモンドバッテリーソリューションズ,0
1109,5010003042694,新規,0,2024-02-05,2024-02-05,合同会社ＴＯＭＢＯ,,合同会社,東京都,千代田区,岩本町２丁目３－１２シティインデックス神田９０５,,13,101,1010032,,,,,,,2024-02-05,1,,,,,トンボ,0
1110,5010003042827,新規,0,2024-02-05,2024-02-05,合同会社筒井興業,,合同会社,東京都,中央区,日本橋兜町１７番１号日本橋ロイヤルプラザ７０６,,13,102,1030026,,,,,,,2024-02-05,1,,,,,ツツイコウギョウ,0
1111,5010003042843,新規,0,2024-02-05,2024-02-05,Ｆｏｒｔｕｎｅ１合同会社,,合同会社,東京都,千代田区,一ツ橋２丁目６番３号アクシスインベストメントアドバイザーズ株式会社内,,13,101,1010003,,,,,,,2024-02-05,1,,,,,フォーチュンワン,0
1112,5010003042876,新規,0,2024-02-05,2024-02-05,合同会社ベースグリップ,,合同会社,東京都,中央区,日本橋室町１丁目１１番１２号日本橋水野ビル７階,,13,102,1030022,,,,,,,2024-02-05,1,,,,,ベースグリップ,0
1117,5010401180121,新規,0,2024-02-05,2024-02-05,株式会社ＤＭ　ａｎｄ　Ｔ,,株式会社,東京都,港区,海岸１丁目７番１号東京ポートシティ竹芝オフィスタワー８階,,13,103,1050022,,,,,,,2024-02-05,1,,,,,ディーエムアンドティー,0
1118,5010401180179,新規,0,2024-02-05,2024-02-05,ＴＢＤ株式会社,,株式会社,東京都,港区,南青山３丁目１－３６青山丸竹ビル７Ｆ,,13,103,1070062,,,,,,,2024-02-05,1,,,,,ティービーディ,0
1119,5010401180187,新規,0,2024-02-05,2024-02-05,Ｌｉｉｇａ株式会社,,株式会社,東京都,港区,赤坂１丁目１２番３２号,,13,103,1070052,,,,,,,2024-02-05,1,,,,,リーガ,0
1120,5010403031875,新規,0,2024-02-05,2024-02-05,Ｂｒｉｌｌｉｕｍ　Ｃｏｎｓｕｌｔｉｎｇ合同会社,,合同会社,東京都,港区,浜松町２丁目２番１５号浜松町ダイヤビル２Ｆ,,13,103,1050013,,,,,,,2024-02-05,1,,,,,ブリリウムコンサルティング,0
1124,5010601064586,新規,0,2024-02-05,2024-02-05,Ｔ．ＬＡＢＯ株式会社,,株式会社,東京都,江東区,毛利２丁目１０－１４－３０２号,,13,108,1350001,,,,,,,2024-02-05,1,,,,,ティーラボ,0
1125,5010603010621,新規,0,2024-02-05,2024-02-05,合同会社三昧,,合同会社,東京都,江東区,北砂５丁目３番１５号,,13,108,1360073,,,,,,,2024-02-05,1,,,,,サンマイ,0
1126,5010801034760,新規,0,2024-02-05,2024-02-05,株式会社ＭＥＤＩＡＳ,,株式会社,東京都,大田区,多摩川１丁目１６番地１１号グランイーグル多摩川ＩＩＩ１２０２号室,00133616,13,111,1460095,,,,,,,2024-02-05,1,,,,,メディアス,0
1129,5010901054659,新規,0,2024-02-05,2024-02-05,株式会社ＭＥＬＭＩＥＬ,,株式会社,東京都,世田谷区,下馬１丁目５５番２２－７０１号,,13,112,1540002,,,,,,,2024-02-05,1,,,,,メルミエル,0
1130,5010901054675,新規,0,2024-02-05,2024-02-05,ＫＳ　Ｃａｐｉｔａｌ　Ｍａｎａｇｅｍｅｎｔ株式会社,,株式会社,東京都,世田谷区,砧７丁目１８－２６－３５０２,,13,112,1570073,,,,,,,2024-02-05,1,,,,,ケーエスキャピタルマネジメント,0
1138,5011001159811,新規,0,2024-02-05,2024-02-05,株式会社ｓａｉ,,株式会社,東京都,渋谷区,円山町１５－３,,13,113,1500044,,,,,,,2024-02-05,1,,,,,サイ,0
1140,5011003018437,新規,0,2024-02-05,2024-02-05,モードワンアドバイザリー合同会社,,合同会社,東京都,渋谷区,神宮前１丁目４番２０号パークコート神宮前４１２,,13,113,1500001,,,,,,,2024-02-05,1,,,,,モードワンアドバイザリー,0
1146,5011101106036,新規,0,2024-02-05,2024-02-05,株式会社ＴＥＡＭ‐Ｋ,,株式会社,東京都,新宿区,歌舞伎町２丁目３番２２－１１０１号,,13,104,1600021,,,,,,,2024-02-05,1,,,,,チームケイ,0
1147,5011101106077,新規,0,2024-02-05,2024-02-05,株式会社タクセイドコンサルティング,,株式会社,東京都,新宿区,西新宿７丁目５番２５号西新宿プライムスクエア１３階,,13,104,1600023,,,,,,,2024-02-05,1,,,,,タクセイドコンサルティング,0
1148,5011101106085,新規,0,2024-02-05,2024-02-05,源＿株式会社,00133615,株式会社,東京都,新宿区,北新宿１丁目２８－１５サマリヤマンション５０４,,13,104,1690074,,,,,,,2024-02-05,1,,,,,ゲンシン,0
1151,5011105010936,新規,0,2024-02-05,2024-02-05,海外引越事業協同組合,,その他の設立登記法人,東京都,新宿区,新宿２丁目８番１号,,13,104,1600022,,,,,,,2024-02-05,1,,,,,カイガイヒッコシジギョウ,0
1155,5011401025836,新規,0,2024-02-05,2024-02-05,捷達奥利株式会社,,株式会社,東京都,板橋区,小茂根１丁目２５番１６号ＵＩＳビル２０９,,13,119,1730037,,,,,,,2024-02-05,1,,,,,ジェッタオクリ,0
1159,5011603004233,新規,0,2024-02-05,2024-02-05,マーサージャパン合同会社,,合同会社,東京都,練馬区,下石神井５丁目１３番２号,,13,120,1770042,,,,,,,2024-02-05,1,,,,,マーサージャパン,0
1162,5012301013765,新規,0,2024-02-05,2024-02-05,株式会社開,,株式会社,東京都,町田市,原町田４丁目１１番１３号天野ビル４Ｆ,,13,209,1940013,,,,,,,2024-02-05,1,,,,,カイ,0
1164,5012403006394,新規,0,2024-02-05,2024-02-05,合同会社ＩＩＮＡ,,合同会社,東京都,調布市,富士見町２丁目１２番地３ヘーベル２０２,,13,208,1820033,,,,,,,2024-02-05,1,,,,,イイナ,0
1166,5012803003306,新規,0,2024-02-05,2024-02-05,合同会社Ｋ‐４５,,合同会社,東京都,国分寺市,東恋ヶ窪４丁目３番地１号ガーデンホーム西国分寺２０８,,13,214,1850014,,,,,,,2024-02-05,1,,,,,ケーフォーティファイブ,0
1177,5020001155638,新規,0,2024-02-05,2024-02-05,株式会社パーチェス,,株式会社,神奈川県,横浜市戸塚区,矢部町１６６８番地１１２,,14,110,2440002,,,,,,,2024-02-05,1,,,,,パーチェス,0
1181,5021005013014,新規,0,2024-02-05,2024-02-05,一般社団法人神奈川県高齢者住宅相談センター,,その他の設立登記法人,神奈川県,厚木市,田村町５５番地３,,14,212,2430016,,,,,,,2024-02-05,1,,,,,カナガワケンコウレイシャジュウタクソウダンセンター,0
1187,5030001158458,新規,0,2024-02-05,2024-02-05,株式会社Ｂｕｄｄｉｎｇ,,株式会社,埼玉県,川口市,金山町１２－１,,11,203,3320014,,,,,,,2024-02-05,1,,,,,バディング,0
1188,5030001158524,新規,0,2024-02-05,2024-02-05,ＫＭアセットマネジメント株式会社,,株式会社,埼玉県,富士見市,大字勝瀬１０１９番地９,,11,235,3540031,,,,,,,2024-02-05,1,,,,,ケイエムアセットマネジメント,0
1190,5030003023560,新規,0,2024-02-05,2024-02-05,Ｐｒｏｔｏｃｏｌ合同会社,,合同会社,埼玉県,所沢市,大字下安松１４８２番地の５,,11,208,3590024,,,,,,,2024-02-05,1,,,,,プロトコル,0
1199,5040001132032,新規,0,2024-02-05,2024-02-05,イケル株式会社,,株式会社,千葉県,柏市,東上町３－３川長ビル６０２Ｃ,,12,217,2770011,,,,,,,2024-02-05,1,,,,,イケル,0
1205,5040003024269,新規,0,2024-02-05,2024-02-05,合同会社イン・ポジション,,合同会社,千葉県,佐倉市,飯田９１９－１１,,12,212,2850032,,,,,,,2024-02-05,1,,,,,インポジション,0
1206,5050001054218,新規,0,2024-02-05,2024-02-05,株式会社エンジョイ,,株式会社,茨城県,日立市,東多賀町２丁目１６番１９号,,08,202,3160004,,,,,,,2024-02-05,1,,,,,エンジョイ,0
1208,5070001041346,新規,0,2024-02-05,2024-02-05,株式会社ファンテック,,株式会社,群馬県,伊勢崎市,山王町２１１番地３,,10,204,3720831,,,,,,,2024-02-05,1,,,,,ファンテック,0
1209,5070003005258,新規,0,2024-02-05,2024-02-05,ＹＡＳＵＮＯＲＩ合同会社,,合同会社,群馬県,太田市,大島町４０５－８,,10,205,3730055,,,,,,,2024-02-05,1,,,,,ヤスノリ,0
1212,5080101024514,新規,0,2024-02-05,2024-02-05,株式会社ＳｋｙＬｏｖｅ,,株式会社,静岡県,沼津市,松長２６０番地の２１,,22,203,4100874,,,,,,,2024-02-05,1,,,,,スカイラブ,0
1214,5080403004949,新規,0,2024-02-05,2024-02-05,合同会社サンシャイン・ラボ,,合同会社,静岡県,浜松市中央区,松城町２００番地の９,,22,138,4300947,,,,,,,2024-02-05,1,,,,,サンシャインラボ,0
1215,5100001037183,新規,0,2024-02-05,2024-02-05,縄文麦酒株式会社,,株式会社,長野県,茅野市,泉野５６０３番地７,,20,214,3910214,,,,,,,2024-02-05,1,,,,,ジョウモンビール,0
1228,5120001261780,新規,0,2024-02-05,2024-02-05,株式会社マックス,,株式会社,大阪府,大阪市生野区,林寺４丁目１０番２７号,,27,116,5440023,,,,,,,2024-02-05,1,,,,,マックス,0
1229,5120001261888,新規,0,2024-02-05,2024-02-05,Ｌｉｎｔｅｒｂｕｉｌｄ株式会社,,株式会社,大阪府,大阪市浪速区,恵美須西３丁目１５番５－７０７号,,27,111,5560003,,,,,,,2024-02-05,1,,,,,リンタービルド,0
1230,5120001261938,新規,0,2024-02-05,2024-02-05,ＣｏＣｏｍｏＧｒｏｕｐ株式会社,,株式会社,大阪府,大阪市北区,梅田１丁目１番３号大阪駅前第３ビル２９階１－１－１,,27,127,5300001,,,,,,,2024-02-05,1,,,,,ココモグループ,0
1231,5120001261962,新規,0,2024-02-05,2024-02-05,株式会社ＥＮＩＧＭＭＡ　ｐｒｏｄｕｃｔｉｏｎ,,株式会社,大阪府,大阪市西区,本田１丁目４番４６－１００４号,,27,106,5500022,,,,,,,2024-02-05,1,,,,,エニグマプロダクション,0
1232,5120001261987,新規,0,2024-02-05,2024-02-05,株式会社Ｙ‐Ｌｉｎｋｓ,,株式会社,大阪府,大阪市北区,菅原町１１番１０号,,27,127,5300046,,,,,,,2024-02-05,1,,,,,ワイリンクス,0
1235,5120003025845,新規,0,2024-02-05,2024-02-05,１ｓｔｓｔａｎｄａｒｄ合同会社,,合同会社,大阪府,大阪市中央区,博労町４丁目２番３号伊藤ビル２０１,,27,128,5410059,,,,,,,2024-02-05,1,,,,,ファーストスタンダード,0
1238,5120103005656,新規,0,2024-02-05,2024-02-05,ＺＡＷＡＮ合同会社,,合同会社,大阪府,阪南市,桑畑５５９番地の４３,,27,232,5990222,,,,,,,2024-02-05,1,,,,,ザワン,0
1241,5120901048732,新規,0,2024-02-05,2024-02-05,株式会社モムンウル,,株式会社,大阪府,豊中市,三和町３丁目１０番１０号,,27,203,5610828,,,,,,,2024-02-05,1,,,,,モムンウル,0
1243,5122001037806,新規,0,2024-02-05,2024-02-05,株式会社カケハシ,,株式会社,大阪府,八尾市,北木の本２丁目１７－１４,,27,212,5810041,,,,,,,2024-02-05,1,,,,,カケハシ,0
1248,5130001076278,新規,0,2024-02-05,2024-02-05,株式会社Ｌｉａｎ,,株式会社,京都府,京都市中京区,富小路通錦小路上る高宮町５９３Ｆｏｒｃｅ錦４０４,,26,104,6048056,,,,,,,2024-02-05,1,,,,,リアン,0
1253,5140005026939,新規,0,2024-02-05,2024-02-05,一般社団法人阪神相続相談協会,,その他の設立登記法人,兵庫県,芦屋市,西山町１０番１１号,,28,206,6590083,,,,,,,2024-02-05,1,,,,,ハンシンソウゾクソウダンキョウカイ,0
1271,5180001160036,新規,0,2024-02-05,2024-02-05,株式会社ＱＵＡＵＲＡ,,株式会社,愛知県,名古屋市名東区,本郷２丁目２１２番地の１,,23,115,4650024,,,,,,,2024-02-05,1,,,,,クオーラ,0
1273,5180005020509,新規,0,2024-02-05,2024-02-05,一般社団法人日本スクールワイド・エンリッチメント・モデル協会,,その他の設立登記法人,愛知県,日進市,岩崎台１丁目２１０２番地３,,23,230,4700135,,,,,,,2024-02-05,1,,,,,ニホンスクールワイドエンリッチメントモデルキョウカイ,0
1281,5200001042124,新規,0,2024-02-05,2024-02-05,株式会社ベルスリー,,株式会社,岐阜県,可児市,今渡２３８２番地１,,21,214,5090207,,,,,,,2024-02-05,1,,,,,ベルスリー,0
1288,5210003001746,新規,0,2024-02-05,2024-02-05,ＭＬ合同会社,,合同会社,福井県,鯖江市,東鯖江２丁目４番３１号サンドミール１０２,,18,207,9160041,,,,,,,2024-02-05,1,,,,,エムエル,0
1290,5220001025804,新規,0,2024-02-05,2024-02-05,株式会社ＴＭＣ,,株式会社,石川県,かほく市,外日角壱号４番地３５,,17,209,9291176,,,,,,,2024-02-05,1,,,,,ティーエムシー,0
1296,5240001062746,新規,0,2024-02-05,2024-02-05,株式会社日興不動産,,株式会社,広島県,東広島市,西条町寺家３８４７番地の２,,34,212,7390041,,,,,,,2024-02-05,1,,,,,ニッコウフドウサン,0
1305,5260001038728,新規,0,2024-02-05,2024-02-05,株式会社承恩,,株式会社,岡山県,笠岡市,絵師４０８番地２２,,33,205,7140091,,,,,,,2024-02-05,1,,,,,ショウオン,0
1306,5260001038736,新規,0,2024-02-05,2024-02-05,株式会社Ｆｉｒｓｔｇｒｏｕｐ,,株式会社,岡山県,岡山市南区,藤田４１７番地３１,,33,104,7010221,,,,,,,2024-02-05,1,,,,,ファーストグループ,0
1307,5260003004562,新規,0,2024-02-05,2024-02-05,合同会社エムズ,,合同会社,岡山県,岡山市南区,北浦７７０番地１,,33,104,7028012,,,,,,,2024-02-05,1,,,,,エムズ,0
1312,5290001104592,新規,0,2024-02-05,2024-02-05,株式会社ジユウ本舗,,株式会社,福岡県,嘉穂郡桂川町,大字瀬戸１１番地１,,40,421,8200604,,,,,,,2024-02-05,1,,,,,ジユウホンポ,0
1314,5290003014930,新規,0,2024-02-05,2024-02-05,合同会社防災アスリート,,合同会社,福岡県,福岡市南区,長丘２丁目１２番１３号藤和長丘ホームズ２０５号,,40,134,8150075,,,,,,,2024-02-05,1,,,,,ボウサイアスリート,0
1315,5290801030278,新規,0,2024-02-05,2024-02-05,株式会社Ｂｌｕｅ　Ｓｋｙ　Ｓｅｃｕｒｉｔｙ,,株式会社,福岡県,直方市,須崎町３番３７号竹田ビル６階２５号室,,40,204,8220024,,,,,,,2024-02-05,1,,,,,ブルースカイセキュリティー,0
1319,5320001020274,新規,0,2024-02-05,2024-02-05,株式会社小畑不動産リース,,株式会社,大分県,由布市,挾間町高崎１５２番地６,,44,213,8795513,,,,,,,2024-02-05,1,,,,,オバタフドウサンリース,0
1325,5330001031725,新規,0,2024-02-05,2024-02-05,株式会社福屋建設,,株式会社,熊本県,球磨郡錦町,大字木上南１５０５番地,,43,501,8680301,,,,,,,2024-02-05,1,,,,,フクヤケンセツ,0
1334,5370001050903,新規,0,2024-02-05,2024-02-05,株式会社ＲＥＯＮＥ,,株式会社,宮城県,仙台市青葉区,五橋１丁目６番６号五橋ビル９階,,04,101,9800022,,,,,,,2024-02-05,1,,,,,リオン,0
1341,5380001034285,新規,0,2024-02-05,2024-02-05,株式会社内海商会,,株式会社,福島県,福島市,上鳥渡字しのぶ台１９番地の８,,07,201,9601107,,,,,,,2024-02-05,1,,,,,ウチウミショウカイ,0
1348,5420001018580,新規,0,2024-02-05,2024-02-05,株式会社ＢＥＣＫ＆ＢＡＫＥ,,株式会社,青森県,青森市,栄町１丁目１３－１７,,02,201,0300903,,,,,,,2024-02-05,1,,,,,ベックアンドベイク,0
1349,5430001091024,新規,0,2024-02-05,2024-02-05,株式会社ユーテック,,株式会社,北海道,札幌市北区,北三十四条西８丁目１番１５－２０１号,,01,102,0010034,,,,,,,2024-02-05,1,,,,,ユーテック,0
1354,5480005007005,新規,0,2024-02-05,2024-02-05,ＮＰＯ法人小松島放課後児童クラブ,,その他の設立登記法人,徳島県,小松島市,小松島町字高須３６番地,,36,203,7730001,,,,,,,2024-02-05,1,,,,,コマツシマホウカゴジドウクラブ,0
1355,5500001025445,新規,0,2024-02-05,2024-02-05,株式会社マルミツ,,株式会社,愛媛県,西条市,喜多川６５５番地９,,38,206,7930042,,,,,,,2024-02-05,1,,,,,マルミツ,0
1357,5700150118467,新規,0,2024-02-05,2024-02-05,ｓｈｅｎｚｈｅｎｊｉｓｈｉｔｏｎｇｋｅｊｉｙｏｕｘｉａｎｇｏｎｇｓｉ,,外国会社等,,,,,,,,５０２　５ｃｅｎｇ１ｄｏｎｇ４ｄｏｎｇ２ｄｏｎｇ１ｄｏｎｇｆｕｋａｎｇｓｈａｎｇｙｅｇｕａｎｇｃｈａｎｇｆｕｋａｎｇｓｈｅｑｕｌｏｎｇｈｕａｊｉｅｄａｏｌｏｎｇｈｕａｑｕｓｈｅｎｚｈｅｎｇｕａｎｇｄｏｎｇ５１８１０９ＣＮ,,,,,,2024-02-05,1,,,,,シェンジェンシジーシトンカージヨウシェンゴンスー,0
1358,5700150123772,新規,0,2024-02-05,2024-02-05,ｇｕａｎｇ　ｄｏｎｇ　ｗｅｉ　ｊｉｎｇ　ｓｈａｎｇ　ｗｕ　ｙｏｕ　ｘｉａｎ　ｇｏｎｇ　ｓｉ,,外国会社等,,,,,,,,Ｆｏ　ｓｈａｎ　ｓｈｉ　ｓｈｕｎ　ｄｅ　ｑｕ　ｌｕｎ　ｊｉａｏ　ｊｉｅ　ｄａｏ　ｂａｎ　ｓｈｉ　ｃｈｕ　ｓａｎ　ｚｈｏｕ　ｊｕ　ｗｅｉ　ｈｕｉ　ｙａｎｇ　ｄａ　ｌｕ　３８　ｈａｏ　ｚｈｉ　ｅｒ,,,,,,2024-02-05,1,,,,,カントンイケイショウムユウゲンコウシ,0
1359,5700150123780,新規,0,2024-02-05,2024-02-05,ｄａｎｙａｎｇｓｈｉｃｈａｏｃｈｕａｎｇｇｏｎｇｊｕ　ｙｏｕｘｉａｎｇｏｎｇｓｉ,,外国会社等,,,,,,,,ｄａｎｂｅｉｚｈｅｎ　ｆｅｉｄａｇｏｎｇｙｅｙｕａｎ　ｄａｎｙａｎｇｓｈｉ,,,,,,2024-02-05,1,,,,,ダンヤンシチャオソウゴンジュユウゲンコウシ,0
1360,5700150123789,新規,0,2024-02-05,2024-02-05,Ｃｈａｎｇｓｈａｇｕｉｚｏｎｇｍａｏｙｉ　ｙｏｕｘｉａｎｇｏｎｇｓｉ,,外国会社等,,,,,,,,Ｎｏ．１０６－３５１　ＳｔｅｉｇｅｎｂｅｒｇｅｒＩｃｏｎｓＨｏｔｅｌ　Ｎｏ．３ＸｕｅｙｕａｎＲｏａｄ　ＨｕａｎｇｘｉｎｇＴｏｗｎ　ＣｈａｎｇｓｈａＡｒｅａＣｏｎｖｅｎｔｉｏｎａｎｄＥｘｈｉｂｉｔｉｏｎＡｒｅａ　Ｃｈｉｎａ（Ｈｕｎａｎ）ＰｉｌｏｔＦｒｅｅＴｒａｄｅＺｏｎｅ,,,,,,2024-02-05,1,,,,,チャンサグイゾンマオイユウゲンコウシ,0
1361,5700150123797,新規,0,2024-02-05,2024-02-05,ｓｈｅｎｚｈｅｎｓｈｉｄｉｓｈａｎｇｙｉｄｉａｎｚｉｋｅｊｉ　ｙｏｕｘｉａｎｇｏｎｇｓｉ,,外国会社等,,,,,,,,ｓｈｅｎｚｈｅｎｓｈｉｇｕａｎｇｍｉｎｇｘｉｎｑｕ　ｙｕｔａｎｇｊｉｅｄａｏ　ｙｕｌｖｓｈｅｑｕ　ｙｕｘｉｎｇｌｕ　６３ｈａｏ　ｈｅｎｇｈｕｉｋｅｊｉｙｕａｎ　５ｄｏｎｇ３ｌｏｕ,,,,,,2024-02-05,1,,,,,シンセンシディシャンイデンシカギユウゲンコウシ,0
1365,6010001242031,新規,0,2024-02-05,2024-02-05,Ｄｉａｍｏｎｄ　Ｂａｔｔｅｒｙ　Ｍａｎａｇｅｍｅｎｔ株式会社,,株式会社,東京都,千代田区,丸の内２丁目３番１号,,13,101,1000005,,,,,,,2024-02-05,1,,,,,ダイヤモンドバッテリーマネジメント,0
1366,6010001242056,新規,0,2024-02-05,2024-02-05,あたらしいせんきょ株式会社,,株式会社,東京都,千代田区,丸の内１丁目８－２鉄鋼ビルディング４Ｆ,,13,101,1000005,,,,,,,2024-02-05,1,,,,,アタラシイセンキョ,0
1369,6010003042842,新規,0,2024-02-05,2024-02-05,ＥＣ合同会社,,合同会社,東京都,千代田区,丸の内１丁目１１－１パシフィックセンチュリープレイス丸の内１３階,,13,101,1000005,,,,,,,2024-02-05,1,,,,,イーシー,0
1374,6010401180178,新規,0,2024-02-05,2024-02-05,株式会社ＩＡＮＡ,,株式会社,東京都,港区,白金１丁目２番１－１１０１号,,13,103,1080072,,,,,,,2024-02-05,1,,,,,アイアナ,0
1382,6010405022921,新規,0,2024-02-05,2024-02-05,一般社団法人ＥＳ太陽光,,その他の設立登記法人,東京都,港区,六本木６丁目１０番１号六本木ヒルズ森タワー１５ＦＣＩＲＣＬＥｂｙＡＮＲＩ内,,13,103,1060032,,,,,,,2024-02-05,1,,,,,イーエスタイヨウコウ,0
1389,6010601064585,新規,0,2024-02-05,2024-02-05,株式会社ＧＲＡＮＤＤＡＤ,,株式会社,東京都,墨田区,菊川３丁目１４番２号,,13,107,1300024,,,,,,,2024-02-05,1,,,,,グランダッド,0
1392,6010701045510,新規,0,2024-02-05,2024-02-05,株式会社世界,,株式会社,東京都,品川区,二葉４丁目７番８号ミリアレジデンス品川中延４０８,,13,109,1420043,,,,,,,2024-02-05,1,,,,,セカイ,0
1397,6010901054674,新規,0,2024-02-05,2024-02-05,ｅｍｂｌｅｍ株式会社,,株式会社,東京都,世田谷区,太子堂３丁目３６番１－７１１号,,13,112,1540004,,,,,,,2024-02-05,1,,,,,エンブレム,0
1403,6011001159793,新規,0,2024-02-05,2024-02-05,株式会社ＶＡＬＵＥ　ＣＲＥＡＴＩＯＮ　ＬＡＢ,,株式会社,東京都,目黒区,中目黒１丁目１番２６号,,13,110,1530061,,,,,,,2024-02-05,1,,,,,バリュークリエーションラボ,0
1414,6011101106068,新規,0,2024-02-05,2024-02-05,株式会社プルミエソレイユ,,株式会社,東京都,新宿区,西新宿１丁目４番１１号,,13,104,1600023,,,,,,,2024-02-05,1,,,,,プルミエソレイユ,0
1416,6011105010935,新規,0,2024-02-05,2024-02-05,一般社団法人ミライノタメニ,,その他の設立登記法人,東京都,新宿区,下落合３丁目３番５－１２０２号,,13,104,1610033,,,,,,,2024-02-05,1,,,,,ミライノタメニ,0
1429,6012801022950,新規,0,2024-02-05,2024-02-05,株式会社ｌｉｌｙ,,株式会社,東京都,立川市,柴崎町２丁目６番５号青木ビル２０３,,13,202,1900023,,,,,,,2024-02-05,1,,,,,リリィ,0
1431,6013301052026,新規,0,2024-02-05,2024-02-05,株式会社トラステッドファーマシー,,株式会社,東京都,豊島区,北大塚１丁目１９番２号バッカス大塚２階,,13,116,1700004,,,,,,,2024-02-05,1,,,,,トラステッドファーマシー,0
1444,6021001081385,新規,0,2024-02-05,2024-02-05,株式会社ｇｒａｙ　ｐａｒｋ,,株式会社,神奈川県,藤沢市,鵠沼海岸５丁目１番２２藤和鵠沼海岸ホームズ１０９号室,,14,205,2510037,,,,,,,2024-02-05,1,,,,,グレーパーク,0
1453,6030001158366,新規,0,2024-02-05,2024-02-05,潤発商事株式会社,,株式会社,埼玉県,南埼玉郡宮代町,字宮東６１２番地５,,11,442,3450803,,,,,,,2024-02-05,1,,,,,ジュンハツショウジ,0
1454,6030001158507,新規,0,2024-02-05,2024-02-05,株式会社Ａｉｒｆｅｅｄ,,株式会社,埼玉県,久喜市,上内１３４１番地８,,11,232,3400211,,,,,,,2024-02-05,1,,,,,エアフィード,0
1461,6030003023551,新規,0,2024-02-05,2024-02-05,ＫＺＡｃｔｉｏｎ合同会社,,合同会社,埼玉県,戸田市,中町２丁目１７番２５－６０８号,,11,224,3350012,,,,,,,2024-02-05,1,,,,,ケイゼットアクション,0
1462,6030003023568,新規,0,2024-02-05,2024-02-05,合同会社Ｈｉｎａｐｐｅ,,合同会社,埼玉県,行田市,桜町３丁目１３－１７,,11,206,3610022,,,,,,,2024-02-05,1,,,,,ヒナッペ,0
1468,6040001131966,新規,0,2024-02-05,2024-02-05,株式会社成田・ジェネラル・サポート,,株式会社,千葉県,成田市,古込字古込１番地１千葉県成田市成田国際空港第２駐車場ビル北棟１階Ｐ１０４８号室,,12,211,2860104,,,,,,,2024-02-05,1,,,,,ナリタジェネラルサポート,0
1469,6040001132048,新規,0,2024-02-05,2024-02-05,株式会社Ｙｏｕ＆Ｉ,,株式会社,千葉県,柏市,布施新町３丁目６番９号,,12,217,2770823,,,,,,,2024-02-05,1,,,,,ユーアンドアイ,0
1470,6040001132080,新規,0,2024-02-05,2024-02-05,株式会社銀座ビジネスサービス,,株式会社,千葉県,八千代市,ゆりのき台８丁目１３番地１５,,12,221,2760042,,,,,,,2024-02-05,1,,,,,ギンザビジネスサービス,0
1472,6060001036800,新規,0,2024-02-05,2024-02-05,住まいるホーム株式会社,,株式会社,栃木県,宇都宮市,江曽島町１２８３－１７,,09,201,3210102,,,,,,,2024-02-05,1,,,,,スマイルホーム,0
1477,6080003003128,新規,0,2024-02-05,2024-02-05,あとりえ駿府合同会社,,合同会社,静岡県,静岡市葵区,七間町７－８セブンセンタービル２Ｆ,,22,101,4200035,,,,,,,2024-02-05,1,,,,,アトリエスンプ,0
1488,6100003007381,新規,0,2024-02-05,2024-02-05,合同会社ＷＯＯＤ　ＬＡＮＤ,,合同会社,長野県,茅野市,ちの３０７２－１、１Ｆ,,20,214,3910001,,,,,,,2024-02-05,1,,,,,ウッドランド,0
1491,6110001038155,新規,0,2024-02-05,2024-02-05,株式会社Ｈ＆Ｄ,,株式会社,新潟県,妙高市,大字猪野山５５番地１６,,15,217,9440075,,,,,,,2024-02-05,1,,,,,エイチアンドディー,0
1501,6120001261953,新規,0,2024-02-05,2024-02-05,Ｓｕｐｅｒ　Ｉｎｔｅｒａｃｔｉｃａ株式会社,,株式会社,大阪府,大阪市城東区,野江３丁目２７－７野江１番館３０２号室,,27,118,5360006,,,,,,,2024-02-05,1,,,,,スーパーインターラクティカー,0
1503,6120003025803,新規,0,2024-02-05,2024-02-05,合同会社Ｌｉｅｆ,,合同会社,大阪府,大阪市中央区,高津２丁目１番７－２０４号,,27,128,5420072,,,,,,,2024-02-05,1,,,,,リエーフ,0
1506,6120101069000,新規,0,2024-02-05,2024-02-05,株式会社イチゼロヨン,,株式会社,大阪府,堺市北区,新金岡町１丁３番３３号,,27,146,5918021,,,,,,,2024-02-05,1,,,,,イチゼロヨン,0
1508,6120901048731,新規,0,2024-02-05,2024-02-05,株式会社ＨＳＡＣ,,株式会社,大阪府,吹田市,津雲台５丁目１１－３グローバルビレッジ津雲台つくもスクエア２階,,27,205,5650862,,,,,,,2024-02-05,1,,,,,エイチエスエイシー,0
1509,6130001076277,新規,0,2024-02-05,2024-02-05,つみき株式会社,,株式会社,京都府,京都市左京区,下鴨東塚本町８番地１,00133626,26,103,6060000,,,,,,,2024-02-05,1,,,,,ツミキ,0
1510,6130001076293,新規,0,2024-02-05,2024-02-05,株式会社奥運送,,株式会社,京都府,相楽郡和束町,大字中小字上山２８番地,,26,365,6191205,,,,,,,2024-02-05,1,,,,,オクウンソウ,0
1519,6140001133184,新規,0,2024-02-05,2024-02-05,西宮コネクトパーク株式会社,,株式会社,兵庫県,西宮市,六湛寺町９番１６号,,28,204,6620918,,,,,,,2024-02-05,1,,,,,ニシノミヤコネクトパーク,0
1520,6140001133192,新規,0,2024-02-05,2024-02-05,株式会社ＴＡＯ不動産,,株式会社,兵庫県,西宮市,南越木岩町２番２４号,,28,204,6620075,,,,,,,2024-02-05,1,,,,,タオフドウサン,0
1523,6140005026938,新規,0,2024-02-05,2024-02-05,一般社団法人神戸大学フードコミュニティ,,その他の設立登記法人,兵庫県,神戸市灘区,六甲台町１番１号,,28,102,6570013,,,,,,,2024-02-05,1,,,,,コウベダイガクフードコミュニティ,0
1524,6150003003178,新規,0,2024-02-05,2024-02-05,合同会社Ｐａｓｔ　ａｎｄ　Ｆｕｔｕｒｅ,,合同会社,奈良県,奈良市,高天市町１４,,29,201,6308238,,,,,,,2024-02-05,1,,,,,パストアンドフューチャー,0
1525,6150005009553,新規,0,2024-02-05,2024-02-05,一般社団法人みらい政策研究所,,その他の設立登記法人,奈良県,磯城郡田原本町,大字鍵１１５番地の２,,29,363,6360223,,,,,,,2024-02-05,1,,,,,ミライセイサクケンキュウジョ,0
1530,6180001160043,新規,0,2024-02-05,2024-02-05,サンカントコーポレーション株式会社,,株式会社,愛知県,名古屋市千種区,城木町３丁目２８番地の３,,23,101,4640846,,,,,,,2024-02-05,1,,,,,サンカントコーポレーション,0
1531,6180001160084,新規,0,2024-02-05,2024-02-05,株式会社ＮＯＡＨ,,株式会社,愛知県,名古屋市中区,松原３丁目７番９号,,23,106,4600017,,,,,,,2024-02-05,1,,,,,ノア,0
1537,6180003026309,新規,0,2024-02-05,2024-02-05,Ｚｅｒｏスタート合同会社,,合同会社,愛知県,名古屋市中川区,元中野町３丁目１１１番地,,23,110,4540048,,,,,,,2024-02-05,1,,,,,ゼロスタート,0
1538,6180005020508,新規,0,2024-02-05,2024-02-05,オーバーエックス司法書士法人,,その他の設立登記法人,愛知県,名古屋市中区,錦２丁目１６番８号,,23,106,4600003,,,,,,,2024-02-05,1,,,,,オーバーエックス,0
1541,6180303005994,新規,0,2024-02-05,2024-02-05,合同会社ハートフォレストランド,,合同会社,愛知県,岡崎市,青木町１番地５,,23,202,4442131,,,,,,,2024-02-05,1,,,,,ハートフォレストランド,0
1547,6200003006225,新規,0,2024-02-05,2024-02-05,合同会社円と縁,,合同会社,岐阜県,可児市,広見２０６４番地１,,21,214,5090214,,,,,,,2024-02-05,1,,,,,エントエン,0
1549,6220001025811,新規,0,2024-02-05,2024-02-05,１Ｂｅｓｔ株式会社,,株式会社,石川県,金沢市,松島２丁目９２番地,,17,201,9200364,,,,,,,2024-02-05,1,,,,,ワンベスト,0
1551,6220003003666,新規,0,2024-02-05,2024-02-05,合同会社Ｖ,,合同会社,石川県,金沢市,片町２丁目１３番１１号・４０３号室,,17,201,9200981,,,,,,,2024-02-05,1,,,,,ブイ,0
1553,6220005008804,新規,0,2024-02-05,2024-02-05,税理士法人宮西会計,,その他の設立登記法人,石川県,白山市,馬場２丁目１９番地,,17,210,9240864,,,,,,,2024-02-05,1,,,,,ミヤニシカイケイ,0
1557,6240001062745,新規,0,2024-02-05,2024-02-05,富士株式会社,,株式会社,広島県,呉市,広白岳２丁目４番２１号１号棟,,34,202,7370144,,,,,,,2024-02-05,1,,,,,フジ,0
1558,6240001062753,新規,0,2024-02-05,2024-02-05,株式会社ＢＬＥＳＳ　ＲＥ　ＨＯＭＥ,,株式会社,広島県,三次市,東酒屋町５２８番地４,,34,209,7280023,,,,,,,2024-02-05,1,,,,,ブレスリホーム,0
1559,6240003006519,新規,0,2024-02-05,2024-02-05,ＴＯＭＯＳＥ合同会社,,合同会社,広島県,福山市,東明王台８－２１,,34,207,7200839,,,,,,,2024-02-05,1,,,,,トモセ,0
1560,6250001020504,新規,0,2024-02-05,2024-02-05,株式会社青龍の会,,株式会社,山口県,下関市,豊浦町大字黒井２８６６番地１,,35,201,7596312,,,,,,,2024-02-05,1,,,,,セイリュウノカイ,0
1562,6260001038735,新規,0,2024-02-05,2024-02-05,則枝設備株式会社,,株式会社,岡山県,岡山市北区,十日市西町１３番１８号エクセラントロジュマン２０１,,33,101,7000856,,,,,,,2024-02-05,1,,,,,ノリエダセツビ,0
1563,6260003004561,新規,0,2024-02-05,2024-02-05,合同会社トラスト,,合同会社,岡山県,岡山市南区,妹尾３５１５番地,,33,104,7010205,,,,,,,2024-02-05,1,,,,,トラスト,0
1571,6290001104583,新規,0,2024-02-05,2024-02-05,株式会社クローバー,,株式会社,福岡県,福岡市博多区,下呉服町６番２６号,,40,132,8120034,,,,,,,2024-02-05,1,,,,,クローバー,0
1572,6290001104617,新規,0,2024-02-05,2024-02-05,株式会社Ｆ‐Ｎｏｔｅｓ,,株式会社,福岡県,福岡市早良区,祖原２６番１１号,,40,137,8140005,,,,,,,2024-02-05,1,,,,,エフノーツ,0
1573,6290003014938,新規,0,2024-02-05,2024-02-05,こりのとの合同会社,,合同会社,福岡県,嘉麻市,牛隈１８８４番地２,,40,227,8200301,,,,,,,2024-02-05,1,,,,,コリノトノ,0
1574,6290801030277,新規,0,2024-02-05,2024-02-05,コストパフォーマンスジャパン株式会社,,株式会社,福岡県,北九州市八幡西区,青山３丁目９番２４号,,40,109,8060043,,,,,,,2024-02-05,1,,,,,コストパフォーマンスジャパン,0
1578,6330001031716,新規,0,2024-02-05,2024-02-05,株式会社Ｍａｋｅ,,株式会社,熊本県,熊本市東区,月出４丁目４番１０８号グッドライフ月出１０２号,,43,102,8620920,,,,,,,2024-02-05,1,,,,,メイク,0
1582,6330003010197,新規,0,2024-02-05,2024-02-05,合同会社カワカミ,,合同会社,熊本県,菊池市,隈府５００番地１２,,43,210,8611331,,,,,,,2024-02-05,1,,,,,カワカミ,0
1589,6360001033164,新規,0,2024-02-05,2024-02-05,株式会社ＵＭＵＩＥ,,株式会社,沖縄県,うるま市,字西原６９２番地５,,47,213,9042204,,,,,,,2024-02-05,1,,,,,ウムイエ,0
1592,6370001050893,新規,0,2024-02-05,2024-02-05,株式会社ジリリタ,,株式会社,宮城県,仙台市太白区,大谷地１番３９－１０１号,,04,104,9820035,,,,,,,2024-02-05,1,,,,,ジリリタ,0
1609,6430001090999,新規,0,2024-02-05,2024-02-05,株式会社ｉ‐ＴＡＫ,,株式会社,北海道,三笠市,幾春別町２丁目１２２番地,,01,222,0682116,,,,,,,2024-02-05,1,,,,,アイタック,0
1610,6430001091007,新規,0,2024-02-05,2024-02-05,株式会社Ｋａｋｉｍｏｔｏ,,株式会社,北海道,札幌市中央区,南六条西２４丁目１番３７－５０３号,,01,101,0640806,,,,,,,2024-02-05,1,,,,,カキモト,0
1615,6450003002439,新規,0,2024-02-05,2024-02-05,ユキウミ合同会社,,合同会社,北海道,富良野市,１１５２９番地２,,01,229,0760000,,,,,,,2024-02-05,1,,,,,,0
1617,6480001012379,新規,0,2024-02-05,2024-02-05,株式会社ＫＩＨＡＬ,,株式会社,徳島県,阿南市,椿町尻杭６８番地,,36,204,7791750,,,,,,,2024-02-05,1,,,,,キハル,0
1622,6700150102825,新規,0,2024-02-05,2021-04-15,日本語学会,,その他,東京都,新宿区,山吹町３５８－５アカデミーセンター（株式会社国際文献社内）,,13,104,1620801,,,,,,,2021-04-15,1,,,,,ニホンゴガツカイ,0
1623,6700150123788,新規,0,2024-02-05,2024-02-05,ｓａｎｌｉ（ｘｉａｍｅｎ）ｑｉｃｈｅｐｅｉｊｉａｎ　ｙｏｕｘｉａｎｇｏｎｇｓｉ,,外国会社等,,,,,,,,ｘｉａｍｅｎｓｈｉｊｉｍｅｉｑｕｇｕａｎｋｏｕｚｈｅｎｊｉｍｅｉｂｅｉｄａｄａｏ５１９ｈａｏｙｉｈａｏｃｈａｎｇｑｕＡｃｈａｎｇｆａｎｇ,,,,,,2024-02-05,1,,,,,サンリアモイチチェペイジェンユウゲンコウシ,0
1624,6700150123796,新規,0,2024-02-05,2024-02-05,Ｓｈｅｎｚｈｅｎｓｈｉｘｉｚａｏｋｅｊｉ　ｙｏｕｘｉａｎｇｏｎｇｓｉ,,外国会社等,,,,,,,,Ｓｈｅｎｚｈｅｎｓｈｉ　ｆｕｔｉａｎｑｕ　ｌｉａｎｈｕａｊｉｅｄａｏｆｕｚｈｏｎｇｓｈｅｑｕｃａｉｔｉａｎｌｕ５０１５ｈａｏｚｈｏｎｇｙｉｎｄａｓｈａＡ、ＢｚｕｏＡｚｕｏ１８ｃｅｎｇ１８３９　ＣＮ,,,,,,2024-02-05,1,,,,,シンセンシシザオカギユウゲンコウシ,0
1627,7010001242022,新規,0,2024-02-05,2024-02-05,株式会社ＮＴＴドコモ損保持株設立準備,,株式会社,東京都,千代田区,永田町２丁目１１番１号,,13,101,1000014,,,,,,,2024-02-05,1,,,,,エヌティティドコモソンポモチカブセツリツジュンビ,0
1628,7010001242030,新規,0,2024-02-05,2024-02-05,Ｄｉａｍｏｎｄ　Ｂａｔｔｅｒｙ　Ｈｏｌｄｉｎｇｓ株式会社,,株式会社,東京都,千代田区,丸の内２丁目３番１号,,13,101,1000005,,,,,,,2024-02-05,1,,,,,ダイヤモンドバッテリーホールディングス,0
1630,7010003042858,新規,0,2024-02-05,2024-02-05,ｏｎｅ　ａｓｓｅｔ　ｍａｎａｇｅｍｅｎｔ合同会社,,合同会社,東京都,中央区,勝どき４丁目７番７－３０７号,,13,102,1040054,,,,,,,2024-02-05,1,,,,,ワンアセットマネジメント,0
1632,7010005037848,新規,0,2024-02-05,2024-02-05,一般社団法人銀河第８号,,その他の設立登記法人,東京都,中央区,日本橋１丁目４番１号日本橋一丁目ビルディング,,13,102,1030027,,,,,,,2024-02-05,1,,,,,ギンガダイハチゴウ,0
1637,7010401180152,新規,0,2024-02-05,2024-02-05,株式会社マピタル２,,株式会社,東京都,港区,芝２丁目５番６号,,13,103,1050014,,,,,,,2024-02-05,1,,,,,マピタルツー,0
1638,7010401180160,新規,0,2024-02-05,2024-02-05,株式会社ＭＲＣ　ＴＯＫＹＯ,,株式会社,東京都,港区,三田５丁目１０－２はつせ三田２０１,,13,103,1080073,,,,,,,2024-02-05,1,,,,,エムアールシートーキョー,0
1639,7010401180202,新規,0,2024-02-05,2024-02-05,ワタップ・ジャパン株式会社,,株式会社,東京都,港区,西新橋１丁目１番１号日比谷ＦＯＲＴＴＯＷＥＲ１０Ｆ,,13,103,1050003,,,,,,,2024-02-05,1,,,,,ワタップジャパン,0
1640,7010401180227,新規,0,2024-02-05,2024-02-05,トリニティ・アセットクリエイト株式会社,,株式会社,東京都,港区,新橋２丁目１－１山口ビルディング１階,,13,103,1050004,,,,,,,2024-02-05,1,,,,,トリニティアセットクリエイト,0
1651,7010601064584,新規,0,2024-02-05,2024-02-05,楽瀛株式会社,,株式会社,東京都,墨田区,東向島１丁目１３番１７号,,13,107,1310032,,,,,,,2024-02-05,1,,,,,ラクエイ,0
1655,7010801034759,新規,0,2024-02-05,2024-02-05,株式会社ａｔ．ＡＩ,,株式会社,東京都,大田区,千鳥１丁目２番３１号,,13,111,1460083,,,,,,,2024-02-05,1,,,,,アットエーアイ,0
1663,7011001159792,新規,0,2024-02-05,2024-02-05,株式会社ＣｏｃｏＲｏｏｔｓ,,株式会社,東京都,目黒区,下目黒１丁目１番１４号コノトラビル７Ｆ,,13,110,1530064,,,,,,,2024-02-05,1,,,,,ココルーツ,0
1669,7011003018419,新規,0,2024-02-05,2024-02-05,ニュートラルコンサルティング合同会社,,合同会社,東京都,目黒区,上目黒２丁目３１－２２,,13,110,1530051,,,,,,,2024-02-05,1,,,,,ニュートラルコンサルティング,0
1670,7011003018435,新規,0,2024-02-05,2024-02-05,合同会社然美人,,合同会社,東京都,渋谷区,道玄坂１丁目１０番８号渋谷道玄坂東急ビル２Ｆ－Ｃ,,13,113,1500043,,,,,,,2024-02-05,1,,,,,サビト,0
1677,7011201025225,新規,0,2024-02-05,2024-02-05,株式会社ＳｅｅＭｅデータラボ,,株式会社,東京都,中野区,中野２丁目１９－２リードシー中野ビル３Ｆ,,13,114,1640001,,,,,,,2024-02-05,1,,,,,シーミーデータラボ,0
1680,7011803006077,新規,0,2024-02-05,2024-02-05,ｍｕｌｌｏｖｅｒ　ｐａｒｔｎｅｒｓ合同会社,,合同会社,東京都,葛飾区,東立石３丁目３１番１０号,,13,122,1240013,,,,,,,2024-02-05,1,,,,,ムローバーパートナーズ,0
1685,7012701018065,新規,0,2024-02-05,2024-02-05,株式会社ＰＡＤＯＵ,,株式会社,東京都,西東京市,ひばりが丘北３丁目３番１４号正育堂ビル２Ｆ,,13,229,2020002,,,,,,,2024-02-05,1,,,,,パドゥー,0
1691,7013301052033,新規,0,2024-02-05,2024-02-05,栄泰箱根不動産株式会社,,株式会社,東京都,豊島区,池袋２丁目６６－２小林ビル２階,,13,116,1710014,,,,,,,2024-02-05,1,,,,,エイタイハコネフドウサン,0
1701,7020001155660,新規,0,2024-02-05,2024-02-05,株式会社スマートライフホールディングス,,株式会社,神奈川県,横浜市西区,高島１丁目２番５号,,14,103,2200011,,,,,,,2024-02-05,1,,,,,スマートライフホールディングス,0
1702,7020001155677,新規,0,2024-02-05,2024-02-05,株式会社ＴＫコーポレーション,,株式会社,神奈川県,横浜市南区,永田東２丁目９番７号,,14,105,2320072,,,,,,,2024-02-05,1,,,,,ティーケーコーポレーション,0
1705,7020003025498,新規,0,2024-02-05,2024-02-05,ＭｏｌＮａｖｉ合同会社,,合同会社,神奈川県,横浜市西区,浅間町１丁目４番３号ウィザードビル４０２,,14,103,2200072,,,,,,,2024-02-05,1,,,,,モルナビ,0
1708,7021001081368,新規,0,2024-02-05,2024-02-05,株式会社ｕｍｂｉｌｉｃａｌ,,株式会社,神奈川県,座間市,座間２丁目２７４６番地の５,,14,216,2520027,,,,,,,2024-02-05,1,,,,,アンビリカル,0
1709,7021001081384,新規,0,2024-02-05,2024-02-05,Ａｙａテック株式会社,,株式会社,神奈川県,綾瀬市,早川城山４丁目１７番２１号,,14,218,2521127,,,,,,,2024-02-05,1,,,,,アヤテック,0
1718,7030001158349,新規,0,2024-02-05,2024-02-05,ＮＡＤＬＥ株式会社,,株式会社,埼玉県,比企郡小川町,大字青山４７７番地１の２号棟１階１０２号室,,11,343,3550324,,,,,,,2024-02-05,1,,,,,ナーデル,0
1719,7030001158456,新規,0,2024-02-05,2024-02-05,株式会社Ｇ‐Ｔｒｕｓｔ,,株式会社,埼玉県,さいたま市桜区,栄和２丁目１３番１１号,,11,106,3380823,,,,,,,2024-02-05,1,,,,,ジートラスト,0
1720,7030001158464,新規,0,2024-02-05,2024-02-05,大華商事株式会社,,株式会社,埼玉県,上尾市,西宮下２丁目８２番地２上尾ハウス１－２０７,,11,219,3620043,,,,,,,2024-02-05,1,,,,,ダイカショウジ,0
1721,7030001158472,新規,0,2024-02-05,2024-02-05,笑宇株式会社,,株式会社,埼玉県,草加市,遊馬町１５２番地１５,,11,221,3400032,,,,,,,2024-02-05,1,,,,,,0
1722,7030001158480,新規,0,2024-02-05,2024-02-05,ＪＳＳ株式会社,,株式会社,埼玉県,川口市,川口５丁目９番３７号ＭＹＳＴ－Ｇ号,,11,203,3320015,,,,,,,2024-02-05,1,,,,,ジェイエスエス,0
1723,7030001158497,新規,0,2024-02-05,2024-02-05,株式会社ロビココ,,株式会社,埼玉県,越谷市,大字大泊３２－１,,11,222,3430044,,,,,,,2024-02-05,1,,,,,ロビココ,0
1728,7040001132014,新規,0,2024-02-05,2024-02-05,ラピケア株式会社,,株式会社,千葉県,旭市,ニ１２５４番地１,,12,215,2892504,,,,,,,2024-02-05,1,,,,,ラピケア,0
1729,7040001132030,新規,0,2024-02-05,2024-02-05,株式会社もふ・ヴィレッジ,,株式会社,千葉県,流山市,東初石３丁目１００番地の３９,,12,220,2700114,,,,,,,2024-02-05,1,,,,,モフヴィレッジ,0
1730,7040001132039,新規,0,2024-02-05,2024-02-05,株式会社オカザキ,,株式会社,千葉県,鎌ケ谷市,道野辺１０３０番地９（グリーンウッド２０５号）,,12,224,2730114,,,,,,,2024-02-05,1,,,,,オカザキ,0
1731,7040001132055,新規,0,2024-02-05,2024-02-05,ＬＩＧＡＲＥ株式会社,,株式会社,千葉県,千葉市中央区,都町２丁目３１番５号,,12,101,2600001,,,,,,,2024-02-05,1,,,,,リガーレ,0
1732,7040001132071,新規,0,2024-02-05,2024-02-05,株式会社Ｃｈｉｂａｒｉ,,株式会社,千葉県,袖ケ浦市,袖ケ浦駅前２丁目１４番地１４,,12,229,2990269,,,,,,,2024-02-05,1,,,,,チバリ,0
1737,7040003024267,新規,0,2024-02-05,2024-02-05,合同会社ＡＲＩＡ,,合同会社,千葉県,市川市,南行徳２丁目５番５号南行徳２丁目テラスハウス１０１,,12,203,2720138,,,,,,,2024-02-05,1,,,,,アリア,0
1738,7040003024283,新規,0,2024-02-05,2024-02-05,合同会社ＵＰ,,合同会社,千葉県,千葉市花見川区,幕張本郷１丁目９番１２－３０１号,,12,102,2620033,,,,,,,2024-02-05,1,,,,,アップ,0
1743,7050003008112,新規,0,2024-02-05,2024-02-05,合同会社心心福,,合同会社,茨城県,猿島郡境町,１４５２－１７,,08,546,3060433,,,,,,,2024-02-05,1,,,,,ココフク,0
1746,7060001036790,新規,0,2024-02-05,2024-02-05,株式会社ランドマスター,,株式会社,栃木県,佐野市,浅沼町５６７番地７,,09,204,3270831,,,,,,,2024-02-05,1,,,,,ランドマスター,0
1747,7060001036799,新規,0,2024-02-05,2024-02-05,ＭＴＳ株式会社,,株式会社,栃木県,足利市,小俣南町５番地５,,09,202,3260142,,,,,,,2024-02-05,1,,,,,エムティエス,0
1749,7080001026113,新規,0,2024-02-05,2024-02-05,日軽機株式会社,,株式会社,静岡県,牧之原市,坂口２８５６番地３,,22,226,4210411,,,,,,,2024-02-05,1,,,,,ニッケイキ,0
1750,7080003003127,新規,0,2024-02-05,2024-02-05,合同会社ヨッツが酒を売るタバコも売る,,合同会社,静岡県,静岡市駿河区,高松２丁目２３番１４号,,22,102,4228034,,,,,,,2024-02-05,1,,,,,ヨッツガサケヲウルタバコモウル,0
1754,7080401026984,新規,0,2024-02-05,2024-02-05,株式会社Ｆｅａｔｈｅｒ,,株式会社,静岡県,浜松市中央区,湖東町１０３９番地の１６,,22,138,4311103,,,,,,,2024-02-05,1,,,,,フェザー,0
1756,7090003002490,新規,0,2024-02-05,2024-02-05,スマイルペイント合同会社,,合同会社,山梨県,大月市,初狩町中初狩２５５番地１,,19,206,4010022,,,,,,,2024-02-05,1,,,,,スマイルペイント,0
1757,7110001038154,新規,0,2024-02-05,2024-02-05,株式会社Ｊ　ＦＡＣＴＯＲＹ,,株式会社,新潟県,新潟市東区,逢谷内３丁目５３７番地１,,15,102,9500814,,,,,,,2024-02-05,1,,,,,ジェイファクトリー,0
1770,7120001261903,新規,0,2024-02-05,2024-02-05,株式会社メディタレント,,株式会社,大阪府,大阪市北区,梅田１丁目２番２号大阪駅前第２ビル１２－１２,,27,127,5300001,,,,,,,2024-02-05,1,,,,,メディタレント,0
1771,7120001261952,新規,0,2024-02-05,2024-02-05,Ｗｏｒｌｄ　Ｅｘｐｏ　Ｅｘｈｉｂｉｔｉｏｎ　Ａｓｓｏｃｉａｔｉｏｎ株式会社,,株式会社,大阪府,大阪市住之江区,南港北１丁目５－１０２ＩＴＭ棟５階Ｌ－３,,27,125,5590034,,,,,,,2024-02-05,1,,,,,ワールドエキスポエクスポジションアソーシエイション,0
1773,7120003025843,新規,0,2024-02-05,2024-02-05,合同会社Ａ‐ｓｔｙｌｅ　ｐｌｕｓ,,合同会社,大阪府,大阪市北区,梅田１丁目２番２号大阪駅前第２ビル１２－１２,,27,127,5300001,,,,,,,2024-02-05,1,,,,,エースタイルプラス,0
1774,7120003025851,新規,0,2024-02-05,2024-02-05,ドリアイイノベーション合同会社,,合同会社,大阪府,大阪市中央区,北久宝寺町３丁目６番１号本町南ガーデンシティ７Ｆ,,27,128,5410057,,,,,,,2024-02-05,1,,,,,ドリアイイノベーション,0
1782,7120901048714,新規,0,2024-02-05,2024-02-05,Ｕｇｅｎ株式会社,,株式会社,大阪府,吹田市,江坂町２丁目６－１０－３０８号,,27,205,5640063,,,,,,,2024-02-05,1,,,,,ウゲン,0
1786,7130001076276,新規,0,2024-02-05,2024-02-05,株式会社ワールドエレガンス,,株式会社,京都府,福知山市,駅南町２丁目１９５番地,,26,201,6200940,,,,,,,2024-02-05,1,,,,,ワールドエレガンス,0
1788,7130003009283,新規,0,2024-02-05,2024-02-05,合同会社エイト,,合同会社,京都府,京都市伏見区,石田桜木１１－２１ヴィラ伏見１－Ｅ,,26,109,6011435,,,,,,,2024-02-05,1,,,,,エイト,0
1793,7140001133183,新規,0,2024-02-05,2024-02-05,株式会社ＳＵＡＡＮＡ,,株式会社,兵庫県,加古郡稲美町,六分一１１７８番地の５４１,,28,381,6751112,,,,,,,2024-02-05,1,,,,,スワナ,0
1794,7140001133191,新規,0,2024-02-05,2024-02-05,株式会社ハイラックコーポレーション,,株式会社,兵庫県,三田市,弥生が丘５丁目４番地９,,28,219,6691546,,,,,,,2024-02-05,1,,,,,ハイラックコーポレーション,0
1797,7140003019991,新規,0,2024-02-05,2024-02-05,合同会社ウィングプロダクション,,合同会社,兵庫県,神戸市東灘区,田中町１丁目６－１１毛利ビル３階,,28,101,6580081,,,,,,,2024-02-05,1,,,,,,0
1800,7160001025668,新規,0,2024-02-05,2024-02-05,株式会社Ｓｅｅ,,株式会社,滋賀県,草津市,野路東４丁目１９－１０－１２,,25,206,5250058,,,,,,,2024-02-05,1,,,,,シー,0
1802,7160003003110,新規,0,2024-02-05,2024-02-05,合同会社ｆｒｙｉｎｇ　ｋｉｄｓ,,合同会社,滋賀県,大津市,大萱１丁目１３番１４号,,25,201,5202144,,,,,,,2024-02-05,1,,,,,フライングキッズ,0
1803,7170001017994,新規,0,2024-02-05,2024-02-05,トヨタＣＷ和歌山ホールディングス株式会社,,株式会社,和歌山県,和歌山市,和歌浦西１丁目１番７号,,30,201,6410024,,,,,,,2024-02-05,1,,,,,トヨタシーダブリューワカヤマホールディングス,0
1811,7180001160018,新規,0,2024-02-05,2024-02-05,株式会社ＧＲＩＮ　ＯＣＥＡＮ,,株式会社,愛知県,名古屋市緑区,大高町字中屋敷４７番地,,23,114,4598001,,,,,,,2024-02-05,1,,,,,グリンオーシャン,0
1812,7180001160075,新規,0,2024-02-05,2024-02-05,株式会社ＡＢＣ,,株式会社,愛知県,津島市,神守町字東浦６６番地２,,23,208,4960005,,,,,,,2024-02-05,1,,,,,エービーシー,0
1814,7180003026324,新規,0,2024-02-05,2024-02-05,合同会社アンリミテッドブレイブ,,合同会社,愛知県,長久手市,蟹原４０５番地ベルハイツ司６－Ｄ,,23,238,4801142,,,,,,,2024-02-05,1,,,,,アンリミテッドブレイブ,0
1820,7180303005993,新規,0,2024-02-05,2024-02-05,合同会社ＰＬＡＮＥＴ,,合同会社,愛知県,安城市,御幸本町１１－２７第二大嶽ビル４０５,,23,212,4460032,,,,,,,2024-02-05,1,,,,,プラネット,0
1822,7200001042130,新規,0,2024-02-05,2024-02-05,中部国際建築株式会社,,株式会社,岐阜県,不破郡垂井町,２３８２番地の５,,21,361,5032121,,,,,,,2024-02-05,1,,,,,チュウブコクサイケンチク,0
1825,7220003003665,新規,0,2024-02-05,2024-02-05,合同会社ＢＤＳ,,合同会社,石川県,輪島市,堀町参字３１番地８,,17,204,9280062,,,,,,,2024-02-05,1,,,,,ビーディーエス,0
1827,7230003002146,新規,0,2024-02-05,2024-02-05,楊記合同会社,,合同会社,富山県,富山市,五福３７３４番地３,,16,201,9300887,,,,,,,2024-02-05,1,,,,,ヨウキ,0
1831,7250003003431,新規,0,2024-02-05,2024-02-05,合同会社フィールド,,合同会社,山口県,山口市,佐山１７９９番地,,35,203,7540894,,,,,,,2024-02-05,1,,,,,フィールド,0
1832,7260001038734,新規,0,2024-02-05,2024-02-05,Ｆｕｒｉｏｕｓ株式会社,,株式会社,岡山県,倉敷市,児島下の町５丁目１－５０,,33,202,7110906,,,,,,,2024-02-05,1,,,,,フューリアス,0
1836,7260003004560,新規,0,2024-02-05,2024-02-05,合同会社住,,合同会社,岡山県,英田郡西粟倉村,大字影石１４５８番地,,33,643,7070503,,,,,,,2024-02-05,1,,,,,スム,0
1837,7280001009114,新規,0,2024-02-05,2024-02-05,かりゆし商店株式会社,,株式会社,島根県,鹿足郡吉賀町,六日市２２１番地１,,32,505,6995513,,,,,,,2024-02-05,1,,,,,カリユシショウテン,0
1839,7280003001812,新規,0,2024-02-05,2024-02-05,合同会社マジカル・マッキー,,合同会社,島根県,安来市,黒井田町３１２番地（９街区１３画地）,,32,206,6920023,,,,,,,2024-02-05,1,,,,,マジカルマッキー,0
1850,7290001104558,新規,0,2024-02-05,2024-02-05,株式会社レアプランズ,,株式会社,福岡県,朝倉市,甘木１１５３番地５,,40,228,8380068,,,,,,,2024-02-05,1,,,,,レアプランズ,0
1851,7290001104582,新規,0,2024-02-05,2024-02-05,株式会社ＩＮＤＯＭＩＴＡＢＬＥ,,株式会社,福岡県,福岡市博多区,月隈２丁目６番３号ＹＫフラット,,40,132,8120858,,,,,,,2024-02-05,1,,,,,インドミタブル,0
1852,7290001104590,新規,0,2024-02-05,2024-02-05,株式会社Ｓ‐ＬＩＮＥ　ＨＯＭＥ,,株式会社,福岡県,福岡市東区,香椎照葉６丁目２番５２号,,40,131,8130017,,,,,,,2024-02-05,1,,,,,エスラインホーム,0
1853,7290001104599,新規,0,2024-02-05,2024-02-05,株式会社ＷＥＥＫＥＮＤｓ,,株式会社,福岡県,糟屋郡粕屋町,若宮２丁目１５番５号,,40,349,8112314,,,,,,,2024-02-05,1,,,,,ウイークエンド,0
1860,7290801030276,新規,0,2024-02-05,2024-02-05,株式会社匠物流,,株式会社,福岡県,北九州市門司区,新門司２丁目３番２号,,40,101,8000115,,,,,,,2024-02-05,1,,,,,タクミブツリュウ,0
1861,7290801030284,新規,0,2024-02-05,2024-02-05,ネクストネット株式会社,,株式会社,福岡県,北九州市若松区,ひびきの南２丁目１１番１７号,,40,103,8080137,,,,,,,2024-02-05,1,,,,,ネクストネット,0
1866,7320001020272,新規,0,2024-02-05,2024-02-05,ハウスソリューション株式会社,,株式会社,大分県,竹田市,大字竹田１２２０番地１,,44,208,8780013,,,,,,,2024-02-05,1,,,,,ハウスソリューション,0
1868,7340001026268,新規,0,2024-02-05,2024-02-05,株式会社Ｅｖｏｑｕｅ,,株式会社,鹿児島県,指宿市,湊４丁目４番９号,,46,210,8910405,,,,,,,2024-02-05,1,,,,,イヴォーク,0
1875,7360003013667,新規,0,2024-02-05,2024-02-05,合同会社南国青果,,合同会社,沖縄県,国頭郡東村,字宮城５７７－１,,47,303,9051202,,,,,,,2024-02-05,1,,,,,ナンゴクセイカ,0
1876,7360003013675,新規,0,2024-02-05,2024-02-05,合同会社ＴＯＰ　ＣＲＡＮＥ,,合同会社,沖縄県,うるま市,字赤道１１番地８－１Ｆ左,,47,213,9042245,,,,,,,2024-02-05,1,,,,,トップクレイン,0
1878,7370001050892,新規,0,2024-02-05,2024-02-05,株式会社スタイルテラス,,株式会社,宮城県,石巻市,美園１丁目６番地１７,,04,202,9860033,,,,,,,2024-02-05,1,,,,,スタイルテラス,0
1885,7390001017510,新規,0,2024-02-05,2024-02-05,大地総業株式会社,,株式会社,山形県,村山市,中央２丁目４番８号,,06,208,9950035,,,,,,,2024-02-05,1,,,,,オオチソウギョウ,0
1887,7400001016543,新規,0,2024-02-05,2024-02-05,株式会社味菜館,,株式会社,岩手県,九戸郡洋野町,阿子木第１８地割１５番地１,,03,507,0288803,,,,,,,2024-02-05,1,,,,,アジサイカン,0
1890,7400005008388,新規,0,2024-02-05,2024-02-05,一般社団法人くらしの研究室,,その他の設立登記法人,岩手県,紫波郡紫波町,日詰字東裏１３５番１,,03,321,0283305,,,,,,,2024-02-05,1,,,,,クラシノケンキュウシツ,0
1893,7430001091006,新規,0,2024-02-05,2024-02-05,株式会社ｉｄｅａ,,株式会社,北海道,札幌市北区,北六条西６丁目２番地３アストリアＮ６　１Ｆ,,01,102,0600806,,,,,,,2024-02-05,1,,,,,イデア,0
1894,7430001091030,新規,0,2024-02-05,2024-02-05,株式会社ライフィーズ,,株式会社,北海道,苫小牧市,木場町１丁目４番１２号ＴＣビル,,01,213,0530033,,,,,,,2024-02-05,1,,,,,ライフィーズ,0
1897,7430003015929,新規,0,2024-02-05,2024-02-05,合同会社清山匠,,合同会社,北海道,苫小牧市,春日町１丁目１番２号,,01,213,0530031,,,,,,,2024-02-05,1,,,,,セイザンショウ,0
1904,7480001012378,新規,0,2024-02-05,2024-02-05,株式会社佐野ハウス,,株式会社,徳島県,徳島市,川内町竹須賀１３４番地の１,,36,201,7710141,,,,,,,2024-02-05,1,,,,,サノハウス,0
1905,7490003001865,新規,0,2024-02-05,2024-02-05,ケアサービスいーの合同会社,,合同会社,高知県,吾川郡いの町,波川６６４番地１,,39,386,7812128,,,,,,,2024-02-05,1,,,,,ケアサービスイーノ,0
1909,7700150123779,新規,0,2024-02-05,2024-02-05,Ｄｏｎｇｇｕａｎｓｈｉｄｅｎｇｇａｏｄｉａｎｚｉ　ｙｏｕｘｉａｎｇｏｎｇｓｉ,,外国会社等,,,,,,,,ｓｈａｔｏｕｘｉｄａｌｕ１６ｈａｏ２ｈａｏｌｏｕ２０１ｓｈｉ　ｃｈａｎｇａｎｚｈｅｎ　ｄｏｎｇｇｕａｎｓｈｉ　ｇｕａｎｇｄｏｎｇｓｈｅｎｇ,,,,,,2024-02-05,1,,,,,トンカンシデンガオデンシユウゲンコウシ,0
1910,7700150123787,新規,0,2024-02-05,2024-02-05,ＳｕｚｈｏｕＡｏｆｅｉｓｉＫｅｊｉ　ＹｏｕｘｉａｎＧｏｎｇｓｉ,,外国会社等,,,,,,,,ｐｉｎｇｌｏｎｇｌｕ１００１ｈａｏｌｉａｎｓｈｉｄａｓｈａ（ｙｕａｎｐｉｎｇｊｉａｎｇｘｉｎｃｈｅｎｇｘｉａｎｄａｉｆｕｗｕｄａｓｈａ）６ｌｏｕ１８ｈａｏｇｏｎｇｗｅｉ（ｊｉｑｕｎｄｅｎｇｊｉ）ｓｕｚｈｏｕｓｈｉｇｕｓｕｑｕ,,,,,,2024-02-05,1,,,,,ソシュウアオフェイシカギユウゲンコウシ,0
1911,7700150123795,新規,0,2024-02-05,2024-02-05,Ｇｕａｎｇｚｈｏｕ　Ｒｅｍｏｔｅ　Ｔｅｃｈｎｏｌｏｇｙ　Ｃｏ．，Ｌｔｄ．,,外国会社等,,,,,,,,Ｔｉａｎｈｅｑｕｔｉａｎｈｅｂｅｉｌｕ６８９ｈａｏ１６１０－１６１１ｚｉｂｉａｎｚｈｉｙｉｇｕａｎｇｚｈｏｕｓｈｉｇｕａｎｇｄｏｎｇｓｈｅｎｇ　ＣＮ,,,,,,2024-02-05,1,,,,,コウシュウリモートテクノロジーカンパニーリミテッド,0
1919,8010001241824,新規,0,2024-02-05,2024-02-05,今和達通株式会社,,株式会社,東京都,千代田区,神田三崎町２丁目１０番１１号Ｐｅｇビル２Ａ－３部屋,,13,101,1010061,,,,,,,2024-02-05,1,,,,,コンワタッツウ,0
1920,8010001242013,新規,0,2024-02-05,2024-02-05,株式会社ＤＲＡＧＯＮ　ＦＯＵＮＴＡＩＮ,,株式会社,東京都,千代田区,内神田１丁目６番１０号,,13,101,1010047,,,,,,,2024-02-05,1,,,,,ドラゴンファウンテン,0
1921,8010003042857,新規,0,2024-02-05,2024-02-05,Ｔｈｅｌｉｏｓ　Ｊａｐａｎ合同会社,,合同会社,東京都,千代田区,隼町３番１６号,,13,101,1020092,,,,,,,2024-02-05,1,,,,,ティリオスジャパン,0
1936,8010403031880,新規,0,2024-02-05,2024-02-05,合同会社ＡＦＥ,,合同会社,東京都,港区,西新橋２丁目４番３号プロス西新橋ビル６階,,13,103,1050003,,,,,,,2024-02-05,1,,,,,エーエフイー,0
1941,8010601064583,新規,0,2024-02-05,2024-02-05,株式会社Ｋ＆Ｋ　ｓｏｌｕｔｉｏｎｓ,,株式会社,東京都,江東区,北砂４丁目３番１号,,13,108,1360073,,,,,,,2024-02-05,1,,,,,ケーアンドケーソリューションズ,0
1943,8010701045509,新規,0,2024-02-05,2024-02-05,株式会社ＮＫＴ,,株式会社,東京都,品川区,東品川１丁目６番２６号,,13,109,1400002,,,,,,,2024-02-05,1,,,,,エヌケーティー,0
1944,8010701045517,新規,0,2024-02-05,2024-02-05,株式会社Ｒｅｓｉｌｉｅｎｃｅ,,株式会社,東京都,品川区,西品川１丁目１番１号住友不動産大崎ガーデンタワー９階トンネル東京,,13,109,1410033,,,,,,,2024-02-05,1,,,,,レジリエンス,0
1946,8010801034758,新規,0,2024-02-05,2024-02-05,株式会社Ｑ‐ＦＩＴ資産管理法人,,株式会社,東京都,大田区,本羽田１丁目１９－１１,,13,111,1440044,,,,,,,2024-02-05,1,,,,,キューフィットシサンカンリホウジン,0
1951,8010901054664,新規,0,2024-02-05,2024-02-05,株式会社ジャッピーダイナー,,株式会社,東京都,世田谷区,桜丘２丁目１４番６号,,13,112,1560054,,,,,,,2024-02-05,1,,,,,ジャッピーダイナー,0
1952,8010903008800,新規,0,2024-02-05,2024-02-05,合同会社プレニフィエＹ’Ｓ,,合同会社,東京都,世田谷区,下馬４丁目１１番１２号,,13,112,1540002,,,,,,,2024-02-05,1,,,,,プレニフィエワイズ,0
1957,8011003018426,新規,0,2024-02-05,2024-02-05,Ｕｌｔｉｍａ　Ｗｏｒｋｓ合同会社,,合同会社,東京都,渋谷区,道玄坂１丁目１０番８号渋谷道玄坂東急ビル２Ｆ－Ｃ,,13,113,1500043,,,,,,,2024-02-05,1,,,,,アルティマワークス,0
1959,8011101106066,新規,0,2024-02-05,2024-02-05,株式会社ミクリナ,,株式会社,東京都,新宿区,西新宿３丁目２番７号,,13,104,1600023,,,,,,,2024-02-05,1,,,,,ミクリナ,0
1960,8011101106074,新規,0,2024-02-05,2024-02-05,株式会社Ｒ‐Ｋｒａｆｔ,,株式会社,東京都,新宿区,新宿６丁目６番６号シックス新宿１０２,,13,104,1600022,,,,,,,2024-02-05,1,,,,,アールクラフト,0
1961,8011101106090,新規,0,2024-02-05,2024-02-05,株式会社サードキャリア,,株式会社,東京都,新宿区,歌舞伎町２丁目９－１８ライオンズプラザ新宿１２０２,,13,104,1600021,,,,,,,2024-02-05,1,,,,,サードキャリア,0
1971,8011701026993,新規,0,2024-02-05,2024-02-05,株式会社ＹＳＤ,,株式会社,東京都,江戸川区,上篠崎２丁目２－１６,,13,123,1330054,,,,,,,2024-02-05,1,,,,,ワイエスディー,0
1974,8011801043740,新規,0,2024-02-05,2024-02-05,株式会社ＰＫ,,株式会社,東京都,葛飾区,立石８丁目４０番２号,,13,122,1240012,,,,,,,2024-02-05,1,,,,,ピーケー,0
1977,8011803006076,新規,0,2024-02-05,2024-02-05,アルカディア合同会社,,合同会社,東京都,足立区,舎人５丁目１３－２４プランドール松田２Ｆ,,13,121,1210831,,,,,,,2024-02-05,1,,,,,,0
1981,8012701018064,新規,0,2024-02-05,2024-02-05,株式会社Ｆｏｒｅｓｔ　Ｈｏｍｅｓ,,株式会社,東京都,東村山市,諏訪町１丁目３番地３８コーポ萩原３０１,,13,213,1890021,,,,,,,2024-02-05,1,,,,,フォレストホームズ,0
1984,8012803003303,新規,0,2024-02-05,2024-02-05,合同会社ＲｅＢｏｎｅ,,合同会社,東京都,国立市,中１丁目１８番地の３０国立スカイビル２０２,,13,215,1860004,,,,,,,2024-02-05,1,,,,,リボーン,0
1991,8020001155544,新規,0,2024-02-05,2024-02-05,株式会社ｕｎｃｏｏｌ,,株式会社,神奈川県,横浜市西区,浅間町１丁目４番３号ウィザードビル４０２,,14,103,2200072,,,,,,,2024-02-05,1,,,,,アンクール,0
1992,8020001155651,新規,0,2024-02-05,2024-02-05,株式会社ウチダフードサービス,,株式会社,神奈川県,横浜市旭区,二俣川２丁目６０番地３６,,14,112,2410821,,,,,,,2024-02-05,1,,,,,ウチダフードサービス,0
2002,8030001158414,新規,0,2024-02-05,2024-02-05,株式会社博源,,株式会社,埼玉県,さいたま市浦和区,高砂２丁目３－４パークヒルズ高砂３０８号室,,11,107,3300063,,,,,,,2024-02-05,1,,,,,ハクゲン,0
2003,8030001158447,新規,0,2024-02-05,2024-02-05,株式会社アークリンク,,株式会社,埼玉県,草加市,氷川町２１４９番地２０氷川町ストアーズ２０１号室,,11,221,3400034,,,,,,,2024-02-05,1,,,,,アークリンク,0
2004,8030001158463,新規,0,2024-02-05,2024-02-05,株式会社ＳＬＴサービス,,株式会社,埼玉県,さいたま市岩槻区,西町１丁目１番２６－１６０５号,,11,110,3390067,,,,,,,2024-02-05,1,,,,,エスエルティサービス,0
2005,8030001158471,新規,0,2024-02-05,2024-02-05,株式会社フウジン,,株式会社,埼玉県,八潮市,大字木曽根１１２５－１,,11,234,3400813,,,,,,,2024-02-05,1,,,,,フウジン,0
2006,8030001158496,新規,0,2024-02-05,2024-02-05,株式会社ＬＯＯＰ,,株式会社,埼玉県,越谷市,大字上間久里４１６番地２,,11,222,3430043,,,,,,,2024-02-05,1,,,,,ループ,0
2007,8030001158505,新規,0,2024-02-05,2024-02-05,株式会社Ｍａｎｏｒ　ｒｅｉｇｎ,,株式会社,埼玉県,さいたま市大宮区,三橋４丁目６８９番地２,,11,103,3300856,,,,,,,2024-02-05,1,,,,,メイナーレイン,0
2010,8030005021551,新規,0,2024-02-05,2024-02-05,一般社団法人埼玉県舞踊協会,,その他の設立登記法人,埼玉県,さいたま市浦和区,東仲町１－１６鳥昇ビル３Ｆ,,11,107,3300056,,,,,,,2024-02-05,1,,,,,サイタマブヨウキョウカイ,0
2014,8040001132013,新規,0,2024-02-05,2024-02-05,株式会社ハシモト,,株式会社,千葉県,船橋市,鈴身町１０４番地４１,,12,204,2740052,,,,,,,2024-02-05,1,,,,,ハシモト,0
2015,8040001132038,新規,0,2024-02-05,2024-02-05,株式会社ＳＨ,,株式会社,千葉県,船橋市,三山５丁目２６番８号,,12,204,2740072,,,,,,,2024-02-05,1,,,,,エスエイチ,0
2016,8040001132070,新規,0,2024-02-05,2024-02-05,ＬＳドローン株式会社,,株式会社,千葉県,千葉市中央区,登戸１丁目１３番２２号シティファイブビル,,12,101,2600032,,,,,,,2024-02-05,1,,,,,エルエスドローン,0
2021,8040003024266,新規,0,2024-02-05,2024-02-05,合同会社ＹＯＫＩ健康管理,,合同会社,千葉県,八千代市,萱田町字田道７９７番地１０－Ｍ号棟２０４,,12,221,2760044,,,,,,,2024-02-05,1,,,,,ヨキケンコウカンリ,0
2023,8050001054207,新規,0,2024-02-05,2024-02-05,ＪＳＰ　ＡＵＴＯ　ＭＡＲＴ株式会社,,株式会社,茨城県,つくば市,上原６３６番地１関野ハイツ１０７号,,08,220,3050055,,,,,,,2024-02-05,1,,,,,ジェイエスピーオートマート,0
2024,8050001054231,新規,0,2024-02-05,2024-02-05,ＧＫＴファーム株式会社,,株式会社,茨城県,牛久市,上柏田４丁目１４番地９,,08,219,3001232,,,,,,,2024-02-05,1,,,,,ジイケイティファーム,0
2034,8080401026991,新規,0,2024-02-05,2024-02-05,株式会社良食生活浜松ファーム,,株式会社,静岡県,浜松市中央区,大原町３８４番地,,22,138,4338102,,,,,,,2024-02-05,1,,,,,リョウショクセイカツハママツファーム,0
2042,8110003005275,新規,0,2024-02-05,2024-02-05,Ｈｉｍｉｔｓｕ　Ｈｏｕｓｅ合同会社,,合同会社,新潟県,妙高市,白山町１丁目１２番２号,,15,217,9440047,,,,,,,2024-02-05,1,,,,,ヒミツハウス,0
2049,8120001261943,新規,0,2024-02-05,2024-02-05,株式会社ＧＬＡＭＤＡＹ　ＳＴＹＬＥ石垣,,株式会社,大阪府,大阪市天王寺区,四天王寺２丁目１番９号,,27,109,5430051,,,,,,,2024-02-05,1,,,,,グランディスタイルイシガキ,0
2050,8120001261968,新規,0,2024-02-05,2024-02-05,株式会社ＥＸＬＥＡＤ,,株式会社,大阪府,大阪市北区,芝田２丁目８－１１共栄ビル３階,,27,127,5300012,,,,,,,2024-02-05,1,,,,,エクスリード,0
2051,8120001261976,新規,0,2024-02-05,2024-02-05,株式会社ＩＣ,,株式会社,大阪府,大阪市中央区,伏見町３丁目１番１－２３０７号,,27,128,5410044,,,,,,,2024-02-05,1,,,,,アイシー,0
2054,8120003025850,新規,0,2024-02-05,2024-02-05,Ｉ‐ＤＥＡＬ合同会社,,合同会社,大阪府,大阪市西区,西本町１丁目１４番８号８０２,,27,106,5500005,,,,,,,2024-02-05,1,,,,,アイディアル,0
2061,8130001076283,新規,0,2024-02-05,2024-02-05,日本不動産イートレード株式会社,,株式会社,京都府,京都市伏見区,深草谷口町１１１番地４４,,26,109,6120829,,,,,,,2024-02-05,1,,,,,ニホンフドウサンイートレード,0
2062,8130001076291,新規,0,2024-02-05,2024-02-05,株式会社Ｗｏｏｄ　Ｔａｇ,,株式会社,京都府,京都市中京区,西ノ京南聖町１３番地,,26,104,6048412,,,,,,,2024-02-05,1,,,,,ウッドタグ,0
2066,8130003009282,新規,0,2024-02-05,2024-02-05,合同会社小元,,合同会社,京都府,京都市中京区,新京極四条上る中之町５６５番地６,,26,104,6040000,,,,,,,2024-02-05,1,,,,,コモト,0
2068,8140001133182,新規,0,2024-02-05,2024-02-05,ＹＯＵ　ＮＥＸＴ株式会社,,株式会社,兵庫県,神戸市東灘区,魚崎西町１丁目１－２７,,28,101,6580026,,,,,,,2024-02-05,1,,,,,ユーネクスト,0
2069,8140001133199,新規,0,2024-02-05,2024-02-05,株式会社聚金属,,株式会社,兵庫県,豊岡市,伊賀谷８１３番地の５,,28,209,6680001,,,,,,,2024-02-05,1,,,,,ジュキンゾク,0
2070,8140001133224,新規,0,2024-02-05,2024-02-05,株式会社ＡＲＩＧＡＴＳ　ＷＥＳＴ‐２,,株式会社,兵庫県,神戸市中央区,波止場町２番８号,,28,110,6500042,,,,,,,2024-02-05,1,,,,,,0
2074,8140003020131,新規,0,2024-02-05,2024-02-05,合同会社ミソラシキ,,合同会社,兵庫県,西宮市,中屋町９番３０号,,28,204,6620868,,,,,,,2024-02-05,1,,,,,ミソラシキ,0
2085,8180001160082,新規,0,2024-02-05,2024-02-05,株式会社ポリセンス,,株式会社,愛知県,名古屋市中村区,名駅４丁目２４番５号第２森ビル４０１,,23,105,4500002,,,,,,,2024-02-05,1,,,,,ポリセンス,0
2087,8180301038292,新規,0,2024-02-05,2024-02-05,株式会社モノプロコンサルタント,,株式会社,愛知県,豊田市,五ケ丘８丁目１４番地７,,23,211,4710814,,,,,,,2024-02-05,1,,,,,モノプロコンサルタント,0
2092,8200001042105,新規,0,2024-02-05,2024-02-05,緑苑工業株式会社,,株式会社,岐阜県,各務原市,鵜沼山崎町１丁目１１９－４,,21,213,5090124,,,,,,,2024-02-05,1,,,,,リョクエンコウギョウ,0
2093,8210001019622,新規,0,2024-02-05,2024-02-05,壽農業システム株式会社,,株式会社,福井県,丹生郡越前町,樫津第８２号１６番地９,,18,423,9160272,,,,,,,2024-02-05,1,,,,,コトブキノウギョウシステム,0
2105,8240001062751,新規,0,2024-02-05,2024-02-05,株式会社藤電設,,株式会社,広島県,福山市,千田町大字千田２００９番地６,,34,207,7200013,,,,,,,2024-02-05,1,,,,,フジデンセツ,0
2108,8250001020510,新規,0,2024-02-05,2024-02-05,株式会社サザンセトランド,,株式会社,山口県,熊毛郡平生町,大字平生町５０５番地の３０,,35,344,7421101,,,,,,,2024-02-05,1,,,,,サザンセトランド,0
2115,8260001038725,新規,0,2024-02-05,2024-02-05,瀬戸内市民電力株式会社,,株式会社,岡山県,瀬戸内市,邑久町尾張３９番地４１,,33,212,7014221,,,,,,,2024-02-05,1,,,,,セトウチシミンデンリョク,0
2118,8280001009113,新規,0,2024-02-05,2024-02-05,株式会社伸成,,株式会社,島根県,益田市,遠田町２５１３番地２,,32,204,6993676,,,,,,,2024-02-05,1,,,,,シンセイ,0
2120,8280005007591,新規,0,2024-02-05,2024-02-05,農事組合法人ワクワクいちばら,,その他の設立登記法人,島根県,安来市,広瀬町西比田１０１７番地１,,32,206,6920731,,,,,,,2024-02-05,1,,,,,ワクワクイチバラ,0
2127,8290001104615,新規,0,2024-02-05,2024-02-05,グリーンパーク久留米株式会社,,株式会社,福岡県,久留米市,大石町３２番地,,40,203,8300049,,,,,,,2024-02-05,1,,,,,グリーンパーククルメ,0
2133,8290003014944,新規,0,2024-02-05,2024-02-05,合同会社スティーレ,,合同会社,福岡県,春日市,上白水７丁目１１７ボヌールエトワール１０２,,40,218,8160844,,,,,,,2024-02-05,1,,,,,スティーレ,0
2143,8330005010755,新規,0,2024-02-05,2024-02-05,ＮＰＯ法人折り紙,,その他の設立登記法人,熊本県,八代市,田中西町１３号１２番地１,,43,202,8660876,,,,,,,2024-02-05,1,,,,,オリガミ,0
2144,8340001026267,新規,0,2024-02-05,2024-02-05,株式会社ウィル巧建,,株式会社,鹿児島県,鹿児島市,田上台１丁目１３－２,,46,201,8900036,,,,,,,2024-02-05,1,,,,,ウィルコウケン,0
2147,8340003004361,新規,0,2024-02-05,2024-02-05,合同会社かえるのこはかえるカンパニー,,合同会社,鹿児島県,鹿児島市,西伊敷４丁目４６番５号,,46,201,8900002,,,,,,,2024-02-05,1,,,,,カエルノコハカエルカンパニー,0
2149,8360001033154,新規,0,2024-02-05,2024-02-05,株式会社キタキカク,,株式会社,沖縄県,那覇市,銘苅１丁目２番１号１０２,,47,201,9000004,,,,,,,2024-02-05,1,,,,,キタキカク,0
2154,8370001050909,新規,0,2024-02-05,2024-02-05,株式会社ユズファームワイナリー,,株式会社,宮城県,刈田郡七ヶ宿町,字瀬見原１１６番地,,04,302,9890529,,,,,,,2024-02-05,1,,,,,ユズファームワイナリー,0
2156,8380001034282,新規,0,2024-02-05,2024-02-05,株式会社殿上,,株式会社,福島県,いわき市,小名浜字辰巳町４３番地１いわきら・ら・ミュウ内,,07,204,9718101,,,,,,,2024-02-05,1,,,,,トノガミ,0
2161,8400003003209,新規,0,2024-02-05,2024-02-05,合同会社シロホシ,,合同会社,岩手県,奥州市,江刺玉里字森下１５３番地,,03,215,0231134,,,,,,,2024-02-05,1,,,,,シロホシ,0
2165,8430001091005,新規,0,2024-02-05,2024-02-05,株式会社ＡＫＡＺＡＷＡ,,株式会社,北海道,札幌市豊平区,平岸四条１丁目４番１６－１０２号,,01,105,0620934,,,,,,,2024-02-05,1,,,,,アカザワ,0
2169,8470001020018,新規,0,2024-02-05,2024-02-05,株式会社Ｆ‐ＣＯＮＮＥＣＴ,,株式会社,香川県,高松市,多肥下町１５６３番地８,,37,201,7618075,,,,,,,2024-02-05,1,,,,,エフコネクト,0
2175,8500003003181,新規,0,2024-02-05,2024-02-05,合同会社野口会計,,合同会社,愛媛県,四国中央市,上分町３４１番地５,,38,213,7990121,,,,,,,2024-02-05,1,,,,,ノグチカイケイ,0
2176,8700150054263,新規,0,2024-02-05,2015-10-09,昭和・維新小学校区　放課後児童クラブ　おひさま,,その他,岡山県,総社市,美袋１５８４－１,,33,208,7191311,,,,,,,2015-10-09,1,,,,,シヨウワイシンシヨウガツコウクホウカゴジドウクラブオヒサマ,0
2179,8700150123778,新規,0,2024-02-05,2024-02-05,ＳＨＩＮＩＮＧ　３Ｄ（ＨＫ）　ＣＯＭＰＡＮＹ　ＬＩＭＩＴＥＤ,,外国会社等,,,,,,,,ＦＬＡＴ／ＲＭ　３０３Ａ　ＢＬＫ　２　３／Ｆ　ＥＮＴＥＲＰＲＩＳＥ　ＳＱＵＡＲＥ　ＰＨＡＳＥ　１　９　ＳＨＥＵＮＧ　ＹＵＥＴ　ＲＯＡＤ　ＫＯＷＬＯＯＮ　ＢＡＹ,,,,,,2024-02-05,1,,,,,シャイニングスリーディーホンコンカンパニーリミテッド,0
2180,8700150123786,新規,0,2024-02-05,2024-02-05,ＳｈａｎｇｈａｉＪｉａｏｙｉｎｔｅｋｅｊｉ　ｙｏｕｘｉａｎｇｏｎｇｓｉ,,外国会社等,,,,,,,,ｗａｎｙｕａｎｌｕ　２８００ｈａｏ　ｍｉｎｈａｎｇｑｕ　ｓｈａｎｇｈａｉｓｈｉ,,,,,,2024-02-05,1,,,,,シャンハイジャオインテカギユウゲンコウシ,0
2181,8700150123794,新規,0,2024-02-05,2024-02-05,ＴＩＡＮＪＩＮ　ＤＲＡＧＯＮ　ＨＡＲＭＯＮＹ　ＣＯＳＭＥＴＩＣＳ　ＴＲＡＤＩＮＧ　ＣＯ．，ＬＴＤ．,,外国会社等,,,,,,,,ＲＯＯＭ　８０５－９（ＪＩ　ＺＨＯＮＧ　ＢＡＮ　ＧＯＮＧ　ＱＵ），ＮＯ．１　ＹＵＮＪＩＮＧ　ＳＴＲＥＥＴ，ＡＵＴＯＭＯＢＩＬＥ　ＢＵＩＬＤＩＮＧ，ＡＵＴＯ　ＩＮＤＵＳＴＲＩＡＬ　ＰＡＲＫ，ＷＵＱＩＮＧ　ＤＩＳＴＲＩＣＴ，ＴＩＡＮＪＩＮ,,,,,,2024-02-05,1,,,,,テンシンドゥラゴンハーモニーコズメティックストレイディングカンパニーリミテッド,0
2191,9010001241856,新規,0,2024-02-05,2024-02-05,株式会社ＦＬＹＶＥ,,株式会社,東京都,千代田区,神田和泉町１－６－１６,,13,101,1010024,,,,,,,2024-02-05,1,,,,,フライブ,0
2192,9010001241955,新規,0,2024-02-05,2024-02-05,Ａｃｒｉｚｅ株式会社,,株式会社,東京都,千代田区,神田和泉町１番地６－１６ヤマトビル４０５,,13,101,1010024,,,,,,,2024-02-05,1,,,,,アクライズ,0
2193,9010001241996,新規,0,2024-02-05,2024-02-05,株式会社Ａ‐ＭＯＭ,,株式会社,東京都,中央区,月島１丁目８番１アイマークタワー３２０５号,,13,102,1040052,,,,,,,2024-02-05,1,,,,,エーマム,0
2194,9010001242045,新規,0,2024-02-05,2024-02-05,株式会社アコモア,,株式会社,東京都,中央区,日本橋３丁目２番１４号新槇町ビル別館第一２階,,13,102,1030027,,,,,,,2024-02-05,1,,,,,アコモア,0
2196,9010003042848,新規,0,2024-02-05,2024-02-05,Ｇｒａｖｉｔｙ合同会社,,合同会社,東京都,中央区,銀座１丁目１２番４号Ｎ＆ＥＢＬＤ．６Ｆ,,13,102,1040061,,,,,,,2024-02-05,1,,,,,グラビティ,0
2201,9010401180159,新規,0,2024-02-05,2024-02-05,東勝株式会社,,株式会社,東京都,港区,赤坂３丁目１０番１２－１３０６号,,13,103,1070052,,,,,,,2024-02-05,1,,,,,トウショウ,0
2204,9010405022935,新規,0,2024-02-05,2024-02-05,一般社団法人レジデンシャルエム,,その他の設立登記法人,東京都,港区,西新橋１丁目２番９号メンターキャピタル税理士法人内,,13,103,1050003,,,,,,,2024-02-05,1,,,,,レジデンシャルエム,0
2205,9010501051714,新規,0,2024-02-05,2024-02-05,株式会社Ｓｕｘｕｓ,,株式会社,東京都,台東区,東上野５丁目５番１２－１２０３号,,13,106,1100015,,,,,,,2024-02-05,1,,,,,サクセス,0
2208,9010701045508,新規,0,2024-02-05,2024-02-05,株式会社Ｔａｍｍｙ,,株式会社,東京都,品川区,東中延１丁目７番１６号,,13,109,1420052,,,,,,,2024-02-05,1,,,,,タミー,0
2212,9010901054663,新規,0,2024-02-05,2024-02-05,株式会社フォーティーナイナーズ,,株式会社,東京都,世田谷区,松原３丁目３３番１２号大島コーポラス２０１,,13,112,1560043,,,,,,,2024-02-05,1,,,,,フォーティーナイナーズ,0
2220,9011001159758,新規,0,2024-02-05,2024-02-05,株式会社ニコニコエンターテインメント,,株式会社,東京都,渋谷区,千駄ヶ谷３丁目５３番１２号,,13,113,1510051,,,,,,,2024-02-05,1,,,,,ニコニコエンターテインメント,0
2222,9011003018425,新規,0,2024-02-05,2024-02-05,Ａｎｏｔｈｅｒ　Ｖｉｓｉｏｎ　Ｌａｂ合同会社,,合同会社,東京都,目黒区,碑文谷５丁目２－５Ｔ＆Ａビル５Ｆ,,13,110,1520003,,,,,,,2024-02-05,1,,,,,アナザービジョンラボ,0
2226,9011101106008,新規,0,2024-02-05,2024-02-05,株式会社Ｎｅｕｒｏ　Ｖａｓｃｕｌａｒ　Ｉｎｎｏｖａｔｉｏｎｓ,,株式会社,東京都,新宿区,四谷三栄町１４番９号,,13,104,1600008,,,,,,,2024-02-05,1,,,,,ニューロバスキュラーイノベーションズ,0
2227,9011101106016,新規,0,2024-02-05,2024-02-05,Ｎｅｗ　Ｗｏｒｌｄ株式会社,,株式会社,東京都,新宿区,北新宿４丁目２５番１２－１０２号室,,13,104,1690074,,,,,,,2024-02-05,1,,,,,ニューワールド,0
2228,9011101106065,新規,0,2024-02-05,2024-02-05,株式会社ｈｍｄ,,株式会社,東京都,新宿区,大久保１丁目３番１４号,,13,104,1690072,,,,,,,2024-02-05,1,,,,,エイチエムディー,0
2229,9011101106081,新規,0,2024-02-05,2024-02-05,日新堂株式会社,,株式会社,東京都,新宿区,西新宿３丁目６番５－１２０２号,,13,104,1600023,,,,,,,2024-02-05,1,,,,,ニッシンドウ,0
2239,9011703003734,新規,0,2024-02-05,2024-02-05,バランスライフ合同会社,,合同会社,東京都,江戸川区,中葛西８丁目１９番３０号ミニヨンブローテ１０５,,13,123,1340083,,,,,,,2024-02-05,1,,,,,バランスライフ,0
2240,9011803006075,新規,0,2024-02-05,2024-02-05,合同会社ＧＯＮ,,合同会社,東京都,葛飾区,水元１丁目１１番１２－３０１号,,13,122,1250032,,,,,,,2024-02-05,1,,,,,ゴン,0
2241,9012403006399,新規,0,2024-02-05,2024-02-05,合同会社Ｔｙｐｅ　Ｓｌｏｗｌｙ,,合同会社,東京都,三鷹市,下連雀８丁目３番１１号,,13,204,1810013,,,,,,,2024-02-05,1,,,,,タイプスロウリー,0
2246,9012701018063,新規,0,2024-02-05,2024-02-05,株式会社オールウェイズ内村,,株式会社,東京都,小平市,花小金井南町１丁目３番１１－Ｂ９２３号,,13,211,1870003,,,,,,,2024-02-05,1,,,,,オールウェイズウチムラ,0
2247,9012801022948,新規,0,2024-02-05,2024-02-05,ＤａｒｃｙＲｕｇｂｙ株式会社,,株式会社,東京都,国分寺市,東恋ヶ窪６丁目１８番地３７,,13,214,1850014,,,,,,,2024-02-05,1,,,,,ダルシーラグビー,0
2248,9012803003302,新規,0,2024-02-05,2024-02-05,ＡＮＳＨＩＫＡ合同会社,,合同会社,東京都,国分寺市,東元町１丁目３５番１８号第２西本コーポ１０５,,13,214,1850022,,,,,,,2024-02-05,1,,,,,アンシカ,0
2252,9013301052031,新規,0,2024-02-05,2024-02-05,泱宸株式会社,,株式会社,東京都,豊島区,池袋４丁目１１番１６号カルタス２１池袋３０２室,,13,116,1710014,,,,,,,2024-02-05,1,,,,,オウシン,0
2256,9020001155650,新規,0,2024-02-05,2024-02-05,株式会社リバーマネジメント,,株式会社,神奈川県,横浜市中区,山手町１３５番地２,,14,104,2310862,,,,,,,2024-02-05,1,,,,,リバーマネジメント,0
2257,9020001155683,新規,0,2024-02-05,2024-02-05,株式会社天,,株式会社,神奈川県,横浜市港北区,樽町４丁目５番２５号,,14,109,2220001,,,,,,,2024-02-05,1,,,,,テン,0
2261,9021001081390,新規,0,2024-02-05,2024-02-05,株式会社横須賀総合警備保障,,株式会社,神奈川県,横須賀市,野比３丁目３０－２６ＮＮビル２０１,,14,201,2390841,,,,,,,2024-02-05,1,,,,,ヨコスカソウゴウケイビホショウ,0
2268,9021003014118,新規,0,2024-02-05,2024-02-05,マイクス合同会社,,合同会社,神奈川県,相模原市中央区,松が丘２丁目７番５号,,14,152,2520223,,,,,,,2024-02-05,1,,,,,マイクス,0
2275,9030001158462,新規,0,2024-02-05,2024-02-05,株式会社華雅,,株式会社,埼玉県,さいたま市緑区,美園４丁目２１－３－１０５,,11,109,3360967,,,,,,,2024-02-05,1,,,,,ガイヤ,0
2276,9030001158479,新規,0,2024-02-05,2024-02-05,株式会社Ｏｍｅｇａ　Ｄｅｓｉｇｎ,,株式会社,埼玉県,川口市,大字安行藤八６３８番地の２デュラカーサ藤八Ｉ２０２号,00133619,11,203,3340051,,,,,,,2024-02-05,1,,,,,オメガデザイン,0
2277,9030001158495,新規,0,2024-02-05,2024-02-05,株式会社ホープ・ラボ,,株式会社,埼玉県,さいたま市大宮区,桜木町２丁目３番地７階,,11,103,3300854,,,,,,,2024-02-05,1,,,,,ホープラボ,0
2280,9030003023532,新規,0,2024-02-05,2024-02-05,合同会社ＫＷＴ,,合同会社,埼玉県,ふじみ野市,大原２丁目５番３０号１０,,11,245,3560003,,,,,,,2024-02-05,1,,,,,ケーダブリューティ,0
2281,9030003023557,新規,0,2024-02-05,2024-02-05,クラウドナイン合同会社,,合同会社,埼玉県,春日部市,豊野町１丁目１８－１９グレイスヒルズ１（２０３号）,,11,214,3440014,,,,,,,2024-02-05,1,,,,,クラウドナイン,0
2284,9040001132037,新規,0,2024-02-05,2024-02-05,株式会社ＲＨ,,株式会社,千葉県,船橋市,三山５丁目２６番８号,,12,204,2740072,,,,,,,2024-02-05,1,,,,,アールエイチ,0
2289,9040003024265,新規,0,2024-02-05,2024-02-05,合同会社ＨＹＳ,,合同会社,千葉県,八千代市,萱田１１９７番地３,,12,221,2760043,,,,,,,2024-02-05,1,,,,,エイチワイエス,0
2290,9040003024281,新規,0,2024-02-05,2024-02-05,合同会社ＮＡＲＣＯＳ,,合同会社,千葉県,松戸市,仲井町２丁目４番１号,,12,207,2702242,,,,,,,2024-02-05,1,,,,,ナルコス,0
2291,9040005022275,新規,0,2024-02-05,2024-02-05,企業組合ＳＡＴＯＹＡＭＡベース,,その他の設立登記法人,千葉県,我孫子市,布佐８０８番地の３,,12,222,2701101,,,,,,,2024-02-05,1,,,,,サトヤマベース,0
2292,9050001054230,新規,0,2024-02-05,2024-02-05,株式会社ＩＷＡＭＡ　ＢＡＳＥ,,株式会社,茨城県,水戸市,千波町４４９－１,,08,201,3100851,,,,,,,2024-02-05,1,,,,,イワマベース,0
2302,9080003003125,新規,0,2024-02-05,2024-02-05,ＰＵＲＥｃｏｍｐａｎｙ合同会社,,合同会社,静岡県,榛原郡吉田町,片岡１１８９番地の５,,22,424,4210303,,,,,,,2024-02-05,1,,,,,ピュアカンパニー,0
2312,9110001038152,新規,0,2024-02-05,2024-02-05,ＫＳアシスト株式会社,,株式会社,新潟県,燕市,物流センター２丁目５番地,,15,213,9591277,,,,,,,2024-02-05,1,,,,,ケーエスアシスト,0
2327,9120001261926,新規,0,2024-02-05,2024-02-05,株式会社ＨＡＲＯ,,株式会社,大阪府,大阪市住吉区,殿辻１丁目５番１６号殿辻ハイム１階,00133613,27,120,5580042,,,,,,,2024-02-05,1,,,,,ハロー,0
2328,9120001261934,新規,0,2024-02-05,2024-02-05,中海株式会社,,株式会社,大阪府,大阪市東住吉区,杭全１丁目１７番１７－１０２号室,,27,121,5460002,,,,,,,2024-02-05,1,,,,,チュウカイ,0
2329,9120001261942,新規,0,2024-02-05,2024-02-05,株式会社ベストパック,,株式会社,大阪府,大阪市東成区,大今里西１丁目１２番７－８０４号,,27,115,5370014,,,,,,,2024-02-05,1,,,,,ベストパック,0
2330,9120001261959,新規,0,2024-02-05,2024-02-05,山宝派遣サービス株式会社,,株式会社,大阪府,大阪市中央区,高津１丁目９－１０―８０５,,27,128,5420072,,,,,,,2024-02-05,1,,,,,ヤマホウハケンサービス,0
2331,9120001261967,新規,0,2024-02-05,2024-02-05,株式会社ＹＧ　ＪＡＰＡＮ,,株式会社,大阪府,大阪市北区,天神橋２丁目２番８－４０７号,,27,127,5300041,,,,,,,2024-02-05,1,,,,,ワイジージャパン,0
2336,9120003025809,新規,0,2024-02-05,2024-02-05,合同会社ギルド,,合同会社,大阪府,大阪市西区,北堀江３丁目１２番１１号久保興産ビル８０６号室,,27,106,5500014,,,,,,,2024-02-05,1,,,,,ギルド,0
2339,9120101068998,新規,0,2024-02-05,2024-02-05,近藤工業株式会社,,株式会社,大阪府,堺市中区,深井東町２６４８番地８,,27,142,5998235,,,,,,,2024-02-05,1,,,,,コンドウコウギョウ,0
2341,9120901048712,新規,0,2024-02-05,2024-02-05,株式会社ＤＣコーポレーション,,株式会社,大阪府,茨木市,主原町２番２号,,27,211,5670897,,,,,,,2024-02-05,1,,,,,ディーシーコーポレーション,0
2342,9120901048720,新規,0,2024-02-05,2024-02-05,株式会社じゃりにてぃ,,株式会社,大阪府,吹田市,南金田２丁目１６番１０号糸田リバー５０５,,27,205,5640044,,,,,,,2024-02-05,1,,,,,ジャリニティ,0
2343,9120901048729,新規,0,2024-02-05,2024-02-05,富楽株式会社,,株式会社,大阪府,豊中市,服部本町２丁目１－８－１Ｆ,,27,203,5610852,,,,,,,2024-02-05,1,,,,,フラク,0
2344,9120905006567,新規,0,2024-02-05,2024-02-05,一般社団法人子どものしおり,,その他の設立登記法人,大阪府,箕面市,森町南２丁目１３番１５号,,27,220,5630258,,,,,,,2024-02-05,1,,,,,コドモノシオリ,0
2349,9130001076266,新規,0,2024-02-05,2024-02-05,株式会社ＭＣＳ,,株式会社,京都府,京丹後市,峰山町新町３３７番地の２,,26,212,6270005,,,,,,,2024-02-05,1,,,,,エムシーエス,0
2350,9130001076290,新規,0,2024-02-05,2024-02-05,株式会社塩路コーポレーション,,株式会社,京都府,京都市伏見区,深草藪之内町５８,,26,109,6120882,,,,,,,2024-02-05,1,,,,,シオジコーポレーション,0
2352,9140001133181,新規,0,2024-02-05,2024-02-05,まやとねこ株式会社,,株式会社,兵庫県,神戸市灘区,大内通２丁目９－５－３０２号,,28,102,6570833,,,,,,,2024-02-05,1,,,,,マヤトネコ,0
2353,9140001133223,新規,0,2024-02-05,2024-02-05,株式会社ＰＯＴＯＭＡＫ　ＰＥＡＮＵＴＳ　ＷＥＳＴ,,株式会社,兵庫県,神戸市中央区,波止場町２番８号,,28,110,6500042,,,,,,,2024-02-05,1,,,,,,0
2355,9140003020122,新規,0,2024-02-05,2024-02-05,合同会社Ｈｉｔｏｍｉ　Ｃｏ．,,合同会社,兵庫県,西宮市,大畑町８番２０－３０６号,,28,204,6620836,,,,,,,2024-02-05,1,,,,,ヒトミシーオー,0
2356,9140003020139,新規,0,2024-02-05,2024-02-05,合同会社太郎,,合同会社,兵庫県,姫路市,勝原区丁１８２番地２０,,28,201,6711203,,,,,,,2024-02-05,1,,,,,タロウ,0
2358,9160003003109,新規,0,2024-02-05,2024-02-05,Ｎａｎａ　Ｂｒｉｄｇｅ合同会社,,合同会社,滋賀県,栗東市,綣２丁目２－３４－１３０３,,25,208,5203031,,,,,,,2024-02-05,1,,,,,ナナブリッジ,0
2359,9170001017992,新規,0,2024-02-05,2024-02-05,株式会社ガレージアップ,,株式会社,和歌山県,橋本市,高野口町名倉１０番地,,30,203,6497205,,,,,,,2024-02-05,1,,,,,ガレージアップ,0
2362,9180001160024,新規,0,2024-02-05,2024-02-05,株式会社ＯＨＹＵ,,株式会社,愛知県,名古屋市西区,則武新町３丁目１番８６号ザ・パークハウス名古屋Ｄ棟６２２号,,23,104,4510051,,,,,,,2024-02-05,1,,,,,オーエイチワイユー,0
2363,9180001160032,新規,0,2024-02-05,2024-02-05,株式会社日章トランスマイル,,株式会社,愛知県,名古屋市西区,見寄町１７２番地第二中沼ビル２０６,,23,104,4520839,,,,,,,2024-02-05,1,,,,,ニッショウトランスマイル,0
2366,9180003026314,新規,0,2024-02-05,2024-02-05,ロジカル合同会社,,合同会社,愛知県,小牧市,大字西之島１４６１番地２,,23,219,4850077,,,,,,,2024-02-05,1,,,,,ロジカル,0
2367,9180005020505,新規,0,2024-02-05,2024-02-05,ＮＰＯ法人サポートオブサポーターズ・光,,その他の設立登記法人,愛知県,名古屋市守山区,小幡１丁目４番１６号,,23,113,4630011,,,,,,,2024-02-05,1,,,,,サポートオブサポーターズヒカル,0
2374,9190001031083,新規,0,2024-02-05,2024-02-05,株式会社アルテミス,,株式会社,三重県,四日市市,西新地８番１号ダイヤモンドビル１Ｆ,,24,202,5100087,,,,,,,2024-02-05,1,,,,,アルテミス,0
2381,9230001020206,新規,0,2024-02-05,2024-02-05,株式会社ＰＥＲＡ,,株式会社,富山県,高岡市,宝町１１番７号,,16,202,9330064,,,,,,,2024-02-05,1,,,,,ペラ,0
2384,9240001062750,新規,0,2024-02-05,2024-02-05,株式会社雅工業,,株式会社,広島県,呉市,広本町３丁目１５番３－３０６号,,34,202,7370125,,,,,,,2024-02-05,1,,,,,ミヤビコウギョウ,0
2391,9260003004567,新規,0,2024-02-05,2024-02-05,合同会社Ａ‐ｍｏｎ,,合同会社,岡山県,岡山市北区,表町２丁目６番５５号,,33,101,7000822,,,,,,,2024-02-05,1,,,,,エーモン,0
2392,9260005011314,新規,0,2024-02-05,2024-02-05,一般社団法人労務ＤＸ協会,,その他の設立登記法人,岡山県,岡山市北区,西古松２３７番地１２６,,33,101,7000927,,,,,,,2024-02-05,1,,,,,ロウムディエックスキョウカイ,0
2399,9290001104580,新規,0,2024-02-05,2024-02-05,株式会社島崎興産,,株式会社,福岡県,大川市,大字鐘ケ江５９０番地５,,40,212,8310008,,,,,,,2024-02-05,1,,,,,シマサキコウサン,0
2400,9290001104597,新規,0,2024-02-05,2024-02-05,株式会社樺鈴,,株式会社,福岡県,福岡市博多区,中洲４丁目１番３５号岡部ビル１号館４階４０３号室,,40,132,8100801,,,,,,,2024-02-05,1,,,,,カリン,0
2401,9290001104614,新規,0,2024-02-05,2024-02-05,株式会社ＳＨＡＲＩＺ,,株式会社,福岡県,福岡市博多区,博多駅前３丁目１１番２４－９０１号ピュアドームパラジオ博多,,40,132,8120011,,,,,,,2024-02-05,1,,,,,シャリズ,0
2404,9290003014943,新規,0,2024-02-05,2024-02-05,にじ合同会社,,合同会社,福岡県,福岡市東区,下原１丁目１５番２０－２０２号,,40,131,8130002,,,,,,,2024-02-05,1,,,,,ニジ,0
2407,9290801030282,新規,0,2024-02-05,2024-02-05,株式会社設計室ミズタ,,株式会社,福岡県,北九州市八幡西区,大平１丁目１番６号,,40,109,8070083,,,,,,,2024-02-05,1,,,,,セッケイシツミズタ,0
2408,9290801030290,新規,0,2024-02-05,2024-02-05,株式会社Ｈ・Ｒ・Ｆ,,株式会社,福岡県,北九州市八幡西区,東鳴水２丁目３番６－３０３号,,40,109,8060051,,,,,,,2024-02-05,1,,,,,エイチアールエフ,0
2409,9290803004607,新規,0,2024-02-05,2024-02-05,合同会社周防灘興産,,合同会社,福岡県,北九州市若松区,西天神町１５－５,,40,103,8080101,,,,,,,2024-02-05,1,,,,,スオウナダコウサン,0
2412,9310001018844,新規,0,2024-02-05,2024-02-05,株式会社優秀,,株式会社,長崎県,佐世保市,黒髪町２６番１９号サンシティマンション２０２,,42,202,8571152,,,,,,,2024-02-05,1,,,,,ユウシュウ,0
2417,9330001031721,新規,0,2024-02-05,2024-02-05,株式会社つむぎ屋,,株式会社,熊本県,合志市,御代志１６６１番地１ルーロ合志２１４,,43,216,8611104,,,,,,,2024-02-05,1,,,,,ツムギヤ,0
2418,9330003010203,新規,0,2024-02-05,2024-02-05,ＤＦＳ合同会社,,合同会社,熊本県,宇城市,松橋町松橋１５４７番地８,,43,213,8690502,,,,,,,2024-02-05,1,,,,,ディーエフエス,0
2424,9340001026266,新規,0,2024-02-05,2024-02-05,株式会社ＷＡＲＤＯＧ,,株式会社,鹿児島県,鹿児島市,牟礼岡３丁目１７番３号,,46,201,8911306,,,,,,,2024-02-05,1,,,,,,0
2428,9360005006980,新規,0,2024-02-05,2024-02-05,一般社団法人沖縄県産業ドローン協会,,その他の設立登記法人,沖縄県,中頭郡嘉手納町,字水釜４１２－３Ｆ,,47,325,9040204,,,,,,,2024-02-05,1,,,,,オキナワケンサンギョウドローンキョウカイ,0
2434,9380001034281,新規,0,2024-02-05,2024-02-05,株式会社ＥＢＩＳＵＧＲＯＵＰ,,株式会社,福島県,郡山市,安積町日出山字神明下４４番地７,,07,203,9630101,,,,,,,2024-02-05,1,,,,,エビスグループ,0
2439,9390001017509,新規,0,2024-02-05,2024-02-05,株式会社四葉,,株式会社,山形県,鶴岡市,道形町２１番１２号,,06,203,9970013,,,,,,,2024-02-05,1,,,,,ヨツバ,0
2441,9430001091004,新規,0,2024-02-05,2024-02-05,株式会社つえくつ,,株式会社,北海道,札幌市中央区,北四条西７丁目５番地緑苑第二ビル５１１,,01,101,0600004,,,,,,,2024-02-05,1,,,,,ツエクツ,0
2442,9430001091020,新規,0,2024-02-05,2024-02-05,株式会社スカイ住設,,株式会社,北海道,札幌市豊平区,美園六条５丁目１番１３号,,01,105,0620006,,,,,,,2024-02-05,1,,,,,スカイジュウセツ,0
2443,9430001091029,新規,0,2024-02-05,2024-02-05,株式会社ＨＯＳＡＣ,,株式会社,北海道,札幌市北区,北七条西４丁目１番地１トーカン札幌第一キャステール６０７,,01,102,0600807,,,,,,,2024-02-05,1,,,,,ホーサック,0
2444,9430001091037,新規,0,2024-02-05,2024-02-05,株式会社ＰＵＳＡＩ,,株式会社,北海道,札幌市豊平区,水車町３丁目１番１１号マンション赤塚２０３号,,01,105,0620912,,,,,,,2024-02-05,1,,,,,プサイ,0
2447,9430003015919,新規,0,2024-02-05,2024-02-05,合同会社エプロンポッケ,,合同会社,北海道,札幌市西区,発寒六条５丁目１番２号,,01,107,0630826,,,,,,,2024-02-05,1,,,,,エプロンポッケ,0
2448,9470001020017,新規,0,2024-02-05,2024-02-05,エクスプロアジャパン株式会社,,株式会社,香川県,高松市,成合町６４９番地１２,,37,201,7618081,,,,,,,2024-02-05,1,,,,,エクスプロアジャパン,0
2455,9700150121665,新規,0,2024-02-05,2023-11-01,伝統文化ふれあい事業実行委員会,,その他,東京都,八王子市,本町２４－１,,13,201,1920066,,,,,,,2023-11-01,1,,,,,デントウブンカフレアイジギヨウジツコウイインカイ,0
2456,9700150123554,新規,0,2024-02-05,2024-01-24,議員様を見守る水戸黄門党,,その他,群馬県,伊勢崎市,大手町３－１ｉタワー花の森５０５３,,10,204,3720048,,,,,,,2024-01-24,1,,,,,ギインサマヲミマモルミトコウモントウ,0
2457,9700150123629,新規,0,2024-02-05,2024-01-25,第１５回国際口蓋裂・頭蓋顔面異常学会,,その他,大阪府,吹田市,山田丘１番８号,,27,205,5650871,,,,,,,2024-01-25,1,,,,,ダイジユウゴカイコクサイコウガイレツトウガイガンメンイジヨウガツカイ,0
2458,9700150123777,新規,0,2024-02-05,2024-02-05,ｔａｎｈｅｋｅｊｉ（ｓｈｅｎｚｈｅｎ）ｙｏｕｘｉａｎｇｏｎｇｓｉ,,外国会社等,,,,,,,,ｓｈｅｎｚｈｅｎｓｈｉｆｕｔｉａｎｑｕｓｈａｔｏｕｊｉｅｄａｏｘｉｎｈｕａｓｈｅｑｕｘｉｎｚｈｏｕｓａｎｊｉｅ１６５ｈａｏｋａｎｇｄａｅｒｇｏｎｇｙｕ４ｄａｎｙｕａｎ７０２,,,,,,2024-02-05,1,,,,,タンヘカギシンセンユウゲンコウシ,0
2459,9700150123785,新規,0,2024-02-05,2024-02-05,Ｘｉａｍｅｎ　Ｌｉａｎｇｋｅｃａｏ　Ｔｒａｄｉｎｇ　Ｃｏ．，Ｌｔｄ,,外国会社等,,,,,,,,Ｒｏｏｍ１０２－１　Ｎｏ．６　ＰａｎｓｈａｎＹｉｌｉ　Ｘｉａｎｇ’ａｎ　Ｄｉｓｔｒｉｃｔ　Ｘｉａｍｅｎ,,,,,,2024-02-05,1,,,,,アモイリャンケツァオトレイディングカンパニーリミテッド,0
2460,9700150123793,新規,0,2024-02-05,2024-02-05,Ｓｈｅｎｚｈｅｎｓｈｉｌｉｓｈｅｎｘｉｎｎｅｎｇｙｕａｎｋｅｊｉ　ｙｏｕｘｉａｎｇｏｎｇｓｉ,,外国会社等,,,,,,,,ｓｈｅｎｚｈｅｎｓｈｉ　ｂａｏａｎｑｕ　ｓｈｉｙａｎｊｉｅｄａｏ　ｔａｎｇｔｏｕｓｈｅｑｕ　ｈｏｎｇｆａｊｉａｔｅｌｉ　ｇａｏｘｉｎｙｕａｎ　ｂａｎｇｏｎｇｌｏｕ　４０８Ｂ,,,,,,2024-02-05,1,,,,,シンセンシリセンシンノウゲンカギユウゲンコウシ,0
2461,9700150123802,新規,0,2024-02-05,2024-02-05,ｓｈｅｎｚｈｅｎｓｈｉｘｉａｏｈｕｗｅｉｎｉｋｅｊｉｙｏｕｘｉａｎｇｏｎｇｓｉ,,外国会社等,,,,,,,,ｌｕｏｈｕｑｕｎａｎｈｕｊｉｅｄａｏｊｉａｂｅｉｓｈｅｑｕｊｉａｎｓｈｅｌｕ２０１６２０１８ｈａｏ　ｎａｎｆａｎｇｚｈｅｎｇｑｕａｎｄａｓｈａＡＢｄｏｎｇ１６ｃｅｎｇ０２Ａ２５３　ｓｈｅｎｚｈｅｎｓｈｉ　Ｇｕａｎｇｄｏｎｇｓｈｅｎｇ　５１８００５　ＣＮ,,,,,,2024-02-05,1,,,,,シェンジェンシーシャオフーウェイニーコージーヨウシエンゴンスー,0
