sequenceNumber,corporateNumber,process,correct,updateDate,changeDate,name,nameImageId,kind,prefectureName,cityName,streetNumber,addressImageId,prefectureCode,cityCode,postCode,addressOutside,addressOutsideImageId,closeDate,closeCause,successorCorporateNumber,changeCause,assignmentDate,latest,enName,enPrefectureName,enCityName,enAddressOutside,furigana,hihyoji
9,1010001256580,新規,0,2025-07-22,2025-07-22,Ｐａｒｋｅｒ　ＭｅｄＴｅｃｈ株式会社,,株式会社,東京都,中央区,日本橋３丁目１０番５号,,13,102,1030027,,,,,,,2025-07-22,1,,,,,パーカーメドテック,0
10,1010001256952,新規,0,2025-07-22,2025-07-22,三港通匯株式会社,,株式会社,東京都,千代田区,神田須田町２丁目１９番２３号秋葉原万世橋ビル２４７号室,,13,101,1010041,,,,,,,2025-07-22,1,,,,,サンコウツウカイ,0
14,1010003048084,新規,0,2025-07-22,2025-07-22,日生貿易合同会社,,合同会社,東京都,中央区,勝どき４丁目６－２パックタワー勝どきミッド３８１３,,13,102,1040054,,,,,,,2025-07-22,1,,,,,ニッセイボウエキ,0
22,1010501054443,新規,0,2025-07-22,2025-07-22,株式会社周六福,,株式会社,東京都,台東区,台東４丁目２９－１３日進ビル４０２号,,13,106,1100016,,,,,,,2025-07-22,1,,,,,シュウロクフク,0
23,1010601067642,新規,0,2025-07-22,2025-07-22,株式会社ジーザス,,株式会社,東京都,墨田区,江東橋３丁目３番５号スミワートビル２Ｆ,,13,107,1300022,,,,,,,2025-07-22,1,,,,,ジーザス,0
25,1010801036397,新規,0,2025-07-22,2025-07-22,株式会社光川,,株式会社,東京都,大田区,山王２丁目１８番５－５０５号,,13,111,1430023,,,,,,,2025-07-22,1,,,,,ヒカリガワ,0
31,1010901057780,新規,0,2025-07-22,2025-07-22,株式会社ドリームファクトリーライツ,,株式会社,東京都,世田谷区,東玉川２丁目１番１２－１０４号,,13,112,1580084,,,,,,,2025-07-22,1,,,,,ドリームファクトリーライツ,0
38,1011003022062,新規,0,2025-07-22,2025-07-22,合同会社ＴＫ,,合同会社,東京都,渋谷区,千駄ヶ谷１丁目５－２アクシア千駄ヶ谷５０３,,13,113,1510051,,,,,,,2025-07-22,1,,,,,ティーケー,0
39,1011101112566,新規,0,2025-07-22,2025-07-22,株式会社小和,,株式会社,東京都,新宿区,西新宿８丁目８番１８－１０１号,,13,104,1600023,,,,,,,2025-07-22,1,,,,,ショウワ,0
41,1011103016113,新規,0,2025-07-22,2025-07-22,合同会社ベルオプト,,合同会社,東京都,新宿区,西新宿３丁目３番１３号西新宿水間ビル６階,,13,104,1600023,,,,,,,2025-07-22,1,,,,,ベルオプト,0
45,1011301030741,新規,0,2025-07-22,2025-07-22,クリスツプロダクション株式会社,,株式会社,東京都,杉並区,阿佐谷北２丁目１３番１６号３Ｆ,,13,115,1660001,,,,,,,2025-07-22,1,,,,,クリスツプロダクション,0
51,1011801046493,新規,0,2025-07-22,2025-07-22,株式会社ケイエス,,株式会社,東京都,足立区,島根４丁目２３番３号,,13,121,1210815,,,,,,,2025-07-22,1,,,,,ケイエス,0
57,1013103001474,新規,0,2025-07-22,2025-07-22,合同会社みなひかり,,合同会社,東京都,西多摩郡瑞穂町,大字二本木７２１番地１,,13,303,1901201,,,,,,,2025-07-22,1,,,,,ミナヒカリ,0
66,1020001163859,新規,0,2025-07-22,2025-07-22,株式会社飛天,,株式会社,神奈川県,横浜市中区,桜木町１丁目１０１番地１クロスゲート７階,,14,104,2310062,,,,,,,2025-07-22,1,,,,,ヒテン,0
67,1020001163867,新規,0,2025-07-22,2025-07-22,株式会社ＶＩＸＩＡ,,株式会社,神奈川県,横浜市神奈川区,西神奈川１丁目６番地４,,14,102,2210822,,,,,,,2025-07-22,1,,,,,ビクシア,0
68,1020001163941,新規,0,2025-07-22,2025-07-22,Ｆｉｒｓｔ　ｏｎｅ　ｐａｒｔｎｅｒ株式会社,,株式会社,神奈川県,川崎市川崎区,東田町１０番地２６,,14,131,2100005,,,,,,,2025-07-22,1,,,,,ファーストワンパートナー,0
70,1020003028944,新規,0,2025-07-22,2025-07-22,ＰｔＬａｂ合同会社,,合同会社,神奈川県,横浜市青葉区,あざみ野南３丁目５番地１４,,14,117,2250012,,,,,,,2025-07-22,1,,,,,ピーティラボ,0
71,1020003028977,新規,0,2025-07-22,2025-07-22,合同会社ＳＯＵ,,合同会社,神奈川県,横浜市瀬谷区,相沢３丁目４２番地の６,,14,114,2460013,,,,,,,2025-07-22,1,,,,,ソウ,0
85,1030003027243,新規,0,2025-07-22,2025-07-22,合同会社インプルーブメントコンサルラボ,,合同会社,埼玉県,さいたま市浦和区,常盤２丁目８番１６号イトーピア浦和常盤１３０２号,,11,107,3300061,,,,,,,2025-07-22,1,,,,,インプルーブメントコンサルラボ,0
86,1030005022218,新規,0,2025-07-22,2025-07-22,一般社団法人彩ライフサポート,,その他の設立登記法人,埼玉県,さいたま市中央区,上落合２丁目３番２号Ｍｉｏ新都心,,11,105,3380001,,,,,,,2025-07-22,1,,,,,サイライフサポート,0
89,1040001139733,新規,0,2025-07-22,2025-07-22,株式会社ＮｅｘｔＳｈｅｅｔ,,株式会社,千葉県,千葉市稲毛区,稲毛町５丁目１０８番地１２,,12,103,2630035,,,,,,,2025-07-22,1,,,,,ネクストシート,0
90,1040001139741,新規,0,2025-07-22,2025-07-22,鵬盛株式会社,,株式会社,千葉県,千葉市若葉区,若松町７２６－３,,12,104,2640021,,,,,,,2025-07-22,1,,,,,ホウセイ,0
97,1040003028075,新規,0,2025-07-22,2025-07-22,合同会社Ｔｈｅ　Ｌｕｃｋｙ,,合同会社,千葉県,松戸市,新松戸北１丁目１６－８エスポワール２－２０４号,,12,207,2700032,,,,,,,2025-07-22,1,,,,,ザラッキー,0
104,1070003006004,新規,0,2025-07-22,2025-07-22,合同会社１ｓｔｅｐｗｅｌｆａｒｅ,,合同会社,群馬県,太田市,藤阿久町６２４－２,,10,205,3730034,,,,,,,2025-07-22,1,,,,,ワンステップウェルフェア,0
105,1070005010409,新規,0,2025-07-22,2025-07-22,司法書士法人腰塚有吾事務所,,その他の設立登記法人,群馬県,桐生市,西久方町１丁目２番５５号,,10,203,3760054,,,,,,,2025-07-22,1,,,,,コシヅカユウゴジムショ,0
126,1120001277979,新規,0,2025-07-22,2025-07-22,中＿弘大株式会社,00139987,株式会社,大阪府,大阪市西成区,天下茶屋２丁目２０番１６－１０２号室,,27,122,5570014,,,,,,,2025-07-22,1,,,,,チュウシンコウダイ,0
127,1120001277987,新規,0,2025-07-22,2025-07-22,ネクレア株式会社,,株式会社,大阪府,大阪市浪速区,湊町２丁目２番１０－９０８号,,27,111,5560017,,,,,,,2025-07-22,1,,,,,ネクレア,0
131,1120003030056,新規,0,2025-07-22,2025-07-22,合同会社ナナミネ,,合同会社,大阪府,寝屋川市,国松町１２番１６－１号,,27,215,5720016,,,,,,,2025-07-22,1,,,,,ナナミネ,0
132,1120003030089,新規,0,2025-07-22,2025-07-22,家具レンタルエイト合同会社,,合同会社,大阪府,大阪市中央区,北浜３丁目５番２２号オリックス淀屋橋ビル７階,,27,128,5410041,,,,,,,2025-07-22,1,,,,,カグレンタルエイト,0
137,1120105010039,新規,0,2025-07-22,2025-07-22,医療法人優英会,,その他の設立登記法人,大阪府,堺市南区,三原台１丁２番３号ルルポ泉ヶ丘２階,,27,145,5900111,,,,,,,2025-07-22,1,,,,,ユウエイカイ,0
141,1122001039426,新規,0,2025-07-22,2025-07-22,株式会社河野興業,,株式会社,大阪府,東大阪市,御厨東１丁目６番２２号,,27,227,5770033,,,,,,,2025-07-22,1,,,,,コウノコウギョウ,0
157,1140001139351,新規,0,2025-07-22,2025-07-22,株式会社ｅｎｔｅｒ　ｃａｓｔ,,株式会社,兵庫県,神戸市須磨区,菅の台６丁目１８－８,,28,107,6540143,,,,,,,2025-07-22,1,,,,,エンターキャスト,0
161,1170003002249,新規,0,2025-07-22,2025-07-22,ツナグ会計合同会社,,合同会社,和歌山県,日高郡みなべ町,芝６７８,,30,391,6450002,,,,,,,2025-07-22,1,,,,,ツナグカイケイ,0
168,1180005021155,新規,0,2025-07-22,2025-07-22,行政書士法人ＳＡＴＯ,,その他の設立登記法人,愛知県,名古屋市中村区,二ツ橋町３丁目３３番地,,23,105,4530813,,,,,,,2025-07-22,1,,,,,サトウ,0
183,1200003006923,新規,0,2025-07-22,2025-07-22,合同会社Ｎａｚｕｎａ,,合同会社,岐阜県,岐阜市,市橋３丁目１１番地１７サンハイツ広瀬１０２,,21,201,5008381,,,,,,,2025-07-22,1,,,,,ナズナ,0
185,1220003004082,新規,0,2025-07-22,2025-07-22,合同会社ＩＡＭ,,合同会社,石川県,野々市市,三日市１丁目２番地,,17,212,9218806,,,,,,,2025-07-22,1,,,,,アイエーエム,0
187,1220005008981,新規,0,2025-07-22,2025-07-22,一般社団法人ほくりくキッチンカー協会,,その他の設立登記法人,石川県,金沢市,湊２丁目１１６番地２９,,17,201,9200211,,,,,,,2025-07-22,1,,,,,ホクリクキッチンカーキョウカイ,0
189,1230001021005,新規,0,2025-07-22,2025-07-22,株式会社ｉＣ,,株式会社,富山県,砺波市,三島町１２‐１６ムネヨシビル１階学習塾ＫｎｏｗＤｏ,,16,208,9391365,,,,,,,2025-07-22,1,,,,,アイシー,0
193,1240001065240,新規,0,2025-07-22,2025-07-22,株式会社ＴＥＲＲＡ　ＣＯＲＰＯＲＡＴＩＯＮ,,株式会社,広島県,福山市,三之丸町１－６キョーエイ三之丸ビル７Ｆ,,34,207,7200066,,,,,,,2025-07-22,1,,,,,テラコーポレーション,0
195,1250001021259,新規,0,2025-07-22,2025-07-22,株式会社Ｒ‐ＢＯＤＹ,,株式会社,山口県,防府市,岸津１丁目５番７号,,35,206,7470011,,,,,,,2025-07-22,1,,,,,アールボディー,0
200,1270003001769,新規,0,2025-07-22,2025-07-22,合同会社Ｇｌｏｂａｌ　Ｒｅｉ　Ｆｏｏｄｓ,,合同会社,鳥取県,鳥取市,緑ケ丘１丁目６番８号,,31,201,6800915,,,,,,,2025-07-22,1,,,,,グローバルレイフーズ,0
205,1290001110784,新規,0,2025-07-22,2025-07-22,ＤＯＸ株式会社,,株式会社,福岡県,飯塚市,幸袋１７２－１８,,40,205,8200066,,,,,,,2025-07-22,1,,,,,ドックス,0
206,1290001110792,新規,0,2025-07-22,2025-07-22,株式会社ＬＡＭＢＯ　ＥＳＴＡＴＥ,,株式会社,福岡県,大川市,大字大橋２７５番地１,,40,212,8310021,,,,,,,2025-07-22,1,,,,,ランボエステート,0
208,1290003017128,新規,0,2025-07-22,2025-07-22,合同会社ＯｎｌｙＦａｎＣＮ,,合同会社,福岡県,糸島市,波多江駅北２丁目１３－７カーサフェオーレ２０３号室,,40,230,8191107,,,,,,,2025-07-22,1,,,,,オンリーファンシーエヌ,0
209,1290803005109,新規,0,2025-07-22,2025-07-22,合同会社イークル,,合同会社,福岡県,北九州市八幡西区,野面１丁目１０番４号,,40,109,8071262,,,,,,,2025-07-22,1,,,,,イークル,0
231,1430003017889,新規,0,2025-07-22,2025-07-22,合同会社リノ,,合同会社,北海道,札幌市手稲区,曙三条２丁目１３番４７号,00139993,01,109,0060833,,,,,,,2025-07-22,1,,,,,リノ,0
246,2010001256654,新規,0,2025-07-22,2025-07-22,株式会社ＳｔａｒＰａｌｅｔｔｅ,,株式会社,東京都,千代田区,神田練塀町３００番２階,,13,101,1010022,,,,,,,2025-07-22,1,,,,,スターパレット,0
247,2010001257025,新規,0,2025-07-22,2025-07-22,キューズファーマラボ株式会社,,株式会社,東京都,千代田区,丸の内１丁目８番３号,,13,101,1000005,,,,,,,2025-07-22,1,,,,,キューズファーマラボ,0
250,2010003048059,新規,0,2025-07-22,2025-07-22,ＭＹ合同会社,,合同会社,東京都,中央区,銀座１丁目２２－１１銀座大竹ビジデンス２Ｆ,,13,102,1040061,,,,,,,2025-07-22,1,,,,,マイ,0
255,2010405024525,新規,0,2025-07-22,2025-07-22,グリーンライト・再エネインフラ投資法人,,その他の設立登記法人,東京都,港区,東新橋１丁目５番２号汐留シティセンター８階,,13,103,1050021,,,,,,,2025-07-22,1,,,,,グリーンライトサイエネインフラ,0
259,2010901057771,新規,0,2025-07-22,2025-07-22,株式会社ＥＱＮＯＴＡ,,株式会社,東京都,世田谷区,豪徳寺１丁目４６番１５号豪徳寺レーベル２Ｆ,,13,112,1540021,,,,,,,2025-07-22,1,,,,,エクノータ,0
260,2011001171050,新規,0,2025-07-22,2025-07-22,Ａｔｅｒｕｉ　Ｔｅｃｈ株式会社,,株式会社,東京都,渋谷区,道玄坂１丁目１０番８号渋谷道玄坂東急ビル２Ｆ－Ｃ,,13,113,1500043,,,,,,,2025-07-22,1,,,,,アテルイテック,0
261,2011001171091,新規,0,2025-07-22,2025-07-22,株式会社Ｓｔａｒｑｕｅ,,株式会社,東京都,渋谷区,恵比寿西２丁目４番８号ウィンド恵比寿ビル８Ｆ,,13,113,1500021,,,,,,,2025-07-22,1,,,,,スターク,0
271,2011301030732,新規,0,2025-07-22,2025-07-22,花鈴株式会社,,株式会社,東京都,杉並区,梅里１丁目２２－２６－２０１号室,,13,115,1660011,,,,,,,2025-07-22,1,,,,,カリン,0
272,2011305003057,新規,0,2025-07-22,2025-07-22,一般社団法人ニューハート・ワタナベ医学研究所,,その他の設立登記法人,東京都,杉並区,浜田山３丁目１９番１１号,,13,115,1680065,,,,,,,2025-07-22,1,,,,,ニューハートワタナベイガクケンシュウジョ,0
274,2011601028781,新規,0,2025-07-22,2025-07-22,ＳＩＮＳＥＩ　ＨＤ株式会社,,株式会社,東京都,練馬区,高野台２丁目１６番１７号,,13,120,1770033,,,,,,,2025-07-22,1,,,,,シンセイホールディングス,0
280,2011801046484,新規,0,2025-07-22,2025-07-22,株式会社オストマルト,,株式会社,東京都,足立区,新田２丁目２７番４号,,13,121,1230865,,,,,,,2025-07-22,1,,,,,オストマルト,0
281,2011801046492,新規,0,2025-07-22,2025-07-22,株式会社ＮＡＧＡＹＡＭＡ,,株式会社,東京都,足立区,花畑２丁目１０番１１号,,13,121,1210061,,,,,,,2025-07-22,1,,,,,ナガヤマ,0
282,2011803006973,新規,0,2025-07-22,2025-07-22,Ａｎｏｔｈｅｒ　Ｓｔａｒ合同会社,,合同会社,東京都,足立区,弘道１丁目３６番５号,,13,121,1200013,,,,,,,2025-07-22,1,,,,,アナザースター,0
288,2013103001473,新規,0,2025-07-22,2025-07-22,合同会社Ｍｉｄｏｒｉｃｈ,,合同会社,東京都,西多摩郡瑞穂町,大字二本木６５８番地９,,13,303,1901201,,,,,,,2025-07-22,1,,,,,ミドリッチ,0
289,2013301054637,新規,0,2025-07-22,2025-07-22,株式会社ＳｕｌａＴｅｒｒａ,,株式会社,東京都,豊島区,池袋３丁目６７－３カーサ・デル・ガット４０２,,13,116,1710014,,,,,,,2025-07-22,1,,,,,スーラテラ,0
296,2020001163981,新規,0,2025-07-22,2025-07-22,ＯＭＮＥＡ株式会社,,株式会社,神奈川県,横浜市青葉区,美しが丘５丁目２９－１２メゾンドジャルダン美しが丘１０１,,14,117,2250002,,,,,,,2025-07-22,1,,,,,オムネア,0
298,2020003028992,新規,0,2025-07-22,2025-07-22,合同会社ＡｉＬ,,合同会社,神奈川県,横浜市神奈川区,松見町３丁目９４０番地,,14,102,2210005,,,,,,,2025-07-22,1,,,,,アイル,0
302,2030001071341,新規,0,2025-07-22,2025-07-22,株式会社嵐山興業,,株式会社,埼玉県,比企郡嵐山町,大字古里１２７６番地,,11,342,3550201,,,,,,,2025-07-22,1,,,,,ランザンコウギョウ,0
311,2040001139732,新規,0,2025-07-22,2025-07-22,株式会社アルト,,株式会社,千葉県,印西市,瀬戸１７６２番地２,,12,231,2701614,,,,,,,2025-07-22,1,,,,,アルト,0
312,2040001139740,新規,0,2025-07-22,2025-07-22,株式会社山・改,,株式会社,千葉県,野田市,野田１３０３－５,,12,208,2780037,,,,,,,2025-07-22,1,,,,,ヤマカイ,0
315,2040003028099,新規,0,2025-07-22,2025-07-22,合同会社鬼に金棒,,合同会社,千葉県,八千代市,萱田２２３８―８川島ビル２Ｆ,,12,221,2760043,,,,,,,2025-07-22,1,,,,,オニニカナボウ,0
326,2080005007709,新規,0,2025-07-22,2025-07-22,特定非営利活動法人すなぐるきくがわ,,その他の設立登記法人,静岡県,静岡市葵区,昭府２丁目３４番１６号アンジェリカ２０２,,22,101,4200871,,,,,,,2025-07-22,1,,,,,スナグルキクガワ,0
329,2080103003378,新規,0,2025-07-22,2025-07-22,合同会社ＧＲＡＣＥ,,合同会社,静岡県,賀茂郡南伊豆町,石井３４７,,22,304,4150306,,,,,,,2025-07-22,1,,,,,グレイス,0
354,2120001277961,新規,0,2025-07-22,2025-07-22,翼達株式会社,,株式会社,大阪府,大阪市浪速区,元町１丁目１０番６号８階,,27,111,5560016,,,,,,,2025-07-22,1,,,,,ヨクタツ,0
355,2120001277994,新規,0,2025-07-22,2025-07-22,株式会社磐峙,,株式会社,大阪府,大阪市中央区,淡路町１丁目４番１５号ＲＩＣＯＴＴＯ５０１号,,27,128,5410047,,,,,,,2025-07-22,1,,,,,ハンジ,0
356,2120001278019,新規,0,2025-07-22,2025-07-22,イッショウベース株式会社,,株式会社,大阪府,大阪市阿倍野区,阪南町３丁目１番８－１０１号,,27,119,5450021,,,,,,,2025-07-22,1,,,,,イッショウベース,0
357,2120001278027,新規,0,2025-07-22,2025-07-22,株式会社８１,,株式会社,大阪府,大阪市北区,天満橋１丁目３－２１タカセビル２０１号室,,27,127,5300042,,,,,,,2025-07-22,1,,,,,エイティーワン,0
358,2120001278051,新規,0,2025-07-22,2025-07-22,月同株式会社,,株式会社,大阪府,大阪市淀川区,西三国３丁目１番２３号第二常盤館４０２号室,,27,123,5320006,,,,,,,2025-07-22,1,,,,,ゲツドウ,0
362,2120103006574,新規,0,2025-07-22,2025-07-22,合同会社ＭＹＯｓａｋａマネジメント,,合同会社,大阪府,堺市堺区,材木町西１‐１‐２２,,27,141,5900000,,,,,,,2025-07-22,1,,,,,エムワイオオサカマネジメント,0
363,2120105010038,新規,0,2025-07-22,2025-07-22,医療法人貴仁会,,その他の設立登記法人,大阪府,堺市東区,日置荘西町４丁３５番１０号メディカルスクエア初芝駅前１階,,27,143,5998114,,,,,,,2025-07-22,1,,,,,キジンカイ,0
370,2130001080118,新規,0,2025-07-22,2025-07-22,花梨．Ｋａｎａｓｉ株式会社,,株式会社,京都府,京都市下京区,七条通油小路東入大黒町２２７番地第２キョートビル４０２,,26,106,6008223,,,,,,,2025-07-22,1,,,,,カナシカナシ,0
373,2140001139350,新規,0,2025-07-22,2025-07-22,株式会社ＮＥＸＵＳ　ＧＵＡＲＤ,,株式会社,兵庫県,神戸市長田区,西尻池町１丁目３番２号,,28,106,6530031,,,,,,,2025-07-22,1,,,,,ネクサスガード,0
379,2150003003660,新規,0,2025-07-22,2025-07-22,合同会社十七屋,,合同会社,奈良県,大和郡山市,番条町１７番地１,,29,203,6391117,,,,,,,2025-07-22,1,,,,,ジュウシチヤ,0
380,2160001026885,新規,0,2025-07-22,2025-07-22,株式会社ＳＴＲＡＡＬ,,株式会社,滋賀県,大津市,雄琴３丁目７番２０号,,25,201,5200101,,,,,,,2025-07-22,1,,,,,ストラール,0
381,2160001026910,新規,0,2025-07-22,2025-07-22,株式会社レゴリスホーム,,株式会社,滋賀県,彦根市,大藪町１６２９番地（２０６号）,,25,202,5220053,,,,,,,2025-07-22,1,,,,,レゴリスホーム,0
382,2160003003544,新規,0,2025-07-22,2025-07-22,合同会社Ｉ　ｓｋｙ,,合同会社,滋賀県,大津市,茶戸町３番５－４０７号,,25,201,5200066,,,,,,,2025-07-22,1,,,,,アイスカイ,0
384,2170001018725,新規,0,2025-07-22,2025-07-22,株式会社Ｔｅｘｉａ,,株式会社,和歌山県,和歌山市,西浜３丁目９番２０号,,30,201,6410036,,,,,,,2025-07-22,1,,,,,テクシア,0
393,2180301040031,新規,0,2025-07-22,2025-07-22,株式会社鶴松建築不動産,,株式会社,愛知県,豊川市,新宿町１丁目３５番地,,23,207,4420043,,,,,,,2025-07-22,1,,,,,ツルマツケンチクフドウサン,0
394,2180305009700,新規,0,2025-07-22,2025-07-22,一般社団法人みらいく,,その他の設立登記法人,愛知県,豊橋市,西幸町字浜池３３３番地の９豊橋サイエンスコア１０９,,23,201,4418113,,,,,,,2025-07-22,1,,,,,ミライク,0
395,2190001032393,新規,0,2025-07-22,2025-07-22,タイムズ株式会社,,株式会社,三重県,伊勢市,鹿海町３９１番地,,24,203,5160013,,,,,,,2025-07-22,1,,,,,,0
396,2190001032402,新規,0,2025-07-22,2025-07-22,ＤＭＧ森精機グローバルパーツ株式会社,,株式会社,三重県,伊賀市,御代２０１番地,,24,216,5191414,,,,,,,2025-07-22,1,,,,,ディーエムジーモリセイキグローバルパーツ,0
402,2200001044057,新規,0,2025-07-22,2025-07-22,株式会社エデュフラックス,,株式会社,岐阜県,各務原市,東山３丁目２４番地,,21,213,5040861,,,,,,,2025-07-22,1,,,,,エデュフラックス,0
409,2240003007314,新規,0,2025-07-22,2025-07-22,ｓｕｏｒａ合同会社,,合同会社,広島県,福山市,大門町３丁目１３番９号,,34,207,7210926,,,,,,,2025-07-22,1,,,,,スオラ,0
413,2260003005266,新規,0,2025-07-22,2025-07-22,ＴＯＷＡ合同会社,,合同会社,岡山県,岡山市北区,西古松１丁目３３番１０号６０２,,33,101,7000927,,,,,,,2025-07-22,1,,,,,トーワ,0
419,2290001110585,新規,0,2025-07-22,2025-07-22,株式会社グリフォン・アルマ,,株式会社,福岡県,福岡市西区,内浜２丁目１２番５－４０４号室,,40,135,8190005,,,,,,,2025-07-22,1,,,,,グリフォンアルマ,0
420,2290001110742,新規,0,2025-07-22,2025-07-22,ＢＡＮＳＯＵグループ株式会社,,株式会社,福岡県,福岡市中央区,天神４丁目６番２８号いちご天神ノースビル７階,,40,133,8100001,,,,,,,2025-07-22,1,,,,,バンソウグループ,0
421,2290001110750,新規,0,2025-07-22,2025-07-22,株式会社ライフステップ,,株式会社,福岡県,飯塚市,中３３６番地,,40,205,8200065,,,,,,,2025-07-22,1,,,,,ライフステップ,0
422,2290001110767,新規,0,2025-07-22,2025-07-22,ＣＲＣホールディングス株式会社,,株式会社,福岡県,福岡市東区,松島３丁目２９番１８号,,40,131,8130062,,,,,,,2025-07-22,1,,,,,シーアールシーホールディングス,0
423,2290001110791,新規,0,2025-07-22,2025-07-22,株式会社ＥＳＣ,,株式会社,福岡県,福岡市中央区,大名１丁目１５番３１号,,40,133,8100041,,,,,,,2025-07-22,1,,,,,イーエスシー,0
424,2290001110800,新規,0,2025-07-22,2025-07-22,廣重農園株式会社,,株式会社,福岡県,久留米市,荒木町荒木２２０番地２,,40,203,8300063,,,,,,,2025-07-22,1,,,,,ヒロシゲノウエン,0
426,2290003017119,新規,0,2025-07-22,2025-07-22,合同会社ＴＡＬＥＮＺＡ,,合同会社,福岡県,福岡市早良区,城西３丁目１－７Ｂｉｇｌｕｃｋ西新,,40,137,8140003,,,,,,,2025-07-22,1,,,,,タレンザ,0
427,2290003017143,新規,0,2025-07-22,2025-07-22,合同会社Ｓｌａｙ,,合同会社,福岡県,福岡市博多区,吉塚１丁目３０番１６－４０２号,,40,132,8120041,,,,,,,2025-07-22,1,,,,,スレイ,0
432,2320001021226,新規,0,2025-07-22,2025-07-22,アプローズ株式会社,,株式会社,大分県,大分市,大字宮崎１３８５番地１－２０５号,,44,201,8701133,,,,,,,2025-07-22,1,,,,,アプローズ,0
447,2400001017117,新規,0,2025-07-22,2025-07-22,株式会社ＰＬＯＴ．ｌａｂ,,株式会社,岩手県,盛岡市,津志田町２丁目９－１６,,03,201,0200837,,,,,,,2025-07-22,1,,,,,プロットラボ,0
448,2430001094839,新規,0,2025-07-22,2025-07-22,株式会社ＴＵＮＥＲＳ　ＪＡＰＡＮ,,株式会社,北海道,札幌市東区,北四十条東５丁目２－８,,01,103,0070840,,,,,,,2025-07-22,1,,,,,チューナーズジャパン,0
453,2700150131456,新規,0,2025-07-22,2025-07-22,Ａｄｖａｎｃｅｄ　Ｇｌｏｂａｌ　Ａｌｌｉａｎｃｅ　ＰＴＥ．ＬＴＤ．,,外国会社等,神奈川県,横浜市港北区,新横浜３丁目６－１２　日総第１２ビル６階,,14,109,2220033,シンガポール共和国シンガポール市カキ・ブキット・クレセント７＃０５－０１,,,,,,2025-07-22,1,,,,,アドバンスドグローバルアライアンス,0
462,3010001256983,新規,0,2025-07-22,2025-07-22,株式会社Ｙｏｄｏ　Ａｓｓｅｔ,,株式会社,東京都,千代田区,内神田１丁目３番５号,,13,101,1010047,,,,,,,2025-07-22,1,,,,,ヨドアセット,0
463,3010003048025,新規,0,2025-07-22,2025-07-22,合同会社まろちょこ,,合同会社,東京都,中央区,銀座１丁目２２－１１,,13,102,1040061,,,,,,,2025-07-22,1,,,,,マロチョコ,0
464,3010003048058,新規,0,2025-07-22,2025-07-22,Ｒｅｍｉｎｄｓ合同会社,,合同会社,東京都,千代田区,内神田１丁目１３番１号豊島屋ビル５階,,13,101,1010047,,,,,,,2025-07-22,1,,,,,リマインズ,0
482,3010501054433,新規,0,2025-07-22,2025-07-22,ｏｍｎｉｓ株式会社,,株式会社,東京都,台東区,上野３丁目２２番３号ジイドビル２階Ａ室,,13,106,1100005,,,,,,,2025-07-22,1,,,,,オムニス,0
483,3010601007704,新規,0,2025-07-22,2025-07-22,常盤建設株式会社,,株式会社,東京都,江東区,常盤２丁目１４番８号,,13,108,1350006,,,,,,,2025-07-22,1,,,,,,0
486,3010601067640,新規,0,2025-07-22,2025-07-22,株式会社西中地所,,株式会社,東京都,江東区,有明１丁目４番２０－１６２４号,,13,108,1350063,,,,,,,2025-07-22,1,,,,,ニシナカジショ,0
487,3010601067649,新規,0,2025-07-22,2025-07-22,株式会社ＡＳＨＡコミュニケーションズ,,株式会社,東京都,江東区,豊洲３丁目５番３－６１８号,,13,108,1350061,,,,,,,2025-07-22,1,,,,,アシャコミュニケーションズ,0
489,3010805003193,新規,0,2025-07-22,2025-07-22,一般社団法人テラパルズ協会,,その他の設立登記法人,東京都,大田区,田園調布本町４２－１０,,13,111,1450072,,,,,,,2025-07-22,1,,,,,テラパルズキョウカイ,0
490,3010901057770,新規,0,2025-07-22,2025-07-22,株式会社ｓｏｌｏ　ｓｏｌｏ,,株式会社,東京都,世田谷区,北烏山１丁目６０番２５－３１２号,,13,112,1570061,,,,,,,2025-07-22,1,,,,,ソロソロ,0
491,3011001171033,新規,0,2025-07-22,2025-07-22,アイ・サポート株式会社,,株式会社,東京都,渋谷区,恵比寿西１丁目３３番１８号コート代官山１４０４,,13,113,1500021,,,,,,,2025-07-22,1,,,,,アイサポート,0
492,3011001171355,新規,0,2025-07-22,2025-07-22,日本ナイトプロダクションズ株式会社,,株式会社,東京都,渋谷区,渋谷２丁目１９－１５,,13,113,1500002,,,,,,,2025-07-22,1,,,,,ニホンナイトプロダクションズ,0
493,3011003022060,新規,0,2025-07-22,2025-07-22,合同会社エムアールアセット,,合同会社,東京都,渋谷区,恵比寿南３丁目４番１号,,13,113,1500022,,,,,,,2025-07-22,1,,,,,エムアールアセット,0
497,3011101112473,新規,0,2025-07-22,2025-07-22,ワイルドスピード株式会社,,株式会社,東京都,新宿区,百人町１丁目２３番１１,,13,104,1690073,,,,,,,2025-07-22,1,,,,,ワイルドスピード,0
501,3011103016136,新規,0,2025-07-22,2025-07-22,合同会社ＢｉｇＳｋｙ,,合同会社,東京都,新宿区,西新宿６丁目２１番１号,,13,104,1600023,,,,,,,2025-07-22,1,,,,,ビッグスカイ,0
505,3011305003056,新規,0,2025-07-22,2025-07-22,一般社団法人芸能会,,その他の設立登記法人,東京都,杉並区,桃井４丁目６番１６号ＲＥＳＩＤＥＮＣＥＫ２０２,,13,115,1670034,,,,,,,2025-07-22,1,,,,,ゲイノウカイ,0
508,3011601028780,新規,0,2025-07-22,2025-07-22,株式会社Ｔａｓｔｅ　ａｎｄ　Ｌｏｇｉｃ,,株式会社,東京都,練馬区,関町南１丁目７番９－１０３号,,13,120,1770053,,,,,,,2025-07-22,1,,,,,テーストアンドロジック,0
509,3011701028540,新規,0,2025-07-22,2025-07-22,日本川谷工業株式会社,,株式会社,東京都,江戸川区,平井５丁目４５番５号渡辺ハイツ１０１,,13,123,1320035,,,,,,,2025-07-22,1,,,,,ニホンカワタニコウギョウ,0
518,3020001163948,新規,0,2025-07-22,2025-07-22,株式会社Ｂｌｏｏｍｉｃ,,株式会社,神奈川県,横浜市金沢区,能見台通３４番１０号能見台若葉ビル４階,,14,108,2360053,,,,,,,2025-07-22,1,,,,,ブルーミック,0
525,3020003028975,新規,0,2025-07-22,2025-07-22,ＴＫＳ合同会社,,合同会社,神奈川県,横浜市磯子区,磯子台２７番Ｆ－３０４号,,14,107,2350019,,,,,,,2025-07-22,1,,,,,ティーケイエス,0
526,3020003028983,新規,0,2025-07-22,2025-07-22,合同会社ＲＳＹ,,合同会社,神奈川県,横浜市西区,浅間町１丁目４番地３ウィザードビル４０２,,14,103,2200072,,,,,,,2025-07-22,1,,,,,アールエスワイ,0
527,3020003028991,新規,0,2025-07-22,2025-07-22,合同会社ＴＮＳコネクトファンド第１号,,合同会社,神奈川県,横浜市西区,みなとみらい３丁目６番４号,,14,103,2200012,,,,,,,2025-07-22,1,,,,,ティーエヌエスコネクトファンドダイイチゴウ,0
529,3021001085868,新規,0,2025-07-22,2025-07-22,株式会社Ｎａ　ｒｕｎｎｅｒ,,株式会社,神奈川県,横須賀市,三春町４丁目１番地１０,,14,201,2380014,,,,,,,2025-07-22,1,,,,,エヌエーランナー,0
530,3021003016326,新規,0,2025-07-22,2025-07-22,合同会社ｉｎｏｕ,,合同会社,神奈川県,相模原市緑区,小渕１７５７―３,,14,151,2520184,,,,,,,2025-07-22,1,,,,,イノウ,0
540,3030003027233,新規,0,2025-07-22,2025-07-22,ＨＩＲＯＳＥ合同会社,,合同会社,埼玉県,さいたま市大宮区,堀の内町１丁目４３８－１,,11,103,3300804,,,,,,,2025-07-22,1,,,,,ヒロセ,0
543,3040001139748,新規,0,2025-07-22,2025-07-22,星際高志株式会社,,株式会社,千葉県,市川市,伊勢宿１８番１６号,,12,203,2720106,,,,,,,2025-07-22,1,,,,,セイサイコウシ,0
564,3080101025654,新規,0,2025-07-22,2025-07-22,ファイブフェイス株式会社,,株式会社,静岡県,伊豆市,市山１３４５番地の２,,22,222,4103205,,,,,,,2025-07-22,1,,,,,ファイブフェイス,0
565,3080101025662,新規,0,2025-07-22,2025-07-22,株式会社かめや恵庵,,株式会社,静岡県,伊豆の国市,長岡１３０８番地,,22,225,4102211,,,,,,,2025-07-22,1,,,,,カメヤエアン,0
568,3090003002858,新規,0,2025-07-22,2025-07-22,合同会社９９プラス１,,合同会社,山梨県,甲府市,中央１丁目３番７号甲府１０１ビル１階ＮＯ．２,,19,201,4000032,,,,,,,2025-07-22,1,,,,,,0
570,3100001038778,新規,0,2025-07-22,2025-07-22,株式会社ＨＡＳ,,株式会社,長野県,松本市,出川１丁目１２番１１号,,20,202,3900827,,,,,,,2025-07-22,1,,,,,エイチエーエス,0
572,3100005013372,新規,0,2025-07-22,2025-07-22,一般社団法人ファンタス・ヴィレッジ,,その他の設立登記法人,長野県,上田市,芳田１９０３番地,,20,203,3860151,,,,,,,2025-07-22,1,,,,,ファンタスヴィレッジ,0
574,3110005017249,新規,0,2025-07-22,2025-07-22,特定非営利活動法人障がい者自立支援プロジェクト,,その他の設立登記法人,新潟県,新潟市江南区,曽野木１丁目２９番１９号,,15,104,9501135,,,,,,,2025-07-22,1,,,,,ショウガイシャジリツシエンプロジェクト,0
582,3120001277952,新規,0,2025-07-22,2025-07-22,株式会社Ｒｅａｌｉｚｅ,,株式会社,大阪府,大阪市北区,角田町８番１号大阪梅田ツインタワーズ・ノース１９階,,27,127,5300017,,,,,,,2025-07-22,1,,,,,リアライズ,0
583,3120001278001,新規,0,2025-07-22,2025-07-22,株式会社ａｓｓｉｓｔ,,株式会社,大阪府,大阪市大正区,平尾４丁目１１－７－１０３号室,,27,108,5510012,,,,,,,2025-07-22,1,,,,,アシスト,0
584,3120001278034,新規,0,2025-07-22,2025-07-22,株式会社ＡＬＬ　ＩＮ,,株式会社,大阪府,大阪市北区,芝田１丁目１０番１０号芝田グランドビル１２階,,27,127,5300012,,,,,,,2025-07-22,1,,,,,オールイン,0
585,3120001278083,新規,0,2025-07-22,2025-07-22,光輝株式会社,,株式会社,大阪府,大阪市淀川区,塚本５丁目３番１１－５０４号,,27,123,5320026,,,,,,,2025-07-22,1,,,,,コウキ,0
586,3120001278091,新規,0,2025-07-22,2025-07-22,ＰＩＡＯ　ＢＥＡＵＴＹ株式会社,,株式会社,大阪府,大阪市阿倍野区,王子町３丁目１３－１２－２０１,,27,119,5450023,,,,,,,2025-07-22,1,,,,,ピアオビューティー,0
589,3120003030062,新規,0,2025-07-22,2025-07-22,合同会社３１７,,合同会社,大阪府,大阪市天王寺区,空堀町１５番６‐７０３,,27,109,5430012,,,,,,,2025-07-22,1,,,,,サンセブンティーンズ,0
590,3120005025044,新規,0,2025-07-22,2025-07-22,医療法人ＣｈｅｅｒＥａｔ,,その他の設立登記法人,大阪府,寝屋川市,打上高塚町８番８－１０１号,,27,215,5720850,,,,,,,2025-07-22,1,,,,,チアイート,0
592,3120103006557,新規,0,2025-07-22,2025-07-22,合同会社ペルシステンシア,,合同会社,大阪府,羽曳野市,高鷲９丁目６－３,,27,222,5830882,,,,,,,2025-07-22,1,,,,,ペルシステンシア,0
595,3122001039440,新規,0,2025-07-22,2025-07-22,Ｌｅｒｍ株式会社,,株式会社,大阪府,東大阪市,吉田７丁目３番２７号メゾン光陽３０７号,,27,227,5780924,,,,,,,2025-07-22,1,,,,,リーム,0
602,3130001080174,新規,0,2025-07-22,2025-07-22,株式会社はーと＆はあとプラス,,株式会社,京都府,京都市南区,上鳥羽藁田町１９番地,,26,107,6018133,,,,,,,2025-07-22,1,,,,,ハートアンドハアトプラス,0
607,3140001139317,新規,0,2025-07-22,2025-07-22,刀株式会社,,株式会社,兵庫県,神戸市東灘区,向洋町中３丁目１番地の１０・５番館１１３号,,28,101,6580032,,,,,,,2025-07-22,1,,,,,カタナ,0
608,3140001139424,新規,0,2025-07-22,2025-07-22,株式会社Ｒｏｕｔｅ,,株式会社,兵庫県,神戸市垂水区,舞多聞東２丁目４番１号,,28,108,6550052,,,,,,,2025-07-22,1,,,,,ルート,0
611,3180001167586,新規,0,2025-07-22,2025-07-22,邦英アセットマネジメント株式会社,,株式会社,愛知県,名古屋市東区,葵１丁目９番４号,,23,102,4610004,,,,,,,2025-07-22,1,,,,,ホウエイアセットマネジメント,0
612,3180001167611,新規,0,2025-07-22,2025-07-22,株式会社ＹＳ,,株式会社,愛知県,名古屋市中区,栄５丁目２番３６号,,23,106,4600008,,,,,,,2025-07-22,1,,,,,ワイエス,0
613,3180001167776,新規,0,2025-07-22,2025-07-22,株式会社大栄ホールディングス,,株式会社,愛知県,名古屋市緑区,大清水西１０７番地,,23,114,4580806,,,,,,,2025-07-22,1,,,,,ダイエイホールディングス,0
614,3180001167801,新規,0,2025-07-22,2025-07-22,ＳＡＫＨＩ　ＡＵＴＯ　ＴＲＡＤＩＮＧ株式会社,,株式会社,愛知県,名古屋市港区,船頭場１丁目３０８番地アネックス船頭１０５号,,23,111,4550881,,,,,,,2025-07-22,1,,,,,サッキオートトレーディング,0
631,3200001044056,新規,0,2025-07-22,2025-07-22,株式会社きやま自動車,,株式会社,岐阜県,岐阜市,鏡島１５９３番地１,,21,201,5010111,,,,,,,2025-07-22,1,,,,,キヤマジドウシャ,0
637,3220003004080,新規,0,2025-07-22,2025-07-22,合同会社三井会計,,合同会社,石川県,金沢市,瓢箪町１６番５号,,17,201,9200845,,,,,,,2025-07-22,1,,,,,ミツイカイケイ,0
639,3240001065239,新規,0,2025-07-22,2025-07-22,株式会社ＡＫＣ,,株式会社,広島県,広島市南区,段原南１丁目１６番２０号,,34,103,7320814,,,,,,,2025-07-22,1,,,,,エーケーシー,0
642,3240003007313,新規,0,2025-07-22,2025-07-22,ピーエスジー合同会社,,合同会社,広島県,広島市中区,立町５番７号,,34,101,7300032,,,,,,,2025-07-22,1,,,,,ピーエスジー,0
648,3280003001972,新規,0,2025-07-22,2025-07-22,合同会社ひばり企画,,合同会社,島根県,松江市,法吉町１１０番地１３,,32,201,6900861,,,,,,,2025-07-22,1,,,,,ヒバリキカク,0
654,3290001110799,新規,0,2025-07-22,2025-07-22,ＪＢ　ＴＲＡＶＥＬ株式会社,,株式会社,福岡県,糸島市,志摩師吉１４７９番地２４,,40,230,8191314,,,,,,,2025-07-22,1,,,,,ジェービートラベル,0
655,3290001110808,新規,0,2025-07-22,2025-07-22,株式会社ＫＥＮＮＥＳＳ,,株式会社,福岡県,福岡市城南区,西片江２丁目３７番１０－３０２号,,40,136,8140141,,,,,,,2025-07-22,1,,,,,ケネス,0
656,3290001110873,新規,0,2025-07-22,2025-07-22,株式会社インサイト,,株式会社,福岡県,福岡市博多区,博多駅前１丁目２３番２号５Ｆ－Ｂ,,40,132,8120011,,,,,,,2025-07-22,1,,,,,インサイト,0
664,3320001021225,新規,0,2025-07-22,2025-07-22,株式会社コトハリ,,株式会社,大分県,大分市,中島東３丁目１番４号藤澤ビル４０２,,44,201,8700043,,,,,,,2025-07-22,1,,,,,コトハリ,0
670,3350001019662,新規,0,2025-07-22,2025-07-22,株式会社正洋緑社,,株式会社,宮崎県,延岡市,川原崎町１２７番地６,,45,203,8820033,,,,,,,2025-07-22,1,,,,,セイヨウリョクシャ,0
672,3360001035502,新規,0,2025-07-22,2025-07-22,ブルービスタ株式会社,,株式会社,沖縄県,浦添市,内間４丁目１１－２２,,47,208,9012121,,,,,,,2025-07-22,1,,,,,ブルービスタ,0
675,3380003006094,新規,0,2025-07-22,2025-07-22,小鳥の森合同会社,,合同会社,福島県,いわき市,山田町林崎前５番地の１,,07,204,9748241,,,,,,,2025-07-22,1,,,,,コトリノモリ,0
682,3430001094846,新規,0,2025-07-22,2025-07-22,株式会社テト,,株式会社,北海道,北広島市,西の里北１丁目７－１９ミレニアムハイツ２０３,,01,234,0611104,,,,,,,2025-07-22,1,,,,,テト,0
685,3440001009654,新規,0,2025-07-22,2025-07-22,株式会社ハコアゲ,,株式会社,北海道,北斗市,本町５丁目３７番５号,,01,236,0411201,,,,,,,2025-07-22,1,,,,,ハコアゲ,0
686,3440003001700,新規,0,2025-07-22,2025-07-22,ＭアンドＡコンサル合同会社,,合同会社,北海道,函館市,昭和２丁目１３番１２号,,01,202,0410812,,,,,,,2025-07-22,1,,,,,エムアンドエーコンサル,0
690,3480001012893,新規,0,2025-07-22,2025-07-22,株式会社うずしお工房,,株式会社,徳島県,鳴門市,撫養町北浜字宮の東１３番地１２,,36,202,7720015,,,,,,,2025-07-22,1,,,,,ウズシオコウボウ,0
694,3700150131455,新規,0,2025-07-22,2025-07-22,Ａｍｐｈａｎ　Ｃａｐｉｔａｌ　Ｉｎｖｅｓｔｍｅｎｔ　Ｌｉｍｉｔｅｄ,,外国会社等,東京都,目黒区,中目黒１丁目２４－２,,13,110,1530061,Ｃｒａｉｇｍｕｉｒ　Ｃｈａｍｂｅｒｓ，Ｒｏａｄ　Ｔｏｗｎ，Ｔｏｒｔｏｌａ，ＶＧ１１１０，Ｂｒｉｔｉｓｈ　Ｖｉｒｇｉｎ　Ｉｓｌａｎｄｓ,,,,,,2025-07-22,1,,,,,アンフアンキヤピタルインベストメントリミテツド,0
696,4010001256974,新規,0,2025-07-22,2025-07-22,株式会社マーラーズパーラー,,株式会社,東京都,文京区,関口３丁目三番三号,,13,105,1120014,,,,,,,2025-07-22,1,,,,,,0
697,4010001256982,新規,0,2025-07-22,2025-07-22,株式会社Ｂｉｗａ　Ｈｏｌｄｉｎｇｓ,,株式会社,東京都,千代田区,内神田１丁目３番５号,,13,101,1010047,,,,,,,2025-07-22,1,,,,,ビワホールディングス,0
698,4010001257023,新規,0,2025-07-22,2025-07-22,株式会社Ａｕｍｅｎｔａ,,株式会社,東京都,千代田区,神田須田町１丁目７番８号ＶＯＲＴ秋葉原４・２Ｆ,,13,101,1010041,,,,,,,2025-07-22,1,,,,,アウメンタ,0
699,4010001257064,新規,0,2025-07-22,2025-07-22,株式会社Ｆｈｉｌｌ,,株式会社,東京都,中央区,銀座１丁目１２番４号Ｎ＆Ｅ．ＢＬＤ．６Ｆ,,13,102,1040061,,,,,,,2025-07-22,1,,,,,フィル,0
701,4010003048057,新規,0,2025-07-22,2025-07-22,ｉｋｉ合同会社,,合同会社,東京都,中央区,銀座１丁目１２番４号Ｎ＆ＥＢＬＤ．６Ｆ,,13,102,1040061,,,,,,,2025-07-22,1,,,,,イキ,0
704,4010005040367,新規,0,2025-07-22,2025-07-22,一般社団法人Ｙｕｎｏｗａ,,その他の設立登記法人,東京都,千代田区,丸の内２丁目２番１号岸本ビル７階,,13,101,1000005,,,,,,,2025-07-22,1,,,,,ユノワ,0
705,4010005040375,新規,0,2025-07-22,2025-07-22,一般社団法人ヴィレッジテン,,その他の設立登記法人,東京都,中央区,日本橋１丁目４番１号,,13,102,1030027,,,,,,,2025-07-22,1,,,,,ヴィレッジテン,0
708,4010405024548,新規,0,2025-07-22,2025-07-22,かすみ税理士法人,,その他の設立登記法人,東京都,港区,虎ノ門１丁目１２番１号,,13,103,1050001,,,,,,,2025-07-22,1,,,,,カスミ,0
719,4010601067631,新規,0,2025-07-22,2025-07-22,株式会社ケイカ,,株式会社,東京都,江東区,牡丹３丁目９番７号コーピアス門前仲町４０２,,13,108,1350046,,,,,,,2025-07-22,1,,,,,ケイカ,0
720,4010601067656,新規,0,2025-07-22,2025-07-22,株式会社ＧＵＥＲＲＥＲＯ,,株式会社,東京都,墨田区,江東橋３丁目１番１０号横井ビル１階,,13,107,1300022,,,,,,,2025-07-22,1,,,,,ゲレーロ,0
721,4010603011694,新規,0,2025-07-22,2025-07-22,合同会社ＫＥＮ,,合同会社,東京都,墨田区,立花４丁目４番７－２０１号,,13,107,1310043,,,,,,,2025-07-22,1,,,,,ケーイーエヌ,0
728,4010801036394,新規,0,2025-07-22,2025-07-22,ＴＡＤＡＳＨＩ株式会社,,株式会社,東京都,大田区,蒲田５丁目５番７－４０４号,,13,111,1440052,,,,,,,2025-07-22,1,,,,,タダシ,0
733,4011001171222,新規,0,2025-07-22,2025-07-22,株式会社Ａ,,株式会社,東京都,目黒区,中目黒４丁目８番２５－１３０３号プライムメゾン中目黒,,13,110,1530061,,,,,,,2025-07-22,1,,,,,エー,0
736,4011005011085,新規,0,2025-07-22,2025-07-22,一般社団法人イオラニ,,その他の設立登記法人,東京都,渋谷区,恵比寿西２丁目８番４号ＥＸ恵比寿西ビル５階,,13,113,1500021,,,,,,,2025-07-22,1,,,,,イオラニ,0
740,4011101112613,新規,0,2025-07-22,2025-07-22,株式会社アップリフターズ,,株式会社,東京都,新宿区,西新宿３丁目９―７,,13,104,1600023,,,,,,,2025-07-22,1,,,,,アップリフターズ,0
742,4011301030739,新規,0,2025-07-22,2025-07-22,株式会社ゲットラッキー,,株式会社,東京都,杉並区,成田西２丁目１番１１号Ｃ号棟,,13,115,1660016,,,,,,,2025-07-22,1,,,,,ゲットラッキー,0
747,4011601028813,新規,0,2025-07-22,2025-07-22,華城国際貿易株式会社,,株式会社,東京都,練馬区,関町北５丁目１３番２５－２－Ｃ号室,,13,120,1770051,,,,,,,2025-07-22,1,,,,,カジョウコクサイボウエキ,0
748,4011603004770,新規,0,2025-07-22,2025-07-22,合同会社吉田ファンド,,合同会社,東京都,練馬区,北町３丁目８番５－５０６号,,13,120,1790081,,,,,,,2025-07-22,1,,,,,ヨシダファンド,0
761,4020001163922,新規,0,2025-07-22,2025-07-22,株式会社ＭＪワークス,,株式会社,神奈川県,横浜市磯子区,丸山１丁目８番２－４１０号,,14,107,2350011,,,,,,,2025-07-22,1,,,,,エムジェイワークス,0
762,4020001163963,新規,0,2025-07-22,2025-07-22,株式会社ステーションサポート,,株式会社,神奈川県,横浜市保土ケ谷区,境木町１１４番地１,,14,106,2400034,,,,,,,2025-07-22,1,,,,,ステーションサポート,0
770,4020003028990,新規,0,2025-07-22,2025-07-22,オモード合同会社,,合同会社,神奈川県,横浜市中区,長者町３丁目７番３号,,14,104,2310033,,,,,,,2025-07-22,1,,,,,オモード,0
771,4020005016928,新規,0,2025-07-22,2025-07-22,一般社団法人アシスト,,その他の設立登記法人,神奈川県,横浜市青葉区,恩田町２５９９－１,,14,117,2270065,,,,,,,2025-07-22,1,,,,,アシスト,0
780,4021003016300,新規,0,2025-07-22,2025-07-22,Ｙａｎｉｗａｒｅ合同会社,,合同会社,神奈川県,厚木市,中町４丁目１４番１号サクセス本厚木ビル５階・６階,,14,212,2430018,,,,,,,2025-07-22,1,,,,,ヤニウェア,0
781,4021003016317,新規,0,2025-07-22,2025-07-22,合同会社フェアリー・ランプ,,合同会社,神奈川県,茅ヶ崎市,東海岸北２丁目１番３９,,14,207,2530053,,,,,,,2025-07-22,1,,,,,フェアリーランプ,0
795,4030003027232,新規,0,2025-07-22,2025-07-22,合同会社Ｐｏｍｏａ,,合同会社,埼玉県,八潮市,大字古新田２１３番地,,11,234,3400823,,,,,,,2025-07-22,1,,,,,ポモア,0
800,4040001139739,新規,0,2025-07-22,2025-07-22,株式会社えんぱしい,,株式会社,千葉県,長生郡一宮町,一宮４２７６番地,,12,421,2994301,,,,,,,2025-07-22,1,,,,,エンパシイ,0
812,4080101025661,新規,0,2025-07-22,2025-07-22,株式会社ａｒｅａ２４Ｒ,,株式会社,静岡県,富士市,本町１１－１５,,22,210,4160914,,,,,,,2025-07-22,1,,,,,エリアトゥエンティフォーアール,0
830,4120001277927,新規,0,2025-07-22,2025-07-22,Ｍａｒｓｈｍａｌｌｏｗ　Ｓｋｉｎ　Ｏｓａｋａ株式会社,,株式会社,大阪府,大阪市福島区,福島７丁目１４番１９号梅田ウエストビル８Ｆ,,27,103,5530003,,,,,,,2025-07-22,1,,,,,マシュマロスキンオオサカ,0
831,4120001277992,新規,0,2025-07-22,2025-07-22,京宮樸堂株式会社,,株式会社,大阪府,大阪市生野区,中川３丁目４番１７号３０２号室,,27,116,5440005,,,,,,,2025-07-22,1,,,,,キョウグウボクドウ,0
832,4120001278025,新規,0,2025-07-22,2025-07-22,株式会社Ｂｌｕｅｓｔａｒ,,株式会社,大阪府,大阪市淀川区,西中島３丁目８番１５号新大阪ビルディング,,27,123,5320011,,,,,,,2025-07-22,1,,,,,ブルースター,0
833,4120001278033,新規,0,2025-07-22,2025-07-22,株式会社サポネット,,株式会社,大阪府,枚方市,招提大谷３丁目４７番１４号,,27,210,5731153,,,,,,,2025-07-22,1,,,,,サポネット,0
834,4120001278090,新規,0,2025-07-22,2025-07-22,大阪ＶＩＶＡＳＰＯＲＴＳ株式会社,,株式会社,大阪府,大阪市北区,太融寺町２番２１号１１０８Ｂ,,27,127,5300051,,,,,,,2025-07-22,1,,,,,オオサカビバスポーツ,0
837,4120003030053,新規,0,2025-07-22,2025-07-22,合同会社シュバリエ,,合同会社,大阪府,寝屋川市,高柳２丁目４番３－１０１号,,27,215,5720051,,,,,,,2025-07-22,1,,,,,シュバリエ,0
839,4120105010028,新規,0,2025-07-22,2025-07-22,医療法人綾花会,,その他の設立登記法人,大阪府,堺市堺区,錦綾町３丁４番１０号,,27,141,5900006,,,,,,,2025-07-22,1,,,,,リョウカカイ,0
846,4130005017403,新規,0,2025-07-22,2025-07-22,一般社団法人ＤＲＣ,,その他の設立登記法人,京都府,京都市伏見区,竹田松林町２９番地高成産業株式会社内,,26,109,6128371,,,,,,,2025-07-22,1,,,,,ディーアールシー,0
851,4140003022305,新規,0,2025-07-22,2025-07-22,合同会社オフィスタナカ,,合同会社,兵庫県,神戸市兵庫区,湊町３丁目２番２－１０１号,,28,105,6520812,,,,,,,2025-07-22,1,,,,,オフィスタナカ,0
852,4150001028278,新規,0,2025-07-22,2025-07-22,株式会社ＳＵＮＮＹ,,株式会社,奈良県,橿原市,五井町５番地の７,,29,205,6340832,,,,,,,2025-07-22,1,,,,,サニー,0
855,4160001026909,新規,0,2025-07-22,2025-07-22,株式会社セブンスパーク,,株式会社,滋賀県,近江八幡市,浅小井町９９９番地,,25,204,5230817,,,,,,,2025-07-22,1,,,,,セブンスパーク,0
862,4180001167750,新規,0,2025-07-22,2025-07-22,株式会社ＳＨｉＫｉＳＡｉ,,株式会社,愛知県,名古屋市中区,金山１丁目１４番地９号長谷川ビル５階,,23,106,4600022,,,,,,,2025-07-22,1,,,,,シキサイ,0
867,4180005021169,新規,0,2025-07-22,2025-07-22,一般社団法人ｍａｓａｋａｔｓｕ,,その他の設立登記法人,愛知県,名古屋市天白区,高島２丁目１８０２番地,,23,116,4680022,,,,,,,2025-07-22,1,,,,,マサカツ,0
871,4180303006664,新規,0,2025-07-22,2025-07-22,合同会社Ｆｕｌｆｉｌｌ,,合同会社,愛知県,豊田市,西中山町猿田１５－１４,,23,211,4700431,,,,,,,2025-07-22,1,,,,,フルフィル,0
872,4190001032391,新規,0,2025-07-22,2025-07-22,株式会社ユナイテッドスペース,,株式会社,三重県,桑名市,中央町１丁目９６番地,,24,205,5110068,,,,,,,2025-07-22,1,,,,,ユナイテッドスペース,0
875,4200001044039,新規,0,2025-07-22,2025-07-22,カーバンク株式会社,,株式会社,岐阜県,羽島市,福寿町平方３３８番地８,,21,209,5016257,,,,,,,2025-07-22,1,,,,,カーバンク,0
876,4200001044055,新規,0,2025-07-22,2025-07-22,ステラプリエール株式会社,,株式会社,岐阜県,美濃加茂市,下米田町今９３７番地５,,21,211,5050015,,,,,,,2025-07-22,1,,,,,ステラプリエール,0
879,4210003001937,新規,0,2025-07-22,2025-07-22,合同会社みらいくらふと,,合同会社,福井県,吉田郡永平寺町,松岡松ケ原１丁目１０８番地,,18,322,9101138,,,,,,,2025-07-22,1,,,,,ミライクラフト,0
892,4240001065196,新規,0,2025-07-22,2025-07-22,株式会社せいわ,,株式会社,広島県,福山市,沖野上町４丁目４番３２－２０１号,,34,207,7200825,,,,,,,2025-07-22,1,,,,,セイワ,0
895,4240003007312,新規,0,2025-07-22,2025-07-22,合同会社エンドレス,,合同会社,広島県,広島市中区,弥生町３番８－３０１,,34,101,7300023,,,,,,,2025-07-22,1,,,,,エンドレス,0
898,4250003003772,新規,0,2025-07-22,2025-07-22,合同会社双葉ウェルネスファーマシー,,合同会社,山口県,山陽小野田市,中川４丁目１番２４号,,35,216,7560806,,,,,,,2025-07-22,1,,,,,フタバウェルネスファーマシー,0
899,4250003003780,新規,0,2025-07-22,2025-07-22,合同会社ＴｗｏＦｏｕｒ,,合同会社,山口県,下関市,長府三島町１９番１２号ボナールメゾン桜２０２,,35,201,7520965,,,,,,,2025-07-22,1,,,,,トゥーフォア,0
902,4260003005264,新規,0,2025-07-22,2025-07-22,合同会社Ｇ‐ＳＴＹＬＥ,,合同会社,岡山県,岡山市北区,楢津６６５,,33,101,7011202,,,,,,,2025-07-22,1,,,,,ジースタイル,0
912,4290001110600,新規,0,2025-07-22,2025-07-22,サンロジテムＨＤ株式会社,,株式会社,福岡県,福岡市東区,香椎１丁目３番３３号,,40,131,8130011,,,,,,,2025-07-22,1,,,,,サンロジテムホールディングス,0
913,4290001110807,新規,0,2025-07-22,2025-07-22,日本都市開発株式会社,,株式会社,福岡県,福岡市博多区,榎田１丁目２番１８－２０４号,,40,132,8120004,,,,,,,2025-07-22,1,,,,,ニホントシカイハツ,0
914,4290001110815,新規,0,2025-07-22,2025-07-22,カレントホールディングス株式会社,,株式会社,福岡県,福岡市中央区,平尾４丁目１３番１５－３０２号,,40,133,8100014,,,,,,,2025-07-22,1,,,,,カレントホールディングス,0
917,4290003017109,新規,0,2025-07-22,2025-07-22,ＫＥＢＩＮ合同会社,,合同会社,福岡県,福岡市南区,井尻４丁目２番４０号,,40,134,8111302,,,,,,,2025-07-22,1,,,,,ケビン,0
918,4290003017125,新規,0,2025-07-22,2025-07-22,合同会社ストンパイン,,合同会社,福岡県,福岡市博多区,博多駅前１丁目２３番２号ＰａｒｋＦｒｏｎｔ博多駅前１丁目５Ｆ－Ｂ,,40,132,8120011,,,,,,,2025-07-22,1,,,,,ストンパイン,0
927,4340001027525,新規,0,2025-07-22,2025-07-22,サン開発株式会社,,株式会社,鹿児島県,日置市,伊集院町妙円寺３丁目７８番地７,,46,216,8992503,,,,,,,2025-07-22,1,,,,,サンカイハツ,0
929,4360001035501,新規,0,2025-07-22,2025-07-22,株式会社Ｆｌｉｇｈｔ　Ｆｅａｔｈｅｒ,,株式会社,沖縄県,糸満市,字真栄里２００６番地の１８,,47,210,9010362,,,,,,,2025-07-22,1,,,,,フライトフェダー,0
932,4360003015105,新規,0,2025-07-22,2025-07-22,合同会社ＳＦＩＤＡ,,合同会社,沖縄県,うるま市,石川山城１７０６番地１５,,47,213,9041113,,,,,,,2025-07-22,1,,,,,スフィーダ,0
936,4380003006093,新規,0,2025-07-22,2025-07-22,合同会社Ｒａｙｔｏ,,合同会社,福島県,郡山市,田村町上行合字西川原６２番地の５,,07,203,9630724,,,,,,,2025-07-22,1,,,,,レイト,0
937,4390001018057,新規,0,2025-07-22,2025-07-22,株式会社ＫＫ‐Ｓｙｓｔｅｍ,,株式会社,山形県,最上郡舟形町,舟形３６２５番地,,06,363,9994601,,,,,,,2025-07-22,1,,,,,ケイケイシステム,0
943,4430001094928,新規,0,2025-07-22,2025-07-22,ミライベ不動産株式会社,,株式会社,北海道,札幌市北区,北三十三条西２丁目１番１５号,,01,102,0010033,,,,,,,2025-07-22,1,,,,,ミライベフドウサン,0
944,4430003017886,新規,0,2025-07-22,2025-07-22,合同会社ｉｎｏＳｔｙｌｅ,,合同会社,北海道,札幌市手稲区,前田五条９丁目７番２０号,,01,109,0060815,,,,,,,2025-07-22,1,,,,,イノスタイル,0
962,5010001256940,新規,0,2025-07-22,2025-07-22,株式会社Ｗｉｌｌｎｅｒ,,株式会社,東京都,中央区,銀座１丁目１２番４号Ｎ＆ＥＢＬＤ．６Ｆ,,13,102,1040061,,,,,,,2025-07-22,1,,,,,ウィルナー,0
963,5010001256981,新規,0,2025-07-22,2025-07-22,皇蘭東京銀座株式会社,,株式会社,東京都,中央区,築地４丁目１０番５号ＭＩＨＩＲＯビル３階,,13,102,1040045,,,,,,,2025-07-22,1,,,,,コウラントウキョウギンザ,0
964,5010001256998,新規,0,2025-07-22,2025-07-22,新中央ビルコン株式会社,,株式会社,東京都,千代田区,五番町４番地４,,13,101,1020076,,,,,,,2025-07-22,1,,,,,シンチュウオウビルコン,0
965,5010001257047,新規,0,2025-07-22,2025-07-22,株式会社アイリスホーム,,株式会社,東京都,中央区,日本橋室町１丁目１１－１２日本橋水野ビル７階,,13,102,1030022,,,,,,,2025-07-22,1,,,,,アイリスホーム,0
967,5010003048056,新規,0,2025-07-22,2025-07-22,ユーコンストラクション合同会社,,合同会社,東京都,中央区,八丁堀３丁目２３－１０佐藤ビル,,13,102,1040032,,,,,,,2025-07-22,1,,,,,ユーコンストラクション,0
969,5010005040408,新規,0,2025-07-22,2025-07-22,一般社団法人地域創生,,その他の設立登記法人,東京都,千代田区,内神田１丁目３番７号４０１あすな会計事務所内,,13,101,1010047,,,,,,,2025-07-22,1,,,,,チイキソウセイ,0
980,5010501054423,新規,0,2025-07-22,2025-07-22,株式会社ＡｑｕａＬｉｎｋ,,株式会社,東京都,台東区,蔵前４丁目５－５ＣｉｔｙＳｐｉｒｅ蔵前１１０１,,13,106,1110051,,,,,,,2025-07-22,1,,,,,アクアリンク,0
982,5010601067630,新規,0,2025-07-22,2025-07-22,株式会社ＯＨＡＮＡ＆Ｃｏ．,,株式会社,東京都,江東区,深川１丁目４－８アルト深川２Ｆ,,13,108,1350033,,,,,,,2025-07-22,1,,,,,オハナアンドコー,0
983,5010601067647,新規,0,2025-07-22,2025-07-22,株式会社ＨＩＳ‐ＦＡＣＴＯＲＹ,,株式会社,東京都,墨田区,吾妻橋１丁目１６番５号,,13,107,1300001,,,,,,,2025-07-22,1,,,,,ヒズファクトリー,0
984,5010601067655,新規,0,2025-07-22,2025-07-22,ＳＡＮＳＥＡ株式会社,,株式会社,東京都,墨田区,八広１丁目３６番７－２０６号,,13,107,1310041,,,,,,,2025-07-22,1,,,,,サンシー,0
985,5010603011693,新規,0,2025-07-22,2025-07-22,合同会社ＳｕｐｅｒＷｏｎｄｅｒ,,合同会社,東京都,江東区,有明１丁目６－３０－１１０２号,,13,108,1350063,,,,,,,2025-07-22,1,,,,,スーパーワンダー,0
986,5010605004480,新規,0,2025-07-22,2025-07-22,弁護士法人ＭＴ,,その他の設立登記法人,東京都,江東区,亀戸１丁目５番７号,,13,108,1360071,,,,,,,2025-07-22,1,,,,,エムティー,0
988,5010805003191,新規,0,2025-07-22,2025-07-22,一般社団法人Ｔｈｅ　ＯＬＴＡｓ,,その他の設立登記法人,東京都,大田区,西糀谷２丁目１２番１５号西糀谷サンハイツ５０７号,,13,111,1440034,,,,,,,2025-07-22,1,,,,,ジオルタズ,0
991,5010901057760,新規,0,2025-07-22,2025-07-22,株式会社ｆｒｏｍｕｓ,,株式会社,東京都,世田谷区,北沢２丁目１９番１２号白川ビル３０１号室,,13,112,1550031,,,,,,,2025-07-22,1,,,,,フロムアス,0
992,5010901057769,新規,0,2025-07-22,2025-07-22,株式会社Ｓｈｉｍｏｋｉｔａ．ｊｐ,,株式会社,東京都,世田谷区,代沢４丁目４２番７号須山方２０３,,13,112,1550032,,,,,,,2025-07-22,1,,,,,シモキタドットジェーピー,0
994,5011003022067,新規,0,2025-07-22,2025-07-22,合同会社ライフケア,,合同会社,東京都,渋谷区,円山町５番３号ＭＩＥＵＸ渋谷ビル８階,,13,113,1500044,,,,,,,2025-07-22,1,,,,,ライフケア,0
995,5011101112463,新規,0,2025-07-22,2025-07-22,株式会社Ｐａｒａｇｏｎ　Ｔｅｃｈｎｏｌｏｇｉｅｓ,,株式会社,東京都,新宿区,西新宿５丁目９番３号ライオネスコーポ４０１,,13,104,1600023,,,,,,,2025-07-22,1,,,,,パラゴンテクノロジーズ,0
996,5011101112513,新規,0,2025-07-22,2025-07-22,株式会社ＯＲＣＡホールディングス,,株式会社,東京都,新宿区,歌舞伎町２丁目６番１６号パレドール歌舞伎町第二３１４号室,,13,104,1600021,,,,,,,2025-07-22,1,,,,,オルカホールディングス,0
997,5011101112554,新規,0,2025-07-22,2025-07-22,株式会社ドリーム・レバレッジ,,株式会社,東京都,新宿区,高田馬場１丁目３２番１０号,,13,104,1690075,,,,,,,2025-07-22,1,,,,,ドリームレバレッジ,0
998,5011105011496,新規,0,2025-07-22,2025-07-22,一般社団法人ＨＡＮＩＫＡメンテナンスクリニック,,その他の設立登記法人,東京都,新宿区,新宿１丁目５－１３,,13,104,1600022,,,,,,,2025-07-22,1,,,,,ハニカメンテナンスクリニック,0
1000,5011301030746,新規,0,2025-07-22,2025-07-22,＿悦株式会社,00139989,株式会社,東京都,杉並区,和田３丁目３９番６ベルビーアイ１０１室,,13,115,1660012,,,,,,,2025-07-22,1,,,,,キンエツ,0
1005,5011701028539,新規,0,2025-07-22,2025-07-22,火力橙株式会社,,株式会社,東京都,江戸川区,平井５丁目４５番５号渡辺ハイツ１０１,,13,123,1320035,,,,,,,2025-07-22,1,,,,,カリョクトウ,0
1007,5012303002196,新規,0,2025-07-22,2025-07-22,アメツチハレルファーム合同会社,,合同会社,東京都,町田市,南大谷５丁目１６－１－１０５号,,13,209,1940031,,,,,,,2025-07-22,1,,,,,アメツチハレルファーム,0
1015,5020001163871,新規,0,2025-07-22,2025-07-22,株式会社ａｍｅ．,,株式会社,神奈川県,横浜市西区,浅間町１丁目４番３号ウィザードビル４０２,,14,103,2200072,,,,,,,2025-07-22,1,,,,,アメ,0
1016,5020001163921,新規,0,2025-07-22,2025-07-22,株式会社アイズ,,株式会社,神奈川県,横浜市中区,尾上町６丁目８７番地１－８階,,14,104,2310015,,,,,,,2025-07-22,1,,,,,アイズ,0
1017,5020001163946,新規,0,2025-07-22,2025-07-22,株式会社プレミア引越センター,,株式会社,神奈川県,横浜市都筑区,東山田町６７－３ＫＳｏｌｅｉｌ２０１号室,,14,118,2240024,,,,,,,2025-07-22,1,,,,,プレミアヒッコシセンター,0
1018,5020001163962,新規,0,2025-07-22,2025-07-22,株式会社ｃｉｒｃｌｅ,,株式会社,神奈川県,横浜市保土ケ谷区,神戸町１３４番地９星天ｑｌａｙＤ－２,,14,106,2400005,,,,,,,2025-07-22,1,,,,,サークル,0
1019,5020001163970,新規,0,2025-07-22,2025-07-22,株式会社トラストアップ,,株式会社,神奈川県,横浜市戸塚区,小雀町２１４８番地１１－２Ｆ,,14,110,2440004,,,,,,,2025-07-22,1,,,,,トラストアップ,0
1025,5020003028973,新規,0,2025-07-22,2025-07-22,ＹＳＯＰ合同会社,,合同会社,神奈川県,川崎市中原区,小杉御殿町７７番２６,,14,133,2110061,,,,,,,2025-07-22,1,,,,,イソップ,0
1026,5020003028981,新規,0,2025-07-22,2025-07-22,合同会社リプレイ,,合同会社,神奈川県,川崎市麻生区,上麻生５丁目９番１０－２１７号,,14,137,2150021,,,,,,,2025-07-22,1,,,,,リプレイ,0
1033,5021001085817,新規,0,2025-07-22,2025-07-22,ＬＲ　Ｉｎｔｅｒｎａｔｉｏｎａｌ株式会社,,株式会社,神奈川県,相模原市南区,文京２丁目２２－１０コスモタウン文京１０２号室,,14,153,2520307,,,,,,,2025-07-22,1,,,,,エルアールインターナショナル,0
1034,5021001085833,新規,0,2025-07-22,2025-07-22,株式会社ＳＲＤ,,株式会社,神奈川県,相模原市中央区,水郷田名２丁目１４番１号,,14,152,2520246,,,,,,,2025-07-22,1,,,,,エスアールディー,0
1038,5030001167723,新規,0,2025-07-22,2025-07-22,株式会社サポート・リンク,,株式会社,埼玉県,さいたま市南区,南浦和１丁目３番８号シティクレスト南浦和３０９号,,11,108,3360017,,,,,,,2025-07-22,1,,,,,サポートリンク,0
1046,5040001139746,新規,0,2025-07-22,2025-07-22,エクスパンド株式会社,,株式会社,千葉県,松戸市,五香南１丁目１０番地の１１,,12,207,2702212,,,,,,,2025-07-22,1,,,,,エクスパンド,0
1048,5040005022832,新規,0,2025-07-22,2025-07-22,江川・大塚税理士法人,,その他の設立登記法人,千葉県,木更津市,金田東１丁目３８番地１コネクトテラスＣ号室,,12,206,2920009,,,,,,,2025-07-22,1,,,,,エガワオオツカ,0
1051,5050001056949,新規,0,2025-07-22,2025-07-22,鴻豊株式会社,,株式会社,茨城県,つくば市,大形１５８２－１,,08,220,3004221,,,,,,,2025-07-22,1,,,,,コウホウ,0
1059,5080001027047,新規,0,2025-07-22,2025-07-22,株式会社ｓｕｎｔｒｅｅ,,株式会社,静岡県,静岡市清水区,春日２丁目１番２０号,,22,103,4240842,,,,,,,2025-07-22,1,,,,,サンツリー,0
1065,5100001038776,新規,0,2025-07-22,2025-07-22,株式会社セラヴィ,,株式会社,長野県,松本市,大手３丁目３番９号３３ＧＡＫＵ内,,20,202,3900874,,,,,,,2025-07-22,1,,,,,セラヴィ,0
1076,5120001277975,新規,0,2025-07-22,2025-07-22,云雅株式会社,,株式会社,大阪府,大阪市東淀川区,豊新５丁目１２－５５ビルディングＶＩＩ４０３室,00139988,27,114,5330014,,,,,,,2025-07-22,1,,,,,ウンガ,0
1077,5120001277991,新規,0,2025-07-22,2025-07-22,株式会社Ｋｎｏｐ,,株式会社,大阪府,大阪市北区,堂島１丁目５番２号フェザービル２Ｆ,,27,127,5300003,,,,,,,2025-07-22,1,,,,,ノップ,0
1078,5120001278024,新規,0,2025-07-22,2025-07-22,株式会社リンクドプラス,,株式会社,大阪府,枚方市,香里ケ丘１１丁目３０番５号,,27,210,5730084,,,,,,,2025-07-22,1,,,,,リンクドプラス,0
1079,5120001278040,新規,0,2025-07-22,2025-07-22,株式会社かけはし,,株式会社,大阪府,枚方市,津田東町３丁目１１番３号,,27,210,5730122,,,,,,,2025-07-22,1,,,,,カケハシ,0
1082,5120003030052,新規,0,2025-07-22,2025-07-22,合同会社共同建築設計事務所,,合同会社,大阪府,大阪市北区,中津１丁目１８番８号,,27,127,5310071,,,,,,,2025-07-22,1,,,,,キョウドウケンチクセッケイジムショ,0
1088,5122003003252,新規,0,2025-07-22,2025-07-22,合同会社ＲｅＣＲＥＡＺ,,合同会社,大阪府,東大阪市,新池島町１丁目１０番１１号,,27,227,5798065,,,,,,,2025-07-22,1,,,,,リクレアズ,0
1098,5140003022304,新規,0,2025-07-22,2025-07-22,合同会社相談支援事業所なぎ,,合同会社,兵庫県,姫路市,網干区高田３１２番地,,28,201,6711226,,,,,,,2025-07-22,1,,,,,ソウダンシエンジギョウショナギ,0
1103,5170001018722,新規,0,2025-07-22,2025-07-22,株式会社明組,,株式会社,和歌山県,有田市,辻堂３８３番地８,00139991,30,204,6490311,,,,,,,2025-07-22,1,,,,,アキグミ,0
1105,5180001167857,新規,0,2025-07-22,2025-07-22,株式会社リバーペクト,,株式会社,愛知県,名古屋市中村区,向島町２丁目２４番地,,23,105,4530838,,,,,,,2025-07-22,1,,,,,リバーペクト,0
1112,5200001044054,新規,0,2025-07-22,2025-07-22,株式会社ＡｉＯｎｅ,,株式会社,岐阜県,関市,武芸川町谷口８３９番地１,,21,205,5012601,,,,,,,2025-07-22,1,,,,,アイワン,0
1113,5200003006928,新規,0,2025-07-22,2025-07-22,合同会社ＫＭＯ,,合同会社,岐阜県,可児市,土田１３５６－７スギヤマビル１０２,,21,214,5090206,,,,,,,2025-07-22,1,,,,,ケーエムオー,0
1114,5210001020244,新規,0,2025-07-22,2025-07-22,株式会社天宝商会,,株式会社,福井県,丹生郡越前町,天宝第６号８番地６,,18,423,9160123,,,,,,,2025-07-22,1,,,,,テンポウショウカイ,0
1115,5210005010217,新規,0,2025-07-22,2025-07-22,志士苺労働者協同組合,,その他の設立登記法人,福井県,福井市,三万谷町６７番３５号２,,18,201,9102224,,,,,,,2025-07-22,1,,,,,シシゴ,0
1124,5240003007311,新規,0,2025-07-22,2025-07-22,Ｎ　Ｌｉｆｅ合同会社,,合同会社,広島県,広島市中区,西川口町１４－１,,34,101,7300846,,,,,,,2025-07-22,1,,,,,エヌライフ,0
1127,5260003005271,新規,0,2025-07-22,2025-07-22,合同会社健寿,,合同会社,岡山県,岡山市北区,庭瀬２９４番地３アーバンライフ庭瀬１０７号室,,33,101,7010153,,,,,,,2025-07-22,1,,,,,ケンジュ,0
1134,5290001110657,新規,0,2025-07-22,2025-07-22,株式会社コスミックＭ・Ｓ,,株式会社,福岡県,福岡市城南区,茶山４丁目１１番２３号,,40,136,8140111,,,,,,,2025-07-22,1,,,,,コスミックエムエス,0
1135,5290001110814,新規,0,2025-07-22,2025-07-22,株式会社ふくえみ,,株式会社,福岡県,福岡市東区,唐原３丁目１６番４－３０３号,,40,131,8130001,,,,,,,2025-07-22,1,,,,,フクエミ,0
1139,5290003017124,新規,0,2025-07-22,2025-07-22,合同会社メディカルコンサルティング,,合同会社,福岡県,福岡市博多区,博多駅前１丁目２３番２号ＰａｒｋＦｒｏｎｔ博多駅前１丁目５Ｆ－Ｂ,,40,132,8120011,,,,,,,2025-07-22,1,,,,,メディカルコンサルティング,0
1140,5290003017132,新規,0,2025-07-22,2025-07-22,Ｆｉｋコンサルティング合同会社,,合同会社,福岡県,糟屋郡篠栗町,大字高田５６７番地１,,40,342,8112401,,,,,,,2025-07-22,1,,,,,フィックコンサルティング,0
1141,5290801031664,新規,0,2025-07-22,2025-07-22,株式会社俊進,,株式会社,福岡県,遠賀郡水巻町,頃末南３丁目２７―３,,40,382,8070025,,,,,,,2025-07-22,1,,,,,シュンシン,0
1144,5320001021223,新規,0,2025-07-22,2025-07-22,ＪＨＳ株式会社,,株式会社,大分県,大分市,金池町２丁目４－６九州電力大分ビル別館１Ｆ,,44,201,8700026,,,,,,,2025-07-22,1,,,,,ジェイエッチエス,0
1158,5410001014234,新規,0,2025-07-22,2025-07-22,株式会社ＭＫフーズ,,株式会社,秋田県,北秋田市,綴子字大堤沢３７番地８,,05,213,0183301,,,,,,,2025-07-22,1,,,,,エムケーフーズ,0
1163,5430001094860,新規,0,2025-07-22,2025-07-22,ユーノイア株式会社,,株式会社,北海道,札幌市西区,琴似三条５丁目２－２Ｇｒａｃｅ琴似２０１,,01,107,0630813,,,,,,,2025-07-22,1,,,,,ユーノイア,0
1164,5430001094927,新規,0,2025-07-22,2025-07-22,株式会社開田商事,,株式会社,北海道,札幌市厚別区,青葉町１１丁目１番１－１４０３号,,01,108,0040021,,,,,,,2025-07-22,1,,,,,カイダショウジ,0
1172,5450003002695,新規,0,2025-07-22,2025-07-22,ＡアンドＡ合同会社,,合同会社,北海道,旭川市,神居七条７丁目１番４号,,01,204,0708017,,,,,,,2025-07-22,1,,,,,エーアンドエー,0
1187,6010001256956,新規,0,2025-07-22,2025-07-22,株式会社ハイブリッドビジネスコンサルティング,,株式会社,東京都,中央区,新川２丁目２２番１号いちご新川ビル５Ｆ,,13,102,1040033,,,,,,,2025-07-22,1,,,,,ハイブリッドビジネスコンサルティング,0
1188,6010001256972,新規,0,2025-07-22,2025-07-22,和衆手創日本株式会社,00139997,株式会社,東京都,千代田区,永田町２丁目９番６号十全ビル６０１号,,13,101,1000014,,,,,,,2025-07-22,1,,,,,ワシュウシュソウニホン,0
1189,6010001257021,新規,0,2025-07-22,2025-07-22,Ａｒｅａｌｉｎｋｓ株式会社,,株式会社,東京都,中央区,晴海５丁目１番１７－１８２１号,,13,102,1040053,,,,,,,2025-07-22,1,,,,,エリアリンクス,0
1192,6010003048088,新規,0,2025-07-22,2025-07-22,合同会社ｓｐｒｉｎｇ,,合同会社,東京都,中央区,日本橋本町４丁目１０番１０－５０７号,,13,102,1030023,,,,,,,2025-07-22,1,,,,,スプリング,0
1194,6010005040398,新規,0,2025-07-22,2025-07-22,一般社団法人ＫＥＲ３号,,その他の設立登記法人,東京都,中央区,京橋２丁目１２番６号ＡＯＪ税理士法人内,,13,102,1040031,,,,,,,2025-07-22,1,,,,,ケーイーアールサンゴウ,0
1210,6010801036392,新規,0,2025-07-22,2025-07-22,Ｈｉｎｏｄｅ　Ｃａｐｉｔａｌ株式会社,,株式会社,東京都,大田区,東海３丁目７番３号東海ビル３１２号,,13,111,1430001,,,,,,,2025-07-22,1,,,,,ヒノデキャピタル,0
1215,6011003022066,新規,0,2025-07-22,2025-07-22,合同会社トラスト,,合同会社,東京都,渋谷区,桜丘町２１番１－３０３号ポルトボヌール渋谷桜丘,,13,113,1500031,,,,,,,2025-07-22,1,,,,,トラスト,0
1219,6011305003053,新規,0,2025-07-22,2025-07-22,一般社団法人武蔵野東学園を守る会,,その他の設立登記法人,東京都,杉並区,堀ノ内２丁目４０番４９号,,13,115,1660013,,,,,,,2025-07-22,1,,,,,ムサシノヒガシガクエンヲマモルカイ,0
1227,6011601028811,新規,0,2025-07-22,2025-07-22,株式会社Ｌｉｎｓｌｕｓ,,株式会社,東京都,練馬区,桜台２丁目３９番１９号,,13,120,1760002,,,,,,,2025-07-22,1,,,,,リンスルス,0
1229,6011801046480,新規,0,2025-07-22,2025-07-22,ＲＭＰ・ディプロマティックソリューションズ株式会社,,株式会社,東京都,足立区,綾瀬５丁目２０番２号,,13,121,1200005,,,,,,,2025-07-22,1,,,,,アールエムピーディプロマティックソリューションズ,0
1243,6020001163953,新規,0,2025-07-22,2025-07-22,株式会社Ｇｒａｃｅ　Ａｄｖｉｓｏｒｓ,,株式会社,神奈川県,横浜市港北区,新横浜２丁目６番地２３金子第２ビル６階,,14,109,2220033,,,,,,,2025-07-22,1,,,,,グレイスアドバイザーズ,0
1244,6020001163978,新規,0,2025-07-22,2025-07-22,株式会社マルホーム,,株式会社,神奈川県,横浜市神奈川区,片倉１丁目２２番１７号,,14,102,2210865,,,,,,,2025-07-22,1,,,,,マルホーム,0
1245,6020003028931,新規,0,2025-07-22,2025-07-22,合同会社ｒｉｓｅ　ｕｐ,,合同会社,神奈川県,横浜市瀬谷区,中央２－２６ルピナス瀬谷７０７,,14,114,2460014,,,,,,,2025-07-22,1,,,,,ライズアップ,0
1246,6020003028980,新規,0,2025-07-22,2025-07-22,合同会社ＷＩＮ,,合同会社,神奈川県,川崎市中原区,下小田中４丁目６番１５号,,14,133,2110041,,,,,,,2025-07-22,1,,,,,ダブルアイエヌ,0
1252,6021003016315,新規,0,2025-07-22,2025-07-22,ポスカル合同会社,,合同会社,神奈川県,平塚市,菫平１２番１２―２―１０２号パレ平塚すみれ平,,14,203,2540822,,,,,,,2025-07-22,1,,,,,ポスカル,0
1257,6030001167739,新規,0,2025-07-22,2025-07-22,株式会社ウロボロス,,株式会社,埼玉県,所沢市,中新井３丁目１９番９号,,11,208,3590041,,,,,,,2025-07-22,1,,,,,ウロボロス,0
1261,6030003027214,新規,0,2025-07-22,2025-07-22,合同会社Ｕｐ,,合同会社,埼玉県,さいたま市大宮区,高鼻町３丁目１７ｆｅｌｉｃｉｔａＢ１０１,,11,103,3300803,,,,,,,2025-07-22,1,,,,,ユーピー,0
1262,6030005022213,新規,0,2025-07-22,2025-07-22,特定非営利活動法人パパママ子育てＢＡＳＥ,,その他の設立登記法人,埼玉県,大里郡寄居町,大字末野２２６８,,11,408,3691205,,,,,,,2025-07-22,1,,,,,パパママコソダテベース,0
1267,6040001139753,新規,0,2025-07-22,2025-07-22,株式会社ヴァリーベア,,株式会社,千葉県,佐倉市,江原台１丁目２３番地１４,,12,212,2850825,,,,,,,2025-07-22,1,,,,,ヴァリーベア,0
1277,6050001056980,新規,0,2025-07-22,2025-07-22,株式会社ＩＮＦＲＡＲＥＤ　ｔｏ　ＵＬＴＲＡＶＩＯＬＥＴ,,株式会社,茨城県,つくば市,吾妻１丁目１６番地２デュオヒルズつくば吾妻４０６号,,08,220,3050031,,,,,,,2025-07-22,1,,,,,インフラレッドトゥウルトラヴァイオレット,0
1278,6050001056989,新規,0,2025-07-22,2025-07-22,サケ・アーキテクト株式会社,,株式会社,茨城県,土浦市,湖北２丁目２番１０号,,08,203,3000032,,,,,,,2025-07-22,1,,,,,サケアーキテクト,0
1287,6070001043143,新規,0,2025-07-22,2025-07-22,株式会社マチダ塗装工業,,株式会社,群馬県,前橋市,幸塚町９１番地４,,10,201,3710053,,,,,,,2025-07-22,1,,,,,マチダトソウコウギョウ,0
1295,6080105006524,新規,0,2025-07-22,2025-07-22,ＮＰＯ法人ＭＯＲＥ企画,,その他の設立登記法人,静岡県,伊東市,荻５７４番地の３３９,,22,208,4140053,,,,,,,2025-07-22,1,,,,,モアキカク,0
1314,6120001278015,新規,0,2025-07-22,2025-07-22,ＤＯＵＢＬＥ　ＬＵＣＫＹ株式会社,,株式会社,大阪府,大阪市中央区,船場中央２丁目２番５号船場センタービル５号館地下一階Ｂ１２９ＲＯＹＡＬＯＦＦＩＣＥ内,,27,128,5410055,,,,,,,2025-07-22,1,,,,,ダブルラッキー,0
1315,6120001278031,新規,0,2025-07-22,2025-07-22,株式会社ＭＥＴＡ　ＡＳＳＯＣＩＡＴＥ,,株式会社,大阪府,大阪市天王寺区,堂ケ芝１丁目３番３７号,,27,109,5430033,,,,,,,2025-07-22,1,,,,,メタアソシエート,0
1316,6120001278080,新規,0,2025-07-22,2025-07-22,シャムロック株式会社,,株式会社,大阪府,大阪市北区,西天満４丁目３番１号,,27,127,5300047,,,,,,,2025-07-22,1,,,,,シャムロック,0
1321,6120005025058,新規,0,2025-07-22,2025-07-22,医療法人ふくしま会,,その他の設立登記法人,大阪府,大阪市北区,天神橋２丁目１番２９号レクシア大阪天満宮３階,,27,127,5300041,,,,,,,2025-07-22,1,,,,,フクシマカイ,0
1325,6120101072128,新規,0,2025-07-22,2025-07-22,株式会社ＤＡＩＳＨＯ,,株式会社,大阪府,堺市中区,土塔町３３２０番地,,27,142,5998234,,,,,,,2025-07-22,1,,,,,ダイショー,0
1332,6140001139347,新規,0,2025-07-22,2025-07-22,株式会社ダイチエステート,,株式会社,兵庫県,神戸市西区,伊川谷町有瀬６９６－４７－２０１,,28,111,6512113,,,,,,,2025-07-22,1,,,,,ダイチエステート,0
1333,6160001026907,新規,0,2025-07-22,2025-07-22,株式会社友昇電設,,株式会社,滋賀県,大津市,衣川１丁目１４－１０,,25,201,5200244,,,,,,,2025-07-22,1,,,,,トモショウデンセツ,0
1334,6160001026915,新規,0,2025-07-22,2025-07-22,株式会社トラス,,株式会社,滋賀県,高島市,今津町北仰２３９番地７,,25,212,5201603,,,,,,,2025-07-22,1,,,,,トラス,0
1342,6200001044029,新規,0,2025-07-22,2025-07-22,株式会社ＧＯＡＬＬ,,株式会社,岐阜県,大垣市,波須２丁目４５番地１,,21,202,5030811,,,,,,,2025-07-22,1,,,,,ゴーオール,0
1343,6200001044053,新規,0,2025-07-22,2025-07-22,株式会社リアンホーム,,株式会社,岐阜県,岐阜市,木田１５６５番地１,,21,201,5011135,,,,,,,2025-07-22,1,,,,,リアンホーム,0
1344,6200003006927,新規,0,2025-07-22,2025-07-22,Ｂｏｔｈｉｅ合同会社,,合同会社,岐阜県,飛騨市,古川町末広町８番１２号,,21,217,5094233,,,,,,,2025-07-22,1,,,,,ボシィー,0
1346,6210001020243,新規,0,2025-07-22,2025-07-22,株式会社水沢キャンプ場,,株式会社,福井県,坂井市,三国町崎第６１号３４番地２,,18,210,9130065,,,,,,,2025-07-22,1,,,,,ミズサワキャンプジョウ,0
1357,6250001021254,新規,0,2025-07-22,2025-07-22,株式会社みよし工業,,株式会社,山口県,山陽小野田市,大字西高泊６７０番地３,,35,216,7560057,,,,,,,2025-07-22,1,,,,,ミヨシコウギョウ,0
1363,6290001110796,新規,0,2025-07-22,2025-07-22,株式会社ＢＫＪＡＭＭ,,株式会社,福岡県,久留米市,安武町住吉１６２２番地５,,40,203,8300078,,,,,,,2025-07-22,1,,,,,ビーケージャム,0
1364,6290001110805,新規,0,2025-07-22,2025-07-22,すずなりエステート株式会社,,株式会社,福岡県,太宰府市,水城６丁目６番１７号,,40,221,8180131,,,,,,,2025-07-22,1,,,,,スズナリエステート,0
1367,6300001014277,新規,0,2025-07-22,2025-07-22,リファイン株式会社,,株式会社,佐賀県,多久市,東多久町大字納所６４７５番地１,,41,204,8460014,,,,,,,2025-07-22,1,,,,,リファイン,0
1369,6310003005042,新規,0,2025-07-22,2025-07-22,暮らしとケア合同会社,,合同会社,長崎県,佐世保市,天神５丁目４０－３０,,42,202,8571174,,,,,,,2025-07-22,1,,,,,クラシトケア,0
1400,6700150091036,新規,0,2025-07-22,2018-10-02,神奈川県建設労働組合連合会　湘北地区協議会,,その他,神奈川県,相模原市南区,新戸１８８８,,14,153,2520326,,,,,,,2018-10-02,1,,,,,カナガワケンケンセツロウドウクミアイレンゴウカイシヨウホクチクキヨウギカイ,0
1405,7010001256939,新規,0,2025-07-22,2025-07-22,株式会社ＳＦ,,株式会社,東京都,千代田区,神田須田町１丁目７番地８ＶＯＲＴ秋葉原ＩＶ２Ｆ,00139998,13,101,1010041,,,,,,,2025-07-22,1,,,,,エスエフ,0
1406,7010001257020,新規,0,2025-07-22,2025-07-22,株式会社ＩＢＫホールディングス,,株式会社,東京都,中央区,銀座８丁目１０番８号銀座８丁目１０番ビル３階,,13,102,1040061,,,,,,,2025-07-22,1,,,,,アイビーケーホールディングス,0
1408,7010003048062,新規,0,2025-07-22,2025-07-22,オールジャパン合同会社,,合同会社,東京都,中央区,勝どき１丁目７番２－１３０８号,,13,102,1040054,,,,,,,2025-07-22,1,,,,,オールジャパン,0
1409,7010005040397,新規,0,2025-07-22,2025-07-22,一般社団法人全日本医療協会,,その他の設立登記法人,東京都,千代田区,丸の内１丁目３－４丸の内テラス４階,,13,101,1000005,,,,,,,2025-07-22,1,,,,,ゼンニホンイリョウキョウカイ,0
1424,7010801036400,新規,0,2025-07-22,2025-07-22,株式会社Ｌｉｎｅｃｔ,,株式会社,東京都,大田区,久が原２丁目２０番２０号,,13,111,1460085,,,,,,,2025-07-22,1,,,,,リネクト,0
1426,7010803005477,新規,0,2025-07-22,2025-07-22,バンエイ合同会社,,合同会社,東京都,大田区,大森北１丁目３番９号春日ビル１Ｆ,,13,111,1430016,,,,,,,2025-07-22,1,,,,,バンエイ,0
1427,7010903010113,新規,0,2025-07-22,2025-07-22,エスカーノ合同会社,,合同会社,東京都,世田谷区,瀬田３丁目５番１２－６０２号,,13,112,1580095,,,,,,,2025-07-22,1,,,,,エスカーノ,0
1428,7011001170989,新規,0,2025-07-22,2025-07-22,株式会社Ｅｌｉｔｅ　Ｖｉｓｉｏｎ,,株式会社,東京都,目黒区,青葉台３丁目１番１号ザ・パークハビオ渋谷クロス１１０６,,13,110,1530042,,,,,,,2025-07-22,1,,,,,エリートビジョン,0
1429,7011001170997,新規,0,2025-07-22,2025-07-22,ａｓｙｎｃ株式会社,,株式会社,東京都,渋谷区,神南１丁目１１－４ＦＰＧリンクス神南５階,,13,113,1500041,,,,,,,2025-07-22,1,,,,,アシンク,0
1430,7011001171013,新規,0,2025-07-22,2025-07-22,ＳｔｅｌｌａｒＡｒｃ株式会社,,株式会社,東京都,渋谷区,渋谷３丁目１番９号ＹＡＺＡＷＡビル３階,,13,113,1500002,,,,,,,2025-07-22,1,,,,,ステラアーク,0
1431,7011001171038,新規,0,2025-07-22,2025-07-22,株式会社ＨＳＢクリエイティブ,,株式会社,東京都,渋谷区,東１丁目９番２号ネオハイシティ常盤松３０５,,13,113,1500011,,,,,,,2025-07-22,1,,,,,エイチエスビイクリエイティブ,0
1432,7011001171046,新規,0,2025-07-22,2025-07-22,株式会社Ｔｒｉｖｉｓ,,株式会社,東京都,渋谷区,道玄坂２丁目１９番６号スクエア渋谷１１０２,,13,113,1500043,,,,,,,2025-07-22,1,,,,,トリヴィス,0
1433,7011001171153,新規,0,2025-07-22,2025-07-22,株式会社ＳＥＶＥＮＲＩＣＨ　ＣＡＰＩＴＡＬ,,株式会社,東京都,渋谷区,渋谷３丁目１９番１号,,13,113,1500002,,,,,,,2025-07-22,1,,,,,セブンリッチキャピタル,0
1434,7011001171368,新規,0,2025-07-22,2025-07-22,株式会社タイガーラボ,,株式会社,東京都,渋谷区,広尾１丁目２番地１号ヒカリビル４階,,13,113,1500012,,,,,,,2025-07-22,1,,,,,タイガーラボ,0
1436,7011003022148,新規,0,2025-07-22,2025-07-22,ＭＯＭＯＯＮＥＤＡＹＺ合同会社,,合同会社,東京都,目黒区,自由が丘２丁目１６番１２号ＲＪ３,,13,110,1520035,,,,,,,2025-07-22,1,,,,,モモワンデイズ,0
1437,7011003022164,新規,0,2025-07-22,2025-07-22,合同会社心動,,合同会社,東京都,渋谷区,円山町５番３号ＭＩＥＵＸ渋谷ビル８階,,13,113,1500044,,,,,,,2025-07-22,1,,,,,シンドウ,0
1442,7011303005637,新規,0,2025-07-22,2025-07-22,合同会社スマートサポート,,合同会社,東京都,杉並区,高円寺南４丁目２５－７五名堂駅前ビルＢ１,,13,115,1660003,,,,,,,2025-07-22,1,,,,,スマートサポート,0
1443,7011305003052,新規,0,2025-07-22,2025-07-22,一般社団法人日本吹奏楽協会,,その他の設立登記法人,東京都,杉並区,和田２丁目７番１号普門メディアセンター,,13,115,1660012,,,,,,,2025-07-22,1,,,,,ニホンスイソウガクキョウカイ,0
1447,7011601028819,新規,0,2025-07-22,2025-07-22,株式会社ＲａＳｈｉＫｕ,,株式会社,東京都,練馬区,豊玉中２丁目１７番１６号フォレスト・ヴィラ１０１,,13,120,1760013,,,,,,,2025-07-22,1,,,,,ラシク,0
1449,7011801046455,新規,0,2025-07-22,2025-07-22,株式会社Ｔ．Ｋ,,株式会社,東京都,葛飾区,金町２丁目２１番５号,,13,122,1250042,,,,,,,2025-07-22,1,,,,,ティードットケー,0
1457,7020001163903,新規,0,2025-07-22,2025-07-22,株式会社ＮａｔｕｒｅＢｏｄｙ,,株式会社,神奈川県,横浜市青葉区,青葉台１丁目２８－４まるいビル１Ｆ,,14,117,2270062,,,,,,,2025-07-22,1,,,,,,0
1458,7020001163936,新規,0,2025-07-22,2025-07-22,株式会社ニューイングリッシュ,,株式会社,神奈川県,横浜市中区,本牧町１丁目２７３番地６,,14,104,2310806,,,,,,,2025-07-22,1,,,,,ニューイングリッシュ,0
1459,7020001163944,新規,0,2025-07-22,2025-07-22,株式会社ＳＨＵＦＦＬＥ　ＷＯＲＫＳ,,株式会社,神奈川県,川崎市麻生区,下麻生２丁目１２－２５メナー麻生２０１,,14,137,2150022,,,,,,,2025-07-22,1,,,,,シャッフルワークス,0
1460,7020001163969,新規,0,2025-07-22,2025-07-22,株式会社横濱初東,,株式会社,神奈川県,川崎市多摩区,生田６丁目２５番１８号ハレレア生田１０２,,14,135,2140038,,,,,,,2025-07-22,1,,,,,ヨコハマハツトウ,0
1465,7020005016933,新規,0,2025-07-22,2025-07-22,一般社団法人うらら会,,その他の設立登記法人,神奈川県,横浜市西区,浅間町５丁目３８１番２１,,14,103,2200072,,,,,,,2025-07-22,1,,,,,ウララカイ,0
1468,7021001085823,新規,0,2025-07-22,2025-07-22,株式会社ノドカ,,株式会社,神奈川県,秦野市,渋沢１５４４番地の８,,14,211,2591322,,,,,,,2025-07-22,1,,,,,ノドカ,0
1469,7021001085856,新規,0,2025-07-22,2025-07-22,株式会社ティーケーガレージサービス,,株式会社,神奈川県,足柄上郡山北町,山北７３２番地１,,14,364,2580113,,,,,,,2025-07-22,1,,,,,ティーケーガレージサービス,0
1471,7021003016289,新規,0,2025-07-22,2025-07-22,合同会社写心舎,,合同会社,神奈川県,茅ヶ崎市,赤羽根３０８１－６４,,14,207,2530001,,,,,,,2025-07-22,1,,,,,シャシンシャ,0
1475,7030001167754,新規,0,2025-07-22,2025-07-22,株式会社オプトクラリス,,株式会社,埼玉県,朝霞市,根岸台２丁目１５番６２号アサカエイト２０５,,11,227,3510005,,,,,,,2025-07-22,1,,,,,オプトクラリス,0
1481,7030003027238,新規,0,2025-07-22,2025-07-22,合同会社夢工房,,合同会社,埼玉県,北本市,荒井１丁目２１１番地,,11,233,3640026,,,,,,,2025-07-22,1,,,,,ユメコウボウ,0
1485,7040001139736,新規,0,2025-07-22,2025-07-22,株式会社ほのペコ,,株式会社,千葉県,松戸市,新松戸１丁目４１４番地３０２,,12,207,2700034,,,,,,,2025-07-22,1,,,,,ホノペコ,0
1490,7040003028061,新規,0,2025-07-22,2025-07-22,合同会社松本木工社,,合同会社,千葉県,千葉市若葉区,大井戸町４１５番地８,,12,104,2650075,,,,,,,2025-07-22,1,,,,,マツモトモッコウシャ,0
1493,7060001038424,新規,0,2025-07-22,2025-07-22,株式会社谷津電機設備,,株式会社,栃木県,栃木市,藤岡町大田和７９６,,09,203,3231107,,,,,,,2025-07-22,1,,,,,ヤツデンキセツビ,0
1520,7120001277998,新規,0,2025-07-22,2025-07-22,株式会社ＢｏｎＤ,,株式会社,大阪府,大阪市平野区,瓜破２丁目２番３－９０１号,,27,126,5470024,,,,,,,2025-07-22,1,,,,,ボンド,0
1521,7120001278022,新規,0,2025-07-22,2025-07-22,株式会社オンキャリー,,株式会社,大阪府,大阪市中央区,安土町２丁目５番５号本町明大ビル８０２,,27,128,5410052,,,,,,,2025-07-22,1,,,,,オンキャリー,0
1522,7120001278039,新規,0,2025-07-22,2025-07-22,株式会社５．Ｍａｉｓｏｎ,,株式会社,大阪府,大阪市淀川区,西中島５丁目９番５号ＮＬＣ新大阪ビル８０２号,,27,123,5320011,,,,,,,2025-07-22,1,,,,,メイメゾン,0
1523,7120001278088,新規,0,2025-07-22,2025-07-22,ＺＲＨ株式会社,,株式会社,大阪府,大阪市東住吉区,杭全５丁目１番２－３０１号,,27,121,5460002,,,,,,,2025-07-22,1,,,,,ゼットアールエイチ,0
1524,7120005025032,新規,0,2025-07-22,2025-07-22,Ａ＆Ｓ大阪法律事務所弁護士法人,,その他の設立登記法人,大阪府,大阪市北区,中之島２丁目３番１８号中之島フェスティバルタワー,,27,127,5300005,,,,,,,2025-07-22,1,,,,,エーアンドエスオオサカホウリツジムショ,0
1525,7120005025057,新規,0,2025-07-22,2025-07-22,一般社団法人Ｍａｇｎｏｌｉａ,,その他の設立登記法人,大阪府,大阪市北区,西天満４丁目３番１号,,27,127,5300047,,,,,,,2025-07-22,1,,,,,マグノリア,0
1530,7120105010041,新規,0,2025-07-22,2025-07-22,医療法人ＨＡＰＰＹ‐ＧＯ‐ＬＵＣＫＹ,,その他の設立登記法人,大阪府,堺市中区,深阪２丁１０番５１号フジビル２階,,27,142,5998253,,,,,,,2025-07-22,1,,,,,ハッピーゴーラッキー,0
1541,7140003022327,新規,0,2025-07-22,2025-07-22,暮青山合同会社,,合同会社,兵庫県,神戸市中央区,中島通３丁目３番１８号１Ｆ,,28,110,6510052,,,,,,,2025-07-22,1,,,,,クレセイザン,0
1542,7150003003664,新規,0,2025-07-22,2025-07-22,Ｐｒｏｌｅｓ合同会社,,合同会社,奈良県,北葛城郡河合町,池部３丁目２１番４０号,,29,427,6360053,,,,,,,2025-07-22,1,,,,,プロレス,0
1544,7160001026914,新規,0,2025-07-22,2025-07-22,株式会社壱建,,株式会社,滋賀県,大津市,上田上牧町１１２９番,,25,201,5202162,,,,,,,2025-07-22,1,,,,,イチケン,0
1546,7170003002251,新規,0,2025-07-22,2025-07-22,合同会社アーバンクリーン,,合同会社,和歌山県,和歌山市,西浜１０９４番地,,30,201,6410036,,,,,,,2025-07-22,1,,,,,アーバンクリーン,0
1558,7200003006926,新規,0,2025-07-22,2025-07-22,Ｄｏｔｓ　Ｌｉｎｅ合同会社,,合同会社,岐阜県,関市,巾２丁目１３６番地１０,,21,205,5013256,,,,,,,2025-07-22,1,,,,,ドッツライン,0
1562,7220001026767,新規,0,2025-07-22,2025-07-22,日本伊源株式会社,,株式会社,石川県,金沢市,中橋町１１－２６アシスト金沢駅前マンション１０２室（２階）,,17,201,9200035,,,,,,,2025-07-22,1,,,,,ニホンイゲン,0
1570,7260005011497,新規,0,2025-07-22,2025-07-22,一般社団法人飛沫会,,その他の設立登記法人,岡山県,岡山市東区,大多羅町１４６番地１６,,33,103,7048172,,,,,,,2025-07-22,1,,,,,シブキカイ,0
1574,7290001110787,新規,0,2025-07-22,2025-07-22,株式会社プリズム,,株式会社,福岡県,春日市,須玖北２丁目５１番地,,40,218,8160864,,,,,,,2025-07-22,1,,,,,プリズム,0
1575,7290001110804,新規,0,2025-07-22,2025-07-22,株式会社ラッセル,,株式会社,福岡県,福岡市中央区,平尾４丁目１４番３６号,,40,133,8100014,,,,,,,2025-07-22,1,,,,,ラッセル,0
1576,7290001110812,新規,0,2025-07-22,2025-07-22,ＪＴＬ　ＪＡＰＡＮ株式会社,,株式会社,福岡県,福岡市博多区,博多駅前３丁目２７－２５第２岡部ビル,,40,132,8120011,,,,,,,2025-07-22,1,,,,,ジェイティーエルジャパン,0
1577,7290003017122,新規,0,2025-07-22,2025-07-22,合同会社Ｊｕｉｃｅ　Ｕｐ,,合同会社,福岡県,福岡市中央区,六本松１丁目６番１７号,,40,133,8100044,,,,,,,2025-07-22,1,,,,,ジュースアップ,0
1578,7290003017130,新規,0,2025-07-22,2025-07-22,合同会社かんきつ,,合同会社,福岡県,宗像市,平井２丁目９番１０号,,40,220,8113430,,,,,,,2025-07-22,1,,,,,カンキツ,0
1589,7340001027522,新規,0,2025-07-22,2025-07-22,株式会社かごんま石材店,,株式会社,鹿児島県,鹿児島市,新栄町１９－１６,,46,201,8900072,,,,,,,2025-07-22,1,,,,,カゴンマセキザイテン,0
1593,7360003015102,新規,0,2025-07-22,2025-07-22,合同会社田辺電気工事,,合同会社,沖縄県,石垣市,字真栄里１７１－３,,47,207,9070002,,,,,,,2025-07-22,1,,,,,タナベデンキコウジ,0
1606,7460101007734,新規,0,2025-07-22,2025-07-22,株式会社Ｙ・Ｅ・Ｐ,,株式会社,北海道,帯広市,東一条南１３丁目１３番地４,,01,207,0800801,,,,,,,2025-07-22,1,,,,,ワイイーピー,0
1618,8010001256962,新規,0,2025-07-22,2025-07-22,株式会社３９ＺＯＯ,,株式会社,東京都,文京区,湯島２丁目４番１－５０２号,,13,105,1130034,,,,,,,2025-07-22,1,,,,,サンキューズー,0
1619,8010003048094,新規,0,2025-07-22,2025-07-22,ｉｎｃａｒｅｅｒ合同会社,,合同会社,東京都,千代田区,神田和泉町１番地６－１６ヤマトビル４０５,,13,101,1010024,,,,,,,2025-07-22,1,,,,,インキャリア,0
1621,8010005040339,新規,0,2025-07-22,2025-07-22,一般社団法人日本採用コンサルタント協会,,その他の設立登記法人,東京都,中央区,八重洲２丁目１番１号,,13,102,1040028,,,,,,,2025-07-22,1,,,,,ニホンサイヨウコンサルタントキョウカイ,0
1633,8010501054429,新規,0,2025-07-22,2025-07-22,大秦株式会社,,株式会社,東京都,台東区,下谷１丁目５番２５号,,13,106,1100004,,,,,,,2025-07-22,1,,,,,オオハタ,0
1636,8010505003613,新規,0,2025-07-22,2025-07-22,税理士法人ＮＭＩ会計,,その他の設立登記法人,東京都,台東区,上野７丁目８番２０号,,13,106,1100005,,,,,,,2025-07-22,1,,,,,エヌエムアイカイケイ,0
1639,8010601067644,新規,0,2025-07-22,2025-07-22,株式会社Ｎｅｘｔ　Ｓｔａｇｅ,,株式会社,東京都,墨田区,石原４丁目２６番１４－２０１号,,13,107,1300011,,,,,,,2025-07-22,1,,,,,ネクストステージ,0
1644,8010803005476,新規,0,2025-07-22,2025-07-22,合同会社グッド楽,,合同会社,東京都,大田区,大森西３丁目２０番１６号,,13,111,1430015,,,,,,,2025-07-22,1,,,,,グッドラク,0
1658,8011001171061,新規,0,2025-07-22,2025-07-22,株式会社ＫＩＮＧ．Ｂ,,株式会社,東京都,渋谷区,代官山町３番１３－５０８号,,13,113,1500034,,,,,,,2025-07-22,1,,,,,キングビー,0
1661,8011101112469,新規,0,2025-07-22,2025-07-22,株式会社福祈,,株式会社,東京都,新宿区,四谷４丁目１０－２,,13,104,1600004,,,,,,,2025-07-22,1,,,,,フクイノリ,0
1662,8011101112477,新規,0,2025-07-22,2025-07-22,株式会社７,,株式会社,東京都,新宿区,矢来町１２１日幸ビル４階,,13,104,1620805,,,,,,,2025-07-22,1,,,,,ナナ,0
1665,8011203004762,新規,0,2025-07-22,2025-07-22,合同会社ユーオアアイ,,合同会社,東京都,中野区,中野５丁目６７番７号プラザ中野８０１,,13,114,1640001,,,,,,,2025-07-22,1,,,,,ユーオアアイ,0
1667,8011301030743,新規,0,2025-07-22,2025-07-22,株式会社ＪＧ,,株式会社,東京都,杉並区,阿佐谷南１丁目４番３－６０１号,,13,115,1660004,,,,,,,2025-07-22,1,,,,,ジェイジー,0
1677,8012401043379,新規,0,2025-07-22,2025-07-22,ＤＰＭ株式会社,,株式会社,東京都,府中市,寿町３丁目６番地の３９ＥＸＩＡ府中１０１,,13,206,1830056,,,,,,,2025-07-22,1,,,,,ディーピーエム,0
1697,8020001163869,新規,0,2025-07-22,2025-07-22,ラーバルマスク株式会社,,株式会社,神奈川県,川崎市高津区,末長１丁目６－３２－７１４藤和ハイタウン梶が谷,,14,134,2130013,,,,,,,2025-07-22,1,,,,,ラーバルマスク,0
1698,8020001163951,新規,0,2025-07-22,2025-07-22,株式会社エヌコン,,株式会社,神奈川県,横浜市金沢区,富岡西１丁目５４番１４号,,14,108,2360052,,,,,,,2025-07-22,1,,,,,エヌコン,0
1699,8020001163984,新規,0,2025-07-22,2025-07-22,Ａ＆Ｙアセットマネジメント株式会社,,株式会社,神奈川県,川崎市中原区,井田中ノ町３４番２０－４１５号,,14,133,2110034,,,,,,,2025-07-22,1,,,,,エーアンドワイアセットマネジメント,0
1701,8020003028987,新規,0,2025-07-22,2025-07-22,Ｂｉｚ　Ｉｎｓｉｇｈｔ合同会社,,合同会社,神奈川県,川崎市高津区,末長２丁目１番３９ー２０３号,,14,134,2130013,,,,,,,2025-07-22,1,,,,,ビズインサイト,0
1703,8021001085830,新規,0,2025-07-22,2025-07-22,ＳｏｒａｉｅＬａｂ株式会社,,株式会社,神奈川県,茅ヶ崎市,東海岸北３丁目１０番４７号,,14,207,2530053,,,,,,,2025-07-22,1,,,,,ソライエラボ,0
1709,8030003027237,新規,0,2025-07-22,2025-07-22,ＮＯＬＡＰｌｕｓ合同会社,,合同会社,埼玉県,さいたま市大宮区,高鼻町２丁目１９０番地,,11,103,3300803,,,,,,,2025-07-22,1,,,,,ノーラプラス,0
1717,8040001139743,新規,0,2025-07-22,2025-07-22,誠仁運輸株式会社,,株式会社,千葉県,木更津市,伊豆島１１１４－４,,12,206,2920034,,,,,,,2025-07-22,1,,,,,サネヒトウンユ,0
1723,8040005022821,新規,0,2025-07-22,2025-07-22,特定非営利活動法人成田日本語学校,,その他の設立登記法人,千葉県,成田市,奈土８０８番地,,12,211,2870205,,,,,,,2025-07-22,1,,,,,ナリタニホンゴガッコウ,0
1735,8070003005998,新規,0,2025-07-22,2025-07-22,合同会社Ｌｉｎｃａ,,合同会社,群馬県,吾妻郡東吾妻町,大字萩生３６４番地,,10,429,3770932,,,,,,,2025-07-22,1,,,,,リンカ,0
1736,8070005010410,新規,0,2025-07-22,2025-07-22,一般社団法人群馬クレインサンダーズ後援会,,その他の設立登記法人,群馬県,太田市,飯田町８９４番地２,,10,205,3730851,,,,,,,2025-07-22,1,,,,,グンマクレインサンダーズコウエンカイ,0
1744,8090001019387,新規,0,2025-07-22,2025-07-22,株式会社アドバンス,,株式会社,山梨県,南アルプス市,藤田１５７１番地１,,19,208,4000334,,,,,,,2025-07-22,1,,,,,,0
1745,8100003008295,新規,0,2025-07-22,2025-07-22,合同会社ｆｒｕｖｉｅ,,合同会社,長野県,長野市,真島町川合７番地１,,20,201,3812203,,,,,,,2025-07-22,1,,,,,フルヴィー,0
1761,8120001277972,新規,0,2025-07-22,2025-07-22,ＨＡＰＰＲＯ株式会社,,株式会社,大阪府,大阪市東成区,大今里３丁目１５番６号ＩｍａｚａｔｏＴｏｗｅｒ４０６Ｅ,,27,115,5370012,,,,,,,2025-07-22,1,,,,,ハプロ,0
1762,8120001278005,新規,0,2025-07-22,2025-07-22,Ｋ＆Ｔ　ＧＲＯＵＰ株式会社,,株式会社,大阪府,大阪市中央区,日本橋１丁目２番２号Ｍａｒｖｅｌ日本橋５Ｆ,,27,128,5420073,,,,,,,2025-07-22,1,,,,,ケーアンドティーグループ,0
1763,8120001278129,新規,0,2025-07-22,2025-07-22,泛東貿易株式会社,,株式会社,大阪府,大阪市阿倍野区,丸山通１丁目５番２号,,27,119,5450042,,,,,,,2025-07-22,1,,,,,ハントウボウエキ,0
1775,8130001080120,新規,0,2025-07-22,2025-07-22,株式会社ヘルスサポートぱんたま,,株式会社,京都府,亀岡市,本梅町中野林垣内１９番地１,,26,206,6210252,,,,,,,2025-07-22,1,,,,,ヘルスサポートパンタマ,0
1781,8140001139270,新規,0,2025-07-22,2025-07-22,株式会社ジュライズ,,株式会社,兵庫県,神戸市中央区,若菜通５丁目２番２７－４０１号,,28,110,6510091,,,,,,,2025-07-22,1,,,,,ジュライズ,0
1782,8150003003663,新規,0,2025-07-22,2025-07-22,合同会社ヤマト,,合同会社,奈良県,生駒郡安堵町,大字東安堵５３８番地,,29,345,6391061,,,,,,,2025-07-22,1,,,,,ヤマト,0
1784,8160001026905,新規,0,2025-07-22,2025-07-22,ＳＯホールディングス株式会社,,株式会社,滋賀県,大津市,春日町１番５－１３１８号,,25,201,5200055,,,,,,,2025-07-22,1,,,,,エスオーホールディングス,0
1785,8160001026913,新規,0,2025-07-22,2025-07-22,株式会社京滋ワークス,,株式会社,滋賀県,大津市,黒津３丁目８番１６号,,25,201,5202279,,,,,,,2025-07-22,1,,,,,ケイジワークス,0
1789,8170003002250,新規,0,2025-07-22,2025-07-22,合同会社ＨＭｂｅａｕｔｙ,,合同会社,和歌山県,和歌山市,木ノ本１５５番地セジュール木ノ本Ａ２０５,,30,201,6408453,,,,,,,2025-07-22,1,,,,,エイチエムビューティー,0
1807,8200001044051,新規,0,2025-07-22,2025-07-22,株式会社ｏｏ．,,株式会社,岐阜県,岐阜市,薮田南３丁目７番２０号,,21,201,5008384,,,,,,,2025-07-22,1,,,,,トゥードッツ,0
1808,8200003006925,新規,0,2025-07-22,2025-07-22,ＪＵＮＡＩＤ　ＴＲＡＤＩＮＧ合同会社,,合同会社,岐阜県,岐阜市,黒野１００番地２アンデルセンＩ６号室,00139990,21,201,5011131,,,,,,,2025-07-22,1,,,,,ジュネードトレーディング,0
1810,8210001020241,新規,0,2025-07-22,2025-07-22,塩田電気株式会社,,株式会社,福井県,福井市,三郎丸２丁目２００９番地１,,18,201,9100033,,,,,,,2025-07-22,1,,,,,シオダデンキ,0
1820,8250003003760,新規,0,2025-07-22,2025-07-22,合同会社ＮＩＮＡ,,合同会社,山口県,周南市,花陽２丁目８－１５,,35,215,7450858,,,,,,,2025-07-22,1,,,,,ニナ,0
1821,8250003003777,新規,0,2025-07-22,2025-07-22,合同会社下関制作,,合同会社,山口県,下関市,山の口町３番１０号,,35,201,7510824,,,,,,,2025-07-22,1,,,,,シモノセキセイサク,0
1823,8260003005269,新規,0,2025-07-22,2025-07-22,ツバキ電気合同会社,,合同会社,岡山県,加賀郡吉備中央町,吉川７５７０番地６６,,33,681,7161241,,,,,,,2025-07-22,1,,,,,ツバキデンキ,0
1834,8290001110811,新規,0,2025-07-22,2025-07-22,株式会社高森林業,00139996,株式会社,福岡県,筑紫野市,むさしヶ丘４丁目５４９番地１１,,40,217,8180043,,,,,,,2025-07-22,1,,,,,タカモリリンギョウ,0
1836,8290003017096,新規,0,2025-07-22,2025-07-22,合同会社ＳＡＲＡＨ,,合同会社,福岡県,福岡市南区,塩原３丁目１４番２１号ジュピエール大橋１０３号,,40,134,8150032,,,,,,,2025-07-22,1,,,,,サラー,0
1838,8290801031728,新規,0,2025-07-22,2025-07-22,キックスペーステクノロジーズ株式会社,,株式会社,福岡県,北九州市戸畑区,仙水町１－１,,40,105,8040015,,,,,,,2025-07-22,1,,,,,キックスペーステクノロジーズ,0
1839,8300001014283,新規,0,2025-07-22,2025-07-22,株式会社Ａｃｅ,,株式会社,佐賀県,佐賀市,神園５丁目１６番６号,,41,201,8400806,,,,,,,2025-07-22,1,,,,,エース,0
1853,8400003003506,新規,0,2025-07-22,2025-07-22,合同会社Ｒａｂｂｉｔ,,合同会社,岩手県,盛岡市,東新庄２丁目２４番１４号,,03,201,0200805,,,,,,,2025-07-22,1,,,,,ラビット,0
1854,8410001014231,新規,0,2025-07-22,2025-07-22,株式会社ＯｒｄｅｒＴｅｃｈ,,株式会社,秋田県,大館市,松木字大上１１０番地,,05,204,0170052,,,,,,,2025-07-22,1,,,,,オーダーテック,0
1863,8500001026424,新規,0,2025-07-22,2025-07-22,株式会社ＭＧＳホールディングス,,株式会社,愛媛県,松山市,南江戸１丁目２番２号,,38,201,7900062,,,,,,,2025-07-22,1,,,,,エムジーエスホールディングス,0
1875,9010001256953,新規,0,2025-07-22,2025-07-22,ＨｉＸ　Ｊａｐａｎ株式会社,,株式会社,東京都,千代田区,内幸町２丁目２番２号富国生命ビル１６階,,13,101,1000011,,,,,,,2025-07-22,1,,,,,ヒックスジャパン,0
1876,9010001256994,新規,0,2025-07-22,2025-07-22,ネクストウェル株式会社,,株式会社,東京都,文京区,後楽１丁目４番１１－４０５号,,13,105,1120004,,,,,,,2025-07-22,1,,,,,ネクストウェル,0
1877,9010001257019,新規,0,2025-07-22,2025-07-22,Ｔｏｋｙｏ　Ａｄｆａｉｔｈ株式会社,,株式会社,東京都,千代田区,岩本町２丁目１７－４泰合ビルＩＩ３Ａ,00139999,13,101,1010032,,,,,,,2025-07-22,1,,,,,トーキョーアドフェイス,0
1878,9010003048085,新規,0,2025-07-22,2025-07-22,ＲＥＰジャパン２合同会社,,合同会社,東京都,中央区,日本橋３丁目９番１号日本橋三丁目スクエア１１階,,13,102,1030027,,,,,,,2025-07-22,1,,,,,アールイーピージャパンツー,0
1884,9010501054436,新規,0,2025-07-22,2025-07-22,株式会社ＤＯＲＡＶＥＲＳＥ　ＪＡＰＡＮ,,株式会社,東京都,台東区,上野３丁目１６番２号,,13,106,1100005,,,,,,,2025-07-22,1,,,,,ドラバースジャパン,0
1885,9010501054444,新規,0,2025-07-22,2025-07-22,株式会社品川アセット,,株式会社,東京都,台東区,浅草橋１丁目３１番７－５０１号Ｍｃｒ＿ｅｒ,00140000,13,106,1110053,,,,,,,2025-07-22,1,,,,,シナガワアセット,0
1886,9010601067627,新規,0,2025-07-22,2025-07-22,株式会社ＴＫＹネクサス,,株式会社,東京都,江東区,古石場２丁目１３番１－８０５号,,13,108,1350045,,,,,,,2025-07-22,1,,,,,ティーケーワイネクサス,0
1887,9010601067635,新規,0,2025-07-22,2025-07-22,智聯株式会社,,株式会社,東京都,墨田区,横川３丁目６番７号３－Ｐ室,,13,107,1300003,,,,,,,2025-07-22,1,,,,,チレン,0
1892,9010801036407,新規,0,2025-07-22,2025-07-22,株式会社ＥｓｃＤｏｍｉｎｏ,,株式会社,東京都,大田区,東矢口２丁目１７－１９,,13,111,1460094,,,,,,,2025-07-22,1,,,,,エスケープドミノ,0
1895,9010901057773,新規,0,2025-07-22,2025-07-22,株式会社藻,,株式会社,東京都,世田谷区,池尻２丁目３１－２０清水ビル２階,,13,112,1540001,,,,,,,2025-07-22,1,,,,,モ,0
1898,9010903010111,新規,0,2025-07-22,2025-07-22,合同会社オイスター,,合同会社,東京都,世田谷区,桜１丁目２番２０号,,13,112,1560053,,,,,,,2025-07-22,1,,,,,オイスター,0
1903,9011001171036,新規,0,2025-07-22,2025-07-22,株式会社エネシェアリング,,株式会社,東京都,渋谷区,幡ヶ谷１丁目３２番２号,,13,113,1510072,,,,,,,2025-07-22,1,,,,,エネシェアリング,0
1906,9011103016147,新規,0,2025-07-22,2025-07-22,Ｂ　Ｃｈａｒｉｓ合同会社,,合同会社,東京都,新宿区,北新宿１丁目３０－２１,,13,104,1690074,,,,,,,2025-07-22,1,,,,,ビーカリス,0
1919,9011601028817,新規,0,2025-07-22,2025-07-22,株式会社ＲＯＤＥＯ　ＤＩＶＥＲＳ,,株式会社,東京都,練馬区,春日町３丁目３３番８号フラットねりまＩＩ－１０９号,00139994,13,120,1790074,,,,,,,2025-07-22,1,,,,,ロデオダイバーズ,0
1930,9013101009751,新規,0,2025-07-22,2025-07-22,Ｃｌａｉｒ　Ｗｏｒｋｓ株式会社,,株式会社,東京都,福生市,大字福生８７６－２１,,13,218,1970011,,,,,,,2025-07-22,1,,,,,クレアワークス,0
1937,9020001163983,新規,0,2025-07-22,2025-07-22,エバーウェル株式会社,,株式会社,神奈川県,横浜市神奈川区,金港町５―１４クアドリフォリオ８階,,14,102,2210056,,,,,,,2025-07-22,1,,,,,エバーウェル,0
1939,9020003028961,新規,0,2025-07-22,2025-07-22,合同会社ＬＣＬ,,合同会社,神奈川県,横浜市港北区,箕輪町３丁目５番１９－１０５号,,14,109,2230051,,,,,,,2025-07-22,1,,,,,エルシーエル,0
1940,9020003028978,新規,0,2025-07-22,2025-07-22,合同会社フォースアベニュー,,合同会社,神奈川県,横浜市戸塚区,戸塚町４５３０番地３１,,14,110,2440003,,,,,,,2025-07-22,1,,,,,フォースアベニュー,0
1941,9020005016931,新規,0,2025-07-22,2025-07-22,一般社団法人ザツゼン,,その他の設立登記法人,神奈川県,横浜市青葉区,荏田北２丁目２番地１４,,14,117,2250015,,,,,,,2025-07-22,1,,,,,ザツゼン,0
1946,9021003016312,新規,0,2025-07-22,2025-07-22,ＨＩＴＡＫＩ合同会社,,合同会社,神奈川県,相模原市緑区,橋本６丁目２番２－２５０３号,,14,151,2520143,,,,,,,2025-07-22,1,,,,,ヒタキ,0
1957,9040001139750,新規,0,2025-07-22,2025-07-22,株式会社さくら,,株式会社,千葉県,八千代市,八千代台北１７丁目２０番１７号,,12,221,2760031,,,,,,,2025-07-22,1,,,,,サクラ,0
1977,9090003002860,新規,0,2025-07-22,2025-07-22,ＡＩＲ合同会社,,合同会社,山梨県,富士吉田市,中曽根１丁目１０番３２号,,19,202,4030007,,,,,,,2025-07-22,1,,,,,,0
1981,9100003008294,新規,0,2025-07-22,2025-07-22,ＨｅｌｌｏＴｏｇａｒｉ合同会社,,合同会社,長野県,飯山市,大字常郷３４４番地ロ,,20,213,3892412,,,,,,,2025-07-22,1,,,,,ハロートガリ,0
1982,9110001039423,新規,0,2025-07-22,2025-07-22,株式会社ＦｒｅｅＴｒａｃｅ,,株式会社,新潟県,糸魚川市,大町２丁目３－４３,,15,216,9410061,,,,,,,2025-07-22,1,,,,,フリートレース,0
2000,9120001277996,新規,0,2025-07-22,2025-07-22,株式会社Ｓｉｌｋｙ,,株式会社,大阪府,大阪市淀川区,西中島３丁目１７番５号,,27,123,5320011,,,,,,,2025-07-22,1,,,,,シルキー,0
2001,9120001278012,新規,0,2025-07-22,2025-07-22,株式会社ｃｉｎｅｍａ,,株式会社,大阪府,大阪市北区,梅田１丁目２番２号大阪駅前第２ビル１２－１２,,27,127,5300001,,,,,,,2025-07-22,1,,,,,シネマ,0
2002,9120001278020,新規,0,2025-07-22,2025-07-22,株式会社コトノハ,,株式会社,大阪府,大阪市淀川区,東三国１丁目２３番９号ナポリ東三国ビル３Ｆ,,27,123,5320002,,,,,,,2025-07-22,1,,,,,コトノハ,0
2003,9120001278037,新規,0,2025-07-22,2025-07-22,ＨＯＵＳＥ　Ｔｒａｎｓｃｅｎｄ株式会社,,株式会社,大阪府,大阪市西区,南堀江２丁目７番８－４０３号,,27,106,5500015,,,,,,,2025-07-22,1,,,,,ハウストラセンド,0
2005,9120003030065,新規,0,2025-07-22,2025-07-22,李安合同会社,,合同会社,大阪府,大阪市港区,弁天３丁目１０番２０号港ＯＧＩビル３０８号室,,27,107,5520007,,,,,,,2025-07-22,1,,,,,リアン,0
2008,9120005025055,新規,0,2025-07-22,2025-07-22,一般社団法人全日本スモールＭ＆Ａ研究会,,その他の設立登記法人,大阪府,大阪市東淀川区,西淡路１丁目１７番１２号,,27,114,5330031,,,,,,,2025-07-22,1,,,,,ゼンニホンスモールエムアンドエーケンキュウカイ,0
2009,9120103006584,新規,0,2025-07-22,2025-07-22,Ｏｗｌｌｙ合同会社,,合同会社,大阪府,堺市南区,庭代台２丁１４番１２号,,27,145,5900133,,,,,,,2025-07-22,1,,,,,アウリー,0
2028,9160001026904,新規,0,2025-07-22,2025-07-22,株式会社堀内製粉,,株式会社,滋賀県,甲賀市,甲南町森尻３４６番地,,25,209,5203324,,,,,,,2025-07-22,1,,,,,ホリウチセイフン,0
2031,9180001167548,新規,0,2025-07-22,2025-07-22,株式会社スタートセカンド,,株式会社,愛知県,名古屋市昭和区,御器所４丁目１８番９号,,23,107,4660051,,,,,,,2025-07-22,1,,,,,スタートセカンド,0
2034,9180301040041,新規,0,2025-07-22,2025-07-22,シーティーワイ株式会社,,株式会社,愛知県,豊橋市,中郷町２６番地,,23,201,4418031,,,,,,,2025-07-22,1,,,,,シーティーワイ,0
2062,9290001110785,新規,0,2025-07-22,2025-07-22,ＡＲＫ株式会社,,株式会社,福岡県,福岡市東区,若宮３丁目３番２１号,,40,131,8130036,,,,,,,2025-07-22,1,,,,,アルク,0
2067,9290005019791,新規,0,2025-07-22,2025-07-22,税理士法人ＴＭアカウンティング,,その他の設立登記法人,福岡県,福岡市中央区,渡辺通２丁目１番８２号,,40,133,8100004,,,,,,,2025-07-22,1,,,,,ティーエムアカウンティング,0
2073,9320001021228,新規,0,2025-07-22,2025-07-22,株式会社フィルハモ,,株式会社,大分県,大分市,大字宮崎１５８６番地の３６,,44,201,8701133,,,,,,,2025-07-22,1,,,,,フィルハモ,0
2076,9340001027520,新規,0,2025-07-22,2025-07-22,株式会社Ａ‐ＬＵＣＫ,,株式会社,鹿児島県,鹿児島市,西伊敷３丁目２９番３号,,46,201,8900002,,,,,,,2025-07-22,1,,,,,エイラック,0
2078,9340003004906,新規,0,2025-07-22,2025-07-22,合同会社エン・リンクス,,合同会社,鹿児島県,鹿児島市,船津町１－１１－３Ｆ,,46,201,8920831,,,,,,,2025-07-22,1,,,,,エンリンクス,0
2088,9370001052854,新規,0,2025-07-22,2025-07-22,Ｉｄｅａｌ　ｇｌａｎｚ株式会社,,株式会社,宮城県,仙台市青葉区,中山７丁目１２番２３号,,04,101,9810952,,,,,,,2025-07-22,1,,,,,イデアルグランツ,0
2094,9400001017119,新規,0,2025-07-22,2025-07-22,株式会社サム・エステートＭ,,株式会社,岩手県,盛岡市,北夕顔瀬町１０番１３号,,03,201,0200031,,,,,,,2025-07-22,1,,,,,サムエステートエム,0
2096,9430001094832,新規,0,2025-07-22,2025-07-22,株式会社小樽トラストサービス,,株式会社,北海道,小樽市,奥沢５丁目５番２６号,,01,203,0470013,,,,,,,2025-07-22,1,,,,,オタルトラストサービス,0
2097,9430001094865,新規,0,2025-07-22,2025-07-22,株式会社サムシング,,株式会社,北海道,江別市,ゆめみ野東町３４番地の７,,01,217,0670065,,,,,,,2025-07-22,1,,,,,サムシング,0
