sequenceNumber,corporateNumber,process,correct,updateDate,changeDate,name,nameImageId,kind,prefectureName,cityName,streetNumber,addressImageId,prefectureCode,cityCode,postCode,addressOutside,addressOutsideImageId,closeDate,closeCause,successorCorporateNumber,changeCause,assignmentDate,latest,enName,enPrefectureName,enCityName,enAddressOutside,furigana,hihyoji
12,1010001238496,新規,0,2023-09-21,2023-09-21,株式会社ＡＳＨＲ,,株式会社,東京都,中央区,銀座１丁目１２－４Ｎ＆ＥＢＬＤ．７階,,13,102,1040061,,,,,,,2023-09-21,1,,,,,アスエイチアール,0
13,1010001238595,新規,0,2023-09-21,2023-09-21,ＳＣゼウス・データセンター株式会社,,株式会社,東京都,千代田区,丸の内１丁目１１番１号パシフィックセンチュリープレイス丸の内８階,,13,101,1000005,,,,,,,2023-09-21,1,,,,,エスシーゼウスデータセンター,0
14,1010001238612,新規,0,2023-09-21,2023-09-21,ＷＡＶＥ　ＸＲＯＳＳ株式会社,,株式会社,東京都,千代田区,丸の内１丁目８番３号丸の内トラストタワー本館２０階,,13,101,1000005,,,,,,,2023-09-21,1,,,,,ウェイブクロス,0
16,1010003041709,新規,0,2023-09-21,2023-09-21,エンペラー合同会社,,合同会社,東京都,中央区,日本橋浜町２丁目５８－４－６０２号,,13,102,1030007,,,,,,,2023-09-21,1,,,,,エンペラー,0
28,1010401177204,新規,0,2023-09-21,2023-09-21,株式会社オベリスク,,株式会社,東京都,港区,赤坂７丁目６－４１－１０４,,13,103,1070052,,,,,,,2023-09-21,1,,,,,オベリスク,0
29,1010401177212,新規,0,2023-09-21,2023-09-21,Ｂｅｔｔｅｒ　Ｆｕｔｕｒｅ株式会社,,株式会社,東京都,港区,六本木３丁目７番１－２９１２号,,13,103,1060032,,,,,,,2023-09-21,1,,,,,ベターフューチャー,0
30,1010401177286,新規,0,2023-09-21,2023-09-21,株式会社さんかく,,株式会社,東京都,港区,六本木７丁目１３番５号萩原ビル１Ｆ,,13,103,1060032,,,,,,,2023-09-21,1,,,,,サンカク,0
32,1010403030906,新規,0,2023-09-21,2023-09-21,Ａｍａｚｅ合同会社,,合同会社,東京都,港区,南青山２丁目２番１５号,,13,103,1070062,,,,,,,2023-09-21,1,,,,,アメイズ,0
33,1010403030988,新規,0,2023-09-21,2023-09-21,Ｌｉｆｅｓｔｙｌｅ９合同会社,,合同会社,東京都,港区,六本木１丁目６番１号泉ガーデンタワー,,13,103,1060032,,,,,,,2023-09-21,1,,,,,ライフスタイルナイン,0
35,1010601063773,新規,0,2023-09-21,2023-09-21,ＹＧＦ全谷物健康科技株式会社,,株式会社,東京都,墨田区,業平１丁目６番３－１２０５号,,13,107,1300002,,,,,,,2023-09-21,1,,,,,ワイージーエフゼンコウブツケンコウカギ,0
36,1010601063815,新規,0,2023-09-21,2023-09-21,拓夢技術日本株式会社,,株式会社,東京都,江東区,海辺１０番４号,,13,108,1350012,,,,,,,2023-09-21,1,,,,,タクムギジュツニホン,0
47,1010901053706,新規,0,2023-09-21,2023-09-21,株式会社ｓｈｉｋｉ,,株式会社,東京都,世田谷区,中町５丁目１３番１６号,,13,112,1580091,,,,,,,2023-09-21,1,,,,,シキ,0
48,1010901053838,新規,0,2023-09-21,2023-09-21,ＳＣ‐Ｌｉｇｈｔ株式会社,,株式会社,東京都,世田谷区,北沢１丁目２３番２０号東高ペアシティサガン東北沢２０２,,13,112,1550031,,,,,,,2023-09-21,1,,,,,エスシーライト,0
49,1010903008451,新規,0,2023-09-21,2023-09-21,合同会社Ｅｍｐｏｗｅｒｔｈｙ,,合同会社,東京都,世田谷区,大原１丁目６２－４ボヌールステージ１３０３,,13,112,1560041,,,,,,,2023-09-21,1,,,,,エンパワーシー,0
53,1011001157050,新規,0,2023-09-21,2023-09-21,株式会社パレードＨＤ,,株式会社,東京都,渋谷区,桜丘町２５番１８号,,13,113,1500031,,,,,,,2023-09-21,1,,,,,パレードエイチディー,0
54,1011001157067,新規,0,2023-09-21,2023-09-21,株式会社Ｒｏｏｔｅｄ,,株式会社,東京都,渋谷区,神泉町１０番１５号アネックス神泉３０１,,13,113,1500045,,,,,,,2023-09-21,1,,,,,ルーテッド,0
56,1011003017582,新規,0,2023-09-21,2023-09-21,９０９合同会社,,合同会社,東京都,渋谷区,道玄坂１丁目１０番８号渋谷道玄坂東急ビル２Ｆ－Ｃ,,13,113,1500043,,,,,,,2023-09-21,1,,,,,ナインオーナイン,0
62,1011103013498,新規,0,2023-09-21,2023-09-21,合同会社ポラリス総合技術研究所,,合同会社,東京都,新宿区,横寺町３７番地メゾン横寺１０１,,13,104,1620831,,,,,,,2023-09-21,1,,,,,ポラリスソウゴウギジュツケンキュウジョ,0
65,1011201024926,新規,0,2023-09-21,2023-09-21,株式会社レゾンデートル,,株式会社,東京都,中野区,野方６丁目３３番１号,,13,114,1650027,,,,,,,2023-09-21,1,,,,,レゾンデートル,0
76,1012703002799,新規,0,2023-09-21,2023-09-21,合同会社ＫＵＳ,,合同会社,東京都,東久留米市,滝山７丁目１３番５号,,13,222,2030033,,,,,,,2023-09-21,1,,,,,ケーユーエス,0
78,1013301051362,新規,0,2023-09-21,2023-09-21,株式会社ｅＤＲＩＶＥＲＳ,,株式会社,東京都,豊島区,東池袋１丁目３５番地８号,,13,116,1700013,,,,,,,2023-09-21,1,,,,,イードライバーズ,0
79,1013303006802,新規,0,2023-09-21,2023-09-21,ＭＢシグナル合同会社,,合同会社,東京都,豊島区,長崎３丁目２１－７,,13,116,1710051,,,,,,,2023-09-21,1,,,,,エムビーシグナル,0
82,1020001153587,新規,0,2023-09-21,2023-09-21,株式会社ヨコハマワーフコネクト,,株式会社,神奈川県,横浜市港北区,新横浜３丁目７－７,,14,109,2220033,,,,,,,2023-09-21,1,,,,,ヨコハマワーフコネクト,0
83,1020001153595,新規,0,2023-09-21,2023-09-21,シーウィンド株式会社,,株式会社,神奈川県,川崎市高津区,久地１丁目４番７号,,14,134,2130032,,,,,,,2023-09-21,1,,,,,シーウィンド,0
88,1021001080219,新規,0,2023-09-21,2023-09-21,株式会社ＴＲＵＴＨ,,株式会社,神奈川県,足柄下郡湯河原町,宮上８３番地,,14,384,2590314,,,,,,,2023-09-21,1,,,,,トゥルース,0
89,1021001080235,新規,0,2023-09-21,2023-09-21,株式会社Ｒｅｍｉｒａ,,株式会社,神奈川県,藤沢市,辻堂東海岸２丁目３番１８号,,14,205,2510045,,,,,,,2023-09-21,1,,,,,レミラ,0
91,1021003013589,新規,0,2023-09-21,2023-09-21,合同会社ライジングサン,,合同会社,神奈川県,鎌倉市,今泉台６丁目２７番４号,,14,204,2470053,,,,,,,2023-09-21,1,,,,,ライジングサン,0
97,1030001155797,新規,0,2023-09-21,2023-09-21,ジラフ株式会社,,株式会社,埼玉県,さいたま市中央区,大戸４丁目３番６号,,11,105,3380012,,,,,,,2023-09-21,1,,,,,ジラフ,0
98,1030001155954,新規,0,2023-09-21,2023-09-21,ＥＳＰＲＥＳＳＩＶＯ株式会社,,株式会社,埼玉県,さいたま市西区,大字峰岸１６２番地１,,11,101,3310075,,,,,,,2023-09-21,1,,,,,エスプレッシーヴォ,0
99,1030001156069,新規,0,2023-09-21,2023-09-21,株式会社コアラボ,,株式会社,埼玉県,ふじみ野市,福岡中央２丁目３番２号,,11,245,3560031,,,,,,,2023-09-21,1,,,,,コアラボ,0
100,1030001156234,新規,0,2023-09-21,2023-09-21,ＰＲＵ株式会社,,株式会社,埼玉県,戸田市,本町３丁目２番１２号,,11,224,3350023,,,,,,,2023-09-21,1,,,,,ピーアールユー,0
106,1030003022509,新規,0,2023-09-21,2023-09-21,合同会社革命,,合同会社,埼玉県,さいたま市緑区,大字三室７３５番地２７,,11,109,3360911,,,,,,,2023-09-21,1,,,,,カクメイ,0
110,1040001130122,新規,0,2023-09-21,2023-09-21,株式会社月山工業,,株式会社,千葉県,鎌ケ谷市,南初富４丁目１９番５－３号,,12,224,2730123,,,,,,,2023-09-21,1,,,,,ツキヤマコウギョウ,0
111,1040001130130,新規,0,2023-09-21,2023-09-21,株式会社オーシャンズ,,株式会社,千葉県,千葉市美浜区,打瀬２丁目１番地１公園東の街１－９０９号,,12,106,2610013,,,,,,,2023-09-21,1,,,,,オーシャンズ,0
112,1040001130163,新規,0,2023-09-21,2023-09-21,株式会社ユメナエステート,,株式会社,千葉県,千葉市中央区,港町７番１１号,,12,101,2600831,,,,,,,2023-09-21,1,,,,,ユメナエステート,0
116,1040003023349,新規,0,2023-09-21,2023-09-21,ＪＴＫサービス合同会社,,合同会社,千葉県,市川市,新井３丁目１４番９号,,12,203,2720144,,,,,,,2023-09-21,1,,,,,ジェイティケイサービス,0
117,1040005022118,新規,0,2023-09-21,2023-09-21,一般社団法人ぴおねろの森,,その他の設立登記法人,千葉県,印西市,牧の原５丁目９番地２１,,12,231,2701331,,,,,,,2023-09-21,1,,,,,ピオネロノモリ,0
121,1050001053504,新規,0,2023-09-21,2023-09-21,株式会社染谷工業,,株式会社,茨城県,結城郡八千代町,大字塩本２９９番地１４,,08,521,3003501,,,,,,,2023-09-21,1,,,,,ソメヤコウギョウ,0
124,1050005013330,新規,0,2023-09-21,2023-09-21,一般社団法人ｐｏｎｏ,,その他の設立登記法人,茨城県,常総市,岡田４１１番地８,,08,211,3002743,,,,,,,2023-09-21,1,,,,,ポノ,0
130,1080401026742,新規,0,2023-09-21,2023-09-21,株式会社ＩＮＰＥＴ,,株式会社,静岡県,浜松市北区,初生町３３０番地の１,,22,135,4338112,,,,,,,2023-09-21,1,,,,,インペット,0
141,1120001258095,新規,0,2023-09-21,2023-09-21,ヒトイル株式会社,,株式会社,大阪府,大阪市北区,中津１丁目１８番１８号若杉ビル６階,,27,127,5310071,,,,,,,2023-09-21,1,,,,,ヒトイル,0
142,1120001258120,新規,0,2023-09-21,2023-09-21,株式会社Ｅｖｏｌｖｅ,,株式会社,大阪府,大阪市北区,梅田１丁目２番２号大阪駅前第２ビル１２－１２,,27,127,5300001,,,,,,,2023-09-21,1,,,,,イヴォルブ,0
143,1120001258137,新規,0,2023-09-21,2023-09-21,株式会社Ａｓｓｅｍｂｌｅ　ＳＴＡＲ,,株式会社,大阪府,大阪市中央区,松屋町３番２３－９０６号,,27,128,5420067,,,,,,,2023-09-21,1,,,,,アッセンブルスター,0
146,1120003024909,新規,0,2023-09-21,2023-09-21,合同会社ＩＴコンサルティング,,合同会社,大阪府,枚方市,長尾台１丁目１３番１号,,27,210,5730106,,,,,,,2023-09-21,1,,,,,アイティコンサルティング,0
147,1120003024917,新規,0,2023-09-21,2023-09-21,晶耀合同会社,,合同会社,大阪府,大阪市東住吉区,杭全１丁目１７番１７号Ｔｉｎａ天王寺東ビル５０３号室,,27,121,5460002,,,,,,,2023-09-21,1,,,,,ショウヨウ,0
148,1120103005445,新規,0,2023-09-21,2023-09-21,合同会社キラキラプロダクション,,合同会社,大阪府,堺市東区,日置荘西町４丁３０番２６号,,27,143,5998114,,,,,,,2023-09-21,1,,,,,キラキラプロダクション,0
152,1120901048067,新規,0,2023-09-21,2023-09-21,株式会社ＳＳＳファーム,,株式会社,大阪府,吹田市,江坂町１丁目２３番１０１号サンエス石膏株式会社内,,27,205,5640063,,,,,,,2023-09-21,1,,,,,サンエスファーム,0
153,1120901048075,新規,0,2023-09-21,2023-09-21,株式会社ＹＵＢＩ,,株式会社,大阪府,高槻市,野田東１丁目２番８号,,27,207,5690014,,,,,,,2023-09-21,1,,,,,ユウビ,0
154,1122003002670,新規,0,2023-09-21,2023-09-21,ナニワ合同会社,,合同会社,大阪府,八尾市,高美町１丁目２番１号,,27,212,5810017,,,,,,,2023-09-21,1,,,,,ナニワ,0
161,1140001131688,新規,0,2023-09-21,2023-09-21,株式会社甲子園産業,,株式会社,兵庫県,西宮市,甲子園七番町１２番３号エクセルコート,,28,204,6638177,,,,,,,2023-09-21,1,,,,,コウシエンサンギョウ,0
165,1160003002992,新規,0,2023-09-21,2023-09-21,エムアンド合同会社,,合同会社,滋賀県,大津市,野郷原１丁目６番３１号,,25,201,5202133,,,,,,,2023-09-21,1,,,,,エムアンド,0
170,1180001158059,新規,0,2023-09-21,2023-09-21,株式会社大福,,株式会社,愛知県,小牧市,小木３丁目２１９番地２,,23,219,4850058,,,,,,,2023-09-21,1,,,,,ダイフク,0
171,1180001158083,新規,0,2023-09-21,2023-09-21,株式会社Ｙ＆Ｊ,,株式会社,愛知県,名古屋市中村区,竹橋町１１－１４,,23,105,4530016,,,,,,,2023-09-21,1,,,,,ワイアンドジェイ,0
172,1180001158125,新規,0,2023-09-21,2023-09-21,株式会社ユニバーサルＪＣ,,株式会社,愛知県,名古屋市緑区,鳥澄２丁目７１１番地,,23,114,4580025,,,,,,,2023-09-21,1,,,,,ユニバーサルジェーシー,0
175,1180005020355,新規,0,2023-09-21,2023-09-21,医療法人確全会,,その他の設立登記法人,愛知県,一宮市,今伊勢町本神戸字無量寺東１０番１,,23,203,4910053,,,,,,,2023-09-21,1,,,,,カクゼンカイ,0
178,1180301037838,新規,0,2023-09-21,2023-09-21,フジプラス株式会社,,株式会社,愛知県,豊田市,広久手町３丁目１６番地,,23,211,4710036,,,,,,,2023-09-21,1,,,,,フジプラス,0
180,1180305009511,新規,0,2023-09-21,2023-09-21,医療法人ＪＯＹ,,その他の設立登記法人,愛知県,岡崎市,大西３丁目７番地１,,23,202,4440871,,,,,,,2023-09-21,1,,,,,ジョイ,0
184,1200001041749,新規,0,2023-09-21,2023-09-21,株式会社ビームフォーフュージョン,,株式会社,岐阜県,可児市,桜ケ丘６丁目７３番地１８,,21,214,5090235,,,,,,,2023-09-21,1,,,,,ビームフォーフュージョン,0
194,1260001038327,新規,0,2023-09-21,2023-09-21,株式会社インディペンデンスサポート,,株式会社,岡山県,岡山市東区,瀬戸町瀬戸１９５番地３,,33,103,7090861,,,,,,,2023-09-21,1,,,,,インディペンデンスサポート,0
196,1260003004442,新規,0,2023-09-21,2023-09-21,ＴＥＧＯＦＡＲＭ合同会社,,合同会社,岡山県,岡山市南区,東畦２３１－２２,,33,104,7010211,,,,,,,2023-09-21,1,,,,,テゴファーム,0
200,1290001103094,新規,0,2023-09-21,2023-09-21,株式会社汐里,,株式会社,福岡県,福岡市東区,唐原７丁目１２番１１号,,40,131,8130001,,,,,,,2023-09-21,1,,,,,シオサト,0
201,1290003014372,新規,0,2023-09-21,2023-09-21,合同会社ＳＦＡ,,合同会社,福岡県,福岡市西区,愛宕浜２丁目１番８号,,40,135,8190013,,,,,,,2023-09-21,1,,,,,エスエフエー,0
202,1290003014380,新規,0,2023-09-21,2023-09-21,ＷｉｎＳｔａｔｅ合同会社,,合同会社,福岡県,福岡市博多区,博多駅前１丁目２３番２号ＰａｒｋＦｒｏｎｔ博多駅前１丁目５Ｆ－Ｂ,,40,132,8120011,,,,,,,2023-09-21,1,,,,,ウィンステイト,0
208,1310003004643,新規,0,2023-09-21,2023-09-21,合同会社Ｂｏｏｍ,,合同会社,長崎県,南島原市,有家町石田８番地,,42,214,8592121,,,,,,,2023-09-21,1,,,,,ブーム,0
211,1340005009662,新規,0,2023-09-21,2023-09-21,一般社団法人南日本福祉協会,,その他の設立登記法人,鹿児島県,鹿児島市,下荒田２丁目７番１４号久木留ビル１階,,46,201,8900056,,,,,,,2023-09-21,1,,,,,ミナミニホンフクシキョウカイ,0
212,1360001032583,新規,0,2023-09-21,2023-09-21,株式会社中城湾ポルトマシナリー,,株式会社,沖縄県,沖縄市,泡瀬５丁目３３番１３号,,47,211,9042172,,,,,,,2023-09-21,1,,,,,ナカグスクワンポルトマシナリー,0
215,1370001050436,新規,0,2023-09-21,2023-09-21,株式会社十９,,株式会社,宮城県,仙台市宮城野区,萩野町３丁目１５－２－２０３,,04,102,9830043,,,,,,,2023-09-21,1,,,,,アンドナイン,0
216,1370003006295,新規,0,2023-09-21,2023-09-21,合同会社けあまる,,合同会社,宮城県,気仙沼市,松崎馬場８６番地４,,04,205,9880132,,,,,,,2023-09-21,1,,,,,ケアマル,0
226,1430001090005,新規,0,2023-09-21,2023-09-21,株式会社恵海,,株式会社,北海道,小樽市,桜３丁目１番２４４号,,01,203,0470156,,,,,,,2023-09-21,1,,,,,メグミ,0
227,1430003015447,新規,0,2023-09-21,2023-09-21,合同会社Ｐｅａｃｅ　ｓｈｉｎｅ雫,,合同会社,北海道,札幌市中央区,北一条東１０丁目１５番地,,01,101,0600031,,,,,,,2023-09-21,1,,,,,ピースシャインシズク,0
228,1450001014093,新規,0,2023-09-21,2023-09-21,株式会社縁増,,株式会社,北海道,名寄市,東四条南６丁目１２番地１,,01,221,0960004,,,,,,,2023-09-21,1,,,,,エンゾウ,0
229,1450003002385,新規,0,2023-09-21,2023-09-21,咲来合同会社,,合同会社,北海道,中川郡音威子府村,字咲来３２１番地３,,01,470,0982502,,,,,,,2023-09-21,1,,,,,サックル,0
237,1500003003106,新規,0,2023-09-21,2023-09-21,合同会社ピースフル,,合同会社,愛媛県,四国中央市,土居町津根２３３４－１０,,38,213,7990704,,,,,,,2023-09-21,1,,,,,,0
238,1700150118512,新規,0,2023-09-21,2023-09-21,Ｓｈｅｎｚｈｅｎｓｈｉｚｈａｎｇｅｚｈｉｋｏｎｇｋｅｊｉｙｏｕｘｉａｎｇｏｎｇｓｉ,,外国会社等,,,,,,,,１３０１　Ｒｏｏｍ，Ｎｏ．２６８，２ｎｄ　Ｇｕｓｈｕ　Ｒｄ．，Ｎａｎｃｈａｎｇ　Ｃｏｍｍｕｎｉｔｙ　Ｘｉｘｉａｎｇ　Ｓｕｂ－ｄｉｓｔｒｉｃｔ，Ｂａｏａｎ　Ｄｉｓｔｒｉｃｔ　Ｓｈｅｎｚｈｅｎ　Ｃｉｔｙ　ＧＵＡＮＧＤＯＮＧＳＨＥＮＧ　５１８０００,,,,,,2023-09-21,1,,,,,シェンジェンシジャンゴォジーコンカージヨウシェンゴンス,0
239,1700150120534,新規,0,2023-09-21,2023-09-21,ＳｕｑｉａｎＸｉｅｙｕｅ　Ｅｌｅｃｔｒｏｎｉｃ　Ｃｏｍｍｅｒｃｅ　Ｃｏ．，Ｌｔｄ．,,外国会社等,,,,,,,,Ｓｕｑｉａｎｓｈｉ　Ｓｈｕｙａｎｇｘｉａｎ　Ｈｕｉｊｉｎｘｉｎｃｈｅｎｇｂｅｉｑｕ８ｈａｏｌｏｕ２ｄａｎｙｕａｎ１６０２ｈａｏ，Ｃｈｉｎａ,,,,,,2023-09-21,1,,,,,シュクセンシェユエレクトロニックコマースカンパニーリミテッド,0
240,1700150120542,新規,0,2023-09-21,2023-09-21,ｎａｎｎｉｎｇｙｉｚｅｎｇｘｕｄｉａｎｚｉｓｈａｎｇｗｕｙｏｕｘｉａｎｇｏｎｇｓｉ,,外国会社等,,,,,,,,Ｒｏｏｍ　１４１１，１４／Ｆ，Ｗｕｘｉａｎｇ　Ｇｒｅｅｎ　Ｃｅｎｔｅｒ，１５　Ｐｉｎｇｌｅ　Ａｖｅｎｕｅ，Ｎａｎｎｉｎｇ　Ｆｒｅｅ　Ｔｒａｄｅ　Ｅｘｐｅｒｉｍｅｎｔａｌ　Ｚｏｎｅ，Ｃｈｉｎａ（Ｇｕａｎｇｘｉ）,,,,,,2023-09-21,1,,,,,ナンニンイーツォンシーディエンズーシャンウーヨウシエンゴンスー,0
241,1700150120550,新規,0,2023-09-21,2023-09-21,普羅森科技株式会社,,外国会社等,,,,,,,,新竹市香山区中埔里牛埔路２８７号３Ｆ,,,,,,2023-09-21,1,,,,,フロゼンカギカブシキガイシヤ,0
242,1700150120559,新規,0,2023-09-21,2023-09-21,Ｓｈｅｎｚｈｅｎ　Ｘｉａｎｇｓｈａｎｇ　Ｉｎｔｅｒｎａｔｉｏｎａｌ　Ｔｒａｄｉｎｇ　Ｃｏ．，Ｌｔｄ,,外国会社等,,,,,,,,Ｍｉｎｚｈｉ　Ｒｏａｄ，Ｍｉｎｔａｉ　Ｂｕｉｌｄｉｎｇ，３Ａ０１　Ｌｏｎｇｈｕａ　Ｇｕａｎｇｄｏｎｇ　Ｓｈｅｎｚｈｅｎ,,,,,,2023-09-21,1,,,,,シンセンコウジョウコクサイボウエキユウゲンコウシ,0
258,2010001238644,新規,0,2023-09-21,2023-09-21,Ｈ・Ｔ・Ｋ農業株式会社,,株式会社,東京都,千代田区,神田平河町１番地第３東ビル５Ｆ,,13,101,1010027,,,,,,,2023-09-21,1,,,,,エイチティーケーノウギョウ,0
263,2010003041625,新規,0,2023-09-21,2023-09-21,合同会社ＷａｓｈｏｋｕＪｏｂ,,合同会社,東京都,中央区,日本橋３丁目１番３号ｘＢｒｉｄｇｅ－Ｇｌｏｂａｌ２Ｆ,,13,102,1030027,,,,,,,2023-09-21,1,,,,,ワショクジョブ,0
264,2010003041716,新規,0,2023-09-21,2023-09-21,合同会社クリエイトサポート,,合同会社,東京都,文京区,大塚６丁目１５番１１－５０１号,,13,105,1120012,,,,,,,2023-09-21,1,,,,,クリエイトサポート,0
277,2010401177070,新規,0,2023-09-21,2023-09-21,株式会社Ｍｉｉ,,株式会社,東京都,港区,白金台５丁目１８－４,,13,103,1080071,,,,,,,2023-09-21,1,,,,,ミー,0
278,2010401177203,新規,0,2023-09-21,2023-09-21,Ｍ．Ｉ．ＧＡＲＤＥＮ株式会社,,株式会社,東京都,港区,北青山１丁目３番１号アールキューブ青山３階,,13,103,1070061,,,,,,,2023-09-21,1,,,,,エムアイガーデン,0
279,2010401177228,新規,0,2023-09-21,2023-09-21,株式会社Ｍａｖｅｒｉｃｋｓ,,株式会社,東京都,港区,芝浦４丁目２０番２－１５０８号,,13,103,1080023,,,,,,,2023-09-21,1,,,,,マヴェリクス,0
282,2010403030987,新規,0,2023-09-21,2023-09-21,Ｌｉｆｅｓｔｙｌｅ８合同会社,,合同会社,東京都,港区,六本木１丁目６番１号泉ガーデンタワー,,13,103,1060032,,,,,,,2023-09-21,1,,,,,ライフスタイルエイト,0
298,2010901053853,新規,0,2023-09-21,2023-09-21,株式会社Ｅｍｉｌｅ,,株式会社,東京都,世田谷区,下馬５丁目３５－３ハイネストン下馬３０４,,13,112,1540002,,,,,,,2023-09-21,1,,,,,エミール,0
299,2010901053861,新規,0,2023-09-21,2023-09-21,ティエム株式会社,,株式会社,東京都,世田谷区,深沢５丁目２３番２１号アルファホームズ深沢２０２,,13,112,1580081,,,,,,,2023-09-21,1,,,,,ティエム,0
304,2011001156984,新規,0,2023-09-21,2023-09-21,Ｕｎｅ株式会社,,株式会社,東京都,渋谷区,渋谷２丁目１９番１５号宮益坂ビルディング６０９,,13,113,1500002,,,,,,,2023-09-21,1,,,,,ユヌ,0
305,2011003017540,新規,0,2023-09-21,2023-09-21,ＲＵＯＫ合同会社,,合同会社,東京都,渋谷区,道玄坂１丁目１０番８号渋谷道玄坂東急ビル２Ｆ－Ｃ,,13,113,1500043,,,,,,,2023-09-21,1,,,,,ルオック,0
306,2011003017565,新規,0,2023-09-21,2023-09-21,合同会社Ｚ２,,合同会社,東京都,目黒区,中目黒１丁目９番２２－５０４号マートルコート中目黒,,13,110,1530061,,,,,,,2023-09-21,1,,,,,ゼッツー,0
312,2011101104439,新規,0,2023-09-21,2023-09-21,株式会社ＮＥＸＴ　ＵＰ,,株式会社,東京都,新宿区,水道町４－２２－４０４,,13,104,1620811,,,,,,,2023-09-21,1,,,,,ネクストアップ,0
315,2011201024925,新規,0,2023-09-21,2023-09-21,株式会社ＫＪ　ＣＬＡＳＳ,,株式会社,東京都,中野区,大和町３丁目２７番１６号,,13,114,1650034,,,,,,,2023-09-21,1,,,,,ケージェークラス,0
317,2011301029015,新規,0,2023-09-21,2023-09-21,株式会社ＰＬＵＭ　ＴＨＩＲＴＥＥＮ,,株式会社,東京都,杉並区,永福１丁目１３番４－１０２号,,13,115,1680064,,,,,,,2023-09-21,1,,,,,プラムサーティーン,0
319,2011401025442,新規,0,2023-09-21,2023-09-21,株式会社Ｇｏｌｄｅｎ　Ｃｈａｍｐ,,株式会社,東京都,板橋区,前野町６丁目２１－１１,,13,119,1740063,,,,,,,2023-09-21,1,,,,,ゴールデンチャンプ,0
325,2012403006190,新規,0,2023-09-21,2023-09-21,合同会社ＰＬＡＮＥＴＳＥＰＴＯＮ,,合同会社,東京都,調布市,仙川町２丁目６番地５－２０４,,13,208,1820002,,,,,,,2023-09-21,1,,,,,プラネットセプトーン,0
331,2013303006801,新規,0,2023-09-21,2023-09-21,合同会社ｂａｂａｂａ,,合同会社,東京都,豊島区,駒込６丁目１３－４,,13,116,1700003,,,,,,,2023-09-21,1,,,,,バババ,0
336,2020001153462,新規,0,2023-09-21,2023-09-21,株式会社ＧＥＮＥＲＥＲ　ＪＡＰＡＮ,,株式会社,神奈川県,横浜市都筑区,牛久保町１６９７－１１号,,14,118,2240011,,,,,,,2023-09-21,1,,,,,ジェネレジャパン,0
337,2020001153520,新規,0,2023-09-21,2023-09-21,株式会社ＥＬＩＭ商事,,株式会社,神奈川県,横浜市鶴見区,仲通３丁目７７－８セリバシ鶴見４０２,,14,101,2300042,,,,,,,2023-09-21,1,,,,,イリムショウジ,0
338,2020001153586,新規,0,2023-09-21,2023-09-21,株式会社Ｍａｓｔｒｏ　Ｗｏｒｌｄ　Ｊａｐａｎ,,株式会社,神奈川県,横浜市港北区,下田町１丁目２２番１１号,,14,109,2230064,,,,,,,2023-09-21,1,,,,,マストロワールドジャパン,0
340,2020003024629,新規,0,2023-09-21,2023-09-21,合同会社日本教養,,合同会社,神奈川県,横浜市戸塚区,前田町５１６番１グリーンコーポ東戸塚Ａ棟店舗１号,,14,110,2440804,,,,,,,2023-09-21,1,,,,,ニッポンキョウヨウ,0
345,2030001155796,新規,0,2023-09-21,2023-09-21,株式会社ＳＵＶＡＳＲＩ,,株式会社,埼玉県,さいたま市南区,鹿手袋３丁目８番９号エステイトマンション３０１号,,11,108,3360031,,,,,,,2023-09-21,1,,,,,スバシリ,0
346,2030001155937,新規,0,2023-09-21,2023-09-21,株式会社ＫＥＩＧＯ,,株式会社,埼玉県,草加市,西町９０５－７アイ・アパートメントＤ２０６号室,,11,221,3400035,,,,,,,2023-09-21,1,,,,,ケイゴ,0
347,2030001156002,新規,0,2023-09-21,2023-09-21,株式会社西少女,,株式会社,埼玉県,久喜市,青毛４丁目６番地２０,,11,232,3460011,,,,,,,2023-09-21,1,,,,,シャガール,0
348,2030001156035,新規,0,2023-09-21,2023-09-21,ＢＲＤ株式会社,,株式会社,埼玉県,ふじみ野市,桜ケ丘１丁目１１番２６号,,11,245,3560059,,,,,,,2023-09-21,1,,,,,ビーアールディー,0
349,2030001156068,新規,0,2023-09-21,2023-09-21,株式会社ＨＩＫＡＲＩ,,株式会社,埼玉県,朝霞市,根岸台７丁目２３番５１号,,11,227,3510005,,,,,,,2023-09-21,1,,,,,ヒカリ,0
350,2030001156084,新規,0,2023-09-21,2023-09-21,ケーエム防災サービス株式会社,,株式会社,埼玉県,川口市,南町２丁目７番２０号,,11,203,3320026,,,,,,,2023-09-21,1,,,,,ケーエムボウサイサービス,0
351,2030001156200,新規,0,2023-09-21,2023-09-21,Ｉ＆Ｓネットワーク株式会社,,株式会社,埼玉県,さいたま市岩槻区,大字表慈恩寺１３７４番地２２,,11,110,3390008,,,,,,,2023-09-21,1,,,,,アイアンドエスネットワーク,0
353,2030003022482,新規,0,2023-09-21,2023-09-21,合同会社カレット,,合同会社,埼玉県,川口市,芝高木１丁目５番８号,,11,203,3330868,,,,,,,2023-09-21,1,,,,,カレット,0
359,2040001130113,新規,0,2023-09-21,2023-09-21,株式会社シークレットベース,,株式会社,千葉県,八街市,沖１１３５番地,,12,230,2891126,,,,,,,2023-09-21,1,,,,,シークレットベース,0
360,2040003023323,新規,0,2023-09-21,2023-09-21,合同会社ＧＨＢ,,合同会社,千葉県,木更津市,西岩根３番３３号,,12,206,2920062,,,,,,,2023-09-21,1,,,,,ジーエイチビー,0
361,2040003023356,新規,0,2023-09-21,2023-09-21,合同会社井口,,合同会社,千葉県,八街市,八街ほ５８１番地,,12,230,2891115,,,,,,,2023-09-21,1,,,,,イグチ,0
376,2100001036799,新規,0,2023-09-21,2023-09-21,株式会社ラドヴィ,,株式会社,長野県,北佐久郡軽井沢町,大字長倉５８６番地２４,,20,321,3890111,,,,,,,2023-09-21,1,,,,,ラドヴィ,0
385,2120001258136,新規,0,2023-09-21,2023-09-21,株式会社アイエスエス,,株式会社,大阪府,大阪市港区,海岸通１丁目５番１０号大阪文化館内,,27,107,5520022,,,,,,,2023-09-21,1,,,,,アイエスエス,0
393,2120101068220,新規,0,2023-09-21,2023-09-21,株式会社成和,,株式会社,大阪府,貝塚市,永吉４１番地の２,,27,208,5970032,,,,,,,2023-09-21,1,,,,,セイワ,0
398,2130001075225,新規,0,2023-09-21,2023-09-21,株式会社ＮＯＷ　ＯＮ　ＡＩＲ,,株式会社,京都府,京都市中京区,壬生森町２番地２,,26,104,6048862,,,,,,,2023-09-21,1,,,,,ナウオンエアー,0
402,2140001131646,新規,0,2023-09-21,2023-09-21,秀栄工業株式会社,,株式会社,兵庫県,姫路市,飾磨区細江４６９番地レジデンス飾磨１－Ａ,,28,201,6728064,,,,,,,2023-09-21,1,,,,,シュウエイコウギョウ,0
403,2140001131654,新規,0,2023-09-21,2023-09-21,株式会社サンロクキュー,,株式会社,兵庫県,小野市,河合西町７５９番地,,28,218,6751354,,,,,,,2023-09-21,1,,,,,サンロクキュー,0
404,2140001131679,新規,0,2023-09-21,2023-09-21,株式会社ルリアン,,株式会社,兵庫県,神戸市東灘区,鴨子ヶ原２丁目１４番１３－４０２号,,28,101,6580064,,,,,,,2023-09-21,1,,,,,ルリアン,0
405,2140001131695,新規,0,2023-09-21,2023-09-21,株式会社Ｈａｐｐｉｎｅｓｓ　Ｃｏｍｐａｎｙ,,株式会社,兵庫県,明石市,二見町東二見５２８番地の２スマートビル二階,,28,203,6740092,,,,,,,2023-09-21,1,,,,,ハピネスカンパニー,0
406,2140003019575,新規,0,2023-09-21,2023-09-21,合同会社Ａｋａｌａ,,合同会社,兵庫県,神戸市東灘区,魚崎南町２丁目３番２－２０４号,,28,101,6580025,,,,,,,2023-09-21,1,,,,,アカラ,0
417,2180001158090,新規,0,2023-09-21,2023-09-21,株式会社ビーアップ,,株式会社,愛知県,海部郡大治町,大字堀之内字大堀１３４番地の１パレッタ堀之内１０３,,23,424,4901137,,,,,,,2023-09-21,1,,,,,ビーアップ,0
423,2180301037829,新規,0,2023-09-21,2023-09-21,アブナイデザイン株式会社,,株式会社,愛知県,岡崎市,大平町字欠下７７番地４６,,23,202,4440007,,,,,,,2023-09-21,1,,,,,アブナイデザイン,0
425,2190005011864,新規,0,2023-09-21,2023-09-21,コムレイドシップ協同組合,,その他の設立登記法人,三重県,桑名市,大字和泉７２３番地３,,24,205,5110838,,,,,,,2023-09-21,1,,,,,コムレイドシップ,0
426,2200001041731,新規,0,2023-09-21,2023-09-21,株式会社ＳＨＮ,,株式会社,岐阜県,中津川市,茄子川１３８９番地の１,,21,206,5099132,,,,,,,2023-09-21,1,,,,,エスエイチエヌ,0
427,2200003006088,新規,0,2023-09-21,2023-09-21,Ｓｗａｒｏ．ＲＧ合同会社,,合同会社,岐阜県,高山市,下岡本町２９０７番地１０フレンドリーハウスハル１０１,,21,203,5060052,,,,,,,2023-09-21,1,,,,,スワロアールジー,0
430,2210001019470,新規,0,2023-09-21,2023-09-21,株式会社Ｏｎｇｒａｉｇｅ,,株式会社,福井県,福井市,光陽３丁目９番１８号,,18,201,9100026,,,,,,,2023-09-21,1,,,,,オングレージュ,0
437,2240001062146,新規,0,2023-09-21,2023-09-21,株式会社亀山,,株式会社,広島県,府中市,府中町８５４番地１８,,34,208,7260005,,,,,,,2023-09-21,1,,,,,カメヤマ,0
441,2250001020284,新規,0,2023-09-21,2023-09-21,株式会社梛野土木,,株式会社,山口県,防府市,大字江泊１１１４番地の４,,35,206,7470014,,,,,,,2023-09-21,1,,,,,ナギノドボク,0
445,2260003004441,新規,0,2023-09-21,2023-09-21,合同会社Ｋ．Ｍ．Ｈ　ａｕｔｏｓ　ｔｒａｄｉｎｇ,,合同会社,岡山県,苫田郡鏡野町,吉原６６０番地,,33,606,7080332,,,,,,,2023-09-21,1,,,,,ケイエムエイチオートストレーディング,0
446,2260005011279,新規,0,2023-09-21,2023-09-21,一般財団法人池田隆政財団,,その他の設立登記法人,岡山県,岡山市北区,京山２丁目５番１号,,33,101,7000015,,,,,,,2023-09-21,1,,,,,イケダタカマサザイダン,0
453,2290001103085,新規,0,2023-09-21,2023-09-21,モードスタッフ株式会社,,株式会社,福岡県,福岡市博多区,博多駅東２丁目５番１号アーバンネット博多ビル４階,,40,132,8120013,,,,,,,2023-09-21,1,,,,,モードスタッフ,0
462,2320001020013,新規,0,2023-09-21,2023-09-21,ボンドワン株式会社,,株式会社,大分県,大分市,花園１丁目８番３９号,,44,201,8700846,,,,,,,2023-09-21,1,,,,,ボンドワン,0
468,2330003009986,新規,0,2023-09-21,2023-09-21,合同会社Ｎ・Ｒ・Ｋ,,合同会社,熊本県,阿蘇市,内牧１９３４番地２,,43,214,8692301,,,,,,,2023-09-21,1,,,,,エヌアアルケイ,0
470,2350001018566,新規,0,2023-09-21,2023-09-21,株式会社１１１２,,株式会社,宮崎県,宮崎市,永楽町７７番地田野ビル２０３,,45,201,8800872,,,,,,,2023-09-21,1,,,,,イイヒフ,0
476,2370003006294,新規,0,2023-09-21,2023-09-21,合同会社ｍａｒｕｄａｉ３５８,,合同会社,宮城県,仙台市青葉区,本町１丁目９番６号フージャース仙台本町ビル４階西１,,04,101,9800014,,,,,,,2023-09-21,1,,,,,マルダイサンゴウハチ,0
484,2400001016382,新規,0,2023-09-21,2023-09-21,株式会社ツクモ・ケア,,株式会社,岩手県,一関市,千厩町千厩字久保田９番地３,00131980,03,209,0290803,,,,,,,2023-09-21,1,,,,,ツクモケア,0
485,2400003003148,新規,0,2023-09-21,2023-09-21,岩手動画ＰＲ合同会社,,合同会社,岩手県,盛岡市,中央通１丁目７－３５コアフィールドモリオカ１階,,03,201,0200021,,,,,,,2023-09-21,1,,,,,イワテドウガピーアール,0
493,2430001090020,新規,0,2023-09-21,2023-09-21,株式会社旗ケ岡ネイチャー研究所,,株式会社,北海道,札幌市中央区,北四条西４丁目１番地７,,01,101,0600004,,,,,,,2023-09-21,1,,,,,ハタガオカネイチャーケンキュウジョ,0
494,2430001090029,新規,0,2023-09-21,2023-09-21,株式会社アクト,,株式会社,北海道,札幌市白石区,栄通８丁目３番２７－２０１号,,01,104,0030021,,,,,,,2023-09-21,1,,,,,アクト,0
495,2430001090037,新規,0,2023-09-21,2023-09-21,全日欣株式会社,,株式会社,北海道,札幌市中央区,南九条西５丁目１番１５号ＳＡＫＵＡＲＡ－Ｓ９,,01,101,0640809,,,,,,,2023-09-21,1,,,,,ゼンニチキン,0
498,2430005014776,新規,0,2023-09-21,2023-09-21,医療法人社団蓮桜会,,その他の設立登記法人,北海道,札幌市南区,川沿八条２丁目１番８号吉田ビル３階,,01,106,0050808,,,,,,,2023-09-21,1,,,,,レンオウカイ,0
499,2700150118239,新規,0,2023-09-21,2023-07-05,神奈川県電気工事工業組合　大和地区本部,,その他,神奈川県,大和市,中央５丁目１－４大和商工会議所会館３階,,14,213,2420021,,,,,,,2023-07-05,1,,,,,カナガワケンデンキコウジコウギヨウクミアイヤマトチクホンブ,0
500,2700150120533,新規,0,2023-09-21,2023-09-21,ｓｈｅｎｚｈｅｎｔａｉｍｏｑｉｊｕｚｈｉｚａｏｙｏｕｘｉａｎｇｏｎｇｓｉ,,外国会社等,,,,,,,,３０７，Ｐｈａｓｅ　２，Ｚｏｎｇｔａｉ　Ｂｕｓｉｎｅｓｓ　Ｃｅｎｔｅｒ，Ｂｕｉｌｄｉｎｇ　３Ａ，Ｙｉｎｔｉａｎ　Ｉｎｄｕｓｔｒｉａｌ　Ｚｏｎｅ，Ｙａｎｔｉａｎ　Ｃｏｍｍｕｎｉｔｙ，Ｘｉｘｉａｎｇ　Ｓｔｒｅｅｔ，Ｂａｏ’ａｎ　Ｄｉｓｔｒｉｃｔ，Ｓｈｅｎｚｈｅｎ,,,,,,2023-09-21,1,,,,,シェンジェンタイモーチージージーザオヨウシエンゴンスー,0
501,2700150120541,新規,0,2023-09-21,2023-09-21,ｓａｎｍｉｎｇｓｈｉｆｅｉｙｕｗａｎｇｌｕｏｋｅｊｉｙｏｕｘｉａｎｇｏｎｇｓｉ,,外国会社等,,,,,,,,ｍｅｉｌｉｅｑｕｄｏｎｇｑｉａｎｓａｎｌｕ２６９ｈａｏｆｕｌｉａｉｄｉｎｇｂａｏ５ｄｏｎｇ８０３　ｓａｎｍｉｎｇ　ｆｕｊｉａｎ　３６５０００　ＣＮ,,,,,,2023-09-21,1,,,,,サンミンシーフェイイーワンルオコージーヨウシエンゴンスー,0
502,2700150120558,新規,0,2023-09-21,2023-09-21,Ｇｕａｎｇｚｈｏｕｓｈｉｘｉａｎｇｙｕｘｉｎｋｅｊｉｙｏｕｘｉａｎｇｏｎｇｓｉ,,外国会社等,,,,,,,,Ｅ６３，Ｒｏｏｍ　２０１，Ｓｅｃｏｎｄ　ｆｌｏｏｒ，Ｂｕｉｌｄｉｎｇ　Ｂ，Ｎｏ．６１，Ｄｏｎｇｐｕ　Ｓｅｃｏｎｄ　Ｒｏａｄ，Ｔｉａｎｈｅ　Ｄｉｓｔｒｉｃｔ，Ｇｕａｎｓｚｈｏｕ,,,,,,2023-09-21,1,,,,,コウシュウシコウウシンカギユウゲンコウシ,0
510,3010001238610,新規,0,2023-09-21,2023-09-21,株式会社Ｌｉｂｅｒｄａｄｅ,,株式会社,東京都,千代田区,神田和泉町１番地６の１６ヤマトビル４０５,,13,101,1010024,,,,,,,2023-09-21,1,,,,,リベルダージ,0
511,3010001238635,新規,0,2023-09-21,2023-09-21,ＧＡＯＲＡエンターテインメント株式会社,,株式会社,東京都,中央区,銀座７丁目２番１８号グランベルスクエアＢ１,,13,102,1040061,,,,,,,2023-09-21,1,,,,,ガオラエンターテインメント,0
512,3010003041665,新規,0,2023-09-21,2023-09-21,合同会社杉浦社会保険コンサルティング,,合同会社,東京都,文京区,本郷３丁目３２－４,,13,105,1130033,,,,,,,2023-09-21,1,,,,,スギウラシャカイホケンコンサルティング,0
513,3010003041681,新規,0,2023-09-21,2023-09-21,合同会社プレイリンク,,合同会社,東京都,中央区,日本橋室町１丁目１１番１２号日本橋水野ビル７階,,13,102,1030022,,,,,,,2023-09-21,1,,,,,プレイリンク,0
514,3010003041715,新規,0,2023-09-21,2023-09-21,Ｌａ　ＶＥＴＲＩＮＡ合同会社,,合同会社,東京都,中央区,勝どき５丁目５番－１４－９１５号,,13,102,1040054,,,,,,,2023-09-21,1,,,,,ラヴェトリーナ,0
515,3010003041723,新規,0,2023-09-21,2023-09-21,サイアムドル合同会社,,合同会社,東京都,千代田区,神田紺屋町２８番地ワタナベラックビル６０１号,,13,101,1010035,,,,,,,2023-09-21,1,,,,,サイアムドル,0
523,3010401177227,新規,0,2023-09-21,2023-09-21,Ｔｏｋｙｏ　Ｅｘｅｃｕｔｉｖｅｓ株式会社,,株式会社,東京都,港区,西新橋３丁目２４番８号山内ビル３階,,13,103,1050003,,,,,,,2023-09-21,1,,,,,トウキョウエグゼクティブス,0
529,3010403030986,新規,0,2023-09-21,2023-09-21,合同会社エンジェルＩＮＣ,,合同会社,東京都,港区,白金台２丁目２７番９号,,13,103,1080071,,,,,,,2023-09-21,1,,,,,エンジェルインク,0
532,3010501051075,新規,0,2023-09-21,2023-09-21,株式会社ＨＩＧＨＯＮＥ,,株式会社,東京都,台東区,浅草橋１丁目１０番７号信成ビル５Ｆ,,13,106,1110053,,,,,,,2023-09-21,1,,,,,ハイワン,0
533,3010601063805,新規,0,2023-09-21,2023-09-21,さいとうラボ株式会社,,株式会社,東京都,墨田区,東駒形４丁目１３番２４号,,13,107,1300005,,,,,,,2023-09-21,1,,,,,サイトウラボ,0
534,3010601063821,新規,0,2023-09-21,2023-09-21,株式会社剛建テクノ,,株式会社,東京都,江東区,新大橋１丁目３番１１－３０７号,,13,108,1350007,,,,,,,2023-09-21,1,,,,,ゴウケンテクノ,0
539,3010703006876,新規,0,2023-09-21,2023-09-21,ｃｈａｒｉｏｔ　ｄｅ　ｃｉｔｒｏｕｉｌｌｅ合同会社,,合同会社,東京都,品川区,南品川５丁目１６－６,,13,109,1400004,,,,,,,2023-09-21,1,,,,,シャリオドシトロイユ,0
548,3010901053844,新規,0,2023-09-21,2023-09-21,株式会社ｅａＺｙ,,株式会社,東京都,世田谷区,奥沢８丁目３６番６号,,13,112,1580083,,,,,,,2023-09-21,1,,,,,イージー,0
560,3011001157098,新規,0,2023-09-21,2023-09-21,株式会社ｂ＆ｑ,,株式会社,東京都,渋谷区,恵比寿２丁目２８－７－１１２２,,13,113,1500013,,,,,,,2023-09-21,1,,,,,ビーアンドキュー,0
566,3011103013505,新規,0,2023-09-21,2023-09-21,発幸財グループ合同会社,,合同会社,東京都,新宿区,新宿７丁目２６－７ビクセル新宿４０２号,,13,104,1600022,,,,,,,2023-09-21,1,,,,,ハツコウザイグループ,0
568,3011205002570,新規,0,2023-09-21,2023-09-21,一般社団法人るるいえ,,その他の設立登記法人,東京都,中野区,大和町１丁目５４番６号,,13,114,1650034,,,,,,,2023-09-21,1,,,,,ルルイエ,0
579,3011803005842,新規,0,2023-09-21,2023-09-21,合同会社りぼんカンパニー,,合同会社,東京都,足立区,千住３丁目２４,,13,121,1200034,,,,,,,2023-09-21,1,,,,,リボンカンパニー,0
581,3012401041024,新規,0,2023-09-21,2023-09-21,日本バイオマス資源循環株式会社,,株式会社,東京都,稲城市,矢野口６９３番地２,,13,225,2060812,,,,,,,2023-09-21,1,,,,,ニホンバイオマスシゲンジュンカン,0
582,3012701017847,新規,0,2023-09-21,2023-09-21,株式会社ｌｉｆｉｘ,,株式会社,東京都,東村山市,青葉町２丁目１番地４９,,13,213,1890002,,,,,,,2023-09-21,1,,,,,リフィックス,0
583,3012803003175,新規,0,2023-09-21,2023-09-21,合同会社ランドモーター,,合同会社,東京都,東大和市,南街１丁目７番地４４,,13,220,2070014,,,,,,,2023-09-21,1,,,,,ランドモーター,0
584,3013301051369,新規,0,2023-09-21,2023-09-21,ビットブレイブ株式会社,,株式会社,東京都,豊島区,池袋２丁目３６－１ｉｎｆｉｎｉｔｙｉｋｅｂｕｋｕｒｏ６Ｆ,,13,116,1710014,,,,,,,2023-09-21,1,,,,,ビットブレイブ,0
586,3020001153593,新規,0,2023-09-21,2023-09-21,株式会社社会人八年生,,株式会社,神奈川県,横浜市青葉区,青葉台１丁目１３番地１号青葉台郵便局２階ＳＰＲＡＳＡＯＢＡＤＡＩ,,14,117,2270062,,,,,,,2023-09-21,1,,,,,シャカイジンハチネンセイ,0
589,3021001080241,新規,0,2023-09-21,2023-09-21,株式会社ナナホールディングス,,株式会社,神奈川県,大和市,福田２３６９番地２ロイヤルステージ桜ケ丘３０６号,,14,213,2420024,,,,,,,2023-09-21,1,,,,,ナナホールディングス,0
591,3030001155903,新規,0,2023-09-21,2023-09-21,株式会社ステラデータリサーチ,,株式会社,埼玉県,三郷市,早稲田２丁目２１－１ザ・リージェント三郷１０１号室,,11,237,3410018,,,,,,,2023-09-21,1,,,,,ステラデータリサーチ,0
592,3030001155936,新規,0,2023-09-21,2023-09-21,株式会社ｆｕｎｐｌｕｓ,,株式会社,埼玉県,越谷市,大字大里４０番地１,,11,222,3430031,,,,,,,2023-09-21,1,,,,,ファンプラス,0
593,3030001156026,新規,0,2023-09-21,2023-09-21,株式会社ＬＩＢＥＲＴＥ,,株式会社,埼玉県,川越市,大字上戸３８３番地７（フリーダム２Ｂ号室）,,11,201,3500816,,,,,,,2023-09-21,1,,,,,リベルテ,0
594,3030001156075,新規,0,2023-09-21,2023-09-21,株式会社ＳＨＩＭＡＭＵＲＡ,,株式会社,埼玉県,三郷市,三郷２丁目７番地４島村興産ビル３階,,11,237,3410024,,,,,,,2023-09-21,1,,,,,シマムラ,0
596,3030005021382,新規,0,2023-09-21,2023-09-21,特定非営利活動法人大宮七里ボーイズ,,その他の設立登記法人,埼玉県,さいたま市見沼区,大字東宮下１３４９番地２７,,11,104,3370012,,,,,,,2023-09-21,1,,,,,オオミヤナナサトボーイズ,0
600,3040001130112,新規,0,2023-09-21,2023-09-21,株式会社成嶋サイディング,,株式会社,千葉県,柏市,布施７１３番地１グランメール１０５号,,12,217,2770825,,,,,,,2023-09-21,1,,,,,ナルシマサイディング,0
604,3050001053477,新規,0,2023-09-21,2023-09-21,Ａ＆Ｍホールディングス株式会社,,株式会社,茨城県,守谷市,御所ケ丘３丁目６番地２,,08,224,3020119,,,,,,,2023-09-21,1,,,,,エイアンドエムホールディングス,0
605,3050001053510,新規,0,2023-09-21,2023-09-21,株式会社Ｔ＆Ｋ,,株式会社,茨城県,神栖市,筒井１４２２番地１３７,,08,232,3140132,,,,,,,2023-09-21,1,,,,,ティーアンドケー,0
612,3060003004725,新規,0,2023-09-21,2023-09-21,ＴＫプロジェクト合同会社,,合同会社,栃木県,真岡市,大谷本町８番地２,,09,209,3214333,,,,,,,2023-09-21,1,,,,,ティーケープロジェクト,0
620,3080401026740,新規,0,2023-09-21,2023-09-21,金源金属株式会社,,株式会社,静岡県,袋井市,豊住４１７番地,,22,216,4371103,,,,,,,2023-09-21,1,,,,,キンハラキンゾク,0
624,3100001036798,新規,0,2023-09-21,2023-09-21,株式会社雪花どうぶつ病院,,株式会社,長野県,東御市,和８５４０番地１,,20,219,3890505,,,,,,,2023-09-21,1,,,,,ユキハドウブツビョウイン,0
633,3120001258093,新規,0,2023-09-21,2023-09-21,輝皇株式会社,,株式会社,大阪府,大阪市中央区,松屋町９番２０号ローレルステート松屋町６０９Ｂ,,27,128,5420067,,,,,,,2023-09-21,1,,,,,キコウ,0
634,3120001258135,新規,0,2023-09-21,2023-09-21,株式会社ＳＩ,,株式会社,大阪府,大阪市北区,梅田１丁目２番２号大阪駅前第２ビル１２－１２,,27,127,5300001,,,,,,,2023-09-21,1,,,,,エスアイ,0
635,3120001258143,新規,0,2023-09-21,2023-09-21,株式会社Ｋ．Ａｔｔｈｉｓ,,株式会社,大阪府,大阪市福島区,福島４丁目３番２３－２２０７号,,27,103,5530003,,,,,,,2023-09-21,1,,,,,ケーアティス,0
642,3120003024923,新規,0,2023-09-21,2023-09-21,Ｍｕｔｈｒｅｅ合同会社,,合同会社,大阪府,大阪市東住吉区,北田辺４丁目１３番３０－２０２号,,27,121,5460044,,,,,,,2023-09-21,1,,,,,マスリー,0
647,3120101068228,新規,0,2023-09-21,2023-09-21,株式会社ピエトロ,,株式会社,大阪府,堺市東区,南野田３８３番地１３,,27,143,5998124,,,,,,,2023-09-21,1,,,,,ピエトロ,0
660,3140001131661,新規,0,2023-09-21,2023-09-21,株式会社Ｎｅｘｔ　Ａｍａｚｅｄ,,株式会社,兵庫県,神戸市中央区,熊内町８丁目６番３号,,28,110,6510056,,,,,,,2023-09-21,1,,,,,ネクストアメイズ,0
661,3140001131686,新規,0,2023-09-21,2023-09-21,株式会社マイシャ,,株式会社,兵庫県,神戸市西区,春日台６丁目６－１,,28,111,6512276,,,,,,,2023-09-21,1,,,,,マイシャ,0
662,3140001131703,新規,0,2023-09-21,2023-09-21,株式会社ＡＴＨＬＩＳＳ,,株式会社,兵庫県,姫路市,御立北１丁目１０番３号,,28,201,6700071,,,,,,,2023-09-21,1,,,,,アスリス,0
668,3140003019558,新規,0,2023-09-21,2023-09-21,合同会社笑,,合同会社,兵庫県,神戸市西区,玉津町新方１９０－１０,,28,111,6512125,,,,,,,2023-09-21,1,,,,,エミ,0
669,3150001026729,新規,0,2023-09-21,2023-09-21,株式会社フラウラファーム,,株式会社,奈良県,天理市,櫟本町２３５７番地１サンハイム櫟本２０１,,29,204,6320004,,,,,,,2023-09-21,1,,,,,フラウラファーム,0
677,3180001158073,新規,0,2023-09-21,2023-09-21,株式会社ＳＫＫ,,株式会社,愛知県,名古屋市東区,白壁５丁目１５番地プラウド白壁町７０９号,,23,102,4610011,,,,,,,2023-09-21,1,,,,,エスケーケー,0
678,3180001158081,新規,0,2023-09-21,2023-09-21,株式会社宏発,,株式会社,愛知県,名古屋市天白区,土原１丁目２００番地の１０,,23,116,4680026,,,,,,,2023-09-21,1,,,,,コウハツ,0
679,3180001158123,新規,0,2023-09-21,2023-09-21,株式会社ウェルミート,,株式会社,愛知県,名古屋市中区,栄１丁目１２番１３号タワー・ザ・ファースト名古屋伏見９０７号,,23,106,4600008,,,,,,,2023-09-21,1,,,,,ウェルミート,0
683,3180005020337,新規,0,2023-09-21,2023-09-21,特定非営利活動法人アイシェア,,その他の設立登記法人,愛知県,名古屋市中村区,大宮町１丁目６０番地,,23,105,4530821,,,,,,,2023-09-21,1,,,,,アイシェア,0
703,3290003014379,新規,0,2023-09-21,2023-09-21,合同会社脱炭素マーケティング１１号,,合同会社,福岡県,福岡市中央区,舞鶴２丁目２番７号２Ａ,,40,133,8100073,,,,,,,2023-09-21,1,,,,,ダツタンソマーケティングジュウイチゴウ,0
709,3330001031280,新規,0,2023-09-21,2023-09-21,株式会社相造舎,,株式会社,熊本県,熊本市東区,長嶺南５丁目３番７１号,,43,102,8618039,,,,,,,2023-09-21,1,,,,,ソウゾウシャ,0
710,3340001025918,新規,0,2023-09-21,2023-09-21,株式会社ＬＡ・ｃｅｒｅｍｏｎｙ,,株式会社,鹿児島県,姶良市,宮島町５２番地１,,46,225,8995432,,,,,,,2023-09-21,1,,,,,エルエーセレモニー,0
711,3350005006178,新規,0,2023-09-21,2023-09-21,医療法人至誠会,,その他の設立登記法人,宮崎県,宮崎市,清水１丁目５番８号,,45,201,8800021,,,,,,,2023-09-21,1,,,,,シセイカイ,0
712,3360001032565,新規,0,2023-09-21,2023-09-21,ハイドアウト沖縄うるま株式会社,,株式会社,沖縄県,うるま市,石川東恩納１７１０番地１,,47,213,9041111,,,,,,,2023-09-21,1,,,,,ハイドアウトオキナワウルマ,0
715,3370001050434,新規,0,2023-09-21,2023-09-21,株式会社東日本ハウスサポート,,株式会社,宮城県,仙台市青葉区,梅田町６番６－１０３,,04,101,9800005,,,,,,,2023-09-21,1,,,,,ヒガシニホンハウスサポート,0
717,3380001033999,新規,0,2023-09-21,2023-09-21,株式会社Ｎｅｘｔ‐Ｔ,,株式会社,福島県,いわき市,自由ケ丘１番地の６,,07,204,9708033,,,,,,,2023-09-21,1,,,,,ネクストティ,0
725,3460101007440,新規,0,2023-09-21,2023-09-21,株式会社うぐいす薬局,,株式会社,北海道,上川郡清水町,南二条３丁目１番地４,,01,636,0890138,,,,,,,2023-09-21,1,,,,,ウグイスヤッキョク,0
731,3500001025208,新規,0,2023-09-21,2023-09-21,株式会社Ｓｏ,,株式会社,愛媛県,今治市,共栄町２丁目２番地５１,,38,202,7940024,,,,,,,2023-09-21,1,,,,,ソウ,0
734,3700150115037,新規,0,2023-09-21,2023-09-21,Ｔｅｃｈｎｏ　Ｄｅｃｏｒ　Ｃｏ．，ＬＴＤ,,外国会社等,,,,,,,,１６Ａ　Ｊｉｍｅｉ　Ｉｎｄｕｓｔｒｉａｌ　Ｐａｒｋ，Ｘｉｑｉｎｇ　Ｅｃｏｎｏｍｉｃ　Ｄｅｖｅｌｏｐｍｅｎｔ　Ｚｏｎｅ，Ｔｉａｎｊｉｎ　３００３８５　ＣＮ,,,,,,2023-09-21,1,,,,,テクノデコルカンパニーリミティッド,0
735,3700150118510,新規,0,2023-09-21,2023-09-21,ｓｈｅｎｚｈｅｎｓｈｉｓｏｎｇｍａｏｓｈｉｓｈｅｎｇｓｈａｎｇｍａｏｙｏｕｘｉａｎｇｏｎｇｓｉ,,外国会社等,,,,,,,,ｍｉｎｚｈｉｊｉｅｄａｏ　ｍｉｎｌｅｓｈｅｑｕ　ｍｉｎｌｅｃｕｉｙｕａｎ　４ｄｏｎｇ１１５　ｌｏｎｇｈｕａｑｕ　ｓｈｅｎｚｈｅｎｓｈｉ　ｇｕａｎｇｄｏｎｇｓｈｅｎｇ　５１８０００　ＣＮ,,,,,,2023-09-21,1,,,,,シェンジェンシソンマオシーションシャンマオヨウシェンゴンス,0
736,3700150120532,新規,0,2023-09-21,2023-09-21,ｈａｎｇｚｈｏｕ　Ｕｌｔｒａ　ｌｏｎｇ　ｒａｎｇｅ　Ｅ－ｃｏｍｍｅｒｃｅ　ＣＯ．，ＬＴＤ．,,外国会社等,,,,,,,,Ｒｏｏｍ　３０７１０，３ｒｄ　ｆｌｏｏｒ，Ｎｏ．１０４０　Ｙｕｅｍｉｎｇ　Ｒｏａｄ，Ｃｈａｎｇｈｅ　Ｓｔｒｅｅｔ，Ｂｉｎｊｉａｎｇ　Ｄｉｓｔｒｉｃｔ，Ｈａｎｇｚｈｏｕ　Ｃｉｔｙ，Ｚｈｅｊｉａｎｇ　ｐｒｏｖｉｎｃｅ,,,,,,2023-09-21,1,,,,,ハンジョウチャオユエンチョンディエンズーシャンウーヨウシエンゴンスー,0
737,3700150120540,新規,0,2023-09-21,2023-09-21,Ｘｉａｍｅｎ　Ｙｕａｎｍｉａｏ　Ｔｒａｄｉｎｇ　Ｃｏ．，Ｌｔｄ．,,外国会社等,,,,,,,,Ｎｏ．１３，Ｓｈｏｐｐｉｎｇ　Ｍａｌｌ　ｏｎ　ｔｈｅ　ｓｅｃｏｎｄ　ｆｌｏｏｒ　ｏｆ　Ｆｏｕｒ　Ｎｏｄｅｓ，Ｆｕｊｉｎ　Ｓｔｒｅｅｔ，Ｆｅｎｇｙｕ　Ｒｏａｄ，Ｓｉｍｉｎｇ　Ｄｉｓｔｒｉｃｔ，Ｘｉａｍｅｎ　Ｃｉｔｙ,,,,,,2023-09-21,1,,,,,シャーメンユエンミャオマオイーヨウシエンゴンスー,0
738,3700150120549,新規,0,2023-09-21,2023-09-21,デンソー安全衛生協議会,,その他,愛知県,刈谷市,昭和町１丁目１番地本社５号館２階,,23,210,4480029,,,,,,,2023-09-21,1,,,,,デンソーアンゼンエイセイキョウギカイ,0
744,4010001238502,新規,0,2023-09-21,2023-09-21,株式会社２９９,,株式会社,東京都,中央区,銀座８丁目５番２５号ギンザ８Ｙ＆Ｙホワイトビル５階,,13,102,1040061,,,,,,,2023-09-21,1,,,,,ニクキュウ,0
745,4010001238576,新規,0,2023-09-21,2023-09-21,デジマ株式会社,,株式会社,東京都,中央区,築地１丁目１２番１２号,,13,102,1040045,,,,,,,2023-09-21,1,,,,,デジマ,0
746,4010001238584,新規,0,2023-09-21,2023-09-21,株式会社都築商店,,株式会社,東京都,中央区,日本橋室町１丁目１１番１２号日本橋水野ビル７階,,13,102,1030022,,,,,,,2023-09-21,1,,,,,ツヅキショウテン,0
747,4010001238626,新規,0,2023-09-21,2023-09-21,ペンギンクリエイター株式会社,,株式会社,東京都,千代田区,神田和泉町１番地６－１６ヤマトビル４０５,,13,101,1010024,,,,,,,2023-09-21,1,,,,,ペンギンクリエイター,0
748,4010001238659,新規,0,2023-09-21,2023-09-21,株式会社プロセスアーキテクト,,株式会社,東京都,中央区,日本橋浜町２丁目１０番７－５０４号,,13,102,1030007,,,,,,,2023-09-21,1,,,,,プロセスアーキテクト,0
749,4010001238667,新規,0,2023-09-21,2023-09-21,株式会社ＫＩＴＯ　ＲＥＡＬ　ＥＳＴＡＴＥ,,株式会社,東京都,千代田区,一ツ橋１丁目１番１号,,13,101,1000003,,,,,,,2023-09-21,1,,,,,キトウリアルエステート,0
755,4010401177283,新規,0,2023-09-21,2023-09-21,株式会社エクオル,,株式会社,東京都,港区,北青山３丁目１０番５号ＳｐｒｉｎｇＴｅｒｒａｃｅＯｍｏｔｅｓａｎｄｏ２Ｆ,,13,103,1070061,,,,,,,2023-09-21,1,,,,,エクオル,0
760,4010405022477,新規,0,2023-09-21,2023-09-21,一般財団法人一華五葉財団,,その他の設立登記法人,東京都,港区,赤坂２丁目２１番４号天翔オフィス赤坂ＡＮＮＥＸ３１１号室,,13,103,1070052,,,,,,,2023-09-21,1,,,,,イッカゴヨウザイダン,0
763,4010503007165,新規,0,2023-09-21,2023-09-21,合同会社フュージョン,,合同会社,東京都,台東区,根岸３丁目３番３－２１１号ウェルデンス根岸,,13,106,1100003,,,,,,,2023-09-21,1,,,,,フュージョン,0
766,4010601063804,新規,0,2023-09-21,2023-09-21,長瀛株式会社,,株式会社,東京都,江東区,豊洲５丁目１番１３－４０２６号,,13,108,1350061,,,,,,,2023-09-21,1,,,,,チョウエイ,0
767,4010603010366,新規,0,2023-09-21,2023-09-21,合同会社森富,,合同会社,東京都,墨田区,押上３丁目１８番１１－３０２号,,13,107,1310045,,,,,,,2023-09-21,1,,,,,モリトミ,0
768,4010701044869,新規,0,2023-09-21,2023-09-21,株式会社Ｍ’ｓアセットマネジメント,,株式会社,東京都,品川区,中延４丁目１０番１７号,,13,109,1420053,,,,,,,2023-09-21,1,,,,,エムズアセットマネジメント,0
773,4010803004688,新規,0,2023-09-21,2023-09-21,Ｌｕｎｅ合同会社,,合同会社,東京都,大田区,矢口３丁目９番１７号,,13,111,1460093,,,,,,,2023-09-21,1,,,,,リュヌ,0
781,4011003017539,新規,0,2023-09-21,2023-09-21,合同会社Ａｒｃｌａｙ,,合同会社,東京都,目黒区,東が丘１丁目２７番２０号ｎｏｔｅｓ－１０１,,13,110,1520021,,,,,,,2023-09-21,1,,,,,アークレイ,0
793,4012403006189,新規,0,2023-09-21,2023-09-21,いいことＬａｂｏ合同会社,,合同会社,東京都,調布市,布田２丁目１６－３フドウドリーム２０５,,13,208,1820024,,,,,,,2023-09-21,1,,,,,イイコトラボ,0
796,4012801022639,新規,0,2023-09-21,2023-09-21,株式会社アルファエステート,,株式会社,東京都,国立市,西２丁目６番地の５７,,13,215,1860005,,,,,,,2023-09-21,1,,,,,アルファエステート,0
797,4013101009252,新規,0,2023-09-21,2023-09-21,ＰＡＰＡ　Ｔｒａｄｉｎｇ株式会社,,株式会社,東京都,羽村市,小作台３丁目１８番１号シーズガーデン小作２０６,,13,227,2050001,,,,,,,2023-09-21,1,,,,,パパトレーディング,0
798,4013103001265,新規,0,2023-09-21,2023-09-21,ゴールドリバー合同会社,,合同会社,東京都,あきる野市,雨間３８３番地２３,,13,228,1970825,,,,,,,2023-09-21,1,,,,,ゴールドリバー,0
800,4013301051351,新規,0,2023-09-21,2023-09-21,株式会社バイカルジャパン,,株式会社,東京都,豊島区,南大塚２丁目４４－２,,13,116,1700005,,,,,,,2023-09-21,1,,,,,バイカルジャパン,0
805,4020001153601,新規,0,2023-09-21,2023-09-21,株式会社喜多村ファーマシー,,株式会社,神奈川県,横浜市栄区,長沼町４５３番地１８,,14,115,2440841,,,,,,,2023-09-21,1,,,,,キタムラファーマシー,0
809,4021001080216,新規,0,2023-09-21,2023-09-21,クスコｓｈｏｎａｎ株式会社,,株式会社,神奈川県,茅ヶ崎市,本村５丁目１２番４号,,14,207,2530042,,,,,,,2023-09-21,1,,,,,クスコショウナン,0
815,4030001155910,新規,0,2023-09-21,2023-09-21,泉屋研修事務所株式会社,,株式会社,埼玉県,さいたま市南区,大字広ヶ谷戸４９番地１３,,11,108,3360041,,,,,,,2023-09-21,1,,,,,イズミヤケンシュウジムショ,0
816,4030001155943,新規,0,2023-09-21,2023-09-21,株式会社実乃理,,株式会社,埼玉県,さいたま市北区,日進町２丁目４９５番地１ＦＳＫ日進ビル２０３号,,11,102,3310823,,,,,,,2023-09-21,1,,,,,ミノリ,0
817,4030001156017,新規,0,2023-09-21,2023-09-21,株式会社Ｓ’Ｌｕｃｋ,,株式会社,埼玉県,坂戸市,にっさい花みず木６丁目１７番地１ワンダープレイス１号室,,11,239,3500269,,,,,,,2023-09-21,1,,,,,スラック,0
818,4030001156082,新規,0,2023-09-21,2023-09-21,株式会社あかつき,,株式会社,埼玉県,さいたま市緑区,原山１丁目１２番５号,,11,109,3360931,,,,,,,2023-09-21,1,,,,,アカツキ,0
819,4030001156181,新規,0,2023-09-21,2023-09-21,株式会社サンシン,,株式会社,埼玉県,川口市,東領家４丁目１４番１１号,,11,203,3320003,,,,,,,2023-09-21,1,,,,,サンシン,0
820,4030001156198,新規,0,2023-09-21,2023-09-21,ｓｏｕｋｉ株式会社,,株式会社,埼玉県,越谷市,大字大泊８６４番地７,,11,222,3430044,,,,,,,2023-09-21,1,,,,,ソウキ,0
821,4030003022514,新規,0,2023-09-21,2023-09-21,成功商事合同会社,,合同会社,埼玉県,戸田市,中町１丁目６－２－３０６号室,,11,224,3350012,,,,,,,2023-09-21,1,,,,,セイコウショウジ,0
822,4030003022605,新規,0,2023-09-21,2023-09-21,ルグーデキャルトセゾン合同会社,,合同会社,埼玉県,志木市,本町５丁目２４番７号イーストウッドビル地下１階,,11,228,3530004,,,,,,,2023-09-21,1,,,,,ルグーデキャルトセゾン,0
829,4040001130128,新規,0,2023-09-21,2023-09-21,株式会社ＭＴＲ,,株式会社,千葉県,木更津市,中里６７８番地１,,12,206,2920064,,,,,,,2023-09-21,1,,,,,エムティーアール,0
830,4040001130144,新規,0,2023-09-21,2023-09-21,スプリング・ファーム株式会社,,株式会社,千葉県,香取市,下小野１０１番地,,12,236,2870021,,,,,,,2023-09-21,1,,,,,スプリングファーム,0
833,4040003023346,新規,0,2023-09-21,2023-09-21,Ｏｌｄ　Ｃａｓａ合同会社,,合同会社,千葉県,浦安市,当代島１丁目２８番７号３０２号室,,12,227,2790001,,,,,,,2023-09-21,1,,,,,オールドカーサ,0
836,4050001053501,新規,0,2023-09-21,2023-09-21,株式会社隼建工業,,株式会社,茨城県,鹿嶋市,大字平井１１２８番地２６６,,08,222,3140012,,,,,,,2023-09-21,1,,,,,ハヤケンコウギョウ,0
837,4050003007802,新規,0,2023-09-21,2023-09-21,合同会社ＹＰライン,,合同会社,茨城県,鹿嶋市,大字宮中５６番地１（コーポＳＵＮエイトＨ）,,08,222,3140031,,,,,,,2023-09-21,1,,,,,ワイピーライン,0
838,4060003004724,新規,0,2023-09-21,2023-09-21,合同会社Ｕ　ｓｔｙｌｅ　ｐｈａｒｍａｃｙ,,合同会社,栃木県,小山市,大字犬塚９９８番地６２３,,09,208,3230811,,,,,,,2023-09-21,1,,,,,ユースタイルファーマシー,0
854,4100003007193,新規,0,2023-09-21,2023-09-21,十二合同会社,,合同会社,長野県,松本市,蟻ケ崎４丁目９番５号ＭＫビル,,20,202,3900861,,,,,,,2023-09-21,1,,,,,ジュウニ,0
855,4110001037852,新規,0,2023-09-21,2023-09-21,株式会社ＴＡＫＥ,,株式会社,新潟県,燕市,吉田弥生町３２番２６号,,15,213,9590255,,,,,,,2023-09-21,1,,,,,テイク,0
861,4120001258084,新規,0,2023-09-21,2023-09-21,株式会社暁,,株式会社,大阪府,大阪市平野区,長吉出戸２丁目５番１３－４０３号,,27,126,5470011,,,,,,,2023-09-21,1,,,,,アカツキ,0
862,4120001258092,新規,0,2023-09-21,2023-09-21,天際動量株式会社,,株式会社,大阪府,大阪市中央区,松屋町９番２０号ローレルステート松屋町５０６Ａ,,27,128,5420067,,,,,,,2023-09-21,1,,,,,テンサイドウリョウ,0
863,4120001258150,新規,0,2023-09-21,2023-09-21,一輪株式会社,,株式会社,大阪府,大阪市住吉区,長居２丁目１０番３－２０３号,,27,120,5580003,,,,,,,2023-09-21,1,,,,,イチリン,0
864,4120003024880,新規,0,2023-09-21,2023-09-21,品善商貿合同会社,,合同会社,大阪府,大阪市西区,九条南２丁目１６－１３－２０４,,27,106,5500025,,,,,,,2023-09-21,1,,,,,シナゼンショウボウ,0
870,4122001037393,新規,0,2023-09-21,2023-09-21,株式会社Ｒｅ　Ｃｒｅａｔｅ,,株式会社,大阪府,東大阪市,鳥居町７番３４－１１０５号,,27,227,5798035,,,,,,,2023-09-21,1,,,,,アールイークリエイト,0
871,4122003002668,新規,0,2023-09-21,2023-09-21,合同会社トリプルウィン,,合同会社,大阪府,八尾市,山本町南４丁目１番３号岩田ビル１階,,27,212,5810013,,,,,,,2023-09-21,1,,,,,トリプルウィン,0
872,4130001075297,新規,0,2023-09-21,2023-09-21,ウォーターサービスきほく株式会社,,株式会社,京都府,福知山市,字堀小字水内９４５番地,,26,201,6200000,,,,,,,2023-09-21,1,,,,,ウォーターサービスキホク,0
875,4140001131644,新規,0,2023-09-21,2023-09-21,株式会社光栄設備,,株式会社,兵庫県,姫路市,飾磨区中島１１３９番地４４,,28,201,6728035,,,,,,,2023-09-21,1,,,,,コウエイセツビ,0
876,4140001131693,新規,0,2023-09-21,2023-09-21,ＡＭＹ株式会社,,株式会社,兵庫県,神戸市北区,上津台５丁目１５番９号,,28,109,6511515,,,,,,,2023-09-21,1,,,,,エイミー,0
881,4140003019557,新規,0,2023-09-21,2023-09-21,合同会社ＧＯＬＦ　ＭＯＮＫＥＹ,,合同会社,兵庫県,川西市,加茂３丁目１５－９,,28,217,6660025,,,,,,,2023-09-21,1,,,,,ゴルフモンキー,0
882,4160005011221,新規,0,2023-09-21,2023-09-21,医療法人慈仁会,,その他の設立登記法人,滋賀県,栗東市,安養寺１丁目１３番３７号Ｋビル１階Ｂ号室,,25,208,5203015,,,,,,,2023-09-21,1,,,,,ジジンカイ,0
888,4180001158023,新規,0,2023-09-21,2023-09-21,株式会社アロハカウア,,株式会社,愛知県,名古屋市北区,駒止町１丁目１２０番地の１,,23,103,4620059,,,,,,,2023-09-21,1,,,,,アロハカウア,0
889,4180001158122,新規,0,2023-09-21,2023-09-21,株式会社ジュエリークラウド,,株式会社,愛知県,名古屋市中村区,則武２丁目１４番１１号名駅富士ビル２０２号,,23,105,4530014,,,,,,,2023-09-21,1,,,,,ジュエリークラウド,0
894,4180301037827,新規,0,2023-09-21,2023-09-21,株式会社ＬｅｓｓＱ,,株式会社,愛知県,豊橋市,二川町字川田３９番地の４,,23,201,4413155,,,,,,,2023-09-21,1,,,,,レスキュー,0
902,4200001041738,新規,0,2023-09-21,2023-09-21,株式会社永野建設,,株式会社,岐阜県,郡上市,高鷲町鮎立１０１２番地,,21,219,5015304,,,,,,,2023-09-21,1,,,,,ナガノケンセツ,0
910,4240003006297,新規,0,2023-09-21,2023-09-21,合同会社Ｋｉｍｉ　Ｓｏｒａ,,合同会社,広島県,安芸郡熊野町,出来庭５丁目１０番６号,,34,307,7314221,,,,,,,2023-09-21,1,,,,,キミソラ,0
926,4290003014329,新規,0,2023-09-21,2023-09-21,合同会社脱炭素マーケティング５号,,合同会社,福岡県,福岡市中央区,舞鶴２丁目２番７号２Ａ,,40,133,8100073,,,,,,,2023-09-21,1,,,,,ダツタンソマーケティングゴゴウ,0
937,4340001025917,新規,0,2023-09-21,2023-09-21,株式会社ＭＩＮＡＭＩ　ＰＨＯＴＯ　ＳＴＵＤＩＯ,,株式会社,鹿児島県,鹿児島市,松原町１３番１５号シャトーグリーンウッド１０２号,,46,201,8920833,,,,,,,2023-09-21,1,,,,,ミナミフォトスタジオ,0
938,4340003004258,新規,0,2023-09-21,2023-09-21,合同会社いちき串木野・東市来衛生公社,,合同会社,鹿児島県,いちき串木野市,八房２９１０番地１,,46,219,8960056,,,,,,,2023-09-21,1,,,,,イチキクシキノヒガシイチキエイセイコウシャ,0
941,4360001032580,新規,0,2023-09-21,2023-09-21,株式会社石垣みんぶる,,株式会社,沖縄県,石垣市,字登野城５１０番地,,47,207,9070004,,,,,,,2023-09-21,1,,,,,イシガキミンブル,0
942,4360003013307,新規,0,2023-09-21,2023-09-21,合同会社びおらい,,合同会社,沖縄県,石垣市,字大川５１４－２,,47,207,9070022,,,,,,,2023-09-21,1,,,,,ビオライ,0
943,4370005010689,新規,0,2023-09-21,2023-09-21,一般社団法人東北建設業協会連合会,,その他の設立登記法人,宮城県,仙台市青葉区,支倉町２番４８号宮城県建設産業会館５階,,04,101,9800824,,,,,,,2023-09-21,1,,,,,トウホクケンセツギョウキョウカイレンゴウカイ,0
945,4380001033998,新規,0,2023-09-21,2023-09-21,株式会社エムワークス,,株式会社,福島県,福島市,町庭坂字新町４４番地の１２,,07,201,9602261,,,,,,,2023-09-21,1,,,,,エムワークス,0
948,4400001016380,新規,0,2023-09-21,2023-09-21,真辺工業東北工場株式会社,,株式会社,岩手県,奥州市,前沢字徳沢１番地４０６,,03,215,0294205,,,,,,,2023-09-21,1,,,,,マナベコウギョウトウホクコウジョウ,0
949,4410001013600,新規,0,2023-09-21,2023-09-21,株式会社さとう建工,,株式会社,秋田県,大仙市,大曲金谷町１３番１６号,,05,212,0140054,,,,,,,2023-09-21,1,,,,,サトウケンコウ,0
954,4460001005832,新規,0,2023-09-21,2023-09-21,アグリフェイス株式会社,,株式会社,北海道,釧路市,鳥取南８丁目５番１２号,,01,206,0840905,,,,,,,2023-09-21,1,,,,,アグリフェイス,0
958,4700150042783,新規,0,2023-09-21,2015-10-09,岩倉市指定収集袋取扱店組合,,その他,愛知県,岩倉市,中本町西出口３１番地の１,,23,228,4820042,,,,,,,2015-10-09,1,,,,,イワクラシシテイシユウシユウフクロトリアツカイテンクミアイ,0
959,4700150119656,新規,0,2023-09-21,2023-08-31,国民民主党・日本維新の会　京都府議会議員団,,その他,京都府,京都市上京区,藪之内町１京都府議会棟１階,,26,102,6028041,,,,,,,2023-08-31,1,,,,,コクミンミンシユトウニツポンイシンノカイキヨウトフギカイギインダン,0
960,4700150120481,新規,0,2023-09-21,2023-09-19,胆振獣医師会,,その他,北海道,苫小牧市,若草町５丁目５－３,,01,213,0530021,,,,,,,2023-09-19,1,,,,,イブリジユウイシカイ,0
961,4700150120531,新規,0,2023-09-21,2023-09-21,Ｘｉａｍｅｎｘｉｓｈａｎｋｅｊｉｙｏｕｘｉａｎｇｏｎｇｓｉ,,外国会社等,,,,,,,,ｘｉａｍｅｎｓｈｉｈｕｌｉｑｕａｎｌｉｎｇｌｕ９６６ｈａｏ５０５ｓｈｉｚｈｉｅｒ,,,,,,2023-09-21,1,,,,,シャーメンシーシャンコージーヨウシエンゴンスー,0
962,4700150120548,新規,0,2023-09-21,2023-09-21,岡山市表町三丁目１５番地区市街地再開発組合,,その他,岡山県,岡山市北区,表町３丁目１５番８－２０６号,,33,101,7000822,,,,,,,2023-09-21,1,,,,,オカヤマシオモテチョウサンチョウメジュウゴバンチクシガイチサイカイハツクミアイ,0
963,4700150120556,新規,0,2023-09-21,2023-09-21,みのおサンプラザ１号館マンション敷地売却組合,,その他,大阪府,箕面市,箕面６丁目３番１号,,27,220,5620001,,,,,,,2023-09-21,1,,,,,ミノオサンプラザイチゴウカンマンシヨンシキチバイキヤククミアイ,0
981,5010001238591,新規,0,2023-09-21,2023-09-21,株式会社ラエティーシャ,,株式会社,東京都,中央区,銀座１丁目２２番１１号銀座大竹ビジデンス２階,,13,102,1040061,,,,,,,2023-09-21,1,,,,,ラエティーシャ,0
982,5010001238609,新規,0,2023-09-21,2023-09-21,東京ビューティーアート株式会社,,株式会社,東京都,中央区,銀座３丁目１４番１３号第一厚生館ビル５Ｆ,,13,102,1040061,,,,,,,2023-09-21,1,,,,,トウキョウビューティーアート,0
983,5010001238625,新規,0,2023-09-21,2023-09-21,株式会社ｃｕｒｉｏｌａｂ,,株式会社,東京都,中央区,京橋２丁目７－８,,13,102,1040031,,,,,,,2023-09-21,1,,,,,キュリオラボ,0
984,5010001238666,新規,0,2023-09-21,2023-09-21,株式会社ＳＴＡＲ　Ｊａｐａｎ,,株式会社,東京都,千代田区,神田和泉町一丁目６番１６号ヤマトビル４０５,,13,101,1010024,,,,,,,2023-09-21,1,,,,,スタージャパン,0
990,5010003041688,新規,0,2023-09-21,2023-09-21,Ｓ　ｆｕｒｔｈｅｒコンサルティング合同会社,,合同会社,東京都,文京区,本郷４丁目２５－８－１００３,,13,105,1130033,,,,,,,2023-09-21,1,,,,,エスファーザーコンサルティング,0
991,5010003041705,新規,0,2023-09-21,2023-09-21,合同会社カリオスパートナー,,合同会社,東京都,中央区,銀座１丁目１２－４Ｎ＆ＥＢＬＤ．７階,,13,102,1040061,,,,,,,2023-09-21,1,,,,,カリオスパートナー,0
993,5010101015825,新規,0,2023-09-21,2023-09-21,株式会社オフィスカリフォルニア,,株式会社,東京都,八王子市,寺町５６番１号グレースヒルズ５０２号,,13,201,1920073,,,,,,,2023-09-21,1,,,,,オフィスカリフォルニア,0
1006,5010701044876,新規,0,2023-09-21,2023-09-21,株式会社ＷＳ,,株式会社,東京都,品川区,上大崎３丁目１番２－１１０６号,,13,109,1410021,,,,,,,2023-09-21,1,,,,,ダブルエス,0
1007,5010703006874,新規,0,2023-09-21,2023-09-21,合同会社デザインシステム３６０,,合同会社,東京都,品川区,南大井３丁目２６－１５アルシア大森１２０３,,13,109,1400013,,,,,,,2023-09-21,1,,,,,デザインシステムサンロクマル,0
1008,5010803004670,新規,0,2023-09-21,2023-09-21,合同会社ＷｅＬｉｆｅ,,合同会社,東京都,大田区,西蒲田７丁目５８番１号スタイリオ蒲田８０８,,13,111,1440051,,,,,,,2023-09-21,1,,,,,ウィライフ,0
1010,5010903008464,新規,0,2023-09-21,2023-09-21,合同会社Ｍｏｏｐｅｅ,,合同会社,東京都,世田谷区,若林５丁目２４－１５センターハイツ梅ヶ丘５０６,,13,112,1540023,,,,,,,2023-09-21,1,,,,,ムーピー,0
1018,5011003017562,新規,0,2023-09-21,2023-09-21,Ｐｒｏｄｕｃｔ　Ｇｒｏｗｔｈ　Ｌａｂ合同会社,,合同会社,東京都,渋谷区,渋谷２丁目１９－１５宮益坂ビルディング６０９,,13,113,1500002,,,,,,,2023-09-21,1,,,,,プロダクトグロースラボ,0
1024,5011101104436,新規,0,2023-09-21,2023-09-21,株式会社イベックス,,株式会社,東京都,新宿区,新宿１丁目９番５号新宿御苑さくらビル５階,,13,104,1600022,,,,,,,2023-09-21,1,,,,,イベックス,0
1031,5011301029029,新規,0,2023-09-21,2023-09-21,株式会社シャイン・パートナーズ,,株式会社,東京都,杉並区,松ノ木３丁目２０－１７,,13,115,1660014,,,,,,,2023-09-21,1,,,,,シャインパートナーズ,0
1034,5011501029778,新規,0,2023-09-21,2023-09-21,株式会社ＴＵＲＵ,,株式会社,東京都,北区,上十条２丁目１５番４号,,13,117,1140034,,,,,,,2023-09-21,1,,,,,トゥル,0
1040,5011801043058,新規,0,2023-09-21,2023-09-21,株式会社Ｘ　Ｇｒｏｕｐ,,株式会社,東京都,足立区,竹の塚１丁目２９番８号セントラルビル２階,,13,121,1210813,,,,,,,2023-09-21,1,,,,,エックスグループ,0
1051,5020001153575,新規,0,2023-09-21,2023-09-21,株式会社ＵＴＡＭ,,株式会社,神奈川県,横浜市中区,太田町６丁目７９番アブソルート横濱馬車道５０２,,14,104,2310011,,,,,,,2023-09-21,1,,,,,ユータム,0
1057,5021001080231,新規,0,2023-09-21,2023-09-21,ｓｔａｒｇａｔｅ株式会社,,株式会社,神奈川県,相模原市中央区,由野台１丁目１番１０号Ｂ１,,14,152,2520222,,,,,,,2023-09-21,1,,,,,スターゲート,0
1063,5030001155819,新規,0,2023-09-21,2023-09-21,株式会社優品物語,,株式会社,埼玉県,さいたま市緑区,東大門２丁目１８番地１浦和大門ロイヤルコーポ４０７,,11,109,3360964,,,,,,,2023-09-21,1,,,,,ユウヒンモノガタリ,0
1064,5030001156040,新規,0,2023-09-21,2023-09-21,株式会社ゼテック,,株式会社,埼玉県,加須市,馬内３１０番地３,,11,210,3470043,,,,,,,2023-09-21,1,,,,,ゼテック,0
1065,5030001156098,新規,0,2023-09-21,2023-09-21,フレー株式会社,,株式会社,埼玉県,戸田市,笹目南町２６－２３，２０２号室,,11,224,3350035,,,,,,,2023-09-21,1,,,,,フレー,0
1066,5030001156131,新規,0,2023-09-21,2023-09-21,株式会社Ｍａｒｃｈ　Ｅｓｔａｔｅ,,株式会社,埼玉県,所沢市,大字上山口１６１９番地の１２,,11,208,3591153,,,,,,,2023-09-21,1,,,,,マーチエステート,0
1067,5030001156172,新規,0,2023-09-21,2023-09-21,日本レーザー企画株式会社,,株式会社,埼玉県,さいたま市北区,吉野町１丁目４０１番地２,,11,102,3310811,,,,,,,2023-09-21,1,,,,,ニホンレーザーキカク,0
1068,5030003022546,新規,0,2023-09-21,2023-09-21,アイオークリエイト合同会社,,合同会社,埼玉県,深谷市,上野台２３５２番地ダイアパレスＢＷ深谷１３２３号,,11,218,3660801,,,,,,,2023-09-21,1,,,,,アイオークリエイト,0
1071,5040001130127,新規,0,2023-09-21,2023-09-21,ＶＯＬＴＡＧＥ　ＪＰ株式会社,,株式会社,千葉県,我孫子市,湖北台１丁目８番１１号,,12,222,2701132,,,,,,,2023-09-21,1,,,,,ボルテージジェイピー,0
1072,5040001130135,新規,0,2023-09-21,2023-09-21,ＯＦＦＩＣＥ　ＡＲＲＥＧＬＡＤＯ株式会社,,株式会社,千葉県,市川市,八幡１丁目６－２,,12,203,2720021,,,,,,,2023-09-21,1,,,,,オフィスアレグラード,0
1076,5040003023361,新規,0,2023-09-21,2023-09-21,合同会社ビジョンクラフトウェブ,,合同会社,千葉県,八街市,八街ほ８７４－１０,,12,230,2891115,,,,,,,2023-09-21,1,,,,,ビジョンクラフトウェブ,0
1077,5050001053500,新規,0,2023-09-21,2023-09-21,株式会社パワーコネクト,,株式会社,茨城県,土浦市,神立中央５丁目１９番８号,,08,203,3000011,,,,,,,2023-09-21,1,,,,,パワーコネクト,0
1078,5050001053509,新規,0,2023-09-21,2023-09-21,株式会社小山トラック,,株式会社,茨城県,筑西市,西谷貝３６４番地１,,08,227,3080054,,,,,,,2023-09-21,1,,,,,オヤマトラック,0
1082,5060001036363,新規,0,2023-09-21,2023-09-21,株式会社パイプマンホールディングス,,株式会社,栃木県,宇都宮市,下平出町１６１番地１,,09,201,3210903,,,,,,,2023-09-21,1,,,,,パイプマンホールディングス,0
1092,5110001037851,新規,0,2023-09-21,2023-09-21,株式会社Ｌａ　Ｂｒｉｌｌｅｒ　ｍａｇｉｅ,,株式会社,新潟県,上越市,大字黒井１９７６番地,,15,222,9420013,,,,,,,2023-09-21,1,,,,,ラブリエマジー,0
1105,5120001258050,新規,0,2023-09-21,2023-09-21,比遜株式会社,,株式会社,大阪府,大阪市大正区,三軒家西３丁目４番１６号中山ビル１０２４,,27,108,5510001,,,,,,,2023-09-21,1,,,,,ヒソン,0
1106,5120001258091,新規,0,2023-09-21,2023-09-21,雷龍科技株式会社,,株式会社,大阪府,大阪市東成区,深江北３丁目４番２１号エクラ深江橋８１０Ａ,,27,115,5370001,,,,,,,2023-09-21,1,,,,,ライリュウカギ,0
1107,5120001258166,新規,0,2023-09-21,2023-09-21,エナジーライフ株式会社,,株式会社,大阪府,大阪市中央区,谷町２丁目３番４号サンシャイン大手前ビル９階,,27,128,5400012,,,,,,,2023-09-21,1,,,,,エナジーライフ,0
1108,5120001258356,新規,0,2023-09-21,2023-09-21,株式会社ＲＨコミュニティ,,株式会社,大阪府,大阪市中央区,瓦町２丁目３番３号ＴＯＳＨＯＬＩＦＥビル６０２号,,27,128,5410048,,,,,,,2023-09-21,1,,,,,アールエイチコミュニティ,0
1115,5120101068234,新規,0,2023-09-21,2023-09-21,株式会社リンクスコミット,,株式会社,大阪府,堺市北区,南長尾町１丁４番２４－１０２号,,27,146,5918045,,,,,,,2023-09-21,1,,,,,リンクスコミット,0
1118,5120903004832,新規,0,2023-09-21,2023-09-21,合同会社あほうどり,,合同会社,大阪府,豊中市,刀根山元町４番３８号,,27,203,5600044,,,,,,,2023-09-21,1,,,,,アホウドリ,0
1120,5122001037384,新規,0,2023-09-21,2023-09-21,Ｍ’Ｚｓｈｏｐ株式会社,,株式会社,大阪府,東大阪市,大蓮南４丁目１３番２０号,00131978,27,227,5770825,,,,,,,2023-09-21,1,,,,,エムズショップ,0
1123,5130001075247,新規,0,2023-09-21,2023-09-21,株式会社Ｅｎｅｍｅｍｏ,,株式会社,京都府,京都市左京区,下鴨宮崎町１８番地１,,26,103,6060802,,,,,,,2023-09-21,1,,,,,エネメモ,0
1131,5140001131643,新規,0,2023-09-21,2023-09-21,株式会社オーケーホーム,,株式会社,兵庫県,尼崎市,東園田町１丁目８８番地の１,,28,202,6610953,,,,,,,2023-09-21,1,,,,,オーケーホーム,0
1132,5140001131692,新規,0,2023-09-21,2023-09-21,株式会社ＣＶＨ,,株式会社,兵庫県,神戸市中央区,国香通４丁目２番１２号,,28,110,6510066,,,,,,,2023-09-21,1,,,,,シーブイエイチ,0
1133,5140001131701,新規,0,2023-09-21,2023-09-21,株式会社エレニア,,株式会社,兵庫県,神戸市中央区,三宮町３丁目９番１５－７０３号,,28,110,6500021,,,,,,,2023-09-21,1,,,,,エレニア,0
1136,5140003019564,新規,0,2023-09-21,2023-09-21,ＺＫＺＡ　ＴＲＡＤＩＮＧ合同会社,,合同会社,兵庫県,三木市,別所町花尻字道付野６５２番,,28,215,6730446,,,,,,,2023-09-21,1,,,,,ゼットケイゼットエートレーディング,0
1140,5170003001924,新規,0,2023-09-21,2023-09-21,合同会社ＰｉＫＯＲＵａ,,合同会社,和歌山県,和歌山市,榎原１９５番地６,,30,201,6408434,,,,,,,2023-09-21,1,,,,,ピコルア,0
1145,5180001158113,新規,0,2023-09-21,2023-09-21,株式会社坂本重機,,株式会社,愛知県,名古屋市港区,油屋町２丁目６４番地,,23,111,4550815,,,,,,,2023-09-21,1,,,,,サカモトジュウキ,0
1151,5180003025757,新規,0,2023-09-21,2023-09-21,合同会社リアルエステート中川,,合同会社,愛知県,名古屋市港区,東蟹田１００１番地,,23,111,4550886,,,,,,,2023-09-21,1,,,,,リアルエステートナカガワ,0
1155,5180301037826,新規,0,2023-09-21,2023-09-21,株式会社あおみ,,株式会社,愛知県,碧南市,湖西町２丁目１８番地,,23,209,4470082,,,,,,,2023-09-21,1,,,,,アオミ,0
1172,5250003003350,新規,0,2023-09-21,2023-09-21,ＢＲＩＤＧＥＳ合同会社,,合同会社,山口県,下関市,笹山町５番２４号,,35,201,7500024,,,,,,,2023-09-21,1,,,,,ブリッジズ,0
1175,5260003004439,新規,0,2023-09-21,2023-09-21,合同会社ＧＬ,,合同会社,岡山県,倉敷市,玉島３丁目７番９号,,33,202,7138102,,,,,,,2023-09-21,1,,,,,ジーエル,0
1179,5290001103066,新規,0,2023-09-21,2023-09-21,株式会社ネオアヴァンティ,,株式会社,福岡県,大牟田市,山下町３４番地４,,40,202,8360053,,,,,,,2023-09-21,1,,,,,ネオアヴァンティ,0
1180,5290001103090,新規,0,2023-09-21,2023-09-21,株式会社Ｒｉｐｐｌｅ,,株式会社,福岡県,福岡市博多区,比恵町１－１８－２０１,,40,132,8120014,,,,,,,2023-09-21,1,,,,,リップル,0
1184,5290003014328,新規,0,2023-09-21,2023-09-21,合同会社脱炭素マーケティング４号,,合同会社,福岡県,福岡市中央区,舞鶴２丁目２番７号２Ａ,,40,133,8100073,,,,,,,2023-09-21,1,,,,,ダツタンソマーケティングヨンゴウ,0
1185,5290003014377,新規,0,2023-09-21,2023-09-21,合同会社脱炭素マーケティング９号,,合同会社,福岡県,福岡市中央区,舞鶴２丁目２番７号２Ａ,,40,133,8100073,,,,,,,2023-09-21,1,,,,,ダツタンソマーケティングキュウゴウ,0
1186,5290003014385,新規,0,2023-09-21,2023-09-21,合同会社ＩＮＦＩＮＩＴＹ,,合同会社,福岡県,糟屋郡志免町,南里６丁目２０番１０号,,40,343,8112207,,,,,,,2023-09-21,1,,,,,インフィニティ,0
1191,5330001031262,新規,0,2023-09-21,2023-09-21,山崎建設株式会社,00131979,株式会社,熊本県,八代市,高島町４４７３番地１,,43,202,8660014,,,,,,,2023-09-21,1,,,,,ヤマサキケンセツ,0
1192,5330001031279,新規,0,2023-09-21,2023-09-21,亀丸物産株式会社,,株式会社,熊本県,玉名市,天水町竹崎３７８番地,,43,206,8615404,,,,,,,2023-09-21,1,,,,,カメマルブッサン,0
1196,5340003004257,新規,0,2023-09-21,2023-09-21,合同会社ＣＯＭＥＳ,,合同会社,鹿児島県,鹿児島市,吉野町８０８４番地２,,46,201,8920871,,,,,,,2023-09-21,1,,,,,カムズ,0
1197,5350001018571,新規,0,2023-09-21,2023-09-21,株式会社縁卓,,株式会社,宮崎県,宮崎市,大字新名爪２１２４番地,,45,201,8800124,,,,,,,2023-09-21,1,,,,,エンタク,0
1198,5360003013306,新規,0,2023-09-21,2023-09-21,合同会社Ｔｅｃｈ　Ｔｅｃｈ,,合同会社,沖縄県,糸満市,西崎町３丁目１９９番地１,,47,210,9010306,,,,,,,2023-09-21,1,,,,,テクテク,0
1208,5380003005573,新規,0,2023-09-21,2023-09-21,合同会社ＩＴＳ,,合同会社,福島県,福島市,南矢野目字夜梨２０番地の３,,07,201,9600112,,,,,,,2023-09-21,1,,,,,アイティーエス,0
1222,5430005014781,新規,0,2023-09-21,2023-09-21,一般社団法人未来学園,,その他の設立登記法人,北海道,札幌市中央区,南八条西１６丁目２番１２号,,01,101,0640808,,,,,,,2023-09-21,1,,,,,ミライガクエン,0
1227,5470001019822,新規,0,2023-09-21,2023-09-21,株式会社大家,,株式会社,香川県,観音寺市,茂木町５丁目６番４８号,,37,205,7680069,,,,,,,2023-09-21,1,,,,,オオヤ,0
1230,5500001025206,新規,0,2023-09-21,2023-09-21,株式会社ワークシステム愛媛,00131977,株式会社,愛媛県,東温市,西岡１４００番地,,38,215,7910205,,,,,,,2023-09-21,1,,,,,ワークシステムエヒメ,0
1231,5700150118509,新規,0,2023-09-21,2023-09-21,Ｓｈｅｎｚｈｅｎ　Ｚｈｅｎｇｌｉｈｅ　Ｔｅｃｈｎｏｌｏｇｙ　Ｃｏ．，Ｌｔｄ,,外国会社等,,,,,,,,Ｒｍ．２０１，Ｎｏ．３７，Ｘｉａ　Ｓｈｕｉ　Ｊｉｎｇ　Ｚｏｎｅ　３　Ｓｔｒｅｅｔ　１　Ｂｕ　Ｊｉ　Ｓｔ，Ｌｏｎｇｇａｎｇ　Ｄｉｓｔｒｉｃｔ　Ｓｈｅｎｚｈｅｎ，Ｇｕａｎｇｄｏｎｇ,,,,,,2023-09-21,1,,,,,シェンジェンシジォンリーホーテクノロジーカンパニーリミテッド,0
1232,5700150120530,新規,0,2023-09-21,2023-09-21,Ｓｈｅｎｚｈｅｎ　Ｓｈｉｂｏ　Ｔｅｃｈｎｏｌｏｇｙ　Ｃｏ．，Ｌｔｄ,,外国会社等,,,,,,,,Ｒｏｏｍ　５０８，Ｌｏｎｇｈｕａ　Ｂｕｓｉｎｅｓｓ　Ｃｅｎｔｅｒ，Ｈｅｐｉｎｇ　Ｒｏａｄ，Ｌｏｎｇｈｕａ　Ｓｔｒｅｅｔ，Ｌｏｎｇｈｕａ　Ｄｉｓｔｒｉｃｔ，Ｓｈｅｎｚｈｅｎ　Ｃｉｔｙ,,,,,,2023-09-21,1,,,,,シェンジェンシーシーボーコージーヨウシエンゴンスー,0
1233,5700150120539,新規,0,2023-09-21,2023-09-21,Ｘｉａｎｇｙａｎｇ　Ｗａｔｉａｏ　ｔｒａｄｉｎｇ　Ｃｏ．，ＬＴＤ,,外国会社等,,,,,,,,Ｎｏ．１５，Ｇｒｏｕｐ　１，Ｗａｎｇｈｕ　Ｖｉｌｌａｇｅ，Ｌｉｌｏｕ　Ｓｔｒｅｅｔ，Ｌａｏｈｅｋｏｕ　Ｃｉｔｙ，Ｘｉａｎｇｙａｎｇ　Ｃｉｔｙ，Ｈｕｂｅｉ　Ｐｒｏｖｉｎｃｅ,,,,,,2023-09-21,1,,,,,シャンヤンシーワーテャオシャンマオヨウシエンゴンスー,0
1234,5700150120547,新規,0,2023-09-21,2023-09-21,Ｚｈｅｎｇｚｈｏｕ　Ａｏｔｕｏ　Ｅ－ｃｏｍｍｅｒｃｅ　Ｃｏ．，ＬＴＤ,,外国会社等,,,,,,,,ｇａｏｘｉｎｊｉｓｈｕｋａｉｆａｑｕｄａｘｕｅｋｅｊｉｙｕａｎｄｏｎｇｑｕ１３ｈａｏｌｏｕ２１０４ｈａｏ　ｚｈｅｎｇｚｈｏｕ　ｈｅｎａｎ　４５０００１　ＣＮ,,,,,,2023-09-21,1,,,,,ジョンジョウアオトゥオディエンズーシャンウーヨウシエンゴンスー,0
1241,6010001238574,新規,0,2023-09-21,2023-09-21,Ｇａｍｉｎｇ　Ｌａｂｏｒａｔｏｒｉｅｓ　Ｊａｐａｎ株式会社,,株式会社,東京都,千代田区,丸の内２丁目１番１号明治生命館７階ディーエルエイ・パイパー東京パートナーシップ外国法共同事業法律事務所内,,13,101,1000005,,,,,,,2023-09-21,1,,,,,ゲーミングラボラトリーズジャパン,0
1242,6010001238582,新規,0,2023-09-21,2023-09-21,Ｌｉｌｙ’ｓ株式会社,,株式会社,東京都,文京区,本郷４丁目１７－８小柳ビル３階,,13,105,1130033,,,,,,,2023-09-21,1,,,,,リリーズ,0
1245,6010003041340,新規,0,2023-09-21,2023-09-21,合同会社コンフォート,,合同会社,東京都,千代田区,平河町１丁目６－１５ＵＳビル８Ｆ,,13,101,1020093,,,,,,,2023-09-21,1,,,,,コンフォート,0
1246,6010003041729,新規,0,2023-09-21,2023-09-21,クリムゾン・キング・メディカル合同会社,,合同会社,東京都,中央区,日本橋室町１丁目１１－１２日本橋水野ビル７階,,13,102,1030022,,,,,,,2023-09-21,1,,,,,クリムゾンキングメディカル,0
1262,6010401177182,新規,0,2023-09-21,2023-09-21,株式会社アイエイチダブリュメディアサービス,,株式会社,東京都,港区,赤坂４丁目１番２６号,,13,103,1070052,,,,,,,2023-09-21,1,,,,,アイエイチダブリュメディアサービス,0
1263,6010401177315,新規,0,2023-09-21,2023-09-21,株式会社ＧＳインベストメント,,株式会社,東京都,港区,麻布十番１丁目８番１１号３階,,13,103,1060045,,,,,,,2023-09-21,1,,,,,ジーエスインベストメント,0
1265,6010403030959,新規,0,2023-09-21,2023-09-21,合同会社ポケット,,合同会社,東京都,港区,北青山１丁目３番１号アールキューブ青山３階,,13,103,1070061,,,,,,,2023-09-21,1,,,,,ポケット,0
1267,6010405022533,新規,0,2023-09-21,2023-09-21,Ｌｉｆｅｓｔｙｌｅ１ｃ一般社団法人,,その他の設立登記法人,東京都,港区,六本木１丁目６番１号泉ガーデンタワー,,13,103,1060032,,,,,,,2023-09-21,1,,,,,ライフスタイルワンシー,0
1268,6010601063827,新規,0,2023-09-21,2023-09-21,森瑞株式会社,,株式会社,東京都,墨田区,向島４丁目１番１－２０１号,,13,107,1310033,,,,,,,2023-09-21,1,,,,,モリミズ,0
1270,6010801034347,新規,0,2023-09-21,2023-09-21,株式会社ティーネクサス,,株式会社,東京都,大田区,大森北６丁目２３番２０号,,13,111,1430016,,,,,,,2023-09-21,1,,,,,ティーネクサス,0
1271,6010903008463,新規,0,2023-09-21,2023-09-21,合同会社Ｔ・Ｍ・Ｋ,,合同会社,東京都,世田谷区,経堂１丁目２１番２０号２Ｆ,,13,112,1560052,,,,,,,2023-09-21,1,,,,,ティーエムケー,0
1282,6011001157005,新規,0,2023-09-21,2023-09-21,株式会社テックオン,,株式会社,東京都,渋谷区,渋谷２丁目１９－１５宮益坂ビルディング６０９,,13,113,1500002,,,,,,,2023-09-21,1,,,,,テックオン,0
1283,6011003017537,新規,0,2023-09-21,2023-09-21,合同会社シルバーバック,,合同会社,東京都,渋谷区,恵比寿１丁目１６番２２号,,13,113,1500013,,,,,,,2023-09-21,1,,,,,シルバーバック,0
1286,6011103013502,新規,0,2023-09-21,2023-09-21,合同会社青葉,,合同会社,東京都,新宿区,新宿１丁目３１番７号,,13,104,1600022,,,,,,,2023-09-21,1,,,,,アオバ,0
1287,6011105010786,新規,0,2023-09-21,2023-09-21,一般社団法人オリエント芸術文化研究機構,,その他の設立登記法人,東京都,新宿区,百人町３丁目１番４号,,13,104,1690073,,,,,,,2023-09-21,1,,,,,オリエントゲイジュツブンカケンキュウキコウ,0
1291,6011301029003,新規,0,2023-09-21,2023-09-21,株式会社鬨,,株式会社,東京都,杉並区,松庵３丁目３７番１０号,,13,115,1670054,,,,,,,2023-09-21,1,,,,,トキ,0
1294,6011601027136,新規,0,2023-09-21,2023-09-21,株式会社ＤＥＳＫ,,株式会社,東京都,練馬区,桜台１丁目４－１４,,13,120,1760002,,,,,,,2023-09-21,1,,,,,デスク,0
1302,6020001153566,新規,0,2023-09-21,2023-09-21,Ｓ‐ＲＩＳＥ株式会社,,株式会社,神奈川県,横浜市戸塚区,秋葉町３７６番地２パレ・ドールＡ棟２０２号,,14,110,2450052,,,,,,,2023-09-21,1,,,,,エスライズ,0
1303,6020001153574,新規,0,2023-09-21,2023-09-21,株式会社ｓｐｅｃｔｒｕｍ３,,株式会社,神奈川県,川崎市中原区,木月４丁目１９－３コンフォート住吉Ｂ１０３,,14,133,2110025,,,,,,,2023-09-21,1,,,,,スペクトラムスリー,0
1304,6020001153582,新規,0,2023-09-21,2023-09-21,エンハンスエイド株式会社,,株式会社,神奈川県,川崎市高津区,北見方１丁目２６番１０号,,14,134,2130005,,,,,,,2023-09-21,1,,,,,エンハンスエイド,0
1305,6020003024591,新規,0,2023-09-21,2023-09-21,合同会社Ｔｏ‐Ｙ,,合同会社,神奈川県,川崎市宮前区,東有馬１丁目１－３５－２１０,,14,136,2160002,,,,,,,2023-09-21,1,,,,,トーイ,0
1306,6020003024609,新規,0,2023-09-21,2023-09-21,合同会社山田リニューアル,,合同会社,神奈川県,川崎市高津区,溝口６丁目１２番１０‐１号,,14,134,2130001,,,,,,,2023-09-21,1,,,,,ヤマダリニューアル,0
1310,6021001080222,新規,0,2023-09-21,2023-09-21,Ｂｕ株式会社,,株式会社,神奈川県,平塚市,平塚５丁目１０番２３号ビラ湘南２０１号,,14,203,2540052,,,,,,,2023-09-21,1,,,,,ビーユー,0
1311,6021001080230,新規,0,2023-09-21,2023-09-21,株式会社相州地所,,株式会社,神奈川県,小田原市,小台３３３－１,,14,206,2500858,,,,,,,2023-09-21,1,,,,,ソウシュウジショ,0
1317,6030001155850,新規,0,2023-09-21,2023-09-21,あらいん株式会社,,株式会社,埼玉県,新座市,栄４丁目６番１４号,,11,230,3520014,,,,,,,2023-09-21,1,,,,,アライン,0
1318,6030001155958,新規,0,2023-09-21,2023-09-21,株式会社クマイ電設,,株式会社,埼玉県,桶川市,上日出谷南１丁目７番地の１６,,11,231,3630020,,,,,,,2023-09-21,1,,,,,クマイデンセツ,0
1319,6030001156056,新規,0,2023-09-21,2023-09-21,盛和株式会社,,株式会社,埼玉県,比企郡小川町,大字下里１１７８番地１,,11,343,3550323,,,,,,,2023-09-21,1,,,,,セイワ,0
1320,6030001156072,新規,0,2023-09-21,2023-09-21,株式会社Ｍａｔｏｂａ　Ｃｏｎｓｔｒｕｃｔｉｏｎ　Ｗｏｒｋ,,株式会社,埼玉県,入間市,扇台５丁目６番１４号,,11,225,3580023,,,,,,,2023-09-21,1,,,,,マトバコンストラクションワーク,0
1321,6030001156089,新規,0,2023-09-21,2023-09-21,株式会社６１１,,株式会社,埼玉県,入間市,宮寺６１１番地１,,11,225,3580014,,,,,,,2023-09-21,1,,,,,ロクイチイチ,0
1327,6040001130126,新規,0,2023-09-21,2023-09-21,株式会社真工業不動産,,株式会社,千葉県,柏市,大室２６５番地１３ノースコート１０３,,12,217,2770813,,,,,,,2023-09-21,1,,,,,シンコウギョウフドウサン,0
1328,6040001130134,新規,0,2023-09-21,2023-09-21,株式会社ＵＭＥＲ　ＮＡＳＩＲ,,株式会社,千葉県,山武市,横田２８３番地１,,12,237,2891226,,,,,,,2023-09-21,1,,,,,ウマールナシル,0
1329,6040001130142,新規,0,2023-09-21,2023-09-21,株式会社Ｚｉｐｓｏｆｉｌ,,株式会社,千葉県,印西市,草深９４１番地３,,12,231,2701337,,,,,,,2023-09-21,1,,,,,ジップソフィル,0
1330,6040001130167,新規,0,2023-09-21,2023-09-21,リオン株式会社,,株式会社,千葉県,船橋市,湊町２丁目１２－２４湊町日本橋ビル６Ｆ,,12,204,2730011,,,,,,,2023-09-21,1,,,,,リオン,0
1333,6040003023245,新規,0,2023-09-21,2023-09-21,合同会社ＮＰＤ,,合同会社,千葉県,いすみ市,岬町江場土２７８５‐２,,12,238,2994612,,,,,,,2023-09-21,1,,,,,エヌピィディ,0
1334,6040003023352,新規,0,2023-09-21,2023-09-21,合同会社佐々木建業,,合同会社,千葉県,大網白里市,みどりが丘３丁目３番地２０,,12,239,2993255,,,,,,,2023-09-21,1,,,,,ササキケンギョウ,0
1338,6050003007800,新規,0,2023-09-21,2023-09-21,合同会社グリーンマネジメント３９,,合同会社,茨城県,稲敷市,福田１３６４番地,,08,229,3000617,,,,,,,2023-09-21,1,,,,,グリーンマネジメントサンジュウキュウ,0
1352,6090001018325,新規,0,2023-09-21,2023-09-21,株式会社ＴＯＫＩＯサポート,,株式会社,山梨県,南都留郡忍野村,内野４７５１番地,,19,424,4010512,,,,,,,2023-09-21,1,,,,,トキオサポート,0
1366,6120001258090,新規,0,2023-09-21,2023-09-21,天和株式会社,,株式会社,大阪府,大阪市大正区,三軒家西３丁目４番１６号中山ビル１０２５,,27,108,5510001,,,,,,,2023-09-21,1,,,,,テンワ,0
1367,6120001258314,新規,0,2023-09-21,2023-09-21,株式会社ＳＡＧ,,株式会社,大阪府,大阪市中央区,東心斎橋１丁目８－１１アルグラッドザ・タワー心斎橋３５０１,,27,128,5420083,,,,,,,2023-09-21,1,,,,,エスエージー,0
1370,6120003024879,新規,0,2023-09-21,2023-09-21,大成貿易合同会社,,合同会社,大阪府,大阪市西区,九条南２丁目１６－１３－２０６,,27,106,5500025,,,,,,,2023-09-21,1,,,,,タイセイボウエキ,0
1371,6120003024887,新規,0,2023-09-21,2023-09-21,合同会社彪之真,,合同会社,大阪府,寝屋川市,昭栄町８番５号,,27,215,5720834,,,,,,,2023-09-21,1,,,,,トラノスケ,0
1393,6140001131659,新規,0,2023-09-21,2023-09-21,株式会社宝塚相続手続センター,,株式会社,兵庫県,宝塚市,逆瀬川１丁目１１番１号アピア２、１階,,28,214,6650035,,,,,,,2023-09-21,1,,,,,タカラヅカソウゾクテツヅキセンター,0
1394,6140001131717,新規,0,2023-09-21,2023-09-21,株式会社マグナサール,,株式会社,兵庫県,高砂市,北浜町北脇１１１番地の２,,28,216,6710122,,,,,,,2023-09-21,1,,,,,マグナサール,0
1407,6160003002988,新規,0,2023-09-21,2023-09-21,飛彈ＷＥＳＴ合同会社,,合同会社,滋賀県,近江八幡市,上田町１４４６番地,,25,204,5230015,,,,,,,2023-09-21,1,,,,,ヒダウエスト,0
1416,6180001158137,新規,0,2023-09-21,2023-09-21,株式会社ＣＬＡＩＲＥ,,株式会社,愛知県,名古屋市瑞穂区,白砂町３丁目２４番１号,,23,108,4670056,,,,,,,2023-09-21,1,,,,,クレア,0
1424,6180003025764,新規,0,2023-09-21,2023-09-21,合同会社リアン,,合同会社,愛知県,名古屋市北区,楠５丁目５１０番地の４,,23,103,4620012,,,,,,,2023-09-21,1,,,,,リアン,0
1427,6180301037825,新規,0,2023-09-21,2023-09-21,株式会社Ｗｉｔｈ・ワン,,株式会社,愛知県,碧南市,半崎町４丁目１３８番地,,23,209,4470015,,,,,,,2023-09-21,1,,,,,ウィズワン,0
1429,6190001030740,新規,0,2023-09-21,2023-09-21,サーティーンズホールディングス株式会社,,株式会社,三重県,四日市市,桜台１丁目６－９,,24,202,5121214,,,,,,,2023-09-21,1,,,,,サーティーンズホールディングス,0
1438,6240001062051,新規,0,2023-09-21,2023-09-21,Ｒｙｍｓ株式会社,,株式会社,広島県,広島市安佐南区,東野２丁目２５－５,,34,105,7310111,,,,,,,2023-09-21,1,,,,,リムズ,0
1439,6240001062150,新規,0,2023-09-21,2023-09-21,ＫＡＩＴＯＬＯＧＹ株式会社,,株式会社,広島県,広島市中区,本通２番８号,,34,101,7300035,,,,,,,2023-09-21,1,,,,,カイトロジー,0
1452,6290001103073,新規,0,2023-09-21,2023-09-21,朝日株式会社,,株式会社,福岡県,福岡市早良区,百道浜１丁目７番２－１８０１号,,40,137,8140001,,,,,,,2023-09-21,1,,,,,アサヒ,0
1453,6290001103081,新規,0,2023-09-21,2023-09-21,株式会社Ｂａｒｉ,,株式会社,福岡県,福岡市中央区,天神２丁目２番１２号Ｔ＆Ｊビルディング７階,,40,133,8100001,,,,,,,2023-09-21,1,,,,,バリ,0
1454,6290001103098,新規,0,2023-09-21,2023-09-21,株式会社ＡＣＴ九州,,株式会社,福岡県,久留米市,東町３１番地１８,,40,203,8300032,,,,,,,2023-09-21,1,,,,,アクトキュウシュウ,0
1457,6290003014327,新規,0,2023-09-21,2023-09-21,合同会社脱炭素マーケティング３号,,合同会社,福岡県,福岡市中央区,舞鶴２丁目２番７号２Ａ,,40,133,8100073,,,,,,,2023-09-21,1,,,,,ダツタンソマーケティングサンゴウ,0
1458,6290003014335,新規,0,2023-09-21,2023-09-21,合同会社脱炭素マーケティング７号,,合同会社,福岡県,福岡市中央区,舞鶴２丁目２番７号２Ａ,,40,133,8100073,,,,,,,2023-09-21,1,,,,,ダツタンソマーケティングナナゴウ,0
1459,6290003014376,新規,0,2023-09-21,2023-09-21,合同会社脱炭素マーケティング８号,,合同会社,福岡県,福岡市中央区,舞鶴２丁目２番７号２Ａ,,40,133,8100073,,,,,,,2023-09-21,1,,,,,ダツタンソマーケティングハチゴウ,0
1483,6370001050423,新規,0,2023-09-21,2023-09-21,株式会社Ｌａ　Ｃｒｉｙａ,,株式会社,宮城県,仙台市泉区,虹の丘１丁目３番地の２１,,04,105,9818007,,,,,,,2023-09-21,1,,,,,ラクリヤ,0
1484,6370003006290,新規,0,2023-09-21,2023-09-21,合同会社ＫＥＹ‐ＰＬＡＮ,,合同会社,宮城県,仙台市青葉区,落合１丁目６番２７号,,04,101,9893126,,,,,,,2023-09-21,1,,,,,キープラン,0
1489,6380001033996,新規,0,2023-09-21,2023-09-21,株式会社ＴＯＹＯＵＫＥ,,株式会社,福島県,耶麻郡猪苗代町,字町尻３４６番地,,07,408,9693122,,,,,,,2023-09-21,1,,,,,トヨウケ,0
1493,6410003003845,新規,0,2023-09-21,2023-09-21,合同会社遊文社,,合同会社,秋田県,鹿角市,花輪字上中島１０３番地,,05,209,0185201,,,,,,,2023-09-21,1,,,,,ユウブンシャ,0
1498,6430001090000,新規,0,2023-09-21,2023-09-21,株式会社ＪＢＪ,,株式会社,北海道,札幌市中央区,南八条西１２丁目１番３９－５０３号,,01,101,0640808,,,,,,,2023-09-21,1,,,,,ジェイビージェイ,0
1499,6430001090009,新規,0,2023-09-21,2023-09-21,株式会社エシアス,,株式会社,北海道,札幌市北区,北七条西４丁目１番１号トーカン札幌第一キャステール６０７,,01,102,0600807,,,,,,,2023-09-21,1,,,,,エシアス,0
1507,6460001005830,新規,0,2023-09-21,2023-09-21,株式会社セナヴィーノ,,株式会社,北海道,川上郡弟子屈町,字弟子屈原野７８９番地３,,01,665,0883222,,,,,,,2023-09-21,1,,,,,セナヴィーノ,0
1509,6470003002494,新規,0,2023-09-21,2023-09-21,合同会社Ｔ＆Ｃ,,合同会社,香川県,高松市,鍛冶屋町６番地１１,,37,201,7600028,,,,,,,2023-09-21,1,,,,,ティーアンドシー,0
1512,6700150117682,新規,0,2023-09-21,2023-06-23,井原市美星天文普及協会,,その他,岡山県,井原市,美星町大倉１７２３－７０,,33,207,7141411,,,,,,,2023-06-23,1,,,,,イバラシビセイテンモンフキユウキヨウカイ,0
1513,6700150118516,新規,0,2023-09-21,2023-09-21,ＳＡＩＮＳＴＯＲＥ　ＩＮＣ,,外国会社等,,,,,,,,６９４５　ＳＰＥＥＤＷＡＹ　ＢＬＶＤ　ＳＴＥ　Ｈ１０２ＬＡＳ　ＶＥＧＡＳ　ＮＶＵｎｉｔｅｄ　Ｓｔａｔｅｓ　８９１１５,,,,,,2023-09-21,1,,,,,サインストアインク,0
1514,6700150120538,新規,0,2023-09-21,2023-09-21,Ｈｕｂｅｉ　ｅｌｉｓｉｏｎ　Ｌｕ　ｔｒａｄｉｎｇ　Ｃｏ．，ＬＴＤ,,外国会社等,,,,,,,,Ｒｏｏｍ　５１２，Ｂｕｉｌｄｉｎｇ　３，Ｍｅｉｙｕａｎ　Ｇａｒｄｅｎ，Ｎｏ．８５　Ｇｕａｎｇｊｉ　Ｒｏａｄ，Ｍｅｉｃｈｕａｎ　Ｔｏｗｎ，Ｗｕｘｕｅ　Ｃｉｔｙ，Ｈｕａｎｇｇａｎｇ　Ｃｉｔｙ，Ｈｕｂｅｉ　Ｐｒｏｖｉｎｃｅ,,,,,,2023-09-21,1,,,,,フーベイションルーシャンマオヨウシエンゴンスー,0
1515,6700150120546,新規,0,2023-09-21,2023-09-21,ｓｈｅｎｚｈｅｎｓｈｉ　ｈｕａｎｎａｈｅ　ｋｅｊｉｙｏｕｘｉａｎｇｏｎｇｓｉ,,外国会社等,,,,,,,,Ｌｏｎｇｈｕａｑｕｌｏｎｇｈｕａｊｉｅｄａｏｙｕｃｕｉｓｈｅｑｕｌｏｎｇｈｕａｙｕｃｕｉｘｉｎｃｕｎｓａｎｑｕ４６ｈａｏ　Ｌｏｎｇｈｕａｙｕｃｕｉｘｉｎｃｕｎｓａｎｑｕ４６－１ｈａｏ　Ｓｈｅｎｚｈｅｎ　Ｇｕａｎｇｄｏｎｇ　５１８０００　ＣＮ,,,,,,2023-09-21,1,,,,,シェンジェンシーフアンナーホーコージーヨウシエンゴンスー,0
1518,7010001238581,新規,0,2023-09-21,2023-09-21,株式会社アップサイト,,株式会社,東京都,千代田区,神田三崎町２丁目１６－５ウィズ水道橋ビル３Ｆ,,13,101,1010061,,,,,,,2023-09-21,1,,,,,アップサイト,0
1520,7010003041728,新規,0,2023-09-21,2023-09-21,合同会社Ｍ　ＶＩＬＬＡＧＥ,,合同会社,東京都,中央区,日本橋茅場町１丁目３番７号千代田ビル５階,,13,102,1030025,,,,,,,2023-09-21,1,,,,,エムビレッジ,0
1529,7010401177314,新規,0,2023-09-21,2023-09-21,株式会社Ｂｌｕｅ’Ｋｎｏｃｋｅｒ,,株式会社,東京都,港区,新橋５丁目１２番１１号天翔新橋五丁目ビル４０８,,13,103,1050004,,,,,,,2023-09-21,1,,,,,ブルーノッカー,0
1534,7010501051071,新規,0,2023-09-21,2023-09-21,丹利商事株式会社,,株式会社,東京都,台東区,台東１丁目２４番９号ブライト秋葉原２Ｆ,,13,106,1100016,,,,,,,2023-09-21,1,,,,,タンリショウジ,0
1538,7010601063818,新規,0,2023-09-21,2023-09-21,ＡＳＡＮＯホールディングス株式会社,,株式会社,東京都,江東区,東陽５丁目２８番６号,,13,108,1350016,,,,,,,2023-09-21,1,,,,,アサノホールディングス,0
1539,7010603010363,新規,0,2023-09-21,2023-09-21,合同会社光秀会,,合同会社,東京都,江東区,有明１丁目４番２０－１４０３号,,13,108,1350063,,,,,,,2023-09-21,1,,,,,コウシュウカイ,0
1542,7010903008446,新規,0,2023-09-21,2023-09-21,合同会社ＧＲＥＥＮ　ＵＰ,,合同会社,東京都,世田谷区,経堂４丁目１０番１９号経堂レジデンス１１０,,13,112,1560052,,,,,,,2023-09-21,1,,,,,グリーンアップ,0
1543,7010905004534,新規,0,2023-09-21,2023-09-21,一般社団法人日本ソング＆ダンス連合会,,その他の設立登記法人,東京都,世田谷区,玉川３丁目４－２ベルフラット玉川３０１,,13,112,1580094,,,,,,,2023-09-21,1,,,,,ニホンソングアンドダンスレンゴウカイ,0
1545,7011001156996,新規,0,2023-09-21,2023-09-21,むかしむかし株式会社,,株式会社,東京都,渋谷区,笹塚２丁目１４－２フェニックス笹塚駅前２０４,,13,113,1510073,,,,,,,2023-09-21,1,,,,,ムカシムカシ,0
1546,7011001157037,新規,0,2023-09-21,2023-09-21,株式会社ＰＲＯＢＩＴＹ,,株式会社,東京都,渋谷区,神宮前５丁目２５番４号,,13,113,1500001,,,,,,,2023-09-21,1,,,,,プロビティ,0
1547,7011001157053,新規,0,2023-09-21,2023-09-21,ＭＥ株式会社,,株式会社,東京都,渋谷区,神宮前３丁目２５－６神宮前ウィンテルビル３Ｆ,,13,113,1500001,,,,,,,2023-09-21,1,,,,,エムイー,0
1554,7011101104450,新規,0,2023-09-21,2023-09-21,株式会社Ｎｏｉ,,株式会社,東京都,新宿区,新小川町８番４号,,13,104,1620814,,,,,,,2023-09-21,1,,,,,ノイ,0
1557,7011301029010,新規,0,2023-09-21,2023-09-21,株式会社ビリミリオン,,株式会社,東京都,杉並区,高円寺南４丁目２８－２第２高円寺ビル１Ｆ,,13,115,1660003,,,,,,,2023-09-21,1,,,,,ビリミリオン,0
1558,7011301029019,新規,0,2023-09-21,2023-09-21,ＢＥＸ　Ｃｏｎｓｕｌｔｉｎｇ株式会社,,株式会社,東京都,杉並区,萩窪五丁目３０番１２号グローリア萩窪７１３,,13,115,1660000,,,,,,,2023-09-21,1,,,,,ベックスコンサルティング,0
1573,7020001153301,新規,0,2023-09-21,2023-09-21,Ａｓｉａｎ　Ｓｔａｒ　Ｄｉｇｉｔａｌ　Ａｓｓｅｔ　Ｍａｎａｇｅｍｅｎｔ株式会社,,株式会社,神奈川県,横浜市西区,高島２丁目６番３２号,,14,103,2200011,,,,,,,2023-09-21,1,,,,,アジアンスターデジタルアセットマネジメント,0
1574,7020001153557,新規,0,2023-09-21,2023-09-21,株式会社ＯＫＫ,,株式会社,神奈川県,横浜市都筑区,北山田７丁目４番５号,,14,118,2240021,,,,,,,2023-09-21,1,,,,,オーケーケー,0
1582,7030001155890,新規,0,2023-09-21,2023-09-21,株式会社Ｔ・Ｕタイル,,株式会社,埼玉県,戸田市,新曽南１丁目１０番１８－３０２号,,11,224,3350026,,,,,,,2023-09-21,1,,,,,ティーユータイル,0
1583,7030001155957,新規,0,2023-09-21,2023-09-21,株式会社ＧＲＡＮＴＺ,,株式会社,埼玉県,さいたま市大宮区,桜木町２丁目３番地大宮マルイ７Ｆ,,11,103,3300854,,,,,,,2023-09-21,1,,,,,グランツ,0
1584,7030001156039,新規,0,2023-09-21,2023-09-21,株式会社大翔,,株式会社,埼玉県,草加市,新栄１丁目９番地３,,11,221,3400056,,,,,,,2023-09-21,1,,,,,ダイショウ,0
1585,7030001156063,新規,0,2023-09-21,2023-09-21,株式会社ウチダコンサルタンツ,,株式会社,埼玉県,朝霞市,仲町１丁目２番１７号,,11,227,3510006,,,,,,,2023-09-21,1,,,,,ウチダコンサルタンツ,0
1586,7030001156088,新規,0,2023-09-21,2023-09-21,株式会社ＴＥＲＩＯＳ　ＳＥＩＩＮＧ,,株式会社,埼玉県,北葛飾郡松伏町,大字松伏２５０９番地９,,11,465,3430111,,,,,,,2023-09-21,1,,,,,テリオスセイイング,0
1587,7030001156096,新規,0,2023-09-21,2023-09-21,株式会社サクラテクノ,,株式会社,埼玉県,新座市,畑中２丁目６番２２－２９号,,11,230,3520012,,,,,,,2023-09-21,1,,,,,サクラテクノ,0
1588,7030001156220,新規,0,2023-09-21,2023-09-21,株式会社Ｄａｐｐｓ,,株式会社,埼玉県,川口市,大字新井宿８９７番地２号,,11,203,3330826,,,,,,,2023-09-21,1,,,,,ダップス,0
1595,7030003022544,新規,0,2023-09-21,2023-09-21,合同会社エンリッチワンズライフ,,合同会社,埼玉県,春日部市,南５丁目４番８－２号,,11,214,3440064,,,,,,,2023-09-21,1,,,,,エンリッチワンズライフ,0
1599,7040001130125,新規,0,2023-09-21,2023-09-21,日本連接株式会社,,株式会社,千葉県,市川市,稲荷木３丁目１３番５号,,12,203,2720024,,,,,,,2023-09-21,1,,,,,ニホンレンセツ,0
1600,7040001130133,新規,0,2023-09-21,2023-09-21,株式会社クレドハウジング,,株式会社,千葉県,千葉市緑区,誉田町１丁目２４５番地７,,12,105,2660005,,,,,,,2023-09-21,1,,,,,クレドハウジング,0
1603,7040003023351,新規,0,2023-09-21,2023-09-21,合同会社ＡＬＥＸ’Ｓ,,合同会社,千葉県,千葉市中央区,登戸１丁目１８番２１号アルファグランデ千葉１００３号,,12,101,2600032,,,,,,,2023-09-21,1,,,,,アレックス,0
1604,7040003023368,新規,0,2023-09-21,2023-09-21,稲毛屋合同会社,,合同会社,千葉県,千葉市花見川区,花島町４１３番地２６,,12,102,2620042,,,,,,,2023-09-21,1,,,,,イナゲヤ,0
1608,7060001036361,新規,0,2023-09-21,2023-09-21,株式会社大塚プランニング,,株式会社,栃木県,宇都宮市,茂原町８４４番地,,09,201,3210126,,,,,,,2023-09-21,1,,,,,オオツカプランニング,0
1616,7080401026737,新規,0,2023-09-21,2023-09-21,ＩＦグループ株式会社,,株式会社,静岡県,浜松市浜北区,宮口１８７１番地,,22,136,4340004,,,,,,,2023-09-21,1,,,,,アイエフグループ,0
1618,7080403004872,新規,0,2023-09-21,2023-09-21,合同会社ＭＥＧＵＭＩ内装,,合同会社,静岡県,浜松市北区,引佐町伊平５６８番地の９,,22,135,4312205,,,,,,,2023-09-21,1,,,,,メグミナイソウ,0
1646,7120001258073,新規,0,2023-09-21,2023-09-21,株式会社ココカラ,,株式会社,大阪府,大阪市阿倍野区,昭和町１丁目２－１３コージーフラッツ文の里４Ｃ号室,,27,119,5450011,,,,,,,2023-09-21,1,,,,,ココカラ,0
1647,7120001258107,新規,0,2023-09-21,2023-09-21,英子の株式会社,,株式会社,大阪府,大阪市生野区,巽北１丁目１番１号３Ｆ－Ｈ,00131987,27,116,5440004,,,,,,,2023-09-21,1,,,,,エイコノ,0
1650,7120003024878,新規,0,2023-09-21,2023-09-21,瀚宇合同会社,,合同会社,大阪府,大阪市西区,九条南２丁目１６－１３－２０５,,27,106,5500025,,,,,,,2023-09-21,1,,,,,カンウ,0
1651,7120003024894,新規,0,2023-09-21,2023-09-21,合同会社ＭＩＲＥ,,合同会社,大阪府,大阪市東成区,東小橋３丁目１８番８号,,27,115,5370024,,,,,,,2023-09-21,1,,,,,ミレ,0
1652,7120003024911,新規,0,2023-09-21,2023-09-21,ＨＹＳｈｅｒｐａ　Ｃｏｎｓｕｌｔａｎｔ合同会社,,合同会社,大阪府,門真市,常盤町２２番１２号,,27,223,5710078,,,,,,,2023-09-21,1,,,,,エッチワイシェルパコンサルタント,0
1653,7120005023886,新規,0,2023-09-21,2023-09-21,一般社団法人大樹会,,その他の設立登記法人,大阪府,大阪市中央区,南本町４丁目５番１０号,,27,128,5410054,,,,,,,2023-09-21,1,,,,,タイジュカイ,0
1664,7130001075229,新規,0,2023-09-21,2023-09-21,株式会社橘,,株式会社,京都府,京都市東山区,三町目４１番地プレサンス京都三条大橋雅殿７０２号室,,26,105,6050000,,,,,,,2023-09-21,1,,,,,タチバナ,0
1665,7130005016889,新規,0,2023-09-21,2023-09-21,一般社団法人文化財修理技術保存連盟,,その他の設立登記法人,京都府,京都市東山区,清水２丁目２０５番地の５（文化財建造物保存技術研修センター内）,,26,105,6050862,,,,,,,2023-09-21,1,,,,,ブンカザイシュウリギジュツホゾンレンメイ,0
1668,7140003019579,新規,0,2023-09-21,2023-09-21,合同会社ＭＮＳ,,合同会社,兵庫県,神戸市長田区,大塚町１丁目１１－７０１,,28,106,6530811,,,,,,,2023-09-21,1,,,,,エムエヌエス,0
1670,7150001026717,新規,0,2023-09-21,2023-09-21,株式会社Ｇｒａｎｄｉｒ　Ｅｎｓｅｍｂｌｅ,,株式会社,奈良県,香芝市,瓦口２２５０番地１,,29,210,6390225,,,,,,,2023-09-21,1,,,,,グランディールアンサンブル,0
1682,7180001158103,新規,0,2023-09-21,2023-09-21,レッド・ブルーエンタープライズ株式会社,,株式会社,愛知県,名古屋市中区,栄１丁目３０番１５号荘苑御園１００３号,,23,106,4600008,,,,,,,2023-09-21,1,,,,,レッドブルーエンタープライズ,0
1683,7180001158111,新規,0,2023-09-21,2023-09-21,株式会社福友,,株式会社,愛知県,名古屋市緑区,鳴海町字古鳴海１４番地の１,,23,114,4580801,,,,,,,2023-09-21,1,,,,,フクトモ,0
1685,7180005020358,新規,0,2023-09-21,2023-09-21,一般社団法人ゆいのつばさ,,その他の設立登記法人,愛知県,名古屋市緑区,徳重１丁目１１０８番地,,23,114,4580815,,,,,,,2023-09-21,1,,,,,ユイノツバサ,0
1704,7290001103064,新規,0,2023-09-21,2023-09-21,株式会社飛将,,株式会社,福岡県,福岡市博多区,竹下４丁目１番８号,,40,132,8120895,,,,,,,2023-09-21,1,,,,,ヒショウ,0
1705,7290001103080,新規,0,2023-09-21,2023-09-21,株式会社Ｅｕｎｏｓ,,株式会社,福岡県,福岡市東区,名島５丁目５５番１５号,,40,131,8130043,,,,,,,2023-09-21,1,,,,,ユーノス,0
1706,7290001103097,新規,0,2023-09-21,2023-09-21,株式会社ガイア建設,,株式会社,福岡県,飯塚市,大分２２４４番地１,,40,205,8200712,,,,,,,2023-09-21,1,,,,,ガイアケンセツ,0
1707,7290001103106,新規,0,2023-09-21,2023-09-21,ＮｅｏＬｉｎｋｓ株式会社,,株式会社,福岡県,福岡市東区,下原４丁目１番１４号,,40,131,8130002,,,,,,,2023-09-21,1,,,,,ネオリンクス,0
1709,7290003014326,新規,0,2023-09-21,2023-09-21,合同会社脱炭素マーケティング２号,,合同会社,福岡県,福岡市中央区,舞鶴２丁目２番７号２Ａ,,40,133,8100073,,,,,,,2023-09-21,1,,,,,ダツタンソマーケティングニゴウ,0
1710,7290003014334,新規,0,2023-09-21,2023-09-21,合同会社脱炭素マーケティング６号,,合同会社,福岡県,福岡市中央区,舞鶴２丁目２番７号２Ａ,,40,133,8100073,,,,,,,2023-09-21,1,,,,,ダツタンソマーケティングロクゴウ,0
1711,7290003014383,新規,0,2023-09-21,2023-09-21,ＮＡＳＬ合同会社,,合同会社,福岡県,うきは市,浮羽町三春１８４８番地８,,40,225,8391407,,,,,,,2023-09-21,1,,,,,エヌエーエスエル,0
1713,7310001018615,新規,0,2023-09-21,2023-09-21,株式会社四つ葉商行,,株式会社,長崎県,長崎市,扇町１２番７号,,42,201,8528132,,,,,,,2023-09-21,1,,,,,ヨツバショウコウ,0
1715,7340001025914,新規,0,2023-09-21,2023-09-21,株式会社片平林業,,株式会社,鹿児島県,曽於市,財部町下財部４７２番地,,46,217,8994103,,,,,,,2023-09-21,1,,,,,カタヒラリンギョウ,0
1716,7360001032578,新規,0,2023-09-21,2023-09-21,株式会社新大,,株式会社,沖縄県,糸満市,字真栄里１４０２番地の４,,47,210,9010362,,,,,,,2023-09-21,1,,,,,シンダイ,0
1717,7360003013304,新規,0,2023-09-21,2023-09-21,合同会社ＭＡＸ,,合同会社,沖縄県,浦添市,仲西１丁目１３－３コーポ比嘉２０６号,,47,208,9012125,,,,,,,2023-09-21,1,,,,,マックス,0
1721,7380001033995,新規,0,2023-09-21,2023-09-21,Ｃｒｏｓｓ　ｏｖｅｒ株式会社,,株式会社,福島県,郡山市,富田町字向山１２番地３,,07,203,9638041,,,,,,,2023-09-21,1,,,,,クロスオーバー,0
1733,7430001089999,新規,0,2023-09-21,2023-09-21,株式会社ｐａｒｔｉｔｅ,,株式会社,北海道,札幌市中央区,南三条東３丁目８番地ラフィネタワー札幌南３条２３０２号,,01,101,0600053,,,,,,,2023-09-21,1,,,,,パータイト,0
1734,7430001090016,新規,0,2023-09-21,2023-09-21,株式会社Ｄ＆Ｌｉｎｋ,,株式会社,北海道,札幌市白石区,北郷三条２丁目７－１０,,01,104,0030833,,,,,,,2023-09-21,1,,,,,ディアンドリンク,0
1735,7430001090024,新規,0,2023-09-21,2023-09-21,株式会社ＳＵＭＭＥＲ,,株式会社,北海道,札幌市中央区,南四条西２１丁目１番１２号,,01,101,0640804,,,,,,,2023-09-21,1,,,,,サマー,0
1747,7700150120537,新規,0,2023-09-21,2023-09-21,Ｘｉｎｈｕａ　Ｃｏｕｎｔｙ　Ｊｕｎｐｅｉ　ｅｌｅｃｔｒｏｎｉｃ　ｔｅｃｈｎｏｌｏｇｙ　Ｃｏ．，ＬＴＤ,,外国会社等,,,,,,,,Ｎｏ．０２３，ｔｈｅ　ｔｈｉｒｄ　ｖｉｌｌａｇｅｒ　Ｇｒｏｕｐ，Ｐｉｎｇｓｈｕ　Ｖｉｌｌａｇｅ，Ｗｅｎｔｉａｎ　Ｔｏｗｎ，Ｘｉｎｈｕａ　Ｃｏｕｎｔｙ，Ｌｏｕｄｉ　Ｃｉｔｙ，Ｈｕｎａｎ　Ｐｒｏｖｉｎｃｅ,,,,,,2023-09-21,1,,,,,シンフワーシエンジンペイディエンズーコージーヨウシエンゴンスー,0
1748,7700150120545,新規,0,2023-09-21,2023-09-21,Ｈａｎｇｚｈｏｕ　Ｇａｉｄｏｎｇｌｏｕ　Ｔｅｃｈｎｏｌｏｇｙ　Ｃｏ．，Ｌｔｄ．,,外国会社等,,,,,,,,ｘｉ　ｈｕ　ｑｕ　ｃｕｉ　ｙｕａｎ　ｘｉｎ　ｃｕｎ　ｓａｎ　ｑｕ　１１　ｚｈｕａｎｇ　５　ｄａｎ　ｙｕａｎ　ｐｅｉ　ｔａｏ　ｙｏｎｇ　ｆａｎｇ　１５８１　ｓｈｉ　ｈａｎｇ　ｚｈｏｕ　ｓｈｉ　ｂｉｎ　ｊｉａｎｇ　ｑｕ　ｚｈｅ　ｊｉａｎｇ　ｓｈｅｎｇ　３１００１２　ＣＮ,,,,,,2023-09-21,1,,,,,ハンジョウガイドンロウコージーヨウシエンゴンスー,0
1749,7700150120561,新規,0,2023-09-21,2023-09-21,ｙｉｗｕｓｈｉｙｉｗａｎｄｉａｎｚｉｓｈａｎｇｗｕｙｏｕｘｉａｎｇｏｎｇｓｉ,,外国会社等,,,,,,,,２ｎｄ　Ｆｌｏｏｒ，Ｂｕｉｌｄｉｎｇ　５３，Ｕｎｉｔ　２，Ｊｉａｎｇｎａｎ　Ｆｏｕｒｔｈ　Ｄｉｓｔｒｉｃｔ，Ｊｉａｎｇｄｏｎｇ　Ｓｔｒｅｅｔ，Ｙｉｗｕ　Ｃｉｔｙ，Ｚｈｅｊｉａｎｇ　Ｐｒｏｖｉｎｃｅ，Ｃｈｉｎａ,,,,,,2023-09-21,1,,,,,ギウシイエンデンシショウムユウゲンコウシ,0
1755,8010001238597,新規,0,2023-09-21,2023-09-21,株式会社ＳＮ２,,株式会社,東京都,文京区,小石川１丁目５番１－２８０７号,,13,105,1120002,,,,,,,2023-09-21,1,,,,,エスエヌツー,0
1756,8010001238606,新規,0,2023-09-21,2023-09-21,株式会社ＳＬＣ,,株式会社,東京都,千代田区,外神田４丁目９番８号神田石川ビル５階,,13,101,1010021,,,,,,,2023-09-21,1,,,,,エスエルシー,0
1757,8010001238614,新規,0,2023-09-21,2023-09-21,株式会社デルタスタート,,株式会社,東京都,中央区,銀座１丁目２２番１１号銀座大竹ビジデンス２Ｆ,,13,102,1040061,,,,,,,2023-09-21,1,,,,,デルタスタート,0
1758,8010001238630,新規,0,2023-09-21,2023-09-21,中小企業事業承継センター株式会社,,株式会社,東京都,中央区,佃２丁目１１番６－３００８号,,13,102,1040051,,,,,,,2023-09-21,1,,,,,チュウショウキギョウジギョウショウケイセンター,0
1759,8010001238663,新規,0,2023-09-21,2023-09-21,株式会社ＴＡＫＥＵＣＨＩ,,株式会社,東京都,中央区,銀座７丁目１３番２０号銀座ＴＨビル９階,,13,102,1040061,,,,,,,2023-09-21,1,,,,,タケウチ,0
1776,8010601063809,新規,0,2023-09-21,2023-09-21,タックトーレ株式会社,,株式会社,東京都,墨田区,太平４丁目３番１－２０５号,,13,107,1300012,,,,,,,2023-09-21,1,,,,,タックトーレ,0
1778,8010801034345,新規,0,2023-09-21,2023-09-21,株式会社クラフト,,株式会社,東京都,大田区,池上６丁目１９番４号,,13,111,1460082,,,,,,,2023-09-21,1,,,,,クラフト,0
1779,8010801034353,新規,0,2023-09-21,2023-09-21,ＧＯＮＧ株式会社,,株式会社,東京都,大田区,多摩川１丁目１９番１号安方ビル３０１,,13,111,1460095,,,,,,,2023-09-21,1,,,,,ゴング,0
1784,8010901053864,新規,0,2023-09-21,2023-09-21,株式会社ジュンセン・ジャパン,,株式会社,東京都,世田谷区,代田６丁目２９番１１－２０１号,,13,112,1550033,,,,,,,2023-09-21,1,,,,,ジュンセンジャパン,0
1786,8010903008453,新規,0,2023-09-21,2023-09-21,ヨシヤユニティ合同会社,,合同会社,東京都,世田谷区,駒沢４丁目１８－１７ル・ヴェール１階,,13,112,1540012,,,,,,,2023-09-21,1,,,,,ヨシヤユニティ,0
1787,8010903008461,新規,0,2023-09-21,2023-09-21,フィービーコミュニケーションズ合同会社,,合同会社,東京都,世田谷区,玉川台２丁目７番１７号,,13,112,1580096,,,,,,,2023-09-21,1,,,,,フィービーコミュニケーションズ,0
1792,8011003017551,新規,0,2023-09-21,2023-09-21,ＮＥＸＴＡＮＤ合同会社,,合同会社,東京都,渋谷区,道玄坂１丁目１０番８号渋谷道玄坂東急ビル２Ｆ－Ｃ,,13,113,1500043,,,,,,,2023-09-21,1,,,,,ネクスタンド,0
1805,8011201024928,新規,0,2023-09-21,2023-09-21,株式会社ペイントエリア,,株式会社,東京都,中野区,新井１丁目２番８号アムロゼッタ中野３０２,,13,114,1650026,,,,,,,2023-09-21,1,,,,,ペイントエリア,0
1806,8011301029018,新規,0,2023-09-21,2023-09-21,株式会社芝,,株式会社,東京都,杉並区,和泉１丁目４５番１２号,,13,115,1680063,,,,,,,2023-09-21,1,,,,,シバ,0
1811,8011401025453,新規,0,2023-09-21,2023-09-21,雲之上株式会社,,株式会社,東京都,板橋区,南常盤台１丁目２２－９,,13,119,1740072,,,,,,,2023-09-21,1,,,,,クモノウエノウエ,0
1813,8011801043063,新規,0,2023-09-21,2023-09-21,株式会社ＨＲＦｒｅａｋｓ,,株式会社,東京都,足立区,西新井栄町１丁目１８番１１－１００３号,,13,121,1230843,,,,,,,2023-09-21,1,,,,,エイチアールフリークス,0
1823,8013301051372,新規,0,2023-09-21,2023-09-21,株式会社Ｍｅｔａｒｅａｌｉｔｙ,,株式会社,東京都,豊島区,東池袋１丁目１７番１１号パークハイツ池袋１１０５号,,13,116,1700013,,,,,,,2023-09-21,1,,,,,メタリアリティー,0
1825,8013303006804,新規,0,2023-09-21,2023-09-21,エム・ジャイヴ合同会社,,合同会社,東京都,豊島区,南大塚３丁目３２番７号メッツ大塚４０７号室,,13,116,1700005,,,,,,,2023-09-21,1,,,,,エムジャイヴ,0
1829,8020001153572,新規,0,2023-09-21,2023-09-21,株式会社進和建設,,株式会社,神奈川県,横浜市港南区,芹が谷１丁目１４番１５号,,14,111,2330006,,,,,,,2023-09-21,1,,,,,シンワケンセツ,0
1830,8020001153580,新規,0,2023-09-21,2023-09-21,株式会社アンジュ,,株式会社,神奈川県,横浜市中区,相生町２丁目２９番地第１６須賀ビルＢ１,,14,104,2310012,,,,,,,2023-09-21,1,,,,,アンジュ,0
1831,8020001153597,新規,0,2023-09-21,2023-09-21,ＮＯＡＨ株式会社,,株式会社,神奈川県,横浜市鶴見区,尻手１丁目１番１８－７３２号,,14,101,2300003,,,,,,,2023-09-21,1,,,,,ノア,0
1837,8021001080204,新規,0,2023-09-21,2023-09-21,株式会社ＩＮＧ,,株式会社,神奈川県,横須賀市,船越町６丁目４７プリンスハイツガーデンプラム館１０１,,14,201,2370076,,,,,,,2023-09-21,1,,,,,アイエヌジー,0
1839,8021001080245,新規,0,2023-09-21,2023-09-21,株式会社ＦＩＶＥ,,株式会社,神奈川県,相模原市中央区,氷川町２－３－２０２,,14,152,2520215,,,,,,,2023-09-21,1,,,,,ファイブ,0
1846,8030001155650,新規,0,2023-09-21,2023-09-21,株式会社Ｇ‐ＰＬＹ,,株式会社,埼玉県,所沢市,花園１丁目２３１６番地の１３サンハイツ花園１階,,11,208,3590047,,,,,,,2023-09-21,1,,,,,ジープライ,0
1847,8030001155741,新規,0,2023-09-21,2023-09-21,ＨＡＲＩ　ＫＲＩＳＨＮＡ株式会社,,株式会社,埼玉県,北葛飾郡松伏町,大字松伏２３６２番地９,,11,465,3430111,,,,,,,2023-09-21,1,,,,,ハリクリシュナ,0
1848,8030001155790,新規,0,2023-09-21,2023-09-21,株式会社ＲＩＰＰＬＥ,,株式会社,埼玉県,越谷市,赤山町１丁目１２３番地１赤山ハイツ３１０,,11,222,3430807,,,,,,,2023-09-21,1,,,,,リップル,0
1849,8030001155923,新規,0,2023-09-21,2023-09-21,株式会社Ａｃｔｉｖｅ　Ｌｉｎｋ　Ａｇｅｎｔ,,株式会社,埼玉県,越谷市,赤山本町１７番地１６,,11,222,3430808,,,,,,,2023-09-21,1,,,,,アクティブリンクエージェント,0
1850,8030001155948,新規,0,2023-09-21,2023-09-21,戸部不動産株式会社ｆａｒｍ,,株式会社,埼玉県,三郷市,新和３丁目１３８番地１,,11,237,3410034,,,,,,,2023-09-21,1,,,,,トベフドウサンファーム,0
1851,8030001155956,新規,0,2023-09-21,2023-09-21,株式会社Ｐｏｎｏ,,株式会社,埼玉県,さいたま市浦和区,仲町２丁目５－１Ｂ１Ｆ,,11,107,3300062,,,,,,,2023-09-21,1,,,,,ポノ,0
1852,8030001156062,新規,0,2023-09-21,2023-09-21,株式会社フロンティアバックス,,株式会社,埼玉県,所沢市,日吉町２８番７号,,11,208,3591123,,,,,,,2023-09-21,1,,,,,フロンティアバックス,0
1859,8030003022502,新規,0,2023-09-21,2023-09-21,ペガスルー合同会社,,合同会社,埼玉県,川口市,幸町３丁目６番２７号林ビル４０１号,,11,203,3320016,,,,,,,2023-09-21,1,,,,,ペガスルー,0
1860,8030003022543,新規,0,2023-09-21,2023-09-21,合同会社Ｈ・Ｓ,,合同会社,埼玉県,さいたま市桜区,町谷３丁目２０番８号,,11,106,3380836,,,,,,,2023-09-21,1,,,,,エイチエス,0
1864,8040001130124,新規,0,2023-09-21,2023-09-21,株式会社ジェンティール販売,,株式会社,千葉県,市川市,真間１丁目１３番３号,,12,203,2720826,,,,,,,2023-09-21,1,,,,,ジェンティールハンバイ,0
1865,8040001130149,新規,0,2023-09-21,2023-09-21,株式会社ＧＴＣ,,株式会社,千葉県,市川市,新浜１丁目１番１１－６０５号,,12,203,2720136,,,,,,,2023-09-21,1,,,,,ジーティーシー,0
1871,8040003023350,新規,0,2023-09-21,2023-09-21,合同会社高梨工業,00131981,合同会社,千葉県,長生郡一宮町,一宮９０００番地,,12,421,2994301,,,,,,,2023-09-21,1,,,,,タカナシコウギョウ,0
1873,8060001036369,新規,0,2023-09-21,2023-09-21,株式会社キノコ,,株式会社,栃木県,宇都宮市,陽東１丁目４番７号,,09,201,3210904,,,,,,,2023-09-21,1,,,,,キノコ,0
1879,8080001025865,新規,0,2023-09-21,2023-09-21,株式会社Ｈａｐｐｉｎｅｓｓ,,株式会社,静岡県,静岡市清水区,宮加三７４０番地の４セジュールオリエ３１１,,22,103,4240911,,,,,,,2023-09-21,1,,,,,ハピネス,0
1881,8080101024230,新規,0,2023-09-21,2023-09-21,株式会社ＲＯＯＭ,,株式会社,静岡県,沼津市,小諏訪３５３番地の２Ｗｉｓｔｅｒｉａ,,22,203,4100872,,,,,,,2023-09-21,1,,,,,ルーム,0
1889,8120001258106,新規,0,2023-09-21,2023-09-21,中銀商事株式会社,,株式会社,大阪府,大阪市浪速区,下寺２丁目４－１２－１０１,,27,111,5560001,,,,,,,2023-09-21,1,,,,,チュウギンショウジ,0
1890,8120001258122,新規,0,2023-09-21,2023-09-21,ＵＴＳＵＨＡ株式会社,,株式会社,大阪府,大阪市中央区,南本町２丁目３番１２号ＥＤＧＥ本町３Ｆ,,27,128,5410054,,,,,,,2023-09-21,1,,,,,ウツハ,0
1891,8120003024910,新規,0,2023-09-21,2023-09-21,合同会社クリエイトアルファ,,合同会社,大阪府,大阪市浪速区,難波中２丁目１０番７０号パークスタワー１９階,,27,111,5560011,,,,,,,2023-09-21,1,,,,,クリエイトアルファ,0
1892,8120005023877,新規,0,2023-09-21,2023-09-21,特定非営利活動法人Ｍｅｍｏｒｉａ,,その他の設立登記法人,大阪府,大阪市住之江区,南港北１丁目２５－１０シーサイドレジデンス６２７,,27,125,5590034,,,,,,,2023-09-21,1,,,,,メモリア,0
1893,8120005023885,新規,0,2023-09-21,2023-09-21,一般社団法人のぼラボ,,その他の設立登記法人,大阪府,寝屋川市,清水町２９番１４号,,27,215,5720044,,,,,,,2023-09-21,1,,,,,ノボラボ,0
1897,8120101068231,新規,0,2023-09-21,2023-09-21,株式会社ＳＫ　ｃｏｍｐａｎｙ,,株式会社,大阪府,堺市北区,中村町３３２番地５,,27,146,5918012,,,,,,,2023-09-21,1,,,,,エスケーカンパニー,0
1902,8130001075236,新規,0,2023-09-21,2023-09-21,株式会社ヤマザキ重量,,株式会社,京都府,京都市山科区,小山鎮守町２０番地３１,,26,110,6078116,,,,,,,2023-09-21,1,,,,,ヤマザキジュウリョウ,0
1904,8140001131649,新規,0,2023-09-21,2023-09-21,株式会社ＵＧＦ,,株式会社,兵庫県,神戸市中央区,御幸通８丁目１番６号２２階１３３号室,,28,110,6510087,,,,,,,2023-09-21,1,,,,,ユージーエフ,0
1905,8140001131681,新規,0,2023-09-21,2023-09-21,Ｓ‐ＨＯＭＥ株式会社,,株式会社,兵庫県,神戸市中央区,古湊通２丁目３番３号,,28,110,6500026,,,,,,,2023-09-21,1,,,,,エスホーム,0
1906,8140003019586,新規,0,2023-09-21,2023-09-21,ＨＯＡＮＧ　ＴＵＮＧ合同会社,,合同会社,兵庫県,神崎郡福崎町,山崎７１４番地１,,28,443,6792211,,,,,,,2023-09-21,1,,,,,ホアントゥン,0
1910,8170005007041,新規,0,2023-09-21,2023-09-21,一般社団法人マンダラプロジェクト,,その他の設立登記法人,和歌山県,伊都郡高野町,大字高野山３１番地の３,,30,344,6480211,,,,,,,2023-09-21,1,,,,,マンダラプロジェクト,0
1918,8180001158127,新規,0,2023-09-21,2023-09-21,Ａｎｄ　ＦＬＡＴ株式会社,,株式会社,愛知県,名古屋市中村区,名駅４丁目２４番５号第二森ビル４０１,,23,105,4500002,,,,,,,2023-09-21,1,,,,,アンドフラット,0
1931,8190001030747,新規,0,2023-09-21,2023-09-21,株式会社フォスター,,株式会社,三重県,四日市市,万古町１２番９号,,24,202,5100804,,,,,,,2023-09-21,1,,,,,フォスタ,0
1935,8200003006090,新規,0,2023-09-21,2023-09-21,合同会社ＭＪ,,合同会社,岐阜県,羽島郡岐南町,平島４丁目１３５番地６,,21,302,5016003,,,,,,,2023-09-21,1,,,,,エムジェイ,0
1944,8240003006319,新規,0,2023-09-21,2023-09-21,合同会社ＧＭ２Ｙ,,合同会社,広島県,広島市佐伯区,海老園２丁目２１番３８号,,34,108,7315135,,,,,,,2023-09-21,1,,,,,,0
1947,8260001038329,新規,0,2023-09-21,2023-09-21,株式会社生産設計事務所,,株式会社,岡山県,瀬戸内市,邑久町北島１４０１番地４,,33,212,7014232,,,,,,,2023-09-21,1,,,,,セイサンセッケイジムショ,0
1951,8260003004444,新規,0,2023-09-21,2023-09-21,合同会社ＫＡＴＡＤＡ,,合同会社,岡山県,倉敷市,玉島１丁目１１番３３号,,33,202,7138102,,,,,,,2023-09-21,1,,,,,カタダ,0
1952,8260005011281,新規,0,2023-09-21,2023-09-21,一般社団法人港屋,,その他の設立登記法人,岡山県,赤磐市,山陽１丁目２番４号,,33,213,7090827,,,,,,,2023-09-21,1,,,,,ミナトヤ,0
1953,8270001008842,新規,0,2023-09-21,2023-09-21,株式会社ポケット,,株式会社,鳥取県,倉吉市,見日町３６４番地１,,31,203,6820803,,,,,,,2023-09-21,1,,,,,ポケット,0
1956,8290001103055,新規,0,2023-09-21,2023-09-21,株式会社ｋｉｉｔｏ,,株式会社,福岡県,福岡市西区,横浜２丁目３２－１９,,40,135,8190166,,,,,,,2023-09-21,1,,,,,キイト,0
1957,8290001103096,新規,0,2023-09-21,2023-09-21,株式会社直建築工房,,株式会社,福岡県,福岡市早良区,南庄３丁目２９番９号,,40,137,8140031,,,,,,,2023-09-21,1,,,,,ナオケンチクコウボウ,0
1958,8290001103113,新規,0,2023-09-21,2023-09-21,株式会社ｄａｄｄｙ,,株式会社,福岡県,福岡市中央区,天神３丁目４番１９号ウィズ天神４階,,40,133,8100001,,,,,,,2023-09-21,1,,,,,ダディ,0
1959,8290003014374,新規,0,2023-09-21,2023-09-21,合同会社ＧＲＯＯＶＥＲＳ,,合同会社,福岡県,福岡市東区,雁の巣２丁目９番５５－５号,,40,131,8110206,,,,,,,2023-09-21,1,,,,,グローバーズ,0
1962,8330001031276,新規,0,2023-09-21,2023-09-21,株式会社やなぽん,,株式会社,熊本県,熊本市中央区,新大江３丁目２０番２０号キャッスル新大江２０３号室,,43,101,8620972,,,,,,,2023-09-21,1,,,,,ヤナポン,0
1968,8360005006908,新規,0,2023-09-21,2023-09-21,社会福祉法人かがり福祉会,,その他の設立登記法人,沖縄県,沖縄市,字登川７１２番地１,,47,211,9042142,,,,,,,2023-09-21,1,,,,,カガリフクシカイ,0
1975,8400001016385,新規,0,2023-09-21,2023-09-21,株式会社ユー・スリー,,株式会社,岩手県,宮古市,太田２丁目３番２４－１号,,03,202,0270054,,,,,,,2023-09-21,1,,,,,ユースリー,0
1992,8700150120536,新規,0,2023-09-21,2023-09-21,Ｄａｙｅ　Ｃｉｔｙ　Ｒｏｃｋｅｎ　ｔｒａｄｉｎｇ　Ｃｏ．，ＬＴＤ,,外国会社等,,,,,,,,Ｒｏｏｍ　５０２，Ｂｕｉｌｄｉｎｇ　２，Ｂｕｉｌｄｉｎｇ　１，Ｆｕｑｉａｏ　Ｃｏｍｍｕｎｉｔｙ，Ｎｏ．１９　Ｈｕａｎｑｉａｏ　Ａｖｅｎｕｅ，Ｌｕｏｊｉａｑｉａｏ　Ｓｔｒｅｅｔ，Ｄａｙｅ　Ｃｉｔｙ,,,,,,2023-09-21,1,,,,,ダーイエシールオケンシャンマオヨウシエンゴンスー,0
1993,8700150120544,新規,0,2023-09-21,2023-09-21,ｘｉａｎｄａｎｂｏｍｉｎｇｚｈｉｋｅｊｉｙｏｕｘｉａｎｇｏｎｇｓｉ,,外国会社等,,,,,,,,Ｓｈａｎｘｉｓｈｅｎｇ　ｘｉａｎｓｈｉ　ｌｉａｎｈｕｑｕ　ｌｉｙｕａｎｌｕ　ｑｉｎｙｕａｎｃｈｕｎｘｉａｏｑｕ　１ｈａｏｌｏｕ　１ｄａｎｙｕａｎ　２０２,,,,,,2023-09-21,1,,,,,シーアンダンボーミンジーコージーヨウシエンゴンスー,0
1994,8700150120552,新規,0,2023-09-21,2023-09-21,株式会社　ＭＹＴＨＥＬ　ＩＮＴＥＲＮＡＴＩＯＮＡＬ,,外国会社等,大阪府,豊中市,東寺内町１３－２３,,27,203,5610871,アメリカ合衆国ハワイ州ホノルル市マカロア通り１６７０番２０４－３２５号,,,,,,2023-09-21,1,,,,,カブシキカイシヤミセルインターナシヨナル,0
1995,8700150120560,新規,0,2023-09-21,2023-09-21,Ｓｈｅｎｚｈｅｎ　Ｈａｉｚｈｉｘｕｎ　Ｔｅｃｈｎｏｌｏｇｙ　Ｃｏ．,,外国会社等,,,,,,,,７１２，Ｎｏ．２３，Ｆｕｑｕａｎ　Ｘｉｎｃｕｎ　Ｎｏｒｔｈ　Ｄｉｓｔｒｉｃｔ，Ｈｅｌｉａｎ　Ｃｏｍｍｕｎｉｔｙ，Ｌｏｎｇｈｕａ　Ｓｔｒｅｅｔ，Ｌｏｎｇｈｕａ　Ｄｉｓｔｒｉｃｔ，Ｓｈｅｎｚｈｅｎ,,,,,,2023-09-21,1,,,,,シンセンシカイチシンカギユウゲンコウシ,0
2001,9010001238571,新規,0,2023-09-21,2023-09-21,株式会社ＭＫ　ＰＬＵＳ　ＪＡＰＡＮ,,株式会社,東京都,千代田区,神田須田町１丁目２番７号淡路町駅前ビル３階３２２号東名つばさ司法書士事務所内,,13,101,1010041,,,,,,,2023-09-21,1,,,,,エムケープラスジャパン,0
2002,9010001238613,新規,0,2023-09-21,2023-09-21,ルーマヴァース株式会社,,株式会社,東京都,千代田区,岩本町１丁目４番５号,,13,101,1010032,,,,,,,2023-09-21,1,,,,,ルーマヴァース,0
2004,9010003041577,新規,0,2023-09-21,2023-09-21,祥＿合同会社,00131988,合同会社,東京都,中央区,銀座７丁目１３－６サガミビル２階,,13,102,1040061,,,,,,,2023-09-21,1,,,,,ショウユウ,0
2005,9010003041718,新規,0,2023-09-21,2023-09-21,潮来管理合同会社,,合同会社,東京都,中央区,日本橋兜町９‐５兜町平和ダイヤビル４１４,,13,102,1030026,,,,,,,2023-09-21,1,,,,,イタコカンリ,0
2013,9010403030989,新規,0,2023-09-21,2023-09-21,Ｌｉｆｅｓｔｙｌｅ１０合同会社,,合同会社,東京都,港区,六本木１丁目６番１号泉ガーデンタワー,,13,103,1060032,,,,,,,2023-09-21,1,,,,,ライフスタイルテン,0
2015,9010601063816,新規,0,2023-09-21,2023-09-21,株式会社ＣＬＥＡＲ,,株式会社,東京都,墨田区,立花５丁目１８番１号,,13,107,1310043,,,,,,,2023-09-21,1,,,,,クリア,0
2019,9010801034352,新規,0,2023-09-21,2023-09-21,棚卸革命ソリューションズ株式会社,,株式会社,東京都,大田区,蒲田２丁目１７番７－９０１号,,13,111,1440052,,,,,,,2023-09-21,1,,,,,タナオロシカクメイソリューションズ,0
2021,9010901053839,新規,0,2023-09-21,2023-09-21,株式会社ロウェナ商会,,株式会社,東京都,世田谷区,経堂１丁目３８番１６号,,13,112,1560052,,,,,,,2023-09-21,1,,,,,ロウェナショウカイ,0
2022,9010901053847,新規,0,2023-09-21,2023-09-21,株式会社ｕｎｂｌｕｒ,,株式会社,東京都,世田谷区,上北沢１丁目３９－１０アゼリアコートＡ１,,13,112,1560057,,,,,,,2023-09-21,1,,,,,アンブラー,0
2029,9011001157043,新規,0,2023-09-21,2023-09-21,株式会社エーフォーティ,,株式会社,東京都,目黒区,五本木２丁目３９番４号,,13,110,1530053,,,,,,,2023-09-21,1,,,,,エーフォーティ,0
2030,9011003017550,新規,0,2023-09-21,2023-09-21,合同会社ＣＩＴＲＯＮ　ＭＵＳＩＣ,,合同会社,東京都,渋谷区,代官山町１０－１オープンレジデンシア代官山ザハウス２０１号室,,13,113,1500034,,,,,,,2023-09-21,1,,,,,シトロンミュージック,0
2032,9011101104440,新規,0,2023-09-21,2023-09-21,株式会社エスケイファイブ,,株式会社,東京都,新宿区,北新宿２丁目６番２９－２１５号,,13,104,1690074,,,,,,,2023-09-21,1,,,,,エスケイファイブ,0
2033,9011101104449,新規,0,2023-09-21,2023-09-21,株式会社ＳＳＶＰ,,株式会社,東京都,新宿区,新宿２丁目１２番１３号新宿アントレサロンビル２階,,13,104,1600022,,,,,,,2023-09-21,1,,,,,エスエスブイピー,0
2035,9011301029017,新規,0,2023-09-21,2023-09-21,株式会社いきや,,株式会社,東京都,杉並区,上井草２丁目４５番６号,,13,115,1670023,,,,,,,2023-09-21,1,,,,,イキヤ,0
2038,9011801043062,新規,0,2023-09-21,2023-09-21,恒信財富株式会社,,株式会社,東京都,葛飾区,東金町３丁目１７番１０号ＫＢＳＢ－８号,,13,122,1250041,,,,,,,2023-09-21,1,,,,,コウシンザイフ,0
2040,9012803003186,新規,0,2023-09-21,2023-09-21,１０００ｐｌａｃｅ合同会社,,合同会社,東京都,東大和市,立野２丁目４番１号プレステージ上北台３０４,,13,220,2070021,,,,,,,2023-09-21,1,,,,,センプレイス,0
2042,9013301051371,新規,0,2023-09-21,2023-09-21,株式会社ゼロックス,,株式会社,東京都,豊島区,東池袋１丁目３１番１５－７０２号,,13,116,1700013,,,,,,,2023-09-21,1,,,,,ゼロックス,0
2043,9013303006803,新規,0,2023-09-21,2023-09-21,合同会社グランツアシスト,,合同会社,東京都,豊島区,東池袋１丁目３４番５号いちご東池袋ビル６階,,13,116,1700013,,,,,,,2023-09-21,1,,,,,グランツアシスト,0
2047,9020001153522,新規,0,2023-09-21,2023-09-21,株式会社ＵＰ３Ｄ,,株式会社,神奈川県,横浜市中区,尾上町５丁目８０神奈川中小企業センタービル７階,,14,104,2310015,,,,,,,2023-09-21,1,,,,,アップスリーディー,0
2048,9020001153596,新規,0,2023-09-21,2023-09-21,ＩＫＥ株式会社,,株式会社,神奈川県,横浜市都筑区,荏田南３丁目１４番１２号,,14,118,2240007,,,,,,,2023-09-21,1,,,,,アイク,0
2052,9020003024622,新規,0,2023-09-21,2023-09-21,合同会社ＲｅＢｏｎ　Ｅａｒｔｈ,,合同会社,神奈川県,横浜市磯子区,磯子５丁目１番７－３０２号,,14,107,2350016,,,,,,,2023-09-21,1,,,,,リボンアース,0
2053,9020003024630,新規,0,2023-09-21,2023-09-21,合同会社篤未,,合同会社,神奈川県,横浜市都筑区,北山田２丁目３番３号,,14,118,2240021,,,,,,,2023-09-21,1,,,,,アツミ,0
2057,9021001080236,新規,0,2023-09-21,2023-09-21,株式会社資産総研,,株式会社,神奈川県,平塚市,夕陽ケ丘３４番７号,,14,203,2540806,,,,,,,2023-09-21,1,,,,,シサンソウケン,0
2060,9021003013598,新規,0,2023-09-21,2023-09-21,アルトコ合同会社,,合同会社,神奈川県,茅ヶ崎市,東海岸南６丁目５―１１,,14,207,2530054,,,,,,,2023-09-21,1,,,,,アルトコ,0
2064,9030001155798,新規,0,2023-09-21,2023-09-21,ＯＵＥＮ株式会社,,株式会社,埼玉県,さいたま市西区,大字内野本郷９９３番地３４,,11,101,3310045,,,,,,,2023-09-21,1,,,,,オーエン,0
2065,9030001155947,新規,0,2023-09-21,2023-09-21,株式会社ＣＡＰＩＴＡＬ　ＯＮＥ,,株式会社,埼玉県,川口市,大字西新井宿８２６番地の３,,11,203,3330833,,,,,,,2023-09-21,1,,,,,キャピタルワン,0
2066,9030001155955,新規,0,2023-09-21,2023-09-21,株式会社関口空調,,株式会社,埼玉県,富士見市,大字上南畑１４１番地１,,11,235,3540002,,,,,,,2023-09-21,1,,,,,セキグチクウチョウ,0
2067,9030001156061,新規,0,2023-09-21,2023-09-21,株式会社ＦＡＲＭ７９５,,株式会社,埼玉県,羽生市,大字下新郷１６９３番地い号,,11,216,3480047,,,,,,,2023-09-21,1,,,,,ファームナナキュウゴ,0
2068,9030001156094,新規,0,2023-09-21,2023-09-21,株式会社ワールドチョイス,,株式会社,埼玉県,蕨市,南町１丁目２３番１０号,,11,223,3350003,,,,,,,2023-09-21,1,,,,,ワールドチョイス,0
2069,9030001156169,新規,0,2023-09-21,2023-09-21,ＴＷＩＣＥ　ＵＰ株式会社,,株式会社,埼玉県,加須市,多門寺１０３番地６,,11,210,3470012,,,,,,,2023-09-21,1,,,,,トゥワイスアップ,0
2070,9030001156177,新規,0,2023-09-21,2023-09-21,株式会社ティーガレージ,,株式会社,埼玉県,入間市,宮寺２３１０番地９,,11,225,3580014,,,,,,,2023-09-21,1,,,,,ティーガレージ,0
2076,9030005021385,新規,0,2023-09-21,2023-09-21,特定非営利活動法人埼玉国際音楽交流協会,,その他の設立登記法人,埼玉県,さいたま市北区,宮原町３丁目５１番地１,,11,102,3310812,,,,,,,2023-09-21,1,,,,,サイタマコクサイオンガクコウリュウキョウカイ,0
2080,9040001129751,新規,0,2023-09-21,2023-09-21,株式会社ｎｏｗｍｉｅｕｘ,,株式会社,千葉県,柏市,篠籠田５５９番地９,,12,217,2770862,,,,,,,2023-09-21,1,,,,,ナウミュー,0
2081,9040001130123,新規,0,2023-09-21,2023-09-21,株式会社庭屋ささき,,株式会社,千葉県,市原市,姉崎１５８９番地９,,12,219,2990111,,,,,,,2023-09-21,1,,,,,ニワヤササキ,0
2082,9040001130156,新規,0,2023-09-21,2023-09-21,株式会社ＺＥＲＯ,,株式会社,千葉県,船橋市,丸山３丁目４４番１号フェリーチェ船橋Ｉ－１０１号,00131982,12,204,2730048,,,,,,,2023-09-21,1,,,,,ゼロ,0
2097,9080001025864,新規,0,2023-09-21,2023-09-21,株式会社向日葵,,株式会社,静岡県,藤枝市,下藪田６９番地の１,,22,214,4260201,,,,,,,2023-09-21,1,,,,,ヒマワリ,0
2115,9120005023884,新規,0,2023-09-21,2023-09-21,一般社団法人日本子宮頸がんウィルス予防学会,,その他の設立登記法人,大阪府,大阪市中央区,北浜東２番１６号千歳第２ビル２階,,27,128,5400031,,,,,,,2023-09-21,1,,,,,ニホンシキュウケイガンウィルスヨボウガッカイ,0
2130,9140001131648,新規,0,2023-09-21,2023-09-21,株式会社セイリュウ,,株式会社,兵庫県,明石市,西新町３丁目７番２２号,,28,203,6730023,,,,,,,2023-09-21,1,,,,,セイリュウ,0
2134,9140003019577,新規,0,2023-09-21,2023-09-21,アンボス合同会社,,合同会社,兵庫県,伊丹市,寺本６丁目２１４番地,,28,207,6640026,,,,,,,2023-09-21,1,,,,,アンボス,0
2136,9160003002993,新規,0,2023-09-21,2023-09-21,合同会社皐屋,,合同会社,滋賀県,守山市,水保町１３９０番地４０,,25,207,5240102,,,,,,,2023-09-21,1,,,,,サワヤ,0
2137,9170001017786,新規,0,2023-09-21,2023-09-21,株式会社清井建設,,株式会社,和歌山県,有田郡有田川町,大字水尻６６７番地,,30,366,6430024,,,,,,,2023-09-21,1,,,,,キヨイケンセツ,0
2143,9180001158076,新規,0,2023-09-21,2023-09-21,春援株式会社,,株式会社,愛知県,東海市,加木屋町１丁目３９３番地９Ｌ加木屋ランドマークヒルズ（２１３号）,,23,222,4770032,,,,,,,2023-09-21,1,,,,,シュンエン,0
2144,9180001158126,新規,0,2023-09-21,2023-09-21,株式会社Ｈｉｍａｒｉ,,株式会社,愛知県,日進市,岩崎台３丁目１３２３番地１,,23,230,4700135,,,,,,,2023-09-21,1,,,,,ヒマリ,0
2150,9180301037830,新規,0,2023-09-21,2023-09-21,ＫＡＲＩＴＯＲＯ株式会社,,株式会社,愛知県,岡崎市,明大寺町字川端３４番地１,,23,202,4440864,,,,,,,2023-09-21,1,,,,,カリトロ,0
2151,9180301037839,新規,0,2023-09-21,2023-09-21,株式会社ｇａｃ,,株式会社,愛知県,岡崎市,島坂町字川田６４番地１,,23,202,4440937,,,,,,,2023-09-21,1,,,,,ジーエーシー,0
2158,9200005013522,新規,0,2023-09-21,2023-09-21,特定非営利活動法人ＪＡＰＡＮ　ＣＯＮＮＥＣＴ,,その他の設立登記法人,岐阜県,岐阜市,島栄町２丁目５１番地甚八ビル２Ｆ,,21,201,5020904,,,,,,,2023-09-21,1,,,,,ジャパンコネクト,0
2168,9240001062156,新規,0,2023-09-21,2023-09-21,株式会社イズ,,株式会社,広島県,広島市東区,牛田早稲田１丁目２４番１２号,,34,102,7320062,,,,,,,2023-09-21,1,,,,,イズ,0
2172,9240005015655,新規,0,2023-09-21,2023-09-21,医療法人安,,その他の設立登記法人,広島県,広島市安佐南区,相田２丁目５番１８号３Ｆ,,34,105,7310141,,,,,,,2023-09-21,1,,,,,アン,0
2175,9250005008864,新規,0,2023-09-21,2023-09-21,特定非営利活動法人ＧｒｅｅｎＰｒｏｊｅｃｔ,,その他の設立登記法人,山口県,宇部市,床波５丁目３番３０－９,,35,202,7550153,,,,,,,2023-09-21,1,,,,,グリーンプロジェクト,0
2180,9260005011280,新規,0,2023-09-21,2023-09-21,一般財団法人大久保会館,,その他の設立登記法人,岡山県,岡山市中区,平井６丁目１５番３４号,,33,102,7038282,,,,,,,2023-09-21,1,,,,,オオクボカイカン,0
2187,9290001103079,新規,0,2023-09-21,2023-09-21,株式会社スマイルナビゲート,,株式会社,福岡県,福岡市博多区,博多駅前１丁目２３番２号ＰａｒｋＦｒｏｎｔ博多駅前１丁目５Ｆ－Ｂ,,40,132,8120011,,,,,,,2023-09-21,1,,,,,スマイルナビゲート,0
2188,9290001103087,新規,0,2023-09-21,2023-09-21,株式会社フォルテ,,株式会社,福岡県,春日市,大谷３丁目９８番地２,,40,218,8160831,,,,,,,2023-09-21,1,,,,,フォルテ,0
2189,9290003014340,新規,0,2023-09-21,2023-09-21,合同会社ＧＡ,,合同会社,福岡県,大牟田市,小浜町５１－４,,40,202,8360034,,,,,,,2023-09-21,1,,,,,ジーエー,0
2193,9310001018613,新規,0,2023-09-21,2023-09-21,株式会社信龍努デザイン事務所,,株式会社,長崎県,長崎市,豊洋台１丁目９番１０号,,42,201,8512216,,,,,,,2023-09-21,1,,,,,ノブリュウツトムデザインジムショ,0
2196,9330003009971,新規,0,2023-09-21,2023-09-21,合同会社西郷農苑,,合同会社,熊本県,菊池市,七城町砂田２１６７番地,,43,210,8611351,,,,,,,2023-09-21,1,,,,,サイゴウノウエン,0
2198,9360003013310,新規,0,2023-09-21,2023-09-21,合同会社ＤＯＮＵＭ,,合同会社,沖縄県,浦添市,屋富祖３丁目１５番１９号,,47,208,9012127,,,,,,,2023-09-21,1,,,,,ドヌム,0
2200,9370003006296,新規,0,2023-09-21,2023-09-21,Ｓ．Ｈａｎｄｓ合同会社,,合同会社,宮城県,仙台市泉区,根白石字荒屋敷１番地の４,,04,105,9813221,,,,,,,2023-09-21,1,,,,,エスハンズ,0
2201,9380001034001,新規,0,2023-09-21,2023-09-21,株式会社ＲＥＶＯＬＶＥＲ,,株式会社,福島県,相馬市,赤木字鬼越５２,,07,209,9792521,,,,,,,2023-09-21,1,,,,,リボルバー,0
2203,9390005009031,新規,0,2023-09-21,2023-09-21,特定非営利活動法人アヴニール,,その他の設立登記法人,山形県,山形市,飯田３丁目７番５２号,,06,201,9902332,,,,,,,2023-09-21,1,,,,,アヴニール,0
2208,9430003015448,新規,0,2023-09-21,2023-09-21,合同会社平和堂,,合同会社,北海道,札幌市西区,琴似四条４丁目１番６号,,01,107,0630814,,,,,,,2023-09-21,1,,,,,ヘイワドウ,0
2209,9450005004380,新規,0,2023-09-21,2023-09-21,医療法人社団光翔会,,その他の設立登記法人,北海道,士別市,東四条３丁目１番地４,,01,220,0950014,,,,,,,2023-09-21,1,,,,,コウショウカイ,0
2214,9460305002001,新規,0,2023-09-21,2023-09-21,一般社団法人クックハウス,,その他の設立登記法人,北海道,北見市,高栄西町３丁目５番１１号,,01,208,0900058,,,,,,,2023-09-21,1,,,,,クックハウス,0
2220,9700150119346,新規,0,2023-09-21,2023-09-21,ｃｈｏｎｇｑｉｎｇ　ｓｈｉｓｈｅｎ　ｄｉａｎｚｉｓｈａｎｇｗｕ　ｙｏｕｘｉａｎｇｏｎｇｓｉ,,外国会社等,,,,,,,,３８－８，Ｎｏ．１８２　Ｈｏｎｇｙｕａｎ　Ｒｏａｄ，Ｊｉａｎｇｂｅｉ　Ｄｉｓｔｒｉｃｔ，Ｃｈｏｎｇｑｉｎｇ　Ｃｈｏｎｇｑｉｎｇ　Ｃｉｔｙ　Ｃｈｏｎｇｑｉｎｇ　Ｃｉｔｙ　Ｃｈｉｎａ,,,,,,2023-09-21,1,,,,,チョンチンシシェンデンシショウムユウゲンコウシ,0
2221,9700150120535,新規,0,2023-09-21,2023-09-21,Ｌｅｎｇｓｈｕｉｊｉａｎｇ　Ｌｅｉ　Ｓｔａｒ　ｎｅｔｗｏｒｋ　ｔｅｃｈｎｏｌｏｇｙ　Ｃｏ．，ＬＴＤ,,外国会社等,,,,,,,,Ｒｏｏｍ　１３２４－９，１３ｔｈ　Ｆｌｏｏｒ，Ｆｉｌｍ　ａｎｄ　Ｔｅｌｅｖｉｓｉｏｎ　Ｉｎｔｅｒｎａｔｉｏｎａｌ　Ｂｕｓｉｎｅｓｓ　Ｃｅｎｔｅｒ　Ｂｕｉｌｄｉｎｇ，Ｄｉｄｕｚｈｏｎｇ　Ｒｏａｄ，Ｌｅｎｇｓｈｕｉｊｉａｎｇ　Ｓｔｒｅｅｔ，Ｌｅｎｇｓｈｕｉｊｉａｎｇ　Ｃｉｔｙ,,,,,,2023-09-21,1,,,,,ロンシュイジャンシーレイシンワンルオコージーヨウシエンゴンスー,0
2222,9700150120543,新規,0,2023-09-21,2023-09-21,ｓｈｅｎｚｈｅｎｓｈｉｃｈｕａｎｓｈｉｇｕｏｋｅｊｉｙｏｕｘｉａｎｇｏｎｇｓｉ,,外国会社等,,,,,,,,Ｓｈｅｎｚｈｅｎｓｈｉｆｕｔｉａｎｑｕｙｕａｎｌｉｎｇｊｉｅｄａｏｐｅｎｇｓｈｅｎｇｓｈｅｑｕｂａｇｕａｙｉｌｕ３９ｈａｏｐｅｎｇｓｈｅｎｇｃｕｎ３ｄｏｎｇ，４ｄｏｎｇ３ｄｏｎｇ１２０３,,,,,,2023-09-21,1,,,,,シェンジェンシーチュワンシーグオコージーヨウシエンゴンスー,0
