sequenceNumber,corporateNumber,process,correct,updateDate,changeDate,name,nameImageId,kind,prefectureName,cityName,streetNumber,addressImageId,prefectureCode,cityCode,postCode,addressOutside,addressOutsideImageId,closeDate,closeCause,successorCorporateNumber,changeCause,assignmentDate,latest,enName,enPrefectureName,enCityName,enAddressOutside,furigana,hihyoji
3,1010001241657,新規,0,2024-01-24,2024-01-24,株式会社１８,,株式会社,東京都,中央区,月島１丁目２２番１－２１１７号,,13,102,1040052,,,,,,,2024-01-24,1,,,,,ジュウハチ,0
4,1010001241681,新規,0,2024-01-24,2024-01-24,株式会社ザッソウ,,株式会社,東京都,中央区,銀座１丁目１２－４Ｎ＆ＥＢＬＤ．７階,,13,102,1040061,,,,,,,2024-01-24,1,,,,,ザッソウ,0
5,1010001241698,新規,0,2024-01-24,2024-01-24,株式会社ＳＴＯＣＫ１４５,,株式会社,東京都,千代田区,永田町２丁目１２番４号,,13,101,1000014,,,,,,,2024-01-24,1,,,,,ストックヒャクヨンジュウゴ,0
6,1010001241715,新規,0,2024-01-24,2024-01-24,Ｗｈｅａｔ　ｆｉｅｌｄ株式会社,,株式会社,東京都,中央区,銀座１丁目１２番４号Ｎ＆ＥＢＬＤ．６Ｆ,,13,102,1040061,,,,,,,2024-01-24,1,,,,,ウィートフィールド,0
7,1010001241723,新規,0,2024-01-24,2024-01-24,株式会社ＩＬＧ,,株式会社,東京都,中央区,京橋２丁目１１番３号,,13,102,1040031,,,,,,,2024-01-24,1,,,,,アイエルジー,0
8,1010001241756,新規,0,2024-01-24,2024-01-24,ＳＵＮホールディングス株式会社,,株式会社,東京都,千代田区,平河町２丁目１６番９号永田町グラスゲート６階ＡＣＡ株式会社内,,13,101,1020093,,,,,,,2024-01-24,1,,,,,サンホールディングス,0
11,1010003042756,新規,0,2024-01-24,2024-01-24,ＮＯＡＨ合同会社,,合同会社,東京都,中央区,日本橋小網町１１－５ＡＣＮ日本橋小網町ビル７Ｆ－０８,,13,102,1030016,,,,,,,2024-01-24,1,,,,,ノア,0
14,1010005037770,新規,0,2024-01-24,2024-01-24,ソーラータレスホールディングス一般社団法人,,その他の設立登記法人,東京都,中央区,八丁堀４丁目２番１０号ＡＯＪ税理士法人内,,13,102,1040032,,,,,,,2024-01-24,1,,,,,ソーラータレスホールディングス,0
15,1010005037779,新規,0,2024-01-24,2024-01-24,板橋監査法人,,その他の設立登記法人,東京都,千代田区,有楽町１丁目１３番１号,,13,101,1000006,,,,,,,2024-01-24,1,,,,,イタバシ,0
16,1010005037787,新規,0,2024-01-24,2024-01-24,一般社団法人日本海洋学会,,その他の設立登記法人,東京都,千代田区,一ツ橋１丁目１番１号パレスサイドビル株式会社毎日学術フォーラム内,,13,101,1000003,,,,,,,2024-01-24,1,,,,,ニホンカイヨウガッカイ,0
25,1010403031763,新規,0,2024-01-24,2024-01-24,Ｋｉｙａｒｉ合同会社,,合同会社,東京都,港区,南麻布２丁目９番１１－１０１号日興パレス南麻布第二,,13,103,1060047,,,,,,,2024-01-24,1,,,,,キヤリ,0
26,1010403031771,新規,0,2024-01-24,2024-01-24,合同会社Ｍｅｒｃｙ　ａｎｄ　Ｆｕｎ,,合同会社,東京都,港区,南青山２丁目２番１５号ＷｉｎＡｏｙａｍａビルＵＣＦ６３５,,13,103,1070062,,,,,,,2024-01-24,1,,,,,マーシーアンドファン,0
28,1010501051671,新規,0,2024-01-24,2024-01-24,株式会社ヴィルナタール,,株式会社,東京都,台東区,台東４丁目５番２号山喜ビル４階,,13,106,1100016,,,,,,,2024-01-24,1,,,,,ヴィルナタール,0
29,1010601064532,新規,0,2024-01-24,2024-01-24,株式会社ＣｙｔｏＧｅｎ　Ｊａｐａｎ,,株式会社,東京都,江東区,新木場１丁目１７番８号三井リンクラボ新木場２、２０７号,,13,108,1360082,,,,,,,2024-01-24,1,,,,,サイトゼンジャパン,0
31,1010603010600,新規,0,2024-01-24,2024-01-24,ＴＨコンサルティング合同会社,,合同会社,東京都,江東区,大島１丁目２番２－２９０５号,,13,108,1360072,,,,,,,2024-01-24,1,,,,,ティーエッチコンサルティング,0
33,1010701045440,新規,0,2024-01-24,2024-01-24,株式会社Ｔ．Ｄ．Ｃ,,株式会社,東京都,品川区,北品川３丁目１番１－８０４号,,13,109,1400001,,,,,,,2024-01-24,1,,,,,ティーディーシー,0
34,1010701045449,新規,0,2024-01-24,2024-01-24,ひねもすのたり薬局株式会社,,株式会社,東京都,品川区,大崎２丁目１番２－３０３号,,13,109,1410032,,,,,,,2024-01-24,1,,,,,ヒネモスノタリヤッキョク,0
42,1010805003088,新規,0,2024-01-24,2024-01-24,社会保険労務士法人さいわい事務所,,その他の設立登記法人,東京都,大田区,東雪谷３丁目１番５号,,13,111,1450065,,,,,,,2024-01-24,1,,,,,サイワイジムショ,0
47,1011001159567,新規,0,2024-01-24,2024-01-24,株式会社チェルトアルス,,株式会社,東京都,渋谷区,道玄坂１丁目１０番８号,,13,113,1500043,,,,,,,2024-01-24,1,,,,,チェルトアルス,0
48,1011001159583,新規,0,2024-01-24,2024-01-24,株式会社２ＢＭ,,株式会社,東京都,渋谷区,円山町５番５号Ｎａｖｉ渋谷Ｖ３階,,13,113,1500044,,,,,,,2024-01-24,1,,,,,,0
54,1011101105917,新規,0,2024-01-24,2024-01-24,株式会社Ｓ＆Ｔ,,株式会社,東京都,新宿区,西新宿３丁目３番１３号西新宿水間ビル２Ｆ,,13,104,1600023,,,,,,,2024-01-24,1,,,,,エスアンドティー,0
55,1011101105925,新規,0,2024-01-24,2024-01-24,株式会社ＮＥＸＴホールディングス,,株式会社,東京都,新宿区,北新宿１丁目１２－１２ＭＩビル,,13,104,1690074,,,,,,,2024-01-24,1,,,,,ネクストホールディングス,0
56,1011101105941,新規,0,2024-01-24,2024-01-24,株式会社Ｓｔａｒ　Ｖｉｓｉｏｎ,,株式会社,東京都,新宿区,高田馬場４丁目１８－９－２０１,,13,104,1690075,,,,,,,2024-01-24,1,,,,,スタービジョン,0
65,1011401025773,新規,0,2024-01-24,2024-01-24,株式会社大和技術史開発,,株式会社,東京都,板橋区,中板橋８番１４号,,13,119,1730016,,,,,,,2024-01-24,1,,,,,ヤマトギジュツシカイハツ,0
73,1011603004220,新規,0,2024-01-24,2024-01-24,和光商会合同会社,,合同会社,東京都,練馬区,旭丘１丁目５７番９号,,13,120,1760005,,,,,,,2024-01-24,1,,,,,ワコウショウカイ,0
79,1011701026942,新規,0,2024-01-24,2024-01-24,肖遥株式会社,,株式会社,東京都,江戸川区,平井３丁目１４番２号,,13,123,1320035,,,,,,,2024-01-24,1,,,,,ショウヨウ,0
94,1012801022930,新規,0,2024-01-24,2024-01-24,株式会社Ｑｅｉｇｈｔ,,株式会社,東京都,昭島市,武蔵野２丁目１－４８－１００３,,13,207,1960021,,,,,,,2024-01-24,1,,,,,キューエイト,0
96,1013301051924,新規,0,2024-01-24,2024-01-24,Ｈｅｌｌｏ　Ｇｒｏｕｐ　Ｊａｐａｎ株式会社,,株式会社,東京都,豊島区,東池袋５丁目７番１号ＤＲＳ第三ビル７０１号,,13,116,1700013,,,,,,,2024-01-24,1,,,,,ハローグループジャパン,0
97,1013303006975,新規,0,2024-01-24,2024-01-24,合同会社ＡｄｖｏＶｉｓｉｏｎｓ,,合同会社,東京都,豊島区,千早２丁目３３番３号カジウラビル１階,,13,116,1710044,,,,,,,2024-01-24,1,,,,,アドヴォヴィジョンズ,0
102,1020001155435,新規,0,2024-01-24,2024-01-24,スキルシェアハブ株式会社,,株式会社,神奈川県,川崎市高津区,下作延６丁目４番地１１号サンフォリア３０１,,14,134,2130033,,,,,,,2024-01-24,1,,,,,スキルシェアハブ,0
103,1020001155451,新規,0,2024-01-24,2024-01-24,株式会社住まいライフパートナー,,株式会社,神奈川県,川崎市川崎区,中島２丁目１番１９号,,14,131,2100806,,,,,,,2024-01-24,1,,,,,スマイライフパートナー,0
104,1020001155468,新規,0,2024-01-24,2024-01-24,株式会社ボイスマネジメント,,株式会社,神奈川県,横浜市中区,扇町２丁目４番地３,,14,104,2310027,,,,,,,2024-01-24,1,,,,,ボイスマネジメント,0
106,1021001081225,新規,0,2024-01-24,2024-01-24,株式会社Ｇｒａｎｔｙ,,株式会社,神奈川県,藤沢市,片瀬８４番地の７,,14,205,2510032,,,,,,,2024-01-24,1,,,,,グランティ,0
107,1021001081282,新規,0,2024-01-24,2024-01-24,株式会社丸文,,株式会社,神奈川県,相模原市中央区,中央６丁目１１番３号,,14,152,2520239,,,,,,,2024-01-24,1,,,,,マルフミ,0
108,1021001081299,新規,0,2024-01-24,2024-01-24,株式会社ＪＭＥＣＳ,,株式会社,神奈川県,横須賀市,大矢部３丁目３７番４号,,14,201,2380024,,,,,,,2024-01-24,1,,,,,ジェイメックス,0
110,1021003014059,新規,0,2024-01-24,2024-01-24,合同会社ＮＣＩ,,合同会社,神奈川県,逗子市,山の根２丁目２番１号,,14,208,2490002,,,,,,,2024-01-24,1,,,,,エヌシーアイ,0
117,1030001158362,新規,0,2024-01-24,2024-01-24,株式会社Ｆ．Ｒ．Ｄ‐Ｏｎｅ,,株式会社,埼玉県,新座市,馬場３丁目９番３号,,11,230,3520016,,,,,,,2024-01-24,1,,,,,エフアールディーワン,0
118,1030001158370,新規,0,2024-01-24,2024-01-24,株式会社ＮＯＢＩＴＡＬＥ,,株式会社,埼玉県,越谷市,蒲生寿町１４番１８号レジデンスサカエ２０１,,11,222,3430836,,,,,,,2024-01-24,1,,,,,ノビテイル,0
131,1040003024074,新規,0,2024-01-24,2024-01-24,歌舞鼓屋合同会社,,合同会社,千葉県,館山市,沼１１１番地の１１,,12,205,2940034,,,,,,,2024-01-24,1,,,,,カブコヤ,0
132,1040003024181,新規,0,2024-01-24,2024-01-24,双龍合同会社,,合同会社,千葉県,松戸市,栄町６丁目４６８番地の１９,,12,207,2710062,,,,,,,2024-01-24,1,,,,,,0
137,1050001054130,新規,0,2024-01-24,2024-01-24,Ｂ‐Ｉｎｎｏｖａｔｉｏｎ株式会社,,株式会社,茨城県,古河市,下大野１７７０番地１,,08,204,3060204,,,,,,,2024-01-24,1,,,,,ビーイノベーション,0
138,1050001054155,新規,0,2024-01-24,2024-01-24,やさしい株式会社,,株式会社,茨城県,つくば市,森の里１３番地９,,08,220,3001256,,,,,,,2024-01-24,1,,,,,ヤサシイ,0
140,1050003008076,新規,0,2024-01-24,2024-01-24,合同会社空間アート,,合同会社,茨城県,つくば市,北条１４３１番地１,,08,220,3004231,,,,,,,2024-01-24,1,,,,,クウカンアート,0
146,1060003004883,新規,0,2024-01-24,2024-01-24,合同会社優誼,,合同会社,栃木県,宇都宮市,昭和３丁目２番１３号,,09,201,3200032,,,,,,,2024-01-24,1,,,,,カツギ,0
171,1080101024492,新規,0,2024-01-24,2024-01-24,株式会社御勝,,株式会社,静岡県,御殿場市,東田中１７９０番地の１２,,22,215,4120026,,,,,,,2024-01-24,1,,,,,ゴショウ,0
176,1080401026965,新規,0,2024-01-24,2024-01-24,株式会社Ａｄｄｅｄｖａｌｕｅ,,株式会社,静岡県,浜松市中央区,高丘東１丁目７番１１号,,22,138,4338117,,,,,,,2024-01-24,1,,,,,アドバリュー,0
186,1100001037162,新規,0,2024-01-24,2024-01-24,ニッセイコーポレーション株式会社,,株式会社,長野県,伊那市,福島１８０番地２ビレッジハウス伊那福島１号棟２０４号室,,20,209,3960001,,,,,,,2024-01-24,1,,,,,ニッセイコーポレーション,0
188,1100005013110,新規,0,2024-01-24,2024-01-24,行政書士法人エスポワール,,その他の設立登記法人,長野県,飯田市,山本１１５１番地１,,20,205,3950244,,,,,,,2024-01-24,1,,,,,エスポワール,0
194,1110001038127,新規,0,2024-01-24,2024-01-24,株式会社冨塚,,株式会社,新潟県,上越市,五智３丁目７番１５号,,15,222,9420081,,,,,,,2024-01-24,1,,,,,トミヅカ,0
205,1110003005273,新規,0,2024-01-24,2024-01-24,合同会社伊藤建築事務所不動産,,合同会社,新潟県,新潟市西蒲区,巻甲４１８２番地１０,,15,108,9530041,,,,,,,2024-01-24,1,,,,,イトウケンチクジムショフドウサン,0
221,1120001261479,新規,0,2024-01-24,2024-01-24,ＳｐａｃｅＸ株式会社,,株式会社,大阪府,大阪市浪速区,恵美須西３丁目１０番１１号２０３号室,,27,111,5560003,,,,,,,2024-01-24,1,,,,,スペースエクス,0
222,1120001261594,新規,0,2024-01-24,2024-01-24,株式会社ガニコーポレーション,,株式会社,大阪府,枚方市,茄子作４丁目１６番６号,,27,210,5730071,,,,,,,2024-01-24,1,,,,,ガニコーポレーション,0
223,1120001261611,新規,0,2024-01-24,2024-01-24,ハートランドコンサルティング株式会社,,株式会社,大阪府,大阪市北区,本庄東１丁目２４番５号,,27,127,5310074,,,,,,,2024-01-24,1,,,,,ハートランドコンサルティング,0
224,1120001261636,新規,0,2024-01-24,2024-01-24,株式会社ＰＩＬＥＸ,,株式会社,大阪府,大阪市西区,新町１丁目８番１号行成ビル５階Ｆ号,,27,106,5500013,,,,,,,2024-01-24,1,,,,,パイレックス,0
225,1120003025758,新規,0,2024-01-24,2024-01-24,関西正式グループ合同会社,,合同会社,大阪府,大阪市西成区,太子１丁目１５番３－３０２号,,27,122,5570002,,,,,,,2024-01-24,1,,,,,カンサイセイシキ,0
242,1130001076199,新規,0,2024-01-24,2024-01-24,株式会社Ｍ’ｓ　ｅｓｔａｔｅ,,株式会社,京都府,京都市西京区,大枝沓掛町１番地２９清風ハイム２０１,,26,111,6101106,,,,,,,2024-01-24,1,,,,,エムズエステート,0
243,1130001076208,新規,0,2024-01-24,2024-01-24,株式会社コナカ・クリエイト,,株式会社,京都府,京都市下京区,室町通松原上る高辻町６０１番地千代田商館１階,00133485,26,106,6008434,,,,,,,2024-01-24,1,,,,,コナカクリエイト,0
244,1130001076216,新規,0,2024-01-24,2024-01-24,株式会社フォンテーヌ,,株式会社,京都府,京都市北区,大将軍川端町１０１番地,,26,101,6038332,,,,,,,2024-01-24,1,,,,,フォンテーヌ,0
252,1130003009256,新規,0,2024-01-24,2024-01-24,合同会社エース会,,合同会社,京都府,久世郡久御山町,栄１丁目１－８７,,26,322,6130032,,,,,,,2024-01-24,1,,,,,エースカイ,0
260,1140001133073,新規,0,2024-01-24,2024-01-24,株式会社ＤＡＩＳＨＩＮ,,株式会社,兵庫県,姫路市,安富町皆河５６番地,,28,201,6712415,,,,,,,2024-01-24,1,,,,,ダイシン,0
266,1150001026986,新規,0,2024-01-24,2024-01-24,株式会社リークラボ・ジャパン,,株式会社,奈良県,生駒市,高山町５６５５,,29,209,6300101,,,,,,,2024-01-24,1,,,,,リークラボジャパン,0
267,1150001027027,新規,0,2024-01-24,2024-01-24,三和産業株式会社,,株式会社,奈良県,奈良市,芝辻町４丁目１番地の１５メゾン佐保Ａ２０８号室,00133466,29,201,6308114,,,,,,,2024-01-24,1,,,,,サンワサンギョウ,0
271,1170001017983,新規,0,2024-01-24,2024-01-24,株式会社結己建設,,株式会社,和歌山県,和歌山市,杭ノ瀬３２５番地３,,30,201,6410001,,,,,,,2024-01-24,1,,,,,ユウキケンセツ,0
278,1180001159825,新規,0,2024-01-24,2024-01-24,株式会社ライフスマイル,,株式会社,愛知県,春日井市,勝川町西４丁目２１番地２,,23,206,4860946,,,,,,,2024-01-24,1,,,,,ライフスマイル,0
279,1180001159874,新規,0,2024-01-24,2024-01-24,セブン刃物直販株式会社,,株式会社,愛知県,北名古屋市,北野八竜前８５番地２,,23,234,4810034,,,,,,,2024-01-24,1,,,,,セブンハモノチョクハン,0
284,1180003026271,新規,0,2024-01-24,2024-01-24,合同会社ＭＩＡ,,合同会社,愛知県,名古屋市緑区,鳴海町字赤塚３５番地の１０,,23,114,4580845,,,,,,,2024-01-24,1,,,,,エムアイエー,0
288,1190002019589,新規,0,2024-01-24,2024-01-24,有限会社奥谷塗装,,有限会社,三重県,四日市市,羽津町２３番２１号,,24,202,5100017,,,,,,,2024-01-24,1,,,,,オクタニトソウ,0
315,1240001062700,新規,0,2024-01-24,2024-01-24,株式会社レベルイチ,,株式会社,広島県,福山市,引野町北２丁目２５番１０－３号,,34,207,7210941,,,,,,,2024-01-24,1,,,,,レベルイチ,0
316,1240001062709,新規,0,2024-01-24,2024-01-24,株式会社リベラルＮ’ｓ,,株式会社,広島県,三原市,糸崎５丁目１７番１１号,,34,204,7290324,,,,,,,2024-01-24,1,,,,,リベラルエヌズ,0
337,1240005015704,新規,0,2024-01-24,2024-01-24,一般社団法人ＲＹ研究所,,その他の設立登記法人,広島県,広島市西区,庚午北３丁目１６番９号,,34,104,7330821,,,,,,,2024-01-24,1,,,,,アールワイケンキュウショ,0
340,1250003003420,新規,0,2024-01-24,2024-01-24,Ｓ＆Ｙカンパニー合同会社,,合同会社,山口県,岩国市,由宇町北２丁目７番１８号,,35,208,7401455,,,,,,,2024-01-24,1,,,,,エスアンドワイカンパニー,0
346,1260001038681,新規,0,2024-01-24,2024-01-24,Ｍ・Ｄホールディングス株式会社,,株式会社,岡山県,岡山市北区,青江１丁目２１番２６号,,33,101,7000941,,,,,,,2024-01-24,1,,,,,エムディーホールディングス,0
362,1290001104472,新規,0,2024-01-24,2024-01-24,ＳＩＸＴＨ　ＳＥＮＳＥ株式会社,,株式会社,福岡県,福岡市博多区,中洲１丁目５番２０号,,40,132,8100801,,,,,,,2024-01-24,1,,,,,シックスセンス,0
363,1290001104489,新規,0,2024-01-24,2024-01-24,株式会社ＴＫラボラトリー,,株式会社,福岡県,久留米市,津福本町５１７番地１０,,40,203,8300047,,,,,,,2024-01-24,1,,,,,ティケィラボラトリー,0
365,1290003014876,新規,0,2024-01-24,2024-01-24,ガンバ合同会社,,合同会社,福岡県,筑後市,大字江口７４４,,40,211,8330046,,,,,,,2024-01-24,1,,,,,ガンバ,0
366,1290003014892,新規,0,2024-01-24,2024-01-24,ＷＩＮＮＥＲ福岡合同会社,,合同会社,福岡県,福岡市博多区,博多駅前２丁目１２番１２号,,40,132,8120011,,,,,,,2024-01-24,1,,,,,ウイナーフクオカ,0
367,1290801030240,新規,0,2024-01-24,2024-01-24,株式会社フットライズ,,株式会社,福岡県,北九州市八幡西区,星ケ丘２丁目３番１９号,,40,109,8071264,,,,,,,2024-01-24,1,,,,,フットライズ,0
372,1330005010745,新規,0,2024-01-24,2024-01-24,一般社団法人球清ホールディングス,,その他の設立登記法人,熊本県,球磨郡多良木町,大字多良木２７７７番地,,43,505,8680501,,,,,,,2024-01-24,1,,,,,キュウセイ,0
380,1350005006205,新規,0,2024-01-24,2024-01-24,一般社団法人日本いのち心アカデミー協会,,その他の設立登記法人,宮崎県,延岡市,沖田町２６３７番地２０,,45,203,8820876,,,,,,,2024-01-24,1,,,,,,0
381,1360001033111,新規,0,2024-01-24,2024-01-24,株式会社エール沖縄,,株式会社,沖縄県,中頭郡読谷村,字瀬名波９２９番地１５,,47,324,9040325,,,,,,,2024-01-24,1,,,,,エールオキナワ,0
384,1360003013623,新規,0,2024-01-24,2024-01-24,うちなーむん合同会社,,合同会社,沖縄県,那覇市,松尾２丁目１０番２０号,,47,201,9000014,,,,,,,2024-01-24,1,,,,,ウチナームン,0
385,1370001050857,新規,0,2024-01-24,2024-01-24,株式会社ＴＥＩＫＥＮ,,株式会社,宮城県,石巻市,錦町４番３７－１号,,04,202,9860877,,,,,,,2024-01-24,1,,,,,テイケン,0
386,1370001050865,新規,0,2024-01-24,2024-01-24,株式会社ｗｅｍａ　ｒｉｓｅ,,株式会社,宮城県,多賀城市,大代５丁目１２番１４号,,04,209,9850832,,,,,,,2024-01-24,1,,,,,ウェマライズ,0
388,1390001017499,新規,0,2024-01-24,2024-01-24,株式会社ＳＵＰＥＲ　Ｂ,,株式会社,山形県,酒田市,両羽町９－９,,06,204,9980832,,,,,,,2024-01-24,1,,,,,スーパービー,0
391,1410001013710,新規,0,2024-01-24,2024-01-24,嶋岡興業株式会社,,株式会社,秋田県,横手市,朝倉町３番２８号,,05,203,0130028,,,,,,,2024-01-24,1,,,,,シマオカコウギョウ,0
437,1480001012367,新規,0,2024-01-24,2024-01-24,株式会社クレシア,,株式会社,徳島県,美馬市,脇町字西赤谷８３５番地６,,36,207,7793742,,,,,,,2024-01-24,1,,,,,クレシア,0
444,1500001025408,新規,0,2024-01-24,2024-01-24,株式会社Ｍ’ｓ,,株式会社,愛媛県,松山市,昭和町６５番地１グレースレジデンス３０６,,38,201,7900872,,,,,,,2024-01-24,1,,,,,エムズ,0
449,1700150122951,新規,0,2024-01-24,2023-12-21,南町内会,,その他,鹿児島県,鹿屋市,南町３５６４,,46,203,8930043,,,,,,,2023-12-21,1,,,,,ミナミチヨウナイカイ,0
450,1700150123297,新規,0,2024-01-24,2024-01-11,龍神建設残土処理組合,,その他,和歌山県,田辺市,龍神村甲斐ノ川４１５,,30,206,6450302,,,,,,,2024-01-11,1,,,,,リユウジンケンセツザンドシヨリクミアイ,0
451,1700150123553,新規,0,2024-01-24,2024-01-24,東和システム健康保険組合,,その他,東京都,千代田区,神田小川町３丁目１０,,13,101,1010052,,,,,,,2024-01-24,1,,,,,トウワシステムケンコウホケンクミアイ,0
462,2010001241656,新規,0,2024-01-24,2024-01-24,スプレマシー株式会社,,株式会社,東京都,中央区,日本橋２丁目１番３号アーバンネット日本橋二丁目ビル１０階,,13,102,1030027,,,,,,,2024-01-24,1,,,,,スプレマシー,0
463,2010001241689,新規,0,2024-01-24,2024-01-24,ＫＴ株式会社,,株式会社,東京都,中央区,銀座１丁目２２－１１銀座大竹ビジデンス２階,,13,102,1040061,,,,,,,2024-01-24,1,,,,,ケーティー,0
464,2010001241697,新規,0,2024-01-24,2024-01-24,株式会社ＳＴＯＣＫ１４４,,株式会社,東京都,千代田区,永田町２丁目１２番４号,,13,101,1000014,,,,,,,2024-01-24,1,,,,,ストックヒャクヨンジュウヨン,0
465,2010001241706,新規,0,2024-01-24,2024-01-24,株式会社東京観光,,株式会社,東京都,中央区,銀座１丁目１２－４Ｎ＆ＥＢＬＤ．７階,,13,102,1040061,,,,,,,2024-01-24,1,,,,,トウキョウカンコウ,0
466,2010001241714,新規,0,2024-01-24,2024-01-24,株式会社ＲＥＶＯＬＵＴＩＯＮ　ＲＥＡＬＴＹ,,株式会社,東京都,千代田区,紀尾井町４番１号ニューオータニガーデンコート１２階,,13,101,1020094,,,,,,,2024-01-24,1,,,,,レボリューションリアルティ,0
467,2010001241722,新規,0,2024-01-24,2024-01-24,株式会社ＳＢＹプロモーションズ,,株式会社,東京都,中央区,日本橋室町１丁目１１番１２号日本橋水野ビル７階,,13,102,1030022,,,,,,,2024-01-24,1,,,,,エスビーワイプロモーションズ,0
468,2010001241739,新規,0,2024-01-24,2024-01-24,Ｇｌｏｒｙ　Ｍａｎａｇｅｍｅｎｔ株式会社,,株式会社,東京都,中央区,日本橋１丁目２－１０東洋ビル３階,,13,102,1030027,,,,,,,2024-01-24,1,,,,,グローリーマネジメント,0
469,2010001241763,新規,0,2024-01-24,2024-01-24,株式会社Ｐｏｌａｒｉｓ,,株式会社,東京都,中央区,入船１丁目９番８号,,13,102,1040042,,,,,,,2024-01-24,1,,,,,ポラリス,0
471,2010003042755,新規,0,2024-01-24,2024-01-24,七ツ星写真合同会社,,合同会社,東京都,中央区,銀座４丁目１３番１号,,13,102,1040061,,,,,,,2024-01-24,1,,,,,ナナツボシシャシン,0
472,2010003042763,新規,0,2024-01-24,2024-01-24,合同会社ＭＫブライアン,,合同会社,東京都,中央区,銀座１丁目１２番４号Ｎ＆ＥＢＬＤ．６Ｆ,,13,102,1040061,,,,,,,2024-01-24,1,,,,,エムケーブライアン,0
474,2010005037753,新規,0,2024-01-24,2024-01-24,一般社団法人社長のミカタ,,その他の設立登記法人,東京都,中央区,新川１丁目６番１１号Ｂ１Ｆ,,13,102,1040033,,,,,,,2024-01-24,1,,,,,シャチョウノミカタ,0
476,2010101015976,新規,0,2024-01-24,2024-01-24,鳥居ホールディングス株式会社,,株式会社,東京都,八王子市,高倉町６６番地１,,13,201,1920033,,,,,,,2024-01-24,1,,,,,トリイホールディングス,0
484,2010403031779,新規,0,2024-01-24,2024-01-24,キャットペッパー合同会社,,合同会社,東京都,港区,西麻布３丁目２１番２０－６１０号,,13,103,1060031,,,,,,,2024-01-24,1,,,,,キャットペッパー,0
487,2010501051670,新規,0,2024-01-24,2024-01-24,株式会社ａｃｔ,,株式会社,東京都,台東区,浅草橋３丁目３２番１号浅草橋グランドハイツ５０４,,13,106,1110053,,,,,,,2024-01-24,1,,,,,アクト,0
489,2010601064523,新規,0,2024-01-24,2024-01-24,株式会社コムテット,,株式会社,東京都,江東区,北砂６丁目１０番２－２０１号,,13,108,1360073,,,,,,,2024-01-24,1,,,,,コムテット,0
490,2010601064531,新規,0,2024-01-24,2024-01-24,株式会社リベレ,,株式会社,東京都,墨田区,京島３丁目４８番５号,,13,107,1310046,,,,,,,2024-01-24,1,,,,,リベレ,0
494,2010801034730,新規,0,2024-01-24,2024-01-24,株式会社フォレステート,,株式会社,東京都,大田区,南六郷２丁目１７番６号,,13,111,1440045,,,,,,,2024-01-24,1,,,,,フォレステート,0
502,2011001159285,新規,0,2024-01-24,2024-01-24,株式会社ＧｅａＲＥｍａｋｅ,,株式会社,東京都,渋谷区,渋谷２丁目２１番１号,,13,113,1500002,,,,,,,2024-01-24,1,,,,,ギアリメイク,0
503,2011001159541,新規,0,2024-01-24,2024-01-24,株式会社ｎｅｓｔ　ｐｏｉｎｔ,,株式会社,東京都,渋谷区,道玄坂２丁目２６番３号,,13,113,1500043,,,,,,,2024-01-24,1,,,,,ネストポイント,0
504,2011001159566,新規,0,2024-01-24,2024-01-24,ＯｐｔＨｕｂ株式会社,,株式会社,東京都,渋谷区,道玄坂１丁目１６－６二葉ビル８ｂ,,13,113,1500043,,,,,,,2024-01-24,1,,,,,オプトハブ,0
505,2011001159574,新規,0,2024-01-24,2024-01-24,ＳｈｅｒＬＯＣＫ株式会社,,株式会社,東京都,渋谷区,恵比寿２丁目３３番１５－６０３号,,13,113,1500013,,,,,,,2024-01-24,1,,,,,シャーロック,0
506,2011001159582,新規,0,2024-01-24,2024-01-24,株式会社ＴＳＨ,,株式会社,東京都,渋谷区,道玄坂１丁目１０番８号渋谷道玄坂東急ビル２Ｆ－Ｃ,,13,113,1500043,,,,,,,2024-01-24,1,,,,,ティーエスエイチ,0
509,2011003018357,新規,0,2024-01-24,2024-01-24,Ｗ　Ｍａｎａｇｅｍｅｎｔ合同会社,,合同会社,東京都,渋谷区,渋谷２丁目１９番１５号宮益坂ビルディング６０９,,13,113,1500002,,,,,,,2024-01-24,1,,,,,ダブリュマネジメント,0
515,2011103014009,新規,0,2024-01-24,2024-01-24,合同会社しんコーポレーション,,合同会社,東京都,新宿区,四谷１丁目６－１コモレ四谷１１１,,13,104,1600004,,,,,,,2024-01-24,1,,,,,シンコーポレーション,0
516,2011203004289,新規,0,2024-01-24,2024-01-24,合同会社３３３,,合同会社,東京都,中野区,弥生町４丁目２３番１０号Ｂｒａｎｃｈｅ中野富士見町３０３,,13,114,1640013,,,,,,,2024-01-24,1,,,,,スリースリー,0
524,2011303005030,新規,0,2024-01-24,2024-01-24,合同会社ＬＡＴＣＨ,,合同会社,東京都,杉並区,浜田山３丁目３５－１９レジデンス浜田山３０９,,13,115,1680065,,,,,,,2024-01-24,1,,,,,ラッチ,0
537,2011801043688,新規,0,2024-01-24,2024-01-24,ＳＯＳＯ株式会社,,株式会社,東京都,葛飾区,東新小岩３丁目８番５－８１０号,,13,122,1240023,,,,,,,2024-01-24,1,,,,,ソソ,0
545,2013303006974,新規,0,2024-01-24,2024-01-24,合同会社たいらの商事,,合同会社,東京都,豊島区,雑司が谷１丁目４０番４号パティオ・山の手４０２号,,13,116,1710032,,,,,,,2024-01-24,1,,,,,タイラノショウジ,0
550,2020001155483,新規,0,2024-01-24,2024-01-24,株式会社リデライトリモデリング,,株式会社,神奈川県,横浜市港南区,芹が谷５丁目１０番４号,,14,111,2330006,,,,,,,2024-01-24,1,,,,,リデライトリモデリング,0
558,2020003025412,新規,0,2024-01-24,2024-01-24,合同会社ＫＭＴ,,合同会社,神奈川県,横浜市西区,中央１丁目３７番１－３１３号,,14,103,2200051,,,,,,,2024-01-24,1,,,,,ケーエムティー,0
559,2020003025420,新規,0,2024-01-24,2024-01-24,合同会社星溪地所,,合同会社,神奈川県,川崎市麻生区,岡上３丁目１０番８号,,14,137,2150027,,,,,,,2024-01-24,1,,,,,セイケイジショ,0
563,2021001081298,新規,0,2024-01-24,2024-01-24,株式会社おおた中小企業診断士事務所,,株式会社,神奈川県,藤沢市,鵠沼石上２丁目５番１号湘南鵠沼ＢＬＤ３階Ｃ号室,00133484,14,205,2510025,,,,,,,2024-01-24,1,,,,,オオタチュウショウキギョウシンダンシジムショ,0
564,2021001081307,新規,0,2024-01-24,2024-01-24,株式会社Ａ‐ＳＴＹＬＥ,,株式会社,神奈川県,南足柄市,岩原６３８番地１７,,14,217,2500113,,,,,,,2024-01-24,1,,,,,エースタイル,0
567,2021003014066,新規,0,2024-01-24,2024-01-24,合同会社さがみ伊豆総合法務事務所,,合同会社,神奈川県,足柄下郡湯河原町,鍛冶屋１８０番地の５,,14,384,2590313,,,,,,,2024-01-24,1,,,,,サガミイズソウゴウホウムジムショ,0
572,2030001158320,新規,0,2024-01-24,2024-01-24,株式会社ＳＨＥＲ　ＳＨＯＫＡＩ,,株式会社,埼玉県,久喜市,八甫３丁目２２６番地,,11,232,3400201,,,,,,,2024-01-24,1,,,,,シエールショウカイ,0
573,2030001158361,新規,0,2024-01-24,2024-01-24,株式会社Ａｎｃｈｏｒ,,株式会社,埼玉県,朝霞市,膝折町１丁目３番４３号,,11,227,3510014,,,,,,,2024-01-24,1,,,,,アンカー,0
577,2030003023480,新規,0,2024-01-24,2024-01-24,ＭＩＲＡＩ　ＥＸＩＭ合同会社,,合同会社,埼玉県,川口市,本町１丁目１５－１５メゾン鶴２０３号,,11,203,3320012,,,,,,,2024-01-24,1,,,,,ミライイクシム,0
578,2030003023497,新規,0,2024-01-24,2024-01-24,大成組合合同会社,,合同会社,埼玉県,川口市,西川口１丁目３０番２０－１０６号,,11,203,3320021,,,,,,,2024-01-24,1,,,,,ダイセイクミアイ,0
581,2040001131870,新規,0,2024-01-24,2024-01-24,株式会社芝,,株式会社,千葉県,習志野市,津田沼４丁目１０番８,,12,216,2750016,,,,,,,2024-01-24,1,,,,,シバ,0
582,2040001131879,新規,0,2024-01-24,2024-01-24,株式会社ミヤテクノ,,株式会社,千葉県,船橋市,本町６丁目１８番１９号第三山中ビル４０１号室,,12,204,2730005,,,,,,,2024-01-24,1,,,,,ミヤテクノ,0
587,2050001054162,新規,0,2024-01-24,2024-01-24,株式会社新栄不動産,,株式会社,茨城県,ひたちなか市,表町１３番３号,,08,221,3120047,,,,,,,2024-01-24,1,,,,,シンエイフドウサン,0
590,2050003008083,新規,0,2024-01-24,2024-01-24,合同会社Ｎａｔｕｒｅ　Ｃｈｉｌｄｒｅｎ,,合同会社,茨城県,稲敷市,江戸崎甲２４９９番地,,08,229,3000504,,,,,,,2024-01-24,1,,,,,ネイチャーチルドレン,0
591,2060001036762,新規,0,2024-01-24,2024-01-24,株式会社ＳＨＩＮＯ,,株式会社,栃木県,下都賀郡壬生町,大字助谷２８０８番地１,,09,361,3210233,,,,,,,2024-01-24,1,,,,,シノ,0
613,2070002037775,新規,0,2024-01-24,2024-01-24,有限会社大丸肉店,,有限会社,群馬県,桐生市,本町６丁目６番地,,10,203,3760031,,,,,,,2024-01-24,1,,,,,,0
634,2110001038126,新規,0,2024-01-24,2024-01-24,株式会社４ｓｅａｓｏｎｓ・Ｆ,,株式会社,新潟県,新潟市西蒲区,曽根１２７５番地１,,15,108,9590422,,,,,,,2024-01-24,1,,,,,フォーシーズンズファーム,0
648,2120001261478,新規,0,2024-01-24,2024-01-24,雲山株式会社,,株式会社,大阪府,大阪市中央区,船場中央２丁目１－４船場センタービル４号館地下一階Ｂ１０８ロイヤルオフィス内０５室,,27,128,5410055,,,,,,,2024-01-24,1,,,,,ウンザン,0
649,2120001261602,新規,0,2024-01-24,2024-01-24,リシンー株式会社,,株式会社,大阪府,大阪市都島区,都島本通１丁目１６－２８－１階,,27,102,5340021,,,,,,,2024-01-24,1,,,,,リシンー,0
650,2120001261610,新規,0,2024-01-24,2024-01-24,ＭＡＳＵ株式会社,,株式会社,大阪府,大阪市浪速区,桜川３丁目４番２１号,,27,111,5560022,,,,,,,2024-01-24,1,,,,,マス,0
651,2120001261635,新規,0,2024-01-24,2024-01-24,ＫＨＩ株式会社,,株式会社,大阪府,大阪市浪速区,下寺３丁目１番１４－８１０号,,27,111,5560001,,,,,,,2024-01-24,1,,,,,ケイエイチアイ,0
652,2120001261668,新規,0,2024-01-24,2024-01-24,株式会社スターズ,,株式会社,大阪府,交野市,倉治５丁目２０番１７号,,27,230,5760051,,,,,,,2024-01-24,1,,,,,スターズ,0
653,2120001261684,新規,0,2024-01-24,2024-01-24,株式会社Ｆ　ｃｌｅｆ　Ｏｎｅ,,株式会社,大阪府,大阪市中央区,内平野町２丁目３－１スタジオ６４Ｂ１０１,,27,128,5400037,,,,,,,2024-01-24,1,,,,,エフクレフワン,0
659,2120003025749,新規,0,2024-01-24,2024-01-24,合同会社ｎｏ‐ｒｉｅｓ,,合同会社,大阪府,大阪市淀川区,宮原２丁目１３－１３デュオン新大阪レジデンス１５０４,,27,123,5320003,,,,,,,2024-01-24,1,,,,,ノリーズ,0
660,2120003025757,新規,0,2024-01-24,2024-01-24,福勝合同会社,,合同会社,大阪府,大阪市阿倍野区,阿倍野元町１４番５－３０１号,,27,119,5450034,,,,,,,2024-01-24,1,,,,,フクショウ,0
661,2120005024121,新規,0,2024-01-24,2024-01-24,一般社団法人初音,,その他の設立登記法人,大阪府,大阪市生野区,田島４丁目１１番３５号,,27,116,5440011,,,,,,,2024-01-24,1,,,,,ハツネ,0
663,2120101068939,新規,0,2024-01-24,2024-01-24,株式会社ＴＰＢＬ,,株式会社,大阪府,富田林市,本町１５番２２号,,27,214,5840093,,,,,,,2024-01-24,1,,,,,ティーピービーエル,0
670,2120905006557,新規,0,2024-01-24,2024-01-24,一般社団法人人事心理学研究所,,その他の設立登記法人,大阪府,吹田市,出口町１６番２３－１０１号,,27,205,5640072,,,,,,,2024-01-24,1,,,,,ジンジシンリガクケンキュウショ,0
678,2130001076207,新規,0,2024-01-24,2024-01-24,株式会社ｓｕｍｍｉｔ,,株式会社,京都府,乙訓郡大山崎町,字下植野小字宮脇１番地８,,26,303,6180081,,,,,,,2024-01-24,1,,,,,サミット,0
685,2130003009255,新規,0,2024-01-24,2024-01-24,合同会社ディナモスポーツアカデミー,,合同会社,京都府,綾部市,大島町南天田井９番地,,26,203,6230046,,,,,,,2024-01-24,1,,,,,ディナモスポーツアカデミー,0
694,2150001027026,新規,0,2024-01-24,2024-01-24,株式会社ゴールデンミーン,,株式会社,奈良県,奈良市,芝辻町４丁目１２番地の１シティホームズ新大宮駅前６１１号,00133465,29,201,6308114,,,,,,,2024-01-24,1,,,,,ゴールデンミーン,0
695,2150001027034,新規,0,2024-01-24,2024-01-24,株式会社ｉｃｏｔ,,株式会社,奈良県,生駒市,小明町２１１２番地３号,,29,209,6300201,,,,,,,2024-01-24,1,,,,,イコット,0
706,2180001159808,新規,0,2024-01-24,2024-01-24,株式会社ＳＳＳ,,株式会社,愛知県,丹羽郡大口町,余野５丁目７９シャトルアキラＩＩ　１０３,00133464,23,361,4800146,,,,,,,2024-01-24,1,,,,,トリプルエス,0
707,2180001159865,新規,0,2024-01-24,2024-01-24,ＨＲＴ株式会社,,株式会社,愛知県,名古屋市中区,丸の内２丁目１６番４号（チサンマンション丸の内第６－８０５号）,,23,106,4600002,,,,,,,2024-01-24,1,,,,,エイチアールティー,0
708,2180001159873,新規,0,2024-01-24,2024-01-24,ＩｎｎｏＴｅｃｈ株式会社,,株式会社,愛知県,半田市,亀崎町６丁目７８番地,,23,205,4750023,,,,,,,2024-01-24,1,,,,,イノテック,0
710,2180003026221,新規,0,2024-01-24,2024-01-24,合同会社Ｏｒａｌ　Ｔｒａｎｓｆｏｒｍａｔｉｏｎ,,合同会社,愛知県,弥富市,鯏浦町下六７番地,,23,235,4980022,,,,,,,2024-01-24,1,,,,,オーラルトランスフォーメーション,0
711,2180003026262,新規,0,2024-01-24,2024-01-24,Ｊａｂｓ合同会社,,合同会社,愛知県,名古屋市中区,大須３丁目２７番３２号,,23,106,4600011,,,,,,,2024-01-24,1,,,,,ジャブス,0
712,2180301038257,新規,0,2024-01-24,2024-01-24,岡崎南公園マネジメント株式会社,,株式会社,愛知県,岡崎市,朝日町３丁目１７番地,,23,202,4440022,,,,,,,2024-01-24,1,,,,,オカザキミナミコウエンマネジメント,0
713,2190001031049,新規,0,2024-01-24,2024-01-24,株式会社Ｓａｔｏｎａ,,株式会社,三重県,津市,雲出島貫町１５４９番地１,,24,201,5140305,,,,,,,2024-01-24,1,,,,,サトナ,0
718,2200001042102,新規,0,2024-01-24,2024-01-24,北山ツール株式会社,,株式会社,岐阜県,羽島市,正木町曲利字葭葉１１０１番地１,,21,209,5016227,,,,,,,2024-01-24,1,,,,,キタヤマツール,0
719,2200001042110,新規,0,2024-01-24,2024-01-24,株式会社Ｇｌａｎｚ,,株式会社,岐阜県,羽島市,福寿町間島２丁目１７番地,,21,209,5016251,,,,,,,2024-01-24,1,,,,,グランツ,0
726,2230001020187,新規,0,2024-01-24,2024-01-24,株式会社三裕工業,,株式会社,富山県,富山市,富岡町１１７番地１９,,16,201,9300928,,,,,,,2024-01-24,1,,,,,サンユウコウギョウ,0
743,2240001062699,新規,0,2024-01-24,2024-01-24,株式会社ＧＩＮエイト,,株式会社,広島県,廿日市市,阿品１丁目７番２０－４０８号,,34,213,7380054,,,,,,,2024-01-24,1,,,,,ジンエイト,0
744,2240001062708,新規,0,2024-01-24,2024-01-24,株式会社さくらプロジェクト,,株式会社,広島県,広島市安佐北区,可部４丁目６番３－２０１号,,34,106,7310221,,,,,,,2024-01-24,1,,,,,サクラプロジェクト,0
751,2240005015703,新規,0,2024-01-24,2024-01-24,一般社団法人あいぶりえ,,その他の設立登記法人,広島県,広島市東区,戸坂新町１丁目７番１４－２０２号,,34,102,7320012,,,,,,,2024-01-24,1,,,,,アイブリエ,0
769,2280001009110,新規,0,2024-01-24,2024-01-24,株式会社要会計,,株式会社,島根県,浜田市,長沢町３２８２番地,,32,202,6970023,,,,,,,2024-01-24,1,,,,,カナメカイケイ,0
770,2280002012146,新規,0,2024-01-24,2024-01-24,有限会社ストアーいづも,,有限会社,島根県,出雲市,塩冶町２００５番地の１,,32,203,6930021,,,,,,,2024-01-24,1,,,,,ストアーイヅモ,0
771,2290001104471,新規,0,2024-01-24,2024-01-24,メディカルキッチンサービス株式会社,,株式会社,福岡県,福岡市博多区,博多駅中央街５－１１,,40,132,8120012,,,,,,,2024-01-24,1,,,,,メディカルキッチンサービス,0
772,2290003014891,新規,0,2024-01-24,2024-01-24,合同会社ＤＳＹ,,合同会社,福岡県,大牟田市,大字手鎌１３８０番地５７,,40,202,8360004,,,,,,,2024-01-24,1,,,,,ディーエスワイ,0
774,2290801030248,新規,0,2024-01-24,2024-01-24,つばさ建設株式会社,,株式会社,福岡県,北九州市八幡西区,陣原４丁目３番７号,,40,109,8070821,,,,,,,2024-01-24,1,,,,,ツバサケンセツ,0
782,2330001031694,新規,0,2024-01-24,2024-01-24,株式会社ティースサポート,,株式会社,熊本県,上天草市,大矢野町上１５０９番地６,,43,212,8693602,,,,,,,2024-01-24,1,,,,,ティースサポート,0
785,2330003010184,新規,0,2024-01-24,2024-01-24,合同会社ＯＲＩＧＩＮ,,合同会社,熊本県,熊本市中央区,黒髪３丁目１０番３号,,43,101,8600862,,,,,,,2024-01-24,1,,,,,オリジン,0
786,2340001026231,新規,0,2024-01-24,2024-01-24,株式会社ＡＣＣＥＳＳ,,株式会社,鹿児島県,薩摩川内市,宮崎町２５１６番地３,,46,215,8950013,,,,,,,2024-01-24,1,,,,,アクセス,0
798,2360003013639,新規,0,2024-01-24,2024-01-24,合同会社コミュニティライフ,,合同会社,沖縄県,沖縄市,比屋根２丁目２番２０号,,47,211,9042173,,,,,,,2024-01-24,1,,,,,コミュニティライフ,0
799,2370001050864,新規,0,2024-01-24,2024-01-24,株式会社ＥＮ,,株式会社,宮城県,仙台市泉区,実沢字釜ケ沢前沢７番１１号,,04,105,9813217,,,,,,,2024-01-24,1,,,,,エン,0
802,2390001017498,新規,0,2024-01-24,2024-01-24,株式会社改翔,,株式会社,山形県,新庄市,大字泉田字泉田４０２,,06,205,9995103,,,,,,,2024-01-24,1,,,,,カイト,0
805,2410005006560,新規,0,2024-01-24,2024-01-24,一般社団法人ＷＥ　ＬＯＶＥ　ＡＫＩＴＡ,,その他の設立登記法人,秋田県,秋田市,大町４丁目４番１１－１２０６号,,05,201,0100921,,,,,,,2024-01-24,1,,,,,ウィラブアキタ,0
806,2420001018567,新規,0,2024-01-24,2024-01-24,株式会社のうざんファーム,,株式会社,青森県,黒石市,大字高舘字甲松坂４番地３,00133467,02,204,0360535,,,,,,,2024-01-24,1,,,,,ノウザンファーム,0
824,2430001090920,新規,0,2024-01-24,2024-01-24,株式会社ＳＵＭＡＣＩＡ,,株式会社,北海道,札幌市中央区,南三条西８丁目２番１号ＳＡＫＵＲＡ－Ｓ３　Ｋ室,,01,101,0600063,,,,,,,2024-01-24,1,,,,,スマシア,0
843,2480001012366,新規,0,2024-01-24,2024-01-24,株式会社Ｓｕｎｎｙ,,株式会社,徳島県,鳴門市,鳴門町土佐泊浦字土佐泊７０番地,,36,202,7720053,,,,,,,2024-01-24,1,,,,,サニー,0
845,2480003002076,新規,0,2024-01-24,2024-01-24,ＴＹＭ合同会社,,合同会社,徳島県,板野郡北島町,鯛浜字西ノ須７４番地５,,36,402,7710204,,,,,,,2024-01-24,1,,,,,ティーワイエム,0
870,3010001241597,新規,0,2024-01-24,2024-01-24,株式会社ｒｅｎｏ．,,株式会社,東京都,中央区,日本橋富沢町３－１０ライテック日本橋２０１,,13,102,1030006,,,,,,,2024-01-24,1,,,,,レノ,0
871,3010001241696,新規,0,2024-01-24,2024-01-24,株式会社ＳＴＯＣＫ１４３,,株式会社,東京都,千代田区,永田町２丁目１２番４号,,13,101,1000014,,,,,,,2024-01-24,1,,,,,ストックヒャクヨンジュウサン,0
872,3010001241762,新規,0,2024-01-24,2024-01-24,株式会社ｔｏｍａｒｙ,,株式会社,東京都,中央区,銀座１丁目１２－４Ｎ＆ＥＢＬＤ．７階,,13,102,1040061,,,,,,,2024-01-24,1,,,,,トマリー,0
875,3010005037769,新規,0,2024-01-24,2024-01-24,ソーラーニーチェホールディングス一般社団法人,,その他の設立登記法人,東京都,中央区,八丁堀４丁目２番１０号ＡＯＪ税理士法人内,,13,102,1040032,,,,,,,2024-01-24,1,,,,,ソーラーニーチェホールディングス,0
876,3010005037785,新規,0,2024-01-24,2024-01-24,ラム３一般社団法人,,その他の設立登記法人,東京都,中央区,日本橋１丁目４番１号日本橋一丁目ビルディング,,13,102,1030027,,,,,,,2024-01-24,1,,,,,ラムサン,0
877,3010005037793,新規,0,2024-01-24,2024-01-24,一般社団法人Ｐｅａｃｅｆｕｌ　Ｇａｒｄｅｎ,,その他の設立登記法人,東京都,中央区,銀座４丁目１０番１４号銀座４ビルディング１１階,,13,102,1040061,,,,,,,2024-01-24,1,,,,,ピースフルガーデン,0
888,3010401179850,新規,0,2024-01-24,2024-01-24,Ｓｃｕｌｄ株式会社,,株式会社,東京都,港区,北青山１丁目３番１号アールキューブ青山３階,,13,103,1070061,,,,,,,2024-01-24,1,,,,,スクルド,0
889,3010401179891,新規,0,2024-01-24,2024-01-24,ＣＭＫ　Ｐａｒｔｎｅｒｓ株式会社,,株式会社,東京都,港区,赤坂３丁目１９－１東京農村４Ｆ,,13,103,1070052,,,,,,,2024-01-24,1,,,,,シーエムケーパートナーズ,0
890,3010401179917,新規,0,2024-01-24,2024-01-24,株式会社ｙｏｕｎａｐ,,株式会社,東京都,港区,北青山１丁目３番１号アールキューブ青山３階,,13,103,1070061,,,,,,,2024-01-24,1,,,,,ユーナップ,0
891,3010401179925,新規,0,2024-01-24,2024-01-24,露鎧株式会社,,株式会社,東京都,港区,芝大門２丁目１－１８ＧＳハイム芝大門６０９号室,,13,103,1050012,,,,,,,2024-01-24,1,,,,,ロカイ,0
892,3010401179974,新規,0,2024-01-24,2024-01-24,株式会社ＫＥＩＧＡＮ,,株式会社,東京都,港区,赤坂８丁目４－１４,,13,103,1070052,,,,,,,2024-01-24,1,,,,,,0
895,3010403031778,新規,0,2024-01-24,2024-01-24,リート合同会社,,合同会社,東京都,港区,南青山２丁目２６番３７号,,13,103,1070062,,,,,,,2024-01-24,1,,,,,リート,0
897,3010501051678,新規,0,2024-01-24,2024-01-24,有花エステート株式会社,,株式会社,東京都,台東区,上野２丁目１１番２０号アミューズたんぽぽビル,,13,106,1100005,,,,,,,2024-01-24,1,,,,,ユカエステート,0
900,3010603010490,新規,0,2024-01-24,2024-01-24,合同会社サスペナ,,合同会社,東京都,墨田区,文花１丁目１８番１３号,,13,107,1310044,,,,,,,2024-01-24,1,,,,,サスペナ,0
901,3010603010607,新規,0,2024-01-24,2024-01-24,合同会社ライフサポートそれいゆ,,合同会社,東京都,江東区,東陽５丁目１５番３号プラーズ東陽,,13,108,1350016,,,,,,,2024-01-24,1,,,,,ライフサポートソレイユ,0
903,3010701045447,新規,0,2024-01-24,2024-01-24,ＴＴキッズウェル株式会社,,株式会社,東京都,品川区,上大崎３丁目１番２－４０７号,,13,109,1410021,,,,,,,2024-01-24,1,,,,,ティティキッズウェル,0
915,3011003018348,新規,0,2024-01-24,2024-01-24,合同会社Ｅｖｅｒ　ＧｒｅｅＮ,,合同会社,東京都,渋谷区,恵比寿西２丁目４－８ウィンド恵比寿ビル８階,,13,113,1500021,,,,,,,2024-01-24,1,,,,,エバーグリーン,0
916,3011003018372,新規,0,2024-01-24,2024-01-24,雨宮設備合同会社,,合同会社,東京都,目黒区,中町２丁目３６番３号,,13,110,1530065,,,,,,,2024-01-24,1,,,,,アメミヤセツビ,0
920,3011101105907,新規,0,2024-01-24,2024-01-24,株式会社ラルキ,,株式会社,東京都,新宿区,歌舞伎町２丁目３２番７号,,13,104,1600021,,,,,,,2024-01-24,1,,,,,ラルキ,0
924,3011201025187,新規,0,2024-01-24,2024-01-24,株式会社ＴｅｎｊｏｙＪａｐａｎ,,株式会社,東京都,中野区,本町２丁目４６番４号中野坂上サンブライトアネックス４０１,,13,114,1640012,,,,,,,2024-01-24,1,,,,,テンジョイジャパン,0
925,3011203004288,新規,0,2024-01-24,2024-01-24,Ｂ．Ｏ．Ｂ　ＣＯＭＰＡＮＹ合同会社,,合同会社,東京都,中野区,弥生町３丁目２４－２０,,13,114,1640013,,,,,,,2024-01-24,1,,,,,ビーオービーカンパニー,0
928,3011301029352,新規,0,2024-01-24,2024-01-24,株式会社ハウスピース・フィールド,,株式会社,東京都,杉並区,高円寺南４丁目２７番１７号恒陽サンクレスト高円寺３０１,,13,115,1660003,,,,,,,2024-01-24,1,,,,,ハウスピースフィールド,0
930,3011401025796,新規,0,2024-01-24,2024-01-24,株式会社マイハート,,株式会社,東京都,板橋区,徳丸１丁目１２－１,,13,119,1750083,,,,,,,2024-01-24,1,,,,,マイハート,0
931,3011401025805,新規,0,2024-01-24,2024-01-24,築捨株式会社,,株式会社,東京都,板橋区,前野町６丁目１５－７ランドピアときわ台２０４,,13,119,1740063,,,,,,,2024-01-24,1,,,,,チクシャ,0
941,3011701026940,新規,0,2024-01-24,2024-01-24,ＸＦａｒｍ株式会社,,株式会社,東京都,江戸川区,東小岩１丁目２２番６号,,13,123,1330052,,,,,,,2024-01-24,1,,,,,エックスファーム,0
944,3011801043662,新規,0,2024-01-24,2024-01-24,ＺＸ株式会社,,株式会社,東京都,足立区,千住１丁目２８番１号コーポ高橋３０２号,,13,121,1200034,,,,,,,2024-01-24,1,,,,,ゼットエックス,0
945,3011801043687,新規,0,2024-01-24,2024-01-24,株式会社春,,株式会社,東京都,足立区,佐野１丁目１９番２０号,,13,121,1210053,,,,,,,2024-01-24,1,,,,,ハル,0
950,3012401041453,新規,0,2024-01-24,2024-01-24,株式会社要商事,,株式会社,東京都,府中市,天神町３丁目１１番地の５,,13,206,1830053,,,,,,,2024-01-24,1,,,,,カナメショウジ,0
955,3013301051963,新規,0,2024-01-24,2024-01-24,株式会社ＴＫＺ,,株式会社,東京都,豊島区,池袋３丁目４５番１号ドミール・エス・ティ２０１号,,13,116,1710014,,,,,,,2024-01-24,1,,,,,ティーケージー,0
959,3020001155474,新規,0,2024-01-24,2024-01-24,株式会社ＲＥＡＣＯ,,株式会社,神奈川県,川崎市幸区,南幸町２丁目９番地,,14,132,2120016,,,,,,,2024-01-24,1,,,,,リアコ,0
960,3020001155482,新規,0,2024-01-24,2024-01-24,小松製作所株式会社,,株式会社,神奈川県,川崎市中原区,井田中ノ町２４番３－２号,,14,133,2110034,,,,,,,2024-01-24,1,,,,,コマツセイサクショ,0
961,3020001155499,新規,0,2024-01-24,2024-01-24,株式会社ＰＤＣ,,株式会社,神奈川県,横浜市青葉区,藤が丘１丁目１５番地４,,14,117,2270043,,,,,,,2024-01-24,1,,,,,ピーディーシー,0
970,3021001081289,新規,0,2024-01-24,2024-01-24,株式会社夢創建設,,株式会社,神奈川県,相模原市南区,大野台４丁目１２番３－３号,,14,153,2520331,,,,,,,2024-01-24,1,,,,,ムソウケンセツ,0
971,3021001081297,新規,0,2024-01-24,2024-01-24,株式会社ｈｙｐｅ,,株式会社,神奈川県,藤沢市,鵠沼藤が谷１丁目３番１５号,,14,205,2510031,,,,,,,2024-01-24,1,,,,,ハイプ,0
972,3021001081314,新規,0,2024-01-24,2024-01-24,株式会社ＡＨＡＨＡ,,株式会社,神奈川県,三浦郡葉山町,一色１１６８－１８,,14,301,2400111,,,,,,,2024-01-24,1,,,,,アハハ,0
973,3021003014065,新規,0,2024-01-24,2024-01-24,合同会社Ｏ．Ｄ．Ａ　Ｊａｐａｎ,,合同会社,神奈川県,相模原市南区,上鶴間本町３丁目１８－２７－８０２,,14,153,2520318,,,,,,,2024-01-24,1,,,,,オーディーエージャパン,0
974,3021003014073,新規,0,2024-01-24,2024-01-24,合同会社オフィス内之倉,,合同会社,神奈川県,茅ヶ崎市,汐見台３番２１－２０８号,,14,207,2530033,,,,,,,2024-01-24,1,,,,,オフィスウチノクラ,0
982,3030001158344,新規,0,2024-01-24,2024-01-24,株式会社小手指,,株式会社,埼玉県,新座市,野火止７丁目１２番３号,,11,230,3520011,,,,,,,2024-01-24,1,,,,,コテサシ,0
983,3030001158360,新規,0,2024-01-24,2024-01-24,海納実業株式会社,,株式会社,埼玉県,深谷市,萱場１番３５号,,11,218,3660818,,,,,,,2024-01-24,1,,,,,カイノウジツギョウ,0
994,3040001131878,新規,0,2024-01-24,2024-01-24,株式会社ＲＯＹ　Ｔｅｃｈｎｉｋ,,株式会社,千葉県,印西市,高花２丁目１９番地４,,12,231,2701342,,,,,,,2024-01-24,1,,,,,ロイテクニック,0
995,3040001131894,新規,0,2024-01-24,2024-01-24,株式会社ＹＯＫＯＴＡ,,株式会社,千葉県,千葉市花見川区,長作台１丁目５－１３,,12,102,2620047,,,,,,,2024-01-24,1,,,,,ヨコタ,0
996,3040001131911,新規,0,2024-01-24,2024-01-24,株式会社つなぐ,,株式会社,千葉県,茂原市,大芝３丁目１４番地１１,,12,210,2970033,,,,,,,2024-01-24,1,,,,,ツナグ,0
999,3040003024130,新規,0,2024-01-24,2024-01-24,合同会社イースタイル,,合同会社,千葉県,浦安市,猫実４丁目６番３６－３０８,,12,227,2790004,,,,,,,2024-01-24,1,,,,,イースタイル,0
1000,3040003024155,新規,0,2024-01-24,2024-01-24,合同会社ファーム,,合同会社,千葉県,銚子市,末広町２番地の２４,,12,202,2880042,,,,,,,2024-01-24,1,,,,,ファーム,0
1001,3040003024171,新規,0,2024-01-24,2024-01-24,合同会社ゴールデンハーベスト,,合同会社,千葉県,船橋市,印内町５９９－３サンライズビル２０１号室,,12,204,2730025,,,,,,,2024-01-24,1,,,,,ゴールデンハーベスト,0
1002,3040003024188,新規,0,2024-01-24,2024-01-24,カレント合同会社,,合同会社,千葉県,千葉市中央区,本千葉町１０－２３,,12,101,2600014,,,,,,,2024-01-24,1,,,,,カレント,0
1003,3050001054137,新規,0,2024-01-24,2024-01-24,株式会社ＡＴＨＵＴＯ,,株式会社,茨城県,古河市,原町１０番７号,,08,204,3060025,,,,,,,2024-01-24,1,,,,,アツト,0
1004,3050001054153,新規,0,2024-01-24,2024-01-24,株式会社Ｇ‐Ｆｏｒｅｓｔ,,株式会社,茨城県,神栖市,深芝２６９番地２,,08,232,3140148,,,,,,,2024-01-24,1,,,,,ジーフォレスト,0
1005,3050001054161,新規,0,2024-01-24,2024-01-24,株式会社本田向上企画,,株式会社,茨城県,常陸太田市,山下町１０１７番地の１２,,08,212,3130013,,,,,,,2024-01-24,1,,,,,ホンダコウジョウキカク,0
1007,3050005013378,新規,0,2024-01-24,2024-01-24,ＡＸ税理士法人,,その他の設立登記法人,茨城県,守谷市,けやき台１丁目２３番地１２,,08,224,3020128,,,,,,,2024-01-24,1,,,,,エーエックス,0
1036,3080001005426,新規,0,2024-01-24,2024-01-24,ヤマヂ株式会社,,株式会社,静岡県,静岡市駿河区,中田本町５９番２２号,,22,102,4228043,,,,,,,2024-01-24,1,,,,,ヤマヂ,0
1037,3080001026083,新規,0,2024-01-24,2024-01-24,宏英株式会社,,株式会社,静岡県,静岡市葵区,二番町３番地の８‐５０３号,,22,101,4200072,,,,,,,2024-01-24,1,,,,,コウエイ,0
1038,3080101024441,新規,0,2024-01-24,2024-01-24,株式会社後藤ステップ,,株式会社,静岡県,駿東郡小山町,大御神４０３番地,,22,344,4101308,,,,,,,2024-01-24,1,,,,,ゴトウステップ,0
1040,3080403004942,新規,0,2024-01-24,2024-01-24,Ｆ．Ｐ．Ｓ．‐ＦＥＲＮＡＮＤＩＮＨＯ　ＰＲＥＭＩＵＭ　ＳＴＵＤＩＯ合同会社,,合同会社,静岡県,浜松市中央区,老間町１６２番地ビレッジハウス老間３－３０８,,22,138,4350025,,,,,,,2024-01-24,1,,,,,エフピーエスフェルナンヂンニョプレミアムスタジオ,0
1042,3090003002478,新規,0,2024-01-24,2024-01-24,合同会社サードステージ,,合同会社,山梨県,甲斐市,龍地１４０４番地７,,19,210,4000104,,,,,,,2024-01-24,1,,,,,サードステージ,0
1043,3100003007351,新規,0,2024-01-24,2024-01-24,合名会社村山商店,,合名会社,長野県,松本市,大字神林１８９８番地,,20,202,3901243,,,,,,,2024-01-24,1,,,,,ムラヤマショウテン,0
1052,3110001038125,新規,0,2024-01-24,2024-01-24,株式会社ＴＫホールディングス,,株式会社,新潟県,南魚沼市,水尾４１７番地,,15,226,9497252,,,,,,,2024-01-24,1,,,,,ティーケーホールディングス,0
1068,3120001261592,新規,0,2024-01-24,2024-01-24,俊峰商貿株式会社,,株式会社,大阪府,大阪市淀川区,十三元今里２丁目１２番２５－１０３号,,27,123,5320028,,,,,,,2024-01-24,1,,,,,シュンホウショウボウ,0
1069,3120001261601,新規,0,2024-01-24,2024-01-24,ＮＥＷ　ＳＴＡＲ株式会社,,株式会社,大阪府,大阪市福島区,大開３丁目２－１９宝マンション２０２,,27,103,5530007,,,,,,,2024-01-24,1,,,,,ニュースター,0
1070,3120001261618,新規,0,2024-01-24,2024-01-24,株式会社インテグリティ,,株式会社,大阪府,大阪市住吉区,苅田８丁目４番５号,,27,120,5580011,,,,,,,2024-01-24,1,,,,,インテグリティ,0
1073,3120003025756,新規,0,2024-01-24,2024-01-24,合同会社ＯＮＧ　ＴＲＯＣ,,合同会社,大阪府,大阪市西淀川区,野里１丁目２８番２１号２階２Ｂ号室,,27,113,5550024,,,,,,,2024-01-24,1,,,,,オングチョック,0
1076,3120101068954,新規,0,2024-01-24,2024-01-24,株式会社Ａ＆Ｇ,,株式会社,大阪府,堺市中区,毛穴町３２４番地４１,,27,142,5998266,,,,,,,2024-01-24,1,,,,,エーアンドジー,0
1087,3122001037758,新規,0,2024-01-24,2024-01-24,アルファエステート株式会社,,株式会社,大阪府,東大阪市,日下町４丁目１番４２号１Ｆ,,27,227,5798003,,,,,,,2024-01-24,1,,,,,アルファエステート,0
1101,3130001076214,新規,0,2024-01-24,2024-01-24,株式会社ハイスタンダード,,株式会社,京都府,京都市中京区,三条猪熊町６４５番地１,,26,104,6048334,,,,,,,2024-01-24,1,,,,,ハイスタンダード,0
1118,3180001076085,新規,0,2024-01-24,2024-01-24,株式会社大丸,,株式会社,愛知県,小牧市,村中新町７８番地,,23,219,4850083,,,,,,,2024-01-24,1,,,,,ダイマル,0
1121,3180001159906,新規,0,2024-01-24,2024-01-24,株式会社スズワンビル,,株式会社,愛知県,名古屋市中区,錦１丁目６番３号,,23,106,4600003,,,,,,,2024-01-24,1,,,,,スズワンビル,0
1122,3180001159914,新規,0,2024-01-24,2024-01-24,株式会社絆工業,,株式会社,愛知県,春日井市,稲口町４丁目５番地１３,,23,206,4860905,,,,,,,2024-01-24,1,,,,,キズナコウギョウ,0
1124,3180301038256,新規,0,2024-01-24,2024-01-24,株式会社アンパサンド,,株式会社,愛知県,知立市,南陽２丁目３３番地,,23,225,4720004,,,,,,,2024-01-24,1,,,,,アンパサンド,0
1141,3240001062707,新規,0,2024-01-24,2024-01-24,株式会社Ｃｙｂｒｉｄ,,株式会社,広島県,広島市中区,大手町１丁目１－２０相生橋ビル７階Ａ号室,,34,101,7300051,,,,,,,2024-01-24,1,,,,,サイブリッド,0
1153,3240003006505,新規,0,2024-01-24,2024-01-24,合同会社ＭＡＴＳＵＴＡＮＩ,,合同会社,広島県,広島市南区,上東雲町２番１２－３０１号,,34,103,7340021,,,,,,,2024-01-24,1,,,,,マツタニ,0
1164,3260001038688,新規,0,2024-01-24,2024-01-24,株式会社さくらジャンプ,,株式会社,岡山県,岡山市北区,東島田町１丁目３番２３号,,33,101,7000983,,,,,,,2024-01-24,1,,,,,サクラジャンプ,0
1181,3280005007588,新規,0,2024-01-24,2024-01-24,一般社団法人日本ミツバチを愛する人の集い,,その他の設立登記法人,島根県,雲南市,木次町寺領１１５２番地１,,32,209,6991322,,,,,,,2024-01-24,1,,,,,ニホンミツバチヲアイスルヒトノツドイ,0
1184,3290001104470,新規,0,2024-01-24,2024-01-24,株式会社音エステート,,株式会社,福岡県,福岡市中央区,舞鶴１丁目４番２９号ヴィラージュ天神２０５,,40,133,8100073,,,,,,,2024-01-24,1,,,,,オトエステート,0
1185,3290001104487,新規,0,2024-01-24,2024-01-24,Ｋ‐ｃｏｎｎｅｃｔ株式会社,,株式会社,福岡県,筑後市,大字長浜２０２６番地３,,40,211,8330005,,,,,,,2024-01-24,1,,,,,ケーコネクト,0
1191,3290003014899,新規,0,2024-01-24,2024-01-24,合同会社ＯＮＥえにし,,合同会社,福岡県,福岡市東区,香椎駅前３丁目１７番２１号鎧坂ハイツ２０９号,,40,131,8130013,,,,,,,2024-01-24,1,,,,,ワンエニシ,0
1196,3310001018817,新規,0,2024-01-24,2024-01-24,株式会社建築日和,,株式会社,長崎県,西海市,西海町川内郷１２９０番地１,,42,212,8513502,,,,,,,2024-01-24,1,,,,,ケンチクビヨリ,0
1201,3340001026239,新規,0,2024-01-24,2024-01-24,Ｂｌａｃｋｓｔｏｎｅ株式会社,,株式会社,鹿児島県,志布志市,有明町野神３４４８番地１,,46,221,8997512,,,,,,,2024-01-24,1,,,,,ブラックストーン,0
1202,3340005009693,新規,0,2024-01-24,2024-01-24,農事組合法人ルターの木,,その他の設立登記法人,鹿児島県,垂水市,本町４８番地２,,46,214,8912123,,,,,,,2024-01-24,1,,,,,ルターノキ,0
1205,3350001018763,新規,0,2024-01-24,2024-01-24,株式会社Ｇａｒｄｅｎ夢家,,株式会社,宮崎県,東臼杵郡門川町,大字門川尾末９２７６番地２,,45,421,8890611,,,,,,,2024-01-24,1,,,,,ガーデンユメヤ,0
1214,3360001033068,新規,0,2024-01-24,2024-01-24,株式会社Ａｔａｒ,,株式会社,沖縄県,中頭郡嘉手納町,字嘉手納４８１番地,,47,325,9040203,,,,,,,2024-01-24,1,,,,,アタール,0
1220,3380001034262,新規,0,2024-01-24,2024-01-24,株式会社ＴＳＹ,,株式会社,福島県,いわき市,泉町下川字八合９１番地の１,,07,204,9718183,,,,,,,2024-01-24,1,,,,,ティーエスワイ,0
1222,3390001017497,新規,0,2024-01-24,2024-01-24,株式会社これからもありがとう,,株式会社,山形県,寒河江市,本町２丁目４番２２号,,06,206,9910031,,,,,,,2024-01-24,1,,,,,コレカラモアリガトウ,0
1228,3420001018574,新規,0,2024-01-24,2024-01-24,アイ電装株式会社,,株式会社,青森県,つがる市,柏鷺坂村留３２番地８ハウス３２　Ｃ号室,,02,209,0383101,,,,,,,2024-01-24,1,,,,,アイデンソウ,0
1252,3450001014208,新規,0,2024-01-24,2024-01-24,株式会社椿,,株式会社,北海道,旭川市,東二条２丁目４番１０号３階,,01,204,0700022,,,,,,,2024-01-24,1,,,,,ツバキ,0
1253,3480003002075,新規,0,2024-01-24,2024-01-24,合同会社キジトラ,,合同会社,徳島県,板野郡北島町,中村字岸ノ上１番地２５３,,36,402,7710203,,,,,,,2024-01-24,1,,,,,キジトラ,0
1267,3700150122982,新規,0,2024-01-24,2023-12-21,こどもＭＩＲＡＩ基金きしわだ,,その他,大阪府,岸和田市,臨海町２０－１８,,27,202,5960013,,,,,,,2023-12-21,1,,,,,コドモミライキキンキシワダ,0
1272,4010001241687,新規,0,2024-01-24,2024-01-24,ＰＭ株式会社,,株式会社,東京都,中央区,日本橋室町１丁目１１番１２号日本橋水野ビル７階,,13,102,1030022,,,,,,,2024-01-24,1,,,,,ピーエム,0
1273,4010001241695,新規,0,2024-01-24,2024-01-24,株式会社ＳＴＯＣＫ１４２,,株式会社,東京都,千代田区,永田町２丁目１２番４号,,13,101,1000014,,,,,,,2024-01-24,1,,,,,ストックヒャクヨンジュウニ,0
1274,4010001241712,新規,0,2024-01-24,2024-01-24,Ｓａｓａｋｉ株式会社,,株式会社,東京都,中央区,勝どき５丁目１２番４－１２０５号,,13,102,1040054,,,,,,,2024-01-24,1,,,,,ササキ,0
1275,4010001241737,新規,0,2024-01-24,2024-01-24,ＤＡＩＪＯＢＵ株式会社,,株式会社,東京都,文京区,本郷４丁目１－３明和本郷ビル７階,,13,105,1130033,,,,,,,2024-01-24,1,,,,,ダイジョウブ,0
1276,4010001241753,新規,0,2024-01-24,2024-01-24,豊洲社中株式会社,,株式会社,東京都,千代田区,有楽町１丁目５－２東宝日比谷プロムナードビル１１階,,13,101,1000006,,,,,,,2024-01-24,1,,,,,トヨスシャチュウ,0
1281,4010003042745,新規,0,2024-01-24,2024-01-24,Ｔａｉｌｏｒ合同会社,,合同会社,東京都,千代田区,丸の内３丁目１番１号東京共同会計事務所内,,13,101,1000005,,,,,,,2024-01-24,1,,,,,テイラー,0
1282,4010003042753,新規,0,2024-01-24,2024-01-24,合同会社台,,合同会社,東京都,中央区,銀座１丁目２２番１１号銀座大竹ビジデンス２Ｆ,,13,102,1040061,,,,,,,2024-01-24,1,,,,,ダイ,0
1283,4010005037768,新規,0,2024-01-24,2024-01-24,ソーラープラトンホールディングス一般社団法人,,その他の設立登記法人,東京都,中央区,八丁堀４丁目２番１０号ＡＯＪ税理士法人内,,13,102,1040032,,,,,,,2024-01-24,1,,,,,ソーラープラトンホールディングス,0
1284,4010005037792,新規,0,2024-01-24,2024-01-24,一般社団法人ＬＩＭ熊谷,,その他の設立登記法人,東京都,千代田区,丸の内３丁目１番１号東京共同会計事務所内,,13,101,1000005,,,,,,,2024-01-24,1,,,,,エルアイエムクマガヤ,0
1286,4010401179908,新規,0,2024-01-24,2024-01-24,株式会社ＤＡＯ,,株式会社,東京都,港区,麻布十番２丁目５番３号２Ｆ,,13,103,1060045,,,,,,,2024-01-24,1,,,,,ダオ,0
1287,4010401179924,新規,0,2024-01-24,2024-01-24,シンインダ株式会社,,株式会社,東京都,港区,芝２丁目２８番１１号ＭＫビル３０３号室,,13,103,1050014,,,,,,,2024-01-24,1,,,,,シンインダ,0
1288,4010403031769,新規,0,2024-01-24,2024-01-24,合同会社ｂｅｔｔｅｒ　ｖａｌｕｅ,,合同会社,東京都,港区,北青山１丁目３番１号アールキューブ青山３階,,13,103,1070061,,,,,,,2024-01-24,1,,,,,ベターバリュー,0
1289,4010403031777,新規,0,2024-01-24,2024-01-24,合同会社ＲＯＣＯＣＯ,,合同会社,東京都,港区,北青山１丁目３番１号アールキューブ青山３階,,13,103,1070061,,,,,,,2024-01-24,1,,,,,ロココ,0
1290,4010501051669,新規,0,2024-01-24,2024-01-24,株式会社ミヨシ,,株式会社,東京都,台東区,台東４丁目５番７号鈴木ビル４階,,13,106,1100016,,,,,,,2024-01-24,1,,,,,ミヨシ,0
1291,4010501051677,新規,0,2024-01-24,2024-01-24,梨絵エステート株式会社,,株式会社,東京都,台東区,上野２丁目１１番２０号アミューズたんぽぽビル,,13,106,1100005,,,,,,,2024-01-24,1,,,,,リエエステート,0
1293,4010601064439,新規,0,2024-01-24,2024-01-24,株式会社ＪＰ　ＴＲＡＤＩＮＧ,,株式会社,東京都,江東区,塩浜２丁目５－１－１２０ニューライフマンション木場,,13,108,1350043,,,,,,,2024-01-24,1,,,,,ジェーピートレーディング,0
1300,4010701045446,新規,0,2024-01-24,2024-01-24,ＴＴＳ株式会社,,株式会社,東京都,品川区,上大崎３丁目１－２－４０７,,13,109,1410021,,,,,,,2024-01-24,1,,,,,ティティエス,0
1304,4010801034695,新規,0,2024-01-24,2024-01-24,ＹｏｌｏＰａｃｅ株式会社,,株式会社,東京都,大田区,西六郷３丁目２９番１６号,,13,111,1440056,,,,,,,2024-01-24,1,,,,,ユーロペース,0
1305,4010801034729,新規,0,2024-01-24,2024-01-24,株式会社ＳＲＩ,,株式会社,東京都,大田区,平和島６丁目１－１,,13,111,1430006,,,,,,,2024-01-24,1,,,,,エスアールアイ,0
1312,4011001159548,新規,0,2024-01-24,2024-01-24,株式会社ａｍ,,株式会社,東京都,渋谷区,道玄坂１丁目１０番８号渋谷道玄坂東急ビル２Ｆ－Ｃ,,13,113,1500043,,,,,,,2024-01-24,1,,,,,エイエム,0
1313,4011001159556,新規,0,2024-01-24,2024-01-24,株式会社クロスリンク,,株式会社,東京都,渋谷区,恵比寿西２丁目４番８号ウィンド恵比寿ビル８Ｆ,,13,113,1500021,,,,,,,2024-01-24,1,,,,,クロスリンク,0
1314,4011003018289,新規,0,2024-01-24,2024-01-24,かえる合同会社,,合同会社,東京都,渋谷区,代々木２丁目３０－４,,13,113,1510053,,,,,,,2024-01-24,1,,,,,カエル,0
1315,4011003018339,新規,0,2024-01-24,2024-01-24,合同会社昇,,合同会社,東京都,渋谷区,恵比寿西２丁目４番８号ウィンド恵比寿ビル８Ｆ,,13,113,1500021,,,,,,,2024-01-24,1,,,,,ノボル,0
1316,4011003018355,新規,0,2024-01-24,2024-01-24,Ｉｍｈｏｔｅｐ合同会社,,合同会社,東京都,渋谷区,恵比寿４丁目２０番３号恵比寿ガーデンプレイスタワー１８階,,13,113,1500013,,,,,,,2024-01-24,1,,,,,インホテップ,0
1323,4011101105856,新規,0,2024-01-24,2024-01-24,株式会社セカンドベル,,株式会社,東京都,新宿区,荒木町７番地,,13,104,1600007,,,,,,,2024-01-24,1,,,,,セカンドベル,0
1324,4011101105906,新規,0,2024-01-24,2024-01-24,株式会社クレスクント,,株式会社,東京都,新宿区,西新宿３丁目３番１３号西新宿水間ビル２Ｆ,,13,104,1600023,,,,,,,2024-01-24,1,,,,,クレスクント,0
1325,4011101105914,新規,0,2024-01-24,2024-01-24,株式会社ＧＡＲＤＥＮ,,株式会社,東京都,新宿区,大京町２６番地１の３０２,,13,104,1600015,,,,,,,2024-01-24,1,,,,,ガーデン,0
1326,4011101105922,新規,0,2024-01-24,2024-01-24,Ｆａｉｔｈ　Ｇｒｉｄ株式会社,,株式会社,東京都,新宿区,西新宿７丁目２２番１号上野ビル１０２,,13,104,1600023,,,,,,,2024-01-24,1,,,,,フェイスグリッド,0
1327,4011101105930,新規,0,2024-01-24,2024-01-24,株式会社ＡＳＨ　ＷＩＮＤＥＲ　ＴＥＣＨＮＯＬＯＧＩＥＳ,,株式会社,東京都,新宿区,高田馬場２丁目１８番１１号５階,,13,104,1690075,,,,,,,2024-01-24,1,,,,,アッシュウィンダーテクノロジーズ,0
1329,4011103013999,新規,0,2024-01-24,2024-01-24,Ｍマネジメント合同会社,,合同会社,東京都,新宿区,四谷２丁目９番地１５東京ユナイテッド綜合事務所内,,13,104,1600004,,,,,,,2024-01-24,1,,,,,エムマネジメント,0
1330,4011103014007,新規,0,2024-01-24,2024-01-24,ＫＢＩ・３ｒｄ‐２合同会社,,合同会社,東京都,新宿区,四谷坂町９番９号,,13,104,1600002,,,,,,,2024-01-24,1,,,,,ケービーアイサーアードツー,0
1331,4011103014015,新規,0,2024-01-24,2024-01-24,合同会社ＦＬＬ,,合同会社,東京都,新宿区,西新宿７丁目５番５号Ｐｌａｚａ西新宿ＵＣＦ４階,,13,104,1600023,,,,,,,2024-01-24,1,,,,,エフエルエル,0
1333,4011205002586,新規,0,2024-01-24,2024-01-24,一般社団法人在宅・オンライン診療・服薬指導普及協議会,,その他の設立登記法人,東京都,中野区,新井１丁目２４番４号,,13,114,1650026,,,,,,,2024-01-24,1,,,,,ザイタクオンラインシンリョウフクヤクシドウフキュウキョウギカイ,0
1337,4011401025804,新規,0,2024-01-24,2024-01-24,株式会社Ｍｕｓｉｃａｄｅｎｃｅ,,株式会社,東京都,板橋区,徳丸２丁目７－２６シルクハイツ徳丸２０２,,13,119,1750083,,,,,,,2024-01-24,1,,,,,ミュージックケイデンス,0
1344,4011701026956,新規,0,2024-01-24,2024-01-24,椎名製薬株式会社,,株式会社,東京都,江戸川区,平井５丁目４５番５号渡辺ハイツ１０１,,13,123,1320035,,,,,,,2024-01-24,1,,,,,シイナセイヤク,0
1346,4011801043694,新規,0,2024-01-24,2024-01-24,株式会社オフィスエム,,株式会社,東京都,足立区,扇２丁目６番１号,,13,121,1230873,,,,,,,2024-01-24,1,,,,,オフィスエム,0
1354,4012403006387,新規,0,2024-01-24,2024-01-24,合同会社ＰＨＹＳＩＳ　ＥＮＴＥＲＴＡＩＮＭＥＮＴ,,合同会社,東京都,小金井市,貫井北町４丁目１―１東京学芸大学自然科学系小林晋平研究室,,13,210,1840015,,,,,,,2024-01-24,1,,,,,ピュシスエンターテインメント,0
1355,4012801022928,新規,0,2024-01-24,2024-01-24,株式会社インテックス,,株式会社,東京都,武蔵村山市,本町４丁目２２番地８,,13,223,2080004,,,,,,,2024-01-24,1,,,,,インテックス,0
1367,4020001155457,新規,0,2024-01-24,2024-01-24,ＳｅｅｄＵＰ株式会社,,株式会社,神奈川県,川崎市中原区,新丸子町７３８番地セントラル高田ビル４０５,,14,133,2110005,,,,,,,2024-01-24,1,,,,,シーダップ,0
1368,4020001155465,新規,0,2024-01-24,2024-01-24,株式会社ＮＥＸＡＳＰＡＲＫ,,株式会社,神奈川県,横浜市都筑区,北山田１丁目１－３８,,14,118,2240021,,,,,,,2024-01-24,1,,,,,ネクサスパーク,0
1369,4020001155473,新規,0,2024-01-24,2024-01-24,株式会社Ｆｉｒｓｔｏ,,株式会社,神奈川県,川崎市幸区,南幸町２丁目９番地,,14,132,2120016,,,,,,,2024-01-24,1,,,,,ファースト,0
1373,4020003025385,新規,0,2024-01-24,2024-01-24,合同会社ＳＨＯＥＩ,,合同会社,神奈川県,横浜市鶴見区,東寺尾中台３０番１－５０６号,,14,101,2300017,,,,,,,2024-01-24,1,,,,,ショーエイ,0
1377,4021001081288,新規,0,2024-01-24,2024-01-24,株式会社ＡＴＥＬＩＥＲ,,株式会社,神奈川県,平塚市,宮の前１番６号５階,,14,203,2540035,,,,,,,2024-01-24,1,,,,,アトリエ,0
1379,4021003014064,新規,0,2024-01-24,2024-01-24,合同会社グラスヒル,,合同会社,神奈川県,平塚市,錦町５番１号,,14,203,2540044,,,,,,,2024-01-24,1,,,,,グラスヒル,0
1380,4021003014072,新規,0,2024-01-24,2024-01-24,ＣＡＬＣ合同会社,,合同会社,神奈川県,相模原市南区,若松６丁目１０－１３,,14,153,2520334,,,,,,,2024-01-24,1,,,,,カルク,0
1384,4030001158343,新規,0,2024-01-24,2024-01-24,株式会社小金井,,株式会社,埼玉県,新座市,野火止７丁目１２番３号,,11,230,3520011,,,,,,,2024-01-24,1,,,,,コガネイ,0
1393,4040003024146,新規,0,2024-01-24,2024-01-24,合同会社Ｒｉｓｅｐａｋ　Ｉｎｔｅｒｎａｔｉｏｎａｌ,,合同会社,千葉県,野田市,次木１５９リバーサイドコーポ相澤Ｂ１０２号室,,12,208,2700228,,,,,,,2024-01-24,1,,,,,ライズパックインターナショナル,0
1394,4040003024154,新規,0,2024-01-24,2024-01-24,合同会社ＥＸプローラー,,合同会社,千葉県,銚子市,中央町１８番地の９,,12,202,2880041,,,,,,,2024-01-24,1,,,,,エクスプローラー,0
1397,4050001054136,新規,0,2024-01-24,2024-01-24,株式会社ＹＵＴＯＲＩＨＡ,,株式会社,茨城県,つくば市,みどりの南１０１番地４５,,08,220,3050884,,,,,,,2024-01-24,1,,,,,ユトリハ,0
1398,4050001054169,新規,0,2024-01-24,2024-01-24,株式会社ＡＳＸＥＥＤ,,株式会社,茨城県,ひたちなか市,大字堀口６１番地１コリーナディヴェルデ１棟１０１号,,08,221,3120034,,,,,,,2024-01-24,1,,,,,アスシード,0
1406,4070001041289,新規,0,2024-01-24,2024-01-24,竹澤繊維化工株式会社,,株式会社,群馬県,桐生市,梅田町４丁目４５３番地,,10,203,3760601,,,,,,,2024-01-24,1,,,,,タケザワセンイカコウ,0
1407,4070001041314,新規,0,2024-01-24,2024-01-24,アックスラーニング株式会社,,株式会社,群馬県,渋川市,村上２３１２番地,,10,208,3770311,,,,,,,2024-01-24,1,,,,,アックスラーニング,0
1454,4120001261600,新規,0,2024-01-24,2024-01-24,宇森グローバル株式会社,,株式会社,大阪府,大阪市阿倍野区,昭和町３丁目７番８号,,27,119,5450011,,,,,,,2024-01-24,1,,,,,ウモリグローバル,0
1455,4120001261617,新規,0,2024-01-24,2024-01-24,株式会社アクセントランテ,,株式会社,大阪府,大阪市北区,堂島浜１丁目１－１５堂浜第二ビル一階,,27,127,5300004,,,,,,,2024-01-24,1,,,,,アクセントランテ,0
1457,4120003025739,新規,0,2024-01-24,2024-01-24,合同会社Ｏｍｕｓｕｂｉ,,合同会社,大阪府,大阪市東淀川区,井高野３丁目２番４６号,,27,114,5330001,,,,,,,2024-01-24,1,,,,,オムスビ,0
1458,4120003025755,新規,0,2024-01-24,2024-01-24,合同会社銀の羽根,,合同会社,大阪府,大阪市大正区,北村２丁目１１番１５号,,27,108,5510032,,,,,,,2024-01-24,1,,,,,ギンノハネ,0
1460,4120103005640,新規,0,2024-01-24,2024-01-24,合同会社Ｓｅｒｐｅｎｔｉ　Ｓｅｉ　Ｊａｐａｎ,,合同会社,大阪府,堺市西区,浜寺石津町東１丁１番４７号,,27,144,5928335,,,,,,,2024-01-24,1,,,,,サーペンティセイジャパン,0
1463,4120903005022,新規,0,2024-01-24,2024-01-24,ＴＲＣ合同会社,,合同会社,大阪府,豊中市,寺内２丁目２番２２－２０８号,,27,203,5610872,,,,,,,2024-01-24,1,,,,,ティーアールシー,0
1464,4120905006555,新規,0,2024-01-24,2024-01-24,医療法人晴朗会,,その他の設立登記法人,大阪府,高槻市,真上町１丁目３番２８号エクセル立川１階,,27,207,5691121,,,,,,,2024-01-24,1,,,,,セイロウカイ,0
1481,4130001076196,新規,0,2024-01-24,2024-01-24,株式会社１８１８,,株式会社,京都府,京都市下京区,北不動堂町５２２番地１アンビエント京都駅前４０２号室,,26,106,6008233,,,,,,,2024-01-24,1,,,,,イヤイヤ,0
1498,4160001025654,新規,0,2024-01-24,2024-01-24,株式会社てしおごころ,,株式会社,滋賀県,甲賀市,水口町宇田１１７１番地,,25,209,5280053,,,,,,,2024-01-24,1,,,,,テシオゴコロ,0
1504,4180001159871,新規,0,2024-01-24,2024-01-24,中日本工機株式会社,,株式会社,愛知県,名古屋市中川区,牛立町４丁目６９番地の２,,23,110,4540043,,,,,,,2024-01-24,1,,,,,ナカニホンコウキ,0
1505,4180001159938,新規,0,2024-01-24,2024-01-24,株式会社サンコー不動産,,株式会社,愛知県,名古屋市東区,東片端町２３番地東片端サンコービル８階,,23,102,4610015,,,,,,,2024-01-24,1,,,,,サンコーフドウサン,0
1509,4180301038255,新規,0,2024-01-24,2024-01-24,株式会社ラヴィエベル,,株式会社,愛知県,豊橋市,神野新田町字ワノ割５４番地１,,23,201,4418077,,,,,,,2024-01-24,1,,,,,ラヴィエベル,0
1512,4200001042109,新規,0,2024-01-24,2024-01-24,株式会社ＳＭＩＬＥＹ,,株式会社,岐阜県,岐阜市,西鶉５丁目５番地２,,21,201,5008286,,,,,,,2024-01-24,1,,,,,スマイリー,0
1536,4240003006504,新規,0,2024-01-24,2024-01-24,Ｎコーポレーション合同会社,,合同会社,広島県,広島市中区,昭和町３番１４－５０１号,,34,101,7300046,,,,,,,2024-01-24,1,,,,,エヌコーポレーション,0
1537,4250001020489,新規,0,2024-01-24,2024-01-24,株式会社ＳＥＩＫＹＯ,,株式会社,山口県,下関市,綾羅木南町３丁目２番１号,,35,201,7510848,,,,,,,2024-01-24,1,,,,,セイキョー,0
1546,4260001038679,新規,0,2024-01-24,2024-01-24,株式会社オークコーポレーション,,株式会社,岡山県,岡山市北区,広瀬町１５番２７号,,33,101,7000806,,,,,,,2024-01-24,1,,,,,オークコーポレーション,0
1556,4280001009109,新規,0,2024-01-24,2024-01-24,株式会社ＳｋｙＴｅｃｈ,,株式会社,島根県,松江市,末次町４５番地１,,32,201,6900846,,,,,,,2024-01-24,1,,,,,スカイテック,0
1557,4280003001807,新規,0,2024-01-24,2024-01-24,合同会社さんくす,,合同会社,島根県,出雲市,渡橋町２７７番地２,,32,203,6930004,,,,,,,2024-01-24,1,,,,,サンクス,0
1559,4290003014898,新規,0,2024-01-24,2024-01-24,合同会社アルクス,,合同会社,福岡県,福岡市博多区,博多駅前１丁目２３番２号５Ｆ－Ｂ,,40,132,8120011,,,,,,,2024-01-24,1,,,,,アルクス,0
1565,4310001018824,新規,0,2024-01-24,2024-01-24,のぞみ電工株式会社,,株式会社,長崎県,佐世保市,庵浦町２３２４番地,,42,202,8571233,,,,,,,2024-01-24,1,,,,,ノゾミデンコウ,0
1566,4310003004715,新規,0,2024-01-24,2024-01-24,合同会社直美ｖｅｔ　ＩＣ,,合同会社,長崎県,長崎市,油木町３５番６０号ビーンヒルズホンダ３０１,,42,201,8528035,,,,,,,2024-01-24,1,,,,,ナオミヴェットアイシー,0
1567,4320001020234,新規,0,2024-01-24,2024-01-24,東海興業九州株式会社,,株式会社,大分県,宇佐市,大字上田２１１１番地の１,,44,211,8790453,,,,,,,2024-01-24,1,,,,,トウカイコウギョウキュウシュウ,0
1574,4330003010182,新規,0,2024-01-24,2024-01-24,合同会社ｒｓｋ,,合同会社,熊本県,熊本市西区,上代１０丁目１０番６１号,,43,103,8600068,,,,,,,2024-01-24,1,,,,,アールエスケー,0
1585,4360001033083,新規,0,2024-01-24,2024-01-24,Ｈ２ＫＴ株式会社,,株式会社,沖縄県,宜野湾市,宜野湾３丁目１３番８号４１７号室,,47,205,9012211,,,,,,,2024-01-24,1,,,,,エイチツーケーティー,0
1586,4360001033109,新規,0,2024-01-24,2024-01-24,旭賀国際株式会社,,株式会社,沖縄県,那覇市,安謝１丁目２番地２１号アーバンウェスト秋桜２０１号室,,47,201,9000003,,,,,,,2024-01-24,1,,,,,アサガコクサイ,0
1589,4360003013629,新規,0,2024-01-24,2024-01-24,合同会社ＥｔｅｒｎａｌＦｉｅｌｄ,,合同会社,沖縄県,国頭郡恩納村,字仲泊７５４番地３,,47,311,9040415,,,,,,,2024-01-24,1,,,,,エターナルフィールド,0
1590,4370001050854,新規,0,2024-01-24,2024-01-24,株式会社Ｎ‐１,,株式会社,宮城県,石巻市,沢田字平形山根１３番地,,04,202,9862102,,,,,,,2024-01-24,1,,,,,エヌワン,0
1591,4370001050862,新規,0,2024-01-24,2024-01-24,株式会社ＲＡＭＳ　ＲＵＮＫ,,株式会社,宮城県,仙台市若林区,上飯田２丁目１８－５８,,04,103,9840838,,,,,,,2024-01-24,1,,,,,ラムズランク,0
1592,4370003006458,新規,0,2024-01-24,2024-01-24,合同会社ＬＩＴ,,合同会社,宮城県,岩沼市,土ケ崎４丁目１２番４０－２０号,,04,211,9892451,,,,,,,2024-01-24,1,,,,,リット,0
1595,4380001034253,新規,0,2024-01-24,2024-01-24,株式会社リボーン,,株式会社,福島県,河沼郡湯川村,大字浜崎字城東１６００番地１７,,07,422,9693541,,,,,,,2024-01-24,1,,,,,リボーン,0
1596,4390003002199,新規,0,2024-01-24,2024-01-24,合同会社合掌コーポレーション,,合同会社,山形県,酒田市,木川字東中道３３番地の３,,06,204,9997773,,,,,,,2024-01-24,1,,,,,ガッショウコーポレーション,0
1598,4410005006559,新規,0,2024-01-24,2024-01-24,八幡平ポーク協同組合,,その他の設立登記法人,秋田県,鹿角市,八幡平字長川６０番地３,,05,209,0185141,,,,,,,2024-01-24,1,,,,,,0
1609,4430001090902,新規,0,2024-01-24,2024-01-24,株式会社Ｓコーポレーション,,株式会社,北海道,札幌市中央区,北六条西１９丁目２３番６号,,01,101,0600006,,,,,,,2024-01-24,1,,,,,エスコーポレーション,0
1621,4430003015881,新規,0,2024-01-24,2024-01-24,合同会社つかさ総合企画,,合同会社,北海道,札幌市北区,新琴似十条１丁目５－１７,,01,102,0010910,,,,,,,2024-01-24,1,,,,,ツカサソウゴウキカク,0
1624,4430005014881,新規,0,2024-01-24,2024-01-24,一般社団法人ｉｂｕｋｉ,,その他の設立登記法人,北海道,江別市,大麻ひかり町１９－１０,,01,217,0690847,,,,,,,2024-01-24,1,,,,,イブキ,0
1626,4460401001010,新規,0,2024-01-24,2024-01-24,株式会社照井石油商会,,株式会社,北海道,根室市,西浜町１丁目４０番地,,01,223,0870025,,,,,,,2024-01-24,1,,,,,,0
1627,4480001012364,新規,0,2024-01-24,2024-01-24,ＫＹＲＴホールディングス株式会社,,株式会社,徳島県,板野郡松茂町,豊久字豊久開拓５００番８,,36,401,7710213,,,,,,,2024-01-24,1,,,,,ケーワイアールティーホールディングス,0
1629,4480003002074,新規,0,2024-01-24,2024-01-24,アグリコンセプト合同会社,,合同会社,徳島県,阿波市,市場町興崎字南分３１７－７,,36,206,7711622,,,,,,,2024-01-24,1,,,,,アグリコンセプト,0
1642,4700150123542,新規,0,2024-01-24,2024-01-24,ＳｍａｒｔＭｅｇｕｒｏ　Ｐｔｅ．Ｌｔｄ,,外国会社等,,,,,,,,２３８ＡＴｈｏｍｓｏｎＲｏａｄ，＃２５ー０７ＮｏｖｅｎａＳｑｕａｒｅ，Ｓｉｎｇａｐｏｒｅ，３０７６８４,,,,,,2024-01-24,1,,,,,スマートメグロピーテイーイーエルテイーデイー,0
1649,5010001241645,新規,0,2024-01-24,2024-01-24,株式会社ｂｕｔｔｅｒｆｌｙ　ｋｉｓｓｉｎｇ,,株式会社,東京都,中央区,日本橋馬喰町２丁目４番１５－１２０２号,,13,102,1030002,,,,,,,2024-01-24,1,,,,,バタフライキッシング,0
1650,5010001241661,新規,0,2024-01-24,2024-01-24,百味株式会社,,株式会社,東京都,千代田区,神田三崎町３丁目４－８ヤマダビル１０１,,13,101,1010061,,,,,,,2024-01-24,1,,,,,ヒャクミ,0
1651,5010001241678,新規,0,2024-01-24,2024-01-24,高島インダストリーズ株式会社,,株式会社,東京都,千代田区,神田駿河台３丁目４番地,,13,101,1010062,,,,,,,2024-01-24,1,,,,,タカシマインダストリーズ,0
1652,5010001241694,新規,0,2024-01-24,2024-01-24,株式会社ＳＴＯＣＫ１４１,,株式会社,東京都,千代田区,永田町２丁目１２番４号,,13,101,1000014,,,,,,,2024-01-24,1,,,,,ストックヒャクヨンジュウイチ,0
1653,5010001241703,新規,0,2024-01-24,2024-01-24,株式会社ＳＴＯＣＫ１５０,,株式会社,東京都,千代田区,永田町２丁目１２番４号,,13,101,1000014,,,,,,,2024-01-24,1,,,,,ストックヒャクゴジュウ,0
1654,5010001241711,新規,0,2024-01-24,2024-01-24,Ｍｉｙａｎｏ株式会社,,株式会社,東京都,中央区,勝どき５丁目１２番４－１１０３号,,13,102,1040054,,,,,,,2024-01-24,1,,,,,ミヤノ,0
1655,5010001241760,新規,0,2024-01-24,2024-01-24,マリベル・ホールディングス株式会社,,株式会社,東京都,中央区,日本橋久松町４－１２コスギビル５階,,13,102,1030005,,,,,,,2024-01-24,1,,,,,マリベルホールディングス,0
1659,5010003042728,新規,0,2024-01-24,2024-01-24,ＢＳアクト開発合同会社,,合同会社,東京都,中央区,八丁堀４丁目２番１０号ＡＯＪ税理士法人内,,13,102,1040032,,,,,,,2024-01-24,1,,,,,ビーエスアクトカイハツ,0
1660,5010003042760,新規,0,2024-01-24,2024-01-24,合同会社メディアークス,,合同会社,東京都,中央区,銀座１丁目２２－１１銀座大竹ビジデンス２Ｆ,,13,102,1040061,,,,,,,2024-01-24,1,,,,,メディアークス,0
1663,5010005037791,新規,0,2024-01-24,2024-01-24,ＨＫロジスティクス一般社団法人,,その他の設立登記法人,東京都,千代田区,丸の内３丁目１番１号東京共同会計事務所内,,13,101,1000005,,,,,,,2024-01-24,1,,,,,エイチケイロジスティクス,0
1671,5010401179881,新規,0,2024-01-24,2024-01-24,ＧＲＥＥＮＦＩＬＴＥＣ株式会社,,株式会社,東京都,港区,赤坂２丁目８番１４－４０７号,,13,103,1070052,,,,,,,2024-01-24,1,,,,,グリーンフィルテック,0
1679,5010601064512,新規,0,2024-01-24,2024-01-24,Ｗａｒｐ　ｄｒｉｖｅ株式会社,,株式会社,東京都,江東区,深川１丁目１番２号、協和ビル２階ハローオフィス門前仲町５号室,,13,108,1350033,,,,,,,2024-01-24,1,,,,,ワープドライブ,0
1685,5010901054584,新規,0,2024-01-24,2024-01-24,株式会社ＬＩＭ,,株式会社,東京都,世田谷区,大原２丁目１番１４号フローラルハイツ３０１,,13,112,1560041,,,,,,,2024-01-24,1,,,,,リム,0
1688,5010903008720,新規,0,2024-01-24,2024-01-24,合同会社山屋,,合同会社,東京都,世田谷区,代田６丁目１４番１１号２号棟,,13,112,1550033,,,,,,,2024-01-24,1,,,,,ヤマヤ,0
1693,5011001159480,新規,0,2024-01-24,2024-01-24,株式会社ボースマン,,株式会社,東京都,渋谷区,恵比寿１丁目３５番７号メゾン恵比寿通り２０１,,13,113,1500013,,,,,,,2024-01-24,1,,,,,ボースマン,0
1694,5011001159547,新規,0,2024-01-24,2024-01-24,株式会社ｍａｒｓｋｅｙ,,株式会社,東京都,目黒区,中目黒３丁目６番２号中目黒Ｆ・Ｓビル５階,,13,110,1530061,,,,,,,2024-01-24,1,,,,,マーズキー,0
1695,5011001159555,新規,0,2024-01-24,2024-01-24,株式会社三花,,株式会社,東京都,渋谷区,神宮前４丁目１３番２号ＨＡＰ表参道ビル,,13,113,1500001,,,,,,,2024-01-24,1,,,,,サンカ,0
1696,5011001159571,新規,0,2024-01-24,2024-01-24,株式会社Ｇｒｏｗｉｚ,,株式会社,東京都,渋谷区,恵比寿西２丁目４番８号ウィンド恵比寿ビル８Ｆ,,13,113,1500021,,,,,,,2024-01-24,1,,,,,グローウィズ,0
1697,5011001159613,新規,0,2024-01-24,2024-01-24,ｎｅｏ終活株式会社,,株式会社,東京都,渋谷区,恵比寿西２丁目８番４号,,13,113,1500021,,,,,,,2024-01-24,1,,,,,ネオシュウカツ,0
1698,5011003018338,新規,0,2024-01-24,2024-01-24,合同会社ジャンクポット,,合同会社,東京都,目黒区,五本木１丁目１番３号,,13,110,1530053,,,,,,,2024-01-24,1,,,,,ジャンクポット,0
1699,5011003018362,新規,0,2024-01-24,2024-01-24,合同会社ねこまんま,,合同会社,東京都,渋谷区,渋谷１丁目７番１－２０２号パークハビオ青山,,13,113,1500002,,,,,,,2024-01-24,1,,,,,ネコマンマ,0
1701,5011101105839,新規,0,2024-01-24,2024-01-24,Ｂｊａｋ　Ｊａｐａｎ　Ｈｏｌｄｉｎｇｓ株式会社,,株式会社,東京都,新宿区,市谷本村町２番３号ＮＯＶＥＬＷＯＲＫＩｃｈｉｇａｙａ８階,,13,104,1620845,,,,,,,2024-01-24,1,,,,,ビジャックジャパンホールディングス,0
1702,5011101105921,新規,0,2024-01-24,2024-01-24,株式会社メディカル・オーシャン,,株式会社,東京都,新宿区,高田馬場３丁目１３番２号ＴＳＥＣビル４階,,13,104,1690075,,,,,,,2024-01-24,1,,,,,メディカルオーシャン,0
1703,5011101105946,新規,0,2024-01-24,2024-01-24,株式会社にしき,,株式会社,東京都,新宿区,歌舞伎町１丁目２番７号,,13,104,1600021,,,,,,,2024-01-24,1,,,,,ニシキ,0
1704,5011103014014,新規,0,2024-01-24,2024-01-24,合同会社ベル,,合同会社,東京都,新宿区,新宿７丁目１２番１号新宿平和ビル１階,,13,104,1600022,,,,,,,2024-01-24,1,,,,,ベル,0
1720,5011703003721,新規,0,2024-01-24,2024-01-24,合同会社アスター,,合同会社,東京都,江戸川区,西葛西６丁目１３番１号西葛西たかみビル５Ｆ,,13,123,1340088,,,,,,,2024-01-24,1,,,,,アスター,0
1722,5011801043685,新規,0,2024-01-24,2024-01-24,新和株式会社,,株式会社,東京都,足立区,佐野２丁目２６番２号,,13,121,1210053,,,,,,,2024-01-24,1,,,,,シンワ,0
1728,5012801022927,新規,0,2024-01-24,2024-01-24,株式会社Ｌａｕｇｈｉｎｇ　ｓｔａｒ,,株式会社,東京都,武蔵村山市,伊奈平５丁目９７番地の２６,,13,223,2080023,,,,,,,2024-01-24,1,,,,,ラフィングスター,0
1737,5020001155464,新規,0,2024-01-24,2024-01-24,チームスタイル株式会社,,株式会社,神奈川県,川崎市多摩区,登戸６４０－２パールハウス登戸１０３号室,,14,135,2140014,,,,,,,2024-01-24,1,,,,,チームスタイル,0
1738,5020001155472,新規,0,2024-01-24,2024-01-24,株式会社ライレス,,株式会社,神奈川県,横浜市泉区,和泉中央南５丁目１４番３－６０１号,,14,116,2450023,,,,,,,2024-01-24,1,,,,,ライレス,0
1739,5020001155480,新規,0,2024-01-24,2024-01-24,株式会社エムシーハート,,株式会社,神奈川県,横浜市旭区,白根３丁目１０番１０号,,14,112,2410005,,,,,,,2024-01-24,1,,,,,エムシーハート,0
1740,5020001155489,新規,0,2024-01-24,2024-01-24,株式会社高梨不動産,00133473,株式会社,神奈川県,横浜市西区,北幸２丁目１０番地４８・むつみビル３Ｆ,,14,103,2200004,,,,,,,2024-01-24,1,,,,,タカナシフドウサン,0
1744,5020003025376,新規,0,2024-01-24,2024-01-24,合同会社トラスト,,合同会社,神奈川県,横浜市戸塚区,戸塚町４６６８－４６ラベルヴィ２０２,,14,110,2440003,,,,,,,2024-01-24,1,,,,,トラスト,0
1745,5020003025418,新規,0,2024-01-24,2024-01-24,合同会社ＷＴＳ,,合同会社,神奈川県,川崎市中原区,新城２丁目１０番１５号,,14,133,2110044,,,,,,,2024-01-24,1,,,,,ダブリューティーエス,0
1746,5020003025434,新規,0,2024-01-24,2024-01-24,合同会社ＤｏｇｇｙＳｔｙｌｅ,,合同会社,神奈川県,川崎市多摩区,登戸３４１４－１０ディアナルーチェ４０１,,14,135,2140014,,,,,,,2024-01-24,1,,,,,ドギースタイル,0
1747,5021001081287,新規,0,2024-01-24,2024-01-24,株式会社Ｒａｉｓｅ　ｗｏｒｋｓ,,株式会社,神奈川県,相模原市緑区,大島３２６８番地８,,14,151,2520135,,,,,,,2024-01-24,1,,,,,レイズワークス,0
1748,5021001081295,新規,0,2024-01-24,2024-01-24,株式会社神谷総業,,株式会社,神奈川県,足柄上郡開成町,宮台４６０番地５,,14,366,2580023,,,,,,,2024-01-24,1,,,,,カミヤソウギョウ,0
1749,5021001081304,新規,0,2024-01-24,2024-01-24,株式会社ｇｒｏｗｔｈ,,株式会社,神奈川県,相模原市南区,磯部１７７７番地１,,14,153,2520327,,,,,,,2024-01-24,1,,,,,グロース,0
1750,5021001081312,新規,0,2024-01-24,2024-01-24,株式会社まあめいど,,株式会社,神奈川県,鎌倉市,材木座６丁目３番３４号,,14,204,2480013,,,,,,,2024-01-24,1,,,,,マアメイド,0
1755,5021003014055,新規,0,2024-01-24,2024-01-24,合同会社飯田屋,,合同会社,神奈川県,横須賀市,走水２丁目１４番３号,,14,201,2390811,,,,,,,2024-01-24,1,,,,,イイダヤ,0
1756,5021003014063,新規,0,2024-01-24,2024-01-24,ＫＩＹＯ合同会社,,合同会社,神奈川県,茅ヶ崎市,東海岸南１丁目８番２８－１号,,14,207,2530054,,,,,,,2024-01-24,1,,,,,キヨ,0
1762,5030001158326,新規,0,2024-01-24,2024-01-24,ＰＦＩくきのもり株式会社,,株式会社,埼玉県,久喜市,上町１番１２号,,11,232,3460006,,,,,,,2024-01-24,1,,,,,ピーエフアイクキノモリ,0
1763,5030001158334,新規,0,2024-01-24,2024-01-24,ＴＭ＆Ｈ株式会社,,株式会社,埼玉県,行田市,藤原町１丁目１７番地１,,11,206,3610016,,,,,,,2024-01-24,1,,,,,ティーエムアンドエイチ,0
1769,5030003023453,新規,0,2024-01-24,2024-01-24,合同会社ヒロチ,,合同会社,埼玉県,川口市,中青木２丁目１９番７号,,11,203,3320032,,,,,,,2024-01-24,1,,,,,ヒロチ,0
1775,5040001131843,新規,0,2024-01-24,2024-01-24,一合株式会社,,株式会社,千葉県,船橋市,本町２丁目１１番１２号三善ビル３０３号室,,12,204,2730005,,,,,,,2024-01-24,1,,,,,イチゴウ,0
1776,5040001131918,新規,0,2024-01-24,2024-01-24,株式会社三木実業,,株式会社,千葉県,松戸市,和名ケ谷１００８クレスト吉岡３０５号,,12,207,2702232,,,,,,,2024-01-24,1,,,,,ミキジツギョウ,0
1777,5040003024137,新規,0,2024-01-24,2024-01-24,合同会社ゴールドチップ,,合同会社,千葉県,船橋市,若松１丁目４番４号,,12,204,2730013,,,,,,,2024-01-24,1,,,,,ゴールドチップ,0
1778,5040003024186,新規,0,2024-01-24,2024-01-24,合同会社Ｅ＆Ｎ,,合同会社,千葉県,印西市,草深８４２番地５９,,12,231,2701337,,,,,,,2024-01-24,1,,,,,イーアンドエヌ,0
1781,5050001054168,新規,0,2024-01-24,2024-01-24,ＫＥＮＳＨＯＵ株式会社,,株式会社,茨城県,ひたちなか市,大字高場２６１１番地１ＫＥＮＳＨＯＵ・Ｂｉｌｄ．１０１,,08,221,3120062,,,,,,,2024-01-24,1,,,,,ケンショウ,0
1817,5110001038131,新規,0,2024-01-24,2024-01-24,株式会社ＭｔＲｉｖｅｒＳｅａ,,株式会社,新潟県,新潟市中央区,女池神明３丁目１４番地３,,15,103,9500943,,,,,,,2024-01-24,1,,,,,マウントリバーシー,0
1841,5120001261616,新規,0,2024-01-24,2024-01-24,澄丁株式会社,,株式会社,大阪府,大阪市生野区,巽北１丁目７番３号３０３号室,00133486,27,116,5440004,,,,,,,2024-01-24,1,,,,,チョウテイ,0
1843,5120003025639,新規,0,2024-01-24,2024-01-24,成田総務合同会社,,合同会社,大阪府,大阪市中央区,谷町２丁目２番２０号７階,,27,128,5400012,,,,,,,2024-01-24,1,,,,,ナリタソウム,0
1847,5120101068936,新規,0,2024-01-24,2024-01-24,株式会社大日工業,,株式会社,大阪府,羽曳野市,西浦１丁目９番１４－３０１号,,27,222,5830861,,,,,,,2024-01-24,1,,,,,ダイニチコウギョウ,0
1848,5120101068960,新規,0,2024-01-24,2024-01-24,三浦工務店株式会社,,株式会社,大阪府,泉大津市,我孫子１３４－１０,,27,206,5950031,,,,,,,2024-01-24,1,,,,,ミウラコウムテン,0
1850,5120901048674,新規,0,2024-01-24,2024-01-24,株式会社Ａｓｕｋａ,,株式会社,大阪府,豊中市,日出町１丁目１番３－２０１号,,27,203,5610821,,,,,,,2024-01-24,1,,,,,アスカ,0
1852,5120903005013,新規,0,2024-01-24,2024-01-24,合同会社ＫＡＭＯＭＥ,,合同会社,大阪府,池田市,天神２丁目３－５瀬高マンション３０４号室,,27,204,5630031,,,,,,,2024-01-24,1,,,,,カモメ,0
1854,5122001037756,新規,0,2024-01-24,2024-01-24,株式会社原紙器製作所,,株式会社,大阪府,東大阪市,衣摺４丁目２６番２５号,,27,227,5770827,,,,,,,2024-01-24,1,,,,,ハラシキセイサクジョ,0
1874,5140005026922,新規,0,2024-01-24,2024-01-24,あすなろ行政書士法人,,その他の設立登記法人,兵庫県,神戸市長田区,久保町６丁目１番１号アスタくにづか四号館２階,,28,106,6530041,,,,,,,2024-01-24,1,,,,,アスナロ,0
1876,5150001027031,新規,0,2024-01-24,2024-01-24,株式会社ＳＯＫＫＥＲ,,株式会社,奈良県,桜井市,大字三輪４４１番地,,29,206,6330001,,,,,,,2024-01-24,1,,,,,ソッカー,0
1878,5150003003170,新規,0,2024-01-24,2024-01-24,合同会社Ｎｉｋｏｌａ,,合同会社,奈良県,橿原市,小綱町１６－２０,,29,205,6340811,,,,,,,2024-01-24,1,,,,,ニコラ,0
1888,5170003001973,新規,0,2024-01-24,2024-01-24,合同会社コンテンツクラフト,,合同会社,和歌山県,新宮市,三輪崎３丁目１０番４号,,30,207,6470061,,,,,,,2024-01-24,1,,,,,コンテンツクラフト,0
1890,5180003026251,新規,0,2024-01-24,2024-01-24,合同会社ＨＧＳグループ,,合同会社,愛知県,名古屋市中川区,野田１丁目２２５－１,,23,110,4540912,,,,,,,2024-01-24,1,,,,,エイチジーエスグループ,0
1912,5240001062705,新規,0,2024-01-24,2024-01-24,株式会社ＴＦＣ,,株式会社,広島県,広島市東区,東山町８番１－２０４号,,34,102,7320043,,,,,,,2024-01-24,1,,,,,ティーエフシー,0
1913,5240001062713,新規,0,2024-01-24,2024-01-24,株式会社若工業,,株式会社,広島県,広島市安佐北区,落合２丁目３７番１０－２号,,34,106,7391731,,,,,,,2024-01-24,1,,,,,ワカコウギョウ,0
1926,5240003006494,新規,0,2024-01-24,2024-01-24,合同会社Ｋ３Ｈ,,合同会社,広島県,福山市,神村町３１４５番地１,,34,207,7290112,,,,,,,2024-01-24,1,,,,,ケースリーエイチ,0
1927,5240003006503,新規,0,2024-01-24,2024-01-24,ヒーロービール合同会社,,合同会社,広島県,広島市中区,十日市町１丁目２番３号,,34,101,7300805,,,,,,,2024-01-24,1,,,,,ヒーロービール,0
1939,5260001038678,新規,0,2024-01-24,2024-01-24,株式会社エスアール建機,,株式会社,岡山県,岡山市南区,泉田４丁目６番８号,,33,104,7000944,,,,,,,2024-01-24,1,,,,,エスアールケンキ,0
1958,5280001009108,新規,0,2024-01-24,2024-01-24,旭創業株式会社,,株式会社,島根県,松江市,八雲町東岩坂６４番地４３,,32,201,6902102,,,,,,,2024-01-24,1,,,,,アサヒソウギョウ,0
1962,5290001104469,新規,0,2024-01-24,2024-01-24,株式会社メディカルキッチン,,株式会社,福岡県,福岡市博多区,博多駅中央街５－１１,,40,132,8120012,,,,,,,2024-01-24,1,,,,,メディカルキッチン,0
1964,5290003014897,新規,0,2024-01-24,2024-01-24,合同会社ＶＳＫ,,合同会社,福岡県,飯塚市,横田１２２－１,,40,205,8200044,,,,,,,2024-01-24,1,,,,,ヴィスク,0
1966,5290801030245,新規,0,2024-01-24,2024-01-24,株式会社ヤマタニヤ,,株式会社,福岡県,北九州市小倉南区,星和台２丁目９番８号,,40,107,8020973,,,,,,,2024-01-24,1,,,,,ヤマタニヤ,0
1967,5290805009707,新規,0,2024-01-24,2024-01-24,医療法人櫻賀和,,その他の設立登記法人,福岡県,中間市,中間１丁目６番２２号,,40,215,8090034,,,,,,,2024-01-24,1,,,,,オガワ,0
1971,5330001031691,新規,0,2024-01-24,2024-01-24,株式会社ＦＡＰ熊本,,株式会社,熊本県,熊本市中央区,水前寺１丁目１０番１２号アサヒ駅前ビル６０２,,43,101,8620950,,,,,,,2024-01-24,1,,,,,エフエーピークマモト,0
1972,5330001031700,新規,0,2024-01-24,2024-01-24,Ｔ’ｓ　Ｌａｂ株式会社,,株式会社,熊本県,熊本市東区,若葉６丁目３番１５号,,43,102,8612103,,,,,,,2024-01-24,1,,,,,ティーズラボ,0
1982,5360003013644,新規,0,2024-01-24,2024-01-24,合同会社福天たぬき,,合同会社,沖縄県,糸満市,字兼城５８１番地の１エンゼルハイム糸満８０２号,,47,210,9010303,,,,,,,2024-01-24,1,,,,,フクテンタヌキ,0
1983,5360005006976,新規,0,2024-01-24,2024-01-24,特定非営利活動法人Ｏｋｉｎａｗａ　Ｅｎｖｉｒｏｎｍｅｎｔａｌ　Ｐｒｏｔｅｃｔｉｏｎ　Ａｓｓｏｃｉａｔｉｏｎ,,その他の設立登記法人,沖縄県,宮古島市,平良字西仲宗根４４８番地２,,47,214,9060006,,,,,,,2024-01-24,1,,,,,オキナワエンバイロメンタルプロテクションアソシエーション,0
1987,5370001050845,新規,0,2024-01-24,2024-01-24,株式会社三浦農産,,株式会社,宮城県,石巻市,前谷地字樋口１５４番地,,04,202,9871101,,,,,,,2024-01-24,1,,,,,ミウラノウサン,0
1988,5370001050853,新規,0,2024-01-24,2024-01-24,株式会社Ｈａｒｖｅｓｔ,,株式会社,宮城県,登米市,中田町上沼字金谷１２０番地,,04,212,9870602,,,,,,,2024-01-24,1,,,,,ハーベスト,0
1989,5370001050861,新規,0,2024-01-24,2024-01-24,Ｍｉｃｈｅｌｌｅ株式会社,,株式会社,宮城県,宮城郡利府町,神谷沢字館ノ内１４番地シャトー化粧坂４０５,,04,406,9810121,,,,,,,2024-01-24,1,,,,,ミシェル,0
1991,5370003006457,新規,0,2024-01-24,2024-01-24,合同会社エシカルエネルギー,,合同会社,宮城県,仙台市青葉区,花京院１丁目４番４７号ＡＬＬＥＬＬ花京院ビル２Ｆ,,04,101,9800013,,,,,,,2024-01-24,1,,,,,エシカルエネルギー,0
2004,5430001090918,新規,0,2024-01-24,2024-01-24,株式会社ＫＩＮＡ　ＴＲＡＶＥＬ,,株式会社,北海道,札幌市中央区,南九条西１１丁目１番５号,,01,101,0640809,,,,,,,2024-01-24,1,,,,,キナトラベル,0
2005,5430001090934,新規,0,2024-01-24,2024-01-24,株式会社ノース・リープ,,株式会社,北海道,札幌市東区,北十五条東１６丁目１番８号,,01,103,0650015,,,,,,,2024-01-24,1,,,,,ノースリープ,0
2017,5430003015872,新規,0,2024-01-24,2024-01-24,合同会社クラウン,,合同会社,北海道,札幌市中央区,南六条西９丁目１０２４,,01,101,0640806,,,,,,,2024-01-24,1,,,,,クラウン,0
2022,5450001014206,新規,0,2024-01-24,2024-01-24,株式会社Ｇａｌａｘｙ,,株式会社,北海道,旭川市,東七条９丁目１番２５号トーワ東７条Ｂ２０２,,01,204,0700027,,,,,,,2024-01-24,1,,,,,,0
2023,5460003000979,新規,0,2024-01-24,2024-01-24,合同会社ＣａｒＴｒｕｓｔ,,合同会社,北海道,釧路市,昭和中央５丁目２９番２０号,,01,206,0840910,,,,,,,2024-01-24,1,,,,,,0
2038,5500001025429,新規,0,2024-01-24,2024-01-24,株式会社ＥＸＣＩＥＤ,,株式会社,愛媛県,新居浜市,中萩町１１番１１－１２３号,,38,205,7920045,,,,,,,2024-01-24,1,,,,,エクシード,0
2043,5700150123541,新規,0,2024-01-24,2024-01-24,Ｃｈｅｒｒｙ　Ｂｌｏｓｓｏｍｉｎｇ　Ｌｉｍｉｔｅｄ,,外国会社等,,,,,,,,英国領バージン諸島トルトラ島ロードタウンウッドボーン・ホール,,,,,,2024-01-24,1,,,,,チエリーブロツサミングリミテツド,0
2052,6010001241669,新規,0,2024-01-24,2024-01-24,株式会社エックスリズム,,株式会社,東京都,中央区,銀座８丁目１０番５号,,13,102,1040061,,,,,,,2024-01-24,1,,,,,エックスリズム,0
2053,6010001241677,新規,0,2024-01-24,2024-01-24,株式会社Ｊ・Ｕｐｐｅｒ,,株式会社,東京都,中央区,銀座８丁目４番２号,,13,102,1040061,,,,,,,2024-01-24,1,,,,,ジェイアッパー,0
2054,6010001241702,新規,0,2024-01-24,2024-01-24,株式会社ＳＴＯＣＫ１４９,,株式会社,東京都,千代田区,永田町２丁目１２番４号,,13,101,1000014,,,,,,,2024-01-24,1,,,,,ストックヒャクヨンジュウキュウ,0
2055,6010001241710,新規,0,2024-01-24,2024-01-24,Ｔａｋａｈａｓｈｉ株式会社,,株式会社,東京都,文京区,千石２丁目１－１１メゾン千石２０５,,13,105,1120011,,,,,,,2024-01-24,1,,,,,タカハシ,0
2056,6010001241735,新規,0,2024-01-24,2024-01-24,Ｅ‐ＡＣＥ株式会社,,株式会社,東京都,千代田区,飯田橋４丁目４番９号ダイアパレス飯田橋４０５号室,,13,101,1020072,,,,,,,2024-01-24,1,,,,,イーエース,0
2061,6010003042710,新規,0,2024-01-24,2024-01-24,合同会社高山不動産,,合同会社,東京都,文京区,本郷２丁目２２番２号元一ビル２０１,,13,105,1130033,,,,,,,2024-01-24,1,,,,,タカヤマフドウサン,0
2062,6010003042751,新規,0,2024-01-24,2024-01-24,合同会社ファインドトラスト,,合同会社,東京都,文京区,大塚３丁目１３番１０－３０５号,00133474,13,105,1120012,,,,,,,2024-01-24,1,,,,,ファインドトラスト,0
2072,6010401179963,新規,0,2024-01-24,2024-01-24,新潟イーグル株式会社,,株式会社,東京都,港区,芝大門１丁目１２番１５号,,13,103,1050012,,,,,,,2024-01-24,1,,,,,ニイガタイーグル,0
2073,6010403031767,新規,0,2024-01-24,2024-01-24,合同会社Ｋ　Ｅｄｕｃａｔｉｏｎ＆Ｔｅｃｈｎｏｌｏｇｙ,,合同会社,東京都,港区,北青山１丁目３番１号アールキューブ青山３階,,13,103,1070061,,,,,,,2024-01-24,1,,,,,ケーエデュケーションアンドテクノロジー,0
2074,6010403031775,新規,0,2024-01-24,2024-01-24,Ｍｏｏｎｓｔｏｎｅ　Ｐｒｏｐｅｒｔｉｅｓ合同会社,,合同会社,東京都,港区,六本木１丁目９番４－７０２号,,13,103,1060032,,,,,,,2024-01-24,1,,,,,,0
2076,6010405022871,新規,0,2024-01-24,2024-01-24,一般財団法人伝統文化棋道振興財団,,その他の設立登記法人,東京都,港区,北青山１丁目３番１号アールキューブ青山３階,,13,103,1070061,,,,,,,2024-01-24,1,,,,,デントウブンカギドウシンコウザイダン,0
2077,6010501051667,新規,0,2024-01-24,2024-01-24,株式会社五香堂,,株式会社,東京都,台東区,浅草５丁目４１番７－５０１号,,13,106,1110032,,,,,,,2024-01-24,1,,,,,ゴキョウドウ,0
2083,6010803004827,新規,0,2024-01-24,2024-01-24,合同会社ＨａＭ,,合同会社,東京都,大田区,石川町２丁目３３番１－１００６,,13,111,1450061,,,,,,,2024-01-24,1,,,,,エイチエーエム,0
2089,6011001159546,新規,0,2024-01-24,2024-01-24,株式会社ハドリー,,株式会社,東京都,渋谷区,渋谷２丁目１９番１５号宮益坂ビルディング６０９,,13,113,1500002,,,,,,,2024-01-24,1,,,,,ハドリー,0
2090,6011003018279,新規,0,2024-01-24,2024-01-24,合同会社傑作,,合同会社,東京都,渋谷区,渋谷２丁目１９－１５宮益坂ビルディング６０９,,13,113,1500002,,,,,,,2024-01-24,1,,,,,ケッサク,0
2091,6011003018353,新規,0,2024-01-24,2024-01-24,令和キャリア合同会社,,合同会社,東京都,渋谷区,道玄坂１丁目１６－６二葉ビル８Ｂ,,13,113,1500043,,,,,,,2024-01-24,1,,,,,レイワキャリア,0
2094,6011101105904,新規,0,2024-01-24,2024-01-24,株式会社メディカルケア一光,,株式会社,東京都,新宿区,上落合２丁目２６番３号,,13,104,1610034,,,,,,,2024-01-24,1,,,,,メディカルケアイッコウ,0
2095,6011101105937,新規,0,2024-01-24,2024-01-24,株式会社オマツリヤロウ,,株式会社,東京都,新宿区,西新宿３丁目３番１３号,,13,104,1600023,,,,,,,2024-01-24,1,,,,,オマツリヤロウ,0
2102,6011503005925,新規,0,2024-01-24,2024-01-24,ＨＤＩ　ＴＯＫＹＯ合同会社,,合同会社,東京都,北区,赤羽１丁目１１番４号アポー赤羽ビル４Ｆ,,13,117,1150045,,,,,,,2024-01-24,1,,,,,エイチディーアイトウキョウ,0
2109,6011701026938,新規,0,2024-01-24,2024-01-24,丸和商事株式会社,,株式会社,東京都,江戸川区,松江２丁目１－１３－１１１号室,,13,123,1320025,,,,,,,2024-01-24,1,,,,,マルワショウジ,0
2110,6011801043684,新規,0,2024-01-24,2024-01-24,アイエム居宅介護支援株式会社,,株式会社,東京都,葛飾区,青戸１丁目９番２３号ジュネパレス葛飾第１－２Ｆ,,13,122,1250062,,,,,,,2024-01-24,1,,,,,アイエムキョタクカイゴシエン,0
2118,6013301051928,新規,0,2024-01-24,2024-01-24,ＭＯＮＥＹ　ＣＯＭＰＡＳＳ株式会社,,株式会社,東京都,豊島区,東池袋３丁目１番１号サンシャイン６０・４５階,,13,116,1700013,,,,,,,2024-01-24,1,,,,,マネーコンパス,0
2119,6013301051960,新規,0,2024-01-24,2024-01-24,エイ・エス株式会社,,株式会社,東京都,豊島区,南大塚３丁目４６番５号中島第三ビル２階,,13,116,1700005,,,,,,,2024-01-24,1,,,,,エイエス,0
2120,6020001026862,新規,0,2024-01-24,2024-01-24,株式会社実工設計,,株式会社,神奈川県,横浜市中区,元浜町３丁目２１番地,,14,104,2310004,,,,,,,2024-01-24,1,,,,,ジッコウセッケイ,0
2125,6020001155447,新規,0,2024-01-24,2024-01-24,株式会社ＹＭ‐Ｉ,,株式会社,神奈川県,横浜市港南区,港南台２丁目１番３－１３０２号,,14,111,2340054,,,,,,,2024-01-24,1,,,,,ワイエムアイ,0
2126,6020001155455,新規,0,2024-01-24,2024-01-24,株式会社ＭｉＸ,,株式会社,神奈川県,横浜市都筑区,桜並木２２番１６号,,14,118,2240046,,,,,,,2024-01-24,1,,,,,ミックス,0
2127,6020001155488,新規,0,2024-01-24,2024-01-24,株式会社エニストラテジー,,株式会社,神奈川県,横浜市神奈川区,栄町５―１横浜クリエーションスクエア１４階,,14,102,2210052,,,,,,,2024-01-24,1,,,,,エニストラテジー,0
2134,6021001081229,新規,0,2024-01-24,2024-01-24,ＡＢＳ株式会社,,株式会社,神奈川県,相模原市中央区,由野台２丁目２５番１５号,,14,152,2520222,,,,,,,2024-01-24,1,,,,,エビス,0
2135,6021001081286,新規,0,2024-01-24,2024-01-24,株式会社文美歌楽,,株式会社,神奈川県,藤沢市,鵠沼桜が岡１丁目１２番２３号,00133471,14,205,2510027,,,,,,,2024-01-24,1,,,,,フミヨシウタダノシ,0
2136,6021001081303,新規,0,2024-01-24,2024-01-24,ウルト工業株式会社,,株式会社,神奈川県,茅ヶ崎市,本村５丁目８番２－６０９号,,14,207,2530042,,,,,,,2024-01-24,1,,,,,ウルトコウギョウ,0
2137,6021001081311,新規,0,2024-01-24,2024-01-24,株式会社カリタス,,株式会社,神奈川県,茅ヶ崎市,十間坂３丁目５番３３－４０３ライオンズマンション茅ヶ崎,,14,207,2530045,,,,,,,2024-01-24,1,,,,,カリタス,0
2139,6021003014054,新規,0,2024-01-24,2024-01-24,ノンフラット合同会社,,合同会社,神奈川県,小田原市,曽我原５５２番地の１０ＲＳ・オーキッド３０３,,14,206,2500206,,,,,,,2024-01-24,1,,,,,ノンフラット,0
2143,6030001158275,新規,0,2024-01-24,2024-01-24,株式会社ＬＴＰｌａｎｎｉｎｇ,,株式会社,埼玉県,飯能市,大字矢颪１３１番地１,,11,209,3570042,,,,,,,2024-01-24,1,,,,,エルテイプランニング,0
2144,6030001158325,新規,0,2024-01-24,2024-01-24,株式会社ＮＨＡ,,株式会社,埼玉県,羽生市,南羽生３丁目７番地２０,,11,216,3480071,,,,,,,2024-01-24,1,,,,,エヌエイチエイ,0
2145,6030001158374,新規,0,2024-01-24,2024-01-24,株式会社柳屋ハウス,,株式会社,埼玉県,吉川市,高久１丁目１番地３１,,11,243,3420035,,,,,,,2024-01-24,1,,,,,ヤナギヤハウス,0
2149,6030003023452,新規,0,2024-01-24,2024-01-24,万陽合同会社,,合同会社,埼玉県,川口市,青木２丁目１５番２６号,,11,203,3320031,,,,,,,2024-01-24,1,,,,,マンヨウ,0
2150,6030003023460,新規,0,2024-01-24,2024-01-24,Ｓｉｌｖｅｒ　Ｇｅｎｅｒａｌ合同会社,,合同会社,埼玉県,さいたま市南区,辻８丁目１６－９－２Ｆ,00133477,11,108,3360026,,,,,,,2024-01-24,1,,,,,シルバージェネラル,0
2151,6030005021537,新規,0,2024-01-24,2024-01-24,一般社団法人ＩＴエンジニア支援センター,,その他の設立登記法人,埼玉県,さいたま市大宮区,桜木町２丁目４２３番地１,,11,103,3300854,,,,,,,2024-01-24,1,,,,,アイティーエンジニアシエンセンター,0
2156,6040001131891,新規,0,2024-01-24,2024-01-24,株式会社ＫＡＭＩＭＡ,,株式会社,千葉県,四街道市,みそら２丁目１５番３号,,12,228,2840023,,,,,,,2024-01-24,1,,,,,カミマ,0
2157,6040001131917,新規,0,2024-01-24,2024-01-24,Ｓｕｚｕｃａ　Ｔｅｃｈｎｏｌｏｇｉｅｓ株式会社,,株式会社,千葉県,千葉市中央区,富士見１丁目５番１２－４０３号,,12,101,2600015,,,,,,,2024-01-24,1,,,,,スズカテクノロジーズ,0
2164,6040003024053,新規,0,2024-01-24,2024-01-24,Ｉｄｅａ　Ｉｎｎｏｖａｔｉｏｎ　Ｊａｐａｎ合同会社,,合同会社,千葉県,我孫子市,下ケ戸６００－２３,,12,222,2701138,,,,,,,2024-01-24,1,,,,,アイデアイノベーションジャパン,0
2165,6040003024169,新規,0,2024-01-24,2024-01-24,合同会社ＮＥＭ,,合同会社,千葉県,船橋市,本中山３丁目１５番１１－５０１号,,12,204,2730035,,,,,,,2024-01-24,1,,,,,ネム,0
2166,6040003024185,新規,0,2024-01-24,2024-01-24,Ｊａｈ　Ｇｕｉｄａｎｃｅ合同会社,,合同会社,千葉県,我孫子市,根戸３４４番地の１０６,,12,222,2701168,,,,,,,2024-01-24,1,,,,,ジャーガイダンス,0
2167,6050001054159,新規,0,2024-01-24,2024-01-24,アグリフラッグ株式会社,,株式会社,茨城県,つくば市,下横場２１８－２,,08,220,3050075,,,,,,,2024-01-24,1,,,,,アグリフラッグ,0
2170,6050003008071,新規,0,2024-01-24,2024-01-24,合同会社ＭＡＮＤＡ　ＴＲＡＤＩＮＧ,,合同会社,茨城県,つくば市,大舟戸１００６番地１,,08,220,3001267,,,,,,,2024-01-24,1,,,,,マンダトレーディング,0
2204,6080001026097,新規,0,2024-01-24,2024-01-24,ＴＣＳホールディングス株式会社,,株式会社,静岡県,藤枝市,郡１丁目４番１９号,,22,214,4260016,,,,,,,2024-01-24,1,,,,,ティーシーエスホールディングス,0
2208,6080101024496,新規,0,2024-01-24,2024-01-24,下田クリーニング株式会社,,株式会社,静岡県,下田市,六丁目３８番３３号,,22,219,4150026,,,,,,,2024-01-24,1,,,,,シモダクリーニング,0
2211,6080103002970,新規,0,2024-01-24,2024-01-24,合同会社Ｂｌｕｅ　Ｂａｓｅ,,合同会社,静岡県,沼津市,内浦三津１４７－１－２ｆ,,22,203,4100223,,,,,,,2024-01-24,1,,,,,ブルーベース,0
2233,6110001038130,新規,0,2024-01-24,2024-01-24,株式会社ＢＥ．ｔｒｕｓｔ,,株式会社,新潟県,新潟市西区,西小針台１丁目２番４号,,15,107,9502015,,,,,,,2024-01-24,1,,,,,ビートラスト,0
2261,6120001261598,新規,0,2024-01-24,2024-01-24,安格羅工業株式会社,,株式会社,大阪府,大阪市都島区,中野町４丁目３番６号Ｈ２Ｈ大阪桜之宮邸２Ａ－３,,27,102,5340027,,,,,,,2024-01-24,1,,,,,アンカクラコウギョウ,0
2265,6120101068927,新規,0,2024-01-24,2024-01-24,株式会社オフィス高木,00133476,株式会社,大阪府,松原市,若林１丁目６番４号,,27,217,5800001,,,,,,,2024-01-24,1,,,,,オフィスタカギ,0
2266,6120101068935,新規,0,2024-01-24,2024-01-24,株式会社絢,,株式会社,大阪府,羽曳野市,羽曳が丘５丁目１７番９号,,27,222,5830864,,,,,,,2024-01-24,1,,,,,アヤ,0
2268,6120901048681,新規,0,2024-01-24,2024-01-24,株式会社Ｅｖａｎｇｅｌｕｔｉｏｎ,,株式会社,大阪府,吹田市,南金田１丁目１３番３４号第一丸嘉ビル４０２,,27,205,5640044,,,,,,,2024-01-24,1,,,,,エヴァンジェリューション,0
2272,6120903005012,新規,0,2024-01-24,2024-01-24,ＪＯＯＲＫＷＩＴＨ合同会社,,合同会社,大阪府,高槻市,唐崎中２丁目８－２３,,27,207,5690832,,,,,,,2024-01-24,1,,,,,ジョークウィズ,0
2273,6120903005020,新規,0,2024-01-24,2024-01-24,合同会社ＡＳＩ,,合同会社,大阪府,吹田市,江坂町１丁目２２番３５－１３０７号,,27,205,5640063,,,,,,,2024-01-24,1,,,,,エーエスアイ,0
2274,6122001037763,新規,0,2024-01-24,2024-01-24,不精興産株式会社,,株式会社,大阪府,東大阪市,三ノ瀬１丁目５番１０号,,27,227,5770849,,,,,,,2024-01-24,1,,,,,ブショウコウサン,0
2285,6130001076194,新規,0,2024-01-24,2024-01-24,株式会社のうごうゆにわ,,株式会社,京都府,京都市西京区,大原野東竹の里町１丁目１番地６棟１０５号,,26,111,6101144,,,,,,,2024-01-24,1,,,,,ノウゴウユニワ,0
2289,6130003009251,新規,0,2024-01-24,2024-01-24,合同会社ディー・ケー・シー,,合同会社,京都府,亀岡市,篠町野条イカノ辻南３８番地,00133470,26,206,6210822,,,,,,,2024-01-24,1,,,,,ディーケーシー,0
2296,6140001133077,新規,0,2024-01-24,2024-01-24,株式会社神戸北野スイーツ＆カフェ,,株式会社,兵庫県,神戸市中央区,新港町１１番１号,,28,110,6500041,,,,,,,2024-01-24,1,,,,,コウベキタノスイーツアンドカフェ,0
2299,6140003020075,新規,0,2024-01-24,2024-01-24,ＮＨＡＴ　ＴＡＭ合同会社,,合同会社,兵庫県,尼崎市,浜田町５丁目１２番地の２,,28,202,6600062,,,,,,,2024-01-24,1,,,,,ニャットタム,0
2301,6170001017979,新規,0,2024-01-24,2024-01-24,株式会社ウエテック,,株式会社,和歌山県,有田郡有田川町,大字天満８１４番地１,,30,366,6430032,,,,,,,2024-01-24,1,,,,,ウエテック,0
2306,6180003026250,新規,0,2024-01-24,2024-01-24,合同会社ＳＲＮ,,合同会社,愛知県,名古屋市西区,栄生２丁目７番５号協和ケミカル株式会社栄生店ビル２階,,23,104,4510052,,,,,,,2024-01-24,1,,,,,エスアールエヌ,0
2310,6180301038261,新規,0,2024-01-24,2024-01-24,株式会社ＦＢライフ,,株式会社,愛知県,岡崎市,稲熊町字森下１６番地１４,,23,202,4440071,,,,,,,2024-01-24,1,,,,,エフビーライフ,0
2323,6230001020191,新規,0,2024-01-24,2024-01-24,株式会社ダブルベリー,,株式会社,富山県,富山市,下赤江町２丁目５番２５号,,16,201,9300813,,,,,,,2024-01-24,1,,,,,ダブルベリー,0
2335,6240001062704,新規,0,2024-01-24,2024-01-24,株式会社笑夢,,株式会社,広島県,福山市,木之庄町５丁目１８番４０号２階,,34,207,7200082,,,,,,,2024-01-24,1,,,,,エム,0
2353,6250001020487,新規,0,2024-01-24,2024-01-24,株式会社美雄建工,,株式会社,山口県,下関市,椋野町３丁目５番３号,,35,201,7510816,,,,,,,2024-01-24,1,,,,,ミユウケンコウ,0
2378,6280001009107,新規,0,2024-01-24,2024-01-24,株式会社Ｗｈａｒｋｅｙ,,株式会社,島根県,大田市,三瓶町池田２９７３番地１,,32,205,6940223,,,,,,,2024-01-24,1,,,,,ワーキー,0
2382,6290001104468,新規,0,2024-01-24,2024-01-24,アレーズホーム株式会社,,株式会社,福岡県,福岡市西区,野方６丁目３番１３号,,40,135,8190043,,,,,,,2024-01-24,1,,,,,アレーズホーム,0
2383,6290001104476,新規,0,2024-01-24,2024-01-24,株式会社ギフティッド,,株式会社,福岡県,大牟田市,平原町２５５番地２,,40,202,8360813,,,,,,,2024-01-24,1,,,,,ギフティッド,0
2387,6290801030252,新規,0,2024-01-24,2024-01-24,株式会社Ｇｒｅｅｎ不動産,,株式会社,福岡県,北九州市小倉南区,北方１丁目１５番３号１００７号,,40,107,8020841,,,,,,,2024-01-24,1,,,,,グリーンフドウサン,0
2389,6310003004713,新規,0,2024-01-24,2024-01-24,合同会社北山工業,,合同会社,長崎県,西海市,西海町面高郷１１４３番地,,42,212,8513508,,,,,,,2024-01-24,1,,,,,キタヤマコウギョウ,0
2390,6320001000300,新規,0,2024-01-24,2024-01-24,大分パトロール株式会社,,株式会社,大分県,大分市,生石２丁目２番２１号,,44,201,8700003,,,,,,,2024-01-24,1,,,,,,0
2394,6330001031699,新規,0,2024-01-24,2024-01-24,株式会社ｆａｓｅ,,株式会社,熊本県,熊本市南区,南高江５丁目６番７１号,,43,104,8614106,,,,,,,2024-01-24,1,,,,,フェーズ,0
2409,6360001033098,新規,0,2024-01-24,2024-01-24,株式会社ＳＰＥＣ＆ＳＴＹＬＥ,,株式会社,沖縄県,うるま市,字高江洲１０２５番地３,,47,213,9042242,,,,,,,2024-01-24,1,,,,,スペックアンドスタイル,0
2412,6370001050852,新規,0,2024-01-24,2024-01-24,株式会社ＳＩアーキテクト,,株式会社,宮城県,仙台市青葉区,花京院１丁目２番１５号３Ｆ,,04,101,9800013,,,,,,,2024-01-24,1,,,,,エスアイアーキテクト,0
2417,6390001017494,新規,0,2024-01-24,2024-01-24,株式会社洸星,,株式会社,山形県,鶴岡市,長沼字上新田４５番地,,06,203,9997621,,,,,,,2024-01-24,1,,,,,コウセイ,0
2419,6390002013484,新規,0,2024-01-24,2024-01-24,大和木材有限会社,,有限会社,山形県,米沢市,窪田町窪田１２２６番地,,06,202,9920003,,,,,,,2024-01-24,1,,,,,ヤマトモクザイ,0
2421,6420001018547,新規,0,2024-01-24,2024-01-24,株式会社内建興業,,株式会社,青森県,八戸市,売市３丁目４番５号北村住宅,,02,203,0310073,,,,,,,2024-01-24,1,,,,,ウチケンコウギョウ,0
2436,6430001090826,新規,0,2024-01-24,2024-01-24,株式会社福鳥,,株式会社,北海道,札幌市北区,新琴似七条２丁目１番２８号山西ビル,,01,102,0010907,,,,,,,2024-01-24,1,,,,,フクドリ,0
2437,6430001090933,新規,0,2024-01-24,2024-01-24,プロスパーグッドジョブ株式会社,,株式会社,北海道,札幌市厚別区,厚別中央一条３丁目１番２８号３階,,01,108,0040051,,,,,,,2024-01-24,1,,,,,プロスパーグッドジョブ,0
2457,6470001019994,新規,0,2024-01-24,2024-01-24,株式会社月光,,株式会社,香川県,仲多度郡琴平町,２１９番地大和ビル２Ｆ,,37,403,7660001,,,,,,,2024-01-24,1,,,,,ゲッコウ,0
2458,6480001012362,新規,0,2024-01-24,2024-01-24,株式会社ホープ,,株式会社,徳島県,徳島市,秋田町２丁目３５番地の２,,36,201,7700934,,,,,,,2024-01-24,1,,,,,ホープ,0
2459,6480001012370,新規,0,2024-01-24,2024-01-24,株式会社ＦＯＯＴＢＡＬＬ　ＧＥＡＲ　ＡＧＥＮＣＹ,,株式会社,徳島県,吉野川市,鴨島町知恵島１２６６番地１,,36,205,7760014,,,,,,,2024-01-24,1,,,,,フットボールギアエージェンシー,0
2467,6500001025428,新規,0,2024-01-24,2024-01-24,株式会社劭明電工,,株式会社,愛媛県,松山市,和気町２丁目８６４番地２１,,38,201,7992656,,,,,,,2024-01-24,1,,,,,ショウアデンコウ,0
2475,6700150123540,新規,0,2024-01-24,2024-01-24,Ｂｌｏｓｓｏｍ　Ｊａｄｅ　Ｌｉｍｉｔｅｄ,,外国会社等,,,,,,,,英国領バージン諸島トルトラ島ロードタウンウッドボーン・ホール,,,,,,2024-01-24,1,,,,,ブロツサムジエイドリミテツド,0
2484,7010001241676,新規,0,2024-01-24,2024-01-24,トランス株式会社,,株式会社,東京都,千代田区,外神田１丁目１６番８号ＧＥＥＫＳＡＫＩＨＡＢＡＲＡ９階,,13,101,1010021,,,,,,,2024-01-24,1,,,,,トランス,0
2485,7010001241701,新規,0,2024-01-24,2024-01-24,株式会社ＳＴＯＣＫ１４８,,株式会社,東京都,千代田区,永田町２丁目１２番４号,,13,101,1000014,,,,,,,2024-01-24,1,,,,,ストックヒャクヨンジュウハチ,0
2486,7010001241726,新規,0,2024-01-24,2024-01-24,株式会社Ａｇｍａ,,株式会社,東京都,中央区,銀座１丁目１２番４号Ｎ＆ＥＢＬＤ．６Ｆ,,13,102,1040061,,,,,,,2024-01-24,1,,,,,アグマ,0
2487,7010001241734,新規,0,2024-01-24,2024-01-24,株式会社アクトトラスト,,株式会社,東京都,千代田区,東神田３丁目２番４号東神田サマリヤマンション５０３号室,,13,101,1010031,,,,,,,2024-01-24,1,,,,,アクトトラスト,0
2493,7010003042742,新規,0,2024-01-24,2024-01-24,合同会社Ｌａｉｃｉ,,合同会社,東京都,中央区,銀座４丁目１４－１５サントル銀座四丁目５０２号室,,13,102,1040061,,,,,,,2024-01-24,1,,,,,ライチ,0
2494,7010103002299,新規,0,2024-01-24,2024-01-24,ＡＲＭＯＮ合同会社,,合同会社,東京都,八王子市,別所２丁目１３番地１－２０４号,,13,201,1920363,,,,,,,2024-01-24,1,,,,,,0
2506,7010401179888,新規,0,2024-01-24,2024-01-24,日本京高精密機器株式会社,,株式会社,東京都,港区,芝４丁目７番６号芝ビルディング７０１,,13,103,1080014,,,,,,,2024-01-24,1,,,,,,0
2509,7010403031774,新規,0,2024-01-24,2024-01-24,合同会社ＳＣＴ,,合同会社,東京都,港区,赤坂３丁目１番１１号,,13,103,1070052,,,,,,,2024-01-24,1,,,,,,0
2512,7010701045451,新規,0,2024-01-24,2024-01-24,株式会社花島屋,,株式会社,東京都,品川区,東五反田５丁目２２－３７オフィスサークルＮ五反田,,13,109,1410022,,,,,,,2024-01-24,1,,,,,ハナシマヤ,0
2520,7010901054582,新規,0,2024-01-24,2024-01-24,株式会社Ｋｉｄｓ　Ｒｅｃｏｒｄ,,株式会社,東京都,世田谷区,鎌田２丁目１０番４－３０４号,,13,112,1570077,,,,,,,2024-01-24,1,,,,,キッズレコード,0
2521,7010901054590,新規,0,2024-01-24,2024-01-24,ＫＳメディカル株式会社,,株式会社,東京都,世田谷区,玉川３丁目２２番１２－１０３号,,13,112,1580094,,,,,,,2024-01-24,1,,,,,ケーエスメディカル,0
2527,7011001159520,新規,0,2024-01-24,2024-01-24,獅子王畜産株式会社,,株式会社,東京都,渋谷区,広尾５丁目４番１６号,,13,113,1500012,,,,,,,2024-01-24,1,,,,,シシオウチクサン,0
2528,7011001159611,新規,0,2024-01-24,2024-01-24,ｔＨＥ　ＧＡＬＬＥＲＹ　ＨＡＲＡＪＵＫＵ株式会社,,株式会社,東京都,渋谷区,神宮前３丁目２０番２１号ベルウッド原宿１階Ｃ号室,,13,113,1500001,,,,,,,2024-01-24,1,,,,,ザギャラリーハラジュク,0
2530,7011003018336,新規,0,2024-01-24,2024-01-24,合同会社ミライテル,,合同会社,東京都,渋谷区,道玄坂１丁目１０番８号渋谷道玄坂東急ビル２Ｆ－Ｃ,,13,113,1500043,,,,,,,2024-01-24,1,,,,,ミライテル,0
2531,7011003018352,新規,0,2024-01-24,2024-01-24,合同会社ＥＶＥ,,合同会社,東京都,渋谷区,本町４丁目２２番１０－９０３号,,13,113,1510071,,,,,,,2024-01-24,1,,,,,イブ,0
2532,7011003018360,新規,0,2024-01-24,2024-01-24,ＭＨＹＣＡ合同会社,,合同会社,東京都,渋谷区,渋谷２丁目１９番１５号宮益坂ビルディング６０９,,13,113,1500002,,,,,,,2024-01-24,1,,,,,エムエイチワイシーエー,0
2537,7011101105829,新規,0,2024-01-24,2024-01-24,株式会社Ａｏｉ　Ａｒｔｍａｋｅ　Ｅｍｉｔｅｒａｓ,,株式会社,東京都,新宿区,西新宿３丁目３番１３号西新宿水間ビル２Ｆ,,13,104,1600023,,,,,,,2024-01-24,1,,,,,アオイアートメイクエミテラス,0
2539,7011103013988,新規,0,2024-01-24,2024-01-24,合同会社麻雀スタジオ,,合同会社,東京都,新宿区,弁天町６２番１号,,13,104,1620851,,,,,,,2024-01-24,1,,,,,マージャンスタジオ,0
2540,7011103014012,新規,0,2024-01-24,2024-01-24,日向澤合同会社,,合同会社,東京都,新宿区,高田馬場３丁目７番１号ピアース高田馬場２０３,,13,104,1690075,,,,,,,2024-01-24,1,,,,,ヒナタサワ,0
2542,7011301029349,新規,0,2024-01-24,2024-01-24,株式会社Ｂｅｎｓａｎ,,株式会社,東京都,杉並区,成田東４丁目２０番１５号,,13,115,1660015,,,,,,,2024-01-24,1,,,,,ベンサン,0
2546,7011303005042,新規,0,2024-01-24,2024-01-24,合同会社エイチケーズ,,合同会社,東京都,杉並区,阿佐谷南３丁目１番２２号ハイツ山幸２０１,,13,115,1660004,,,,,,,2024-01-24,1,,,,,エイチケーズ,0
2562,7011801043683,新規,0,2024-01-24,2024-01-24,ＭＩＲＡＩＴＯＭＯ株式会社,,株式会社,東京都,足立区,栗原１丁目２１－２－３０１号,,13,121,1230842,,,,,,,2024-01-24,1,,,,,ミライトモ,0
2563,7011801043691,新規,0,2024-01-24,2024-01-24,株式会社ベイスタッフ,,株式会社,東京都,葛飾区,高砂８丁目１１－４,,13,122,1250054,,,,,,,2024-01-24,1,,,,,ベイスタッフ,0
2568,7012801022925,新規,0,2024-01-24,2024-01-24,株式会社かわいたち,,株式会社,東京都,東大和市,中央３丁目８５６番地の３,,13,220,2070015,,,,,,,2024-01-24,1,,,,,カワイタチ,0
2569,7013301051943,新規,0,2024-01-24,2024-01-24,アサヒランドサービス株式会社,,株式会社,東京都,豊島区,雑司が谷１丁目４８番８号グランフォース東池袋７０２号,,13,116,1710032,,,,,,,2024-01-24,1,,,,,アサヒランドサービス,0
2580,7020001155446,新規,0,2024-01-24,2024-01-24,株式会社メディアキャピタル,,株式会社,神奈川県,横浜市港北区,新羽町４１２－２,,14,109,2230057,,,,,,,2024-01-24,1,,,,,メディアキャピタル,0
2581,7020001155454,新規,0,2024-01-24,2024-01-24,株式会社イチ・プレステージ,,株式会社,神奈川県,横浜市中区,諏訪町１９番地,,14,104,2310863,,,,,,,2024-01-24,1,,,,,イチプレステージ,0
2582,7020001155462,新規,0,2024-01-24,2024-01-24,株式会社スタークレイン,,株式会社,神奈川県,横浜市鶴見区,馬場４丁目３番２２号,,14,101,2300076,,,,,,,2024-01-24,1,,,,,スタークレイン,0
2583,7020001155479,新規,0,2024-01-24,2024-01-24,株式会社サモエドスコープ,,株式会社,神奈川県,川崎市中原区,小杉御殿町１丁目８７３―１御殿町コーポラス３０１,,14,133,2110068,,,,,,,2024-01-24,1,,,,,サモエドスコープ,0
2584,7020001155487,新規,0,2024-01-24,2024-01-24,カガヤキのミチ株式会社,,株式会社,神奈川県,横浜市戸塚区,名瀬町７９４－３０－３０５,,14,110,2450051,,,,,,,2024-01-24,1,,,,,カガヤキノミチ,0
2585,7020001155504,新規,0,2024-01-24,2024-01-24,リバーストリート株式会社,,株式会社,神奈川県,横浜市西区,北幸１丁目１１番１号水信ビル７階,,14,103,2200004,,,,,,,2024-01-24,1,,,,,リバーストリート,0
2592,7021001026026,新規,0,2024-01-24,2024-01-24,大和電子工業株式会社,,株式会社,神奈川県,大和市,南林間９丁目１番１２号,,14,213,2420006,,,,,,,2024-01-24,1,,,,,ヤマトデンシコウギョウ,0
2594,7021001081269,新規,0,2024-01-24,2024-01-24,株式会社ブルーノデザイン＆アカウンティング,,株式会社,神奈川県,平塚市,袖ケ浜１６番３６号,,14,203,2540813,,,,,,,2024-01-24,1,,,,,ブルーノデザインアンドアカウンティング,0
2595,7021001081285,新規,0,2024-01-24,2024-01-24,株式会社葉山ブルーベリーファーム,,株式会社,神奈川県,逗子市,桜山４丁目４番１４号,,14,208,2490005,,,,,,,2024-01-24,1,,,,,ハヤマブルーベリーファーム,0
2596,7021001081293,新規,0,2024-01-24,2024-01-24,ＴＡＫＡ３株式会社,,株式会社,神奈川県,鎌倉市,七里ガ浜東４丁目１８番５号,,14,204,2480025,,,,,,,2024-01-24,1,,,,,タカスリー,0
2597,7021001081302,新規,0,2024-01-24,2024-01-24,株式会社ＳＫＭ,,株式会社,神奈川県,逗子市,沼間１丁目１８番２３－１０１号,,14,208,2490004,,,,,,,2024-01-24,1,,,,,エスケイエム,0
2598,7021001081310,新規,0,2024-01-24,2024-01-24,ＴＲＡＤＥＧＯ株式会社,,株式会社,神奈川県,愛甲郡愛川町,角田７７３番地１９,,14,401,2430301,,,,,,,2024-01-24,1,,,,,トレードゴー,0
2607,7030001158340,新規,0,2024-01-24,2024-01-24,ＲＳ株式会社,,株式会社,埼玉県,蓮田市,大字蓮田１１４１番地１ヴァンヴェール１０１号,,11,238,3490115,,,,,,,2024-01-24,1,,,,,アールエス,0
2616,7040001131825,新規,0,2024-01-24,2024-01-24,株式会社鈴木芳郎,,株式会社,千葉県,東金市,田間１２２８番地１４,,12,213,2830005,,,,,,,2024-01-24,1,,,,,スズキヨシロウ,0
2617,7040001131882,新規,0,2024-01-24,2024-01-24,株式会社わおんもりやまや,,株式会社,千葉県,市原市,五井西６丁目２番地１５,,12,219,2900038,,,,,,,2024-01-24,1,,,,,ワオンモリヤマヤ,0
2618,7040001131916,新規,0,2024-01-24,2024-01-24,株式会社日乃和広咲屋,,株式会社,千葉県,君津市,大坂２００６－１,,12,225,2920511,,,,,,,2024-01-24,1,,,,,ヒノワヒロサキヤ,0
2620,7040003024184,新規,0,2024-01-24,2024-01-24,ＹＭウォーター合同会社,,合同会社,千葉県,八街市,滝台１４６０番地２,,12,230,2891123,,,,,,,2024-01-24,1,,,,,,0
2624,7050001054133,新規,0,2024-01-24,2024-01-24,株式会社ＲＣ建装,,株式会社,茨城県,牛久市,ひたち野東３丁目１９番地６,,08,219,3001207,,,,,,,2024-01-24,1,,,,,アールシーケンソウ,0
2625,7050001054158,新規,0,2024-01-24,2024-01-24,株式会社おおらか,,株式会社,茨城県,石岡市,貝地２丁目５番１２号,,08,205,3150015,,,,,,,2024-01-24,1,,,,,オオラカ,0
2626,7050001054166,新規,0,2024-01-24,2024-01-24,株式会社アルクスノーツ,,株式会社,茨城県,水戸市,上水戸１丁目７番３２号,,08,201,3100041,,,,,,,2024-01-24,1,,,,,アルクスノーツ,0
2627,7050003008079,新規,0,2024-01-24,2024-01-24,合同会社ＮｅｕｒａｌＸ,,合同会社,茨城県,つくば市,吾妻２丁目５番地１,,08,220,3050031,,,,,,,2024-01-24,1,,,,,ニューラルエックス,0
2628,7050003008087,新規,0,2024-01-24,2024-01-24,Ｃｈｅｍｉｃａｌ　Ｄｅｓｉｇｎ　Ｌａｂｏ．合同会社,,合同会社,茨城県,水戸市,末広町２丁目４番３４号,,08,201,3100053,,,,,,,2024-01-24,1,,,,,ケミカルデザインラボ,0
2664,7070003005248,新規,0,2024-01-24,2024-01-24,合同会社カギの群馬ロックサービス,,合同会社,群馬県,渋川市,北橘町箱田７３２番地１,,10,208,3770053,,,,,,,2024-01-24,1,,,,,カギノグンマロックサービス,0
2668,7080101024495,新規,0,2024-01-24,2024-01-24,ＴＯ　ＹＯＵ株式会社,,株式会社,静岡県,伊豆市,柏久保５２５番地４エムズインテーク修善寺４０２,,22,222,4102407,,,,,,,2024-01-24,1,,,,,トゥーユー,0
2696,7120001261507,新規,0,2024-01-24,2024-01-24,友和産業株式会社,,株式会社,大阪府,大阪市中央区,島之内２丁目５番１５号メロンハウス４０２号室,,27,128,5420082,,,,,,,2024-01-24,1,,,,,ユウワサンギョウ,0
2697,7120001261523,新規,0,2024-01-24,2024-01-24,株式会社マヤトレーディング,,株式会社,大阪府,大阪市平野区,平野北２丁目１番５０－８０５号,,27,126,5470041,,,,,,,2024-01-24,1,,,,,マヤトレーディング,0
2698,7120001261556,新規,0,2024-01-24,2024-01-24,シカク株式会社,,株式会社,大阪府,大阪市都島区,友渕町２丁目４番６号,,27,102,5340016,,,,,,,2024-01-24,1,,,,,シカク,0
2699,7120001261597,新規,0,2024-01-24,2024-01-24,百綜株式会社,,株式会社,大阪府,大阪市都島区,中野町４丁目３番６号Ｈ２Ｈ大阪桜之宮邸３Ｅ－１,,27,102,5340027,,,,,,,2024-01-24,1,,,,,ヒャクソウ,0
2700,7120001261606,新規,0,2024-01-24,2024-01-24,株式会社ビッグウィン,,株式会社,大阪府,大阪市大正区,小林西２丁目２番４号寄川マンション１階,,27,108,5510013,,,,,,,2024-01-24,1,,,,,ビッグウィン,0
2701,7120001261622,新規,0,2024-01-24,2024-01-24,株式会社トラスト,,株式会社,大阪府,大阪市都島区,都島北通２丁目３番２４－１００１号,,27,102,5340014,,,,,,,2024-01-24,1,,,,,トラスト,0
2702,7120001261647,新規,0,2024-01-24,2024-01-24,株式会社クーランド,,株式会社,大阪府,大阪市鶴見区,諸口５丁目浜９番３９号－２階,,27,124,5380051,,,,,,,2024-01-24,1,,,,,クーランド,0
2703,7120001261696,新規,0,2024-01-24,2024-01-24,株式会社Ａｔｏｍｏ,,株式会社,大阪府,大阪市福島区,海老江１丁目３番９号８Ｆ,,27,103,5530001,,,,,,,2024-01-24,1,,,,,アトモ,0
2709,7120003025752,新規,0,2024-01-24,2024-01-24,Ｃ’ｓ　ｆｏｒｅｓｔ合同会社,,合同会社,大阪府,大阪市東成区,大今里南６丁目２８番１９号,,27,115,5370013,,,,,,,2024-01-24,1,,,,,シーズフォレスト,0
2710,7120005024125,新規,0,2024-01-24,2024-01-24,医療法人加永会,,その他の設立登記法人,大阪府,大阪市中央区,心斎橋筋２丁目６番１４号アクロスビル１２階,,27,128,5420085,,,,,,,2024-01-24,1,,,,,カエイカイ,0
2714,7120101068934,新規,0,2024-01-24,2024-01-24,株式会社ｏｆｆｉｃｅ　Ｋｅｎ,,株式会社,大阪府,岸和田市,上松町３０６２番地,,27,202,5960827,,,,,,,2024-01-24,1,,,,,オフィスケン,0
2715,7120105009819,新規,0,2024-01-24,2024-01-24,医療法人信喜会,,その他の設立登記法人,大阪府,泉南市,樽井２丁目６番２号,,27,228,5900521,,,,,,,2024-01-24,1,,,,,シンキカイ,0
2719,7120901048672,新規,0,2024-01-24,2024-01-24,エイム株式会社,,株式会社,大阪府,箕面市,森町南１丁目６番２５号,,27,220,5630258,,,,,,,2024-01-24,1,,,,,エイム,0
2730,7130001076193,新規,0,2024-01-24,2024-01-24,ＡＫ株式会社,,株式会社,京都府,相楽郡和束町,大字撰原小字松ノ尾１０１番地４,,26,365,6191225,,,,,,,2024-01-24,1,,,,,エイケイ,0
2740,7140001133035,新規,0,2024-01-24,2024-01-24,株式会社トレック,,株式会社,兵庫県,尼崎市,武庫之荘本町３丁目６番６－５０２号,,28,202,6610031,,,,,,,2024-01-24,1,,,,,トレック,0
2741,7140003020066,新規,0,2024-01-24,2024-01-24,ＵＫＩ’Ｓ　ｐｒｏｄｕｃｔｉｏｎ合同会社,,合同会社,兵庫県,川西市,大和西３丁目１８－１,,28,217,6660112,,,,,,,2024-01-24,1,,,,,,0
2744,7150001027038,新規,0,2024-01-24,2024-01-24,株式会社Ｈａｎｇｏｕｔ,,株式会社,奈良県,生駒市,小平尾町４３２番地３,,29,209,6300226,,,,,,,2024-01-24,1,,,,,ハングアウト,0
2745,7160001025651,新規,0,2024-01-24,2024-01-24,ＳＦＫＳ００２株式会社,,株式会社,滋賀県,近江八幡市,倉橋部町２４３番地,,25,204,5230023,,,,,,,2024-01-24,1,,,,,エスエフケイエスゼロゼロニ,0
2749,7180001159893,新規,0,2024-01-24,2024-01-24,株式会社農地管理,,株式会社,愛知県,名古屋市千種区,向陽町２丁目１１番地の８,,23,101,4640062,,,,,,,2024-01-24,1,,,,,ノウチカンリ,0
2750,7180001159902,新規,0,2024-01-24,2024-01-24,株式会社ＢＥＬＬＺ,,株式会社,愛知県,江南市,上奈良町錦３４番地３,,23,217,4838259,,,,,,,2024-01-24,1,,,,,ベルズ,0
2757,7180301038260,新規,0,2024-01-24,2024-01-24,株式会社トワイト,,株式会社,愛知県,岡崎市,矢作町字西林寺２０６番地１５,,23,202,4440943,,,,,,,2024-01-24,1,,,,,トワイト,0
2761,7200001042080,新規,0,2024-01-24,2024-01-24,Ｇｒｅｅｎ　Ｗｏｒｌｄ株式会社,,株式会社,岐阜県,美濃加茂市,川合町２丁目８番２１号コーポ金源Ｂ室,,21,211,5050022,,,,,,,2024-01-24,1,,,,,グリーンワールド,0
2762,7200001042106,新規,0,2024-01-24,2024-01-24,株式会社ｅｓｔａｔｅ,,株式会社,岐阜県,美濃市,上河和１１６３番地１,,21,207,5013702,,,,,,,2024-01-24,1,,,,,エステート,0
2764,7210003001744,新規,0,2024-01-24,2024-01-24,カドサンチ合同会社,,合同会社,福井県,福井市,つくし野２丁目１３０６,,18,201,9100101,,,,,,,2024-01-24,1,,,,,カドサンチ,0
2776,7240001062694,新規,0,2024-01-24,2024-01-24,株式会社Ｃｈｏｉ　Ｓｐｏｔ,,株式会社,広島県,広島市南区,旭１丁目４番１０－１０２号,,34,103,7340036,,,,,,,2024-01-24,1,,,,,チョイスポット,0
2777,7240001062703,新規,0,2024-01-24,2024-01-24,Ｂｒａｓｓ　Ｇｅａｒ株式会社,,株式会社,広島県,福山市,新涯町５丁目８番２８－２号,,34,207,7210955,,,,,,,2024-01-24,1,,,,,ブラスギア,0
2790,7240002038132,新規,0,2024-01-24,2024-01-24,有限会社アイエヌ,,有限会社,広島県,廿日市市,前空２丁目４番６号,,34,213,7390424,,,,,,,2024-01-24,1,,,,,アイエヌ,0
2794,7250001020486,新規,0,2024-01-24,2024-01-24,株式会社ケイシン工業,,株式会社,山口県,岩国市,平田１丁目４３番１７号,,35,208,7410072,,,,,,,2024-01-24,1,,,,,ケイシンコウギョウ,0
2802,7260001038684,新規,0,2024-01-24,2024-01-24,中塚工業株式会社,,株式会社,岡山県,倉敷市,玉島長尾３２０番地１,,33,202,7100251,,,,,,,2024-01-24,1,,,,,ナカツカコウギョウ,0
2803,7260001038692,新規,0,2024-01-24,2024-01-24,オカダコーポレーション株式会社,,株式会社,岡山県,岡山市南区,新福２丁目２番１３号,,33,104,7000943,,,,,,,2024-01-24,1,,,,,オカダコーポレーション,0
2812,7260003004552,新規,0,2024-01-24,2024-01-24,合同会社空と光のアトリエ,,合同会社,岡山県,岡山市北区,下中野７０１－１０６,,33,101,7000973,,,,,,,2024-01-24,1,,,,,クウトヒカリノアトリエ,0
2819,7290001104467,新規,0,2024-01-24,2024-01-24,株式会社マシマシフーズ,,株式会社,福岡県,飯塚市,綱分３８７番地,,40,205,8200101,,,,,,,2024-01-24,1,,,,,マシマシフーズ,0
2820,7290001104475,新規,0,2024-01-24,2024-01-24,株式会社ＦＯＲＴＥ,,株式会社,福岡県,福岡市南区,的場１丁目５番７－１０２号オリオンＢ棟,,40,134,8111314,,,,,,,2024-01-24,1,,,,,フォルテ,0
2823,7290003014870,新規,0,2024-01-24,2024-01-24,合同会社ＫＫｓ,,合同会社,福岡県,飯塚市,多田２７０番地１,,40,205,8200116,,,,,,,2024-01-24,1,,,,,ケイケイエス,0
2824,7290003014887,新規,0,2024-01-24,2024-01-24,合同会社来安,,合同会社,福岡県,糸島市,泊１２０４番地３,,40,230,8191111,,,,,,,2024-01-24,1,,,,,ライアン,0
2825,7290005019273,新規,0,2024-01-24,2024-01-24,特定非営利活動法人ルーセンス,,その他の設立登記法人,福岡県,福岡市東区,舞松原２丁目１２番３－１０５号Ｃｒｅｏ千早南伍番館,,40,131,8130042,,,,,,,2024-01-24,1,,,,,ルーセンス,0
2826,7290801030243,新規,0,2024-01-24,2024-01-24,株式会社ＴＥＡＭ,,株式会社,福岡県,北九州市小倉北区,砂津２丁目１４番１３号,,40,106,8020014,,,,,,,2024-01-24,1,,,,,チーム,0
2827,7290803004600,新規,0,2024-01-24,2024-01-24,合同会社住いリフォームサン,,合同会社,福岡県,遠賀郡水巻町,二東３丁目１６番３１号,,40,382,8070054,,,,,,,2024-01-24,1,,,,,スマイリフォームサン,0
2829,7300001013600,新規,0,2024-01-24,2024-01-24,株式会社風企,,株式会社,佐賀県,佐賀市,鍋島町大字蛎久１３９０番地４,,41,201,8490931,,,,,,,2024-01-24,1,,,,,フウキ,0
2833,7310003004712,新規,0,2024-01-24,2024-01-24,合同会社Ｄ‐ＭＡＲＫ,,合同会社,長崎県,佐世保市,勝富町３－６ＫＮビル１階,,42,202,8570803,,,,,,,2024-01-24,1,,,,,ディーマーク,0
2835,7330001013110,新規,0,2024-01-24,2024-01-24,株式会社坂本建設,,株式会社,熊本県,宇城市,三角町波多５３６番地の４,,43,213,8693205,,,,,,,2024-01-24,1,,,,,サカモトケンセツ,0
2846,7360003013626,新規,0,2024-01-24,2024-01-24,合同会社イソロク,,合同会社,沖縄県,中頭郡北谷町,字桑江４７８番地１１－１Ｆ,,47,326,9040103,,,,,,,2024-01-24,1,,,,,イソロク,0
2850,7390001017493,新規,0,2024-01-24,2024-01-24,株式会社こころ,,株式会社,山形県,酒田市,大町６－１２,,06,204,9980859,,,,,,,2024-01-24,1,,,,,ココロ,0
2858,7430001090791,新規,0,2024-01-24,2024-01-24,柴北エンジニアリング株式会社,,株式会社,北海道,札幌市中央区,南一条西１６丁目１番地３２３春野ビル３Ｆ,,01,101,0600061,,,,,,,2024-01-24,1,,,,,シバキタエンジニアリング,0
2887,7500001025427,新規,0,2024-01-24,2024-01-24,株式会社ＣＨＯＳＯ,,株式会社,愛媛県,西条市,大町１６９番地１,,38,206,7930030,,,,,,,2024-01-24,1,,,,,チョウソ,0
2888,7500005008667,新規,0,2024-01-24,2024-01-24,一般社団法人フライトデッキ,,その他の設立登記法人,愛媛県,松山市,萱町６丁目１３番地２,,38,201,7900813,,,,,,,2024-01-24,1,,,,,フライトデッキ,0
2898,8010001241667,新規,0,2024-01-24,2024-01-24,株式会社辛沐投資,,株式会社,東京都,文京区,関口３丁目１４番７号,,13,105,1120014,,,,,,,2024-01-24,1,,,,,シンモクトウシ,0
2899,8010001241675,新規,0,2024-01-24,2024-01-24,株式会社ＨＥＲＯ,,株式会社,東京都,千代田区,神田和泉町１番地６－１６ヤマトビル４０５,,13,101,1010024,,,,,,,2024-01-24,1,,,,,ヒーロー,0
2900,8010001241683,新規,0,2024-01-24,2024-01-24,株式会社ＤｅＲＴＡ　Ｅｎｔｅｒｔａｉｎｍｅｎｔ,,株式会社,東京都,中央区,日本橋茅場町２丁目１７番５号第３高野ビル６階,,13,102,1030025,,,,,,,2024-01-24,1,,,,,デルタエンターテインメント,0
2901,8010001241700,新規,0,2024-01-24,2024-01-24,株式会社ＳＴＯＣＫ１４７,,株式会社,東京都,千代田区,永田町２丁目１２番４号,,13,101,1000014,,,,,,,2024-01-24,1,,,,,ストックヒャクヨンジュウナナ,0
2902,8010001241709,新規,0,2024-01-24,2024-01-24,株式会社アーツ,,株式会社,東京都,中央区,日本橋富沢町１２番１１－６０１号,,13,102,1030006,,,,,,,2024-01-24,1,,,,,アーツ,0
2909,8010005037789,新規,0,2024-01-24,2024-01-24,一般社団法人富士見ヶ丘地建,,その他の設立登記法人,東京都,中央区,八丁堀４丁目２番１０号ＡＯＪ税理士法人内,,13,102,1040032,,,,,,,2024-01-24,1,,,,,フジミガオカチケン,0
2911,8010103002298,新規,0,2024-01-24,2024-01-24,ＶＩＳＩＯＮＩｎｆｉｎｉｔｙ合同会社,,合同会社,東京都,八王子市,横山町２１番１１号,,13,201,1920081,,,,,,,2024-01-24,1,,,,,ビジョニンフィニティ,0
2916,8010401179920,新規,0,2024-01-24,2024-01-24,ビンアン・ジャパン株式会社,,株式会社,東京都,港区,南麻布１丁目５番８号,,13,103,1060047,,,,,,,2024-01-24,1,,,,,ビンアンジャパン,0
2918,8010403031765,新規,0,2024-01-24,2024-01-24,ｏｒｉｎａｓｕ　ＩＮＮＯＶＡＴＩＯＮ合同会社,,合同会社,東京都,港区,南青山２丁目２番１５号ウィン青山９４２,,13,103,1070062,,,,,,,2024-01-24,1,,,,,オリナスイノベーション,0
2922,8010701045434,新規,0,2024-01-24,2024-01-24,株式会社ＦＥＬＬＯＷＳ　ＦＡＣＴＯＲＹ,,株式会社,東京都,品川区,西品川１丁目２９番１２号ＣＳＲ品川,,13,109,1410033,,,,,,,2024-01-24,1,,,,,フェローズファクトリー,0
2923,8010701045442,新規,0,2024-01-24,2024-01-24,株式会社ＩｎｆｉｎｉｔｙＢｒｉｄｇｅ,,株式会社,東京都,品川区,西品川１丁目２９番１２号ＣＳＲ品川,,13,109,1410033,,,,,,,2024-01-24,1,,,,,インフィニティブリッジ,0
2929,8010901054581,新規,0,2024-01-24,2024-01-24,株式会社ルイリサーチ,,株式会社,東京都,世田谷区,上祖師谷５丁目１５－１－６０５,,13,112,1570065,,,,,,,2024-01-24,1,,,,,ルイリサーチ,0
2930,8010903008750,新規,0,2024-01-24,2024-01-24,合同会社ケーアールアール,,合同会社,東京都,世田谷区,奥沢５丁目３０番１０号５階,,13,112,1580083,,,,,,,2024-01-24,1,,,,,ケーアールアール,0
2937,8011001159494,新規,0,2024-01-24,2024-01-24,株式会社ＹＥＬＬ‐Ｔｅｅｎ,,株式会社,東京都,渋谷区,代官山町２０番２３号３階,,13,113,1500034,,,,,,,2024-01-24,1,,,,,エールティーン,0
2938,8011001159536,新規,0,2024-01-24,2024-01-24,株式会社Ｇａｕｄｉｙ　Ｆｉｎａｎｃｉａｌ　Ｌａｂｓ,,株式会社,東京都,渋谷区,笹塚１丁目６４番８号Ｄａｉｗａ笹塚ビル６階,,13,113,1510073,,,,,,,2024-01-24,1,,,,,ガウディフィナンシャルラボ,0
2939,8011001159544,新規,0,2024-01-24,2024-01-24,株式会社Ｕ．Ｓ．Ｉ．,,株式会社,東京都,渋谷区,恵比寿３丁目９番３号シルバラード１Ａ２０１,,13,113,1500013,,,,,,,2024-01-24,1,,,,,ユーエスアイ,0
2940,8011001159577,新規,0,2024-01-24,2024-01-24,株式会社Ｏｖａｌ　Ｄｅｓｉｇｎｉｎｇ,,株式会社,東京都,渋谷区,恵比寿西２丁目４番８号ウィンド恵比寿ビル８Ｆ,,13,113,1500021,,,,,,,2024-01-24,1,,,,,オーバルデザイニング,0
2943,8011003018335,新規,0,2024-01-24,2024-01-24,ＴＢＬ合同会社,,合同会社,東京都,渋谷区,神宮前３丁目２６番５号１０１号室,,13,113,1500001,,,,,,,2024-01-24,1,,,,,ティービーエル,0
2944,8011003018351,新規,0,2024-01-24,2024-01-24,合同会社シテン,,合同会社,東京都,渋谷区,道玄坂１丁目１０番８号渋谷道玄坂東急ビル２Ｆ－Ｃ,,13,113,1500043,,,,,,,2024-01-24,1,,,,,シテン,0
2946,8011101105860,新規,0,2024-01-24,2024-01-24,株式会社美千,,株式会社,東京都,新宿区,西新宿６丁目１２番６号コアロード西新宿６０６,,13,104,1600023,,,,,,,2024-01-24,1,,,,,ビセン,0
2947,8011101105902,新規,0,2024-01-24,2024-01-24,株式会社Ｙ２,,株式会社,東京都,新宿区,歌舞伎町２丁目２４番７号エコロ新宿第２ビル５０１号室,,13,104,1600021,,,,,,,2024-01-24,1,,,,,ワイツー,0
2948,8011101105935,新規,0,2024-01-24,2024-01-24,エール株式会社,,株式会社,東京都,新宿区,西落合３丁目１０番１８号,,13,104,1610031,,,,,,,2024-01-24,1,,,,,エール,0
2949,8011103014003,新規,0,2024-01-24,2024-01-24,合同会社ねこ膳,,合同会社,東京都,新宿区,新宿５丁目１７番１号,,13,104,1600022,,,,,,,2024-01-24,1,,,,,ネコゼン,0
2954,8011303005041,新規,0,2024-01-24,2024-01-24,合同会社ミライ,,合同会社,東京都,杉並区,高円寺南４丁目７番１３号仲野ビル二号室,,13,115,1660003,,,,,,,2024-01-24,1,,,,,ミライ,0
2960,8011501030238,新規,0,2024-01-24,2024-01-24,株式会社泰興,00133483,株式会社,東京都,北区,王子１丁目１０番１３号,,13,117,1140002,,,,,,,2024-01-24,1,,,,,タイコウ,0
2961,8011503005915,新規,0,2024-01-24,2024-01-24,合同会社ＴＣ,,合同会社,東京都,北区,滝野川５丁目４０番１５－７０１号エフティハイム,,13,117,1140023,,,,,,,2024-01-24,1,,,,,ティーシー,0
2963,8011603004222,新規,0,2024-01-24,2024-01-24,ＺＴＭ　Ｉｎｔｅｒｎａｔｉｏｎａｌ合同会社,,合同会社,東京都,練馬区,早宮２丁目８－１９,,13,120,1790085,,,,,,,2024-01-24,1,,,,,ズィーティーエムインターナショナル,0
2965,8011701026960,新規,0,2024-01-24,2024-01-24,株式会社Ｆｅｎｉｃｅ,,株式会社,東京都,江戸川区,船堀４丁目２番１４－２０４号,,13,123,1340091,,,,,,,2024-01-24,1,,,,,フェニーチェ,0
2966,8011703003719,新規,0,2024-01-24,2024-01-24,合同会社ＴＡＮＯエンタープライズ,,合同会社,東京都,江戸川区,中葛西２丁目１１番１７号,,13,123,1340083,,,,,,,2024-01-24,1,,,,,ターノエンタープライズ,0
2969,8011801043690,新規,0,2024-01-24,2024-01-24,株式会社ＢＥＡＴＲＥＸ,,株式会社,東京都,足立区,綾瀬２丁目６番２１－２０２号,,13,121,1200005,,,,,,,2024-01-24,1,,,,,ビートレックス,0
2970,8012401041449,新規,0,2024-01-24,2024-01-24,ＡＬＬ　ＴＯＧＥＴＨＥＲ株式会社,,株式会社,東京都,三鷹市,大沢５丁目６‐７,,13,204,1810015,,,,,,,2024-01-24,1,,,,,オールトゥギャザー,0
2978,8013101009331,新規,0,2024-01-24,2024-01-24,株式会社東京山側ＤＭＣ,,株式会社,東京都,あきる野市,草花２９７４番地１草花住宅３号棟,,13,228,1970802,,,,,,,2024-01-24,1,,,,,トウキョウヤマガワディーエムシー,0
2987,8020001155362,新規,0,2024-01-24,2024-01-24,ソルゼスト株式会社,,株式会社,神奈川県,横浜市青葉区,荏田西１丁目１２番地１７クレッセント市が尾ヒルサイドコート１０４号,,14,117,2250014,,,,,,,2024-01-24,1,,,,,ソルゼスト,0
2988,8020001155478,新規,0,2024-01-24,2024-01-24,ＡＸ株式会社,,株式会社,神奈川県,横浜市神奈川区,六角橋２丁目１６番１号長瀬ビル１Ｆ－Ａ,,14,102,2210802,,,,,,,2024-01-24,1,,,,,アックス,0
2993,8020003025365,新規,0,2024-01-24,2024-01-24,東興商事合同会社,,合同会社,神奈川県,横浜市中区,長者町９丁目１４９番地４ダイアパレス伊勢佐木町４０３号,,14,104,2310033,,,,,,,2024-01-24,1,,,,,トウコウショウジ,0
2997,8021001081284,新規,0,2024-01-24,2024-01-24,株式会社今村工務店,,株式会社,神奈川県,相模原市緑区,大島１７１３番地７－２Ｆ,,14,151,2520135,,,,,,,2024-01-24,1,,,,,イマムラコウムテン,0
3001,8021003014003,新規,0,2024-01-24,2024-01-24,シエル合同会社,,合同会社,神奈川県,相模原市中央区,共和４丁目１３番５－５１５号,,14,152,2520234,,,,,,,2024-01-24,1,,,,,シエル,0
3002,8021003014060,新規,0,2024-01-24,2024-01-24,Ｍｏｊｉｔｏ合同会社,,合同会社,神奈川県,藤沢市,湘南台６丁目２６－１１ラベンダー湘南ＩＩＩ２０４号室,00133472,14,205,2520804,,,,,,,2024-01-24,1,,,,,モジト,0
3005,8030001060124,新規,0,2024-01-24,2024-01-24,株式会社アルバ電子工業,,株式会社,埼玉県,本庄市,東台５丁目６番２０号,,11,211,3670021,,,,,,,2024-01-24,1,,,,,アルバデンシコウギョウ,0
3009,8030001158273,新規,0,2024-01-24,2024-01-24,株式会社日和,,株式会社,埼玉県,蓮田市,馬込１丁目３４６番地,,11,238,3490114,,,,,,,2024-01-24,1,,,,,ヒヨリ,0
3010,8030001158348,新規,0,2024-01-24,2024-01-24,睿幸株式会社,,株式会社,埼玉県,川口市,西川口１丁目３０番２０－１０８号,,11,203,3320021,,,,,,,2024-01-24,1,,,,,エイコウ,0
3015,8040001131907,新規,0,2024-01-24,2024-01-24,株式会社マーガレットアカデミー,,株式会社,千葉県,千葉市美浜区,打瀬２丁目９番地パティオス１６番街１Ｆ,,12,106,2610013,,,,,,,2024-01-24,1,,,,,マーガレットアカデミー,0
3019,8050005013381,新規,0,2024-01-24,2024-01-24,社会保険労務士法人アイディールフォレスト,,その他の設立登記法人,茨城県,土浦市,田中３丁目８番３２号,,08,203,3000048,,,,,,,2024-01-24,1,,,,,アイディールフォレスト,0
3023,8060001036765,新規,0,2024-01-24,2024-01-24,株式会社ＡＲ,,株式会社,栃木県,芳賀郡芳賀町,大字八ツ木８２９－３,,09,345,3213306,,,,,,,2024-01-24,1,,,,,エーアール,0
3031,8070001041310,新規,0,2024-01-24,2024-01-24,株式会社連星,,株式会社,群馬県,佐波郡玉村町,大字五料９２０番地１イリーデＩ２０２,,10,464,3701115,,,,,,,2024-01-24,1,,,,,レンセイ,0
3045,8070003005247,新規,0,2024-01-24,2024-01-24,合同会社Ｒ．Ｎ,,合同会社,群馬県,邑楽郡大泉町,大字寄木戸１６３４番地の３,,10,524,3700535,,,,,,,2024-01-24,1,,,,,アールエヌ,0
3050,8080101024494,新規,0,2024-01-24,2024-01-24,株式会社ＬＡＺＯ,,株式会社,静岡県,伊豆の国市,吉田１２６番地,,22,225,4102322,,,,,,,2024-01-24,1,,,,,ラソ,0
3055,8090001018513,新規,0,2024-01-24,2024-01-24,ＫＯＵ株式会社,,株式会社,山梨県,甲斐市,境４７４番地,,19,210,4000122,,,,,,,2024-01-24,1,,,,,コウ,0
3056,8090003002473,新規,0,2024-01-24,2024-01-24,合同会社フューチャーアシスト,,合同会社,山梨県,笛吹市,石和町広瀬１５７－１,,19,211,4060035,,,,,,,2024-01-24,1,,,,,フューチャーアシスト,0
3057,8100003007371,新規,0,2024-01-24,2024-01-24,合同会社ＷＯＯＤ　ＳＴＯＣＫ　ＹＡＲＤ,,合同会社,長野県,北佐久郡軽井沢町,大字発地１１８５番地２４,,20,321,3890113,,,,,,,2024-01-24,1,,,,,ウッドストックヤード,0
3059,8110001038129,新規,0,2024-01-24,2024-01-24,株式会社ブルーオーシャン,,株式会社,新潟県,三条市,東本成寺１５８番地３,,15,204,9550823,,,,,,,2024-01-24,1,,,,,ブルーオーシャン,0
3071,8120001078776,新規,0,2024-01-24,2024-01-24,ケイ・エイチタマロウ工業株式会社,,株式会社,大阪府,大阪市中央区,高津町一丁目９番１０号マルコーインテリジェンス９０４号,,27,128,5390000,,,,,,,2024-01-24,1,,,,,ケイエイチタマロウコウギョウ,0
3080,8120001261506,新規,0,2024-01-24,2024-01-24,彩株式会社,,株式会社,大阪府,大阪市東住吉区,南田辺１丁目８－４３ＵＩＩＴビル２０１号室,,27,121,5460033,,,,,,,2024-01-24,1,,,,,アヤ,0
3081,8120001261605,新規,0,2024-01-24,2024-01-24,株式会社ライズ,,株式会社,大阪府,大阪市北区,大淀南２丁目８番３号,,27,127,5310075,,,,,,,2024-01-24,1,,,,,ライズ,0
3086,8120003025693,新規,0,2024-01-24,2024-01-24,合同会社優芽,,合同会社,大阪府,大阪市中央区,南船場４丁目９番１２－５０８号,,27,128,5420081,,,,,,,2024-01-24,1,,,,,ユメ,0
3087,8120005024124,新規,0,2024-01-24,2024-01-24,医療法人清州会,,その他の設立登記法人,大阪府,大阪市阿倍野区,阪南町３丁目１０番３号グレースコートシーダーバレーＩＩ１階,00133468,27,119,5450021,,,,,,,2024-01-24,1,,,,,セイシュウカイ,0
3093,8120103005645,新規,0,2024-01-24,2024-01-24,合同会社ＫＡＩ,,合同会社,大阪府,堺市堺区,陵西通２番３６号エイトワン陵西通１０３,,27,141,5900041,,,,,,,2024-01-24,1,,,,,カイ,0
3094,8120105009818,新規,0,2024-01-24,2024-01-24,医療法人稲医会,,その他の設立登記法人,大阪府,松原市,天美東７丁目６１番地の５ヴィラ花水木２０６号,,27,217,5800032,,,,,,,2024-01-24,1,,,,,トウイカイ,0
3096,8120903005010,新規,0,2024-01-24,2024-01-24,合同会社ノーマル,,合同会社,大阪府,吹田市,江坂町５丁目７番１７号江坂ＮＡＫＡＴＡハイツ３１３,,27,205,5640063,,,,,,,2024-01-24,1,,,,,ノーマル,0
3097,8120903005019,新規,0,2024-01-24,2024-01-24,合同会社Ｓ．Ｃ,,合同会社,大阪府,豊中市,長興寺南４丁目１５番１３号,,27,203,5610874,,,,,,,2024-01-24,1,,,,,エスシー,0
3101,8122001037753,新規,0,2024-01-24,2024-01-24,ＲＵＭＩＮＥ株式会社,,株式会社,大阪府,八尾市,恩智南町３丁目１４０番地の２,,27,212,5810884,,,,,,,2024-01-24,1,,,,,ルミネ,0
3110,8130001076218,新規,0,2024-01-24,2024-01-24,金達貿易株式会社,,株式会社,京都府,京都市右京区,西院西淳和院町３８－１ベルファム西院２０６室,,26,108,6150016,,,,,,,2024-01-24,1,,,,,キンタツボウエキ,0
3120,8130003009225,新規,0,2024-01-24,2024-01-24,合同会社ＴＡＭＡＧＯ,,合同会社,京都府,京都市下京区,真町９０番地５西木屋町白鳥ビル２Ｆ,,26,106,6008001,,,,,,,2024-01-24,1,,,,,タマゴ,0
3121,8130003009258,新規,0,2024-01-24,2024-01-24,合同会社Ｒｅ　Ｆｏｒｃｅ,,合同会社,京都府,京都市伏見区,下鳥羽北ノ口町６０－２Ｆ,,26,109,6128392,,,,,,,2024-01-24,1,,,,,リフォース,0
3131,8140003020073,新規,0,2024-01-24,2024-01-24,合同会社風雲堂,,合同会社,兵庫県,芦屋市,業平町２番７－６０３号,,28,206,6590068,,,,,,,2024-01-24,1,,,,,ホウウンドウ,0
3132,8150001027029,新規,0,2024-01-24,2024-01-24,株式会社宗秀,,株式会社,奈良県,葛城市,八川９１番地１,,29,211,6392163,,,,,,,2024-01-24,1,,,,,ソウシュウ,0
3137,8180001159901,新規,0,2024-01-24,2024-01-24,株式会社Ｍａｚｅｌｌｅ,,株式会社,愛知県,名古屋市中区,大須４丁目１３番４６号ウィストリアビル９Ｆ,,23,106,4600011,,,,,,,2024-01-24,1,,,,,マゼル,0
3139,8180003026257,新規,0,2024-01-24,2024-01-24,合同会社織助,,合同会社,愛知県,海部郡大治町,大字北間島字宮東１０番地の３,,23,424,4901132,,,,,,,2024-01-24,1,,,,,オリスケ,0
3156,8240001062702,新規,0,2024-01-24,2024-01-24,株式会社ＫＡＴＡＹＡＭＡ　ＳＨＯＫＡＩ,,株式会社,広島県,福山市,伊勢丘７丁目１番９号,,34,207,7210915,,,,,,,2024-01-24,1,,,,,カタヤマショウカイ,0
3168,8250001000512,新規,0,2024-01-24,2024-01-24,株式会社西建,,株式会社,山口県,山口市,鋳銭司５８５４番地の１,,35,203,7471221,,,,,,,2024-01-24,1,,,,,ニシケン,0
3177,8260001038683,新規,0,2024-01-24,2024-01-24,株式会社藤田住建,,株式会社,岡山県,岡山市北区,白石３２６番地１,,33,101,7010143,,,,,,,2024-01-24,1,,,,,フジタジュウケン,0
3196,8280001009105,新規,0,2024-01-24,2024-01-24,株式会社池田内装,,株式会社,島根県,出雲市,大社町北荒木３６９番地,,32,203,6990722,,,,,,,2024-01-24,1,,,,,イケダナイソウ,0
3199,8290001104474,新規,0,2024-01-24,2024-01-24,Ｋ＆Ｋソリューションズ株式会社,,株式会社,福岡県,糟屋郡宇美町,大字井野３６９－１１,,40,341,8112104,,,,,,,2024-01-24,1,,,,,ケーアンドケーソリューションズ,0
3200,8290001104482,新規,0,2024-01-24,2024-01-24,株式会社金乃鳥,,株式会社,福岡県,福岡市博多区,博多駅東１丁目５番１５－７０７号,,40,132,8120013,,,,,,,2024-01-24,1,,,,,キンノトリ,0
3201,8290001104490,新規,0,2024-01-24,2024-01-24,株式会社帆に風,,株式会社,福岡県,福岡市西区,小戸３丁目５０番１－８０６号,,40,135,8190001,,,,,,,2024-01-24,1,,,,,ホニカゼ,0
3205,8290003014894,新規,0,2024-01-24,2024-01-24,ＨＯＭＥ’Ｓ　ＧＲＯＵＰ合同会社,,合同会社,福岡県,福岡市博多区,美野島２丁目２５－８美野和ビル１０２号,,40,132,8120017,,,,,,,2024-01-24,1,,,,,ホムズグループ,0
3207,8290801030250,新規,0,2024-01-24,2024-01-24,ウエダ株式会社,,株式会社,福岡県,行橋市,大字今井３７３５番地,,40,213,8240018,,,,,,,2024-01-24,1,,,,,ウエダ,0
3209,8310001018820,新規,0,2024-01-24,2024-01-24,株式会社Ｉｍｐａｃｔ,,株式会社,長崎県,佐世保市,大塔町２１４２－１,,42,202,8571161,,,,,,,2024-01-24,1,,,,,インパクト,0
3210,8320001020247,新規,0,2024-01-24,2024-01-24,株式会社ＣａｒｅＬｉｖｅｌｙ,,株式会社,大分県,別府市,大字鶴見字竹の内２１８７－１、２８７－３番地,,44,202,8740840,,,,,,,2024-01-24,1,,,,,ケアライブリー,0
3212,8330001031697,新規,0,2024-01-24,2024-01-24,三洋アライアンス株式会社,,株式会社,熊本県,熊本市中央区,九品寺１丁目１７番９号,,43,101,8620976,,,,,,,2024-01-24,1,,,,,サンヨウアライアンス,0
3216,8340001026234,新規,0,2024-01-24,2024-01-24,株式会社高橋組,00133469,株式会社,鹿児島県,鹿児島市,坂元町７１番６号,,46,201,8920862,,,,,,,2024-01-24,1,,,,,タカハシグミ,0
3232,8370001050859,新規,0,2024-01-24,2024-01-24,株式会社ＨＡＴＡＫＩＮ,,株式会社,宮城県,仙台市泉区,松陵３丁目５番地の８,,04,105,9813108,,,,,,,2024-01-24,1,,,,,ハタキン,0
3234,8370003006454,新規,0,2024-01-24,2024-01-24,合同会社ブルー,,合同会社,宮城県,仙台市若林区,遠見塚２丁目６番５―２０７号,,04,103,9840823,,,,,,,2024-01-24,1,,,,,ブルー,0
3270,8430003015878,新規,0,2024-01-24,2024-01-24,Ｉｎｃｌｕｔｅｃｈ合同会社,,合同会社,北海道,札幌市豊平区,美園一条２丁目３番２８号,,01,105,0620001,,,,,,,2024-01-24,1,,,,,インクルーテック,0
3274,8430005014878,新規,0,2024-01-24,2024-01-24,一般社団法人事業促進支援Ｌａｂｏ,,その他の設立登記法人,北海道,札幌市中央区,北三条西２８丁目２番１号サンビル５階,,01,101,0640823,,,,,,,2024-01-24,1,,,,,ジギョウソクシンシエンラボ,0
3276,8470001019984,新規,0,2024-01-24,2024-01-24,株式会社萬葉植物園,,株式会社,香川県,高松市,丸の内１１番地の１５,,37,201,7600033,,,,,,,2024-01-24,1,,,,,,0
3277,8470001019992,新規,0,2024-01-24,2024-01-24,株式会社Ｎクラフト,,株式会社,香川県,三豊市,豊中町比地大１４３９番地１,,37,208,7691501,,,,,,,2024-01-24,1,,,,,エヌクラフト,0
3288,8700150123539,新規,0,2024-01-24,2024-01-24,北京葵花医薬研究有限責任公司　日本事務所,,外国会社等,埼玉県,さいたま市緑区,大字大門２５３３－４,,11,109,3360963,中国北京市大興区中関村科技園区大興生物医薬産業基地華佗路５０号１９棟１階１０１,,,,,,2024-01-24,1,,,,,ペキンキカイヤクケンキユウユウゲンセキニンコウシニホンジムシヨ,0
3296,9010001241550,新規,0,2024-01-24,2024-01-24,ＳＴＲＯＮＧ　Ｐｉｌａｔｅｓ　Ｊａｐａｎ株式会社,,株式会社,東京都,千代田区,飯田橋２丁目１番１０号ＴＵＧビル４Ｆ,,13,101,1020072,,,,,,,2024-01-24,1,,,,,ストロングピラティスジャパン,0
3297,9010001241600,新規,0,2024-01-24,2024-01-24,株式会社クリエイターコーチ,,株式会社,東京都,中央区,銀座１丁目１２－４Ｎ＆ＥＢＬＤ．７階,,13,102,1040061,,,,,,,2024-01-24,1,,,,,クリエイターコーチ,0
3298,9010001241674,新規,0,2024-01-24,2024-01-24,ＴＡＩＴＯ　ＬＩＦＥ株式会社,,株式会社,東京都,文京区,千駄木３丁目２３－５,,13,105,1130022,,,,,,,2024-01-24,1,,,,,タイトウライフ,0
3299,9010001241699,新規,0,2024-01-24,2024-01-24,株式会社ＳＴＯＣＫ１４６,,株式会社,東京都,千代田区,永田町２丁目１２番４号,,13,101,1000014,,,,,,,2024-01-24,1,,,,,ストックヒャクヨンジュウロク,0
3300,9010001241708,新規,0,2024-01-24,2024-01-24,株式会社アテナグローバルホールディングス,,株式会社,東京都,千代田区,永田町２丁目１７番８－３０１号,,13,101,1000014,,,,,,,2024-01-24,1,,,,,アテナグローバルホールディングス,0
3301,9010001241765,新規,0,2024-01-24,2024-01-24,株式会社エフティーラボ,,株式会社,東京都,中央区,八重洲２丁目１番１号ヤンマービル１２階,,13,102,1040028,,,,,,,2024-01-24,1,,,,,エフティーラボ,0
3302,9010003042757,新規,0,2024-01-24,2024-01-24,合同会社ＴＨＲＥＥ,,合同会社,東京都,千代田区,内神田３丁目１９番７号,,13,101,1010047,,,,,,,2024-01-24,1,,,,,スリー,0
3303,9010003042765,新規,0,2024-01-24,2024-01-24,アワート合同会社,,合同会社,東京都,千代田区,神田和泉町１番地６－１６ヤマトビル４０５,,13,101,1010024,,,,,,,2024-01-24,1,,,,,アワート,0
3304,9010005037771,新規,0,2024-01-24,2024-01-24,ソーラーゼノンホールディングス一般社団法人,,その他の設立登記法人,東京都,中央区,八丁堀４丁目２番１０号ＡＯＪ税理士法人内,,13,102,1040032,,,,,,,2024-01-24,1,,,,,ソーラーゼノンホールディングス,0
3305,9010005037788,新規,0,2024-01-24,2024-01-24,ＬＵＮＡ一般社団法人,,その他の設立登記法人,東京都,中央区,銀座１丁目６番１１号土志田ビルディング３Ｆ,,13,102,1040061,,,,,,,2024-01-24,1,,,,,ルナ,0
3317,9010501051664,新規,0,2024-01-24,2024-01-24,京大株式会社,,株式会社,東京都,台東区,浅草橋１丁目２５－７－２０２,,13,106,1110053,,,,,,,2024-01-24,1,,,,,キョウダイ,0
3318,9010501051672,新規,0,2024-01-24,2024-01-24,Ｇｌｏｂａｌ　Ｈｏｕｓｅｗａｒｅｓ株式会社,,株式会社,東京都,台東区,北上野２丁目２５番７号利達ビル２０６号室,,13,106,1100014,,,,,,,2024-01-24,1,,,,,グローバルハウスウェアーズ,0
3322,9010701045441,新規,0,2024-01-24,2024-01-24,株式会社ＩＮＧ,,株式会社,東京都,品川区,荏原５丁目５番４－２０１号,,13,109,1420063,,,,,,,2024-01-24,1,,,,,アイエヌジー,0
3323,9010803004824,新規,0,2024-01-24,2024-01-24,ＢｉＹ合同会社,,合同会社,東京都,大田区,南馬込５丁目１７－２－６０２,,13,111,1430025,,,,,,,2024-01-24,1,,,,,ビーワイ,0
3325,9010901054580,新規,0,2024-01-24,2024-01-24,株式会社インティラス,,株式会社,東京都,世田谷区,三軒茶屋１丁目３０番１６号アーベニー３０２,,13,112,1540024,,,,,,,2024-01-24,1,,,,,インティラス,0
3328,9010903008758,新規,0,2024-01-24,2024-01-24,合同会社ストックテクノロジーズ,,合同会社,東京都,世田谷区,大原２丁目２２番１５号代田橋ハイム２０２,,13,112,1560041,,,,,,,2024-01-24,1,,,,,ストックテクノロジーズ,0
3330,9011001159568,新規,0,2024-01-24,2024-01-24,株式会社ｕｍｂｅｒ,,株式会社,東京都,渋谷区,鶯谷町５番１号,,13,113,1500032,,,,,,,2024-01-24,1,,,,,アンバー,0
3331,9011001159576,新規,0,2024-01-24,2024-01-24,株式会社Ｆｒｏｎｔｚ,,株式会社,東京都,渋谷区,道玄坂１丁目１０番８号渋谷道玄坂東急ビル２Ｆ－Ｃ,,13,113,1500043,,,,,,,2024-01-24,1,,,,,フロンツ,0
3332,9011001159584,新規,0,2024-01-24,2024-01-24,株式会社ｈａｍｕ,,株式会社,東京都,渋谷区,渋谷２丁目１９－１５宮益坂ビルディング６０９,,13,113,1500002,,,,,,,2024-01-24,1,,,,,ハム,0
3333,9011001159592,新規,0,2024-01-24,2024-01-24,リージョナルリング株式会社,,株式会社,東京都,渋谷区,恵比寿１丁目２９番１５号,,13,113,1500013,,,,,,,2024-01-24,1,,,,,リージョナルリング,0
3334,9011001159618,新規,0,2024-01-24,2024-01-24,株式会社ＮＯＦＵＴＵＲＥ,,株式会社,東京都,目黒区,上目黒３丁目３２－５カ－サデルソル３０２,,13,110,1530051,,,,,,,2024-01-24,1,,,,,ノーフューチャー,0
3335,9011003018292,新規,0,2024-01-24,2024-01-24,合同会社Ｐａｒｔｉｅ,,合同会社,東京都,渋谷区,渋谷２丁目１９－１５宮益坂ビルディング６０９,,13,113,1500002,,,,,,,2024-01-24,1,,,,,パルティエ,0
3336,9011003018350,新規,0,2024-01-24,2024-01-24,Ｒ＆Ｙ合同会社,,合同会社,東京都,渋谷区,渋谷２丁目１９－１５宮益坂ビルディング６０９,,13,113,1500002,,,,,,,2024-01-24,1,,,,,アールアンドワイ,0
3340,9011101105926,新規,0,2024-01-24,2024-01-24,株式会社ＳＵＺＡＫＵ,,株式会社,東京都,新宿区,西新宿３丁目５番１２－１００９号室,,13,104,1600023,,,,,,,2024-01-24,1,,,,,スザク,0
3341,9011101105934,新規,0,2024-01-24,2024-01-24,株式会社ＬｏＲＡ,,株式会社,東京都,新宿区,西新宿３丁目１５番５－４２７号,,13,104,1600023,,,,,,,2024-01-24,1,,,,,ロラ,0
3343,9011103013986,新規,0,2024-01-24,2024-01-24,ＩＣコンサルティング合同会社,,合同会社,東京都,新宿区,大久保２丁目１番９号ＫＤＸレジデンス東新宿９０２,,13,104,1690072,,,,,,,2024-01-24,1,,,,,アイシーコンサルティング,0
3344,9011105010924,新規,0,2024-01-24,2024-01-24,一般社団法人ＣＳＡ経営協会,,その他の設立登記法人,東京都,新宿区,西新宿６丁目５番１号,,13,104,1600023,,,,,,,2024-01-24,1,,,,,シーエスエーケイエイキョウカイ,0
3345,9011203004290,新規,0,2024-01-24,2024-01-24,合同会社Ｐｌｅａｓｕｒｅ,,合同会社,東京都,中野区,大和町２丁目８番３３号聚楽ハイツ６０７,,13,114,1650034,,,,,,,2024-01-24,1,,,,,プレジャー,0
3347,9011401025790,新規,0,2024-01-24,2024-01-24,株式会社Ｓ　ａｎｄ,,株式会社,東京都,板橋区,宮本町６番９号,,13,119,1740054,,,,,,,2024-01-24,1,,,,,エスアンド,0
3354,9011601027488,新規,0,2024-01-24,2024-01-24,興亜美生株式会社,,株式会社,東京都,練馬区,桜台１丁目７番７－４０８号,,13,120,1760002,,,,,,,2024-01-24,1,,,,,コウアビシュウ,0
3365,9011801043681,新規,0,2024-01-24,2024-01-24,株式会社アクティブテック,,株式会社,東京都,足立区,六木４丁目５番２４号,,13,121,1210052,,,,,,,2024-01-24,1,,,,,アクティブテック,0
3366,9012301013737,新規,0,2024-01-24,2024-01-24,株式会社Ｎｕｍｂｅｒ０,,株式会社,東京都,町田市,小山町６０１０番地３,,13,209,1940212,,,,,,,2024-01-24,1,,,,,,0
3367,9012301013753,新規,0,2024-01-24,2024-01-24,株式会社ステップス・アヘッド,,株式会社,東京都,町田市,西成瀬２丁目３９番２号,,13,209,1940046,,,,,,,2024-01-24,1,,,,,ステップスアヘッド,0
3369,9012401041448,新規,0,2024-01-24,2024-01-24,株式会社ＢＲＩＧＨＴ,,株式会社,東京都,調布市,西つつじケ丘１丁目３５番地３０,,13,208,1820006,,,,,,,2024-01-24,1,,,,,ブライト,0
3375,9012801022923,新規,0,2024-01-24,2024-01-24,株式会社西川建創,,株式会社,東京都,立川市,一番町２丁目２１番地の２７,,13,202,1900033,,,,,,,2024-01-24,1,,,,,ニシカワケンソウ,0
3378,9013301051966,新規,0,2024-01-24,2024-01-24,株式会社ロエベ,,株式会社,東京都,豊島区,南池袋２丁目１１番１０号メイクスデザイン池袋８０６,,13,116,1710022,,,,,,,2024-01-24,1,,,,,ロエベ,0
3388,9020001155460,新規,0,2024-01-24,2024-01-24,リアルインサイト総合不動産株式会社,,株式会社,神奈川県,横浜市神奈川区,金港町７番地３金港ビル７階,,14,102,2210056,,,,,,,2024-01-24,1,,,,,リアルインサイトソウゴウフドウサン,0
3392,9020003025422,新規,0,2024-01-24,2024-01-24,ＭＯＶＥＵＰ合同会社,,合同会社,神奈川県,横浜市港北区,仲手原１丁目１１番１－３０５号,,14,109,2220023,,,,,,,2024-01-24,1,,,,,ムーブアップ,0
3393,9020003025430,新規,0,2024-01-24,2024-01-24,ＨＣ　ＧＲＯＵＰ合同会社,,合同会社,神奈川県,横浜市南区,永田北３丁目２５番５－２０４号,,14,105,2320071,,,,,,,2024-01-24,1,,,,,エイチシーグループ,0
3402,9030001158330,新規,0,2024-01-24,2024-01-24,シャインサービス株式会社,,株式会社,埼玉県,さいたま市南区,曲本４丁目１８番１５－１０８号,,11,108,3360033,,,,,,,2024-01-24,1,,,,,シャインサービス,0
3403,9030001158339,新規,0,2024-01-24,2024-01-24,株式会社ライジング,,株式会社,埼玉県,さいたま市見沼区,春岡３丁目３１番地３,,11,104,3370008,,,,,,,2024-01-24,1,,,,,ライジング,0
3404,9030001158355,新規,0,2024-01-24,2024-01-24,株式会社ファニーブレイブ,,株式会社,埼玉県,和光市,本町１１番１－４０２号,,11,229,3510114,,,,,,,2024-01-24,1,,,,,ファニーブレイブ,0
3405,9030001158363,新規,0,2024-01-24,2024-01-24,株式会社ＲａｐｉｄＢｒａｉｎ,,株式会社,埼玉県,川越市,中台元町１丁目７番地１７,,11,201,3501138,,,,,,,2024-01-24,1,,,,,ラピッドブレイン,0
3411,9030003023482,新規,0,2024-01-24,2024-01-24,ＣｈａｒｍＷｅｂ合同会社,,合同会社,埼玉県,さいたま市南区,大字広ヶ谷戸２０９番地３３,,11,108,3360041,,,,,,,2024-01-24,1,,,,,チャームウェブ,0
3412,9030003023499,新規,0,2024-01-24,2024-01-24,合同会社アップル,,合同会社,埼玉県,川口市,西川口１丁目１８番１８号１Ｆ,,11,203,3320021,,,,,,,2024-01-24,1,,,,,アップル,0
3421,9040001131880,新規,0,2024-01-24,2024-01-24,株式会社ＬｉｎｏＡ,,株式会社,千葉県,市川市,原木２丁目４番１０号,,12,203,2720004,,,,,,,2024-01-24,1,,,,,リノア,0
3422,9040001131889,新規,0,2024-01-24,2024-01-24,株式会社エムクリエイト,,株式会社,千葉県,松戸市,西馬橋２丁目４０番地の４１,,12,207,2710044,,,,,,,2024-01-24,1,,,,,エムクリエイト,0
3423,9040002007642,新規,0,2024-01-24,2024-01-24,有限会社千葉フォロー,,有限会社,千葉県,千葉市稲毛区,稲毛３丁目１３番８号,,12,103,2630034,,,,,,,2024-01-24,1,,,,,,0
3424,9040003024182,新規,0,2024-01-24,2024-01-24,後藤コンサルティング合同会社,,合同会社,千葉県,我孫子市,白山３丁目８番１４－４０５号,,12,222,2701154,,,,,,,2024-01-24,1,,,,,ゴトウコンサルティング,0
3425,9050001054115,新規,0,2024-01-24,2024-01-24,ＨＡＹＡＴ　ＴＲＡＤＩＮＧ株式会社,,株式会社,茨城県,猿島郡境町,大字大歩１５８８番地２,,08,546,3060415,,,,,,,2024-01-24,1,,,,,ハヤートトレーディング,0
3427,9050003008077,新規,0,2024-01-24,2024-01-24,合同会社野口電設,,合同会社,茨城県,坂東市,逆井２８３３番地１６４,,08,228,3060501,,,,,,,2024-01-24,1,,,,,ノグチデンセツ,0
3428,9060001036764,新規,0,2024-01-24,2024-01-24,株式会社ｔｏｉｒｏコンサルティング,,株式会社,栃木県,宇都宮市,平松本町１１３０番地２３,,09,201,3210932,,,,,,,2024-01-24,1,,,,,トイロコンサルティング,0
3450,9080101024493,新規,0,2024-01-24,2024-01-24,株式会社吾条,,株式会社,静岡県,駿東郡清水町,徳倉２５５３番地の７,,22,341,4110917,,,,,,,2024-01-24,1,,,,,ゴジョウ,0
3455,9100003007370,新規,0,2024-01-24,2024-01-24,合同会社Ｓ＆Ｄ,,合同会社,長野県,長野市,三輪５丁目１６番２４号クラスター柳町Ｄ号室,,20,201,3800803,,,,,,,2024-01-24,1,,,,,エスアンドディー,0
3460,9110001038128,新規,0,2024-01-24,2024-01-24,株式会社Ｈ・Ｔ,,株式会社,新潟県,上越市,春日野２丁目４番１号,,15,222,9430803,,,,,,,2024-01-24,1,,,,,エイチティー,0
3467,9110003005266,新規,0,2024-01-24,2024-01-24,ＮＯＳＡＣＨＩ合同会社,,合同会社,新潟県,村上市,緑町２丁目２－１６,,15,212,9580033,,,,,,,2024-01-24,1,,,,,ノサチ,0
3481,9120001261488,新規,0,2024-01-24,2024-01-24,ＣＯＩＮＴＡＸｔｅｃｈｎｏｌｏｇｉｅｓ株式会社,,株式会社,大阪府,大阪市北区,堂島２丁目３番５号ＪＰＲ堂島ウエスト２Ｆ,,27,127,5300003,,,,,,,2024-01-24,1,,,,,コインタックステクノロジーズ,0
3482,9120001261538,新規,0,2024-01-24,2024-01-24,長松株式会社,,株式会社,大阪府,大阪市浪速区,桜川３丁目５番１４－１０１号,,27,111,5560022,,,,,,,2024-01-24,1,,,,,ナガマツ,0
3483,9120001261595,新規,0,2024-01-24,2024-01-24,紅石株式会社,,株式会社,大阪府,大阪市浪速区,幸町２丁目３－１４,,27,111,5560021,,,,,,,2024-01-24,1,,,,,ベニイシ,0
3484,9120001261604,新規,0,2024-01-24,2024-01-24,株式会社Ｓｅｃｏｎｄ　Ｌｉｆｅ,,株式会社,大阪府,大阪市平野区,瓜破６丁目７番４１号バモスリンピエサ２０３,,27,126,5470024,,,,,,,2024-01-24,1,,,,,セカンドライフ,0
3485,9120001261620,新規,0,2024-01-24,2024-01-24,ウラッコ株式会社,,株式会社,大阪府,大阪市福島区,福島８丁目１４番８号,,27,103,5530003,,,,,,,2024-01-24,1,,,,,ウラッコ,0
3487,9120003025701,新規,0,2024-01-24,2024-01-24,千晴合同会社,,合同会社,大阪府,大阪市西成区,玉出東１丁目７－２３－２０２室,,27,122,5570043,,,,,,,2024-01-24,1,,,,,チハル,0
3488,9120003025742,新規,0,2024-01-24,2024-01-24,合同会社Ａｃｅ　Ｂｌｕｅ,,合同会社,大阪府,寝屋川市,寿町２１番２３号,,27,215,5720029,,,,,,,2024-01-24,1,,,,,エースブルー,0
3492,9120105009817,新規,0,2024-01-24,2024-01-24,医療法人英智会,,その他の設立登記法人,大阪府,堺市中区,深井清水町３４４８番地２,,27,142,5998273,,,,,,,2024-01-24,1,,,,,エイチカイ,0
3498,9122001037760,新規,0,2024-01-24,2024-01-24,株式会社ゼネラル電機工業所,,株式会社,大阪府,八尾市,北木の本１丁目１０番地の１,,27,212,5810041,,,,,,,2024-01-24,1,,,,,ゼネラルデンキコウギョウショ,0
3502,9122003002779,新規,0,2024-01-24,2024-01-24,合同会社ごう,,合同会社,大阪府,東大阪市,長田中４丁目６番１５号,,27,227,5770013,,,,,,,2024-01-24,1,,,,,ゴウ,0
3515,9130001076217,新規,0,2024-01-24,2024-01-24,株式会社コージーワーク,,株式会社,京都府,京都市山科区,北花山大林町８－９,,26,110,6078482,,,,,,,2024-01-24,1,,,,,コージーワーク,0
3522,9130003009240,新規,0,2024-01-24,2024-01-24,ｆｒｉｅｎｄ＆ｓｕｎ合同会社,,合同会社,京都府,京都市右京区,京北大野町西三角６８,,26,108,6010314,,,,,,,2024-01-24,1,,,,,フレンドアンドサン,0
3523,9130003009257,新規,0,2024-01-24,2024-01-24,合同会社Ｄｉａｌｏｇｕｅ,,合同会社,京都府,乙訓郡大山崎町,字円明寺小字脇山３２番地１８,,26,303,6180091,,,,,,,2024-01-24,1,,,,,ダイアローグ,0
3530,9140003020072,新規,0,2024-01-24,2024-01-24,合同会社ヒーロー企画,,合同会社,兵庫県,神戸市中央区,磯辺通１丁目１番１８号カサベラ国際プラザビル７０７号室,,28,110,6510084,,,,,,,2024-01-24,1,,,,,ヒーローキカク,0
3532,9140005026919,新規,0,2024-01-24,2024-01-24,一般社団法人神戸みらい学習室,,その他の設立登記法人,兵庫県,神戸市西区,井吹台西町１丁目４番地２０８号,,28,111,6512243,,,,,,,2024-01-24,1,,,,,コウベミライガクシュウシツ,0
3539,9160003003100,新規,0,2024-01-24,2024-01-24,合同会社ブランカ,,合同会社,滋賀県,大津市,石山寺３丁目１４番５－２０４号,,25,201,5200861,,,,,,,2024-01-24,1,,,,,ブランカ,0
3541,9170001017976,新規,0,2024-01-24,2024-01-24,株式会社Ｅｍｉ,,株式会社,和歌山県,和歌山市,湊紺屋町１丁目１０番地２シャルマンフジ和歌山市駅レジタージュ,,30,201,6408221,,,,,,,2024-01-24,1,,,,,エミ,0
3550,9180001159859,新規,0,2024-01-24,2024-01-24,ますかわＬ＆Ａ株式会社,,株式会社,愛知県,名古屋市中区,丸の内１丁目４番１２号,,23,106,4600002,,,,,,,2024-01-24,1,,,,,マスカワエルアンドエー,0
3551,9180001159917,新規,0,2024-01-24,2024-01-24,株式会社エスクリエーション,,株式会社,愛知県,名古屋市名東区,猪子石１丁目２４０５番地,,23,115,4650021,,,,,,,2024-01-24,1,,,,,エスクリエーション,0
3552,9180001159925,新規,0,2024-01-24,2024-01-24,株式会社Ｆ．Ｄ．Ｆ,,株式会社,愛知県,名古屋市昭和区,長池町３丁目４２番地の２,,23,107,4660847,,,,,,,2024-01-24,1,,,,,エフディーエフ,0
3554,9180003026248,新規,0,2024-01-24,2024-01-24,合同会社林,,合同会社,愛知県,名古屋市名東区,高社２丁目１８３番地の２,,23,115,4650095,,,,,,,2024-01-24,1,,,,,ハヤシ,0
3555,9180003026264,新規,0,2024-01-24,2024-01-24,合同会社ＶＮＪＰ,,合同会社,愛知県,春日井市,若草通４丁目３５－１レオパレス若草１０８,,23,206,4860914,,,,,,,2024-01-24,1,,,,,ブイエヌジェーピー,0
3568,9230001020189,新規,0,2024-01-24,2024-01-24,株式会社ＳＫジャパン,,株式会社,富山県,富山市,大塚西３２２番地,,16,201,9300107,,,,,,,2024-01-24,1,,,,,エスケイジャパン,0
3575,9240001062701,新規,0,2024-01-24,2024-01-24,株式会社ＳＡＮＥＩ,,株式会社,広島県,広島市西区,井口台２丁目１番１７号,,34,104,7330844,,,,,,,2024-01-24,1,,,,,サンエイ,0
3588,9240005015705,新規,0,2024-01-24,2024-01-24,神石高原事業協同組合,,その他の設立登記法人,広島県,神石郡神石高原町,小畠２０２５番地,,34,545,7201522,,,,,,,2024-01-24,1,,,,,ジンセキコウゲンジギョウ,0
3611,9290001104424,新規,0,2024-01-24,2024-01-24,株式会社ライオンズ,,株式会社,福岡県,福岡市博多区,奈良屋町１３番１４号,,40,132,8120023,,,,,,,2024-01-24,1,,,,,ライオンズ,0
3612,9290001104481,新規,0,2024-01-24,2024-01-24,株式会社ＲＰＪ,,株式会社,福岡県,福岡市東区,土井２丁目３９－２０－１０３,,40,131,8130032,,,,,,,2024-01-24,1,,,,,アールピージェイ,0
3614,9290003014893,新規,0,2024-01-24,2024-01-24,合同会社井上美装,,合同会社,福岡県,糸島市,篠原東２丁目５番１２号,,40,230,8191128,,,,,,,2024-01-24,1,,,,,イノウエビソウ,0
3617,9300001013598,新規,0,2024-01-24,2024-01-24,株式会社ＳＯ‐ＳＯ,,株式会社,佐賀県,武雄市,武雄町大字富岡１２２７９番地１６,,41,206,8430024,,,,,,,2024-01-24,1,,,,,ソーソー,0
3621,9330001031696,新規,0,2024-01-24,2024-01-24,三地地産株式会社,,株式会社,熊本県,熊本市南区,近見３丁目１番３０号,,43,104,8614101,,,,,,,2024-01-24,1,,,,,サンチチサン,0
3625,9330003010186,新規,0,2024-01-24,2024-01-24,ゆふいん合同会社,,合同会社,熊本県,熊本市北区,麻生田４丁目１３番３８号,,43,105,8618081,,,,,,,2024-01-24,1,,,,,ユフイン,0
3644,9350005006206,新規,0,2024-01-24,2024-01-24,医療法人マナビヤ,,その他の設立登記法人,宮崎県,宮崎市,松山２丁目２番３２号ＴＭビル５階,,45,201,8800865,,,,,,,2024-01-24,1,,,,,マナビヤ,0
3648,9360001033112,新規,0,2024-01-24,2024-01-24,株式会社マリンオートサービス,,株式会社,沖縄県,石垣市,字真栄里１９２番地１,,47,207,9070002,,,,,,,2024-01-24,1,,,,,マリンオートサービス,0
3650,9370001050858,新規,0,2024-01-24,2024-01-24,伏見工業株式会社,,株式会社,宮城県,仙台市青葉区,芋沢字吉成東１７番地の５,,04,101,9893212,,,,,,,2024-01-24,1,,,,,フシミコウギョウ,0
3651,9370001050866,新規,0,2024-01-24,2024-01-24,株式会社リノアル,,株式会社,宮城県,仙台市泉区,鶴が丘１丁目４２番１８号,,04,105,9813109,,,,,,,2024-01-24,1,,,,,リノアル,0
3697,9430005014877,新規,0,2024-01-24,2024-01-24,一般社団法人絆ＫＩ・ＺＵ・ＮＡ,,その他の設立登記法人,北海道,札幌市厚別区,厚別中央四条５丁目４番１２号,,01,108,0040054,,,,,,,2024-01-24,1,,,,,キズナ,0
3700,9450003002436,新規,0,2024-01-24,2024-01-24,合同会社大雪マネジメント法人,,合同会社,北海道,旭川市,豊岡二条６丁目９番６号,,01,204,0788232,,,,,,,2024-01-24,1,,,,,タイセツマネジメントホウジン,0
3703,9470003002566,新規,0,2024-01-24,2024-01-24,合同会社Ｈアンド,,合同会社,香川県,高松市,上福岡町９４８番地７,,37,201,7600077,,,,,,,2024-01-24,1,,,,,エイチアンド,0
3705,9480001012368,新規,0,2024-01-24,2024-01-24,株式会社ＭＹＳコンフォート,,株式会社,徳島県,板野郡北島町,高房字居内４８番地２,,36,402,7710206,,,,,,,2024-01-24,1,,,,,エムワイエスコンフォート,0
