sequenceNumber,corporateNumber,process,correct,updateDate,changeDate,name,nameImageId,kind,prefectureName,cityName,streetNumber,addressImageId,prefectureCode,cityCode,postCode,addressOutside,addressOutsideImageId,closeDate,closeCause,successorCorporateNumber,changeCause,assignmentDate,latest,enName,enPrefectureName,enCityName,enAddressOutside,furigana,hihyoji
6,1010001132170,登記記録の閉鎖等,0,2024-05-15,2024-05-01,株式会社日本新物流創造,,株式会社,千葉県,浦安市,千鳥１２－１,,12,227,2790032,,,2024-05-01,清算の結了等,,,2015-10-05,1,,,,,ニホンシンブツリュウソウゾウ,0
12,1010001222855,登記記録の閉鎖等,0,2024-05-15,2024-04-30,株式会社快適空間,,株式会社,東京都,中央区,銀座１丁目１２番４号Ｎ＆ＥＢＬＤ．７階,,13,102,1040061,,,2024-04-30,清算の結了等,,,2021-12-01,1,,,,,カイテキクウカン,0
35,1010403009644,登記記録の閉鎖等,0,2024-05-15,2024-04-17,合同会社ボンジュールノノ,,合同会社,東京都,港区,白金台３丁目１８番８号白金台ハウス３０２,,13,103,1080071,,,2024-04-17,清算の結了等,,,2015-10-05,1,,,,,ボンジュールノノ,0
45,1010901039655,登記記録の閉鎖等,0,2024-05-15,2024-05-09,株式会社広山コーポレーション,,株式会社,東京都,世田谷区,等々力２丁目１２番６号,,13,112,1580082,,,2024-05-09,清算の結了等,,,2017-03-03,1,,,,,ヒロヤマコーポレーション,0
65,1011101103061,登記記録の閉鎖等,0,2024-05-15,2024-05-02,株式会社ＳｕｐｐｏｒｔＡＩ,,株式会社,東京都,新宿区,西新宿３丁目３番１３号西新宿水間ビル２Ｆ,,13,104,1600023,,,2024-05-02,清算の結了等,,,2023-05-31,1,,,,,サポートエーアイ,0
71,1011601005897,登記記録の閉鎖等,0,2024-05-15,2024-05-10,日成電業株式会社,,株式会社,東京都,練馬区,大泉町３丁目３７番２号,,13,120,1780062,,,2024-05-10,清算の結了等,,,2015-10-05,1,,,,,ニッセイデンギョウ,0
87,1020002062317,登記記録の閉鎖等,0,2024-05-15,2024-05-02,有限会社興譲館,,有限会社,神奈川県,横浜市鶴見区,市場下町３番２２号,,14,101,2300024,,,2024-05-02,清算の結了等,,,2015-10-05,1,,,,,コウジョウカン,0
89,1020003010381,登記記録の閉鎖等,0,2024-05-15,2024-05-02,Ａｐｒｉｌ合同会社,,合同会社,神奈川県,横浜市青葉区,荏田北２丁目５番地１７,,14,117,2250015,,,2024-05-02,清算の結了等,,,2015-10-05,1,,,,,エイプリル,0
110,1050001025560,登記記録の閉鎖等,0,2024-05-15,2024-05-10,天王建設株式会社,,株式会社,茨城県,稲敷市,佐倉１０７５番地,,08,229,3000508,,,2024-05-10,清算の結了等,,,2015-10-05,1,,,,,テンノウケンセツ,0
116,1060002035632,登記記録の閉鎖等,0,2024-05-15,2024-05-02,有限会社大塚住地,00024772,有限会社,栃木県,足利市,南大町２０９番地,,09,202,3260836,,,2024-05-02,清算の結了等,,,2015-10-05,1,,,,,オオツカジュウチ,0
117,1060002039947,登記記録の閉鎖等,0,2024-05-15,2024-05-02,有限会社槇田金型製作所,,有限会社,栃木県,佐野市,赤見町３００６番地,,09,204,3270104,,,2024-05-02,清算の結了等,,,2015-10-05,1,,,,,マキタカナガタセイサクショ,0
126,1100003006512,登記記録の閉鎖等,0,2024-05-15,2024-04-24,合同会社悠太,,合同会社,長野県,長野市,大字桜８５０,,20,201,3800885,,,2024-04-24,清算の結了等,,,2022-04-20,1,,,,,ユウタ,0
137,1120001191321,登記記録の閉鎖等,0,2024-05-15,2024-05-10,アレクスマネジメント株式会社,,株式会社,埼玉県,越谷市,相模町５丁目１９１番地１,,11,222,3430823,,,2024-05-10,清算の結了等,,,2015-10-05,1,,,,,アレクスマネジメント,0
161,1140001058733,登記記録の閉鎖等,0,2024-05-15,2024-05-13,株式会社コウシヨウ,,株式会社,兵庫県,姫路市,東雲町２丁目２番地の６,,28,201,6700046,,,2024-05-13,清算の結了等,,,2015-10-05,1,,,,,コウシヨウ,0
168,1150002006533,登記記録の閉鎖等,0,2024-05-15,2024-05-13,有限会社ヨシムラ生損保,,有限会社,奈良県,生駒郡三郷町,立野北１丁目１４番５３－１０２号,,29,343,6360821,,,2024-05-13,清算の結了等,,,2015-10-05,1,,,,,ヨシムラセイソンポ,0
171,1170003001077,登記記録の閉鎖等,0,2024-05-15,2024-05-09,ソルヤード合名会社,,合名会社,和歌山県,和歌山市,内原１０３２番地７（１０１）,,30,201,6410013,,,2024-05-09,合併による解散等,8170001012383,令和６年５月１日和歌山市内原１０３２番地７（１０１）ひまわり産業株式会社（8170001012383）に合併し解散,2016-09-14,1,,,,,ソルヤード,0
185,1180302001504,登記記録の閉鎖等,0,2024-05-15,2024-05-09,有限会社ジュエリーいつ輪,,有限会社,愛知県,岡崎市,細川町字菅入４８番地,,23,202,4442149,,,2024-05-09,清算の結了等,,,2015-10-05,1,,,,,ジュエリーイツワ,0
192,1200001013855,登記記録の閉鎖等,0,2024-05-15,2024-05-13,大成株式会社,,株式会社,岐阜県,大垣市,青野町３２７番地,,21,202,5032227,,,2024-05-13,合併による解散等,5180001018226,令和６年５月１日名古屋市東区矢田南三丁目１３番７号株式会社本陣（5180001018226）に合併し解散,2015-10-05,1,,,,,タイセイ,0
205,1240001031341,登記記録の閉鎖等,0,2024-05-15,2024-05-14,株式会社チューオー,,株式会社,広島県,福山市,本郷町２９５０番地の１,,34,207,7290252,,,2024-05-14,清算の結了等,,,2015-10-05,1,,,,,チューオー,0
211,1270002004459,登記記録の閉鎖等,0,2024-05-15,2024-05-13,有限会社太田書店,,有限会社,鳥取県,八頭郡若桜町,大字若桜１７８番地,,31,325,6800701,,,2024-05-13,清算の結了等,,,2015-10-05,1,,,,,オオタショテン,0
223,1290003013036,登記記録の閉鎖等,0,2024-05-15,2024-04-10,合同会社リンクスゲート,,合同会社,福岡県,福岡市東区,香椎浜３丁目３番５－１２１９号モントーレ香椎浜サーフタワーセンターコート,,40,131,8130016,,,2024-04-10,清算の結了等,,,2022-10-12,1,,,,,リンクスゲート,0
230,1330002012348,登記記録の閉鎖等,0,2024-05-15,2024-05-13,有限会社西川総合設備,,有限会社,熊本県,熊本市中央区,水前寺４丁目３９番１０号,,43,101,8620950,,,2024-05-13,清算の結了等,,,2015-10-05,1,,,,,ニシカワソウゴウセツビ,0
250,1390005004130,登記記録の閉鎖等,0,2024-05-15,2024-05-02,木野俣生産森林組合,,その他の設立登記法人,山形県,鶴岡市,木野俣乙５９番地,,06,203,9997313,,,2024-05-02,清算の結了等,,,2015-10-05,1,,,,,キノマタ,0
269,2010001142887,登記記録の閉鎖等,0,2024-05-15,2024-05-13,株式会社ディスクエム,,株式会社,東京都,文京区,本駒込３丁目４０番４号,,13,105,1130021,,,2024-05-13,合併による解散等,1010501006394,令和６年４月３０日東京都台東区上野二丁目１２番１８号株式会社スペースニキ（1010501006394）に合併し解散,2015-10-05,1,,,,,ディスクエム,0
282,2010003018433,登記記録の閉鎖等,0,2024-05-15,2024-04-30,合同会社霞が関ＳＶＣホールディング,,合同会社,東京都,千代田区,霞が関３丁目５番１号霞が関ＩＨＦビル３階,,13,101,1000013,,,2024-04-30,清算の結了等,,,2015-10-05,1,,,,,,0
288,2010401107309,登記記録の閉鎖等,0,2024-05-15,2024-05-10,株式会社サンライズ,,株式会社,東京都,港区,麻布十番２丁目５番１２号,,13,103,1060045,,,2024-05-10,合併による解散等,7010001130342,令和６年５月１日東京都中央区築地三丁目１番１０号東京鋼器株式会社（7010001130342）に合併し解散,2015-10-05,1,,,,,,0
299,2010502014593,登記記録の閉鎖等,0,2024-05-15,2024-05-13,有限会社　台東区民新聞社,,有限会社,東京都,台東区,元浅草４丁目３番８号,,13,106,1110041,,,2024-05-13,清算の結了等,,,2015-10-05,1,,,,,タイトウクミンシンブンシャ,0
358,2013303004648,登記記録の閉鎖等,0,2024-05-15,2024-05-13,Ｔｏｋｙｏ　Ｐａｎｄａ合同会社,,合同会社,東京都,豊島区,西巣鴨２丁目３３番７号,,13,116,1700001,,,2024-05-13,清算の結了等,,,2019-05-23,1,,,,,トウキョウパンダ,0
373,2021001063271,登記記録の閉鎖等,0,2024-05-15,2024-05-13,株式会社湘南建装,,株式会社,神奈川県,藤沢市,大鋸３丁目７番３０号,,14,205,2510002,,,2024-05-13,清算の結了等,,,2017-10-16,1,,,,,ショウナンケンソウ,0
381,2030001044165,登記記録の閉鎖等,0,2024-05-15,2024-05-13,株式会社ジョニー,,株式会社,埼玉県,上尾市,大字南５４３－４０,,11,219,3620002,,,2024-05-13,清算の結了等,,,2015-10-05,1,,,,,ジョニー,0
386,2030002006726,登記記録の閉鎖等,0,2024-05-15,2024-05-10,有限会社ジーシーまどか,,有限会社,埼玉県,さいたま市大宮区,三橋３丁目１０８番地,,11,103,3300856,,,2024-05-10,清算の結了等,,,2015-10-05,1,,,,,ジーシーマドカ,0
393,2040001024554,登記記録の閉鎖等,0,2024-05-15,2024-05-01,株式会社フェニックスホープ,,株式会社,千葉県,船橋市,松が丘５丁目４９番５号,,12,204,2740064,,,2024-05-01,清算の結了等,,,2015-10-05,1,,,,,フェニックスホープ,0
394,2040001127027,登記記録の閉鎖等,0,2024-05-15,2024-04-30,株式会社みやさんグループ,,株式会社,東京都,千代田区,内神田２丁目５番３号児谷ビル１Ｆ,,13,101,1010047,,,2024-04-30,清算の結了等,,,2023-02-10,1,,,,,ミヤサングループ,0
400,2050002013596,登記記録の閉鎖等,0,2024-05-15,2024-05-08,有限会社エムシー管理サービス,,有限会社,茨城県,土浦市,永国東町２８番６号,,08,203,3000816,,,2024-05-08,清算の結了等,,,2015-10-05,1,,,,,エムシーカンリサービス,0
401,2060001012094,登記記録の閉鎖等,0,2024-05-15,2024-05-02,ミドリ安全那須株式会社,,株式会社,栃木県,那須塩原市,新南３９－９,,09,213,3292704,,,2024-05-02,清算の結了等,,,2015-10-05,1,,,,,ミドリアンゼンナス,0
405,2060005002471,登記記録の閉鎖等,0,2024-05-15,2024-05-07,日光彫協同組合,,その他の設立登記法人,栃木県,日光市,宝殿６６番地１,,09,206,3211422,,,2024-05-07,清算の結了等,,,2015-10-05,1,,,,,ニッコウボリ,0
419,2100002019068,登記記録の閉鎖等,0,2024-05-15,2024-04-24,有限会社アシスト,,有限会社,長野県,松本市,北深志３丁目１０番３０号,,20,202,3900872,,,2024-04-24,清算の結了等,,,2015-10-05,1,,,,,アシスト,0
445,2120101001057,登記記録の閉鎖等,0,2024-05-15,2024-05-09,オールマイティー株式会社,,株式会社,大阪府,堺市堺区,甲斐町西３丁２番７号,,27,141,5900950,,,2024-05-09,清算の結了等,,,2015-10-05,1,,,,,オールマイティー,0
454,2130001044031,登記記録の閉鎖等,0,2024-05-15,2024-05-10,株式会社竹内企画,,株式会社,京都府,舞鶴市,字鹿原６８６番地,,26,202,6250014,,,2024-05-10,清算の結了等,,,2015-10-05,1,,,,,タケウチキカク,0
466,2140002011376,登記記録の閉鎖等,0,2024-05-15,2024-05-13,有限会社サンライト,,有限会社,兵庫県,神戸市兵庫区,湊川町９丁目２１番１１号,,28,105,6520041,,,2024-05-13,清算の結了等,,,2015-10-05,1,,,,,サンライト,0
469,2140005007090,登記記録の閉鎖等,0,2024-05-15,2024-05-01,天理教三公分教会,,その他の設立登記法人,兵庫県,宍粟市,一宮町三方町２４７番地の９,,28,227,6714113,,,2024-05-01,合併による解散等,9140005014832,令和６年５月１日兵庫県神崎郡神河町杉７６５番地天理教神大分教会（9140005014832）に合併し解散,2015-10-05,1,,,,,テンリキョウサンコウブンキョウカイ,0
473,2180001042113,登記記録の閉鎖等,0,2024-05-15,2024-04-23,株式会社ＴＥＳＭＯ,,株式会社,愛知県,名古屋市千種区,仲田２丁目１４番１６号,,23,101,4640074,,,2024-04-23,合併による解散等,4010001237966,令和６年４月１日名古屋市千種区仲田二丁目１４番１６号株式会社エイセブホールディングス（4010001237966）に合併し解散,2015-10-05,1,,,,,テスモ,0
478,2180002021966,登記記録の閉鎖等,0,2024-05-15,2024-05-07,有限会社日章,,有限会社,愛知県,名古屋市天白区,元八事２丁目５６番地,,23,116,4680066,,,2024-05-07,清算の結了等,,,2015-10-05,1,,,,,ニッショウ,0
484,2180301020297,登記記録の閉鎖等,0,2024-05-15,2024-05-09,株式会社マイクロブレイン,,株式会社,愛知県,長久手市,喜婦嶽２０５番地,,23,238,4801117,,,2024-05-09,清算の結了等,,,2015-10-05,1,,,,,マイクロブレイン,0
487,2200002019082,登記記録の閉鎖等,0,2024-05-15,2024-05-10,有限会社フジタ製作所,,有限会社,岐阜県,関市,小瀬南１丁目５番１０号,,21,205,5013266,,,2024-05-10,清算の結了等,,,2015-10-05,1,,,,,フジタセイサクショ,0
490,2210001002807,登記記録の閉鎖等,0,2024-05-15,2024-05-14,株式会社西組運送店,,株式会社,福井県,福井市,南江守町２字６６番地,,18,201,9188032,,,2024-05-14,清算の結了等,,,2015-10-05,1,,,,,ニシグミウンソウテン,0
496,2240005010621,登記記録の閉鎖等,0,2024-05-15,2024-05-13,農事組合法人大池組合,,その他の設立登記法人,広島県,尾道市,栗原町９２００番地,,34,205,7220022,,,2024-05-13,清算の結了等,,,2015-10-05,1,,,,,オオイケクミアイ,0
508,2290001083245,登記記録の閉鎖等,0,2024-05-15,2024-05-10,五分後株式会社,,株式会社,福岡県,福岡市南区,玉川町１６番１号,,40,134,8150037,,,2024-05-10,合併による解散等,3011801015728,令和６年５月１日東京都葛飾区東金町一丁目１４番３号メディコプレス株式会社（3011801015728）に合併し解散,2018-11-06,1,,,,,ゴフンゴ,0
529,2360003006337,登記記録の閉鎖等,0,2024-05-15,2024-05-09,合同会社ＬＲ　Ｌｉｎｋ,,合同会社,沖縄県,沖縄市,比屋根６丁目２８番２５号,,47,211,9042173,,,2024-05-09,清算の結了等,,,2015-10-05,1,,,,,エルアールリンク,0
533,2370601002604,登記記録の閉鎖等,0,2024-05-15,2024-05-07,株式会社遊璃,,株式会社,宮城県,塩竈市,一森山７番７号,,04,203,9850074,,,2024-05-07,清算の結了等,,,2015-10-05,1,,,,,ユウリ,0
540,2420005006171,登記記録の閉鎖等,0,2024-05-15,2024-05-02,六ヶ所中小企業事業協同組合,,その他の設立登記法人,青森県,上北郡六ヶ所村,大字倉内字谷地通１２番地２,,02,411,0393215,,,2024-05-02,清算の結了等,,,2015-10-05,1,,,,,ロッカショチュウショウキギョウ,0
558,3010001156556,登記記録の閉鎖等,0,2024-05-15,2024-05-01,Ｐｏｔｅｎｔｉａｌ　Ｉｎｄｕｓｔｒｉｅｓ　Ｉｎｃ．株式会社,,株式会社,東京都,中央区,銀座１丁目３番９号マルイト銀座ビル１０Ｆ,,13,102,1040061,,,2024-05-01,清算の結了等,,,2015-10-05,1,,,,,ポテンシャルインダストリーズインク,0
569,3010002052060,登記記録の閉鎖等,0,2024-05-15,2024-04-30,Ｍ．Ｋ．Ｃ．ａｓｓｏｃｉａｔｅｓ有限会社,,有限会社,東京都,千代田区,霞が関３丁目５番１号霞が関ＩＨＦビル３階,,13,101,1000013,,,2024-04-30,清算の結了等,,,2015-10-05,1,,,,,,0
573,3010003024356,登記記録の閉鎖等,0,2024-05-15,2024-05-01,Ｓ－１３Ｈｏｌｄｃｏ合同会社,,合同会社,東京都,中央区,銀座４丁目１４番１１号七十七銀座ビル８階,,13,102,1040061,,,2024-05-01,清算の結了等,,,2016-11-09,1,,,,,エスサーティーンホールドコ,0
596,3010903007303,登記記録の閉鎖等,0,2024-05-15,2024-05-02,合同会社ＲａｐｉＲａｂｂｉ,,合同会社,東京都,世田谷区,喜多見１丁目１９－７喜多見サニーハイツ２０３,,13,112,1570067,,,2024-05-02,清算の結了等,,,2022-05-24,1,,,,,ラピラビ,0
618,3011102022275,登記記録の閉鎖等,0,2024-05-15,2024-05-13,有限会社トレビス・コーポレーション,,有限会社,神奈川県,座間市,東原４丁目７番９号,,14,216,2520004,,,2024-05-13,清算の結了等,,,2015-10-05,1,,,,,トレビスコーポレーション,0
650,3020002043876,登記記録の閉鎖等,0,2024-05-15,2024-05-07,有限会社住空間設計,,有限会社,神奈川県,横浜市都筑区,桜並木７番１８号－７,,14,118,2240046,,,2024-05-07,清算の結了等,,,2015-10-05,1,,,,,ジュウクウカンセッケイ,0
652,3020003002096,登記記録の閉鎖等,0,2024-05-15,2024-05-02,株式会社篠原,,株式会社,神奈川県,横浜市中区,本牧町２丁目３００番地,,14,104,2310806,,,2024-05-02,清算の結了等,,,2015-10-05,1,,,,,シノハラ,0
668,3030002049823,登記記録の閉鎖等,0,2024-05-15,2024-05-09,有限会社ますや,,有限会社,埼玉県,三郷市,戸ケ崎５丁目１７５番地,,11,237,3410044,,,2024-05-09,清算の結了等,,,2015-10-05,1,,,,,マスヤ,0
669,3030002067560,登記記録の閉鎖等,0,2024-05-15,2024-05-09,有限会社上高技建,00016970,有限会社,埼玉県,朝霞市,宮戸３丁目１７番２４号,,11,227,3510031,,,2024-05-09,清算の結了等,,,2015-10-05,1,,,,,ウエタカギケン,0
676,3040002052644,登記記録の閉鎖等,0,2024-05-15,2024-05-01,有限会社神戸自動機製作所,,有限会社,千葉県,流山市,大字西平井１０３１番地の７,,12,220,2700156,,,2024-05-01,清算の結了等,,,2015-10-05,1,,,,,カンベジドウキセイサクショ,0
688,3060001013736,登記記録の閉鎖等,0,2024-05-15,2024-04-26,ウェイシスジャパン株式会社,,株式会社,栃木県,大田原市,住吉町２丁目１９番９号,,09,210,3240057,,,2024-04-26,清算の結了等,,,2015-10-05,1,,,,,ウェイシスジャパン,0
700,3080402015395,登記記録の閉鎖等,0,2024-05-15,2024-05-13,有限会社野末モータース,,有限会社,静岡県,浜松市浜名区,小松４７３７番地,,22,139,4340042,,,2024-05-13,清算の結了等,,,2015-10-05,1,,,,,ノズエモータース,0
712,3120001188555,登記記録の閉鎖等,0,2024-05-15,2024-05-08,帝宝科学株式会社,,株式会社,大阪府,大阪市住吉区,帝塚山西２丁目５番１０号,00046094,27,120,5580052,,,2024-05-08,清算の結了等,,,2015-10-05,1,,,,,,0
715,3120001256361,登記記録の閉鎖等,0,2024-05-15,2024-05-07,李文株式会社,,株式会社,神奈川県,横浜市南区,中村町３丁目２０３－１０メゾンド吉田４０２号室,,14,105,2320033,,,2024-05-07,清算の結了等,,,2023-07-14,1,,,,,リブン,0
736,3140001111440,登記記録の閉鎖等,0,2024-05-15,2024-05-13,ハイバラ設備工業株式会社,,株式会社,兵庫県,明石市,東人丸町７番７号,,28,203,6730876,,,2024-05-13,清算の結了等,,,2018-10-04,1,,,,,ハイバラセツビコウギョウ,0
743,3180001026718,登記記録の閉鎖等,0,2024-05-15,2024-05-01,株式会社ノリタケ,,株式会社,愛知県,名古屋市西区,城西１丁目３番１号,,23,104,4510031,,,2024-05-01,合併による解散等,6180001055045,令和６年５月１日名古屋市西区城西一丁目３番１号株式会社ドゥミルサンク（6180001055045）に合併し解散,2015-10-05,1,,,,,ノリタケ,0
745,3180001042665,登記記録の閉鎖等,0,2024-05-15,2024-04-30,大成火災不動産株式会社,,株式会社,愛知県,名古屋市北区,金田町５丁目１７番地の１,,23,103,4620033,,,2024-04-30,清算の結了等,,,2015-10-05,1,,,,,タイセイカサイフドウサン,0
746,3180001046897,登記記録の閉鎖等,0,2024-05-15,2024-04-30,株式会社アダチ技研,,株式会社,愛知県,名古屋市中川区,吉津２丁目２６０８番地,,23,110,4540981,,,2024-04-30,清算の結了等,,,2015-10-05,1,,,,,アダチギケン,0
760,3180302005882,登記記録の閉鎖等,0,2024-05-15,2024-05-08,ツツミ化成工業有限会社,,有限会社,愛知県,岡崎市,鴨田南町５番地６,,23,202,4442123,,,2024-05-08,清算の結了等,,,2015-10-05,1,,,,,ツツミカセイコウギョウ,0
764,3190002024414,登記記録の閉鎖等,0,2024-05-15,2024-05-13,有限会社ふぉわーどカンパニー,,有限会社,三重県,四日市市,安島１丁目４番８号－１１０３,,24,202,5100075,,,2024-05-13,清算の結了等,,,2015-10-05,1,,,,,フォワードカンパニー,0
768,3240001021084,登記記録の閉鎖等,0,2024-05-15,2024-05-13,株式会社エム・ユー・コーポレイション,,株式会社,広島県,広島市安佐南区,安東４丁目４９番１７号,,34,105,7310153,,,2024-05-13,清算の結了等,,,2015-10-05,1,,,,,エムユーコーポレイション,0
784,3290001042398,登記記録の閉鎖等,0,2024-05-15,2024-03-29,株式会社田舎家,,株式会社,福岡県,大野城市,御笠川５丁目６番１２号,,40,219,8160912,,,2024-03-29,合併による解散等,3290001042877,令和６年３月２９日福岡県糟屋郡宇美町大字井野２２１番地１株式会社エムワン（3290001042877）に合併し解散,2015-10-05,1,,,,,イナカヤ,0
816,3370302002126,登記記録の閉鎖等,0,2024-05-15,2024-05-02,有限会社マリーネット,,有限会社,宮城県,石巻市,開北４丁目３番１５号,,04,202,9860806,,,2024-05-02,清算の結了等,,,2015-10-05,1,,,,,マリーネット,0
820,3380002028627,登記記録の閉鎖等,0,2024-05-15,2024-05-10,有限会社スタジオライブシー,,有限会社,福島県,南相馬市,原町区旭町４丁目３６番地６,,07,212,9750004,,,2024-05-10,清算の結了等,,,2015-10-05,1,,,,,スタジオライブシー,0
825,3440005000840,登記記録の閉鎖等,0,2024-05-15,2024-04-25,天理教知内分教会,00090527,その他の設立登記法人,北海道,上磯郡知内町,字中ノ川２８番地６１,,01,333,0491101,,,2024-04-25,合併による解散等,2440005000825,令和６年４月２５日北海道上磯郡木古内町字本町５８８番地の２天理教上磯分教会（2440005000825）に合併し解散,2015-10-05,1,,,,,テンリキョウシリウチブンキョウカイ,0
828,3450003000882,登記記録の閉鎖等,0,2024-05-15,2024-05-09,合同会社アサヒ,,合同会社,北海道,深川市,三条１２番３２号,,01,228,0740003,,,2024-05-09,清算の結了等,,,2015-10-05,1,,,,,アサヒ,0
857,4010005022002,登記記録の閉鎖等,0,2024-05-15,2024-05-10,一般社団法人エムエム,,その他の設立登記法人,東京都,千代田区,神田神保町１丁目１１番地さくら綜合事務所内,,13,101,1010051,,,2024-05-10,清算の結了等,,,2015-10-05,1,,,,,エムエム,0
873,4010501007349,登記記録の閉鎖等,0,2024-05-15,2024-05-09,高橋工業株式会社,,株式会社,東京都,台東区,清川１丁目３１番１号,,13,106,1110022,,,2024-05-09,清算の結了等,,,2015-10-05,1,,,,,タカハシコウギョウ,0
874,4010501021928,登記記録の閉鎖等,0,2024-05-15,2024-05-10,株式会社ケイエヌ,,株式会社,東京都,台東区,今戸２丁目１７番１０号,,13,106,1110024,,,2024-05-10,清算の結了等,,,2015-10-05,1,,,,,ケイエヌ,0
895,4011001101344,登記記録の閉鎖等,0,2024-05-15,2024-04-25,ＬＳ岩手洋野合同会社,,合同会社,岩手県,九戸郡洋野町,種市第２３地割６２番地８,,03,507,0287914,,,2024-04-25,清算の結了等,,,2015-10-05,1,,,,,エルエスイワテヒロノ,0
903,4011002031920,登記記録の閉鎖等,0,2024-05-15,2024-04-26,有限会社ミラクル・スパーク,,有限会社,東京都,渋谷区,富ヶ谷１丁目３番１３号マキビル４０２,,13,113,1510063,,,2024-04-26,清算の結了等,,,2015-10-05,1,,,,,ミラクルスパーク,0
915,4011503005035,登記記録の閉鎖等,0,2024-05-15,2024-05-08,合同会社ＴＡエンジニアリング,,合同会社,東京都,北区,赤羽北３丁目２６番５－４１６号,,13,117,1150052,,,2024-05-08,清算の結了等,,,2022-01-17,1,,,,,ティーエーエンジニアリング,0
916,4011601014986,登記記録の閉鎖等,0,2024-05-15,2024-05-13,株式会社ワンポイント,,株式会社,東京都,練馬区,南大泉１丁目１６番５号,,13,120,1780064,,,2024-05-13,清算の結了等,,,2015-10-05,1,,,,,ワンポイント,0
926,4012302007759,登記記録の閉鎖等,0,2024-05-15,2024-05-07,有限会社サンブレイン,,有限会社,東京都,町田市,金井ヶ丘１丁目２７番１４号,,13,209,1950076,,,2024-05-07,清算の結了等,,,2015-10-05,1,,,,,サンブレイン,0
932,4012402007048,登記記録の閉鎖等,0,2024-05-15,2024-05-08,有限会社柳楽労働安全コンサルタント,,有限会社,東京都,小金井市,緑町１丁目２番３４号,,13,210,1840003,,,2024-05-08,清算の結了等,,,2015-10-05,1,,,,,ヤナギラクロウドウアンゼンコンサルタント,0
937,4013201006091,登記記録の閉鎖等,0,2024-05-15,2024-04-24,株式会社遊風社,,株式会社,東京都,目黒区,目黒本町５丁目２４番１６号,,13,110,1520002,,,2024-04-24,清算の結了等,,,2015-10-05,1,,,,,ユウフウシャ,0
971,4030003015055,登記記録の閉鎖等,0,2024-05-15,2024-05-08,ガイドライン合同会社,,合同会社,埼玉県,八潮市,大字古新田１０６９番地２,,11,234,3400823,,,2024-05-08,清算の結了等,,,2020-04-01,1,,,,,ガイドライン,0
983,4050001023982,登記記録の閉鎖等,0,2024-05-15,2024-05-10,株式会社オーシャンスポーツクラブ,,株式会社,茨城県,高萩市,大字高戸４６２番地,,08,214,3180002,,,2024-05-10,清算の結了等,,,2015-10-05,1,,,,,オーシャンスポーツクラブ,0
998,4070002033112,登記記録の閉鎖等,0,2024-05-15,2024-05-10,有限会社栄和,,有限会社,群馬県,館林市,野辺町９５５番地５,,10,207,3740047,,,2024-05-10,清算の結了等,,,2015-10-05,1,,,,,エイワ,0
999,4070002033863,登記記録の閉鎖等,0,2024-05-15,2024-05-10,有限会社ファンタジア,,有限会社,群馬県,館林市,野辺町９５５の５番地,,10,207,3740047,,,2024-05-10,清算の結了等,,,2015-10-05,1,,,,,ファンタジア,0
1003,4080001010929,登記記録の閉鎖等,0,2024-05-15,2024-05-09,株式会社清音出版,,株式会社,静岡県,静岡市清水区,有東坂２丁目３２４番地の６,,22,103,4240873,,,2024-05-09,清算の結了等,,,2015-10-05,1,,,,,セイオンシュッパン,0
1007,4080005003210,登記記録の閉鎖等,0,2024-05-15,2024-05-10,医療法人社団成蹊会,,その他の設立登記法人,静岡県,静岡市清水区,宮加三５５１番地の５,,22,103,4240911,,,2024-05-10,清算の結了等,,,2015-10-05,1,,,,,セイケイカイ,0
1038,4120002031119,登記記録の閉鎖等,0,2024-05-15,2024-05-02,有限会社スカラベ西日本,00030838,有限会社,東京都,新宿区,西新宿６丁目６番３号,,13,104,1600023,,,2024-05-02,清算の結了等,,,2015-10-05,1,,,,,,0
1049,4130001067939,登記記録の閉鎖等,0,2024-05-15,2024-05-13,株式会社クリエイト,,株式会社,京都府,宇治市,平尾台２丁目６番地の１３,,26,204,6110003,,,2024-05-13,清算の結了等,,,2020-11-10,1,,,,,クリエイト,0
1054,4140002044960,登記記録の閉鎖等,0,2024-05-15,2024-04-25,有限会社アシスト２１,,有限会社,兵庫県,尼崎市,尾浜町２丁目９番８－６０７号,,28,202,6610022,,,2024-04-25,清算の結了等,,,2015-10-05,1,,,,,アシストニジュウイチ,0
1061,4180001030231,登記記録の閉鎖等,0,2024-05-15,2024-05-07,後藤紙業株式会社,,株式会社,愛知県,名古屋市中村区,二瀬町２３番地,,23,105,4530837,,,2024-05-07,清算の結了等,,,2015-10-05,1,,,,,ゴトウシギョウ,0
1069,4180002074038,登記記録の閉鎖等,0,2024-05-15,2024-04-30,有限会社トッキ,,有限会社,愛知県,瀬戸市,南山町２丁目１３８番地,,23,204,4890986,,,2024-04-30,清算の結了等,,,2015-10-05,1,,,,,トッキ,0
1070,4180003023514,登記記録の閉鎖等,0,2024-05-15,2024-04-30,新ＣＴＳ合同会社,,合同会社,愛知県,名古屋市名東区,にじが丘１丁目１番地の１,,23,115,4650078,,,2024-04-30,清算の結了等,,,2022-02-22,1,,,,,シンシーティーエス,0
1073,4180005017340,登記記録の閉鎖等,0,2024-05-15,2024-05-09,特定非営利活動法人ＡＴＷＯＲＬＤ,,その他の設立登記法人,愛知県,東海市,大田町蟹田１０５番地,,23,222,4770031,,,2024-05-09,清算の結了等,,,2017-06-06,1,,,,,アットワールド,0
1082,4190001008391,登記記録の閉鎖等,0,2024-05-15,2024-05-10,株式会社上野市建設センター,,株式会社,三重県,伊賀市,平野見能３４０番地の１０,,24,216,5180801,,,2024-05-10,清算の結了等,,,2015-10-05,1,,,,,ウエノシケンセツセンター,0
1083,4190001014729,登記記録の閉鎖等,0,2024-05-15,2024-05-13,株式会社久保村木材工業所,,株式会社,三重県,四日市市,北町８番１９号,,24,202,5100081,,,2024-05-13,清算の結了等,,,2015-10-05,1,,,,,クボムラモクザイコウギョウショ,0
1093,4230001012554,登記記録の閉鎖等,0,2024-05-15,2024-05-13,株式会社丸進製材,,株式会社,富山県,射水市,庄西町１丁目１９番４８号,,16,211,9340001,,,2024-05-13,清算の結了等,,,2015-10-05,1,,,,,マルシンセイザイ,0
1094,4240001018336,登記記録の閉鎖等,0,2024-05-15,2024-05-14,株式会社ラピスアイ,,株式会社,広島県,広島市中区,宝町４番１－３０１号,,34,101,7300044,,,2024-05-14,清算の結了等,,,2015-10-05,1,,,,,ラピスアイ,0
1096,4260001033408,登記記録の閉鎖等,0,2024-05-15,2024-05-14,ユアサイド少額短期保険株式会社,,株式会社,岡山県,岡山市北区,表町３丁目１８番５２号,,33,101,7000822,,,2024-05-14,清算の結了等,,,2019-08-05,1,,,,,ユアサイドショウガクタンキホケン,0
1098,4260002023655,登記記録の閉鎖等,0,2024-05-15,2024-04-24,有限会社ケーエスティ,,有限会社,神奈川県,横浜市港北区,日吉本町２丁目１１番１号,,14,109,2230062,,,2024-04-24,清算の結了等,,,2015-10-05,1,,,,,ケーエスティ,0
1127,4330002023433,登記記録の閉鎖等,0,2024-05-15,2024-05-09,有限会社イマムラ工業,,有限会社,熊本県,阿蘇郡南阿蘇村,大字河陰４００８番地,,43,433,8691411,,,2024-05-09,清算の結了等,,,2015-10-05,1,,,,,イマムラコウギョウ,0
1134,4360003010329,登記記録の閉鎖等,0,2024-05-15,2024-05-10,合同会社北山,,合同会社,沖縄県,国頭郡今帰仁村,字今泊１７０番地,,47,306,9050428,,,2024-05-10,清算の結了等,,,2020-06-04,1,,,,,ホクザン,0
1136,4370202000253,登記記録の閉鎖等,0,2024-05-15,2024-05-07,有限会社カマダ電設,,有限会社,宮城県,遠田郡美里町,牛飼字清水江２７０番地の１,,04,505,9870004,,,2024-05-07,清算の結了等,,,2015-10-05,1,,,,,カマダデンセツ,0
1153,4450005000913,登記記録の閉鎖等,0,2024-05-15,2024-04-24,天理教真神分教会,,その他の設立登記法人,北海道,上川郡当麻町,伊香牛２区１８７０番地の２０,,01,454,0781333,,,2024-04-24,合併による解散等,5200005002529,令和６年４月１９日岐阜県各務原市鵜沼古市場町四丁目２９番地天理教幅下大教会（5200005002529）に合併し解散,2015-10-05,1,,,,,,0
1157,4490005004316,登記記録の閉鎖等,0,2024-05-15,2024-05-14,特定非営利活動法人絆,,その他の設立登記法人,高知県,高岡郡檮原町,下折渡２１０番地,,39,405,7850624,,,2024-05-14,清算の結了等,,,2015-10-05,1,,,,,キズナ,0
1163,5010001098417,登記記録の閉鎖等,0,2024-05-15,2024-05-13,株式会社ミュージック・マスター,,株式会社,東京都,八王子市,下柚木１４００番地１２３,,13,201,1920372,,,2024-05-13,清算の結了等,,,2015-10-05,1,,,,,ミュージックマスター,0
1166,5010001120147,登記記録の閉鎖等,0,2024-05-15,2024-04-18,アルスメディカルアライアンス株式会社,,株式会社,東京都,中央区,銀座８丁目１２番３号,,13,102,1040061,,,2024-04-18,合併による解散等,3010002044743,令和６年４月５日東京都中央区日本橋人形町二丁目３２番３号株式会社ケイ・エイ・インターナショナル（3010002044743）に合併し、解散,2015-10-05,1,,,,,アルスメディカルアライアンス,0
1169,5010001203050,登記記録の閉鎖等,0,2024-05-15,2024-04-18,エイ・アンド・ティーヘルスケア株式会社,,株式会社,東京都,千代田区,九段南１丁目５番６号りそな九段ビル５Ｆ,,13,101,1020074,,,2024-04-18,合併による解散等,3010002044743,令和６年４月５日東京都中央区日本橋人形町二丁目３２番３号株式会社ケイ・エイ・インターナショナル（3010002044743）に合併し、解散,2019-08-07,1,,,,,エイアンドティーヘルスケア,0
1177,5010005019212,登記記録の閉鎖等,0,2024-05-15,2024-05-13,Ｔｏｋｙｏ　Ｊ４　Ｊａｐａｎ　Ｈｏｌｄｉｎｇ特定目的会社,,その他の設立登記法人,東京都,千代田区,霞が関３丁目２番５号霞が関ビル,,13,101,1000013,,,2024-05-13,清算の結了等,,,2015-10-05,1,,,,,トウキョウジェイフォージャパンホールディング,0
1182,5010401073283,登記記録の閉鎖等,0,2024-05-15,2024-04-24,株式会社ロングストーン,,株式会社,東京都,渋谷区,幡ヶ谷３丁目２３番９号,,13,113,1510072,,,2024-04-24,清算の結了等,,,2015-10-05,1,,,,,ロングストーン,0
1187,5010402023386,登記記録の閉鎖等,0,2024-05-15,2024-05-10,有限会社ケイエフコラボレート,,有限会社,東京都,港区,白金５丁目１番２号,,13,103,1080072,,,2024-05-10,清算の結了等,,,2015-10-05,1,,,,,ケイエフコラボレート,0
1204,5010903001428,登記記録の閉鎖等,0,2024-05-15,2024-05-09,エヌブラン合同会社,,合同会社,東京都,世田谷区,弦巻１丁目４１番１２号,,13,112,1540016,,,2024-05-09,清算の結了等,,,2015-10-05,1,,,,,エヌブラン,0
1213,5011001107877,登記記録の閉鎖等,0,2024-05-15,2024-04-30,Ａｎｇｅｌ　Ｂｒｉｄｇｅ　Ｄｅａｌ－ｂｙ－Ｄｅａｌ　Ｆｕｎｄ２号株式会社,,株式会社,東京都,千代田区,永田町２丁目１７番４号笠松千代田ビル１０１号室,,13,101,1000014,,,2024-04-30,清算の結了等,,,2015-10-26,1,,,,,エンジェルブリッジディールバイディールファンドニゴウ,0
1220,5011003015756,登記記録の閉鎖等,0,2024-05-15,2024-04-25,合同会社ＪｏｙＪｏｂ,,合同会社,東京都,渋谷区,渋谷２丁目１９―１５宮益坂ビルディング６０９,,13,113,1500002,,,2024-04-25,清算の結了等,,,2022-11-18,1,,,,,ジョイジョブ,0
1222,5011101010056,登記記録の閉鎖等,0,2024-05-15,2024-05-02,株式会社ジヤパンサイエンスクリエイティブ,,株式会社,東京都,新宿区,下落合４丁目９番３号１階,,13,104,1610033,,,2024-05-02,清算の結了等,,,2015-10-05,1,,,,,ジャパンサイエンスクリエイティブ,0
1237,5011802017960,登記記録の閉鎖等,0,2024-05-15,2024-05-10,有限会社福島企業,,有限会社,東京都,足立区,東伊興３丁目３番７号,,13,121,1210801,,,2024-05-10,清算の結了等,,,2015-10-05,1,,,,,,0
1250,5013202004275,登記記録の閉鎖等,0,2024-05-15,2024-04-25,有限会社ティ・ビー・シー,,有限会社,東京都,目黒区,祐天寺１丁目２番５号,,13,110,1530052,,,2024-04-25,清算の結了等,,,2015-10-05,1,,,,,ティビーシー,0
1257,5020001086503,登記記録の閉鎖等,0,2024-05-15,2024-05-07,株式会社ゴイット,,株式会社,神奈川県,横浜市都筑区,仲町台５丁目５番１,,14,118,2240041,,,2024-05-07,清算の結了等,,,2015-10-05,1,,,,,ゴイット,0
1303,5060001011416,登記記録の閉鎖等,0,2024-05-15,2024-05-07,株式会社総合設計センター,,株式会社,栃木県,那須塩原市,橋本町１番１８号,,09,213,3250043,,,2024-05-07,清算の結了等,,,2015-10-05,1,,,,,ソウゴウセッケイセンター,0
1307,5070001012909,登記記録の閉鎖等,0,2024-05-15,2024-05-09,マイクロテクニカ株式会社,,株式会社,群馬県,藤岡市,立石４４７番地,,10,209,3750002,,,2024-05-09,清算の結了等,,,2015-10-05,1,,,,,マイクロテクニカ,0
1315,5100001034932,登記記録の閉鎖等,0,2024-05-15,2024-04-24,株式会社信琉,,株式会社,長野県,松本市,市場４番４号,,20,202,3990004,,,2024-04-24,清算の結了等,,,2022-01-11,1,,,,,シンリュウ,0
1319,5110002030310,登記記録の閉鎖等,0,2024-05-15,2024-05-10,有限会社パル企画,,有限会社,新潟県,長岡市,下柳１丁目９番１５号,,15,202,9402013,,,2024-05-10,清算の結了等,,,2015-10-05,1,,,,,パルキカク,0
1353,5140001087456,登記記録の閉鎖等,0,2024-05-15,2024-05-13,株式会社ファインプレイス,,株式会社,兵庫県,姫路市,安田１丁目３３番地ビューティフルライフ８０３号,,28,201,6700955,,,2024-05-13,清算の結了等,,,2015-10-05,1,,,,,ファインプレイス,0
1355,5140002049562,登記記録の閉鎖等,0,2024-05-15,2024-05-13,有限会社エイジ,,有限会社,兵庫県,姫路市,西今宿２丁目５番２８号,,28,201,6700061,,,2024-05-13,清算の結了等,,,2015-10-05,1,,,,,エイジ,0
1370,5180001140046,登記記録の閉鎖等,0,2024-05-15,2024-05-07,株式会社Ｏｃｔｏ,,株式会社,愛知県,名古屋市中区,栄２丁目２番１号－５Ｆ,,23,106,4600008,,,2024-05-07,清算の結了等,,,2020-02-12,1,,,,,オクト,0
1372,5180001156100,登記記録の閉鎖等,0,2024-05-15,2024-05-07,株式会社メンテナンス中部,,株式会社,愛知県,名古屋市千種区,南ケ丘２丁目１４番２号,,23,101,4640042,,,2024-05-07,清算の結了等,,,2023-05-02,1,,,,,メンテナンスチュウブ,0
1373,5180002001528,登記記録の閉鎖等,0,2024-05-15,2024-05-01,有限会社水野自動車鈑金,,有限会社,愛知県,名古屋市守山区,大字上志段味字中屋敷１４７０番地の４,,23,113,4630001,,,2024-05-01,清算の結了等,,,2015-10-05,1,,,,,ミズノジドウシャバンキン,0
1380,5180003016327,登記記録の閉鎖等,0,2024-05-15,2024-05-02,合同会社Ｔ＆Ｔコーポレーション,,合同会社,愛知県,東海市,養父町横枕１８番地の３,,23,222,4770034,,,2024-05-02,清算の結了等,,,2015-10-05,1,,,,,ティアンドティコーポレーション,0
1388,5200001021631,登記記録の閉鎖等,0,2024-05-15,2024-05-10,ヤマゴ電工株式会社,,株式会社,岐阜県,土岐市,土岐津町土岐口３１７番地の１,,21,212,5095122,,,2024-05-10,清算の結了等,,,2015-10-05,1,,,,,ヤマゴデンコウ,0
1392,5230002009549,登記記録の閉鎖等,0,2024-05-15,2024-05-13,有限会社豊栄自動車工業,,有限会社,富山県,南砺市,やかた１２７番地,,16,210,9391576,,,2024-05-13,清算の結了等,,,2015-10-05,1,,,,,ホウエイジドウシャコウギョウ,0
1421,5330001021676,登記記録の閉鎖等,0,2024-05-15,2024-04-30,株式会社ＲＩＴＡ－ＳＴＹＬＥ,,株式会社,熊本県,熊本市中央区,坪井２丁目１番４２号ＳＤＫ熊本ビル５階,,43,101,8600863,,,2024-04-30,合併による解散等,8330001018728,令和６年４月３０日熊本市中央区坪井二丁目１番４２号ＳＤＫ熊本ビル５階株式会社利他フーズ（8330001018728）に合併し解散,2015-10-05,1,,,,,リタスタイル,0
1452,6010001135755,登記記録の閉鎖等,0,2024-05-15,2024-05-10,株式会社プティ・マーナ,,株式会社,東京都,台東区,雷門２丁目６番２号マーナマリー浅草雷門ビル,,13,106,1110034,,,2024-05-10,清算の結了等,,,2015-10-05,1,,,,,プティマーナ,0
1471,6010101008051,登記記録の閉鎖等,0,2024-05-15,2024-05-13,株式会社アンテオケ,,株式会社,東京都,八王子市,別所２丁目４９番地２－１００１,,13,201,1920363,,,2024-05-13,清算の結了等,,,2015-10-05,1,,,,,アンテオケ,0
1480,6010403027154,登記記録の閉鎖等,0,2024-05-15,2024-04-22,ＦａｙｏＳａｙｕ合同会社,,合同会社,東京都,港区,麻布十番２丁目７－５－２０９,,13,103,1060045,,,2024-04-22,清算の結了等,,,2022-02-25,1,,,,,ファヨサユ,0
1498,6011001059069,登記記録の閉鎖等,0,2024-05-15,2024-04-24,株式会社ワイズリー,,株式会社,東京都,渋谷区,神宮前１丁目８番２６号,,13,113,1500001,,,2024-04-24,清算の結了等,,,2015-10-05,1,,,,,,0
1503,6011002035705,登記記録の閉鎖等,0,2024-05-15,2024-04-24,有限会社Ｍキュービック,,有限会社,東京都,渋谷区,神宮前１丁目８番２６号,,13,113,1500001,,,2024-04-24,清算の結了等,,,2015-10-05,1,,,,,,0
1527,6012702006730,登記記録の閉鎖等,0,2024-05-15,2024-05-09,有限会社新日本建総,,有限会社,東京都,東久留米市,滝山１丁目９番１４号,,13,222,2030033,,,2024-05-09,清算の結了等,,,2015-10-05,1,,,,,,0
1545,6020002025062,登記記録の閉鎖等,0,2024-05-15,2024-05-07,有限会社山崎屋時計店,,有限会社,神奈川県,横浜市保土ケ谷区,天王町１丁目１６番地の１,,14,106,2400003,,,2024-05-07,清算の結了等,,,2015-10-05,1,,,,,ヤマザキヤトケイテン,0
1546,6020002083036,登記記録の閉鎖等,0,2024-05-15,2024-05-01,有限会社九曜恒産,00011435,有限会社,神奈川県,川崎市中原区,上丸子八幡町８０７番地,,14,133,2110001,,,2024-05-01,清算の結了等,,,2015-10-05,1,,,,,クヨウコウサン,0
1560,6030001134334,登記記録の閉鎖等,0,2024-05-15,2024-05-07,エルトンホーム株式会社,,株式会社,埼玉県,越谷市,蒲生西町１丁目８番１４－４号,,11,222,3430835,,,2024-05-07,清算の結了等,,,2019-12-18,1,,,,,エルトンホーム,0
1564,6030003010368,登記記録の閉鎖等,0,2024-05-15,2024-05-10,合同会社波健,,合同会社,埼玉県,坂戸市,浅羽野２丁目２番地６,,11,239,3500237,,,2024-05-10,清算の結了等,,,2017-06-02,1,,,,,ナミケン,0
1567,6040001086070,登記記録の閉鎖等,0,2024-05-15,2024-05-01,ユークＭＥＤ株式会社,,株式会社,千葉県,千葉市中央区,青葉町１２６９番地,,12,101,2600852,,,2024-05-01,清算の結了等,,,2015-10-05,1,,,,,ユークメッド,0
1571,6040002034276,登記記録の閉鎖等,0,2024-05-15,2024-05-01,有限会社サン・ホープ,,有限会社,千葉県,市川市,八幡６丁目３番２２号,,12,203,2720021,,,2024-05-01,清算の結了等,,,2015-10-05,1,,,,,サンホープ,0
1575,6050001007001,登記記録の閉鎖等,0,2024-05-15,2024-05-10,株式会社野原,,株式会社,茨城県,ひたちなか市,勝田泉町８番３号,,08,221,3120046,,,2024-05-10,清算の結了等,,,2015-10-05,1,,,,,ノハラ,0
1591,6080001005019,登記記録の閉鎖等,0,2024-05-15,2024-05-09,株式会社マルモ,,株式会社,静岡県,静岡市葵区,岳美１３番１７号,,22,101,4200934,,,2024-05-09,清算の結了等,,,2015-10-05,1,,,,,マルモ,0
1594,6080001019712,登記記録の閉鎖等,0,2024-05-15,2024-05-13,ＳＴＩ株式会社,,株式会社,静岡県,静岡市駿河区,稲川３丁目１番２１号,,22,102,4228062,,,2024-05-13,清算の結了等,,,2015-10-05,1,,,,,エスティーアイ,0
1609,6110005015365,登記記録の閉鎖等,0,2024-05-15,2024-05-09,一般社団法人田から屋,,その他の設立登記法人,新潟県,新潟市中央区,沼垂西１丁目１番２６号,,15,103,9500076,,,2024-05-09,清算の結了等,,,2015-10-05,1,,,,,タカラヤ,0
1619,6120002055891,登記記録の閉鎖等,0,2024-05-15,2024-05-10,有限会社アイム・コーポレーション,,有限会社,大阪府,吹田市,江の木町２－３２フレアコート江坂２０１,,27,205,5640053,,,2024-05-10,清算の結了等,,,2015-10-05,1,,,,,アイムコーポレーション,0
1655,6180002087871,登記記録の閉鎖等,0,2024-05-15,2024-05-07,有限会社東海エンジニア,,有限会社,愛知県,東海市,加木屋町仲新田７６番地の１,,23,222,4770032,,,2024-05-07,清算の結了等,,,2015-10-05,1,,,,,トウカイエンジニア,0
1657,6180003017101,登記記録の閉鎖等,0,2024-05-15,2024-05-01,合同会社神福,,合同会社,愛知県,一宮市,小信中島字仁井西１５番地１,,23,203,4940007,,,2024-05-01,清算の結了等,,,2016-05-18,1,,,,,カミフク,0
1661,6190001026400,登記記録の閉鎖等,0,2024-05-15,2024-05-09,株式会社アイシー,,株式会社,三重県,伊勢市,前山町１６８番地ウイングヒルズ１０５,,24,203,5160044,,,2024-05-09,清算の結了等,,,2019-05-14,1,,,,,アイシー,0
1665,6200002005764,登記記録の閉鎖等,0,2024-05-15,2024-05-13,有限会社アーバン・ウノ,,有限会社,岐阜県,岐阜市,下鵜飼１７７９番地３,,21,201,5011172,,,2024-05-13,清算の結了等,,,2015-10-05,1,,,,,アーバンウノ,0
1675,6260001001239,登記記録の閉鎖等,0,2024-05-15,2024-05-09,株式会社岡山農産物流通センター,,株式会社,岡山県,岡山市南区,築港ひかり町１番３号,,33,104,7028054,,,2024-05-09,清算の結了等,,,2015-10-05,1,,,,,オカヤマノウサンブツリュウツウセンター,0
1702,6330002010231,登記記録の閉鎖等,0,2024-05-15,2024-05-10,有限会社三ッ矢宅建コンサルタント,,有限会社,熊本県,熊本市東区,長嶺南１丁目７番３号,,43,102,8618039,,,2024-05-10,清算の結了等,,,2015-10-05,1,,,,,ミツヤタッケンコンサルタント,0
1703,6330002016889,登記記録の閉鎖等,0,2024-05-15,2024-05-09,有限会社城北家畜診療センター,,有限会社,熊本県,菊池市,泗水町吉富３０２５番地,,43,210,8611201,,,2024-05-09,清算の結了等,,,2015-10-05,1,,,,,ジョウホクカチクシンリョウセンター,0
1706,6350001012342,登記記録の閉鎖等,0,2024-05-15,2024-05-10,株式会社オーチャード・イワマン,,株式会社,宮崎県,宮崎市,大字柏原８１４番地５,,45,201,8802111,,,2024-05-10,清算の結了等,,,2015-10-05,1,,,,,オーチャードイワマン,0
1714,6360003007182,登記記録の閉鎖等,0,2024-05-15,2024-05-13,株式会社壱解,,株式会社,沖縄県,那覇市,曙１丁目１６番３４－６０１号,,47,201,9000002,,,2024-05-13,清算の結了等,,,2015-10-05,1,,,,,イチカイ,0
1715,6370001000816,登記記録の閉鎖等,0,2024-05-15,2024-05-08,杉建設工業株式会社,,株式会社,宮城県,仙台市泉区,上谷刈６丁目１０番５３号,,04,105,9813121,,,2024-05-08,清算の結了等,,,2015-10-05,1,,,,,スギケンセツコウギョウ,0
1730,6450002007546,登記記録の閉鎖等,0,2024-05-15,2024-05-09,有限会社ときわの郷,,有限会社,北海道,深川市,納内町字納内５４４３番地,,01,228,0780151,,,2024-05-09,清算の結了等,,,2015-10-05,1,,,,,トキワノサト,0
1743,7010003021432,登記記録の閉鎖等,0,2024-05-15,2024-05-08,Ｓｋｙ　Ｂｕｓｉｎｅｓｓ　Ｓｏｌｕｔｉｏｎｓ合同会社,,合同会社,東京都,千代田区,神田三崎町２丁目４番１号ＴＵＧ－Ｉビル９Ｆ,,13,101,1010061,,,2024-05-08,合併による解散等,3010001154106,令和６年４月１６日東京都港区東新橋一丁目５番２号汐留シティセンター８階ブルースカイソーラー株式会社（3010001154106）に合併し解散,2015-10-05,1,,,,,スカイビジネスソリューションズ,0
1744,7010003027297,登記記録の閉鎖等,0,2024-05-15,2024-04-30,合同会社ななえ,,合同会社,東京都,千代田区,九段北３丁目２番４号,,13,101,1020073,,,2024-04-30,清算の結了等,,,2018-04-09,1,,,,,ナナエ,0
1746,7010102004148,登記記録の閉鎖等,0,2024-05-15,2024-04-22,有限会社高尾台五十嵐商店,,有限会社,東京都,八王子市,元八王子町３丁目２２１６番地,,13,201,1930826,,,2024-04-22,清算の結了等,,,2015-10-05,1,,,,,タカオダイイガラシショウテン,0
1776,7010901015304,登記記録の閉鎖等,0,2024-05-15,2024-05-08,東海無線株式会社,,株式会社,東京都,板橋区,小茂根４丁目１２番１９号,,13,119,1730037,,,2024-05-08,清算の結了等,,,2015-10-05,1,,,,,,0
1787,7011001108130,登記記録の閉鎖等,0,2024-05-15,2024-04-25,株式会社総合商品研究所,,株式会社,東京都,目黒区,原町１丁目６番７－４０１,,13,110,1520011,,,2024-04-25,清算の結了等,,,2015-11-10,1,,,,,ソウゴウショウヒンケンキュウショ,0
1814,7013202014405,登記記録の閉鎖等,0,2024-05-15,2024-04-25,有限会社シグマ・プロジェクト,,有限会社,東京都,目黒区,碑文谷３丁目１９番８号,,13,110,1520003,,,2024-04-25,清算の結了等,,,2015-10-05,1,,,,,シグマプロジェクト,0
1822,7020001071313,登記記録の閉鎖等,0,2024-05-15,2024-05-02,株式会社中村設計,,株式会社,神奈川県,川崎市幸区,小倉１番地１Ｄ－２８０４,,14,132,2120054,,,2024-05-02,清算の結了等,,,2015-10-05,1,,,,,ナカムラセッケイ,0
1836,7021002026017,登記記録の閉鎖等,0,2024-05-15,2024-05-13,有限会社志村工務店,,有限会社,神奈川県,相模原市中央区,上溝１１１４番地５,,14,152,2520243,,,2024-05-13,清算の結了等,,,2015-10-05,1,,,,,シムラコウムテン,0
1839,7030001035630,登記記録の閉鎖等,0,2024-05-15,2024-05-10,ミドリ安全南埼玉株式会社,,株式会社,埼玉県,草加市,稲荷４丁目７番１３号,,11,221,3400003,,,2024-05-10,清算の結了等,,,2015-10-05,1,,,,,ミドリアンゼンミナミサイタマ,0
1882,7120001000039,登記記録の閉鎖等,0,2024-05-15,2024-05-14,株式会社アサクラ基礎工業,,株式会社,大阪府,大阪市旭区,新森１丁目７番３－８４５号,,27,117,5350022,,,2024-05-14,清算の結了等,,,2015-10-05,1,,,,,アサクラキソコウギョウ,0
1907,7120105006824,登記記録の閉鎖等,0,2024-05-15,2024-05-13,医療法人岡本会,,その他の設立登記法人,大阪府,和泉市,観音寺町８４７番地の２,,27,219,5940065,,,2024-05-13,清算の結了等,,,2015-10-05,1,,,,,オカモトカイ,0
1909,7120901025853,登記記録の閉鎖等,0,2024-05-15,2024-05-13,株式会社宮崎熔接所,,株式会社,大阪府,豊中市,名神口１丁目１４番１０号,,27,203,5610841,,,2024-05-13,清算の結了等,,,2015-10-05,1,,,,,ミヤザキヨウセツショ,0
1912,7130001000491,登記記録の閉鎖等,0,2024-05-15,2024-05-14,株式会社河中工務店,,株式会社,京都府,京都市右京区,太秦安井藤ノ木町９番地,,26,108,6168071,,,2024-05-14,清算の結了等,,,2015-10-05,1,,,,,カワナカコウムテン,0
1914,7130001014203,登記記録の閉鎖等,0,2024-05-15,2024-05-13,木戸口産業株式会社,,株式会社,京都府,京都市伏見区,深草西浦町８丁目１３番地の１,,26,109,6120029,,,2024-05-13,清算の結了等,,,2015-10-05,1,,,,,キドグチサンギョウ,0
1923,7140003017434,登記記録の閉鎖等,0,2024-05-15,2024-05-13,合同会社Ｓｅｍｐｅｒ　Ｆｏｒｔｕｎａ,,合同会社,兵庫県,神戸市中央区,中山手通１丁目２２番２３号藤正ファインクラフト２０３,,28,110,6500004,,,2024-05-13,清算の結了等,,,2022-03-10,1,,,,,,0
1929,7180001088044,登記記録の閉鎖等,0,2024-05-15,2024-04-30,株式会社淺野,,株式会社,愛知県,名古屋市西区,中小田井５丁目３０５番地,,23,104,4520822,,,2024-04-30,清算の結了等,,,2015-10-05,1,,,,,アサノ,0
1930,7180001102060,登記記録の閉鎖等,0,2024-05-15,2024-05-01,株式会社知多外構,,株式会社,愛知県,知多市,寺本新町２丁目１６８番地,,23,224,4780063,,,2024-05-01,清算の結了等,,,2015-10-05,1,,,,,チタガイコウ,0
1931,7180001105352,登記記録の閉鎖等,0,2024-05-15,2024-05-13,株式会社リアルメイト,,株式会社,愛知県,名古屋市中区,錦１丁目７番３４号,,23,106,4600003,,,2024-05-13,合併による解散等,6180301024492,令和６年５月１日愛知県田原市田原町殿町６番地株式会社シーズホールディングス（6180301024492）に合併し解散,2015-10-05,1,,,,,リアルメイト,0
1939,7180002041844,登記記録の閉鎖等,0,2024-05-15,2024-05-02,有限会社スカラベ東海,,有限会社,東京都,新宿区,西新宿６丁目６－３,,13,104,1600023,,,2024-05-02,清算の結了等,,,2015-10-05,1,,,,,,0
1947,7190003004394,登記記録の閉鎖等,0,2024-05-15,2024-05-08,合同会社ハイヴィレッジ,,合同会社,三重県,津市,森町１５０７番地１,,24,201,5141254,,,2024-05-08,清算の結了等,,,2023-08-01,1,,,,,ハイヴィレッジ,0
1949,7210002001729,登記記録の閉鎖等,0,2024-05-15,2024-05-14,有限会社清水商店,,有限会社,福井県,福井市,上北野１丁目１３番６号,,18,201,9188203,,,2024-05-14,清算の結了等,,,2015-10-05,1,,,,,シミズショウテン,0
1965,7290801018098,登記記録の閉鎖等,0,2024-05-15,2024-05-09,株式会社古宮蔘鷄湯,,株式会社,福岡県,北九州市小倉北区,魚町１丁目４番１６号,,40,106,8020006,,,2024-05-09,清算の結了等,,,2015-10-05,1,,,,,コクンサンゲタン,0
1973,7310002004993,登記記録の閉鎖等,0,2024-05-15,2024-05-10,有限会社ホームプランモトキ,,有限会社,長崎県,長崎市,女の都４丁目６番２８号,,42,201,8528144,,,2024-05-10,清算の結了等,,,2015-10-05,1,,,,,ホームプランモトキ,0
1982,7360001010245,登記記録の閉鎖等,0,2024-05-15,2024-05-10,株式会社オーシャン・ヘルス・コーポレーション,,株式会社,沖縄県,浦添市,伊祖４丁目２１番１１号（Ｍ２－２）,,47,208,9012132,,,2024-05-10,清算の結了等,,,2015-10-05,1,,,,,オーシャンヘルスコーポレーション,0
1994,7370602001245,登記記録の閉鎖等,0,2024-05-15,2024-05-07,有限会社多賀城共立鉄工所,,有限会社,宮城県,多賀城市,大代２丁目２番８号,,04,209,9850832,,,2024-05-07,清算の結了等,,,2015-10-05,1,,,,,タガジョウキョウリツテッコウショ,0
2006,7430001066263,登記記録の閉鎖等,0,2024-05-15,2024-05-10,株式会社ＳＳプラント,,株式会社,北海道,江別市,上江別南町２８番地の３,,01,217,0670062,,,2024-05-10,清算の結了等,,,2015-10-05,1,,,,,エスエスプラント,0
2013,7490002000389,登記記録の閉鎖等,0,2024-05-15,2024-05-14,有限会社イマイ,,有限会社,高知県,高知市,神田１９６２番地の１,,39,201,7808040,,,2024-05-14,清算の結了等,,,2015-10-05,1,,,,,イマイ,0
2014,7500001013695,登記記録の閉鎖等,0,2024-05-15,2024-05-09,株式会社あおぞらテック,,株式会社,愛媛県,松山市,西石井２丁目１番２８号,,38,201,7900931,,,2024-05-09,清算の結了等,,,2015-10-05,1,,,,,アオゾラテック,0
2049,8010901044624,登記記録の閉鎖等,0,2024-05-15,2024-05-10,ワッツトウキョウ株式会社,,株式会社,東京都,世田谷区,新町１丁目１８番２２号ハイネス深沢Ｂ２０５,,13,112,1540014,,,2024-05-10,清算の結了等,,,2019-08-02,1,,,,,ワッツトウキョウ,0
2052,8011001022512,登記記録の閉鎖等,0,2024-05-15,2024-05-10,夢いっぱい株式会社,,株式会社,東京都,中野区,本町１丁目１４番１０号１２階,,13,114,1640012,,,2024-05-10,合併による解散等,8010001045886,令和６年５月１日東京都新宿区西新宿六丁目３番１号新宿アイランドウイング２階自由住宅株式会社（8010001045886）に合併し解散,2015-10-05,1,,,,,ユメイッパイ,0
2085,8012702002372,登記記録の閉鎖等,0,2024-05-15,2024-05-10,有限会社エム・エー・シー,,有限会社,東京都,東村山市,栄町３丁目１４番地１９コーシャハイム東村山栄町４０７,,13,213,1890013,,,2024-05-10,清算の結了等,,,2015-10-05,1,,,,,エムエーシー,0
2099,8020001143739,登記記録の閉鎖等,0,2024-05-15,2024-05-02,株式会社便利屋いろは,,株式会社,神奈川県,横浜市西区,久保町３６番２号,,14,103,2200061,,,2024-05-02,清算の結了等,,,2021-11-05,1,,,,,ベンリヤイロハ,0
2108,8021002061797,登記記録の閉鎖等,0,2024-05-15,2024-05-13,有限会社ＫＩＭ’Ｓ,,有限会社,神奈川県,平塚市,四之宮２丁目３番１３号,,14,203,2540014,,,2024-05-13,清算の結了等,,,2015-10-05,1,,,,,キムズ,0
2110,8030001099071,登記記録の閉鎖等,0,2024-05-15,2024-05-10,株式会社ＳＯＮＥＸ,,株式会社,埼玉県,川口市,大字峯３６５番地の６,,11,203,3340056,,,2024-05-10,清算の結了等,,,2015-10-05,1,,,,,ソネックス,0
2114,8030002093742,登記記録の閉鎖等,0,2024-05-15,2024-05-10,有限会社デスク・エヌ,,有限会社,埼玉県,鶴ヶ島市,大字上広谷３９１番地１４８,,11,241,3502203,,,2024-05-10,清算の結了等,,,2015-10-05,1,,,,,デスクエヌ,0
2128,8040003014754,登記記録の閉鎖等,0,2024-05-15,2024-04-26,合同会社ファミーユ・ルポ,,合同会社,千葉県,習志野市,谷津２丁目１９番２－３０４号,,12,216,2750026,,,2024-04-26,合併による解散等,8040003015942,令和６年３月１日千葉県習志野市谷津二丁目１９番２－３０４号合同会社メゾン・ド・ルポ（8040003015942）に合併し解散,2020-01-27,1,,,,,ファミーユルポ,0
2139,8080002003110,登記記録の閉鎖等,0,2024-05-15,2024-05-13,有限会社静岡コンタクトレンズセンター,,有限会社,静岡県,静岡市葵区,東鷹匠町５番３１号,,22,101,4200833,,,2024-05-13,清算の結了等,,,2015-10-05,1,,,,,シズオカコンタクトレンズセンター,0
2148,8100001006945,登記記録の閉鎖等,0,2024-05-15,2024-04-24,株式会社コウヨウナガノ,,株式会社,長野県,長野市,大字柳原１３７３番地４,,20,201,3810012,,,2024-04-24,清算の結了等,,,2015-10-05,1,,,,,コウヨウナガノ,0
2161,8120001203251,登記記録の閉鎖等,0,2024-05-15,2024-05-13,株式会社ベルキャット,,株式会社,大阪府,大阪市東淀川区,淡路５丁目８番７号,,27,114,5330032,,,2024-05-13,合併による解散等,1500001021076,令和６年４月１日大阪府阪南市下出３７番地の５リクラス尾崎ビル２階株式会社ＭＥＤＩ‐ＦＵＬＬ（1500001021076）に合併し解散,2017-01-26,1,,,,,ベルキャット,0
2180,8130001057440,登記記録の閉鎖等,0,2024-05-15,2024-05-13,株式会社心月,,株式会社,奈良県,奈良市,宝来１丁目９番８－３０８号,,29,201,6310845,,,2024-05-13,清算の結了等,,,2016-05-12,1,,,,,シンゲツ,0
2184,8130003006916,登記記録の閉鎖等,0,2024-05-15,2024-05-10,Ｍ　ＫＹＯＴＯ合同会社,,合同会社,京都府,京都市山科区,音羽前田町４３番地ヤマシナアーバンコテージ１Ｆ・Ｂ１Ｆ,,26,110,6078067,,,2024-05-10,清算の結了等,,,2021-01-27,1,,,,,エムキョウト,0
2185,8130005000677,登記記録の閉鎖等,0,2024-05-15,2024-04-26,天理教紀ノ城分教会,,その他の設立登記法人,京都府,京都市右京区,太秦森ケ前町２３番地の１,,26,108,6168105,,,2024-04-26,合併による解散等,5170005000610,令和６年４月２５日和歌山市下町３８番地天理教紀ノ川分教会（5170005000610）に合併し解散,2015-10-05,1,,,,,テンリキョウキノシロブンキョウカイ,0
2195,8160002013274,登記記録の閉鎖等,0,2024-05-15,2024-05-14,有限会社草津ハウジング,,有限会社,滋賀県,草津市,西矢倉２丁目７番７号,,25,206,5250052,,,2024-05-14,清算の結了等,,,2015-10-05,1,,,,,,0
2209,8180002024880,登記記録の閉鎖等,0,2024-05-15,2024-05-02,有限会社名東ゴム,,有限会社,愛知県,名古屋市西区,清里町３７８番地,,23,104,4520801,,,2024-05-02,清算の結了等,,,2015-10-05,1,,,,,メイトウゴム,0
2220,8200003006074,登記記録の閉鎖等,0,2024-05-15,2024-05-13,合同会社Ａ２Ｓｔｕｄｉｏ,,合同会社,岐阜県,大垣市,西之川町１丁目１５７番地１,,21,202,5030018,,,2024-05-13,清算の結了等,,,2023-09-05,1,,,,,エイツースタジオ,0
2231,8240002032803,登記記録の閉鎖等,0,2024-05-15,2024-05-14,有限会社コウモトエンジニアリング,,有限会社,広島県,呉市,阿賀北１丁目５番１３－２０１号,,34,202,7370001,,,2024-05-14,清算の結了等,,,2015-10-05,1,,,,,コウモトエンジニアリング,0
2237,8260002019385,登記記録の閉鎖等,0,2024-05-15,2024-05-14,高杉運送有限会社,00003642,有限会社,岡山県,都窪郡早島町,早島２７０２番地の７,,33,423,7010304,,,2024-05-14,清算の結了等,,,2015-10-05,1,,,,,タカスギウンソウ,0
2250,8320003000627,登記記録の閉鎖等,0,2024-05-15,2024-05-09,合資会社宮本商店,,合資会社,大分県,別府市,中島町１２番１６号,,44,202,8740901,,,2024-05-09,清算の結了等,,,2015-10-05,1,,,,,,0
2252,8340002010030,登記記録の閉鎖等,0,2024-05-15,2024-05-13,有限会社山元自動車,,有限会社,鹿児島県,鹿児島市,武岡４丁目１４番１５号,,46,201,8900031,,,2024-05-13,清算の結了等,,,2015-10-05,1,,,,,ヤマモトジドウシャ,0
2254,8350001017554,登記記録の閉鎖等,0,2024-05-15,2024-05-08,株式会社ｃａｎｄｙ,,株式会社,宮崎県,日向市,上町１３番９号ヒューグランデビル２－２,,45,206,8830044,,,2024-05-08,清算の結了等,,,2022-01-27,1,,,,,キャンディ,0
2274,8430001070347,登記記録の閉鎖等,0,2024-05-15,2024-05-10,株式会社福田塗装店,,株式会社,北海道,恵庭市,柏木町４丁目７番１５号,,01,231,0611423,,,2024-05-10,清算の結了等,,,2015-12-01,1,,,,,フクダトソウテン,0
2277,8440002007792,登記記録の閉鎖等,0,2024-05-15,2024-05-13,有限会社マルタツ庭食品,,有限会社,北海道,亀田郡七飯町,本町１丁目６番２８号,,01,337,0411111,,,2024-05-13,清算の結了等,,,2015-10-05,1,,,,,マルタツニワショクヒン,0
2286,9010001055067,登記記録の閉鎖等,0,2024-05-15,2024-04-30,株式会社ヒカリフオト,,株式会社,東京都,中央区,築地１丁目４番８号,,13,102,1040045,,,2024-04-30,清算の結了等,,,2015-10-05,1,,,,,ヒカリフオト,0
2291,9010001173983,登記記録の閉鎖等,0,2024-05-15,2024-05-01,株式会社ライフポーターキャリアスタッフ,,株式会社,千葉県,浦安市,千鳥１２－１－Ｂ棟,,12,227,2790032,,,2024-05-01,清算の結了等,,,2016-03-09,1,,,,,ライフポーターキャリアスタッフ,0
2292,9010001176391,登記記録の閉鎖等,0,2024-05-15,2024-05-09,エアーファインジャパン株式会社,,株式会社,東京都,台東区,台東４丁目２７番７号フローラルビル３階,,13,106,1100016,,,2024-05-09,清算の結了等,,,2016-06-16,1,,,,,エアーファインジャパン,0
2301,9010003030349,登記記録の閉鎖等,0,2024-05-15,2024-05-01,エクセリオ・ファーミング合同会社,,合同会社,東京都,中央区,銀座４丁目１４番１１号七十七銀座ビル８階,,13,102,1040061,,,2024-05-01,清算の結了等,,,2019-08-01,1,,,,,エクセリオファーミング,0
2303,9010005028399,登記記録の閉鎖等,0,2024-05-15,2024-05-13,Ｐｒｉｍｅ　Ｔｏｗｅｒ　Ｊａｐａｎ　Ｈｏｌｄｉｎｇ特定目的会社,,その他の設立登記法人,東京都,千代田区,霞が関３丁目２番５号霞が関ビル,,13,101,1000013,,,2024-05-13,清算の結了等,,,2018-04-16,1,,,,,プライムタワージャパンホールディング,0
2308,9010401082677,登記記録の閉鎖等,0,2024-05-15,2024-05-10,東和データサービス株式会社,,株式会社,東京都,港区,新橋３丁目２０番１号,,13,103,1050004,,,2024-05-10,合併による解散等,4010901003476,令和６年５月１日東京都世田谷区尾山台一丁目１６番８号株式会社クローバートーワ（4010901003476）に合併し解散,2015-10-05,1,,,,,トウワデータサービス,0
2337,9010701024585,登記記録の閉鎖等,0,2024-05-15,2024-04-24,アイルサポートインベストメント株式会社,,株式会社,東京都,目黒区,下目黒１丁目１番１４号,,13,110,1530064,,,2024-04-24,清算の結了等,,,2015-10-05,1,,,,,アイルサポートインベストメント,0
2338,9010701026375,登記記録の閉鎖等,0,2024-05-15,2024-05-02,株式会社Ｈ２Ｏ,,株式会社,神奈川県,川崎市幸区,柳町２４番地１ＦｉｎＳＣＲＯＳＳｋａｗａｓａｋｉ３０２,,14,132,2120015,,,2024-05-02,清算の結了等,,,2015-10-05,1,,,,,エイチツーオー,0
2371,9011605000193,登記記録の閉鎖等,0,2024-05-15,2024-05-07,天理教東富士分教会,,その他の設立登記法人,東京都,練馬区,栄町８番１１号,,13,120,1760006,,,2024-05-07,清算の結了等,,,2015-10-05,1,,,,,テンリキョウヒガシフジブンキョウカイ,0
2381,9012703001827,登記記録の閉鎖等,0,2024-05-15,2024-05-13,合同会社ポンヌフ,,合同会社,大阪府,大阪市北区,豊崎３丁目１８番３－２９０８号,,27,127,5310072,,,2024-05-13,清算の結了等,,,2019-08-08,1,,,,,ポンヌフ,0
2386,9020001104863,登記記録の閉鎖等,0,2024-05-15,2024-05-02,株式会社ニシエ,,株式会社,神奈川県,横浜市神奈川区,三枚町１２１番地１クレストフォルム横浜片倉町２０９号,,14,102,2210862,,,2024-05-02,清算の結了等,,,2015-10-05,1,,,,,ニシエ,0
2410,9030001131452,登記記録の閉鎖等,0,2024-05-15,2024-05-10,株式会社チャンプセンス,,株式会社,埼玉県,越谷市,大字大房７９５番地４,,11,222,3430027,,,2024-05-10,清算の結了等,,,2019-06-14,1,,,,,チャンプセンス,0
2413,9030002074254,登記記録の閉鎖等,0,2024-05-15,2024-05-09,有限会社テーラータケマサ,,有限会社,埼玉県,川越市,新富町２丁目８番地６,,11,201,3500043,,,2024-05-09,清算の結了等,,,2015-10-05,1,,,,,テーラータケマサ,0
2429,9050002013846,登記記録の閉鎖等,0,2024-05-15,2024-05-10,有限会社ニューファミリー,,有限会社,茨城県,土浦市,真鍋３丁目８番３８号,,08,203,3000051,,,2024-05-10,清算の結了等,,,2015-10-05,1,,,,,ニューファミリー,0
2435,9070003002607,登記記録の閉鎖等,0,2024-05-15,2024-05-10,佳希歌合同会社,,合同会社,群馬県,桐生市,三吉町２丁目９番１７号,,10,203,3760005,,,2024-05-10,清算の結了等,,,2016-03-17,1,,,,,カノカ,0
2437,9080002014908,登記記録の閉鎖等,0,2024-05-15,2024-05-10,有限会社ダックスオート,,有限会社,静岡県,牧之原市,片浜３３７９番地の１０３,,22,226,4210511,,,2024-05-10,清算の結了等,,,2015-10-05,1,,,,,ダックスオート,0
2442,9080401009673,登記記録の閉鎖等,0,2024-05-15,2024-05-14,株式会社メディコム,,株式会社,静岡県,浜松市中央区,三方原町９２８番地の５,,22,138,4338105,,,2024-05-14,清算の結了等,,,2015-10-05,1,,,,,メディコム,0
2460,9120001254780,登記記録の閉鎖等,0,2024-05-15,2024-05-02,日本宮崎集団株式会社,,株式会社,大阪府,大阪市浪速区,芦原１丁目１番７号フォレスト難波西１階,00130462,27,111,5560029,,,2024-05-02,清算の結了等,,,2023-05-12,1,,,,,ニホンミヤザキシュウダン,0
2474,9120102005075,登記記録の閉鎖等,0,2024-05-15,2024-05-09,有限会社米田タイル工業,,有限会社,大阪府,堺市北区,百舌鳥赤畑町５丁６９８番地,,27,146,5918037,,,2024-05-09,清算の結了等,,,2015-10-05,1,,,,,ヨネダタイルコウギョウ,0
2477,9120902010563,登記記録の閉鎖等,0,2024-05-15,2024-05-09,有限会社相互工業,,有限会社,大阪府,高槻市,川西町２丁目２０番１１号,,27,207,5691133,,,2024-05-09,清算の結了等,,,2015-10-05,1,,,,,ソウゴコウギョウ,0
2483,9140001028852,登記記録の閉鎖等,0,2024-05-15,2024-05-10,株式会社エプラス,,株式会社,兵庫県,神戸市中央区,京町７６番地１明海三宮ビル,,28,110,6500034,,,2024-05-10,清算の結了等,,,2015-10-05,1,,,,,エプラス,0
2487,9140002031269,登記記録の閉鎖等,0,2024-05-15,2024-05-13,有限会社ユーテック,,有限会社,兵庫県,三木市,志染町青山３丁目２８番地の８,,28,215,6730521,,,2024-05-13,清算の結了等,,,2015-10-05,1,,,,,ユーテック,0
2492,9150001027110,登記記録の閉鎖等,0,2024-05-15,2024-05-13,大恊警備保障株式会社,,株式会社,奈良県,北葛城郡河合町,大字佐味田１２５番地,,29,427,6360062,,,2024-05-13,清算の結了等,,,2024-03-14,1,,,,,ダイキョウケイビホショウ,0
2497,9180001078571,登記記録の閉鎖等,0,2024-05-15,2024-05-07,株式会社圀榮,,株式会社,愛知県,小牧市,東４丁目２５番地,,23,219,4850831,,,2024-05-07,清算の結了等,,,2015-10-05,1,,,,,コクエイ,0
2504,9180002090022,登記記録の閉鎖等,0,2024-05-15,2024-05-01,クリーンサプライ有限会社,,有限会社,愛知県,弥富市,佐古木７丁目２９番地の６,,23,235,4980006,,,2024-05-01,清算の結了等,,,2015-10-05,1,,,,,クリーンサプライ,0
2506,9180301021280,登記記録の閉鎖等,0,2024-05-15,2024-05-08,株式会社ヘルスプランニング・あいち,,株式会社,愛知県,豊田市,花園町塩倉１１番地１６,,23,211,4730924,,,2024-05-08,清算の結了等,,,2015-10-05,1,,,,,ヘルスプランニングアイチ,0
2540,9310001009117,登記記録の閉鎖等,0,2024-05-15,2024-05-09,株式会社宮崎エンジニアリング,00095726,株式会社,長崎県,雲仙市,愛野町乙２１２６番地３,,42,213,8540302,,,2024-05-09,清算の結了等,,,2015-10-05,1,,,,,ミヤザキエンジニアリング,0
2549,9340005005043,登記記録の閉鎖等,0,2024-05-15,2024-05-10,特定非営利活動法人奥天降霧島,,その他の設立登記法人,鹿児島県,霧島市,隼人町西光寺３５番地７,,46,218,8995114,,,2024-05-10,清算の結了等,,,2015-10-05,1,,,,,オクアモリキリシマ,0
2575,9500002018691,登記記録の閉鎖等,0,2024-05-15,2024-05-10,津田海運有限会社,,有限会社,愛媛県,今治市,菊間町浜８４番地１,,38,202,7992303,,,2024-05-10,清算の結了等,,,2015-10-05,1,,,,,ツダカイウン,0
