sequenceNumber,corporateNumber,process,correct,updateDate,changeDate,name,nameImageId,kind,prefectureName,cityName,streetNumber,addressImageId,prefectureCode,cityCode,postCode,addressOutside,addressOutsideImageId,closeDate,closeCause,successorCorporateNumber,changeCause,assignmentDate,latest,enName,enPrefectureName,enCityName,enAddressOutside,furigana,hihyoji
7,1010001251458,新規,0,2025-01-15,2025-01-15,ＣＤＰＳ株式会社,,株式会社,東京都,中央区,明石町８番１号,,13,102,1040044,,,,,,,2025-01-15,1,,,,,シーディーピーエス,0
8,1010001251466,新規,0,2025-01-15,2025-01-15,ゼロワン株式会社,,株式会社,東京都,中央区,銀座１丁目１２番４号Ｎ＆ＥＢＬＤ．６Ｆ,,13,102,1040061,,,,,,,2025-01-15,1,,,,,ゼロワン,0
9,1010003046055,新規,0,2025-01-15,2025-01-15,日光Ｐｌｕｓ２３合同会社２,,合同会社,東京都,千代田区,丸の内１丁目４番１号東京共同会計事務所内,,13,101,1000005,,,,,,,2025-01-15,1,,,,,ニッコウプラスニジュウサンニ,0
10,1010003046063,新規,0,2025-01-15,2025-01-15,日光Ｐｌｕｓ２３合同会社１０,,合同会社,東京都,千代田区,丸の内１丁目４番１号東京共同会計事務所内,,13,101,1000005,,,,,,,2025-01-15,1,,,,,ニッコウプラスニジュウサンイチゼロ,0
15,1010401187459,新規,0,2025-01-15,2025-01-15,株式会社ＮｅｗＡｒｃ,,株式会社,東京都,港区,赤坂４丁目８番１９号赤坂フロントタウン３階,,13,103,1070052,,,,,,,2025-01-15,1,,,,,ニューアーク,0
16,1010401187533,新規,0,2025-01-15,2025-01-15,株式会社ユーリズミックス,,株式会社,東京都,港区,元麻布３丁目１０番２０号ＪＳＤ麻布ビル２階,,13,103,1060046,,,,,,,2025-01-15,1,,,,,ユーリズミックス,0
17,1010401187541,新規,0,2025-01-15,2025-01-15,Ｗｉｌｌｉｓ　Ｗｏｒｋｓ　Ｊａｐａｎ株式会社,,株式会社,東京都,港区,赤坂２丁目８番１４－５０４号,,13,103,1070052,,,,,,,2025-01-15,1,,,,,ウィルスワークスジャパン,0
21,1010505003578,新規,0,2025-01-15,2025-01-15,税理士法人Ｇ＆Ｊパートナーズ,,その他の設立登記法人,東京都,台東区,寿４丁目６番４号,,13,106,1110042,,,,,,,2025-01-15,1,,,,,ジーアンドジェイパートナーズ,0
30,1010803005235,新規,0,2025-01-15,2025-01-15,ＧＡＴＣ合同会社,,合同会社,東京都,大田区,南馬込４丁目１３－２１エレウテリア１０２,,13,111,1430025,,,,,,,2025-01-15,1,,,,,ジーエーティーシー,0
32,1010903009648,新規,0,2025-01-15,2025-01-15,合同会社４ＯＲＴＥ,,合同会社,東京都,世田谷区,北烏山４丁目３５番２９ー１１号,,13,112,1570061,,,,,,,2025-01-15,1,,,,,フォルテ,0
35,1011001167017,新規,0,2025-01-15,2025-01-15,株式会社ｍａｕｎａ,,株式会社,東京都,渋谷区,道玄坂１丁目１０番８号渋谷道玄坂東急ビル２Ｆ－Ｃ,,13,113,1500043,,,,,,,2025-01-15,1,,,,,マウナ,0
37,1011003020784,新規,0,2025-01-15,2025-01-15,合同会社ＵＨ,,合同会社,東京都,渋谷区,上原１丁目２４番７号Ｓｙｌｖａｎ・Ｈｉｌｌ・Ｄ,,13,113,1510064,,,,,,,2025-01-15,1,,,,,ユーエイチ,0
45,1011101110231,新規,0,2025-01-15,2025-01-15,株式会社アストエンターテイメント,,株式会社,東京都,新宿区,西新宿３丁目３番１３号西新宿水間ビル２Ｆ,,13,104,1600023,,,,,,,2025-01-15,1,,,,,アストエンターテイメント,0
46,1011101110264,新規,0,2025-01-15,2025-01-15,Ｃｌｉｍ　Ｊａｐａｎ株式会社,,株式会社,東京都,新宿区,西落合３丁目１－２コスモ西落合８０３号室,,13,104,1610031,,,,,,,2025-01-15,1,,,,,クリムジャパン,0
47,1011101110272,新規,0,2025-01-15,2025-01-15,株式会社ＬｉｂｒａＳｐｒｏｕｔ,,株式会社,東京都,新宿区,西落合２丁目８番２７号コンフォート哲学堂１０１,,13,104,1610031,,,,,,,2025-01-15,1,,,,,リブラスプラウト,0
49,1011103015395,新規,0,2025-01-15,2025-01-15,合同会社蒲田駅前,,合同会社,東京都,新宿区,四谷２丁目９番地１５東京ユナイテッド綜合事務所内,,13,104,1600004,,,,,,,2025-01-15,1,,,,,カマタエキマエ,0
50,1011105011285,新規,0,2025-01-15,2025-01-15,一般社団法人キャリア発達＆ＥＡＰ推進機構,,その他の設立登記法人,東京都,新宿区,赤城元町３－８カーサ奈須野１０２,,13,104,1620817,,,,,,,2025-01-15,1,,,,,キャリアハッタツアンドイーエーピースイシンキコウ,0
51,1011203004579,新規,0,2025-01-15,2025-01-15,合同会社ＨａＲｉＣＴＯ,,合同会社,東京都,中野区,中野３丁目３４‐３２,,13,114,1640001,,,,,,,2025-01-15,1,,,,,ハリクト,0
53,1011401026714,新規,0,2025-01-15,2025-01-15,ＳＣＯＮＥ株式会社,,株式会社,東京都,板橋区,南常盤台２丁目２番４号,,13,119,1740072,,,,,,,2025-01-15,1,,,,,エスシーワン,0
54,1011403004585,新規,0,2025-01-15,2025-01-15,Ｃｅｅｒｆｕｌ．Ｃｏｍｐａｎｉｅｓ合同会社,,合同会社,東京都,板橋区,徳丸２丁目２７－３－３０２,,13,119,1750083,,,,,,,2025-01-15,1,,,,,,0
55,1011601028361,新規,0,2025-01-15,2025-01-15,株式会社西風,,株式会社,東京都,練馬区,早宮２丁目５番９号,,13,120,1790085,,,,,,,2025-01-15,1,,,,,ニシカゼ,0
56,1011605002627,新規,0,2025-01-15,2025-01-15,一般社団法人学校図書館資料保存センター,,その他の設立登記法人,東京都,練馬区,関町北４丁目３２番３３号キューブ関町北,,13,120,1770051,,,,,,,2025-01-15,1,,,,,ガッコウトショカンシリョウホゾンセンター,0
60,1011801045454,新規,0,2025-01-15,2025-01-15,株式会社アスペック,,株式会社,東京都,葛飾区,堀切２丁目２５番５号,,13,122,1240006,,,,,,,2025-01-15,1,,,,,アスペック,0
62,1012701018649,新規,0,2025-01-15,2025-01-15,ＧＰＳ株式会社,,株式会社,東京都,小平市,美園町２丁目９－７,,13,211,1870041,,,,,,,2025-01-15,1,,,,,ジーピーエス,0
66,1013303007478,新規,0,2025-01-15,2025-01-15,合同会社経理部・人事部,,合同会社,東京都,豊島区,西池袋２丁目４３番５号日神パレステージ西池袋９０２号,,13,116,1710021,,,,,,,2025-01-15,1,,,,,ケイリブジンジブ,0
92,1030001164402,新規,0,2025-01-15,2025-01-15,株式会社梨の大澤農園,,株式会社,埼玉県,久喜市,菖蒲町上大崎４２０番地１,,11,232,3460111,,,,,,,2025-01-15,1,,,,,ナシノオオサワノウエン,0
93,1030001164410,新規,0,2025-01-15,2025-01-15,株式会社ファインド,,株式会社,埼玉県,蓮田市,緑町２丁目１番１号,,11,238,3490104,,,,,,,2025-01-15,1,,,,,ファインド,0
99,1030003025858,新規,0,2025-01-15,2025-01-15,合同会社アビゲール,,合同会社,埼玉県,さいたま市南区,神明２丁目１番９号サンズイマンション２０２号室,,11,108,3360023,,,,,,,2025-01-15,1,,,,,アビゲール,0
100,1030003025882,新規,0,2025-01-15,2025-01-15,合同会社ＭＤ,,合同会社,埼玉県,鴻巣市,糠田２９３４番地１５,,11,217,3650059,,,,,,,2025-01-15,1,,,,,エムディー,0
101,1030005021995,新規,0,2025-01-15,2025-01-15,一般社団法人あやめ食堂,,その他の設立登記法人,埼玉県,熊谷市,上根９５番地３,,11,202,3600217,,,,,,,2025-01-15,1,,,,,アヤメショクドウ,0
102,1030005022003,新規,0,2025-01-15,2025-01-15,一般社団法人埼玉県野球連盟,,その他の設立登記法人,埼玉県,上尾市,東町３丁目１６７９番地（スポーツ総合センター内）,,11,219,3620031,,,,,,,2025-01-15,1,,,,,サイタマケンヤキュウレンメイ,0
117,1040003026558,新規,0,2025-01-15,2025-01-15,合同会社ＡＪテクノロジーズ,,合同会社,千葉県,松戸市,常盤平４丁目１２番地の１ダイアパレス常盤平グランドアベニュー６０１号,,12,207,2702261,,,,,,,2025-01-15,1,,,,,エージェーテクノロジーズ,0
118,1040003026599,新規,0,2025-01-15,2025-01-15,津誠合同会社,,合同会社,千葉県,千葉市中央区,道場北２丁目１２番２０号２０２号室,,12,101,2600006,,,,,,,2025-01-15,1,,,,,ツセイ,0
129,1070005010342,新規,0,2025-01-15,2025-01-15,一般社団法人朝倉町キリスト集会,,その他の設立登記法人,群馬県,前橋市,朝倉町４丁目６番３号,,10,201,3710811,,,,,,,2025-01-15,1,,,,,アサクラマチキリストシュウカイ,0
130,1080003003371,新規,0,2025-01-15,2025-01-15,合同会社つみき,,合同会社,静岡県,静岡市駿河区,寿町５番３１号,,22,102,4228055,,,,,,,2025-01-15,1,,,,,ツミキ,0
132,1080101025251,新規,0,2025-01-15,2025-01-15,株式会社沼津産業医事務所,,株式会社,静岡県,沼津市,共栄町１７番地の１３,,22,203,4100064,,,,,,,2025-01-15,1,,,,,,0
133,1100001038177,新規,0,2025-01-15,2025-01-15,株式会社ＫＥＴＥＲ,,株式会社,長野県,上田市,長瀬２７６６－５,,20,203,3860407,,,,,,,2025-01-15,1,,,,,ケテル,0
135,1110001038993,新規,0,2025-01-15,2025-01-15,株式会社ｓｕｍｉｋａ,,株式会社,新潟県,新潟市北区,つくし野１丁目７番１１号,,15,101,9503135,,,,,,,2025-01-15,1,,,,,,0
136,1110003005637,新規,0,2025-01-15,2025-01-15,合同会社オリハルコン,,合同会社,新潟県,長岡市,与板町江西３丁目５番６号,,15,202,9402406,,,,,,,2025-01-15,1,,,,,オリハルコン,0
149,1120001271461,新規,0,2025-01-15,2025-01-15,三宝株式会社,,株式会社,大阪府,大阪市東成区,東今里３丁目１５番２７号２０１,,27,115,5370011,,,,,,,2025-01-15,1,,,,,サンポウ,0
150,1120001271610,新規,0,2025-01-15,2025-01-15,株式会社ＣａｍＰＡＬ,,株式会社,大阪府,大阪市中央区,南船場４丁目１０番５号南船場ＳＯＨＯビル７０２,,27,128,5420081,,,,,,,2025-01-15,1,,,,,キャンパル,0
151,1120001271783,新規,0,2025-01-15,2025-01-15,ＵＮＩＳＯＬビジネスパートナーズ株式会社,,株式会社,大阪府,大阪市中央区,南新町１丁目２番１０号,,27,128,5400024,,,,,,,2025-01-15,1,,,,,ユニソルビジネスパートナーズ,0
152,1120001271809,新規,0,2025-01-15,2025-01-15,株式会社成宏商店,,株式会社,大阪府,大阪市淀川区,宮原５丁目７番２４－６０５号,,27,123,5320003,,,,,,,2025-01-15,1,,,,,セイコウショウテン,0
153,1120001271833,新規,0,2025-01-15,2025-01-15,Ｆネクスト株式会社,,株式会社,大阪府,大阪市北区,梅田１丁目２番２号大阪駅前第２ビル１２－１２,,27,127,5300001,,,,,,,2025-01-15,1,,,,,エフネクスト,0
154,1120001271841,新規,0,2025-01-15,2025-01-15,株式会社ＳＤＥＳＩＧＮ,,株式会社,大阪府,大阪市住之江区,南港北２丁目１番１０号ＡＴＣビル,,27,125,5590034,,,,,,,2025-01-15,1,,,,,エスデザイン,0
155,1120001271866,新規,0,2025-01-15,2025-01-15,株式会社百壱,,株式会社,大阪府,大阪市東淀川区,北江口４丁目１２番１５号１Ｆ,,27,114,5330002,,,,,,,2025-01-15,1,,,,,ヒャクイチ,0
156,1120001271965,新規,0,2025-01-15,2025-01-15,株式会社ＢＥＴＥＣＴ,,株式会社,大阪府,大阪市淀川区,加島４丁目５番３‐９１６号,,27,123,5320031,,,,,,,2025-01-15,1,,,,,ベテクト,0
157,1120001271973,新規,0,2025-01-15,2025-01-15,株式会社ＧＲＥＥＮ　ＡＣＴＩＯＮ,,株式会社,大阪府,大阪市西区,新町１丁目５番７号,,27,106,5500013,,,,,,,2025-01-15,1,,,,,グリーンアクション,0
160,1120003028323,新規,0,2025-01-15,2025-01-15,合同会社かぞく,,合同会社,大阪府,大阪市住吉区,帝塚山東５丁目１２番１６－３０７号,00137652,27,120,5580054,,,,,,,2025-01-15,1,,,,,カゾク,0
161,1120003028348,新規,0,2025-01-15,2025-01-15,合同会社ライフスマイル,,合同会社,大阪府,大阪市住吉区,我孫子東２丁目４番２５－１０１号,,27,120,5580013,,,,,,,2025-01-15,1,,,,,ライフスマイル,0
162,1120003028356,新規,0,2025-01-15,2025-01-15,誠信合同会社,,合同会社,大阪府,大阪市西成区,玉出東１丁目７番２３号１０１号室,,27,122,5570043,,,,,,,2025-01-15,1,,,,,セイシン,0
170,1122001038790,新規,0,2025-01-15,2025-01-15,株式会社Ｔ．Ｈ．Ｋ,,株式会社,大阪府,東大阪市,小若江３丁目１１番５２号,,27,227,5770818,,,,,,,2025-01-15,1,,,,,ティーエイチケイ,0
172,1122005003799,新規,0,2025-01-15,2025-01-15,協同組合優サポート,,その他の設立登記法人,大阪府,八尾市,南木の本１丁目８７番地の１,,27,212,5810042,,,,,,,2025-01-15,1,,,,,ユウサポート,0
184,1140001137033,新規,0,2025-01-15,2025-01-15,株式会社ＥＭＧ　ｅｘｐａｎｄ,,株式会社,兵庫県,淡路市,室津２４５８番地,,28,226,6561606,,,,,,,2025-01-15,1,,,,,イーエムジーエクスパンド,0
187,1140003021474,新規,0,2025-01-15,2025-01-15,合同会社小野工業,,合同会社,兵庫県,川西市,花屋敷１丁目３０番１３号,,28,217,6660035,,,,,,,2025-01-15,1,,,,,オノコウギョウ,0
188,1140003021516,新規,0,2025-01-15,2025-01-15,合同会社アイバテック,,合同会社,兵庫県,加古川市,志方町大宗２８２番地の２,,28,210,6750305,,,,,,,2025-01-15,1,,,,,アイバテック,0
189,1140003021532,新規,0,2025-01-15,2025-01-15,合同会社オフィスＣｉｅｌ,,合同会社,兵庫県,宝塚市,湯本町８番１８－７０７号,,28,214,6650003,,,,,,,2025-01-15,1,,,,,オフィスシエル,0
190,1140005027346,新規,0,2025-01-15,2025-01-15,医療法人社団柏陽会,,その他の設立登記法人,兵庫県,明石市,桜町１４番１９号,,28,203,6730885,,,,,,,2025-01-15,1,,,,,ハクヨウカイ,0
191,1150001027803,新規,0,2025-01-15,2025-01-15,株式会社ＮＫＩ,,株式会社,奈良県,大和高田市,大字藤森１０５－３,,29,202,6350004,,,,,,,2025-01-15,1,,,,,エヌケイアイ,0
194,1150003003471,新規,0,2025-01-15,2025-01-15,合同会社ＹＵＡＮ,,合同会社,奈良県,奈良市,西登美ヶ丘８丁目７番１７号,,29,201,6310006,,,,,,,2025-01-15,1,,,,,ユエン,0
202,1180001164916,新規,0,2025-01-15,2025-01-15,竹本設備工業株式会社,,株式会社,愛知県,瀬戸市,塩草が丘４丁目１９番地,,23,204,4890899,,,,,,,2025-01-15,1,,,,,タケモトセツビコウギョウ,0
203,1180001164965,新規,0,2025-01-15,2025-01-15,株式会社ソドン,,株式会社,愛知県,名古屋市千種区,千種１丁目１４番４１号エスポア千種１３０３号,,23,101,4640858,,,,,,,2025-01-15,1,,,,,ソドン,0
204,1180001164973,新規,0,2025-01-15,2025-01-15,株式会社ｗｉｔｈ．ｉ,,株式会社,愛知県,春日井市,神領町２丁目２９番地１,,23,206,4860821,,,,,,,2025-01-15,1,,,,,ウィズアイ,0
207,1180303006411,新規,0,2025-01-15,2025-01-15,合同会社Ｔｅｅ,,合同会社,愛知県,田原市,神戸町上り口８１番地１希望が丘住宅Ｆ－２－２号,,23,231,4413415,,,,,,,2025-01-15,1,,,,,ティ,0
214,1240001064390,新規,0,2025-01-15,2025-01-15,株式会社Ｙ’ｓ,,株式会社,広島県,福山市,昭和町９番１８号五番館２Ｆ,,34,207,7200808,,,,,,,2025-01-15,1,,,,,ワイズ,0
219,1260001039812,新規,0,2025-01-15,2025-01-15,株式会社ｆｕｎｃｒｅａｔｅ,,株式会社,岡山県,総社市,刑部８番地６,,33,208,7191116,,,,,,,2025-01-15,1,,,,,ファンクリエイト,0
255,1290003016278,新規,0,2025-01-15,2025-01-15,合同会社リベルタ,,合同会社,福岡県,福岡市西区,横浜２丁目５番３－５０２号,,40,135,8190166,,,,,,,2025-01-15,1,,,,,リベルタ,0
256,1290003016286,新規,0,2025-01-15,2025-01-15,合同会社一心,,合同会社,福岡県,福岡市南区,井尻１丁目５番１０－２０２号今泉ハイツ,,40,134,8111302,,,,,,,2025-01-15,1,,,,,イッシン,0
273,1290803004944,新規,0,2025-01-15,2025-01-15,合同会社ＭＣＳ‐ＪＡＰＡＮ,,合同会社,福岡県,北九州市小倉北区,城内４－２－１１０３,,40,106,8030813,,,,,,,2025-01-15,1,,,,,エムシーエスジャパン,0
276,1300003002219,新規,0,2025-01-15,2025-01-15,合同会社わたなべ,,合同会社,佐賀県,佐賀市,北川副町大字光法１６８６番地９,,41,201,8400012,,,,,,,2025-01-15,1,,,,,ワタナベ,0
280,1360001034654,新規,0,2025-01-15,2025-01-15,ａｔ　ｃｏｓｍｏ　ｅｓｔａｔｅ株式会社,,株式会社,沖縄県,宜野湾市,伊佐２丁目７－１２Ｇ・Ｎビル１Ｆ,,47,205,9012221,,,,,,,2025-01-15,1,,,,,アットコスモエステート,0
281,1360001034662,新規,0,2025-01-15,2025-01-15,株式会社ビーコネクト,,株式会社,沖縄県,那覇市,長田２丁目４－３メゾン光１Ｆ,,47,201,9020077,,,,,,,2025-01-15,1,,,,,ビーコネクト,0
284,1370001052119,新規,0,2025-01-15,2025-01-15,株式会社相原,,株式会社,宮城県,岩沼市,中央２丁目２番１３号,,04,211,9892432,,,,,,,2025-01-15,1,,,,,アイハラ,0
285,1370001052135,新規,0,2025-01-15,2025-01-15,株式会社ＳＥＬＥＣＴ．,,株式会社,宮城県,仙台市青葉区,上杉３丁目５番１２－６０２号,,04,101,9800011,,,,,,,2025-01-15,1,,,,,セレクト,0
302,1480001012706,新規,0,2025-01-15,2025-01-15,株式会社ＴＰＣ中央,,株式会社,徳島県,徳島市,国府町北岩延字三反地５番地２,,36,201,7793119,,,,,,,2025-01-15,1,,,,,テーピーシーチュウオウ,0
314,2010001251399,新規,0,2025-01-15,2025-01-15,Ｅｍｐｏｗｅｒ　Ｓｐｏｒｔ株式会社,,株式会社,東京都,千代田区,神田和泉町１番地６－１６ヤマトビル４０５,,13,101,1010024,,,,,,,2025-01-15,1,,,,,エンパワースポーツ,0
315,2010003046054,新規,0,2025-01-15,2025-01-15,日光Ｐｌｕｓ２３合同会社３,,合同会社,東京都,千代田区,丸の内１丁目４番１号東京共同会計事務所内,,13,101,1000005,,,,,,,2025-01-15,1,,,,,ニッコウプラスニジュウサンサン,0
316,2010003046062,新規,0,2025-01-15,2025-01-15,日光Ｐｌｕｓ２３合同会社１１,,合同会社,東京都,千代田区,丸の内１丁目４番１号東京共同会計事務所内,,13,101,1000005,,,,,,,2025-01-15,1,,,,,ニッコウプラスニジュウサンイチイチ,0
317,2010003046070,新規,0,2025-01-15,2025-01-15,ＣＫ１合同会社,,合同会社,東京都,千代田区,丸の内１丁目４番１号東京共同会計事務所内,,13,101,1000005,,,,,,,2025-01-15,1,,,,,シーケーワン,0
318,2010005039403,新規,0,2025-01-15,2025-01-15,ＧＩリアルティ２一般社団法人,,その他の設立登記法人,東京都,千代田区,内神田１丁目３番７号４０１あすな会計事務所内,,13,101,1010047,,,,,,,2025-01-15,1,,,,,ジーアイリアルティツー,0
329,2010501053428,新規,0,2025-01-15,2025-01-15,リトナル株式会社,,株式会社,東京都,台東区,東上野２丁目２２－６システム上野ビル５階,,13,106,1100015,,,,,,,2025-01-15,1,,,,,リトナル,0
335,2010703007529,新規,0,2025-01-15,2025-01-15,合同会社シーカッサ,,合同会社,東京都,品川区,大井７丁目１６番２号,,13,109,1400014,,,,,,,2025-01-15,1,,,,,シーカッサ,0
336,2010801035737,新規,0,2025-01-15,2025-01-15,株式会社ＦＯＭＳ,,株式会社,東京都,大田区,新蒲田３丁目７－１３,,13,111,1440054,,,,,,,2025-01-15,1,,,,,フォムス,0
338,2010903009639,新規,0,2025-01-15,2025-01-15,合同会社ＳＰＡＲＫＬＥ,,合同会社,東京都,世田谷区,代田４丁目３２番２６号,,13,112,1550033,,,,,,,2025-01-15,1,,,,,スパークル,0
343,2011001167115,新規,0,2025-01-15,2025-01-15,株式会社ソラメド,,株式会社,東京都,渋谷区,神南１丁目１１番４号ＦＰＧリンクス神南５階,,13,113,1500041,,,,,,,2025-01-15,1,,,,,ソラメド,0
344,2011001167123,新規,0,2025-01-15,2025-01-15,株式会社トーキングファン,,株式会社,東京都,渋谷区,恵比寿西２丁目８番４号ＥＸ恵比寿西ビル５階,,13,113,1500021,,,,,,,2025-01-15,1,,,,,トーキングファン,0
345,2011001167156,新規,0,2025-01-15,2025-01-15,株式会社マグパイ,,株式会社,東京都,目黒区,目黒本町５丁目７番１号,,13,110,1520002,,,,,,,2025-01-15,1,,,,,マグパイ,0
346,2011001167172,新規,0,2025-01-15,2025-01-15,株式会社ａｎａｎ,,株式会社,東京都,目黒区,目黒本町５丁目４番５号,,13,110,1520002,,,,,,,2025-01-15,1,,,,,アナン,0
351,2011101110230,新規,0,2025-01-15,2025-01-15,株式会社マリースター,,株式会社,東京都,新宿区,西新宿５丁目８番２号惠徳ビル,,13,104,1600023,,,,,,,2025-01-15,1,,,,,マリースター,0
352,2011101110247,新規,0,2025-01-15,2025-01-15,ケミテックジャパン株式会社,,株式会社,東京都,新宿区,高田馬場４丁目８－９,,13,104,1690075,,,,,,,2025-01-15,1,,,,,ケミテックジャパン,0
354,2011103015378,新規,0,2025-01-15,2025-01-15,合同会社ＭＪ,,合同会社,東京都,新宿区,大久保３丁目２番７号,,13,104,1690072,,,,,,,2025-01-15,1,,,,,エムジェイ,0
355,2011103015386,新規,0,2025-01-15,2025-01-15,合同会社Ｔｏｍｍｙ‐Ｒｅｃｏｒｄｓ　Ｅｎｔｅｒｔａｉｎｍｅｎｔ,,合同会社,東京都,新宿区,愛住町１９番地１３泰美ビル６Ｆ,,13,104,1600005,,,,,,,2025-01-15,1,,,,,トミーレコードエンターテイメント,0
356,2011103015394,新規,0,2025-01-15,2025-01-15,ＳＴＬ合同会社,,合同会社,東京都,新宿区,西新宿３丁目３番１３号西新宿水間ビル６階,,13,104,1600023,,,,,,,2025-01-15,1,,,,,エスティーエル,0
357,2011103015403,新規,0,2025-01-15,2025-01-15,ＤＡＩ　ＫＩＭ合同会社,,合同会社,東京都,新宿区,北新宿１丁目１６番３号せぴあ館２０２,,13,104,1690074,,,,,,,2025-01-15,1,,,,,ダイキム,0
358,2011105011284,新規,0,2025-01-15,2025-01-15,ＮＰＯ法人ＯＰＥＮ,,その他の設立登記法人,東京都,新宿区,新宿２丁目１２番１５号Ｍ＆ＴビルＢ１,,13,104,1600022,,,,,,,2025-01-15,1,,,,,オープン,0
366,2011603004574,新規,0,2025-01-15,2025-01-15,合同会社Ｌａｐｉｓ,,合同会社,東京都,練馬区,早宮２丁目２２番１２号,,13,120,1790085,,,,,,,2025-01-15,1,,,,,ラピス,0
367,2011801045437,新規,0,2025-01-15,2025-01-15,ＳＨＥＬＴＩＥ株式会社,,株式会社,東京都,足立区,小台１丁目６番５号２５号室,,13,121,1200046,,,,,,,2025-01-15,1,,,,,シェルティー,0
368,2011801045445,新規,0,2025-01-15,2025-01-15,株式会社ジーオーティー,,株式会社,東京都,足立区,竹の塚１丁目４０－１５庄栄ビル５階ＢＰＴ,,13,121,1210813,,,,,,,2025-01-15,1,,,,,ジーオーティー,0
369,2011801045453,新規,0,2025-01-15,2025-01-15,ニッポン千住日光株式会社,,株式会社,東京都,足立区,千住１丁目４番１号東京芸術センター１０階,,13,121,1200034,,,,,,,2025-01-15,1,,,,,ニッポンセンジュニッコー,0
370,2011801045461,新規,0,2025-01-15,2025-01-15,バニーラクタス株式会社,,株式会社,東京都,葛飾区,東新小岩５丁目２１番１５号グランモアＴ・Ｄ１０２,,13,122,1240023,,,,,,,2025-01-15,1,,,,,バニーラクタス,0
371,2011803006651,新規,0,2025-01-15,2025-01-15,Ｅｓｓｅｎｃｅ合同会社,,合同会社,東京都,葛飾区,高砂３丁目２３番１２号,,13,122,1250054,,,,,,,2025-01-15,1,,,,,エッセンス,0
376,2012703003169,新規,0,2025-01-15,2025-01-15,スターライトマーケティング合同会社,,合同会社,東京都,小平市,回田町５８番地の８１,,13,211,1870013,,,,,,,2025-01-15,1,,,,,スターライトマーケティング,0
390,2021003015452,新規,0,2025-01-15,2025-01-15,合同会社Ｌｅｉ　ｓｔｙｌｅ,,合同会社,神奈川県,茅ヶ崎市,中海岸４丁目７番４２号,,14,207,2530055,,,,,,,2025-01-15,1,,,,,レイスタイル,0
395,2030001164327,新規,0,2025-01-15,2025-01-15,株式会社ＲＹＢ‐Ｉｎｎｏｖａｔｉｏｎｓ,,株式会社,埼玉県,さいたま市緑区,宮本２丁目１３番地１４,,11,109,3360916,,,,,,,2025-01-15,1,,,,,アールワイビーイノベーションズ,0
409,2040001136977,新規,0,2025-01-15,2025-01-15,双葉商事株式会社,,株式会社,千葉県,船橋市,西船４丁目１９番２号第１２花園ビル７０８号室,,12,204,2730031,,,,,,,2025-01-15,1,,,,,フタバショウジ,0
411,2040003026598,新規,0,2025-01-15,2025-01-15,ＫＵマネジメントコンサルティング合同会社,,合同会社,千葉県,柏市,新柏２丁目３番地１０,,12,217,2770084,,,,,,,2025-01-15,1,,,,,ケーユーマネジメントコンサルティング,0
412,2040003026607,新規,0,2025-01-15,2025-01-15,合同会社ＳｈｉｎＹｏｕＣｌｕｂ,,合同会社,千葉県,勝浦市,部原１９２８番地２７,,12,218,2995223,,,,,,,2025-01-15,1,,,,,シンユウクラブ,0
413,2040005022620,新規,0,2025-01-15,2025-01-15,医療法人社団将明会,,その他の設立登記法人,千葉県,松戸市,西馬橋蔵元町１９番地ウッドヒルズＩＩ１０１号室,00137645,12,207,2710046,,,,,,,2025-01-15,1,,,,,ショウメイカイ,0
418,2050001055978,新規,0,2025-01-15,2025-01-15,夢実ホーム株式会社,,株式会社,茨城県,牛久市,栄町３丁目１４１番地３Ｍａｇｎｏｌｉａ１０５,,08,219,3001233,,,,,,,2025-01-15,1,,,,,ユメミホーム,0
434,2070005010341,新規,0,2025-01-15,2025-01-15,医療法人健山会,,その他の設立登記法人,群馬県,太田市,東矢島町７８番地,,10,205,3730816,,,,,,,2025-01-15,1,,,,,ケンザンカイ,0
435,2080001026712,新規,0,2025-01-15,2025-01-15,株式会社デザインフラメ,,株式会社,静岡県,静岡市駿河区,中田本町２７番１２－３０５号,,22,102,4228043,,,,,,,2025-01-15,1,,,,,デザインフラメ,0
439,2080105006478,新規,0,2025-01-15,2025-01-15,税理士法人オオタケ,,その他の設立登記法人,静岡県,沼津市,岡宮９６９番地の１,,22,203,4100011,,,,,,,2025-01-15,1,,,,,オオタケ,0
442,2110001038992,新規,0,2025-01-15,2025-01-15,株式会社ＵＲＵＲＡ,,株式会社,新潟県,新発田市,富塚町１丁目５番９号,,15,206,9570062,,,,,,,2025-01-15,1,,,,,ウルラ,0
445,2110003005636,新規,0,2025-01-15,2025-01-15,合同会社Ｄ＆Ａ,,合同会社,新潟県,新潟市西区,五十嵐３の町南３番３４号,,15,107,9502175,,,,,,,2025-01-15,1,,,,,ディーアンドエー,0
458,2120001271733,新規,0,2025-01-15,2025-01-15,ＥＮＴＨＥＯＳ株式会社,,株式会社,大阪府,大阪市東成区,玉津２丁目５－１４パシフィック玉津１１７号室,,27,115,5370023,,,,,,,2025-01-15,1,,,,,エンテオス,0
459,2120001271799,新規,0,2025-01-15,2025-01-15,繁星京都北白川店分割準備株式会社,,株式会社,大阪府,大阪市北区,天満２丁目１－１２,,27,127,5300043,,,,,,,2025-01-15,1,,,,,ハンジョウキョウトキタシラカワテンブンカツジュンビ,0
460,2120001271816,新規,0,2025-01-15,2025-01-15,ＤＡＩＫＯＫＵ　ＣＯＲＰＯＲＡＴＩＯＮ株式会社,,株式会社,大阪府,大阪市阿倍野区,阿倍野筋３丁目４番１４－２０１号,,27,119,5450052,,,,,,,2025-01-15,1,,,,,ダイコクコーポレーション,0
461,2120001271832,新規,0,2025-01-15,2025-01-15,株式会社レノディプラス,,株式会社,大阪府,大阪市東成区,中道４丁目１１番１５号,,27,115,5370025,,,,,,,2025-01-15,1,,,,,レノディプラス,0
462,2120001271840,新規,0,2025-01-15,2025-01-15,株式会社７Ｇ,,株式会社,大阪府,枚方市,片鉾本町２５番２７号,,27,210,5731157,,,,,,,2025-01-15,1,,,,,ナナジー,0
463,2120001271857,新規,0,2025-01-15,2025-01-15,ＮＩＥＸ株式会社,,株式会社,大阪府,大阪市西区,江戸堀３丁目８番１３号１１０１号室,,27,106,5500002,,,,,,,2025-01-15,1,,,,,ニエクス,0
464,2120001271865,新規,0,2025-01-15,2025-01-15,株式会社エターナルポース,,株式会社,大阪府,大阪市淀川区,西三国１丁目６－７グランツ新大阪９０７,,27,123,5320006,,,,,,,2025-01-15,1,,,,,エターナルポース,0
467,2120003028330,新規,0,2025-01-15,2025-01-15,陣華商事合同会社,,合同会社,大阪府,大阪市住吉区,沢之町１丁目５－２８谷岡１０１Ｄ,,27,120,5580031,,,,,,,2025-01-15,1,,,,,チンカショウジ,0
468,2120003028363,新規,0,2025-01-15,2025-01-15,合同会社ＳＴＥＥＮ,,合同会社,大阪府,枚方市,西禁野２丁目６番５号,,27,210,5731192,,,,,,,2025-01-15,1,,,,,スティーン,0
469,2120003028371,新規,0,2025-01-15,2025-01-15,Ｈａｍｍａｄ　Ｔｒａｄｉｎｇ合同会社,,合同会社,大阪府,大阪市旭区,中宮５丁目５番１０号,,27,117,5350003,,,,,,,2025-01-15,1,,,,,ハマドトレーディング,0
471,2120005024699,新規,0,2025-01-15,2025-01-15,医療法人山嶺会,,その他の設立登記法人,大阪府,大阪市城東区,今福西１丁目９番３号メディカルアベニュー城東４Ｆ,,27,118,5360004,,,,,,,2025-01-15,1,,,,,サンレイカイ,0
477,2120901050294,新規,0,2025-01-15,2025-01-15,大発株式会社,,株式会社,大阪府,豊中市,緑丘５丁目３番７の１号,,27,203,5600002,,,,,,,2025-01-15,1,,,,,ダイハツ,0
480,2130001078723,新規,0,2025-01-15,2025-01-15,株式会社ＫＭ,,株式会社,京都府,京都市下京区,貞安前之町６１４－５５－９０６,,26,106,6008031,,,,,,,2025-01-15,1,,,,,ケイエム,0
481,2130001078748,新規,0,2025-01-15,2025-01-15,株式会社一二三,,株式会社,京都府,福知山市,字天田夕陽が丘１５５番地の３,,26,201,6200948,,,,,,,2025-01-15,1,,,,,ヒフミ,0
489,2140001137032,新規,0,2025-01-15,2025-01-15,シリュウフーズ株式会社,,株式会社,兵庫県,姫路市,西今宿３丁目１６番８号,,28,201,6700061,,,,,,,2025-01-15,1,,,,,シリュウフーズ,0
492,2140003021523,新規,0,2025-01-15,2025-01-15,合同会社ＨＡＮＮＡ,,合同会社,兵庫県,神戸市垂水区,舞多聞西１丁目２２番４号,,28,108,6550051,,,,,,,2025-01-15,1,,,,,ハンナ,0
493,2140003021531,新規,0,2025-01-15,2025-01-15,ｓｏＵｎｉＱ合同会社,,合同会社,兵庫県,神戸市中央区,磯辺通１丁目１番１８号カサベラ国際プラザビル７０７号室,,28,110,6510084,,,,,,,2025-01-15,1,,,,,ソユニーク,0
501,2180001164923,新規,0,2025-01-15,2025-01-15,株式会社ＪＡＸＥＮＳＥ,,株式会社,愛知県,名古屋市中村区,名駅４丁目２４番５号第２森ビル４０１,,23,105,4500002,,,,,,,2025-01-15,1,,,,,ジャクセンス,0
502,2180001164980,新規,0,2025-01-15,2025-01-15,ブライト・ケア・リンクス株式会社,,株式会社,愛知県,名古屋市中川区,高畑５丁目１８７イラーヴァティＤ－１,,23,110,4540911,,,,,,,2025-01-15,1,,,,,ブライトケアリンクス,0
505,2180005020908,新規,0,2025-01-15,2025-01-15,医療法人こはる,,その他の設立登記法人,愛知県,名古屋市中区,大須４丁目１０－４０カジウラテックスビル５階,,23,106,4600011,,,,,,,2025-01-15,1,,,,,コハル,0
507,2180303006410,新規,0,2025-01-15,2025-01-15,合同会社りつりこ,,合同会社,愛知県,豊橋市,瓦町１０１番地,,23,201,4400825,,,,,,,2025-01-15,1,,,,,リツリコ,0
508,2180303006419,新規,0,2025-01-15,2025-01-15,合同会社キュリオス,,合同会社,愛知県,西尾市,細池町恵畠３４番地３,,23,213,4450047,,,,,,,2025-01-15,1,,,,,キュリオス,0
514,2190001031940,新規,0,2025-01-15,2025-01-15,株式会社誠創,,株式会社,三重県,桑名市,大字西別所字倉持１８４番地８,,24,205,5110851,,,,,,,2025-01-15,1,,,,,セイソウ,0
521,2240003007017,新規,0,2025-01-15,2025-01-15,ＳＯＲＡ合同会社,,合同会社,広島県,広島市西区,中広町２丁目２６番１３号,,34,104,7330012,,,,,,,2025-01-15,1,,,,,ソラ,0
524,2260001039803,新規,0,2025-01-15,2025-01-15,未来株式会社,,株式会社,岡山県,岡山市南区,妹尾１８９８番地３６,,33,104,7010205,,,,,,,2025-01-15,1,,,,,ミライ,0
525,2260001039811,新規,0,2025-01-15,2025-01-15,株式会社クラフト,,株式会社,岡山県,岡山市東区,瀬戸町下１９０番地,,33,103,7090856,,,,,,,2025-01-15,1,,,,,クラフト,0
528,2260003005027,新規,0,2025-01-15,2025-01-15,合同会社あさひ企画,,合同会社,岡山県,津山市,勝部７０５番地１１,,33,203,7080804,,,,,,,2025-01-15,1,,,,,アサヒキカク,0
545,2290001108621,新規,0,2025-01-15,2025-01-15,益芯科ＳＳＢ株式会社,,株式会社,福岡県,福岡市早良区,百道浜３丁目８番３３号４階４０１号室,,40,137,8140001,,,,,,,2025-01-15,1,,,,,エキシンカエスエスビー,0
568,2330001032767,新規,0,2025-01-15,2025-01-15,株式会社天空,,株式会社,熊本県,熊本市東区,神園２丁目１番１号,,43,102,8618044,,,,,,,2025-01-15,1,,,,,テンクウ,0
569,2340001027056,新規,0,2025-01-15,2025-01-15,株式会社わぜもぜ,,株式会社,鹿児島県,鹿児島市,伊敷台１丁目１番７号,,46,201,8900007,,,,,,,2025-01-15,1,,,,,ワゼモゼ,0
575,2360001034612,新規,0,2025-01-15,2025-01-15,株式会社ココチナ,,株式会社,沖縄県,那覇市,銘苅２丁目３番６号那覇市ＩＴ創造館４０１号室,,47,201,9000004,,,,,,,2025-01-15,1,,,,,ココチナ,0
576,2360001034661,新規,0,2025-01-15,2025-01-15,株式会社ゆんたく・はんたく,,株式会社,沖縄県,糸満市,字与座４１２番地の４１,,47,210,9010322,,,,,,,2025-01-15,1,,,,,ユンタクハンタク,0
577,2360003014595,新規,0,2025-01-15,2025-01-15,合同会社伊波笑店,,合同会社,沖縄県,中頭郡北谷町,字美浜１５番地６７でーじなとんとん,,47,326,9040115,,,,,,,2025-01-15,1,,,,,イハショウテン,0
578,2370001052084,新規,0,2025-01-15,2025-01-15,株式会社オフィス松澤,,株式会社,宮城県,仙台市青葉区,錦ケ丘２丁目７番地の１,,04,101,9893123,,,,,,,2025-01-15,1,,,,,オフィスマツザワ,0
579,2370001052142,新規,0,2025-01-15,2025-01-15,村上エンジニアリング株式会社,,株式会社,宮城県,大崎市,古川引田字堀込道上９６番地,,04,215,9896208,,,,,,,2025-01-15,1,,,,,ムラカミエンジニアリング,0
586,2390001017853,新規,0,2025-01-15,2025-01-15,株式会社グラノフ,,株式会社,山形県,鶴岡市,西目甲３１番地,,06,203,9997541,,,,,,,2025-01-15,1,,,,,グラノフ,0
587,2400001016911,新規,0,2025-01-15,2025-01-15,株式会社渋谷一級建築士事務所,,株式会社,岩手県,盛岡市,東松園１丁目７番６号,,03,201,0200106,,,,,,,2025-01-15,1,,,,,シブヤイッキュウケンチクシジムショ,0
597,2450005004437,新規,0,2025-01-15,2025-01-15,税理士法人まこと会計,,その他の設立登記法人,北海道,旭川市,十条通２２丁目１番地の７,,01,204,0788220,,,,,,,2025-01-15,1,,,,,マコトカイケイ,0
598,2480001012705,新規,0,2025-01-15,2025-01-15,株式会社ＭＥＤＡＫＡ,,株式会社,徳島県,徳島市,富田橋５丁目１番地１,,36,201,7700937,,,,,,,2025-01-15,1,,,,,メダカ,0
601,2500001026090,新規,0,2025-01-15,2025-01-15,株式会社ルナール・クレアシオン,,株式会社,愛媛県,松山市,本町２丁目２番地２,,38,201,7900811,,,,,,,2025-01-15,1,,,,,ルナールクレアシオン,0
614,3010001251299,新規,0,2025-01-15,2025-01-15,株式会社ＬＥＭＥＬＩＡ,,株式会社,東京都,千代田区,丸の内２丁目２番１号岸本ビルヂング６階,,13,101,1000005,,,,,,,2025-01-15,1,,,,,レメリア,0
615,3010001251398,新規,0,2025-01-15,2025-01-15,星音社株式会社,,株式会社,東京都,千代田区,神田佐久間町３丁目２８星野ビル４Ｆ１７号,,13,101,1010025,,,,,,,2025-01-15,1,,,,,セイオンシャ,0
620,3010003046020,新規,0,2025-01-15,2025-01-15,合同会社ＡｒｃａＳｐｅｓ　Ｊａｐａｎ　Ｍｅｄｉｃｅｒ,,合同会社,東京都,中央区,銀座７丁目１５番８号タウンハイツ銀座４０６,,13,102,1040061,,,,,,,2025-01-15,1,,,,,アルカスペスジャパンメディサー,0
621,3010003046053,新規,0,2025-01-15,2025-01-15,日光Ｐｌｕｓ２３合同会社４,,合同会社,東京都,千代田区,丸の内１丁目４番１号東京共同会計事務所内,,13,101,1000005,,,,,,,2025-01-15,1,,,,,ニッコウプラスニジュウサンヨン,0
622,3010003046061,新規,0,2025-01-15,2025-01-15,日光Ｐｌｕｓ２３合同会社１２,,合同会社,東京都,千代田区,丸の内１丁目４番１号東京共同会計事務所内,,13,101,1000005,,,,,,,2025-01-15,1,,,,,ニッコウプラスニジュウサンイチニ,0
632,3010401187358,新規,0,2025-01-15,2025-01-15,ＮＫＹ株式会社,,株式会社,東京都,港区,六本木４丁目８番７号六本木嶋田ビル５Ｆ,,13,103,1060032,,,,,,,2025-01-15,1,,,,,エヌケーワイ,0
633,3010401187449,新規,0,2025-01-15,2025-01-15,山辻リアルエステート株式会社,,株式会社,東京都,港区,六本木３丁目７－１－３５１２,,13,103,1060032,,,,,,,2025-01-15,1,,,,,ヤマツジリアルエステート,0
637,3010403034137,新規,0,2025-01-15,2025-01-15,中川キャピタル合同会社,,合同会社,東京都,港区,北青山１丁目３番１号アールキューブ青山３階,,13,103,1070061,,,,,,,2025-01-15,1,,,,,ナカガワキャピタル,0
647,3010801035703,新規,0,2025-01-15,2025-01-15,株式会社奥村工業,,株式会社,東京都,大田区,南雪谷１丁目１０番５－２０１号,,13,111,1450066,,,,,,,2025-01-15,1,,,,,オクムラコウギョウ,0
649,3010803005233,新規,0,2025-01-15,2025-01-15,つばめちゅわ合同会社,,合同会社,東京都,大田区,西蒲田７丁目５２番２号Ｗｅｌｌ－Ｂｌｅｎｄ蒲田１１０３,,13,111,1440051,,,,,,,2025-01-15,1,,,,,ツバメチュワ,0
650,3010803005241,新規,0,2025-01-15,2025-01-15,Ｒｕｒｉ　Ｎｅｔｗｏｒｋｓ合同会社,,合同会社,東京都,大田区,多摩川２丁目３０番１０－２０２号,,13,111,1460095,,,,,,,2025-01-15,1,,,,,ルリネットワークス,0
652,3010901056640,新規,0,2025-01-15,2025-01-15,株式会社ＧＯ　ＬＩＦＥ　Ｃｏｒｐｏｒａｔｉｏｎ,,株式会社,東京都,世田谷区,下馬６丁目４０番１号,,13,112,1540002,,,,,,,2025-01-15,1,,,,,ゴウライフコーポレイション,0
657,3011001166941,新規,0,2025-01-15,2025-01-15,株式会社ＷａｖｅＯｎｅ,,株式会社,東京都,渋谷区,渋谷２丁目１９－１５宮益坂ビルディング６０９,,13,113,1500002,,,,,,,2025-01-15,1,,,,,ウェイブワン,0
658,3011003020782,新規,0,2025-01-15,2025-01-15,合同会社０１０８,,合同会社,東京都,目黒区,上目黒５丁目２８番１１－２０４号,,13,110,1530051,,,,,,,2025-01-15,1,,,,,オトハ,0
665,3011101110130,新規,0,2025-01-15,2025-01-15,株式会社ＡＮＮＵＬＵＳ,,株式会社,東京都,新宿区,西新宿３丁目３番地１３号西新宿水間ビル２Ｆ,,13,104,1600023,,,,,,,2025-01-15,1,,,,,アニュラス,0
666,3011101110221,新規,0,2025-01-15,2025-01-15,株式会社木村技研,,株式会社,東京都,新宿区,西落合３丁目８番５－２０１号,,13,104,1610031,,,,,,,2025-01-15,1,,,,,キムラギケン,0
667,3011101110246,新規,0,2025-01-15,2025-01-15,Ｐｉｅ　Ｏ　ｎｅａｒ株式会社,,株式会社,東京都,新宿区,西新宿３丁目３番１３号西新宿水間ビル６階,,13,104,1600023,,,,,,,2025-01-15,1,,,,,パイオニア,0
668,3011101110254,新規,0,2025-01-15,2025-01-15,東麗株式会社,,株式会社,東京都,新宿区,中井２丁目１１－３クリスタル中井パートＩ－１０１,00137649,13,104,1610035,,,,,,,2025-01-15,1,,,,,トウレイ,0
669,3011103015393,新規,0,2025-01-15,2025-01-15,Ｒｏｌｅｓｔ合同会社,,合同会社,東京都,新宿区,西新宿６丁目５番１号新宿アイランドタワー２階,,13,104,1600023,,,,,,,2025-01-15,1,,,,,ローレスト,0
670,3011103015402,新規,0,2025-01-15,2025-01-15,莫林資源整合合同会社,,合同会社,東京都,新宿区,高田馬場３丁目１４番２号佐成屋ビル３階,,13,104,1690075,,,,,,,2025-01-15,1,,,,,バクリンシゲンセイゴウ,0
675,3011401026720,新規,0,2025-01-15,2025-01-15,株式会社プレイド,,株式会社,東京都,板橋区,赤塚３丁目２６番１２号テラスパウロニア１０２,,13,119,1750092,,,,,,,2025-01-15,1,,,,,プレイド,0
676,3011403004583,新規,0,2025-01-15,2025-01-15,Ｖｉｖａｅｓｔｈｅｔｉｃ合同会社,,合同会社,東京都,板橋区,仲宿６３番地７号ＯＥＯｆｆｉｃｅＢｌｄｇ．２１２号,,13,119,1730005,,,,,,,2025-01-15,1,,,,,ヴィブエスティク,0
681,3011705001873,新規,0,2025-01-15,2025-01-15,特定非営利活動法人ｋｉｎｄｎｅｓｓ,,その他の設立登記法人,東京都,江戸川区,東小松川１丁目１０番２６号,,13,123,1320033,,,,,,,2025-01-15,1,,,,,カインドネス,0
683,3011801045436,新規,0,2025-01-15,2025-01-15,株式会社葉成管理,,株式会社,東京都,葛飾区,東新小岩５丁目１４番１１号クロスロード東新小岩１Ｆ,,13,122,1240023,,,,,,,2025-01-15,1,,,,,ヨウセイカンリ,0
684,3011801045444,新規,0,2025-01-15,2025-01-15,株式会社白うめ商事,,株式会社,東京都,足立区,東綾瀬１丁目１０番６号,,13,121,1200004,,,,,,,2025-01-15,1,,,,,シラウメショウジ,0
685,3011801045452,新規,0,2025-01-15,2025-01-15,株式会社藝術東京,,株式会社,東京都,葛飾区,東金町２丁目８番２０号,,13,122,1250041,,,,,,,2025-01-15,1,,,,,ゲイジュツトウキョウ,0
686,3011803006642,新規,0,2025-01-15,2025-01-15,合同会社Ｂｅ　Ｓｍｉｌｅ,,合同会社,東京都,葛飾区,堀切１丁目１１番１７号,,13,122,1240006,,,,,,,2025-01-15,1,,,,,ビースマイル,0
687,3011803006650,新規,0,2025-01-15,2025-01-15,合同会社Ｂｒａｎｃｈ,,合同会社,東京都,足立区,西新井栄町１丁目１９番３９－２０１０,,13,121,1230843,,,,,,,2025-01-15,1,,,,,ブランチ,0
691,3012401042666,新規,0,2025-01-15,2025-01-15,株式会社ｄｅｓｉｇｎ　ｉｔ,,株式会社,東京都,三鷹市,井の頭５丁目４番１９号ＫＯＴＩ：２０５,,13,204,1810001,,,,,,,2025-01-15,1,,,,,デザインイット,0
695,3020001160953,新規,0,2025-01-15,2025-01-15,株式会社ＡＳＩＡＮ　ＳＴＡＲコンサルティング,,株式会社,神奈川県,横浜市西区,高島２丁目６番３２号横浜東口ウィスポートビル８Ｆ,,14,103,2200011,,,,,,,2025-01-15,1,,,,,エイシアンスターコンサルティング,0
702,3021001084192,新規,0,2025-01-15,2025-01-15,フラグメント株式会社,,株式会社,神奈川県,藤沢市,村岡東２丁目１１２番地の１,,14,205,2510012,,,,,,,2025-01-15,1,,,,,フラグメント,0
705,3021003015443,新規,0,2025-01-15,2025-01-15,ＩＳＯＢＩＺ合同会社,,合同会社,神奈川県,藤沢市,片瀬２丁目２―３３―８０３,,14,205,2510032,,,,,,,2025-01-15,1,,,,,アイエスオービズ,0
727,3040001136902,新規,0,2025-01-15,2025-01-15,宇徳ファシリティーサービス株式会社,,株式会社,千葉県,市原市,うるいど南５丁目２番地７,,12,219,2900170,,,,,,,2025-01-15,1,,,,,ウトクファシリティーサービス,0
728,3040001136976,新規,0,2025-01-15,2025-01-15,株式会社湧水ホールディングス,,株式会社,千葉県,船橋市,高根台１丁目１３番１－１０２号,,12,204,2740065,,,,,,,2025-01-15,1,,,,,ユウスイホールディングス,0
735,3040005022628,新規,0,2025-01-15,2025-01-15,医療法人社団ＧＭヘルス,,その他の設立登記法人,千葉県,印西市,中央北１丁目１番地ＡＰＯＬＬＯ・ＰＬＡＮＴ・ＭＡＬＬ２Ｆ,,12,231,2701350,,,,,,,2025-01-15,1,,,,,ジーエムヘルス,0
738,3050001056001,新規,0,2025-01-15,2025-01-15,株式会社ＫＡＨＥＩ,,株式会社,茨城県,稲敷郡河内町,下加納２６３７番地２,,08,447,3001406,,,,,,,2025-01-15,1,,,,,カヘイ,0
749,3090001019078,新規,0,2025-01-15,2025-01-15,株式会社Ｍ’ｓ．ＦＡＣＴＯＲＹ,,株式会社,山梨県,笛吹市,石和町唐柏７６１番地３アンリバー石和１号棟,,19,211,4060034,,,,,,,2025-01-15,1,,,,,エムズファクトリー,0
757,3110001038991,新規,0,2025-01-15,2025-01-15,株式会社てるふく商店,,株式会社,新潟県,新潟市西区,五十嵐３の町西７番１３号,,15,107,9502174,,,,,,,2025-01-15,1,,,,,テルフクショウテン,0
760,3110003005635,新規,0,2025-01-15,2025-01-15,合同会社ゴールドマイン,,合同会社,新潟県,新潟市中央区,鳥屋野１丁目３番９号,,15,103,9500951,,,,,,,2025-01-15,1,,,,,ゴールドマイン,0
776,3120001271823,新規,0,2025-01-15,2025-01-15,株式会社ＴＥＸＥＮＴ,,株式会社,大阪府,大阪市北区,梅田１丁目２番２号大阪駅前第２ビル１２－１２,,27,127,5300001,,,,,,,2025-01-15,1,,,,,テクセント,0
777,3120001271856,新規,0,2025-01-15,2025-01-15,株式会社Ｑｕｉｃｋｌｉｎｅ,,株式会社,大阪府,大阪市西成区,旭１丁目４番１－１００５号,,27,122,5570032,,,,,,,2025-01-15,1,,,,,クイックライン,0
778,3120001271897,新規,0,2025-01-15,2025-01-15,盛高株式会社,,株式会社,大阪府,大阪市旭区,高殿７丁目３番４号,,27,117,5350031,,,,,,,2025-01-15,1,,,,,モリタカ,0
779,3120001271922,新規,0,2025-01-15,2025-01-15,株式会社ベレリック,,株式会社,大阪府,大阪市浪速区,湊町１丁目２－１７－２２０３,,27,111,5560017,,,,,,,2025-01-15,1,,,,,ベレリック,0
783,3120003028263,新規,0,2025-01-15,2025-01-15,合同会社誠,,合同会社,大阪府,大阪市中央区,南船場３丁目２番２２号おおきに南船場ビル２０５,,27,128,5420081,,,,,,,2025-01-15,1,,,,,マコト,0
784,3120003028288,新規,0,2025-01-15,2025-01-15,出版英致合同会社,,合同会社,大阪府,大阪市東住吉区,湯里６丁目１３－７イトーピア山本４０２号室,,27,121,5460013,,,,,,,2025-01-15,1,,,,,シュッパンエイチ,0
785,3120003028370,新規,0,2025-01-15,2025-01-15,ＰＲＡＢＩＮ　ＧＲＯＵＰ合同会社,,合同会社,大阪府,大阪市淀川区,塚本２丁目１３番３－５０２号,,27,123,5320026,,,,,,,2025-01-15,1,,,,,プラビングループ,0
787,3120005024698,新規,0,2025-01-15,2025-01-15,税理士法人ＲＯＪ,,その他の設立登記法人,大阪府,大阪市北区,東天満１丁目２番１４号,,27,127,5300044,,,,,,,2025-01-15,1,,,,,アールオージェイ,0
802,3122001038772,新規,0,2025-01-15,2025-01-15,株式会社Ｍｉｏ,,株式会社,大阪府,東大阪市,友井４丁目１番１１－３０３号,,27,227,5770816,,,,,,,2025-01-15,1,,,,,ミオ,0
803,3122003003089,新規,0,2025-01-15,2025-01-15,京峰合同会社,,合同会社,大阪府,東大阪市,水走１丁目３－４５－２０７室,,27,227,5780921,,,,,,,2025-01-15,1,,,,,キョウミネ,0
811,3140001137064,新規,0,2025-01-15,2025-01-15,株式会社ＫＯＹＡ,,株式会社,兵庫県,加古川市,加古川町稲屋８０９番地３,,28,210,6750034,,,,,,,2025-01-15,1,,,,,コヤ,0
813,3140003021522,新規,0,2025-01-15,2025-01-15,しつかわ味工房合同会社,,合同会社,兵庫県,丹波篠山市,後川上７番地,,28,221,6692422,,,,,,,2025-01-15,1,,,,,シツカワカジコウボウ,0
816,3140005027344,新規,0,2025-01-15,2025-01-15,社会保険労務士法人兵庫労政,,その他の設立登記法人,兵庫県,神戸市垂水区,舞子坂３丁目１番４号,,28,108,6550044,,,,,,,2025-01-15,1,,,,,ヒョウゴロウセイ,0
822,3180001164939,新規,0,2025-01-15,2025-01-15,株式会社西山恭平,,株式会社,愛知県,瀬戸市,東菱野町１４番地の２,,23,204,4890942,,,,,,,2025-01-15,1,,,,,ニシヤマキョウヘイ,0
823,3180001164963,新規,0,2025-01-15,2025-01-15,株式会社渡久山,,株式会社,愛知県,名古屋市南区,薬師通１丁目２６番地の５,,23,112,4570041,,,,,,,2025-01-15,1,,,,,トクヤマ,0
824,3180001164971,新規,0,2025-01-15,2025-01-15,株式会社立松酒販,,株式会社,愛知県,名古屋市中村区,太閤５丁目１３番１５号,,23,105,4530801,,,,,,,2025-01-15,1,,,,,タテマツシュハン,0
826,3180003027846,新規,0,2025-01-15,2025-01-15,Ｒ＆Ａカンパニー合同会社,,合同会社,愛知県,北名古屋市,西之保光明田９０番地２,,23,234,4810033,,,,,,,2025-01-15,1,,,,,アールアンドエーカンパニー,0
827,3180005020915,新規,0,2025-01-15,2025-01-15,一般社団法人ＧＥＮＴＥＡＬ,,その他の設立登記法人,愛知県,名古屋市中村区,名駅３丁目４番１０号アルティメイト名駅１ｓｔ２階,,23,105,4500002,,,,,,,2025-01-15,1,,,,,ジェンティール,0
829,3180301039428,新規,0,2025-01-15,2025-01-15,ＨＡＮＤ株式会社,,株式会社,愛知県,豊橋市,飯村町字高山１９番地１５,,23,201,4400833,,,,,,,2025-01-15,1,,,,,ハンド,0
830,3210001020031,新規,0,2025-01-15,2025-01-15,チキンとたまご株式会社,,株式会社,福井県,あわら市,大溝３丁目３番１８号,,18,208,9190628,,,,,,,2025-01-15,1,,,,,チキントタマゴ,0
839,3250001020969,新規,0,2025-01-15,2025-01-15,株式会社とびうお,,株式会社,山口県,山口市,赤妻町３番２０号信和ビル２階,,35,203,7530067,,,,,,,2025-01-15,1,,,,,トビウオ,0
843,3250003003633,新規,0,2025-01-15,2025-01-15,合同会社グロースマッチ,,合同会社,山口県,光市,大字三井１８７番地２,,35,210,7430052,,,,,,,2025-01-15,1,,,,,グロースマッチ,0
863,3290001108521,新規,0,2025-01-15,2025-01-15,株式会社ＨｏｕｒＧｌａｓｓ,,株式会社,福岡県,福岡市博多区,中洲４丁目１番３６号ＧＥＳＴ２３ビル７Ｆ,,40,132,8100801,,,,,,,2025-01-15,1,,,,,アワーグラス,0
877,3290003016251,新規,0,2025-01-15,2025-01-15,合同会社ＲＳ,,合同会社,福岡県,福岡市東区,松田３丁目１７番７－７１１号ＪＧＭベリテュード箱崎公園セカンドステージ,,40,131,8120064,,,,,,,2025-01-15,1,,,,,,0
888,3290801031170,新規,0,2025-01-15,2025-01-15,古賀電気株式会社,,株式会社,福岡県,北九州市八幡西区,引野２丁目８番７号,,40,109,8060067,,,,,,,2025-01-15,1,,,,,コガデンキ,0
895,3330001032766,新規,0,2025-01-15,2025-01-15,株式会社乙女興産,,株式会社,熊本県,熊本市北区,弓削６丁目２１番１２号,,43,105,8618002,,,,,,,2025-01-15,1,,,,,オトメコウサン,0
897,3350001019357,新規,0,2025-01-15,2025-01-15,株式会社久保ふぁーむ,,株式会社,宮崎県,児湯郡木城町,大字椎木１００３番地３,,45,404,8840102,,,,,,,2025-01-15,1,,,,,クボファーム,0
898,3350001019365,新規,0,2025-01-15,2025-01-15,株式会社馬崎設備設計,00137648,株式会社,宮崎県,宮崎市,花ケ島町水町１８５８番地１坂本アパート１０５,,45,201,8800036,,,,,,,2025-01-15,1,,,,,バザキセツビセッケイ,0
905,3370001052083,新規,0,2025-01-15,2025-01-15,株式会社ｅｌｍ,,株式会社,宮城県,仙台市青葉区,錦町１丁目３番５号錦町ビル３Ｆ,,04,101,9800012,,,,,,,2025-01-15,1,,,,,エルム,0
906,3370001052125,新規,0,2025-01-15,2025-01-15,株式会社克．Ｆａｃｔｏｒｙ,,株式会社,宮城県,仙台市青葉区,高松１丁目１９番８号,,04,101,9810907,,,,,,,2025-01-15,1,,,,,ヨシファクトリー,0
924,3490003001968,新規,0,2025-01-15,2025-01-15,Ａｒｃ　Ｄｅｓｉｇｎ　Ｓｔｕｄｉｏ合同会社,,合同会社,高知県,高知市,高須１丁目１６番２－８０３号,,39,201,7818104,,,,,,,2025-01-15,1,,,,,アークデザインスタジオ,0
926,3500001026073,新規,0,2025-01-15,2025-01-15,株式会社田辺ゴム商会,,株式会社,愛媛県,四国中央市,川之江町８８２番地８３,,38,213,7990101,,,,,,,2025-01-15,1,,,,,タナベゴムショウカイ,0
940,4010001251232,新規,0,2025-01-15,2025-01-15,株式会社ＵＭ,,株式会社,東京都,千代田区,六番町１５番２号,,13,101,1020085,,,,,,,2025-01-15,1,,,,,ユーエム,0
941,4010001251249,新規,0,2025-01-15,2025-01-15,株式会社Ｍｉｇｈｔｙ　Ｍｅｌｌｏｗ,,株式会社,東京都,中央区,築地１丁目１２番１６－４０２号,,13,102,1040045,,,,,,,2025-01-15,1,,,,,マイティメロウ,0
942,4010001251380,新規,0,2025-01-15,2025-01-15,東耀株式会社,,株式会社,東京都,文京区,春日２丁目４番１０号,,13,105,1120003,,,,,,,2025-01-15,1,,,,,トウヨウ,0
943,4010001251406,新規,0,2025-01-15,2025-01-15,ＤＩＮＧＨＹ１３株式会社,,株式会社,東京都,千代田区,丸の内１丁目６番１号,,13,101,1000005,,,,,,,2025-01-15,1,,,,,ディンギージュウソウ,0
944,4010003046060,新規,0,2025-01-15,2025-01-15,日光Ｐｌｕｓ２３合同会社５,,合同会社,東京都,千代田区,丸の内１丁目４番１号東京共同会計事務所内,,13,101,1000005,,,,,,,2025-01-15,1,,,,,ニッコウプラスニジュウサンゴ,0
945,4010003046069,新規,0,2025-01-15,2025-01-15,合同会社ＮＮＲファンド第２号,,合同会社,東京都,千代田区,丸の内１丁目４番１号東京共同会計事務所内,,13,101,1000005,,,,,,,2025-01-15,1,,,,,エヌエヌアールファンドダイニゴウ,0
946,4010003046077,新規,0,2025-01-15,2025-01-15,合同会社ＨＭＺＥＨ６,,合同会社,東京都,中央区,銀座４丁目６番１号三幸アセットマネジメント株式会社内,,13,102,1040061,,,,,,,2025-01-15,1,,,,,エイチエムゼッチシックス,0
950,4010403034136,新規,0,2025-01-15,2025-01-15,合同会社Ｎｉｋｏ,,合同会社,東京都,港区,西麻布１丁目４番３６号－４０６号,,13,103,1060031,,,,,,,2025-01-15,1,,,,,ニコ,0
953,4010503007685,新規,0,2025-01-15,2025-01-15,合同会社ＹＤ,,合同会社,東京都,台東区,浅草６丁目３０番１号１階Ａ,,13,106,1110032,,,,,,,2025-01-15,1,,,,,ワイデー,0
954,4010601066575,新規,0,2025-01-15,2025-01-15,株式会社ＡｇｒｉｗｅＢ,,株式会社,東京都,江東区,豊洲３丁目２番２４号,,13,108,1350061,,,,,,,2025-01-15,1,,,,,アグリウェブ,0
956,4010801035743,新規,0,2025-01-15,2025-01-15,株式会社ＧＲＩＴ　ＰＲＯ,,株式会社,東京都,大田区,南久が原２丁目２４番６－３０１号,,13,111,1460084,,,,,,,2025-01-15,1,,,,,グリットプロ,0
958,4010803005240,新規,0,2025-01-15,2025-01-15,合同会社イワタフードアンドデリバリーサービス,,合同会社,東京都,大田区,南六郷３丁目１６番２０号,,13,111,1440045,,,,,,,2025-01-15,1,,,,,イワタフードアンドデリバリーサービス,0
963,4011001167063,新規,0,2025-01-15,2025-01-15,イヤペイジャパン株式会社,,株式会社,東京都,渋谷区,桜丘町２０番１号渋谷インフォスタワー２００１号室,,13,113,1500031,,,,,,,2025-01-15,1,,,,,イヤペイジャパン,0
964,4011001167088,新規,0,2025-01-15,2025-01-15,株式会社ウマノファクトリー,,株式会社,東京都,渋谷区,恵比寿西２丁目４番８号ウィンド恵比寿ビル８階,,13,113,1500021,,,,,,,2025-01-15,1,,,,,ウマノファクトリー,0
965,4011001167096,新規,0,2025-01-15,2025-01-15,株式会社クリエイティブシップス,,株式会社,東京都,渋谷区,神泉町１番１２号アールグレー３０１,,13,113,1500045,,,,,,,2025-01-15,1,,,,,クリエイティブシップス,0
968,4011101110170,新規,0,2025-01-15,2025-01-15,株式会社ＵＮＡＧＩ,,株式会社,東京都,新宿区,四谷坂町１０－１６カテリーナ市ヶ谷１０１,,13,104,1600002,,,,,,,2025-01-15,1,,,,,ウナギ,0
969,4011101110220,新規,0,2025-01-15,2025-01-15,ＴＳ＆Ｃｏ．グループホールディングス株式会社,,株式会社,東京都,新宿区,新宿１丁目３６番２号新宿第七葉山ビル３Ｆ,,13,104,1600022,,,,,,,2025-01-15,1,,,,,ティエスアンドコーグループホールディングス,0
970,4011101110229,新規,0,2025-01-15,2025-01-15,ＤＲＳ　Ａｕｔｏｍｏｔｉｖｅ　Ｓｏｌｕｔｉｏｎｓ　Ｊａｐａｎ株式会社,,株式会社,東京都,新宿区,西新宿１丁目４番１１号全研プラザビル,,13,104,1600023,,,,,,,2025-01-15,1,,,,,ディーアールエスオートモーティブソリューションズジャパン,0
971,4011101110237,新規,0,2025-01-15,2025-01-15,株式会社比嘉興業,,株式会社,東京都,新宿区,高田馬場３丁目８番５号安永ビル１Ｆ,,13,104,1690075,,,,,,,2025-01-15,1,,,,,ヒガコウギョウ,0
972,4011101110253,新規,0,2025-01-15,2025-01-15,Ｇｒｅａｔ　Ｇａｔｅ株式会社,,株式会社,東京都,新宿区,早稲田鶴巻町１１０番地アークアイズ３０１号室,,13,104,1620041,,,,,,,2025-01-15,1,,,,,グレートゲート,0
976,4011401026728,新規,0,2025-01-15,2025-01-15,株式会社２４４,,株式会社,東京都,板橋区,徳丸１丁目６１番１９号,,13,119,1750083,,,,,,,2025-01-15,1,,,,,ニーヨンヨン,0
977,4011401026736,新規,0,2025-01-15,2025-01-15,周易商事株式会社,,株式会社,東京都,板橋区,東新町２丁目５１－７東新マンション３０１号室,,13,119,1740074,,,,,,,2025-01-15,1,,,,,シュウエキショウジ,0
985,4011603004572,新規,0,2025-01-15,2025-01-15,合同会社ＮＹＬＯＮ,,合同会社,東京都,練馬区,旭丘２丁目３４番１１－１０２号,,13,120,1760005,,,,,,,2025-01-15,1,,,,,ナイロン,0
988,4011801045435,新規,0,2025-01-15,2025-01-15,株式会社山旬青果,,株式会社,東京都,足立区,梅田８丁目３番１３号,,13,121,1230851,,,,,,,2025-01-15,1,,,,,ヤマシュンセイカ,0
989,4011801045451,新規,0,2025-01-15,2025-01-15,Ｏｗｅｎ　Ｈｏｕｓｅ株式会社,,株式会社,東京都,足立区,西新井栄町１丁目１９番３９－２０１０号,,13,121,1230843,,,,,,,2025-01-15,1,,,,,オーウェンハウス,0
996,4012401042665,新規,0,2025-01-15,2025-01-15,株式会社Ｓｏｃｉａｌ　ｇｏｏｄ,,株式会社,東京都,調布市,布田４丁目７番地１６,,13,208,1820024,,,,,,,2025-01-15,1,,,,,ソーシャルグッド,0
998,4012701018638,新規,0,2025-01-15,2025-01-15,株式会社ＯＬＣ,,株式会社,東京都,東村山市,諏訪町１丁目６番地３諏訪町一丁目アパート５－４１０,,13,213,1890021,,,,,,,2025-01-15,1,,,,,オーエルシー,0
1003,4020001161018,新規,0,2025-01-15,2025-01-15,杉浦株式会社,,株式会社,神奈川県,横浜市神奈川区,松見町２丁目３８８番地３,,14,102,2210005,,,,,,,2025-01-15,1,,,,,スギウラ,0
1022,4030001164366,新規,0,2025-01-15,2025-01-15,株式会社デュナミス,,株式会社,埼玉県,戸田市,美女木東１丁目４番地の３２,,11,224,3350032,,,,,,,2025-01-15,1,,,,,デュナミス,0
1030,4040001136785,新規,0,2025-01-15,2025-01-15,株式会社Ｃ．ｃｏａｒｄｅ,,株式会社,千葉県,大網白里市,小西７５－１,,12,239,2993253,,,,,,,2025-01-15,1,,,,,シーコード,0
1031,4040001136975,新規,0,2025-01-15,2025-01-15,株式会社ＪｉＦグローバルビレッジ,,株式会社,千葉県,勝浦市,中倉１０番地,,12,218,2995204,,,,,,,2025-01-15,1,,,,,ジェイアイエフグローバルビレッジ,0
1032,4040001136991,新規,0,2025-01-15,2025-01-15,株式会社叶和エクステリア,,株式会社,千葉県,柏市,増尾７丁目１７番５号,,12,217,2770033,,,,,,,2025-01-15,1,,,,,キョウワエクステリア,0
1034,4040003026588,新規,0,2025-01-15,2025-01-15,合同会社福久,,合同会社,千葉県,船橋市,印内町６６０番地クレール西船１０５,,12,204,2730025,,,,,,,2025-01-15,1,,,,,フクヒサ,0
1035,4040003026596,新規,0,2025-01-15,2025-01-15,合同会社ＳＩＩＭＯ,,合同会社,千葉県,印西市,東の原３丁目１番地２７３,,12,231,2701336,,,,,,,2025-01-15,1,,,,,シーモ,0
1047,4080001026710,新規,0,2025-01-15,2025-01-15,株式会社ＦＸＳ,,株式会社,静岡県,藤枝市,田沼１丁目１２番１２号,,22,214,4260061,,,,,,,2025-01-15,1,,,,,エフエックスエス,0
1049,4080103003236,新規,0,2025-01-15,2025-01-15,合同会社対話の家,,合同会社,静岡県,伊東市,富戸１３１７番地の４７３３大室高原４－８５２,,22,208,4130231,,,,,,,2025-01-15,1,,,,,タイワノイエ,0
1050,4100001038174,新規,0,2025-01-15,2025-01-15,株式会社和來‐ＷＡＲＡＩ,,株式会社,長野県,大町市,平１９５５番地４３５,,20,212,3980001,,,,,,,2025-01-15,1,,,,,ワライ,0
1051,4100003007945,新規,0,2025-01-15,2025-01-15,スノーリー合同会社,,合同会社,長野県,上水内郡信濃町,大字野尻２７９７番地３３,,20,583,3891303,,,,,,,2025-01-15,1,,,,,スノーリー,0
1052,4100005013280,新規,0,2025-01-15,2025-01-15,特定非営利活動法人市民後見センターツインアルプス,,その他の設立登記法人,長野県,駒ヶ根市,東伊那３９３番地２,,20,210,3994321,,,,,,,2025-01-15,1,,,,,シミンコウケンセンターツインアルプス,0
1053,4110001038982,新規,0,2025-01-15,2025-01-15,株式会社Ｌｉｃｃａ,,株式会社,新潟県,上越市,大和５丁目２７番６号,,15,222,9430861,,,,,,,2025-01-15,1,,,,,リッカ,0
1055,4110003005634,新規,0,2025-01-15,2025-01-15,合同会社ＭＭＫ,,合同会社,新潟県,新潟市西区,寺尾西２丁目６番８号,,15,107,9502064,,,,,,,2025-01-15,1,,,,,エムエムケー,0
1067,4120001271681,新規,0,2025-01-15,2025-01-15,レネソーラエナジー株式会社,,株式会社,大阪府,大阪市阿倍野区,播磨町１丁目２３－２２－４０１,,27,119,5450022,,,,,,,2025-01-15,1,,,,,レネソーラエナジー,0
1068,4120001271756,新規,0,2025-01-15,2025-01-15,株式会社住吉通信システム,,株式会社,大阪府,大阪市住吉区,南住吉４丁目７番２６－４０２号,,27,120,5580041,,,,,,,2025-01-15,1,,,,,スミヨシツウシンシステム,0
1069,4120001271764,新規,0,2025-01-15,2025-01-15,株式会社ＧＲＡＮＤ　ＪＯＵＲ,,株式会社,大阪府,大阪市西区,江戸堀１丁目６番１７－３１０３号,,27,106,5500002,,,,,,,2025-01-15,1,,,,,グランジュール,0
1070,4120001271780,新規,0,2025-01-15,2025-01-15,株式会社Ｋ,,株式会社,大阪府,大阪市中央区,瓦屋町２丁目１８番１号,,27,128,5420066,,,,,,,2025-01-15,1,,,,,ケー,0
1071,4120001271797,新規,0,2025-01-15,2025-01-15,泰浦鋳造貿易株式会社,,株式会社,大阪府,大阪市中央区,内本町２丁目１番１９号,,27,128,5400026,,,,,,,2025-01-15,1,,,,,タイホチュウゾウボウエキ,0
1072,4120001271806,新規,0,2025-01-15,2025-01-15,株式会社ＣＯＤＥ‐Ｄ,,株式会社,大阪府,大阪市阿倍野区,阪南町１丁目５０番３号,,27,119,5450021,,,,,,,2025-01-15,1,,,,,コーデッド,0
1073,4120001271814,新規,0,2025-01-15,2025-01-15,全世麦株式会社,,株式会社,大阪府,大阪市北区,本庄東３丁目３番７号マンション淀２０１Ｂ,,27,127,5310074,,,,,,,2025-01-15,1,,,,,ゼンセイムギ,0
1074,4120001271822,新規,0,2025-01-15,2025-01-15,Ｌｉａｎｇａｎ　Ｖｉｓｉｏｎテクノロジー株式会社,,株式会社,大阪府,大阪市住吉区,万代６丁目８－１０,,27,120,5580055,,,,,,,2025-01-15,1,,,,,リアンガンビジョンテクノロジー,0
1075,4120001271863,新規,0,2025-01-15,2025-01-15,株式会社ベルカン,,株式会社,大阪府,大阪市中央区,神崎町５番５号,,27,128,5400016,,,,,,,2025-01-15,1,,,,,ベルカン,0
1076,4120001271896,新規,0,2025-01-15,2025-01-15,株式会社Ｂ‐ＪＩＮＳＥＩ,,株式会社,大阪府,大阪市北区,豊崎４丁目１１番２－２２０４号,,27,127,5310072,,,,,,,2025-01-15,1,,,,,ビージンセイ,0
1080,4120003028262,新規,0,2025-01-15,2025-01-15,合同会社ＯＮＥ,,合同会社,大阪府,大阪市北区,梅田１丁目２番２号大阪駅前第２ビル１２－１２,,27,127,5300001,,,,,,,2025-01-15,1,,,,,ワン,0
1081,4120003028312,新規,0,2025-01-15,2025-01-15,合同会社城北不動産,,合同会社,大阪府,大阪市北区,梅田１丁目１‐３大阪駅前第３ビル２９階１‐１‐１号室,,27,127,5300001,,,,,,,2025-01-15,1,,,,,ジョウホクフドウサン,0
1082,4120003028345,新規,0,2025-01-15,2025-01-15,合同会社アルゴ,,合同会社,大阪府,大阪市西淀川区,中島１丁目１１番７号,,27,113,5550041,,,,,,,2025-01-15,1,,,,,アルゴ,0
1083,4120003028361,新規,0,2025-01-15,2025-01-15,合同会社Ｆａｒｏ,,合同会社,大阪府,門真市,脇田町１４－７,,27,223,5710011,,,,,,,2025-01-15,1,,,,,ファロ,0
1085,4120101070901,新規,0,2025-01-15,2025-01-15,ＡＫＩ株式会社,,株式会社,大阪府,松原市,田井城４丁目８番２５号,,27,217,5800044,,,,,,,2025-01-15,1,,,,,エイケイアイ,0
1087,4120901050268,新規,0,2025-01-15,2025-01-15,株式会社Ｒｕｐｉｎａｓ,,株式会社,大阪府,吹田市,山田西３丁目５３－１,,27,205,5650824,,,,,,,2025-01-15,1,,,,,ルピナス,0
1088,4122001038788,新規,0,2025-01-15,2025-01-15,株式会社田中消火設備,,株式会社,大阪府,東大阪市,楠根３丁目１－３３,,27,227,5770006,,,,,,,2025-01-15,1,,,,,タナカショウカセツビ,0
1089,4122001038796,新規,0,2025-01-15,2025-01-15,ＹＴＫ株式会社,,株式会社,大阪府,東大阪市,横小路町５丁目７番４５号パルミッツォ瓢箪山４－５Ａ,,27,227,5798063,,,,,,,2025-01-15,1,,,,,ワイティーケー,0
1092,4130001078746,新規,0,2025-01-15,2025-01-15,株式会社タカギエデュケーション,,株式会社,京都府,木津川市,城山台１１丁目４－３,,26,214,6190218,,,,,,,2025-01-15,1,,,,,タカギエデュケーション,0
1094,4130003010137,新規,0,2025-01-15,2025-01-15,合同会社ＯＮＥ,,合同会社,京都府,京都市東山区,今熊野剣宮町３１番地３,,26,105,6050972,,,,,,,2025-01-15,1,,,,,ワン,0
1095,4130005017270,新規,0,2025-01-15,2025-01-15,司法書士法人上田事務所,,その他の設立登記法人,京都府,長岡京市,長岡２丁目２番９号,,26,209,6170823,,,,,,,2025-01-15,1,,,,,ウエダジムショ,0
1103,4140001136949,新規,0,2025-01-15,2025-01-15,ベルース株式会社,,株式会社,兵庫県,神戸市中央区,加納町４丁目２番１号７階,,28,110,6500001,,,,,,,2025-01-15,1,,,,,ベルース,0
1104,4140001137071,新規,0,2025-01-15,2025-01-15,株式会社プレシャスライフ,,株式会社,兵庫県,西宮市,日野町９番２４号,,28,204,6638022,,,,,,,2025-01-15,1,,,,,プレシャスライフ,0
1109,4140003021521,新規,0,2025-01-15,2025-01-15,合同会社ファズ,,合同会社,兵庫県,姫路市,網干区余子浜２１４番地３,,28,201,6711254,,,,,,,2025-01-15,1,,,,,ファズ,0
1110,4140005027343,新規,0,2025-01-15,2025-01-15,一般社団法人はりまのいばしょ,,その他の設立登記法人,兵庫県,たつの市,御津町黒崎７１８番地１,,28,229,6711301,,,,,,,2025-01-15,1,,,,,ハリマノイバショ,0
1117,4180001164921,新規,0,2025-01-15,2025-01-15,株式会社Ｍａｒｋｅｔｉｎｇ　Ｒｅｓｕｌｔ,,株式会社,愛知県,名古屋市中区,新栄２丁目４６番３５号（ポルタニグラ千種１０３号）,,23,106,4600007,,,,,,,2025-01-15,1,,,,,マーケティングリザルト,0
1118,4180001164954,新規,0,2025-01-15,2025-01-15,サンシード株式会社,,株式会社,愛知県,大府市,月見町５丁目１７９番地,,23,223,4740036,,,,,,,2025-01-15,1,,,,,サンシード,0
1121,4180005020889,新規,0,2025-01-15,2025-01-15,一般社団法人あんじゅ福祉会,,その他の設立登記法人,愛知県,名古屋市北区,新堀町２５番３号ＮＡＧＯＹＡｔｈｅＣＡＮＡＬ２０３号室,,23,103,4620801,,,,,,,2025-01-15,1,,,,,アンジュフクシカイ,0
1122,4180005020906,新規,0,2025-01-15,2025-01-15,一般社団法人プライムファンディング,,その他の設立登記法人,愛知県,名古屋市中区,栄１丁目１２番１０５号ＳＦＰビル４Ｆ,,23,106,4600008,,,,,,,2025-01-15,1,,,,,プライムファンディング,0
1123,4180005020914,新規,0,2025-01-15,2025-01-15,医療法人ティーケーメディカル,,その他の設立登記法人,愛知県,春日井市,八光町４丁目４５番地,,23,206,4860916,,,,,,,2025-01-15,1,,,,,ティーケーメディカル,0
1128,4180303006409,新規,0,2025-01-15,2025-01-15,合同会社ムサシサポート,,合同会社,愛知県,碧南市,宮町６丁目３００番地グリーンハイツ宮町Ａ棟１０１号,,23,209,4470835,,,,,,,2025-01-15,1,,,,,ムサシサポート,0
1130,4190001031922,新規,0,2025-01-15,2025-01-15,中田エンジニアリング株式会社,,株式会社,三重県,松阪市,平成町９２番地３,,24,204,5150824,,,,,,,2025-01-15,1,,,,,ナカタエンジニアリング,0
1145,4230001020706,新規,0,2025-01-15,2025-01-15,株式会社松建工,,株式会社,富山県,射水市,戸破７７９番地１,,16,211,9390351,,,,,,,2025-01-15,1,,,,,マツケンコウ,0
1146,4240001064388,新規,0,2025-01-15,2025-01-15,株式会社ＳＫＤ,,株式会社,広島県,広島市中区,宝町５番１０号,,34,101,7300044,,,,,,,2025-01-15,1,,,,,エスケーディー,0
1155,4260005011434,新規,0,2025-01-15,2025-01-15,一般社団法人コンクリートディレクター協会,,その他の設立登記法人,岡山県,岡山市中区,西川原５２番地８,,33,102,7038258,,,,,,,2025-01-15,1,,,,,コンクリートディレクターキョウカイ,0
1171,4290001108603,新規,0,2025-01-15,2025-01-15,株式会社今津マリンカフェ＆ドッグパーク,,株式会社,福岡県,福岡市西区,今津４７９８番地１５３,,40,135,8190165,,,,,,,2025-01-15,1,,,,,イマヅマリンカフェアンドドッグパーク,0
1172,4290001108628,新規,0,2025-01-15,2025-01-15,株式会社ＳＵＮ,,株式会社,福岡県,福岡市早良区,百道２丁目８－２１フォーラム藤崎３０９,,40,137,8140006,,,,,,,2025-01-15,1,,,,,,0
1204,4330003010711,新規,0,2025-01-15,2025-01-15,合同会社徳健,,合同会社,熊本県,熊本市中央区,米屋町２丁目１７番地７０２号室,,43,101,8600029,,,,,,,2025-01-15,1,,,,,トクケン,0
1210,4370001052140,新規,0,2025-01-15,2025-01-15,株式会社ＹＯＫＯＹＡＭＡ,,株式会社,宮城県,仙台市宮城野区,新田東１丁目１０番地の１ＬＭ小鶴新田センターパーク１３０１,,04,102,9830039,,,,,,,2025-01-15,1,,,,,ヨコヤマ,0
1227,4420001018978,新規,0,2025-01-15,2025-01-15,株式会社至誠,,株式会社,青森県,三戸郡五戸町,大字倉石又重字太田５番地７,,02,442,0391703,,,,,,,2025-01-15,1,,,,,シセイ,0
1234,4430001093467,新規,0,2025-01-15,2025-01-15,株式会社ＭＵＶホールディングス,,株式会社,北海道,札幌市中央区,南四条西１０丁目１００３番地４,,01,101,0640804,,,,,,,2025-01-15,1,,,,,エムユウブイホールディングス,0
1240,4480005007055,新規,0,2025-01-15,2025-01-15,ＦＷＡ協同組合,,その他の設立登記法人,徳島県,徳島市,銀座８番地,,36,201,7700916,,,,,,,2025-01-15,1,,,,,エフダブルエー,0
1241,4490003001967,新規,0,2025-01-15,2025-01-15,合同会社優,,合同会社,高知県,高知市,上町４丁目８番２４号アルファ上町１０７,,39,201,7800901,,,,,,,2025-01-15,1,,,,,ユウ,0
1244,4500001026080,新規,0,2025-01-15,2025-01-15,株式会社伊藤燃料店,,株式会社,愛媛県,新居浜市,喜光地町１丁目７番３５号,,38,205,7920826,,,,,,,2025-01-15,1,,,,,イトウネンリョウテン,0
1246,4500003003409,新規,0,2025-01-15,2025-01-15,合同会社一屋工務店,,合同会社,愛媛県,宇和島市,寄松甲１２１２番地,,38,203,7980084,,,,,,,2025-01-15,1,,,,,イチヤコウムテン,0
1258,5010001251421,新規,0,2025-01-15,2025-01-15,恵コンサルティング株式会社,,株式会社,東京都,中央区,湊１丁目１２―１０,,13,102,1040043,,,,,,,2025-01-15,1,,,,,ケイコンサルティング,0
1262,5010003046068,新規,0,2025-01-15,2025-01-15,日光Ｐｌｕｓ２３合同会社１３,,合同会社,東京都,千代田区,丸の内１丁目４番１号東京共同会計事務所内,,13,101,1000005,,,,,,,2025-01-15,1,,,,,ニッコウプラスニジュウサンイチサン,0
1263,5010003046076,新規,0,2025-01-15,2025-01-15,合同会社ＨＭＺＥＨ５,,合同会社,東京都,中央区,銀座４丁目６番１号三幸アセットマネジメント株式会社内,,13,102,1040061,,,,,,,2025-01-15,1,,,,,エイチエムゼッチファイブ,0
1264,5010003046092,新規,0,2025-01-15,2025-01-15,合同会社三波舎,,合同会社,東京都,中央区,日本橋室町１丁目１１番１２号日本橋水野ビル７階,,13,102,1030022,,,,,,,2025-01-15,1,,,,,サンパシャ,0
1268,5010005039350,新規,0,2025-01-15,2025-01-15,一般社団法人ひまわり相続支援協会,,その他の設立登記法人,東京都,中央区,銀座７丁目１３番２０号銀座ＴＨビル９階,,13,102,1040061,,,,,,,2025-01-15,1,,,,,ヒマワリソウゾクシエンキョウカイ,0
1269,5010005039400,新規,0,2025-01-15,2025-01-15,燕京外国法事務弁護士法人,,その他の設立登記法人,東京都,千代田区,富士見１丁目２番１９－８０１号,,13,101,1020071,,,,,,,2025-01-15,1,,,,,エンキョウ,0
1270,5010005039409,新規,0,2025-01-15,2025-01-15,ＳＡＴＯ　ＬＷ税理士法人,,その他の設立登記法人,東京都,千代田区,永田町２丁目１７番１７号アイオス永田町４０１,,13,101,1000014,,,,,,,2025-01-15,1,,,,,サトウエルダブリュー,0
1274,5010401187372,新規,0,2025-01-15,2025-01-15,株式会社贇,,株式会社,東京都,港区,西麻布１丁目６番５号ツインピークＡ３０１,,13,103,1060031,,,,,,,2025-01-15,1,,,,,ウィン,0
1275,5010401187397,新規,0,2025-01-15,2025-01-15,株式会社Ｈｏｍｅｐｏｒｔ　ｔｈｅ　ｌｉｆｅ,,株式会社,東京都,港区,芝大門１丁目１－２３ＡｘｏｎＨＡＭＡＭＡＴＳＵＣＨＯ２０１,,13,103,1050012,,,,,,,2025-01-15,1,,,,,ホームポートザライフ,0
1276,5010401187471,新規,0,2025-01-15,2025-01-15,株式会社ＤＮＥＬ　ＡＴＥＬＩＥＲ,,株式会社,東京都,港区,港南３丁目６番２１－３１１０号,,13,103,1080075,,,,,,,2025-01-15,1,,,,,ダニエルアトリエ,0
1278,5010503007701,新規,0,2025-01-15,2025-01-15,ＦＡＳＨＩＯＮ　ＭＡＧＩＣ　ＩＮＶＥＳＴＭＥＮＴ合同会社,,合同会社,東京都,台東区,上野６丁目１０番７号アメ横プラザＡ棟１９号,,13,106,1100005,,,,,,,2025-01-15,1,,,,,ファッションマジックインベストメント,0
1282,5010701047061,新規,0,2025-01-15,2025-01-15,株式会社スロリーチ,,株式会社,東京都,品川区,西品川３丁目９番１２号タイセイフラット２０３,,13,109,1410033,,,,,,,2025-01-15,1,,,,,スロリーチ,0
1285,5010903009594,新規,0,2025-01-15,2025-01-15,合同会社１０ｓｉｚｅ,,合同会社,東京都,世田谷区,梅丘１丁目５２－１１,,13,112,1540022,,,,,,,2025-01-15,1,,,,,テンサイズ,0
1289,5011001166915,新規,0,2025-01-15,2025-01-15,株式会社ＲＩＧＨＴ　ＨＯＵＳＥ,,株式会社,東京都,渋谷区,恵比寿西２丁目４番８号ウィンド恵比寿ビル８Ｆ,,13,113,1500021,,,,,,,2025-01-15,1,,,,,ライトハウス,0
1290,5011001166931,新規,0,2025-01-15,2025-01-15,ロワジール株式会社,,株式会社,東京都,渋谷区,渋谷２丁目１９－１５宮益坂ビルディング６０９,,13,113,1500002,,,,,,,2025-01-15,1,,,,,ロワジール,0
1291,5011001166956,新規,0,2025-01-15,2025-01-15,株式会社Ｎｕｌｏｇｉｃ,,株式会社,東京都,目黒区,下目黒１丁目１番１４号コノトラビル７Ｆ,,13,110,1530064,,,,,,,2025-01-15,1,,,,,ニューロジック,0
1292,5011001167070,新規,0,2025-01-15,2025-01-15,ＧＥＮ‐Ｚ株式会社,,株式会社,東京都,渋谷区,代々木１丁目５８番１１号,,13,113,1510053,,,,,,,2025-01-15,1,,,,,ジェンジー,0
1293,5011001167137,新規,0,2025-01-15,2025-01-15,株式会社ＣＲＥＭＥ　Ｊｕｎ　Ａｉｚａｋｉ　ＪＡＰＡＮ,,株式会社,東京都,渋谷区,神宮前５丁目３９番８号スカーラ神宮前３０５,,13,113,1500001,,,,,,,2025-01-15,1,,,,,クレムジュンアイザキジャパン,0
1295,5011101110178,新規,0,2025-01-15,2025-01-15,利平株式会社,,株式会社,東京都,新宿区,高田馬場４丁目１０番１３号,,13,104,1690075,,,,,,,2025-01-15,1,,,,,リヘイ,0
1296,5011101110236,新規,0,2025-01-15,2025-01-15,アイシードプラス株式会社,,株式会社,東京都,新宿区,須賀町３番地,,13,104,1600018,,,,,,,2025-01-15,1,,,,,アイシードプラス,0
1297,5011101110244,新規,0,2025-01-15,2025-01-15,株式会社トトノイ,,株式会社,東京都,新宿区,新宿１丁目２４－７ルネ御苑プラザ７０４,,13,104,1600022,,,,,,,2025-01-15,1,,,,,トトノイ,0
1302,5011301030283,新規,0,2025-01-15,2025-01-15,株式会社ＦＩＲＳＴ　ＳＴＩＣＫ,,株式会社,東京都,杉並区,松庵２丁目４番２２－２０１号セザール杉並松庵,,13,115,1670054,,,,,,,2025-01-15,1,,,,,ファーストスティック,0
1305,5011501031569,新規,0,2025-01-15,2025-01-15,株式会社ＳＨＩＢＡＯ,,株式会社,東京都,荒川区,南千住４丁目９リバーハープタワー南千住２号棟３４０６号室,,13,118,1160003,,,,,,,2025-01-15,1,,,,,シバオ,0
1307,5011801045442,新規,0,2025-01-15,2025-01-15,株式会社朋キャピタル,,株式会社,東京都,足立区,西竹の塚１丁目１６番１２号,,13,121,1210822,,,,,,,2025-01-15,1,,,,,トモキャピタル,0
1308,5011801045459,新規,0,2025-01-15,2025-01-15,株式会社三共住宅,,株式会社,東京都,足立区,千住龍田町５番２－３０２号,,13,121,1200042,,,,,,,2025-01-15,1,,,,,サンキョウジュウタク,0
1309,5012303002097,新規,0,2025-01-15,2025-01-15,合同会社ＳＤＫ,,合同会社,東京都,町田市,鶴間３丁目３番地７ドレッセタワー南町田グランベリーパーク３３０４,,13,209,1940004,,,,,,,2025-01-15,1,,,,,エスディーケー,0
1313,5012401042664,新規,0,2025-01-15,2025-01-15,株式会社スマート,,株式会社,東京都,武蔵野市,吉祥寺本町１丁目２０番１号吉祥寺永谷シティプラザ１００２,,13,203,1800004,,,,,,,2025-01-15,1,,,,,スマート,0
1314,5012401042672,新規,0,2025-01-15,2025-01-15,株式会社すけっちはうす,,株式会社,東京都,武蔵野市,吉祥寺南町１丁目１７番９号２Ｆ,,13,203,1800003,,,,,,,2025-01-15,1,,,,,スケッチハウス,0
1332,5030001164373,新規,0,2025-01-15,2025-01-15,株式会社パスチア,,株式会社,埼玉県,川越市,新富町１丁目６番４号ルネスボローニア１Ｆ,,11,201,3500043,,,,,,,2025-01-15,1,,,,,パスチア,0
1333,5030001164381,新規,0,2025-01-15,2025-01-15,株式会社Ｒｉｙｕ,,株式会社,埼玉県,川口市,栄町３丁目１３番１－５０５号,,11,203,3320017,,,,,,,2025-01-15,1,,,,,リユ,0
1339,5030003025838,新規,0,2025-01-15,2025-01-15,合同会社ＰＬＡＮＥＯＮ,,合同会社,埼玉県,三郷市,中央４丁目９番９号,,11,237,3410038,,,,,,,2025-01-15,1,,,,,プラネオン,0
1345,5040001136974,新規,0,2025-01-15,2025-01-15,株式会社レオン,,株式会社,千葉県,東金市,上谷３４３９－５７,,12,213,2830046,,,,,,,2025-01-15,1,,,,,レオン,0
1346,5040001136982,新規,0,2025-01-15,2025-01-15,株式会社ａｒｉｍｏ,,株式会社,千葉県,市原市,五井４７３５番地８,,12,219,2900056,,,,,,,2025-01-15,1,,,,,アリモ,0
1347,5040001136990,新規,0,2025-01-15,2025-01-15,宮市商事株式会社,,株式会社,千葉県,千葉市花見川区,千種町１６７番地３,,12,102,2620012,,,,,,,2025-01-15,1,,,,,ミヤイチショウジ,0
1351,5040005022618,新規,0,2025-01-15,2025-01-15,一般社団法人ルアナビューティアカデミー,,その他の設立登記法人,千葉県,柏市,旭町１丁目３－３,,12,217,2770852,,,,,,,2025-01-15,1,,,,,ルアナビューティアカデミー,0
1357,5070003005753,新規,0,2025-01-15,2025-01-15,合同会社Ｂｕｄｄｙ,,合同会社,群馬県,太田市,東本町５２番地１,,10,205,3730026,,,,,,,2025-01-15,1,,,,,バディ,0
1358,5080101025248,新規,0,2025-01-15,2025-01-15,株式会社まちづくり公社おやま,,株式会社,静岡県,駿東郡小山町,藤曲５７番地の２,,22,344,4101304,,,,,,,2025-01-15,1,,,,,マチヅクリコウシャオヤマ,0
1360,5080103003235,新規,0,2025-01-15,2025-01-15,Ｌｏｄｅｓｔｏｎｅ合同会社,,合同会社,静岡県,沼津市,足高２９２番地の６９,,22,203,4100001,,,,,,,2025-01-15,1,,,,,ロードストーン,0
1382,5120001271565,新規,0,2025-01-15,2025-01-15,ＳｕｎＢｌｕｅ株式会社,,株式会社,大阪府,大阪市西成区,鶴見橋１丁目１０番１４号１０７室,,27,122,5570031,,,,,,,2025-01-15,1,,,,,サンブルー,0
1383,5120001271615,新規,0,2025-01-15,2025-01-15,株式会社Ｂｕｙ　Ｓｅｌｌ　Ｇａｍｅｓ,,株式会社,大阪府,大阪市鶴見区,横堤３丁目１０番３７号ロイヤルハイツ横堤駅２０２号室,,27,124,5380052,,,,,,,2025-01-15,1,,,,,バイセルゲームス,0
1384,5120001271755,新規,0,2025-01-15,2025-01-15,徳益株式会社,00137642,株式会社,大阪府,大阪市城東区,鴫野西５丁目２０番２５号ユーミーハイツ鴫野４Ｂ号室,,27,118,5360014,,,,,,,2025-01-15,1,,,,,トクエキ,0
1385,5120001271788,新規,0,2025-01-15,2025-01-15,株式会社３Ｄエキスパート,,株式会社,大阪府,大阪市北区,小松原町２番４号４Ｆテラプロジェクト内,,27,127,5300018,,,,,,,2025-01-15,1,,,,,スリーディーエキスパート,0
1386,5120001271805,新規,0,2025-01-15,2025-01-15,株式会社さくらい不動産,,株式会社,大阪府,枚方市,南中振１丁目３８番２７号,,27,210,5730094,,,,,,,2025-01-15,1,,,,,サクライフドウサン,0
1387,5120001271846,新規,0,2025-01-15,2025-01-15,株式会社ドエル不動産,,株式会社,大阪府,大阪市住吉区,長居東４丁目１２－４－１階,,27,120,5580004,,,,,,,2025-01-15,1,,,,,ドエルフドウサン,0
1388,5120001271862,新規,0,2025-01-15,2025-01-15,株式会社飛鳥建装,,株式会社,大阪府,大阪市阿倍野区,北畠１丁目２３番２４号,,27,119,5450035,,,,,,,2025-01-15,1,,,,,アスカケンソウ,0
1389,5120001271879,新規,0,2025-01-15,2025-01-15,株式会社卓真通信,,株式会社,大阪府,大阪市東淀川区,下新庄５丁目６番３３号１階,,27,114,5330021,,,,,,,2025-01-15,1,,,,,タクマツウシン,0
1390,5120001271887,新規,0,2025-01-15,2025-01-15,株式会社飛鳥,,株式会社,大阪府,大阪市西成区,花園北２丁目７番１１－２０１号,,27,122,5570016,,,,,,,2025-01-15,1,,,,,アスカ,0
1391,5120001271912,新規,0,2025-01-15,2025-01-15,株式会社ＭｕｓｉｃＳｅｅｄ,,株式会社,大阪府,大阪市西区,北堀江１丁目２番１７号四ツ橋川崎ビル８Ｆ,,27,106,5500014,,,,,,,2025-01-15,1,,,,,ミュージックシード,0
1394,5120003028352,新規,0,2025-01-15,2025-01-15,合同会社遵,,合同会社,大阪府,大阪市福島区,吉野１丁目６番１６号,,27,103,5530006,,,,,,,2025-01-15,1,,,,,シュン,0
1396,5120005024713,新規,0,2025-01-15,2025-01-15,一般社団法人国際コンテンツ開発協会,,その他の設立登記法人,大阪府,大阪市天王寺区,上之宮町６－３,,27,109,5430037,,,,,,,2025-01-15,1,,,,,コクサイコンテンツカイハツキョウカイ,0
1401,5120901050291,新規,0,2025-01-15,2025-01-15,株式会社Ｔ　ｃｅ’ｓ,,株式会社,大阪府,高槻市,芥川町２丁目１１番７号,,27,207,5691123,,,,,,,2025-01-15,1,,,,,ティーシズ,0
1402,5122001038787,新規,0,2025-01-15,2025-01-15,株式会社ブルーアシスト,,株式会社,大阪府,東大阪市,荒本北３丁目１番２０号,,27,227,5770011,,,,,,,2025-01-15,1,,,,,ブルーアシスト,0
1411,5130001078712,新規,0,2025-01-15,2025-01-15,株式会社雪風,,株式会社,京都府,京都市伏見区,新中町７１５ペルル伏見桃山５０２,,26,109,6128215,,,,,,,2025-01-15,1,,,,,ユキカゼ,0
1412,5130001078745,新規,0,2025-01-15,2025-01-15,株式会社藤設備,,株式会社,京都府,城陽市,平川野原２２番地の１中村住宅１号,,26,207,6100101,,,,,,,2025-01-15,1,,,,,フジセツビ,0
1413,5130001078761,新規,0,2025-01-15,2025-01-15,永昇貿易株式会社,,株式会社,京都府,京都市右京区,鳴滝音戸山町６番地の１３,,26,108,6168255,,,,,,,2025-01-15,1,,,,,エイショウボウエキ,0
1420,5140001137038,新規,0,2025-01-15,2025-01-15,ＨＫＴ株式会社,,株式会社,兵庫県,神戸市中央区,中山手通３丁目２番１－１６０２号,,28,110,6500004,,,,,,,2025-01-15,1,,,,,エイチケイティー,0
1424,5140003021520,新規,0,2025-01-15,2025-01-15,合同会社Ａｑｕａ　Ｒｅｐａｉｒ　Ｓｅｒｖｉｃｅ,,合同会社,兵庫県,神戸市灘区,新在家南町３丁目６番１０－１号,,28,102,6570864,,,,,,,2025-01-15,1,,,,,アクアリペアサービス,0
1425,5140003021529,新規,0,2025-01-15,2025-01-15,迅速物販合同会社,,合同会社,兵庫県,神戸市西区,宮下１丁目１１番３号,,28,111,6512146,,,,,,,2025-01-15,1,,,,,ジンソクブッパン,0
1426,5150001027816,新規,0,2025-01-15,2025-01-15,株式会社住所は地球プロジェクト,,株式会社,奈良県,高市郡明日香村,大字越１１番地の４,,29,402,6340138,,,,,,,2025-01-15,1,,,,,ジュウショハチキュウプロジェクト,0
1439,5180005020905,新規,0,2025-01-15,2025-01-15,一般社団法人プライムインベストメント,,その他の設立登記法人,愛知県,名古屋市中区,栄１丁目１２番１０５号ＳＦＰビル４Ｆ,,23,106,4600008,,,,,,,2025-01-15,1,,,,,プライムインベストメント,0
1440,5180005020913,新規,0,2025-01-15,2025-01-15,一般社団法人ＯＮＥ　ＰＩＬＡＴＥＳ協会,,その他の設立登記法人,愛知県,名古屋市中区,丸の内２丁目２番１０号レジディア丸の内１階,,23,106,4600002,,,,,,,2025-01-15,1,,,,,ワンピラティスキョウカイ,0
1441,5180301039434,新規,0,2025-01-15,2025-01-15,株式会社Ｌａｕｇｈ　Ｌｉｆｅ,,株式会社,愛知県,豊橋市,松葉町１丁目２７番地１,,23,201,4400897,,,,,,,2025-01-15,1,,,,,ラフライフ,0
1442,5180303006416,新規,0,2025-01-15,2025-01-15,ＯＺＢＯＮＤＳ合同会社,,合同会社,愛知県,刈谷市,下重原町５丁目３番地,,23,210,4480024,,,,,,,2025-01-15,1,,,,,オズボンズ,0
1443,5190001031946,新規,0,2025-01-15,2025-01-15,Ｂ．Ｎ．Ｋ株式会社,,株式会社,三重県,桑名市,長島町松ケ島１４７番地アシューレＡ‐１０１,,24,205,5111122,,,,,,,2025-01-15,1,,,,,,0
1455,5260001039800,新規,0,2025-01-15,2025-01-15,株式会社ヨシモトポンプ,,株式会社,岡山県,倉敷市,水島東常盤町２番１０号,,33,202,7128058,,,,,,,2025-01-15,1,,,,,ヨシモトポンプ,0
1484,5290001108560,新規,0,2025-01-15,2025-01-15,株式会社アシスト,,株式会社,福岡県,福岡市中央区,春吉１丁目５番１－２０５号,,40,133,8100003,,,,,,,2025-01-15,1,,,,,アシスト,0
1508,5290801031169,新規,0,2025-01-15,2025-01-15,タカマツ機械株式会社,,株式会社,福岡県,北九州市小倉南区,田原新町１丁目１０番７号,,40,107,8000226,,,,,,,2025-01-15,1,,,,,タカマツキカイ,0
1515,5320003004556,新規,0,2025-01-15,2025-01-15,合同会社信和商事,,合同会社,大分県,大分市,大字小池原１７３４番地５,,44,201,8700147,,,,,,,2025-01-15,1,,,,,シンワショウジ,0
1517,5330003010727,新規,0,2025-01-15,2025-01-15,合同会社フードラボマーケティング,,合同会社,熊本県,合志市,豊岡２０５４－５０,,43,216,8611115,,,,,,,2025-01-15,1,,,,,フードラボマーケティング,0
1523,5360003014592,新規,0,2025-01-15,2025-01-15,合同会社ａｖａｈｏｕｓｅ,,合同会社,沖縄県,宮古島市,伊良部字前里添１２９－１,,47,214,9060501,,,,,,,2025-01-15,1,,,,,アバハウス,0
1524,5370001052098,新規,0,2025-01-15,2025-01-15,株式会社ｉｓａｒｏ,,株式会社,宮城県,名取市,相互台４丁目７番地の１,,04,207,9811246,,,,,,,2025-01-15,1,,,,,イサロ,0
1525,5370001052123,新規,0,2025-01-15,2025-01-15,株式会社Ｕ＆Ｍｅａｌ,,株式会社,宮城県,仙台市青葉区,荒巻神明町２５番３０‐１０２号,,04,101,9810965,,,,,,,2025-01-15,1,,,,,ユーアンドミール,0
1526,5370001052131,新規,0,2025-01-15,2025-01-15,株式会社伊澤家,,株式会社,宮城県,仙台市青葉区,上杉５丁目８番１１－２号,,04,101,9800011,,,,,,,2025-01-15,1,,,,,イサワケ,0
1527,5370003006886,新規,0,2025-01-15,2025-01-15,合同会社ｉｆ,,合同会社,宮城県,宮城郡七ヶ浜町,菖蒲田浜字浜伊場１０８－１０３号室,,04,404,9850811,,,,,,,2025-01-15,1,,,,,イフ,0
1533,5380005012907,新規,0,2025-01-15,2025-01-15,一般社団法人ツナガルナミキ,,その他の設立登記法人,福島県,郡山市,並木３丁目６－１１－１０１号室,,07,203,9638026,,,,,,,2025-01-15,1,,,,,ツナガルナミキ,0
1537,5400003003376,新規,0,2025-01-15,2025-01-15,合同会社にっぽんハブ,,合同会社,岩手県,盛岡市,東山２丁目１７番１５号,,03,201,0200813,,,,,,,2025-01-15,1,,,,,ニッポンハブ,0
1541,5410003004035,新規,0,2025-01-15,2025-01-15,ＣＬＡＬＩＳ合同会社,,合同会社,秋田県,南秋田郡八郎潟町,字一日市８８番地２,,05,363,0181622,,,,,,,2025-01-15,1,,,,,クラリス,0
1542,5420001018977,新規,0,2025-01-15,2025-01-15,株式会社ＭＩ,,株式会社,青森県,南津軽郡藤崎町,大字藤崎字銅屋森３５－１２,,02,361,0383802,,,,,,,2025-01-15,1,,,,,エムアイ,0
1545,5430001093458,新規,0,2025-01-15,2025-01-15,オウウ国際株式会社,,株式会社,北海道,札幌市北区,麻生町６丁目９番１０－３０２号,,01,102,0010045,,,,,,,2025-01-15,1,,,,,オウウコクサイ,0
1549,5430005015136,新規,0,2025-01-15,2025-01-15,一般社団法人ＬＩＫＥ　ＳＰＯＲＴＳ,,その他の設立登記法人,北海道,札幌市厚別区,厚別東二条３丁目８番１５－５０６号,,01,108,0040002,,,,,,,2025-01-15,1,,,,,ライクスポーツ,0
1550,5450003002588,新規,0,2025-01-15,2025-01-15,合同会社ＭＡＲＵ,,合同会社,北海道,旭川市,神居三条１８丁目３番２１号,,01,204,0708013,,,,,,,2025-01-15,1,,,,,マル,0
1551,5460003001028,新規,0,2025-01-15,2025-01-15,合同会社ｉｎｉｔ８,,合同会社,北海道,釧路市,興津２丁目２９番８号,,01,206,0850811,,,,,,,2025-01-15,1,,,,,イニシエイト,0
1555,5500003003408,新規,0,2025-01-15,2025-01-15,合同会社ＩＬ　ＮＩＤＯ,,合同会社,愛媛県,今治市,旭町２丁目２番地３,,38,202,7940042,,,,,,,2025-01-15,1,,,,,イルニード,0
1569,6010001251065,新規,0,2025-01-15,2025-01-15,ＹＤＫ　Ｈｏｌｄｉｎｇｓ株式会社,,株式会社,東京都,中央区,日本橋久松町９番９号ＦＲＡＭＥ日本橋８Ｆ－Ｃ室,,13,102,1030005,,,,,,,2025-01-15,1,,,,,ワイディーケーホールディングス,0
1570,6010001251239,新規,0,2025-01-15,2025-01-15,Ｋｅｎｄａｌｌ　Ｓｑｕａｒｅ　Ｖｅｎｔｕｒｅｓ株式会社,,株式会社,東京都,中央区,築地７丁目８－３－８０２,,13,102,1040045,,,,,,,2025-01-15,1,,,,,ケンドルスクウェアベンチャーズ,0
1571,6010001251387,新規,0,2025-01-15,2025-01-15,江漢ＡＩ株式会社,,株式会社,東京都,文京区,白山１丁目６番４号－Ａ０９,,13,105,1130001,,,,,,,2025-01-15,1,,,,,コウカンエーアイ,0
1572,6010001251404,新規,0,2025-01-15,2025-01-15,ＭＳＡライフサポートエージェンシー株式会社,,株式会社,東京都,中央区,新川２丁目２７番２号,,13,102,1040033,,,,,,,2025-01-15,1,,,,,エムエスエーライフサポートエージェンシー,0
1573,6010003046042,新規,0,2025-01-15,2025-01-15,ネクストヴィジョン合同会社,,合同会社,東京都,文京区,千駄木３丁目３７番１７－７０１号,,13,105,1130022,,,,,,,2025-01-15,1,,,,,ネクストヴィジョン,0
1574,6010003046059,新規,0,2025-01-15,2025-01-15,日光Ｐｌｕｓ２３合同会社６,,合同会社,東京都,千代田区,丸の内１丁目４番１号東京共同会計事務所内,,13,101,1000005,,,,,,,2025-01-15,1,,,,,ニッコウプラスニジュウサンロク,0
1575,6010003046067,新規,0,2025-01-15,2025-01-15,日光Ｐｌｕｓ２３合同会社１４,,合同会社,東京都,千代田区,丸の内１丁目４番１号東京共同会計事務所内,,13,101,1000005,,,,,,,2025-01-15,1,,,,,ニッコウプラスニジュウサンイチヨン,0
1576,6010003046075,新規,0,2025-01-15,2025-01-15,合同会社ＨＭＺＥＨ４,,合同会社,東京都,中央区,銀座４丁目６番１号三幸アセットマネジメント株式会社内,,13,102,1040061,,,,,,,2025-01-15,1,,,,,エイチエムゼッチフォー,0
1577,6010005039374,新規,0,2025-01-15,2025-01-15,一般社団法人東京歯科大学同窓支援会,,その他の設立登記法人,東京都,千代田区,神田三崎町２丁目９番１８号,,13,101,1010061,,,,,,,2025-01-15,1,,,,,トウキョウシカダイガクドウソウシエンカイ,0
1579,6010401187545,新規,0,2025-01-15,2025-01-15,ＡＲＴＳ‐３株式会社,,株式会社,東京都,港区,港南１丁目２番７０号品川シーズンテラス,,13,103,1080075,,,,,,,2025-01-15,1,,,,,アーツスリー,0
1580,6010701046995,新規,0,2025-01-15,2025-01-15,ブリッツ株式会社,,株式会社,東京都,品川区,西品川１丁目２番１号,,13,109,1410033,,,,,,,2025-01-15,1,,,,,ブリッツ,0
1583,6010803005239,新規,0,2025-01-15,2025-01-15,合同会社Ｓｅｄｏｎａ,,合同会社,東京都,大田区,南雪谷２丁目１番９号,,13,111,1450066,,,,,,,2025-01-15,1,,,,,セドナ,0
1589,6011001166914,新規,0,2025-01-15,2025-01-15,株式会社セリューアソシエイト,,株式会社,東京都,渋谷区,代々木５丁目８－５－５０１,,13,113,1510053,,,,,,,2025-01-15,1,,,,,セリューアソシエイト,0
1590,6011001167078,新規,0,2025-01-15,2025-01-15,ＢＥＬＬＯＡ株式会社,,株式会社,東京都,渋谷区,道玄坂１丁目１２番１号渋谷マークシティＷ２２階,,13,113,1500043,,,,,,,2025-01-15,1,,,,,ベッロア,0
1591,6011001167086,新規,0,2025-01-15,2025-01-15,株式会社契,,株式会社,東京都,渋谷区,道玄坂１丁目１０番８号渋谷道玄坂東急ビル２Ｆ－Ｃ,,13,113,1500043,,,,,,,2025-01-15,1,,,,,チギリ,0
1592,6011001167103,新規,0,2025-01-15,2025-01-15,株式会社ＮＥＮＮＬＩＮ,,株式会社,東京都,渋谷区,道玄坂１丁目１０番８号渋谷道玄坂東急ビル２Ｆ－Ｃ,,13,113,1500043,,,,,,,2025-01-15,1,,,,,ネンリン,0
1593,6011003020771,新規,0,2025-01-15,2025-01-15,ＳＣＳグローバル合同会社,,合同会社,東京都,目黒区,下目黒１丁目１番１４号コノトラビル７Ｆ,,13,110,1530064,,,,,,,2025-01-15,1,,,,,エスシーエスグローバル,0
1594,6011003020788,新規,0,2025-01-15,2025-01-15,合同会社瑛双,,合同会社,東京都,渋谷区,代々木２丁目２６番５－２１６号,,13,113,1510053,,,,,,,2025-01-15,1,,,,,エイソウ,0
1600,6011101110144,新規,0,2025-01-15,2025-01-15,アスウェル株式会社,,株式会社,東京都,新宿区,高田馬場１丁目３１－８高田馬場ダイカンプラザ８２１,,13,104,1690075,,,,,,,2025-01-15,1,,,,,アスウェル,0
1602,6011103015374,新規,0,2025-01-15,2025-01-15,合同会社ＴＥ,,合同会社,東京都,新宿区,北新宿１丁目３５番１－２０４号,,13,104,1690074,,,,,,,2025-01-15,1,,,,,ティーイー,0
1603,6011103015390,新規,0,2025-01-15,2025-01-15,合同会社しあんのつくりかた,,合同会社,東京都,新宿区,西新宿３丁目３番１３号西新宿水間ビル２Ｆ,,13,104,1600023,,,,,,,2025-01-15,1,,,,,シアンノツクリカタ,0
1604,6011103015416,新規,0,2025-01-15,2025-01-15,合同会社ｙｏｒｉｓｏｉ,,合同会社,東京都,新宿区,西新宿３丁目３番１３号西新宿水間ビル２Ｆ,,13,104,1600023,,,,,,,2025-01-15,1,,,,,ヨリソイ,0
1614,6011801045441,新規,0,2025-01-15,2025-01-15,株式会社ＦＬＴ,,株式会社,東京都,足立区,千住大川町１３番１１－５０２号リバージュ北千住,,13,121,1200031,,,,,,,2025-01-15,1,,,,,エフエルティ,0
1617,6012401042663,新規,0,2025-01-15,2025-01-15,株式会社ストーリー,,株式会社,東京都,武蔵野市,吉祥寺本町１丁目２０番１号吉祥寺永谷シティプラザ１００２,,13,203,1800004,,,,,,,2025-01-15,1,,,,,ストーリー,0
1618,6012401042671,新規,0,2025-01-15,2025-01-15,日本キリンジシステム株式会社,,株式会社,東京都,府中市,分梅町３丁目３０番地の２グランシードＢ１０２,,13,206,1830033,,,,,,,2025-01-15,1,,,,,ニホンキリンジシステム,0
1635,6030001164348,新規,0,2025-01-15,2025-01-15,株式会社デックス,,株式会社,埼玉県,川口市,上青木５丁目３番２４号,,11,203,3330844,,,,,,,2025-01-15,1,,,,,デックス,0
1637,6030003025861,新規,0,2025-01-15,2025-01-15,合同会社ＤＩＶＡＮ,,合同会社,埼玉県,川口市,戸塚鋏町２０番７号Ａ,,11,203,3330805,,,,,,,2025-01-15,1,,,,,ディバン,0
1638,6030003025878,新規,0,2025-01-15,2025-01-15,合同会社Ｍｅｅ,,合同会社,埼玉県,さいたま市見沼区,大字大谷１７８２－９,,11,104,3370014,,,,,,,2025-01-15,1,,,,,ミイ,0
1644,6040001136791,新規,0,2025-01-15,2025-01-15,ＦＫ株式会社,,株式会社,千葉県,千葉市中央区,稲荷町２丁目２番１７号,,12,101,2600833,,,,,,,2025-01-15,1,,,,,エフケイ,0
1645,6040001136981,新規,0,2025-01-15,2025-01-15,株式会社ＧＲＯＷＴＨ,,株式会社,千葉県,木更津市,金田東４丁目９番１２号アクアルーチェ２０１号,,12,206,2920009,,,,,,,2025-01-15,1,,,,,グロース,0
1650,6050001055990,新規,0,2025-01-15,2025-01-15,タツミ工業株式会社,,株式会社,茨城県,潮来市,日の出１丁目１１番地１ネオシテイ潮来１２５,,08,223,3112423,,,,,,,2025-01-15,1,,,,,タツミコウギョウ,0
1651,6050003008922,新規,0,2025-01-15,2025-01-15,里工業合同会社,,合同会社,茨城県,取手市,下高井２４４７番地１６,,08,217,3020038,,,,,,,2025-01-15,1,,,,,サトコウギョウ,0
1657,6070003005752,新規,0,2025-01-15,2025-01-15,あかね会計合同会社,,合同会社,群馬県,高崎市,中居町３丁目２３番地１２,,10,202,3700852,,,,,,,2025-01-15,1,,,,,アカネカイケイ,0
1661,6080001026709,新規,0,2025-01-15,2025-01-15,東洋宿命学院株式会社,,株式会社,静岡県,静岡市葵区,鷹匠２丁目２３番１７号,,22,101,4200839,,,,,,,2025-01-15,1,,,,,トウヨウシュクメイガクイン,0
1662,6080101025247,新規,0,2025-01-15,2025-01-15,株式会社魚熊ホールディングス,,株式会社,静岡県,熱海市,伊豆山７６３番地の３,,22,205,4130002,,,,,,,2025-01-15,1,,,,,ウオクマホールディングス,0
1663,6080403005178,新規,0,2025-01-15,2025-01-15,合同会社長野研業,,合同会社,静岡県,浜松市中央区,頭陀寺町３５８番地の３,,22,138,4300817,,,,,,,2025-01-15,1,,,,,ナガノケンギョウ,0
1664,6100001038156,新規,0,2025-01-15,2025-01-15,株式会社ＫＯＫＡＧＥ,,株式会社,長野県,安曇野市,穂高９９６番地１,,20,220,3998303,,,,,,,2025-01-15,1,,,,,コカゲ,0
1665,6110003005640,新規,0,2025-01-15,2025-01-15,合同会社ラクールフーズ,,合同会社,新潟県,五泉市,蛭野１６４３,,15,218,9591735,,,,,,,2025-01-15,1,,,,,ラクールフーズ,0
1673,6120001271671,新規,0,2025-01-15,2025-01-15,山前株式会社,,株式会社,大阪府,大阪市生野区,新今里１丁目１０－１６－４０２号,,27,116,5440001,,,,,,,2025-01-15,1,,,,,ヤママエ,0
1674,6120001271746,新規,0,2025-01-15,2025-01-15,株式会社Ｐキャリー,,株式会社,大阪府,大阪市淀川区,西中島３丁目１９番１３号第２ユヤマビル５階,,27,123,5320011,,,,,,,2025-01-15,1,,,,,ピーキャリー,0
1675,6120001271770,新規,0,2025-01-15,2025-01-15,株式会社ＳＯＦＩ,,株式会社,大阪府,大阪市北区,梅田１丁目２番２号大阪駅前第２ビル１２－１２,,27,127,5300001,,,,,,,2025-01-15,1,,,,,ソーファイ,0
1676,6120001271812,新規,0,2025-01-15,2025-01-15,株式会社Ｕｒｉ　Ｃｈａｎ,,株式会社,大阪府,大阪市中央区,瓦屋町３丁目３番１－６０１号,,27,128,5420066,,,,,,,2025-01-15,1,,,,,ウリチャン,0
1677,6120001271837,新規,0,2025-01-15,2025-01-15,株式会社リブロドーロ,,株式会社,大阪府,大阪市東成区,中道２丁目８番１０号,,27,115,5370025,,,,,,,2025-01-15,1,,,,,リブロドーロ,0
1678,6120001271853,新規,0,2025-01-15,2025-01-15,株式会社グリーンハウス,,株式会社,大阪府,枚方市,招提元町４丁目５１番１３号,,27,210,5731133,,,,,,,2025-01-15,1,,,,,グリーンハウス,0
1679,6120001271886,新規,0,2025-01-15,2025-01-15,小松商事株式会社,,株式会社,大阪府,門真市,北岸和田２丁目６番５号,,27,223,5710007,,,,,,,2025-01-15,1,,,,,コマツショウジ,0
1680,6120001271928,新規,0,2025-01-15,2025-01-15,株式会社Ｍｅｒｃｕｒｙ,,株式会社,大阪府,大阪市旭区,赤川２丁目５番１３号,,27,117,5350005,,,,,,,2025-01-15,1,,,,,マーキュリー,0
1683,6120003028335,新規,0,2025-01-15,2025-01-15,合同会社ボクール,,合同会社,大阪府,大阪市北区,天神橋７丁目１４番１６号,,27,127,5310041,,,,,,,2025-01-15,1,,,,,ボクール,0
1686,6120101070890,新規,0,2025-01-15,2025-01-15,株式会社御輿,,株式会社,大阪府,藤井寺市,北岡２丁目１０番５－３０５号,,27,226,5830035,,,,,,,2025-01-15,1,,,,,ミコシ,0
1701,6140001136996,新規,0,2025-01-15,2025-01-15,株式会社ＳＨＩＯＭＥ　ＥＳＴＡＴＥ,,株式会社,兵庫県,西宮市,二見町１３番５－１０５号,,28,204,6638111,,,,,,,2025-01-15,1,,,,,シオメエステート,0
1702,6140001137029,新規,0,2025-01-15,2025-01-15,株式会社Ｈｏｗｄｙ,,株式会社,兵庫県,芦屋市,茶屋之町１１－７,,28,206,6590067,,,,,,,2025-01-15,1,,,,,ハウディ,0
1704,6140003021511,新規,0,2025-01-15,2025-01-15,ＡＭＬ合同会社,,合同会社,兵庫県,神戸市垂水区,つつじが丘３丁目１０番地の２,,28,108,6550853,,,,,,,2025-01-15,1,,,,,アムエル,0
1710,6180001164952,新規,0,2025-01-15,2025-01-15,株式会社ＧＬＵＣＫ　ＨＡＵＳ,,株式会社,愛知県,瀬戸市,西松山町３丁目１７番地の３,,23,204,4890912,,,,,,,2025-01-15,1,,,,,グリュックハウス,0
1711,6180001164969,新規,0,2025-01-15,2025-01-15,株式会社Ｂｒｅａｋ　ｔｈｒｏｕｇｈ,,株式会社,愛知県,名古屋市中区,大須２丁目４番５０号,,23,106,4600011,,,,,,,2025-01-15,1,,,,,ブレイクスルー,0
1712,6180001164977,新規,0,2025-01-15,2025-01-15,株式会社藤咲,,株式会社,愛知県,名古屋市昭和区,山中町２丁目２１,,23,107,4660828,,,,,,,2025-01-15,1,,,,,フジサキ,0
1713,6180001165001,新規,0,2025-01-15,2025-01-15,株式会社ピキピキ,,株式会社,愛知県,瀬戸市,原山台５丁目２６番地の２,,23,204,4890888,,,,,,,2025-01-15,1,,,,,ピキピキ,0
1715,6180003027843,新規,0,2025-01-15,2025-01-15,合同会社ケンジ,,合同会社,愛知県,半田市,東新町２８番地,,23,205,4750861,,,,,,,2025-01-15,1,,,,,ケンジ,0
1717,6180301039425,新規,0,2025-01-15,2025-01-15,株式会社Ａｎｄ　ｆｉｌｍ,,株式会社,愛知県,刈谷市,宝町１丁目１－１６宝ビル３Ｆ,,23,210,4480847,,,,,,,2025-01-15,1,,,,,アンドフィルム,0
1718,6190001031945,新規,0,2025-01-15,2025-01-15,株式会社ＡＳＫＡ,,株式会社,三重県,津市,庄田町２３２６番地,,24,201,5141255,,,,,,,2025-01-15,1,,,,,アスカ,0
1723,6210003001877,新規,0,2025-01-15,2025-01-15,たかだカンパニー合同会社,,合同会社,福井県,鯖江市,御幸町２丁目１番１１号,,18,207,9160015,,,,,,,2025-01-15,1,,,,,タカダカンパニー,0
1726,6220001026405,新規,0,2025-01-15,2025-01-15,一次産業資源株式会社,,株式会社,石川県,鳳珠郡能登町,字天坂甲七字８４番地１,,17,463,9280313,,,,,,,2025-01-15,1,,,,,イチジサンギョウシゲン,0
1728,6240001064378,新規,0,2025-01-15,2025-01-15,株式会社Ａｌｌ　Ｔｏｇｅｔｈｅｒ,,株式会社,広島県,広島市安佐南区,毘沙門台２丁目４番２７号,,34,105,7310152,,,,,,,2025-01-15,1,,,,,オールトゥギャザー,0
1729,6240001064386,新規,0,2025-01-15,2025-01-15,ｅｔｅ　Ｊａｐａｎ株式会社,,株式会社,広島県,豊田郡大崎上島町,東野６５６番地３,,34,431,7250231,,,,,,,2025-01-15,1,,,,,エテジャパン,0
1748,6290001108659,新規,0,2025-01-15,2025-01-15,株式会社凹凸企画,,株式会社,福岡県,福岡市中央区,大手門３丁目１２番１２号ＢＬＤＧ６４－３Ｆ,,40,133,8100074,,,,,,,2025-01-15,1,,,,,オウトツキカク,0
1765,6290005019613,新規,0,2025-01-15,2025-01-15,一般社団法人ハンドルサポート,,その他の設立登記法人,福岡県,八女市,高塚３３２番地１,,40,210,8340034,,,,,,,2025-01-15,1,,,,,ハンドルサポート,0
1770,6300001014054,新規,0,2025-01-15,2025-01-15,サザンスター株式会社,,株式会社,佐賀県,佐賀市,神野東３丁目７番２４号,,41,201,8400804,,,,,,,2025-01-15,1,,,,,サザンスター,0
1771,6320005010213,新規,0,2025-01-15,2025-01-15,医療法人せきぐち赤ちゃんこどもクリニック,,その他の設立登記法人,大分県,大分市,高松１丁目１番２号,,44,201,8700917,,,,,,,2025-01-15,1,,,,,セキグチアカチャンコドモクリニック,0
1773,6330001032805,新規,0,2025-01-15,2025-01-15,株式会社Ｓｒｅｅｆ,,株式会社,熊本県,熊本市北区,清水本町３３－６０アドニスハイツ１０１,,43,105,8618074,,,,,,,2025-01-15,1,,,,,スリーフ,0
1784,6360001034658,新規,0,2025-01-15,2025-01-15,株式会社ファーストプラン,,株式会社,沖縄県,宜野湾市,真志喜３丁目５番１２号,,47,205,9012224,,,,,,,2025-01-15,1,,,,,ファーストプラン,0
1786,6370001052130,新規,0,2025-01-15,2025-01-15,株式会社ＯＮＯ,,株式会社,宮城県,仙台市宮城野区,鉄砲町中５番地の１３－１０２号,,04,102,9830868,,,,,,,2025-01-15,1,,,,,オーエヌオー,0
1791,6400003003375,新規,0,2025-01-15,2025-01-15,合同会社ゴールド,,合同会社,岩手県,西磐井郡平泉町,長島字俄坂５２番地１,,03,402,0294101,,,,,,,2025-01-15,1,,,,,ゴールド,0
1801,6430005015135,新規,0,2025-01-15,2025-01-15,一般社団法人Ｐｌｕｓ　Ｍｉｎｄ,,その他の設立登記法人,北海道,札幌市手稲区,新発寒二条１丁目２番１２号,,01,109,0060802,,,,,,,2025-01-15,1,,,,,プラスマインド,0
1802,6460101007652,新規,0,2025-01-15,2025-01-15,わくっとニッタ株式会社,,株式会社,北海道,中川郡幕別町,新町１１５番地,,01,643,0890611,,,,,,,2025-01-15,1,,,,,ワクットニッタ,0
1804,6500003003407,新規,0,2025-01-15,2025-01-15,合同会社きのえ,,合同会社,愛媛県,西条市,喜多川６６４番地８,,38,206,7930042,,,,,,,2025-01-15,1,,,,,キノエ,0
1807,6700150128746,新規,0,2025-01-15,2025-01-15,ＭＡＧＩＣ　ＰＲＯＭＩＳＥ　ＬＩＭＩＴＥＤ,,外国会社等,,,,,,,,Ｖｉｓｔｒａ　Ｃｏｒｐｏｒａｔｅ　Ｓｅｒｖｉｃｅｓ　Ｃｅｎｔｒｅ，Ｗｉｃｋｈａｍｓ　Ｃａｙ　ＩＩ，Ｒｏａｄ　Ｔｏｗｎ，Ｔｏｒｔｏｌａ，ＶＧ１１１０，Ｂｒｉｔｉｓｈ　Ｖｉｒｇｉｎ　Ｉｓｌａｎｄｓ,00137634,,,,,2025-01-15,1,,,,,マジツクプロミスリミテツド,0
1813,7010001251064,新規,0,2025-01-15,2025-01-15,株式会社ビーム,,株式会社,東京都,文京区,春日２丁目２０番１７号,,13,105,1120003,,,,,,,2025-01-15,1,,,,,ビーム,0
1814,7010001251460,新規,0,2025-01-15,2025-01-15,Ａｉｔｏ株式会社,,株式会社,東京都,中央区,銀座１丁目１２番４号Ｎ＆ＥＢＬＤ．６Ｆ,,13,102,1040061,,,,,,,2025-01-15,1,,,,,アイト,0
1815,7010001251477,新規,0,2025-01-15,2025-01-15,株式会社フーリン,,株式会社,東京都,中央区,銀座１丁目１２番４号Ｎ＆Ｅ・ＢＬＤ．６Ｆ,,13,102,1040061,,,,,,,2025-01-15,1,,,,,フーリン,0
1816,7010003046058,新規,0,2025-01-15,2025-01-15,日光Ｐｌｕｓ２３合同会社７,,合同会社,東京都,千代田区,丸の内１丁目４番１号東京共同会計事務所内,,13,101,1000005,,,,,,,2025-01-15,1,,,,,ニッコウプラスニジュウサンナナ,0
1817,7010003046066,新規,0,2025-01-15,2025-01-15,日光Ｐｌｕｓ２３合同会社１５,,合同会社,東京都,千代田区,丸の内１丁目４番１号東京共同会計事務所内,,13,101,1000005,,,,,,,2025-01-15,1,,,,,ニッコウプラスニジュウサンイチゴ,0
1818,7010003046074,新規,0,2025-01-15,2025-01-15,合同会社翼,,合同会社,東京都,千代田区,神田須田町１丁目７番８号ＶＯＲＴ秋葉原ＩＶ２Ｆ,00137644,13,101,1010041,,,,,,,2025-01-15,1,,,,,ツバサ,0
1823,7010401187643,新規,0,2025-01-15,2025-01-15,株式会社ＩＣＨＩＫＡ,,株式会社,東京都,港区,新橋２丁目２０番１５号新橋駅前ビル１号館,,13,103,1050004,,,,,,,2025-01-15,1,,,,,イチカ,0
1830,7010501053464,新規,0,2025-01-15,2025-01-15,株式会社スエニートコンサルティング,,株式会社,東京都,台東区,上野３丁目１６番２号天翔上野末広町ビル７１１号,,13,106,1100005,,,,,,,2025-01-15,1,,,,,スエニートコンサルティング,0
1831,7010501053472,新規,0,2025-01-15,2025-01-15,ＶＲＩＮＤＡ　ＪＡＰＡＮ株式会社,,株式会社,東京都,台東区,上野５丁目２４番２号奥村ビル２Ｆ,,13,106,1100005,,,,,,,2025-01-15,1,,,,,ブリンダジャパン,0
1843,7010901056587,新規,0,2025-01-15,2025-01-15,株式会社サウスエージェント,,株式会社,東京都,世田谷区,駒沢２丁目１４番１－４０２号,,13,112,1540012,,,,,,,2025-01-15,1,,,,,サウスエージェント,0
1844,7010901056645,新規,0,2025-01-15,2025-01-15,株式会社ＰｌａｙＳｏｕｌ,,株式会社,東京都,世田谷区,太子堂３丁目１３番９号,,13,112,1540004,,,,,,,2025-01-15,1,,,,,プレイソウル,0
1847,7011001166896,新規,0,2025-01-15,2025-01-15,株式会社スピード,,株式会社,東京都,渋谷区,道玄坂１丁目１０番８号渋谷道玄坂東急ビル２Ｆ－Ｃ,,13,113,1500043,,,,,,,2025-01-15,1,,,,,スピード,0
1848,7011001166946,新規,0,2025-01-15,2025-01-15,Ｌｉｘｉａ株式会社,,株式会社,東京都,渋谷区,道玄坂１丁目１０番８号渋谷道玄坂東急ビル２Ｆ－Ｃ,,13,113,1500043,,,,,,,2025-01-15,1,,,,,リクシア,0
1849,7011001167093,新規,0,2025-01-15,2025-01-15,株式会社ＩＬＧＯＰ,,株式会社,東京都,渋谷区,神宮前６丁目１７番１５号,,13,113,1500001,,,,,,,2025-01-15,1,,,,,イルゴップ,0
1850,7011001167110,新規,0,2025-01-15,2025-01-15,株式会社ｐｉｉｉｋ,,株式会社,東京都,渋谷区,恵比寿西１丁目３４番６－２０４号シティカレント代官山,,13,113,1500021,,,,,,,2025-01-15,1,,,,,ピーク,0
1851,7011001167192,新規,0,2025-01-15,2025-01-15,ＨＹＴＥＣＨ　ＪＡＰＡＮ株式会社,,株式会社,東京都,目黒区,下目黒２丁目１６番６号３０２,,13,110,1530064,,,,,,,2025-01-15,1,,,,,エイチワイテックジャパン,0
1852,7011003020738,新規,0,2025-01-15,2025-01-15,合同会社ＲｅＫｎｏＴ,,合同会社,東京都,渋谷区,渋谷２丁目１９番１９号ワコー宮益坂ビル５階,,13,113,1500002,,,,,,,2025-01-15,1,,,,,リノット,0
1856,7011101110218,新規,0,2025-01-15,2025-01-15,株式会社Ｍａｌａｎｄ,,株式会社,東京都,新宿区,新宿６丁目２７－２９－９０６,,13,104,1600022,,,,,,,2025-01-15,1,,,,,マーランド,0
1857,7011101110226,新規,0,2025-01-15,2025-01-15,株式会社キコニア,,株式会社,東京都,新宿区,西新宿３丁目３番１３号西新宿水間ビル６階,,13,104,1600023,,,,,,,2025-01-15,1,,,,,キコニア,0
1858,7011103015381,新規,0,2025-01-15,2025-01-15,合同会社ＲＴ,,合同会社,東京都,新宿区,西落合４丁目３番１３号キャッスル西落合２０１,,13,104,1610031,,,,,,,2025-01-15,1,,,,,アールティー,0
1860,7011501031583,新規,0,2025-01-15,2025-01-15,三石株式会社,,株式会社,東京都,北区,浮間１丁目７－２３兆豊浮間ビル５０３号室,,13,117,1150051,,,,,,,2025-01-15,1,,,,,ミツイシ,0
1861,7011601028356,新規,0,2025-01-15,2025-01-15,株式会社みらい総合研究所,,株式会社,東京都,練馬区,関町北１丁目２３番２－４０５号,,13,120,1770051,,,,,,,2025-01-15,1,,,,,ミライソウゴウケンキュウジョ,0
1862,7011801045449,新規,0,2025-01-15,2025-01-15,Ｖｉｒｔｕａｌ　Ｑｕｅｅｎ株式会社,,株式会社,東京都,足立区,竹の塚１丁目１１番１－６０１号,,13,121,1210813,,,,,,,2025-01-15,1,,,,,バーチャルクイーン,0
1865,7012303002079,新規,0,2025-01-15,2025-01-15,合同会社ライジング,,合同会社,東京都,町田市,小山町３０６５－１アルス多摩境６０３,,13,209,1940212,,,,,,,2025-01-15,1,,,,,ライジング,0
1866,7012801023683,新規,0,2025-01-15,2025-01-15,株式会社ＰＥＮＴＡ　ＺＥＲＯ,,株式会社,東京都,立川市,錦町１丁目４番４号サニーハイツ１０１,,13,202,1900022,,,,,,,2025-01-15,1,,,,,ペンタゼロ,0
1876,7021003015456,新規,0,2025-01-15,2025-01-15,合同会社ＫＫ,,合同会社,神奈川県,藤沢市,羽鳥２丁目６番１号フラットヒロ１０１,,14,205,2510056,,,,,,,2025-01-15,1,,,,,ケーケー,0
1880,7030001164347,新規,0,2025-01-15,2025-01-15,株式会社せかいステップ,,株式会社,埼玉県,さいたま市西区,三橋６丁目１２３９番地１,,11,101,3310052,,,,,,,2025-01-15,1,,,,,セカイステップ,0
1881,7030001164396,新規,0,2025-01-15,2025-01-15,株式会社Ｇ＆Ｍ,,株式会社,埼玉県,草加市,松原２丁目３番５－７３０号,,11,221,3400041,,,,,,,2025-01-15,1,,,,,ジーアンドエム,0
1887,7030003025877,新規,0,2025-01-15,2025-01-15,合同会社はやて,,合同会社,埼玉県,さいたま市見沼区,堀崎町１４８５番地２,,11,104,3370052,,,,,,,2025-01-15,1,,,,,ハヤテ,0
1894,7040001136824,新規,0,2025-01-15,2025-01-15,株式会社ＴＳＫ,,株式会社,千葉県,船橋市,湊町２丁目１２番２４号湊町日本橋ビル６Ｆ,,12,204,2730011,,,,,,,2025-01-15,1,,,,,ティーエスケー,0
1895,7040001136997,新規,0,2025-01-15,2025-01-15,共栄電通株式会社,,株式会社,千葉県,千葉市中央区,新千葉１丁目７番地２,,12,101,2600031,,,,,,,2025-01-15,1,,,,,キョウエイデンツウ,0
1898,7040003026569,新規,0,2025-01-15,2025-01-15,合同会社ｓｙｓ,,合同会社,千葉県,千葉市中央区,本千葉町７番２号,,12,101,2600014,,,,,,,2025-01-15,1,,,,,シス,0
1899,7040003026593,新規,0,2025-01-15,2025-01-15,合同会社てつ電,,合同会社,千葉県,東金市,日吉台３丁目２６番地７,,12,213,2830803,,,,,,,2025-01-15,1,,,,,テツデン,0
1907,7070001042540,新規,0,2025-01-15,2025-01-15,株式会社ＳＴＥＬＬＡ　ＦＲＡＧＭＥＮＴ,,株式会社,群馬県,高崎市,中泉町９５番地３,,10,202,3703524,,,,,,,2025-01-15,1,,,,,ステラフラグメント,0
1909,7080001026708,新規,0,2025-01-15,2025-01-15,株式会社聖一色塚本,,株式会社,静岡県,静岡市駿河区,聖一色４６３番地,,22,102,4228007,,,,,,,2025-01-15,1,,,,,ヒジリイッシキツカモト,0
1916,7120001271456,新規,0,2025-01-15,2025-01-15,Ｂｙｔｅ　Ｃｈａｉｎ株式会社,,株式会社,大阪府,大阪市東成区,東今里３丁目１５番２７号２０２,,27,115,5370011,,,,,,,2025-01-15,1,,,,,バイトチェーン,0
1917,7120001271745,新規,0,2025-01-15,2025-01-15,Ｒｅｄ　Ｄｒａｇｏｎ株式会社,,株式会社,大阪府,枚方市,招提中町１丁目４３番６５号,,27,210,5731152,,,,,,,2025-01-15,1,,,,,レッドドラゴン,0
1918,7120001271852,新規,0,2025-01-15,2025-01-15,ＴＡＯ＆ＣＯ．株式会社,,株式会社,大阪府,大阪市中央区,南船場２丁目２番１３プレミスト南船場２００１号,,27,128,5420081,,,,,,,2025-01-15,1,,,,,タオアンドカンパニー,0
1919,7120001271869,新規,0,2025-01-15,2025-01-15,株式会社ｂｒｅｎ,,株式会社,大阪府,大阪市中央区,東高麗橋１－６－３０２,,27,128,5400039,,,,,,,2025-01-15,1,,,,,ブレン,0
1920,7120001271902,新規,0,2025-01-15,2025-01-15,イチノモトレジン株式会社,,株式会社,大阪府,大阪市西区,靱本町１丁目１３番１３号,,27,106,5500004,,,,,,,2025-01-15,1,,,,,イチノモトレジン,0
1921,7120001272009,新規,0,2025-01-15,2025-01-15,株式会社シナリオＤＡＳＨ,,株式会社,大阪府,大阪市西成区,天下茶屋東２丁目３－２７,,27,122,5570011,,,,,,,2025-01-15,1,,,,,シナリオダッシュ,0
1924,7120003028326,新規,0,2025-01-15,2025-01-15,Ｂａｓｉｓ　Ｂａｙ　Ｊａｐａｎ合同会社,,合同会社,大阪府,大阪市北区,豊崎３丁目１６番１６－１１０１号,,27,127,5310072,,,,,,,2025-01-15,1,,,,,ベーシスベイジャパン,0
1925,7120003028367,新規,0,2025-01-15,2025-01-15,浅羽合同会社,,合同会社,大阪府,大阪市北区,梅田１丁目２番２号大阪駅前第２ビル１２－１２,,27,127,5300001,,,,,,,2025-01-15,1,,,,,アサバ,0
1928,7120005024711,新規,0,2025-01-15,2025-01-15,一般社団法人国際ビジネスネットワーク連携協会,,その他の設立登記法人,大阪府,大阪市住吉区,南住吉１丁目４－２南住吉ハイツ１０６,,27,120,5580041,,,,,,,2025-01-15,1,,,,,コクサイビジネスネットワークレンケイキョウカイ,0
1932,7122001038793,新規,0,2025-01-15,2025-01-15,株式会社ＭＯＳ,,株式会社,大阪府,東大阪市,西堤学園町１丁目７番４号,,27,227,5770044,,,,,,,2025-01-15,1,,,,,モス,0
1936,7130001078768,新規,0,2025-01-15,2025-01-15,株式会社Ｈａｃｈｉｋｕｍｏ,,株式会社,京都府,京都市下京区,七条通油小路東入大黒町２２７番地第２キョートビル４０２,,26,106,6008223,,,,,,,2025-01-15,1,,,,,ハチクモ,0
1947,7140001137028,新規,0,2025-01-15,2025-01-15,株式会社ハトメ,,株式会社,兵庫県,加古川市,野口町良野１５４５番地,,28,210,6750017,,,,,,,2025-01-15,1,,,,,ハトメ,0
1948,7140001137044,新規,0,2025-01-15,2025-01-15,株式会社ＦＵＺＩ,,株式会社,兵庫県,神戸市東灘区,住吉南町２丁目１２番２－５１０号,,28,101,6580041,,,,,,,2025-01-15,1,,,,,フジ,0
1949,7140001137052,新規,0,2025-01-15,2025-01-15,株式会社Ｂｉｌｌｉｏｎ　Ｖｉｃｔｏｒｙ,,株式会社,兵庫県,神戸市中央区,相生町１丁目１番１－３１１１号,,28,110,6500025,,,,,,,2025-01-15,1,,,,,ビリオンヴィクトリー,0
1956,7140003021519,新規,0,2025-01-15,2025-01-15,合同会社ケイズワイズ,,合同会社,兵庫県,西宮市,大森町１番４３号,,28,204,6638023,,,,,,,2025-01-15,1,,,,,ケイズワイズ,0
1957,7140003021535,新規,0,2025-01-15,2025-01-15,みる・べ・くるる合同会社,,合同会社,兵庫県,川西市,美山台１丁目２番地の５６,,28,217,6660151,,,,,,,2025-01-15,1,,,,,ミルベクルル,0
1958,7150001027814,新規,0,2025-01-15,2025-01-15,株式会社司組,,株式会社,奈良県,香芝市,西真美３丁目８番地７,,29,210,6390222,,,,,,,2025-01-15,1,,,,,ツカサグミ,0
1963,7180001164877,新規,0,2025-01-15,2025-01-15,株式会社Ｄ‐Ｅｓｔａｔｅ,,株式会社,愛知県,名古屋市中区,錦１丁目７番４０号第２ユアサビル４階,,23,106,4600003,,,,,,,2025-01-15,1,,,,,ディーエステート,0
1964,7180001164976,新規,0,2025-01-15,2025-01-15,株式会社ＫＡＴＯ,,株式会社,愛知県,長久手市,西原山１番地５,,23,238,4801138,,,,,,,2025-01-15,1,,,,,カト,0
1967,7180003027834,新規,0,2025-01-15,2025-01-15,合同会社Ｍａｒｉｔｏｐｏｓ,,合同会社,愛知県,名古屋市中区,栄１丁目２３番２９号サンハイツ伏見２Ｆ,,23,106,4600008,,,,,,,2025-01-15,1,,,,,マリトポス,0
1968,7180003027850,新規,0,2025-01-15,2025-01-15,合同会社Ｕｎｉ‐Ｏｎｅ,,合同会社,愛知県,名古屋市千種区,桜が丘１１９番地（バンベール星ヶ丘ヒルズ１１０号）,,23,101,4640025,,,,,,,2025-01-15,1,,,,,ユニワン,0
1972,7180301039424,新規,0,2025-01-15,2025-01-15,株式会社ＧＯＴＯ　ＣＲＡＦＴ　ＷＯＲＫＳ,,株式会社,愛知県,岡崎市,美合町字入込５９番地１,,23,202,4440803,,,,,,,2025-01-15,1,,,,,ゴトークラフトワークス,0
1979,7210003001876,新規,0,2025-01-15,2025-01-15,合同会社エステック・パークレジデンス福井大手,,合同会社,福井県,福井市,西開発１丁目２５０３番地１,,18,201,9100843,,,,,,,2025-01-15,1,,,,,エステックパークレジデンスフクイオオテ,0
1984,7240001064385,新規,0,2025-01-15,2025-01-15,株式会社ｌｅｉｍｅｎｇ,,株式会社,広島県,広島市中区,大手町１丁目１－２０相生橋ビル７階Ａ号室,,34,101,7300051,,,,,,,2025-01-15,1,,,,,ライモン,0
1985,7240001064393,新規,0,2025-01-15,2025-01-15,ＣＯＭＵＰ　ｄｅｓｉｇｎ株式会社,,株式会社,広島県,安芸郡府中町,八幡２丁目８番２６号,,34,302,7350012,,,,,,,2025-01-15,1,,,,,コムアップデザイン,0
1986,7240003007020,新規,0,2025-01-15,2025-01-15,合同会社オフィスＡｓ,,合同会社,広島県,広島市中区,大手町３丁目１２番３－１３０４号,,34,101,7300051,,,,,,,2025-01-15,1,,,,,オフィスエイエス,0
1993,7260001039807,新規,0,2025-01-15,2025-01-15,ＡＮＴ株式会社,,株式会社,岡山県,倉敷市,西阿知町新田１０－１,,33,202,7100804,,,,,,,2025-01-15,1,,,,,アント,0
2012,7290001108419,新規,0,2025-01-15,2025-01-15,株式会社ＡＰＯＳＴＥＬ,,株式会社,福岡県,福岡市博多区,博多駅前１丁目２３番２号ＰａｒｋＦｒｏｎｔ博多駅前１丁目５Ｆ－Ｂ,,40,132,8120011,,,,,,,2025-01-15,1,,,,,アポッスル,0
2013,7290001108518,新規,0,2025-01-15,2025-01-15,株式会社Ｇｒｅｅｎ　Ｂｒｉｄｇｅ,,株式会社,福岡県,福岡市東区,松崎１丁目５３番１４号,,40,131,8130035,,,,,,,2025-01-15,1,,,,,グリーンブリッジ,0
2014,7290001108625,新規,0,2025-01-15,2025-01-15,株式会社Ｌｉｇａｒｅ,,株式会社,福岡県,福岡市城南区,西片江２丁目２１番２,,40,136,8140141,,,,,,,2025-01-15,1,,,,,リガーレ,0
2030,7290801031183,新規,0,2025-01-15,2025-01-15,ニイナビルド株式会社,,株式会社,福岡県,北九州市八幡東区,西本町４丁目１－１ダイヤモンドシェア,,40,108,8050061,,,,,,,2025-01-15,1,,,,,ニイナビルド,0
2045,7360001034657,新規,0,2025-01-15,2025-01-15,株式会社ｉｏｎ,,株式会社,沖縄県,宮古島市,上野字宮国１２番地,,47,214,9060203,,,,,,,2025-01-15,1,,,,,アイオーエヌ,0
2049,7370005010892,新規,0,2025-01-15,2025-01-15,一般社団法人日本健康推進機構,,その他の設立登記法人,宮城県,仙台市若林区,清水小路８ー１Ｆ,,04,103,9840075,,,,,,,2025-01-15,1,,,,,ニホンケンコウスイシンキコウ,0
2056,7380003005935,新規,0,2025-01-15,2025-01-15,合同会社Ｕｐ,,合同会社,福島県,いわき市,南台１丁目５番地の３,,07,204,9748242,,,,,,,2025-01-15,1,,,,,アップ,0
2057,7400003003374,新規,0,2025-01-15,2025-01-15,合同会社菅窪共有,,合同会社,岩手県,下閉伊郡田野畑村,菅窪２０５番地１１,,03,484,0288407,,,,,,,2025-01-15,1,,,,,スゲノクボキョウユウ,0
2069,7700150128456,新規,0,2025-01-15,2025-01-15,Ｙｏｓｈｉ　Ａｌｐｈａ　Ｌｔｄ．,,外国会社等,,,,,,,,Ｌｅ　Ｓａｍａｌｅｌｅ　Ｃｏｍｐｌｅｘ，Ａｐｉａ，Ｓａｍｏａ,,,,,,2025-01-15,1,,,,,ユシアルフアリミテツド,0
2070,7700150128745,新規,0,2025-01-15,2025-01-15,ＷＡＤＡＮＯ　ＰＴＹ　ＬＴＤ,,外国会社等,長野県,北安曇郡白馬村,大字北城４８１１－８,,20,485,3999301,３　マコ　アベニュー　バークデール　クイーンズランド　４１５９,,,,,,2025-01-15,1,,,,,ワダノ,0
2076,8010001251385,新規,0,2025-01-15,2025-01-15,株式会社ｅｎ　ｏｆｆｉｃｅ,,株式会社,東京都,千代田区,麹町１丁目４番地４、２階,,13,101,1020083,,,,,,,2025-01-15,1,,,,,エンオフィス,0
2077,8010003046057,新規,0,2025-01-15,2025-01-15,日光Ｐｌｕｓ２３合同会社８,,合同会社,東京都,千代田区,丸の内１丁目４番１号東京共同会計事務所内,,13,101,1000005,,,,,,,2025-01-15,1,,,,,ニッコウプラスニジュウサンハチ,0
2078,8010003046065,新規,0,2025-01-15,2025-01-15,日光Ｐｌｕｓ２３合同会社１６,,合同会社,東京都,千代田区,丸の内１丁目４番１号東京共同会計事務所内,,13,101,1000005,,,,,,,2025-01-15,1,,,,,ニッコウプラスニジュウサンイチロク,0
2079,8010003046073,新規,0,2025-01-15,2025-01-15,日光Ｐｌｕｓ２３合同会社１７,,合同会社,東京都,千代田区,丸の内１丁目４番１号東京共同会計事務所内,,13,101,1000005,,,,,,,2025-01-15,1,,,,,ニッコウプラスニジュウサンイチナナ,0
2080,8010103002488,新規,0,2025-01-15,2025-01-15,合同会社燈台,,合同会社,東京都,八王子市,兵衛１丁目１１番地１５号,,13,201,1920918,,,,,,,2025-01-15,1,,,,,トウダイ,0
2084,8010401187477,新規,0,2025-01-15,2025-01-15,ＰＢ　Ｓｗｉｓｓ　Ｔｏｏｌｓ　Ｊａｐａｎ株式会社,,株式会社,東京都,港区,六本木７丁目７番７号トライセブンロッポンギ８階,,13,103,1060032,,,,,,,2025-01-15,1,,,,,ピービースイスツールズジャパン,0
2089,8010503007698,新規,0,2025-01-15,2025-01-15,合同会社スペースジャパン,,合同会社,東京都,台東区,根岸５丁目８番２０号大空庵ハイタウン根岸２０２,,13,106,1100003,,,,,,,2025-01-15,1,,,,,スペースジャパン,0
2095,8010703007531,新規,0,2025-01-15,2025-01-15,ＳＴＯＲＹＬＩＮＥ合同会社,,合同会社,東京都,品川区,東五反田５丁目２７－６第一五反田ビル５０１,,13,109,1410022,,,,,,,2025-01-15,1,,,,,ストーリーライン,0
2097,8010801035748,新規,0,2025-01-15,2025-01-15,啓盛株式会社,,株式会社,東京都,大田区,蒲田４丁目１５番１０号カーサ蒲田第二４０１室,,13,111,1440052,,,,,,,2025-01-15,1,,,,,ケイセイ,0
2099,8010901056652,新規,0,2025-01-15,2025-01-15,株式会社ＬＡＩ,,株式会社,東京都,世田谷区,赤堤２丁目４７番１号,,13,112,1560044,,,,,,,2025-01-15,1,,,,,ライ,0
2105,8011001166953,新規,0,2025-01-15,2025-01-15,株式会社ＤＥＣＯＮＡＬ,,株式会社,東京都,渋谷区,渋谷１丁目３－１８－Ｃ５０１,,13,113,1500002,,,,,,,2025-01-15,1,,,,,デコナル,0
2106,8011001167101,新規,0,2025-01-15,2025-01-15,株式会社ｘＮＥＸＴ,,株式会社,東京都,渋谷区,神宮前５丁目４７番１０号ＯＤ表参道ビル４Ｆ,,13,113,1500001,,,,,,,2025-01-15,1,,,,,クロスネクスト,0
2107,8011001167167,新規,0,2025-01-15,2025-01-15,株式会社ＣＡ　Ｓｏａ,,株式会社,東京都,渋谷区,宇田川町４０番１号,,13,113,1500042,,,,,,,2025-01-15,1,,,,,シーエーソア,0
2108,8011103015348,新規,0,2025-01-15,2025-01-15,合同会社リュックリュック,,合同会社,東京都,新宿区,西新宿３丁目３－１３西新宿水間ビル６階,,13,104,1600023,,,,,,,2025-01-15,1,,,,,リュックリュック,0
2109,8011103015372,新規,0,2025-01-15,2025-01-15,合同会社ノベスト,,合同会社,東京都,新宿区,西新宿３丁目３番１３号西新宿水間ビル２階,,13,104,1600023,,,,,,,2025-01-15,1,,,,,ノベスト,0
2110,8011105011295,新規,0,2025-01-15,2025-01-15,一般社団法人蒲田駅前,,その他の設立登記法人,東京都,新宿区,四谷２丁目９番地１５東京ユナイテッド綜合事務所内,,13,104,1600004,,,,,,,2025-01-15,1,,,,,カマタエキマエ,0
2112,8011401026682,新規,0,2025-01-15,2025-01-15,京華和韻実業株式会社,,株式会社,東京都,板橋区,南常盤台１丁目１６－１５嶋崎第二ビル４０４,00137643,13,119,1740072,,,,,,,2025-01-15,1,,,,,ケイカワインジツギョウ,0
2114,8011603004569,新規,0,2025-01-15,2025-01-15,合同会社ＩＳ,,合同会社,東京都,練馬区,豊玉北５丁目９番２１号ラペ練馬２０４,,13,120,1760012,,,,,,,2025-01-15,1,,,,,アイエス,0
2118,8011801045456,新規,0,2025-01-15,2025-01-15,ライムス株式会社,,株式会社,東京都,足立区,東綾瀬３丁目２番４号,,13,121,1200004,,,,,,,2025-01-15,1,,,,,ライムス,0
2122,8011803006638,新規,0,2025-01-15,2025-01-15,Ｈｃ商事合同会社,,合同会社,東京都,足立区,江北３丁目３０－１８,,13,121,1230872,,,,,,,2025-01-15,1,,,,,エッチシーショウジ,0
2123,8011803006646,新規,0,2025-01-15,2025-01-15,合同会社Ｐｌａｉｓｉｒ菊澤,,合同会社,東京都,足立区,中央本町２丁目３番１１号グリーンパーク五反野１０８,,13,121,1200011,,,,,,,2025-01-15,1,,,,,プレジールキクサワ,0
2126,8013103001393,新規,0,2025-01-15,2025-01-15,合同会社Ｓｏｌｕｎａ,,合同会社,東京都,青梅市,河辺町７丁目１１番地の５７,,13,205,1980036,,,,,,,2025-01-15,1,,,,,ソルナ,0
2131,8020001161039,新規,0,2025-01-15,2025-01-15,株式会社エンクリエイション,,株式会社,神奈川県,横浜市緑区,長津田６丁目１５番２７号,,14,113,2260027,,,,,,,2025-01-15,1,,,,,エンクリエイション,0
2138,8021001084072,新規,0,2025-01-15,2025-01-15,ＯＧＥ株式会社,,株式会社,神奈川県,高座郡寒川町,一之宮１丁目１７番２７―５号,,14,321,2530111,,,,,,,2025-01-15,1,,,,,オージーイー,0
2141,8021003015455,新規,0,2025-01-15,2025-01-15,合同会社ｓｙｎｖｉｅ,,合同会社,神奈川県,鎌倉市,大町４丁目１番８号,,14,204,2480007,,,,,,,2025-01-15,1,,,,,シンビー,0
2148,8030001164354,新規,0,2025-01-15,2025-01-15,株式会社アネスト不動産,,株式会社,埼玉県,大里郡寄居町,大字桜沢３７９番地３,,11,408,3691202,,,,,,,2025-01-15,1,,,,,アネストフドウサン,0
2149,8030001164379,新規,0,2025-01-15,2025-01-15,ＭＫ商事株式会社,,株式会社,埼玉県,草加市,瀬崎６丁目１５番２１号,,11,221,3400022,,,,,,,2025-01-15,1,,,,,エムケイショウジ,0
2153,8030003025884,新規,0,2025-01-15,2025-01-15,合同会社マネジメントコンサルティング,,合同会社,埼玉県,飯能市,茜台１丁目１番地９,,11,209,3570069,,,,,,,2025-01-15,1,,,,,マネジメントコンサルティング,0
2163,8040005022623,新規,0,2025-01-15,2025-01-15,医療法人社団翔暁会,,その他の設立登記法人,千葉県,千葉市中央区,松ケ丘町７３番地３,,12,101,2600807,,,,,,,2025-01-15,1,,,,,ショウギョウカイ,0
2169,8060003005388,新規,0,2025-01-15,2025-01-15,タリア合同会社,,合同会社,栃木県,足利市,常見町１丁目２６番１０号,,09,202,3260022,,,,,,,2025-01-15,1,,,,,タリア,0
2172,8070003005750,新規,0,2025-01-15,2025-01-15,合同会社将群,,合同会社,群馬県,渋川市,石原２０２番地６,,10,208,3770007,,,,,,,2025-01-15,1,,,,,ショウグン,0
2173,8080001026707,新規,0,2025-01-15,2025-01-15,株式会社老舗ホールディングスＮｏ．２,,株式会社,静岡県,静岡市葵区,安東１丁目２１番２６号,,22,101,4200882,,,,,,,2025-01-15,1,,,,,シニセホールディングスナンバーツー,0
2174,8080001026715,新規,0,2025-01-15,2025-01-15,ＷＩＴＨＤＯＭ　Ｓｈｉｚｕｏｋａ株式会社,,株式会社,静岡県,静岡市駿河区,中島２０３番地の１第二昌栄ビル３Ｆ,,22,102,4228046,,,,,,,2025-01-15,1,,,,,ウィズダムシズオカ,0
2190,8120001271645,新規,0,2025-01-15,2025-01-15,株式会社ＴｏｒｉｃｏＥｎｔｅｒｔａｉｎｍｅｎｔＰａｒｋ,,株式会社,大阪府,大阪市西区,新町３丁目５番７号永光ビル２階,,27,106,5500013,,,,,,,2025-01-15,1,,,,,トリコエンターテイメントパーク,0
2191,8120001271760,新規,0,2025-01-15,2025-01-15,株式会社濱工業,,株式会社,大阪府,大阪市平野区,喜連東２丁目３番６０－７０１号,,27,126,5470021,,,,,,,2025-01-15,1,,,,,ハマコウギョウ,0
2192,8120001271777,新規,0,2025-01-15,2025-01-15,株式会社Ｌｉｅｎ,,株式会社,大阪府,大阪市中央区,心斎橋筋１丁目５番３０号ジ・アトリウム１階,,27,128,5420085,,,,,,,2025-01-15,1,,,,,リアン,0
2193,8120001271802,新規,0,2025-01-15,2025-01-15,株式会社風炉式,,株式会社,大阪府,大阪市中央区,東心斎橋１丁目１３番１０号大宝共栄ビル３Ｆ,,27,128,5420083,,,,,,,2025-01-15,1,,,,,フロシキ,0
2194,8120001271843,新規,0,2025-01-15,2025-01-15,株式会社ＪＳＤ,,株式会社,大阪府,大阪市浪速区,日本橋西１丁目４番１９－４０１号,,27,111,5560004,,,,,,,2025-01-15,1,,,,,ジェイエスディー,0
2195,8120001271851,新規,0,2025-01-15,2025-01-15,株式会社Ｒｅｍｉｒ,,株式会社,大阪府,大阪市平野区,瓜破１丁目１１番２９号１階,,27,126,5470024,,,,,,,2025-01-15,1,,,,,リマイラ,0
2196,8120001271892,新規,0,2025-01-15,2025-01-15,株式会社メディカルウェルビーイング,,株式会社,大阪府,大阪市天王寺区,上本町７丁目１番１６－４０６号,,27,109,5430001,,,,,,,2025-01-15,1,,,,,メディカルウェルビーイング,0
2197,8120001271901,新規,0,2025-01-15,2025-01-15,Ｋ２工業株式会社,,株式会社,大阪府,大阪市住之江区,北島２丁目５番２６号,,27,125,5590014,,,,,,,2025-01-15,1,,,,,ケーツーコウギョウ,0
2205,8120003028325,新規,0,2025-01-15,2025-01-15,合同会社重石,,合同会社,大阪府,寝屋川市,本町１番２号,,27,215,5720832,,,,,,,2025-01-15,1,,,,,シゲイシ,0
2206,8120003028341,新規,0,2025-01-15,2025-01-15,アルケミー・アセッツ・ラボ合同会社,,合同会社,大阪府,大阪市港区,弁天１丁目２－１大阪ベイタワーオフィス１９階,,27,107,5520007,,,,,,,2025-01-15,1,,,,,アルケミーアセッツラボ,0
2226,8130003010133,新規,0,2025-01-15,2025-01-15,Ｓａｃｒａ　Ｆａｍｅｓ合同会社,,合同会社,京都府,京都市北区,小山下板倉町５５番地１,,26,101,6038124,,,,,,,2025-01-15,1,,,,,サクラフェイムズ,0
2231,8140001137027,新規,0,2025-01-15,2025-01-15,株式会社兵庫ビルダー,,株式会社,兵庫県,神戸市中央区,下山手通１丁目４番１１号三木ビル３階,,28,110,6500011,,,,,,,2025-01-15,1,,,,,ヒョウゴビルダー,0
2232,8140001137035,新規,0,2025-01-15,2025-01-15,ＳＥＡ　ＳＰＥＥＤ株式会社,,株式会社,兵庫県,神戸市東灘区,本山中町３丁目８番１４号コンフォール本山３０３号,,28,101,6580016,,,,,,,2025-01-15,1,,,,,シースピード,0
2233,8140001137043,新規,0,2025-01-15,2025-01-15,株式会社ＰＩＲＡＫＯ,,株式会社,兵庫県,神戸市中央区,東川崎町１丁目５番８－２０２号,,28,110,6500044,,,,,,,2025-01-15,1,,,,,ピラコ,0
2234,8140001137051,新規,0,2025-01-15,2025-01-15,株式会社建築工房なかい,,株式会社,兵庫県,丹波篠山市,西谷２９１番地１,,28,221,6692721,,,,,,,2025-01-15,1,,,,,ケンチクコウボウナカイ,0
2239,8140003021518,新規,0,2025-01-15,2025-01-15,合同会社久崎康晴創造研究室,00137647,合同会社,兵庫県,神戸市須磨区,菊池町２丁目２番１８号グリーンシャトー４０１,,28,107,6540008,,,,,,,2025-01-15,1,,,,,クザキヤスハルソウゾウケンキュウシツ,0
2240,8140005027348,新規,0,2025-01-15,2025-01-15,特定非営利活動法人美しくイキイキ１２０,,その他の設立登記法人,兵庫県,明石市,中朝霧丘４番２３号ライオンズマンション朝霧ヶ丘３０１号,,28,203,6730855,,,,,,,2025-01-15,1,,,,,ウツクシクイキイキヒャクニジュウ,0
2248,8180001164884,新規,0,2025-01-15,2025-01-15,東洋ステアーズ株式会社,,株式会社,愛知県,名古屋市中川区,中島新町４丁目６０７番地,,23,110,4540932,,,,,,,2025-01-15,1,,,,,トウヨウステアーズ,0
2249,8180001164918,新規,0,2025-01-15,2025-01-15,株式会社リビングサポート松,,株式会社,愛知県,豊明市,間米町唐竹３４２番地２５,,23,229,4701132,,,,,,,2025-01-15,1,,,,,リビングサポートマツ,0
2250,8180001164975,新規,0,2025-01-15,2025-01-15,株式会社ＳｅｌＲｅａｎ,,株式会社,愛知県,名古屋市中村区,鳥居通３丁目３９番地,,23,105,4530044,,,,,,,2025-01-15,1,,,,,セルリアン,0
2253,8180005020910,新規,0,2025-01-15,2025-01-15,医療法人はるかぜ,,その他の設立登記法人,愛知県,春日井市,南下原町４丁目９番地２,,23,206,4860841,,,,,,,2025-01-15,1,,,,,ハルカゼ,0
2254,8180301039431,新規,0,2025-01-15,2025-01-15,株式会社ＯＫＡＤＥＮ,,株式会社,愛知県,岡崎市,赤渋町字道本３番地４,,23,202,4440241,,,,,,,2025-01-15,1,,,,,オカデン,0
2256,8190001031943,新規,0,2025-01-15,2025-01-15,株式会社柴田ビル,,株式会社,三重県,四日市市,諏訪栄町１３番１号,,24,202,5100086,,,,,,,2025-01-15,1,,,,,シバタビル,0
2259,8210001020027,新規,0,2025-01-15,2025-01-15,株式会社ＲｉｃｈＭｏｍ,,株式会社,福井県,鯖江市,北野町２丁目１２番４号,,18,207,9160029,,,,,,,2025-01-15,1,,,,,リッチマム,0
2267,8240001064384,新規,0,2025-01-15,2025-01-15,株式会社ユニオンワーク,,株式会社,広島県,福山市,新涯町６丁目１１番１３号,,34,207,7210955,,,,,,,2025-01-15,1,,,,,ユニオンワーク,0
2268,8240001064392,新規,0,2025-01-15,2025-01-15,ライフスタイルアイテムラボ株式会社,,株式会社,広島県,広島市南区,翠４丁目９番１３号,,34,103,7340005,,,,,,,2025-01-15,1,,,,,ライフスタイルアイテムラボ,0
2269,8240005015879,新規,0,2025-01-15,2025-01-15,特定非営利活動法人ミュージック・ウェルビーイング,,その他の設立登記法人,広島県,広島市中区,東白島町２１－２－５０１,,34,101,7300004,,,,,,,2025-01-15,1,,,,,ミュージックウェルビーイング,0
2309,8300001014036,新規,0,2025-01-15,2025-01-15,ＦｏｏｄＳｔｏｃｋ株式会社,,株式会社,佐賀県,佐賀市,駅前中央１丁目８番３２号ｉスクエアビル５階,,41,201,8400801,,,,,,,2025-01-15,1,,,,,フードストック,0
2315,8330001032761,新規,0,2025-01-15,2025-01-15,株式会社だいふく,,株式会社,熊本県,熊本市中央区,十禅寺１丁目９番５号,,43,101,8600824,,,,,,,2025-01-15,1,,,,,ダイフク,0
2322,8350003004823,新規,0,2025-01-15,2025-01-15,合同会社大樹工業,,合同会社,宮崎県,宮崎市,恒久４丁目１１番地５,,45,201,8800913,,,,,,,2025-01-15,1,,,,,タイキコウギョウ,0
2327,8370001052120,新規,0,2025-01-15,2025-01-15,株式会社エムズネクスト,,株式会社,宮城県,白石市,上久保５番１９号,,04,206,9890244,,,,,,,2025-01-15,1,,,,,エムズネクスト,0
2331,8390005009098,新規,0,2025-01-15,2025-01-15,税理士法人アルクス,,その他の設立登記法人,山形県,山形市,錦町３番２０号須藤ビル２階,,06,201,9900056,,,,,,,2025-01-15,1,,,,,アルクス,0
2332,8410003004032,新規,0,2025-01-15,2025-01-15,合同会社Ｇ．Ｋ．ＷＡＫＩＭＯＴＯ,,合同会社,秋田県,秋田市,保戸野鉄砲町６番１３号,,05,201,0100913,,,,,,,2025-01-15,1,,,,,ジーケーワキモト,0
2335,8430003017172,新規,0,2025-01-15,2025-01-15,ＮＩＬＯＣＯ合同会社,,合同会社,北海道,虻田郡倶知安町,ニセコひらふ一条３丁目５番４１号,,01,400,0440080,,,,,,,2025-01-15,1,,,,,ニロコ,0
2336,8440001009550,新規,0,2025-01-15,2025-01-15,愛菓株式会社,,株式会社,北海道,函館市,本通２丁目７番２３号,,01,202,0410851,,,,,,,2025-01-15,1,,,,,アイカ,0
2342,8700150128265,新規,0,2025-01-15,2025-01-15,Ｙｏｌａｎｅｓｓ　Ｔｅｃｈｎｏｌｏｇｙ（ＨＫ）Ｃｏ．，Ｌｉｍｉｔｅｄ,,外国会社等,,,,,,,,ＦＬＡＴ／ＲＭ　Ａ　１２／Ｆ　ＺＪ　３００，３００　ＬＯＣＫＨＡＲＴ　ＲＤ　ＷＡＮ　ＣＨＡＩ　ＨＫ,,,,,,2025-01-15,1,,,,,ヨウノンコージーシヤンガンヨウシエンゴンスー,0
2351,9010001251161,新規,0,2025-01-15,2025-01-15,株式会社ＦＲＳアセットマネジメント,,株式会社,東京都,中央区,銀座７丁目１３番１５号,,13,102,1040061,,,,,,,2025-01-15,1,,,,,エフアールエスアセットマネジメント,0
2352,9010001251384,新規,0,2025-01-15,2025-01-15,株式会社キッピス,,株式会社,東京都,中央区,銀座１丁目１２番４号Ｎ＆ＥＢＬＤ．７階,,13,102,1040061,,,,,,,2025-01-15,1,,,,,キッピス,0
2353,9010001251467,新規,0,2025-01-15,2025-01-15,ＰａｎｄａＰａｒｔｙ株式会社,,株式会社,東京都,中央区,日本橋２丁目１番１７号丹生ビル２階,,13,102,1030027,,,,,,,2025-01-15,1,,,,,パンダパーティー,0
2354,9010001251475,新規,0,2025-01-15,2025-01-15,株式会社アンツインテリジェンス,,株式会社,東京都,千代田区,大手町１丁目７－２東京サンケイビル２７階,,13,101,1000004,,,,,,,2025-01-15,1,,,,,アンツインテリジェンス,0
2357,9010003046056,新規,0,2025-01-15,2025-01-15,日光Ｐｌｕｓ２３合同会社１,,合同会社,東京都,千代田区,丸の内１丁目４番１号東京共同会計事務所内,,13,101,1000005,,,,,,,2025-01-15,1,,,,,ニッコウプラスニジュウサンイチ,0
2358,9010003046064,新規,0,2025-01-15,2025-01-15,日光Ｐｌｕｓ２３合同会社９,,合同会社,東京都,千代田区,丸の内１丁目４番１号東京共同会計事務所内,,13,101,1000005,,,,,,,2025-01-15,1,,,,,ニッコウプラスニジュウサンキュー,0
2359,9010003046072,新規,0,2025-01-15,2025-01-15,日光Ｐｌｕｓ２３合同会社１８,,合同会社,東京都,千代田区,丸の内１丁目４番１号東京共同会計事務所内,,13,101,1000005,,,,,,,2025-01-15,1,,,,,ニッコウプラスニジュウサンイチハチ,0
2360,9010003046080,新規,0,2025-01-15,2025-01-15,合同会社ＬＯＧＩ　ＦＬＡＧ１１号,,合同会社,東京都,中央区,日本橋１丁目４番１号,,13,102,1030027,,,,,,,2025-01-15,1,,,,,ロジフラッグジュウイチゴウ,0
2371,9010401187427,新規,0,2025-01-15,2025-01-15,株式会社ＥＳＥＴ,,株式会社,東京都,港区,新橋５丁目１２番１１号天翔オフィス新橋５丁目,,13,103,1050004,,,,,,,2025-01-15,1,,,,,イーセット,0
2372,9010401187550,新規,0,2025-01-15,2025-01-15,株式会社ＸＥＶＥＮ,,株式会社,東京都,港区,麻布台１丁目１１番９号,,13,103,1060041,,,,,,,2025-01-15,1,,,,,セヴン,0
2376,9010405023925,新規,0,2025-01-15,2025-01-15,特定非営利活動法人安らぎ,,その他の設立登記法人,東京都,港区,港南２丁目１６番４号品川グランドセントラルタワー８Ｆ,,13,103,1080075,,,,,,,2025-01-15,1,,,,,ヤスラギ,0
2388,9010701047033,新規,0,2025-01-15,2025-01-15,株式会社ｂｌｏｓｓｏｍ,,株式会社,東京都,品川区,大井３丁目４－１Ｎｏ．１００９,,13,109,1400014,,,,,,,2025-01-15,1,,,,,ブロッサム,0
2389,9010701047099,新規,0,2025-01-15,2025-01-15,株式会社ドットスミス,,株式会社,東京都,品川区,西五反田８丁目９番１１号,,13,109,1410031,,,,,,,2025-01-15,1,,,,,ドットスミス,0
2391,9010803005236,新規,0,2025-01-15,2025-01-15,合同会社マッハ,,合同会社,東京都,大田区,蒲田４丁目３４番５号－３０６,,13,111,1440052,,,,,,,2025-01-15,1,,,,,マッハ,0
2392,9010901056610,新規,0,2025-01-15,2025-01-15,Ｓｃａｌｅ株式会社,,株式会社,東京都,世田谷区,代沢２丁目３－１１,,13,112,1550032,,,,,,,2025-01-15,1,,,,,スケール,0
2393,9010903009640,新規,0,2025-01-15,2025-01-15,合同会社丸田,,合同会社,東京都,世田谷区,宮坂１丁目３番２０号セレッソガーデン４０２,,13,112,1560051,,,,,,,2025-01-15,1,,,,,マルタ,0
2399,9011001166820,新規,0,2025-01-15,2025-01-15,株式会社ＭＮＭ,,株式会社,東京都,渋谷区,神南１丁目８－１８－９０７,,13,113,1500041,,,,,,,2025-01-15,1,,,,,,0
2400,9011001166878,新規,0,2025-01-15,2025-01-15,株式会社たっち,,株式会社,東京都,渋谷区,笹塚２丁目２９番４号,,13,113,1510073,,,,,,,2025-01-15,1,,,,,タッチ,0
2401,9011001167091,新規,0,2025-01-15,2025-01-15,Ｊ．Ｃ．Ｕｎｉｔｅ株式会社,,株式会社,東京都,目黒区,下目黒２丁目２３番２３－３０２号,,13,110,1530064,,,,,,,2025-01-15,1,,,,,ジェーシーユナイト,0
2402,9011001167125,新規,0,2025-01-15,2025-01-15,株式会社アイケアスマイル,,株式会社,東京都,目黒区,中目黒１丁目７番１１－４０４号,,13,110,1530061,,,,,,,2025-01-15,1,,,,,アイケアスマイル,0
2403,9011001167141,新規,0,2025-01-15,2025-01-15,株式会社ユニマットオーシャンウィング,,株式会社,東京都,渋谷区,上原２丁目１９番１４号,,13,113,1510064,,,,,,,2025-01-15,1,,,,,ユニマットオーシャンウィング,0
2404,9011003020752,新規,0,2025-01-15,2025-01-15,ボンテックス合同会社,,合同会社,東京都,渋谷区,道玄坂１丁目１０番８号渋谷道玄坂東急ビル２Ｆ―Ｃ,,13,113,1500043,,,,,,,2025-01-15,1,,,,,ボンテックス,0
2409,9011101110158,新規,0,2025-01-15,2025-01-15,ＮＳアセット株式会社,,株式会社,東京都,新宿区,西新宿６丁目１２番６号,,13,104,1600023,,,,,,,2025-01-15,1,,,,,エヌエスアセット,0
2410,9011101110208,新規,0,2025-01-15,2025-01-15,株式会社ダメダメ,,株式会社,東京都,新宿区,歌舞伎町１丁目４番１２号ナカヨシビルＢ１Ｆ,,13,104,1600021,,,,,,,2025-01-15,1,,,,,ダメダメ,0
2411,9011101110216,新規,0,2025-01-15,2025-01-15,株式会社ＴＯＣ,,株式会社,東京都,新宿区,西新宿３丁目３番１３号西新宿水間ビル２Ｆ,,13,104,1600023,,,,,,,2025-01-15,1,,,,,ティーオーシー,0
2412,9011101110257,新規,0,2025-01-15,2025-01-15,株式会社ミライデンタル大宮,,株式会社,東京都,新宿区,新宿５丁目１５－６－７０３,,13,104,1600022,,,,,,,2025-01-15,1,,,,,ミライデンタルオオミヤ,0
2413,9011103015388,新規,0,2025-01-15,2025-01-15,合同会社円陣,,合同会社,東京都,新宿区,西新宿６丁目５番１号新宿アイランドタワー２階,,13,104,1600023,,,,,,,2025-01-15,1,,,,,エンジン,0
2414,9011103015396,新規,0,2025-01-15,2025-01-15,ｇｒａｃｅｆｌｏｗ合同会社,,合同会社,東京都,新宿区,西新宿３丁目３番１３号西新宿水間ビル６階,,13,104,1600023,,,,,,,2025-01-15,1,,,,,グレイスフロー,0
2415,9011103015413,新規,0,2025-01-15,2025-01-15,タマトレーディング合同会社,,合同会社,東京都,新宿区,西新宿３丁目３番１３号西新宿水間ビル６階,,13,104,1600023,,,,,,,2025-01-15,1,,,,,タマトレーディング,0
2420,9011501031557,新規,0,2025-01-15,2025-01-15,株式会社Ｇｒｕｘｘ　Ｅｎｔｅｒｔａｉｎｍｅｎｔ,,株式会社,東京都,北区,赤羽１丁目７－９,,13,117,1150045,,,,,,,2025-01-15,1,,,,,グルークスエンターテインメント,0
2422,9011601028362,新規,0,2025-01-15,2025-01-15,株式会社ＷｉＬＬｓ,,株式会社,東京都,練馬区,北町１丁目２６番２号,,13,120,1790081,,,,,,,2025-01-15,1,,,,,ウィルズ,0
2423,9011605002628,新規,0,2025-01-15,2025-01-15,行政書士法人ＴＭＳ,,その他の設立登記法人,東京都,練馬区,氷川台４丁目４７番１８号,,13,120,1790084,,,,,,,2025-01-15,1,,,,,ティーエムエス,0
2428,9011801045439,新規,0,2025-01-15,2025-01-15,株式会社Ｂ．Ｌ．Ｋ,,株式会社,東京都,足立区,宮城１丁目９番１３号,,13,121,1200047,,,,,,,2025-01-15,1,,,,,ビーエルケー,0
2429,9011801045455,新規,0,2025-01-15,2025-01-15,株式会社Ａｉコーポレーション,,株式会社,東京都,足立区,綾瀬６丁目１番１１号,,13,121,1200005,,,,,,,2025-01-15,1,,,,,アイコーポレーション,0
2437,9020001160799,新規,0,2025-01-15,2025-01-15,株式会社ＡＲＫ,,株式会社,神奈川県,横浜市泉区,緑園３丁目３６番地７,,14,116,2450002,,,,,,,2025-01-15,1,,,,,アーク,0
2438,9020005016675,新規,0,2025-01-15,2025-01-15,一般社団法人チーム犬猫かわさき,,その他の設立登記法人,神奈川県,川崎市宮前区,犬蔵２丁目１３番６１－４０５号,,14,136,2160011,,,,,,,2025-01-15,1,,,,,チームイヌネコカワサキ,0
2440,9021001084220,新規,0,2025-01-15,2025-01-15,株式会社ＤｏｎｇｕｒｉＧｅｔ,,株式会社,神奈川県,逗子市,山の根３丁目１９－７,,14,208,2490002,,,,,,,2025-01-15,1,,,,,ドングリゲット,0
2442,9021003015454,新規,0,2025-01-15,2025-01-15,合同会社あかりんご助産院,,合同会社,神奈川県,相模原市南区,上鶴間本町４丁目１４番１８号,,14,153,2520318,,,,,,,2025-01-15,1,,,,,,0
2454,9030001164163,新規,0,2025-01-15,2025-01-15,株式会社ｇｒｅｅｎｇｒｅｅｎ,,株式会社,埼玉県,羽生市,大字下川崎１０４０番地１,,11,216,3480034,,,,,,,2025-01-15,1,,,,,グリーングリーン,0
2455,9030001164361,新規,0,2025-01-15,2025-01-15,ヨリタリサーチ株式会社,,株式会社,埼玉県,蓮田市,桜台１丁目３番７号,,11,238,3490113,,,,,,,2025-01-15,1,,,,,ヨリタリサーチ,0
2456,9030001164403,新規,0,2025-01-15,2025-01-15,株式会社ＩＮＤｉＦＵＬＬ,,株式会社,埼玉県,草加市,谷塚１丁目１６番１７号,,11,221,3400028,,,,,,,2025-01-15,1,,,,,インディフル,0
2462,9030003025818,新規,0,2025-01-15,2025-01-15,合同会社サカモト,,合同会社,埼玉県,深谷市,山崎６２８,,11,218,3690216,,,,,,,2025-01-15,1,,,,,サカモト,0
2463,9030003025859,新規,0,2025-01-15,2025-01-15,合同会社オルタナ,,合同会社,埼玉県,本庄市,前原１丁目６番６号,,11,211,3670047,,,,,,,2025-01-15,1,,,,,オルタナ,0
2464,9030003025883,新規,0,2025-01-15,2025-01-15,合同会社盟友堂,,合同会社,埼玉県,新座市,栄３丁目９番１２号,,11,230,3520014,,,,,,,2025-01-15,1,,,,,メイユウドウ,0
2468,9030005021996,新規,0,2025-01-15,2025-01-15,一般社団法人ソーラーセキュア共済,,その他の設立登記法人,埼玉県,越谷市,大字大泊８９番地,,11,222,3430044,,,,,,,2025-01-15,1,,,,,ソーラーセキュアキョウサイ,0
2475,9040001136979,新規,0,2025-01-15,2025-01-15,株式会社イケ,,株式会社,千葉県,船橋市,薬円台１丁目１８番６号,,12,204,2740077,,,,,,,2025-01-15,1,,,,,イケ,0
2477,9040003026542,新規,0,2025-01-15,2025-01-15,羽織屋合同会社,,合同会社,千葉県,印西市,木下南２丁目７番１８号,,12,231,2701328,,,,,,,2025-01-15,1,,,,,ハオリヤ,0
2478,9050003008928,新規,0,2025-01-15,2025-01-15,合同会社ＨＡＮＡＷＡ,,合同会社,茨城県,牛久市,ひたち野西３丁目３０番地１（４０２）,,08,219,3001206,,,,,,,2025-01-15,1,,,,,ハナワ,0
2482,9070001042530,新規,0,2025-01-15,2025-01-15,株式会社ｓａｋａｓ,,株式会社,群馬県,高崎市,九蔵町２４番地１,,10,202,3700058,,,,,,,2025-01-15,1,,,,,サカス,0
2485,9070005010343,新規,0,2025-01-15,2025-01-15,ＮＰＯ法人伊勢崎地域ねこじゃらし,,その他の設立登記法人,群馬県,伊勢崎市,田部井町１丁目８９１番地１２,,10,204,3792222,,,,,,,2025-01-15,1,,,,,イセサキチイキネコジャラシ,0
2490,9110003005638,新規,0,2025-01-15,2025-01-15,ケイトレイド合同会社,,合同会社,新潟県,西蒲原郡弥彦村,大字観音寺７０－９,,15,342,9590319,,,,,,,2025-01-15,1,,,,,ケイトレイド,0
2492,9110005017169,新規,0,2025-01-15,2025-01-15,社会保険労務士法人新潟県労働保険協会,,その他の設立登記法人,新潟県,新潟市中央区,万代２丁目４番１６号カーサ万代５０２号,,15,103,9500088,,,,,,,2025-01-15,1,,,,,ニイガタケンロウドウホケンキョウカイ,0
2504,9120001271545,新規,0,2025-01-15,2025-01-15,株式会社Ｖａｎｔｏｒａ,,株式会社,大阪府,大阪市北区,梅田２丁目２番２号ヒルトンプラザウエストオフィスタワー１９階,,27,127,5300001,,,,,,,2025-01-15,1,,,,,ヴァントラ,0
2506,9120001271693,新規,0,2025-01-15,2025-01-15,株式会社ＭＹＴ,,株式会社,大阪府,大阪市中央区,東心斎橋２丁目５－３１月虎５１番館３０３,,27,128,5420083,,,,,,,2025-01-15,1,,,,,エムワイティー,0
2507,9120001271776,新規,0,2025-01-15,2025-01-15,株式会社ＩＫＥＺＡＫＩ,,株式会社,大阪府,大阪市北区,本庄東１丁目６番２１号６Ｆ,,27,127,5310074,,,,,,,2025-01-15,1,,,,,イケザキ,0
2508,9120001271784,新規,0,2025-01-15,2025-01-15,株式会社カーフレッシュ関西,,株式会社,大阪府,大阪市都島区,高倉町２丁目２番８号,,27,102,5340011,,,,,,,2025-01-15,1,,,,,カーフレッシュカンサイ,0
2509,9120001271834,新規,0,2025-01-15,2025-01-15,のぞみパートナーズ株式会社,,株式会社,大阪府,枚方市,長尾台２丁目２５番１１号,,27,210,5730106,,,,,,,2025-01-15,1,,,,,ノゾミパートナーズ,0
2510,9120001271859,新規,0,2025-01-15,2025-01-15,株式会社ＯＬＩＶＥ,,株式会社,大阪府,大阪市北区,大淀中２丁目６番１７－１１０３号,,27,127,5310076,,,,,,,2025-01-15,1,,,,,オリーブ,0
2514,9120003028332,新規,0,2025-01-15,2025-01-15,三和ビジネスサービス合同会社,,合同会社,大阪府,大阪市港区,弁天３丁目１０番２０－９号,,27,107,5520007,,,,,,,2025-01-15,1,,,,,サンワビジネスサービス,0
2515,9120003028340,新規,0,2025-01-15,2025-01-15,思卓創意合同会社,,合同会社,大阪府,大阪市東住吉区,西今川２丁目７－２ＩＭ西今川４０３号室,,27,121,5460042,,,,,,,2025-01-15,1,,,,,シタクソウイ,0
2519,9122001038783,新規,0,2025-01-15,2025-01-15,株式会社ＲＥＡＬＯ,,株式会社,大阪府,東大阪市,瓢箪山町４番２４号,,27,227,5798051,,,,,,,2025-01-15,1,,,,,リアロ,0
2522,9130001078725,新規,0,2025-01-15,2025-01-15,株式会社ＳＧ,,株式会社,京都府,京都市下京区,貞安前之町６１４－５５－９０６,,26,106,6008031,,,,,,,2025-01-15,1,,,,,エスジー,0
2523,9130005017266,新規,0,2025-01-15,2025-01-15,弁護士法人市田総合法律事務所,,その他の設立登記法人,京都府,京都市下京区,月鉾町６３月鉾町ビル７階,,26,106,6008492,,,,,,,2025-01-15,1,,,,,イチダソウゴウホウリツジムショ,0
2527,9140001136952,新規,0,2025-01-15,2025-01-15,ＡｓｔｒａＨｅａｌｔｈＣａｒｅ４．０株式会社,,株式会社,兵庫県,神戸市中央区,東川崎町１丁目５番８－１２０６号,,28,110,6500044,,,,,,,2025-01-15,1,,,,,アストラヘルスケアフォー,0
2528,9140001137026,新規,0,2025-01-15,2025-01-15,株式会社ソラノトリ,,株式会社,兵庫県,神戸市東灘区,西岡本１丁目１４番２３－６０１号,,28,101,6580073,,,,,,,2025-01-15,1,,,,,ソラノトリ,0
2529,9140001137050,新規,0,2025-01-15,2025-01-15,株式会社ＨＩＺＵＭＥ,,株式会社,兵庫県,姫路市,書写台３丁目１４９番地６,,28,201,6712203,,,,,,,2025-01-15,1,,,,,ヒズメ,0
2533,9150005009658,新規,0,2025-01-15,2025-01-15,一般社団法人Ｊｏｇａｔｏｒｏ,,その他の設立登記法人,奈良県,生駒市,俵口町９７７番地５,,29,209,6300243,,,,,,,2025-01-15,1,,,,,ジョガトロ,0
2535,9160001026466,新規,0,2025-01-15,2025-01-15,株式会社ＰＬＣ,,株式会社,滋賀県,大津市,下阪本２丁目３番８号,,25,201,5200105,,,,,,,2025-01-15,1,,,,,ピーエルシー,0
2539,9180001164891,新規,0,2025-01-15,2025-01-15,尾張いとう株式会社,,株式会社,愛知県,小牧市,大字大草５７７８番地１７,,23,219,4850802,,,,,,,2025-01-15,1,,,,,オワリイトウ,0
2545,9180301039430,新規,0,2025-01-15,2025-01-15,株式会社親星工業,,株式会社,愛知県,岡崎市,福岡町字下高須１７番地６,,23,202,4440825,,,,,,,2025-01-15,1,,,,,シンセイコウギョウ,0
2552,9240003007019,新規,0,2025-01-15,2025-01-15,合同会社Ｍａｒ　Ａｚｕｌ,,合同会社,広島県,福山市,御門町１丁目１番２８号,,34,207,7200805,,,,,,,2025-01-15,1,,,,,マルアズール,0
2581,9290001108581,新規,0,2025-01-15,2025-01-15,株式会社ユニオンテック,,株式会社,福岡県,福岡市東区,唐原７丁目１７番２４号,,40,131,8130001,,,,,,,2025-01-15,1,,,,,ユニオンテック,0
2582,9290001108615,新規,0,2025-01-15,2025-01-15,株式会社ブリリアスインクルーシブサポート,,株式会社,福岡県,福岡市東区,箱崎５丁目１０番１４号,,40,131,8120053,,,,,,,2025-01-15,1,,,,,ブリリアスインクルーシブサポート,0
2583,9290001108664,新規,0,2025-01-15,2025-01-15,株式会社ギフト,,株式会社,福岡県,福岡市西区,室見が丘３丁目１９番５号,,40,135,8190030,,,,,,,2025-01-15,1,,,,,ギフト,0
2596,9290003016295,新規,0,2025-01-15,2025-01-15,合同会社ｐａｉｍｅｎ,,合同会社,福岡県,福岡市城南区,松山２丁目２番１４－１０３号ユウミィ金山駅前Ｅ棟,,40,136,8140131,,,,,,,2025-01-15,1,,,,,パイメン,0
2600,9290801031173,新規,0,2025-01-15,2025-01-15,株式会社ＳＴＣ,,株式会社,福岡県,田川郡大任町,大字今任原２９８０番地４つばき団地１２号,,40,608,8240511,,,,,,,2025-01-15,1,,,,,エスティーシー,0
2610,9330003010731,新規,0,2025-01-15,2025-01-15,合同会社光の杜,,合同会社,熊本県,合志市,幾久富１６５６番地４２７サンハイムＢ１０２号室,,43,216,8611112,,,,,,,2025-01-15,1,,,,,ヒカリノモリ,0
2613,9340003004716,新規,0,2025-01-15,2025-01-15,合同会社ＫＫＫ,,合同会社,鹿児島県,鹿児島市,星ヶ峯５丁目３４番８号,,46,201,8910102,,,,,,,2025-01-15,1,,,,,ケーケーケー,0
2618,9370001052128,新規,0,2025-01-15,2025-01-15,株式会社エイト,,株式会社,宮城県,仙台市青葉区,国見３丁目５番１８－１１０号,,04,101,9810943,,,,,,,2025-01-15,1,,,,,エイト,0
2619,9370003006890,新規,0,2025-01-15,2025-01-15,鳥屋館８ａｍｂｏｏ合同会社,,合同会社,宮城県,伊具郡丸森町,舘矢間舘山字長内１７－５,,04,341,9812102,,,,,,,2025-01-15,1,,,,,トヤダテバンブー,0
2620,9370005010890,新規,0,2025-01-15,2025-01-15,一般社団法人日本オンラインダイエット協会,,その他の設立登記法人,宮城県,石巻市,あけぼの３丁目１５番地８,,04,202,9860862,,,,,,,2025-01-15,1,,,,,ニホンオンラインダイエットキョウカイ,0
2622,9380005012911,新規,0,2025-01-15,2025-01-15,一般社団法人福島県クレー射撃協会,,その他の設立登記法人,福島県,郡山市,本町２丁目２２番１２号,,07,203,9638871,,,,,,,2025-01-15,1,,,,,フクシマケンクレーシャゲキキョウカイ,0
2627,9410005006620,新規,0,2025-01-15,2025-01-15,一般社団法人在宅オンライン医療センター,,その他の設立登記法人,秋田県,横手市,前郷二番町７番８号,,05,203,0130037,,,,,,,2025-01-15,1,,,,,ザイタクオンラインイリョウセンター,0
2632,9430001093470,新規,0,2025-01-15,2025-01-15,東方明珠株式会社,,株式会社,北海道,札幌市西区,西野二条５丁目４番１０号,,01,107,0630032,,,,,,,2025-01-15,1,,,,,トウホウメイジュ,0
2634,9470001020537,新規,0,2025-01-15,2025-01-15,株式会社あかりファクトリー,,株式会社,香川県,三豊市,豊中町下高野４１１番地,,37,208,7691508,,,,,,,2025-01-15,1,,,,,アカリファクトリー,0
2635,9470003002789,新規,0,2025-01-15,2025-01-15,ＳＬＰＣ合同会社,,合同会社,香川県,高松市,円座町１６３５番地６,,37,201,7618044,,,,,,,2025-01-15,1,,,,,エスエルピーシー,0
2636,9480001012707,新規,0,2025-01-15,2025-01-15,株式会社ＴＰＣ東南,,株式会社,徳島県,徳島市,論田町大江２３番地６,,36,201,7708011,,,,,,,2025-01-15,1,,,,,テーピーシートウナン,0
