sequenceNumber,corporateNumber,process,correct,updateDate,changeDate,name,nameImageId,kind,prefectureName,cityName,streetNumber,addressImageId,prefectureCode,cityCode,postCode,addressOutside,addressOutsideImageId,closeDate,closeCause,successorCorporateNumber,changeCause,assignmentDate,latest,enName,enPrefectureName,enCityName,enAddressOutside,furigana,hihyoji
13,1010001245443,新規,0,2024-06-28,2024-06-28,株式会社大将,,株式会社,東京都,大島町,元町１丁目９番８号,,13,361,1000101,,,,,,,2024-06-28,1,,,,,タイショウ,0
14,1010001246094,新規,0,2024-06-28,2024-06-28,ＭＳ銀座珈琲株式会社,,株式会社,東京都,中央区,銀座３丁目１３番６号,,13,102,1040061,,,,,,,2024-06-28,1,,,,,エムエスギンザコーヒー,0
15,1010001246103,新規,0,2024-06-28,2024-06-28,株式会社ＳＫＴマネジメント,,株式会社,東京都,千代田区,九段南４丁目８番８－１４０１号,,13,101,1020074,,,,,,,2024-06-28,1,,,,,エスケイティマネジメント,0
18,1010003044133,新規,0,2024-06-28,2024-06-28,合同会社石垣宮良,,合同会社,東京都,中央区,八丁堀４丁目２番１０号ＡＯＪ税理士法人内,,13,102,1040032,,,,,,,2024-06-28,1,,,,,イシガキミヤラ,0
19,1010003044174,新規,0,2024-06-28,2024-06-28,合同会社ミナト,,合同会社,東京都,中央区,銀座１丁目１２－４－Ｎ＆Ｅ－ＢＬＤ．７階,,13,102,1040061,,,,,,,2024-06-28,1,,,,,ミナト,0
25,1010401183350,新規,0,2024-06-28,2024-06-28,ＣＥＯ　Ｘ株式会社,,株式会社,東京都,港区,麻布十番２丁目２０番７号,,13,103,1060045,,,,,,,2024-06-28,1,,,,,シーイーオーエックス,0
26,1010401183391,新規,0,2024-06-28,2024-06-28,株式会社ＣＣ　Ｈｏｌｄｉｎｇｓ,,株式会社,東京都,港区,六本木７丁目１４番２３号クロスオフィス六本木４２７号室,,13,103,1060032,,,,,,,2024-06-28,1,,,,,シーシーホールディングス,0
27,1010401183425,新規,0,2024-06-28,2024-06-28,株式会社ＴＣＳ,,株式会社,東京都,港区,芝浦４丁目１９番１芝浦アイランドケープタワー３２０９号,,13,103,1080023,,,,,,,2024-06-28,1,,,,,ティーシーエス,0
29,1010405023370,新規,0,2024-06-28,2024-06-28,Ａ４ＪＰ　Ｍｉｎａｍｉ　Ａｏｙａｍａ一般社団法人,,その他の設立登記法人,東京都,港区,六本木１丁目６番１号泉ガーデンタワー１２階,,13,103,1060032,,,,,,,2024-06-28,1,,,,,エーフォージェイピーミナミアオヤマ,0
32,1010701046199,新規,0,2024-06-28,2024-06-28,株式会社ＳＴＯＮＥ貿易,,株式会社,東京都,品川区,東大井２丁目２３番１号名人亭ビル２階,,13,109,1400011,,,,,,,2024-06-28,1,,,,,ストーンボウエキ,0
37,1011001163024,新規,0,2024-06-28,2024-06-28,株式会社ｐｒｏｐａｇｅ,,株式会社,東京都,渋谷区,桜丘町２３番１７号シティコート桜丘４０８,,13,113,1500031,,,,,,,2024-06-28,1,,,,,プロページ,0
42,1011103014612,新規,0,2024-06-28,2024-06-28,ノースサイドジャパン合同会社,,合同会社,東京都,新宿区,西新宿６丁目２０番７号,,13,104,1600023,,,,,,,2024-06-28,1,,,,,ノースサイドジャパン,0
43,1011303005221,新規,0,2024-06-28,2024-06-28,合同会社ノースランド,,合同会社,東京都,杉並区,永福２丁目５３番１５号ユニゾンプレイス永福１０１,,13,115,1680064,,,,,,,2024-06-28,1,,,,,ノースランド,0
45,1011403004429,新規,0,2024-06-28,2024-06-28,柿の木商会合同会社,,合同会社,東京都,板橋区,熊野町３９－１,,13,119,1730025,,,,,,,2024-06-28,1,,,,,カキノキショウカイ,0
51,1011701027420,新規,0,2024-06-28,2024-06-28,青柳電設株式会社,,株式会社,東京都,江戸川区,江戸川６丁目１０番地４７,,13,123,1340013,,,,,,,2024-06-28,1,,,,,アオヤギデンセツ,0
53,1011703003849,新規,0,2024-06-28,2024-06-28,ヨイコト合同会社,,合同会社,東京都,江戸川区,西葛西４丁目３番３－８１２号,,13,123,1340088,,,,,,,2024-06-28,1,,,,,ヨイコト,0
57,1012801023284,新規,0,2024-06-28,2024-06-28,株式会社サイドロール,,株式会社,東京都,日野市,程久保２丁目５番地の５,,13,212,1910042,,,,,,,2024-06-28,1,,,,,サイドロール,0
64,1020001157910,新規,0,2024-06-28,2024-06-28,安与ビルド株式会社,,株式会社,神奈川県,川崎市麻生区,細山５丁目４番５号,,14,137,2150001,,,,,,,2024-06-28,1,,,,,ヤスヨビルド,0
74,1020003026188,新規,0,2024-06-28,2024-06-28,合同会社ポラリス,,合同会社,神奈川県,横浜市神奈川区,栄町２－５ビルドＭＭ３三階,,14,102,2210052,,,,,,,2024-06-28,1,,,,,ポラリス,0
88,1030001161119,新規,0,2024-06-28,2024-06-28,ＴＮフォークリフト株式会社,,株式会社,埼玉県,吉川市,大字平沼４８－１８,,11,243,3420056,,,,,,,2024-06-28,1,,,,,ティーエヌフォークリフト,0
89,1030001161151,新規,0,2024-06-28,2024-06-28,株式会社水鶴,,株式会社,埼玉県,川越市,豊田町１丁目２０－２,,11,201,3501110,,,,,,,2024-06-28,1,,,,,ミズツル,0
90,1030001161192,新規,0,2024-06-28,2024-06-28,株式会社あおい,,株式会社,埼玉県,朝霞市,栄町３丁目２番１－４階,,11,227,3510012,,,,,,,2024-06-28,1,,,,,アオイ,0
93,1030003024612,新規,0,2024-06-28,2024-06-28,おおきなかぶ合同会社,,合同会社,埼玉県,さいたま市桜区,中島３丁目７－１１,,11,106,3380822,,,,,,,2024-06-28,1,,,,,オオキナカブ,0
105,1040001134255,新規,0,2024-06-28,2024-06-28,株式会社東開エクスプレス,,株式会社,千葉県,富里市,立沢９１８番地１０,,12,233,2860214,,,,,,,2024-06-28,1,,,,,トウカイエクスプレス,0
112,1050001054997,新規,0,2024-06-28,2024-06-28,株式会社ＳＴＫ,,株式会社,茨城県,つくば市,上横場２５３番地１ＭＩビル２Ｂ,,08,220,3050854,,,,,,,2024-06-28,1,,,,,エスティーケー,0
113,1050001055005,新規,0,2024-06-28,2024-06-28,ＫＨＡＬＩＤ　ＴＲＡＤＩＮＧ株式会社,,株式会社,茨城県,筑西市,藤ケ谷２０９１番地,,08,227,3080112,,,,,,,2024-06-28,1,,,,,カリドトレーディング,0
114,1050001055013,新規,0,2024-06-28,2024-06-28,株式会社中田屋,,株式会社,茨城県,ひたちなか市,松戸町１丁目１－１３ゆうこうビル１０１,,08,221,3120016,,,,,,,2024-06-28,1,,,,,ナカタヤ,0
120,1080401027278,新規,0,2024-06-28,2024-06-28,株式会社Ｂｕｂｂｌｅ＆Ｆｌｏｗ,,株式会社,静岡県,浜松市中央区,城北３丁目５番１号,,22,138,4328011,,,,,,,2024-06-28,1,,,,,バブルアンドフロー,0
133,1120001266214,新規,0,2024-06-28,2024-06-28,株式会社ａｄｖａｎｔａｇｅ,,株式会社,大阪府,大阪市城東区,蒲生４丁目７番１３号,,27,118,5360016,,,,,,,2024-06-28,1,,,,,アドバンテージ,0
134,1120001266263,新規,0,2024-06-28,2024-06-28,株式会社Ｇｉｆｔホールディング,,株式会社,大阪府,大阪市大正区,泉尾１丁目１６番１号２１５号室,,27,108,5510031,,,,,,,2024-06-28,1,,,,,ギフトホールディング,0
135,1120001266271,新規,0,2024-06-28,2024-06-28,株式会社Ｍｅｄｉｃａｌ　Ｌｉｎｅ　Ｐｌｕｓ,,株式会社,大阪府,大阪市中央区,船場中央１丁目３番２－１０１号大阪デザインセンター内,,27,128,5410055,,,,,,,2024-06-28,1,,,,,メディカルラインプラス,0
136,1120001266338,新規,0,2024-06-28,2024-06-28,株式会社アシード,,株式会社,大阪府,大阪市淀川区,木川東４丁目２－２－３Ｆ,,27,123,5320012,,,,,,,2024-06-28,1,,,,,アシード,0
144,1130001077354,新規,0,2024-06-28,2024-06-28,株式会社西田清掃,,株式会社,京都府,綴喜郡井手町,大字井手小字野神１番地の３,,26,343,6100302,,,,,,,2024-06-28,1,,,,,ニシダセイソウ,0
154,1160001026028,新規,0,2024-06-28,2024-06-28,株式会社Ｋ．Ｉ工業,,株式会社,滋賀県,大津市,秋葉台１５番３３号,,25,201,5200822,,,,,,,2024-06-28,1,,,,,ケーアイコウギョウ,0
163,1180001162143,新規,0,2024-06-28,2024-06-28,ドンキホーム株式会社,,株式会社,愛知県,小牧市,久保一色南２丁目３２５番地,,23,219,4850007,,,,,,,2024-06-28,1,,,,,ドンキホーム,0
164,1180001162184,新規,0,2024-06-28,2024-06-28,株式会社ｓｐｉｎｏ,,株式会社,愛知県,名古屋市中村区,名駅４丁目２４番５号第２森ビル４０１,,23,105,4500002,,,,,,,2024-06-28,1,,,,,スピノ,0
169,1180301038778,新規,0,2024-06-28,2024-06-28,株式会社田嶋防水,,株式会社,愛知県,豊川市,諏訪西町２丁目６４番地,,23,207,4420069,,,,,,,2024-06-28,1,,,,,タジマボウスイ,0
171,1180303006163,新規,0,2024-06-28,2024-06-28,合同会社ＤＡＩ　ＤＵＯＮＧ,,合同会社,愛知県,西尾市,城崎町１丁目７３番地,,23,213,4450065,,,,,,,2024-06-28,1,,,,,ダイユン,0
174,1200001042631,新規,0,2024-06-28,2024-06-28,株式会社ステップ・ワン,,株式会社,岐阜県,各務原市,那加長塚町１丁目１５１番地,00135355,21,213,5040046,,,,,,,2024-06-28,1,,,,,ステップワン,0
177,1200003006403,新規,0,2024-06-28,2024-06-28,アイリアルティ合同会社,,合同会社,岐阜県,岐阜市,三田洞４４８番地３１,,21,201,5020004,,,,,,,2024-06-28,1,,,,,アイリアルティ,0
184,1240001063418,新規,0,2024-06-28,2024-06-28,Ｎｏｔ　Ｎｏｒｍａｌ株式会社,,株式会社,広島県,福山市,元町１３－１８フロリダビル４階,,34,207,7200063,,,,,,,2024-06-28,1,,,,,ノットノーマル,0
185,1240002047097,新規,0,2024-06-28,2024-06-28,有限会社中央マーケット,,有限会社,広島県,府中市,府中町６６７番地の２,,34,208,7260005,,,,,,,2024-06-28,1,,,,,,0
189,1290001106312,新規,0,2024-06-28,2024-06-28,株式会社ハシゲン,,株式会社,福岡県,福岡市南区,屋形原３丁目４番１８号,,40,134,8111351,,,,,,,2024-06-28,1,,,,,ハシゲン,0
190,1290001106329,新規,0,2024-06-28,2024-06-28,株式会社Ｋａｊａ,,株式会社,福岡県,福岡市博多区,博多駅前１丁目２３番２号ＰａｒｋＦｒｏｎｔ博多駅前１丁目５Ｆ－Ｂ,,40,132,8120011,,,,,,,2024-06-28,1,,,,,カジャ,0
193,1340001026604,新規,0,2024-06-28,2024-06-28,兆永株式会社,,株式会社,鹿児島県,霧島市,国分松木町４１－２５,,46,218,8994325,,,,,,,2024-06-28,1,,,,,チョウエイ,0
202,1380001034636,新規,0,2024-06-28,2024-06-28,株式会社ライズテック,,株式会社,福島県,会津若松市,河東町金田字駒板７３番地,,07,202,9693462,,,,,,,2024-06-28,1,,,,,ライズテック,0
223,1700150126275,新規,0,2024-06-28,2024-06-28,Ｓｈｅｎｚｈｅｎｓｈｉｊｉｅｚｉｊｕｅｋｅｊｉｙｏｕｘｉａｎｇｏｎｇｓｉ,,外国会社等,,,,,,,,９Ｂ，Ｕｎｉｔ　１，Ｂｕｉｌｄｉｎｇ　３４，Ｃｈｕｎｈｕａ　Ｆｏｕｒ　Ｓｅａｓｏｎｓ　Ｇａｒｄｅｎ，Ｍｉｎｚｈｉ　Ｃｏｍｍｕｎｉｔｙ，Ｍｉｎｚｈｉ　Ｓｔｒｅｅｔ，Ｌｏｎｇｈｕａ　Ｄｉｓｔｒｉｃｔ，Ｓｈｅｎｚｈｅｎ，５１８０００　Ｃｈｉｎａ,,,,,,2024-06-28,1,,,,,シンセンシジエズジュエカギユウゲンコウシ,0
225,2010001246119,新規,0,2024-06-28,2024-06-28,株式会社トラプオリティ,,株式会社,東京都,中央区,日本橋蛎殻町１丁目１４番１１号,,13,102,1030014,,,,,,,2024-06-28,1,,,,,トラプオリティ,0
226,2010003044157,新規,0,2024-06-28,2024-06-28,合同会社ａｔｏｍ,,合同会社,東京都,文京区,千駄木５丁目３７番８号Ｋ‘Ｓフラット２０２,,13,105,1130022,,,,,,,2024-06-28,1,,,,,アトム,0
227,2010003044173,新規,0,2024-06-28,2024-06-28,バリタス合同会社,,合同会社,東京都,中央区,銀座１丁目２２番１１号銀座大竹ビジデンス２Ｆ,,13,102,1040061,,,,,,,2024-06-28,1,,,,,バリタス,0
228,2010103002378,新規,0,2024-06-28,2024-06-28,合同会社グッドマイスター,,合同会社,東京都,八王子市,川口町２００８番地１、１Ｆ,,13,201,1930801,,,,,,,2024-06-28,1,,,,,グッドマイスター,0
238,2010401183399,新規,0,2024-06-28,2024-06-28,Ｔｒａｄｉｖａｎｃｅ株式会社,,株式会社,東京都,港区,白金４丁目２番５号ジロセッテ白金５０２,,13,103,1080072,,,,,,,2024-06-28,1,,,,,トラディバンス,0
239,2010401183416,新規,0,2024-06-28,2024-06-28,株式会社セブン,,株式会社,東京都,港区,浜松町２丁目２番１５号浜松町ダイヤビル２Ｆ,,13,103,1050013,,,,,,,2024-06-28,1,,,,,セブン,0
240,2010401183449,新規,0,2024-06-28,2024-06-28,株式会社Ｆｅｌｌｏｗｓｈｉｐ　Ａｂｒｏａｄ,,株式会社,東京都,港区,南青山３丁目８番４０号青山センタービル２０４,,13,103,1070062,,,,,,,2024-06-28,1,,,,,フェローシップアブロード,0
242,2010403032918,新規,0,2024-06-28,2024-06-28,合同会社ココカラ,,合同会社,東京都,港区,芝５丁目１６－１４三田ノックスビル３Ｆ・４Ｆ,,13,103,1080014,,,,,,,2024-06-28,1,,,,,ココカラ,0
244,2010501052470,新規,0,2024-06-28,2024-06-28,盛美日本株式会社,,株式会社,東京都,台東区,千束２丁目３０番７号マンションＫ２,,13,106,1110031,,,,,,,2024-06-28,1,,,,,セイビニホン,0
245,2010501052520,新規,0,2024-06-28,2024-06-28,環通国際株式会社,,株式会社,東京都,台東区,上野３丁目１６－２－３１２号室,,13,106,1100005,,,,,,,2024-06-28,1,,,,,カンツウコクサイ,0
249,2010601065455,新規,0,2024-06-28,2024-06-28,株式会社Ｇｒｏｗ,,株式会社,東京都,江東区,亀戸３丁目２番１１号ライオンズマンション亀戸第６－１０１,,13,108,1360071,,,,,,,2024-06-28,1,,,,,グロー,0
253,2010701046198,新規,0,2024-06-28,2024-06-28,株式会社ビーチェ,,株式会社,東京都,品川区,東五反田５丁目２２番３９号第一山崎ビル三階,,13,109,1410022,,,,,,,2024-06-28,1,,,,,ビーチェ,0
257,2010801035183,新規,0,2024-06-28,2024-06-28,株式会社コネクト,,株式会社,東京都,大田区,矢口２丁目２８番１５号ＹＯＳＨＩＤＡ・Ｂ．Ｌ．Ｄ．１０１,,13,111,1460093,,,,,,,2024-06-28,1,,,,,コネクト,0
264,2011001162883,新規,0,2024-06-28,2024-06-28,株式会社Ｃｈｅｃｋ　Ｍｅ　Ｎｏｗ,,株式会社,東京都,渋谷区,千駄ヶ谷３丁目５番８号,,13,113,1510051,,,,,,,2024-06-28,1,,,,,チェックミーナウ,0
265,2011001163031,新規,0,2024-06-28,2024-06-28,株式会社ｉ．,,株式会社,東京都,渋谷区,円山町５－１８道玄坂スクエア５０３,,13,113,1500044,,,,,,,2024-06-28,1,,,,,アイドット,0
272,2011103014603,新規,0,2024-06-28,2024-06-28,合同会社Ｓｗｏｒｄ,,合同会社,東京都,新宿区,歌舞伎町２丁目９番１号,,13,104,1600021,,,,,,,2024-06-28,1,,,,,ソード,0
285,2020001157892,新規,0,2024-06-28,2024-06-28,株式会社サザンメディカル,,株式会社,神奈川県,横浜市青葉区,奈良１丁目３番地３,,14,117,2270038,,,,,,,2024-06-28,1,,,,,サザンメディカル,0
286,2020001157901,新規,0,2024-06-28,2024-06-28,株式会社Ｌａｕｇｈｉｎ．,,株式会社,神奈川県,横浜市戸塚区,秋葉町１４７番地,,14,110,2450052,,,,,,,2024-06-28,1,,,,,ラフィン,0
289,2020003026410,新規,0,2024-06-28,2024-06-28,合同会社ユニコーン,,合同会社,神奈川県,川崎市中原区,木月１丁目３２番３号内田マンション２０１,,14,133,2110025,,,,,,,2024-06-28,1,,,,,ユニコーン,0
290,2020003026419,新規,0,2024-06-28,2024-06-28,合同会社イッキ,,合同会社,神奈川県,横浜市戸塚区,下倉田町１８７７番地７コスモ戸塚パークスクエア５０９号,,14,110,2440815,,,,,,,2024-06-28,1,,,,,イッキ,0
299,2030001161142,新規,0,2024-06-28,2024-06-28,Ａｔｏｓ　ＨＤ株式会社,,株式会社,埼玉県,加須市,琴寄１１５番地２,,11,210,3491133,,,,,,,2024-06-28,1,,,,,アトスホールディングス,0
300,2030001161191,新規,0,2024-06-28,2024-06-28,強盛商事株式会社,,株式会社,埼玉県,戸田市,喜沢１丁目３２番７号,,11,224,3350013,,,,,,,2024-06-28,1,,,,,キョウセイショウジ,0
305,2040001134238,新規,0,2024-06-28,2024-06-28,株式会社クロダ管理,,株式会社,千葉県,浦安市,高洲４丁目３番１－３３５号プラウド新浦安,,12,227,2790023,,,,,,,2024-06-28,1,,,,,クロダカンリ,0
306,2040001134262,新規,0,2024-06-28,2024-06-28,株式会社トミサト,,株式会社,千葉県,船橋市,緑台２丁目９番２－５０４号,,12,204,2740818,,,,,,,2024-06-28,1,,,,,トミサト,0
310,2040003025294,新規,0,2024-06-28,2024-06-28,合同会社小島堂,,合同会社,千葉県,四街道市,大日８６３番地２,,12,228,2840001,,,,,,,2024-06-28,1,,,,,コジマドウ,0
312,2050001055004,新規,0,2024-06-28,2024-06-28,ＭＡＫ’ｓ　Ｇｒｏｕｐ株式会社,,株式会社,茨城県,つくば市,松代５丁目１６番地７３,,08,220,3050035,,,,,,,2024-06-28,1,,,,,マークスルグープ,0
320,2100001037590,新規,0,2024-06-28,2024-06-28,株式会社マルショー,,株式会社,長野県,上田市,上田原６７８－１７,,20,203,3861102,,,,,,,2024-06-28,1,,,,,マルショー,0
323,2110001038522,新規,0,2024-06-28,2024-06-28,Ｚｅｎｄａｓｈ株式会社,,株式会社,新潟県,佐渡市,多田２５６,,15,224,9520822,,,,,,,2024-06-28,1,,,,,ゼンダッシュ,0
327,2120001266287,新規,0,2024-06-28,2024-06-28,株式会社グリフ,,株式会社,大阪府,大阪市西区,阿波座１丁目１０番１８号７階,,27,106,5500011,,,,,,,2024-06-28,1,,,,,グリフ,0
328,2120001266312,新規,0,2024-06-28,2024-06-28,株式会社ＳＯＭＭＥＲ　ＳＵＭＭＥＲ,,株式会社,大阪府,大阪市住吉区,遠里小野５丁目１４番２０号１０１号室,,27,120,5580032,,,,,,,2024-06-28,1,,,,,サマーサマー,0
331,2120003026920,新規,0,2024-06-28,2024-06-28,ＦｕｎＧｒｏｗｔｈ合同会社,,合同会社,大阪府,大阪市北区,梅田１丁目２番２号大阪駅前第二ビル１２－１２,,27,127,5300001,,,,,,,2024-06-28,1,,,,,ファングロース,0
332,2120101069870,新規,0,2024-06-28,2024-06-28,株式会社大輝商会,,株式会社,大阪府,岸和田市,西大路町３１番地の５,,27,202,5960802,,,,,,,2024-06-28,1,,,,,ダイキショウカイ,0
334,2120901049378,新規,0,2024-06-28,2024-06-28,株式会社Ｍｅｄｉｓｅｎｓｅ,,株式会社,大阪府,池田市,室町一丁目６－１８,,27,204,5630047,,,,,,,2024-06-28,1,,,,,メディセンス,0
342,2130001077361,新規,0,2024-06-28,2024-06-28,株式会社ＭＯＲＯＴＯ工務店,,株式会社,京都府,京都市右京区,太秦多藪町４６番地１３,,26,108,6168167,,,,,,,2024-06-28,1,,,,,モロトコウムテン,0
344,2130005017124,新規,0,2024-06-28,2024-06-28,医療法人照葉会,,その他の設立登記法人,京都府,京都市伏見区,深草出羽屋敷町２３番地カナートモール伏見２階,,26,109,6120088,,,,,,,2024-06-28,1,,,,,ショウヨウカイ,0
348,2140001134731,新規,0,2024-06-28,2024-06-28,株式会社山本,,株式会社,兵庫県,姫路市,勝原区朝日谷６００番地４３,,28,201,6711204,,,,,,,2024-06-28,1,,,,,ヤマモト,0
349,2140001134847,新規,0,2024-06-28,2024-06-28,株式会社Ｏｋａｋａｉ,,株式会社,兵庫県,西宮市,天道町８－１２－４１２,,28,204,6638104,,,,,,,2024-06-28,1,,,,,オカカイ,0
350,2140001134913,新規,0,2024-06-28,2024-06-28,株式会社ＩＫＵＮ,,株式会社,兵庫県,神戸市中央区,神若通１丁目４番１４号,,28,110,6510067,,,,,,,2024-06-28,1,,,,,イクン,0
354,2140005027122,新規,0,2024-06-28,2024-06-28,一般社団法人ｇｒｏｗ　ｕｐ,,その他の設立登記法人,兵庫県,川西市,久代４丁目５‐３‐２０３号室,,28,217,6660024,,,,,,,2024-06-28,1,,,,,グロウアップ,0
362,2180301038777,新規,0,2024-06-28,2024-06-28,ファースト・リンク株式会社,,株式会社,愛知県,豊橋市,豊清町字茶屋ノ下２番地の２７０,,23,201,4413115,,,,,,,2024-06-28,1,,,,,ファーストリンク,0
365,2180303006162,新規,0,2024-06-28,2024-06-28,合同会社Ｔｉｍｅｌｅｓｓ,,合同会社,愛知県,岡崎市,竜泉寺町字後山２０７番地８,,23,202,4443524,,,,,,,2024-06-28,1,,,,,タイムレス,0
366,2180305009584,新規,0,2024-06-28,2024-06-28,社会福祉法人ＳＯＵＰ,,その他の設立登記法人,愛知県,豊田市,中垣内町広畑７番地３,,23,211,4442215,,,,,,,2024-06-28,1,,,,,スープ,0
369,2200003006402,新規,0,2024-06-28,2024-06-28,Ｆｏｒコミュニティ合同会社,,合同会社,岐阜県,岐阜市,近島１丁目１５番５号,,21,201,5020908,,,,,,,2024-06-28,1,,,,,フォーコミュニティ,0
373,2250003003527,新規,0,2024-06-28,2024-06-28,合同会社アスワコンサルティング,,合同会社,山口県,防府市,警固町１丁目１４番１１号,,35,206,7470821,,,,,,,2024-06-28,1,,,,,アスワコンサルティング,0
379,2290001106286,新規,0,2024-06-28,2024-06-28,株式会社ＭＯＳＨＰＩＴ　ＰＲＯＤＵＣＴＩＯＮ,,株式会社,福岡県,福岡市中央区,天神３丁目９－１７－１０１,,40,133,8100001,,,,,,,2024-06-28,1,,,,,モッシュピットプロダクション,0
380,2290001106303,新規,0,2024-06-28,2024-06-28,君友株式会社,,株式会社,福岡県,福岡市南区,南大橋１丁目２－２０ピュア大橋弐番館２０２号,,40,134,8150034,,,,,,,2024-06-28,1,,,,,キミトモ,0
381,2290001106311,新規,0,2024-06-28,2024-06-28,株式会社高山実業,,株式会社,福岡県,福岡市東区,香椎浜４丁目５番１－９０３号,,40,131,8130016,,,,,,,2024-06-28,1,,,,,タカヤマジツギョウ,0
386,2290803004761,新規,0,2024-06-28,2024-06-28,アイシャトレーディング合同会社,,合同会社,福岡県,田川市,大字猪国１２５０番地２,,40,206,8260045,,,,,,,2024-06-28,1,,,,,アイシャトレーディング,0
393,2360001033845,新規,0,2024-06-28,2024-06-28,沖縄モバイル株式会社,,株式会社,沖縄県,沖縄市,中央１丁目８番地１１号,,47,211,9040004,,,,,,,2024-06-28,1,,,,,オキナワモバイル,0
395,2370001051466,新規,0,2024-06-28,2024-06-28,Ｎｅａｌｌｅ株式会社,,株式会社,宮城県,仙台市青葉区,子平町２番１０号,,04,101,9810944,,,,,,,2024-06-28,1,,,,,ニーリー,0
405,2400001016705,新規,0,2024-06-28,2024-06-28,株式会社ＲＥＭＬ,,株式会社,岩手県,北上市,村崎野１６地割１３６番地６２,,03,206,0240004,,,,,,,2024-06-28,1,,,,,リムール,0
407,2420001018773,新規,0,2024-06-28,2024-06-28,株式会社北組,,株式会社,青森県,五所川原市,字新宮町７９番地８,,02,205,0370083,,,,,,,2024-06-28,1,,,,,キタグミ,0
414,2430003016493,新規,0,2024-06-28,2024-06-28,ここから合同会社,,合同会社,北海道,勇払郡むかわ町,二宮１１６番地５,,01,586,0540005,,,,,,,2024-06-28,1,,,,,ココカラ,0
421,2700150126274,新規,0,2024-06-28,2024-06-28,ｇｕａｎｇｚｈｏｕｓｈｉａｉｓｉｋｅｇｏｎｇｍａｏｙｏｕｘｉａｎｇｏｎｇｓｉ,,外国会社等,,,,,,,,３２０ｆａｎｇ　ｓａｎｃｅｎｇ　３３８，３４０　ｈａｏ，ＦｕＳｈｉｌｕ，ＤａＳｈｉｊｉｅ，ＰａｎＹｕｑｕ，ＧｕａｎｇＺｈｏｕｓｈｉ，Ｃｈｉｎａ　５１１４００　ＣＮ,,,,,,2024-06-28,1,,,,,コウシュウシアイシカコウボウユウゲンコウシ,0
430,3010001246092,新規,0,2024-06-28,2024-06-28,株式会社Ｌｉｅｎ,,株式会社,東京都,千代田区,丸の内２丁目２番１号岸本ビルヂング６階,,13,101,1000005,,,,,,,2024-06-28,1,,,,,リアン,0
431,3010001246118,新規,0,2024-06-28,2024-06-28,株式会社あしたのワイン,,株式会社,東京都,千代田区,神田錦町３丁目１３番地７名古路ビル本館１階,,13,101,1010054,,,,,,,2024-06-28,1,,,,,アシタノワイン,0
433,3010003044172,新規,0,2024-06-28,2024-06-28,万物共生合同会社,,合同会社,東京都,中央区,新川１丁目３－７－５０７,,13,102,1040033,,,,,,,2024-06-28,1,,,,,バンブツキョウセイ,0
434,3010003044189,新規,0,2024-06-28,2024-06-28,合同会社Ｂｒｉｇｈｔ　Ａｉｌｅ,,合同会社,東京都,中央区,新川２丁目１５番５－１２０５号（コンフォリア新川）,,13,102,1040033,,,,,,,2024-06-28,1,,,,,ブライトエール,0
435,3010005038461,新規,0,2024-06-28,2024-06-28,一般社団法人東京美術経済研究所,,その他の設立登記法人,東京都,中央区,銀座８丁目１０番５号第４秀和ビル７階,,13,102,1040061,,,,,,,2024-06-28,1,,,,,トウキョウビジュツケイザイケンキュウジョ,0
441,3010401183324,新規,0,2024-06-28,2024-06-28,Ｒｉｓｕ　Ｅｎｅｒｇｙ　Ｄｅｖｅｌｏｐｍｅｎｔ　Ｈｏｌｄｉｎｇｓ株式会社,,株式会社,東京都,港区,元麻布３丁目１番６号,,13,103,1060046,,,,,,,2024-06-28,1,,,,,リスエナジーデベロップメントホールディングス,0
442,3010401183423,新規,0,2024-06-28,2024-06-28,くじら３号株式会社,,株式会社,東京都,港区,麻布十番１丁目５番１０号アトラスビル５階,,13,103,1060045,,,,,,,2024-06-28,1,,,,,クジラサンゴウ,0
443,3010401183448,新規,0,2024-06-28,2024-06-28,株式会社ハタノネクサス,,株式会社,東京都,港区,芝１丁目７番１７号,,13,103,1050014,,,,,,,2024-06-28,1,,,,,ハタノネクサス,0
456,3010801035182,新規,0,2024-06-28,2024-06-28,株式会社ゼロホールディングス,,株式会社,東京都,大田区,池上６丁目１２番１３号,,13,111,1460082,,,,,,,2024-06-28,1,,,,,ゼロホールディングス,0
462,3010901055543,新規,0,2024-06-28,2024-06-28,株式会社ＳＯＵＮＤＷＡＶＥ　ＪＡＰＡＮ,,株式会社,東京都,世田谷区,用賀４丁目１８番８号ウェルスクエアイズム用賀１０１,,13,112,1580097,,,,,,,2024-06-28,1,,,,,サウンドウェイブジャパン,0
463,3010903009183,新規,0,2024-06-28,2024-06-28,合同会社ｒｏｕｂｌｅ,,合同会社,東京都,世田谷区,大蔵５丁目１９番１６号グランドヒルズオークラ１１０,,13,112,1570074,,,,,,,2024-06-28,1,,,,,ルーブル,0
466,3011001163022,新規,0,2024-06-28,2024-06-28,Ｐｒｏｘ　Ｉｎｄｕｓｔｒｉｅｓ株式会社,,株式会社,東京都,渋谷区,神宮前６丁目２３番４号桑野ビル２階,,13,113,1500001,,,,,,,2024-06-28,1,,,,,プロックスインダストリーズ,0
481,3013301052739,新規,0,2024-06-28,2024-06-28,株式会社Ｓｔａｒ　Ｐｌａｔｉｎｕｍ,,株式会社,東京都,豊島区,上池袋４丁目１０番８号ソネット上池袋９０８号,,13,116,1700012,,,,,,,2024-06-28,1,,,,,スタープラチナ,0
482,3013303007195,新規,0,2024-06-28,2024-06-28,合同会社ＬａＴｏ,,合同会社,東京都,豊島区,池袋２丁目５番４号壱ビルＢ１Ｆ,,13,116,1710014,,,,,,,2024-06-28,1,,,,,ラト,0
488,3020001157792,新規,0,2024-06-28,2024-06-28,三木惠美株式会社,,株式会社,神奈川県,川崎市多摩区,生田８丁目２０－２５,,14,135,2140038,,,,,,,2024-06-28,1,,,,,サンモクケイミ,0
489,3020001157867,新規,0,2024-06-28,2024-06-28,株式会社１８,,株式会社,神奈川県,横浜市中区,南仲通２丁目２５番地１エクセレント１２ビル４０１・４０２・４０３,,14,104,2310006,,,,,,,2024-06-28,1,,,,,エイティーン,0
490,3020001157883,新規,0,2024-06-28,2024-06-28,株式会社都筑ガレージ,,株式会社,神奈川県,横浜市都筑区,荏田南１丁目１２番１３号,,14,118,2240007,,,,,,,2024-06-28,1,,,,,ツヅキガレージ,0
491,3020001157900,新規,0,2024-06-28,2024-06-28,株式会社ＰＥＡＣＥ,,株式会社,神奈川県,横浜市中区,長者町９丁目１６９－１翠葉ビルディングＩＩ４階,00135350,14,104,2310033,,,,,,,2024-06-28,1,,,,,ピース,0
500,3021003014684,新規,0,2024-06-28,2024-06-28,合同会社コンドリ・湘南,,合同会社,神奈川県,茅ヶ崎市,本村４丁目２－３６－１２０５,,14,207,2530042,,,,,,,2024-06-28,1,,,,,コンドリショウナン,0
507,3030001161182,新規,0,2024-06-28,2024-06-28,株式会社兼丸商事,,株式会社,埼玉県,戸田市,氷川町２丁目９－６,,11,224,3350027,,,,,,,2024-06-28,1,,,,,カネマルショウジ,0
508,3030001161190,新規,0,2024-06-28,2024-06-28,赤岩塗装株式会社,,株式会社,埼玉県,川口市,大字石神２１８番地の１７,,11,203,3330823,,,,,,,2024-06-28,1,,,,,アカイワトソウ,0
516,3040001134237,新規,0,2024-06-28,2024-06-28,株式会社ＬＩＭ,,株式会社,千葉県,市川市,中国分２丁目１６番１１号,,12,203,2720835,,,,,,,2024-06-28,1,,,,,リム,0
517,3040001134253,新規,0,2024-06-28,2024-06-28,遠洋株式会社,,株式会社,千葉県,山武市,姫島４５７番地４,,12,237,2891327,,,,,,,2024-06-28,1,,,,,エンヨウ,0
518,3040001134286,新規,0,2024-06-28,2024-06-28,株式会社笑学,,株式会社,千葉県,市川市,大町４７番地１４,,12,203,2720801,,,,,,,2024-06-28,1,,,,,エガク,0
525,3060001037231,新規,0,2024-06-28,2024-06-28,株式会社小澤鳶工業,,株式会社,栃木県,佐野市,富岡町１９６番地７,,09,204,3270844,,,,,,,2024-06-28,1,,,,,オザワトビコウギョウ,0
526,3060003005129,新規,0,2024-06-28,2024-06-28,合同会社ＡＫＫ,,合同会社,栃木県,足利市,中川町３６０６番地２,,09,202,3260825,,,,,,,2024-06-28,1,,,,,エーケーケー,0
529,3070001041918,新規,0,2024-06-28,2024-06-28,株式会社ＮＩＮＥ　ｂｅａｕｔｙ,,株式会社,群馬県,高崎市,中居町１丁目８番地１６,,10,202,3700852,,,,,,,2024-06-28,1,,,,,ナインビューティー,0
532,3080003003238,新規,0,2024-06-28,2024-06-28,合同会社エスプライド,,合同会社,静岡県,榛原郡吉田町,住吉４６６番地２,,22,424,4210301,,,,,,,2024-06-28,1,,,,,エスプライド,0
542,3100003007624,新規,0,2024-06-28,2024-06-28,合同会社ＴＭコーポレーション,,合同会社,長野県,松本市,浅間温泉１丁目３０番７号,,20,202,3900303,,,,,,,2024-06-28,1,,,,,ティーエムコーポレーション,0
544,3110001038513,新規,0,2024-06-28,2024-06-28,株式会社橋立工業,,株式会社,新潟県,上越市,国府４丁目７番１９号,,15,222,9420082,,,,,,,2024-06-28,1,,,,,ハシダテコウギョウ,0
553,3120001266328,新規,0,2024-06-28,2024-06-28,株式会社ＳＡＣＨＩＹＯＢＩ,,株式会社,大阪府,大阪市城東区,関目６丁目１３番２３号,,27,118,5360008,,,,,,,2024-06-28,1,,,,,サチヨビ,0
554,3120001266360,新規,0,2024-06-28,2024-06-28,株式会社ＧＬＯＷ,,株式会社,大阪府,大阪市北区,大淀中５丁目２番１６号,,27,127,5310076,,,,,,,2024-06-28,1,,,,,グロー,0
557,3120003026944,新規,0,2024-06-28,2024-06-28,ＢＡＮＫＳ　ＪＡＰＡＮ合同会社,,合同会社,大阪府,大阪市北区,中之島５丁目３番６０号中之島バンクスＣＥＮＴＥＲ２Ｆ,,27,127,5300005,,,,,,,2024-06-28,1,,,,,バンクスジャパン,0
559,3120005024392,新規,0,2024-06-28,2024-06-28,ロイヤルシャトー枚方牧野管理組合法人,,その他の設立登記法人,大阪府,枚方市,宇山町８番１,,27,210,5731143,,,,,,,2024-06-28,1,,,,,ロイヤルシャトーヒラカタマキノ,0
568,3130001077344,新規,0,2024-06-28,2024-06-28,株式会社Ｉｆｅｅｌ,,株式会社,京都府,京都市西京区,川島東代町８２番地の１７,,26,111,6158101,,,,,,,2024-06-28,1,,,,,アイフィール,0
570,3130003009659,新規,0,2024-06-28,2024-06-28,Ｗａｂｉ‐Ｓａｂｉ　Ｊａｐａｎ　Ｄｉｓｃｏｖｅｒｙ合同会社,,合同会社,京都府,京都市西京区,桂野里町５０番６８号桂ビル５Ｆ,,26,111,6158073,,,,,,,2024-06-28,1,,,,,ワビサビジャパンディスカバリー,0
571,3130005017123,新規,0,2024-06-28,2024-06-28,一般社団法人京都の空き家と相続の相談窓口,,その他の設立登記法人,京都府,京都市下京区,五坊大宮町９６番６,,26,106,6008385,,,,,,,2024-06-28,1,,,,,キョウトノアキヤトソウゾクノソウダンマドグチ,0
578,3140001134929,新規,0,2024-06-28,2024-06-28,株式会社コート幸管理,,株式会社,兵庫県,神戸市兵庫区,大同町３丁目４番１０－１０１号,,28,105,6520062,,,,,,,2024-06-28,1,,,,,コートサチカンリ,0
581,3140003020747,新規,0,2024-06-28,2024-06-28,由合同会社,,合同会社,兵庫県,芦屋市,翠ケ丘町４番１５号,,28,206,6590014,,,,,,,2024-06-28,1,,,,,ヨシ,0
583,3150005009606,新規,0,2024-06-28,2024-06-28,特定非営利活動法人いろいろめがね,,その他の設立登記法人,奈良県,北葛城郡河合町,広瀬台２丁目２番地１６,,29,427,6360073,,,,,,,2024-06-28,1,,,,,イロイロメガネ,0
601,3180301038776,新規,0,2024-06-28,2024-06-28,株式会社トラスト,,株式会社,愛知県,岡崎市,大門４丁目２番地１０,,23,202,4442135,,,,,,,2024-06-28,1,,,,,トラスト,0
604,3180305009583,新規,0,2024-06-28,2024-06-28,医療法人影山皮フ科クリニック,,その他の設立登記法人,愛知県,西尾市,住崎町流１番地３,,23,213,4450876,,,,,,,2024-06-28,1,,,,,カゲヤマヒフカクリニック,0
608,3200003006392,新規,0,2024-06-28,2024-06-28,ＧＩＦＵ　ＭＵＬＴＩＰＵＲＰＯＳＥ　ＣＯＲＰＯＲＡＴＩＯＮ合同会社,,合同会社,岐阜県,可児市,今渡２３６番地７,,21,214,5090207,,,,,,,2024-06-28,1,,,,,ギフマルチパーパスコーポレーション,0
610,3220003003776,新規,0,2024-06-28,2024-06-28,合同会社Ｂａｒｏｎ,,合同会社,石川県,金沢市,大額町ル３９‐４７,,17,201,9218143,,,,,,,2024-06-28,1,,,,,バロン,0
612,3230001001673,新規,0,2024-06-28,2024-06-28,株式会社タマヤ,,株式会社,富山県,中新川郡立山町,道源寺１２４４番地１,,16,323,9300241,,,,,,,2024-06-28,1,,,,,タマヤ,0
613,3230003002240,新規,0,2024-06-28,2024-06-28,マリースマイル富山合同会社,,合同会社,富山県,富山市,大町２区１－３稲垣ビル１Ｆ北側,,16,201,9398073,,,,,,,2024-06-28,1,,,,,マリースマイルトヤマ,0
617,3250005008928,新規,0,2024-06-28,2024-06-28,一般社団法人青龍のまち下関豊浦にぎわし隊,,その他の設立登記法人,山口県,下関市,豊浦町大字川棚６６８０番地１,,35,201,7596301,,,,,,,2024-06-28,1,,,,,,0
626,3290001106277,新規,0,2024-06-28,2024-06-28,株式会社ファミーユ,,株式会社,福岡県,久留米市,合川町１１００番地３,,40,203,8390861,,,,,,,2024-06-28,1,,,,,ファミーユ,0
627,3290001106310,新規,0,2024-06-28,2024-06-28,株式会社えと・あもる,,株式会社,福岡県,福岡市中央区,天神４丁目３－８ミーナ天神８階,,40,133,8100001,,,,,,,2024-06-28,1,,,,,エトアモル,0
646,3350001019035,新規,0,2024-06-28,2024-06-28,ＴＭホールディングス株式会社,,株式会社,宮崎県,日南市,大字伊比井１７３番地１,,45,204,8870111,,,,,,,2024-06-28,1,,,,,ティーエムホールディングス,0
648,3360001033869,新規,0,2024-06-28,2024-06-28,株式会社ノーマンプロ,,株式会社,沖縄県,那覇市,牧志２丁目１７‐２７部屋番号４０８,,47,201,9000013,,,,,,,2024-06-28,1,,,,,ノーマンプロ,0
649,3370001051465,新規,0,2024-06-28,2024-06-28,ＡｒｉｓｔｅｉａＡｎｏｄｏｓ株式会社,,株式会社,宮城県,仙台市青葉区,子平町２番１０号,,04,101,9810944,,,,,,,2024-06-28,1,,,,,アリスティアアノドス,0
673,3700150126273,新規,0,2024-06-28,2024-06-28,Ｘｉａｍｅｎ　Ｅｙｏｎ　Ｔｅｃｈｎｏｌｏｇｙ　Ｃｏ．，Ｌｔｄ．,,外国会社等,,,,,,,,Ｒｏｏｍ　２３０３，Ｎｏ．２１　Ｊｉａｈｅ　Ｒｏａｄ，Ｓｉｍｉｎｇ　Ｄｉｓｔｒｉｃｔ，Ｘｉａｍｅｎ　Ｃｉｔｙ　３６１０００　ＣＮ,,,,,,2024-06-28,1,,,,,アモイユヨンテクノロジーカンパニーリミテッド,0
677,4010001246117,新規,0,2024-06-28,2024-06-28,リンクス株式会社,,株式会社,東京都,中央区,日本橋室町１丁目１１番１２号日本橋水野ビル７階,,13,102,1030022,,,,,,,2024-06-28,1,,,,,リンクス,0
678,4010001246133,新規,0,2024-06-28,2024-06-28,株式会社ヤマトメディカルコーポレーション,,株式会社,東京都,千代田区,神田錦町３丁目２１番地ちよだプラットフォームスクウェア１２６３,,13,101,1010054,,,,,,,2024-06-28,1,,,,,ヤマトメディカルコーポレーション,0
679,4010003044163,新規,0,2024-06-28,2024-06-28,合同会社ｂｅｅ　ｉｎｃ,,合同会社,東京都,中央区,日本橋室町１丁目１１番１２号日本橋水野ビル７階,,13,102,1030022,,,,,,,2024-06-28,1,,,,,ビーアイエヌシー,0
692,4010403032899,新規,0,2024-06-28,2024-06-28,合同会社ｔｉｐｐ,,合同会社,東京都,港区,高輪２丁目１４－１１高輪カーサクエスタ２０２号室,,13,103,1080074,,,,,,,2024-06-28,1,,,,,ティップ,0
693,4010403032908,新規,0,2024-06-28,2024-06-28,Ａ４ＪＰ　Ｍｉｎａｍｉ　Ａｏｙａｍａ合同会社,,合同会社,東京都,港区,六本木１丁目６番１号泉ガーデンタワー１２階,,13,103,1060032,,,,,,,2024-06-28,1,,,,,エーフォージェイピーミナミアオヤマ,0
704,4011001163013,新規,0,2024-06-28,2024-06-28,株式会社ハウスウェルス,,株式会社,東京都,渋谷区,道玄坂１丁目１２－１渋谷マークシティ２２階,,13,113,1500043,,,,,,,2024-06-28,1,,,,,ハウスウェルス,0
705,4011001163038,新規,0,2024-06-28,2024-06-28,株式会社ユニークリンク,,株式会社,東京都,渋谷区,渋谷２丁目１９－１５宮益坂ビルディング６０９,,13,113,1500002,,,,,,,2024-06-28,1,,,,,ユニークリンク,0
706,4011001163046,新規,0,2024-06-28,2024-06-28,株式会社スモールサクセス,,株式会社,東京都,渋谷区,道玄坂１丁目１０番８号渋谷道玄坂東急ビル２Ｆ―Ｃ,,13,113,1500043,,,,,,,2024-06-28,1,,,,,スモールサクセス,0
711,4011101107860,新規,0,2024-06-28,2024-06-28,株式会社いくみホーム,,株式会社,東京都,新宿区,西新宿３丁目３番１３号西新宿水間ビル２Ｆ,,13,104,1600023,,,,,,,2024-06-28,1,,,,,イクミホーム,0
715,4011501030860,新規,0,2024-06-28,2024-06-28,ｒｏｃ＆ｗｈａｌｅ株式会社,,株式会社,東京都,北区,滝野川７丁目２１－１滝野川７２１１－３０１号室,,13,117,1140023,,,,,,,2024-06-28,1,,,,,ロックウェイル,0
721,4011801044453,新規,0,2024-06-28,2024-06-28,株式会社国際共栄,,株式会社,東京都,葛飾区,青戸４丁目１６－２２,,13,122,1250062,,,,,,,2024-06-28,1,,,,,コクサイキョウエイ,0
722,4011803006311,新規,0,2024-06-28,2024-06-28,栄苑合同会社,,合同会社,東京都,葛飾区,金町２丁目２１－５プラーズ金町４０７室,,13,122,1250042,,,,,,,2024-06-28,1,,,,,エイエン,0
732,4013301052738,新規,0,2024-06-28,2024-06-28,株式会社アームズ,,株式会社,東京都,豊島区,池袋２丁目７３番５号,,13,116,1710014,,,,,,,2024-06-28,1,,,,,アームズ,0
733,4013303007194,新規,0,2024-06-28,2024-06-28,合同会社ユニファイ,,合同会社,東京都,豊島区,池袋２丁目６８番５号,,13,116,1710014,,,,,,,2024-06-28,1,,,,,ユニファイ,0
739,4020001157899,新規,0,2024-06-28,2024-06-28,美福株式会社,,株式会社,神奈川県,横浜市神奈川区,反町１丁目３－５プレールドゥーグ横浜反町８０１,,14,102,2210825,,,,,,,2024-06-28,1,,,,,ビフク,0
740,4020001157916,新規,0,2024-06-28,2024-06-28,株式会社整電社,,株式会社,神奈川県,横浜市鶴見区,東寺尾１丁目３６番１３－２号,,14,101,2300077,,,,,,,2024-06-28,1,,,,,セイデンシャ,0
741,4020003026409,新規,0,2024-06-28,2024-06-28,合同会社ｓｈｒｉｍｐ,,合同会社,神奈川県,川崎市川崎区,京町３丁目２８番４号,,14,131,2100848,,,,,,,2024-06-28,1,,,,,シュリンプ,0
742,4020005016465,新規,0,2024-06-28,2024-06-28,金沢シーサイドタウン並木二丁目第一住宅管理組合法人,,その他の設立登記法人,神奈川県,横浜市金沢区,並木２丁目２番１５号,,14,108,2360005,,,,,,,2024-06-28,1,,,,,カナザワシーサイドタウンナミキニチョウメダイイチジュウタク,0
745,4021001082575,新規,0,2024-06-28,2024-06-28,株式会社つぎきの森,,株式会社,神奈川県,鎌倉市,雪ノ下１丁目３－１４,,14,204,2480005,,,,,,,2024-06-28,1,,,,,ツギキノモリ,0
746,4021001082583,新規,0,2024-06-28,2024-06-28,株式会社ＫＭＹ,,株式会社,神奈川県,茅ヶ崎市,柳島海岸２番１２－１２号,,14,207,2530063,,,,,,,2024-06-28,1,,,,,ケーエムワイ,0
763,4040001134285,新規,0,2024-06-28,2024-06-28,株式会社日菁商事,,株式会社,千葉県,千葉市美浜区,真砂５丁目２１番６号,,12,106,2610011,,,,,,,2024-06-28,1,,,,,ニッセイショウジ,0
764,4040001134293,新規,0,2024-06-28,2024-06-28,株式会社ｋａｔｔａｉ,,株式会社,千葉県,茂原市,緑ケ丘４丁目１５―２,,12,210,2970065,,,,,,,2024-06-28,1,,,,,ガターイ,0
770,4040003025276,新規,0,2024-06-28,2024-06-28,合同会社カケイ,,合同会社,千葉県,佐倉市,千成２丁目１１－２,,12,212,2850034,,,,,,,2024-06-28,1,,,,,カケイ,0
775,4060001037230,新規,0,2024-06-28,2024-06-28,株式会社ティターニア,,株式会社,栃木県,下都賀郡野木町,大字丸林６２４－１６,,09,364,3290111,,,,,,,2024-06-28,1,,,,,ティターニア,0
797,4110003005436,新規,0,2024-06-28,2024-06-28,合同会社５２,,合同会社,新潟県,南魚沼市,舞子２０５６番地１０フォレストヒルズ石打８３１号,,15,226,9496423,,,,,,,2024-06-28,1,,,,,フィフティートゥー,0
808,4120001266104,新規,0,2024-06-28,2024-06-28,株式会社春鹿商店,,株式会社,大阪府,大阪市北区,梅田１丁目１番３号大阪駅前第３ビル２９階１－１－１号室,,27,127,5300001,,,,,,,2024-06-28,1,,,,,ハルシカショウテン,0
809,4120001266244,新規,0,2024-06-28,2024-06-28,株式会社秀慧,,株式会社,大阪府,大阪市北区,天満橋１丁目８番１５－２６０５号,,27,127,5300042,,,,,,,2024-06-28,1,,,,,シュウケイ,0
810,4120001266293,新規,0,2024-06-28,2024-06-28,雲連テクノロジー株式会社,,株式会社,大阪府,大阪市浪速区,大国３丁目７番７－９０１号,,27,111,5560014,,,,,,,2024-06-28,1,,,,,ウンレンテクノロジー,0
811,4120001266310,新規,0,2024-06-28,2024-06-28,大扶株式会社,,株式会社,大阪府,大阪市東淀川区,瑞光４丁目２－２１プレアール瑞光４０１,,27,114,5330005,,,,,,,2024-06-28,1,,,,,ダイフ,0
812,4120001266335,新規,0,2024-06-28,2024-06-28,株式会社Ｈａｕ’ｏｌｉ　ｇｒｏｗｔｈ,,株式会社,大阪府,大阪市北区,梅田１丁目２番２号大阪駅前第２ビル１２－１２,,27,127,5300001,,,,,,,2024-06-28,1,,,,,ハウオリグロウス,0
829,4130001077351,新規,0,2024-06-28,2024-06-28,株式会社ＳＯＨ,,株式会社,京都府,京都市伏見区,醍醐南端山町１５番地４２,,26,109,6011331,,,,,,,2024-06-28,1,,,,,エスオーエイチ,0
834,4140001134928,新規,0,2024-06-28,2024-06-28,株式会社ルクレール,,株式会社,兵庫県,芦屋市,船戸町５番２６号マリアキャリーヌビル,,28,206,6590093,,,,,,,2024-06-28,1,,,,,ルクレール,0
835,4140001134952,新規,0,2024-06-28,2024-06-28,株式会社ＳＯＵＥＩ,,株式会社,兵庫県,宝塚市,平井３丁目１８番３３号,,28,214,6650816,,,,,,,2024-06-28,1,,,,,ソウエイ,0
837,4140003020754,新規,0,2024-06-28,2024-06-28,ＰＥＡＣＥ　ＷＯＲＬＤ合同会社,,合同会社,兵庫県,尼崎市,栗山町２丁目１５番１７号ライフランドスケープＢ棟１０２,,28,202,6610013,,,,,,,2024-06-28,1,,,,,ピースワールド,0
840,4140005027129,新規,0,2024-06-28,2024-06-28,一般社団法人晴樹会,,その他の設立登記法人,兵庫県,養父市,大谷２２３番地２,,28,222,6671102,,,,,,,2024-06-28,1,,,,,セイジュカイ,0
847,4180001162149,新規,0,2024-06-28,2024-06-28,株式会社ＤＳＫ,,株式会社,愛知県,日進市,藤島町長塚７５番地９１８,,23,230,4700102,,,,,,,2024-06-28,1,,,,,ディエスケイ,0
850,4180003026995,新規,0,2024-06-28,2024-06-28,上越バイオマス発電合同会社,,合同会社,愛知県,名古屋市中村区,名駅１丁目１番１号,,23,105,4500002,,,,,,,2024-06-28,1,,,,,ジョウエツバイオマスハツデン,0
852,4180301038775,新規,0,2024-06-28,2024-06-28,ウイングス株式会社,,株式会社,愛知県,豊橋市,神野新田町字レノ割６３番地,,23,201,4418077,,,,,,,2024-06-28,1,,,,,ウイングス,0
855,4180303006160,新規,0,2024-06-28,2024-06-28,金光商店合同会社,,合同会社,愛知県,碧南市,新川町５丁目８１番地,,23,209,4470863,,,,,,,2024-06-28,1,,,,,カネミツショウテン,0
856,4190003004728,新規,0,2024-06-28,2024-06-28,合同会社ユティル,,合同会社,三重県,松阪市,嬉野津屋城町６３７番地３０,,24,204,5152332,,,,,,,2024-06-28,1,,,,,ユティル,0
867,4250003003525,新規,0,2024-06-28,2024-06-28,合同会社ワイワイキャンパス,,合同会社,山口県,美祢市,美東町綾木２６４４,,35,213,7540212,,,,,,,2024-06-28,1,,,,,ワイワイキャンパス,0
870,4260001039207,新規,0,2024-06-28,2024-06-28,株式会社ａｍｙ,,株式会社,岡山県,倉敷市,児島稗田町４０１７番地１１,,33,202,7110937,,,,,,,2024-06-28,1,,,,,アミー,0
874,4290001106292,新規,0,2024-06-28,2024-06-28,株式会社エクオム,,株式会社,福岡県,大野城市,若草１丁目１７番３号,,40,219,8160981,,,,,,,2024-06-28,1,,,,,エクオム,0
875,4290001106318,新規,0,2024-06-28,2024-06-28,ＢＬＵＥ　ＨＯＲＩＺＯＮ　ＭＡＲＩＮＥ　ＴＥＣＨＮＯＬＯＧＹ株式会社,,株式会社,福岡県,福岡市博多区,博多駅南２丁目８－３２駅南カステリアＷＡＤＡ３０２室,,40,132,8120016,,,,,,,2024-06-28,1,,,,,ブルホライズンマリンテクノロジー,0
877,4290003015500,新規,0,2024-06-28,2024-06-28,Ｂｌｕｅ　Ｒｉｄｇｅ　Ｅｎｔｅｒｐｒｉｓｅｓ合同会社,,合同会社,福岡県,朝倉市,杷木久喜宮１８５９番地川崎アパート３０２号,,40,228,8381514,,,,,,,2024-06-28,1,,,,,ブルーリッジエンタープライゼス,0
878,4290003015509,新規,0,2024-06-28,2024-06-28,合同会社ＳＹ　Ｉｎｖｅｓｔｍｅｎｔ,,合同会社,福岡県,福岡市中央区,天神２丁目２番１２号Ｔ＆Ｊビルディング７Ｆ,,40,133,8100001,,,,,,,2024-06-28,1,,,,,エスワイインベストメント,0
885,4310003004814,新規,0,2024-06-28,2024-06-28,對馬江口合同会社,,合同会社,長崎県,対馬市,厳原町国分１２６６番地,,42,209,8170022,,,,,,,2024-06-28,1,,,,,ツシマエグチ,0
888,4340001026601,新規,0,2024-06-28,2024-06-28,株式会社山形屋ホールディングス,,株式会社,鹿児島県,鹿児島市,金生町３番１号,,46,201,8920828,,,,,,,2024-06-28,1,,,,,ヤマカタヤホールディングス,0
898,4380003005772,新規,0,2024-06-28,2024-06-28,合同会社ＲＥＴＯＫ,,合同会社,福島県,郡山市,横塚１丁目４番２１号横塚グリーンビル２０３号,,07,203,9638803,,,,,,,2024-06-28,1,,,,,レトック,0
899,4380003005797,新規,0,2024-06-28,2024-06-28,合同会社雅グループ,,合同会社,福島県,郡山市,中田町中津川字関ノ上１３４番地の５,,07,203,9630832,,,,,,,2024-06-28,1,,,,,ミヤビグループ,0
910,4420001018771,新規,0,2024-06-28,2024-06-28,株式会社小笠原農園,,株式会社,青森県,つがる市,木造下福原山ノ井９８番地,,02,209,0382803,,,,,,,2024-06-28,1,,,,,オガサワラノウエン,0
932,4500001025727,新規,0,2024-06-28,2024-06-28,株式会社フォーシーズン,,株式会社,愛媛県,松山市,東雲町２番地２－４,,38,201,7900803,,,,,,,2024-06-28,1,,,,,フォーシーズン,0
940,5010001246000,新規,0,2024-06-28,2024-06-28,株式会社Ｙｅｙ　Ａｌｇｏｒｉｔｈｍ,,株式会社,東京都,千代田区,丸の内１丁目９－２グラントウキョウサウスタワー１１階,,13,101,1000005,,,,,,,2024-06-28,1,,,,,イェイアルゴリズム,0
941,5010001246082,新規,0,2024-06-28,2024-06-28,インターナショナルメディカルソリューションズ株式会社,,株式会社,東京都,千代田区,二番町９番地２－８０２,,13,101,1020084,,,,,,,2024-06-28,1,,,,,インターナショナルメディカルソリューションズ,0
942,5010001246108,新規,0,2024-06-28,2024-06-28,ＰＯＶＡヒューマトリクス株式会社,,株式会社,東京都,千代田区,神田神保町３丁目１１－１安田神保町マンション６０２号,,13,101,1010051,,,,,,,2024-06-28,1,,,,,ポバヒューマトリクス,0
948,5010003044170,新規,0,2024-06-28,2024-06-28,合同会社ボンドブリッジ３,,合同会社,東京都,千代田区,内神田１丁目３番７号４０１あすな会計事務所内,,13,101,1010047,,,,,,,2024-06-28,1,,,,,ボンドブリッジスリー,0
954,5010401183371,新規,0,2024-06-28,2024-06-28,ＨＱＳ株式会社,,株式会社,東京都,港区,浜松町２丁目２番１５号浜松町ダイヤビル２Ｆ,,13,103,1050013,,,,,,,2024-06-28,1,,,,,エイチキューエス,0
955,5010403032907,新規,0,2024-06-28,2024-06-28,Ｆｏｏｄｉｓｔａ合同会社,,合同会社,東京都,港区,高輪１丁目２７番３７－５２４号,,13,103,1080074,,,,,,,2024-06-28,1,,,,,フーディスタ,0
963,5010701046187,新規,0,2024-06-28,2024-06-28,株式会社ｍｏｍｏｎｅｃｏ,,株式会社,東京都,品川区,二葉４丁目３番７号,,13,109,1420043,,,,,,,2024-06-28,1,,,,,モモネコ,0
966,5010801035180,新規,0,2024-06-28,2024-06-28,株式会社エムテクノ,,株式会社,東京都,大田区,矢口３丁目１番１号,,13,111,1460093,,,,,,,2024-06-28,1,,,,,エムテクノ,0
977,5011001163029,新規,0,2024-06-28,2024-06-28,Ｂａｍｂｏｏ　Ｐａｎｄａ株式会社,,株式会社,東京都,渋谷区,代々木２丁目２２番地５－２０１号室,,13,113,1510053,,,,,,,2024-06-28,1,,,,,バンブーパンダ,0
979,5011101107843,新規,0,2024-06-28,2024-06-28,ドネックス株式会社,,株式会社,東京都,新宿区,新宿２丁目１２番１３号新宿アントレサロンビル２階,,13,104,1600022,,,,,,,2024-06-28,1,,,,,ドネックス,0
983,5011503006131,新規,0,2024-06-28,2024-06-28,合同会社ＡＮＡ’Ｓ　ＪＥＷＥＬＲＹ＆ＦＡＳＨＩＯＮ,,合同会社,東京都,北区,浮間３丁目２９－１０ライブ赤羽８０２,,13,117,1150051,,,,,,,2024-06-28,1,,,,,アナスジュエリーアンドファション,0
985,5011701027417,新規,0,2024-06-28,2024-06-28,ツヨシ株式会社,,株式会社,東京都,江戸川区,西葛西５丁目７番６－５０１号,,13,123,1340088,,,,,,,2024-06-28,1,,,,,ツヨシ,0
988,5012403006642,新規,0,2024-06-28,2024-06-28,大島商事合同会社,,合同会社,東京都,三鷹市,中原４丁目１－２５,,13,204,1810005,,,,,,,2024-06-28,1,,,,,オオシマショウジ,0
991,5013301052737,新規,0,2024-06-28,2024-06-28,株式会社えぶり,,株式会社,東京都,豊島区,池袋２丁目３７番１０号グランジットイケブクロ２０２,,13,116,1710014,,,,,,,2024-06-28,1,,,,,エブリ,0
996,5020001157898,新規,0,2024-06-28,2024-06-28,株式会社Ｒｉｄｅ　Ｔｈｅ　Ｃｕｒｒｅｎｔ,,株式会社,神奈川県,横浜市西区,みなとみらい３丁目６番１号みなとみらいセンタービル１９階,,14,103,2200012,,,,,,,2024-06-28,1,,,,,ライドザカレント,0
997,5020001157915,新規,0,2024-06-28,2024-06-28,株式会社オオシマ,,株式会社,神奈川県,川崎市高津区,蟹ケ谷２７７番地１,,14,134,2130025,,,,,,,2024-06-28,1,,,,,オオシマ,0
1004,5021001082582,新規,0,2024-06-28,2024-06-28,株式会社大叶建設,,株式会社,神奈川県,高座郡寒川町,倉見８３２番地,,14,321,2530101,,,,,,,2024-06-28,1,,,,,ダイカケンセツ,0
1006,5021003014682,新規,0,2024-06-28,2024-06-28,合同会社ＨＯＰＳＣＯＴＣＨ,,合同会社,神奈川県,藤沢市,柄沢１丁目２２―６,,14,205,2510003,,,,,,,2024-06-28,1,,,,,ホップスコッチ,0
1010,5030001085000,新規,0,2024-06-28,2024-06-28,千悦株式会社,,株式会社,埼玉県,熊谷市,玉井１８１８番地,,11,202,3600853,,,,,,,2024-06-28,1,,,,,チエツ,0
1013,5030001161172,新規,0,2024-06-28,2024-06-28,エヌサポート株式会社,,株式会社,埼玉県,新座市,片山３丁目５番２号,,11,230,3520025,,,,,,,2024-06-28,1,,,,,エヌサポート,0
1022,5040001134251,新規,0,2024-06-28,2024-06-28,株式会社ＬＳＰキャッスルインターナショナル,,株式会社,千葉県,浦安市,東野１丁目１３番３８－１号,,12,227,2790042,,,,,,,2024-06-28,1,,,,,エルエスピーキャッスルインターナショナル,0
1025,5050001055018,新規,0,2024-06-28,2024-06-28,株式会社ベンガル,,株式会社,茨城県,かすみがうら市,稲吉２丁目５番１１号,,08,230,3150054,,,,,,,2024-06-28,1,,,,,ベンガル,0
1028,5050005013459,新規,0,2024-06-28,2024-06-28,特定非営利活動法人東葛飾ボーイズ中学硬式野球クラブ,,その他の設立登記法人,茨城県,稲敷郡河内町,長竿５２９４,,08,447,3001312,,,,,,,2024-06-28,1,,,,,ヒガシカツシカボーイズチュウガクコウシキヤキュウクラブ,0
1040,5100001037605,新規,0,2024-06-28,2024-06-28,株式会社コーセー商事,,株式会社,長野県,松本市,深志２丁目１番１６－８０３号,,20,202,3900815,,,,,,,2024-06-28,1,,,,,コーセーショウジ,0
1043,5100003007614,新規,0,2024-06-28,2024-06-28,Ｊａｐａｎ　Ｏｕｔｄｏｏｒ　Ｉｎｓｔｉｔｕｔｅ合同会社,,合同会社,長野県,大町市,大町２２３７番地１１,,20,212,3980002,,,,,,,2024-06-28,1,,,,,ジャパンアウトドアインスティチュート,0
1044,5110001038511,新規,0,2024-06-28,2024-06-28,株式会社雅,,株式会社,新潟県,新潟市西区,山田２６１６番地１ノブレス山田Ａ棟,,15,107,9501101,,,,,,,2024-06-28,1,,,,,ミヤビ,0
1059,5120001266284,新規,0,2024-06-28,2024-06-28,株式会社Ｖ‐Ｒｏｏｍ,,株式会社,大阪府,大阪市中央区,北久宝寺町１丁目５番１５－６０１号,,27,128,5410057,,,,,,,2024-06-28,1,,,,,ブルーム,0
1060,5120001266292,新規,0,2024-06-28,2024-06-28,森和株式会社,,株式会社,大阪府,大阪市住之江区,北島３丁目１２番１２号２階,,27,125,5590014,,,,,,,2024-06-28,1,,,,,モリワ,0
1061,5120001266318,新規,0,2024-06-28,2024-06-28,景安株式会社,,株式会社,大阪府,大阪市天王寺区,伶人町２－３１ＳｔａｒＯｆｆｉｃｅ天王寺北５０４号室,,27,109,5430061,,,,,,,2024-06-28,1,,,,,ケイアン,0
1062,5120001266334,新規,0,2024-06-28,2024-06-28,徳遠株式会社,,株式会社,大阪府,大阪市西成区,天神ノ森１丁目４－１３,,27,122,5570013,,,,,,,2024-06-28,1,,,,,トクエン,0
1065,5120103005895,新規,0,2024-06-28,2024-06-28,林秋慧合同会社,,合同会社,大阪府,岸和田市,天神山町２丁目９－６－２０５室,,27,202,5960834,,,,,,,2024-06-28,1,,,,,リンシュウエイ,0
1070,5130003009657,新規,0,2024-06-28,2024-06-28,合同会社未来創造,,合同会社,京都府,京都市右京区,西院坤町２ハウスドゥ四条ビル６０１,,26,108,6150062,,,,,,,2024-06-28,1,,,,,ミライソウゾウ,0
1076,5140001134919,新規,0,2024-06-28,2024-06-28,株式会社ＷＥＳＴ,,株式会社,兵庫県,三田市,福島１６２番地,,28,219,6691313,,,,,,,2024-06-28,1,,,,,ウエスト,0
1077,5140001134927,新規,0,2024-06-28,2024-06-28,株式会社ＥＳＴＩ　Ｔｒａｄｉｎｇ,,株式会社,兵庫県,神戸市中央区,割塚通１丁目４番７号,,28,110,6510065,,,,,,,2024-06-28,1,,,,,イーエスティアイトレーディング,0
1078,5140001134935,新規,0,2024-06-28,2024-06-28,株式会社ＨＲキャリアパートナー,,株式会社,兵庫県,神戸市中央区,八幡通４丁目２－１４トロア神戸ビル８階,,28,110,6510085,,,,,,,2024-06-28,1,,,,,エイチアールキャリアパートナー,0
1090,5180003027002,新規,0,2024-06-28,2024-06-28,合同会社ＲＩＮＧ,,合同会社,愛知県,岩倉市,大地町野合３３番地１,,23,228,4820026,,,,,,,2024-06-28,1,,,,,リング,0
1093,5180301038774,新規,0,2024-06-28,2024-06-28,Ｋ．Ｓ．Ｋ株式会社,,株式会社,愛知県,岡崎市,藤川町字沖野々３３番地１,,23,202,4443523,,,,,,,2024-06-28,1,,,,,ケーエスケー,0
1097,5200001042644,新規,0,2024-06-28,2024-06-28,株式会社うなしげ,,株式会社,岐阜県,岐阜市,福光東３丁目５番９号,,21,201,5020813,,,,,,,2024-06-28,1,,,,,ウナシゲ,0
1101,5220001026067,新規,0,2024-06-28,2024-06-28,日本福一株式会社,,株式会社,石川県,金沢市,泉本町５丁目８１番地１,,17,201,9218042,,,,,,,2024-06-28,1,,,,,ニホンフクイチ,0
1105,5240005015790,新規,0,2024-06-28,2024-06-28,特定非営利活動法人オオサンショウウオと暮らすまちづくり会,,その他の設立登記法人,広島県,東広島市,鏡山１丁目１番１号広島大学総合博物館事務室,,34,212,7390046,,,,,,,2024-06-28,1,,,,,オオサンショウウオトクラスマチヅクリカイ,0
1112,5290001106300,新規,0,2024-06-28,2024-06-28,福岡響交通株式会社,,株式会社,福岡県,糟屋郡篠栗町,大字篠栗２６７０番地１,,40,342,8112405,,,,,,,2024-06-28,1,,,,,フクオカヒビキコウツウ,0
1113,5290001106317,新規,0,2024-06-28,2024-06-28,慧東株式会社,,株式会社,福岡県,福岡市東区,香椎照葉７丁目６番２５号,,40,131,8130017,,,,,,,2024-06-28,1,,,,,ケイトウ,0
1114,5290001106333,新規,0,2024-06-28,2024-06-28,Ｕｎｄｅｒ　Ｇｒｏｖｅ株式会社,,株式会社,福岡県,大川市,大字下林３１０番地３,,40,212,8310002,,,,,,,2024-06-28,1,,,,,アンダーグローブ,0
1122,5340001026591,新規,0,2024-06-28,2024-06-28,株式会社Ｇアシスト,,株式会社,鹿児島県,鹿屋市,旭原町３６１６番地１,,46,203,8930022,,,,,,,2024-06-28,1,,,,,ジーアシスト,0
1123,5340003004521,新規,0,2024-06-28,2024-06-28,みらい設計開発合同会社,,合同会社,鹿児島県,鹿児島市,東千石町９番２号セントラルビル５２号,,46,201,8920842,,,,,,,2024-06-28,1,,,,,ミライセッケイカイハツ,0
1128,5370001051463,新規,0,2024-06-28,2024-06-28,株式会社糸＆吉,,株式会社,宮城県,仙台市青葉区,国見１丁目２番３号ヴィレッタ国見２０２,,04,101,9810943,,,,,,,2024-06-28,1,,,,,イトアンドキチ,0
1129,5370001051471,新規,0,2024-06-28,2024-06-28,恵比寿１１５開発株式会社,,株式会社,宮城県,仙台市青葉区,五橋１丁目５番３号,,04,101,9800022,,,,,,,2024-06-28,1,,,,,エビスイチイチゴカイハツ,0
1132,5370003006655,新規,0,2024-06-28,2024-06-28,合同会社ウエスト,,合同会社,宮城県,仙台市若林区,沖野１丁目１３番１９号,,04,103,9840831,,,,,,,2024-06-28,1,,,,,ウエスト,0
1143,5400003003293,新規,0,2024-06-28,2024-06-28,合同会社ラプラス,,合同会社,岩手県,盛岡市,稲荷町１６－３２－２０３,,03,201,0200142,,,,,,,2024-06-28,1,,,,,ラプラス,0
1160,5500001025718,新規,0,2024-06-28,2024-06-28,村松電気株式会社,,株式会社,愛媛県,松山市,馬木町９６９番地,,38,201,7992655,,,,,,,2024-06-28,1,,,,,ムラマツデンキ,0
1161,5500001025726,新規,0,2024-06-28,2024-06-28,株式会社葉月,,株式会社,愛媛県,松山市,高岡町７２８番地３８,,38,201,7918036,,,,,,,2024-06-28,1,,,,,ハヅキ,0
1162,5700150126271,新規,0,2024-06-28,2024-06-28,Ｓｈｅｎｚｈｅｎ　Ｘｉｎｂｉｎ　Ｅｌｅｃｔｒｏｎｉｃ　Ｔｅｃｈｎｏｌｏｇｙ　Ｃｏ．，Ｌｔｄ,,外国会社等,,,,,,,,Ａ１１０７　Ｓｉｌｖｅｒ　Ｓｔａｒ　Ｔｅｃｈｎｏｌｏｇｙ　Ｂｕｉｌｄｉｎｇ　Ｎｏ．１３０１　Ｇｕａｎｇｕａｎｇ　Ｒｏａｄ　Ｘｉｎｌａｎ　Ｃｏｍｍｕｎｉｔｙ　Ｇｕａｎｌａｎ　Ｓｔｒｅｅｔ　Ｌｏｎｇｈｕａ　Ｄｉｓｔｒｉｃｔ　Ｓｈｅｎｚｈｅｎ,,,,,,2024-06-28,1,,,,,シンセンシンビンイレクトロニクテクノロジーカンパニーリミテッド,0
1172,6010001246040,新規,0,2024-06-28,2024-06-28,みらいエステート株式会社,,株式会社,東京都,中央区,八丁堀４丁目１０番６号ＴＫヤマダビル２階,,13,102,1040032,,,,,,,2024-06-28,1,,,,,ミライエステート,0
1173,6010001246049,新規,0,2024-06-28,2024-06-28,株式会社クイック,,株式会社,東京都,中央区,銀座１丁目２２番１１号銀座大竹ビジデンス２Ｆ,,13,102,1040061,,,,,,,2024-06-28,1,,,,,クイック,0
1174,6010001246123,新規,0,2024-06-28,2024-06-28,株式会社ＡＩｗｏｍａｎ,,株式会社,東京都,中央区,銀座７丁目１３－２０銀座ＴＨビル９Ｆ,,13,102,1040061,,,,,,,2024-06-28,1,,,,,エーアイウーマン,0
1175,6010001246156,新規,0,2024-06-28,2024-06-28,フューチャーデザイン株式会社,,株式会社,東京都,中央区,銀座１丁目１２番４号Ｎ＆ＥＢＬＤ．６Ｆ,,13,102,1040061,,,,,,,2024-06-28,1,,,,,フューチャーデザイン,0
1178,6010003044178,新規,0,2024-06-28,2024-06-28,合同会社アトラスボーン,,合同会社,東京都,中央区,東日本橋３丁目３番１０－８０５号,,13,102,1030004,,,,,,,2024-06-28,1,,,,,アトラスボーン,0
1179,6010003044194,新規,0,2024-06-28,2024-06-28,合同会社チョベタ,,合同会社,東京都,中央区,日本橋中洲３－４－１２０１,,13,102,1030008,,,,,,,2024-06-28,1,,,,,チョベタ,0
1187,6010401183239,新規,0,2024-06-28,2024-06-28,ＡＴＳＫＹ株式会社,,株式会社,東京都,港区,西麻布１丁目１０番１６号西麻布ロイヤルビル５０１号,,13,103,1060031,,,,,,,2024-06-28,1,,,,,アットスカイ,0
1188,6010401183395,新規,0,2024-06-28,2024-06-28,抹茶インターナショナルトレーディング株式会社,,株式会社,東京都,港区,東麻布１丁目２３番５号ＰＭＣビル２Ｆ,,13,103,1060044,,,,,,,2024-06-28,1,,,,,マッチャインターナショナルトレーディング,0
1189,6010401183429,新規,0,2024-06-28,2024-06-28,株式会社テクキャリ,,株式会社,東京都,港区,芝公園２丁目６番１１号,,13,103,1050011,,,,,,,2024-06-28,1,,,,,テクキャリ,0
1190,6010401183437,新規,0,2024-06-28,2024-06-28,Ｋ＆Ｙアドバイザリーサービス株式会社,,株式会社,東京都,港区,南青山３丁目８番４０号青山センタービル２階,,13,103,1070062,,,,,,,2024-06-28,1,,,,,ケイアンドワイアドバイザリーサービス,0
1192,6010403032914,新規,0,2024-06-28,2024-06-28,合同会社泰平美術,,合同会社,東京都,港区,芝公園１丁目２番４号,,13,103,1050011,,,,,,,2024-06-28,1,,,,,タイヘイビジュツ,0
1194,6010405023374,新規,0,2024-06-28,2024-06-28,枚方南特定目的会社,,その他の設立登記法人,東京都,港区,元赤坂１丁目１番８号株式会社赤坂国際会計内,,13,103,1070051,,,,,,,2024-06-28,1,,,,,ヒラカタミナミ,0
1198,6010501052517,新規,0,2024-06-28,2024-06-28,ＤＨＩＹＡＮＡ　ＤＩＡＭＯＮＤ株式会社,,株式会社,東京都,台東区,三筋１丁目３番７－８０４号,,13,106,1110055,,,,,,,2024-06-28,1,,,,,ディヤナダイヤモンド,0
1213,6011001162780,新規,0,2024-06-28,2024-06-28,株式会社ＤＩＳＳＯＮＡＮＣＥ,,株式会社,東京都,渋谷区,神宮前３丁目１番２４号ソフトタウン青山＃１１０,,13,113,1500001,,,,,,,2024-06-28,1,,,,,ディソナンス,0
1224,6011401026222,新規,0,2024-06-28,2024-06-28,株式会社アイリーテック,,株式会社,東京都,板橋区,舟渡２丁目４番３－１００６号,,13,119,1740041,,,,,,,2024-06-28,1,,,,,アイリーテック,0
1229,6012403006641,新規,0,2024-06-28,2024-06-28,合同会社ｐｅｒｓｉｓｔ,,合同会社,東京都,調布市,上石原１丁目１番地３サンライズコートＩＩ１０２号,00135357,13,208,1820035,,,,,,,2024-06-28,1,,,,,パーシスト,0
1239,6020001157889,新規,0,2024-06-28,2024-06-28,ＳＵＮＡＯ　ＲＥＡＬＴＹ株式会社,,株式会社,神奈川県,横浜市西区,高島２丁目１９番１２号横浜スカイビル２０階,,14,103,2200011,,,,,,,2024-06-28,1,,,,,スナオリアルティ,0
1240,6020001157914,新規,0,2024-06-28,2024-06-28,株式会社１６,,株式会社,神奈川県,横浜市中区,山下町２２０番地廣東要明鶴同郷会ビル３Ｂ室,,14,104,2310023,,,,,,,2024-06-28,1,,,,,イチロー,0
1243,6020003026150,新規,0,2024-06-28,2024-06-28,ｅｖｏｏｋｅ合同会社,,合同会社,神奈川県,横浜市泉区,和泉中央南５丁目２２－３７,,14,116,2450023,,,,,,,2024-06-28,1,,,,,イブーク,0
1244,6021001082598,新規,0,2024-06-28,2024-06-28,Ｓｅａ　Ｌｏｔｕｓ　Ｃｏｎｓｕｌｔｉｎｇ株式会社,,株式会社,神奈川県,逗子市,新宿３丁目２―４０ＡＭＩＧＯＨＯＵＳＥ,,14,208,2490007,,,,,,,2024-06-28,1,,,,,シーロータスコンサルティング,0
1249,6021005013137,新規,0,2024-06-28,2024-06-28,一般社団法人ＩＤ柔道Ｎｅｔｗｏｒｋ,,その他の設立登記法人,神奈川県,中郡大磯町,国府本郷１４０２番地１５,,14,341,2590111,,,,,,,2024-06-28,1,,,,,アイディージュウドウネットワーク,0
1253,6030001161114,新規,0,2024-06-28,2024-06-28,株式会社佐々木工業,,株式会社,埼玉県,本庄市,小島南１丁目３番２２号ハイツＴＢＳ（Ａ－１０７）,,11,211,3670062,,,,,,,2024-06-28,1,,,,,ササキコウギョウ,0
1254,6030001161163,新規,0,2024-06-28,2024-06-28,株式会社Ｎ．ｓｔｕｄｉｏ　ＭＯＣＨＡ,,株式会社,埼玉県,川口市,戸塚東１丁目１５番２４－５０２号ＷＳレジデンス,,11,203,3330802,,,,,,,2024-06-28,1,,,,,エヌスタジオモチャ,0
1255,6030001161188,新規,0,2024-06-28,2024-06-28,株式会社ダイワアシスト,,株式会社,埼玉県,朝霞市,根岸台４丁目１３番４４－２号,,11,227,3510005,,,,,,,2024-06-28,1,,,,,ダイワアシスト,0
1257,6030003024590,新規,0,2024-06-28,2024-06-28,合同会社Ｓフードサービス,,合同会社,埼玉県,本庄市,駅南２丁目１０番３号ＲＩＭ本庄２Ｃ,,11,211,3670041,,,,,,,2024-06-28,1,,,,,エスフードサービス,0
1266,6040001134242,新規,0,2024-06-28,2024-06-28,株式会社ほんがね,,株式会社,千葉県,四街道市,大日７０番地２,,12,228,2840001,,,,,,,2024-06-28,1,,,,,ホンガネ,0
1267,6040001134267,新規,0,2024-06-28,2024-06-28,株式会社８３,,株式会社,千葉県,千葉市中央区,川戸町３８８番地４,,12,101,2600802,,,,,,,2024-06-28,1,,,,,エイティスリー,0
1271,6040003025241,新規,0,2024-06-28,2024-06-28,合同会社ＲＩＭＥ,,合同会社,千葉県,南房総市,市部１０５－１０,,12,234,2992226,,,,,,,2024-06-28,1,,,,,ライム,0
1285,6080401027281,新規,0,2024-06-28,2024-06-28,株式会社エシレ,,株式会社,静岡県,浜松市中央区,小池町１５６６番地,,22,138,4350056,,,,,,,2024-06-28,1,,,,,エシレ,0
1290,6110001038510,新規,0,2024-06-28,2024-06-28,株式会社マインズ,,株式会社,新潟県,魚沼市,四日町６１９番地,,15,225,9460007,,,,,,,2024-06-28,1,,,,,マインズ,0
1297,6120001266226,新規,0,2024-06-28,2024-06-28,＿幡株式会社,00135347,株式会社,大阪府,大阪市生野区,鶴橋４丁目１０－２３,,27,116,5440031,,,,,,,2024-06-28,1,,,,,ケイバン,0
1298,6120001266267,新規,0,2024-06-28,2024-06-28,株式会社ブドウヤ,,株式会社,大阪府,大阪市東淀川区,淡路５丁目１２番１６号,,27,114,5330032,,,,,,,2024-06-28,1,,,,,ブドウヤ,0
1299,6120001266291,新規,0,2024-06-28,2024-06-28,株式会社大一建設,,株式会社,大阪府,大阪市淀川区,西中島７丁目１番１号９階,,27,123,5320011,,,,,,,2024-06-28,1,,,,,ダイイチケンセツ,0
1300,6120001266309,新規,0,2024-06-28,2024-06-28,株式会社惠義,,株式会社,大阪府,大阪市西成区,橘１丁目１１－２８オフィスポート橘４０９号室,,27,122,5570051,,,,,,,2024-06-28,1,,,,,ケイギ,0
1301,6120001266317,新規,0,2024-06-28,2024-06-28,カクチ商事株式会社,,株式会社,大阪府,大阪市住吉区,墨江３丁目１７－１８申野オフィス３Ｆ,,27,120,5580043,,,,,,,2024-06-28,1,,,,,カクチショウジ,0
1318,6140001134918,新規,0,2024-06-28,2024-06-28,株式会社ｉｓＭ,,株式会社,兵庫県,宝塚市,野上６丁目３番１－４１５号,,28,214,6650022,,,,,,,2024-06-28,1,,,,,イズム,0
1319,6140001134934,新規,0,2024-06-28,2024-06-28,株式会社Ｙｓ　Ｆｉｅｌｄ,,株式会社,兵庫県,尼崎市,東塚口町１丁目１３番５－４０１号,00135356,28,202,6610011,,,,,,,2024-06-28,1,,,,,ワイズフィールド,0
1320,6140001134950,新規,0,2024-06-28,2024-06-28,ＩＣＥ株式会社,,株式会社,兵庫県,相生市,那波野３丁目１４番８号,,28,208,6780011,,,,,,,2024-06-28,1,,,,,アイシーイー,0
1321,6140005027127,新規,0,2024-06-28,2024-06-28,一般社団法人ＳＥＬ　Ｌａｂ,,その他の設立登記法人,兵庫県,神戸市中央区,江戸町８５－１ベイ・ウィング神戸ビル９階,,28,110,6500033,,,,,,,2024-06-28,1,,,,,エスイーエルラボ,0
1328,6170001018201,新規,0,2024-06-28,2024-06-28,株式会社ＭｉｎｄＣｏｍｐａｓｓ,,株式会社,和歌山県,和歌山市,本町３丁目３２番地,,30,201,6408033,,,,,,,2024-06-28,1,,,,,マインドコンパス,0
1335,6180301038773,新規,0,2024-06-28,2024-06-28,株式会社ＹＳＳ,,株式会社,愛知県,岡崎市,不吹町１番地１１,,23,202,4440817,,,,,,,2024-06-28,1,,,,,ワイエスエス,0
1356,6290001106290,新規,0,2024-06-28,2024-06-28,株式会社グリーンアンドパワー,,株式会社,福岡県,福岡市東区,社領２丁目１２－２３,,40,131,8120068,,,,,,,2024-06-28,1,,,,,グリーンアンドパワー,0
1366,6310005008778,新規,0,2024-06-28,2024-06-28,一般社団法人うくみらい,,その他の設立登記法人,長崎県,佐世保市,宇久町平２６０５番地２,,42,202,8574901,,,,,,,2024-06-28,1,,,,,ウクミライ,0
1369,6330003010420,新規,0,2024-06-28,2024-06-28,合同会社Ｌａｍａ,,合同会社,熊本県,上天草市,松島町教良木４８２７－２,,43,212,8616105,,,,,,,2024-06-28,1,,,,,ラマ,0
1371,6340001026599,新規,0,2024-06-28,2024-06-28,株式会社エイ,,株式会社,鹿児島県,大島郡宇検村,大字湯湾１０８６番地５,,46,524,8943301,,,,,,,2024-06-28,1,,,,,エイ,0
1387,6480003002155,新規,0,2024-06-28,2024-06-28,合同会社ワンダフル,,合同会社,徳島県,徳島市,福島１丁目７番４８号メゾンコサージュ１０１号室,,36,201,7700868,,,,,,,2024-06-28,1,,,,,ワンダフル,0
1393,6700150126270,新規,0,2024-06-28,2024-06-28,ｇｕａｎｇ　ｚｈｏｕ　ｚｈｉ　ｇａｎ　ｙｕａｎ　ｄｏｎｇ　ｋｅ　ｊｉ　ｙｏｕ　ｘｉａｎ　ｇｏｎｇ　ｓｉ,,外国会社等,,,,,,,,ｇｕａｎｇ　ｚｈｏｕ　ｓｈｉ　ｐａｎ　ｙｕ　ｑｕ　ｓｈａ　ｔｏｕ　ｊｉｅ　ｙｉｎ　ｐｉｎｇ　ｌｕ　３　ｊｉｅ　４　ｈａｏ　２　ｃｈｕａｎｇ　１０２　ｆａｎｇ,,,,,,2024-06-28,1,,,,,コウシュウジガンユアンドンカギユウゲンコウシ,0
1398,7010001246056,新規,0,2024-06-28,2024-06-28,株式会社ＦＵＮ　ＰＬＡＮＥＴＳ,,株式会社,東京都,千代田区,丸の内１丁目６番５号丸の内北口ビルディング９階ＷｅＷｏｒｋ内,,13,101,1000005,,,,,,,2024-06-28,1,,,,,ファンプラネッツ,0
1399,7010001246080,新規,0,2024-06-28,2024-06-28,株式会社ＭＯＯＮ,,株式会社,東京都,中央区,銀座８丁目１０番５号３階,,13,102,1040061,,,,,,,2024-06-28,1,,,,,ムーン,0
1400,7010001246122,新規,0,2024-06-28,2024-06-28,株式会社アナグマ,,株式会社,東京都,中央区,日本橋堀留町１丁目５番７号ユービル５階Ｃ室,,13,102,1030012,,,,,,,2024-06-28,1,,,,,アナグマ,0
1401,7010003044144,新規,0,2024-06-28,2024-06-28,合同会社アステラ,,合同会社,東京都,中央区,日本橋室町１丁目１１番１２号,,13,102,1030022,,,,,,,2024-06-28,1,,,,,アステラ,0
1402,7010003044152,新規,0,2024-06-28,2024-06-28,合同会社槇,,合同会社,東京都,千代田区,丸の内３丁目１番１号東京共同会計事務所内,,13,101,1000005,,,,,,,2024-06-28,1,,,,,マキ,0
1403,7010003044160,新規,0,2024-06-28,2024-06-28,Ｒｅｄ　Ｈｏｌｄｉｎｇｓ合同会社,,合同会社,東京都,千代田区,永田町２丁目１０番３号,,13,101,1000014,,,,,,,2024-06-28,1,,,,,レッドホールディングス,0
1405,7010005038458,新規,0,2024-06-28,2024-06-28,一般社団法人産業ＤＸ工業会,,その他の設立登記法人,東京都,中央区,銀座７丁目１３番２０号銀座ＴＨビル９階,,13,102,1040061,,,,,,,2024-06-28,1,,,,,サンギョウディーエックスコウギョウカイ,0
1412,7010401183378,新規,0,2024-06-28,2024-06-28,株式会社針谷將史建築設計事務所,,株式会社,東京都,港区,南青山２丁目７番６号,,13,103,1070062,,,,,,,2024-06-28,1,,,,,ハリガイマサフミケンチクセッケイジムショ,0
1413,7010401183403,新規,0,2024-06-28,2024-06-28,株式会社ＫｅＮＡコーポレーション,,株式会社,東京都,港区,台場２丁目２番２－５０１号,,13,103,1350091,,,,,,,2024-06-28,1,,,,,ケナコーポレーション,0
1414,7010403032896,新規,0,2024-06-28,2024-06-28,Ｏｍｎｉｓｓａ　Ｊａｐａｎ合同会社,,合同会社,東京都,港区,芝浦３丁目１番１号田町ステーションタワーＮ１８階,,13,103,1080023,,,,,,,2024-06-28,1,,,,,オムニッサジャパン,0
1415,7010403032913,新規,0,2024-06-28,2024-06-28,合同会社ミラ,,合同会社,東京都,港区,白金１丁目１０番３－９０４号,,13,103,1080072,,,,,,,2024-06-28,1,,,,,ミラ,0
1416,7010405023349,新規,0,2024-06-28,2024-06-28,一般社団法人Ｉ　ＫＮＯＷ　ＧＲＩＥＦ,,その他の設立登記法人,東京都,港区,北青山１丁目３番１号アールキューブ青山３階,,13,103,1070061,,,,,,,2024-06-28,1,,,,,アイノウグリーフ,0
1417,7010405023373,新規,0,2024-06-28,2024-06-28,晴海Ｙオフィス一般社団法人,,その他の設立登記法人,東京都,港区,六本木１丁目６番１号泉ガーデンタワー,,13,103,1060032,,,,,,,2024-06-28,1,,,,,ハルミワイオフィス,0
1426,7010903009188,新規,0,2024-06-28,2024-06-28,合同会社イイジマ,,合同会社,東京都,世田谷区,上用賀５丁目１－１１グランエッグス用賀０８号室,,13,112,1580098,,,,,,,2024-06-28,1,,,,,イイジマ,0
1431,7011001162978,新規,0,2024-06-28,2024-06-28,株式会社ＳＩＧＨＴ　Ｋｉｔｃｈｅｎ,,株式会社,東京都,渋谷区,千駄ヶ谷３丁目５１番１０号,,13,113,1510051,,,,,,,2024-06-28,1,,,,,,0
1432,7011001163019,新規,0,2024-06-28,2024-06-28,株式会社ＳＵＮ３７５,,株式会社,東京都,目黒区,下目黒２丁目２－２パークキューブ目黒タワー１３０５,,13,110,1530064,,,,,,,2024-06-28,1,,,,,サンミナコ,0
1433,7011001163027,新規,0,2024-06-28,2024-06-28,株式会社ＶＩＶＲＥ,,株式会社,東京都,渋谷区,神宮前６丁目２３番４号桑野ビル２階,,13,113,1500001,,,,,,,2024-06-28,1,,,,,ヴィーヴル,0
1439,7011003019474,新規,0,2024-06-28,2024-06-28,ＨｅｌｉｏｓＯｎｅ合同会社,,合同会社,東京都,渋谷区,恵比寿３丁目４３番３－１２０２号シティハウス恵比寿伊達坂,,13,113,1500013,,,,,,,2024-06-28,1,,,,,ヘリオスワン,0
1442,7011101107858,新規,0,2024-06-28,2024-06-28,株式会社Ｎアセットマネジメント,,株式会社,東京都,新宿区,西新宿８丁目３番３０号カーメルＩＩビル３階,00135349,13,104,1600023,,,,,,,2024-06-28,1,,,,,エヌアセットマネジメント,0
1443,7011101107874,新規,0,2024-06-28,2024-06-28,株式会社ＭＤ‐Ｏｎｅｔｅｃｈ,,株式会社,東京都,新宿区,西新宿３丁目５番３号西新宿ダイヤモンドパレス５１４,,13,104,1600023,,,,,,,2024-06-28,1,,,,,エムディーワンテック,0
1455,7011501030858,新規,0,2024-06-28,2024-06-28,株式会社Ｃｒｅｄｅ　Ｉｐｓｅ,,株式会社,東京都,荒川区,荒川５丁目３３番１０号,,13,118,1160002,,,,,,,2024-06-28,1,,,,,クレドイプセ,0
1465,7013301052735,新規,0,2024-06-28,2024-06-28,若月堂株式会社,,株式会社,東京都,豊島区,池袋本町２丁目３２番３号－Ａ１０１,,13,116,1700011,,,,,,,2024-06-28,1,,,,,ワカツキドウ,0
1474,7020001157913,新規,0,2024-06-28,2024-06-28,令和商店株式会社,,株式会社,神奈川県,横浜市南区,真金町１丁目１番２号浅見ビル１０３号室,,14,105,2320021,,,,,,,2024-06-28,1,,,,,レイワショウテン,0
1477,7020003026406,新規,0,2024-06-28,2024-06-28,合同会社ＧＯＩＮＧ　ＳＴＥＡＤＹ,,合同会社,神奈川県,川崎市宮前区,馬絹６丁目１７番１５号,,14,136,2160035,,,,,,,2024-06-28,1,,,,,ゴーイングステディ,0
1479,7021003014689,新規,0,2024-06-28,2024-06-28,合同会社Ｙ・ぷらいず,,合同会社,神奈川県,藤沢市,大鋸１０５４番地の３９,,14,205,2510002,,,,,,,2024-06-28,1,,,,,ワイプライズ,0
1483,7030001161113,新規,0,2024-06-28,2024-06-28,株式会社Ａｌｅｘｏｔｏ,,株式会社,埼玉県,川口市,並木４丁目２番１１号アーバンヒルズ西川口３０５,,11,203,3320034,,,,,,,2024-06-28,1,,,,,アレクソト,0
1484,7030001161138,新規,0,2024-06-28,2024-06-28,株式会社Ｃｏｍｅｔ,,株式会社,埼玉県,川口市,東領家２丁目３５番２１号,,11,203,3320003,,,,,,,2024-06-28,1,,,,,コメット,0
1485,7030001161146,新規,0,2024-06-28,2024-06-28,株式会社泰鳳,,株式会社,埼玉県,川越市,大字砂７４４番地３,,11,201,3501133,,,,,,,2024-06-28,1,,,,,タイホウ,0
1486,7030001161195,新規,0,2024-06-28,2024-06-28,ＹＴコンサルティング株式会社,,株式会社,埼玉県,さいたま市見沼区,大字蓮沼９３６番地４３,,11,104,3370015,,,,,,,2024-06-28,1,,,,,ワイティーコンサルティング,0
1490,7030003024623,新規,0,2024-06-28,2024-06-28,祥裕合同会社,,合同会社,埼玉県,さいたま市緑区,大字代山１３２番地４,,11,109,3360975,,,,,,,2024-06-28,1,,,,,ショウヒロ,0
1496,7040001134258,新規,0,2024-06-28,2024-06-28,株式会社ステディーサーフ,,株式会社,千葉県,八千代市,勝田台南２丁目１０番４５号,,12,221,2760025,,,,,,,2024-06-28,1,,,,,ステディーサーフ,0
1500,7040003025298,新規,0,2024-06-28,2024-06-28,合同会社ＲＯＯＫ,,合同会社,千葉県,成田市,花崎町７３３－８,,12,211,2860033,,,,,,,2024-06-28,1,,,,,ルーク,0
1501,7040005022434,新規,0,2024-06-28,2024-06-28,一般社団法人流山家守舎,,その他の設立登記法人,千葉県,流山市,江戸川台東２丁目２５共同ビル２０１号,,12,220,2700111,,,,,,,2024-06-28,1,,,,,ナガレヤマヤモリシャ,0
1506,7050003008483,新規,0,2024-06-28,2024-06-28,Ｓ．Ｍ．ＮＩＰＰＯＮ　ＬＡＮＫＡ合同会社,,合同会社,茨城県,坂東市,中里７５４－１０,,08,228,3060634,,,,,,,2024-06-28,1,,,,,エスエムニッポンランカ,0
1524,7080105006440,新規,0,2024-06-28,2024-06-28,一般社団法人神戸地区まちづくり協議会,,その他の設立登記法人,静岡県,富士市,さんどまき１４２番地,,22,210,4170856,,,,,,,2024-06-28,1,,,,,コウドチクマチヅクリキョウギカイ,0
1532,7100001037603,新規,0,2024-06-28,2024-06-28,株式会社藤清建設,,株式会社,長野県,松本市,大字島立３６０６番地１,,20,202,3900852,,,,,,,2024-06-28,1,,,,,フジキヨケンセツ,0
1548,7120001266233,新規,0,2024-06-28,2024-06-28,株式会社ＢｏｃｃａＳｕｐｅｒｂ,,株式会社,大阪府,大阪市北区,梅田１丁目２番２号大阪駅前第２ビル１２－１２,,27,127,5300001,,,,,,,2024-06-28,1,,,,,ボッカスパーブ,0
1549,7120001266266,新規,0,2024-06-28,2024-06-28,株式会社ｏｆｆｉｃｅうちかど,,株式会社,大阪府,大阪市中央区,玉造１丁目３番２０号松田ビル３－Ａ号,,27,128,5400004,,,,,,,2024-06-28,1,,,,,オフィスウチカド,0
1550,7120001266274,新規,0,2024-06-28,2024-06-28,ＺＥＮＬＥＴ株式会社,,株式会社,大阪府,大阪市北区,中之島３丁目１番８号２Ｆ,,27,127,5300005,,,,,,,2024-06-28,1,,,,,ゼンレット,0
1551,7120001266290,新規,0,2024-06-28,2024-06-28,Ｅａｒｌｙ　Ｈｅａｌｔｈ　Ｊａｐａｎ株式会社,,株式会社,大阪府,大阪市中央区,淡路町３丁目５番１３号創建御堂筋ビル,,27,128,5410047,,,,,,,2024-06-28,1,,,,,アーリーヘルスジャパン,0
1552,7120001266299,新規,0,2024-06-28,2024-06-28,榊株式会社,00135345,株式会社,大阪府,大阪市住吉区,長居２丁目１０番３－１０２号,,27,120,5580003,,,,,,,2024-06-28,1,,,,,サカキ,0
1553,7120001266308,新規,0,2024-06-28,2024-06-28,世通株式会社,,株式会社,大阪府,大阪市生野区,巽西３丁目８番４号１０１室,00135346,27,116,5440012,,,,,,,2024-06-28,1,,,,,セイツウ,0
1554,7120001266316,新規,0,2024-06-28,2024-06-28,株式会社スターマイン,,株式会社,大阪府,大阪市北区,天満４丁目１４番２－５０２号,,27,127,5300043,,,,,,,2024-06-28,1,,,,,スターマイン,0
1555,7120001266324,新規,0,2024-06-28,2024-06-28,大和投資株式会社,,株式会社,大阪府,大阪市西淀川区,姫島５丁目１１番２７号,,27,113,5550033,,,,,,,2024-06-28,1,,,,,ダイワトウシ,0
1556,7120001266332,新規,0,2024-06-28,2024-06-28,ＬＵＣＫＹ株式会社,,株式会社,大阪府,寝屋川市,高倉１丁目１７番３号,,27,215,5720864,,,,,,,2024-06-28,1,,,,,ラッキー,0
1559,7120003026899,新規,0,2024-06-28,2024-06-28,合同会社パシュモ,,合同会社,大阪府,大阪市東住吉区,住道矢田３丁目３－３６,,27,121,5460022,,,,,,,2024-06-28,1,,,,,パシュモ,0
1560,7120003026940,新規,0,2024-06-28,2024-06-28,合同会社Ｋ２Ｇｕｅｓｔｈｏｕｓｅ,,合同会社,大阪府,大阪市住之江区,南港北２丁目１－１０,,27,125,5590034,,,,,,,2024-06-28,1,,,,,ケーツーゲストハウス,0
1566,7120101069858,新規,0,2024-06-28,2024-06-28,株式会社ワイエイチ設備,,株式会社,大阪府,松原市,高見の里１丁目４番２３号,,27,217,5800021,,,,,,,2024-06-28,1,,,,,ワイエイチセツビ,0
1571,7130001077357,新規,0,2024-06-28,2024-06-28,株式会社ＭＴＴ倶楽部,,株式会社,京都府,京丹後市,大宮町周枳２１３０番地,,26,212,6292503,,,,,,,2024-06-28,1,,,,,エムティーティークラブ,0
1572,7130001077365,新規,0,2024-06-28,2024-06-28,株式会社ＭＥＬ,,株式会社,京都府,京都市下京区,烏丸通仏光寺下る大政所町６８０－１第八長谷ビル２Ｆ,,26,106,6008413,,,,,,,2024-06-28,1,,,,,メル,0
1573,7130001077373,新規,0,2024-06-28,2024-06-28,雅株式会社,,株式会社,京都府,京都市上京区,小川通丸太町上る上鍛冶町３４１番地,,26,102,6028033,,,,,,,2024-06-28,1,,,,,ミヤビ,0
1584,7140001134933,新規,0,2024-06-28,2024-06-28,Ｕｍａｍｉ　Ｈｅｒｉｔａｇｅ株式会社,,株式会社,兵庫県,神戸市中央区,相生町１丁目１番１号ザ・パークハウス神戸タワー３３０７,,28,110,6500025,,,,,,,2024-06-28,1,,,,,ウマミヘリテイジ,0
1587,7140003020751,新規,0,2024-06-28,2024-06-28,Ｅｄｅｎ　ｇｒｏｕｐ合同会社,,合同会社,兵庫県,神戸市灘区,水道筋１丁目６２番地,,28,102,6570831,,,,,,,2024-06-28,1,,,,,エデングループ,0
1588,7140005027126,新規,0,2024-06-28,2024-06-28,一般社団法人多文化体験協議会,,その他の設立登記法人,兵庫県,神戸市中央区,江戸町８５－１ベイ・ウィング神戸ビル９階,,28,110,6500033,,,,,,,2024-06-28,1,,,,,タブンカタイケンキョウギカイ,0
1593,7160001026030,新規,0,2024-06-28,2024-06-28,株式会社ＴＭｇｌｏｗ,,株式会社,滋賀県,米原市,世継９１７番地１,,25,214,5210064,,,,,,,2024-06-28,1,,,,,ティーエムグロウ,0
1597,7180001162138,新規,0,2024-06-28,2024-06-28,株式会社至誠会,,株式会社,愛知県,名古屋市北区,杉栄町４丁目８３番地の４メリュート１０５号,,23,103,4620829,,,,,,,2024-06-28,1,,,,,シセイカイ,0
1600,7180003026992,新規,0,2024-06-28,2024-06-28,合同会社Ｏｒｇａｎｉｃ,,合同会社,愛知県,名古屋市中区,栄３丁目２－３名古屋日興證券ビル４階,,23,106,4600008,,,,,,,2024-06-28,1,,,,,オーガニック,0
1606,7180301038780,新規,0,2024-06-28,2024-06-28,株式会社ウィライズ,,株式会社,愛知県,豊橋市,向山町字水車１８番地６,,23,201,4400864,,,,,,,2024-06-28,1,,,,,ウィライズ,0
1608,7190003004725,新規,0,2024-06-28,2024-06-28,合同会社Ｈｏｎｄｅ　Ｎｅｘｔ,,合同会社,三重県,四日市市,住吉町９‐３ＡＴＡＡＴＡＨＯＵＳＥ内,,24,202,5108003,,,,,,,2024-06-28,1,,,,,ホンデネクスト,0
1612,7220003003772,新規,0,2024-06-28,2024-06-28,ＴＦ合同会社,,合同会社,石川県,小松市,白江町ワ４５番地２,,17,203,9230811,,,,,,,2024-06-28,1,,,,,ティーエフ,0
1620,7290001106315,新規,0,2024-06-28,2024-06-28,株式会社ＦＵＫＦＵＫ　ＦＡＲＭ,,株式会社,福岡県,久留米市,北野町中６３６番地１１,,40,203,8301113,,,,,,,2024-06-28,1,,,,,フクフクファーム,0
1621,7290003015489,新規,0,2024-06-28,2024-06-28,合同会社ＨＢＳ,,合同会社,福岡県,朝倉市,杷木大山１０５１番地７,,40,228,8381503,,,,,,,2024-06-28,1,,,,,エイチビーエス,0
1622,7290003015497,新規,0,2024-06-28,2024-06-28,合同会社Ｔｏｔａｌ,,合同会社,福岡県,福岡市中央区,天神１丁目９－１７福岡天神フコク生命ビル１５階,,40,133,8100001,,,,,,,2024-06-28,1,,,,,トータル,0
1628,7360003014104,新規,0,2024-06-28,2024-06-28,琉球からはーい合同会社,,合同会社,沖縄県,中頭郡読谷村,字比謝２６８番地４,,47,324,9040311,,,,,,,2024-06-28,1,,,,,リュウキュウカラハーイ,0
1636,7410003003943,新規,0,2024-06-28,2024-06-28,ｙｏｋｏｔｅ１８合同会社,,合同会社,秋田県,横手市,駅西２丁目２番３５号,,05,203,0130049,,,,,,,2024-06-28,1,,,,,ヨコテイチバ,0
1652,7700150126278,新規,0,2024-06-28,2024-06-28,ＫＡＪＷＡ　ＥＮＴＥＲＰＲＩＳＥＳ,,外国会社等,千葉県,山武市,板中新田１９７番地１９,,12,237,2891222,スリランカ民主社会主義共和国、中央州、キャンディ地区、キャンディ、アクラナ、マタレロード、Ｎｏ．１３１／３,,,,,,2024-06-28,1,,,,,カジワエンタープライズ,0
1661,8010001246096,新規,0,2024-06-28,2024-06-28,星瀚株式会社,,株式会社,東京都,千代田区,神田三崎町２丁目１０番１１号Ｐｅｇビル４Ｂ－１号室,,13,101,1010061,,,,,,,2024-06-28,1,,,,,セイカン,0
1662,8010001246113,新規,0,2024-06-28,2024-06-28,株式会社ＣＯＢＩ,,株式会社,東京都,中央区,日本橋箱崎町２７－９ヴェラハイツ日本橋箱崎１Ｆ,,13,102,1030015,,,,,,,2024-06-28,1,,,,,コビィ,0
1663,8010001246138,新規,0,2024-06-28,2024-06-28,株式会社信用リスク管理基盤,,株式会社,東京都,千代田区,丸の内１丁目８番２号,,13,101,1000005,,,,,,,2024-06-28,1,,,,,シンヨウリスクカンリキバン,0
1666,8010003044151,新規,0,2024-06-28,2024-06-28,エメラルド合同会社,,合同会社,東京都,千代田区,丸の内３丁目１番１号東京共同会計事務所内,,13,101,1000005,,,,,,,2024-06-28,1,,,,,エメラルド,0
1669,8010005038457,新規,0,2024-06-28,2024-06-28,一般社団法人ＣＨＥＺ　ＳＩＭＯＮＥ協会,,その他の設立登記法人,東京都,文京区,小日向２丁目１０番４号,,13,105,1120006,,,,,,,2024-06-28,1,,,,,シェシモーンキョウカイ,0
1671,8010101016218,新規,0,2024-06-28,2024-06-28,株式会社ＳＵＮ,,株式会社,東京都,八王子市,初沢町１４２９番地１３４,,13,201,1930845,,,,,,,2024-06-28,1,,,,,サン,0
1672,8010103002380,新規,0,2024-06-28,2024-06-28,合同会社エスティー,,合同会社,東京都,八王子市,南大沢２丁目２１６－８ハイツ阿蘇１０２,,13,201,1920364,,,,,,,2024-06-28,1,,,,,,0
1675,8010401183311,新規,0,2024-06-28,2024-06-28,株式会社ＭｏｎｅＹ,,株式会社,東京都,港区,新橋２丁目２－２邦信ビル３Ｆ,,13,103,1050004,,,,,,,2024-06-28,1,,,,,モニー,0
1676,8010401183377,新規,0,2024-06-28,2024-06-28,株式会社ＪＨＲ,,株式会社,東京都,港区,浜松町２丁目２－１５ダイヤビル２Ｆ,,13,103,1050013,,,,,,,2024-06-28,1,,,,,ジェイエイチアール,0
1678,8010403032846,新規,0,2024-06-28,2024-06-28,合同会社嘉樹ＣｙｂｅｒＳｃａｌｅ,,合同会社,東京都,港区,南麻布１丁目８－１６パークコート南麻布４０３,,13,103,1060047,,,,,,,2024-06-28,1,,,,,カキサイバースケール,0
1687,8010603010924,新規,0,2024-06-28,2024-06-28,合同会社ニケ,,合同会社,東京都,墨田区,堤通１丁目１９番８－２４０４号,,13,107,1310034,,,,,,,2024-06-28,1,,,,,ニケ,0
1688,8010701007707,新規,0,2024-06-28,2024-06-28,日本シーベル株式会社,,株式会社,東京都,品川区,上大崎２丁目１３番２６号,,13,109,1410021,,,,,,,2024-06-28,1,,,,,,0
1694,8010901055539,新規,0,2024-06-28,2024-06-28,株式会社オンドアイ,,株式会社,東京都,世田谷区,太子堂１丁目３番３６号,,13,112,1540004,,,,,,,2024-06-28,1,,,,,オンドアイ,0
1695,8010903009187,新規,0,2024-06-28,2024-06-28,城西ホームサービス合同会社,,合同会社,東京都,世田谷区,鎌田３丁目３０番２－３０１号,,13,112,1570077,,,,,,,2024-06-28,1,,,,,ジョウサイホームサービス,0
1697,8011001162952,新規,0,2024-06-28,2024-06-28,株式会社ＳＯＵＮＤ　ＯＦ　ＳＵＮＲＩＳＥ,,株式会社,東京都,渋谷区,神宮前３丁目３０番１２号,,13,113,1500001,,,,,,,2024-06-28,1,,,,,サウンドオブサンライズ,0
1698,8011001163018,新規,0,2024-06-28,2024-06-28,Ｓｔ．Ｍａｒｔｉｎ’ｓ　Ｅｓｔａｔｅ株式会社,,株式会社,東京都,目黒区,上目黒１丁目１４－６メゾンベルウッド１階店舗区画,,13,110,1530051,,,,,,,2024-06-28,1,,,,,セントマーチンズエステート,0
1704,8011101107849,新規,0,2024-06-28,2024-06-28,株式会社Ｎｏｖｉｔｒａ,,株式会社,東京都,新宿区,西新宿７丁目７－２６ワコーレ新宿第一ビル８０１号,,13,104,1600023,,,,,,,2024-06-28,1,,,,,ノビトラ,0
1705,8011101107857,新規,0,2024-06-28,2024-06-28,株式会社ソーラー,,株式会社,東京都,新宿区,西新宿８丁目５番２号コーリン新宿ビル３Ｆ,,13,104,1600023,,,,,,,2024-06-28,1,,,,,ソーラー,0
1712,8011201025595,新規,0,2024-06-28,2024-06-28,株式会社アニファー,,株式会社,東京都,中野区,中野５丁目６７番７号プラザ中野８０１,,13,114,1640001,,,,,,,2024-06-28,1,,,,,アニファー,0
1720,8011303005223,新規,0,2024-06-28,2024-06-28,合同会社デジタルトラストラボ,,合同会社,東京都,杉並区,成田東１丁目４２－１０,,13,115,1660015,,,,,,,2024-06-28,1,,,,,デジタルトラストラボ,0
1722,8011501030857,新規,0,2024-06-28,2024-06-28,株式会社フィール,,株式会社,東京都,荒川区,荒川３丁目２０番７号,,13,118,1160002,,,,,,,2024-06-28,1,,,,,フィール,0
1727,8011701027414,新規,0,2024-06-28,2024-06-28,ＮＫＨ株式会社,,株式会社,東京都,江戸川区,中央１丁目１６番１９号,,13,123,1320021,,,,,,,2024-06-28,1,,,,,エヌケーエイチ,0
1736,8013301052734,新規,0,2024-06-28,2024-06-28,株式会社Ｗ　Ｔｒａｉｎｉｎｇ,,株式会社,東京都,豊島区,南大塚２丁目１１番１０号ミモザビル３階,,13,116,1700005,,,,,,,2024-06-28,1,,,,,ダブルトレイニング,0
1744,8020001157887,新規,0,2024-06-28,2024-06-28,魅華株式会社,,株式会社,神奈川県,横浜市鶴見区,鶴見１丁目１０番３－５０４号,,14,101,2300063,,,,,,,2024-06-28,1,,,,,ミカ,0
1745,8020001157912,新規,0,2024-06-28,2024-06-28,株式会社ＴＭＫ,,株式会社,神奈川県,横浜市都筑区,茅ケ崎東１丁目１番１０－４０９号,,14,118,2240033,,,,,,,2024-06-28,1,,,,,ティーエムケー,0
1751,8021001082588,新規,0,2024-06-28,2024-06-28,株式会社里永総研,,株式会社,神奈川県,小田原市,城山１丁目４番１－１５１２号,,14,206,2500045,,,,,,,2024-06-28,1,,,,,サトナガソウケン,0
1752,8021001082605,新規,0,2024-06-28,2024-06-28,株式会社アーソンオンズ,,株式会社,神奈川県,小田原市,久野９３０番地の２,,14,206,2500055,,,,,,,2024-06-28,1,,,,,アーソンオンズ,0
1762,8030001161137,新規,0,2024-06-28,2024-06-28,ＡＬｇｏｒｙ株式会社,,株式会社,埼玉県,所沢市,大字山口２０番地の１ラ・リーヴ１０５,,11,208,3591145,,,,,,,2024-06-28,1,,,,,アルゴリー,0
1763,8030001161153,新規,0,2024-06-28,2024-06-28,株式会社ＥＮ　ＴＯＵＴＥ　ＳＩＮＣＥＲＩＴＥ,,株式会社,埼玉県,戸田市,下前１丁目１１番２０－３５７号,,11,224,3350016,,,,,,,2024-06-28,1,,,,,アントゥシンサリテ,0
1769,8030003024622,新規,0,2024-06-28,2024-06-28,合同会社ＴＥＴＳ企画,,合同会社,埼玉県,さいたま市大宮区,仲町１丁目９５番地南銀ビル２階,,11,103,3300845,,,,,,,2024-06-28,1,,,,,テツキカク,0
1772,8040001134281,新規,0,2024-06-28,2024-06-28,株式会社Ａ’ｓ,,株式会社,千葉県,木更津市,請西１丁目１９番１５号,,12,206,2920801,,,,,,,2024-06-28,1,,,,,エース,0
1778,8040005022433,新規,0,2024-06-28,2024-06-28,ＮＰＯ法人健食サポート流生会,,その他の設立登記法人,千葉県,流山市,江戸川台東２丁目３１９番地,,12,220,2700111,,,,,,,2024-06-28,1,,,,,ケンショクサポートリュウセイカイ,0
1780,8050001055007,新規,0,2024-06-28,2024-06-28,ＹＭ総業株式会社,,株式会社,茨城県,神栖市,波崎４７１２番地１１,,08,232,3140408,,,,,,,2024-06-28,1,,,,,ワイエムソウギョウ,0
1790,8070003005445,新規,0,2024-06-28,2024-06-28,合同会社和み,,合同会社,群馬県,前橋市,千代田町５丁目７番８号ポンチ本店ビル１階,,10,201,3710022,,,,,,,2024-06-28,1,,,,,ナゴミ,0
1799,8100001037585,新規,0,2024-06-28,2024-06-28,ＧＤＣ　Ｆｒｏｎｔｉｅｒ株式会社,,株式会社,長野県,長野市,大字南長野西後町６１０－１２Ｒ－Ｄｅｐｏｔ３階Ｎ－西,,20,201,3800845,,,,,,,2024-06-28,1,,,,,ジーディーシーフロンティア,0
1811,8120001266199,新規,0,2024-06-28,2024-06-28,株式会社フォルティス,,株式会社,大阪府,大阪市西区,西本町１丁目１１番１号４０６,,27,106,5500005,,,,,,,2024-06-28,1,,,,,フォルティス,0
1812,8120001266307,新規,0,2024-06-28,2024-06-28,青雲電気商会株式会社,,株式会社,大阪府,大阪市城東区,今福東１丁目４番３８－５０３号,,27,118,5360002,,,,,,,2024-06-28,1,,,,,セイウンデンキショウカイ,0
1821,8140001134916,新規,0,2024-06-28,2024-06-28,株式会社Ｈａｐｐｙ　Ｓｍｉｌｅ,,株式会社,兵庫県,西宮市,高塚町７番３６号,,28,204,6620066,,,,,,,2024-06-28,1,,,,,ハッピースマイル,0
1822,8140001134932,新規,0,2024-06-28,2024-06-28,おおきに株式会社,,株式会社,兵庫県,加古川市,平荘町里５２０番地の２,,28,210,6751232,,,,,,,2024-06-28,1,,,,,,0
1829,8180001162104,新規,0,2024-06-28,2024-06-28,大盛ＤＳ株式会社,,株式会社,愛知県,知多市,新知東町３丁目８番地の２４,,23,224,4780065,,,,,,,2024-06-28,1,,,,,ダイセイディーエス,0
1830,8180001162145,新規,0,2024-06-28,2024-06-28,株式会社ＬＵＭＩＮ,,株式会社,愛知県,名古屋市中村区,名駅４丁目２４番５号第２森ビル４０１,,23,105,4500002,,,,,,,2024-06-28,1,,,,,ルミン,0
1831,8180001162161,新規,0,2024-06-28,2024-06-28,Ｖｉｓｔａｒｉｚｅ株式会社,,株式会社,愛知県,名古屋市中村区,名駅１丁目１－１ＪＰタワー名古屋２１階,,23,105,4500002,,,,,,,2024-06-28,1,,,,,ビスタライズ,0
1835,8180301038771,新規,0,2024-06-28,2024-06-28,株式会社Ｈ＆Ｈサービス,,株式会社,愛知県,豊橋市,弥生町字松原９番地２正和ハイツ１０１号室,,23,201,4418106,,,,,,,2024-06-28,1,,,,,エイチアンドエイチサービス,0
1841,8200001042641,新規,0,2024-06-28,2024-06-28,株式会社ワイズテキスタイル,,株式会社,岐阜県,各務原市,那加前洞新町４丁目７８番地２,,21,213,5040021,,,,,,,2024-06-28,1,,,,,ワイズテキスタイル,0
1850,8240001063444,新規,0,2024-06-28,2024-06-28,株式会社ＳｈｅｌｌＥａｒｔｈ,,株式会社,広島県,江田島市,能美町中町４９４１番地１,,34,215,7372301,,,,,,,2024-06-28,1,,,,,シェラース,0
1851,8240005015788,新規,0,2024-06-28,2024-06-28,一般社団法人Ｊ‐ＳＰＥＥＤ研究会,,その他の設立登記法人,広島県,広島市南区,霞１丁目２番３号広島大学公衆衛生学内,,34,103,7340037,,,,,,,2024-06-28,1,,,,,ジェイスピードケンキュウカイ,0
1852,8250001020709,新規,0,2024-06-28,2024-06-28,株式会社グリーン空調,,株式会社,山口県,下関市,垢田町４丁目５番１８号,,35,201,7510841,,,,,,,2024-06-28,1,,,,,グリーンクウチョウ,0
1870,8360001033864,新規,0,2024-06-28,2024-06-28,株式会社ＨＵＢ,,株式会社,沖縄県,名護市,宮里１丁目２８番８号南西ビル,,47,209,9050011,,,,,,,2024-06-28,1,,,,,ハブ,0
1897,8430001092135,新規,0,2024-06-28,2024-06-28,株式会社タグボート企画,,株式会社,北海道,札幌市豊平区,旭町３丁目２番７号プディールノア学園前２０３号,,01,105,0620911,,,,,,,2024-06-28,1,,,,,タグボートキカク,0
1906,8462505000289,新規,0,2024-06-28,2024-06-28,一般社団法人南知床標津町観光協会,,その他の設立登記法人,北海道,標津郡標津町,南三条西１丁目１番６号,,01,693,0861653,,,,,,,2024-06-28,1,,,,,ミナミシレトコシベツチョウカンコウキョウカイ,0
1909,8480001012526,新規,0,2024-06-28,2024-06-28,株式会社ＮＥＸＴ３２０,,株式会社,徳島県,徳島市,弓町３丁目５番地の１,,36,201,7700925,,,,,,,2024-06-28,1,,,,,ネクストサンニイゼロ,0
1911,8500003003272,新規,0,2024-06-28,2024-06-28,合同会社ここまる,,合同会社,愛媛県,松山市,北久米町６８５番地７,,38,201,7900923,,,,,,,2024-06-28,1,,,,,ココマル,0
1913,8700150126277,新規,0,2024-06-28,2024-06-28,ｄａｍｉｎｇｘｉａｎｑｉａｎｇｚｈａｏｄｉａｎｚｉｓｈａｎｇｗｕｙｏｕｘｉａｎｇｏｎｇｓｉ,,外国会社等,,,,,,,,ｄａｍｉｎｇｘｉａｎｄａｍｉｎｇｚｈｅｎ　ｎａｎｇｕａｎｊｉｎｄｉｎｇｆｅｎｇｑｉｎｇｊｉｅ４２ｈａｏ　ｈａｎｄａｎｓｈｉ　ｈｅｂｅｉｓｈｅｎｇ,,,,,,2024-06-28,1,,,,,ダーミンシエンチャンジャオディエンズーシャンウーヨウシエンゴンスー,0
1919,9010001246046,新規,0,2024-06-28,2024-06-28,株式会社カイザー,,株式会社,東京都,千代田区,永田町２丁目９－６,,13,101,1000014,,,,,,,2024-06-28,1,,,,,カイザー,0
1920,9010003044159,新規,0,2024-06-28,2024-06-28,Ｓｉｌｖｅｒ　Ｈｏｌｄｉｎｇｓ合同会社,,合同会社,東京都,千代田区,永田町２丁目１０番３号,,13,101,1000014,,,,,,,2024-06-28,1,,,,,シルバーホールディングス,0
1921,9010003044175,新規,0,2024-06-28,2024-06-28,合同会社ぜろいち,,合同会社,東京都,中央区,銀座１丁目１２番４号Ｎ＆ＥＢＬＤ．６Ｆ,,13,102,1040061,,,,,,,2024-06-28,1,,,,,ゼロイチ,0
1922,9010101016217,新規,0,2024-06-28,2024-06-28,徽禾日本株式会社,,株式会社,東京都,八王子市,明神町４丁目２９－６－４０３,,13,201,1920046,,,,,,,2024-06-28,1,,,,,キカニホン,0
1931,9010603010923,新規,0,2024-06-28,2024-06-28,ＡＤＣＤＥＣ合同会社,,合同会社,東京都,墨田区,東向島２丁目４９番１２－３０１号,,13,107,1310032,,,,,,,2024-06-28,1,,,,,エーディーシーディーイーシー,0
1937,9010801035177,新規,0,2024-06-28,2024-06-28,ハチ株式会社,,株式会社,東京都,大田区,南六郷２丁目３５番２－１１３４号,,13,111,1440045,,,,,,,2024-06-28,1,,,,,ハチ,0
1940,9011003019448,新規,0,2024-06-28,2024-06-28,合同会社ｋｏｍｅｉ,,合同会社,東京都,渋谷区,道玄坂１丁目１０－８渋谷道玄坂東急ビル２Ｆ－Ｃ,,13,113,1500043,,,,,,,2024-06-28,1,,,,,コーメイ,0
1947,9011101107872,新規,0,2024-06-28,2024-06-28,株式会社ＮＩＧＩＲＩ,,株式会社,東京都,新宿区,若葉１丁目２０番地２９,,13,104,1600011,,,,,,,2024-06-28,1,,,,,ニギリ,0
1959,9011701027421,新規,0,2024-06-28,2024-06-28,株式会社Ｓ‐Ｉ‐ｘ‐ｘ,,株式会社,東京都,江戸川区,平井５丁目１４番２号大島園マンション４０３,,13,123,1320035,,,,,,,2024-06-28,1,,,,,シックス,0
1962,9011801044440,新規,0,2024-06-28,2024-06-28,楽田株式会社,,株式会社,東京都,足立区,小台１丁目６番１９号,,13,121,1200046,,,,,,,2024-06-28,1,,,,,ラクデン,0
1967,9012801023285,新規,0,2024-06-28,2024-06-28,ＭｅＬａｒＫ株式会社,,株式会社,東京都,昭島市,玉川町３丁目２６番３－３０３号,,13,207,1960034,,,,,,,2024-06-28,1,,,,,メルアーク,0
1969,9013301052733,新規,0,2024-06-28,2024-06-28,株式会社スミロ,,株式会社,東京都,豊島区,東池袋３丁目１１番９号三島ビル４０２,,13,116,1700013,,,,,,,2024-06-28,1,,,,,スミロ,0
1974,9020001157820,新規,0,2024-06-28,2024-06-28,アクアリア上下水道サービス株式会社,,株式会社,神奈川県,横浜市西区,みなとみらい４丁目４－２横浜ブルーアベニュー１２Ｆ,,14,103,2200012,,,,,,,2024-06-28,1,,,,,アクアリアジョウゲスイドウサービス,0
1975,9020001157911,新規,0,2024-06-28,2024-06-28,ＩＮＮＯＶＡＴＯＲ　Ｚ株式会社,,株式会社,神奈川県,横浜市港北区,新吉田東３丁目３７番１８号サンライフ１０１,,14,109,2230058,,,,,,,2024-06-28,1,,,,,イノベーターゼット,0
1976,9021001082604,新規,0,2024-06-28,2024-06-28,株式会社ＭＯＭＯ,,株式会社,神奈川県,秦野市,今泉２２１７番地の１４,,14,211,2570014,,,,,,,2024-06-28,1,,,,,モモ,0
1982,9030001161020,新規,0,2024-06-28,2024-06-28,株式会社ＶＶ　ＰＥＴＰＥＴ,,株式会社,埼玉県,川越市,上戸新町２１番地１２、２０１号室,,11,201,3500817,,,,,,,2024-06-28,1,,,,,ブイブイペットペット,0
1983,9030001161103,新規,0,2024-06-28,2024-06-28,株式会社ＣＥメディカルイノベーション,,株式会社,埼玉県,川越市,新宿町４丁目４－６０,,11,201,3501124,,,,,,,2024-06-28,1,,,,,シーイーメディカルイノベーション,0
1984,9030001161128,新規,0,2024-06-28,2024-06-28,株式会社ひかりな,,株式会社,埼玉県,加須市,花崎北２丁目１６番地１Ａ－７１１,,11,210,3470016,,,,,,,2024-06-28,1,,,,,ヒカリナ,0
1985,9030001161136,新規,0,2024-06-28,2024-06-28,トレキャット株式会社,,株式会社,埼玉県,羽生市,南５丁目１７番地５,,11,216,3480053,,,,,,,2024-06-28,1,,,,,トレキャット,0
1986,9030001161152,新規,0,2024-06-28,2024-06-28,株式会社９６Ｃ,,株式会社,埼玉県,新座市,栄４丁目６番１４－４０２号,,11,230,3520014,,,,,,,2024-06-28,1,,,,,クロシー,0
1987,9030001161193,新規,0,2024-06-28,2024-06-28,株式会社木代パーテーション,,株式会社,埼玉県,朝霞市,本町２丁目１０番５号本町ビル２０２号,,11,227,3510011,,,,,,,2024-06-28,1,,,,,キシロパーテーション,0
1997,9030003024530,新規,0,2024-06-28,2024-06-28,合同会社Ｈｏｕｓｅ　Ｏｆ　Ｚｉｏｎ,,合同会社,埼玉県,さいたま市西区,大字島根７５２番地１,,11,101,3310054,,,,,,,2024-06-28,1,,,,,ハウスオブザイオン,0
2000,9040001134165,新規,0,2024-06-28,2024-06-28,株式会社２７５４,,株式会社,千葉県,八千代市,八千代台西８丁目１１番４号,,12,221,2760034,,,,,,,2024-06-28,1,,,,,フナコシ,0
2001,9040001134280,新規,0,2024-06-28,2024-06-28,エフケイ総合開発株式会社,,株式会社,千葉県,松戸市,小金原８丁目２０番１８号,,12,207,2700021,,,,,,,2024-06-28,1,,,,,エフケイソウゴウカイハツ,0
2005,9070001041912,新規,0,2024-06-28,2024-06-28,華商事株式会社,,株式会社,群馬県,桐生市,仲町２丁目１４番１５号,,10,203,3760035,,,,,,,2024-06-28,1,,,,,ハナショウジ,0
2017,9110001038508,新規,0,2024-06-28,2024-06-28,ヤヒコロジー株式会社,,株式会社,新潟県,西蒲原郡弥彦村,大字弥彦１１４３番１６,,15,342,9590323,,,,,,,2024-06-28,1,,,,,ヤヒコロジー,0
2022,9120001266198,新規,0,2024-06-28,2024-06-28,科隆株式会社,,株式会社,大阪府,大阪市住吉区,遠里小野６丁目７番２２号プレアール遠里小野ＩＩ２０３号室,00135348,27,120,5580032,,,,,,,2024-06-28,1,,,,,カリュウ,0
2023,9120001266248,新規,0,2024-06-28,2024-06-28,株式会社ダブルフェイマス,,株式会社,大阪府,大阪市中央区,玉造１丁目１番２５－２１０８号,,27,128,5400004,,,,,,,2024-06-28,1,,,,,ダブルフェイマス,0
2024,9120001266280,新規,0,2024-06-28,2024-06-28,ネクストガイアイノベーション株式会社,,株式会社,大阪府,大阪市北区,西天満３丁目６－２２－７０１,,27,127,5300047,,,,,,,2024-06-28,1,,,,,ネクストガイアイノベーション,0
2025,9120001266347,新規,0,2024-06-28,2024-06-28,ＩＰＰＯ株式会社,,株式会社,大阪府,枚方市,出口１丁目２－１６－１０１１,,27,210,5730065,,,,,,,2024-06-28,1,,,,,イッポ,0
2030,9122001038214,新規,0,2024-06-28,2024-06-28,ｉｎｃｈｏｉ株式会社,,株式会社,大阪府,東大阪市,長堂１丁目１８番９号新星ビル布施３０７号室,,27,227,5770056,,,,,,,2024-06-28,1,,,,,インチョイ,0
2034,9130001077363,新規,0,2024-06-28,2024-06-28,株式会社ＫＡＮＫＵ．ＨＤ,,株式会社,京都府,京都市右京区,梅津堤下町７番地,,26,108,6150903,,,,,,,2024-06-28,1,,,,,カンクウホールディングス,0
2035,9130003009661,新規,0,2024-06-28,2024-06-28,合同会社ａｇｌｅａｂｌｅ,,合同会社,京都府,京都市伏見区,東柳町５２５番地Ｌｕｘｅ中書島３０６,,26,109,6128211,,,,,,,2024-06-28,1,,,,,アグレアーブル,0
2038,9140001134840,新規,0,2024-06-28,2024-06-28,株式会社都筑商会,,株式会社,兵庫県,姫路市,駅前町３５１番地ヒラノビル４階,,28,201,6700927,,,,,,,2024-06-28,1,,,,,ツヅキショウカイ,0
2039,9140001134907,新規,0,2024-06-28,2024-06-28,株式会社ハンズオフ,,株式会社,兵庫県,神戸市北区,広陵町１丁目１５９番地の１,,28,109,6511213,,,,,,,2024-06-28,1,,,,,ハンズオフ,0
2040,9140003020741,新規,0,2024-06-28,2024-06-28,合同会社Ｈａｎａｎｏｍｉ,,合同会社,兵庫県,高砂市,北浜町西浜１１９１－１４,,28,216,6710123,,,,,,,2024-06-28,1,,,,,ハナノミ,0
2047,9160003003216,新規,0,2024-06-28,2024-06-28,合同会社ＫＦＴ,,合同会社,滋賀県,大津市,比叡平３丁目４０番１号,,25,201,5200016,,,,,,,2024-06-28,1,,,,,ケーエフティー,0
2048,9170003002068,新規,0,2024-06-28,2024-06-28,合同会社ＧＲＡＣＥ,,合同会社,和歌山県,和歌山市,福島４８９番地３光進ハイツ１０５号,,30,201,6408401,,,,,,,2024-06-28,1,,,,,グレース,0
2055,9180001162169,新規,0,2024-06-28,2024-06-28,株式会社ＨＴリサーチラボラトリ,,株式会社,愛知県,名古屋市中村区,名駅３丁目４－１０アルティメイト名駅１ｓｔ２階,,23,105,4500002,,,,,,,2024-06-28,1,,,,,エイチティーリサーチラボラトリ,0
2059,9180003026990,新規,0,2024-06-28,2024-06-28,ＥＶＥＮ　ＳＯ合同会社,,合同会社,愛知県,名古屋市西区,名駅２丁目２７番１５号ブリリアタワー名古屋グランスイート１７０１,,23,104,4510045,,,,,,,2024-06-28,1,,,,,イーヴンソー,0
2062,9180301038779,新規,0,2024-06-28,2024-06-28,株式会社豊根村いただきファーム,,株式会社,愛知県,北設楽郡豊根村,坂宇場字御所平６５番地１,,23,563,4490405,,,,,,,2024-06-28,1,,,,,トヨネムライタダキファーム,0
2064,9180303006164,新規,0,2024-06-28,2024-06-28,合同会社滝川自游区,,合同会社,愛知県,豊橋市,多米町字蝉川３３番地の３２２,,23,201,4400021,,,,,,,2024-06-28,1,,,,,タキカワジュク,0
2066,9190001031447,新規,0,2024-06-28,2024-06-28,建真株式会社,,株式会社,三重県,四日市市,寺方町７２番地６,,24,202,5120924,,,,,,,2024-06-28,1,,,,,ケンシン,0
2069,9200001042632,新規,0,2024-06-28,2024-06-28,株式会社本丸,,株式会社,岐阜県,高山市,奥飛騨温泉郷平湯７６３番地１９１,,21,203,5061433,,,,,,,2024-06-28,1,,,,,ホンマル,0
2072,9240001063451,新規,0,2024-06-28,2024-06-28,株式会社パソン,,株式会社,広島県,廿日市市,宮島口１丁目６－７（１Ｆ）,,34,213,7390411,,,,,,,2024-06-28,1,,,,,パソン,0
2078,9250001020708,新規,0,2024-06-28,2024-06-28,株式会社長州ビバレッジ,,株式会社,山口県,宇部市,大字中宇部３２８番地１７,,35,202,7550086,,,,,,,2024-06-28,1,,,,,チョウシュウビバレッジ,0
2082,9260005011371,新規,0,2024-06-28,2024-06-28,一般社団法人エリザベスコンサルティング,,その他の設立登記法人,岡山県,岡山市中区,古京町１丁目２番２１号古京町スクエア３０１,,33,102,7038278,,,,,,,2024-06-28,1,,,,,エリザベスコンサルティング,0
2100,9360001033855,新規,0,2024-06-28,2024-06-28,Ｊｕａ株式会社,,株式会社,沖縄県,那覇市,牧志３丁目２０番３－２０６号フォレスト牧志,,47,201,9000013,,,,,,,2024-06-28,1,,,,,ジュア,0
2101,9360003014102,新規,0,2024-06-28,2024-06-28,合同会社ＳＨ‐ＯＫＩ,,合同会社,沖縄県,浦添市,屋富祖２丁目６番１０号,,47,208,9012127,,,,,,,2024-06-28,1,,,,,エスエイチオキ,0
2111,9420003002942,新規,0,2024-06-28,2024-06-28,合同会社美巧建,,合同会社,青森県,青森市,大字田茂木野字阿部野７８番地１，１号室,,02,201,0300124,,,,,,,2024-06-28,1,,,,,ビコウケン,0
