sequenceNumber,corporateNumber,process,correct,updateDate,changeDate,name,nameImageId,kind,prefectureName,cityName,streetNumber,addressImageId,prefectureCode,cityCode,postCode,addressOutside,addressOutsideImageId,closeDate,closeCause,successorCorporateNumber,changeCause,assignmentDate,latest,enName,enPrefectureName,enCityName,enAddressOutside,furigana,hihyoji
1,1010001012570,登記記録の閉鎖等,0,2022-01-26,2022-01-19,三井物産グローバル投資株式会社,,株式会社,東京都,千代田区,大手町１丁目２番１号三井物産ビル２６Ｆ,,13,101,1000004,,,2022-01-19,清算の結了等,,,2015-10-05,1,,,,,ミツイブッサングローバルトウシ,0
7,1010001111199,登記記録の閉鎖等,0,2022-01-26,2022-01-26,ウルフパックキャピタル株式会社,,株式会社,東京都,港区,六本木５丁目１６番５０号,,13,103,1060032,,,2022-01-26,登記官による閉鎖,,,2015-10-05,1,,,,,,0
23,1010101004022,登記記録の閉鎖等,0,2022-01-26,2022-01-25,株式会社山本経営人事研究所,,株式会社,東京都,八王子市,元横山町２丁目５番６号,,13,201,1920063,,,2022-01-25,登記官による閉鎖,,,2015-10-05,1,,,,,,0
24,1010101006621,登記記録の閉鎖等,0,2022-01-26,2022-01-25,株式会社シンプラス,,株式会社,東京都,八王子市,明神町４丁目２９番９号,,13,201,1920046,,,2022-01-25,登記官による閉鎖,,,2015-10-05,1,,,,,,0
25,1010101008840,登記記録の閉鎖等,0,2022-01-26,2022-01-25,株式会社フレスコ,,株式会社,東京都,八王子市,みつい台２丁目３４番１３号,,13,201,1920014,,,2022-01-25,登記官による閉鎖,,,2015-10-05,1,,,,,,0
26,1010101013551,登記記録の閉鎖等,0,2022-01-26,2022-01-25,光南ハウジング株式会社,,株式会社,東京都,八王子市,台町３丁目２６番３号,,13,201,1930931,,,2022-01-25,登記官による閉鎖,,,2018-12-18,1,,,,,,0
27,1010401010190,登記記録の閉鎖等,0,2022-01-26,2022-01-26,コスモ電気株式会社,,株式会社,東京都,港区,西麻布１丁目１１番８号,,13,103,1060031,,,2022-01-26,登記官による閉鎖,,,2015-10-05,1,,,,,,0
28,1010401015215,登記記録の閉鎖等,0,2022-01-26,2022-01-26,株式会社スプリント,,株式会社,東京都,港区,赤坂６丁目１８番５号,,13,103,1070052,,,2022-01-26,登記官による閉鎖,,,2015-10-05,1,,,,,,0
29,1010401020561,登記記録の閉鎖等,0,2022-01-26,2022-01-26,東京振興株式会社,,株式会社,東京都,港区,東新橋１丁目２番１５号,,13,103,1050021,,,2022-01-26,登記官による閉鎖,,,2016-10-19,1,,,,,,0
30,1010401029966,登記記録の閉鎖等,0,2022-01-26,2022-01-26,株式会社山豊,,株式会社,東京都,港区,芝２丁目５番１５号,,13,103,1050014,,,2022-01-26,登記官による閉鎖,,,2015-10-05,1,,,,,,0
31,1010401030247,登記記録の閉鎖等,0,2022-01-26,2022-01-26,株式会社ユーネット・コミュニケーションズ,,株式会社,東京都,港区,赤坂６丁目９番５号氷川アネックス２号館１０１号,,13,103,1070052,,,2022-01-26,登記官による閉鎖,,,2016-01-21,1,,,,,,0
32,1010401032128,登記記録の閉鎖等,0,2022-01-26,2022-01-26,株式会社ロブスタープロ,,株式会社,東京都,港区,六本木４丁目９番２号俳優座ビル,,13,103,1060032,,,2022-01-26,登記官による閉鎖,,,2015-10-05,1,,,,,,0
34,1010401051160,登記記録の閉鎖等,0,2022-01-26,2022-01-26,エニーユーザー株式会社,,株式会社,東京都,港区,六本木３丁目１５番５号,,13,103,1060032,,,2022-01-26,登記官による閉鎖,,,2015-10-05,1,,,,,,0
35,1010401056085,登記記録の閉鎖等,0,2022-01-26,2022-01-26,株式会社ＩＢＳ,,株式会社,東京都,港区,新橋２丁目１２番１号,,13,103,1050004,,,2022-01-26,登記官による閉鎖,,,2015-10-05,1,,,,,,0
36,1010401068493,登記記録の閉鎖等,0,2022-01-26,2022-01-26,株式会社バンブー,,株式会社,東京都,港区,南青山４丁目１０番４号,,13,103,1070062,,,2022-01-26,登記官による閉鎖,,,2015-10-05,1,,,,,,0
37,1010401072586,登記記録の閉鎖等,0,2022-01-26,2022-01-26,東京温泉株式会社,,株式会社,東京都,港区,麻布十番３丁目１番５号,,13,103,1060045,,,2022-01-26,登記官による閉鎖,,,2015-10-05,1,,,,,,0
38,1010401078278,登記記録の閉鎖等,0,2022-01-26,2022-01-26,アーティフィシャルライフ・ジャパン株式会社,,株式会社,東京都,港区,六本木７丁目３番８号,,13,103,1060032,,,2022-01-26,登記官による閉鎖,,,2015-10-05,1,,,,,,0
39,1010401087337,登記記録の閉鎖等,0,2022-01-26,2022-01-26,株式会社オーシャン,,株式会社,東京都,港区,六本木７丁目２０番２号,,13,103,1060032,,,2022-01-26,登記官による閉鎖,,,2015-10-05,1,,,,,,0
40,1010401096016,登記記録の閉鎖等,0,2022-01-26,2022-01-26,株式会社ピエール,,株式会社,東京都,港区,南青山１丁目１５番１８号,,13,103,1070062,,,2022-01-26,登記官による閉鎖,,,2015-10-05,1,,,,,,0
41,1010401113068,登記記録の閉鎖等,0,2022-01-26,2022-01-26,南青興業株式会社,,株式会社,東京都,港区,南青山２丁目１５番１１号,,13,103,1070062,,,2022-01-26,登記官による閉鎖,,,2015-10-05,1,,,,,,0
47,1010402005215,登記記録の閉鎖等,0,2022-01-26,2022-01-26,有限会社国際気功協会,,有限会社,東京都,港区,芝浦２丁目６番１６号,,13,103,1080023,,,2022-01-26,登記官による閉鎖,,,2015-10-05,1,,,,,,0
48,1010402013036,登記記録の閉鎖等,0,2022-01-26,2022-01-26,有限会社八百信,,有限会社,東京都,港区,新橋５丁目２９番４号,,13,103,1050004,,,2022-01-26,登記官による閉鎖,,,2015-10-05,1,,,,,,0
49,1010402020164,登記記録の閉鎖等,0,2022-01-26,2022-01-26,虎ノ門合同鑑定有限会社,,有限会社,東京都,港区,虎ノ門３丁目７番４号,,13,103,1050001,,,2022-01-26,登記官による閉鎖,,,2015-10-05,1,,,,,,0
50,1010402027300,登記記録の閉鎖等,0,2022-01-26,2022-01-26,有限会社嶺岸経営コンサルタント事務所,,有限会社,東京都,港区,港南２丁目１６番７号,,13,103,1080075,,,2022-01-26,登記官による閉鎖,,,2015-10-05,1,,,,,,0
51,1010402028785,登記記録の閉鎖等,0,2022-01-26,2022-01-26,有限会社ダルブル,,有限会社,東京都,港区,南青山５丁目９番８号,,13,103,1070062,,,2022-01-26,登記官による閉鎖,,,2015-10-05,1,,,,,,0
53,1010403007796,登記記録の閉鎖等,0,2022-01-26,2022-01-26,合同会社オフィスフルノーツ,,合同会社,東京都,港区,南青山２丁目１１－１３南青山ビル４Ｆ,,13,103,1070062,,,2022-01-26,登記官による閉鎖,,,2015-10-05,1,,,,,,0
54,1010405003521,登記記録の閉鎖等,0,2022-01-26,2022-01-26,特定非営利活動法人健保組合経営実務研究センター,,その他の設立登記法人,東京都,港区,浜松町１丁目１８番１４号２階,,13,103,1050013,,,2022-01-26,登記官による閉鎖,,,2015-10-05,1,,,,,,0
55,1010405005294,登記記録の閉鎖等,0,2022-01-26,2022-01-26,特定非営利活動法人外国人就労支援センター,,その他の設立登記法人,東京都,港区,芝浦１丁目４番１５号牧野ビル,,13,103,1050023,,,2022-01-26,登記官による閉鎖,,,2015-10-05,1,,,,,,0
56,1010405006788,登記記録の閉鎖等,0,2022-01-26,2022-01-26,医療法人社団新公会,,その他の設立登記法人,東京都,港区,新橋２丁目２番５号丸山ビル４階,,13,103,1050004,,,2022-01-26,登記官による閉鎖,,,2015-10-05,1,,,,,,0
69,1010701003415,登記記録の閉鎖等,0,2022-01-26,2022-01-26,小島自動車工業株式会社,,株式会社,東京都,品川区,南大井５丁目２６番１８号コモド水神１０１号室,,13,109,1400013,,,2022-01-26,登記官による閉鎖,,,2015-10-05,1,,,,,,0
70,1010701007119,登記記録の閉鎖等,0,2022-01-26,2022-01-26,徳八電気株式会社,,株式会社,東京都,品川区,旗の台４丁目１１番１５号,,13,109,1420064,,,2022-01-26,登記官による閉鎖,,,2015-10-05,1,,,,,,0
71,1010701015583,登記記録の閉鎖等,0,2022-01-26,2022-01-26,株式会社ワッツインターナショナル,,株式会社,東京都,品川区,西五反田７丁目２２番１７号ＴＯＣビル,,13,109,1410031,,,2022-01-26,登記官による閉鎖,,,2015-10-05,1,,,,,,0
72,1010702000931,登記記録の閉鎖等,0,2022-01-26,2022-01-26,有限会社岩元フーズ,,有限会社,東京都,品川区,西五反田１丁目１１番９号,,13,109,1410031,,,2022-01-26,登記官による閉鎖,,,2015-10-05,1,,,,,,0
73,1010702005583,登記記録の閉鎖等,0,2022-01-26,2022-01-26,有限会社トキワ商事,,有限会社,東京都,品川区,大井６丁目１５番１２号,,13,109,1400014,,,2022-01-26,登記官による閉鎖,,,2015-10-05,1,,,,,,0
74,1010703005590,登記記録の閉鎖等,0,2022-01-26,2022-01-21,野火止ホールディングス合同会社,,合同会社,東京都,荒川区,町屋１丁目２８番１２号関口ビル１階,,13,118,1160001,,,2022-01-21,清算の結了等,,,2021-01-20,1,,,,,ノビドメホールディングス,0
75,1010705001571,登記記録の閉鎖等,0,2022-01-26,2022-01-26,一般社団法人臨床心理カウンセリング総合研究所,,その他の設立登記法人,東京都,品川区,東五反田３丁目１７番１６－３０２号,,13,109,1410022,,,2022-01-26,登記官による閉鎖,,,2015-10-05,1,,,,,,0
76,1010801003629,登記記録の閉鎖等,0,2022-01-26,2022-01-25,兼六住販株式会社,,株式会社,東京都,大田区,蒲田４丁目１１番８号,,13,111,1440052,,,2022-01-25,登記官による閉鎖,,,2015-10-05,1,,,,,,0
77,1010801004057,登記記録の閉鎖等,0,2022-01-26,2022-01-25,小林工業株式会社,,株式会社,東京都,大田区,北糀谷２丁目４番４号,,13,111,1440032,,,2022-01-25,登記官による閉鎖,,,2015-10-05,1,,,,,,0
78,1010801012316,登記記録の閉鎖等,0,2022-01-26,2022-01-18,株式会社ゆたか技研工業,,株式会社,東京都,大田区,京浜島２丁目１３番１１号,,13,111,1430003,,,2022-01-18,清算の結了等,,,2015-10-05,1,,,,,ユタカギケンコウギョウ,0
79,1010801017752,登記記録の閉鎖等,0,2022-01-26,2022-01-25,株式会社カインドコーポレーション,,株式会社,東京都,大田区,大森北１丁目９番５号シメギビル１Ｆ,,13,111,1430016,,,2022-01-25,登記官による閉鎖,,,2015-10-05,1,,,,,,0
80,1010801021093,登記記録の閉鎖等,0,2022-01-26,2022-01-25,株式会社ＩＤｎＣｏｍｍ,,株式会社,東京都,大田区,大森北４丁目１８番３号,,13,111,1430016,,,2022-01-25,登記官による閉鎖,,,2015-10-05,1,,,,,,0
81,1010802009914,登記記録の閉鎖等,0,2022-01-26,2022-01-25,有限会社東京デーピー,,有限会社,東京都,大田区,本羽田１丁目１番１５号,,13,111,1440044,,,2022-01-25,登記官による閉鎖,,,2015-10-05,1,,,,,,0
82,1010802018353,登記記録の閉鎖等,0,2022-01-26,2022-01-25,有限会社リリカル,,有限会社,東京都,大田区,北馬込２丁目１０番２－２０８号,,13,111,1430021,,,2022-01-25,登記官による閉鎖,,,2015-10-05,1,,,,,,0
87,1010805000721,登記記録の閉鎖等,0,2022-01-26,2022-01-25,医療法人社団みどりかわ皮フ科・小児科,,その他の設立登記法人,東京都,大田区,東馬込２丁目３番１号１階,,13,111,1430022,,,2022-01-25,登記官による閉鎖,,,2015-10-05,1,,,,,,0
88,1010805000977,登記記録の閉鎖等,0,2022-01-26,2022-01-25,京浜蒲田駅前通り商店街振興組合,,その他の設立登記法人,東京都,大田区,南蒲田１丁目１番１５号,,13,111,1440035,,,2022-01-25,登記官による閉鎖,,,2015-10-05,1,,,,,,0
118,1013102001013,登記記録の閉鎖等,0,2022-01-26,2022-01-19,有限会社オリオン樹脂,,有限会社,東京都,羽村市,神明台４丁目２番地２３,,13,227,2050023,,,2022-01-19,登記官による閉鎖,,,2015-10-05,1,,,,,,0
119,1013102001871,登記記録の閉鎖等,0,2022-01-26,2022-01-19,有限会社協栄電子製作所,,有限会社,東京都,あきる野市,小川字清水８１６番２,,13,228,1970821,,,2022-01-19,登記官による閉鎖,,,2015-10-05,1,,,,,,0
146,1040001077966,登記記録の閉鎖等,0,2022-01-26,2022-01-13,株式会社ファインジャパン,,株式会社,千葉県,船橋市,芝山４丁目２１番２号,,12,204,2740816,,,2022-01-13,清算の結了等,,,2015-10-05,1,,,,,ファインジャパン,0
149,1040001108060,登記記録の閉鎖等,0,2022-01-26,2022-01-21,株式会社新聯,,株式会社,福岡県,福岡市中央区,高砂２丁目１２番１３－１０４号,,40,133,8100011,,,2022-01-21,清算の結了等,,,2019-02-19,1,,,,,シンレン,0
173,1110001003584,登記記録の閉鎖等,0,2022-01-26,2022-01-26,株式会社都市・建築設計事務所,,株式会社,新潟県,新潟市中央区,文京町５番３１号,,15,103,9518153,,,2022-01-26,登記官による閉鎖,,,2015-10-05,1,,,,,,0
175,1110001011744,登記記録の閉鎖等,0,2022-01-26,2022-01-26,松本ニット株式会社,,株式会社,新潟県,五泉市,南本町２丁目１番６１号,,15,218,9591836,,,2022-01-26,登記官による閉鎖,,,2016-06-10,1,,,,,,0
176,1110001022576,登記記録の閉鎖等,0,2022-01-26,2022-01-26,シンセイ医薬株式会社,,株式会社,新潟県,長岡市,南七日町７３番地８,,15,202,9402116,,,2022-01-26,登記官による閉鎖,,,2016-01-12,1,,,,,,0
177,1110001023335,登記記録の閉鎖等,0,2022-01-26,2022-01-26,株式会社平石商店,,株式会社,新潟県,長岡市,北陽２丁目１４番地２３,,15,202,9400871,,,2022-01-26,登記官による閉鎖,,,2015-10-05,1,,,,,,0
178,1110001026825,登記記録の閉鎖等,0,2022-01-26,2022-01-26,株式会社湯元館,,株式会社,新潟県,魚沼市,大湯温泉３００番地,,15,225,9460088,,,2022-01-26,登記官による閉鎖,,,2015-10-05,1,,,,,,0
179,1110001029555,登記記録の閉鎖等,0,2022-01-26,2022-01-26,燕軽金属工業株式会社,,株式会社,新潟県,燕市,白山町３丁目３番４号,,15,213,9591251,,,2022-01-26,登記官による閉鎖,,,2015-10-05,1,,,,,,0
180,1110001031107,登記記録の閉鎖等,0,2022-01-26,2022-01-26,株式会社千栄商事,,株式会社,新潟県,新潟市中央区,寺裏通１番町２２９番地８,,15,103,9518115,,,2022-01-26,登記官による閉鎖,,,2015-12-02,1,,,,,,0
181,1110002006355,登記記録の閉鎖等,0,2022-01-26,2022-01-26,有限会社ミートショップ・いけだ,,有限会社,新潟県,新潟市中央区,大島１４５番地,,15,103,9500953,,,2022-01-26,登記官による閉鎖,,,2015-10-05,1,,,,,,0
183,1110002017492,登記記録の閉鎖等,0,2022-01-26,2022-01-26,有限会社野崎塗装店,,有限会社,新潟県,三条市,荒町２丁目６番１号,,15,204,9550083,,,2022-01-26,登記官による閉鎖,,,2015-10-05,1,,,,,,0
184,1110002018037,登記記録の閉鎖等,0,2022-01-26,2022-01-26,有限会社一会,,有限会社,新潟県,三条市,西大崎１丁目１４１３番３,,15,204,9550033,,,2022-01-26,登記官による閉鎖,,,2015-10-05,1,,,,,,0
185,1110002018656,登記記録の閉鎖等,0,2022-01-26,2022-01-26,白山林業有限会社,,有限会社,新潟県,加茂市,上町７番２６号,,15,209,9591352,,,2022-01-26,登記官による閉鎖,,,2015-10-05,1,,,,,,0
186,1110002022674,登記記録の閉鎖等,0,2022-01-26,2022-01-26,有限会社小山資材,,有限会社,新潟県,上越市,大字西松野木７５５番地,,15,222,9430136,,,2022-01-26,登記官による閉鎖,,,2015-10-05,1,,,,,,0
187,1110002031758,登記記録の閉鎖等,0,2022-01-26,2022-01-26,有限会社ナカマスニット,,有限会社,新潟県,見附市,南本町３丁目４番６号,,15,211,9540056,,,2022-01-26,登記官による閉鎖,,,2015-10-05,1,,,,,,0
188,1110002033184,登記記録の閉鎖等,0,2022-01-26,2022-01-26,有限会社西山グリーン開発,,有限会社,新潟県,南魚沼市,四十日６０３番地５,,15,226,9497145,,,2022-01-26,登記官による閉鎖,,,2015-10-05,1,,,,,,0
189,1110002033317,登記記録の閉鎖等,0,2022-01-26,2022-01-26,有限会社三国ホテル,,有限会社,新潟県,南魚沼郡湯沢町,大字湯沢３８８番地３,,15,461,9496101,,,2022-01-26,登記官による閉鎖,,,2015-10-05,1,,,,,,0
191,1110002033572,登記記録の閉鎖等,0,2022-01-26,2022-01-26,有限会社アグレ,,有限会社,新潟県,南魚沼郡湯沢町,大字神立３８７４番地,,15,461,9496102,,,2022-01-26,登記官による閉鎖,,,2015-10-05,1,,,,,,0
192,1110005001832,登記記録の閉鎖等,0,2022-01-26,2022-01-26,特定非営利活動法人越乃ちんどん一座,,その他の設立登記法人,新潟県,新潟市東区,江南４丁目２番地９,,15,102,9500855,,,2022-01-26,登記官による閉鎖,,,2015-10-05,1,,,,,,0
193,1110005013877,登記記録の閉鎖等,0,2022-01-26,2022-01-26,マウントグランビュー専用水道協同組合,,その他の設立登記法人,新潟県,南魚沼市,宮野下１２００番地４９,,15,226,9496365,,,2022-01-26,登記官による閉鎖,,,2015-10-05,1,,,,,,0
194,1110005015519,登記記録の閉鎖等,0,2022-01-26,2022-01-26,社団法人吉田町シルバー人材センター,,その他の設立登記法人,新潟県,燕市,吉田東栄町１４番１２号,,15,213,9590232,,,2022-01-26,登記官による閉鎖,,,2015-10-05,1,,,,,,0
198,1120001210907,登記記録の閉鎖等,0,2022-01-26,2022-01-21,新越産業株式会社,,株式会社,大阪府,大阪市阿倍野区,三明町２丁目２番１４号,,27,119,5450005,,,2022-01-21,清算の結了等,,,2018-01-26,1,,,,,シンエツサンギョウ,0
247,1220001010776,登記記録の閉鎖等,0,2022-01-26,2022-01-14,株式会社ビノ,,株式会社,石川県,金沢市,高畠３丁目１２４番地五高ビル４階,,17,201,9218001,,,2022-01-14,清算の結了等,,,2015-10-05,1,,,,,ビノ,0
253,1240001054920,登記記録の閉鎖等,0,2022-01-26,2022-01-21,株式会社ビーテックワン,,株式会社,広島県,呉市,中央５丁目８番２２号ＫＩビル２Ｆ,,34,202,7370051,,,2022-01-21,清算の結了等,,,2019-09-10,1,,,,,ビーテックワン,0
265,1290805004141,登記記録の閉鎖等,0,2022-01-26,2022-01-19,医療法人石橋内科クリニック,,その他の設立登記法人,福岡県,北九州市八幡西区,浅川台１丁目２番４７号,,40,109,8070875,,,2022-01-19,清算の結了等,,,2015-10-05,1,,,,,イシバシナイカクリニック,0
268,1310002004297,登記記録の閉鎖等,0,2022-01-26,2022-01-24,有限会社ハイツひろ興産,,有限会社,長崎県,長崎市,上野町２１番１３号,,42,201,8528113,,,2022-01-24,清算の結了等,,,2015-10-05,1,,,,,ハイツヒロコウサン,0
276,1350001005813,登記記録の閉鎖等,0,2022-01-26,2022-01-25,株式会社根井石油,,株式会社,宮崎県,西都市,大字妻１２３８番地,,45,208,8810033,,,2022-01-25,登記官による閉鎖,,,2015-10-05,1,,,,,,0
277,1350001007314,登記記録の閉鎖等,0,2022-01-26,2022-01-25,あさひ産業株式会社,,株式会社,宮崎県,延岡市,鶴ケ丘２丁目２０３７番地２,,45,203,8820865,,,2022-01-25,登記官による閉鎖,,,2016-05-10,1,,,,,,0
280,1350002001290,登記記録の閉鎖等,0,2022-01-26,2022-01-25,有限会社紀乃国屋,,有限会社,宮崎県,宮崎市,大字富吉５２３９番地１,,45,201,8802114,,,2022-01-25,登記官による閉鎖,,,2015-10-05,1,,,,,,0
281,1350002007825,登記記録の閉鎖等,0,2022-01-26,2022-01-25,有限会社ニッセイ,,有限会社,宮崎県,宮崎市,清武町船引字新川６４４番地９０,,45,201,8891604,,,2022-01-25,登記官による閉鎖,,,2017-01-10,1,,,,,,0
282,1350002010829,登記記録の閉鎖等,0,2022-01-26,2022-01-25,有限会社浜崎商店,,有限会社,宮崎県,日向市,本町１５番２号,,45,206,8830045,,,2022-01-25,登記官による閉鎖,,,2015-10-05,1,,,,,,0
283,1350002014714,登記記録の閉鎖等,0,2022-01-26,2022-01-25,有限会社原口設備工業,,有限会社,宮崎県,都城市,菓子野町１１６１３番地５,,45,202,8850111,,,2022-01-25,登記官による閉鎖,,,2015-10-05,1,,,,,,0
284,1350002018970,登記記録の閉鎖等,0,2022-01-26,2022-01-25,有限会社山海荘,,有限会社,宮崎県,宮崎市,青島２丁目３番１０号,,45,201,8892162,,,2022-01-25,登記官による閉鎖,,,2016-04-18,1,,,,,,0
285,1350003001166,登記記録の閉鎖等,0,2022-01-26,2022-01-25,合資会社天壇商会,,合資会社,宮崎県,延岡市,祇園町２丁目３番地５,,45,203,8820043,,,2022-01-25,登記官による閉鎖,,,2015-10-05,1,,,,,,0
294,1400001000271,登記記録の閉鎖等,0,2022-01-26,2022-01-24,株式会社伊藤仙,,株式会社,岩手県,盛岡市,材木町３番１３号,,03,201,0200063,,,2022-01-24,清算の結了等,,,2015-10-05,1,,,,,イトウセン,0
297,1420005000828,登記記録の閉鎖等,0,2022-01-26,2022-01-24,御嶽教青森教会,00087956,その他の設立登記法人,青森県,青森市,大字入内字駒田１５５番２号,,02,201,0300154,,,2022-01-24,清算の結了等,,,2015-10-05,1,,,,,オンタケキョウアオモリキョウカイ,0
310,2010001002521,登記記録の閉鎖等,0,2022-01-26,2022-01-18,コイケ株式会社,,株式会社,東京都,文京区,向丘２丁目２５番１４号,,13,105,1130023,,,2022-01-18,清算の結了等,,,2015-10-05,1,,,,,コイケ,0
327,2010101002099,登記記録の閉鎖等,0,2022-01-26,2022-01-25,株式会社多摩燃商,,株式会社,東京都,八王子市,石川町２１００番地の８,,13,201,1920032,,,2022-01-25,登記官による閉鎖,,,2015-10-05,1,,,,,,0
328,2010102002420,登記記録の閉鎖等,0,2022-01-26,2022-01-25,有限会社源喜,,有限会社,東京都,八王子市,三崎町３番７号,,13,201,1920084,,,2022-01-25,登記官による閉鎖,,,2015-10-05,1,,,,,,0
329,2010102003947,登記記録の閉鎖等,0,2022-01-26,2022-01-25,有限会社多摩シー・ビー・サービス,,有限会社,東京都,八王子市,西寺方町７１２番地３７,,13,201,1920153,,,2022-01-25,登記官による閉鎖,,,2015-10-05,1,,,,,,0
330,2010102006850,登記記録の閉鎖等,0,2022-01-26,2022-01-25,有限会社明和プロジェクト,,有限会社,東京都,八王子市,暁町１丁目２９番２２号レーベンコート１０１,,13,201,1920043,,,2022-01-25,登記官による閉鎖,,,2015-10-05,1,,,,,,0
331,2010401004043,登記記録の閉鎖等,0,2022-01-26,2022-01-26,株式会社エージェックセブン,,株式会社,東京都,港区,高輪２丁目２０番２６号,,13,103,1080074,,,2022-01-26,登記官による閉鎖,,,2015-10-05,1,,,,,,0
334,2010401015040,登記記録の閉鎖等,0,2022-01-26,2022-01-26,株式会社スタジオビコロール,,株式会社,東京都,港区,六本木６丁目６番１３号,,13,103,1060032,,,2022-01-26,登記官による閉鎖,,,2015-10-05,1,,,,,,0
335,2010401016641,登記記録の閉鎖等,0,2022-01-26,2022-01-26,株式会社Ｎ・Ｈ・Ｎ,,株式会社,東京都,港区,三田３丁目２番１号,,13,103,1080073,,,2022-01-26,登記官による閉鎖,,,2015-10-05,1,,,,,,0
336,2010401033348,登記記録の閉鎖等,0,2022-01-26,2022-01-26,オーファイヴ・リミックス株式会社,,株式会社,東京都,港区,西麻布２丁目１０番１号,,13,103,1060031,,,2022-01-26,登記官による閉鎖,,,2015-10-05,1,,,,,,0
337,2010401046275,登記記録の閉鎖等,0,2022-01-26,2022-01-26,株式会社大剛コンストラクション,,株式会社,東京都,港区,新橋６丁目２０番１号摩天楼ビル壱号館５階,,13,103,1050004,,,2022-01-26,登記官による閉鎖,,,2015-10-05,1,,,,,,0
338,2010401048825,登記記録の閉鎖等,0,2022-01-26,2022-01-26,中村水産株式会社,,株式会社,東京都,港区,海岸３丁目３番１５号,,13,103,1080022,,,2022-01-26,登記官による閉鎖,,,2015-10-05,1,,,,,,0
339,2010401059293,登記記録の閉鎖等,0,2022-01-26,2022-01-26,株式会社楓京,,株式会社,東京都,港区,浜松町２丁目６番８号,,13,103,1050013,,,2022-01-26,登記官による閉鎖,,,2015-10-05,1,,,,,,0
340,2010401072552,登記記録の閉鎖等,0,2022-01-26,2022-01-26,株式会社エンターテインメントワールド,,株式会社,東京都,港区,赤坂２丁目２０番１３号,,13,103,1070052,,,2022-01-26,登記官による閉鎖,,,2015-10-05,1,,,,,,0
341,2010401080670,登記記録の閉鎖等,0,2022-01-26,2022-01-26,株式会社リストランテルピーノ麻布十番,,株式会社,東京都,港区,麻布十番３丁目６番９号十番Ｍビル１階,,13,103,1060045,,,2022-01-26,登記官による閉鎖,,,2015-10-05,1,,,,,,0
342,2010401083418,登記記録の閉鎖等,0,2022-01-26,2022-01-26,株式会社信和ホールディングス,,株式会社,東京都,港区,六本木５丁目３番１号,,13,103,1060032,,,2022-01-26,登記官による閉鎖,,,2015-10-05,1,,,,,,0
343,2010401083475,登記記録の閉鎖等,0,2022-01-26,2022-01-26,株式会社エコ情報サービス,,株式会社,東京都,港区,南麻布５丁目３番２０号,,13,103,1060047,,,2022-01-26,登記官による閉鎖,,,2015-10-05,1,,,,,,0
346,2010401088251,登記記録の閉鎖等,0,2022-01-26,2022-01-26,株式会社オフィス・プラチナム,,株式会社,東京都,港区,西新橋１丁目２番９号日比谷セントラルビル１４階,,13,103,1050003,,,2022-01-26,登記官による閉鎖,,,2015-10-05,1,,,,,,0
347,2010401091437,登記記録の閉鎖等,0,2022-01-26,2022-01-26,飛亜海運株式会社,,株式会社,東京都,港区,三田３丁目４番１８号二葉ビル１００２号,,13,103,1080073,,,2022-01-26,登記官による閉鎖,,,2015-10-05,1,,,,,,0
348,2010401113967,登記記録の閉鎖等,0,2022-01-26,2022-01-26,株式会社有島,,株式会社,東京都,港区,元麻布２丁目１１番１７号,,13,103,1060046,,,2022-01-26,登記官による閉鎖,,,2015-10-05,1,,,,,,0
351,2010402029808,登記記録の閉鎖等,0,2022-01-26,2022-01-26,アイズムデザイン有限会社,,有限会社,東京都,港区,南青山６丁目１番６号,,13,103,1070062,,,2022-01-26,登記官による閉鎖,,,2015-10-05,1,,,,,,0
352,2010403007432,登記記録の閉鎖等,0,2022-01-26,2022-01-26,Ｒｅｓｅａｒｃｈ　Ｔｒｕｓｔ　Ｔｏｋｙｏ合同会社,,合同会社,東京都,港区,白金台４丁目８番１３号,,13,103,1080071,,,2022-01-26,登記官による閉鎖,,,2015-10-05,1,,,,,,0
354,2010405003636,登記記録の閉鎖等,0,2022-01-26,2022-01-26,特定非営利活動法人ＮＰＯ国際興業２１,,その他の設立登記法人,東京都,港区,六本木６丁目１２番２号,,13,103,1060032,,,2022-01-26,登記官による閉鎖,,,2015-10-05,1,,,,,,0
355,2010405003990,登記記録の閉鎖等,0,2022-01-26,2022-01-26,特定非営利活動法人酒類業フォーラム,,その他の設立登記法人,東京都,港区,南青山３丁目８番１４号パーク青山ビル４０１,,13,103,1070062,,,2022-01-26,登記官による閉鎖,,,2015-10-05,1,,,,,,0
356,2010405004733,登記記録の閉鎖等,0,2022-01-26,2022-01-26,特定非営利活動法人こどもとマルチメディア研究会,,その他の設立登記法人,東京都,港区,南青山１丁目２６番１３－２０６号,,13,103,1070062,,,2022-01-26,登記官による閉鎖,,,2015-10-05,1,,,,,,0
357,2010405005599,登記記録の閉鎖等,0,2022-01-26,2022-01-26,特定非営利活動法人最適な健康生活支援協会,,その他の設立登記法人,東京都,港区,愛宕１丁目２番２号松崎ビル５階,,13,103,1050002,,,2022-01-26,登記官による閉鎖,,,2015-10-05,1,,,,,,0
365,2010701007233,登記記録の閉鎖等,0,2022-01-26,2022-01-26,長州工業株式会社,,株式会社,東京都,品川区,東大井３丁目２３番１６号,,13,109,1400011,,,2022-01-26,登記官による閉鎖,,,2015-10-05,1,,,,,,0
366,2010701017785,登記記録の閉鎖等,0,2022-01-26,2022-01-26,九建産業株式会社,,株式会社,東京都,品川区,西大井４丁目２３番６号,,13,109,1400015,,,2022-01-26,登記官による閉鎖,,,2015-10-05,1,,,,,,0
369,2010702001433,登記記録の閉鎖等,0,2022-01-26,2022-01-26,荏原日光陶器有限会社,,有限会社,東京都,品川区,中延５丁目６番１７号,,13,109,1420053,,,2022-01-26,登記官による閉鎖,,,2015-10-05,1,,,,,,0
370,2010702005797,登記記録の閉鎖等,0,2022-01-26,2022-01-26,有限会社外山工務店,,有限会社,東京都,品川区,豊町６丁目６番１８号,,13,109,1420042,,,2022-01-26,登記官による閉鎖,,,2015-10-05,1,,,,,,0
371,2010702006192,登記記録の閉鎖等,0,2022-01-26,2022-01-26,有限会社弐聖晄庵,,有限会社,東京都,品川区,南大井５丁目１１番１３号,,13,109,1400013,,,2022-01-26,登記官による閉鎖,,,2015-10-05,1,,,,,,0
373,2010702013008,登記記録の閉鎖等,0,2022-01-26,2022-01-26,有限会社アイオンプレジャー,,有限会社,東京都,品川区,東五反田１丁目１７番８号,,13,109,1410022,,,2022-01-26,登記官による閉鎖,,,2015-10-05,1,,,,,,0
374,2010702013222,登記記録の閉鎖等,0,2022-01-26,2022-01-26,有限会社ＭＹＲエンタープライズ,,有限会社,東京都,品川区,西大井２丁目１０番８号,,13,109,1400015,,,2022-01-26,登記官による閉鎖,,,2015-10-05,1,,,,,,0
375,2010703000888,登記記録の閉鎖等,0,2022-01-26,2022-01-26,合資会社星野製作所,,合資会社,東京都,品川区,平塚２丁目１０番２１号,,13,109,1420051,,,2022-01-26,登記官による閉鎖,,,2015-10-05,1,,,,,,0
376,2010705000754,登記記録の閉鎖等,0,2022-01-26,2022-01-26,企業組合企業経営振興会,,その他の設立登記法人,東京都,品川区,東五反田４丁目１０番９号,,13,109,1410022,,,2022-01-26,登記官による閉鎖,,,2015-10-05,1,,,,,,0
377,2010705001050,登記記録の閉鎖等,0,2022-01-26,2022-01-26,特定非営利活動法人東京都介護ボランティア協議会,,その他の設立登記法人,東京都,品川区,大井１丁目１１番１号大井西銀座ビルＡ棟４階,,13,109,1400014,,,2022-01-26,登記官による閉鎖,,,2015-10-05,1,,,,,,0
378,2010801016324,登記記録の閉鎖等,0,2022-01-26,2022-01-25,株式会社プライダース,,株式会社,東京都,大田区,北千束１丁目５番７号,,13,111,1450062,,,2022-01-25,登記官による閉鎖,,,2015-10-05,1,,,,,,0
379,2010802002257,登記記録の閉鎖等,0,2022-01-26,2022-01-25,有限会社遠藤電子工業,,有限会社,東京都,大田区,西六郷２丁目９番３号,,13,111,1440056,,,2022-01-25,登記官による閉鎖,,,2015-10-05,1,,,,,,0
380,2010802005912,登記記録の閉鎖等,0,2022-01-26,2022-01-25,有限会社サカイ商店,,有限会社,東京都,大田区,大森西４丁目５番１１号,,13,111,1430015,,,2022-01-25,登記官による閉鎖,,,2015-10-05,1,,,,,,0
381,2010802007000,登記記録の閉鎖等,0,2022-01-26,2022-01-25,有限会社新日本自動車,,有限会社,東京都,大田区,大森南３丁目３１番１号,,13,111,1430013,,,2022-01-25,登記官による閉鎖,,,2015-10-05,1,,,,,,0
382,2010802007082,登記記録の閉鎖等,0,2022-01-26,2022-01-25,有限会社清水金型製作所,,有限会社,東京都,大田区,羽田１丁目９番２号,,13,111,1440043,,,2022-01-25,登記官による閉鎖,,,2015-10-05,1,,,,,,0
383,2010802011282,登記記録の閉鎖等,0,2022-01-26,2022-01-25,有限会社ノタケバッテリー工業所,,有限会社,東京都,大田区,上池台１丁目１２番７号,,13,111,1450064,,,2022-01-25,登記官による閉鎖,,,2015-10-05,1,,,,,,0
384,2010803001092,登記記録の閉鎖等,0,2022-01-26,2022-01-25,合同会社ＯＨＤＡ企画,,合同会社,東京都,大田区,東六郷３丁目８番４－１１０４号,,13,111,1440046,,,2022-01-25,登記官による閉鎖,,,2015-10-05,1,,,,,,0
385,2010805000654,登記記録の閉鎖等,0,2022-01-26,2022-01-25,医療法人社団秀友会,,その他の設立登記法人,東京都,大田区,大森北２丁目１６番４号サンライズビル４０１号,,13,111,1430016,,,2022-01-25,登記官による閉鎖,,,2015-10-05,1,,,,,,0
403,2011501021903,登記記録の閉鎖等,0,2022-01-26,2022-01-17,株式会社ムーンチャイルド,,株式会社,東京都,港区,六本木３丁目８番１５号,,13,103,1060032,,,2022-01-17,清算の結了等,,,2016-09-01,1,,,,,ムーンチャイルド,0
414,2013102005509,登記記録の閉鎖等,0,2022-01-26,2022-01-19,有限会社ヤマダイ,,有限会社,東京都,西多摩郡瑞穂町,大字二本木６８４番地６,,13,303,1901201,,,2022-01-19,登記官による閉鎖,,,2015-10-05,1,,,,,,0
415,2013105001208,登記記録の閉鎖等,0,2022-01-26,2022-01-19,日立ライティング労働組合,,その他の設立登記法人,東京都,青梅市,新町６丁目１６番地２,,13,205,1980024,,,2022-01-19,登記官による閉鎖,,,2015-10-05,1,,,,,,0
424,2020002096297,登記記録の閉鎖等,0,2022-01-26,2022-01-19,有限会社かしみつ,,有限会社,神奈川県,川崎市川崎区,駅前本町１０番地２,,14,131,2100007,,,2022-01-19,清算の結了等,,,2015-10-05,1,,,,,カシミツ,0
426,2020005004496,登記記録の閉鎖等,0,2022-01-26,2022-01-20,横浜市消費生活センター労働組合,,その他の設立登記法人,神奈川県,横浜市港南区,上大岡西１丁目６番１号,,14,111,2330002,,,2022-01-20,清算の結了等,,,2015-10-05,1,,,,,,0
427,2021001036252,登記記録の閉鎖等,0,2022-01-26,2022-01-21,株式会社大木種苗店,,株式会社,神奈川県,平塚市,明石町２４番２号,,14,203,2540042,,,2022-01-21,清算の結了等,,,2015-10-05,1,,,,,オオキシュビョウテン,0
431,2021002069029,登記記録の閉鎖等,0,2022-01-26,2022-01-24,有限会社葉山ナーセリー,,有限会社,神奈川県,三浦郡葉山町,長柄５２１番地,,14,301,2400113,,,2022-01-24,清算の結了等,,,2015-10-05,1,,,,,ハヤマナーセリー,0
435,2030001104563,登記記録の閉鎖等,0,2022-01-26,2022-01-21,株式会社エルエスディー,,株式会社,東京都,文京区,目白台１丁目２４番８号,,13,105,1120015,,,2022-01-21,清算の結了等,,,2015-10-05,1,,,,,エルエスディー,0
436,2030001116724,登記記録の閉鎖等,0,2022-01-26,2022-01-24,株式会社ナインルーツ,,株式会社,東京都,中央区,銀座６丁目１８番２号,,13,102,1040061,,,2022-01-24,清算の結了等,,,2016-10-13,1,,,,,ナインルーツ,0
460,2110001001406,登記記録の閉鎖等,0,2022-01-26,2022-01-26,内野不動産株式会社,,株式会社,新潟県,新潟市西区,小針西２丁目１２番６号,,15,107,9502014,,,2022-01-26,登記官による閉鎖,,,2016-06-10,1,,,,,,0
461,2110001005786,登記記録の閉鎖等,0,2022-01-26,2022-01-26,株式会社渡辺鉄工所,,株式会社,新潟県,新潟市中央区,川岸町１丁目３９番地１,,15,103,9518133,,,2022-01-26,登記官による閉鎖,,,2015-10-05,1,,,,,,0
462,2110001006347,登記記録の閉鎖等,0,2022-01-26,2022-01-26,株式会社石沢組,,株式会社,新潟県,新潟市江南区,下早通１丁目９番１号,,15,104,9500149,,,2022-01-26,登記官による閉鎖,,,2015-10-05,1,,,,,,0
463,2110001006743,登記記録の閉鎖等,0,2022-01-26,2022-01-26,森山建設株式会社,,株式会社,新潟県,新潟市西区,西小針台２丁目７番２号,,15,107,9502015,,,2022-01-26,登記官による閉鎖,,,2016-12-21,1,,,,,,0
464,2110001015182,登記記録の閉鎖等,0,2022-01-26,2022-01-26,加茂桐タンス株式会社,,株式会社,新潟県,加茂市,大字後須田３９８番地１,,15,209,9591303,,,2022-01-26,登記官による閉鎖,,,2015-10-05,1,,,,,,0
466,2110001024729,登記記録の閉鎖等,0,2022-01-26,2022-01-26,株式会社エムエーシーアール,,株式会社,新潟県,長岡市,日赤町２丁目４番１２号,,15,202,9400095,,,2022-01-26,登記官による閉鎖,,,2015-10-05,1,,,,,,0
467,2110001026015,登記記録の閉鎖等,0,2022-01-26,2022-01-26,リードマネージメント株式会社,,株式会社,新潟県,長岡市,城岡１丁目５番６８号,,15,202,9400021,,,2022-01-26,登記官による閉鎖,,,2015-10-05,1,,,,,,0
468,2110001030256,登記記録の閉鎖等,0,2022-01-26,2022-01-26,株式会社サンモア住建,,株式会社,新潟県,長岡市,宝地町１７６番地１,,15,202,9402031,,,2022-01-26,登記官による閉鎖,,,2015-10-05,1,,,,,,0
469,2110001031048,登記記録の閉鎖等,0,2022-01-26,2022-01-26,加茂木建興業株式会社,00104555,株式会社,新潟県,加茂市,大字上条６９９番地５,,15,209,9591332,,,2022-01-26,登記官による閉鎖,,,2015-11-04,1,,,,,,0
470,2110002003211,登記記録の閉鎖等,0,2022-01-26,2022-01-26,有限会社秀栄工業,,有限会社,新潟県,新潟市東区,江南１丁目６番地１,,15,102,9500855,,,2022-01-26,登記官による閉鎖,,,2015-10-05,1,,,,,,0
471,2110002010281,登記記録の閉鎖等,0,2022-01-26,2022-01-26,有限会社ハクエイ,,有限会社,新潟県,新潟市南区,白根３０７２番地,,15,106,9501217,,,2022-01-26,登記官による閉鎖,,,2015-10-05,1,,,,,,0
472,2110002010505,登記記録の閉鎖等,0,2022-01-26,2022-01-26,有限会社高菊メリヤス,,有限会社,新潟県,新潟市秋葉区,小須戸３５５６番地,,15,105,9560101,,,2022-01-26,登記官による閉鎖,,,2015-10-05,1,,,,,,0
473,2110002013978,登記記録の閉鎖等,0,2022-01-26,2022-01-26,有限会社玉泉,,有限会社,新潟県,五泉市,上木越字三ノ宮甲１０１３番地３,,15,218,9591708,,,2022-01-26,登記官による閉鎖,,,2015-10-05,1,,,,,,0
475,2110002019026,登記記録の閉鎖等,0,2022-01-26,2022-01-26,有限会社小林合成,,有限会社,新潟県,燕市,吉田法花堂２０４２番地４,,15,213,9590214,,,2022-01-26,登記官による閉鎖,,,2015-10-05,1,,,,,,0
476,2110002026476,登記記録の閉鎖等,0,2022-01-26,2022-01-26,有限会社パーラー宝島,,有限会社,新潟県,糸魚川市,大字能生１６７０番地１,,15,216,9491352,,,2022-01-26,登記官による閉鎖,,,2015-10-05,1,,,,,,0
477,2110002035048,登記記録の閉鎖等,0,2022-01-26,2022-01-26,有限会社東亜物産,,有限会社,新潟県,三条市,大平字峠１０７７番地,,15,204,9550154,,,2022-01-26,登記官による閉鎖,,,2015-10-05,1,,,,,,0
479,2110005008389,登記記録の閉鎖等,0,2022-01-26,2022-01-26,光勝寺,,その他の設立登記法人,新潟県,上越市,南本町３丁目１０番３０号,,15,222,9430841,,,2022-01-26,登記官による閉鎖,,,2015-10-05,1,,,,,,0
480,2110005012267,登記記録の閉鎖等,0,2022-01-26,2022-01-26,財団法人栃尾文化専門学校,,その他の設立登記法人,新潟県,長岡市,金沢１丁目６番２１号,,15,202,9400135,,,2022-01-26,登記官による閉鎖,,,2015-10-05,1,,,,,,0
481,2110005013851,登記記録の閉鎖等,0,2022-01-26,2022-01-26,ウェブネットカメラマン協同組合,,その他の設立登記法人,新潟県,南魚沼市,塩沢１５６３番地６,,15,226,9496408,,,2022-01-26,登記官による閉鎖,,,2015-10-05,1,,,,,,0
492,2120001142208,登記記録の閉鎖等,0,2022-01-26,2022-01-21,株式会社ｅｃｏ・ＪＡＰＡＮ,,株式会社,大阪府,大阪市生野区,田島１丁目９－２７,,27,116,5440011,,,2022-01-21,清算の結了等,,,2015-10-05,1,,,,,,0
514,2140001076379,登記記録の閉鎖等,0,2022-01-26,2022-01-21,株式会社内藤家具センター,,株式会社,兵庫県,加西市,玉丘町１番地の１,,28,220,6790109,,,2022-01-21,清算の結了等,,,2015-10-05,1,,,,,,0
520,2140002069778,登記記録の閉鎖等,0,2022-01-26,2022-01-17,有限会社サンツーリスト淡路,,有限会社,兵庫県,南あわじ市,市小井１５６番地７号,,28,224,6560473,,,2022-01-17,清算の結了等,,,2015-10-05,1,,,,,サンツーリストアワジ,0
539,2180002083800,登記記録の閉鎖等,0,2022-01-26,2022-01-21,有限会社花園水道設備,,有限会社,愛知県,半田市,花園町４丁目９番地の７,,23,205,4750833,,,2022-01-21,清算の結了等,,,2015-10-05,1,,,,,ハナゾノスイドウセツビ,0
565,2290001021626,登記記録の閉鎖等,0,2022-01-26,2022-01-24,新日本土木株式会社,,株式会社,福岡県,福岡市早良区,西新１丁目９番２３号,,40,137,8140002,,,2022-01-24,清算の結了等,,,2015-10-05,1,,,,,シンニホンドボク,0
571,2290001088244,登記記録の閉鎖等,0,2022-01-26,2022-01-21,パワーナップ株式会社,,株式会社,福岡県,福岡市中央区,天神２丁目３番３６号ｉｂｂ　ｆｕｋｕｏｋａ５Ｆ,,40,133,8100001,,,2022-01-21,清算の結了等,,,2020-03-04,1,,,,,パワーナップ,0
573,2290002034362,登記記録の閉鎖等,0,2022-01-26,2022-01-24,ダイドー建物有限会社,,有限会社,福岡県,古賀市,天神１丁目１７番１８号,,40,223,8113101,,,2022-01-24,清算の結了等,,,2015-10-05,1,,,,,ダイドータテモノ,0
589,2350001004756,登記記録の閉鎖等,0,2022-01-26,2022-01-25,株式会社プラスワン,,株式会社,宮崎県,宮崎市,高松町４番１９号コートハイブリッジパートＩＩ５０１号,00100487,45,201,8800003,,,2022-01-25,登記官による閉鎖,,,2015-10-05,1,,,,,,0
590,2350001007742,登記記録の閉鎖等,0,2022-01-26,2022-01-25,友協電設株式会社,,株式会社,宮崎県,児湯郡都農町,大字川北５６９３番地６,,45,406,8891201,,,2022-01-25,登記官による閉鎖,,,2015-10-05,1,,,,,,0
591,2350001008749,登記記録の閉鎖等,0,2022-01-26,2022-01-25,株式会社カワタ商会,,株式会社,宮崎県,都城市,上町４街区１号,,45,202,8850072,,,2022-01-25,登記官による閉鎖,,,2016-07-26,1,,,,,,0
592,2350001009986,登記記録の閉鎖等,0,2022-01-26,2022-01-25,南光石油株式会社,,株式会社,宮崎県,小林市,細野１９８０番地,,45,205,8860004,,,2022-01-25,登記官による閉鎖,,,2016-07-21,1,,,,,,0
593,2350001014375,登記記録の閉鎖等,0,2022-01-26,2022-01-25,日向木材株式会社,,株式会社,宮崎県,都城市,吉尾町７６６番地,,45,202,8850006,,,2022-01-25,登記官による閉鎖,,,2016-11-29,1,,,,,,0
595,2350002001793,登記記録の閉鎖等,0,2022-01-26,2022-01-25,有限会社コンパードラッグたかはし,,有限会社,宮崎県,宮崎市,月見ケ丘５丁目６番１号,,45,201,8800926,,,2022-01-25,登記官による閉鎖,,,2015-10-05,1,,,,,,0
596,2350002004020,登記記録の閉鎖等,0,2022-01-26,2022-01-25,有限会社藤電機製作所,,有限会社,宮崎県,宮崎市,東大宮２丁目２８番２４号,,45,201,8800825,,,2022-01-25,登記官による閉鎖,,,2015-10-05,1,,,,,,0
597,2350002008434,登記記録の閉鎖等,0,2022-01-26,2022-01-25,有限会社比恵島設備工業,,有限会社,宮崎県,宮崎市,佐土原町下田島５３１０番地２,,45,201,8800211,,,2022-01-25,登記官による閉鎖,,,2015-10-05,1,,,,,,0
598,2350002012213,登記記録の閉鎖等,0,2022-01-26,2022-01-25,清豊丸漁業有限会社,,有限会社,宮崎県,延岡市,鯛名町４１４番地,,45,203,8890516,,,2022-01-25,登記官による閉鎖,,,2015-10-05,1,,,,,,0
599,2350002015736,登記記録の閉鎖等,0,2022-01-26,2022-01-25,有限会社エース電子,,有限会社,宮崎県,都城市,山田町中霧島３８７８番地２,,45,202,8894602,,,2022-01-25,登記官による閉鎖,,,2015-10-05,1,,,,,,0
600,2350002016148,登記記録の閉鎖等,0,2022-01-26,2022-01-25,有限会社廣瀬産業,,有限会社,宮崎県,都城市,高崎町縄瀬２６９２番地１,,45,202,8894503,,,2022-01-25,登記官による閉鎖,,,2016-07-26,1,,,,,,0
620,2470002001922,登記記録の閉鎖等,0,2022-01-26,2022-01-25,有限会社樫原美装工業,,有限会社,香川県,高松市,木太町３４２０番地２,,37,201,7600080,,,2022-01-25,清算の結了等,,,2015-10-05,1,,,,,カシハラビソウコウギョウ,0
644,3010101000507,登記記録の閉鎖等,0,2022-01-26,2022-01-25,エースシステム工業株式会社,,株式会社,東京都,八王子市,川口町８８４番地の１,,13,201,1930801,,,2022-01-25,登記官による閉鎖,,,2015-10-05,1,,,,,,0
645,3010101002932,登記記録の閉鎖等,0,2022-01-26,2022-01-25,株式会社日本プロジェクト,,株式会社,東京都,八王子市,長房町２３０番地の６,,13,201,1930824,,,2022-01-25,登記官による閉鎖,,,2015-10-05,1,,,,,,0
646,3010101003006,登記記録の閉鎖等,0,2022-01-26,2022-01-25,株式会社日輪,,株式会社,東京都,八王子市,大和田町６丁目１２番２３号,,13,201,1920045,,,2022-01-25,登記官による閉鎖,,,2015-10-05,1,,,,,,0
647,3010101007469,登記記録の閉鎖等,0,2022-01-26,2022-01-25,ｅｑｕａｌ株式会社,,株式会社,東京都,八王子市,越野２１番２８号,,13,201,1920361,,,2022-01-25,登記官による閉鎖,,,2015-10-05,1,,,,,,0
650,3010102002139,登記記録の閉鎖等,0,2022-01-26,2022-01-25,有限会社協設,,有限会社,東京都,八王子市,大和田町２丁目１番１８号,,13,201,1920045,,,2022-01-25,登記官による閉鎖,,,2015-10-05,1,,,,,,0
651,3010102008490,登記記録の閉鎖等,0,2022-01-26,2022-01-25,有限会社井川編集事務所,,有限会社,東京都,八王子市,台町３丁目２８番５号,,13,201,1930931,,,2022-01-25,登記官による閉鎖,,,2015-10-05,1,,,,,,0
652,3010105000156,登記記録の閉鎖等,0,2022-01-26,2022-01-25,医療法人社団達雄会,,その他の設立登記法人,東京都,八王子市,子安町３丁目２３番１４号,,13,201,1920904,,,2022-01-25,登記官による閉鎖,,,2015-10-05,1,,,,,,0
653,3010401013563,登記記録の閉鎖等,0,2022-01-26,2022-01-26,株式会社清水基業,,株式会社,東京都,港区,白金台２丁目２５番１０号,,13,103,1080071,,,2022-01-26,登記官による閉鎖,,,2015-10-05,1,,,,,,0
654,3010401019610,登記記録の閉鎖等,0,2022-01-26,2022-01-26,株式会社とき美容室,,株式会社,東京都,港区,西新橋１丁目９番８号,,13,103,1050003,,,2022-01-26,登記官による閉鎖,,,2015-10-05,1,,,,,,0
655,3010401026656,登記記録の閉鎖等,0,2022-01-26,2022-01-26,株式会社プランネット,,株式会社,東京都,港区,南青山６丁目１３番２４号木下マンション２０１号,,13,103,1070062,,,2022-01-26,登記官による閉鎖,,,2015-10-05,1,,,,,,0
656,3010401029436,登記記録の閉鎖等,0,2022-01-26,2022-01-26,株式会社メトロオーバーシーズ,,株式会社,東京都,港区,西新橋１丁目２１番８号,,13,103,1050003,,,2022-01-26,登記官による閉鎖,,,2015-10-05,1,,,,,,0
657,3010401038569,登記記録の閉鎖等,0,2022-01-26,2022-01-26,株式会社ビー・エス・トウキョウ,,株式会社,東京都,港区,三田４丁目１９番２５号,,13,103,1080073,,,2022-01-26,登記官による閉鎖,,,2015-10-05,1,,,,,,0
658,3010401042901,登記記録の閉鎖等,0,2022-01-26,2022-01-26,株式会社エイトウゼット,,株式会社,東京都,港区,赤坂９丁目６番３０号,,13,103,1070052,,,2022-01-26,登記官による閉鎖,,,2015-10-05,1,,,,,,0
659,3010401051167,登記記録の閉鎖等,0,2022-01-26,2022-01-26,エイアイエス株式会社,,株式会社,東京都,港区,六本木３丁目１５番５号,,13,103,1060032,,,2022-01-26,登記官による閉鎖,,,2015-10-05,1,,,,,,0
660,3010401053015,登記記録の閉鎖等,0,2022-01-26,2022-01-26,株式会社ＩＢアドバイザーズ,,株式会社,東京都,港区,新橋２丁目１２番１号,,13,103,1050004,,,2022-01-26,登記官による閉鎖,,,2015-10-05,1,,,,,,0
661,3010401053816,登記記録の閉鎖等,0,2022-01-26,2022-01-26,株式会社日本資本政策研究所,,株式会社,東京都,港区,元赤坂１丁目１番７号,,13,103,1070051,,,2022-01-26,登記官による閉鎖,,,2015-10-05,1,,,,,,0
662,3010401064243,登記記録の閉鎖等,0,2022-01-26,2022-01-26,株式会社ビジョナリーズデライツ,,株式会社,東京都,港区,六本木１丁目３番３８号,,13,103,1060032,,,2022-01-26,登記官による閉鎖,,,2015-10-05,1,,,,,,0
663,3010401067931,登記記録の閉鎖等,0,2022-01-26,2022-01-26,株式会社リベラルエンターテインメント,,株式会社,東京都,港区,南青山４丁目１５番４号,,13,103,1070062,,,2022-01-26,登記官による閉鎖,,,2015-10-05,1,,,,,,0
664,3010401075133,登記記録の閉鎖等,0,2022-01-26,2022-01-26,株式会社トッティ,,株式会社,東京都,港区,芝浦３丁目１番３０号,,13,103,1080023,,,2022-01-26,登記官による閉鎖,,,2015-10-05,1,,,,,,0
665,3010401076511,登記記録の閉鎖等,0,2022-01-26,2022-01-26,株式会社北川食品,,株式会社,東京都,港区,海岸２丁目６番３３－７０１号,,13,103,1050022,,,2022-01-26,登記官による閉鎖,,,2015-10-05,1,,,,,,0
667,3010401087871,登記記録の閉鎖等,0,2022-01-26,2022-01-26,ワールドセルジャパン株式会社,,株式会社,東京都,港区,虎ノ門３丁目７番８号,,13,103,1050001,,,2022-01-26,登記官による閉鎖,,,2015-10-05,1,,,,,,0
668,3010401088721,登記記録の閉鎖等,0,2022-01-26,2022-01-26,株式会社イーエンジャパン,,株式会社,東京都,港区,南青山３丁目７番２１号,,13,103,1070062,,,2022-01-26,登記官による閉鎖,,,2015-10-05,1,,,,,,0
669,3010401094884,登記記録の閉鎖等,0,2022-01-26,2022-01-26,株式会社アサヒ創建,,株式会社,東京都,港区,六本木７丁目３番８永谷プラザ六本木２１２－５,,13,103,1060032,,,2022-01-26,登記官による閉鎖,,,2015-10-05,1,,,,,,0
671,3010402012688,登記記録の閉鎖等,0,2022-01-26,2022-01-26,有限会社宮本商会,,有限会社,東京都,港区,三田２丁目２１番６号,,13,103,1080073,,,2022-01-26,登記官による閉鎖,,,2015-10-05,1,,,,,,0
672,3010402023256,登記記録の閉鎖等,0,2022-01-26,2022-01-26,有限会社ニーム,,有限会社,東京都,港区,芝公園１丁目２番１０ロジマン芝公園２０４号,,13,103,1050011,,,2022-01-26,登記官による閉鎖,,,2015-10-05,1,,,,,,0
673,3010402029369,登記記録の閉鎖等,0,2022-01-26,2022-01-26,有限会社ＳＥＴＡＲＥＨ,,有限会社,東京都,港区,南青山２丁目２０番１号平野ビル３０１号,,13,103,1070062,,,2022-01-26,登記官による閉鎖,,,2015-10-05,1,,,,,,0
674,3010402029658,登記記録の閉鎖等,0,2022-01-26,2022-01-26,有限会社アールエフ・ファンディング・ツー,,有限会社,東京都,港区,赤坂４丁目２番３号,,13,103,1070052,,,2022-01-26,登記官による閉鎖,,,2015-10-05,1,,,,,,0
675,3010402032298,登記記録の閉鎖等,0,2022-01-26,2022-01-26,有限会社美装・ワイ,,有限会社,東京都,港区,三田１丁目３番２４号,,13,103,1080073,,,2022-01-26,登記官による閉鎖,,,2015-10-05,1,,,,,,0
676,3010402033701,登記記録の閉鎖等,0,2022-01-26,2022-01-26,有限会社サンパシフィックトレーディング,,有限会社,東京都,港区,白金１丁目１７番１号,,13,103,1080072,,,2022-01-26,登記官による閉鎖,,,2015-10-05,1,,,,,,0
677,3010402035409,登記記録の閉鎖等,0,2022-01-26,2022-01-26,有限会社Ｙ＆Ｓパートナーズ,,有限会社,東京都,港区,虎ノ門４丁目３－２０神谷町ＭＴビル１４Ｆ,,13,103,1050001,,,2022-01-26,登記官による閉鎖,,,2015-10-05,1,,,,,,0
678,3010403005617,登記記録の閉鎖等,0,2022-01-26,2022-01-26,合同会社デュープレックス・フォーティナインス,,合同会社,東京都,港区,元赤坂１丁目１番７号,,13,103,1070051,,,2022-01-26,登記官による閉鎖,,,2015-10-05,1,,,,,,0
679,3010403008603,登記記録の閉鎖等,0,2022-01-26,2022-01-26,ＵＩＡ２０５０ＥＡＲＴＨ　ＣＡＴＡＬＯＧＵＥ展実行委員会合同会社,,合同会社,東京都,港区,東麻布３丁目２番１号,,13,103,1060044,,,2022-01-26,登記官による閉鎖,,,2015-10-05,1,,,,,,0
683,3010405004328,登記記録の閉鎖等,0,2022-01-26,2022-01-26,特定非営利活動法人日本女子スポーツ・介護トレーナー協会,,その他の設立登記法人,東京都,港区,南麻布４丁目２番２５号,,13,103,1060047,,,2022-01-26,登記官による閉鎖,,,2015-10-05,1,,,,,,0
684,3010405004848,登記記録の閉鎖等,0,2022-01-26,2022-01-26,特定非営利活動法人ソーシャル・イノベーション・ジャパン,,その他の設立登記法人,東京都,港区,南青山１丁目２０番１５号,,13,103,1070062,,,2022-01-26,登記官による閉鎖,,,2015-10-05,1,,,,,,0
685,3010405007867,登記記録の閉鎖等,0,2022-01-26,2022-01-26,特定非営利活動法人ヒール・ザ・ワールド・インスティテュート,,その他の設立登記法人,東京都,港区,新橋６丁目１２番７号,,13,103,1050004,,,2022-01-26,登記官による閉鎖,,,2015-10-05,1,,,,,,0
686,3010405009657,登記記録の閉鎖等,0,2022-01-26,2022-01-26,一般社団法人ＯＸＦＯＲＤ被災者支援機構,,その他の設立登記法人,東京都,港区,元赤坂１丁目７番２２号,,13,103,1070051,,,2022-01-26,登記官による閉鎖,,,2015-10-05,1,,,,,,0
691,3010601040432,登記記録の閉鎖等,0,2022-01-26,2022-01-17,株式会社構造総研,,株式会社,東京都,墨田区,吾妻橋１丁目２３番３０－４０７号,,13,107,1300001,,,2022-01-17,清算の結了等,,,2015-10-05,1,,,,,コウゾウソウケン,0
693,3010701003702,登記記録の閉鎖等,0,2022-01-26,2022-01-26,三水トレィディング株式会社,,株式会社,東京都,品川区,西五反田６丁目１９番１号,,13,109,1410031,,,2022-01-26,登記官による閉鎖,,,2015-10-05,1,,,,,,0
694,3010701004972,登記記録の閉鎖等,0,2022-01-26,2022-01-26,鈴木熔材株式会社,,株式会社,東京都,品川区,荏原１丁目２５番２３号,,13,109,1420063,,,2022-01-26,登記官による閉鎖,,,2015-10-05,1,,,,,,0
695,3010701005723,登記記録の閉鎖等,0,2022-01-26,2022-01-26,株式会社滝本商店,,株式会社,東京都,品川区,二葉２丁目５番１１号,,13,109,1420043,,,2022-01-26,登記官による閉鎖,,,2015-10-05,1,,,,,,0
696,3010701005938,登記記録の閉鎖等,0,2022-01-26,2022-01-26,株式会社ダブリュワイエス,,株式会社,東京都,品川区,東五反田４丁目５番２号五反田ＮＴビル８階,,13,109,1410022,,,2022-01-26,登記官による閉鎖,,,2015-10-05,1,,,,,,0
697,3010701006119,登記記録の閉鎖等,0,2022-01-26,2022-01-26,株式会社綱島鍍金工場,,株式会社,東京都,品川区,北品川５丁目９番２３号,,13,109,1410001,,,2022-01-26,登記官による閉鎖,,,2015-10-05,1,,,,,,0
698,3010701007620,登記記録の閉鎖等,0,2022-01-26,2022-01-26,日本ウイスト株式会社,,株式会社,東京都,品川区,西五反田２丁目２４番１１号,,13,109,1410031,,,2022-01-26,登記官による閉鎖,,,2015-10-05,1,,,,,,0
699,3010701014518,登記記録の閉鎖等,0,2022-01-26,2022-01-26,株式会社星陵物産,,株式会社,東京都,品川区,上大崎２丁目１３番３５号,,13,109,1410021,,,2022-01-26,登記官による閉鎖,,,2015-10-05,1,,,,,,0
700,3010701023642,登記記録の閉鎖等,0,2022-01-26,2022-01-26,株式会社ジャパン・ブロード・カンパニー,,株式会社,東京都,品川区,上大崎２丁目１３番４４号,,13,109,1410021,,,2022-01-26,登記官による閉鎖,,,2015-10-05,1,,,,,,0
701,3010702012306,登記記録の閉鎖等,0,2022-01-26,2022-01-26,有限会社やまもと,,有限会社,東京都,品川区,東中延２丁目８番１５号,,13,109,1420052,,,2022-01-26,登記官による閉鎖,,,2015-10-05,1,,,,,,0
702,3010703001480,登記記録の閉鎖等,0,2022-01-26,2022-01-26,文化プロセツサア合資会社,,合資会社,東京都,品川区,西五反田８丁目１０－２,,13,109,1410031,,,2022-01-26,登記官による閉鎖,,,2015-10-05,1,,,,,,0
704,3010705000464,登記記録の閉鎖等,0,2022-01-26,2022-01-26,京南金属加工協同組合,,その他の設立登記法人,東京都,品川区,東大井２丁目２５番９号,,13,109,1400011,,,2022-01-26,登記官による閉鎖,,,2015-10-05,1,,,,,,0
708,3010802004616,登記記録の閉鎖等,0,2022-01-26,2022-01-25,有限会社グリーンワールド,,有限会社,東京都,大田区,南六郷２丁目３８番１－６０１号,,13,111,1440045,,,2022-01-25,登記官による閉鎖,,,2015-10-05,1,,,,,,0
709,3010802006380,登記記録の閉鎖等,0,2022-01-26,2022-01-25,有限会社三福,,有限会社,東京都,大田区,東雪谷２丁目２３番２号,,13,111,1450065,,,2022-01-25,登記官による閉鎖,,,2015-10-05,1,,,,,,0
710,3010802007973,登記記録の閉鎖等,0,2022-01-26,2022-01-25,有限会社正和工業,,有限会社,東京都,大田区,大森南５丁目３番１６号,,13,111,1430013,,,2022-01-25,登記官による閉鎖,,,2015-10-05,1,,,,,,0
711,3010802008617,登記記録の閉鎖等,0,2022-01-26,2022-01-25,有限会社武井工業,,有限会社,東京都,大田区,大森中３丁目１５番１８号,,13,111,1430014,,,2022-01-25,登記官による閉鎖,,,2015-10-05,1,,,,,,0
712,3010802010374,登記記録の閉鎖等,0,2022-01-26,2022-01-25,有限会社鳶善,,有限会社,東京都,大田区,本羽田１丁目２１番１２号,,13,111,1440044,,,2022-01-25,登記官による閉鎖,,,2015-10-05,1,,,,,,0
713,3010802019003,登記記録の閉鎖等,0,2022-01-26,2022-01-25,有限会社クロスポイントアソシエイツ,,有限会社,東京都,大田区,南千束１丁目９番１５号,,13,111,1450063,,,2022-01-25,登記官による閉鎖,,,2015-10-05,1,,,,,,0
715,3010805001288,登記記録の閉鎖等,0,2022-01-26,2022-01-25,特定非営利活動法人水・底質改善あおこ撲滅プロジェクト,,その他の設立登記法人,東京都,大田区,中央８丁目２７番５号,,13,111,1430024,,,2022-01-25,登記官による閉鎖,,,2015-10-05,1,,,,,,0
716,3010805001610,登記記録の閉鎖等,0,2022-01-26,2022-01-25,税理士法人安藤税務会計事務所,,その他の設立登記法人,東京都,大田区,池上３丁目３３番１０号,,13,111,1460082,,,2022-01-25,登記官による閉鎖,,,2015-10-05,1,,,,,,0
759,3020001069443,登記記録の閉鎖等,0,2022-01-26,2022-01-21,株式会社シマダ,,株式会社,神奈川県,川崎市中原区,中丸子１２５３番地,,14,133,2110012,,,2022-01-21,清算の結了等,,,2015-10-05,1,,,,,シマダ,0
788,3040001003573,登記記録の閉鎖等,0,2022-01-26,2022-01-20,株式会社鈴富,,株式会社,千葉県,千葉市中央区,本千葉町７番９号,,12,101,2600014,,,2022-01-20,清算の結了等,,,2015-10-05,1,,,,,スズトミ,0
806,3070002009749,登記記録の閉鎖等,0,2022-01-26,2022-01-24,有限会社建究工房吉田,,有限会社,群馬県,高崎市,金井淵町１３１番地３,,10,202,3700882,,,2022-01-24,清算の結了等,,,2015-10-05,1,,,,,ケンキュウコウボウヨシダ,0
815,3110001000803,登記記録の閉鎖等,0,2022-01-26,2022-01-26,株式会社エメール,,株式会社,新潟県,新潟市中央区,東大通１丁目７番２０号,,15,103,9500087,,,2022-01-26,登記官による閉鎖,,,2015-10-05,1,,,,,,0
816,3110001001578,登記記録の閉鎖等,0,2022-01-26,2022-01-26,株式会社ケイ・アンド・ディシー,,株式会社,新潟県,新潟市西区,平島３丁目８番地２,,15,107,9502004,,,2022-01-26,登記官による閉鎖,,,2015-10-05,1,,,,,,0
817,3110001003310,登記記録の閉鎖等,0,2022-01-26,2022-01-26,株式会社中部車輛陸送,,株式会社,新潟県,新潟市中央区,南笹口１丁目８番５２号,,15,103,9500912,,,2022-01-26,登記官による閉鎖,,,2015-10-05,1,,,,,,0
818,3110001003582,登記記録の閉鎖等,0,2022-01-26,2022-01-26,常盤理器株式会社,,株式会社,新潟県,新潟市西区,流通センター４丁目３番地２,,15,107,9502031,,,2022-01-26,登記官による閉鎖,,,2015-10-05,1,,,,,,0
819,3110001006602,登記記録の閉鎖等,0,2022-01-26,2022-01-26,株式会社アライブ,,株式会社,新潟県,新潟市北区,白勢町１番地１０,,15,101,9503103,,,2022-01-26,登記官による閉鎖,,,2016-03-14,1,,,,,,0
820,3110001010323,登記記録の閉鎖等,0,2022-01-26,2022-01-26,株式会社フードアシスト,,株式会社,新潟県,新潟市東区,東中野山４丁目６番８－８３２号,,15,102,9500836,,,2022-01-26,登記官による閉鎖,,,2015-10-05,1,,,,,,0
821,3110001016238,登記記録の閉鎖等,0,2022-01-26,2022-01-26,株式会社ハヤト,,株式会社,新潟県,燕市,秋葉町１丁目２番３６号,,15,213,9591261,,,2022-01-26,登記官による閉鎖,,,2015-10-05,1,,,,,,0
823,3110001017319,登記記録の閉鎖等,0,2022-01-26,2022-01-26,株式会社栄観光開発,,株式会社,新潟県,柏崎市,松波２丁目１８番３号,,15,205,9450011,,,2022-01-26,登記官による閉鎖,,,2015-10-05,1,,,,,,0
825,3110001022194,登記記録の閉鎖等,0,2022-01-26,2022-01-26,越商物産株式会社,,株式会社,新潟県,長岡市,片田町９９８番地,,15,202,9401143,,,2022-01-26,登記官による閉鎖,,,2015-10-05,1,,,,,,0
826,3110001028035,登記記録の閉鎖等,0,2022-01-26,2022-01-21,株式会社舞ライフ,,株式会社,新潟県,南魚沼市,余川８７６番地１,,15,226,9496681,,,2022-01-21,清算の結了等,,,2015-10-05,1,,,,,マイライフ,0
827,3110002000736,登記記録の閉鎖等,0,2022-01-26,2022-01-26,有限会社石川工務店,,有限会社,新潟県,新潟市中央区,蒲原町４番１０号,,15,103,9500083,,,2022-01-26,登記官による閉鎖,,,2015-10-05,1,,,,,,0
828,3110002006675,登記記録の閉鎖等,0,2022-01-26,2022-01-26,有限会社谷内田,,有限会社,新潟県,新潟市中央区,女池西２丁目７番２７号,,15,103,9500946,,,2022-01-26,登記官による閉鎖,,,2015-10-05,1,,,,,,0
829,3110002006683,登記記録の閉鎖等,0,2022-01-26,2022-01-26,有限会社柳商店,,有限会社,新潟県,新潟市東区,山の下町７番２０号,,15,102,9500057,,,2022-01-26,登記官による閉鎖,,,2015-10-05,1,,,,,,0
830,3110002008408,登記記録の閉鎖等,0,2022-01-26,2022-01-26,有限会社金川不動産,,有限会社,新潟県,新潟市江南区,横越７２８番地,,15,104,9500204,,,2022-01-26,登記官による閉鎖,,,2015-10-05,1,,,,,,0
831,3110002018836,登記記録の閉鎖等,0,2022-01-26,2022-01-26,有限会社エムケイインク,,有限会社,新潟県,燕市,米納津２０８２番地,,15,213,9590206,,,2022-01-26,登記官による閉鎖,,,2015-10-05,1,,,,,,0
832,3110002023844,登記記録の閉鎖等,0,2022-01-26,2022-01-26,有限会社三富士機工,,有限会社,新潟県,上越市,三和区水吉１１８４番地,,15,222,9430232,,,2022-01-26,登記官による閉鎖,,,2015-10-05,1,,,,,,0
833,3110002025238,登記記録の閉鎖等,0,2022-01-26,2022-01-26,有限会社ペンションアベーユ,,有限会社,新潟県,妙高市,大字樽本丙１１０１番地４号,00107617,15,217,9492223,,,2022-01-26,登記官による閉鎖,,,2016-08-25,1,,,,,,0
834,3110002025840,登記記録の閉鎖等,0,2022-01-26,2022-01-26,有限会社北星自動車販売,,有限会社,新潟県,中魚沼郡津南町,大字下船渡乙１６０９番地乙子,,15,482,9498201,,,2022-01-26,登記官による閉鎖,,,2015-10-05,1,,,,,,0
835,3110002035055,登記記録の閉鎖等,0,2022-01-26,2022-01-26,有限会社宮島屋商店,,有限会社,新潟県,魚沼市,小出島１７０番地,,15,225,9460011,,,2022-01-26,登記官による閉鎖,,,2015-10-05,1,,,,,,0
836,3110003000900,登記記録の閉鎖等,0,2022-01-26,2022-01-26,合同会社スーパー食堂,,合同会社,新潟県,胎内市,村松浜２７２４番地１,,15,227,9592709,,,2022-01-26,登記官による閉鎖,,,2015-10-05,1,,,,,,0
837,3110005008140,登記記録の閉鎖等,0,2022-01-26,2022-01-26,サンフレーム協業組合,,その他の設立登記法人,新潟県,上越市,三和区野１１８０番地,,15,222,9430225,,,2022-01-26,登記官による閉鎖,,,2015-10-05,1,,,,,,0
838,3110005013891,登記記録の閉鎖等,0,2022-01-26,2022-01-26,魚沼地域木材普及協同組合,,その他の設立登記法人,新潟県,魚沼市,十日町４９４番地３,,15,225,9460035,,,2022-01-26,登記官による閉鎖,,,2015-10-05,1,,,,,,0
874,3140002057971,登記記録の閉鎖等,0,2022-01-26,2022-01-21,汀交易有限会社,,有限会社,兵庫県,神戸市東灘区,本庄町１丁目１２番１６－１０１号,,28,101,6580012,,,2022-01-21,清算の結了等,,,2015-10-05,1,,,,,ミギワコウエキ,0
879,3140005006406,登記記録の閉鎖等,0,2022-01-26,2022-01-24,特定非営利活動法人ジュン家事問題相談室,,その他の設立登記法人,兵庫県,三木市,志染町東自由が丘１丁目４４７番地,,28,215,6730553,,,2022-01-24,清算の結了等,,,2015-10-05,1,,,,,ジュンカジモンダイソウダンシツ,0
880,3150001022042,登記記録の閉鎖等,0,2022-01-26,2022-01-19,株式会社ライフプロダクション,,株式会社,奈良県,磯城郡田原本町,大字八尾４９１番地の１２,,29,363,6360311,,,2022-01-19,清算の結了等,,,2018-01-12,1,,,,,ライフプロダクション,0
892,3180302025476,登記記録の閉鎖等,0,2022-01-26,2022-01-24,有限会社鮮魚のナイキ,,有限会社,愛知県,豊田市,栄町３丁目３８番地２,,23,211,4710066,,,2022-01-24,清算の結了等,,,2015-10-05,1,,,,,センギョノナイキ,0
899,3200005001152,登記記録の閉鎖等,0,2022-01-26,2022-01-25,岐阜県時計宝飾眼鏡商業協同組合,,その他の設立登記法人,岐阜県,岐阜市,大宝町２丁目７番地,,21,201,5008851,,,2022-01-25,清算の結了等,,,2015-10-05,1,,,,,ギフケントケイホウショクガンキョウショウギョウ,0
912,3240002002637,登記記録の閉鎖等,0,2022-01-26,2022-01-25,エムマシナリー有限会社,,有限会社,広島県,広島市安佐南区,長束２丁目１番２０－１００１号,,34,105,7310135,,,2022-01-25,清算の結了等,,,2015-10-05,1,,,,,エムマシナリー,0
914,3240002035554,登記記録の閉鎖等,0,2022-01-26,2022-01-20,有限会社クロカワ,,有限会社,広島県,呉市,天応西条２丁目１番６３号,,34,202,7370883,,,2022-01-20,清算の結了等,,,2015-10-05,1,,,,,クロカワ,0
917,3260001004129,登記記録の閉鎖等,0,2022-01-26,2022-01-25,株式会社サンシャインミヤケ,,株式会社,岡山県,岡山市北区,奉還町２丁目５番１号,,33,101,7000026,,,2022-01-25,清算の結了等,,,2015-10-05,1,,,,,サンシャインミヤケ,0
944,3350002008953,登記記録の閉鎖等,0,2022-01-26,2022-01-25,有限会社大蔵,,有限会社,宮崎県,児湯郡高鍋町,大字蚊口浦５５８０番地,,45,401,8840004,,,2022-01-25,登記官による閉鎖,,,2015-10-05,1,,,,,,0
945,3350002009191,登記記録の閉鎖等,0,2022-01-26,2022-01-25,有限会社ニイロ,,有限会社,宮崎県,児湯郡木城町,大字高城３８４６番地,,45,404,8840101,,,2022-01-25,登記官による閉鎖,,,2015-10-05,1,,,,,,0
946,3350002016436,登記記録の閉鎖等,0,2022-01-26,2022-01-25,有限会社安藤紙店,,有限会社,宮崎県,日南市,園田２丁目７番地３,,45,204,8870012,,,2022-01-25,登記官による閉鎖,,,2015-10-05,1,,,,,,0
947,3350003001692,登記記録の閉鎖等,0,2022-01-26,2022-01-25,合資会社キララホーム,,合資会社,宮崎県,日南市,吾田西１丁目１２番２４－１号,,45,204,8892536,,,2022-01-25,登記官による閉鎖,,,2015-10-05,1,,,,,,0
950,3350005001518,登記記録の閉鎖等,0,2022-01-26,2022-01-25,学校法人九州明倫館,,その他の設立登記法人,宮崎県,宮崎市,田野町桜ケ丘乙１７３０番地２,,45,201,8800000,,,2022-01-25,登記官による閉鎖,,,2015-10-05,1,,,,,,0
951,3350005005626,登記記録の閉鎖等,0,2022-01-26,2022-01-25,小林開拓農業協同組合,,その他の設立登記法人,宮崎県,小林市,大字細野１５０９番地３,,45,205,8860000,,,2022-01-25,登記官による閉鎖,,,2016-08-08,1,,,,,,0
952,3360001004325,登記記録の閉鎖等,0,2022-01-26,2022-01-24,株式会社私立ちゃちゃま保育園,,株式会社,沖縄県,中頭郡西原町,字棚原１００番地２階,,47,329,9030126,,,2022-01-24,清算の結了等,,,2015-10-05,1,,,,,シリツチャチャマホイクエン,0
984,4010001088154,登記記録の閉鎖等,0,2022-01-26,2022-01-17,東亜キャピタル株式会社,,株式会社,東京都,千代田区,神田小川町１丁目７番,,13,101,1010052,,,2022-01-17,清算の結了等,,,2015-10-05,1,,,,,トウアキャピタル,0
993,4010101000448,登記記録の閉鎖等,0,2022-01-26,2022-01-25,株式会社上田建築設計事務所,,株式会社,東京都,八王子市,楢原町５４８番地,00050123,13,201,1930803,,,2022-01-25,登記官による閉鎖,,,2015-10-05,1,,,,,,0
994,4010101000472,登記記録の閉鎖等,0,2022-01-26,2022-01-24,株式会社ウッディーフィールド,,株式会社,東京都,八王子市,中野町２５９０番地,,13,201,1920015,,,2022-01-24,清算の結了等,,,2015-10-05,1,,,,,,0
995,4010101008499,登記記録の閉鎖等,0,2022-01-26,2022-01-25,株式会社ライサム,,株式会社,東京都,八王子市,中山４６番地１,,13,201,1920374,,,2022-01-25,登記官による閉鎖,,,2015-10-05,1,,,,,,0
996,4010102002666,登記記録の閉鎖等,0,2022-01-26,2022-01-25,有限会社小林インテリア,,有限会社,東京都,八王子市,石川町６３６番地２,,13,201,1920032,,,2022-01-25,登記官による閉鎖,,,2015-10-05,1,,,,,,0
997,4010102007558,登記記録の閉鎖等,0,2022-01-26,2022-01-25,有限会社リューズテクニカ,,有限会社,東京都,八王子市,南陽台３丁目１４番３号,,13,201,1920371,,,2022-01-25,登記官による閉鎖,,,2015-10-05,1,,,,,,0
998,4010102011675,登記記録の閉鎖等,0,2022-01-26,2022-01-25,有限会社さくら織,,有限会社,東京都,八王子市,上野町６８番地,,13,201,1920902,,,2022-01-25,登記官による閉鎖,,,2017-07-12,1,,,,,,0
1000,4010401006723,登記記録の閉鎖等,0,2022-01-26,2022-01-26,株式会社ガジェット,,株式会社,東京都,港区,三田３丁目２番９号,,13,103,1080073,,,2022-01-26,登記官による閉鎖,,,2015-10-05,1,,,,,,0
1003,4010401011888,登記記録の閉鎖等,0,2022-01-26,2022-01-26,サンレミ化粧品株式会社,,株式会社,東京都,港区,赤坂６丁目５番２１号,,13,103,1070052,,,2022-01-26,登記官による閉鎖,,,2015-10-05,1,,,,,,0
1004,4010401014197,登記記録の閉鎖等,0,2022-01-26,2022-01-26,社本産業株式会社,,株式会社,東京都,港区,赤坂７丁目６番５２－５０４号,,13,103,1070052,,,2022-01-26,登記官による閉鎖,,,2016-02-12,1,,,,,,0
1005,4010401019659,登記記録の閉鎖等,0,2022-01-26,2022-01-26,篤和ビルデイング株式会社,,株式会社,東京都,港区,六本木３丁目１４番１７号,,13,103,1060032,,,2022-01-26,登記官による閉鎖,,,2015-10-05,1,,,,,,0
1006,4010401025046,登記記録の閉鎖等,0,2022-01-26,2022-01-26,株式会社ビオシティ,,株式会社,東京都,港区,南青山２丁目４番８－３０２号,,13,103,1070062,,,2022-01-26,登記官による閉鎖,,,2015-10-05,1,,,,,,0
1007,4010401026069,登記記録の閉鎖等,0,2022-01-26,2022-01-26,フドー冷熱部品株式会社,,株式会社,東京都,港区,芝浦３丁目１５番５号,,13,103,1080023,,,2022-01-26,登記官による閉鎖,,,2015-10-05,1,,,,,,0
1008,4010401041068,登記記録の閉鎖等,0,2022-01-26,2022-01-26,ビーアイオーエス株式会社,,株式会社,東京都,港区,赤坂２丁目１８番１９号赤坂シャレーＩＩ３０１,00050698,13,103,1070052,,,2022-01-26,登記官による閉鎖,,,2015-10-05,1,,,,,,0
1009,4010401045969,登記記録の閉鎖等,0,2022-01-26,2022-01-26,株式会社ユニバーサルプランニング,,株式会社,東京都,港区,赤坂４丁目７番１５号,,13,103,1070052,,,2022-01-26,登記官による閉鎖,,,2016-04-19,1,,,,,,0
1010,4010401053146,登記記録の閉鎖等,0,2022-01-26,2022-01-26,ＪＡＰＡＮＩＭＡＴＩＯＮ株式会社,,株式会社,東京都,港区,西麻布１丁目４番４０号,,13,103,1060031,,,2022-01-26,登記官による閉鎖,,,2015-10-05,1,,,,,,0
1013,4010401084182,登記記録の閉鎖等,0,2022-01-26,2022-01-26,ユーサス・ユナイテッド株式会社,,株式会社,東京都,港区,南麻布４丁目１１番３５－５０３号,,13,103,1060047,,,2022-01-26,登記官による閉鎖,,,2015-10-05,1,,,,,,0
1014,4010401088984,登記記録の閉鎖等,0,2022-01-26,2022-01-26,株式会社ヒートビートアイ,,株式会社,東京都,港区,海岸１丁目１番１－３３１１号,,13,103,1050022,,,2022-01-26,登記官による閉鎖,,,2015-10-05,1,,,,,,0
1015,4010401108321,登記記録の閉鎖等,0,2022-01-26,2022-01-21,株式会社ワイ・インターナショナル,,株式会社,埼玉県,志木市,本町４丁目４番２６号,,11,228,3530004,,,2022-01-21,合併による解散等,8010001220670,令和４年１月１日東京都千代田区丸の内一丁目９番１号株式会社ワイ・インターナショナル（8010001220670）に合併し解散,2015-10-05,1,,,,,ワイインターナショナル,0
1018,4010401133880,登記記録の閉鎖等,0,2022-01-26,2022-01-17,株式会社ロゾーパンサン,,株式会社,東京都,港区,南青山２丁目２番１５号Ｗｉｎ　Ａｏｙａｍａビル－ＵＣＦ９１７,,13,103,1070062,,,2022-01-17,清算の結了等,,,2017-09-25,1,,,,,ロゾーパンサン,0
1027,4010402008347,登記記録の閉鎖等,0,2022-01-26,2022-01-26,有限会社茅花,,有限会社,東京都,港区,新橋１丁目１１番２号,,13,103,1050004,,,2022-01-26,登記官による閉鎖,,,2015-10-05,1,,,,,,0
1028,4010402013132,登記記録の閉鎖等,0,2022-01-26,2022-01-26,有限会社山下鈑金工業所,,有限会社,東京都,港区,白金１丁目１５番１１号,,13,103,1080072,,,2022-01-26,登記官による閉鎖,,,2015-10-05,1,,,,,,0
1029,4010402016465,登記記録の閉鎖等,0,2022-01-26,2022-01-26,有限会社トリシア,,有限会社,東京都,港区,芝３丁目４２番７号,,13,103,1050014,,,2022-01-26,登記官による閉鎖,,,2015-10-05,1,,,,,,0
1031,4010402024360,登記記録の閉鎖等,0,2022-01-26,2022-01-17,有限会社高輪不動産,,有限会社,東京都,港区,芝４丁目１６番１の４１４,,13,103,1080014,,,2022-01-17,清算の結了等,,,2015-10-05,1,,,,,タカナワフドウサン,0
1032,4010403006952,登記記録の閉鎖等,0,2022-01-26,2022-01-26,クロスキャピタル合同会社,,合同会社,東京都,港区,虎ノ門１丁目１１番１４号,,13,103,1050001,,,2022-01-26,登記官による閉鎖,,,2015-10-05,1,,,,,,0
1035,4010405009367,登記記録の閉鎖等,0,2022-01-26,2022-01-26,一般社団法人日本の心,,その他の設立登記法人,東京都,港区,虎ノ門１丁目１４番１号,,13,103,1050001,,,2022-01-26,登記官による閉鎖,,,2015-10-05,1,,,,,,0
1037,4010701006183,登記記録の閉鎖等,0,2022-01-26,2022-01-26,ディ・エス・スタッフ株式会社,,株式会社,東京都,品川区,東五反田２丁目９番７号,,13,109,1410022,,,2022-01-26,登記官による閉鎖,,,2015-10-05,1,,,,,,0
1038,4010701014269,登記記録の閉鎖等,0,2022-01-26,2022-01-26,ジャガースポーツ株式会社,,株式会社,東京都,品川区,上大崎２丁目７番３号,,13,109,1410021,,,2022-01-26,登記官による閉鎖,,,2015-10-05,1,,,,,,0
1039,4010701018187,登記記録の閉鎖等,0,2022-01-26,2022-01-26,ジューンチアー株式会社,,株式会社,東京都,品川区,西五反田１丁目４番８号,,13,109,1410031,,,2022-01-26,登記官による閉鎖,,,2015-10-05,1,,,,,,0
1040,4010701023179,登記記録の閉鎖等,0,2022-01-26,2022-01-26,十光院株式会社,,株式会社,東京都,品川区,東五反田２丁目１９番４号,,13,109,1410022,,,2022-01-26,登記官による閉鎖,,,2015-10-05,1,,,,,,0
1042,4010702004244,登記記録の閉鎖等,0,2022-01-26,2022-01-26,有限会社須釜製作所,,有限会社,東京都,品川区,西大井６丁目１２番６号,,13,109,1400015,,,2022-01-26,登記官による閉鎖,,,2015-10-05,1,,,,,,0
1043,4010702005812,登記記録の閉鎖等,0,2022-01-26,2022-01-26,有限会社友久,,有限会社,東京都,品川区,西大井１丁目４番１５－４１４号,,13,109,1400015,,,2022-01-26,登記官による閉鎖,,,2015-10-05,1,,,,,,0
1044,4010702007809,登記記録の閉鎖等,0,2022-01-26,2022-01-26,有限会社松壽し,,有限会社,東京都,品川区,大井１丁目３２番１２号,,13,109,1400014,,,2022-01-26,登記官による閉鎖,,,2015-10-05,1,,,,,,0
1045,4010702008501,登記記録の閉鎖等,0,2022-01-26,2022-01-26,有限会社博,,有限会社,東京都,品川区,東五反田１丁目１５番１号,,13,109,1410022,,,2022-01-26,登記官による閉鎖,,,2015-10-05,1,,,,,,0
1046,4010702014508,登記記録の閉鎖等,0,2022-01-26,2022-01-26,有限会社リッキー企画,,有限会社,東京都,品川区,上大崎３丁目１番５号,,13,109,1410021,,,2022-01-26,登記官による閉鎖,,,2015-10-05,1,,,,,,0
1047,4010703001802,登記記録の閉鎖等,0,2022-01-26,2022-01-26,ワイズプランニング合同会社,,合同会社,東京都,品川区,西五反田３丁目２番６－３０２号,,13,109,1410031,,,2022-01-26,登記官による閉鎖,,,2015-10-05,1,,,,,,0
1049,4010801009359,登記記録の閉鎖等,0,2022-01-26,2022-01-25,株式会社日進企工,,株式会社,東京都,大田区,北馬込１丁目３０番地７号,,13,111,1430021,,,2022-01-25,登記官による閉鎖,,,2015-10-05,1,,,,,,0
1050,4010801019928,登記記録の閉鎖等,0,2022-01-26,2022-01-25,ＳＥＲＥＮＤＩＰＩＴＹ株式会社,,株式会社,東京都,大田区,南雪谷４丁目１７番４号,,13,111,1450066,,,2022-01-25,登記官による閉鎖,,,2015-10-05,1,,,,,,0
1051,4010802002783,登記記録の閉鎖等,0,2022-01-26,2022-01-25,有限会社大田工業所,,有限会社,東京都,大田区,西糀谷４丁目２２番５号,,13,111,1440034,,,2022-01-25,登記官による閉鎖,,,2015-10-05,1,,,,,,0
1052,4010802007808,登記記録の閉鎖等,0,2022-01-26,2022-01-19,有限会社スピカ・メディカル,,有限会社,東京都,大田区,千鳥１丁目２３番１２号,,13,111,1460083,,,2022-01-19,清算の結了等,,,2015-10-05,1,,,,,スピカメディカル,0
1053,4010802008772,登記記録の閉鎖等,0,2022-01-26,2022-01-25,有限会社高田溶接,,有限会社,東京都,大田区,中央７丁目３番６－４０４号,,13,111,1430024,,,2022-01-25,登記官による閉鎖,,,2015-10-05,1,,,,,,0
1054,4010802009548,登記記録の閉鎖等,0,2022-01-26,2022-01-25,有限会社ティー・アンド・ジー研究所,,有限会社,東京都,大田区,池上３丁目１２番６号,,13,111,1460082,,,2022-01-25,登記官による閉鎖,,,2015-10-05,1,,,,,,0
1055,4010802010976,登記記録の閉鎖等,0,2022-01-26,2022-01-25,有限会社新美庵,,有限会社,東京都,大田区,多摩川２丁目３番４号,,13,111,1460095,,,2022-01-25,登記官による閉鎖,,,2015-10-05,1,,,,,,0
1056,4010802017559,登記記録の閉鎖等,0,2022-01-26,2022-01-25,有限会社ゆワタファミリー・インターナショナル,,有限会社,東京都,大田区,東雪谷１丁目１３番２３号,,13,111,1450065,,,2022-01-25,登記官による閉鎖,,,2015-10-05,1,,,,,,0
1060,4011001052232,登記記録の閉鎖等,0,2022-01-26,2022-01-05,株式会社インフォーズ,,株式会社,東京都,渋谷区,本町３丁目１２番１号,,13,113,1510071,,,2022-01-05,合併による解散等,8012301009141,令和４年１月１日東京都渋谷区本町三丁目１２番１号ココン株式会社（8012301009141）に合併し解散,2015-10-05,1,,,,,インフォーズ,0
1061,4011001063642,登記記録の閉鎖等,0,2022-01-26,2022-01-05,バリュース株式会社,,株式会社,東京都,渋谷区,恵比寿１丁目２４番１５号シエルブルー恵比寿ＥＡＳＴ７Ｆ,,13,113,1500013,,,2022-01-05,合併による解散等,8012301009141,令和４年１月１日東京都渋谷区本町三丁目１２番１号ココン株式会社（8012301009141）に合併し解散,2015-10-05,1,,,,,バリュース,0
1078,4011301018156,登記記録の閉鎖等,0,2022-01-26,2022-01-21,株式会社イマージュプロジェクト,,株式会社,東京都,足立区,中央本町２丁目２２番１７号,,13,121,1200011,,,2022-01-21,清算の結了等,,,2015-10-05,1,,,,,イマージュプロジェクト,0
1090,4013101000698,登記記録の閉鎖等,0,2022-01-26,2022-01-19,東瑛ハウジング株式会社,,株式会社,東京都,福生市,北田園１丁目６番地９－４０２,,13,218,1970005,,,2022-01-19,登記官による閉鎖,,,2015-10-05,1,,,,,,0
1091,4013102000838,登記記録の閉鎖等,0,2022-01-26,2022-01-19,ポンティアック有限会社,,有限会社,東京都,福生市,大字福生２２７１番地,,13,218,1970011,,,2022-01-19,登記官による閉鎖,,,2015-10-05,1,,,,,,0
1092,4013102001150,登記記録の閉鎖等,0,2022-01-26,2022-01-19,有限会社櫻電工,,有限会社,東京都,羽村市,五ノ神２丁目９番地の１７,,13,227,2050011,,,2022-01-19,登記官による閉鎖,,,2015-10-05,1,,,,,,0
1093,4013102006298,登記記録の閉鎖等,0,2022-01-26,2022-01-19,有限会社玉川屋,,有限会社,東京都,青梅市,住江町５５番地,,13,205,1980084,,,2022-01-19,登記官による閉鎖,,,2015-10-05,1,,,,,,0
1094,4013102006785,登記記録の閉鎖等,0,2022-01-26,2022-01-19,有限会社円装飾,,有限会社,東京都,青梅市,成木１丁目７００番地の１,,13,205,1980001,,,2022-01-19,登記官による閉鎖,,,2015-10-05,1,,,,,,0
1114,4021002043015,登記記録の閉鎖等,0,2022-01-26,2022-01-21,有限会社林間テレビサービス,,有限会社,神奈川県,大和市,南林間２丁目１３番２０号,,14,213,2420006,,,2022-01-21,清算の結了等,,,2015-10-05,1,,,,,リンカンテレビサービス,0
1115,4021005011943,登記記録の閉鎖等,0,2022-01-26,2022-01-24,ＮＰＯ法人カエルプロダクション,,その他の設立登記法人,神奈川県,伊勢原市,板戸９１７番地の２サンヴェール伊勢原４０８号,,14,214,2591145,,,2022-01-24,清算の結了等,,,2020-05-25,1,,,,,カエルプロダクション,0
1122,4030001127760,登記記録の閉鎖等,0,2022-01-26,2022-01-25,神村産業株式会社,,株式会社,東京都,八王子市,南大沢５丁目６番地６－２０８堀口方,,13,201,1920364,,,2022-01-25,登記官による閉鎖,,,2018-10-22,1,,,,,カミムラサンギョウ,0
1127,4040001072106,登記記録の閉鎖等,0,2022-01-26,2022-01-24,株式会社ＳＡＫＵＲＡ,,株式会社,東京都,荒川区,町屋２丁目９番２号,,13,118,1160001,,,2022-01-24,清算の結了等,,,2015-10-05,1,,,,,サクラ,0
1138,4050003004411,登記記録の閉鎖等,0,2022-01-26,2022-01-21,合同会社ＢＯＮＤＳ,,合同会社,茨城県,龍ケ崎市,大徳町２７１１番地２、１０１号室,,08,208,3010816,,,2022-01-21,清算の結了等,,,2018-11-06,1,,,,,ボンズ,0
1143,4080103001586,登記記録の閉鎖等,0,2022-01-26,2021-11-30,合同会社コオ,,合同会社,静岡県,富士市,中里６４０番地の４,,22,210,4170826,,,2021-11-30,清算の結了等,,,2016-08-09,1,,,,,コオ,0
1147,4110001001866,登記記録の閉鎖等,0,2022-01-26,2022-01-26,株式会社工営,,株式会社,新潟県,新潟市中央区,関屋松波町３丁目２２８番地,,15,103,9518161,,,2022-01-26,登記官による閉鎖,,,2015-10-05,1,,,,,,0
1149,4110001003664,登記記録の閉鎖等,0,2022-01-26,2022-01-26,新潟駅南開発株式会社,,株式会社,新潟県,新潟市中央区,笹口１丁目２番地プラーカ新潟２,,15,103,9500911,,,2022-01-26,登記官による閉鎖,,,2015-10-05,1,,,,,,0
1150,4110001005322,登記記録の閉鎖等,0,2022-01-26,2022-01-26,株式会社丸善建設興業舍,,株式会社,新潟県,新潟市江南区,祖父興野２４２番地１５,,15,104,9501144,,,2022-01-26,登記官による閉鎖,,,2015-10-05,1,,,,,,0
1151,4110001008696,登記記録の閉鎖等,0,2022-01-26,2022-01-26,エイユー株式会社,,株式会社,新潟県,新潟市西区,内野上新町１１８９４番地,,15,107,9502172,,,2022-01-26,登記官による閉鎖,,,2015-10-05,1,,,,,,0
1152,4110001009298,登記記録の閉鎖等,0,2022-01-26,2022-01-26,株式会社ヤマト遊機,,株式会社,新潟県,新潟市東区,松崎２丁目６番１０号,,15,102,9500014,,,2022-01-26,登記官による閉鎖,,,2015-10-05,1,,,,,,0
1153,4110001024388,登記記録の閉鎖等,0,2022-01-26,2022-01-26,株式会社桐小林,,株式会社,新潟県,長岡市,栃尾原町３丁目９番１号,,15,202,9400134,,,2022-01-26,登記官による閉鎖,,,2015-10-05,1,,,,,,0
1154,4110001024974,登記記録の閉鎖等,0,2022-01-26,2022-01-26,株式会社ジエミニオート見附,,株式会社,新潟県,見附市,今町３丁目１１番２１号,,15,211,9540111,,,2022-01-26,登記官による閉鎖,,,2015-10-05,1,,,,,,0
1155,4110001026070,登記記録の閉鎖等,0,2022-01-26,2022-01-26,白勢農機株式会社,,株式会社,新潟県,長岡市,東神田３丁目８番５号,,15,202,9400035,,,2022-01-26,登記官による閉鎖,,,2015-10-05,1,,,,,,0
1156,4110002000735,登記記録の閉鎖等,0,2022-01-26,2022-01-26,有限会社石川工産,,有限会社,新潟県,新潟市西区,五十嵐中島５丁目９番１１号,,15,107,9502162,,,2022-01-26,登記官による閉鎖,,,2015-10-05,1,,,,,,0
1158,4110002008844,登記記録の閉鎖等,0,2022-01-26,2022-01-26,有限会社タカギデザイン,,有限会社,新潟県,新潟市中央区,西堀通２番町７７８番地,,15,103,9518061,,,2022-01-26,登記官による閉鎖,,,2015-10-05,1,,,,,,0
1159,4110002030815,登記記録の閉鎖等,0,2022-01-26,2022-01-26,有限会社長岡解体工業,,有限会社,新潟県,長岡市,堀金１丁目３番２０号,,15,202,9400868,,,2022-01-26,登記官による閉鎖,,,2015-10-05,1,,,,,,0
1160,4110002031532,登記記録の閉鎖等,0,2022-01-26,2022-01-26,有限会社オガワメリヤス,,有限会社,新潟県,見附市,熱田町５００番地２,,15,211,9540061,,,2022-01-26,登記官による閉鎖,,,2015-10-05,1,,,,,,0
1161,4110002031623,登記記録の閉鎖等,0,2022-01-26,2022-01-26,有限会社佐野商メリヤス,,有限会社,新潟県,見附市,南本町３丁目４番１６号,,15,211,9540056,,,2022-01-26,登記官による閉鎖,,,2015-10-05,1,,,,,,0
1162,4110002035062,登記記録の閉鎖等,0,2022-01-26,2022-01-26,有限会社東和農機商会,,有限会社,新潟県,南魚沼市,茗荷沢２７７番地,,15,226,9497231,,,2022-01-26,登記官による閉鎖,,,2015-10-05,1,,,,,,0
1164,4110003002978,登記記録の閉鎖等,0,2022-01-26,2022-01-26,合資会社堤新平商店,,合資会社,新潟県,新潟市中央区,古町通８番町１５０７番地,,15,103,9518063,,,2022-01-26,登記官による閉鎖,,,2015-10-05,1,,,,,,0
1165,4110005013800,登記記録の閉鎖等,0,2022-01-26,2022-01-26,協業組合ショッピングカーおおふじ,,その他の設立登記法人,新潟県,魚沼市,原虫野１１５番地１,,15,225,9460031,,,2022-01-26,登記官による閉鎖,,,2015-10-05,1,,,,,,0
1185,4140002031174,登記記録の閉鎖等,0,2022-01-26,2022-01-21,マルミツ興産有限会社,,有限会社,兵庫県,三木市,緑が丘町東２丁目４番地の２,,28,215,6730533,,,2022-01-21,清算の結了等,,,2015-10-05,1,,,,,マルミツコウサン,0
1194,4170001001984,登記記録の閉鎖等,0,2022-01-26,2022-01-25,ダイナミック食品株式会社,,株式会社,和歌山県,和歌山市,永穂２５４番地,,30,201,6496333,,,2022-01-25,清算の結了等,,,2015-10-05,1,,,,,ダイナミックショクヒン,0
1202,4180002009357,登記記録の閉鎖等,0,2022-01-26,2022-01-24,有限会社オフィス・ツー・スリー,,有限会社,愛知県,名古屋市昭和区,塩付通６丁目５６番地,,23,107,4660022,,,2022-01-24,清算の結了等,,,2015-10-05,1,,,,,オフィスツースリー,0
1205,4180002071332,登記記録の閉鎖等,0,2022-01-26,2022-01-20,有限会社興来畜産,,有限会社,愛知県,小牧市,小木東１丁目１２７番地,,23,219,4850059,,,2022-01-20,清算の結了等,,,2015-10-05,1,,,,,コウライチクサン,0
1208,4190002005173,登記記録の閉鎖等,0,2022-01-26,2022-01-25,有限会社愛プランニング,,有限会社,三重県,南牟婁郡紀宝町,井内字萩尾６１５番地の９,,24,562,5195834,,,2022-01-25,清算の結了等,,,2015-10-05,1,,,,,,0
1209,4190005008553,登記記録の閉鎖等,0,2022-01-26,2022-01-24,一般社団法人永慈会,,その他の設立登記法人,三重県,津市,一身田上津部田６３番地１,,24,201,5140061,,,2022-01-24,清算の結了等,,,2015-10-05,1,,,,,エイジカイ,0
1212,4200002024048,登記記録の閉鎖等,0,2022-01-26,2022-01-19,有限会社カネ萬商店,,有限会社,岐阜県,中津川市,坂下９２６番地の４,,21,206,5099232,,,2022-01-19,清算の結了等,,,2015-10-05,1,,,,,カネマンショウテン,0
1220,4240001037435,登記記録の閉鎖等,0,2022-01-26,2022-01-24,株式会社川本造船所,,株式会社,広島県,豊田郡大崎上島町,東野乙５４９８番地の６,,34,431,7250231,,,2022-01-24,清算の結了等,,,2015-10-05,1,,,,,カワモトゾウセンショ,0
1221,4240001045009,登記記録の閉鎖等,0,2022-01-26,2022-01-25,株式会社みよしサンサン手づくりファーム,,株式会社,広島県,三次市,畠敷町９２３番地,,34,209,7280006,,,2022-01-25,清算の結了等,,,2015-10-05,1,,,,,ミヨシサンサンテヅクリファーム,0
1222,4240002000532,登記記録の閉鎖等,0,2022-01-26,2022-01-20,有限会社赤峰電工,,有限会社,広島県,広島市安佐北区,深川４丁目１２番６号,,34,106,7391751,,,2022-01-20,清算の結了等,,,2015-10-05,1,,,,,アカミネデンコウ,0
1235,4290001044534,登記記録の閉鎖等,0,2022-01-26,2022-01-21,株式会社ムソン,,株式会社,福岡県,朝倉市,下浦６２８番地,,40,228,8380055,,,2022-01-21,清算の結了等,,,2015-10-05,1,,,,,ムソン,0
1257,4350002006163,登記記録の閉鎖等,0,2022-01-26,2022-01-25,有限会社友輝サービス,,有限会社,宮崎県,宮崎市,大字小松１０１７番地,,45,201,8802112,,,2022-01-25,登記官による閉鎖,,,2015-10-05,1,,,,,,0
1258,4350002014926,登記記録の閉鎖等,0,2022-01-26,2022-01-25,有限会社里見解体,,有限会社,宮崎県,都城市,都北町５７９０番地,,45,202,8850004,,,2022-01-25,登記官による閉鎖,,,2015-10-05,1,,,,,,0
1259,4350002015156,登記記録の閉鎖等,0,2022-01-26,2022-01-25,有限会社山下土木,,有限会社,宮崎県,都城市,志比田町５１６３番地１,,45,202,8850093,,,2022-01-25,登記官による閉鎖,,,2015-10-05,1,,,,,,0
1260,4350002017581,登記記録の閉鎖等,0,2022-01-26,2022-01-25,有限会社小山,,有限会社,宮崎県,日南市,吾田東３丁目２番３２－１号,,45,204,8870041,,,2022-01-25,登記官による閉鎖,,,2015-10-05,1,,,,,,0
1262,4350005001657,登記記録の閉鎖等,0,2022-01-26,2022-01-25,特定非営利活動法人ゆめの泉,,その他の設立登記法人,宮崎県,東臼杵郡門川町,西栄町４丁目２０番地,,45,421,8890622,,,2022-01-25,登記官による閉鎖,,,2015-10-05,1,,,,,,0
1264,4360001016963,登記記録の閉鎖等,0,2022-01-26,2022-01-24,株式会社ＲＡＩＤ,,株式会社,沖縄県,浦添市,城間４丁目１９番８号オアシスクローバー４０１,,47,208,9012133,,,2022-01-24,清算の結了等,,,2015-10-05,1,,,,,,0
1268,4370001004026,登記記録の閉鎖等,0,2022-01-26,2022-01-25,松木ガス圧接工業株式会社,,株式会社,宮城県,仙台市若林区,蒲町２０番地の３９,,04,103,9840037,,,2022-01-25,清算の結了等,,,2015-10-05,1,,,,,,0
1288,4430001046838,登記記録の閉鎖等,0,2022-01-26,2022-01-24,ヨシモト産業株式会社,,株式会社,北海道,美唄市,大通西一条南６丁目１番７号,,01,215,0720023,,,2022-01-24,清算の結了等,,,2015-10-05,1,,,,,ヨシモトサンギョウ,0
1314,5010005029789,登記記録の閉鎖等,0,2022-01-26,2022-01-21,一般社団法人オーピーエフ・ＡＧ,,その他の設立登記法人,東京都,千代田区,丸の内３丁目１番１号東京共同会計事務所内,,13,101,1000005,,,2022-01-21,清算の結了等,,,2019-02-28,1,,,,,オーピーエフエージー,0
1317,5010101002740,登記記録の閉鎖等,0,2022-01-26,2022-01-25,藤和ホーム株式会社,,株式会社,東京都,八王子市,元本郷町４丁目２０番３０号,,13,201,1920051,,,2022-01-25,登記官による閉鎖,,,2015-10-05,1,,,,,,0
1318,5010101003482,登記記録の閉鎖等,0,2022-01-26,2022-01-25,株式会社フジタック,,株式会社,東京都,八王子市,大和田町２丁目２０番４号,,13,201,1920045,,,2022-01-25,登記官による閉鎖,,,2015-10-05,1,,,,,,0
1319,5010101006808,登記記録の閉鎖等,0,2022-01-26,2022-01-25,株式会社グローバルヘルスサポート,,株式会社,東京都,八王子市,めじろ台２丁目１番地,,13,201,1930833,,,2022-01-25,登記官による閉鎖,,,2015-10-05,1,,,,,,0
1320,5010101008498,登記記録の閉鎖等,0,2022-01-26,2022-01-25,株式会社チカコインターナショナル,,株式会社,東京都,八王子市,鹿島９４５番地５４,,13,201,1920353,,,2022-01-25,登記官による閉鎖,,,2015-10-05,1,,,,,,0
1321,5010101008572,登記記録の閉鎖等,0,2022-01-26,2022-01-25,医療ｎｅｔインテグレイト株式会社,,株式会社,東京都,八王子市,館町３０１番地７,,13,201,1930944,,,2022-01-25,登記官による閉鎖,,,2015-10-05,1,,,,,,0
1323,5010102001345,登記記録の閉鎖等,0,2022-01-26,2022-01-25,有限会社オーエスエー,,有限会社,東京都,八王子市,横山町１番１号,,13,201,1920081,,,2022-01-25,登記官による閉鎖,,,2015-10-05,1,,,,,,0
1324,5010102003845,登記記録の閉鎖等,0,2022-01-26,2022-01-25,有限会社セレッソ,,有限会社,東京都,八王子市,石川町６８９番地,,13,201,1920032,,,2022-01-25,登記官による閉鎖,,,2015-10-05,1,,,,,,0
1325,5010102008530,登記記録の閉鎖等,0,2022-01-26,2022-01-25,有限会社き良く,,有限会社,東京都,八王子市,平岡町３６番５号,,13,201,1920061,,,2022-01-25,登記官による閉鎖,,,2015-10-05,1,,,,,,0
1326,5010102008844,登記記録の閉鎖等,0,2022-01-26,2022-01-25,有限会社梅原,,有限会社,東京都,八王子市,大和田町６丁目７番１６－８０１号,,13,201,1920045,,,2022-01-25,登記官による閉鎖,,,2015-10-05,1,,,,,,0
1327,5010102011641,登記記録の閉鎖等,0,2022-01-26,2022-01-25,亀井メリヤス有限会社,,有限会社,東京都,八王子市,本町１８番４号,,13,201,1920066,,,2022-01-25,登記官による閉鎖,,,2016-07-29,1,,,,,,0
1328,5010401005022,登記記録の閉鎖等,0,2022-01-26,2022-01-26,株式会社エヌ・ビー・エー,,株式会社,東京都,港区,六本木３丁目９番５号,,13,103,1060032,,,2022-01-26,登記官による閉鎖,,,2015-10-05,1,,,,,,0
1329,5010401016548,登記記録の閉鎖等,0,2022-01-26,2022-01-26,株式会社ダイショーオートグループサービスセンター,,株式会社,東京都,港区,芝浦４丁目６番３号,,13,103,1080023,,,2022-01-26,登記官による閉鎖,,,2015-10-05,1,,,,,,0
1330,5010401018981,登記記録の閉鎖等,0,2022-01-26,2022-01-26,株式会社照本商事,,株式会社,東京都,港区,浜松町２丁目２番６号,,13,103,1050013,,,2022-01-26,登記官による閉鎖,,,2015-10-05,1,,,,,,0
1331,5010401037197,登記記録の閉鎖等,0,2022-01-26,2022-01-26,株式会社フォード新広島,,株式会社,東京都,港区,虎ノ門４丁目３番２０号,,13,103,1050001,,,2022-01-26,登記官による閉鎖,,,2015-10-05,1,,,,,,0
1332,5010401057914,登記記録の閉鎖等,0,2022-01-26,2022-01-26,株式会社Ｈ・Ｉ・Ｏ,,株式会社,東京都,港区,高輪１丁目５番８号,,13,103,1080074,,,2022-01-26,登記官による閉鎖,,,2015-10-05,1,,,,,,0
1333,5010401062237,登記記録の閉鎖等,0,2022-01-26,2022-01-26,株式会社アイ・ティー・アンドグラフィクス,,株式会社,東京都,港区,虎ノ門５丁目８番１５号,,13,103,1050001,,,2022-01-26,登記官による閉鎖,,,2015-10-05,1,,,,,,0
1334,5010401074257,登記記録の閉鎖等,0,2022-01-26,2022-01-26,株式会社産研グループ,,株式会社,東京都,港区,虎ノ門１丁目１２番１号－３Ｆ,,13,103,1050001,,,2022-01-26,登記官による閉鎖,,,2015-10-05,1,,,,,,0
1335,5010401085980,登記記録の閉鎖等,0,2022-01-26,2022-01-26,株式会社スイッチマン,,株式会社,東京都,港区,元赤坂１丁目６番２号,,13,103,1070051,,,2022-01-26,登記官による閉鎖,,,2015-10-05,1,,,,,,0
1336,5010401088736,登記記録の閉鎖等,0,2022-01-26,2022-01-26,株式会社グローバルカンパニー,,株式会社,東京都,港区,元赤坂１丁目４番地１号,,13,103,1070051,,,2022-01-26,登記官による閉鎖,,,2015-10-05,1,,,,,,0
1337,5010401088760,登記記録の閉鎖等,0,2022-01-26,2022-01-26,株式会社秀栄,,株式会社,東京都,港区,西新橋１丁目１１番７号,,13,103,1050003,,,2022-01-26,登記官による閉鎖,,,2015-10-05,1,,,,,,0
1339,5010401123740,登記記録の閉鎖等,0,2022-01-26,2022-01-26,株式会社動,,株式会社,東京都,港区,六本木３丁目１４番１２号,,13,103,1060032,,,2022-01-26,登記官による閉鎖,,,2016-03-16,1,,,,,,0
1340,5010401142063,登記記録の閉鎖等,0,2022-01-26,2022-01-11,株式会社Ｇ．Ｅ．Ｓ,,株式会社,東京都,港区,赤坂６丁目６番２９号,,13,103,1070052,,,2022-01-11,清算の結了等,,,2018-11-15,1,,,,,ジーエーエス,0
1342,5010402003891,登記記録の閉鎖等,0,2022-01-26,2022-01-26,有限会社銀水,,有限会社,東京都,港区,新橋２丁目１９番６号,,13,103,1050004,,,2022-01-26,登記官による閉鎖,,,2015-10-05,1,,,,,,0
1343,5010402020268,登記記録の閉鎖等,0,2022-01-26,2022-01-26,日本プロアマゴルフ有限会社,,有限会社,東京都,港区,南青山４丁目２４番４号,,13,103,1070062,,,2022-01-26,登記官による閉鎖,,,2015-10-05,1,,,,,,0
1344,5010403007974,登記記録の閉鎖等,0,2022-01-26,2022-01-26,合同会社アイハブ,,合同会社,東京都,港区,北青山２丁目９番８号,,13,103,1070061,,,2022-01-26,登記官による閉鎖,,,2015-10-05,1,,,,,,0
1345,5010403007982,登記記録の閉鎖等,0,2022-01-26,2022-01-26,東京メゾン合同会社,,合同会社,東京都,港区,東麻布２丁目２２－５,,13,103,1060044,,,2022-01-26,登記官による閉鎖,,,2015-10-05,1,,,,,,0
1346,5010405002775,登記記録の閉鎖等,0,2022-01-26,2022-01-26,特定非営利活動法人二十一世紀を勝抜く会,,その他の設立登記法人,東京都,港区,六本木４丁目１２番８号,,13,103,1060032,,,2022-01-26,登記官による閉鎖,,,2015-10-05,1,,,,,,0
1347,5010405003121,登記記録の閉鎖等,0,2022-01-26,2022-01-26,特定非営利活動法人日本キッズカート協会,,その他の設立登記法人,東京都,港区,南青山２丁目２４番１５号,,13,103,1070062,,,2022-01-26,登記官による閉鎖,,,2015-10-05,1,,,,,,0
1348,5010405003360,登記記録の閉鎖等,0,2022-01-26,2022-01-26,特定非営利活動法人アジア自然復元支援委員会,,その他の設立登記法人,東京都,港区,新橋３丁目２６番４号新橋相互ビル７０１,,13,103,1050004,,,2022-01-26,登記官による閉鎖,,,2015-10-05,1,,,,,,0
1349,5010405005415,登記記録の閉鎖等,0,2022-01-26,2022-01-26,特定非営利活動法人移植医療情報センター,,その他の設立登記法人,東京都,港区,虎ノ門３丁目１９番７号大手ビル６Ｆ,,13,103,1050001,,,2022-01-26,登記官による閉鎖,,,2015-10-05,1,,,,,,0
1350,5010405006173,登記記録の閉鎖等,0,2022-01-26,2022-01-26,特定非営利活動法人国際交流協会アジャップジャパン,,その他の設立登記法人,東京都,港区,東麻布１丁目２８番１号,,13,103,1060044,,,2022-01-26,登記官による閉鎖,,,2015-10-05,1,,,,,,0
1351,5010405006751,登記記録の閉鎖等,0,2022-01-26,2022-01-26,特定非営利活動法人首都圏無料相談センター,,その他の設立登記法人,東京都,港区,新橋６丁目２０番地１号４階,,13,103,1050004,,,2022-01-26,登記官による閉鎖,,,2015-10-05,1,,,,,,0
1358,5010701005754,登記記録の閉鎖等,0,2022-01-26,2022-01-26,株式会社高野,00051856,株式会社,東京都,品川区,西五反田８丁目１番４号,,13,109,1410031,,,2022-01-26,登記官による閉鎖,,,2015-10-05,1,,,,,,0
1359,5010701008831,登記記録の閉鎖等,0,2022-01-26,2022-01-26,株式会社プリンツモトーレン,,株式会社,東京都,品川区,東大井１丁目９番３５号,,13,109,1400011,,,2022-01-26,登記官による閉鎖,,,2015-10-05,1,,,,,,0
1360,5010701013600,登記記録の閉鎖等,0,2022-01-26,2022-01-26,カン調査測量株式会社,,株式会社,東京都,品川区,大井４丁目２番５号,,13,109,1400014,,,2022-01-26,登記官による閉鎖,,,2015-10-05,1,,,,,,0
1361,5010701017221,登記記録の閉鎖等,0,2022-01-26,2022-01-26,株式会社ボルテツク,,株式会社,東京都,品川区,西五反田４丁目１７番８号,,13,109,1410031,,,2022-01-26,登記官による閉鎖,,,2015-10-05,1,,,,,,0
1362,5010701022353,登記記録の閉鎖等,0,2022-01-26,2022-01-26,Ｎ－１ファイナンシャルサービス株式会社,,株式会社,東京都,品川区,西五反田２丁目１３番１号,,13,109,1410031,,,2022-01-26,登記官による閉鎖,,,2015-10-05,1,,,,,,0
1363,5010701023450,登記記録の閉鎖等,0,2022-01-26,2022-01-26,株式会社グッドライフ,,株式会社,東京都,品川区,南大井２丁目１２番１０－８１９号,,13,109,1400013,,,2022-01-26,登記官による閉鎖,,,2015-10-05,1,,,,,,0
1366,5010702003146,登記記録の閉鎖等,0,2022-01-26,2022-01-20,有限会社広葉プリント,,有限会社,東京都,品川区,二葉４丁目１３番１７号,,13,109,1420043,,,2022-01-20,清算の結了等,,,2015-10-05,1,,,,,コウヨウプリント,0
1367,5010702005027,登記記録の閉鎖等,0,2022-01-26,2022-01-26,有限会社竹内組,,有限会社,東京都,品川区,西五反田５丁目３０番３号,,13,109,1410031,,,2022-01-26,登記官による閉鎖,,,2015-10-05,1,,,,,,0
1368,5010702008756,登記記録の閉鎖等,0,2022-01-26,2022-01-26,有限会社ヨロズヤ電器,,有限会社,東京都,品川区,荏原２丁目４番３５号,,13,109,1420063,,,2022-01-26,登記官による閉鎖,,,2015-10-05,1,,,,,,0
1369,5010705000495,登記記録の閉鎖等,0,2022-01-26,2022-01-26,立会川船舶協同組合,,その他の設立登記法人,東京都,品川区,南大井６丁目１８番２－８１０号,,13,109,1400013,,,2022-01-26,登記官による閉鎖,,,2015-10-05,1,,,,,,0
1370,5010801003897,登記記録の閉鎖等,0,2022-01-26,2022-01-25,幸和ハウジング株式会社,,株式会社,東京都,大田区,西蒲田７丁目５１番１１号,,13,111,1440051,,,2022-01-25,登記官による閉鎖,,,2015-10-05,1,,,,,,0
1371,5010801017575,登記記録の閉鎖等,0,2022-01-26,2022-01-25,株式会社山岸製作所,,株式会社,東京都,大田区,石川町２丁目１０番５－１１１号,,13,111,1450061,,,2022-01-25,登記官による閉鎖,,,2015-10-05,1,,,,,,0
1374,5010802000010,登記記録の閉鎖等,0,2022-01-26,2022-01-25,有限会社朝日機工,,有限会社,東京都,大田区,東糀谷５丁目１６番５号,,13,111,1440033,,,2022-01-25,登記官による閉鎖,,,2015-10-05,1,,,,,,0
1375,5010802006800,登記記録の閉鎖等,0,2022-01-26,2022-01-25,有限会社信建,,有限会社,東京都,大田区,蒲田本町２丁目１１番７号,,13,111,1440053,,,2022-01-25,登記官による閉鎖,,,2015-10-05,1,,,,,,0
1376,5010802007419,登記記録の閉鎖等,0,2022-01-26,2022-01-25,白江科学有限会社,,有限会社,東京都,大田区,東雪谷４丁目２２番９号,,13,111,1450065,,,2022-01-25,登記官による閉鎖,,,2015-10-05,1,,,,,,0
1377,5010802009159,登記記録の閉鎖等,0,2022-01-26,2022-01-25,有限会社玉陶業,,有限会社,東京都,大田区,南蒲田１丁目７番６号,,13,111,1440035,,,2022-01-25,登記官による閉鎖,,,2015-10-05,1,,,,,,0
1378,5010802010356,登記記録の閉鎖等,0,2022-01-26,2022-01-25,有限会社利根工機,,有限会社,東京都,大田区,西糀谷１丁目１５番３号,,13,111,1440034,,,2022-01-25,登記官による閉鎖,,,2015-10-05,1,,,,,,0
1379,5010802011131,登記記録の閉鎖等,0,2022-01-26,2022-01-25,有限会社ニッチイガラシ,,有限会社,東京都,大田区,中央８丁目４４番７号,,13,111,1430024,,,2022-01-25,登記官による閉鎖,,,2015-10-05,1,,,,,,0
1380,5010802012988,登記記録の閉鎖等,0,2022-01-26,2022-01-25,有限会社豊栄製作所,,有限会社,東京都,大田区,下丸子２丁目２５番１０号,,13,111,1460092,,,2022-01-25,登記官による閉鎖,,,2015-10-05,1,,,,,,0
1381,5010802013747,登記記録の閉鎖等,0,2022-01-26,2022-01-25,有限会社宮崎精工,,有限会社,東京都,大田区,本羽田２丁目１２番１－３０３号,,13,111,1440044,,,2022-01-25,登記官による閉鎖,,,2015-10-05,1,,,,,,0
1421,5013102006066,登記記録の閉鎖等,0,2022-01-26,2022-01-19,有限会社サンプリント,,有限会社,東京都,青梅市,勝沼３丁目８０番地,,13,205,1980041,,,2022-01-19,登記官による閉鎖,,,2015-10-05,1,,,,,,0
1422,5013102006801,登記記録の閉鎖等,0,2022-01-26,2022-01-19,有限会社増田建築,,有限会社,東京都,青梅市,友田町１丁目１０３５番地の２１,,13,205,1980051,,,2022-01-19,登記官による閉鎖,,,2015-10-05,1,,,,,,0
1423,5013201016750,登記記録の閉鎖等,0,2022-01-26,2022-01-12,株式会社Ｖｅｒｏ　ｃｕｏｒｅ,,株式会社,東京都,目黒区,碑文谷１丁目２７番１９号,,13,110,1520003,,,2022-01-12,清算の結了等,,,2015-10-05,1,,,,,ヴェロクオーレ,0
1437,5021005011868,登記記録の閉鎖等,0,2022-01-26,2022-01-24,一般社団法人日本ハンドエステティシャン協会,,その他の設立登記法人,神奈川県,海老名市,中央３丁目２番２９号ライオンズプラザ海老名２０２,,14,215,2430432,,,2022-01-24,清算の結了等,,,2020-03-10,1,,,,,ニホンハンドエステティシャンキョウカイ,0
1440,5030002005428,登記記録の閉鎖等,0,2022-01-26,2022-01-17,有限会社サイトカン,,有限会社,埼玉県,さいたま市浦和区,高砂４丁目１番１号,,11,107,3300063,,,2022-01-17,清算の結了等,,,2015-10-05,1,,,,,サイトカン,0
1443,5030003012555,登記記録の閉鎖等,0,2022-01-26,2022-01-24,合同会社エスシーシー,,合同会社,埼玉県,八潮市,八潮１丁目７番地４,,11,234,3400815,,,2022-01-24,清算の結了等,,,2018-10-16,1,,,,,エスシーシー,0
1456,5080001016933,登記記録の閉鎖等,0,2022-01-26,2022-01-18,株式会社平器堂,,株式会社,静岡県,藤枝市,兵太夫９８３番地,,22,214,4260042,,,2022-01-18,清算の結了等,,,2015-10-05,1,,,,,ヘイキドウ,0
1463,5110001019040,登記記録の閉鎖等,0,2022-01-26,2022-01-26,株式会社サンハートトラベル,,株式会社,新潟県,上越市,安江２丁目５番９号,,15,222,9420041,,,2022-01-26,登記官による閉鎖,,,2015-10-05,1,,,,,,0
1464,5110001023067,登記記録の閉鎖等,0,2022-01-26,2022-01-26,株式会社長岡メンテナンス,,株式会社,新潟県,長岡市,東栄３丁目７番１８号,,15,202,9400037,,,2022-01-26,登記官による閉鎖,,,2015-10-05,1,,,,,,0
1465,5110001030121,登記記録の閉鎖等,0,2022-01-26,2022-01-26,株式会社新潟工事,,株式会社,新潟県,燕市,杣木１０番地２,,15,213,9591284,,,2022-01-26,登記官による閉鎖,,,2015-10-05,1,,,,,,0
1466,5110001031160,登記記録の閉鎖等,0,2022-01-26,2022-01-26,岩九繊維工業株式会社,,株式会社,新潟県,見附市,新町２丁目２番２号,,15,211,9540057,,,2022-01-26,登記官による閉鎖,,,2015-12-25,1,,,,,,0
1467,5110002014767,登記記録の閉鎖等,0,2022-01-26,2022-01-26,有限会社会田ホーム,,有限会社,新潟県,新発田市,上小松４５２番地,,15,206,9592455,,,2022-01-26,登記官による閉鎖,,,2015-10-05,1,,,,,,0
1468,5110002020063,登記記録の閉鎖等,0,2022-01-26,2022-01-26,有限会社柳原工業所,,有限会社,新潟県,燕市,燕４７１６番地,,15,213,9591288,,,2022-01-26,登記官による閉鎖,,,2015-10-05,1,,,,,,0
1469,5110002021961,登記記録の閉鎖等,0,2022-01-26,2022-01-26,日新工業有限会社,,有限会社,新潟県,岩船郡関川村,大字打上１０８番地,,15,581,9593272,,,2022-01-26,登記官による閉鎖,,,2015-10-05,1,,,,,,0
1470,5110002028965,登記記録の閉鎖等,0,2022-01-26,2022-01-26,有限会社扶桑土地開発,,有限会社,新潟県,長岡市,希望が丘３丁目１１番地３,,15,202,9402124,,,2022-01-26,登記官による閉鎖,,,2015-10-05,1,,,,,,0
1471,5110002031176,登記記録の閉鎖等,0,2022-01-26,2022-01-26,有限会社神保屋,,有限会社,新潟県,長岡市,栄町２丁目２番１号,,15,202,9400205,,,2022-01-26,登記官による閉鎖,,,2015-10-05,1,,,,,,0
1472,5110002035111,登記記録の閉鎖等,0,2022-01-26,2022-01-26,有限会社高橋書店,,有限会社,新潟県,燕市,燕４４５１番地,,15,213,9591288,,,2022-01-26,登記官による閉鎖,,,2015-10-05,1,,,,,,0
1473,5110005015267,登記記録の閉鎖等,0,2022-01-26,2022-01-26,六日町専門品店協同組合,,その他の設立登記法人,新潟県,南魚沼市,六日町１１６番地,,15,226,9496680,,,2022-01-26,登記官による閉鎖,,,2015-10-05,1,,,,,,0
1476,5120001125291,登記記録の閉鎖等,0,2022-01-26,2022-01-24,ＪＫＣエージェンシー株式会社,,株式会社,大阪府,大阪市中央区,内本町２丁目１番１９号内本町松屋ビル１０,,27,128,5400026,,,2022-01-24,清算の結了等,,,2015-10-05,1,,,,,ジェーケーシーエージェンシー,0
1480,5120001190360,登記記録の閉鎖等,0,2022-01-26,2022-01-25,株式会社ヒカリオ,,株式会社,大阪府,茨木市,駅前１丁目２－１０サンプラザ茨木駅前ビル１０Ｆ,,27,211,5670888,,,2022-01-25,清算の結了等,,,2015-10-05,1,,,,,,0
1493,5122001006406,登記記録の閉鎖等,0,2022-01-26,2022-01-21,前田紙工株式会社,,株式会社,大阪府,東大阪市,水走１丁目７番３３号,,27,227,5780921,,,2022-01-21,清算の結了等,,,2015-10-05,1,,,,,マエダシコウ,0
1501,5140001083645,登記記録の閉鎖等,0,2022-01-26,2022-01-17,株式会社アコード・コミュニケーション,,株式会社,兵庫県,川辺郡猪名川町,伏見台５丁目２番地５,,28,301,6660262,,,2022-01-17,清算の結了等,,,2015-10-05,1,,,,,アコードコミュニケーション,0
1511,5170001008153,登記記録の閉鎖等,0,2022-01-26,2022-01-25,プレスト株式会社,,株式会社,和歌山県,紀の川市,上田井５５４番地の１,,30,208,6496551,,,2022-01-25,清算の結了等,,,2015-10-05,1,,,,,プレスト,0
1519,5180002009505,登記記録の閉鎖等,0,2022-01-26,2022-01-24,近藤有限会社,,有限会社,岐阜県,大垣市,三塚町３８６番地２２,00105650,21,202,5030808,,,2022-01-24,清算の結了等,,,2015-10-05,1,,,,,コンドウ,0
1520,5180003005164,登記記録の閉鎖等,0,2022-01-26,2022-01-20,合資会社五月莊,,合資会社,愛知県,名古屋市中区,門前町４番１４号,,23,106,4600018,,,2022-01-20,清算の結了等,,,2015-10-05,1,,,,,サツキソウ,0
1530,5220001013882,登記記録の閉鎖等,0,2022-01-26,2022-01-21,株式会社小松吉田,,株式会社,石川県,小松市,平面町ヘ２３番地１,,17,203,9230036,,,2022-01-21,清算の結了等,,,2015-10-05,1,,,,,コマツヨシダ,0
1570,5330002008788,登記記録の閉鎖等,0,2022-01-26,2022-01-24,有限会社ひろせシステムサービス,,有限会社,熊本県,熊本市南区,流通団地２丁目１５番地１,,43,104,8620967,,,2022-01-24,清算の結了等,,,2015-10-05,1,,,,,ヒロセシステムサービス,0
1574,5350002000198,登記記録の閉鎖等,0,2022-01-26,2022-01-25,有限会社旭コーポレーション,,有限会社,宮崎県,宮崎市,川原町５番３号,,45,201,8800866,,,2022-01-25,登記官による閉鎖,,,2015-10-05,1,,,,,,0
1575,5350002001832,登記記録の閉鎖等,0,2022-01-26,2022-01-25,有限会社三愛環境サービス,,有限会社,宮崎県,宮崎市,新城町２３番地１,,45,201,8800845,,,2022-01-25,登記官による閉鎖,,,2015-10-05,1,,,,,,0
1576,5350002010404,登記記録の閉鎖等,0,2022-01-26,2022-01-25,有限会社泉住宅設備,,有限会社,宮崎県,日向市,大王町５丁目５番地,,45,206,8830061,,,2022-01-25,登記官による閉鎖,,,2015-10-05,1,,,,,,0
1577,5350002014834,登記記録の閉鎖等,0,2022-01-26,2022-01-25,有限会社フロンティア・スピリッツ,,有限会社,宮崎県,都城市,祝吉３丁目９番地１８,,45,202,8850019,,,2022-01-25,登記官による閉鎖,,,2015-10-05,1,,,,,,0
1578,5350002017060,登記記録の閉鎖等,0,2022-01-26,2022-01-25,河野定建設有限会社,,有限会社,宮崎県,日南市,南郷町中村甲３７８４番地４,,45,204,8893202,,,2022-01-25,登記官による閉鎖,,,2015-10-05,1,,,,,,0
1579,5350003001567,登記記録の閉鎖等,0,2022-01-26,2022-01-25,合資会社ＳＳＫ,,合資会社,宮崎県,都城市,東町９街区５号,,45,202,8850052,,,2022-01-25,登記官による閉鎖,,,2015-10-05,1,,,,,,0
1580,5350003001773,登記記録の閉鎖等,0,2022-01-26,2022-01-25,合同会社Ｋｏｒｏｍｏソーイング,,合同会社,宮崎県,日南市,大字隈谷乙１８２１番地１,,45,204,8870023,,,2022-01-25,登記官による閉鎖,,,2015-10-05,1,,,,,,0
1583,5350005001549,登記記録の閉鎖等,0,2022-01-26,2022-01-25,特定非営利活動法人ひむか元気社,,その他の設立登記法人,宮崎県,宮崎市,大島町笹原２０１６番地,,45,201,8800824,,,2022-01-25,登記官による閉鎖,,,2015-10-05,1,,,,,,0
1592,5370802001740,登記記録の閉鎖等,0,2022-01-26,2022-01-25,有限会社コイズミ,,有限会社,宮城県,名取市,高舘吉田字西内舘９番地の２,,04,207,9811242,,,2022-01-25,清算の結了等,,,2015-10-05,1,,,,,コイズミ,0
1605,5430001067164,登記記録の閉鎖等,0,2022-01-26,2022-01-24,Ｍ・Ｍライフ株式会社,,株式会社,北海道,北広島市,大曲２９１番地２,,01,234,0611270,,,2022-01-24,清算の結了等,,,2015-10-05,1,,,,,エムエムライフ,0
1637,6010101000933,登記記録の閉鎖等,0,2022-01-26,2022-01-25,株式会社北浦商店,,株式会社,東京都,八王子市,高倉町５０番地６,,13,201,1920033,,,2022-01-25,登記官による閉鎖,,,2018-07-24,1,,,,,キタウラショウテン,0
1638,6010101014479,登記記録の閉鎖等,0,2022-01-26,2022-01-24,株式会社ＣＯＺＭＩＣ,,株式会社,東京都,八王子市,別所１丁目６－１４－１０５号,,13,201,1920363,,,2022-01-24,清算の結了等,,,2021-01-06,1,,,,,コズミック,0
1639,6010102004727,登記記録の閉鎖等,0,2022-01-26,2022-01-25,有限会社藤装,,有限会社,東京都,八王子市,川口町１７９６番地の２,,13,201,1930801,,,2022-01-25,登記官による閉鎖,,,2015-10-05,1,,,,,,0
1640,6010102005477,登記記録の閉鎖等,0,2022-01-26,2022-01-25,有限会社箔美,,有限会社,東京都,八王子市,千人町１丁目５番１５－８０６号,,13,201,1930835,,,2022-01-25,登記官による閉鎖,,,2015-10-05,1,,,,,,0
1641,6010103000527,登記記録の閉鎖等,0,2022-01-26,2022-01-25,合同会社ＤＲＥＡＭ　ＷＥＢ　ＪＡＰＡＮ,,合同会社,東京都,八王子市,別所２丁目３４－５,,13,201,1920363,,,2022-01-25,登記官による閉鎖,,,2015-10-05,1,,,,,,0
1642,6010105000120,登記記録の閉鎖等,0,2022-01-26,2022-01-25,医療法人社団康楽会,,その他の設立登記法人,東京都,八王子市,大横町２番１７号,,13,201,1920062,,,2022-01-25,登記官による閉鎖,,,2015-10-05,1,,,,,,0
1643,6010401000286,登記記録の閉鎖等,0,2022-01-26,2022-01-26,青丘企業株式会社,,株式会社,東京都,港区,麻布十番４丁目３番１号,,13,103,1060045,,,2022-01-26,登記官による閉鎖,,,2015-10-05,1,,,,,,0
1644,6010401009253,登記記録の閉鎖等,0,2022-01-26,2022-01-26,株式会社ケービーエム,,株式会社,東京都,港区,南青山３丁目３番３号丸金南青山ビル５０１号,,13,103,1070062,,,2022-01-26,登記官による閉鎖,,,2015-10-05,1,,,,,,0
1646,6010401028633,登記記録の閉鎖等,0,2022-01-26,2022-01-26,株式会社未踏,,株式会社,東京都,港区,西麻布２丁目１９番５－３０１号,,13,103,1060031,,,2022-01-26,登記官による閉鎖,,,2015-10-05,1,,,,,,0
1647,6010401029929,登記記録の閉鎖等,0,2022-01-26,2022-01-26,ヤマサン商事株式会社,,株式会社,東京都,港区,赤坂２丁目８番１３号,,13,103,1070052,,,2022-01-26,登記官による閉鎖,,,2015-10-05,1,,,,,,0
1648,6010401030028,登記記録の閉鎖等,0,2022-01-26,2022-01-26,株式会社ヤヤ,,株式会社,東京都,港区,赤坂２丁目１７番２２号,,13,103,1070052,,,2022-01-26,登記官による閉鎖,,,2015-10-05,1,,,,,,0
1649,6010401034887,登記記録の閉鎖等,0,2022-01-26,2022-01-26,森産業株式会社,,株式会社,東京都,港区,麻布台１丁目４番２号,,13,103,1060041,,,2022-01-26,登記官による閉鎖,,,2015-10-05,1,,,,,,0
1650,6010401040068,登記記録の閉鎖等,0,2022-01-26,2022-01-26,株式会社四季ライフパック,,株式会社,東京都,港区,赤坂５丁目１番３６号,,13,103,1070052,,,2022-01-26,登記官による閉鎖,,,2015-10-05,1,,,,,,0
1651,6010401054241,登記記録の閉鎖等,0,2022-01-26,2022-01-26,白木屋商事株式会社,,株式会社,東京都,港区,南麻布３丁目１５番８号,,13,103,1060047,,,2022-01-26,登記官による閉鎖,,,2015-10-05,1,,,,,,0
1654,6010401071468,登記記録の閉鎖等,0,2022-01-26,2022-01-26,株式会社ウェブソフト・ティーティー・ジャパン,,株式会社,東京都,港区,六本木５丁目２番３号８階,,13,103,1060032,,,2022-01-26,登記官による閉鎖,,,2015-10-05,1,,,,,,0
1657,6010401077944,登記記録の閉鎖等,0,2022-01-26,2022-01-26,株式会社モバイルサークル,,株式会社,東京都,港区,港南４丁目１番１０号,,13,103,1080075,,,2022-01-26,登記官による閉鎖,,,2015-10-05,1,,,,,,0
1658,6010401079197,登記記録の閉鎖等,0,2022-01-26,2022-01-26,株式会社鷹羽ロイヤル,,株式会社,東京都,港区,赤坂２丁目１５番１８号,,13,103,1070052,,,2022-01-26,登記官による閉鎖,,,2015-10-05,1,,,,,,0
1659,6010401080262,登記記録の閉鎖等,0,2022-01-26,2022-01-26,株式会社バンフィ,,株式会社,東京都,港区,南青山２丁目２番１５号ウィン青山９１９,,13,103,1070062,,,2022-01-26,登記官による閉鎖,,,2015-10-05,1,,,,,,0
1660,6010401081657,登記記録の閉鎖等,0,2022-01-26,2022-01-26,株式会社日本食品科学,,株式会社,東京都,港区,六本木５丁目１８番２３号,,13,103,1060032,,,2022-01-26,登記官による閉鎖,,,2015-10-05,1,,,,,,0
1661,6010401083637,登記記録の閉鎖等,0,2022-01-26,2022-01-26,株式会社ＰＴ．ＫＡＲＡＭＢＡ,,株式会社,東京都,港区,南青山１丁目４番２号,,13,103,1070062,,,2022-01-26,登記官による閉鎖,,,2015-10-05,1,,,,,,0
1662,6010401086813,登記記録の閉鎖等,0,2022-01-26,2022-01-26,クリスタル・インベストメント株式会社,,株式会社,東京都,港区,赤坂３丁目１２番３号,,13,103,1070052,,,2022-01-26,登記官による閉鎖,,,2015-10-05,1,,,,,,0
1663,6010401087778,登記記録の閉鎖等,0,2022-01-26,2022-01-26,のつぎ株式会社,,株式会社,東京都,港区,港南２丁目１６番８号,,13,103,1080075,,,2022-01-26,登記官による閉鎖,,,2015-10-05,1,,,,,,0
1668,6010401133243,登記記録の閉鎖等,0,2022-01-26,2022-01-17,株式会社ｂａｌｌｅｒ,,株式会社,東京都,港区,南青山２丁目２番１５号ウィン青山１２１４号,,13,103,1070062,,,2022-01-17,清算の結了等,,,2017-08-18,1,,,,,ボーラー,0
1671,6010402026041,登記記録の閉鎖等,0,2022-01-26,2022-01-26,Ｄｉｇｉｔａｌ　Ｄｒｅａｍ　Ｓｔａｔｉｏｎ有限会社,,有限会社,東京都,港区,高輪１丁目２６番２０号アムス高輪２階,,13,103,1080074,,,2022-01-26,登記官による閉鎖,,,2015-10-05,1,,,,,,0
1672,6010402029317,登記記録の閉鎖等,0,2022-01-26,2022-01-26,有限会社りぼん,,有限会社,東京都,港区,芝２丁目３０番７号手塚ビル３階,,13,103,1050014,,,2022-01-26,登記官による閉鎖,,,2015-10-05,1,,,,,,0
1676,6010405001735,登記記録の閉鎖等,0,2022-01-26,2022-01-26,マンシヨン白金苑管理組合法人,,その他の設立登記法人,東京都,港区,白金台５丁目５番２号,,13,103,1080071,,,2022-01-26,登記官による閉鎖,,,2015-10-05,1,,,,,,0
1677,6010405003070,登記記録の閉鎖等,0,2022-01-26,2022-01-26,特定非営利活動法人土地収用不動産研究会,,その他の設立登記法人,東京都,港区,赤坂７丁目６番５５号かすがマンション３０２,,13,103,1070052,,,2022-01-26,登記官による閉鎖,,,2015-10-05,1,,,,,,0
1678,6010405004151,登記記録の閉鎖等,0,2022-01-26,2022-01-26,特定非営利活動法人日本国際和平促進協力会,,その他の設立登記法人,東京都,港区,芝大門１丁目３番１０号,,13,103,1050012,,,2022-01-26,登記官による閉鎖,,,2015-10-05,1,,,,,,0
1679,6010405004960,登記記録の閉鎖等,0,2022-01-26,2022-01-26,特定非営利活動法人国連機関沖縄誘致推進センター,,その他の設立登記法人,東京都,港区,赤坂２丁目１０－８第一信和ビル９階,,13,103,1070052,,,2022-01-26,登記官による閉鎖,,,2015-10-05,1,,,,,,0
1680,6010405006222,登記記録の閉鎖等,0,2022-01-26,2022-01-26,医療法人社団まめだ会,,その他の設立登記法人,東京都,港区,南青山４丁目２０番１４号南青山アパートメンツ１０１号室,,13,103,1070062,,,2022-01-26,登記官による閉鎖,,,2015-10-05,1,,,,,,0
1689,6010701007733,登記記録の閉鎖等,0,2022-01-26,2022-01-26,株式会社日本教育事業振興協会,,株式会社,東京都,品川区,東五反田４丁目５番２号五反田ＮＴビル８階,,13,109,1410022,,,2022-01-26,登記官による閉鎖,,,2015-10-05,1,,,,,,0
1690,6010701009399,登記記録の閉鎖等,0,2022-01-26,2022-01-26,三国通商株式会社,,株式会社,東京都,品川区,南品川５丁目１３番１５号,,13,109,1400004,,,2022-01-26,登記官による閉鎖,,,2015-10-05,1,,,,,,0
1691,6010701009440,登記記録の閉鎖等,0,2022-01-26,2022-01-26,三ツ矢航空株式会社,,株式会社,東京都,品川区,南品川１丁目１０番１４号,,13,109,1400004,,,2022-01-26,登記官による閉鎖,,,2015-10-05,1,,,,,,0
1692,6010701022807,登記記録の閉鎖等,0,2022-01-26,2022-01-26,株式会社アセットコミュニケーションズ,,株式会社,東京都,品川区,上大崎２丁目１０番４５号,,13,109,1410021,,,2022-01-26,登記官による閉鎖,,,2015-10-05,1,,,,,,0
1695,6010702013409,登記記録の閉鎖等,0,2022-01-26,2022-01-26,有限会社ミュージー,,有限会社,東京都,品川区,上大崎３丁目１番２８号,,13,109,1410021,,,2022-01-26,登記官による閉鎖,,,2015-10-05,1,,,,,,0
1696,6010801000704,登記記録の閉鎖等,0,2022-01-26,2022-01-25,アルファイ補聴器株式会社,,株式会社,東京都,大田区,矢口１丁目４番４号,,13,111,1460093,,,2022-01-25,登記官による閉鎖,,,2015-10-05,1,,,,,,0
1697,6010801016403,登記記録の閉鎖等,0,2022-01-26,2022-01-25,株式会社マユラギ,,株式会社,東京都,大田区,南蒲田１丁目１４番６号,,13,111,1440035,,,2022-01-25,登記官による閉鎖,,,2015-10-05,1,,,,,,0
1699,6010802001643,登記記録の閉鎖等,0,2022-01-26,2022-01-25,有限会社岩室製作所,,有限会社,東京都,大田区,大森東２丁目３１番４号,,13,111,1430012,,,2022-01-25,登記官による閉鎖,,,2015-10-05,1,,,,,,0
1700,6010802001998,登記記録の閉鎖等,0,2022-01-26,2022-01-25,有限会社英寿,,有限会社,東京都,大田区,南千束２丁目１番６号,,13,111,1450063,,,2022-01-25,登記官による閉鎖,,,2015-10-05,1,,,,,,0
1701,6010802002641,登記記録の閉鎖等,0,2022-01-26,2022-01-25,有限会社大岡精工所,,有限会社,東京都,大田区,大森西３丁目５番９号,,13,111,1430015,,,2022-01-25,登記官による閉鎖,,,2015-10-05,1,,,,,,0
1702,6010802003086,登記記録の閉鎖等,0,2022-01-26,2022-01-25,有限会社オガワ精機製作所,,有限会社,東京都,大田区,大森北６丁目１６番５号,,13,111,1430016,,,2022-01-25,登記官による閉鎖,,,2015-10-05,1,,,,,,0
1703,6010802012558,登記記録の閉鎖等,0,2022-01-26,2022-01-25,有限会社藤幸製作所,,有限会社,東京都,大田区,西六郷４丁目１６番１３号,,13,111,1440056,,,2022-01-25,登記官による閉鎖,,,2015-10-05,1,,,,,,0
1704,6010802016914,登記記録の閉鎖等,0,2022-01-26,2022-01-25,有限会社アイディアルスタッフ,,有限会社,東京都,大田区,多摩川２丁目４番１５号,,13,111,1460095,,,2022-01-25,登記官による閉鎖,,,2015-10-05,1,,,,,,0
1705,6010803001163,登記記録の閉鎖等,0,2022-01-26,2022-01-25,ｍｕｓｉｃ　ｉｍｐｒｅｓｓｉｏｎ合同会社,,合同会社,東京都,大田区,中央１丁目１６番８号１２０４,,13,111,1430024,,,2022-01-25,登記官による閉鎖,,,2015-10-05,1,,,,,,0
1706,6010805001236,登記記録の閉鎖等,0,2022-01-26,2022-01-25,大森ハウス管理組合法人,,その他の設立登記法人,東京都,大田区,大森北１丁目１１番１８号,,13,111,1430016,,,2022-01-25,登記官による閉鎖,,,2015-10-05,1,,,,,,0
1707,6010805001483,登記記録の閉鎖等,0,2022-01-26,2022-01-25,税理士法人城南会計パートナーズ,,その他の設立登記法人,東京都,大田区,南馬込５丁目４２番３号,,13,111,1430025,,,2022-01-25,登記官による閉鎖,,,2015-10-05,1,,,,,,0
1712,6011001073739,登記記録の閉鎖等,0,2022-01-26,2022-01-11,株式会社リブ,,株式会社,東京都,渋谷区,本町６丁目３５番３号深野ビル２０２,,13,113,1510071,,,2022-01-11,清算の結了等,,,2015-10-05,1,,,,,リブ,0
1718,6011101008173,登記記録の閉鎖等,0,2022-01-26,2022-01-19,三友設備株式会社,,株式会社,東京都,新宿区,北新宿４丁目２５番１号,,13,104,1690074,,,2022-01-19,清算の結了等,,,2015-10-05,1,,,,,サンユウセツビ,0
1753,6021002030416,登記記録の閉鎖等,0,2022-01-26,2022-01-21,有限会社矢後商事,,有限会社,神奈川県,愛甲郡愛川町,中津７４３１番地,,14,401,2430303,,,2022-01-21,清算の結了等,,,2015-10-05,1,,,,,ヤゴショウジ,0
1756,6021002064785,登記記録の閉鎖等,0,2022-01-26,2022-01-21,有限会社下田鉄工,,有限会社,神奈川県,横須賀市,坂本町４丁目３０番地,,14,201,2380043,,,2022-01-21,清算の結了等,,,2015-10-05,1,,,,,,0
1761,6030002080148,登記記録の閉鎖等,0,2022-01-26,2022-01-24,有限会社エヌ・エス・ピー,,有限会社,埼玉県,ふじみ野市,霞ケ丘１丁目２番１２号ココネ上福岡三番館８０６号,,11,245,3560006,,,2022-01-24,清算の結了等,,,2015-10-05,1,,,,,エヌエスピー,0
1779,6070001031701,登記記録の閉鎖等,0,2022-01-26,2022-01-24,株式会社ファクトリー,,株式会社,群馬県,高崎市,双葉町２６番２－８－Ｋ,,10,202,3700843,,,2022-01-24,清算の結了等,,,2015-12-28,1,,,,,ファクトリー,0
1782,6080101020108,登記記録の閉鎖等,0,2022-01-26,2022-01-18,株式会社Ｓ．Ｓｐｏｒｔｓ　Ｐｒｏｍｏｔｉｏｎ,,株式会社,静岡県,富士市,瓜島町１０２番地の２,,22,210,4170057,,,2022-01-18,清算の結了等,,,2017-10-18,1,,,,,エススポーツプロモーション,0
1791,6110001003084,登記記録の閉鎖等,0,2022-01-26,2022-01-26,株式会社大和興産,,株式会社,新潟県,新潟市西区,小針西１丁目１０番６号,,15,107,9502014,,,2022-01-26,登記官による閉鎖,,,2015-10-05,1,,,,,,0
1792,6110001006582,登記記録の閉鎖等,0,2022-01-26,2022-01-26,赤玉化工精機株式会社,,株式会社,新潟県,新潟市東区,下木戸１丁目２番５４号,,15,102,9500885,,,2022-01-26,登記官による閉鎖,,,2015-10-05,1,,,,,,0
1793,6110001007119,登記記録の閉鎖等,0,2022-01-26,2022-01-26,株式会社木山屋商店,,株式会社,新潟県,新潟市秋葉区,小須戸３５５７番地,,15,105,9560101,,,2022-01-26,登記官による閉鎖,,,2015-10-05,1,,,,,,0
1794,6110001010758,登記記録の閉鎖等,0,2022-01-26,2022-01-26,株式会社はなみずき,,株式会社,新潟県,新潟市北区,白新町１丁目７番２０号,,15,101,9503325,,,2022-01-26,登記官による閉鎖,,,2015-10-05,1,,,,,,0
1795,6110001028676,登記記録の閉鎖等,0,2022-01-26,2022-01-26,株式会社石打観光ホテル,,株式会社,新潟県,南魚沼市,石打１５３５番地,,15,226,9496372,,,2022-01-26,登記官による閉鎖,,,2015-10-05,1,,,,,,0
1796,6110001030426,登記記録の閉鎖等,0,2022-01-26,2022-01-26,岡村織物株式会社,,株式会社,新潟県,十日町市,荒屋ア３１４番地,,15,210,9498414,,,2022-01-26,登記官による閉鎖,,,2015-10-05,1,,,,,,0
1797,6110002010113,登記記録の閉鎖等,0,2022-01-26,2022-01-26,有限会社小林組,,有限会社,新潟県,新潟市南区,新飯田８０８番地,,15,106,9501455,,,2022-01-26,登記官による閉鎖,,,2015-10-05,1,,,,,,0
1798,6110002025747,登記記録の閉鎖等,0,2022-01-26,2022-01-26,有限会社ニホン代行,,有限会社,新潟県,十日町市,子２２０番地,,15,210,9480000,,,2022-01-26,登記官による閉鎖,,,2015-10-05,1,,,,,,0
1799,6110002026142,登記記録の閉鎖等,0,2022-01-26,2022-01-26,ベニス商事有限会社,,有限会社,新潟県,十日町市,宇都宮４８番地,,15,210,9480000,,,2022-01-26,登記官による閉鎖,,,2015-10-05,1,,,,,,0
1800,6110002034995,登記記録の閉鎖等,0,2022-01-26,2022-01-26,有限会社だるま堂,,有限会社,新潟県,佐渡市,千種丙３２２番地の１,,15,224,9521209,,,2022-01-26,登記官による閉鎖,,,2015-10-05,1,,,,,,0
1801,6110005004467,登記記録の閉鎖等,0,2022-01-26,2022-01-26,財団法人黒川農業公社,,その他の設立登記法人,新潟県,胎内市,塩沢５４３番地２０５,,15,227,9592804,,,2022-01-26,登記官による閉鎖,,,2015-10-05,1,,,,,,0
1802,6110005015729,登記記録の閉鎖等,0,2022-01-26,2022-01-26,無限責任東鱈田負債整理組合,,その他の設立登記法人,新潟県,三条市,（南蒲原郡本成寺村）,,15,204,9550000,,,2022-01-26,登記官による閉鎖,,,2015-10-05,1,,,,,,1
1803,6110005015753,登記記録の閉鎖等,0,2022-01-26,2022-01-26,瀬波漁業會,00080434,その他の設立登記法人,新潟県,村上市,大字瀬波５８５番地,,15,212,9580000,,,2022-01-26,登記官による閉鎖,,,2015-10-05,1,,,,,,0
1825,6120101056485,登記記録の閉鎖等,0,2022-01-26,2022-01-18,株式会社中央ジオリサーチ,,株式会社,大阪府,大阪市北区,天神橋３丁目１番４３号東邦ビル４階４０３号室,,27,127,5300041,,,2022-01-18,清算の結了等,,,2017-05-09,1,,,,,チュウオウジオリサーチ,0
1831,6122002006809,登記記録の閉鎖等,0,2022-01-26,2022-01-20,有限会社ハート保険サービス,,有限会社,大阪府,東大阪市,七軒家７番２号,,27,227,5770005,,,2022-01-20,清算の結了等,,,2015-10-05,1,,,,,ハートホケンサービス,0
1849,6140005018836,登記記録の閉鎖等,0,2022-01-26,2022-01-24,特定非営利活動法人緑と花と輝きのまちづくり,,その他の設立登記法人,兵庫県,宝塚市,切畑字長尾山１４番地,,28,214,6650808,,,2022-01-24,清算の結了等,,,2015-10-05,1,,,,,ミドリトハナトカガヤキノマチヅクリ,0
1862,6200001024699,登記記録の閉鎖等,0,2022-01-26,2022-01-25,株式会社直丸屋,,株式会社,岐阜県,高山市,丹生川町坊方２１１４番地,,21,203,5062121,,,2022-01-25,清算の結了等,,,2015-10-05,1,,,,,,0
1867,6210001007653,登記記録の閉鎖等,0,2022-01-26,2022-01-24,前田商事株式会社,,株式会社,福井県,坂井市,丸岡町本町２丁目３番地,,18,210,9100236,,,2022-01-24,清算の結了等,,,2015-10-05,1,,,,,マエダショウジ,0
1871,6290001027446,登記記録の閉鎖等,0,2022-01-26,2022-01-20,株式会社にしもと珈琲,,株式会社,福岡県,福岡市中央区,六本松２丁目６番８号,,40,133,8100044,,,2022-01-20,清算の結了等,,,2015-10-05,1,,,,,ニシモトコーヒー,0
1894,6350001010098,登記記録の閉鎖等,0,2022-01-26,2022-01-25,株式会社シヤトウ真砂,,株式会社,宮崎県,えびの市,大字向江６０５番地,,45,209,8894151,,,2022-01-25,登記官による閉鎖,,,2015-10-05,1,,,,,,0
1895,6350002011467,登記記録の閉鎖等,0,2022-01-26,2022-01-25,有限会社アルファゼミ,,有限会社,宮崎県,日向市,上町８番３号,,45,206,8830044,,,2022-01-25,登記官による閉鎖,,,2015-10-05,1,,,,,,0
1896,6350002018859,登記記録の閉鎖等,0,2022-01-26,2022-01-25,有限会社山之口オートセンター,,有限会社,宮崎県,都城市,山之口町富吉４５８５番地,,45,202,8891801,,,2022-01-25,登記官による閉鎖,,,2015-10-05,1,,,,,,0
1897,6350005005598,登記記録の閉鎖等,0,2022-01-26,2022-01-25,上野農事実行組合,,その他の設立登記法人,宮崎県,西都市,,,45,208,8810000,,,2022-01-25,登記官による閉鎖,,,2016-05-26,1,,,,,,1
1900,6370001006755,登記記録の閉鎖等,0,2022-01-26,2022-01-25,株式会社アオバ,,株式会社,宮城県,仙台市青葉区,昭和町３番１５－６１４号,,04,101,9810913,,,2022-01-25,清算の結了等,,,2015-10-05,1,,,,,アオバ,0
1911,6430001006105,登記記録の閉鎖等,0,2022-01-26,2022-01-24,株式会社宝実業,,株式会社,北海道,札幌市中央区,南三条西２１丁目２番７号,,01,101,0640803,,,2022-01-24,清算の結了等,,,2015-10-05,1,,,,,タカラジツギョウ,0
1921,6500002018562,登記記録の閉鎖等,0,2022-01-26,2022-01-24,大新鉄工有限会社,,有限会社,愛媛県,今治市,近見町４丁目３番２４号,,38,202,7940007,,,2022-01-24,清算の結了等,,,2015-10-05,1,,,,,ダイシンテッコウ,0
1930,7010101014511,登記記録の閉鎖等,0,2022-01-26,2022-01-25,タカハシハウジング株式会社,,株式会社,東京都,八王子市,緑町２１３番地の１８,,13,201,1930932,,,2022-01-25,登記官による閉鎖,,,2021-02-01,1,,,,,タカハシハウジング,0
1931,7010102003232,登記記録の閉鎖等,0,2022-01-26,2022-01-25,有限会社シグマ,,有限会社,東京都,八王子市,松木６番地の６,,13,201,1920362,,,2022-01-25,登記官による閉鎖,,,2015-10-05,1,,,,,,0
1932,7010102004908,登記記録の閉鎖等,0,2022-01-26,2022-01-25,有限会社トランタン,,有限会社,東京都,八王子市,三崎町３番７号,,13,201,1920084,,,2022-01-25,登記官による閉鎖,,,2015-10-05,1,,,,,,0
1933,7010102007778,登記記録の閉鎖等,0,2022-01-26,2022-01-25,有限会社ラ・クール,,有限会社,東京都,八王子市,狭間町１５０４番地の２,,13,201,1930941,,,2022-01-25,登記官による閉鎖,,,2015-10-05,1,,,,,,0
1934,7010401017164,登記記録の閉鎖等,0,2022-01-26,2022-01-26,株式会社タス・システム,,株式会社,東京都,港区,芝大門１丁目３番９号,,13,103,1050012,,,2022-01-26,登記官による閉鎖,,,2015-10-05,1,,,,,,0
1935,7010401017214,登記記録の閉鎖等,0,2022-01-26,2022-01-26,西原電気株式会社,,株式会社,東京都,港区,西新橋２丁目３番９号,,13,103,1050003,,,2022-01-26,登記官による閉鎖,,,2015-10-05,1,,,,,,0
1938,7010401047491,登記記録の閉鎖等,0,2022-01-26,2022-01-26,株式会社天神,,株式会社,東京都,港区,南青山７丁目８番４号,,13,103,1070062,,,2022-01-26,登記官による閉鎖,,,2015-10-05,1,,,,,,0
1939,7010401047541,登記記録の閉鎖等,0,2022-01-26,2022-01-26,株式会社ウェーブモーション２１,,株式会社,東京都,港区,赤坂５丁目５番８号,,13,103,1070052,,,2022-01-26,登記官による閉鎖,,,2015-10-05,1,,,,,,0
1940,7010401051155,登記記録の閉鎖等,0,2022-01-26,2022-01-26,竜馬キャピタル株式会社,,株式会社,東京都,港区,六本木３丁目１５番５号,,13,103,1060032,,,2022-01-26,登記官による閉鎖,,,2015-10-05,1,,,,,,0
1941,7010401052483,登記記録の閉鎖等,0,2022-01-26,2022-01-26,アテナ情報株式会社,,株式会社,東京都,港区,芝５丁目１４番１５号,,13,103,1080014,,,2022-01-26,登記官による閉鎖,,,2015-10-05,1,,,,,,0
1942,7010401068728,登記記録の閉鎖等,0,2022-01-26,2022-01-26,テックウェル・ジャパン株式会社,,株式会社,東京都,港区,三田３丁目１１番３６号三田日東ダイビル６階,,13,103,1080073,,,2022-01-26,登記官による閉鎖,,,2015-10-05,1,,,,,,0
1943,7010401075245,登記記録の閉鎖等,0,2022-01-26,2022-01-26,ＮＥＸＴ株式会社,,株式会社,東京都,港区,赤坂６丁目１３番１３号エストグランディールカーロ赤坂３０４,,13,103,1070052,,,2022-01-26,登記官による閉鎖,,,2015-10-05,1,,,,,,0
1945,7010401080848,登記記録の閉鎖等,0,2022-01-26,2022-01-26,株式会社フェイムアソシエイツ,,株式会社,東京都,港区,西新橋３丁目２４番３号,,13,103,1050003,,,2022-01-26,登記官による閉鎖,,,2015-10-05,1,,,,,,0
1946,7010401082555,登記記録の閉鎖等,0,2022-01-26,2022-01-26,株式会社喜治,,株式会社,東京都,港区,赤坂３丁目４番３号,,13,103,1070052,,,2022-01-26,登記官による閉鎖,,,2015-10-05,1,,,,,,0
1948,7010401085153,登記記録の閉鎖等,0,2022-01-26,2022-01-26,株式会社ビガク,,株式会社,東京都,港区,南麻布２丁目７番２５号,,13,103,1060047,,,2022-01-26,登記官による閉鎖,,,2015-10-05,1,,,,,,0
1949,7010401088825,登記記録の閉鎖等,0,2022-01-26,2022-01-26,株式会社チャーミング,,株式会社,東京都,港区,赤坂９丁目６番２８号,,13,103,1070052,,,2022-01-26,登記官による閉鎖,,,2015-10-05,1,,,,,,0
1950,7010401089716,登記記録の閉鎖等,0,2022-01-26,2022-01-26,ＬＣホールディングス株式会社,,株式会社,東京都,港区,新橋３丁目４番５号,,13,103,1050004,,,2022-01-26,登記官による閉鎖,,,2015-10-05,1,,,,,,0
1951,7010401091085,登記記録の閉鎖等,0,2022-01-26,2022-01-26,株式会社フードプランニング,,株式会社,東京都,港区,新橋２丁目１１番９号,,13,103,1050004,,,2022-01-26,登記官による閉鎖,,,2015-10-05,1,,,,,,0
1952,7010401093552,登記記録の閉鎖等,0,2022-01-26,2022-01-26,株式会社島原,,株式会社,東京都,港区,赤坂２丁目１４番５号プラザミカドビル７階,,13,103,1070052,,,2022-01-26,登記官による閉鎖,,,2015-10-05,1,,,,,,0
1961,7010402002982,登記記録の閉鎖等,0,2022-01-26,2022-01-26,有限会社小田建物,,有限会社,東京都,港区,三田１丁目７番１０号,,13,103,1080073,,,2022-01-26,登記官による閉鎖,,,2015-10-05,1,,,,,,0
1962,7010402003659,登記記録の閉鎖等,0,2022-01-26,2022-01-26,有限会社神本,,有限会社,東京都,港区,新橋５丁目３１番５号,,13,103,1050004,,,2022-01-26,登記官による閉鎖,,,2015-10-05,1,,,,,,0
1963,7010402009508,登記記録の閉鎖等,0,2022-01-26,2022-01-26,有限会社東京マツサージ,,有限会社,東京都,港区,新橋３丁目１６番２３号,,13,103,1050004,,,2022-01-26,登記官による閉鎖,,,2015-10-05,1,,,,,,0
1967,7010402025620,登記記録の閉鎖等,0,2022-01-26,2022-01-17,有限会社ジャパンリアルプロパティーファンド,,有限会社,東京都,港区,白金６丁目１６番１１－１０７号,,13,103,1080072,,,2022-01-17,清算の結了等,,,2015-10-05,1,,,,,ジャパンリアルプロパティーファンド,0
1970,7010405003631,登記記録の閉鎖等,0,2022-01-26,2022-01-26,特定非営利活動法人日本ゴルフ文化振興会,,その他の設立登記法人,東京都,港区,赤坂１丁目５番１１号新虎ノ門ビル６階,,13,103,1070052,,,2022-01-26,登記官による閉鎖,,,2015-10-05,1,,,,,,0
1971,7010405006758,登記記録の閉鎖等,0,2022-01-26,2022-01-26,医療法人社団義光会,,その他の設立登記法人,東京都,港区,赤坂３丁目１３番１４号赤坂３１３ビル３Ｆ,,13,103,1070052,,,2022-01-26,登記官による閉鎖,,,2015-10-05,1,,,,,,0
1973,7010405013300,登記記録の閉鎖等,0,2022-01-26,2022-01-26,逓信信用組合,,その他の設立登記法人,東京都,港区,虎ノ門３丁目８番８号,,13,103,1050001,,,2022-01-26,登記官による閉鎖,,,2015-10-05,1,,,,,,0
1974,7010501001687,登記記録の閉鎖等,0,2022-01-26,2022-01-24,江口金型工業株式会社,,株式会社,東京都,台東区,松が谷４丁目１０番３号,,13,106,1110036,,,2022-01-24,清算の結了等,,,2015-10-05,1,,,,,エグチカナガタコウギョウ,0
1975,7010701021923,登記記録の閉鎖等,0,2022-01-26,2022-01-26,神鋼コベルコ建機株式会社,,株式会社,東京都,品川区,北品川５丁目５番１５号,,13,109,1410001,,,2022-01-26,登記官による閉鎖,,,2015-10-05,1,,,,,,0
1977,7010702001123,登記記録の閉鎖等,0,2022-01-26,2022-01-26,有限会社内山歯車製作所,,有限会社,東京都,品川区,北品川５丁目６番２号,,13,109,1410001,,,2022-01-26,登記官による閉鎖,,,2015-10-05,1,,,,,,0
1978,7010702014323,登記記録の閉鎖等,0,2022-01-26,2022-01-26,有限会社イトーレーベンツ,,有限会社,東京都,品川区,東大井１丁目４番２９号,,13,109,1400011,,,2022-01-26,登記官による閉鎖,,,2015-10-05,1,,,,,,0
1979,7010705000403,登記記録の閉鎖等,0,2022-01-26,2022-01-26,医療法人財団興起会,,その他の設立登記法人,東京都,品川区,旗の台３丁目４番１１号コスモス１７旗の台地下１階,,13,109,1420064,,,2022-01-26,登記官による閉鎖,,,2015-10-05,1,,,,,,0
1980,7010801005165,登記記録の閉鎖等,0,2022-01-26,2022-01-25,株式会社シーエム,,株式会社,東京都,大田区,大森東５丁目３１番１号,,13,111,1430012,,,2022-01-25,登記官による閉鎖,,,2015-10-05,1,,,,,,0
1981,7010801005660,登記記録の閉鎖等,0,2022-01-26,2022-01-25,昭和化成株式会社,,株式会社,東京都,大田区,中央８丁目１７番１９号,,13,111,1430024,,,2022-01-25,登記官による閉鎖,,,2015-10-05,1,,,,,,0
1982,7010801006312,登記記録の閉鎖等,0,2022-01-26,2022-01-25,株式会社双電社,,株式会社,東京都,大田区,東矢口２丁目１６番１４号,,13,111,1460094,,,2022-01-25,登記官による閉鎖,,,2015-10-05,1,,,,,,0
1983,7010801007129,登記記録の閉鎖等,0,2022-01-26,2022-01-25,谷口自動車販売株式会社,,株式会社,東京都,大田区,千鳥３丁目１１番１号,,13,111,1460083,,,2022-01-25,登記官による閉鎖,,,2015-10-05,1,,,,,,0
1984,7010801017409,登記記録の閉鎖等,0,2022-01-26,2022-01-25,株式会社総合保険センター,,株式会社,東京都,大田区,石川町２丁目２８番４号,,13,111,1450061,,,2022-01-25,登記官による閉鎖,,,2015-10-05,1,,,,,,0
1988,7010802000850,登記記録の閉鎖等,0,2022-01-26,2022-01-25,有限会社荒井木材,,有限会社,東京都,大田区,大森本町１丁目１番１－２０１号,,13,111,1430011,,,2022-01-25,登記官による閉鎖,,,2015-10-05,1,,,,,,0
1989,7010802000990,登記記録の閉鎖等,0,2022-01-26,2022-01-25,有限会社飯塚工業所,,有限会社,東京都,大田区,萩中１丁目５番２０号,,13,111,1440047,,,2022-01-25,登記官による閉鎖,,,2015-10-05,1,,,,,,0
1990,7010802002814,登記記録の閉鎖等,0,2022-01-26,2022-01-25,有限会社大塚鉄工所,00052297,有限会社,東京都,大田区,大森西５丁目８番９号,,13,111,1430015,,,2022-01-25,登記官による閉鎖,,,2015-10-05,1,,,,,,0
1991,7010802003597,登記記録の閉鎖等,0,2022-01-26,2022-01-25,有限会社片野製作所,,有限会社,東京都,大田区,西六郷４丁目４番１２号,,13,111,1440056,,,2022-01-25,登記官による閉鎖,,,2015-10-05,1,,,,,,0
1992,7010802016715,登記記録の閉鎖等,0,2022-01-26,2022-01-25,有限会社ハウスリペア,,有限会社,東京都,大田区,西糀谷４丁目１９番２５号,,13,111,1440034,,,2022-01-25,登記官による閉鎖,,,2015-10-05,1,,,,,,0
1993,7010802016797,登記記録の閉鎖等,0,2022-01-26,2022-01-25,有限会社エスエスシーエス,,有限会社,東京都,大田区,田園調布本町４９番１号,,13,111,1450072,,,2022-01-25,登記官による閉鎖,,,2015-10-05,1,,,,,,0
1994,7010803000081,登記記録の閉鎖等,0,2022-01-26,2022-01-25,合資会社岩瀬食糧販売所,,合資会社,東京都,大田区,西蒲田４丁目２１番１６号,,13,111,1440051,,,2022-01-25,登記官による閉鎖,,,2015-10-05,1,,,,,,0
1996,7010902014008,登記記録の閉鎖等,0,2022-01-26,2022-01-24,ポリシンドジャパン有限会社,,有限会社,東京都,世田谷区,深沢８丁目１４番１８号,,13,112,1580081,,,2022-01-24,清算の結了等,,,2015-10-05,1,,,,,ポリシンドジャパン,0
1999,7011001052568,登記記録の閉鎖等,0,2022-01-26,2022-01-11,株式会社アースビート音楽出版,,株式会社,東京都,渋谷区,千駄ヶ谷３丁目５５番１２号,,13,113,1510051,,,2022-01-11,清算の結了等,,,2015-10-05,1,,,,,アースビートオンガクシュッパン,0
2016,7011602000215,登記記録の閉鎖等,0,2022-01-26,2022-01-24,アート更鐵有限会社,,有限会社,東京都,練馬区,豊玉南３丁目８番１１号,,13,120,1760014,,,2022-01-24,清算の結了等,,,2015-10-05,1,,,,,アートサラテツ,0
2024,7012402004711,登記記録の閉鎖等,0,2022-01-26,2022-01-21,有限会社オガタ理容室,,有限会社,東京都,小金井市,本町５丁目１４番１０号,,13,210,1840004,,,2022-01-21,清算の結了等,,,2015-10-05,1,,,,,オガタリヨウシツ,0
2027,7013102002006,登記記録の閉鎖等,0,2022-01-26,2022-01-19,有限会社眞栄地所,,有限会社,東京都,あきる野市,二宮字森腰１０８９番地１０６,,13,228,1970814,,,2022-01-19,登記官による閉鎖,,,2015-10-05,1,,,,,,0
2052,7030002083125,登記記録の閉鎖等,0,2022-01-26,2022-01-25,有限会社エレガンス馬里屋,,有限会社,埼玉県,北本市,中央３丁目５５番地２,,11,233,3640031,,,2022-01-25,清算の結了等,,,2015-10-05,1,,,,,エレガンスマリヤ,0
2056,7030003014005,登記記録の閉鎖等,0,2022-01-26,2022-01-24,合同会社ＰＬＡＮ　Ｂ,,合同会社,茨城県,守谷市,松ケ丘３丁目２－２,,08,224,3020127,,,2022-01-24,清算の結了等,,,2019-08-29,1,,,,,プランビー,0
2078,7050002037863,登記記録の閉鎖等,0,2022-01-26,2022-01-21,有限会社バネックス,,有限会社,茨城県,牛久市,南７丁目１１番地６,,08,219,3001222,,,2022-01-21,清算の結了等,,,2015-10-05,1,,,,,バネックス,0
2083,7070003004274,登記記録の閉鎖等,0,2022-01-26,2022-01-24,合同会社小田インシュアランスオフィス,,合同会社,群馬県,前橋市,富士見町皆沢３１９番地８,,10,201,3710102,,,2022-01-24,清算の結了等,,,2021-10-22,1,,,,,オダインシュアランスオフィス,0
2092,7110001007423,登記記録の閉鎖等,0,2022-01-26,2022-01-26,臼井建設株式会社,,株式会社,新潟県,新潟市南区,上八枚１４４番地,,15,106,9501431,,,2022-01-26,登記官による閉鎖,,,2015-10-05,1,,,,,ウスイケンセツ,0
2093,7110001008025,登記記録の閉鎖等,0,2022-01-26,2022-01-26,株式会社ハウスキーパー,,株式会社,新潟県,新潟市西区,五十嵐２の町８６０２番地６,,15,107,9502102,,,2022-01-26,登記官による閉鎖,,,2015-10-05,1,,,,,,0
2095,7110001016837,登記記録の閉鎖等,0,2022-01-26,2022-01-26,株式会社長谷川商会,,株式会社,新潟県,三条市,猪子場新田７９番地１１,,15,204,9591151,,,2022-01-26,登記官による閉鎖,,,2015-10-05,1,,,,,,0
2096,7110001020343,登記記録の閉鎖等,0,2022-01-26,2022-01-26,株式会社ロッヂサンシャイン,,株式会社,新潟県,妙高市,大字杉野沢３０７９番地５,,15,217,9492113,,,2022-01-26,登記官による閉鎖,,,2015-10-05,1,,,,,,0
2097,7110001028510,登記記録の閉鎖等,0,2022-01-26,2022-01-26,レトロ新潟株式会社,,株式会社,新潟県,長岡市,表町１丁目４番地９,,15,202,9400071,,,2022-01-26,登記官による閉鎖,,,2015-10-05,1,,,,,,0
2099,7110002004386,登記記録の閉鎖等,0,2022-01-26,2022-01-26,有限会社東明建工,,有限会社,新潟県,新潟市東区,東明５丁目８番８号,,15,102,9500853,,,2022-01-26,登記官による閉鎖,,,2015-10-05,1,,,,,,0
2100,7110002008115,登記記録の閉鎖等,0,2022-01-26,2022-01-26,有限会社大輝食品,,有限会社,新潟県,新潟市江南区,曙町４丁目１０番４４号,,15,104,9500134,,,2022-01-26,登記官による閉鎖,,,2015-10-05,1,,,,,,0
2101,7110002011234,登記記録の閉鎖等,0,2022-01-26,2022-01-26,有限会社コバヤシ,,有限会社,新潟県,新潟市西蒲区,橋本８３９番地１,,15,108,9530103,,,2022-01-26,登記官による閉鎖,,,2015-10-05,1,,,,,,0
2102,7110002012257,登記記録の閉鎖等,0,2022-01-26,2022-01-26,有限会社秋葉地所,,有限会社,新潟県,新潟市東区,秋葉通２丁目１０６番地３０,,15,102,9500052,,,2022-01-26,登記官による閉鎖,,,2015-10-05,1,,,,,,0
2103,7110002016159,登記記録の閉鎖等,0,2022-01-26,2022-01-26,有限会社欣求,,有限会社,新潟県,新発田市,五十公野１５７３番地２,,15,206,9570021,,,2022-01-26,登記官による閉鎖,,,2015-10-05,1,,,,,,0
2105,7110002025151,登記記録の閉鎖等,0,2022-01-26,2022-01-26,有限会社やまきん,,有限会社,新潟県,妙高市,大字田口３２３番地の３６,,15,217,9492106,,,2022-01-26,登記官による閉鎖,,,2015-10-05,1,,,,,,0
2106,7110002025382,登記記録の閉鎖等,0,2022-01-26,2022-01-26,岩清織物有限会社,,有限会社,新潟県,十日町市,中条甲７２０番地,,15,210,9498615,,,2022-01-26,登記官による閉鎖,,,2015-10-05,1,,,,,,0
2107,7110002030787,登記記録の閉鎖等,0,2022-01-26,2022-01-26,有限会社阿部建設,,有限会社,新潟県,長岡市,小国町小国沢２３９８番地の２,,15,202,9495333,,,2022-01-26,登記官による閉鎖,,,2015-10-05,1,,,,,,0
2108,7110002033492,登記記録の閉鎖等,0,2022-01-26,2022-01-26,ミナモト建設有限会社,,有限会社,新潟県,南魚沼市,穴地新田３５９番地,,15,226,9497246,,,2022-01-26,登記官による閉鎖,,,2015-10-05,1,,,,,,0
2109,7110002034235,登記記録の閉鎖等,0,2022-01-26,2022-01-26,建栄システム有限会社,,有限会社,新潟県,南魚沼郡湯沢町,大字土樽９４番地１プレジール湯沢Ｗ４０９号,00071201,15,461,9496103,,,2022-01-26,登記官による閉鎖,,,2015-10-05,1,,,,,,0
2110,7110002035084,登記記録の閉鎖等,0,2022-01-26,2022-01-26,有限会社アイエッチビー,,有限会社,新潟県,佐渡市,加茂歌代２７７番地３,,15,224,9520028,,,2022-01-26,登記官による閉鎖,,,2015-10-05,1,,,,,,0
2111,7110003000780,登記記録の閉鎖等,0,2022-01-26,2022-01-26,合資会社大沼保険事務所,,合資会社,新潟県,新発田市,五十公野３９６９番地,,15,206,9570021,,,2022-01-26,登記官による閉鎖,,,2015-10-05,1,,,,,,0
2112,7110003001093,登記記録の閉鎖等,0,2022-01-26,2022-01-26,合資会社柏崎制御設計,,合資会社,新潟県,柏崎市,大字劔野８６２番地４,,15,205,9450836,,,2022-01-26,登記官による閉鎖,,,2015-10-05,1,,,,,,0
2113,7110005009936,登記記録の閉鎖等,0,2022-01-26,2022-01-26,農事組合法人妙高アグリ,,その他の設立登記法人,新潟県,妙高市,大字坂口新田字下道峯４３０番地１,,15,217,9492234,,,2022-01-26,登記官による閉鎖,,,2015-10-05,1,,,,,,0
2114,7110005015348,登記記録の閉鎖等,0,2022-01-26,2022-01-26,保証責任西神納村報徳負債整理組合,00080428,その他の設立登記法人,新潟県,村上市,,,15,212,9580000,,,2022-01-26,登記官による閉鎖,,,2015-10-05,1,,,,,,1
2115,7110005015595,登記記録の閉鎖等,0,2022-01-26,2022-01-26,新潟県糸魚川市教職員組合,,その他の設立登記法人,新潟県,糸魚川市,寺町２丁目８番３２号,,15,216,9410058,,,2022-01-26,登記官による閉鎖,,,2015-10-05,1,,,,,,0
2157,7180005016505,登記記録の閉鎖等,0,2022-01-26,2022-01-20,ＮＰＯ法人姫街道をつくる会,,その他の設立登記法人,愛知県,知多郡東浦町,大字緒川字中釜池２番地の２,,23,442,4702102,,,2022-01-20,清算の結了等,,,2015-10-27,1,,,,,ヒメカイドーヲツクルカイ,0
2160,7180302011844,登記記録の閉鎖等,0,2022-01-26,2022-01-24,有限会社太陽の里天伯,,有限会社,愛知県,豊橋市,天伯町字三ツ山１６番地の２９,,23,201,4418122,,,2022-01-24,清算の結了等,,,2015-10-05,1,,,,,タイヨウノサトテンパク,0
2180,7270003000526,登記記録の閉鎖等,0,2022-01-26,2022-01-19,合同会社進永工業,,合同会社,鳥取県,東伯郡北栄町,弓原７９７番地６,,31,372,6892104,,,2022-01-19,清算の結了等,,,2015-10-05,1,,,,,シンエイコウギョウ,0
2204,7350001005849,登記記録の閉鎖等,0,2022-01-26,2022-01-25,株式会社ＷＯＯＤ,,株式会社,宮崎県,児湯郡高鍋町,大字南高鍋１２４１９番地イ,,45,401,8840003,,,2022-01-25,登記官による閉鎖,,,2015-10-05,1,,,,,,0
2207,7350002007951,登記記録の閉鎖等,0,2022-01-26,2022-01-25,有限会社アクアシステム,,有限会社,宮崎県,宮崎市,小松台西１丁目５番地３,,45,201,8800954,,,2022-01-25,登記官による閉鎖,,,2015-10-05,1,,,,,,0
2216,7390001010143,登記記録の閉鎖等,0,2022-01-26,2022-01-25,三桃食品株式会社東北工場,,株式会社,山形県,米沢市,窪田町窪田字五輪４６２番地の１,,06,202,9920003,,,2022-01-25,清算の結了等,,,2015-10-05,1,,,,,,0
2222,7430001059341,登記記録の閉鎖等,0,2022-01-26,2022-01-24,株式会社ジオプレックス,,株式会社,北海道,札幌市西区,発寒七条１１丁目２番３７号,,01,107,0630827,,,2022-01-24,清算の結了等,,,2015-10-05,1,,,,,ジオプレックス,0
2232,8010001057972,登記記録の閉鎖等,0,2022-01-26,2022-01-26,町田興業株式会社,,株式会社,東京都,港区,南青山５丁目１３番１号,,13,103,1070062,,,2022-01-26,登記官による閉鎖,,,2015-10-05,1,,,,,,0
2240,8010001183620,登記記録の閉鎖等,0,2022-01-26,2022-01-11,株式会社リアライズマーケティング,,株式会社,東京都,千代田区,神田佐久間町２丁目１０番地飯島ビル３階,,13,101,1010025,,,2022-01-11,清算の結了等,,,2017-05-18,1,,,,,リアライズマーケティング,0
2254,8010101000147,登記記録の閉鎖等,0,2022-01-26,2022-01-25,株式会社アスク,,株式会社,東京都,八王子市,千人町１丁目１２番１４号,,13,201,1930835,,,2022-01-25,登記官による閉鎖,,,2015-10-05,1,,,,,,0
2255,8010101012720,登記記録の閉鎖等,0,2022-01-26,2022-01-25,第一ハウス株式会社,,株式会社,東京都,八王子市,左入町５２０番地５１,,13,201,1920012,,,2022-01-25,登記官による閉鎖,,,2017-02-23,1,,,,,,0
2256,8010102000856,登記記録の閉鎖等,0,2022-01-26,2022-01-25,有限会社イワオ薬品,,有限会社,東京都,八王子市,散田町３丁目１１番２号,,13,201,1930832,,,2022-01-25,登記官による閉鎖,,,2015-10-05,1,,,,,,0
2257,8010102002596,登記記録の閉鎖等,0,2022-01-26,2022-01-25,有限会社小島解体工業所,,有限会社,東京都,八王子市,暁町１丁目２４番１号,,13,201,1920043,,,2022-01-25,登記官による閉鎖,,,2015-10-05,1,,,,,,0
2258,8010401001844,登記記録の閉鎖等,0,2022-01-26,2022-01-26,株式会社アド・レポート・センター,,株式会社,東京都,港区,芝２丁目３０番１１号,,13,103,1050014,,,2022-01-26,登記官による閉鎖,,,2015-10-05,1,,,,,,0
2259,8010401016454,登記記録の閉鎖等,0,2022-01-26,2022-01-26,株式会社大成,,株式会社,東京都,港区,元麻布３丁目１０番２号,,13,103,1060046,,,2022-01-26,登記官による閉鎖,,,2015-10-05,1,,,,,,0
2260,8010401020084,登記記録の閉鎖等,0,2022-01-26,2022-01-26,株式会社塗料出版社,,株式会社,東京都,港区,高輪２丁目１９番１７号,,13,103,1080074,,,2022-01-26,登記官による閉鎖,,,2015-10-05,1,,,,,,0
2261,8010401025521,登記記録の閉鎖等,0,2022-01-26,2022-01-26,株式会社ファースト・エステート・サービス,,株式会社,東京都,港区,赤坂９丁目５番１８号,,13,103,1070052,,,2022-01-26,登記官による閉鎖,,,2015-10-05,1,,,,,,0
2262,8010401032344,登記記録の閉鎖等,0,2022-01-26,2022-01-26,株式会社三洲企画,,株式会社,東京都,港区,芝２丁目２９番１１号,,13,103,1050014,,,2022-01-26,登記官による閉鎖,,,2015-12-10,1,,,,,,0
2265,8010401044546,登記記録の閉鎖等,0,2022-01-26,2022-01-26,株式会社パノン,,株式会社,東京都,港区,六本木３丁目１６番２３号,,13,103,1060032,,,2022-01-26,登記官による閉鎖,,,2015-10-05,1,,,,,,0
2266,8010401051641,登記記録の閉鎖等,0,2022-01-26,2022-01-26,Ｂｕｓｉｎｅｓｓ　Ｖａｌｕｅ　Ｃｏｎｓｕｌｔｉｎｇ株式会社,,株式会社,東京都,港区,西麻布２丁目２３番２０号,,13,103,1060031,,,2022-01-26,登記官による閉鎖,,,2015-10-05,1,,,,,,0
2267,8010401059197,登記記録の閉鎖等,0,2022-01-26,2022-01-26,ナポリ産業株式会社,,株式会社,東京都,港区,六本木５丁目１８番１９－８０３号,,13,103,1060032,,,2022-01-26,登記官による閉鎖,,,2015-10-05,1,,,,,,0
2268,8010401063091,登記記録の閉鎖等,0,2022-01-26,2022-01-26,株式会社ＳＮＣ,,株式会社,東京都,港区,東麻布２丁目２６番６号,,13,103,1060044,,,2022-01-26,登記官による閉鎖,,,2015-10-05,1,,,,,,0
2269,8010401072836,登記記録の閉鎖等,0,2022-01-26,2022-01-26,木村家グループホールディング株式会社,,株式会社,東京都,港区,北青山１丁目５番１２号,,13,103,1070061,,,2022-01-26,登記官による閉鎖,,,2015-10-05,1,,,,,,0
2270,8010401083940,登記記録の閉鎖等,0,2022-01-26,2022-01-26,株式会社オー・ティ・プラン,,株式会社,東京都,港区,芝２丁目１０番４号,,13,103,1050014,,,2022-01-26,登記官による閉鎖,,,2015-10-05,1,,,,,,0
2271,8010401092108,登記記録の閉鎖等,0,2022-01-26,2022-01-26,株式会社今井荷役,,株式会社,東京都,港区,芝浦１丁目１３番１０号第三東運ビル８階,,13,103,1050023,,,2022-01-26,登記官による閉鎖,,,2015-10-05,1,,,,,,0
2275,8010402012329,登記記録の閉鎖等,0,2022-01-26,2022-01-26,有限会社丸萬稲葉工務店,,有限会社,東京都,港区,高輪２丁目２番３４号,,13,103,1080074,,,2022-01-26,登記官による閉鎖,,,2015-10-05,1,,,,,,0
2276,8010402021973,登記記録の閉鎖等,0,2022-01-26,2022-01-26,有限会社ナレッジロダン研究所,,有限会社,東京都,港区,三田３丁目１番１９号,,13,103,1080073,,,2022-01-26,登記官による閉鎖,,,2015-10-05,1,,,,,,0
2277,8010402024522,登記記録の閉鎖等,0,2022-01-26,2022-01-26,有限会社ナナ色,,有限会社,東京都,港区,東麻布１丁目２６番２－９０１号,,13,103,1060044,,,2022-01-26,登記官による閉鎖,,,2015-10-05,1,,,,,,0
2278,8010402035296,登記記録の閉鎖等,0,2022-01-26,2022-01-26,有限会社イーピーシー,,有限会社,東京都,港区,芝５丁目３０番１号－５０３,,13,103,1080014,,,2022-01-26,登記官による閉鎖,,,2015-10-05,1,,,,,,0
2280,8010405003052,登記記録の閉鎖等,0,2022-01-26,2022-01-26,特定非営利活動法人インターネット商取引検定協会,,その他の設立登記法人,東京都,港区,浜松町２丁目７番１４号ＫＡＭＯＮビル６階,,13,103,1050013,,,2022-01-26,登記官による閉鎖,,,2015-10-05,1,,,,,,0
2281,8010405003936,登記記録の閉鎖等,0,2022-01-26,2022-01-26,特定非営利活動法人タックワールドレッドクロス,,その他の設立登記法人,東京都,港区,芝５丁目１８番２－１０２０号,,13,103,1080014,,,2022-01-26,登記官による閉鎖,,,2015-10-05,1,,,,,,0
2282,8010405004430,登記記録の閉鎖等,0,2022-01-26,2022-01-26,特定非営利活動法人ｂｅインテリジェンスネットワーク,,その他の設立登記法人,東京都,港区,麻布十番１丁目７番７号,,13,103,1060045,,,2022-01-26,登記官による閉鎖,,,2015-10-05,1,,,,,,0
2283,8010405005503,登記記録の閉鎖等,0,2022-01-26,2022-01-26,特定非営利活動法人日本コンパニオンアニマル協会,,その他の設立登記法人,東京都,港区,赤坂６丁目２番４号,,13,103,1070052,,,2022-01-26,登記官による閉鎖,,,2015-10-05,1,,,,,,0
2284,8010405009165,登記記録の閉鎖等,0,2022-01-26,2022-01-26,一般社団法人再生医療を考える会,,その他の設立登記法人,東京都,港区,海岸１丁目２番２０号汐留ビルディング３階,,13,103,1050022,,,2022-01-26,登記官による閉鎖,,,2015-10-05,1,,,,,,0
2291,8010701000777,登記記録の閉鎖等,0,2022-01-26,2022-01-26,株式会社飯田産業社,,株式会社,東京都,品川区,南品川４丁目５番２４号,,13,109,1400004,,,2022-01-26,登記官による閉鎖,,,2015-10-05,1,,,,,,0
2292,8010701019272,登記記録の閉鎖等,0,2022-01-26,2022-01-26,株式会社シーズスタイル,,株式会社,東京都,品川区,西五反田２丁目１番２２号プラネットビル５階,,13,109,1410031,,,2022-01-26,登記官による閉鎖,,,2015-10-05,1,,,,,,0
2293,8010701023828,登記記録の閉鎖等,0,2022-01-26,2022-01-26,株式会社リーブフィナンシャル,,株式会社,東京都,品川区,西五反田１丁目１１番１号,,13,109,1410031,,,2022-01-26,登記官による閉鎖,,,2015-10-05,1,,,,,,0
2294,8010701023885,登記記録の閉鎖等,0,2022-01-26,2022-01-26,株式会社ピュアドロップ,,株式会社,東京都,品川区,平塚２丁目１番１－７０３号,,13,109,1420051,,,2022-01-26,登記官による閉鎖,,,2015-10-05,1,,,,,,0
2295,8010701023927,登記記録の閉鎖等,0,2022-01-26,2022-01-26,株式会社クリーン戦艦,,株式会社,東京都,品川区,南大井６丁目８番６号,,13,109,1400013,,,2022-01-26,登記官による閉鎖,,,2015-10-05,1,,,,,,0
2297,8010702006088,登記記録の閉鎖等,0,2022-01-26,2022-01-26,有限会社奈良屋,,有限会社,東京都,品川区,荏原４丁目１５番１３号,,13,109,1420063,,,2022-01-26,登記官による閉鎖,,,2015-10-05,1,,,,,,0
2298,8010702007490,登記記録の閉鎖等,0,2022-01-26,2022-01-26,有限会社豊月楽器玩具店,,有限会社,東京都,品川区,中延５丁目１４番２７号,,13,109,1420053,,,2022-01-26,登記官による閉鎖,,,2015-10-05,1,,,,,,0
2299,8010702010585,登記記録の閉鎖等,0,2022-01-26,2022-01-26,有限会社秋元,,有限会社,東京都,品川区,東五反田２丁目９番７号ピロティ五反田４１０号,,13,109,1410022,,,2022-01-26,登記官による閉鎖,,,2015-10-05,1,,,,,,0
2300,8010801000784,登記記録の閉鎖等,0,2022-01-26,2022-01-25,株式会社飯田精機製作所,,株式会社,東京都,大田区,西糀谷１丁目９番９号,,13,111,1440034,,,2022-01-25,登記官による閉鎖,,,2015-10-05,1,,,,,,0
2301,8010801003531,登記記録の閉鎖等,0,2022-01-26,2022-01-25,ケイ・インターナショナル株式会社,,株式会社,東京都,大田区,下丸子１丁目６番２３号,,13,111,1460092,,,2022-01-25,登記官による閉鎖,,,2015-10-05,1,,,,,,0
2303,8010801018430,登記記録の閉鎖等,0,2022-01-26,2022-01-25,株式会社Ｙｏｐｐｅ．ｌａｂ,,株式会社,東京都,大田区,大森東１丁目３６番７－１００７号,,13,111,1430012,,,2022-01-25,登記官による閉鎖,,,2015-10-05,1,,,,,,0
2304,8010802006954,登記記録の閉鎖等,0,2022-01-26,2022-01-25,有限会社時代や,,有限会社,東京都,大田区,大森南３丁目３２番１７号,,13,111,1430013,,,2022-01-25,登記官による閉鎖,,,2015-10-05,1,,,,,,0
2305,8010802008298,登記記録の閉鎖等,0,2022-01-26,2022-01-25,大一食品有限会社,,有限会社,東京都,大田区,東六郷１丁目１０番１１号,,13,111,1440046,,,2022-01-25,登記官による閉鎖,,,2015-10-05,1,,,,,,0
2306,8010802015682,登記記録の閉鎖等,0,2022-01-26,2022-01-25,有限会社ル・モンド,,有限会社,東京都,大田区,西蒲田１丁目１７番１５号,,13,111,1440051,,,2022-01-25,登記官による閉鎖,,,2015-10-05,1,,,,,,0
2307,8010802019304,登記記録の閉鎖等,0,2022-01-26,2022-01-25,有限会社アイエヌエスエフ,,有限会社,東京都,大田区,北嶺町１０番１７号,,13,111,1450073,,,2022-01-25,登記官による閉鎖,,,2015-10-05,1,,,,,,0
2309,8010805001291,登記記録の閉鎖等,0,2022-01-26,2022-01-25,特定非営利活動法人国際アイアン・イーグルス,,その他の設立登記法人,東京都,大田区,蒲田本町２丁目２番１２号パラスＩ４０１,00052591,13,111,1440053,,,2022-01-25,登記官による閉鎖,,,2015-10-05,1,,,,,,0
2310,8010805001309,登記記録の閉鎖等,0,2022-01-26,2022-01-25,共和商工協同組合,,その他の設立登記法人,東京都,大田区,蒲田４丁目５番１号,,13,111,1440052,,,2022-01-25,登記官による閉鎖,,,2015-10-05,1,,,,,,0
2317,8011001097884,登記記録の閉鎖等,0,2022-01-26,2022-01-13,株式会社ＳＥＹＡ　ＣＯＲＰＯＲＡＴＩＯＮ,,株式会社,東京都,渋谷区,大山町１７番２３号コート代々木大山２０４,,13,113,1510065,,,2022-01-13,合併による解散等,1013301034870,令和４年１月１日東京都渋谷区大山町１７番２３号コート代々木大山２０４株式会社ＳＥＹＡ　ＣＯＲＰＯＲＡＴＩＯＮ北坂戸（1013301034870）に合併し解散,2015-10-05,1,,,,,セヤコーポレーション,0
2332,8011402003796,登記記録の閉鎖等,0,2022-01-26,2022-01-12,有限会社坂本インテリア巧業,,有限会社,東京都,板橋区,徳丸６丁目２２番９号,,13,119,1750083,,,2022-01-12,清算の結了等,,,2015-10-05,1,,,,,サカモトインテリアコウギョウ,0
2348,8013101001164,登記記録の閉鎖等,0,2022-01-26,2022-01-19,ヘイワ特殊株式会社,,株式会社,東京都,あきる野市,秋川５丁目９番地２,,13,228,1970804,,,2022-01-19,登記官による閉鎖,,,2015-10-05,1,,,,,,0
2349,8013102002517,登記記録の閉鎖等,0,2022-01-26,2022-01-19,有限会社吉野製作所,,有限会社,東京都,あきる野市,二宮東３丁目７番地６,,13,228,1970815,,,2022-01-19,登記官による閉鎖,,,2015-10-05,1,,,,,,0
2398,8110001000848,登記記録の閉鎖等,0,2022-01-26,2022-01-26,大川トランスティル株式会社,,株式会社,新潟県,新潟市北区,太郎代字山の下１５２３番地３,,15,101,9503101,,,2022-01-26,登記官による閉鎖,,,2015-10-05,1,,,,,,0
2399,8110001001103,登記記録の閉鎖等,0,2022-01-26,2022-01-26,株式会社安藤優建設工業,,株式会社,新潟県,新潟市西区,五十嵐３の町１０９５０番地,,15,107,9502171,,,2022-01-26,登記官による閉鎖,,,2015-10-05,1,,,,,,0
2400,8110001008164,登記記録の閉鎖等,0,2022-01-26,2022-01-26,株式会社ディジタルダイナミクス,,株式会社,新潟県,新潟市中央区,万代２丁目１番１号,,15,103,9500088,,,2022-01-26,登記官による閉鎖,,,2015-10-05,1,,,,,,0
2401,8110001009674,登記記録の閉鎖等,0,2022-01-26,2022-01-26,エルオトオーシャン株式会社,,株式会社,新潟県,新潟市西区,坂井９３８番地１,,15,107,9502042,,,2022-01-26,登記官による閉鎖,,,2015-10-05,1,,,,,,0
2402,8110001017000,登記記録の閉鎖等,0,2022-01-26,2022-01-26,株式会社北越ハウス工業,,株式会社,新潟県,新潟市江南区,木津８３５番地子,,15,104,9500206,,,2022-01-26,登記官による閉鎖,,,2015-10-05,1,,,,,,0
2404,8110002000582,登記記録の閉鎖等,0,2022-01-26,2022-01-26,有限会社阿部技研,,有限会社,新潟県,新潟市中央区,女池６丁目１０番１号,,15,103,9500941,,,2022-01-26,登記官による閉鎖,,,2015-10-05,1,,,,,,0
2405,8110002005458,登記記録の閉鎖等,0,2022-01-26,2022-01-26,有限会社美装堂,,有限会社,新潟県,新潟市中央区,鳥屋野３０７番地４,,15,103,9500951,,,2022-01-26,登記官による閉鎖,,,2015-10-05,1,,,,,,0
2406,8110002010367,登記記録の閉鎖等,0,2022-01-26,2022-01-26,有限会社横川商会,,有限会社,新潟県,新潟市南区,下塩俵８１２番地３,,15,106,9501241,,,2022-01-26,登記官による閉鎖,,,2015-10-05,1,,,,,,0
2407,8110002018121,登記記録の閉鎖等,0,2022-01-26,2022-01-26,有限会社八幡工業,,有限会社,新潟県,三条市,八幡町５番２３号,,15,204,9550073,,,2022-01-26,登記官による閉鎖,,,2015-10-05,1,,,,,,0
2408,8110002018377,登記記録の閉鎖等,0,2022-01-26,2022-01-26,有限会社中沢ミシン商会,,有限会社,新潟県,加茂市,本町１番３４号,,15,209,9591372,,,2022-01-26,登記官による閉鎖,,,2015-10-05,1,,,,,,0
2412,8110002024284,登記記録の閉鎖等,0,2022-01-26,2022-01-21,有限会社バンチ,,有限会社,新潟県,上越市,西城町３丁目９番１４号,,15,222,9430834,,,2022-01-21,清算の結了等,,,2015-10-05,1,,,,,バンチ,0
2413,8110002031710,登記記録の閉鎖等,0,2022-01-26,2022-01-26,有限会社ダイセイ,,有限会社,新潟県,見附市,本町３丁目６番１６号,,15,211,9540053,,,2022-01-26,登記官による閉鎖,,,2015-10-05,1,,,,,,0
2414,8110002032171,登記記録の閉鎖等,0,2022-01-26,2022-01-26,有限会社コゴン,,有限会社,新潟県,小千谷市,片貝町４８２５番地,,15,208,9470101,,,2022-01-26,登記官による閉鎖,,,2015-10-05,1,,,,,,0
2415,8110002035050,登記記録の閉鎖等,0,2022-01-26,2022-01-26,有限会社新辰ニット,,有限会社,新潟県,新潟市秋葉区,小須戸４２６５番地,,15,105,9560101,,,2022-01-26,登記官による閉鎖,,,2015-10-05,1,,,,,,0
2416,8110003004120,登記記録の閉鎖等,0,2022-01-26,2022-01-17,合同会社新潟一雄,,合同会社,新潟県,新潟市中央区,旭町通２番町５２２６番地４０,,15,103,9518122,,,2022-01-17,清算の結了等,,,2020-03-02,1,,,,,ニイガタイチユウ,0
2417,8110005000489,登記記録の閉鎖等,0,2022-01-26,2022-01-26,新潟県織物構造改善工業組合,,その他の設立登記法人,新潟県,新潟市北区,早通北３丁目６番１７号,,15,101,9503376,,,2022-01-26,登記官による閉鎖,,,2015-10-05,1,,,,,,0
2441,8140001011033,登記記録の閉鎖等,0,2022-01-26,2022-01-21,丸善株式会社,,株式会社,兵庫県,神戸市中央区,琴ノ緒町５丁目７番４号サンシャイン三宮６０４号,,28,110,6510094,,,2022-01-21,清算の結了等,,,2021-12-17,1,,,,,マルゼン,0
2442,8140001022047,登記記録の閉鎖等,0,2022-01-26,2022-01-21,ネオケミア株式会社,,株式会社,兵庫県,神戸市中央区,御幸通４丁目２番２０号,,28,110,6510087,,,2022-01-21,清算の結了等,,,2015-10-05,1,,,,,ネオケミア,0
2447,8140002030734,登記記録の閉鎖等,0,2022-01-26,2022-01-21,有限会社青山建工,,有限会社,兵庫県,三木市,志染町青山３丁目３０番地の１,,28,215,6730521,,,2022-01-21,清算の結了等,,,2015-10-05,1,,,,,アオヤマケンコウ,0
2448,8140005020492,登記記録の閉鎖等,0,2022-01-26,2022-01-24,特定非営利活動法人Ｊ－Ｖｉｖｒｅ,,その他の設立登記法人,兵庫県,尼崎市,南武庫之荘３丁目２５番地１０号ＮＡＶＩ３０６、１Ｆ－Ｓ,,28,202,6610033,,,2022-01-24,清算の結了等,,,2015-10-05,1,,,,,ジェイビーブル,0
2460,8180301003924,登記記録の閉鎖等,0,2022-01-26,2022-01-25,株式会社ユウキ商事,,株式会社,愛知県,岡崎市,真伝１丁目１１番地１６,,23,202,4443175,,,2022-01-25,清算の結了等,,,2015-10-05,1,,,,,,0
2466,8230003000875,登記記録の閉鎖等,0,2022-01-26,2022-01-21,合同会社エス・ブイ北陸,,合同会社,富山県,高岡市,宝来町８２７番地,,16,202,9330343,,,2022-01-21,合併による解散等,8370001003115,令和４年１月１日仙台市宮城野区福田町南二丁目３番５０号株式会社サン・ベンディング東北（8370001003115）に合併し解散,2015-10-05,1,,,,,,0
2485,8290801021860,登記記録の閉鎖等,0,2022-01-26,2022-01-19,あおいプランニング株式会社,,株式会社,福岡県,北九州市小倉北区,片野２丁目１５－１２,,40,106,8020064,,,2022-01-19,清算の結了等,,,2015-10-05,1,,,,,アオイプランニング,0
2495,8350001011037,登記記録の閉鎖等,0,2022-01-26,2022-01-25,株式会社松村工業,,株式会社,宮崎県,宮崎市,波島２丁目１２番２３－１号,,45,201,8800826,,,2022-01-25,登記官による閉鎖,,,2015-10-05,1,,,,,,0
2496,8350002004907,登記記録の閉鎖等,0,2022-01-26,2022-01-25,有限会社明星メンテナンス工業,,有限会社,宮崎県,宮崎市,大字恒久野中６２２１番地,,45,201,8800916,,,2022-01-25,登記官による閉鎖,,,2015-10-05,1,,,,,,0
2497,8350002009369,登記記録の閉鎖等,0,2022-01-26,2022-01-25,有限会社ショッピング館たかいち,,有限会社,宮崎県,西都市,大字下三財３３８１番地１,,45,208,8810113,,,2022-01-25,登記官による閉鎖,,,2015-10-05,1,,,,,,0
2498,8350002012579,登記記録の閉鎖等,0,2022-01-26,2022-01-25,有限会社藤江歯科商店,,有限会社,宮崎県,延岡市,桜小路３８１番地６,,45,203,8820816,,,2022-01-25,登記官による閉鎖,,,2015-10-05,1,,,,,,0
2499,8350002016423,登記記録の閉鎖等,0,2022-01-26,2022-01-25,アインテクノ有限会社,,有限会社,宮崎県,日南市,大字板敷１５８０番地,,45,204,8892532,,,2022-01-25,登記官による閉鎖,,,2015-10-05,1,,,,,,0
2508,8390002000547,登記記録の閉鎖等,0,2022-01-26,2022-01-21,有限会社大内硝子店,,有限会社,山形県,山形市,十日町４丁目５番５号,,06,201,9900031,,,2022-01-21,清算の結了等,,,2015-10-05,1,,,,,オオウチガラステン,0
2511,8400002007004,登記記録の閉鎖等,0,2022-01-26,2022-01-18,有限会社アムス,,有限会社,岩手県,紫波郡紫波町,桜町字田頭１２番地１,,03,321,0283307,,,2022-01-18,清算の結了等,,,2015-10-05,1,,,,,,0
2543,9010001082755,登記記録の閉鎖等,0,2022-01-26,2022-01-20,ゼット・エフ・アフターマーケット・ジャパン株式会社,,株式会社,東京都,中央区,日本橋小伝馬町１４番６号,,13,102,1030001,,,2022-01-20,合併による解散等,2020001039926,令和４年１月１日横浜市中区山下町２０９番地ゼット・エフ・ジャパン株式会社（2020001039926）に合併し解散,2015-10-05,1,,,,,ゼットエフアフターマーケットジャパン,0
2548,9010001190863,登記記録の閉鎖等,0,2022-01-26,2022-01-17,株式会社地球の歩き方メディアパートナーズ,,株式会社,東京都,中央区,八丁堀２丁目９番１号,,13,102,1040032,,,2022-01-17,清算の結了等,,,2018-04-10,1,,,,,チキュウノアルキカタメディアパートナーズ,0
2556,9010005026766,登記記録の閉鎖等,0,2022-01-26,2022-01-21,一般社団法人ＯＧ,,その他の設立登記法人,東京都,千代田区,霞が関３丁目２番５号,,13,101,1000013,,,2022-01-21,清算の結了等,,,2017-04-21,1,,,,,オージー,0
2558,9010101007208,登記記録の閉鎖等,0,2022-01-26,2022-01-25,株式会社桑都企画,,株式会社,東京都,八王子市,弐分方町２７１番地の４,,13,201,1930822,,,2022-01-25,登記官による閉鎖,,,2015-10-05,1,,,,,,0
2559,9010102002736,登記記録の閉鎖等,0,2022-01-26,2022-01-25,有限会社子安モータース,,有限会社,東京都,八王子市,子安町３丁目１６番１３号,,13,201,1920904,,,2022-01-25,登記官による閉鎖,,,2015-10-05,1,,,,,,0
2560,9010102005730,登記記録の閉鎖等,0,2022-01-26,2022-01-25,有限会社東京写真企画,,有限会社,東京都,八王子市,高尾町２４０４番地の３,,13,201,1930844,,,2022-01-25,登記官による閉鎖,,,2015-10-05,1,,,,,,0
2562,9010401037160,登記記録の閉鎖等,0,2022-01-26,2022-01-26,株式会社フォードウイング,,株式会社,東京都,港区,虎ノ門４丁目３番２０号,,13,103,1050001,,,2022-01-26,登記官による閉鎖,,,2015-10-05,1,,,,,,0
2563,9010401039917,登記記録の閉鎖等,0,2022-01-26,2022-01-26,株式会社インフォキュリアス,,株式会社,東京都,港区,麻布十番３丁目６番９号,,13,103,1060045,,,2022-01-26,登記官による閉鎖,,,2015-10-05,1,,,,,,0
2564,9010401055708,登記記録の閉鎖等,0,2022-01-26,2022-01-26,株式会社サリアジャパン,,株式会社,東京都,港区,西麻布３丁目２４番２０号,,13,103,1060031,,,2022-01-26,登記官による閉鎖,,,2015-10-05,1,,,,,,0
2565,9010401062332,登記記録の閉鎖等,0,2022-01-26,2022-01-26,株式会社インターヴァリュー,,株式会社,東京都,港区,虎ノ門２丁目７番１６号,,13,103,1050001,,,2022-01-26,登記官による閉鎖,,,2015-10-05,1,,,,,,0
2568,9010401072496,登記記録の閉鎖等,0,2022-01-26,2022-01-26,株式会社アダン,,株式会社,東京都,港区,芝大門２丁目１番１９号,,13,103,1050012,,,2022-01-26,登記官による閉鎖,,,2015-10-05,1,,,,,,0
2569,9010401074617,登記記録の閉鎖等,0,2022-01-26,2022-01-26,株式会社了緒雅研究所,,株式会社,東京都,港区,白金台５丁目１３番地２９号,,13,103,1080071,,,2022-01-26,登記官による閉鎖,,,2015-10-05,1,,,,,,0
2570,9010401076019,登記記録の閉鎖等,0,2022-01-26,2022-01-26,株式会社Ｊ・クロレラ販売,,株式会社,東京都,港区,東麻布２丁目３５番１号ＫＣビル,,13,103,1060044,,,2022-01-26,登記官による閉鎖,,,2015-10-05,1,,,,,,0
2571,9010401085036,登記記録の閉鎖等,0,2022-01-26,2022-01-26,コスモポイントインターナショナル・ジャパン株式会社,,株式会社,東京都,港区,南青山２丁目２番１５号ウィン青山９３４号室,,13,103,1070062,,,2022-01-26,登記官による閉鎖,,,2015-10-05,1,,,,,,0
2572,9010401090894,登記記録の閉鎖等,0,2022-01-26,2022-01-26,株式会社ショウキイズ,,株式会社,東京都,港区,芝浦２丁目１４番７号,,13,103,1080023,,,2022-01-26,登記官による閉鎖,,,2015-10-05,1,,,,,,0
2573,9010401114892,登記記録の閉鎖等,0,2022-01-26,2021-12-15,ＸＡｌｌｉａｎｃｅ株式会社,,株式会社,東京都,港区,南青山１丁目２６番４号,,13,103,1070062,,,2021-12-15,合併による解散等,2011001063140,令和１１年１１月３０日東京都港区六本木四丁目８番７号六本木三河台ビル５階コンバージョンテクノロジー株式会社（2011001063140）に合併し解散,2015-10-05,1,,,,,クロスアライアンス,0
2580,9010402002345,登記記録の閉鎖等,0,2022-01-26,2022-01-26,有限会社エフアンドエッチ,,有限会社,東京都,港区,六本木４丁目１２番８号,,13,103,1060032,,,2022-01-26,登記官による閉鎖,,,2015-10-05,1,,,,,,0
2581,9010402003839,登記記録の閉鎖等,0,2022-01-26,2022-01-26,有限会社吉正,,有限会社,東京都,港区,南麻布４丁目１０番２０号,,13,103,1060047,,,2022-01-26,登記官による閉鎖,,,2015-10-05,1,,,,,,0
2582,9010402006965,登記記録の閉鎖等,0,2022-01-26,2022-01-26,有限会社新ばし前田,,有限会社,東京都,港区,新橋３丁目１７番７号,,13,103,1050004,,,2022-01-26,登記官による閉鎖,,,2015-10-05,1,,,,,,0
2583,9010402010298,登記記録の閉鎖等,0,2022-01-26,2022-01-26,橋本商事有限会社,,有限会社,東京都,港区,西麻布２丁目９番９号,,13,103,1060031,,,2022-01-26,登記官による閉鎖,,,2015-10-05,1,,,,,,0
2584,9010402010463,登記記録の閉鎖等,0,2022-01-26,2022-01-26,有限会社パンプキン,,有限会社,東京都,港区,赤坂８丁目６番２７－５０５号,,13,103,1070052,,,2022-01-26,登記官による閉鎖,,,2015-10-05,1,,,,,,0
2585,9010402012864,登記記録の閉鎖等,0,2022-01-26,2022-01-26,メソー電器有限会社,,有限会社,東京都,港区,浜松町１丁目２番１９号－７０７,,13,103,1050013,,,2022-01-26,登記官による閉鎖,,,2015-10-05,1,,,,,,0
2586,9010403005826,登記記録の閉鎖等,0,2022-01-26,2022-01-26,合同会社デュープレックス・フィフティセカンド,,合同会社,東京都,港区,元赤坂１丁目１番７号,,13,103,1070051,,,2022-01-26,登記官による閉鎖,,,2015-10-05,1,,,,,,0
2587,9010403005974,登記記録の閉鎖等,0,2022-01-26,2022-01-26,合同会社デュープレックス・フィフティサード,,合同会社,東京都,港区,元赤坂１丁目１番７号,,13,103,1070051,,,2022-01-26,登記官による閉鎖,,,2015-10-05,1,,,,,,0
2588,9010403008218,登記記録の閉鎖等,0,2022-01-26,2022-01-26,合同会社Ｂ．Ｏ．Ｄ,,合同会社,東京都,港区,高輪２丁目１４番９号三愛ビル４Ｆ,,13,103,1080074,,,2022-01-26,登記官による閉鎖,,,2015-10-05,1,,,,,,0
2592,9010405000230,登記記録の閉鎖等,0,2022-01-26,2022-01-26,財団法人港湾運送近代化基金,,その他の設立登記法人,東京都,港区,新橋６丁目１１番１０号,,13,103,1050004,,,2022-01-26,登記官による閉鎖,,,2016-05-24,1,,,,,,0
2593,9010405002623,登記記録の閉鎖等,0,2022-01-26,2022-01-26,共栄フォーラム事業協同組合,,その他の設立登記法人,東京都,港区,新橋５丁目２２番６号,,13,103,1050004,,,2022-01-26,登記官による閉鎖,,,2015-10-05,1,,,,,,0
2594,9010405003456,登記記録の閉鎖等,0,2022-01-26,2022-01-26,特定非営利活動法人国際和合医療協会,,その他の設立登記法人,東京都,港区,高輪３丁目２３番１４号シャトー高輪５０４,,13,103,1080074,,,2022-01-26,登記官による閉鎖,,,2015-10-05,1,,,,,,0
2595,9010405003794,登記記録の閉鎖等,0,2022-01-26,2022-01-26,特定非営利活動法人田園生活,,その他の設立登記法人,東京都,港区,麻布十番２丁目１１番５－４０３号,,13,103,1060045,,,2022-01-26,登記官による閉鎖,,,2015-10-05,1,,,,,,0
2596,9010405004479,登記記録の閉鎖等,0,2022-01-26,2022-01-26,医療法人社団山王クリニック,,その他の設立登記法人,東京都,港区,芝大門２丁目１０番７号３０１号室,,13,103,1050012,,,2022-01-26,登記官による閉鎖,,,2015-10-05,1,,,,,,0
2597,9010405004768,登記記録の閉鎖等,0,2022-01-26,2022-01-26,特定非営利活動法人徳川葵栄会,,その他の設立登記法人,東京都,港区,麻布狸穴町４４番地狸穴マンション２０１,,13,103,1060042,,,2022-01-26,登記官による閉鎖,,,2015-10-05,1,,,,,,0
2598,9010405006145,登記記録の閉鎖等,0,2022-01-26,2022-01-26,一般社団法人デュープレックス・フィフティサード,,その他の設立登記法人,東京都,港区,元赤坂１丁目１番７号,,13,103,1070051,,,2022-01-26,登記官による閉鎖,,,2015-10-05,1,,,,,,0
2600,9010602007813,登記記録の閉鎖等,0,2022-01-26,2022-01-19,有限会社矢島自動車電機,,有限会社,東京都,江東区,北砂１丁目１番４２号,,13,108,1360073,,,2022-01-19,清算の結了等,,,2015-10-05,1,,,,,ヤジマジドウシャデンキ,0
2601,9010701007524,登記記録の閉鎖等,0,2022-01-26,2022-01-26,日商機械株式会社,,株式会社,東京都,品川区,東大井６丁目１６番３号,,13,109,1400011,,,2022-01-26,登記官による閉鎖,,,2015-10-05,1,,,,,,0
2602,9010701008076,登記記録の閉鎖等,0,2022-01-26,2022-01-26,八光商事株式会社,,株式会社,東京都,品川区,東品川３丁目２２番２０号,,13,109,1400002,,,2022-01-26,登記官による閉鎖,,,2016-03-24,1,,,,,,0
2603,9010701008175,登記記録の閉鎖等,0,2022-01-26,2022-01-26,株式会社原ミュージック,,株式会社,東京都,品川区,西中延１丁目３番１７号多賀ビル,,13,109,1420054,,,2022-01-26,登記官による閉鎖,,,2015-10-05,1,,,,,,0
2604,9010701031045,登記記録の閉鎖等,0,2022-01-26,2022-01-24,株式会社松園,,株式会社,大阪府,豊中市,本町３丁目１３番３１号,,27,203,5600021,,,2022-01-24,清算の結了等,,,2015-10-05,1,,,,,ショウエン,0
2605,9010702007944,登記記録の閉鎖等,0,2022-01-26,2022-01-26,有限会社ミカド洋装店,,有限会社,東京都,品川区,北品川２丁目２８番１９号,,13,109,1400001,,,2022-01-26,登記官による閉鎖,,,2015-10-05,1,,,,,,0
2606,9010703005534,登記記録の閉鎖等,0,2022-01-26,2022-01-21,東京湾建物ホールディングス合同会社,,合同会社,東京都,荒川区,町屋１丁目２８番１２号関口ビル１階,,13,118,1160001,,,2022-01-21,清算の結了等,,,2020-12-03,1,,,,,トウキョウワンタテモノホールディングス,0
2607,9010801008471,登記記録の閉鎖等,0,2022-01-26,2022-01-25,株式会社戸島屋,,株式会社,東京都,大田区,大森西３丁目１３番２０号,,13,111,1430015,,,2022-01-25,登記官による閉鎖,,,2015-10-05,1,,,,,,0
2608,9010801019337,登記記録の閉鎖等,0,2022-01-26,2022-01-25,株式会社ＬＡＵ,,株式会社,東京都,大田区,大森東２丁目５番１４号,,13,111,1430012,,,2022-01-25,登記官による閉鎖,,,2015-10-05,1,,,,,,0
2609,9010801021078,登記記録の閉鎖等,0,2022-01-26,2022-01-25,株式会社イケチェチェ,,株式会社,東京都,大田区,東雪谷３丁目３１番１０号,,13,111,1450065,,,2022-01-25,登記官による閉鎖,,,2015-10-05,1,,,,,,0
2612,9010802002787,登記記録の閉鎖等,0,2022-01-26,2022-01-25,有限会社大武工業,,有限会社,東京都,大田区,蒲田２丁目１２番８号,,13,111,1440052,,,2022-01-25,登記官による閉鎖,,,2015-10-05,1,,,,,,0
2613,9010802006318,登記記録の閉鎖等,0,2022-01-26,2022-01-25,サニー住設有限会社,,有限会社,東京都,大田区,田園調布２丁目４２番５－１０１号,,13,111,1450071,,,2022-01-25,登記官による閉鎖,,,2015-10-05,1,,,,,,0
2614,9010802008710,登記記録の閉鎖等,0,2022-01-26,2022-01-25,有限会社竹下工業,,有限会社,東京都,大田区,上池台５丁目３３番１号,,13,111,1450064,,,2022-01-25,登記官による閉鎖,,,2015-10-05,1,,,,,,0
2615,9010802010575,登記記録の閉鎖等,0,2022-01-26,2022-01-25,有限会社永井精機,,有限会社,東京都,大田区,南六郷３丁目１番１６号,,13,111,1440045,,,2022-01-25,登記官による閉鎖,,,2015-10-05,1,,,,,,0
2616,9010805000714,登記記録の閉鎖等,0,2022-01-26,2022-01-25,医療法人社団稔修雅会,,その他の設立登記法人,東京都,大田区,南雪谷２丁目１１番１７号,,13,111,1450066,,,2022-01-25,登記官による閉鎖,,,2015-10-05,1,,,,,,0
2619,9010902002043,登記記録の閉鎖等,0,2022-01-26,2022-01-20,有限会社牛懸鉄工所,,有限会社,東京都,世田谷区,経堂５丁目３７番１３号,,13,112,1560052,,,2022-01-20,清算の結了等,,,2015-10-05,1,,,,,,0
2622,9011001136757,登記記録の閉鎖等,0,2022-01-26,2021-12-28,株式会社助太刀ファイナンシャルサービス,,株式会社,東京都,渋谷区,南平台町２番１７号日交南平台ビル５階,,13,113,1500036,,,2021-12-28,合併による解散等,3013301040322,令和３年１２月２８日東京都渋谷区南平台町２番１７号日交南平台ビル５階株式会社助太刀（3013301040322）に合併し解散,2020-11-10,1,,,,,スケダチファイナンシャルサービス,0
2634,9011701008925,登記記録の閉鎖等,0,2022-01-26,2022-01-26,株式会社伊藤環境装置研究所,,株式会社,東京都,港区,芝大門１丁目３番地１０号,,13,103,1050012,,,2022-01-26,登記官による閉鎖,,,2015-10-05,1,,,,,,0
2636,9011702007232,登記記録の閉鎖等,0,2022-01-26,2022-01-24,高吉運送有限会社,,有限会社,東京都,江戸川区,宇喜田町１２８２番地,,13,123,1340082,,,2022-01-24,清算の結了等,,,2015-10-05,1,,,,,タカヨシウンソウ,0
2641,9013102001518,登記記録の閉鎖等,0,2022-01-26,2022-01-19,有限会社みのわ商店,,有限会社,東京都,羽村市,羽西２丁目５番８号,,13,227,2050017,,,2022-01-19,登記官による閉鎖,,,2015-10-05,1,,,,,,0
2642,9013102006681,登記記録の閉鎖等,0,2022-01-26,2022-01-19,有限会社ぷれべえる,,有限会社,東京都,青梅市,今井２丁目８３０番地の１３,,13,205,1980023,,,2022-01-19,登記官による閉鎖,,,2015-10-05,1,,,,,,0
2646,9013401001573,登記記録の閉鎖等,0,2022-01-26,2022-01-25,ベストホーム株式会社,,株式会社,東京都,八王子市,東中野１８８０番地,,13,201,1920351,,,2022-01-25,登記官による閉鎖,,,2015-10-05,1,,,,,,0
2650,9020001111190,登記記録の閉鎖等,0,2022-01-26,2022-01-24,株式会社アートウッド工芸,,株式会社,神奈川県,横浜市都筑区,折本町３１４番地,,14,118,2240043,,,2022-01-24,清算の結了等,,,2015-10-05,1,,,,,アートウッドコウゲイ,0
2665,9021002038984,登記記録の閉鎖等,0,2022-01-26,2022-01-21,有限会社諸星建設,,有限会社,神奈川県,秦野市,鶴巻南２丁目１０番２０号,,14,211,2570002,,,2022-01-21,清算の結了等,,,2015-10-05,1,,,,,モロホシケンセツ,0
2670,9030002045560,登記記録の閉鎖等,0,2022-01-26,2022-01-21,有限会社フジイ総合保険事務所,,有限会社,埼玉県,草加市,草加５丁目８番１５号,,11,221,3400043,,,2022-01-21,清算の結了等,,,2015-10-05,1,,,,,フジイソウゴウホケンジムショ,0
2680,9030003014077,登記記録の閉鎖等,0,2022-01-26,2022-01-21,合同会社ＮＩＷＡ,,合同会社,埼玉県,八潮市,大字八條１５６７番地,,11,234,3400801,,,2022-01-21,清算の結了等,,,2019-09-20,1,,,,,ニワ,0
2703,9110001000236,登記記録の閉鎖等,0,2022-01-26,2022-01-26,株式会社アイワ新潟,,株式会社,新潟県,新潟市東区,津島屋７丁目９９番地１,,15,102,9500801,,,2022-01-26,登記官による閉鎖,,,2015-10-05,1,,,,,,0
2704,9110001000748,登記記録の閉鎖等,0,2022-01-26,2022-01-26,株式会社エヌ・シー・シー,,株式会社,新潟県,新潟市東区,東明８丁目２番３号,,15,102,9500853,,,2022-01-26,登記官による閉鎖,,,2017-01-30,1,,,,,,0
2705,9110001000814,登記記録の閉鎖等,0,2022-01-26,2022-01-26,株式会社エム・シー新潟,,株式会社,新潟県,新潟市中央区,弁天２丁目３番１号アパガーデンコート弁天公園１００１号,,15,103,9500901,,,2022-01-26,登記官による閉鎖,,,2015-10-05,1,,,,,,0
2706,9110001003321,登記記録の閉鎖等,0,2022-01-26,2022-01-26,株式会社津建,,株式会社,新潟県,新潟市中央区,沼垂西１丁目５番２１号,,15,103,9500076,,,2022-01-26,登記官による閉鎖,,,2015-11-26,1,,,,,,0
2707,9110001007009,登記記録の閉鎖等,0,2022-01-26,2022-01-26,株式会社新潟陸王モータース,,株式会社,新潟県,新潟市中央区,礎町通り三ノ町２１３９番地,,15,103,9500000,,,2022-01-26,登記官による閉鎖,,,2015-10-05,1,,,,,,0
2708,9110001009145,登記記録の閉鎖等,0,2022-01-26,2022-01-26,株式会社かーいんてりあ志田,,株式会社,新潟県,新潟市東区,津島屋３丁目２２番地,,15,102,9500801,,,2022-01-26,登記官による閉鎖,,,2015-10-05,1,,,,,,0
2709,9110001018625,登記記録の閉鎖等,0,2022-01-26,2022-01-26,株式会社ワカスオートトレーデイング,,株式会社,新潟県,新潟市北区,東栄町３丁目４番１号,,15,101,9503323,,,2022-01-26,登記官による閉鎖,,,2015-10-05,1,,,,,,0
2710,9110001018708,登記記録の閉鎖等,0,2022-01-26,2022-01-26,丸山金属株式会社,,株式会社,新潟県,燕市,燕５１８４番地,,15,213,9591288,,,2022-01-26,登記官による閉鎖,,,2015-10-05,1,,,,,,0
2711,9110001022973,登記記録の閉鎖等,0,2022-01-26,2022-01-26,中越住設株式会社,,株式会社,新潟県,長岡市,西津町３８３６番地１,,15,202,9402126,,,2022-01-26,登記官による閉鎖,,,2015-10-05,1,,,,,,0
2712,9110001026603,登記記録の閉鎖等,0,2022-01-26,2022-01-26,株式会社湯沢ホテル,,株式会社,新潟県,南魚沼郡湯沢町,大字湯沢９３３番地,,15,461,9496101,,,2022-01-26,登記官による閉鎖,,,2015-10-05,1,,,,,,0
2713,9110001031669,登記記録の閉鎖等,0,2022-01-26,2022-01-26,株式会社創和,,株式会社,新潟県,上越市,木田２丁目１番１号,,15,222,9430805,,,2022-01-26,登記官による閉鎖,,,2016-07-08,1,,,,,,0
2714,9110002001241,登記記録の閉鎖等,0,2022-01-26,2022-01-26,有限会社エフ・スピリッツ,,有限会社,新潟県,新潟市中央区,東万代町１番５号,,15,103,9500082,,,2022-01-26,登記官による閉鎖,,,2015-10-05,1,,,,,,0
2715,9110002001349,登記記録の閉鎖等,0,2022-01-26,2022-01-26,有限会社大島表具店,,有限会社,新潟県,新潟市中央区,東堀通１１番町１７５０番地,,15,103,9518065,,,2022-01-26,登記官による閉鎖,,,2015-10-05,1,,,,,,0
2716,9110002001679,登記記録の閉鎖等,0,2022-01-26,2022-01-26,有限会社金井酒店,,有限会社,新潟県,新潟市東区,中山５丁目２１番９号,,15,102,9500861,,,2022-01-26,登記官による閉鎖,,,2016-11-18,1,,,,,,0
2717,9110002005523,登記記録の閉鎖等,0,2022-01-26,2022-01-26,有限会社ヒロ川,,有限会社,新潟県,新潟市西区,寺尾朝日通１１番３２号,,15,107,9502051,,,2022-01-26,登記官による閉鎖,,,2015-10-05,1,,,,,,0
2718,9110002006199,登記記録の閉鎖等,0,2022-01-26,2022-01-26,有限会社マミヤ印刷所,,有限会社,新潟県,新潟市中央区,南横堀町２９８番地,,15,103,9518117,,,2022-01-26,登記官による閉鎖,,,2015-10-05,1,,,,,,0
2719,9110002006505,登記記録の閉鎖等,0,2022-01-26,2022-01-26,有限会社ミヤ美容室,,有限会社,新潟県,新潟市中央区,西堀通８番町１５７５番地,,15,103,9518061,,,2022-01-26,登記官による閉鎖,,,2015-10-05,1,,,,,,0
2720,9110002016768,登記記録の閉鎖等,0,2022-01-26,2022-01-26,有限会社八千代土地,,有限会社,新潟県,新潟市西区,鳥原８１４番地,,15,107,9501115,,,2022-01-26,登記官による閉鎖,,,2015-10-05,1,,,,,,0
2722,9110003000770,登記記録の閉鎖等,0,2022-01-26,2022-01-26,合資会社石川商店,,合資会社,新潟県,東蒲原郡阿賀町,七名甲１４１番地,,15,385,9594515,,,2022-01-26,登記官による閉鎖,,,2015-10-05,1,,,,,,0
2723,9110003002932,登記記録の閉鎖等,0,2022-01-26,2022-01-26,渡邊合資会社,,合資会社,新潟県,上越市,清里区荒牧９３８番地,,15,222,9430502,,,2022-01-26,登記官による閉鎖,,,2015-10-05,1,,,,,,0
2725,9110005003037,登記記録の閉鎖等,0,2022-01-26,2022-01-26,特定非営利活動法人新潟エコフード,,その他の設立登記法人,新潟県,新潟市秋葉区,新津本町２丁目１番２３号下越農民会館内,,15,105,9560864,,,2022-01-26,登記官による閉鎖,,,2015-10-05,1,,,,,,0
2726,9110005004456,登記記録の閉鎖等,0,2022-01-26,2022-01-26,畑江開拓農業協同組合,,その他の設立登記法人,新潟県,阿賀野市,畑江１７０番地,,15,223,9591924,,,2022-01-26,登記官による閉鎖,,,2015-10-05,1,,,,,,0
2727,9120001163593,登記記録の閉鎖等,0,2022-01-26,2022-01-21,ＫＳＣ株式会社,,株式会社,大阪府,大阪市城東区,鴫野西２丁目１１番１３号,,27,118,5360014,,,2022-01-21,清算の結了等,,,2015-10-05,1,,,,,ケーエスシー,0
2738,9120002014960,登記記録の閉鎖等,0,2022-01-26,2022-01-24,有限会社西田パソコン教室,,有限会社,大阪府,大阪市大正区,泉尾４丁目５番４号,,27,108,5510031,,,2022-01-24,清算の結了等,,,2015-10-05,1,,,,,ニシダパソコンキョウシツ,0
2762,9130005015138,登記記録の閉鎖等,0,2022-01-26,2022-01-24,税理士法人らくよう綜合研究所,,その他の設立登記法人,京都府,京都市東山区,大和大路通四条下る４丁目小松町５５７番地７,,26,105,6050811,,,2022-01-24,清算の結了等,,,2017-11-10,1,,,,,ラクヨウソウゴウケンキュウショ,0
2778,9180001067649,登記記録の閉鎖等,0,2022-01-26,2022-01-20,株式会社ＳＥＬＥＣＴＩＯＮ,,株式会社,愛知県,名古屋市天白区,福池１丁目８番地,,23,116,4680049,,,2022-01-20,清算の結了等,,,2015-10-05,1,,,,,セレクション,0
2788,9180003019648,登記記録の閉鎖等,0,2022-01-26,2021-12-27,合同会社マーブル,,合同会社,愛知県,名古屋市中村区,新富町１丁目２番２７号,,23,105,4530031,,,2021-12-27,清算の結了等,,,2019-01-30,1,,,,,マーブル,0
2789,9180305004414,登記記録の閉鎖等,0,2022-01-26,2022-01-24,祥光寺,,その他の設立登記法人,愛知県,安城市,御幸本町１３番９号,,23,212,4460032,,,2022-01-24,清算の結了等,,,2015-10-05,1,,,,,,0
2795,9220001007369,登記記録の閉鎖等,0,2022-01-26,2022-01-24,株式会社陽電社,,株式会社,石川県,金沢市,金石本町イ１３番地２,,17,201,9200336,,,2022-01-24,清算の結了等,,,2015-10-05,1,,,,,ヨウデンシャ,0
2831,9350001008701,登記記録の閉鎖等,0,2022-01-26,2022-01-25,株式会社日本木彫,,株式会社,宮崎県,都城市,山之口町花木２０７２番地,,45,202,8891802,,,2022-01-25,登記官による閉鎖,,,2015-10-05,1,,,,,,0
2832,9350001009732,登記記録の閉鎖等,0,2022-01-26,2022-01-25,株式会社ＲＯＯＴ　ＦＩＶＥ,,株式会社,宮崎県,日南市,北郷町郷之原乙１３６２番地２,,45,204,8892402,,,2022-01-25,登記官による閉鎖,,,2015-10-05,1,,,,,,0
2833,9350001010987,登記記録の閉鎖等,0,2022-01-26,2022-01-25,株式会社エビノビッグハウス,,株式会社,宮崎県,えびの市,大字杉水流１００９番地,,45,209,8894313,,,2022-01-25,登記官による閉鎖,,,2015-10-05,1,,,,,,0
2834,9350001014088,登記記録の閉鎖等,0,2022-01-26,2022-01-25,株式会社鶴ケ丘ゴルフセンター,,株式会社,宮崎県,延岡市,鶴ケ丘２丁目２０３７番地２,,45,203,8820865,,,2022-01-25,登記官による閉鎖,,,2016-06-15,1,,,,,,0
2835,9350002005375,登記記録の閉鎖等,0,2022-01-26,2022-01-25,有限会社渡邉欣治商店,,有限会社,宮崎県,宮崎市,恒久南１丁目９番地１０,,45,201,8800915,,,2022-01-25,登記官による閉鎖,,,2015-10-05,1,,,,,,0
2836,9350002007487,登記記録の閉鎖等,0,2022-01-26,2022-01-25,有限会社サークル・ライフ,,有限会社,宮崎県,宮崎市,佐土原町下那珂字下ノ山２９５７番地,,45,201,8800212,,,2022-01-25,登記官による閉鎖,,,2015-10-05,1,,,,,,0
2837,9350002007999,登記記録の閉鎖等,0,2022-01-26,2022-01-25,有限会社ビエンドゥコーポレーション,,有限会社,宮崎県,宮崎市,吉村町境目甲１５２０番地６,,45,201,8800841,,,2022-01-25,登記官による閉鎖,,,2016-08-29,1,,,,,,0
2838,9350002008972,登記記録の閉鎖等,0,2022-01-26,2022-01-25,有限会社共進電設,,有限会社,宮崎県,児湯郡高鍋町,大字北高鍋２３８８番地１,,45,401,8840002,,,2022-01-25,登記官による閉鎖,,,2015-10-05,1,,,,,,0
2842,9360002005291,登記記録の閉鎖等,0,2022-01-26,2022-01-20,有限会社あすみプラン,,有限会社,沖縄県,那覇市,田原３丁目７番地２小禄リースビル３０５号室,,47,201,9010156,,,2022-01-20,清算の結了等,,,2015-10-05,1,,,,,アスミプラン,0
2843,9370001007874,登記記録の閉鎖等,0,2022-01-26,2022-01-25,栗原工業株式会社,,株式会社,宮城県,仙台市太白区,秋保町馬場字滝原１０２番地の９,,04,104,9820244,,,2022-01-25,清算の結了等,,,2015-10-05,1,,,,,クリハラコウギョウ,0
2851,9390001011775,登記記録の閉鎖等,0,2022-01-26,2022-01-20,後藤青果株式会社,,株式会社,山形県,寒河江市,字下河原５５番地,,06,206,9910002,,,2022-01-20,清算の結了等,,,2015-10-05,1,,,,,ゴトウセイカ,0
2864,9450002012931,登記記録の閉鎖等,0,2022-01-26,2022-01-24,有限会社興部ハイヤー,,有限会社,北海道,紋別郡興部町,字興部５０７番地,,01,561,0981600,,,2022-01-24,清算の結了等,,,2015-10-05,1,,,,,オコッペハイヤー,0
