sequenceNumber,corporateNumber,process,correct,updateDate,changeDate,name,nameImageId,kind,prefectureName,cityName,streetNumber,addressImageId,prefectureCode,cityCode,postCode,addressOutside,addressOutsideImageId,closeDate,closeCause,successorCorporateNumber,changeCause,assignmentDate,latest,enName,enPrefectureName,enCityName,enAddressOutside,furigana,hihyoji
6,1010001219967,新規,0,2021-08-06,2021-08-06,株式会社Ｂ・Ｃ　ＬＡＢ,,株式会社,東京都,中央区,銀座７丁目５番４号,,13,102,1040061,,,,,,,2021-08-06,1,,,,,ビーシーラボ,0
7,1010001220280,新規,0,2021-08-06,2021-08-06,株式会社ツナグＨＣサポート,,株式会社,東京都,千代田区,神田三崎町３丁目１番１６号,,13,101,1010061,,,,,,,2021-08-06,1,,,,,,0
25,1010401161892,新規,0,2021-08-06,2021-08-06,株式会社Ｇ’ｓ　ｅｎｔｅｒｔａｉｎｍｅｎｔ,,株式会社,東京都,港区,赤坂１丁目３－５赤坂アビタシオン８階８１５,,13,103,1070052,,,,,,,2021-08-06,1,,,,,ジーズエンターテイメント,0
26,1010401161918,新規,0,2021-08-06,2021-08-06,レアヴォルケデザインワークス株式会社,,株式会社,東京都,港区,浜松町２丁目２番１５号浜松町ダイヤビル２Ｆ,,13,103,1050013,,,,,,,2021-08-06,1,,,,,レアヴォルケデザインワークス,0
29,1010403025856,新規,0,2021-08-06,2021-08-06,合同会社マグニー,,合同会社,東京都,港区,六本木７丁目１７番２０号六本木明泉ビル５０１,,13,103,1060032,,,,,,,2021-08-06,1,,,,,マグニー,0
34,1010701041349,新規,0,2021-08-06,2021-08-06,株式会社ＡｒｉｓＬｙ,,株式会社,東京都,品川区,二葉１丁目２１番６号,,13,109,1420043,,,,,,,2021-08-06,1,,,,,アリスリー,0
35,1010701041365,新規,0,2021-08-06,2021-08-06,Ｌｅ　Ｃｏｅｕｒ株式会社,,株式会社,東京都,品川区,東五反田１丁目７番１１号アイオス五反田アネックスビル,,13,109,1410022,,,,,,,2021-08-06,1,,,,,ルクール,0
37,1010801032215,新規,0,2021-08-06,2021-08-06,株式会社Ｋ＆Ａ,,株式会社,東京都,大田区,南千束２丁目７番３号,,13,111,1450063,,,,,,,2021-08-06,1,,,,,ケイアンドエイ,0
39,1010805002866,新規,0,2021-08-06,2021-08-06,一般社団法人ＨＡＰＰＹ＆ＳＭＩＬＥ,,その他の設立登記法人,東京都,大田区,北馬込２丁目３０番１１号,,13,111,1430021,,,,,,,2021-08-06,1,,,,,,0
48,1011001142102,新規,0,2021-08-06,2021-08-06,株式会社ローレル,,株式会社,東京都,渋谷区,代々木１丁目４５番１３号ルネッサンス代々木’８５ビル２０３号,,13,113,1510053,,,,,,,2021-08-06,1,,,,,ローレル,0
49,1011001142119,新規,0,2021-08-06,2021-08-06,ハヤヒ株式会社,,株式会社,東京都,渋谷区,神宮前６丁目２８番９号東武ビル６Ｆ,,13,113,1500001,,,,,,,2021-08-06,1,,,,,ハヤヒ,0
53,1011101095902,新規,0,2021-08-06,2021-08-06,株式会社ＦＯＴＨ,,株式会社,東京都,新宿区,新宿５丁目１７番６号新宿三光町ハイム６０３号,,13,104,1600022,,,,,,,2021-08-06,1,,,,,エフオーティエイチ,0
54,1011101095927,新規,0,2021-08-06,2021-08-06,株式会社ＬＩＢＥＲＴＥ,,株式会社,東京都,新宿区,四谷三栄町４番１４号ラシクラス四谷３０２号,,13,104,1600008,,,,,,,2021-08-06,1,,,,,リベルテ,0
57,1011201023168,新規,0,2021-08-06,2021-08-06,株式会社高橋経営計画研究会,,株式会社,東京都,中野区,上鷺宮２丁目２２番５号,,13,114,1650031,,,,,,,2021-08-06,1,,,,,タカハシケイエイケイカクケンキュウカイ,0
66,1011801039547,新規,0,2021-08-06,2021-08-06,ＧＳＯホールディングス株式会社,,株式会社,東京都,足立区,竹の塚１丁目２９番１１号アーバンステージ竹の塚２０１,,13,121,1210813,,,,,,,2021-08-06,1,,,,,ジーエスオーホールディングス,0
68,1012303001573,新規,0,2021-08-06,2021-08-06,ＰＩＮＥ合同会社,,合同会社,東京都,町田市,原町田６丁目９番８ＡＥＴＡ町田４階,,13,209,1940013,,,,,,,2021-08-06,1,,,,,パイン,0
69,1012803002567,新規,0,2021-08-06,2021-08-06,合同会社スター企画,,合同会社,東京都,国分寺市,本町３丁目４番５号武蔵ビルＢ１,,13,214,1850012,,,,,,,2021-08-06,1,,,,,スターキカク,0
78,1020001142490,新規,0,2021-08-06,2021-08-06,株式会社ＭＡＬ,,株式会社,神奈川県,川崎市宮前区,犬蔵１丁目１番１４－６０６号,,14,136,2160011,,,,,,,2021-08-06,1,,,,,マル,0
79,1020001142499,新規,0,2021-08-06,2021-08-06,株式会社９２,,株式会社,神奈川県,横浜市磯子区,岡村２丁目２番２５号ソーラ１０２号,,14,107,2350021,,,,,,,2021-08-06,1,,,,,クニ,0
80,1020001142524,新規,0,2021-08-06,2021-08-06,株式会社ＳＫＳ,,株式会社,神奈川県,横浜市南区,大岡１丁目１７番２４号－２０２,,14,105,2320061,,,,,,,2021-08-06,1,,,,,エスケーエス,0
81,1020001142532,新規,0,2021-08-06,2021-08-06,Ｌｉｎｋａｇｅ　ｍｕｓｉｃ株式会社,,株式会社,神奈川県,横浜市鶴見区,駒岡４丁目２４番３５号,,14,101,2300071,,,,,,,2021-08-06,1,,,,,リンケージミュージック,0
82,1020001142540,新規,0,2021-08-06,2021-08-06,株式会社ＣＲＥＳＴ,,株式会社,神奈川県,横浜市戸塚区,吉田町３００１－３スポーツクラブＮＡＳ株式会社戸塚営業所内,,14,110,2440817,,,,,,,2021-08-06,1,,,,,クレスト,0
83,1020001142557,新規,0,2021-08-06,2021-08-06,株式会社ＭＣハウス,,株式会社,神奈川県,横浜市港北区,新横浜１丁目２９番地１５,,14,109,2220033,,,,,,,2021-08-06,1,,,,,エムシーハウス,0
91,1021001073577,新規,0,2021-08-06,2021-08-06,株式会社東栄興業,,株式会社,神奈川県,藤沢市,石川３丁目２９番地の３３,,14,205,2520815,,,,,,,2021-08-06,1,,,,,トウエイコウギョウ,0
92,1021001073585,新規,0,2021-08-06,2021-08-06,株式会社５号,,株式会社,神奈川県,鎌倉市,稲村ガ崎３丁目１５番２号,,14,204,2480024,,,,,,,2021-08-06,1,,,,,ゴゴウ,0
93,1021001073593,新規,0,2021-08-06,2021-08-06,エスケーシステム株式会社,,株式会社,神奈川県,藤沢市,湘南台１丁目１４番地の１６イーグル湘南２０７号,,14,205,2520804,,,,,,,2021-08-06,1,,,,,エスケーシステム,0
94,1021001073627,新規,0,2021-08-06,2021-08-06,株式会社Ｍスタイルプランニング,,株式会社,神奈川県,相模原市中央区,上溝３９９６番地１リンクシャルム２０１号室,,14,152,2520243,,,,,,,2021-08-06,1,,,,,エムスタイルプランニング,0
99,1030001143694,新規,0,2021-08-06,2021-08-06,株式会社リトルワールド,,株式会社,埼玉県,さいたま市北区,吉野町２丁目２０番地８グリーンミユキ吉野町４０４号,,11,102,3310811,,,,,,,2021-08-06,1,,,,,リトルワールド,0
100,1030001143711,新規,0,2021-08-06,2021-08-06,株式会社ＴＯＭＭＹ　ＡＵＴＯ,,株式会社,埼玉県,熊谷市,村岡３９９番地５ダイアパレスリバーコート熊谷９０３,,11,202,3600162,,,,,,,2021-08-06,1,,,,,トミーオート,0
101,1030001143760,新規,0,2021-08-06,2021-08-06,株式会社志輝,,株式会社,埼玉県,川口市,大字峯１５５１番地の５,,11,203,3340056,,,,,,,2021-08-06,1,,,,,シキ,0
125,1040003018308,新規,0,2021-08-06,2021-08-06,合同会社ラ・ソレイユ,,合同会社,千葉県,船橋市,東船橋４丁目３番１２号,,12,204,2730002,,,,,,,2021-08-06,1,,,,,ラソレイユ,0
127,1050001049659,新規,0,2021-08-06,2021-08-06,結信株式会社,,株式会社,茨城県,石岡市,貝地２丁目１３番１０号,,08,205,3150015,,,,,,,2021-08-06,1,,,,,ユイシン,0
133,1060001033950,新規,0,2021-08-06,2021-08-06,株式会社よつば政策研究所,,株式会社,栃木県,矢板市,片俣３６６,,09,211,3292155,,,,,,,2021-08-06,1,,,,,ヨツバセイサクケンキュウジョ,0
134,1060001033983,新規,0,2021-08-06,2021-08-06,ＲｉＦａ　Ｉｎｔｅｒｎａｔｉｏｎａｌ株式会社,,株式会社,栃木県,下都賀郡壬生町,大字国谷１９８番地,,09,361,3210211,,,,,,,2021-08-06,1,,,,,リファインターナショナル,0
140,1080001024345,新規,0,2021-08-06,2021-08-06,株式会社解体くん,,株式会社,静岡県,静岡市駿河区,丸子３３９８番地の１－２Ｆ,,22,102,4210103,,,,,,,2021-08-06,1,,,,,カイタイクン,0
141,1080003002621,新規,0,2021-08-06,2021-08-06,合同会社ＫＥＥＰ　ＯＮ　ＰＥＡＣＥ,,合同会社,静岡県,静岡市葵区,瀬名川２丁目３４－７ポライトリー２０２号,,22,101,4200913,,,,,,,2021-08-06,1,,,,,キープオンピース,0
150,1100001034507,新規,0,2021-08-06,2021-08-06,株式会社ＣＬＵＢ　ＲＥＤ,,株式会社,長野県,諏訪市,諏訪１丁目４－１０,,20,206,3920004,,,,,,,2021-08-06,1,,,,,クラブレッド,0
167,1120001239574,新規,0,2021-08-06,2021-08-06,クレバー機械株式会社,,株式会社,大阪府,大阪市西区,北堀江３丁目１０番１７号,,27,106,5500014,,,,,,,2021-08-06,1,,,,,クレバーキカイ,0
168,1120001239599,新規,0,2021-08-06,2021-08-06,小川管理株式会社,,株式会社,大阪府,大阪市淀川区,塚本５丁目６番１７号,,27,123,5320026,,,,,,,2021-08-06,1,,,,,オガワカンリ,0
169,1120001239616,新規,0,2021-08-06,2021-08-06,ナニワビィクトリー株式会社,,株式会社,大阪府,大阪市淀川区,野中南２丁目２番１６－７０１号,,27,123,5320022,,,,,,,2021-08-06,1,,,,,ナニワビィクトリー,0
170,1120001239624,新規,0,2021-08-06,2021-08-06,大地グローバルホールディングス株式会社,,株式会社,大阪府,大阪市阿倍野区,阿倍野筋１丁目１番４３号あべのハルカス３１階,,27,119,5450052,,,,,,,2021-08-06,1,,,,,ダイチグローバルホールディングス,0
171,1120003019958,新規,0,2021-08-06,2021-08-06,合同会社Ｇ－ａｎｅｔｔｏ,,合同会社,大阪府,枚方市,甲斐田町１２番３０号,,27,210,5731167,,,,,,,2021-08-06,1,,,,,ジーアネット,0
172,1120003019982,新規,0,2021-08-06,2021-08-06,合同会社スタープラチナ,,合同会社,大阪府,大阪市中央区,松屋町３番１５－４０２号,,27,128,5420067,,,,,,,2021-08-06,1,,,,,スタープラチナ,0
174,1120101064113,新規,0,2021-08-06,2021-08-06,ＳｏｌａＣｏｅ株式会社,,株式会社,大阪府,和泉市,あゆみ野４丁目３番２０号,,27,219,5941157,,,,,,,2021-08-06,1,,,,,ソラコエ,0
177,1122001035053,新規,0,2021-08-06,2021-08-06,株式会社Ｓｅｖｅｎ　Ｃｏｒａｌ,,株式会社,大阪府,東大阪市,西岩田１丁目４番１５号,,27,227,5780947,,,,,,,2021-08-06,1,,,,,セブンコーラル,0
190,1140001122539,新規,0,2021-08-06,2021-08-06,株式会社ＴＯＪＩ,,株式会社,兵庫県,神戸市東灘区,本山南町７丁目８番３０－６０２号,,28,101,6580015,,,,,,,2021-08-06,1,,,,,トージ,0
191,1140001122555,新規,0,2021-08-06,2021-08-06,株式会社恵寿,,株式会社,兵庫県,明石市,大明石町２丁目４番１７号,,28,203,6730891,,,,,,,2021-08-06,1,,,,,ケイジュ,0
192,1140001122563,新規,0,2021-08-06,2021-08-06,株式会社北摂エクステリア,,株式会社,兵庫県,宝塚市,平井１丁目８番１０号,,28,214,6650816,,,,,,,2021-08-06,1,,,,,ホクセツエクステリア,0
193,1140001122588,新規,0,2021-08-06,2021-08-06,大西プランニング株式会社,,株式会社,兵庫県,姫路市,新在家４丁目５番２３号,,28,201,6700095,,,,,,,2021-08-06,1,,,,,オオニシプランニング,0
194,1140001122596,新規,0,2021-08-06,2021-08-06,大西ホールディングス株式会社,,株式会社,兵庫県,姫路市,南駅前町９１番地８－１３０４号,,28,201,6700962,,,,,,,2021-08-06,1,,,,,オオニシホールディングス,0
199,1160001023537,新規,0,2021-08-06,2021-08-06,株式会社ｖｉｎｏｓ,,株式会社,滋賀県,米原市,高溝３１４－６Ｂｂ高溝２Ｆ,,25,214,5210074,,,,,,,2021-08-06,1,,,,,,0
207,1180001147268,新規,0,2021-08-06,2021-08-06,株式会社ＩＤＥＡＬ,,株式会社,愛知県,名古屋市中区,丸の内１丁目７番６号,,23,106,4600002,,,,,,,2021-08-06,1,,,,,イデアル,0
208,1180001147334,新規,0,2021-08-06,2021-08-06,株式会社アクアフューチャー研究所,,株式会社,愛知県,名古屋市名東区,梅森坂西２丁目６２３番地,,23,115,4650066,,,,,,,2021-08-06,1,,,,,アクアフューチャーケンキュウジョ,0
209,1180001147342,新規,0,2021-08-06,2021-08-06,株式会社リンクアップエージェント,,株式会社,愛知県,愛知郡東郷町,清水２丁目６番地１８－Ｂ２０２,,23,302,4700165,,,,,,,2021-08-06,1,,,,,リンクアップエージェント,0
210,1180001147350,新規,0,2021-08-06,2021-08-06,あだち紙器株式会社,,株式会社,愛知県,名古屋市中村区,城屋敷町２丁目４９－１,,23,105,4530058,,,,,,,2021-08-06,1,,,,,アダチシキ,0
211,1180001147359,新規,0,2021-08-06,2021-08-06,ルーツ・ホールディングス株式会社,,株式会社,愛知県,名古屋市中区,栄２丁目２番２３号,,23,106,4600008,,,,,,,2021-08-06,1,,,,,ルーツホールディングス,0
212,1180001147375,新規,0,2021-08-06,2021-08-06,ＬＧＭ株式会社,,株式会社,愛知県,春日井市,朝宮町３丁目１５番地１ウエストパーク朝宮２０１号,,23,206,4860846,,,,,,,2021-08-06,1,,,,,エルジーエム,0
215,1180003022816,新規,0,2021-08-06,2021-08-06,合同会社花形事務所,,合同会社,愛知県,名古屋市名東区,香流３丁目１００７番地,,23,115,4650005,,,,,,,2021-08-06,1,,,,,ハナガタジムショ,0
216,1180003022840,新規,0,2021-08-06,2021-08-06,合同会社飯泉商会,,合同会社,愛知県,清須市,廻間３丁目１１番地２０,,23,233,4520946,,,,,,,2021-08-06,1,,,,,イイズミショウカイ,0
230,1200001038968,新規,0,2021-08-06,2021-08-06,Ｎｏ’Ｌｉｍｉｔ株式会社,,株式会社,岐阜県,安八郡安八町,西結９１９番地の５,,21,383,5030111,,,,,,,2021-08-06,1,,,,,ノーリミット,0
231,1200001039000,新規,0,2021-08-06,2021-08-06,シュエット株式会社,,株式会社,岐阜県,岐阜市,太郎丸北浦１番地２３,,21,201,5012574,,,,,,,2021-08-06,1,,,,,,0
233,1200005013232,新規,0,2021-08-06,2021-08-06,社会保険労務士法人梅村事務所,,その他の設立登記法人,岐阜県,大垣市,浅草１丁目３８２番地３パークロイヤルヤスダＣ２０７,,21,202,5030947,,,,,,,2021-08-06,1,,,,,ウメムラジムショ,0
235,1210001018564,新規,0,2021-08-06,2021-08-06,株式会社大福,,株式会社,福井県,福井市,門前２丁目５０１番地レイユール門前２０１,,18,201,9188021,,,,,,,2021-08-06,1,,,,,ダイフク,0
243,1240001058401,新規,0,2021-08-06,2021-08-06,株式会社ＬＩＧ　ＢＬＡＮＣＯ,,株式会社,広島県,福山市,曙町５丁目４番３５号,,34,207,7210952,,,,,,,2021-08-06,1,,,,,リグブランコ,0
244,1240001058418,新規,0,2021-08-06,2021-08-06,株式会社ユナイトカンパニー,,株式会社,広島県,広島市安芸区,畑賀２丁目２２番２９－２０３号,,34,107,7360088,,,,,,,2021-08-06,1,,,,,ユナイトカンパニー,0
248,1250001019047,新規,0,2021-08-06,2021-08-06,ＭｉｃｒｏＩｎｎｏｖａｔｏｒｓ　Ｌａｂｏｒａｔｏｒｙ株式会社,,株式会社,山口県,宇部市,あすとぴあ２丁目１番地１７,,35,202,7550152,,,,,,,2021-08-06,1,,,,,マイクロイノベーターズラボラトリー,0
249,1250005008681,新規,0,2021-08-06,2021-08-06,しものせき海響ふく協同組合,,その他の設立登記法人,山口県,下関市,彦島西山町５丁目６番４３号,,35,201,7500093,,,,,,,2021-08-06,1,,,,,,0
250,1260001035860,新規,0,2021-08-06,2021-08-06,ＴＲｕＮＫ株式会社,,株式会社,岡山県,倉敷市,児島味野２丁目２番６８号,,33,202,7110913,,,,,,,2021-08-06,1,,,,,トランク,0
254,1290001094086,新規,0,2021-08-06,2021-08-06,株式会社天照,,株式会社,福岡県,糟屋郡粕屋町,大字内橋３３９番地,,40,349,8112308,,,,,,,2021-08-06,1,,,,,テンショウ,0
262,1310003004131,新規,0,2021-08-06,2021-08-06,合同会社泉,,合同会社,長崎県,諫早市,長野町１４５８番地１,,42,204,8540036,,,,,,,2021-08-06,1,,,,,イズミ,0
265,1320001018512,新規,0,2021-08-06,2021-08-06,株式会社山新総合,,株式会社,大分県,別府市,大字鶴見４５４６番地の１０４,,44,202,8740840,,,,,,,2021-08-06,1,,,,,ヤマシンソウゴウ,0
266,1320001018520,新規,0,2021-08-06,2021-08-06,株式会社琥珀,,株式会社,大分県,大分市,東大道１丁目３番１号アクロスプラザ大分駅南２Ｆ,,44,201,8700823,,,,,,,2021-08-06,1,,,,,コハク,0
275,1340001023997,新規,0,2021-08-06,2021-08-06,株式会社ｍａｒｕｗａｋａ　ｆａｒｍ,,株式会社,鹿児島県,曽於市,大隅町岩川６２２０番地１,,46,217,8998102,,,,,,,2021-08-06,1,,,,,マルワカファーム,0
276,1340001024005,新規,0,2021-08-06,2021-08-06,株式会社喜志造,,株式会社,鹿児島県,鹿児島市,加治屋町３－１２,,46,201,8920846,,,,,,,2021-08-06,1,,,,,キズナ,0
278,1350001017255,新規,0,2021-08-06,2021-08-06,株式会社ＫＥＩ　ＡＵＴＯ,,株式会社,宮崎県,日向市,大字財光寺１４６２番地,,45,206,8830021,,,,,,,2021-08-06,1,,,,,ケイオート,0
279,1360001029209,新規,0,2021-08-06,2021-08-06,株式会社神部聡建築設計事務所,,株式会社,沖縄県,中頭郡中城村,字南上原１００７番地１Ｆ,,47,328,9012424,,,,,,,2021-08-06,1,,,,,カンベサトシケンチクセッケイジムショ,0
281,1370001047465,新規,0,2021-08-06,2021-08-06,株式会社ｐｒｅ　ａｌｂａ,,株式会社,宮城県,岩沼市,土ケ崎２丁目７－１６,,04,211,9892451,,,,,,,2021-08-06,1,,,,,プレアルバ,0
288,1380001032103,新規,0,2021-08-06,2021-08-06,株式会社Ｆ・Ｔハーネス,,株式会社,福島県,田村市,常葉町常葉字七日市場６５番地２８,,07,211,9634602,,,,,,,2021-08-06,1,,,,,エフティーハーネス,0
292,1410001012919,新規,0,2021-08-06,2021-08-06,株式会社イルスタジオ,,株式会社,秋田県,秋田市,手形山崎町３番２３号,,05,201,0100854,,,,,,,2021-08-06,1,,,,,イルスタジオ,0
295,1420001017545,新規,0,2021-08-06,2021-08-06,株式会社黒石工機,,株式会社,青森県,黒石市,青山１１１番地２,,02,204,0360325,,,,,,,2021-08-06,1,,,,,クロイシコウキ,0
296,1420005007765,新規,0,2021-08-06,2021-08-06,一般社団法人東通東風塾,,その他の設立登記法人,青森県,下北郡東通村,大字蒲野沢字千鳥道３９番地３,,02,424,0350004,,,,,,,2021-08-06,1,,,,,ヒガシドオリヤマセジュク,0
301,1430003013005,新規,0,2021-08-06,2021-08-06,彌三郎商店合同会社,,合同会社,北海道,札幌市西区,西町南１丁目３番１５－２０２号,,01,107,0630062,,,,,,,2021-08-06,1,,,,,ヤサブロウショウテン,0
307,1460101007038,新規,0,2021-08-06,2021-08-06,ＯＮサービス株式会社,,株式会社,北海道,帯広市,大通南２９丁目２番地,,01,207,0800010,,,,,,,2021-08-06,1,,,,,オーエヌサービス,0
310,1470001018654,新規,0,2021-08-06,2021-08-06,ワンネス株式会社,,株式会社,香川県,高松市,鬼無町是竹１１１番地３,,37,201,7618021,,,,,,,2021-08-06,1,,,,,ワンネス,0
315,1500001023618,新規,0,2021-08-06,2021-08-06,株式会社Ｄ－ｎｅｔ,,株式会社,愛媛県,松山市,山越４丁目２番６号－２０３号,,38,201,7918013,,,,,,,2021-08-06,1,,,,,ディーネット,0
323,2010001219966,新規,0,2021-08-06,2021-08-06,株式会社ＦＩＮＴＥＸ,,株式会社,東京都,中央区,銀座７丁目５番４号,,13,102,1040061,,,,,,,2021-08-06,1,,,,,フィンテックス,0
324,2010001220214,新規,0,2021-08-06,2021-08-06,Ｖｉｔａｌ　Ｎｏｖａ　Ｈｅａｌｔｈ株式会社,,株式会社,東京都,千代田区,丸の内１丁目１１番１号パシフィックセンチュリープレイス１３階,,13,101,1000005,,,,,,,2021-08-06,1,,,,,バイタルノバヘルス,0
325,2010001220255,新規,0,2021-08-06,2021-08-06,チェーンブリッジ株式会社,,株式会社,東京都,中央区,銀座１丁目２２番１１号,,13,102,1040061,,,,,,,2021-08-06,1,,,,,チェーンブリッジ,0
326,2010001220296,新規,0,2021-08-06,2021-08-06,株式会社チアエステート,,株式会社,東京都,千代田区,神田須田町２丁目６番地２０マリアナ神田須田町３Ｆ,,13,101,1010041,,,,,,,2021-08-06,1,,,,,チアエステート,0
331,2010003035528,新規,0,2021-08-06,2021-08-06,合同会社ミカドインターナショナル,,合同会社,東京都,中央区,銀座６丁目１３番１６号５階,,13,102,1040061,,,,,,,2021-08-06,1,,,,,ミカドインターナショナル,0
335,2010005033736,新規,0,2021-08-06,2021-08-06,一般社団法人オーセンティックライフ協会,,その他の設立登記法人,東京都,中央区,銀座１丁目２２番１１号銀座大竹ビジデンス２階,,13,102,1040061,,,,,,,2021-08-06,1,,,,,オーセンティックライフキョウカイ,0
337,2010401161883,新規,0,2021-08-06,2021-08-06,株式会社エト,,株式会社,東京都,港区,高輪３丁目１２番８号,,13,103,1080074,,,,,,,2021-08-06,1,,,,,エト,0
338,2010401161900,新規,0,2021-08-06,2021-08-06,株式会社Ｌｉｅｎ　Ｖｅｉｌ,,株式会社,東京都,港区,南青山２丁目２番１５号ウィン青山９４２,,13,103,1070062,,,,,,,2021-08-06,1,,,,,リアンベール,0
339,2010401161909,新規,0,2021-08-06,2021-08-06,株式会社バステト,,株式会社,東京都,港区,浜松町２丁目２－１５浜松町ダイヤビル２Ｆ,,13,103,1050013,,,,,,,2021-08-06,1,,,,,バステト,0
340,2010401161933,新規,0,2021-08-06,2021-08-06,株式会社Ｍｏｎｔｅｃｈａｎｃｅ,,株式会社,東京都,港区,高輪３丁目２番６号－１４０１号,,13,103,1080074,,,,,,,2021-08-06,1,,,,,モンテシャンス,0
341,2010401161974,新規,0,2021-08-06,2021-08-06,株式会社ＡＬＬＵＲＥ,,株式会社,東京都,港区,新橋４丁目１５番８号ル・グラシエルＢＬＤＧ．２１六階,,13,103,1050004,,,,,,,2021-08-06,1,,,,,アリュール,0
343,2010501047652,新規,0,2021-08-06,2021-08-06,ＲｅＬｉｖｅ株式会社,,株式会社,東京都,台東区,東上野４丁目１０番７号東ビル１－２,,13,106,1100015,,,,,,,2021-08-06,1,,,,,リライブ,0
349,2010601059770,新規,0,2021-08-06,2021-08-06,ＮＥＸＴ　ＯＲＤＥＲ株式会社,,株式会社,東京都,墨田区,石原１丁目７番６号,,13,107,1300011,,,,,,,2021-08-06,1,,,,,ネクストオーダー,0
351,2010701041364,新規,0,2021-08-06,2021-08-06,株式会社Ｍ＆Ｍ,,株式会社,東京都,品川区,東品川３丁目８番８－２３０９号,,13,109,1400002,,,,,,,2021-08-06,1,,,,,エムアンドエム,0
353,2010801032206,新規,0,2021-08-06,2021-08-06,株式会社Ｍ－ＬＩＮＥ,,株式会社,東京都,大田区,東糀谷５丁目１５番２５号,,13,111,1440033,,,,,,,2021-08-06,1,,,,,,0
365,2011101095926,新規,0,2021-08-06,2021-08-06,株式会社グーナビ,,株式会社,東京都,新宿区,大久保２丁目７番１－６０４号,,13,104,1690072,,,,,,,2021-08-06,1,,,,,グーナビ,0
366,2011101095959,新規,0,2021-08-06,2021-08-06,株式会社ＡＳＡＰ,,株式会社,東京都,新宿区,岩戸町１４番地４０１,,13,104,1620832,,,,,,,2021-08-06,1,,,,,エイサップ,0
367,2011103010908,新規,0,2021-08-06,2021-08-06,合同会社ＧｏＮ,,合同会社,東京都,新宿区,西早稲田３丁目８－１４－６０２号,,13,104,1690051,,,,,,,2021-08-06,1,,,,,,0
370,2011201023159,新規,0,2021-08-06,2021-08-06,株式会社エクシア,,株式会社,東京都,中野区,鷺宮１丁目３０番１３号,,13,114,1650032,,,,,,,2021-08-06,1,,,,,エクシア,0
375,2011401023578,新規,0,2021-08-06,2021-08-06,日牟禮屋株式会社,,株式会社,東京都,板橋区,成増２丁目４番７号,,13,119,1750094,,,,,,,2021-08-06,1,,,,,ヒムレヤ,0
376,2011601025309,新規,0,2021-08-06,2021-08-06,メロディー株式会社,,株式会社,東京都,練馬区,石神井町８丁目２３番７号,,13,120,1770041,,,,,,,2021-08-06,1,,,,,メロディー,0
379,2011701024615,新規,0,2021-08-06,2021-08-06,株式会社レムニスケート,,株式会社,東京都,江戸川区,西一之江４丁目１６番１０号,,13,123,1320023,,,,,,,2021-08-06,1,,,,,レムニスケート,0
382,2011801039554,新規,0,2021-08-06,2021-08-06,株式会社エルア・ノア,,株式会社,東京都,葛飾区,青戸３丁目３１－４磯太郎ビル２階,,13,122,1250062,,,,,,,2021-08-06,1,,,,,エルアノア,0
385,2012303001572,新規,0,2021-08-06,2021-08-06,赤猫楽団合同会社,,合同会社,東京都,町田市,玉川学園７丁目１５－４０,,13,209,1940041,,,,,,,2021-08-06,1,,,,,アカネコガクダン,0
386,2012305001967,新規,0,2021-08-06,2021-08-06,一般社団法人つるかわ子どもこもんず,,その他の設立登記法人,東京都,町田市,能ヶ谷１丁目８番８号パレス・リッツ６０９,,13,209,1950053,,,,,,,2021-08-06,1,,,,,ツルカワコドモコモンズ,0
388,2012701016610,新規,0,2021-08-06,2021-08-06,アイキ建設株式会社,,株式会社,東京都,小平市,小川町２丁目１８１４－１０４,,13,211,1870032,,,,,,,2021-08-06,1,,,,,アイキケンセツ,0
389,2012803002566,新規,0,2021-08-06,2021-08-06,合同会社ＹＣＳユミナス・アセットマネージメント,,合同会社,東京都,東大和市,中央４丁目１０６１番地３グリーンビル４Ｆ,,13,220,2070015,,,,,,,2021-08-06,1,,,,,ワイシーエスユミナスアセットマネージメント,0
401,2020001142408,新規,0,2021-08-06,2021-08-06,株式会社Ｃａｌｍ,,株式会社,神奈川県,横浜市旭区,二俣川２丁目５０番地１４,,14,112,2410821,,,,,,,2021-08-06,1,,,,,カーム,0
402,2020001142473,新規,0,2021-08-06,2021-08-06,株式会社メデューサ,,株式会社,神奈川県,横浜市青葉区,あざみ野南４丁目２２番地４１,,14,117,2250012,,,,,,,2021-08-06,1,,,,,メデューサ,0
403,2020001142481,新規,0,2021-08-06,2021-08-06,チック株式会社,,株式会社,神奈川県,川崎市麻生区,百合丘１丁目１番２６－２０３号,,14,137,2150011,,,,,,,2021-08-06,1,,,,,チック,0
404,2020001142515,新規,0,2021-08-06,2021-08-06,株式会社アソリア,,株式会社,神奈川県,横浜市西区,北幸１丁目１１－１水信ビル７階,,14,103,2200004,,,,,,,2021-08-06,1,,,,,アソリア,0
405,2020001142523,新規,0,2021-08-06,2021-08-06,株式会社パーフェクトホーム,,株式会社,神奈川県,横浜市緑区,長津田町３１４８番地,,14,113,2260026,,,,,,,2021-08-06,1,,,,,パーフェクトホーム,0
406,2020001142531,新規,0,2021-08-06,2021-08-06,株式会社ＹＵ電気,,株式会社,神奈川県,横浜市港北区,大豆戸町９２４番地１ウィステリア大倉山３０３号,,14,109,2220032,,,,,,,2021-08-06,1,,,,,ワイユーデンキ,0
408,2020003020264,新規,0,2021-08-06,2021-08-06,ＢＲＥＡＴＨＥ合同会社,,合同会社,神奈川県,川崎市宮前区,宮崎１丁目１２番１５号マイキャッスル宮崎台４０２号室,,14,136,2160033,,,,,,,2021-08-06,1,,,,,ブリーズ,0
409,2020003020289,新規,0,2021-08-06,2021-08-06,合同会社Ｔ＆Ａマネジメントオフィス,,合同会社,神奈川県,川崎市幸区,塚越４丁目３４５番地１ザ・ミレナリータワーズ１１１６,,14,132,2120024,,,,,,,2021-08-06,1,,,,,ティーアンドエーマネジメントオフィス,0
412,2021001073510,新規,0,2021-08-06,2021-08-06,株式会社Ｓｗｅｌｌ,,株式会社,神奈川県,茅ヶ崎市,赤羽根３３６０番地７,,14,207,2530001,,,,,,,2021-08-06,1,,,,,スウェル,0
413,2021001073584,新規,0,2021-08-06,2021-08-06,株式会社４号,,株式会社,神奈川県,鎌倉市,稲村ガ崎３丁目１５番２号,,14,204,2480024,,,,,,,2021-08-06,1,,,,,ヨンゴウ,0
414,2021001073592,新規,0,2021-08-06,2021-08-06,株式会社タリー,,株式会社,神奈川県,相模原市南区,大野台６丁目６番１０号,,14,153,2520331,,,,,,,2021-08-06,1,,,,,タリー,0
415,2021001073601,新規,0,2021-08-06,2021-08-06,株式会社長谷川,,株式会社,神奈川県,相模原市中央区,星が丘１丁目１５番２２号,,14,152,2520238,,,,,,,2021-08-06,1,,,,,ハセガワ,0
416,2021003010759,新規,0,2021-08-06,2021-08-06,イーエム断熱合同会社,,合同会社,神奈川県,相模原市南区,南台１丁目６番２号ムネタケマンション３０８,,14,153,2520314,,,,,,,2021-08-06,1,,,,,イーエムダンネツ,0
422,2030001143561,新規,0,2021-08-06,2021-08-06,株式会社ラグリ,,株式会社,埼玉県,所沢市,榎町８番１６号,,11,208,3591104,,,,,,,2021-08-06,1,,,,,ラグリ,0
423,2030001143628,新規,0,2021-08-06,2021-08-06,株式会社杉本空調設備,,株式会社,埼玉県,新座市,馬場４丁目５番３０号,,11,230,3520016,,,,,,,2021-08-06,1,,,,,スギモトクウチョウセツビ,0
424,2030001143636,新規,0,2021-08-06,2021-08-06,株式会社大野犬猫病院,,株式会社,埼玉県,本庄市,栗崎５番地２,,11,211,3670032,,,,,,,2021-08-06,1,,,,,オオノイヌネコビョウイン,0
425,2030001143644,新規,0,2021-08-06,2021-08-06,株式会社エフディーサポート,,株式会社,埼玉県,越谷市,瓦曽根２丁目５番３１－３０９号,,11,222,3430821,,,,,,,2021-08-06,1,,,,,エフディーサポート,0
426,2030001143652,新規,0,2021-08-06,2021-08-06,株式会社彩豊電設,,株式会社,埼玉県,久喜市,吉羽３丁目１３番地１７,,11,232,3460014,,,,,,,2021-08-06,1,,,,,サイホウデンセツ,0
427,2030001143660,新規,0,2021-08-06,2021-08-06,株式会社アース工業,,株式会社,埼玉県,草加市,瀬崎７丁目１番９号,,11,221,3400022,,,,,,,2021-08-06,1,,,,,アースコウギョウ,0
428,2030001143669,新規,0,2021-08-06,2021-08-06,株式会社ネクストアカウンティング,,株式会社,埼玉県,春日部市,谷原３丁目１４番地３９,,11,214,3440065,,,,,,,2021-08-06,1,,,,,ネクストアカウンティング,0
429,2030001143677,新規,0,2021-08-06,2021-08-06,ジェイシナジー株式会社,,株式会社,埼玉県,川口市,大字源左衛門新田１１番地の１,,11,203,3330822,,,,,,,2021-08-06,1,,,,,ジェイシナジー,0
430,2030001143710,新規,0,2021-08-06,2021-08-06,株式会社ＣＡＲＡＶＡＮ,,株式会社,埼玉県,さいたま市浦和区,前地３丁目１６番２０－５０２号,,11,107,3300053,,,,,,,2021-08-06,1,,,,,キャラバン,0
435,2030003017722,新規,0,2021-08-06,2021-08-06,合同会社シー,,合同会社,埼玉県,児玉郡上里町,大字堤３６５番地２,,11,385,3690313,,,,,,,2021-08-06,1,,,,,シー,0
436,2030003017739,新規,0,2021-08-06,2021-08-06,３Ｃ　ｗｏｒｋｓ合同会社,,合同会社,埼玉県,越谷市,赤山町２丁目１３３－３－３０１,,11,222,3430807,,,,,,,2021-08-06,1,,,,,スリーシーワークス,0
440,2040001119726,新規,0,2021-08-06,2021-08-06,株式会社輝工業,,株式会社,千葉県,柏市,高田１３２１番地２０,,12,217,2770861,,,,,,,2021-08-06,1,,,,,ヒカリコウギョウ,0
450,2050003006013,新規,0,2021-08-06,2021-08-06,合同会社Ａ＆Ｄ,,合同会社,茨城県,守谷市,小山３９３番１号,,08,224,3020122,,,,,,,2021-08-06,1,,,,,エイアンドディ,0
451,2050003006021,新規,0,2021-08-06,2021-08-06,ＡＳ　ＥＮＴＥＲＰＲＩＳＥＳ合同会社,,合同会社,茨城県,潮来市,日の出１丁目１３番地７－Ｆ棟,,08,223,3112423,,,,,,,2021-08-06,1,,,,,エイエスエンタープライズ,0
454,2060001033974,新規,0,2021-08-06,2021-08-06,株式会社松本工業,,株式会社,栃木県,大田原市,加治屋９６番地１０１,,09,210,3240046,,,,,,,2021-08-06,1,,,,,マツモトコウギョウ,0
455,2060001033982,新規,0,2021-08-06,2021-08-06,株式会社Ｌｅｖｅｎ,,株式会社,栃木県,栃木市,藤岡町藤岡２２３番地８,,09,203,3231104,,,,,,,2021-08-06,1,,,,,レーヴン,0
486,2120001239490,新規,0,2021-08-06,2021-08-06,徳川株式会社,,株式会社,大阪府,大阪市中央区,徳井町２丁目１－１５第二共栄ビル,,27,128,5400025,,,,,,,2021-08-06,1,,,,,トクガワ,0
487,2120001239508,新規,0,2021-08-06,2021-08-06,ＧｌｏｂａｌＢｕｌｌ株式会社,,株式会社,大阪府,大阪市西区,北堀江３丁目７番４０号,,27,106,5500014,,,,,,,2021-08-06,1,,,,,グローバルブル,0
488,2120001239540,新規,0,2021-08-06,2021-08-06,ＥＫエージェント株式会社,,株式会社,大阪府,大阪市住吉区,清水丘１丁目３２番８号,,27,120,5580033,,,,,,,2021-08-06,1,,,,,イーケーエージェント,0
489,2120001239581,新規,0,2021-08-06,2021-08-06,株式会社ロールハウス経営研究所,,株式会社,大阪府,大阪市北区,天神橋４丁目８番２７号,,27,127,5300041,,,,,,,2021-08-06,1,,,,,ロールハウスケイエイケンキュウショ,0
490,2120001239664,新規,0,2021-08-06,2021-08-06,株式会社Ｗ・Ｘ,,株式会社,大阪府,大阪市浪速区,大国３丁目６番５号,,27,111,5560014,,,,,,,2021-08-06,1,,,,,ダブリュエックス,0
493,2120003019965,新規,0,2021-08-06,2021-08-06,ＡＤｊｕｓｔ　Ｓａｌｅｓ　Ｐｒｏｍｏｔｉｏｎ合同会社,,合同会社,大阪府,大阪市北区,梅田１丁目２番２号大阪駅前第２ビル,,27,127,5300001,,,,,,,2021-08-06,1,,,,,アジャストセールスプロモーション,0
496,2120105009435,新規,0,2021-08-06,2021-08-06,行政書士法人ケイティオフィス,,その他の設立登記法人,大阪府,堺市東区,日置荘田中町２３９番地２,,27,143,5998113,,,,,,,2021-08-06,1,,,,,ケイティオフィス,0
499,2120901044668,新規,0,2021-08-06,2021-08-06,株式会社Ｅｍａｃ２,,株式会社,大阪府,吹田市,津雲台６丁目１０番６－２号,,27,205,5650862,,,,,,,2021-08-06,1,,,,,イーマックツー,0
500,2120901044726,新規,0,2021-08-06,2021-08-06,株式会社勝福技建,,株式会社,大阪府,吹田市,樫切山１０番１６号,,27,205,5650806,,,,,,,2021-08-06,1,,,,,カツフクギケン,0
501,2120901044742,新規,0,2021-08-06,2021-08-06,株式会社ＬＩＦＥ　ＮＥＸＴ,,株式会社,大阪府,吹田市,豊津町１４番１０号丸萬ビル４０１号,,27,205,5640051,,,,,,,2021-08-06,1,,,,,ライフネクスト,0
504,2120903003770,新規,0,2021-08-06,2021-08-06,Ｌｉｌｏａ　Ｇｒｏｕｐ合同会社,,合同会社,大阪府,豊中市,東豊中町１丁目６番２５号,,27,203,5600003,,,,,,,2021-08-06,1,,,,,リロアグループ,0
506,2122001035052,新規,0,2021-08-06,2021-08-06,株式会社ＲＵＴＨ,,株式会社,大阪府,東大阪市,川俣１丁目９番１０号,,27,227,5770063,,,,,,,2021-08-06,1,,,,,ルース,0
507,2122001035069,新規,0,2021-08-06,2021-08-06,株式会社Ｑｕａｄｆｏｇｌｉｏ,,株式会社,大阪府,八尾市,南木の本２丁目１７番地,,27,212,5810042,,,,,,,2021-08-06,1,,,,,クアッドフォリオ,0
513,2130001069862,新規,0,2021-08-06,2021-08-06,株式会社Ｒｅｂ,,株式会社,京都府,京都市中京区,阪東屋町６５８都証券ビル４Ｆ,,26,104,6048143,,,,,,,2021-08-06,1,,,,,レブ,0
514,2130001069870,新規,0,2021-08-06,2021-08-06,株式会社ＮＣＩ　ｅｎｔｅｒｐｒｉｓｅホールディングス,,株式会社,京都府,京都市伏見区,深草直違橋片町５２８番地,,26,109,6120867,,,,,,,2021-08-06,1,,,,,エヌシーアイエンタープライズホールディングス,0
520,2140001122595,新規,0,2021-08-06,2021-08-06,大西グループ株式会社,,株式会社,兵庫県,姫路市,南駅前町９１番地８－１３０４号,,28,201,6700962,,,,,,,2021-08-06,1,,,,,オオニシグループ,0
521,2140001122604,新規,0,2021-08-06,2021-08-06,株式会社比翔工業,,株式会社,兵庫県,宝塚市,口谷西３丁目５５番地の５,,28,214,6650813,,,,,,,2021-08-06,1,,,,,ヒショウコウギョウ,0
522,2140001122612,新規,0,2021-08-06,2021-08-06,株式会社Ａ・Ｉ建築設計室,,株式会社,兵庫県,尼崎市,水堂町３丁目１６番２３号,,28,202,6610026,,,,,,,2021-08-06,1,,,,,アイケンチクセッケイシツ,0
523,2140001122620,新規,0,2021-08-06,2021-08-06,株式会社Ｓｔａｙ　Ｄｒｅａｍ,,株式会社,兵庫県,尼崎市,御園町２４番地尼崎第一ビル４０２号,,28,202,6600861,,,,,,,2021-08-06,1,,,,,ステイドリーム,0
526,2150001024824,新規,0,2021-08-06,2021-08-06,株式会社維鶴木工,,株式会社,奈良県,吉野郡東吉野村,大字瀧野５０７,,29,453,6332301,,,,,,,2021-08-06,1,,,,,イヅルモッコウ,0
529,2160001023536,新規,0,2021-08-06,2021-08-06,株式会社ＣＯＬＯＲＳ工務店,,株式会社,滋賀県,大津市,神領２丁目２２番７号,,25,201,5202132,,,,,,,2021-08-06,1,,,,,カラーズコウムテン,0
538,2180001147259,新規,0,2021-08-06,2021-08-06,株式会社オールウェイズ,,株式会社,愛知県,名古屋市中区,錦２丁目１４番２５号ヤマイチビル１Ｆ,,23,106,4600003,,,,,,,2021-08-06,1,,,,,オールウェイズ,0
539,2180001147309,新規,0,2021-08-06,2021-08-06,株式会社ＴＴＴコーポレーション,,株式会社,愛知県,名古屋市中区,新栄１丁目２４番２８号,,23,106,4600007,,,,,,,2021-08-06,1,,,,,ティティティコーポレーション,0
540,2180001147317,新規,0,2021-08-06,2021-08-06,株式会社シティライツ,,株式会社,愛知県,名古屋市中区,丸の内３丁目１７番２４号,,23,106,4600002,,,,,,,2021-08-06,1,,,,,シティライツ,0
541,2180001147333,新規,0,2021-08-06,2021-08-06,株式会社Ｐｒｉｎｔｌａｂ　Ｓｕｔｔｅ,,株式会社,愛知県,長久手市,仏が根７０８番地,,23,238,4801177,,,,,,,2021-08-06,1,,,,,プリントラボスッテ,0
542,2180001147358,新規,0,2021-08-06,2021-08-06,株式会社ｏｆｆｉｃｅ　ｗｉｓｄｏｍ,,株式会社,愛知県,半田市,大高町３丁目５５番地,,23,205,4750015,,,,,,,2021-08-06,1,,,,,オフィスウィズダム,0
545,2180003022831,新規,0,2021-08-06,2021-08-06,Ｅ．ｍｕｓｔ合同会社,,合同会社,愛知県,名古屋市昭和区,南分町５丁目４８番地２－１０３号,,23,107,4660849,,,,,,,2021-08-06,1,,,,,イーマスト,0
562,2240001058409,新規,0,2021-08-06,2021-08-06,株式会社ナツメダマネジメント,,株式会社,広島県,福山市,新市町大字相方２１６番地１,,34,207,7293102,,,,,,,2021-08-06,1,,,,,ナツメダマネジメント,0
563,2240001058417,新規,0,2021-08-06,2021-08-06,海洋商事株式会社,,株式会社,広島県,東広島市,志和町別府１７６９－３,,34,212,7390267,,,,,,,2021-08-06,1,,,,,カイヨウショウジ,0
568,2250005008680,新規,0,2021-08-06,2021-08-06,グローバル人材活用協同組合,,その他の設立登記法人,山口県,宇部市,相生町４番１２号宇部ビル３階３－Ｃ,,35,202,7550043,,,,,,,2021-08-06,1,,,,,グローバルジンザイカツヨウ,0
579,2290005018305,新規,0,2021-08-06,2021-08-06,嬉里・丸田宅地開発特定目的会社,,その他の設立登記法人,福岡県,福岡市中央区,天神１丁目１３番２号,,40,133,8100001,,,,,,,2021-08-06,1,,,,,ウレリマルタタクチカイハツ,0
580,2290801027673,新規,0,2021-08-06,2021-08-06,株式会社風土,,株式会社,福岡県,北九州市小倉北区,魚町１丁目４番１７号,,40,106,8020006,,,,,,,2021-08-06,1,,,,,フウド,0
582,2320001018528,新規,0,2021-08-06,2021-08-06,株式会社ハウジングリペア,,株式会社,大分県,臼杵市,大字井村字黒友２１４５番地の３,,44,206,8750083,,,,,,,2021-08-06,1,,,,,ハウジングリペア,0
583,2330001028897,新規,0,2021-08-06,2021-08-06,株式会社ＯＳＤグループ,,株式会社,熊本県,熊本市北区,龍田２丁目２１番５号,,43,105,8618006,,,,,,,2021-08-06,1,,,,,オーエスディーグループ,0
589,2340001023996,新規,0,2021-08-06,2021-08-06,株式会社新開,,株式会社,鹿児島県,熊毛郡中種子町,野間５１０２番地２６,,46,501,8913604,,,,,,,2021-08-06,1,,,,,シンカイ,0
593,2360001029166,新規,0,2021-08-06,2021-08-06,Ｍａｔｔｈｅｗ’ｓｏｆｆｉｃｅ株式会社,,株式会社,沖縄県,島尻郡南風原町,字新川５３４番地１０,,47,350,9011105,,,,,,,2021-08-06,1,,,,,マシューズオフィス,0
595,2370001047448,新規,0,2021-08-06,2021-08-06,株式会社ウォータープランニング,,株式会社,宮城県,大崎市,古川鶴ケ埣字新江北１２７番地７,,04,215,9896111,,,,,,,2021-08-06,1,,,,,ウォータープランニング,0
596,2370005010328,新規,0,2021-08-06,2021-08-06,一般財団法人サトー育英財団,,その他の設立登記法人,宮城県,仙台市宮城野区,扇町５丁目４番２１号,,04,102,9830034,,,,,,,2021-08-06,1,,,,,サトーイクエイザイダン,0
604,2380001032102,新規,0,2021-08-06,2021-08-06,株式会社クエストアカデミア,,株式会社,福島県,二本松市,長折字舟山内１５０番地,,07,210,9640311,,,,,,,2021-08-06,1,,,,,クエストアカデミア,0
608,2380005012455,新規,0,2021-08-06,2021-08-06,フタバ国際交流協同組合,,その他の設立登記法人,福島県,郡山市,小原田１丁目３７３番地１メゾン黄２０１号室,,07,203,9638835,,,,,,,2021-08-06,1,,,,,,0
610,2410001012918,新規,0,2021-08-06,2021-08-06,株式会社ＡＧオオツカ,,株式会社,秋田県,能代市,河戸川字南後田８６番地１,,05,202,0160171,,,,,,,2021-08-06,1,,,,,エージーオオツカ,0
616,2430001084674,新規,0,2021-08-06,2021-08-06,株式会社風の杜いしかりファンド,,株式会社,北海道,札幌市中央区,北五条西２丁目５番地ＪＲタワーオフィスプラザさっぽろ２０階,,01,101,0600005,,,,,,,2021-08-06,1,,,,,カゼノモリイシカリファンド,0
618,2470001018653,新規,0,2021-08-06,2021-08-06,株式会社ＣＩＶＩＬＥ,,株式会社,香川県,観音寺市,三本松町４丁目２番３０号,,37,205,7680063,,,,,,,2021-08-06,1,,,,,シビル,0
620,2480001011459,新規,0,2021-08-06,2021-08-06,株式会社松田洋蘭園,,株式会社,徳島県,阿南市,山口町末広３８番地,,36,204,7791403,,,,,,,2021-08-06,1,,,,,マツダヨウランエン,0
624,2490003001572,新規,0,2021-08-06,2021-08-06,めだか不動産合同会社,,合同会社,高知県,高知市,長浜１６７１番地６西側,,39,201,7810270,,,,,,,2021-08-06,1,,,,,メダカフドウサン,0
633,3010001219965,新規,0,2021-08-06,2021-08-06,株式会社Ｘ－ＢＬＯＣＫ．ＤＥＶ,,株式会社,東京都,中央区,銀座６丁目１２番２号,,13,102,1040061,,,,,,,2021-08-06,1,,,,,エックスブロックデベロップメント,0
634,3010001220196,新規,0,2021-08-06,2021-08-06,ＷＩＳＥ　ＡＲＸ　ＣＯＮＳＵＬＴＩＮＧ株式会社,,株式会社,東京都,中央区,銀座１丁目２２番１１号銀座大竹ビジデンス２階,,13,102,1040061,,,,,,,2021-08-06,1,,,,,ワイズアークスコンサルティング,0
635,3010001220205,新規,0,2021-08-06,2021-08-06,株式会社ＮＥＸＩＳ,,株式会社,東京都,千代田区,鍛冶町１丁目３－１ＶＯＲＴ神田７階,,13,101,1010044,,,,,,,2021-08-06,1,,,,,,0
636,3010001220246,新規,0,2021-08-06,2021-08-06,株式会社ｓｕｇａｒ　ｃｏａｔ,,株式会社,東京都,中央区,月島３丁目１４番８号扇屋ビル１Ｆ,,13,102,1040052,,,,,,,2021-08-06,1,,,,,シュガーコート,0
637,3010001220279,新規,0,2021-08-06,2021-08-06,クオシア株式会社,,株式会社,東京都,中央区,銀座２丁目９番１６号１Ｆ,,13,102,1040061,,,,,,,2021-08-06,1,,,,,クオシア,0
644,3010003035519,新規,0,2021-08-06,2021-08-06,合同会社バザール,,合同会社,東京都,中央区,銀座１丁目２２番１１号２階,,13,102,1040061,,,,,,,2021-08-06,1,,,,,バザール,0
646,3010005033735,新規,0,2021-08-06,2021-08-06,特定非営利活動法人０ｅｎ婚活の会,,その他の設立登記法人,東京都,千代田区,神田須田町１丁目２番地７,,13,101,1010041,,,,,,,2021-08-06,1,,,,,ゼロエンコンカツノカイ,0
651,3010401161809,新規,0,2021-08-06,2021-08-06,株式会社Ａｒｔｅ,,株式会社,東京都,港区,南青山２丁目２番１５号ウィン青山９４２,,13,103,1070062,,,,,,,2021-08-06,1,,,,,アルテ,0
652,3010401161882,新規,0,2021-08-06,2021-08-06,サステナブルホールディングス株式会社,,株式会社,東京都,港区,六本木５丁目２番１号,,13,103,1060032,,,,,,,2021-08-06,1,,,,,サステナブルホールディングス,0
653,3010401161890,新規,0,2021-08-06,2021-08-06,株式会社レッグス分割準備会社,,株式会社,東京都,港区,南青山２丁目２６番１号,,13,103,1070062,,,,,,,2021-08-06,1,,,,,レッグスブンカツジュンビガイシャ,0
654,3010401161899,新規,0,2021-08-06,2021-08-06,株式会社クニャーネ,,株式会社,東京都,港区,赤坂９丁目６番１２号イワキビル３階,,13,103,1070052,,,,,,,2021-08-06,1,,,,,クニャーネ,0
655,3010401161940,新規,0,2021-08-06,2021-08-06,株式会社ｉｉｉ,,株式会社,東京都,港区,麻布十番３丁目８番６－１２０１号,,13,103,1060045,,,,,,,2021-08-06,1,,,,,イー,0
660,3010403025854,新規,0,2021-08-06,2021-08-06,合同会社Ｔｅ　Ａｍｏ　Ｃｏｒｐｏｒａｔｉｏｎ,,合同会社,東京都,港区,南青山２丁目２－１５,,13,103,1070062,,,,,,,2021-08-06,1,,,,,テアモコーポレーション,0
661,3010403025862,新規,0,2021-08-06,2021-08-06,合同会社霞町マネジメント,,合同会社,東京都,港区,西麻布１丁目１５番４号グラード西麻布４０１,,13,103,1060031,,,,,,,2021-08-06,1,,,,,カスミチョウマネジメント,0
664,3010601059761,新規,0,2021-08-06,2021-08-06,亀戸不動産株式会社,,株式会社,東京都,江東区,亀戸５丁目１７番１０号,,13,108,1360071,,,,,,,2021-08-06,1,,,,,カメイドフドウサン,0
668,3010701041363,新規,0,2021-08-06,2021-08-06,ＡＬＶＩＳＩＡ株式会社,,株式会社,東京都,品川区,大崎１丁目２－３アートヴィレッジ大崎ビュータワー２８０８号,,13,109,1410032,,,,,,,2021-08-06,1,,,,,アルビシア,0
672,3010801032205,新規,0,2021-08-06,2021-08-06,株式会社Ｋ２,,株式会社,東京都,大田区,大森西３丁目９番１３－２０１号,,13,111,1430015,,,,,,,2021-08-06,1,,,,,ケーツー,0
673,3010801032213,新規,0,2021-08-06,2021-08-06,エーエルティープラス株式会社,,株式会社,東京都,大田区,山王２丁目１番８号,,13,111,1430023,,,,,,,2021-08-06,1,,,,,エーエルティープラス,0
675,3010903006701,新規,0,2021-08-06,2021-08-06,合同会社ＫＭＲ,,合同会社,東京都,世田谷区,用賀１丁目７番６号,,13,112,1580097,,,,,,,2021-08-06,1,,,,,ケーエムアール,0
681,3011003013167,新規,0,2021-08-06,2021-08-06,ＴＨＥ　ＭＧＴ合同会社,,合同会社,東京都,渋谷区,笹塚１丁目１２番８号,,13,113,1510073,,,,,,,2021-08-06,1,,,,,ザエムジーティー,0
683,3011103010907,新規,0,2021-08-06,2021-08-06,合同会社ＹＳＫ,,合同会社,東京都,新宿区,富久町１６番１２号パルセ富久４０１号,,13,104,1620067,,,,,,,2021-08-06,1,,,,,,0
685,3011201023158,新規,0,2021-08-06,2021-08-06,株式会社Ｂｅｌｌｔｒｅｅ,,株式会社,東京都,中野区,東中野５丁目２９番２５号,,13,114,1640003,,,,,,,2021-08-06,1,,,,,ベルツリー,0
686,3011301027091,新規,0,2021-08-06,2021-08-06,株式会社ＮＥＫＯＢＡＢＡ,,株式会社,東京都,杉並区,和田３丁目３０番１６号,,13,115,1660012,,,,,,,2021-08-06,1,,,,,ネコババ,0
694,3012401038160,新規,0,2021-08-06,2021-08-06,株式会社マイクロ・マーケティング,,株式会社,東京都,武蔵野市,吉祥寺本町２丁目８番４号ｉ－ｏｆｆｉｃｅ吉祥寺,,13,203,1800004,,,,,,,2021-08-06,1,,,,,マイクロマーケティング,0
696,3012403004978,新規,0,2021-08-06,2021-08-06,合同会社ＮｏＬｉｍｉｔ,,合同会社,東京都,府中市,栄町１丁目３２番地の３９,,13,206,1830051,,,,,,,2021-08-06,1,,,,,ノーリミット,0
699,3012803002565,新規,0,2021-08-06,2021-08-06,ｎｏｖａｃｔ合同会社,,合同会社,東京都,武蔵村山市,大南１丁目１０８番地の８,,13,223,2080013,,,,,,,2021-08-06,1,,,,,ノヴァクト,0
701,3013103001068,新規,0,2021-08-06,2021-08-06,ＨＤ　ＧＲＯＵＰ合同会社,,合同会社,東京都,福生市,大字福生８８７番地２山上ビル２０１号室,,13,218,1970011,,,,,,,2021-08-06,1,,,,,エイチディグループ,0
702,3013301047838,新規,0,2021-08-06,2021-08-06,株式会社リード,,株式会社,東京都,豊島区,東池袋４丁目３２番１５号,,13,116,1700013,,,,,,,2021-08-06,1,,,,,リード,0
710,3020001142480,新規,0,2021-08-06,2021-08-06,虎威株式会社,,株式会社,神奈川県,横浜市西区,久保町２３番８号,,14,103,2200061,,,,,,,2021-08-06,1,,,,,トライ,0
711,3020001142489,新規,0,2021-08-06,2021-08-06,株式会社八起電巧,,株式会社,神奈川県,横浜市南区,大岡１丁目６７番１６－４号,,14,105,2320061,,,,,,,2021-08-06,1,,,,,ヤオキデンコウ,0
712,3020001142497,新規,0,2021-08-06,2021-08-06,株式会社カイナス,,株式会社,神奈川県,横浜市戸塚区,東俣野町３２番地１０,,14,110,2450065,,,,,,,2021-08-06,1,,,,,カイナス,0
713,3020001142514,新規,0,2021-08-06,2021-08-06,株式会社あや商事,,株式会社,神奈川県,横浜市中区,本牧三之谷５７番２号,,14,104,2310824,,,,,,,2021-08-06,1,,,,,アヤショウジ,0
714,3020001142522,新規,0,2021-08-06,2021-08-06,株式会社Ｂｏｎｄ　Ｂｒｉｄｇｅ　Ｃｏｍｐａｎｙ,,株式会社,神奈川県,横浜市神奈川区,栄町５番地１横浜クリエーションスクエア１４階,,14,102,2210052,,,,,,,2021-08-06,1,,,,,ボンドブリッジカンパニー,0
715,3020001142539,新規,0,2021-08-06,2021-08-06,株式会社二,,株式会社,神奈川県,横浜市港北区,大豆戸町２０４番地１８,,14,109,2220032,,,,,,,2021-08-06,1,,,,,ニ,0
724,3021001073583,新規,0,2021-08-06,2021-08-06,株式会社３号,,株式会社,神奈川県,鎌倉市,稲村ガ崎３丁目１５番２号,,14,204,2480024,,,,,,,2021-08-06,1,,,,,サンゴウ,0
725,3021001073591,新規,0,2021-08-06,2021-08-06,株式会社ＥＸＹＬＩＦ,,株式会社,神奈川県,相模原市中央区,横山台１丁目１４番５号,,14,152,2520241,,,,,,,2021-08-06,1,,,,,エクシーリフ,0
726,3021001073625,新規,0,2021-08-06,2021-08-06,Ｌａｆｌｏａｔ株式会社,,株式会社,神奈川県,藤沢市,鵠沼橘１丁目１５番７－１２０３号,00123875,14,205,2510024,,,,,,,2021-08-06,1,,,,,ラフロート,0
733,3030001143627,新規,0,2021-08-06,2021-08-06,株式会社ＥＸＩＴ,,株式会社,埼玉県,比企郡川島町,大字上八ツ林１１６３番地１０,,11,346,3500121,,,,,,,2021-08-06,1,,,,,エグジット,0
734,3030001143635,新規,0,2021-08-06,2021-08-06,株式会社大隼設備,,株式会社,埼玉県,川越市,砂新田５丁目１３番地１０,,11,201,3501137,,,,,,,2021-08-06,1,,,,,ダイシュンセツビ,0
735,3030001143668,新規,0,2021-08-06,2021-08-06,株式会社ケーオネスト,,株式会社,埼玉県,所沢市,上新井１丁目２２番地の１,,11,208,3591142,,,,,,,2021-08-06,1,,,,,ケーオネスト,0
736,3030001143684,新規,0,2021-08-06,2021-08-06,株式会社Ｉｄｅｎｔｉｔｙ,,株式会社,埼玉県,久喜市,南１丁目４番１２号,,11,232,3460004,,,,,,,2021-08-06,1,,,,,アイデンティティ,0
737,3030003017721,新規,0,2021-08-06,2021-08-06,合同会社Ｒｅｌ　Ｃｏ．,,合同会社,埼玉県,越谷市,大字南荻島１０２番地８,,11,222,3430804,,,,,,,2021-08-06,1,,,,,アールイーエルコー,0
738,3030003017738,新規,0,2021-08-06,2021-08-06,リバイロ合同会社,,合同会社,埼玉県,草加市,北谷３丁目２８番１１号,,11,221,3400046,,,,,,,2021-08-06,1,,,,,リバイロ,0
755,3060001033973,新規,0,2021-08-06,2021-08-06,アイアンクラフト株式会社,,株式会社,栃木県,那須塩原市,北和田５７３番地３,,09,213,3293151,,,,,,,2021-08-06,1,,,,,アイアンクラフト,0
762,3070005009886,新規,0,2021-08-06,2021-08-06,行政書士法人トラスト,,その他の設立登記法人,群馬県,太田市,大原町１０３０番地１９,,10,205,3792304,,,,,,,2021-08-06,1,,,,,トラスト,0
786,3120001239507,新規,0,2021-08-06,2021-08-06,株式会社スターティングライン,,株式会社,大阪府,大阪市中央区,瓦町３丁目４番１０号日宝御堂ビル５階,,27,128,5410048,,,,,,,2021-08-06,1,,,,,スターティングライン,0
787,3120001239515,新規,0,2021-08-06,2021-08-06,株式会社大真,,株式会社,大阪府,大阪市北区,豊崎５丁目６－７,,27,127,5310072,,,,,,,2021-08-06,1,,,,,ダイシン,0
788,3120001239531,新規,0,2021-08-06,2021-08-06,アペックストラストパートナーズ株式会社,,株式会社,大阪府,大阪市北区,紅梅町１番１８号,,27,127,5300038,,,,,,,2021-08-06,1,,,,,アペックストラストパートナーズ,0
789,3120001239589,新規,0,2021-08-06,2021-08-06,株式会社伊藤,,株式会社,大阪府,大阪市中央区,南本町４丁目３番１６－３２０１号,,27,128,5410054,,,,,,,2021-08-06,1,,,,,イトウ,0
790,3120001239606,新規,0,2021-08-06,2021-08-06,株式会社ＳｅｌｅｃｔｉｏＮ．,,株式会社,大阪府,大阪市中央区,西心斎橋２丁目１８番１３－２０２号,,27,128,5420086,,,,,,,2021-08-06,1,,,,,セレクション,0
791,3120001239614,新規,0,2021-08-06,2021-08-06,大原河海工業株式会社,,株式会社,大阪府,大阪市住之江区,平林南２丁目１番２０－１８０５号,,27,125,5590025,,,,,,,2021-08-06,1,,,,,オオハラカカイコウギョウ,0
793,3120003019964,新規,0,2021-08-06,2021-08-06,合同会社ＫＫ,,合同会社,大阪府,大阪市天王寺区,上汐６丁目３番７－６０２号,,27,109,5430002,,,,,,,2021-08-06,1,,,,,ケーケー,0
794,3120005022438,新規,0,2021-08-06,2021-08-06,一般社団法人あゆ実,,その他の設立登記法人,大阪府,寝屋川市,成田東が丘３３番１５号,,27,215,5720002,,,,,,,2021-08-06,1,,,,,アユミ,0
811,3130001069861,新規,0,2021-08-06,2021-08-06,株式会社園田ホールディングス,,株式会社,京都府,京都市右京区,常盤山下町６番地４,,26,108,6168212,,,,,,,2021-08-06,1,,,,,ソノダホールディングス,0
819,3140001122545,新規,0,2021-08-06,2021-08-06,株式会社ＴＳＮ,,株式会社,兵庫県,尼崎市,御園１丁目４番１－５０３号,,28,202,6610984,,,,,,,2021-08-06,1,,,,,ティーエスエヌ,0
820,3140001122578,新規,0,2021-08-06,2021-08-06,株式会社ＺＥＲＯ　ＢＡＳＥ,,株式会社,兵庫県,明石市,魚住町西岡２３４２番地,,28,203,6740084,,,,,,,2021-08-06,1,,,,,ゼロベース,0
821,3140001122586,新規,0,2021-08-06,2021-08-06,株式会社ラゴスエステート,,株式会社,兵庫県,西宮市,名塩ガーデン４番１７号,,28,204,6691143,,,,,,,2021-08-06,1,,,,,ラゴスエステート,0
822,3140001122594,新規,0,2021-08-06,2021-08-06,大西ヒルズ株式会社,,株式会社,兵庫県,姫路市,南駅前町９１番地８－１３０４号,,28,201,6700962,,,,,,,2021-08-06,1,,,,,オオニシヒルズ,0
823,3140001122603,新規,0,2021-08-06,2021-08-06,株式会社ｂｌｃｃ,,株式会社,兵庫県,三田市,三輪３丁目６番６号,,28,219,6691513,,,,,,,2021-08-06,1,,,,,ブルック,0
824,3140001122611,新規,0,2021-08-06,2021-08-06,株式会社阪本鉄工,,株式会社,兵庫県,川西市,加茂２丁目３番１９号,,28,217,6660025,,,,,,,2021-08-06,1,,,,,サカモトテッコウ,0
825,3140001122628,新規,0,2021-08-06,2021-08-06,ハピネスサービス株式会社,,株式会社,兵庫県,姫路市,青山南２丁目２番２２号,,28,201,6712223,,,,,,,2021-08-06,1,,,,,ハピネスサービス,0
826,3140001122636,新規,0,2021-08-06,2021-08-06,株式会社ＡＯＫＩ　ＴＲＡＤＩＮＧ,,株式会社,兵庫県,加古郡稲美町,六分一４８６番地,,28,381,6751112,,,,,,,2021-08-06,1,,,,,アオキトレーディング,0
827,3140001122644,新規,0,2021-08-06,2021-08-06,株式会社トライロ,,株式会社,兵庫県,西宮市,山口町上山口４丁目７番１３－２０３号,,28,204,6511421,,,,,,,2021-08-06,1,,,,,トライロ,0
831,3140005025777,新規,0,2021-08-06,2021-08-06,一般社団法人おひとりさまリーガルサポート,,その他の設立登記法人,兵庫県,神戸市中央区,多聞通３丁目２番９号甲南スカイビル４Ｆ,,28,110,6500015,,,,,,,2021-08-06,1,,,,,オヒトリサマリーガルサポート,0
835,3170005006923,新規,0,2021-08-06,2021-08-06,税理士法人ウィズ,,その他の設立登記法人,和歌山県,和歌山市,数寄屋丁２番地１,,30,201,6408374,,,,,,,2021-08-06,1,,,,,ウィズ,0
842,3180001147299,新規,0,2021-08-06,2021-08-06,株式会社ＭＯＭＯＴＡ　ＦＯＯＤ・サービス,,株式会社,愛知県,名古屋市緑区,大高町字斎山２６番地の１,,23,114,4598001,,,,,,,2021-08-06,1,,,,,モモタフードサービス,0
843,3180001147308,新規,0,2021-08-06,2021-08-06,株式会社大原ホールディングス,,株式会社,愛知県,北名古屋市,鍜治ケ一色襟４４番地２,,23,234,4810037,,,,,,,2021-08-06,1,,,,,オオハラホールディングス,0
844,3180001147316,新規,0,2021-08-06,2021-08-06,株式会社アンビションロード,,株式会社,愛知県,一宮市,富士３丁目１番２７号,,23,203,4910024,,,,,,,2021-08-06,1,,,,,アンビションロード,0
845,3180001147340,新規,0,2021-08-06,2021-08-06,荻山電気計装株式会社,,株式会社,愛知県,常滑市,本郷町４丁目１５９番地の１,,23,216,4790853,,,,,,,2021-08-06,1,,,,,オギヤマデンキケイソウ,0
846,3180001147357,新規,0,2021-08-06,2021-08-06,株式会社ｂｅｌｌａｎｔｓ,,株式会社,愛知県,名古屋市中区,丸の内３丁目７番２６号ＡＣＡビル５階,,23,106,4600002,,,,,,,2021-08-06,1,,,,,ベランツ,0
847,3180001147365,新規,0,2021-08-06,2021-08-06,ａｎｄ株式会社,,株式会社,愛知県,名古屋市緑区,六田２丁目３０１番地の２,,23,114,4580036,,,,,,,2021-08-06,1,,,,,アンド,0
848,3180001147373,新規,0,2021-08-06,2021-08-06,株式会社Ｒｉｎｇ－Ｏ名古屋,,株式会社,愛知県,名古屋市中区,大須３丁目３０番４０号万松寺ビル２階１５,,23,106,4600011,,,,,,,2021-08-06,1,,,,,リングオーナゴヤ,0
850,3180003022822,新規,0,2021-08-06,2021-08-06,サンクトアセット合同会社,,合同会社,愛知県,名古屋市千種区,城山町２丁目１９番地８,,23,101,4640045,,,,,,,2021-08-06,1,,,,,サンクトアセット,0
851,3180003022839,新規,0,2021-08-06,2021-08-06,ＮＩＬＡ合同会社,,合同会社,愛知県,名古屋市熱田区,神宮３丁目５番７号,,23,109,4560031,,,,,,,2021-08-06,1,,,,,ニラ,0
872,3240001058390,新規,0,2021-08-06,2021-08-06,株式会社石原設備,,株式会社,広島県,呉市,広白岳５丁目２番７－５０６号,,34,202,7370144,,,,,,,2021-08-06,1,,,,,イシハラセツビ,0
875,3240003005226,新規,0,2021-08-06,2021-08-06,合同会社虹星電工,,合同会社,広島県,福山市,春日町５丁目２番４４－２０１号,,34,207,7210907,,,,,,,2021-08-06,1,,,,,コウセイデンコウ,0
881,3260005010949,新規,0,2021-08-06,2021-08-06,医療法人社団あかつか眼科クリニック,,その他の設立登記法人,岡山県,倉敷市,笹沖１３２８番地１,,33,202,7100834,,,,,,,2021-08-06,1,,,,,アカツカガンカクリニック,0
882,3270001008335,新規,0,2021-08-06,2021-08-06,株式会社ベラヴィータ,,株式会社,鳥取県,境港市,上道町１８５５番地４,,31,204,6840033,,,,,,,2021-08-06,1,,,,,ベラヴィータ,0
883,3270005005477,新規,0,2021-08-06,2021-08-06,森・齋藤税理士法人,,その他の設立登記法人,鳥取県,倉吉市,上井２７番地１,,31,203,6820021,,,,,,,2021-08-06,1,,,,,モリサイトウ,0
890,3290001094225,新規,0,2021-08-06,2021-08-06,株式会社Ｔｈｅ　Ｒｏｏｔｓ,,株式会社,福岡県,福岡市中央区,薬院４丁目１８番７号,,40,133,8100022,,,,,,,2021-08-06,1,,,,,ザルーツ,0
894,3290801027680,新規,0,2021-08-06,2021-08-06,株式会社小原井,00123866,株式会社,福岡県,北九州市小倉北区,下富野３丁目２番１３号,,40,106,8020023,,,,,,,2021-08-06,1,,,,,コバライ,0
895,3290801027689,新規,0,2021-08-06,2021-08-06,株式会社成田屋,,株式会社,福岡県,北九州市小倉南区,志徳２丁目４番２６－４０１号,,40,107,8020983,,,,,,,2021-08-06,1,,,,,ナリタヤ,0
913,3340005009322,新規,0,2021-08-06,2021-08-06,弁護士法人安田総合法律事務所,,その他の設立登記法人,鹿児島県,鹿児島市,山下町１６番１２号木庭ビル２階,,46,201,8920816,,,,,,,2021-08-06,1,,,,,ヤスダソウゴウホウリツジムショ,0
916,3350001017253,新規,0,2021-08-06,2021-08-06,東安順株式会社,,株式会社,宮崎県,延岡市,惣領町９番２号,,45,203,8820857,,,,,,,2021-08-06,1,,,,,トウアンジュン,0
918,3360005006482,新規,0,2021-08-06,2021-08-06,一般社団法人危機対策機構,,その他の設立登記法人,沖縄県,中頭郡中城村,字南上原７１７番地１－１Ｆ,,47,328,9012424,,,,,,,2021-08-06,1,,,,,,0
922,3370001047463,新規,0,2021-08-06,2021-08-06,株式会社ＲＡＩＮＢＯＷ,,株式会社,宮城県,名取市,那智が丘４丁目８番地の１２,,04,207,9811244,,,,,,,2021-08-06,1,,,,,レインボー,0
923,3370003005337,新規,0,2021-08-06,2021-08-06,ＡＳＯＶＩＶＡ合同会社,,合同会社,宮城県,仙台市宮城野区,平成１丁目１８番２８号グリーンコート宮城野３０３,,04,102,9830037,,,,,,,2021-08-06,1,,,,,アソビバ,0
937,3410001012917,新規,0,2021-08-06,2021-08-06,門脇設計事務所株式会社,,株式会社,秋田県,湯沢市,田町２丁目２番３１号,,05,207,0120844,,,,,,,2021-08-06,1,,,,,カドワキセッケイジムショ,0
948,3470001018644,新規,0,2021-08-06,2021-08-06,株式会社Ａカンパニー,,株式会社,香川県,高松市,番町５丁目６番３７－６０４号,,37,201,7600017,,,,,,,2021-08-06,1,,,,,エーカンパニー,0
951,3480001011458,新規,0,2021-08-06,2021-08-06,株式会社まなお,,株式会社,徳島県,板野郡藍住町,徳命字前須西３３番地１２,,36,403,7711212,,,,,,,2021-08-06,1,,,,,マナオ,0
961,3500005008407,新規,0,2021-08-06,2021-08-06,特定非営利活動法人うまれてきてくれてありがとうｐｒｏｊｅｃｔ,,その他の設立登記法人,愛媛県,新居浜市,中筋町１丁目１２番３７号,,38,205,7920841,,,,,,,2021-08-06,1,,,,,ウマレテキテクレテアリガトウプロジェクト,0
962,3700150104106,新規,0,2021-08-06,2021-07-14,出雲市生涯現役促進協議会,,その他,島根県,出雲市,今市町北本町２丁目１－６,,32,203,6930002,,,,,,,2021-07-14,1,,,,,イズモシシヨウガイゲンエキソクシンキヨウギカイ,0
963,3700150104295,新規,0,2021-08-06,2021-08-06,広東東陽光科技控股股份有限公司,00123843,外国会社等,東京都,中央区,湊１丁目８－１５,,13,102,1040043,中華人民共和国広東省韶関市乳源瑶族自治県侯公渡,,,,,,2021-08-06,1,,,,,カントントウヨウコウカギコウググフンユウゲンコウシ,0
975,4010001220170,新規,0,2021-08-06,2021-08-06,株式会社和僑総武,,株式会社,東京都,千代田区,外神田１丁目１５番８号丸山ビル１Ｆ,,13,101,1010021,,,,,,,2021-08-06,1,,,,,ワキョウソウブ,0
976,4010001220204,新規,0,2021-08-06,2021-08-06,株式会社ダブル,,株式会社,東京都,中央区,日本橋兜町１７番２号兜町第６葉山ビル４階,,13,102,1030026,,,,,,,2021-08-06,1,,,,,ダブル,0
982,4010003035534,新規,0,2021-08-06,2021-08-06,お茶の水ヘルスケア合同会社,,合同会社,東京都,千代田区,外神田２丁目３－１－１１０６,,13,101,1010021,,,,,,,2021-08-06,1,,,,,オチャノミズヘルスケア,0
986,4010005033734,新規,0,2021-08-06,2021-08-06,一般社団法人サポートホールディングスＪＲＥアルバ,,その他の設立登記法人,東京都,千代田区,丸の内３丁目１番１号東京共同会計事務所内,,13,101,1000005,,,,,,,2021-08-06,1,,,,,サポートホールディングスジェイアールイーアルバ,0
989,4010401161923,新規,0,2021-08-06,2021-08-06,株式会社エースクオリティ,,株式会社,東京都,港区,三田３丁目１２番１７号プレクスビルディング８Ｆ,,13,103,1080073,,,,,,,2021-08-06,1,,,,,エースクオリティ,0
990,4010401161989,新規,0,2021-08-06,2021-08-06,ピグレット株式会社,,株式会社,東京都,港区,南青山４丁目１７番１３号,,13,103,1070062,,,,,,,2021-08-06,1,,,,,ピグレット,0
992,4010403025845,新規,0,2021-08-06,2021-08-06,ＱｕａｎｔｕｍＳｃａｐｅ　Ｊａｐａｎ合同会社,,合同会社,東京都,港区,南麻布３丁目１９番２３号オーク南麻布ビル２階,,13,103,1060047,,,,,,,2021-08-06,1,,,,,クアンタムスケープジャパン,0
993,4010501047667,新規,0,2021-08-06,2021-08-06,株式会社ＨＬソリューションズジャパン,,株式会社,東京都,台東区,東上野七丁目３番９号,,13,106,1100000,,,,,,,2021-08-06,1,,,,,エイチエルソリューションズジャパン,0
1002,4010603009086,新規,0,2021-08-06,2021-08-06,合同会社ダイニングＥＡＡ,,合同会社,東京都,江東区,南砂７丁目７－７白鳥ビル１０１号室,,13,108,1360076,,,,,,,2021-08-06,1,,,,,ダイニングイーエーエー,0
1005,4010701041346,新規,0,2021-08-06,2021-08-06,株式会社Ｕ,,株式会社,東京都,品川区,南品川４丁目１１番１－４０３号,,13,109,1400004,,,,,,,2021-08-06,1,,,,,ユウ,0
1017,4011005009154,新規,0,2021-08-06,2021-08-06,一般社団法人臨床診断医学統合学会,,その他の設立登記法人,東京都,渋谷区,本町３丁目２番９号,,13,113,1510071,,,,,,,2021-08-06,1,,,,,リンショウシンダンイガクトウゴウガッカイ,0
1018,4011101095874,新規,0,2021-08-06,2021-08-06,成鴻電工株式会社,,株式会社,東京都,新宿区,大久保２丁目２番１１号,,13,104,1690072,,,,,,,2021-08-06,1,,,,,セイコウデンコウ,0
1022,4011103010914,新規,0,2021-08-06,2021-08-06,合同会社明正管財,,合同会社,東京都,新宿区,高田馬場４丁目２８番３１号－１０５,,13,104,1690075,,,,,,,2021-08-06,1,,,,,メイショウカンザイ,0
1023,4011103010922,新規,0,2021-08-06,2021-08-06,合同会社温故知新玉野,,合同会社,東京都,新宿区,新宿５丁目１５番１４号,,13,104,1600022,,,,,,,2021-08-06,1,,,,,オンコチシンタマノ,0
1025,4011201023157,新規,0,2021-08-06,2021-08-06,株式会社中江工業所,,株式会社,東京都,中野区,南台３丁目２４番１１号,,13,114,1640014,,,,,,,2021-08-06,1,,,,,ナカエコウギョウショ,0
1026,4011201023165,新規,0,2021-08-06,2021-08-06,株式会社ＧＯＥＳ,,株式会社,東京都,中野区,野方６丁目１０番８号,,13,114,1650027,,,,,,,2021-08-06,1,,,,,ゴウズ,0
1027,4011205002446,新規,0,2021-08-06,2021-08-06,一般社団法人アンカー,,その他の設立登記法人,東京都,中野区,東中野２丁目６番２４号,,13,114,1640003,,,,,,,2021-08-06,1,,,,,,0
1033,4011303004121,新規,0,2021-08-06,2021-08-06,ガトス合同会社,,合同会社,東京都,杉並区,永福３丁目３２番１８号カサ・ガトス永福Ａ,,13,115,1680064,,,,,,,2021-08-06,1,,,,,ガトス,0
1034,4011401023584,新規,0,2021-08-06,2021-08-06,ＪＴＡＬＩＮＥ株式会社,,株式会社,東京都,板橋区,高島平７丁目２６－４－１０２,,13,119,1750082,,,,,,,2021-08-06,1,,,,,ジェーティーエイライン,0
1045,4011801039560,新規,0,2021-08-06,2021-08-06,株式会社エクシード,,株式会社,東京都,足立区,梅島１丁目３０番１３号,,13,121,1210816,,,,,,,2021-08-06,1,,,,,エクシード,0
1049,4012401038168,新規,0,2021-08-06,2021-08-06,株式会社オーディン,,株式会社,東京都,武蔵野市,吉祥寺南町１丁目１０番１０号Ｓビル３Ｆ,,13,203,1800003,,,,,,,2021-08-06,1,,,,,オーディン,0
1053,4012801021005,新規,0,2021-08-06,2021-08-06,株式会社カトーインシュアランスブローカーズ,,株式会社,東京都,昭島市,宮沢町１丁目１番５号,,13,207,1960024,,,,,,,2021-08-06,1,,,,,カトーインシュアランスブローカーズ,0
1055,4012803002564,新規,0,2021-08-06,2021-08-06,合同会社Ｌ・Ｐ・Ｍ,,合同会社,東京都,東大和市,向原６丁目９４９番地３６,,13,220,2070013,,,,,,,2021-08-06,1,,,,,エルピーエム,0
1058,4013301047829,新規,0,2021-08-06,2021-08-06,株式会社ｄｉｇｄｉｇ,,株式会社,東京都,豊島区,西池袋３丁目６番２０号カーサＴ．Ｙ．Ｔ１０２号,,13,116,1710021,,,,,,,2021-08-06,1,,,,,ディグディグ,0
1059,4013301047837,新規,0,2021-08-06,2021-08-06,株式会社ＳＡＮ　ＮＥＸＡＳ　ＲＥＧＡＬＯ,,株式会社,東京都,豊島区,池袋４丁目３４番１号ＭＮビル２０１,,13,116,1710014,,,,,,,2021-08-06,1,,,,,サンネクサスレガロ,0
1063,4020001142471,新規,0,2021-08-06,2021-08-06,株式会社オフィスサンディ,,株式会社,神奈川県,横浜市港北区,小机町１３３３番地１４,,14,109,2220036,,,,,,,2021-08-06,1,,,,,オフィスサンディ,0
1064,4020001142488,新規,0,2021-08-06,2021-08-06,Ｍｉｒｉｓｅ　Ｇｒｏｕｐ株式会社,,株式会社,神奈川県,横浜市西区,みなとみらい５丁目３－２パシフィックロイヤルコート・オーシャンタワー１５１７,,14,103,2200012,,,,,,,2021-08-06,1,,,,,ミライズグループ,0
1065,4020001142513,新規,0,2021-08-06,2021-08-06,吾福建設株式会社,,株式会社,神奈川県,横浜市港北区,日吉本町２丁目５５番３２号,,14,109,2230062,,,,,,,2021-08-06,1,,,,,ゴフクケンセツ,0
1066,4020001142521,新規,0,2021-08-06,2021-08-06,株式会社ＦＲＥＳＩＴ,,株式会社,神奈川県,横浜市緑区,竹山１丁目６番地５竹山団地１６０９号棟９４２号,,14,113,2260005,,,,,,,2021-08-06,1,,,,,フレジット,0
1067,4020001142538,新規,0,2021-08-06,2021-08-06,ＦＲＥＥ　ＢＩＲＤ株式会社,,株式会社,神奈川県,横浜市都筑区,池辺町３３０３,,14,118,2240053,,,,,,,2021-08-06,1,,,,,,0
1073,4020003020279,新規,0,2021-08-06,2021-08-06,あいす合同会社,,合同会社,神奈川県,横浜市都筑区,北山田５丁目７番１－１２０１号,,14,118,2240021,,,,,,,2021-08-06,1,,,,,アイス,0
1078,4021001073574,新規,0,2021-08-06,2021-08-06,ＭＪコーポレーション株式会社,,株式会社,神奈川県,大和市,鶴間１丁目２８番１２号ナカムラビル５０７,,14,213,2420004,,,,,,,2021-08-06,1,,,,,エムジェイコーポレーション,0
1079,4021001073582,新規,0,2021-08-06,2021-08-06,株式会社２号,,株式会社,神奈川県,鎌倉市,稲村ガ崎３丁目１５番２号,,14,204,2480024,,,,,,,2021-08-06,1,,,,,ニゴウ,0
1080,4021001073590,新規,0,2021-08-06,2021-08-06,株式会社一春,,株式会社,神奈川県,大和市,つきみ野８丁目１４番地の４３,,14,213,2420002,,,,,,,2021-08-06,1,,,,,イッシュン,0
1081,4021001073599,新規,0,2021-08-06,2021-08-06,株式会社ＯＶＥＲ’Ｓ　ＰＲＯＤＵＣＴＩＯＮＳ,,株式会社,神奈川県,茅ヶ崎市,東海岸南２丁目７－２５,,14,207,2530054,,,,,,,2021-08-06,1,,,,,オーバーズプロダクションズ,0
1082,4021001073624,新規,0,2021-08-06,2021-08-06,Ｊｏｒｒｏ株式会社,,株式会社,神奈川県,逗子市,桜山９丁目２番２号,,14,208,2490005,,,,,,,2021-08-06,1,,,,,ジョウロ,0
1092,4030001143634,新規,0,2021-08-06,2021-08-06,株式会社ＥＮＤＭＡＸ,,株式会社,埼玉県,ふじみ野市,上福岡５丁目９番２４号小泉ビル３Ｆ,,11,245,3560004,,,,,,,2021-08-06,1,,,,,エンドマックス,0
1093,4030001143642,新規,0,2021-08-06,2021-08-06,株式会社ＦＡＣＴ,,株式会社,埼玉県,川口市,朝日１丁目１４番１７－６０４号,,11,203,3320001,,,,,,,2021-08-06,1,,,,,ファクト,0
1094,4030001143667,新規,0,2021-08-06,2021-08-06,株式会社友信工業,,株式会社,埼玉県,八潮市,大字伊勢野６７番地６,,11,234,3400821,,,,,,,2021-08-06,1,,,,,ユウシンコウギョウ,0
1095,4030001143675,新規,0,2021-08-06,2021-08-06,株式会社ＲｅＭｉｎｉｎｇ,,株式会社,埼玉県,新座市,栗原４丁目３番６号,,11,230,3520035,,,,,,,2021-08-06,1,,,,,リマイニング,0
1096,4030001143683,新規,0,2021-08-06,2021-08-06,株式会社ＳＵ,,株式会社,埼玉県,川口市,青木３丁目５番８号,,11,203,3320031,,,,,,,2021-08-06,1,,,,,エスユー,0
1097,4030001143691,新規,0,2021-08-06,2021-08-06,ダヴィンチ株式会社,,株式会社,埼玉県,さいたま市緑区,東浦和１丁目２１番地３,,11,109,3360926,,,,,,,2021-08-06,1,,,,,ダヴィンチ,0
1102,4030003017720,新規,0,2021-08-06,2021-08-06,合同会社ａｎｄ．Ｒ,,合同会社,埼玉県,さいたま市見沼区,大字南中丸３０７番地１２,,11,104,3370041,,,,,,,2021-08-06,1,,,,,アンドアール,0
1103,4030003017729,新規,0,2021-08-06,2021-08-06,合同会社みらい総合サポート,,合同会社,埼玉県,さいたま市大宮区,大門町２丁目２０－２,,11,103,3300846,,,,,,,2021-08-06,1,,,,,ミライソウゴウサポート,0
1111,4040001119724,新規,0,2021-08-06,2021-08-06,株式会社ノーススター,,株式会社,千葉県,市川市,行徳駅前３丁目１番２－４０３号（ネクステージ）,,12,203,2720133,,,,,,,2021-08-06,1,,,,,ノーススター,0
1112,4040003018288,新規,0,2021-08-06,2021-08-06,合同会社ＲＰＧ,,合同会社,千葉県,千葉市中央区,中央港１丁目２５番２０号エコロジー千葉みなとレジデンスＡ１２０４号,,12,101,2600024,,,,,,,2021-08-06,1,,,,,アールピージー,0
1116,4050001049664,新規,0,2021-08-06,2021-08-06,冨士創業株式会社,,株式会社,茨城県,笠間市,仁古田７２１番地,,08,216,3091714,,,,,,,2021-08-06,1,,,,,フジソウギョウ,0
1120,4060001033980,新規,0,2021-08-06,2021-08-06,株式会社花亀,,株式会社,栃木県,宇都宮市,簗瀬１丁目１４番８号,,09,201,3210934,,,,,,,2021-08-06,1,,,,,ハナカメ,0
1126,4070001038327,新規,0,2021-08-06,2021-08-06,株式会社ＮＫ,,株式会社,群馬県,前橋市,駒形町１５０６番地,,10,201,3792122,,,,,,,2021-08-06,1,,,,,エヌケー,0
1127,4080001024375,新規,0,2021-08-06,2021-08-06,ＰＬＡＮ－Ｂ株式会社,,株式会社,静岡県,静岡市葵区,牧ケ谷１７８番地の１,,22,101,4211221,,,,,,,2021-08-06,1,,,,,プランビー,0
1134,4080401025254,新規,0,2021-08-06,2021-08-06,株式会社ハマネンソーラー,,株式会社,静岡県,浜松市西区,入野町６２１番地,,22,133,4328061,,,,,,,2021-08-06,1,,,,,ハマネンソーラー,0
1139,4090001017147,新規,0,2021-08-06,2021-08-06,株式会社ｆｕｆｌａ,,株式会社,山梨県,中巨摩郡昭和町,西条５２１９番地２,,19,384,4093866,,,,,,,2021-08-06,1,,,,,フフラ,0
1141,4100001034512,新規,0,2021-08-06,2021-08-06,株式会社ふるさと,,株式会社,長野県,長野市,青木島町綱島１８番地１,,20,201,3812206,,,,,,,2021-08-06,1,,,,,フルサト,0
1147,4110001035963,新規,0,2021-08-06,2021-08-06,万代島フロンティアカンパニー株式会社,,株式会社,新潟県,新潟市中央区,万代島５番１号,,15,103,9500078,,,,,,,2021-08-06,1,,,,,バンダイジマフロンティアカンパニー,0
1159,4120001239489,新規,0,2021-08-06,2021-08-06,麗澤工業株式会社,,株式会社,大阪府,大阪市港区,南市岡３丁目１０－２グリシーヌ弁天町６０３号室,,27,107,5520011,,,,,,,2021-08-06,1,,,,,レイタクコウギョウ,0
1160,4120001239522,新規,0,2021-08-06,2021-08-06,株式会社ＢＥＧＬＯＤ,,株式会社,大阪府,大阪市中央区,淡路町１丁目３－１４ニュー淡路町ビル３Ｆ,,27,128,5410047,,,,,,,2021-08-06,1,,,,,ベグラード,0
1161,4120001239530,新規,0,2021-08-06,2021-08-06,株式会社日電テックエンジニアリング,,株式会社,大阪府,大阪市東淀川区,豊里２丁目２３番１０号,,27,114,5330013,,,,,,,2021-08-06,1,,,,,ニチデンテックエンジニアリング,0
1162,4120001239596,新規,0,2021-08-06,2021-08-06,株式会社アグフォート,,株式会社,大阪府,大阪市淀川区,西中島７丁目９番２号セルーエ新大阪５階,,27,123,5320011,,,,,,,2021-08-06,1,,,,,アグフォート,0
1163,4120001239638,新規,0,2021-08-06,2021-08-06,株式会社東洋銘板,,株式会社,大阪府,枚方市,招提田近１丁目１２番地,,27,210,5731132,,,,,,,2021-08-06,1,,,,,トウヨウメイバン,0
1166,4120003019988,新規,0,2021-08-06,2021-08-06,合同会社ポケットオフィス,,合同会社,大阪府,大阪市浪速区,幸町１丁目３番１６－７０２号,,27,111,5560021,,,,,,,2021-08-06,1,,,,,ポケットオフィス,0
1173,4120103004287,新規,0,2021-08-06,2021-08-06,合同会社縁,,合同会社,大阪府,阪南市,鳥取９７８番地の３,,27,232,5990204,,,,,,,2021-08-06,1,,,,,ココロ,0
1177,4120901044740,新規,0,2021-08-06,2021-08-06,株式会社パールロード,,株式会社,大阪府,箕面市,新稲５丁目６－４,,27,220,5620005,,,,,,,2021-08-06,1,,,,,パールロード,0
1181,4122001035067,新規,0,2021-08-06,2021-08-06,株式会社Ｎｅｘｕｓ,,株式会社,大阪府,八尾市,上尾町４丁目１番１１号,,27,212,5810851,,,,,,,2021-08-06,1,,,,,ネクサス,0
1186,4130003007406,新規,0,2021-08-06,2021-08-06,合同会社カインドホーム,,合同会社,京都府,京都市左京区,下鴨水口町７－１－１０２,,26,103,6060843,,,,,,,2021-08-06,1,,,,,カインドホーム,0
1193,4140001122569,新規,0,2021-08-06,2021-08-06,株式会社ＥＭＯＴＥＣＨ,,株式会社,兵庫県,西宮市,小松北町２丁目８番２１号,,28,204,6638126,,,,,,,2021-08-06,1,,,,,エモテック,0
1194,4140001122577,新規,0,2021-08-06,2021-08-06,株式会社オクタゴンエイト,,株式会社,兵庫県,西宮市,五月ケ丘１番２６号,,28,204,6620875,,,,,,,2021-08-06,1,,,,,オクタゴンエイト,0
1195,4140001122585,新規,0,2021-08-06,2021-08-06,ｂｅ不動産株式会社,,株式会社,兵庫県,神戸市兵庫区,兵庫町２丁目３－２１,,28,105,6520813,,,,,,,2021-08-06,1,,,,,ビーフドウサン,0
1196,4140001122593,新規,0,2021-08-06,2021-08-06,大西フォース株式会社,,株式会社,兵庫県,姫路市,南駅前町９１番地８－１３０４号,,28,201,6700962,,,,,,,2021-08-06,1,,,,,オオニシフォース,0
1197,4140001122619,新規,0,2021-08-06,2021-08-06,株式会社三葉商事,,株式会社,兵庫県,小野市,王子町６９７番地サンパレス小野１０１号,,28,218,6751378,,,,,,,2021-08-06,1,,,,,サンヨウショウジ,0
1198,4140001122627,新規,0,2021-08-06,2021-08-06,株式会社ＢＵＬＫ　ＴＲＡＤＩＮＧ,,株式会社,兵庫県,神戸市中央区,港島３丁目４番２号,,28,110,6500045,,,,,,,2021-08-06,1,,,,,バルクトレーディング,0
1199,4140003016604,新規,0,2021-08-06,2021-08-06,合同会社ｔａｋｅ,,合同会社,兵庫県,川西市,水明台１丁目４番地の２６,,28,217,6660116,,,,,,,2021-08-06,1,,,,,テイク,0
1200,4140005025768,新規,0,2021-08-06,2021-08-06,特定非営利活動法人ままでらしく,,その他の設立登記法人,兵庫県,西宮市,浜甲子園４丁目１番２４－４２４号,,28,204,6638154,,,,,,,2021-08-06,1,,,,,ママデラシク,0
1203,4150005009316,新規,0,2021-08-06,2021-08-06,一般社団法人ルックアット,,その他の設立登記法人,奈良県,天理市,二階堂上ノ庄町３８８番地２,,29,204,6320081,,,,,,,2021-08-06,1,,,,,ルックアット,0
1204,4160001023542,新規,0,2021-08-06,2021-08-06,株式会社悠凪,,株式会社,滋賀県,湖南市,下田１８２４番地２９,,25,211,5203201,,,,,,,2021-08-06,1,,,,,ユウナギ,0
1214,4180001147216,新規,0,2021-08-06,2021-08-06,株式会社ＨＯＭＥ,,株式会社,愛知県,江南市,村久野町門弟山６５番地,,23,217,4838323,,,,,,,2021-08-06,1,,,,,,0
1215,4180001147307,新規,0,2021-08-06,2021-08-06,株式会社ＫＴＫ,,株式会社,愛知県,名古屋市名東区,上社４丁目１６１番地,,23,115,4650025,,,,,,,2021-08-06,1,,,,,ケーティーケー,0
1216,4180001147331,新規,0,2021-08-06,2021-08-06,株式会社ＩＳＣ,,株式会社,愛知県,名古屋市守山区,桔梗平１丁目５１３番地,,23,113,4630814,,,,,,,2021-08-06,1,,,,,アイエスシー,0
1217,4180001147356,新規,0,2021-08-06,2021-08-06,株式会社ＤＩＧＩＣＯ,,株式会社,愛知県,北名古屋市,沖村佐渡６番地セレーノ２０３号,,23,234,4810043,,,,,,,2021-08-06,1,,,,,デジコ,0
1220,4180003022838,新規,0,2021-08-06,2021-08-06,合同会社レファミーユ,,合同会社,愛知県,名古屋市千種区,唐山町２丁目３０番地アーバンドエル唐山２０５,,23,101,4640806,,,,,,,2021-08-06,1,,,,,レファミーユ,0
1236,4200001038998,新規,0,2021-08-06,2021-08-06,株式会社きらめーく,,株式会社,岐阜県,岐阜市,長住町２丁目７番地,,21,201,5008175,,,,,,,2021-08-06,1,,,,,キラメーク,0
1239,4200003005278,新規,0,2021-08-06,2021-08-06,合同会社ｍｙ　ＫＩＥ,,合同会社,岐阜県,岐阜市,西荘３丁目１１－５,,21,201,5008362,,,,,,,2021-08-06,1,,,,,マイケイアイイー,0
1242,4220005008582,新規,0,2021-08-06,2021-08-06,特定非営利活動法人ＮＰＯまちおこしの会,,その他の設立登記法人,石川県,金沢市,山王町２丁目７６番地,,17,201,9200821,,,,,,,2021-08-06,1,,,,,エヌピーオーマチオコシノカイ,0
1248,4240003005225,新規,0,2021-08-06,2021-08-06,合同会社ＺＡＩＥＮＮ,,合同会社,広島県,江田島市,大柿町小古江１５７６－７,,34,215,7372215,,,,,,,2021-08-06,1,,,,,ザイエン,0
1255,4270001008334,新規,0,2021-08-06,2021-08-06,Ｄｒ．シーリング技工株式会社,,株式会社,鳥取県,米子市,旗ヶ崎１丁目２５番１５号,,31,202,6830845,,,,,,,2021-08-06,1,,,,,ディーアールシーリングギコウ,0
1258,4290001094166,新規,0,2021-08-06,2021-08-06,グッドライトホーム株式会社,,株式会社,福岡県,福岡市東区,三苫５丁目１番７７号,,40,131,8110201,,,,,,,2021-08-06,1,,,,,グッドライトホーム,0
1275,4320001018518,新規,0,2021-08-06,2021-08-06,株式会社ＡＹＰ,,株式会社,大分県,別府市,大字鉄輪６２８番地の３,,44,202,8740000,,,,,,,2021-08-06,1,,,,,エーワイピー,0
1278,4330001028904,新規,0,2021-08-06,2021-08-06,株式会社石心水,,株式会社,熊本県,熊本市中央区,渡鹿４丁目１３番５１号,,43,101,8620970,,,,,,,2021-08-06,1,,,,,セキシンスイ,0
1279,4340005009321,新規,0,2021-08-06,2021-08-06,税理士法人グレイス,,その他の設立登記法人,鹿児島県,鹿児島市,西田２丁目２７番３２号,,46,201,8900046,,,,,,,2021-08-06,1,,,,,グレイス,0
1286,4370003005344,新規,0,2021-08-06,2021-08-06,合同会社アイライフ,,合同会社,宮城県,富谷市,明石台８丁目２８番地５,,04,216,9813332,,,,,,,2021-08-06,1,,,,,アイライフ,0
1296,4400003002817,新規,0,2021-08-06,2021-08-06,合同会社フリーク,,合同会社,岩手県,奥州市,水沢字桜屋敷８０３番地メゾンフルールⅢＣ棟２０２号室,00123869,03,215,0230865,,,,,,,2021-08-06,1,,,,,フリーク,0
1298,4410001012916,新規,0,2021-08-06,2021-08-06,川辺ファーム株式会社,,株式会社,秋田県,由利本荘市,矢島町川辺字次郷尻１１８番地２,,05,210,0150412,,,,,,,2021-08-06,1,,,,,カワベファーム,0
1299,4410005006419,新規,0,2021-08-06,2021-08-06,農事組合法人神岡ホールクロップ生産組合,,その他の設立登記法人,秋田県,大仙市,神宮寺字八石谷地中７番地１,,05,212,0191701,,,,,,,2021-08-06,1,,,,,カミオカホールクロップセイサンクミアイ,0
1307,4430001084672,新規,0,2021-08-06,2021-08-06,株式会社ＢＭＯ　Ｗｏｒｋｓ,,株式会社,北海道,札幌市中央区,宮の森三条１丁目４番２０－７０２号,,01,101,0640953,,,,,,,2021-08-06,1,,,,,ビーエムオーワークス,0
1319,4480001011457,新規,0,2021-08-06,2021-08-06,徳島青果高速運送株式会社,,株式会社,徳島県,板野郡板野町,西中富字西中須４２番地１,,36,404,7790119,,,,,,,2021-08-06,1,,,,,トクシマセイカコウソクウンソウ,0
1321,4480003001704,新規,0,2021-08-06,2021-08-06,合同会社ツインズ,,合同会社,徳島県,徳島市,大松町上野神４２番地,,36,201,7708022,,,,,,,2021-08-06,1,,,,,ツインズ,0
1335,5010001219856,新規,0,2021-08-06,2021-08-06,株式会社ＫＵＥ,,株式会社,東京都,中央区,銀座１丁目２２－１１銀座大竹ビジデンス２階,,13,102,1040061,,,,,,,2021-08-06,1,,,,,クエ,0
1336,5010001220194,新規,0,2021-08-06,2021-08-06,株式会社Ｈ＆Ｈ調布,,株式会社,東京都,千代田区,神田小川町２丁目６番地１２,,13,101,1010052,,,,,,,2021-08-06,1,,,,,エイチアンドエイチチョウフ,0
1337,5010001220244,新規,0,2021-08-06,2021-08-06,ＧＲＥＡＴＥＳＴ　ＤＡＹ株式会社,,株式会社,東京都,中央区,八重洲１丁目８番１７号新槇町ビル,,13,102,1030028,,,,,,,2021-08-06,1,,,,,グレイテストデイ,0
1338,5010001220260,新規,0,2021-08-06,2021-08-06,株式会社ユニバーサルビジョン,,株式会社,東京都,千代田区,丸の内２丁目３番２号,,13,101,1000005,,,,,,,2021-08-06,1,,,,,ユニバーサルビジョン,0
1339,5010001220269,新規,0,2021-08-06,2021-08-06,株式会社シェルビット,,株式会社,東京都,中央区,東日本橋２丁目２８番４号日本橋ＣＥＴビル２階,,13,102,1030004,,,,,,,2021-08-06,1,,,,,シェルビット,0
1349,5010003035509,新規,0,2021-08-06,2021-08-06,ｗｅａｌｔｈｙｇｒｏｕｐ合同会社,,合同会社,東京都,中央区,銀座１丁目１６番７号,,13,102,1040061,,,,,,,2021-08-06,1,,,,,ウェルシィグループ,0
1354,5010005033733,新規,0,2021-08-06,2021-08-06,一般社団法人ハウス４７,,その他の設立登記法人,東京都,千代田区,丸の内３丁目１番１号東京共同会計事務所内,,13,101,1000005,,,,,,,2021-08-06,1,,,,,ハウスヨンジュウナナ,0
1363,5010401161906,新規,0,2021-08-06,2021-08-06,株式会社リノック,,株式会社,東京都,港区,浜松町２丁目２番１５号浜松町ダイヤビル２Ｆ,,13,103,1050013,,,,,,,2021-08-06,1,,,,,リノック,0
1364,5010401161922,新規,0,2021-08-06,2021-08-06,株式会社ユフ,,株式会社,東京都,港区,浜松町２丁目２番１５号浜松町ダイヤビル２Ｆ,,13,103,1050013,,,,,,,2021-08-06,1,,,,,ユフ,0
1365,5010401161930,新規,0,2021-08-06,2021-08-06,株式会社ウェルスコンダクターズ,,株式会社,東京都,港区,赤坂８丁目１１番１９－５０３号,,13,103,1070052,,,,,,,2021-08-06,1,,,,,ウェルスコンダクターズ,0
1366,5010401161939,新規,0,2021-08-06,2021-08-06,オンサ株式会社,,株式会社,東京都,港区,浜松町２丁目２番１５号浜松町ダイヤビル２Ｆ,,13,103,1050013,,,,,,,2021-08-06,1,,,,,オンサ,0
1369,5010403025844,新規,0,2021-08-06,2021-08-06,るる合同会社,,合同会社,東京都,港区,白金台５丁目１４番１号白金台アパートメント３０６,,13,103,1080071,,,,,,,2021-08-06,1,,,,,ルル,0
1370,5010403025860,新規,0,2021-08-06,2021-08-06,合同会社つくも,,合同会社,東京都,港区,南青山２丁目２－１５,,13,103,1070062,,,,,,,2021-08-06,1,,,,,ツクモ,0
1374,5010603009085,新規,0,2021-08-06,2021-08-06,合同会社リフィックス,,合同会社,東京都,墨田区,緑４丁目５番１５－９０３,,13,107,1300021,,,,,,,2021-08-06,1,,,,,リフィックス,0
1378,5010701041361,新規,0,2021-08-06,2021-08-06,Ｂ－Ｇｒａｎｔ株式会社,,株式会社,東京都,品川区,戸越４丁目１１番１６号プラティーク戸越公園１００２,,13,109,1420041,,,,,,,2021-08-06,1,,,,,ビーグラント,0
1387,5010901049221,新規,0,2021-08-06,2021-08-06,株式会社ワンビシャス,,株式会社,東京都,世田谷区,宇奈根１丁目１３番２１号海老澤メゾン１３番館２０１,,13,112,1570068,,,,,,,2021-08-06,1,,,,,ワンビシャス,0
1389,5010903006716,新規,0,2021-08-06,2021-08-06,合同会社ＲＡＭＩ,,合同会社,東京都,世田谷区,奥沢７丁目４０－１６－３,,13,112,1580083,,,,,,,2021-08-06,1,,,,,ラミ,0
1398,5011201023156,新規,0,2021-08-06,2021-08-06,株式会社ＮＡＪＩ,,株式会社,東京都,中野区,鷺宮１丁目３番５号,,13,114,1650032,,,,,,,2021-08-06,1,,,,,ナージ,0
1400,5011401023583,新規,0,2021-08-06,2021-08-06,株式会社ＹＫＳ,,株式会社,東京都,板橋区,板橋２丁目８番７号,,13,119,1730004,,,,,,,2021-08-06,1,,,,,ワイケーエス,0
1411,5012401038183,新規,0,2021-08-06,2021-08-06,株式会社ｍｏｏｄ,,株式会社,東京都,三鷹市,上連雀２丁目９番１３号キャピトルジュネス１０１,,13,204,1810012,,,,,,,2021-08-06,1,,,,,ムード,0
1413,5012403004976,新規,0,2021-08-06,2021-08-06,合同会社Ｃｌｅａｒ　Ｂｌｕｅ　Ｓｋｙ,,合同会社,東京都,府中市,四谷１丁目１９番地の６,,13,206,1830035,,,,,,,2021-08-06,1,,,,,クリアブルースカイ,0
1428,5020001142470,新規,0,2021-08-06,2021-08-06,翔亜建設株式会社,,株式会社,神奈川県,横浜市緑区,上山３丁目１５番２５号,,14,113,2260012,,,,,,,2021-08-06,1,,,,,ショウアケンセツ,0
1429,5020001142479,新規,0,2021-08-06,2021-08-06,株式会社グラン・ウール,,株式会社,神奈川県,横浜市青葉区,市ケ尾町１０５４番地７,,14,117,2250024,,,,,,,2021-08-06,1,,,,,グランウール,0
1430,5020001142487,新規,0,2021-08-06,2021-08-06,株式会社エフプランニング,,株式会社,神奈川県,横浜市中区,常盤町１丁目５番地ＦＯＲＭ関内ビル３階,,14,104,2310014,,,,,,,2021-08-06,1,,,,,エフプランニング,0
1431,5020001142520,新規,0,2021-08-06,2021-08-06,株式会社ｃａｎｖａｓ,,株式会社,神奈川県,川崎市高津区,坂戸３丁目７番１９―３号,,14,134,2130012,,,,,,,2021-08-06,1,,,,,キャンバス,0
1432,5020001142537,新規,0,2021-08-06,2021-08-06,株式会社布田興業,,株式会社,神奈川県,横浜市港北区,樽町４丁目１番３６号グリーンヴィラ１０２,,14,109,2220001,,,,,,,2021-08-06,1,,,,,ヌノダコウギョウ,0
1438,5020005015160,新規,0,2021-08-06,2021-08-06,特定非営利活動法人かわさき海のみどりの会,,その他の設立登記法人,神奈川県,川崎市川崎区,港町４番１号コートフエリカ５０３,,14,131,2100807,,,,,,,2021-08-06,1,,,,,カワサキウミノミドリノカイ,0
1441,5021001073581,新規,0,2021-08-06,2021-08-06,株式会社１号,,株式会社,神奈川県,鎌倉市,稲村ガ崎３丁目１５番２号,,14,204,2480024,,,,,,,2021-08-06,1,,,,,イチゴウ,0
1451,5030001143575,新規,0,2021-08-06,2021-08-06,株式会社ｂａｃｋ　ｄｒｏｐ,,株式会社,埼玉県,さいたま市南区,大字大谷口５５４３番地１フルール３０２,,11,108,3360042,,,,,,,2021-08-06,1,,,,,バックドロップ,0
1452,5030001143625,新規,0,2021-08-06,2021-08-06,株式会社ＬＶＰ,,株式会社,埼玉県,越谷市,蒲生寿町１４番１３号駒崎マンション３０１,,11,222,3430836,,,,,,,2021-08-06,1,,,,,エルブイピー,0
1453,5030001143658,新規,0,2021-08-06,2021-08-06,株式会社ＭＥＨＴ,,株式会社,埼玉県,所沢市,若狭１丁目２９３３番地の７４,,11,208,3591151,,,,,,,2021-08-06,1,,,,,メート,0
1454,5030001143690,新規,0,2021-08-06,2021-08-06,株式会社吉野工業,,株式会社,埼玉県,熊谷市,石原７２８番地１,,11,202,3600816,,,,,,,2021-08-06,1,,,,,ヨシノコウギョウ,0
1455,5030001143699,新規,0,2021-08-06,2021-08-06,アルバテック株式会社,,株式会社,埼玉県,川口市,大字榛松７６７番地の１,,11,203,3340062,,,,,,,2021-08-06,1,,,,,アルバテック,0
1456,5030001143716,新規,0,2021-08-06,2021-08-06,株式会社ＮＳ,,株式会社,埼玉県,さいたま市浦和区,常盤２丁目１０番１７号,,11,107,3300061,,,,,,,2021-08-06,1,,,,,エヌエス,0
1460,5030003017728,新規,0,2021-08-06,2021-08-06,合同会社Ａｌｃｏａ,,合同会社,埼玉県,川口市,北原台２丁目６番３－３０２号,,11,203,3330815,,,,,,,2021-08-06,1,,,,,アルコア,0
1461,5030005020473,新規,0,2021-08-06,2021-08-06,特定非営利活動法人熊谷相続研究会,,その他の設立登記法人,埼玉県,熊谷市,久下１８２４番地２,,11,202,3600026,,,,,,,2021-08-06,1,,,,,クマガヤソウゾクケンキュウカイ,0
1464,5040001119649,新規,0,2021-08-06,2021-08-06,株式会社アテックス,,株式会社,千葉県,佐倉市,生谷８２３番地１,,12,212,2850836,,,,,,,2021-08-06,1,,,,,アテックス,0
1465,5040001119715,新規,0,2021-08-06,2021-08-06,株式会社Ｎｕｒｓｉｎｇ　Ｓｅｌｅｃｔｉｏｎ,,株式会社,千葉県,船橋市,七林町１１７番地１０６パストラル習志野１０３号室,,12,204,2740821,,,,,,,2021-08-06,1,,,,,ナーシングセレクション,0
1466,5040001119723,新規,0,2021-08-06,2021-08-06,ＭＩＮＡＭＩ　ＡＵＴＯ株式会社,,株式会社,千葉県,四街道市,大日５０番地１７（廣やビル３０３）,,12,228,2840001,,,,,,,2021-08-06,1,,,,,ミナミオート,0
1470,5050001049655,新規,0,2021-08-06,2021-08-06,株式会社トキワセーフティーステップ,,株式会社,茨城県,つくば市,小野崎１３８番地１,,08,220,3050034,,,,,,,2021-08-06,1,,,,,トキワセーフティーステップ,0
1476,5050003006019,新規,0,2021-08-06,2021-08-06,ＫＥＮ・Ｐカンパニー合同会社,,合同会社,茨城県,取手市,桜が丘２丁目４２番１号,,08,217,3001525,,,,,,,2021-08-06,1,,,,,ケンピーカンパニー,0
1493,5110003004528,新規,0,2021-08-06,2021-08-06,合資会社石坂建具店,,合資会社,新潟県,新発田市,舟入町２丁目３番２７号,,15,206,9570065,,,,,,,2021-08-06,1,,,,,,0
1506,5120001239389,新規,0,2021-08-06,2021-08-06,株式会社Ｆｌｅｓｔ,,株式会社,大阪府,大阪市北区,豊崎３丁目１０番２アイアンドエフ梅田ビル１００３号,,27,127,5310072,,,,,,,2021-08-06,1,,,,,フレスト,0
1507,5120001239488,新規,0,2021-08-06,2021-08-06,永嘉商事株式会社,,株式会社,大阪府,大阪市港区,南市岡３丁目１０－２グリシーヌ弁天町６０５号室,,27,107,5520011,,,,,,,2021-08-06,1,,,,,エイカショウジ,0
1508,5120001239505,新規,0,2021-08-06,2021-08-06,株式会社Ｇｉｍｍｉｃｋ,,株式会社,大阪府,大阪市福島区,福島７丁目１７番９号大包ビル２Ｆ,,27,103,5530003,,,,,,,2021-08-06,1,,,,,ギミック,0
1509,5120001239554,新規,0,2021-08-06,2021-08-06,Ａｌｌ　Ｓｍｉｌｅ株式会社,,株式会社,大阪府,大阪市中央区,伏見町４丁目４番９号,,27,128,5410044,,,,,,,2021-08-06,1,,,,,オールスマイル,0
1510,5120001239579,新規,0,2021-08-06,2021-08-06,株式会社ＡＳＳ,,株式会社,大阪府,大阪市北区,東天満２丁目６番１－６０３号,,27,127,5300044,,,,,,,2021-08-06,1,,,,,エイエスエス,0
1512,5120003019970,新規,0,2021-08-06,2021-08-06,合同会社コンシロー,,合同会社,大阪府,大阪市北区,東天満１丁目１１番１３号ＡＸＩＳ南森町ビル７０３号,,27,127,5300044,,,,,,,2021-08-06,1,,,,,コンシロー,0
1513,5120003019995,新規,0,2021-08-06,2021-08-06,ＡＲｉＡ合同会社,,合同会社,大阪府,大阪市中央区,北浜２丁目２番２１－２７０３号,,27,128,5410041,,,,,,,2021-08-06,1,,,,,アリア,0
1517,5120101064019,新規,0,2021-08-06,2021-08-06,株式会社川正,,株式会社,大阪府,岸和田市,今木町４２５番地の７,,27,202,5960804,,,,,,,2021-08-06,1,,,,,カワショウ,0
1518,5120101064092,新規,0,2021-08-06,2021-08-06,セーフティネットクリエイト株式会社,,株式会社,大阪府,泉大津市,北豊中町２丁目９番１９号,,27,206,5950012,,,,,,,2021-08-06,1,,,,,セーフティネットクリエイト,0
1520,5120903003768,新規,0,2021-08-06,2021-08-06,合同会社ウナム,,合同会社,大阪府,摂津市,浜町２番６－３０５号,,27,224,5660047,,,,,,,2021-08-06,1,,,,,ウナム,0
1523,5122003002147,新規,0,2021-08-06,2021-08-06,ｔｏｍｏｒｒｏｗ　ｔｈｅ　ｗｏｒｌｄ合同会社,,合同会社,大阪府,東大阪市,荒川３丁目３０番１０号,,27,227,5770843,,,,,,,2021-08-06,1,,,,,トゥモローザワールド,0
1528,5130003007413,新規,0,2021-08-06,2021-08-06,合同会社キョーブキ,,合同会社,京都府,京田辺市,花住坂１丁目１９－１９,,26,211,6100352,,,,,,,2021-08-06,1,,,,,キョーブキ,0
1532,5140001122543,新規,0,2021-08-06,2021-08-06,メイホウ工業株式会社,,株式会社,兵庫県,明石市,明南町１丁目３－７－Ｂ１０１,,28,203,6730001,,,,,,,2021-08-06,1,,,,,メイホウコウギョウ,0
1533,5140001122576,新規,0,2021-08-06,2021-08-06,ロイヤル株式会社,,株式会社,兵庫県,洲本市,物部３丁目３番９号,,28,205,6560051,,,,,,,2021-08-06,1,,,,,ロイヤル,0
1534,5140001122584,新規,0,2021-08-06,2021-08-06,スマイルライフサービス株式会社,,株式会社,兵庫県,加古川市,野口町長砂２２０番地の１８,,28,210,6750016,,,,,,,2021-08-06,1,,,,,スマイルライフサービス,0
1535,5140001122592,新規,0,2021-08-06,2021-08-06,大西ユース株式会社,,株式会社,兵庫県,姫路市,新在家４丁目５番２３号,,28,201,6700095,,,,,,,2021-08-06,1,,,,,オオニシユース,0
1536,5140001122601,新規,0,2021-08-06,2021-08-06,株式会社一秀,,株式会社,兵庫県,尼崎市,東園田町１丁目３３３番地の３,,28,202,6610953,,,,,,,2021-08-06,1,,,,,イッシュウ,0
1537,5140001122634,新規,0,2021-08-06,2021-08-06,株式会社藤井工業,,株式会社,兵庫県,神戸市西区,池上２丁目３９番地の７－３Ｆ,,28,111,6512111,,,,,,,2021-08-06,1,,,,,フジイコウギョウ,0
1542,5140005025775,新規,0,2021-08-06,2021-08-06,ハーバー税理士法人,,その他の設立登記法人,兵庫県,神戸市中央区,東川崎町１丁目７番４号,,28,110,6500044,,,,,,,2021-08-06,1,,,,,ハーバー,0
1548,5180001147272,新規,0,2021-08-06,2021-08-06,株式会社Ｍ＆Ｍ,,株式会社,愛知県,名古屋市守山区,小六町１番８－４０２号,,23,113,4630054,,,,,,,2021-08-06,1,,,,,エムアンドエム,0
1549,5180001147339,新規,0,2021-08-06,2021-08-06,株式会社ｆｏｒ　ｙｕｕ,,株式会社,愛知県,名古屋市中川区,野田１丁目２２６番地,,23,110,4540912,,,,,,,2021-08-06,1,,,,,フォーユー,0
1550,5180001147347,新規,0,2021-08-06,2021-08-06,株式会社クルール各務原,,株式会社,愛知県,名古屋市中区,丸の内３丁目２０番９号三晃社ビル３階,,23,106,4600002,,,,,,,2021-08-06,1,,,,,クルールカガミハラ,0
1551,5180001147355,新規,0,2021-08-06,2021-08-06,株式会社アスフィット,,株式会社,愛知県,名古屋市千種区,今池１丁目６番３号ＩＴＯビル６Ｂ,,23,101,4640850,,,,,,,2021-08-06,1,,,,,アスフィット,0
1552,5180001147371,新規,0,2021-08-06,2021-08-06,株式会社Ｎａｖｙ　Ｌｉｇｈｔ,,株式会社,愛知県,名古屋市北区,柳原２丁目１９番１７号,,23,103,4620845,,,,,,,2021-08-06,1,,,,,ネイビーライト,0
1563,5190001028587,新規,0,2021-08-06,2021-08-06,株式会社Ｎ’ｓコーポレーション,,株式会社,三重県,四日市市,鵜の森２丁目１番８号,,24,202,5100074,,,,,,,2021-08-06,1,,,,,エヌズコーポレーション,0
1569,5200001039005,新規,0,2021-08-06,2021-08-06,株式会社Ｌｉｂ,,株式会社,岐阜県,岐阜市,高砂町１丁目１７番地岐阜イーストライジング２４,,21,201,5008407,,,,,,,2021-08-06,1,,,,,リブ,0
1572,5210001018552,新規,0,2021-08-06,2021-08-06,株式会社モリタ不動産,,株式会社,福井県,小浜市,木崎第３２号１０番地の１,,18,204,9170025,,,,,,,2021-08-06,1,,,,,モリタフドウサン,0
1577,5230005009158,新規,0,2021-08-06,2021-08-06,特定非営利活動法人ベイツーリズムひみ,,その他の設立登記法人,富山県,氷見市,間島２番４号,,16,205,9350003,,,,,,,2021-08-06,1,,,,,ベイツーリズムヒミ,0
1582,5240001058380,新規,0,2021-08-06,2021-08-06,呉模型・青葉株式会社,,株式会社,広島県,呉市,押込４丁目２８番２２号,,34,202,7370915,,,,,,,2021-08-06,1,,,,,クレモケイアオバ,0
1583,5240001058422,新規,0,2021-08-06,2021-08-06,株式会社くろかわ動物病院,,株式会社,広島県,広島市安芸区,中野東４丁目７番３９号,,34,107,7390323,,,,,,,2021-08-06,1,,,,,クロカワドウブツビョウイン,0
1589,5260003003647,新規,0,2021-08-06,2021-08-06,合同会社金太郎,,合同会社,岡山県,勝田郡勝央町,黒土６７１番地１０,,33,622,7094312,,,,,,,2021-08-06,1,,,,,キンタロウ,0
1591,5270001008333,新規,0,2021-08-06,2021-08-06,森・齋藤コンサルティング株式会社,,株式会社,鳥取県,倉吉市,上井２７番地１,,31,203,6820021,,,,,,,2021-08-06,1,,,,,モリサイトウコンサルティング,0
1592,5280001008489,新規,0,2021-08-06,2021-08-06,株式会社リサイクル齋藤,,株式会社,島根県,益田市,美都町山本イ３２６番地１,,32,204,6980204,,,,,,,2021-08-06,1,,,,,リサイクルサイトウ,0
1594,5290001094058,新規,0,2021-08-06,2021-08-06,株式会社Ｔｈｅ　Ｒａｕ,,株式会社,福岡県,久留米市,安武町安武本８５９番地１２,,40,203,8300072,,,,,,,2021-08-06,1,,,,,ザラウ,0
1595,5290001094082,新規,0,2021-08-06,2021-08-06,株式会社レシオ,,株式会社,福岡県,福岡市博多区,博多駅東２丁目５－１９サンライフ第３ビル６Ｆ,,40,132,8120013,,,,,,,2021-08-06,1,,,,,レシオ,0
1596,5290001094173,新規,0,2021-08-06,2021-08-06,ｇｒａｚｉｅ　ＪＡＰＡＮ株式会社,,株式会社,福岡県,福岡市早良区,野芥３丁目１４番１６号,,40,137,8140171,,,,,,,2021-08-06,1,,,,,グラッチェジャパン,0
1600,5290801027679,新規,0,2021-08-06,2021-08-06,株式会社ＳＣアグリ,,株式会社,福岡県,鞍手郡鞍手町,大字上木月７５８番地,,40,402,8071302,,,,,,,2021-08-06,1,,,,,エスシーアグリ,0
1603,5310001017404,新規,0,2021-08-06,2021-08-06,Ｑ－ｂｉｃホテルズ株式会社,,株式会社,長崎県,長崎市,大黒町７番３,,42,201,8500057,,,,,,,2021-08-06,1,,,,,キュービックホテルズ,0
1606,5320001018533,新規,0,2021-08-06,2021-08-06,株式会社森と人と,,株式会社,大分県,中津市,耶馬溪町川原口１２１９番地１,,44,203,8710099,,,,,,,2021-08-06,1,,,,,モリトヒトト,0
1608,5330001028894,新規,0,2021-08-06,2021-08-06,株式会社源,,株式会社,熊本県,山鹿市,菊鹿町池永８０番地４,,43,208,8610423,,,,,,,2021-08-06,1,,,,,ハジメ,0
1609,5330001028903,新規,0,2021-08-06,2021-08-06,株式会社スカイスクールジャパン,,株式会社,熊本県,熊本市中央区,坪井４丁目３番３５号,,43,101,8600863,,,,,,,2021-08-06,1,,,,,スカイスクールジャパン,0
1613,5340001024001,新規,0,2021-08-06,2021-08-06,株式会社サクラ農場,,株式会社,鹿児島県,鹿屋市,上祓川町６７４７番地１,,46,203,8930027,,,,,,,2021-08-06,1,,,,,サクラノウジョウ,0
1616,5360001029188,新規,0,2021-08-06,2021-08-06,株式会社ＯＫＩＮＡＷＡ　ＡＲＣＲＡＩＺ,,株式会社,沖縄県,国頭郡本部町,字崎本部４６９６番地１,,47,308,9050225,,,,,,,2021-08-06,1,,,,,オキナワアークライズ,0
1619,5370003005343,新規,0,2021-08-06,2021-08-06,合同会社スズ,,合同会社,宮城県,仙台市若林区,沖野４丁目１－１７シャトル太田Ｂ棟２０１,,04,103,9840831,,,,,,,2021-08-06,1,,,,,スズ,0
1626,5380001032099,新規,0,2021-08-06,2021-08-06,株式会社サトウ工業,,株式会社,福島県,いわき市,小名浜大原字中野地１５９番地の２,,07,204,9718111,,,,,,,2021-08-06,1,,,,,サトウコウギョウ,0
1634,5410001012915,新規,0,2021-08-06,2021-08-06,株式会社佐藤重夫左官店,,株式会社,秋田県,横手市,雄物川町造山字十足馬場３７番地３,,05,203,0130212,,,,,,,2021-08-06,1,,,,,サトウシゲオサカンテン,0
1641,5430003013042,新規,0,2021-08-06,2021-08-06,マタゴウリ合同会社,,合同会社,北海道,虻田郡倶知安町,北一条西１丁目１番地１山崎ビル３階,,01,400,0440051,,,,,,,2021-08-06,1,,,,,マタゴウリ,0
1642,5450001013439,新規,0,2021-08-06,2021-08-06,アーキビルドイーズ株式会社,,株式会社,北海道,旭川市,東四条９丁目２番１３号,,01,204,0700024,,,,,,,2021-08-06,1,,,,,アーキビルドイーズ,0
1643,5460003000855,新規,0,2021-08-06,2021-08-06,合同会社クシロバコ,,合同会社,北海道,釧路市,鳥取大通８丁目１番５号,,01,206,0840906,,,,,,,2021-08-06,1,,,,,クシロバコ,0
1647,5480001011456,新規,0,2021-08-06,2021-08-06,株式会社徳川建設工業,,株式会社,徳島県,吉野川市,鴨島町鴨島３８８番地３１,,36,205,7760010,,,,,,,2021-08-06,1,,,,,トクガワケンセツコウギョウ,0
1656,5700150103997,新規,0,2021-08-06,2021-07-07,鹿児島マラソン実行委員会,,その他,鹿児島県,鹿児島市,山下町１１－１,,46,201,8920816,,,,,,,2021-07-07,1,,,,,カゴシママラソンジツコウイインカイ,0
1657,5700150104293,新規,0,2021-08-06,2021-08-06,ＲＡＩＴＨＡ　ＣＡＲ　ＰＯＩＮＴ,,外国会社等,千葉県,八街市,榎戸４０７番地１４４－Ａ,,12,230,2891106,スリランカ民主社会主義共和国、ハンデッサ、エンベッカ、１９７,,,,,,2021-08-06,1,,,,,ライツアカーポイント,0
1666,6010001220243,新規,0,2021-08-06,2021-08-06,ＺｅｒｏＭａｔｔｅｒ株式会社,,株式会社,東京都,中央区,日本橋２丁目１番３号,,13,102,1030027,,,,,,,2021-08-06,1,,,,,ゼロマター,0
1667,6010001220251,新規,0,2021-08-06,2021-08-06,株式会社ソコスモ,,株式会社,東京都,中央区,銀座８丁目１２番１５号,,13,102,1040061,,,,,,,2021-08-06,1,,,,,ソコスモ,0
1668,6010001220318,新規,0,2021-08-06,2021-08-06,ロサ・フェア株式会社,,株式会社,東京都,中央区,銀座１丁目２２番１１号銀座大竹ビジデンス２階,,13,102,1040061,,,,,,,2021-08-06,1,,,,,ロサフェア,0
1679,6010003035508,新規,0,2021-08-06,2021-08-06,合同会社ムラタ,,合同会社,東京都,中央区,銀座１丁目２２番１１号銀座大竹ビジデンス２階,,13,102,1040061,,,,,,,2021-08-06,1,,,,,ムラタ,0
1680,6010003035516,新規,0,2021-08-06,2021-08-06,Ｇ３合同会社,,合同会社,東京都,千代田区,一ツ橋２丁目６番３号アクシスインベストメントアドバイザーズ株式会社内,,13,101,1010003,,,,,,,2021-08-06,1,,,,,ジースリー,0
1685,6010401161772,新規,0,2021-08-06,2021-08-06,株式会社エナージェン,,株式会社,東京都,港区,赤坂２丁目１７－６４、１１０１,,13,103,1070052,,,,,,,2021-08-06,1,,,,,エナージェン,0
1687,6010503006347,新規,0,2021-08-06,2021-08-06,合同会社ＦｉｒｓｔＲｅｌａｔｉｏｎ,,合同会社,東京都,台東区,松が谷１丁目３番２号湯浅ビル２Ｆ,,13,106,1110036,,,,,,,2021-08-06,1,,,,,ファーストリレーション,0
1692,6010603009084,新規,0,2021-08-06,2021-08-06,ＪＣＴＩ合同会社,,合同会社,東京都,墨田区,立花４丁目２３－５,,13,107,1310043,,,,,,,2021-08-06,1,,,,,ジェシーティーアイ,0
1701,6010901049245,新規,0,2021-08-06,2021-08-06,株式会社Ｐｌｕｓ　Ｙ,,株式会社,東京都,世田谷区,成城７丁目６－１３,,13,112,1570066,,,,,,,2021-08-06,1,,,,,プラスワイ,0
1713,6011003013164,新規,0,2021-08-06,2021-08-06,合同会社Ｍ＆Ａ,,合同会社,東京都,目黒区,自由が丘１丁目１３番１０号,,13,110,1520035,,,,,,,2021-08-06,1,,,,,エムアンドエー,0
1714,6011003013172,新規,0,2021-08-06,2021-08-06,アジアウェルトレーディング合同会社,,合同会社,東京都,渋谷区,神宮前３丁目１５番８号,,13,113,1500001,,,,,,,2021-08-06,1,,,,,アジアウェルトレーディング,0
1720,6011101095815,新規,0,2021-08-06,2021-08-06,株式会社ｏｎｚｅ,,株式会社,東京都,新宿区,西新宿３丁目５－１２トーカン第２キャステール３０１,,13,104,1600023,,,,,,,2021-08-06,1,,,,,オンゼ,0
1721,6011101095831,新規,0,2021-08-06,2021-08-06,Ａｘａｎｔｅｕｓ　Ｒｅｓｅｒｃｈ　Ｊａｐａｎ株式会社,,株式会社,東京都,新宿区,新宿２丁目５番３号ＡＭビル７階,,13,104,1600022,,,,,,,2021-08-06,1,,,,,アキサンテウスリサーチジャパン,0
1722,6011101095922,新規,0,2021-08-06,2021-08-06,株式会社トレジャー・ネットワークス,,株式会社,東京都,新宿区,新宿５丁目２番１号ニュー番衆ビル８０３,,13,104,1600022,,,,,,,2021-08-06,1,,,,,トレジャーネットワークス,0
1723,6011101095963,新規,0,2021-08-06,2021-08-06,株式会社ＩＣＨＩＥ,,株式会社,東京都,新宿区,大久保１丁目２番１号天翔オフィス東新宿,,13,104,1690072,,,,,,,2021-08-06,1,,,,,イチエ,0
1725,6011201023155,新規,0,2021-08-06,2021-08-06,株式会社Ｍ．Ｓｐｉｒａｌ,,株式会社,東京都,中野区,南台５丁目１５番２０－２０７号,,13,114,1640014,,,,,,,2021-08-06,1,,,,,エムスパイラル,0
1729,6011601025313,新規,0,2021-08-06,2021-08-06,株式会社ＧＬＯＢＡＬ　ＫＯＵＣＨＩ,,株式会社,東京都,練馬区,上石神井１丁目６番１２,,13,120,1770044,,,,,,,2021-08-06,1,,,,,グローバルコウウチ,0
1732,6011701024611,新規,0,2021-08-06,2021-08-06,リアライズホーム株式会社,,株式会社,東京都,江戸川区,西葛西１丁目２番４号,,13,123,1340088,,,,,,,2021-08-06,1,,,,,リアライズホーム,0
1739,6012705002272,新規,0,2021-08-06,2021-08-06,アクセス行政書士法人,,その他の設立登記法人,東京都,小平市,仲町３５０番地１サンワード宮北Ａ１０６号室,,13,211,1870042,,,,,,,2021-08-06,1,,,,,アクセス,0
1753,6020001142494,新規,0,2021-08-06,2021-08-06,ミント株式会社,,株式会社,神奈川県,横浜市中区,元浜町４丁目３５番地９０６号,,14,104,2310004,,,,,,,2021-08-06,1,,,,,ミント,0
1754,6020001142536,新規,0,2021-08-06,2021-08-06,株式会社ユニゾンプラン,,株式会社,神奈川県,横浜市港北区,大倉山７丁目２３番７号,,14,109,2220037,,,,,,,2021-08-06,1,,,,,ユニゾンプラン,0
1759,6020003020285,新規,0,2021-08-06,2021-08-06,合同会社千エンタープライズ,,合同会社,神奈川県,横浜市中区,大和町１丁目２２番地の１,,14,104,2310846,,,,,,,2021-08-06,1,,,,,センエンタープライズ,0
1767,6021001073580,新規,0,2021-08-06,2021-08-06,株式会社ハートサービス,,株式会社,神奈川県,横須賀市,武５丁目２５番８号,,14,201,2380313,,,,,,,2021-08-06,1,,,,,ハートサービス,0
1768,6021001073597,新規,0,2021-08-06,2021-08-06,株式会社ＴＦホールディングス,,株式会社,神奈川県,相模原市中央区,相模原３丁目８番２６号,,14,152,2520231,,,,,,,2021-08-06,1,,,,,ティーエフホールディングス,0
1769,6021001073606,新規,0,2021-08-06,2021-08-06,株式会社ライズ,,株式会社,神奈川県,藤沢市,石川５丁目６番地の４２,,14,205,2520815,,,,,,,2021-08-06,1,,,,,ライズ,0
1770,6021003010771,新規,0,2021-08-06,2021-08-06,合同会社Ｄ　Ｂｒｉｇｈｔ　Ｊａｐａｎ,,合同会社,神奈川県,大和市,上草柳３丁目７番１号,,14,213,2420029,,,,,,,2021-08-06,1,,,,,ディーブライトジャパン,0
1778,6030001143632,新規,0,2021-08-06,2021-08-06,株式会社Ｐｒｏｄｕｃｔｉｏｎ．Ｔ．Ｋ,,株式会社,埼玉県,春日部市,西八木崎３丁目３番３号,,11,214,3440059,,,,,,,2021-08-06,1,,,,,プロダクションティーケー,0
1779,6030001143657,新規,0,2021-08-06,2021-08-06,株式会社エム・エス・オー,,株式会社,埼玉県,加須市,北下新井１２５番地２,,11,210,3491134,,,,,,,2021-08-06,1,,,,,エムエスオー,0
1780,6030001143681,新規,0,2021-08-06,2021-08-06,株式会社シックザール,,株式会社,埼玉県,さいたま市浦和区,瀬ヶ崎５丁目１３番４号,,11,107,3300044,,,,,,,2021-08-06,1,,,,,シックザール,0
1781,6030001143756,新規,0,2021-08-06,2021-08-06,株式会社ＪＮワークス,,株式会社,埼玉県,所沢市,緑町２丁目１７－４－２０８,,11,208,3591111,,,,,,,2021-08-06,1,,,,,ジェーエヌワークス,0
1788,6030003017727,新規,0,2021-08-06,2021-08-06,ＳＢＳコンサルティング合同会社,,合同会社,埼玉県,白岡市,小久喜１４０３番地１,,11,246,3490217,,,,,,,2021-08-06,1,,,,,エスビーエスコンサルティング,0
1789,6030005020472,新規,0,2021-08-06,2021-08-06,一般社団法人ドコデモヒロバ,,その他の設立登記法人,埼玉県,大里郡寄居町,大字鉢形９１９番地１,,11,408,3691224,,,,,,,2021-08-06,1,,,,,ドコデモヒロバ,0
1796,6040001119623,新規,0,2021-08-06,2021-08-06,株式会社フォーリーフ,,株式会社,千葉県,松戸市,小金原３丁目１６番地の２０,,12,207,2700021,,,,,,,2021-08-06,1,,,,,フォーリーフ,0
1797,6040001119672,新規,0,2021-08-06,2021-08-06,ＷＩＮＧＳ株式会社,,株式会社,千葉県,柏市,酒井根２丁目３２番１号,,12,217,2770053,,,,,,,2021-08-06,1,,,,,ウィングス,0
1813,6060003003773,新規,0,2021-08-06,2021-08-06,合同会社カイロプラクティック中澤,,合同会社,栃木県,塩谷郡高根沢町,大字宝積寺２３４９番地９,,09,386,3291233,,,,,,,2021-08-06,1,,,,,カイロプラクティックナカザワ,0
1825,6080401025260,新規,0,2021-08-06,2021-08-06,ＥＴＥＲＮＩＴＹ株式会社,,株式会社,静岡県,浜松市浜北区,西美薗６５２番地の２,,22,136,4340033,,,,,,,2021-08-06,1,,,,,エタニティ,0
1827,6080403004345,新規,0,2021-08-06,2021-08-06,ＴＴＥ－Ｃ合同会社,,合同会社,静岡県,浜松市北区,三ヶ日町大崎６５２番地の２０,,22,135,4311403,,,,,,,2021-08-06,1,,,,,テック,0
1831,6100001034510,新規,0,2021-08-06,2021-08-06,みらくる株式会社,,株式会社,長野県,上田市,秋和７２５番地２,,20,203,3860041,,,,,,,2021-08-06,1,,,,,ミラクル,0
1837,6100003006202,新規,0,2021-08-06,2021-08-06,ＩＴあそぶ合同会社,,合同会社,長野県,長野市,七二会乙２４０８番地３,,20,201,3813164,,,,,,,2021-08-06,1,,,,,アイティーアソブ,0
1839,6110001035945,新規,0,2021-08-06,2021-08-06,不動産プラス株式会社,,株式会社,新潟県,新潟市中央区,浜浦町２丁目１２番１号,,15,103,9518151,,,,,,,2021-08-06,1,,,,,フドウサンプラス,0
1861,6120001239487,新規,0,2021-08-06,2021-08-06,知恵羽株式会社,,株式会社,大阪府,大阪市西成区,松１丁目２－８晃大ビル４０５号室,,27,122,5570034,,,,,,,2021-08-06,1,,,,,チケイウ,0
1862,6120001239520,新規,0,2021-08-06,2021-08-06,株式会社五十嵐建物管理,,株式会社,大阪府,大阪市西区,新町２丁目３番８号ＤＯビル新町６０３号,,27,106,5500013,,,,,,,2021-08-06,1,,,,,イガラシタテモノカンリ,0
1863,6120001239529,新規,0,2021-08-06,2021-08-06,株式会社Ｓｐｉｅｌｅｎ,,株式会社,大阪府,大阪市福島区,吉野４丁目４番４号,,27,103,5530006,,,,,,,2021-08-06,1,,,,,シュピーレン,0
1864,6120001239537,新規,0,2021-08-06,2021-08-06,株式会社仁鍼・ひとはり,,株式会社,大阪府,大阪市中央区,北浜東４番２４－１４０６号,,27,128,5400031,,,,,,,2021-08-06,1,,,,,ヒトハリ,0
1865,6120001239561,新規,0,2021-08-06,2021-08-06,株式会社ＡＳＳＩＳＴ,,株式会社,大阪府,大阪市中央区,南船場３丁目２番２８号,,27,128,5420081,,,,,,,2021-08-06,1,,,,,アシスト,0
1866,6120001239578,新規,0,2021-08-06,2021-08-06,株式会社Ｗｉｄｅ　Ａｃｔｉｖｅ,,株式会社,大阪府,大阪市淀川区,十三東１丁目１３番２５－９０２号,,27,123,5320023,,,,,,,2021-08-06,1,,,,,ワイドアクティブ,0
1867,6120001239594,新規,0,2021-08-06,2021-08-06,株式会社スタート,,株式会社,大阪府,大阪市生野区,巽北３丁目１１番１１－３０１号,00123863,27,116,5440004,,,,,,,2021-08-06,1,,,,,スタート,0
1872,6120003019978,新規,0,2021-08-06,2021-08-06,廣輝商事合同会社,,合同会社,大阪府,門真市,脇田町８番１６号,,27,223,5710011,,,,,,,2021-08-06,1,,,,,ヒロキショウジ,0
1876,6120101064075,新規,0,2021-08-06,2021-08-06,阪南産商・矢熊株式会社,,株式会社,大阪府,羽曳野市,野２７５番地,,27,222,5830884,,,,,,,2021-08-06,1,,,,,ハンナンサンショウヤグマ,0
1879,6120901044730,新規,0,2021-08-06,2021-08-06,株式会社しちふく,,株式会社,大阪府,摂津市,三島２丁目２番５１号,,27,224,5660022,,,,,,,2021-08-06,1,,,,,シチフク,0
1880,6122001035057,新規,0,2021-08-06,2021-08-06,株式会社ＡｎｎＡｓｓｅｔｍｅｎｔ,,株式会社,大阪府,八尾市,東本町４丁目３番３３号,,27,212,5810004,,,,,,,2021-08-06,1,,,,,アンアセットメント,0
1886,6130003007404,新規,0,2021-08-06,2021-08-06,Ｓｈｅｅｋ　Ｐｌｕｓ合同会社,,合同会社,京都府,京丹後市,大宮町周枳１６６９番地の１,,26,212,6292503,,,,,,,2021-08-06,1,,,,,シークプラス,0
1895,6140001122575,新規,0,2021-08-06,2021-08-06,株式会社ｎｏｘｉｐｌｕｓ,,株式会社,兵庫県,淡路市,里６０１番地７８,,28,226,6562143,,,,,,,2021-08-06,1,,,,,ノキシープラス,0
1896,6140001122591,新規,0,2021-08-06,2021-08-06,大西ファースト株式会社,,株式会社,兵庫県,姫路市,新在家４丁目５番２３号,,28,201,6700095,,,,,,,2021-08-06,1,,,,,オオニシファースト,0
1897,6140001122600,新規,0,2021-08-06,2021-08-06,ＣｈｏＢｉｔＬｉｎｋｓ株式会社,,株式会社,兵庫県,姫路市,大津区平松９番地４,,28,201,6711145,,,,,,,2021-08-06,1,,,,,チョビットリンクスカブシキカイシャ,0
1898,6140001122633,新規,0,2021-08-06,2021-08-06,株式会社ＯＧＡクリーン・コンシェル,,株式会社,兵庫県,神戸市兵庫区,御崎町２丁目２０番９号,,28,105,6520855,,,,,,,2021-08-06,1,,,,,オージーエークリーンコンシェル,0
1906,6150001024845,新規,0,2021-08-06,2021-08-06,株式会社トラーチ,,株式会社,奈良県,奈良市,法華寺町１８７－１０２,,29,201,6308001,,,,,,,2021-08-06,1,,,,,トラーチ,0
1908,6160001023540,新規,0,2021-08-06,2021-08-06,株式会社ダイエイイースト,,株式会社,滋賀県,彦根市,長曽根南町４９４番地２,,25,202,5220052,,,,,,,2021-08-06,1,,,,,ダイエイイースト,0
1917,6180001147296,新規,0,2021-08-06,2021-08-06,株式会社清雅屋,,株式会社,愛知県,海部郡蟹江町,宝２丁目６７番地,,23,425,4970030,,,,,,,2021-08-06,1,,,,,セイガヤ,0
1925,6180301035259,新規,0,2021-08-06,2021-08-06,株式会社カベユウ,,株式会社,愛知県,額田郡幸田町,大字菱池字内池７９番地,,23,501,4440113,,,,,,,2021-08-06,1,,,,,カベユウ,0
1935,6220001024350,新規,0,2021-08-06,2021-08-06,ＳＷＡＧ株式会社,,株式会社,石川県,金沢市,彦三町１丁目２番１号アソルティ金沢１Ｆ,,17,201,9200901,,,,,,,2021-08-06,1,,,,,スワッグ,0
1944,6240001058396,新規,0,2021-08-06,2021-08-06,株式会社ＬＩＳＥ,,株式会社,広島県,福山市,新涯町２丁目１５番８号,,34,207,7210955,,,,,,,2021-08-06,1,,,,,ライズ,0
1945,6240001058405,新規,0,2021-08-06,2021-08-06,株式会社ｔａｓ,,株式会社,広島県,東広島市,八本松南７丁目５番７号,,34,212,7390144,,,,,,,2021-08-06,1,,,,,タス,0
1954,6260005010946,新規,0,2021-08-06,2021-08-06,特定非営利活動法人蒼栄会,,その他の設立登記法人,岡山県,玉野市,和田２丁目４番２０号,,33,204,7060021,,,,,,,2021-08-06,1,,,,,ソウエイカイ,0
1959,6290001094057,新規,0,2021-08-06,2021-08-06,ＢＲＥＷＭＡＳＴＥＲ株式会社,,株式会社,福岡県,福岡市城南区,別府１丁目１９番１号,,40,136,8140104,,,,,,,2021-08-06,1,,,,,ブルーマスター,0
1960,6290001094073,新規,0,2021-08-06,2021-08-06,株式会社ＳＧｍａｃｈｉｎｅｒｙ,,株式会社,福岡県,大野城市,御笠川２丁目１６番１８号オフィスパレア御笠川Ⅸ,00123871,40,219,8160912,,,,,,,2021-08-06,1,,,,,エスジーマシナリー,0
1961,6290001094081,新規,0,2021-08-06,2021-08-06,株式会社エムデサポート,,株式会社,福岡県,福岡市中央区,赤坂３丁目１０番４９－１０１号,,40,133,8100042,,,,,,,2021-08-06,1,,,,,エムデサポート,0
1970,6290801027678,新規,0,2021-08-06,2021-08-06,株式会社Ｌ＆ＧＦ,,株式会社,福岡県,北九州市小倉南区,湯川１丁目９番３３号,,40,107,8000257,,,,,,,2021-08-06,1,,,,,エルアンドジーエフ,0
1972,6320001018532,新規,0,2021-08-06,2021-08-06,株式会社ＹＵＲＥＲＵ,,株式会社,大分県,竹田市,大字竹田２０３３番地２,,44,208,8780013,,,,,,,2021-08-06,1,,,,,ユレル,0
1977,6340003003514,新規,0,2021-08-06,2021-08-06,合同会社ＵＲＢ,,合同会社,鹿児島県,薩摩川内市,平佐町１７４３番地１,,46,215,8950012,,,,,,,2021-08-06,1,,,,,ユーアールビー,0
1985,6360001029204,新規,0,2021-08-06,2021-08-06,株式会社ｍａｎａｎｉｃｏ,,株式会社,沖縄県,浦添市,城間４丁目３６番８－１１０７号ミルコマンション浦添学園通り第２,,47,208,9012133,,,,,,,2021-08-06,1,,,,,マナニコ,0
1999,6410001012914,新規,0,2021-08-06,2021-08-06,株式会社ＴＫ　Ｂｏｄｙ,,株式会社,秋田県,北秋田市,坊沢字深関沢２５番地１４,,05,213,0183333,,,,,,,2021-08-06,1,,,,,ティーケーボディ,0
2005,6430001084737,新規,0,2021-08-06,2021-08-06,株式会社ＡｕｔｏＧプラス,,株式会社,北海道,苫小牧市,あけぼの町３丁目４番１７号,,01,213,0530056,,,,,,,2021-08-06,1,,,,,オートジープラス,0
2006,6430003012976,新規,0,2021-08-06,2021-08-06,合同会社サイクルナビゲーター北海道,,合同会社,北海道,札幌市北区,屯田三条８丁目３番１０号,,01,102,0020853,,,,,,,2021-08-06,1,,,,,サイクルナビゲーターホッカイドウ,0
2007,6430003013009,新規,0,2021-08-06,2021-08-06,合同会社ルーム,,合同会社,北海道,札幌市中央区,南四条西３丁目２番地３第３２桂和ビル５階,,01,101,0640804,,,,,,,2021-08-06,1,,,,,ルーム,0
2009,6430005014244,新規,0,2021-08-06,2021-08-06,特定非営利活動法人ＳＭＩＬＥ　ＬＯＣＯＭＯＴＩＯＮ,,その他の設立登記法人,北海道,札幌市厚別区,厚別南２丁目２番２２－５０３号,,01,108,0040022,,,,,,,2021-08-06,1,,,,,スマイルロコモーション,0
2022,6700150103749,新規,0,2021-08-06,2021-06-17,あいちゼロカーボン推進協議会,,その他,愛知県,名古屋市東区,白壁３丁目１２－１３一般社団法人中部産業連盟　内,,23,102,4610011,,,,,,,2021-06-17,1,,,,,アイチゼロカーボンスイシンキヨウギカイ,0
2023,6700150104292,新規,0,2021-08-06,2021-08-06,Ｓｈｅｅｍａ　Ａｕｔｏ　Ｗｉｎｇｓ,,外国会社等,千葉県,富里市,立沢新田８６番地１４７,,12,233,2860215,スリランカ民主社会主義共和国、コロンボ９、デマタゴダプレイス、３７－７,,,,,,2021-08-06,1,,,,,シーマオートウイングス,0
2031,7010001220192,新規,0,2021-08-06,2021-08-06,株式会社宮武製作所ホールディングス,,株式会社,東京都,千代田区,内幸町１丁目３番３号内幸町ダイビル,,13,101,1000011,,,,,,,2021-08-06,1,,,,,ミヤタケセイサクショホールディングス,0
2032,7010001220234,新規,0,2021-08-06,2021-08-06,株式会社コハククリエーションズ,,株式会社,東京都,千代田区,外神田２丁目５－９プラウドフラット外神田１１０１,,13,101,1010021,,,,,,,2021-08-06,1,,,,,コハククリエーションズ,0
2033,7010001220250,新規,0,2021-08-06,2021-08-06,Ｔｏｋｙｏ　Ｄｙｎａｍｉｃｓ株式会社,,株式会社,東京都,中央区,京橋１丁目１番５号,,13,102,1040031,,,,,,,2021-08-06,1,,,,,トウキョウダイナミックス,0
2034,7010001220259,新規,0,2021-08-06,2021-08-06,株式会社ＫＯＳＥアセット,,株式会社,東京都,中央区,新富１丁目１５番１１号マキプラザ４０５号室,,13,102,1040041,,,,,,,2021-08-06,1,,,,,コーセーアセット,0
2035,7010001220267,新規,0,2021-08-06,2021-08-06,株式会社日本ＴＯＹＯ,,株式会社,東京都,中央区,銀座３丁目９番１８号東銀座ビル３０１,,13,102,1040061,,,,,,,2021-08-06,1,,,,,ニホントーヨー,0
2036,7010001220300,新規,0,2021-08-06,2021-08-06,リジッドシステム株式会社,,株式会社,東京都,千代田区,岩本町１丁目２番１３号渡東ビルディング３階,,13,101,1010032,,,,,,,2021-08-06,1,,,,,リジッドシステム,0
2042,7010003035515,新規,0,2021-08-06,2021-08-06,Ｇ２合同会社,,合同会社,東京都,千代田区,一ツ橋２丁目６番３号アクシスインベストメントアドバイザーズ株式会社内,,13,101,1010003,,,,,,,2021-08-06,1,,,,,ジートゥー,0
2043,7010003035523,新規,0,2021-08-06,2021-08-06,ＹＡＺＺＯ合同会社,,合同会社,東京都,中央区,銀座１丁目１２番４号Ｎ＆Ｅ・ＢＬＤ７階,,13,102,1040061,,,,,,,2021-08-06,1,,,,,ヤッゾー,0
2060,7010401161887,新規,0,2021-08-06,2021-08-06,株式会社トマリギ,,株式会社,東京都,港区,浜松町２丁目２番１５号浜松町ダイヤビル２Ｆ,,13,103,1050013,,,,,,,2021-08-06,1,,,,,トマリギ,0
2061,7010401161895,新規,0,2021-08-06,2021-08-06,株式会社ａｎｃｅ,,株式会社,東京都,港区,赤坂６丁目５番２１号,,13,103,1070052,,,,,,,2021-08-06,1,,,,,アンス,0
2065,7010501047656,新規,0,2021-08-06,2021-08-06,株式会社Ｓｕｕｓ,,株式会社,東京都,台東区,寿３丁目１４番５号エグゼ６０１,,13,106,1110042,,,,,,,2021-08-06,1,,,,,スース,0
2066,7010501047664,新規,0,2021-08-06,2021-08-06,株式会社Ｌｉｂｅｒｔａｓ,,株式会社,東京都,台東区,東上野３丁目１番１０号,,13,106,1100015,,,,,,,2021-08-06,1,,,,,リベルタス,0
2067,7010503006346,新規,0,2021-08-06,2021-08-06,合同会社Ｅｎｄｏｒｐｈｉｎｓ,,合同会社,東京都,台東区,下谷１丁目１１－１５ソレイユ入谷２Ｆ,,13,106,1100004,,,,,,,2021-08-06,1,,,,,エンドルフィンズ,0
2068,7010601059758,新規,0,2021-08-06,2021-08-06,エー・ティー・エイチ株式会社,,株式会社,東京都,江東区,青海１丁目１番２０号,,13,108,1350064,,,,,,,2021-08-06,1,,,,,エーティーエイチ,0
2069,7010601059766,新規,0,2021-08-06,2021-08-06,株式会社渡辺工業,,株式会社,東京都,江東区,東陽１丁目１１番７号,,13,108,1350016,,,,,,,2021-08-06,1,,,,,ワタナベコウギョウ,0
2072,7010703005882,新規,0,2021-08-06,2021-08-06,合同会社Ｈｏｌｏ　ｉ　ｍｕａ,,合同会社,東京都,品川区,南大井５丁目９番４号,,13,109,1400013,,,,,,,2021-08-06,1,,,,,ホロイムア,0
2076,7011101095913,新規,0,2021-08-06,2021-08-06,いもり企画株式会社,,株式会社,東京都,新宿区,西新宿１丁目２５番１号新宿センタービル４９階,,13,104,1600023,,,,,,,2021-08-06,1,,,,,イモリキカク,0
2077,7011101095921,新規,0,2021-08-06,2021-08-06,株式会社Ｓｔａｌｌｉｏｎ,,株式会社,東京都,新宿区,西新宿７丁目５番５号プラザ西新宿７０９号室,,13,104,1600023,,,,,,,2021-08-06,1,,,,,スタリオン,0
2079,7011303004119,新規,0,2021-08-06,2021-08-06,合同会社ミィ,,合同会社,東京都,杉並区,高円寺北２丁目３番１１号藤の森ビル１Ｆ,,13,115,1660002,,,,,,,2021-08-06,1,,,,,ミィ,0
2080,7011701024619,新規,0,2021-08-06,2021-08-06,株式会社成城,,株式会社,東京都,江戸川区,南葛西６丁目３３－３－２０１,,13,123,1340085,,,,,,,2021-08-06,1,,,,,セイジョウ,0
2085,7011801039541,新規,0,2021-08-06,2021-08-06,株式会社三共エクスプレス,,株式会社,東京都,足立区,扇３丁目２０番７号,,13,121,1230873,,,,,,,2021-08-06,1,,,,,サンキョウエクスプレス,0
2086,7011803004733,新規,0,2021-08-06,2021-08-06,トミポーツ合同会社,,合同会社,東京都,葛飾区,青戸４丁目１番１９－６０３号,,13,122,1250062,,,,,,,2021-08-06,1,,,,,トミポーツ,0
2089,7012403004974,新規,0,2021-08-06,2021-08-06,合同会社モノノーフ,,合同会社,東京都,三鷹市,井口４丁目１４番１３号,,13,204,1810011,,,,,,,2021-08-06,1,,,,,モノノーフ,0
2092,7012405004626,新規,0,2021-08-06,2021-08-06,社会保険労務士法人Ｓｕｎｎｙ,,その他の設立登記法人,東京都,多摩市,諏訪１丁目２番地の１５,,13,224,2060024,,,,,,,2021-08-06,1,,,,,サニー,0
2094,7013101008689,新規,0,2021-08-06,2021-08-06,株式会社ＡＳＫ,,株式会社,東京都,福生市,大字福生６６５－２０,,13,218,1970011,,,,,,,2021-08-06,1,,,,,エイエスケー,0
2104,7020001142477,新規,0,2021-08-06,2021-08-06,株式会社Ｍ’ｓ＆ｆａｃｔｏｒｙ,,株式会社,神奈川県,横浜市都筑区,中川中央１丁目３０－１,,14,118,2240003,,,,,,,2021-08-06,1,,,,,エムズアンドファクトリー,0
2105,7020001142493,新規,0,2021-08-06,2021-08-06,マサキ内装株式会社,,株式会社,神奈川県,横浜市保土ケ谷区,狩場町３３４番地７７,,14,106,2400025,,,,,,,2021-08-06,1,,,,,マサキナイソウ,0
2106,7020001142502,新規,0,2021-08-06,2021-08-06,株式会社ＹＴＨ,,株式会社,神奈川県,横浜市鶴見区,梶山２丁目４番４０号,,14,101,2300072,,,,,,,2021-08-06,1,,,,,ワイス,0
2107,7020001142519,新規,0,2021-08-06,2021-08-06,株式会社恒設備,,株式会社,神奈川県,横浜市金沢区,東朝比奈１丁目８番２０号,,14,108,2360033,,,,,,,2021-08-06,1,,,,,ツネセツビ,0
2108,7020001142527,新規,0,2021-08-06,2021-08-06,株式会社ＫＺ,,株式会社,神奈川県,川崎市幸区,古川町１２２番地１８,,14,132,2120025,,,,,,,2021-08-06,1,,,,,ケーゼット,0
2109,7020001142543,新規,0,2021-08-06,2021-08-06,株式会社Ｎｅｏｆｏ,,株式会社,神奈川県,横浜市青葉区,新石川４丁目３番地１２サンロード飯島３０３,,14,117,2250003,,,,,,,2021-08-06,1,,,,,ネオフォ,0
2112,7020003020276,新規,0,2021-08-06,2021-08-06,キートス合同会社,,合同会社,神奈川県,横浜市金沢区,並木２丁目６番６－３０５号,,14,108,2360005,,,,,,,2021-08-06,1,,,,,キートス,0
2114,7021001073571,新規,0,2021-08-06,2021-08-06,５３０株式会社,,株式会社,神奈川県,横須賀市,佐島３丁目３番１３号,,14,201,2400103,,,,,,,2021-08-06,1,,,,,ゴーサンマル,0
2115,7021001073596,新規,0,2021-08-06,2021-08-06,株式会社リベルタ,,株式会社,神奈川県,大和市,下鶴間２３３５番地１リエスつきみ野２０７,,14,213,2420001,,,,,,,2021-08-06,1,,,,,リベルタ,0
2116,7021001073605,新規,0,2021-08-06,2021-08-06,株式会社ライズライン,,株式会社,神奈川県,厚木市,関口２５１番地３,,14,212,2430804,,,,,,,2021-08-06,1,,,,,ライズライン,0
2121,7021003010770,新規,0,2021-08-06,2021-08-06,合同会社Ｈ＆Ｈ　ＴｒｉｐｏｎＳｔａｒｓ,,合同会社,神奈川県,海老名市,国分南２丁目１６番４－２３６号,,14,215,2430405,,,,,,,2021-08-06,1,,,,,エイチアンドエイチトリップオンスターズ,0
2127,7030001143607,新規,0,2021-08-06,2021-08-06,株式会社ＮＥＸＩＭ,,株式会社,埼玉県,さいたま市南区,大字太田窪２１８８－６,,11,108,3360015,,,,,,,2021-08-06,1,,,,,ネクシム,0
2128,7030001143656,新規,0,2021-08-06,2021-08-06,株式会社エ・フムス,,株式会社,埼玉県,草加市,松江１丁目３番１１－１０１号,,11,221,3400013,,,,,,,2021-08-06,1,,,,,エフムス,0
2129,7030001143664,新規,0,2021-08-06,2021-08-06,つたわる株式会社,,株式会社,埼玉県,所沢市,中新井５丁目１番５－５０１号,,11,208,3590041,,,,,,,2021-08-06,1,,,,,ツタワル,0
2130,7030001143672,新規,0,2021-08-06,2021-08-06,株式会社誠和,,株式会社,埼玉県,川口市,南鳩ヶ谷４丁目２６番１－９０５号,,11,203,3340013,,,,,,,2021-08-06,1,,,,,セイワ,0
2131,7030001143714,新規,0,2021-08-06,2021-08-06,株式会社仲澤組,,株式会社,埼玉県,川越市,熊野町５番地２７,,11,201,3501146,,,,,,,2021-08-06,1,,,,,ナカザワグミ,0
2134,7030003017734,新規,0,2021-08-06,2021-08-06,ロハスクリエイション合同会社,,合同会社,埼玉県,坂戸市,大字厚川５０－４,,11,239,3500242,,,,,,,2021-08-06,1,,,,,ロハスクリエイション,0
2136,7030005020471,新規,0,2021-08-06,2021-08-06,一般社団法人まさ企画,,その他の設立登記法人,埼玉県,戸田市,上戸田５丁目２２番８－３０３号,,11,224,3350022,,,,,,,2021-08-06,1,,,,,マサキカク,0
2143,7040001119647,新規,0,2021-08-06,2021-08-06,株式会社エフ・リアルティー,,株式会社,千葉県,千葉市緑区,おゆみ野３丁目２５番地３,,12,105,2660031,,,,,,,2021-08-06,1,,,,,エフリアルティー,0
2144,7040001119671,新規,0,2021-08-06,2021-08-06,株式会社矢成建設,,株式会社,千葉県,木更津市,畑沢南２丁目７番１３号,,12,206,2920826,,,,,,,2021-08-06,1,,,,,ヤナリケンセツ,0
2145,7040001119713,新規,0,2021-08-06,2021-08-06,２ｎｄ　ｓｐａｃｅ株式会社,,株式会社,千葉県,木更津市,新田１丁目１０番地３１マルコビル木更津１０３,,12,206,2920832,,,,,,,2021-08-06,1,,,,,セカンドスペース,0
2152,7040005021304,新規,0,2021-08-06,2021-08-06,特定非営利活動法人ラポール・モア,,その他の設立登記法人,千葉県,千葉市中央区,花輪町４６番地１１０,,12,101,2600803,,,,,,,2021-08-06,1,,,,,ラポールモア,0
2156,7060001033986,新規,0,2021-08-06,2021-08-06,株式会社ｓｏｍｍｅｔ　ｆａｒｍ,,株式会社,栃木県,宇都宮市,日の出１丁目１１番１号,,09,201,3200832,,,,,,,2021-08-06,1,,,,,ソメットファーム,0
2158,7060003003772,新規,0,2021-08-06,2021-08-06,合同会社Ｃｌａｒｉｓｓ,,合同会社,栃木県,佐野市,若松町６６３番地１０,,09,204,3270846,,,,,,,2021-08-06,1,,,,,クラリス,0
2167,7080001024372,新規,0,2021-08-06,2021-08-06,株式会社ＩＲＵＳＥＴ,,株式会社,静岡県,静岡市清水区,北矢部町１丁目１番１１号,,22,103,4240937,,,,,,,2021-08-06,1,,,,,イルセット,0
2172,7080103002400,新規,0,2021-08-06,2021-08-06,合同会社岩米農産,,合同会社,静岡県,三島市,新谷１０６番地４号,,22,206,4110834,,,,,,,2021-08-06,1,,,,,イワベイノウサン,0
2174,7080105006168,新規,0,2021-08-06,2021-08-06,一般社団法人植松グループ地域振興協会,,その他の設立登記法人,静岡県,沼津市,西沢田２００番地の１,,22,203,4100007,,,,,,,2021-08-06,1,,,,,ウエマツグループチイキシンコウキョウカイ,0
2175,7080403004344,新規,0,2021-08-06,2021-08-06,合同会社ミライ,,合同会社,静岡県,浜松市南区,東若林町１１２１番地の３,,22,134,4328052,,,,,,,2021-08-06,1,,,,,ミライ,0
2176,7080405007378,新規,0,2021-08-06,2021-08-06,一般社団法人ＪＥＫ　Ｐａｒｔｎｅｒｓ,,その他の設立登記法人,静岡県,浜松市中区,板屋町１１１番地の２アクトタワー２６階,,22,131,4300928,,,,,,,2021-08-06,1,,,,,ジェックパートナーズ,0
2185,7110003004550,新規,0,2021-08-06,2021-08-06,合同会社ＹＭプランニング,,合同会社,新潟県,長岡市,中島３丁目７番３号サンハイツ中島Ｂ１０１,,15,202,9400094,,,,,,,2021-08-06,1,,,,,ワイエムプランニング,0
2186,7110005016692,新規,0,2021-08-06,2021-08-06,医療法人社団陽心会,,その他の設立登記法人,新潟県,三条市,荻堀１１８２番地１,,15,204,9550151,,,,,,,2021-08-06,1,,,,,ヨウシンカイ,0
2194,7120001239486,新規,0,2021-08-06,2021-08-06,ＦＡＷＪ株式会社,,株式会社,大阪府,大阪市港区,南市岡３丁目１０－２グリシーヌ弁天町４０３号室,,27,107,5520011,,,,,,,2021-08-06,1,,,,,エフエイダブリュージェイ,0
2195,7120001239511,新規,0,2021-08-06,2021-08-06,株式会社ＣＨＬ,,株式会社,大阪府,大阪市北区,松ケ枝町１番３９号東天満エンビィビル８Ｆ,,27,127,5300037,,,,,,,2021-08-06,1,,,,,シーエイチエル,0
2196,7120001239593,新規,0,2021-08-06,2021-08-06,株式会社Ｎ．Ｃｒｅａｔｅ,,株式会社,大阪府,大阪市福島区,福島７丁目５番２０号５階,,27,103,5530003,,,,,,,2021-08-06,1,,,,,エヌクリエイト,0
2197,7120001239676,新規,0,2021-08-06,2021-08-06,ＯＮＥ２株式会社,,株式会社,大阪府,大阪市中央区,久太郎町１丁目５番３１号リアライズ堺筋本町ビル３０５号室,,27,128,5410056,,,,,,,2021-08-06,1,,,,,ワンツー,0
2199,7120003019960,新規,0,2021-08-06,2021-08-06,合同会社ＹＵＴＡＫＡ,,合同会社,大阪府,大阪市浪速区,戎本町２丁目９番１４号,,27,111,5560013,,,,,,,2021-08-06,1,,,,,ユタカ,0
2206,7120101064090,新規,0,2021-08-06,2021-08-06,株式会社タイケン,,株式会社,大阪府,富田林市,梅の里２丁目２６番１９号,,27,214,5840001,,,,,,,2021-08-06,1,,,,,タイケン,0
2207,7120101064099,新規,0,2021-08-06,2021-08-06,株式会社ＭＩＲＡＫＵ,,株式会社,大阪府,和泉市,池上町９００番地の１（６０１）,,27,219,5940083,,,,,,,2021-08-06,1,,,,,ミラク,0
2208,7120101064124,新規,0,2021-08-06,2021-08-06,株式会社響吉工務店,,株式会社,大阪府,高石市,高師浜４丁目６番１３－１０２号,,27,225,5920004,,,,,,,2021-08-06,1,,,,,ヒビキコウムテン,0
2213,7120901044713,新規,0,2021-08-06,2021-08-06,株式会社ＳＫ,,株式会社,大阪府,池田市,天神２丁目１番８号,,27,204,5630031,,,,,,,2021-08-06,1,,,,,エスケー,0
2217,7122001035056,新規,0,2021-08-06,2021-08-06,ネオテクノシーク株式会社,,株式会社,大阪府,東大阪市,今米１丁目２番４８号松栄ビル５Ｆ,,27,227,5780903,,,,,,,2021-08-06,1,,,,,ネオテクノシーク,0
2218,7122001035064,新規,0,2021-08-06,2021-08-06,株式会社エムジーシステム,,株式会社,大阪府,四條畷市,砂２丁目４番１号,,27,229,5750001,,,,,,,2021-08-06,1,,,,,エムジーシステム,0
2219,7122001035072,新規,0,2021-08-06,2021-08-06,株式会社ウィズダムワークス,,株式会社,大阪府,八尾市,八尾木東２丁目９番地,,27,212,5810028,,,,,,,2021-08-06,1,,,,,ウィズダムワークス,0
2233,7140001122517,新規,0,2021-08-06,2021-08-06,株式会社まきざわ,,株式会社,兵庫県,丹波篠山市,乾新町２２０番地６,,28,221,6692335,,,,,,,2021-08-06,1,,,,,マキザワ,0
2234,7140001122582,新規,0,2021-08-06,2021-08-06,株式会社みんなの軽貨物,,株式会社,兵庫県,神戸市西区,神出町宝勢２００１番地の１,,28,111,6512321,,,,,,,2021-08-06,1,,,,,ミンナノケイカモツ,0
2235,7140001122590,新規,0,2021-08-06,2021-08-06,大西フィル株式会社,,株式会社,兵庫県,姫路市,新在家４丁目５番２３号,,28,201,6700095,,,,,,,2021-08-06,1,,,,,オオニシフィル,0
2236,7140001122599,新規,0,2021-08-06,2021-08-06,株式会社グリーン環境開発,,株式会社,兵庫県,豊岡市,出石町本町７９番地,,28,209,6680224,,,,,,,2021-08-06,1,,,,,グリーンカンキョウカイハツ,0
2237,7140001122640,新規,0,2021-08-06,2021-08-06,ベベ電気設備株式会社,,株式会社,兵庫県,神戸市西区,伊川谷町潤和３１１番地の４５,,28,111,6512124,,,,,,,2021-08-06,1,,,,,ベベデンキセツビ,0
2243,7140003016601,新規,0,2021-08-06,2021-08-06,エムズウェルネスパートナーズ合同会社,,合同会社,兵庫県,神戸市兵庫区,西上橘通２丁目８番１２号ＶＩＬＬＡＭＩＮＡＴＯＧＡＷＡ５０１,,28,105,6520033,,,,,,,2021-08-06,1,,,,,エムズウェルネスパートナーズ,0
2244,7140003016618,新規,0,2021-08-06,2021-08-06,合同会社１９２１,,合同会社,兵庫県,神戸市須磨区,須磨浦通４丁目８番６号,,28,107,6540055,,,,,,,2021-08-06,1,,,,,イグチ,0
2246,7150001024844,新規,0,2021-08-06,2021-08-06,株式会社キバコ,,株式会社,奈良県,五條市,住川町１２９７番地,,29,207,6370014,,,,,,,2021-08-06,1,,,,,キバコ,0
2264,7180001147378,新規,0,2021-08-06,2021-08-06,Ｓｔａｒｔ　Ｆｌｙ株式会社,,株式会社,愛知県,名古屋市中区,栄５丁目８番１０号（プレサンスロジェ栄１００４号）,,23,106,4600008,,,,,,,2021-08-06,1,,,,,スタートフライ,0
2275,7190001028593,新規,0,2021-08-06,2021-08-06,株式会社濵口工業,00123874,株式会社,三重県,四日市市,小古曽東１丁目１番３２号,,24,202,5100951,,,,,,,2021-08-06,1,,,,,ハマグチコウギョウ,0
2286,7200001038995,新規,0,2021-08-06,2021-08-06,Ａｌｌｉｓｏｎｅ＆Ｃｏ株式会社,,株式会社,岐阜県,岐阜市,中鶉２丁目３７番地１,,21,201,5008288,,,,,,,2021-08-06,1,,,,,アリソンアンドシーオー,0
2288,7200003005275,新規,0,2021-08-06,2021-08-06,合同会社ａｄｃｈｉｃ,,合同会社,岐阜県,瑞穂市,牛牧３２９番地１,,21,216,5010234,,,,,,,2021-08-06,1,,,,,アドシック,0
2289,7200005013235,新規,0,2021-08-06,2021-08-06,医療法人孝祐会,,その他の設立登記法人,岐阜県,多治見市,三笠町１丁目２１番地,,21,204,5070828,,,,,,,2021-08-06,1,,,,,コウユウカイ,0
2292,7220001024341,新規,0,2021-08-06,2021-08-06,ＳＴＯＫＫ株式会社,,株式会社,石川県,金沢市,森山１丁目２番１号,,17,201,9200843,,,,,,,2021-08-06,1,,,,,ストック,0
2299,7240001058404,新規,0,2021-08-06,2021-08-06,株式会社味楽の焼肉丼,,株式会社,広島県,広島市南区,松原町１０－２７,,34,103,7320822,,,,,,,2021-08-06,1,,,,,ミラクノヤキニクドン,0
2300,7240003005230,新規,0,2021-08-06,2021-08-06,合同会社山田工業,,合同会社,広島県,福山市,坪生町５丁目２－１－２,,34,207,7210903,,,,,,,2021-08-06,1,,,,,ヤマダコウギョウ,0
2306,7260001035855,新規,0,2021-08-06,2021-08-06,伊藤鉄工所株式会社,,株式会社,岡山県,笠岡市,入江５４５番地１,,33,205,7140041,,,,,,,2021-08-06,1,,,,,イトウテッコウショ,0
2307,7260001035863,新規,0,2021-08-06,2021-08-06,株式会社ＬＡＹＬ,,株式会社,岡山県,倉敷市,浜ノ茶屋２丁目１番７号,,33,202,7100061,,,,,,,2021-08-06,1,,,,,レイル,0
2316,7290001094072,新規,0,2021-08-06,2021-08-06,株式会社ＮＥＸＴ,,株式会社,福岡県,大野城市,御笠川２丁目１６番１８号オフィスパレア御笠川Ⅸ,00123870,40,219,8160912,,,,,,,2021-08-06,1,,,,,ネクスト,0
2317,7290003011471,新規,0,2021-08-06,2021-08-06,合同会社ＳＵＮＧＯ,,合同会社,福岡県,福岡市博多区,寿町２丁目９－２３－９０４,,40,132,8120884,,,,,,,2021-08-06,1,,,,,サンゴ,0
2318,7290801027685,新規,0,2021-08-06,2021-08-06,ゴトウホーム株式会社,,株式会社,福岡県,北九州市八幡東区,祇園原町１３番２１号,00123867,40,108,8050066,,,,,,,2021-08-06,1,,,,,ゴトウホーム,0
2324,7310001017402,新規,0,2021-08-06,2021-08-06,イートラスト株式会社,,株式会社,長崎県,佐世保市,木場田町８番１６号,,42,202,8570041,,,,,,,2021-08-06,1,,,,,イートラスト,0
2325,7310003004134,新規,0,2021-08-06,2021-08-06,日本アグテック合同会社,,合同会社,長崎県,長崎市,江戸町５番８号第５一ノ瀬中央橋ビル５階,,42,201,8500861,,,,,,,2021-08-06,1,,,,,ニホンアグテック,0
2338,7360003011357,新規,0,2021-08-06,2021-08-06,合同会社仲嶺エクステリア工業,,合同会社,沖縄県,中頭郡中城村,字登又２３３番地,,47,328,9012421,,,,,,,2021-08-06,1,,,,,ナカミネエクステリアコウギョウ,0
2342,7370005010323,新規,0,2021-08-06,2021-08-06,一般社団法人みらい創造あぐり,,その他の設立登記法人,宮城県,栗原市,一迫真坂字清水田崎４番地,,04,213,9872308,,,,,,,2021-08-06,1,,,,,ミライソウゾウアグリ,0
2349,7380001032097,新規,0,2021-08-06,2021-08-06,株式会社小椋林業,,株式会社,福島県,会津若松市,河東町南高野字向原１０２番地１,,07,202,9693441,,,,,,,2021-08-06,1,,,,,,0
2351,7380003004986,新規,0,2021-08-06,2021-08-06,合同会社明治電工,,合同会社,福島県,福島市,飯野町明治字水原岫１０番地の１,,07,201,9601302,,,,,,,2021-08-06,1,,,,,メイジデンコウ,0
2352,7380003004994,新規,0,2021-08-06,2021-08-06,琉球ビジネスクリエート合同会社,,合同会社,福島県,郡山市,虎丸町１２番１２号Ｄ’クラディア虎丸７０２号,,07,203,9638014,,,,,,,2021-08-06,1,,,,,,0
2365,7470001018649,新規,0,2021-08-06,2021-08-06,株式会社大西工業,,株式会社,香川県,高松市,春日町６９５番地３,,37,201,7610101,,,,,,,2021-08-06,1,,,,,オオニシコウギョウ,0
2374,7700150104291,新規,0,2021-08-06,2021-08-06,Ａａｓｉｙａ　Ａｕｔｏ　Ｗｉｎｇｓ,,外国会社等,千葉県,富里市,立沢新田８６番地１４７オフィスＢ号,,12,233,2860215,スリランカ民主社会主義共和国、クリヤピティヤ、パディウェラロード、６８－２,,,,,,2021-08-06,1,,,,,アーシヤオートウイングス,0
2382,8010001220266,新規,0,2021-08-06,2021-08-06,賽茁霖機械株式会社,00123864,株式会社,東京都,中央区,東日本橋２丁目２８番５号５０８,,13,102,1030004,,,,,,,2021-08-06,1,,,,,サイセツリンキカイ,0
2383,8010001220299,新規,0,2021-08-06,2021-08-06,株式会社リメイク,,株式会社,東京都,文京区,目白台１丁目１７番１号目白台ヒルズ２０２,,13,105,1120015,,,,,,,2021-08-06,1,,,,,リメイク,0
2387,8010003035530,新規,0,2021-08-06,2021-08-06,合同会社知恵の泉,,合同会社,東京都,中央区,日本橋浜町３丁目３９番１０－１１０４号,,13,102,1030007,,,,,,,2021-08-06,1,,,,,チエノイズミ,0
2392,8010101014782,新規,0,2021-08-06,2021-08-06,ｐｏｓｉｉ株式会社,,株式会社,東京都,八王子市,大谷町３５５番地１,,13,201,1920034,,,,,,,2021-08-06,1,,,,,,0
2395,8010401161886,新規,0,2021-08-06,2021-08-06,ＣｒｉｓｓＣｒｏｓｓＣｏｎｎｅＸ株式会社,,株式会社,東京都,港区,南麻布５丁目１番１０号,,13,103,1060047,,,,,,,2021-08-06,1,,,,,クリスクロスコネックス,0
2396,8010401161894,新規,0,2021-08-06,2021-08-06,株式会社スピリッツ・インベストメント,,株式会社,東京都,港区,赤坂３丁目９番１８号赤坂見附ＫＩＴＡＹＡＭＡビル５階,,13,103,1070052,,,,,,,2021-08-06,1,,,,,スピリッツインベストメント,0
2397,8010401161928,新規,0,2021-08-06,2021-08-06,ＵＬ　Ｍｅｄテック株式会社,,株式会社,東京都,港区,南青山２丁目２番１５号ウィン青山９４２,,13,103,1070062,,,,,,,2021-08-06,1,,,,,ユエルメェッドテック,0
2398,8010401161936,新規,0,2021-08-06,2021-08-06,株式会社彩建築計画,,株式会社,東京都,港区,赤坂６丁目１６番１５－２０１号,,13,103,1070052,,,,,,,2021-08-06,1,,,,,サイケンチクケイカク,0
2399,8010401161944,新規,0,2021-08-06,2021-08-06,株式会社ＳＡＩＫＯＮ,,株式会社,東京都,港区,赤坂６丁目６番２３号,,13,103,1070052,,,,,,,2021-08-06,1,,,,,サイコン,0
2404,8010601059773,新規,0,2021-08-06,2021-08-06,株式会社スマイル,,株式会社,東京都,江東区,平野１丁目５番２号,,13,108,1350023,,,,,,,2021-08-06,1,,,,,スマイル,0
2406,8010701041359,新規,0,2021-08-06,2021-08-06,株式会社コントリビューション,,株式会社,東京都,品川区,西五反田８丁目３番８－８０６号,,13,109,1410031,,,,,,,2021-08-06,1,,,,,コントリビューション,0
2407,8010701041367,新規,0,2021-08-06,2021-08-06,株式会社アール,,株式会社,東京都,品川区,南品川１丁目１番３号,,13,109,1400004,,,,,,,2021-08-06,1,,,,,アール,0
2417,8011001142112,新規,0,2021-08-06,2021-08-06,株式会社ラッセルエステート,,株式会社,東京都,目黒区,下目黒２丁目２３番２１号,,13,110,1530064,,,,,,,2021-08-06,1,,,,,ラッセルエステート,0
2418,8011003013162,新規,0,2021-08-06,2021-08-06,合同会社ｋｔｋｒ,,合同会社,東京都,渋谷区,神宮前６丁目２３番４号桑野ビル２階,,13,113,1500001,,,,,,,2021-08-06,1,,,,,キタコレ,0
2420,8011101095895,新規,0,2021-08-06,2021-08-06,未来パートナーズ株式会社,,株式会社,東京都,新宿区,大久保１丁目４－２０,,13,104,1690072,,,,,,,2021-08-06,1,,,,,,0
2421,8011101095904,新規,0,2021-08-06,2021-08-06,株式会社ＨＥＡＲＴＳ,,株式会社,東京都,新宿区,新宿５丁目１７番６号新宿三光町ハイム６０３号,,13,104,1600022,,,,,,,2021-08-06,1,,,,,ハーツ,0
2422,8011101095929,新規,0,2021-08-06,2021-08-06,ＫＥＲＩＯＮ株式会社,,株式会社,東京都,新宿区,天神町３０番地８,,13,104,1620808,,,,,,,2021-08-06,1,,,,,ケリオン,0
2425,8011103010919,新規,0,2021-08-06,2021-08-06,合同会社ＰｕｎｙＵ　Ｍａｎａｇｅｍｅｎｔ,,合同会社,東京都,新宿区,百人町２丁目２６番９号９０１,,13,104,1690073,,,,,,,2021-08-06,1,,,,,プニュマネジメント,0
2426,8011203003608,新規,0,2021-08-06,2021-08-06,合同会社イレブンエイド,,合同会社,東京都,中野区,本町３丁目２９番１０号ヴェルティ中野２０２,,13,114,1640012,,,,,,,2021-08-06,1,,,,,イレブンエイド,0
2427,8011301027087,新規,0,2021-08-06,2021-08-06,経営支援株式会社,,株式会社,東京都,杉並区,成田東５丁目３９番１０号,,13,115,1660015,,,,,,,2021-08-06,1,,,,,ケイエイシエン,0
2434,8011801039557,新規,0,2021-08-06,2021-08-06,株式会社ハイオネスト,,株式会社,東京都,足立区,谷中４丁目４番１７号コーポテンソウ１階,,13,121,1200006,,,,,,,2021-08-06,1,,,,,,0
2438,8012301012657,新規,0,2021-08-06,2021-08-06,株式会社インプル,,株式会社,東京都,町田市,南町田３丁目３０番１－４２２号,,13,209,1940005,,,,,,,2021-08-06,1,,,,,インプル,0
2439,8012401038164,新規,0,2021-08-06,2021-08-06,株式会社ｈｕｉｔ,,株式会社,東京都,稲城市,矢野口２６６番地６,,13,225,2060812,,,,,,,2021-08-06,1,,,,,ユイット,0
2440,8012403004973,新規,0,2021-08-06,2021-08-06,Ｃａｐｉｔａｌ　ＣＯ合同会社,,合同会社,東京都,狛江市,岩戸南３丁目２５番２６,,13,219,2010005,,,,,,,2021-08-06,1,,,,,キャピタルコー,0
2458,8020001142476,新規,0,2021-08-06,2021-08-06,株式会社エムラ工業,,株式会社,神奈川県,横浜市鶴見区,北寺尾５丁目１０番５－２０２号,,14,101,2300074,,,,,,,2021-08-06,1,,,,,エムラコウギョウ,0
2459,8020001142501,新規,0,2021-08-06,2021-08-06,株式会社金子設計ホールディングス,,株式会社,神奈川県,横浜市磯子区,西町５番１１号,,14,107,2350007,,,,,,,2021-08-06,1,,,,,カネコセッケイホールディングス,0
2460,8020001142526,新規,0,2021-08-06,2021-08-06,アップリンク株式会社,,株式会社,神奈川県,横浜市青葉区,鉄町２３１９番地４,,14,117,2250025,,,,,,,2021-08-06,1,,,,,アップリンク,0
2461,8020001142542,新規,0,2021-08-06,2021-08-06,株式会社ＭａａＳ　Ｃｒｅａｔｉｖｅ,,株式会社,神奈川県,横浜市西区,平沼１丁目４０－１嶋森ビル８階,,14,103,2200023,,,,,,,2021-08-06,1,,,,,マースクリエイティブ,0
2467,8020003020275,新規,0,2021-08-06,2021-08-06,合同会社ＫＥＹ　ＩＩ,,合同会社,神奈川県,横浜市磯子区,森１丁目１０番２０－７０１号,,14,107,2350023,,,,,,,2021-08-06,1,,,,,ケイツー,0
2468,8020003020291,新規,0,2021-08-06,2021-08-06,大福合同会社,,合同会社,神奈川県,横浜市保土ケ谷区,西谷４丁目７番１４号グリーンヒルカミ１－２－Ｄ号,,14,106,2400054,,,,,,,2021-08-06,1,,,,,ダイフク,0
2469,8020005015158,新規,0,2021-08-06,2021-08-06,一般社団法人ニート引きこもり自立支援協会,,その他の設立登記法人,神奈川県,横浜市青葉区,美しが丘１丁目１３番地１０吉村ビル１０７号,,14,117,2250002,,,,,,,2021-08-06,1,,,,,ニートヒキコモリジリツシエンキョウカイ,0
2472,8021001073570,新規,0,2021-08-06,2021-08-06,ＫＡ　ＰＬＵＳ株式会社,,株式会社,神奈川県,綾瀬市,上土棚南４丁目１５番５６号,,14,218,2521114,,,,,,,2021-08-06,1,,,,,カープラス,0
2473,8021001073579,新規,0,2021-08-06,2021-08-06,株式会社ＶＥＮＴ３５８,,株式会社,神奈川県,逗子市,桜山６丁目１９番５号,,14,208,2490005,,,,,,,2021-08-06,1,,,,,ヴェントサンゴウハチ,0
2474,8021001073595,新規,0,2021-08-06,2021-08-06,株式会社２４６,,株式会社,神奈川県,鎌倉市,稲村ガ崎３丁目７番３５号,,14,204,2480024,,,,,,,2021-08-06,1,,,,,ニイヨンロク,0
2475,8021001073604,新規,0,2021-08-06,2021-08-06,株式会社アクアどうぶつ病院,,株式会社,神奈川県,秦野市,上今川町５番２２号,,14,211,2570052,,,,,,,2021-08-06,1,,,,,アクアドウブツビョウイン,0
2484,8030001143630,新規,0,2021-08-06,2021-08-06,インベスト通産株式会社,,株式会社,埼玉県,上尾市,小泉６丁目１９番１４,,11,219,3620063,,,,,,,2021-08-06,1,,,,,インベストツウサン,0
2485,8030001143639,新規,0,2021-08-06,2021-08-06,株式会社十夢建材,,株式会社,埼玉県,川越市,南大塚４丁目３番地１９,,11,201,3501162,,,,,,,2021-08-06,1,,,,,トムケンザイ,0
2486,8030001143655,新規,0,2021-08-06,2021-08-06,株式会社ＥＧＡＯ,,株式会社,埼玉県,本庄市,前原１丁目１３番２１号,,11,211,3670047,,,,,,,2021-08-06,1,,,,,エガオ,0
2487,8030001143696,新規,0,2021-08-06,2021-08-06,ビレッジアップドリーム株式会社,,株式会社,埼玉県,川口市,差間３丁目１０番１０号リーリエ２０３号,,11,203,3330816,,,,,,,2021-08-06,1,,,,,ビレッジアップドリーム,0
2488,8030001143713,新規,0,2021-08-06,2021-08-06,大塚テッラー株式会社,,株式会社,埼玉県,さいたま市大宮区,浅間町１丁目４１番地２,,11,103,3300842,,,,,,,2021-08-06,1,,,,,オオツカテッラー,0
2489,8030001143721,新規,0,2021-08-06,2021-08-06,株式会社ヨシゾー,,株式会社,埼玉県,所沢市,大字山口２６４番地の２,,11,208,3591145,,,,,,,2021-08-06,1,,,,,ヨシゾー,0
2490,8030001143738,新規,0,2021-08-06,2021-08-06,株式会社Ｇｉｆｔｙ　Ｔｒａｄｉｎｇ,,株式会社,埼玉県,久喜市,久喜中央４丁目６番１５号,,11,232,3460003,,,,,,,2021-08-06,1,,,,,ギフティトレーディング,0
2493,8030003017675,新規,0,2021-08-06,2021-08-06,一兆商事合同会社,,合同会社,埼玉県,戸田市,下前１丁目１１番２０号,,11,224,3350016,,,,,,,2021-08-06,1,,,,,イッチョウショウジ,0
2494,8030003017717,新規,0,2021-08-06,2021-08-06,合同会社サカワホールディングス,,合同会社,埼玉県,戸田市,大字新曽２３４２番地の５,,11,224,3350021,,,,,,,2021-08-06,1,,,,,サカワホールディングス,0
2495,8030003017741,新規,0,2021-08-06,2021-08-06,ＪＡＭ合同会社,,合同会社,埼玉県,上尾市,上町２丁目７－５,,11,219,3620037,,,,,,,2021-08-06,1,,,,,ジャム,0
2501,8040001119670,新規,0,2021-08-06,2021-08-06,株式会社畑中工業,,株式会社,千葉県,八街市,八街に１０６番地１２９,,12,230,2891103,,,,,,,2021-08-06,1,,,,,ハタナカコウギョウ,0
2502,8040001119720,新規,0,2021-08-06,2021-08-06,株式会社セーラムシステムズ,,株式会社,千葉県,四街道市,旭ケ丘３丁目１２番１０号,,12,228,2840024,,,,,,,2021-08-06,1,,,,,セーラムシステムズ,0
2504,8040003018301,新規,0,2021-08-06,2021-08-06,ファミリータイズ合同会社,,合同会社,千葉県,館山市,八幡６６０－１レオネクストオリーブガーデン２０６,,12,205,2940047,,,,,,,2021-08-06,1,,,,,ファミリータイズ,0
2507,8050003006016,新規,0,2021-08-06,2021-08-06,合同会社ＯＯＭ,,合同会社,茨城県,つくば市,梅園２丁目２番地２０,,08,220,3050045,,,,,,,2021-08-06,1,,,,,オーム,0
2510,8060001033960,新規,0,2021-08-06,2021-08-06,株式会社ＨＡＬＩＭ　ＴＲＡＤＩＮＧ,,株式会社,栃木県,栃木市,藤岡町甲２１０４番地１,,09,203,3231105,,,,,,,2021-08-06,1,,,,,ハリムトレーディング,0
2511,8060001033985,新規,0,2021-08-06,2021-08-06,株式会社ＪＡＲＡ　ＩＮＴＥＲＮＡＴＩＯＮＡＬ,,株式会社,栃木県,佐野市,久保町２２７番地,,09,204,3270845,,,,,,,2021-08-06,1,,,,,ジャラインターナショナル,0
2514,8060003003771,新規,0,2021-08-06,2021-08-06,ＡＮｓｃｅｎｅ合同会社,,合同会社,栃木県,宇都宮市,若松原１丁目２３番１６号,,09,201,3210139,,,,,,,2021-08-06,1,,,,,エイエヌシーン,0
2518,8070001038315,新規,0,2021-08-06,2021-08-06,株式会社Ｃｏｃｏｆｕｗａｔ,,株式会社,群馬県,高崎市,綿貫町１２８番地９,,10,202,3701207,,,,,,,2021-08-06,1,,,,,ココフワット,0
2525,8080101022705,新規,0,2021-08-06,2021-08-06,株式会社函配,,株式会社,静岡県,田方郡函南町,柏谷６８９番地の１６,,22,325,4190112,,,,,,,2021-08-06,1,,,,,カンパイ,0
2528,8080103002399,新規,0,2021-08-06,2021-08-06,合同会社ＥｚＰｚ,,合同会社,静岡県,沼津市,原町中１丁目６－５,,22,203,4100311,,,,,,,2021-08-06,1,,,,,イージーピージー,0
2536,8110005016691,新規,0,2021-08-06,2021-08-06,社会保険労務士法人あおば労務,,その他の設立登記法人,新潟県,新潟市中央区,堀之内南３丁目１番２１号,,15,103,9500982,,,,,,,2021-08-06,1,,,,,,0
2547,8120001239510,新規,0,2021-08-06,2021-08-06,株式会社ＧＲＯＷ,,株式会社,大阪府,大阪市西区,南堀江３丁目７番１２号５０１,,27,106,5500015,,,,,,,2021-08-06,1,,,,,グロウ,0
2548,8120001239519,新規,0,2021-08-06,2021-08-06,株式会社ライクプレイス,,株式会社,大阪府,大阪市中央区,本町２丁目３番４号,,27,128,5410053,,,,,,,2021-08-06,1,,,,,ライクプレイス,0
2549,8120001239527,新規,0,2021-08-06,2021-08-06,株式会社エスコーポレーション,,株式会社,大阪府,大阪市北区,長柄西２丁目１１番２４－１４０６号,,27,127,5310061,,,,,,,2021-08-06,1,,,,,エスコーポレーション,0
2550,8120001239535,新規,0,2021-08-06,2021-08-06,株式会社サインプラス,,株式会社,大阪府,大阪市浪速区,元町２丁目１３番３６号伊勢田ビル４０５,,27,111,5560016,,,,,,,2021-08-06,1,,,,,サインプラス,0
2551,8120001239568,新規,0,2021-08-06,2021-08-06,株式会社ＳＡＮ　ＮＥＸＡＳ　ＤＵＯ,,株式会社,大阪府,大阪市中央区,南船場２丁目６番３号第２．ＢＳＢＵＩＬＤＩＮＧ５０１,,27,128,5420081,,,,,,,2021-08-06,1,,,,,サンネクサスデュオ,0
2552,8120001239592,新規,0,2021-08-06,2021-08-06,株式会社坂田工務店,,株式会社,大阪府,門真市,沖町２８番１１－１号,,27,223,5710022,,,,,,,2021-08-06,1,,,,,サカタコウムテン,0
2559,8120003019951,新規,0,2021-08-06,2021-08-06,合同会社七尾発電所,,合同会社,大阪府,大阪市中央区,北浜１丁目１番１９号,,27,128,5410041,,,,,,,2021-08-06,1,,,,,ナナオハツデンショ,0
2560,8120003019976,新規,0,2021-08-06,2021-08-06,Ｔ＆Ａメディカル合同会社,,合同会社,大阪府,枚方市,渚栄町７番１号,,27,210,5731172,,,,,,,2021-08-06,1,,,,,ティーアンドエーメディカル,0
2561,8120003019992,新規,0,2021-08-06,2021-08-06,合同会社ＲＨＹ,,合同会社,大阪府,大阪市東淀川区,豊里７丁目１９番地７号第１２高光マンション４０２号室,,27,114,5330013,,,,,,,2021-08-06,1,,,,,アールエイチワイ,0
2566,8120901044737,新規,0,2021-08-06,2021-08-06,株式会社ラフエイト,,株式会社,大阪府,茨木市,中穂積１丁目６番４６号松田ビル３階,,27,211,5670034,,,,,,,2021-08-06,1,,,,,ラフエイト,0
2567,8120901044745,新規,0,2021-08-06,2021-08-06,フォルテック株式会社,,株式会社,大阪府,箕面市,粟生間谷西５丁目３番１号,,27,220,5620023,,,,,,,2021-08-06,1,,,,,フォルテック,0
2570,8122001035055,新規,0,2021-08-06,2021-08-06,株式会社ｓｔｏｃＵｐ,,株式会社,大阪府,東大阪市,箱殿町１０番１９号,,27,227,5798038,,,,,,,2021-08-06,1,,,,,ストックアップ,0
2571,8122001035071,新規,0,2021-08-06,2021-08-06,Ｓ．Ｃ．Ｓ株式会社,,株式会社,大阪府,東大阪市,楠根３丁目８番２７号,,27,227,5770006,,,,,,,2021-08-06,1,,,,,エスシーエス,0
2580,8130005016244,新規,0,2021-08-06,2021-08-06,一般社団法人京都バリアフリーツアーセンター,,その他の設立登記法人,京都府,京都市南区,東九条南烏丸町３７番地３,,26,107,6018041,,,,,,,2021-08-06,1,,,,,キョウトバリアフリーツアーセンター,0
2589,8140001122557,新規,0,2021-08-06,2021-08-06,株式会社エスエムケー販売企画,,株式会社,兵庫県,神戸市北区,鈴蘭台西町１丁目２番１２号,,28,109,6511114,,,,,,,2021-08-06,1,,,,,エスエムケーハンバイキカク,0
2590,8140001122615,新規,0,2021-08-06,2021-08-06,株式会社ＰＣＭ,,株式会社,兵庫県,西宮市,山口町阪神流通センター１丁目１０８番地,,28,204,6511431,,,,,,,2021-08-06,1,,,,,ピーシーエム,0
2598,8150003002450,新規,0,2021-08-06,2021-08-06,合同会社ハート＆クローバー,,合同会社,奈良県,奈良市,宝来３丁目１番１０号,,29,201,6310845,,,,,,,2021-08-06,1,,,,,ハートアンドクローバー,0
2602,8180001147278,新規,0,2021-08-06,2021-08-06,Ｋ・Ｔコンサルティング株式会社,,株式会社,愛知県,名古屋市名東区,藤里町１２０１番地（５棟７０１号）,,23,115,4650036,,,,,,,2021-08-06,1,,,,,ケーティーコンサルティング,0
2603,8180001147294,新規,0,2021-08-06,2021-08-06,青山株式会社,,株式会社,愛知県,名古屋市昭和区,山里町７４番地八事パークマンション７０９号,,23,107,4660824,,,,,,,2021-08-06,1,,,,,アオヤマ,0
2608,8180003022818,新規,0,2021-08-06,2021-08-06,合同会社平和園,,合同会社,愛知県,名古屋市昭和区,広路通６丁目１番地の３,,23,107,4660854,,,,,,,2021-08-06,1,,,,,ヘイワエン,0
2618,8190001028592,新規,0,2021-08-06,2021-08-06,株式会社ツクモ,,株式会社,三重県,鈴鹿市,東磯山３丁目２番１号,,24,207,5100257,,,,,,,2021-08-06,1,,,,,ツクモ,0
2628,8220001024349,新規,0,2021-08-06,2021-08-06,株式会社かのん,,株式会社,石川県,能美市,緑が丘６丁目３０番地,,17,211,9231226,,,,,,,2021-08-06,1,,,,,カノン,0
2632,8240001058361,新規,0,2021-08-06,2021-08-06,株式会社シナジーホールディングス,,株式会社,広島県,東広島市,西条町寺家６８４０番地１,,34,212,7390041,,,,,,,2021-08-06,1,,,,,シナジーホールディングス,0
2638,8270003001333,新規,0,2021-08-06,2021-08-06,合同会社ＡＰＦ,,合同会社,鳥取県,東伯郡琴浦町,大字赤碕４６１番地２,,31,371,6892501,,,,,,,2021-08-06,1,,,,,エーピーエフ,0
2643,8290001094030,新規,0,2021-08-06,2021-08-06,株式会社八女スイーツ,,株式会社,福岡県,八女市,蒲原５２０,,40,210,8340064,,,,,,,2021-08-06,1,,,,,ヤメスイーツ,0
2644,8290001094195,新規,0,2021-08-06,2021-08-06,日本電統サービス株式会社,,株式会社,福岡県,福岡市博多区,東比恵３丁目１４－１４－３０２,,40,132,8120007,,,,,,,2021-08-06,1,,,,,ニホンデントウサービス,0
2647,8290003011479,新規,0,2021-08-06,2021-08-06,合同会社ペアレンツ,,合同会社,福岡県,福岡市博多区,住吉４丁目５番１号,,40,132,8120018,,,,,,,2021-08-06,1,,,,,ペアレンツ,0
2649,8290801027676,新規,0,2021-08-06,2021-08-06,株式会社Ｋ－ＮＴＳ,,株式会社,福岡県,北九州市小倉南区,曽根北町５番１４号,,40,107,8000229,,,,,,,2021-08-06,1,,,,,ケーエヌティーエス,0
2650,8290801027692,新規,0,2021-08-06,2021-08-06,株式会社ＤＨ,,株式会社,福岡県,北九州市小倉北区,紺屋町２－４クリタビル１Ｆ,,40,106,8020081,,,,,,,2021-08-06,1,,,,,ディーエイチ,0
2651,8300001012576,新規,0,2021-08-06,2021-08-06,株式会社ＯｎｅＳｔｏｐ・Ｈｉｒｏｏ,,株式会社,佐賀県,佐賀市,大和町大字尼寺６５６番地５,,41,201,8400201,,,,,,,2021-08-06,1,,,,,ワンストップヒロー,0
2654,8310003004133,新規,0,2021-08-06,2021-08-06,合同会社玉丸水産,,合同会社,長崎県,南松浦郡新上五島町,飯ノ瀬戸郷２８２番地７,,42,411,8574414,,,,,,,2021-08-06,1,,,,,タママルスイサン,0
2657,8330003009007,新規,0,2021-08-06,2021-08-06,合同会社グランジュテ,,合同会社,熊本県,熊本市中央区,大江４丁目９番２０号,,43,101,8620971,,,,,,,2021-08-06,1,,,,,グランジュテ,0
2660,8340001023974,新規,0,2021-08-06,2021-08-06,株式会社さつま薬局,,株式会社,鹿児島県,鹿児島市,吉野町８６０３番地１６,,46,201,8920871,,,,,,,2021-08-06,1,,,,,サツマヤッキョク,0
2661,8340001023999,新規,0,2021-08-06,2021-08-06,大鷲工業株式会社,,株式会社,鹿児島県,出水市,武本１５３９８番地１,,46,208,8990215,,,,,,,2021-08-06,1,,,,,オオシュウコウギョウ,0
2662,8340001024007,新規,0,2021-08-06,2021-08-06,株式会社勇伸工業,,株式会社,鹿児島県,霧島市,国分重久２３１番地２,,46,218,8994301,,,,,,,2021-08-06,1,,,,,ユウシンコウギョウ,0
2666,8360001029177,新規,0,2021-08-06,2021-08-06,株式会社チューズデー,,株式会社,沖縄県,中頭郡北谷町,美浜２丁目６番地７,,47,326,9040115,,,,,,,2021-08-06,1,,,,,チューズデー,0
2671,8370001047426,新規,0,2021-08-06,2021-08-06,株式会社コネクト,,株式会社,宮城県,仙台市青葉区,中央２丁目７番３０－５Ｆ,,04,101,9800021,,,,,,,2021-08-06,1,,,,,コネクト,0
2678,8380003004985,新規,0,2021-08-06,2021-08-06,合同会社誠屋商店,,合同会社,福島県,白河市,登り町１４番地,,07,205,9610962,,,,,,,2021-08-06,1,,,,,マトコヤショウテン,0
2679,8380003004993,新規,0,2021-08-06,2021-08-06,Ｎｐｌｕｓ－ｏｎｅ　Ｊａｐａｎ合同会社,,合同会社,福島県,福島市,町庭坂字新町１４－１アピオンＢ２０１,,07,201,9602261,,,,,,,2021-08-06,1,,,,,エヌプラスワンジャパン,0
2681,8400001015560,新規,0,2021-08-06,2021-08-06,旦誠産業株式会社,,株式会社,岩手県,滝沢市,巣子９６４番３７マトリョーシカ１０１,,03,216,0200611,,,,,,,2021-08-06,1,,,,,タンセイサンギョウ,0
2686,8420001017539,新規,0,2021-08-06,2021-08-06,サングレイス株式会社,,株式会社,青森県,三戸郡五戸町,字追分５番地２４,,02,442,0391537,,,,,,,2021-08-06,1,,,,,サングレイス,0
2687,8420001017547,新規,0,2021-08-06,2021-08-06,株式会社ＡＩＭＥＲ,,株式会社,青森県,平川市,柏木町柳田２１９番地２,,02,210,0360104,,,,,,,2021-08-06,1,,,,,エメ,0
2690,8430001084677,新規,0,2021-08-06,2021-08-06,株式会社ＨＡＴＣ,,株式会社,北海道,札幌市中央区,双子山１丁目６番３１号,,01,101,0640946,,,,,,,2021-08-06,1,,,,,エイチエーティーシー,0
2693,8430003013007,新規,0,2021-08-06,2021-08-06,合同会社バレストラ,,合同会社,北海道,札幌市中央区,南三条西１２丁目３２６番地２ダイアパレス大通公園南４０１号,,01,101,0600063,,,,,,,2021-08-06,1,,,,,バレストラ,0
2698,8460001005580,新規,0,2021-08-06,2021-08-06,株式会社タカハシ内装,,株式会社,北海道,釧路市,鶴野東３丁目２２番２号,,01,206,0840923,,,,,,,2021-08-06,1,,,,,タカハシナイソウ,0
2704,8480003001700,新規,0,2021-08-06,2021-08-06,合同会社ファースト,,合同会社,徳島県,徳島市,庄町５丁目８１番地の１４７,,36,201,7700044,,,,,,,2021-08-06,1,,,,,,0
2719,9010001220190,新規,0,2021-08-06,2021-08-06,株式会社クロストラクト,,株式会社,東京都,千代田区,神田和泉町１番地６の１３ＫＨビル２階,,13,101,1010024,,,,,,,2021-08-06,1,,,,,クロストラクト,0
2720,9010001220240,新規,0,2021-08-06,2021-08-06,ＨＣ　ＳＵＺＵＫＩ株式会社,,株式会社,東京都,中央区,銀座１丁目２２番１１号銀座大竹ビジデンス２階,,13,102,1040061,,,,,,,2021-08-06,1,,,,,エイチシースズキ,0
2728,9010003035513,新規,0,2021-08-06,2021-08-06,合同会社アール,,合同会社,東京都,文京区,千石３丁目４１番地１５号グランシャリオ千石２０１,,13,105,1120011,,,,,,,2021-08-06,1,,,,,アール,0
2729,9010101014798,新規,0,2021-08-06,2021-08-06,株式会社Ｗ．Ｆ．カンパニー,,株式会社,東京都,八王子市,南陽台３丁目１５番２号,,13,201,1920371,,,,,,,2021-08-06,1,,,,,ダブリューエフカンパニー,0
2734,9010401161852,新規,0,2021-08-06,2021-08-06,モイトゥール株式会社,,株式会社,東京都,港区,赤坂２丁目１４番２７国際新赤坂ビル東館Ｂ１階１０９区外Ｔ－ＴＩＭＥ内,,13,103,1070052,,,,,,,2021-08-06,1,,,,,モイトゥール,0
2735,9010401161885,新規,0,2021-08-06,2021-08-06,メディカルアイソトープ・プライムジャパン株式会社,,株式会社,東京都,港区,白金１丁目１５番２９号,,13,103,1080072,,,,,,,2021-08-06,1,,,,,メディカルアイソトーププライムジャパン,0
2736,9010401161893,新規,0,2021-08-06,2021-08-06,アスベスト調査分析株式会社,,株式会社,東京都,港区,新橋４丁目２７番７号田村町Ｓｈｉｎｓｈｏｄｏｈビル４階,,13,103,1050004,,,,,,,2021-08-06,1,,,,,アスベストチョウサブンセキ,0
2737,9010401161902,新規,0,2021-08-06,2021-08-06,リンクエッジ株式会社,,株式会社,東京都,港区,三田１丁目３番３７号板金会館２階,,13,103,1080073,,,,,,,2021-08-06,1,,,,,リンクエッジ,0
2738,9010401161943,新規,0,2021-08-06,2021-08-06,株式会社Ｏｙａｇｉ,,株式会社,東京都,港区,白金６丁目１２番２０号,,13,103,1080072,,,,,,,2021-08-06,1,,,,,オオヤギ,0
2739,9010403025849,新規,0,2021-08-06,2021-08-06,合同会社ＫＡＮＯＡ,,合同会社,東京都,港区,浜松町２丁目２番１５号浜松町ダイヤビル２Ｆ,,13,103,1050013,,,,,,,2021-08-06,1,,,,,カノア,0
2740,9010403025873,新規,0,2021-08-06,2021-08-06,Ｊａｐａｎ　Ｓｎｏｗ　Ａｄｖｅｎｔｕｒｅｓ合同会社,,合同会社,東京都,港区,麻布台２丁目１番２－１４０６号,,13,103,1060041,,,,,,,2021-08-06,1,,,,,ジャパンスノーアドベンチャーズ,0
2742,9010405020088,新規,0,2021-08-06,2021-08-06,青山国際税理士法人,,その他の設立登記法人,東京都,港区,南青山２丁目１３番２号,,13,103,1070062,,,,,,,2021-08-06,1,,,,,アオヤマコクサイゼイリシホウジン,0
2743,9010501047654,新規,0,2021-08-06,2021-08-06,株式会社ｐｒｏｔｏ器とタカラモノ,,株式会社,東京都,台東区,蔵前４丁目２０－１２，精華ビル２Ｆ,,13,106,1110051,,,,,,,2021-08-06,1,,,,,プロトウツワトタカラモノ,0
2750,9010803003850,新規,0,2021-08-06,2021-08-06,合同会社アイウエア・キャリアエージェント,,合同会社,東京都,大田区,上池台３丁目３９番９号,,13,111,1450064,,,,,,,2021-08-06,1,,,,,アイウエアキャリアエージェント,0
2755,9010901049234,新規,0,2021-08-06,2021-08-06,株式会社タンタブル,,株式会社,東京都,世田谷区,北沢２丁目３９番６号ＣＯＳ下北沢２０１,,13,112,1550031,,,,,,,2021-08-06,1,,,,,タンタブル,0
2760,9011001142012,新規,0,2021-08-06,2021-08-06,株式会社ＨＯＺＯ,,株式会社,東京都,渋谷区,神宮前６丁目２３番４号－２階,,13,113,1500001,,,,,,,2021-08-06,1,,,,,ホゾ,0
2761,9011001142086,新規,0,2021-08-06,2021-08-06,ｓＶｉｓｉｏｎ株式会社,,株式会社,東京都,渋谷区,神宮前６丁目２３番４号桑野ビル２階,,13,113,1500001,,,,,,,2021-08-06,1,,,,,エスビジョン,0
2763,9011101095903,新規,0,2021-08-06,2021-08-06,株式会社Ｙ．Ｓ．Ｎ,,株式会社,東京都,新宿区,新宿５丁目１７番６号新宿三光町ハイム６０３号,,13,104,1600022,,,,,,,2021-08-06,1,,,,,ワイエスエヌ,0
2764,9011101095928,新規,0,2021-08-06,2021-08-06,ＳｃｉＤｅ　Ｌａｂ株式会社,,株式会社,東京都,新宿区,高田馬場３丁目１番５号サンパティオ高田馬場３０９号,,13,104,1690075,,,,,,,2021-08-06,1,,,,,サイデラボ,0
2765,9011101095960,新規,0,2021-08-06,2021-08-06,株式会社Ｓｋａｔ,,株式会社,東京都,新宿区,四谷２丁目１１番地大村ビル４階,,13,104,1600004,,,,,,,2021-08-06,1,,,,,スキャット,0
2767,9011303004117,新規,0,2021-08-06,2021-08-06,華芽詩合同会社,,合同会社,東京都,杉並区,久我山３丁目４７番１４号シーダー久我山Ⅱ１０２,00123865,13,115,1680082,,,,,,,2021-08-06,1,,,,,ハナメウタ,0
2773,9011601025310,新規,0,2021-08-06,2021-08-06,株式会社ＹＫ,,株式会社,東京都,練馬区,桜台５丁目４５番６号－１,,13,120,1760002,,,,,,,2021-08-06,1,,,,,ワイケイ,0
2774,9011603003363,新規,0,2021-08-06,2021-08-06,合同会社Ｓｙｎｅｒｇｙ　ｃｏｎｓｕｌｔｉｎｇ,,合同会社,東京都,練馬区,大泉町４丁目５－７,,13,120,1780062,,,,,,,2021-08-06,1,,,,,,0
2776,9012301012656,新規,0,2021-08-06,2021-08-06,株式会社フラットヒルズ,,株式会社,東京都,町田市,金井ヶ丘４丁目３１番１－２０１号,,13,209,1950076,,,,,,,2021-08-06,1,,,,,フラットヒルズ,0
2779,9012401038163,新規,0,2021-08-06,2021-08-06,藤馬商事株式会社,,株式会社,東京都,府中市,小柳町５丁目２０番地の２１,,13,206,1830013,,,,,,,2021-08-06,1,,,,,トウマショウジ,0
2780,9012401038171,新規,0,2021-08-06,2021-08-06,株式会社中原企画,,株式会社,東京都,三鷹市,中原４丁目１４番５号,,13,204,1810005,,,,,,,2021-08-06,1,,,,,ナカハラキカク,0
2783,9012801021000,新規,0,2021-08-06,2021-08-06,株式会社ＳＹＮＣ,,株式会社,東京都,立川市,錦町１丁目３番２７号,,13,202,1900022,,,,,,,2021-08-06,1,,,,,シンク,0
2784,9013301047832,新規,0,2021-08-06,2021-08-06,株式会社志士,,株式会社,東京都,豊島区,目白１丁目３番１７号目白ガーデンヒルズＣ棟３２６号,,13,116,1710031,,,,,,,2021-08-06,1,,,,,シシ,0
2791,9020001142483,新規,0,2021-08-06,2021-08-06,株式会社５０２,,株式会社,神奈川県,横浜市瀬谷区,阿久和西３丁目３２番２１号,,14,114,2460025,,,,,,,2021-08-06,1,,,,,ゴーマルニ,0
2792,9020001142491,新規,0,2021-08-06,2021-08-06,株式会社プライベート・サーヴィス,,株式会社,神奈川県,横浜市西区,岡野１丁目９－７リーベスト岡野ビル１０２,,14,103,2200073,,,,,,,2021-08-06,1,,,,,プライベートサーヴィス,0
2793,9020001142517,新規,0,2021-08-06,2021-08-06,株式会社ウィズユースマイル,,株式会社,神奈川県,横浜市西区,みなとみらい４丁目４番２号横浜ブルーアベニュー１２階,,14,103,2200012,,,,,,,2021-08-06,1,,,,,ウィズユースマイル,0
2794,9020001142525,新規,0,2021-08-06,2021-08-06,利建工業株式会社,,株式会社,神奈川県,横浜市中区,本牧間門４６番３号,,14,104,2310825,,,,,,,2021-08-06,1,,,,,リケンコウギョウ,0
2795,9020001142541,新規,0,2021-08-06,2021-08-06,株式会社横濱疾風伝,,株式会社,神奈川県,横浜市保土ケ谷区,天王町１丁目２２番１８号,,14,106,2400003,,,,,,,2021-08-06,1,,,,,ヨコハマシップウデン,0
2797,9020003020290,新規,0,2021-08-06,2021-08-06,Ｊ・Ｉ・Ｔ・Ｃ合同会社,,合同会社,神奈川県,川崎市川崎区,大島上町１２番１２号,,14,131,2100836,,,,,,,2021-08-06,1,,,,,ジェイアイティーシー,0
2798,9020005015157,新規,0,2021-08-06,2021-08-06,一般社団法人ネイルサロン経営協会,,その他の設立登記法人,神奈川県,横浜市中区,野毛町２丁目１０１番地１,,14,104,2310064,,,,,,,2021-08-06,1,,,,,ネイルサロンケイエイキョウカイ,0
2800,9021001073578,新規,0,2021-08-06,2021-08-06,株式会社ＲＯＹ,,株式会社,神奈川県,大和市,中央林間西５丁目２番７－６０４号,,14,213,2420008,,,,,,,2021-08-06,1,,,,,アールオーワイ,0
2801,9021001073628,新規,0,2021-08-06,2021-08-06,株式会社開榮商事,,株式会社,神奈川県,厚木市,森の里３丁目１２番２－５０１号,,14,212,2430122,,,,,,,2021-08-06,1,,,,,カイエイショウジ,0
2808,9030001143638,新規,0,2021-08-06,2021-08-06,株式会社Ｍ’ｓ,,株式会社,埼玉県,さいたま市北区,土呂町２丁目６７番地１９,,11,102,3310804,,,,,,,2021-08-06,1,,,,,エムズ,0
2809,9030001143654,新規,0,2021-08-06,2021-08-06,株式会社アシプロ,,株式会社,埼玉県,鶴ヶ島市,大字上広谷７９３番地６メイツ若葉ザ・レジデンス１０６号,,11,241,3502203,,,,,,,2021-08-06,1,,,,,アシプロ,0
2810,9030001143662,新規,0,2021-08-06,2021-08-06,株式会社ＫＳホールディングス,,株式会社,埼玉県,さいたま市西区,大字中釘７１５番地７,,11,101,3310077,,,,,,,2021-08-06,1,,,,,ケーエスホールディングス,0
2811,9030001143679,新規,0,2021-08-06,2021-08-06,株式会社ＫＳ,,株式会社,埼玉県,ふじみ野市,大井２９６－２８,,11,245,3560053,,,,,,,2021-08-06,1,,,,,ケーエス,0
2819,9030003017724,新規,0,2021-08-06,2021-08-06,合同会社ＳＳＳ,,合同会社,埼玉県,さいたま市見沼区,春岡２丁目４０番地２２－３０５号,,11,104,3370008,,,,,,,2021-08-06,1,,,,,トリプルエス,0
2821,9040001119538,新規,0,2021-08-06,2021-08-06,Ａ－ｏｎｅ株式会社,,株式会社,千葉県,柏市,根戸４７０番地５８Ｔ’ｓｇａｒｄｅｎ北柏２－１３０４号,,12,217,2770831,,,,,,,2021-08-06,1,,,,,エーワン,0
2825,9040003018300,新規,0,2021-08-06,2021-08-06,クラスタス合同会社,,合同会社,千葉県,千葉市緑区,鎌取町１２１番地６３,,12,105,2660011,,,,,,,2021-08-06,1,,,,,クラスタス,0
2834,9050003006015,新規,0,2021-08-06,2021-08-06,ハッシュキューインターナショナル合同会社,,合同会社,茨城県,土浦市,右籾２９５４番地２０２号,00123868,08,203,3000837,,,,,,,2021-08-06,1,,,,,ハッシュキューインターナショナル,0
2838,9060001033984,新規,0,2021-08-06,2021-08-06,鈴木建築板金株式会社,,株式会社,栃木県,那須塩原市,東栄２丁目４番２１号,,09,213,3250016,,,,,,,2021-08-06,1,,,,,,0
2839,9060003003770,新規,0,2021-08-06,2021-08-06,ライズコンサルティング合同会社,,合同会社,栃木県,大田原市,薄葉２１７９番地１９,,09,210,3240035,,,,,,,2021-08-06,1,,,,,ライズコンサルティング,0
2841,9070001038339,新規,0,2021-08-06,2021-08-06,株式会社ＳＡＫＵＲＡＩ,,株式会社,群馬県,伊勢崎市,羽黒町２７番地１４,,10,204,3720844,,,,,,,2021-08-06,1,,,,,サクライ,0
2845,9070005009889,新規,0,2021-08-06,2021-08-06,医療法人社団凜旺の幹,,その他の設立登記法人,群馬県,高崎市,江木町１７１８番地４,,10,202,3700046,,,,,,,2021-08-06,1,,,,,リンオウノカン,0
2849,9080101022695,新規,0,2021-08-06,2021-08-06,株式会社ＮＩＣＯＬＡ,,株式会社,静岡県,伊東市,八幡野１５８８番地の４４０,,22,208,4130232,,,,,,,2021-08-06,1,,,,,ニコラ,0
2852,9080401025241,新規,0,2021-08-06,2021-08-06,株式会社ハル,,株式会社,静岡県,浜松市浜北区,豊保１８１番地の２０,,22,136,4340017,,,,,,,2021-08-06,1,,,,,ハル,0
2853,9080401025258,新規,0,2021-08-06,2021-08-06,株式会社Ｃｒｏｗｎｋｉｄｓ,,株式会社,静岡県,浜松市中区,曳馬５丁目７番７号,,22,131,4300901,,,,,,,2021-08-06,1,,,,,クラウンキッズ,0
2859,9100001034508,新規,0,2021-08-06,2021-08-06,株式会社ＰＯＬＥＰＯＬＥ,,株式会社,長野県,下伊那郡売木村,２２３番地５,,20,412,3991601,,,,,,,2021-08-06,1,,,,,ポレポレ,0
2862,9110001035950,新規,0,2021-08-06,2021-08-06,星野時宝株式会社,,株式会社,新潟県,上越市,柿崎区柿崎７２４４番地,,15,222,9493216,,,,,,,2021-08-06,1,,,,,ホシノジホウ,0
2863,9110001035959,新規,0,2021-08-06,2021-08-06,株式会社とちたて不動産,,株式会社,新潟県,新潟市中央区,天神１丁目１番地プラーカ３、２Ｆ,,15,103,9500917,,,,,,,2021-08-06,1,,,,,トチタテフドウサン,0
2865,9110003004549,新規,0,2021-08-06,2021-08-06,Ｉｎｎｏｖａｔｉｖｅ円陣合同会社,,合同会社,新潟県,新潟市中央区,上大川前通５番町６３－５３,,15,103,9518068,,,,,,,2021-08-06,1,,,,,イノベーティブエンジン,0
2874,9120001239534,新規,0,2021-08-06,2021-08-06,致勝商事株式会社,,株式会社,大阪府,大阪市東淀川区,東中島５丁目８－１７－１０２,,27,114,5330033,,,,,,,2021-08-06,1,,,,,チショウショウジ,0
2875,9120001239617,新規,0,2021-08-06,2021-08-06,中嶋興業株式会社,,株式会社,大阪府,大阪市中央区,徳井町１丁目３番２号,,27,128,5400025,,,,,,,2021-08-06,1,,,,,ナカジマコウギョウ,0
2878,9120003019959,新規,0,2021-08-06,2021-08-06,もっとネット合同会社,,合同会社,大阪府,大阪市平野区,長吉長原２丁目３番１７号,,27,126,5470016,,,,,,,2021-08-06,1,,,,,モットネット,0
2879,9120003019967,新規,0,2021-08-06,2021-08-06,ｍｏｓｔ　ｌｉｋｅ合同会社,,合同会社,大阪府,大阪市中央区,南新町１丁目１番７号谷四城福ビル２０１号,,27,128,5400024,,,,,,,2021-08-06,1,,,,,モストリーク,0
2880,9120003019991,新規,0,2021-08-06,2021-08-06,ＢＩＳＨＮＵ　ＧＬＯＢＡＬ合同会社,,合同会社,大阪府,大阪市西淀川区,柏里３丁目１番１０号中井ビル３０２号室,,27,113,5550022,,,,,,,2021-08-06,1,,,,,ビシュヌグローバル,0
2882,9120101064072,新規,0,2021-08-06,2021-08-06,株式会社ｌｉｎｋ．Ｓ,,株式会社,大阪府,泉大津市,北豊中町１丁目６番２５－７０７号,,27,206,5950012,,,,,,,2021-08-06,1,,,,,リンクエス,0
2883,9120101064089,新規,0,2021-08-06,2021-08-06,株式会社だんだん,,株式会社,大阪府,堺市西区,浜寺石津町中３丁２番５－３号,,27,144,5928334,,,,,,,2021-08-06,1,,,,,ダンダン,0
2884,9120101064097,新規,0,2021-08-06,2021-08-06,Ｓｈｉｎフロンティア株式会社,,株式会社,大阪府,南河内郡太子町,大字山田２６７６,,27,381,5830992,,,,,,,2021-08-06,1,,,,,シンフロンティア,0
2885,9120101064106,新規,0,2021-08-06,2021-08-06,株式会社西政組,,株式会社,大阪府,和泉市,鍛治屋町１９５番地の３,,27,219,5941117,,,,,,,2021-08-06,1,,,,,ニシマサグミ,0
2886,9120101064122,新規,0,2021-08-06,2021-08-06,株式会社Ｒｅ　ｙｏｕｎｇ　Ｊ,,株式会社,大阪府,富田林市,山中田町１丁目１３番４７号,,27,214,5840045,,,,,,,2021-08-06,1,,,,,リヤングジェイ,0
2892,9120901044736,新規,0,2021-08-06,2021-08-06,株式会社Ｂｌｕｅ　Ｓｋｙ,,株式会社,大阪府,吹田市,山田東２丁目３２－１－３０５,,27,205,5650821,,,,,,,2021-08-06,1,,,,,ブルースカイ,0
2897,9122001035054,新規,0,2021-08-06,2021-08-06,株式会社Ｃａｒ　Ｒｉｓｅ,,株式会社,大阪府,東大阪市,本庄西１丁目８番４１号,,27,227,5780965,,,,,,,2021-08-06,1,,,,,カーライズ,0
2914,9140001122556,新規,0,2021-08-06,2021-08-06,株式会社オスピタリタ,,株式会社,兵庫県,神戸市西区,池上３丁目６番１号メゾンドール西久保Ⅱ２Ｆ,00123862,28,111,6512111,,,,,,,2021-08-06,1,,,,,オスピタリタ,0
2915,9140001122572,新規,0,2021-08-06,2021-08-06,株式会社もったい９,,株式会社,兵庫県,神戸市北区,道場町塩田２０１０番地の１,,28,109,6511502,,,,,,,2021-08-06,1,,,,,モッタイナイン,0
2916,9140001122589,新規,0,2021-08-06,2021-08-06,大西ムーブ株式会社,,株式会社,兵庫県,姫路市,新在家４丁目５番２３号,,28,201,6700095,,,,,,,2021-08-06,1,,,,,オオニシムーブ,0
2917,9140001122597,新規,0,2021-08-06,2021-08-06,大西アセットマネジメント株式会社,,株式会社,兵庫県,姫路市,南駅前町９１番地８－１３０４号,,28,201,6700962,,,,,,,2021-08-06,1,,,,,オオニシアセットマネジメント,0
2918,9140001122630,新規,0,2021-08-06,2021-08-06,株式会社ビジネスキャリア・コンサルティング,,株式会社,兵庫県,神戸市中央区,北長狭通４丁目２番１９号,,28,110,6500012,,,,,,,2021-08-06,1,,,,,ビジネスキャリアコンサルティング,0
2919,9140001122639,新規,0,2021-08-06,2021-08-06,ｉｃａｒｓ株式会社,,株式会社,兵庫県,神戸市中央区,南本町通２丁目２番２号,,28,110,6510074,,,,,,,2021-08-06,1,,,,,アイカーズ,0
2922,9140003016599,新規,0,2021-08-06,2021-08-06,合同会社ＬｅａｐＡｃｔｕａｌｉｚｅ,,合同会社,兵庫県,神戸市垂水区,千鳥が丘３丁目２４番８１号,,28,108,6550011,,,,,,,2021-08-06,1,,,,,リープアクチュアライズ,0
2927,9160001023546,新規,0,2021-08-06,2021-08-06,大橋ＨＭＪ株式会社,,株式会社,滋賀県,近江八幡市,大森町７９－７,,25,204,5230042,,,,,,,2021-08-06,1,,,,,オオハシエッチエムジェー,0
2935,9180001147046,新規,0,2021-08-06,2021-08-06,株式会社キラリエノ,,株式会社,愛知県,知多郡東浦町,大字緒川字東仙台２１番地の９,,23,442,4702102,,,,,,,2021-08-06,1,,,,,キラリエノ,0
2936,9180001147302,新規,0,2021-08-06,2021-08-06,御崎ホールディングス株式会社,,株式会社,愛知県,名古屋市天白区,井の森町４８番地,,23,116,4680047,,,,,,,2021-08-06,1,,,,,ミサキホールディングス,0
2937,9180001147319,新規,0,2021-08-06,2021-08-06,株式会社ヤマコービル,,株式会社,愛知県,名古屋市名東区,極楽２丁目１５９番地,,23,115,4650053,,,,,,,2021-08-06,1,,,,,ヤマコービル,0
2938,9180001147335,新規,0,2021-08-06,2021-08-06,株式会社青山商会,,株式会社,愛知県,半田市,花園町５丁目１１番地の１,,23,205,4750833,,,,,,,2021-08-06,1,,,,,アオヤマショウカイ,0
2943,9180003022825,新規,0,2021-08-06,2021-08-06,合同会社ＮＯＲＴＨ　ＲＩＶＥＲ,,合同会社,愛知県,江南市,赤童子町福住２９番地３,,23,217,4838165,,,,,,,2021-08-06,1,,,,,ノースリバー,0
2952,9190001028583,新規,0,2021-08-06,2021-08-06,株式会社Ｗｈｉｔｅ　Ｐｉｃｔｕｒｅ,,株式会社,三重県,伊賀市,予野西出２６２４番地,,24,216,5181152,,,,,,,2021-08-06,1,,,,,ホワイトピクチャー,0
2960,9200005013233,新規,0,2021-08-06,2021-08-06,医療法人歯科医院はやし,,その他の設立登記法人,岐阜県,多治見市,宝町９丁目３２番,,21,204,5070054,,,,,,,2021-08-06,1,,,,,シカイインハヤシ,0
2964,9220001024356,新規,0,2021-08-06,2021-08-06,株式会社ａｎｄ　ＰａＢＬｏ,,株式会社,石川県,金沢市,駅西本町１丁目１５番５号（ポレスター駅西本町・６０１号）,,17,201,9200025,,,,,,,2021-08-06,1,,,,,アンドパブロ,0
2970,9230003001708,新規,0,2021-08-06,2021-08-06,合同会社真心,,合同会社,富山県,富山市,下赤江町１丁目１０番３４号,,16,201,9300813,,,,,,,2021-08-06,1,,,,,シンシン,0
2980,9250001019056,新規,0,2021-08-06,2021-08-06,株式会社ＰＩＥＣＥ　ＣＯＬＯＲ,,株式会社,山口県,下関市,長府新四王司町６番４号,,35,201,7520941,,,,,,,2021-08-06,1,,,,,ピースカラー,0
2984,9260001035861,新規,0,2021-08-06,2021-08-06,株式会社悠楽,,株式会社,岡山県,岡山市中区,平井１２２９番地１７,,33,102,7038282,,,,,,,2021-08-06,1,,,,,ユウラク,0
2987,9270003001332,新規,0,2021-08-06,2021-08-06,合同会社古谷,,合同会社,鳥取県,東伯郡琴浦町,大字槻下１１４５番地３,,31,371,6892305,,,,,,,2021-08-06,1,,,,,フルタニ,0
2993,9290003011478,新規,0,2021-08-06,2021-08-06,ａｓｈｅｎ合同会社,,合同会社,福岡県,福岡市中央区,赤坂１丁目１０－９ロクバイビル３階,,40,133,8100042,,,,,,,2021-08-06,1,,,,,アッシェン,0
2995,9290801027683,新規,0,2021-08-06,2021-08-06,三六商店株式会社,,株式会社,福岡県,北九州市戸畑区,三六町２番２号,,40,105,8040091,,,,,,,2021-08-06,1,,,,,サンロクショウテン,0
2996,9290803003897,新規,0,2021-08-06,2021-08-06,合同会社ＪＯＢ,,合同会社,福岡県,北九州市小倉南区,八重洲町１１番２７号２Ｆ,,40,107,8020831,,,,,,,2021-08-06,1,,,,,ジョブ,0
2999,9310001017400,新規,0,2021-08-06,2021-08-06,株式会社ホームアシスト,,株式会社,長崎県,長崎市,戸石町５００番地５９２,,42,201,8510113,,,,,,,2021-08-06,1,,,,,ホームアシスト,0
3000,9310001017409,新規,0,2021-08-06,2021-08-06,株式会社エム,,株式会社,長崎県,五島市,富江町富江３５７番地５９,,42,211,8530201,,,,,,,2021-08-06,1,,,,,エム,0
3009,9320003003595,新規,0,2021-08-06,2021-08-06,合同会社コウセツ,,合同会社,大分県,大分市,大字田尻５３０番地の２５,,44,201,8701143,,,,,,,2021-08-06,1,,,,,コウセツ,0
3010,9330001028890,新規,0,2021-08-06,2021-08-06,株式会社ＩＤＡＫ,,株式会社,熊本県,熊本市東区,御領２丁目２２番２４号,,43,102,8618035,,,,,,,2021-08-06,1,,,,,アイダック,0
3011,9330001028899,新規,0,2021-08-06,2021-08-06,株式会社成郷,,株式会社,熊本県,熊本市南区,近見１丁目１６番２８号シャルマンメゾン１０１号,,43,104,8614101,,,,,,,2021-08-06,1,,,,,セイキョウ,0
3015,9330003008998,新規,0,2021-08-06,2021-08-06,合同会社ハルシュラ,,合同会社,熊本県,人吉市,相良町４番地２,,43,203,8680012,,,,,,,2021-08-06,1,,,,,ハルシュラ,0
3016,9330003009006,新規,0,2021-08-06,2021-08-06,合同会社Ｂ・Ｏ・Ｓ,,合同会社,熊本県,菊池郡菊陽町,光の森７丁目２０番地３,,43,404,8691108,,,,,,,2021-08-06,1,,,,,ビーオーエス,0
3017,9350001017256,新規,0,2021-08-06,2021-08-06,株式会社エイト,,株式会社,宮崎県,宮崎市,丸山１丁目８１番地,,45,201,8800052,,,,,,,2021-08-06,1,,,,,エイト,0
3025,9380001032104,新規,0,2021-08-06,2021-08-06,株式会社ＲａＬ,,株式会社,福島県,田村市,船引町船引字北町通７５番地,,07,211,9634312,,,,,,,2021-08-06,1,,,,,ラル,0
3026,9380001032112,新規,0,2021-08-06,2021-08-06,株式会社羽賀商会,,株式会社,福島県,大沼郡会津美里町,字布才地６９９番地２,,07,447,9696266,,,,,,,2021-08-06,1,,,,,,0
3027,9380003004992,新規,0,2021-08-06,2021-08-06,合同会社ポンプアップ,,合同会社,福島県,郡山市,笹川２丁目２０５番地,,07,203,9630108,,,,,,,2021-08-06,1,,,,,,0
3035,9420001017546,新規,0,2021-08-06,2021-08-06,株式会社ＦＲＯＭＮＩＣＯ,,株式会社,青森県,弘前市,大字松森町１４７番地,,02,202,0368184,,,,,,,2021-08-06,1,,,,,フロムニコ,0
3040,9430001084684,新規,0,2021-08-06,2021-08-06,株式会社七福神,,株式会社,北海道,札幌市西区,山の手六条７丁目４番２５号,,01,107,0630006,,,,,,,2021-08-06,1,,,,,シチフクジン,0
3041,9430001084718,新規,0,2021-08-06,2021-08-06,株式会社リフレイム,,株式会社,北海道,登別市,富岸町３丁目１８番地４７,,01,230,0590028,,,,,,,2021-08-06,1,,,,,リフレイム,0
3046,9480001011460,新規,0,2021-08-06,2021-08-06,株式会社カスミ,,株式会社,徳島県,阿波市,阿波町中原２１番地３,,36,206,7711703,,,,,,,2021-08-06,1,,,,,カスミ,0
3049,9490001009958,新規,0,2021-08-06,2021-08-06,株式会社ＢＡＣＫ　ＳＣＲＡＴＣＨＥＲ,,株式会社,高知県,高知市,針木北１丁目９番３３－１４号,,39,201,7808087,,,,,,,2021-08-06,1,,,,,バックスクラッチャー,0
3053,9500001023619,新規,0,2021-08-06,2021-08-06,株式会社ｉｃ,,株式会社,愛媛県,西条市,小松町妙口甲１０２５番地４,,38,206,7991104,,,,,,,2021-08-06,1,,,,,アイシー,0
