sequenceNumber,corporateNumber,process,correct,updateDate,changeDate,name,nameImageId,kind,prefectureName,cityName,streetNumber,addressImageId,prefectureCode,cityCode,postCode,addressOutside,addressOutsideImageId,closeDate,closeCause,successorCorporateNumber,changeCause,assignmentDate,latest,enName,enPrefectureName,enCityName,enAddressOutside,furigana,hihyoji
6,1010001260624,新規,0,2025-11-27,2025-11-27,株式会社ＬＥＩ,,株式会社,東京都,中央区,銀座１丁目１２番４号Ｎ＆Ｅ・ＢＬＤ．６Ｆ,,13,102,1040061,,,,,,,2025-11-27,1,,,,,レイ,0
7,1010001260649,新規,0,2025-11-27,2025-11-27,ウイルリアルティ株式会社,,株式会社,東京都,千代田区,二番町１番地２,,13,101,1020084,,,,,,,2025-11-27,1,,,,,ウイルリアルティ,0
10,1010003049355,新規,0,2025-11-27,2025-11-27,合同会社フェヌア,,合同会社,東京都,中央区,日本橋室町１丁目１１番１２号日本橋水野ビル７階,,13,102,1030022,,,,,,,2025-11-27,1,,,,,フェヌア,0
21,1010401194694,新規,0,2025-11-27,2025-11-27,株式会社ｗｉｌｌｕｎａ,,株式会社,東京都,港区,白金台４丁目８－１４Ｃ棟２階１号室,,13,103,1080071,,,,,,,2025-11-27,1,,,,,ウィルナ,0
22,1010401194769,新規,0,2025-11-27,2025-11-27,株式会社粋月堂,,株式会社,東京都,港区,北青山１丁目３番１号アールキューブ青山３階,,13,103,1070061,,,,,,,2025-11-27,1,,,,,スイゲツドウ,0
23,1010401194785,新規,0,2025-11-27,2025-11-27,株式会社ＮＳＳＫ‐Ｌ２,,株式会社,東京都,港区,愛宕２丁目５番１号愛宕グリーンヒルズＭＯＲＩタワー,,13,103,1050002,,,,,,,2025-11-27,1,,,,,エヌエスエスケーエルツー,0
24,1010401194793,新規,0,2025-11-27,2025-11-27,キャストグローバル不動産株式会社,,株式会社,東京都,港区,元赤坂１丁目２番７号,,13,103,1070051,,,,,,,2025-11-27,1,,,,,キャストグローバルフドウサン,0
28,1010403036688,新規,0,2025-11-27,2025-11-27,合同会社Ｒｕｂｙ,,合同会社,東京都,港区,元赤坂１丁目１番７－１２０９号株式会社赤坂国際会計内,,13,103,1070051,,,,,,,2025-11-27,1,,,,,ルビー,0
33,1010505003660,新規,0,2025-11-27,2025-11-27,一般社団法人ＯＮＥ　ＰＬＡＮＥＴ　ＬＡＢＯ,,その他の設立登記法人,東京都,台東区,東上野１丁目２０番６号,,13,106,1100015,,,,,,,2025-11-27,1,,,,,ワンプラネットラボ,0
34,1010701048526,新規,0,2025-11-27,2025-11-27,株式会社ハルスカイ,,株式会社,東京都,品川区,東五反田２丁目１０－１－１７０３,,13,109,1410022,,,,,,,2025-11-27,1,,,,,ハルスカイ,0
35,1010705003824,新規,0,2025-11-27,2025-11-27,一般社団法人東京国際企業家倶楽部,,その他の設立登記法人,東京都,品川区,西五反田８丁目８番１６号,,13,109,1410031,,,,,,,2025-11-27,1,,,,,トウキョウコクサイキギョウカクラブ,0
38,1010801036810,新規,0,2025-11-27,2025-11-27,Ｄｏｕｂｌｅ　Ｅｓｃｒｉｍｅ株式会社,,株式会社,東京都,大田区,西蒲田４丁目３０番１号,,13,111,1440051,,,,,,,2025-11-27,1,,,,,ダブルエスクリム,0
48,1011001173659,新規,0,2025-11-27,2025-11-27,株式会社ＭＫＳＰ,,株式会社,東京都,渋谷区,広尾５丁目４番１６号ＥＡＴ‐ＰＬＡＹ‐ＷＯＲＫＳ‐３Ｆ,,13,113,1500012,,,,,,,2025-11-27,1,,,,,エムケーエスピー,0
49,1011001173683,新規,0,2025-11-27,2025-11-27,ＡＪ株式会社,,株式会社,東京都,渋谷区,神南１丁目８番１８‐１２０１,,13,113,1500041,,,,,,,2025-11-27,1,,,,,エージェイ,0
50,1011001173741,新規,0,2025-11-27,2025-11-27,株式会社Ａｌｉｍｏｒａ,,株式会社,東京都,目黒区,自由が丘１丁目５番９号リバティビル１０１,,13,110,1520035,,,,,,,2025-11-27,1,,,,,アリモラ,0
51,1011001173766,新規,0,2025-11-27,2025-11-27,タグボート株式会社,,株式会社,東京都,渋谷区,道玄坂１丁目１０番８号渋谷道玄坂東急ビル２Ｆ－Ｃ,,13,113,1500043,,,,,,,2025-11-27,1,,,,,タグボート,0
52,1011001173774,新規,0,2025-11-27,2025-11-27,株式会社ｉｃｈｉｎｅ,,株式会社,東京都,渋谷区,神南１丁目１１－４ＦＰＧリンクス神南５階,,13,113,1500041,,,,,,,2025-11-27,1,,,,,イチネ,0
53,1011001173790,新規,0,2025-11-27,2025-11-27,株式会社ＣＥＮＴＥＲ,,株式会社,東京都,目黒区,大橋２丁目２４－８駒場ネオパレス１０１１,,13,110,1530044,,,,,,,2025-11-27,1,,,,,センター,0
54,1011001173907,新規,0,2025-11-27,2025-11-27,株式会社Ｐｅｌｅ　Ｍｅｌｅ,,株式会社,東京都,渋谷区,神宮前２丁目２６番８号,,13,113,1500001,,,,,,,2025-11-27,1,,,,,ペレメレ,0
55,1011001174013,新規,0,2025-11-27,2025-11-27,株式会社Ｃａｓｈ　Ｇｏｏｄ　Ｌｉｆｅ研究所,,株式会社,東京都,渋谷区,千駄ヶ谷３丁目１２番１９号アピカ原宿１０１,,13,113,1510051,,,,,,,2025-11-27,1,,,,,キャッシュグッドライフケンキュウジョ,0
56,1011001174062,新規,0,2025-11-27,2025-11-27,株式会社ＣＢ７,,株式会社,東京都,渋谷区,広尾５丁目１７番１０号,,13,113,1500012,,,,,,,2025-11-27,1,,,,,シービーセブン,0
61,1011003023052,新規,0,2025-11-27,2025-11-27,合同会社ＹＡＭＡＳＡＷＡ,,合同会社,東京都,渋谷区,元代々木町９番４号山中ビル,,13,113,1510062,,,,,,,2025-11-27,1,,,,,ヤマサワ,0
69,1011103016807,新規,0,2025-11-27,2025-11-27,クレスシー合同会社,,合同会社,東京都,新宿区,市谷柳町１５番地１プラウド市谷柳町８０２,,13,104,1620061,,,,,,,2025-11-27,1,,,,,クレスシー,0
76,1011601029194,新規,0,2025-11-27,2025-11-27,株式会社小鍋誠正堂,,株式会社,東京都,練馬区,中村北３丁目６番３号,,13,120,1760023,,,,,,,2025-11-27,1,,,,,コナベセイショウドウ,0
83,1012405005191,新規,0,2025-11-27,2025-11-27,一般社団法人ライフハグ,,その他の設立登記法人,東京都,多摩市,一ノ宮１丁目２０番地３４,,13,224,2060002,,,,,,,2025-11-27,1,,,,,ライフハグ,0
89,1012801024381,新規,0,2025-11-27,2025-11-27,株式会社ＭＲ空調設備,,株式会社,東京都,武蔵村山市,学園３丁目５９番地の１１,,13,223,2080011,,,,,,,2025-11-27,1,,,,,エムアールクウチョウセツビ,0
90,1013101009866,新規,0,2025-11-27,2025-11-27,株式会社ＮＢハウス,,株式会社,東京都,青梅市,大門１丁目６８１番地,,13,205,1980014,,,,,,,2025-11-27,1,,,,,エヌビーハウス,0
91,1013301055347,新規,0,2025-11-27,2025-11-27,株式会社パワービッド,,株式会社,東京都,豊島区,池袋２丁目９番４号,,13,116,1710014,,,,,,,2025-11-27,1,,,,,パワービッド,0
96,1020001165905,新規,0,2025-11-27,2025-11-27,株式会社ＰＬＥＡＳＵＲＥ,,株式会社,神奈川県,横浜市港北区,大倉山４丁目１９番２号,,14,109,2220037,,,,,,,2025-11-27,1,,,,,プレジャー,0
97,1020001165987,新規,0,2025-11-27,2025-11-27,オーパスファイブ株式会社,,株式会社,神奈川県,横浜市都筑区,北山田１丁目１４番３２号,,14,118,2240021,,,,,,,2025-11-27,1,,,,,オーパスファイブ,0
98,1020001165995,新規,0,2025-11-27,2025-11-27,株式会社ＡＫＥＲＩＳ,,株式会社,神奈川県,横浜市青葉区,奈良町２４１５番地２７１,,14,117,2270036,,,,,,,2025-11-27,1,,,,,アケリス,0
101,1020003029827,新規,0,2025-11-27,2025-11-27,ＳＵ‐ＬＩＮＥ合同会社,,合同会社,神奈川県,横浜市瀬谷区,中屋敷１丁目１３番地６イーストＡ２０２号室,,14,114,2460004,,,,,,,2025-11-27,1,,,,,エスユーライン,0
102,1020003029851,新規,0,2025-11-27,2025-11-27,Ｏｐｔｉｃａｒｅ　Ｄｉｓｔｒｉｂｕｔｉｏｎ合同会社,,合同会社,神奈川県,川崎市川崎区,駅前本町１１番地２川崎フロンティアビル４階,,14,131,2100007,,,,,,,2025-11-27,1,,,,,オプティケアディストリビューション,0
103,1020005017053,新規,0,2025-11-27,2025-11-27,一般社団法人横浜七夕祭り実行委員会,,その他の設立登記法人,神奈川県,横浜市中区,日ノ出町２丁目１４７番地ライオンズマンション野毛山南２０８号室,,14,104,2310066,,,,,,,2025-11-27,1,,,,,ヨコハマタナバタマツリジッコウイインカイ,0
106,1021001086876,新規,0,2025-11-27,2025-11-27,株式会社ＬｉｎｏＦｌａｇ,,株式会社,神奈川県,藤沢市,辻堂東海岸１丁目４番３５号,,14,205,2510045,,,,,,,2025-11-27,1,,,,,リノフラッグ,0
107,1021001086892,新規,0,2025-11-27,2025-11-27,昭和株式会社,,株式会社,神奈川県,横須賀市,大滝町２丁目２２番地５,,14,201,2380008,,,,,,,2025-11-27,1,,,,,ショウワ,0
109,1021003016831,新規,0,2025-11-27,2025-11-27,合同会社ブルークマ湘南,,合同会社,神奈川県,藤沢市,鵠沼神明５丁目１２－２７,,14,205,2510021,,,,,,,2025-11-27,1,,,,,ブルークマショウナン,0
115,1030001169839,新規,0,2025-11-27,2025-11-27,株式会社ＦＫＨＤ,,株式会社,埼玉県,熊谷市,葛和田１７４０番地,,11,202,3600222,,,,,,,2025-11-27,1,,,,,エフケーホールディングス,0
118,1030003028142,新規,0,2025-11-27,2025-11-27,合同会社ワールド,,合同会社,埼玉県,戸田市,喜沢南１丁目４番２３号,,11,224,3350014,,,,,,,2025-11-27,1,,,,,ワールド,0
129,1040001141540,新規,0,2025-11-27,2025-11-27,株式会社アクシアブルズ,,株式会社,千葉県,四街道市,大日５３５番地１１,,12,228,2840001,,,,,,,2025-11-27,1,,,,,アクシアブルズ,0
130,1040001141565,新規,0,2025-11-27,2025-11-27,株式会社ＢＵＩＬＤ,,株式会社,千葉県,松戸市,栄町西１丁目８２０番地の６,,12,207,2710061,,,,,,,2025-11-27,1,,,,,,0
134,1040003029032,新規,0,2025-11-27,2025-11-27,ＩＳＬＡＮＤ　ＬＩＮＫ合同会社,,合同会社,千葉県,松戸市,稔台１丁目３０番地の６Ｅｍｉｎｅｎｃｅ．Ｅ３０４号,,12,207,2702231,,,,,,,2025-11-27,1,,,,,アイランドリンク,0
137,1050003009776,新規,0,2025-11-27,2025-11-27,合同会社江戸貿易,,合同会社,茨城県,猿島郡境町,大字若林字北坪２４１２番地３、１階Ａ,,08,546,3060417,,,,,,,2025-11-27,1,,,,,エドボウエキ,0
138,1060003005849,新規,0,2025-11-27,2025-11-27,ＩＨＳＡＮ　ＵＬＬＡＨ　ＴＲＡＤＩＮＧ合同会社,,合同会社,栃木県,宇都宮市,峰町３１０,,09,201,3210943,,,,,,,2025-11-27,1,,,,,イフサンアッラートレーディング,0
142,1090001019625,新規,0,2025-11-27,2025-11-27,株式会社中村土木石材,,株式会社,山梨県,南都留郡富士河口湖町,船津３７９８番地４,,19,430,4010301,,,,,,,2025-11-27,1,,,,,ナカムラドボクセキザイ,0
143,1100001039134,新規,0,2025-11-27,2025-11-27,株式会社ＳＨＡＧＧＹＺ,,株式会社,長野県,上伊那郡箕輪町,大字中箕輪９７２３番地６,,20,383,3994601,,,,,,,2025-11-27,1,,,,,シャギーズ,0
144,1100003008491,新規,0,2025-11-27,2025-11-27,合同会社Ｇｏｈａｎ　ｐｌｕｓ　ＩＩＤＡ,,合同会社,長野県,飯田市,東和町３丁目５２７０－２０朝倉マンション４０２号,,20,205,3950086,,,,,,,2025-11-27,1,,,,,ゴハンプラスイイダ,0
155,1120001282129,新規,0,2025-11-27,2025-11-27,株式会社普華,,株式会社,大阪府,大阪市西成区,鶴見橋２丁目８番２４－１０４号,,27,122,5570031,,,,,,,2025-11-27,1,,,,,ヒロカ,0
156,1120001282153,新規,0,2025-11-27,2025-11-27,Ｍｅｄｉｖａｎｃｅ株式会社,,株式会社,大阪府,大阪市中央区,南船場３丁目１番７－４０３号室,,27,128,5420081,,,,,,,2025-11-27,1,,,,,メディヴァンス,0
157,1120001282186,新規,0,2025-11-27,2025-11-27,日本ケアワーカー株式会社,,株式会社,大阪府,大阪市北区,豊崎３丁目１６番１６号ブランズタワー梅田Ｎｏｒｔｈ４２０４,,27,127,5310072,,,,,,,2025-11-27,1,,,,,ニホンケアワーカー,0
168,1130001081083,新規,0,2025-11-27,2025-11-27,株式会社大嘉技研,,株式会社,京都府,京都市西京区,大原野灰方町２０４４番地,,26,111,6101132,,,,,,,2025-11-27,1,,,,,ダイカギケン,0
169,1130001081091,新規,0,2025-11-27,2025-11-27,海空メディカル株式会社,,株式会社,京都府,京都市下京区,七条通油小路東入大黒町２２７番地第２キョートビル４０２,,26,106,6008223,,,,,,,2025-11-27,1,,,,,ウミソラメディカル,0
176,1140001140887,新規,0,2025-11-27,2025-11-27,株式会社Ｓｔａｒ　Ｐａｔｈ　Ｊａｐａｎ,,株式会社,兵庫県,三田市,すずかけ台２丁目３０番地３－８０４号,,28,219,6691322,,,,,,,2025-11-27,1,,,,,スターパスジャパン,0
177,1140001140895,新規,0,2025-11-27,2025-11-27,株式会社ｅｌａｈｂｏ,,株式会社,兵庫県,加古郡播磨町,大中２丁目１－４１,,28,382,6750142,,,,,,,2025-11-27,1,,,,,エラボ,0
180,1150003003760,新規,0,2025-11-27,2025-11-27,ＬＩＶＬＹ合同会社,,合同会社,奈良県,橿原市,南八木町２丁目６番２０号,,29,205,6340077,,,,,,,2025-11-27,1,,,,,リブリー,0
193,1180001169584,新規,0,2025-11-27,2025-11-27,株式会社明和,,株式会社,愛知県,名古屋市中区,錦１丁目５番１１号名古屋伊藤忠ビル６階６１３号室,,23,106,4600003,,,,,,,2025-11-27,1,,,,,メイワ,0
194,1180001169626,新規,0,2025-11-27,2025-11-27,株式会社ＭＡＳＡ　ＨＯＬＤＩＮＧＳ,,株式会社,愛知県,名古屋市昭和区,南分町２丁目１３番地の１,,23,107,4660849,,,,,,,2025-11-27,1,,,,,マサホールディングス,0
195,1180001169650,新規,0,2025-11-27,2025-11-27,株式会社イワイフィールズ,,株式会社,愛知県,江南市,村久野町九郷５０番地,,23,217,4838311,,,,,,,2025-11-27,1,,,,,イワイフィールズ,0
200,1180003029431,新規,0,2025-11-27,2025-11-27,合同会社ＡｃｃｕＷｏｒｋｓ,,合同会社,愛知県,名古屋市港区,宝神３丁目１０４番地の７,,23,111,4550832,,,,,,,2025-11-27,1,,,,,アキュワークス,0
206,1210005010237,新規,0,2025-11-27,2025-11-27,ベスト行政書士法人,,その他の設立登記法人,福井県,福井市,大手３丁目１６－１５,,18,201,9100005,,,,,,,2025-11-27,1,,,,,ベスト,0
207,1220001027036,新規,0,2025-11-27,2025-11-27,株式会社ビアガーデンカーニバル,,株式会社,石川県,金沢市,昭和町１５番４号金駅ビルＩＩ３階,00141653,17,201,9200856,,,,,,,2025-11-27,1,,,,,ビアガーデンカーニバル,0
209,1220003004173,新規,0,2025-11-27,2025-11-27,合同会社ＣＨＥ,,合同会社,石川県,金沢市,瓢箪町５‐５６,,17,201,9200845,,,,,,,2025-11-27,1,,,,,チェ,0
222,1260001040761,新規,0,2025-11-27,2025-11-27,株式会社三旺,,株式会社,岡山県,岡山市中区,高屋７２番地１Ａ４０２,,33,102,7038233,,,,,,,2025-11-27,1,,,,,サンオウ,0
225,1270005005669,新規,0,2025-11-27,2025-11-27,医療法人たもと,,その他の設立登記法人,鳥取県,米子市,日原字穴田６１番地１,,31,202,6830015,,,,,,,2025-11-27,1,,,,,タモト,0
240,1290001112178,新規,0,2025-11-27,2025-11-27,株式会社七彩,,株式会社,福岡県,福岡市東区,原田４丁目２３－５,,40,131,8120063,,,,,,,2025-11-27,1,,,,,ナナイロ,0
241,1290001112203,新規,0,2025-11-27,2025-11-27,ＩＣ　ｄｉｓａｂｉｌｉｔｙ　ｓｕｐｐｏｒｔ株式会社,,株式会社,福岡県,筑紫野市,二日市中央３丁目９番１６－２０１号,,40,217,8180072,,,,,,,2025-11-27,1,,,,,アイシーディスアビリティサポート,0
242,1290001112211,新規,0,2025-11-27,2025-11-27,株式会社イトミライ,,株式会社,福岡県,糸島市,加布里４丁目１１番２４号,,40,230,8191124,,,,,,,2025-11-27,1,,,,,イトミライ,0
243,1290001112244,新規,0,2025-11-27,2025-11-27,株式会社Ｒｉｓｔａ　Ｄｅｓｉｇｎ,,株式会社,福岡県,福津市,津屋崎１丁目７番１号福津市企業センター３０２号,,40,224,8113304,,,,,,,2025-11-27,1,,,,,リスタデザイン,0
244,1290001112269,新規,0,2025-11-27,2025-11-27,株式会社浮羽木材,,株式会社,福岡県,うきは市,浮羽町朝田４４２,,40,225,8391401,,,,,,,2025-11-27,1,,,,,ウキハモクザイ,0
245,1290001112302,新規,0,2025-11-27,2025-11-27,株式会社ｓｅｔ　ｏｆ　ｓａｉｌｓ福岡,,株式会社,福岡県,福岡市博多区,博多駅東２丁目６番１号,,40,132,8120013,,,,,,,2025-11-27,1,,,,,セットオブセイルズフクオカ,0
249,1290003017755,新規,0,2025-11-27,2025-11-27,合同会社はっぴー縁,,合同会社,福岡県,柳川市,吉富町９１番地１０,,40,207,8320055,,,,,,,2025-11-27,1,,,,,ハッピーエニシ,0
250,1290003017771,新規,0,2025-11-27,2025-11-27,合同会社Ｗｅａｌ,,合同会社,福岡県,福岡市早良区,小田部１丁目３番５号,,40,137,8140032,,,,,,,2025-11-27,1,,,,,ウィール,0
251,1290801032055,新規,0,2025-11-27,2025-11-27,サン不動産株式会社,,株式会社,福岡県,遠賀郡水巻町,吉田西３丁目２番２４号,,40,382,8070046,,,,,,,2025-11-27,1,,,,,サンフドウサン,0
262,1340001027800,新規,0,2025-11-27,2025-11-27,株式会社ソルサリール,,株式会社,鹿児島県,鹿屋市,笠之原町１５２０－１,,46,203,8930023,,,,,,,2025-11-27,1,,,,,ソルサリール,0
269,1350001019821,新規,0,2025-11-27,2025-11-27,株式会社ＲＥＳＯＮＡＴＩＮＧ宮崎,,株式会社,宮崎県,日向市,亀崎２丁目８番地,,45,206,8830066,,,,,,,2025-11-27,1,,,,,リゾネイティングミヤザキ,0
271,1360001036064,新規,0,2025-11-27,2025-11-27,松建株式会社,,株式会社,沖縄県,豊見城市,字我那覇１１１－７,,47,212,9010231,,,,,,,2025-11-27,1,,,,,マツケン,0
273,1370003007384,新規,0,2025-11-27,2025-11-27,常陸開発合同会社,,合同会社,宮城県,仙台市宮城野区,東仙台１丁目６番１５号,,04,102,9830833,,,,,,,2025-11-27,1,,,,,ヒタチカイハツ,0
278,1410001014329,新規,0,2025-11-27,2025-11-27,株式会社ＺＥＲＯ　ＬＩＮＥ,,株式会社,秋田県,秋田市,御所野湯本２丁目１番２号秋田物流センターＡ棟２Ｆ,,05,201,0101415,,,,,,,2025-11-27,1,,,,,,0
282,1430003018350,新規,0,2025-11-27,2025-11-27,合同会社ＭＧＷ,,合同会社,北海道,札幌市西区,琴似一条７丁目２番１７－４０５号,,01,107,0630811,,,,,,,2025-11-27,1,,,,,エムジーダブリュ,0
283,1430003018359,新規,0,2025-11-27,2025-11-27,合同会社ＲＥＮ　ＦＡＵＬＴ,,合同会社,北海道,札幌市白石区,東札幌六条５丁目１番１６－４０６号,,01,104,0030006,,,,,,,2025-11-27,1,,,,,レンフォルト,0
285,1460003001080,新規,0,2025-11-27,2025-11-27,Ｔｅａｌ合同会社,,合同会社,北海道,釧路市,大楽毛４丁目１３番９号,,01,206,0840917,,,,,,,2025-11-27,1,,,,,ティール,0
286,1460103001765,新規,0,2025-11-27,2025-11-27,代行社合同会社,,合同会社,北海道,帯広市,西二十一条南２丁目１４番３号,,01,207,0802471,,,,,,,2025-11-27,1,,,,,ダイコウシャ,0
292,1480001013010,新規,0,2025-11-27,2025-11-27,株式会社魅緑,,株式会社,徳島県,美馬市,穴吹町口山字中野４６番地,,36,207,7770006,,,,,,,2025-11-27,1,,,,,ミリョク,0
303,2010003049528,新規,0,2025-11-27,2025-11-27,ジェイ・ユー・エル・ホールディング合同会社,,合同会社,東京都,千代田区,丸の内１丁目４番１号東京共同会計事務所内,,13,101,1000005,,,,,,,2025-11-27,1,,,,,ジェイユーエルホールディング,0
304,2010003049544,新規,0,2025-11-27,2025-11-27,合同会社ベラージオ,,合同会社,東京都,文京区,本郷１丁目１０番１３号,,13,105,1130033,,,,,,,2025-11-27,1,,,,,ベラージオ,0
305,2010101016982,新規,0,2025-11-27,2025-11-27,ＫＡＩ株式会社,,株式会社,東京都,八王子市,散田町５丁目１２番８号,,13,201,1930832,,,,,,,2025-11-27,1,,,,,カイ,0
309,2010401194784,新規,0,2025-11-27,2025-11-27,株式会社ＮＳＳＫ‐Ｌ１,,株式会社,東京都,港区,愛宕２丁目５番１号愛宕グリーンヒルズＭＯＲＩタワー,,13,103,1050002,,,,,,,2025-11-27,1,,,,,エヌエスエスケーエルワン,0
317,2010403036687,新規,0,2025-11-27,2025-11-27,合同会社Ａｍｂｅｒ,,合同会社,東京都,港区,元赤坂１丁目１番７－１２０９号株式会社赤坂国際会計内,,13,103,1070051,,,,,,,2025-11-27,1,,,,,アンバー,0
331,2010601068326,新規,0,2025-11-27,2025-11-27,株式会社大栄設備,,株式会社,東京都,墨田区,向島４丁目７番８－３０１号,,13,107,1310033,,,,,,,2025-11-27,1,,,,,ダイエイセツビ,0
332,2010701048657,新規,0,2025-11-27,2025-11-27,ｔａｔｔｏ株式会社,,株式会社,東京都,品川区,西五反田３丁目１１番６号,,13,109,1410031,,,,,,,2025-11-27,1,,,,,タット,0
333,2010701048665,新規,0,2025-11-27,2025-11-27,ヨサビットジャパン株式会社,,株式会社,東京都,品川区,上大崎１丁目３番１１号,,13,109,1410021,,,,,,,2025-11-27,1,,,,,ヨサビットジャパン,0
341,2011001173724,新規,0,2025-11-27,2025-11-27,株式会社Ｆｅｌｉｃｉｔａ６６,,株式会社,東京都,目黒区,青葉台１丁目１４番４－４１４号,,13,110,1530042,,,,,,,2025-11-27,1,,,,,フェリチタロクロク,0
342,2011001173740,新規,0,2025-11-27,2025-11-27,株式会社デザインふぐ,,株式会社,東京都,渋谷区,恵比寿西２丁目８番４号５階,,13,113,1500021,,,,,,,2025-11-27,1,,,,,デザインフグ,0
343,2011001173749,新規,0,2025-11-27,2025-11-27,株式会社ＲＴＦ,,株式会社,東京都,目黒区,青葉台３丁目１５番１７号ＦＡＲＯ中目黒１階,,13,110,1530042,,,,,,,2025-11-27,1,,,,,アールティーエフ,0
344,2011001173807,新規,0,2025-11-27,2025-11-27,ＶＲ不動産株式会社,,株式会社,東京都,目黒区,下目黒２丁目２０番５号,,13,110,1530064,,,,,,,2025-11-27,1,,,,,ブイアールフドウサン,0
345,2011001173815,新規,0,2025-11-27,2025-11-27,株式会社ｄａｎｓ　ｌｅ　ｌａｃ,,株式会社,東京都,目黒区,五本木３丁目２６－１－２Ｆ,,13,110,1530053,,,,,,,2025-11-27,1,,,,,ダンルラック,0
354,2011301031086,新規,0,2025-11-27,2025-11-27,株式会社彩想工房,,株式会社,東京都,杉並区,荻窪５丁目２６－１３Ｄａｉｗａ荻窪ビル３Ｆ,,13,115,1670051,,,,,,,2025-11-27,1,,,,,サイソウコウボウ,0
356,2011401027604,新規,0,2025-11-27,2025-11-27,株式会社ＬＵＭＩＮＯＵＳ,,株式会社,東京都,板橋区,西台２丁目４０番９号７０１,,13,119,1750045,,,,,,,2025-11-27,1,,,,,ルミナス,0
357,2011501032826,新規,0,2025-11-27,2025-11-27,株式会社渡部工務店,,株式会社,東京都,北区,上十条２丁目２７番９号,,13,117,1140034,,,,,,,2025-11-27,1,,,,,ワタベコウムテン,0
364,2011801047111,新規,0,2025-11-27,2025-11-27,株式会社Ｓｅｎｋａｗａ,,株式会社,東京都,葛飾区,南水元１丁目７番１６号,,13,122,1250035,,,,,,,2025-11-27,1,,,,,センカワ,0
368,2012401043855,新規,0,2025-11-27,2025-11-27,株式会社Ｄ＆Ｌ,,株式会社,東京都,調布市,柴崎２丁目３９番地６,,13,208,1820014,,,,,,,2025-11-27,1,,,,,ディーアンドエル,0
370,2012701019209,新規,0,2025-11-27,2025-11-27,株式会社Ａｌｌｏｒａ,,株式会社,東京都,小平市,学園東町４４８―３セシリア２０２,,13,211,1870043,,,,,,,2025-11-27,1,,,,,アローラ,0
371,2012801024389,新規,0,2025-11-27,2025-11-27,株式会社イージー,,株式会社,東京都,立川市,富士見町５丁目１９番１０号,,13,202,1900013,,,,,,,2025-11-27,1,,,,,イージー,0
380,2020001165904,新規,0,2025-11-27,2025-11-27,株式会社ｚｕｍｉｙ,,株式会社,神奈川県,横浜市神奈川区,台町９番１３号ルックハイツ横浜台町４０８,,14,102,2210834,,,,,,,2025-11-27,1,,,,,ズミー,0
383,2020003029842,新規,0,2025-11-27,2025-11-27,モチプ合同会社,,合同会社,神奈川県,横浜市金沢区,瀬戸二丁目１番,,14,108,2360027,,,,,,,2025-11-27,1,,,,,モチプ,0
385,2020005017052,新規,0,2025-11-27,2025-11-27,一般社団法人日本オーティズム補助犬協会,,その他の設立登記法人,神奈川県,川崎市麻生区,千代ケ丘８丁目２０番９号,,14,137,2150005,,,,,,,2025-11-27,1,,,,,ニッポンオーティズムホジョケンキョウカイ,0
388,2021001086875,新規,0,2025-11-27,2025-11-27,ＯＧＡＴＡマネジメント株式会社,,株式会社,神奈川県,相模原市南区,鵜野森３丁目２９番１２号,,14,153,2520301,,,,,,,2025-11-27,1,,,,,オガタマネジメント,0
389,2021001086883,新規,0,2025-11-27,2025-11-27,ｂｌａｎｋｓ株式会社,,株式会社,神奈川県,相模原市緑区,原宿３丁目５番２３号,,14,151,2520102,,,,,,,2025-11-27,1,,,,,ブランクス,0
390,2021001086891,新規,0,2025-11-27,2025-11-27,ＩＮＯ株式会社,,株式会社,神奈川県,相模原市中央区,青葉３丁目２６,,14,152,2520224,,,,,,,2025-11-27,1,,,,,イノ,0
393,2021005013462,新規,0,2025-11-27,2025-11-27,一般社団法人全国サビ児管協議会,,その他の設立登記法人,神奈川県,藤沢市,辻堂神台１丁目３番３９号湘南藤沢ＳОＨО辻堂センターオザワビル５階５０１－１１号室,,14,205,2510041,,,,,,,2025-11-27,1,,,,,ゼンコクサビジカンキョウギカイ,0
395,2030001169854,新規,0,2025-11-27,2025-11-27,株式会社ＲＯＹＡＬ,,株式会社,埼玉県,草加市,新善町２９７番地５Ａ棟,,11,221,3400054,,,,,,,2025-11-27,1,,,,,ロイヤル,0
404,2040003029031,新規,0,2025-11-27,2025-11-27,合同会社青木商会,,合同会社,千葉県,成田市,不動ケ岡１９６１番地１（アバンツァートヒロタ４０４）,,12,211,2860044,,,,,,,2025-11-27,1,,,,,アオキショウカイ,0
410,2060001038791,新規,0,2025-11-27,2025-11-27,ＳＡＴＯホールディングス株式会社,,株式会社,栃木県,宇都宮市,南大通り１丁目７番８号,,09,201,3210963,,,,,,,2025-11-27,1,,,,,サトウホールディングス,0
412,2060003005864,新規,0,2025-11-27,2025-11-27,合同会社ｅｅｌ,,合同会社,栃木県,宇都宮市,東簗瀬１丁目３８番６シティーコーポＩＩＩ１０２号室,00141657,09,201,3210925,,,,,,,2025-11-27,1,,,,,イール,0
421,2090001019624,新規,0,2025-11-27,2025-11-27,株式会社オフィス板橋,,株式会社,山梨県,中巨摩郡昭和町,西条２７５番地３,,19,384,4093866,,,,,,,2025-11-27,1,,,,,オフィスイタバシ,0
422,2100001039133,新規,0,2025-11-27,2025-11-27,株式会社サンライズＤ・Ｌ,,株式会社,長野県,飯田市,鼎切石４３５８番地３,,20,205,3950807,,,,,,,2025-11-27,1,,,,,サンライズディエル,0
425,2100005013423,新規,0,2025-11-27,2025-11-27,一般社団法人いきいきライフ協会北信,,その他の設立登記法人,長野県,長野市,三輪７丁目４番８,,20,201,3800803,,,,,,,2025-11-27,1,,,,,イキイキライフキョウカイホクシン,0
426,2110001039743,新規,0,2025-11-27,2025-11-27,株式会社Ｆ．Ｃ　ＴＥＣ,,株式会社,新潟県,新潟市秋葉区,川根甲１７６番地１,,15,105,9560055,,,,,,,2025-11-27,1,,,,,エフシーテック,0
439,2120001282128,新規,0,2025-11-27,2025-11-27,株式会社ＹＥＲＡ,,株式会社,大阪府,大阪市北区,芝田２丁目１番１８－１０８号,,27,127,5300012,,,,,,,2025-11-27,1,,,,,イエラ,0
440,2120001282193,新規,0,2025-11-27,2025-11-27,Ｋａｒｅｎｔ　ｗｏｒｋｓ株式会社,,株式会社,大阪府,大阪市中央区,南船場３丁目２番２２－２０５号,,27,128,5420081,,,,,,,2025-11-27,1,,,,,カレンワークス,0
441,2120001282219,新規,0,2025-11-27,2025-11-27,順和華株式会社,,株式会社,大阪府,大阪市住吉区,遠里小野５丁目１４番２０－２０４号,,27,120,5580032,,,,,,,2025-11-27,1,,,,,ジュンワカ,0
442,2120001282342,新規,0,2025-11-27,2025-11-27,株式会社創技建,,株式会社,大阪府,大阪市城東区,諏訪４丁目１５－２８－２０２,,27,118,5360021,,,,,,,2025-11-27,1,,,,,ソウギケン,0
449,2120101072858,新規,0,2025-11-27,2025-11-27,堺住設株式会社,,株式会社,大阪府,堺市中区,深井北町８５８－３３,,27,142,5998271,,,,,,,2025-11-27,1,,,,,サカイジュウセツ,0
462,2130001080836,新規,0,2025-11-27,2025-11-27,ＯＢＥＮＴＯＵｅｙｅ株式会社,,株式会社,京都府,京都市上京区,主税町１０７８,,26,102,6028155,,,,,,,2025-11-27,1,,,,,オベントウアイ,0
464,2140001015460,新規,0,2025-11-27,2025-11-27,丸和建設株式会社,,株式会社,兵庫県,神戸市北区,山田町小部字妙賀１０番地の１,,28,109,6511101,,,,,,,2025-11-27,1,,,,,マルワケンセツ,0
473,2140001140878,新規,0,2025-11-27,2025-11-27,株式会社ＩＣＨＩＺＥＮ,,株式会社,兵庫県,西宮市,上甲子園５丁目１０番２９号,,28,204,6638114,,,,,,,2025-11-27,1,,,,,イチゼン,0
474,2140001140894,新規,0,2025-11-27,2025-11-27,株式会社間宮,,株式会社,兵庫県,高砂市,曽根町８２８番地の１５,,28,216,6760082,,,,,,,2025-11-27,1,,,,,マミヤ,0
483,2180001169609,新規,0,2025-11-27,2025-11-27,東盛株式会社,,株式会社,愛知県,名古屋市千種区,日岡町２丁目４９番地の３,,23,101,4640834,,,,,,,2025-11-27,1,,,,,トウセイ,0
484,2180001169633,新規,0,2025-11-27,2025-11-27,山中商会株式会社,,株式会社,愛知県,愛西市,須依町喜之助２１３２番地２,,23,232,4960902,,,,,,,2025-11-27,1,,,,,ヤマナカショウカイ,0
485,2180001169641,新規,0,2025-11-27,2025-11-27,株式会社ＴＪＫ,,株式会社,愛知県,名古屋市北区,東水切町４丁目５６番地の１,,23,103,4620828,,,,,,,2025-11-27,1,,,,,ティージェイケイ,0
486,2180001169658,新規,0,2025-11-27,2025-11-27,株式会社ミルノワ,,株式会社,愛知県,名古屋市瑞穂区,田辺通６丁目２４番地の３,,23,108,4670027,,,,,,,2025-11-27,1,,,,,ミルノワ,0
487,2180001169666,新規,0,2025-11-27,2025-11-27,株式会社ラネージュ,,株式会社,愛知県,一宮市,木曽川町黒田三ノ通り７８番地１,,23,203,4930001,,,,,,,2025-11-27,1,,,,,ラネージュ,0
489,2180003029422,新規,0,2025-11-27,2025-11-27,合同会社ＲＳ１,,合同会社,愛知県,名古屋市中村区,名駅３丁目２８番１２号大名古屋ビルヂング１８階１８０５区,,23,105,4500002,,,,,,,2025-11-27,1,,,,,アールエスワン,0
497,2240001065818,新規,0,2025-11-27,2025-11-27,株式会社たいと,,株式会社,広島県,三原市,糸崎２丁目４番３０号,,34,204,7290324,,,,,,,2025-11-27,1,,,,,タイト,0
498,2240001065826,新規,0,2025-11-27,2025-11-27,寺功株式会社,,株式会社,広島県,福山市,坪生町１丁目４５番１９－２号,,34,207,7210903,,,,,,,2025-11-27,1,,,,,テラコウ,0
502,2260001040760,新規,0,2025-11-27,2025-11-27,右手大工株式会社,,株式会社,岡山県,勝田郡奈義町,高円８９７番地２,,33,623,7081307,,,,,,,2025-11-27,1,,,,,ウテダイク,0
504,2260003005423,新規,0,2025-11-27,2025-11-27,合同会社こねっと岡山,,合同会社,岡山県,倉敷市,林１３２２番地２９,,33,202,7100142,,,,,,,2025-11-27,1,,,,,コネットオカヤマ,0
514,2290001112227,新規,0,2025-11-27,2025-11-27,株式会社ＡＮＩ,,株式会社,福岡県,久留米市,小森野１丁目６－２４－７０１,,40,203,8300001,,,,,,,2025-11-27,1,,,,,アニ,0
515,2290001112268,新規,0,2025-11-27,2025-11-27,株式会社ＸＢｒｉｄｇｅ,,株式会社,福岡県,福岡市博多区,住吉４丁目１７番２２－７０５号,,40,132,8120018,,,,,,,2025-11-27,1,,,,,エックスブリッジ,0
516,2290001112276,新規,0,2025-11-27,2025-11-27,株式会社らくばる,,株式会社,福岡県,小郡市,三沢４２１１－２,,40,216,8380106,,,,,,,2025-11-27,1,,,,,ラクバル,0
517,2290001112342,新規,0,2025-11-27,2025-11-27,株式会社ＹＵＵ５,,株式会社,福岡県,古賀市,中央５丁目四番十号,,40,223,8113103,,,,,,,2025-11-27,1,,,,,ユウゴ,0
523,2300001014421,新規,0,2025-11-27,2025-11-27,株式会社葉隠デザイン,,株式会社,佐賀県,佐賀市,西田代１丁目２番１９－３０３号,,41,201,8400045,,,,,,,2025-11-27,1,,,,,ハガクレデザイン,0
526,2320001021449,新規,0,2025-11-27,2025-11-27,株式会社フジセイ,,株式会社,大分県,大分市,上田町１丁目９番８号,,44,201,8700886,,,,,,,2025-11-27,1,,,,,フジセイ,0
528,2340001027808,新規,0,2025-11-27,2025-11-27,上四元建設株式会社,,株式会社,鹿児島県,鹿児島市,四元町８３９番地１,,46,201,8992708,,,,,,,2025-11-27,1,,,,,カミヨツモトケンセツ,0
532,2360001036063,新規,0,2025-11-27,2025-11-27,オキビバ株式会社,,株式会社,沖縄県,浦添市,西洲２丁目７番２号,,47,208,9012123,,,,,,,2025-11-27,1,,,,,オキビバ,0
535,2370001053264,新規,0,2025-11-27,2025-11-27,株式会社ワンズ,,株式会社,宮城県,仙台市青葉区,一番町４丁目３－９第三藤原屋ビルＢ１階,,04,101,9800811,,,,,,,2025-11-27,1,,,,,ワンズ,0
536,2370003007383,新規,0,2025-11-27,2025-11-27,合同会社若一,,合同会社,宮城県,仙台市若林区,中倉３丁目１８番１０－３０６号,,04,103,9840821,,,,,,,2025-11-27,1,,,,,ワカイチ,0
537,2370003007391,新規,0,2025-11-27,2025-11-27,大立目牧場合同会社,,合同会社,宮城県,栗原市,築館字上高森下８０番地１,00141664,04,213,9872246,,,,,,,2025-11-27,1,,,,,オオタツメボクジョウ,0
546,2430001095746,新規,0,2025-11-27,2025-11-27,株式会社ＫＴ,,株式会社,北海道,札幌市白石区,菊水六条１丁目２番１１号,,01,104,0030806,,,,,,,2025-11-27,1,,,,,ケイティ,0
550,2440003001734,新規,0,2025-11-27,2025-11-27,合同会社中島れんばい山本商店,,合同会社,北海道,函館市,中島町２１番９号,,01,202,0400014,,,,,,,2025-11-27,1,,,,,ナカジマレンバイヤマモトショウテン,0
551,2450001014794,新規,0,2025-11-27,2025-11-27,株式会社Ｍｙ食米,,株式会社,北海道,雨竜郡北竜町,字美葉牛７４番地１,,01,437,0782501,,,,,,,2025-11-27,1,,,,,マイショクマイ,0
552,2460103001764,新規,0,2025-11-27,2025-11-27,合同会社Ｔ＆Ａ,,合同会社,北海道,帯広市,西七条南３９丁目２番１号ベルモント１０５号室,,01,207,0800017,,,,,,,2025-11-27,1,,,,,ティーアンドエー,0
554,2470001020989,新規,0,2025-11-27,2025-11-27,ＡＸ経営サポート株式会社,,株式会社,香川県,観音寺市,茂西町２丁目２番２９号,,37,205,7680073,,,,,,,2025-11-27,1,,,,,,0
556,2480001013018,新規,0,2025-11-27,2025-11-27,高橋興業株式会社,00141654,株式会社,徳島県,鳴門市,撫養町弁財天字ハマ１番地４３,,36,202,7720014,,,,,,,2025-11-27,1,,,,,タカハシコウギョウ,0
557,2490005007015,新規,0,2025-11-27,2025-11-27,ＮＰＯ法人古書広場,,その他の設立登記法人,高知県,土佐市,高岡町乙１７４番地,,39,205,7811102,,,,,,,2025-11-27,1,,,,,,0
565,3010001260382,新規,0,2025-11-27,2025-11-27,株式会社三好ヘルスケア,,株式会社,東京都,中央区,銀座１丁目２２番１１号銀座大竹ビジデンス２Ｆ,,13,102,1040061,,,,,,,2025-11-27,1,,,,,ミヨシヘルスケア,0
577,3010401194775,新規,0,2025-11-27,2025-11-27,株式会社大門一号,,株式会社,東京都,港区,芝大門２丁目２番１１号泉芝大門ビル５階,,13,103,1050012,,,,,,,2025-11-27,1,,,,,ダイモンイチゴウ,0
583,3010501055068,新規,0,2025-11-27,2025-11-27,株式会社ＫＰＣ,,株式会社,東京都,台東区,雷門２丁目１５番４－８０２号,,13,106,1110034,,,,,,,2025-11-27,1,,,,,ケーピーシー,0
584,3010501055084,新規,0,2025-11-27,2025-11-27,クロニュール株式会社,,株式会社,東京都,台東区,上野１丁目１７番６号広小路ビル８Ｆ－Ｂ,,13,106,1100005,,,,,,,2025-11-27,1,,,,,クロニュール,0
587,3010601068341,新規,0,2025-11-27,2025-11-27,株式会社マークスタイル,,株式会社,東京都,墨田区,錦糸３丁目２番１号アルカイースト５階,,13,107,1300013,,,,,,,2025-11-27,1,,,,,マークスタイル,0
590,3010803005621,新規,0,2025-11-27,2025-11-27,合同会社Ｆｌｏｕｒｉｓｈ,,合同会社,東京都,大田区,中央５丁目２２番３号,,13,111,1430024,,,,,,,2025-11-27,1,,,,,フローリッシュ,0
591,3010901058513,新規,0,2025-11-27,2025-11-27,株式会社キタリオエステート,,株式会社,東京都,世田谷区,北沢３丁目２７－１０ハウス下北沢２０４,,13,112,1550031,,,,,,,2025-11-27,1,,,,,キタリオエステート,0
595,3011001173780,新規,0,2025-11-27,2025-11-27,ハータイズ株式会社,,株式会社,東京都,渋谷区,神南１丁目１１番４号ＦＰＧリンクス神南５階,,13,113,1500041,,,,,,,2025-11-27,1,,,,,ハータイズ,0
596,3011001173905,新規,0,2025-11-27,2025-11-27,株式会社ＥＳＡＩ　Ａｇｅｎｃｙ,,株式会社,東京都,渋谷区,渋谷１丁目１０－７グローリア宮益坂ＩＩＩ８０１号室,00141656,13,113,1500002,,,,,,,2025-11-27,1,,,,,イーエスエーアイエージェンシー,0
599,3011003023034,新規,0,2025-11-27,2025-11-27,ＵＮＳＡＩＤ合同会社,,合同会社,東京都,渋谷区,道玄坂１丁目１０番８号渋谷道玄坂東急ビル２Ｆ―Ｃ,,13,113,1500043,,,,,,,2025-11-27,1,,,,,アンセイド,0
600,3011003023075,新規,0,2025-11-27,2025-11-27,合同会社ＪＦＵＮＩＯＮ,,合同会社,東京都,渋谷区,道玄坂１丁目１０番８号渋谷道玄坂東急ビル２Ｆ－Ｃ,,13,113,1500043,,,,,,,2025-11-27,1,,,,,ジェイエフユニオン,0
605,3011105011647,新規,0,2025-11-27,2025-11-27,一般社団法人ＳＰＶ１５,,その他の設立登記法人,東京都,新宿区,四谷２丁目９番地１５東京ユナイテッド綜合事務所内,,13,104,1600004,,,,,,,2025-11-27,1,,,,,エスピーブイジュウゴ,0
618,3020001165663,新規,0,2025-11-27,2025-11-27,株式会社ジェネータ,,株式会社,神奈川県,横浜市港北区,大豆戸町１１８７番地１,,14,109,2220032,,,,,,,2025-11-27,1,,,,,ジェネータ,0
619,3020001165861,新規,0,2025-11-27,2025-11-27,株式会社優品,,株式会社,神奈川県,横浜市鶴見区,鶴見中央５丁目２６番１６号クリオ鶴見七番館１００２号室,,14,101,2300051,,,,,,,2025-11-27,1,,,,,ユウヒン,0
620,3020001166026,新規,0,2025-11-27,2025-11-27,株式会社ＳＯＬＴＥＲＲＡ　ＲＥＡＬＴＹ,,株式会社,神奈川県,川崎市中原区,中丸子１２３７番地１クレッセント武蔵小杉グランデイズ弐番館２０３,,14,133,2110012,,,,,,,2025-11-27,1,,,,,ソルテラリアルティ,0
628,3021001086882,新規,0,2025-11-27,2025-11-27,布施建築株式会社,,株式会社,神奈川県,小田原市,田島４１６－６,,14,206,2560811,,,,,,,2025-11-27,1,,,,,フセケンチク,0
629,3021001086890,新規,0,2025-11-27,2025-11-27,株式会社トトノウ,,株式会社,神奈川県,藤沢市,鵠沼海岸２丁目７番２－１０２号,,14,205,2510037,,,,,,,2025-11-27,1,,,,,トトノウ,0
630,3021001086908,新規,0,2025-11-27,2025-11-27,株式会社甘鎌舎,,株式会社,神奈川県,鎌倉市,稲村ガ崎４丁目１番１２号,,14,204,2480024,,,,,,,2025-11-27,1,,,,,カンレンシャ,0
636,3030001169829,新規,0,2025-11-27,2025-11-27,熙晴商事株式会社,,株式会社,埼玉県,草加市,稲荷３丁目２３番７－２,,11,221,3400003,,,,,,,2025-11-27,1,,,,,キセイショウジ,0
638,3030003028124,新規,0,2025-11-27,2025-11-27,合同会社Ｂｕｓｉｎｅｓｓ　Ｔｏｇｅｔｈｅｒ,,合同会社,埼玉県,さいたま市南区,南浦和３丁目２３－１０弥生マンション４０５号室,,11,108,3360017,,,,,,,2025-11-27,1,,,,,ビジネストゥゲザー,0
640,3040001141539,新規,0,2025-11-27,2025-11-27,株式会社絆,,株式会社,千葉県,千葉市若葉区,加曽利町１８００番地１０７,,12,104,2640017,,,,,,,2025-11-27,1,,,,,キズナ,0
641,3060001038790,新規,0,2025-11-27,2025-11-27,ＥＭＩテクニクス株式会社,,株式会社,栃木県,宇都宮市,瑞穂２丁目９番地４号,,09,201,3210921,,,,,,,2025-11-27,1,,,,,イーエムアイテクニクス,0
643,3060003005863,新規,0,2025-11-27,2025-11-27,阿見合同会社,,合同会社,栃木県,那須塩原市,石林１２４番地５,,09,213,3292711,,,,,,,2025-11-27,1,,,,,アミ,0
648,3080001027296,新規,0,2025-11-27,2025-11-27,Ｍａｎｇｗｏｌ株式会社,,株式会社,静岡県,静岡市清水区,草薙２１５０－２,,22,103,4240886,,,,,,,2025-11-27,1,,,,,マンゴール,0
649,3100001039132,新規,0,2025-11-27,2025-11-27,株式会社ＬＩＢＥＲＩＺＥ,,株式会社,長野県,千曲市,大字土口１６０番地１ラヴィエベール２０３,,20,218,3870002,,,,,,,2025-11-27,1,,,,,リベライズ,0
658,3120001282176,新規,0,2025-11-27,2025-11-27,株式会社Ｒｉｔａ,,株式会社,大阪府,大阪市東住吉区,西今川３丁目３１番２号,,27,121,5460042,,,,,,,2025-11-27,1,,,,,リタ,0
659,3120001282184,新規,0,2025-11-27,2025-11-27,杉本株式会社,,株式会社,大阪府,大阪市中央区,島之内２丁目７番１９－３２２号,,27,128,5420082,,,,,,,2025-11-27,1,,,,,スギモト,0
660,3120001282226,新規,0,2025-11-27,2025-11-27,山喜アソシエ株式会社,,株式会社,大阪府,大阪市中央区,上町１丁目３番１号,,27,128,5400005,,,,,,,2025-11-27,1,,,,,ヤマキアソシエ,0
661,3120001282291,新規,0,2025-11-27,2025-11-27,Ｃａｌｙｓｓ株式会社,,株式会社,大阪府,大阪市生野区,勝山北４丁目７番１１号,,27,116,5440033,,,,,,,2025-11-27,1,,,,,カリス,0
662,3120001282333,新規,0,2025-11-27,2025-11-27,ＭＩＮＤＯ株式会社,,株式会社,大阪府,大阪市生野区,新今里３丁目１０番２０号富士グランドビル７０１,,27,116,5440001,,,,,,,2025-11-27,1,,,,,ミンド,0
669,3120101072865,新規,0,2025-11-27,2025-11-27,株式会社のぞみＬｉｎｋｓ,,株式会社,大阪府,藤井寺市,林３丁目１２番地３号,,27,226,5830007,,,,,,,2025-11-27,1,,,,,ノゾミリンクス,0
672,3120903005972,新規,0,2025-11-27,2025-11-27,合同会社山ノ泉,,合同会社,大阪府,箕面市,桜ケ丘１丁目１１番２２号,,27,220,5620046,,,,,,,2025-11-27,1,,,,,ヤマノイズミ,0
676,3122001039944,新規,0,2025-11-27,2025-11-27,向日葵株式会社,,株式会社,大阪府,大東市,浜町１１－１１,,27,218,5740041,,,,,,,2025-11-27,1,,,,,ヒマワリ,0
679,3130001081016,新規,0,2025-11-27,2025-11-27,デュコジャパン株式会社,,株式会社,京都府,京都市中京区,河原町通二条下る一之船入町３７６クロトビル,,26,104,6040924,,,,,,,2025-11-27,1,,,,,デュコジャパン,0
680,3130001081081,新規,0,2025-11-27,2025-11-27,株式会社ジョイティブ,,株式会社,京都府,京都市左京区,下鴨西本町２０番１－５０１,,26,103,6060826,,,,,,,2025-11-27,1,,,,,ジョイティブ,0
681,3130001081107,新規,0,2025-11-27,2025-11-27,株式会社Ｃａｓａ　Ｎｉｃｏ,,株式会社,京都府,京都市北区,小山北玄以町９－９,,26,101,6038103,,,,,,,2025-11-27,1,,,,,カーサニコ,0
683,3130003010930,新規,0,2025-11-27,2025-11-27,ｏｎＩＯｎ合同会社,,合同会社,京都府,福知山市,字猪崎小字奥屋敷１１９６番地１,,26,201,6200017,,,,,,,2025-11-27,1,,,,,オニオン,0
689,3140001140877,新規,0,2025-11-27,2025-11-27,株式会社ＢＵＬＬＲＯＳＹ,,株式会社,兵庫県,芦屋市,山手町２６番１－２０１号,,28,206,6590096,,,,,,,2025-11-27,1,,,,,ブルロジー,0
690,3140001140885,新規,0,2025-11-27,2025-11-27,プレスト株式会社,,株式会社,兵庫県,神戸市中央区,京町７９番地日本ビルヂングＢ１Ｆ,,28,110,6500034,,,,,,,2025-11-27,1,,,,,プレスト,0
692,3140003022891,新規,0,2025-11-27,2025-11-27,合同会社レアレア,,合同会社,兵庫県,神戸市西区,竜が岡１丁目４番地の４,,28,111,6512412,,,,,,,2025-11-27,1,,,,,レアレア,0
695,3160001027239,新規,0,2025-11-27,2025-11-27,株式会社ＭＳコンサル,,株式会社,滋賀県,大津市,本宮２丁目５番４５－１２０３号,,25,201,5200804,,,,,,,2025-11-27,1,,,,,エムエスコンサル,0
697,3160003003659,新規,0,2025-11-27,2025-11-27,合同会社Ｒｅｉｗａ,,合同会社,滋賀県,草津市,上笠４丁目６番１７号,,25,206,5250028,,,,,,,2025-11-27,1,,,,,レイワ,0
703,3180001169590,新規,0,2025-11-27,2025-11-27,株式会社ＨＵＭＥＤＩＡ　Ｊａｐａｎ．,,株式会社,愛知県,名古屋市中村区,名駅５丁目３３番２１号アクアタウン納屋橋３１０５号,,23,105,4500002,,,,,,,2025-11-27,1,,,,,ヒューメディアジャパン,0
704,3180001169624,新規,0,2025-11-27,2025-11-27,株式会社三ツ葉建設,,株式会社,愛知県,名古屋市北区,会所町５９番地の２,,23,103,4620061,,,,,,,2025-11-27,1,,,,,ミツバケンセツ,0
705,3180001169632,新規,0,2025-11-27,2025-11-27,株式会社Ｙ・Ｋ　Ｉｍｐｌｅｖｏ　Ｓｙｓｔｅｍｓ,,株式会社,愛知県,名古屋市中村区,名駅３丁目４－１０アルティメイト名駅１ｓｔ２階,,23,105,4500002,,,,,,,2025-11-27,1,,,,,ワイケーインプレヴォシステムズ,0
706,3180001169657,新規,0,2025-11-27,2025-11-27,株式会社インフィニティＰＬＵＳ,,株式会社,愛知県,あま市,坂牧郷９７番地２,,23,237,4901115,,,,,,,2025-11-27,1,,,,,インフィニティプラス,0
716,3200001044460,新規,0,2025-11-27,2025-11-27,株式会社浜源,,株式会社,岐阜県,岐阜市,今川１９４番地,,21,201,5011114,,,,,,,2025-11-27,1,,,,,ハマゲン,0
720,3230001021192,新規,0,2025-11-27,2025-11-27,株式会社須藤商事,,株式会社,富山県,射水市,三ケ１５２７番地,,16,211,9390341,,,,,,,2025-11-27,1,,,,,スドウショウジ,0
723,3240001065817,新規,0,2025-11-27,2025-11-27,株式会社ユイナス,,株式会社,広島県,福山市,箕沖町８６番地,,34,207,7210956,,,,,,,2025-11-27,1,,,,,ユイナス,0
728,3280001009547,新規,0,2025-11-27,2025-11-27,東會電業株式会社,,株式会社,島根県,松江市,東津田町１２１４番地３,,32,201,6900011,,,,,,,2025-11-27,1,,,,,トウカイデンギョウ,0
737,3290001112267,新規,0,2025-11-27,2025-11-27,株式会社オルビスケア,,株式会社,福岡県,嘉穂郡桂川町,大字吉隈８１０－２７,,40,421,8200609,,,,,,,2025-11-27,1,,,,,オルビスケア,0
744,3300003002381,新規,0,2025-11-27,2025-11-27,Ｆｒｅｅ　Ｒａｉｎ合同会社,,合同会社,佐賀県,小城市,小城町１７９番地１２,,41,208,8450001,,,,,,,2025-11-27,1,,,,,フリーレイン,0
755,3330003011330,新規,0,2025-11-27,2025-11-27,合同会社雅,,合同会社,熊本県,熊本市南区,近見４丁目２番６６号,,43,104,8614101,,,,,,,2025-11-27,1,,,,,ミヤビ,0
758,3340001027807,新規,0,2025-11-27,2025-11-27,株式会社アール・エス,,株式会社,鹿児島県,鹿児島市,明和３丁目３４番２０号,,46,201,8900024,,,,,,,2025-11-27,1,,,,,アールエス,0
760,3350003005082,新規,0,2025-11-27,2025-11-27,ハーモニーライフサポート合同会社,,合同会社,宮崎県,宮崎市,江平西１丁目３―１２アルファステイツ江平小前１００２号,,45,201,8800051,,,,,,,2025-11-27,1,,,,,ハーモニーライフサポート,0
762,3360003015428,新規,0,2025-11-27,2025-11-27,合同会社モトム,,合同会社,沖縄県,石垣市,字大浜３８０番地５第１０沖創１０２,,47,207,9070001,,,,,,,2025-11-27,1,,,,,モトム,0
766,3370003007390,新規,0,2025-11-27,2025-11-27,合同会社前賢商店,,合同会社,宮城県,石巻市,前谷地字兀山谷地１８番地９,,04,202,9871101,,,,,,,2025-11-27,1,,,,,マエケンショウテン,0
772,3410001014327,新規,0,2025-11-27,2025-11-27,肉家長沼株式会社,,株式会社,秋田県,大仙市,大花町５番６８号,,05,212,0140022,,,,,,,2025-11-27,1,,,,,ニクヤナガヌマ,0
777,3440001009720,新規,0,2025-11-27,2025-11-27,株式会社佐々木設備,,株式会社,北海道,函館市,深堀町１４番９－１号,,01,202,0420941,,,,,,,2025-11-27,1,,,,,ササキセツビ,0
779,3450001014793,新規,0,2025-11-27,2025-11-27,株式会社ファーム道下,,株式会社,北海道,雨竜郡北竜町,字美葉牛６５番地１,,01,437,0782501,,,,,,,2025-11-27,1,,,,,ファームミチシタ,0
783,3470003003025,新規,0,2025-11-27,2025-11-27,合同会社デジラボ,,合同会社,香川県,さぬき市,大川町富田東１１２３番地,,37,206,7610903,,,,,,,2025-11-27,1,,,,,デジラボ,0
790,4010001260638,新規,0,2025-11-27,2025-11-27,月島ユティライズ株式会社,,株式会社,東京都,中央区,勝どき１丁目７番３号,,13,102,1040054,,,,,,,2025-11-27,1,,,,,,0
791,4010001260646,新規,0,2025-11-27,2025-11-27,株式会社クォーターフル・ジャパン,,株式会社,東京都,千代田区,麹町４丁目５－２０ＫＳビル８階,,13,101,1020083,,,,,,,2025-11-27,1,,,,,クォーターフルジャパン,0
796,4010003049542,新規,0,2025-11-27,2025-11-27,アントレグラフ合同会社,,合同会社,東京都,千代田区,神田神保町３丁目１１番６号神保町ビル１０階,,13,101,1010051,,,,,,,2025-11-27,1,,,,,アントレグラフ,0
798,4010005040986,新規,0,2025-11-27,2025-11-27,一般社団法人鯨十字,,その他の設立登記法人,東京都,中央区,日本橋室町３丁目２番１号日本橋室町三井タワー７階,,13,102,1030022,,,,,,,2025-11-27,1,,,,,クジラジュウジ,0
801,4010401194766,新規,0,2025-11-27,2025-11-27,株式会社Ｓｏｗ,,株式会社,東京都,港区,南青山３丁目１番３６号青山丸竹ビル６Ｆ,,13,103,1070062,,,,,,,2025-11-27,1,,,,,ソウ,0
804,4010501055034,新規,0,2025-11-27,2025-11-27,株式会社ハウリン,,株式会社,東京都,台東区,台東２丁目１０－２池田ビル４０２,,13,106,1100016,,,,,,,2025-11-27,1,,,,,ハウリン,0
807,4010503008089,新規,0,2025-11-27,2025-11-27,フォーチュリング合同会社,,合同会社,東京都,台東区,千束４丁目２８番１８号,,13,106,1110031,,,,,,,2025-11-27,1,,,,,フォーチュリング,0
808,4010503008097,新規,0,2025-11-27,2025-11-27,合同会社鍛衛堂,,合同会社,東京都,台東区,寿３丁目１３番１０－２０５号中銀浅草寿町マンシオン,,13,106,1110042,,,,,,,2025-11-27,1,,,,,タンエイドウ,0
809,4010601068299,新規,0,2025-11-27,2025-11-27,株式会社Ｃａｐｅｓｔｏｎｅ,,株式会社,東京都,墨田区,八広５丁目６－６ＳＲＳ八広,,13,107,1310041,,,,,,,2025-11-27,1,,,,,ケープストーン,0
810,4010601068332,新規,0,2025-11-27,2025-11-27,Ｇｉｒａｆｆｅ　Ｖｉｓｉｏｎ株式会社,,株式会社,東京都,江東区,青海２丁目５－１０テレコムセンタービル東棟１４階,,13,108,1350064,,,,,,,2025-11-27,1,,,,,ジラフェヴィジョン,0
814,4010701048671,新規,0,2025-11-27,2025-11-27,株式会社Ｐｒｅｇｏ,,株式会社,東京都,品川区,西中延２丁目９番１２号,,13,109,1420054,,,,,,,2025-11-27,1,,,,,プレゴ,0
817,4010901058504,新規,0,2025-11-27,2025-11-27,株式会社企画と規格,,株式会社,東京都,世田谷区,桜２丁目９番２８号,,13,112,1560053,,,,,,,2025-11-27,1,,,,,キカクトキカク,0
818,4010901058529,新規,0,2025-11-27,2025-11-27,株式会社ＲａＬｌｙ,,株式会社,東京都,世田谷区,池尻２丁目３５番７号ベルア三宿２０３,,13,112,1540001,,,,,,,2025-11-27,1,,,,,ラリー,0
820,4010903010446,新規,0,2025-11-27,2025-11-27,合同会社ＴＲＥＡＤ　ＦＯＲＷＡＲＤ,,合同会社,東京都,世田谷区,北沢１丁目４５番３９号チサンマンション２０９号室,,13,112,1550031,,,,,,,2025-11-27,1,,,,,トレッドフォワード,0
825,4011001173111,新規,0,2025-11-27,2025-11-27,株式会社メグリエイト,,株式会社,東京都,渋谷区,恵比寿４丁目２８番２－３０４号,,13,113,1500013,,,,,,,2025-11-27,1,,,,,メグリエイト,0
826,4011001173895,新規,0,2025-11-27,2025-11-27,旅デザイン株式会社,,株式会社,東京都,目黒区,鷹番２丁目２０番２０号,,13,110,1520004,,,,,,,2025-11-27,1,,,,,タビデザイン,0
827,4011003022935,新規,0,2025-11-27,2025-11-27,ｓｕｍｏｍｏ合同会社,,合同会社,東京都,目黒区,三田２丁目１０番５９－５０３号秀和目黒レジデンス,,13,110,1530062,,,,,,,2025-11-27,1,,,,,スモモ,0
828,4011003023074,新規,0,2025-11-27,2025-11-27,合同会社ミラ・スタンス,,合同会社,東京都,渋谷区,道玄坂１丁目１０番８号渋谷道玄坂東急ビル２Ｆ－Ｃ,,13,113,1500043,,,,,,,2025-11-27,1,,,,,ミラスタンス,0
839,4011101113867,新規,0,2025-11-27,2025-11-27,株式会社Ｎｅｘｃｅｎｄ,,株式会社,東京都,新宿区,西新宿３丁目３番１３号西新宿水間ビル２Ｆ,,13,104,1600023,,,,,,,2025-11-27,1,,,,,ネクセンド,0
842,4011103016647,新規,0,2025-11-27,2025-11-27,合同会社ＳＰＶ１５,,合同会社,東京都,新宿区,四谷２丁目９番地１５東京ユナイテッド綜合事務所内,,13,104,1600004,,,,,,,2025-11-27,1,,,,,エスピーブイジュウゴ,0
843,4011105011646,新規,0,2025-11-27,2025-11-27,一般社団法人ＳＰＶ１４,,その他の設立登記法人,東京都,新宿区,四谷２丁目９番地１５東京ユナイテッド綜合事務所内,,13,104,1600004,,,,,,,2025-11-27,1,,,,,エスピーブイジュウヨン,0
846,4011401027610,新規,0,2025-11-27,2025-11-27,株式会社好喜,,株式会社,東京都,板橋区,中台１丁目２４番２号,,13,119,1740064,,,,,,,2025-11-27,1,,,,,コウキ,0
847,4011401027619,新規,0,2025-11-27,2025-11-27,株式会社ＯＲＩＨＵ,,株式会社,東京都,板橋区,前野町２丁目１９番１号,,13,119,1740063,,,,,,,2025-11-27,1,,,,,,0
851,4011803007210,新規,0,2025-11-27,2025-11-27,Ｔ・Ｍアセットマネジメント合同会社,,合同会社,東京都,葛飾区,お花茶屋３丁目２４番３号,,13,122,1240003,,,,,,,2025-11-27,1,,,,,ティエムアセットマネジメント,0
852,4012401043829,新規,0,2025-11-27,2025-11-27,株式会社Ｂ‐Ｆｌｅｘ,,株式会社,東京都,武蔵野市,吉祥寺南町２丁目１１番１３号メゾンセルジェ１０１号室,,13,203,1800003,,,,,,,2025-11-27,1,,,,,ビーフレックス,0
854,4012701019207,新規,0,2025-11-27,2025-11-27,株式会社アフロ,,株式会社,東京都,東村山市,野口町１丁目２６番地２５,,13,213,1890022,,,,,,,2025-11-27,1,,,,,アフロ,0
855,4012703003415,新規,0,2025-11-27,2025-11-27,合同会社はるぞら,,合同会社,東京都,東村山市,美住町１丁目１２番地５プレジオＭＣ１０３号室,,13,213,1890023,,,,,,,2025-11-27,1,,,,,ハルゾラ,0
861,4020001165910,新規,0,2025-11-27,2025-11-27,株式会社石村商会,,株式会社,神奈川県,川崎市多摩区,東三田３丁目１０番１－６０７号,,14,135,2140033,,,,,,,2025-11-27,1,,,,,イシムラショウカイ,0
862,4020001165992,新規,0,2025-11-27,2025-11-27,株式会社高木ホールディングス,,株式会社,神奈川県,横浜市鶴見区,獅子ケ谷３丁目５番２７号,,14,101,2300073,,,,,,,2025-11-27,1,,,,,タカギホールディングス,0
863,4020001166000,新規,0,2025-11-27,2025-11-27,株式会社ニッケンホールディングス,,株式会社,神奈川県,横浜市緑区,長津田町２９４２番地１,,14,113,2260026,,,,,,,2025-11-27,1,,,,,ニッケンホールディングス,0
868,4020003029774,新規,0,2025-11-27,2025-11-27,合同会社ＥＵＲＥＶＯ,,合同会社,神奈川県,横浜市神奈川区,金港町５－１４クアドリフォリオ８階,,14,102,2210056,,,,,,,2025-11-27,1,,,,,,0
872,4021001086907,新規,0,2025-11-27,2025-11-27,株式会社三翔空間設計,,株式会社,神奈川県,鎌倉市,材木座３丁目６番２０号,,14,204,2480013,,,,,,,2025-11-27,1,,,,,サンショウクウカンセッケイ,0
873,4021003016829,新規,0,2025-11-27,2025-11-27,合同会社ＫＥＹ,,合同会社,神奈川県,藤沢市,本鵠沼３丁目８－３,,14,205,2510028,,,,,,,2025-11-27,1,,,,,キー,0
874,4021003016837,新規,0,2025-11-27,2025-11-27,ＳＫ合同会社,,合同会社,神奈川県,大和市,福田５５２８番地１ライオンズプラザ桜ケ丘駅前３０４号,,14,213,2420024,,,,,,,2025-11-27,1,,,,,,0
880,4030003028156,新規,0,2025-11-27,2025-11-27,合同会社梅田デジタルサービス,,合同会社,埼玉県,白岡市,小久喜６７５－１パークシティ白岡Ｃ－１１１５,,11,246,3490217,,,,,,,2025-11-27,1,,,,,ウメダデジタルサービス,0
888,4040001141538,新規,0,2025-11-27,2025-11-27,八尾工業株式会社,,株式会社,千葉県,千葉市稲毛区,天台６丁目２－６,,12,103,2630016,,,,,,,2025-11-27,1,,,,,ヤオコウギョウ,0
889,4040003029038,新規,0,2025-11-27,2025-11-27,合同会社い,,合同会社,千葉県,我孫子市,つくし野３丁目１８番２０８号,,12,222,2701164,,,,,,,2025-11-27,1,,,,,イ,0
890,4040003029046,新規,0,2025-11-27,2025-11-27,合同会社ＨＩＧＨＶＡＬＬＥＹ,,合同会社,千葉県,習志野市,鷺沼台３丁目１９番２２号,,12,216,2750015,,,,,,,2025-11-27,1,,,,,ハイバレイ,0
899,4060003005862,新規,0,2025-11-27,2025-11-27,合同会社ＰＵＬＣＨＲＡ,,合同会社,栃木県,宇都宮市,上戸祭町３００８―５,,09,201,3200051,,,,,,,2025-11-27,1,,,,,プルクラ,0
903,4080101025918,新規,0,2025-11-27,2025-11-27,株式会社飛翔グループ,,株式会社,静岡県,熱海市,水口町１２番１６－８号,,22,205,4130016,,,,,,,2025-11-27,1,,,,,ヒショウグループ,0
905,4100001039131,新規,0,2025-11-27,2025-11-27,株式会社山友,,株式会社,長野県,中野市,大字三ツ和１０７９番地１,,20,211,3830043,,,,,,,2025-11-27,1,,,,,サンユウ,0
907,4100003008480,新規,0,2025-11-27,2025-11-27,合同会社ひとりごと,,合同会社,長野県,諏訪郡富士見町,落合９９８４－３２７,,20,362,3990214,,,,,,,2025-11-27,1,,,,,ヒトリゴト,0
919,4120001282209,新規,0,2025-11-27,2025-11-27,株式会社Ｍｅｒｃｅｒｉｅ,,株式会社,大阪府,大阪市中央区,東心斎橋１丁目９番１９号３０７号室,,27,128,5420083,,,,,,,2025-11-27,1,,,,,メルスリー,0
920,4120001282274,新規,0,2025-11-27,2025-11-27,ぱんけーきすたじお株式会社,,株式会社,大阪府,大阪市中央区,道頓堀２丁目４番１３号,,27,128,5420071,,,,,,,2025-11-27,1,,,,,パンケーキスタジオ,0
921,4120001282290,新規,0,2025-11-27,2025-11-27,株式会社となり,,株式会社,大阪府,大阪市西区,立売堀１丁目４‐１２,,27,106,5500012,,,,,,,2025-11-27,1,,,,,トナリ,0
922,4120001282299,新規,0,2025-11-27,2025-11-27,株式会社ＳＣ・ＨＯＭＥ,,株式会社,大阪府,大阪市淀川区,西中島６丁目２番３号２２４号,,27,123,5320011,,,,,,,2025-11-27,1,,,,,エスシーホーム,0
923,4120003031324,新規,0,2025-11-27,2025-11-27,ＵＮＣＨＩ　ＰＲＯＤＵＣＥ合同会社,,合同会社,大阪府,大阪市淀川区,西中島１丁目１３番２１号,,27,123,5320011,,,,,,,2025-11-27,1,,,,,ウンチプロデュース,0
931,4120901051844,新規,0,2025-11-27,2025-11-27,株式会社ここりえ,,株式会社,大阪府,豊中市,中桜塚１丁目１９番４号,,27,203,5610881,,,,,,,2025-11-27,1,,,,,ココリエ,0
932,4122001039935,新規,0,2025-11-27,2025-11-27,株式会社ｒｕｎ　ｒｕｎエステ,,株式会社,大阪府,八尾市,安中町８丁目４番９号－１０２,,27,212,5810085,,,,,,,2025-11-27,1,,,,,ルンルンエステ,0
943,4130001081097,新規,0,2025-11-27,2025-11-27,株式会社ＧＯＫＵ　ＴＲＩＰ,,株式会社,京都府,宇治市,宇治下居５５番地,,26,204,6110021,,,,,,,2025-11-27,1,,,,,ゴクトリップ,0
945,4140001140918,新規,0,2025-11-27,2025-11-27,株式会社ＢＲＯＣＣＯＬＩＺ,,株式会社,兵庫県,小野市,市場町５０１,,28,218,6751327,,,,,,,2025-11-27,1,,,,,ブロッコリーズ,0
946,4160001027246,新規,0,2025-11-27,2025-11-27,株式会社ｍｕｍｕ,,株式会社,滋賀県,守山市,今浜町２５３２番地５,,25,207,5240101,,,,,,,2025-11-27,1,,,,,ムームー,0
952,4180001169631,新規,0,2025-11-27,2025-11-27,株式会社ＰＡＭ,,株式会社,愛知県,名古屋市中区,丸の内１丁目６番８号,,23,106,4600002,,,,,,,2025-11-27,1,,,,,パム,0
953,4180001169664,新規,0,2025-11-27,2025-11-27,株式会社バビロンテック,,株式会社,愛知県,名古屋市北区,大曽根３丁目７番４３号,,23,103,4620825,,,,,,,2025-11-27,1,,,,,バビロンテック,0
960,4190001032714,新規,0,2025-11-27,2025-11-27,創和ホールディングス株式会社,,株式会社,三重県,津市,雲出伊倉津町１２７１番地の１,,24,201,5140302,,,,,,,2025-11-27,1,,,,,ソウワホールディングス,0
964,4210001020402,新規,0,2025-11-27,2025-11-27,三和翔建株式会社,,株式会社,福井県,坂井市,丸岡町一本田第３５号３５番地２,,18,210,9100254,,,,,,,2025-11-27,1,,,,,サンワショウケン,0
983,4290001112233,新規,0,2025-11-27,2025-11-27,株式会社ＥＮＴＲＡＣＴＥ,,株式会社,福岡県,福岡市博多区,博多駅前１丁目２３番２号ＰａｒｋＦｒｏｎｔ博多駅前１丁目５Ｆ－Ｂ,,40,132,8120011,,,,,,,2025-11-27,1,,,,,エントラクト,0
984,4290001112258,新規,0,2025-11-27,2025-11-27,モリジナルコーポレーション株式会社,,株式会社,福岡県,福岡市中央区,長浜３丁目１７番１０－２０２号ＨＦ大濠レジデンスＢＡＹＳＩＤＥ,,40,133,8100072,,,,,,,2025-11-27,1,,,,,モリジナルコーポレーション,0
985,4290001112266,新規,0,2025-11-27,2025-11-27,Ｒｙｕ　Ｅｌｅｃｔｒｏｎｉｃｓ　Ｅｎｔｅｒｐｒｉｓｅ株式会社,,株式会社,福岡県,福岡市西区,拾六町１丁目２６番２５－２０１号アーサー橋本駅ネオシス,,40,135,8190041,,,,,,,2025-11-27,1,,,,,リュウエレクトロニクスエンタープライズ,0
986,4290001112290,新規,0,2025-11-27,2025-11-27,株式会社Ｌａｂ　Ｆｕｋｕ,,株式会社,福岡県,福岡市中央区,大名２丁目６－５０福岡大名ガーデンシティ８Ｆ,,40,133,8100041,,,,,,,2025-11-27,1,,,,,ラボフク,0
990,4290003017538,新規,0,2025-11-27,2025-11-27,合同会社Ｂｌｕｅ　Ｃａｂｉｎ,,合同会社,福岡県,太宰府市,宰府３丁目３－３,,40,221,8180117,,,,,,,2025-11-27,1,,,,,ブルーキャビン,0
993,4290805009880,新規,0,2025-11-27,2025-11-27,特定非営利活動法人ウエルラボ,,その他の設立登記法人,福岡県,北九州市小倉北区,城内７－１７－２６０４,,40,106,8030813,,,,,,,2025-11-27,1,,,,,ウエルラボ,0
997,4310001019863,新規,0,2025-11-27,2025-11-27,株式会社太田商会,,株式会社,長崎県,佐世保市,天神５丁目３５番１号,,42,202,8571174,,,,,,,2025-11-27,1,,,,,オオタショウカイ,0
1004,4340003005025,新規,0,2025-11-27,2025-11-27,ＵＳデザインラボ合同会社,,合同会社,鹿児島県,鹿児島市,易居町５番１５号,,46,201,8920815,,,,,,,2025-11-27,1,,,,,ユーエスデザインラボ,0
1006,4360003015427,新規,0,2025-11-27,2025-11-27,合同会社ＨＩＮＡＴＡ,,合同会社,沖縄県,島尻郡与那原町,字与那原３２０５－１ニューライフ与那原６０５,,47,348,9011303,,,,,,,2025-11-27,1,,,,,ヒナタ,0
1008,4380003006192,新規,0,2025-11-27,2025-11-27,合同会社Ｏ＆Ｈ,,合同会社,福島県,郡山市,八山田５丁目２１０番地,,07,203,9638052,,,,,,,2025-11-27,1,,,,,オーアンドエイチ,0
1011,4430001095744,新規,0,2025-11-27,2025-11-27,株式会社Ｌｕｎａ　ｅ　ｇｕｆｏ,,株式会社,北海道,札幌市豊平区,美園八条７丁目２番６－３０１号,,01,105,0620008,,,,,,,2025-11-27,1,,,,,ルナイグフォ,0
1014,4430003018348,新規,0,2025-11-27,2025-11-27,合同会社ＥｖｅｎＰａｔｈ,,合同会社,北海道,苫小牧市,川沿町６丁目１番１５号,,01,213,0530822,,,,,,,2025-11-27,1,,,,,イーブンパス,0
1015,4470001020987,新規,0,2025-11-27,2025-11-27,株式会社シェルブ,,株式会社,香川県,丸亀市,塩屋町２丁目５番１９号,,37,202,7630065,,,,,,,2025-11-27,1,,,,,シェルブ,0
1016,4480001013016,新規,0,2025-11-27,2025-11-27,株式会社フリーリア,,株式会社,徳島県,徳島市,山城町東浜傍示６９－４オフィスＭ２・Ａ号室,,36,201,7708055,,,,,,,2025-11-27,1,,,,,フリーリア,0
1018,4700150133070,新規,0,2025-11-27,2025-11-27,ＪＯ　ＭＡＲＩＮＥ　ＰＡＮＡＭＡ　Ｓ．Ａ．,,外国会社等,愛媛県,今治市,小泉３丁目１１－８　有限会社ジェイオーマリン内,,38,202,7940064,ＢＩＣＳＡ　Ｆｉｎａｎｃｉａｌ　Ｃｅｎｔｅｒ，６０ｔｈ　Ｆｌｏｏｒ，Ｂａｌｂｏａ　Ａｖｅｎｕｅ，Ｐａｎａｍａ　Ｃｉｔｙ，Ｒｅｐｕｂｌｉｃ　ｏｆ　Ｐａｎａｍａ,,,,,,2025-11-27,1,,,,,ジエイオーマリンパナマエスエイ,0
1029,5010001260471,新規,0,2025-11-27,2025-11-27,株式会社ウワワ,,株式会社,東京都,中央区,東日本橋１丁目４―３矢ノ倉Ｙビル４階,,13,102,1030004,,,,,,,2025-11-27,1,,,,,ウワワ,0
1030,5010001260653,新規,0,2025-11-27,2025-11-27,株式会社Ｆｉｎａ,,株式会社,東京都,中央区,日本橋室町１丁目１１番１２号日本橋水野ビル７階,,13,102,1030022,,,,,,,2025-11-27,1,,,,,フィナ,0
1031,5010001260703,新規,0,2025-11-27,2025-11-27,株式会社ＴＥＮＫＩＡ,,株式会社,東京都,千代田区,神田須田町１丁目７番８号ＶＯＲＴ秋葉原ＩＶ２Ｆ,00141665,13,101,1010041,,,,,,,2025-11-27,1,,,,,テンキア,0
1050,5010401194484,新規,0,2025-11-27,2025-11-27,株式会社ＢＬＯＯＭ,,株式会社,東京都,港区,六本木６丁目１０番１号六本木ヒルズ森タワー１６Ｆ,,13,103,1060032,,,,,,,2025-11-27,1,,,,,ブルーム,0
1051,5010401194757,新規,0,2025-11-27,2025-11-27,株式会社ビーケー２,,株式会社,東京都,港区,虎ノ門２丁目６番１号虎ノ門ヒルズステーションタワー,,13,103,1050001,,,,,,,2025-11-27,1,,,,,ビーケーツー,0
1052,5010401194807,新規,0,2025-11-27,2025-11-27,ＬＣＪ　Ｈｏｒｉｚｏｎ株式会社,,株式会社,東京都,港区,赤坂９丁目７番１号ミッドタウン・タワー２４階,,13,103,1070052,,,,,,,2025-11-27,1,,,,,エルシージェーホライゾン,0
1058,5010501055090,新規,0,2025-11-27,2025-11-27,株式会社福未,,株式会社,東京都,台東区,浅草橋２丁目９番４－２０２号,,13,106,1110053,,,,,,,2025-11-27,1,,,,,フクミ,0
1060,5010701048662,新規,0,2025-11-27,2025-11-27,株式会社松田企画,,株式会社,東京都,品川区,東大井５丁目１５番１４－１３０２号,,13,109,1400011,,,,,,,2025-11-27,1,,,,,マツダキカク,0
1065,5010903010437,新規,0,2025-11-27,2025-11-27,ＡＳＵＫＡ合同会社,,合同会社,東京都,世田谷区,上馬２丁目２３番６－１０７号,,13,112,1540011,,,,,,,2025-11-27,1,,,,,アスカ,0
1069,5011001173572,新規,0,2025-11-27,2025-11-27,株式会社ＴＯＷＡＹＯ,,株式会社,東京都,渋谷区,本町２丁目３９番１７号,,13,113,1510071,,,,,,,2025-11-27,1,,,,,トワヨ,0
1070,5011001173671,新規,0,2025-11-27,2025-11-27,株式会社ＣａｎＡｃｔｉｏｎ,,株式会社,東京都,渋谷区,神南１丁目１１‐４ＦＰＧリンクス神南５階,,13,113,1500041,,,,,,,2025-11-27,1,,,,,キャナクション,0
1071,5011001173713,新規,0,2025-11-27,2025-11-27,Ｍｏｄｅ　Ｃｈａｎｇｅ株式会社,,株式会社,東京都,渋谷区,神南１丁目１１番４号ＦＰＧリンクス神南５階,,13,113,1500041,,,,,,,2025-11-27,1,,,,,モードチェンジ,0
1072,5011001173779,新規,0,2025-11-27,2025-11-27,まるみ株式会社,,株式会社,東京都,渋谷区,渋谷２丁目１９番１９号ワコー宮益坂ビル５階,,13,113,1500002,,,,,,,2025-11-27,1,,,,,マルミ,0
1073,5011001173812,新規,0,2025-11-27,2025-11-27,ＢｒａｎＤｅｖ株式会社,,株式会社,東京都,目黒区,碑文谷５丁目２番５号Ｔ＆Ａビル５Ｆ,,13,110,1520003,,,,,,,2025-11-27,1,,,,,ブランデヴ,0
1074,5011003022983,新規,0,2025-11-27,2025-11-27,Ｍｅｇａ　Ｄｉａｍａｎｔｅ合同会社,,合同会社,東京都,渋谷区,大山町３６番２４号グローリア初穂代々木上原４０２,,13,113,1510065,,,,,,,2025-11-27,1,,,,,メガディアマンテ,0
1075,5011003022991,新規,0,2025-11-27,2025-11-27,合同会社箕輪,,合同会社,東京都,渋谷区,道玄坂１丁目１０番８号渋谷道玄坂東急ビル２Ｆ－Ｃ,,13,113,1500043,,,,,,,2025-11-27,1,,,,,ミノワ,0
1076,5011003023032,新規,0,2025-11-27,2025-11-27,合同会社ＳＱＵＡＲＥ,,合同会社,東京都,渋谷区,西原２丁目２４番１―５０８号パークホームズ代々木西原,,13,113,1510066,,,,,,,2025-11-27,1,,,,,スクエア,0
1082,5011103016646,新規,0,2025-11-27,2025-11-27,合同会社ＳＰＶ１４,,合同会社,東京都,新宿区,四谷２丁目９番地１５東京ユナイテッド綜合事務所内,,13,104,1600004,,,,,,,2025-11-27,1,,,,,エスピーブイジュウヨン,0
1084,5011105011645,新規,0,2025-11-27,2025-11-27,一般社団法人ＳＰＶ１３,,その他の設立登記法人,東京都,新宿区,四谷２丁目９番地１５東京ユナイテッド綜合事務所内,,13,104,1600004,,,,,,,2025-11-27,1,,,,,エスピーブイジュウサン,0
1088,5011401027618,新規,0,2025-11-27,2025-11-27,株式会社ＢＬＵＥ　ＡＲＴ,,株式会社,東京都,板橋区,高島平３丁目１０－６－４０２,,13,119,1750082,,,,,,,2025-11-27,1,,,,,ブルーアート,0
1096,5012701019206,新規,0,2025-11-27,2025-11-27,株式会社メンドー,,株式会社,東京都,小平市,学園西町１丁目１９番１４－４０２号,,13,211,1870045,,,,,,,2025-11-27,1,,,,,メンドー,0
1099,5012801024386,新規,0,2025-11-27,2025-11-27,株式会社Ｒ,,株式会社,東京都,立川市,高松町２丁目１番２７号立川メディカルビル７階,,13,202,1900011,,,,,,,2025-11-27,1,,,,,アール,0
1100,5012803003933,新規,0,2025-11-27,2025-11-27,合同会社エンデン,,合同会社,東京都,日野市,豊田３丁目２５番地の２１,,13,212,1910053,,,,,,,2025-11-27,1,,,,,エンデン,0
1112,5020003029815,新規,0,2025-11-27,2025-11-27,Ｈｅｘａ合同会社,,合同会社,神奈川県,横浜市都筑区,東山田４丁目１８－５,,14,118,2240023,,,,,,,2025-11-27,1,,,,,ヘキサ,0
1113,5020003029848,新規,0,2025-11-27,2025-11-27,マニラニュースデイリー合同会社,,合同会社,神奈川県,川崎市多摩区,長尾１丁目１５番３号小倉ビル２０２号,,14,135,2140023,,,,,,,2025-11-27,1,,,,,マニラニュースデイリー,0
1114,5020003029880,新規,0,2025-11-27,2025-11-27,フロンティアアセットマネジメント合同会社,,合同会社,神奈川県,横浜市神奈川区,台町１４番地２３オープンレジデンシア横浜台町７０１号,,14,102,2210834,,,,,,,2025-11-27,1,,,,,フロンティアアセットマネジメント,0
1115,5020005017058,新規,0,2025-11-27,2025-11-27,一般社団法人産業教育推進機構,,その他の設立登記法人,神奈川県,横浜市金沢区,六浦２丁目２番３号若松ハイツ店上２０２号室,,14,108,2360031,,,,,,,2025-11-27,1,,,,,サンギョウキョウイクスイシンキコウ,0
1119,5021001086880,新規,0,2025-11-27,2025-11-27,株式会社スカイドラゴン,,株式会社,神奈川県,相模原市緑区,西橋本１丁目８番４号,,14,151,2520131,,,,,,,2025-11-27,1,,,,,スカイドラゴン,0
1124,5030001169835,新規,0,2025-11-27,2025-11-27,新城グループホールディングス株式会社,,株式会社,埼玉県,さいたま市北区,東大成町２丁目４１８番地,,11,102,3310814,,,,,,,2025-11-27,1,,,,,シンジョウグループホールディングス,0
1126,5030003028147,新規,0,2025-11-27,2025-11-27,合同会社ＳＯＲＡ,,合同会社,埼玉県,富士見市,針ケ谷２丁目１９番地１０,,11,235,3540017,,,,,,,2025-11-27,1,,,,,ソラ,0
1132,5040001141561,新規,0,2025-11-27,2025-11-27,イオンヘルステック株式会社,,株式会社,千葉県,千葉市美浜区,中瀬１丁目５番地１,,12,106,2610023,,,,,,,2025-11-27,1,,,,,イオンヘルステック,0
1141,5040003029037,新規,0,2025-11-27,2025-11-27,京葉リアルエステート合同会社,,合同会社,千葉県,千葉市中央区,大巌寺町２９７番地５,,12,101,2600812,,,,,,,2025-11-27,1,,,,,ケイヨウリアルエステート,0
1142,5060001038789,新規,0,2025-11-27,2025-11-27,Ｈａｉｒ　Ｓａｌｏｎ　Ｌａｎａ株式会社,,株式会社,栃木県,宇都宮市,氷室町１６２７番地１２４,,09,201,3213232,,,,,,,2025-11-27,1,,,,,ヘアサロンラナ,0
1150,5080401028280,新規,0,2025-11-27,2025-11-27,株式会社ｋｉｋｕｉｃｈｉｒｉｎ,,株式会社,静岡県,浜松市中央区,小池町２６２７番地,,22,138,4350056,,,,,,,2025-11-27,1,,,,,キクイチリン,0
1163,5120001282257,新規,0,2025-11-27,2025-11-27,株式会社ＰＥＡＣＥ　ＯＮホールディングス,,株式会社,大阪府,大阪市阿倍野区,播磨町１丁目２２番１１号,,27,119,5450022,,,,,,,2025-11-27,1,,,,,ピースオンホールディングス,0
1167,5120003031331,新規,0,2025-11-27,2025-11-27,合同会社Ｌｅｉ,,合同会社,大阪府,大阪市北区,長柄西１丁目２番２５－６０５号,,27,127,5310061,,,,,,,2025-11-27,1,,,,,レイ,0
1174,5120103006869,新規,0,2025-11-27,2025-11-27,合同会社ＶＯＮＮＥＸ,,合同会社,大阪府,大阪狭山市,狭山５丁目２２４４‐１セザール狭山２０４号,,27,231,5890005,,,,,,,2025-11-27,1,,,,,ボネックス,0
1178,5122001039942,新規,0,2025-11-27,2025-11-27,株式会社月,,株式会社,大阪府,東大阪市,森河内東１丁目１１番２５号,,27,227,5770062,,,,,,,2025-11-27,1,,,,,ツキ,0
1179,5122001039975,新規,0,2025-11-27,2025-11-27,株式会社お先生,,株式会社,大阪府,八尾市,教興寺２丁目４８番地の２,,27,212,5810874,,,,,,,2025-11-27,1,,,,,オセンセイ,0
1181,5122003003401,新規,0,2025-11-27,2025-11-27,レジサポート合同会社,,合同会社,大阪府,東大阪市,菱屋西６丁目７番１８号オートリビル２階,,27,227,5770807,,,,,,,2025-11-27,1,,,,,レジサポート,0
1182,5130001081105,新規,0,2025-11-27,2025-11-27,株式会社ＭＫＥＮ,,株式会社,京都府,京都市南区,吉祥院政所町８番地,,26,107,6018331,,,,,,,2025-11-27,1,,,,,エムケン,0
1187,5140001140900,新規,0,2025-11-27,2025-11-27,株式会社クレアーレ,,株式会社,兵庫県,加古川市,平岡町新在家１９１７番地の１,,28,210,6750101,,,,,,,2025-11-27,1,,,,,クレアーレ,0
1190,5160003003665,新規,0,2025-11-27,2025-11-27,合同会社ｅｎｓｏ,,合同会社,滋賀県,大津市,伊香立上在地町４５,,25,201,5200356,,,,,,,2025-11-27,1,,,,,エンソウ,0
1195,5170005007176,新規,0,2025-11-27,2025-11-27,一般社団法人ＩＰＰＥＮ,,その他の設立登記法人,和歌山県,和歌山市,木ノ本１４９６番地８７,,30,201,6408453,,,,,,,2025-11-27,1,,,,,イッペン,0
1203,5180001169630,新規,0,2025-11-27,2025-11-27,ＭＡＲＣＳ株式会社,,株式会社,愛知県,名古屋市中村区,名駅５丁目２０番６号ロータリーオフィス１ＳＴ２階,,23,105,4500002,,,,,,,2025-11-27,1,,,,,マークス,0
1204,5180001169639,新規,0,2025-11-27,2025-11-27,ＢＩＲＴＨ　ＧＡＴＥ株式会社,,株式会社,愛知県,清須市,土田１丁目１２番地１１,,23,233,4520945,,,,,,,2025-11-27,1,,,,,バースゲート,0
1205,5180001169655,新規,0,2025-11-27,2025-11-27,株式会社メタルコネクション,,株式会社,愛知県,小牧市,大字大草６１８６番地,,23,219,4850802,,,,,,,2025-11-27,1,,,,,メタルコネクション,0
1208,5180005021317,新規,0,2025-11-27,2025-11-27,一般社団法人ナチュラルライフ,,その他の設立登記法人,愛知県,名古屋市西区,則武新町１丁目４番９号,,23,104,4510051,,,,,,,2025-11-27,1,,,,,ナチュラルライフ,0
1213,5190001032721,新規,0,2025-11-27,2025-11-27,株式会社Ｌｅｖａｎｔａｒ,,株式会社,三重県,桑名市,松ノ木３丁目３１‐１,,24,205,5110902,,,,,,,2025-11-27,1,,,,,レバンタール,0
1215,5190005012091,新規,0,2025-11-27,2025-11-27,一般社団法人リスペクトケア,,その他の設立登記法人,三重県,四日市市,浜田町１０番１号アイティーオービル３０１号,,24,202,5100067,,,,,,,2025-11-27,1,,,,,リスペクトケア,0
1217,5210001020401,新規,0,2025-11-27,2025-11-27,株式会社Ｈａｒｖｅｓｔ,,株式会社,福井県,福井市,西谷３丁目３０１番地２,,18,201,9188023,,,,,,,2025-11-27,1,,,,,ハーヴェスト,0
1224,5240001065831,新規,0,2025-11-27,2025-11-27,カガドック株式会社,,株式会社,広島県,広島市西区,三篠北町１４番２３号,,34,104,7330006,,,,,,,2025-11-27,1,,,,,カガドック,0
1228,5260003005420,新規,0,2025-11-27,2025-11-27,合同会社リライト,,合同会社,岡山県,倉敷市,上富井２１９－２ガーディニアシティ上富井３０２,,33,202,7100846,,,,,,,2025-11-27,1,,,,,リライト,0
1235,5290001112182,新規,0,2025-11-27,2025-11-27,株式会社パラテク九州,,株式会社,福岡県,福岡市中央区,笹丘２丁目５－４,,40,133,8100034,,,,,,,2025-11-27,1,,,,,パラテクキュウシュウ,0
1236,5290001112190,新規,0,2025-11-27,2025-11-27,株式会社みろく,,株式会社,福岡県,福岡市中央区,天神３丁目６－９,,40,133,8100001,,,,,,,2025-11-27,1,,,,,ミロク,0
1237,5290001112249,新規,0,2025-11-27,2025-11-27,株式会社Ｓｅｃｏｎｄ,,株式会社,福岡県,福岡市博多区,中洲５丁目３番８号アクア博多５階,,40,132,8100801,,,,,,,2025-11-27,1,,,,,セコンド,0
1240,5310001019862,新規,0,2025-11-27,2025-11-27,株式会社清宙,,株式会社,長崎県,長崎市,網場町５３６番地長崎総合科学大学内本館３階,,42,201,8510123,,,,,,,2025-11-27,1,,,,,キヨラ,0
1244,5330001033779,新規,0,2025-11-27,2025-11-27,株式会社太栄クリエイト,,株式会社,熊本県,玉名市,築地７９８番地６,,43,206,8650065,,,,,,,2025-11-27,1,,,,,タイエイクリエイト,0
1248,5340001027805,新規,0,2025-11-27,2025-11-27,株式会社ＥＣＯシステム,,株式会社,鹿児島県,鹿児島市,上荒田町６番２２号カーサ橋口３０３号,,46,201,8900055,,,,,,,2025-11-27,1,,,,,エコシステム,0
1251,5340003005024,新規,0,2025-11-27,2025-11-27,合同会社ＳＴ,,合同会社,鹿児島県,鹿屋市,串良町細山田４６４３番地１,,46,203,8931601,,,,,,,2025-11-27,1,,,,,エスティ,0
1261,5370003007389,新規,0,2025-11-27,2025-11-27,セレナーデ・ギター教室合同会社,,合同会社,宮城県,大崎市,三本木新町１丁目２０番２２号,,04,215,9896306,,,,,,,2025-11-27,1,,,,,セレナーデギターキョウシツ,0
1262,5370003007397,新規,0,2025-11-27,2025-11-27,合同会社萱刈農場,,合同会社,宮城県,栗原市,高清水萱刈８番地,,04,213,9872155,,,,,,,2025-11-27,1,,,,,カヤカリノウジョウ,0
1267,5390001018163,新規,0,2025-11-27,2025-11-27,株式会社ｔｏｉｒｏ,,株式会社,山形県,山形市,香澄町１丁目９－１珍味ビル１Ｆ北,,06,201,9900039,,,,,,,2025-11-27,1,,,,,トイロ,0
1268,5390005009142,新規,0,2025-11-27,2025-11-27,一般社団法人畑地区組合,,その他の設立登記法人,山形県,新庄市,大字本合海６８９番地の８新庄市畑公民館内,,06,205,9960112,,,,,,,2025-11-27,1,,,,,ハタチククミアイ,0
1273,5430001095743,新規,0,2025-11-27,2025-11-27,ＮＳパートナー株式会社,,株式会社,北海道,札幌市白石区,北郷二条１丁目１番７号,,01,104,0030832,,,,,,,2025-11-27,1,,,,,エヌエスパートナー,0
1275,5440001009719,新規,0,2025-11-27,2025-11-27,株式会社ＹＵＮＯＫＡＷＡ　ＤＥＳＩＧＮ,,株式会社,北海道,函館市,湯川町３丁目３５番１７号,,01,202,0420932,,,,,,,2025-11-27,1,,,,,ユノカワデザイン,0
1276,5480001013015,新規,0,2025-11-27,2025-11-27,株式会社レグルスホールディングス,,株式会社,徳島県,徳島市,沖浜東２丁目３８番地の３,,36,201,7708053,,,,,,,2025-11-27,1,,,,,レグルスホールディングス,0
1282,5700150132955,新規,0,2025-11-27,2025-11-27,株式会社ＡＰＥＣ,,外国会社等,,,,,,,,大韓民国ソウル特別市瑞草区江南大路３７ギル４９（瑞草洞）,,,,,,2025-11-27,1,,,,,カブシキガイシヤエーピーイーシー,0
1296,6010001260628,新規,0,2025-11-27,2025-11-27,レゾン株式会社,,株式会社,東京都,中央区,銀座１丁目１２番４号Ｎ＆ＥＢＬＤ．６Ｆ,,13,102,1040061,,,,,,,2025-11-27,1,,,,,レゾン,0
1297,6010001260669,新規,0,2025-11-27,2025-11-27,株式会社シーパワーズ,,株式会社,東京都,中央区,入船３丁目９番９号,,13,102,1040042,,,,,,,2025-11-27,1,,,,,シーパワーズ,0
1298,6010001260677,新規,0,2025-11-27,2025-11-27,株式会社灼響,,株式会社,東京都,千代田区,外神田２丁目１－８,,13,101,1010021,,,,,,,2025-11-27,1,,,,,シャクキョウ,0
1299,6010001260685,新規,0,2025-11-27,2025-11-27,株式会社Ｚｅｒｏ　Ｏｎｅ,,株式会社,東京都,千代田区,有楽町２丁目１０番１号東京交通会館１１１２号,,13,101,1000006,,,,,,,2025-11-27,1,,,,,ゼロワン,0
1305,6010005040992,新規,0,2025-11-27,2025-11-27,一般財団法人全国ホルミシスルーム普及協会,,その他の設立登記法人,東京都,千代田区,霞が関３丁目６番１４号三久ビル７階,,13,101,1000013,,,,,,,2025-11-27,1,,,,,ゼンコクホルミシスルームフキュウキョウカイ,0
1314,6010405025008,新規,0,2025-11-27,2025-11-27,小林・鷲尾税理士法人,,その他の設立登記法人,東京都,港区,芝公園２丁目１０番５号,,13,103,1050011,,,,,,,2025-11-27,1,,,,,コバヤシワシオ,0
1320,6010805003224,新規,0,2025-11-27,2025-11-27,一般社団法人ＷＡＫＯ‐ＤＯ,,その他の設立登記法人,東京都,大田区,西糀谷４丁目２１－３－３０６,,13,111,1440034,,,,,,,2025-11-27,1,,,,,ワコウド,0
1321,6010901058502,新規,0,2025-11-27,2025-11-27,株式会社千詩図,,株式会社,東京都,世田谷区,用賀４丁目９－１２,,13,112,1580097,,,,,,,2025-11-27,1,,,,,センシズ,0
1322,6010901058527,新規,0,2025-11-27,2025-11-27,Ｇｙｍ＆Ｇｏｏｄ株式会社,,株式会社,東京都,世田谷区,玉川３丁目３１番１３－３０９号,,13,112,1580094,,,,,,,2025-11-27,1,,,,,ジムアンドグッド,0
1323,6010901058543,新規,0,2025-11-27,2025-11-27,株式会社ＴＥＮ,,株式会社,東京都,世田谷区,深沢８丁目７番５号,,13,112,1580081,,,,,,,2025-11-27,1,,,,,テン,0
1324,6010903010436,新規,0,2025-11-27,2025-11-27,合同会社田口,,合同会社,東京都,世田谷区,北烏山８丁目４番１２―３０３号,,13,112,1570061,,,,,,,2025-11-27,1,,,,,タグチ,0
1330,6011001173778,新規,0,2025-11-27,2025-11-27,株式会社モトレイ,,株式会社,東京都,目黒区,鷹番２丁目１２番１０号,,13,110,1520004,,,,,,,2025-11-27,1,,,,,モトレイ,0
1331,6011001173811,新規,0,2025-11-27,2025-11-27,株式会社ナナトキ,,株式会社,東京都,渋谷区,恵比寿西２丁目４番８号,,13,113,1500021,,,,,,,2025-11-27,1,,,,,ナナトキ,0
1332,6011001173828,新規,0,2025-11-27,2025-11-27,株式会社リンケージプロ,,株式会社,東京都,渋谷区,道玄坂１丁目１０番８号渋谷道玄坂東急ビル２Ｆ－Ｃ,,13,113,1500043,,,,,,,2025-11-27,1,,,,,リンケージプロ,0
1333,6011001173902,新規,0,2025-11-27,2025-11-27,株式会社モノクローム,,株式会社,東京都,渋谷区,幡ヶ谷１丁目２番２号京王幡ヶ谷ビル４階,,13,113,1510072,,,,,,,2025-11-27,1,,,,,モノクローム,0
1335,6011003022982,新規,0,2025-11-27,2025-11-27,合同会社スポークコンサルティング,,合同会社,東京都,渋谷区,幡ヶ谷３丁目７３番５号ガーデンホーム幡ヶ谷３０１,,13,113,1510072,,,,,,,2025-11-27,1,,,,,スポークコンサルティング,0
1339,6011103016645,新規,0,2025-11-27,2025-11-27,合同会社ＳＰＶ１３,,合同会社,東京都,新宿区,四谷２丁目９番地１５東京ユナイテッド綜合事務所内,,13,104,1600004,,,,,,,2025-11-27,1,,,,,エスピーブイジュウサン,0
1345,6011301031082,新規,0,2025-11-27,2025-11-27,株式会社Ｓ‐Ｐｌｕｓ,,株式会社,東京都,杉並区,成田東４丁目２７番９号,,13,115,1660015,,,,,,,2025-11-27,1,,,,,エスプラス,0
1349,6011501032847,新規,0,2025-11-27,2025-11-27,株式会社第九,,株式会社,東京都,荒川区,荒川２丁目３２番５‐４０５号,,13,118,1160002,,,,,,,2025-11-27,1,,,,,ダイク,0
1354,6012403007474,新規,0,2025-11-27,2025-11-27,合同会社ＯＮＥ,,合同会社,東京都,調布市,飛田給３丁目３２番２６号,,13,208,1820036,,,,,,,2025-11-27,1,,,,,ワン,0
1358,6012801024385,新規,0,2025-11-27,2025-11-27,Ｊｙｏｋａｎプロパティマネジメント株式会社,,株式会社,東京都,立川市,錦町２丁目７番５号,,13,202,1900022,,,,,,,2025-11-27,1,,,,,ジョウカンプロパティマネジメント,0
1359,6012803003932,新規,0,2025-11-27,2025-11-27,合同会社ＭＡＲＫ,,合同会社,東京都,東大和市,蔵敷３丁目７００番地の２,,13,220,2070032,,,,,,,2025-11-27,1,,,,,マーク,0
1366,6013301055342,新規,0,2025-11-27,2025-11-27,株式会社ＧＡＲＤＥＮ　ＴＯＫＹＯ,,株式会社,東京都,豊島区,上池袋４丁目１５番７－８０３号,,13,116,1700012,,,,,,,2025-11-27,1,,,,,ガーデントウキョウ,0
1374,6020001165917,新規,0,2025-11-27,2025-11-27,株式会社新百合プロジェクトラボ,,株式会社,神奈川県,川崎市麻生区,万福寺６丁目１番２－７１５号シーズンアリーナ新百合ヶ丘,,14,137,2150004,,,,,,,2025-11-27,1,,,,,シンユリプロジェクトラボ,0
1375,6020001165925,新規,0,2025-11-27,2025-11-27,株式会社Ｆｏｊｉ,,株式会社,神奈川県,川崎市宮前区,馬絹５丁目６番地１６－５０６,,14,136,2160035,,,,,,,2025-11-27,1,,,,,フォージ,0
1381,6020003029855,新規,0,2025-11-27,2025-11-27,合同会社詩苑,,合同会社,神奈川県,横浜市西区,浅間町１丁目４番３号ウィザードビル４０２,,14,103,2200072,,,,,,,2025-11-27,1,,,,,シオン,0
1386,6021003016835,新規,0,2025-11-27,2025-11-27,合同会社Ｇｒｅｉｇｅ,,合同会社,神奈川県,相模原市緑区,原宿４丁目１１―４８,,14,151,2520102,,,,,,,2025-11-27,1,,,,,グレージュ,0
1391,6030003028162,新規,0,2025-11-27,2025-11-27,たのしもーね合同会社,,合同会社,埼玉県,川越市,伊勢原町１丁目２番地３４,,11,201,3501108,,,,,,,2025-11-27,1,,,,,タノシモーネ,0
1401,6040001141544,新規,0,2025-11-27,2025-11-27,ＢＥＢＥ株式会社,,株式会社,千葉県,成田市,十余三２３番地４,,12,211,2860101,,,,,,,2025-11-27,1,,,,,,0
1402,6040001141577,新規,0,2025-11-27,2025-11-27,株式会社ＳＥＡ‐ＬＩＦＥ　ＡＧＲＩ,,株式会社,千葉県,長生郡一宮町,東浪見７３０９番地４,,12,421,2994303,,,,,,,2025-11-27,1,,,,,シーライフアグリ,0
1415,6080001027285,新規,0,2025-11-27,2025-11-27,Ｍｉｚｕｋａ　Ｃａｐｉｔａｌ株式会社,,株式会社,静岡県,静岡市葵区,松富３丁目４－１０,,22,101,4200941,,,,,,,2025-11-27,1,,,,,ミズカキャピタル,0
1419,6100001039047,新規,0,2025-11-27,2025-11-27,株式会社Ｅｎｕｅｌｌｅ,,株式会社,長野県,岡谷市,南宮１丁目６番１０号,,20,204,3940033,,,,,,,2025-11-27,1,,,,,エニュエル,0
1421,6100003008495,新規,0,2025-11-27,2025-11-27,合同会社西洗馬倉庫,,合同会社,長野県,東筑摩郡朝日村,大字西洗馬１２１９番地２,,20,451,3901101,,,,,,,2025-11-27,1,,,,,ニシセバソウコ,0
1422,6110002024682,新規,0,2025-11-27,2025-11-27,有限会社山岸商店,,有限会社,新潟県,上越市,板倉区吉増１３２番地,,15,222,9440137,,,,,,,2025-11-27,1,,,,,ヤマギシショウテン,0
1430,6120001280540,新規,0,2025-11-27,2025-11-27,株式会社Ｃｏｌｓｅｎ＆Ｃｏ　Ｊａｐａｎ,,株式会社,大阪府,大阪市港区,三先１丁目１２番９号,,27,107,5520016,,,,,,,2025-11-27,1,,,,,コルセンアンドシーオージャパン,0
1431,6120001282074,新規,0,2025-11-27,2025-11-27,株式会社Ｗａｂｉｔａｌ,,株式会社,大阪府,大阪市浪速区,難波中２丁目１０－７０パークスタワー１９階,,27,111,5560011,,,,,,,2025-11-27,1,,,,,ワビタル,0
1432,6120001282181,新規,0,2025-11-27,2025-11-27,株式会社ヘロニパン,,株式会社,大阪府,大阪市港区,港晴１丁目１番２７号,,27,107,5520023,,,,,,,2025-11-27,1,,,,,ヘロニパン,0
1433,6120001282256,新規,0,2025-11-27,2025-11-27,八駿資産管理株式会社,,株式会社,大阪府,大阪市西区,南堀江１丁目１６番９－８１５号,,27,106,5500015,,,,,,,2025-11-27,1,,,,,ハッシュンシサンカンリ,0
1435,6120003031339,新規,0,2025-11-27,2025-11-27,ＫＳＢＧ合同会社,,合同会社,大阪府,大阪市中央区,久太郎町２丁目１番４‐３８０８号,,27,128,5410056,,,,,,,2025-11-27,1,,,,,ケーエスビージー,0
1438,6120101072862,新規,0,2025-11-27,2025-11-27,ＣＯＲＥＹ　Ｅｎｔｅｒｔａｉｎｍｅｎｔ株式会社,,株式会社,大阪府,泉佐野市,大西１丁目１７－４,,27,213,5980043,,,,,,,2025-11-27,1,,,,,コーリーエンターテイメント,0
1441,6120901051867,新規,0,2025-11-27,2025-11-27,株式会社Ｋｏ‐ｅｉ,,株式会社,大阪府,豊中市,利倉西２丁目１４番１９－３０３号,,27,203,5610844,,,,,,,2025-11-27,1,,,,,コーエイ,0
1443,6122001039925,新規,0,2025-11-27,2025-11-27,株式会社ＥＹＴ,,株式会社,大阪府,東大阪市,長田西２丁目７番７－２０１号,,27,227,5770016,,,,,,,2025-11-27,1,,,,,イーワイティ,0
1444,6122001039941,新規,0,2025-11-27,2025-11-27,浅田青物株式会社,,株式会社,大阪府,八尾市,山本町南１丁目６番６号,,27,212,5810013,,,,,,,2025-11-27,1,,,,,アサダアオモノ,0
1446,6130001081087,新規,0,2025-11-27,2025-11-27,株式会社すずなり,,株式会社,京都府,京都市左京区,吉田神楽岡町８番地１６７,,26,103,6068311,,,,,,,2025-11-27,1,,,,,スズナリ,0
1447,6130003010952,新規,0,2025-11-27,2025-11-27,合同会社華頂マンション篠原,,合同会社,京都府,京都市東山区,新門前通大和大路東入４丁目松原町２９４番地,,26,105,6050063,,,,,,,2025-11-27,1,,,,,カチョウマンションシノハラ,0
1451,6140001140916,新規,0,2025-11-27,2025-11-27,株式会社イイコネクト,,株式会社,兵庫県,宝塚市,中山五月台５丁目２番１０－２０１号,,28,214,6650871,,,,,,,2025-11-27,1,,,,,イイコネクト,0
1466,6180001169605,新規,0,2025-11-27,2025-11-27,Ｓ＆Ｋ株式会社,,株式会社,愛知県,名古屋市中区,千代田３丁目１８番６号アイビル５階,,23,106,4600012,,,,,,,2025-11-27,1,,,,,エスアンドケー,0
1467,6180001169638,新規,0,2025-11-27,2025-11-27,株式会社村瀬ホールディングス,,株式会社,愛知県,知多郡阿久比町,大字宮津字森下１０番地１,,23,441,4702204,,,,,,,2025-11-27,1,,,,,ムラセホールディングス,0
1468,6180001169646,新規,0,2025-11-27,2025-11-27,株式会社Ｇｏｅｎ　Ｗｏｒｋｓ,,株式会社,愛知県,名古屋市西区,幅下２丁目１１番２１号,,23,104,4510041,,,,,,,2025-11-27,1,,,,,ゴエンワークス,0
1469,6180001169662,新規,0,2025-11-27,2025-11-27,株式会社中建設,,株式会社,愛知県,尾張旭市,北原山町六田池２１４５－２,,23,226,4880061,,,,,,,2025-11-27,1,,,,,ナカケンセツ,0
1470,6180001169670,新規,0,2025-11-27,2025-11-27,優しい街と株式会社,,株式会社,愛知県,一宮市,北方町北方字東本郷下１８９,,23,203,4938001,,,,,,,2025-11-27,1,,,,,ヤサシイマチト,0
1471,6180001169679,新規,0,2025-11-27,2025-11-27,株式会社ＫＡＫＵＳＨＩ,,株式会社,愛知県,名古屋市瑞穂区,新開町２０番１０号ファミリアーレ神宮東第２－８０５号,,23,108,4670856,,,,,,,2025-11-27,1,,,,,カクシ,0
1486,6190001032720,新規,0,2025-11-27,2025-11-27,株式会社ぜにっくす,,株式会社,三重県,津市,久居緑が丘町１丁目２７番地３,,24,201,5141258,,,,,,,2025-11-27,1,,,,,ゼニックス,0
1487,6190005012090,新規,0,2025-11-27,2025-11-27,特定非営利活動法人ゆいのわ,,その他の設立登記法人,三重県,津市,高茶屋２丁目５６番１９号,,24,201,5140819,,,,,,,2025-11-27,1,,,,,ユイノワ,0
1488,6200001044458,新規,0,2025-11-27,2025-11-27,株式会社Ｃｈａｐｔｅｒ１,,株式会社,岐阜県,羽島郡岐南町,平成２丁目７７番地,,21,302,5016013,,,,,,,2025-11-27,1,,,,,チャプターワン,0
1491,6220003004169,新規,0,2025-11-27,2025-11-27,合同会社Ｏｎ　ａｎｄ　Ｏｎ,,合同会社,石川県,金沢市,北安江３丁目１２番１１号（リベロ北安江・６０２号）,,17,201,9200022,,,,,,,2025-11-27,1,,,,,オンアンドオン,0
1500,6260001040757,新規,0,2025-11-27,2025-11-27,株式会社ｎｏｃｈｉｋｃｈｅ,,株式会社,岡山県,岡山市北区,問屋町２７番地１０７－１階,,33,101,7000977,,,,,,,2025-11-27,1,,,,,ノチッチェ,0
1501,6260003005428,新規,0,2025-11-27,2025-11-27,ボックス合同会社,,合同会社,岡山県,岡山市北区,田中１５８番地１０３ロイヤルセンチュリーマンション３０３号室,,33,101,7000951,,,,,,,2025-11-27,1,,,,,ボックス,0
1506,6290001112173,新規,0,2025-11-27,2025-11-27,めいぱる株式会社,,株式会社,福岡県,福岡市博多区,吉塚３丁目３番２２号,,40,132,8120041,,,,,,,2025-11-27,1,,,,,メイパル,0
1507,6290001112215,新規,0,2025-11-27,2025-11-27,株式会社ライトフットワーク,,株式会社,福岡県,那珂川市,大字埋金７８５番地８,,40,231,8111232,,,,,,,2025-11-27,1,,,,,ライトフットワーク,0
1515,6290003017726,新規,0,2025-11-27,2025-11-27,合同会社のびる,,合同会社,福岡県,福岡市早良区,高取２丁目１７番４３－８０５号,,40,137,8140011,,,,,,,2025-11-27,1,,,,,ノビル,0
1516,6290003017742,新規,0,2025-11-27,2025-11-27,Ｓａｉｎｔ　Ｇｅｎｅｒａｌ　Ｃａｐｉｔａｌ合同会社,,合同会社,福岡県,福岡市博多区,博多駅前１丁目２３番２号ＰａｒｋＦｒｏｎｔ博多駅前１丁目５Ｆ－Ｂ,,40,132,8120011,,,,,,,2025-11-27,1,,,,,セイントジェネラルキャピタル,0
1517,6290003017750,新規,0,2025-11-27,2025-11-27,ｅｎ合同会社,,合同会社,福岡県,福岡市中央区,地行３丁目２６－２５アプリークス百道浜２１０,,40,133,8100064,,,,,,,2025-11-27,1,,,,,エン,0
1518,6290005019893,新規,0,2025-11-27,2025-11-27,一般社団法人ＫＬＧＩ日本Ｋ‐ｂｅａｕｔｙ協会,,その他の設立登記法人,福岡県,福岡市博多区,博多駅前３丁目７番３５号博多ハイテックビル５０５号室,,40,132,8120011,,,,,,,2025-11-27,1,,,,,ケーエルジーアイニホンケービューティーキョウカイ,0
1520,6290803005211,新規,0,2025-11-27,2025-11-27,西日本ベンチャーサポート合同会社,,合同会社,福岡県,直方市,新町３丁目２番３号,,40,204,8220015,,,,,,,2025-11-27,1,,,,,ニシニホンベンチャーサポート,0
1521,6290805009879,新規,0,2025-11-27,2025-11-27,一般社団法人うみつなぎ,,その他の設立登記法人,福岡県,北九州市門司区,高田１丁目２番８－２０１号,,40,101,8000031,,,,,,,2025-11-27,1,,,,,ウミツナギ,0
1522,6310001019861,新規,0,2025-11-27,2025-11-27,株式会社リノベスト,,株式会社,長崎県,諫早市,多良見町化屋１３７０番地９,,42,204,8590401,,,,,,,2025-11-27,1,,,,,リノベスト,0
1529,6340001027804,新規,0,2025-11-27,2025-11-27,リアクラフトホーム株式会社,,株式会社,鹿児島県,霧島市,隼人町内山田３丁目２０番３４号,,46,218,8995106,,,,,,,2025-11-27,1,,,,,リアクラフトホーム,0
1536,6360003015425,新規,0,2025-11-27,2025-11-27,合同会社みらすくキッズレインボー,,合同会社,沖縄県,沖縄市,上地１丁目１５番１５号,,47,211,9040031,,,,,,,2025-11-27,1,,,,,ミラスクキッズレインボー,0
1537,6370001053260,新規,0,2025-11-27,2025-11-27,株式会社リレイティア,,株式会社,宮城県,仙台市青葉区,錦ケ丘４丁目１５番地の１,,04,101,9893123,,,,,,,2025-11-27,1,,,,,リレイティア,0
1538,6370003007388,新規,0,2025-11-27,2025-11-27,エネルギーあすなろ合同会社,,合同会社,宮城県,大崎市,三本木秋田字稲荷沢２番地,,04,215,9896304,,,,,,,2025-11-27,1,,,,,エネルギーアスナロ,0
1539,6370003007396,新規,0,2025-11-27,2025-11-27,柿原合同会社,,合同会社,宮城県,栗原市,築館字芋埣柿木原２番地,,04,213,9872271,,,,,,,2025-11-27,1,,,,,カキハラ,0
1541,6380001035720,新規,0,2025-11-27,2025-11-27,ねいろホールディングス株式会社,,株式会社,福島県,郡山市,安積町日出山１丁目６６番地,,07,203,9630101,,,,,,,2025-11-27,1,,,,,ネイロホールディングス,0
1543,6390005009141,新規,0,2025-11-27,2025-11-27,医療法人米沢クローバー歯科クリニック,,その他の設立登記法人,山形県,米沢市,春日５丁目２番３０－８号,,06,202,9920044,,,,,,,2025-11-27,1,,,,,ヨネザワクローバーシカクリニック,0
1551,6470002019705,新規,0,2025-11-27,2025-11-27,有限会社落亀タンス店,,有限会社,香川県,坂出市,本町２丁目８番２６号,,37,203,7620044,,,,,,,2025-11-27,1,,,,,,0
1557,6700150133069,新規,0,2025-11-27,2025-11-27,Ｔｏｍｏｄａｃｈｉ　Ｄｅｖｅｌｏｐｍｅｎｔｓ　Ｐｔｙ　Ｌｔｄ,,外国会社等,長野県,北安曇郡白馬村,大字神城２２１９７番地１,,20,485,3999211,オーストラリア連邦南オーストラリア州ヴィクターハーバー・ハインドマーシュ通り１６３,,,,,,2025-11-27,1,,,,,トモダチデベロツプメンツピーテイーワイエルテイーデイー,0
1558,6700150133085,新規,0,2025-11-27,2025-11-27,ｘｕｚｈｏｕｑｉｎｇｃｈｅｎｇｘｉｎｇｄｉａｎｚｉｓｈａｎｇｗｕｙｏｕｘｉａｎｇｏｎｇｓｉ,,外国会社等,,,,,,,,Ｇｒｏｕｐ　７，Ｄｏｕｊｉａ　Ｖｉｌｌａｇｅ，Ｆａｎｇｃｕｎ　Ｔｏｗｎ，Ｔｏｎｇｓｈａｎ　Ｄｉｓｔｒｉｃｔ，Ｘｕｚｈｏｕ　Ｃｉｔｙ，Ｊｉａｎｇｓｕ　Ｐｒｏｖｉｎｃｅ（ｆｏｒｍｅｒｌｙ　Ｂｏａｒｄ　Ｆａｃｔｏｒｙ）１０３,,,,,,2025-11-27,1,,,,,シュゥジョウチンチェンシンデンシシショウムユウゲンコウシ,0
1565,7010001260668,新規,0,2025-11-27,2025-11-27,Ｍｉｒａｉｓｔａｒ株式会社,,株式会社,東京都,中央区,銀座３丁目１５－８銀座プラザビル２階,,13,102,1040061,,,,,,,2025-11-27,1,,,,,ミライスター,0
1573,7010401194771,新規,0,2025-11-27,2025-11-27,株式会社シェルター,,株式会社,東京都,港区,芝５丁目２０番７－４０２号,,13,103,1080014,,,,,,,2025-11-27,1,,,,,シェルター,0
1575,7010501055089,新規,0,2025-11-27,2025-11-27,星海商事株式会社,,株式会社,東京都,台東区,三ノ輪１丁目２８番２号,,13,106,1100011,,,,,,,2025-11-27,1,,,,,セイカイショウジ,0
1582,7010903010410,新規,0,2025-11-27,2025-11-27,ＲＯＩ合同会社,,合同会社,東京都,世田谷区,経堂４丁目１８番１７号,,13,112,1560052,,,,,,,2025-11-27,1,,,,,アールオーアイ,0
1583,7010903010443,新規,0,2025-11-27,2025-11-27,合同会社Ｈｅｒｅ　Ｃｏｍｅ　ｔｈｅ　Ｎｅｗ　Ｊｅｔｓ,,合同会社,東京都,世田谷区,羽根木１丁目２１番１号,,13,112,1560042,,,,,,,2025-11-27,1,,,,,ヒアカムザニュージェッツ,0
1586,7011001173645,新規,0,2025-11-27,2025-11-27,株式会社クロシロ,,株式会社,東京都,渋谷区,広尾１丁目２番地１号ヒカリビル４階,,13,113,1500012,,,,,,,2025-11-27,1,,,,,クロシロ,0
1587,7011001173678,新規,0,2025-11-27,2025-11-27,ＹＯ＆ＢＵＮ株式会社,,株式会社,東京都,渋谷区,神南１丁目１１番４号ＦＰＧリンクス神南５,,13,113,1500041,,,,,,,2025-11-27,1,,,,,ヨアンドブン,0
1588,7011001173694,新規,0,2025-11-27,2025-11-27,ＹｏｕＷａｒｅ株式会社,,株式会社,東京都,渋谷区,富ヶ谷１丁目１４番１４号３Ｆ・４Ｆ,,13,113,1510063,,,,,,,2025-11-27,1,,,,,ユーウェア,0
1589,7011001173819,新規,0,2025-11-27,2025-11-27,株式会社ＮＵＫＵＭＯＲＩ,,株式会社,東京都,渋谷区,道玄坂１丁目１０－８渋谷道玄坂東急ビル２Ｆ－Ｃ,,13,113,1500043,,,,,,,2025-11-27,1,,,,,ヌクモリ,0
1590,7011003022957,新規,0,2025-11-27,2025-11-27,リラックシステム合同会社,,合同会社,東京都,渋谷区,道玄坂１丁目１０番８号渋谷道玄坂東急ビル２Ｆ‐Ｃ,,13,113,1500043,,,,,,,2025-11-27,1,,,,,リラックシステム,0
1591,7011003023055,新規,0,2025-11-27,2025-11-27,合同会社ネクストリス,,合同会社,東京都,渋谷区,道玄坂１丁目１０番８号渋谷道玄坂東急ビル２Ｆ－Ｃ,,13,113,1500043,,,,,,,2025-11-27,1,,,,,ネクストリス,0
1596,7011101114111,新規,0,2025-11-27,2025-11-27,株式会社創和ホールディングス,,株式会社,東京都,新宿区,下宮比町１番４号,,13,104,1620822,,,,,,,2025-11-27,1,,,,,ソウワホールディングス,0
1606,7012401043859,新規,0,2025-11-27,2025-11-27,株式会社あたらよ,,株式会社,東京都,武蔵野市,吉祥寺本町１丁目２２番１０号,,13,203,1800004,,,,,,,2025-11-27,1,,,,,アタラヨ,0
1609,7012801024384,新規,0,2025-11-27,2025-11-27,情感アーキテクト株式会社,,株式会社,東京都,立川市,錦町２丁目７番５号,,13,202,1900022,,,,,,,2025-11-27,1,,,,,ジョウカンアーキテクト,0
1612,7013301055242,新規,0,2025-11-27,2025-11-27,禅居株式会社,,株式会社,東京都,豊島区,北大塚２丁目３－１２－３０２Ｂ,,13,116,1700004,,,,,,,2025-11-27,1,,,,,ゼンイ,0
1613,7013301055358,新規,0,2025-11-27,2025-11-27,株式会社ｏｆｆｉｃｅ１０,,株式会社,東京都,豊島区,南長崎５丁目２５番７号,,13,116,1710052,,,,,,,2025-11-27,1,,,,,オフィステン,0
1617,7020001165998,新規,0,2025-11-27,2025-11-27,株式会社ＬＩＦＥ‐Ｋ,,株式会社,神奈川県,川崎市川崎区,大師駅前２丁目１２番１５号,,14,131,2100802,,,,,,,2025-11-27,1,,,,,ライフケイ,0
1620,7020003029854,新規,0,2025-11-27,2025-11-27,合同会社クロエんち,,合同会社,神奈川県,川崎市宮前区,馬絹４丁目１３番１７号,,14,136,2160035,,,,,,,2025-11-27,1,,,,,クロエンチ,0
1624,7021001086895,新規,0,2025-11-27,2025-11-27,大成株式会社,,株式会社,神奈川県,海老名市,門沢橋６丁目２１番４号,,14,215,2430426,,,,,,,2025-11-27,1,,,,,タイセイ,0
1626,7030001169833,新規,0,2025-11-27,2025-11-27,合縁ホールディングス株式会社,,株式会社,埼玉県,さいたま市南区,別所２丁目２７番１２号,,11,108,3360021,,,,,,,2025-11-27,1,,,,,アイエンホールディングス,0
1628,7030003028153,新規,0,2025-11-27,2025-11-27,ＧＯＯＤＶＩＢＥＳ合同会社,,合同会社,埼玉県,さいたま市大宮区,三橋１丁目４２３番地１７,,11,103,3300856,,,,,,,2025-11-27,1,,,,,グッドバイブス,0
1640,7040003029035,新規,0,2025-11-27,2025-11-27,合同会社匠希,,合同会社,千葉県,四街道市,大日１４９番地１,,12,228,2840001,,,,,,,2025-11-27,1,,,,,ショウキ,0
1641,7040003029043,新規,0,2025-11-27,2025-11-27,合同会社ラーゴムケア,,合同会社,千葉県,松戸市,仲井町１丁目１１１－１，００３－ＨＩＲＡＫＡＷＡ１０６号室,,12,207,2702242,,,,,,,2025-11-27,1,,,,,ラーゴムケア,0
1642,7040005022970,新規,0,2025-11-27,2025-11-27,一般社団法人ＷＡＫＵＷＡＫＵ,,その他の設立登記法人,千葉県,柏市,西原２丁目９番１号,,12,217,2770885,,,,,,,2025-11-27,1,,,,,ワクワク,0
1651,7060001038779,新規,0,2025-11-27,2025-11-27,株式会社和,,株式会社,栃木県,下野市,祇園５丁目１番地２ダイアパレス６番館２０１号,00141663,09,216,3290434,,,,,,,2025-11-27,1,,,,,ナゴミ,0
1658,7090003002937,新規,0,2025-11-27,2025-11-27,合同会社ＦＵＭＩ　Ｇｒｉｄ,,合同会社,山梨県,甲府市,中央１丁目５番６号デュオヒルズ甲府１２０８,,19,201,4000032,,,,,,,2025-11-27,1,,,,,フミグリッド,0
1674,7120001282230,新規,0,2025-11-27,2025-11-27,新城工業株式会社,,株式会社,大阪府,大阪市北区,本庄西２丁目１９番１３号,,27,127,5310073,,,,,,,2025-11-27,1,,,,,シンジョウコウギョウ,0
1676,7120003031288,新規,0,2025-11-27,2025-11-27,合同会社ＩＣＨＩＴＥＲＡ,,合同会社,大阪府,大阪市東成区,中本１丁目９番２５－９０３号,,27,115,5370022,,,,,,,2025-11-27,1,,,,,イチテラ,0
1678,7120901051874,新規,0,2025-11-27,2025-11-27,株式会社プレシャスコンサルティング,,株式会社,大阪府,吹田市,津雲台１丁目１番４－１００７号,,27,205,5650862,,,,,,,2025-11-27,1,,,,,プレシャスコンサルティング,0
1686,7130001081103,新規,0,2025-11-27,2025-11-27,株式会社モネの森,,株式会社,京都府,京都市上京区,三番町２５７番地５,,26,102,6028358,,,,,,,2025-11-27,1,,,,,モネノモリ,0
1689,7130003010951,新規,0,2025-11-27,2025-11-27,ＵＮＩ合同会社,,合同会社,京都府,京都市下京区,綾堀川町３１１ネベル四条堀川２０３,,26,106,6008482,,,,,,,2025-11-27,1,,,,,ウニ,0
1703,7180001169331,新規,0,2025-11-27,2025-11-27,ＡＭフセイントレーディング株式会社,,株式会社,愛知県,名古屋市港区,神宮寺２丁目１０２番地シャトービオレ１０２・４Ｄ号,,23,111,4550834,,,,,,,2025-11-27,1,,,,,エーエムフセイントレーディング,0
1704,7180001169661,新規,0,2025-11-27,2025-11-27,株式会社藍色,,株式会社,愛知県,名古屋市西区,上小田井２丁目３３８番地,,23,104,4520821,,,,,,,2025-11-27,1,,,,,アイイロ,0
1705,7180001169678,新規,0,2025-11-27,2025-11-27,株式会社Ｇｕｕｌｕ,,株式会社,愛知県,大府市,北崎町井田２７番地１,,23,223,4740001,,,,,,,2025-11-27,1,,,,,グール,0
1706,7180003029384,新規,0,2025-11-27,2025-11-27,合同会社ＤｏＴ,,合同会社,愛知県,名古屋市中村区,名駅４丁目２４番５号第２森ビル４０１,,23,105,4500002,,,,,,,2025-11-27,1,,,,,ドット,0
1710,7190003005277,新規,0,2025-11-27,2025-11-27,合同会社リンクス,,合同会社,三重県,津市,桜田町４－４６,,24,201,5140047,,,,,,,2025-11-27,1,,,,,リンクス,0
1714,7200005013821,新規,0,2025-11-27,2025-11-27,特定非営利活動法人中之郷を花いっぱいにする会,,その他の設立登記法人,岐阜県,多治見市,本町２丁目６番地,,21,204,5070033,,,,,,,2025-11-27,1,,,,,ナカノゴウヲハナイッパイニスルカイ,0
1721,7220003004176,新規,0,2025-11-27,2025-11-27,合同会社ＯＫＳ,,合同会社,石川県,金沢市,片町１丁目１番２９号混元丹ビル７０１,,17,201,9200981,,,,,,,2025-11-27,1,,,,,オウケイエス,0
1726,7260001007284,新規,0,2025-11-27,2025-11-27,株式会社北中建設,,株式会社,岡山県,赤磐市,北佐古田２５３番地の１,,33,213,7012211,,,,,,,2025-11-27,1,,,,,キタナカケンセツ,0
1728,7260001040756,新規,0,2025-11-27,2025-11-27,ＫＳＪ２‐２株式会社,,株式会社,岡山県,岡山市北区,錦町１番１号岡山駅前ビル４階,,33,101,7000902,,,,,,,2025-11-27,1,,,,,ケイエスジェーツーツー,0
1729,7260003005427,新規,0,2025-11-27,2025-11-27,合同会社牛窓社中,,合同会社,岡山県,瀬戸内市,牛窓町長浜３６４９番地１,,33,212,7014301,,,,,,,2025-11-27,1,,,,,ウシマドシャチュウ,0
1736,7290001112180,新規,0,2025-11-27,2025-11-27,卑弥呼ジャパン株式会社,,株式会社,福岡県,福岡市中央区,平尾２丁目１２番８－２０３号,,40,133,8100014,,,,,,,2025-11-27,1,,,,,ヒミコジャパン,0
1737,7290001112305,新規,0,2025-11-27,2025-11-27,株式会社プライムマーケット,,株式会社,福岡県,福岡市中央区,舞鶴１丁目９番３－３０６号,,40,133,8100073,,,,,,,2025-11-27,1,,,,,プライムマーケット,0
1743,7290801032058,新規,0,2025-11-27,2025-11-27,株式会社古恵良ビル,,株式会社,福岡県,北九州市小倉北区,宇佐町１丁目１２番５号,,40,106,8020016,,,,,,,2025-11-27,1,,,,,コエラビル,0
1746,7320001021452,新規,0,2025-11-27,2025-11-27,株式会社別府温泉倶楽部,,株式会社,大分県,別府市,京町８番１９号,,44,202,8740926,,,,,,,2025-11-27,1,,,,,ベップオンセンクラブ,0
1757,7350001019824,新規,0,2025-11-27,2025-11-27,株式会社宮崎商会,,株式会社,宮崎県,宮崎市,和知川原２丁目７５番地ジョイスシエル２０２,,45,201,8800023,,,,,,,2025-11-27,1,,,,,ミヤザキショウカイ,0
1761,7360003015424,新規,0,2025-11-27,2025-11-27,合同会社メイドインオキナワ,,合同会社,沖縄県,浦添市,字前田９７１番地２・３Ｆ,,47,208,9012102,,,,,,,2025-11-27,1,,,,,メイドインオキナワ,0
1765,7370003007395,新規,0,2025-11-27,2025-11-27,合同会社千葉企画,,合同会社,宮城県,登米市,迫町北方字仮屋２番地１,,04,212,9870513,,,,,,,2025-11-27,1,,,,,チバキカク,0
1770,7400001017236,新規,0,2025-11-27,2025-11-27,株式会社釜石地域エネルギー,,株式会社,岩手県,釜石市,大字平田第３地割７５番地１,,03,211,0260001,,,,,,,2025-11-27,1,,,,,カマイシチイキエネルギー,0
1775,7430001095733,新規,0,2025-11-27,2025-11-27,Ｓａｎｋｏ株式会社,,株式会社,北海道,石狩郡当別町,字中小屋２４８番地２,,01,303,0610211,,,,,,,2025-11-27,1,,,,,サンコー,0
1784,7470003003021,新規,0,2025-11-27,2025-11-27,合同会社矢野工業,,合同会社,香川県,坂出市,川津町５２５４番地７,,37,203,7620025,,,,,,,2025-11-27,1,,,,,,0
1791,7700150133068,新規,0,2025-11-27,2025-11-27,ｘｕｚｈｏｕｙｕａｎｘｉｎｋａｎｇｓｈａｎｇｍａｏｙｏｕｘｉａｎｇｏｎｇｓｉ,,外国会社等,,,,,,,,Ｒｏｏｍ　２００３，Ｌｉｎｃｈａｎｇ　Ｖｉｌｌａｇｅ　Ｃｏｍｍｉｔｔｅｅ，Ｆａｎｇｃｕｎ　Ｔｏｗｎ，Ｔｏｎｇｓｈａｎ　Ｄｉｓｔｒｉｃｔ，Ｘｕｚｈｏｕ　Ｃｉｔｙ，Ｊｉａｎｇｓｕ　Ｐｒｏｖｉｎｃｅ,,,,,,2025-11-27,1,,,,,シージョウユエンシンカンシャンマオヨウシエンゴンスー,0
1792,7700150133084,新規,0,2025-11-27,2025-11-27,ｗｅｎｚｈｏｕｓｈｉ　ｍａｉｆｅｎｇｍａｏｙｉｙｏｕｘｉａｎｇｏｎｇｓｉ,,外国会社等,,,,,,,,Ｏｕｊｉａｎｇ　Ｒｏａｄ，Ｗｅｎｚｈｏｕ　Ｂｒｉｄｇｅ　Ｉｎｄｕｓｔｒｉａｌ　Ｚｏｎｅ，Ｂｅｉｂａｉｘｉａｎｇ　Ｔｏｗｎ，Ｙｕｅｑｉｎｇ　Ｃｉｔｙ，Ｗｅｎｚｈｏｕ　Ｃｉｔｙ，Ｚｈｅｊｉａｎｇ　Ｐｒｏｖｉｎｃｅ,,,,,,2025-11-27,1,,,,,ウェンヂョウシマイフェンマオイユウゲンコウシ,0
1798,8010001260650,新規,0,2025-11-27,2025-11-27,瀛州株式会社,,株式会社,東京都,千代田区,岩本町２丁目１９番４号－２０９号,,13,101,1010032,,,,,,,2025-11-27,1,,,,,エイシュウ,0
1805,8010005040990,新規,0,2025-11-27,2025-11-27,一般社団法人国際中医智慧康養産業連合会,,その他の設立登記法人,東京都,中央区,晴海１丁目８番１０号トリトンスクエアオフィスタワーＸ,,13,102,1040053,,,,,,,2025-11-27,1,,,,,コクサイチュウイチエコウヨウサンギョウレンゴウカイ,0
1812,8010401194787,新規,0,2025-11-27,2025-11-27,株式会社ＮＳＳＫ‐Ｍ２,,株式会社,東京都,港区,愛宕２丁目５番１号愛宕グリーンヒルズＭＯＲＩタワー,,13,103,1050002,,,,,,,2025-11-27,1,,,,,エヌエスエスケーエムツー,0
1817,8010403036673,新規,0,2025-11-27,2025-11-27,トリプルエイワン合同会社,,合同会社,東京都,港区,東新橋１丁目５番２号,,13,103,1050021,,,,,,,2025-11-27,1,,,,,トリプルエイワン,0
1828,8010901058500,新規,0,2025-11-27,2025-11-27,株式会社モダンクオリティ,,株式会社,東京都,世田谷区,池尻２丁目３３番３号,,13,112,1540001,,,,,,,2025-11-27,1,,,,,モダンクオリティ,0
1829,8010903010442,新規,0,2025-11-27,2025-11-27,Ｌｕｍｉｎｏｕｓ　Ｊｕｎｉｐｅｒ合同会社,,合同会社,東京都,世田谷区,代田５丁目３４番３３号,,13,112,1550033,,,,,,,2025-11-27,1,,,,,ルミナスジュニパー,0
1834,8011001173735,新規,0,2025-11-27,2025-11-27,株式会社スコープジャパン,,株式会社,東京都,渋谷区,千駄ヶ谷５丁目５番６－１０２号,,13,113,1510051,,,,,,,2025-11-27,1,,,,,スコープジャパン,0
1835,8011001173801,新規,0,2025-11-27,2025-11-27,株式会社ＥＮＩＳＨＩ．,,株式会社,東京都,渋谷区,渋谷２丁目４番４号板倉ビル１０３,,13,113,1500002,,,,,,,2025-11-27,1,,,,,エニシ,0
1836,8011001173818,新規,0,2025-11-27,2025-11-27,株式会社翠鹿舎,,株式会社,東京都,渋谷区,道玄坂１丁目１０番８号渋谷道玄坂東急ビル２Ｆ－Ｃ,,13,113,1500043,,,,,,,2025-11-27,1,,,,,スイロクシャ,0
1840,8011003022964,新規,0,2025-11-27,2025-11-27,合同会社ＦＯＬＩＵＭ,,合同会社,東京都,渋谷区,道玄坂１丁目１６番６号二葉ビル８Ｂ,,13,113,1500043,,,,,,,2025-11-27,1,,,,,フォリウム,0
1841,8011003022980,新規,0,2025-11-27,2025-11-27,合同会社まちゃのきもち,,合同会社,東京都,渋谷区,道玄坂１丁目１０番８号渋谷道玄坂東急ビル２Ｆ－Ｃ,,13,113,1500043,,,,,,,2025-11-27,1,,,,,マチャノキモチ,0
1849,8011401027598,新規,0,2025-11-27,2025-11-27,株式会社Ｍ・Ｄ・Ｉ,,株式会社,東京都,板橋区,向原３丁目１０番２５号,,13,119,1730036,,,,,,,2025-11-27,1,,,,,,0
1850,8011501032829,新規,0,2025-11-27,2025-11-27,星漢株式会社,,株式会社,東京都,荒川区,南千住３丁目２７－２浅草ビル１０１,,13,118,1160003,,,,,,,2025-11-27,1,,,,,セイカン,0
1851,8011501032845,新規,0,2025-11-27,2025-11-27,志文ホールディングス株式会社,,株式会社,東京都,北区,中里２丁目４番１号高野ビル２階,,13,117,1140015,,,,,,,2025-11-27,1,,,,,シブンホールディングス,0
1853,8011503006789,新規,0,2025-11-27,2025-11-27,Ｊ．Ｊオフィス合同会社,,合同会社,東京都,北区,赤羽１丁目１番６号赤羽駅前第２ビル４階,,13,117,1150045,,,,,,,2025-11-27,1,,,,,ジェイジェイオフィス,0
1857,8011603004932,新規,0,2025-11-27,2025-11-27,合同会社ＳＯＬＡＲＩＳ,,合同会社,東京都,練馬区,貫井４丁目４７番５９号４１０号室,,13,120,1760021,,,,,,,2025-11-27,1,,,,,ソラリス,0
1860,8011801047072,新規,0,2025-11-27,2025-11-27,Ｒｉｓｅ株式会社,,株式会社,東京都,足立区,鹿浜４丁目１７－２６,,13,121,1230864,,,,,,,2025-11-27,1,,,,,ライズ,0
1865,8012401043858,新規,0,2025-11-27,2025-11-27,株式会社ＫＦＹコーポレーション,,株式会社,東京都,三鷹市,上連雀１丁目１６番１４号,,13,204,1810012,,,,,,,2025-11-27,1,,,,,ケイエフワイコーポレーション,0
1866,8012403007472,新規,0,2025-11-27,2025-11-27,合同会社アトリエ杉本,,合同会社,東京都,武蔵野市,関前３丁目３３番１０号秋山ハイツ３０３,,13,203,1800014,,,,,,,2025-11-27,1,,,,,アトリエスギモト,0
1868,8012801024383,新規,0,2025-11-27,2025-11-27,株式会社雅,,株式会社,東京都,国分寺市,東戸倉２丁目１２番地３１,,13,214,1850002,,,,,,,2025-11-27,1,,,,,ミヤビ,0
1870,8013301055357,新規,0,2025-11-27,2025-11-27,株式会社ＲＥＬＡＸ　ＷＡＴＣＨ,,株式会社,東京都,豊島区,南池袋２丁目３２－６南池袋ビルサンハイツ豊島６０１,,13,116,1710022,,,,,,,2025-11-27,1,,,,,リラックスウォッチ,0
1876,8020001165989,新規,0,2025-11-27,2025-11-27,株式会社藤嘉建設,,株式会社,神奈川県,横浜市旭区,上白根町９４０番地３２,,14,112,2410001,,,,,,,2025-11-27,1,,,,,フジヨシケンセツ,0
1877,8020001166021,新規,0,2025-11-27,2025-11-27,株式会社ひろま,,株式会社,神奈川県,横浜市旭区,二俣川２丁目４２番地３二俣川ガーデニアＡ棟４０６号,,14,112,2410821,,,,,,,2025-11-27,1,,,,,ヒロマ,0
1879,8020003029837,新規,0,2025-11-27,2025-11-27,ｍｅｇｒｅｅｎ合同会社,,合同会社,神奈川県,横浜市港南区,日野１丁目７番２０号,,14,111,2340051,,,,,,,2025-11-27,1,,,,,メグリーン,0
1883,8021001086878,新規,0,2025-11-27,2025-11-27,株式会社Ａｎｏｍａｌｙ,,株式会社,神奈川県,相模原市中央区,相模原３丁目９番１－１１０８号,,14,152,2520231,,,,,,,2025-11-27,1,,,,,アノマリー,0
1887,8021003016833,新規,0,2025-11-27,2025-11-27,合同会社ＳｕｎｎｙＰｌａｃｅ,,合同会社,神奈川県,平塚市,紅谷町３番１０―１８０３号,,14,203,2540043,,,,,,,2025-11-27,1,,,,,サニープレイス,0
1893,8030001169816,新規,0,2025-11-27,2025-11-27,株式会社Ｂｅ　ｓｉｄｅ　Ｕ,,株式会社,埼玉県,川口市,朝日１丁目６番６－８０７号,,11,203,3320001,,,,,,,2025-11-27,1,,,,,ビーサイドユー,0
1894,8030001169832,新規,0,2025-11-27,2025-11-27,株式会社ケイテック,,株式会社,埼玉県,川越市,川鶴３丁目２番地２１サンヴィレッジＣ棟１号室,,11,201,3501176,,,,,,,2025-11-27,1,,,,,ケイテック,0
1908,8040001141534,新規,0,2025-11-27,2025-11-27,株式会社Ｋ‐ＭＩＳＴ,,株式会社,千葉県,浦安市,富士見５丁目５番１６号エリーハウス１０２,,12,227,2790043,,,,,,,2025-11-27,1,,,,,ケミスト,0
1909,8040001141550,新規,0,2025-11-27,2025-11-27,株式会社ＫＧＪ,,株式会社,千葉県,千葉市稲毛区,長沼町３３０番地,,12,103,2630005,,,,,,,2025-11-27,1,,,,,ケイジージェイ,0
1910,8040001141559,新規,0,2025-11-27,2025-11-27,千葉国際人材育成支援レジデンシャルサービス株式会社,,株式会社,千葉県,柏市,加賀３丁目１８－１２,,12,217,2770051,,,,,,,2025-11-27,1,,,,,チバコクサイジンザイイクセイシエンレジデンシャルサービス,0
1911,8040001141567,新規,0,2025-11-27,2025-11-27,株式会社Ｓｅａｗｉｎｄ,,株式会社,千葉県,船橋市,本中山４丁目８番３－６０５号,,12,204,2730035,,,,,,,2025-11-27,1,,,,,シーウィンド,0
1916,8040005022953,新規,0,2025-11-27,2025-11-27,特定非営利活動法人七色のにじ,,その他の設立登記法人,千葉県,千葉市中央区,本町２丁目１番２１号石井ビル３Ａ,,12,101,2600012,,,,,,,2025-11-27,1,,,,,ナナイロノニジ,0
1922,8080005007744,新規,0,2025-11-27,2025-11-27,税理士法人ふたば会計事務所,,その他の設立登記法人,静岡県,静岡市駿河区,馬渕２丁目５番１１号,,22,102,4228063,,,,,,,2025-11-27,1,,,,,フタバカイケイジムショ,0
1926,8080401028278,新規,0,2025-11-27,2025-11-27,ＴＦＩ株式会社,,株式会社,静岡県,菊川市,加茂４８９０番地の１,,22,224,4390031,,,,,,,2025-11-27,1,,,,,ティーエフアイ,0
1935,8120001281958,新規,0,2025-11-27,2025-11-27,株式会社ネオバテック,,株式会社,大阪府,大阪市北区,梅田１丁目１－３大阪駅前第３ビル２９階１－１－１号室,,27,127,5300001,,,,,,,2025-11-27,1,,,,,ネオバテック,0
1936,8120001282213,新規,0,2025-11-27,2025-11-27,株式会社アリビオ,,株式会社,大阪府,大阪市東淀川区,小松１丁目２番１４－１０１号,,27,114,5330004,,,,,,,2025-11-27,1,,,,,アリビオ,0
1937,8120001282246,新規,0,2025-11-27,2025-11-27,株式会社Ｓｅｏｕｌ　Ｍｅｄｉｃａｌ　Ｊａｐａｎ,,株式会社,大阪府,大阪市淀川区,木川東１丁目７番３０号,,27,123,5320012,,,,,,,2025-11-27,1,,,,,ソウルメディカルジャパン,0
1938,8120001282279,新規,0,2025-11-27,2025-11-27,株式会社ｎｅｏｋｉｙａ,,株式会社,大阪府,大阪市城東区,野江３丁目６番４号,,27,118,5360006,,,,,,,2025-11-27,1,,,,,ネオキヤ,0
1944,8122001039931,新規,0,2025-11-27,2025-11-27,株式会社ＢＮ１,,株式会社,大阪府,八尾市,教興寺６丁目７２番地,,27,212,5810874,,,,,,,2025-11-27,1,,,,,ビーエヌワン,0
1945,8122001039948,新規,0,2025-11-27,2025-11-27,株式会社ＡＬＢＡプラス,,株式会社,大阪府,東大阪市,川俣１丁目１番８号,,27,227,5770063,,,,,,,2025-11-27,1,,,,,アルバプラス,0
1950,8130001081102,新規,0,2025-11-27,2025-11-27,株式会社ＬＩＦＥプラス１,,株式会社,京都府,京都市伏見区,向島中之町８１７ハイム藤久３０２,,26,109,6128115,,,,,,,2025-11-27,1,,,,,ライフプラスワン,0
1952,8130005017523,新規,0,2025-11-27,2025-11-27,一般社団法人京都橘,,その他の設立登記法人,京都府,京都市山科区,大宅山田３４番地,,26,110,6078175,,,,,,,2025-11-27,1,,,,,キョウトタチバナ,0
1958,8140001140880,新規,0,2025-11-27,2025-11-27,株式会社ＮＡＶＩＧＡＴＯＲ,,株式会社,兵庫県,姫路市,飾西台２７番地６３,,28,201,6712215,,,,,,,2025-11-27,1,,,,,ナビゲーター,0
1959,8140001140889,新規,0,2025-11-27,2025-11-27,株式会社ｓｏｌａ,,株式会社,兵庫県,神戸市西区,伊川谷町有瀬３２０番１,,28,111,6512113,,,,,,,2025-11-27,1,,,,,ソラ,0
1964,8150005009741,新規,0,2025-11-27,2025-11-27,一般社団法人カワサキ企画,,その他の設立登記法人,奈良県,奈良市,七条西町１丁目３番１４号,,29,201,6308054,,,,,,,2025-11-27,1,,,,,カワサキキカク,0
1967,8180001169628,新規,0,2025-11-27,2025-11-27,株式会社ヤマテック,,株式会社,愛知県,名古屋市中川区,供米田２丁目１７０１番地,,23,110,4540984,,,,,,,2025-11-27,1,,,,,ヤマテック,0
1968,8180001169652,新規,0,2025-11-27,2025-11-27,ヴィーナスキャピタル株式会社,,株式会社,愛知県,瀬戸市,松原町１丁目３４番地の１,,23,204,4890985,,,,,,,2025-11-27,1,,,,,ヴィーナスキャピタル,0
1971,8180301040447,新規,0,2025-11-27,2025-11-27,株式会社カネク,,株式会社,愛知県,みよし市,黒笹いずみ２丁目９番地３,,23,236,4700232,,,,,,,2025-11-27,1,,,,,カネク,0
1974,8190001032719,新規,0,2025-11-27,2025-11-27,クロックワイズドパーティ株式会社,,株式会社,三重県,名張市,梅が丘南３番町２８９番地,,24,208,5180743,,,,,,,2025-11-27,1,,,,,クロックワイズドパーティ,0
1975,8190003005276,新規,0,2025-11-27,2025-11-27,合同会社北勢ライニング,,合同会社,三重県,四日市市,桜花台１丁目１５番地２５,,24,202,5121216,,,,,,,2025-11-27,1,,,,,ホクセイライニング,0
1979,8230001021196,新規,0,2025-11-27,2025-11-27,グレイビーダイナー株式会社,,株式会社,富山県,富山市,新根塚町２丁目９番１３号,,16,201,9398205,,,,,,,2025-11-27,1,,,,,グレイビーダイナー,0
1981,8240001065820,新規,0,2025-11-27,2025-11-27,株式会社ＳＴＥＥＬＩＺＥ,,株式会社,広島県,府中市,中須町９２１番地１,,34,208,7260012,,,,,,,2025-11-27,1,,,,,スティライズ,0
1991,8290001112213,新規,0,2025-11-27,2025-11-27,株式会社ａｎｄ　ｙｏｕ,,株式会社,福岡県,朝倉市,福光１２５,,40,228,8380034,,,,,,,2025-11-27,1,,,,,アンドユー,0
1992,8290001112246,新規,0,2025-11-27,2025-11-27,株式会社グレーヌ,,株式会社,福岡県,福岡市南区,老司４丁目２番７号,,40,134,8111346,,,,,,,2025-11-27,1,,,,,グレーヌ,0
1993,8290001112329,新規,0,2025-11-27,2025-11-27,株式会社ライブラコンパス,,株式会社,福岡県,福岡市東区,青葉５丁目２９番６号,,40,131,8130025,,,,,,,2025-11-27,1,,,,,ライブラコンパス,0
1996,8290005019891,新規,0,2025-11-27,2025-11-27,一般社団法人Ｇｌｏｂａｌ　Ｃａｒｅｅｒ　Ｃｏｎｎｅｃｔ　Ｊａｐａｎ,,その他の設立登記法人,福岡県,八女市,高塚７７６番地,,40,210,8340034,,,,,,,2025-11-27,1,,,,,グローバルキャリアコネクトジャパン,0
2005,8340001027802,新規,0,2025-11-27,2025-11-27,ＡＣＴ工業株式会社,,株式会社,鹿児島県,鹿児島市,犬迫町１０２２１番地１,,46,201,8911205,,,,,,,2025-11-27,1,,,,,アクトコウギョウ,0
2014,8360003015423,新規,0,2025-11-27,2025-11-27,合同会社Ｐ‐Ｐｌａｃｅ,,合同会社,沖縄県,那覇市,真嘉比１丁目２１－２４・１Ｆ,,47,201,9020068,,,,,,,2025-11-27,1,,,,,ピープレイス,0
2015,8370001053250,新規,0,2025-11-27,2025-11-27,株式会社ＭＴＣ,,株式会社,宮城県,白石市,田町１丁目１番４７号,,04,206,9890227,,,,,,,2025-11-27,1,,,,,エムティーシー,0
2018,8400001017235,新規,0,2025-11-27,2025-11-27,株式会社Ｄ・Ｋ,,株式会社,岩手県,紫波郡紫波町,桜町字才土地９番地２４,,03,321,0283307,,,,,,,2025-11-27,1,,,,,ディーケー,0
2043,9010001260484,新規,0,2025-11-27,2025-11-27,株式会社ＧｒｏｗｔｈＢｒｉｄｇｅ,,株式会社,東京都,千代田区,神田須田町１丁目７番８号ＶＯＲＴ秋葉原ＩＶ２Ｆ,00141658,13,101,1010041,,,,,,,2025-11-27,1,,,,,グロースブリッジ,0
2044,9010001260625,新規,0,2025-11-27,2025-11-27,株式会社スマートセクター,,株式会社,東京都,千代田区,外神田５丁目１番１０号Ｂ１階,,13,101,1010021,,,,,,,2025-11-27,1,,,,,スマートセクター,0
2045,9010001260633,新規,0,2025-11-27,2025-11-27,ダイヤモンドエナジーストレージ２号株式会社,,株式会社,東京都,千代田区,丸の内２丁目３番１号,,13,101,1000005,,,,,,,2025-11-27,1,,,,,ダイヤモンドエナジーストレージニゴウ,0
2046,9010001260658,新規,0,2025-11-27,2025-11-27,株式会社ＣａｒｅＳｈｉｆｔ,,株式会社,東京都,千代田区,永田町２丁目９番６号十全ビル８０５,,13,101,1000014,,,,,,,2025-11-27,1,,,,,ケアシフト,0
2047,9010001260674,新規,0,2025-11-27,2025-11-27,株式会社エスパワー・ジャパン,,株式会社,東京都,中央区,日本橋浜町３丁目３番１－８１３号,,13,102,1030007,,,,,,,2025-11-27,1,,,,,エスパワージャパン,0
2048,9010001260682,新規,0,2025-11-27,2025-11-27,ＡＲＴ　ＢＯＸ　ＥＮＴＥＲＴＡＩＮＭＥＮＴ株式会社,,株式会社,東京都,中央区,銀座１丁目２７番１２号キャビネットビル７Ｆ,,13,102,1040061,,,,,,,2025-11-27,1,,,,,アートボックスエンターテイメント,0
2050,9010003049463,新規,0,2025-11-27,2025-11-27,ＪＬＰ１合同会社,,合同会社,東京都,千代田区,霞が関３丁目２番５号,,13,101,1000013,,,,,,,2025-11-27,1,,,,,ジェイエルピーワン,0
2055,9010401194786,新規,0,2025-11-27,2025-11-27,株式会社ＮＳＳＫ‐Ｍ１,,株式会社,東京都,港区,愛宕２丁目５番１号愛宕グリーンヒルズＭＯＲＩタワー,,13,103,1050002,,,,,,,2025-11-27,1,,,,,エヌエスエスケーエムワン,0
2058,9010403036680,新規,0,2025-11-27,2025-11-27,高輪企画合同会社,,合同会社,東京都,港区,高輪１丁目１８番５号,,13,103,1080074,,,,,,,2025-11-27,1,,,,,タカナワキカク,0
2060,9010601068344,新規,0,2025-11-27,2025-11-27,株式会社Ｐｌｕｓ　Ｓｔａｔｉｏｎ,,株式会社,東京都,墨田区,錦糸２丁目９番３－５０２号メゾンドスミダ,,13,107,1300013,,,,,,,2025-11-27,1,,,,,プラスステーション,0
2066,9010803005624,新規,0,2025-11-27,2025-11-27,合同会社のぶとう,,合同会社,東京都,大田区,南千束３丁目２７番８号,,13,111,1450063,,,,,,,2025-11-27,1,,,,,ノブトウ,0
2067,9010905004870,新規,0,2025-11-27,2025-11-27,一般社団法人ストレイドッグプロデュース,,その他の設立登記法人,東京都,世田谷区,八幡山３丁目３７番３２号,,13,112,1560056,,,,,,,2025-11-27,1,,,,,ストレイドッグプロデュース,0
2069,9011001173692,新規,0,2025-11-27,2025-11-27,株式会社カレーライス・エンターテイメント,,株式会社,東京都,渋谷区,道玄坂１丁目１０番８号渋谷道玄坂東急ビル２Ｆ‐Ｃ,,13,113,1500043,,,,,,,2025-11-27,1,,,,,カレーライスエンターテイメント,0
2070,9011001173701,新規,0,2025-11-27,2025-11-27,ＵＮＩＴＥＬＡＢ株式会社,,株式会社,東京都,渋谷区,東２丁目２４番３号渋谷ＴＨビル７階,,13,113,1500011,,,,,,,2025-11-27,1,,,,,ユナイトラボ,0
2071,9011001173742,新規,0,2025-11-27,2025-11-27,ＥＡＲＴＨ株式会社,,株式会社,東京都,渋谷区,神宮前６丁目２３番４号桑野ビル２階,,13,113,1500001,,,,,,,2025-11-27,1,,,,,アース,0
2072,9011001173750,新規,0,2025-11-27,2025-11-27,シトリン株式会社,,株式会社,東京都,目黒区,中根１丁目７‐４‐３０２,,13,110,1520031,,,,,,,2025-11-27,1,,,,,シトリン,0
2073,9011001173783,新規,0,2025-11-27,2025-11-27,Ｙｏａｑｅ株式会社,,株式会社,東京都,渋谷区,道玄坂１丁目１６‐６二葉ビル８ｂ,,13,113,1500043,,,,,,,2025-11-27,1,,,,,ヨアケ,0
2074,9011001173800,新規,0,2025-11-27,2025-11-27,株式会社ｏｔｏｍｉｚｕ,,株式会社,東京都,渋谷区,宇田川町１‐１２パークコート渋谷ザタワー,,13,113,1500042,,,,,,,2025-11-27,1,,,,,オトミズ,0
2075,9011003022955,新規,0,2025-11-27,2025-11-27,合同会社ＢＴＷ,,合同会社,東京都,渋谷区,神宮前２丁目３４‐５‐２０４,,13,113,1500001,,,,,,,2025-11-27,1,,,,,ビーティーダブリュー,0
2076,9011003022963,新規,0,2025-11-27,2025-11-27,合同会社ＮＯＭｉＣ,,合同会社,東京都,目黒区,上目黒２丁目３８番１１号丸金ビル３０１,,13,110,1530051,,,,,,,2025-11-27,1,,,,,ノミック,0
2086,9011501032844,新規,0,2025-11-27,2025-11-27,株式会社Ｃｈｉｐｓ,,株式会社,東京都,荒川区,町屋３丁目９番１２号３階,,13,118,1160001,,,,,,,2025-11-27,1,,,,,チップス,0
2091,9011601029195,新規,0,2025-11-27,2025-11-27,フィンランズ株式会社,,株式会社,東京都,練馬区,練馬１丁目２０番８号日建練馬ビル２階,,13,120,1760001,,,,,,,2025-11-27,1,,,,,フィンランズ,0
2097,9012405005192,新規,0,2025-11-27,2025-11-27,一般社団法人医療教育コーディネーター協会,,その他の設立登記法人,東京都,三鷹市,上連雀２丁目２番１６号,,13,204,1810012,,,,,,,2025-11-27,1,,,,,,0
2099,9012801024382,新規,0,2025-11-27,2025-11-27,ＣＨＡＮＣＥ株式会社,,株式会社,東京都,日野市,高幡６４７番地の１,,13,212,1910031,,,,,,,2025-11-27,1,,,,,シャンセ,0
2106,9013301055348,新規,0,2025-11-27,2025-11-27,ＳＴＲ株式会社,,株式会社,東京都,豊島区,西池袋１丁目４番１０号,,13,116,1710021,,,,,,,2025-11-27,1,,,,,エスティーアール,0
2107,9013301055356,新規,0,2025-11-27,2025-11-27,令和リアルエステート管理株式会社,,株式会社,東京都,豊島区,北大塚２丁目８番１２号オリエンタル大塚コーポラス３０１号,,13,116,1700004,,,,,,,2025-11-27,1,,,,,レイワリアルエステートカンリ,0
2111,9020001165988,新規,0,2025-11-27,2025-11-27,株式会社林電気,,株式会社,神奈川県,横浜市神奈川区,松見町１丁目２２番地２４,,14,102,2210005,,,,,,,2025-11-27,1,,,,,ハヤシデンキ,0
2119,9021001086877,新規,0,2025-11-27,2025-11-27,株式会社Ｃｈａｎｋｉｎ＆Ｃｏ．,,株式会社,神奈川県,藤沢市,鵠沼石上１丁目７番８号,,14,205,2510025,,,,,,,2025-11-27,1,,,,,チャンキンアンドコー,0
2120,9021001086893,新規,0,2025-11-27,2025-11-27,東ノホウ株式会社,,株式会社,神奈川県,座間市,入谷東３丁目２２番２３号,,14,216,2520028,,,,,,,2025-11-27,1,,,,,ヒガシノホウ,0
2121,9021001086910,新規,0,2025-11-27,2025-11-27,株式会社ウルフエステート,,株式会社,神奈川県,藤沢市,片瀬海岸１丁目１２番４号５０５,,14,205,2510035,,,,,,,2025-11-27,1,,,,,ウルフエステート,0
2123,9021003016832,新規,0,2025-11-27,2025-11-27,合同会社ｃｏｃｏｎｕｔｓ,,合同会社,神奈川県,相模原市南区,相模大野７丁目１０番１－４０２号,,14,153,2520303,,,,,,,2025-11-27,1,,,,,ココナッツ,0
2130,9030001169682,新規,0,2025-11-27,2025-11-27,リサールホールディングス株式会社,,株式会社,埼玉県,さいたま市北区,宮原町２丁目１１０番地１２,,11,102,3310812,,,,,,,2025-11-27,1,,,,,リサールホールディングス,0
2139,9030003028119,新規,0,2025-11-27,2025-11-27,合同会社メディサポ,,合同会社,埼玉県,入間市,大字南峯２８０番地１３,,11,225,3580046,,,,,,,2025-11-27,1,,,,,メディサポ,0
2140,9030003028151,新規,0,2025-11-27,2025-11-27,合同会社ゼロワンＭＩ,,合同会社,埼玉県,さいたま市桜区,西堀３丁目１８番３１－５号,,11,106,3380832,,,,,,,2025-11-27,1,,,,,ゼロワンエムアイ,0
2141,9030005022342,新規,0,2025-11-27,2025-11-27,一般社団法人芸術家ビレッジ,,その他の設立登記法人,埼玉県,越谷市,大沢４丁目１５番１号越谷ファミールハイツ５－１０４,,11,222,3430025,,,,,,,2025-11-27,1,,,,,ゲイジュツカビレッジ,0
2145,9040001141566,新規,0,2025-11-27,2025-11-27,株式会社バンブー,,株式会社,千葉県,市川市,北国分４丁目２７－９－２１１号エステ・コート市川北国分２号棟,,12,203,2720836,,,,,,,2025-11-27,1,,,,,バンブー,0
2149,9060001038793,新規,0,2025-11-27,2025-11-27,株式会社ＧＯＮＵＴＳ,,株式会社,栃木県,真岡市,台町３３７９番地９,,09,209,3214306,,,,,,,2025-11-27,1,,,,,ゴーナッツ,0
2151,9060003005858,新規,0,2025-11-27,2025-11-27,ＩＲＨＡ　ＴＲＡＤＩＮＧ合同会社,,合同会社,栃木県,栃木市,岩舟町新里１３０４番地５,,09,203,3294316,,,,,,,2025-11-27,1,,,,,イルハトレーディング,0
2153,9080101025913,新規,0,2025-11-27,2025-11-27,株式会社ＳＵＮＮＹＤＡＹＳ,,株式会社,静岡県,富士宮市,野中９１０番地の１,,22,207,4180039,,,,,,,2025-11-27,1,,,,,サニーデイズ,0
2155,9080401028277,新規,0,2025-11-27,2025-11-27,株式会社神松,,株式会社,静岡県,浜松市中央区,篠原町９３７５番地,,22,138,4310201,,,,,,,2025-11-27,1,,,,,シンショウ,0
2168,9120001282170,新規,0,2025-11-27,2025-11-27,株式会社眞創,,株式会社,大阪府,大阪市住之江区,粉浜１丁目２５番１－３０１号,,27,125,5590001,,,,,,,2025-11-27,1,,,,,シンソウ,0
2169,9120001282245,新規,0,2025-11-27,2025-11-27,美慶株式会社,,株式会社,大阪府,大阪市港区,夕凪２丁目１０番２３－７０３号,,27,107,5520004,,,,,,,2025-11-27,1,,,,,ビケイ,0
2170,9120001282311,新規,0,2025-11-27,2025-11-27,株式会社ＯＭＵ,,株式会社,大阪府,大阪市北区,梅田１丁目２番２号大阪駅前第２ビル１２－１２,,27,127,5300001,,,,,,,2025-11-27,1,,,,,オーエムユー,0
2173,9120003031303,新規,0,2025-11-27,2025-11-27,合同会社ｏｈａｎａ,,合同会社,大阪府,枚方市,茄子作１丁目１９－８,,27,210,5730071,,,,,,,2025-11-27,1,,,,,オハナ,0
2176,9120103006857,新規,0,2025-11-27,2025-11-27,合同会社Ｓａｄａｌｓｕｕｄ,,合同会社,大阪府,堺市東区,中茶屋１番地７４,,27,143,5998128,,,,,,,2025-11-27,1,,,,,サダルスウド,0
2178,9120903005967,新規,0,2025-11-27,2025-11-27,合同会社グロースパートナーズ,,合同会社,大阪府,豊中市,西泉丘３丁目１９番地の４,,27,203,5610862,,,,,,,2025-11-27,1,,,,,グロースパートナーズ,0
2183,9130003010966,新規,0,2025-11-27,2025-11-27,ノクトイ合同会社,,合同会社,京都府,京都市下京区,綾小路通麩屋町東入俵屋町３０７番地４,,26,106,6008042,,,,,,,2025-11-27,1,,,,,ノクトイ,0
2189,9140001140888,新規,0,2025-11-27,2025-11-27,株式会社ぴあライツ,,株式会社,兵庫県,神戸市垂水区,上高丸１丁目７番４５号サンハイツ上高丸１０１,,28,108,6550017,,,,,,,2025-11-27,1,,,,,ピアライツ,0
2197,9160001027241,新規,0,2025-11-27,2025-11-27,株式会社早川工務店,,株式会社,滋賀県,守山市,幸津川町３４００番地,,25,207,5240215,,,,,,,2025-11-27,1,,,,,ハヤカワコウムテン,0
2199,9160003003661,新規,0,2025-11-27,2025-11-27,合同会社西澤商店,,合同会社,滋賀県,東近江市,大清水町５６８番地１,,25,213,5270126,,,,,,,2025-11-27,1,,,,,ニシザワショウテン,0
2200,9170001018891,新規,0,2025-11-27,2025-11-27,株式会社Ｈｉｇｇｘｓ,,株式会社,和歌山県,和歌山市,西浜１２６２番地１８－３－１０１,,30,201,6410036,,,,,,,2025-11-27,1,,,,,ヒッグス,0
2202,9180001169602,新規,0,2025-11-27,2025-11-27,株式会社ＰｕｌｍｏＧａｔｅ,,株式会社,愛知県,名古屋市昭和区,鶴舞１丁目２番３２号,,23,107,4660064,,,,,,,2025-11-27,1,,,,,パルモゲート,0
2203,9180001169635,新規,0,2025-11-27,2025-11-27,ＯｗＬ３５株式会社,,株式会社,愛知県,名古屋市西区,栄生３丁目１９番２２号,,23,104,4510052,,,,,,,2025-11-27,1,,,,,オウルサーティファイブ,0
2204,9180001169643,新規,0,2025-11-27,2025-11-27,タカギグループ株式会社,,株式会社,愛知県,愛知郡東郷町,大字諸輪字尼ケ根３４番地の２８,,23,302,4700151,,,,,,,2025-11-27,1,,,,,タカギグループ,0
2205,9180001169651,新規,0,2025-11-27,2025-11-27,株式会社Ｂｅｙｏｎｄ　ｔｈｅ　Ｂｏｘ,,株式会社,愛知県,名古屋市中村区,名駅３丁目４番１０号アルティメイト名駅１ｓｔ２階,,23,105,4500002,,,,,,,2025-11-27,1,,,,,,0
2209,9180003029390,新規,0,2025-11-27,2025-11-27,合同会社Ｍｉｉ＆Ｃｏ．,,合同会社,愛知県,名古屋市東区,葵１丁目１４－２０エスティメゾン葵３０２,,23,102,4610004,,,,,,,2025-11-27,1,,,,,ミーアンドコート,0
2210,9180003029424,新規,0,2025-11-27,2025-11-27,合同会社Ｙ’ｓサポート,,合同会社,愛知県,春日井市,大手町１６０８番地２,,23,206,4860807,,,,,,,2025-11-27,1,,,,,ワイズサポート,0
2215,9190001032718,新規,0,2025-11-27,2025-11-27,株式会社ＬＩＮＫ,,株式会社,三重県,四日市市,尾上町１９番地６,,24,202,5100059,,,,,,,2025-11-27,1,,,,,リンク,0
2220,9220003004174,新規,0,2025-11-27,2025-11-27,高橋商事合同会社,,合同会社,石川県,珠洲市,正院町川尻１５部９５番地１,,17,205,9271205,,,,,,,2025-11-27,1,,,,,タカハシショウジ,0
2226,9260001040754,新規,0,2025-11-27,2025-11-27,株式会社チャージリンク,,株式会社,岡山県,岡山市北区,松尾４０９番地の３,,33,101,7011222,,,,,,,2025-11-27,1,,,,,チャージリンク,0
2227,9260001040762,新規,0,2025-11-27,2025-11-27,アジウォン株式会社,,株式会社,岡山県,岡山市北区,今保３４８番地,,33,101,7010145,,,,,,,2025-11-27,1,,,,,アジウォン,0
2236,9290001112055,新規,0,2025-11-27,2025-11-27,株式会社ＰａｎＰｏｏ,,株式会社,福岡県,春日市,須玖北７丁目１１番地１コーポエバーグローＢ１０１号,,40,218,8160864,,,,,,,2025-11-27,1,,,,,パンプー,0
2242,9290003017731,新規,0,2025-11-27,2025-11-27,合同会社みぢかネットワーク,,合同会社,福岡県,福津市,津屋崎２丁目１４番２８号,,40,224,8113304,,,,,,,2025-11-27,1,,,,,ミヂカネットワーク,0
2256,9370003007393,新規,0,2025-11-27,2025-11-27,合同会社ジョーパス,,合同会社,宮城県,仙台市青葉区,中央２丁目１１－１９仙南ビル４階－Ａ,,04,101,9800021,,,,,,,2025-11-27,1,,,,,ジョーパス,0
2258,9380003006188,新規,0,2025-11-27,2025-11-27,合同会社ｃｅｌｅｓｔａｒ,,合同会社,福島県,福島市,春日町１１番３８号,,07,201,9608116,,,,,,,2025-11-27,1,,,,,セレスター,0
2259,9390003002467,新規,0,2025-11-27,2025-11-27,合同会社紬,,合同会社,山形県,山形市,城南町１丁目１番１号霞城セントラル２階スタートアップステーション・ジョージ山形内,,06,201,9900827,,,,,,,2025-11-27,1,,,,,ツムギ,0
2269,9430003018343,新規,0,2025-11-27,2025-11-27,夢星ソフト合同会社,,合同会社,北海道,小樽市,朝里３丁目１４－５,,01,203,0470151,,,,,,,2025-11-27,1,,,,,ユメホシソフト,0
2270,9430003018351,新規,0,2025-11-27,2025-11-27,合同会社森羅,,合同会社,北海道,虻田郡倶知安町,ニセコひらふ一条４丁目４番５号綾ニセコ１階,,01,400,0440080,,,,,,,2025-11-27,1,,,,,シンラ,0
2275,9700150133066,新規,0,2025-11-27,2025-11-27,ＢＯＤＯＮ　ＬＩＭＩＴＥＤ,,外国会社等,,,,,,,,中華人民共和国香港特別行政区、カウルーン、クントン、シンイプストリート、レジェンド・タワー７、１８階、ユニットＨ,,,,,,2025-11-27,1,,,,,ボドンリミテツド,0
