sequenceNumber,corporateNumber,process,correct,updateDate,changeDate,name,nameImageId,kind,prefectureName,cityName,streetNumber,addressImageId,prefectureCode,cityCode,postCode,addressOutside,addressOutsideImageId,closeDate,closeCause,successorCorporateNumber,changeCause,assignmentDate,latest,enName,enPrefectureName,enCityName,enAddressOutside,furigana,hihyoji
5,1010001248958,新規,0,2024-10-09,2024-10-09,ＨＫＳテック株式会社,,株式会社,東京都,文京区,小石川２丁目６番１９号中銀第２小石川マンシオン２０４号,,13,105,1120002,,,,,,,2024-10-09,1,,,,,エイチケーエステック,0
7,1010003045131,新規,0,2024-10-09,2024-10-09,合同会社バッテリーパーク８,,合同会社,東京都,千代田区,丸の内１丁目４番１号丸の内永楽ビルディング２６０５室,,13,101,1000005,,,,,,,2024-10-09,1,,,,,バッテリーパークエイト,0
8,1010003045156,新規,0,2024-10-09,2024-10-09,合同会社第１号脱炭素推進機構,,合同会社,東京都,千代田区,神田錦町３丁目２２番地,,13,101,1010054,,,,,,,2024-10-09,1,,,,,ダイイチゴウダツタンソスイシンキコウ,0
9,1010003045172,新規,0,2024-10-09,2024-10-09,ベストキャピタル１号合同会社,,合同会社,東京都,千代田区,丸の内２丁目７番２号ＪＰタワー２２階,,13,101,1000005,,,,,,,2024-10-09,1,,,,,ベストキャピタルイチゴウ,0
10,1010005038918,新規,0,2024-10-09,2024-10-09,社会保険労務士法人Ｒｏｙａｌ　Ｃｏｎｓｕｌｔｉｎｇ,,その他の設立登記法人,東京都,中央区,新川１丁目２３－５ＯＮＥＳＨＩＮＫＡＷＡ１４０１,,13,102,1040033,,,,,,,2024-10-09,1,,,,,ロイヤルコンサルティング,0
13,1010103002429,新規,0,2024-10-09,2024-10-09,合同会社ＴｅｃｈＳｐｉｃｅ,,合同会社,東京都,八王子市,長沼町１１９０－３０,,13,201,1920907,,,,,,,2024-10-09,1,,,,,テックスパイス,0
26,1010401185462,新規,0,2024-10-09,2024-10-09,Ａｓｐｉｒｅ　Ｌｉｆｅｓｔｙｌｅｓ　Ｔｒａｖｅｌ　Ｊａｐａｎ株式会社,,株式会社,東京都,港区,北青山１丁目３番１号アールキューブ青山３階,,13,103,1070061,,,,,,,2024-10-09,1,,,,,アスパイアーライフスタイルズトラベルジャパン,0
27,1010401185495,新規,0,2024-10-09,2024-10-09,株式会社ＺＥＲＯ,,株式会社,東京都,港区,六本木３丁目７番１－７１５号,,13,103,1060032,,,,,,,2024-10-09,1,,,,,ゼロ,0
28,1010401185537,新規,0,2024-10-09,2024-10-09,マラン株式会社,,株式会社,東京都,港区,北青山１丁目３番１号アールキューブ青山３階,,13,103,1070061,,,,,,,2024-10-09,1,,,,,マラン,0
31,1010403033545,新規,0,2024-10-09,2024-10-09,Ｔｒｅｓ　Ｈｏｎｏｒｅ合同会社,,合同会社,東京都,港区,西麻布４丁目２２番１２号,,13,103,1060031,,,,,,,2024-10-09,1,,,,,トレゾノレ,0
32,1010403033553,新規,0,2024-10-09,2024-10-09,Ｆｕｋａｕｒａ　Ａｃｑｕｉｓｉｔｉｏｎ　Ｃｏｍｐａｎｙ合同会社,,合同会社,東京都,港区,赤坂１丁目１１番４４号赤坂インターシティ,,13,103,1070052,,,,,,,2024-10-09,1,,,,,フカウラアクイジションカンパニー,0
34,1010501052991,新規,0,2024-10-09,2024-10-09,株式会社ＲＫＤテクノロジーズ,,株式会社,東京都,台東区,台東２丁目７－３瀬戸ビル３Ｆ,,13,106,1100016,,,,,,,2024-10-09,1,,,,,アールケーディーテクノロジーズ,0
43,1010901056072,新規,0,2024-10-09,2024-10-09,株式会社ＫＯＳ,,株式会社,東京都,世田谷区,深沢５丁目２３番１３号,,13,112,1580081,,,,,,,2024-10-09,1,,,,,コス,0
47,1011001165012,新規,0,2024-10-09,2024-10-09,株式会社アンバーサイン,,株式会社,東京都,渋谷区,渋谷２丁目１９番１５号宮益坂ビルディング６０９,,13,113,1500002,,,,,,,2024-10-09,1,,,,,アンバーサイン,0
48,1011001165029,新規,0,2024-10-09,2024-10-09,株式会社インプレスタ,,株式会社,東京都,渋谷区,神南１丁目１１－４ＦＰＧリンクス神南５階,,13,113,1500041,,,,,,,2024-10-09,1,,,,,インプレスタ,0
49,1011001165037,新規,0,2024-10-09,2024-10-09,株式会社サニー,,株式会社,東京都,目黒区,上目黒２丁目６番９号,,13,110,1530051,,,,,,,2024-10-09,1,,,,,サニー,0
50,1011001165061,新規,0,2024-10-09,2024-10-09,ワークリア株式会社,,株式会社,東京都,渋谷区,渋谷２丁目２４番１２号,,13,113,1500002,,,,,,,2024-10-09,1,,,,,ワークリア,0
51,1011003020132,新規,0,2024-10-09,2024-10-09,合同会社ＭＡＲＫＳ　Ｃａｐｉｔａｌ　Ｐａｒｔｎｅｒｓ,,合同会社,東京都,目黒区,五本木２丁目１８番１４号,,13,110,1530053,,,,,,,2024-10-09,1,,,,,マークスキャピタルパートナーズ,0
55,1011101109059,新規,0,2024-10-09,2024-10-09,玉泉株式会社,,株式会社,東京都,新宿区,新宿７丁目１２－２新宿武蔵野マンション３０２号室,,13,104,1600022,,,,,,,2024-10-09,1,,,,,ギョクセン,0
57,1011103015024,新規,0,2024-10-09,2024-10-09,合同会社ジョイント・プロモーション,,合同会社,東京都,新宿区,西新宿３丁目３番１３号西新宿水間ビル６階,,13,104,1600023,,,,,,,2024-10-09,1,,,,,ジョイントプロモーション,0
66,1011503006250,新規,0,2024-10-09,2024-10-09,高成合同会社,,合同会社,東京都,北区,中里２丁目１６番２号,,13,117,1140015,,,,,,,2024-10-09,1,,,,,コウセイ,0
67,1011603004476,新規,0,2024-10-09,2024-10-09,合同会社ｂｌｏｓｓｏｍ,,合同会社,東京都,練馬区,豊玉南３丁目３２番３８号,,13,120,1760014,,,,,,,2024-10-09,1,,,,,ブロッサム,0
77,1012401042362,新規,0,2024-10-09,2024-10-09,株式会社表,,株式会社,東京都,多摩市,貝取１丁目６２番地の３,,13,224,2060012,,,,,,,2024-10-09,1,,,,,オモテ,0
79,1012701018483,新規,0,2024-10-09,2024-10-09,ＨＯＰＥ建装株式会社,,株式会社,東京都,西東京市,芝久保町４丁目２６番１４号,,13,229,1880014,,,,,,,2024-10-09,1,,,,,,0
81,1012801023499,新規,0,2024-10-09,2024-10-09,佐藤株式会社,,株式会社,東京都,立川市,栄町５丁目５９番地の１４,,13,202,1900003,,,,,,,2024-10-09,1,,,,,サトウ,0
82,1013301053185,新規,0,2024-10-09,2024-10-09,株式会社アスピレーション,,株式会社,東京都,豊島区,池袋２丁目７１番３号２階,,13,116,1710014,,,,,,,2024-10-09,1,,,,,アスピレーション,0
88,1021001083436,新規,0,2024-10-09,2024-10-09,ポタブルン株式会社,,株式会社,神奈川県,相模原市緑区,千木良１０１６－２,,14,151,2520174,,,,,,,2024-10-09,1,,,,,ポタブルン,0
108,1040001135658,新規,0,2024-10-09,2024-10-09,株式会社ハート共済保障,,株式会社,千葉県,船橋市,駿河台１丁目２７番１号,,12,204,2730862,,,,,,,2024-10-09,1,,,,,ハートキョウサイホショウ,0
115,1040005022530,新規,0,2024-10-09,2024-10-09,医療法人社団ＭＫＳ,,その他の設立登記法人,千葉県,市川市,妙典４丁目３番１７号１階,,12,203,2720111,,,,,,,2024-10-09,1,,,,,エムケイエス,0
117,1050001055509,新規,0,2024-10-09,2024-10-09,株式会社ＯｎｅＬｉｎｋ,,株式会社,茨城県,守谷市,百合ケ丘３丁目２６６１番地の４６,,08,224,3020110,,,,,,,2024-10-09,1,,,,,ワンリンク,0
127,1070003005600,新規,0,2024-10-09,2024-10-09,合同会社ｔｏｉ　ｔｏｉ　ｔｏｉ,,合同会社,群馬県,前橋市,山王町２丁目１０番地１２,,10,201,3792123,,,,,,,2024-10-09,1,,,,,,0
133,1080003003306,新規,0,2024-10-09,2024-10-09,合同会社ｇｒｏｏｖｉｎｇ,,合同会社,静岡県,静岡市葵区,神明町５２－８,,22,101,4200009,,,,,,,2024-10-09,1,,,,,グルーヴィン,0
140,1100001037922,新規,0,2024-10-09,2024-10-09,ＳＥＰ株式会社,,株式会社,長野県,松本市,大字松原２２番地５６,,20,202,3990022,,,,,,,2024-10-09,1,,,,,セップ,0
152,1120001269092,新規,0,2024-10-09,2024-10-09,株式会社デレクサポート,,株式会社,大阪府,門真市,下馬伏町２３番７号,,27,223,5710009,,,,,,,2024-10-09,1,,,,,デレクサポート,0
153,1120001269118,新規,0,2024-10-09,2024-10-09,株式会社Ｗｏｒｔｈ,,株式会社,大阪府,大阪市西区,南堀江３丁目１６番２１－４１０４号,,27,106,5500015,,,,,,,2024-10-09,1,,,,,ワース,0
154,1120001269142,新規,0,2024-10-09,2024-10-09,Ｍｉｄｅａ　Ｌｉｖｅ株式会社,,株式会社,大阪府,大阪市旭区,森小路１丁目１４番２１号２０１,,27,117,5350013,,,,,,,2024-10-09,1,,,,,メディアライブ,0
155,1120001269167,新規,0,2024-10-09,2024-10-09,美世達株式会社,,株式会社,大阪府,大阪市阿倍野区,天王寺町南２丁目２２番３号ＮＡＧＡＩメゾン天王寺南２０８号,,27,119,5450002,,,,,,,2024-10-09,1,,,,,ミセタツ,0
156,1120001269299,新規,0,2024-10-09,2024-10-09,株式会社リプラウド,,株式会社,大阪府,大阪市西区,南堀江１丁目１４番２８号山五ビル５階西室,,27,106,5500015,,,,,,,2024-10-09,1,,,,,リプラウド,0
157,1120003027688,新規,0,2024-10-09,2024-10-09,合同会社Ｑｕｉｃｋ　Ｓｈａｐｅ,,合同会社,大阪府,寝屋川市,河北中町３０番５号,,27,215,5720816,,,,,,,2024-10-09,1,,,,,クイックシェイプ,0
158,1120003027705,新規,0,2024-10-09,2024-10-09,合同会社エンカルム,,合同会社,大阪府,大阪市都島区,友渕町１丁目６番１－１３０２号,,27,102,5340016,,,,,,,2024-10-09,1,,,,,エンカルム,0
159,1120005024568,新規,0,2024-10-09,2024-10-09,一般社団法人すまいバンク,,その他の設立登記法人,大阪府,大阪市北区,鶴野町４番А－１０５号,,27,127,5300014,,,,,,,2024-10-09,1,,,,,スマイバンク,0
185,1140003021169,新規,0,2024-10-09,2024-10-09,合同会社ＭＳ　ＫＡＮＳＡＩ　ＳＥＲＶＩＣＥ,,合同会社,兵庫県,神戸市中央区,港島中町８丁目２－１２,,28,110,6500046,,,,,,,2024-10-09,1,,,,,エムエスカンサイサービス,0
195,1180001163372,新規,0,2024-10-09,2024-10-09,株式会社やすらぎ介護,,株式会社,愛知県,名古屋市中川区,戸田３丁目１５０６番地１シャルマン１Ｆ,,23,110,4540962,,,,,,,2024-10-09,1,,,,,ヤスラギカイゴ,0
196,1180001163488,新規,0,2024-10-09,2024-10-09,株式会社マツバラコーポレーション,,株式会社,愛知県,名古屋市瑞穂区,東栄町７丁目６番地,,23,108,4670017,,,,,,,2024-10-09,1,,,,,マツバラコーポレーション,0
197,1180001163579,新規,0,2024-10-09,2024-10-09,株式会社クラベス,,株式会社,愛知県,名古屋市中村区,名駅３丁目２８番１２号,,23,105,4500002,,,,,,,2024-10-09,1,,,,,クラベス,0
199,1180003027476,新規,0,2024-10-09,2024-10-09,合同会社ＹＯＨ,,合同会社,愛知県,名古屋市中区,丸の内２丁目１６－８、２階,,23,106,4600002,,,,,,,2024-10-09,1,,,,,ヨー,0
200,1180301039090,新規,0,2024-10-09,2024-10-09,株式会社柿田燃料店,,株式会社,愛知県,新城市,平井字原１８番地,,23,221,4411362,,,,,,,2024-10-09,1,,,,,カキタネンリョウテン,0
201,1180301039132,新規,0,2024-10-09,2024-10-09,貴いシルク株式会社,,株式会社,愛知県,豊田市,稲武町タヒラ８番地,,23,211,4412513,,,,,,,2024-10-09,1,,,,,トウトイシルク,0
204,1190003004821,新規,0,2024-10-09,2024-10-09,合同会社ＴＣＰ,,合同会社,三重県,度会郡玉城町,矢野５７９‐２３５,,24,461,5190435,,,,,,,2024-10-09,1,,,,,ティーシーピー,0
218,1240001063921,新規,0,2024-10-09,2024-10-09,株式会社ＧＬＯＢＡＬ,,株式会社,広島県,東広島市,西条町森近１７４番地７,,34,212,7390032,,,,,,,2024-10-09,1,,,,,グローバル,0
227,1290005019519,新規,0,2024-10-09,2024-10-09,一般社団法人たいようさんとこ,,その他の設立登記法人,福岡県,福岡市博多区,美野島４丁目１－１０パロス美野島２０８号,,40,132,8120017,,,,,,,2024-10-09,1,,,,,タイヨウサントコ,0
228,1290801030942,新規,0,2024-10-09,2024-10-09,株式会社バリアン,,株式会社,福岡県,北九州市小倉南区,沼本町１丁目４番５－２０３号,,40,107,8000208,,,,,,,2024-10-09,1,,,,,バリアン,0
231,1300001013928,新規,0,2024-10-09,2024-10-09,株式会社天優アセンド,,株式会社,佐賀県,伊万里市,脇田町３４６０番地ブルックロードＭ２０２,,41,205,8480028,,,,,,,2024-10-09,1,,,,,テンユウアセンド,0
242,1360003014349,新規,0,2024-10-09,2024-10-09,合同会社安鶴,,合同会社,沖縄県,沖縄市,山内３丁目１４番３０号,,47,211,9040034,,,,,,,2024-10-09,1,,,,,アンカク,0
245,1380001034818,新規,0,2024-10-09,2024-10-09,ａｎｄ・Ｗｉｔｈ株式会社,,株式会社,福島県,福島市,飯坂町平野字檀ノ南１番地の１７,,07,201,9600231,,,,,,,2024-10-09,1,,,,,アンドウィズ,0
246,1380001034826,新規,0,2024-10-09,2024-10-09,株式会社光翠,,株式会社,福島県,いわき市,遠野町深山田字原前８３番地,,07,204,9720164,,,,,,,2024-10-09,1,,,,,コウスイ,0
265,1480003002184,新規,0,2024-10-09,2024-10-09,合同会社びるぱに,,合同会社,徳島県,阿南市,那賀川町色ケ島網干８２番地１,,36,204,7791112,,,,,,,2024-10-09,1,,,,,ビルパニ,0
277,1700150126630,新規,0,2024-10-09,2024-08-01,通称「モネの池」環境整備委員会,,その他,岐阜県,関市,板取２８１番地,,21,205,5012901,,,,,,,2024-08-01,1,,,,,ツウシヨウモネノイケカンキヨウセイビイインカイ,0
293,2010003045130,新規,0,2024-10-09,2024-10-09,合同会社バッテリーパーク７,,合同会社,東京都,千代田区,丸の内１丁目４番１号丸の内永楽ビルディング２６０５室,,13,101,1000005,,,,,,,2024-10-09,1,,,,,バッテリーパークセブン,0
295,2010103002428,新規,0,2024-10-09,2024-10-09,合同会社４ｆｕｎ,,合同会社,東京都,八王子市,堀之内４６９－２グランレグナス７０８,,13,201,1920355,,,,,,,2024-10-09,1,,,,,,0
301,2010401185494,新規,0,2024-10-09,2024-10-09,株式会社ケーエスエムプラス,,株式会社,東京都,港区,高輪３丁目１２番８号,,13,103,1080074,,,,,,,2024-10-09,1,,,,,ケーエスエムプラス,0
302,2010401185503,新規,0,2024-10-09,2024-10-09,ＪＭＳ帝人ホームメディカルケア株式会社,,株式会社,東京都,港区,芝浦１丁目２番１号,,13,103,1050023,,,,,,,2024-10-09,1,,,,,ジェイエムエステイジンホームメディカルケア,0
303,2010401185610,新規,0,2024-10-09,2024-10-09,株式会社ＡＬＴＥＳ９,,株式会社,東京都,港区,浜松町２丁目２番１５号,,13,103,1050013,,,,,,,2024-10-09,1,,,,,オゥルテスナイン,0
304,2010403033552,新規,0,2024-10-09,2024-10-09,合同会社フジ・コンシューマ・プロダクツ,,合同会社,東京都,港区,台場２丁目４番８号,,13,103,1350091,,,,,,,2024-10-09,1,,,,,フジコンシューマプロダクツ,0
306,2010501052990,新規,0,2024-10-09,2024-10-09,株式会社ＡＬＬ　ＩＮ,,株式会社,東京都,台東区,台東２丁目７－３瀬戸ビル３Ｆ,,13,106,1100016,,,,,,,2024-10-09,1,,,,,オールイン,0
307,2010601066024,新規,0,2024-10-09,2024-10-09,株式会社クロス・インサポ,,株式会社,東京都,江東区,富岡１丁目１２－７,,13,108,1350047,,,,,,,2024-10-09,1,,,,,クロスインサポ,0
308,2010601066040,新規,0,2024-10-09,2024-10-09,株式会社サザンカファーマシー,,株式会社,東京都,江東区,三好１丁目８番３号,,13,108,1350022,,,,,,,2024-10-09,1,,,,,サザンカファーマシー,0
309,2010601066065,新規,0,2024-10-09,2024-10-09,株式会社ＭＯサービス,,株式会社,東京都,江東区,平野３丁目２番６号木場パークビル,,13,108,1350023,,,,,,,2024-10-09,1,,,,,エムオーサービス,0
311,2010603011135,新規,0,2024-10-09,2024-10-09,合同会社ＺＥＴＴＡＩ,,合同会社,東京都,江東区,牡丹１丁目１６番１号パレスサンセイ２０２号室,,13,108,1350046,,,,,,,2024-10-09,1,,,,,ゼッタイ,0
328,2011001165052,新規,0,2024-10-09,2024-10-09,キョウデン株式会社,,株式会社,東京都,目黒区,八雲１丁目１２番１４号,,13,110,1520023,,,,,,,2024-10-09,1,,,,,キョウデン,0
329,2011001165085,新規,0,2024-10-09,2024-10-09,株式会社Ｕｎｅｖｅｎ　Ａｐｐｌｅｓ,,株式会社,東京都,渋谷区,上原１丁目３番９号,,13,113,1510064,,,,,,,2024-10-09,1,,,,,アンイーブンアップルズ,0
331,2011003020148,新規,0,2024-10-09,2024-10-09,合同会社Ｐｏｐｕｌｕｓ,,合同会社,東京都,目黒区,下目黒１丁目１番１４号コノトラビル７Ｆ,,13,110,1530064,,,,,,,2024-10-09,1,,,,,ポプラ,0
335,2011103015023,新規,0,2024-10-09,2024-10-09,優諾国際合同会社,,合同会社,東京都,新宿区,榎町３４番地３榎町ビル７階１２室,,13,104,1620806,,,,,,,2024-10-09,1,,,,,ユウダクコクサイ,0
337,2011301030047,新規,0,2024-10-09,2024-10-09,株式会社さくらレーベン,,株式会社,東京都,杉並区,阿佐谷北１丁目２６－１０沼田ビル２０２,,13,115,1660001,,,,,,,2024-10-09,1,,,,,サクラレーベン,0
339,2011503006258,新規,0,2024-10-09,2024-10-09,合同会社Ｒｗｏｒｋｓ,,合同会社,東京都,荒川区,東尾久１丁目３１－１０－９０３,,13,118,1160012,,,,,,,2024-10-09,1,,,,,アールワークス,0
340,2011601028113,新規,0,2024-10-09,2024-10-09,株式会社Ｌｅｂｅｒｒａ,,株式会社,東京都,練馬区,石神井台８丁目２０－２９,,13,120,1770045,,,,,,,2024-10-09,1,,,,,リベラ,0
346,2012301014114,新規,0,2024-10-09,2024-10-09,スピンホロジニア株式会社,,株式会社,東京都,町田市,高ヶ坂６丁目２９番２２号,,13,209,1940014,,,,,,,2024-10-09,1,,,,,スピンホロジニア,0
349,2012401042361,新規,0,2024-10-09,2024-10-09,Ｔｅｃｈ　ｂｌｕｅ株式会社,,株式会社,東京都,三鷹市,下連雀３丁目４３番４号セザール三鷹２０６,,13,204,1810013,,,,,,,2024-10-09,1,,,,,テックブルー,0
351,2012801023498,新規,0,2024-10-09,2024-10-09,鈴木株式会社,,株式会社,東京都,立川市,栄町５丁目５９番地の１４,,13,202,1900003,,,,,,,2024-10-09,1,,,,,スズキ,0
352,2012803003523,新規,0,2024-10-09,2024-10-09,合同会社ＬＩＯＮ　ＨＥＡＲＴ,,合同会社,東京都,立川市,栄町５丁目５９番地１４,,13,202,1900003,,,,,,,2024-10-09,1,,,,,ライオンハート,0
356,2020001159476,新規,0,2024-10-09,2024-10-09,さんろく株式会社,,株式会社,神奈川県,横浜市青葉区,桂台２丁目２番１７,,14,117,2270034,,,,,,,2024-10-09,1,,,,,サンロク,0
357,2020001159518,新規,0,2024-10-09,2024-10-09,ＭＡＫＯＴＯホールディングス株式会社,,株式会社,神奈川県,横浜市西区,伊勢町１丁目１５番地トシダビル,,14,103,2200045,,,,,,,2024-10-09,1,,,,,マコトホールディングス,0
358,2020001159534,新規,0,2024-10-09,2024-10-09,株式会社きらきら星,,株式会社,神奈川県,川崎市麻生区,上麻生７丁目４３番１８－４０４号,,14,137,2150021,,,,,,,2024-10-09,1,,,,,キラキラボシ,0
359,2020001159609,新規,0,2024-10-09,2024-10-09,株式会社ＰａＰａ,,株式会社,神奈川県,横浜市港北区,高田西３丁目１２番１号クリオ綱島壱番館５０１,,14,109,2230066,,,,,,,2024-10-09,1,,,,,パパ,0
362,2020003027004,新規,0,2024-10-09,2024-10-09,ＲＡＤＩＡＮＴ合同会社,,合同会社,神奈川県,川崎市中原区,小杉町３丁目１３０１番地エクラスタワー武蔵小杉３４０６号,,14,133,2110063,,,,,,,2024-10-09,1,,,,,ラディアント,0
363,2020003027029,新規,0,2024-10-09,2024-10-09,合同会社Ｂａｍｂｉｎｏ,,合同会社,神奈川県,横浜市都筑区,茅ケ崎中央４３番７－１０１号,,14,118,2240032,,,,,,,2024-10-09,1,,,,,バンビーノ,0
364,2021001083435,新規,0,2024-10-09,2024-10-09,株式会社ＬｉｆｅＡｃｔ,,株式会社,神奈川県,茅ヶ崎市,松浪１丁目１２番２０号,,14,207,2530022,,,,,,,2024-10-09,1,,,,,ライフアクト,0
365,2021001083443,新規,0,2024-10-09,2024-10-09,株式会社ビナシー,,株式会社,神奈川県,大和市,林間２丁目１８番１５号ジョイフル南林間２０６,,14,213,2420003,,,,,,,2024-10-09,1,,,,,ビナシー,0
368,2021003015072,新規,0,2024-10-09,2024-10-09,合同会社Ａｂｕｎｄａｎｔ,,合同会社,神奈川県,海老名市,柏ケ谷１丁目２１番８－２０１,,14,215,2430402,,,,,,,2024-10-09,1,,,,,アバンダント,0
375,2030001162867,新規,0,2024-10-09,2024-10-09,株式会社ＬＡＢＩ,,株式会社,埼玉県,八潮市,茜町１丁目１４番地７－１Ｆ,,11,234,3400826,,,,,,,2024-10-09,1,,,,,ラビ,0
379,2030003025287,新規,0,2024-10-09,2024-10-09,ＰＳＵＮＴＥ合同会社,,合同会社,埼玉県,越谷市,瓦曽根１丁目９番２１号,,11,222,3430821,,,,,,,2024-10-09,1,,,,,プサンテ,0
384,2040001135673,新規,0,2024-10-09,2024-10-09,株式会社アットライン,,株式会社,千葉県,市川市,南八幡４丁目６番５－３０７号（ラフィネ市川）,,12,203,2720023,,,,,,,2024-10-09,1,,,,,アットライン,0
385,2040001135764,新規,0,2024-10-09,2024-10-09,ＴｗｉｎＴｅｃｈ株式会社,,株式会社,千葉県,印西市,武西学園台３丁目１１番地７７,,12,231,2701355,,,,,,,2024-10-09,1,,,,,ツインテック,0
392,2050001055466,新規,0,2024-10-09,2024-10-09,武藤住宅株式会社,,株式会社,茨城県,笠間市,平町１６３５番地１,,08,216,3091722,,,,,,,2024-10-09,1,,,,,ムトウジュウタク,0
393,2050001055508,新規,0,2024-10-09,2024-10-09,株式会社イイダ,,株式会社,茨城県,水戸市,内原町５１８番地,,08,201,3190315,,,,,,,2024-10-09,1,,,,,イイダ,0
394,2050001055516,新規,0,2024-10-09,2024-10-09,株式会社鈴乃家,,株式会社,茨城県,水戸市,見和２丁目２２０－５,,08,201,3100911,,,,,,,2024-10-09,1,,,,,スズノヤ,0
395,2050001055524,新規,0,2024-10-09,2024-10-09,株式会社Ｌｉｅｎ,,株式会社,茨城県,ひたちなか市,大字高野３３２０番地１０,,08,221,3120002,,,,,,,2024-10-09,1,,,,,リアン,0
397,2050003008736,新規,0,2024-10-09,2024-10-09,合同会社ＧｌｉｔｔｅｒＥｙｅｓ,,合同会社,茨城県,日立市,若葉町３丁目６‐１９,,08,202,3170063,,,,,,,2024-10-09,1,,,,,グリッターアイズ,0
403,2080001026539,新規,0,2024-10-09,2024-10-09,株式会社ＢＲＩＤＧＥ,,株式会社,静岡県,静岡市駿河区,森下町１番２１号,,22,102,4228061,,,,,,,2024-10-09,1,,,,,ブリッジ,0
404,2080101025052,新規,0,2024-10-09,2024-10-09,株式会社小太郎,,株式会社,静岡県,富士市,今泉１丁目８番１２号,,22,210,4170001,,,,,,,2024-10-09,1,,,,,コタロウ,0
405,2080101025060,新規,0,2024-10-09,2024-10-09,株式会社ＦＵＪＩ　ＭＯＴＯＲＳ,,株式会社,静岡県,沼津市,東原７４番地の５,,22,203,4100304,,,,,,,2024-10-09,1,,,,,フジモータース,0
408,2100003007815,新規,0,2024-10-09,2024-10-09,合同会社Ｇｕｒｉ,,合同会社,長野県,下高井郡野沢温泉村,大字豊郷４４２４番地２,,20,563,3892502,,,,,,,2024-10-09,1,,,,,グリ,0
425,2120001269042,新規,0,2024-10-09,2024-10-09,株式会社リベロ保険サービス,,株式会社,大阪府,大阪市北区,西天満４丁目３番１１号,,27,127,5300047,,,,,,,2024-10-09,1,,,,,リベロホケンサービス,0
426,2120001269109,新規,0,2024-10-09,2024-10-09,株式会社ＴＲＹ’ｓ,,株式会社,大阪府,大阪市中央区,難波４丁目１番１５号,,27,128,5420076,,,,,,,2024-10-09,1,,,,,トライズ,0
427,2120001269117,新規,0,2024-10-09,2024-10-09,株式会社まつり,,株式会社,大阪府,大阪市北区,梅田１丁目１番３大阪駅前第３ビル２９階１－１－１号室,,27,127,5300001,,,,,,,2024-10-09,1,,,,,マツリ,0
428,2120001269141,新規,0,2024-10-09,2024-10-09,株式会社保険ＶＯＬＡＮＴＥ,,株式会社,大阪府,大阪市中央区,安土町２丁目３番１３号大阪国際ビルディング３１階,,27,128,5410052,,,,,,,2024-10-09,1,,,,,ホケンボランチ,0
429,2120001269174,新規,0,2024-10-09,2024-10-09,ＥＤＩＶＡ株式会社,,株式会社,大阪府,交野市,幾野３丁目２番１８号,,27,230,5760054,,,,,,,2024-10-09,1,,,,,エディバ,0
430,2120001269190,新規,0,2024-10-09,2024-10-09,ユタカインターナショナル株式会社,,株式会社,大阪府,大阪市城東区,今福西１丁目２番１２号,,27,118,5360004,,,,,,,2024-10-09,1,,,,,ユタカインターナショナル,0
434,2120003027687,新規,0,2024-10-09,2024-10-09,合同会社エスブレイン,,合同会社,大阪府,守口市,馬場町１丁目３番１２号,,27,209,5700062,,,,,,,2024-10-09,1,,,,,エスブレイン,0
435,2120003027695,新規,0,2024-10-09,2024-10-09,合同会社ティープランニング,,合同会社,大阪府,大阪市中央区,島之内１丁目１０番１５号,,27,128,5420082,,,,,,,2024-10-09,1,,,,,ティープランニング,0
436,2120003027704,新規,0,2024-10-09,2024-10-09,合同会社ＢＯＮＤ　ＨＯＴＥＬＳ,,合同会社,大阪府,寝屋川市,香里北之町２４番５－２０９号,,27,215,5720080,,,,,,,2024-10-09,1,,,,,ボンドホテルズ,0
443,2120901049857,新規,0,2024-10-09,2024-10-09,株式会社Ｍ・Ｋ・Ｓ,,株式会社,大阪府,池田市,神田３丁目１８番２０号,,27,204,5630043,,,,,,,2024-10-09,1,,,,,エムケイエス,0
444,2120903005354,新規,0,2024-10-09,2024-10-09,合同会社ＥＲＢＡ,,合同会社,大阪府,箕面市,西小路５丁目１－３エクシオ牧落２階,,27,220,5620003,,,,,,,2024-10-09,1,,,,,エルバ,0
447,2122001038518,新規,0,2024-10-09,2024-10-09,Ｒ　ｄｅ　Ａｔｅｌｉｅｒ株式会社,,株式会社,大阪府,東大阪市,若草町９－２７、２階,,27,227,5798056,,,,,,,2024-10-09,1,,,,,アールドアトリエ,0
453,2130001078062,新規,0,2024-10-09,2024-10-09,株式会社ａｉｄｅ,,株式会社,京都府,京都市左京区,修学院沖殿町２３番地４,,26,103,6068021,,,,,,,2024-10-09,1,,,,,エド,0
464,2140003021168,新規,0,2024-10-09,2024-10-09,合同会社ＭＯＴＯＹＯＮ,,合同会社,兵庫県,芦屋市,若宮町５番１３号,,28,206,6590027,,,,,,,2024-10-09,1,,,,,モトヨン,0
472,2180003027475,新規,0,2024-10-09,2024-10-09,合同会社ドリーム,,合同会社,愛知県,あま市,新居屋榎坪５１フローレンス豊大３０３,,23,237,4901105,,,,,,,2024-10-09,1,,,,,ドリーム,0
473,2180303006286,新規,0,2024-10-09,2024-10-09,合同会社ＲＡＹＯＨＥＩ,,合同会社,愛知県,高浜市,二池町２丁目５番地３サンパレスＩ２０２号室,00136575,23,227,4441322,,,,,,,2024-10-09,1,,,,,ラヨヘイ,0
485,2240001063920,新規,0,2024-10-09,2024-10-09,株式会社プレジャーホープ,,株式会社,広島県,広島市安佐南区,東原３丁目７－５－１Ｆ,,34,105,7310112,,,,,,,2024-10-09,1,,,,,,0
489,2240003006893,新規,0,2024-10-09,2024-10-09,Ｈａｚｕｍｕ　Ｓｐａｃｅ合同会社,,合同会社,広島県,広島市中区,大手町１丁目１－２０相生橋ビル７階Ａ号室,,34,101,7300051,,,,,,,2024-10-09,1,,,,,ハズムスペース,0
490,2250001020838,新規,0,2024-10-09,2024-10-09,株式会社防通クリエイト,,株式会社,山口県,防府市,大字浜方１１４番地２,,35,206,7470833,,,,,,,2024-10-09,1,,,,,ボウツウクリエイト,0
498,2290001107359,新規,0,2024-10-09,2024-10-09,株式会社ｊｏｉｎｔ　ｏｎｅ,,株式会社,福岡県,福岡市東区,筥松２丁目１９番２１－３０４号,,40,131,8120061,,,,,,,2024-10-09,1,,,,,,0
499,2290001107508,新規,0,2024-10-09,2024-10-09,株式会社幸明,,株式会社,福岡県,那珂川市,仲１丁目１３３番地１,,40,231,8111253,,,,,,,2024-10-09,1,,,,,コウメイ,0
503,2290003015907,新規,0,2024-10-09,2024-10-09,合同会社剛興業,,合同会社,福岡県,糟屋郡久山町,大字山田３９３番地１１６,,40,348,8112502,,,,,,,2024-10-09,1,,,,,ゴウコウギョウ,0
508,2300001013927,新規,0,2024-10-09,2024-10-09,ＨＳメイト株式会社,,株式会社,佐賀県,神埼市,神埼町永歌１６３２番地,,41,210,8420004,,,,,,,2024-10-09,1,,,,,エイチエスメイト,0
511,2330001032528,新規,0,2024-10-09,2024-10-09,株式会社熊本レントゲン,,株式会社,熊本県,熊本市中央区,本荘町６５３番地３－１００１号,,43,101,8600816,,,,,,,2024-10-09,1,,,,,クマモトレントゲン,0
520,2350003004762,新規,0,2024-10-09,2024-10-09,合同会社ハシグチファーム,,合同会社,宮崎県,児湯郡高鍋町,大字持田４２１７番地２,,45,401,8840005,,,,,,,2024-10-09,1,,,,,ハシグチファーム,0
524,2380001034825,新規,0,2024-10-09,2024-10-09,株式会社長屋工業,,株式会社,福島県,郡山市,大槻町字下西田１１０番地の９,,07,203,9630201,,,,,,,2024-10-09,1,,,,,ナガヤコウギョウ,0
525,2380005012876,新規,0,2024-10-09,2024-10-09,医療法人南沢又あんざいクリニック,,その他の設立登記法人,福島県,福島市,南沢又字舘ノ内７４番地の１,,07,201,9608254,,,,,,,2024-10-09,1,,,,,ミナミサワマタアンザイクリニック,0
528,2420001018889,新規,0,2024-10-09,2024-10-09,株式会社１０８,,株式会社,青森県,三戸郡南部町,大字沖田面字沖中１５２番地２,,02,445,0390105,,,,,,,2024-10-09,1,,,,,イチマルハチ,0
546,2700150127462,新規,0,2024-10-09,2024-10-09,ＰＲＩＭＥ　ＡＵＴＯ　ＥＮＴＥＲＰＲＩＳＥＳ,,外国会社等,千葉県,山武郡横芝光町,新島５２１４番地３オフィス－Ａ,,12,410,2891736,スリランカ民主社会主義共和国、マルタムナイ、メインストリート、Ｎｏ．１２／Ａ,,,,,,2024-10-09,1,,,,,プライムオートエンタープライズ,0
555,3010001248799,新規,0,2024-10-09,2024-10-09,株式会社ミチコンサルティング,,株式会社,東京都,中央区,佃２丁目１１番６－２９０３号,,13,102,1040051,,,,,,,2024-10-09,1,,,,,ミチコンサルティング,0
556,3010001248898,新規,0,2024-10-09,2024-10-09,Ｑｉｕｎｔｅｘ株式会社,,株式会社,東京都,中央区,銀座１丁目１６番７号銀座大栄ビル５階,,13,102,1040061,,,,,,,2024-10-09,1,,,,,キウンテックス,0
557,3010001248923,新規,0,2024-10-09,2024-10-09,福美華株式会社,,株式会社,東京都,文京区,白山１丁目６－４同栄マンション２階文京ＶＥＮＴＵＲＥＢＡＳＥ２３１号室,,13,105,1130001,,,,,,,2024-10-09,1,,,,,フクビカ,0
560,3010005038924,新規,0,2024-10-09,2024-10-09,一般社団法人ムーバルペガサス,,その他の設立登記法人,東京都,千代田区,丸の内１丁目４番１号東京共同会計事務所内,,13,101,1000005,,,,,,,2024-10-09,1,,,,,ムーバルペガサス,0
562,3010103002427,新規,0,2024-10-09,2024-10-09,ｉｈｋ合同会社,,合同会社,東京都,八王子市,狭間町１４６２番地５タウンズ八王子Ｆ７３１号,,13,201,1930941,,,,,,,2024-10-09,1,,,,,アイエイチケー,0
567,3010401185493,新規,0,2024-10-09,2024-10-09,株式会社ＴＡＮＴ,,株式会社,東京都,港区,虎ノ門３丁目８番８号ＮＴＴ虎ノ門ビル３Ｆ,,13,103,1050001,,,,,,,2024-10-09,1,,,,,タント,0
568,3010401185576,新規,0,2024-10-09,2024-10-09,株式会社ネオエナジー２１,,株式会社,東京都,港区,高輪３丁目１６番４－４０２号,,13,103,1080074,,,,,,,2024-10-09,1,,,,,ネオエナジーニジュウイチ,0
570,3010403033543,新規,0,2024-10-09,2024-10-09,合同会社Ｍｉｒａｑ,,合同会社,東京都,港区,芝浦４丁目１５番１号,,13,103,1080023,,,,,,,2024-10-09,1,,,,,ミラク,0
579,3010603011134,新規,0,2024-10-09,2024-10-09,ＴＥＡＭ　Ｏ合同会社,,合同会社,東京都,江東区,豊洲３丁目４―２―３１０３,,13,108,1350061,,,,,,,2024-10-09,1,,,,,チームオー,0
586,3011001165010,新規,0,2024-10-09,2024-10-09,株式会社ＰＯＴＡＴＯ　ＦＲＩＥＳ,,株式会社,東京都,渋谷区,円山町５番５号Ｎａｖｉ渋谷Ｖ３階,00136572,13,113,1500044,,,,,,,2024-10-09,1,,,,,ポテトフライ,0
587,3011001165027,新規,0,2024-10-09,2024-10-09,株式会社ＣＡＬＭ　ＴＯＫＹＯ,,株式会社,東京都,渋谷区,恵比寿南２丁目９番２－３０２号,,13,113,1500022,,,,,,,2024-10-09,1,,,,,カルムトウキョウ,0
588,3011001165043,新規,0,2024-10-09,2024-10-09,株式会社ぐれーとあーす,,株式会社,東京都,渋谷区,幡ヶ谷１丁目２－２京王幡ヶ谷ビル４Ｆ－ＭＩＤＰＯＩＮＴ幡ヶ谷４０８,,13,113,1510072,,,,,,,2024-10-09,1,,,,,グレートアース,0
589,3011001165084,新規,0,2024-10-09,2024-10-09,株式会社ｂｌｅｎｄｓ,,株式会社,東京都,渋谷区,円山町２８番１号,,13,113,1500044,,,,,,,2024-10-09,1,,,,,ブレンズ,0
592,3011101109040,新規,0,2024-10-09,2024-10-09,株式会社東通,,株式会社,東京都,新宿区,西新宿７丁目１５番４号,,13,104,1600023,,,,,,,2024-10-09,1,,,,,トウツウ,0
595,3011501031232,新規,0,2024-10-09,2024-10-09,株式会社ＴＯＰ　ＴＯＹ,,株式会社,東京都,荒川区,南千住３丁目２７－２浅草ビル,,13,118,1160003,,,,,,,2024-10-09,1,,,,,トップトイ,0
598,3011601028112,新規,0,2024-10-09,2024-10-09,宮良株式会社,,株式会社,東京都,練馬区,関町南２丁目２５番３５号,,13,120,1770053,,,,,,,2024-10-09,1,,,,,ミヤナガ,0
599,3011603004474,新規,0,2024-10-09,2024-10-09,合同会社ヒカリクリーンサービス,,合同会社,東京都,練馬区,春日町４丁目３４番５号,,13,120,1790074,,,,,,,2024-10-09,1,,,,,ヒカリクリーンサービス,0
600,3011701027682,新規,0,2024-10-09,2024-10-09,株式会社エンプラスジャパン,,株式会社,東京都,江戸川区,西葛西５丁目６番２号,,13,123,1340088,,,,,,,2024-10-09,1,,,,,エンプラスジャパン,0
601,3011701027690,新規,0,2024-10-09,2024-10-09,株式会社ＬＳＫ,,株式会社,東京都,江戸川区,一之江７丁目６５番８－１０１号,,13,123,1320024,,,,,,,2024-10-09,1,,,,,エルエスケー,0
602,3011701027699,新規,0,2024-10-09,2024-10-09,株式会社エプイケ,,株式会社,東京都,江戸川区,南葛西６丁目４番５号,,13,123,1340085,,,,,,,2024-10-09,1,,,,,エプイケ,0
603,3011701027708,新規,0,2024-10-09,2024-10-09,株式会社ＮｏｉｓｅＣｒａｆｔ,,株式会社,東京都,江戸川区,中央３丁目１６番１３号,,13,123,1320021,,,,,,,2024-10-09,1,,,,,ノイズクラフト,0
605,3011705001857,新規,0,2024-10-09,2024-10-09,特定非営利活動法人翔,,その他の設立登記法人,東京都,江戸川区,大杉１丁目２３番１６号,,13,123,1320022,,,,,,,2024-10-09,1,,,,,カケル,0
615,3012403006784,新規,0,2024-10-09,2024-10-09,ノーススター合同会社,,合同会社,東京都,小金井市,貫井北町２丁目１９番６号伊藤ビル２Ｆ,,13,210,1840015,,,,,,,2024-10-09,1,,,,,ノーススター,0
618,3012701018481,新規,0,2024-10-09,2024-10-09,株式会社矢野工業,,株式会社,東京都,東村山市,栄町１丁目２３番地３,,13,213,1890013,,,,,,,2024-10-09,1,,,,,ヤノコウギョウ,0
620,3013301053183,新規,0,2024-10-09,2024-10-09,池袋中央ビル株式会社,,株式会社,東京都,豊島区,西池袋５丁目２４番９号,,13,116,1710021,,,,,,,2024-10-09,1,,,,,イケブクロチュウオウビル,0
621,3013301053200,新規,0,2024-10-09,2024-10-09,社会産業イノベーション株式会社,,株式会社,東京都,豊島区,南大塚３丁目３６番７号,,13,116,1700005,,,,,,,2024-10-09,1,,,,,シャカイサンギョウイノベーション,0
638,3020001159475,新規,0,2024-10-09,2024-10-09,ＭＡＴＳＵ株式会社,,株式会社,神奈川県,川崎市麻生区,片平３丁目１４番１３号,,14,137,2150023,,,,,,,2024-10-09,1,,,,,マツ,0
639,3020001159500,新規,0,2024-10-09,2024-10-09,ワース・システム株式会社,,株式会社,神奈川県,横浜市港北区,新横浜３丁目９－５新横浜第３東昇ビル,,14,109,2220033,,,,,,,2024-10-09,1,,,,,ワースシステム,0
640,3020001159525,新規,0,2024-10-09,2024-10-09,株式会社ＧＯＴＯ,,株式会社,神奈川県,横浜市鶴見区,東寺尾東台５番１１号,,14,101,2300018,,,,,,,2024-10-09,1,,,,,ゴトウ,0
650,3021003015071,新規,0,2024-10-09,2024-10-09,合同会社ユニークプラン,,合同会社,神奈川県,藤沢市,鵠沼松が岡３丁目２番２２号鵠沼ヴィレッジＩＩＩ～０２,00136574,14,205,2510038,,,,,,,2024-10-09,1,,,,,ユニークプラン,0
657,3030001162858,新規,0,2024-10-09,2024-10-09,株式会社ベルシュ,,株式会社,埼玉県,富士見市,西みずほ台２丁目３番地５－２１０号,,11,235,3540018,,,,,,,2024-10-09,1,,,,,ベルシュ,0
658,3030001162866,新規,0,2024-10-09,2024-10-09,株式会社クレッセント,,株式会社,埼玉県,久喜市,桜田１丁目３２番１０,,11,232,3400203,,,,,,,2024-10-09,1,,,,,クレッセント,0
659,3030003025286,新規,0,2024-10-09,2024-10-09,合同会社シグナル,,合同会社,埼玉県,越谷市,赤山町２丁目２００番地１リュミエ越谷３０３,,11,222,3430807,,,,,,,2024-10-09,1,,,,,シグナル,0
663,3050001055515,新規,0,2024-10-09,2024-10-09,城里建設株式会社,,株式会社,茨城県,東茨城郡城里町,大字塩子２８６５番地の１,,08,310,3114401,,,,,,,2024-10-09,1,,,,,シロサトケンセツ,0
664,3050003008719,新規,0,2024-10-09,2024-10-09,合同会社ＣＦＲ,,合同会社,茨城県,神栖市,須田４３８５番地,,08,232,3140253,,,,,,,2024-10-09,1,,,,,シーエフアール,0
674,3100001037912,新規,0,2024-10-09,2024-10-09,株式会社暮らしの設計室,,株式会社,長野県,松本市,大字里山辺１５９１番地３,,20,202,3900221,,,,,,,2024-10-09,1,,,,,クラシノセッケイシツ,0
680,3110001038752,新規,0,2024-10-09,2024-10-09,株式会社ＡＰＩ技研,,株式会社,新潟県,長岡市,古正寺３丁目９０番地,,15,202,9402106,,,,,,,2024-10-09,1,,,,,エーピーアイギケン,0
695,3120001269025,新規,0,2024-10-09,2024-10-09,株式会社モンキー・アドヴァタイジング,,株式会社,大阪府,大阪市西淀川区,千舟２丁目１０番２１号,,27,113,5550013,,,,,,,2024-10-09,1,,,,,モンキーアドヴァタイジング,0
696,3120001269066,新規,0,2024-10-09,2024-10-09,三陽株式会社,,株式会社,大阪府,大阪市旭区,千林２丁目１３番７号２０８,,27,117,5350012,,,,,,,2024-10-09,1,,,,,サンヨウ,0
697,3120001269082,新規,0,2024-10-09,2024-10-09,株式会社ＣＬＦＣ,,株式会社,大阪府,大阪市淀川区,西中島３丁目３－４,,27,123,5320011,,,,,,,2024-10-09,1,,,,,シーエルエフシー,0
698,3120001269108,新規,0,2024-10-09,2024-10-09,株式会社パーク・ビジョン,,株式会社,大阪府,大阪市中央区,本町２丁目３番４号アソルティ本町４Ｆ,,27,128,5410053,,,,,,,2024-10-09,1,,,,,パークビジョン,0
699,3120001269116,新規,0,2024-10-09,2024-10-09,株式会社コウシンニホンジムショ,,株式会社,大阪府,大阪市北区,天神橋２丁目３番８号,,27,127,5300041,,,,,,,2024-10-09,1,,,,,コウシンニホンジムショ,0
700,3120001269149,新規,0,2024-10-09,2024-10-09,株式会社ＣＵＢＥＹＥＬＬ,,株式会社,大阪府,大阪市西淀川区,大和田４丁目１２－１２,,27,113,5550032,,,,,,,2024-10-09,1,,,,,キューブエール,0
701,3120001269157,新規,0,2024-10-09,2024-10-09,新明月株式会社,,株式会社,大阪府,大阪市東淀川区,北江口４丁目９番１３号,,27,114,5330002,,,,,,,2024-10-09,1,,,,,シンメイゲツ,0
702,3120001269198,新規,0,2024-10-09,2024-10-09,株式会社ｍｏｏｎ　ｌｉｇｈｔ,,株式会社,大阪府,大阪市阿倍野区,播磨町１丁目２４番１９号,,27,119,5450022,,,,,,,2024-10-09,1,,,,,ムーンライト,0
703,3120001269207,新規,0,2024-10-09,2024-10-09,株式会社硝子の文化堂,,株式会社,大阪府,交野市,私市４丁目４５番４号,,27,230,5760033,,,,,,,2024-10-09,1,,,,,ガラスノブンカドウ,0
706,3120003027686,新規,0,2024-10-09,2024-10-09,ＷＳ会計ラボ合同会社,,合同会社,大阪府,守口市,大枝南町６番１７号,,27,209,5700051,,,,,,,2024-10-09,1,,,,,ダブリューエスカイケイラボ,0
707,3120003027694,新規,0,2024-10-09,2024-10-09,合同会社アイプランニング,,合同会社,大阪府,大阪市中央区,島之内１丁目１０番１５号,,27,128,5420082,,,,,,,2024-10-09,1,,,,,アイプランニング,0
715,3120901049889,新規,0,2024-10-09,2024-10-09,株式会社富永愛医療過誤研究所,,株式会社,大阪府,高槻市,真上町１丁目１番１８号３Ａ,,27,207,5691121,,,,,,,2024-10-09,1,,,,,トミナガアイイリョウカゴケンキュウショ,0
721,3130001078086,新規,0,2024-10-09,2024-10-09,株式会社ＵＮＡＧＩＴＡＮＩ,,株式会社,京都府,京都市下京区,七条通油小路東入大黒町２２７番地第２キョートビル４０２,,26,106,6008223,,,,,,,2024-10-09,1,,,,,ウナギタニ,0
732,3160001026265,新規,0,2024-10-09,2024-10-09,ＫＣホールディングス株式会社,,株式会社,滋賀県,愛知郡愛荘町,長野３０８番地６,,25,425,5291303,,,,,,,2024-10-09,1,,,,,ケーシーホールディングス,0
738,3180001163552,新規,0,2024-10-09,2024-10-09,株式会社ＧＯＴＯ,,株式会社,愛知県,名古屋市名東区,社が丘１丁目８０９番地,,23,115,4650051,,,,,,,2024-10-09,1,,,,,ゴトー,0
743,3180301039130,新規,0,2024-10-09,2024-10-09,株式会社イチケン,,株式会社,愛知県,蒲郡市,金平町頂拝１６番地１,,23,214,4430102,,,,,,,2024-10-09,1,,,,,イチケン,0
749,3220001026242,新規,0,2024-10-09,2024-10-09,株式会社楓,,株式会社,石川県,金沢市,三口新町４丁目１５番３号,,17,201,9200944,,,,,,,2024-10-09,1,,,,,カエデ,0
758,3260001039521,新規,0,2024-10-09,2024-10-09,株式会社Ｇ‐ＬＩＮＫ,,株式会社,岡山県,瀬戸内市,邑久町福元６０８番地２１６,,33,212,7014241,,,,,,,2024-10-09,1,,,,,ジーリンク,0
764,3290001107440,新規,0,2024-10-09,2024-10-09,株式会社松林住建,,株式会社,福岡県,久留米市,野中町４１５,,40,203,8390862,,,,,,,2024-10-09,1,,,,,マツバヤシジュウケン,0
765,3290001107457,新規,0,2024-10-09,2024-10-09,株式会社Ｅ＆Ｆ　ＪＡＰＡＮ,,株式会社,福岡県,三井郡大刀洗町,大字山隈３７番地,,40,503,8301226,,,,,,,2024-10-09,1,,,,,イーアンドエフジャパン,0
766,3290001107548,新規,0,2024-10-09,2024-10-09,株式会社ユニーク不動産,,株式会社,福岡県,飯塚市,小正８０５番地２,,40,205,8200089,,,,,,,2024-10-09,1,,,,,ユニークフドウサン,0
775,3320001020755,新規,0,2024-10-09,2024-10-09,株式会社ＨａｍａＨｏｍｅ,,株式会社,大分県,大分市,生石１丁目１番５号大城第２ビル１０１,,44,201,8700003,,,,,,,2024-10-09,1,,,,,ハマホーム,0
776,3320003004491,新規,0,2024-10-09,2024-10-09,ＢｅＦＫ　Ｉｎｔｅｒｎａｔｉｏｎａｌ合同会社,,合同会社,大分県,臼杵市,大字戸室２番地,,44,206,8750051,,,,,,,2024-10-09,1,,,,,ビーエフケーインターナショナル,0
778,3330001032527,新規,0,2024-10-09,2024-10-09,キラカンパニー株式会社,,株式会社,熊本県,熊本市中央区,中央街３番１－５０５号アルバガーデングランビュー,,43,101,8600802,,,,,,,2024-10-09,1,,,,,キラカンパニー,0
781,3340003004630,新規,0,2024-10-09,2024-10-09,Ｍａｚｅ奄美合同会社,,合同会社,鹿児島県,大島郡龍郷町,芦徳４３７－２,00136585,46,527,8940412,,,,,,,2024-10-09,1,,,,,マゼアマミ,0
784,3360001034272,新規,0,2024-10-09,2024-10-09,眞貴株式会社,,株式会社,沖縄県,宜野湾市,大山７丁目４番６号,,47,205,9012223,,,,,,,2024-10-09,1,,,,,マサキ,0
787,3380001034824,新規,0,2024-10-09,2024-10-09,株式会社煌真,,株式会社,福島県,いわき市,渡辺町洞字関田３番地８１,,07,204,9728333,,,,,,,2024-10-09,1,,,,,コウシン,0
788,3380001034832,新規,0,2024-10-09,2024-10-09,株式会社ながみね,,株式会社,福島県,郡山市,亀田１丁目４４番２７号,,07,203,9638033,,,,,,,2024-10-09,1,,,,,ナガミネ,0
790,3380003005864,新規,0,2024-10-09,2024-10-09,ＳＡＮＤＨＵホームズ合同会社,,合同会社,福島県,西白河郡矢吹町,中町１１８番地１１銀河１０３号室,,07,466,9690221,,,,,,,2024-10-09,1,,,,,サンドゥーホームズ,0
791,3420001018888,新規,0,2024-10-09,2024-10-09,株式会社シカタ,,株式会社,青森県,三戸郡階上町,大字鳥屋部字境窪１１番１,,02,446,0391203,,,,,,,2024-10-09,1,,,,,シカタ,0
805,3500005008737,新規,0,2024-10-09,2024-10-09,特定非営利活動法人イクソス,,その他の設立登記法人,愛媛県,松山市,祓川２丁目１番５号,,38,201,7918066,,,,,,,2024-10-09,1,,,,,イクソス,0
817,4010001248930,新規,0,2024-10-09,2024-10-09,アルファ・ホールディングス・ジャパン株式会社,,株式会社,東京都,中央区,銀座１丁目１２－４Ｎ＆ＥＢＬＤ７階,,13,102,1040061,,,,,,,2024-10-09,1,,,,,アルファホールディングスジャパン,0
819,4010003045129,新規,0,2024-10-09,2024-10-09,合同会社バッテリーパーク６,,合同会社,東京都,千代田区,丸の内１丁目４番１号丸の内永楽ビルディング２６０５室,,13,101,1000005,,,,,,,2024-10-09,1,,,,,バッテリーパークシックス,0
825,4010005038915,新規,0,2024-10-09,2024-10-09,税理士法人仲田会計,,その他の設立登記法人,東京都,千代田区,神田錦町３丁目６番地山城第三ビル,,13,101,1010054,,,,,,,2024-10-09,1,,,,,ナカタカイケイ,0
826,4010005038923,新規,0,2024-10-09,2024-10-09,一般社団法人のぞみプロパティーズ,,その他の設立登記法人,東京都,千代田区,丸の内１丁目４番１号東京共同会計事務所内,,13,101,1000005,,,,,,,2024-10-09,1,,,,,ノゾミプロパティーズ,0
827,4010101016361,新規,0,2024-10-09,2024-10-09,株式会社ステラ,,株式会社,東京都,八王子市,大和田町６丁目１４番５号メゾン・ド・ノア大和田５２２,,13,201,1920045,,,,,,,2024-10-09,1,,,,,ステラ,0
835,4010401185526,新規,0,2024-10-09,2024-10-09,株式会社ＫＫ,,株式会社,東京都,港区,芝３丁目８番２－３１０３号,,13,103,1050014,,,,,,,2024-10-09,1,,,,,ケイケイ,0
842,4010601066047,新規,0,2024-10-09,2024-10-09,ファインアーツミュージック株式会社,,株式会社,東京都,墨田区,千歳１丁目６番１号－３０１号,,13,107,1300025,,,,,,,2024-10-09,1,,,,,ファインアーツミュージック,0
843,4010601066063,新規,0,2024-10-09,2024-10-09,瀚海株式会社,,株式会社,東京都,江東区,東陽１丁目１６－８ＭＥＬＤＩＡビル２０３,,13,108,1350016,,,,,,,2024-10-09,1,,,,,カンカイ,0
858,4010901056086,新規,0,2024-10-09,2024-10-09,株式会社リュヌドール,,株式会社,東京都,世田谷区,深沢５丁目１６番１５号,,13,112,1580081,,,,,,,2024-10-09,1,,,,,リュヌドール,0
860,4011001164894,新規,0,2024-10-09,2024-10-09,株式会社Ｃ’ｍｏｎ,,株式会社,東京都,渋谷区,千駄ヶ谷３丁目５９－４クエストコート原宿４０６,,13,113,1510051,,,,,,,2024-10-09,1,,,,,カモン,0
861,4011001165059,新規,0,2024-10-09,2024-10-09,株式会社ＯＮＥ　ＭＵＳＩＣ,,株式会社,東京都,渋谷区,渋谷２丁目１９番１５－６０９号,,13,113,1500002,,,,,,,2024-10-09,1,,,,,ワンミュージック,0
864,4011005010698,新規,0,2024-10-09,2024-10-09,一般社団法人三顧会,,その他の設立登記法人,東京都,渋谷区,恵比寿４丁目２０番３号１８階,,13,113,1500013,,,,,,,2024-10-09,1,,,,,,0
865,4011101109023,新規,0,2024-10-09,2024-10-09,株式会社バブルガム,,株式会社,東京都,新宿区,西新宿４丁目１６番１３号西新宿ＭＫビル３Ｆ,,13,104,1600023,,,,,,,2024-10-09,1,,,,,バブルガム,0
866,4011103015021,新規,0,2024-10-09,2024-10-09,Ｊｏｕｒｎｅｙ　Ｊｕｎｃｔｉｏｎ合同会社,,合同会社,東京都,新宿区,東五軒町１番９号ＳＢＳ－Ｃ－９号,,13,104,1620813,,,,,,,2024-10-09,1,,,,,ジャーニージャンクション,0
871,4011501031231,新規,0,2024-10-09,2024-10-09,日本川崎製薬研究院株式会社,,株式会社,東京都,荒川区,南千住３丁目２７－２浅草ビル５０８,,13,118,1160003,,,,,,,2024-10-09,1,,,,,ニホンカワサキセイヤクケンキュウイン,0
874,4011601028103,新規,0,2024-10-09,2024-10-09,株式会社ゼロワンリアルエステート,,株式会社,東京都,練馬区,練馬１丁目７番２号,,13,120,1760001,,,,,,,2024-10-09,1,,,,,ゼロワンリアルエステート,0
879,4011701027698,新規,0,2024-10-09,2024-10-09,株式会社チームプラス,,株式会社,東京都,江戸川区,北葛西４丁目１番１１号パークサイドハイツ３階,,13,123,1340081,,,,,,,2024-10-09,1,,,,,チームプラス,0
880,4011701027707,新規,0,2024-10-09,2024-10-09,僑賓貿易株式会社,,株式会社,東京都,江戸川区,松島３丁目１４番７－２０９号若林ビル,,13,123,1320031,,,,,,,2024-10-09,1,,,,,キョウヒンボウエキ,0
882,4011703003994,新規,0,2024-10-09,2024-10-09,藍岩合同会社,,合同会社,東京都,江戸川区,松江２丁目１番１３－１０４号室,,13,123,1320025,,,,,,,2024-10-09,1,,,,,ランガン,0
883,4011801044965,新規,0,2024-10-09,2024-10-09,登和株式会社,,株式会社,東京都,足立区,栗原３丁目２６番１号２Ｆ,,13,121,1230842,,,,,,,2024-10-09,1,,,,,トウワ,0
887,4012303002057,新規,0,2024-10-09,2024-10-09,Ｌ．Ａ合同会社,,合同会社,東京都,町田市,金森７丁目７番２０号,,13,209,1940012,,,,,,,2024-10-09,1,,,,,エルエー,0
891,4013301053190,新規,0,2024-10-09,2024-10-09,グローバル８株式会社,,株式会社,東京都,豊島区,巣鴨５丁目１１番７号,,13,116,1700002,,,,,,,2024-10-09,1,,,,,グローバルエイト,0
896,4020001159474,新規,0,2024-10-09,2024-10-09,全国住宅設備協同組合センター株式会社,,株式会社,神奈川県,横浜市都筑区,池辺町４４４４内田ビル２Ｆ,,14,118,2240053,,,,,,,2024-10-09,1,,,,,ゼンコクジュウタクセツビキョウドウクミアイセンター,0
897,4020001159482,新規,0,2024-10-09,2024-10-09,株式会社ビジョンパス,,株式会社,神奈川県,川崎市麻生区,高石１丁目２１白百合ハイツ２０２,,14,137,2150003,,,,,,,2024-10-09,1,,,,,ビジョンパス,0
898,4020001159499,新規,0,2024-10-09,2024-10-09,株式会社ネストプロジェクトサポート,,株式会社,神奈川県,横浜市青葉区,しらとり台３０番地４９,,14,117,2270054,,,,,,,2024-10-09,1,,,,,ネストプロジェクトサポート,0
901,4020005016564,新規,0,2024-10-09,2024-10-09,一般社団法人あけぼのインクルージョン,,その他の設立登記法人,神奈川県,横浜市中区,長者町１丁目１－２日神パレステージ石川町１０１,,14,104,2310033,,,,,,,2024-10-09,1,,,,,アケボノインクルージョン,0
903,4021001083391,新規,0,2024-10-09,2024-10-09,株式会社Ｒｉｓｅ,,株式会社,神奈川県,厚木市,松枝２丁目１番２１号,,14,212,2430005,,,,,,,2024-10-09,1,,,,,ライズ,0
904,4021001083417,新規,0,2024-10-09,2024-10-09,１００００年株式会社,,株式会社,神奈川県,茅ヶ崎市,東海岸南２丁目６番８号,,14,207,2530054,,,,,,,2024-10-09,1,,,,,イチマンネン,0
906,4021003015070,新規,0,2024-10-09,2024-10-09,うちだい合同会社,,合同会社,神奈川県,藤沢市,柄沢２丁目２８番地の１１,,14,205,2510003,,,,,,,2024-10-09,1,,,,,ウチダイ,0
908,4021005013196,新規,0,2024-10-09,2024-10-09,一般社団法人実存,,その他の設立登記法人,神奈川県,海老名市,今里２丁目１９番３号,,14,215,2430423,,,,,,,2024-10-09,1,,,,,ジツゾン,0
914,4030001162865,新規,0,2024-10-09,2024-10-09,株式会社ＫＡＲＡ,,株式会社,埼玉県,越谷市,花田１丁目２５番地２－２０２号,,11,222,3430015,,,,,,,2024-10-09,1,,,,,カラ,0
924,4040003025961,新規,0,2024-10-09,2024-10-09,合同会社ビアンカドゥー,,合同会社,千葉県,浦安市,高洲６丁目２番１－１３０号,,12,227,2790023,,,,,,,2024-10-09,1,,,,,ビアンカドゥー,0
927,4050001055464,新規,0,2024-10-09,2024-10-09,まごころケア株式会社,,株式会社,茨城県,坂東市,猫実１４２１－２,,08,228,3060616,,,,,,,2024-10-09,1,,,,,マゴコロケア,0
928,4050001055489,新規,0,2024-10-09,2024-10-09,ジャンボグリーン株式会社,,株式会社,茨城県,筑西市,海老江２３８９番地２,,08,227,3004538,,,,,,,2024-10-09,1,,,,,,0
929,4050001055506,新規,0,2024-10-09,2024-10-09,株式会社ハルカ,,株式会社,茨城県,那珂市,後台１４２３番地１,,08,226,3110111,,,,,,,2024-10-09,1,,,,,ハルカ,0
949,4080401027498,新規,0,2024-10-09,2024-10-09,株式会社玉澤オオタヤミート,,株式会社,静岡県,浜松市中央区,豊岡町５９番地,,22,138,4338103,,,,,,,2024-10-09,1,,,,,タマザワオオタヤミート,0
953,4100001037886,新規,0,2024-10-09,2024-10-09,モア不動産株式会社,,株式会社,長野県,松本市,村井町南１丁目１９番２４号,,20,202,3990036,,,,,,,2024-10-09,1,,,,,モアフドウサン,0
954,4100001037911,新規,0,2024-10-09,2024-10-09,株式会社Ｆａｒｂｅ,,株式会社,長野県,北佐久郡御代田町,大字塩野３７５番地５０１－Ｄ棟,,20,323,3890201,,,,,,,2024-10-09,1,,,,,ファーベ,0
960,4110003005535,新規,0,2024-10-09,2024-10-09,ＫＩＳＥＫＩ　ＮＩＰＰＯＮ合同会社,,合同会社,新潟県,南魚沼市,石打８３４‐２５‐２０３号,,15,226,9496372,,,,,,,2024-10-09,1,,,,,キセキニッポン,0
968,4120001269032,新規,0,2024-10-09,2024-10-09,株式会社Ｐｌａｎｅｔ８,,株式会社,大阪府,大阪市浪速区,難波中３丁目６番３号リアライズ難波中ビル８０２,,27,111,5560011,,,,,,,2024-10-09,1,,,,,プラネットエイト,0
969,4120001269073,新規,0,2024-10-09,2024-10-09,株式会社ＡｃｕｒｅＺ,,株式会社,大阪府,大阪市浪速区,日本橋３丁目３－１４－２０２,,27,111,5560005,,,,,,,2024-10-09,1,,,,,アキュアーズ,0
970,4120001269081,新規,0,2024-10-09,2024-10-09,ブライズ・インターソリューションズ株式会社,,株式会社,大阪府,枚方市,春日西町１丁目２２番１１号,,27,210,5730136,,,,,,,2024-10-09,1,,,,,ブライズインターソリューションズ,0
971,4120001269107,新規,0,2024-10-09,2024-10-09,株式会社ＦＲＩＥＲＥＮＤ,,株式会社,大阪府,大阪市中央区,徳井町２丁目２番５号４０１号室,,27,128,5400025,,,,,,,2024-10-09,1,,,,,フリーレン,0
972,4120001269115,新規,0,2024-10-09,2024-10-09,株式会社Ｙｓ　Ｌａｂ,,株式会社,大阪府,大阪市北区,曾根崎新地１丁目５番２１号,,27,127,5300002,,,,,,,2024-10-09,1,,,,,ワイエスラボ,0
973,4120001269123,新規,0,2024-10-09,2024-10-09,株式会社ＴＫ＆ｅｎｃｏｍｐａｎｙ,,株式会社,大阪府,大阪市天王寺区,舟橋町５－２０,,27,109,5430024,,,,,,,2024-10-09,1,,,,,ティーケーアンドエンカンパニー,0
974,4120001269156,新規,0,2024-10-09,2024-10-09,株式会社シンシアホーム,,株式会社,大阪府,大阪市西成区,松２丁目６番２９号３Ｆ,,27,122,5570034,,,,,,,2024-10-09,1,,,,,シンシアホーム,0
975,4120001269206,新規,0,2024-10-09,2024-10-09,株式会社なかじまえだ,,株式会社,大阪府,大阪市北区,梅田１丁目２番２号大阪駅前第２ビル１２－１２,,27,127,5300001,,,,,,,2024-10-09,1,,,,,ナカジマエダ,0
976,4120001269214,新規,0,2024-10-09,2024-10-09,ＨａＮｉ株式会社,,株式会社,大阪府,大阪市西成区,鶴見橋１丁目９番２１－１０５号,,27,122,5570031,,,,,,,2024-10-09,1,,,,,ハニ,0
980,4120003027693,新規,0,2024-10-09,2024-10-09,合同会社夢翠,,合同会社,大阪府,大阪市東淀川区,小松１丁目４番１２号,,27,114,5330004,,,,,,,2024-10-09,1,,,,,ユメスイ,0
981,4120005024565,新規,0,2024-10-09,2024-10-09,匡社会保険労務士法人,,その他の設立登記法人,大阪府,大阪市中央区,難波２丁目３番１１号ナンバ八千代ビル９Ｆ－Ｃ,,27,128,5420076,,,,,,,2024-10-09,1,,,,,タダシ,0
988,4120901049839,新規,0,2024-10-09,2024-10-09,株式会社ｍｅｌｌｏｗ．ｕｐ,,株式会社,大阪府,茨木市,沢良宜浜３丁目１０番１１号３－１西側,,27,211,5670864,,,,,,,2024-10-09,1,,,,,メロウアップ,0
989,4120901049871,新規,0,2024-10-09,2024-10-09,ファースト株式会社,,株式会社,大阪府,吹田市,垂水町３丁目８－９スプランディッド江坂３－５０１号室,,27,205,5640062,,,,,,,2024-10-09,1,,,,,ファースト,0
991,4120903005369,新規,0,2024-10-09,2024-10-09,合同会社ＳｏＶ　Ｈｏｂｂｙ,,合同会社,大阪府,豊中市,新千里南町３丁目２９番６号,,27,203,5600084,,,,,,,2024-10-09,1,,,,,エスオーブイホビー,0
1008,4130001078052,新規,0,2024-10-09,2024-10-09,ホテル清掃専門株式会社ホテルクリーン,,株式会社,京都府,京都市東山区,亀井町４０番地アトレチア祇園２Ｃ,,26,105,6050803,,,,,,,2024-10-09,1,,,,,ホテルセイソウセンモンホテルクリーン,0
1009,4130005017205,新規,0,2024-10-09,2024-10-09,医療法人誠優会,,その他の設立登記法人,京都府,京都市南区,東九条河辺町２３番地１０・１Ｆ,,26,107,6018031,,,,,,,2024-10-09,1,,,,,セイユウカイ,0
1021,4140003021174,新規,0,2024-10-09,2024-10-09,合同会社タケコウ,,合同会社,兵庫県,神戸市長田区,宮川町４丁目１０番地の１,,28,106,6530813,,,,,,,2024-10-09,1,,,,,タケコウ,0
1029,4180001163535,新規,0,2024-10-09,2024-10-09,株式会社若葉,,株式会社,愛知県,名古屋市名東区,山の手１丁目８１３番地メゾン打越１Ｆ,,23,115,4650011,,,,,,,2024-10-09,1,,,,,ワカバ,0
1043,4210003001846,新規,0,2024-10-09,2024-10-09,Ｋ’ｓファクトリー合同会社,,合同会社,福井県,福井市,照手１丁目１５－５,,18,201,9100024,,,,,,,2024-10-09,1,,,,,ケーズファクトリー,0
1052,4240003006891,新規,0,2024-10-09,2024-10-09,合同会社Ｅｓｓｅｎｃｅ,,合同会社,広島県,広島市西区,打越町４番９－５０２号,,34,104,7330004,,,,,,,2024-10-09,1,,,,,エッセンス,0
1060,4260003004919,新規,0,2024-10-09,2024-10-09,Ｂｉｎｇ　ｗｏｒｌｄ合同会社,,合同会社,岡山県,岡山市北区,清心町１番７号アルファ清心町ＩＩ１０３,00136589,33,101,7000027,,,,,,,2024-10-09,1,,,,,ビングワールド,0
1064,4290001107472,新規,0,2024-10-09,2024-10-09,西鉄アセットマネジメント株式会社,,株式会社,福岡県,福岡市博多区,博多駅前３丁目５番７号,,40,132,8120011,,,,,,,2024-10-09,1,,,,,ニシテツアセットマネジメント,0
1065,4290001107497,新規,0,2024-10-09,2024-10-09,株式会社ハピリエイト,,株式会社,福岡県,福岡市中央区,天神２丁目２番１２号７Ｆ,,40,133,8100001,,,,,,,2024-10-09,1,,,,,ハピリエイト,0
1066,4290001107522,新規,0,2024-10-09,2024-10-09,株式会社ｓｅｉｄａｉ,,株式会社,福岡県,福岡市南区,野間１丁目１７番１２－１０６号,,40,134,8150041,,,,,,,2024-10-09,1,,,,,セイダイ,0
1068,4290003015855,新規,0,2024-10-09,2024-10-09,Ｈ＆ＨＡＰＰＹ合同会社,,合同会社,福岡県,福岡市東区,多々良１丁目５０－１２,,40,131,8130033,,,,,,,2024-10-09,1,,,,,エイチアンドハッピー,0
1069,4290003015871,新規,0,2024-10-09,2024-10-09,ＨＬｉｌ合同会社,,合同会社,福岡県,福岡市南区,井尻１丁目７番７－４０７号,,40,134,8111302,,,,,,,2024-10-09,1,,,,,ハエルイエル,0
1070,4290003015888,新規,0,2024-10-09,2024-10-09,リュウビ合同会社,,合同会社,福岡県,福岡市南区,大楠３丁目２７－１－２０１,,40,134,8150082,,,,,,,2024-10-09,1,,,,,リュウビ,0
1076,4300001013925,新規,0,2024-10-09,2024-10-09,サンフラット株式会社,,株式会社,佐賀県,伊万里市,二里町大里乙８９－１,,41,205,8480035,,,,,,,2024-10-09,1,,,,,サンフラット,0
1086,4360001034263,新規,0,2024-10-09,2024-10-09,株式会社Ｅｎｔｒｅｅ,,株式会社,沖縄県,那覇市,久茂地３丁目２３番１０号よなはビル５階,,47,201,9000015,,,,,,,2024-10-09,1,,,,,アントレー,0
1087,4360001034296,新規,0,2024-10-09,2024-10-09,株式会社Ｓｕｍｍｅｒ　Ｒｉｚｅ,,株式会社,沖縄県,那覇市,前島１丁目１８番地１号マンション前島３１号室,,47,201,9000016,,,,,,,2024-10-09,1,,,,,サマーライズ,0
1090,4360005007109,新規,0,2024-10-09,2024-10-09,キングダム司法書士法人,,その他の設立登記法人,沖縄県,中頭郡読谷村,字座喜味２７５３番地２２,,47,324,9040301,,,,,,,2024-10-09,1,,,,,キングダム,0
1094,4370005010846,新規,0,2024-10-09,2024-10-09,一般社団法人パップス,,その他の設立登記法人,宮城県,仙台市宮城野区,福室２丁目８番１７号福室マンション３１４号,,04,102,9830005,,,,,,,2024-10-09,1,,,,,パップス,0
1095,4380001034815,新規,0,2024-10-09,2024-10-09,株式会社エンゲージ,,株式会社,福島県,郡山市,田村町小川字上野２３５番地,,07,203,9630722,,,,,,,2024-10-09,1,,,,,エンゲージ,0
1120,4490001010887,新規,0,2024-10-09,2024-10-09,株式会社ＣＲＡＳＳＯ,,株式会社,高知県,高知市,薊野南町２８番８号ふりこビル２Ｆ,,39,201,7810014,,,,,,,2024-10-09,1,,,,,クラッソ,0
1123,4700150040119,新規,0,2024-10-09,2015-10-09,上山市山元地区公民館運営協議会,,その他,山形県,上山市,狸森字久々取５１１－１,,06,207,9993171,,,,,,,2015-10-09,1,,,,,カミノヤマシヤマモトチクコウミンカンウンエイキヨウギカイ,0
1126,4700150127270,新規,0,2024-10-09,2024-09-20,中山地区社会福祉協議会,,その他,広島県,広島市東区,中山南１丁目５－３９,,34,102,7320024,,,,,,,2024-09-20,1,,,,,ナカヤマチクシヤカイフクシキヨウギカイ,0
1138,5010001248780,新規,0,2024-10-09,2024-10-09,株式会社ゆこリモ,,株式会社,東京都,中央区,銀座２丁目３番６号,,13,102,1040061,,,,,,,2024-10-09,1,,,,,ユコリモ,0
1143,5010003045128,新規,0,2024-10-09,2024-10-09,合同会社バッテリーパーク５,,合同会社,東京都,千代田区,丸の内１丁目４番１号丸の内永楽ビルディング２６０５室,,13,101,1000005,,,,,,,2024-10-09,1,,,,,バッテリーパークファイブ,0
1144,5010005038914,新規,0,2024-10-09,2024-10-09,ＲＩＮＤＯ社会保険労務士法人,,その他の設立登記法人,東京都,千代田区,大手町１丁目７番２号東京サンケイビル２７階,,13,101,1000004,,,,,,,2024-10-09,1,,,,,リンドウ,0
1145,5010005038922,新規,0,2024-10-09,2024-10-09,一般社団法人１３,,その他の設立登記法人,東京都,千代田区,丸の内１丁目４番１号東京共同会計事務所内,,13,101,1000005,,,,,,,2024-10-09,1,,,,,ジュウサン,0
1153,5010401185500,新規,0,2024-10-09,2024-10-09,華立ジャパン株式会社,,株式会社,東京都,港区,西麻布４丁目８番１７号,,13,103,1060031,,,,,,,2024-10-09,1,,,,,カリツジャパン,0
1154,5010401185566,新規,0,2024-10-09,2024-10-09,株式会社Ｂｒｉｄｇｅ　Ｅｘｅｃｕｔｉｖｅ　Ｓｅａｒｃｈ,,株式会社,東京都,港区,虎ノ門４丁目１番４０号,,13,103,1050001,,,,,,,2024-10-09,1,,,,,ブリッジエグゼクティブサーチ,0
1155,5010401185574,新規,0,2024-10-09,2024-10-09,株式会社ＷＯＲＬＤ　ＢＵＹＥＲＳ,,株式会社,東京都,港区,南麻布３丁目２０番１号,,13,103,1060047,,,,,,,2024-10-09,1,,,,,ワールドバイヤーズ,0
1156,5010401185649,新規,0,2024-10-09,2024-10-09,サンマネジメント株式会社,,株式会社,東京都,港区,南青山３丁目１番３６号青山丸竹ビル６Ｆ,,13,103,1070062,,,,,,,2024-10-09,1,,,,,サンマネジメント,0
1162,5010601066046,新規,0,2024-10-09,2024-10-09,株式会社アイズクリーン,,株式会社,東京都,江東区,大島３丁目４－３,,13,108,1360072,,,,,,,2024-10-09,1,,,,,アイズクリーン,0
1168,5010901056093,新規,0,2024-10-09,2024-10-09,株式会社ＣＹＣＬＯＮＩＵＭ,,株式会社,東京都,世田谷区,千歳台２丁目３７番１０号,,13,112,1570071,,,,,,,2024-10-09,1,,,,,サイクロニウム,0
1181,5011101109014,新規,0,2024-10-09,2024-10-09,株式会社カルディアレーシング,,株式会社,東京都,新宿区,新宿１丁目１１番３号エクセル新宿御苑ビル６Ｆ,,13,104,1600022,,,,,,,2024-10-09,1,,,,,カルディアレーシング,0
1182,5011101109047,新規,0,2024-10-09,2024-10-09,アックスアドバイザリー株式会社,,株式会社,東京都,新宿区,若葉１丁目６番１号,,13,104,1600011,,,,,,,2024-10-09,1,,,,,アックスアドバイザリー,0
1184,5011201025846,新規,0,2024-10-09,2024-10-09,Ｍ　Ｍｏｂｉｌｉｔｙ　Ｊａｐａｎ株式会社,,株式会社,東京都,中野区,弥生町５丁目５番１号２Ｆ,,13,114,1640013,,,,,,,2024-10-09,1,,,,,エムモビリティジャパン,0
1186,5011401026487,新規,0,2024-10-09,2024-10-09,株式会社ガウチャン,,株式会社,東京都,板橋区,大谷口北町２２番６号,,13,119,1730031,,,,,,,2024-10-09,1,,,,,ガウチャン,0
1188,5011501031222,新規,0,2024-10-09,2024-10-09,ＹＯＧＡ株式会社,,株式会社,東京都,荒川区,南千住１丁目１８番３号,,13,118,1160003,,,,,,,2024-10-09,1,,,,,ヨガ,0
1191,5011801044972,新規,0,2024-10-09,2024-10-09,一瞬株式会社,,株式会社,東京都,足立区,栗原３丁目２６番１号２Ｆ,,13,121,1230842,,,,,,,2024-10-09,1,,,,,イッシュン,0
1192,5011803006475,新規,0,2024-10-09,2024-10-09,シュガーカンパニー合同会社,,合同会社,東京都,足立区,神明２丁目３番１３号,,13,121,1210051,,,,,,,2024-10-09,1,,,,,シュガーカンパニー,0
1197,5012401042367,新規,0,2024-10-09,2024-10-09,Ｐｒｏｍｉｎｅｎｃｅ　Ｓｅｎｓｅ株式会社,,株式会社,東京都,三鷹市,下連雀３丁目３５番１号ネオシティ三鷹６階ビズコンフォート内,,13,204,1810013,,,,,,,2024-10-09,1,,,,,プロミネンスセンス,0
1199,5012701018488,新規,0,2024-10-09,2024-10-09,株式会社ＲＳ,,株式会社,東京都,東村山市,野口町３丁目１番地７８,,13,213,1890022,,,,,,,2024-10-09,1,,,,,アールエス,0
1200,5012703003100,新規,0,2024-10-09,2024-10-09,ＥＮＶＯＺＵ合同会社,,合同会社,東京都,小平市,上水南町１丁目２４番３０号,,13,211,1870021,,,,,,,2024-10-09,1,,,,,エンボーズ,0
1202,5013301053181,新規,0,2024-10-09,2024-10-09,としまＦＰ事務所株式会社,,株式会社,東京都,豊島区,南池袋３丁目１３番９号ビスハイム池袋３０８号室,,13,116,1710022,,,,,,,2024-10-09,1,,,,,トシマエフピージムショ,0
1208,5020001159473,新規,0,2024-10-09,2024-10-09,株式会社Ａｍｂｅｒ　ｌａｐｉｓ,,株式会社,神奈川県,横浜市南区,宮元町２丁目２８－１ドメス横浜南９０１,,14,105,2320016,,,,,,,2024-10-09,1,,,,,アンバーラピス,0
1230,5030001162872,新規,0,2024-10-09,2024-10-09,神コンサルティング株式会社,,株式会社,埼玉県,さいたま市北区,別所町１１２１番地１１,,11,102,3310821,,,,,,,2024-10-09,1,,,,,ジンコンサルティング,0
1234,5030005021876,新規,0,2024-10-09,2024-10-09,一般社団法人Ｄｏｕｂｌｅ　Ｈｅｌｉｘ,,その他の設立登記法人,埼玉県,鴻巣市,滝馬室１３２７番地４,,11,217,3650044,,,,,,,2024-10-09,1,,,,,ダブルヘリックス,0
1241,5040001135704,新規,0,2024-10-09,2024-10-09,株式会社Ｃｌａｒｏ,,株式会社,千葉県,柏市,柏２丁目９番７号アルシェ柏８０３号,,12,217,2770005,,,,,,,2024-10-09,1,,,,,クラロ,0
1242,5040001135753,新規,0,2024-10-09,2024-10-09,株式会社宝家,,株式会社,千葉県,市川市,若宮３丁目４９番１１号,,12,203,2720812,,,,,,,2024-10-09,1,,,,,タカラヤ,0
1247,5040003025878,新規,0,2024-10-09,2024-10-09,合同会社琉心,,合同会社,千葉県,千葉市花見川区,千種町３６７－２１,,12,102,2620012,,,,,,,2024-10-09,1,,,,,リュウシン,0
1248,5040003025944,新規,0,2024-10-09,2024-10-09,合同会社Ｌｉｎｏ,,合同会社,千葉県,野田市,野田６６７第二正木屋ビル１０１,,12,208,2780037,,,,,,,2024-10-09,1,,,,,リノ,0
1249,5040003025952,新規,0,2024-10-09,2024-10-09,合同会社イチ・ヨウ,,合同会社,千葉県,船橋市,上山町１丁目８７番地２７,,12,204,2730046,,,,,,,2024-10-09,1,,,,,イチヨウ,0
1252,5050001055505,新規,0,2024-10-09,2024-10-09,株式会社コイズミファーム,,株式会社,茨城県,日立市,大沼町１丁目６番６号,,08,202,3160022,,,,,,,2024-10-09,1,,,,,コイズミファーム,0
1255,5050003008717,新規,0,2024-10-09,2024-10-09,合同会社プロシード,,合同会社,茨城県,北茨城市,磯原町磯原１丁目６０番地,,08,215,3191541,,,,,,,2024-10-09,1,,,,,プロシード,0
1256,5070001042237,新規,0,2024-10-09,2024-10-09,株式会社ラクシュミ,,株式会社,群馬県,桐生市,浜松町１丁目８番３５号,,10,203,3760007,,,,,,,2024-10-09,1,,,,,ラクシュミ,0
1260,5080005007648,新規,0,2024-10-09,2024-10-09,医療法人社団開明堂,,その他の設立登記法人,静岡県,牧之原市,細江３８２１番地１,,22,226,4210421,,,,,,,2024-10-09,1,,,,,カイメイドウ,0
1266,5100001037902,新規,0,2024-10-09,2024-10-09,ＲＥＮＯＶＥＸ軽井沢株式会社,,株式会社,長野県,北佐久郡御代田町,大字塩野３３５８番３,,20,323,3890201,,,,,,,2024-10-09,1,,,,,リノベックスカルイザワ,0
1273,5120001269072,新規,0,2024-10-09,2024-10-09,富士マテリアル株式会社,,株式会社,大阪府,大阪市浪速区,元町１丁目５番７号ナンバプラザビル,,27,111,5560016,,,,,,,2024-10-09,1,,,,,フジマテリアル,0
1274,5120001269089,新規,0,2024-10-09,2024-10-09,モモカ株式会社,,株式会社,大阪府,大阪市生野区,新今里６丁目３番１０号エクラ新今里２０３,,27,116,5440001,,,,,,,2024-10-09,1,,,,,モモカ,0
1275,5120001269097,新規,0,2024-10-09,2024-10-09,株式会社槇,,株式会社,大阪府,大阪市城東区,諏訪１丁目８番１８号,,27,118,5360021,,,,,,,2024-10-09,1,,,,,マキ,0
1276,5120001269163,新規,0,2024-10-09,2024-10-09,株式会社ＬＩＬＹ,,株式会社,大阪府,大阪市北区,堂山町１７番５号２Ｆ,,27,127,5300027,,,,,,,2024-10-09,1,,,,,リリー,0
1277,5120001269205,新規,0,2024-10-09,2024-10-09,タートライズ株式会社,,株式会社,大阪府,大阪市北区,梅田１丁目２番２号大阪駅前第２ビル１２－１２,,27,127,5300001,,,,,,,2024-10-09,1,,,,,タートライズ,0
1278,5120003027726,新規,0,2024-10-09,2024-10-09,たびするくらげ合同会社,,合同会社,大阪府,大阪市北区,梅田１丁目２番２号大阪駅前第２ビル１２－１２,,27,127,5300001,,,,,,,2024-10-09,1,,,,,タビスルクラゲ,0
1281,5120005024564,新規,0,2024-10-09,2024-10-09,税理士法人ＯＮＥ　ＰＡＲＴＮＥＲＳ,,その他の設立登記法人,大阪府,大阪市中央区,谷町２丁目２番２０号大手前類第一ビル９階,,27,128,5400012,,,,,,,2024-10-09,1,,,,,ワンパートナーズ,0
1282,5120005024572,新規,0,2024-10-09,2024-10-09,一般社団法人日本スリランカアジア協会,,その他の設立登記法人,大阪府,大阪市西区,北堀江３丁目１２番１０号西長堀ＯＦＮビル４０２号,,27,106,5500014,,,,,,,2024-10-09,1,,,,,ニホンスリランカアジアキョウカイ,0
1285,5120901049838,新規,0,2024-10-09,2024-10-09,株式会社ＡＩ,,株式会社,大阪府,豊中市,東豊中町３丁目２４番１０号,,27,203,5600003,,,,,,,2024-10-09,1,,,,,エーアイ,0
1286,5120901049862,新規,0,2024-10-09,2024-10-09,株式会社ＫＯＩＸ,,株式会社,大阪府,摂津市,鳥飼野々１丁目１４番９－２号,,27,224,5660053,,,,,,,2024-10-09,1,,,,,コイックス,0
1290,5122001038523,新規,0,2024-10-09,2024-10-09,名創工房株式会社,,株式会社,大阪府,東大阪市,長堂１丁目６番２０号リアライズ布施ビル７０１号室,,27,227,5770056,,,,,,,2024-10-09,1,,,,,メイソウコウボウ,0
1296,5130003009905,新規,0,2024-10-09,2024-10-09,合同会社Ｍｉｆｕｋｕ,,合同会社,京都府,京田辺市,三山木西角田１８番地９,,26,211,6100313,,,,,,,2024-10-09,1,,,,,ミフク,0
1304,5140003021173,新規,0,2024-10-09,2024-10-09,合同会社ペルラクリエイト,,合同会社,兵庫県,たつの市,御津町苅屋５５０,,28,229,6711321,,,,,,,2024-10-09,1,,,,,ペルラクリエイト,0
1306,5160003003310,新規,0,2024-10-09,2024-10-09,ＷＭ合同会社,,合同会社,滋賀県,湖南市,梅影町２－３ＶＩＬＬＡＩＮＦＩＮＩＴＹ４棟２Ｆ,,25,211,5203214,,,,,,,2024-10-09,1,,,,,ダブリューエム,0
1310,5180001163542,新規,0,2024-10-09,2024-10-09,株式会社ＭＯＲＥ,,株式会社,愛知県,名古屋市名東区,西山本通２丁目１４番地,,23,115,4650085,,,,,,,2024-10-09,1,,,,,モア,0
1311,5180001163609,新規,0,2024-10-09,2024-10-09,株式会社幸せのもと,,株式会社,愛知県,春日井市,稲口町１丁目４－６,,23,206,4860905,,,,,,,2024-10-09,1,,,,,シアワセノモト,0
1312,5180003027480,新規,0,2024-10-09,2024-10-09,合同会社マイアール,,合同会社,愛知県,名古屋市守山区,大森４丁目２４１１番地の１,,23,113,4630021,,,,,,,2024-10-09,1,,,,,マイアール,0
1323,5230001020556,新規,0,2024-10-09,2024-10-09,株式会社ネオ・モルフィ建築設計事務所,,株式会社,富山県,富山市,西田地方町２丁目６番８号丹保ビル１Ｆ,,16,201,9398202,,,,,,,2024-10-09,1,,,,,ネオモルフィケンチクセッケイジムショ,0
1326,5250001020843,新規,0,2024-10-09,2024-10-09,株式会社ＡＤＤＶＥＭＯ,,株式会社,山口県,宇部市,相生町５番１０号,,35,202,7550043,,,,,,,2024-10-09,1,,,,,アドビーモ,0
1332,5290001107447,新規,0,2024-10-09,2024-10-09,日照商事株式会社,,株式会社,福岡県,福岡市博多区,豊２丁目４－１９小島テナント事務所２号,,40,132,8120042,,,,,,,2024-10-09,1,,,,,ニッショウショウジ,0
1333,5290001107463,新規,0,2024-10-09,2024-10-09,株式会社ＭＥＴＡＬ　ＷＡＲＭＴＨ,,株式会社,福岡県,糟屋郡新宮町,大字立花口４２４番地８,,40,345,8110102,,,,,,,2024-10-09,1,,,,,メタルウォームス,0
1337,5290801030939,新規,0,2024-10-09,2024-10-09,株式会社ＦｌｙＰｅａｃｅ,,株式会社,福岡県,北九州市若松区,小敷ひびきの２丁目１５番２号,,40,103,8080139,,,,,,,2024-10-09,1,,,,,フライピース,0
1338,5320001020753,新規,0,2024-10-09,2024-10-09,株式会社ｍａｍｍｙ’ｓ　ｐｌａｎ,,株式会社,大分県,大分市,ふじが丘山手３丁目２－２０,,44,201,8701184,,,,,,,2024-10-09,1,,,,,,0
1341,5330005010832,新規,0,2024-10-09,2024-10-09,一般社団法人ジャパンネーブル協会,,その他の設立登記法人,熊本県,宇土市,下網田町５２４番地,,43,211,8693173,,,,,,,2024-10-09,1,,,,,ジャパンネーブルキョウカイ,0
1343,5350001019223,新規,0,2024-10-09,2024-10-09,株式会社ｅａｒｔｈ,,株式会社,宮崎県,宮崎市,中央通１番７号ＴＲＵＴＨビル１Ｆ,,45,201,8800002,,,,,,,2024-10-09,1,,,,,アース,0
1349,5360001034295,新規,0,2024-10-09,2024-10-09,ＴＳＵＢＯＹＡ　ＢＡＳＥ株式会社,,株式会社,沖縄県,那覇市,壺屋２丁目９番２５号,,47,201,9020065,,,,,,,2024-10-09,1,,,,,ツボヤベース,0
1350,5360003014361,新規,0,2024-10-09,2024-10-09,合同会社ＶＩＲＧＯ,,合同会社,沖縄県,那覇市,辻２丁目１８番１９号,00136573,47,201,9000037,,,,,,,2024-10-09,1,,,,,ビルゴ,0
1353,5380001034822,新規,0,2024-10-09,2024-10-09,株式会社Ｈｏｐｅ,,株式会社,福島県,福島市,伏拝字台田２０番地の１,,07,201,9608154,,,,,,,2024-10-09,1,,,,,ホープ,0
1354,5380001034830,新規,0,2024-10-09,2024-10-09,株式会社ＢＯＮＤＳ,,株式会社,福島県,会津若松市,上町１番１２号,,07,202,9650034,,,,,,,2024-10-09,1,,,,,ボンズ,0
1376,5470001020409,新規,0,2024-10-09,2024-10-09,株式会社アクシエイト,,株式会社,香川県,さぬき市,造田是弘２０９番地１,,37,206,7692312,,,,,,,2024-10-09,1,,,,,アクシエイト,0
1394,6010003045127,新規,0,2024-10-09,2024-10-09,合同会社バッテリーパーク４,,合同会社,東京都,千代田区,丸の内１丁目４番１号丸の内永楽ビルディング２６０５室,,13,101,1000005,,,,,,,2024-10-09,1,,,,,バッテリーパークフォー,0
1395,6010003045135,新規,0,2024-10-09,2024-10-09,合同会社バッテリーパーク１２,,合同会社,東京都,千代田区,丸の内１丁目４番１号丸の内永楽ビルディング２６０５室,,13,101,1000005,,,,,,,2024-10-09,1,,,,,バッテリーパークトゥウェルブ,0
1396,6010003045151,新規,0,2024-10-09,2024-10-09,合同会社ＨＲＫ,,合同会社,東京都,中央区,日本橋３丁目２番１４号,,13,102,1030027,,,,,,,2024-10-09,1,,,,,エイチアールケー,0
1401,6010401185383,新規,0,2024-10-09,2024-10-09,株式会社ＫＩＮＴＡＲＯ　ＧＯＬＤ,,株式会社,東京都,港区,高輪１丁目１８番１号,,13,103,1080074,,,,,,,2024-10-09,1,,,,,キンタロウゴールド,0
1402,6010401185409,新規,0,2024-10-09,2024-10-09,株式会社ノルンス,,株式会社,東京都,港区,赤坂２丁目５番８号ヒューリックＪＰ赤坂ビル,,13,103,1070052,,,,,,,2024-10-09,1,,,,,ノルンス,0
1403,6010401185499,新規,0,2024-10-09,2024-10-09,ＨＲビジネスソリューションズ株式会社,,株式会社,東京都,港区,西新橋１丁目２番９号,,13,103,1050003,,,,,,,2024-10-09,1,,,,,エイチアールビジネスソリューションズ,0
1404,6010401185516,新規,0,2024-10-09,2024-10-09,株式会社ＮＥＸＴ　ＡＩ　ＰＡＲＴＮＥＲＳ,,株式会社,東京都,港区,北青山１丁目３番１号アールキューブ青山３階,,13,103,1070061,,,,,,,2024-10-09,1,,,,,ネクストエーアイパートナーズ,0
1405,6010401185524,新規,0,2024-10-09,2024-10-09,株式会社ジュジュベコンサルティング,,株式会社,東京都,港区,港南２丁目１１－１７,,13,103,1080075,,,,,,,2024-10-09,1,,,,,ジュジュベコンサルティング,0
1406,6010401185549,新規,0,2024-10-09,2024-10-09,ＲＪソーシャルケア東京株式会社,,株式会社,東京都,港区,六本木３丁目１番１号六本木ティーキューブ１５階,,13,103,1060032,,,,,,,2024-10-09,1,,,,,アールジェイソーシャルケアトウキョウ,0
1407,6010401185557,新規,0,2024-10-09,2024-10-09,株式会社労政総研,,株式会社,東京都,港区,元赤坂１丁目１番７号オリエント赤坂モートサイド９階,,13,103,1070051,,,,,,,2024-10-09,1,,,,,ロウセイソウケン,0
1408,6010401185565,新規,0,2024-10-09,2024-10-09,株式会社Ｒｉｃｈｅ,,株式会社,東京都,港区,北青山１丁目３番１号アールキューブ青山３階,,13,103,1070061,,,,,,,2024-10-09,1,,,,,リッシュ,0
1414,6010501053003,新規,0,2024-10-09,2024-10-09,カテナックス株式会社,,株式会社,東京都,台東区,浅草橋４丁目１５番５号三基ビル３Ｆ,,13,106,1110053,,,,,,,2024-10-09,1,,,,,カテナックス,0
1416,6010601066045,新規,0,2024-10-09,2024-10-09,株式会社みたらし,,株式会社,東京都,江東区,東陽５丁目１３番６－６０２号,,13,108,1350016,,,,,,,2024-10-09,1,,,,,ミタラシ,0
1420,6010701046665,新規,0,2024-10-09,2024-10-09,株式会社ＰＯＳＬＩＶＥ,,株式会社,東京都,品川区,南大井３丁目３５番１４号大森本田ビル６階,,13,109,1400013,,,,,,,2024-10-09,1,,,,,ポスライブ,0
1429,6011001164810,新規,0,2024-10-09,2024-10-09,株式会社ｅｒｒａ,,株式会社,東京都,渋谷区,恵比寿１丁目１５番９号,,13,113,1500013,,,,,,,2024-10-09,1,,,,,エラ,0
1430,6011001164967,新規,0,2024-10-09,2024-10-09,株式会社ＰＩＮＴ,,株式会社,東京都,渋谷区,代々木４丁目３４－１－１０２,,13,113,1510053,,,,,,,2024-10-09,1,,,,,ピント,0
1431,6011001165049,新規,0,2024-10-09,2024-10-09,株式会社バベルグループ,,株式会社,東京都,渋谷区,恵比寿西２丁目４番８号ウィンド恵比寿ビル８Ｆ,,13,113,1500021,,,,,,,2024-10-09,1,,,,,バベルグループ,0
1432,6011001165073,新規,0,2024-10-09,2024-10-09,株式会社ＨＨＧａｌａｘｙ　Ｊａｐａｎ,,株式会社,東京都,渋谷区,桜丘町２０番４号,,13,113,1500031,,,,,,,2024-10-09,1,,,,,エイチエイチギャラクシージャパン,0
1434,6011003020144,新規,0,2024-10-09,2024-10-09,合同会社ココロミ,,合同会社,東京都,渋谷区,恵比寿西１丁目３－５アルス恵比寿メイクス４０５,,13,113,1500021,,,,,,,2024-10-09,1,,,,,ココロミ,0
1435,6011003020152,新規,0,2024-10-09,2024-10-09,合同会社Ｒｉｎｇｇｉｔ,,合同会社,東京都,渋谷区,道玄坂１丁目１０番８号渋谷道玄坂東急ビル２Ｆ－Ｃ,,13,113,1500043,,,,,,,2024-10-09,1,,,,,リンギット,0
1436,6011005010721,新規,0,2024-10-09,2024-10-09,一般社団法人スイングバイスカラーシップ代官山,,その他の設立登記法人,東京都,渋谷区,代官山町８－７Ｒｅｇｕｓスクエア代官山,,13,113,1500034,,,,,,,2024-10-09,1,,,,,スイングバイスカラーシップダイカンヤマ,0
1439,6011101109046,新規,0,2024-10-09,2024-10-09,株式会社ＲＩＮＪＯＲ,,株式会社,東京都,新宿区,新宿１丁目２４番１２号ＴＨＥ・ＧＡＴＥ新宿御苑５Ｆ,,13,104,1600022,,,,,,,2024-10-09,1,,,,,リンジャー,0
1440,6011101109070,新規,0,2024-10-09,2024-10-09,株式会社ＲＵｉＴ．,,株式会社,東京都,新宿区,西新宿１丁目２６番２号新宿野村ビル３２階,,13,104,1600023,,,,,,,2024-10-09,1,,,,,ルート,0
1443,6011401026486,新規,0,2024-10-09,2024-10-09,株式会社ＳＷＥＳＨ,,株式会社,東京都,板橋区,若木２丁目３４番１２号,,13,119,1740065,,,,,,,2024-10-09,1,,,,,スウェッシュ,0
1453,6013301053172,新規,0,2024-10-09,2024-10-09,株式会社ＴＭＫ,,株式会社,東京都,豊島区,池袋本町２丁目２６番１３号,,13,116,1700011,,,,,,,2024-10-09,1,,,,,ティーエムケー,0
1459,6020001159497,新規,0,2024-10-09,2024-10-09,株式会社ＡＤＤＴＥＣＨ,,株式会社,神奈川県,横浜市中区,新山下１丁目１７番１５号,,14,104,2310801,,,,,,,2024-10-09,1,,,,,アドテック,0
1460,6020001159506,新規,0,2024-10-09,2024-10-09,株式会社ＢｌｕＮａ,,株式会社,神奈川県,横浜市中区,元町１丁目２０番地ストーク元町一番館４０６号室,,14,104,2310861,,,,,,,2024-10-09,1,,,,,ブルーナ,0
1461,6020001159514,新規,0,2024-10-09,2024-10-09,株式会社秋本,,株式会社,神奈川県,横浜市港北区,小机町７４４番地,,14,109,2220036,,,,,,,2024-10-09,1,,,,,アキモト,0
1462,6020001159555,新規,0,2024-10-09,2024-10-09,澤文実業株式会社,,株式会社,神奈川県,横浜市青葉区,新石川４丁目３０番地４,,14,117,2250003,,,,,,,2024-10-09,1,,,,,サワフミジツギョウ,0
1465,6020003026992,新規,0,2024-10-09,2024-10-09,Ｇｒａｃｅ　Ｆｏｕｎｄ　Ｍｅ　Ｉｎｔｅｒｎａｔｉｏｎａｌ合同会社,,合同会社,神奈川県,川崎市宮前区,土橋４丁目４番地１１,,14,136,2160005,,,,,,,2024-10-09,1,,,,,グレイスファウンドミーインタナショナル,0
1466,6020003027009,新規,0,2024-10-09,2024-10-09,合同会社ＫＩ事務所,,合同会社,神奈川県,川崎市高津区,二子２丁目１５番１号フォレノアール３０１,,14,134,2130002,,,,,,,2024-10-09,1,,,,,ケーアイジムショ,0
1479,6030001162723,新規,0,2024-10-09,2024-10-09,Ｄｅｎ＆Ｄａ株式会社,,株式会社,埼玉県,本庄市,寿３丁目２－１,,11,211,3670023,,,,,,,2024-10-09,1,,,,,デンアンドダ,0
1488,6030003025283,新規,0,2024-10-09,2024-10-09,ＴＨＵＹ　ＶＡＮ合同会社,,合同会社,埼玉県,三郷市,彦成３丁目８番５－５０１号,,11,237,3410003,,,,,,,2024-10-09,1,,,,,トゥイヴァン,0
1490,6030005021875,新規,0,2024-10-09,2024-10-09,一般社団法人埼玉県アメリカンフットボール協会,,その他の設立登記法人,埼玉県,さいたま市桜区,町谷１丁目２２番２０号６０６,,11,106,3380836,,,,,,,2024-10-09,1,,,,,サイタマケンアメリカンフットボールキョウカイ,0
1496,6040001135629,新規,0,2024-10-09,2024-10-09,株式会社ＦＦマネジメント,,株式会社,千葉県,習志野市,谷津３丁目１番１９－２０１号,,12,216,2750026,,,,,,,2024-10-09,1,,,,,エフエフマネジメント,0
1497,6040001135736,新規,0,2024-10-09,2024-10-09,株式会社ＡＱＵＡ,,株式会社,千葉県,松戸市,新松戸３丁目４５１番地メゾンド宝星Ｉ－２０５号,00136586,12,207,2700034,,,,,,,2024-10-09,1,,,,,アクア,0
1500,6040003025943,新規,0,2024-10-09,2024-10-09,合同会社未来,,合同会社,千葉県,千葉市中央区,本千葉町９番１３号２階,,12,101,2600014,,,,,,,2024-10-09,1,,,,,ミライ,0
1501,6040003025951,新規,0,2024-10-09,2024-10-09,合同会社ＴＡＣＩＴ,,合同会社,千葉県,千葉市稲毛区,長沼町２５０番地２５,,12,103,2630005,,,,,,,2024-10-09,1,,,,,ターシット,0
1502,6040005022534,新規,0,2024-10-09,2024-10-09,医療法人社団ハルニレ会,,その他の設立登記法人,千葉県,流山市,おおたかの森東１丁目１１番地の６セントラルレジデンスおおたかの森７１３,,12,220,2700138,,,,,,,2024-10-09,1,,,,,ハルニレカイ,0
1506,6050001055520,新規,0,2024-10-09,2024-10-09,株式会社ジーセブン,,株式会社,茨城県,日立市,石名坂町１丁目３９番３４号,,08,202,3191225,,,,,,,2024-10-09,1,,,,,ジーセブン,0
1532,6100001037918,新規,0,2024-10-09,2024-10-09,株式会社アシスト,,株式会社,長野県,飯田市,山本１８１１番地３,,20,205,3950244,,,,,,,2024-10-09,1,,,,,アシスト,0
1536,6110001038758,新規,0,2024-10-09,2024-10-09,リブート株式会社,,株式会社,新潟県,新潟市江南区,天野３丁目３５－１２－３,,15,104,9501134,,,,,,,2024-10-09,1,,,,,リブート,0
1543,6120001268957,新規,0,2024-10-09,2024-10-09,株式会社路遥,,株式会社,大阪府,大阪市中央区,東心斎橋１丁目９－２４,,27,128,5420083,,,,,,,2024-10-09,1,,,,,ロヨウ,0
1544,6120001269071,新規,0,2024-10-09,2024-10-09,株式会社アイベックス,,株式会社,大阪府,大阪市東成区,大今里南６丁目２８番１２号東洋ビル２０７号,,27,115,5370013,,,,,,,2024-10-09,1,,,,,アイベックス,0
1545,6120001269113,新規,0,2024-10-09,2024-10-09,株式会社ＳＡＴＯ工務店,,株式会社,大阪府,大阪市住之江区,安立４丁目２番１６号,,27,125,5590003,,,,,,,2024-10-09,1,,,,,サトコウムテン,0
1546,6120001269170,新規,0,2024-10-09,2024-10-09,サトリ株式会社,,株式会社,大阪府,大阪市城東区,今福西３丁目１２番１８号,,27,118,5360004,,,,,,,2024-10-09,1,,,,,サトリ,0
1547,6120001269179,新規,0,2024-10-09,2024-10-09,ナビコーポレーション株式会社,,株式会社,大阪府,大阪市中央区,玉造２丁目２３番２１号,,27,128,5400004,,,,,,,2024-10-09,1,,,,,ナビコーポレーション,0
1548,6120001269204,新規,0,2024-10-09,2024-10-09,株式会社ＩＮＦＩＮＩＴＹ,,株式会社,大阪府,大阪市住之江区,南港北１丁目２５番１０－２０１０号,,27,125,5590034,,,,,,,2024-10-09,1,,,,,インフィニティ,0
1553,6120003027683,新規,0,2024-10-09,2024-10-09,合同会社ＲＥＬＩＥＶＥＲ,,合同会社,大阪府,大阪市住吉区,大領１丁目１番１１号,,27,120,5580001,,,,,,,2024-10-09,1,,,,,リリーバー,0
1556,6120103006083,新規,0,2024-10-09,2024-10-09,合同会社一卯,,合同会社,大阪府,松原市,天美東１丁目９２番地の２２,,27,217,5800032,,,,,,,2024-10-09,1,,,,,イチウサギ,0
1562,6120901049878,新規,0,2024-10-09,2024-10-09,株式会社Ｏｒｃａ,,株式会社,大阪府,豊中市,長興寺北３丁目１３番１８号,,27,203,5610875,,,,,,,2024-10-09,1,,,,,オルカ,0
1564,6122001038522,新規,0,2024-10-09,2024-10-09,株式会社バックナイン,,株式会社,大阪府,八尾市,高安町北１丁目８０番地,,27,212,5810871,,,,,,,2024-10-09,1,,,,,バックナイン,0
1568,6130001078050,新規,0,2024-10-09,2024-10-09,株式会社Ａｔ　Ｈｉｖｅ,,株式会社,京都府,南丹市,日吉町胡麻ドバシ５－９,,26,213,6290311,,,,,,,2024-10-09,1,,,,,アットハイブ,0
1569,6130001078083,新規,0,2024-10-09,2024-10-09,株式会社俊工務店,,株式会社,京都府,京都市伏見区,日野西風呂町５３番地１２,,26,109,6011423,,,,,,,2024-10-09,1,,,,,シュンコウムテン,0
1570,6130001078091,新規,0,2024-10-09,2024-10-09,株式会社堀啓,,株式会社,京都府,京都市北区,紫野北舟岡町２７番地１１,,26,101,6038227,,,,,,,2024-10-09,1,,,,,ホリケイ,0
1571,6130001078100,新規,0,2024-10-09,2024-10-09,株式会社協和電気工業,,株式会社,京都府,京都市山科区,川田御輿塚町２４番地１７,00136587,26,110,6078331,,,,,,,2024-10-09,1,,,,,キョウワデンキコウギョウ,0
1579,6140001136030,新規,0,2024-10-09,2024-10-09,株式会社ｓｗｅｌｌ,,株式会社,兵庫県,西宮市,鳴尾浜２丁目１番２６号,,28,204,6638142,,,,,,,2024-10-09,1,,,,,スウェル,0
1580,6140001136039,新規,0,2024-10-09,2024-10-09,株式会社シンスター,,株式会社,兵庫県,姫路市,広畑区才１２９－１－８１１室,,28,201,6711104,,,,,,,2024-10-09,1,,,,,シンスター,0
1582,6140003021172,新規,0,2024-10-09,2024-10-09,合同会社ＫＫＭ,,合同会社,兵庫県,川西市,小花１丁目６番１３－５０２号,,28,217,6660015,,,,,,,2024-10-09,1,,,,,ケイケイエム,0
1584,6150001027600,新規,0,2024-10-09,2024-10-09,ＴＮリニアモーション株式会社,,株式会社,奈良県,葛城市,尺土１９番地,,29,211,6392162,,,,,,,2024-10-09,1,,,,,ティーエヌリニアモーション,0
1585,6160001026262,新規,0,2024-10-09,2024-10-09,株式会社メニックスホールディングス,,株式会社,滋賀県,近江八幡市,西庄町１８１０番地,,25,204,5230816,,,,,,,2024-10-09,1,,,,,メニックスホールディングス,0
1590,6180003027455,新規,0,2024-10-09,2024-10-09,合同会社ＡＩＢ,,合同会社,愛知県,名古屋市東区,東大曽根町２８－１７,,23,102,4610022,,,,,,,2024-10-09,1,,,,,エイアイビー,0
1603,6240001063917,新規,0,2024-10-09,2024-10-09,ピュアケミカ株式会社,,株式会社,広島県,福山市,三吉町３丁目２－１６－３０２,,34,207,7200031,,,,,,,2024-10-09,1,,,,,ピュアケミカ,0
1604,6240001063925,新規,0,2024-10-09,2024-10-09,株式会社ＬＳＢ,,株式会社,広島県,広島市西区,観音本町１丁目１６番１２号,,34,104,7330033,,,,,,,2024-10-09,1,,,,,エルエスビー,0
1611,6260003004917,新規,0,2024-10-09,2024-10-09,合同会社Ｆｌａｔｇｏｌｄ,,合同会社,岡山県,倉敷市,玉島上成１０９２番地９,,33,202,7138101,,,,,,,2024-10-09,1,,,,,フラットゴールド,0
1615,6290001107487,新規,0,2024-10-09,2024-10-09,アオネケア株式会社,,株式会社,福岡県,糟屋郡粕屋町,仲原２丁目１番２４－２０３号,,40,349,8112304,,,,,,,2024-10-09,1,,,,,アオネケア,0
1617,6290003015903,新規,0,2024-10-09,2024-10-09,合同会社カクタスコイン,,合同会社,福岡県,福岡市中央区,大名２丁目６番３１号大名コーポラス３０３号,,40,133,8100041,,,,,,,2024-10-09,1,,,,,カクタスコイン,0
1619,6290005019530,新規,0,2024-10-09,2024-10-09,特定非営利活動法人照,,その他の設立登記法人,福岡県,福岡市早良区,賀茂２丁目２０番２６－１１１号ＡＲＫ－１,,40,137,8140164,,,,,,,2024-10-09,1,,,,,テラス,0
1622,6300003002189,新規,0,2024-10-09,2024-10-09,合同会社Ｎｅｘｕｓ,,合同会社,佐賀県,鹿島市,大字納富分７９５番地オークレール琴路１０３,,41,207,8491312,,,,,,,2024-10-09,1,,,,,ネクサス,0
1629,6340001026839,新規,0,2024-10-09,2024-10-09,薩州アクアファーム株式会社,,株式会社,鹿児島県,薩摩川内市,宮崎町２３４１番地,,46,215,8950013,,,,,,,2024-10-09,1,,,,,サッシュウアクアファーム,0
1630,6350001019222,新規,0,2024-10-09,2024-10-09,株式会社ｒｅａｌｌｙ,,株式会社,宮崎県,宮崎市,中央通１番７号ＴＲＵＴＨビル１Ｆ,,45,201,8800002,,,,,,,2024-10-09,1,,,,,リアリー,0
1634,6360001034261,新規,0,2024-10-09,2024-10-09,Ｐｕｌｓｅ株式会社,,株式会社,沖縄県,中頭郡北谷町,字桑江３５０番地２１,,47,326,9040103,,,,,,,2024-10-09,1,,,,,パルス,0
1643,6380001034821,新規,0,2024-10-09,2024-10-09,ＭＣＥ株式会社,,株式会社,福島県,福島市,野田町字中ノ町３９番地,,07,201,9608055,,,,,,,2024-10-09,1,,,,,エムシーイー,0
1644,6380003005861,新規,0,2024-10-09,2024-10-09,合同会社優心建設,,合同会社,福島県,いわき市,内郷内町水之出６７番地,,07,204,9738404,,,,,,,2024-10-09,1,,,,,ユウシンケンセツ,0
1646,6410001013961,新規,0,2024-10-09,2024-10-09,てるてるぼうずＢａｋｅｒｙ株式会社,,株式会社,秋田県,秋田市,飯島新町３丁目１番５号,,05,201,0110947,,,,,,,2024-10-09,1,,,,,テルテルボウズベーカリー,0
1673,6700150111025,新規,0,2024-10-09,2022-08-04,最上地方農業委員会協議会,,その他,山形県,新庄市,沖の町１０－３７,,06,205,9960023,,,,,,,2022-08-04,1,,,,,モガミチホウノウギヨウイインカイキヨウギカイ,0
1684,7010001248795,新規,0,2024-10-09,2024-10-09,株式会社Ｔｅｒｍｉｎａｌ,,株式会社,東京都,中央区,京橋２丁目９番１２号,,13,102,1040031,,,,,,,2024-10-09,1,,,,,ターミナル,0
1685,7010001248944,新規,0,2024-10-09,2024-10-09,株式会社ＫＩ　Ｃｒｅａｔｅ,,株式会社,東京都,千代田区,神田淡路町１丁目１５番地ＥＭＩＮＡＺ御茶ノ水３－４階,,13,101,1010063,,,,,,,2024-10-09,1,,,,,キクリエイト,0
1689,7010003045126,新規,0,2024-10-09,2024-10-09,合同会社バッテリーパーク３,,合同会社,東京都,千代田区,丸の内１丁目４番１号丸の内永楽ビルディング２６０５室,,13,101,1000005,,,,,,,2024-10-09,1,,,,,バッテリーパークスリー,0
1690,7010003045134,新規,0,2024-10-09,2024-10-09,合同会社バッテリーパーク１１,,合同会社,東京都,千代田区,丸の内１丁目４番１号丸の内永楽ビルディング２６０５室,,13,101,1000005,,,,,,,2024-10-09,1,,,,,バッテリーパークイレブン,0
1691,7010003045159,新規,0,2024-10-09,2024-10-09,ＷＡＢＩＳＡＢＩマスターリース合同会社,,合同会社,東京都,中央区,銀座２丁目１０番８号マニエラ銀座ビル４階,,13,102,1040061,,,,,,,2024-10-09,1,,,,,ワビサビマスターリース,0
1695,7010005038895,新規,0,2024-10-09,2024-10-09,一般社団法人Ｔｏｒｃｈ．,,その他の設立登記法人,東京都,中央区,銀座１丁目１２番４号Ｎ＆ＥＢＬＤ．６Ｆ,,13,102,1040061,,,,,,,2024-10-09,1,,,,,トーチ,0
1696,7010005038912,新規,0,2024-10-09,2024-10-09,一般社団法人全国法人互助会,,その他の設立登記法人,東京都,千代田区,神田須田町１丁目３４番地４,,13,101,1010041,,,,,,,2024-10-09,1,,,,,ゼンコクホウジンゴジョカイ,0
1697,7010005038929,新規,0,2024-10-09,2024-10-09,一般社団法人ＬＯＧＩ　ＦＬＡＧ３号,,その他の設立登記法人,東京都,中央区,日本橋１丁目４番１号,,13,102,1030027,,,,,,,2024-10-09,1,,,,,ロジフラッグサンゴウ,0
1708,7010401185515,新規,0,2024-10-09,2024-10-09,株式会社ＡＫＭｅｄｉｂａｓｅ,,株式会社,東京都,港区,麻布台３丁目１番６号ＢＬＵＥＢＬＤＧ．ＡＺＡＢＵＤＡＩ３Ｆ,,13,103,1060041,,,,,,,2024-10-09,1,,,,,エイケイメディベース,0
1709,7010401185580,新規,0,2024-10-09,2024-10-09,株式会社Ｌｕｃｋ　Ｓｐｉｄｅｒ,,株式会社,東京都,港区,六本木３丁目１５番２４号ＢＯＸ六本木４０１,,13,103,1060032,,,,,,,2024-10-09,1,,,,,ラックスパイダー,0
1711,7010403033548,新規,0,2024-10-09,2024-10-09,グリーンパワー・リニューアブル・ホールディングス２号合同会社,,合同会社,東京都,港区,赤坂１丁目１１番４４号赤坂インターシティ,,13,103,1070052,,,,,,,2024-10-09,1,,,,,グリーンパワーリニューアブルホールディングスニゴウ,0
1714,7010405023588,新規,0,2024-10-09,2024-10-09,一般社団法人科学真実検証協会,,その他の設立登記法人,東京都,港区,北青山１丁目３番１号アールキューブ青山３階,,13,103,1070061,,,,,,,2024-10-09,1,,,,,カガクシンジツケンショウキョウカイ,0
1715,7010405023621,新規,0,2024-10-09,2024-10-09,一般社団法人美尻認定協会,,その他の設立登記法人,東京都,港区,新橋６丁目８番１号,,13,103,1050004,,,,,,,2024-10-09,1,,,,,ビジリニンテイキョウカイ,0
1720,7010601066028,新規,0,2024-10-09,2024-10-09,和光食糧豆類販売株式会社,,株式会社,東京都,江東区,東陽６丁目３番２号,,13,108,1350016,,,,,,,2024-10-09,1,,,,,ワコウショクリョウマメルイハンバイ,0
1721,7010601066044,新規,0,2024-10-09,2024-10-09,Ｄｓｃｉｅｎｃｅ株式会社,,株式会社,東京都,江東区,青海２丁目７番４－１３０４号,,13,108,1350064,,,,,,,2024-10-09,1,,,,,ディーサイエンス,0
1722,7010603011139,新規,0,2024-10-09,2024-10-09,合同会社Ｐｒｉｓｍ　Ｖｅｎｔｕｒｅｓ,,合同会社,東京都,墨田区,江東橋４丁目２４番７号,,13,107,1300022,,,,,,,2024-10-09,1,,,,,プリズムベンチャーズ,0
1726,7010701046664,新規,0,2024-10-09,2024-10-09,株式会社ＮＥＸＴＩＣＡ,,株式会社,東京都,品川区,南大井３丁目３５番１４号大森本田ビル６階,,13,109,1400013,,,,,,,2024-10-09,1,,,,,ネクスティカ,0
1734,7010901056100,新規,0,2024-10-09,2024-10-09,株式会社Ｈｙｅ,,株式会社,東京都,世田谷区,駒沢２丁目５９番１号,,13,112,1540012,,,,,,,2024-10-09,1,,,,,ハイ,0
1744,7011001165015,新規,0,2024-10-09,2024-10-09,株式会社ココ,,株式会社,東京都,渋谷区,道玄坂１丁目１０番８号,,13,113,1500043,,,,,,,2024-10-09,1,,,,,ココ,0
1745,7011001165080,新規,0,2024-10-09,2024-10-09,株式会社ＮｅｘａＳｃｉｅｎｃｅ,,株式会社,東京都,渋谷区,渋谷２丁目１９－１５宮益坂ビルディング６０９,,13,113,1500002,,,,,,,2024-10-09,1,,,,,ネクササイエンス,0
1746,7011001165163,新規,0,2024-10-09,2024-10-09,ｋｙｏ‐ｗａ資産管理株式会社,,株式会社,東京都,目黒区,八雲３丁目８番１０号,,13,110,1520023,,,,,,,2024-10-09,1,,,,,キョウワシサンカンリ,0
1749,7011003020143,新規,0,2024-10-09,2024-10-09,ｐｌａｎｘ合同会社,,合同会社,東京都,渋谷区,恵比寿西２丁目４－８ウィンド恵比寿ビル８Ｆ,,13,113,1500021,,,,,,,2024-10-09,1,,,,,,0
1753,7011103015010,新規,0,2024-10-09,2024-10-09,合同会社プロバイド,,合同会社,東京都,新宿区,西新宿３丁目３番１３号西新宿水間ビル２Ｆ,,13,104,1600023,,,,,,,2024-10-09,1,,,,,プロバイド,0
1754,7011201025844,新規,0,2024-10-09,2024-10-09,株式会社ライミ,,株式会社,東京都,中野区,大和町３丁目２０番１号藤和シティホームズ高円寺ＩＩ７０２室,00136576,13,114,1650034,,,,,,,2024-10-09,1,,,,,ライミ,0
1759,7011301030059,新規,0,2024-10-09,2024-10-09,株式会社東京大和工務店,,株式会社,東京都,杉並区,井草３丁目３１番１２号,,13,115,1670021,,,,,,,2024-10-09,1,,,,,トウキョウヤマトコウムテン,0
1763,7011601028117,新規,0,2024-10-09,2024-10-09,株式会社ハルモイラ,,株式会社,東京都,練馬区,小竹町１丁目３１番地３号,,13,120,1760004,,,,,,,2024-10-09,1,,,,,ハルモイラ,0
1764,7011701027695,新規,0,2024-10-09,2024-10-09,シンマン株式会社,,株式会社,東京都,江戸川区,平井５丁目４５番５号渡辺ハイツ１０１,,13,123,1320035,,,,,,,2024-10-09,1,,,,,シンマン,0
1786,7020001159471,新規,0,2024-10-09,2024-10-09,株式会社アペルタ,,株式会社,神奈川県,横浜市磯子区,上中里町８５６番地,,14,107,2350042,,,,,,,2024-10-09,1,,,,,アペルタ,0
1787,7020001159505,新規,0,2024-10-09,2024-10-09,ピークスアンドバリーズ株式会社,,株式会社,神奈川県,横浜市鶴見区,馬場１丁目７番地８号藤ビル２－Ｂ,,14,101,2300076,,,,,,,2024-10-09,1,,,,,ピークスアンドバリーズ,0
1788,7020003026942,新規,0,2024-10-09,2024-10-09,合同会社青藍プランニング,,合同会社,神奈川県,横浜市戸塚区,品濃町５１３番地１２,,14,110,2440801,,,,,,,2024-10-09,1,,,,,,0
1797,7021003015076,新規,0,2024-10-09,2024-10-09,ＡＬＡＩＺＡ日本商会合同会社,,合同会社,神奈川県,愛甲郡愛川町,田代９７３－１,,14,401,2430306,,,,,,,2024-10-09,1,,,,,アライザニホンショウカイ,0
1804,7030005021874,新規,0,2024-10-09,2024-10-09,一般社団法人吉見町にゃん田の会,,その他の設立登記法人,埼玉県,比企郡吉見町,大字南吉見２２４５番地３６,,11,347,3550154,,,,,,,2024-10-09,1,,,,,ヨシミマチニャンタノカイ,0
1807,7040001135710,新規,0,2024-10-09,2024-10-09,株式会社タオンガ,,株式会社,千葉県,船橋市,宮本８丁目９番２－１号,,12,204,2730003,,,,,,,2024-10-09,1,,,,,タオンガ,0
1808,7040001135735,新規,0,2024-10-09,2024-10-09,株式会社Ｐｉｌｅ２４,,株式会社,千葉県,船橋市,神保町１２５番地１,,12,204,2740056,,,,,,,2024-10-09,1,,,,,パイルニジュウヨン,0
1811,7040003025950,新規,0,2024-10-09,2024-10-09,啓和商事合同会社,,合同会社,千葉県,山武市,富田トの４７１番地１関東ビル１Ｆ－１０１号,,12,237,2891321,,,,,,,2024-10-09,1,,,,,ケイワショウジ,0
1817,7050001055528,新規,0,2024-10-09,2024-10-09,株式会社シュナイダーＤＸ,,株式会社,茨城県,ひたちなか市,大字枝川１５８１番地６,,08,221,3120035,,,,,,,2024-10-09,1,,,,,シュナイダーディーエックス,0
1820,7060001037541,新規,0,2024-10-09,2024-10-09,株式会社ＡＧＴＥＣＨ,,株式会社,栃木県,下都賀郡野木町,大字丸林３９７番地８,,09,364,3290111,,,,,,,2024-10-09,1,,,,,アグテック,0
1835,7100005013237,新規,0,2024-10-09,2024-10-09,特定非営利活動法人わんｔｉｍｅ　ｗｉｔｈ　ａｎｉｍａｌｓ,,その他の設立登記法人,長野県,千曲市,大字上山田６６８番地５,,20,218,3890822,,,,,,,2024-10-09,1,,,,,ワンタイムウィズアニマルズ,0
1837,7110003005540,新規,0,2024-10-09,2024-10-09,合同会社コトムスビ,,合同会社,新潟県,燕市,吉田寿町４番１号,,15,213,9590256,,,,,,,2024-10-09,1,,,,,コトムスビ,0
1842,7120001269087,新規,0,2024-10-09,2024-10-09,株式会社オンワード,,株式会社,大阪府,大阪市住吉区,苅田７丁目３－１２レジデンシャル御堂筋あびこ１２０３号,,27,120,5580011,,,,,,,2024-10-09,1,,,,,オンワード,0
1843,7120001269104,新規,0,2024-10-09,2024-10-09,Ｃｏｎｖａｓコンサルティング株式会社,,株式会社,大阪府,大阪市北区,梅田２丁目４－９ブリーゼタワー３階ＳＹＮＴＨ×Ｂｕｓｉｎｅｓｓ－Ａｉｒｐｏｒｔ,,27,127,5300001,,,,,,,2024-10-09,1,,,,,コンバスコンサルティング,0
1844,7120001269129,新規,0,2024-10-09,2024-10-09,株式会社Ｓｙｎｃｒｏｕｇｅ,,株式会社,大阪府,大阪市北区,堂島１丁目３番４号谷安ビル１階４号室,,27,127,5300003,,,,,,,2024-10-09,1,,,,,シンクルージュ,0
1845,7120001269137,新規,0,2024-10-09,2024-10-09,不二デザイン株式会社,,株式会社,大阪府,大阪市阿倍野区,三明町１丁目４番１８号,,27,119,5450005,,,,,,,2024-10-09,1,,,,,フジデザイン,0
1846,7120001269145,新規,0,2024-10-09,2024-10-09,株式会社エミネンス,,株式会社,大阪府,大阪市平野区,背戸口４丁目１１番３３号,,27,126,5470034,,,,,,,2024-10-09,1,,,,,エミネンス,0
1847,7120001269153,新規,0,2024-10-09,2024-10-09,株式会社Ｈ＆Ｉ,,株式会社,大阪府,大阪市平野区,瓜破東２丁目９－４エル平野１階,,27,126,5470022,,,,,,,2024-10-09,1,,,,,エイチアンドアイ,0
1848,7120001269178,新規,0,2024-10-09,2024-10-09,株式会社ワイズファーム,,株式会社,大阪府,守口市,菊水通２丁目４－１８,,27,209,5700032,,,,,,,2024-10-09,1,,,,,ワイズファーム,0
1849,7120001269228,新規,0,2024-10-09,2024-10-09,高倉株式会社,,株式会社,大阪府,大阪市阿倍野区,橋本町３番２０号,,27,119,5450031,,,,,,,2024-10-09,1,,,,,タカクラ,0
1850,7120001269236,新規,0,2024-10-09,2024-10-09,株式会社リライフサポート,,株式会社,大阪府,大阪市東淀川区,豊新１丁目１７番２６エステート上新庄３０２号,,27,114,5330014,,,,,,,2024-10-09,1,,,,,リライフサポート,0
1856,7120003027674,新規,0,2024-10-09,2024-10-09,ＨＤ１４ｂｉｌｌｉａｒｄｓ合同会社,,合同会社,大阪府,大阪市平野区,平野西４丁目６－６プレアール平野西２０７号室,,27,126,5470033,,,,,,,2024-10-09,1,,,,,エイチディーイチヨンビリヤード,0
1864,7120903005366,新規,0,2024-10-09,2024-10-09,合同会社あかり,,合同会社,大阪府,摂津市,千里丘１丁目１４番２０－８０４号,,27,224,5660001,,,,,,,2024-10-09,1,,,,,アカリ,0
1865,7122001038521,新規,0,2024-10-09,2024-10-09,株式会社ハートリンクコネクト,,株式会社,大阪府,四條畷市,清滝中町１３－１１,,27,229,5750061,,,,,,,2024-10-09,1,,,,,ハートリンクコネクト,0
1867,7130001078108,新規,0,2024-10-09,2024-10-09,Ｒｅｎａコーポレーション株式会社,,株式会社,京都府,京都市上京区,千本通二条下る東入主税町８１２番地１６,,26,102,6028155,,,,,,,2024-10-09,1,,,,,レナコーポレーション,0
1870,7130005017193,新規,0,2024-10-09,2024-10-09,一般財団法人四条傘鉾保存会,,その他の設立登記法人,京都府,京都市下京区,四条通西洞院西入傘鉾町３９番地,,26,106,6008494,,,,,,,2024-10-09,1,,,,,シジョウカサホコホゾンカイ,0
1876,7140001136046,新規,0,2024-10-09,2024-10-09,Ｌｉｂｅｌｕｌａ　Ｈｏｍｅ　Ｓｅｒｖｉｃｅ株式会社,,株式会社,兵庫県,西宮市,上ケ原四番町２番２３号,,28,204,6620894,,,,,,,2024-10-09,1,,,,,リベルラホームサービス,0
1880,7160003003309,新規,0,2024-10-09,2024-10-09,合同会社ＭＮＢ,,合同会社,滋賀県,大津市,雄琴５丁目１４番９号,,25,201,5200101,,,,,,,2024-10-09,1,,,,,エムエヌビー,0
1885,7180001163615,新規,0,2024-10-09,2024-10-09,佳禾商事株式会社,,株式会社,愛知県,名古屋市中村区,名駅５丁目４番１４号花車ビル北館１階,,23,105,4500002,,,,,,,2024-10-09,1,,,,,カカショウジ,0
1886,7180001163631,新規,0,2024-10-09,2024-10-09,株式会社ＰＫＬ,,株式会社,愛知県,愛知郡東郷町,大字春木字下鏡田１６９番地,,23,302,4700162,,,,,,,2024-10-09,1,,,,,ピーケイエル,0
1890,7180003027454,新規,0,2024-10-09,2024-10-09,ｒｏｏｍ‐ｙ　ｉｎｎｏｖａｔｉｏｎｓ合同会社,,合同会社,愛知県,名古屋市昭和区,鶴舞１丁目２番３２号,,23,107,4660064,,,,,,,2024-10-09,1,,,,,ルーミーイノベーションズ,0
1899,7220003003855,新規,0,2024-10-09,2024-10-09,Ｓａｎｔｏ合同会社,,合同会社,石川県,金沢市,高岡町１２番４５号ロイヤルシャトー南町２０２号室,,17,201,9200864,,,,,,,2024-10-09,1,,,,,サント,0
1910,7290001107511,新規,0,2024-10-09,2024-10-09,株式会社Ａ．Ｂ．Ｃ．穴井工務店,,株式会社,福岡県,福岡市南区,清水４丁目１２番３－４号,,40,134,8150031,,,,,,,2024-10-09,1,,,,,エービーシーアナイコウムテン,0
1918,7290003015910,新規,0,2024-10-09,2024-10-09,合同会社ｌｅａｆ＆ｔｒｅｅ,,合同会社,福岡県,福岡市早良区,西新１丁目１番１,,40,137,8140002,,,,,,,2024-10-09,1,,,,,リーフアンドツリー,0
1932,7350001019221,新規,0,2024-10-09,2024-10-09,株式会社ＴＡＭＡ,,株式会社,宮崎県,宮崎市,中央通１番７号ＴＲＵＴＨビル１Ｆ,,45,201,8800002,,,,,,,2024-10-09,1,,,,,タマ,0
1944,7370001051809,新規,0,2024-10-09,2024-10-09,天恵地福株式会社,,株式会社,宮城県,東松島市,野蒜字亀岡８０,,04,214,9810411,,,,,,,2024-10-09,1,,,,,テンケイチフク,0
1946,7380001034820,新規,0,2024-10-09,2024-10-09,株式会社イトー,,株式会社,福島県,郡山市,西ノ内２丁目１２番２２号,,07,203,9638022,,,,,,,2024-10-09,1,,,,,イトー,0
1971,7490001010884,新規,0,2024-10-09,2024-10-09,株式会社Ｓｈｏｐゴマ,,株式会社,高知県,高知市,南竹島町６１－１ファミール・ビレジＣ棟１０１,,39,201,7808017,,,,,,,2024-10-09,1,,,,,ショップゴマ,0
1978,7700150127466,新規,0,2024-10-09,2024-10-09,ＵＰＰＥＲ　ＢＵＢＢＬＥＳ　ＨＯＬＤＩＮＧＳ　ＬＩＭＩＴＥＤ,,外国会社等,,,,,,,,ＵｎｉｔＣ，６／Ｆ，Ｑｕｅｅｎ’ｓ　Ｃｅｎｔｒｅ，５８－５４　Ｑｕｅｅｎ’ｓ　Ｒｏａｄ　Ｅａｓｔ，Ｗａｎｃｈａｉ,,,,,,2024-10-09,1,,,,,アツパーバブルスホールデイングスリミテツド,0
1986,8010001249000,新規,0,2024-10-09,2024-10-09,ペイツーオー株式会社,,株式会社,東京都,中央区,八重洲１丁目５番２０号東京建物八重洲さくら通りビル３Ｆ,,13,102,1030028,,,,,,,2024-10-09,1,,,,,ペイツーオー,0
1987,8010003045133,新規,0,2024-10-09,2024-10-09,合同会社バッテリーパーク１０,,合同会社,東京都,千代田区,丸の内１丁目４番１号丸の内永楽ビルディング２６０５室,,13,101,1000005,,,,,,,2024-10-09,1,,,,,バッテリーパークテン,0
1988,8010003045158,新規,0,2024-10-09,2024-10-09,ＮｏｖａＧｒｏｗｔｈ合同会社,,合同会社,東京都,中央区,銀座１丁目１２番４号Ｎ＆ＥＢＬＤ．６Ｆ,,13,102,1040061,,,,,,,2024-10-09,1,,,,,ノヴァグロース,0
1990,8010005038944,新規,0,2024-10-09,2024-10-09,一般社団法人Ｒｏｕｔｅ０,,その他の設立登記法人,東京都,千代田区,平河町１丁目６番１５号シルスフィア会計事務所内,,13,101,1020093,,,,,,,2024-10-09,1,,,,,ルートゼロ,0
1996,8010401185456,新規,0,2024-10-09,2024-10-09,株式会社ケーコア,,株式会社,東京都,港区,南青山２丁目２２番１４号,,13,103,1070062,,,,,,,2024-10-09,1,,,,,ケーコア,0
1997,8010401185530,新規,0,2024-10-09,2024-10-09,ポート株式会社,,株式会社,東京都,港区,北青山１丁目４番４号北青山ビル９Ｆ,,13,103,1070061,,,,,,,2024-10-09,1,,,,,ポート,0
1998,8010401185539,新規,0,2024-10-09,2024-10-09,株式会社ボニータハウス,,株式会社,東京都,港区,南青山５丁目１２番４号ＴＡＩＨＥＩビル４階,,13,103,1070062,,,,,,,2024-10-09,1,,,,,ボニータハウス,0
1999,8010401185547,新規,0,2024-10-09,2024-10-09,ＲＪソーシャルケアグループ株式会社,,株式会社,東京都,港区,六本木３丁目１番１号六本木ティーキューブ１５階,,13,103,1060032,,,,,,,2024-10-09,1,,,,,アールジェイソーシャルケアグループ,0
2001,8010403033547,新規,0,2024-10-09,2024-10-09,グリーンパワーインベストメント・ファンドマネジメント２号合同会社,,合同会社,東京都,港区,赤坂１丁目１１番４４号赤坂インターシティ,,13,103,1070052,,,,,,,2024-10-09,1,,,,,グリーンパワーインベストメントファンドマネジメントニゴウ,0
2006,8010601066043,新規,0,2024-10-09,2024-10-09,株式会社カカラ,,株式会社,東京都,江東区,有明２丁目１－２－２７０６,,13,108,1350063,,,,,,,2024-10-09,1,,,,,カカラ,0
2007,8010601066051,新規,0,2024-10-09,2024-10-09,株式会社Ｍ２Ｌｏｇ,,株式会社,東京都,江東区,福住２丁目７番９－４１０号,,13,108,1350032,,,,,,,2024-10-09,1,,,,,エムツーログ,0
2009,8010901056058,新規,0,2024-10-09,2024-10-09,株式会社ダーマリサーチカンパニー東京,,株式会社,東京都,世田谷区,下馬１丁目３９番９－３０１号,,13,112,1540002,,,,,,,2024-10-09,1,,,,,ダーマリサーチカンパニートウキョウ,0
2010,8010901056090,新規,0,2024-10-09,2024-10-09,株式会社ＨＡＫＯ,,株式会社,東京都,世田谷区,松原５丁目８番２号東松原クレスト２０２,,13,112,1560043,,,,,,,2024-10-09,1,,,,,ハコ,0
2017,8011001165039,新規,0,2024-10-09,2024-10-09,株式会社フラット,,株式会社,東京都,渋谷区,桜丘町４番８号プレシャス渋谷５０２,,13,113,1500031,,,,,,,2024-10-09,1,,,,,フラット,0
2018,8011001165063,新規,0,2024-10-09,2024-10-09,株式会社ロジカルイノベーションズ,,株式会社,東京都,渋谷区,神南１丁目１１番４号ＦＰＧリンクス神南５階,,13,113,1500041,,,,,,,2024-10-09,1,,,,,ロジカルイノベーションズ,0
2019,8011001165088,新規,0,2024-10-09,2024-10-09,株式会社Ｍｅｌｔｏ,,株式会社,東京都,渋谷区,道玄坂１丁目１０番８号渋谷道玄坂東急ビル２Ｆ－Ｃ,,13,113,1500043,,,,,,,2024-10-09,1,,,,,メルト,0
2027,8011301030058,新規,0,2024-10-09,2024-10-09,株式会社Ｔ’ｅＮｅｔ,,株式会社,東京都,杉並区,高井戸東４丁目１番１５号プレミスト浜田山４０２,,13,115,1680072,,,,,,,2024-10-09,1,,,,,テネット,0
2029,8011701027694,新規,0,2024-10-09,2024-10-09,１１Ｃａｒｇｏ　Ｈａｎｄｌｉｎｇ株式会社,,株式会社,東京都,江戸川区,一之江２丁目１１番１０号,,13,123,1320024,,,,,,,2024-10-09,1,,,,,イレブンカーゴハンドリング,0
2030,8011703003990,新規,0,2024-10-09,2024-10-09,ＴＭＣ合同会社,,合同会社,東京都,江戸川区,南篠崎町１丁目２４番７号,,13,123,1330065,,,,,,,2024-10-09,1,,,,,ティーエムシー,0
2034,8011801044929,新規,0,2024-10-09,2024-10-09,株式会社サプライズエージェント,,株式会社,東京都,足立区,西竹の塚２丁目１５番３１号,,13,121,1210822,,,,,,,2024-10-09,1,,,,,サプライズエージェント,0
2037,8012401042364,新規,0,2024-10-09,2024-10-09,瑞博株式会社,,株式会社,東京都,狛江市,中和泉２丁目１０番１４－２０３号,,13,219,2010012,,,,,,,2024-10-09,1,,,,,ミズヒロ,0
2041,8012801023484,新規,0,2024-10-09,2024-10-09,桜管財株式会社,,株式会社,東京都,国分寺市,西恋ヶ窪１丁目７番１１号カーサいずみ２０１号室,,13,214,1850013,,,,,,,2024-10-09,1,,,,,サクラカンザイ,0
2046,8020001159504,新規,0,2024-10-09,2024-10-09,株式会社エネマイル,,株式会社,神奈川県,横浜市西区,北幸１丁目１１番１号,,14,103,2200004,,,,,,,2024-10-09,1,,,,,エネマイル,0
2049,8020003026999,新規,0,2024-10-09,2024-10-09,夏企画合同会社,,合同会社,神奈川県,川崎市高津区,子母口３０９番地ラッフィナート田園３０３,,14,134,2130023,,,,,,,2024-10-09,1,,,,,ナツキカク,0
2050,8020003027031,新規,0,2024-10-09,2024-10-09,合同会社Ｋ‐２,,合同会社,神奈川県,横浜市保土ケ谷区,東川島町２番地９,,14,106,2400041,,,,,,,2024-10-09,1,,,,,ケーツー,0
2054,8021001083413,新規,0,2024-10-09,2024-10-09,株式会社フォレスト,,株式会社,神奈川県,海老名市,上今泉６丁目２６番４６－２号,,14,215,2430431,,,,,,,2024-10-09,1,,,,,フォレスト,0
2055,8021001083462,新規,0,2024-10-09,2024-10-09,ＩＳＷＯＲＫＳ株式会社,,株式会社,神奈川県,藤沢市,円行１８８２,,14,205,2520805,,,,,,,2024-10-09,1,,,,,アイエスワークス,0
2065,8030001162820,新規,0,2024-10-09,2024-10-09,ＳＯＲＡＩ　ＪＡＰＡＮ株式会社,,株式会社,埼玉県,川口市,領家３丁目９番２号,,11,203,3320004,,,,,,,2024-10-09,1,,,,,ソライジャパン,0
2074,8040001135759,新規,0,2024-10-09,2024-10-09,株式会社ケミカルグルー,,株式会社,千葉県,千葉市若葉区,小倉町１７３２番地９,,12,104,2640007,,,,,,,2024-10-09,1,,,,,ケミカルグルー,0
2077,8040003025801,新規,0,2024-10-09,2024-10-09,合同会社Ｔ‐ｂｌｏｓｓｏｍ,,合同会社,千葉県,千葉市美浜区,真砂５丁目３番１棟２０２号,,12,106,2610011,,,,,,,2024-10-09,1,,,,,ティーブロッサム,0
2079,8040005022532,新規,0,2024-10-09,2024-10-09,医療法人社団セントラルユニオン,,その他の設立登記法人,千葉県,柏市,末広町１番１号柏高島屋ステーションモールＳ館８階８０１号店,00136588,12,217,2770842,,,,,,,2024-10-09,1,,,,,セントラルユニオン,0
2082,8050003008722,新規,0,2024-10-09,2024-10-09,合同会社ｙｅｌｌ,,合同会社,茨城県,つくば市,栗原２８５９番地４３,,08,220,3050001,,,,,,,2024-10-09,1,,,,,エール,0
2093,8080103003158,新規,0,2024-10-09,2024-10-09,合同会社ＴＹＴコム,,合同会社,静岡県,沼津市,今沢３８９番地３,,22,203,4100875,,,,,,,2024-10-09,1,,,,,ティーワイティーコム,0
2100,8100001037899,新規,0,2024-10-09,2024-10-09,株式会社Ｍａｅｚｉｎ,,株式会社,長野県,須坂市,大字小山２４７９－３４,,20,207,3820000,,,,,,,2024-10-09,1,,,,,マエジン,0
2101,8100001037916,新規,0,2024-10-09,2024-10-09,株式会社Ｎｉｎｅ　Ｗｏｒｋｓ,,株式会社,長野県,諏訪郡富士見町,落合１３５１７番地９,,20,362,3990214,,,,,,,2024-10-09,1,,,,,ナインワークス,0
2102,8100005013236,新規,0,2024-10-09,2024-10-09,医療法人堀田内科クリニック,,その他の設立登記法人,長野県,上伊那郡南箕輪村,５５８７番地２,,20,385,3994511,,,,,,,2024-10-09,1,,,,,ホッタナイカクリニック,0
2108,8110005017137,新規,0,2024-10-09,2024-10-09,一般社団法人総合型スポーツクラブてらスポ,,その他の設立登記法人,新潟県,長岡市,寺泊烏帽子平１９７７番地８,,15,202,9402502,,,,,,,2024-10-09,1,,,,,ソウゴウガタスポーツクラブテラスポ,0
2115,8120001269053,新規,0,2024-10-09,2024-10-09,株式会社清家設備工業,,株式会社,大阪府,大阪市平野区,長吉川辺３丁目２０番５号,,27,126,5470014,,,,,,,2024-10-09,1,,,,,セイケセツビコウギョウ,0
2116,8120001269136,新規,0,2024-10-09,2024-10-09,ＭＩＫ株式会社,,株式会社,大阪府,守口市,大日町３丁目４番２３号,,27,209,5700003,,,,,,,2024-10-09,1,,,,,ミック,0
2117,8120001269160,新規,0,2024-10-09,2024-10-09,株式会社ユーワークス,,株式会社,大阪府,守口市,金下町１丁目１１番１１号,,27,209,5700079,,,,,,,2024-10-09,1,,,,,ユーワークス,0
2118,8120001269177,新規,0,2024-10-09,2024-10-09,タケハタ電気株式会社,,株式会社,大阪府,寝屋川市,成美町１４番１６号,,27,215,5720046,,,,,,,2024-10-09,1,,,,,タケハタデンキ,0
2121,8120101070385,新規,0,2024-10-09,2024-10-09,ＭＩＡ株式会社,,株式会社,大阪府,羽曳野市,野６４０番地の１１,,27,222,5830884,,,,,,,2024-10-09,1,,,,,ミア,0
2128,8120901049876,新規,0,2024-10-09,2024-10-09,株式会社Ｒｉｓｅ,,株式会社,大阪府,吹田市,江坂町１丁目２３番３５号コーポ江坂ビル８０２号室,,27,205,5640063,,,,,,,2024-10-09,1,,,,,ライズ,0
2129,8120901049884,新規,0,2024-10-09,2024-10-09,株式会社Ｙａｍａｚ’Ａｎｅｘ,,株式会社,大阪府,池田市,五月丘５丁目４番２２号,,27,204,5630029,,,,,,,2024-10-09,1,,,,,ヤマズアネックス,0
2131,8122001038520,新規,0,2024-10-09,2024-10-09,株式会社関西技建,,株式会社,大阪府,東大阪市,玉串町東２丁目４番３６号,,27,227,5780932,,,,,,,2024-10-09,1,,,,,カンサイギケン,0
2134,8130001078098,新規,0,2024-10-09,2024-10-09,株式会社オクムラ,,株式会社,京都府,城陽市,寺田中大小４１番地,,26,207,6100121,,,,,,,2024-10-09,1,,,,,オクムラ,0
2135,8130001078107,新規,0,2024-10-09,2024-10-09,株式会社ＫＯＫＯＬＯ　ＬＯＧＩＳＴＩＣＳ,,株式会社,京都府,京都市南区,久世大藪町１７１番地１３,,26,107,6010000,,,,,,,2024-10-09,1,,,,,ココロロジスティクス,0
2137,8130003009919,新規,0,2024-10-09,2024-10-09,合同会社犬丸商会,,合同会社,京都府,宇治市,宇治池森２０番地の６号ＭＡＸビル２０１号,,26,204,6110021,,,,,,,2024-10-09,1,,,,,イヌマルショウカイ,0
2157,8180003027420,新規,0,2024-10-09,2024-10-09,合同会社アバン,,合同会社,愛知県,名古屋市東区,泉３丁目３０番１５号,,23,102,4610001,,,,,,,2024-10-09,1,,,,,アバン,0
2158,8180003027453,新規,0,2024-10-09,2024-10-09,合同会社ＨＯＵＳＥ　ＯＦ１２,,合同会社,愛知県,常滑市,栄町６丁目２０番地の１,,23,216,4790836,,,,,,,2024-10-09,1,,,,,ハウスオブトゥエルブ,0
2170,8190003004823,新規,0,2024-10-09,2024-10-09,合同会社ふくちゃんエステート,,合同会社,三重県,四日市市,中町１番９号,,24,202,5100096,,,,,,,2024-10-09,1,,,,,フクチャンエステート,0
2171,8190005011990,新規,0,2024-10-09,2024-10-09,アジア国際経済技術協同組合,,その他の設立登記法人,三重県,津市,栄町２丁目４２３番地,,24,201,5140004,,,,,,,2024-10-09,1,,,,,アジアコクサイケイザイギジュツ,0
2173,8220001026246,新規,0,2024-10-09,2024-10-09,ノマツ設備株式会社,,株式会社,石川県,七尾市,大田町１０７－５番地１,,17,202,9260006,,,,,,,2024-10-09,1,,,,,ノマツセツビ,0
2174,8220005008892,新規,0,2024-10-09,2024-10-09,一般社団法人ごちゃらあと,,その他の設立登記法人,石川県,輪島市,河井町２３部１番地１５０,,17,204,9280001,,,,,,,2024-10-09,1,,,,,ゴチャラアト,0
2179,8240001063923,新規,0,2024-10-09,2024-10-09,ＡＲＢＲＥ株式会社,,株式会社,広島県,広島市安佐南区,西原２丁目３２番３号,,34,105,7310113,,,,,,,2024-10-09,1,,,,,アルブル,0
2183,8240005015846,新規,0,2024-10-09,2024-10-09,一般社団法人わかいふぁーむ,,その他の設立登記法人,広島県,福山市,箕島町２９２番地２,,34,207,7210957,,,,,,,2024-10-09,1,,,,,ワカイファーム,0
2191,8290001107477,新規,0,2024-10-09,2024-10-09,全創株式会社,,株式会社,福岡県,糟屋郡久山町,大字山田１５５０－１０,,40,348,8112502,,,,,,,2024-10-09,1,,,,,ゼンソウ,0
2192,8290003015901,新規,0,2024-10-09,2024-10-09,リッチフィールド合同会社,,合同会社,福岡県,福岡市西区,姪浜駅南２丁目９－１８,,40,135,8190006,,,,,,,2024-10-09,1,,,,,リッチフィールド,0
2195,8290801030936,新規,0,2024-10-09,2024-10-09,株式会社ＳＳＣ,,株式会社,福岡県,中間市,桜台１丁目１５番１号,,40,215,8090017,,,,,,,2024-10-09,1,,,,,エスエスシー,0
2210,8360003014367,新規,0,2024-10-09,2024-10-09,合同会社ｌａｇｏｍ,,合同会社,沖縄県,石垣市,字登野城９２７－３３新田ハイツ１０１,,47,207,9070004,,,,,,,2024-10-09,1,,,,,ラーゴム,0
2212,8380005012879,新規,0,2024-10-09,2024-10-09,一般社団法人みどりのまきば黒澤牧場,,その他の設立登記法人,福島県,双葉郡川内村,大字上川内字久保２１番地,,07,544,9791201,,,,,,,2024-10-09,1,,,,,ミドリノマキバクロサワボクジョウ,0
2237,8480001012617,新規,0,2024-10-09,2024-10-09,株式会社徳島いいとこ不動産,,株式会社,徳島県,徳島市,佐古二番町１２番７号,,36,201,7700022,,,,,,,2024-10-09,1,,,,,トクシマイイトコフドウサン,0
2241,8490001010883,新規,0,2024-10-09,2024-10-09,株式会社Ｆｌｕｖｅｌ,,株式会社,高知県,高知市,帯屋町１丁目１４－９,,39,201,7800841,,,,,,,2024-10-09,1,,,,,フラヴェル,0
2243,8490003001939,新規,0,2024-10-09,2024-10-09,合同会社Ｄｏ‐Ｇａｎ,,合同会社,高知県,高知市,南はりまや町１丁目１４番８号,,39,201,7800833,,,,,,,2024-10-09,1,,,,,ドーガン,0
2252,8700150127036,新規,0,2024-10-09,2024-09-04,潮来食品衛生協会鉾田支部,,その他,茨城県,鉾田市,鉾田１３６７－３潮来保健所鉾田支所内,,08,234,3111517,,,,,,,2024-09-04,1,,,,,イタコシヨクヒンエイセイキヨウカイホコタシブ,0
2253,8700150127176,新規,0,2024-10-09,2024-09-19,北摂丹波アップストリーム農泊協議会,,その他,兵庫県,丹波篠山市,後川下５１６,,28,221,6692424,,,,,,,2024-09-19,1,,,,,ホクセツタンバアツプストリームノウハクキヨウギカイ,0
2254,8700150127465,新規,0,2024-10-09,2024-10-09,Ｓｈｅｎｚｈｅｎ　Ｓｈｅｎｇｙｉｎ　Ｔｅｃｈｎｏｌｏｇｙ　Ｃｏ．，Ｌｔｄ．,,外国会社等,,,,,,,,Ｒｏｏｍ　１４２３Ｕ，Ａｎｇｅｌ　Ｂｕｉｌｄｉｎｇ，Ｎｏ．５２　Ｂｅｇｕａ　４ｔｈ　Ｒｏａｄ，Ｈｕａｌｉｎ　Ｃｏｍｍｕｎｉｔｙ，Ｙｕａｎｌｉｎｇ　Ｓｔｒｅｅｔ，Ｆｕｔｉａｎ　Ｄｉｓｔｒｉｃｔ，Ｓｈｅｎｚｈｅｎ　Ｃｈｉｎａ,,,,,,2024-10-09,1,,,,,シンセンシセイインカギユウゲンコウシ,0
2259,9010001248769,新規,0,2024-10-09,2024-10-09,ＡＩフュージョンキャピタルグループ株式会社,,株式会社,東京都,千代田区,紀尾井町４番１号,,13,101,1020094,,,,,,,2024-10-09,1,,,,,エーアイフュージョンキャピタルグループ,0
2260,9010003045132,新規,0,2024-10-09,2024-10-09,合同会社バッテリーパーク９,,合同会社,東京都,千代田区,丸の内１丁目４番１号丸の内永楽ビルディング２６０５室,,13,101,1000005,,,,,,,2024-10-09,1,,,,,バッテリーパークナイン,0
2261,9010003045149,新規,0,2024-10-09,2024-10-09,合同会社Ｕｎｉｃｏｍ,,合同会社,東京都,千代田区,神田須田町１丁目７番８号ＶＯＲＴ秋葉原ＩＶ２Ｆ,00136578,13,101,1010041,,,,,,,2024-10-09,1,,,,,ユニコム,0
2266,9010401184829,新規,0,2024-10-09,2024-10-09,株式会社ａｂｉｔｏ,,株式会社,東京都,港区,六本木３丁目１－３０Ａ・Ｂビル６Ｆ,,13,103,1060032,,,,,,,2024-10-09,1,,,,,アビト,0
2267,9010401185397,新規,0,2024-10-09,2024-10-09,株式会社Ｌ,,株式会社,東京都,港区,西麻布３丁目９番５号ＮＩＳＨＩＡＺＡＢＵ３９５－１Ｆ,,13,103,1060031,,,,,,,2024-10-09,1,,,,,エル,0
2268,9010401185496,新規,0,2024-10-09,2024-10-09,崑崙株式会社,,株式会社,東京都,港区,六本木７丁目７番１３－２３０１号,,13,103,1060032,,,,,,,2024-10-09,1,,,,,コンロン,0
2269,9010401185562,新規,0,2024-10-09,2024-10-09,株式会社Ｄｉｇｉｔａｌ　ＤＩＧ,,株式会社,東京都,港区,南青山３丁目１番３６号青山丸竹ビル６Ｆ,,13,103,1070062,,,,,,,2024-10-09,1,,,,,デジタルディグ,0
2270,9010401185579,新規,0,2024-10-09,2024-10-09,株式会社ＳＨＩＥＮロジスティクス,,株式会社,東京都,港区,浜松町１丁目３番２号パークコート浜離宮ザ・タワー５１９,,13,103,1050013,,,,,,,2024-10-09,1,,,,,シエンロジスティクス,0
2271,9010401185595,新規,0,2024-10-09,2024-10-09,株式会社Ｋａｉ,,株式会社,東京都,港区,北青山１丁目３番１号アールキューブ青山３階,,13,103,1070061,,,,,,,2024-10-09,1,,,,,カイ,0
2273,9010403033554,新規,0,2024-10-09,2024-10-09,Ｓｕｍｉｔａ　Ｔｏｎｏ　Ａｃｑｕｉｓｉｔｉｏｎ　Ｃｏｍｐａｎｙ合同会社,,合同会社,東京都,港区,赤坂１丁目１１番４４号赤坂インターシティ,,13,103,1070052,,,,,,,2024-10-09,1,,,,,スミタトオノアクイジションカンパニー,0
2274,9010403033579,新規,0,2024-10-09,2024-10-09,ＭＴ＆ＳＨホテルマネジメント合同会社,,合同会社,東京都,港区,虎ノ門４丁目１番１号,,13,103,1050001,,,,,,,2024-10-09,1,,,,,エムティーアンドエスエイチホテルマネジメント,0
2275,9010405023586,新規,0,2024-10-09,2024-10-09,一般社団法人国際長寿医学会,,その他の設立登記法人,東京都,港区,南麻布５丁目１５番２－２０５号,,13,103,1060047,,,,,,,2024-10-09,1,,,,,コクサイチョウジュイガクカイ,0
2293,9011001165021,新規,0,2024-10-09,2024-10-09,株式会社ＫＭＣ,,株式会社,東京都,渋谷区,恵比寿２丁目４番８号ウィンド恵比寿ビル８階,,13,113,1500013,,,,,,,2024-10-09,1,,,,,ケーエムシー,0
2294,9011001165062,新規,0,2024-10-09,2024-10-09,レバレジーズコーポレートサポート株式会社,,株式会社,東京都,渋谷区,渋谷２丁目２４番１２号,,13,113,1500002,,,,,,,2024-10-09,1,,,,,レバレジーズコーポレートサポート,0
2299,9011101109084,新規,0,2024-10-09,2024-10-09,順成株式会社,,株式会社,東京都,新宿区,西新宿７丁目７－２４ＧＳプラザ新宿４０５号室,,13,104,1600023,,,,,,,2024-10-09,1,,,,,ジュンセイ,0
2311,9011501031210,新規,0,2024-10-09,2024-10-09,株式会社医薬パートナー,,株式会社,東京都,北区,赤羽３丁目２５番２号２０３号室,,13,117,1150045,,,,,,,2024-10-09,1,,,,,イヤクパートナー,0
2312,9011501031227,新規,0,2024-10-09,2024-10-09,株式会社ｓｃａｒｌｅｔ,,株式会社,東京都,北区,十条仲原４丁目１２番３号,,13,117,1140031,,,,,,,2024-10-09,1,,,,,スカーレット,0
2313,9011501031243,新規,0,2024-10-09,2024-10-09,Ｓ＆Ｙ　Ｌｉｖｉｎｇ株式会社,,株式会社,東京都,北区,王子本町１丁目３番１－８０３号,,13,117,1140022,,,,,,,2024-10-09,1,,,,,エスアンドワイリビング,0
2314,9011503006243,新規,0,2024-10-09,2024-10-09,合同会社ＮＳＮソリューションズ,,合同会社,東京都,北区,滝野川７丁目４６番２－１３０４号パークアクシス西巣鴨,,13,117,1140023,,,,,,,2024-10-09,1,,,,,エヌエスエヌソリューションズ,0
2322,9011801044969,新規,0,2024-10-09,2024-10-09,株式会社マルオカ商事,,株式会社,東京都,葛飾区,南水元１丁目２６番２号,,13,122,1250035,,,,,,,2024-10-09,1,,,,,マルオカショウジ,0
2323,9011803006496,新規,0,2024-10-09,2024-10-09,合同会社ＥＹ,,合同会社,東京都,足立区,東和５丁目１５番１０－３０３号,,13,121,1200003,,,,,,,2024-10-09,1,,,,,イーワイ,0
2327,9012405005052,新規,0,2024-10-09,2024-10-09,一般社団法人ＯＰＥＲＡＲＯＯＭ,,その他の設立登記法人,東京都,調布市,富士見町３丁目１５番地５０,,13,208,1820033,,,,,,,2024-10-09,1,,,,,オペラルーム,0
2328,9012701018476,新規,0,2024-10-09,2024-10-09,株式会社Ｏ‐ｃｕｂｅ,,株式会社,東京都,東久留米市,氷川台１丁目２４番１２号,,13,222,2030004,,,,,,,2024-10-09,1,,,,,オーキューブ,0
2332,9020001159503,新規,0,2024-10-09,2024-10-09,株式会社みらい工務店,,株式会社,神奈川県,横浜市旭区,桐が作１８８１番地４アネックス佐藤２０２号,,14,112,2410832,,,,,,,2024-10-09,1,,,,,ミライコウムテン,0
2333,9020001159511,新規,0,2024-10-09,2024-10-09,株式会社アクトライズサポート,,株式会社,神奈川県,横浜市鶴見区,鶴見中央５丁目７番２号プラーズ鶴見中央３、２１７号室,,14,101,2300051,,,,,,,2024-10-09,1,,,,,アクトライズサポート,0
2334,9020001159536,新規,0,2024-10-09,2024-10-09,株式会社音部建設,,株式会社,神奈川県,川崎市川崎区,鋼管通２丁目６番８－１号,,14,131,2100852,,,,,,,2024-10-09,1,,,,,オトベケンセツ,0
2339,9020003026973,新規,0,2024-10-09,2024-10-09,合同会社Ｊ‐Ｒｉｓｅ,,合同会社,神奈川県,横浜市港北区,日吉本町４丁目１４－１－２２９,,14,109,2230062,,,,,,,2024-10-09,1,,,,,ジェイライズ,0
2342,9021001083453,新規,0,2024-10-09,2024-10-09,株式会社ドット・セブンティーン,,株式会社,神奈川県,海老名市,中新田３丁目１７番５８－９号,,14,215,2430422,,,,,,,2024-10-09,1,,,,,ドットセブンティーン,0
2344,9021003015074,新規,0,2024-10-09,2024-10-09,偲葬祭合同会社,,合同会社,神奈川県,相模原市中央区,田名１８３８番地６号,,14,152,2520244,,,,,,,2024-10-09,1,,,,,シノブソウサイ,0
2345,9021003015082,新規,0,2024-10-09,2024-10-09,ＫＥＮＺＯ　ＤｅｓｉｇｎＷｏｒｋｓ合同会社,,合同会社,神奈川県,相模原市南区,古淵２丁目３番１４号,,14,153,2520344,,,,,,,2024-10-09,1,,,,,ケンゾウデザインワークス,0
2367,9040003025916,新規,0,2024-10-09,2024-10-09,合同会社Ｃｏｌｏｒｆｕｌｅｓｔ,,合同会社,千葉県,松戸市,松戸１８１８ルフォン松戸ザレジデンス２０５,,12,207,2710092,,,,,,,2024-10-09,1,,,,,カラフレスト,0
2368,9040005022531,新規,0,2024-10-09,2024-10-09,医療法人社団グリーンデンタル,,その他の設立登記法人,千葉県,香取郡東庄町,笹川い４５３９番地７４,,12,349,2890601,,,,,,,2024-10-09,1,,,,,グリーンデンタル,0
2370,9050001055518,新規,0,2024-10-09,2024-10-09,株式会社日電アート,,株式会社,茨城県,稲敷郡美浦村,大字信太２８７６番地１６,,08,442,3000414,,,,,,,2024-10-09,1,,,,,ニチデンアート,0
2374,9060001037564,新規,0,2024-10-09,2024-10-09,不二創業株式会社,,株式会社,栃木県,那須郡那須町,大字高久乙１８７３番地１５４,,09,407,3250303,,,,,,,2024-10-09,1,,,,,フジソウギョウ,0
2376,9070001042233,新規,0,2024-10-09,2024-10-09,株式会社Ｌａｎｄｉｃ,,株式会社,群馬県,佐波郡玉村町,大字上新田６７６－１７,,10,464,3701133,,,,,,,2024-10-09,1,,,,,,0
2382,9080101025046,新規,0,2024-10-09,2024-10-09,華味株式会社,,株式会社,静岡県,沼津市,大手町５丁目４番１１号,,22,203,4100801,,,,,,,2024-10-09,1,,,,,ファーウェイ,0
2383,9080101025054,新規,0,2024-10-09,2024-10-09,トレイバー株式会社,,株式会社,静岡県,熱海市,田原本町７番１４号,,22,205,4130011,,,,,,,2024-10-09,1,,,,,トレイバー,0
2393,9110001038755,新規,0,2024-10-09,2024-10-09,株式会社はやかわ,,株式会社,新潟県,阿賀野市,畑江２７５番地の２,,15,223,9591924,,,,,,,2024-10-09,1,,,,,ハヤカワ,0
2402,9120001269093,新規,0,2024-10-09,2024-10-09,株式会社恋蘭興業,,株式会社,大阪府,大阪市住吉区,遠里小野６丁目４番７号,,27,120,5580032,,,,,,,2024-10-09,1,,,,,レンカコウギョウ,0
2403,9120001269143,新規,0,2024-10-09,2024-10-09,エムズスタイル株式会社,,株式会社,大阪府,大阪市中央区,内久宝寺町２丁目２番２２－１３０７号,,27,128,5400013,,,,,,,2024-10-09,1,,,,,エムズスタイル,0
2404,9120001269151,新規,0,2024-10-09,2024-10-09,Ｄｗｉｌａｒ　Ｊａｐａｎ株式会社,,株式会社,大阪府,大阪市北区,梅田１丁目２番２号大阪駅前第２ビル１２－１２,,27,127,5300001,,,,,,,2024-10-09,1,,,,,ドゥウィラージャパン,0
2405,9120003027680,新規,0,2024-10-09,2024-10-09,合同会社Ｒａｆ,,合同会社,大阪府,大阪市浪速区,日本橋東１丁目６番７－１４０２号,,27,111,5560006,,,,,,,2024-10-09,1,,,,,ラフ,0
2406,9120003027689,新規,0,2024-10-09,2024-10-09,ＧＰＫ合同会社,,合同会社,大阪府,大阪市平野区,瓜破４丁目２番５３号,,27,126,5470024,,,,,,,2024-10-09,1,,,,,ジーピーケー,0
2407,9120003027706,新規,0,2024-10-09,2024-10-09,合同会社ＮＡＮＡＴＡＮ,,合同会社,大阪府,大阪市生野区,中川東２丁目１６－４生野コーポ３０１号,,27,116,5440006,,,,,,,2024-10-09,1,,,,,ナナタン,0
2414,9120901049883,新規,0,2024-10-09,2024-10-09,グローバルペットフードラボ株式会社,,株式会社,大阪府,豊中市,新千里東町１丁目４番１号,,27,203,5600082,,,,,,,2024-10-09,1,,,,,グローバルペットフードラボ,0
2419,9130003009918,新規,0,2024-10-09,2024-10-09,合同会社ジーダム,,合同会社,京都府,福知山市,広峯町７８番地,,26,201,6200945,,,,,,,2024-10-09,1,,,,,ジーダム,0
2430,9140001135946,新規,0,2024-10-09,2024-10-09,コウヅキホールディングス株式会社,,株式会社,兵庫県,小野市,黒川町５７５番地,,28,218,6751371,,,,,,,2024-10-09,1,,,,,コウヅキホールディングス,0
2431,9140001136044,新規,0,2024-10-09,2024-10-09,株式会社ＭＯＲＥＴＨＡＮ,,株式会社,兵庫県,神戸市東灘区,青木２丁目２番１－１１０６号,,28,101,6580027,,,,,,,2024-10-09,1,,,,,モアザン,0
2441,9180001163596,新規,0,2024-10-09,2024-10-09,株式会社ＪａｖａＰｒｉｍｅ,,株式会社,愛知県,名古屋市中区,古渡町１８番９号ＴＳＵＮＯＫＹＵ名古屋ビル,,23,106,4600025,,,,,,,2024-10-09,1,,,,,ジャバプライム,0
2444,9180003027460,新規,0,2024-10-09,2024-10-09,合同会社Ｙｕｋｉｍｏｏ,,合同会社,愛知県,北名古屋市,久地野９番地１,,23,234,4810012,,,,,,,2024-10-09,1,,,,,ユキモー,0
2445,9180003027469,新規,0,2024-10-09,2024-10-09,合同会社虹友,,合同会社,愛知県,名古屋市北区,成願寺２丁目２番９号,,23,103,4620021,,,,,,,2024-10-09,1,,,,,ニジトモ,0
2446,9180003027477,新規,0,2024-10-09,2024-10-09,本郷メディアスタジオ合同会社,,合同会社,愛知県,豊明市,沓掛町西本郷３８番地１,,23,229,4701101,,,,,,,2024-10-09,1,,,,,ホンゴウメディアスタジオ,0
2447,9180005020793,新規,0,2024-10-09,2024-10-09,一般社団法人地域精神保健サービス提供者日本ネットワーク,,その他の設立登記法人,愛知県,名古屋市中区,千代田３丁目１６番地７鶴舞こころのクリニック,,23,106,4600012,,,,,,,2024-10-09,1,,,,,チイキセイシンホケンサービステイキョウシャニホンネットワーク,0
2448,9180301039133,新規,0,2024-10-09,2024-10-09,リカバリー＆スタート株式会社,,株式会社,愛知県,豊田市,花園町屋敷２９番地１０５,,23,211,4730924,,,,,,,2024-10-09,1,,,,,リカバリーアンドスタート,0
2451,9190001031703,新規,0,2024-10-09,2024-10-09,ＣＯＰＲＡＳホールディングス株式会社,,株式会社,三重県,鈴鹿市,道伯町２１３９番地の１０５,,24,207,5130824,,,,,,,2024-10-09,1,,,,,コプラスホールディングス,0
2453,9190003004822,新規,0,2024-10-09,2024-10-09,合同会社ＮＡＫＡＹＡＭＡ,,合同会社,三重県,伊勢市,古市町１５６番地,,24,203,5160033,,,,,,,2024-10-09,1,,,,,ナカヤマ,0
2458,9220003003853,新規,0,2024-10-09,2024-10-09,合同会社百践錬磨,,合同会社,石川県,金沢市,久安２丁目３６４番地,,17,201,9218164,,,,,,,2024-10-09,1,,,,,ヒャクセンレンマ,0
2465,9260003004914,新規,0,2024-10-09,2024-10-09,Ｃａｓｃａｄｅ合同会社,,合同会社,岡山県,玉野市,滝１０３７,,33,204,7060153,,,,,,,2024-10-09,1,,,,,カスケード,0
2471,9290003015883,新規,0,2024-10-09,2024-10-09,旭陽興業合同会社,,合同会社,福岡県,福岡市西区,姪の浜４丁目１１番３－１０５号マキシム姪浜,,40,135,8190002,,,,,,,2024-10-09,1,,,,,キョクヨウコウギョウ,0
2474,9290801030935,新規,0,2024-10-09,2024-10-09,株式会社ＦＵＮ　ＰＬＡＣＥ,,株式会社,福岡県,北九州市八幡西区,相生町４番３号,,40,109,8060044,,,,,,,2024-10-09,1,,,,,ファンプレイス,0
2475,9290801030943,新規,0,2024-10-09,2024-10-09,株式会社ラン,,株式会社,福岡県,北九州市小倉南区,朽網東２丁目２７番１２号,,40,107,8000232,,,,,,,2024-10-09,1,,,,,ラン,0
2489,9330003010590,新規,0,2024-10-09,2024-10-09,合同会社ｐａｒｃ,,合同会社,熊本県,熊本市西区,蓮台寺１丁目２番２０号,,43,103,8600055,,,,,,,2024-10-09,1,,,,,パルク,0
2497,9360001034291,新規,0,2024-10-09,2024-10-09,株式会社サンテラス,,株式会社,沖縄県,那覇市,字与儀３６６番地９,,47,201,9020076,,,,,,,2024-10-09,1,,,,,サンテラス,0
2498,9360005007104,新規,0,2024-10-09,2024-10-09,社会保険労務士法人宮里コンサルタント,,その他の設立登記法人,沖縄県,那覇市,久米２丁目１９番８号２Ｆ,,47,201,9000033,,,,,,,2024-10-09,1,,,,,ミヤザトコンサルタント,0
2499,9370001051798,新規,0,2024-10-09,2024-10-09,株式会社Ｄｅｆｌｅｃｔｉｏｎ,,株式会社,宮城県,塩竈市,楓町１丁目２番１号,,04,203,9850084,,,,,,,2024-10-09,1,,,,,ディフレクション,0
2508,9430001092811,新規,0,2024-10-09,2024-10-09,株式会社アイ・イーエヌホールディングス,,株式会社,北海道,札幌市西区,琴似一条３丁目３番１２号しなねん琴似ビル,,01,107,0630811,,,,,,,2024-10-09,1,,,,,アイイーエヌホールディングス,0
2510,9450001014425,新規,0,2024-10-09,2024-10-09,株式会社志フードサービス,,株式会社,北海道,旭川市,豊岡七条４丁目１番４号,,01,204,0788237,,,,,,,2024-10-09,1,,,,,ココロザシフードサービス,0
2519,9490003001938,新規,0,2024-10-09,2024-10-09,合同会社ユーフォリンクス,,合同会社,高知県,四万十市,安並２４８９番地,,39,210,7870008,,,,,,,2024-10-09,1,,,,,ユーフォリンクス,0
2532,9700150127464,新規,0,2024-10-09,2024-10-09,ＳＭＳ　ＧＲＯＵＰ　Ｓ．Ｐ．Ａ．,,外国会社等,,,,,,,,ＴＡＲＣＥＮＴＯ　（ＵＤ）　ＶＩＡ　ＵＤＩＮＥ　１０３　ＣＡＰ　３３０１７，ＩＴＡＬＹ,,,,,,2024-10-09,1,,,,,エスエムエスグループエスピーエー,0
