sequenceNumber,corporateNumber,process,correct,updateDate,changeDate,name,nameImageId,kind,prefectureName,cityName,streetNumber,addressImageId,prefectureCode,cityCode,postCode,addressOutside,addressOutsideImageId,closeDate,closeCause,successorCorporateNumber,changeCause,assignmentDate,latest,enName,enPrefectureName,enCityName,enAddressOutside,furigana,hihyoji
22,1010403006121,登記記録の閉鎖等,0,2023-02-15,2023-02-01,ＵＮＪプロパティーズ合同会社,,合同会社,東京都,港区,虎ノ門３丁目２２番１０－２０１号,,13,103,1050001,,,2023-02-01,清算の結了等,,,2015-10-05,1,,,,,ユーエヌジェープロパティーズ,0
24,1010501017103,登記記録の閉鎖等,0,2023-02-15,2023-02-14,株式会社ジャパンコンピュータネットワーク,,株式会社,東京都,台東区,千束４丁目２５番６号,,13,106,1110031,,,2023-02-14,清算の結了等,,,2015-10-05,1,,,,,,0
37,1010901023915,登記記録の閉鎖等,0,2023-02-15,2023-02-08,株式会社チェントセッテ,,株式会社,東京都,世田谷区,桜新町１丁目２１番１１号,,13,112,1540015,,,2023-02-08,清算の結了等,,,2015-10-05,1,,,,,チェントセッテ,0
55,1011201011486,登記記録の閉鎖等,0,2023-02-15,2023-02-09,株式会社ＫＫパートナーズ,,株式会社,東京都,中野区,大和町４丁目２番１１号,,13,114,1650034,,,2023-02-09,清算の結了等,,,2015-10-05,1,,,,,ケイケイパートナーズ,0
57,1011201020685,登記記録の閉鎖等,0,2023-02-15,2023-02-08,株式会社トライリミテッド,,株式会社,東京都,千代田区,外神田６丁目１番４号,,13,101,1010021,,,2023-02-08,清算の結了等,,,2018-06-08,1,,,,,トライリミテッド,0
62,1011801028129,登記記録の閉鎖等,0,2023-02-15,2023-02-13,株式会社レガウ,,株式会社,東京都,葛飾区,お花茶屋３丁目２４番１４号,,13,122,1240003,,,2023-02-13,清算の結了等,,,2015-10-05,1,,,,,レガウ,0
89,1021001072026,登記記録の閉鎖等,0,2023-02-15,2023-02-10,株式会社すぐのり,,株式会社,東京都,羽村市,神明台３丁目４番７号,,13,227,2050023,,,2023-02-10,清算の結了等,,,2021-02-04,1,,,,,スグノリ,0
95,1021005002978,登記記録の閉鎖等,0,2023-02-15,2023-02-10,特定非営利活動法人メンタルラボ,,その他の設立登記法人,神奈川県,相模原市南区,古淵２丁目１２番２－５０７号,,14,153,2520344,,,2023-02-10,清算の結了等,,,2015-10-05,1,,,,,メンタルラボ,0
106,1030005018579,登記記録の閉鎖等,0,2023-02-15,2023-02-13,特定非営利活動法人つぼみの会,,その他の設立登記法人,埼玉県,さいたま市南区,大字大谷口１８８８番地２,,11,108,3360042,,,2023-02-13,清算の結了等,,,2017-07-03,1,,,,,ツボミノカイ,0
107,1040001066894,登記記録の閉鎖等,0,2023-02-15,2023-02-10,株式会社ソーケンアービック,,株式会社,千葉県,我孫子市,南新木３丁目２番地の４,,12,222,2701119,,,2023-02-10,清算の結了等,,,2015-10-05,1,,,,,ソーケンアービック,0
112,1050003006658,登記記録の閉鎖等,0,2023-02-15,2023-02-10,合同会社ＫＯＤＡ貿易,,合同会社,茨城県,つくば市,梅園２丁目１番１５号,,08,220,3050045,,,2023-02-10,清算の結了等,,,2022-07-06,1,,,,,コウダボウエキ,0
118,1060002035847,登記記録の閉鎖等,0,2023-02-15,2023-02-13,有限会社川岸電化センター,,有限会社,栃木県,足利市,山下町１０５５番地の１０,,09,202,3260846,,,2023-02-13,清算の結了等,,,2015-10-05,1,,,,,カワギシデンカセンター,0
123,1100001001515,登記記録の閉鎖等,0,2023-02-15,2023-02-13,株式会社昭和通信社,,株式会社,長野県,長野市,早苗町６番地,,20,201,3800812,,,2023-02-13,清算の結了等,,,2015-10-05,1,,,,,ショウワツウシンシャ,0
124,1100001015787,登記記録の閉鎖等,0,2023-02-15,2023-02-13,松本度量衡株式会社,,株式会社,長野県,塩尻市,大字広丘堅石１５５６番地２,,20,215,3990705,,,2023-02-13,清算の結了等,,,2015-10-05,1,,,,,マツモトドリョウコウ,0
148,1120005009008,登記記録の閉鎖等,0,2023-02-15,2023-02-10,特定非営利活動法人花と緑あふれる日本のまちづくり協会,,その他の設立登記法人,大阪府,大阪市北区,西天満３丁目２番４号,,27,127,5300047,,,2023-02-10,清算の結了等,,,2015-10-05,1,,,,,ハナトミドリアフレルニホンノマチヅクリキョウカイ,0
153,1120901036501,登記記録の閉鎖等,0,2023-02-15,2023-02-10,株式会社ＭＴＦ,,株式会社,大阪府,豊中市,東豊中町４丁目２０番２４号,,27,203,5600003,,,2023-02-10,清算の結了等,,,2016-02-08,1,,,,,エムティーエフ,0
172,1180002088016,登記記録の閉鎖等,0,2023-02-15,2023-02-13,有限会社マルショウ建材店,,有限会社,愛知県,東海市,横須賀町天宝新田１番地の７,,23,222,4770036,,,2023-02-13,清算の結了等,,,2015-10-05,1,,,,,マルショウケンザイテン,0
176,1210001018597,登記記録の閉鎖等,0,2023-02-15,2023-02-13,株式会社光商事,,株式会社,福井県,大飯郡高浜町,鐘寄第１２号２番地,,18,481,9192212,,,2023-02-13,清算の結了等,,,2021-09-07,1,,,,,ヒカリショウジ,0
183,1250005008632,登記記録の閉鎖等,0,2023-02-15,2023-02-10,一般社団法人日本科学的介護推進協議会,,その他の設立登記法人,山口県,山口市,青葉台１５番２２号,,35,203,7530012,,,2023-02-10,清算の結了等,,,2020-12-18,1,,,,,ニホンカガクテキカイゴスイシンキョウギカイ,0
195,1310001016822,登記記録の閉鎖等,0,2023-02-15,2023-02-14,融和産業株式会社,,株式会社,長崎県,長崎市,平野町１－１アドバンスビル２Ｆ,,42,201,8528117,,,2023-02-14,清算の結了等,,,2020-08-13,1,,,,,ユウワサンギョウ,0
207,1370002005851,登記記録の閉鎖等,0,2023-02-15,2023-02-13,有限会社ひまわり生花店,,有限会社,宮城県,仙台市若林区,木ノ下５丁目３番２１号,,04,103,9840047,,,2023-02-13,清算の結了等,,,2015-10-05,1,,,,,ヒマワリセイカテン,0
219,1430002057754,登記記録の閉鎖等,0,2023-02-15,2023-02-03,有限会社ヤマサイチ本間売炭所,,有限会社,北海道,岩内郡岩内町,字万代３９番地の５,,01,402,0450003,,,2023-02-03,清算の結了等,,,2015-10-05,1,,,,,ヤマサイチホンマバイタンジョ,0
226,1700150107473,削除,,2023-02-15,,,,,,,,,,,,,,,,,,,,,,,,,
246,2010503005518,登記記録の閉鎖等,0,2023-02-15,2023-02-14,合同会社総武企画,,合同会社,東京都,台東区,上野６丁目８番１９号,,13,106,1100005,,,2023-02-14,清算の結了等,,,2019-02-13,1,,,,,ソウブキカク,0
279,2011601001185,登記記録の閉鎖等,0,2023-02-15,2023-02-10,オー・ティー・トレーディング株式会社,,株式会社,東京都,練馬区,桜台２丁目３０番８号,,13,120,1760002,,,2023-02-10,清算の結了等,,,2015-10-05,1,,,,,オーティートレーディング,0
312,2021002030840,登記記録の閉鎖等,0,2023-02-15,2023-02-10,有限会社岩崎精工,,有限会社,神奈川県,厚木市,温水１９５１番地の４,,14,212,2430033,,,2023-02-10,清算の結了等,,,2015-10-05,1,,,,,イワサキセイコウ,0
313,2021005002192,登記記録の閉鎖等,0,2023-02-15,2023-02-10,特定非営利活動法人俳句体験,,その他の設立登記法人,神奈川県,鎌倉市,二階堂２３１番地１,,14,204,2480002,,,2023-02-10,清算の結了等,,,2015-10-05,1,,,,,ハイクタイケン,0
317,2030001092255,登記記録の閉鎖等,0,2023-02-15,2023-02-13,ＭＩＮＡＴＯ　ＩＮＴＥＲＮＡＴＩＯＮＡＬ株式会社,,株式会社,埼玉県,春日部市,本田町１丁目１５６番地,,11,214,3440016,,,2023-02-13,清算の結了等,,,2015-10-05,1,,,,,ミナトインターナショナル,0
330,2040002063337,登記記録の閉鎖等,0,2023-02-15,2023-02-13,有限会社サワダ集成材,,有限会社,千葉県,八街市,東吉田７７６番地４,,12,230,2891114,,,2023-02-13,清算の結了等,,,2015-10-05,1,,,,,サワダシュウセイザイ,0
334,2050001005710,登記記録の閉鎖等,0,2023-02-15,2023-02-10,株式会社茨城カンセキ,,株式会社,茨城県,那珂市,竹ノ内４丁目１番地２,,08,226,3110110,,,2023-02-10,合併による解散等,8060001001208,令和５年２月１日栃木県宇都宮市西川田本町三丁目１番１号株式会社カンセキ（8060001001208）に合併し解散,2015-10-05,1,,,,,イバラキカンセキ,0
338,2050002044534,登記記録の閉鎖等,0,2023-02-15,2023-02-08,有限会社木下建築設計事務所,,有限会社,茨城県,結城市,大字結城３２６番地１,,08,207,3070001,,,2023-02-08,清算の結了等,,,2015-10-05,1,,,,,キノシタケンチクセッケイジムショ,0
359,2120001174696,登記記録の閉鎖等,0,2023-02-15,2023-02-10,株式会社ＳＵＳＵＳＵ　ＬＡＢ,,株式会社,大阪府,茨木市,上泉町７番１５号,,27,211,5670811,,,2023-02-10,清算の結了等,,,2015-10-05,1,,,,,スススラボ,0
407,2180302023951,登記記録の閉鎖等,0,2023-02-15,2023-02-09,有限会社ログハウス,,有限会社,愛知県,豊田市,伊保町金山４９番地１,,23,211,4700374,,,2023-02-09,清算の結了等,,,2015-10-05,1,,,,,ログハウス,0
415,2260002025034,登記記録の閉鎖等,0,2023-02-15,2023-02-13,有限会社鎌田工芸社,00003771,有限会社,岡山県,浅口郡里庄町,大字里見５９７８番地の１,,33,445,7190301,,,2023-02-13,清算の結了等,,,2015-10-05,1,,,,,,0
451,2380001010842,削除,,2023-02-15,,,,,,,,,,,,,,,,,,,,,,,,,
509,3011001005430,登記記録の閉鎖等,0,2023-02-15,2023-01-31,株式会社開発統計センター,,株式会社,東京都,渋谷区,千駄ヶ谷５丁目１６－１３,,13,113,1510051,,,2023-01-31,清算の結了等,,,2015-10-05,1,,,,,,0
518,3011001114009,登記記録の閉鎖等,0,2023-02-15,2023-02-01,株式会社フォルトゥーナクロス,,株式会社,東京都,港区,南青山１丁目１５番２号,,13,103,1070062,,,2023-02-01,合併による解散等,1011001041881,令和５年２月１日東京都港区南青山一丁目１５番２号株式会社アイエフシー・コーポレーション（1011001041881）に合併し解散,2016-12-13,1,,,,,フォルトゥーナクロス,0
542,3013202004310,登記記録の閉鎖等,0,2023-02-15,2023-02-08,有限会社デザイン・ドライブ,,有限会社,東京都,中央区,日本橋小網町８－２,,13,102,1030016,,,2023-02-08,清算の結了等,,,2015-10-05,1,,,,,デザインドライブ,0
578,3040002097524,登記記録の閉鎖等,0,2023-02-15,2023-02-10,有限会社ヒノデ工業,,有限会社,千葉県,野田市,日の出町２番地２２,,12,208,2700234,,,2023-02-10,清算の結了等,,,2015-10-05,1,,,,,ヒノデコウギョウ,0
591,3060002037115,登記記録の閉鎖等,0,2023-02-15,2023-02-13,有限会社春博,,有限会社,栃木県,足利市,山下町２３８９番地の１１,,09,202,3260846,,,2023-02-13,清算の結了等,,,2015-10-05,1,,,,,ハルヒロ,0
610,3100002036772,登記記録の閉鎖等,0,2023-02-15,2023-02-10,有限会社千登勢,,有限会社,長野県,飯田市,常盤町２２番地,,20,205,3950033,,,2023-02-10,清算の結了等,,,2015-10-05,1,,,,,チトセ,0
647,3170005006295,登記記録の閉鎖等,0,2023-02-15,2023-02-15,一般社団法人日本インバウンド教育協会,,その他の設立登記法人,和歌山県,和歌山市,西高松１丁目１４番３号,,30,201,6410051,,,2023-02-15,清算の結了等,,,2015-10-05,1,,,,,ニホンインバウンドキョウイクキョウカイ,0
722,3500005002608,登記記録の閉鎖等,0,2023-02-15,2023-02-15,税理士法人田原・鳥井事務所,,その他の設立登記法人,愛媛県,松山市,雄郡１丁目９番３８号,,38,201,7900031,,,2023-02-15,清算の結了等,,,2015-10-05,1,,,,,タハラトリイジムショ,0
723,3700150111936,削除,,2023-02-15,,,,,,,,,,,,,,,,,,,,,,,,,
736,4010005022687,登記記録の閉鎖等,0,2023-02-15,2023-02-06,一般社団法人士業ネット・プロサポ,,その他の設立登記法人,東京都,中央区,日本橋本石町４丁目２番１６号,,13,102,1030021,,,2023-02-06,清算の結了等,,,2015-10-05,1,,,,,シギョウネットプロサポ,0
741,4010401120292,登記記録の閉鎖等,0,2023-02-15,2023-02-14,ジャンバ・ジャパン株式会社,,株式会社,東京都,新宿区,中落合４丁目２０番８号,,13,104,1610032,,,2023-02-14,清算の結了等,,,2015-10-05,1,,,,,ジャンバジャパン,0
742,4010401153490,登記記録の閉鎖等,0,2023-02-15,2023-02-01,株式会社スパディア,,株式会社,東京都,港区,赤坂４丁目３番２８号,,13,103,1070052,,,2023-02-01,合併による解散等,8010001194460,令和５年２月１日東京都港区赤坂四丁目３番２８号株式会社リアンジェ（8010001194460）に合併し解散,2020-06-23,1,,,,,スパディア,0
761,4010801001803,登記記録の閉鎖等,0,2023-02-15,2023-02-02,株式会社エム・ケイ企画,,株式会社,東京都,大田区,東嶺町３番１４号,,13,111,1450074,,,2023-02-02,清算の結了等,,,2015-10-05,1,,,,,エムケイキカク,0
772,4011101056050,登記記録の閉鎖等,0,2023-02-15,2023-02-14,株式会社アイ・ケー企画インターナショナル,,株式会社,東京都,新宿区,市谷加賀町２丁目４番３号,,13,104,1620062,,,2023-02-14,清算の結了等,,,2015-10-05,1,,,,,アイケーキカクインターナショナル,0
777,4011502007478,登記記録の閉鎖等,0,2023-02-15,2023-02-06,有限会社大島ジュエリー,,有限会社,東京都,荒川区,西尾久１丁目７番６号,,13,118,1160011,,,2023-02-06,清算の結了等,,,2015-10-05,1,,,,,,0
782,4011803003176,登記記録の閉鎖等,0,2023-02-15,2023-02-08,合同会社Ｉｃｏｎｎｅｃｔ,,合同会社,東京都,足立区,南花畑５丁目２２番１１－４０４号,,13,121,1210062,,,2023-02-08,清算の結了等,,,2018-02-23,1,,,,,,0
789,4020001056399,登記記録の閉鎖等,0,2023-02-15,2023-02-13,株式会社藤田建装,,株式会社,神奈川県,横浜市南区,浦舟町２丁目２３番地６ストーク横浜医大前７０２,,14,105,2320024,,,2023-02-13,清算の結了等,,,2015-10-05,1,,,,,,0
813,4030001034263,登記記録の閉鎖等,0,2023-02-15,2023-02-10,株式会社健康総研,,株式会社,埼玉県,所沢市,大字上安松８０５番地の１３,,11,208,3590025,,,2023-02-10,清算の結了等,,,2015-10-05,1,,,,,ケンコウソウケン,0
822,4030003012416,登記記録の閉鎖等,0,2023-02-15,2023-02-01,ＣＯＤＥ　ＴＥＣＨＮＩＱ株式会社,,株式会社,東京都,港区,元麻布３丁目１番６号,,13,103,1060046,,,2023-02-01,清算の結了等,,,2018-09-12,1,,,,,コードテクニック,0
826,4040001119988,登記記録の閉鎖等,0,2023-02-15,2023-02-13,星辰株式会社,,株式会社,千葉県,習志野市,東習志野３丁目１１番１９号オリーブハウス１０２,,12,216,2750001,,,2023-02-13,清算の結了等,,,2021-09-02,1,,,,,セイシン,0
837,4040003005352,登記記録の閉鎖等,0,2023-02-15,2023-02-13,ＳＡＣＨＩ　Ｄｅｓｉｇｎ合同会社,,合同会社,千葉県,千葉市美浜区,中瀬１丁目３番地幕張テクノガーデンＣＢ棟３階ＭＢＰ,,12,106,2610023,,,2023-02-13,清算の結了等,,,2015-10-05,1,,,,,,0
927,4200002019329,登記記録の閉鎖等,0,2023-02-15,2023-02-13,有限会社若竹中華飯店,,有限会社,岐阜県,関市,出来町７番地,,21,205,5013842,,,2023-02-13,清算の結了等,,,2015-10-05,1,,,,,ワカタケチュウカハンテン,0
946,4260001023375,登記記録の閉鎖等,0,2023-02-15,2023-02-06,株式会社まつげラボ・ウルル,,株式会社,岡山県,和気郡和気町,吉田１３７６番地１,,33,346,7090411,,,2023-02-06,清算の結了等,,,2015-10-05,1,,,,,マツゲラボウルル,0
974,4340003003788,登記記録の閉鎖等,0,2023-02-15,2023-02-14,合同会社煙福,,合同会社,鹿児島県,鹿児島市,西佐多町２８０番地２２,,46,201,8911301,,,2023-02-14,清算の結了等,,,2022-05-17,1,,,,,エンフク,0
975,4350002009026,登記記録の閉鎖等,0,2023-02-15,2023-02-10,有限会社真和電機,,有限会社,宮崎県,児湯郡高鍋町,大字北高鍋３３４４番地１,,45,401,8840002,,,2023-02-10,清算の結了等,,,2015-10-05,1,,,,,シンワデンキ,0
978,4370005002216,登記記録の閉鎖等,0,2023-02-15,2023-02-13,特定非営利活動法人科学心を育む会,,その他の設立登記法人,宮城県,仙台市太白区,富沢１丁目７番５号,,04,104,9820032,,,2023-02-13,清算の結了等,,,2015-10-05,1,,,,,カガクココロヲハグクムカイ,0
982,4380002030128,登記記録の閉鎖等,0,2023-02-15,2023-02-10,有限会社セビリヤ,,有限会社,福島県,双葉郡富岡町,字夜の森北１丁目９２番地,,07,543,9791161,,,2023-02-10,清算の結了等,,,2015-10-05,1,,,,,セビリヤ,0
984,4390002001739,登記記録の閉鎖等,0,2023-02-15,2023-02-13,有限会社辰寿し,,有限会社,山形県,山形市,七日町４丁目１番３０号,,06,201,9900042,,,2023-02-13,清算の結了等,,,2015-10-05,1,,,,,タツズシ,0
1013,5010401002928,登記記録の閉鎖等,0,2023-02-15,2023-02-01,インターブリッジ株式会社,,株式会社,東京都,港区,芝公園３丁目１番３８号芝公園三丁目ビル,,13,103,1050011,,,2023-02-01,清算の結了等,,,2015-10-05,1,,,,,インターブリッジ,0
1014,5010401022686,登記記録の閉鎖等,0,2023-02-15,2023-02-01,日本装備株式会社,,株式会社,東京都,港区,芝大門２丁目１１番６号,,13,103,1050012,,,2023-02-01,清算の結了等,,,2015-10-05,1,,,,,ニホンソウビ,0
1020,5010401112454,登記記録の閉鎖等,0,2023-02-15,2023-02-01,エスアンドエスヒューマンホールディングスジャパン株式会社,,株式会社,東京都,港区,赤坂１丁目３番５号,,13,103,1070052,,,2023-02-01,清算の結了等,,,2015-10-05,1,,,,,エスアンドエスヒューマンホールディングスジャパン,0
1038,5010801003583,登記記録の閉鎖等,0,2023-02-15,2023-02-07,株式会社ケイスリーコーポレーション,,株式会社,東京都,大田区,上池台４丁目２０番１５号,,13,111,1450064,,,2023-02-07,清算の結了等,,,2015-10-05,1,,,,,ケイスリーコーポレーション,0
1052,5011101009461,登記記録の閉鎖等,0,2023-02-15,2023-02-02,株式会社情報センター出版局,,株式会社,東京都,港区,赤坂２丁目１４－１１,,13,103,1070052,,,2023-02-02,清算の結了等,,,2015-10-05,1,,,,,ジョウホウセンターシュッパンキョク,0
1056,5011101051604,登記記録の閉鎖等,0,2023-02-15,2023-02-13,株式会社耕事務所,,株式会社,埼玉県,川越市,大字野田１２９７番地１－４０８号,,11,201,3501111,,,2023-02-13,清算の結了等,,,2015-10-05,1,,,,,コウジムショ,0
1063,5011502009589,登記記録の閉鎖等,0,2023-02-15,2023-02-09,有限会社高田工務店,00055920,有限会社,東京都,荒川区,町屋７丁目８番７号,,13,118,1160001,,,2023-02-09,清算の結了等,,,2015-10-05,1,,,,,タカダコウムテン,0
1101,5040001058789,登記記録の閉鎖等,0,2023-02-15,2023-02-10,株式会社晃輝建設,,株式会社,千葉県,東金市,家徳４５６番地３,,12,213,2830062,,,2023-02-10,清算の結了等,,,2015-10-05,1,,,,,コウキケンセツ,0
1110,5070002008699,登記記録の閉鎖等,0,2023-02-15,2023-02-03,有限会社石井土建,,有限会社,群馬県,高崎市,台新田町１４９番地３,,10,202,3701206,,,2023-02-03,清算の結了等,,,2015-10-05,1,,,,,イシイドケン,0
1142,5120901045663,登記記録の閉鎖等,0,2023-02-15,2023-02-13,株式会社丸利不動産,,株式会社,大阪府,豊中市,庄内西町２丁目１番８号,,27,203,5610832,,,2023-02-13,清算の結了等,,,2022-03-04,1,,,,,マルトシフドウサン,0
1162,5180301009692,登記記録の閉鎖等,0,2023-02-15,2023-02-13,株式会社愛知ニコン,,株式会社,愛知県,豊川市,御津町佐脇浜二号地１番２,,23,207,4410304,,,2023-02-13,合併による解散等,7010601026618,令和５年２月１日東京都墨田区両国二丁目１０番８号株式会社ニコン・エシロール（7010601026618）に合併し解散,2015-10-05,1,,,,,アイチニコン,0
1169,5220001003677,登記記録の閉鎖等,0,2023-02-15,2023-02-10,積和建設北陸株式会社,,株式会社,石川県,金沢市,藤江北４丁目３０３番地,,17,201,9200345,,,2023-02-10,合併による解散等,8100001006441,令和５年２月１日長野県千曲市大字屋代１２７６番地３積水ハウス建設上信越株式会社（8100001006441）に合併し解散,2015-10-05,1,,,,,セキワケンセツホクリク,0
1195,5290003009930,登記記録の閉鎖等,0,2023-02-15,2023-02-08,合同会社Ａｆｒｉｃａ　Ｊａｐａｎ　Ｔｒａｄｉｎｇ,,合同会社,福岡県,福岡市城南区,松山１丁目１０番２２号イトーピア七隈マンション４１１号室,,40,136,8140131,,,2023-02-08,清算の結了等,,,2020-04-27,1,,,,,アフリカジャパントレーディング,0
1202,5320001000202,登記記録の閉鎖等,0,2023-02-15,2023-02-13,株式会社メディックス大分,,株式会社,大分県,大分市,大字下郡３０５５番地の１４,,44,201,8700951,,,2023-02-13,清算の結了等,,,2015-10-05,1,,,,,メディックスオオイタ,0
1214,5370001024799,登記記録の閉鎖等,0,2023-02-15,2023-02-13,エコプラス株式会社,,株式会社,宮城県,仙台市太白区,桜木町２１番２号,,04,104,9820835,,,2023-02-13,清算の結了等,,,2015-10-05,1,,,,,エコプラス,0
1227,5430001046399,登記記録の閉鎖等,0,2023-02-15,2023-02-13,川口商産株式会社,,株式会社,北海道,札幌市豊平区,美園七条２丁目５番１－４０７号,,01,105,0620007,,,2023-02-13,清算の結了等,,,2015-10-05,1,,,,,カワグチショウサン,0
1238,5700150107445,削除,,2023-02-15,,,,,,,,,,,,,,,,,,,,,,,,,
1247,6010001154929,登記記録の閉鎖等,0,2023-02-15,2023-02-01,株式会社ＹＯＯＭＡ　ＪＡＰＡＮ,,株式会社,東京都,港区,南青山２丁目２６番３２号セイザンＩ・８０１号室,00118965,13,103,1070062,,,2023-02-01,清算の結了等,,,2015-10-05,1,,,,,ユーマジャパン,0
1250,6010001216761,登記記録の閉鎖等,0,2023-02-15,2023-02-09,Ｉｎｄｕｓ３株式会社,,株式会社,東京都,千代田区,大手町１丁目６番１号,,13,101,1000004,,,2023-02-09,合併による解散等,2320001006490,令和５年２月１日大分県別府市大字鶴見１５８番地２株式会社風月（2320001006490）に合併し解散,2021-03-23,1,,,,,インダススリー,0
1270,6010501045743,登記記録の閉鎖等,0,2023-02-15,2023-02-08,株式会社養正源,,株式会社,東京都,台東区,元浅草２丁目６番４号上野コアビル８階,,13,106,1110041,,,2023-02-08,清算の結了等,,,2020-05-21,1,,,,,ヨウセイゲン,0
1273,6010701020637,登記記録の閉鎖等,0,2023-02-15,2023-02-13,桜工業写真株式会社,,株式会社,東京都,品川区,西五反田２丁目１０番８号ドルミ五反田ドゥメゾン６１１,,13,109,1410031,,,2023-02-13,清算の結了等,,,2015-10-05,1,,,,,サクラコウギョウシャシン,0
1281,6011001128617,登記記録の閉鎖等,0,2023-02-15,2023-02-09,株式会社ＣＩＬＢＡＳ,,株式会社,東京都,渋谷区,代々木４丁目３０番５号フェニックス西参道タワー２３０４,,13,113,1510053,,,2023-02-09,清算の結了等,,,2019-06-20,1,,,,,シリバス,0
1354,6040002086350,登記記録の閉鎖等,0,2023-02-15,2023-02-10,有限会社小川造園,,有限会社,千葉県,山武郡横芝光町,遠山３９９番地の１,,12,410,2891757,,,2023-02-10,清算の結了等,,,2015-10-05,1,,,,,オガワゾウエン,0
1362,6070002010332,登記記録の閉鎖等,0,2023-02-15,2023-02-13,有限会社清水タイヤ工業所,,有限会社,群馬県,高崎市,請地町１６番地,,10,202,3700067,,,2023-02-13,清算の結了等,,,2015-10-05,1,,,,,シミズタイヤコウギョウショ,0
1364,6070002013467,登記記録の閉鎖等,0,2023-02-15,2023-02-13,有限会社阿部製作所,,有限会社,群馬県,高崎市,剣崎町６１１番地１,,10,202,3700883,,,2023-02-13,清算の結了等,,,2015-10-05,1,,,,,アベセイサクショ,0
1368,6080402009428,登記記録の閉鎖等,0,2023-02-15,2023-02-14,有限会社幡建設,,有限会社,静岡県,湖西市,梅田２７１番地の１,,22,221,4310425,,,2023-02-14,清算の結了等,,,2015-10-05,1,,,,,ハタケンセツ,0
1373,6100002015609,登記記録の閉鎖等,0,2023-02-15,2023-02-10,有限会社大竹,,有限会社,長野県,上田市,天神４丁目１４番１７号,,20,203,3860025,,,2023-02-10,清算の結了等,,,2015-10-05,1,,,,,オオタケ,0
1374,6100002017381,登記記録の閉鎖等,0,2023-02-15,2023-02-10,有限会社深雪野パークプラザ,,有限会社,長野県,飯山市,大字豊田７１５３番地,,20,213,3892411,,,2023-02-10,清算の結了等,,,2015-10-05,1,,,,,ミユキノパークプラザ,0
1376,6100002033453,登記記録の閉鎖等,0,2023-02-15,2023-02-10,有限会社吉原設備,,有限会社,長野県,伊那市,東春近２６９２番地ロ,,20,209,3994432,,,2023-02-10,清算の結了等,,,2015-10-05,1,,,,,ヨシハラセツビ,0
1394,6120003021249,登記記録の閉鎖等,0,2023-02-15,2023-02-09,合同会社北浜３００３,,合同会社,大阪府,大阪市中央区,北浜２丁目２番２１号北浜ミッドタワー３００３号,,27,128,5410041,,,2023-02-09,清算の結了等,,,2022-03-07,1,,,,,キタハマサンゼロゼロサン,0
1411,6140002030612,登記記録の閉鎖等,0,2023-02-15,2023-02-10,有限会社平井建築店,,有限会社,兵庫県,三木市,福井１丁目５番４号,,28,215,6730433,,,2023-02-10,清算の結了等,,,2015-10-05,1,,,,,ヒライケンチクテン,0
1415,6170005005971,登記記録の閉鎖等,0,2023-02-15,2023-02-13,一般社団法人日本襖振興会,00045927,その他の設立登記法人,大阪府,大阪市北区,与力町１番５号与力町パークビル４Ｆ,,27,127,5300036,,,2023-02-13,清算の結了等,,,2015-10-05,1,,,,,ニッポンフスマシンコウカイ,0
1417,6180001148609,登記記録の閉鎖等,0,2023-02-15,2023-02-09,株式会社なごやテクニカル,,株式会社,愛知県,名古屋市南区,外山１丁目２番４５号,,23,112,4570008,,,2023-02-09,清算の結了等,,,2021-11-04,1,,,,,ナゴヤテクニカル,0
1430,6230002012849,登記記録の閉鎖等,0,2023-02-15,2023-02-13,有限会社こしだスーパー,,有限会社,富山県,氷見市,伊勢大町１丁目１番５号,,16,205,9350015,,,2023-02-13,清算の結了等,,,2015-10-05,1,,,,,コシダスーパー,0
1431,6230002014515,登記記録の閉鎖等,0,2023-02-15,2023-02-13,有限会社釣工務店,,有限会社,富山県,射水市,本町３丁目１５番６号,,16,211,9340011,,,2023-02-13,清算の結了等,,,2015-10-05,1,,,,,ツリコウムテン,0
1448,6290005003534,登記記録の閉鎖等,0,2023-02-15,2023-02-13,特定非営利活動法人和賀国際文化交流,,その他の設立登記法人,福岡県,福岡市中央区,小笹２丁目１０番４０－４１０号,,40,133,8100033,,,2023-02-13,清算の結了等,,,2015-10-05,1,,,,,ワガコクサイブンカコウリュウ,0
1457,6330002002765,登記記録の閉鎖等,0,2023-02-15,2023-02-14,有限会社共立運送,,有限会社,熊本県,熊本市北区,麻生田５丁目８番１８号,,43,105,8618081,,,2023-02-14,清算の結了等,,,2015-10-05,1,,,,,キョウリツウンソウ,0
1464,6370001049036,登記記録の閉鎖等,0,2023-02-15,2023-02-10,株式会社大清工業,,株式会社,宮城県,大崎市,古川旭１丁目３番１号,,04,215,9896117,,,2023-02-10,清算の結了等,,,2022-09-08,1,,,,,タイセイコウギョウ,0
1520,7010601039371,登記記録の閉鎖等,0,2023-02-15,2023-02-07,株式会社Ｎ・Ｋ企画,,株式会社,東京都,文京区,本駒込１丁目２７番１０－５０１号,,13,105,1130021,,,2023-02-07,清算の結了等,,,2015-10-05,1,,,,,エヌケイキカク,0
1526,7010802012045,登記記録の閉鎖等,0,2023-02-15,2023-02-02,有限会社ピュアアクセント,,有限会社,東京都,大田区,北馬込１丁目２７番１４－１０２号,,13,111,1430021,,,2023-02-02,清算の結了等,,,2015-10-05,1,,,,,ピュアアクセント,0
1528,7010901029460,登記記録の閉鎖等,0,2023-02-15,2023-02-13,５１株式会社,,株式会社,神奈川県,川崎市高津区,新作６丁目２－６７,,14,134,2130014,,,2023-02-13,清算の結了等,,,2015-10-05,1,,,,,フィフティーワン,0
1568,7020001053410,登記記録の閉鎖等,0,2023-02-15,2023-02-06,株式会社ＡＭＳリサーチ,,株式会社,神奈川県,横浜市青葉区,荏田西３丁目２９番地８,,14,117,2250014,,,2023-02-06,清算の結了等,,,2015-10-05,1,,,,,エーエムエスリサーチ,0
1571,7020001109815,登記記録の閉鎖等,0,2023-02-15,2023-02-10,株式会社ナーヴェ,,株式会社,神奈川県,横浜市都筑区,すみれが丘３３番地２,,14,118,2240013,,,2023-02-10,清算の結了等,,,2015-10-05,1,,,,,ナーヴェ,0
1612,7060003003335,登記記録の閉鎖等,0,2023-02-15,2023-02-13,那須野企画合同会社,,合同会社,栃木県,大田原市,北野上３０６番地,,09,210,3240231,,,2023-02-13,清算の結了等,,,2020-04-09,1,,,,,ナスノキカク,0
1614,7080101001866,登記記録の閉鎖等,0,2023-02-15,2023-02-13,三友總業株式会社,00067755,株式会社,静岡県,沼津市,大岡２１８０番地の５,,22,203,4100022,,,2023-02-13,清算の結了等,,,2015-10-05,1,,,,,ミツトモソウギョウ,0
1619,7100001013661,登記記録の閉鎖等,0,2023-02-15,2023-02-09,株式会社徳武竹材店,00069257,株式会社,長野県,松本市,中央３丁目２番４号,,20,202,3900811,,,2023-02-09,清算の結了等,,,2015-10-05,1,,,,,トクタケチクザイテン,0
1625,7120001049381,登記記録の閉鎖等,0,2023-02-15,2023-02-10,株式会社加島金属製作所,,株式会社,大阪府,大阪市西淀川区,歌島１丁目１８番２２号,,27,113,5550021,,,2023-02-10,清算の結了等,,,2015-10-05,1,,,,,カシマキンゾクセイサクショ,0
1626,7120001106587,登記記録の閉鎖等,0,2023-02-15,2023-02-13,株式会社エッチ・エス・ケー,,株式会社,大阪府,堺市東区,日置荘西町２丁２６番２８号,,27,143,5998114,,,2023-02-13,清算の結了等,,,2015-10-05,1,,,,,エッチエスケー,0
1627,7120001167200,登記記録の閉鎖等,0,2023-02-15,2023-02-10,株式会社中島工業,,株式会社,兵庫県,尼崎市,南武庫之荘５丁目１８番２９号,,28,202,6610033,,,2023-02-10,清算の結了等,,,2015-10-05,1,,,,,ナカシマコウギョウ,0
1669,7200002022098,登記記録の閉鎖等,0,2023-02-15,2023-02-13,有限会社西戸電気商会,,有限会社,岐阜県,瑞浪市,釜戸町２０４８番地の３,,21,208,5096472,,,2023-02-13,清算の結了等,,,2015-10-05,1,,,,,ニシドデンキショウカイ,0
1695,7290002036809,登記記録の閉鎖等,0,2023-02-15,2023-02-10,有限会社日正工業,,有限会社,福岡県,糟屋郡宇美町,とびたけ１丁目８番５号,,40,341,8112107,,,2023-02-10,清算の結了等,,,2015-10-05,1,,,,,ニッショウコウギョウ,0
1706,7350001001443,登記記録の閉鎖等,0,2023-02-15,2023-02-13,株式会社百市工務店,,株式会社,宮崎県,宮崎市,清武町加納甲１７３３番地の１,,45,201,8891605,,,2023-02-13,清算の結了等,,,2015-10-05,1,,,,,ヒャクイチコウムテン,0
1717,7380001003065,削除,,2023-02-15,,,,,,,,,,,,,,,,,,,,,,,,,
1724,7420002014577,登記記録の閉鎖等,0,2023-02-15,2023-02-13,有限会社広親住建,,有限会社,青森県,弘前市,大字鳥井野字宮本３３番地１,,02,202,0361333,,,2023-02-13,清算の結了等,,,2015-10-05,1,,,,,コウシンジュウケン,0
1730,7430002024947,登記記録の閉鎖等,0,2023-02-15,2023-02-13,有限会社丸幸高橋商店,00089301,有限会社,北海道,札幌市白石区,栄通８丁目４番１５号,,01,104,0030021,,,2023-02-13,清算の結了等,,,2015-10-05,1,,,,,,0
1743,8010001047478,登記記録の閉鎖等,0,2023-02-15,2023-02-08,須藤株式会社,,株式会社,神奈川県,横浜市青葉区,藤が丘１丁目６番地１０６,,14,117,2270043,,,2023-02-08,清算の結了等,,,2015-10-05,1,,,,,スドウ,0
1747,8010001125903,削除,,2023-02-15,,,,,,,,,,,,,,,,,,,,,,,,,
1780,8010405014900,登記記録の閉鎖等,0,2023-02-15,2023-02-01,一般社団法人エバートン,,その他の設立登記法人,東京都,港区,新橋４丁目３０番６号京急中はらビル５階,,13,103,1050004,,,2023-02-01,清算の結了等,,,2016-06-22,1,,,,,,0
1786,8010801012771,登記記録の閉鎖等,0,2023-02-15,2023-02-08,ワイケイ物流株式会社,,株式会社,東京都,大田区,城南島４丁目５番５号,,13,111,1430002,,,2023-02-08,清算の結了等,,,2015-10-05,1,,,,,ワイケイブツリュウ,0
1810,8011502012573,登記記録の閉鎖等,0,2023-02-15,2023-02-07,有限会社ジャパン・クォーター,,有限会社,東京都,荒川区,荒川８丁目２４番２－１３０８号,,13,118,1160002,,,2023-02-07,清算の結了等,,,2015-10-05,1,,,,,ジャパンクォーター,0
1819,8012405002348,登記記録の閉鎖等,0,2023-02-15,2023-02-09,特定非営利活動法人たった一つの命,,その他の設立登記法人,東京都,調布市,仙川町１丁目２４番２４号,,13,208,1820002,,,2023-02-09,清算の結了等,,,2015-10-05,1,,,,,タッタヒトツノイノチ,0
1825,8013303005558,登記記録の閉鎖等,0,2023-02-15,2023-02-13,合同会社コペン,,合同会社,東京都,豊島区,東池袋１丁目３３－４ニュー池袋ハイツ３０５号,,13,116,1700013,,,2023-02-13,清算の結了等,,,2021-03-03,1,,,,,コペン,0
1833,8020002086177,登記記録の閉鎖等,0,2023-02-15,2023-02-13,有限会社北山建業,,有限会社,神奈川県,川崎市宮前区,有馬２丁目７番１５－２０４号,,14,136,2160003,,,2023-02-13,清算の結了等,,,2015-10-05,1,,,,,キタヤマケンギョウ,0
1834,8020003001564,登記記録の閉鎖等,0,2023-02-15,2023-02-13,亀田染色合資会社,,合資会社,神奈川県,横浜市南区,井土ケ谷下町４０番地の７,,14,105,2320053,,,2023-02-13,清算の結了等,,,2015-10-05,1,,,,,カメダセンショク,0
1848,8030001059868,登記記録の閉鎖等,0,2023-02-15,2023-02-13,株式会社エムデザイン,,株式会社,埼玉県,ふじみ野市,うれし野２丁目１０番２－１４０６号,,11,245,3560056,,,2023-02-13,清算の結了等,,,2015-10-05,1,,,,,エムデザイン,0
1860,8040001070832,登記記録の閉鎖等,0,2023-02-15,2023-02-13,株式会社ＦＵＫＵＭＩ,,株式会社,千葉県,柏市,柏３丁目７番２４号,,12,217,2770005,,,2023-02-13,清算の結了等,,,2015-10-05,1,,,,,フクミ,0
1866,8040002081820,登記記録の閉鎖等,0,2023-02-15,2023-02-10,有限会社ヤリタ産業,,有限会社,千葉県,茂原市,本納２７４８番地の６,,12,210,2994114,,,2023-02-10,清算の結了等,,,2015-10-05,1,,,,,ヤリタサンギョウ,0
1870,8070001001074,登記記録の閉鎖等,0,2023-02-15,2023-02-13,株式会社エムハイヤー,,株式会社,群馬県,高崎市,栄町２２番３０号,,10,202,3700841,,,2023-02-13,合併による解散等,3070001002176,令和４年１２月１日群馬県前橋市下石倉町２７番地２株式会社あおば交通（3070001002176）に合併し解散,2015-10-05,1,,,,,エムハイヤー,0
1886,8110002016991,登記記録の閉鎖等,0,2023-02-15,2023-02-13,有限会社神山配管,,有限会社,新潟県,三条市,南四日町２丁目１番３２号,,15,204,9550852,,,2023-02-13,清算の結了等,,,2015-10-05,1,,,,,カミヤマハイカン,0
1888,8120001155765,登記記録の閉鎖等,0,2023-02-15,2023-02-10,山洋興産株式会社,,株式会社,大阪府,守口市,高瀬町２丁目５番６号,,27,209,5700053,,,2023-02-10,清算の結了等,,,2015-10-05,1,,,,,サンヨウコウサン,0
1924,8180002036686,登記記録の閉鎖等,0,2023-02-15,2023-02-10,有限会社ツカダ,,有限会社,愛知県,名古屋市守山区,天子田２丁目１２１７番地,,23,113,4630037,,,2023-02-10,清算の結了等,,,2015-10-05,1,,,,,ツカダ,0
1926,8180003010517,登記記録の閉鎖等,0,2023-02-15,2023-02-06,合資会社大山板金加工所,,合資会社,愛知県,瀬戸市,幸町１４番地,,23,204,4890818,,,2023-02-06,清算の結了等,,,2015-10-05,1,,,,,オオヤマバンキンカコウショ,0
1928,8180302012726,登記記録の閉鎖等,0,2023-02-15,2023-02-10,有限会社明海企業,,有限会社,愛知県,豊川市,伊奈町縫殿２６番地１４６,,23,207,4410105,,,2023-02-10,清算の結了等,,,2015-10-05,1,,,,,アケミキギョウ,0
1955,8300003001379,登記記録の閉鎖等,0,2023-02-15,2023-02-10,合同会社クーアス,,合同会社,佐賀県,佐賀市,八幡小路４番２７号,,41,201,8400834,,,2023-02-10,清算の結了等,,,2018-09-18,1,,,,,クーアス,0
1958,8310001012559,登記記録の閉鎖等,0,2023-02-15,2023-02-15,株式会社ランドーナージャパン長崎マネジメント,,株式会社,長崎県,長崎市,宝町２番２６号,,42,201,8500045,,,2023-02-15,清算の結了等,,,2015-10-05,1,,,,,,0
1975,8380003001636,登記記録の閉鎖等,0,2023-02-15,2023-02-10,Ｙ・Ｍ・Ｋフード株式会社,,株式会社,福島県,南相馬市,原町区三島町３丁目５４番地の５,,07,212,9750012,,,2023-02-10,清算の結了等,,,2015-10-05,1,,,,,ワイエムケイフード,0
1981,8430001015797,登記記録の閉鎖等,0,2023-02-15,2023-02-13,株式会社本田,,株式会社,北海道,札幌市中央区,（札幌市北三条東六丁目３５６番地）,,01,101,0600000,,,2023-02-13,清算の結了等,,,2015-10-05,1,,,,,ホンダ,1
1982,8430001027520,登記記録の閉鎖等,0,2023-02-15,2023-02-13,ガーデンプラザ株式会社,,株式会社,北海道,札幌市豊平区,美園一条１丁目３番２４号,,01,105,0620001,,,2023-02-13,清算の結了等,,,2015-10-05,1,,,,,ガーデンプラザ,0
2014,9010401077066,登記記録の閉鎖等,0,2023-02-15,2023-02-09,株式会社ワーク,,株式会社,東京都,江東区,枝川２丁目７番８号,,13,108,1350051,,,2023-02-09,清算の結了等,,,2015-10-05,1,,,,,ワーク,0
2051,9011402000900,登記記録の閉鎖等,0,2023-02-15,2023-02-14,有限会社泉住地,,有限会社,東京都,板橋区,大原町７番２２号,,13,119,1740061,,,2023-02-14,清算の結了等,,,2015-10-05,1,,,,,イズミジュウチ,0
2065,9013302004601,登記記録の閉鎖等,0,2023-02-15,2023-02-03,有限会社鹿野商店,,有限会社,東京都,豊島区,高田３丁目１６番４号,,13,116,1710033,,,2023-02-03,清算の結了等,,,2015-10-05,1,,,,,シカノショウテン,0
2118,9060003002335,登記記録の閉鎖等,0,2023-02-15,2023-02-13,合同会社Ｅｓｐｏｉｒ,,合同会社,栃木県,宇都宮市,下栗町２９４８番地３,,09,201,3210923,,,2023-02-13,清算の結了等,,,2016-08-05,1,,,,,エスポワール,0
2146,9120002012634,登記記録の閉鎖等,0,2023-02-15,2023-02-13,有限会社エビス堂運動用品店,,有限会社,大阪府,大阪市天王寺区,小橋町１２番２－１０１号,,27,109,5430028,,,2023-02-13,清算の結了等,,,2015-10-05,1,,,,,エビスドウウンドウヨウヒンテン,0
2170,9170005005011,登記記録の閉鎖等,0,2023-02-15,2023-02-10,和歌山繊維企業株式会社,,株式会社,和歌山県,橋本市,高野口町名古曽１３２０番地の１,,30,203,6497203,,,2023-02-10,合併による解散等,7170001010925,令和５年２月１０日和歌山県橋本市高野口町名古曽１３２０番地の１オーヤパイル株式会社（7170001010925）に合併し解散,2015-10-05,1,,,,,ワカヤマセンイキギョウ,0
2171,9180001020137,登記記録の閉鎖等,0,2023-02-15,2023-02-13,株式会社継岩,,株式会社,愛知県,名古屋市中川区,西中島１丁目１３１７番地,,23,110,4540934,,,2023-02-13,清算の結了等,,,2015-10-05,1,,,,,ツグイワ,0
2176,9180001074050,登記記録の閉鎖等,0,2023-02-15,2023-02-10,株式会社くるま市場,,株式会社,愛知県,春日井市,西山町１丁目４番地１,,23,206,4860803,,,2023-02-10,清算の結了等,,,2015-10-05,1,,,,,クルマイチバ,0
2236,9360003006090,登記記録の閉鎖等,0,2023-02-15,2023-02-09,合同会社Ｓ－Ｔ,,合同会社,沖縄県,糸満市,字兼城７６４番地の７３,,47,210,9010303,,,2023-02-09,清算の結了等,,,2015-10-05,1,,,,,エスティー,0
2241,9380001005349,登記記録の閉鎖等,0,2023-02-15,2023-02-13,サンテック印刷株式会社,,株式会社,福島県,郡山市,日和田町高倉字藤坦１番地の３９２,,07,203,9630531,,,2023-02-13,清算の結了等,,,2022-08-15,1,,,,,サンテックインサツ,0
2263,9500002006795,登記記録の閉鎖等,0,2023-02-15,2023-02-14,ムラタ商事有限会社,,有限会社,愛媛県,松山市,千舟町６丁目１番地２,,38,201,7900011,,,2023-02-14,清算の結了等,,,2015-10-05,1,,,,,ムラタショウジ,0
