sequenceNumber,corporateNumber,process,correct,updateDate,changeDate,name,nameImageId,kind,prefectureName,cityName,streetNumber,addressImageId,prefectureCode,cityCode,postCode,addressOutside,addressOutsideImageId,closeDate,closeCause,successorCorporateNumber,changeCause,assignmentDate,latest,enName,enPrefectureName,enCityName,enAddressOutside,furigana,hihyoji
5,1010001242382,新規,0,2024-02-16,2024-02-16,株式会社グランド,,株式会社,東京都,中央区,築地１丁目１２番２２号,,13,102,1040045,,,,,,,2024-02-16,1,,,,,グランド,0
8,1010003042946,新規,0,2024-02-16,2024-02-16,Ｍａｎｄａｒｉｎ　Ｏｒａｎｇｅ合同会社,,合同会社,東京都,千代田区,九段南４丁目３番４号Ｐｏｌａｒ九段５Ｆ,,13,101,1020074,,,,,,,2024-02-16,1,,,,,マンダリンオレンジ,0
10,1010005037911,新規,0,2024-02-16,2024-02-16,一般社団法人京成船橋東中山稲毛,,その他の設立登記法人,東京都,千代田区,平河町１丁目６番１５号シルスフィア会計事務所内,,13,101,1020093,,,,,,,2024-02-16,1,,,,,ケイセイフナバシヒガシナカヤマイナゲ,0
15,1010501051795,新規,0,2024-02-16,2024-02-16,ＸＹＣ　Ｔｅｃｈ株式会社,,株式会社,東京都,台東区,今戸２丁目１５番３号ｉｎｃｌｏビル,,13,106,1110024,,,,,,,2024-02-16,1,,,,,エックスワイシーテック,0
21,1010601064656,新規,0,2024-02-16,2024-02-16,ＭＪＰ株式会社,,株式会社,東京都,墨田区,向島２丁目１０番５－２０２号,,13,107,1310033,,,,,,,2024-02-16,1,,,,,エムジェイピー,0
22,1010601064672,新規,0,2024-02-16,2024-02-16,彩音株式会社,,株式会社,東京都,墨田区,向島４丁目１－１－３１６,,13,107,1310033,,,,,,,2024-02-16,1,,,,,サイオン,0
29,1010803004848,新規,0,2024-02-16,2024-02-16,合同会社サライ,,合同会社,東京都,大田区,田園調布３丁目３９番８号,,13,111,1450071,,,,,,,2024-02-16,1,,,,,サライ,0
36,1011001160079,新規,0,2024-02-16,2024-02-16,株式会社大地,,株式会社,東京都,渋谷区,恵比寿西２丁目８番４号ＥＸ恵比寿西ビル５階,,13,113,1500021,,,,,,,2024-02-16,1,,,,,ダイチ,0
39,1011005010370,新規,0,2024-02-16,2024-02-16,一般社団法人日本ゲームアクセシビリティ協会,,その他の設立登記法人,東京都,渋谷区,桜丘町７番３号ベラコート渋谷２０３,,13,113,1500031,,,,,,,2024-02-16,1,,,,,ニホンゲームアクセシビリティキョウカイ,0
42,1011101106130,新規,0,2024-02-16,2024-02-16,株式会社Ｆｕｋｕｒｉ,,株式会社,東京都,新宿区,四谷１丁目１０番２号,,13,104,1600004,,,,,,,2024-02-16,1,,,,,フクリ,0
43,1011101106221,新規,0,2024-02-16,2024-02-16,株式会社ＬＡＰＩＳＵＴＡ,,株式会社,東京都,新宿区,高田馬場４丁目２２番９号,,13,104,1690075,,,,,,,2024-02-16,1,,,,,ラピスタ,0
44,1011103014100,新規,0,2024-02-16,2024-02-16,合同会社信任ジャパン,,合同会社,東京都,新宿区,西新宿３丁目３番１３号西新宿水間ビル２Ｆ,,13,104,1600023,,,,,,,2024-02-16,1,,,,,シンニンジャパン,0
45,1011201025247,新規,0,2024-02-16,2024-02-16,株式会社ＢＲＥＡＫＥＲ,,株式会社,東京都,中野区,松が丘１丁目１６番１１号ＥｓｐｅｒａｎｚａＮａｋａｎｏＭａｔｓｕｇａｏｋａ２０３,,13,114,1650024,,,,,,,2024-02-16,1,,,,,ブレイカー,0
47,1011303005056,新規,0,2024-02-16,2024-02-16,合同会社ＶＩＮＸ,,合同会社,東京都,杉並区,大宮１丁目１４番７号Ｒｅｆｕｇｅ・Ｏ・ＦｏｒｅｓｔＮ１０２,,13,115,1680061,,,,,,,2024-02-16,1,,,,,ビンクス,0
49,1011401025864,新規,0,2024-02-16,2024-02-16,株式会社ベテリナリマス,,株式会社,東京都,板橋区,赤塚２丁目３３番１２三吉屋ビル１Ｆ,,13,119,1750092,,,,,,,2024-02-16,1,,,,,ベテリナリマス,0
50,1011501030335,新規,0,2024-02-16,2024-02-16,株式会社ＳＫ‐ＯＮＥ,,株式会社,東京都,北区,東十条４丁目５番２４号朝日堂ビルＢ１Ｆ,,13,117,1140001,,,,,,,2024-02-16,1,,,,,エスケーワン,0
53,1011601027529,新規,0,2024-02-16,2024-02-16,スコープビズ株式会社,,株式会社,東京都,練馬区,田柄２丁目３１番８号,,13,120,1790073,,,,,,,2024-02-16,1,,,,,スコープビズ,0
54,1011601027537,新規,0,2024-02-16,2024-02-16,株式会社Ｃａｖｉｒ,,株式会社,東京都,練馬区,中村北４丁目１１番４－１３０２号,,13,120,1760023,,,,,,,2024-02-16,1,,,,,キャビア,0
57,1011603004245,新規,0,2024-02-16,2024-02-16,合同会社全方位,,合同会社,東京都,練馬区,上石神井１丁目１８－１１パークハウス上石神井１０１,,13,120,1770044,,,,,,,2024-02-16,1,,,,,ゼンホウイ,0
58,1011803006099,新規,0,2024-02-16,2024-02-16,ＵＭＥＤＡ金融合同会社,,合同会社,東京都,足立区,梅田６丁目１２－４Ｃｈｅｒｒｙ．ｂｌｏｓｓｏｍｓ３０２,,13,121,1230851,,,,,,,2024-02-16,1,,,,,ウメダキンユウ,0
60,1012403006415,新規,0,2024-02-16,2024-02-16,合同会社ＡＯコンサルティング,,合同会社,東京都,調布市,仙川町２丁目１３‐４ガーデンヒルズ２１１,,13,208,1820002,,,,,,,2024-02-16,1,,,,,アオコンサルティング,0
63,1013301052096,新規,0,2024-02-16,2024-02-16,株式会社同源国際,,株式会社,東京都,豊島区,池袋２丁目６６番３号同源ビル,,13,116,1710014,,,,,,,2024-02-16,1,,,,,ドウゲンコクサイ,0
76,1020001155798,新規,0,2024-02-16,2024-02-16,株式会社ＷＴＧ,,株式会社,神奈川県,横浜市保土ケ谷区,藤塚町２５番７号,,14,106,2400031,,,,,,,2024-02-16,1,,,,,ダブリューティージー,0
77,1020001155815,新規,0,2024-02-16,2024-02-16,株式会社Ｌｏｖｉｎｇ,,株式会社,神奈川県,横浜市栄区,公田町６１１番地,,14,115,2470014,,,,,,,2024-02-16,1,,,,,ラビング,0
78,1020001155831,新規,0,2024-02-16,2024-02-16,エル・コンサルティング株式会社,,株式会社,神奈川県,横浜市西区,北幸２丁目１０番４８号むつみビル３階,,14,103,2200004,,,,,,,2024-02-16,1,,,,,エルコンサルティング,0
91,1021003014141,新規,0,2024-02-16,2024-02-16,サンディア合同会社,,合同会社,神奈川県,小田原市,栄町２丁目１２－３,,14,206,2500011,,,,,,,2024-02-16,1,,,,,サンディア,0
97,1030001158627,新規,0,2024-02-16,2024-02-16,山禾株式会社,,株式会社,埼玉県,富士見市,水谷東２丁目５６－１８ウィズハウス１０１室,,11,235,3540013,,,,,,,2024-02-16,1,,,,,サンカ,0
98,1030001158684,新規,0,2024-02-16,2024-02-16,株式会社ＳＢＹ,,株式会社,埼玉県,さいたま市見沼区,大字御蔵１２２３－２０,,11,104,3370033,,,,,,,2024-02-16,1,,,,,エスビーワイ,0
99,1030001158726,新規,0,2024-02-16,2024-02-16,株式会社新都市企画,,株式会社,埼玉県,本庄市,北堀１５０５番地３,,11,211,3670031,,,,,,,2024-02-16,1,,,,,シントシキカク,0
100,1030001158742,新規,0,2024-02-16,2024-02-16,株式会社ルミナス,,株式会社,埼玉県,さいたま市浦和区,針ヶ谷３丁目２番７－１０２号,,11,107,3300075,,,,,,,2024-02-16,1,,,,,ルミナス,0
101,1030001158767,新規,0,2024-02-16,2024-02-16,株式会社ＯＨＯ,,株式会社,埼玉県,行田市,大字野１０８７番地１,,11,206,3610026,,,,,,,2024-02-16,1,,,,,オーエイチオー,0
104,1030003023630,新規,0,2024-02-16,2024-02-16,合同会社テンセント,,合同会社,埼玉県,さいたま市大宮区,大門町３丁目１５８番地カンパヌール大門２－６０１号,,11,103,3300846,,,,,,,2024-02-16,1,,,,,テンセント,0
105,1030003023639,新規,0,2024-02-16,2024-02-16,花尾合同会社,,合同会社,埼玉県,川口市,鳩ヶ谷本町３丁目２８番１２号,,11,203,3340002,,,,,,,2024-02-16,1,,,,,ハナオ,0
106,1030003023647,新規,0,2024-02-16,2024-02-16,レジェンドミー合同会社,,合同会社,埼玉県,蕨市,中央１丁目３３番３号レジデンスＬＩＮＤＯ４０３,,11,223,3350004,,,,,,,2024-02-16,1,,,,,レジェンドミー,0
110,1040001132184,新規,0,2024-02-16,2024-02-16,大樹商事株式会社,,株式会社,千葉県,松戸市,松戸２０２６番地の２キャッスルマンション松戸５０２号,,12,207,2710092,,,,,,,2024-02-16,1,,,,,ダイジュショウジ,0
111,1040001132226,新規,0,2024-02-16,2024-02-16,株式会社Ａ‐Ｍ　Ｏｎｅ　Ｉｎｔｅｒｎａｔｉｏｎａｌ,,株式会社,千葉県,野田市,下三ケ尾３９６－１３,,12,208,2780014,,,,,,,2024-02-16,1,,,,,エーエムワンインターナショナル,0
112,1040001132242,新規,0,2024-02-16,2024-02-16,株式会社ガレオス,,株式会社,千葉県,千葉市中央区,富士見２丁目２１番９号しんなかビル５階,,12,101,2600015,,,,,,,2024-02-16,1,,,,,ガレオス,0
113,1040001132275,新規,0,2024-02-16,2024-02-16,株式会社きららぼ,,株式会社,千葉県,船橋市,金杉３丁目１８番１２号,,12,204,2730853,,,,,,,2024-02-16,1,,,,,キララボ,0
114,1040001132283,新規,0,2024-02-16,2024-02-16,ハンモック株式会社,,株式会社,千葉県,木更津市,請西６９２Ｄ,,12,206,2920801,,,,,,,2024-02-16,1,,,,,ハンモック,0
120,1040003024330,新規,0,2024-02-16,2024-02-16,合同会社石原企画,,合同会社,千葉県,松戸市,西馬橋幸町３７番地,,12,207,2710047,,,,,,,2024-02-16,1,,,,,イシハラキカク,0
128,1050001054287,新規,0,2024-02-16,2024-02-16,Ｃａｒｎｅｏ　Ｇｒｏｕｐ株式会社,,株式会社,茨城県,水戸市,大塚町１８３９番地の２,,08,201,3114143,,,,,,,2024-02-16,1,,,,,カーネオグループ,0
129,1050001054295,新規,0,2024-02-16,2024-02-16,株式会社至,,株式会社,茨城県,龍ケ崎市,米町４０１２番地菅谷テナント,,08,208,3010018,,,,,,,2024-02-16,1,,,,,イタル,0
130,1050001054304,新規,0,2024-02-16,2024-02-16,株式会社マド工房,,株式会社,茨城県,水戸市,米沢町８７１番地,,08,201,3100847,,,,,,,2024-02-16,1,,,,,マドコウボウ,0
133,1050003008142,新規,0,2024-02-16,2024-02-16,合同会社田中企画,,合同会社,茨城県,水戸市,笠原町１４７番地の３,,08,201,3100852,,,,,,,2024-02-16,1,,,,,タナカキカク,0
134,1070001041408,新規,0,2024-02-16,2024-02-16,株式会社ＨＭグローバル,,株式会社,群馬県,館林市,尾曳町２５番６０号,,10,207,3740019,,,,,,,2024-02-16,1,,,,,エイチエムグローバル,0
136,1080001026135,新規,0,2024-02-16,2024-02-16,株式会社ＭＩＹＡ,,株式会社,静岡県,静岡市駿河区,用宗城山町６番２１号,,22,102,4210124,,,,,,,2024-02-16,1,,,,,ミヤ,0
139,1080401027006,新規,0,2024-02-16,2024-02-16,株式会社ＴＭＫ,,株式会社,静岡県,掛川市,緑ケ丘１丁目８番地の１,,22,213,4360021,,,,,,,2024-02-16,1,,,,,ティーエムケイ,0
141,1100001037220,新規,0,2024-02-16,2024-02-16,株式会社ＴＯＹＢＯＸ,,株式会社,長野県,松本市,大字島立６３５番地１,,20,202,3900852,,,,,,,2024-02-16,1,,,,,トイボックス,0
143,1110001038192,新規,0,2024-02-16,2024-02-16,株式会社ＫＫクリーニング,,株式会社,新潟県,燕市,白山町３丁目１３番１４－２号,,15,213,9591251,,,,,,,2024-02-16,1,,,,,ケイケイクリーニング,0
157,1120001261933,新規,0,2024-02-16,2024-02-16,株式会社Ｒ,,株式会社,大阪府,大阪市東淀川区,豊新５丁目１２番２９号,,27,114,5330014,,,,,,,2024-02-16,1,,,,,アール,0
158,1120001262287,新規,0,2024-02-16,2024-02-16,納海株式会社,,株式会社,大阪府,大阪市城東区,蒲生３丁目１５番１２号セザンヌ藤５０４Ｂ,,27,118,5360016,,,,,,,2024-02-16,1,,,,,ノウカイ,0
159,1120001262295,新規,0,2024-02-16,2024-02-16,日本馨予置業株式会社,,株式会社,大阪府,大阪市住之江区,安立２丁目１０番１４号三坂ビル１０２号室,,27,125,5590003,,,,,,,2024-02-16,1,,,,,ニホンケイヨチギョウ,0
160,1120001262320,新規,0,2024-02-16,2024-02-16,株式会社ＡＬＬ　ＩＮ,,株式会社,大阪府,大阪市浪速区,難波中２丁目６番２１号,,27,111,5560011,,,,,,,2024-02-16,1,,,,,オールイン,0
161,1120001262345,新規,0,2024-02-16,2024-02-16,株式会社ｇｕｉｄｅ,,株式会社,大阪府,大阪市中央区,博労町４丁目２番３号伊藤ビル３０１号室,,27,128,5410059,,,,,,,2024-02-16,1,,,,,ガイド,0
162,1120001262378,新規,0,2024-02-16,2024-02-16,マテリアル大阪株式会社,,株式会社,大阪府,大阪市西成区,津守２丁目７２－１,,27,122,5570062,,,,,,,2024-02-16,1,,,,,マテリアルオオサカ,0
163,1120001262452,新規,0,2024-02-16,2024-02-16,株式会社阿波座不動産,,株式会社,大阪府,大阪市平野区,長吉長原西１丁目５番１８－３１０号,,27,126,5470015,,,,,,,2024-02-16,1,,,,,アワザフドウサン,0
168,1120003025931,新規,0,2024-02-16,2024-02-16,Ｔｈｅ　Ａｕｒａ合同会社,,合同会社,大阪府,大阪市平野区,長吉六反４丁目９番５８号,,27,126,5470012,,,,,,,2024-02-16,1,,,,,ジオーラ,0
169,1120003025948,新規,0,2024-02-16,2024-02-16,合同会社ルポゼ,,合同会社,大阪府,大阪市旭区,高殿２丁目１７番１７号,,27,117,5350031,,,,,,,2024-02-16,1,,,,,ルポゼ,0
172,1120101069054,新規,0,2024-02-16,2024-02-16,株式会社大林ファーム,,株式会社,大阪府,泉南郡熊取町,七山東７００番地の２,,27,361,5900425,,,,,,,2024-02-16,1,,,,,オオバヤシファーム,0
173,1120101069070,新規,0,2024-02-16,2024-02-16,株式会社福々,,株式会社,大阪府,岸和田市,極楽寺町２丁目４番８号,,27,202,5960832,,,,,,,2024-02-16,1,,,,,フクフク,0
180,1122001037834,新規,0,2024-02-16,2024-02-16,株式会社Ｄｙｇｎ,,株式会社,大阪府,八尾市,南太子堂２丁目３番９号,,27,212,5810056,,,,,,,2024-02-16,1,,,,,ディグン,0
183,1130001076372,新規,0,2024-02-16,2024-02-16,株式会社陣,,株式会社,京都府,京都市右京区,嵯峨北堀町６番地１,,26,108,6168367,,,,,,,2024-02-16,1,,,,,ジン,0
184,1130001076397,新規,0,2024-02-16,2024-02-16,Ｋ‐ＳｙｓｔｅｍＴｅｃｈ株式会社,,株式会社,京都府,舞鶴市,字長浜３４番地,,26,202,6250086,,,,,,,2024-02-16,1,,,,,ケイシステムテック,0
190,1140001133131,新規,0,2024-02-16,2024-02-16,株式会社ＵＰＥ　Ｊａｐａｎ,,株式会社,兵庫県,神戸市東灘区,深江南町５丁目１番１号,,28,101,6580022,,,,,,,2024-02-16,1,,,,,ユーピーイージャパン,0
191,1140001133346,新規,0,2024-02-16,2024-02-16,株式会社アルティ,,株式会社,兵庫県,伊丹市,桑津４丁目２－３０,,28,207,6640839,,,,,,,2024-02-16,1,,,,,アルティ,0
192,1140001133354,新規,0,2024-02-16,2024-02-16,Ａｍｂｅｒ株式会社,,株式会社,兵庫県,神戸市中央区,浜辺通６丁目１番１－１０２５号,,28,110,6510083,,,,,,,2024-02-16,1,,,,,アンバー,0
193,1140001133362,新規,0,2024-02-16,2024-02-16,株式会社大三萬年堂,,株式会社,兵庫県,たつの市,龍野町本町４７番地２,,28,229,6794165,,,,,,,2024-02-16,1,,,,,ダイサンマンネンドウ,0
194,1140001133379,新規,0,2024-02-16,2024-02-16,株式会社ＷＥＥＤ,,株式会社,兵庫県,三木市,志染町広野８丁目１５９番地,,28,215,6730541,,,,,,,2024-02-16,1,,,,,ウィード,0
198,1150003003182,新規,0,2024-02-16,2024-02-16,合同会社ＫＨ,,合同会社,奈良県,橿原市,北八木町２丁目５番１２号,,29,205,6340005,,,,,,,2024-02-16,1,,,,,ケーエイチ,0
203,1180001160064,新規,0,2024-02-16,2024-02-16,Ｉｎｎｏ　Ｃｅｒｅｂｒｉｘ株式会社,,株式会社,愛知県,名古屋市中村区,名駅４丁目２４番５号第２森ビル４０１,,23,105,4500002,,,,,,,2024-02-16,1,,,,,イノセレブリックス,0
204,1180001160163,新規,0,2024-02-16,2024-02-16,名古屋ＩＴサポート株式会社,,株式会社,愛知県,名古屋市天白区,道明町１１３番地ＡＲＫ２１ビル２０２,,23,116,4680064,,,,,,,2024-02-16,1,,,,,ナゴヤアイティーサポート,0
205,1180001160205,新規,0,2024-02-16,2024-02-16,株式会社ＹＵＴＡＫＡ,,株式会社,愛知県,名古屋市中区,千代田３丁目１５番３０号,,23,106,4600012,,,,,,,2024-02-16,1,,,,,ユタカ,0
206,1180001160213,新規,0,2024-02-16,2024-02-16,ＮＡＲＵ株式会社,,株式会社,愛知県,名古屋市東区,葵１丁目２番６号プレミアムコート葵８１０号,,23,102,4610004,,,,,,,2024-02-16,1,,,,,ナル,0
208,1180003026370,新規,0,2024-02-16,2024-02-16,合同会社ＰＨＵＯＮＧ　ＤＵＣ,,合同会社,愛知県,名古屋市千種区,内山３丁目２２番３号,,23,101,4640075,,,,,,,2024-02-16,1,,,,,フォングック,0
209,1180003026387,新規,0,2024-02-16,2024-02-16,合同会社スターティングオーバー,,合同会社,愛知県,春日井市,篠木町７丁目２４番地１３,,23,206,4860851,,,,,,,2024-02-16,1,,,,,スターティングオーバー,0
210,1180005020520,新規,0,2024-02-16,2024-02-16,特定非営利活動法人ｍｏＩｓｔ,,その他の設立登記法人,愛知県,名古屋市中区,新栄１丁目４６番５号ハイウッド栄６Ｆ,,23,106,4600007,,,,,,,2024-02-16,1,,,,,モイスト,0
212,1190001031116,新規,0,2024-02-16,2024-02-16,英和株式会社,,株式会社,三重県,四日市市,生桑町２２７３番地１４１,,24,202,5120911,,,,,,,2024-02-16,1,,,,,エイワ,0
217,1220001025824,新規,0,2024-02-16,2024-02-16,株式会社ｈａｖｅ,,株式会社,石川県,加賀市,山代温泉参六の１７７番地１,,17,206,9220242,,,,,,,2024-02-16,1,,,,,ハブ,0
221,1240001062799,新規,0,2024-02-16,2024-02-16,株式会社Ｙ’ｚＴＥＣＨ,,株式会社,広島県,竹原市,忠海東町４丁目１４番３号今治造船寮Ｂ－３０９,,34,203,7292317,,,,,,,2024-02-16,1,,,,,ワイズテック,0
225,1250001020525,新規,0,2024-02-16,2024-02-16,株式会社ポジテック,,株式会社,山口県,下関市,豊浦町大字小串２４９６番地の１,,35,201,7596302,,,,,,,2024-02-16,1,,,,,ポジテック,0
233,1290001104720,新規,0,2024-02-16,2024-02-16,株式会社大金,,株式会社,福岡県,福岡市中央区,大手門２丁目８番２９－４０７号,,40,133,8100074,,,,,,,2024-02-16,1,,,,,ダイキン,0
234,1290001104737,新規,0,2024-02-16,2024-02-16,株式会社ＦＵＫＵＲＡＩジャパン,,株式会社,福岡県,福岡市博多区,博多駅前４丁目３３－１１朝日プラザ博多７１５号,,40,132,8120011,,,,,,,2024-02-16,1,,,,,フクライジャパン,0
243,1290805009710,新規,0,2024-02-16,2024-02-16,医療法人てぃーだ,,その他の設立登記法人,福岡県,直方市,大字感田１８７２番地７,,40,204,8220001,,,,,,,2024-02-16,1,,,,,ティーダ,0
249,1340003004368,新規,0,2024-02-16,2024-02-16,ＹＵＲＡＫＩ合同会社,,合同会社,鹿児島県,伊佐市,大口大田２３３２－６４３,,46,224,8952507,,,,,,,2024-02-16,1,,,,,ユラキ,0
250,1340005009704,新規,0,2024-02-16,2024-02-16,特定非営利活動法人ＳＵＮＳＵＮ,,その他の設立登記法人,鹿児島県,鹿屋市,田崎町１０６番地,,46,203,8930037,,,,,,,2024-02-16,1,,,,,サンサン,0
259,1360001033193,新規,0,2024-02-16,2024-02-16,株式会社ＭＩＣ,,株式会社,沖縄県,豊見城市,字豊崎３－８５,,47,212,9010225,,,,,,,2024-02-16,1,,,,,エムアイシー,0
260,1360001033202,新規,0,2024-02-16,2024-02-16,株式会社ＹＯＭＯＣＨＩ　ｗｏｒｋｓ,,株式会社,沖縄県,石垣市,字白保５２９番地３,,47,207,9070242,,,,,,,2024-02-16,1,,,,,ヨモチワークス,0
262,1360003013714,新規,0,2024-02-16,2024-02-16,合同会社トロピカル企画,,合同会社,沖縄県,沖縄市,字松本９３０番地９,,47,211,9042151,,,,,,,2024-02-16,1,,,,,トロピカルキカク,0
267,1370001050931,新規,0,2024-02-16,2024-02-16,株式会社塩屋本家,,株式会社,宮城県,仙台市宮城野区,高砂１丁目１６番地の３,,04,102,9830014,,,,,,,2024-02-16,1,,,,,シオヤホンケ,0
277,1410001013735,新規,0,2024-02-16,2024-02-16,株式会社イークエストジャパン,,株式会社,秋田県,秋田市,楢山登町７番１０号,,05,201,0100021,,,,,,,2024-02-16,1,,,,,イークエストジャパン,0
286,1480001012391,新規,0,2024-02-16,2024-02-16,株式会社ＲｅＢｉｒｔｈ　Ｔｏｎｅ,,株式会社,徳島県,吉野川市,山川町岩戸１０番地,,36,205,7793402,,,,,,,2024-02-16,1,,,,,リバーストーン,0
290,1700150018753,新規,0,2024-02-16,2015-10-09,全経済・産業技術総合研究所　労働組合,,その他,茨城県,つくば市,東１丁目１－１中央事業所５群,,08,220,3050046,,,,,,,2015-10-09,1,,,,,ゼンケイザイサンギヨウギジユツソウゴウケンキユウジヨロウドウクミアイ,0
291,1700150124007,新規,0,2024-02-16,2024-02-16,Ｂｒｉｄｇｅ　６　Ｂｅｅ　Ｓｅｃｏｎｄａｒｙ（ＡＩＶ　Ｉ）ＧＰ　Ｌｔｄ．,,外国会社等,東京都,渋谷区,円山町５番５号Ｎａｖｉ渋谷Ｖ３階,,13,113,1500044,ｃ／ｏ　Ｈａｒｎｅｙｓ　Ｆｉｄｕｃｉａｒｙ（Ｃａｙｍａｎ）Ｌｉｍｉｔｅｄ，４ｔｈ　Ｆｌｏｏｒ，Ｈａｒｂｏｕｒ　Ｐｌａｃｅ，１０３　Ｓｏｕｔｈ　Ｃｈｕｒｃｈ　Ｓｔｒｅｅｔ，Ｐ．Ｏ．Ｂｏｘ　１０２４０，Ｇｒａｎｄ　Ｃａｙｍａｎ　ＫＹ１－１００２，Ｃａｙｍａｎ　Ｉｓｌａｎｄｓ,,,,,,2024-02-16,1,,,,,ブリツジシツクスビーセカンダリーアイアイブイワンジーピーリミテツド,0
296,2010001242308,新規,0,2024-02-16,2024-02-16,マスターズセカンド株式会社,,株式会社,東京都,中央区,京橋３丁目６番２１号,,13,102,1040031,,,,,,,2024-02-16,1,,,,,マスターズセカンド,0
298,2010003042953,新規,0,2024-02-16,2024-02-16,ノワールデザイン合同会社,,合同会社,東京都,中央区,日本橋小舟町１４番９－７０６号,,13,102,1030024,,,,,,,2024-02-16,1,,,,,ノワールデザイン,0
301,2010005037902,新規,0,2024-02-16,2024-02-16,一般社団法人ＴＣ１２,,その他の設立登記法人,東京都,中央区,八丁堀４丁目２番１０号ＡＯＪ税理士法人内,,13,102,1040032,,,,,,,2024-02-16,1,,,,,ティーシートゥエルブ,0
302,2010103002312,新規,0,2024-02-16,2024-02-16,合同会社Ｂｏｎｄ,,合同会社,東京都,八王子市,左入町１５５－７,,13,201,1920012,,,,,,,2024-02-16,1,,,,,ボンド,0
316,2010601064663,新規,0,2024-02-16,2024-02-16,株式会社月雲,,株式会社,東京都,江東区,佐賀１丁目９番１１号佐賀ＹＳビル４階,,13,108,1350031,,,,,,,2024-02-16,1,,,,,ツクモ,0
322,2010903008839,新規,0,2024-02-16,2024-02-16,合同会社Ｍｕｃｈｏ　Ｍａｓ　Ｌａｂ,,合同会社,東京都,世田谷区,上北沢５丁目１２－２－２０５,,13,112,1560057,,,,,,,2024-02-16,1,,,,,ムーチョマスラボ,0
324,2011001160086,新規,0,2024-02-16,2024-02-16,株式会社Ｐ＆Ａパートナーズ,,株式会社,東京都,渋谷区,恵比寿４丁目１０番１４号,,13,113,1500013,,,,,,,2024-02-16,1,,,,,ピーアンドエーパートナーズ,0
331,2011101106220,新規,0,2024-02-16,2024-02-16,Ｔｏｋｙｏ　Ｓｅｃｕｒｅ株式会社,,株式会社,東京都,新宿区,百人町４丁目５－２,,13,104,1690073,,,,,,,2024-02-16,1,,,,,トウキョウセキュア,0
334,2011201025246,新規,0,2024-02-16,2024-02-16,株式会社グローバルパートナーズ,,株式会社,東京都,中野区,本町１丁目２３番５号１Ｆ,,13,114,1640012,,,,,,,2024-02-16,1,,,,,グローバルパートナーズ,0
338,2011303005055,新規,0,2024-02-16,2024-02-16,合同会社ＯＫプロ,,合同会社,東京都,杉並区,大宮２丁目８番１０号,,13,115,1680061,,,,,,,2024-02-16,1,,,,,オーケープロ,0
342,2011601027511,新規,0,2024-02-16,2024-02-16,株式会社誇ＫＩＭＯＮＯ,,株式会社,東京都,練馬区,豊玉中４丁目１１番８号カトル・メゾンＡ１０２号室,,13,120,1760013,,,,,,,2024-02-16,1,,,,,ホコリキモノ,0
343,2011601027528,新規,0,2024-02-16,2024-02-16,株式会社えびすや,,株式会社,東京都,練馬区,北町１丁目２３番２－３０１号,,13,120,1790081,,,,,,,2024-02-16,1,,,,,エビスヤ,0
344,2011603004244,新規,0,2024-02-16,2024-02-16,合同会社明和,,合同会社,東京都,練馬区,豊玉南１丁目１５番４号,,13,120,1760014,,,,,,,2024-02-16,1,,,,,メイワ,0
346,2011801043795,新規,0,2024-02-16,2024-02-16,ｓｈａｒｅ．ｊｐ株式会社,,株式会社,東京都,足立区,大谷田４丁目７番４号鈴木マンション４０５号,,13,121,1200001,,,,,,,2024-02-16,1,,,,,シェアドットジェーピー,0
347,2011803006098,新規,0,2024-02-16,2024-02-16,ＧＬＢ合同会社,,合同会社,東京都,足立区,中川４丁目３７番１７－４０３号,,13,121,1200002,,,,,,,2024-02-16,1,,,,,ジーエルビー,0
355,2013303006999,新規,0,2024-02-16,2024-02-16,合同会社ひまわり,,合同会社,東京都,豊島区,目白５丁目１９番５－９０４号,,13,116,1710031,,,,,,,2024-02-16,1,,,,,ヒマワリ,0
356,2013303007007,新規,0,2024-02-16,2024-02-16,合同会社ＭＢＳ,,合同会社,東京都,豊島区,池袋３丁目４４番３号,,13,116,1710014,,,,,,,2024-02-16,1,,,,,エムビーエス,0
361,2021001081455,新規,0,2024-02-16,2024-02-16,株式会社陸翔,,株式会社,神奈川県,相模原市南区,古淵４丁目１０番１９号２Ｆ,,14,153,2520344,,,,,,,2024-02-16,1,,,,,リクショウ,0
365,2021003014165,新規,0,2024-02-16,2024-02-16,合同会社スリーエイチ,,合同会社,神奈川県,横須賀市,平作７丁目１８番３号,,14,201,2380032,,,,,,,2024-02-16,1,,,,,スリーエイチ,0
367,2030001158675,新規,0,2024-02-16,2024-02-16,株式会社心幸,,株式会社,埼玉県,川越市,今成３丁目１８番地６,,11,201,3501105,,,,,,,2024-02-16,1,,,,,シンコウ,0
368,2030001158766,新規,0,2024-02-16,2024-02-16,株式会社ワンアシスト,,株式会社,埼玉県,熊谷市,新堀８７７番地１,,11,202,3600841,,,,,,,2024-02-16,1,,,,,ワンアシスト,0
375,2040001132241,新規,0,2024-02-16,2024-02-16,株式会社ｅｓｔａｔｅ　ｉｎｃ,,株式会社,千葉県,千葉市若葉区,都賀２丁目１６番１０号２０１号室,,12,104,2640025,,,,,,,2024-02-16,1,,,,,エステートインク,0
380,2050001054303,新規,0,2024-02-16,2024-02-16,株式会社空庭,,株式会社,茨城県,つくば市,真瀬１５４５番地１１,,08,220,3002656,,,,,,,2024-02-16,1,,,,,ソラニワ,0
381,2050003008141,新規,0,2024-02-16,2024-02-16,合同会社ゆうさい,,合同会社,茨城県,水戸市,平須町１８２２番地の１６７,,08,201,3100853,,,,,,,2024-02-16,1,,,,,ユウサイ,0
382,2060001036829,新規,0,2024-02-16,2024-02-16,Ｍｕｓｌｉｍ　Ｍｕｈｉｂ　Ｔｒａｄｉｎｇ株式会社,,株式会社,栃木県,栃木市,大平町北武井１１１１番地,,09,203,3294412,,,,,,,2024-02-16,1,,,,,ムスリムムヒブトレーディング,0
385,2060003004916,新規,0,2024-02-16,2024-02-16,合同会社エムアールビジネスブレイン,,合同会社,栃木県,宇都宮市,横山３丁目１７番６号,,09,201,3200005,,,,,,,2024-02-16,1,,,,,エムアールビジネスブレイン,0
394,2080401027005,新規,0,2024-02-16,2024-02-16,株式会社ポスティング浜松,,株式会社,静岡県,浜松市中央区,上西町３２番地の２,,22,138,4350048,,,,,,,2024-02-16,1,,,,,ポスティングハママツ,0
402,2110001038191,新規,0,2024-02-16,2024-02-16,株式会社ＭＳ　ＦＡＣＴＯＲＹ,,株式会社,新潟県,燕市,宮町５番２号,,15,213,9591257,,,,,,,2024-02-16,1,,,,,エムエスファクトリー,0
409,2120001262344,新規,0,2024-02-16,2024-02-16,ｓｙｎｔｈｄｅｘ株式会社,,株式会社,大阪府,大阪市西淀川区,姫島２丁目５番１９号,,27,113,5550033,,,,,,,2024-02-16,1,,,,,シンセデクス,0
410,2120001262360,新規,0,2024-02-16,2024-02-16,株式会社ほほえみの国,,株式会社,大阪府,大阪市中央区,高津２丁目８番６号１Ｆ,,27,128,5420072,,,,,,,2024-02-16,1,,,,,ホホエミノクニ,0
411,2120001262377,新規,0,2024-02-16,2024-02-16,津守運輸株式会社,,株式会社,大阪府,大阪市西成区,津守２丁目７２－１,,27,122,5570062,,,,,,,2024-02-16,1,,,,,ツモリウンユ,0
417,2120003025690,新規,0,2024-02-16,2024-02-16,ＴＭＲｕｓｈ合同会社,,合同会社,大阪府,大阪市北区,梅田１丁目１‐３大阪駅前第３ビル２９階１‐１‐１号室,,27,127,5300001,,,,,,,2024-02-16,1,,,,,ティーエムラッシュ,0
418,2120003025947,新規,0,2024-02-16,2024-02-16,合同会社コレクトサポート,,合同会社,大阪府,大阪市住之江区,浜口西２丁目３番３２号３０１,,27,125,5590006,,,,,,,2024-02-16,1,,,,,コレクトサポート,0
421,2120103005683,新規,0,2024-02-16,2024-02-16,合同会社アルーニ,,合同会社,大阪府,岸和田市,尾生町３丁目４番４８号,,27,202,5960816,,,,,,,2024-02-16,1,,,,,アルーニ,0
424,2122001037841,新規,0,2024-02-16,2024-02-16,株式会社ＧＩＣ,,株式会社,大阪府,東大阪市,西堤本通東１丁目１番１号東大阪大発ビルディング２階,,27,227,5770045,,,,,,,2024-02-16,1,,,,,ジーアイシー,0
441,2140001133329,新規,0,2024-02-16,2024-02-16,株式会社オーエムアイホールディングス,,株式会社,兵庫県,芦屋市,朝日ケ丘町４－１３－２１５,,28,206,6590012,,,,,,,2024-02-16,1,,,,,オーエムアイホールディングス,0
442,2140001133361,新規,0,2024-02-16,2024-02-16,ホームメンテナンス株式会社,,株式会社,兵庫県,姫路市,野里４４４番地１,,28,201,6700811,,,,,,,2024-02-16,1,,,,,ホームメンテナンス,0
445,2150001027075,新規,0,2024-02-16,2024-02-16,株式会社ワズ,,株式会社,奈良県,五條市,釜窪町１４９２番地の３２,,29,207,6370084,,,,,,,2024-02-16,1,,,,,ワズ,0
446,2150001027083,新規,0,2024-02-16,2024-02-16,株式会社サムスターコーポレーション,,株式会社,奈良県,奈良市,富雄元町１丁目５番１号,,29,201,6310078,,,,,,,2024-02-16,1,,,,,サムスターコーポレーション,0
460,2180001160162,新規,0,2024-02-16,2024-02-16,株式会社コンドウ・アセットマネジメント,,株式会社,愛知県,名古屋市昭和区,石仏町２丁目１４番地,,23,107,4660023,,,,,,,2024-02-16,1,,,,,コンドウアセットマネジメント,0
461,2180001160170,新規,0,2024-02-16,2024-02-16,株式会社ママほっと,,株式会社,愛知県,一宮市,今伊勢町馬寄字志水８番地１０,,23,203,4910051,,,,,,,2024-02-16,1,,,,,ママホット,0
462,2180001160179,新規,0,2024-02-16,2024-02-16,株式会社ＵＮＩＴＥ,,株式会社,愛知県,名古屋市天白区,八事山１５４番地内田マンション３０３,,23,116,4680077,,,,,,,2024-02-16,1,,,,,ユナイト,0
467,2180003026378,新規,0,2024-02-16,2024-02-16,ＭＡＲＵＢＥ合同会社,,合同会社,愛知県,春日井市,出川町３丁目１番地５,,23,206,4870025,,,,,,,2024-02-16,1,,,,,マルベ,0
478,2220005008808,新規,0,2024-02-16,2024-02-16,一般社団法人みんなの青空‐虹色ｒｏｏｍ,,その他の設立登記法人,石川県,河北郡津幡町,字川尻ヨ１７４番地９,,17,361,9290334,,,,,,,2024-02-16,1,,,,,ミンナノアオゾラニジイロルーム,0
480,2240001062798,新規,0,2024-02-16,2024-02-16,株式会社ＧＡＲＤＥＮ,,株式会社,広島県,広島市中区,大手町３丁目１０番２７号,,34,101,7300051,,,,,,,2024-02-16,1,,,,,ガーデン,0
490,2260001038763,新規,0,2024-02-16,2024-02-16,株式会社クローバー恒産,,株式会社,岡山県,岡山市北区,野田２丁目８番３号,,33,101,7000971,,,,,,,2024-02-16,1,,,,,クローバーコウサン,0
504,2290001104678,新規,0,2024-02-16,2024-02-16,博雅ビジネス株式会社,,株式会社,福岡県,糸島市,末永１６５番地６,,40,230,8191572,,,,,,,2024-02-16,1,,,,,ハクガビジネス,0
505,2290001104703,新規,0,2024-02-16,2024-02-16,株式会社良水,,株式会社,福岡県,柳川市,下宮永町６１３番地１,,40,207,8320059,,,,,,,2024-02-16,1,,,,,ヨシミズ,0
512,2310005008740,新規,0,2024-02-16,2024-02-16,一般財団法人石木ダム地域振興対策基金,,その他の設立登記法人,長崎県,東彼杵郡川棚町,百津郷３９４番地２,,42,322,8593605,,,,,,,2024-02-16,1,,,,,イシキダムチイキシンコウタイサクキキン,0
516,2350001018789,新規,0,2024-02-16,2024-02-16,株式会社ウィンドスクエア,,株式会社,宮崎県,宮崎市,清武町加納甲１９７９番地１４,,45,201,8891605,,,,,,,2024-02-16,1,,,,,ウィンドスクエア,0
526,2360001033201,新規,0,2024-02-16,2024-02-16,Ｒｅｉ．株式会社,,株式会社,沖縄県,沖縄市,古謝２丁目１３番１６号,,47,211,9042161,,,,,,,2024-02-16,1,,,,,レイドット,0
527,2360003013713,新規,0,2024-02-16,2024-02-16,合同会社Ｍ‐ＧＡＲＡＧＥ,,合同会社,沖縄県,南城市,玉城字愛地８０７番地,,47,215,9010617,,,,,,,2024-02-16,1,,,,,エムガレージ,0
528,2360005006987,新規,0,2024-02-16,2024-02-16,一般社団法人百花俊才アカデミー,,その他の設立登記法人,沖縄県,宜野湾市,大山２丁目２７－１３,,47,205,9012223,,,,,,,2024-02-16,1,,,,,ヒャッカシュンサイアカデミー,0
531,2370003006484,新規,0,2024-02-16,2024-02-16,合同会社Ｌｅｇｇｅｒｏ,,合同会社,宮城県,仙台市青葉区,宮町４丁目５番１７－１０３号サンパレス宮町,,04,101,9800004,,,,,,,2024-02-16,1,,,,,リジェーロ,0
536,2400003003214,新規,0,2024-02-16,2024-02-16,合同会社北上ＪＪ,,合同会社,岩手県,北上市,相去町丙午８６番地４Ｃ－１０２,,03,206,0240051,,,,,,,2024-02-16,1,,,,,キタカミジェイジェイ,0
542,2430005014891,新規,0,2024-02-16,2024-02-16,一般社団法人Ｐａｕｔａｇｅｒ華の風,,その他の設立登記法人,北海道,札幌市東区,東苗穂三条１丁目３番４５－６０１号,,01,103,0070803,,,,,,,2024-02-16,1,,,,,パルタジェハナノカゼ,0
543,2460001005867,新規,0,2024-02-16,2024-02-16,株式会社オルクス,,株式会社,北海道,阿寒郡鶴居村,字雪裡原野北七線東５番地６,,01,667,0851200,,,,,,,2024-02-16,1,,,,,オルクス,0
547,2700150005503,新規,0,2024-02-16,2015-10-09,日本工作機械販売協会,,その他,東京都,港区,芝５丁目２６番３０号専売ビル３階,,13,103,1080014,,,,,,,2015-10-09,1,,,,,ニホンコウサクキカイハンバイキヨウカイ,0
549,2700150124006,新規,0,2024-02-16,2024-02-16,Ｎｉｌａｍ　Ｍｏｔｏｒｓ　Ｐａｒｔｓ,,外国会社等,千葉県,八街市,文違６０－４－１,,12,230,2891104,スリランカ民主社会主義共和国、デニピティヤ、カデワッタ、アクレッサロード、Ｎｏ．０７,,,,,,2024-02-16,1,,,,,ニラムモーターパーツ,0
551,3010001242331,新規,0,2024-02-16,2024-02-16,グラーツ・オートモーティブ・ホールディングス株式会社,,株式会社,東京都,千代田区,有楽町１丁目８番１号,,13,101,1000006,,,,,,,2024-02-16,1,,,,,グラーツオートモーティブホールディングス,0
552,3010001242356,新規,0,2024-02-16,2024-02-16,ａｎｄ　ＤｅａｒＳ株式会社,,株式会社,東京都,千代田区,有楽町１丁目１３番２号第一生命日比谷ファースト１２階,,13,101,1000006,,,,,,,2024-02-16,1,,,,,アンドディアーズ,0
553,3010001242389,新規,0,2024-02-16,2024-02-16,株式会社ＮＥＯ　Ｓｐｌａｓｈ,,株式会社,東京都,千代田区,神田多町２丁目２番,,13,101,1010046,,,,,,,2024-02-16,1,,,,,ネオスプラッシュ,0
554,3010001242397,新規,0,2024-02-16,2024-02-16,株式会社Ｆｒｕｉｔｉｏｎ,,株式会社,東京都,中央区,日本橋箱崎町１４－８クロスパーク箱崎１０１,,13,102,1030015,,,,,,,2024-02-16,1,,,,,フルイション,0
555,3010003042936,新規,0,2024-02-16,2024-02-16,合同会社ＣＪ２,,合同会社,東京都,中央区,八丁堀４丁目２番１０号ＡＯＪ税理士法人内,,13,102,1040032,,,,,,,2024-02-16,1,,,,,シージェイツー,0
557,3010005037901,新規,0,2024-02-16,2024-02-16,弁護士法人植野法律事務所,,その他の設立登記法人,東京都,千代田区,三番町２８－６グラン三番町１０４,,13,101,1020075,,,,,,,2024-02-16,1,,,,,ウエノホウリツジムショ,0
567,3010405022965,新規,0,2024-02-16,2024-02-16,一般財団法人日本栄養実践科学戦略機構,,その他の設立登記法人,東京都,港区,新橋５丁目１３番５号,,13,103,1050004,,,,,,,2024-02-16,1,,,,,ニホンエイヨウジッセンカガクセンリャクキコウ,0
569,3010601064662,新規,0,2024-02-16,2024-02-16,株式会社ａｎｄ　ｉｔ,,株式会社,東京都,江東区,青海２丁目７番４号ｔｈｅＳОＨО４０４,,13,108,1350064,,,,,,,2024-02-16,1,,,,,アンドイット,0
570,3010601064670,新規,0,2024-02-16,2024-02-16,やさかフーズ株式会社,,株式会社,東京都,江東区,豊洲６丁目５番１号,,13,108,1350061,,,,,,,2024-02-16,1,,,,,ヤサカフーズ,0
584,3011003018505,新規,0,2024-02-16,2024-02-16,合同会社Ｓｕｎ,,合同会社,東京都,渋谷区,道玄坂１丁目１０番８号渋谷道玄坂東急ビル２Ｆ－Ｃ,,13,113,1500043,,,,,,,2024-02-16,1,,,,,サン,0
586,3011101106194,新規,0,2024-02-16,2024-02-16,ＢｉＳｔｅｅｄ株式会社,,株式会社,東京都,新宿区,新宿１丁目３６番２号新宿第七葉山ビル３階,,13,104,1600022,,,,,,,2024-02-16,1,,,,,バイスティード,0
589,3011401025862,新規,0,2024-02-16,2024-02-16,卓越国際株式会社,,株式会社,東京都,板橋区,常盤台３丁目２５－２丸富ビル３０１,,13,119,1740071,,,,,,,2024-02-16,1,,,,,タクエツコクサイ,0
590,3011403004278,新規,0,2024-02-16,2024-02-16,合同会社ねこあらし,,合同会社,東京都,板橋区,宮本町６５－１,,13,119,1740054,,,,,,,2024-02-16,1,,,,,ネコアラシ,0
592,3011503005960,新規,0,2024-02-16,2024-02-16,合同会社想贈資産研究所,,合同会社,東京都,北区,豊島７丁目３２番３号,,13,117,1140003,,,,,,,2024-02-16,1,,,,,ソウゾウシサンケンキュウジョ,0
594,3011601027535,新規,0,2024-02-16,2024-02-16,株式会社グラフィウム,,株式会社,東京都,練馬区,東大泉７丁目５０番４０号,,13,120,1780063,,,,,,,2024-02-16,1,,,,,グラフィウム,0
596,3011703003748,新規,0,2024-02-16,2024-02-16,ＪＨ合同会社,,合同会社,東京都,江戸川区,北葛西１丁目１１番３号,,13,123,1340081,,,,,,,2024-02-16,1,,,,,ジェイエイチ,0
599,3012401041511,新規,0,2024-02-16,2024-02-16,株式会社ビック・ウエスト,,株式会社,東京都,府中市,本町１丁目１４番地の３２号,,13,206,1830027,,,,,,,2024-02-16,1,,,,,ビックウエスト,0
602,3012803003316,新規,0,2024-02-16,2024-02-16,合同会社金工房,,合同会社,東京都,国分寺市,北町４丁目１０番地７,,13,214,1850001,,,,,,,2024-02-16,1,,,,,キンコウボウ,0
604,3013301052094,新規,0,2024-02-16,2024-02-16,株式会社フロンティア,,株式会社,東京都,豊島区,池袋２丁目６３番４号光映ビル１階２階,,13,116,1710014,,,,,,,2024-02-16,1,,,,,フロンティア,0
605,3020001155739,新規,0,2024-02-16,2024-02-16,株式会社Ｃｉｅｌ　Ｂｌｅｕ　ＡＩ,,株式会社,神奈川県,川崎市中原区,井田三舞町１５番１―４４３号プラウドシティ元住吉,,14,133,2110037,,,,,,,2024-02-16,1,,,,,シエルブルーエーアイ,0
606,3020001155813,新規,0,2024-02-16,2024-02-16,ＤＭＣホールディングス株式会社,,株式会社,神奈川県,横浜市西区,北幸２丁目７番１０号,,14,103,2200004,,,,,,,2024-02-16,1,,,,,ディエムシーホールディングス,0
607,3020001155821,新規,0,2024-02-16,2024-02-16,株式会社ＴＡＩＹＯ,,株式会社,神奈川県,横浜市泉区,上飯田町２４３８番地２,,14,116,2450018,,,,,,,2024-02-16,1,,,,,タイヨウ,0
613,3021003014164,新規,0,2024-02-16,2024-02-16,合同会社ビション,,合同会社,神奈川県,相模原市南区,南台５丁目１０番２０号,,14,153,2520314,,,,,,,2024-02-16,1,,,,,ビション,0
621,3030001158682,新規,0,2024-02-16,2024-02-16,ＬＹ株式会社,,株式会社,埼玉県,春日部市,道口蛭田１８６番地１４,,11,214,3440045,,,,,,,2024-02-16,1,,,,,エルワイ,0
622,3030001158699,新規,0,2024-02-16,2024-02-16,三洋建創株式会社,,株式会社,埼玉県,さいたま市大宮区,桜木町２丁目３番地大宮マルイ７階,,11,103,3300854,,,,,,,2024-02-16,1,,,,,サンヨウケンソウ,0
623,3030001158708,新規,0,2024-02-16,2024-02-16,株式会社ＭＤＰ,,株式会社,埼玉県,北足立郡伊奈町,学園１丁目７２番地,,11,301,3620813,,,,,,,2024-02-16,1,,,,,エムディーピー,0
624,3030001158716,新規,0,2024-02-16,2024-02-16,株式会社オルソブラン善,,株式会社,埼玉県,さいたま市北区,盆栽町２０３番地８,,11,102,3310805,,,,,,,2024-02-16,1,,,,,オルソブランゼン,0
625,3030001158732,新規,0,2024-02-16,2024-02-16,株式会社トラストテック,,株式会社,埼玉県,飯能市,大字阿須１４３番地２,,11,209,3570046,,,,,,,2024-02-16,1,,,,,トラストテック,0
626,3030001158740,新規,0,2024-02-16,2024-02-16,株式会社ＴｗｏＦａｃｅ,,株式会社,埼玉県,川越市,大字今福５２０番地２５,,11,201,3501151,,,,,,,2024-02-16,1,,,,,トゥフェイス,0
627,3030001158749,新規,0,2024-02-16,2024-02-16,株式会社彩玉Ｍ＆Ｙ,,株式会社,埼玉県,さいたま市岩槻区,大字真福寺１３５１番地１,,11,110,3390044,,,,,,,2024-02-16,1,,,,,サイタマエムアンドワイ,0
636,3030003023629,新規,0,2024-02-16,2024-02-16,ＧＡＹＡＮＳＨＡ　ＡＵＴＯ　ＰＡＲＴＳ合同会社,,合同会社,埼玉県,飯能市,柳町７番１０号ＫＩＶ商会館飯能Ｃ号室,,11,209,3570035,,,,,,,2024-02-16,1,,,,,ガヤンシャオートパーツ,0
637,3030003023645,新規,0,2024-02-16,2024-02-16,マヒン合同会社,,合同会社,埼玉県,川口市,西川口３丁目２０番５号,,11,203,3320021,,,,,,,2024-02-16,1,,,,,マヒン,0
642,3040001132249,新規,0,2024-02-16,2024-02-16,アイ・モデスト株式会社,,株式会社,千葉県,佐倉市,新町５０番地５,,12,212,2850023,,,,,,,2024-02-16,1,,,,,アイモデスト,0
653,3090003002494,新規,0,2024-02-16,2024-02-16,合同会社ヒト,,合同会社,山梨県,北杜市,小淵沢町上笹尾３２２２番地１４,,19,209,4080041,,,,,,,2024-02-16,1,,,,,ヒト,0
658,3110001038190,新規,0,2024-02-16,2024-02-16,株式会社大,,株式会社,新潟県,長岡市,中沢３丁目２７番地１３ウェルズ２１中沢Ｂ号室,,15,202,9400853,,,,,,,2024-02-16,1,,,,,ダイ,0
665,3120001262293,新規,0,2024-02-16,2024-02-16,徳錦株式会社,,株式会社,大阪府,大阪市住之江区,安立２丁目１０番１４号三坂ビル３０１号室,,27,125,5590003,,,,,,,2024-02-16,1,,,,,トクキン,0
666,3120001262335,新規,0,2024-02-16,2024-02-16,株式会社Ｍ’ｓ　ｃｏｒｐｏｒａｔｉｏｎ,,株式会社,大阪府,大阪市此花区,梅香３丁目２７番１１号,,27,104,5540013,,,,,,,2024-02-16,1,,,,,エムズコーポレーション,0
667,3120001262384,新規,0,2024-02-16,2024-02-16,株式会社ＮＯＲＤ,,株式会社,大阪府,大阪市中央区,南船場３丁目１１－１０大陽ビルＢ１,,27,128,5420081,,,,,,,2024-02-16,1,,,,,ノルド,0
671,3120003025946,新規,0,2024-02-16,2024-02-16,合同会社コマル,,合同会社,大阪府,大阪市中央区,南船場３丁目２番２２号おおきに南船場ビル２０５,,27,128,5420081,,,,,,,2024-02-16,1,,,,,コマル,0
675,3120101069060,新規,0,2024-02-16,2024-02-16,株式会社プレゴ,,株式会社,大阪府,堺市南区,深阪南２９９番地１７,,27,145,5900103,,,,,,,2024-02-16,1,,,,,プレゴ,0
679,3122001037832,新規,0,2024-02-16,2024-02-16,株式会社ＮＭテック,,株式会社,大阪府,大東市,三箇６丁目１番３２号,,27,218,5740077,,,,,,,2024-02-16,1,,,,,エヌエムテック,0
684,3130001076370,新規,0,2024-02-16,2024-02-16,株式会社さがのや,,株式会社,京都府,京都市右京区,嵯峨天龍寺車道町１１番地,,26,108,6168373,,,,,,,2024-02-16,1,,,,,サガノヤ,0
692,3140001133336,新規,0,2024-02-16,2024-02-16,株式会社結,,株式会社,兵庫県,川西市,下加茂１丁目５番２０号,,28,217,6660022,,,,,,,2024-02-16,1,,,,,ユウ,0
693,3140001133360,新規,0,2024-02-16,2024-02-16,株式会社オフィスらっちょ,,株式会社,兵庫県,姫路市,東山２４７番地５,,28,201,6728014,,,,,,,2024-02-16,1,,,,,オフィスラッチョ,0
697,3140003020177,新規,0,2024-02-16,2024-02-16,合同会社ＺＥＮ　ＢＩＯＴＩＣＳ,,合同会社,兵庫県,神戸市中央区,磯上通８丁目１番２９号カサベラビルＣ＆Ｍ４０３号室,,28,110,6510086,,,,,,,2024-02-16,1,,,,,ゼンバイオティクス,0
702,3150001027082,新規,0,2024-02-16,2024-02-16,株式会社アークス,,株式会社,奈良県,北葛城郡広陵町,大字南郷８６０番地８,,29,426,6350814,,,,,,,2024-02-16,1,,,,,アークス,0
704,3150005009556,新規,0,2024-02-16,2024-02-16,一般社団法人東豊,,その他の設立登記法人,奈良県,山辺郡山添村,大字岩屋２６６５番地１,,29,322,6302232,,,,,,,2024-02-16,1,,,,,ヒガシトヨ,0
705,3160001025696,新規,0,2024-02-16,2024-02-16,株式会社ストラーダ・ネクスト,,株式会社,滋賀県,草津市,野路８丁目５番２９号,,25,206,5250059,,,,,,,2024-02-16,1,,,,,ストラーダネクスト,0
706,3170001018014,新規,0,2024-02-16,2024-02-16,株式会社セカンド,,株式会社,和歌山県,和歌山市,楠本３７７番地１,,30,201,6496313,,,,,,,2024-02-16,1,,,,,セカンド,0
716,3180001160129,新規,0,2024-02-16,2024-02-16,株式会社Ｍａｔｓｕｉｓｈｉ　Ｍｕｓｉｃ　Ｇｒｏｕｐ,,株式会社,愛知県,半田市,天王町２丁目２７番地の６,,23,205,4750859,,,,,,,2024-02-16,1,,,,,マツイシミュージックグループ,0
717,3180001160161,新規,0,2024-02-16,2024-02-16,株式会社Ｇｒｏｗ　ｗｏｒｋ,,株式会社,愛知県,一宮市,開明字名古羅２５番地１,,23,203,4940001,,,,,,,2024-02-16,1,,,,,グローワーク,0
718,3180001160178,新規,0,2024-02-16,2024-02-16,ネクストファーマ株式会社,,株式会社,愛知県,名古屋市千種区,西崎町２丁目５５番地の４,,23,101,4640825,,,,,,,2024-02-16,1,,,,,ネクストファーマ,0
720,3180003026369,新規,0,2024-02-16,2024-02-16,合同会社センシンレン販売,,合同会社,愛知県,日進市,竹の山４丁目１８０１番地,,23,230,4700136,,,,,,,2024-02-16,1,,,,,センシンレンハンバイ,0
721,3180005020519,新規,0,2024-02-16,2024-02-16,弁護士法人乾法律事務所,,その他の設立登記法人,愛知県,名古屋市東区,葵３丁目２４番２号,,23,102,4610004,,,,,,,2024-02-16,1,,,,,イヌイホウリツジムショ,0
724,3190001031114,新規,0,2024-02-16,2024-02-16,株式会社ＯＴＡＳ,,株式会社,三重県,三重郡川越町,大字亀尾新田１１４番地３,,24,344,5108113,,,,,,,2024-02-16,1,,,,,オータス,0
733,3220003003677,新規,0,2024-02-16,2024-02-16,合同会社ＣＡＲＲＹＯＮ,,合同会社,石川県,能美郡川北町,字橘ツ２６番地２,,17,324,9231276,,,,,,,2024-02-16,1,,,,,キャリオン,0
735,3240001062780,新規,0,2024-02-16,2024-02-16,株式会社Ｃｈａｔ,,株式会社,広島県,東広島市,西条栄町２番３号第三啓発ビル３０４,,34,212,7390015,,,,,,,2024-02-16,1,,,,,チャット,0
738,3250001020523,新規,0,2024-02-16,2024-02-16,金通商事株式会社,,株式会社,山口県,宇部市,大字船木５８５番１,,35,202,7570216,,,,,,,2024-02-16,1,,,,,キンツウショウジ,0
740,3260001038762,新規,0,2024-02-16,2024-02-16,コアフォワード株式会社,,株式会社,岡山県,新見市,哲多町矢戸１７９３番地２,,33,210,7180306,,,,,,,2024-02-16,1,,,,,コアフォワード,0
741,3270001008921,新規,0,2024-02-16,2024-02-16,サンスマイル株式会社,,株式会社,鳥取県,鳥取市,津ノ井２４８番地１１,,31,201,6891102,,,,,,,2024-02-16,1,,,,,サンスマイル,0
752,3290001104693,新規,0,2024-02-16,2024-02-16,株式会社ＭＳＴＩ,,株式会社,福岡県,福岡市中央区,平尾３丁目１７番３３号,,40,133,8100014,,,,,,,2024-02-16,1,,,,,エムエスティアイ,0
755,3290003014973,新規,0,2024-02-16,2024-02-16,米沢第一バイオマス発電所合同会社,,合同会社,福岡県,福岡市早良区,百道浜２丁目４番２７号ＡＩビル６Ｆ,,40,137,8140001,,,,,,,2024-02-16,1,,,,,ヨネザワダイイチバイオマスハツデンショ,0
759,3310001018866,新規,0,2024-02-16,2024-02-16,株式会社ｉｎａｚａｗａ,,株式会社,長崎県,松浦市,御厨町上登木免３２５番地第１,,42,208,8594773,,,,,,,2024-02-16,1,,,,,イナザワ,0
764,3330001031768,新規,0,2024-02-16,2024-02-16,パレスエンター株式会社,,株式会社,熊本県,熊本市南区,十禅寺２丁目３番１６号,,43,104,8600824,,,,,,,2024-02-16,1,,,,,パレスエンター,0
765,3340001026288,新規,0,2024-02-16,2024-02-16,株式会社笑,,株式会社,鹿児島県,垂水市,田神２３１０－３,,46,214,8912104,,,,,,,2024-02-16,1,,,,,ショウ,0
767,3340005009702,新規,0,2024-02-16,2024-02-16,無限責任岩崎負債整理組合,00133701,その他の設立登記法人,鹿児島県,肝属郡錦江町,（旧主たる事務所肝属郡田代村）,,46,490,8932300,,,,,,,2024-02-16,1,,,,,,0
772,3370001050946,新規,0,2024-02-16,2024-02-16,株式会社Ｒｉｓｅ,,株式会社,宮城県,石巻市,須江字しらさぎ台２丁目７番地２３,,04,202,9871221,,,,,,,2024-02-16,1,,,,,ライズ,0
773,3370005010748,新規,0,2024-02-16,2024-02-16,一般社団法人希望の襷,,その他の設立登記法人,宮城県,仙台市青葉区,葉山町１番２５‐２０６号,,04,101,9810917,,,,,,,2024-02-16,1,,,,,キボウノタスキ,0
778,3380003005682,新規,0,2024-02-16,2024-02-16,Ｗｉｌｌ　Ｓｍｉｌｅ合同会社,,合同会社,福島県,いわき市,内郷内町前田１１０番地の２,,07,204,9738404,,,,,,,2024-02-16,1,,,,,ウィルスマイル,0
789,3430003015957,新規,0,2024-02-16,2024-02-16,合同会社山本工業,,合同会社,北海道,苫小牧市,のぞみ町１丁目５番５号,,01,213,0591272,,,,,,,2024-02-16,1,,,,,ヤマモトコウギョウ,0
791,3490005006924,新規,0,2024-02-16,2024-02-16,一般社団法人日本たたき協会,,その他の設立登記法人,高知県,高知市,追手筋１丁目８－２５,,39,201,7800842,,,,,,,2024-02-16,1,,,,,ニホンタタキキョウカイ,0
792,3700150123989,新規,0,2024-02-16,2024-02-16,八雲本町町会,,その他,大阪府,守口市,八雲西町４丁目１７５番地,,27,209,5700006,,,,,,,2024-02-16,1,,,,,ヤクモホンマチチヨウカイ,0
793,3700150124005,新規,0,2024-02-16,2024-02-16,ＡＩＫＡ　ＴＥＣＨＮＩＣＡＬ　ＪＯＩＮＴ　ＳＴＯＣＫ　ＣＯＭＰＡＮＹ,,外国会社等,愛知県,津島市,鹿伏兎町上春日台３番地４,,23,208,4960023,ベトナム社会主義共和国タイグエン省タイグエン市フーサー区５号団地フーサー通り２６６号,,,,,,2024-02-16,1,,,,,アイカテクニカルジヨイントストツクカンパニー,0
801,4010001242388,新規,0,2024-02-16,2024-02-16,卓越株式会社,,株式会社,東京都,中央区,八丁堀４丁目１２番２０号６Ｂ,,13,102,1040032,,,,,,,2024-02-16,1,,,,,タクエツ,0
810,4010003042951,新規,0,2024-02-16,2024-02-16,Ｃｒｉｓｐ　Ｇｒｏｕｐ　Ｊａｐａｎ合同会社,,合同会社,東京都,千代田区,五番町１２番地７－２０４３,,13,101,1020076,,,,,,,2024-02-16,1,,,,,クリスプグループジャパン,0
827,4010801034778,新規,0,2024-02-16,2024-02-16,株式会社Ｋａｅｍｏｎ,,株式会社,東京都,大田区,大森北５丁目７番１２号,,13,111,1430016,,,,,,,2024-02-16,1,,,,,カエモン,0
836,4011001160101,新規,0,2024-02-16,2024-02-16,株式会社ＦＯＬＧＯＲＥ,,株式会社,東京都,渋谷区,渋谷２丁目１９－１５宮益坂ビルディング６０９,,13,113,1500002,,,,,,,2024-02-16,1,,,,,フォルゴレ,0
839,4011003018504,新規,0,2024-02-16,2024-02-16,Ｈｅａｌｒｉｄｇｅ　Ｊａｐａｎ合同会社,,合同会社,東京都,渋谷区,渋谷２丁目１９番１５号宮益坂ビルディング６０９,,13,113,1500002,,,,,,,2024-02-16,1,,,,,ヘルリッジジャパン,0
840,4011101106210,新規,0,2024-02-16,2024-02-16,株式会社ＦｉｆｔｙＥｎ,,株式会社,東京都,新宿区,西新宿７丁目５番９号ファーストリアルタワー新宿１５１４号,,13,104,1600023,,,,,,,2024-02-16,1,,,,,フィフティエン,0
842,4011201025244,新規,0,2024-02-16,2024-02-16,株式会社ラペオニア,,株式会社,東京都,中野区,中野４丁目１０番２号,,13,114,1640001,,,,,,,2024-02-16,1,,,,,ラペオニア,0
844,4011301029418,新規,0,2024-02-16,2024-02-16,株式会社ＦｌｅＸ,,株式会社,東京都,杉並区,清水１丁目８－１１,,13,115,1670033,,,,,,,2024-02-16,1,,,,,フレックス,0
845,4011303005061,新規,0,2024-02-16,2024-02-16,合同会社ウィトリート,,合同会社,東京都,杉並区,上荻１丁目１２番１号荻窪ビル３０２,,13,115,1670043,,,,,,,2024-02-16,1,,,,,ウィトリート,0
851,4011601027526,新規,0,2024-02-16,2024-02-16,株式会社ＦｏｒｃｅＷｉｔｈ,,株式会社,東京都,練馬区,石神井町２丁目２９番１号,,13,120,1770041,,,,,,,2024-02-16,1,,,,,フォースウィズ,0
855,4011701027021,新規,0,2024-02-16,2024-02-16,株式会社あいホールディングス,,株式会社,東京都,江戸川区,松江４丁目３０番１３号,,13,123,1320025,,,,,,,2024-02-16,1,,,,,アイホールディングス,0
856,4011803006096,新規,0,2024-02-16,2024-02-16,合同会社ＷＡＶＥ,,合同会社,東京都,足立区,谷中２丁目１２番１２号,,13,121,1200006,,,,,,,2024-02-16,1,,,,,ウェーブ,0
861,4012401041527,新規,0,2024-02-16,2024-02-16,株式会社アップステートトレーディング,,株式会社,東京都,武蔵野市,西久保３丁目１１番１号,,13,203,1800013,,,,,,,2024-02-16,1,,,,,アップステートトレーディング,0
862,4012401041535,新規,0,2024-02-16,2024-02-16,株式会社タナカ,,株式会社,東京都,小金井市,前原町４丁目１７番２１号,,13,210,1840013,,,,,,,2024-02-16,1,,,,,タナカ,0
863,4012401041543,新規,0,2024-02-16,2024-02-16,ＮＡＮＴＯＫＡ株式会社,,株式会社,東京都,三鷹市,下連雀８丁目７－５モンレーヴ吉祥寺２０１,,13,204,1810013,,,,,,,2024-02-16,1,,,,,ナントカ,0
866,4012701018084,新規,0,2024-02-16,2024-02-16,ＴＯＭＩＴＡ株式会社,,株式会社,東京都,西東京市,泉町５丁目１番１８号,,13,229,2020011,,,,,,,2024-02-16,1,,,,,トミタ,0
867,4012701018092,新規,0,2024-02-16,2024-02-16,株式会社ｉｃｈｉｂａｎ,,株式会社,東京都,西東京市,ひばりが丘北３丁目３番２９－３１３号,,13,229,2020002,,,,,,,2024-02-16,1,,,,,イチバン,0
875,4020001155853,新規,0,2024-02-16,2024-02-16,株式会社コスメ・クラッセ,,株式会社,神奈川県,横浜市港北区,篠原東１丁目２番３５号,,14,109,2220022,,,,,,,2024-02-16,1,,,,,コスメクラッセ,0
879,4020003025542,新規,0,2024-02-16,2024-02-16,合同会社江南,,合同会社,神奈川県,横浜市中区,若葉町３丁目４３番地１セザール伊勢佐木１０１,,14,104,2310056,,,,,,,2024-02-16,1,,,,,カンナム,0
885,4021005013023,新規,0,2024-02-16,2024-02-16,税理士法人アズタックス,,その他の設立登記法人,神奈川県,平塚市,四之宮３丁目１４番１６号,,14,203,2540014,,,,,,,2024-02-16,1,,,,,アズタックス,0
888,4030001158707,新規,0,2024-02-16,2024-02-16,株式会社福祉応援団,,株式会社,埼玉県,鴻巣市,雷電１丁目３番３５号,,11,217,3650077,,,,,,,2024-02-16,1,,,,,フクシオウエンダン,0
889,4030001158723,新規,0,2024-02-16,2024-02-16,株式会社Ｉｎｔｅｌｌｉｇｅｎｃｅ,,株式会社,埼玉県,さいたま市北区,宮原町３丁目５６８番地ブライトソレイユタワー１００２号室,,11,102,3310812,,,,,,,2024-02-16,1,,,,,インテリジェンス,0
890,4030001158731,新規,0,2024-02-16,2024-02-16,株式会社すずの木,,株式会社,埼玉県,川越市,大字砂久保１２７番地,,11,201,3501152,,,,,,,2024-02-16,1,,,,,スズノキ,0
891,4030003023636,新規,0,2024-02-16,2024-02-16,合同会社チョドリグループ,,合同会社,埼玉県,鶴ヶ島市,大字藤金８８０番地３パルメゾン２０８号室,,11,241,3502206,,,,,,,2024-02-16,1,,,,,チョドリグループ,0
896,4040001132198,新規,0,2024-02-16,2024-02-16,株式会社Ｇｒａｎｄｉｒ,,株式会社,千葉県,白井市,根１８１３番地２６,,12,232,2701431,,,,,,,2024-02-16,1,,,,,グランディール,0
897,4040001132207,新規,0,2024-02-16,2024-02-16,うちだや株式会社,,株式会社,千葉県,柏市,豊四季５４４番地の１０,,12,217,2770863,,,,,,,2024-02-16,1,,,,,ウチダヤ,0
898,4040001132215,新規,0,2024-02-16,2024-02-16,株式会社Ｇｒｉｎ　Ｆａｃｔｏｒｙ,,株式会社,千葉県,浦安市,日の出３丁目３番Ｄ―１２０６号シーガーデン新浦安,,12,227,2790013,,,,,,,2024-02-16,1,,,,,グリンファクトリー,0
899,4040001132223,新規,0,2024-02-16,2024-02-16,ＳＡＬＥＭ株式会社,,株式会社,千葉県,松戸市,殿平賀８５番地の６,,12,207,2700004,,,,,,,2024-02-16,1,,,,,サレム,0
900,4040001132231,新規,0,2024-02-16,2024-02-16,株式会社秋元不動産,,株式会社,千葉県,市川市,福栄２丁目１６番９号,,12,203,2720137,,,,,,,2024-02-16,1,,,,,アキモトフドウサン,0
908,4040005022288,新規,0,2024-02-16,2024-02-16,特定非営利活動法人三由会,,その他の設立登記法人,千葉県,君津市,西坂田２丁目４番２０号,,12,225,2991145,,,,,,,2024-02-16,1,,,,,サンユウカイ,0
910,4050001054284,新規,0,2024-02-16,2024-02-16,株式会社三和豆水庵,,株式会社,茨城県,古河市,尾崎２７６１番地１,,08,204,3060101,,,,,,,2024-02-16,1,,,,,サンワトウスイアン,0
911,4050001054301,新規,0,2024-02-16,2024-02-16,株式会社富穂,,株式会社,茨城県,鹿嶋市,大字荒野１５５９番地５８,,08,222,3112221,,,,,,,2024-02-16,1,,,,,トミホ,0
917,4060003004914,新規,0,2024-02-16,2024-02-16,合同会社山本建設,,合同会社,栃木県,宇都宮市,今泉２３３番地１,,09,201,3210000,,,,,,,2024-02-16,1,,,,,ヤマモトケンセツ,0
918,4070001041396,新規,0,2024-02-16,2024-02-16,株式会社黒崎商店,00133745,株式会社,群馬県,高崎市,連雀町８４番地,,10,202,3700826,,,,,,,2024-02-16,1,,,,,クロサキショウテン,0
919,4070001041405,新規,0,2024-02-16,2024-02-16,株式会社ＭＯＲＲＹＳ,,株式会社,群馬県,伊勢崎市,太田町５６４番地１,,10,204,3720006,,,,,,,2024-02-16,1,,,,,モーリーズ,0
920,4070003005275,新規,0,2024-02-16,2024-02-16,合同会社白木屋,,合同会社,群馬県,桐生市,宮前町２丁目６番４号,,10,203,3760046,,,,,,,2024-02-16,1,,,,,シロキヤ,0
929,4100001037218,新規,0,2024-02-16,2024-02-16,株式会社ＴｅｃｈＶｏｘ,,株式会社,長野県,飯田市,北方３４８９番地１０６,,20,205,3950151,,,,,,,2024-02-16,1,,,,,テックボックス,0
930,4100003007400,新規,0,2024-02-16,2024-02-16,合同会社福林,,合同会社,長野県,飯田市,山本６７２３番地６０,,20,205,3950244,,,,,,,2024-02-16,1,,,,,フクリン,0
933,4120001262284,新規,0,2024-02-16,2024-02-16,株式会社Ａｐｅｘ　Ａｓｉａ　Ｃａｐｉｔａｌ,,株式会社,大阪府,大阪市中央区,南久宝寺町４丁目５番６号８階,,27,128,5410058,,,,,,,2024-02-16,1,,,,,エーペックスアジアキャピタル,0
934,4120001262326,新規,0,2024-02-16,2024-02-16,株式会社Ｔｒｙ　Ａ,,株式会社,大阪府,寝屋川市,木田町２４番２５－５号,,27,215,5720836,,,,,,,2024-02-16,1,,,,,トライエー,0
935,4120001262342,新規,0,2024-02-16,2024-02-16,株式会社ＩＳＳＨＯ,,株式会社,大阪府,大阪市中央区,島之内２丁目１７－２５メゾニティクイーン道頓堀Ｂ１Ｆ,,27,128,5420082,,,,,,,2024-02-16,1,,,,,イッショウ,0
936,4120001262383,新規,0,2024-02-16,2024-02-16,株式会社神田事務所,,株式会社,大阪府,大阪市中央区,谷町２丁目１番１９号９Ａ,,27,128,5400012,,,,,,,2024-02-16,1,,,,,カンダジムショ,0
937,4120001262391,新規,0,2024-02-16,2024-02-16,株式会社ゑびすや,,株式会社,大阪府,大阪市中央区,南船場２丁目４番８号,,27,128,5420081,,,,,,,2024-02-16,1,,,,,エビスヤ,0
939,4120003025862,新規,0,2024-02-16,2024-02-16,浚語合同会社,,合同会社,大阪府,大阪市城東区,鴫野西５丁目２０番２５号ユーミーハイツ鴫野２Ａ号室,,27,118,5360014,,,,,,,2024-02-16,1,,,,,シュンゴ,0
940,4120003025904,新規,0,2024-02-16,2024-02-16,ゼプトソフトウェア合同会社,,合同会社,大阪府,大阪市北区,梅田１丁目１番３大阪駅前第３ビル２９階１－１－１号室,,27,127,5300001,,,,,,,2024-02-16,1,,,,,ゼプトソフトウェア,0
941,4120003025929,新規,0,2024-02-16,2024-02-16,合同会社Ｌｅａｄ　Ｃｏｒｅ,,合同会社,大阪府,大阪市北区,梅田２丁目５番１３号桜橋第一ビル３０４号室,,27,127,5300001,,,,,,,2024-02-16,1,,,,,リードコア,0
944,4120101069051,新規,0,2024-02-16,2024-02-16,株式会社ＳＨＥＤＡ,,株式会社,大阪府,岸和田市,南上町２丁目２５番２９号林ビル２階,,27,202,5960078,,,,,,,2024-02-16,1,,,,,シーダ,0
951,4130001076386,新規,0,2024-02-16,2024-02-16,株式会社ＫＯＫＥＮエステート,,株式会社,京都府,京都市伏見区,久我森の宮町１０番地３１４,,26,109,6128495,,,,,,,2024-02-16,1,,,,,コーケンエステート,0
952,4130001076403,新規,0,2024-02-16,2024-02-16,株式会社Ｌｅｉ　ｍｏｏｎ,,株式会社,京都府,京田辺市,山手西３丁目１番地２２３,,26,211,6100355,,,,,,,2024-02-16,1,,,,,レイムーン,0
956,4130005017007,新規,0,2024-02-16,2024-02-16,一般社団法人Ｊｕｓｔ２Ｙｓ　Ｌｅａｇｕｅ,,その他の設立登記法人,京都府,京都市山科区,音羽八ノ坪５１番地４,,26,110,6078064,,,,,,,2024-02-16,1,,,,,ジャスティスリーグ,0
960,4140001133343,新規,0,2024-02-16,2024-02-16,大伸警備保障株式会社,,株式会社,兵庫県,丹波市,氷上町氷上８番地,,28,223,6693651,,,,,,,2024-02-16,1,,,,,ダイシンケイビホショウ,0
961,4140001133368,新規,0,2024-02-16,2024-02-16,株式会社追田物流,,株式会社,兵庫県,神戸市東灘区,深江浜町１５８番地２階,,28,101,6580023,,,,,,,2024-02-16,1,,,,,オイタブツリュウ,0
967,4140003020176,新規,0,2024-02-16,2024-02-16,合同会社みなみ,,合同会社,兵庫県,淡路市,浦８６０番地２,,28,226,6562305,,,,,,,2024-02-16,1,,,,,ミナミ,0
969,4150001027081,新規,0,2024-02-16,2024-02-16,株式会社吉野かわかみプロダクツ,,株式会社,奈良県,橿原市,久米町６５４番地の１パルフェ神宮前６０５,,29,205,6340063,,,,,,,2024-02-16,1,,,,,ヨシノカワカミプロダクツ,0
974,4160005011270,新規,0,2024-02-16,2024-02-16,一般社団法人しがごとまるごと協力隊ネットワーク,,その他の設立登記法人,滋賀県,東近江市,百済寺町４６０番地１,,25,213,5270144,,,,,,,2024-02-16,1,,,,,シガゴトマルゴトキョウリョクタイネットワーク,0
981,4180001159995,新規,0,2024-02-16,2024-02-16,株式会社Ｒｅ‐ｓｔａｒｔ,,株式会社,愛知県,名古屋市守山区,小幡南１丁目９番１５号,,23,113,4630048,,,,,,,2024-02-16,1,,,,,リスタート,0
982,4180001160160,新規,0,2024-02-16,2024-02-16,株式会社ゴバングループ,,株式会社,愛知県,半田市,乙川西ノ宮町１丁目３５番地,,23,205,4750068,,,,,,,2024-02-16,1,,,,,ゴバングループ,0
988,4180301038338,新規,0,2024-02-16,2024-02-16,株式会社もん,,株式会社,愛知県,蒲郡市,清田町岡５１番地,,23,214,4430002,,,,,,,2024-02-16,1,,,,,モン,0
989,4190001031113,新規,0,2024-02-16,2024-02-16,株式会社ブリッジインターナショナル,,株式会社,三重県,津市,垂水２７９６番地５,,24,201,5140821,,,,,,,2024-02-16,1,,,,,ブリッジインターナショナル,0
992,4240001062796,新規,0,2024-02-16,2024-02-16,株式会社Ｕｅｎｏ創造,,株式会社,広島県,東広島市,西条町御薗宇６０３５番地コンチェルト４－Ｃ,,34,212,7390024,,,,,,,2024-02-16,1,,,,,ウエノソウゾウ,0
993,4240001062805,新規,0,2024-02-16,2024-02-16,株式会社リヴスタイル,,株式会社,広島県,福山市,元町１３番３号,,34,207,7200063,,,,,,,2024-02-16,1,,,,,リヴスタイル,0
996,4240003006545,新規,0,2024-02-16,2024-02-16,合同会社一,,合同会社,広島県,広島市佐伯区,五日市中央７丁目１２－１,,34,108,7315128,,,,,,,2024-02-16,1,,,,,イチ,0
998,4250001020522,新規,0,2024-02-16,2024-02-16,株式会社Ｊｉｍｍｙ,,株式会社,山口県,防府市,大字切畑９２２番地,,35,206,7471231,,,,,,,2024-02-16,1,,,,,ジミー,0
1003,4270001008920,新規,0,2024-02-16,2024-02-16,株式会社ＤＲＥＡＭＳＱＵＡＲＥ,,株式会社,鳥取県,境港市,弥生町１９３番地,,31,204,6840002,,,,,,,2024-02-16,1,,,,,ドリームスクエア,0
1007,4290001104627,新規,0,2024-02-16,2024-02-16,株式会社蔵企画,,株式会社,福岡県,大野城市,御笠川２丁目１７－４－１号室,,40,219,8160912,,,,,,,2024-02-16,1,,,,,クラキカク,0
1008,4290001104692,新規,0,2024-02-16,2024-02-16,株式会社オネスト,,株式会社,福岡県,宗像市,石丸２丁目９番２８号,,40,220,8114147,,,,,,,2024-02-16,1,,,,,オネスト,0
1009,4290001104734,新規,0,2024-02-16,2024-02-16,株式会社ラシク,,株式会社,福岡県,糟屋郡宇美町,ゆりが丘４丁目４番７号,,40,341,8112108,,,,,,,2024-02-16,1,,,,,ラシク,0
1011,4290801030312,新規,0,2024-02-16,2024-02-16,株式会社Ｐｉｃ,,株式会社,福岡県,北九州市門司区,下馬寄１番８号,,40,101,8000051,,,,,,,2024-02-16,1,,,,,ピック,0
1014,4300003002075,新規,0,2024-02-16,2024-02-16,合同会社アザレア,,合同会社,佐賀県,武雄市,武雄町大字武雄５５９８番地１－４０２号,,41,206,8430022,,,,,,,2024-02-16,1,,,,,アザレア,0
1015,4310001018865,新規,0,2024-02-16,2024-02-16,株式会社ゴリラプロダクション,,株式会社,長崎県,大村市,本町４０３番地４,,42,205,8560832,,,,,,,2024-02-16,1,,,,,ゴリラプロダクション,0
1019,4330001031759,新規,0,2024-02-16,2024-02-16,株式会社熊造,,株式会社,熊本県,熊本市北区,鶴羽田４丁目１６番１２号グランデールＢ－１０２,,43,105,8615517,,,,,,,2024-02-16,1,,,,,クマゾウ,0
1020,4340001026295,新規,0,2024-02-16,2024-02-16,株式会社Ｔｈｅｉｏｎ,,株式会社,鹿児島県,熊毛郡屋久島町,宮之浦２４４７－４８,,46,505,8914205,,,,,,,2024-02-16,1,,,,,ザイオン,0
1025,4360001033199,新規,0,2024-02-16,2024-02-16,株式会社天久グリーンファーム,,株式会社,沖縄県,うるま市,石川山城１５６３番地９,,47,213,9041113,,,,,,,2024-02-16,1,,,,,アメクグリーンファーム,0
1032,4370001050945,新規,0,2024-02-16,2024-02-16,株式会社誠倖社,,株式会社,宮城県,仙台市若林区,荒町４６リトルカディス２０１,,04,103,9840073,,,,,,,2024-02-16,1,,,,,セイコウシャ,0
1036,4380001034303,新規,0,2024-02-16,2024-02-16,株式会社幸和,,株式会社,福島県,相馬市,中村字本町４０番地,,07,209,9760042,,,,,,,2024-02-16,1,,,,,コウワ,0
1037,4380001034311,新規,0,2024-02-16,2024-02-16,株式会社ＫＡＴＥＫＹＯ会津,,株式会社,福島県,会津若松市,駅前町８番１号桑原ビル１階,,07,202,9650041,,,,,,,2024-02-16,1,,,,,カテキョウアイヅ,0
1038,4380003005681,新規,0,2024-02-16,2024-02-16,合同会社リキュールショップいいで,,合同会社,福島県,喜多方市,山都町字木曽５２３番地２,,07,208,9694122,,,,,,,2024-02-16,1,,,,,リキュールショップイイデ,0
1045,4430001091058,新規,0,2024-02-16,2024-02-16,アルファジャパン観光株式会社,,株式会社,北海道,札幌市清田区,平岡公園東３丁目１１番１２号,,01,110,0040882,,,,,,,2024-02-16,1,,,,,アルファジャパンカンコウ,0
1047,4430003015840,新規,0,2024-02-16,2024-02-16,合同会社ＨＡＲＵＭＩ,,合同会社,北海道,札幌市南区,藤野二条６丁目１５番１５号,,01,106,0612282,,,,,,,2024-02-16,1,,,,,ハルミ,0
1053,4470001020038,新規,0,2024-02-16,2024-02-16,株式会社ＹＯＵ＆Ｉ,,株式会社,香川県,高松市,寿町１丁目１番２８号ＵＭＩビル１階,,37,201,7600023,,,,,,,2024-02-16,1,,,,,ユーアンドアイ,0
1055,4480003002090,新規,0,2024-02-16,2024-02-16,合同会社Ｃｈｏｏｓｅ　Ｌｉｆｅ,,合同会社,徳島県,徳島市,国府町日開９９９番地２,,36,201,7793117,,,,,,,2024-02-16,1,,,,,チューズライフ,0
1056,4490005006923,新規,0,2024-02-16,2024-02-16,一般社団法人土佐あかうし協会,,その他の設立登記法人,高知県,高知市,桟橋通１丁目５－６,,39,201,7818010,,,,,,,2024-02-16,1,,,,,トサアカウシキョウカイ,0
1061,4700150124004,新規,0,2024-02-16,2024-02-16,ＥＲＡＳＴＥＥＬ　ＳＡＳ,,外国会社等,東京都,中央区,日本橋本町２丁目２番２号日本橋本町ＹＳビル２階在日フランス商工会議所内,,13,102,1030023,フランス共和国、パリ、グルネル通り１０,,,,,,2024-02-16,1,,,,,エラステイールエスエーエス,0
1073,5010003042967,新規,0,2024-02-16,2024-02-16,合同会社ショー・デュヴァン,,合同会社,東京都,中央区,日本橋本町２丁目２番２号,,13,102,1030023,,,,,,,2024-02-16,1,,,,,ショーデュヴァン,0
1075,5010005037908,新規,0,2024-02-16,2024-02-16,弁護士法人長月法律事務所,,その他の設立登記法人,東京都,中央区,銀座６丁目１４番８号,,13,102,1040061,,,,,,,2024-02-16,1,,,,,ナガツキホウリツジムショ,0
1085,5010403031966,新規,0,2024-02-16,2024-02-16,メビウスリンク合同会社,,合同会社,東京都,港区,南青山３丁目１番３６号青山丸竹ビル６Ｆ,,13,103,1070062,,,,,,,2024-02-16,1,,,,,メビウスリンク,0
1086,5010405022955,新規,0,2024-02-16,2024-02-16,一般社団法人白兎会,,その他の設立登記法人,東京都,港区,芝浦３丁目１８番１７号東京港健保会館３Ｆ,,13,103,1080023,,,,,,,2024-02-16,1,,,,,ハクトカイ,0
1091,5010601064669,新規,0,2024-02-16,2024-02-16,豊陽株式会社,,株式会社,東京都,墨田区,本所２丁目１０番５号稲葉ビル３０２,,13,107,1300004,,,,,,,2024-02-16,1,,,,,トヨウ,0
1092,5010701045569,新規,0,2024-02-16,2024-02-16,株式会社Ｉｎｔｅｒｉｏｒ,,株式会社,東京都,品川区,西品川１丁目１－１住友不動産大崎ガーデンタワー９階,,13,109,1410033,,,,,,,2024-02-16,1,,,,,インテリオール,0
1094,5010801034777,新規,0,2024-02-16,2024-02-16,株式会社オレップル,,株式会社,東京都,大田区,西六郷１丁目１２番１４号,,13,111,1440056,,,,,,,2024-02-16,1,,,,,オレップル,0
1101,5011001159786,新規,0,2024-02-16,2024-02-16,株式会社ＳＨＩＲＯＫＵＭＡ,,株式会社,東京都,目黒区,碑文谷６丁目７番４号ＫＹレジデンス４０１,,13,110,1520003,,,,,,,2024-02-16,1,,,,,シロクマ,0
1102,5011001159935,新規,0,2024-02-16,2024-02-16,Ｓ＆Ｋ株式会社,,株式会社,東京都,渋谷区,富ヶ谷１丁目１４番１４号３階,,13,113,1510063,,,,,,,2024-02-16,1,,,,,エスアンドケイ,0
1103,5011003018511,新規,0,2024-02-16,2024-02-16,Ｇａｌａｘｙ合同会社,,合同会社,東京都,渋谷区,渋谷２丁目１９－１５宮益坂ビルディング６０９,,13,113,1500002,,,,,,,2024-02-16,1,,,,,ギャラクシー,0
1104,5011005010375,新規,0,2024-02-16,2024-02-16,一般社団法人リノベーションバリューデザイン協議会,,その他の設立登記法人,東京都,渋谷区,桜丘町１３番３号,,13,113,1500031,,,,,,,2024-02-16,1,,,,,リノベーションバリューデザインキョウギカイ,0
1107,5011101106218,新規,0,2024-02-16,2024-02-16,株式会社サードプレイス,,株式会社,東京都,新宿区,新宿２丁目１２番１３号新宿アントレサロンビル２階,,13,104,1600022,,,,,,,2024-02-16,1,,,,,サードプレイス,0
1110,5011301029409,新規,0,2024-02-16,2024-02-16,株式会社ＴＯＫＹＯ　ＨＩＴＣＨ,,株式会社,東京都,杉並区,下高井戸２丁目６番２号,,13,115,1680073,,,,,,,2024-02-16,1,,,,,トウキョウヒッチ,0
1112,5011401025869,新規,0,2024-02-16,2024-02-16,株式会社Ｐａｒｋ　Ｏｒｉｇｉｎ,,株式会社,東京都,板橋区,坂下２丁目１３番地１号ベルカーサカモチ２階,,13,119,1740043,,,,,,,2024-02-16,1,,,,,パークオリジン,0
1114,5011501030348,新規,0,2024-02-16,2024-02-16,株式会社Ａｔｈｌｅｔｅ　Ｗｅｌｌｎｅｓｓ,,株式会社,東京都,荒川区,西日暮里４丁目２２番５号リーベ・アンサンブル道灌山１０６,,13,118,1160013,,,,,,,2024-02-16,1,,,,,アスリートウェルネス,0
1115,5011601027525,新規,0,2024-02-16,2024-02-16,Ｋ．ツーリズム・デザイン株式会社,,株式会社,東京都,練馬区,西大泉町１１７９番地１６,,13,120,1780066,,,,,,,2024-02-16,1,,,,,ケイツーリズムデザイン,0
1116,5011601027533,新規,0,2024-02-16,2024-02-16,ＪＣＤ株式会社,,株式会社,東京都,練馬区,豊玉北５丁目１４番４－３０１号,,13,120,1760012,,,,,,,2024-02-16,1,,,,,ジェーシーディー,0
1119,5012401041526,新規,0,2024-02-16,2024-02-16,株式会社サルヴィアマネジメント,,株式会社,東京都,狛江市,東和泉４丁目３番２号,,13,219,2010014,,,,,,,2024-02-16,1,,,,,サルヴィアマネジメント,0
1128,5013301052092,新規,0,2024-02-16,2024-02-16,株式会社Ｈｅａｄｑｕａｒｔｅｒｓ,,株式会社,東京都,豊島区,東池袋４丁目３７番１号ブランズ東池袋６０６号,,13,116,1700013,,,,,,,2024-02-16,1,,,,,ヘッドクォーター,0
1130,5013303007004,新規,0,2024-02-16,2024-02-16,合同会社ＷＡＺＡ,,合同会社,東京都,豊島区,千早４丁目５番１８号,,13,116,1710044,,,,,,,2024-02-16,1,,,,,ワザ,0
1137,5020001155786,新規,0,2024-02-16,2024-02-16,Ｃａｓｔｌｅ　Ｃｏｍｂｅ株式会社,,株式会社,神奈川県,川崎市麻生区,五力田２丁目３番３－５０３号,,14,137,2150025,,,,,,,2024-02-16,1,,,,,カッスルクーム,0
1141,5020003025541,新規,0,2024-02-16,2024-02-16,合同会社レッドブランチ,,合同会社,神奈川県,横浜市神奈川区,台町１０‐１５メゾンタカシマ２Ｆ,,14,102,2210834,,,,,,,2024-02-16,1,,,,,レッドブランチ,0
1142,5021001081485,新規,0,2024-02-16,2024-02-16,株式会社みさき商事,,株式会社,神奈川県,三浦市,南下浦町金田３１１番地,,14,210,2380103,,,,,,,2024-02-16,1,,,,,ミサキショウジ,0
1143,5021001081493,新規,0,2024-02-16,2024-02-16,株式会社ＦＥＬＩＣＩＴＹ,,株式会社,神奈川県,三浦郡葉山町,上山口２４３２番地３,,14,301,2400115,,,,,,,2024-02-16,1,,,,,フェリシティ,0
1150,5030001158697,新規,0,2024-02-16,2024-02-16,株式会社ワルツ,,株式会社,埼玉県,所沢市,和ケ原１丁目３１０５番地の２ドミールＫ－Ａ－２０１,,11,208,3591162,,,,,,,2024-02-16,1,,,,,ワルツ,0
1151,5030001158706,新規,0,2024-02-16,2024-02-16,株式会社ＳＡＩＫＹＯＵ,,株式会社,埼玉県,川口市,大字東内野４２６番地の１パナヨシハラＢ１０１号,,11,203,3330821,,,,,,,2024-02-16,1,,,,,サイキョウ,0
1152,5030001158730,新規,0,2024-02-16,2024-02-16,ライフサポート株式会社,,株式会社,埼玉県,所沢市,狭山ケ丘２丁目６３２番地の１８－１０２号室,,11,208,3591161,,,,,,,2024-02-16,1,,,,,ライフサポート,0
1153,5030001158739,新規,0,2024-02-16,2024-02-16,株式会社フードネットワーク,,株式会社,埼玉県,坂戸市,大字戸宮４８２番地２,,11,239,3500208,,,,,,,2024-02-16,1,,,,,フードネットワーク,0
1160,5040001132197,新規,0,2024-02-16,2024-02-16,株式会社ＭＩＢＵ,,株式会社,千葉県,野田市,山崎２６２６番地の３,,12,208,2780022,,,,,,,2024-02-16,1,,,,,ミブ,0
1161,5040001132206,新規,0,2024-02-16,2024-02-16,株式会社らふ,,株式会社,千葉県,船橋市,咲が丘４丁目１４番１８号,,12,204,2740807,,,,,,,2024-02-16,1,,,,,ラフ,0
1162,5040001132222,新規,0,2024-02-16,2024-02-16,彩田貿易株式会社,,株式会社,千葉県,成田市,加良部４丁目９番地１２,,12,211,2860036,,,,,,,2024-02-16,1,,,,,サイダボウエキ,0
1163,5040001132255,新規,0,2024-02-16,2024-02-16,株式会社Ｋｓエステート,,株式会社,千葉県,船橋市,二和東３丁目２２番２号,,12,204,2740805,,,,,,,2024-02-16,1,,,,,ケイズエステート,0
1164,5040001132263,新規,0,2024-02-16,2024-02-16,株式会社東鋼業,,株式会社,千葉県,松戸市,紙敷１５４９番地－Ａ２０１号,,12,207,2702221,,,,,,,2024-02-16,1,,,,,ヒガシコウギョウ,0
1165,5040001132271,新規,0,2024-02-16,2024-02-16,株式会社アスヨシ,,株式会社,千葉県,船橋市,夏見３丁目２４番２２－５号,,12,204,2730865,,,,,,,2024-02-16,1,,,,,アスヨシ,0
1169,5040003024327,新規,0,2024-02-16,2024-02-16,合同会社ＨＡＳＳ,,合同会社,千葉県,千葉市花見川区,幕張町５丁目１６６番地,,12,102,2620032,,,,,,,2024-02-16,1,,,,,ハアス,0
1170,5040003024343,新規,0,2024-02-16,2024-02-16,合同会社和,,合同会社,千葉県,市川市,田尻５丁目２１番２０号,,12,203,2720014,,,,,,,2024-02-16,1,,,,,ナゴミ,0
1171,5060003004905,新規,0,2024-02-16,2024-02-16,ＡＺモータース合同会社,,合同会社,栃木県,栃木市,梅沢町１７１番地３,,09,203,3280204,,,,,,,2024-02-16,1,,,,,エーゼットモータース,0
1178,5070001041404,新規,0,2024-02-16,2024-02-16,株式会社新栄リフォーム,,株式会社,群馬県,伊勢崎市,境上渕名１５７４番地２,,10,204,3700102,,,,,,,2024-02-16,1,,,,,シンエイリフォーム,0
1182,5080103002988,新規,0,2024-02-16,2024-02-16,合同会社セカイノアトリエ,,合同会社,静岡県,富士市,宮下２２７番地の５,,22,210,4160947,,,,,,,2024-02-16,1,,,,,セカイノアトリエ,0
1183,5080401027002,新規,0,2024-02-16,2024-02-16,株式会社ファーストポイント,,株式会社,静岡県,掛川市,千羽１７３２番地,,22,213,4360008,,,,,,,2024-02-16,1,,,,,ファーストポイント,0
1184,5090001018549,新規,0,2024-02-16,2024-02-16,株式会社ＩＫＩＧＡＩ　ＧＯＬＦアカデミー,,株式会社,山梨県,北杜市,小淵沢町１００６０番地,,19,209,4080044,,,,,,,2024-02-16,1,,,,,イキガイゴルフアカデミー,0
1188,5100003007399,新規,0,2024-02-16,2024-02-16,ＫＣコネクト合同会社,,合同会社,長野県,諏訪郡下諏訪町,７１５４番地８,,20,361,3930000,,,,,,,2024-02-16,1,,,,,ケーシーコネクト,0
1205,5120001262242,新規,0,2024-02-16,2024-02-16,株式会社ＡＮＴ,,株式会社,大阪府,大阪市中央区,宗右衛門町１－１宗右衛門町ビル３Ｆ,,27,128,5420084,,,,,,,2024-02-16,1,,,,,エーエヌティー,0
1206,5120001262250,新規,0,2024-02-16,2024-02-16,Ｍａｉｘｉ株式会社,,株式会社,大阪府,大阪市中央区,瓦屋町２丁目１０－１４第３天偉ビル３Ｂ室,,27,128,5420066,,,,,,,2024-02-16,1,,,,,マイクシ,0
1207,5120001262300,新規,0,2024-02-16,2024-02-16,株式会社ＯｐｔｉＳｅｅｋ,,株式会社,大阪府,大阪市北区,梅田１丁目２番２号大阪駅前第２ビル,,27,127,5300001,,,,,,,2024-02-16,1,,,,,オプティシーク,0
1208,5120001262325,新規,0,2024-02-16,2024-02-16,株式会社ノクロス,,株式会社,大阪府,大阪市北区,中崎西１丁目４番２６－１２０１号,,27,127,5300015,,,,,,,2024-02-16,1,,,,,ノクロス,0
1209,5120001262382,新規,0,2024-02-16,2024-02-16,株式会社ジルコン商事,,株式会社,大阪府,大阪市西成区,鶴見橋３丁目８番１６号３０１室,,27,122,5570031,,,,,,,2024-02-16,1,,,,,ジルコンショウジ,0
1210,5120001262399,新規,0,2024-02-16,2024-02-16,株式会社Ｇｌｏｂａｌ　Ｓｔｒｉｄｅ,,株式会社,大阪府,大阪市天王寺区,上汐４丁目５番１１号６Ａ,,27,109,5430002,,,,,,,2024-02-16,1,,,,,グローバルストライド,0
1216,5120003025886,新規,0,2024-02-16,2024-02-16,合同会社暁,,合同会社,大阪府,大阪市浪速区,幸町２丁目３番２６－５０２号,,27,111,5560021,,,,,,,2024-02-16,1,,,,,アカツキ,0
1217,5120003025936,新規,0,2024-02-16,2024-02-16,合同会社ブレイク,,合同会社,大阪府,大阪市北区,梅田１丁目２番２号大阪駅前第２ビル１２－１２,,27,127,5300001,,,,,,,2024-02-16,1,,,,,ブレイク,0
1234,5140001133318,新規,0,2024-02-16,2024-02-16,帝英株式会社,,株式会社,兵庫県,神戸市長田区,高取山町１丁目１７番２２号,,28,106,6530856,,,,,,,2024-02-16,1,,,,,テイエイ,0
1235,5140001133342,新規,0,2024-02-16,2024-02-16,ＬＤＬ株式会社,,株式会社,兵庫県,加古川市,平岡町一色西２丁目２２７番地きくやハイツＩＩ－１０３号,00133743,28,210,6750117,,,,,,,2024-02-16,1,,,,,エルディーエル,0
1236,5140001133350,新規,0,2024-02-16,2024-02-16,株式会社ＮＥＸＴ　ＧＡＭＥ,,株式会社,兵庫県,芦屋市,浜町４番２－１０１号,,28,206,6590025,,,,,,,2024-02-16,1,,,,,ネクストゲーム,0
1237,5140001133367,新規,0,2024-02-16,2024-02-16,ヨシキ工業株式会社,,株式会社,兵庫県,伊丹市,寺本２丁目５０－１－７０号,,28,207,6640026,,,,,,,2024-02-16,1,,,,,ヨシキコウギョウ,0
1244,5150001027080,新規,0,2024-02-16,2024-02-16,株式会社ＣＯＺＹ,,株式会社,奈良県,御所市,１９３番地の１３,,29,208,6392200,,,,,,,2024-02-16,1,,,,,コージー,0
1252,5180001160151,新規,0,2024-02-16,2024-02-16,株式会社ミリケア,,株式会社,愛知県,春日井市,出川町２丁目１１番地１５,,23,206,4870025,,,,,,,2024-02-16,1,,,,,ミリケア,0
1253,5180001160168,新規,0,2024-02-16,2024-02-16,株式会社Ｍ．Ａ．Ｒ．ＡＬＢＡ,,株式会社,愛知県,名古屋市南区,鳥栖２丁目８番２号,,23,112,4570006,,,,,,,2024-02-16,1,,,,,エムエーアールアルバ,0
1254,5180001160184,新規,0,2024-02-16,2024-02-16,株式会社ハイグランド,,株式会社,愛知県,名古屋市千種区,丸山町３丁目７７番地,,23,101,4640843,,,,,,,2024-02-16,1,,,,,ハイグランド,0
1257,5180003026359,新規,0,2024-02-16,2024-02-16,アルシア合同会社,,合同会社,愛知県,名古屋市名東区,本郷２丁目１２７番地－１８０７号,,23,115,4650024,,,,,,,2024-02-16,1,,,,,アルシア,0
1261,5180301038337,新規,0,2024-02-16,2024-02-16,ＪＯＢＬｉｎｋ株式会社,,株式会社,愛知県,岡崎市,六供町字４丁目１２番地１１六供ヒルズ１０１,,23,202,4440072,,,,,,,2024-02-16,1,,,,,ジョブリンク,0
1270,5200001042165,新規,0,2024-02-16,2024-02-16,株式会社ｅｎａｒｃ,,株式会社,岐阜県,中津川市,手賀野３０５番地の２２,,21,206,5080015,,,,,,,2024-02-16,1,,,,,エンアーク,0
1272,5210005010134,新規,0,2024-02-16,2024-02-16,社会福祉法人この道福祉会,,その他の設立登記法人,福井県,福井市,燈豊町第３９号６番地５９,,18,201,9103252,,,,,,,2024-02-16,1,,,,,コノミチフクシカイ,0
1274,5230001020218,新規,0,2024-02-16,2024-02-16,Ｓｐａｒｔｉ株式会社,,株式会社,富山県,富山市,上新保１１番地３シャーメゾンエム２０６号,,16,201,9398061,,,,,,,2024-02-16,1,,,,,スパルティ,0
1287,5290001104700,新規,0,2024-02-16,2024-02-16,株式会社ＳＡＲＡＤＡ,,株式会社,福岡県,福岡市中央区,薬院２丁目１０番２号王丸ビル５０２号室,,40,133,8100022,,,,,,,2024-02-16,1,,,,,サラダ,0
1288,5290001104725,新規,0,2024-02-16,2024-02-16,株式会社ＴＯＭＯ,,株式会社,福岡県,福津市,東福間８丁目２番２２－４０３号,,40,224,8113225,,,,,,,2024-02-16,1,,,,,トモ,0
1289,5290003014963,新規,0,2024-02-16,2024-02-16,合同会社ＷｏｎｄｅｒＱｕｉｌｔ,,合同会社,福岡県,福岡市西区,姪浜駅南１丁目５番７－１１０５号,,40,135,8190006,,,,,,,2024-02-16,1,,,,,ワンダーキルト,0
1293,5290803004619,新規,0,2024-02-16,2024-02-16,合同会社在宅介護幹,,合同会社,福岡県,遠賀郡岡垣町,東高倉１丁目６番７号,,40,383,8114237,,,,,,,2024-02-16,1,,,,,ザイタクカイゴミキ,0
1298,5320001020299,新規,0,2024-02-16,2024-02-16,株式会社エコーラボラトリ,,株式会社,大分県,大分市,青葉台３丁目１８番地の１４,,44,201,8700875,,,,,,,2024-02-16,1,,,,,エコーラボラトリ,0
1301,5330001031766,新規,0,2024-02-16,2024-02-16,ＬＡＶＩＩＥ住宅ローン株式会社,,株式会社,熊本県,熊本市南区,江越１丁目１９番１０号,,43,104,8600834,,,,,,,2024-02-16,1,,,,,ラヴィイエジュウタクローン,0
1305,5340001026294,新規,0,2024-02-16,2024-02-16,株式会社ニュースタンダードプロダクツ,,株式会社,鹿児島県,鹿児島市,唐湊１丁目２０番２５号Ｍハウス唐湊１０１号,,46,201,8900081,,,,,,,2024-02-16,1,,,,,ニュースタンダードプロダクツ,0
1307,5360003013710,新規,0,2024-02-16,2024-02-16,Ｃａｒｍｏｎｙ合同会社,,合同会社,沖縄県,那覇市,辻１丁目１４番１号,,47,201,9000037,,,,,,,2024-02-16,1,,,,,カーモニー,0
1308,5360003013727,新規,0,2024-02-16,2024-02-16,合同会社おたま,,合同会社,沖縄県,中頭郡読谷村,字宇座１８６１番,,47,324,9040328,,,,,,,2024-02-16,1,,,,,オタマ,0
1311,5380001034310,新規,0,2024-02-16,2024-02-16,株式会社飯田農産,,株式会社,福島県,郡山市,安積町牛庭４丁目１３８番地,,07,203,9630113,,,,,,,2024-02-16,1,,,,,イイダノウサン,0
1320,5460101007496,新規,0,2024-02-16,2024-02-16,株式会社ＥＫＵＢＯ,,株式会社,北海道,河東郡音更町,ひびき野仲町２丁目４番地１５,,01,631,0800162,,,,,,,2024-02-16,1,,,,,エクボ,0
1323,5470001020037,新規,0,2024-02-16,2024-02-16,株式会社アイテクト,,株式会社,香川県,高松市,檀紙町２９１番地１,,37,201,7618041,,,,,,,2024-02-16,1,,,,,アイテクト,0
1325,5480001012388,新規,0,2024-02-16,2024-02-16,阿波ミライズ設備設計株式会社,,株式会社,徳島県,徳島市,徳島本町２丁目４０番地,,36,201,7700854,,,,,,,2024-02-16,1,,,,,アワミライズセツビセッケイ,0
1339,6010003042917,新規,0,2024-02-16,2024-02-16,合同会社ビーグッド,,合同会社,東京都,中央区,日本橋本町１丁目６番３号８０５,,13,102,1030023,,,,,,,2024-02-16,1,,,,,ビーグッド,0
1342,6010005037907,新規,0,2024-02-16,2024-02-16,一般社団法人ホテル金沢,,その他の設立登記法人,東京都,中央区,日本橋１丁目４番１号,,13,102,1030027,,,,,,,2024-02-16,1,,,,,ホテルカナザワ,0
1343,6010101016005,新規,0,2024-02-16,2024-02-16,株式会社浜書房新社,,株式会社,東京都,八王子市,八日町１番１１号,,13,201,1920071,,,,,,,2024-02-16,1,,,,,ハマショボウシンシャ,0
1344,6010101016013,新規,0,2024-02-16,2024-02-16,株式会社ヒイラギ,,株式会社,東京都,八王子市,上川町３４４３番地,,13,201,1920151,,,,,,,2024-02-16,1,,,,,ヒイラギ,0
1351,6010401180384,新規,0,2024-02-16,2024-02-16,株式会社Ｌｉｎｋ　ＡＩ,,株式会社,東京都,港区,芝２丁目２０－８リバティ芝公園３０６,,13,103,1050014,,,,,,,2024-02-16,1,,,,,リンクエーアイ,0
1352,6010401180450,新規,0,2024-02-16,2024-02-16,株式会社ハーンズ,,株式会社,東京都,港区,六本木７丁目９番１０号,,13,103,1060032,,,,,,,2024-02-16,1,,,,,ハーンズ,0
1354,6010503007345,新規,0,2024-02-16,2024-02-16,合同会社安藤理財,,合同会社,東京都,台東区,上野桜木２丁目１番５号,,13,106,1100002,,,,,,,2024-02-16,1,,,,,アンドウリザイ,0
1358,6010603010629,新規,0,2024-02-16,2024-02-16,合同会社Ｈ＆Ｌ,,合同会社,東京都,江東区,住吉２丁目２６番５号,,13,108,1350002,,,,,,,2024-02-16,1,,,,,エイチアンドエル,0
1361,6010701045568,新規,0,2024-02-16,2024-02-16,Ｍ＆Ｃ　Ｃｏｒｐ株式会社,,株式会社,東京都,品川区,上大崎３丁目５番２号リードシー目黒イーストビル５Ｆ,,13,109,1410021,,,,,,,2024-02-16,1,,,,,エムアンドシーコーポレーション,0
1362,6010703007054,新規,0,2024-02-16,2024-02-16,合同会社ＢＥＬＬＡ,,合同会社,東京都,品川区,東五反田１丁目２４番１号島津山ＡＫビル３０２,,13,109,1410022,,,,,,,2024-02-16,1,,,,,ベラ,0
1364,6010801034776,新規,0,2024-02-16,2024-02-16,株式会社丸徳,,株式会社,東京都,大田区,池上８丁目１１番９号,,13,111,1460082,,,,,,,2024-02-16,1,,,,,マルトク,0
1370,6011001160066,新規,0,2024-02-16,2024-02-16,株式会社Ｈｉｇｈ　Ｐｏｐ　Ｋｅｙ,,株式会社,東京都,渋谷区,南平台町１５番１０号,,13,113,1500036,,,,,,,2024-02-16,1,,,,,ハイポップキー,0
1376,6011101106200,新規,0,2024-02-16,2024-02-16,株式会社グローバルラブジャパン,,株式会社,東京都,新宿区,西新宿１丁目２０－３西新宿高木ビル７１３号室,00133744,13,104,1600023,,,,,,,2024-02-16,1,,,,,グローバルラブジャパン,0
1377,6011101106225,新規,0,2024-02-16,2024-02-16,株式会社クロゴ,,株式会社,東京都,新宿区,四谷４丁目３番地８０２,,13,104,1600004,,,,,,,2024-02-16,1,,,,,クロゴ,0
1379,6011103014104,新規,0,2024-02-16,2024-02-16,合同会社Ｊｏｙｗｏｒｋ,,合同会社,東京都,新宿区,西新宿３丁目３番１３号西新宿水間ビル２Ｆ,,13,104,1600023,,,,,,,2024-02-16,1,,,,,ジョイワーク,0
1381,6011401025868,新規,0,2024-02-16,2024-02-16,株式会社ＲＡＩ　ＫＩＮＧ,,株式会社,東京都,板橋区,小茂根２丁目５番１４号,,13,119,1730037,,,,,,,2024-02-16,1,,,,,ライキング,0
1382,6011501030339,新規,0,2024-02-16,2024-02-16,フェニックスジャパン株式会社,,株式会社,東京都,北区,赤羽北２丁目２９－３レックスハイム赤羽５０３,,13,117,1150052,,,,,,,2024-02-16,1,,,,,フェニックスジャパン,0
1392,6011801043800,新規,0,2024-02-16,2024-02-16,株式会社Ｗ＆Ｂ,,株式会社,東京都,足立区,西新井２丁目４番６号ＡｎｄＰｌｕｓ西新井ビル,,13,121,1230841,,,,,,,2024-02-16,1,,,,,ダブリューアンドビー,0
1395,6012401041525,新規,0,2024-02-16,2024-02-16,株式会社みつきや,,株式会社,東京都,三鷹市,牟礼６丁目２４番３５号,,13,204,1810002,,,,,,,2024-02-16,1,,,,,ミツキヤ,0
1396,6012401041533,新規,0,2024-02-16,2024-02-16,株式会社フェリックス,,株式会社,東京都,府中市,朝日町２丁目２８番地７,,13,206,1830003,,,,,,,2024-02-16,1,,,,,フェリックス,0
1399,6013301052091,新規,0,2024-02-16,2024-02-16,株式会社ユニバーサル測量社,,株式会社,東京都,豊島区,南池袋３丁目９番８号,,13,116,1710022,,,,,,,2024-02-16,1,,,,,ユニバーサルソクリョウシャ,0
1412,6020001155785,新規,0,2024-02-16,2024-02-16,ＭＫビジネス株式会社,,株式会社,神奈川県,横浜市青葉区,あざみ野２丁目１８番地９,,14,117,2250011,,,,,,,2024-02-16,1,,,,,エムケイビジネス,0
1413,6020001155843,新規,0,2024-02-16,2024-02-16,株式会社ＧＯＣ,,株式会社,神奈川県,横浜市都筑区,川和町２６７２番地１大井ハイツＢ－１０２号室,,14,118,2240057,,,,,,,2024-02-16,1,,,,,ジーオーシー,0
1414,6020001155851,新規,0,2024-02-16,2024-02-16,株式会社Ｎｏ．Ｒインテリア,,株式会社,神奈川県,横浜市西区,戸部町４丁目１７１番地１－２Ｆ,,14,103,2200042,,,,,,,2024-02-16,1,,,,,ナンバーアール,0
1417,6020003025532,新規,0,2024-02-16,2024-02-16,合同会社ＭＫ,,合同会社,神奈川県,横浜市神奈川区,片倉２丁目５２番５号,,14,102,2210865,,,,,,,2024-02-16,1,,,,,エムケー,0
1418,6020003025565,新規,0,2024-02-16,2024-02-16,合同会社ミーティングポイントアドバイザーズ,,合同会社,神奈川県,川崎市中原区,中丸子４７１－１６,,14,133,2110012,,,,,,,2024-02-16,1,,,,,ミーティングポイントアドバイザーズ,0
1422,6021003014161,新規,0,2024-02-16,2024-02-16,合同会社ａｅｒ,,合同会社,神奈川県,平塚市,中里４０番７号,,14,203,2540054,,,,,,,2024-02-16,1,,,,,アエル,0
1427,6030001158572,新規,0,2024-02-16,2024-02-16,株式会社ユニホ,,株式会社,埼玉県,八潮市,中央４丁目５番地９,,11,234,3400816,,,,,,,2024-02-16,1,,,,,ユニホ,0
1428,6030001158639,新規,0,2024-02-16,2024-02-16,Ｖｅｒｓｅａｕ株式会社,,株式会社,埼玉県,新座市,畑中１丁目９番２７号,,11,230,3520012,,,,,,,2024-02-16,1,,,,,ヴェルソー,0
1429,6030001158705,新規,0,2024-02-16,2024-02-16,株式会社ラビットフット,,株式会社,埼玉県,比企郡小川町,東小川３丁目１８番地４,,11,343,3550322,,,,,,,2024-02-16,1,,,,,ラビットフット,0
1430,6030001158713,新規,0,2024-02-16,2024-02-16,株式会社宮城,,株式会社,埼玉県,川口市,柳崎５丁目９番１０号コーポフラワーＢ棟２０３号,,11,203,3330861,,,,,,,2024-02-16,1,,,,,ミヤギ,0
1431,6030001158738,新規,0,2024-02-16,2024-02-16,株式会社越香会,,株式会社,埼玉県,越谷市,赤山町２丁目２２０番地,,11,222,3430807,,,,,,,2024-02-16,1,,,,,エツコウカイ,0
1432,6030001158746,新規,0,2024-02-16,2024-02-16,友成株式会社,,株式会社,埼玉県,川口市,西川口１丁目３０番２０－６０９号室,,11,203,3320021,,,,,,,2024-02-16,1,,,,,ユウセイ,0
1433,6030001158754,新規,0,2024-02-16,2024-02-16,株式会社ＺＡＧＲＯＳＳ．ＪＡＰＡＮ,,株式会社,埼玉県,川越市,六軒町１丁目２０番地３レーベン川越六軒町６０１,,11,201,3500041,,,,,,,2024-02-16,1,,,,,ザグロスジャパン,0
1439,6030003023618,新規,0,2024-02-16,2024-02-16,合同会社玉城工業,,合同会社,埼玉県,本庄市,緑３丁目９番８号高橋ハイツＣ－１０１,,11,211,3670043,,,,,,,2024-02-16,1,,,,,タマシロコウギョウ,0
1440,6030003023634,新規,0,2024-02-16,2024-02-16,Ｂａｌｌｅ　Ｂｌａｎｃｈｅ合同会社,,合同会社,埼玉県,さいたま市見沼区,大和田町２丁目５０７番地２,,11,104,3370053,,,,,,,2024-02-16,1,,,,,バルブランシュ,0
1442,6030005021553,新規,0,2024-02-16,2024-02-16,一般社団法人新田会,,その他の設立登記法人,埼玉県,東松山市,箭弓町１丁目１１番７号ハイムグランデ東松山１０６号,00133747,11,212,3550028,,,,,,,2024-02-16,1,,,,,ニッタカイ,0
1445,6040001132221,新規,0,2024-02-16,2024-02-16,ストアシステムレボリューション株式会社,,株式会社,千葉県,習志野市,津田沼１丁目３番１１号昭和第３ビル６階,,12,216,2750016,,,,,,,2024-02-16,1,,,,,ストアシステムレボリューション,0
1446,6040001132238,新規,0,2024-02-16,2024-02-16,ＷＯＮＤＥＲ　ＧＲＩＰ　ＪＡＰＡＮ株式会社,,株式会社,千葉県,千葉市美浜区,中瀬２丁目６番地１,,12,106,2610023,,,,,,,2024-02-16,1,,,,,ワンダーグリップジャパン,0
1447,6040001132246,新規,0,2024-02-16,2024-02-16,株式会社希翔,,株式会社,千葉県,柏市,豊四季７１０番地１２７,,12,217,2770863,,,,,,,2024-02-16,1,,,,,キショウ,0
1450,6040003024334,新規,0,2024-02-16,2024-02-16,ＲｉｖｅｒＶｉｌｌａｇｅ合同会社,,合同会社,千葉県,鎌ケ谷市,中沢３７５番地２,,12,224,2730118,,,,,,,2024-02-16,1,,,,,リバーヴィレッジ,0
1454,6050001054282,新規,0,2024-02-16,2024-02-16,株式会社Ｋ‐ＳＴＹＬＥ,,株式会社,茨城県,北相馬郡利根町,大字羽中１３８９番地１,,08,564,3001625,,,,,,,2024-02-16,1,,,,,ケイスタイル,0
1455,6050001054299,新規,0,2024-02-16,2024-02-16,株式会社いいものと,,株式会社,茨城県,守谷市,みずき野３丁目９番地３,,08,224,3020121,,,,,,,2024-02-16,1,,,,,イイモノト,0
1457,6060001036841,新規,0,2024-02-16,2024-02-16,株式会社河内総業,,株式会社,栃木県,宇都宮市,南大通り１丁目１番１２号宇都宮ダイカンプラザスポーツメント２２６号,,09,201,3210963,,,,,,,2024-02-16,1,,,,,カワウチソウギョウ,0
1465,6080001026130,新規,0,2024-02-16,2024-02-16,株式会社静岡セカンド・トラスト,,株式会社,静岡県,静岡市駿河区,中原５１９番地１,,22,102,4228058,,,,,,,2024-02-16,1,,,,,シズオカセカンドトラスト,0
1469,6080103002987,新規,0,2024-02-16,2024-02-16,ライブアーツ合同会社,,合同会社,静岡県,沼津市,下香貫山宮前３０２１,,22,203,4100822,,,,,,,2024-02-16,1,,,,,ライブアーツ,0
1473,6100001037216,新規,0,2024-02-16,2024-02-16,ＬｕｘｕｒｙＴａｘｉ株式会社,,株式会社,長野県,松本市,大字島内１６８７番地１８,,20,202,3900851,,,,,,,2024-02-16,1,,,,,ラグジュアリータクシー,0
1476,6110001038188,新規,0,2024-02-16,2024-02-16,株式会社エッセンシャルオート,,株式会社,新潟県,新潟市南区,杉菜６番２４号,,15,106,9501208,,,,,,,2024-02-16,1,,,,,エッセンシャルオート,0
1477,6110001038196,新規,0,2024-02-16,2024-02-16,株式会社百果蔵,,株式会社,新潟県,加茂市,大字山島新田５４３,,15,209,9591316,,,,,,,2024-02-16,1,,,,,ヒャッカグラ,0
1479,6110003005293,新規,0,2024-02-16,2024-02-16,合同会社Ｇ＆Ｂ,,合同会社,新潟県,糸魚川市,大字青海２６３番地,,15,216,9490305,,,,,,,2024-02-16,1,,,,,ジーアンドビー,0
1486,6120001262225,新規,0,2024-02-16,2024-02-16,株式会社Ｂ．アッサンブラージュ,,株式会社,大阪府,枚方市,津田南町２丁目１の４,,27,210,5730124,,,,,,,2024-02-16,1,,,,,ビーアッサンブラージュ,0
1487,6120001262299,新規,0,2024-02-16,2024-02-16,株式会社Ｖａｌｕｅ　Ａｎｅｗ,,株式会社,大阪府,大阪市生野区,勝山南１丁目１番２０－４０１号,,27,116,5440021,,,,,,,2024-02-16,1,,,,,バリューアニュー,0
1488,6120001262316,新規,0,2024-02-16,2024-02-16,株式会社だるま組,,株式会社,大阪府,枚方市,東船橋２丁目３８番地の１,,27,210,5731115,,,,,,,2024-02-16,1,,,,,ダルマグミ,0
1489,6120001262332,新規,0,2024-02-16,2024-02-16,株式会社ＳｔｙｌｅＵｐ,,株式会社,大阪府,大阪市東成区,東中本３丁目１９番２３号７Ｆ,,27,115,5370021,,,,,,,2024-02-16,1,,,,,スタイルアップ,0
1493,6120005024167,新規,0,2024-02-16,2024-02-16,一般社団法人全関西大学女子バスケットボール連盟,,その他の設立登記法人,大阪府,大阪市北区,西天満３丁目５番１号和田伊ビル３階,,27,127,5300047,,,,,,,2024-02-16,1,,,,,ゼンカンサイダイガクジョシバスケットボールレンメイ,0
1495,6120101069058,新規,0,2024-02-16,2024-02-16,ＥＰＲ株式会社,,株式会社,大阪府,堺市堺区,出島西町４番地の２,,27,141,5900831,,,,,,,2024-02-16,1,,,,,イーピーアール,0
1500,6122001037838,新規,0,2024-02-16,2024-02-16,株式会社アフロフローラビューティーライフ,,株式会社,大阪府,東大阪市,西石切町１丁目７－２１,,27,227,5798013,,,,,,,2024-02-16,1,,,,,アフロフローラビューティーライフ,0
1509,6130005017005,新規,0,2024-02-16,2024-02-16,一般財団法人大谷記念文化財団,,その他の設立登記法人,京都府,京都市山科区,上花山旭山町８番地１,,26,110,6078461,,,,,,,2024-02-16,1,,,,,オオタニキネンブンカザイダン,0
1512,6140001133333,新規,0,2024-02-16,2024-02-16,株式会社Ｒｅｌａｔｅ,,株式会社,兵庫県,尼崎市,神田北通９丁目２３８番地の７,,28,202,6600883,,,,,,,2024-02-16,1,,,,,,0
1513,6140001133358,新規,0,2024-02-16,2024-02-16,株式会社ＳＫ,,株式会社,兵庫県,明石市,大久保町駅前１丁目１３番地の２６,,28,203,6740058,,,,,,,2024-02-16,1,,,,,エスケー,0
1514,6140001133366,新規,0,2024-02-16,2024-02-16,株式会社ｓｈｋａｍ,,株式会社,兵庫県,神戸市中央区,八幡通４丁目１番３７－５０１号,,28,110,6510085,,,,,,,2024-02-16,1,,,,,シュカム,0
1515,6140003020174,新規,0,2024-02-16,2024-02-16,合同会社よしだ農園,,合同会社,兵庫県,丹波篠山市,有居４６番地,,28,221,6692354,,,,,,,2024-02-16,1,,,,,ヨシダノウエン,0
1518,6150001027088,新規,0,2024-02-16,2024-02-16,株式会社Ｅｍａ,,株式会社,奈良県,奈良市,紀寺町６３６番地,,29,201,6308306,,,,,,,2024-02-16,1,,,,,エマ,0
1525,6180001160159,新規,0,2024-02-16,2024-02-16,株式会社Ｂｅ　Ｒｅａｌｉｚｅｄ,,株式会社,愛知県,日進市,栄２丁目１１３中川店舗Ａ棟,,23,230,4700113,,,,,,,2024-02-16,1,,,,,ビーリアライズド,0
1526,6180001160167,新規,0,2024-02-16,2024-02-16,ファイバーエージェント株式会社,,株式会社,愛知県,一宮市,北園通４丁目２４番地,,23,203,4910854,,,,,,,2024-02-16,1,,,,,ファイバーエージェント,0
1529,6180301038336,新規,0,2024-02-16,2024-02-16,ワークスドットケア株式会社,,株式会社,愛知県,豊川市,牧野町１丁目４５番地,,23,207,4420806,,,,,,,2024-02-16,1,,,,,ワークスドットケア,0
1530,6190001031111,新規,0,2024-02-16,2024-02-16,株式会社開扉主,,株式会社,三重県,員弁郡東員町,城山１丁目１１番１２,,24,324,5110233,,,,,,,2024-02-16,1,,,,,ヒラケゴマズ,0
1532,6200001042172,新規,0,2024-02-16,2024-02-16,株式会社なかむら家,,株式会社,岐阜県,岐阜市,琴塚４丁目１７番７号,00133757,21,201,5008222,,,,,,,2024-02-16,1,,,,,ナカムラヤ,0
1534,6210001019640,新規,0,2024-02-16,2024-02-16,株式会社ｗｈａｔ’ｓ　ｕｐ,,株式会社,福井県,坂井市,丸岡町熊堂３号７番地１－１６,,18,210,9100347,,,,,,,2024-02-16,1,,,,,ワッツアップ,0
1536,6210003001745,新規,0,2024-02-16,2024-02-16,合同会社ｔｅａｍタスクエイド,,合同会社,福井県,吉田郡永平寺町,松岡学園７０５,,18,322,9101102,,,,,,,2024-02-16,1,,,,,チームタスクエイド,0
1542,6240003006543,新規,0,2024-02-16,2024-02-16,合同会社夢を掴め,,合同会社,広島県,広島市佐伯区,五日市駅前１丁目１０－１３,,34,108,7315125,,,,,,,2024-02-16,1,,,,,ユメヲツカメ,0
1544,6250001020520,新規,0,2024-02-16,2024-02-16,株式会社ヤートワン工業,,株式会社,山口県,岩国市,麻里布五丁目７番９号ｖｉｌｌａ麻里布１０１,,35,208,7400000,,,,,,,2024-02-16,1,,,,,ヤートワンコウギョウ,0
1547,6260001038768,新規,0,2024-02-16,2024-02-16,株式会社リバティー,,株式会社,岡山県,倉敷市,祐安１０１０番地６,,33,202,7100006,,,,,,,2024-02-16,1,,,,,リバティー,0
1548,6270003001599,新規,0,2024-02-16,2024-02-16,合同会社スタジオビーチ,,合同会社,鳥取県,日野郡江府町,大字武庫４５０番地１,,31,403,6894411,,,,,,,2024-02-16,1,,,,,スタジオビーチ,0
1553,6290001104716,新規,0,2024-02-16,2024-02-16,株式会社島人Ｆ,,株式会社,福岡県,那珂川市,大字上梶原８７６番地３７,,40,231,8111223,,,,,,,2024-02-16,1,,,,,シマンチュエフ,0
1554,6290001104732,新規,0,2024-02-16,2024-02-16,株式会社ＨＩＧＨ　ＲＡＩＳＥ,,株式会社,福岡県,福岡市博多区,住吉２丁目４番７－１１０５号レジデンス博多,,40,132,8120018,,,,,,,2024-02-16,1,,,,,ハイレイズ,0
1556,6290801030319,新規,0,2024-02-16,2024-02-16,株式会社三紘,,株式会社,福岡県,北九州市八幡西区,白岩町５番１４号,,40,109,8071113,,,,,,,2024-02-16,1,,,,,サンコー,0
1557,6290801030327,新規,0,2024-02-16,2024-02-16,つかさ薬品株式会社,,株式会社,福岡県,直方市,古町１６番３号,,40,204,8220027,,,,,,,2024-02-16,1,,,,,ツカサヤクヒン,0
1558,6320001020298,新規,0,2024-02-16,2024-02-16,株式会社トータルテック,,株式会社,大分県,杵築市,大田沓掛１４９０番地,,44,210,8790902,,,,,,,2024-02-16,1,,,,,トータルテック,0
1562,6340001026293,新規,0,2024-02-16,2024-02-16,ｓｃａｒａｂ株式会社,,株式会社,鹿児島県,熊毛郡南種子町,中之上３０７５番地２,,46,502,8913701,,,,,,,2024-02-16,1,,,,,スカラベ,0
1573,6360005006991,新規,0,2024-02-16,2024-02-16,一般社団法人よつば学園,,その他の設立登記法人,沖縄県,うるま市,勝連南風原２２番地,,47,213,9042311,,,,,,,2024-02-16,1,,,,,ヨツバガクエン,0
1580,6410001013730,新規,0,2024-02-16,2024-02-16,株式会社サンズ・オブ・リバティ,,株式会社,秋田県,秋田市,南通築地３－１１ドットビル２０２号室,,05,201,0100013,,,,,,,2024-02-16,1,,,,,サンズオブリバティ,0
1590,6460101007495,新規,0,2024-02-16,2024-02-16,株式会社丸十ホールディングス,,株式会社,北海道,帯広市,川西町西３線７３番地２,,01,207,0891182,,,,,,,2024-02-16,1,,,,,マルジュウホールディングス,0
1591,6460301005200,新規,0,2024-02-16,2024-02-16,株式会社クリエイトフィールド,,株式会社,北海道,北見市,東相内町１５５番地２,,01,208,0990878,,,,,,,2024-02-16,1,,,,,クリエイトフィールド,0
1593,6470001020036,新規,0,2024-02-16,2024-02-16,さぬきメディアワークス株式会社,,株式会社,香川県,高松市,飯田町１２６６番地５,,37,201,7618033,,,,,,,2024-02-16,1,,,,,サヌキメディアワークス,0
1596,6700150123359,新規,0,2024-02-16,2024-01-17,まるたこう一郎後援会,,その他,神奈川県,大和市,大和南１丁目１４－３中丸ビル２０１,,14,213,2420016,,,,,,,2024-01-17,1,,,,,マルタコウイチロウコウエンカイ,0
1599,7010001242377,新規,0,2024-02-16,2024-02-16,株式会社メディラジ,,株式会社,東京都,中央区,日本橋室町１丁目１１番１２号日本橋水野ビル７階,,13,102,1030022,,,,,,,2024-02-16,1,,,,,メディラジ,0
1600,7010001242393,新規,0,2024-02-16,2024-02-16,Ｐｒｏｊｅｃｔ　ＭＡ株式会社,,株式会社,東京都,中央区,日本橋２丁目２番３号ＲＩＳＨＥビルＵＣＦ４階,,13,102,1030027,,,,,,,2024-02-16,1,,,,,プロジェクトエムエー,0
1601,7010003042940,新規,0,2024-02-16,2024-02-16,合同会社ＹＢＭ　ＪＡＰＡＮ,,合同会社,東京都,中央区,日本橋本町３丁目３番６号ワカ末ビル７階,,13,102,1030023,,,,,,,2024-02-16,1,,,,,ワイビーエムジャパン,0
1626,7010701045567,新規,0,2024-02-16,2024-02-16,株式会社ＤＡＷＧＳ,,株式会社,東京都,品川区,西五反田３丁目４－１０目黒ＭＡＲＣレジデンスタワー１８０２,,13,109,1410031,,,,,,,2024-02-16,1,,,,,ドーグス,0
1627,7010801034775,新規,0,2024-02-16,2024-02-16,株式会社永成,,株式会社,東京都,大田区,中央６丁目２４番８号,,13,111,1430024,,,,,,,2024-02-16,1,,,,,エイセイ,0
1631,7011001160073,新規,0,2024-02-16,2024-02-16,株式会社ウッドバンク,,株式会社,東京都,渋谷区,恵比寿４丁目４番２－７０２号,,13,113,1500013,,,,,,,2024-02-16,1,,,,,ウッドバンク,0
1632,7011001160081,新規,0,2024-02-16,2024-02-16,株式会社ＳＰＡ　Ｔｏｋｙｏ,,株式会社,東京都,渋谷区,渋谷３丁目１８番７号,,13,113,1500002,,,,,,,2024-02-16,1,,,,,スパトウキョウ,0
1639,7011101106224,新規,0,2024-02-16,2024-02-16,株式会社Ｅｎｆｏｒｃｅｒ,,株式会社,東京都,新宿区,愛住町５番地３７－６０５号,,13,104,1600005,,,,,,,2024-02-16,1,,,,,エンフォーサー,0
1642,7011401025867,新規,0,2024-02-16,2024-02-16,株式会社アドア,,株式会社,東京都,板橋区,小茂根１丁目９番３号ラ・パレーテ１０３号室,,13,119,1730037,,,,,,,2024-02-16,1,,,,,アドア,0
1643,7011601027531,新規,0,2024-02-16,2024-02-16,株式会社ＹＭＤ,,株式会社,東京都,練馬区,西大泉１丁目１４番１３号,,13,120,1780065,,,,,,,2024-02-16,1,,,,,ワイエムディー,0
1646,7011701027027,新規,0,2024-02-16,2024-02-16,ＫＡＫＡＺＡＮ株式会社,,株式会社,東京都,江戸川区,松江５丁目１１－１６,,13,123,1320025,,,,,,,2024-02-16,1,,,,,カカザン,0
1648,7011801043799,新規,0,2024-02-16,2024-02-16,株式会社Ｊ．Ｐ．ＳＫＹ,,株式会社,東京都,葛飾区,白鳥３丁目２７番１５号,,13,122,1250063,,,,,,,2024-02-16,1,,,,,ジェイピースカイ,0
1656,7012401041524,新規,0,2024-02-16,2024-02-16,Ｉｎｊｉｅ　Ｉｎｔｅｒｎａｔｉｏｎａｌ株式会社,,株式会社,東京都,調布市,深大寺東町４丁目２２番地１７,,13,208,1820012,,,,,,,2024-02-16,1,,,,,インジインターナショナル,0
1657,7012401041532,新規,0,2024-02-16,2024-02-16,株式会社ＣＨＯ　ＳＯＬＵＴＩＯＮ,,株式会社,東京都,調布市,深大寺東町６丁目１４‐２１,,13,208,1820012,,,,,,,2024-02-16,1,,,,,シーエイチオーソルーション,0
1658,7012801022974,新規,0,2024-02-16,2024-02-16,シティーＳ＆Ｓ株式会社,,株式会社,東京都,日野市,百草１０４２番地の１５３,,13,212,1910033,,,,,,,2024-02-16,1,,,,,シティーエスアンドエス,0
1668,7020001155850,新規,0,2024-02-16,2024-02-16,株式会社日本医療ホールディングス,,株式会社,神奈川県,横浜市中区,北方町１丁目５７番地,,14,104,2310865,,,,,,,2024-02-16,1,,,,,ニッポンイリョウホールディングス,0
1670,7020003025548,新規,0,2024-02-16,2024-02-16,合同会社Ｂ‐ＵＰ,,合同会社,神奈川県,横浜市青葉区,青葉台１丁目１８番地２６,,14,117,2270062,,,,,,,2024-02-16,1,,,,,ビーアップ,0
1674,7021001081459,新規,0,2024-02-16,2024-02-16,株式会社ＧＲＯＷ　ＵＰ,,株式会社,神奈川県,大和市,福田３丁目６番地４３,,14,213,2420024,,,,,,,2024-02-16,1,,,,,グローアップ,0
1684,7030001158605,新規,0,2024-02-16,2024-02-16,金水設備株式会社,,株式会社,埼玉県,越谷市,大沢４丁目１９番４７号,,11,222,3430025,,,,,,,2024-02-16,1,,,,,キンスイセツビ,0
1685,7030001158704,新規,0,2024-02-16,2024-02-16,慧正商事株式会社,,株式会社,埼玉県,川口市,本前川３丁目３０番６号,,11,203,3330849,,,,,,,2024-02-16,1,,,,,ケイセイショウジ,0
1686,7030001158712,新規,0,2024-02-16,2024-02-16,株式会社ＥａｓｔＢｒｉｄｇｅ,,株式会社,埼玉県,川口市,芝５丁目１１－１６コーポ和樹２０３号室,,11,203,3330866,,,,,,,2024-02-16,1,,,,,イーストブリッジ,0
1687,7030001158729,新規,0,2024-02-16,2024-02-16,株式会社ＡＫ,,株式会社,埼玉県,所沢市,日吉町８番７号２階,,11,208,3591123,,,,,,,2024-02-16,1,,,,,エーケー,0
1688,7030001158737,新規,0,2024-02-16,2024-02-16,株式会社Ｐｕｓｈ　Ｈｅａｒｔ,,株式会社,埼玉県,川越市,熊野町６番地５,,11,201,3501146,,,,,,,2024-02-16,1,,,,,プッシュハート,0
1694,7030003023625,新規,0,2024-02-16,2024-02-16,ＡＴ合同会社,,合同会社,埼玉県,さいたま市見沼区,大字中川１８２番地３,,11,104,3370043,,,,,,,2024-02-16,1,,,,,エーティ,0
1699,7040001132170,新規,0,2024-02-16,2024-02-16,根本建材株式会社,,株式会社,千葉県,袖ケ浦市,神納５２番地１,,12,229,2990257,,,,,,,2024-02-16,1,,,,,ネモトケンザイ,0
1700,7040001132229,新規,0,2024-02-16,2024-02-16,株式会社ＣＨＩＰＭＵＮＫ,,株式会社,千葉県,千葉市中央区,旭町１番１３号,,12,101,2600002,,,,,,,2024-02-16,1,,,,,チップマンク,0
1701,7040001132237,新規,0,2024-02-16,2024-02-16,ＰＭ　ＨＡＲＭＯＮＹ株式会社,,株式会社,千葉県,千葉市花見川区,幕張町５丁目３７３番地８,,12,102,2620032,,,,,,,2024-02-16,1,,,,,ピーエムハーモニー,0
1702,7040001132245,新規,0,2024-02-16,2024-02-16,ＧＯＪＩ株式会社,,株式会社,千葉県,市川市,宝２丁目１１番９－２０２号,,12,203,2720122,,,,,,,2024-02-16,1,,,,,ゴジ,0
1704,7040003024333,新規,0,2024-02-16,2024-02-16,ウグイス・アワー合同会社,,合同会社,千葉県,船橋市,上山町１丁目１３１番地１４,,12,204,2730046,,,,,,,2024-02-16,1,,,,,ウグイスアワー,0
1709,7050001054298,新規,0,2024-02-16,2024-02-16,株式会社シーライン,,株式会社,茨城県,行方市,手賀２６４８番地,,08,233,3113513,,,,,,,2024-02-16,1,,,,,シーライン,0
1714,7070001041410,新規,0,2024-02-16,2024-02-16,株式会社栄富プラン,,株式会社,群馬県,前橋市,新前橋町１番地１７ホーユウパレス新前橋２１０号,,10,201,3710843,,,,,,,2024-02-16,1,,,,,エイトプラン,0
1717,7080101024537,新規,0,2024-02-16,2024-02-16,株式会社みらいず,,株式会社,静岡県,熱海市,上多賀１６６番地の６,,22,205,4130101,,,,,,,2024-02-16,1,,,,,ミライズ,0
1720,7080401027009,新規,0,2024-02-16,2024-02-16,光ロジトラスト株式会社,,株式会社,静岡県,磐田市,上大之郷７４番地２,,22,211,4380051,,,,,,,2024-02-16,1,,,,,ヒカリロジトラスト,0
1726,7110003005292,新規,0,2024-02-16,2024-02-16,合同会社シノハラ設備工業,,合同会社,新潟県,上越市,大和３丁目１５番９号,,15,222,9430861,,,,,,,2024-02-16,1,,,,,シノハラセツビコウギョウ,0
1734,7120001262059,新規,0,2024-02-16,2024-02-16,株式会社ＹＫ　Ｃｌａｒａｓ,,株式会社,大阪府,大阪市中央区,南船場２丁目６番２８号,,27,128,5420081,,,,,,,2024-02-16,1,,,,,ワイケークララス,0
1735,7120001262257,新規,0,2024-02-16,2024-02-16,株式会社Ｎｅｗｖｉｌｌａｇｅ,,株式会社,大阪府,大阪市北区,長柄西１丁目３番２２－１２１３号,,27,127,5310061,,,,,,,2024-02-16,1,,,,,ニューヴィレッジ,0
1736,7120001262298,新規,0,2024-02-16,2024-02-16,株式会社７ｕ,,株式会社,大阪府,大阪市西区,靱本町２丁目５番１５号８０３号室,,27,106,5500004,,,,,,,2024-02-16,1,,,,,セブンユー,0
1737,7120001262323,新規,0,2024-02-16,2024-02-16,株式会社リベルテ,,株式会社,大阪府,大阪市西区,北堀江２丁目２番２４号ＰａｒｋＬａｎｅＨｏｒｉｅＢｌｄ８１７号,,27,106,5500014,,,,,,,2024-02-16,1,,,,,リベルテ,0
1738,7120001262372,新規,0,2024-02-16,2024-02-16,株式会社Ｍ　ＳＴＥＰ,,株式会社,大阪府,大阪市生野区,小路東４丁目１４番７号,,27,116,5440003,,,,,,,2024-02-16,1,,,,,エムステップ,0
1743,7120003025942,新規,0,2024-02-16,2024-02-16,キクリ合同会社,,合同会社,大阪府,大阪市中央区,南船場３丁目２番２２号おおきに南船場ビル２０５,,27,128,5420081,,,,,,,2024-02-16,1,,,,,キクリ,0
1744,7120003025950,新規,0,2024-02-16,2024-02-16,合同会社ポムコネクト,,合同会社,大阪府,大阪市住吉区,千躰２丁目７番１７－５０９号,,27,120,5580047,,,,,,,2024-02-16,1,,,,,ポムコネクト,0
1746,7120005024158,新規,0,2024-02-16,2024-02-16,一般社団法人縁ディングノートプランニング協会,,その他の設立登記法人,大阪府,大阪市中央区,平野町２丁目１番２号沢の鶴ビル６階,,27,128,5410046,,,,,,,2024-02-16,1,,,,,エンディングノートプランニングキョウカイ,0
1748,7120101069057,新規,0,2024-02-16,2024-02-16,株式会社ファーストプレジャー,,株式会社,大阪府,堺市堺区,向陵西町３丁５番３１号メゾンドＭ２・１階,,27,141,5900026,,,,,,,2024-02-16,1,,,,,ファーストプレジャー,0
1757,7130001076383,新規,0,2024-02-16,2024-02-16,株式会社ＭＳＯ,,株式会社,京都府,京都市北区,小山西花池町３０－１－３０７,,26,101,6038148,,,,,,,2024-02-16,1,,,,,エムエスオー,0
1770,7140001133357,新規,0,2024-02-16,2024-02-16,株式会社スタジオはるる,,株式会社,兵庫県,芦屋市,岩園町４９番４３号,,28,206,6590013,,,,,,,2024-02-16,1,,,,,スタジオハルル,0
1771,7140001133365,新規,0,2024-02-16,2024-02-16,Ｙ’Ｓ　Ｔｒｕｓｔｅｅ株式会社,,株式会社,兵庫県,神戸市中央区,元町通２丁目３番２号ジェムビル７階,,28,110,6500022,,,,,,,2024-02-16,1,,,,,ワイズトラスティ,0
1776,7150001027079,新規,0,2024-02-16,2024-02-16,株式会社今西デザインオフィス,,株式会社,奈良県,橿原市,曲川町６丁目８－３,,29,205,6340837,,,,,,,2024-02-16,1,,,,,イマニシデザインオフィス,0
1777,7150001027087,新規,0,2024-02-16,2024-02-16,株式会社中正実業,,株式会社,奈良県,生駒郡平群町,菊美台３丁目１４番８号,,29,342,6360906,,,,,,,2024-02-16,1,,,,,チュウセイジツギョウ,0
1781,7180001160166,新規,0,2024-02-16,2024-02-16,ステラリンクホールディングス株式会社,,株式会社,愛知県,一宮市,西出町５１番地,,23,203,4910907,,,,,,,2024-02-16,1,,,,,ステラリンクホールディングス,0
1782,7180001160190,新規,0,2024-02-16,2024-02-16,ＭＩＴ株式会社,,株式会社,愛知県,名古屋市名東区,極楽２丁目２３３番地３,,23,115,4650053,,,,,,,2024-02-16,1,,,,,エムアイティー,0
1786,7180003026340,新規,0,2024-02-16,2024-02-16,合同会社サポート企画,,合同会社,愛知県,名古屋市港区,土古町４丁目８番地の１,,23,111,4550068,,,,,,,2024-02-16,1,,,,,サポートキカク,0
1787,7180003026365,新規,0,2024-02-16,2024-02-16,モリ・アンド・カンパニー合同会社,,合同会社,愛知県,名古屋市西区,稲生町５丁目３２番地１,,23,104,4510012,,,,,,,2024-02-16,1,,,,,モリアンドカンパニー,0
1788,7180005020523,新規,0,2024-02-16,2024-02-16,ＣＴＦ協同組合,,その他の設立登記法人,愛知県,名古屋市南区,柴田町６丁目１１番地の２,,23,112,4570815,,,,,,,2024-02-16,1,,,,,シーティーエフ,0
1792,7190001031110,新規,0,2024-02-16,2024-02-16,株式会社三世社,,株式会社,三重県,四日市市,広永町１７番地,,24,202,5128061,,,,,,,2024-02-16,1,,,,,サンセイシャ,0
1808,7240001062793,新規,0,2024-02-16,2024-02-16,株式会社ＢＳＳ姫路,,株式会社,広島県,福山市,御幸町大字中津原７０５番地１,,34,207,7200004,,,,,,,2024-02-16,1,,,,,ビーエスエスヒメジ,0
1809,7240001062802,新規,0,2024-02-16,2024-02-16,株式会社夏音,,株式会社,広島県,安芸郡熊野町,出来庭４丁目１７－２２,,34,307,7314221,,,,,,,2024-02-16,1,,,,,カノン,0
1813,7240003006542,新規,0,2024-02-16,2024-02-16,ＧＯ合同会社,,合同会社,広島県,福山市,大黒町１番３７号,,34,207,7200053,,,,,,,2024-02-16,1,,,,,ゴー,0
1821,7290001104673,新規,0,2024-02-16,2024-02-16,株式会社オーク,,株式会社,福岡県,福岡市博多区,博多駅前２丁目１番１号,,40,132,8120011,,,,,,,2024-02-16,1,,,,,オーク,0
1822,7290001104707,新規,0,2024-02-16,2024-02-16,株式会社ジーエムライン,,株式会社,福岡県,糸島市,二丈松末西１丁目１７番１３号,,40,230,8191617,,,,,,,2024-02-16,1,,,,,ジーエムライン,0
1823,7290001104715,新規,0,2024-02-16,2024-02-16,株式会社ビズサポラボラトリー,,株式会社,福岡県,福岡市中央区,荒戸２丁目１番１－７０１号,,40,133,8100062,,,,,,,2024-02-16,1,,,,,ビズサポラボラトリー,0
1826,7290801030292,新規,0,2024-02-16,2024-02-16,株式会社アクセンチュアガーデン,,株式会社,福岡県,北九州市八幡西区,折尾１丁目５番３－１０４号,,40,109,8070825,,,,,,,2024-02-16,1,,,,,アクセンチュアガーデン,0
1827,7290801030326,新規,0,2024-02-16,2024-02-16,株式会社光,,株式会社,福岡県,築上郡築上町,大字東築城１１４番地１,,40,647,8290101,,,,,,,2024-02-16,1,,,,,ヒカリ,0
1829,7310001018862,新規,0,2024-02-16,2024-02-16,株式会社Ｅ＆Ｍ,,株式会社,長崎県,大村市,桜馬場２丁目５０５番地１４,,42,205,8560812,,,,,,,2024-02-16,1,,,,,イーアンドエム,0
1830,7310003004729,新規,0,2024-02-16,2024-02-16,合同会社ＷＩＳＨ,,合同会社,長崎県,佐世保市,横尾町２１９０番地,,42,202,8570018,,,,,,,2024-02-16,1,,,,,ウィッシュ,0
1831,7320001020297,新規,0,2024-02-16,2024-02-16,株式会社エミュージャパン,,株式会社,大分県,別府市,山の手町１４番３３号浦松第１０オフィスビル４階４－Ａ,,44,202,8740828,,,,,,,2024-02-16,1,,,,,エミュージャパン,0
1837,7340003004370,新規,0,2024-02-16,2024-02-16,合同会社ユニタス,,合同会社,鹿児島県,奄美市,名瀬平田町１５番１－３０１号,,46,222,8940014,,,,,,,2024-02-16,1,,,,,ユニタス,0
1840,7350003004568,新規,0,2024-02-16,2024-02-16,合同会社ｓｈｕｃｈｉｃａ,,合同会社,宮崎県,宮崎市,橘通東３丁目５番２６号,,45,201,8800805,,,,,,,2024-02-16,1,,,,,シュチカ,0
1847,7360003013709,新規,0,2024-02-16,2024-02-16,合同会社サンブンノサン,,合同会社,沖縄県,島尻郡南風原町,字兼城６８３番地１２仲里ビル３－Ａ,,47,350,9011111,,,,,,,2024-02-16,1,,,,,サンブンノサン,0
1850,7390001017527,新規,0,2024-02-16,2024-02-16,株式会社下嶋内装,,株式会社,山形県,長井市,平山１１９２番地,,06,209,9930042,,,,,,,2024-02-16,1,,,,,シモジマナイソウ,0
1853,7400005008396,新規,0,2024-02-16,2024-02-16,医療法人社団ほそかわ小児科クリニック,,その他の設立登記法人,岩手県,二戸市,福岡字長嶺２８番地１８,,03,213,0286101,,,,,,,2024-02-16,1,,,,,ホソカワショウニカクリニック,0
1865,7470001020035,新規,0,2024-02-16,2024-02-16,株式会社ｔｏｎｏ,,株式会社,香川県,仲多度郡多度津町,大字葛原１５６２番地４,,37,404,7640028,,,,,,,2024-02-16,1,,,,,トノ,0
1871,7700150124018,新規,0,2024-02-16,2024-02-16,ＶＥ－ＳＴ　ＣＡＰＩＴＡＬ　ＮＢＦＩ　ＬＬＣ,,外国会社等,東京都,港区,西麻布４丁目５番１０－５０１号,,13,103,1060031,モンゴル国チンゲルティ区第１ホロー第２、４万８－２号室,,,,,,2024-02-16,1,,,,,ヴエストキヤピタルノンバンクフアイナンシヤルインステイテユーシヨンエルエルシー,0
1883,8010001242343,新規,0,2024-02-16,2024-02-16,株式会社ＡＬ　Ｊａｐａｎ,,株式会社,東京都,中央区,日本橋兜町５番１号兜町第１平和ビル７階,,13,102,1030026,,,,,,,2024-02-16,1,,,,,エーエルジャパン,0
1884,8010001242392,新規,0,2024-02-16,2024-02-16,株式会社豊智プランニング,,株式会社,東京都,中央区,銀座１丁目１２番４号Ｎ＆ＥＢＬＤ．６Ｆ,,13,102,1040061,,,,,,,2024-02-16,1,,,,,ホウチプランニング,0
1890,8010003042948,新規,0,2024-02-16,2024-02-16,東京有明ホテルマネジメント合同会社,,合同会社,東京都,千代田区,霞が関３丁目２番５号,,13,101,1000013,,,,,,,2024-02-16,1,,,,,トウキョウアリアケホテルマネジメント,0
1891,8010003042980,新規,0,2024-02-16,2024-02-16,合同会社七条キャピタル,,合同会社,東京都,千代田区,丸の内１丁目６番５号,,13,101,1000005,,,,,,,2024-02-16,1,,,,,シチジョウキャピタル,0
1892,8010101016011,新規,0,2024-02-16,2024-02-16,株式会社ＣｈｒｏｍａＡｒｃ,,株式会社,東京都,八王子市,天神町１１番地フィオリータＩＩ１０５号,00133742,13,201,1920074,,,,,,,2024-02-16,1,,,,,クロマアーク,0
1895,8010401180408,新規,0,2024-02-16,2024-02-16,株式会社アイ・シー・ゼロ・ファイブ,,株式会社,東京都,港区,虎ノ門３丁目７番１０号ランディック虎ノ門ビル９階,,13,103,1050001,,,,,,,2024-02-16,1,,,,,アイシーゼロファイブ,0
1906,8010703007052,新規,0,2024-02-16,2024-02-16,合同会社たいが,,合同会社,東京都,品川区,西五反田２丁目１８番３号グレイス五反田３２０号室,,13,109,1410031,,,,,,,2024-02-16,1,,,,,タイガ,0
1914,8011001160064,新規,0,2024-02-16,2024-02-16,Ｔｅｃｈｆｏｒｔ株式会社,,株式会社,東京都,渋谷区,神宮前６丁目２３－４桑野ビル２Ｆ,,13,113,1500001,,,,,,,2024-02-16,1,,,,,テックフォート,0
1915,8011001160072,新規,0,2024-02-16,2024-02-16,株式会社ネージュ,,株式会社,東京都,渋谷区,神泉町１１－５メゾン・ド・ヴィレ渋谷５０４,,13,113,1500045,,,,,,,2024-02-16,1,,,,,ネージュ,0
1916,8011001160080,新規,0,2024-02-16,2024-02-16,株式会社スタジオゼン,,株式会社,東京都,渋谷区,恵比寿西２丁目８番４号ＥＸ恵比寿西ビル５階,,13,113,1500021,,,,,,,2024-02-16,1,,,,,スタジオゼン,0
1922,8011101106207,新規,0,2024-02-16,2024-02-16,株式会社エンリッチビルド,,株式会社,東京都,新宿区,四谷４丁目３４番２号,,13,104,1600004,,,,,,,2024-02-16,1,,,,,エンリッチビルド,0
1923,8011101106231,新規,0,2024-02-16,2024-02-16,株式会社ＰｌａｎＴｉｖｅ,,株式会社,東京都,新宿区,西新宿３丁目３番１３号西新宿水間ビル６階,,13,104,1600023,,,,,,,2024-02-16,1,,,,,,0
1926,8011103014102,新規,0,2024-02-16,2024-02-16,合同会社ティアハトホル,,合同会社,東京都,新宿区,新宿１丁目１９番６－４０５号,,13,104,1600022,,,,,,,2024-02-16,1,,,,,ティアハトホル,0
1929,8011201025249,新規,0,2024-02-16,2024-02-16,捷富通株式会社,,株式会社,東京都,中野区,中央５丁目４４番６－１０２号,,13,114,1640011,,,,,,,2024-02-16,1,,,,,ジェフトン,0
1930,8011301029406,新規,0,2024-02-16,2024-02-16,株式会社水久保,,株式会社,東京都,杉並区,永福３丁目４６番２２号,,13,115,1680064,,,,,,,2024-02-16,1,,,,,ミズクボ,0
1931,8011303005058,新規,0,2024-02-16,2024-02-16,合同会社ＣＲＡＦＴＭＡＮ,,合同会社,東京都,杉並区,高円寺北４丁目３１－１８コーポことぶき５号,,13,115,1660002,,,,,,,2024-02-16,1,,,,,クラフトマン,0
1933,8011501030345,新規,0,2024-02-16,2024-02-16,株式会社メディカルプロパティ,,株式会社,東京都,北区,東十条１丁目１９番１３－１０１号,,13,117,1140001,,,,,,,2024-02-16,1,,,,,メディカルプロパティ,0
1934,8011503005956,新規,0,2024-02-16,2024-02-16,合同会社ＴＡＮ　ＫＨＡＮＧ,,合同会社,東京都,北区,赤羽西１丁目１６番１２号赤羽ＴＰビル２０１号室,,13,117,1150055,,,,,,,2024-02-16,1,,,,,タンカン,0
1935,8011601027530,新規,0,2024-02-16,2024-02-16,株式会社ファルコ,,株式会社,東京都,練馬区,練馬１丁目２０番８号日建練馬ビル２Ｆ,,13,120,1760001,,,,,,,2024-02-16,1,,,,,ファルコ,0
1936,8011603004247,新規,0,2024-02-16,2024-02-16,合同会社ｏｆ　ａｌｌ,,合同会社,東京都,練馬区,関町北１丁目１６番１３号,,13,120,1770051,,,,,,,2024-02-16,1,,,,,オブオール,0
1937,8011701027018,新規,0,2024-02-16,2024-02-16,株式会社ＡＬＬＥＮ　ＥＸＰＲＥＳＳ,,株式会社,東京都,江戸川区,南葛西３丁目１０番１５号,,13,123,1340085,,,,,,,2024-02-16,1,,,,,アレンエクスプレス,0
1944,8011801043807,新規,0,2024-02-16,2024-02-16,Ｔｈｅ　Ｍｉｌｅｓ株式会社,,株式会社,東京都,葛飾区,東金町３丁目１７番１０号ＫＢＳ・Ａ－１号,,13,122,1250041,,,,,,,2024-02-16,1,,,,,ザマイルス,0
1951,8012401041531,新規,0,2024-02-16,2024-02-16,株式会社ヒロカワ,,株式会社,東京都,稲城市,東長沼１９２６番地の１,,13,225,2060802,,,,,,,2024-02-16,1,,,,,ヒロカワ,0
1954,8012803003311,新規,0,2024-02-16,2024-02-16,合同会社ベテルギウス,,合同会社,東京都,立川市,上砂町５丁目３１番地の２ＩＮＯＶＥ武蔵砂川６０８号,,13,202,1900032,,,,,,,2024-02-16,1,,,,,ベテルギウス,0
1955,8013301052098,新規,0,2024-02-16,2024-02-16,株式会社日本流通センター,,株式会社,東京都,豊島区,東池袋２丁目６４－８ＢＩＧオフィスプラザ池袋２０２室,,13,116,1700013,,,,,,,2024-02-16,1,,,,,ニホンリュウツウセンター,0
1968,8020001155833,新規,0,2024-02-16,2024-02-16,株式会社ＳＡＸＳＩＡ,,株式会社,神奈川県,川崎市多摩区,枡形１丁目６番２３号,,14,135,2140032,,,,,,,2024-02-16,1,,,,,サクシア,0
1974,8021001081474,新規,0,2024-02-16,2024-02-16,アマタ株式会社,,株式会社,神奈川県,藤沢市,鵠沼石上１丁目７番１号６ＦＡ,,14,205,2510025,,,,,,,2024-02-16,1,,,,,アマタ,0
1975,8021001081499,新規,0,2024-02-16,2024-02-16,株式会社創希,,株式会社,神奈川県,横須賀市,公郷町４丁目６５番地３４,,14,201,2380022,,,,,,,2024-02-16,1,,,,,ソウキ,0
1976,8021003014168,新規,0,2024-02-16,2024-02-16,合同会社スクエックス,,合同会社,神奈川県,大和市,中央林間１丁目８番１３－８０５号,,14,213,2420007,,,,,,,2024-02-16,1,,,,,スクエックス,0
1984,8030001158661,新規,0,2024-02-16,2024-02-16,株式会社高山,,株式会社,埼玉県,川口市,川口５丁目５－２０－５０２号川口第２サニーコート,,11,203,3320015,,,,,,,2024-02-16,1,,,,,タカヤマ,0
1985,8030001158678,新規,0,2024-02-16,2024-02-16,Ｃｅｅｕｅｅ株式会社,,株式会社,埼玉県,川越市,砂新田３丁目１５番地１８－１０２号,,11,201,3501137,,,,,,,2024-02-16,1,,,,,シーユー,0
1986,8030001158686,新規,0,2024-02-16,2024-02-16,渡邉コンサルティング株式会社,,株式会社,埼玉県,さいたま市南区,文蔵３丁目８番１号,,11,108,3360025,,,,,,,2024-02-16,1,,,,,ワタナベコンサルティング,0
1987,8030001158694,新規,0,2024-02-16,2024-02-16,株式会社ＳＰＬＥＡＤ,,株式会社,埼玉県,本庄市,児玉町吉田林１８２,,11,211,3670211,,,,,,,2024-02-16,1,,,,,スプリード,0
1988,8030001158728,新規,0,2024-02-16,2024-02-16,株式会社ＺＥＲＯ,,株式会社,埼玉県,入間市,大字野田１３９２番地２サンクレイドル仏子７０４,,11,225,3580054,,,,,,,2024-02-16,1,,,,,ゼロ,0
1989,8030001158769,新規,0,2024-02-16,2024-02-16,株式会社ＭＥＲＯ,,株式会社,埼玉県,さいたま市浦和区,常盤６丁目１７番９号,,11,107,3300061,,,,,,,2024-02-16,1,,,,,メロ,0
1993,8030003023640,新規,0,2024-02-16,2024-02-16,ＨＯＡＮＧ　ＡＮ　ＰＨＡＴ合同会社,,合同会社,埼玉県,新座市,東北２丁目３０番２５号花野尾崎共同ビル４ＦＡＣ,,11,230,3520001,,,,,,,2024-02-16,1,,,,,ホアンアンファット,0
1994,8030003023657,新規,0,2024-02-16,2024-02-16,龍騰建設合同会社,,合同会社,埼玉県,川口市,西青木２丁目６番１５号,,11,203,3320035,,,,,,,2024-02-16,1,,,,,リュウトウケンセツ,0
1997,8040001132228,新規,0,2024-02-16,2024-02-16,株式会社ＧＥＮＫＩ,,株式会社,千葉県,千葉市緑区,おゆみ野中央５丁目３－１４,,12,105,2660032,,,,,,,2024-02-16,1,,,,,ゲンキ,0
1998,8040001132244,新規,0,2024-02-16,2024-02-16,株式会社Ｌ２Ｋ,,株式会社,千葉県,船橋市,二子町６０６－１メゾンソフィ１０８,,12,204,2730034,,,,,,,2024-02-16,1,,,,,エルツーケイ,0
2002,8040003024332,新規,0,2024-02-16,2024-02-16,ツリールーツ合同会社,,合同会社,千葉県,柏市,北柏３丁目１８－６サニーメゾン北柏２０１,,12,217,2770832,,,,,,,2024-02-16,1,,,,,ツリールーツ,0
2007,8050001054306,新規,0,2024-02-16,2024-02-16,光明ホールディングス株式会社,,株式会社,茨城県,水戸市,見川町２５３７番地６,,08,201,3100913,,,,,,,2024-02-16,1,,,,,コウメイホールディングス,0
2011,8050003008136,新規,0,2024-02-16,2024-02-16,クロステックシミュレーションズ合同会社,,合同会社,茨城県,神栖市,大野原２丁目２７－２６－２,,08,232,3140144,,,,,,,2024-02-16,1,,,,,クロステックシミュレーションズ,0
2018,8070001041401,新規,0,2024-02-16,2024-02-16,株式会社ザスパ群馬レディーススポーツクラブ,,株式会社,群馬県,太田市,東本町２３番２４号ワープビル,,10,205,3730026,,,,,,,2024-02-16,1,,,,,ザスパグンマレディーススポーツクラブ,0
2021,8080105006398,新規,0,2024-02-16,2024-02-16,一般社団法人伊豆文士村,,その他の設立登記法人,静岡県,伊豆市,湯ケ島２０番地の３,,22,222,4103206,,,,,,,2024-02-16,1,,,,,イズブンシムラ,0
2022,8080401027008,新規,0,2024-02-16,2024-02-16,光ロジエージェンシー株式会社,,株式会社,静岡県,磐田市,上大之郷７４番地２,,22,211,4380051,,,,,,,2024-02-16,1,,,,,ヒカリロジエージェンシー,0
2023,8080403004954,新規,0,2024-02-16,2024-02-16,合同会社Ｗｏｎｄｂｌｅ,,合同会社,静岡県,浜松市浜名区,内野８８５番地,,22,139,4340044,,,,,,,2024-02-16,1,,,,,ワンブル,0
2026,8110003005291,新規,0,2024-02-16,2024-02-16,合同会社ＲｅｂＥＡＲＴＨ　ＯＮＥ,,合同会社,新潟県,柏崎市,米山台４丁目６番２号,,15,205,9450842,,,,,,,2024-02-16,1,,,,,リバースワン,0
2034,8120001262256,新規,0,2024-02-16,2024-02-16,株式会社Ｌｕｃｋ．ｉｎ,,株式会社,大阪府,大阪市西区,阿波座１丁目１１－１９新興ビルＥ－５号室,,27,106,5500011,,,,,,,2024-02-16,1,,,,,ラックイン,0
2035,8120001262306,新規,0,2024-02-16,2024-02-16,ＰＬＡＴＩＮＵＭ株式会社,,株式会社,大阪府,大阪市住吉区,遠里小野３丁目５番１７号,,27,120,5580032,,,,,,,2024-02-16,1,,,,,プラチナ,0
2036,8120001262314,新規,0,2024-02-16,2024-02-16,栄伸開発ホールディングス株式会社,,株式会社,大阪府,大阪市大正区,鶴町１丁目１０番２号,,27,108,5510023,,,,,,,2024-02-16,1,,,,,エイシンカイハツホールディングス,0
2037,8120001262330,新規,0,2024-02-16,2024-02-16,株式会社Ｈａｔｃｈ　ｍｅｄｉｃａｌ,,株式会社,大阪府,大阪市中央区,久太郎町１丁目５番３１号リアライズ堺筋本町ビル６０４号,,27,128,5410056,,,,,,,2024-02-16,1,,,,,ハッチメディカル,0
2038,8120001262371,新規,0,2024-02-16,2024-02-16,リベレイツ株式会社,,株式会社,大阪府,大阪市北区,中津１丁目１１番６号,,27,127,5310071,,,,,,,2024-02-16,1,,,,,リベレイツ,0
2047,8120101069056,新規,0,2024-02-16,2024-02-16,株式会社Ｃｏｒｅ　Ｅｓｔａｔｅ,,株式会社,大阪府,泉南市,新家１３１５番地の１８６,,27,228,5900503,,,,,,,2024-02-16,1,,,,,コアエステイト,0
2056,8122001037836,新規,0,2024-02-16,2024-02-16,株式会社ＳＥＢＵ＆Ｃｏｍｐａｎｙ,,株式会社,大阪府,八尾市,南本町１丁目１番３４号,,27,212,5810081,,,,,,,2024-02-16,1,,,,,セブアンドカンパニー,0
2063,8130001076374,新規,0,2024-02-16,2024-02-16,株式会社ＡＣコーポレーション,,株式会社,京都府,京都市伏見区,竹田西桶ノ井町１１７番地３Ｆ,,26,109,6128428,,,,,,,2024-02-16,1,,,,,エーシーコーポレーション,0
2064,8130003009308,新規,0,2024-02-16,2024-02-16,合同会社４Ｄプランニング,,合同会社,京都府,京都市西京区,桂久方町２０４番地,,26,111,6158016,,,,,,,2024-02-16,1,,,,,フォーディープランニング,0
2068,8140001133331,新規,0,2024-02-16,2024-02-16,Ｍａｒｔｉｎ環境技術株式会社,,株式会社,兵庫県,神崎郡市川町,奥８７９番地１２,,28,442,6792325,,,,,,,2024-02-16,1,,,,,マーティンカンキョウギジュツ,0
2069,8140001133356,新規,0,2024-02-16,2024-02-16,株式会社ノイエステート,,株式会社,兵庫県,姫路市,元町７５番地１１,,28,201,6700049,,,,,,,2024-02-16,1,,,,,ノイエステート,0
2071,8140003020172,新規,0,2024-02-16,2024-02-16,合同会社白鵬企画,,合同会社,兵庫県,神戸市中央区,下山手通４丁目６番１３号,,28,110,6500011,,,,,,,2024-02-16,1,,,,,ハクホウキカク,0
2072,8150001027078,新規,0,2024-02-16,2024-02-16,株式会社ＮＡＰＡ,,株式会社,奈良県,奈良市,秋篠早月町９番１－４０８号,,29,201,6310812,,,,,,,2024-02-16,1,,,,,ナパ,0
2081,8180001160149,新規,0,2024-02-16,2024-02-16,株式会社ヘンリージュニア,,株式会社,愛知県,尾張旭市,旭前町３丁目２番地２,,23,226,4880855,,,,,,,2024-02-16,1,,,,,ヘンリージュニア,0
2082,8180001160157,新規,0,2024-02-16,2024-02-16,株式会社ＬＣＥ,,株式会社,愛知県,春日井市,東野町西２丁目２０番地２８,,23,206,4860818,,,,,,,2024-02-16,1,,,,,エルシーイー,0
2083,8180001160223,新規,0,2024-02-16,2024-02-16,株式会社ＨＢＯコーポレーション,,株式会社,愛知県,名古屋市中区,新栄１丁目３番３０号（プレサンス栄フェル１５０４号）,,23,106,4600007,,,,,,,2024-02-16,1,,,,,エイチビーオーコーポレーション,0
2086,8180005020522,新規,0,2024-02-16,2024-02-16,特定非営利活動法人タダの家,,その他の設立登記法人,愛知県,名古屋市北区,山田１丁目９番２７号,,23,103,4620810,,,,,,,2024-02-16,1,,,,,タダノイエ,0
2088,8180301038326,新規,0,2024-02-16,2024-02-16,株式会社サンヨーＳＰＣ,,株式会社,愛知県,西尾市,徳次町上十五夜３６番地１,,23,213,4450072,,,,,,,2024-02-16,1,,,,,サンヨーエスピーシー,0
2093,8200001042162,新規,0,2024-02-16,2024-02-16,ボガティ株式会社,,株式会社,岐阜県,岐阜市,曽我屋２丁目１３３番地,,21,201,5010101,,,,,,,2024-02-16,1,,,,,ボガティ,0
2094,8200001042170,新規,0,2024-02-16,2024-02-16,株式会社ＭＡＭＡ屋,,株式会社,岐阜県,高山市,千島町１４０番地１,,21,203,5060032,,,,,,,2024-02-16,1,,,,,ママヤ,0
2096,8210001019639,新規,0,2024-02-16,2024-02-16,葵エレック株式会社,,株式会社,福井県,福井市,花月５丁目４番２号,,18,201,9100022,,,,,,,2024-02-16,1,,,,,アオイエレック,0
2102,8250003003439,新規,0,2024-02-16,2024-02-16,合同会社Ｃｈｅｅｒｓ,,合同会社,山口県,下関市,綾羅木新町３丁目７番１号,,35,201,7510865,,,,,,,2024-02-16,1,,,,,チアーズ,0
2106,8260001038766,新規,0,2024-02-16,2024-02-16,株式会社アネスト,,株式会社,岡山県,倉敷市,西田６２５番地６,,33,202,7100027,,,,,,,2024-02-16,1,,,,,アネスト,0
2109,8290001104689,新規,0,2024-02-16,2024-02-16,株式会社桃源郷,,株式会社,福岡県,福岡市博多区,中洲５丁目２番６号,,40,132,8100801,,,,,,,2024-02-16,1,,,,,トウゲンキョウ,0
2110,8290001104706,新規,0,2024-02-16,2024-02-16,清石株式会社,,株式会社,福岡県,福岡市博多区,博多駅前２丁目１９番１７－８１１号,,40,132,8120011,,,,,,,2024-02-16,1,,,,,キヨイシ,0
2111,8290001104714,新規,0,2024-02-16,2024-02-16,株式会社はーとふるエステート,,株式会社,福岡県,福岡市南区,長丘２丁目９番１７号,,40,134,8150075,,,,,,,2024-02-16,1,,,,,ハートフルエステート,0
2114,8290003014977,新規,0,2024-02-16,2024-02-16,Ｇ＆Ｔ合同会社,,合同会社,福岡県,福岡市博多区,吉塚５丁目１３番２２－４０８号,,40,132,8120041,,,,,,,2024-02-16,1,,,,,ジーアンドティー,0
2116,8290803004616,新規,0,2024-02-16,2024-02-16,合同会社ＳＫ３Ｃ,,合同会社,福岡県,中間市,中間１丁目６番２２号,,40,215,8090034,,,,,,,2024-02-16,1,,,,,エスケーサンシー,0
2119,8310003004728,新規,0,2024-02-16,2024-02-16,合同会社イセヤ,,合同会社,長崎県,南松浦郡新上五島町,奈摩郷１５８番地１３,,42,411,8574402,,,,,,,2024-02-16,1,,,,,,0
2121,8330001031755,新規,0,2024-02-16,2024-02-16,株式会社セイボテック,,株式会社,熊本県,熊本市西区,上高橋２丁目２０番５号,,43,103,8600061,,,,,,,2024-02-16,1,,,,,セイボテック,0
2126,8360001033170,新規,0,2024-02-16,2024-02-16,株式会社シャカイナ,,株式会社,沖縄県,中頭郡読谷村,字古堅７２番地６,,47,324,9040314,,,,,,,2024-02-16,1,,,,,シャカイナ,0
2127,8360001033195,新規,0,2024-02-16,2024-02-16,三六商会株式会社,,株式会社,沖縄県,那覇市,久茂地３丁目９番５号,,47,201,9000015,,,,,,,2024-02-16,1,,,,,サンロクショウカイ,0
2128,8370003006487,新規,0,2024-02-16,2024-02-16,合同会社スタジオ昌芳,,合同会社,宮城県,仙台市青葉区,八幡５丁目７番２７号,,04,101,9800871,,,,,,,2024-02-16,1,,,,,スタジオマサヨシ,0
2136,8390001017526,新規,0,2024-02-16,2024-02-16,株式会社彩,,株式会社,山形県,村山市,楯岡荒町１丁目１番２１号,,06,208,9950032,,,,,,,2024-02-16,1,,,,,イロドリ,0
2137,8400005008395,新規,0,2024-02-16,2024-02-16,一般社団法人東北グレイス・ロード,,その他の設立登記法人,岩手県,紫波郡矢巾町,大字藤沢第８地割５６番地４,,03,322,0283602,,,,,,,2024-02-16,1,,,,,トウホクグレイスロード,0
2138,8410001013737,新規,0,2024-02-16,2024-02-16,株式会社ＨＫ,,株式会社,秋田県,大仙市,大曲上大町６番１６号,,05,212,0140048,,,,,,,2024-02-16,1,,,,,エイチケイ,0
2143,8430005014894,新規,0,2024-02-16,2024-02-16,一般社団法人おたる権利擁護・終活サポートセンター,,その他の設立登記法人,北海道,小樽市,長橋２丁目１７番１６号十字街クリニックビル１階,,01,203,0470036,,,,,,,2024-02-16,1,,,,,オタルケンリヨウゴシュウカツサポートセンター,0
2146,8470003002583,新規,0,2024-02-16,2024-02-16,合同会社ゼンリョク,,合同会社,香川県,三豊市,山本町辻１０７４番地１,00133758,37,208,7680101,,,,,,,2024-02-16,1,,,,,ゼンリョク,0
2148,8700150123852,新規,0,2024-02-16,2024-02-07,セラミックバレー協議会,,その他,岐阜県,多治見市,東町４丁目２番地の５セラミックパークＭＩＮＯ,,21,204,5070801,,,,,,,2024-02-07,1,,,,,セラミツクバレーキヨウギカイ,0
2149,8700150124009,新規,0,2024-02-16,2024-02-16,ＪＰ　ＦＡＭＩＬＹ　ＨＯＬＤＩＮＧＳ，ＬＬＣ,,外国会社等,千葉県,八千代市,大和田新田１３８番地１６,,12,221,2760046,アメリカ合衆国９４０６２カリフォルニア州レッドウッドシティ、グランドストリート５５７,,,,,,2024-02-16,1,,,,,ジエイピーフアミリーホールデイングスエルエルシー,0
2154,9010001242276,新規,0,2024-02-16,2024-02-16,リノア株式会社,,株式会社,東京都,中央区,銀座１丁目１２番４号Ｎ＆ＥＢＬＤ．６Ｆ,,13,102,1040061,,,,,,,2024-02-16,1,,,,,リノア,0
2155,9010001242350,新規,0,2024-02-16,2024-02-16,株式会社利他ワークス,,株式会社,東京都,千代田区,九段南１丁目５－６りそな九段ビル５ＦＫＳフロア,,13,101,1020074,,,,,,,2024-02-16,1,,,,,リタワークス,0
2156,9010001242375,新規,0,2024-02-16,2024-02-16,イノベイジアデコール株式会社,,株式会社,東京都,千代田区,岩本町１丁目３番３号プロスパービル４階,,13,101,1010032,,,,,,,2024-02-16,1,,,,,イノベイジアデコール,0
2157,9010001242383,新規,0,2024-02-16,2024-02-16,株式会社デイワン,,株式会社,東京都,中央区,銀座１丁目１２番４号Ｎ＆ＥＢＬＤ．７階,,13,102,1040061,,,,,,,2024-02-16,1,,,,,デイワン,0
2158,9010001242391,新規,0,2024-02-16,2024-02-16,Ｎｏｒｏｓｈｉ株式会社,,株式会社,東京都,中央区,新川２丁目２１番１５－１２０４号,,13,102,1040033,,,,,,,2024-02-16,1,,,,,ノロシ,0
2159,9010003042922,新規,0,2024-02-16,2024-02-16,福留事務所合同会社,,合同会社,東京都,中央区,晴海３丁目１３番１－８１２号,,13,102,1040053,,,,,,,2024-02-16,1,,,,,フクドメジムショ,0
2160,9010003042939,新規,0,2024-02-16,2024-02-16,ｉプロパティ１５合同会社,,合同会社,東京都,千代田区,永田町２丁目１４番２号－３階スリーアイズキャピタル株式会社内,,13,101,1000014,,,,,,,2024-02-16,1,,,,,アイプロパティフィフティーン,0
2161,9010005037904,新規,0,2024-02-16,2024-02-16,知多ロジスティクス特定目的会社,,その他の設立登記法人,東京都,中央区,日本橋１丁目４番１号,,13,102,1030027,,,,,,,2024-02-16,1,,,,,チタロジスティクス,0
2162,9010005037912,新規,0,2024-02-16,2024-02-16,一般社団法人食育＆オーガニックライフ協会,,その他の設立登記法人,東京都,中央区,佃３丁目４－６,,13,102,1040051,,,,,,,2024-02-16,1,,,,,ショクイクアンドオーガニックライフキョウカイ,0
2167,9010401180407,新規,0,2024-02-16,2024-02-16,株式会社アイ・シー・ゼロ・フォー,,株式会社,東京都,港区,虎ノ門３丁目７番１０号ランディック虎ノ門ビル９階,,13,103,1050001,,,,,,,2024-02-16,1,,,,,アイシーゼロフォー,0
2168,9010401180415,新規,0,2024-02-16,2024-02-16,株式会社三田産業医オフィス,,株式会社,東京都,港区,浜松町２丁目２番１５号浜松町ダイヤビル２Ｆ,,13,103,1050013,,,,,,,2024-02-16,1,,,,,ミタサンギョウイオフィス,0
2172,9010501051805,新規,0,2024-02-16,2024-02-16,株式会社ファーストステップ,,株式会社,東京都,台東区,根岸１丁目６番１５号根岸レジデンス３０１号室,,13,106,1100003,,,,,,,2024-02-16,1,,,,,ファーストステップ,0
2175,9010601064616,新規,0,2024-02-16,2024-02-16,株式会社ＭＫＵコーポレーション,,株式会社,東京都,江東区,豊洲６丁目２番３１号,,13,108,1350061,,,,,,,2024-02-16,1,,,,,エムケイユーコーポレーション,0
2176,9010601064665,新規,0,2024-02-16,2024-02-16,おとなりカンパニー株式会社,,株式会社,東京都,墨田区,横川１丁目１６番３号,,13,107,1300003,,,,,,,2024-02-16,1,,,,,オトナリカンパニー,0
2178,9010701045565,新規,0,2024-02-16,2024-02-16,三信株式会社,,株式会社,東京都,品川区,南品川３丁目１番８号,,13,109,1400004,,,,,,,2024-02-16,1,,,,,サンシン,0
2181,9010801034781,新規,0,2024-02-16,2024-02-16,ジェーライド株式会社,,株式会社,東京都,大田区,多摩川２丁目３番６号レフォール多摩川１階,,13,111,1460095,,,,,,,2024-02-16,1,,,,,ジェーライド,0
2188,9011001160071,新規,0,2024-02-16,2024-02-16,株式会社ｍｅ,,株式会社,東京都,渋谷区,神宮前４丁目１４－１０－ＨＯＬＯＮ２－Ｂ１,,13,113,1500001,,,,,,,2024-02-16,1,,,,,エムイー,0
2190,9011101106206,新規,0,2024-02-16,2024-02-16,株式会社トラストワン,,株式会社,東京都,新宿区,四谷４丁目２４番地２,,13,104,1600004,,,,,,,2024-02-16,1,,,,,トラストワン,0
2191,9011101106214,新規,0,2024-02-16,2024-02-16,マイフェイブ株式会社,,株式会社,東京都,新宿区,大京町３１－５ヴィップ新宿御苑８０６,,13,104,1600015,,,,,,,2024-02-16,1,,,,,マイフェイブ,0
2192,9011101106230,新規,0,2024-02-16,2024-02-16,株式会社一流教育,,株式会社,東京都,新宿区,西新宿３丁目３番１３号西新宿水間ビル６階,,13,104,1600023,,,,,,,2024-02-16,1,,,,,イチリュウキョウイク,0
2195,9011103014092,新規,0,2024-02-16,2024-02-16,ＩｎａＦ合同会社,,合同会社,東京都,新宿区,西新宿３丁目３番１３号西新宿水間ビル２Ｆ,,13,104,1600023,,,,,,,2024-02-16,1,,,,,イナフ,0
2199,9011301029405,新規,0,2024-02-16,2024-02-16,テレマイクロ株式会社,,株式会社,東京都,杉並区,高円寺南１丁目３０番３号,,13,115,1660003,,,,,,,2024-02-16,1,,,,,テレマイクロ,0
2200,9011303005057,新規,0,2024-02-16,2024-02-16,合同会社奏,,合同会社,東京都,杉並区,下高井戸２丁目１７番５－２０６号シアンズテラス下高井戸,,13,115,1680073,,,,,,,2024-02-16,1,,,,,カナデ,0
2202,9011501030344,新規,0,2024-02-16,2024-02-16,株式会社ＭＹＭ,,株式会社,東京都,北区,赤羽北１丁目１０番１３－１０１号,,13,117,1150052,,,,,,,2024-02-16,1,,,,,エムワイエム,0
2207,9011603004246,新規,0,2024-02-16,2024-02-16,チェリーブロッサム合同会社,,合同会社,東京都,練馬区,中村北３丁目２１番８号奈良ビル４階,,13,120,1760023,,,,,,,2024-02-16,1,,,,,チェリーブロッサム,0
2212,9011705001819,新規,0,2024-02-16,2024-02-16,一般社団法人アートＺＥＲＯ,,その他の設立登記法人,東京都,江戸川区,篠崎町２丁目２６番１０号,,13,123,1330061,,,,,,,2024-02-16,1,,,,,アートゼロ,0
2217,9011801043797,新規,0,2024-02-16,2024-02-16,株式会社ジャスティス,,株式会社,東京都,足立区,鹿浜６丁目３６番１８号,,13,121,1230864,,,,,,,2024-02-16,1,,,,,ジャスティス,0
2220,9012403006416,新規,0,2024-02-16,2024-02-16,合同会社ＭＩＬＬＩＥ　Ｍｅｄｉｃａｌ　Ｓｏｌｕｔｉｏｎｓ,,合同会社,東京都,三鷹市,牟礼１丁目８番３２号,,13,204,1810002,,,,,,,2024-02-16,1,,,,,メリーメディカルソルーションズ,0
2222,9012701018088,新規,0,2024-02-16,2024-02-16,日昇移動株式会社,,株式会社,東京都,清瀬市,元町１丁目１３番２１号エメラルドハイツ１０１－１０１号室－Ｈ,,13,221,2040021,,,,,,,2024-02-16,1,,,,,ニッショウイドウ,0
2223,9012703002908,新規,0,2024-02-16,2024-02-16,合同会社Ｈａｐｐｙ＆Ｌｕｃｋｙ　ＢＩＧＢＡＮＧ,,合同会社,東京都,小平市,花小金井３丁目３番３号,,13,211,1870002,,,,,,,2024-02-16,1,,,,,ハッピーアンドラッキービッグバン,0
2226,9012803003319,新規,0,2024-02-16,2024-02-16,増渕道場合同会社,,合同会社,東京都,日野市,豊田４丁目１９－４２,,13,212,1910053,,,,,,,2024-02-16,1,,,,,マスブチドウジョウ,0
2227,9012805003250,新規,0,2024-02-16,2024-02-16,一般社団法人こくぶんじ観光まちづくり協会,,その他の設立登記法人,東京都,国分寺市,戸倉１丁目６番地１,,13,214,1850003,,,,,,,2024-02-16,1,,,,,コクブンジカンコウマチヅクリキョウカイ,0
2233,9020001155808,新規,0,2024-02-16,2024-02-16,ＹＯＭＡ株式会社,,株式会社,神奈川県,横浜市中区,若葉町２丁目１８番地ＹＳビル４０１号,,14,104,2310056,,,,,,,2024-02-16,1,,,,,ヨマ,0
2234,9020001155832,新規,0,2024-02-16,2024-02-16,広田通商株式会社,,株式会社,神奈川県,横浜市西区,浅間町１丁目４番３号ウィザードビル４０２,,14,103,2200072,,,,,,,2024-02-16,1,,,,,ヒロタツウショウ,0
2235,9020003025570,新規,0,2024-02-16,2024-02-16,合同会社ＳＰＡＣＹ　ＳＰＩＣＥ,,合同会社,神奈川県,横浜市金沢区,大道１丁目６－６,,14,108,2360035,,,,,,,2024-02-16,1,,,,,スペーシースパイス,0
2238,9021001081498,新規,0,2024-02-16,2024-02-16,株式会社ＹＲリフォーム,,株式会社,神奈川県,大和市,下和田１１３８番地,,14,213,2420015,,,,,,,2024-02-16,1,,,,,ワイアールリフォーム,0
2250,9030001158652,新規,0,2024-02-16,2024-02-16,エストランスポート株式会社,,株式会社,埼玉県,久喜市,菖蒲町新堀３１５番地１,,11,232,3460105,,,,,,,2024-02-16,1,,,,,エストランスポート,0
2251,9030001158685,新規,0,2024-02-16,2024-02-16,株式会社ＡＲＳ,,株式会社,埼玉県,越谷市,レイクタウン７丁目３番地１グランセンス越谷レイクタウン２２８,,11,222,3430828,,,,,,,2024-02-16,1,,,,,アルス,0
2252,9030001158693,新規,0,2024-02-16,2024-02-16,株式会社エアーワークス,,株式会社,埼玉県,蓮田市,本町６番１号（１４１２）,,11,238,3490123,,,,,,,2024-02-16,1,,,,,エアーワークス,0
2253,9030001158727,新規,0,2024-02-16,2024-02-16,株式会社紙孝,,株式会社,埼玉県,川口市,飯原町１１番１１号,,11,203,3320024,,,,,,,2024-02-16,1,,,,,カミコウ,0
2254,9030001158751,新規,0,2024-02-16,2024-02-16,ＮｅｘｕＳ株式会社,,株式会社,埼玉県,戸田市,喜沢１丁目９番地の１リヴェール喜沢１０１号室,,11,224,3350013,,,,,,,2024-02-16,1,,,,,ネクサス,0
2265,9040003024323,新規,0,2024-02-16,2024-02-16,合同会社ナイトレイド,,合同会社,千葉県,印西市,小林北３丁目３番地９,,12,231,2701313,,,,,,,2024-02-16,1,,,,,ナイトレイド,0
2268,9050001054263,新規,0,2024-02-16,2024-02-16,Ａｆｆａｎ　Ｔｒａｄｉｎｇ株式会社,,株式会社,茨城県,筑西市,知行５０９番地２,,08,227,3091124,,,,,,,2024-02-16,1,,,,,アファントレーディング,0
2269,9050001054288,新規,0,2024-02-16,2024-02-16,株式会社ＩＢＧ,,株式会社,茨城県,水戸市,東野町６６９番地の１３,,08,201,3100846,,,,,,,2024-02-16,1,,,,,アイビージー,0
2270,9050001054296,新規,0,2024-02-16,2024-02-16,株式会社ＺＩＢ　ＴＲＡＤＩＮＧ,,株式会社,茨城県,常総市,山口６３１番地中根アパート３,,08,211,3002715,,,,,,,2024-02-16,1,,,,,ジブトレーディング,0
2271,9050001054305,新規,0,2024-02-16,2024-02-16,株式会社ＡＬＤＩ,,株式会社,茨城県,取手市,白山４丁目４番１号,,08,217,3020023,,,,,,,2024-02-16,1,,,,,エーエルディーアイ,0
2281,9070001041400,新規,0,2024-02-16,2024-02-16,株式会社星野美装,,株式会社,群馬県,高崎市,下小塙町８８２番地,,10,202,3700076,,,,,,,2024-02-16,1,,,,,ホシノビソウ,0
2282,9070001041409,新規,0,2024-02-16,2024-02-16,株式会社アルベロス・インスパイア,,株式会社,群馬県,高崎市,石原町３７０３番地５パークヒルズ・ツルベＡ棟２０１号,,10,202,3700864,,,,,,,2024-02-16,1,,,,,アルベロスインスパイア,0
2283,9080003003133,新規,0,2024-02-16,2024-02-16,合同会社村本アドバイザリー,,合同会社,静岡県,静岡市葵区,音羽町１５番１５－２０７号,,22,101,4200834,,,,,,,2024-02-16,1,,,,,ムラモトアドバイザリー,0
2290,9080401027007,新規,0,2024-02-16,2024-02-16,株式会社山彦ＲＣ,,株式会社,静岡県,浜松市中央区,豊町３２９３番地,,22,138,4313101,,,,,,,2024-02-16,1,,,,,ヤマビコアールシー,0
2295,9100003007412,新規,0,2024-02-16,2024-02-16,合同会社Ｃ＆Ｍ,,合同会社,長野県,北佐久郡軽井沢町,大字長倉３５７０－２０,,20,321,3890111,,,,,,,2024-02-16,1,,,,,シーアンドエム,0
2296,9110001038185,新規,0,2024-02-16,2024-02-16,Ｆ＆Ｔ株式会社,,株式会社,新潟県,胎内市,若松町１５番２２号,,15,227,9592641,,,,,,,2024-02-16,1,,,,,エフアンドティー,0
2297,9110001038193,新規,0,2024-02-16,2024-02-16,株式会社ＫＭフーズ,,株式会社,新潟県,新潟市中央区,上所上１丁目３番５号,,15,103,9500992,,,,,,,2024-02-16,1,,,,,ケーエムフーズ,0
2298,9110003005290,新規,0,2024-02-16,2024-02-16,びぃどろ合同会社,,合同会社,新潟県,新潟市中央区,親松１０１番地４サンクレイン１０５号,,15,103,9500952,,,,,,,2024-02-16,1,,,,,ビィドロ,0
2310,9120001262271,新規,0,2024-02-16,2024-02-16,株式会社Ｊ‐Ｒｉｓｅ,,株式会社,大阪府,大阪市浪速区,大国２丁目１番７号,,27,111,5560014,,,,,,,2024-02-16,1,,,,,ジェイライズ,0
2311,9120001262321,新規,0,2024-02-16,2024-02-16,株式会社恒益商事,,株式会社,大阪府,大阪市北区,天満２丁目７番１号末澤ビル２０２号室,,27,127,5300043,,,,,,,2024-02-16,1,,,,,コウエキショウジ,0
2312,9120001262338,新規,0,2024-02-16,2024-02-16,北湖伝媒科技株式会社,,株式会社,大阪府,大阪市大正区,三軒家西３丁目４番１６号中山ビル３０９Ａ,,27,108,5510001,,,,,,,2024-02-16,1,,,,,ホクコデンバイカギ,0
2313,9120001262362,新規,0,2024-02-16,2024-02-16,佳＿株式会社,00133746,株式会社,大阪府,大阪市中央区,瓦屋町１丁目６番１６号,,27,128,5420066,,,,,,,2024-02-16,1,,,,,カイク,0
2314,9120001262379,新規,0,2024-02-16,2024-02-16,株式会社オフィスビー,,株式会社,大阪府,大阪市西区,新町１丁目２２番１２号－Ｔ．Ｔビル２号館新町３０３号室,,27,106,5500013,,,,,,,2024-02-16,1,,,,,オフィスビー,0
2318,9120101069071,新規,0,2024-02-16,2024-02-16,キンスター株式会社,,株式会社,大阪府,堺市南区,三原台２丁７番１－７１６号,,27,145,5900111,,,,,,,2024-02-16,1,,,,,キンスター,0
2323,9130001076381,新規,0,2024-02-16,2024-02-16,株式会社エーラッシュ,,株式会社,京都府,宇治市,六地蔵奈良町６３番地１７ミユスビル２０２,,26,204,6110001,,,,,,,2024-02-16,1,,,,,エーラッシュ,0
2329,9140001133371,新規,0,2024-02-16,2024-02-16,Ｋダイヤモンドヘッド株式会社,,株式会社,兵庫県,神戸市中央区,三宮町２丁目６番１号ＤＥＮビル３階,,28,110,6500021,,,,,,,2024-02-16,1,,,,,ケイダイヤモンドヘッド,0
2333,9170001018017,新規,0,2024-02-16,2024-02-16,株式会社智恵園,,株式会社,和歌山県,和歌山市,十番丁５６番地,,30,201,6408152,,,,,,,2024-02-16,1,,,,,チエゾノ,0
2339,9180001160123,新規,0,2024-02-16,2024-02-16,株式会社ＡＮＯＮＹＭＯＵＳ,,株式会社,愛知県,名古屋市中区,丸の内２丁目６番２７号ＬＵＸＥＮＡＭＡＲＵＮＯＵＣＨＩ１３０５号,,23,106,4600002,,,,,,,2024-02-16,1,,,,,アノニマス,0
2340,9180001160148,新規,0,2024-02-16,2024-02-16,株式会社ＰＡＲＬＡＹ,,株式会社,愛知県,知多郡美浜町,河和台３丁目４１番地,,23,446,4702405,,,,,,,2024-02-16,1,,,,,パーレイ,0
2341,9180001160156,新規,0,2024-02-16,2024-02-16,株式会社ｃｙａｎ,,株式会社,愛知県,名古屋市天白区,元八事３丁目３９４,,23,116,4680066,,,,,,,2024-02-16,1,,,,,シアン,0
2342,9180001160164,新規,0,2024-02-16,2024-02-16,角田商事株式会社,,株式会社,愛知県,北名古屋市,六ツ師町田１２７番地３,,23,234,4810001,,,,,,,2024-02-16,1,,,,,カクダショウジ,0
2343,9180003026371,新規,0,2024-02-16,2024-02-16,合同会社ＴＯＰ,,合同会社,愛知県,名古屋市中区,栄４丁目８番１６号プレコビル４Ｆ,,23,106,4600008,,,,,,,2024-02-16,1,,,,,トップ,0
2344,9180005020521,新規,0,2024-02-16,2024-02-16,特定非営利活動法人Ｍｃ‐２２,,その他の設立登記法人,愛知県,名古屋市緑区,池上台１丁目９７番地の２４,,23,114,4580044,,,,,,,2024-02-16,1,,,,,マックニジュウニ,0
2351,9210001019638,新規,0,2024-02-16,2024-02-16,株式会社シアンラボ,,株式会社,福井県,福井市,城東４丁目１９番１号,,18,201,9100853,,,,,,,2024-02-16,1,,,,,シアンラボ,0
2359,9250001020518,新規,0,2024-02-16,2024-02-16,株式会社ＫＡＹＯＩ　ＵＮＩ　ＢＡＳＥ,,株式会社,山口県,長門市,通１２６６番地２７,,35,211,7594107,,,,,,,2024-02-16,1,,,,,カヨイウニベース,0
2366,9290005019296,新規,0,2024-02-16,2024-02-16,一般社団法人ＭＡＫＥ　ＵＰ,,その他の設立登記法人,福岡県,福岡市博多区,博多駅前３丁目２６番５号Ｍビル１号館４０３号室,,40,132,8120011,,,,,,,2024-02-16,1,,,,,メイクアップ,0
2367,9290801030324,新規,0,2024-02-16,2024-02-16,株式会社ボン・ヴォヤージュ,,株式会社,福岡県,北九州市小倉北区,日明２丁目１３番４号,,40,106,8030831,,,,,,,2024-02-16,1,,,,,ボンヴォヤージュ,0
2373,9330001031762,新規,0,2024-02-16,2024-02-16,株式会社英測量設計開発,,株式会社,熊本県,山鹿市,鹿央町千田２１８７番地１,,43,208,8610563,,,,,,,2024-02-16,1,,,,,ハナブサソクリョウセッケイカイハツ,0
2374,9330005010762,新規,0,2024-02-16,2024-02-16,医療法人堤友会,,その他の設立登記法人,熊本県,熊本市中央区,上水前寺２丁目２－８,,43,101,8620951,,,,,,,2024-02-16,1,,,,,テイユウカイ,0
2377,9350001018790,新規,0,2024-02-16,2024-02-16,日本食農株式会社,,株式会社,宮崎県,児湯郡川南町,大字川南４１５６番地２,,45,405,8891301,,,,,,,2024-02-16,1,,,,,ニッポンショクノウ,0
2382,9360001033203,新規,0,2024-02-16,2024-02-16,株式会社Ｏｎｅｉ,,株式会社,沖縄県,那覇市,壺屋１丁目２１番１７号,,47,201,9020065,,,,,,,2024-02-16,1,,,,,オンエイ,0
2386,9370003006486,新規,0,2024-02-16,2024-02-16,ＭＡＨＡＤＩ　ＩＮＴＥＲＮＡＴＩＯＮＡＬ合同会社,,合同会社,宮城県,仙台市青葉区,宮町５丁目１番９号１Ｆ,,04,101,9800004,,,,,,,2024-02-16,1,,,,,マハディインターナショナル,0
2388,9380003005685,新規,0,2024-02-16,2024-02-16,合同会社ｒｏｐｅ,,合同会社,福島県,須賀川市,あおば町１４２番地,,07,207,9620811,,,,,,,2024-02-16,1,,,,,ロープ,0
2395,9410001013736,新規,0,2024-02-16,2024-02-16,株式会社アップ・ビルド,,株式会社,秋田県,仙北郡美郷町,上深井字矢矧殿１８番地９,,05,434,0191236,,,,,,,2024-02-16,1,,,,,アップビルド,0
2409,9500001025466,新規,0,2024-02-16,2024-02-16,株式会社ＳＵＮＲＩＳＥ,,株式会社,愛媛県,松山市,南高井町７００番地２,,38,201,7911112,,,,,,,2024-02-16,1,,,,,サンライズ,0
2410,9700150124008,新規,0,2024-02-16,2024-02-16,ＪＫ　Ｐｒｏｐｅｒｔｙ　Ｌｉｍｉｔｅｄ,,外国会社等,,,,,,,,英国領ジャージー島ＪＥ１１ＲＢセントヘリア、１５エスプラネード,,,,,,2024-02-16,1,,,,,ジエイケイプロパテイリミテツド,0
