sequenceNumber,corporateNumber,process,correct,updateDate,changeDate,name,nameImageId,kind,prefectureName,cityName,streetNumber,addressImageId,prefectureCode,cityCode,postCode,addressOutside,addressOutsideImageId,closeDate,closeCause,successorCorporateNumber,changeCause,assignmentDate,latest,enName,enPrefectureName,enCityName,enAddressOutside,furigana,hihyoji
17,1010003024242,登記記録の閉鎖等,0,2025-06-30,2025-06-05,合同会社エスペリオ,,合同会社,東京都,中央区,築地３丁目２番３号,,13,102,1040045,,,2025-06-05,清算の結了等,,,2016-10-12,1,,,,,,0
30,1010402022697,登記記録の閉鎖等,0,2025-06-30,2025-06-23,有限会社気療,,有限会社,群馬県,みどり市,笠懸町鹿１８９２番地１,,10,212,3792313,,,2025-06-23,清算の結了等,,,2015-10-05,1,,,,,キリョウ,0
33,1010405019740,登記記録の閉鎖等,0,2025-06-30,2025-06-10,入間開発特定目的会社,,その他の設立登記法人,東京都,港区,六本木１丁目６番１号泉ガーデンタワー,,13,103,1060032,,,2025-06-10,清算の結了等,,,2021-04-23,1,,,,,イルマカイハツ,0
34,1010405020723,登記記録の閉鎖等,0,2025-06-30,2025-06-05,Ｍインフラホールディングス２号一般社団法人,,その他の設立登記法人,東京都,港区,元赤坂１丁目１番７号,,13,103,1070051,,,2025-06-05,清算の結了等,,,2022-02-18,1,,,,,エムインフラホールディングスニゴウ,0
35,1010405022109,登記記録の閉鎖等,0,2025-06-30,2025-06-11,コタエル・デジタル・ギルド労働者協同組合,,その他の設立登記法人,東京都,港区,虎ノ門１丁目１７番１号虎ノ門ヒルズビジネスタワー１５階,,13,103,1050001,,,2025-06-11,清算の結了等,,,2023-05-22,1,,,,,コタエルデジタルギルド,0
75,1011801040901,登記記録の閉鎖等,0,2025-06-30,2025-06-24,株式会社センヤ商会,,株式会社,東京都,足立区,入谷９丁目４番６号コーポタカオ,,13,121,1210836,,,2025-06-24,清算の結了等,,,2022-06-22,1,,,,,センヤショウカイ,0
87,1020001129950,登記記録の閉鎖等,0,2025-06-30,2025-06-26,株式会社ラポールナビ,,株式会社,神奈川県,藤沢市,本藤沢２丁目７番７号エクシオ藤沢石名坂公園４０６号,,14,205,2510875,,,2025-06-26,清算の結了等,,,2019-02-21,1,,,,,ラポールナビ,0
88,1020003015653,登記記録の閉鎖等,0,2025-06-30,2025-06-09,合同会社ＩＦＳ‐Ｃｏｎｓｕｌｔｉｎｇ,,合同会社,東京都,中央区,築地２丁目１０番２号ＪＰ－ＢＡＳＥ築地駅前７階,,13,102,1040045,,,2025-06-09,清算の結了等,,,2019-02-21,1,,,,,イフスコンサルティング,0
92,1030001103673,登記記録の閉鎖等,0,2025-06-30,2025-06-23,株式会社ケアックス,,株式会社,埼玉県,吉川市,大字保２６番１４,,11,243,3420041,,,2025-06-23,清算の結了等,,,2015-10-05,1,,,,,ケアックス,0
103,1040001089458,登記記録の閉鎖等,0,2025-06-30,2025-06-05,ＭＩＭ株式会社,,株式会社,東京都,新宿区,西新宿３丁目３番１３号西新宿水間ビル２Ｆ,,13,104,1600023,,,2025-06-05,清算の結了等,,,2015-10-05,1,,,,,エムアイエム,0
117,1070001028883,登記記録の閉鎖等,0,2025-06-30,2025-06-23,株式会社サンズ,,株式会社,群馬県,伊勢崎市,上植木本町２７３９番地１０,,10,204,3720013,,,2025-06-23,清算の結了等,,,2015-10-05,1,,,,,,0
118,1070002028255,登記記録の閉鎖等,0,2025-06-30,2025-06-23,有限会社エイチ・エス・ケイ・クリエイト,,有限会社,群馬県,邑楽郡大泉町,丘山３２番１５号,,10,524,3700534,,,2025-06-23,清算の結了等,,,2015-10-05,1,,,,,エイチエスケイクリエイト,0
125,1100002031858,登記記録の閉鎖等,0,2025-06-30,2025-06-18,有限会社マサキ,,有限会社,長野県,岡谷市,東銀座１丁目３番２１号,,20,204,3940023,,,2025-06-18,清算の結了等,,,2015-10-05,1,,,,,マサキ,0
131,1120001224403,登記記録の閉鎖等,0,2025-06-30,2025-06-23,株式会社ウェルホーム,,株式会社,大阪府,大阪市東成区,東小橋３丁目１８番３号,,27,115,5370024,,,2025-06-23,清算の結了等,,,2019-10-09,1,,,,,ウェルホーム,0
147,1120101062091,登記記録の閉鎖等,0,2025-06-30,2025-06-23,株式会社マテラ,,株式会社,大阪府,富田林市,楠風台２丁目７番５号,,27,214,5840051,,,2025-06-23,清算の結了等,,,2020-07-31,1,,,,,マテラ,0
148,1120101062315,登記記録の閉鎖等,0,2025-06-30,2025-06-20,株式会社真楽,,株式会社,大阪府,和泉市,寺門町１丁目１１番５号,,27,219,5940064,,,2025-06-20,清算の結了等,,,2020-09-10,1,,,,,シンラク,0
152,1120901047119,登記記録の閉鎖等,0,2025-06-30,2025-06-19,ＮＫＮＳ株式会社,,株式会社,大阪府,吹田市,新芦屋上４－７－３０５,,27,205,5650804,,,2025-06-19,清算の結了等,,,2023-02-13,1,,,,,エヌケイエヌエス,0
174,1150003002928,登記記録の閉鎖等,0,2025-06-30,2025-06-27,合同会社Ａ＆Ａ,,合同会社,奈良県,生駒郡三郷町,東信貴ケ丘３丁目１０番８号,,29,343,6360803,,,2025-06-27,清算の結了等,,,2023-04-11,1,,,,,エイアンドエイ,0
175,1160005000268,登記記録の閉鎖等,0,2025-06-30,2025-06-23,協同組合滋賀県建設事務管理センター,,その他の設立登記法人,滋賀県,大津市,中央３丁目１番８号,,25,201,5200043,,,2025-06-23,清算の結了等,,,2015-10-05,1,,,,,シガケンケンセツジムカンリセンター,0
183,1180002080237,登記記録の閉鎖等,0,2025-06-30,2025-06-20,有限会社赤池倉庫,,有限会社,愛知県,稲沢市,赤池南町４０番地,,23,220,4928024,,,2025-06-20,清算の結了等,,,2015-10-05,1,,,,,アカイケソウコ,0
197,1260001017405,登記記録の閉鎖等,0,2025-06-30,2025-06-17,株式会社ワイズ,,株式会社,岡山県,倉敷市,茶屋町５５６番地３６,,33,202,7101101,,,2025-06-17,清算の結了等,,,2015-10-05,1,,,,,,0
204,1290001076472,登記記録の閉鎖等,0,2025-06-30,2025-05-26,株式会社華火,,株式会社,福岡県,久留米市,三潴町草場１１９番地,,40,203,8300105,,,2025-05-26,清算の結了等,,,2017-01-23,1,,,,,ハナビ,0
211,1300003001550,登記記録の閉鎖等,0,2025-06-30,2025-06-25,合同会社希望会ダリア,,合同会社,佐賀県,鳥栖市,蔵上２丁目１８６番地,,41,203,8410056,,,2025-06-25,清算の結了等,,,2020-05-18,1,,,,,キボウカイダリア,0
225,1360002016107,登記記録の閉鎖等,0,2025-06-30,2025-06-23,有限会社セーフガス,,有限会社,沖縄県,宜野湾市,宇地泊２丁目１３番１０号,,47,205,9012227,,,2025-06-23,清算の結了等,,,2015-10-05,1,,,,,セーフガス,0
226,1370001047168,登記記録の閉鎖等,0,2025-06-30,2025-06-26,株式会社ハウスストーリー,,株式会社,埼玉県,さいたま市緑区,美園６丁目３０番地２２,,11,109,3360967,,,2025-06-26,合併による解散等,2370001019166,令和７年６月１６日仙台市若林区白萩町２８番２５号株式会社フルタウン（2370001019166）に合併し解散,2021-06-08,1,,,,,ハウスストーリー,0
231,1400001002202,登記記録の閉鎖等,0,2025-06-30,2025-06-11,大盛商事株式会社,,株式会社,岩手県,盛岡市,茶畑１丁目１８番１９号,,03,201,0200822,,,2025-06-11,清算の結了等,,,2015-10-05,1,,,,,タイセイショウジ,0
238,1430001050504,登記記録の閉鎖等,0,2025-06-30,2025-06-19,株式会社丸ス新海金物店,,株式会社,北海道,小樽市,稲穂１丁目３番５号,,01,203,0470032,,,2025-06-19,清算の結了等,,,2015-10-05,1,,,,,マルスシンカイカナモノテン,0
241,1450002012121,登記記録の閉鎖等,0,2025-06-30,2025-06-24,サワスイ有限会社,,有限会社,北海道,苫前郡羽幌町,南七条５丁目１３番地,,01,484,0784107,,,2025-06-24,清算の結了等,,,2015-10-05,1,,,,,サワスイ,0
248,1480002012977,登記記録の閉鎖等,0,2025-06-30,2025-06-20,有限会社小濱製材所,,有限会社,徳島県,阿南市,那賀川町中島１６５番地２,,36,204,7791245,,,2025-06-20,清算の結了等,,,2015-10-05,1,,,,,コハマセイザイショ,0
250,1500001018477,登記記録の閉鎖等,0,2025-06-30,2025-06-23,サンカロル株式会社,,株式会社,愛媛県,西条市,福武甲２８４番地１０,,38,206,7930035,,,2025-06-23,清算の結了等,,,2015-10-05,1,,,,,サンカロル,0
258,2010001188914,登記記録の閉鎖等,0,2025-06-30,2025-06-06,株式会社ＹＥＬＬ　Ｄｉｇｉｔａｌ　Ｓｏｌｕｔｉｏｎｓ,,株式会社,東京都,中央区,銀座８丁目１０番７号,,13,102,1040061,,,2025-06-06,清算の結了等,,,2018-01-17,1,,,,,エールデジタルソリューションズ,0
259,2010001196306,登記記録の閉鎖等,0,2025-06-30,2025-06-06,株式会社エイトグローバルオフィス,,株式会社,東京都,千代田区,神田神保町２丁目１４番地室町ビル３階,,13,101,1010051,,,2025-06-06,清算の結了等,,,2018-11-12,1,,,,,エイトグローバルオフィス,0
276,2010003043530,登記記録の閉鎖等,0,2025-06-30,2025-06-11,合同会社ＳＩ　Ｃｒｅａｔｉｖｅｓ,,合同会社,東京都,中央区,日本橋室町１丁目１１番１２号日本橋水野ビル７階,,13,102,1030022,,,2025-06-11,清算の結了等,,,2024-04-19,1,,,,,エスアイクリエイティブズ,0
294,2010405018205,登記記録の閉鎖等,0,2025-06-30,2025-06-10,東品川オフィス一般社団法人,,その他の設立登記法人,東京都,港区,六本木１丁目６番１号泉ガーデンタワー１２階,,13,103,1060032,,,2025-06-10,清算の結了等,,,2019-10-28,1,,,,,ヒガシシナガワオフィス,0
295,2010405018972,登記記録の閉鎖等,0,2025-06-30,2025-06-06,ジャパンインフラホールディングス８号一般社団法人,,その他の設立登記法人,東京都,港区,元赤坂１丁目１番７号,,13,103,1070051,,,2025-06-06,清算の結了等,,,2020-08-06,1,,,,,ジャパンインフラホールディングスハチゴウ,0
305,2010701022050,登記記録の閉鎖等,0,2025-06-30,2025-06-02,昭和アルミニウム缶グローバル株式会社,,株式会社,東京都,文京区,後楽１丁目４番２５号,,13,105,1120004,,,2025-06-02,合併による解散等,9010401157272,令和７年６月１日東京都文京区後楽一丁目４番２５号アルテミラ株式会社（9010401157272）に合併し解散,2015-10-05,1,,,,,ショウワアルミニウムカングローバル,0
306,2010701035374,登記記録の閉鎖等,0,2025-06-30,2025-06-02,株式会社Ｗａｖｅ,,株式会社,東京都,渋谷区,円山町５－１８－８０１,,13,113,1500044,,,2025-06-02,清算の結了等,,,2018-02-20,1,,,,,ウェイブ,0
312,2010902003394,登記記録の閉鎖等,0,2025-06-30,2025-06-26,有限会社沖ダイヤモンド工業,,有限会社,東京都,世田谷区,若林５丁目３３番２３号,,13,112,1540023,,,2025-06-26,清算の結了等,,,2015-10-05,1,,,,,,0
325,2011403003297,登記記録の閉鎖等,0,2025-06-30,2025-06-24,合同会社未来ナース事務所,,合同会社,東京都,板橋区,東新町１丁目３６番１２－２０１号,,13,119,1740074,,,2025-06-24,清算の結了等,,,2021-04-06,1,,,,,ミライナースジムショ,0
330,2011801007940,登記記録の閉鎖等,0,2025-06-30,2025-06-24,株式会社サウンドパーク,,株式会社,東京都,足立区,千住河原町２０番２号,,13,121,1200037,,,2025-06-24,清算の結了等,,,2015-10-05,1,,,,,サウンドパーク,0
333,2011801020398,登記記録の閉鎖等,0,2025-06-30,2025-06-24,株式会社エース・ティ・コンサルティング,,株式会社,東京都,足立区,西竹の塚１丁目１１番２号６０１号,,13,121,1210822,,,2025-06-24,清算の結了等,,,2015-10-05,1,,,,,エースティコンサルティング,0
334,2011801040033,登記記録の閉鎖等,0,2025-06-30,2025-06-24,大同フードコンサル株式会社,,株式会社,東京都,足立区,東和２丁目７番１号,,13,121,1200003,,,2025-06-24,合併による解散等,9011803002818,令和７年６月２４日東京都足立区東和二丁目７番１号大同エコシステム株式会社（9011803002818）に合併し解散,2021-12-06,1,,,,,ダイドウフードコンサル,0
345,2013302013410,登記記録の閉鎖等,0,2025-06-30,2025-06-25,有限会社新宿広場,,有限会社,東京都,豊島区,南長崎１丁目９番１４号,,13,116,1710052,,,2025-06-25,清算の結了等,,,2015-10-05,1,,,,,シンジュクヒロバ,0
362,2040002020263,登記記録の閉鎖等,0,2025-06-30,2025-06-12,有限会社アッシュサービス,,有限会社,千葉県,船橋市,金杉８丁目１３番１３号,,12,204,2730853,,,2025-06-12,清算の結了等,,,2015-10-05,1,,,,,アッシュサービス,0
364,2040002089118,登記記録の閉鎖等,0,2025-06-30,2025-06-11,有限会社エルエンタープライズ,,有限会社,千葉県,柏市,柏３丁目１番９号,,12,217,2770005,,,2025-06-11,清算の結了等,,,2015-10-05,1,,,,,エルエンタープライズ,0
378,2120001020693,登記記録の閉鎖等,0,2025-06-30,2025-06-23,タカダ印刷株式会社,,株式会社,大阪府,大阪市平野区,平野東１丁目５番２３号,,27,126,5470043,,,2025-06-23,清算の結了等,,,2015-10-05,1,,,,,タカダインサツ,0
396,2120101025915,登記記録の閉鎖等,0,2025-06-30,2025-06-20,株式会社ロータス藤田,,株式会社,大阪府,松原市,天美東７丁目７番５号,,27,217,5800032,,,2025-06-20,清算の結了等,,,2015-10-05,1,,,,,ロータスフジタ,0
397,2120101048610,登記記録の閉鎖等,0,2025-06-30,2025-06-20,ＳＫインスルメント株式会社,,株式会社,大阪府,高石市,綾園５丁目７番３７号,,27,225,5920014,,,2025-06-20,清算の結了等,,,2015-10-05,1,,,,,エスケイインスルメント,0
398,2120102021970,登記記録の閉鎖等,0,2025-06-30,2025-06-24,河忠織布有限会社,,有限会社,大阪府,貝塚市,木積２１５４番地の３,,27,208,5970102,,,2025-06-24,清算の結了等,,,2015-10-05,1,,,,,カワチュウショクフ,0
417,2130002017333,登記記録の閉鎖等,0,2025-06-30,2025-06-24,有限会社ペパーミントプランニング,,有限会社,京都府,京都市中京区,堺町通二条下る杉屋町６３７番地の１,,26,104,6040822,,,2025-06-24,清算の結了等,,,2015-10-05,1,,,,,ペパーミントプランニング,0
428,2180001085095,登記記録の閉鎖等,0,2025-06-30,2025-06-24,株式会社トライ,,株式会社,東京都,小平市,花小金井１丁目４番３３－６０１号,,13,211,1870002,,,2025-06-24,清算の結了等,,,2015-10-05,1,,,,,トライ,0
430,2180001132797,登記記録の閉鎖等,0,2025-06-30,2025-06-09,中日設備株式会社,,株式会社,愛知県,日進市,赤池町モチロ６１番地３９,,23,230,4700126,,,2025-06-09,合併による解散等,6180001070969,令和７年６月１日愛知県日進市赤池町モチロ６１番地３９日本設備株式会社（6180001070969）に合併し解散,2018-06-27,1,,,,,チュウニチセツビ,0
444,2230002007910,登記記録の閉鎖等,0,2025-06-30,2025-06-26,有限会社吉田鮮魚店,,有限会社,富山県,魚津市,駅前新町６番９号,,16,204,9370051,,,2025-06-26,清算の結了等,,,2015-10-05,1,,,,,ヨシダセンギョテン,0
446,2240001039532,登記記録の閉鎖等,0,2025-06-30,2025-06-24,関西薬品株式会社,,株式会社,広島県,三原市,城町１丁目８番７号,,34,204,7230014,,,2025-06-24,清算の結了等,,,2024-09-26,1,,,,,カンサイヤクヒン,0
449,2250002002694,登記記録の閉鎖等,0,2025-06-30,2025-06-27,有限会社明徳木工,,有限会社,山口県,山口市,阿知須字向原６２５番地の２,,35,203,7541277,,,2025-06-27,清算の結了等,,,2015-10-05,1,,,,,ミョウトクモッコウ,0
456,2290001076389,登記記録の閉鎖等,0,2025-06-30,2025-06-17,株式会社東亜ホーム,,株式会社,福岡県,飯塚市,枝国２１７番地１,,40,205,8200081,,,2025-06-17,清算の結了等,,,2017-01-16,1,,,,,トウアホーム,0
471,2340002026602,登記記録の閉鎖等,0,2025-06-30,2025-06-20,有限会社村山百貨店,,有限会社,鹿児島県,鹿屋市,串良町岡崎２０５１番地,,46,203,8931603,,,2025-06-20,清算の結了等,,,2015-10-05,1,,,,,ムラヤマヒャッカテン,0
488,2440001001463,登記記録の閉鎖等,0,2025-06-30,2025-06-26,株式会社中野事業所,,株式会社,北海道,北斗市,中央２丁目６番３号,,01,236,0490162,,,2025-06-26,清算の結了等,,,2015-10-05,1,,,,,ナカノジギョウショ,0
490,2470001002228,登記記録の閉鎖等,0,2025-06-30,2025-06-25,株式会社圖子,,株式会社,香川県,高松市,上福岡町１２０１番地３,,37,201,7600077,,,2025-06-25,清算の結了等,,,2015-10-05,1,,,,,ズシ,0
504,3010003035972,登記記録の閉鎖等,0,2025-06-30,2025-06-11,ＳａｆｅＡＩジャパン合同会社,,合同会社,東京都,中央区,銀座１丁目１６番７号,,13,102,1040061,,,2025-06-11,清算の結了等,,,2021-10-06,1,,,,,セーフエーアイジャパン,0
517,3010401141488,登記記録の閉鎖等,0,2025-06-30,2025-06-25,ルミラ・ダイアグノスティクス・ジャパン株式会社,,株式会社,東京都,新宿区,新宿５丁目２番３号ＭＲＣビル６階,,13,104,1600022,,,2025-06-25,合併による解散等,6010401027008,令和７年６月１日東京都港区港南一丁目２番７０号ロシュ・ダイアグノスティックス株式会社（6010401027008）に合併し解散,2018-10-16,1,,,,,ルミラダイアグノスティクスジャパン,0
530,3010403010063,登記記録の閉鎖等,0,2025-06-30,2025-06-06,合同会社インティ,,合同会社,東京都,港区,赤坂２丁目１４番５号,,13,103,1070052,,,2025-06-06,清算の結了等,,,2015-10-05,1,,,,,インティ,0
535,3010405018971,登記記録の閉鎖等,0,2025-06-30,2025-06-06,ジャパンインフラホールディングス７号一般社団法人,,その他の設立登記法人,東京都,港区,元赤坂１丁目１番７号,,13,103,1070051,,,2025-06-06,清算の結了等,,,2020-08-06,1,,,,,ジャパンインフラホールディングスナナゴウ,0
536,3010405022924,登記記録の閉鎖等,0,2025-06-30,2025-06-06,ブルーインフラホールディングスＣ号一般社団法人,,その他の設立登記法人,東京都,港区,元赤坂１丁目１番７号,,13,103,1070051,,,2025-06-06,清算の結了等,,,2024-02-06,1,,,,,ブルーインフラホールディングスシーゴウ,0
542,3010601022001,登記記録の閉鎖等,0,2025-06-30,2025-06-20,株式会社創建ハウジング,,株式会社,東京都,江東区,東陽５丁目７番６号,,13,108,1350016,,,2025-06-20,清算の結了等,,,2015-10-05,1,,,,,ソウケンハウジング,0
561,3011003015056,登記記録の閉鎖等,0,2025-06-30,2025-06-10,イージータビ合同会社,,合同会社,東京都,港区,元麻布３丁目１番６号,,13,103,1060046,,,2025-06-10,清算の結了等,,,2022-07-15,1,,,,,イージータビ,0
564,3011101054583,登記記録の閉鎖等,0,2025-06-30,2025-06-24,株式会社シー・エス・ソリューション,,株式会社,栃木県,那須郡那須町,大字高久丙３２５１番１３５号,,09,407,3250302,,,2025-06-24,清算の結了等,,,2015-10-05,1,,,,,シーエスソリューション,0
570,3011301026754,登記記録の閉鎖等,0,2025-06-30,2025-06-16,マウントビジョン株式会社,,株式会社,東京都,杉並区,井草１丁目１６番３号,,13,115,1670021,,,2025-06-16,合併による解散等,5011301023262,令和７年６月１日東京都杉並区井草一丁目１６番３号株式会社アルボアニメーション（5011301023262）に合併し解散,2021-04-08,1,,,,,マウントビジョン,0
573,3011402008528,登記記録の閉鎖等,0,2025-06-30,2025-06-24,有限会社水落商店,,有限会社,東京都,板橋区,坂下２丁目１４番１号,,13,119,1740043,,,2025-06-24,清算の結了等,,,2015-10-05,1,,,,,ミズオチショウテン,0
604,3030003019338,登記記録の閉鎖等,0,2025-06-30,2025-06-27,ジーノ合同会社,,合同会社,埼玉県,蕨市,錦町４丁目７番１号ロイヤルシティ４０７号室,,11,223,3350005,,,2025-06-27,清算の結了等,,,2022-05-06,1,,,,,ジーノ,0
610,3040002084175,登記記録の閉鎖等,0,2025-06-30,2025-06-12,有限会社旭安全ガラス,,有限会社,千葉県,旭市,ニの３０１３番地の１,,12,215,2892504,,,2025-06-12,清算の結了等,,,2015-10-05,1,,,,,アサヒアンゼンガラス,0
623,3120001073567,登記記録の閉鎖等,0,2025-06-30,2025-06-20,朝日リビング株式会社,,株式会社,大阪府,大阪市中央区,船越町２丁目３番１号,,27,128,5400036,,,2025-06-20,清算の結了等,,,2015-10-05,1,,,,,アサヒリビング,0
645,3130001001650,登記記録の閉鎖等,0,2025-06-30,2025-06-24,服部ビニール工業株式会社,,株式会社,京都府,京都市右京区,西京極東衣手町７２番地１,,26,108,6150871,,,2025-06-24,清算の結了等,,,2015-10-05,1,,,,,ハットリビニールコウギョウ,0
669,3180001048860,登記記録の閉鎖等,0,2025-06-30,2025-06-20,株式会社名古屋トラベル,,株式会社,愛知県,名古屋市中区,新栄３丁目３４番１６号新栄荘２棟３０９,,23,106,4600007,,,2025-06-20,清算の結了等,,,2015-10-05,1,,,,,ナゴヤトラベル,0
685,3230002007538,登記記録の閉鎖等,0,2025-06-30,2025-06-25,有限会社金山工務店,,有限会社,富山県,魚津市,友道１６７０番地,,16,204,9370806,,,2025-06-25,清算の結了等,,,2015-10-05,1,,,,,カナヤマコウムテン,0
711,3340002005209,登記記録の閉鎖等,0,2025-06-30,2025-06-18,有限会社寿し正,,有限会社,鹿児島県,鹿児島市,和田１丁目２１番１１号,,46,201,8910143,,,2025-06-18,清算の結了等,,,2015-10-05,1,,,,,スシマサ,0
721,3410002013204,登記記録の閉鎖等,0,2025-06-30,2025-06-20,丸果森川フルーツ有限会社,,有限会社,秋田県,横手市,柳田字前田１０番地の１,,05,203,0130054,,,2025-06-20,清算の結了等,,,2015-10-05,1,,,,,マルカモリカワフルーツ,0
725,3430001039603,登記記録の閉鎖等,0,2025-06-30,2025-06-26,株式会社ＨＱＦ,,株式会社,北海道,札幌市中央区,北四条西１６丁目１番地,,01,101,0600004,,,2025-06-26,清算の結了等,,,2015-10-05,1,,,,,エイチキューエフ,0
733,4010001020554,登記記録の閉鎖等,0,2025-06-30,2025-06-10,株式会社スリー・リンクス,,株式会社,東京都,港区,芝浦４丁目１０番１－４４１４号,,13,103,1080023,,,2025-06-10,清算の結了等,,,2015-10-05,1,,,,,スリーリンクス,0
737,4010001139171,登記記録の閉鎖等,0,2025-06-30,2025-06-11,株式会社ゆめきもの,,株式会社,東京都,中央区,日本橋蛎殻町１丁目１３番１号,,13,102,1030014,,,2025-06-11,清算の結了等,,,2015-10-05,1,,,,,ユメキモノ,0
758,4010005013109,登記記録の閉鎖等,0,2025-06-30,2025-06-20,特定非営利活動法人地域再生情報ネットワーク,,その他の設立登記法人,東京都,千代田区,麹町５丁目３番地麹町中田ビル７階,,13,101,1020083,,,2025-06-20,清算の結了等,,,2015-10-05,1,,,,,チイキサイセイジョウホウネットワーク,0
764,4010401118361,登記記録の閉鎖等,0,2025-06-30,2025-06-10,株式会社鉉,,株式会社,東京都,港区,南青山７丁目４番９号,,13,103,1070062,,,2025-06-10,清算の結了等,,,2015-10-05,1,,,,,ゲン,0
770,4010405001778,登記記録の閉鎖等,0,2025-06-30,2025-06-11,医療法人社団白明会,,その他の設立登記法人,東京都,港区,白金台３丁目１６番１６号,,13,103,1080071,,,2025-06-11,清算の結了等,,,2015-10-05,1,,,,,ハクメイカイ,0
771,4010405022923,登記記録の閉鎖等,0,2025-06-30,2025-06-06,ブルーインフラホールディングス４号一般社団法人,,その他の設立登記法人,東京都,港区,元赤坂１丁目１番７号,,13,103,1070051,,,2025-06-06,清算の結了等,,,2024-02-06,1,,,,,ブルーインフラホールディングスヨンゴウ,0
773,4010501012720,登記記録の閉鎖等,0,2025-06-30,2025-06-12,株式会社藤屋,,株式会社,東京都,台東区,上野６丁目１６番１３号,,13,106,1100005,,,2025-06-12,清算の結了等,,,2015-10-05,1,,,,,フジヤ,0
787,4011001153352,登記記録の閉鎖等,0,2025-06-30,2025-06-06,株式会社ＯＦＦ　ＷＨＩＴＥ,,株式会社,東京都,新宿区,新宿７丁目２６番１８－２０９号,,13,104,1600022,,,2025-06-06,清算の結了等,,,2023-03-30,1,,,,,オフホワイト,0
791,4011003004891,登記記録の閉鎖等,0,2025-06-30,2025-06-02,感謝の日記合同会社,,合同会社,東京都,渋谷区,代々木２丁目４３番８号,,13,113,1510053,,,2025-06-02,清算の結了等,,,2015-10-05,1,,,,,,0
814,4012402018169,登記記録の閉鎖等,0,2025-06-30,2025-06-25,有限会社曙荘,,有限会社,東京都,三鷹市,下連雀４丁目２１番３号,,13,204,1810013,,,2025-06-25,清算の結了等,,,2015-10-05,1,,,,,アケボノソウ,0
837,4030002077922,登記記録の閉鎖等,0,2025-06-30,2025-06-24,有限会社アサダ企画,,有限会社,埼玉県,川越市,大字渋井６５２番地１,,11,201,3500013,,,2025-06-24,清算の結了等,,,2015-10-05,1,,,,,アサダキカク,0
848,4040003024138,登記記録の閉鎖等,0,2025-06-30,2025-06-06,合同会社ｅｔｈｉｃａｌｓｔｙｌｅ,,合同会社,東京都,中央区,銀座１丁目１２番４号Ｎ＆ＥＢＬＤ．６Ｆ,,13,102,1040061,,,2025-06-06,清算の結了等,,,2024-01-18,1,,,,,エシカルスタイル,0
852,4070001016415,登記記録の閉鎖等,0,2025-06-30,2025-06-23,日本刺繍株式会社,,株式会社,群馬県,桐生市,巴町２丁目１２番地４,,10,203,3760021,,,2025-06-23,清算の結了等,,,2015-10-05,1,,,,,ニホンシシュウ,0
856,4080005007467,登記記録の閉鎖等,0,2025-06-30,2025-06-19,一般社団法人しまだきものさんぽ,,その他の設立登記法人,静岡県,島田市,本通６丁目７８１４番地,,22,209,4270022,,,2025-06-19,清算の結了等,,,2022-07-15,1,,,,,シマダキモノサンポ,0
861,4120001025419,登記記録の閉鎖等,0,2025-06-30,2025-06-20,丸仁糸業株式会社,,株式会社,大阪府,大阪市天王寺区,堂ケ芝２丁目３番１８号,,27,109,5430033,,,2025-06-20,清算の結了等,,,2015-10-05,1,,,,,マルニシギョウ,0
871,4120002079959,登記記録の閉鎖等,0,2025-06-30,2025-06-24,有限会社塚下製作所,,有限会社,大阪府,門真市,三ツ島４丁目１２番２４号,,27,223,5710015,,,2025-06-24,清算の結了等,,,2015-10-05,1,,,,,ツカシタセイサクショ,0
872,4120003026076,登記記録の閉鎖等,0,2025-06-30,2025-06-24,ＡＭＣ合同会社,,合同会社,大阪府,大阪市中央区,本町２丁目３番４号アソルティ本町４階,,27,128,5410053,,,2025-06-24,清算の結了等,,,2024-03-08,1,,,,,エーエムシー,0
886,4122001031413,登記記録の閉鎖等,0,2025-06-30,2025-06-26,株式会社ＹＭＫ,,株式会社,大阪府,東大阪市,渋川町１丁目３番１５号,,27,227,5770836,,,2025-06-26,清算の結了等,,,2018-03-20,1,,,,,ワイエムケー,0
890,4130002017579,登記記録の閉鎖等,0,2025-06-30,2025-06-25,森京木材有限会社,,有限会社,京都府,京都市中京区,麩屋町通御池上る上白山町２５２番地グランドメゾン京都御池通４０８号室,,26,104,6040943,,,2025-06-25,清算の結了等,,,2015-10-05,1,,,,,モリキョウモクザイ,0
891,4140001071980,登記記録の閉鎖等,0,2025-06-30,2025-06-23,アンドール株式会社,,株式会社,兵庫県,西宮市,六湛寺町１２番１０号,,28,204,6620918,,,2025-06-23,清算の結了等,,,2015-10-05,1,,,,,アンドール,0
896,4180001058727,登記記録の閉鎖等,0,2025-06-30,2025-06-20,中部エアカーゴサービス株式会社,,株式会社,愛知県,西春日井郡豊山町,大字豊場字志水１４５番地１,,23,342,4800202,,,2025-06-20,清算の結了等,,,2015-10-05,1,,,,,チュウブエアカーゴサービス,0
897,4180001097782,登記記録の閉鎖等,0,2025-06-30,2025-06-19,株式会社オーマチ物産,,株式会社,愛知県,あま市,下萱津中道３３番地,,23,237,4901114,,,2025-06-19,清算の結了等,,,2015-10-05,1,,,,,オーマチブッサン,0
902,4180302016160,登記記録の閉鎖等,0,2025-06-30,2025-06-26,有限会社フィクサージャパン,,有限会社,愛知県,豊川市,松久町１丁目５０番地の１,,23,207,4420874,,,2025-06-26,清算の結了等,,,2015-10-05,1,,,,,フィクサージャパン,0
904,4190002018200,登記記録の閉鎖等,0,2025-06-30,2025-06-23,有限会社サンスイ,,有限会社,三重県,いなべ市,藤原町東禅寺８９０番地,,24,214,5110515,,,2025-06-23,清算の結了等,,,2015-10-05,1,,,,,サンスイ,0
905,4200001010924,登記記録の閉鎖等,0,2025-06-30,2025-06-23,株式会社岐光社,,株式会社,岐阜県,羽島郡笠松町,東金池町１２８番地の１,,21,303,5016038,,,2025-06-23,清算の結了等,,,2015-10-05,1,,,,,ギコウシャ,0
918,4260002016881,登記記録の閉鎖等,0,2025-06-30,2025-06-17,有限会社エルマス,,有限会社,岡山県,倉敷市,玉島乙島３０５０番地の２,,33,202,7138103,,,2025-06-17,清算の結了等,,,2015-10-05,1,,,,,エルマス,0
931,4330001003907,登記記録の閉鎖等,0,2025-06-30,2025-06-20,株式会社肥後豆本舗,,株式会社,熊本県,熊本市中央区,大江本町３番９号,,43,101,8620973,,,2025-06-20,清算の結了等,,,2015-10-05,1,,,,,ヒゴマメホンポ,0
938,4360003006112,登記記録の閉鎖等,0,2025-06-30,2025-06-18,合同会社Ｔ＆Ｃ　Ｄｒｅａｍ,,合同会社,沖縄県,那覇市,小禄１丁目３０番１５－６０１号室,,47,201,9010152,,,2025-06-18,清算の結了等,,,2015-10-05,1,,,,,ティーアンドシードリーム,0
946,4390003001952,登記記録の閉鎖等,0,2025-06-30,2025-06-17,合同会社一期一縁,,合同会社,山形県,寒河江市,小沼町１５７番地,,06,206,9910045,,,2025-06-17,清算の結了等,,,2022-04-22,1,,,,,イチゴイチエ,0
947,4400002000879,登記記録の閉鎖等,0,2025-06-30,2025-06-12,有限会社川鉄商店,,有限会社,岩手県,盛岡市,鉈屋町２番２０号,,03,201,0200827,,,2025-06-12,清算の結了等,,,2015-10-05,1,,,,,カワテツショウテン,0
956,4430001009530,登記記録の閉鎖等,0,2025-06-30,2025-06-18,株式会社ダイナミツク,,株式会社,北海道,札幌市豊平区,豊平八条１１丁目２番１号,,01,105,0620908,,,2025-06-18,清算の結了等,,,2015-10-05,1,,,,,ダイナミック,0
959,4440001001429,登記記録の閉鎖等,0,2025-06-30,2025-06-24,トモエ信用企業株式会社,,株式会社,北海道,函館市,八幡町４番３４号,,01,202,0400083,,,2025-06-24,清算の結了等,,,2025-06-09,1,,,,,トモエシンヨウキギョウ,0
961,4460102001904,登記記録の閉鎖等,0,2025-06-30,2025-06-25,竹屋商事有限会社,,有限会社,北海道,帯広市,東八条南７丁目１９番地,,01,207,0800808,,,2025-06-25,清算の結了等,,,2015-10-05,1,,,,,タケヤショウジ,0
962,4480002011183,登記記録の閉鎖等,0,2025-06-30,2025-06-20,株式会社ＪＭ,,株式会社,徳島県,板野郡北島町,鯛浜字西中野９１番地４,,36,402,7710204,,,2025-06-20,清算の結了等,,,2015-10-05,1,,,,,ジェイエム,0
964,4490005001882,登記記録の閉鎖等,0,2025-06-30,2025-06-24,特定非営利活動法人ＮＰＯ作業所朝顔,,その他の設立登記法人,高知県,高知市,鴨部３丁目２８番１２号,,39,201,7808052,,,2025-06-24,清算の結了等,,,2015-10-05,1,,,,,サギョウショアサガオ,0
979,5010005014147,登記記録の閉鎖等,0,2025-06-30,2025-06-24,一般社団法人地域再生推進機構,,その他の設立登記法人,東京都,千代田区,麹町５丁目３番地麹町中田ビル７階,,13,101,1020083,,,2025-06-24,清算の結了等,,,2015-10-05,1,,,,,チイキサイセイスイシンキコウ,0
980,5010005031398,登記記録の閉鎖等,0,2025-06-30,2025-06-23,品川施設開発特定目的会社,,その他の設立登記法人,東京都,千代田区,飯田橋４丁目７番１号結和税理士法人内,,13,101,1020072,,,2025-06-23,清算の結了等,,,2020-02-04,1,,,,,シナガワシセツカイハツ,0
981,5010005034632,登記記録の閉鎖等,0,2025-06-30,2025-06-24,一般社団法人六本木リアルティ・ツー,,その他の設立登記法人,東京都,中央区,日本橋１丁目４番１号,,13,102,1030027,,,2025-06-24,清算の結了等,,,2022-02-24,1,,,,,ロッポンギリアルティツー,0
986,5010401045563,登記記録の閉鎖等,0,2025-06-30,2025-06-06,プルーデンス株式会社,,株式会社,東京都,港区,白金台３丁目６番１６号,,13,103,1080071,,,2025-06-06,清算の結了等,,,2015-10-05,1,,,,,プルーデンス,0
990,5010401078464,登記記録の閉鎖等,0,2025-06-30,2025-06-11,株式会社Ｌｅ　Ｐｅｔｉｔ　Ｐｒｉｎｃｅ,,株式会社,東京都,中央区,日本橋１丁目４番１号,,13,102,1030027,,,2025-06-11,清算の結了等,,,2015-10-05,1,,,,,ルプチプリンス,0
996,5010402002448,登記記録の閉鎖等,0,2025-06-30,2025-06-06,有限会社エム・アール・ケイ,,有限会社,東京都,港区,東麻布３丁目８番５号,,13,103,1060044,,,2025-06-06,清算の結了等,,,2015-10-05,1,,,,,エムアールケイ,0
999,5010405019753,登記記録の閉鎖等,0,2025-06-30,2025-06-10,一般社団法人入間物流開発,,その他の設立登記法人,東京都,港区,六本木１丁目６番１号泉ガーデンタワー,,13,103,1060032,,,2025-06-10,清算の結了等,,,2021-04-22,1,,,,,イルマブツリュウカイハツ,0
1000,5010405022922,登記記録の閉鎖等,0,2025-06-30,2025-06-06,ブルーインフラホールディングス３号一般社団法人,,その他の設立登記法人,東京都,港区,元赤坂１丁目１番７号,,13,103,1070051,,,2025-06-06,清算の結了等,,,2024-02-06,1,,,,,ブルーインフラホールディングスサンゴウ,0
1043,5012301012288,登記記録の閉鎖等,0,2025-06-30,2025-06-20,株式会社トップフライト,,株式会社,東京都,町田市,原町田６丁目９番８号ＡＥＴＡ町田４階,,13,209,1940013,,,2025-06-20,清算の結了等,,,2020-10-02,1,,,,,トップフライト,0
1075,5070001041164,登記記録の閉鎖等,0,2025-06-30,2025-06-24,保安テクノス株式会社,,株式会社,群馬県,北群馬郡吉岡町,大字漆原１１５７番地３,,10,345,3703601,,,2025-06-24,清算の結了等,,,2023-12-12,1,,,,,ホアンテクノス,0
1080,5090005003712,登記記録の閉鎖等,0,2025-06-30,2025-06-16,林光院,,その他の設立登記法人,山梨県,山梨市,牧丘町隼９５４番地,,19,205,4040014,,,2025-06-16,清算の結了等,,,2015-10-05,1,,,,,リンコウイン,0
1092,5120101054746,登記記録の閉鎖等,0,2025-06-30,2025-06-23,株式会社ＦＵＫＵＪＵ,,株式会社,大阪府,松原市,天美東７丁目１２番５号朝日プラザＳ－１０５,,27,217,5800032,,,2025-06-23,清算の結了等,,,2016-05-10,1,,,,,フクジュ,0
1093,5120102011151,登記記録の閉鎖等,0,2025-06-30,2025-06-24,環境システム機器有限会社,,有限会社,大阪府,堺市堺区,錦之町西３丁３番２４号,,27,141,5900931,,,2025-06-24,清算の結了等,,,2015-10-05,1,,,,,カンキョウシステムキキ,0
1101,5120902018296,登記記録の閉鎖等,0,2025-06-30,2025-06-20,有限会社新堂文具店,,有限会社,大阪府,豊中市,蛍池中町三丁目２番１,,27,203,5600000,,,2025-06-20,清算の結了等,,,2015-10-05,1,,,,,シンドウブングテン,0
1106,5122002012576,登記記録の閉鎖等,0,2025-06-30,2025-06-20,有限会社シヅキ,,有限会社,大阪府,四條畷市,岡山東１丁目５番１９号,,27,229,5750003,,,2025-06-20,清算の結了等,,,2015-10-05,1,,,,,シヅキ,0
1108,5130001034640,登記記録の閉鎖等,0,2025-06-30,2025-06-23,株式会社ライフ・ステージ,,株式会社,京都府,長岡京市,調子２丁目１４番１２号,,26,209,6170844,,,2025-06-23,清算の結了等,,,2015-10-05,1,,,,,,0
1112,5140001065973,登記記録の閉鎖等,0,2025-06-30,2025-06-24,株式会社ＧＫコーポレーション,,株式会社,兵庫県,姫路市,勝原区熊見６２番地１１,,28,201,6711211,,,2025-06-24,清算の結了等,,,2015-10-05,1,,,,,ジーケーコーポレーション,0
1113,5140001088256,登記記録の閉鎖等,0,2025-06-30,2025-06-23,株式会社エフピーエス,,株式会社,兵庫県,川西市,花屋敷１丁目２９番１－３号,,28,217,6660035,,,2025-06-23,清算の結了等,,,2015-10-05,1,,,,,エフピーエス,0
1115,5140001127963,登記記録の閉鎖等,0,2025-06-30,2025-06-23,株式会社山榮通商,,株式会社,兵庫県,加東市,南山４丁目１番地２６,,28,228,6731341,,,2025-06-23,清算の結了等,,,2022-11-04,1,,,,,サンエイツウショウ,0
1116,5140002023352,登記記録の閉鎖等,0,2025-06-30,2025-06-25,有限会社ウインプランニング,,有限会社,兵庫県,神戸市中央区,御幸通４丁目１番１５－６０１号,,28,110,6510087,,,2025-06-25,清算の結了等,,,2015-10-05,1,,,,,ウインプランニング,0
1117,5140002058910,登記記録の閉鎖等,0,2025-06-30,2025-06-23,有限会社ディーンズ・ママ,,有限会社,兵庫県,西宮市,清瀬台２０番４号,,28,204,6691131,,,2025-06-23,清算の結了等,,,2015-10-05,1,,,,,ディーンズママ,0
1118,5140003010085,登記記録の閉鎖等,0,2025-06-30,2025-06-12,レーベンソーラー千葉山武合同会社,,合同会社,東京都,千代田区,丸の内１丁目８番２号,,13,101,1000005,,,2025-06-12,清算の結了等,,,2015-10-05,1,,,,,レーベンソーラーチバサンム,0
1131,5200002019930,登記記録の閉鎖等,0,2025-06-30,2025-06-26,有限会社石原製麺,00077036,有限会社,岐阜県,多治見市,上野町１丁目６７番地,,21,204,5070027,,,2025-06-26,清算の結了等,,,2015-10-05,1,,,,,イシハラセイメン,0
1133,5210001013537,登記記録の閉鎖等,0,2025-06-30,2025-06-20,株式会社八工房,,株式会社,福井県,越前市,小野谷町第４号１番地の８,,18,209,9150054,,,2025-06-20,清算の結了等,,,2015-10-05,1,,,,,ハチコウボウ,0
1151,5290002005261,登記記録の閉鎖等,0,2025-06-30,2025-06-12,有限会社高野,,有限会社,福岡県,福岡市東区,香椎駅前１丁目１７番４４号,,40,131,8130013,,,2025-06-12,清算の結了等,,,2015-10-05,1,,,,,,0
1160,5360002012192,登記記録の閉鎖等,0,2025-06-30,2025-06-20,有限会社日南不動産,,有限会社,沖縄県,沖縄市,大里２丁目１２番１７号コーポラス島２０３,,47,211,9042163,,,2025-06-20,清算の結了等,,,2015-10-05,1,,,,,ニチナンフドウサン,0
1168,5430002050301,登記記録の閉鎖等,0,2025-06-30,2025-06-26,有限会社上明戸運輸,,有限会社,北海道,岩見沢市,栗沢町栗丘１９４番地３９,,01,210,0680134,,,2025-06-26,清算の結了等,,,2015-10-05,1,,,,,,0
1175,5460101003231,登記記録の閉鎖等,0,2025-06-30,2025-06-26,株式会社百亭工芸社,,株式会社,北海道,足寄郡足寄町,南五条１丁目７番地,,01,647,0893715,,,2025-06-26,清算の結了等,,,2015-10-05,1,,,,,ヒャクテイコウゲイシャ,0
1176,5460302003055,登記記録の閉鎖等,0,2025-06-30,2025-06-26,有限会社乙崎建設,,有限会社,北海道,紋別郡遠軽町,東町３丁目２番地７６,,01,555,0990410,,,2025-06-26,清算の結了等,,,2015-10-05,1,,,,,オトザキケンセツ,0
1178,5490005001898,登記記録の閉鎖等,0,2025-06-30,2025-06-26,協同組合土佐ふるさと会,,その他の設立登記法人,高知県,高知市,南久保１番２７号,,39,201,7810087,,,2025-06-26,清算の結了等,,,2015-10-05,1,,,,,トサフルサトカイ,0
1179,5500002017482,登記記録の閉鎖等,0,2025-06-30,2025-06-23,有限会社高橋化成,,有限会社,愛媛県,新居浜市,桜木町１３番２７号,,38,205,7920865,,,2025-06-23,清算の結了等,,,2015-10-05,1,,,,,タカハシカセイ,0
1192,6010001235002,登記記録の閉鎖等,0,2025-06-30,2025-06-11,株式会社リテールトランスフォーメーション,,株式会社,東京都,千代田区,大手町１丁目６番１号大手町ビル３階,,13,101,1000004,,,2025-06-11,清算の結了等,,,2023-05-08,1,,,,,リテールトランスフォーメーション,0
1211,6010401161401,登記記録の閉鎖等,0,2025-06-30,2025-06-09,株式会社桃実商店,,株式会社,東京都,港区,海岸１丁目２－１スカイグランデ汐留２１０３,,13,103,1050022,,,2025-06-09,清算の結了等,,,2021-07-09,1,,,,,モモミショウテン,0
1218,6010403025190,登記記録の閉鎖等,0,2025-06-30,2025-06-10,合同会社入間倉庫開発,,合同会社,東京都,港区,六本木１丁目６番１号泉ガーデンタワー,,13,103,1060032,,,2025-06-10,清算の結了等,,,2021-04-23,1,,,,,イルマソウコカイハツ,0
1234,6011001154068,登記記録の閉鎖等,0,2025-06-30,2025-06-03,Ｋｅｙｌｉｍｅ株式会社,,株式会社,東京都,渋谷区,渋谷２丁目９番１１－５０２号,,13,113,1500002,,,2025-06-03,合併による解散等,9011001151962,令和７年６月１日東京都渋谷区神宮前六丁目２３番４号桑野ビル２階ＨＲエボリューション株式会社（9011001151962）に合併し解散,2023-04-26,1,,,,,キーライム,0
1245,6011401020621,登記記録の閉鎖等,0,2025-06-30,2025-06-11,株式会社シェルラビット,,株式会社,東京都,文京区,小石川２丁目１番２号,,13,105,1120002,,,2025-06-11,清算の結了等,,,2017-10-20,1,,,,,シェルラビット,0
1246,6011402000523,登記記録の閉鎖等,0,2025-06-30,2025-06-23,有限会社安曇野,,有限会社,東京都,板橋区,成増３丁目１０番２号,,13,119,1750094,,,2025-06-23,清算の結了等,,,2015-10-05,1,,,,,アズミノ,0
1266,6020001025162,登記記録の閉鎖等,0,2025-06-30,2025-06-25,株式会社梓,,株式会社,神奈川県,横浜市中区,住吉町６丁目６８番地１横浜関内地所ビル５階,,14,104,2310013,,,2025-06-25,清算の結了等,,,2015-10-05,1,,,,,アズサ,0
1297,6080405007180,登記記録の閉鎖等,0,2025-06-30,2025-06-24,一般社団法人学び舎フレンドシップ,,その他の設立登記法人,静岡県,磐田市,福田４４６４番地１４,,22,211,4371203,,,2025-06-24,清算の結了等,,,2019-08-27,1,,,,,マナビヤフレンドシップ,0
1306,6120001143581,登記記録の閉鎖等,0,2025-06-30,2025-06-23,株式会社インターナショナルタクミ,,株式会社,大阪府,大阪市浪速区,恵美須西１丁目５－５,,27,111,5560003,,,2025-06-23,清算の結了等,,,2015-10-05,1,,,,,,0
1307,6120001173926,登記記録の閉鎖等,0,2025-06-30,2025-06-23,株式会社Ｍ－ｔｅｃｈ,,株式会社,大阪府,大阪市都島区,中野町３丁目４番７号,,27,102,5340027,,,2025-06-23,清算の結了等,,,2015-10-05,1,,,,,エムテック,0
1316,6120003008989,登記記録の閉鎖等,0,2025-06-30,2025-06-23,合同会社Ｌａｂ４３２Ｈｚ,,合同会社,大阪府,大阪市北区,梅田１丁目２番２号大阪駅前第２ビル１２－１２,,27,127,5300001,,,2025-06-23,清算の結了等,,,2015-10-05,1,,,,,ラボヨンヒャクサンジュウニヘルツ,0
1333,6130001026513,登記記録の閉鎖等,0,2025-06-30,2025-06-23,株式会社翔英,,株式会社,京都府,京都市下京区,西七条東御前田町４８,,26,106,6008898,,,2025-06-23,清算の結了等,,,2015-10-05,1,,,,,,0
1335,6130002015837,登記記録の閉鎖等,0,2025-06-30,2025-06-24,有限会社エムデザイン,,有限会社,京都府,京都市北区,西賀茂南今原町７番地２,,26,101,6038843,,,2025-06-24,清算の結了等,,,2015-10-05,1,,,,,,0
1344,6140003013475,登記記録の閉鎖等,0,2025-06-30,2025-06-23,合同会社バンケット,,合同会社,兵庫県,加東市,梶原３２１番地３,,28,228,6731463,,,2025-06-23,清算の結了等,,,2018-11-26,1,,,,,バンケット,0
1345,6140003020042,登記記録の閉鎖等,0,2025-06-30,2025-06-23,合同会社ＯＭＣ,,合同会社,兵庫県,西宮市,石在町１４番２５号,,28,204,6620928,,,2025-06-23,清算の結了等,,,2024-01-12,1,,,,,オーエムーシー,0
1347,6140005023811,登記記録の閉鎖等,0,2025-06-30,2025-06-24,特定非営利活動法人アカアカ,,その他の設立登記法人,兵庫県,神戸市北区,筑紫が丘３丁目７－７,,28,109,6511212,,,2025-06-24,清算の結了等,,,2017-11-27,1,,,,,,0
1351,6180001094010,登記記録の閉鎖等,0,2025-06-30,2025-06-20,株式会社イシヅ,,株式会社,愛知県,大府市,長草町上田ノ松２１番地の３,,23,223,4740052,,,2025-06-20,清算の結了等,,,2015-10-05,1,,,,,イシヅ,0
1356,6180005006036,登記記録の閉鎖等,0,2025-06-30,2025-06-24,特定非営利活動法人フレンド愛,,その他の設立登記法人,愛知県,名古屋市北区,清水２丁目２番９号,,23,103,4620844,,,2025-06-24,清算の結了等,,,2015-10-05,1,,,,,フレンドアイ,0
1359,6180302007554,登記記録の閉鎖等,0,2025-06-30,2025-06-16,有限会社佐野木型製作所,,有限会社,愛知県,豊橋市,川崎町４２２番地１,,23,201,4400094,,,2025-06-16,清算の結了等,,,2015-10-05,1,,,,,サノキガタセイサクジョ,0
1375,6290003011274,登記記録の閉鎖等,0,2025-06-30,2025-06-13,合同会社アシストキッチン,,合同会社,福岡県,大牟田市,西浜田町１１番地３,,40,202,8360027,,,2025-06-13,清算の結了等,,,2021-06-15,1,,,,,アシストキッチン,0
1380,6340001018844,登記記録の閉鎖等,0,2025-06-30,2025-06-19,株式会社福原,,株式会社,鹿児島県,鹿児島市,上之園町３０番地１５,,46,201,8900052,,,2025-06-19,清算の結了等,,,2015-11-09,1,,,,,フクハラ,0
1388,6370102000590,登記記録の閉鎖等,0,2025-06-30,2025-06-18,有限会社南工業,,有限会社,宮城県,柴田郡村田町,大字沼辺字中山４５番地の１３,,04,322,9891321,,,2025-06-18,清算の結了等,,,2015-10-05,1,,,,,ミナミコウギョウ,0
1399,6430002038659,登記記録の閉鎖等,0,2025-06-30,2025-06-20,有限会社ノースジャパンフラワーズ,,有限会社,北海道,札幌市厚別区,厚別西二条２丁目３番１２号,,01,108,0040062,,,2025-06-20,清算の結了等,,,2015-10-05,1,,,,,ノースジャパンフラワーズ,0
1405,6500001009843,登記記録の閉鎖等,0,2025-06-30,2025-06-18,株式会社鴻上,,株式会社,愛媛県,新居浜市,喜光地町１丁目６番２８号,,38,205,7920826,,,2025-06-18,清算の結了等,,,2015-10-05,1,,,,,コウガミ,0
1406,6500002014586,登記記録の閉鎖等,0,2025-06-30,2025-06-23,有限会社宏和不動産,,有限会社,愛媛県,西条市,福武甲２８４番地１０,,38,206,7930035,,,2025-06-23,清算の結了等,,,2015-10-05,1,,,,,コウワフドウサン,0
1408,7010001106111,登記記録の閉鎖等,0,2025-06-30,2025-06-25,株式会社イミュノフロンティア,,株式会社,大阪府,大阪市北区,東天満１丁目１番１９号,,27,127,5300044,,,2025-06-25,清算の結了等,,,2015-10-05,1,,,,,イミュノフロンティア,0
1410,7010001111771,登記記録の閉鎖等,0,2025-06-30,2025-06-11,株式会社ＥＮアソシエイツ,,株式会社,東京都,千代田区,丸の内２丁目４番１号,,13,101,1000005,,,2025-06-11,清算の結了等,,,2015-10-05,1,,,,,イーエヌアソシエイツ,0
1416,7010001197183,登記記録の閉鎖等,0,2025-06-30,2025-06-09,ワイ・ジー・ピー・トラスト株式会社,,株式会社,東京都,千代田区,丸の内２丁目５番１号丸の内二丁目ビル６階,,13,101,1000005,,,2025-06-09,清算の結了等,,,2018-12-18,1,,,,,ワイジーピートラスト,0
1421,7010002029963,登記記録の閉鎖等,0,2025-06-30,2025-06-06,有限会社オフィスドマーニ,,有限会社,東京都,千代田区,岩本町２丁目８番１０号,,13,101,1010032,,,2025-06-06,清算の結了等,,,2015-10-05,1,,,,,オフィスドマーニ,0
1422,7010003024963,登記記録の閉鎖等,0,2025-06-30,2025-06-06,ＴＴＬＥＸ合同会社,,合同会社,東京都,千代田区,四番町４番地９新東京国際リーガル内,,13,101,1020081,,,2025-06-06,清算の結了等,,,2017-03-07,1,,,,,ティティエルイーエックス,0
1427,7010401015184,登記記録の閉鎖等,0,2025-06-30,2025-06-06,株式会社スポーツパル・インターナショナル,,株式会社,東京都,中央区,銀座７丁目１３－６サガミビル２Ｆ,,13,102,1040061,,,2025-06-06,清算の結了等,,,2015-10-05,1,,,,,スポーツパルインターナショナル,0
1437,7010403023433,登記記録の閉鎖等,0,2025-06-30,2025-06-05,ジャパンインフラ８号合同会社,,合同会社,東京都,港区,元赤坂１丁目１番７号,,13,103,1070051,,,2025-06-05,清算の結了等,,,2020-08-06,1,,,,,ジャパンインフラハチゴウ,0
1438,7010405001081,登記記録の閉鎖等,0,2025-06-30,2025-06-06,一般社団法人日本駐車場工学研究会,,その他の設立登記法人,東京都,港区,西新橋２丁目８番１号,,13,103,1050003,,,2025-06-06,清算の結了等,,,2015-10-05,1,,,,,ニホンチュウシャジョウコウガクケンキュウカイ,0
1445,7010501032897,登記記録の閉鎖等,0,2025-06-30,2025-06-03,株式会社ＴＳＳ,,株式会社,東京都,渋谷区,神宮前６丁目２３番４号桑野ビル２階,,13,113,1500001,,,2025-06-03,清算の結了等,,,2015-10-05,1,,,,,ティーエスエス,0
1455,7010905002100,登記記録の閉鎖等,0,2025-06-30,2025-06-20,特定非営利活動法人Ａｓｉａ　Ｉｎｉｔｉａｔｉｖｅｓ,,その他の設立登記法人,東京都,江戸川区,西葛西３丁目３番１６－５０５号,,13,123,1340088,,,2025-06-20,清算の結了等,,,2015-10-05,1,,,,,アジアイニシアティブズ,0
1468,7011101105069,登記記録の閉鎖等,0,2025-06-30,2025-06-05,株式会社Ｙｅａａａｈ,,株式会社,東京都,新宿区,四谷４丁目３３番２号マーキュリースクエア５階,,13,104,1600004,,,2025-06-05,清算の結了等,,,2023-11-17,1,,,,,ヤーッ,0
1474,7011202000581,登記記録の閉鎖等,0,2025-06-30,2025-06-24,有限会社いざわ,,有限会社,東京都,中野区,中野２丁目２９番４号,,13,114,1640001,,,2025-06-24,清算の結了等,,,2015-10-05,1,,,,,イザワ,0
1491,7013301004083,登記記録の閉鎖等,0,2025-06-30,2025-06-23,サンワ製版株式会社,,株式会社,東京都,豊島区,東池袋５丁目４９番５号,,13,116,1700013,,,2025-06-23,清算の結了等,,,2015-10-05,1,,,,,,0
1495,7020001118725,登記記録の閉鎖等,0,2025-06-30,2025-06-23,株式会社アクティフＨ＆Ｂ,,株式会社,神奈川県,横浜市青葉区,大場町３８５番地２３,,14,117,2250023,,,2025-06-23,清算の結了等,,,2016-11-17,1,,,,,アクティフエイチアンドビー,0
1512,7050002035017,登記記録の閉鎖等,0,2025-06-30,2025-06-20,有限会社池田屋商店,,有限会社,茨城県,常陸太田市,寿町５６４番地の３,,08,212,3130064,,,2025-06-20,清算の結了等,,,2015-10-05,1,,,,,イケダヤショウテン,0
1533,7120001195259,登記記録の閉鎖等,0,2025-06-30,2025-06-20,株式会社土手工芸,,株式会社,大阪府,大阪市旭区,大宮１丁目１４番１９号,,27,117,5350002,,,2025-06-20,清算の結了等,,,2015-12-21,1,,,,,,0
1544,7120005005471,登記記録の閉鎖等,0,2025-06-30,2025-06-26,医療法人野瀬クリニック,,その他の設立登記法人,大阪府,大阪市北区,梅田１丁目２番２－２００号大阪駅前第２ビル２階,,27,127,5300001,,,2025-06-26,清算の結了等,,,2015-10-05,1,,,,,ノセクリニック,0
1546,7120101060841,登記記録の閉鎖等,0,2025-06-30,2025-06-23,株式会社Ｋ２,,株式会社,大阪府,和泉市,坪井町８３番地の１,,27,219,5941135,,,2025-06-23,清算の結了等,,,2019-11-18,1,,,,,ケイツー,0
1562,7130002026387,登記記録の閉鎖等,0,2025-06-30,2025-06-24,有限会社ケイト,,有限会社,京都府,宇治市,小倉町西浦７６番地の２,,26,204,6110042,,,2025-06-24,清算の結了等,,,2015-10-05,1,,,,,ケイト,0
1566,7140005026739,登記記録の閉鎖等,0,2025-06-30,2025-06-23,特定非営利活動法人ビジービーク＆テイル,,その他の設立登記法人,兵庫県,尼崎市,立花町３丁目１４番３号シャローム中村２番館３０１号,,28,202,6610025,,,2025-06-23,清算の結了等,,,2023-09-12,1,,,,,ビジービークアンドテイル,0
1571,7180001157146,登記記録の閉鎖等,0,2025-06-30,2025-06-20,株式会社ＫＢＫ,,株式会社,愛知県,名古屋市瑞穂区,柳ケ枝町１丁目２４番地,,23,108,4670825,,,2025-06-20,清算の結了等,,,2023-07-14,1,,,,,ケイビーケイ,0
1574,7180005019953,登記記録の閉鎖等,0,2025-06-30,2025-06-24,一般社団法人ＥＳＤコンソーシアム愛知,,その他の設立登記法人,愛知県,名古屋市東区,徳川２丁目１８番３号徳川第１ビル５階,,23,102,4610025,,,2025-06-24,清算の結了等,,,2022-10-06,1,,,,,イーエスディーコンソーシアムアイチ,0
1579,7200003005894,登記記録の閉鎖等,0,2025-06-30,2025-06-24,ＳＨコンサルタント合同会社,,合同会社,岐阜県,岐阜市,三田洞東３丁目６番５,,21,201,5020003,,,2025-06-24,清算の結了等,,,2023-03-10,1,,,,,エスエイチコンサルタント,0
1580,7210001017239,登記記録の閉鎖等,0,2025-06-30,2025-06-26,株式会社Ｆｅ．ｃｏｌｌｅ’ｃｔｉｏｎ,,株式会社,福井県,福井市,八重巻町３０６番地１,,18,201,9100123,,,2025-06-26,清算の結了等,,,2018-07-31,1,,,,,エフイーコレクション,0
1595,7260001025501,登記記録の閉鎖等,0,2025-06-30,2025-06-23,株式会社倉敷看板,,株式会社,岡山県,倉敷市,有城６６５番地１,,33,202,7100031,,,2025-06-23,清算の結了等,,,2015-10-05,1,,,,,クラシキカンバン,0
1614,7350002010550,登記記録の閉鎖等,0,2025-06-30,2025-06-20,有限会社黒木技建,,有限会社,宮崎県,日向市,大字平岩８６８３番地１,,45,206,8830022,,,2025-06-20,清算の結了等,,,2015-10-05,1,,,,,クロキギケン,0
1624,7390002000291,登記記録の閉鎖等,0,2025-06-30,2025-06-17,有限会社イノキ,,有限会社,山形県,山形市,香澄町１丁目４番５号,,06,201,9900039,,,2025-06-17,清算の結了等,,,2015-10-05,1,,,,,イノキ,0
1632,7470001005498,登記記録の閉鎖等,0,2025-06-30,2025-06-23,万屋物産株式会社,,株式会社,東京都,品川区,西五反田１丁目３２番１１号,,13,109,1410031,,,2025-06-23,清算の結了等,,,2015-10-05,1,,,,,ヨロズヤブッサン,0
1637,8010001011186,登記記録の閉鎖等,0,2025-06-30,2025-06-09,株式会社インターメッド,,株式会社,東京都,千代田区,九段南２丁目４番４号スカイワード税理士法人内,,13,101,1020074,,,2025-06-09,清算の結了等,,,2015-10-05,1,,,,,インターメッド,0
1646,8010001186409,登記記録の閉鎖等,0,2025-06-30,2025-06-06,ＰＡＩＲ株式会社,,株式会社,東京都,千代田区,九段南１丁目６番５号,,13,101,1020074,,,2025-06-06,清算の結了等,,,2017-09-21,1,,,,,ペア,0
1652,8010003023898,登記記録の閉鎖等,0,2025-06-30,2025-06-06,合同会社ワイズリンク,,合同会社,東京都,千代田区,二番町５番２号９Ｆ,,13,101,1020084,,,2025-06-06,清算の結了等,,,2016-08-12,1,,,,,ワイズリンク,0
1663,8010401157892,登記記録の閉鎖等,0,2025-06-30,2025-06-06,Ｓｕｐｐｏｒｔ　Ｔｅｃｈｎｏｌｏｇｙ株式会社,,株式会社,東京都,港区,浜松町２丁目２番１５号浜松町ダイヤビル２Ｆ,,13,103,1050013,,,2025-06-06,清算の結了等,,,2021-02-01,1,,,,,サポートテクノロジー,0
1673,8010501030628,登記記録の閉鎖等,0,2025-06-30,2025-06-12,株式会社ベジフルファイン,,株式会社,東京都,台東区,東上野５丁目２１番５－５０１,,13,106,1100015,,,2025-06-12,清算の結了等,,,2015-10-05,1,,,,,ベジフルファイン,0
1684,8010901030327,登記記録の閉鎖等,0,2025-06-30,2025-06-02,株式会社ビューティーシーズ,,株式会社,東京都,目黒区,祐天寺２丁目３番１８号Ｈ＆Ｇビル１Ｆ,,13,110,1530052,,,2025-06-02,清算の結了等,,,2015-10-05,1,,,,,,0
1701,8011303004324,登記記録の閉鎖等,0,2025-06-30,2025-06-16,ＶｉｓｉｏｎＮｅｐａｌ合同会社,,合同会社,東京都,杉並区,荻窪２丁目１３番８号片平アパート２０５号,,13,115,1670051,,,2025-06-16,清算の結了等,,,2022-03-02,1,,,,,ビジョンネパール,0
1707,8011501020981,登記記録の閉鎖等,0,2025-06-30,2025-06-23,株式会社ハナミヤ,,株式会社,東京都,荒川区,西日暮里２丁目１０番５号泉ビル２階,,13,118,1160013,,,2025-06-23,合併による解散等,2011501013883,令和７年６月２１日東京都荒川区西日暮里二丁目１０番５号泉ビル２階株式会社爽風舎（2011501013883）に合併し解散,2015-10-14,1,,,,,ハナミヤ,0
1715,8013305003188,登記記録の閉鎖等,0,2025-06-30,2025-06-04,ＧＨＲ協同組合,,その他の設立登記法人,東京都,新宿区,新宿１丁目８番１号,,13,104,1600022,,,2025-06-04,清算の結了等,,,2021-03-03,1,,,,,ジーエイチアール,0
1716,8020001020194,登記記録の閉鎖等,0,2025-06-30,2025-06-25,株式会社コスモ,,株式会社,神奈川県,横浜市港北区,新羽町７６２番地,,14,109,2230057,,,2025-06-25,清算の結了等,,,2015-10-05,1,,,,,コスモ,0
1718,8020002038913,登記記録の閉鎖等,0,2025-06-30,2025-06-25,有限会社高重製作所,,有限会社,神奈川県,横浜市鶴見区,矢向３丁目３２番地３,,14,101,2300001,,,2025-06-25,清算の結了等,,,2015-10-05,1,,,,,タカエセイサクジョ,0
1724,8021002015282,登記記録の閉鎖等,0,2025-06-30,2025-06-16,有限会社中丸製作所,,有限会社,神奈川県,鎌倉市,腰越１６０２番地,,14,204,2480033,,,2025-06-16,清算の結了等,,,2015-10-05,1,,,,,ナカマルセイサクショ,0
1727,8021005006122,登記記録の閉鎖等,0,2025-06-30,2025-06-10,医療法人社団日下部皮膚科医院,,その他の設立登記法人,神奈川県,小田原市,板橋９１番地,,14,206,2500034,,,2025-06-10,清算の結了等,,,2015-10-05,1,,,,,クサカベヒフカイイン,0
1728,8030001024657,登記記録の閉鎖等,0,2025-06-30,2025-06-24,株式会社アドミック東洋,,株式会社,埼玉県,所沢市,東所沢３丁目３番地の２３,,11,208,3590021,,,2025-06-24,清算の結了等,,,2015-10-05,1,,,,,アドミックトウヨウ,0
1732,8030002043061,登記記録の閉鎖等,0,2025-06-30,2025-06-24,有限会社暁エアー・システム,,有限会社,埼玉県,草加市,花栗３丁目１３番３７号,,11,221,3400044,,,2025-06-24,清算の結了等,,,2015-10-05,1,,,,,アカツキエアーシステム,0
1734,8030003018830,登記記録の閉鎖等,0,2025-06-30,2025-06-24,ＮＦＢコンサルティング合同会社,,合同会社,埼玉県,秩父市,下影森８４０番地８,,11,207,3691871,,,2025-06-24,清算の結了等,,,2022-02-10,1,,,,,エヌエフビーコンサルティング,0
1735,8040001008790,登記記録の閉鎖等,0,2025-06-30,2025-06-13,株式会社くるまや,,株式会社,千葉県,千葉市中央区,中央２丁目７番１号吉田興業第二ビル６Ｆ,,12,101,2600013,,,2025-06-13,清算の結了等,,,2015-10-05,1,,,,,クルマヤ,0
1742,8040002024135,登記記録の閉鎖等,0,2025-06-30,2025-06-13,有限会社ナーツ,,有限会社,千葉県,船橋市,芝山４丁目１５番１５号,,12,204,2740816,,,2025-06-13,清算の結了等,,,2015-10-05,1,,,,,ナーツ,0
1758,8120001140164,登記記録の閉鎖等,0,2025-06-30,2025-06-23,株式会社ビゴン・ジャポン,,株式会社,大阪府,大阪市北区,中津１丁目１５番１５号中津第２リッチビル３階,,27,127,5310071,,,2025-06-23,清算の結了等,,,2015-10-05,1,,,,,ビゴンジャポン,0
1759,8120001169261,登記記録の閉鎖等,0,2025-06-30,2025-06-26,株式会社川崎トランスポート,00032585,株式会社,大阪府,堺市西区,浜寺石津町中３丁１４番３４号Ｂ－１０２号,,27,144,5928334,,,2025-06-26,清算の結了等,,,2015-10-05,1,,,,,カワサキトランスポート,0
1761,8120001194747,登記記録の閉鎖等,0,2025-06-30,2025-06-23,株式会社ＰＲＯＪＥＣＴ　ＢＹ,,株式会社,大阪府,大阪市北区,同心２丁目４－２０扇町白岩パークレジデンス１０１,,27,127,5300035,,,2025-06-23,清算の結了等,,,2015-11-27,1,,,,,プロジェクトバイ,0
1777,8120101021743,登記記録の閉鎖等,0,2025-06-30,2025-06-23,株式会社プレカット中畑,,株式会社,大阪府,堺市美原区,木材通１丁目１３番２８号,,27,147,5870042,,,2025-06-23,合併による解散等,6120101021670,令和７年６月２１日大阪府堺市美原区木材通一丁目１３番２８号中畑木材株式会社（6120101021670）に合併し解散,2015-10-05,1,,,,,プレカットナカハタ,0
1778,8120101023946,登記記録の閉鎖等,0,2025-06-30,2025-06-23,株式会社マインドフーズ,,株式会社,大阪府,堺市南区,若松台１丁１番２－４１０号,,27,145,5900116,,,2025-06-23,清算の結了等,,,2015-10-05,1,,,,,マインドフーズ,0
1779,8120101045593,登記記録の閉鎖等,0,2025-06-30,2025-06-20,フクイロジス株式会社,,株式会社,大阪府,岸和田市,木材町１３番地の１,,27,202,5960011,,,2025-06-20,清算の結了等,,,2015-10-05,1,,,,,フクイロジス,0
1784,8120901010937,登記記録の閉鎖等,0,2025-06-30,2025-06-23,山栄不動産株式会社,,株式会社,大阪府,高槻市,栄町２丁目６番３号,,27,207,5690825,,,2025-06-23,清算の結了等,,,2015-10-05,1,,,,,サンエイフドウサン,0
1786,8120901026074,登記記録の閉鎖等,0,2025-06-30,2025-06-19,株式会社豊電機工業所,,株式会社,大阪府,豊中市,庄内栄町５丁目８番１３－２号,,27,203,5610834,,,2025-06-19,清算の結了等,,,2015-10-05,1,,,,,,0
1794,8130001001274,登記記録の閉鎖等,0,2025-06-30,2025-06-23,武村建設株式会社,,株式会社,京都府,京都市右京区,宇多野長尾町８番地１３,,26,108,6168207,,,2025-06-23,清算の結了等,,,2015-10-05,1,,,,,,0
1795,8130001042905,登記記録の閉鎖等,0,2025-06-30,2025-06-24,浜六株式会社,,株式会社,京都府,京丹後市,網野町浅茂川２０８番地,,26,212,6293104,,,2025-06-24,清算の結了等,,,2015-10-05,1,,,,,ハマロク,0
1803,8150002011188,登記記録の閉鎖等,0,2025-06-30,2025-06-24,有限会社岡田晃建築士事務所,,有限会社,奈良県,吉野郡大淀町,大字新野４１番地の１,,29,442,6393126,,,2025-06-24,清算の結了等,,,2025-05-07,1,,,,,,0
1821,8240001034809,登記記録の閉鎖等,0,2025-06-30,2025-06-24,株式会社セイコーサービス,,株式会社,広島県,福山市,神辺町大字川南１７６番地の９,,34,207,7202124,,,2025-06-24,合併による解散等,9120001000623,令和７年６月１４日大阪市旭区大宮二丁目１０番１１号ｓｅｉｋｏ　ｔｅｃｈｎｉｃａｌ株式会社（9120001000623）に合併し解散,2015-10-05,1,,,,,セイコーサービス,0
1825,8250002013728,登記記録の閉鎖等,0,2025-06-30,2025-06-25,有限会社清弘設備,,有限会社,山口県,萩市,大字椿３７５７番地,,35,204,7580061,,,2025-06-25,清算の結了等,,,2015-10-05,1,,,,,,0
1827,8260005008781,登記記録の閉鎖等,0,2025-06-30,2025-06-23,医療法人福井医院,,その他の設立登記法人,岡山県,美作市,湯郷９１６番地,,33,215,7070062,,,2025-06-23,清算の結了等,,,2015-10-05,1,,,,,フクイイイン,0
1830,8290001083438,登記記録の閉鎖等,0,2025-06-30,2025-06-12,株式会社シンアイ企画,,株式会社,福岡県,福岡市博多区,光丘町１丁目１番４０号２Ｆ２０２,,40,132,8120874,,,2025-06-12,清算の結了等,,,2018-11-26,1,,,,,シンアイキカク,0
1847,8330005001589,登記記録の閉鎖等,0,2025-06-30,2025-06-19,宏和ビル管理組合法人,,その他の設立登記法人,熊本県,熊本市中央区,神水２丁目１０番１号,,43,101,8620954,,,2025-06-19,清算の結了等,,,2015-10-05,1,,,,,コウワビル,0
1849,8330005010607,登記記録の閉鎖等,0,2025-06-30,2025-06-19,一般社団法人宏和ビル敷地共有者の会,,その他の設立登記法人,熊本県,熊本市中央区,桜町２番３７号錦桜町ビル１０Ｆ,,43,101,8600805,,,2025-06-19,清算の結了等,,,2023-01-06,1,,,,,コウワビルシキチキョウユウシャノカイ,0
1864,8370801000427,登記記録の閉鎖等,0,2025-06-30,2025-06-18,株式会社つま新,,株式会社,宮城県,岩沼市,下野郷字東北谷地５番地の１,,04,211,9892421,,,2025-06-18,清算の結了等,,,2015-10-05,1,,,,,,0
1866,8390001015661,登記記録の閉鎖等,0,2025-06-30,2025-06-17,株式会社カチ・テラス,,株式会社,山形県,東根市,中央５丁目１番１９号,,06,211,9993711,,,2025-06-17,清算の結了等,,,2019-04-04,1,,,,,カチテラス,0
1868,8410001003300,登記記録の閉鎖等,0,2025-06-30,2025-06-24,株式会社ジャパンペットワールド,,株式会社,秋田県,秋田市,新屋扇町８２番３号,,05,201,0101637,,,2025-06-24,清算の結了等,,,2015-10-05,1,,,,,ジャパンペットワールド,0
1873,8430005011702,登記記録の閉鎖等,0,2025-06-30,2025-06-16,一般社団法人姿勢道普及協会,,その他の設立登記法人,北海道,札幌市南区,藤野三条１１丁目１０番３０号,,01,106,0612283,,,2025-06-16,清算の結了等,,,2015-10-05,1,,,,,シセイドウフキュウキョウカイ,0
1876,8470002009241,登記記録の閉鎖等,0,2025-06-30,2025-06-26,有限会社ノーマ,,有限会社,香川県,高松市,北浜町１０番地１６,,37,201,7600031,,,2025-06-26,清算の結了等,,,2015-10-05,1,,,,,ノーマ,0
1878,8480001007501,登記記録の閉鎖等,0,2025-06-30,2025-06-20,株式会社かわはらや,,株式会社,徳島県,三好郡東みよし町,加茂２５６４番地の３,,36,489,7794701,,,2025-06-20,清算の結了等,,,2015-10-05,1,,,,,カワハラヤ,0
1882,8480002002947,登記記録の閉鎖等,0,2025-06-30,2025-06-23,有限会社だるま本店,,有限会社,徳島県,徳島市,新町橋１丁目２０番地１,,36,201,7700904,,,2025-06-23,清算の結了等,,,2015-10-05,1,,,,,ダルマホンテン,0
1905,9010005030941,登記記録の閉鎖等,0,2025-06-30,2025-06-23,名古屋プロパティー特定目的会社,,その他の設立登記法人,東京都,千代田区,丸の内１丁目１１番１号,,13,101,1000005,,,2025-06-23,清算の結了等,,,2019-10-28,1,,,,,ナゴヤプロパティー,0
1907,9010401003583,登記記録の閉鎖等,0,2025-06-30,2025-06-09,株式会社ウイッシュカンパニー,,株式会社,東京都,港区,麻布台３丁目２番１１号,,13,103,1060041,,,2025-06-09,清算の結了等,,,2015-10-05,1,,,,,ウイッシュカンパニー,0
1910,9010401065871,登記記録の閉鎖等,0,2025-06-30,2025-06-26,株式会社Ｇｌｏｂａｌ　Ｓｔｅｐ　Ａｃａｄｅｍｙ,,株式会社,東京都,港区,南麻布１丁目１番５－１０５号,,13,103,1060047,,,2025-06-26,合併による解散等,8010401186875,令和７年５月２３日東京都渋谷区渋谷一丁目１５番１２号Ｇｌｏｂａｌ　ＫＡ　Ｈｏｌｄｉｎｇｓ株式会社（8010401186875）に合併し解散,2015-10-05,1,,,,,グローバルステップアカデミー,0
1918,9010401169631,登記記録の閉鎖等,0,2025-06-30,2025-06-04,Ｙ２Ｔｅｘｔｕｒｅ株式会社,,株式会社,東京都,港区,南青山２丁目２番１５号ＷｉｎＡｏｙａｍａビルＵＣＦ６３５,,13,103,1070062,,,2025-06-04,清算の結了等,,,2022-09-12,1,,,,,ワイツーテクスチャ,0
1919,9010401184267,登記記録の閉鎖等,0,2025-06-30,2025-06-10,株式会社ＣｙｃｌｅＮｅｃｔ,,株式会社,東京都,港区,虎ノ門３丁目１８番６号朝日虎ノ門マンション６１４号室,,13,103,1050001,,,2025-06-10,清算の結了等,,,2024-08-07,1,,,,,サイクルネクト,0
1931,9010701038701,登記記録の閉鎖等,0,2025-06-30,2025-06-23,株式会社チェアークラブ,,株式会社,東京都,品川区,北品川４丁目５番１８号,,13,109,1400001,,,2025-06-23,清算の結了等,,,2020-01-10,1,,,,,チェアークラブ,0
1955,9011101101116,登記記録の閉鎖等,0,2025-06-30,2025-06-05,エムネクスト株式会社,,株式会社,東京都,新宿区,新宿１丁目２番１号,,13,104,1600022,,,2025-06-05,清算の結了等,,,2022-12-09,1,,,,,エムネクスト,0
1956,9011102020273,登記記録の閉鎖等,0,2025-06-30,2025-06-06,株式会社アールディーアイ,,株式会社,東京都,新宿区,舟町１２番地ミルボレー四谷２階,,13,104,1600006,,,2025-06-06,清算の結了等,,,2015-10-05,1,,,,,アールディーアイ,0
1970,9020002097000,登記記録の閉鎖等,0,2025-06-30,2025-06-25,有限会社坂本木型製作所,,有限会社,神奈川県,川崎市川崎区,池上新町１丁目１０番１３号,,14,131,2100832,,,2025-06-25,清算の結了等,,,2015-10-05,1,,,,,サカモトキガタセイサクショ,0
1973,9021002029752,登記記録の閉鎖等,0,2025-06-30,2025-06-25,有限会社平和工業,,有限会社,神奈川県,相模原市緑区,川尻字小松４２３４番地５,,14,151,2520111,,,2025-06-25,清算の結了等,,,2015-10-05,1,,,,,,0
1975,9021005012193,登記記録の閉鎖等,0,2025-06-30,2025-06-27,特定非営利活動法人それぞれ居場所みんな幸せ,,その他の設立登記法人,神奈川県,伊勢原市,日向４９６番地,,14,214,2591101,,,2025-06-27,清算の結了等,,,2021-04-22,1,,,,,ソレゾレイバショミンナシアワセ,0
1980,9030003017708,登記記録の閉鎖等,0,2025-06-30,2025-06-24,合同会社Ｋ＆Ｓ,,合同会社,埼玉県,北足立郡伊奈町,大字小室１１８８番地２,,11,301,3620806,,,2025-06-24,清算の結了等,,,2021-08-02,1,,,,,ケーアンドエス,0
2067,9180001073424,登記記録の閉鎖等,0,2025-06-30,2025-06-20,株式会社アイシーワールド,,株式会社,愛知県,名古屋市守山区,八剣２丁目１１１３番地,,23,113,4630022,,,2025-06-20,清算の結了等,,,2015-10-05,1,,,,,アイシーワールド,0
2075,9180005007948,登記記録の閉鎖等,0,2025-06-30,2025-06-20,一般社団法人名古屋北読売会,,その他の設立登記法人,愛知県,名古屋市中区,栄１丁目２番１号読売新聞中部支社,,23,106,4600008,,,2025-06-20,清算の結了等,,,2015-10-05,1,,,,,ナゴヤキタヨミウリカイ,0
2083,9220002001115,登記記録の閉鎖等,0,2025-06-30,2025-06-26,有限会社泉電気商会,,有限会社,石川県,金沢市,畝田中３丁目３番地,,17,201,9200343,,,2025-06-26,清算の結了等,,,2015-10-05,1,,,,,,0
2084,9220002013309,登記記録の閉鎖等,0,2025-06-30,2025-06-25,有限会社エスエスエープラニング,,有限会社,石川県,能美市,寺井町ワ１５０番地,,17,211,9231121,,,2025-06-25,清算の結了等,,,2015-10-05,1,,,,,,0
2093,9290001067563,登記記録の閉鎖等,0,2025-06-30,2025-06-12,株式会社ＶＩＯＬＡ,,株式会社,福岡県,春日市,春日原北町５丁目２７番地,,40,218,8160802,,,2025-06-12,清算の結了等,,,2015-10-05,1,,,,,ヴィオラ,0
2094,9290001087454,登記記録の閉鎖等,0,2025-06-30,2025-06-12,株式会社タイム,,株式会社,福岡県,福岡市東区,香椎駅前１丁目１７番４４－３０１号,,40,131,8130013,,,2025-06-12,清算の結了等,,,2019-12-16,1,,,,,タイム,0
2101,9300001013383,登記記録の閉鎖等,0,2025-06-30,2025-06-18,株式会社真栄工業,,株式会社,佐賀県,東松浦郡玄海町,大字今村６５０５番地,,41,387,8471441,,,2025-06-18,清算の結了等,,,2023-07-18,1,,,,,シンエイコウギョウ,0
2115,9360002019639,登記記録の閉鎖等,0,2025-06-30,2025-06-23,有限会社東政建設,,有限会社,沖縄県,名護市,字為又１２２０番地１４５,,47,209,9050005,,,2025-06-23,清算の結了等,,,2015-10-05,1,,,,,トウセイケンセツ,0
2127,9430002050157,登記記録の閉鎖等,0,2025-06-30,2025-06-20,有限会社美唄住宅設備,,有限会社,北海道,美唄市,西四条北３丁目３番３８号,,01,215,0720033,,,2025-06-20,清算の結了等,,,2015-10-05,1,,,,,ビバイジュウタクセツビ,0
