sequenceNumber,corporateNumber,process,correct,updateDate,changeDate,name,nameImageId,kind,prefectureName,cityName,streetNumber,addressImageId,prefectureCode,cityCode,postCode,addressOutside,addressOutsideImageId,closeDate,closeCause,successorCorporateNumber,changeCause,assignmentDate,latest,enName,enPrefectureName,enCityName,enAddressOutside,furigana,hihyoji
13,1010003042087,新規,0,2023-10-31,2023-10-31,黒岩レジデンシャル合同会社３,,合同会社,東京都,千代田区,丸の内３丁目１番１号東京共同会計事務所内,,13,101,1000005,,,,,,,2023-10-31,1,,,,,クロイワレジデンシャルサン,0
23,1010401178235,新規,0,2023-10-31,2023-10-31,オーツーマイクロリサーチセンター大阪株式会社,,株式会社,東京都,港区,赤坂２丁目２３番１号アークヒルズ・フロントタワーＩｎＣｏｎｔｒｏｌ内,,13,103,1070052,,,,,,,2023-10-31,1,,,,,オーツーマイクロリサーチセンターオオサカ,0
28,1010403031210,新規,0,2023-10-31,2023-10-31,ダレレトロ合同会社,,合同会社,東京都,港区,麻布十番１丁目５番１２号８０５号室,,13,103,1060045,,,,,,,2023-10-31,1,,,,,ダレレトロ,0
29,1010405022620,新規,0,2023-10-31,2023-10-31,一般社団法人土御門奉賛会,,その他の設立登記法人,東京都,港区,赤坂８丁目４－１４青山タワープレイス８Ｆ,,13,103,1070052,,,,,,,2023-10-31,1,,,,,ツチミカドホウサンカイ,0
30,1010501051259,新規,0,2023-10-31,2023-10-31,盛安国際株式会社,,株式会社,東京都,台東区,上野６丁目７番１６号川久保ビル８２３,,13,106,1100005,,,,,,,2023-10-31,1,,,,,セイアンコクサイ,0
35,1010701045069,新規,0,2023-10-31,2023-10-31,株式会社Ｐｌａｉｓｉｒ,,株式会社,東京都,品川区,北品川３丁目１１番１３－３００６号,,13,109,1400001,,,,,,,2023-10-31,1,,,,,プレジール,0
38,1010901054068,新規,0,2023-10-31,2023-10-31,株式会社ストラトノーツ,,株式会社,東京都,世田谷区,代沢２丁目３６－１０,,13,112,1550032,,,,,,,2023-10-31,1,,,,,ストラトノーツ,0
39,1010901054084,新規,0,2023-10-31,2023-10-31,株式会社ＹＵＫＯＳ,,株式会社,東京都,世田谷区,若林５丁目３２番７－５０４号,,13,112,1540023,,,,,,,2023-10-31,1,,,,,ユーコス,0
60,1011101104935,新規,0,2023-10-31,2023-10-31,株式会社ＧＥＮＥＬＡＢ．,,株式会社,東京都,新宿区,西新宿３丁目３－１３水間ビル６Ｆ,,13,104,1600023,,,,,,,2023-10-31,1,,,,,ゲネラボ,0
63,1011503005822,新規,0,2023-10-31,2023-10-31,合同会社ヌーヴェル・テラス,,合同会社,東京都,北区,田端新町３丁目５番７号大田ビル１階,,13,117,1140012,,,,,,,2023-10-31,1,,,,,ヌーヴェルテラス,0
69,1011803005910,新規,0,2023-10-31,2023-10-31,ＤＳプロパティ合同会社,,合同会社,東京都,葛飾区,立石２丁目３４－４,,13,122,1240012,,,,,,,2023-10-31,1,,,,,ディーエスプロパティ,0
72,1012703002840,新規,0,2023-10-31,2023-10-31,合同会社ブラザーフッド,,合同会社,東京都,清瀬市,中里３丁目９３３番地７,,13,221,2040003,,,,,,,2023-10-31,1,,,,,ブラザーフッド,0
73,1012801022732,新規,0,2023-10-31,2023-10-31,株式会社門前造園,,株式会社,東京都,日野市,日野台４丁目４番地の１３,,13,212,1910003,,,,,,,2023-10-31,1,,,,,カドマエゾウエン,0
99,1020001154206,新規,0,2023-10-31,2023-10-31,株式会社Ｌｉｎｋ,,株式会社,神奈川県,横浜市都筑区,中川３丁目２９番１８－２０７号,,14,118,2240001,,,,,,,2023-10-31,1,,,,,リンク,0
100,1020001154230,新規,0,2023-10-31,2023-10-31,ロアホームズ株式会社,,株式会社,神奈川県,横浜市神奈川区,栄町６番地１ヨコハマポートサイドロア壱番館１８０７号,,14,102,2210052,,,,,,,2023-10-31,1,,,,,ロアホームズ,0
102,1020003024877,新規,0,2023-10-31,2023-10-31,合同会社ＳｕｚｕｋｉＳｅｃｕｒｉｔｙＳｙｓｔｅｍ,,合同会社,神奈川県,横浜市保土ケ谷区,和田２丁目５番２２－３号,,14,106,2400065,,,,,,,2023-10-31,1,,,,,スズキセキュリティシステム,0
107,1021003013738,新規,0,2023-10-31,2023-10-31,合同会社空色,,合同会社,神奈川県,綾瀬市,小園１０８６番地,,14,218,2521121,,,,,,,2023-10-31,1,,,,,ソライロ,0
108,1021003013746,新規,0,2023-10-31,2023-10-31,Ａｌｏｈａ　Ｙａｃｈｔ　Ｓａｉｌｉｎｇ合同会社,,合同会社,神奈川県,横須賀市,太田和２丁目１２番１３号,,14,201,2380311,,,,,,,2023-10-31,1,,,,,アロハヨットセーリング,0
116,1030001156853,新規,0,2023-10-31,2023-10-31,株式会社彩建,,株式会社,埼玉県,三郷市,戸ケ崎１丁目２１０番地１,,11,237,3410044,,,,,,,2023-10-31,1,,,,,サイケン,0
117,1030001156928,新規,0,2023-10-31,2023-10-31,株式会社Ｂ．Ｒ．エステート,,株式会社,埼玉県,川口市,西青木１丁目２４番１７－３０８号,,11,203,3320035,,,,,,,2023-10-31,1,,,,,ビーアールエステート,0
121,1030003022888,新規,0,2023-10-31,2023-10-31,新生合同会社,,合同会社,埼玉県,吉川市,吉川団地４番４号３０８,,11,243,3420054,,,,,,,2023-10-31,1,,,,,シンセイ,0
129,1040001130717,新規,0,2023-10-31,2023-10-31,株式会社ｔａｌｅｐｒｏ,,株式会社,千葉県,浦安市,明海６丁目１番１１－１４０５号,,12,227,2790014,,,,,,,2023-10-31,1,,,,,タレプロ,0
151,1080403004903,新規,0,2023-10-31,2023-10-31,合同会社Ｒｙｕｇｕ,,合同会社,静岡県,浜松市南区,恩地町６９番地の６,,22,134,4300814,,,,,,,2023-10-31,1,,,,,リューグー,0
166,1120001259283,新規,0,2023-10-31,2023-10-31,信田成株式会社,,株式会社,大阪府,大阪市大正区,三軒家西３丁目４番１６号中山ビル１０４７,,27,108,5510001,,,,,,,2023-10-31,1,,,,,シンダセイ,0
167,1120001259291,新規,0,2023-10-31,2023-10-31,株式会社ＴＨＡＮＨ　ＮＡＭ,,株式会社,大阪府,大阪市西淀川区,野里１丁目２８番２１号５階５Ｂ号室,,27,113,5550024,,,,,,,2023-10-31,1,,,,,タインナム,0
168,1120001259317,新規,0,2023-10-31,2023-10-31,ドイＨＤ株式会社,,株式会社,大阪府,大阪市東淀川区,西淡路１丁目１４番９号,,27,114,5330031,,,,,,,2023-10-31,1,,,,,ドイエイチディー,0
169,1120001259325,新規,0,2023-10-31,2023-10-31,株式会社ＥＮ　Ｔｅｃｈｗｏｎ　ＪＡＰＡＮ,,株式会社,大阪府,大阪市淀川区,西中島７丁目１番３号,,27,123,5320011,,,,,,,2023-10-31,1,,,,,イーエヌテックウォンジャパン,0
170,1120001259333,新規,0,2023-10-31,2023-10-31,株式会社Ｓｔｉｃｋｅｒｓ　Ｈｉｇｈ,,株式会社,大阪府,大阪市平野区,平野南３丁目１０番１－９０４号,,27,126,5470031,,,,,,,2023-10-31,1,,,,,ステッカーズハイ,0
171,1120001259341,新規,0,2023-10-31,2023-10-31,株式会社ＲＩＺＥ　ＩＮＮＯＶＡＴＩＯＮ,,株式会社,大阪府,大阪市中央区,本町４丁目８番１号ＳＤ本町ビル７０２号,,27,128,5410053,,,,,,,2023-10-31,1,,,,,ライズイノベーション,0
172,1120001259440,新規,0,2023-10-31,2023-10-31,株式会社Ｓａｔｏｍｉキッチン,,株式会社,大阪府,大阪市西区,京町堀３丁目８－１３,,27,106,5500003,,,,,,,2023-10-31,1,,,,,サトミキッチン,0
174,1120003025213,新規,0,2023-10-31,2023-10-31,合同会社フォーユー,,合同会社,大阪府,大阪市淀川区,塚本５丁目１１番１４号シティハウス塚本３１１,,27,123,5320026,,,,,,,2023-10-31,1,,,,,フォーユー,0
175,1120105009782,新規,0,2023-10-31,2023-10-31,一般社団法人ＦＲＥＥＤＯＭ　ａｄｄ　ＭＵＳＩＣ,,その他の設立登記法人,大阪府,堺市堺区,春日通２丁８番地１１,,27,141,5900827,,,,,,,2023-10-31,1,,,,,フリーダムアドミュージック,0
190,1140001132166,新規,0,2023-10-31,2023-10-31,ベスト企画株式会社,,株式会社,兵庫県,尼崎市,東大物町２丁目６番２０号ＡＲＫ２２－１０１号室,,28,202,6600828,,,,,,,2023-10-31,1,,,,,ベストキカク,0
195,1150001026846,新規,0,2023-10-31,2023-10-31,株式会社ｓｉｇｎ,,株式会社,奈良県,橿原市,鳥屋町２９番５号,,29,205,6340822,,,,,,,2023-10-31,1,,,,,サイン,0
196,1160003003025,新規,0,2023-10-31,2023-10-31,合同会社ＭＡＮＥＢＵ,,合同会社,滋賀県,長浜市,唐国町７８９番地,,25,203,5290101,,,,,,,2023-10-31,1,,,,,マネブ,0
213,1190001030844,新規,0,2023-10-31,2023-10-31,グリーンクラフト株式会社,,株式会社,三重県,四日市市,水沢町２４３０番地３,,24,202,5121105,,,,,,,2023-10-31,1,,,,,グリーンクラフト,0
221,1230001020080,新規,0,2023-10-31,2023-10-31,株式会社江川産業,,株式会社,富山県,富山市,日俣２０６番地,,16,201,9300912,,,,,,,2023-10-31,1,,,,,エガワサンギョウ,0
222,1230003002102,新規,0,2023-10-31,2023-10-31,合同会社ウッディ,,合同会社,富山県,高岡市,中川栄町１０番１０－２０２号,,16,202,9330042,,,,,,,2023-10-31,1,,,,,ウッディ,0
237,1290001103508,新規,0,2023-10-31,2023-10-31,株式会社アテコテ,,株式会社,福岡県,福岡市南区,曰佐２丁目４番２２号,,40,134,8111313,,,,,,,2023-10-31,1,,,,,アテコテ,0
241,1290003014521,新規,0,2023-10-31,2023-10-31,合同会社吉本企画,,合同会社,福岡県,福岡市南区,多賀１丁目１１－３２６,,40,134,8150072,,,,,,,2023-10-31,1,,,,,ヨシモトキカク,0
245,1290805009685,新規,0,2023-10-31,2023-10-31,一般社団法人北九州未来づくりラボ,,その他の設立登記法人,福岡県,北九州市八幡西区,黒崎２丁目８番７号,,40,109,8060021,,,,,,,2023-10-31,1,,,,,キタキュウシュウミライヅクリラボ,0
260,1340001026034,新規,0,2023-10-31,2023-10-31,株式会社ヒロキ,,株式会社,鹿児島県,指宿市,西方２００番地９,,46,210,8910311,,,,,,,2023-10-31,1,,,,,ヒロキ,0
272,1360003013425,新規,0,2023-10-31,2023-10-31,ＷＤ合同会社,,合同会社,沖縄県,那覇市,上之屋１丁目１０番１０号,,47,201,9000011,,,,,,,2023-10-31,1,,,,,ダブリューディー,0
281,1380003005602,新規,0,2023-10-31,2023-10-31,合同会社絆,,合同会社,福島県,白河市,向新蔵７２番地３アパートメント原２０３,,07,205,9610925,,,,,,,2023-10-31,1,,,,,キズナ,0
289,1430001090277,新規,0,2023-10-31,2023-10-31,株式会社ＣＲＥＡＤＯＲ,,株式会社,北海道,札幌市中央区,南三条西５丁目１４番地三条美松ビル３Ｆ,,01,101,0600063,,,,,,,2023-10-31,1,,,,,クレアドール,0
290,1430001090302,新規,0,2023-10-31,2023-10-31,株式会社おはようさん,,株式会社,北海道,札幌市清田区,北野七条５丁目２番１０号,,01,110,0040867,,,,,,,2023-10-31,1,,,,,オハヨウサン,0
295,1480001012276,新規,0,2023-10-31,2023-10-31,言語化Ａｒｔ株式会社,,株式会社,徳島県,名西郡神山町,下分字地野４９－１,,36,342,7713421,,,,,,,2023-10-31,1,,,,,ゲンゴカアート,0
296,1500003003130,新規,0,2023-10-31,2023-10-31,合同会社エステートいだい,,合同会社,愛媛県,松山市,下伊台町９４５番地第２,,38,201,7910112,,,,,,,2023-10-31,1,,,,,エステートイダイ,0
299,1700150115039,新規,0,2023-10-31,2023-10-31,Ｚｈｕｈａｉ　Ｈｏｎｇｂａｏ　Ｔｅｃｈｎｏｌｏｇｙ　Ｃｏ．，Ｌｔｄ．,,外国会社等,,,,,,,,Ｂａｏｈｕａ　Ｒｏａｄ，Ｈｅｎｇｑｉｎ　Ｎｅｗ　Ｄｉｓｔｒｉｃｔ　６，Ｒｏｏｍ　１０５　１７６３４　Ｈｅｎｇｑｉｎ　Ｇｕａｎｇｄｏｎｇ　５１９０３０　ＣＮ,,,,,,2023-10-31,1,,,,,ジユウハイホンバオテクノロジーカンパニーリミテツド,0
300,1700150121598,新規,0,2023-10-31,2023-10-31,ＳｈｅｎｚｈｅｎｓｈｉＫａｎｇｌｉｓｈｉｋｅｊｉｙｏｕｘｉａｎｇｏｎｇｓｉ,,外国会社等,,,,,,,,Ｌｏｎｇｇａｎｇｑｕ　Ｎａｎｗａｎｊｉｅｄａｏｄａｎｚｈｕｔｏｕｓｈｅｑｕ　ｋａｎｇｑｉａｏｌｕ１２８ｈａｏＨｏｎｇｄｅｈｕｉｇｏｎｇｙｅｑｕＣ１４０１－２　Ｓｈｅｎｚｈｅｎ,,,,,,2023-10-31,1,,,,,シンセンシカンリシカギユウゲンコウシ,0
301,1700150121607,新規,0,2023-10-31,2023-10-31,ｙｕｅｑｉｎｇｓｈｉｃｈｏｎｇｍｏｊｉｎｃｈｕｋｏｕｙｏｕｘｉａｎｇｏｎｇｓｉ,,外国会社等,,,,,,,,ＣａｉＡｏＣｕｎＱｉｎｇｊｉａｎｇＴｏｗｎＹｕｅｑｉｎｇ　Ｚｈｅｊｉａｎｇ,,,,,,2023-10-31,1,,,,,ユエチンシチョンモジンツウコウユウゲンコウシ,0
302,1700150121623,新規,0,2023-10-31,2023-10-31,ＮＩＮＧＢＯＧＵＮＡＩＴＥＭＡＯＹＩＹＯＵＸＩＡＮＧＯＮＧＳＩ,,外国会社等,,,,,,,,ｚｈｅｊｉａｎｇｓｈｅｎｇ　ｎｉｎｇｂｏｂａｏｓｈｕｉｑｕ　ｘｉｎｇｙｅｄａｄａｏ２ｈａｏＡ８１２ｓｈｉ（ｙｏｎｇｂａｏｓｈａｎｇｗｕｍｉｓｈｕｇｏｎｇｓｉｔｕｏｇｕａｎＡ８５８ｈａｏ）,,,,,,2023-10-31,1,,,,,ニンポウグナイトボウエキユウゲンコウシ,0
333,2010003042086,新規,0,2023-10-31,2023-10-31,天草動鳴山風力発電合同会社,,合同会社,東京都,文京区,本郷５丁目３３番１０号,,13,105,1130033,,,,,,,2023-10-31,1,,,,,アマクサドウメイザンフウリョクハツデン,0
337,2010103002238,新規,0,2023-10-31,2023-10-31,合同会社Ｈａｎｇ,,合同会社,東京都,八王子市,高倉町３０―６,,13,201,1920033,,,,,,,2023-10-31,1,,,,,ハング,0
349,2010401178250,新規,0,2023-10-31,2023-10-31,Ｍａｉｓｏｎ　Ｔｅｃｈ株式会社,,株式会社,東京都,港区,南麻布１丁目３番１４号ル・コフレ６０２,,13,103,1060047,,,,,,,2023-10-31,1,,,,,メゾンテック,0
358,2010501051274,新規,0,2023-10-31,2023-10-31,株式会社Ｈｕｍａｎ　Ｃｒｅａｔｅ,,株式会社,東京都,台東区,松が谷３丁目２０番１０－１００１号Ｌｏｇ浅草ｃｌａｓｓｉｃ,,13,106,1110036,,,,,,,2023-10-31,1,,,,,ヒューマンクリエイト,0
365,2010901054109,新規,0,2023-10-31,2023-10-31,株式会社ライフオフ,,株式会社,東京都,世田谷区,砧２丁目１４番１２ガーデニエール砧レジデンス１１５号室,,13,112,1570073,,,,,,,2023-10-31,1,,,,,ライフオフ,0
379,2011401025566,新規,0,2023-10-31,2023-10-31,株式会社ゼクウ,,株式会社,東京都,板橋区,板橋２丁目６３－４グローリア初穂板橋５０１ＥａｓｙＯｆｆｉｃｅ,,13,119,1730004,,,,,,,2023-10-31,1,,,,,ゼクウ,0
383,2011503005821,新規,0,2023-10-31,2023-10-31,合同会社蔵の場,,合同会社,東京都,北区,王子本町２丁目３０番７号,,13,117,1140022,,,,,,,2023-10-31,1,,,,,クラノバ,0
387,2011703003641,新規,0,2023-10-31,2023-10-31,合同会社定年大家,,合同会社,東京都,江戸川区,東小松川１丁目７－８－６０１ライオンズマンション新小岩第６,,13,123,1320033,,,,,,,2023-10-31,1,,,,,テイネンオオヤ,0
388,2011801043267,新規,0,2023-10-31,2023-10-31,株式会社ベンツメカニック,,株式会社,東京都,足立区,足立１丁目１７番９号,,13,121,1200015,,,,,,,2023-10-31,1,,,,,ベンツメカニック,0
390,2012301013644,新規,0,2023-10-31,2023-10-31,株式会社ＨＡＫＵＡ,,株式会社,東京都,町田市,原町田６丁目２１－１７,,13,209,1940013,,,,,,,2023-10-31,1,,,,,ハクア,0
405,2020001154089,新規,0,2023-10-31,2023-10-31,株式会社ウィスタリア,,株式会社,神奈川県,横浜市西区,浅間町１丁目４番地３ウィザードビル４０２,,14,103,2200072,,,,,,,2023-10-31,1,,,,,ウィスタリア,0
409,2021003013745,新規,0,2023-10-31,2023-10-31,合同会社ＨＯＮＳＨＯ,,合同会社,神奈川県,平塚市,めぐみが丘１丁目３番４号,,14,203,2591220,,,,,,,2023-10-31,1,,,,,ホンショウ,0
425,2030001156828,新規,0,2023-10-31,2023-10-31,株式会社ｏｉｃｋ,,株式会社,埼玉県,本庄市,中央２丁目４番４４号,,11,211,3670053,,,,,,,2023-10-31,1,,,,,オイック,0
426,2030001156885,新規,0,2023-10-31,2023-10-31,株式会社徳栄,,株式会社,埼玉県,さいたま市岩槻区,本丸４丁目２４番１７号,,11,110,3390058,,,,,,,2023-10-31,1,,,,,トクハル,0
434,2030003022846,新規,0,2023-10-31,2023-10-31,１ｘＬＦＴＭ合同会社,,合同会社,埼玉県,久喜市,久喜東５丁目１４番２６号白田陽介税理士事務所内,,11,232,3460016,,,,,,,2023-10-31,1,,,,,ワンスインアライフタイム,0
447,2040005022182,新規,0,2023-10-31,2023-10-31,医療法人社団清雅会,,その他の設立登記法人,千葉県,松戸市,松戸１１８１番地アトレ松戸店５階,,12,207,2710092,,,,,,,2023-10-31,1,,,,,セイガカイ,0
459,2080001025945,新規,0,2023-10-31,2023-10-31,株式会社Ｃ＆Ｙパートナーズ,,株式会社,静岡県,焼津市,栄町３丁目３－３３,,22,212,4250027,,,,,,,2023-10-31,1,,,,,シーアンドワイパートナーズ,0
472,2120001259299,新規,0,2023-10-31,2023-10-31,株式会社クラーシ,,株式会社,大阪府,門真市,岸和田２丁目８－１７,,27,223,5710002,,,,,,,2023-10-31,1,,,,,クラーシ,0
473,2120001259308,新規,0,2023-10-31,2023-10-31,株式会社遠希,,株式会社,大阪府,大阪市中央区,南久宝寺町３丁目４－５加藤ビル４０３号室,,27,128,5410058,,,,,,,2023-10-31,1,,,,,エンキ,0
474,2120001259332,新規,0,2023-10-31,2023-10-31,株式会社ＴＯ　ＳＵＲＰＡＳＳ,,株式会社,大阪府,大阪市中央区,谷町２丁目４番５号,,27,128,5400012,,,,,,,2023-10-31,1,,,,,トゥーサーパス,0
475,2120001259340,新規,0,2023-10-31,2023-10-31,株式会社太和通商,,株式会社,大阪府,大阪市東成区,中本２丁目１番５－７０３号,,27,115,5370022,,,,,,,2023-10-31,1,,,,,タイワツウショウ,0
476,2120001259357,新規,0,2023-10-31,2023-10-31,禹萌株式会社,,株式会社,大阪府,大阪市浪速区,日本橋東３丁目１５－３－４０２室,,27,111,5560006,,,,,,,2023-10-31,1,,,,,ウボウ,0
477,2120001259381,新規,0,2023-10-31,2023-10-31,株式会社ＡｉＪ,,株式会社,大阪府,大阪市淀川区,宮原５丁目３番５２イデア新大阪ビル,,27,123,5320003,,,,,,,2023-10-31,1,,,,,エーアイジェイ,0
481,2120003025204,新規,0,2023-10-31,2023-10-31,易謙合同会社,,合同会社,大阪府,大阪市住吉区,南住吉１丁目８番２２号２階,,27,120,5580041,,,,,,,2023-10-31,1,,,,,イケン,0
482,2120003025212,新規,0,2023-10-31,2023-10-31,ＡＩＷＡＲＥ　Ｊａｐａｎ合同会社,,合同会社,大阪府,大阪市中央区,久太郎町４丁目１番３号,,27,128,5410056,,,,,,,2023-10-31,1,,,,,エーアイウェアジャパン,0
483,2120005023949,新規,0,2023-10-31,2023-10-31,一般社団法人学生ダンサー協会,,その他の設立登記法人,大阪府,大阪市東住吉区,南田辺３丁目７番１１号,,27,121,5460033,,,,,,,2023-10-31,1,,,,,ガクセイダンサーキョウカイ,0
495,2130001075539,新規,0,2023-10-31,2023-10-31,株式会社ディネロス,,株式会社,京都府,長岡京市,泉が丘１８番地１,,26,209,6170846,,,,,,,2023-10-31,1,,,,,ディネロス,0
496,2130001075571,新規,0,2023-10-31,2023-10-31,株式会社ｕｎｉｃｕｂｅ,,株式会社,京都府,京都市右京区,常盤北裏町１０－４,,26,108,6168229,,,,,,,2023-10-31,1,,,,,ユニキューブ,0
497,2130003009081,新規,0,2023-10-31,2023-10-31,合同会社ＮＩＫＫＡ,,合同会社,京都府,京都市左京区,岩倉幡枝町２８１４番地,,26,103,6060015,,,,,,,2023-10-31,1,,,,,ニッカ,0
498,2130003009107,新規,0,2023-10-31,2023-10-31,合同会社ワタビー,,合同会社,京都府,京都市北区,上賀茂畔勝町６１番地２,,26,101,6038044,,,,,,,2023-10-31,1,,,,,ワタビー,0
506,2140001132173,新規,0,2023-10-31,2023-10-31,株式会社Ｚ　ｃｏｍｍｕｎｉｃａｔｉｏｎ,,株式会社,兵庫県,姫路市,飾磨区三宅１丁目１２５番地パレロワイヤル三宅４０４,,28,201,6728048,,,,,,,2023-10-31,1,,,,,ズィーコミュニケーション,0
510,2140003019749,新規,0,2023-10-31,2023-10-31,合同会社ハレアカラー,,合同会社,兵庫県,伊丹市,堀池１丁目７番１７号,,28,207,6640871,,,,,,,2023-10-31,1,,,,,ハレアカラー,0
535,2220001025658,新規,0,2023-10-31,2023-10-31,ＳＵＫＩＭＡ株式会社,,株式会社,石川県,金沢市,堀川新町５番１号アリマビル３Ｆ,,17,201,9200849,,,,,,,2023-10-31,1,,,,,スキマ,0
548,2290001103556,新規,0,2023-10-31,2023-10-31,株式会社ｔｈｉｎｇ,,株式会社,福岡県,福岡市南区,高宮１丁目４番１０号,,40,134,8150083,,,,,,,2023-10-31,1,,,,,シング,0
549,2290001103580,新規,0,2023-10-31,2023-10-31,ヘルプマウス株式会社,,株式会社,福岡県,福岡市博多区,博多駅前２丁目１７番１号博多プレステージ本館１Ｆ,,40,132,8120011,,,,,,,2023-10-31,1,,,,,ヘルプマウス,0
550,2290003014504,新規,0,2023-10-31,2023-10-31,ハンズオン合同会社,,合同会社,福岡県,福岡市博多区,冷泉町５番１５号イツキビル１Ｆ,,40,132,8120039,,,,,,,2023-10-31,1,,,,,ハンズオン,0
551,2290003014553,新規,0,2023-10-31,2023-10-31,ルーモス合同会社,,合同会社,福岡県,福岡市中央区,赤坂１丁目１－１３－４０１,,40,133,8100042,,,,,,,2023-10-31,1,,,,,ルーモス,0
558,2310001018685,新規,0,2023-10-31,2023-10-31,株式会社にこらいふ,,株式会社,長崎県,長崎市,牧島町４０４番地,,42,201,8510114,,,,,,,2023-10-31,1,,,,,ニコライフ,0
560,2310005008724,新規,0,2023-10-31,2023-10-31,Ａワーカー協同組合,,その他の設立登記法人,長崎県,長崎市,魚の町７番２０号,,42,201,8500874,,,,,,,2023-10-31,1,,,,,エーワーカー,0
563,2320001020079,新規,0,2023-10-31,2023-10-31,株式会社Ｊｕｄｙ’ｓ　Ｎｅｔｗｏｒｋ,,株式会社,大分県,別府市,弓ケ浜町５番２０号大分合同新聞社別府総局２階,,44,202,8740927,,,,,,,2023-10-31,1,,,,,ジュディズネットワーク,0
567,2340001026033,新規,0,2023-10-31,2023-10-31,株式会社Ｖｏｙａｇｅｓ,,株式会社,鹿児島県,鹿児島市,平川町８５２番地３,,46,201,8910133,,,,,,,2023-10-31,1,,,,,ヴォヤージュ,0
570,2360001032756,新規,0,2023-10-31,2023-10-31,株式会社快晴,,株式会社,沖縄県,中頭郡中城村,字北上原２８０番地Ａ－３,,47,328,9012423,,,,,,,2023-10-31,1,,,,,カイセイ,0
571,2360003013432,新規,0,2023-10-31,2023-10-31,合同会社Ａｕｇｕｓｔ　ｗａｖｅ,,合同会社,沖縄県,名護市,字稲嶺１４４番地,,47,209,9051142,,,,,,,2023-10-31,1,,,,,オーガストウェーブ,0
577,2380003005601,新規,0,2023-10-31,2023-10-31,ｆｏｒ合同会社,,合同会社,福島県,安達郡大玉村,大山字前皿久保６３番,,07,322,9691301,,,,,,,2023-10-31,1,,,,,エフオーアール,0
579,2390003002151,新規,0,2023-10-31,2023-10-31,合同会社Ｒｅ．,,合同会社,山形県,酒田市,新橋４丁目１３－２６,,06,204,9980864,,,,,,,2023-10-31,1,,,,,アールイー,0
590,2430003015578,新規,0,2023-10-31,2023-10-31,合同会社クローバー企画,,合同会社,北海道,札幌市西区,発寒六条１１丁目６番３０号,,01,107,0630826,,,,,,,2023-10-31,1,,,,,クローバーキカク,0
594,2480001012275,新規,0,2023-10-31,2023-10-31,株式会社モンテリンク,,株式会社,徳島県,徳島市,住吉２丁目９番地４４,,36,201,7700861,,,,,,,2023-10-31,1,,,,,モンテリンク,0
607,2700150121597,新規,0,2023-10-31,2023-10-31,ＨＯＮＧＫＯＮＧ　ＪＩＮＧＣＨＥＮ　Ｅ－ＣＯＭＭＥＲＣＥ　ＣＯ．，ＬＩＭＩＴＥＤ,,外国会社等,,,,,,,,ＲｏｏｍＨ２８ＢｌｋＥＨ１０ｔｈＦｌｏｏｒＧｏｌｄｅｎＢｅａｒｌｎｄＣｔｒ６６－８２　ＣｈａｉＷａｎＫｏｋＳｔ　ＮｅｗＴｅｒｒｉｔｏｒｉｅｓ　ＨｏｎｇＫｏｎｇ,,,,,,2023-10-31,1,,,,,ホンコンジンチェンイーコマースカンパニーリミテッド,0
608,2700150121606,新規,0,2023-10-31,2023-10-31,Ｃｈｏｎｇｑｉｎｇｒｕｉｘｉｕｔｅｃｈｎｏｌｏｇｙ　ｃｏ．ＬＴＤ,,外国会社等,,,,,,,,Ｎｏ．１２－２０　Ｎｏ．４ＹｕｚｈｏｕＲｏａｄ　ＪｉｕｌｏｎｇｐｏＤｉｓｔｒｉｃｔ　Ｃｈｏｎｇｑｉｎｇ,,,,,,2023-10-31,1,,,,,ジュウケイルイシュテクノロジーカンパニーリミテッド,0
609,2700150121622,新規,0,2023-10-31,2023-10-31,ｄｅｎｇｚｈｏｕｓｈｉｂｏｎｉｍａｏｙｉｙｏｕｘｉａｎｇｏｎｇｓｉ,,外国会社等,,,,,,,,ｈｅｎａｎｓｈｅｎｇ　ｎａｎｙａｎｇｓｈｉ　ｄｅｎｇｚｈｏｕｓｈｉ　ｒａｎｇｄｏｎｇｚｈｅｎＳ１０３ｙｕｔｕａｎｊｉｅｌｕｊｉａｏｃｈａｋｏｕｘｉａｎｇｂｅｉ１００ｍｉｌｕｘｉｒａｎｇｃｈｅｎｇｄａｄａｏ９６ｈａｏ,,,,,,2023-10-31,1,,,,,トウシュウシハクニボウエキユウゲンコウシ,0
619,3010001239220,新規,0,2023-10-31,2023-10-31,明賀ホールディングス株式会社,,株式会社,東京都,千代田区,飯田橋４丁目４番１２号ＮＢＣ飯田橋ビル３階,,13,101,1020072,,,,,,,2023-10-31,1,,,,,ミョウガホールディングス,0
620,3010001239682,新規,0,2023-10-31,2023-10-31,ＪＴＡマネジメント株式会社,,株式会社,東京都,中央区,銀座１丁目１２番４号Ｎ＆Ｅ・ＢＬＤ．６Ｆ,,13,102,1040061,,,,,,,2023-10-31,1,,,,,ジェーティーエーマネジメント,0
622,3010003042085,新規,0,2023-10-31,2023-10-31,合同会社イロ,,合同会社,東京都,中央区,日本橋蛎殻町１丁目２４番４号井川ビル２Ｆ,,13,102,1030014,,,,,,,2023-10-31,1,,,,,イロ,0
625,3010005037447,新規,0,2023-10-31,2023-10-31,一般社団法人ＬＥＶＥＣＨＹ１０号,,その他の設立登記法人,東京都,千代田区,紀尾井町３－８第２紀尾井町ビル９０１アクシス綜合会計事務所内,,13,101,1020094,,,,,,,2023-10-31,1,,,,,レベチージュウゴウ,0
635,3010401178167,新規,0,2023-10-31,2023-10-31,佳能投資開発株式会社,,株式会社,東京都,港区,三田２丁目１番２８－５１２号,,13,103,1080073,,,,,,,2023-10-31,1,,,,,カノウトウシカイハツ,0
643,3010503007208,新規,0,2023-10-31,2023-10-31,合同会社ＨＭ興業,,合同会社,東京都,台東区,根岸３丁目６番１号新根岸拾番館６０１号,,13,106,1100003,,,,,,,2023-10-31,1,,,,,エイチエムコウギョウ,0
648,3010703006926,新規,0,2023-10-31,2023-10-31,合同会社Ｒ,,合同会社,東京都,品川区,南品川１丁目８番１９号,,13,109,1400004,,,,,,,2023-10-31,1,,,,,アール,0
651,3010801034481,新規,0,2023-10-31,2023-10-31,株式会社ニューオールドタウン,,株式会社,東京都,大田区,蒲田５丁目３番５号,,13,111,1440052,,,,,,,2023-10-31,1,,,,,ニューオールドタウン,0
654,3010901054099,新規,0,2023-10-31,2023-10-31,株式会社サンクチュアリ,,株式会社,東京都,世田谷区,三宿１丁目８番１０－２２９号,,13,112,1540005,,,,,,,2023-10-31,1,,,,,サンクチュアリ,0
655,3010901054108,新規,0,2023-10-31,2023-10-31,株式会社Ｍａｎａ　Ｏｆｆｉｃｅ,,株式会社,東京都,世田谷区,船橋５丁目２３番２号,,13,112,1560055,,,,,,,2023-10-31,1,,,,,マナオフィス,0
658,3010903008549,新規,0,2023-10-31,2023-10-31,ＬＡＮＤＳＭＩＬＥ合同会社,,合同会社,東京都,世田谷区,代田３丁目３番１３号,,13,112,1550033,,,,,,,2023-10-31,1,,,,,ランズマイル,0
659,3010903008557,新規,0,2023-10-31,2023-10-31,Ｇｏｏｄ　Ｌｉｆｅ合同会社,,合同会社,東京都,世田谷区,玉川３丁目２０－２,,13,112,1580094,,,,,,,2023-10-31,1,,,,,グットライフ,0
672,3011001157916,新規,0,2023-10-31,2023-10-31,株式会社Ｌｏｕｖｒｅ,,株式会社,東京都,渋谷区,神山町２６番４号３Ｆ,,13,113,1500047,,,,,,,2023-10-31,1,,,,,ルーヴル,0
673,3011001157924,新規,0,2023-10-31,2023-10-31,株式会社ｆｏｒ,,株式会社,東京都,渋谷区,東３丁目１番３号,,13,113,1500011,,,,,,,2023-10-31,1,,,,,フォー,0
674,3011001157932,新規,0,2023-10-31,2023-10-31,株式会社Ｋｏｎｔｉｎｕｅ,,株式会社,東京都,渋谷区,道玄坂１丁目１０番８号渋谷道玄坂東急ビル２Ｆ－Ｃ,,13,113,1500043,,,,,,,2023-10-31,1,,,,,コンティニュー,0
679,3011003017812,新規,0,2023-10-31,2023-10-31,クロスゲート合同会社,,合同会社,東京都,渋谷区,代々木２丁目２３番１－２２７号,,13,113,1510053,,,,,,,2023-10-31,1,,,,,クロスゲート,0
680,3011003017853,新規,0,2023-10-31,2023-10-31,合同会社ｇｒｉｓｃｏｌｏｒｙ,,合同会社,東京都,渋谷区,道玄坂１丁目１０番８号渋谷道玄坂東急ビル２Ｆ－Ｃ,,13,113,1500043,,,,,,,2023-10-31,1,,,,,グリスカラリ,0
687,3011101104974,新規,0,2023-10-31,2023-10-31,Ｇｒｅｅｎ　Ｆｉｅｌｄ株式会社,,株式会社,東京都,新宿区,新宿１丁目２３番６号グローイン新宿御苑１１０２号室,,13,104,1600022,,,,,,,2023-10-31,1,,,,,グリーンフィールド,0
690,3011301029138,新規,0,2023-10-31,2023-10-31,株式会社ｔｈｉｎｋ　ｇａｒｄｅｎ,,株式会社,東京都,杉並区,和泉４丁目４０番１２号,,13,115,1680063,,,,,,,2023-10-31,1,,,,,シンクガーデン,0
692,3011401025557,新規,0,2023-10-31,2023-10-31,株式会社Ｅｔｅｒｎａｌ　Ｐｈｏｓ,,株式会社,東京都,板橋区,成増２丁目３６番３５－１０１号メインステージ成増ＩＩ,00132473,13,119,1750094,,,,,,,2023-10-31,1,,,,,エターナルポース,0
700,3011701026718,新規,0,2023-10-31,2023-10-31,株式会社Ｏｎｅ,,株式会社,東京都,江戸川区,平井４丁目４番４号ジョイプラザ平井３０１号室,,13,123,1320035,,,,,,,2023-10-31,1,,,,,ワン,0
704,3012701017896,新規,0,2023-10-31,2023-10-31,株式会社けだま,,株式会社,東京都,東村山市,美住町１丁目２３番地４,,13,213,1890023,,,,,,,2023-10-31,1,,,,,ケダマ,0
705,3012701017921,新規,0,2023-10-31,2023-10-31,株式会社ディアーズワークス,,株式会社,東京都,小平市,花小金井３丁目３２番８－４号,,13,211,1870002,,,,,,,2023-10-31,1,,,,,ディアーズワークス,0
707,3012703002847,新規,0,2023-10-31,2023-10-31,合同会社Ｗｏｍａｎ’ｓ　ｎｅｘｔ　ｓｔａｇｅ,,合同会社,東京都,西東京市,南町６丁目９番３８号,,13,229,1880012,,,,,,,2023-10-31,1,,,,,ウーマンズネクストステージ,0
710,3012803003225,新規,0,2023-10-31,2023-10-31,合同会社ＷＳ　Ｅｎｔｅｒｔａｉｎｍｅｎｔ,,合同会社,東京都,国立市,中２丁目１５番５４号,,13,215,1860004,,,,,,,2023-10-31,1,,,,,ダブルユーエスエンターテインメント,0
712,3013301051550,新規,0,2023-10-31,2023-10-31,株式会社梅英,,株式会社,東京都,豊島区,上池袋３丁目１１－１４－１階,,13,116,1700012,,,,,,,2023-10-31,1,,,,,バイエイ,0
714,3013303006858,新規,0,2023-10-31,2023-10-31,Ｇｏｏｄ　Ｌｉｆｅ　Ｇｌｏｂａｌ　Ｊａｐａｎ合同会社,,合同会社,東京都,豊島区,池袋１丁目２番６－１００７号,,13,116,1700014,,,,,,,2023-10-31,1,,,,,グッドライフグローバルジャパン,0
724,3020001154220,新規,0,2023-10-31,2023-10-31,株式会社アーク,,株式会社,神奈川県,横浜市神奈川区,栗田谷２１番７号サクマハイツ１０１,,14,102,2210804,,,,,,,2023-10-31,1,,,,,アーク,0
730,3021001080613,新規,0,2023-10-31,2023-10-31,株式会社デライト湘南,,株式会社,神奈川県,平塚市,代官町１６－３２－１,,14,203,2540807,,,,,,,2023-10-31,1,,,,,デライトショウナン,0
741,3030001156827,新規,0,2023-10-31,2023-10-31,株式会社おうちドクター,,株式会社,埼玉県,鶴ヶ島市,大字藤金８８２番地２０,,11,241,3502206,,,,,,,2023-10-31,1,,,,,オウチドクター,0
747,3030003022894,新規,0,2023-10-31,2023-10-31,合同会社ＫＡＺＵ,,合同会社,埼玉県,春日部市,増富５４５番地１５,,11,214,3440041,,,,,,,2023-10-31,1,,,,,カズ,0
750,3040001130723,新規,0,2023-10-31,2023-10-31,株式会社システムエキスパートソリューション,,株式会社,千葉県,松戸市,松飛台６５番地の１２,,12,207,2702214,,,,,,,2023-10-31,1,,,,,システムエキスパートソリューション,0
757,3050001053717,新規,0,2023-10-31,2023-10-31,株式会社ウロコサン,,株式会社,茨城県,神栖市,波崎８２４０番地,,08,232,3140408,,,,,,,2023-10-31,1,,,,,ウロコサン,0
767,3080001025944,新規,0,2023-10-31,2023-10-31,株式会社コネクト・スマイル,,株式会社,静岡県,静岡市駿河区,有東３丁目１２番１６号シェアオフィス有東２０５号,,22,102,4228032,,,,,,,2023-10-31,1,,,,,コネクトスマイル,0
770,3080101024301,新規,0,2023-10-31,2023-10-31,株式会社雅設計,,株式会社,静岡県,沼津市,高島町２３番１２号プランシェ沼津高島町１０１,,22,203,4100056,,,,,,,2023-10-31,1,,,,,ミヤビセッケイ,0
771,3080401026815,新規,0,2023-10-31,2023-10-31,株式会社ＱＵＡＬＩ　ＴＥＣＨ,,株式会社,静岡県,浜松市中区,板屋町１０２番地の１５,,22,131,4300928,,,,,,,2023-10-31,1,,,,,クオリテック,0
785,3120001259281,新規,0,2023-10-31,2023-10-31,株式会社ＫＯＲＩＺＯＮ,,株式会社,大阪府,大阪市大正区,三軒家西３丁目４番１６号中山ビル１０３３,,27,108,5510001,,,,,,,2023-10-31,1,,,,,コリゾン,0
786,3120001259323,新規,0,2023-10-31,2023-10-31,ＭＵＣ株式会社,,株式会社,大阪府,大阪市北区,芝田２丁目８番１１号共栄ビル３階,,27,127,5300012,,,,,,,2023-10-31,1,,,,,エムユーシー,0
787,3120001259348,新規,0,2023-10-31,2023-10-31,塔羅株式会社,,株式会社,大阪府,大阪市西成区,千本南１丁目１５番６号,,27,122,5570055,,,,,,,2023-10-31,1,,,,,トウラ,0
788,3120001259356,新規,0,2023-10-31,2023-10-31,株式会社Ｍ‐Ｓｐｏｒｔｓ,,株式会社,大阪府,寝屋川市,南水苑町２６番１０号,,27,215,5720826,,,,,,,2023-10-31,1,,,,,エムスポーツ,0
789,3120001259364,新規,0,2023-10-31,2023-10-31,ＩＭ株式会社,,株式会社,大阪府,大阪市鶴見区,放出東３丁目３５番２８－１４０２号,,27,124,5380044,,,,,,,2023-10-31,1,,,,,アイエム,0
790,3120001259372,新規,0,2023-10-31,2023-10-31,株式会社恵澤商事,,株式会社,大阪府,大阪市生野区,中川西１丁目１７番１０号テンシンビル２Ｂ,,27,116,5440032,,,,,,,2023-10-31,1,,,,,エザワショウジ,0
791,3120001259380,新規,0,2023-10-31,2023-10-31,銀海株式会社,,株式会社,大阪府,大阪市中央区,船越町１丁目５－８－４０７,,27,128,5400036,,,,,,,2023-10-31,1,,,,,ギンカイ,0
792,3120001259447,新規,0,2023-10-31,2023-10-31,株式会社ＬＦＰ,,株式会社,大阪府,大阪市北区,梅田１丁目１１番４号大阪駅前第４ビル９階９２３－１６８４号,,27,127,5300001,,,,,,,2023-10-31,1,,,,,エルエフピー,0
793,3120003025228,新規,0,2023-10-31,2023-10-31,Ｓ＆Ｋグループ合同会社,,合同会社,大阪府,大阪市平野区,平野西５丁目７番５－２０２号,,27,126,5470033,,,,,,,2023-10-31,1,,,,,エスアンドケイグループ,0
796,3120101068418,新規,0,2023-10-31,2023-10-31,株式会社Ｎａｋａｍａ,,株式会社,大阪府,堺市北区,百舌鳥本町１丁１８番地１百舌鳥本町住宅６棟３０１号室,,27,146,5918036,,,,,,,2023-10-31,1,,,,,ナカマ,0
799,3120103005492,新規,0,2023-10-31,2023-10-31,合同会社ビズモア,,合同会社,大阪府,富田林市,須賀２丁目１６番１８号,,27,214,5840062,,,,,,,2023-10-31,1,,,,,ビズモア,0
804,3130001075570,新規,0,2023-10-31,2023-10-31,株式会社ＧＡＭＢＡ,,株式会社,京都府,京都市下京区,朱雀宝蔵町４４番地協栄ビル２階京都朱雀スタジオ,,26,106,6008846,,,,,,,2023-10-31,1,,,,,ガンバ,0
805,3130001075579,新規,0,2023-10-31,2023-10-31,京旅株式会社,,株式会社,京都府,京都市南区,梅小路通大宮東人古御旅町２１８－１,,26,107,6010000,,,,,,,2023-10-31,1,,,,,キョウリョ,0
812,3140001132172,新規,0,2023-10-31,2023-10-31,株式会社Ｄｒ．メッドテックコーポレーション,,株式会社,兵庫県,神戸市北区,柏尾台１４番地の４,,28,109,6511255,,,,,,,2023-10-31,1,,,,,ドクターメッドテックコーポレーション,0
815,3170003001942,新規,0,2023-10-31,2023-10-31,合同会社ＹＵ＆Ｅ,,合同会社,和歌山県,和歌山市,松島１７０－２１フィオーレ平柳１０２,,30,201,6408304,,,,,,,2023-10-31,1,,,,,ユーアンドイー,0
823,3180005020411,新規,0,2023-10-31,2023-10-31,一般社団法人綜合継承の会,,その他の設立登記法人,愛知県,名古屋市守山区,瀬古東１丁目５１８番地,,23,113,4630090,,,,,,,2023-10-31,1,,,,,ソウゴウケイショウノカイ,0
825,3180301037951,新規,0,2023-10-31,2023-10-31,株式会社かわなケア,,株式会社,愛知県,安城市,住吉町６丁目１番地１サンビラ住吉２０３,,23,212,4460072,,,,,,,2023-10-31,1,,,,,カワナケア,0
828,3200003006137,新規,0,2023-10-31,2023-10-31,合同会社てすら・あしすら,,合同会社,岐阜県,美濃加茂市,川合町３丁目４番１６号,,21,211,5050022,,,,,,,2023-10-31,1,,,,,テスラアシスラ,0
836,3240003006397,新規,0,2023-10-31,2023-10-31,合同会社Ｆ．ＳＥＥＤ,,合同会社,広島県,広島市佐伯区,五月が丘２丁目１５番１８号,,34,108,7315101,,,,,,,2023-10-31,1,,,,,エフシード,0
838,3290001103571,新規,0,2023-10-31,2023-10-31,株式会社Ｒｅ‐Ｗａｉｎ,,株式会社,福岡県,福岡市博多区,博多駅南３丁目１７番２０号ベーシックビル博多８０２,,40,132,8120016,,,,,,,2023-10-31,1,,,,,リウェイン,0
845,3310005008723,新規,0,2023-10-31,2023-10-31,大村グローバル人材支援協同組合,,その他の設立登記法人,長崎県,大村市,本町３８７番地１,,42,205,8560832,,,,,,,2023-10-31,1,,,,,オオムラグローバルジンザイシエン,0
848,3330003010051,新規,0,2023-10-31,2023-10-31,合同会社楽園,,合同会社,熊本県,天草郡苓北町,志岐４４７番地,,43,531,8632503,,,,,,,2023-10-31,1,,,,,ラクエン,0
851,3360001032755,新規,0,2023-10-31,2023-10-31,東拓貿易株式会社,,株式会社,沖縄県,那覇市,前島２丁目１５番１０号Ａｓｓｅｔｓ前島２０Ａ,,47,201,9000016,,,,,,,2023-10-31,1,,,,,トウタクボウエキ,0
868,3430001090317,新規,0,2023-10-31,2023-10-31,株式会社オフィスＫ,,株式会社,北海道,札幌市北区,太平十条７丁目２番１４号,,01,102,0028010,,,,,,,2023-10-31,1,,,,,オフィスケイ,0
870,3430003015577,新規,0,2023-10-31,2023-10-31,合同会社Ｆアセット,,合同会社,北海道,札幌市北区,屯田七条２丁目１３－１２,,01,102,0020857,,,,,,,2023-10-31,1,,,,,エフアセット,0
871,3430005014825,新規,0,2023-10-31,2023-10-31,一般社団法人ひとのわ,,その他の設立登記法人,北海道,札幌市中央区,宮の森一条６丁目５番１８－１０１号,,01,101,0640951,,,,,,,2023-10-31,1,,,,,ヒトノワ,0
874,3480001012274,新規,0,2023-10-31,2023-10-31,株式会社スダチ,,株式会社,徳島県,徳島市,栄町３丁目２３－１－３０３,,36,201,7700921,,,,,,,2023-10-31,1,,,,,スダチ,0
879,3700150121596,新規,0,2023-10-31,2023-10-31,ＳｈａｎｇＨａｉＱｉＹａｎｇＭａｏＹｉＹｏｕＸｉａｎＧｏｎｇＳｉ,,外国会社等,,,,,,,,Ｒｏｏｍ２８７３Ｎｏ．３１０８ＦｅｎｇｚｈｅＲｏａｄＱｉｎｇｃｕｎＴｏｗｎ　ＦｅｎｇｘｉａｎＤｉｓｔｒｉｃｔ　Ｓｈａｎｇｈａｉ,,,,,,2023-10-31,1,,,,,シャンハイチヤンマオイユウゲンコウシ,0
880,3700150121605,新規,0,2023-10-31,2023-10-31,ｓｈａｎｘｉｊｉｎｘｉｎｇｓｈｉｇｕａｎｇｇａｏｙｏｕｘｉａｎｇｏｎｇｓｉ,,外国会社等,,,,,,,,Ｎｏ３０１Ａ６３　３ｒｄＦｌｏｏｒＢｕｉｌｄｉｎｇＡＨｕａｊｉｎｇＢｕｓｉｎｅｓｓＰｌａｚａＮｏ２０ＦｅｎｇｈｕｉＳｏｕｔｈＲｏａｄＨｉｇｈｔｅｃｈＺｏｎｅ　ＸｉａｎＣｉｔｙ　ＳｈａａｎｘｉＰｒｏｖｉｎｃｅ,,,,,,2023-10-31,1,,,,,センセイシンコウジコウコクユウゲンコウシ,0
881,3700150121621,新規,0,2023-10-31,2023-10-31,Ｓｕｎｗｉｎｇ　Ｉｎｄｕｓｔｒｉｅｓ　Ｌｔｄ,,外国会社等,,,,,,,,Ｂｕｉｌｄｉｎｇ２Ｎｏ．６ＧｕａｎｇｈｕａＥａｓｔＳｔｒｅｅｔＮａｎｊｉｎｇ,,,,,,2023-10-31,1,,,,,サンウィングインダストリーズリミテッド,0
893,4010001239640,新規,0,2023-10-31,2023-10-31,元聯株式会社,,株式会社,東京都,千代田区,丸の内２丁目２番１号,,13,101,1000005,,,,,,,2023-10-31,1,,,,,ゲンレン,0
894,4010001239649,新規,0,2023-10-31,2023-10-31,株式会社Ｅｘｃｅｅｄ　Ｊａｐａｎ,,株式会社,東京都,中央区,日本橋２丁目１番３号アーバンネット日本橋二丁目ビル１０階,,13,102,1030027,,,,,,,2023-10-31,1,,,,,エクシードジャパン,0
909,4010401178232,新規,0,2023-10-31,2023-10-31,ＭＡＶＩＳＴＡ株式会社,,株式会社,東京都,港区,芝浦４丁目４－２７三田ナショナルコート１３１４,,13,103,1080023,,,,,,,2023-10-31,1,,,,,マビスタ,0
918,4010601064059,新規,0,2023-10-31,2023-10-31,株式会社ＤＲ　Ｍｕｓｉｃ　Ｊａｐａｎ,,株式会社,東京都,江東区,青海２丁目７番４号ｔｈｅＳＯＨＯ１１０９,,13,108,1350064,,,,,,,2023-10-31,1,,,,,ディーアールミュージックジャパン,0
919,4010701045066,新規,0,2023-10-31,2023-10-31,株式会社エルプリューム,,株式会社,東京都,品川区,大崎１丁目６番５号大崎ニューシティ２階,,13,109,1410032,,,,,,,2023-10-31,1,,,,,エルプリューム,0
920,4010703006925,新規,0,2023-10-31,2023-10-31,合同会社ＡＣ管財,,合同会社,東京都,品川区,南大井１丁目２０番１２－４０１号,,13,109,1400013,,,,,,,2023-10-31,1,,,,,エーシーカンザイ,0
921,4010705003557,新規,0,2023-10-31,2023-10-31,一般社団法人国民防犯対策機構,,その他の設立登記法人,東京都,品川区,上大崎３丁目１４番１号,,13,109,1410021,,,,,,,2023-10-31,1,,,,,コクミンボウハンタイサクキコウ,0
930,4011001157915,新規,0,2023-10-31,2023-10-31,ＹＺキャピタル株式会社,,株式会社,東京都,目黒区,下目黒１丁目５番１９－７０８号,,13,110,1530064,,,,,,,2023-10-31,1,,,,,ワイズキャピタル,0
931,4011001157980,新規,0,2023-10-31,2023-10-31,株式会社デスク,,株式会社,東京都,渋谷区,渋谷２丁目１９番１５号宮益坂ビルディング６０９,,13,113,1500002,,,,,,,2023-10-31,1,,,,,デスク,0
935,4011003017828,新規,0,2023-10-31,2023-10-31,Ｆ＆Ｐ合同会社,,合同会社,東京都,渋谷区,大山町２５－１２－３１３,,13,113,1510065,,,,,,,2023-10-31,1,,,,,エフアンドピー,0
938,4011103013677,新規,0,2023-10-31,2023-10-31,ＪＢＬ　Ｍｏｔｏｒ　Ｉｎｄｕｓｔｒｉｅｓ合同会社,,合同会社,東京都,新宿区,新宿２丁目５番３号ＡＭビル７階,,13,104,1600022,,,,,,,2023-10-31,1,,,,,ジェイビーエルモーターインダストリーズ,0
940,4011203004213,新規,0,2023-10-31,2023-10-31,合同会社イーグル,,合同会社,東京都,中野区,弥生町１丁目１９－１,,13,114,1640013,,,,,,,2023-10-31,1,,,,,イーグル,0
941,4011401025572,新規,0,2023-10-31,2023-10-31,株式会社ＳＫＩＰ,,株式会社,東京都,板橋区,成増１丁目２８番１５号林屋ビル９０７号室,,13,119,1750094,,,,,,,2023-10-31,1,,,,,スキップ,0
957,4012701017920,新規,0,2023-10-31,2023-10-31,カレイドエクス株式会社,,株式会社,東京都,東久留米市,学園町２丁目１８番１号,,13,222,2030021,,,,,,,2023-10-31,1,,,,,カレイドエクス,0
966,4013301051558,新規,0,2023-10-31,2023-10-31,ＤＩＮＨ　ＣＨＵＣ　ＴＲＡＶＥＬ株式会社,,株式会社,東京都,豊島区,南大塚２丁目４０番１１号,,13,116,1700005,,,,,,,2023-10-31,1,,,,,ディンチュックトラベル,0
970,4020001154112,新規,0,2023-10-31,2023-10-31,広田電気株式会社,,株式会社,神奈川県,横浜市中区,柏葉９６番地１７,,14,104,2310866,,,,,,,2023-10-31,1,,,,,ヒロタデンキ,0
971,4020001154203,新規,0,2023-10-31,2023-10-31,株式会社阿部工業,,株式会社,神奈川県,横浜市鶴見区,平安町１丁目５２番地１１パールハイム３０１,,14,101,2300031,,,,,,,2023-10-31,1,,,,,アベコウギョウ,0
980,4021003013735,新規,0,2023-10-31,2023-10-31,Ｌ＆Ｆ日本ＭＯＴＯＲＳ合同会社,,合同会社,神奈川県,座間市,相武台３丁目３１－１４号ＯＦＦＩＣＥ－Ａ,,14,216,2520011,,,,,,,2023-10-31,1,,,,,エルアンドエフニホンモータス,0
988,4030001156883,新規,0,2023-10-31,2023-10-31,ＭＯＮＧＵＹＳ株式会社,,株式会社,埼玉県,飯能市,柳町７番１０号ＫＩＶ商会館飯能Ｂ号室,,11,209,3570035,,,,,,,2023-10-31,1,,,,,モンガイズ,0
994,4030003022869,新規,0,2023-10-31,2023-10-31,合同会社ＧＹＰＳＥＡ,,合同会社,埼玉県,朝霞市,膝折町２丁目１３番４５号アーバンサンファミーユ１号室,,11,227,3510014,,,,,,,2023-10-31,1,,,,,ジップシー,0
1005,4040005022180,新規,0,2023-10-31,2023-10-31,一般社団法人そら,,その他の設立登記法人,千葉県,いすみ市,苅谷５５９番地２,,12,238,2980123,,,,,,,2023-10-31,1,,,,,ソラ,0
1006,4050001053749,新規,0,2023-10-31,2023-10-31,株式会社ｖｅｇｇｉｅｓ,,株式会社,茨城県,古河市,上大野１９５５番地９,,08,204,3060201,,,,,,,2023-10-31,1,,,,,ヴェジーズ,0
1018,4080403004900,新規,0,2023-10-31,2023-10-31,合同会社ｙａｍａｋｅｎ,,合同会社,静岡県,浜松市中区,鍛冶町１４０,,22,131,4300933,,,,,,,2023-10-31,1,,,,,ヤマケン,0
1021,4110001037943,新規,0,2023-10-31,2023-10-31,株式会社Ｊ・Ｌｉｎｋ,,株式会社,新潟県,長岡市,豊田町７番地１,,15,202,9400836,,,,,,,2023-10-31,1,,,,,ジェイリンク,0
1035,4120001259165,新規,0,2023-10-31,2023-10-31,株式会社ＣＨＡＯＳ　ＥＮＴＥＲＴＡＩＮＭＥＮＴ,,株式会社,大阪府,大阪市淀川区,木川西３丁目３番２３号シンコーハイツ５００号,,27,123,5320013,,,,,,,2023-10-31,1,,,,,カオスエンターテイメント,0
1036,4120001259231,新規,0,2023-10-31,2023-10-31,守禾株式会社,,株式会社,大阪府,大阪市中央区,高津３丁目８－１９スターレジデンス黒門４０１号室,,27,128,5420072,,,,,,,2023-10-31,1,,,,,シュカ,0
1037,4120001259256,新規,0,2023-10-31,2023-10-31,安盛株式会社,,株式会社,大阪府,大阪市淀川区,木川西１丁目２－５ライオンズマンション南方２０８号,,27,123,5320013,,,,,,,2023-10-31,1,,,,,ヤスモリ,0
1038,4120001259289,新規,0,2023-10-31,2023-10-31,株式会社ＣｏＬ,,株式会社,大阪府,大阪市淀川区,田川北１丁目８番３－３０１号,,27,123,5320021,,,,,,,2023-10-31,1,,,,,コール,0
1039,4120001259314,新規,0,2023-10-31,2023-10-31,株式会社Ｃｏｕｌｅｕｒ,,株式会社,大阪府,寝屋川市,寿町５０－２２,,27,215,5720029,,,,,,,2023-10-31,1,,,,,クルール,0
1040,4120001259322,新規,0,2023-10-31,2023-10-31,岡市商事株式会社,,株式会社,大阪府,枚方市,茄子作３丁目３３番３号,,27,210,5730071,,,,,,,2023-10-31,1,,,,,オカイチショウジ,0
1041,4120001259330,新規,0,2023-10-31,2023-10-31,株式会社トリスルジャパンコーポレーション,,株式会社,大阪府,大阪市港区,市岡１丁目１５番１２号,,27,107,5520012,,,,,,,2023-10-31,1,,,,,トリスルジャパンコーポレーション,0
1042,4120001259347,新規,0,2023-10-31,2023-10-31,株式会社ｅｎ‐ｆｒｅｅ,,株式会社,大阪府,大阪市北区,天神橋８丁目１０番２－３０３号,,27,127,5310041,,,,,,,2023-10-31,1,,,,,エンフリー,0
1043,4120001259371,新規,0,2023-10-31,2023-10-31,西西里亜娜株式会社,,株式会社,大阪府,大阪市東住吉区,鷹合４丁目２１番１６号３Ｆ－Ｆ,,27,121,5460014,,,,,,,2023-10-31,1,,,,,サイサイリアナ,0
1049,4120003025144,新規,0,2023-10-31,2023-10-31,合同会社スターワークス,,合同会社,大阪府,大阪市東淀川区,柴島２丁目１５番５号,,27,114,5330024,,,,,,,2023-10-31,1,,,,,スターワークス,0
1050,4120003025210,新規,0,2023-10-31,2023-10-31,平喜合同会社,,合同会社,大阪府,大阪市淀川区,三津屋南２丁目５番１５号,,27,123,5320035,,,,,,,2023-10-31,1,,,,,ヘイキ,0
1051,4120003025219,新規,0,2023-10-31,2023-10-31,合同会社Ｌ．Ｊ,,合同会社,大阪府,大阪市北区,曾根崎新地１丁目１１番２４－４０３号,,27,127,5300002,,,,,,,2023-10-31,1,,,,,エルジェイ,0
1052,4120003025227,新規,0,2023-10-31,2023-10-31,合同会社Ｂａｉ‐Ｏ,,合同会社,大阪府,大阪市中央区,道頓堀１丁目東４番１２号,,27,128,5420071,,,,,,,2023-10-31,1,,,,,バイオー,0
1064,4122003002718,新規,0,2023-10-31,2023-10-31,合同会社吉田工業,,合同会社,大阪府,四條畷市,大字岡山２２８番地の４,,27,229,5750004,,,,,,,2023-10-31,1,,,,,ヨシダコウギョウ,0
1067,4130003009088,新規,0,2023-10-31,2023-10-31,ｍｇｎ　ａｃｃｏｕｎｔｉｎｇ合同会社,,合同会社,京都府,長岡京市,うぐいす台１５１－１,,26,209,6170815,,,,,,,2023-10-31,1,,,,,エムジーエヌアカウンティング,0
1074,4140001132139,新規,0,2023-10-31,2023-10-31,株式会社オーアンドティー,,株式会社,兵庫県,尼崎市,宮内町１丁目２０番地,,28,202,6600877,,,,,,,2023-10-31,1,,,,,オーアンドティー,0
1077,4140003019747,新規,0,2023-10-31,2023-10-31,合同会社Ｓｔａｒ　Ｌｉｇｈｔ,,合同会社,兵庫県,尼崎市,武庫之荘２丁目２－８リブレカーサ武庫之荘４０２,,28,202,6610035,,,,,,,2023-10-31,1,,,,,スターライト,0
1090,4180001158683,新規,0,2023-10-31,2023-10-31,株式会社バモス,,株式会社,愛知県,名古屋市西区,平中町１５０番地,,23,104,4520843,,,,,,,2023-10-31,1,,,,,バモス,0
1091,4180001158700,新規,0,2023-10-31,2023-10-31,株式会社デポラリツェ,,株式会社,愛知県,長久手市,岩作高山１２番地１８,,23,238,4801103,,,,,,,2023-10-31,1,,,,,デポラリツェ,0
1092,4180001158709,新規,0,2023-10-31,2023-10-31,株式会社福一建設,,株式会社,愛知県,春日井市,下屋敷町字知光院４１番地１サンシャイン６６　２０１号,,23,206,4860906,,,,,,,2023-10-31,1,,,,,フクイチケンセツ,0
1093,4180001158717,新規,0,2023-10-31,2023-10-31,株式会社テラ・ヌォーヴァ,,株式会社,愛知県,小牧市,大字岩崎１８番地１,,23,219,4850011,,,,,,,2023-10-31,1,,,,,,0
1103,4200003006136,新規,0,2023-10-31,2023-10-31,合同会社ターゲット,,合同会社,岐阜県,美濃加茂市,太田町２５９１番地１朝日プラザ（ステーションコア）５０５,,21,211,5050041,,,,,,,2023-10-31,1,,,,,ターゲット,0
1111,4240003006396,新規,0,2023-10-31,2023-10-31,合同会社彩音,,合同会社,広島県,庄原市,東城町川東１４２６番地,,34,210,7295121,,,,,,,2023-10-31,1,,,,,サイオン,0
1113,4250001020373,新規,0,2023-10-31,2023-10-31,フジヤマックス株式会社,,株式会社,山口県,岩国市,御庄１丁目１０４番地２－１０２,,35,208,7410083,,,,,,,2023-10-31,1,,,,,フジヤマックス,0
1118,4290003014551,新規,0,2023-10-31,2023-10-31,合同会社幸,,合同会社,福岡県,福岡市東区,西戸崎５丁目４番１４号,,40,131,8110321,,,,,,,2023-10-31,1,,,,,サチ,0
1121,4290805009682,新規,0,2023-10-31,2023-10-31,特定非営利活動法人おんがおたすけ隊,,その他の設立登記法人,福岡県,遠賀郡遠賀町,遠賀川３丁目３２番７号,,40,384,8114307,,,,,,,2023-10-31,1,,,,,オンガオタスケタイ,0
1127,4320003004219,新規,0,2023-10-31,2023-10-31,合同会社二豊社会事業社,,合同会社,大分県,豊後大野市,犬飼町田原１０５９番地,,44,212,8797305,,,,,,,2023-10-31,1,,,,,ニホウシャカイジギョウシャ,0
1129,4330003010050,新規,0,2023-10-31,2023-10-31,合同会社ｖｉｖｉａｎ,,合同会社,熊本県,熊本市中央区,下通１丁目９番１６号ブロッサムビル下通ＩＩＩ２階,00132479,43,101,8600807,,,,,,,2023-10-31,1,,,,,ヴィヴィアン,0
1132,4340001026031,新規,0,2023-10-31,2023-10-31,株式会社松元農園,,株式会社,鹿児島県,肝属郡肝付町,後田５５７１番地３,,46,492,8931203,,,,,,,2023-10-31,1,,,,,マツモトノウエン,0
1135,4350001018639,新規,0,2023-10-31,2023-10-31,株式会社ＹＭフードサービス,,株式会社,宮崎県,日南市,中央通１丁目２番地１,,45,204,8870021,,,,,,,2023-10-31,1,,,,,ワイエムフードサービス,0
1139,4360005006928,新規,0,2023-10-31,2023-10-31,一般社団法人トリプルヘリックス,,その他の設立登記法人,沖縄県,国頭郡今帰仁村,字兼次７８６番,,47,306,9050427,,,,,,,2023-10-31,1,,,,,トリプルヘリックス,0
1158,4420001018466,新規,0,2023-10-31,2023-10-31,青い森斎場株式会社,,株式会社,青森県,青森市,本町１丁目４番１６号,,02,201,0300802,,,,,,,2023-10-31,1,,,,,アオイモリサイジョウ,0
1162,4430001090258,新規,0,2023-10-31,2023-10-31,株式会社Ｐｉｎｅ　ｔｒｅｅ,,株式会社,北海道,札幌市西区,西野七条４丁目２番１９号,,01,107,0630037,,,,,,,2023-10-31,1,,,,,パインツリー,0
1163,4430001090290,新規,0,2023-10-31,2023-10-31,株式会社グッドストーン,,株式会社,北海道,札幌市南区,真駒内幸町１丁目１番１３号,,01,106,0050014,,,,,,,2023-10-31,1,,,,,グッドストーン,0
1164,4430001090299,新規,0,2023-10-31,2023-10-31,株式会社野口電設,,株式会社,北海道,札幌市厚別区,上野幌一条１丁目９番８号,,01,108,0040031,,,,,,,2023-10-31,1,,,,,ノグチデンセツ,0
1165,4430001090308,新規,0,2023-10-31,2023-10-31,株式会社虹信国際,,株式会社,北海道,札幌市西区,発寒四条１丁目６－１１,,01,107,0630824,,,,,,,2023-10-31,1,,,,,コウシンコクサイ,0
1169,4430003015576,新規,0,2023-10-31,2023-10-31,合同会社Ｌａｇｏｍ,,合同会社,北海道,札幌市手稲区,明日風５丁目５番２５号,,01,109,0060861,,,,,,,2023-10-31,1,,,,,ラーゴム,0
1178,4700150112677,新規,0,2023-10-31,2023-10-31,Ｈｏｍｅｂｕｒｇ　Ｌｉｍｉｔｅｄ,,外国会社等,,,,,,,,８Ｆ－１２，Ｎｏ．６　Ｌｎ．１８０　ＳＥＣ　６，ＭＩＮＱＵＡＮ　Ｅ　ＲＤ，ＮＥＩＨＵＤＩＳＴ，ＴＡＩＰＡＩ　ＣＩＴＹ　１１４，ＴＡＩＷＡＮ,,,,,,2023-10-31,1,,,,,ホームバーグリミテツド,0
1179,4700150121595,新規,0,2023-10-31,2023-10-31,Ｙｉｎｇｋｏｕｔａｉｌａｉｓｈａｎｇｍａｏｙｏｕｘｉａｎｇｏｎｇｓｉ,,外国会社等,,,,,,,,ｌｉａｏｎｉｎｇｓｈｅｎｇ　ｙｉｎｇｋｏｕｓｈｉ　ｂａｙｕｑｕａｎｑｕｈｏｎｇｈａｉｘｉｎｑｕＦｑｕ１８９＃ｍｅｎｓｈｉｅｒｌｏｕ,,,,,,2023-10-31,1,,,,,エイコウタイライシャンマオユウゲンコウシ,0
1180,4700150121604,新規,0,2023-10-31,2023-10-31,Ｓｈｅｎｚｈｅｎｓｈｉｄｅｙｉｋｅｊｉｙｏｕｘｉａｎｇｏｎｇｓｉ,,外国会社等,,,,,,,,Ｒｏｏｍ３１０ＬａｎｇｓｈａｎｇｅＮａｎｓｈａｎＹｕｎｇｕＩｎｎｏｖａｔｉｏｎＩｎｄｕｓｔｒｉａｌＰａｒｋＮｏ４０９３ＬｉｕｘｉａｎＡｖｅｎｕｅＰｉｎｇｓｈａｎＣｏｍｍｕｎｉｔｙＴａｏｙｕａｎＳｔｒｅｅｔＮａｎｓｈａｎＤｉｓｔｒｉｃｔ　Ｓｈｅｎｚｈｅｎ,,,,,,2023-10-31,1,,,,,シンセンシデイカギユウゲンコウシ,0
1181,4700150121612,新規,0,2023-10-31,2023-10-31,千葉都心イルミネーション実行委員会,,その他,千葉県,千葉市中央区,中央２丁目５－１,,12,101,2600013,,,,,,,2023-10-31,1,,,,,チバトシンイルミネーションジッコウイインカイ,0
1182,4700150121620,新規,0,2023-10-31,2023-10-31,ｆｕｇｏｕｘｉａｎｃｈａｏｙｕｅｓｈａｎｇｍａｏｙｏｕｘｉａｎｇｏｎｇｓｉ,,外国会社等,,,,,,,,ｙｕｚｈｕａｎｇｃｕｎ６４ｈａｏ　ｈｅｎａｎｓｈｅｎｇ　ｚｈｏｕｋｏｕｓｈｉ　ｆｕｇｏｕｘｉａｎｃａｏｌｉｘｉａｎｇｄｉａｏｗａｎｘｉｎｇｚｈｅｎｇｃｕｎ,,,,,,2023-10-31,1,,,,,フコウケンチョウエツシャンマオユウゲンコウシ,0
1196,5010001239648,新規,0,2023-10-31,2023-10-31,株式会社絆Ｆａｍｉｌｙ,,株式会社,東京都,中央区,銀座１丁目１２番４号,,13,102,1040061,,,,,,,2023-10-31,1,,,,,キズナファミリー,0
1206,5010401178157,新規,0,2023-10-31,2023-10-31,ＩＰ．ＴＯＷＮ株式会社,,株式会社,東京都,港区,赤坂４丁目１３番５号赤坂オフィスハイツ,,13,103,1070052,,,,,,,2023-10-31,1,,,,,アイピータウン,0
1207,5010401178223,新規,0,2023-10-31,2023-10-31,ＳｌｅｅｐｉｎｇＢｅａｕｔｙ株式会社,,株式会社,東京都,港区,北青山１丁目３番１号アールキューブ青山３階,,13,103,1070061,,,,,,,2023-10-31,1,,,,,スリーピングビューティ,0
1208,5010401178248,新規,0,2023-10-31,2023-10-31,株式会社ＧＲＯＷＡＩ,,株式会社,東京都,港区,南麻布４丁目１１番１８－３０４号,,13,103,1060047,,,,,,,2023-10-31,1,,,,,グロウアイ,0
1211,5010403031264,新規,0,2023-10-31,2023-10-31,ＡＰ　Ｂｏｌｔ合同会社,,合同会社,東京都,港区,虎ノ門４丁目１番１７号神谷町プライムプレイス８階アリサ・パートナーズ・ジャパン株式会社内,,13,103,1050001,,,,,,,2023-10-31,1,,,,,エーピーボルト,0
1212,5010501051263,新規,0,2023-10-31,2023-10-31,株式会社ＮＯＭＯＴＯＢＡＳＥ,,株式会社,東京都,台東区,谷中３丁目２番７号,,13,106,1100001,,,,,,,2023-10-31,1,,,,,ノモトベース,0
1221,5010801034471,新規,0,2023-10-31,2023-10-31,株式会社ＣＪＣ,,株式会社,東京都,大田区,西蒲田５丁目１５番３号,,13,111,1440051,,,,,,,2023-10-31,1,,,,,シージェーシー,0
1228,5011001157880,新規,0,2023-10-31,2023-10-31,株式会社ディターボ,,株式会社,東京都,渋谷区,道玄坂１丁目１０番８号渋谷道玄坂東急ビル２Ｆ－Ｃ,,13,113,1500043,,,,,,,2023-10-31,1,,,,,ディターボ,0
1229,5011001157971,新規,0,2023-10-31,2023-10-31,株式会社Ｐｅｒｉｍｅｎｉ,,株式会社,東京都,渋谷区,神宮前６丁目８番４号,,13,113,1500001,,,,,,,2023-10-31,1,,,,,ペリメニ,0
1237,5011101104972,新規,0,2023-10-31,2023-10-31,株式会社Ｒｅｌｉｆｅ,,株式会社,東京都,新宿区,西新宿３丁目３番１３号西新宿水間ビル２Ｆ,,13,104,1600023,,,,,,,2023-10-31,1,,,,,リライフ,0
1255,5012401041154,新規,0,2023-10-31,2023-10-31,株式会社ダイエットデザイン,,株式会社,東京都,府中市,清水が丘１丁目５番地の９シティハウス東府中ステーションコート１０９,,13,206,1830015,,,,,,,2023-10-31,1,,,,,ダイエットデザイン,0
1256,5012401041170,新規,0,2023-10-31,2023-10-31,株式会社たぐいまれ,,株式会社,東京都,調布市,小島町１丁目２－２プレミスト調布クロス２０３,,13,208,1820026,,,,,,,2023-10-31,1,,,,,タグイマレ,0
1265,5012801022712,新規,0,2023-10-31,2023-10-31,株式会社ＪＥＣＥ　ＳＴＯＲＥ　ＲＥＳＴＯ＆ＢＡＲ,,株式会社,東京都,昭島市,緑町４丁目１番２７号,,13,207,1960004,,,,,,,2023-10-31,1,,,,,ジェースストアレストアンドバー,0
1268,5013301051557,新規,0,2023-10-31,2023-10-31,ノーベル株式会社,,株式会社,東京都,豊島区,東池袋３丁目２１番２１－１６１１号ヴァンガードタワー,,13,116,1700013,,,,,,,2023-10-31,1,,,,,ノーベル,0
1279,5020001154219,新規,0,2023-10-31,2023-10-31,株式会社の仲,,株式会社,神奈川県,川崎市中原区,新城３丁目１３－１吉田ビル２０１,,14,133,2110044,,,,,,,2023-10-31,1,,,,,ノナカ,0
1289,5021001080594,新規,0,2023-10-31,2023-10-31,株式会社会計データサイエンス研究所,,株式会社,神奈川県,横須賀市,秋谷３丁目４番５号,,14,201,2400105,,,,,,,2023-10-31,1,,,,,カイケイデータサイエンスケンキュウジョ,0
1293,5021005012924,新規,0,2023-10-31,2023-10-31,一般社団法人ゆめの輪,,その他の設立登記法人,神奈川県,伊勢原市,岡崎６９９１番地の４０,,14,214,2591135,,,,,,,2023-10-31,1,,,,,ユメノワ,0
1303,5030003022901,新規,0,2023-10-31,2023-10-31,Ｆ＆Ｔ合同会社,,合同会社,埼玉県,新座市,栄４丁目８番３０号サンヒルズ新座１１６号室,,11,230,3520014,,,,,,,2023-10-31,1,,,,,エフアンドティー,0
1306,5040001130705,新規,0,2023-10-31,2023-10-31,株式会社イオラリオ,,株式会社,千葉県,千葉市中央区,中央港１丁目２０番２１－９１２号,,12,101,2600024,,,,,,,2023-10-31,1,,,,,イオラリオ,0
1320,5050003007900,新規,0,2023-10-31,2023-10-31,合同会社あいざわ経営コンサルタント,,合同会社,茨城県,常陸大宮市,上小瀬５１７１番地の２,,08,225,3192401,,,,,,,2023-10-31,1,,,,,アイザワケイエイコンサルタント,0
1333,5100001036929,新規,0,2023-10-31,2023-10-31,株式会社シオテック,,株式会社,長野県,松本市,波田６１７３番地５５,,20,202,3901401,,,,,,,2023-10-31,1,,,,,シオテック,0
1336,5110001037942,新規,0,2023-10-31,2023-10-31,株式会社結城工業,,株式会社,新潟県,長岡市,上除町甲１６１６番地１２,,15,202,9402033,,,,,,,2023-10-31,1,,,,,ユウキコウギョウ,0
1344,5120001259081,新規,0,2023-10-31,2023-10-31,日本瑯臣株式会社,,株式会社,大阪府,大阪市中央区,安土町２丁目４番１１－４７０３号,,27,128,5410052,,,,,,,2023-10-31,1,,,,,ニホンロウシン,0
1345,5120001259222,新規,0,2023-10-31,2023-10-31,株式会社ＭＥＧＵＭＩ,,株式会社,大阪府,大阪市浪速区,敷津西２丁目１２－６ＣＩＴＹＳＰＩＲＥ難波サウスタワー１００１号室,,27,111,5560015,,,,,,,2023-10-31,1,,,,,メグミ,0
1346,5120001259346,新規,0,2023-10-31,2023-10-31,株式会社ＬＡＵ,,株式会社,大阪府,大阪市西区,南堀江２丁目２番１１－６０１号,,27,106,5500015,,,,,,,2023-10-31,1,,,,,ラウ,0
1347,5120001259370,新規,0,2023-10-31,2023-10-31,株式会社ヒロ・インテリア・プロダクション,,株式会社,大阪府,大阪市旭区,高殿７丁目６－２０－４０３,,27,117,5350031,,,,,,,2023-10-31,1,,,,,ヒロインテリアプロダクション,0
1348,5120001259379,新規,0,2023-10-31,2023-10-31,＿栄科技株式会社,00132474,株式会社,大阪府,大阪市住吉区,遠里小野１丁目６－１５遠里小野マンション４０１号室,,27,120,5580032,,,,,,,2023-10-31,1,,,,,キンエイカギ,0
1350,5120003025218,新規,0,2023-10-31,2023-10-31,合同会社えん,,合同会社,大阪府,枚方市,大峰南町１８番１１号,,27,210,5730145,,,,,,,2023-10-31,1,,,,,エン,0
1351,5120003025226,新規,0,2023-10-31,2023-10-31,合同会社みらいアセットアドバンス,,合同会社,大阪府,大阪市北区,梅田１丁目３番１－４００号,,27,127,5300001,,,,,,,2023-10-31,1,,,,,ミライアセットアドバンス,0
1357,5122003002717,新規,0,2023-10-31,2023-10-31,ＭＡＲＣＡ合同会社,,合同会社,大阪府,東大阪市,横沼町２丁目５番２１号,,27,227,5770808,,,,,,,2023-10-31,1,,,,,マルカ,0
1361,5130003009095,新規,0,2023-10-31,2023-10-31,合同会社８７７８,,合同会社,京都府,京都市山科区,東野中井ノ上町２０－１０,,26,110,6078142,,,,,,,2023-10-31,1,,,,,ハチナナナナハチ,0
1371,5140001132154,新規,0,2023-10-31,2023-10-31,ＣＯＣＯＲＯ　ＪＡＰＡＮ株式会社,,株式会社,兵庫県,神戸市中央区,磯辺通２丁目２－１０ワンノットトレーズビル７０６号,,28,110,6510084,,,,,,,2023-10-31,1,,,,,ココロジャパン,0
1374,5140003019746,新規,0,2023-10-31,2023-10-31,合同会社レトライ,,合同会社,兵庫県,西宮市,高須町２丁目１番３０－１４０８号,,28,204,6638141,,,,,,,2023-10-31,1,,,,,レトライ,0
1375,5150001026850,新規,0,2023-10-31,2023-10-31,株式会社ハートビート,,株式会社,奈良県,大和郡山市,材木町４番地プレステ七番館８０２号,,29,203,6391141,,,,,,,2023-10-31,1,,,,,ハートビート,0
1385,5180001158708,新規,0,2023-10-31,2023-10-31,ＧＨＫ　ＴＲＡＤＩＮＧ　ＣＯＭＰＡＮＹ株式会社,,株式会社,愛知県,弥富市,鯏浦町気開１３６番地ユーパティオ１３６,,23,235,4980024,,,,,,,2023-10-31,1,,,,,ジーエイチケートレーディングカンパニー,0
1386,5180001158732,新規,0,2023-10-31,2023-10-31,つばき株式会社,,株式会社,愛知県,春日井市,大留町５丁目１３－１,,23,206,4870024,,,,,,,2023-10-31,1,,,,,ツバキ,0
1392,5190005011878,新規,0,2023-10-31,2023-10-31,一般社団法人めっちゃ遊ぶ協会,,その他の設立登記法人,三重県,鈴鹿市,中旭が丘３丁目１０－１０,,24,207,5100212,,,,,,,2023-10-31,1,,,,,メッチャアソブキョウカイ,0
1395,5200003006135,新規,0,2023-10-31,2023-10-31,ハーモニーシルク合同会社,,合同会社,岐阜県,安八郡安八町,氷取８３７番地の１９,,21,383,5030121,,,,,,,2023-10-31,1,,,,,ハーモニーシルク,0
1396,5200005013534,新規,0,2023-10-31,2023-10-31,瑞穂市再生資源循環保全協同組合,,その他の設立登記法人,岐阜県,瑞穂市,稲里５４５番地の１,,21,216,5010224,,,,,,,2023-10-31,1,,,,,ミズホシサイセイシゲンジュンカンホゼン,0
1397,5210001019526,新規,0,2023-10-31,2023-10-31,ＦＵＫＵＭＡＣＨＩ　ＯＦＦＩＣＥ株式会社,,株式会社,福井県,福井市,宝永１丁目３７番１７号,,18,201,9100004,,,,,,,2023-10-31,1,,,,,フクマチオフィス,0
1408,5240003006395,新規,0,2023-10-31,2023-10-31,合同会社ｍａｒｕ‐ｇｏｔｏ,,合同会社,広島県,福山市,加茂町字上加茂２８６番地１４,,34,207,7202419,,,,,,,2023-10-31,1,,,,,マルゴト,0
1421,5290001103578,新規,0,2023-10-31,2023-10-31,株式会社ＨＥＳＴＡ大倉科創,,株式会社,福岡県,福岡市中央区,天神３丁目１５番１７号,,40,133,8100001,,,,,,,2023-10-31,1,,,,,ヘスタオオクラカソウ,0
1445,5410001013632,新規,0,2023-10-31,2023-10-31,株式会社１５ゲート,,株式会社,秋田県,大仙市,大神成字山回１７９番地,,05,212,0140714,,,,,,,2023-10-31,1,,,,,イチゴゲート,0
1449,5430001090249,新規,0,2023-10-31,2023-10-31,シークホーム株式会社,,株式会社,北海道,札幌市豊平区,美園十条６丁目１番２５号,,01,105,0620010,,,,,,,2023-10-31,1,,,,,シークホーム,0
1450,5430001090307,新規,0,2023-10-31,2023-10-31,ＰｏＨ株式会社,,株式会社,北海道,札幌市清田区,真栄二条２丁目１４番１０号,,01,110,0040832,,,,,,,2023-10-31,1,,,,,ピーオーエイチ,0
1451,5430001090315,新規,0,2023-10-31,2023-10-31,株式会社ｒｅＲａｉｓｅ,,株式会社,北海道,札幌市中央区,南十五条西７丁目２－１１ラフィナート山鼻１０２,,01,101,0640915,,,,,,,2023-10-31,1,,,,,リレイズ,0
1455,5430003015559,新規,0,2023-10-31,2023-10-31,合同会社Ｅｚｏ会計,,合同会社,北海道,札幌市中央区,南一条東４丁目７番地ワタナベレジデンス１０１号,,01,101,0600051,,,,,,,2023-10-31,1,,,,,エゾカイケイ,0
1456,5460003000970,新規,0,2023-10-31,2023-10-31,合同会社はる,,合同会社,北海道,釧路市,美原５丁目６３番２号,,01,206,0850065,,,,,,,2023-10-31,1,,,,,,0
1459,5700150113014,新規,0,2023-10-31,2023-10-31,ＦＩＴ　ＴＯＯＬＳ　ＩＮＤＵＳＴＲＩＡＬ　ＣＯＭＰＡＮＹ,,外国会社等,,,,,,,,１Ｆ．，Ｎｏ．１，ＡＬＹ．９，ＬＮ．２６３，ＦＵＸＩＮＧ　ＲＤ．，ＺＨＯＮＧＨＥ　ＤＩＳＴ．，ＮＥＷ　ＴＡＩＰＥＩ　ＣＩＴＹ　２３５６１　ＴＷ,,,,,,2023-10-31,1,,,,,フイツトツールズインダストリアルカンパニー,0
1460,5700150121594,新規,0,2023-10-31,2023-10-31,ＭＡＣＡＷ　ＬＡＮＫＡ　ＭＯＴＯＲＳ,,外国会社等,千葉県,佐倉市,大篠塚２７７番地オフィス４号,,12,212,2850806,スリランカ民主社会主義共和国、キャンディ、アクラナ、ドゥヌウィラロード、４０５,,,,,,2023-10-31,1,,,,,マカーランカモータース,0
1461,5700150121603,新規,0,2023-10-31,2023-10-31,ｈａｉｒｕｉｈｕａｎｂａｏｋｅｊｉｓｕｚｈｏｕｙｏｕｘｉａｎｇｏｎｇｓｉ,,外国会社等,,,,,,,,Ｒｏｏｍ１０３　１ｓｔＦｌｏｏｒＢｕｉｌｄｉｎｇ２Ｎｏ．１６０ＫｅｌｉｎｇＲｏａｄ　Ｓｕｚｈｏｕ　Ｈｉｇｈ－ｔｅｃｈＺｏｎｅ,,,,,,2023-10-31,1,,,,,ハイルイホァンバオカギソシュウユウゲンコウシ,0
1462,5700150121611,新規,0,2023-10-31,2023-10-31,Ｍｉｎｇ　Ｇｕａｎｇ　Ｉｎｖｅｓｔｍｅｎｔｓ　Ｃｏ．，Ｌｔｄ．,,外国会社等,,,,,,,,１８Ｆ．，Ｎｏ．１６７，Ｄｕｎｈｕａ　Ｎ．Ｒｄ．，Ｓｏｎｇｓｈａｎ　Ｄｉｓｔ．，Ｔａｉｐｅｉ　Ｃｉｔｙ　１０５４０６，Ｔａｉｗａｎ（Ｒ．Ｏ．Ｃ．）,,,,,,2023-10-31,1,,,,,メイコウトウシコフンユウゲンコウシ,0
1474,6010001239564,新規,0,2023-10-31,2023-10-31,株式会社ＯＫＡＯ　ｌａｂ,,株式会社,東京都,中央区,銀座７丁目１３番２０号銀座ＴＨビル９階,,13,102,1040061,,,,,,,2023-10-31,1,,,,,オカオラボ,0
1475,6010001239663,新規,0,2023-10-31,2023-10-31,株式会社エフェワンナ,,株式会社,東京都,千代田区,富士見２丁目１０番３－３３０２号,,13,101,1020071,,,,,,,2023-10-31,1,,,,,エフェワンナ,0
1482,6010003042074,新規,0,2023-10-31,2023-10-31,ＬＥＶＥＣＨＹファンド９号合同会社,,合同会社,東京都,千代田区,紀尾井町３－８第２紀尾井町ビル９０１アクシス綜合会計事務所内,,13,101,1020094,,,,,,,2023-10-31,1,,,,,レベチーファンドキュウゴウ,0
1483,6010003042090,新規,0,2023-10-31,2023-10-31,黒岩レジデンシャル合同会社６,,合同会社,東京都,千代田区,丸の内３丁目１番１号東京共同会計事務所内,,13,101,1000005,,,,,,,2023-10-31,1,,,,,クロイワレジデンシャルロク,0
1502,6010403031255,新規,0,2023-10-31,2023-10-31,合同会社Ｐａｍｐａｔｈｅｒｉｕｍ,,合同会社,東京都,港区,南青山２丁目２－１５,,13,103,1070062,,,,,,,2023-10-31,1,,,,,パンパテリウム,0
1503,6010403031271,新規,0,2023-10-31,2023-10-31,合同会社乃木坂管財,,合同会社,東京都,港区,赤坂８丁目１３番１３,,13,103,1070052,,,,,,,2023-10-31,1,,,,,ノギザカカンザイ,0
1506,6010601064073,新規,0,2023-10-31,2023-10-31,ｅｎｄｓｃａｐｅ株式会社,,株式会社,東京都,江東区,枝川３丁目１番１７‐１４０３号,,13,108,1350051,,,,,,,2023-10-31,1,,,,,エンドスケープ,0
1509,6010603010455,新規,0,2023-10-31,2023-10-31,リサンプル合同会社,,合同会社,東京都,墨田区,本所３丁目２５‐６,,13,107,1300004,,,,,,,2023-10-31,1,,,,,リサンプル,0
1511,6010701045064,新規,0,2023-10-31,2023-10-31,株式会社ＫＩＰＴＯ,,株式会社,東京都,品川区,旗の台６丁目２８番８号,,13,109,1420064,,,,,,,2023-10-31,1,,,,,キプト,0
1530,6011001157946,新規,0,2023-10-31,2023-10-31,株式会社ＰＥＥＰＳ,,株式会社,東京都,渋谷区,代官山町２０番２３号Ｆｏｒｅｓｔｇａｔｅ・Ｄａｉｋａｎｙａｍａ・ＭＡＩＮ棟３Ｆ,,13,113,1500034,,,,,,,2023-10-31,1,,,,,ピープス,0
1536,6011003017735,新規,0,2023-10-31,2023-10-31,ＰＦＪ　Ｇｌｏｂａｌ合同会社,,合同会社,東京都,渋谷区,桜丘町２６番１号セルリアンタワー１５階,,13,113,1500031,,,,,,,2023-10-31,1,,,,,ピーエフジェーグローバル,0
1554,6011601027219,新規,0,2023-10-31,2023-10-31,萱堂株式会社,,株式会社,東京都,練馬区,春日町４丁目３６番１１号サンライズ春日２０３号室,,13,120,1790074,,,,,,,2023-10-31,1,,,,,ケンドウ,0
1558,6011801043263,新規,0,2023-10-31,2023-10-31,株式会社河村会計センター,,株式会社,東京都,足立区,綾瀬３丁目１４番６号ルミエール綾瀬４０１,,13,121,1200005,,,,,,,2023-10-31,1,,,,,カワムラカイケイセンター,0
1563,6012701017919,新規,0,2023-10-31,2023-10-31,株式会社東京大世界,,株式会社,東京都,清瀬市,松山２丁目３－１フューチャ清瀬１Ｆ,,13,221,2040022,,,,,,,2023-10-31,1,,,,,トウキョウダスカ,0
1580,6020001154192,新規,0,2023-10-31,2023-10-31,ブラックキャット・カーニバル株式会社,,株式会社,神奈川県,横浜市神奈川区,金港町５－１４クアドリフォリオ８階,,14,102,2210056,,,,,,,2023-10-31,1,,,,,ブラックキャットカーニバル,0
1581,6020001154242,新規,0,2023-10-31,2023-10-31,ＴＥＩＮ　ＮＥＸＴ株式会社,,株式会社,神奈川県,横浜市南区,宿町３丁目５６番地１アップアロービルＢ１Ｆ,,14,105,2320017,,,,,,,2023-10-31,1,,,,,テインネクスト,0
1594,6021001080602,新規,0,2023-10-31,2023-10-31,株式会社リアン,,株式会社,神奈川県,相模原市南区,麻溝台２丁目２番５号,,14,153,2520328,,,,,,,2023-10-31,1,,,,,リアン,0
1600,6030001156857,新規,0,2023-10-31,2023-10-31,株式会社エルフ,,株式会社,埼玉県,さいたま市桜区,田島６丁目２番１６号,,11,106,3380837,,,,,,,2023-10-31,1,,,,,エルフ,0
1601,6030001156898,新規,0,2023-10-31,2023-10-31,株式会社シュウエイ,,株式会社,埼玉県,草加市,青柳４丁目３５番１７－２号,,11,221,3400002,,,,,,,2023-10-31,1,,,,,シュウエイ,0
1602,6030001156907,新規,0,2023-10-31,2023-10-31,株式会社来夢,,株式会社,埼玉県,さいたま市見沼区,東大宮４丁目２５番地１ラトゥール高橋７０２号室,00132480,11,104,3370051,,,,,,,2023-10-31,1,,,,,ライム,0
1609,6030003022875,新規,0,2023-10-31,2023-10-31,合同会社滑川町谷津田米,,合同会社,埼玉県,比企郡滑川町,大字羽尾１８０１番地,,11,341,3550811,,,,,,,2023-10-31,1,,,,,ナメガワマチヤツダマイ,0
1610,6030003022891,新規,0,2023-10-31,2023-10-31,合同会社メルウッド,,合同会社,埼玉県,春日部市,南４丁目２２番地１２号,,11,214,3440064,,,,,,,2023-10-31,1,,,,,メルウッド,0
1616,6040001130720,新規,0,2023-10-31,2023-10-31,株式会社修和,,株式会社,千葉県,習志野市,津田沼７丁目１７番２４号ハイツフローラ１０５号,,12,216,2750016,,,,,,,2023-10-31,1,,,,,シュウワ,0
1621,6050001053747,新規,0,2023-10-31,2023-10-31,株式会社夢,,株式会社,茨城県,土浦市,永国台３番地４８,,08,203,3000810,,,,,,,2023-10-31,1,,,,,ユメ,0
1624,6050003007874,新規,0,2023-10-31,2023-10-31,合同会社サボロク,,合同会社,茨城県,つくば市,みどりの中央４５番地１８,,08,220,3050882,,,,,,,2023-10-31,1,,,,,サボロク,0
1626,6060001036494,新規,0,2023-10-31,2023-10-31,ハイブリッドエナジー株式会社,,株式会社,栃木県,那須塩原市,北弥六３６７番地３２,,09,213,3293132,,,,,,,2023-10-31,1,,,,,ハイブリッドエナジー,0
1630,6060005010149,新規,0,2023-10-31,2023-10-31,宇都宮サマリヤマンション管理組合法人,,その他の設立登記法人,栃木県,宇都宮市,今泉３丁目８番５号,,09,201,3210966,,,,,,,2023-10-31,1,,,,,ウツノミヤサマリヤマンション,0
1636,6080401026812,新規,0,2023-10-31,2023-10-31,株式会社ＡＤＥＬＥＳ,,株式会社,静岡県,袋井市,春岡２丁目６番地の８,,22,216,4370122,,,,,,,2023-10-31,1,,,,,アデレス,0
1639,6100001036928,新規,0,2023-10-31,2023-10-31,共栄エステート株式会社,,株式会社,長野県,長野市,青木島１丁目１７番地１,,20,201,3812247,,,,,,,2023-10-31,1,,,,,キョウエイエステート,0
1658,6120001259312,新規,0,2023-10-31,2023-10-31,西川製作所株式会社,,株式会社,大阪府,大阪市西区,江之子島２丁目１番３７－２９１０号阿波座ライズタワーズフラッグ４６,,27,106,5500006,,,,,,,2023-10-31,1,,,,,ニシカワセイサクショ,0
1659,6120001259320,新規,0,2023-10-31,2023-10-31,株式会社Ｋ・ＰＬＵＳ,,株式会社,大阪府,大阪市平野区,長吉川辺２丁目１番３９号,,27,126,5470014,,,,,,,2023-10-31,1,,,,,ケープラス,0
1660,6120001259353,新規,0,2023-10-31,2023-10-31,株式会社サイバーブリッジ,,株式会社,大阪府,大阪市北区,梅田１丁目１－３大阪駅前第３ビル２９階１－１－１号室,,27,127,5300001,,,,,,,2023-10-31,1,,,,,サイバーブリッジ,0
1661,6120001259386,新規,0,2023-10-31,2023-10-31,株式会社Ｓｅｃｏｎｄ,,株式会社,大阪府,大阪市鶴見区,放出東２丁目７番８号,,27,124,5380044,,,,,,,2023-10-31,1,,,,,セカンド,0
1666,6120003025225,新規,0,2023-10-31,2023-10-31,合同会社ＳＩ企画,,合同会社,大阪府,大阪市北区,中崎西１丁目３番９－１２０２号,,27,127,5300015,,,,,,,2023-10-31,1,,,,,エスアイキカク,0
1668,6120101068448,新規,0,2023-10-31,2023-10-31,スクラム株式会社,,株式会社,大阪府,藤井寺市,大井２丁目５番５９号,,27,226,5830008,,,,,,,2023-10-31,1,,,,,スクラム,0
1669,6120103005515,新規,0,2023-10-31,2023-10-31,合同会社Ｐｉｃｔｕｒａｍ,,合同会社,大阪府,藤井寺市,惣社２丁目１番２７号,,27,226,5830005,,,,,,,2023-10-31,1,,,,,ピクチュラム,0
1671,6120901048293,新規,0,2023-10-31,2023-10-31,株式会社Ｖｉｅ　Ｒｉｃｈｅ,,株式会社,大阪府,豊中市,岡町９－７,,27,203,5610885,,,,,,,2023-10-31,1,,,,,ヴィリッシュ,0
1677,6122003002716,新規,0,2023-10-31,2023-10-31,ＴＭ合同会社,,合同会社,大阪府,東大阪市,吉田６丁目４－２,,27,227,5780924,,,,,,,2023-10-31,1,,,,,ティーエム,0
1693,6150003003112,新規,0,2023-10-31,2023-10-31,合同会社ＮＵＴ,,合同会社,奈良県,奈良市,西九条町３丁目７番地の１１,,29,201,6308453,,,,,,,2023-10-31,1,,,,,ナット,0
1698,6170001017863,新規,0,2023-10-31,2023-10-31,株式会社萬天舎,,株式会社,和歌山県,和歌山市,柳丁１７番地２,,30,201,6408336,,,,,,,2023-10-31,1,,,,,マンテンシャ,0
1708,6180001158731,新規,0,2023-10-31,2023-10-31,株式会社イエローハーツ,,株式会社,愛知県,稲沢市,重本１丁目５４,,23,220,4928261,,,,,,,2023-10-31,1,,,,,イエローハーツ,0
1715,6200003006134,新規,0,2023-10-31,2023-10-31,ウェルネクスト合同会社,,合同会社,岐阜県,養老郡養老町,押越１２６０番地３ハピネス・エヴィッサＡ棟２０１号室,,21,341,5031316,,,,,,,2023-10-31,1,,,,,ウェルネクスト,0
1723,6240001062299,新規,0,2023-10-31,2023-10-31,株式会社ｍ．ｏｔｈｅｒ,,株式会社,広島県,尾道市,栗原西１丁目８番１２－１３０１号ポレスター尾道マークグラン,,34,205,7220026,,,,,,,2023-10-31,1,,,,,,0
1725,6240005015674,新規,0,2023-10-31,2023-10-31,一般社団法人あるす,,その他の設立登記法人,広島県,東広島市,西条栄町１－２５－２階,,34,212,7390015,,,,,,,2023-10-31,1,,,,,アルス,0
1726,6250003003374,新規,0,2023-10-31,2023-10-31,合同会社華夷弁別,,合同会社,山口県,萩市,大字呉服町２丁目３９番地,,35,204,7580072,,,,,,,2023-10-31,1,,,,,カイベンベツ,0
1736,6290001103577,新規,0,2023-10-31,2023-10-31,クリエイティブ・スピリットホールディングス株式会社,,株式会社,福岡県,福岡市中央区,谷１丁目１２番３７号六本松ＵＳビル２階,,40,133,8100031,,,,,,,2023-10-31,1,,,,,クリエイティブスピリットホールディングス,0
1739,6290003014558,新規,0,2023-10-31,2023-10-31,合同会社Ｓ‐Ｐｒｏｆｉｔ,,合同会社,福岡県,福岡市博多区,博多駅前２丁目１９番１７号トーカン博多第５キャステール３１２号,,40,132,8120011,,,,,,,2023-10-31,1,,,,,エスプロフィト,0
1767,6390001017412,新規,0,2023-10-31,2023-10-31,株式会社ＣＡＲＲＹ,,株式会社,山形県,酒田市,東大町３丁目２７番地の２２,,06,204,9980851,,,,,,,2023-10-31,1,,,,,キャリー,0
1778,6430001090289,新規,0,2023-10-31,2023-10-31,インフィニ・モビリティ株式会社,,株式会社,北海道,札幌市南区,南三十一条西１０丁目１番８－２１１号,,01,106,0050031,,,,,,,2023-10-31,1,,,,,インフィニモビリティ,0
1779,6430003015574,新規,0,2023-10-31,2023-10-31,合同会社ＲＩＶ,,合同会社,北海道,札幌市北区,北二十条西５丁目２‐５０クロスポイント２Ｆ,,01,102,0010020,,,,,,,2023-10-31,1,,,,,リブ,0
1780,6430005014822,新規,0,2023-10-31,2023-10-31,医療法人しろくまこどもクリニック,,その他の設立登記法人,北海道,石狩市,樽川六条２丁目２番地２,,01,235,0613256,,,,,,,2023-10-31,1,,,,,シロクマコドモクリニック,0
1781,6450001014130,新規,0,2023-10-31,2023-10-31,株式会社プラスラス,,株式会社,北海道,旭川市,南四条通２１丁目３番地の１１２フロンティア大雪１０５号,,01,204,0788334,,,,,,,2023-10-31,1,,,,,プラスラス,0
1788,6462501000971,新規,0,2023-10-31,2023-10-31,株式会社カミテック,,株式会社,北海道,野付郡別海町,西春別駅前柏町７番地の８,,01,691,0882561,,,,,,,2023-10-31,1,,,,,カミテック,0
1792,6700150114135,新規,0,2023-10-31,2023-10-31,ＮＩＮＧＢＯ　ＺＨＡＮＢＡＯ　ＴＲＡＤＩＮＧ　ＣＯ　ＬＴＤ,,外国会社等,,,,,,,,ＹＩＮＺＨＯＵＱＵ　ＴＩＡＮＴＯＮＧＢＥＩＬＵ　１１０７　ＨＡＯ１００２－２　ＮＩＮＧＢＯ　ＺＨＥＪＩＡＮＧ　３１５１００　ＣＮ,,,,,,2023-10-31,1,,,,,ニンボージヤンパオトレーデイングカンパニー,0
1793,6700150119142,新規,0,2023-10-31,2023-10-31,Ｇｒｅａｔｅｒ　Ｂａｙ　Ａｉｒｌｉｎｅｓ　Ｃｏ．，Ｌｔｄ,,外国会社等,東京都,港区,赤坂２丁目１１番７号ＡＴＴ新館８階,,13,103,1070052,中華人民共和国香港特別行政区大嶼山東涌達東路２０番ワンシティゲート１２階０１－０９室,,,,,,2023-10-31,1,,,,,グレイターベイエアラインズカンパニーリミテツド,0
1794,6700150121593,新規,0,2023-10-31,2023-10-31,ＫＬＭ　ＩＮＤＵＳＴＲＩＥＳ,,外国会社等,千葉県,東金市,家之子８７４番地２,,12,213,2830001,スリランカ民主社会主義共和国、東部州、アンパラ地区、サンマントゥライ、カラリチャル０１、２２８－３,,,,,,2023-10-31,1,,,,,ケイエルエムインダストリーズ,0
1795,6700150121602,新規,0,2023-10-31,2023-10-31,ｓｈｅｎｚｈｅｎｓｈｉｚｈｅｎｙｏｕｚｈｉｌｉａｎｋｅｊｉｙｏｕｘｉａｎｇｏｎｇｓｉ,,外国会社等,,,,,,,,ｓｈｅｎｚｈｅｎｓｈｉ　ｎａｎｓｈａｎｑｕ　ｙｕｅｈａｉｊｉｅｄａｏｇａｏｘｉｎｑｕｓｈｅｑｕｇａｏｘｉｎｎａｎｈｕａｎｌｕ４６ｈａｏｌｉｕｘｕｅｓｈｅｎｇｃｈｕａｎｇｙｅｄａｓｈａｅｒｑｉ１７ｃｅｎｇ,,,,,,2023-10-31,1,,,,,シンセンシゼンヨウチレンカギユウゲンコウシ,0
1796,6700150121610,新規,0,2023-10-31,2023-10-31,Ｓｈａｎｇｈａｉｄｏｎｇｌｉｎｇｍａｏｙｉｙｏｕｘｉａｎｇｏｎｇｓｉ,,外国会社等,,,,,,,,ｆｅｎｇｘｉａｎｑｕｈａｉｗａｎｚｈｅｎｗｕｓｉｇｏｎｇｌｕ４３９９ｈａｏ７８ｚｈｕａｎｇ　Ｓｈａｎｇｈａｉｓｈｉ,,,,,,2023-10-31,1,,,,,シャンハイトウレイボウエキユウゲンコウシ,0
1797,6700150121619,新規,0,2023-10-31,2023-10-31,光宜国際股斌有限公司,00132464,外国会社等,,,,,,,,台北市南港区南港路３段８０巷４４号４楼,,,,,,2023-10-31,1,,,,,コウギコクサイコフンユウゲンコウシ,0
1808,7010001239308,新規,0,2023-10-31,2023-10-31,Ｑｕａｌｉｔｙ　Ｃｌｏｕｄ株式会社,,株式会社,東京都,千代田区,麹町３丁目３番地４,,13,101,1020083,,,,,,,2023-10-31,1,,,,,クオリティクラウド,0
1811,7010003041967,新規,0,2023-10-31,2023-10-31,合同会社アブリコ,,合同会社,東京都,文京区,白山２丁目１４－１１,,13,105,1120001,,,,,,,2023-10-31,1,,,,,アブリコ,0
1813,7010005037435,新規,0,2023-10-31,2023-10-31,一般社団法人アドバンストバイオメディカル協議会,,その他の設立登記法人,東京都,中央区,八重洲２丁目１－１ＹＡＮＭＡＲＴＯＫＹＯ１２階,,13,102,1040028,,,,,,,2023-10-31,1,,,,,アドバンストバイオメディカルキョウギカイ,0
1815,7010103002241,新規,0,2023-10-31,2023-10-31,東京中橋合同会社,,合同会社,東京都,八王子市,北野台５丁目５０番５－４０７号,,13,201,1920913,,,,,,,2023-10-31,1,,,,,トウキョウナカハシ,0
1824,7010401178171,新規,0,2023-10-31,2023-10-31,フォルテッジ株式会社,,株式会社,東京都,港区,北青山３丁目６番７号青山パラシオタワー１１階,,13,103,1070061,,,,,,,2023-10-31,1,,,,,フォルテッジ,0
1825,7010401178246,新規,0,2023-10-31,2023-10-31,ＫＯＹＯエステート株式会社,,株式会社,東京都,港区,南青山３丁目１番３６号青山丸竹ビル６Ｆ,,13,103,1070062,,,,,,,2023-10-31,1,,,,,コーヨーエステート,0
1833,7010405022623,新規,0,2023-10-31,2023-10-31,ＮＰＯ法人日本アスリート育成協会,,その他の設立登記法人,東京都,港区,浜松町２丁目２番１５号浜松町ダイヤビル２Ｆ,,13,103,1050013,,,,,,,2023-10-31,1,,,,,ニホンアスリートイクセイキョウカイ,0
1841,7010505003465,新規,0,2023-10-31,2023-10-31,一般社団法人毛細血管観察士協会,,その他の設立登記法人,東京都,台東区,下谷１丁目４番１０号上野ＳＫビル５階,,13,106,1100004,,,,,,,2023-10-31,1,,,,,モウサイケッカンカンサツシキョウカイ,0
1847,7010901054104,新規,0,2023-10-31,2023-10-31,株式会社ｌｕｃｉａｓ,,株式会社,東京都,世田谷区,北沢２丁目２６－１９ヒルズＩＩ４０１,00132472,13,112,1550031,,,,,,,2023-10-31,1,,,,,ルシアス,0
1850,7011001157904,新規,0,2023-10-31,2023-10-31,株式会社ＬＩＮＫ,,株式会社,東京都,目黒区,東山２丁目１３番１０－５０２号上目黒フラワーマンション,,13,110,1530043,,,,,,,2023-10-31,1,,,,,リンク,0
1851,7011003017800,新規,0,2023-10-31,2023-10-31,ブレイクスリー合同会社,,合同会社,東京都,渋谷区,恵比寿西２丁目８番４号ＥＸ恵比寿西ビル５階,,13,113,1500021,,,,,,,2023-10-31,1,,,,,ブレイクスリー,0
1856,7011101104970,新規,0,2023-10-31,2023-10-31,株式会社パークセレクト,,株式会社,東京都,新宿区,西新宿３丁目３番１３号西新宿水間ビル６階,,13,104,1600023,,,,,,,2023-10-31,1,,,,,パークセレクト,0
1858,7011301029150,新規,0,2023-10-31,2023-10-31,株式会社あんぽんたんカンパニー,,株式会社,東京都,杉並区,高円寺南４丁目４９番１号,,13,115,1660003,,,,,,,2023-10-31,1,,,,,アンポンタンカンパニー,0
1859,7011303004952,新規,0,2023-10-31,2023-10-31,合同会社池畑企画,,合同会社,東京都,杉並区,高円寺北４丁目３０番１７号,,13,115,1660002,,,,,,,2023-10-31,1,,,,,イケハタキカク,0
1862,7011501029925,新規,0,2023-10-31,2023-10-31,株式会社ＷＩＮ,,株式会社,東京都,荒川区,東尾久２丁目２９番１号,,13,118,1160012,,,,,,,2023-10-31,1,,,,,ウィン,0
1864,7011701026714,新規,0,2023-10-31,2023-10-31,株式会社ＳＳＩコンサルティング,,株式会社,東京都,江戸川区,松島１丁目３９番７号ＳＳＩコンサルティング３階,,13,123,1320031,,,,,,,2023-10-31,1,,,,,エスエスアイコンサルティング,0
1871,7012401041160,新規,0,2023-10-31,2023-10-31,株式会社Ｂａｇｕｅｔｔｅ　Ｈｅｌｌ,,株式会社,東京都,武蔵野市,西久保２丁目３番１２号榎本第一ビル１０２,,13,203,1800013,,,,,,,2023-10-31,1,,,,,バゲットヘル,0
1872,7012403006252,新規,0,2023-10-31,2023-10-31,合同会社オフィス７０４,,合同会社,東京都,武蔵野市,吉祥寺本町１丁目２０番１号９０８,,13,203,1800004,,,,,,,2023-10-31,1,,,,,オフィスナナマルヨン,0
1874,7012701017926,新規,0,2023-10-31,2023-10-31,株式会社青木設備,,株式会社,東京都,東村山市,恩多町２丁目２０番地７,,13,213,1890011,,,,,,,2023-10-31,1,,,,,アオキセツビ,0
1875,7012801022735,新規,0,2023-10-31,2023-10-31,株式会社テックラビット,,株式会社,東京都,国分寺市,南町２丁目１８－６ライオンズマンション国分寺駅前２０６室,,13,214,1850021,,,,,,,2023-10-31,1,,,,,テックラビット,0
1884,7020001154159,新規,0,2023-10-31,2023-10-31,株式会社ＭＡＲＵＮＡ商事,,株式会社,神奈川県,横浜市西区,岡野１丁目９－５,,14,103,2200073,,,,,,,2023-10-31,1,,,,,,0
1902,7030003022899,新規,0,2023-10-31,2023-10-31,日越合同会社,,合同会社,埼玉県,東松山市,大字大谷４１５３番地１５,,11,212,3550008,,,,,,,2023-10-31,1,,,,,ニチエツ,0
1943,7120001258750,新規,0,2023-10-31,2023-10-31,多維イノベーション株式会社,,株式会社,大阪府,大阪市天王寺区,上本町１丁目１番１８－４１３号,,27,109,5430001,,,,,,,2023-10-31,1,,,,,タイイノベーション,0
1944,7120001259154,新規,0,2023-10-31,2023-10-31,パンダ国際株式会社,,株式会社,大阪府,大阪市生野区,田島５丁目１９番７号８号室,,27,116,5440011,,,,,,,2023-10-31,1,,,,,パンダコクサイ,0
1945,7120001259229,新規,0,2023-10-31,2023-10-31,航宇株式会社,,株式会社,大阪府,大阪市中央区,島之内１丁目１１番２９号,,27,128,5420082,,,,,,,2023-10-31,1,,,,,コウウ,0
1946,7120001259328,新規,0,2023-10-31,2023-10-31,株式会社Ｎｅｘｔ　Ｓｔｅｐ,,株式会社,大阪府,守口市,馬場町１丁目７番９－３０３号,,27,209,5700062,,,,,,,2023-10-31,1,,,,,ネクストステップ,0
1947,7120001259336,新規,0,2023-10-31,2023-10-31,株式会社ＡＴＰホールディングス,,株式会社,大阪府,大阪市北区,梅田１丁目２番２号大阪駅前第二ビル８－１－１,,27,127,5300001,,,,,,,2023-10-31,1,,,,,エーティーピーホールディングス,0
1948,7120001259352,新規,0,2023-10-31,2023-10-31,株式会社メディカアイライフ,,株式会社,大阪府,大阪市淀川区,宮原３丁目４番３０号ニッセイ新大阪ビル１６階,,27,123,5320003,,,,,,,2023-10-31,1,,,,,メディカアイライフ,0
1952,7120003025216,新規,0,2023-10-31,2023-10-31,ＰＵＤＤＹ　ＢＲＩＤＧＥ合同会社,,合同会社,大阪府,大阪市浪速区,元町３丁目１３番２３－４０２号,,27,111,5560016,,,,,,,2023-10-31,1,,,,,パディーブリッジ,0
1953,7120003025232,新規,0,2023-10-31,2023-10-31,合同会社ＩＰＰＯ,,合同会社,大阪府,大阪市北区,梅田１丁目１番３号大阪駅前第３ビル２９階１－１－１号室,,27,127,5300001,,,,,,,2023-10-31,1,,,,,イッポ,0
1961,7122001037523,新規,0,2023-10-31,2023-10-31,Ｗｏｌｈｅｔｅｒ株式会社,,株式会社,大阪府,八尾市,陽光園２丁目３－１６縁ビル２０５号室,,27,212,5810086,,,,,,,2023-10-31,1,,,,,ウォルヒーター,0
1967,7130003009085,新規,0,2023-10-31,2023-10-31,お松合同会社,,合同会社,京都府,京都市右京区,西院日照町８６番地４,,26,108,6150065,,,,,,,2023-10-31,1,,,,,オマツ,0
1975,7140001132177,新規,0,2023-10-31,2023-10-31,株式会社大瀬組重量,,株式会社,兵庫県,尼崎市,長洲東通３丁目５番１０号Ｃ２０１号,,28,202,6600801,,,,,,,2023-10-31,1,,,,,オオセグミジュウリョウ,0
1977,7140005026763,新規,0,2023-10-31,2023-10-31,一般社団法人わっか,,その他の設立登記法人,兵庫県,高砂市,米田町塩市１９１－２６,,28,216,6760806,,,,,,,2023-10-31,1,,,,,,0
1985,7180003025904,新規,0,2023-10-31,2023-10-31,合同会社Ｗｅａｌｔｈｙ,,合同会社,愛知県,名古屋市東区,大松町２番１号エクセレント光栄１Ｄ号,,23,102,4610033,,,,,,,2023-10-31,1,,,,,,0
1996,7270003001565,新規,0,2023-10-31,2023-10-31,合同会社ヨネザワテック,,合同会社,鳥取県,米子市,和田町９８番地２,,31,202,6830102,,,,,,,2023-10-31,1,,,,,ヨネザワテック,0
2004,7290003014557,新規,0,2023-10-31,2023-10-31,ＡＮ　ＴＡＭ合同会社,,合同会社,福岡県,福岡市博多区,博多駅南３丁目５－３５大蔵マンション南博多１０５,,40,132,8120016,,,,,,,2023-10-31,1,,,,,,0
2012,7330003010048,新規,0,2023-10-31,2023-10-31,合同会社Ｆｏｒｅｓｔ‐Ａｇｅｎｔ,,合同会社,熊本県,荒尾市,八幡台１丁目１２番８号,,43,204,8640164,,,,,,,2023-10-31,1,,,,,フォレストエージェント,0
2022,7360003013428,新規,0,2023-10-31,2023-10-31,合同会社ユウナチュラメディカルサービス,,合同会社,沖縄県,那覇市,牧志１丁目１９番２０－２０３号プレサンスロジェ美栄橋ステーションレーヴ,,47,201,9000013,,,,,,,2023-10-31,1,,,,,ユウナチュラメディカルサービス,0
2030,7380001034102,新規,0,2023-10-31,2023-10-31,株式会社ＳＫＹ,,株式会社,福島県,郡山市,田村町岩作字穂多礼２４０番地,,07,203,9631154,,,,,,,2023-10-31,1,,,,,スカイ,0
2042,7430003015573,新規,0,2023-10-31,2023-10-31,合同会社ＡＢＥＮ,,合同会社,北海道,苫小牧市,見山町４丁目１０番４号,,01,213,0530855,,,,,,,2023-10-31,1,,,,,アベン,0
2046,7460105002269,新規,0,2023-10-31,2023-10-31,一般社団法人つながり,,その他の設立登記法人,北海道,中川郡幕別町,札内暁町２７８番地２,,01,643,0890531,,,,,,,2023-10-31,1,,,,,ツナガリ,0
2055,7700150121592,新規,0,2023-10-31,2023-10-31,Ａ　Ｂ　Ｒ　ＬＡＮＫＡ　ＰＶＴ　ＬＴＤ,,外国会社等,神奈川県,横浜市戸塚区,川上町７５３番地ウッドガーデン東戸塚Ａ３０３,,14,110,2440805,スリランカ民主社会主義共和国セントラル州キャンディ、アンバテネ、カハワッタ１１４／４,,,,,,2023-10-31,1,,,,,エービーアールランカプライベートリミテツド,0
2056,7700150121601,新規,0,2023-10-31,2023-10-31,ＣｈｅｎｇｄｕＺｈｅｎｇｌｉａｎｇＹｕａｎｈａｎｇＭａｃｈｉｎｅｒｙＥｑｕｉｐｍｅｎｔＳａｌｅｓ＆ＳｅｒｖｉｃｅＣｏ．，Ｌｔｄ,,外国会社等,,,,,,,,Ｎｏ．１６　２ｎｄＦｌｏｏｒＢｕｉｌｄｉｎｇ５Ｎｏ．６ＴａｉｐｉｎｇＳｏｕｔｈＮｅｗＳｔｒｅｅｔ　ＷｕｈｏｕＤｉｓｔｒｉｃｔ　ＣｈｅｎｇｄｕＣｉｔｙ,,,,,,2023-10-31,1,,,,,セイトゼンリャンエンコウマシーナリーイクイップメントセイルズアンドサービスカンパニーリミテッド,0
2064,8010001239637,新規,0,2023-10-31,2023-10-31,ＪＨｅｓｐｅｒｕｓ　Ｊａｐａｎ株式会社,,株式会社,東京都,中央区,日本橋茅場町２丁目１７番３号,,13,102,1030025,,,,,,,2023-10-31,1,,,,,ジェーヘスペレスジャパン,0
2068,8010003042072,新規,0,2023-10-31,2023-10-31,Ｚａｙ　Ｍｕｒｆ合同会社,,合同会社,東京都,中央区,日本橋室町４丁目３番９号,,13,102,1030022,,,,,,,2023-10-31,1,,,,,ゼイマルフ,0
2069,8010003042089,新規,0,2023-10-31,2023-10-31,黒岩レジデンシャル合同会社５,,合同会社,東京都,千代田区,丸の内３丁目１番１号東京共同会計事務所内,,13,101,1000005,,,,,,,2023-10-31,1,,,,,クロイワレジデンシャルゴ,0
2070,8010003042097,新規,0,2023-10-31,2023-10-31,合同会社蓄電所１号,,合同会社,東京都,中央区,日本橋茅場町２丁目７－６晴花ビル６Ｆ,,13,102,1030025,,,,,,,2023-10-31,1,,,,,チクデンショイチゴウ,0
2072,8010005037376,新規,0,2023-10-31,2023-10-31,一般社団法人日本中医協会,,その他の設立登記法人,東京都,文京区,向丘２丁目２－６,,13,105,1130023,,,,,,,2023-10-31,1,,,,,ニホンチュウイキョウカイ,0
2076,8010401178237,新規,0,2023-10-31,2023-10-31,株式会社ＹＧＩ,,株式会社,東京都,港区,白金４丁目１－６エヴァル白金７０１,,13,103,1080072,,,,,,,2023-10-31,1,,,,,ワージーアイ,0
2081,8010405022622,新規,0,2023-10-31,2023-10-31,一般社団法人国際スポＧＯＭＩ連盟,,その他の設立登記法人,東京都,港区,赤坂２丁目１４番４号森崎ビル３Ｆ,,13,103,1070052,,,,,,,2023-10-31,1,,,,,コクサイスポゴミレンメイ,0
2084,8010701045062,新規,0,2023-10-31,2023-10-31,株式会社Ｍｏｉｎｐｒｏｓ,,株式会社,東京都,品川区,西五反田４丁目１６番４号ウエスト２０１,,13,109,1410031,,,,,,,2023-10-31,1,,,,,モインプロス,0
2085,8010701045070,新規,0,2023-10-31,2023-10-31,株式会社ＵＮＴＯＬＤ　ＪＡＰＡＮ,,株式会社,東京都,品川区,上大崎３丁目１番１号,,13,109,1410021,,,,,,,2023-10-31,1,,,,,アントールドジヤパン,0
2087,8010801034477,新規,0,2023-10-31,2023-10-31,株式会社マンション管理総研,,株式会社,東京都,大田区,萩中３丁目１３番８号セシーズ萩中１００,,13,111,1440047,,,,,,,2023-10-31,1,,,,,マンションカンリソウケン,0
2090,8010901054094,新規,0,2023-10-31,2023-10-31,株式会社１０Ａ,,株式会社,東京都,世田谷区,池尻４丁目２番２３号大橋スカイパレス２Ｂ,,13,112,1540001,,,,,,,2023-10-31,1,,,,,テンエイ,0
2091,8010901054103,新規,0,2023-10-31,2023-10-31,株式会社ｍｏｕｌｔ,,株式会社,東京都,世田谷区,船橋４丁目１４番１号,,13,112,1560055,,,,,,,2023-10-31,1,,,,,モルト,0
2093,8011001157928,新規,0,2023-10-31,2023-10-31,株式会社チームスタンダード,,株式会社,東京都,渋谷区,南平台町１５番１号ライオンズマンション南平台６０１,,13,113,1500036,,,,,,,2023-10-31,1,,,,,チームスタンダード,0
2094,8011003017849,新規,0,2023-10-31,2023-10-31,合同会社さるかに,,合同会社,東京都,渋谷区,神宮前６丁目２３番４号桑野ビル２階,,13,113,1500001,,,,,,,2023-10-31,1,,,,,サルカニ,0
2104,8011501029932,新規,0,2023-10-31,2023-10-31,株式会社ｅｘｐｒｏｖｅ,,株式会社,東京都,北区,赤羽１丁目１０－４マスカタビル３階,,13,117,1150045,,,,,,,2023-10-31,1,,,,,エクスプルーヴ,0
2110,8011705001803,新規,0,2023-10-31,2023-10-31,一般社団法人全国シニアサッカー支援協会,,その他の設立登記法人,東京都,江戸川区,船堀４丁目８番２２－２０５号,,13,123,1340091,,,,,,,2023-10-31,1,,,,,ゼンコクシニアサッカーシエンキョウカイ,0
2113,8011803005912,新規,0,2023-10-31,2023-10-31,合同会社ＡＩＭ,,合同会社,東京都,足立区,花畑５丁目２－１０,,13,121,1210061,,,,,,,2023-10-31,1,,,,,エーアイエム,0
2119,8012701017925,新規,0,2023-10-31,2023-10-31,株式会社Ｒｏｃｋｓ　Ｐａｒｔｎｅｒ,,株式会社,東京都,東久留米市,下里７丁目１番４２号,,13,222,2030043,,,,,,,2023-10-31,1,,,,,ロックスパートナー,0
2133,8020001154224,新規,0,2023-10-31,2023-10-31,株式会社ＵＲＵ,,株式会社,神奈川県,川崎市幸区,南幸町３丁目１２番地４４,,14,132,2120016,,,,,,,2023-10-31,1,,,,,ウル,0
2150,8030001156863,新規,0,2023-10-31,2023-10-31,株式会社秋山組,,株式会社,埼玉県,草加市,中根２丁目６番２号,,11,221,3400005,,,,,,,2023-10-31,1,,,,,アキヤマグミ,0
2156,8030003022725,新規,0,2023-10-31,2023-10-31,Ｃａｒｌｏｓ’Ｃｏｒｐｏｒａｔｉｏｎ合同会社,,合同会社,埼玉県,本庄市,上仁手１４４番地５フランブリーズＩ（１０２）,,11,211,3670007,,,,,,,2023-10-31,1,,,,,カルロスコーポレーション,0
2157,8030003022898,新規,0,2023-10-31,2023-10-31,合同会社ＧＯＲＩＴ,,合同会社,埼玉県,さいたま市岩槻区,美園東２丁目３３番地１４,,11,110,3390028,,,,,,,2023-10-31,1,,,,,ゴーリット,0
2163,8040001130743,新規,0,2023-10-31,2023-10-31,ＪｏＺ株式会社,,株式会社,千葉県,千葉市若葉区,北大宮台３１－１５－１,,12,104,2640014,,,,,,,2023-10-31,1,,,,,ジョズ,0
2166,8050001053753,新規,0,2023-10-31,2023-10-31,株式会社雅建装,,株式会社,茨城県,取手市,戸頭２丁目１０番７－１０２号,,08,217,3020034,,,,,,,2023-10-31,1,,,,,ミヤビケンソウ,0
2176,8100001036934,新規,0,2023-10-31,2023-10-31,株式会社ＤＯＧＴＯＷＮ,,株式会社,長野県,長野市,大字南長野県町４９３番地７,,20,201,3800838,,,,,,,2023-10-31,1,,,,,ドッグタウン,0
2188,8120001259228,新規,0,2023-10-31,2023-10-31,長弓株式会社,,株式会社,大阪府,大阪市西淀川区,姫島２丁目４番１０号,,27,113,5550033,,,,,,,2023-10-31,1,,,,,ナガユミ,0
2189,8120001259260,新規,0,2023-10-31,2023-10-31,株式会社エピグラフ,,株式会社,大阪府,大阪市淀川区,田川３丁目３番４号メゾンルミエール１号室,,27,123,5320027,,,,,,,2023-10-31,1,,,,,エピグラフ,0
2190,8120001259285,新規,0,2023-10-31,2023-10-31,嘉株式会社,,株式会社,大阪府,大阪市大正区,三軒家西３丁目４番１６号中山ビル１０３０,,27,108,5510001,,,,,,,2023-10-31,1,,,,,カ,0
2191,8120001259302,新規,0,2023-10-31,2023-10-31,株式会社ＡＲＴ　ＨＯＭＥ　ＥＳＴＡＴＥ,,株式会社,大阪府,大阪市港区,弁天１丁目２番３０－３３０３号,,27,107,5520007,,,,,,,2023-10-31,1,,,,,アートホームエステート,0
2192,8120001259310,新規,0,2023-10-31,2023-10-31,株式会社ＢＲＡＶＥ,,株式会社,大阪府,大阪市城東区,成育４丁目２３番４号,,27,118,5360007,,,,,,,2023-10-31,1,,,,,ブレイブ,0
2193,8120001259319,新規,0,2023-10-31,2023-10-31,瑞星株式会社,,株式会社,大阪府,大阪市東淀川区,淡路４丁目２９－８レインボー・シャインＲ／Ｋ６０２号室,,27,114,5330032,,,,,,,2023-10-31,1,,,,,ミズボシ,0
2194,8120001259327,新規,0,2023-10-31,2023-10-31,株式会社ＩＷＡＴＵＴＩ　ＢＬＤ．,,株式会社,大阪府,大阪市西区,立売堀４丁目６－９,,27,106,5500012,,,,,,,2023-10-31,1,,,,,イワツチビルド,0
2195,8120001259335,新規,0,2023-10-31,2023-10-31,クリエイト・ザ・フューチャーホールディングス株式会社,,株式会社,大阪府,大阪市中央区,島之内２丁目６番１６号,,27,128,5420082,,,,,,,2023-10-31,1,,,,,クリエイトザフューチャーホールディングス,0
2196,8120001259343,新規,0,2023-10-31,2023-10-31,株式会社タイガーアンドラビットデザイン,,株式会社,大阪府,大阪市中央区,谷町６丁目３番２５号ＬＯＫ０７,,27,128,5420012,,,,,,,2023-10-31,1,,,,,タイガーアンドラビットデザイン,0
2197,8120001259351,新規,0,2023-10-31,2023-10-31,東和国際株式会社,,株式会社,大阪府,大阪市天王寺区,勝山４丁目９番１７－３０１号,,27,109,5430043,,,,,,,2023-10-31,1,,,,,トウワコクサイ,0
2200,8120003025215,新規,0,2023-10-31,2023-10-31,祥麟合同会社,,合同会社,大阪府,大阪市住吉区,南住吉１丁目８番２２－４０１号,,27,120,5580041,,,,,,,2023-10-31,1,,,,,ショウリン,0
2201,8120003025231,新規,0,2023-10-31,2023-10-31,合同会社きずなグループなぎ,,合同会社,大阪府,大阪市西区,南堀江３丁目８番９－４０６号,,27,106,5500015,,,,,,,2023-10-31,1,,,,,キズナグループナギ,0
2204,8120005023968,新規,0,2023-10-31,2023-10-31,一般社団法人Ａｒｔｍａｋｅ　Ｂｅａｕｔｙ　Ａｃａｄｅｍｙ　Ｏｓａｋａ,,その他の設立登記法人,大阪府,大阪市生野区,鶴橋５丁目１３番５号,,27,116,5440031,,,,,,,2023-10-31,1,,,,,アートメイクビューティーアカデミーオオサカ,0
2231,8140003019751,新規,0,2023-10-31,2023-10-31,合同会社よしもと,,合同会社,兵庫県,神戸市灘区,弓木町５丁目２番１８号,,28,102,6570026,,,,,,,2023-10-31,1,,,,,ヨシモト,0
2233,8140005026779,新規,0,2023-10-31,2023-10-31,一般社団法人Ｈａｎａ,,その他の設立登記法人,兵庫県,明石市,大久保町谷八木１３３６番地,,28,203,6740062,,,,,,,2023-10-31,1,,,,,ハナ,0
2235,8150001026848,新規,0,2023-10-31,2023-10-31,株式会社Ｉｎｖｉｃｔ,,株式会社,奈良県,大和高田市,昭和町８番１４－４１２号朝日プラザイーストウイング,,29,202,6350013,,,,,,,2023-10-31,1,,,,,インヴィクト,0
2238,8170001006930,新規,0,2023-10-31,2023-10-31,浅川不動産株式会社,,株式会社,和歌山県,和歌山市,小松原通３丁目６９番地,,30,201,6408269,,,,,,,2023-10-31,1,,,,,アサカワフドウサン,0
2250,8180003025911,新規,0,2023-10-31,2023-10-31,合同会社帆の夏,,合同会社,愛知県,名古屋市緑区,若田２丁目６０７番地,,23,114,4580034,,,,,,,2023-10-31,1,,,,,ホノカ,0
2254,8190001030846,新規,0,2023-10-31,2023-10-31,株式会社金利産業,,株式会社,三重県,鈴鹿市,国府町８１９４番地の１,,24,207,5130836,,,,,,,2023-10-31,1,,,,,カネトシサンギョウ,0
2258,8210001019531,新規,0,2023-10-31,2023-10-31,株式会社エムゴールド,,株式会社,福井県,福井市,丸山１丁目２１０リリーフ２１日経ビル９階,,18,201,9100834,,,,,,,2023-10-31,1,,,,,エムゴールド,0
2260,8230001003178,新規,0,2023-10-31,2023-10-31,株式会社宮内工務店,,株式会社,富山県,富山市,大町２７７番地の７,,16,201,9398073,,,,,,,2023-10-31,1,,,,,ミヤウチコウムテン,0
2265,8240003006392,新規,0,2023-10-31,2023-10-31,Ｙａｋｕｓｈｉ合同会社,,合同会社,広島県,山県郡北広島町,壬生４１２番地２（ランデュールＤ１０２）,,34,369,7311515,,,,,,,2023-10-31,1,,,,,ヤクシ,0
2269,8250003003372,新規,0,2023-10-31,2023-10-31,合同会社オートクリスタル,,合同会社,山口県,岩国市,周東町下久原南方１１２７番地５,,35,208,7420417,,,,,,,2023-10-31,1,,,,,オートクリスタル,0
2270,8260003004485,新規,0,2023-10-31,2023-10-31,ライブアシスト合同会社,,合同会社,岡山県,新見市,上市３１４番地２,,33,210,7180005,,,,,,,2023-10-31,1,,,,,ライブアシスト,0
2277,8290001103501,新規,0,2023-10-31,2023-10-31,株式会社坂本興業,,株式会社,福岡県,福岡市早良区,田村１丁目１５番２号,,40,137,8140175,,,,,,,2023-10-31,1,,,,,サカモトコウギョウ,0
2278,8290001103575,新規,0,2023-10-31,2023-10-31,ヒムカ株式会社,,株式会社,福岡県,筑紫野市,針摺中央１丁目２－１,,40,217,8180083,,,,,,,2023-10-31,1,,,,,,0
2284,8320001020115,新規,0,2023-10-31,2023-10-31,Ｒｅｖｉｖｅ株式会社,,株式会社,大分県,由布市,湯布院町川西３１２７番地,,44,213,8795113,,,,,,,2023-10-31,1,,,,,リバイブ,0
2293,8340001026036,新規,0,2023-10-31,2023-10-31,株式会社ＯｕＥＮ,,株式会社,鹿児島県,鹿児島市,下伊敷２丁目２２番１２号,,46,201,8900005,,,,,,,2023-10-31,1,,,,,オウエン,0
2298,8360001032759,新規,0,2023-10-31,2023-10-31,株式会社瑞慶山産業,,株式会社,沖縄県,浦添市,字経塚４９１番地,,47,208,9012111,,,,,,,2023-10-31,1,,,,,ズケヤマサンギョウ,0
2299,8370003006339,新規,0,2023-10-31,2023-10-31,合同会社成田保険事務所,,合同会社,宮城県,仙台市青葉区,中江２丁目１０－６,,04,101,9800001,,,,,,,2023-10-31,1,,,,,ナリタホケンジムショ,0
2314,8430001090312,新規,0,2023-10-31,2023-10-31,株式会社エバー,,株式会社,北海道,札幌市清田区,北野七条１丁目１－１,,01,110,0040867,,,,,,,2023-10-31,1,,,,,エバー,0
2316,8430003015572,新規,0,2023-10-31,2023-10-31,合同会社アリヴィオ,,合同会社,北海道,札幌市豊平区,月寒西二条９丁目２番９号,,01,105,0620022,,,,,,,2023-10-31,1,,,,,アリヴィオ,0
2318,8450001014129,新規,0,2023-10-31,2023-10-31,株式会社ＶＩＶＡアグリキッチン,,株式会社,北海道,上川郡剣淵町,仲町３１番４号,,01,465,0980338,,,,,,,2023-10-31,1,,,,,ビバアグリキッチン,0
2323,8700150121600,新規,0,2023-10-31,2023-10-31,Ｆｅｉｘｉｕｓｈｅｎｚｈｅｎｋｅｊｉｙｏｕｘｉａｎｚｅｒｅｎｇｏｎｇｓｉ,,外国会社等,,,,,,,,Ｒｏｏｍ０５　１５ｔｈＦｌｏｏｒＢｕｉｌｄｉｎｇ１２ＤｉｎｇｔａｉＦｅｎｇｈｕａＣｏｍｍｕｎｉｔｙＰｈａｓｅ６　１０８５ＱｉａｎｈａｉＲｏａｄｗｅｓｔＮａｎｓｈａｎＳｔｒｅｅｔＮａｎｓｈａｎＤｉｓｔｒｉｃｔ　ＳＨＥＮＺＨＥＮ,,,,,,2023-10-31,1,,,,,フェイシュウシンセンカギユウゲンセキニンコウシ,0
2324,8700150121609,新規,0,2023-10-31,2023-10-31,ｇｕａｎｇｚｈｏｕｓｈｉｌｉａｎｇｃｈｅｎｇｊｉａｊｕｙｏｕｘｉａｎｇｏｎｇｓｉ,,外国会社等,,,,,,,,ｇｕａｎｇｚｈｏｕｓｈｉｂａｉｙｕｎｑｕｚｈｏｎｇｌｕｏｔａｎｚｈｅｎｌｉａｎｇｔｉａｎｘｉｎｇｌｏｎｇｙｉｊｉｅｓｈｉｙｉｘｉａｎｇ１０ｈａｏ,,,,,,2023-10-31,1,,,,,コウシュウシリャンチェンジアジュユウゲンコウシ,0
2336,9010003042071,新規,0,2023-10-31,2023-10-31,合同会社ＭＡＷＡＲＩＭＩＣＨＩ,,合同会社,東京都,中央区,日本橋室町１丁目１１番１２号日本橋水野ビル７階,,13,102,1030022,,,,,,,2023-10-31,1,,,,,マワリミチ,0
2337,9010003042088,新規,0,2023-10-31,2023-10-31,黒岩レジデンシャル合同会社４,,合同会社,東京都,千代田区,丸の内３丁目１番１号東京共同会計事務所内,,13,101,1000005,,,,,,,2023-10-31,1,,,,,クロイワレジデンシャルヨン,0
2339,9010101015870,新規,0,2023-10-31,2023-10-31,株式会社松本設備工業,,株式会社,東京都,八王子市,長房町１５１５－７,,13,201,1930824,,,,,,,2023-10-31,1,,,,,マツモトセツビコウギョウ,0
2350,9010401178054,新規,0,2023-10-31,2023-10-31,ＦＥＤＥＧＡＲＩ　ＪＡＰＡＮ株式会社,,株式会社,東京都,港区,赤坂１丁目１２番１２号榎坂ビル３階,,13,103,1070052,,,,,,,2023-10-31,1,,,,,フェデガーリジャパン,0
2351,9010403031269,新規,0,2023-10-31,2023-10-31,表参道ＲＥＰＰ２合同会社,,合同会社,東京都,港区,北青山３丁目１５番１３－３０９号,,13,103,1070061,,,,,,,2023-10-31,1,,,,,オモテサンドウアールイーピーピーツー,0
2364,9010903008551,新規,0,2023-10-31,2023-10-31,合同会社Ｅｆｆｏｒｔ,,合同会社,東京都,世田谷区,等々力４丁目６番１３号パレス等々力六番館２０５,,13,112,1580082,,,,,,,2023-10-31,1,,,,,エフォート,0
2368,9011001157927,新規,0,2023-10-31,2023-10-31,株式会社ＩＭＩ,,株式会社,東京都,渋谷区,広尾１丁目１６番１号ＥｂｉｓｕＨｉｒｏｏＳｑｕａｒｅ７Ｆ,,13,113,1500012,,,,,,,2023-10-31,1,,,,,アイエムアイ,0
2370,9011003017831,新規,0,2023-10-31,2023-10-31,ＶＯＷＥＬＳ　ＪＡＰＡＮ合同会社,,合同会社,東京都,渋谷区,神宮前６丁目２５番８号神宮前コーポラス１００８号室,,13,113,1500001,,,,,,,2023-10-31,1,,,,,ヴァウエルズジャパン,0
2374,9011301029124,新規,0,2023-10-31,2023-10-31,株式会社サプール,,株式会社,東京都,杉並区,和田２丁目３８－８,,13,115,1660012,,,,,,,2023-10-31,1,,,,,サプール,0
2377,9011602024781,新規,0,2023-10-31,2023-10-31,有限会社丸吉不動産,,有限会社,東京都,練馬区,桜台１丁目５番１２号,,13,120,1760002,,,,,,,2023-10-31,1,,,,,マルヨシフドウサン,0
2380,9012405004913,新規,0,2023-10-31,2023-10-31,一般社団法人狛江まちみらいラボ,,その他の設立登記法人,東京都,狛江市,和泉本町１丁目１番５号,,13,219,2010003,,,,,,,2023-10-31,1,,,,,コマエマチミライラボ,0
2382,9012701017924,新規,0,2023-10-31,2023-10-31,株式会社央建,,株式会社,東京都,東久留米市,中央町３丁目８番３号,,13,222,2030054,,,,,,,2023-10-31,1,,,,,ヒロケン,0
2383,9012703002841,新規,0,2023-10-31,2023-10-31,合同会社ＭＡＲＩＨＡ,,合同会社,東京都,東久留米市,浅間町２丁目２６番１５号,,13,222,2030012,,,,,,,2023-10-31,1,,,,,マリハ,0
2385,9012801022733,新規,0,2023-10-31,2023-10-31,株式会社グッドライブ,,株式会社,東京都,立川市,柴崎町３丁目９番２４－７０３号,,13,202,1900023,,,,,,,2023-10-31,1,,,,,グッドライブ,0
2405,9020001154058,新規,0,2023-10-31,2023-10-31,株式会社ＳＴＡＣＫＰＡＳＳ,,株式会社,神奈川県,川崎市高津区,下作延２丁目３６番５０－３号,,14,134,2130033,,,,,,,2023-10-31,1,,,,,スタックパス,0
2406,9020001154256,新規,0,2023-10-31,2023-10-31,株式会社利,,株式会社,神奈川県,横浜市南区,睦町１丁目３－５プロシード横浜６０３,,14,105,2320041,,,,,,,2023-10-31,1,,,,,キク,0
2415,9021003013747,新規,0,2023-10-31,2023-10-31,Ｒ＆Ｌｐ合同会社,,合同会社,神奈川県,横須賀市,久里浜７丁目４番１１－１０１号,,14,201,2390831,,,,,,,2023-10-31,1,,,,,アールアンドエルピー,0
2433,9030003022880,新規,0,2023-10-31,2023-10-31,ＳＯＥグローバル合同会社,,合同会社,埼玉県,川越市,大字笠幡４４８６番地１,,11,201,3501175,,,,,,,2023-10-31,1,,,,,ソーイグローバル,0
2434,9030003022897,新規,0,2023-10-31,2023-10-31,合同会社チェリー,,合同会社,埼玉県,さいたま市北区,奈良町１２６番地１２グランデフロレスタ１０１,,11,102,3310822,,,,,,,2023-10-31,1,,,,,チェリー,0
2438,9040001130718,新規,0,2023-10-31,2023-10-31,株式会社Ｔａｏ　ｔｅｃｈ,,株式会社,千葉県,八千代市,保品１１１４番地１０,,12,221,2760013,,,,,,,2023-10-31,1,,,,,タオテック,0
2448,9050001053744,新規,0,2023-10-31,2023-10-31,ＨＢ　ＴＲＡＤＩＮＧ株式会社,,株式会社,茨城県,坂東市,岩井３１７９番地１,,08,228,3060631,,,,,,,2023-10-31,1,,,,,エイチビートレーディング,0
2451,9050003007905,新規,0,2023-10-31,2023-10-31,合同会社大喜建設工業,,合同会社,茨城県,土浦市,桜ケ丘町２番２２号,,08,203,3000832,,,,,,,2023-10-31,1,,,,,ダイキケンセツコウギョウ,0
2452,9050005013348,新規,0,2023-10-31,2023-10-31,一般社団法人コソダテノイト,,その他の設立登記法人,茨城県,日立市,河原子町２丁目２２番２号,,08,202,3160005,,,,,,,2023-10-31,1,,,,,コソダテノイト,0
2454,9060001036509,新規,0,2023-10-31,2023-10-31,株式会社彗星薬局,,株式会社,栃木県,宇都宮市,上戸祭町６６９番地３,,09,201,3200051,,,,,,,2023-10-31,1,,,,,スイセイヤッキョク,0
2464,9080403004904,新規,0,2023-10-31,2023-10-31,合同会社Ｂｕｓｔａｍｉ,,合同会社,静岡県,浜松市中区,寺島町１７番地フレクション浜松Ｉ３２７号室,00132481,22,131,4300925,,,,,,,2023-10-31,1,,,,,ブスタミ,0
2472,9100003007247,新規,0,2023-10-31,2023-10-31,合同会社ＷＡ‐ＫＵ,,合同会社,長野県,松本市,桐２丁目２番１号,,20,202,3900871,,,,,,,2023-10-31,1,,,,,ワーク,0
2485,9120001258542,新規,0,2023-10-31,2023-10-31,株式会社ホリーズホーム,,株式会社,大阪府,大阪市鶴見区,鶴見２丁目２３番１３号レオパレス花つるみ２０３,,27,124,5380053,,,,,,,2023-10-31,1,,,,,ホリーズホーム,0
2486,9120001259318,新規,0,2023-10-31,2023-10-31,第一建材ホールディングス株式会社,,株式会社,大阪府,大阪市西区,京町堀２丁目１１番２３号,,27,106,5500003,,,,,,,2023-10-31,1,,,,,ダイイチケンザイホールディングス,0
2487,9120001259326,新規,0,2023-10-31,2023-10-31,株式会社ＧＭ,,株式会社,大阪府,大阪市中央区,島之内１丁目４番２８号,,27,128,5420082,,,,,,,2023-10-31,1,,,,,ジーエム,0
2488,9120001259342,新規,0,2023-10-31,2023-10-31,株式会社ＡＳＨ,,株式会社,大阪府,大阪市北区,同心１丁目５番８号聖和ビル４０５号室,,27,127,5300035,,,,,,,2023-10-31,1,,,,,アッシュ,0
2489,9120001259375,新規,0,2023-10-31,2023-10-31,株式会社リアン,,株式会社,大阪府,大阪市北区,扇町２丁目６番１７－１３０６号,,27,127,5300025,,,,,,,2023-10-31,1,,,,,リアン,0
2490,9120001259391,新規,0,2023-10-31,2023-10-31,日本永銀商事株式会社,,株式会社,大阪府,大阪市此花区,春日出南２丁目３－７栄ハイツ１０２室,,27,104,5540023,,,,,,,2023-10-31,1,,,,,ニホンエイギンショウジ,0
2493,9120003025197,新規,0,2023-10-31,2023-10-31,合同会社ベアービー,,合同会社,大阪府,大阪市平野区,喜連東３丁目１２番２０号,,27,126,5470021,,,,,,,2023-10-31,1,,,,,ベアービー,0
2494,9120003025214,新規,0,2023-10-31,2023-10-31,ＹＳテック合同会社,,合同会社,大阪府,大阪市北区,梅田１丁目２番２号大阪駅前第２ビル１２－１２,,27,127,5300001,,,,,,,2023-10-31,1,,,,,ワイエステック,0
2495,9120003025230,新規,0,2023-10-31,2023-10-31,合同会社ＢＬＵＥ　ＳＴＵＤＩＯ,,合同会社,大阪府,大阪市北区,梅田１丁目２番２号大阪駅前第２ビル１２－１２,,27,127,5300001,,,,,,,2023-10-31,1,,,,,ブルースタジオ,0
2497,9120101068420,新規,0,2023-10-31,2023-10-31,輝洋株式会社,,株式会社,大阪府,大阪狭山市,金剛２丁目１４－１,,27,231,5890006,,,,,,,2023-10-31,1,,,,,キヨウ,0
2506,9130001075565,新規,0,2023-10-31,2023-10-31,ＫＡＧＩＲＯＩ株式会社,,株式会社,京都府,宇治市,羽戸山１丁目４３－１２,,26,204,6110012,,,,,,,2023-10-31,1,,,,,カギロイ,0
2513,9140001132183,新規,0,2023-10-31,2023-10-31,株式会社Ｃｒｅａ．ｗｏｒｋｓ,,株式会社,兵庫県,西宮市,南甲子園１丁目１－８,,28,204,6638153,,,,,,,2023-10-31,1,,,,,,0
2515,9140003019750,新規,0,2023-10-31,2023-10-31,ＬＤＲ合同会社,,合同会社,兵庫県,神戸市中央区,山本通２丁目１３番１５号ＷＡＬＬＳＱＵＡＲＥ北野坂,,28,110,6500003,,,,,,,2023-10-31,1,,,,,,0
2532,9180001158712,新規,0,2023-10-31,2023-10-31,Ｌｉｆｅｔｉｍｅ株式会社,,株式会社,愛知県,名古屋市中村区,名駅３丁目４－１０アルティメイト名駅１ｓｔ２階,,23,105,4500002,,,,,,,2023-10-31,1,,,,,ライフタイム,0
2539,9190001030845,新規,0,2023-10-31,2023-10-31,ＮＡＱＥＥＢＵＬＬＡＨ株式会社,,株式会社,三重県,津市,白塚町４６１２番地５ＷＩＮ２４、２０３,,24,201,5140101,,,,,,,2023-10-31,1,,,,,ナキブウラ,0
2540,9210001019530,新規,0,2023-10-31,2023-10-31,株式会社ＺＥＲＯ,,株式会社,福井県,福井市,丸山１丁目２１０リリーフ２１日経ビル９階,,18,201,9100834,,,,,,,2023-10-31,1,,,,,ゼロ,0
2551,9260005011289,新規,0,2023-10-31,2023-10-31,一般社団法人大地,,その他の設立登記法人,岡山県,岡山市北区,日近５６８番地,,33,101,7011521,,,,,,,2023-10-31,1,,,,,ダイチ,0
2560,9290801030002,新規,0,2023-10-31,2023-10-31,株式会社神吉,,株式会社,福岡県,北九州市小倉北区,清水４丁目４－３ＧＲＯＷＴＨ・ＳＩ・清水４０６,,40,106,8030841,,,,,,,2023-10-31,1,,,,,カンキ,0
2566,9310001018687,新規,0,2023-10-31,2023-10-31,株式会社アケボノ,,株式会社,長崎県,雲仙市,愛野町甲３８７３－３７　２階,,42,213,8540301,,,,,,,2023-10-31,1,,,,,アケボノ,0
2570,9310003004669,新規,0,2023-10-31,2023-10-31,合同会社ＧＯＴＯＢＡＳＥ,,合同会社,長崎県,南松浦郡新上五島町,七目郷１０１８番地１,,42,411,8574214,,,,,,,2023-10-31,1,,,,,ゴトーベース,0
2573,9320005010103,新規,0,2023-10-31,2023-10-31,一般社団法人大分県ジュニア文化スポーツ育成振興会,,その他の設立登記法人,大分県,大分市,大字野津原３９７番地,,44,201,8701203,,,,,,,2023-10-31,1,,,,,オオイタケンジュニアブンカスポーツイクセイシンコウカイ,0
2578,9360003013426,新規,0,2023-10-31,2023-10-31,ＩＲＡＨＡ合同会社,,合同会社,沖縄県,豊見城市,字伊良波５１６番地５,,47,212,9010232,,,,,,,2023-10-31,1,,,,,イラハ,0
2580,9370001050577,新規,0,2023-10-31,2023-10-31,赤髪株式会社,,株式会社,宮城県,仙台市太白区,西中田６丁目１４番３１号ハイツサンライト１０１,,04,104,9811105,,,,,,,2023-10-31,1,,,,,アカガミ,0
2594,9430001090311,新規,0,2023-10-31,2023-10-31,ジェイプランニング株式会社,,株式会社,北海道,札幌市西区,西野六条１０丁目７番１０号,,01,107,0630036,,,,,,,2023-10-31,1,,,,,ジェイプランニング,0
2598,9440003001554,新規,0,2023-10-31,2023-10-31,奥尻ネクストエナジー合同会社,,合同会社,北海道,奥尻郡奥尻町,字奥尻７４１番地,,01,367,0431401,,,,,,,2023-10-31,1,,,,,オクシリネクストエナジー,0
2599,9460001005844,新規,0,2023-10-31,2023-10-31,株式会社テシカガファーム,,株式会社,北海道,川上郡弟子屈町,中央１丁目５番１９号,,01,665,0883211,,,,,,,2023-10-31,1,,,,,テシカガファーム,0
2610,9500001025276,新規,0,2023-10-31,2023-10-31,株式会社木村家,,株式会社,愛媛県,今治市,南宝来町２丁目２番地２６,,38,202,7940043,,,,,,,2023-10-31,1,,,,,キムラヤ,0
2612,9500005008649,新規,0,2023-10-31,2023-10-31,ＮＰＯ法人ＳＴＯＮＥ　ＨＡＭＭＥＲ実行委員会,,その他の設立登記法人,愛媛県,西条市,朔日市７７５番地４,,38,206,7930027,,,,,,,2023-10-31,1,,,,,ストーンハンマージッコウイインカイ,0
2613,9700150112508,新規,0,2023-10-31,2023-10-31,ＳＨＥＮ　ＺＨＥＮ　ＹＩＮＧ　ＴＡＩ　ＹＯＵ　ＭＡＯ　ＹＩ　ＹＯＵ　ＸＩＡＮ　ＧＯＮＧ　ＳＩ,,外国会社等,,,,,,,,Ｒｏｏｍ　３０１－Ｄ，Ｘｉｎｇｈｕａ　Ｂｕｉｌｄｉｎｇ，Ｎｏ．１００７　Ｂａｎｘｕｅｇａｎｇ　Ａｖｅｎｕｅ　Ｍａ’ａｎｔａｎｇ　Ｃｏｍｍｕｎｉｔｙ，Ｂａｎｔｉａｎ　Ｓｔｒｅｅｔ，Ｌｏｎｇｇａｎｇ　Ｄｉｓｔｒｉｃｔ,,,,,,2023-10-31,1,,,,,シエンジエンインタイヨウマオイーヨウシエンゴンス,0
2614,9700150121599,新規,0,2023-10-31,2023-10-31,ｓｈｅｎｚｈｅｎｓｈｉｊｉａｍｅｉｙｕｎｄｏｎｇｆａｚｈａｎｙｏｕｘｉａｎｇｏｎｇｓｉ,,外国会社等,,,,,,,,１００１－０６ＢｕｉｌｄｉｎｇＡＨｏｎｇｓｈｅｎｇｙｕａｎＩｎｆｏｒｍａｔｉｏｎＩｎｄｕｓｔｒｉａｌＰａｒｋＭａａｎｔａｎｇＣｏｍｍｕｎｉｔｙＢｕｌｏｎｇＲｏａｄＮｏ．３３９ＢａｎｔｉａｎＳｕｂ－Ｄｉｓｔｒｉｃｔ　ＬｏｎｇｇａｎｇＤｉｓｔｒｉｃｔ　ＳｈｅｎｚｈｅｎＣｉｔｙ,,,,,,2023-10-31,1,,,,,シンセンシジャメイユンドンファザンユウゲンコウシ,0
2615,9700150121608,新規,0,2023-10-31,2023-10-31,ＧＵＡＮＧＺＨＯＵＹＵＡＮＤＡＯＺＨＥＮＧＤＩＡＮＺＩＫＥＪＩＹＯＵＸＩＡＮＧＯＮＧＳＩ,,外国会社等,,,,,,,,ＧＵＡＮＺＧＨＯＵＳＨＩ　ＹＵＥＸＩＵＱＵ　ＹＯＮＧＦＵＬＵ３５ＨＡＯＺＨＩ２ＦＵＹＩＣＥＮＧ３５ＨＡＯＺＨＩ２－７ＳＨＯＵＣＥＮＧ３５ＨＡＯＺＨＩ２ＤＩ２－４ＺＩＢＩＡＮＤＩＹＩＣＥＮＧ１９８ＨＡＯＳＨＡＮＧＰＵ,,,,,,2023-10-31,1,,,,,コウシュウエンドウセイデンシカギユウゲンコウシ,0
2616,9700150121624,新規,0,2023-10-31,2023-10-31,ＺＨＵＨＡＩＹＯＯＮＧＳＵＮ　ＣＥＮＴＵＲＹ　ＴＲＡＤＩＮＧ　ＣＯ．，ＬＴＤ．,,外国会社等,,,,,,,,Ｒｏｏｍ６０２－０２　６ｔｈＦｌｏｏｒＢｕｉｌｄｉｎｇ２Ｃｏｍｐｒｅｈｅｎｓｉｖｅ　ＢｕｉｌｄｉｎｇＮｏ．６５ＨｕａｗｅｉＲｏａｄ　ＺｈｕｈａｉＣｉｔｙ,,,,,,2023-10-31,1,,,,,ジュカイヨンサンセンチュリートレーディングカンパニーリミテッド,0
