sequenceNumber,corporateNumber,process,correct,updateDate,changeDate,name,nameImageId,kind,prefectureName,cityName,streetNumber,addressImageId,prefectureCode,cityCode,postCode,addressOutside,addressOutsideImageId,closeDate,closeCause,successorCorporateNumber,changeCause,assignmentDate,latest,enName,enPrefectureName,enCityName,enAddressOutside,furigana,hihyoji
8,1010001242119,新規,0,2024-02-13,2024-02-13,株式会社Ｔｅｍｐｏ　Ｊａｐａｎ,,株式会社,東京都,中央区,日本橋茅場町１丁目８番１号ＦｉｎＧＡＴＥＫＡＹＡＢＡ３Ｆ－Ａｎｔｌｅｒ,,13,102,1030025,,,,,,,2024-02-13,1,,,,,テンポジャパン,0
24,1010401180315,新規,0,2024-02-13,2024-02-13,ＡＯＹＡＭＡ　ＣＬＵＢ株式会社,,株式会社,東京都,港区,南青山６丁目１３番３号,,13,103,1070062,,,,,,,2024-02-13,1,,,,,アオヤマクラブ,0
25,1010401180364,新規,0,2024-02-13,2024-02-13,株式会社ＮＳＳＫ‐Ｅ１,,株式会社,東京都,港区,愛宕２丁目５番１号愛宕グリーンヒルズＭＯＲＩタワー,,13,103,1050002,,,,,,,2024-02-13,1,,,,,エヌエスエスケーイーワン,0
31,1010703007050,新規,0,2024-02-13,2024-02-13,合同会社Ｐｒｉｍｅ　Ｓｉｔｅ,,合同会社,東京都,品川区,西五反田３丁目３番２号プラウドタワー目黒ＭＡＲＣ１８１２,,13,109,1410031,,,,,,,2024-02-13,1,,,,,プライムサイト,0
36,1010903008815,新規,0,2024-02-13,2024-02-13,トモヒラク合同会社,,合同会社,東京都,世田谷区,赤堤１丁目４２番９－１０２号,,13,112,1560044,,,,,,,2024-02-13,1,,,,,トモヒラク,0
46,1011101106147,新規,0,2024-02-13,2024-02-13,新東宝映画株式会社,,株式会社,東京都,新宿区,四谷２丁目８番地８第五三和ビル２０３,,13,104,1600004,,,,,,,2024-02-13,1,,,,,シントウホウエイガ,0
48,1011103014083,新規,0,2024-02-13,2024-02-13,合同会社スタジオＤＩＣＥ,,合同会社,東京都,新宿区,西新宿３丁目３番１３号西新宿水間ビル２Ｆ,,13,104,1600023,,,,,,,2024-02-13,1,,,,,スタジオダイス,0
52,1011403004271,新規,0,2024-02-13,2024-02-13,合同会社Ｏｐｔｉ‐Ｍａｓｓ,,合同会社,東京都,板橋区,成増３丁目４８番１８－６１７号ソライエ成増,,13,119,1750094,,,,,,,2024-02-13,1,,,,,オプティマス,0
66,1020001155773,新規,0,2024-02-13,2024-02-13,株式会社ｉｎｇ,,株式会社,神奈川県,川崎市高津区,宇奈根６４８レティシアＡ２０２,,14,134,2130031,,,,,,,2024-02-13,1,,,,,アイエヌジー,0
67,1021001081448,新規,0,2024-02-13,2024-02-13,株式会社ＴＳＡＭ,,株式会社,神奈川県,秦野市,鶴巻北３丁目１０番２号,,14,211,2570001,,,,,,,2024-02-13,1,,,,,ティーエスエーエム,0
79,1030003023622,新規,0,2024-02-13,2024-02-13,合同会社ＫＵＳＨＩＧＥ,,合同会社,埼玉県,久喜市,菖蒲町菖蒲５０１３番地１５９,,11,232,3460106,,,,,,,2024-02-13,1,,,,,クシゲ,0
85,1040001132176,新規,0,2024-02-13,2024-02-13,株式会社ＨＩＭ,,株式会社,千葉県,松戸市,東松戸２丁目１６番地の１,,12,207,2702225,,,,,,,2024-02-13,1,,,,,ヒム,0
91,1040003024314,新規,0,2024-02-13,2024-02-13,合同会社ＡＲＩシステム,,合同会社,千葉県,市原市,松ケ島２丁目２２番地１０プルミエラムールＢ２０２,,12,219,2900035,,,,,,,2024-02-13,1,,,,,アリシステム,0
92,1040005022274,新規,0,2024-02-13,2024-02-13,一般財団法人世界ビジョン研究会,,その他の設立登記法人,千葉県,南房総市,久枝５２７番地１６,,12,234,2992216,,,,,,,2024-02-13,1,,,,,セカイビジョンケンキュウカイ,0
94,1050001054262,新規,0,2024-02-13,2024-02-13,株式会社Ｅｒｍａｎａ,,株式会社,茨城県,つくば市,豊里の杜２丁目１６－３,,08,220,3002648,,,,,,,2024-02-13,1,,,,,エルマナ,0
99,1050003008134,新規,0,2024-02-13,2024-02-13,合同会社梶山,,合同会社,茨城県,日立市,大久保町３丁目１３番１１－２０１号,,08,202,3160012,,,,,,,2024-02-13,1,,,,,カジヤマ,0
106,1090001018544,新規,0,2024-02-13,2024-02-13,山梨山株式会社,,株式会社,山梨県,甲府市,上石田４丁目１番１０号,,19,201,4000041,,,,,,,2024-02-13,1,,,,,ヤマナシヤマ,0
116,1120001262147,新規,0,2024-02-13,2024-02-13,華生商事株式会社,,株式会社,大阪府,大阪市中央区,瓦屋町２丁目１８番７号コンフォートマンション９０５号室,,27,128,5420066,,,,,,,2024-02-13,1,,,,,カセイショウジ,0
117,1120001262238,新規,0,2024-02-13,2024-02-13,大帥貿易株式会社,,株式会社,大阪府,大阪市淀川区,西宮原２丁目６－１６－８０１,,27,123,5320004,,,,,,,2024-02-13,1,,,,,ダイスイボウエキ,0
124,1120901048744,新規,0,2024-02-13,2024-02-13,株式会社ＳＹＪ,,株式会社,大阪府,吹田市,垂水町１丁目２１番１８号ＬＥＯ’Ｓ垂水２０１号室,,27,205,5640062,,,,,,,2024-02-13,1,,,,,エスワイジェイ,0
129,1130001076356,新規,0,2024-02-13,2024-02-13,株式会社ＷＥＡＬ,,株式会社,京都府,京都市左京区,南禅寺草川町９番地１１,,26,103,6068437,,,,,,,2024-02-13,1,,,,,ウィール,0
134,1140001133296,新規,0,2024-02-13,2024-02-13,株式会社ＬａＬａｆｕｌ,,株式会社,兵庫県,神戸市須磨区,須磨浦通４丁目７番８号,,28,107,6540055,,,,,,,2024-02-13,1,,,,,ララフル,0
136,1140003020138,新規,0,2024-02-13,2024-02-13,Ｋ‐Ｗｏｒｋ合同会社,,合同会社,兵庫県,三田市,けやき台３丁目３４－７,,28,219,6691321,,,,,,,2024-02-13,1,,,,,ケイワーク,0
137,1140003020162,新規,0,2024-02-13,2024-02-13,合同会社Ｍｉｒｅ,,合同会社,兵庫県,神戸市須磨区,横尾９丁目３番地の２６,,28,107,6540131,,,,,,,2024-02-13,1,,,,,ミレ,0
138,1140005026934,新規,0,2024-02-13,2024-02-13,特定非営利活動法人雨やどり,,その他の設立登記法人,兵庫県,尼崎市,築地５丁目５番１７号,,28,202,6600858,,,,,,,2024-02-13,1,,,,,アマヤドリ,0
140,1160003003116,新規,0,2024-02-13,2024-02-13,合同会社フラワー,,合同会社,滋賀県,蒲生郡日野町,大字村井８６８番地５,,25,383,5291604,,,,,,,2024-02-13,1,,,,,フラワー,0
152,1180001160114,新規,0,2024-02-13,2024-02-13,株式会社リリージョン,,株式会社,愛知県,名古屋市東区,泉１丁目２番３号,,23,102,4610001,,,,,,,2024-02-13,1,,,,,リリージョン,0
153,1180001160130,新規,0,2024-02-13,2024-02-13,ｗｅｌｆａｒｅ株式会社,,株式会社,愛知県,常滑市,広目字京田１７番地の１,,23,216,4790808,,,,,,,2024-02-13,1,,,,,ウェルフェア,0
158,1180303006007,新規,0,2024-02-13,2024-02-13,ＭＤ三好設計事務所合同会社,,合同会社,愛知県,豊田市,小坂本町１丁目５番５号,,23,211,4710034,,,,,,,2024-02-13,1,,,,,エムディーミヨシセッケイジムショ,0
159,1190001031099,新規,0,2024-02-13,2024-02-13,株式会社飯高バイオマスセンター,,株式会社,三重県,松阪市,飯高町赤桶１７１４番地,,24,204,5151505,,,,,,,2024-02-13,1,,,,,イイタカバイオマスセンター,0
167,1240001062782,新規,0,2024-02-13,2024-02-13,金平産業株式会社,,株式会社,広島県,呉市,川尻町東１丁目５番６号,,34,202,7372607,,,,,,,2024-02-13,1,,,,,カネヒラサンギョウ,0
169,1240005015720,新規,0,2024-02-13,2024-02-13,一般社団法人Ｆ．Ｃｔ,,その他の設立登記法人,広島県,安芸郡熊野町,平谷２丁目１７番１０号,,34,307,7314229,,,,,,,2024-02-13,1,,,,,エフシーティー,0
171,1250005008896,新規,0,2024-02-13,2024-02-13,特定非営利活動法人アーステクノ,,その他の設立登記法人,山口県,下関市,南部町２０番３－２０２号アドバンス２１ベイスクエア・コンコルディア,,35,201,7500006,,,,,,,2024-02-13,1,,,,,アーステクノ,0
177,1330001031745,新規,0,2024-02-13,2024-02-13,株式会社やまびこ,,株式会社,熊本県,菊池市,泗水町吉富２００－１,,43,210,8611201,,,,,,,2024-02-13,1,,,,,ヤマビコ,0
179,1330003010193,新規,0,2024-02-13,2024-02-13,合同会社ＪＩＹＥ,,合同会社,熊本県,上益城郡益城町,大字惣領１４８２番地２,,43,443,8612233,,,,,,,2024-02-13,1,,,,,ジイエ,0
182,1340001026281,新規,0,2024-02-13,2024-02-13,株式会社一代,,株式会社,鹿児島県,鹿児島市,明和４丁目５番１６－２号,,46,201,8900024,,,,,,,2024-02-13,1,,,,,イチダイ,0
196,1420001018592,新規,0,2024-02-13,2024-02-13,株式会社エフ・エス・イー,,株式会社,青森県,上北郡六ヶ所村,大字尾駮字野附３４６番地２ブリックアールＢ－３,,02,411,0393212,,,,,,,2024-02-13,1,,,,,エフエスイー,0
200,1430001091060,新規,0,2024-02-13,2024-02-13,株式会社タケオゼネラルカンパニー,,株式会社,北海道,札幌市中央区,南二条東６丁目５番地朝日プラザ一条橋５０２号,,01,101,0600052,,,,,,,2024-02-13,1,,,,,タケオゼネラルカンパニー,0
201,1430003015942,新規,0,2024-02-13,2024-02-13,合同会社無限空間,,合同会社,北海道,札幌市中央区,南五条西１５丁目２－３リズム医大前５０３号室,,01,101,0640805,,,,,,,2024-02-13,1,,,,,ムゲンクウカン,0
203,1470001020032,新規,0,2024-02-13,2024-02-13,Ｆａｂｌａｓｔ株式会社,,株式会社,香川県,高松市,香南町吉光９７－２,,37,201,7611403,,,,,,,2024-02-13,1,,,,,ファブラスト,0
204,1470003002581,新規,0,2024-02-13,2024-02-13,合同会社カインド,,合同会社,香川県,高松市,香川町浅野９６４番地１２,,37,201,7611703,,,,,,,2024-02-13,1,,,,,カインド,0
205,1500001025465,新規,0,2024-02-13,2024-02-13,瀬戸内ビジネスコンサルティング株式会社,,株式会社,愛媛県,松山市,越智１丁目１６番２６－５号,,38,201,7900933,,,,,,,2024-02-13,1,,,,,セトウチビジネスコンサルティング,0
217,2010001242266,新規,0,2024-02-13,2024-02-13,日本開元食品株式会社,,株式会社,東京都,中央区,日本橋茅場町２丁目１４番１号,,13,102,1030025,,,,,,,2024-02-13,1,,,,,ニホンカイゲンショクヒン,0
219,2010003042920,新規,0,2024-02-13,2024-02-13,ＬＳ１合同会社,,合同会社,東京都,中央区,日本橋１丁目４番１号日本橋一丁目ビルディング,,13,102,1030027,,,,,,,2024-02-13,1,,,,,エルエスワン,0
228,2010401180173,新規,0,2024-02-13,2024-02-13,株式会社飯田真弓事務所,,株式会社,東京都,港区,台場２丁目２番２－１３２０号,,13,103,1350091,,,,,,,2024-02-13,1,,,,,イイダマユミジムショ,0
229,2010401180306,新規,0,2024-02-13,2024-02-13,株式会社ＤＫＹ,,株式会社,東京都,港区,赤坂３丁目１４番１号,,13,103,1070052,,,,,,,2024-02-13,1,,,,,ディーケーワイ,0
230,2010401180314,新規,0,2024-02-13,2024-02-13,株式会社ハフ,,株式会社,東京都,港区,南青山５丁目１１番２４号グレイセス２階,,13,103,1070062,,,,,,,2024-02-13,1,,,,,ハフ,0
231,2010401180330,新規,0,2024-02-13,2024-02-13,株式会社ＣｈｉｌｌＤｏｇ,,株式会社,東京都,港区,赤坂６丁目１０番３９－２２０号,,13,103,1070052,,,,,,,2024-02-13,1,,,,,チルドッグ,0
232,2010401180339,新規,0,2024-02-13,2024-02-13,株式会社ジャフコグループＳＩＤ‐７,,株式会社,東京都,港区,虎ノ門１丁目２３番１号ジャフコグループ株式会社内,,13,103,1050001,,,,,,,2024-02-13,1,,,,,ジャフコグループエスアイディーセブン,0
233,2010401180355,新規,0,2024-02-13,2024-02-13,株式会社仁,,株式会社,東京都,港区,新橋２丁目９番１号,,13,103,1050004,,,,,,,2024-02-13,1,,,,,ジン,0
234,2010401180363,新規,0,2024-02-13,2024-02-13,株式会社ＮＳＳＫ‐Ｄ２,,株式会社,東京都,港区,愛宕２丁目５番１号愛宕グリーンヒルズＭＯＲＩタワー,,13,103,1050002,,,,,,,2024-02-13,1,,,,,エヌエスエスケーディーツー,0
235,2010403031952,新規,0,2024-02-13,2024-02-13,合同会社グロースパートナーズ,,合同会社,東京都,港区,南青山３丁目１番３６号青山丸竹ビル６Ｆ,,13,103,1070062,,,,,,,2024-02-13,1,,,,,グロースパートナーズ,0
240,2010601064639,新規,0,2024-02-13,2024-02-13,株式会社ＨＲ,,株式会社,東京都,江東区,大島２丁目２８番７号アーバンハイツマツザキ２０１,,13,108,1360072,,,,,,,2024-02-13,1,,,,,エイチアール,0
244,2010801034771,新規,0,2024-02-13,2024-02-13,株式会社Ｔ　ＳＥＬＥＣＴＩＯＮ,,株式会社,東京都,大田区,仲六郷１丁目２８番７号,,13,111,1440055,,,,,,,2024-02-13,1,,,,,ティーセレクション,0
248,2010903008814,新規,0,2024-02-13,2024-02-13,合同会社Ｍ．Ｓｏｕｒｉｒｅ,,合同会社,東京都,世田谷区,上用賀１丁目２６番８－５０６号,,13,112,1580098,,,,,,,2024-02-13,1,,,,,エムスリール,0
254,2011003018464,新規,0,2024-02-13,2024-02-13,合同会社スタジオ南十字星,,合同会社,東京都,渋谷区,神宮前６丁目２３番４号桑野ビル２階,,13,113,1500001,,,,,,,2024-02-13,1,,,,,スタジオミナミジュウジセイ,0
259,2011101106138,新規,0,2024-02-13,2024-02-13,株式会社フレンド,,株式会社,東京都,新宿区,北新宿１丁目２３番３号,,13,104,1690074,,,,,,,2024-02-13,1,,,,,フレンド,0
262,2011301029394,新規,0,2024-02-13,2024-02-13,株式会社建民,,株式会社,東京都,杉並区,成田西２丁目１番１１号Ｃ号棟,,13,115,1660016,,,,,,,2024-02-13,1,,,,,ケンミン,0
263,2011305002959,新規,0,2024-02-13,2024-02-13,一般社団法人みんなの伝芸,,その他の設立登記法人,東京都,杉並区,南荻窪２丁目２３番１１－２０５号,,13,115,1670052,,,,,,,2024-02-13,1,,,,,ミンナノデンゲイ,0
264,2011401025855,新規,0,2024-02-13,2024-02-13,弘寧株式会社,,株式会社,東京都,板橋区,中丸町５－４ボンズテラス池袋６０２,,13,119,1730026,,,,,,,2024-02-13,1,,,,,コウネイ,0
270,2012801022962,新規,0,2024-02-13,2024-02-13,株式会社ごきげん習慣研究所,,株式会社,東京都,国分寺市,並木町１丁目５－３１,,13,214,1850005,,,,,,,2024-02-13,1,,,,,ゴキゲンシュウカンケンキュウジョ,0
271,2012803003309,新規,0,2024-02-13,2024-02-13,合同会社メシード,,合同会社,東京都,国立市,中１丁目１０番３１号にっけん小野ビル２階,,13,215,1860004,,,,,,,2024-02-13,1,,,,,メシード,0
274,2013301052062,新規,0,2024-02-13,2024-02-13,アメイン株式会社,,株式会社,東京都,豊島区,西池袋５丁目２番１１号第一春谷ビル４Ｆ,,13,116,1710021,,,,,,,2024-02-13,1,,,,,アメイン,0
283,2020001155764,新規,0,2024-02-13,2024-02-13,ＳＭＴ株式会社,,株式会社,神奈川県,横浜市港北区,大倉山４丁目１番１－４０２号,,14,109,2220037,,,,,,,2024-02-13,1,,,,,エスエムティー,0
285,2020003025528,新規,0,2024-02-13,2024-02-13,青梧合同会社,,合同会社,神奈川県,横浜市中区,伊勢佐木町４丁目１１２番ウイルビィー横浜１ｓｔビル２階２０１号室,,14,104,2310045,,,,,,,2024-02-13,1,,,,,アオギリ,0
286,2020003025536,新規,0,2024-02-13,2024-02-13,りちゃる横浜合同会社,,合同会社,神奈川県,横浜市中区,元町４丁目１６８－３Ｆ－２９,,14,104,2310861,,,,,,,2024-02-13,1,,,,,リチャルヨコハマ,0
289,2021003014157,新規,0,2024-02-13,2024-02-13,ｍａｎｉｍａｎｉ合同会社,,合同会社,神奈川県,鎌倉市,材木座６丁目２１－２０,,14,204,2480013,,,,,,,2024-02-13,1,,,,,マニマニ,0
295,2030001158592,新規,0,2024-02-13,2024-02-13,紙ものデザイン株式会社,,株式会社,埼玉県,さいたま市南区,辻１丁目５番１３－４０５号,00133691,11,108,3360026,,,,,,,2024-02-13,1,,,,,カミモノデザイン,0
299,2030003023605,新規,0,2024-02-13,2024-02-13,合同会社ランディング,,合同会社,埼玉県,所沢市,小手指町３丁目１１番地の１０、２０２号室,,11,208,3591141,,,,,,,2024-02-13,1,,,,,ランディング,0
300,2030003023613,新規,0,2024-02-13,2024-02-13,合同会社おうち工房,,合同会社,埼玉県,白岡市,彦兵衛２２番地１４２,,11,246,3490224,,,,,,,2024-02-13,1,,,,,オウチコウボウ,0
308,2040001132167,新規,0,2024-02-13,2024-02-13,株式会社ＦＵＪＩクラフト,,株式会社,千葉県,八街市,東吉田５６４番地１０９,,12,230,2891114,,,,,,,2024-02-13,1,,,,,フジクラフト,0
312,2050001054261,新規,0,2024-02-13,2024-02-13,職人仲間株式会社,,株式会社,茨城県,つくば市,花室８３４番地２,,08,220,3050025,,,,,,,2024-02-13,1,,,,,ショクニンナカマ,0
313,2050001054286,新規,0,2024-02-13,2024-02-13,Ｈａｒｕｏ　Ｌｉｆｅｈｏｍｅ株式会社,,株式会社,茨城県,守谷市,ひがし野３丁目２３番地１８,,08,224,3020131,,,,,,,2024-02-13,1,,,,,ハルオライフホーム,0
315,2050005013387,新規,0,2024-02-13,2024-02-13,一般社団法人シリコン材料の科学と技術,,その他の設立登記法人,茨城県,ひたちなか市,大字中根３２７１番地の１１０,,08,221,3120011,,,,,,,2024-02-13,1,,,,,シリコンザイリョウノカガクトギジュツ,0
317,2060001036820,新規,0,2024-02-13,2024-02-13,株式会社Ｈｅａｒｔ‐Ｍａｒｋ,,株式会社,栃木県,宇都宮市,岩曽町１４９８番地６,,09,201,3210973,,,,,,,2024-02-13,1,,,,,ハートマーク,0
318,2060003004890,新規,0,2024-02-13,2024-02-13,Ｙ・Ｍプランニング合同会社,,合同会社,栃木県,矢板市,本町１番２６号,,09,211,3292164,,,,,,,2024-02-13,1,,,,,ワイエムプランニング,0
319,2070001041373,新規,0,2024-02-13,2024-02-13,株式会社ＡＩＥＳ,,株式会社,群馬県,伊勢崎市,田部井町２丁目４４７番地,,10,204,3792222,,,,,,,2024-02-13,1,,,,,アイエス,0
321,2070003005269,新規,0,2024-02-13,2024-02-13,ＯＡ　Ｔｒａｄｉｎｇ合同会社,,合同会社,群馬県,伊勢崎市,昭和町１６５６番地５,,10,204,3720014,,,,,,,2024-02-13,1,,,,,オーエートレーディング,0
322,2080001026118,新規,0,2024-02-13,2024-02-13,株式会社ＯＨＡＮＡ,,株式会社,静岡県,焼津市,小柳津２１３－１,,22,212,4250073,,,,,,,2024-02-13,1,,,,,オハナ,0
324,2080101024533,新規,0,2024-02-13,2024-02-13,株式会社ビゼックス,,株式会社,静岡県,沼津市,今沢２２番地の１０,,22,203,4100875,,,,,,,2024-02-13,1,,,,,ビゼックス,0
331,2090001018535,新規,0,2024-02-13,2024-02-13,株式会社エターナルライフ,,株式会社,山梨県,上野原市,犬目１０４８,,19,212,4090124,,,,,,,2024-02-13,1,,,,,エターナルライフ,0
332,2090001018543,新規,0,2024-02-13,2024-02-13,株式会社ＤＩＡＲＹ,,株式会社,山梨県,甲州市,勝沼町休息１０２０番地３,,19,213,4091304,,,,,,,2024-02-13,1,,,,,ダイアリー,0
344,2120001262096,新規,0,2024-02-13,2024-02-13,株式会社曽我部組,,株式会社,大阪府,大阪市西区,新町４丁目９番８－１２０２号,,27,106,5500013,,,,,,,2024-02-13,1,,,,,ソガベグミ,0
345,2120001262154,新規,0,2024-02-13,2024-02-13,ＫＣＦ株式会社,,株式会社,大阪府,大阪市北区,西天満１丁目５－１５,,27,127,5300047,,,,,,,2024-02-13,1,,,,,ケーシーエフ,0
346,2120001262170,新規,0,2024-02-13,2024-02-13,ＫＹＯ文化サービス株式会社,,株式会社,大阪府,大阪市東成区,大今里西３丁目２番２９－５０３号,,27,115,5370014,,,,,,,2024-02-13,1,,,,,ケーワイオーブンカサービス,0
347,2120001262253,新規,0,2024-02-13,2024-02-13,三宝株式会社,,株式会社,大阪府,大阪市東成区,中道４丁目１６番２１－４０５号,,27,115,5370025,,,,,,,2024-02-13,1,,,,,サンポウ,0
350,2120003025897,新規,0,2024-02-13,2024-02-13,ピース合同会社,,合同会社,大阪府,大阪市北区,西天満３丁目４－５西天満ワークビル５０４号室,,27,127,5300047,,,,,,,2024-02-13,1,,,,,ピース,0
353,2122001037825,新規,0,2024-02-13,2024-02-13,株式会社サンシャイン,,株式会社,大阪府,大東市,平野屋新町１番４５－２０５号,,27,218,5740021,,,,,,,2024-02-13,1,,,,,サンシャイン,0
356,2130001076314,新規,0,2024-02-13,2024-02-13,落仙山房株式会社,,株式会社,京都府,京都市右京区,梅ケ畑高鼻町１３番地,,26,108,6168261,,,,,,,2024-02-13,1,,,,,ラクセンサンボウ,0
360,2130005017000,新規,0,2024-02-13,2024-02-13,一般社団法人Ｃｕｌｔｕｒｅｐｒｅｎｅｕｒ　Ｃｏｌｌｅｃｔｉｖｅｓ,,その他の設立登記法人,京都府,京都市左京区,高野東開町１番地７東大路高野第二住宅一号棟１－２０２,,26,103,6068107,,,,,,,2024-02-13,1,,,,,カルチャープレナーコレクティブズ,0
369,2140001133304,新規,0,2024-02-13,2024-02-13,株式会社富舜,,株式会社,兵庫県,姫路市,四郷町東阿保５０７番地１４６,,28,201,6710247,,,,,,,2024-02-13,1,,,,,トミシュン,0
377,2180001160146,新規,0,2024-02-13,2024-02-13,株式会社庄和装備,,株式会社,愛知県,名古屋市中村区,横井２丁目１５３番地２,,23,105,4530866,,,,,,,2024-02-13,1,,,,,ショウワソウビ,0
384,2200001042143,新規,0,2024-02-13,2024-02-13,遠航株式会社,,株式会社,岐阜県,養老郡養老町,下笠５０７８番４・２０１,,21,341,5031384,,,,,,,2024-02-13,1,,,,,エンコウ,0
399,2260001038755,新規,0,2024-02-13,2024-02-13,ＲｉＬｉＨａ株式会社,,株式会社,岡山県,岡山市北区,青江１丁目２１番２６号,,33,101,7000941,,,,,,,2024-02-13,1,,,,,リリハ,0
402,2280001009119,新規,0,2024-02-13,2024-02-13,株式会社ＵＭ　ＩＮＤＵＳＴＲＹ,,株式会社,島根県,松江市,玉湯町布志名７２２番地７,,32,201,6990203,,,,,,,2024-02-13,1,,,,,ユーエムインダストリー,0
404,2290001104686,新規,0,2024-02-13,2024-02-13,株式会社こころことばアカデミー,,株式会社,福岡県,福岡市早良区,原２丁目１０番３７－１１０９号レジデンシャル原ブランシエラノーブル・テラス,,40,137,8140022,,,,,,,2024-02-13,1,,,,,ココロコトバアカデミー,0
409,2310001018859,新規,0,2024-02-13,2024-02-13,株式会社Ｃ．Ｏ,,株式会社,長崎県,佐世保市,小佐々町黒石３２８番地３,,42,202,8570401,,,,,,,2024-02-13,1,,,,,シーオー,0
415,2330001031744,新規,0,2024-02-13,2024-02-13,株式会社ピュアファースト,,株式会社,熊本県,熊本市中央区,新大江１丁目２７番５号－１Ｆ,,43,101,8620972,,,,,,,2024-02-13,1,,,,,ピュアファースト,0
417,2340003004367,新規,0,2024-02-13,2024-02-13,合同会社カバードピープルザリージョンズ,,合同会社,鹿児島県,薩摩川内市,下甑町手打８６１番地,00133698,46,215,8961601,,,,,,,2024-02-13,1,,,,,カバードピープルザリージョンズ,0
419,2360003013705,新規,0,2024-02-13,2024-02-13,合同会社テイスティー,,合同会社,沖縄県,浦添市,宮城１丁目３３番２－２０５号フラワーキャッスル宮城,,47,208,9012126,,,,,,,2024-02-13,1,,,,,テイスティー,0
424,2400001016548,新規,0,2024-02-13,2024-02-13,株式会社ａｃｃｏｍｐａｎｙ,,株式会社,岩手県,一関市,藤沢町保呂羽字大宝城２５９番地,,03,209,0293521,,,,,,,2024-02-13,1,,,,,アカンパニー,0
431,2430003015925,新規,0,2024-02-13,2024-02-13,合同会社太田企画,,合同会社,北海道,札幌市南区,中ノ沢１丁目１番４号Ｒｅｘ２　２階,,01,106,0050831,,,,,,,2024-02-13,1,,,,,オオタキカク,0
436,2470005006547,新規,0,2024-02-13,2024-02-13,一般社団法人日本うどん協会,,その他の設立登記法人,香川県,高松市,香川町浅野８２８番地１ウインクスＣ１０２,,37,201,7611703,,,,,,,2024-02-13,1,,,,,ニホンウドンキョウカイ,0
438,2490001010699,新規,0,2024-02-13,2024-02-13,株式会社やまもも,,株式会社,高知県,幡多郡大月町,大字姫ノ井１３７７番４,,39,424,7880331,,,,,,,2024-02-13,1,,,,,ヤマモモ,0
445,2700150123940,新規,0,2024-02-13,2024-02-13,Ｙｕｎｉｇｅ　ＵＳＡ　Ｃｏｒｐ．,,外国会社等,大阪府,大阪市東淀川区,西淡路３丁目４番２号,,27,114,5330031,アメリカ合衆国ジョージア州スワニー市オールドピーチツリーロードノースウェストスイート４５０番地１０３号室,,,,,,2024-02-13,1,,,,,ユニゲユーエスエーコーポレーシヨン,0
456,3010001242199,新規,0,2024-02-13,2024-02-13,Ｎプランニング株式会社,,株式会社,東京都,千代田区,東神田２丁目１番１１号,,13,101,1010031,,,,,,,2024-02-13,1,,,,,エヌプランニング,0
457,3010001242240,新規,0,2024-02-13,2024-02-13,株式会社美肌研究所,,株式会社,東京都,中央区,晴海３丁目１３－１－５０１４,,13,102,1040053,,,,,,,2024-02-13,1,,,,,ビハダケンキュウジョ,0
458,3010001242281,新規,0,2024-02-13,2024-02-13,ツカモトウェルネス株式会社,,株式会社,東京都,中央区,日本橋本町１丁目６番５号,,13,102,1030023,,,,,,,2024-02-13,1,,,,,ツカモトウェルネス,0
465,3010003042928,新規,0,2024-02-13,2024-02-13,合同会社ＢＬＯ　ＧＬＯＢＡＬ　Ａ＆Ａ,,合同会社,東京都,千代田区,岩本町１丁目２番１号,,13,101,1010032,,,,,,,2024-02-13,1,,,,,ビーエルオーグローバルエーアンドエー,0
470,3010401180338,新規,0,2024-02-13,2024-02-13,株式会社ジャフコグループＳＩＤ‐６,,株式会社,東京都,港区,虎ノ門１丁目２３番１号ジャフコグループ株式会社内,,13,103,1050001,,,,,,,2024-02-13,1,,,,,ジャフコグループエスアイディーシックス,0
471,3010401180362,新規,0,2024-02-13,2024-02-13,株式会社ＮＳＳＫ‐Ｄ１,,株式会社,東京都,港区,愛宕２丁目５番１号愛宕グリーンヒルズＭＯＲＩタワー,,13,103,1050002,,,,,,,2024-02-13,1,,,,,エヌエスエスケーディーワン,0
474,3010405022949,新規,0,2024-02-13,2024-02-13,一般社団法人ａｎｄＬＰＧカンファレンス,,その他の設立登記法人,東京都,港区,赤坂５丁目２番３３号ＩｓａＩＡｋａｓａｋＡ１６０６号室スタディス株式会社内,,13,103,1070052,,,,,,,2024-02-13,1,,,,,アンドエルピージーカンファレンス,0
485,3010901054702,新規,0,2024-02-13,2024-02-13,株式会社ＫＡＴＥ,,株式会社,東京都,世田谷区,桜３丁目１７番１１号馬事公苑前シティハウス３０６,,13,112,1560053,,,,,,,2024-02-13,1,,,,,ケイト,0
498,3011001159961,新規,0,2024-02-13,2024-02-13,株式会社タンジェリン,,株式会社,東京都,目黒区,平町１丁目３番１６号,,13,110,1520032,,,,,,,2024-02-13,1,,,,,タンジェリン,0
501,3011101106137,新規,0,2024-02-13,2024-02-13,株式会社ＥＳＲＩＳ,,株式会社,東京都,新宿区,西新宿８丁目８番１４号,,13,104,1600023,,,,,,,2024-02-13,1,,,,,エスリス,0
502,3011101106153,新規,0,2024-02-13,2024-02-13,ＪＡＰＡＮ　ＦＯＲＧＥ株式会社,,株式会社,東京都,新宿区,新宿１丁目３６－２,,13,104,1600022,,,,,,,2024-02-13,1,,,,,ジャパンフォージ,0
508,3011601027519,新規,0,2024-02-13,2024-02-13,株式会社ＪＯ‐ＳＨＯＷ,,株式会社,東京都,練馬区,北町５丁目１６番６号ヴィルヌーブ１０１,,13,120,1790081,,,,,,,2024-02-13,1,,,,,ジョーショウ,0
515,3012401041503,新規,0,2024-02-13,2024-02-13,１２５株式会社,,株式会社,東京都,調布市,小島町１丁目１９－１,,13,208,1820026,,,,,,,2024-02-13,1,,,,,イチニゴ,0
525,3020001155796,新規,0,2024-02-13,2024-02-13,キャピタルエージェンシー株式会社,,株式会社,神奈川県,横浜市栄区,本郷台３丁目３１番１号,,14,115,2470008,,,,,,,2024-02-13,1,,,,,キャピタルエージェンシー,0
531,3021001081446,新規,0,2024-02-13,2024-02-13,株式会社ＫＥＮＨＥＡＲＴ,,株式会社,神奈川県,茅ヶ崎市,南湖５丁目１６番７号,,14,207,2530061,,,,,,,2024-02-13,1,,,,,ケンハート,0
532,3021001081454,新規,0,2024-02-13,2024-02-13,株式会社ＣｏｍｆｏｒｔＬｉｆｅ,,株式会社,神奈川県,鎌倉市,笹目町６番７号鎌倉笹目座１０２号,,14,204,2480015,,,,,,,2024-02-13,1,,,,,コンフォートライフ,0
533,3021001081470,新規,0,2024-02-13,2024-02-13,株式会社湘和メンテナンス,,株式会社,神奈川県,茅ヶ崎市,松が丘２丁目５番５７－１号,,14,207,2530025,,,,,,,2024-02-13,1,,,,,ショウワメンテナンス,0
539,3030001158534,新規,0,2024-02-13,2024-02-13,ＲＩＺＭ株式会社,,株式会社,埼玉県,川越市,宮下町１丁目３－９グランデュール１０２,,11,201,3500052,,,,,,,2024-02-13,1,,,,,リズム,0
540,3030001158600,新規,0,2024-02-13,2024-02-13,株式会社コラージェン,,株式会社,埼玉県,所沢市,小手指町３丁目２２－３小手指ハイツＴ－２０４,,11,208,3591141,,,,,,,2024-02-13,1,,,,,コラージェン,0
543,3030003023604,新規,0,2024-02-13,2024-02-13,合同会社Ｈｅａｒｔｓ,,合同会社,埼玉県,所沢市,西住吉２－１４,,11,208,3591126,,,,,,,2024-02-13,1,,,,,ハーツ,0
544,3030003023612,新規,0,2024-02-13,2024-02-13,大和ソース合同会社,,合同会社,埼玉県,さいたま市浦和区,岸町５丁目７－９レジデンスＴ５（２０２）,,11,107,3300064,,,,,,,2024-02-13,1,,,,,ヤマトソース,0
548,3040001132125,新規,0,2024-02-13,2024-02-13,株式会社ＤＹＮＡＭＩＣ,,株式会社,千葉県,佐倉市,鍋山町８０番地２,,12,212,2850033,,,,,,,2024-02-13,1,,,,,ダイナミック,0
551,3040003024312,新規,0,2024-02-13,2024-02-13,コミットメントワークス合同会社,,合同会社,千葉県,我孫子市,我孫子２丁目３番４２１号,,12,222,2701166,,,,,,,2024-02-13,1,,,,,コミットメントワークス,0
554,3050001054260,新規,0,2024-02-13,2024-02-13,株式会社ステップＵＰ,,株式会社,茨城県,坂東市,長谷６８９番地３,,08,228,3060642,,,,,,,2024-02-13,1,,,,,ステップアップ,0
559,3060001036794,新規,0,2024-02-13,2024-02-13,株式会社スターネット,,株式会社,栃木県,芳賀郡益子町,大字益子３２７８番地１,,09,342,3214217,,,,,,,2024-02-13,1,,,,,スターネット,0
564,3080101024532,新規,0,2024-02-13,2024-02-13,株式会社葵,,株式会社,静岡県,富士市,神谷４５２番地の６,,22,210,4170821,,,,,,,2024-02-13,1,,,,,アオイ,0
588,3100001037185,新規,0,2024-02-13,2024-02-13,株式会社Ａｎｃｈｏｒ,,株式会社,長野県,長野市,大字鶴賀上千歳町１１３７番地２３,,20,201,3800821,,,,,,,2024-02-13,1,,,,,アンカー,0
589,3110001038174,新規,0,2024-02-13,2024-02-13,株式会社ウマノバ,,株式会社,新潟県,南魚沼郡湯沢町,大字神立１７４４番地５,,15,461,9496102,,,,,,,2024-02-13,1,,,,,ウマノバ,0
596,3120001261782,新規,0,2024-02-13,2024-02-13,Ｒａｉｎｂｏｗ株式会社,,株式会社,大阪府,大阪市淀川区,西宮原２丁目６番１６号新大阪コーポビアネーズ６２０号室,,27,123,5320004,,,,,,,2024-02-13,1,,,,,レインボー,0
597,3120001262005,新規,0,2024-02-13,2024-02-13,株式会社クラルテ,,株式会社,大阪府,大阪市都島区,内代町４丁目１番３８－１０７号,,27,102,5340013,,,,,,,2024-02-13,1,,,,,クラルテ,0
598,3120001262161,新規,0,2024-02-13,2024-02-13,株式会社ｃｏｄｅ　Ｕ,,株式会社,大阪府,大阪市北区,梅田１丁目２番２号大阪駅前第２ビル１２－１２,,27,127,5300001,,,,,,,2024-02-13,1,,,,,コードユー,0
603,3120003025896,新規,0,2024-02-13,2024-02-13,合同会社田渕建装,,合同会社,大阪府,大阪市東住吉区,南田辺５丁目５－３１,,27,121,5460033,,,,,,,2024-02-13,1,,,,,タブチケンソウ,0
618,3140001133294,新規,0,2024-02-13,2024-02-13,株式会社教育求人どっとこむ,,株式会社,兵庫県,神戸市灘区,篠原本町１丁目１番９号,,28,102,6570067,,,,,,,2024-02-13,1,,,,,キョウイクキュウジンドットコム,0
619,3140001133303,新規,0,2024-02-13,2024-02-13,株式会社未来,,株式会社,兵庫県,西宮市,常磐町１番８－８０１号,,28,204,6620043,,,,,,,2024-02-13,1,,,,,ミライ,0
620,3140001133311,新規,0,2024-02-13,2024-02-13,株式会社Ｌｉｆｅ　Ｄｅｓｉｇｎ,,株式会社,兵庫県,宝塚市,売布東の町１１番１０－４０５号,,28,214,6650867,,,,,,,2024-02-13,1,,,,,ライフデザイン,0
623,3140003020152,新規,0,2024-02-13,2024-02-13,合同会社ＦＡＮＣＹ,,合同会社,兵庫県,神戸市長田区,前原町１丁目９番１号,,28,106,6530803,,,,,,,2024-02-13,1,,,,,ファンシー,0
624,3170001018006,新規,0,2024-02-13,2024-02-13,株式会社北本屋根施工,,株式会社,和歌山県,橋本市,高野口町大野１１２３番地,,30,203,6497207,,,,,,,2024-02-13,1,,,,,キタモトヤネセコウ,0
626,3170005007070,新規,0,2024-02-13,2024-02-13,行政書士法人菊池・山崎事務所,00133690,その他の設立登記法人,和歌山県,田辺市,文里１丁目１９番２１号,,30,206,6460023,,,,,,,2024-02-13,1,,,,,キクチヤマザキジムショ,0
631,3190001031106,新規,0,2024-02-13,2024-02-13,株式会社中部未来開発,,株式会社,三重県,津市,押加部町１２番２０号,,24,201,5140039,,,,,,,2024-02-13,1,,,,,チュウブミライカイハツ,0
638,3240001062772,新規,0,2024-02-13,2024-02-13,株式会社天工,,株式会社,広島県,広島市佐伯区,石内北２丁目２２番６号,,34,108,7315109,,,,,,,2024-02-13,1,,,,,テンコウ,0
643,3240005015719,新規,0,2024-02-13,2024-02-13,農事組合法人ブラボーはいばら,,その他の設立登記法人,広島県,三原市,大和町萩原１５４１番地,,34,204,7291403,,,,,,,2024-02-13,1,,,,,ブラボーハイバラ,0
644,3250001020515,新規,0,2024-02-13,2024-02-13,株式会社ＭＩＫＫＥ,,株式会社,山口県,大島郡周防大島町,大字和佐３３２番地,,35,305,7422518,,,,,,,2024-02-13,1,,,,,ミッケ,0
646,3260001038754,新規,0,2024-02-13,2024-02-13,株式会社ジョブサーチプロ,,株式会社,岡山県,岡山市北区,表町３丁目５番３２号（３０１号）,,33,101,7000822,,,,,,,2024-02-13,1,,,,,ジョブサーチプロ,0
654,3300001013620,新規,0,2024-02-13,2024-02-13,株式会社Ｓａｎ‐ｅｉ,,株式会社,佐賀県,鳥栖市,蔵上２丁目２２１番地ドリーム蔵上２０２号,,41,203,8410056,,,,,,,2024-02-13,1,,,,,サンエイ,0
657,3330001031743,新規,0,2024-02-13,2024-02-13,株式会社アクラス,,株式会社,熊本県,熊本市東区,西原３丁目１－５７－３Ｆ,,43,102,8618029,,,,,,,2024-02-13,1,,,,,アクラス,0
663,3360001033175,新規,0,2024-02-13,2024-02-13,株式会社Ｒｅ　Ｂｏｒｎ,,株式会社,沖縄県,那覇市,泉崎２丁目１７番５号－１０１号,,47,201,9000021,,,,,,,2024-02-13,1,,,,,リボーン,0
664,3360003013687,新規,0,2024-02-13,2024-02-13,合同会社瑞光,,合同会社,沖縄県,うるま市,みどり町６丁目１３番８－１号,,47,213,9042215,,,,,,,2024-02-13,1,,,,,ズイコウ,0
665,3360005006986,新規,0,2024-02-13,2024-02-13,一般社団法人Ｂｅｓｈａ琉球,,その他の設立登記法人,沖縄県,中頭郡読谷村,字大湾５５３番地２,,47,324,9040313,,,,,,,2024-02-13,1,,,,,ビーシャリュウキュウ,0
666,3370001050938,新規,0,2024-02-13,2024-02-13,株式会社ヤマキ,,株式会社,宮城県,仙台市宮城野区,宮千代１丁目２９番６号,,04,102,9830044,,,,,,,2024-02-13,1,,,,,ヤマキ,0
672,3390001017522,新規,0,2024-02-13,2024-02-13,株式会社丸五農産,,株式会社,山形県,東村山郡山辺町,大字根際１５番地３,,06,301,9900321,,,,,,,2024-02-13,1,,,,,マルゴノウサン,0
673,3410001013733,新規,0,2024-02-13,2024-02-13,ヴァーサタイルワークス株式会社,,株式会社,秋田県,秋田市,土崎港中央２丁目５－２４－２,,05,201,0110946,,,,,,,2024-02-13,1,,,,,ヴァーサタイルワークス,0
677,3430001091059,新規,0,2024-02-13,2024-02-13,株式会社ＴＲＩＸＩＡ,,株式会社,北海道,札幌市中央区,大通東７丁目１２－１５ノースシティアンザイ,,01,101,0600041,,,,,,,2024-02-13,1,,,,,トリクシア,0
678,3430001091067,新規,0,2024-02-13,2024-02-13,株式会社なかでら,,株式会社,北海道,札幌市北区,北三十七条西９丁目１番２０－１０７号,,01,102,0010037,,,,,,,2024-02-13,1,,,,,ナカデラ,0
680,3430003015949,新規,0,2024-02-13,2024-02-13,合同会社ペキオ,,合同会社,北海道,札幌市中央区,宮の森一条７丁目３番７号,,01,101,0640951,,,,,,,2024-02-13,1,,,,,ペキオ,0
692,4010001242074,新規,0,2024-02-13,2024-02-13,株式会社ｅｎｌａｒｇｅ,,株式会社,東京都,中央区,日本橋室町１丁目１１番１２号日本橋水野ビル７Ｆ,,13,102,1030022,,,,,,,2024-02-13,1,,,,,エンラージ,0
693,4010001242264,新規,0,2024-02-13,2024-02-13,株式会社東泉準備会社,,株式会社,東京都,千代田区,神田東松下町３８番地,,13,101,1010042,,,,,,,2024-02-13,1,,,,,トウセンジュンビガイシャ,0
697,4010003042885,新規,0,2024-02-13,2024-02-13,合同会社人事ＢＰＲ,,合同会社,東京都,千代田区,霞が関１丁目４番１号,,13,101,1000013,,,,,,,2024-02-13,1,,,,,ジンジビーピーアール,0
698,4010003042919,新規,0,2024-02-13,2024-02-13,有楽合同会社,,合同会社,東京都,千代田区,岩本町２丁目１７－４泰合ビルＩＩ４階４０１号室,00133688,13,101,1010032,,,,,,,2024-02-13,1,,,,,ユウラク,0
713,4010401180295,新規,0,2024-02-13,2024-02-13,五幸製薬株式会社,,株式会社,東京都,港区,赤坂４丁目１番３１号,,13,103,1070052,,,,,,,2024-02-13,1,,,,,ゴコウセイヤク,0
714,4010401180337,新規,0,2024-02-13,2024-02-13,株式会社ジャフコグループＳＩＤ‐５,,株式会社,東京都,港区,虎ノ門１丁目２３番１号ジャフコグループ株式会社内,,13,103,1050001,,,,,,,2024-02-13,1,,,,,ジャフコグループエスアイディーファイブ,0
715,4010401180345,新規,0,2024-02-13,2024-02-13,株式会社Ｄｅｒｍａ,,株式会社,東京都,港区,南青山３丁目１番３６号青山丸竹ビル６Ｆ,,13,103,1070062,,,,,,,2024-02-13,1,,,,,ダーマ,0
716,4010401180353,新規,0,2024-02-13,2024-02-13,株式会社ＭＩＺ,,株式会社,東京都,港区,赤坂３丁目１番１６号ＢＩビル７階,,13,103,1070052,,,,,,,2024-02-13,1,,,,,エムアイズィー,0
717,4010405022898,新規,0,2024-02-13,2024-02-13,一般社団法人Ｉｎｔｅｒｎａｔｉｏｎａｌ　Ｐｏｌｅａｒｔｉｓｔ．協会,,その他の設立登記法人,東京都,港区,南青山３丁目２番２号３階,,13,103,1070062,,,,,,,2024-02-13,1,,,,,インターナショナルポールアーティストキョウカイ,0
718,4010405022964,新規,0,2024-02-13,2024-02-13,一般社団法人ＪＦＲ１号,,その他の設立登記法人,東京都,港区,元赤坂１丁目１番８号赤坂コミュニティビル４階,,13,103,1070051,,,,,,,2024-02-13,1,,,,,ジェイエフアールイチゴウ,0
720,4010601064637,新規,0,2024-02-13,2024-02-13,株式会社ＬＯＰＡ,,株式会社,東京都,墨田区,太平４丁目１番３号,,13,107,1300012,,,,,,,2024-02-13,1,,,,,ロパ,0
730,4010903008812,新規,0,2024-02-13,2024-02-13,合同会社ＨＭＵ,,合同会社,東京都,世田谷区,三軒茶屋１丁目８番８号シェリノア１,,13,112,1540024,,,,,,,2024-02-13,1,,,,,エイチエムユー,0
735,4011001159829,新規,0,2024-02-13,2024-02-13,株式会社ＬＯＬＥ,,株式会社,東京都,渋谷区,道玄坂１丁目１０番８号渋谷道玄坂東急ビル２Ｆ―Ｃ,,13,113,1500043,,,,,,,2024-02-13,1,,,,,ロル,0
740,4011101106152,新規,0,2024-02-13,2024-02-13,株式会社Ａｒｔ　ｄｅｅｒ,,株式会社,東京都,新宿区,新宿１丁目３６－２,,13,104,1600022,,,,,,,2024-02-13,1,,,,,アートディアー,0
741,4011101106160,新規,0,2024-02-13,2024-02-13,ＴＨＥ　ＭＯＳＳ＆ＧＲＥＥＮ株式会社,,株式会社,東京都,新宿区,西新宿８丁目１１番１０号星野ビル３階,,13,104,1600023,,,,,,,2024-02-13,1,,,,,ザモスアンドグリーン,0
752,4011403004269,新規,0,2024-02-13,2024-02-13,神里屋合同会社,,合同会社,東京都,板橋区,蓮根２丁目２７－１２ＢＩＺｃｉｒｃｌｅ板橋西台２Ｆ－０２,,13,119,1740046,,,,,,,2024-02-13,1,,,,,カミサトヤ,0
756,4012403006395,新規,0,2024-02-13,2024-02-13,合同会社コトノハの城,,合同会社,東京都,武蔵野市,吉祥寺本町１丁目２６番１号ＪＫ吉祥寺ビルＢ１Ｆ－０２,,13,203,1800004,,,,,,,2024-02-13,1,,,,,コトノハノシロ,0
761,4013301052060,新規,0,2024-02-13,2024-02-13,清泉株式会社,,株式会社,東京都,豊島区,西巣鴨１丁目２番２２号ＷＡＮＤＡビル２階,,13,116,1700001,,,,,,,2024-02-13,1,,,,,キヨミズ,0
767,4020001155770,新規,0,2024-02-13,2024-02-13,株式会社ＡＬＴＮ,,株式会社,神奈川県,横浜市中区,末吉町３丁目５６－５飯塚川口ビル４０１号室,,14,104,2310055,,,,,,,2024-02-13,1,,,,,アルトン,0
768,4020001155779,新規,0,2024-02-13,2024-02-13,株式会社ケイアイ薬局,,株式会社,神奈川県,川崎市多摩区,西生田２丁目２－３,,14,135,2140037,,,,,,,2024-02-13,1,,,,,ケイアイヤッキョク,0
774,4020003025501,新規,0,2024-02-13,2024-02-13,合同会社ＬＩＦＥ　ＢＡＳＥ,,合同会社,神奈川県,横浜市神奈川区,三ツ沢上町１５番１５号カンナガラセームＺ,,14,102,2210856,,,,,,,2024-02-13,1,,,,,ライフベース,0
777,4021001081437,新規,0,2024-02-13,2024-02-13,株式会社ミチノウエ,,株式会社,神奈川県,足柄下郡湯河原町,宮上１５７番地,,14,384,2590314,,,,,,,2024-02-13,1,,,,,ミチノウエ,0
778,4021001081445,新規,0,2024-02-13,2024-02-13,株式会社コダカ,,株式会社,神奈川県,小田原市,本町３丁目１番２２号,,14,206,2500012,,,,,,,2024-02-13,1,,,,,コダカ,0
779,4021001081453,新規,0,2024-02-13,2024-02-13,株式会社みらいコンパス,,株式会社,神奈川県,藤沢市,湘南台６丁目５６番地の１４,,14,205,2520804,,,,,,,2024-02-13,1,,,,,ミライコンパス,0
780,4021003014147,新規,0,2024-02-13,2024-02-13,合同会社ＨＫＷ,,合同会社,神奈川県,相模原市緑区,中野９８３番地３,,14,151,2520157,,,,,,,2024-02-13,1,,,,,エイチケイダブリュー,0
781,4021003014155,新規,0,2024-02-13,2024-02-13,ＭＩＳＨＡＲＹ　ＡＵＴＯ合同会社,,合同会社,神奈川県,綾瀬市,上土棚南４丁目１２番３１号,,14,218,2521114,,,,,,,2024-02-13,1,,,,,ミシャーリオート,0
794,4030001158582,新規,0,2024-02-13,2024-02-13,オウテック株式会社,,株式会社,埼玉県,川口市,並木３丁目１８番８－２０６号,,11,203,3320034,,,,,,,2024-02-13,1,,,,,オウテック,0
798,4030003023594,新規,0,2024-02-13,2024-02-13,合同会社Ｓａｐｐｈｉｒｅ　Ｓｏｕｎｄ,,合同会社,埼玉県,川口市,北原台２丁目２３番１８号,,11,203,3330815,,,,,,,2024-02-13,1,,,,,サファイアサウンド,0
799,4030003023611,新規,0,2024-02-13,2024-02-13,榎本商事合同会社,,合同会社,埼玉県,志木市,柏町６丁目１８番６号,,11,228,3530007,,,,,,,2024-02-13,1,,,,,エノモトショウジ,0
806,4040001132165,新規,0,2024-02-13,2024-02-13,株式会社スタイルインアート,,株式会社,千葉県,市川市,新井３丁目２番１９号,,12,203,2720144,,,,,,,2024-02-13,1,,,,,スタイルインアート,0
807,4040001132173,新規,0,2024-02-13,2024-02-13,ＷＸＷＸＷ株式会社,,株式会社,千葉県,市原市,桜台３丁目２２番地９,,12,219,2990127,,,,,,,2024-02-13,1,,,,,スリーバイダブリュ,0
812,4040003024311,新規,0,2024-02-13,2024-02-13,Ｈｉクリーン合同会社,,合同会社,千葉県,市川市,大野町１丁目４２５番地２１,,12,203,2720805,,,,,,,2024-02-13,1,,,,,ハイクリーン,0
825,4060001036810,新規,0,2024-02-13,2024-02-13,株式会社ＭＹＢ,,株式会社,栃木県,足利市,南大町２４３番地１,,09,202,3260836,,,,,,,2024-02-13,1,,,,,エムワイビー,0
830,4060003004906,新規,0,2024-02-13,2024-02-13,ｍｉｌｋｙ　ｐｒｏｊｅｃｔ合同会社,,合同会社,栃木県,宇都宮市,下岡本町３７８８番地９,,09,201,3291104,,,,,,,2024-02-13,1,,,,,ミルキープロジェクト,0
832,4070003005267,新規,0,2024-02-13,2024-02-13,ＡＮＵＫ　ＩＮＴＥＲＮＡＴＩＯＮＡＬ合同会社,,合同会社,群馬県,太田市,鳥山下町７１７番地３,,10,205,3730063,,,,,,,2024-02-13,1,,,,,アヌカインターナショナル,0
836,4080103002980,新規,0,2024-02-13,2024-02-13,合同会社はこ,,合同会社,静岡県,伊東市,八幡野１２０６‐３すいらん荘１区７７,,22,208,4130232,,,,,,,2024-02-13,1,,,,,ハコ,0
839,4110003005287,新規,0,2024-02-13,2024-02-13,合同会社ＹＯＫＵＮＡＬＵ,,合同会社,新潟県,新潟市中央区,女池７丁目１９‐５,,15,103,9500941,,,,,,,2024-02-13,1,,,,,ヨクナル,0
844,4120001262111,新規,0,2024-02-13,2024-02-13,株式会社寧楽之京師,,株式会社,大阪府,大阪市中央区,高津１丁目３番８－３０５号,,27,128,5420072,,,,,,,2024-02-13,1,,,,,ナラノミヤコ,0
845,4120001262152,新規,0,2024-02-13,2024-02-13,株式会社ＦＶｎｅｘｔ,,株式会社,大阪府,大阪市中央区,徳井町１丁目４番３号,,27,128,5400025,,,,,,,2024-02-13,1,,,,,エフヴイネクスト,0
846,4120001262160,新規,0,2024-02-13,2024-02-13,株式会社やさしいうみ,,株式会社,大阪府,大阪市西区,西本町１丁目６－９,,27,106,5500005,,,,,,,2024-02-13,1,,,,,ヤサシイウミ,0
847,4120001262227,新規,0,2024-02-13,2024-02-13,株式会社縁,,株式会社,大阪府,大阪市東成区,東中本２丁目６番３０－１０３号,,27,115,5370021,,,,,,,2024-02-13,1,,,,,エン,0
848,4120001262268,新規,0,2024-02-13,2024-02-13,ｎｏｉ株式会社,,株式会社,大阪府,大阪市西成区,天下茶屋１丁目２８番１６号－３０５号室,,27,122,5570014,,,,,,,2024-02-13,1,,,,,ノイ,0
856,4130003009303,新規,0,2024-02-13,2024-02-13,ＲＥＯリオ合同会社,,合同会社,京都府,京都市下京区,七条通油小路東入大黒町２２７番地第２キョートビル４０２,,26,106,6008223,,,,,,,2024-02-13,1,,,,,リオ,0
858,4140001133310,新規,0,2024-02-13,2024-02-13,株式会社ミツケホーム,,株式会社,兵庫県,加古川市,加古川町篠原町１３－３加古川まるいビル１階コワーキングスペースｍｏｃｃｏ加古川内,,28,210,6750065,,,,,,,2024-02-13,1,,,,,ミツケホーム,0
872,4180003026343,新規,0,2024-02-13,2024-02-13,合同会社ヌース,,合同会社,愛知県,名古屋市守山区,竜泉寺１丁目４０３番地,,23,113,4630801,,,,,,,2024-02-13,1,,,,,ヌース,0
873,4180303006004,新規,0,2024-02-13,2024-02-13,合同会社誉コンサルティング,,合同会社,愛知県,みよし市,東陣取山１２３番地,,23,236,4700222,,,,,,,2024-02-13,1,,,,,ホマレコンサルティング,0
879,4200001042141,新規,0,2024-02-13,2024-02-13,豊林産業株式会社,,株式会社,岐阜県,郡上市,八幡町那比２９１番地,,21,219,5014237,,,,,,,2024-02-13,1,,,,,ホウリンサンギョウ,0
893,4290003014964,新規,0,2024-02-13,2024-02-13,合同会社アクイララボ,,合同会社,福岡県,宗像市,稲元４丁目７番２６号,,40,220,8113406,,,,,,,2024-02-13,1,,,,,アクイララボ,0
899,4330003010208,新規,0,2024-02-13,2024-02-13,合同会社ＯＮＩＭＯＫＯ,,合同会社,熊本県,天草市,五和町鬼池５０９５番地,,43,215,8632331,,,,,,,2024-02-13,1,,,,,オニモコ,0
905,4370001050937,新規,0,2024-02-13,2024-02-13,株式会社アーネスト,,株式会社,宮城県,仙台市宮城野区,鶴ケ谷５丁目１３番地の４,,04,102,9830824,,,,,,,2024-02-13,1,,,,,アーネスト,0
915,4390001017521,新規,0,2024-02-13,2024-02-13,株式会社アグリカルチャー市蔵,,株式会社,山形県,尾花沢市,大字上柳渡戸７４４番地,,06,212,9994332,,,,,,,2024-02-13,1,,,,,アグリカルチャーイチゾウ,0
916,4390005009052,新規,0,2024-02-13,2024-02-13,山形中央地区生コンクリート卸商協同組合,,その他の設立登記法人,山形県,山形市,砂塚１０２９番地５,,06,201,9900854,,,,,,,2024-02-13,1,,,,,ヤマガタチュウオウチクナマコンクリートオロシショウ,0
923,4410001013732,新規,0,2024-02-13,2024-02-13,ＣｏｎｎｅｃｔｉｏＮ株式会社,,株式会社,秋田県,由利本荘市,石脇字石ノ花１９４番地２５３,,05,210,0150011,,,,,,,2024-02-13,1,,,,,コネクション,0
928,4430001091033,新規,0,2024-02-13,2024-02-13,株式会社Ｖｉｗａｎｄａ,,株式会社,北海道,札幌市北区,拓北八条２丁目９番１７号,,01,102,0028068,,,,,,,2024-02-13,1,,,,,ヴィワンダ,0
929,4430001091066,新規,0,2024-02-13,2024-02-13,北海道トラベルサポート株式会社,,株式会社,北海道,札幌市中央区,南九条西４丁目１番１０号,,01,101,0640809,,,,,,,2024-02-13,1,,,,,ホッカイドウトラベルサポート,0
937,4500003003185,新規,0,2024-02-13,2024-02-13,合同会社オルタナえひめ,,合同会社,愛媛県,西条市,丹原町丹原２０２番地１,,38,206,7910510,,,,,,,2024-02-13,1,,,,,オルタナエヒメ,0
949,5010005037882,新規,0,2024-02-13,2024-02-13,社会保険労務士法人全中振労務事務所,,その他の設立登記法人,東京都,千代田区,神田美土代町７番地東英美土代ビル７階,,13,101,1010053,,,,,,,2024-02-13,1,,,,,ゼンチュウシンロウムジムショ,0
950,5010101016006,新規,0,2024-02-13,2024-02-13,株式会社水戸空調,,株式会社,東京都,八王子市,長房町７０番地１,,13,201,1930824,,,,,,,2024-02-13,1,,,,,ミトクウチョウ,0
955,5010401180088,新規,0,2024-02-13,2024-02-13,株式会社Ｅｄｕｃａｔｉｏｎ　Ｈｕｂ,,株式会社,東京都,港区,北青山１丁目３番１号アールキューブ青山３階,,13,103,1070061,,,,,,,2024-02-13,1,,,,,エデュケーションハブ,0
956,5010401180220,新規,0,2024-02-13,2024-02-13,Ｔｅｒｒａ　Ｍｏｔｏｒｓ株式会社,,株式会社,東京都,港区,芝浦１丁目１番１号,,13,103,1050023,,,,,,,2024-02-13,1,,,,,テラモーターズ,0
957,5010401180352,新規,0,2024-02-13,2024-02-13,株式会社Ｒ‐ファンド７号,,株式会社,東京都,港区,港南２丁目１５番３号,,13,103,1080075,,,,,,,2024-02-13,1,,,,,アールファンドナナゴウ,0
958,5010403031867,新規,0,2024-02-13,2024-02-13,合同会社ＨＮ７,,合同会社,東京都,港区,南青山２丁目１５番２２－５０３号,,13,103,1070062,,,,,,,2024-02-13,1,,,,,,0
962,5010601064636,新規,0,2024-02-13,2024-02-13,Ｐａｙｍｅｎｔ　Ｉｎｄｕｓｔｒｙ株式会社,,株式会社,東京都,江東区,塩浜２丁目５番地２３号汐浜サンハイツ８１１号室,,13,108,1350043,,,,,,,2024-02-13,1,,,,,ペイメントインダストリー,0
963,5010601064644,新規,0,2024-02-13,2024-02-13,アスパイアホールディング株式会社,,株式会社,東京都,江東区,白河１丁目７番１７号,,13,108,1350021,,,,,,,2024-02-13,1,,,,,アスパイアホールディング,0
965,5010701045536,新規,0,2024-02-13,2024-02-13,株式会社ＣＯＬＯＲ　ＡＤＳ,,株式会社,東京都,品川区,東品川４丁目１２番９号,,13,109,1400002,,,,,,,2024-02-13,1,,,,,カラーズ,0
966,5010701045552,新規,0,2024-02-13,2024-02-13,Ｇ＆Ｐ　ＴＥＣＨ　ＪＡＰＡＮ株式会社,,株式会社,東京都,品川区,西五反田２丁目９番７号ドルミ五反田アンメゾン４０７号,,13,109,1410031,,,,,,,2024-02-13,1,,,,,ジーアンドピーテックジャパン,0
967,5010703007047,新規,0,2024-02-13,2024-02-13,カリスタ合同会社,,合同会社,東京都,品川区,上大崎１丁目３番３号,,13,109,1410021,,,,,,,2024-02-13,1,,,,,カリスタ,0
970,5010901054700,新規,0,2024-02-13,2024-02-13,株式会社３ｍｇ,,株式会社,東京都,世田谷区,代田２丁目３－２１ノネット北沢川Ｂ,,13,112,1550033,,,,,,,2024-02-13,1,,,,,サンミリグラム,0
975,5011001159654,新規,0,2024-02-13,2024-02-13,Ｐａｎｋａｄｏ株式会社,,株式会社,東京都,渋谷区,代々木１丁目３０番１５号天翔代々木ビル４階Ｓ４０２－Ｆ号室,,13,113,1510053,,,,,,,2024-02-13,1,,,,,パンカード,0
977,5011003018478,新規,0,2024-02-13,2024-02-13,Ａｒｃｕｌａｔｉｏｎ合同会社,,合同会社,東京都,目黒区,上目黒３丁目２１－２５ｑｕｐｓ中目黒１０２,,13,110,1530051,,,,,,,2024-02-13,1,,,,,,0
980,5011101106143,新規,0,2024-02-13,2024-02-13,株式会社１０ｘ　Ｒｅｃｒｕｉｔｍｅｎｔ．,,株式会社,東京都,新宿区,高田馬場１丁目１６番３２号篠原邸２Ｅ,,13,104,1690075,,,,,,,2024-02-13,1,,,,,テンエックスリクルートメント,0
981,5011101106168,新規,0,2024-02-13,2024-02-13,株式会社ＷＨ,,株式会社,東京都,新宿区,百人町１丁目２２番２４号,,13,104,1690073,,,,,,,2024-02-13,1,,,,,ダブルエイチ,0
984,5011301029391,新規,0,2024-02-13,2024-02-13,ニーナ株式会社,,株式会社,東京都,杉並区,高井戸東２丁目３０番１号,,13,115,1680072,,,,,,,2024-02-13,1,,,,,ニーナ,0
986,5011405002278,新規,0,2024-02-13,2024-02-13,一般社団法人国際ソリスト協会,,その他の設立登記法人,東京都,板橋区,弥生町２９－１２メゾン・ド・コンセール５０１,,13,119,1730021,,,,,,,2024-02-13,1,,,,,コクサイソリストキョウカイ,0
990,5012803003314,新規,0,2024-02-13,2024-02-13,合同会社シッダールタ,,合同会社,東京都,国分寺市,東恋ヶ窪３丁目１０番地５５,,13,214,1850014,,,,,,,2024-02-13,1,,,,,シッダールタ,0
997,5013305003570,新規,0,2024-02-13,2024-02-13,一般社団法人マーダーミステリー協会,,その他の設立登記法人,東京都,豊島区,東池袋３丁目１１－９三島ビル４０２,,13,116,1700013,,,,,,,2024-02-13,1,,,,,マーダーミステリーキョウカイ,0
1004,5020001155761,新規,0,2024-02-13,2024-02-13,株式会社ｋｏｈａｋｕ,,株式会社,神奈川県,川崎市宮前区,鷺沼４丁目１４番地２ドレッセ鷺沼の杜プライムフォレストＤ,,14,136,2160004,,,,,,,2024-02-13,1,,,,,コハク,0
1008,5020003025533,新規,0,2024-02-13,2024-02-13,ムーンライト合同会社,,合同会社,神奈川県,横浜市港北区,菊名４丁目９番１１号,,14,109,2220011,,,,,,,2024-02-13,1,,,,,ムーンライト,0
1014,5021001081444,新規,0,2024-02-13,2024-02-13,株式会社ｎｉｄｏｎｅ,,株式会社,神奈川県,海老名市,杉久保南５丁目７－１,,14,215,2430427,,,,,,,2024-02-13,1,,,,,ニドネ,0
1015,5021001081452,新規,0,2024-02-13,2024-02-13,株式会社ＡＮＤＫＥＮＴ,,株式会社,神奈川県,平塚市,代官町６番５号平塚代官町ビル４０５号室,,14,203,2540807,,,,,,,2024-02-13,1,,,,,アンドケント,0
1020,5021003014146,新規,0,2024-02-13,2024-02-13,箱根湯本ホテル＆リゾート１合同会社,,合同会社,神奈川県,足柄下郡箱根町,湯本茶屋９７番地,,14,382,2500312,,,,,,,2024-02-13,1,,,,,ハコネユモトホテルアンドリゾートワン,0
1021,5021003014154,新規,0,2024-02-13,2024-02-13,ＡＫＢＡＲ　ＴＲＡＤＩＮＧ合同会社,,合同会社,神奈川県,綾瀬市,深谷上５丁目４番３号サザンハウス２００６ＩＩ１０１,00133700,14,218,2521108,,,,,,,2024-02-13,1,,,,,アクバルトレーディング,0
1024,5030001158581,新規,0,2024-02-13,2024-02-13,株式会社イナミラルａｓｓｏｃ．,,株式会社,埼玉県,蕨市,中央６丁目１２番７号,,11,223,3350004,,,,,,,2024-02-13,1,,,,,イナミラルアソシエーション,0
1036,5030003023593,新規,0,2024-02-13,2024-02-13,合同会社ｇｒｅｅｎ‐Ｕｐ,,合同会社,埼玉県,三郷市,戸ケ崎２３６１番地１,,11,237,3410044,,,,,,,2024-02-13,1,,,,,グリーンアップ,0
1037,5030003023610,新規,0,2024-02-13,2024-02-13,合同会社プラソン,,合同会社,埼玉県,比企郡ときがわ町,大字馬場２８９－１,,11,349,3550355,,,,,,,2024-02-13,1,,,,,プラソン,0
1044,5040001132164,新規,0,2024-02-13,2024-02-13,株式会社ＨＡＫＵ,,株式会社,千葉県,浦安市,明海２丁目３番１－１３９号クオン新浦安Ｂ棟,,12,227,2790014,,,,,,,2024-02-13,1,,,,,ハク,0
1045,5040001132172,新規,0,2024-02-13,2024-02-13,株式会社ＡＡＡ,,株式会社,千葉県,成田市,花崎町８３９番地４０芙蓉ビル２階,,12,211,2860033,,,,,,,2024-02-13,1,,,,,トリプルエー,0
1046,5040001132180,新規,0,2024-02-13,2024-02-13,Ｌａｕｒｅｎ　Ｆｏｒｅｓｔ株式会社,,株式会社,千葉県,市川市,南八幡４丁目４番５号,,12,203,2720023,,,,,,,2024-02-13,1,,,,,ローレンフォレスト,0
1054,5040003024302,新規,0,2024-02-13,2024-02-13,合同会社Ｄｒｅａｍｉｎｇ,,合同会社,千葉県,浦安市,富士見３丁目１３番１６－１０３号,,12,227,2790043,,,,,,,2024-02-13,1,,,,,ドリーミング,0
1055,5050001054259,新規,0,2024-02-13,2024-02-13,デンターズ株式会社,,株式会社,茨城県,つくば市,飯田２７７番地１,,08,220,3050874,,,,,,,2024-02-13,1,,,,,デンターズ,0
1072,5090001018540,新規,0,2024-02-13,2024-02-13,株式会社Ｎｏｇ,,株式会社,山梨県,南都留郡山中湖村,平野２１９７－１１５９芙蓉台別荘地６２０号,,19,425,4010502,,,,,,,2024-02-13,1,,,,,ノグ,0
1073,5090003002492,新規,0,2024-02-13,2024-02-13,まごころ甲府合同会社,,合同会社,山梨県,甲府市,徳行２丁目２番１８号テンバク・Ｓ１０７号,,19,201,4000047,,,,,,,2024-02-13,1,,,,,マゴコロコウフ,0
1081,5120001262127,新規,0,2024-02-13,2024-02-13,アドベンチャー株式会社,,株式会社,大阪府,大阪市中央区,東心斎橋２丁目８－１９－３０１,,27,128,5420083,,,,,,,2024-02-13,1,,,,,アドベンチャー,0
1082,5120001262151,新規,0,2024-02-13,2024-02-13,Ｅｌｙ’ｓ株式会社,,株式会社,大阪府,大阪市西区,北堀江１丁目１－２７イマイビル３階Ｈ号室,,27,106,5500014,,,,,,,2024-02-13,1,,,,,エリーズ,0
1083,5120001262176,新規,0,2024-02-13,2024-02-13,日本大雄商事株式会社,,株式会社,大阪府,大阪市西区,江戸堀３丁目６番２５－２０６号,,27,106,5500002,,,,,,,2024-02-13,1,,,,,ニッポンダイユウショウジ,0
1084,5120001262226,新規,0,2024-02-13,2024-02-13,エックスファンド株式会社,,株式会社,大阪府,大阪市北区,大深町４番２０号グランフロント大阪タワーＡ,,27,127,5300011,,,,,,,2024-02-13,1,,,,,エックスファンド,0
1085,5120001262291,新規,0,2024-02-13,2024-02-13,株式会社ＬＵＣＥ・ＴＵＲＩＳＭＯ,,株式会社,大阪府,大阪市東淀川区,東中島１丁目１７番５号ステュディオ新大阪８４３号室,,27,114,5330033,,,,,,,2024-02-13,1,,,,,ルーチェツーリズモ,0
1086,5120003025894,新規,0,2024-02-13,2024-02-13,Ｎ‐Ｄｅｓｉｇｎ合同会社,,合同会社,大阪府,大阪市北区,梅田１丁目２番２号大阪駅前第２ビル２階５－６号室,,27,127,5300001,,,,,,,2024-02-13,1,,,,,エヌデザイン,0
1087,5120003025903,新規,0,2024-02-13,2024-02-13,合同会社ファースト,,合同会社,大阪府,大阪市中央区,博労町４丁目７番１－７０６号,,27,128,5410059,,,,,,,2024-02-13,1,,,,,ファースト,0
1090,5120101069034,新規,0,2024-02-13,2024-02-13,株式会社ロジ・クム,,株式会社,大阪府,堺市堺区,築港八幡町１番地１７１ＭＦＬＰ堺４Ｆ－Ｂ,,27,141,5900901,,,,,,,2024-02-13,1,,,,,ロジクム,0
1091,5120101069042,新規,0,2024-02-13,2024-02-13,株式会社板建組,,株式会社,大阪府,堺市堺区,百舌鳥夕雲町１丁１－９,,27,141,5900802,,,,,,,2024-02-13,1,,,,,バンケングミ,0
1095,5130001076328,新規,0,2024-02-13,2024-02-13,株式会社ＳＵＤＡＣＨＩ,,株式会社,京都府,京都市北区,西賀茂水垣町８３－２,,26,101,6038827,,,,,,,2024-02-13,1,,,,,スダチ,0
1096,5130001076344,新規,0,2024-02-13,2024-02-13,株式会社萬里,,株式会社,京都府,京都市伏見区,深草大亀谷西寺町４３番地２０,,26,109,6120849,,,,,,,2024-02-13,1,,,,,バンリ,0
1106,5140001133301,新規,0,2024-02-13,2024-02-13,株式会社夢み,,株式会社,兵庫県,姫路市,夢前町置本５１４番地１７,,28,201,6712122,,,,,,,2024-02-13,1,,,,,ユメミ,0
1109,5140003020159,新規,0,2024-02-13,2024-02-13,合同会社ネモフィラブ,,合同会社,兵庫県,明石市,田町２丁目９－２１フローリッシュ２、２０３号室,,28,203,6730025,,,,,,,2024-02-13,1,,,,,ネモフィラブ,0
1115,5160001025678,新規,0,2024-02-13,2024-02-13,株式会社ＦＳＴＤ,,株式会社,滋賀県,甲賀市,水口町八田９１７番地,,25,209,5280066,,,,,,,2024-02-13,1,,,,,エフエスティーディー,0
1116,5160003003112,新規,0,2024-02-13,2024-02-13,合同会社イニュニックアンドヘルス,,合同会社,滋賀県,近江八幡市,古川町１４８３番地２,,25,204,5230056,,,,,,,2024-02-13,1,,,,,イニュニックアンドヘルス,0
1117,5170001018004,新規,0,2024-02-13,2024-02-13,株式会社ｅｎｔｒａｉｄｅ,,株式会社,和歌山県,和歌山市,津秦２２９番地４,,30,201,6408315,,,,,,,2024-02-13,1,,,,,アントレイド,0
1120,5180001160119,新規,0,2024-02-13,2024-02-13,株式会社共同,,株式会社,愛知県,名古屋市中村区,名駅３丁目２５番５号,,23,105,4500002,,,,,,,2024-02-13,1,,,,,キョウドウ,0
1123,5180003026292,新規,0,2024-02-13,2024-02-13,合同会社ｍｘ．ｄｅｓｉｇｎ,,合同会社,愛知県,名古屋市中村区,名駅４丁目２４番５号第２森ビル４０１,,23,105,4500002,,,,,,,2024-02-13,1,,,,,ミクスデザイン,0
1124,5180003026334,新規,0,2024-02-13,2024-02-13,合同会社Ｐａｓｔｅｌ,,合同会社,愛知県,名古屋市中区,栄１丁目１４番２０号,,23,106,4600008,,,,,,,2024-02-13,1,,,,,パステル,0
1125,5180301038287,新規,0,2024-02-13,2024-02-13,株式会社Ｃｈｅｍ．Ｅｎｇ．Ｌａｂ．,,株式会社,愛知県,安城市,柿碕町東山２１番地５,,23,212,4460003,,,,,,,2024-02-13,1,,,,,ケムエンジラボ,0
1127,5190001031104,新規,0,2024-02-13,2024-02-13,春雷株式会社,,株式会社,三重県,松阪市,平成町２１番地２,,24,204,5150824,,,,,,,2024-02-13,1,,,,,シュンライ,0
1132,5240001062770,新規,0,2024-02-13,2024-02-13,株式会社希,,株式会社,広島県,広島市南区,本浦町３４番５号,,34,103,7340047,,,,,,,2024-02-13,1,,,,,アドバンス,0
1133,5240001062779,新規,0,2024-02-13,2024-02-13,株式会社広島かきドットコム,,株式会社,広島県,広島市中区,幟町１３番４号,,34,101,7300016,,,,,,,2024-02-13,1,,,,,ヒロシマカキドットコム,0
1136,5260001038752,新規,0,2024-02-13,2024-02-13,株式会社豊楽,,株式会社,岡山県,赤磐市,桜が丘東３丁目３番地４８４,,33,213,7090721,,,,,,,2024-02-13,1,,,,,ホウラク,0
1146,5300001013619,新規,0,2024-02-13,2024-02-13,株式会社ｃｏｌｌａｇｅ,,株式会社,佐賀県,神埼市,千代田町嘉納５９７番地,,41,210,8420067,,,,,,,2024-02-13,1,,,,,コラージュ,0
1149,5320003004291,新規,0,2024-02-13,2024-02-13,Ｎｅｘｓｅｅｄ　Ｎｅｔｗｏｒｋ合同会社,,合同会社,大分県,別府市,大字南立石２１２４番地の１プレジデントコーポ５０８号,,44,202,8740000,,,,,,,2024-02-13,1,,,,,ネクシードネットワーク,0
1150,5330003010215,新規,0,2024-02-13,2024-02-13,合同会社アクティブ,,合同会社,熊本県,熊本市中央区,上通町４番１８号井上Ｎｏ．１ビル３階,,43,101,8600845,,,,,,,2024-02-13,1,,,,,アクティブ,0
1157,5360003013669,新規,0,2024-02-13,2024-02-13,合同会社暁,,合同会社,沖縄県,うるま市,字栄野比１００４,,47,213,9042205,,,,,,,2024-02-13,1,,,,,アカツキ,0
1167,5390001017520,新規,0,2024-02-13,2024-02-13,株式会社夕陽コミュニティ,,株式会社,山形県,鶴岡市,錦町２番６０号,,06,203,9970031,,,,,,,2024-02-13,1,,,,,ユウヒコミュニティ,0
1168,5410001013731,新規,0,2024-02-13,2024-02-13,株式会社かたがみクラブ,,株式会社,秋田県,潟上市,天王字江川上谷地１０９番地２,,05,211,0100201,,,,,,,2024-02-13,1,,,,,カタガミクラブ,0
1173,5430001091057,新規,0,2024-02-13,2024-02-13,株式会社Ｔ‐Ｌｉｆｅ,,株式会社,北海道,札幌市東区,東雁来八条４丁目６番１号,,01,103,0070828,,,,,,,2024-02-13,1,,,,,ティーライフ,0
1174,5430003015955,新規,0,2024-02-13,2024-02-13,合同会社ＩＴＫ,,合同会社,北海道,札幌市中央区,南十条西２０丁目３番１１号,,01,101,0640810,,,,,,,2024-02-13,1,,,,,アイティーケイ,0
1181,5500003003176,新規,0,2024-02-13,2024-02-13,合同会社ユニティ,,合同会社,愛媛県,今治市,上徳乙３３８番地５,,38,202,7991511,,,,,,,2024-02-13,1,,,,,ユニティ,0
1187,5700150117881,新規,0,2024-02-13,2024-02-13,Ｓｈｅｎｚｈｅｎｓｈｉ　Ｚｕｏｑｉａｎｍｕｓｈａｎ　ｍａｏｙｉｙｏｕｘｉａｎｇｏｎｇｓｉ,,外国会社等,,,,,,,,ｂａｏａｎｑｕｘｉｘｉａｎｇｊｉｅｄａｏｌａｏｄｏｎｇｓｈｅｑｕｘｉｘｉａｎｇｄａｄａｏ２８８ｈａｏ　ｈｕａｆｅｎｇｚｏｎｇｂｕｊｉｎｇｊｉｄａｓｈａＢｚｕｏ２０８ｈａｏ　ｓｈｅｎｚｈｅｎ　ｇｕａｎｇｄｏｎｇ,,,,,,2024-02-13,1,,,,,シェンジェンズオチエンムーシャンマオイヨウシエンゴンス,0
1194,6010001242205,新規,0,2024-02-13,2024-02-13,株式会社ＪＳＬ,,株式会社,東京都,千代田区,内神田１丁目１５番７号５０５号室,,13,101,1010047,,,,,,,2024-02-13,1,,,,,ジェイエスエル,0
1197,6010003042834,新規,0,2024-02-13,2024-02-13,和‐ＮＡＧＯＭＩ合同会社,,合同会社,東京都,文京区,千石４丁目４２番１２号,,13,105,1120011,,,,,,,2024-02-13,1,,,,,ワナゴミ,0
1198,6010003042900,新規,0,2024-02-13,2024-02-13,ＤＳＴ合同会社,,合同会社,東京都,千代田区,麹町１丁目６番１６号半蔵門海和ビル９階（Ｃ／ＯＪｏｏ－ｒｅａｌｅｓｔａｔｅ－ｏｆｆｉｃｅ）,,13,101,1020083,,,,,,,2024-02-13,1,,,,,ディーエスティー,0
1200,6010005037881,新規,0,2024-02-13,2024-02-13,ＬＳ１一般社団法人,,その他の設立登記法人,東京都,中央区,日本橋１丁目４番１号日本橋一丁目ビルディング,,13,102,1030027,,,,,,,2024-02-13,1,,,,,エルエスワン,0
1207,6010601064643,新規,0,2024-02-13,2024-02-13,株式会社ＨＩＬＩＴＥ,,株式会社,東京都,江東区,塩浜２丁目５番１号２０２,,13,108,1350043,,,,,,,2024-02-13,1,,,,,ハイライト,0
1214,6010701045535,新規,0,2024-02-13,2024-02-13,株式会社和縁,,株式会社,東京都,品川区,小山６丁目５番１３号,,13,109,1420062,,,,,,,2024-02-13,1,,,,,ワエン,0
1215,6010701045543,新規,0,2024-02-13,2024-02-13,株式会社ＫＧＣコミュニケーションズ,,株式会社,東京都,品川区,東五反田１丁目７番１１号ＡＩＯＳ五反田アネックス３０３,,13,109,1410022,,,,,,,2024-02-13,1,,,,,ケージーシーコミュニケーションズ,0
1216,6010801034768,新規,0,2024-02-13,2024-02-13,株式会社東京令和フード,,株式会社,東京都,大田区,山王２丁目５番１３号大森北口ビル５階５－１０２,,13,111,1430023,,,,,,,2024-02-13,1,,,,,トウキョウレイワフード,0
1221,6010901054699,新規,0,2024-02-13,2024-02-13,ｉｌｌｕｍｉｓｔａ株式会社,,株式会社,東京都,世田谷区,玉川３丁目１１－１柳小路東角３Ｆ,,13,112,1580094,,,,,,,2024-02-13,1,,,,,イルミスタ,0
1229,6011001159934,新規,0,2024-02-13,2024-02-13,株式会社ラーレ,,株式会社,東京都,渋谷区,道玄坂１丁目１６番６号二葉ビル８Ｂ,,13,113,1500043,,,,,,,2024-02-13,1,,,,,ラーレ,0
1233,6011003018477,新規,0,2024-02-13,2024-02-13,ベリーカンパニー合同会社,,合同会社,東京都,渋谷区,円山町５番５号,,13,113,1500044,,,,,,,2024-02-13,1,,,,,ベリーカンパニー,0
1235,6011101106150,新規,0,2024-02-13,2024-02-13,ＫＥＩ２ソフトウェア＆コンサルティング株式会社,,株式会社,東京都,新宿区,西新宿３丁目３番１３号西新宿水間ビル６階,,13,104,1600023,,,,,,,2024-02-13,1,,,,,ケイツーソフトウェアアンドコンサルティング,0
1236,6011101106167,新規,0,2024-02-13,2024-02-13,株式会社カプテリ,,株式会社,東京都,新宿区,若葉２丁目４番地４エムレジデンスヨツヤ１０２,,13,104,1600011,,,,,,,2024-02-13,1,,,,,カプテリ,0
1246,6011801043775,新規,0,2024-02-13,2024-02-13,株式会社ＴＨＥ　ＰＯＳＨ　ＣＬＵＢ,,株式会社,東京都,足立区,関原３丁目２２－８,,13,121,1230852,,,,,,,2024-02-13,1,,,,,ザポッシュクラブ,0
1256,6020001155769,新規,0,2024-02-13,2024-02-13,株式会社選,,株式会社,神奈川県,川崎市麻生区,高石２丁目１－３０－３０７,,14,137,2150003,,,,,,,2024-02-13,1,,,,,セン,0
1257,6020001155777,新規,0,2024-02-13,2024-02-13,株式会社Ｆｏｒｔｕｎｅ,,株式会社,神奈川県,横浜市南区,中村町５丁目３１９番地１４,,14,105,2320033,,,,,,,2024-02-13,1,,,,,フォルトゥーン,0
1258,6020001155793,新規,0,2024-02-13,2024-02-13,株式会社ＰｉｘｅｌＡｒｔＬａｂ,,株式会社,神奈川県,横浜市中区,扇町３丁目８－６日之出扇町ビル６－Ｃ,,14,104,2310027,,,,,,,2024-02-13,1,,,,,ピクセルアートラボ,0
1265,6021005013021,新規,0,2024-02-13,2024-02-13,一般社団法人Ｑｒｅｅｔ,,その他の設立登記法人,神奈川県,平塚市,徳延８８番地の５,,14,203,2540902,,,,,,,2024-02-13,1,,,,,クリート,0
1285,6040001132171,新規,0,2024-02-13,2024-02-13,株式会社ディチャンカンパニー,,株式会社,千葉県,松戸市,松戸１３０７番地の１松戸ビル１３階１３０２,,12,207,2710092,,,,,,,2024-02-13,1,,,,,ディチャンカンパニー,0
1293,6060001036817,新規,0,2024-02-13,2024-02-13,株式会社バローレムコンサルティング,,株式会社,栃木県,宇都宮市,大曽４丁目１２番７号,,09,201,3200014,,,,,,,2024-02-13,1,,,,,バローレムコンサルティング,0
1310,6110001038171,新規,0,2024-02-13,2024-02-13,株式会社和とわ,,株式会社,新潟県,十日町市,倉俣甲１３９７番地２,,15,210,9498412,,,,,,,2024-02-13,1,,,,,ワトワ,0
1319,6120001262118,新規,0,2024-02-13,2024-02-13,Ａｌｌ　Ｂｌｕｅ株式会社,,株式会社,大阪府,大阪市中央区,南久宝寺町２丁目４番２号,,27,128,5410058,,,,,,,2024-02-13,1,,,,,オールブルー,0
1320,6120001262159,新規,0,2024-02-13,2024-02-13,株式会社月,,株式会社,大阪府,大阪市中央区,西心斎橋１丁目５番２７号,,27,128,5420086,,,,,,,2024-02-13,1,,,,,ツキ,0
1321,6120001262167,新規,0,2024-02-13,2024-02-13,株式会社Ｌａｂ．万,,株式会社,大阪府,大阪市北区,梅田１丁目２番２号大阪駅前第２ビル１２－１２,,27,127,5300001,,,,,,,2024-02-13,1,,,,,ラボマン,0
1322,6120001262175,新規,0,2024-02-13,2024-02-13,株式会社Ｋ＆Ｍファーネス,,株式会社,大阪府,大阪市西成区,玉出東１丁目８番１４号,,27,122,5570043,,,,,,,2024-02-13,1,,,,,ケーアンドエムファーネス,0
1323,6120003025893,新規,0,2024-02-13,2024-02-13,合同会社奏空ソーシャルワークス,,合同会社,大阪府,大阪市中央区,徳井町２丁目２番１１号ＬＭ東本町第３－１４０８号,,27,128,5400025,,,,,,,2024-02-13,1,,,,,カナタソーシャルワークス,0
1324,6120003025910,新規,0,2024-02-13,2024-02-13,ＥＮＪＯＹ合同会社,,合同会社,大阪府,大阪市城東区,諏訪３丁目７番１７号,,27,118,5360021,,,,,,,2024-02-13,1,,,,,エンジョイ,0
1327,6122001037821,新規,0,2024-02-13,2024-02-13,株式会社管理サービス,,株式会社,大阪府,東大阪市,菱屋西１丁目２１番１３号,,27,227,5770807,,,,,,,2024-02-13,1,,,,,カンリサービス,0
1333,6130001076327,新規,0,2024-02-13,2024-02-13,株式会社奥田水道工務,,株式会社,京都府,宇治市,広野町大開７７番地の２９,,26,204,6110031,,,,,,,2024-02-13,1,,,,,オクダスイドウコウム,0
1334,6130001076343,新規,0,2024-02-13,2024-02-13,株式会社志有会ホールディングス,,株式会社,京都府,京都市山科区,御陵大津畑町４２,,26,110,6078411,,,,,,,2024-02-13,1,,,,,シユウカイホールディングス,0
1335,6130003009301,新規,0,2024-02-13,2024-02-13,ＭＣＲ合同会社,,合同会社,京都府,京都市右京区,嵯峨野有栖川町１番地１９３,,26,108,6168316,,,,,,,2024-02-13,1,,,,,エムシーアール,0
1344,6180001160142,新規,0,2024-02-13,2024-02-13,株式会社ＩＫＫＯ,,株式会社,愛知県,一宮市,光明寺字山屋敷１３８番地７,,23,203,4910135,,,,,,,2024-02-13,1,,,,,イッコー,0
1350,6190001031103,新規,0,2024-02-13,2024-02-13,コンテンツーリズム三重株式会社,,株式会社,三重県,松阪市,久保町１８４９番地８８,,24,204,5150044,,,,,,,2024-02-13,1,,,,,コンテンツーリズムミエ,0
1353,6200001042148,新規,0,2024-02-13,2024-02-13,株式会社まちいち不動産,,株式会社,岐阜県,可児市,徳野南２丁目７５番地,,21,214,5090205,,,,,,,2024-02-13,1,,,,,マチイチフドウサン,0
1357,6240001062778,新規,0,2024-02-13,2024-02-13,株式会社ファーストキューブ,,株式会社,広島県,広島市中区,大手町３丁目２番２５－２０１号,,34,101,7300051,,,,,,,2024-02-13,1,,,,,ファーストキューブ,0
1362,6290001104658,新規,0,2024-02-13,2024-02-13,株式会社ＡＰＲＥＣＩＯ,,株式会社,福岡県,福岡市東区,香椎駅前３丁目２６番８号,,40,131,8130013,,,,,,,2024-02-13,1,,,,,アプレシオ,0
1363,6290001104682,新規,0,2024-02-13,2024-02-13,株式会社オフィス竣,,株式会社,福岡県,福岡市南区,長丘４丁目１番２９－３０４号,,40,134,8150075,,,,,,,2024-02-13,1,,,,,オフィスシュン,0
1364,6290003014962,新規,0,2024-02-13,2024-02-13,合同会社中帷,,合同会社,福岡県,福岡市早良区,飯倉３丁目４５－１７ファミールハピネス原２０７,,40,137,8140161,,,,,,,2024-02-13,1,,,,,ナカイ,0
1371,6320003004290,新規,0,2024-02-13,2024-02-13,合同会社エス・ピー・アール,,合同会社,大分県,大分市,大字八幡１８５３番地,,44,201,8700100,,,,,,,2024-02-13,1,,,,,エスピーアール,0
1375,6330001031724,新規,0,2024-02-13,2024-02-13,株式会社ラビットエージェント,,株式会社,熊本県,熊本市東区,長嶺東４丁目４番８４号,,43,102,8618038,,,,,,,2024-02-13,1,,,,,ラビットエージェント,0
1379,6340001026277,新規,0,2024-02-13,2024-02-13,ＡＧ　ＴＲＡＤＩＮＧ株式会社,,株式会社,鹿児島県,鹿屋市,札元１丁目１７番２５号,,46,203,8930013,,,,,,,2024-02-13,1,,,,,エージートレーディング,0
1383,6350003004560,新規,0,2024-02-13,2024-02-13,合同会社お結び,,合同会社,宮崎県,宮崎市,恒久南２丁目３番地１２メゾンドＴＡＨＡＲＡＩ棟１０１号,00133689,45,201,8800915,,,,,,,2024-02-13,1,,,,,オムスビ,0
1385,6360003013701,新規,0,2024-02-13,2024-02-13,合同会社Ｒｅｖｅｌ,,合同会社,沖縄県,那覇市,松山２丁目１番１８号４階４－ＣＤ,,47,201,9000032,,,,,,,2024-02-13,1,,,,,ルベル,0
1386,6370001050919,新規,0,2024-02-13,2024-02-13,株式会社東北フォレスト,,株式会社,宮城県,仙台市泉区,南中山３丁目１２番地の２,,04,105,9813213,,,,,,,2024-02-13,1,,,,,トウホクフォレスト,0
1402,6430001091064,新規,0,2024-02-13,2024-02-13,株式会社ｆｏｒｔｕｎａ,,株式会社,北海道,札幌市中央区,南四条西１３丁目２番２５札幌グレースマンション５０５号,,01,101,0640804,,,,,,,2024-02-13,1,,,,,フォルトゥーナ,0
1403,6430003015905,新規,0,2024-02-13,2024-02-13,合同会社インフィニティヴィジョン,,合同会社,北海道,札幌市西区,八軒十条東１丁目１－８－２０２,,01,107,0630870,,,,,,,2024-02-13,1,,,,,インフィニティヴィジョン,0
1404,6430003015954,新規,0,2024-02-13,2024-02-13,オフィス雅合同会社,,合同会社,北海道,札幌市東区,北三十五条東２丁目５番１６号,,01,103,0070835,,,,,,,2024-02-13,1,,,,,オフィスミヤビ,0
1418,7010001241981,新規,0,2024-02-13,2024-02-13,和スペクト株式会社,,株式会社,東京都,中央区,銀座１丁目２２－１１大竹ビジデンス２階,,13,102,1040061,,,,,,,2024-02-13,1,,,,,ワスペクト,0
1419,7010001242204,新規,0,2024-02-13,2024-02-13,株式会社ＰｒｉｖａｔｅＳｋｙ,,株式会社,東京都,中央区,銀座１丁目１５番４号,,13,102,1040061,,,,,,,2024-02-13,1,,,,,プライベートスカイ,0
1420,7010001242220,新規,0,2024-02-13,2024-02-13,株式会社エディット,,株式会社,東京都,中央区,銀座１丁目１２番４号Ｎ＆ＥＢＬＤ．７Ｆ,,13,102,1040061,,,,,,,2024-02-13,1,,,,,エディット,0
1421,7010001242253,新規,0,2024-02-13,2024-02-13,ｎｔｓ株式会社,,株式会社,東京都,中央区,銀座２丁目１４番１号,,13,102,1040061,,,,,,,2024-02-13,1,,,,,エヌティーエス,0
1427,7010401180235,新規,0,2024-02-13,2024-02-13,株式会社スタートアップサポーター,,株式会社,東京都,港区,赤坂８丁目４番１４号,,13,103,1070052,,,,,,,2024-02-13,1,,,,,スタートアップサポーター,0
1429,7010403031948,新規,0,2024-02-13,2024-02-13,Ｋａｇｅ　Ｃａｔ合同会社,,合同会社,東京都,港区,元麻布３丁目１番６号,,13,103,1060046,,,,,,,2024-02-13,1,,,,,カゲキャット,0
1430,7010405022945,新規,0,2024-02-13,2024-02-13,一般社団法人Ｔｈｕｎｄｅｒｂｉｒｄ地域活性化基金,,その他の設立登記法人,東京都,港区,虎ノ門３丁目２２番１０－２０１号,,13,103,1050001,,,,,,,2024-02-13,1,,,,,サンダーバードチイキカッセイカキキン,0
1435,7010601064634,新規,0,2024-02-13,2024-02-13,株式会社漢染吉,,株式会社,東京都,墨田区,江東橋４丁目１３番６号,,13,107,1300022,,,,,,,2024-02-13,1,,,,,オトコソメヨシ,0
1436,7010601064642,新規,0,2024-02-13,2024-02-13,スリースター株式会社,,株式会社,東京都,江東区,亀戸９丁目６番１９号,,13,108,1360071,,,,,,,2024-02-13,1,,,,,スリースター,0
1440,7010705003587,新規,0,2024-02-13,2024-02-13,イーエスジー協同組合,,その他の設立登記法人,東京都,品川区,南大井６丁目２７番２０号,,13,109,1400013,,,,,,,2024-02-13,1,,,,,イーエスジー,0
1455,7011101106166,新規,0,2024-02-13,2024-02-13,株式会社ＮＦＬ,,株式会社,東京都,新宿区,舟町１２－２３石原マンション４０１,,13,104,1600006,,,,,,,2024-02-13,1,,,,,エヌエフエル,0
1456,7011101106174,新規,0,2024-02-13,2024-02-13,株式会社アセットイノベーション,,株式会社,東京都,新宿区,新宿４丁目１番６号,,13,104,1600022,,,,,,,2024-02-13,1,,,,,アセットイノベーション,0
1458,7011103014086,新規,0,2024-02-13,2024-02-13,合同会社プライムインテグレーション,,合同会社,東京都,新宿区,西新宿１丁目２５番１号新宿センタービル４９階,,13,104,1600023,,,,,,,2024-02-13,1,,,,,プライムインテグレーション,0
1462,7011501030313,新規,0,2024-02-13,2024-02-13,壹窯株式会社,,株式会社,東京都,荒川区,東日暮里６丁目４番８号３０１,,13,118,1160014,,,,,,,2024-02-13,1,,,,,イチョウ,0
1463,7011605002563,新規,0,2024-02-13,2024-02-13,一般財団法人エスノメソドロジー・会話分析振興財団,,その他の設立登記法人,東京都,練馬区,関町北２丁目２８番１２－４０２号,,13,120,1770051,,,,,,,2024-02-13,1,,,,,エスノメソドロジーカイワブンセキシンコウザイダン,0
1465,7011801043766,新規,0,2024-02-13,2024-02-13,カネモト国際貿易株式会社,,株式会社,東京都,足立区,千住旭町４３－９メゾン・ド・ソレイユ２０３号室,,13,121,1200026,,,,,,,2024-02-13,1,,,,,カネモトコクサイボウエキ,0
1469,7013301052066,新規,0,2024-02-13,2024-02-13,株式会社すむなら,,株式会社,東京都,豊島区,南池袋２丁目８番１２号,,13,116,1710022,,,,,,,2024-02-13,1,,,,,スムナラ,0
1478,7020001155751,新規,0,2024-02-13,2024-02-13,天映株式会社,,株式会社,神奈川県,横浜市鶴見区,矢向１丁目１０番１０－３,,14,101,2300001,,,,,,,2024-02-13,1,,,,,テンエイ,0
1479,7020003025531,新規,0,2024-02-13,2024-02-13,合同会社トミ,,合同会社,神奈川県,横浜市鶴見区,下末吉５丁目３番２２－２１０号,,14,101,2300012,,,,,,,2024-02-13,1,,,,,トミ,0
1486,7021003014144,新規,0,2024-02-13,2024-02-13,合同会社ＳＴ,,合同会社,神奈川県,秦野市,本町１丁目２番８号,,14,211,2570035,,,,,,,2024-02-13,1,,,,,エスティー,0
1487,7021003014152,新規,0,2024-02-13,2024-02-13,合同会社Ｔ＆Ｓ　Ｌｉｆｅ　ｄｅｓｉｇｎ　ｐｌｕｓ,,合同会社,神奈川県,藤沢市,辻堂３丁目３番地８,,14,205,2510047,,,,,,,2024-02-13,1,,,,,ティーアンドエスライフデザインプラス,0
1493,7030001158588,新規,0,2024-02-13,2024-02-13,株式会社ＬＩＯ,,株式会社,埼玉県,富士見市,鶴馬３丁目２５番９号,,11,235,3540021,,,,,,,2024-02-13,1,,,,,リオ,0
1500,7030003023641,新規,0,2024-02-13,2024-02-13,フェリーチェ合同会社,,合同会社,埼玉県,川口市,鳩ヶ谷本町３丁目２５番地２２号,,11,203,3340002,,,,,,,2024-02-13,1,,,,,フェリーチェ,0
1503,7040001132162,新規,0,2024-02-13,2024-02-13,株式会社みやこ野パートナーズ,,株式会社,千葉県,大網白里市,みやこ野２丁目２番地６－２階,,12,239,2993236,,,,,,,2024-02-13,1,,,,,ミヤコノパートナーズ,0
1504,7040001132179,新規,0,2024-02-13,2024-02-13,ＪＴＣトレード株式会社,,株式会社,千葉県,四街道市,栗山１０５５番地７８,,12,228,2840027,,,,,,,2024-02-13,1,,,,,ジェーティーシートレード,0
1505,7040001132195,新規,0,2024-02-13,2024-02-13,株式会社ＦＵＪＩ,,株式会社,千葉県,千葉市中央区,新田町３６番５号アーバネックスＴＭ１０５,,12,101,2600027,,,,,,,2024-02-13,1,,,,,フジ,0
1510,7040005022285,新規,0,2024-02-13,2024-02-13,一般社団法人佐賀県白石町観光協会,,その他の設立登記法人,千葉県,船橋市,緑台１丁目４番７棟３０４号,,12,204,2740818,,,,,,,2024-02-13,1,,,,,サガケンシロイシチョウカンコウキョウカイ,0
1517,7050001054249,新規,0,2024-02-13,2024-02-13,株式会社パーチェス,,株式会社,茨城県,取手市,藤代６１５番地３,,08,217,3001512,,,,,,,2024-02-13,1,,,,,パーチェス,0
1520,7050003008129,新規,0,2024-02-13,2024-02-13,合同会社こまめ,,合同会社,茨城県,小美玉市,田木谷１６９番地の３,,08,236,3113435,,,,,,,2024-02-13,1,,,,,コマメ,0
1524,7060001036816,新規,0,2024-02-13,2024-02-13,ａｎｄＡｓｉａ　Ｆａｒｍ株式会社,,株式会社,栃木県,宇都宮市,松田新田町８７,,09,201,3210407,,,,,,,2024-02-13,1,,,,,アンドアジアファーム,0
1525,7060001036824,新規,0,2024-02-13,2024-02-13,株式会社ＡＧＴ,,株式会社,栃木県,栃木市,柳橋町８番８号,,09,203,3280051,,,,,,,2024-02-13,1,,,,,エージーティー,0
1528,7060003004903,新規,0,2024-02-13,2024-02-13,合同会社ＶＥＲＯ,,合同会社,栃木県,足利市,伊勢町１丁目７番地１２、２Ｆ,,09,202,3260053,,,,,,,2024-02-13,1,,,,,ベロ,0
1530,7070001041385,新規,0,2024-02-13,2024-02-13,株式会社ジョイヤインターナショナルカンパニー,,株式会社,群馬県,太田市,亀岡町４０１番地１尾島ヴィレッヂＢ－１０２号,,10,205,3700411,,,,,,,2024-02-13,1,,,,,ジョイヤインターナショナルカンパニー,0
1540,7080401027000,新規,0,2024-02-13,2024-02-13,株式会社ライトリーク,,株式会社,静岡県,浜松市中央区,和地町４４６６番地の１,,22,138,4311115,,,,,,,2024-02-13,1,,,,,ライトリーク,0
1564,7100003007397,新規,0,2024-02-13,2024-02-13,ＰＡＤＤＯＣＫ合同会社,,合同会社,長野県,北佐久郡軽井沢町,軽井沢東２３－２、２Ｆ,,20,321,3890104,,,,,,,2024-02-13,1,,,,,パドック,0
1565,7110003005284,新規,0,2024-02-13,2024-02-13,合同会社あまつち,,合同会社,新潟県,佐渡市,新穂潟上８０番地１,,15,224,9520103,,,,,,,2024-02-13,1,,,,,アマツチ,0
1570,7120001262125,新規,0,2024-02-13,2024-02-13,株式会社Ｄａｙｔｏｎａ,,株式会社,大阪府,大阪市中央区,船越町１丁目５番８号,,27,128,5400036,,,,,,,2024-02-13,1,,,,,デイトナ,0
1571,7120001262158,新規,0,2024-02-13,2024-02-13,株式会社Ｌ’ＥＳＰＯＩＲ,,株式会社,大阪府,大阪市住吉区,我孫子西２丁目７－１６－１階,,27,120,5580015,,,,,,,2024-02-13,1,,,,,レスポワール,0
1572,7120001262174,新規,0,2024-02-13,2024-02-13,株式会社ｂｌｕｅ,,株式会社,大阪府,大阪市西区,阿波座２丁目２－２０オフィスポート本町ＷＥＳＴ６Ｆ,,27,106,5500011,,,,,,,2024-02-13,1,,,,,ブルー,0
1573,7120001262182,新規,0,2024-02-13,2024-02-13,株式会社アガリ,,株式会社,大阪府,大阪市城東区,諏訪４丁目４－７－３０４,,27,118,5360021,,,,,,,2024-02-13,1,,,,,アガリ,0
1574,7120001262224,新規,0,2024-02-13,2024-02-13,株式会社ｋｉｙｏｍｏ,,株式会社,大阪府,大阪市阿倍野区,松崎町３丁目１７番７号,,27,119,5450053,,,,,,,2024-02-13,1,,,,,キヨモ,0
1575,7120003025901,新規,0,2024-02-13,2024-02-13,合同会社島蔵,,合同会社,大阪府,大阪市此花区,伝法５丁目１－２４－１３０２,,27,104,5540002,,,,,,,2024-02-13,1,,,,,シマゾウ,0
1581,7130001076334,新規,0,2024-02-13,2024-02-13,株式会社サン,,株式会社,京都府,京都市上京区,室町通上立売上る室町頭町２９３番地１,,26,102,6020029,,,,,,,2024-02-13,1,,,,,サン,0
1586,7130005017004,新規,0,2024-02-13,2024-02-13,社会保険労務士法人川嶋総合パートナーズ,,その他の設立登記法人,京都府,京都市中京区,姉小路通間之町西入綿屋町５３８番地,,26,104,6048181,,,,,,,2024-02-13,1,,,,,カワシマソウゴウパートナーズ,0
1605,7180003026349,新規,0,2024-02-13,2024-02-13,合同会社ｈｉ‐ｎａｙｏｋａ．,,合同会社,愛知県,小牧市,光ケ丘５丁目２２番地県営光ヶ丘第二住宅５棟４０２号,,23,219,4850811,,,,,,,2024-02-13,1,,,,,ヒナヨカ,0
1609,7200001042155,新規,0,2024-02-13,2024-02-13,クロードウイスキー株式会社,,株式会社,岐阜県,岐阜市,千手堂南町１丁目１６番地,,21,201,5008863,,,,,,,2024-02-13,1,,,,,クロードウイスキー,0
1617,7240003006534,新規,0,2024-02-13,2024-02-13,カナデ合同会社,,合同会社,広島県,三原市,皆実２丁目５番１０－３０３号,,34,204,7230052,,,,,,,2024-02-13,1,,,,,カナデ,0
1619,7250001020511,新規,0,2024-02-13,2024-02-13,株式会社ユニバーサル,,株式会社,山口県,下関市,山の田南町１番１０号,,35,201,7510835,,,,,,,2024-02-13,1,,,,,ユニバーサル,0
1623,7290001104681,新規,0,2024-02-13,2024-02-13,株式会社Ｎ・Ｔ・Ｍ,,株式会社,福岡県,福岡市博多区,博多駅前１丁目８番１３号極東ビル３階,,40,132,8120011,,,,,,,2024-02-13,1,,,,,エヌティーエム,0
1631,7330003010213,新規,0,2024-02-13,2024-02-13,合同会社クリーンアップ,,合同会社,熊本県,熊本市中央区,水前寺２丁目１７番１２号桑村ビル２０１号室,,43,101,8620950,,,,,,,2024-02-13,1,,,,,クリーンアップ,0
1632,7330005010756,新規,0,2024-02-13,2024-02-13,協同組合グローバルコンストラクト,,その他の設立登記法人,熊本県,熊本市中央区,国府４丁目９番１８号,,43,101,8620949,,,,,,,2024-02-13,1,,,,,グローバルコンストラクト,0
1633,7340001026284,新規,0,2024-02-13,2024-02-13,株式会社Ａｌｌ　Ｒｏｕｎｄ　Ｓｏｌｕｔｉｏｎ,,株式会社,鹿児島県,鹿児島市,谷山中央８丁目２番１０号,,46,201,8910141,,,,,,,2024-02-13,1,,,,,オールラウンドソリューション,0
1648,7380001034300,新規,0,2024-02-13,2024-02-13,ドニーリュウ株式会社,,株式会社,福島県,いわき市,小島町３丁目３番地の３,,07,204,9738411,,,,,,,2024-02-13,1,,,,,ドニーリュウ,0
1650,7410003003885,新規,0,2024-02-13,2024-02-13,橋島企画合同会社,,合同会社,秋田県,由利本荘市,出戸町字赤沼下道７２―２１,,05,210,0150837,,,,,,,2024-02-13,1,,,,,ハシジマキカク,0
1658,7430001091063,新規,0,2024-02-13,2024-02-13,株式会社Ｂｉｌｌｅｔ,,株式会社,北海道,札幌市中央区,南五条西１５丁目２－３,,01,101,0640805,,,,,,,2024-02-13,1,,,,,ビレット,0
1661,7430003015953,新規,0,2024-02-13,2024-02-13,合同会社イノベイト,,合同会社,北海道,札幌市白石区,平和通２丁目北８番２６号,,01,104,0030029,,,,,,,2024-02-13,1,,,,,イノベイト,0
1663,7460101007494,新規,0,2024-02-13,2024-02-13,清水重建株式会社,,株式会社,北海道,帯広市,西十六条北１丁目１２番地１３,,01,207,0800046,,,,,,,2024-02-13,1,,,,,シミズジュウケン,0
1664,7460301005199,新規,0,2024-02-13,2024-02-13,株式会社明和電器商会,,株式会社,北海道,常呂郡訓子府町,栄町３番地,,01,549,0991434,,,,,,,2024-02-13,1,,,,,メイワデンキショウカイ,0
1665,7470001020027,新規,0,2024-02-13,2024-02-13,株式会社大島工業,,株式会社,香川県,高松市,春日町１２９番地,,37,201,7610101,,,,,,,2024-02-13,1,,,,,オオシマコウギョウ,0
1666,7480003002088,新規,0,2024-02-13,2024-02-13,合同会社北嶺特産物,,合同会社,徳島県,三好市,池田町白地ウマバ６１４番地,,36,208,7785251,,,,,,,2024-02-13,1,,,,,ホクレイトクサンブツ,0
1679,8010001242228,新規,0,2024-02-13,2024-02-13,ＳＴＥＭ株式会社,,株式会社,東京都,中央区,銀座７丁目１５番８号タウンハイツ銀座４０６,,13,102,1040061,,,,,,,2024-02-13,1,,,,,ステム,0
1680,8010001242244,新規,0,2024-02-13,2024-02-13,株式会社Ｔ．Ｋ．Ａｓｓｏｃｉａｔｅｓ,,株式会社,東京都,中央区,銀座１丁目１２番４号Ｎ＆Ｅ．ＢＬＤ．６Ｆ,,13,102,1040061,,,,,,,2024-02-13,1,,,,,ティーケイアソシエイツ,0
1683,8010003042915,新規,0,2024-02-13,2024-02-13,合同会社安田結社,,合同会社,東京都,千代田区,二番町１－２番町ハイム８２４,,13,101,1020084,,,,,,,2024-02-13,1,,,,,ヤスダケッシャ,0
1684,8010101015995,新規,0,2024-02-13,2024-02-13,株式会社ビューティークラウン,,株式会社,東京都,八王子市,堀之内３丁目３５番地５,,13,201,1920355,,,,,,,2024-02-13,1,,,,,ビューティークラウン,0
1694,8010403031939,新規,0,2024-02-13,2024-02-13,合同会社エスエスビズ,,合同会社,東京都,港区,南青山６丁目７－５－７０１,,13,103,1070062,,,,,,,2024-02-13,1,,,,,エスエスビズ,0
1695,8010405022952,新規,0,2024-02-13,2024-02-13,一般社団法人モーニンギフト,,その他の設立登記法人,東京都,港区,南青山３丁目１番３６号青山丸竹ビル６Ｆ,,13,103,1070062,,,,,,,2024-02-13,1,,,,,モーニンギフト,0
1698,8010601064641,新規,0,2024-02-13,2024-02-13,株式会社ＣａｎｄＰ　ｖｅｎｔｕｒｅ,,株式会社,東京都,江東区,木場６丁目１０番１７号,,13,108,1350042,,,,,,,2024-02-13,1,,,,,シーアンドピーベンチャー,0
1699,8010603010643,新規,0,2024-02-13,2024-02-13,ＢＲＩＳＴＡＲ合同会社,,合同会社,東京都,江東区,有明１丁目４－１１－１８２３,,13,108,1350063,,,,,,,2024-02-13,1,,,,,ブライスター,0
1705,8010801034774,新規,0,2024-02-13,2024-02-13,株式会社ミクニ,,株式会社,東京都,大田区,山王１丁目２番１０号,,13,111,1430023,,,,,,,2024-02-13,1,,,,,ミクニ,0
1709,8010901054706,新規,0,2024-02-13,2024-02-13,株式会社団野企画,,株式会社,東京都,世田谷区,代沢４丁目４６番１１号,,13,112,1550032,,,,,,,2024-02-13,1,,,,,ダンノキカク,0
1721,8011101106149,新規,0,2024-02-13,2024-02-13,株式会社ＴＣＴ,,株式会社,東京都,新宿区,新宿７丁目２番２－５０５号,,13,104,1600022,,,,,,,2024-02-13,1,,,,,ティーシーティー,0
1722,8011101106157,新規,0,2024-02-13,2024-02-13,株式会社Ｒｏｏｔｓ,,株式会社,東京都,新宿区,高田馬場２丁目１７－３東京三協信用金庫本店ビル７２３号室,,13,104,1690075,,,,,,,2024-02-13,1,,,,,ルーツ,0
1723,8011101106165,新規,0,2024-02-13,2024-02-13,イーコネクト株式会社,,株式会社,東京都,新宿区,新宿２丁目１３番１０号,,13,104,1600022,,,,,,,2024-02-13,1,,,,,イーコネクト,0
1724,8011101106173,新規,0,2024-02-13,2024-02-13,株式会社テンポイノベーション分割準備会社,,株式会社,東京都,新宿区,新宿４丁目１番６号,,13,104,1600022,,,,,,,2024-02-13,1,,,,,テンポイノベーションブンカツジュンビガイシャ,0
1725,8011103014085,新規,0,2024-02-13,2024-02-13,合同会社Ｈ　ＣＡＲＥＥＲ,,合同会社,東京都,新宿区,四谷三栄町９番６号四谷三栄町スクエア６階,,13,104,1600008,,,,,,,2024-02-13,1,,,,,エイチキャリア,0
1727,8011501030312,新規,0,2024-02-13,2024-02-13,華青会株式会社,,株式会社,東京都,荒川区,東日暮里６丁目４番８号３０２,,13,118,1160014,,,,,,,2024-02-13,1,,,,,カセイカイ,0
1730,8011801043773,新規,0,2024-02-13,2024-02-13,株式会社ＦＲＥＥＤＯＭ,,株式会社,東京都,足立区,竹の塚３丁目１１番１８－２０８号,,13,121,1210813,,,,,,,2024-02-13,1,,,,,フリーダム,0
1733,8020001155718,新規,0,2024-02-13,2024-02-13,Ｅｙｅ‐Ｒ株式会社,,株式会社,神奈川県,川崎市高津区,千年８５４番地ナイスステージ武蔵新城４０６,,14,134,2130022,,,,,,,2024-02-13,1,,,,,アイアール,0
1734,8020001155775,新規,0,2024-02-13,2024-02-13,株式会社ＥＫＡＩ　ＴＥＣＨＮＯＬＯＧＹ,,株式会社,神奈川県,横浜市中区,桜木町１丁目１番７号ヒューリックみなとみらい１０階,,14,104,2310062,,,,,,,2024-02-13,1,,,,,イーカイテクノロジー,0
1738,8020003025530,新規,0,2024-02-13,2024-02-13,ＭＡＫＯＴＯ・ＩＮＮＯＶＡＴＩＯＮ合同会社,,合同会社,神奈川県,横浜市南区,二葉町２丁目１９番地１５ステラコート横浜南８０６,,14,105,2320026,,,,,,,2024-02-13,1,,,,,マコトイノベーション,0
1741,8021001081433,新規,0,2024-02-13,2024-02-13,株式会社ＮＫコーポレーション,,株式会社,神奈川県,相模原市南区,東林間６丁目９番１号,,14,153,2520311,,,,,,,2024-02-13,1,,,,,エヌケーコーポレーション,0
1743,8021003014151,新規,0,2024-02-13,2024-02-13,ＭＯＵＮＴＡＩＮ　ＭＯＴＯＲＳ合同会社,,合同会社,神奈川県,愛甲郡愛川町,半原２５４２－５ハーフヒルズＩＩ－１０２,00133699,14,401,2430307,,,,,,,2024-02-13,1,,,,,モウンテンモータス,0
1752,8040001132161,新規,0,2024-02-13,2024-02-13,株式会社ＦＬＥＡＩＲ,,株式会社,千葉県,野田市,宮崎１７１番地の６８,,12,208,2780005,,,,,,,2024-02-13,1,,,,,フレアー,0
1753,8040001132178,新規,0,2024-02-13,2024-02-13,株式会社Ｎａｔｕｒａｌ　ｔｈｉｎｇ,,株式会社,千葉県,千葉市若葉区,若松町４８９番地１２パークヴィラＡ棟,,12,104,2640021,,,,,,,2024-02-13,1,,,,,ナチュラルシング,0
1766,8070001041384,新規,0,2024-02-13,2024-02-13,株式会社夕凪,,株式会社,群馬県,高崎市,上中居町３３番地７,,10,202,3700851,,,,,,,2024-02-13,1,,,,,ユウナギ,0
1770,8080001026129,新規,0,2024-02-13,2024-02-13,株式会社小川テクニクス,,株式会社,静岡県,藤枝市,横内２０８８番地,,22,214,4260002,,,,,,,2024-02-13,1,,,,,オガワテクニクス,0
1778,8120001262124,新規,0,2024-02-13,2024-02-13,槃石資産株式会社,,株式会社,大阪府,大阪市中央区,島之内２丁目８番２９－５０５号,,27,128,5420082,,,,,,,2024-02-13,1,,,,,ハンイシシサン,0
1779,8120001262140,新規,0,2024-02-13,2024-02-13,株式会社ヒトリ,,株式会社,大阪府,寝屋川市,早子町１３番７－４０３号,,27,215,5720837,,,,,,,2024-02-13,1,,,,,ヒトリ,0
1782,8120003025859,新規,0,2024-02-13,2024-02-13,きなり合同会社,,合同会社,大阪府,大阪市東淀川区,柴島２丁目１３－２７グランメール東淀川１０２号,,27,114,5330024,,,,,,,2024-02-13,1,,,,,キナリ,0
1783,8120003025917,新規,0,2024-02-13,2024-02-13,合同会社ＡＮＥＲＡ,,合同会社,大阪府,大阪市中央区,西心斎橋２丁目１１－９ＲＥ－０１１－３０２,,27,128,5420086,,,,,,,2024-02-13,1,,,,,アネラ,0
1784,8120903005051,新規,0,2024-02-13,2024-02-13,合同会社ｃｈａｒｍ,,合同会社,大阪府,箕面市,箕面１丁目３番２０号（１０３号）,,27,220,5620001,,,,,,,2024-02-13,1,,,,,チャーム,0
1785,8122005003735,新規,0,2024-02-13,2024-02-13,一般社団法人関学サッカーアライアンス,,その他の設立登記法人,大阪府,八尾市,太田新町４丁目８８番地,,27,212,5810039,,,,,,,2024-02-13,1,,,,,カンガクサッカーアライアンス,0
1788,8130001076333,新規,0,2024-02-13,2024-02-13,小橋通商株式会社,,株式会社,京都府,京都市西京区,桂坤町２５番地２,,26,111,6158084,,,,,,,2024-02-13,1,,,,,コバシツウショウ,0
1790,8130003009299,新規,0,2024-02-13,2024-02-13,合同会社みらいのてっく,,合同会社,京都府,京都市下京区,七条通油小路東入大黒町２２７番地第２キョートビル４階,,26,106,6008223,,,,,,,2024-02-13,1,,,,,ミライノテック,0
1795,8140003020123,新規,0,2024-02-13,2024-02-13,合同会社Ｔｒｅａｓｕｒｅｓ,,合同会社,兵庫県,高砂市,伊保４丁目５５０番地の２,,28,216,6760078,,,,,,,2024-02-13,1,,,,,トレジャーズ,0
1800,8180301038318,新規,0,2024-02-13,2024-02-13,白柴農園株式会社,,株式会社,愛知県,豊橋市,東赤沢町字西方部１００番地,,23,201,4413212,,,,,,,2024-02-13,1,,,,,シロシバノウエン,0
1802,8180305009546,新規,0,2024-02-13,2024-02-13,一般社団法人ＨＩＭ,,その他の設立登記法人,愛知県,豊田市,美里４丁目２番地５,,23,211,4710805,,,,,,,2024-02-13,1,,,,,ヒム,0
1803,8200001042146,新規,0,2024-02-13,2024-02-13,株式会社ザ・ホヌズ,,株式会社,岐阜県,羽島市,上中町中１４５番地,,21,209,5016319,,,,,,,2024-02-13,1,,,,,ザホヌズ,0
1809,8240001062776,新規,0,2024-02-13,2024-02-13,あすなろ株式会社,,株式会社,広島県,福山市,千田町２丁目１番１８号,,34,207,7200017,,,,,,,2024-02-13,1,,,,,アスナロ,0
1810,8240003006533,新規,0,2024-02-13,2024-02-13,合同会社Ｒｉｍ,,合同会社,広島県,広島市中区,舟入川口町１８－２２－５０１,,34,101,7300845,,,,,,,2024-02-13,1,,,,,リム,0
1811,8240005015722,新規,0,2024-02-13,2024-02-13,ＮＰＯ法人呉こあら,,その他の設立登記法人,広島県,呉市,広両谷１丁目８番９－３号,,34,202,7370123,,,,,,,2024-02-13,1,,,,,クレコアラ,0
1821,8290001104656,新規,0,2024-02-13,2024-02-13,アンカーエージェントシップ株式会社,,株式会社,福岡県,福岡市南区,高宮２丁目１０番２５－３０２号,,40,134,8150083,,,,,,,2024-02-13,1,,,,,アンカーエージェントシップ,0
1822,8290001104664,新規,0,2024-02-13,2024-02-13,ＧＯＫＭ株式会社,,株式会社,福岡県,柳川市,大和町鷹ノ尾１７７番地８,,40,207,8390253,,,,,,,2024-02-13,1,,,,,ゴゥケイエム,0
1823,8290001104672,新規,0,2024-02-13,2024-02-13,こどもの夢を応援する株式会社,,株式会社,福岡県,福岡市中央区,天神２丁目３番３６号,,40,133,8100001,,,,,,,2024-02-13,1,,,,,コドモノユメヲオウエンスル,0
1830,8310001018853,新規,0,2024-02-13,2024-02-13,株式会社ＥＸＩＡ,,株式会社,長崎県,諫早市,八坂町３－１６八坂ビル３Ｆ３０３,,42,204,8540025,,,,,,,2024-02-13,1,,,,,エクシア,0
1832,8330001031739,新規,0,2024-02-13,2024-02-13,株式会社Ｌｉｆｅ　Ｐｌｕｓ,,株式会社,熊本県,熊本市北区,飛田１丁目１２番６号,,43,105,8615514,,,,,,,2024-02-13,1,,,,,ライフプラス,0
1835,8340001026283,新規,0,2024-02-13,2024-02-13,にじいろさんじ株式会社,,株式会社,鹿児島県,鹿児島市,宇宿２丁目２５番２５号大坪ブルーリバーハウス４０１,,46,201,8900073,,,,,,,2024-02-13,1,,,,,ニジイロサンジ,0
1843,8360003013699,新規,0,2024-02-13,2024-02-13,末吉電器合同会社,,合同会社,沖縄県,沖縄市,諸見里３丁目１番８号,,47,211,9040032,,,,,,,2024-02-13,1,,,,,スエヨシデンキ,0
1844,8360003013708,新規,0,2024-02-13,2024-02-13,合同会社フライングカラーズ,,合同会社,沖縄県,国頭郡本部町,字山川４０３―１美ら海テラス１０１,,47,308,9050205,,,,,,,2024-02-13,1,,,,,フライングカラーズ,0
1847,8370001050933,新規,0,2024-02-13,2024-02-13,株式会社ＭＫ　ＴＲＡＤＩＮＧ,,株式会社,宮城県,角田市,江尻字猫田２６番１,,04,208,9811521,,,,,,,2024-02-13,1,,,,,エムケートレーディング,0
1852,8380003005678,新規,0,2024-02-13,2024-02-13,合同会社パーフェクト,,合同会社,福島県,西白河郡泉崎村,大字泉崎字下宿１８番地１,,07,464,9690101,,,,,,,2024-02-13,1,,,,,パーフェクト,0
1854,8400001016550,新規,0,2024-02-13,2024-02-13,株式会社エコカーパーク,,株式会社,岩手県,一関市,川崎町薄衣字町裏２６番地,,03,209,0290202,,,,,,,2024-02-13,1,,,,,エコカーパーク,0
1856,8420001018594,新規,0,2024-02-13,2024-02-13,株式会社わらび経理事務所,,株式会社,青森県,八戸市,大字新井田字立石沢１４番地１,,02,203,0310813,,,,,,,2024-02-13,1,,,,,ワラビケイリジムショ,0
1860,8430001091046,新規,0,2024-02-13,2024-02-13,豐臺味株式会社,,株式会社,北海道,札幌市中央区,大通西８丁目２番地２９北大通ビル,,01,101,0600042,,,,,,,2024-02-13,1,,,,,フォンタイウェイ,0
1861,8430001091062,新規,0,2024-02-13,2024-02-13,株式会社アール,,株式会社,北海道,札幌市中央区,南十八条西８丁目１番１４－３０１号,,01,101,0640918,,,,,,,2024-02-13,1,,,,,アール,0
1871,8460101007493,新規,0,2024-02-13,2024-02-13,株式会社白樺牧場,,株式会社,北海道,河東郡鹿追町,鹿追北２線１番地２５,,01,634,0810216,,,,,,,2024-02-13,1,,,,,シラカバボクジョウ,0
1873,8470001020026,新規,0,2024-02-13,2024-02-13,株式会社ＮＩＩＩ,,株式会社,香川県,高松市,サンポート２－１高松シンボルタワータワー棟４・５階情報通信交流館内,,37,201,7600019,,,,,,,2024-02-13,1,,,,,エヌスリー,0
1876,8480001012385,新規,0,2024-02-13,2024-02-13,株式会社ＧＡＲＡＧＥ　ＫＩＴＡ,,株式会社,徳島県,徳島市,川内町平石若宮８番地１,,36,201,7710137,,,,,,,2024-02-13,1,,,,,ガレージキタ,0
1877,8480003002087,新規,0,2024-02-13,2024-02-13,八幡水産合同会社,,合同会社,徳島県,徳島市,北沖洲３丁目７番１号ー１増田ビル２０２,,36,201,7700872,,,,,,,2024-02-13,1,,,,,ハチマンスイサン,0
1881,8700150120973,新規,0,2024-02-13,2024-02-13,ＫＩＴＴＥＮ　＆　ＰＵＰＰＹ（ＨＫ）ＬＩＭＩＴＥＤ,,外国会社等,,,,,,,,Ｒｏｏｍ　１３０３，１３／Ｆ，Ｔａｉ　Ｓａｎｇ　Ｂａｎｋ　Ｂｕｉｌｄｉｎｇ　１３０－１３２　Ｄｅｓ　Ｖｏｅｕｘ　Ｒｏａｄ　Ｃｅｎｔｒａｌ，Ｃｅｎｔｒａｌ　Ｈｏｎｇ　Ｋｏｎｇ,,,,,,2024-02-13,1,,,,,キトゥンアンドパピーホンコンリミテッド,0
1884,9010001242243,新規,0,2024-02-13,2024-02-13,Ｗｅｌｌｋｙｌｉｎ　Ｊａｐａｎ株式会社,,株式会社,東京都,千代田区,大手町１丁目７－２東京サンケイビル２７階,,13,101,1000004,,,,,,,2024-02-13,1,,,,,ウェルキリンジャパン,0
1885,9010003042906,新規,0,2024-02-13,2024-02-13,Ｖｅｒｖｅ合同会社,,合同会社,東京都,千代田区,平河町２丁目５番３号,,13,101,1020093,,,,,,,2024-02-13,1,,,,,ヴァーヴ,0
1890,9010401180316,新規,0,2024-02-13,2024-02-13,株式会社アネックスデジタルジャパン,,株式会社,東京都,港区,芝浦２丁目４番１号インフォサイエンスビル,,13,103,1080023,,,,,,,2024-02-13,1,,,,,アネックスデジタルジャパン,0
1891,9010401180340,新規,0,2024-02-13,2024-02-13,株式会社ＹＡＣＣＯ,,株式会社,東京都,港区,南青山３丁目１番３６号青山丸竹ビル６Ｆ,,13,103,1070062,,,,,,,2024-02-13,1,,,,,ヤッコ,0
1892,9010401180365,新規,0,2024-02-13,2024-02-13,株式会社ＮＳＳＫ‐Ｅ２,,株式会社,東京都,港区,愛宕２丁目５番１号愛宕グリーンヒルズＭＯＲＩタワー,,13,103,1050002,,,,,,,2024-02-13,1,,,,,エヌエスエスケーイーツー,0
1893,9010403031962,新規,0,2024-02-13,2024-02-13,Ｅｃｌａｔ合同会社,,合同会社,東京都,港区,芝浦４丁目８－１２メゾン田町７１５,,13,103,1080023,,,,,,,2024-02-13,1,,,,,エクラ,0
1894,9010405022951,新規,0,2024-02-13,2024-02-13,行政書士法人国際便利店,,その他の設立登記法人,東京都,港区,赤坂９丁目６－３０乃木坂プレース１０２,,13,103,1070052,,,,,,,2024-02-13,1,,,,,コクサイベンリテン,0
1900,9010601064632,新規,0,2024-02-13,2024-02-13,株式会社ＭＡＥＣＯＮ,,株式会社,東京都,江東区,森下１丁目１６番３－２０２号,,13,108,1350004,,,,,,,2024-02-13,1,,,,,マエコン,0
1903,9010603010642,新規,0,2024-02-13,2024-02-13,合同会社ＣＡＴＡＬＹＳ,,合同会社,東京都,墨田区,亀沢３丁目１６番８号,,13,107,1300014,,,,,,,2024-02-13,1,,,,,カタリス,0
1909,9010701045532,新規,0,2024-02-13,2024-02-13,株式会社ＧｅｎｅＲｉｎｇ,,株式会社,東京都,品川区,東五反田４丁目３番３０－１０３号,,13,109,1410022,,,,,,,2024-02-13,1,,,,,ジェネリング,0
1914,9010901054696,新規,0,2024-02-13,2024-02-13,株式会社ｌｏｖｅ,,株式会社,東京都,世田谷区,下馬６丁目２９番６－１０８号,,13,112,1540002,,,,,,,2024-02-13,1,,,,,ラブ,0
1920,9011001159956,新規,0,2024-02-13,2024-02-13,株式会社スペリオーレ,,株式会社,東京都,渋谷区,渋谷２丁目２１－１渋谷ヒカリエ３３Ｆ,,13,113,1500002,,,,,,,2024-02-13,1,,,,,スペリオーレ,0
1922,9011005010363,新規,0,2024-02-13,2024-02-13,一般社団法人ＩＨＷヘルスケア,,その他の設立登記法人,東京都,目黒区,目黒本町２丁目５番４号２階,,13,110,1520002,,,,,,,2024-02-13,1,,,,,アイエイチダブリューヘルスケア,0
1930,9011101106148,新規,0,2024-02-13,2024-02-13,株式会社ＸＹ,,株式会社,東京都,新宿区,高田馬場１丁目２８番１０号三慶ビル３階,,13,104,1690075,,,,,,,2024-02-13,1,,,,,エックスワイ,0
1931,9011103014084,新規,0,2024-02-13,2024-02-13,合同会社Ｈ　ＳＡＬＥＳ,,合同会社,東京都,新宿区,四谷三栄町９番６号四谷三栄町スクエア６階,,13,104,1600008,,,,,,,2024-02-13,1,,,,,エイチセールス,0
1938,9011601027422,新規,0,2024-02-13,2024-02-13,株式会社ＦａｍｉＳ,,株式会社,東京都,練馬区,高松５丁目１４番８号マーブル１０２,,13,120,1790075,,,,,,,2024-02-13,1,,,,,ファミス,0
1945,9013303007000,新規,0,2024-02-13,2024-02-13,合同会社アシスト,,合同会社,東京都,豊島区,東池袋４丁目２１－１－１００２,,13,116,1700013,,,,,,,2024-02-13,1,,,,,アシスト,0
1948,9020001155766,新規,0,2024-02-13,2024-02-13,株式会社ＡＭＫ　ＬｉｖｅＳｔｒｅａｍ,,株式会社,神奈川県,横浜市西区,楠町５番１６号横浜コーヨー十番館４０１号室,,14,103,2200003,,,,,,,2024-02-13,1,,,,,エーエムケーライブストリーム,0
1949,9020001155774,新規,0,2024-02-13,2024-02-13,株式会社ｎｏｒｉ・ｎｏｒｉ,,株式会社,神奈川県,横浜市中区,桜木町１丁目１０１番地１クロスゲート７階,,14,104,2310062,,,,,,,2024-02-13,1,,,,,ノリノリ,0
1950,9020001155782,新規,0,2024-02-13,2024-02-13,ファーストイノベーション株式会社,,株式会社,神奈川県,横浜市磯子区,丸山１丁目１０番１号,,14,107,2350011,,,,,,,2024-02-13,1,,,,,ファーストイノベーション,0
1951,9020001155790,新規,0,2024-02-13,2024-02-13,株式会社ＧｏｏｄＳｔａｒ,,株式会社,神奈川県,横浜市栄区,鍛冶ケ谷２丁目５４－Ａローレルスクエア港南台１１２号室,,14,115,2470009,,,,,,,2024-02-13,1,,,,,グッドスター,0
1960,9021003014150,新規,0,2024-02-13,2024-02-13,合同会社エフネクスト,,合同会社,神奈川県,秦野市,室町８番３４－３２号,,14,211,2570033,,,,,,,2024-02-13,1,,,,,エフネクスト,0
1965,9030001158594,新規,0,2024-02-13,2024-02-13,暁コンサルタント株式会社,,株式会社,埼玉県,川越市,大字古谷本郷１８９番地１,,11,201,3500002,,,,,,,2024-02-13,1,,,,,アカツキコンサルタント,0
1970,9030003023598,新規,0,2024-02-13,2024-02-13,合同会社エバー,,合同会社,埼玉県,川口市,西川口４丁目１番３５号アネックス西川口１０６号,,11,203,3320021,,,,,,,2024-02-13,1,,,,,エバー,0
1971,9030003023623,新規,0,2024-02-13,2024-02-13,合同会社花と光の写真室,,合同会社,埼玉県,入間市,大字小谷田１３５８番地２,,11,225,3580026,,,,,,,2024-02-13,1,,,,,ハナトヒカリノシャシンシツ,0
1977,9040001132128,新規,0,2024-02-13,2024-02-13,ユノキ株式会社,,株式会社,千葉県,松戸市,北松戸３丁目２－１５－２０２,,12,207,2710063,,,,,,,2024-02-13,1,,,,,ユノキ,0
1978,9040001132160,新規,0,2024-02-13,2024-02-13,ハウスバンク不動産株式会社,,株式会社,千葉県,松戸市,仲井町２丁目６番地２,,12,207,2702242,,,,,,,2024-02-13,1,,,,,ハウスバンクフドウサン,0
1979,9040001132169,新規,0,2024-02-13,2024-02-13,株式会社Ｂｅｌ‐Ｃｈｉｃ,,株式会社,千葉県,浦安市,当代島２丁目１番２１－６０５号ハイマート浦安,,12,227,2790001,,,,,,,2024-02-13,1,,,,,ベルシック,0
1980,9040001132177,新規,0,2024-02-13,2024-02-13,茜商事株式会社,,株式会社,千葉県,船橋市,海神町３丁目１１９番地１４海神コーポ２０１号,,12,204,2730022,,,,,,,2024-02-13,1,,,,,アカネショウジ,0
1985,9040003024298,新規,0,2024-02-13,2024-02-13,グリーン・フィールド・アドバイザリー合同会社,,合同会社,千葉県,佐倉市,西志津３丁目４番９号,,12,212,2850845,,,,,,,2024-02-13,1,,,,,グリーンフィールドアドバイザリー,0
1986,9040003024307,新規,0,2024-02-13,2024-02-13,合同会社Ｒｏａｄ　Ｔｏ　Ｍｉｌｌｉｏｎａｉｒｅ,,合同会社,千葉県,木更津市,清川１丁目１９‐１２,,12,206,2920051,,,,,,,2024-02-13,1,,,,,ロードトゥミリオネア,0
1994,9050005013389,新規,0,2024-02-13,2024-02-13,一般社団法人日本サッカー指導者協会,,その他の設立登記法人,茨城県,つくば市,松代１丁目２０番地５,,08,220,3050035,,,,,,,2024-02-13,1,,,,,ニホンサッカーシドウシャキョウカイ,0
1997,9060001036830,新規,0,2024-02-13,2024-02-13,株式会社種谷建材,,株式会社,栃木県,栃木市,薗部町２丁目２１番２号,,09,203,3280074,,,,,,,2024-02-13,1,,,,,タネヤケンザイ,0
2002,9070001041375,新規,0,2024-02-13,2024-02-13,ＡＣＴ株式会社,,株式会社,群馬県,伊勢崎市,堀下町４４番地１１,,10,204,3792212,,,,,,,2024-02-13,1,,,,,アクト,0
2005,9080105006397,新規,0,2024-02-13,2024-02-13,一般社団法人ＦＮ・ＰＲＩＭＡＶＥＲＡ,,その他の設立登記法人,静岡県,沼津市,錦町１番地の１,,22,203,4100807,,,,,,,2024-02-13,1,,,,,エフエヌプリマヴェラ,0
2008,9090001018537,新規,0,2024-02-13,2024-02-13,株式会社ＡＲＵＧＡホールディングス,,株式会社,山梨県,甲州市,勝沼町下岩崎３７１番地,,19,213,4091313,,,,,,,2024-02-13,1,,,,,アルガホールディングス,0
2009,9090001018545,新規,0,2024-02-13,2024-02-13,ＤｒａｇｏｎＫｉｎｇ株式会社,,株式会社,山梨県,甲府市,上石田４丁目１番１０号,,19,201,4000041,,,,,,,2024-02-13,1,,,,,リュウオウ,0
2025,9120001262073,新規,0,2024-02-13,2024-02-13,ＴＨＥ　ＢＵＴＴＥＲ＆ＳＣＯＮＥ株式会社,,株式会社,大阪府,大阪市福島区,吉野２丁目１３番１０号,,27,103,5530006,,,,,,,2024-02-13,1,,,,,ザバターアンドスコーン,0
2026,9120001262148,新規,0,2024-02-13,2024-02-13,株式会社シンフウ工務店,,株式会社,大阪府,大阪市鶴見区,茨田大宮１丁目２番３６号,,27,124,5380031,,,,,,,2024-02-13,1,,,,,シンフウコウムテン,0
2027,9120001262164,新規,0,2024-02-13,2024-02-13,株式会社ＹＵＭＥ　ＰＬＵＳ,,株式会社,大阪府,大阪市都島区,中野町４丁目３番６号Ｈ２Ｈ大阪桜之宮邸４Ｅ－３,,27,102,5340027,,,,,,,2024-02-13,1,,,,,ユメプラス,0
2028,9120001262189,新規,0,2024-02-13,2024-02-13,株式会社黒武士自動車設計研究所,,株式会社,大阪府,大阪市東淀川区,西淡路２丁目１３番２８－３１,,27,114,5330031,,,,,,,2024-02-13,1,,,,,クロブシジドウシャセッケイケンキュウショ,0
2029,9120001262247,新規,0,2024-02-13,2024-02-13,株式会社カグラ,,株式会社,大阪府,枚方市,堂山１丁目３２番９号,,27,210,5730007,,,,,,,2024-02-13,1,,,,,カグラ,0
2030,9120003025899,新規,0,2024-02-13,2024-02-13,合同会社Ｋｕｍａｄｏ,,合同会社,大阪府,大阪市浪速区,日本橋５丁目１２－３ＯｓａｋａＭｅｔｏｒｏ恵美須町ビル６Ｆ－０３,,27,111,5560005,,,,,,,2024-02-13,1,,,,,クマド,0
2031,9120003025908,新規,0,2024-02-13,2024-02-13,合同会社ＵＲＢ,,合同会社,大阪府,大阪市住之江区,柴谷２丁目５番２３号,,27,125,5590021,,,,,,,2024-02-13,1,,,,,ユーアールビー,0
2036,9120901048761,新規,0,2024-02-13,2024-02-13,株式会社三貴トレーディング,,株式会社,大阪府,茨木市,若園町３番２号,,27,211,5670894,,,,,,,2024-02-13,1,,,,,サンキトレーディング,0
2057,9160001025690,新規,0,2024-02-13,2024-02-13,株式会社仁科建築,,株式会社,滋賀県,米原市,西円寺８０１番地,,25,214,5210092,,,,,,,2024-02-13,1,,,,,ニシナケンチク,0
2058,9160003003117,新規,0,2024-02-13,2024-02-13,ＦＵＮ　ＦＵＮ　ＦＵＮ合同会社,,合同会社,滋賀県,東近江市,沖野４丁目４番３６号,,25,213,5270034,,,,,,,2024-02-13,1,,,,,ファンファンファン,0
2065,9180003026306,新規,0,2024-02-13,2024-02-13,ケアフォワード合同会社,,合同会社,愛知県,名古屋市中区,千代田５丁目１１番２７号アステリ鶴舞エーナ１１０１号,,23,106,4600012,,,,,,,2024-02-13,1,,,,,ケアフォワード,0
2069,9190001031100,新規,0,2024-02-13,2024-02-13,エステート・ストーン株式会社,,株式会社,三重県,伊勢市,常磐２丁目３番１８号,,24,203,5160041,,,,,,,2024-02-13,1,,,,,エステートストーン,0
2072,9200001042153,新規,0,2024-02-13,2024-02-13,株式会社ＬＣ,,株式会社,岐阜県,各務原市,蘇原熊田町２丁目２６番地,,21,213,5040853,,,,,,,2024-02-13,1,,,,,エルシー,0
2081,9240003006524,新規,0,2024-02-13,2024-02-13,合同会社Ｕ　ＵＮＩＯＮ,,合同会社,広島県,福山市,明王台５丁目１０－２５,,34,207,7200834,,,,,,,2024-02-13,1,,,,,ユーユニオン,0
2082,9250003003438,新規,0,2024-02-13,2024-02-13,合同会社紡ぐ,,合同会社,山口県,山口市,大内長野１４３３番地２,,35,203,7530211,,,,,,,2024-02-13,1,,,,,ツムグ,0
2085,9260001038724,新規,0,2024-02-13,2024-02-13,株式会社ＫＫｐｌｕｓＴ,,株式会社,岡山県,岡山市北区,東古松南町７番１号アネックス東古松２０３,,33,101,7000922,,,,,,,2024-02-13,1,,,,,ケイケイプラスティー,0
2087,9260003004575,新規,0,2024-02-13,2024-02-13,ｔｒｉｐｌｅ　ｅｉｇｈｔ合同会社,,合同会社,岡山県,岡山市北区,清輝橋２丁目２番８号１階,,33,101,7000861,,,,,,,2024-02-13,1,,,,,トリプルエイト,0
2090,9290001104572,新規,0,2024-02-13,2024-02-13,株式会社イースペース,,株式会社,福岡県,福岡市早良区,百道３丁目１６番８－１０１号,,40,137,8140006,,,,,,,2024-02-13,1,,,,,イースペース,0
2091,9290001104663,新規,0,2024-02-13,2024-02-13,株式会社ＺＯＯＥ,,株式会社,福岡県,福岡市南区,三宅２丁目２５番３３－２０３号,,40,134,8111344,,,,,,,2024-02-13,1,,,,,ゾーイ,0
2092,9290001104688,新規,0,2024-02-13,2024-02-13,株式会社ｘｅｎｏ　Ｆ,,株式会社,福岡県,福岡市中央区,春吉２丁目７番８号,,40,133,8100003,,,,,,,2024-02-13,1,,,,,ゼノエフ,0
2102,9330001031746,新規,0,2024-02-13,2024-02-13,株式会社愛和,,株式会社,熊本県,阿蘇市,内牧９６３番地２,,43,214,8692301,,,,,,,2024-02-13,1,,,,,アイワ,0
2104,9340001026282,新規,0,2024-02-13,2024-02-13,株式会社リバース,,株式会社,鹿児島県,鹿児島市,田上町３８５８番地,,46,201,8900035,,,,,,,2024-02-13,1,,,,,リバース,0
2109,9360003013681,新規,0,2024-02-13,2024-02-13,Ｊｅｆｆｒｅｙ　Ａｕｔｏ　Ｄｅｔａｉｌｉｎｇ合同会社,,合同会社,沖縄県,中頭郡北谷町,字砂辺３５７番地,,47,326,9040111,,,,,,,2024-02-13,1,,,,,ジェフリーオートディテイリング,0
2110,9360003013698,新規,0,2024-02-13,2024-02-13,ＢＩＲＩＣ合同会社,,合同会社,沖縄県,名護市,大西５丁目１５番３－１０５号チェリーキューブ,,47,209,9050018,,,,,,,2024-02-13,1,,,,,ビリック,0
2117,9390001017525,新規,0,2024-02-13,2024-02-13,株式会社１２１Ａｐｌｕｓ,,株式会社,山形県,山形市,桜田西４丁目９番５号メゾン・ド・ドルチェＢ２０８号,,06,201,9902321,,,,,,,2024-02-13,1,,,,,イチニイチアプラス,0
2120,9400003003216,新規,0,2024-02-13,2024-02-13,合同会社うみねこホームズ,,合同会社,岩手県,盛岡市,南大通３丁目１０－１３メゾンカルミア７号,,03,201,0200874,,,,,,,2024-02-13,1,,,,,ウミネコホームズ,0
2125,9430001091061,新規,0,2024-02-13,2024-02-13,株式会社Ｍａｅｔａｎｏ,,株式会社,北海道,札幌市中央区,南十一条西１５丁目３－１６,,01,101,0640811,,,,,,,2024-02-13,1,,,,,マエタノ,0
2126,9430001091078,新規,0,2024-02-13,2024-02-13,株式会社キャピタル・アセット・マネジメント,,株式会社,北海道,札幌市中央区,南一条西５丁目１６番地,,01,101,0600061,,,,,,,2024-02-13,1,,,,,キャピタルアセットマネジメント,0
2130,9480001012384,新規,0,2024-02-13,2024-02-13,株式会社Ｊ＆Ｐ　Ｃｏｎｎｅｃｔ,,株式会社,徳島県,徳島市,末広１丁目５番６７－２号,,36,201,7700866,,,,,,,2024-02-13,1,,,,,ジェイアンドピーコネクト,0
