sequenceNumber,corporateNumber,process,correct,updateDate,changeDate,name,nameImageId,kind,prefectureName,cityName,streetNumber,addressImageId,prefectureCode,cityCode,postCode,addressOutside,addressOutsideImageId,closeDate,closeCause,successorCorporateNumber,changeCause,assignmentDate,latest,enName,enPrefectureName,enCityName,enAddressOutside,furigana,hihyoji
4,1010001096820,登記記録の閉鎖等,0,2023-04-27,2023-04-13,新日中商事株式会社,,株式会社,東京都,千代田区,神田佐久間町１丁目８番４号,,13,101,1010025,,,2023-04-13,清算の結了等,,,2015-10-05,1,,,,,シンニッチュウショウジ,0
20,1010403023001,登記記録の閉鎖等,0,2023-04-27,2023-04-24,合同会社ｃｉｅｌ,,合同会社,東京都,港区,赤坂９丁目１番７号,,13,103,1070052,,,2023-04-24,合併による解散等,4011001061786,令和５年３月３１日東京都新宿区北新宿一丁目１番１７号株式会社プロスパー（4011001061786）に合併し解散,2020-05-25,1,,,,,シエル,0
38,1011001099136,登記記録の閉鎖等,0,2023-04-27,2023-04-21,株式会社サンキョウ・ロジ・ファクトリー,,株式会社,東京都,港区,港南２丁目１５番１号,,13,103,1080075,,,2023-04-21,合併による解散等,2011101038612,令和５年４月１日東京都渋谷区千駄ヶ谷五丁目８番９号株式会社サンキョウ・ロジ・アソシエート（2011101038612）に合併し解散,2015-10-05,1,,,,,サンキョウロジファクトリー,0
49,1011803003567,登記記録の閉鎖等,0,2023-04-27,2023-04-26,合同会社ＧＯ　ＡＣＴＩＯＮ,,合同会社,東京都,葛飾区,西亀有２丁目４５番２０－２０１号,,13,122,1240002,,,2023-04-26,清算の結了等,,,2019-01-15,1,,,,,ゴーアクション,0
69,1030001014788,登記記録の閉鎖等,0,2023-04-27,2023-04-11,株式会社エム・エヌ・カンパニー,,株式会社,埼玉県,さいたま市南区,別所１丁目１７番６号,,11,108,3360021,,,2023-04-11,清算の結了等,,,2015-10-05,1,,,,,エムエヌカンパニー,0
90,1080403003764,登記記録の閉鎖等,0,2023-04-27,2023-04-26,合同会社成家,,合同会社,静岡県,掛川市,西大渕３３５９番地,,22,213,4371304,,,2023-04-26,清算の結了等,,,2018-12-06,1,,,,,ナルヤ,0
135,1180001083983,登記記録の閉鎖等,0,2023-04-27,2023-04-26,横幸毛織株式会社,,株式会社,愛知県,一宮市,千秋町浮野字上向得１１番地,,23,203,4910806,,,2023-04-26,清算の結了等,,,2015-10-05,1,,,,,ヨココウケオリ,0
140,1180002057160,登記記録の閉鎖等,0,2023-04-27,2023-04-25,有限会社インプレーサＫＩＣ,,有限会社,愛知県,名古屋市天白区,元植田３丁目１８０５番地,,23,116,4680009,,,2023-04-25,清算の結了等,,,2015-10-05,1,,,,,インプレーサケイアイシー,0
148,1230002011186,登記記録の閉鎖等,0,2023-04-27,2023-04-25,有限会社三洋彫刻所,,有限会社,富山県,高岡市,波岡２２番地の３,,16,202,9330958,,,2023-04-25,清算の結了等,,,2015-10-05,1,,,,,サンヨウチョウコクショ,0
151,1240002020764,登記記録の閉鎖等,0,2023-04-27,2023-04-24,有限会社ブティックおくだ,,有限会社,広島県,広島市佐伯区,五日市４丁目４番２６号,,34,108,7315127,,,2023-04-24,清算の結了等,,,2015-10-05,1,,,,,ブティックオクダ,0
164,1290002047019,登記記録の閉鎖等,0,2023-04-27,2023-04-17,有限会社エーアンドシー開発,,有限会社,福岡県,筑後市,大字長浜２０１０番地の９,,40,211,8330005,,,2023-04-17,清算の結了等,,,2015-10-05,1,,,,,エーアンドシーカイハツ,0
170,1290802019456,登記記録の閉鎖等,0,2023-04-27,2023-04-26,峰健貿易有限会社,,有限会社,福岡県,北九州市若松区,東二島５丁目７番３号,,40,103,8080102,,,2023-04-26,清算の結了等,,,2015-10-05,1,,,,,ホウケンボウエキ,0
174,1310002016771,登記記録の閉鎖等,0,2023-04-27,2023-04-25,有限会社森羅,,有限会社,長崎県,諫早市,飯盛町後田１６４２番地１６,,42,204,8541105,,,2023-04-25,清算の結了等,,,2015-10-05,1,,,,,シンラ,0
183,1360001027294,登記記録の閉鎖等,0,2023-04-27,2023-04-03,株式会社ファンスタイルＨＤ,,株式会社,沖縄県,那覇市,泊１丁目２番地３,,47,201,9000012,,,2023-04-03,合併による解散等,6360001004719,令和５年３月３１日沖縄県那覇市泊一丁目２番地３株式会社ファンスタイル（6360001004719）に合併し解散,2020-06-08,1,,,,,ファンスタイルエイチディー,0
206,1450001013772,登記記録の閉鎖等,0,2023-04-27,2023-04-26,株式会社ＯＦＡ,,株式会社,北海道,空知郡中富良野町,字中富良野東２線北四号,,01,461,0710772,,,2023-04-26,清算の結了等,,,2022-08-12,1,,,,,オーエフエー,0
209,1470002019148,登記記録の閉鎖等,0,2023-04-27,2023-04-20,有限会社山口水産,,有限会社,香川県,小豆郡土庄町,豊島唐櫃２５５５番地,,37,322,7614662,,,2023-04-20,清算の結了等,,,2015-10-05,1,,,,,ヤマグチスイサン,0
211,1490002001228,登記記録の閉鎖等,0,2023-04-27,2023-04-25,有限会社久家ポンプ設備,,有限会社,高知県,高知市,菜園場町６番６号,,39,201,7800823,,,2023-04-25,清算の結了等,,,2015-10-05,1,,,,,クゲポンプセツビ,0
219,2010001047302,登記記録の閉鎖等,0,2023-04-27,2023-04-10,ジャパンミレニアム株式会社,,株式会社,東京都,港区,三田１丁目１番１２－２３０１号,,13,103,1080073,,,2023-04-10,清算の結了等,,,2015-10-05,1,,,,,ジャパンミレニアム,0
222,2010001115629,登記記録の閉鎖等,0,2023-04-27,2023-04-13,株式会社新保建築設計,,株式会社,東京都,中央区,八丁堀４丁目１０番２号,,13,102,1040032,,,2023-04-13,清算の結了等,,,2015-10-05,1,,,,,シンボケンチクセッケイ,0
232,2010003026444,登記記録の閉鎖等,0,2023-04-27,2023-04-13,合同会社五十嵐商会,,合同会社,東京都,文京区,小日向１丁目１番８－２０５号,,13,105,1120006,,,2023-04-13,清算の結了等,,,2017-11-15,1,,,,,イガラシショウカイ,0
245,2010802000707,登記記録の閉鎖等,0,2023-04-27,2023-04-05,有限会社和泉,,有限会社,東京都,文京区,大塚１丁目４番１５－２５０４号,,13,105,1120012,,,2023-04-05,合併による解散等,9011801034425,令和５年４月１日東京都文京区大塚一丁目４番１５号株式会社メディツィーナ・アレッポ（9011801034425）に合併し解散,2015-10-05,1,,,,,イズミ,0
248,2011001060360,登記記録の閉鎖等,0,2023-04-27,2023-04-21,株式会社希希,,株式会社,東京都,世田谷区,上北沢４丁目３３番２１号＃０００,,13,112,1560057,,,2023-04-21,清算の結了等,,,2015-10-05,1,,,,,,0
264,2011201017615,登記記録の閉鎖等,0,2023-04-27,2023-04-18,株式会社Ａｒｔｉｓａｎ,,株式会社,東京都,豊島区,東池袋２丁目６２番８号ＢＩＧオフィスプラザ池袋１１Ｆ,,13,116,1700013,,,2023-04-18,清算の結了等,,,2015-10-05,1,,,,,アルチザン,0
297,2020002040296,登記記録の閉鎖等,0,2023-04-27,2023-04-19,有限会社マルゴ設備工業所,,有限会社,神奈川県,横浜市鶴見区,上末吉４丁目２１番９号,,14,101,2300011,,,2023-04-19,清算の結了等,,,2015-10-05,1,,,,,,0
306,2021002070151,登記記録の閉鎖等,0,2023-04-27,2023-04-24,有限会社東京メディカル,,有限会社,神奈川県,三浦郡葉山町,堀内２１００番地１５２,,14,301,2400112,,,2023-04-24,清算の結了等,,,2015-10-05,1,,,,,トウキョウメディカル,0
319,2040001014753,登記記録の閉鎖等,0,2023-04-27,2023-04-12,株式会社ヘルスケアナラシノ,,株式会社,千葉県,習志野市,藤崎４丁目１０番８号,,12,216,2750017,,,2023-04-12,合併による解散等,8010401056509,令和５年４月１日東京都千代田区神田錦町三丁目２３メットライフ神田錦町ビル７階株式会社アルテディア（8010401056509）に合併し解散,2015-10-05,1,,,,,ヘルスケアナラシノ,0
337,2110002023738,登記記録の閉鎖等,0,2023-04-27,2023-04-21,有限会社渡部化工機,,有限会社,新潟県,上越市,大字上千原２９２番地,,15,222,9420035,,,2023-04-21,清算の結了等,,,2015-10-05,1,,,,,ワタベカコウキ,0
338,2110003000637,登記記録の閉鎖等,0,2023-04-27,2023-04-21,合同会社翼福祉会,,合同会社,新潟県,新潟市西区,五十嵐３の町中７番４３号,,15,107,9502177,,,2023-04-21,清算の結了等,,,2015-10-05,1,,,,,ツバサフクシカイ,0
355,2130001047414,登記記録の閉鎖等,0,2023-04-27,2023-04-24,京阪商事株式会社,,株式会社,京都府,久世郡久御山町,島田堤外１０番地,,26,322,6130043,,,2023-04-24,清算の結了等,,,2015-10-05,1,,,,,,0
357,2130003008050,登記記録の閉鎖等,0,2023-04-27,2023-04-25,合同会社Ｈ．ＰＲＯ,,合同会社,京都府,京都市右京区,西京極西川町１７－１,,26,108,6150852,,,2023-04-25,清算の結了等,,,2022-07-12,1,,,,,エイチプロ,0
362,2140001089851,登記記録の閉鎖等,0,2023-04-27,2023-04-24,株式会社前田管工,,株式会社,兵庫県,神戸市西区,玉津町居住１５１番地の３,,28,111,6512145,,,2023-04-24,清算の結了等,,,2015-10-05,1,,,,,マエダカンコウ,0
372,2160001001046,登記記録の閉鎖等,0,2023-04-27,2023-04-21,株式会社滋賀富士通ソフトウェア,,株式会社,滋賀県,大津市,中央２丁目２番６号,,25,201,5200043,,,2023-04-21,合併による解散等,1020001071491,令和５年４月１日川崎市中原区上小田中四丁目１番１号富士通株式会社（1020001071491）に合併し解散,2015-10-05,1,,,,,シガフジツウソフトウェア,0
375,2180001083165,登記記録の閉鎖等,0,2023-04-27,2023-04-21,デイツク株式会社,,株式会社,愛知県,一宮市,浅井町江森字西之森９８番地,,23,203,4910114,,,2023-04-21,清算の結了等,,,2015-10-05,1,,,,,デイツク,0
414,2360001024910,登記記録の閉鎖等,0,2023-04-27,2023-04-03,株式会社アプリシエイト,,株式会社,沖縄県,那覇市,寄宮３丁目３番５号１階,,47,201,9020064,,,2023-04-03,合併による解散等,7360001006284,令和５年４月１日沖縄県那覇市寄宮三丁目３番５号１階株式会社リンクス（7360001006284）に合併し解散,2018-11-27,1,,,,,アプリシエイト,0
418,2370001044965,登記記録の閉鎖等,0,2023-04-27,2023-04-19,株式会社アトラス,,株式会社,宮城県,仙台市青葉区,北目町２番３９号７階,,04,101,9800023,,,2023-04-19,清算の結了等,,,2019-10-18,1,,,,,アトラス,0
420,2380001019850,登記記録の閉鎖等,0,2023-04-27,2023-04-25,リソル土地開発株式会社,,株式会社,福島県,石川郡石川町,字弥吾７０番地,,07,501,9637832,,,2023-04-25,合併による解散等,8040001060197,令和５年４月１日千葉県長生郡長柄町上野４８６番地４リソル総合研究所株式会社（8040001060197）に合併し解散,2015-10-05,1,,,,,リソルトチカイハツ,0
430,2420005007558,登記記録の閉鎖等,0,2023-04-27,2023-04-18,特定非営利活動法人おいらせ自然楽校,,その他の設立登記法人,青森県,上北郡おいらせ町,若葉６丁目１４０番地６６,,02,412,0392188,,,2023-04-18,清算の結了等,,,2018-04-18,1,,,,,オイラセシゼンラクコウ,0
431,2430001004590,登記記録の閉鎖等,0,2023-04-27,2023-04-07,株式会社キュー・アンド・シー,,株式会社,北海道,札幌市豊平区,月寒東二条１６丁目１番７号,,01,105,0620052,,,2023-04-07,合併による解散等,8440001000377,令和５年４月１日北海道函館市西桔梗町２８番地の１株式会社環境科学研究所（8440001000377）に合併し解散,2015-10-05,1,,,,,キューアンドシー,0
461,3010001203911,登記記録の閉鎖等,0,2023-04-27,2023-04-13,ＧＣＪＧ３株式会社,,株式会社,東京都,中央区,京橋２丁目２番１号,,13,102,1040031,,,2023-04-13,合併による解散等,7011501015173,令和５年３月３１日東京都文京区本郷二丁目１７番１７号井門本郷ビル４階アイピーロジック株式会社（7011501015173）に合併し解散,2019-09-13,1,,,,,ジーシージェイジースリー,0
485,3010501022514,登記記録の閉鎖等,0,2023-04-27,2023-04-26,株式会社ＶＸＩ,,株式会社,東京都,台東区,台東２丁目７番１０号,,13,106,1100016,,,2023-04-26,清算の結了等,,,2015-10-05,1,,,,,ブイエックスアイ,0
486,3010601017612,登記記録の閉鎖等,0,2023-04-27,2023-04-26,ピーイーシー株式会社,,株式会社,東京都,江東区,東陽２丁目４番４６号,,13,108,1350016,,,2023-04-26,合併による解散等,1010401019678,令和５年４月１日東京都港区虎ノ門三丁目７番１４号株式会社ＰＤＣ（1010401019678）に合併し解散,2015-10-05,1,,,,,ピーイーシー,0
495,3010801008106,登記記録の閉鎖等,0,2023-04-27,2023-04-14,藤幸建設株式会社,,株式会社,東京都,大田区,大森西５丁目５番１９号,,13,111,1430015,,,2023-04-14,清算の結了等,,,2015-10-05,1,,,,,フジコウケンセツ,0
498,3010903000010,登記記録の閉鎖等,0,2023-04-27,2023-04-19,合名会社オクタケ,,合名会社,東京都,世田谷区,上用賀３丁目１番１１号,,13,112,1580098,,,2023-04-19,清算の結了等,,,2015-10-05,1,,,,,オクタケ,0
513,3011303004568,登記記録の閉鎖等,0,2023-04-27,2023-04-25,Ｆｅｅｌ　Ｇｏｏｄ　ＮＦＴ合同会社,,合同会社,東京都,杉並区,阿佐谷南２丁目１１番９号,,13,115,1660004,,,2023-04-25,清算の結了等,,,2022-11-08,1,,,,,フィールグッドエヌエフティー,0
542,3030001135319,登記記録の閉鎖等,0,2023-04-27,2023-04-12,株式会社りぴいと,,株式会社,埼玉県,深谷市,中瀬１６２１－５－２Ｆ,,11,218,3660001,,,2023-04-12,清算の結了等,,,2020-02-26,1,,,,,リピイト,0
547,3030002101220,登記記録の閉鎖等,0,2023-04-27,2023-04-11,有限会社大原化成,,有限会社,埼玉県,川口市,芝塚原２丁目８番１４号,,11,203,3330856,,,2023-04-11,清算の結了等,,,2015-10-05,1,,,,,オオハラカセイ,0
552,3040001087377,登記記録の閉鎖等,0,2023-04-27,2023-04-12,アコレ株式会社,,株式会社,千葉県,千葉市美浜区,中瀬１丁目５番地１,,12,106,2610023,,,2023-04-12,清算の結了等,,,2015-10-05,1,,,,,アコレ,0
558,3050001025055,登記記録の閉鎖等,0,2023-04-27,2023-04-11,株式会社トスネット茨城,00022275,株式会社,茨城県,水戸市,酒門町３２９８番３,,08,201,3100841,,,2023-04-11,合併による解散等,7010601044933,令和５年４月１日東京都江東区亀戸一丁目３２番８号林ビル２階株式会社トスネット首都圏（7010601044933）に合併し解散,2015-10-05,1,,,,,トスネットイバラキ,0
579,3110002007459,登記記録の閉鎖等,0,2023-04-27,2023-04-21,有限会社興創,,有限会社,新潟県,新潟市中央区,笹口１丁目１８番１号,,15,103,9500911,,,2023-04-21,清算の結了等,,,2015-10-05,1,,,,,コウソウ,0
603,3120901045707,登記記録の閉鎖等,0,2023-04-27,2023-04-25,株式会社ａｉｋａ,,株式会社,大阪府,茨木市,西田中町４番３５－７０１号,,27,211,5670027,,,2023-04-25,清算の結了等,,,2022-03-08,1,,,,,アイカ,0
605,3130001068863,登記記録の閉鎖等,0,2023-04-27,2023-04-25,株式会社ＭＢＴ　Ｆｒｅｅ　Ｗｏｒｌｄ,,株式会社,京都府,京都市上京区,椹木町通堀川東入西山崎町２４０,,26,102,6028036,,,2023-04-25,清算の結了等,,,2021-03-23,1,,,,,エムビーティーフリーワールド,0
607,3140001064432,登記記録の閉鎖等,0,2023-04-27,2023-04-17,株式会社ＨＣＳ,,株式会社,兵庫県,姫路市,広峰１丁目５番１２号,,28,201,6700882,,,2023-04-17,合併による解散等,8360001022347,令和５年３月１日沖縄県那覇市松山二丁目２１番２６号ＦＮＤ株式会社（8360001022347）に合併し解散,2015-10-05,1,,,,,エイチシーエス,0
611,3140002021837,登記記録の閉鎖等,0,2023-04-27,2023-04-24,有限会社ネクストステージ,,有限会社,兵庫県,神戸市中央区,布引町４丁目２番３号,,28,110,6510097,,,2023-04-24,清算の結了等,,,2015-10-05,1,,,,,ネクストステージ,0
613,3150001019740,登記記録の閉鎖等,0,2023-04-27,2023-04-24,株式会社うらら,,株式会社,奈良県,大和高田市,大字築山１８－Ｅ－７,,29,202,6350071,,,2023-04-24,清算の結了等,,,2015-10-05,1,,,,,ウララ,0
614,3150001021746,登記記録の閉鎖等,0,2023-04-27,2023-04-25,大阪メタル株式会社,,株式会社,奈良県,奈良市,西大寺本町３－５－８１９,,29,201,6310816,,,2023-04-25,清算の結了等,,,2017-08-21,1,,,,,オオサカメタル,0
620,3180001000739,登記記録の閉鎖等,0,2023-04-27,2023-04-25,株式会社立田屋,,株式会社,愛知県,名古屋市守山区,金屋２丁目２７４番地,,23,113,4630072,,,2023-04-25,清算の結了等,,,2015-10-05,1,,,,,タツタヤ,0
621,3180001094459,登記記録の閉鎖等,0,2023-04-27,2023-04-14,エスメント中部株式会社,,株式会社,愛知県,東海市,東海町５丁目３番地,,23,222,4760015,,,2023-04-14,合併による解散等,3050001020246,令和５年４月１日東京都中央区日本橋茅場町一丁目９番４号日鉄スラグ製品株式会社（3050001020246）に合併し解散,2015-10-05,1,,,,,エスメントチュウブ,0
640,3200005010062,登記記録の閉鎖等,0,2023-04-27,2023-04-18,白山神社,,その他の設立登記法人,岐阜県,大野郡白川村,大字保木脇字若林１６４番地の３,,21,604,5015501,,,2023-04-18,合併による解散等,5200005010060,令和５年４月１８日岐阜県大野郡白川村大字木谷字上ヲコシ山８１６番地白山神社（5200005010060）に合併し解散,2015-10-05,1,,,,,ハクサンジンジャ,0
644,3240002018897,登記記録の閉鎖等,0,2023-04-27,2023-04-25,有限会社知識システム研究所,00000974,有限会社,広島県,広島市西区,井口台２丁目２４番３号,,34,104,7330844,,,2023-04-25,清算の結了等,,,2015-10-05,1,,,,,チシキシステムケンキュウジョ,0
654,3290002019494,登記記録の閉鎖等,0,2023-04-27,2023-04-17,有限会社ノイ・コーポレーション,,有限会社,福岡県,福岡市中央区,高砂１丁目２４番２６号,,40,133,8100011,,,2023-04-17,清算の結了等,,,2015-10-05,1,,,,,ノイコーポレーション,0
659,3310001013446,登記記録の閉鎖等,0,2023-04-27,2023-04-10,ＨＴＢエナジー株式会社,,株式会社,福岡県,福岡市中央区,天神３丁目９番２５号,,40,133,8100001,,,2023-04-10,合併による解散等,7013301021475,令和５年３月３１日東京都豊島区西池袋一丁目４番１０号株式会社エネコード（7013301021475）に合併し解散,2015-10-05,1,,,,,エイチティビーエナジー,0
668,3360001016568,登記記録の閉鎖等,0,2023-04-27,2023-04-21,沖縄株式会社,,株式会社,沖縄県,豊見城市,字与根１１８番地３,,47,212,9010224,,,2023-04-21,清算の結了等,,,2015-10-05,1,,,,,オキナワ,0
675,3380001018686,登記記録の閉鎖等,0,2023-04-27,2023-04-20,新田電機株式会社,,株式会社,福島県,喜多方市,関柴町平林字宮西４０８番地,,07,208,9660016,,,2023-04-20,清算の結了等,,,2015-10-05,1,,,,,ニッタデンキ,0
692,3470001011624,登記記録の閉鎖等,0,2023-04-27,2023-04-24,株式会社シーガルトレーディング,,株式会社,香川県,東かがわ市,三本松６０８番地１２,,37,207,7692601,,,2023-04-24,清算の結了等,,,2015-10-05,1,,,,,,0
695,3500002011842,登記記録の閉鎖等,0,2023-04-27,2023-04-25,有限会社ビーフ大洲,,有限会社,愛媛県,大洲市,若宮５３４番地,,38,207,7950052,,,2023-04-25,清算の結了等,,,2015-10-05,1,,,,,ビーフオオズ,0
707,4010001165416,登記記録の閉鎖等,0,2023-04-27,2023-04-21,セルプロ株式会社,,株式会社,東京都,世田谷区,千歳台５丁目１９番１－１０２号,,13,112,1570071,,,2023-04-21,清算の結了等,,,2015-10-05,1,,,,,セルプロ,0
712,4010001210691,登記記録の閉鎖等,0,2023-04-27,2023-04-13,株式会社ｉＤＭＰ,,株式会社,東京都,千代田区,神田神保町１丁目１０５番地,,13,101,1010051,,,2023-04-13,合併による解散等,3010001127788,令和５年４月１日東京都千代田区神田神保町一丁目１０５番地株式会社クリエイターズギルド（3010001127788）に合併し解散,2020-07-14,1,,,,,アイディエムピー,0
726,4010403026653,登記記録の閉鎖等,0,2023-04-27,2023-04-10,ＦＡＬＬＯＮ　Ｈｏｌｄｉｎｇｓ合同会社,,合同会社,東京都,港区,赤坂２丁目１７番５０号赤坂タワーレジデンストップオブザヒル１９１６号,,13,103,1070052,,,2023-04-10,清算の結了等,,,2021-12-06,1,,,,,ファロンホールディングス,0
730,4010501017018,登記記録の閉鎖等,0,2023-04-27,2023-04-25,株式会社ビーネット,,株式会社,東京都,台東区,寿４丁目１６番２号イワサワビル,,13,106,1110042,,,2023-04-25,清算の結了等,,,2015-10-05,1,,,,,ビーネット,0
740,4010801022849,登記記録の閉鎖等,0,2023-04-27,2023-04-07,コデアル株式会社,,株式会社,東京都,渋谷区,恵比寿４丁目２０番３号,,13,113,1500013,,,2023-04-07,合併による解散等,6010401098453,令和５年４月１日東京都渋谷区恵比寿四丁目２０番３号株式会社クラウドワークス（6010401098453）に合併し解散,2015-10-05,1,,,,,コデアル,0
743,4010802014960,登記記録の閉鎖等,0,2023-04-27,2023-04-14,有限会社山下染工,,有限会社,東京都,大田区,鵜の木３丁目１６番８号,,13,111,1460091,,,2023-04-14,清算の結了等,,,2015-10-05,1,,,,,ヤマシタセンコウ,0
759,4011302002761,登記記録の閉鎖等,0,2023-04-27,2023-04-19,有限会社喜久家土地住宅社,,有限会社,東京都,杉並区,天沼３丁目１番１号,,13,115,1670032,,,2023-04-19,清算の結了等,,,2015-10-05,1,,,,,キクヤトチジュウタクシャ,0
775,4012802000461,登記記録の閉鎖等,0,2023-04-27,2023-04-26,有限会社伸縁,,有限会社,東京都,立川市,上砂町３丁目５１番地の１５,,13,202,1900032,,,2023-04-26,清算の結了等,,,2015-10-05,1,,,,,シンエン,0
778,4020001059352,登記記録の閉鎖等,0,2023-04-27,2023-04-18,株式会社Ｌｉｂｅｒｔｅ,,株式会社,神奈川県,横浜市西区,みなとみらい２丁目２番１号横浜ランドマークタワー２０Ｆ,,14,103,2200012,,,2023-04-18,清算の結了等,,,2015-10-05,1,,,,,リベルテ,0
787,4021002027901,登記記録の閉鎖等,0,2023-04-27,2023-04-18,ニュービジネスクリエイト有限会社,,有限会社,東京都,八王子市,川口町３４１４番地,,13,201,1930801,,,2023-04-18,清算の結了等,,,2015-10-05,1,,,,,ニュービジネスクリエイト,0
788,4021003003059,登記記録の閉鎖等,0,2023-04-27,2023-04-21,合資会社山田屋商店,,合資会社,神奈川県,三浦郡葉山町,堀内９０８番地,,14,301,2400112,,,2023-04-21,清算の結了等,,,2015-10-05,1,,,,,,0
795,4030001143221,登記記録の閉鎖等,0,2023-04-27,2023-04-11,株式会社ヤナマ,,株式会社,埼玉県,久喜市,下早見１１２５番地２１,,11,232,3460022,,,2023-04-11,清算の結了等,,,2021-07-08,1,,,,,ヤナマ,0
800,4040001001989,登記記録の閉鎖等,0,2023-04-27,2023-04-21,ダイオーエクスプレス株式会社,,株式会社,千葉県,千葉市中央区,登戸１丁目２６番１号朝日生命千葉登戸ビル１０階,,12,101,2600032,,,2023-04-21,合併による解散等,3500001014359,令和５年４月１日愛媛県四国中央市中之庄町１６９５番ダイオーロジスティクス株式会社（3500001014359）に合併し解散,2015-10-05,1,,,,,ダイオーエクスプレス,0
819,4080405006457,登記記録の閉鎖等,0,2023-04-27,2023-03-22,一般社団法人遺言・相続サポートセンター浜松,,その他の設立登記法人,静岡県,浜松市南区,頭陀寺町３２３番地の７,,22,134,4300817,,,2023-03-22,清算の結了等,,,2015-10-05,1,,,,,イゴンソウゾクサポートセンターハママツ,0
824,4110002023744,登記記録の閉鎖等,0,2023-04-27,2023-04-21,渡辺直治商店有限会社,,有限会社,新潟県,上越市,大字青野２５０６番地５,,15,222,9420238,,,2023-04-21,清算の結了等,,,2015-10-05,1,,,,,ワタナベナオジショウテン,0
832,4120001199270,登記記録の閉鎖等,0,2023-04-27,2023-04-24,株式会社ＤＦＬ,,株式会社,大阪府,大阪市中央区,安土町２丁目３番１３号,,27,128,5410052,,,2023-04-24,清算の結了等,,,2016-07-06,1,,,,,ディーエフエル,0
833,4120001210747,登記記録の閉鎖等,0,2023-04-27,2023-04-24,株式会社トピー商事ＯＣＥＡＮ,,株式会社,大阪府,大阪市中央区,北久宝寺町１丁目７番１０号,,27,128,5410057,,,2023-04-24,清算の結了等,,,2018-01-25,1,,,,,トピーショウジオーシャン,0
843,4120903001640,登記記録の閉鎖等,0,2023-04-27,2023-04-25,ＹＫｄｏｔ合同会社,,合同会社,大阪府,吹田市,垂水町３丁目２１番７－４０４号,,27,205,5640062,,,2023-04-25,清算の結了等,,,2015-10-05,1,,,,,ワイケードット,0
847,4130001062691,登記記録の閉鎖等,0,2023-04-27,2023-04-20,株式会社谷川商店,,株式会社,京都府,京都市伏見区,鍛冶屋町９８５番地,,26,109,6128071,,,2023-04-20,清算の結了等,,,2018-08-06,1,Tanigawa Store Corporation,Kyoto,"971 Kajiya machi, Fushimi ku Kyoto shi",,タニガワショウテン,0
849,4130001068862,登記記録の閉鎖等,0,2023-04-27,2023-04-25,株式会社ＩＳＫ,,株式会社,京都府,京都市西京区,大枝東新林町１丁目１番地－１４棟２０４号,,26,111,6101142,,,2023-04-25,清算の結了等,,,2021-03-23,1,,,,,アイエスケイ,0
851,4130002017546,登記記録の閉鎖等,0,2023-04-27,2023-04-24,有限会社宗久,,有限会社,京都府,京都市中京区,御池通衣棚西入西横町１７４番地１天進ビル２Ｆ,00037544,26,104,6040023,,,2023-04-24,清算の結了等,,,2015-10-05,1,,,,,ソウキュウ,0
874,4180002039503,登記記録の閉鎖等,0,2023-04-27,2023-04-24,有限会社エフエス企画,,有限会社,愛知県,名古屋市東区,葵２丁目９番９号,,23,102,4610004,,,2023-04-24,清算の結了等,,,2015-10-05,1,,,,,エフエスキカク,0
879,4180301030831,登記記録の閉鎖等,0,2023-04-27,2023-04-24,株式会社ユアーズ,,株式会社,愛知県,豊田市,山之手３丁目７６番地１ソシアルセイワ豊田山之手３０２号,,23,211,4710833,,,2023-04-24,清算の結了等,,,2017-10-10,1,,,,,,0
885,4210001010469,登記記録の閉鎖等,0,2023-04-27,2023-04-25,宇和島商船株式会社,,株式会社,福井県,敦賀市,三島町２丁目３番１７号,,18,202,9140058,,,2023-04-25,清算の結了等,,,2015-10-05,1,,,,,ウワジマショウセン,0
890,4230001002217,登記記録の閉鎖等,0,2023-04-27,2023-04-07,株式会社シュテルン富山,,株式会社,富山県,富山市,高木２０３９番地,,16,201,9300106,,,2023-04-07,合併による解散等,7210001003098,令和５年３月３１日福井市北四ツ居二丁目１番１５号株式会社シュテルン福井（7210001003098）に合併し解散,2015-10-05,1,,,,,シュテルントヤマ,0
892,4240001036916,登記記録の閉鎖等,0,2023-04-27,2023-04-25,株式会社タカツ総業,,株式会社,広島県,安芸郡海田町,大正町６番１１号,,34,304,7360041,,,2023-04-25,清算の結了等,,,2015-10-05,1,,,,,タカツソウギョウ,0
921,4380005002289,登記記録の閉鎖等,0,2023-04-27,2023-04-21,特定非営利活動法人おらがふる里ふくし村,,その他の設立登記法人,福島県,福島市,大森字街道下５２番地,,07,201,9601101,,,2023-04-21,清算の結了等,,,2015-10-05,1,,,,,オラガフルサトフクシムラ,0
929,4430001078674,登記記録の閉鎖等,0,2023-04-27,2023-04-11,株式会社クローズホールド,,株式会社,北海道,札幌市白石区,北郷五条９丁目１番５５号,,01,104,0030835,,,2023-04-11,清算の結了等,,,2019-04-03,1,,,,,クローズホールド,0
945,4490002010449,登記記録の閉鎖等,0,2023-04-27,2023-04-26,有限会社高知新聞大間販売所,,有限会社,高知県,須崎市,大間本町１３番２０号,,39,206,7850034,,,2023-04-26,清算の結了等,,,2015-10-05,1,,,,,コウチシンブンオオマハンバイショ,0
954,5010001043414,登記記録の閉鎖等,0,2023-04-27,2023-04-13,寿出版株式会社,,株式会社,東京都,千代田区,外神田４丁目９番８号,,13,101,1010021,,,2023-04-13,清算の結了等,,,2015-10-05,1,,,,,コトブキシュッパン,0
965,5010401061552,登記記録の閉鎖等,0,2023-04-27,2023-04-18,株式会社エフ・アイ・エス,,株式会社,神奈川県,横浜市中区,尾上町３丁目３５番地,,14,104,2310015,,,2023-04-18,合併による解散等,7020001029468,令和５年４月１日横浜市中区尾上町三丁目３５番地株式会社ドキュメント（7020001029468）に合併し解散,2015-10-05,1,,,,,エフアイエス,0
987,5011301027692,登記記録の閉鎖等,0,2023-04-27,2023-04-25,ＴＭコーポレーション株式会社,,株式会社,東京都,杉並区,荻窪３丁目１３番１２号,,13,115,1670051,,,2023-04-25,清算の結了等,,,2022-04-08,1,,,,,ティーエムコーポレーション,0
990,5011501013476,登記記録の閉鎖等,0,2023-04-27,2023-04-21,株式会社ルクス,,株式会社,東京都,北区,赤羽西１丁目２６番３号,,13,117,1150055,,,2023-04-21,清算の結了等,,,2015-10-05,1,,,,,ルクス,0
1007,5013402000355,登記記録の閉鎖等,0,2023-04-27,2023-04-25,有限会社奥住工務店,,有限会社,東京都,日野市,栄町４丁目１４番地の１９,,13,212,1910001,,,2023-04-25,清算の結了等,,,2015-10-05,1,,,,,オクズミコウムテン,0
1024,5030003014163,登記記録の閉鎖等,0,2023-04-27,2023-04-12,合同会社ＨＩＮＡ－ＫＩ,,合同会社,埼玉県,川口市,東本郷２丁目１９番２６号,,11,203,3340063,,,2023-04-12,清算の結了等,,,2019-09-30,1,,,,,ヒナキ,0
1049,5120003012950,登記記録の閉鎖等,0,2023-04-27,2023-04-12,株式会社リカープロジェクト,,株式会社,東京都,新宿区,西新宿８丁目１１番１０号,,13,104,1600023,,,2023-04-12,合併による解散等,8500001006707,令和５年３月３１日愛媛県松山市空港通六丁目１２番３号愛実株式会社（8500001006707）に合併し解散,2017-06-22,1,,,,,リカープロジェクト,0
1051,5122005000231,登記記録の閉鎖等,0,2023-04-27,2023-04-26,医療法人デンタルワイズ,,その他の設立登記法人,大阪府,東大阪市,瓜生堂２丁目７番１５号,,27,227,5780946,,,2023-04-26,清算の結了等,,,2015-10-05,1,,,,,デンタルワイズ,0
1057,5130001068861,登記記録の閉鎖等,0,2023-04-27,2023-04-25,株式会社ＷＤＹ,,株式会社,京都府,京都市山科区,東野中井ノ上町９番地８８,,26,110,6078142,,,2023-04-25,清算の結了等,,,2021-03-23,1,,,,,ダブリュディワイ,0
1080,5180001131045,登記記録の閉鎖等,0,2023-04-27,2023-04-24,株式会社スイーツインターナショナルリミティッド,,株式会社,愛知県,名古屋市東区,代官町３１番２５号－１１０２,,23,102,4610002,,,2023-04-24,清算の結了等,,,2018-02-05,1,,,,,スイーツインターナショナルリミティッド,0
1086,5180005010022,登記記録の閉鎖等,0,2023-04-27,2023-04-13,天理教高宮古分教会,00074206,その他の設立登記法人,愛知県,一宮市,時之島字月光寺２１番地,,23,203,4910002,,,2023-04-13,合併による解散等,5180005009378,令和５年４月１３日愛知県丹羽郡扶桑町大字高木字桜木６１７番地天理教尾張高木分教会（5180005009378）に合併し解散,2015-10-05,1,,,,,テンリキョウタカミヤコブンキョウカイ,0
1098,5260005007803,登記記録の閉鎖等,0,2023-04-27,2023-04-24,医療法人小谷医院,,その他の設立登記法人,岡山県,和気郡和気町,和気４８０番地,,33,346,7090451,,,2023-04-24,清算の結了等,,,2015-10-05,1,,,,,コタニイイン,0
1100,5290001029609,登記記録の閉鎖等,0,2023-04-27,2023-04-18,株式会社ビューティーヴィレッジ,,株式会社,福岡県,福岡市博多区,西月隈３丁目１番３０号,,40,132,8120857,,,2023-04-18,清算の結了等,,,2015-10-05,1,,,,,ビューティーヴィレッジ,0
1106,5290003012174,登記記録の閉鎖等,0,2023-04-27,2023-04-17,合同会社ｕｎｔａｋｅ,,合同会社,福岡県,福岡市東区,原田２丁目１０番１４－２０６号,,40,131,8120063,,,2023-04-17,清算の結了等,,,2022-02-22,1,,,,,アンテイク,0
1111,5310003003823,登記記録の閉鎖等,0,2023-04-27,2023-04-24,みくしあ合同会社,,合同会社,長崎県,西彼杵郡長与町,嬉里郷１２９２－１,,42,307,8512128,,,2023-04-24,清算の結了等,,,2020-02-26,1,,,,,ミクシア,0
1124,5360005006497,登記記録の閉鎖等,0,2023-04-27,2023-04-18,一般社団法人ゆがふ道,,その他の設立登記法人,沖縄県,糸満市,字兼城５２１番地の２１,,47,210,9010303,,,2023-04-18,清算の結了等,,,2021-08-26,1,,,,,ユガフドウ,0
1126,5370002020392,登記記録の閉鎖等,0,2023-04-27,2023-04-20,有限会社森エンジニアリング,,有限会社,宮城県,黒川郡大和町,もみじケ丘２丁目１６番地の４,,04,421,9813622,,,2023-04-20,清算の結了等,,,2015-10-05,1,,,,,モリエンジニアリング,0
1167,6010001213445,登記記録の閉鎖等,0,2023-04-27,2023-04-03,ウーブン・アルファ株式会社,,株式会社,東京都,中央区,日本橋室町３丁目２番１号,,13,102,1030022,,,2023-04-03,合併による解散等,5010001211994,令和５年４月１日東京都中央区日本橋室町三丁目２番１号ウーブン・バイ・トヨタ株式会社（5010001211994）に合併し解散,2020-11-06,1,,,,,ウーブンアルファ,0
1179,6010403021149,登記記録の閉鎖等,0,2023-04-27,2023-04-10,八村リテール合同会社,,合同会社,東京都,港区,六本木１丁目６番１号泉ガーデンタワー１２階,,13,103,1060032,,,2023-04-10,清算の結了等,,,2019-07-23,1,,,,,ハチムラリテール,0
1204,6011201002407,登記記録の閉鎖等,0,2023-04-27,2023-04-12,パーソルサンクス株式会社,,株式会社,東京都,豊島区,東池袋３丁目１番１号サンシャイン６０,,13,116,1700013,,,2023-04-12,合併による解散等,6010401041867,令和５年４月１日東京都港区芝五丁目３３番１号パーソルチャレンジ株式会社（6010401041867）に合併し解散,2015-10-05,1,,,,,パーソルサンクス,0
1215,6011301022602,登記記録の閉鎖等,0,2023-04-27,2023-04-21,株式会社ＡＬ,,株式会社,東京都,杉並区,高井戸東２丁目５番８号１階,,13,115,1680072,,,2023-04-21,清算の結了等,,,2016-10-11,1,,,,,アル,0
1221,6011701007905,登記記録の閉鎖等,0,2023-04-27,2023-04-26,矢勢包装株式会社,,株式会社,東京都,江戸川区,西一之江４丁目１６番１３号,,13,123,1320023,,,2023-04-26,清算の結了等,,,2015-10-05,1,,,,,ヤセホウソウ,0
1239,6020001136208,登記記録の閉鎖等,0,2023-04-27,2023-04-17,Ｆｌａｔ　Ｈｏｌｄｉｎｇｓ株式会社,,株式会社,神奈川県,横浜市西区,みなとみらい３丁目６番３号ＭＭパークビル１１階,,14,103,2200012,,,2023-04-17,合併による解散等,6020001092442,令和５年４月１日神奈川県横浜市西区みなとみらい三丁目６番３号Ｆｏｏｎｚ株式会社（6020001092442）に合併し解散,2020-05-25,1,,,,,フラットホールディングス,0
1241,6020003006474,登記記録の閉鎖等,0,2023-04-27,2023-04-18,合同会社ペーパードラゴン,,合同会社,神奈川県,川崎市中原区,丸子通１丁目６１２－９シティハウス多摩川テラス１１０５号,,14,133,2110006,,,2023-04-18,清算の結了等,,,2015-10-05,1,,,,,ペーパードラゴン,0
1274,6070002001208,登記記録の閉鎖等,0,2023-04-27,2023-04-24,有限会社小野機工,,有限会社,群馬県,前橋市,下大島町１２２０番地の１５,,10,201,3792152,,,2023-04-24,清算の結了等,,,2015-10-05,1,,,,,オノキコウ,0
1280,6080102014892,登記記録の閉鎖等,0,2023-04-27,2023-04-25,有限会社富士給食センター惣華,,有限会社,静岡県,富士市,今泉３２２番地の１０,,22,210,4170001,,,2023-04-25,清算の結了等,,,2015-10-05,1,,,,,フジキュウショクセンターソウハナ,0
1283,6100001006170,登記記録の閉鎖等,0,2023-04-27,2023-04-24,株式会社シムコ,,株式会社,長野県,埴科郡坂城町,大字南条３００番地１,,20,521,3890603,,,2023-04-24,清算の結了等,,,2015-10-05,1,,,,,シムコ,0
1284,6100001025328,登記記録の閉鎖等,0,2023-04-27,2023-04-24,株式会社ＡＫＣ,,株式会社,長野県,安曇野市,豊科５９０１番地２,,20,220,3998205,,,2023-04-24,清算の結了等,,,2015-10-05,1,,,,,エーケーシー,0
1286,6100005012561,登記記録の閉鎖等,0,2023-04-27,2023-04-24,一般社団法人ひといき,,その他の設立登記法人,長野県,東御市,下之城７４８番地,,20,219,3890405,,,2023-04-24,清算の結了等,,,2020-04-14,1,,,,,ヒトイキ,0
1289,6110002024889,登記記録の閉鎖等,0,2023-04-27,2023-04-24,有限会社山さく,,有限会社,新潟県,妙高市,大字雪森４０番地１,,15,217,9440098,,,2023-04-24,清算の結了等,,,2015-10-05,1,,,,,ヤマサク,0
1294,6120001116967,登記記録の閉鎖等,0,2023-04-27,2023-04-21,株式会社ＡＭ’Ｓ２１,,株式会社,大阪府,大阪市淀川区,野中北１丁目２番３３号,,27,123,5320034,,,2023-04-21,清算の結了等,,,2015-10-05,1,,,,,,0
1296,6120001209011,登記記録の閉鎖等,0,2023-04-27,2023-04-26,株式会社ジャストメイク,,株式会社,大阪府,大阪市中央区,南船場２丁目５－１１プレサンスロジェ心斎橋１１０２号,,27,128,5420081,,,2023-04-26,清算の結了等,,,2017-10-20,1,,,,,ジャストメイク,0
1297,6120001229835,登記記録の閉鎖等,0,2023-04-27,2023-04-24,株式会社テニスファーム,,株式会社,大阪府,枚方市,杉１丁目５番６号,,27,210,5730117,,,2023-04-24,清算の結了等,,,2020-06-22,1,,,,,テニスファーム,0
1308,6120101043946,登記記録の閉鎖等,0,2023-04-27,2023-04-26,アトリエティーズ株式会社,,株式会社,大阪府,泉南市,信達市場１３３４番地,,27,228,5900504,,,2023-04-26,清算の結了等,,,2015-10-05,1,,,,,アトリエティーズ,0
1322,6130001018758,登記記録の閉鎖等,0,2023-04-27,2023-04-24,堀田整美株式会社,,株式会社,京都府,京都市下京区,四条通室町東入函谷鉾町８０番地,,26,106,6008009,,,2023-04-24,清算の結了等,,,2015-10-05,1,,,,,,0
1332,6140002022254,登記記録の閉鎖等,0,2023-04-27,2023-04-24,有限会社アイエス,,有限会社,兵庫県,神戸市中央区,二宮町２丁目６番１５号,,28,110,6510093,,,2023-04-24,清算の結了等,,,2015-10-05,1,,,,,アイエス,0
1338,6180001009612,登記記録の閉鎖等,0,2023-04-27,2023-04-25,株式会社山手アベニュー,,株式会社,愛知県,名古屋市昭和区,山里町７０番地の２,,23,107,4660824,,,2023-04-25,清算の結了等,,,2015-10-05,1,,,,,ヤマテアベニュー,0
1345,6180003017068,登記記録の閉鎖等,0,2023-04-27,2023-04-18,ハッピーリーフ合同会社,,合同会社,愛知県,名古屋市西区,城西４丁目２３番１５号,,23,104,4510031,,,2023-04-18,清算の結了等,,,2016-05-06,1,,,,,ハッピーリーフ,0
1362,6240002040428,登記記録の閉鎖等,0,2023-04-27,2023-04-25,有限会社ケー・美建,,有限会社,広島県,福山市,神辺町字上御領１８９１番地,,34,207,7202111,,,2023-04-25,清算の結了等,,,2015-10-05,1,,,,,ケービケン,0
1363,6240002053974,登記記録の閉鎖等,0,2023-04-27,2023-04-25,有限会社平田産業,,有限会社,広島県,三原市,本郷南６丁目２１番１０号,,34,204,7290417,,,2023-04-25,清算の結了等,,,2015-10-05,1,,,,,ヒラタサンギョウ,0
1387,6330001020438,登記記録の閉鎖等,0,2023-04-27,2023-04-19,株式会社日高,,株式会社,熊本県,熊本市東区,長嶺南５丁目２番５号,,43,102,8618039,,,2023-04-19,清算の結了等,,,2015-10-05,1,,,,,,0
1392,6360001010262,登記記録の閉鎖等,0,2023-04-27,2023-04-20,株式会社玲水産,,株式会社,沖縄県,宜野湾市,大山６丁目４７番１７号,,47,205,9012223,,,2023-04-20,清算の結了等,,,2015-10-05,1,,,,,アキラスイサン,0
1397,6360003006804,登記記録の閉鎖等,0,2023-04-27,2023-04-21,合同会社八重建設,,合同会社,沖縄県,国頭郡本部町,字東３２６番地１,,47,308,9050211,,,2023-04-21,清算の結了等,,,2015-10-05,1,,,,,ヤエケンセツ,0
1399,6370001018899,登記記録の閉鎖等,0,2023-04-27,2023-04-18,株式会社シンセリティー,,株式会社,宮城県,仙台市青葉区,愛子中央５丁目１４番８－５号,,04,101,9893128,,,2023-04-18,清算の結了等,,,2015-10-05,1,,,,,シンセリティー,0
1406,6420001017012,登記記録の閉鎖等,0,2023-04-27,2023-04-19,株式会社山浩商店,,株式会社,青森県,黒石市,末広７０番地１０,,02,204,0360521,,,2023-04-19,清算の結了等,,,2020-05-12,1,,,,,,0
1413,6430002057527,登記記録の閉鎖等,0,2023-04-27,2023-04-11,有限会社幸寿司,,有限会社,北海道,岩内郡岩内町,字万代２７番地の２,,01,402,0450003,,,2023-04-11,清算の結了等,,,2015-10-05,1,,,,,,0
1426,7010001190238,登記記録の閉鎖等,0,2023-04-27,2023-04-03,ウーブン・コア株式会社,,株式会社,東京都,中央区,日本橋室町３丁目２番１号,,13,102,1030022,,,2023-04-03,合併による解散等,5010001211994,令和５年４月１日東京都中央区日本橋室町三丁目２番１号ウーブン・バイ・トヨタ株式会社（5010001211994）に合併し解散,2018-03-09,1,,,,,ウーブンコア,0
1448,7010405018357,登記記録の閉鎖等,0,2023-04-27,2023-04-10,一般社団法人ＴＲＮ１,,その他の設立登記法人,東京都,港区,虎ノ門３丁目２２番１０－２０１号,,13,103,1050001,,,2023-04-10,清算の結了等,,,2019-12-23,1,,,,,ティーアールエヌワン,0
1455,7010901042380,登記記録の閉鎖等,0,2023-04-27,2023-04-21,株式会社ヨセミテ,,株式会社,東京都,世田谷区,鎌田３丁目１０番５号,,13,112,1570077,,,2023-04-21,清算の結了等,,,2018-07-06,1,,,,,ヨセミテ,0
1459,7011001103123,登記記録の閉鎖等,0,2023-04-27,2023-04-14,ランサーズエージェンシー株式会社,,株式会社,東京都,渋谷区,渋谷３丁目１０番１３号,,13,113,1500002,,,2023-04-14,合併による解散等,6021001024617,令和５年４月１日東京都渋谷区渋谷三丁目１０番１３号ランサーズ株式会社（6021001024617）に合併し解散,2015-10-05,1,,,,,ランサーズエージェンシー,0
1469,7011401007691,登記記録の閉鎖等,0,2023-04-27,2023-04-20,株式会社ダイヤメディカルネット,,株式会社,東京都,千代田区,三番町２２番地７,,13,101,1020075,,,2023-04-20,合併による解散等,2010401106541,令和５年４月１日東京都港区六本木六丁目２番３１号六本木ヒルズノースタワー６階株式会社ｉＭｅｄｉｃａｌ（2010401106541）に合併し解散,2015-10-05,1,,,,,ダイヤメディカルネット,0
1483,7012401012434,登記記録の閉鎖等,0,2023-04-27,2023-04-17,國土撮影株式会社,,株式会社,東京都,武蔵野市,境南町２丁目７番２１号,,13,203,1800023,,,2023-04-17,合併による解散等,9012401007523,令和５年４月１４日東京都調布市西町２９０番地３国土航空株式会社（9012401007523）に合併し解散,2015-10-05,1,,,,,コクドサツエイ,0
1487,7012801017165,登記記録の閉鎖等,0,2023-04-27,2023-04-13,ＭＳ曙株式会社,,株式会社,東京都,立川市,曙町２丁目３５番２号Ａ－ＯＮＥビル９階,00106330,13,202,1900012,,,2023-04-13,合併による解散等,1010001030440,令和５年４月３日東京都千代田区神田駿河台三丁目９番地三井住友海上エイジェンシー・サービス株式会社（1010001030440）に合併し解散,2016-04-07,1,,,,,エムエスアケボノ,0
1493,7013301047388,登記記録の閉鎖等,0,2023-04-27,2023-04-05,株式会社ＡＴＬＡＳ　Ｓｍａｒｔ　Ｓｅｃｕｒｉｔｙ,,株式会社,東京都,豊島区,西池袋１丁目４番１０号,,13,116,1710021,,,2023-04-05,合併による解散等,8013301049722,令和５年４月１日東京都豊島区西池袋一丁目４番１０号株式会社Ｃｌｏｕｄ３（8013301049722）に合併し解散,2021-04-28,1,,,,,アトラススマートセキュリティ,0
1503,7020003014740,登記記録の閉鎖等,0,2023-04-27,2023-04-19,みんとる合同会社,,合同会社,神奈川県,横浜市西区,高島２丁目１１番２号スカイメナー横浜４２２,,14,103,2200011,,,2023-04-19,清算の結了等,,,2018-08-16,1,,,,,ミントル,0
1513,7021005001495,登記記録の閉鎖等,0,2023-04-27,2023-04-20,宗教法人天理教愛華一分教会,,その他の設立登記法人,神奈川県,茅ヶ崎市,赤羽根１４０２番地,,14,207,2530001,,,2023-04-20,合併による解散等,8020005003468,令和５年４月１０日横浜市神奈川区羽沢町１６７５番地３宗教法人天理教濱華分教会（8020005003468）に合併し解散,2015-10-05,1,,,,,,0
1564,7130002002289,登記記録の閉鎖等,0,2023-04-27,2023-04-21,有限会社国華美容室,,有限会社,京都府,京都市上京区,大宮通今出川下る薬師町２２６番地グラシオン西陣１０１号室,,26,102,6028442,,,2023-04-21,清算の結了等,,,2015-10-05,1,,,,,,0
1584,7180001135457,登記記録の閉鎖等,0,2023-04-27,2023-04-25,株式会社エスシィン,,株式会社,愛知県,岩倉市,大地町野辺１２番地,,23,228,4820026,,,2023-04-25,清算の結了等,,,2019-02-13,1,,,,,エスシィン,0
1590,7180003020541,登記記録の閉鎖等,0,2023-04-27,2023-04-25,合同会社Ｅｓｆｙ’ｓ,,合同会社,愛知県,名古屋市熱田区,金山町１丁目３番６号金山ブリッジビル７階,,23,109,4560002,,,2023-04-25,清算の結了等,,,2019-11-15,1,,,,,エスフィーズ,0
1610,7290001041578,登記記録の閉鎖等,0,2023-04-27,2023-04-17,株式会社フクセイ,,株式会社,福岡県,春日市,光町１丁目２４番地,,40,218,8160806,,,2023-04-17,清算の結了等,,,2015-10-05,1,,,,,,0
1621,7320001017764,登記記録の閉鎖等,0,2023-04-27,2023-04-13,盈立株式会社,,株式会社,千葉県,木更津市,中里２丁目３１番１の２号,,12,206,2920064,,,2023-04-13,清算の結了等,,,2020-06-29,1,,,,,エイリツ,0
1632,7370001047939,登記記録の閉鎖等,0,2023-04-27,2023-04-19,株式会社Ａｃｐｒｏ,,株式会社,宮城県,仙台市泉区,泉中央４丁目２番地の２アルコート泉中央６０４,,04,105,9813133,,,2023-04-19,清算の結了等,,,2021-12-15,1,,,,,エイシープロ,0
1635,7370802001433,登記記録の閉鎖等,0,2023-04-27,2023-04-19,有限会社亘理タイヤセンター,,有限会社,宮城県,亘理郡亘理町,逢隈牛袋字南谷地添６番地の１,00082226,04,361,9892302,,,2023-04-19,清算の結了等,,,2015-10-05,1,,,,,ワタリタイヤセンター,0
1653,7470001007164,登記記録の閉鎖等,0,2023-04-27,2023-04-24,四国船装工業株式会社,,株式会社,香川県,坂出市,林田町５４８番地１,,37,203,7620012,,,2023-04-24,清算の結了等,,,2015-10-05,1,,,,,シコクセンソウコウギョウ,0
1655,7500001008233,登記記録の閉鎖等,0,2023-04-27,2023-04-25,株式会社一柳木材,,株式会社,愛媛県,喜多郡内子町,石畳１０００番地,,38,422,7913343,,,2023-04-25,清算の結了等,,,2015-10-05,1,,,,,イチヤナギモクザイ,0
1674,8010401081498,登記記録の閉鎖等,0,2023-04-27,2023-04-03,株式会社ナウアド,,株式会社,東京都,葛飾区,新宿１丁目２３番２０号,,13,122,1250051,,,2023-04-03,清算の結了等,,,2015-10-05,1,,,,,ナウアド,0
1675,8010401084377,登記記録の閉鎖等,0,2023-04-27,2023-04-13,東京特殊電線株式会社,,株式会社,東京都,港区,西新橋３丁目８番３号,,13,103,1050003,,,2023-04-13,合併による解散等,9010001230223,令和５年４月１日東京都千代田区丸の内一丁目５番１号ＴＴＣホールディングス株式会社（9010001230223）に合併し解散,2015-10-05,1,,,,,トウキョウトクシュデンセン,0
1680,8010401153421,登記記録の閉鎖等,0,2023-04-27,2023-04-10,アラスカ株式会社,,株式会社,東京都,港区,南青山２丁目２番１５号,,13,103,1070062,,,2023-04-10,清算の結了等,,,2020-06-16,1,,,,,アラスカ,0
1704,8010901035672,登記記録の閉鎖等,0,2023-04-27,2023-04-24,株式会社岩崎ハイエフィカシーオフィス,,株式会社,東京都,調布市,調布ケ丘４丁目２３番８号,,13,208,1820021,,,2023-04-24,清算の結了等,,,2015-10-05,1,,,,,イワザキハイエフィカシーオフィス,0
1706,8010901045886,登記記録の閉鎖等,0,2023-04-27,2023-04-19,株式会社ＰＢ＆Ｍ,,株式会社,東京都,世田谷区,駒沢３丁目１４番４号,,13,112,1540012,,,2023-04-19,清算の結了等,,,2020-03-12,1,,,,,ピービーアンドエム,0
1717,8011305001955,登記記録の閉鎖等,0,2023-04-27,2023-04-24,特定非営利活動法人明日の希望,,その他の設立登記法人,東京都,杉並区,天沼２丁目３５番２号,,13,115,1670032,,,2023-04-24,清算の結了等,,,2015-10-05,1,,,,,アシタノキボウ,0
1721,8011501005834,登記記録の閉鎖等,0,2023-04-27,2023-04-19,株式会社大弥,,株式会社,東京都,荒川区,西尾久３丁目８番７号,,13,118,1160011,,,2023-04-19,清算の結了等,,,2015-10-05,1,,,,,ダイヤ,0
1722,8011501015338,登記記録の閉鎖等,0,2023-04-27,2023-04-17,株式会社アークス・コーポレーション,,株式会社,東京都,荒川区,東日暮里５丁目２５番８号,,13,118,1160014,,,2023-04-17,清算の結了等,,,2015-10-05,1,,,,,,0
1734,8012402008802,登記記録の閉鎖等,0,2023-04-27,2023-03-31,有限会社シーズ・クリエイティブ・オフイス,,有限会社,東京都,調布市,西つつじケ丘２丁目１８番９号,,13,208,1820006,,,2023-03-31,清算の結了等,,,2015-10-05,1,,,,,シーズクリエイティブオフイス,0
1739,8012702004393,登記記録の閉鎖等,0,2023-04-27,2023-04-25,有限会社すこやか,,有限会社,東京都,西東京市,ひばりが丘２丁目１１番２９号,,13,229,2020001,,,2023-04-25,清算の結了等,,,2015-10-05,1,,,,,,0
1752,8020001013537,登記記録の閉鎖等,0,2023-04-27,2023-04-19,日中資材株式会社,,株式会社,神奈川県,横浜市中区,弁天通２丁目２１番地,,14,104,2310007,,,2023-04-19,清算の結了等,,,2015-10-05,1,,,,,ニッチュウシザイ,0
1764,8021001062029,登記記録の閉鎖等,0,2023-04-27,2023-04-24,株式会社難波電設,,株式会社,神奈川県,南足柄市,壗下９１番地,,14,217,2500103,,,2023-04-24,清算の結了等,,,2017-05-11,1,,,,,イソガヤデンセツ,0
1769,8021002050949,登記記録の閉鎖等,0,2023-04-27,2023-04-24,有限会社イソガヤ印刷,,有限会社,神奈川県,小田原市,栢山２９１７番地の２,,14,206,2500852,,,2023-04-24,清算の結了等,,,2015-10-05,1,,,,,イソガヤインサツ,0
1802,8060002018663,登記記録の閉鎖等,0,2023-04-27,2023-04-13,有限会社芳賀交通,,有限会社,栃木県,芳賀郡芳賀町,大字下高根沢３９４９番地２,,09,345,3213321,,,2023-04-13,清算の結了等,,,2015-10-05,1,,,,,ハガコウツウ,0
1811,8090002001220,登記記録の閉鎖等,0,2023-04-27,2023-04-26,有限会社五味工業,,有限会社,山梨県,笛吹市,八代町増利１８６５番地１,,19,211,4060824,,,2023-04-26,清算の結了等,,,2015-10-05,1,,,,,ゴミコウギョウ,0
1818,8110001037147,登記記録の閉鎖等,0,2023-04-27,2023-04-24,株式会社ＪＳファンダリ新潟,,株式会社,新潟県,小千谷市,大字千谷甲３０００番地,,15,208,9470052,,,2023-04-24,合併による解散等,9010003034655,令和５年４月１日東京都港区西新橋一丁目１８番６号株式会社ＪＳファンダリ（9010003034655）に合併し解散,2022-12-02,1,,,,,ジェイエスファンダリニイガタ,0
1844,8130001000169,登記記録の閉鎖等,0,2023-04-27,2023-04-24,株式会社イサコーポレーション,,株式会社,京都府,京都市右京区,鳴滝音戸山町１１番地の１１７,,26,108,6168255,,,2023-04-24,清算の結了等,,,2015-10-05,1,,,,,イサコーポレーション,0
1863,8180301007561,登記記録の閉鎖等,0,2023-04-27,2023-04-21,吉田印刷株式会社,,株式会社,愛知県,豊橋市,大国町１１番地,,23,201,4400884,,,2023-04-21,清算の結了等,,,2015-10-05,1,,,,,ヨシダインサツ,0
1873,8200001014731,登記記録の閉鎖等,0,2023-04-27,2023-04-24,株式会社松浦組,,株式会社,岐阜県,不破郡関ケ原町,大字今須２５５４番地の１,,21,362,5031543,,,2023-04-24,清算の結了等,,,2015-10-05,1,,,,,マツウラグミ,0
1884,8240002048155,登記記録の閉鎖等,0,2023-04-27,2023-04-25,有限会社阪田工作所,,有限会社,広島県,安芸郡府中町,山田２丁目６番２号,,34,302,7350004,,,2023-04-25,清算の結了等,,,2015-10-05,1,,,,,サカタコウサクジョ,0
1901,8290802013849,登記記録の閉鎖等,0,2023-04-27,2023-04-25,北村建設有限会社,,有限会社,福岡県,北九州市八幡西区,別所町１７番２０号,,40,109,8060068,,,2023-04-25,清算の結了等,,,2015-10-05,1,,,,,キタムラケンセツ,0
1925,8390001013343,登記記録の閉鎖等,0,2023-04-27,2023-04-24,株式会社オフィス・オオエ,,株式会社,山形県,山形市,平清水２丁目５番１９号,,06,201,9902401,,,2023-04-24,清算の結了等,,,2015-10-05,1,,,,,オフィスオオエ,0
1940,8450001006695,登記記録の閉鎖等,0,2023-04-27,2023-04-25,株式会社ときわプランニング,,株式会社,北海道,富良野市,緑町１８番３０号,,01,229,0760021,,,2023-04-25,清算の結了等,,,2015-10-05,1,,,,,トキワプランニング,0
1944,8500001010469,登記記録の閉鎖等,0,2023-04-27,2023-04-13,アインド株式会社,,株式会社,愛媛県,西条市,港字北新地３５７番３,,38,206,7930046,,,2023-04-13,合併による解散等,8080101008010,令和５年４月１日静岡県御殿場市神場２２７１番地の７アポロ精工株式会社（8080101008010）に合併し解散,2015-10-05,1,,,,,アインド,0
1961,9010001174107,登記記録の閉鎖等,0,2023-04-27,2023-04-13,株式会社ファイン,,株式会社,東京都,千代田区,神田淡路町１丁目１番１号,,13,101,1010063,,,2023-04-13,清算の結了等,,,2016-03-16,1,,,,,ファイン,0
1965,9010001195094,登記記録の閉鎖等,0,2023-04-27,2023-04-13,エヌアンドワイプランニング株式会社,,株式会社,東京都,中央区,築地１丁目９番１３－２０６号,,13,102,1040045,,,2023-04-13,清算の結了等,,,2018-10-01,1,,,,,エヌアンドワイプランニング,0
1984,9010405017885,登記記録の閉鎖等,0,2023-04-27,2023-04-10,八村リテール一般社団法人,,その他の設立登記法人,東京都,港区,六本木１丁目６番１号泉ガーデンタワー１２階,,13,103,1060032,,,2023-04-10,清算の結了等,,,2019-07-17,1,,,,,ハチムラリテール,0
1988,9010602006922,登記記録の閉鎖等,0,2023-04-27,2023-04-24,有限会社辰己屋履物店,,有限会社,東京都,江東区,亀戸１丁目３１番８号,,13,108,1360071,,,2023-04-24,清算の結了等,,,2015-10-05,1,,,,,タツミヤハキモノテン,0
1989,9010801005543,登記記録の閉鎖等,0,2023-04-27,2023-04-14,株式会社秀栄産業,,株式会社,東京都,大田区,東六郷２丁目１９番１８号,,13,111,1440046,,,2023-04-14,清算の結了等,,,2015-10-05,1,,,,,シュウエイサンギョウ,0
2004,9011101063678,登記記録の閉鎖等,0,2023-04-27,2023-04-24,アッププロジェクト株式会社,,株式会社,東京都,新宿区,若葉１丁目６番地あかつきビル３０８号室,,13,104,1600011,,,2023-04-24,清算の結了等,,,2015-10-05,1,,,,,アッププロジェクト,0
2012,9011502001419,登記記録の閉鎖等,0,2023-04-27,2023-04-19,有限会社柏屋,,有限会社,東京都,北区,上十条３丁目１５番２号,,13,117,1140034,,,2023-04-19,清算の結了等,,,2015-10-05,1,,,,,カシワヤ,0
2013,9011502006211,登記記録の閉鎖等,0,2023-04-27,2023-04-18,有限会社ユウシン,,有限会社,東京都,北区,堀船１丁目３４番１６号,,13,117,1140004,,,2023-04-18,清算の結了等,,,2015-10-05,1,,,,,,0
2053,9030002094095,登記記録の閉鎖等,0,2023-04-27,2023-04-11,有限会社佐野殖産,,有限会社,埼玉県,入間郡毛呂山町,岩井東１丁目３１番地６,,11,326,3500467,,,2023-04-11,清算の結了等,,,2015-10-05,1,,,,,サノショクサン,0
2063,9060002008754,登記記録の閉鎖等,0,2023-04-27,2023-04-17,有限会社ミモザ,,有限会社,栃木県,宇都宮市,西川田５丁目３３番１６号,,09,201,3210152,,,2023-04-17,清算の結了等,,,2015-10-05,1,,,,,ミモザ,0
2066,9070002026821,登記記録の閉鎖等,0,2023-04-27,2023-04-24,有限会社北毛美装,,有限会社,群馬県,渋川市,渋川１２９５番地,,10,208,3770008,,,2023-04-24,清算の結了等,,,2015-10-05,1,,,,,ホクモウビソウ,0
2068,9070005009435,登記記録の閉鎖等,0,2023-04-27,2023-04-21,一般社団法人日本ミニチュアシュガー協会,,その他の設立登記法人,群馬県,伊勢崎市,境４７６番地３,,10,204,3700124,,,2023-04-21,清算の結了等,,,2018-02-07,1,,,,,ニホンミニチュアシュガーキョウカイ,0
2072,9100001016927,登記記録の閉鎖等,0,2023-04-27,2023-04-19,株式会社エヌ・イー・エス,,株式会社,長野県,安曇野市,穂高６０３２番地２０,,20,220,3998303,,,2023-04-19,清算の結了等,,,2015-10-05,1,,,,,エヌイーエス,0
2076,9100005009927,登記記録の閉鎖等,0,2023-04-27,2023-04-19,特定非営利活動法人いいだ応援ネットイデア,,その他の設立登記法人,長野県,飯田市,本町２丁目１６番地,,20,205,3950044,,,2023-04-19,清算の結了等,,,2015-10-05,1,,,,,イイダオウエンネットイデア,0
2082,9120001188888,登記記録の閉鎖等,0,2023-04-27,2023-04-17,株式会社エバーバンク,,株式会社,神奈川県,横浜市西区,みなとみらい３丁目６番３号ＭＭパークビル１１階,,14,103,2200012,,,2023-04-17,合併による解散等,6020001092442,令和５年４月１日神奈川県横浜市西区みなとみらい三丁目６番３号Ｆｏｏｎｚ株式会社（6020001092442）に合併し解散,2015-10-05,1,,,,,エバーバンク,0
2105,9130002018754,登記記録の閉鎖等,0,2023-04-27,2023-04-24,有限会社フェイス,,有限会社,京都府,京都市下京区,七条御所ノ内本町７８番地,,26,106,6008863,,,2023-04-24,清算の結了等,,,2015-10-05,1,,,,,フェイス,0
2114,9140002033851,登記記録の閉鎖等,0,2023-04-27,2023-04-24,有限会社なかや,,有限会社,兵庫県,相生市,山手１丁目１７４番地,,28,208,6780001,,,2023-04-24,清算の結了等,,,2015-10-05,1,,,,,ナカヤ,0
2125,9170005003725,登記記録の閉鎖等,0,2023-04-27,2023-04-25,天理教石船分教会,00045835,その他の設立登記法人,和歌山県,田辺市,神子浜２丁目１１番１号,,30,206,6460025,,,2023-04-25,合併による解散等,6170005000650,令和５年４月２５日和歌山市中之島２５１番地の３天理教中紀和分教会（6170005000650）に合併し解散,2015-10-05,1,,,,,テンリキョウイシブリブンキョウカイ,0
2134,9180002040745,登記記録の閉鎖等,0,2023-04-27,2023-04-24,有限会社古橋工業,,有限会社,愛知県,清須市,西枇杷島町地領２丁目８番地の８,,23,233,4520008,,,2023-04-24,清算の結了等,,,2015-10-05,1,,,,,フルハシコウギョウ,0
2137,9180005018086,登記記録の閉鎖等,0,2023-04-27,2023-04-25,一般社団法人パラ・アーティスト・マネージメント協会,,その他の設立登記法人,愛知県,一宮市,時之島字妙光寺６－１,,23,203,4910002,,,2023-04-25,清算の結了等,,,2018-12-26,1,,,,,パラアーティストマネージメントキョウカイ,0
2147,9230005000419,登記記録の閉鎖等,0,2023-04-27,2023-04-25,医療法人社団中島こどもクリニック,,その他の設立登記法人,富山県,富山市,中島３丁目３番５７号,,16,201,9300801,,,2023-04-25,清算の結了等,,,2015-10-05,1,,,,,ナカジマコドモクリニック,0
2150,9240005007900,登記記録の閉鎖等,0,2023-04-27,2023-04-12,社会福祉法人すみれ佑和会,,その他の設立登記法人,広島県,福山市,瀬戸町大字地頭分字小立２７２１番地,,34,207,7200837,,,2023-04-12,合併による解散等,7140005006468,令和５年４月３日兵庫県明石市松が丘北町１０７４番地の１社会福祉法人すみれ福祉会（7140005006468）に合併し解散,2015-10-05,1,,,,,スミレユウワカイ,0
2152,9260001012027,登記記録の閉鎖等,0,2023-04-27,2023-04-25,株式会社花園石材,,株式会社,岡山県,岡山市南区,浜野３丁目１９番１９号,,33,104,7000845,,,2023-04-25,清算の結了等,,,2015-10-05,1,,,,,ハナゾノセキザイ,0
2155,9260002013932,登記記録の閉鎖等,0,2023-04-27,2023-04-25,有限会社タミーインターナショナル,,有限会社,岡山県,岡山市北区,今岡２９９番地１６,,33,101,7011204,,,2023-04-25,清算の結了等,,,2015-10-05,1,,,,,タミーインターナショナル,0
2156,9260002021340,登記記録の閉鎖等,0,2023-04-27,2023-04-24,有限会社まるみや,,有限会社,岡山県,倉敷市,水島西栄町４番２０号,,33,202,7128034,,,2023-04-24,清算の結了等,,,2015-10-05,1,,,,,マルミヤ,0
2170,9330003002679,登記記録の閉鎖等,0,2023-04-27,2023-04-19,合資会社田代商店,,合資会社,熊本県,阿蘇郡高森町,大字高森１５９３番地,,43,428,8691602,,,2023-04-19,清算の結了等,,,2015-10-05,1,,,,,,0
2172,9360001019037,登記記録の閉鎖等,0,2023-04-27,2023-04-11,金秀琉球ファシリティーズ株式会社,,株式会社,沖縄県,那覇市,旭町１１２番地１,,47,201,9000029,,,2023-04-11,合併による解散等,6360001004314,令和５年４月１日沖縄県中頭郡西原町字小那覇１２１２番地金秀鋼材株式会社（6360001004314）に合併し解散,2015-10-05,1,,,,,カネヒデリュウキュウファシリティーズ,0
2177,9370001031684,登記記録の閉鎖等,0,2023-04-27,2023-04-20,株式会社エムワイルーフテック,,株式会社,宮城県,仙台市青葉区,中江２丁目８番３号,,04,101,9800001,,,2023-04-20,清算の結了等,,,2015-10-05,1,,,,,エムワイルーフテック,0
2182,9380001018929,登記記録の閉鎖等,0,2023-04-27,2023-04-20,株式会社カイヌマ,,株式会社,福島県,会津若松市,平安町２－１２会津支社ビル２０１号,,07,202,9650026,,,2023-04-20,清算の結了等,,,2015-10-05,1,,,,,カイヌマ,0
2190,9400605000511,登記記録の閉鎖等,0,2023-04-27,2023-04-18,農事組合法人ＳＵファーム長志田,,その他の設立登記法人,岩手県,胆沢郡金ケ崎町,西根横堰８番地,,03,381,0294503,,,2023-04-18,清算の結了等,,,2015-10-05,1,,,,,エスユーフアームームナガシタ,0
