sequenceNumber,corporateNumber,process,correct,updateDate,changeDate,name,nameImageId,kind,prefectureName,cityName,streetNumber,addressImageId,prefectureCode,cityCode,postCode,addressOutside,addressOutsideImageId,closeDate,closeCause,successorCorporateNumber,changeCause,assignmentDate,latest,enName,enPrefectureName,enCityName,enAddressOutside,furigana,hihyoji
1,1010001050158,登記記録の閉鎖等,0,2021-10-26,2021-10-25,中貿開発株式会社,,株式会社,静岡県,浜松市中区,砂山町３２０番地の２,,22,131,4300926,,,2021-10-25,合併による解散等,8010001034947,令和３年１０月１日東京都中央区日本橋一丁目１９番１号三菱倉庫株式会社（8010001034947）に合併し解散,2015-10-05,1,,,,,チュウボウカイハツ,0
85,1020002065170,登記記録の閉鎖等,0,2021-10-26,2021-10-21,有限会社ケイ・ポイント,,有限会社,神奈川県,横浜市青葉区,あざみ野３丁目３１番地８,,14,117,2250011,,,2021-10-21,清算の結了等,,,2015-10-05,1,,,,,ケイポイント,0
90,1021002071522,登記記録の閉鎖等,0,2021-10-26,2021-10-22,有限会社蔡商事,,有限会社,神奈川県,横須賀市,長坂１丁目１番１１号,,14,201,2400101,,,2021-10-22,清算の結了等,,,2015-10-05,1,,,,,サイショウジ,0
95,1030001142993,登記記録の閉鎖等,0,2021-10-26,2021-10-18,株式会社ａｌｌｏｔ,,株式会社,埼玉県,新座市,野寺４丁目９番２１－２２号,,11,230,3520034,,,2021-10-18,清算の結了等,,,2021-06-28,1,,,,,アロット,0
98,1030005017985,登記記録の閉鎖等,0,2021-10-26,2021-10-18,一般社団法人地域資源協議会,,その他の設立登記法人,埼玉県,秩父郡小鹿野町,両神薄４番地,,11,365,3680201,,,2021-10-18,清算の結了等,,,2016-05-30,1,,,,,チイキシゲンキョウギカイ,0
114,1070001016517,登記記録の閉鎖等,0,2021-10-26,2021-10-25,不二山機械工業株式会社,,株式会社,群馬県,桐生市,相生町２丁目３４３番地,,10,203,3760011,,,2021-10-25,清算の結了等,,,2015-10-05,1,,,,,,0
129,1110001005829,登記記録の閉鎖等,0,2021-10-26,2021-10-21,株式会社若林商会,,株式会社,新潟県,新潟市東区,江南６丁目３番地１１,,15,102,9500855,,,2021-10-21,清算の結了等,,,2015-10-05,1,,,,,ワカバヤシショウカイ,0
139,1120001202029,登記記録の閉鎖等,0,2021-10-26,2021-10-25,株式会社福政建設,,株式会社,大阪府,大阪市大正区,鶴町１丁目８番１７－３０５号,,27,108,5510023,,,2021-10-25,清算の結了等,,,2016-11-28,1,,,,,,0
145,1120002052828,登記記録の閉鎖等,0,2021-10-26,2021-10-22,ケイエムアドバンス有限会社,,有限会社,大阪府,大阪市此花区,酉島１丁目９番１５号,,27,104,5540051,,,2021-10-22,清算の結了等,,,2015-10-05,1,,,,,ケイエムアドバンス,0
149,1120101009729,登記記録の閉鎖等,0,2021-10-26,2021-10-22,株式会社ＢＧプロダクト,,株式会社,大阪府,堺市堺区,今池町２丁１０番２６号,,27,141,5900018,,,2021-10-22,清算の結了等,,,2015-10-05,1,,,,,ビージープロダクト,0
150,1120901008657,登記記録の閉鎖等,0,2021-10-26,2021-10-22,山本管工株式会社,,株式会社,大阪府,吹田市,山田西１丁目１６番２号,,27,205,5650824,,,2021-10-22,清算の結了等,,,2015-10-05,1,,,,,ヤマモトカンコウ,0
154,1120901024539,登記記録の閉鎖等,0,2021-10-26,2021-10-22,株式会社大和工業,,株式会社,大阪府,豊中市,原田南２丁目１番８号,,27,203,5610805,,,2021-10-22,清算の結了等,,,2015-10-05,1,,,,,ダイワコウギョウ,0
166,1140002003127,登記記録の閉鎖等,0,2021-10-26,2021-10-25,有限会社小林真珠,,有限会社,兵庫県,神戸市灘区,鶴甲４丁目７番２１－４０５号,,28,102,6570011,,,2021-10-25,清算の結了等,,,2015-10-05,1,,,,,コバヤシシンジュ,0
182,1180002069255,登記記録の閉鎖等,0,2021-10-26,2021-10-20,有限会社ジャコムコーポレーション,,有限会社,愛知県,小牧市,篠岡１丁目６番地,,23,219,4850815,,,2021-10-20,清算の結了等,,,2015-10-05,1,,,,,ジャコムコーポレーション,0
187,1190001009475,登記記録の閉鎖等,0,2021-10-26,2021-10-22,株式会社ハコゼン,,株式会社,三重県,名張市,夏見２５００番地,,24,208,5180441,,,2021-10-22,清算の結了等,,,2015-10-05,1,,,,,ハコゼン,0
196,1230002011252,登記記録の閉鎖等,0,2021-10-26,2021-10-20,有限会社柴商事,,有限会社,富山県,高岡市,問屋町２０９番地,,16,202,9330804,,,2021-10-20,清算の結了等,,,2015-10-05,1,,,,,,0
197,1240001001006,登記記録の閉鎖等,0,2021-10-26,2021-10-22,岩橋電算写植株式会社,,株式会社,広島県,広島市中区,中町１番６号,,34,101,7300037,,,2021-10-22,清算の結了等,,,2015-10-05,1,,,,,イワハシデンサンシャショク,0
204,1290001036105,登記記録の閉鎖等,0,2021-10-26,2021-10-18,株式会社豊水,,株式会社,福岡県,福岡市東区,和白東１丁目１５番３７号,,40,131,8110214,,,2021-10-18,清算の結了等,,,2015-10-05,1,,,,,ホウスイ,0
209,1290001091125,登記記録の閉鎖等,0,2021-10-26,2021-10-19,株式会社ＢＬＵＥ　ＯＣＥＡＮ１１,,株式会社,福岡県,福岡市早良区,干隈６丁目８番１３号,,40,137,8140163,,,2021-10-19,清算の結了等,,,2020-12-02,1,,,,,ブルーオーシャンイレブン,0
215,1290003008795,登記記録の閉鎖等,0,2021-10-26,2021-10-18,合同会社匠,,合同会社,福岡県,宗像市,土穴４丁目７番２７号,,40,220,8114183,,,2021-10-18,清算の結了等,,,2019-02-26,1,,,,,タクミ,0
228,1350005003912,登記記録の閉鎖等,0,2021-10-26,2021-09-30,天理教南山之口分教会,,その他の設立登記法人,宮崎県,都城市,山之口町富吉４９４９番地１,,45,202,8891801,,,2021-09-30,合併による解散等,9140005014254,令和３年９月２９日兵庫県姫路市総社本町１４番地天理教南月分教会（9140005014254）に合併し解散,2015-10-05,1,,,,,,0
239,1420001011036,登記記録の閉鎖等,0,2021-10-26,2021-10-15,株式会社サンキ商会,,株式会社,宮城県,仙台市青葉区,錦ケ丘３丁目１７番地の９,,04,101,9893123,,,2021-10-15,清算の結了等,,,2015-10-05,1,,,,,サンキショウカイ,0
258,2010001009459,登記記録の閉鎖等,0,2021-10-26,2021-10-21,アイディエム株式会社,,株式会社,東京都,千代田区,一番町２３番地３,,13,101,1020082,,,2021-10-21,清算の結了等,,,2015-10-05,1,,,,,アイディエム,0
289,2010901028582,登記記録の閉鎖等,0,2021-10-26,2021-10-22,株式会社トライストーン・コア,,株式会社,東京都,世田谷区,三軒茶屋２丁目１１番２３号,,13,112,1540024,,,2021-10-22,合併による解散等,1020001089617,令和３年１０月２０日東京都世田谷区三軒茶屋二丁目１１番２３号株式会社ＴＳ　ＰＬＡＮＮＩＮＧ（1020001089617）に合併し解散,2015-10-05,1,,,,,トライストーンコア,0
292,2010902013245,登記記録の閉鎖等,0,2021-10-26,2021-10-21,有限会社プチ・バレーヌ,,有限会社,東京都,世田谷区,奥沢２丁目７番１６号,,13,112,1580083,,,2021-10-21,清算の結了等,,,2015-10-05,1,,,,,プチバレーヌ,0
317,2011802002247,登記記録の閉鎖等,0,2021-10-26,2021-10-25,有限会社木村技研,,有限会社,東京都,葛飾区,東新小岩５丁目１０番１６号,,13,122,1240023,,,2021-10-25,清算の結了等,,,2015-10-05,1,,,,,キムラギケン,0
319,2012401012819,登記記録の閉鎖等,0,2021-10-26,2021-10-19,東和工機株式会社,,株式会社,東京都,三鷹市,中原３丁目１０番２７号,,13,204,1810005,,,2021-10-19,清算の結了等,,,2015-10-05,1,,,,,,0
320,2012401013718,登記記録の閉鎖等,0,2021-10-26,2021-10-20,株式会社アムリタ,,株式会社,東京都,武蔵野市,吉祥寺本町２丁目１７番１２号,,13,203,1800004,,,2021-10-20,清算の結了等,,,2015-10-05,1,,,,,アムリタ,0
334,2020001083949,登記記録の閉鎖等,0,2021-10-26,2021-10-21,ケン・クリエイティブ・コーポレーション株式会社,,株式会社,神奈川県,川崎市中原区,中丸子１３番地１７ザ・コスギタワー４９０５,,14,133,2110012,,,2021-10-21,清算の結了等,,,2015-10-05,1,,,,,ケンクリエイティブコーポレーション,0
335,2020002106709,登記記録の閉鎖等,0,2021-10-26,2021-10-21,有限会社コスモ・ミューチュアル・ジャパンリミテッド,,有限会社,神奈川県,川崎市宮前区,梶ケ谷４－３３,,14,136,2160034,,,2021-10-21,清算の結了等,,,2015-10-05,1,,,,,コスモミューチュアルジャパンリミテッド,0
340,2021002029668,登記記録の閉鎖等,0,2021-10-26,2021-10-21,中山建設有限会社,,有限会社,神奈川県,相模原市緑区,小倉１９５番地,,14,151,2520115,,,2021-10-21,清算の結了等,,,2015-10-05,1,,,,,ナカヤマケンセツ,0
352,2040001077544,登記記録の閉鎖等,0,2021-10-26,2021-10-20,株式会社成建,,株式会社,千葉県,南房総市,海老敷４０８番地１,,12,234,2940804,,,2021-10-20,清算の結了等,,,2015-10-05,1,,,,,セイケン,0
360,2050002017597,登記記録の閉鎖等,0,2021-10-26,2021-10-20,有限会社羽田建機,,有限会社,茨城県,下妻市,原９９８番地,,08,210,3040816,,,2021-10-20,清算の結了等,,,2015-10-05,1,,,,,ハネダケンキ,0
362,2060001028396,登記記録の閉鎖等,0,2021-10-26,2021-10-01,株式会社アース,,株式会社,栃木県,小山市,西城南３丁目２２番地９,,09,208,3230820,,,2021-10-01,合併による解散等,5060001029763,栃木県小山市西城南三丁目２２番地９株式会社ユーアイ（5060001029763）に合併し解散,2016-06-30,1,,,,,アース,0
367,2070001036373,登記記録の閉鎖等,0,2021-10-26,2021-10-21,エイチエヌワイ株式会社,,株式会社,群馬県,渋川市,渋川７６４番地１６,,10,208,3770008,,,2021-10-21,清算の結了等,,,2019-12-18,1,,,,,エイチエヌワイ,0
378,2080402021543,登記記録の閉鎖等,0,2021-10-26,2021-10-22,有限会社三共コピー,,有限会社,静岡県,袋井市,川井３３９番地,,22,216,4370064,,,2021-10-22,清算の結了等,,,2015-10-05,1,,,,,サンキョウコピー,0
391,2110002020421,登記記録の閉鎖等,0,2021-10-26,2021-10-21,有限会社神子石材,,有限会社,新潟県,柏崎市,西山町礼拝４５３番地２,,15,205,9494124,,,2021-10-21,清算の結了等,,,2015-10-05,1,,,,,カミコセキザイ,0
399,2120001153667,登記記録の閉鎖等,0,2021-10-26,2021-10-21,共立電子株式会社,,株式会社,大阪府,枚方市,東香里元町１５番１９号,,27,210,5730076,,,2021-10-21,清算の結了等,,,2015-10-05,1,,,,,キョウリツデンシ,0
452,2190001016363,登記記録の閉鎖等,0,2021-10-26,2021-10-01,三重銀コンピュータサービス株式会社,,株式会社,三重県,四日市市,十七軒町１５番１号,,24,202,5100063,,,2021-10-01,合併による解散等,7190001010254,令和３年１０月１日三重県松阪市中央町５２０番地の１三十三コンピューターサービス株式会社（7190001010254）に合併して解散,2015-10-05,1,,,,,ミエギンコンピュータサービス,0
454,2200002007814,登記記録の閉鎖等,0,2021-10-26,2021-10-25,有限会社菱友エンジニア,,有限会社,岐阜県,各務原市,川島小網町１９００番地２２５,,21,213,5016023,,,2021-10-25,清算の結了等,,,2015-10-05,1,,,,,リョウユウエンジニア,0
459,2210002003003,登記記録の閉鎖等,0,2021-10-26,2021-10-08,ファイナンシャルコンサルト有限会社,,有限会社,福井県,福井市,月見２丁目１０番１５号,,18,201,9188011,,,2021-10-08,清算の結了等,,,2015-10-05,1,,,,,ファイナンシャルコンサルト,0
462,2240001016837,登記記録の閉鎖等,0,2021-10-26,2021-10-21,株式会社ＨＩＲＯ,,株式会社,広島県,広島市西区,小河内町２丁目２３－２２－６０２号,,34,104,7330025,,,2021-10-21,清算の結了等,,,2015-10-05,1,,,,,ヒロ,0
463,2240001018346,登記記録の閉鎖等,0,2021-10-26,2021-10-20,いつき建設株式会社,,株式会社,広島県,広島市西区,田方２丁目９番２３号,,34,104,7330851,,,2021-10-20,清算の結了等,,,2015-10-05,1,,,,,イツキケンセツ,0
468,2290001007955,登記記録の閉鎖等,0,2021-10-26,2021-10-20,株式会社シカゴセブンス,,株式会社,福岡県,福岡市早良区,室見５丁目１３番２８号,,40,137,8140015,,,2021-10-20,清算の結了等,,,2015-10-05,1,,,,,シカゴセブンス,0
489,2290801020091,登記記録の閉鎖等,0,2021-10-26,2021-10-12,株式会社あうんグループ,,株式会社,福岡県,田川市,上本町８番地３４,,40,206,8260023,,,2021-10-12,清算の結了等,,,2015-10-05,1,,,,,アウングループ,0
495,2330001015185,登記記録の閉鎖等,0,2021-10-26,2021-10-21,株式会社三協食品,,株式会社,熊本県,天草市,本渡町本戸馬場８６９番地の５,,43,215,8630002,,,2021-10-21,清算の結了等,,,2015-10-05,1,,,,,サンキョウショクヒン,0
506,2370002003887,登記記録の閉鎖等,0,2021-10-26,2021-10-18,有限会社丸大大学商店,,有限会社,宮城県,仙台市太白区,西多賀４丁目５－１７,,04,104,9820034,,,2021-10-18,清算の結了等,,,2015-10-05,1,,,,,マルダイダイガクショウテン,0
514,2400005005225,登記記録の閉鎖等,0,2021-10-26,2021-10-22,一般社団法人Ｈ．ｕ．Ｇ．ｐｌａｔ遠野,,その他の設立登記法人,岩手県,遠野市,松崎町駒木４地割１２０番５号,,03,208,0280545,,,2021-10-22,清算の結了等,,,2015-10-05,1,,,,,ハグプラッツトオノ,0
519,2430001047458,登記記録の閉鎖等,0,2021-10-26,2021-10-21,株式会社吉井快生堂,,株式会社,北海道,夕張市,清水沢３丁目９１番地,,01,209,0680531,,,2021-10-21,清算の結了等,,,2015-10-05,1,,,,,ヨシイカイセイドウ,0
578,3010902012056,登記記録の閉鎖等,0,2021-10-26,2021-10-25,有限会社花一輪,,有限会社,東京都,世田谷区,船橋６丁目２６番１１－１０１号,,13,112,1560055,,,2021-10-25,清算の結了等,,,2015-10-05,1,,,,,ハナイチリン,0
630,3030001040857,登記記録の閉鎖等,0,2021-10-26,2021-10-18,株式会社セントラルオート,,株式会社,埼玉県,八潮市,大字八條１１７９番地,,11,234,3400801,,,2021-10-18,清算の結了等,,,2015-10-05,1,,,,,セントラルオート,0
641,3030003001452,登記記録の閉鎖等,0,2021-10-26,2021-10-18,合同会社ビーンズ・ネットワークス,,合同会社,埼玉県,入間市,東藤沢６丁目２３番１４号メーゾン狭山ヶ丘１０２,,11,225,3580012,,,2021-10-18,清算の結了等,,,2015-10-05,1,,,,,ビーンズネットワークス,0
653,3050001003168,登記記録の閉鎖等,0,2021-10-26,2021-10-20,株式会社ハイプロリサーチ,,株式会社,茨城県,ひたちなか市,大字東石川１８３０番地の３,,08,221,3120052,,,2021-10-20,清算の結了等,,,2015-10-05,1,,,,,ハイプロリサーチ,0
662,3070001022562,登記記録の閉鎖等,0,2021-10-26,2021-10-20,株式会社タクト・プランニング,,株式会社,群馬県,太田市,鶴生田町８２７番地１,,10,205,3730008,,,2021-10-20,清算の結了等,,,2015-10-05,1,,,,,タクトプランニング,0
667,3070001036686,登記記録の閉鎖等,0,2021-10-26,2021-10-22,ＮＯＢＥＬＧＩＦＴ株式会社,,株式会社,群馬県,伊勢崎市,除ケ町３１３番地２グレイスＡ２０１,,10,204,3720832,,,2021-10-22,清算の結了等,,,2020-03-23,1,,,,,ノーベルギフト,0
691,3110003002673,登記記録の閉鎖等,0,2021-10-26,2021-10-21,合同会社佐藤商店,,合同会社,新潟県,新潟市中央区,桜木町３番１３号,,15,103,9500949,,,2021-10-21,清算の結了等,,,2015-10-05,1,,,,,サトウショウテン,0
715,3120002005651,登記記録の閉鎖等,0,2021-10-26,2021-10-21,有限会社粧材技研,,有限会社,大阪府,大阪市平野区,流町３丁目１９番４－４０１号,,27,126,5470032,,,2021-10-21,清算の結了等,,,2015-10-05,1,,,,,ショウザイギケン,0
724,3120101057461,登記記録の閉鎖等,0,2021-10-26,2021-10-22,可谷生物科技株式会社,,株式会社,大阪府,羽曳野市,学園前１丁目１番３４号,,27,222,5830868,,,2021-10-22,清算の結了等,,,2017-12-05,1,,,,,カヤセイブツカギ,0
727,3120105004666,登記記録の閉鎖等,0,2021-10-26,2021-10-20,特定非営利活動法人コスモス,,その他の設立登記法人,大阪府,堺市南区,茶山台２丁３番１３－２０３号,,27,145,5900115,,,2021-10-20,清算の結了等,,,2015-10-05,1,,,,,コスモス,0
732,3140001112901,登記記録の閉鎖等,0,2021-10-26,2021-10-21,株式会社まうなケア,,株式会社,兵庫県,姫路市,兼田８１３番地１６８,,28,201,6728001,,,2021-10-21,清算の結了等,,,2019-03-06,1,,,,,マウナケア,0
758,3180002023879,登記記録の閉鎖等,0,2021-10-26,2021-10-21,有限会社田中板金工作所,,有限会社,愛知県,名古屋市西区,中小田井３丁目８２番地,,23,104,4520822,,,2021-10-21,清算の結了等,,,2015-10-05,1,,,,,タナカバンキンコウサクショ,0
760,3180002046979,登記記録の閉鎖等,0,2021-10-26,2021-10-21,有限会社ディ・エフ・エス,,有限会社,愛知県,名古屋市天白区,池場２丁目１００２番地－２,,23,116,4680055,,,2021-10-21,清算の結了等,,,2015-10-05,1,,,,,ディエフエス,0
768,3190001007279,登記記録の閉鎖等,0,2021-10-26,2021-10-25,株式会社パールサービス北珠,,株式会社,三重県,伊勢市,岩渕１丁目１番３号,,24,203,5160037,,,2021-10-25,清算の結了等,,,2015-10-05,1,,,,,,0
782,3260001026412,登記記録の閉鎖等,0,2021-10-26,2021-10-22,株式会社倉敷学童保育サポートセンター,,株式会社,岡山県,倉敷市,中島７６０番地１,,33,202,7100803,,,2021-10-22,清算の結了等,,,2015-10-05,1,,,,,クラシキガクドウホイクサポートセンター,0
788,3280002011304,登記記録の閉鎖等,0,2021-10-26,2021-10-22,有限会社里熊亭,,有限会社,島根県,雲南市,木次町里方６０６番地１,,32,209,6991311,,,2021-10-22,清算の結了等,,,2015-10-05,1,,,,,サトクマテイ,0
789,3290001010909,登記記録の閉鎖等,0,2021-10-26,2021-10-19,陽光株式会社,,株式会社,福岡県,福岡市中央区,渡辺通４丁目９番１８号,,40,133,8100004,,,2021-10-19,清算の結了等,,,2015-10-05,1,,,,,ヨウコウ,0
796,3290002027027,登記記録の閉鎖等,0,2021-10-26,2021-10-18,有限会社九州ワラテック,,有限会社,福岡県,福岡市早良区,有田８丁目１８番１２－５０４号,,40,137,8140033,,,2021-10-18,清算の結了等,,,2015-10-05,1,,,,,キュウシュウワラテック,0
802,3290802007780,登記記録の閉鎖等,0,2021-10-26,2021-10-13,河口海運有限会社,,有限会社,福岡県,北九州市戸畑区,北鳥旗町９番１５号,,40,105,8040075,,,2021-10-13,清算の結了等,,,2015-10-05,1,,,,,カワグチカイウン,0
817,3360002005082,登記記録の閉鎖等,0,2021-10-26,2021-10-20,トキワ商会有限会社,,有限会社,沖縄県,那覇市,山下町４番２６号,,47,201,9000027,,,2021-10-20,清算の結了等,,,2015-10-05,1,,,,,トキワショウカイ,0
821,3370002018785,登記記録の閉鎖等,0,2021-10-26,2021-10-18,有限会社ワイ・シー・エス,,有限会社,宮城県,富谷市,成田５丁目４番地２,,04,216,9813341,,,2021-10-18,清算の結了等,,,2015-10-05,1,,,,,ワイシーエス,0
825,3400002008213,登記記録の閉鎖等,0,2021-10-26,2021-10-22,有限会社菅伸製作所,,有限会社,岩手県,花巻市,藤沢町２２９番地,,03,205,0250096,,,2021-10-22,清算の結了等,,,2015-10-05,1,,,,,スガシンセイサクショ,0
858,4010401029666,登記記録の閉鎖等,0,2021-10-26,2021-10-21,森乳コミュニケーション株式会社,,株式会社,東京都,港区,芝５丁目３３番１号,,13,103,1080014,,,2021-10-21,合併による解散等,5013201006363,令和３年１０月１日東京都目黒区目黒四丁目４番２２号株式会社森永乳業ビジネスサービス（5013201006363）に合併し解散,2015-10-05,1,,,,,モリニュウコミュニケーション,0
883,4010901002908,登記記録の閉鎖等,0,2021-10-26,2021-10-22,株式会社ガレーヂミト,,株式会社,東京都,世田谷区,下馬４丁目１９番５号,,13,112,1540002,,,2021-10-22,清算の結了等,,,2015-10-05,1,,,,,ガレーヂミト,0
936,4030002005718,登記記録の閉鎖等,0,2021-10-26,2021-10-18,ザ・マネーインジャパン有限会社,,有限会社,埼玉県,さいたま市浦和区,常盤７丁目１６番２２号,,11,107,3300061,,,2021-10-18,清算の結了等,,,2015-10-05,1,,,,,ザマネーインジャパン,0
944,4040001074622,登記記録の閉鎖等,0,2021-10-26,2021-10-07,株式会社榎本冷機,,株式会社,千葉県,館山市,長須賀３４８番地,,12,205,2940037,,,2021-10-07,清算の結了等,,,2015-10-05,1,,,,,エノモトレイキ,0
946,4040001099735,登記記録の閉鎖等,0,2021-10-26,2021-10-14,Ｓｍｉｌｅ　Ｌｉｎｋ株式会社,,株式会社,千葉県,千葉市花見川区,幕張町６丁目２６０番１０,,12,102,2620032,,,2021-10-14,清算の結了等,,,2017-04-18,1,,,,,スマイルリンク,0
951,4050002024617,登記記録の閉鎖等,0,2021-10-26,2021-10-20,有限会社スリージェイ,,有限会社,茨城県,古河市,小堤１７８３番地,,08,204,3060231,,,2021-10-20,清算の結了等,,,2015-10-05,1,,,,,スリージェイ,0
957,4060002009328,登記記録の閉鎖等,0,2021-10-26,2021-10-20,有限会社友進工芸,,有限会社,栃木県,宇都宮市,下戸祭２丁目８番１号,,09,201,3200055,,,2021-10-20,清算の結了等,,,2021-10-07,1,,,,,ユウシンコウゲイ,0
974,4120001036845,登記記録の閉鎖等,0,2021-10-26,2021-10-25,株式会社ヨシノ,,株式会社,大阪府,大阪市福島区,野田２丁目８番１５号,,27,103,5530005,,,2021-10-25,清算の結了等,,,2015-10-05,1,,,,,ヨシノ,0
999,4120005004872,登記記録の閉鎖等,0,2021-10-26,2021-10-04,医療法人医星会,,その他の設立登記法人,大阪府,大阪市生野区,巽北３丁目１４番１７号,00031854,27,116,5440004,,,2021-10-04,合併による解散等,8130005014818,令和３年１０月１日京都府京丹後市大宮町周枳１９７５番地ミックビル２Ｆ医療法人栄寿会（8130005014818）に合併し解散,2015-10-05,1,,,,,,0
1008,4130005014904,登記記録の閉鎖等,0,2021-10-26,2021-10-22,ＮＰＯ法人京の美,,その他の設立登記法人,京都府,京都市北区,上賀茂岩ケ垣内町９８－６もえぎ館３階,,26,101,6038053,,,2021-10-22,清算の結了等,,,2017-04-06,1,,,,,キョウノビ,0
1037,4180301014545,登記記録の閉鎖等,0,2021-10-26,2021-10-20,株式会社明文堂書店,,株式会社,愛知県,刈谷市,広小路４丁目２０９番地１,,23,210,4480844,,,2021-10-20,清算の結了等,,,2020-07-21,1,,,,,メイブンドウショテン,0
1056,4290001080513,登記記録の閉鎖等,0,2021-10-26,2021-10-11,株式会社ネム,,株式会社,福岡県,福岡市博多区,祇園町８－１２ロータリー大和６２８,,40,132,8120038,,,2021-10-11,清算の結了等,,,2018-02-13,1,,,,,ネム,0
1063,4290802018991,登記記録の閉鎖等,0,2021-10-26,2021-10-08,有限会社考研,,有限会社,福岡県,北九州市若松区,片山１丁目４番８号,,40,103,8080106,,,2021-10-08,清算の結了等,,,2015-10-05,1,,,,,コウケン,0
1067,4310005001999,登記記録の閉鎖等,0,2021-10-26,2021-10-21,特定非営利活動法人おなかの赤ちゃんヘルプライン,,その他の設立登記法人,長崎県,長崎市,中園町５番８号中園ビル１階１０２号,,42,201,8528155,,,2021-10-21,清算の結了等,,,2015-10-05,1,,,,,オナカノアカチャンヘルプライン,0
1078,4370002006665,登記記録の閉鎖等,0,2021-10-26,2021-10-15,有限会社アルミ佐藤,,有限会社,宮城県,仙台市宮城野区,蒲生字原屋敷２６番地の２,,04,102,9830002,,,2021-10-15,清算の結了等,,,2015-10-05,1,,,,,アルミサトウ,0
1105,5010001076463,登記記録の閉鎖等,0,2021-10-26,2021-10-19,中央酒販株式会社,,株式会社,東京都,千代田区,内神田２丁目１４番１３号,,13,101,1010047,,,2021-10-19,清算の結了等,,,2015-10-05,1,,,,,チュウオウシュハン,0
1110,5010001193812,登記記録の閉鎖等,0,2021-10-26,2021-10-21,株式会社ＣＯＣＯＩＫＵ,,株式会社,神奈川県,横須賀市,久里浜４丁目１３番６号,,14,201,2390831,,,2021-10-21,清算の結了等,,,2018-08-03,1,,,,,ココイク,0
1121,5010401054928,登記記録の閉鎖等,0,2021-10-26,2021-10-22,株式会社ユラス,,株式会社,東京都,新宿区,住吉町７番１２号,,13,104,1620065,,,2021-10-22,清算の結了等,,,2015-10-05,1,,,,,ユラス,0
1134,5010701020167,登記記録の閉鎖等,0,2021-10-26,2021-10-21,株式会社オーディン・ピクチャーズ,,株式会社,東京都,品川区,上大崎３丁目１０番５１－７０１号,,13,109,1410021,,,2021-10-21,合併による解散等,4013201001134,令和３年１０月１日東京都目黒区五本木一丁目１７番１２号榊原館１Ｆ株式会社オーディン（4013201001134）に合併し解散,2015-10-05,1,,,,,オーディンピクチャーズ,0
1143,5011001133254,登記記録の閉鎖等,0,2021-10-26,2021-10-01,株式会社ＤｅｌｉＢｅ,,株式会社,東京都,渋谷区,桜丘町１２－１０住友不動産渋谷インフォスアネックス１階,,13,113,1500031,,,2021-10-01,清算の結了等,,,2020-04-07,1,,,,,ディライブ,0
1151,5011202003280,登記記録の閉鎖等,0,2021-10-26,2021-10-21,有限会社スマイル,,有限会社,東京都,中野区,江古田４丁目２９番６号,,13,114,1650022,,,2021-10-21,清算の結了等,,,2015-10-05,1,,,,,スマイル,0
1158,5011501013187,登記記録の閉鎖等,0,2021-10-26,2021-10-19,株式会社オーテック,,株式会社,東京都,荒川区,東尾久１丁目１５番８号,,13,118,1160012,,,2021-10-19,清算の結了等,,,2015-10-05,1,,,,,オーテック,0
1173,5012701014529,登記記録の閉鎖等,0,2021-10-26,2021-10-22,小檜山トレーディング株式会社,,株式会社,東京都,清瀬市,元町１丁目７番１６号,,13,221,2040021,,,2021-10-22,清算の結了等,,,2017-10-26,1,,,,,コヒヤマトレーディング,0
1176,5013202012303,登記記録の閉鎖等,0,2021-10-26,2021-10-11,有限会社スマイリング,,有限会社,東京都,目黒区,上目黒２丁目１２番５号,,13,110,1530051,,,2021-10-11,清算の結了等,,,2015-10-05,1,,,,,スマイリング,0
1182,5013401005017,登記記録の閉鎖等,0,2021-10-26,2021-10-15,株式会社ボルテックスシステム,,株式会社,東京都,日野市,多摩平１丁目５番地８,,13,212,1910062,,,2021-10-15,清算の結了等,,,2015-10-05,1,,,,,,0
1190,5020002019932,登記記録の閉鎖等,0,2021-10-26,2021-10-21,有限会社又村果実店,,有限会社,神奈川県,横浜市港南区,上大岡西１丁目１５番１－２６０７号,,14,111,2330002,,,2021-10-21,清算の結了等,,,2015-10-05,1,,,,,マタムラカジツテン,0
1197,5021001050300,登記記録の閉鎖等,0,2021-10-26,2021-10-21,株式会社ＫＲＣ,,株式会社,神奈川県,横須賀市,芦名２丁目１８番１９号,,14,201,2400104,,,2021-10-21,清算の結了等,,,2015-10-05,1,,,,,ケーアールシー,0
1221,5040001031928,登記記録の閉鎖等,0,2021-10-26,2021-10-18,株式会社菊地工務店,,株式会社,千葉県,市川市,柏井町２丁目４８番地７,,12,203,2720802,,,2021-10-18,清算の結了等,,,2015-10-05,1,,,,,キクチコウムテン,0
1229,5050001003042,登記記録の閉鎖等,0,2021-10-26,2021-10-20,株式会社ビームトロン,,株式会社,茨城県,東茨城郡城里町,大字上青山２９８番地１,,08,310,3114305,,,2021-10-20,清算の結了等,,,2015-10-05,1,,,,,,0
1234,5050001023783,登記記録の閉鎖等,0,2021-10-26,2021-10-20,株式会社名匠建設,,株式会社,茨城県,日立市,神田町９４１番地,,08,202,3191233,,,2021-10-20,清算の結了等,,,2015-10-05,1,,,,,メイショウケンセツ,0
1261,5120001051447,登記記録の閉鎖等,0,2021-10-26,2021-10-22,株式会社鍜治商店,,株式会社,大阪府,大阪市東淀川区,柴島２丁目１０番６号,,27,114,5330024,,,2021-10-22,清算の結了等,,,2015-10-05,1,,,,,カジショウテン,0
1262,5120001108692,登記記録の閉鎖等,0,2021-10-26,2021-10-21,株式会社ウイン・ウイン,,株式会社,大阪府,大阪市淀川区,東三国１丁目１４番１８号,,27,123,5320002,,,2021-10-21,清算の結了等,,,2015-10-05,1,,,,,ウインウイン,0
1275,5120101035473,登記記録の閉鎖等,0,2021-10-26,2021-10-25,株式会社松美堂印刷,,株式会社,大阪府,藤井寺市,岡１丁目２番７号,,27,226,5830027,,,2021-10-25,清算の結了等,,,2015-10-05,1,,,,,ショウビドウインサツ,0
1281,5122001029241,登記記録の閉鎖等,0,2021-10-26,2021-10-21,アイ＆ユウ株式会社,,株式会社,大阪府,東大阪市,小阪本町１丁目１番２９号,,27,227,5770802,,,2021-10-21,清算の結了等,,,2016-01-26,1,,,,,アイアンドユウ,0
1300,5180001023837,登記記録の閉鎖等,0,2021-10-26,2021-10-21,株式会社辰己モータース,,株式会社,愛知県,名古屋市天白区,島田５丁目８１０番地,,23,116,4680056,,,2021-10-21,清算の結了等,,,2015-10-05,1,,,,,タツミモータース,0
1305,5180003014297,登記記録の閉鎖等,0,2021-10-26,2021-10-22,合同会社ＣＲＥＡＴＥ　ＰＬＵＳ,,合同会社,愛知県,名古屋市千種区,内山３丁目１０番１７号今池セントラルビル３階,,23,101,4640075,,,2021-10-22,清算の結了等,,,2015-10-05,1,,,,,クリエイトプラス,0
1308,5180301024700,登記記録の閉鎖等,0,2021-10-26,2021-10-22,株式会社内田内装,,株式会社,愛知県,安城市,福釜町道田７番地,,23,212,4460052,,,2021-10-22,清算の結了等,,,2015-10-05,1,,,,,ウチダナイソウ,0
1312,5180302018362,登記記録の閉鎖等,0,2021-10-26,2021-10-22,有限会社柴田木型製作所,,有限会社,愛知県,刈谷市,御幸町７丁目７０９番地,,23,210,4480821,,,2021-10-22,清算の結了等,,,2015-10-05,1,,,,,シバタキガタセイサクショ,0
1321,5280001007012,登記記録の閉鎖等,0,2021-10-26,2021-10-25,株式会社ＡＫ商事,,株式会社,島根県,松江市,春日町２８０番地１サーパス春日１０９,,32,201,6900877,,,2021-10-25,清算の結了等,,,2015-10-05,1,,,,,エイケイショウジ,0
1345,5370001012242,登記記録の閉鎖等,0,2021-10-26,2021-10-15,株式会社エルエー,,株式会社,宮城県,仙台市宮城野区,小田原１丁目６番３５号,,04,102,9830803,,,2021-10-15,清算の結了等,,,2015-10-05,1,,,,,エルエー,0
1347,5370002013074,登記記録の閉鎖等,0,2021-10-26,2021-10-15,有限会社ビッグデザイン,,有限会社,宮城県,仙台市青葉区,本町２丁目９番２０号大永ビル４０１号,,04,101,9800014,,,2021-10-15,清算の結了等,,,2015-10-05,1,,,,,ビッグデザイン,0
1352,5400001007073,登記記録の閉鎖等,0,2021-10-26,2021-10-25,株式会社上田建設,,株式会社,岩手県,下閉伊郡岩泉町,門字日影名目利７番地２,,03,483,0285641,,,2021-10-25,清算の結了等,,,2019-07-05,1,,,,,ウエダケンセツ,0
1363,5470002009814,登記記録の閉鎖等,0,2021-10-26,2021-10-22,さかえ商事有限会社,,有限会社,香川県,高松市,香川町浅野２２３３番地４３,,37,201,7611703,,,2021-10-22,清算の結了等,,,2015-10-05,1,,,,,サカエショウジ,0
1368,6010001106566,登記記録の閉鎖等,0,2021-10-26,2021-10-08,株式会社ジュリス・キャタリスト,,株式会社,東京都,渋谷区,神宮前４丁目１８番１７号インペリアル表参道２０９号,,13,113,1500001,,,2021-10-08,清算の結了等,,,2015-10-05,1,,,,,ジュリスキャタリスト,0
1369,6010001156818,登記記録の閉鎖等,0,2021-10-26,2021-10-20,株式会社メゾンドキタガワ,,株式会社,東京都,中央区,佃１丁目１１番９－７０９号,,13,102,1040051,,,2021-10-20,清算の結了等,,,2015-10-05,1,,,,,メゾンドキタガワ,0
1392,6010601047879,登記記録の閉鎖等,0,2021-10-26,2021-10-13,ＡＰＬ株式会社,,株式会社,東京都,江東区,亀戸７丁目２番８号ワコー６０３号,,13,108,1360071,,,2021-10-13,清算の結了等,,,2015-10-05,1,,,,,エーピーエル,0
1397,6010801008169,登記記録の閉鎖等,0,2021-10-26,2021-10-20,株式会社エバーイーストエステート,,株式会社,東京都,大田区,大森西２丁目１７番８号,,13,111,1430015,,,2021-10-20,清算の結了等,,,2015-10-05,1,,,,,エバーイーストエステート,0
1423,6011301004724,登記記録の閉鎖等,0,2021-10-26,2021-10-25,株式会社トップス,,株式会社,東京都,杉並区,荻窪５丁目２７番８号第一荻窪ビル,,13,115,1670051,,,2021-10-25,清算の結了等,,,2015-10-05,1,,,,,トップス,0
1439,6012401033869,登記記録の閉鎖等,0,2021-10-26,2021-10-19,株式会社シルレイ・ジャパン,,株式会社,東京都,武蔵野市,吉祥寺本町２丁目１０番７号,,13,203,1800004,,,2021-10-19,清算の結了等,,,2018-04-16,1,,,,,シルレイジャパン,0
1450,6020002000684,登記記録の閉鎖等,0,2021-10-26,2021-10-19,有限会社服部製作所,,有限会社,神奈川県,横浜市栄区,飯島町２４４４番地,,14,115,2440842,,,2021-10-19,清算の結了等,,,2015-10-05,1,,,,,,0
1456,6021002057335,登記記録の閉鎖等,0,2021-10-26,2021-10-22,有限会社加藤測量設計,00013739,有限会社,神奈川県,平塚市,横内１９９６番地の２,,14,203,2540002,,,2021-10-22,清算の結了等,,,2015-10-05,1,,,,,カトウソクリョウセッケイ,0
1484,6060002005399,登記記録の閉鎖等,0,2021-10-26,2021-10-21,有限会社高橋砿油,00024270,有限会社,栃木県,宇都宮市,吉野１丁目６番１５号,,09,201,3200838,,,2021-10-21,清算の結了等,,,2015-10-05,1,,,,,タカハシコウユ,0
1503,6110005005515,登記記録の閉鎖等,0,2021-10-26,2021-10-21,医療法人社団田中医院,,その他の設立登記法人,新潟県,三条市,元町１番４５号,,15,204,9550072,,,2021-10-21,清算の結了等,,,2015-10-05,1,,,,,タナカイイン,0
1506,6120001071551,登記記録の閉鎖等,0,2021-10-26,2021-10-22,山本産業株式会社,,株式会社,大阪府,大阪市西淀川区,佃５丁目８番１３号,,27,113,5550001,,,2021-10-22,清算の結了等,,,2015-10-05,1,,,,,ヤマモトサンギョウ,0
1516,6120002081450,登記記録の閉鎖等,0,2021-10-26,2021-10-21,有限会社中村製作所,,有限会社,大阪府,守口市,橋波西之町３丁目９番５号,,27,209,5700039,,,2021-10-21,清算の結了等,,,2015-10-05,1,,,,,ナカムラセイサクショ,0
1544,6140001002455,登記記録の閉鎖等,0,2021-10-26,2021-10-18,株式会社ペリカセブン,,株式会社,兵庫県,神戸市東灘区,深江浜町１４２番地,,28,101,6580023,,,2021-10-18,清算の結了等,,,2016-05-09,1,,,,,ペリカセブン,0
1565,6180001124139,登記記録の閉鎖等,0,2021-10-26,2021-10-12,株式会社ＭＲ,,株式会社,東京都,港区,浜松町１丁目１１番９号,,13,103,1050013,,,2021-10-12,清算の結了等,,,2016-07-22,1,,,,,,0
1578,6180302022751,登記記録の閉鎖等,0,2021-10-26,2021-10-21,有限会社ティディエス,,有限会社,愛知県,豊田市,御幸本町３丁目８４番地,,23,211,4730901,,,2021-10-21,清算の結了等,,,2015-10-05,1,,,,,ティディエス,0
1581,6190001014710,登記記録の閉鎖等,0,2021-10-26,2021-10-22,株式会社キョーワメタリックス,,株式会社,三重県,四日市市,高浜町９番７号,,24,202,5100026,,,2021-10-22,合併による解散等,3190001014705,令和３年１０月２１日三重県四日市市高浜町９番７号恭和工業株式会社（3190001014705）に合併し解散,2015-10-05,1,,,,,キョーワメタリックス,0
1583,6200001024311,登記記録の閉鎖等,0,2021-10-26,2021-10-22,株式会社河村産業,,株式会社,岐阜県,中津川市,福岡４０５３番地６,,21,206,5080203,,,2021-10-22,清算の結了等,,,2015-10-05,1,,,,,カワムラサンギョウ,0
1588,6200005008112,登記記録の閉鎖等,0,2021-10-26,2021-10-22,特定非営利活動法人ヒューマンマネージメントサポートセンター,,その他の設立登記法人,岐阜県,岐阜市,西鶉１丁目５２番地,,21,201,5008286,,,2021-10-22,清算の結了等,,,2015-10-05,1,,,,,ヒューマンマネージメントサポートセンター,0
1593,6230001010515,登記記録の閉鎖等,0,2021-10-26,2021-10-20,東栄ホーム株式会社,,株式会社,富山県,高岡市,旭ケ丘４６番地の３０,,16,202,9330000,,,2021-10-20,清算の結了等,,,2015-10-05,1,,,,,トウエイホーム,0
1602,6260001032226,登記記録の閉鎖等,0,2021-10-26,2021-10-25,株式会社日道工業,,株式会社,岡山県,倉敷市,片島町８７９番地２,,33,202,7100805,,,2021-10-25,清算の結了等,,,2018-07-12,1,,,,,ニチドウコウギョウ,0
1615,6290801006434,登記記録の閉鎖等,0,2021-10-26,2021-10-12,株式会社アソシエ,,株式会社,福岡県,北九州市戸畑区,正津町１０番１１号,,40,105,8040063,,,2021-10-12,清算の結了等,,,2015-10-05,1,,,,,アソシエ,0
1669,7010401057152,登記記録の閉鎖等,0,2021-10-26,2021-10-11,ＪＬＣエンタープライズ株式会社,,株式会社,東京都,港区,六本木５丁目１６番７号,,13,103,1060032,,,2021-10-11,清算の結了等,,,2015-10-05,1,,,,,ジェイエルシーエンタープライズ,0
1670,7010401066574,登記記録の閉鎖等,0,2021-10-26,2021-10-11,株式会社クレセントツアーズ,,株式会社,東京都,港区,芝４丁目１６番２号,,13,103,1080014,,,2021-10-11,清算の結了等,,,2015-10-05,1,,,,,クレセントツアーズ,0
1673,7010401082638,登記記録の閉鎖等,0,2021-10-26,2021-10-20,株式会社プロマックス・アドバイザリー,,株式会社,東京都,千代田区,九段南４丁目２－１１アビスタ市ヶ谷ビル３階,,13,101,1020074,,,2021-10-20,清算の結了等,,,2015-10-05,1,,,,,プロマックスアドバイザリー,0
1675,7010401107254,登記記録の閉鎖等,0,2021-10-26,2021-10-11,株式会社Ｇｒｏｕｎｄ　Ｓｐａｃｅ,,株式会社,東京都,港区,港南４丁目６番５－３５０４号,,13,103,1080075,,,2021-10-11,清算の結了等,,,2015-10-05,1,,,,,グランドスペース,0
1684,7010401135156,登記記録の閉鎖等,0,2021-10-26,2021-10-12,株式会社ＮＤＶ,,株式会社,東京都,港区,六本木４丁目２番３５号,,13,103,1060032,,,2021-10-12,清算の結了等,,,2017-11-22,1,,,,,,0
1694,7010602010926,登記記録の閉鎖等,0,2021-10-26,2021-10-12,有限会社鹿田製作所,,有限会社,東京都,墨田区,本所３丁目８番１３号,,13,107,1300004,,,2021-10-12,清算の結了等,,,2015-10-05,1,,,,,シカダセイサクショ,0
1697,7010701019067,登記記録の閉鎖等,0,2021-10-26,2021-10-12,株式会社レナウンアパレル科学研究所,,株式会社,東京都,江東区,有明３丁目６番１１号ＴＦＴビル東館６階,,13,108,1350063,,,2021-10-12,清算の結了等,,,2015-10-05,1,,,,,レナウンアパレルカガクケンキュウショ,0
1716,7011501015594,登記記録の閉鎖等,0,2021-10-26,2021-10-19,株式会社オールワン,,株式会社,東京都,豊島区,駒込１丁目３８番２号５階,,13,116,1700003,,,2021-10-19,清算の結了等,,,2015-10-05,1,,,,,オールワン,0
1731,7012401031789,登記記録の閉鎖等,0,2021-10-26,2021-10-19,株式会社ビーイズム,,株式会社,東京都,稲城市,坂浜２９１３番地の６,,13,225,2060822,,,2021-10-19,清算の結了等,,,2016-08-29,1,,,,,ビーイズム,0
1748,7020002062542,登記記録の閉鎖等,0,2021-10-26,2021-10-20,有限会社三和精工,,有限会社,神奈川県,横浜市港北区,樽町２丁目２番４１－４０３号,,14,109,2220001,,,2021-10-20,清算の結了等,,,2015-10-05,1,,,,,サンワセイコウ,0
1766,7030001018370,登記記録の閉鎖等,0,2021-10-26,2021-10-18,黒須建設株式会社,,株式会社,埼玉県,蓮田市,御前橋２丁目３番３４号,,11,238,3490125,,,2021-10-18,清算の結了等,,,2015-10-05,1,,,,,,0
1767,7030001018569,登記記録の閉鎖等,0,2021-10-26,2021-10-18,株式会社ジーピーエス,,株式会社,埼玉県,さいたま市岩槻区,大字末田９４２番地の１,,11,110,3390021,,,2021-10-18,清算の結了等,,,2015-10-05,1,,,,,ジーピーエス,0
1776,7030001090650,登記記録の閉鎖等,0,2021-10-26,2021-10-12,株式会社アオノ,,株式会社,埼玉県,秩父市,下影森４０４番地,,11,207,3691871,,,2021-10-12,清算の結了等,,,2019-03-26,1,,,,,アオノ,0
1783,7030002036917,登記記録の閉鎖等,0,2021-10-26,2021-10-18,有限会社ピース関,,有限会社,埼玉県,狭山市,大字北入曽１５０８番地の５５フラワーヒル７５－７,,11,215,3501315,,,2021-10-18,清算の結了等,,,2015-10-05,1,,,,,ピースセキ,0
1786,7030002097348,登記記録の閉鎖等,0,2021-10-26,2021-10-18,有限会社角山安藤製作所,,有限会社,埼玉県,比企郡小川町,大字角山２５１番地４,,11,343,3550316,,,2021-10-18,清算の結了等,,,2015-10-05,1,,,,,カクヤマアンドウセイサクジョ,0
1787,7030002106793,登記記録の閉鎖等,0,2021-10-26,2021-10-18,有限会社報恩社,,有限会社,埼玉県,川口市,南町１丁目３番４号,,11,203,3320026,,,2021-10-18,清算の結了等,,,2015-10-05,1,,,,,ホウオンシャ,0
1803,7050002030182,登記記録の閉鎖等,0,2021-10-26,2021-10-20,有限会社石川羽黒木材,,有限会社,茨城県,日立市,諏訪町１丁目１３番１３号,,08,202,3160001,,,2021-10-20,清算の結了等,,,2015-10-05,1,,,,,イシカワハグロモクザイ,0
1817,7100003005723,登記記録の閉鎖等,0,2021-10-26,2021-10-25,合同会社まうくる,,合同会社,長野県,安曇野市,豊科高家１１３７番地９２,,20,220,3998204,,,2021-10-25,清算の結了等,,,2020-07-01,1,,,,,マウクル,0
1823,7110002001284,登記記録の閉鎖等,0,2021-10-26,2021-10-22,有限会社エムテーサービス,,有限会社,新潟県,新潟市中央区,上近江２丁目４番１３号,,15,103,9500973,,,2021-10-22,清算の結了等,,,2015-10-05,1,,,,,エムテーサービス,0
1826,7120001047591,登記記録の閉鎖等,0,2021-10-26,2021-10-21,丸一商工株式会社,,株式会社,大阪府,大阪市此花区,西九条５丁目４番４５号,,27,104,5540012,,,2021-10-21,合併による解散等,2120001065680,令和３年１０月２１日大阪市此花区西九条五丁目４番４５号新旭株式会社（2120001065680）に合併し解散,2015-10-05,1,,,,,マルイチショウコウ,0
1845,7120901034904,登記記録の閉鎖等,0,2021-10-26,2021-10-22,株式会社ミヨシホーム,,株式会社,大阪府,吹田市,広芝町３－２９,,27,205,5640052,,,2021-10-22,清算の結了等,,,2015-10-05,1,,,,,ミヨシホーム,0
1847,7122001034958,登記記録の閉鎖等,0,2021-10-26,2021-10-22,株式会社リユースクリエイト,,株式会社,大阪府,東大阪市,荒本新町３－４ＳＥＩＫＯビル５０２,,27,227,5770022,,,2021-10-22,清算の結了等,,,2021-07-06,1,,,,,リユースクリエイト,0
1851,7140001036972,登記記録の閉鎖等,0,2021-10-26,2021-10-22,株式会社蕾工作所,,株式会社,兵庫県,明石市,大久保町八木４２６番地の２０,,28,203,6740063,,,2021-10-22,清算の結了等,,,2015-10-05,1,,,,,ツボミコウサクショ,0
1858,7140002054049,登記記録の閉鎖等,0,2021-10-26,2021-10-20,有限会社ステップ,,有限会社,兵庫県,姫路市,飾磨区野田町１８５番地愛犬ビル,,28,201,6728040,,,2021-10-20,清算の結了等,,,2015-10-05,1,,,,,ステップ,0
1864,7150002010991,登記記録の閉鎖等,0,2021-10-26,2021-10-20,野原土地開発有限会社,,有限会社,奈良県,五條市,野原中１丁目４番１８号,,29,207,6370037,,,2021-10-20,清算の結了等,,,2015-10-05,1,,,,,ノハラトチカイハツ,0
1888,7190001023322,登記記録の閉鎖等,0,2021-10-26,2021-10-20,株式会社Ｄｒｅａｍ　Ｉｎｎｏｖａｔｉｏｎ,,株式会社,大阪府,大阪市西区,新町１丁目２９番１６号,,27,106,5500013,,,2021-10-20,清算の結了等,,,2016-01-07,1,,,,,ドリームイノベーション,0
1889,7190002006185,登記記録の閉鎖等,0,2021-10-26,2021-10-22,有限会社かねまさ,,有限会社,三重県,鈴鹿市,南江島町１２番２４号,,24,207,5100235,,,2021-10-22,清算の結了等,,,2015-10-05,1,,,,,カネマサ,0
1909,7290001002828,登記記録の閉鎖等,0,2021-10-26,2021-10-19,株式会社神屋商事,,株式会社,福岡県,福岡市東区,塩浜１丁目１番１号,,40,131,8110203,,,2021-10-19,清算の結了等,,,2015-10-05,1,,,,,カミヤショウジ,0
1940,7370201002710,登記記録の閉鎖等,0,2021-10-26,2021-10-18,株式会社商用社,,株式会社,宮城県,富谷市,富谷北裏５５番地,,04,216,9813311,,,2021-10-18,清算の結了等,,,2015-10-05,1,,,,,ショウヨウシャ,0
1955,7470001011166,登記記録の閉鎖等,0,2021-10-26,2021-10-22,株式会社片山組,,株式会社,香川県,さぬき市,津田町津田２１２３番地６,,37,206,7692401,,,2021-10-22,清算の結了等,,,2015-10-05,1,,,,,,0
1982,8010403015545,登記記録の閉鎖等,0,2021-10-26,2021-10-12,合同会社ＳＳインベストメント,,合同会社,東京都,港区,虎ノ門２丁目１０番１号ストラテジック・パートナーズ株式会社内,,13,103,1050001,,,2021-10-12,清算の結了等,,,2016-11-01,1,,,,,エスエスインベストメント,0
1993,8010701021765,登記記録の閉鎖等,0,2021-10-26,2021-10-12,株式会社レナウンエージェンシー,,株式会社,東京都,江東区,有明３丁目６番１１号ＴＦＴビル東館６階,,13,108,1350063,,,2021-10-12,清算の結了等,,,2015-10-05,1,,,,,レナウンエージェンシー,0
2006,8011002004591,登記記録の閉鎖等,0,2021-10-26,2021-10-08,有限会社コア・ルーム,,有限会社,東京都,渋谷区,本町１丁目７番１６号,,13,113,1510071,,,2021-10-08,清算の結了等,,,2015-10-05,1,,,,,コアルーム,0
2007,8011005000101,登記記録の閉鎖等,0,2021-10-26,2021-10-22,公益社団法人日本クラフトデザイン協会,,その他の設立登記法人,島根県,出雲市,斐川町直江１１２３番地,,32,203,6990631,,,2021-10-22,清算の結了等,,,2015-10-05,1,,,,,ニホンクラフトデザインキョウカイ,0
2019,8011702010402,登記記録の閉鎖等,0,2021-10-26,2021-10-14,有限会社星工務店,,有限会社,東京都,江戸川区,南小岩２丁目１番１０号,,13,123,1330056,,,2021-10-14,清算の結了等,,,2015-10-05,1,,,,,ホシコウムテン,0
2035,8012801006571,登記記録の閉鎖等,0,2021-10-26,2021-10-18,株式会社ＭＯＣＨＡ,,株式会社,東京都,立川市,柴崎町３丁目５番９号,,13,202,1900023,,,2021-10-18,清算の結了等,,,2015-10-05,1,,,,,モカ,0
2041,8020001001698,登記記録の閉鎖等,0,2021-10-26,2021-10-21,株式会社三橋建材,,株式会社,神奈川県,横浜市瀬谷区,阿久和南２丁目３０番地１５,,14,114,2460026,,,2021-10-21,清算の結了等,,,2015-10-05,1,,,,,ミツハシケンザイ,0
2042,8020001017959,登記記録の閉鎖等,0,2021-10-26,2021-10-20,大東タンクターミナル株式会社,,株式会社,神奈川県,横浜市鶴見区,大黒町１２番地６９,,14,101,2300053,,,2021-10-20,合併による解散等,1011101062340,令和３年１０月１日東京都新宿区市谷台町６番３号大東通商株式会社（1011101062340）に合併し解散,2015-10-05,1,,,,,ダイトウタンクターミナル,0
2043,8020001124301,登記記録の閉鎖等,0,2021-10-26,2021-10-13,株式会社せき弥,,株式会社,神奈川県,横浜市中区,野毛町２丁目９７番地,,14,104,2310064,,,2021-10-13,清算の結了等,,,2017-12-19,1,,,,,セキヤ,0
2059,8030002097132,登記記録の閉鎖等,0,2021-10-26,2021-10-18,有限会社第二小川,,有限会社,埼玉県,比企郡小川町,大字小川１６１９番地,,11,343,3550321,,,2021-10-18,清算の結了等,,,2015-10-05,1,,,,,ダイニオガワ,0
2082,8070002002633,登記記録の閉鎖等,0,2021-10-26,2021-10-22,有限会社椎名工務店,,有限会社,群馬県,前橋市,山王町１丁目３７番地２８,,10,201,3792123,,,2021-10-22,清算の結了等,,,2015-10-05,1,,,,,シイナコウムテン,0
2088,8070005005781,登記記録の閉鎖等,0,2021-10-26,2021-10-01,医療法人和み会,,その他の設立登記法人,群馬県,太田市,細谷町１４５７番地の５,,10,205,3730842,,,2021-10-01,合併による解散等,8070005002317,令和３年１０月１日群馬県高崎市矢島町４４９番地２医療法人社団醫光会（8070005002317）に合併し解散,2015-10-05,1,,,,,ナゴミカイ,0
2092,8080101008092,登記記録の閉鎖等,0,2021-10-26,2021-10-18,池田紙業株式会社,,株式会社,静岡県,富士市,久沢９６９番地の１,,22,210,4190202,,,2021-10-18,清算の結了等,,,2015-10-05,1,,,,,,0
2103,8120001005937,登記記録の閉鎖等,0,2021-10-26,2021-10-25,株式会社スキップハウス,,株式会社,大阪府,大阪市中央区,谷町７丁目３番４号新谷町第三ビル２１９号室,,27,128,5420012,,,2021-10-25,清算の結了等,,,2015-10-05,1,,,,,,0
2119,8120003009259,登記記録の閉鎖等,0,2021-10-26,2021-10-21,合同会社ＳＨＩＮＫＯＨ　Ｃｏｍｐａｎｙ,,合同会社,大阪府,大阪市中央区,道頓堀１丁目東５番３号カマルグ道頓堀ビル５０１,,27,128,5420071,,,2021-10-21,清算の結了等,,,2015-10-05,1,,,,,シンコーカンパニー,0
2124,8120105006922,登記記録の閉鎖等,0,2021-10-26,2021-09-27,金光教泉大津教会,,その他の設立登記法人,大阪府,泉大津市,神明町８番１２号,,27,206,5950064,,,2021-09-27,合併による解散等,7120105006923,令和３年９月２７日大阪府泉大津市松之浜町二丁目２３番５号金光教堺教会（7120105006923）に合併し解散,2015-10-05,1,,,,,コンコウキョウイズミオオツキョウカイ,0
2128,8122001016939,登記記録の閉鎖等,0,2021-10-26,2021-10-22,株式会社Ｌａｒｇｅ,,株式会社,大阪府,大東市,三箇１丁目２番３６号,,27,218,5740077,,,2021-10-22,清算の結了等,,,2015-10-05,1,,,,,,0
2159,8230001018804,登記記録の閉鎖等,0,2021-10-26,2021-10-20,株式会社Ｃｏｃｏ,,株式会社,富山県,黒部市,宇奈月温泉２１７番地９,,16,207,9380282,,,2021-10-20,清算の結了等,,,2021-04-30,1,,,,,ココ,0
2165,8240001053321,登記記録の閉鎖等,0,2021-10-26,2021-10-25,株式会社のぞみ,,株式会社,広島県,広島市安佐南区,川内６丁目３９番２０号,,34,105,7310102,,,2021-10-25,清算の結了等,,,2018-09-18,1,,,,,ノゾミ,0
2201,8320002010759,登記記録の閉鎖等,0,2021-10-26,2021-10-25,有限会社アネッセ,,有限会社,大分県,玖珠郡玖珠町,大字森１０００番地,,44,462,8794404,,,2021-10-25,清算の結了等,,,2015-10-05,1,,,,,アネッセ,0
2203,8330001012284,登記記録の閉鎖等,0,2021-10-26,2021-10-25,株式会社みよし写真工芸社,,株式会社,熊本県,阿蘇市,西町８３３番地４,,43,214,8692222,,,2021-10-25,清算の結了等,,,2015-10-05,1,,,,,ミヨシシャシンコウゲイシャ,0
2205,8330005007413,登記記録の閉鎖等,0,2021-10-26,2021-10-22,一般社団法人肥後＿啄塾,00098444,その他の設立登記法人,熊本県,熊本市中央区,南千反畑町１４番１号,,43,101,8600842,,,2021-10-22,清算の結了等,,,2015-10-05,1,,,,,ヒゴソッタクジュク,0
2222,8370403000156,登記記録の閉鎖等,0,2021-10-26,2021-10-22,合同会社とめ自然エネルギー,,合同会社,宮城県,登米市,登米町日野渡内の目２８９番地３,,04,212,9870704,,,2021-10-22,合併による解散等,1020001068356,令和３年１０月１日川崎市宮前区犬蔵一丁目２３番１３株式会社レクスポート（1020001068356）に合併し解散,2015-10-05,1,,,,,,0
2223,8370601002375,登記記録の閉鎖等,0,2021-10-26,2021-10-15,株式会社ブレーンプランニング,,株式会社,宮城県,塩竈市,東玉川町８－２ＮＫ－１ビル,,04,203,9850036,,,2021-10-15,清算の結了等,,,2015-10-05,1,,,,,ブレーンプランニング,0
2225,8380002008392,登記記録の閉鎖等,0,2021-10-26,2021-10-22,有限会社大番,,有限会社,福島県,郡山市,中町１８番６号,,07,203,9638004,,,2021-10-22,清算の結了等,,,2015-10-05,1,,,,,オオバン,0
2230,8400005004980,登記記録の閉鎖等,0,2021-10-26,2021-10-22,協同組合サンシティー,,その他の設立登記法人,岩手県,久慈市,川崎町１２番１４号,,03,207,0280051,,,2021-10-22,清算の結了等,,,2015-10-05,1,,,,,サンシティー,0
2249,9010001037726,登記記録の閉鎖等,0,2021-10-26,2021-10-19,上田ハーロー株式会社,,株式会社,東京都,中央区,日本橋室町１丁目２番３号,,13,102,1030022,,,2021-10-19,合併による解散等,7010401052335,令和３年１０月３日東京都港区東新橋二丁目８番１号株式会社外為どっとコム（7010401052335）に合併し解散,2015-10-05,1,,,,,ウエダハーロー,0
2261,9010401095051,登記記録の閉鎖等,0,2021-10-26,2021-10-12,株式会社プリマベーラ,,株式会社,東京都,港区,港南４丁目６番５－２４０６号,,13,103,1080075,,,2021-10-12,清算の結了等,,,2015-10-05,1,,,,,プリマベーラ,0
2307,9011505001226,登記記録の閉鎖等,0,2021-10-26,2021-10-19,特定非営利活動法人Ｒａｊａｐｕｔｒａ,,その他の設立登記法人,東京都,北区,王子本町１丁目４番１２－７０４号レジェンド王子本町,,13,117,1140022,,,2021-10-19,清算の結了等,,,2015-10-05,1,,,,,ラージャプトラ,0
2311,9011602000626,登記記録の閉鎖等,0,2021-10-26,2021-10-22,有限会社新井衛生設備工業所,,有限会社,東京都,練馬区,田柄３丁目２番６号,,13,120,1790073,,,2021-10-22,清算の結了等,,,2015-10-05,1,,,,,アライエイセイセツビコウギョウショ,0
2320,9011803002140,登記記録の閉鎖等,0,2021-10-26,2021-10-22,合同会社サンライズ垂水,,合同会社,東京都,葛飾区,白鳥３丁目１番１－２０８号,,13,122,1250063,,,2021-10-22,清算の結了等,,,2015-10-05,1,,,,,サンライズタルミ,0
2333,9021001004541,登記記録の閉鎖等,0,2021-10-26,2021-10-22,アイパック株式会社,,株式会社,神奈川県,藤沢市,円行２丁目１９番地５,,14,205,2520805,,,2021-10-22,合併による解散等,5010701012981,令和３年１０月１日東京都品川区南大井六丁目２１番１２号いすゞライネックス株式会社（5010701012981）に合併し解散,2015-10-05,1,,,,,アイパック,0
2343,9030001039670,登記記録の閉鎖等,0,2021-10-26,2021-10-18,株式会社オガタ商事,,株式会社,埼玉県,八潮市,八潮３丁目１７番地２７,,11,234,3400815,,,2021-10-18,清算の結了等,,,2015-10-05,1,,,,,オガタショウジ,0
2357,9030002058273,登記記録の閉鎖等,0,2021-10-26,2021-10-18,有限会社上原製作所,,有限会社,埼玉県,朝霞市,幸町３丁目１０番３３号,,11,227,3510015,,,2021-10-18,清算の結了等,,,2015-10-05,1,,,,,ウエハラセイサクショ,0
2396,9120001010647,登記記録の閉鎖等,0,2021-10-26,2021-10-21,長棟建設株式会社,,株式会社,大阪府,大阪市東住吉区,田辺６丁目７番１４号,,27,121,5460031,,,2021-10-21,清算の結了等,,,2015-10-05,1,,,,,ナガムネケンセツ,0
2397,9120001031346,登記記録の閉鎖等,0,2021-10-26,2021-10-25,株式会社南海建設社,,株式会社,大阪府,大阪市住之江区,南加賀屋３丁目６番２６号,,27,125,5590015,,,2021-10-25,清算の結了等,,,2015-10-05,1,,,,,ナンカイケンセツシャ,0
2402,9120001156011,登記記録の閉鎖等,0,2021-10-26,2021-10-22,株式会社遂洋製作所,,株式会社,大阪府,守口市,藤田町６丁目１７番５号,,27,209,5700014,,,2021-10-22,清算の結了等,,,2015-10-05,1,,,,,スイヨウセイサクショ,0
2429,9140001029322,登記記録の閉鎖等,0,2021-10-26,2021-10-01,神戸水産加工株式会社,,株式会社,兵庫県,神戸市兵庫区,中之島１丁目１番５号,,28,105,6520844,,,2021-10-01,合併による解散等,4140001002589,令和３年１０月１日神戸市兵庫区中之島一丁目１番５号株式会社ミック（4140001002589）と合併し解散,2015-10-05,1,,,,,,0
2436,9140002039106,登記記録の閉鎖等,0,2021-10-26,2021-10-22,関宮メリヤス有限会社,,有限会社,兵庫県,養父市,関宮６０４番地,,28,222,6671105,,,2021-10-22,清算の結了等,,,2015-10-05,1,,,,,セキノミヤメリヤス,0
2446,9160001017151,登記記録の閉鎖等,0,2021-10-26,2021-10-25,株式会社今津町農協,,株式会社,滋賀県,高島市,今津町日置前３５２番地,,25,212,5201655,,,2021-10-25,清算の結了等,,,2015-10-05,1,,,,,イマヅチョウノウキョウ,0
2451,9180001005526,登記記録の閉鎖等,0,2021-10-26,2021-10-22,東進電機株式会社,,株式会社,愛知県,名古屋市千種区,今池南２５番９号,,23,101,4640851,,,2021-10-22,清算の結了等,,,2015-10-05,1,,,,,トウシンデンキ,0
2455,9180001113097,登記記録の閉鎖等,0,2021-10-26,2021-10-21,株式会社名古屋独立起業支援センター,,株式会社,愛知県,名古屋市中区,栄５丁目２６番３９号ＧＳ栄ビル３Ｆ,,23,106,4600008,,,2021-10-21,清算の結了等,,,2015-10-05,1,,,,,ナゴヤドクリツキギョウシエンセンター,0
2462,9190002014467,登記記録の閉鎖等,0,2021-10-26,2021-10-22,有限会社車楽,,有限会社,三重県,松阪市,八重田町７４４番地２,,24,204,5150844,,,2021-10-22,清算の結了等,,,2015-10-05,1,,,,,シャラク,0
2463,9200001011711,登記記録の閉鎖等,0,2021-10-26,2021-10-01,株式会社宅配百十番岐阜,,株式会社,岐阜県,羽島郡岐南町,伏屋６丁目８１番地１,,21,302,5016006,,,2021-10-01,合併による解散等,3200001011139,令和３年１０月１日岐阜県羽島郡岐南町平成四丁目６８番地株式会社スワロー物流岐阜（3200001011139）に合併し解散,2015-10-05,1,,,,,タクハイヒャクトウバンギフ,0
2466,9200002018235,登記記録の閉鎖等,0,2021-10-26,2021-10-22,有限会社平井建築,,有限会社,岐阜県,可児郡御嵩町,中１６２１番地２１,,21,521,5050121,,,2021-10-22,清算の結了等,,,2015-10-05,1,,,,,ヒライケンチク,0
2468,9210002002163,登記記録の閉鎖等,0,2021-10-26,2021-10-21,有限会社高橋ビル,,有限会社,福井県,福井市,和田２丁目１５１３番地,,18,201,9188238,,,2021-10-21,清算の結了等,,,2015-10-05,1,,,,,タカハシビル,0
2478,9240002054508,登記記録の閉鎖等,0,2021-10-26,2021-10-21,平畑食品有限会社,,有限会社,広島県,三原市,久井町和草４８５番地の２,,34,204,7221412,,,2021-10-21,清算の結了等,,,2015-10-05,1,,,,,ヒラハタショクヒン,0
2500,9330003001020,登記記録の閉鎖等,0,2021-10-26,2021-10-21,合名会社井上才八商店,,合名会社,熊本県,熊本市中央区,本荘５丁目１０番１９号,,43,101,8600811,,,2021-10-21,清算の結了等,,,2015-10-05,1,,,,,イノウエサイハチショウテン,0
2512,9370102000522,登記記録の閉鎖等,0,2021-10-26,2021-10-15,有限会社札木会計事務所,,有限会社,宮城県,柴田郡柴田町,西船迫１丁目１０番地の４,,04,323,9891622,,,2021-10-15,清算の結了等,,,2015-10-05,1,,,,,フダキカイケイジムショ,0
2514,9380002010059,登記記録の閉鎖等,0,2021-10-26,2021-10-21,有限会社秀和開発,,有限会社,福島県,郡山市,駅前２丁目６番２０号,,07,203,9638002,,,2021-10-21,清算の結了等,,,2015-10-05,1,,,,,シュウワカイハツ,0
2527,9500001007539,登記記録の閉鎖等,0,2021-10-26,2021-10-21,株式会社ストラーダ・Ｋ,,株式会社,愛媛県,松山市,北斎院町７３７番地の３,,38,201,7918031,,,2021-10-21,清算の結了等,,,2015-10-05,1,,,,,ストラーダケー,0
