sequenceNumber,corporateNumber,process,correct,updateDate,changeDate,name,nameImageId,kind,prefectureName,cityName,streetNumber,addressImageId,prefectureCode,cityCode,postCode,addressOutside,addressOutsideImageId,closeDate,closeCause,successorCorporateNumber,changeCause,assignmentDate,latest,enName,enPrefectureName,enCityName,enAddressOutside,furigana,hihyoji
15,1010001232111,新規,0,2023-01-16,2023-01-16,株式会社ＴＰＸ,,株式会社,東京都,中央区,月島４丁目１３番９号２Ｆ,,13,102,1040052,,,,,,,2023-01-16,1,,,,,ティーピーエックス,0
16,1010001232292,新規,0,2023-01-16,2023-01-16,ＡＩＷＯＲＫＳ　ＪＡＰＡＮ株式会社,,株式会社,東京都,中央区,銀座７丁目１５番８号タウンハイツ銀座４０６,,13,102,1040061,,,,,,,2023-01-16,1,,,,,エーアイワークスジャパン,0
25,1010401171784,新規,0,2023-01-16,2023-01-16,Ｄｉａｍａｎｔ株式会社,,株式会社,東京都,港区,高輪３丁目１１－８－９０４,,13,103,1080074,,,,,,,2023-01-16,1,,,,,ディアマン,0
26,1010401171850,新規,0,2023-01-16,2023-01-16,２１Ｃ株式会社,,株式会社,東京都,港区,六本木４丁目３番１１号六本木ユニハウス２２３,,13,103,1060032,,,,,,,2023-01-16,1,,,,,トゥエンティーワンシー,0
31,1010405021696,新規,0,2023-01-16,2023-01-16,一般社団法人保険＆マネー相談センター,,その他の設立登記法人,東京都,港区,赤坂９丁目６番地２９号,,13,103,1070052,,,,,,,2023-01-16,1,,,,,ホケンアンドマネーソウダンセンター,0
34,1010501049872,新規,0,2023-01-16,2023-01-16,株式会社ハコニワ,,株式会社,東京都,台東区,東上野３丁目２８番４－７０３号,,13,106,1100015,,,,,,,2023-01-16,1,,,,,ハコニワ,0
35,1010601062420,新規,0,2023-01-16,2023-01-16,環境エネルギー・インターナショナル株式会社,,株式会社,東京都,江東区,新木場３丁目６番７号,,13,108,1360082,,,,,,,2023-01-16,1,,,,,カンキョウエネルギーインターナショナル,0
36,1010601062429,新規,0,2023-01-16,2023-01-16,株式会社Ｕｍｉ　ｐｌｕｓ,,株式会社,東京都,墨田区,押上３丁目３６番３号,,13,107,1310045,,,,,,,2023-01-16,1,,,,,ウミプラス,0
41,1010901052294,新規,0,2023-01-16,2023-01-16,シライインダストリー株式会社,,株式会社,東京都,世田谷区,喜多見４丁目２９－１２,,13,112,1570067,,,,,,,2023-01-16,1,,,,,シライインダストリー,0
42,1010901052344,新規,0,2023-01-16,2023-01-16,株式会社カボチャ,,株式会社,東京都,世田谷区,若林１丁目７番１号,,13,112,1540023,,,,,,,2023-01-16,1,,,,,カボチャ,0
47,1011001151664,新規,0,2023-01-16,2023-01-16,株式会社コエーリャ,,株式会社,東京都,渋谷区,代々木４丁目３５番５号,,13,113,1510053,,,,,,,2023-01-16,1,,,,,,0
48,1011001151838,新規,0,2023-01-16,2023-01-16,株式会社Ｃａｔａｌｉｓ　Ｐａｒｔｎｅｒｓ　Ｇｒｏｕｐ,,株式会社,東京都,目黒区,目黒本町２丁目１７番２０－８０２号ライオンズシティ学芸大学,,13,110,1520002,,,,,,,2023-01-16,1,,,,,カタリスパートナーズグループ,0
49,1011001152010,新規,0,2023-01-16,2023-01-16,株式会社オフィスハマ,,株式会社,東京都,渋谷区,本町１丁目２０番２号パルムハウス初台６０３号室,,13,113,1510071,,,,,,,2023-01-16,1,,,,,オフィスハマ,0
56,1011101101486,新規,0,2023-01-16,2023-01-16,株式会社アドバンステージ,,株式会社,東京都,新宿区,西新宿３丁目３番１３号西新宿水間ビル２Ｆ,,13,104,1600023,,,,,,,2023-01-16,1,,,,,アドバンステージ,0
57,1011101101503,新規,0,2023-01-16,2023-01-16,株式会社ＷＩＮＷＩＺＡＲＤ,,株式会社,東京都,新宿区,新宿７丁目２６番１号１０１,,13,104,1600022,,,,,,,2023-01-16,1,,,,,ウィンウィザード,0
59,1011103012599,新規,0,2023-01-16,2023-01-16,合同会社なかはらワークショップ,,合同会社,東京都,新宿区,新宿７丁目３番４２号古山方,,13,104,1600022,,,,,,,2023-01-16,1,,,,,ナカハラワークショップ,0
60,1011301028380,新規,0,2023-01-16,2023-01-16,株式会社小野電気,,株式会社,東京都,杉並区,成田東５丁目２５番５号,,13,115,1660015,,,,,,,2023-01-16,1,,,,,オノデンキ,0
61,1011301028389,新規,0,2023-01-16,2023-01-16,株式会社みんなのニット共和国,,株式会社,東京都,杉並区,方南２丁目１２番３１号,,13,115,1680062,,,,,,,2023-01-16,1,,,,,ミンナノニットキョウワコク,0
72,1011501028833,新規,0,2023-01-16,2023-01-16,株式会社ＰＴＡ　Ｊａｐａｎ,,株式会社,東京都,北区,西ケ原１丁目２７番３号古河ガーデン１０５号,,13,117,1140024,,,,,,,2023-01-16,1,,,,,ピーティーエージャパン,0
73,1011503005426,新規,0,2023-01-16,2023-01-16,合同会社ラプラス・ディー,,合同会社,東京都,北区,十条仲原１丁目２番６号キャピタル十条ビル,,13,117,1140031,,,,,,,2023-01-16,1,,,,,ラプラスディー,0
88,1013303006455,新規,0,2023-01-16,2023-01-16,ＳＵＫＨＢＡＴ合同会社,,合同会社,東京都,豊島区,南池袋１丁目９番１８号３６３号,,13,116,1710022,,,,,,,2023-01-16,1,,,,,スヘバト,0
106,1030001151846,新規,0,2023-01-16,2023-01-16,株式会社ＹＵＬＡ,,株式会社,埼玉県,加須市,上崎２６２５番地２,,11,210,3470125,,,,,,,2023-01-16,1,,,,,ユラ,0
107,1030001151937,新規,0,2023-01-16,2023-01-16,株式会社フラワースタージャパン,,株式会社,埼玉県,所沢市,中新井３丁目２０番Ａ－１０２号,,11,208,3590041,,,,,,,2023-01-16,1,,,,,フラワースタージャパン,0
108,1030001151945,新規,0,2023-01-16,2023-01-16,株式会社自然農,,株式会社,埼玉県,朝霞市,幸町１丁目１０番２号,,11,227,3510015,,,,,,,2023-01-16,1,,,,,シゼンノウ,0
109,1030001151961,新規,0,2023-01-16,2023-01-16,株式会社新,,株式会社,埼玉県,北足立郡伊奈町,栄５丁目１１１－２梅美荘１０３号室,,11,301,3620805,,,,,,,2023-01-16,1,,,,,シン,0
110,1030001151978,新規,0,2023-01-16,2023-01-16,株式会社プレシャスホールディングス,,株式会社,埼玉県,北葛飾郡杉戸町,大字木野川３２６番地１３,,11,464,3450003,,,,,,,2023-01-16,1,,,,,プレシャスホールディングス,0
117,1040001126525,新規,0,2023-01-16,2023-01-16,株式会社楠原商事,,株式会社,千葉県,市川市,南行徳１丁目２２番７－２０１号,,12,203,2720138,,,,,,,2023-01-16,1,,,,,クスハラショウジ,0
118,1040001126574,新規,0,2023-01-16,2023-01-16,大木庭園株式会社,,株式会社,千葉県,匝瑳市,長谷６８７番地,,12,235,2892123,,,,,,,2023-01-16,1,,,,,オオキテイエン,0
119,1040001126640,新規,0,2023-01-16,2023-01-16,株式会社黒岩工業,,株式会社,千葉県,千葉市緑区,おゆみ野中央４丁目２１番地３ラーヴァンヒルズ２０３号,,12,105,2660032,,,,,,,2023-01-16,1,,,,,クロイワコウギョウ,0
120,1040001126649,新規,0,2023-01-16,2023-01-16,ルーセンスバイト株式会社,,株式会社,千葉県,柏市,増尾５丁目４番２７号,,12,217,2770033,,,,,,,2023-01-16,1,,,,,ルーセンスバイト,0
123,1040003021666,新規,0,2023-01-16,2023-01-16,ＤＩＮＵＮＡＤＡ　ＥＮＴＥＲＰＲＩＳＥＳ　ＬＡＮＫＡ合同会社,,合同会社,千葉県,富里市,中沢３２０番地２４,,12,233,2860222,,,,,,,2023-01-16,1,,,,,ディヌナダエンタープライズランカ,0
124,1040003021682,新規,0,2023-01-16,2023-01-16,ａｌｉａｎｉｃｏ合同会社,,合同会社,千葉県,長生郡一宮町,東浪見７１１９番地２,,12,421,2994303,,,,,,,2023-01-16,1,,,,,アリアニコ,0
126,1050003007152,新規,0,2023-01-16,2023-01-16,合同会社あぐりん,,合同会社,茨城県,ひたちなか市,大字金上９９７番地５,,08,221,3120022,,,,,,,2023-01-16,1,,,,,アグリン,0
128,1060001035617,新規,0,2023-01-16,2023-01-16,株式会社Ｎｏｖａ　Ｃｌｅａｎ,,株式会社,栃木県,宇都宮市,東原町５番１５号,,09,201,3210168,,,,,,,2023-01-16,1,,,,,ノヴァクリーン,0
132,1070003004783,新規,0,2023-01-16,2023-01-16,メタハピネス合同会社,,合同会社,群馬県,前橋市,二之宮町１３８６－１,,10,201,3792117,,,,,,,2023-01-16,1,,,,,メタハピネス,0
138,1080403004696,新規,0,2023-01-16,2023-01-16,ＤＲＥＡＭ　ＬＡＮＫＡ　ＩＮＴＥＲＮＡＴＩＯＮＡＬ合同会社,,合同会社,静岡県,掛川市,千浜６３６４－１,,22,213,4371412,,,,,,,2023-01-16,1,,,,,ドリームランカインターナショナル,0
140,1100001036049,新規,0,2023-01-16,2023-01-16,株式会社ＣＡＲＣＬＥ,,株式会社,長野県,飯田市,上郷別府１７５番地１,,20,205,3950003,,,,,,,2023-01-16,1,,,,,カークル,0
151,1120001251653,新規,0,2023-01-16,2023-01-16,株式会社紋蔵,,株式会社,大阪府,大阪市中央区,南船場２丁目６番１２－６０４号,,27,128,5420081,,,,,,,2023-01-16,1,,,,,モンゾウ,0
152,1120001251694,新規,0,2023-01-16,2023-01-16,株式会社Ｐａｓｓｉｅ,,株式会社,大阪府,大阪市西区,北堀江３丁目４番１３号,,27,106,5500014,,,,,,,2023-01-16,1,,,,,パッシー,0
153,1120001251752,新規,0,2023-01-16,2023-01-16,裏方ハック株式会社,,株式会社,大阪府,大阪市北区,梅田１丁目１－３大阪駅前第３ビル２９階１－１－１号室,,27,127,5300001,,,,,,,2023-01-16,1,,,,,ウラカタハック,0
154,1120001251785,新規,0,2023-01-16,2023-01-16,株式会社ＫＣＡ,,株式会社,大阪府,大阪市住吉区,万代東２丁目２番３号,,27,120,5580056,,,,,,,2023-01-16,1,,,,,ケーシーエー,0
155,1120001251793,新規,0,2023-01-16,2023-01-16,株式会社Ｍ　ＴＥＣＨ,,株式会社,大阪府,大阪市北区,東天満２丁目６番１－１３０３号,,27,127,5300044,,,,,,,2023-01-16,1,,,,,エムテック,0
156,1120003023225,新規,0,2023-01-16,2023-01-16,合同会社レラシオン,,合同会社,大阪府,大阪市北区,梅田２丁目５番１３号桜橋第一ビル３０４号,,27,127,5300001,,,,,,,2023-01-16,1,,,,,レラシオン,0
162,1120901046987,新規,0,2023-01-16,2023-01-16,株式会社インストール,,株式会社,大阪府,茨木市,耳原３丁目９－１５－５,,27,211,5670006,,,,,,,2023-01-16,1,,,,,インストール,0
164,1122001036588,新規,0,2023-01-16,2023-01-16,株式会社ｓａｋ,,株式会社,大阪府,大東市,北条１丁目１６番９号ル・クレール２１２号,,27,218,5740011,,,,,,,2023-01-16,1,,,,,エスエーケー,0
169,1130001073460,新規,0,2023-01-16,2023-01-16,株式会社平阪商店,,株式会社,京都府,京都市山科区,安朱馬場ノ西町３９番地の１,,26,110,6078007,,,,,,,2023-01-16,1,,,,,ヒラサカショウテン,0
170,1130001073469,新規,0,2023-01-16,2023-01-16,株式会社ＡＲＩＳＡ,,株式会社,京都府,京都市伏見区,深草勧進橋町５０番地３１,,26,109,6128405,,,,,,,2023-01-16,1,,,,,アリサ,0
171,1130001073477,新規,0,2023-01-16,2023-01-16,株式会社１１０１０,,株式会社,京都府,京都市下京区,桝屋町４６０番地河道屋ビル５Ｆ,,26,106,6008046,,,,,,,2023-01-16,1,,,,,ヒトト,0
178,1140001128610,新規,0,2023-01-16,2023-01-16,株式会社百式住宅総合,,株式会社,兵庫県,芦屋市,朝日ケ丘町７番７号,,28,206,6590012,,,,,,,2023-01-16,1,,,,,ヒャクシキジュウタクソウゴウ,0
179,1140001128684,新規,0,2023-01-16,2023-01-16,株式会社いいものタウン,,株式会社,兵庫県,神崎郡福崎町,福田１１６番地１,,28,443,6792212,,,,,,,2023-01-16,1,,,,,イイモノタウン,0
180,1140001128701,新規,0,2023-01-16,2023-01-16,株式会社ロシェコンサルティング,,株式会社,兵庫県,芦屋市,朝日ケ丘町１７番２１号,,28,206,6590012,,,,,,,2023-01-16,1,,,,,ロシェコンサルティング,0
181,1140001128734,新規,0,2023-01-16,2023-01-16,株式会社丸山製作所,,株式会社,兵庫県,たつの市,誉田町福田４７５番地,,28,229,6794132,,,,,,,2023-01-16,1,,,,,マルヤマセイサクショ,0
186,1140003018561,新規,0,2023-01-16,2023-01-16,合同会社笑,,合同会社,兵庫県,たつの市,新宮町段之上７３６番地２０,,28,229,6794321,,,,,,,2023-01-16,1,,,,,エミ,0
207,1180001154520,新規,0,2023-01-16,2023-01-16,翔輝株式会社,,株式会社,愛知県,名古屋市中川区,かの里３丁目６０３番地の２,,23,110,4540957,,,,,,,2023-01-16,1,,,,,ショウキ,0
208,1180001154529,新規,0,2023-01-16,2023-01-16,株式会社ＳＶＫ,,株式会社,愛知県,名古屋市中村区,名駅３丁目２３番３号名駅ミズタニビル４０２号室,,23,105,4500002,,,,,,,2023-01-16,1,,,,,エスブイケー,0
209,1180001154561,新規,0,2023-01-16,2023-01-16,株式会社ＢＬＩＣＨＥ,,株式会社,愛知県,名古屋市名東区,平和が丘２丁目１４０番地ヴィラ奥田第二ビル,,23,115,4650097,,,,,,,2023-01-16,1,,,,,ブリシェ,0
210,1180001154594,新規,0,2023-01-16,2023-01-16,株式会社克信,,株式会社,愛知県,名古屋市緑区,南陵４０１番地（１４－５０７）,,23,114,4580918,,,,,,,2023-01-16,1,,,,,コクシン,0
216,1180005020074,新規,0,2023-01-16,2023-01-16,一般社団法人リヒトクリエイティブ,,その他の設立登記法人,愛知県,名古屋市熱田区,西野町３丁目２４番地の５,,23,109,4560063,,,,,,,2023-01-16,1,,,,,リヒトクリエイティブ,0
264,1260003004161,新規,0,2023-01-16,2023-01-16,合同会社ｊｉｂｉｉｃａ,,合同会社,岡山県,倉敷市,日ノ出町２丁目４番３３‐１３,,33,202,7100063,,,,,,,2023-01-16,1,,,,,ジビーカ,0
270,1290001100199,新規,0,2023-01-16,2023-01-16,Ｃａｒ　Ｃｌａｒｉｔｙ株式会社,,株式会社,福岡県,小郡市,松崎６５９番地１６,,40,216,8380122,,,,,,,2023-01-16,1,,,,,カークラリティ,0
272,1290003013416,新規,0,2023-01-16,2023-01-16,ＷＯＴＡＳＵＫＥ合同会社,,合同会社,福岡県,福岡市博多区,青木１丁目６－４－１１０７ガレット空港前ＩＩ１０７号,00129089,40,132,8120851,,,,,,,2023-01-16,1,,,,,ヲタスケ,0
276,1290801029175,新規,0,2023-01-16,2023-01-16,株式会社竹虎堂,,株式会社,福岡県,北九州市小倉北区,浅野３丁目８番１号ＡＩＭビル６階,,40,106,8020001,,,,,,,2023-01-16,1,,,,,タケトラドウ,0
279,1300001013192,新規,0,2023-01-16,2023-01-16,株式会社正栄,,株式会社,佐賀県,神埼市,神埼町城原９８５番地２,,41,210,8420122,,,,,,,2023-01-16,1,,,,,ショウエイ,0
291,1360001031437,新規,0,2023-01-16,2023-01-16,株式会社一穂膳,,株式会社,沖縄県,豊見城市,字豊見城５７３番地８,,47,212,9010241,,,,,,,2023-01-16,1,,,,,イチホゼン,0
292,1360003012609,新規,0,2023-01-16,2023-01-16,合同会社行燈,,合同会社,沖縄県,那覇市,宇栄原３丁目１０番２７号,,47,201,9010153,,,,,,,2023-01-16,1,,,,,アンドン,0
293,1370001049494,新規,0,2023-01-16,2023-01-16,株式会社オレズ,,株式会社,宮城県,宮城郡利府町,加瀬字石切場６４番地６,,04,406,9810111,,,,,,,2023-01-16,1,,,,,オレズ,0
296,1380001033407,新規,0,2023-01-16,2023-01-16,株式会社Ｆｏｒｅｓｔ　Ｗｉｎｇｓ,,株式会社,福島県,東白川郡矢祭町,大字金沢字大子沢４１番地２,,07,482,9635111,,,,,,,2023-01-16,1,,,,,フォレストウィングス,0
298,1390001017136,新規,0,2023-01-16,2023-01-16,株式会社山形銀行,,株式会社,山形県,山形市,三日町５１６番地、５１７番地,,06,201,9900036,,,,,,,2023-01-16,1,,,,,ヤマガタギンコウ,0
307,1430001088189,新規,0,2023-01-16,2023-01-16,株式会社三木谷,,株式会社,北海道,札幌市中央区,南二条西４丁目１０番地４,,01,101,0600062,,,,,,,2023-01-16,1,,,,,ミキタニ,0
308,1430001088214,新規,0,2023-01-16,2023-01-16,株式会社ハレルヤ,,株式会社,北海道,千歳市,みどり台南２丁目１４番６号,,01,224,0660084,,,,,,,2023-01-16,1,,,,,ハレルヤ,0
309,1430001088230,新規,0,2023-01-16,2023-01-16,株式会社北海経済ジャーナル,,株式会社,北海道,札幌市西区,琴似二条１丁目１－２０－２１０１,,01,107,0630812,,,,,,,2023-01-16,1,,,,,ホッカイケイザイジャーナル,0
312,1430003014614,新規,0,2023-01-16,2023-01-16,合同会社個別指導東京クレセール,,合同会社,北海道,札幌市中央区,宮の森二条５丁目２番８号,,01,101,0640952,,,,,,,2023-01-16,1,,,,,コベツシドウトウキョウクレセール,0
313,1430003014639,新規,0,2023-01-16,2023-01-16,合同会社ＭＯＮＡＳ２４,,合同会社,北海道,札幌市白石区,北郷三条５丁目３番２８号,,01,104,0030833,,,,,,,2023-01-16,1,,,,,モナスニジュウヨン,0
315,1440001009210,新規,0,2023-01-16,2023-01-16,株式会社勝丸,,株式会社,北海道,島牧郡島牧村,字豊浜１１０番地,,01,391,0480612,,,,,,,2023-01-16,1,,,,,カツマル,0
322,1700150113744,新規,0,2023-01-16,2023-01-16,ｓｈｅｎｚｈｅｎｓｈｉ　ｄｉｎｇｄａ　ｓｈｉｙｅ　ｙｏｕｘｉａｎｇｏｎｇｓｉ,,外国会社等,,,,,,,,Ｒｏｏｍ　３１８，Ａｎｎｅｘ　Ｂｕｉｌｄｉｎｇ，Ｘｉｌｏｎｇ　Ｂｕｉｌｄｉｎｇ，Ｎｏ．２０５９，Ｒｅｎｍｉｎ　Ｓｏｕｔｈ　Ｒｏａｄ，Ｌｕｏｈｕｑｉａｏ　Ｃｏｍｍｕｎｉｔｙ，Ｎａｎｈｕ　Ｓｔｒｅｅｔ，ｓｈｅｎｚｈｅｎ，Ｃｈｉｎａ,,,,,,2023-01-16,1,,,,,シンセンシディンダーシェユーシェンゴンシー,0
323,1700150113752,新規,0,2023-01-16,2023-01-16,ｓｈｅｎｚｈｅｎｓｈｉｚｈｅｎｂｏｓｈｉｙｅｙｏｕｘｉａｎｇｏｎｇｓｉ,,外国会社等,,,,,,,,ｌｏｎｇｇａｎｇｑｕｌｏｎｇｇａｎｇｊｉｅｄａｏｌｏｎｇｇａｎｇｄａｄａｏ６１４９ｈａｏ２ｌｏｕ２０３Ｓｈｅｎｚｈｅｎ　Ｇｕａｎｇｄｏｎｇ，Ｃｈｉｎａ,,,,,,2023-01-16,1,,,,,シンセンシシンハクジツギョウユウゲンコウシ,0
324,1700150113760,新規,0,2023-01-16,2023-01-16,ＳＨＥＮＺＨＥＮ　ＤＵＯＦＵＴＡＮＧ　ＫＥＪＩ　ＹＯＵＸＩＡＮ　ＧＯＮＧＳＩ,,外国会社等,,,,,,,,ｚｈａｎｇ　ｂｅｉ　ｈａｏ　ｘｉａｎ　ｌｕ　２　ｈａｏ　ｃｈａｎｇ　ｆａｎｇ　３０１ｂ，ｌｏｎｇ　ｃｈｅｎｇ　ｊｉｅ　ｄａｏ　ｚｈａｎｇ　ｂｅｉ　ｓｈｅ　ｑｕ，ｓｈｅｎｚｈｅｎ，ｇｕａｎｇｄｏｎｇ，Ｃｈｉｎａ,,,,,,2023-01-16,1,,,,,シンセンシタフクドウカギユウゲンコウシ,0
336,2010001232069,新規,0,2023-01-16,2023-01-16,株式会社Ｐｌａｙ　Ｋｉｃｋｓ　Ｖｅｎｔｕｒｅｓ,,株式会社,東京都,中央区,銀座７丁目１３番６号サガミビル２階,,13,102,1040061,,,,,,,2023-01-16,1,,,,,プレイキックスベンチャーズ,0
341,2010003039603,新規,0,2023-01-16,2023-01-16,ｔｅｑｕ合同会社,,合同会社,東京都,中央区,銀座１丁目２２番１１号銀座大竹ビジデンス２Ｆ,,13,102,1040061,,,,,,,2023-01-16,1,,,,,テッキュー,0
342,2010005036111,新規,0,2023-01-16,2023-01-16,弁護士法人曙綜合法律事務所,,その他の設立登記法人,東京都,中央区,銀座１丁目１４番４号プレリー銀座ビル１０階,,13,102,1040061,,,,,,,2023-01-16,1,,,,,アケボノソウゴウホウリツジムショ,0
343,2010005036128,新規,0,2023-01-16,2023-01-16,一般社団法人Ｇｅｍｉｎｉ２,,その他の設立登記法人,東京都,中央区,八丁堀４丁目２番１０号ＡＯＪ税理士法人内,,13,102,1040032,,,,,,,2023-01-16,1,,,,,ジェミニツー,0
355,2010401171767,新規,0,2023-01-16,2023-01-16,株式会社カワモト,,株式会社,東京都,港区,六本木３丁目１番２５号六本木グランドプラザ１階,,13,103,1060032,,,,,,,2023-01-16,1,,,,,カワモト,0
356,2010401171809,新規,0,2023-01-16,2023-01-16,株式会社ＦＡＲＧＲＩＤＧＥ,,株式会社,東京都,港区,赤坂６丁目４番２１号,,13,103,1070052,,,,,,,2023-01-16,1,,,,,ファーグリッジ,0
357,2010401171817,新規,0,2023-01-16,2023-01-16,ネクストディメンションズ株式会社,,株式会社,東京都,港区,赤坂９丁目１番７号赤坂レジデンシャルホテル４５９号室,,13,103,1070052,,,,,,,2023-01-16,1,,,,,ネクストディメンションズ,0
358,2010401171825,新規,0,2023-01-16,2023-01-16,株式会社アイビー,,株式会社,東京都,港区,南青山２丁目２番１５号,,13,103,1070062,,,,,,,2023-01-16,1,,,,,アイビー,0
361,2010601062436,新規,0,2023-01-16,2023-01-16,株式会社新生,,株式会社,東京都,墨田区,堤通２丁目１番１０号,,13,107,1310034,,,,,,,2023-01-16,1,,,,,シンセイ,0
362,2010603009939,新規,0,2023-01-16,2023-01-16,合同会社怜和,,合同会社,東京都,江東区,大島８丁目２８番５号ライオンズタワー大島２００８号,,13,108,1360072,,,,,,,2023-01-16,1,,,,,レイワ,0
365,2010703006539,新規,0,2023-01-16,2023-01-16,合同会社ＹＨＫ,,合同会社,東京都,品川区,東品川４丁目１２番９－１７１６号,,13,109,1400002,,,,,,,2023-01-16,1,,,,,ワイエイチケー,0
372,2010901052343,新規,0,2023-01-16,2023-01-16,株式会社ＢＯＮＤ,,株式会社,東京都,世田谷区,下馬６丁目２７番１号,,13,112,1540002,,,,,,,2023-01-16,1,,,,,ボンド,0
382,2011001151993,新規,0,2023-01-16,2023-01-16,株式会社ノテモ,,株式会社,東京都,目黒区,碑文谷２丁目６番３号,,13,110,1520003,,,,,,,2023-01-16,1,,,,,ノテモ,0
383,2011001152026,新規,0,2023-01-16,2023-01-16,ｃｙｂｏｒｇ２１株式会社,,株式会社,東京都,渋谷区,鶯谷町１４番５－２０４号,,13,113,1500032,,,,,,,2023-01-16,1,,,,,サイボーグニジュウイチ,0
387,2011101101485,新規,0,2023-01-16,2023-01-16,株式会社Ｎ　ＬＩＮＥ,,株式会社,東京都,新宿区,西新宿７丁目１７番１３－１３０３号,,13,104,1600023,,,,,,,2023-01-16,1,,,,,エヌライン,0
388,2011201024347,新規,0,2023-01-16,2023-01-16,エクシード株式会社,,株式会社,東京都,中野区,弥生町２丁目３２番１６号宮嶋ビル１階,,13,114,1640013,,,,,,,2023-01-16,1,,,,,エクシード,0
389,2011305002884,新規,0,2023-01-16,2023-01-16,一般社団法人ハーブブレンドスタイル協会,,その他の設立登記法人,東京都,杉並区,今川２丁目１２番１０号,,13,115,1670035,,,,,,,2023-01-16,1,,,,,ハーブブレンドスタイルキョウカイ,0
396,2011501028849,新規,0,2023-01-16,2023-01-16,株式会社ケイアール,,株式会社,東京都,荒川区,東尾久１丁目３２番６－２０３号,,13,118,1160012,,,,,,,2023-01-16,1,,,,,ケイアール,0
397,2011503005425,新規,0,2023-01-16,2023-01-16,ｃｈｏｍｃｈｏｍ合同会社,,合同会社,東京都,荒川区,荒川３丁目７９番３－９０２号,,13,118,1160002,,,,,,,2023-01-16,1,,,,,チョムチョム,0
398,2011603003799,新規,0,2023-01-16,2023-01-16,合同会社桂,,合同会社,東京都,練馬区,西大泉４丁目１４番９号,,13,120,1780065,,,,,,,2023-01-16,1,,,,,カツラ,0
401,2012301013280,新規,0,2023-01-16,2023-01-16,株式会社ひらく,,株式会社,東京都,町田市,南つくし野４丁目１２番地２２,,13,209,1940002,,,,,,,2023-01-16,1,,,,,ヒラク,0
410,2012701017419,新規,0,2023-01-16,2023-01-16,株式会社きみより,,株式会社,東京都,小平市,栄町１丁目１９番２号,,13,211,1870034,,,,,,,2023-01-16,1,,,,,キミヨリ,0
417,2020001149865,新規,0,2023-01-16,2023-01-16,株式会社ＲｅＰＥＡＫ,,株式会社,神奈川県,横浜市南区,浦舟町１丁目１５横浜南プラザ３０１,,14,105,2320024,,,,,,,2023-01-16,1,,,,,リピーク,0
421,2021001077957,新規,0,2023-01-16,2023-01-16,Ｂｂ＆Ｇｒｉｔ株式会社,,株式会社,神奈川県,藤沢市,南藤沢１１番７－２号,,14,205,2510055,,,,,,,2023-01-16,1,,,,,ビービーグリット,0
423,2030001151928,新規,0,2023-01-16,2023-01-16,株式会社ＩＳＨＩＫＡＷＡ,,株式会社,埼玉県,加須市,鴻茎２１３０番地２,,11,210,3470111,,,,,,,2023-01-16,1,,,,,イシカワ,0
424,2030001152001,新規,0,2023-01-16,2023-01-16,株式会社ＳＫエンタープライズ,,株式会社,埼玉県,川口市,並木３丁目１番５号シモンビル２階,,11,203,3320034,,,,,,,2023-01-16,1,,,,,エスケイエンタープライズ,0
426,2030003020957,新規,0,2023-01-16,2023-01-16,合同会社エンケン,,合同会社,埼玉県,さいたま市浦和区,常盤１丁目１番７－２０３号,,11,107,3300061,,,,,,,2023-01-16,1,,,,,エンケン,0
427,2030003020965,新規,0,2023-01-16,2023-01-16,合同会社スターライト,,合同会社,埼玉県,さいたま市南区,南浦和１丁目２８番２０号,,11,108,3360017,,,,,,,2023-01-16,1,,,,,スターライト,0
428,2030005021111,新規,0,2023-01-16,2023-01-16,行政書士法人ＣＬＡ,,その他の設立登記法人,埼玉県,さいたま市大宮区,大成町２丁目３５７番地８,,11,103,3300852,,,,,,,2023-01-16,1,,,,,シーエルエイ,0
431,2040001126598,新規,0,2023-01-16,2023-01-16,株式会社ラグナグ・コンサルティング,,株式会社,千葉県,千葉市中央区,花輪町１７２番地１,,12,101,2600803,,,,,,,2023-01-16,1,,,,,ラグナグコンサルティング,0
432,2040001126656,新規,0,2023-01-16,2023-01-16,エイチ建築設計株式会社,,株式会社,千葉県,長生郡長南町,米満１４２番地１１,,12,427,2970112,,,,,,,2023-01-16,1,,,,,エイチケンチクセッケイ,0
433,2040003021657,新規,0,2023-01-16,2023-01-16,やんも樹合同会社,,合同会社,千葉県,千葉市中央区,鵜の森町１２番５９号,,12,101,2600816,,,,,,,2023-01-16,1,,,,,ヤンモジュ,0
436,2050001052257,新規,0,2023-01-16,2023-01-16,株式会社さきがけ会計,,株式会社,茨城県,東茨城郡茨城町,大字前田１７０６－１,,08,302,3113115,,,,,,,2023-01-16,1,,,,,サキガケカイケイ,0
440,2060001035608,新規,0,2023-01-16,2023-01-16,株式会社リアライズ,,株式会社,栃木県,大田原市,若草１丁目１３５８番地２,,09,210,3240021,,,,,,,2023-01-16,1,,,,,リアライズ,0
449,2070001040020,新規,0,2023-01-16,2023-01-16,ＮＯＯＲ株式会社,,株式会社,群馬県,伊勢崎市,上諏訪町２１１６番地７,,10,204,3720021,,,,,,,2023-01-16,1,,,,,ヌール,0
456,2080403004695,新規,0,2023-01-16,2023-01-16,合同会社ＮＡＩＴＯＵ,,合同会社,静岡県,浜松市中区,佐藤２丁目１番１１号,,22,131,4300807,,,,,,,2023-01-16,1,,,,,ナイトウ,0
459,2090001017925,新規,0,2023-01-16,2023-01-16,株式会社富士川,,株式会社,山梨県,南巨摩郡富士川町,鰍沢８２６番地１,,19,368,4000601,,,,,,,2023-01-16,1,,,,,,0
462,2100001036056,新規,0,2023-01-16,2023-01-16,株式会社伊澤デザイン事務所,,株式会社,長野県,伊那市,高遠町東高遠２１１６番地,,20,209,3960213,,,,,,,2023-01-16,1,,,,,イサワデザインジムショ,0
477,2120001251660,新規,0,2023-01-16,2023-01-16,株式会社ＶＩＺ．３,,株式会社,大阪府,大阪市中央区,南本町３丁目３番２２号,,27,128,5410054,,,,,,,2023-01-16,1,,,,,ビズスリー,0
481,2120003023208,新規,0,2023-01-16,2023-01-16,合同会社井川商会,,合同会社,大阪府,大阪市西淀川区,野里１丁目２５番２７号,,27,113,5550024,,,,,,,2023-01-16,1,,,,,イカワショウカイ,0
482,2120003023257,新規,0,2023-01-16,2023-01-16,合同会社焼く鳥フード,,合同会社,大阪府,寝屋川市,清水町３６番３号,,27,215,5720044,,,,,,,2023-01-16,1,,,,,ヤクトリフード,0
484,2120101066827,新規,0,2023-01-16,2023-01-16,株式会社Ｓ企画,,株式会社,大阪府,藤井寺市,小山新町１番１９号,,27,226,5830031,,,,,,,2023-01-16,1,,,,,エスキカク,0
487,2120103005015,新規,0,2023-01-16,2023-01-16,合同会社まるｂｅｉｎｇ,,合同会社,大阪府,和泉市,山荘町２丁目１０番１３号,,27,219,5940021,,,,,,,2023-01-16,1,,,,,マルビーイング,0
488,2120103005031,新規,0,2023-01-16,2023-01-16,合同会社ＡＳＳＩＳＴ,,合同会社,大阪府,岸和田市,作才町１９５番地の１８,,27,202,5960826,,,,,,,2023-01-16,1,,,,,アシスト,0
489,2120901046994,新規,0,2023-01-16,2023-01-16,株式会社大林マンション管理研究所,,株式会社,大阪府,豊中市,北条町２丁目６番１号,,27,203,5610812,,,,,,,2023-01-16,1,,,,,オオバヤシマンションカンリケンキュウショ,0
493,2130005016670,新規,0,2023-01-16,2023-01-16,太秦税理士法人,,その他の設立登記法人,京都府,京都市北区,紫野郷ノ上町５番地の１０,,26,101,6038304,,,,,,,2023-01-16,1,,,,,ウズマサ,0
496,2140001128659,新規,0,2023-01-16,2023-01-16,テイクワン株式会社,,株式会社,兵庫県,神戸市東灘区,本山北町１丁目５－６ライゼホビー９,,28,101,6580003,,,,,,,2023-01-16,1,,,,,テイクワン,0
497,2140001128675,新規,0,2023-01-16,2023-01-16,満福株式会社,,株式会社,兵庫県,神戸市中央区,相生町２丁目２番１号,,28,110,6500025,,,,,,,2023-01-16,1,,,,,マンフク,0
498,2140001128683,新規,0,2023-01-16,2023-01-16,株式会社百生,,株式会社,兵庫県,神戸市中央区,中山手通１丁目５番７号丸岩ビル１０１号,,28,110,6500004,,,,,,,2023-01-16,1,,,,,ヒャクショウ,0
499,2140001128717,新規,0,2023-01-16,2023-01-16,株式会社スタリード,,株式会社,兵庫県,尼崎市,西本町６丁目２４２,,28,202,6600874,,,,,,,2023-01-16,1,,,,,スタリード,0
500,2140001128733,新規,0,2023-01-16,2023-01-16,株式会社栄実工業,,株式会社,兵庫県,たつの市,御津町黒崎４４４番地５,,28,229,6711301,,,,,,,2023-01-16,1,,,,,エイジツコウギョウ,0
501,2140001128758,新規,0,2023-01-16,2023-01-16,志商事株式会社,,株式会社,兵庫県,神戸市東灘区,魚崎浜町２７番地の２１,,28,101,6580024,,,,,,,2023-01-16,1,,,,,ココロショウジ,0
502,2140001128782,新規,0,2023-01-16,2023-01-16,ＭＩＲＡｉｅ２．０株式会社,,株式会社,兵庫県,三田市,南が丘１丁目４０番３４号コタニビル１Ｆ,,28,219,6691535,,,,,,,2023-01-16,1,,,,,ミライーニイテンゼロ,0
506,2140003018552,新規,0,2023-01-16,2023-01-16,合同会社そらいろ,,合同会社,兵庫県,姫路市,大津区西土井３６９番地７,,28,201,6711141,,,,,,,2023-01-16,1,,,,,ソライロ,0
524,2180001154528,新規,0,2023-01-16,2023-01-16,人類株式会社,,株式会社,愛知県,名古屋市中村区,名駅南２丁目３番４１号（シャトー＆ホテル名駅南１ｓｔ２０２号）,,23,105,4500003,,,,,,,2023-01-16,1,,,,,ジンルイ,0
525,2180001154560,新規,0,2023-01-16,2023-01-16,株式会社ＭＡＲＵ,,株式会社,愛知県,日進市,折戸町鎌ケ寿６２番地１,,23,230,4700115,,,,,,,2023-01-16,1,,,,,マル,0
526,2180001154577,新規,0,2023-01-16,2023-01-16,株式会社ＡＳＫ,,株式会社,愛知県,春日井市,白山町２丁目４番地１３,,23,206,4870034,,,,,,,2023-01-16,1,,,,,アスク,0
527,2180001154610,新規,0,2023-01-16,2023-01-16,株式会社イーエム貿易,,株式会社,愛知県,名古屋市中区,栄２丁目９番８号,,23,106,4600008,,,,,,,2023-01-16,1,,,,,イーエムボウエキ,0
532,2180301036995,新規,0,2023-01-16,2023-01-16,株式会社たこ本舗,,株式会社,愛知県,蒲郡市,三谷町九舗２番地,,23,214,4430021,,,,,,,2023-01-16,1,,,,,タコホンポ,0
533,2180301037011,新規,0,2023-01-16,2023-01-16,株式会社トヨタワークス,,株式会社,愛知県,安城市,石井町福原３６番地２,,23,212,4441201,,,,,,,2023-01-16,1,,,,,トヨタワークス,0
537,2190003004192,新規,0,2023-01-16,2023-01-16,合同会社エムック,,合同会社,三重県,桑名市,松ノ木２丁目２１番地１９,,24,205,5110902,,,,,,,2023-01-16,1,,,,,エムック,0
571,2260003004160,新規,0,2023-01-16,2023-01-16,マイリユース合同会社,,合同会社,岡山県,倉敷市,連島２丁目１０番８号,,33,202,7128012,,,,,,,2023-01-16,1,,,,,マイリユース,0
580,2290001100215,新規,0,2023-01-16,2023-01-16,株式会社万福社,,株式会社,福岡県,福岡市中央区,六本松１丁目２番３号,,40,133,8100044,,,,,,,2023-01-16,1,,,,,バンプクシャ,0
581,2290001100231,新規,0,2023-01-16,2023-01-16,株式会社Ｇｒｏｗ‐Ｗｉｔｈ,,株式会社,福岡県,福岡市南区,寺塚２丁目２７番３６号,00129091,40,134,8150074,,,,,,,2023-01-16,1,,,,,グロウウィズ,0
593,2340001025299,新規,0,2023-01-16,2023-01-16,株式会社一斗,,株式会社,鹿児島県,出水郡長島町,諸浦１７３７番地７,,46,404,8991403,,,,,,,2023-01-16,1,,,,,イチト,0
595,2340003004020,新規,0,2023-01-16,2023-01-16,合同会社外養鶏,,合同会社,鹿児島県,出水市,下知識町１０００番地３,,46,208,8990132,,,,,,,2023-01-16,1,,,,,ホカヨウケイ,0
597,2360001031428,新規,0,2023-01-16,2023-01-16,株式会社ＭＡＧＵＲＯ,,株式会社,沖縄県,宮古島市,平良字下里６８４番地１,,47,214,9060013,,,,,,,2023-01-16,1,,,,,マグロ,0
598,2360001031436,新規,0,2023-01-16,2023-01-16,ＣＨＡＭＥＡＵ株式会社,,株式会社,沖縄県,沖縄市,東１丁目１番６号,,47,211,9042154,,,,,,,2023-01-16,1,,,,,シャムゥ,0
599,2360003012640,新規,0,2023-01-16,2023-01-16,合同会社ＮＩＲＩ,,合同会社,沖縄県,宜野湾市,真栄原２丁目３番８－１１０６号ミルコマンション真栄原スカイルーク,,47,205,9012215,,,,,,,2023-01-16,1,,,,,ニリ,0
600,2370001049460,新規,0,2023-01-16,2023-01-16,株式会社岩崎,,株式会社,宮城県,仙台市青葉区,立町１６番２１号,,04,101,9800822,,,,,,,2023-01-16,1,,,,,イワサキ,0
607,2380001033406,新規,0,2023-01-16,2023-01-16,福伸工業株式会社,,株式会社,福島県,郡山市,安積町日出山２丁目６８番地,,07,203,9630101,,,,,,,2023-01-16,1,,,,,フクシンコウギョウ,0
614,2410003003741,新規,0,2023-01-16,2023-01-16,合同会社穐,,合同会社,秋田県,北秋田市,栄字田沢２９番地,,05,213,0183302,,,,,,,2023-01-16,1,,,,,アキ,0
619,2430001088196,新規,0,2023-01-16,2023-01-16,株式会社小松海藻,,株式会社,北海道,浦河郡浦河町,荻伏町３６番地の４５,,01,607,0593451,,,,,,,2023-01-16,1,,,,,コマツカイソウ,0
620,2430001088205,新規,0,2023-01-16,2023-01-16,株式会社ケイシン,,株式会社,北海道,苫小牧市,青雲町３丁目３番９号,,01,213,0591263,,,,,,,2023-01-16,1,,,,,ケイシン,0
621,2430001088213,新規,0,2023-01-16,2023-01-16,リアクティブガス株式会社,,株式会社,北海道,江別市,元町７番地の２７,,01,217,0670031,,,,,,,2023-01-16,1,,,,,リアクティブガス,0
623,2430003014638,新規,0,2023-01-16,2023-01-16,えにし屋合同会社,,合同会社,北海道,砂川市,空知太西一条３丁目２番１２号,,01,226,0730171,,,,,,,2023-01-16,1,,,,,エニシヤ,0
624,2430005014628,新規,0,2023-01-16,2023-01-16,一般財団法人テコス教育振興会,,その他の設立登記法人,北海道,伊達市,山下町１４７番地６０,,01,233,0520032,,,,,,,2023-01-16,1,,,,,テコスキョウイクシンコウカイ,0
627,2460101007318,新規,0,2023-01-16,2023-01-16,株式会社フリーダム帯広,,株式会社,北海道,帯広市,西二条南２７丁目１番地,,01,207,0800012,,,,,,,2023-01-16,1,,,,,フリーダムオビヒロ,0
631,2480001011979,新規,0,2023-01-16,2023-01-16,株式会社柚子キング,,株式会社,徳島県,那賀郡那賀町,木頭折宇字宇井ノ内２７番地,,36,368,7716511,,,,,,,2023-01-16,1,,,,,ユズキング,0
633,2480003001912,新規,0,2023-01-16,2023-01-16,合同会社ＢＡＳＥＢＡＣＳ,,合同会社,徳島県,鳴門市,撫養町馬目木１３０,,36,202,7720000,,,,,,,2023-01-16,1,,,,,ベースバックス,0
639,2700150113743,新規,0,2023-01-16,2023-01-16,ｓａｎｍｉｎｇｓｈｉ　ｙｉｌｉｎｇｌｕ　ｄｉａｎｚｉｓｈａｎｇｗｕ　ｙｏｕｘｉａｎｇｏｎｇｓｉ,,外国会社等,,,,,,,,ｈｅｒｅｎｘｉｎｃｕｎ１ｈａｏＡｚｕｏ，ｍｅｉｌｉｅｑｕ，Ｓａｎｍｉｎｇ，Ｃｈｉｎａ,,,,,,2023-01-16,1,,,,,サンミングシイリンギルデンシショウムユウキョウノウシ,0
640,2700150113751,新規,0,2023-01-16,2023-01-16,Ｓｏａｐ　Ｏｐｅｒａ　Ｃｒｅａｔｉｖｅ　Ｓｏａｐｅｒｙ　Ｔｒａｄｉｎｇ　Ｌｉｍｉｔｅｄ,,外国会社等,,,,,,,,２ｎｄ　Ｆｌ．＃６５，Ａｌｌｅｙ　３２，Ｌａｎｅ　２４５，Ｓｅｃ　４，Ｂａｄｅ　Ｒｏａｄ，Ｔａｉｐｅｉ，Ｔａｉｗａｎ,,,,,,2023-01-16,1,,,,,ヒソウゲキソウゲイユウシィアンゴンスー,0
652,3010001232027,新規,0,2023-01-16,2023-01-16,株式会社壮関インターナショナル,,株式会社,東京都,千代田区,神田須田町１丁目１４番地６神田荒木ビル７階,,13,101,1010041,,,,,,,2023-01-16,1,,,,,ソウカンインターナショナル,0
653,3010003039552,新規,0,2023-01-16,2023-01-16,合同会社Ｅｌｅｎ,,合同会社,東京都,文京区,本郷１丁目３３－６へミニス２－４階,,13,105,1130033,,,,,,,2023-01-16,1,,,,,エレン,0
656,3010103002063,新規,0,2023-01-16,2023-01-16,合同会社ホープライフ,,合同会社,東京都,八王子市,中野上町４丁目２０番５号,,13,201,1920041,,,,,,,2023-01-16,1,,,,,ホープライフ,0
665,3010401171824,新規,0,2023-01-16,2023-01-16,株式会社Ｍｉｃｈａｅｌ　Ｓｃｈｎｅｉｄｅｒ,,株式会社,東京都,港区,赤坂４丁目１１番２０号１Ｂ,,13,103,1070052,,,,,,,2023-01-16,1,,,,,ミハエルシュナイダー,0
666,3010401171832,新規,0,2023-01-16,2023-01-16,ＭＥＥＴＳテクノロジー株式会社,,株式会社,東京都,港区,高輪２丁目２１番４０号,,13,103,1080074,,,,,,,2023-01-16,1,,,,,ミーツテクノロジー,0
670,3010601062385,新規,0,2023-01-16,2023-01-16,美盛商貿株式会社,,株式会社,東京都,江東区,有明１丁目４－１１－１７２３－１,,13,108,1350063,,,,,,,2023-01-16,1,,,,,ビセイショウボウ,0
671,3010601062427,新規,0,2023-01-16,2023-01-16,株式会社Ｗｉｎｋ,,株式会社,東京都,江東区,東雲１丁目６番２３－３０３号,,13,108,1350062,,,,,,,2023-01-16,1,,,,,ウィンク,0
675,3010803004425,新規,0,2023-01-16,2023-01-16,興業企画合同会社,,合同会社,東京都,大田区,田園調布２丁目５５番５号,,13,111,1450071,,,,,,,2023-01-16,1,,,,,コウギョウキカク,0
677,3010901052334,新規,0,2023-01-16,2023-01-16,株式会社Ｏｎｅｓｔｙｌｅ,,株式会社,東京都,世田谷区,弦巻５丁目１６番８号ファインスクェア世田谷弦巻ＩＩ４０１,00129087,13,112,1540016,,,,,,,2023-01-16,1,,,,,ワンスタイル,0
678,3010901052342,新規,0,2023-01-16,2023-01-16,株式会社美緑,00129069,株式会社,東京都,世田谷区,三宿２丁目１１番２７号メイクスデザイン三宿４０４,,13,112,1540005,,,,,,,2023-01-16,1,,,,,ミロク,0
684,3011001151992,新規,0,2023-01-16,2023-01-16,株式会社パートナーズ,,株式会社,東京都,渋谷区,南平台町１６番２８号Ｄａｉｗａ渋谷スクエア９階,,13,113,1500036,,,,,,,2023-01-16,1,,,,,パートナーズ,0
685,3011001152009,新規,0,2023-01-16,2023-01-16,株式会社クーキーズー,,株式会社,東京都,渋谷区,千駄ヶ谷２丁目３９番３号４０１号室,,13,113,1510051,,,,,,,2023-01-16,1,,,,,クーキーズー,0
691,3011101101443,新規,0,2023-01-16,2023-01-16,匯合株式会社,00129067,株式会社,東京都,新宿区,西新宿４丁目１６番３号－２０５Ｃ,,13,104,1600023,,,,,,,2023-01-16,1,,,,,カイゴ,0
692,3011101101484,新規,0,2023-01-16,2023-01-16,株式会社トリガー,,株式会社,東京都,新宿区,西新宿３丁目３番１３号西新宿水間ビル２Ｆ,,13,104,1600023,,,,,,,2023-01-16,1,,,,,トリガー,0
693,3011101101492,新規,0,2023-01-16,2023-01-16,株式会社ｍｕｓｕｂｕ,,株式会社,東京都,新宿区,西新宿３丁目３番１３号西新宿水間ビル２Ｆ,,13,104,1600023,,,,,,,2023-01-16,1,,,,,ムスブ,0
699,3011201024346,新規,0,2023-01-16,2023-01-16,株式会社アームズ,,株式会社,東京都,中野区,南台３丁目２６番１１号,,13,114,1640014,,,,,,,2023-01-16,1,,,,,アームズ,0
700,3011301028379,新規,0,2023-01-16,2023-01-16,ＮＦＳホールディングス株式会社,,株式会社,東京都,杉並区,松庵１丁目６番１５号,,13,115,1670054,,,,,,,2023-01-16,1,,,,,エヌエフエスホールディングス,0
701,3011301028395,新規,0,2023-01-16,2023-01-16,ＭＯＯＮ　ＨＯＵＳＥ株式会社,,株式会社,東京都,杉並区,梅里２丁目２５番１３号高円寺プラザ２１１号,,13,115,1660011,,,,,,,2023-01-16,1,,,,,ムーンハウス,0
702,3011303004626,新規,0,2023-01-16,2023-01-16,合同会社セカンド,,合同会社,東京都,杉並区,下高井戸２丁目１０－３プラザローヤル１４０７,,13,115,1680073,,,,,,,2023-01-16,1,,,,,,0
703,3011305002883,新規,0,2023-01-16,2023-01-16,一般社団法人Ｃｌｕｂ　Ａｔｌｅｔｉｃｏ　ＳＵＧＩＮＡＭＩ,,その他の設立登記法人,東京都,杉並区,永福３丁目５４番５号,,13,115,1680064,,,,,,,2023-01-16,1,,,,,クラブアトレティコスギナミ,0
711,3011501028848,新規,0,2023-01-16,2023-01-16,株式会社ＺＥＲＯ・ＯＮＥ,,株式会社,東京都,北区,浮間２丁目１０番２８－１０１号,,13,117,1150051,,,,,,,2023-01-16,1,,,,,ゼロワン,0
712,3011503005424,新規,0,2023-01-16,2023-01-16,ＡＫＩ　ＧＲＯＵＰ合同会社,,合同会社,東京都,荒川区,東日暮里３丁目３１番１９－３０３号,,13,118,1160014,,,,,,,2023-01-16,1,,,,,アキグループ,0
719,3011803005462,新規,0,2023-01-16,2023-01-16,合同会社しあわせ創造研究所,,合同会社,東京都,足立区,千住橋戸町１番地２０,,13,121,1200038,,,,,,,2023-01-16,1,,,,,シアワセソウゾウケンキュウジョ,0
742,3020001149641,新規,0,2023-01-16,2023-01-16,株式会社ＴＫ,,株式会社,神奈川県,川崎市川崎区,榎町１１番５－１４０２,,14,131,2100002,,,,,,,2023-01-16,1,,,,,ティーケー,0
747,3020003023118,新規,0,2023-01-16,2023-01-16,合同会社Ｆｉｓｈ＆Ｃｈｉｐｓ,,合同会社,神奈川県,横浜市中区,伊勢佐木町２丁目１０番地４第三泰信ビル５０５号室,,14,104,2310045,,,,,,,2023-01-16,1,,,,,フィッシュアンドチップス,0
751,3021001077923,新規,0,2023-01-16,2023-01-16,株式会社ＮｏｖｏＣｏｒ,,株式会社,神奈川県,海老名市,中央１丁目１６番地３１号Ａ＆Ｎビル１Ｆ１７号室,,14,215,2430432,,,,,,,2023-01-16,1,,,,,ノボコル,0
752,3021001077956,新規,0,2023-01-16,2023-01-16,株式会社ＨＡＮＡＭＡ,,株式会社,神奈川県,平塚市,紅谷町１６番７号,,14,203,2540043,,,,,,,2023-01-16,1,,,,,ハナマ,0
757,3030001151927,新規,0,2023-01-16,2023-01-16,株式会社新明,,株式会社,埼玉県,東松山市,大字下青鳥７８２番地３,,11,212,3550075,,,,,,,2023-01-16,1,,,,,シンメイ,0
758,3030001151935,新規,0,2023-01-16,2023-01-16,ＫＴＦ資産管理株式会社,,株式会社,埼玉県,川口市,中青木４丁目１０番３０号,,11,203,3320032,,,,,,,2023-01-16,1,,,,,ケーティーエフシサンカンリ,0
759,3030001151943,新規,0,2023-01-16,2023-01-16,株式会社ＬＩＮＸ,,株式会社,埼玉県,久喜市,久喜中央１丁目５番３０号シンコウハウスビル５階,,11,232,3460003,,,,,,,2023-01-16,1,,,,,リンクス,0
760,3030001151951,新規,0,2023-01-16,2023-01-16,株式会社武美,,株式会社,埼玉県,加須市,日出安８６８番地４,,11,210,3470102,,,,,,,2023-01-16,1,,,,,タケミ,0
761,3030001151976,新規,0,2023-01-16,2023-01-16,株式会社カンプス,,株式会社,埼玉県,東松山市,幸町１５番４０号,,11,212,3550025,,,,,,,2023-01-16,1,,,,,カンプス,0
773,3040001126523,新規,0,2023-01-16,2023-01-16,ミッツコパンダ株式会社,,株式会社,千葉県,市川市,二俣１丁目１１番２４号,,12,203,2720001,,,,,,,2023-01-16,1,,,,,ミッツコパンダ,0
774,3040001126639,新規,0,2023-01-16,2023-01-16,株式会社ＡＴＹ,,株式会社,千葉県,松戸市,串崎南町９４番地の１,,12,207,2702215,,,,,,,2023-01-16,1,,,,,エーティーワイ,0
775,3040001126647,新規,0,2023-01-16,2023-01-16,水環境ちばＳ株式会社,,株式会社,千葉県,千葉市中央区,富士見２丁目１５番１１号,,12,101,2600015,,,,,,,2023-01-16,1,,,,,ミズカンキョウチバエス,0
776,3040001126655,新規,0,2023-01-16,2023-01-16,ＮＴ企画株式会社,,株式会社,千葉県,成田市,古込字古込１番地１,,12,211,2860104,,,,,,,2023-01-16,1,,,,,エヌティキカク,0
777,3040001126663,新規,0,2023-01-16,2023-01-16,ジーピーシー株式会社,,株式会社,千葉県,浦安市,日の出５丁目５番１－７１２,,12,227,2790013,,,,,,,2023-01-16,1,,,,,ジーピーシー,0
778,3040001126671,新規,0,2023-01-16,2023-01-16,株式会社Ｒｓｐｅｅｄ,,株式会社,千葉県,四街道市,池花１丁目２番２１号,,12,228,2840014,,,,,,,2023-01-16,1,,,,,アールスピード,0
781,3040003021672,新規,0,2023-01-16,2023-01-16,ＡＭＳホテルマネジメント合同会社,,合同会社,千葉県,松戸市,常盤平６丁目８番地の２２,,12,207,2702261,,,,,,,2023-01-16,1,,,,,エーエムエスホテルマネジメント,0
784,3050001052181,新規,0,2023-01-16,2023-01-16,株式会社ジョブネクサス,,株式会社,茨城県,筑西市,上平塚７９９－１,,08,227,3080067,,,,,,,2023-01-16,1,,,,,ジョブネクサス,0
785,3050001052256,新規,0,2023-01-16,2023-01-16,ＳＨＲＥＥ　ＲＡＭ　ＩＮＴＥＲＮＡＴＩＯＮＡＬ株式会社,,株式会社,茨城県,下妻市,宗道１７７番地１,,08,210,3040814,,,,,,,2023-01-16,1,,,,,シュリーラムインターナショナル,0
787,3050005013196,新規,0,2023-01-16,2023-01-16,協同組合ひかり,,その他の設立登記法人,茨城県,鹿嶋市,大字武井釜８８０番地,,08,222,3112202,,,,,,,2023-01-16,1,,,,,ヒカリ,0
788,3060001035623,新規,0,2023-01-16,2023-01-16,Ｆ．Ｃ．ＳＨＩＦＴ株式会社,,株式会社,栃木県,宇都宮市,御幸ケ原町１３９番地５２,,09,201,3210982,,,,,,,2023-01-16,1,,,,,エフシーシフト,0
790,3070001040028,新規,0,2023-01-16,2023-01-16,メイク株式会社,,株式会社,群馬県,桐生市,三吉町２丁目５番３２号,,10,203,3760005,,,,,,,2023-01-16,1,,,,,メイク,0
809,3120001251619,新規,0,2023-01-16,2023-01-16,日本ＪＪグレートピュア株式会社,,株式会社,大阪府,大阪市東住吉区,鷹合４丁目２１番１６号１Ｆ－Ｇ,,27,121,5460014,,,,,,,2023-01-16,1,,,,,ニホンジェイジェイグレートピュア,0
810,3120001251627,新規,0,2023-01-16,2023-01-16,株式会社鮫島製作所,,株式会社,大阪府,大阪市淀川区,加島１丁目３７－６,,27,123,5320031,,,,,,,2023-01-16,1,,,,,サメシマセイサクショ,0
811,3120001251726,新規,0,2023-01-16,2023-01-16,株式会社ＹＭＴ,,株式会社,大阪府,大阪市東成区,大今里南６丁目１０番３号,,27,115,5370013,,,,,,,2023-01-16,1,,,,,ワイエムティー,0
814,3120101066834,新規,0,2023-01-16,2023-01-16,株式会社ｕｎｉｚｏｎ,,株式会社,大阪府,堺市北区,金岡町５４６番地４ブレスコート新金岡Ｉ－３０５号,00129079,27,146,5918022,,,,,,,2023-01-16,1,,,,,ユニゾン,0
815,3120101066842,新規,0,2023-01-16,2023-01-16,株式会社輝工業,,株式会社,大阪府,堺市堺区,東湊町５丁３１５番地上田ビル５－２０２号,,27,141,5900829,,,,,,,2023-01-16,1,,,,,テルコウギョウ,0
819,3120901046985,新規,0,2023-01-16,2023-01-16,株式会社ダクテム,,株式会社,大阪府,摂津市,鳥飼上３丁目９番８号,,27,224,5660062,,,,,,,2023-01-16,1,,,,,ダクテム,0
820,3120901046993,新規,0,2023-01-16,2023-01-16,光創造企画株式会社,,株式会社,大阪府,吹田市,山田東３丁目１７番１号,,27,205,5650821,,,,,,,2023-01-16,1,,,,,ヒカリソウゾウキカク,0
822,3122001036578,新規,0,2023-01-16,2023-01-16,株式会社大塚設備,,株式会社,大阪府,東大阪市,新家１丁目１番７号,,27,227,5770025,,,,,,,2023-01-16,1,,,,,オオツカセツビ,0
828,3130003008446,新規,0,2023-01-16,2023-01-16,合同会社藤井設備,,合同会社,京都府,京都市伏見区,淀樋爪町１９２番地,00129073,26,109,6130901,,,,,,,2023-01-16,1,,,,,フジイセツビ,0
835,3140001128690,新規,0,2023-01-16,2023-01-16,ｆｕｗａｃｃａ株式会社,,株式会社,兵庫県,神戸市北区,ひよどり台南町２丁目２番地の２８,,28,109,6511125,,,,,,,2023-01-16,1,,,,,フワッカ,0
836,3140001128724,新規,0,2023-01-16,2023-01-16,株式会社ＹＡＳＵＨＡＲＡ　ｓｔｙｌｅ,,株式会社,兵庫県,たつの市,揖西町小神１２２番地,,28,229,6794003,,,,,,,2023-01-16,1,,,,,ヤスハラスタイル,0
837,3140001128732,新規,0,2023-01-16,2023-01-16,株式会社Ｌｉｎｏ,,株式会社,兵庫県,加古川市,別府町朝日町３６番地１５,,28,210,6750123,,,,,,,2023-01-16,1,,,,,リノ,0
838,3140001128740,新規,0,2023-01-16,2023-01-16,株式会社西川建装,,株式会社,兵庫県,高砂市,曽根町２２７４番地の１－２０６,,28,216,6760082,,,,,,,2023-01-16,1,,,,,ニシカワケンソウ,0
839,3140003018592,新規,0,2023-01-16,2023-01-16,合同会社ライズ,,合同会社,兵庫県,揖保郡太子町,東保３５８－２,,28,464,6711524,,,,,,,2023-01-16,1,,,,,ライズ,0
840,3160001024772,新規,0,2023-01-16,2023-01-16,株式会社桐伊,,株式会社,滋賀県,長浜市,余呉町中之郷１６０８番地１,,25,203,5290515,,,,,,,2023-01-16,1,,,,,キリイ,0
856,3180001154551,新規,0,2023-01-16,2023-01-16,株式会社ビジネスコネクト,,株式会社,愛知県,名古屋市中村区,名駅４丁目２４番５号第２森ビル４０１,,23,105,4500002,,,,,,,2023-01-16,1,,,,,ビジネスコネクト,0
861,3180005020080,新規,0,2023-01-16,2023-01-16,一般社団法人志野流香道松隠会,,その他の設立登記法人,愛知県,名古屋市西区,上名古屋２丁目１０番５号,,23,104,4510025,,,,,,,2023-01-16,1,,,,,シノリュウコウドウショウインカイ,0
863,3180301036994,新規,0,2023-01-16,2023-01-16,株式会社ＩＮＦＩＮＩＴＹ　ＤＲＥＡＭ　ＷＯＲＫＳ,,株式会社,愛知県,豊橋市,大村町字桜島１４番地,,23,201,4400081,,,,,,,2023-01-16,1,,,,,インフィニティードリームワークス,0
864,3180301037002,新規,0,2023-01-16,2023-01-16,株式会社ＴＫＭ,,株式会社,愛知県,安城市,小川町山中２０６番地２,,23,212,4441162,,,,,,,2023-01-16,1,,,,,ティーケイエム,0
865,3180303005568,新規,0,2023-01-16,2023-01-16,合同会社野末,,合同会社,愛知県,豊橋市,向山大池町５番地８,,23,201,4400862,,,,,,,2023-01-16,1,,,,,ノズエ,0
869,3200001040848,新規,0,2023-01-16,2023-01-16,株式会社一色どうぶつ病院,,株式会社,岐阜県,瑞浪市,一色町１丁目３２番地の１,,21,208,5096124,,,,,,,2023-01-16,1,,,,,イシキドウブツビョウイン,0
879,3220001025228,新規,0,2023-01-16,2023-01-16,株式会社秘密基地製作所,,株式会社,石川県,かほく市,横山タ１３番地１９,,17,209,9291105,,,,,,,2023-01-16,1,,,,,ヒミツキチセイサクショ,0
890,3230005009275,新規,0,2023-01-16,2023-01-16,一般社団法人空き家再生協議会,,その他の設立登記法人,富山県,富山市,上袋６５５番地,,16,201,9398071,,,,,,,2023-01-16,1,,,,,,0
912,3270001008707,新規,0,2023-01-16,2023-01-16,株式会社Ｊ　Ｏｎｅ,,株式会社,鳥取県,米子市,皆生温泉３丁目９番２号,,31,202,6830001,,,,,,,2023-01-16,1,,,,,ジェイワン,0
913,3270001008715,新規,0,2023-01-16,2023-01-16,株式会社ＳＲ,,株式会社,鳥取県,倉吉市,中河原４９７－１０,,31,203,6820856,,,,,,,2023-01-16,1,,,,,エスアール,0
917,3290001100230,新規,0,2023-01-16,2023-01-16,ＬＡＺＯ不動産株式会社,,株式会社,福岡県,久留米市,荒木町荒木５３１番地１,,40,203,8300063,,,,,,,2023-01-16,1,,,,,ラソフドウサン,0
918,3290001100239,新規,0,2023-01-16,2023-01-16,那珂プラス株式会社,,株式会社,福岡県,福岡市博多区,竹下１丁目１番１５－５０１号,,40,132,8120895,,,,,,,2023-01-16,1,,,,,ナカプラス,0
923,3290005018915,新規,0,2023-01-16,2023-01-16,医療法人ＭＳＭ,,その他の設立登記法人,福岡県,福岡市南区,大楠３丁目１９番１７号ＫＲＩＳＫＡＲ高宮１Ｆ,,40,134,8150082,,,,,,,2023-01-16,1,,,,,エムエスエム,0
931,3330001030506,新規,0,2023-01-16,2023-01-16,株式会社ＫＯＧＡＹＵ,,株式会社,熊本県,熊本市東区,若葉１丁目１３番１２号,,43,102,8620903,,,,,,,2023-01-16,1,,,,,コガユ,0
933,3330003009655,新規,0,2023-01-16,2023-01-16,合同会社誠工,,合同会社,熊本県,人吉市,下林町２１６５番地１,,43,203,8680083,,,,,,,2023-01-16,1,,,,,セイコウ,0
937,3350003004266,新規,0,2023-01-16,2023-01-16,キッチンライフ合同会社,,合同会社,宮崎県,宮崎市,吉村町西中甲１３６５番地１０,,45,201,8800841,,,,,,,2023-01-16,1,,,,,キッチンライフ,0
940,3390003002035,新規,0,2023-01-16,2023-01-16,合同会社スリースワンプス,,合同会社,山形県,上山市,金瓶字林ノ蔭１６－４,,06,207,9993101,,,,,,,2023-01-16,1,,,,,スリースワンプス,0
941,3410003003740,新規,0,2023-01-16,2023-01-16,秋田八森ウニ生産合同会社,,合同会社,秋田県,山本郡八峰町,八森字門の沢１２４番地,,05,349,0182609,,,,,,,2023-01-16,1,,,,,アキタハチモリウニセイサン,0
943,3420001018129,新規,0,2023-01-16,2023-01-16,株式会社プラントエンジニアリング,,株式会社,青森県,むつ市,金谷２丁目５番４１号,,02,208,0350072,,,,,,,2023-01-16,1,,,,,プラントエンジニアリング,0
947,3430001088187,新規,0,2023-01-16,2023-01-16,株式会社ＣＯＮＴＡＣＴＩＶＩＴＹ,,株式会社,北海道,登別市,新川町４丁目３６番地９,,01,230,0590015,,,,,,,2023-01-16,1,,,,,コンタクティビティ,0
948,3430001088212,新規,0,2023-01-16,2023-01-16,株式会社家電工事サービス,,株式会社,北海道,石狩市,花川北一条５丁目６８番地,,01,235,0613211,,,,,,,2023-01-16,1,,,,,カデンコウジサービス,0
949,3430003014637,新規,0,2023-01-16,2023-01-16,合同会社ＹＡ,,合同会社,北海道,札幌市東区,北二十三条東１６丁目４－６ＦＫコーポラスＡ１,,01,103,0650023,,,,,,,2023-01-16,1,,,,,ワイエー,0
950,3430003014653,新規,0,2023-01-16,2023-01-16,合同会社ことりす,,合同会社,北海道,札幌市南区,真駒内泉町３丁目３番４－２号,,01,106,0050015,,,,,,,2023-01-16,1,,,,,コトリス,0
956,3480001011978,新規,0,2023-01-16,2023-01-16,株式会社Ｗａｔａｎａｂｅ’ｓ,,株式会社,徳島県,板野郡上板町,瀬部３１４番地１０,,36,405,7711350,,,,,,,2023-01-16,1,,,,,ワタナベズ,0
959,3500001024721,新規,0,2023-01-16,2023-01-16,株式会社ＥＡＳＴＥ,,株式会社,愛媛県,松山市,束本１丁目６番１号,,38,201,7900916,,,,,,,2023-01-16,1,,,,,イーストイー,0
966,3700150113742,新規,0,2023-01-16,2023-01-16,塩城市大豊区比斉密封系統有限公司,,外国会社等,東京都,江東区,木場５丁目１－５メイプルハイム木場Ｂ－１０５号室,,13,108,1350042,塩城市大豊区草堰鎮工業園区緯一路,,,,,,2023-01-16,1,,,,,エンジヨウシダイホウクヒサイミツポウケイトウユウゲンコウシ,0
967,3700150113750,新規,0,2023-01-16,2023-01-16,ｃｈａｎｇｃｈｕｎｓｈｉ　ｈｕａｎｇｈａｉｐｉｎｇ　ｍａｏｙｉｙｏｕｘｉａｎｇｏｎｇｓｉ,,外国会社等,,,,,,,,ｋｕａｎｃｈｅｎｇｑｕ，ｙａｔａｉｄａｊｉｅｚｈｏｎｇｈｕａｎｇ，６ｑｕ１４，１５，１７ｈａｏｌｏｕ，ｃｈａｎｇｃｈｕｎｓｈｉ，ｊｉｌｉｎｓｈｅｎｇ，ｃｈｉｎａ,,,,,,2023-01-16,1,,,,,チャンチュンシホァンハイピンマオイユウシャンゴンシ,0
968,3700150113759,新規,0,2023-01-16,2023-01-16,ｚｈｐｕａｔ,,外国会社等,,,,,,,,ｂｉｎｇｈｅｊｉｅ　２７　ｈａｏ　９　ｃｅｎｇ　９１１　ｄａ　ｘｉｎｇ，ｂｅｉ　ｊｉｎｇ，Ｃｈｉｎａ,,,,,,2023-01-16,1,,,,,ペキンシオウトクカギハッテンユウゲンコウシ,0
978,4010001231993,新規,0,2023-01-16,2023-01-16,碧島株式会社,,株式会社,東京都,千代田区,東神田１丁目１１番７号,,13,101,1010031,,,,,,,2023-01-16,1,,,,,ヘキトウ,0
979,4010001232075,新規,0,2023-01-16,2023-01-16,ｎｅｋｏ株式会社,,株式会社,東京都,中央区,銀座１丁目２２番１１号銀座大竹ビジデンス２Ｆ,,13,102,1040061,,,,,,,2023-01-16,1,,,,,ネコ,0
980,4010001232117,新規,0,2023-01-16,2023-01-16,株式会社Ｐｌａｔｆｏｒｍｓ,,株式会社,東京都,中央区,京橋３丁目９番４号新京橋ビル５階,,13,102,1040031,,,,,,,2023-01-16,1,,,,,プラットホームズ,0
981,4010001232125,新規,0,2023-01-16,2023-01-16,株式会社地域成長プラットフォーム,,株式会社,東京都,中央区,日本橋兜町１７番２号兜町第６葉山ビル４Ｆ,,13,102,1030026,,,,,,,2023-01-16,1,,,,,チイキセイチョウプラットフォーム,0
986,4010003039519,新規,0,2023-01-16,2023-01-16,ＣＡＳ合同会社,,合同会社,東京都,中央区,晴海２丁目２番４２－１９２０号,,13,102,1040053,,,,,,,2023-01-16,1,,,,,シーエーエス,0
995,4010401171749,新規,0,2023-01-16,2023-01-16,Ｂｉａｌｅｔｔｉ　Ｊａｐａｎ株式会社,,株式会社,東京都,港区,赤坂１丁目１２番１２号榎坂ビル３階,,13,103,1070052,,,,,,,2023-01-16,1,,,,,ビアレッティジャパン,0
996,4010401171757,新規,0,2023-01-16,2023-01-16,株式会社ＮＡＴｓ,,株式会社,東京都,港区,赤坂６丁目４番１８号プリンストン赤坂１１０１号室,,13,103,1070052,,,,,,,2023-01-16,1,,,,,ナッツ,0
1000,4010403029284,新規,0,2023-01-16,2023-01-16,Ｓ‐ｍａｒｋｅｔｉｎｇ合同会社,,合同会社,東京都,港区,南青山２丁目２番１５号ウィン青山９４２,,13,103,1070062,,,,,,,2023-01-16,1,,,,,エスマーケティング,0
1005,4010603009937,新規,0,2023-01-16,2023-01-16,合同会社オフィス山雄,,合同会社,東京都,江東区,有明２丁目１番３－２２０２号,,13,108,1350063,,,,,,,2023-01-16,1,,,,,オフィスヤマユウ,0
1008,4010703006545,新規,0,2023-01-16,2023-01-16,合同会社ソウルラブ,,合同会社,東京都,品川区,小山３丁目１４番２－６０９号,,13,109,1420062,,,,,,,2023-01-16,1,,,,,ソウルラブ,0
1015,4010901052341,新規,0,2023-01-16,2023-01-16,エム管理株式会社,,株式会社,東京都,世田谷区,松原２丁目１６番１２号,,13,112,1560043,,,,,,,2023-01-16,1,,,,,エムカンリ,0
1016,4010903007905,新規,0,2023-01-16,2023-01-16,合同会社Ｒｉｄｅ２Ｄ,,合同会社,東京都,世田谷区,用賀２丁目３８番１８号,,13,112,1580097,,,,,,,2023-01-16,1,,,,,ライドツーディー,0
1020,4011005009897,新規,0,2023-01-16,2023-01-16,一般社団法人ＳＥＡＭＥＳ,,その他の設立登記法人,東京都,目黒区,碑文谷３丁目１６番２２号ｔｒｉｆｏｌｉａ－５０１,,13,110,1520003,,,,,,,2023-01-16,1,,,,,シームズ,0
1023,4011101101500,新規,0,2023-01-16,2023-01-16,株式会社ナイショ,,株式会社,東京都,新宿区,西新宿３丁目３番１３号西新宿水間ビル２Ｆ,,13,104,1600023,,,,,,,2023-01-16,1,,,,,ナイショ,0
1027,4011103012588,新規,0,2023-01-16,2023-01-16,合同会社Ｌｉｔｒｏｎ,,合同会社,東京都,新宿区,西新宿４丁目１－１０,,13,104,1600023,,,,,,,2023-01-16,1,,,,,リトロン,0
1028,4011103012605,新規,0,2023-01-16,2023-01-16,ライスライズ合同会社,,合同会社,東京都,新宿区,高田馬場４丁目２２番２６号,,13,104,1690075,,,,,,,2023-01-16,1,,,,,ライスライズ,0
1042,4011501028855,新規,0,2023-01-16,2023-01-16,株式会社ＡＢＣ,,株式会社,東京都,荒川区,南千住３丁目１７番地８号,,13,118,1160003,,,,,,,2023-01-16,1,,,,,エービーシー,0
1043,4011503005431,新規,0,2023-01-16,2023-01-16,ＫＡＲＩＭ　ＩＮＴＥＲＮＡＴＩＯＮＡＬ合同会社,,合同会社,東京都,北区,東十条５丁目１６番２０プロスペリティーＷ１０３号室,,13,117,1140001,,,,,,,2023-01-16,1,,,,,カリムインターナショナル,0
1050,4012401040066,新規,0,2023-01-16,2023-01-16,株式会社Ｍ＆Ｒ,,株式会社,東京都,三鷹市,上連雀９丁目１８番８号,,13,204,1810012,,,,,,,2023-01-16,1,,,,,エムアンドアール,0
1073,4020001149830,新規,0,2023-01-16,2023-01-16,大山彫刻株式会社,,株式会社,神奈川県,横浜市都筑区,川和町２７０９番地１５,,14,118,2240057,,,,,,,2023-01-16,1,,,,,オオヤマチョウコク,0
1074,4020001149855,新規,0,2023-01-16,2023-01-16,株式会社Ｓｔｅｌｌａ　ｂｒｉｄｇｅ,,株式会社,神奈川県,横浜市南区,永田北１丁目２７番１８号,,14,105,2320071,,,,,,,2023-01-16,1,,,,,ステラブリッジ,0
1075,4020003023075,新規,0,2023-01-16,2023-01-16,Ｋ＆Ｈ　ＰＲ合同会社,,合同会社,神奈川県,横浜市金沢区,柴町３６８－Ｓ－４０６,,14,108,2360012,,,,,,,2023-01-16,1,,,,,ケイアンドエイチピーアール,0
1079,4021001077914,新規,0,2023-01-16,2023-01-16,株式会社Ｔｏ　ｂｅ　Ｗｅｌｌ,,株式会社,神奈川県,相模原市緑区,大山町１番３１－２６０２号,,14,151,2520146,,,,,,,2023-01-16,1,,,,,トゥービーウェル,0
1080,4021001077955,新規,0,2023-01-16,2023-01-16,株式会社進和エステート,,株式会社,神奈川県,茅ヶ崎市,元町４番３３号,,14,207,2530043,,,,,,,2023-01-16,1,,,,,シンワエステート,0
1084,4030001151926,新規,0,2023-01-16,2023-01-16,株式会社岡崎工務店,00129088,株式会社,埼玉県,日高市,大字中鹿山４４７番地５２,,11,242,3501232,,,,,,,2023-01-16,1,,,,,オカザキコウムテン,0
1085,4030001151950,新規,0,2023-01-16,2023-01-16,株式会社ＣＡＮ　ＷＩＮ,,株式会社,埼玉県,川口市,南鳩ヶ谷４丁目１５番５号,,11,203,3340013,,,,,,,2023-01-16,1,,,,,キャンウィン,0
1089,4030003020872,新規,0,2023-01-16,2023-01-16,ＧＭＳＳ合同会社,,合同会社,埼玉県,川越市,菅原町１９番地１号伊勢原六番館７０２号室,,11,201,3500046,,,,,,,2023-01-16,1,,,,,ジーエムエスエス,0
1090,4030003020930,新規,0,2023-01-16,2023-01-16,合同会社Ｍ＆Ｏ,,合同会社,埼玉県,秩父郡横瀬町,大字横瀬６５８２―７,,11,361,3680072,,,,,,,2023-01-16,1,,,,,エムアンドオー,0
1095,4040001126514,新規,0,2023-01-16,2023-01-16,株式会社やえざくら,,株式会社,千葉県,富里市,七栄６５４番地７１４,,12,233,2860221,,,,,,,2023-01-16,1,,,,,ヤエザクラ,0
1096,4040001126638,新規,0,2023-01-16,2023-01-16,株式会社ＢＵＮＤＹ,,株式会社,千葉県,千葉市若葉区,多部田町２５６番地４,,12,104,2650066,,,,,,,2023-01-16,1,,,,,バンディ,0
1099,4040003021655,新規,0,2023-01-16,2023-01-16,合同会社トヨダペイント,,合同会社,千葉県,市原市,菊間２９１９－１５,,12,219,2900007,,,,,,,2023-01-16,1,,,,,トヨダペイント,0
1100,4040003021671,新規,0,2023-01-16,2023-01-16,合同会社ＷＩＮ　ＷＩＮ,,合同会社,千葉県,印西市,武西学園台３丁目６番地５,,12,231,2701355,,,,,,,2023-01-16,1,,,,,ウィンウィン,0
1101,4040003021688,新規,0,2023-01-16,2023-01-16,合同会社ＫＢ事務所,,合同会社,千葉県,松戸市,横須賀１丁目２６番地の１２,,12,207,2700031,,,,,,,2023-01-16,1,,,,,ケイビージムショ,0
1104,4040005021868,新規,0,2023-01-16,2023-01-16,社会福祉法人楽天堂,,その他の設立登記法人,千葉県,旭市,イの４３２２番地,,12,215,2892511,,,,,,,2023-01-16,1,,,,,ラクテンドウ,0
1105,4050001052247,新規,0,2023-01-16,2023-01-16,株式会社ＡｏｋｉＡｐｐ,,株式会社,茨城県,つくば市,吾妻２丁目５番地１号つくば市産業振興センター,,08,220,3050031,,,,,,,2023-01-16,1,,,,,アオキアップ,0
1115,4060003004377,新規,0,2023-01-16,2023-01-16,ＡＡ　ＭＯＴＯＲＳ合同会社,,合同会社,栃木県,足利市,鹿島町４４１番地みやま荘１階１０９号,,09,202,3260844,,,,,,,2023-01-16,1,,,,,エーエーモータース,0
1116,4060005010043,新規,0,2023-01-16,2023-01-16,農事組合法人海道ファーム,,その他の設立登記法人,栃木県,宇都宮市,海道町４８４番地２,,09,201,3210971,,,,,,,2023-01-16,1,,,,,カイドウファーム,0
1126,4080101023748,新規,0,2023-01-16,2023-01-16,株式会社コノハナ,,株式会社,静岡県,三島市,長伏１００番地の２５,,22,206,4110824,,,,,,,2023-01-16,1,,,,,コノハナ,0
1130,4090001017931,新規,0,2023-01-16,2023-01-16,株式会社ｇｅｎｔｅｎ,,株式会社,山梨県,甲府市,山宮町３０００番地１２,,19,201,4000075,,,,,,,2023-01-16,1,,,,,,0
1137,4120001251782,新規,0,2023-01-16,2023-01-16,株式会社プルメリア,,株式会社,大阪府,大阪市東成区,大今里南４丁目２番２０号,,27,115,5370013,,,,,,,2023-01-16,1,,,,,プルメリア,0
1138,4120001251790,新規,0,2023-01-16,2023-01-16,株式会社エニーウェア,,株式会社,大阪府,大阪市生野区,桃谷４丁目７番２８－２０１号,,27,116,5440034,,,,,,,2023-01-16,1,,,,,エニーウェア,0
1139,4120003023255,新規,0,2023-01-16,2023-01-16,ＫＡＲＩＮＡ　ＧＬＯＢＡＬ合同会社,,合同会社,大阪府,大阪市淀川区,木川東４丁目７番２３－５２１号,,27,123,5320012,,,,,,,2023-01-16,1,,,,,カリナグローバル,0
1140,4120003023263,新規,0,2023-01-16,2023-01-16,ＨＡＮ　Ｂｏｕｔｉｑｕｅ合同会社,,合同会社,大阪府,大阪市浪速区,下寺３丁目１８番４号ロイヤルハイム９Ｂ,,27,111,5560001,,,,,,,2023-01-16,1,,,,,ハンブティック,0
1148,4120901046984,新規,0,2023-01-16,2023-01-16,株式会社みずたま,,株式会社,大阪府,豊中市,熊野町１丁目８番３６号,,27,203,5600014,,,,,,,2023-01-16,1,,,,,ミズタマ,0
1149,4120901046992,新規,0,2023-01-16,2023-01-16,株式会社ＭｅＫＫｅ,,株式会社,大阪府,豊中市,寺内２丁目３番４号フローレス緑地公園Ｂ１,,27,203,5610872,,,,,,,2023-01-16,1,,,,,メッケ,0
1150,4120901047000,新規,0,2023-01-16,2023-01-16,株式会社ジェイカンパニー,,株式会社,大阪府,摂津市,鳥飼西２丁目１６番１６号,,27,224,5660072,,,,,,,2023-01-16,1,,,,,ジェイカンパニー,0
1151,4120901047009,新規,0,2023-01-16,2023-01-16,株式会社福福ファーム,,株式会社,大阪府,高槻市,須賀町４７番１９号,,27,207,5690022,,,,,,,2023-01-16,1,,,,,フクフクファーム,0
1167,4140001128681,新規,0,2023-01-16,2023-01-16,株式会社ＹＧＣ,,株式会社,兵庫県,姫路市,保城３５６番地２,,28,201,6700804,,,,,,,2023-01-16,1,,,,,ワイジーシー,0
1168,4140001128723,新規,0,2023-01-16,2023-01-16,株式会社トータスリノベーション,,株式会社,兵庫県,神戸市垂水区,神陵台９丁目１８番２０号,,28,108,6550041,,,,,,,2023-01-16,1,,,,,トータスリノベーション,0
1169,4140001128731,新規,0,2023-01-16,2023-01-16,さくらフューチャービジネス株式会社,,株式会社,兵庫県,尼崎市,七松町２丁目６番１７号,,28,202,6600052,,,,,,,2023-01-16,1,,,,,サクラフューチャービジネス,0
1171,4150001026091,新規,0,2023-01-16,2023-01-16,吉野フォレストリー株式会社,,株式会社,奈良県,五條市,五條１丁目３番３号,,29,207,6370042,,,,,,,2023-01-16,1,,,,,ヨシノフォレストリー,0
1178,4180001154559,新規,0,2023-01-16,2023-01-16,クリエイティビティ工業株式会社,,株式会社,愛知県,名古屋市守山区,大牧町２番２５号大牧ヒルズ４０４号,,23,113,4630085,,,,,,,2023-01-16,1,,,,,クリエイティビティコウギョウ,0
1179,4180001154575,新規,0,2023-01-16,2023-01-16,キャリオ総合研究所株式会社,,株式会社,愛知県,名古屋市西区,牛島町６番１号,,23,104,4510046,,,,,,,2023-01-16,1,,,,,キャリオソウゴウケンキュウショ,0
1180,4180001154583,新規,0,2023-01-16,2023-01-16,株式会社Ｓｏｌ　Ｖｉｎｏ,,株式会社,愛知県,名古屋市西区,上小田井１丁目２７５番地,,23,104,4520821,,,,,,,2023-01-16,1,,,,,ソルビーノ,0
1181,4180001154591,新規,0,2023-01-16,2023-01-16,株式会社ＭｅＭｅ,,株式会社,愛知県,名古屋市中区,丸の内３丁目１９番１４号財形久屋林敬ビル１１０５号,,23,106,4600002,,,,,,,2023-01-16,1,,,,,ミイミイ,0
1186,4180003024710,新規,0,2023-01-16,2023-01-16,ＲＨ合同会社,,合同会社,愛知県,名古屋市西区,名駅２丁目３４番１７号セントラル名古屋１１０１号,,23,104,4510045,,,,,,,2023-01-16,1,,,,,アールエイチ,0
1189,4180301036993,新規,0,2023-01-16,2023-01-16,株式会社あおい不動産,,株式会社,愛知県,豊川市,国府町桜田１２７番地ＫＨＯＢＥビル２Ｆ,,23,207,4420854,,,,,,,2023-01-16,1,,,,,アオイフドウサン,0
1190,4180301037001,新規,0,2023-01-16,2023-01-16,東海共創株式会社,,株式会社,愛知県,蒲郡市,平田町西長根５８番地,,23,214,4430004,,,,,,,2023-01-16,1,,,,,トウカイキョウソウ,0
1191,4180301037018,新規,0,2023-01-16,2023-01-16,株式会社アキトデザイン,,株式会社,愛知県,安城市,里町４丁目１８番地３０,,23,212,4460001,,,,,,,2023-01-16,1,,,,,アキトデザイン,0
1194,4180305009434,新規,0,2023-01-16,2023-01-16,りんく社会保険労務士法人,,その他の設立登記法人,愛知県,刈谷市,若松町１丁目４番地,,23,210,4480858,,,,,,,2023-01-16,1,,,,,リンク,0
1198,4190001030098,新規,0,2023-01-16,2023-01-16,株式会社カルディア,,株式会社,三重県,四日市市,高角町１５２７番地２,,24,202,5120923,,,,,,,2023-01-16,1,,,,,カルディア,0
1201,4200003005807,新規,0,2023-01-16,2023-01-16,Ａｍｂｉｔｉｏｎ合同会社,,合同会社,岐阜県,瑞穂市,祖父江字伯母塚東７番地,,21,216,5010225,,,,,,,2023-01-16,1,,,,,アンビション,0
1240,4260003004159,新規,0,2023-01-16,2023-01-16,合同会社Ｓｏｐｈｉａ,,合同会社,岡山県,倉敷市,新倉敷駅前４丁目５３番地３０２号室,,33,202,7100253,,,,,,,2023-01-16,1,,,,,ソフィア,0
1242,4270001008714,新規,0,2023-01-16,2023-01-16,株式会社若桜トワイライトリゾート,,株式会社,鳥取県,八頭郡若桜町,大字若桜７９９番地,,31,325,6800701,,,,,,,2023-01-16,1,,,,,ワカサトワイライトリゾート,0
1252,4310001018221,新規,0,2023-01-16,2023-01-16,株式会社Ｋｌａｎｇ,,株式会社,長崎県,佐世保市,上相浦町１０番２３号,,42,202,8580915,,,,,,,2023-01-16,1,,,,,クラング,0
1256,4330001030455,新規,0,2023-01-16,2023-01-16,原田金物店株式会社,,株式会社,熊本県,天草市,佐伊津町２５９６番地,,43,215,8632171,,,,,,,2023-01-16,1,,,,,ハラダカナモノテン,0
1257,4330001030505,新規,0,2023-01-16,2023-01-16,株式会社ブロッソ,,株式会社,熊本県,熊本市中央区,下通２丁目３番３号成尾ビル１階,,43,101,8600807,,,,,,,2023-01-16,1,,,,,ブロッソ,0
1259,4330003009670,新規,0,2023-01-16,2023-01-16,合同会社三山錺工所,,合同会社,熊本県,人吉市,下原田町字荒毛２０３４番地,,43,203,8680086,,,,,,,2023-01-16,1,,,,,ミヤマホウコウショ,0
1262,4360001031426,新規,0,2023-01-16,2023-01-16,株式会社イリオモテ・ナチュラル・ファーム,,株式会社,沖縄県,八重山郡竹富町,字上原８７０番地の６０,,47,381,9071541,,,,,,,2023-01-16,1,,,,,イリオモテナチュラルファーム,0
1263,4360001031434,新規,0,2023-01-16,2023-01-16,株式会社Ｏ‐ＭＡＳＡ,,株式会社,沖縄県,豊見城市,字平良１番地,,47,212,9010212,,,,,,,2023-01-16,1,,,,,オオマサ,0
1267,4380001033412,新規,0,2023-01-16,2023-01-16,株式会社進藤技研,,株式会社,福島県,福島市,黒岩字浜井場４５番地の９,,07,201,9608153,,,,,,,2023-01-16,1,,,,,シンドウギケン,0
1270,4400001016125,新規,0,2023-01-16,2023-01-16,株式会社ＨＵＧ,,株式会社,岩手県,花巻市,東和町田瀬１０区１５０,,03,205,0280123,,,,,,,2023-01-16,1,,,,,,0
1280,4430003014611,新規,0,2023-01-16,2023-01-16,合同会社ＥＶＳ,,合同会社,北海道,札幌市厚別区,厚別北六条５丁目８番１５号,,01,108,0040076,,,,,,,2023-01-16,1,,,,,イーブイエス,0
1281,4430003014636,新規,0,2023-01-16,2023-01-16,合同会社Ｐｏｎｏ,,合同会社,北海道,札幌市西区,琴似二条２丁目３番１号,,01,107,0630812,,,,,,,2023-01-16,1,,,,,ポノ,0
1283,4430005014626,新規,0,2023-01-16,2023-01-16,一般社団法人Ｏｎｅ　Ｅｉｇｈｔ,,その他の設立登記法人,北海道,札幌市北区,北三十条西１０丁目２番２４号,,01,102,0010030,,,,,,,2023-01-16,1,,,,,ワンエイト,0
1288,4460101007316,新規,0,2023-01-16,2023-01-16,悠永電工株式会社,,株式会社,北海道,帯広市,南の森西９丁目１番１５号,,01,207,0800862,,,,,,,2023-01-16,1,,,,,ユウエイデンコウ,0
1294,4700150112941,新規,0,2023-01-16,2022-11-16,ステイツ岡本・甲南山手管理組合,,その他,兵庫県,神戸市東灘区,森北町３丁目３番６号,,28,101,6580001,,,,,,,2022-11-16,1,,,,,ステイツオカモトコウナンヤマテカンリクミアイ,0
1295,4700150113758,新規,0,2023-01-16,2023-01-16,ＤＦＴ　ＴＥＣＨＮＯＬＯＧＹ　ＣＯ．，ＬＩＭＩＴＥＤ,,外国会社等,,,,,,,,ＦＬＡＴ／ＲＭ　０２，７／Ｆ，ＳＰＡ　ＣＥＮＴＲＥ，ＮＯ　５３－５５　ＬＯＣＫＨＡＲＴ　ＲＯＡＤ，ＷＡＮ　ＣＨＡＩ，ＨＫ．ＣＨＩＮＡ,,,,,,2023-01-16,1,,,,,タカカギユウゲンコウシ,0
1305,5010001232041,新規,0,2023-01-16,2023-01-16,バーミリオン株式会社,,株式会社,東京都,中央区,銀座７丁目１３番２０号銀座ＴＨビル９階,,13,102,1040061,,,,,,,2023-01-16,1,,,,,バーミリオン,0
1306,5010001232099,新規,0,2023-01-16,2023-01-16,株式会社Ｌａｍｐ,,株式会社,東京都,中央区,日本橋馬喰町２丁目３番５,,13,102,1030002,,,,,,,2023-01-16,1,,,,,ランプ,0
1307,5010001232149,新規,0,2023-01-16,2023-01-16,株式会社ｕｆｆｉｃｉｏ　Ｂｒｕｎｏ,,株式会社,東京都,中央区,銀座８丁目１０番５号第四秀和ビル３Ｆ,,13,102,1040061,,,,,,,2023-01-16,1,,,,,ウフィチオブルーノ,0
1308,5010001232181,新規,0,2023-01-16,2023-01-16,東水テック株式会社,,株式会社,東京都,中央区,日本橋蛎殻町１丁目６番４号,,13,102,1030014,,,,,,,2023-01-16,1,,,,,トウスイテック,0
1309,5010003039518,新規,0,2023-01-16,2023-01-16,合同会社イージスパートナー,,合同会社,東京都,千代田区,二番町４番地４パークハウス二番町３０４号,,13,101,1020084,,,,,,,2023-01-16,1,,,,,イージスパートナー,0
1310,5010003039559,新規,0,2023-01-16,2023-01-16,ＧＥＭＭ合同会社,,合同会社,東京都,千代田区,丸の内２丁目３番１号,,13,101,1000005,,,,,,,2023-01-16,1,,,,,ジーイーエムエム,0
1311,5010003039567,新規,0,2023-01-16,2023-01-16,合同会社キャンバス,,合同会社,東京都,千代田区,富士見２丁目７番１号プラウドタワー千代田富士見６１４,,13,101,1020071,,,,,,,2023-01-16,1,,,,,キャンバス,0
1314,5010005036117,新規,0,2023-01-16,2023-01-16,一般社団法人関東学生空手道連盟,,その他の設立登記法人,東京都,千代田区,北の丸公園２番地３,,13,101,1020091,,,,,,,2023-01-16,1,,,,,カントウガクセイカラテドウレンメイ,0
1320,5010401171780,新規,0,2023-01-16,2023-01-16,株式会社レイズ,,株式会社,東京都,港区,西麻布３丁目８番２３号,,13,103,1060031,,,,,,,2023-01-16,1,,,,,レイズ,0
1321,5010401171806,新規,0,2023-01-16,2023-01-16,株式会社ＭＯＨＩＰＩＬＡＴＥＳ,,株式会社,東京都,港区,南麻布２丁目１１番１０号ＯＪビル６Ｆ,,13,103,1060047,,,,,,,2023-01-16,1,,,,,モヒピラティス,0
1322,5010401171830,新規,0,2023-01-16,2023-01-16,株式会社Ｂｒｏｏｙｓｈ　Ｄｒｅａｍｓ,,株式会社,東京都,港区,南青山２丁目２番１５号,,13,103,1070062,,,,,,,2023-01-16,1,,,,,ブルーウィッシュドリームス,0
1323,5010403029242,新規,0,2023-01-16,2023-01-16,トラクル合同会社,,合同会社,東京都,港区,麻布十番２丁目１６－５ラ・ピアッツァ麻布十番７０１号,,13,103,1060045,,,,,,,2023-01-16,1,,,,,トラクル,0
1325,5010503006851,新規,0,2023-01-16,2023-01-16,合同会社ＢＩＬＡＮＸ,,合同会社,東京都,台東区,松が谷１丁目４番６号ライオンズマンション上野松が谷１階,,13,106,1110036,,,,,,,2023-01-16,1,,,,,ビランクス,0
1328,5010601062417,新規,0,2023-01-16,2023-01-16,株式会社ＳｉｒＴｏｋｓ,,株式会社,東京都,江東区,有明１丁目５番２号ブリリア有明シティタワー２８１５,,13,108,1350063,,,,,,,2023-01-16,1,,,,,サートックス,0
1329,5010601062425,新規,0,2023-01-16,2023-01-16,株式会社スノーボール,,株式会社,東京都,江東区,南砂６丁目３番２０号,,13,108,1360076,,,,,,,2023-01-16,1,,,,,スノーボール,0
1330,5010603009944,新規,0,2023-01-16,2023-01-16,合同会社５ｄｅｔｏｘｃｌｅａｒ,,合同会社,東京都,墨田区,緑３丁目１５番１２－５０５号,,13,107,1300021,,,,,,,2023-01-16,1,,,,,ファイブデトックスクリア,0
1332,5010703006544,新規,0,2023-01-16,2023-01-16,富里合同会社,,合同会社,東京都,品川区,北品川５丁目９－４２クレール北品川２１０,,13,109,1410001,,,,,,,2023-01-16,1,,,,,トミサト,0
1336,5010801033589,新規,0,2023-01-16,2023-01-16,株式会社オープン・ザ・ドア,,株式会社,東京都,大田区,中央１丁目１６番１号,,13,111,1430024,,,,,,,2023-01-16,1,,,,,オープンザドア,0
1337,5010801033597,新規,0,2023-01-16,2023-01-16,株式会社日本工芸著作権協会,,株式会社,東京都,大田区,上池台１丁目３４番２号,,13,111,1450064,,,,,,,2023-01-16,1,,,,,ニホンコウゲイチョサクケンキョウカイ,0
1340,5010901052332,新規,0,2023-01-16,2023-01-16,株式会社リモスタジオ,,株式会社,東京都,世田谷区,北烏山９丁目１５番２０号,,13,112,1570061,,,,,,,2023-01-16,1,,,,,リモスタジオ,0
1348,5011101101482,新規,0,2023-01-16,2023-01-16,株式会社Ｓｉｔｅ,,株式会社,東京都,新宿区,四谷坂町５－１,,13,104,1600002,,,,,,,2023-01-16,1,,,,,シテ,0
1349,5011101101490,新規,0,2023-01-16,2023-01-16,株式会社Ｃｕｒａ　Ｎｕｒｔｕｒｅ,,株式会社,東京都,新宿区,横寺町６８番地唐澤ビル２階,,13,104,1620831,,,,,,,2023-01-16,1,,,,,クーラナーチャ,0
1350,5011101101499,新規,0,2023-01-16,2023-01-16,Ｐｒｏｆｅｓｓｉｏｎａｌ　Ａｒｔｉｓｔｅｓ　Ｗｏｒｋｓｈｏｐ株式会社,,株式会社,東京都,新宿区,新宿５丁目１４番１２号天翔オフィス新宿三丁目５階５０６号室,,13,104,1600022,,,,,,,2023-01-16,1,,,,,プロフェッショナルアーティストワークショップ,0
1351,5011103012570,新規,0,2023-01-16,2023-01-16,合同会社Ｈｅａｒｔ　Ｂｅａｔ,,合同会社,東京都,新宿区,西新宿３丁目３番１３号西新宿水間ビル２Ｆ,,13,104,1600023,,,,,,,2023-01-16,1,,,,,ハートビート,0
1353,5011301028377,新規,0,2023-01-16,2023-01-16,株式会社ＣＯＮＹ,,株式会社,東京都,杉並区,浜田山３丁目８番３号,,13,115,1680065,,,,,,,2023-01-16,1,,,,,コニー,0
1354,5011301028385,新規,0,2023-01-16,2023-01-16,株式会社アーク,,株式会社,東京都,杉並区,荻窪３丁目３番１０号クレイモア荻窪１０４,,13,115,1670051,,,,,,,2023-01-16,1,,,,,アーク,0
1364,5011501028846,新規,0,2023-01-16,2023-01-16,株式会社オハナクリエーション,,株式会社,東京都,北区,志茂５丁目３７番３号,,13,117,1150042,,,,,,,2023-01-16,1,,,,,オハナクリエーション,0
1365,5011501028854,新規,0,2023-01-16,2023-01-16,東盛テクノロジー株式会社,,株式会社,東京都,北区,志茂４丁目４８番４－２１０号,,13,117,1150042,,,,,,,2023-01-16,1,,,,,トウセイテクノロジー,0
1366,5011503005430,新規,0,2023-01-16,2023-01-16,合同会社リカグラッサ,,合同会社,東京都,北区,赤羽３丁目２１番８号,,13,117,1150045,,,,,,,2023-01-16,1,,,,,リカグラッサ,0
1370,5011803005469,新規,0,2023-01-16,2023-01-16,合同会社荒井商事,,合同会社,東京都,足立区,青井６丁目５－１２,,13,121,1210012,,,,,,,2023-01-16,1,,,,,アライショウジ,0
1384,5013303006427,新規,0,2023-01-16,2023-01-16,ＢＩＬＬＡＨ合同会社,,合同会社,東京都,豊島区,南大塚２丁目３１番６有明荘１０１,,13,116,1700005,,,,,,,2023-01-16,1,,,,,ビラ,0
1389,5020001149805,新規,0,2023-01-16,2023-01-16,ＵＫＩＹＯ株式会社,,株式会社,神奈川県,横浜市青葉区,藤が丘１丁目１４番地１３グランドメゾン藤が丘４０２,,14,117,2270043,,,,,,,2023-01-16,1,,,,,ウキヨ,0
1392,5020003023009,新規,0,2023-01-16,2023-01-16,ロゴスコンサルティング合同会社,,合同会社,神奈川県,川崎市多摩区,宿河原１丁目１－１７－２０２,,14,135,2140021,,,,,,,2023-01-16,1,,,,,ロゴスコンサルティング,0
1393,5020003023074,新規,0,2023-01-16,2023-01-16,ｂｔｊ．ｓｙｓｔｅｍｓ合同会社,,合同会社,神奈川県,横浜市西区,浅間町１丁目４番３号ウィザードビル４０２,,14,103,2200072,,,,,,,2023-01-16,1,,,,,ブトジシステム,0
1394,5020003023108,新規,0,2023-01-16,2023-01-16,Ｋｏｍｉｔａｎ　Ｐｌａｎｎｉｎｇ合同会社,,合同会社,神奈川県,横浜市栄区,桂町５番地１３,,14,115,2470005,,,,,,,2023-01-16,1,,,,,コミタンプランニング,0
1402,5030001151933,新規,0,2023-01-16,2023-01-16,株式会社ＡＥＲＡＳ,,株式会社,埼玉県,八潮市,大字大曽根１５１６番地８,,11,234,3400834,,,,,,,2023-01-16,1,,,,,アエラス,0
1403,5030001151974,新規,0,2023-01-16,2023-01-16,ＭＡＬＡＫ　ＡＴＴＡＵＬＬＡＨ　ＴＲＡＤＩＮＧ株式会社,,株式会社,埼玉県,八潮市,大字木曽根１５８３番地２恩田荘１０２,,11,234,3400813,,,,,,,2023-01-16,1,,,,,マラクアタウラトレーディング,0
1404,5030001151982,新規,0,2023-01-16,2023-01-16,株式会社マティアス,,株式会社,埼玉県,川口市,金山町２番１５号,,11,203,3320014,,,,,,,2023-01-16,1,,,,,マティアス,0
1408,5030003020946,新規,0,2023-01-16,2023-01-16,合同会社アハマドエンタープライズ,,合同会社,埼玉県,熊谷市,末広３丁目５番５５号熊谷末広住宅２０５,,11,202,3600031,,,,,,,2023-01-16,1,,,,,アハマドエンタープライズ,0
1409,5040001126513,新規,0,2023-01-16,2023-01-16,株式会社勝麗,,株式会社,千葉県,船橋市,海神１丁目２０番２０－２０３号,,12,204,2730021,,,,,,,2023-01-16,1,,,,,ショウレイ,0
1410,5040001126637,新規,0,2023-01-16,2023-01-16,株式会社Ｂｌｕｅ　Ｏｃｅａｎ,,株式会社,千葉県,松戸市,栗ケ沢７７７番地の１４,,12,207,2700022,,,,,,,2023-01-16,1,,,,,ブルーオーシャン,0
1411,5040001126645,新規,0,2023-01-16,2023-01-16,株式会社造園庭たつ,,株式会社,千葉県,千葉市若葉区,小倉台６丁目１１５９番地１３,,12,104,2640006,,,,,,,2023-01-16,1,,,,,ゾウエンニワタツ,0
1415,5040003021695,新規,0,2023-01-16,2023-01-16,ＬＥＭＡＲ　ＩＮＴＥＲＮＡＴＩＯＮＡＬ合同会社,,合同会社,千葉県,山武市,雨坪１０７－１Ｂ,,12,237,2891213,,,,,,,2023-01-16,1,,,,,レマーインターナショナル,0
1417,5050001052254,新規,0,2023-01-16,2023-01-16,株式会社ＤＪエステート,,株式会社,茨城県,つくば市,研究学園６丁目４９番地５ＤＪ研究学園,,08,220,3050817,,,,,,,2023-01-16,1,,,,,ディージェーエステート,0
1418,5050001052262,新規,0,2023-01-16,2023-01-16,株式会社Ｍｅｄｉｃａｌ　Ｐｅｒｃｈ,,株式会社,茨城県,ひたちなか市,大字高場１４３９番地５,,08,221,3120062,,,,,,,2023-01-16,1,,,,,メディカルパーチ,0
1419,5050003007149,新規,0,2023-01-16,2023-01-16,合同会社ＥＭＳＳ,,合同会社,茨城県,取手市,桜が丘１丁目３６番１１号,,08,217,3001525,,,,,,,2023-01-16,1,,,,,イーエムエスエス,0
1420,5050003007157,新規,0,2023-01-16,2023-01-16,合同会社ＮＥＳＴ,,合同会社,茨城県,坂東市,猫実８９７番地,,08,228,3060616,,,,,,,2023-01-16,1,,,,,ネスト,0
1422,5060001035621,新規,0,2023-01-16,2023-01-16,株式会社ＡＭ・Ｔ,,株式会社,栃木県,小山市,神山２丁目８番７号,,09,208,3230828,,,,,,,2023-01-16,1,,,,,エーエムティー,0
1427,5070001040018,新規,0,2023-01-16,2023-01-16,Ｏｒａｌ　ＮＥＴ　ｗｏｒｋｓ株式会社,,株式会社,群馬県,館林市,堀工町１２１０番地の３,,10,207,3740033,,,,,,,2023-01-16,1,,,,,オーラルネットワークス,0
1435,5080101023747,新規,0,2023-01-16,2023-01-16,株式会社カトー企画,,株式会社,静岡県,沼津市,大諏訪７２７番地の３,,22,203,4100873,,,,,,,2023-01-16,1,,,,,カトーキカク,0
1437,5080105006310,新規,0,2023-01-16,2023-01-16,一般社団法人富士こども若者サポートｗｉｔｈ,,その他の設立登記法人,静岡県,富士市,中央町１丁目１０番１１号富士ビル４階北柿崎法律事務所内,,22,210,4170052,,,,,,,2023-01-16,1,,,,,フジコドモワカモノサポートウィズ,0
1438,5080401026251,新規,0,2023-01-16,2023-01-16,聖明洲商事株式会社,,株式会社,静岡県,湖西市,新所原３丁目３番３４号,,22,221,4310424,,,,,,,2023-01-16,1,,,,,セイメイシュショウジ,0
1439,5090001017930,新規,0,2023-01-16,2023-01-16,株式会社ＡＺＵＫＡＲＵ,,株式会社,山梨県,甲州市,塩山上塩後５８４番地７,,19,213,4040045,,,,,,,2023-01-16,1,,,,,,0
1443,5100003006847,新規,0,2023-01-16,2023-01-16,合同会社マルトモ商事,,合同会社,長野県,長野市,七二会己８３０番地４,,20,201,3813163,,,,,,,2023-01-16,1,,,,,マルトモショウジ,0
1456,5120001251609,新規,0,2023-01-16,2023-01-16,辻建株式会社,00129071,株式会社,大阪府,門真市,大池町１５番２３－８１０号,,27,223,5710076,,,,,,,2023-01-16,1,,,,,ツジケン,0
1457,5120001251682,新規,0,2023-01-16,2023-01-16,株式会社サムライハンズ,,株式会社,大阪府,大阪市中央区,上汐２丁目５番２４号,,27,128,5420064,,,,,,,2023-01-16,1,,,,,サムライハンズ,0
1458,5120001251690,新規,0,2023-01-16,2023-01-16,カナメ興産株式会社,,株式会社,大阪府,大阪市西淀川区,野里２丁目２５番５－７０７号,,27,113,5550024,,,,,,,2023-01-16,1,,,,,カナメコウサン,0
1459,5120001251724,新規,0,2023-01-16,2023-01-16,ＧｒｅｅｎＳｈｏｔ株式会社,,株式会社,大阪府,大阪市北区,梅田１丁目２番２号大阪駅前第２ビル１２－１２,,27,127,5300001,,,,,,,2023-01-16,1,,,,,グリーンショット,0
1460,5120001251781,新規,0,2023-01-16,2023-01-16,ゲームチェンジ株式会社,,株式会社,大阪府,大阪市中央区,淡路町３丁目５－１３創建御堂筋ビル２Ｆ２０４,,27,128,5410047,,,,,,,2023-01-16,1,,,,,ゲームチェンジ,0
1461,5120001251807,新規,0,2023-01-16,2023-01-16,株式会社グレイトフル,,株式会社,大阪府,大阪市大正区,北村１丁目２番７号,,27,108,5510032,,,,,,,2023-01-16,1,,,,,グレイトフル,0
1464,5120003023254,新規,0,2023-01-16,2023-01-16,アーセナル合同会社,,合同会社,大阪府,大阪市住之江区,南港北１丁目２５番１０－１５０４号,,27,125,5590034,,,,,,,2023-01-16,1,,,,,アーセナル,0
1465,5120005023392,新規,0,2023-01-16,2023-01-16,一般社団法人西日本大連總商会,,その他の設立登記法人,大阪府,大阪市北区,西天満３丁目５－１８第三新興ビル２Ｆ,,27,127,5300047,,,,,,,2023-01-16,1,,,,,ニシニホンダイレンソウショウカイ,0
1469,5120103005029,新規,0,2023-01-16,2023-01-16,合同会社タカオ,,合同会社,大阪府,松原市,天美西２丁目３番１９号,,27,217,5800034,,,,,,,2023-01-16,1,,,,,タカオ,0
1472,5120903004460,新規,0,2023-01-16,2023-01-16,合同会社ＫＤ　ＰＬＵＳ,,合同会社,大阪府,吹田市,山田南４４番９号,,27,205,5650823,,,,,,,2023-01-16,1,,,,,ケイディープラス,0
1473,5122001036584,新規,0,2023-01-16,2023-01-16,株式会社ＷＡＴＥＲ,,株式会社,大阪府,大東市,北条１丁目１８番５０号,,27,218,5740011,,,,,,,2023-01-16,1,,,,,ウォーター,0
1474,5122001036592,新規,0,2023-01-16,2023-01-16,株式会社ＣＳ総研,,株式会社,大阪府,大東市,末広町１番２００５号,,27,218,5740036,,,,,,,2023-01-16,1,,,,,シーエスソウケン,0
1478,5130001073432,新規,0,2023-01-16,2023-01-16,ＡＭＩＤＡＯ株式会社,,株式会社,京都府,京都市中京区,烏丸通押小路上る秋野々町５３５番地,,26,104,6040847,,,,,,,2023-01-16,1,,,,,アミダオ,0
1479,5130001073440,新規,0,2023-01-16,2023-01-16,株式会社Ｉｎｃ,,株式会社,京都府,京都市中京区,新町通三条上る町頭町１１２番地菊三ビル２階,,26,104,6048206,,,,,,,2023-01-16,1,,,,,インク,0
1490,5140001128697,新規,0,2023-01-16,2023-01-16,株式会社芦屋リーガルデザイン,00129065,株式会社,兵庫県,芦屋市,船戸町３番２５－３０２号,,28,206,6590093,,,,,,,2023-01-16,1,,,,,アシヤリーガルデザイン,0
1491,5140001128706,新規,0,2023-01-16,2023-01-16,コステージ・ホテルマネジメント株式会社,,株式会社,兵庫県,神戸市東灘区,森北町６丁目３番４号,,28,101,6580001,,,,,,,2023-01-16,1,,,,,コステージホテルマネジメント,0
1492,5140001128722,新規,0,2023-01-16,2023-01-16,株式会社楓ソリューションズ,,株式会社,兵庫県,たつの市,揖保町萩原１６７番地,,28,229,6794145,,,,,,,2023-01-16,1,,,,,カエデソリューションズ,0
1493,5140001128730,新規,0,2023-01-16,2023-01-16,めぐりめぐる株式会社,,株式会社,兵庫県,たつの市,揖保川町二塚１９７番地５,,28,229,6711613,,,,,,,2023-01-16,1,,,,,メグリメグル,0
1494,5140001128739,新規,0,2023-01-16,2023-01-16,株式会社地球を笑わせる,,株式会社,兵庫県,芦屋市,南宮町６番１６－６０７号,,28,206,6590024,,,,,,,2023-01-16,1,,,,,チキュウヲワラワセル,0
1495,5140001128763,新規,0,2023-01-16,2023-01-16,株式会社グローカル,,株式会社,兵庫県,尼崎市,昭和通２丁目６番６８号尼崎市中小企業センターアイル３Ｆ,,28,202,6600881,,,,,,,2023-01-16,1,,,,,グローカル,0
1496,5140003018566,新規,0,2023-01-16,2023-01-16,合同会社Ａ．Ｓ．Ａ,,合同会社,兵庫県,芦屋市,山芦屋町２４番１６号,00129090,28,206,6590082,,,,,,,2023-01-16,1,,,,,エーエスエー,0
1505,5180001154574,新規,0,2023-01-16,2023-01-16,株式会社ニワデン,,株式会社,愛知県,名古屋市西区,名駅２丁目３４番１７号セントラル名古屋ビル１１０１号,,23,104,4510045,,,,,,,2023-01-16,1,,,,,ニワデン,0
1506,5180001154582,新規,0,2023-01-16,2023-01-16,株式会社ＢＣＰ,,株式会社,愛知県,名古屋市東区,葵２丁目１３番１３号,,23,102,4610004,,,,,,,2023-01-16,1,,,,,ビーシーピー,0
1507,5180001154590,新規,0,2023-01-16,2023-01-16,株式会社ｌｅａｄ,,株式会社,愛知県,名古屋市中川区,百船町１５番１３号３Ｆ,,23,110,4540801,,,,,,,2023-01-16,1,,,,,リード,0
1508,5180001154608,新規,0,2023-01-16,2023-01-16,株式会社Ｆ．Ｒ．ＴＲＡＤＩＮＧ,,株式会社,愛知県,尾張旭市,平子町長池上６３１１番地１,,23,226,4880872,,,,,,,2023-01-16,1,,,,,エフアールトレーディング,0
1515,5180005020079,新規,0,2023-01-16,2023-01-16,一般社団法人あまなば,,その他の設立登記法人,愛知県,名古屋市昭和区,阿由知通５丁目１４番地ＦＢ恵方マンション４０３号,,23,107,4660027,,,,,,,2023-01-16,1,,,,,アマナバ,0
1518,5180303005566,新規,0,2023-01-16,2023-01-16,合同会社ぴちこ,,合同会社,愛知県,知立市,谷田町本林３丁目８番地５,,23,225,4720015,,,,,,,2023-01-16,1,,,,,ピチコ,0
1519,5180305009433,新規,0,2023-01-16,2023-01-16,みかわ税理士法人,,その他の設立登記法人,愛知県,豊橋市,前田南町２丁目８番地６,,23,201,4400851,,,,,,,2023-01-16,1,,,,,ミカワ,0
1522,5200001040870,新規,0,2023-01-16,2023-01-16,ひるい興業株式会社,,株式会社,岐阜県,大垣市,昼飯町岩原１２４２番地４,,21,202,5032216,,,,,,,2023-01-16,1,,,,,ヒルイコウギョウ,0
1532,5210005010076,新規,0,2023-01-16,2023-01-16,特定非営利活動法人キリン・マークス,,その他の設立登記法人,福井県,越前市,文京２丁目１４番３号,,18,209,9150841,,,,,,,2023-01-16,1,,,,,キリンマークス,0
1540,5220003003436,新規,0,2023-01-16,2023-01-16,合同会社えいと,,合同会社,石川県,金沢市,泉本町７丁目３番地１,,17,201,9218042,,,,,,,2023-01-16,1,,,,,エイト,0
1550,5240001060964,新規,0,2023-01-16,2023-01-16,ことのは株式会社,,株式会社,広島県,広島市安佐南区,緑井５丁目２４番２４－３０２号,,34,105,7310103,,,,,,,2023-01-16,1,,,,,コトノハ,0
1552,5250001019927,新規,0,2023-01-16,2023-01-16,プレシャスデイズ株式会社,,株式会社,山口県,下関市,長府松小田中町１３－２０サンパレス２０１,,35,201,7520935,,,,,,,2023-01-16,1,,,,,プレシャスデイズ,0
1561,5260001037589,新規,0,2023-01-16,2023-01-16,株式会社アールテック,,株式会社,岡山県,岡山市南区,植松５３１番地１,,33,104,7100151,,,,,,,2023-01-16,1,,,,,アールテック,0
1581,5260003004158,新規,0,2023-01-16,2023-01-16,合同会社ファントム,,合同会社,岡山県,笠岡市,笠岡２６８番地,,33,205,7140081,,,,,,,2023-01-16,1,,,,,ファントム,0
1586,5260005011185,新規,0,2023-01-16,2023-01-16,一般社団法人国際いろ音あそび教育協会,,その他の設立登記法人,岡山県,井原市,美星町黒忠１０２４番地,,33,207,7141407,,,,,,,2023-01-16,1,,,,,コクサイイロオトアソビキョウイクキョウカイ,0
1594,5290001100212,新規,0,2023-01-16,2023-01-16,株式会社ＤＯＯＲＳ,,株式会社,福岡県,福岡市東区,箱崎２丁目９番２４号,,40,131,8120053,,,,,,,2023-01-16,1,,,,,ドアーズ,0
1596,5290003013420,新規,0,2023-01-16,2023-01-16,西日本ルーフ工業合同会社,,合同会社,福岡県,糟屋郡篠栗町,大字乙犬字中園６２－１,,40,342,8112412,,,,,,,2023-01-16,1,,,,,ニシニホンルーフコウギョウ,0
1606,5360001031425,新規,0,2023-01-16,2023-01-16,株式会社Ｗｅｌｌｃｏｍｅ,,株式会社,沖縄県,中頭郡読谷村,字長浜１１１３番地１４ＮａｙａｎａＨｉｌｌｓ４０２,,47,324,9040324,,,,,,,2023-01-16,1,,,,,ウェルカム,0
1609,5360003012638,新規,0,2023-01-16,2023-01-16,合同会社ＴＫＳＳ,,合同会社,沖縄県,宜野湾市,宜野湾３丁目１３番３０－５０２号ファイン志真志,,47,205,9012211,,,,,,,2023-01-16,1,,,,,ティーケイエスエス,0
1616,5370001049499,新規,0,2023-01-16,2023-01-16,株式会社ＺＥＲＯ,,株式会社,宮城県,仙台市青葉区,国分町３丁目８－１,,04,101,9800803,,,,,,,2023-01-16,1,,,,,ゼロ,0
1626,5390001017132,新規,0,2023-01-16,2023-01-16,株式会社ファウスト,,株式会社,山形県,山形市,青田３丁目９番５８号,,06,201,9902435,,,,,,,2023-01-16,1,,,,,ファウスト,0
1636,5430001088193,新規,0,2023-01-16,2023-01-16,ツインクル株式会社,,株式会社,北海道,札幌市東区,北七条東３丁目１５番地３０,,01,103,0600907,,,,,,,2023-01-16,1,,,,,ツインクル,0
1637,5430001088210,新規,0,2023-01-16,2023-01-16,株式会社ＳＫルーム,,株式会社,北海道,札幌市東区,北十一条東１丁目１番４０号ＳＡＫＵＲＡ－Ｎ１１　３Ｆ,,01,103,0650011,,,,,,,2023-01-16,1,,,,,エスケールーム,0
1638,5430001088219,新規,0,2023-01-16,2023-01-16,株式会社ｅｔｉｃｏ　ｐａｒａｉｓｏ,,株式会社,北海道,札幌市厚別区,もみじ台北４丁目１番１０号,,01,108,0040014,,,,,,,2023-01-16,1,,,,,エティコパライソ,0
1639,5430003014610,新規,0,2023-01-16,2023-01-16,合同会社ＯＮＥＳ,,合同会社,北海道,札幌市中央区,南十七条西１５丁目２番２５－２０３号,,01,101,0640917,,,,,,,2023-01-16,1,,,,,ワンズ,0
1653,5700150113749,新規,0,2023-01-16,2023-01-16,Ｄｏｎｇｇｕａｎ　Ｚｉｒｉ　Ｅ－ｃｏｍｍｅｒｃｅ　Ｃｏ．，Ｌｔｄ．,,外国会社等,,,,,,,,Ｎｏ．０００２２３，ｒｍ２０６，２ｎｄ　ｆｌ，ｂｌｄｇ６，Ｎｏ．１　Ｃｏｍｐｒｅｈｅｎｓｉｖｅ　Ｔｅｓｔ　Ｂａｓｅ，Ｄｏｎｇｋｅ　Ｒｄ　Ｄｏｎｇｃｈｅｎｇ　Ｓｃｉｅｎｃｅ　ａｎｄ　Ｔｅｃｈｎｏｌｏｇｙ　Ｉｎｄｕｓｔｒｉａｌ　Ｐａｒｋ，Ｄｏｎｇｇｕａｎ，Ｇｕａｎｇｄｏｎｇ，ｃｈｉｎａ,,,,,,2023-01-16,1,,,,,トンコワンジーリーイーコマースカンパニーリミテッド,0
1654,5700150113757,新規,0,2023-01-16,2023-01-16,ｓｈｅｎｚｈｅｎｓｈｉ　ｚｕｏｊｕｅｋ　ｊｉ　ｙｏｕｘｉａｎｇｏｎｇｓｉ,,外国会社等,,,,,,,,ｂａｎｔｉａｎ　ｊｉｅ　ｄａｏ　ｍａ　ａｎ　ｔａｎｇ　ｓｈｅ　ｑｕ　ｙｏｎｇ　ｘｉａｎｇ　ｄｏｎｇ　ｌｕ　１７　ｈａｏ　Ｃ　ｄｏｎｇ　ｃｈａｎｇ　ｆａｎｇ　２１９，ｓｈｅｎ　ｚｈｅｎ　ｓｈｉ　ｌｏｎｇ　ｇａｎｇ　ｑｕＧｕａｎｇ　Ｄｏｎｇ　ｓｈｅｎｇ，Ｃｈｉｎａ,,,,,,2023-01-16,1,,,,,シンセンシサシャクカギユウゲンコウシ,0
1665,6010003039517,新規,0,2023-01-16,2023-01-16,ＴＩＣｎｏｌｏｇｙ　Ｊａｐａｎ合同会社,,合同会社,東京都,中央区,銀座１丁目１２番４号Ｎ＆ＥＢＬＤ．６Ｆ,,13,102,1040061,,,,,,,2023-01-16,1,,,,,ティクノロジージャパン,0
1669,6010005036116,新規,0,2023-01-16,2023-01-16,一般社団法人ｋａｍｍｏｎ,,その他の設立登記法人,東京都,千代田区,隼町３番１９号隼東幸ビル４階,,13,101,1020092,,,,,,,2023-01-16,1,,,,,カモン,0
1676,6010405021725,新規,0,2023-01-16,2023-01-16,一般社団法人にっぽんコン,,その他の設立登記法人,東京都,港区,六本木１丁目３番３９－９１４号,,13,103,1060032,,,,,,,2023-01-16,1,,,,,ニッポンコン,0
1678,6010503006842,新規,0,2023-01-16,2023-01-16,少年ボンバッド合同会社,,合同会社,東京都,台東区,東上野１丁目１０番１２号三洋第二ビル４Ｆ,,13,106,1100015,,,,,,,2023-01-16,1,,,,,ショウネンボンバッド,0
1679,6010503006850,新規,0,2023-01-16,2023-01-16,合同会社Ｓｋｙｌｉｇｈｔ,,合同会社,東京都,台東区,西浅草２丁目１１番２号島谷ビル２０１,,13,106,1110035,,,,,,,2023-01-16,1,,,,,スカイライト,0
1682,6010601062424,新規,0,2023-01-16,2023-01-16,株式会社ルーチェ,,株式会社,東京都,江東区,枝川３丁目９番１０号,,13,108,1350051,,,,,,,2023-01-16,1,,,,,ルーチェ,0
1691,6010903007903,新規,0,2023-01-16,2023-01-16,Ａｗｅｓｏｍｅ合同会社,,合同会社,東京都,世田谷区,松原１丁目５４－８スカイコート明大前８０１,,13,112,1560043,,,,,,,2023-01-16,1,,,,,,0
1695,6011001151940,新規,0,2023-01-16,2023-01-16,株式会社Ｉｎｆｌｕｅｎｃｅｒ　Ｔｅｃｈ,,株式会社,東京都,渋谷区,神泉町１０番１５号,,13,113,1500045,,,,,,,2023-01-16,1,,,,,インフルエンサーテック,0
1696,6011001151998,新規,0,2023-01-16,2023-01-16,株式会社ＨＡＬＯ,,株式会社,東京都,渋谷区,西原２丁目４４番３号メゾンドアイ２０１,,13,113,1510066,,,,,,,2023-01-16,1,,,,,ハロ,0
1697,6011001152030,新規,0,2023-01-16,2023-01-16,株式会社ハピランド,,株式会社,東京都,目黒区,東が丘２丁目１３番１６号,,13,110,1520021,,,,,,,2023-01-16,1,,,,,ハピランド,0
1700,6011101101473,新規,0,2023-01-16,2023-01-16,株式会社Ｓａｎｏ　ＢＳ,,株式会社,東京都,新宿区,西新宿３丁目４番１１号７０２号室,,13,104,1600023,,,,,,,2023-01-16,1,,,,,サノビーエス,0
1701,6011101101498,新規,0,2023-01-16,2023-01-16,ＴｏＣｏ株式会社,,株式会社,東京都,新宿区,新宿３丁目２３－１２パンドラビルＢ１,,13,104,1600022,,,,,,,2023-01-16,1,,,,,トコ,0
1716,6011501028845,新規,0,2023-01-16,2023-01-16,株式会社七福舎,,株式会社,東京都,荒川区,南千住５丁目３９番１号,,13,118,1160003,,,,,,,2023-01-16,1,,,,,シチフクシャ,0
1717,6011501028853,新規,0,2023-01-16,2023-01-16,アルケイオンス株式会社,,株式会社,東京都,北区,滝野川１丁目５４番１号西崎ビル３階,,13,117,1140023,,,,,,,2023-01-16,1,,,,,アルケイオンス,0
1718,6011701025956,新規,0,2023-01-16,2023-01-16,Ｓａｌｔ＆Ｐｅｐｐｅｒ株式会社,,株式会社,東京都,江戸川区,篠崎町８丁目１１番１６号,,13,123,1330061,,,,,,,2023-01-16,1,,,,,ソルトアンドペッパー,0
1726,6011805003239,新規,0,2023-01-16,2023-01-16,一般社団法人のんの,,その他の設立登記法人,東京都,足立区,梅田２丁目１２番１号どきどきビル,,13,121,1230851,,,,,,,2023-01-16,1,,,,,ノンノ,0
1729,6012301013277,新規,0,2023-01-16,2023-01-16,株式会社ＴＹサービス,,株式会社,東京都,町田市,高ヶ坂６丁目１６－２１－２Ｆ,,13,209,1940014,,,,,,,2023-01-16,1,,,,,ティーワイサービス,0
1736,6012401040080,新規,0,2023-01-16,2023-01-16,ＦＬＵＣＴ株式会社,,株式会社,東京都,三鷹市,上連雀６丁目２７番１６号,,13,204,1810012,,,,,,,2023-01-16,1,,,,,フラクト,0
1747,6013303006426,新規,0,2023-01-16,2023-01-16,ＬＡＲＳＫＡＲＴ合同会社,,合同会社,東京都,豊島区,南大塚３丁目４５番４ドエル朝日５０２号室,,13,116,1700005,,,,,,,2023-01-16,1,,,,,ラルスカート,0
1748,6013303006450,新規,0,2023-01-16,2023-01-16,合同会社ＷＥＳＴＣＩＴＹ,,合同会社,東京都,豊島区,南池袋２丁目４９－７池袋パークビル１Ｆ,,13,116,1710022,,,,,,,2023-01-16,1,,,,,ウエストシティ,0
1758,6020001149820,新規,0,2023-01-16,2023-01-16,株式会社ＡＲＧＯ,,株式会社,神奈川県,横浜市中区,住吉町１丁目１２番地５横浜エクセレントＸＶＩ４階,,14,104,2310013,,,,,,,2023-01-16,1,,,,,アルゴ,0
1763,6020003023098,新規,0,2023-01-16,2023-01-16,合同会社ＤＥＢＥＳＯ,,合同会社,神奈川県,川崎市多摩区,登戸新町４０番地１ポディウムＩ２０１,00129076,14,135,2140013,,,,,,,2023-01-16,1,,,,,デベソ,0
1766,6021001077912,新規,0,2023-01-16,2023-01-16,株式会社ＩＳＰＡＫＩ,,株式会社,神奈川県,藤沢市,鵠沼桜が岡２丁目８番３１～１２号,,14,205,2510027,,,,,,,2023-01-16,1,,,,,イスパキ,0
1767,6021003012594,新規,0,2023-01-16,2023-01-16,合同会社Ｒ＆Ｓ,,合同会社,神奈川県,中郡二宮町,中里２丁目３５番２０号,,14,342,2590131,,,,,,,2023-01-16,1,,,,,アールアンドエス,0
1772,6030001151924,新規,0,2023-01-16,2023-01-16,株式会社Ｔ’ｓ,,株式会社,埼玉県,さいたま市北区,吉野町２丁目２１５番地２６,,11,102,3310811,,,,,,,2023-01-16,1,,,,,ティーズ,0
1773,6030001151932,新規,0,2023-01-16,2023-01-16,株式会社新しい火,,株式会社,埼玉県,比企郡滑川町,大字福田２９５－１,,11,341,3550803,,,,,,,2023-01-16,1,,,,,アタラシイヒ,0
1774,6030001151957,新規,0,2023-01-16,2023-01-16,＿芯動力株式会社,00129068,株式会社,埼玉県,越谷市,東越谷９丁目３１４３－１８,,11,222,3430023,,,,,,,2023-01-16,1,,,,,タイシンドウリョク,0
1775,6030001151981,新規,0,2023-01-16,2023-01-16,天一株式会社,,株式会社,埼玉県,川口市,中青木４丁目２番１３号,,11,203,3320032,,,,,,,2023-01-16,1,,,,,テンイチ,0
1778,6030003020945,新規,0,2023-01-16,2023-01-16,合同会社大我エンタープライズ,,合同会社,埼玉県,熊谷市,小島７１９番地１,,11,202,3600832,,,,,,,2023-01-16,1,,,,,タイガエンタープライズ,0
1779,6030003020953,新規,0,2023-01-16,2023-01-16,よしざわ設計合同会社,,合同会社,埼玉県,越谷市,東大沢３丁目２８番地５アネックス加藤６０３,,11,222,3430022,,,,,,,2023-01-16,1,,,,,ヨシザワセッケイ,0
1780,6030003020961,新規,0,2023-01-16,2023-01-16,ＴＫトラスト合同会社,,合同会社,埼玉県,さいたま市見沼区,大字小深作６５１番地７,,11,104,3370005,,,,,,,2023-01-16,1,,,,,ティーケートラスト,0
1782,6030005021108,新規,0,2023-01-16,2023-01-16,一般社団法人日本ＢＴＨセラピスト協会,,その他の設立登記法人,埼玉県,さいたま市北区,日進町３丁目４９７番地１,,11,102,3310823,,,,,,,2023-01-16,1,,,,,ニホンビーティーエイチセラピストキョウカイ,0
1786,6040001126578,新規,0,2023-01-16,2023-01-16,エフネクスト株式会社,,株式会社,千葉県,八千代市,緑が丘１丁目２番１－２０１号,,12,221,2760049,,,,,,,2023-01-16,1,,,,,エフネクスト,0
1787,6040001126636,新規,0,2023-01-16,2023-01-16,株式会社トリニティキャピタル,,株式会社,千葉県,松戸市,小根本１３７－１アルス松戸カームガーデン３０４,,12,207,2710073,,,,,,,2023-01-16,1,,,,,トリニティキャピタル,0
1788,6040001126644,新規,0,2023-01-16,2023-01-16,株式会社ＭＴＹ,,株式会社,千葉県,市川市,八幡３丁目２６番６号第一山本ビル４階,,12,203,2720021,,,,,,,2023-01-16,1,,,,,エムティーワイ,0
1789,6040001126660,新規,0,2023-01-16,2023-01-16,株式会社ＨｔｏＥ,,株式会社,千葉県,千葉市花見川区,南花園１丁目１０－１１,,12,102,2620022,,,,,,,2023-01-16,1,,,,,エイチトゥーイー,0
1790,6040001126669,新規,0,2023-01-16,2023-01-16,株式会社Ｅｌｅｍｅｎｔ,,株式会社,千葉県,柏市,十余二４番地１０６,,12,217,2770872,,,,,,,2023-01-16,1,,,,,エレメント,0
1791,6040001126677,新規,0,2023-01-16,2023-01-16,株式会社ＮＩＣＯＴＥＣ,,株式会社,千葉県,松戸市,馬橋３２６４－１,,12,207,2710051,,,,,,,2023-01-16,1,,,,,ニコテック,0
1795,6040003021686,新規,0,2023-01-16,2023-01-16,合同会社アディスタ,,合同会社,千葉県,船橋市,西船４丁目３０番地２７号サムティレジデンス西船橋Ｌｉｂｒｅ４０３号室,,12,204,2730031,,,,,,,2023-01-16,1,,,,,アディスタ,0
1796,6040003021694,新規,0,2023-01-16,2023-01-16,合同会社ＳＵＭＩＲＥ,,合同会社,千葉県,四街道市,大日８６５番地３３号,,12,228,2840001,,,,,,,2023-01-16,1,,,,,スミレ,0
1797,6050001052162,新規,0,2023-01-16,2023-01-16,株式会社アガパンサス,,株式会社,茨城県,龍ケ崎市,川原代町１０６３番地１７,,08,208,3010005,,,,,,,2023-01-16,1,,,,,アガパンサス,0
1798,6050001052253,新規,0,2023-01-16,2023-01-16,ライム株式会社,,株式会社,茨城県,つくば市,研究学園５丁目１２番地１０研究学園スクウェアビル４Ｆ,,08,220,3050817,,,,,,,2023-01-16,1,,,,,ライム,0
1800,6050003007156,新規,0,2023-01-16,2023-01-16,大乗農業科技合同会社,,合同会社,茨城県,つくば市,学園の森１丁目１４－１１４,,08,220,3050816,,,,,,,2023-01-16,1,,,,,ダイジョウノウギョウカギ,0
1801,6050005013193,新規,0,2023-01-16,2023-01-16,特定非営利活動法人北茨城スケートボード協会,,その他の設立登記法人,茨城県,北茨城市,中郷町石岡１１０番地１６－Ｂ４０４号,,08,215,3191558,,,,,,,2023-01-16,1,,,,,キタイバラキスケートボードキョウカイ,0
1802,6060001035620,新規,0,2023-01-16,2023-01-16,株式会社Ａｄｖａｎｃｅｄ　Ｓｙｓｔｅｍ　Ｈｏｕｓｅ,,株式会社,栃木県,宇都宮市,下戸祭１丁目３番１１号９０４,,09,201,3200055,,,,,,,2023-01-16,1,,,,,アドバンスドシステムハウス,0
1814,6090003002228,新規,0,2023-01-16,2023-01-16,Ｔ＆Ｍオフィス合同会社,,合同会社,山梨県,甲府市,中央１丁目５番６号デュオヒルズ甲府,,19,201,4000032,,,,,,,2023-01-16,1,,,,,ティーアンドエムオフィス,0
1816,6100001036052,新規,0,2023-01-16,2023-01-16,株式会社信己,,株式会社,長野県,千曲市,大字新山５１６番地,,20,218,3890823,,,,,,,2023-01-16,1,,,,,シンキ,0
1822,6120001251665,新規,0,2023-01-16,2023-01-16,株式会社Ｆ‐ＳＴＹＬＥ,,株式会社,大阪府,大阪市東住吉区,東田辺１丁目１６番１６号,,27,121,5460032,,,,,,,2023-01-16,1,,,,,エフスタイル,0
1823,6120001251723,新規,0,2023-01-16,2023-01-16,株式会社Ｏｎｅ　ＶＥＮＴＵＲＡ,,株式会社,大阪府,大阪市西区,新町３丁目６番１０号,,27,106,5500013,,,,,,,2023-01-16,1,,,,,ワンベンチュラ,0
1824,6120001251731,新規,0,2023-01-16,2023-01-16,株式会社ＧＩＦＴＥＤ　Ｔｅｃｈｎｏｌｏｇｉｅｓ,,株式会社,大阪府,大阪市西区,新町２丁目５番１号,,27,106,5500013,,,,,,,2023-01-16,1,,,,,ギフテッドテクノロジーズ,0
1825,6120001251772,新規,0,2023-01-16,2023-01-16,株式会社ヤマタカ,,株式会社,大阪府,大阪市平野区,平野本町１丁目３番１１号,,27,126,5470044,,,,,,,2023-01-16,1,,,,,ヤマタカ,0
1830,6120003023253,新規,0,2023-01-16,2023-01-16,合同会社関西建築,,合同会社,大阪府,大阪市西区,千代崎１丁目１７番１０号,,27,106,5500023,,,,,,,2023-01-16,1,,,,,カンサイケンチク,0
1833,6120101066823,新規,0,2023-01-16,2023-01-16,株式会社ＴＡＲＯ　ＡＮＩＭＡＬ　ＤＥＮＴＡＬ　ＬＡＢ．,,株式会社,大阪府,堺市北区,金岡町１９８８番地２,,27,146,5918022,,,,,,,2023-01-16,1,,,,,タローアニマルデンタルラボ,0
1834,6120101066831,新規,0,2023-01-16,2023-01-16,株式会社ＥＡＭ,,株式会社,大阪府,堺市北区,中百舌鳥町１丁８３番地１１,,27,146,5918023,,,,,,,2023-01-16,1,,,,,イーエーエム,0
1836,6120901046999,新規,0,2023-01-16,2023-01-16,株式会社Ｏｎｅ,,株式会社,大阪府,三島郡島本町,山崎１丁目７番２０号,,27,301,6180001,,,,,,,2023-01-16,1,,,,,ワン,0
1844,6130001073448,新規,0,2023-01-16,2023-01-16,株式会社ｕｎ‐ｆｏｌｄ,,株式会社,京都府,京都市上京区,一条通烏丸西入ル広橋殿町４１０,,26,102,6020000,,,,,,,2023-01-16,1,,,,,アンフォールド,0
1845,6130001073456,新規,0,2023-01-16,2023-01-16,株式会社ＴＯＮＫＩＣＨＩ,,株式会社,京都府,福知山市,字天田２２４番地,,26,201,6200000,,,,,,,2023-01-16,1,,,,,トンキチ,0
1846,6130001073497,新規,0,2023-01-16,2023-01-16,株式会社山田工業,,株式会社,京都府,京都市南区,吉祥院石原町７５番地１マウンシャルマン２０３,,26,107,6018367,,,,,,,2023-01-16,1,,,,,ヤマダコウギョウ,0
1849,6130003008435,新規,0,2023-01-16,2023-01-16,ルトラ合同会社,,合同会社,京都府,京都市下京区,朱雀宝蔵町４４番地協栄ビル２階京都朱雀スタジオ,,26,106,6008846,,,,,,,2023-01-16,1,,,,,ルトラ,0
1850,6130003008443,新規,0,2023-01-16,2023-01-16,ＡＭＡＬＦＩ合同会社,,合同会社,京都府,京都市伏見区,下鳥羽南三町７番地,,26,109,6128478,,,,,,,2023-01-16,1,,,,,アマルフィ,0
1851,6130005016675,新規,0,2023-01-16,2023-01-16,医療法人はたなか眼科クリニック,,その他の設立登記法人,京都府,宇治市,広野町西裏８７番地ザ・ガーデン・コミューンＢ－２Ｆ,,26,204,6110031,,,,,,,2023-01-16,1,,,,,ハタナカガンカクリニック,0
1859,6140001128630,新規,0,2023-01-16,2023-01-16,株式会社ＰＣデザイン,,株式会社,兵庫県,神戸市中央区,八幡通４丁目１番１６号ラムール神戸三宮ビル３０１号,,28,110,6510085,,,,,,,2023-01-16,1,,,,,ピーシーデザイン,0
1860,6140001128696,新規,0,2023-01-16,2023-01-16,グーラボ株式会社,,株式会社,兵庫県,神戸市中央区,二宮町１丁目３番２－３０６号,,28,110,6510093,,,,,,,2023-01-16,1,,,,,グーラボ,0
1861,6140001128705,新規,0,2023-01-16,2023-01-16,株式会社エンタープライズＧＯ,,株式会社,兵庫県,神戸市西区,玉津町居住８７－１－１０１,,28,111,6512145,,,,,,,2023-01-16,1,,,,,エンタープライズゴー,0
1862,6140001128738,新規,0,2023-01-16,2023-01-16,ハイテックヘルスケアー株式会社,,株式会社,兵庫県,神戸市灘区,宮山町３丁目２－７グリーンハイツ六甲１０４号室,,28,102,6570065,,,,,,,2023-01-16,1,,,,,ハイテックヘルスケアー,0
1863,6140001128762,新規,0,2023-01-16,2023-01-16,株式会社バンビ,,株式会社,兵庫県,西宮市,甲子園九番町１２－２６シティハイム九番町１０３,,28,204,6638179,,,,,,,2023-01-16,1,,,,,バンビ,0
1864,6140001128804,新規,0,2023-01-16,2023-01-16,株式会社ＫＰＣトランスポート,,株式会社,兵庫県,姫路市,飾磨区城南町３丁目７３番地７,,28,201,6728083,,,,,,,2023-01-16,1,,,,,ケーピーシートランスポート,0
1871,6140003018598,新規,0,2023-01-16,2023-01-16,合同会社ＳＩＰサービス,,合同会社,兵庫県,加東市,上中３丁目２９,,28,228,6731464,,,,,,,2023-01-16,1,,,,,エスアイピーサービス,0
1886,6180001154375,新規,0,2023-01-16,2023-01-16,ＧＬＥＥＮ株式会社,,株式会社,愛知県,名古屋市千種区,春岡通７丁目３７番地パークホームズ吹上５０３号,,23,101,4640847,,,,,,,2023-01-16,1,,,,,グリーン,0
1887,6180001154490,新規,0,2023-01-16,2023-01-16,オールブルー株式会社,,株式会社,愛知県,江南市,赤童子町桜道１０６番地１,,23,217,4838228,,,,,,,2023-01-16,1,,,,,オールブルー,0
1888,6180001154499,新規,0,2023-01-16,2023-01-16,株式会社ＭＡＮＨ　ＶＩＥＴ,,株式会社,愛知県,あま市,花正柳坪４３番地３,,23,237,4901205,,,,,,,2023-01-16,1,,,,,マンヴェット,0
1893,6180301036991,新規,0,2023-01-16,2023-01-16,株式会社藤鉄工,,株式会社,愛知県,西尾市,一色町一色乾地５７番地４,,23,213,4440423,,,,,,,2023-01-16,1,,,,,フジテッコウ,0
1899,6200001040845,新規,0,2023-01-16,2023-01-16,株式会社６６ＡＵＴＯ,,株式会社,岐阜県,岐阜市,大学北２丁目６１番地１,,21,201,5011111,,,,,,,2023-01-16,1,,,,,ロクロクオート,0
1918,6250001019926,新規,0,2023-01-16,2023-01-16,井上工業株式会社,,株式会社,山口県,周南市,大字下上７１３番地の５,,35,215,7460082,,,,,,,2023-01-16,1,,,,,イノウエコウギョウ,0
1932,6270001008712,新規,0,2023-01-16,2023-01-16,株式会社高藤,,株式会社,鳥取県,西伯郡日吉津村,大字今吉２８０番地２,,31,384,6893551,,,,,,,2023-01-16,1,,,,,タカフジ,0
1933,6280005007528,新規,0,2023-01-16,2023-01-16,医療法人中村呼吸器内科医院,,その他の設立登記法人,島根県,浜田市,内村町７８７番地８,,32,202,6971331,,,,,,,2023-01-16,1,,,,,ナカムラコキュウキナイカイイン,0
1938,6290001100244,新規,0,2023-01-16,2023-01-16,株式会社ＷＯＯＤ　ＷＯＲＫ　ＳＴＹＬＥ,,株式会社,福岡県,古賀市,青柳町６９２番地,,40,223,8113133,,,,,,,2023-01-16,1,,,,,ウッドワークスタイル,0
1939,6290003013428,新規,0,2023-01-16,2023-01-16,合同会社モバソニレンタルネットワーク,,合同会社,福岡県,福岡市東区,箱崎５丁目４番１１－４０１号箱崎五丁目団地１１号棟,,40,131,8120053,,,,,,,2023-01-16,1,,,,,モバソニレンタルネットワーク,0
1941,6290005018912,新規,0,2023-01-16,2023-01-16,一般社団法人福岡第一公共嘱託登記土地家屋調査士協会,,その他の設立登記法人,福岡県,福岡市中央区,赤坂１丁目１５番２１号,,40,133,8100042,,,,,,,2023-01-16,1,,,,,フクオカダイイチコウキョウショクタクトウキトチカオクチョウサシキョウカイ,0
1945,6300003001926,新規,0,2023-01-16,2023-01-16,合同会社アンメリ,,合同会社,佐賀県,佐賀市,栄町２番８号さかえヤマトビル５０７,,41,201,8400803,,,,,,,2023-01-16,1,,,,,アンメリ,0
1949,6350001018133,新規,0,2023-01-16,2023-01-16,株式会社ＦＩＶＥ　ＳＴＡＲ　ＷＯＲＬＤ　ＪＡＰＡＮ,,株式会社,宮崎県,小林市,野尻町東麓３４１３番地,,45,205,8860212,,,,,,,2023-01-16,1,,,,,,0
1951,6360003012637,新規,0,2023-01-16,2023-01-16,みちをひらく合同会社,,合同会社,沖縄県,中頭郡北中城村,字安谷屋２７６,,47,327,9012316,,,,,,,2023-01-16,1,,,,,ミチヲヒラク,0
1952,6370001049498,新規,0,2023-01-16,2023-01-16,株式会社ルームワークス,,株式会社,宮城県,仙台市青葉区,中山６丁目２０番１号カーサベルデ中山Ａ棟１０２,,04,101,9810952,,,,,,,2023-01-16,1,,,,,ルームワークス,0
1955,6380001033410,新規,0,2023-01-16,2023-01-16,株式会社ＥＮＤＯ,,株式会社,福島県,郡山市,西田町芹沢字妻５４番地の１,,07,203,9630913,,,,,,,2023-01-16,1,,,,,エンドー,0
1965,6430003014650,新規,0,2023-01-16,2023-01-16,合同会社ＹＢ,,合同会社,北海道,札幌市厚別区,青葉町４丁目１番１０号,,01,108,0040021,,,,,,,2023-01-16,1,,,,,ワイビー,0
1966,6430003014659,新規,0,2023-01-16,2023-01-16,合同会社仁木産業振興社,,合同会社,北海道,余市郡仁木町,北町８丁目９番地３,,01,407,0482405,,,,,,,2023-01-16,1,,,,,ニキサンギョウシンコウシャ,0
1968,6460003000937,新規,0,2023-01-16,2023-01-16,合同会社まるけん,,合同会社,北海道,釧路市,緑ケ岡５丁目１４番２７号,,01,206,0850814,,,,,,,2023-01-16,1,,,,,マルケン,0
1974,6500003002953,新規,0,2023-01-16,2023-01-16,合同会社レキア,,合同会社,愛媛県,松山市,千舟町５丁目３－１７,,38,201,7900011,,,,,,,2023-01-16,1,,,,,レキア,0
1975,6500005008552,新規,0,2023-01-16,2023-01-16,弁理士法人小笠原国際特許事務所,,その他の設立登記法人,愛媛県,四国中央市,三島朝日３丁目１番４８号パソナマンションＩＩＩ１階,00129085,38,213,7990403,,,,,,,2023-01-16,1,,,,,オガサワラコクサイトッキョジムショ,0
1977,6700150113748,新規,0,2023-01-16,2023-01-16,ＨＯＮＧ　ＫＯＮＧ　ＷＩＮＳ　ＮＯＶＥＬＴＹ　ＣＯ．，ＬＩＭＩＴＥＤ,,外国会社等,,,,,,,,５３－５５　Ｌｏｃｋｈａｒｔ　Ｒｏａｄ，Ｒｏｏｍ　７０２，７ｔｈ　Ｆｌｏｏｒ，Ｈｅｎｇｚｅ　Ｃｏｍｍｅｒｃｉａｌ　Ｂｕｉｌｄｉｎｇ，Ｗａｎ　Ｃｈａｉ，Ｈｏｎｇ　Ｋｏｎｇ，９９９０７７，ＨＫ,,,,,,2023-01-16,1,,,,,ホンコンウィンズノベルティカンパニーリミテッド,0
1978,6700150113756,新規,0,2023-01-16,2023-01-16,ｓｈｅｘｉａｎｈａｎｗｅｉｍａｏｙｉｙｏｕｘｉａｎｇｏｎｇｓｉ,,外国会社等,,,,,,,,ｓｈｅｘｉａｎｓｈｅｎｔｏｕｘｉａｎｇｘｕｅｓｉｃｕｎ２ｚｕ１３２ｈａｏ　ｈａｎｄａｎ　Ｈｅｂｅｉ　Ｃｈｉｎａ,,,,,,2023-01-16,1,,,,,シャケンカンエイボウエキユウゲンコウシ,0
1985,7010001232072,新規,0,2023-01-16,2023-01-16,株式会社ルールレス,,株式会社,東京都,中央区,銀座１丁目１２番４号Ｎ＆ＥＢＬＤ６Ｆ,,13,102,1040061,,,,,,,2023-01-16,1,,,,,ルールレス,0
1986,7010001232080,新規,0,2023-01-16,2023-01-16,株式会社Ｈａｎｎａｈ,,株式会社,東京都,中央区,佃３丁目５番１０号,,13,102,1040051,,,,,,,2023-01-16,1,,,,,ハンナ,0
1987,7010001232097,新規,0,2023-01-16,2023-01-16,株式会社デジタルマイス,,株式会社,東京都,中央区,八重洲２丁目１番１号ヤンマー東京ビル１２階,,13,102,1040028,,,,,,,2023-01-16,1,,,,,デジタルマイス,0
1988,7010001232106,新規,0,2023-01-16,2023-01-16,株式会社ｅｍｍａｎｕｅｌｌｅ　ｍｏｕｒｅａｕｘ,,株式会社,東京都,千代田区,神田駿河台３丁目１番地ＳＴＡＧＥ・ＳＵＲＵＧＡＤＡＩ,,13,101,1010062,,,,,,,2023-01-16,1,,,,,エマニュエルムホー,0
1989,7010003039524,新規,0,2023-01-16,2023-01-16,合同会社Ｍｅｇａｍｉｒｉａｎ,,合同会社,東京都,中央区,銀座７丁目１３番２１号,,13,102,1040061,,,,,,,2023-01-16,1,,,,,メガミリアン,0
1990,7010003039557,新規,0,2023-01-16,2023-01-16,リバーランド合同会社,,合同会社,東京都,千代田区,神田和泉町一丁目６番１６号ヤマトビル４０５,,13,101,1010024,,,,,,,2023-01-16,1,,,,,リバーランド,0
1991,7010003039598,新規,0,2023-01-16,2023-01-16,合同会社Ｇｅｍｉｎｉ２,,合同会社,東京都,中央区,八丁堀４丁目２番１０号ＡＯＪ税理士法人内,,13,102,1040032,,,,,,,2023-01-16,1,,,,,ジェミニツー,0
1994,7010401046527,新規,0,2023-01-16,2023-01-16,信用管理サービス株式会社,,株式会社,東京都,港区,芝３丁目１４番４号,,13,103,1050014,,,,,,,2023-01-16,1,,,,,シンヨウカンリサービス,0
2007,7010401171820,新規,0,2023-01-16,2023-01-16,株式会社ＧＥＮＴＯ,,株式会社,東京都,港区,新橋１丁目１２番９号,,13,103,1050004,,,,,,,2023-01-16,1,,,,,ゲント,0
2008,7010401171829,新規,0,2023-01-16,2023-01-16,株式会社Ｗｅｂえもん,,株式会社,東京都,港区,南青山３丁目１番３６号青山丸竹ビル６Ｆ,,13,103,1070062,,,,,,,2023-01-16,1,,,,,ウェブエモン,0
2009,7010401171845,新規,0,2023-01-16,2023-01-16,株式会社ミカド,,株式会社,東京都,港区,港南２丁目１６番７－６０８号,,13,103,1080075,,,,,,,2023-01-16,1,,,,,ミカド,0
2012,7010403029216,新規,0,2023-01-16,2023-01-16,合同会社ＨＯＯＰ,,合同会社,東京都,港区,南青山２丁目２番１５号,,13,103,1070062,,,,,,,2023-01-16,1,,,,,フープ,0
2013,7010403029281,新規,0,2023-01-16,2023-01-16,ソフィアキャピタル合同会社,,合同会社,東京都,港区,新橋５丁目６－４,,13,103,1050004,,,,,,,2023-01-16,1,,,,,ソフィアキャピタル,0
2014,7010403029298,新規,0,2023-01-16,2023-01-16,Ｐｌｅｋ　Ｓｅｒｖｉｃｅｓ　Ｊａｐａｎ合同会社,,合同会社,東京都,港区,赤坂１丁目１１番４４号赤坂インターシティ５階Ｍａｚａｒｓ・Ｊａｐａｎ株式会社内,,13,103,1070052,,,,,,,2023-01-16,1,,,,,プレックサービスジャパン,0
2019,7010703006542,新規,0,2023-01-16,2023-01-16,合同会社ＡＥＴＨＰＬＡＳＴ,,合同会社,東京都,品川区,東五反田２丁目１０番１－４１３号,,13,109,1410022,,,,,,,2023-01-16,1,,,,,エスプラスト,0
2022,7010901052306,新規,0,2023-01-16,2023-01-16,Ｔ２コンサルティング株式会社,,株式会社,東京都,世田谷区,成城３丁目６番１６号,,13,112,1570066,,,,,,,2023-01-16,1,,,,,ティーツーコンサルティング,0
2023,7010901052347,新規,0,2023-01-16,2023-01-16,ＨＡＭＳ　ａｎｄ，Ｓｔｕｄｉｏ株式会社,,株式会社,東京都,世田谷区,野沢４丁目１３番１８号,,13,112,1540003,,,,,,,2023-01-16,1,,,,,ハムサンドスタジオ,0
2025,7011001151997,新規,0,2023-01-16,2023-01-16,株式会社Ｂｅｅ,,株式会社,東京都,渋谷区,恵比寿４丁目３番１号,,13,113,1500013,,,,,,,2023-01-16,1,,,,,ビー,0
2026,7011001152005,新規,0,2023-01-16,2023-01-16,株式会社ＳＡＴＯＲＩ,,株式会社,東京都,渋谷区,道玄坂１丁目１０番８号渋谷道玄坂東急ビル２Ｆ－Ｃ,,13,113,1500043,,,,,,,2023-01-16,1,,,,,サトリ,0
2027,7011001152013,新規,0,2023-01-16,2023-01-16,株式会社よろず屋,,株式会社,東京都,渋谷区,富ヶ谷１丁目８番３号メゾンジンナン２０１,,13,113,1510063,,,,,,,2023-01-16,1,,,,,ヨロズヤ,0
2028,7011003016091,新規,0,2023-01-16,2023-01-16,ＳＩＪ　Ｃｌｉｍａｔｅ合同会社,,合同会社,東京都,渋谷区,渋谷１丁目１２番２号,,13,113,1500002,,,,,,,2023-01-16,1,,,,,エスアイジェークライメイト,0
2031,7011101101373,新規,0,2023-01-16,2023-01-16,アスコパ・マークリー・ジャパン株式会社,,株式会社,東京都,新宿区,新宿１丁目１１番３号エクセル新宿御苑ビル１Ｆ,,13,104,1600022,,,,,,,2023-01-16,1,,,,,アスコパマークリージャパン,0
2032,7011101101497,新規,0,2023-01-16,2023-01-16,株式会社Ａｍｉｔａｒａ,,株式会社,東京都,新宿区,西新宿４丁目１６番１２－４０６号,,13,104,1600023,,,,,,,2023-01-16,1,,,,,アミターラ,0
2039,7011303004630,新規,0,2023-01-16,2023-01-16,合同会社ＹＴＣ,,合同会社,東京都,杉並区,高円寺南３丁目３番２号ＣＡＲＩＬＬＯＮＤＥＭＡＲＩＮＥ１階,,13,115,1660003,,,,,,,2023-01-16,1,,,,,ワイティシー,0
2045,7011501028836,新規,0,2023-01-16,2023-01-16,株式会社タケヒサ,,株式会社,東京都,荒川区,東日暮里２丁目２５番１０号,,13,118,1160014,,,,,,,2023-01-16,1,,,,,タケヒサ,0
2046,7011501028852,新規,0,2023-01-16,2023-01-16,株式会社ＪＩＮＴＯ,,株式会社,東京都,北区,上十条３丁目２１番２－２０３号,,13,117,1140034,,,,,,,2023-01-16,1,,,,,ジント,0
2050,7011803005467,新規,0,2023-01-16,2023-01-16,合同会社涼風,,合同会社,東京都,足立区,本木北町３番２号,,13,121,1230857,,,,,,,2023-01-16,1,,,,,スズカゼ,0
2051,7012303001774,新規,0,2023-01-16,2023-01-16,佐々木クリーン合同会社,,合同会社,東京都,町田市,小山町５００８番地２,,13,209,1940212,,,,,,,2023-01-16,1,,,,,ササキクリーン,0
2058,7012403005774,新規,0,2023-01-16,2023-01-16,アイキューエル合同会社,,合同会社,東京都,多摩市,東寺方５４４－９,,13,224,2060003,,,,,,,2023-01-16,1,,,,,アイキューエル,0
2060,7012703002620,新規,0,2023-01-16,2023-01-16,ナンダカンダ５０合同会社,,合同会社,東京都,東久留米市,浅間町３丁目２５番３号ジュネスひばり２０５,,13,222,2030012,,,,,,,2023-01-16,1,,,,,ナンダカンダゴジュウ,0
2066,7020001149869,新規,0,2023-01-16,2023-01-16,株式会社ソーツクラフツ,,株式会社,神奈川県,横浜市西区,北幸２丁目１０番２８号むつみビル３Ｆ,,14,103,2200004,,,,,,,2023-01-16,1,,,,,ソーツクラフツ,0
2068,7020003023114,新規,0,2023-01-16,2023-01-16,合同会社ＡＲＣＬＩＶ,,合同会社,神奈川県,川崎市麻生区,上麻生２丁目３５－２９,,14,137,2150021,,,,,,,2023-01-16,1,,,,,アークリブ,0
2069,7020003023122,新規,0,2023-01-16,2023-01-16,合同会社ロータス・セールスラボ,,合同会社,神奈川県,横浜市西区,北幸１丁目１１番１号水信ビル７階,,14,103,2200004,,,,,,,2023-01-16,1,,,,,ロータスセールスラボ,0
2070,7020003023130,新規,0,2023-01-16,2023-01-16,ＤｉｇｉｔａｌＧａｒｄｅｎ合同会社,,合同会社,神奈川県,横浜市中区,元町４丁目１６８,,14,104,2310861,,,,,,,2023-01-16,1,,,,,デジタルガーデン,0
2072,7021001077928,新規,0,2023-01-16,2023-01-16,株式会社ＡＫトレーディング,,株式会社,神奈川県,小田原市,久野３０１１番地の６,,14,206,2500055,,,,,,,2023-01-16,1,,,,,エーケートレーディング,0
2073,7021001077936,新規,0,2023-01-16,2023-01-16,株式会社ＫＨＰ,,株式会社,神奈川県,相模原市南区,下溝３４０７－２,,14,153,2520335,,,,,,,2023-01-16,1,,,,,ケイエイチピー,0
2074,7021003012610,新規,0,2023-01-16,2023-01-16,合同会社ＱＵＥＳＴ,,合同会社,神奈川県,海老名市,門沢橋２丁目７番２９号,,14,215,2430426,,,,,,,2023-01-16,1,,,,,クエスト,0
2075,7021003012619,新規,0,2023-01-16,2023-01-16,ブルーウッズ・ストラテジック・アソシエイツ合同会社,,合同会社,神奈川県,相模原市緑区,東橋本３丁目１９番８－２０６号,,14,151,2520144,,,,,,,2023-01-16,1,,,,,ブルーウッズストラテジックアソシエイツ,0
2085,7030001151923,新規,0,2023-01-16,2023-01-16,株式会社ＳＵＭＭＩＴ,,株式会社,埼玉県,川口市,西川口１丁目６－１,,11,203,3320021,,,,,,,2023-01-16,1,,,,,サミット,0
2086,7030001151956,新規,0,2023-01-16,2023-01-16,株式会社ＨＹＵＧＧＥ,,株式会社,埼玉県,八潮市,大字鶴ケ曽根１８７番地,,11,234,3400802,,,,,,,2023-01-16,1,,,,,ヒュッゲ,0
2087,7030001151972,新規,0,2023-01-16,2023-01-16,まじめな訪問看護株式会社,,株式会社,埼玉県,川口市,芝樋ノ爪１丁目１０－２０川口エンゼルビル２６号,,11,203,3330852,,,,,,,2023-01-16,1,,,,,マジメナホウモンカンゴ,0
2088,7030001151980,新規,0,2023-01-16,2023-01-16,ＭＫショップ株式会社,,株式会社,埼玉県,春日部市,豊町５丁目１０番地８ＳｔａｒｔＥｌｅｇａｎｃｅＩＩ１０２号,00129074,11,214,3440066,,,,,,,2023-01-16,1,,,,,エムケーショップ,0
2089,7030003020952,新規,0,2023-01-16,2023-01-16,合同会社ｉｉＣｈｏｉｃｅ,,合同会社,埼玉県,川越市,新宿町４丁目２番地２１,,11,201,3501124,,,,,,,2023-01-16,1,,,,,イイチョイス,0
2090,7030003020969,新規,0,2023-01-16,2023-01-16,ＮＲＫ　ＳＵＮＲＩＳＥ合同会社,,合同会社,埼玉県,東松山市,六反町５番地３６ＳＫＹ・ＫＯＴＯ－２０２,,11,212,3550023,,,,,,,2023-01-16,1,,,,,エヌアールケーサンライズ,0
2095,7040001126610,新規,0,2023-01-16,2023-01-16,株式会社ＨＡＺＥＬ,,株式会社,千葉県,成田市,高岡１１１３番地１,,12,211,2890108,,,,,,,2023-01-16,1,,,,,ヘーゼル,0
2099,7040003021693,新規,0,2023-01-16,2023-01-16,合同会社ｉ‐Ｓｅｅｋ,,合同会社,千葉県,千葉市緑区,おゆみ野南１丁目３１番地１３７,,12,105,2660033,,,,,,,2023-01-16,1,,,,,アイシーク,0
2102,7050001052252,新規,0,2023-01-16,2023-01-16,ＮＳ　ＪＲ　ＭＯＴＯＲＳ　ＴＲＡＤＩＮＧ株式会社,,株式会社,茨城県,下妻市,高道祖６０番地６７,,08,210,3040031,,,,,,,2023-01-16,1,,,,,エヌエスジェアルモータース,0
2107,7060001035611,新規,0,2023-01-16,2023-01-16,株式会社Ａｉｗａ,,株式会社,栃木県,栃木市,大平町富田１３２２番地２,,09,203,3294404,,,,,,,2023-01-16,1,,,,,アイワ,0
2109,7060005010040,新規,0,2023-01-16,2023-01-16,社会保険労務士法人小林事務所,,その他の設立登記法人,栃木県,佐野市,金吹町２３４０番地１０,,09,204,3270007,,,,,,,2023-01-16,1,,,,,コバヤシジムショ,0
2116,7080101023745,新規,0,2023-01-16,2023-01-16,ＷＯＲＬＤ　ＨＡＲＭＯＮＹ株式会社,,株式会社,静岡県,富士市,久沢８８０番地の１,,22,210,4190202,,,,,,,2023-01-16,1,,,,,ワールドハーモニー,0
2120,7100001036051,新規,0,2023-01-16,2023-01-16,株式会社ＭＲＳ,,株式会社,長野県,上伊那郡箕輪町,大字福与１０３６番地,,20,383,3994604,,,,,,,2023-01-16,1,,,,,エムアールエス,0
2125,7110003004963,新規,0,2023-01-16,2023-01-16,合同会社スリーティー,,合同会社,新潟県,新潟市中央区,美咲町１丁目１０番５号,,15,103,9500954,,,,,,,2023-01-16,1,,,,,スリーティー,0
2131,7120001251549,新規,0,2023-01-16,2023-01-16,完美株式会社,,株式会社,大阪府,大阪市西区,靱本町３丁目１０－２４兆豊阿波座ビル２０１号室,,27,106,5500004,,,,,,,2023-01-16,1,,,,,カンビ,0
2132,7120001251796,新規,0,2023-01-16,2023-01-16,株式会社ＡＧＯ,,株式会社,大阪府,大阪市鶴見区,鶴見４丁目６番１３号,,27,124,5380053,,,,,,,2023-01-16,1,,,,,エージーオー,0
2134,7120003023236,新規,0,2023-01-16,2023-01-16,ＬＩＴＲＵＳ合同会社,,合同会社,大阪府,大阪市平野区,平野馬場１丁目８番１０号,,27,126,5470048,,,,,,,2023-01-16,1,,,,,リトラス,0
2135,7120003023252,新規,0,2023-01-16,2023-01-16,合同会社エムズ,,合同会社,大阪府,大阪市天王寺区,六万体町１番３２号ノ・レーヴ夕陽丘４階４０１号,,27,109,5430074,,,,,,,2023-01-16,1,,,,,エムズ,0
2137,7120005023399,新規,0,2023-01-16,2023-01-16,一般社団法人こどものみらい応援団,,その他の設立登記法人,大阪府,大阪市北区,梅田１丁目２番２号大阪駅第２ビル１２－１２,,27,127,5300001,,,,,,,2023-01-16,1,,,,,コドモノミライオウエンダン,0
2143,7120101066839,新規,0,2023-01-16,2023-01-16,株式会社えびす,,株式会社,大阪府,堺市堺区,出島町５丁４番２２号,,27,141,5900834,,,,,,,2023-01-16,1,,,,,エビス,0
2148,7130001073455,新規,0,2023-01-16,2023-01-16,株式会社ライブ,,株式会社,京都府,相楽郡精華町,桜が丘３丁目２６番地２,,26,366,6190232,,,,,,,2023-01-16,1,,,,,ライブ,0
2149,7130001073463,新規,0,2023-01-16,2023-01-16,株式会社不易,,株式会社,京都府,宇治市,伊勢田町名木１丁目１番地の２８２南宇治ローレルコートＤ棟２０３号,,26,204,6110044,,,,,,,2023-01-16,1,,,,,フエキ,0
2150,7130001073513,新規,0,2023-01-16,2023-01-16,株式会社たけ・テラス,,株式会社,京都府,宇治市,木幡南山９番地１６８,,26,204,6110002,,,,,,,2023-01-16,1,,,,,タケテラス,0
2159,7140001128704,新規,0,2023-01-16,2023-01-16,株式会社ＯＦＴＮ,,株式会社,兵庫県,たつの市,揖保町揖保上１５９番地,,28,229,6794156,,,,,,,2023-01-16,1,,,,,オーエフティーエヌ,0
2160,7140001128720,新規,0,2023-01-16,2023-01-16,株式会社福翔土木,,株式会社,兵庫県,たつの市,龍野町中村１３１番地２３,,28,229,6794126,,,,,,,2023-01-16,1,,,,,フクショウドボク,0
2166,7140003018580,新規,0,2023-01-16,2023-01-16,ディクセン合同会社,,合同会社,兵庫県,神戸市東灘区,田中町２丁目６番３－２０３号,,28,101,6580081,,,,,,,2023-01-16,1,,,,,ディクセン,0
2176,7180001154515,新規,0,2023-01-16,2023-01-16,Ｃｏｒｅ　Ｈｏｌｄｉｎｇｓ株式会社,,株式会社,愛知県,名古屋市名東区,照が丘１０番１Ｔ＆Ｅソフトビル３階,,23,115,4650042,,,,,,,2023-01-16,1,,,,,コアホールディングス,0
2177,7180001154589,新規,0,2023-01-16,2023-01-16,株式会社イターナルダイニング,,株式会社,愛知県,名古屋市守山区,小幡千代田１９番１９号,,23,113,4630053,,,,,,,2023-01-16,1,,,,,イターナルダイニング,0
2178,7180301036999,新規,0,2023-01-16,2023-01-16,株式会社佐々木商会,,株式会社,愛知県,安城市,和泉町郷前４３番地１,,23,212,4441221,,,,,,,2023-01-16,1,,,,,ササキショウカイ,0
2179,7180301037007,新規,0,2023-01-16,2023-01-16,株式会社さちライフ,,株式会社,愛知県,豊田市,栄生町３丁目５８番地,,23,211,4710067,,,,,,,2023-01-16,1,,,,,サチライフ,0
2182,7180303005564,新規,0,2023-01-16,2023-01-16,合同会社いろは,,合同会社,愛知県,豊川市,行明町小橋１９３－２,,23,207,4420822,,,,,,,2023-01-16,1,,,,,イロハ,0
2187,7200001040869,新規,0,2023-01-16,2023-01-16,株式会社ベンチャーパートナーズ,,株式会社,岐阜県,岐阜市,茜部野瀬３丁目１６５番地,,21,201,5008283,,,,,,,2023-01-16,1,,,,,ベンチャーパートナーズ,0
2190,7210001019210,新規,0,2023-01-16,2023-01-16,大津屋物産株式会社,,株式会社,福井県,福井市,西木田１丁目２０番１７号,,18,201,9188004,,,,,,,2023-01-16,1,,,,,オオツヤブッサン,0
2207,7240001060954,新規,0,2023-01-16,2023-01-16,株式会社鼎,,株式会社,広島県,福山市,駅家町大字上山守４３３番地１,,34,207,7201142,,,,,,,2023-01-16,1,,,,,カナエ,0
2210,7250001019925,新規,0,2023-01-16,2023-01-16,株式会社ＩＯＷＥ,,株式会社,山口県,山口市,秋穂東花香南５０４９,,35,203,7541101,,,,,,,2023-01-16,1,,,,,アイオウ,0
2229,7270001008711,新規,0,2023-01-16,2023-01-16,株式会社ウィステラ,,株式会社,鳥取県,鳥取市,富安１丁目６番地１サーパス富安レジデンス２０７号,,31,201,6800845,,,,,,,2023-01-16,1,,,,,ウィステラ,0
2230,7270003001474,新規,0,2023-01-16,2023-01-16,合同会社キーファーソル,,合同会社,鳥取県,鳥取市,卯垣３丁目１５９番地オーラルＣ２０２号,,31,201,6800074,,,,,,,2023-01-16,1,,,,,キーファーソル,0
2235,7290801029194,新規,0,2023-01-16,2023-01-16,シャルル株式会社,,株式会社,福岡県,北九州市小倉北区,浅野３丁目８番１号ＡＩＭビル６Ｆ,,40,106,8020001,,,,,,,2023-01-16,1,,,,,シャルル,0
2236,7290801029211,新規,0,2023-01-16,2023-01-16,株式会社ライフワーク,,株式会社,福岡県,北九州市小倉北区,中井１丁目１３番１３号,,40,106,8030836,,,,,,,2023-01-16,1,,,,,ライフワーク,0
2237,7300003001925,新規,0,2023-01-16,2023-01-16,Ｌ．Ｉ．Ｏ合同会社,,合同会社,佐賀県,佐賀市,大財６丁目４番３８－２号,,41,201,8400811,,,,,,,2023-01-16,1,,,,,エルアイオー,0
2241,7320001019521,新規,0,2023-01-16,2023-01-16,株式会社ネクサス,,株式会社,大分県,竹田市,大字会々１５２５番地１２,,44,208,8780011,,,,,,,2023-01-16,1,,,,,ネクサス,0
2256,7380003005365,新規,0,2023-01-16,2023-01-16,合同会社わかる,,合同会社,福島県,伊達市,保原町字小幡町１２７番地１,,07,213,9600654,,,,,,,2023-01-16,1,,,,,ワカル,0
2262,7390001017139,新規,0,2023-01-16,2023-01-16,株式会社東根スクールランチ,,株式会社,山形県,東根市,大字蟹沢字下縄目１８６３番地１２,,06,211,9993716,,,,,,,2023-01-16,1,,,,,ヒガシネスクールランチ,0
2270,7430001088167,新規,0,2023-01-16,2023-01-16,株式会社アシスト,,株式会社,北海道,札幌市北区,北七条西４丁目１番１号トーカン札幌第一キャステール６０７,,01,102,0600807,,,,,,,2023-01-16,1,,,,,アシスト,0
2271,7430001088200,新規,0,2023-01-16,2023-01-16,株式会社颯成建設,,株式会社,北海道,札幌市東区,東苗穂十四条３丁目１６番１号,,01,103,0070814,,,,,,,2023-01-16,1,,,,,リュウセイケンセツ,0
2272,7430001088209,新規,0,2023-01-16,2023-01-16,株式会社ここはぐ,,株式会社,北海道,札幌市北区,あいの里三条８丁目１番６０号,,01,102,0028073,,,,,,,2023-01-16,1,,,,,ココハグ,0
2273,7430001088217,新規,0,2023-01-16,2023-01-16,ＺＵＲＡＩＮ　ＴＲＡＤＩＮＧ株式会社,,株式会社,北海道,石狩郡当別町,蕨岱５７０７番地１,,01,303,0610214,,,,,,,2023-01-16,1,,,,,ズライントレーディング,0
2274,7430001088225,新規,0,2023-01-16,2023-01-16,株式会社Ａｕｘｉｉ,,株式会社,北海道,札幌市中央区,南十二条西１４丁目２番１２－９０２号,,01,101,0640912,,,,,,,2023-01-16,1,,,,,アウクシー,0
2276,7430003014625,新規,0,2023-01-16,2023-01-16,合同会社加勢コンサルティング,,合同会社,北海道,札幌市中央区,北二条西１９丁目１番地２リーベン２１９－２０２号,,01,101,0600002,,,,,,,2023-01-16,1,,,,,カセコンサルティング,0
2280,7700150113747,新規,0,2023-01-16,2023-01-16,ｃｈａｎｇｚｈｏｕ　ｊｉｎｐｉｅｎａ　ｄｉａｎｚｉｓｈａｎｇｗｕ　ｙｏｕｘｉａｎｇｏｎｇｓｉ,,外国会社等,,,,,,,,Ｚｈｏｎｇｌｏｕ　ｑｕ　Ｚｏｕｑｕ　Ｚｈｅｎ　Ｌｏｎｇ　ｔａｎ　ｃｕｎ，Ｃｈａｎｇｚｈｏｕ，Ｊｉａｎｇ　Ｓｕ，ｃｈｉｎａ,,,,,,2023-01-16,1,,,,,チャンゴジンピョウディアンジシャンウーユウキョウノウシ,0
2281,7700150113755,新規,0,2023-01-16,2023-01-16,ＰＴＲ　ＴＲＡＤＩＮＧ　ＬＩＭＩＴＥＤ,,外国会社等,,,,,,,,ＲＭ　１４　２９／Ｆ　ＨＯ　ＫＩＮＧ　ＣＯＭＭＥＲＣＩＡＬ　ＣＥＮＴＲＥ　２－１６　ＦＡ　ＹＵＥＮ　ＳＴＲＥＥＴ　ＭＯＮＧＫＫＯＫ　ＫＬ,,,,,,2023-01-16,1,,,,,フオウトクショウボウユウゲンコウシ,0
2282,7700150113763,新規,0,2023-01-16,2023-01-16,ｓｈｅｎ　ｚｈｅｎ　ｓｈｉ　ｄｕｎ　ｄａ　ｃｈｅｎｇ　ｋｅ　ｊｉ　ｙｏｕ　ｘｉａｎ　ｇｏｎｇ　ｓｉ,,外国会社等,,,,,,,,ｌｏｎｇ　ｇａｎｇ　ｑｕ　ｌｏｎｇ　ｃｈｅｎｇ　ｊｉｅ　ｄａｏ　ｚｈａｎｇ　ｂｅｉ　ｓｈｅ　ｑｕ　ｚｈａｎｇ　ｂｅｉ　ｈａｏ　ｘｉａｎ　ｌｕ　２　ｈａｏ　ｃｈａｎｇ　ｆａｎｇ　３０１Ａ，ｓｈｅｎ　ｚｈｅｎ　ｓｈｉ，ｇｕａｎｇ　ｄｏｎｇ　ｓｈｅｎｇ，Ｃｈｉｎａ　５１８０００,,,,,,2023-01-16,1,,,,,シンセンシトンタツセイカギユウゲンコウシ,0
2294,8010001232113,新規,0,2023-01-16,2023-01-16,株式会社ＳｍｉＬｅａｒｎ,,株式会社,東京都,中央区,銀座１丁目２２番１１号銀座大竹ビジデンス２階,,13,102,1040061,,,,,,,2023-01-16,1,,,,,スマイラーン,0
2295,8010001232138,新規,0,2023-01-16,2023-01-16,株式会社真空管,,株式会社,東京都,千代田区,岩本町１丁目１番６号,,13,101,1010032,,,,,,,2023-01-16,1,,,,,シンクウカン,0
2296,8010001232229,新規,0,2023-01-16,2023-01-16,株式会社ＢＥＡＵＴＹ　ＦＯＵＲ,,株式会社,東京都,中央区,日本橋小舟町１番１０－７０３号,,13,102,1030024,,,,,,,2023-01-16,1,,,,,ビューティーフォー,0
2297,8010001232245,新規,0,2023-01-16,2023-01-16,渝仁商事株式会社,,株式会社,東京都,中央区,築地２丁目１５－１５－６２０,,13,102,1040045,,,,,,,2023-01-16,1,,,,,ユジンショウジ,0
2298,8010001232286,新規,0,2023-01-16,2023-01-16,株式会社味岡ビル,,株式会社,東京都,中央区,日本橋蛎殻町１丁目３３番１１号,,13,102,1030014,,,,,,,2023-01-16,1,,,,,アジオカビル,0
2301,8010003039515,新規,0,2023-01-16,2023-01-16,キャラカル合同会社,,合同会社,東京都,中央区,銀座８丁目１０―５ＤＥＮＳＡＮビルＧ―２０１４９,,13,102,1040061,,,,,,,2023-01-16,1,,,,,キャラカル,0
2302,8010003039531,新規,0,2023-01-16,2023-01-16,Ｍ３ＷＥ合同会社,,合同会社,東京都,中央区,八重洲２丁目１－１ＹＡＮＭＡＲＴＯＫＹＯ１２階,,13,102,1040028,,,,,,,2023-01-16,1,,,,,エムスリーダブリューイー,0
2307,8010401171761,新規,0,2023-01-16,2023-01-16,東京スターツーリスト株式会社,,株式会社,東京都,港区,新橋５丁目１２番１１号天翔新橋５丁目ビル８０２号室,,13,103,1050004,,,,,,,2023-01-16,1,,,,,トウキョウスターツーリスト,0
2308,8010403029248,新規,0,2023-01-16,2023-01-16,Ｉｎｔｅｒｓｏｆｔｋｋ　Ｉｎｃ合同会社,,合同会社,東京都,港区,海岸２丁目１番２３号ベイサイド３階,,13,103,1050022,,,,,,,2023-01-16,1,,,,,インターソフトケイケイアイエヌシー,0
2309,8010403029297,新規,0,2023-01-16,2023-01-16,合同会社蒲生地所,,合同会社,東京都,港区,赤坂２丁目１０番５号税理士法人赤坂国際会計事務所内,,13,103,1070052,,,,,,,2023-01-16,1,,,,,ガモウジショ,0
2312,8010503006849,新規,0,2023-01-16,2023-01-16,ＣＵＳＴＡＦＵＮ合同会社,,合同会社,東京都,台東区,竜泉３丁目３５番１０－５０３号,,13,106,1100012,,,,,,,2023-01-16,1,,,,,シーユースタファン,0
2317,8010601062414,新規,0,2023-01-16,2023-01-16,株式会社メドフリー,,株式会社,東京都,墨田区,緑４丁目２４番５－９０３号,,13,107,1300021,,,,,,,2023-01-16,1,,,,,メドフリー,0
2318,8010601062422,新規,0,2023-01-16,2023-01-16,株式会社ＫＹＵソリューションズ,,株式会社,東京都,江東区,亀戸６丁目５５番１５号ガーデングラス亀戸９０２,,13,108,1360071,,,,,,,2023-01-16,1,,,,,キュウソリューションズ,0
2320,8010603009933,新規,0,2023-01-16,2023-01-16,合同会社かえでカンパニー,,合同会社,東京都,江東区,白河３丁目１０番２－１００２号,,13,108,1350021,,,,,,,2023-01-16,1,,,,,カエデカンパニー,0
2322,8010701043719,新規,0,2023-01-16,2023-01-16,Ｂｅ‐Ａｓｋ株式会社,,株式会社,東京都,品川区,上大崎２丁目１３番３５号ニューフジビル５０２号室,,13,109,1410021,,,,,,,2023-01-16,1,,,,,ビーアスク,0
2323,8010701043727,新規,0,2023-01-16,2023-01-16,株式会社ケルプ,,株式会社,東京都,品川区,東五反田５丁目１３番１７号,,13,109,1410022,,,,,,,2023-01-16,1,,,,,ケルプ,0
2326,8010703006541,新規,0,2023-01-16,2023-01-16,ルドリウム合同会社,,合同会社,東京都,品川区,西五反田７丁目１３番５号ＤＫ五反田４Ｆ,,13,109,1410031,,,,,,,2023-01-16,1,,,,,ルドリウム,0
2331,8010901052346,新規,0,2023-01-16,2023-01-16,株式会社Ａｎｎｅｘｙｚ,,株式会社,東京都,世田谷区,経堂１丁目１２－２０経堂一丁目グランドヒルズ５０３,,13,112,1560052,,,,,,,2023-01-16,1,,,,,アネクシーズ,0
2336,8011001151996,新規,0,2023-01-16,2023-01-16,株式会社ＴＣＣ,,株式会社,東京都,目黒区,東山１丁目６番７号フォーラム中目黒,,13,110,1530043,,,,,,,2023-01-16,1,,,,,ティーシーシー,0
2340,8011003016099,新規,0,2023-01-16,2023-01-16,合同会社８３０ＰＬＡＮＮＩＮＧ,,合同会社,東京都,目黒区,上目黒３丁目２２番５号,,13,110,1530051,,,,,,,2023-01-16,1,,,,,エイトサーティプランニング,0
2343,8011101101488,新規,0,2023-01-16,2023-01-16,株式会社ステファン,,株式会社,東京都,新宿区,西落合３丁目８番５－１０６号,,13,104,1610031,,,,,,,2023-01-16,1,,,,,ステファン,0
2344,8011101101513,新規,0,2023-01-16,2023-01-16,株式会社Ｇｒｏｗ　Ｕｐ,,株式会社,東京都,新宿区,早稲田鶴巻町５２０番地４Ｂｒｉｌｌｉａ早稲田９０２,,13,104,1620041,,,,,,,2023-01-16,1,,,,,グローアップ,0
2356,8011501028835,新規,0,2023-01-16,2023-01-16,株式会社ＣＲＣ,,株式会社,東京都,荒川区,東日暮里５丁目３０番１号光マンション４０１号,,13,118,1160014,,,,,,,2023-01-16,1,,,,,シーアールシー,0
2357,8011501028851,新規,0,2023-01-16,2023-01-16,Ｋａｒｌ　Ｒａｂｅ株式会社,,株式会社,東京都,北区,豊島７丁目５番１２号,,13,117,1140003,,,,,,,2023-01-16,1,,,,,カールラーベ,0
2358,8011503005428,新規,0,2023-01-16,2023-01-16,合同会社イノベーションラボ,,合同会社,東京都,北区,滝野川３丁目３５番３号,,13,117,1140023,,,,,,,2023-01-16,1,,,,,イノベーションラボ,0
2370,8012405004823,新規,0,2023-01-16,2023-01-16,一般社団法人慈稲会,,その他の設立登記法人,東京都,稲城市,東長沼３１０７番地の４京王リトナード稲城３階,,13,225,2060802,,,,,,,2023-01-16,1,,,,,ジトウカイ,0
2375,8013303006449,新規,0,2023-01-16,2023-01-16,合同会社サムシンググッド,,合同会社,東京都,豊島区,西池袋４丁目２５番７号,,13,116,1710021,,,,,,,2023-01-16,1,,,,,サムシンググッド,0
2379,8020001149843,新規,0,2023-01-16,2023-01-16,株式会社ミナミ住宅設備,,株式会社,神奈川県,横浜市南区,若宮町２丁目７－１６,,14,105,2320057,,,,,,,2023-01-16,1,,,,,ミナミジュウタクセツビ,0
2380,8020003023071,新規,0,2023-01-16,2023-01-16,ＬｏａＬｉｖｉｎｇ合同会社,,合同会社,神奈川県,横浜市中区,福富町西通１番地７号セントレー横浜関内６０７号室,,14,104,2310042,,,,,,,2023-01-16,1,,,,,ロアリビング,0
2381,8020005015810,新規,0,2023-01-16,2023-01-16,一般社団法人みなとみらいファーム,,その他の設立登記法人,神奈川県,横浜市中区,桜木町１丁目１０１番地１クロスゲート７階,,14,104,2310062,,,,,,,2023-01-16,1,,,,,ミナトミライファーム,0
2385,8021001077935,新規,0,2023-01-16,2023-01-16,株式会社ビンタンテック,,株式会社,神奈川県,鎌倉市,岡本１５００番地,,14,204,2470072,,,,,,,2023-01-16,1,,,,,ビンタンテック,0
2386,8021005012715,新規,0,2023-01-16,2023-01-16,一般社団法人宗教２世支援センター陽だまり,,その他の設立登記法人,神奈川県,座間市,入谷東３丁目３７番１８号,,14,216,2520028,,,,,,,2023-01-16,1,,,,,シュウキョウニセイシエンセンターヒダマリ,0
2391,8030001151872,新規,0,2023-01-16,2023-01-16,株式会社Ｏｆｆｉｃｅ　Ｎｕｔｒｉｅ,,株式会社,埼玉県,戸田市,本町３丁目１３番１５－１００１号,,11,224,3350023,,,,,,,2023-01-16,1,,,,,オフィスナトリエ,0
2392,8030001151963,新規,0,2023-01-16,2023-01-16,株式会社ＯＦＡ,,株式会社,埼玉県,春日部市,藤塚１３００番地フィナンシェ１０５,,11,214,3440011,,,,,,,2023-01-16,1,,,,,オーエフエー,0
2396,8030003020951,新規,0,2023-01-16,2023-01-16,合同会社花菱,,合同会社,埼玉県,新座市,栗原１丁目３番２６号マロンハイム１０１号室,,11,230,3520035,,,,,,,2023-01-16,1,,,,,ハナビシ,0
2399,8040001126642,新規,0,2023-01-16,2023-01-16,株式会社笑福,,株式会社,千葉県,市原市,五井５６２２番地２パークハウスＡ３,,12,219,2900056,,,,,,,2023-01-16,1,,,,,エフ,0
2400,8040001126650,新規,0,2023-01-16,2023-01-16,株式会社アイポリマー,,株式会社,千葉県,流山市,鰭ケ崎１４番地１０,,12,220,2700161,,,,,,,2023-01-16,1,,,,,アイポリマー,0
2401,8040001126659,新規,0,2023-01-16,2023-01-16,株式会社やわた未来パートナーズ,,株式会社,千葉県,市原市,能満３２２番地１,,12,219,2900011,,,,,,,2023-01-16,1,,,,,ヤワタミライパートナーズ,0
2402,8040001126667,新規,0,2023-01-16,2023-01-16,株式会社ＢＥＬＬ　ＳＴＵＤＩＯ,,株式会社,千葉県,大網白里市,季美の森南１丁目１４番地１０,,12,239,2993241,,,,,,,2023-01-16,1,,,,,ベルスタジオ,0
2404,8040003021692,新規,0,2023-01-16,2023-01-16,合同会社インディー,,合同会社,千葉県,千葉市若葉区,加曽利町７７７番地４,,12,104,2640017,,,,,,,2023-01-16,1,,,,,インディー,0
2406,8050001052210,新規,0,2023-01-16,2023-01-16,株式会社Ａｄｖａｎｃｅ,,株式会社,茨城県,水戸市,吉沢町８０１番地の７,,08,201,3100845,,,,,,,2023-01-16,1,,,,,アドバンス,0
2407,8050001052251,新規,0,2023-01-16,2023-01-16,株式会社関禄圧送,,株式会社,茨城県,筑西市,上野２８２番地,,08,227,3080129,,,,,,,2023-01-16,1,,,,,セキロクアッソウ,0
2410,8060001035619,新規,0,2023-01-16,2023-01-16,株式会社フリル,,株式会社,栃木県,栃木市,川原田町９５６番地,,09,203,3280123,,,,,,,2023-01-16,1,,,,,フリル,0
2412,8070001040007,新規,0,2023-01-16,2023-01-16,株式会社ＥＢＵＬＬＩＥＮＴ,,株式会社,群馬県,高崎市,柳川町７４番地２ｎｄＢｏｘ１Ｆ,,10,202,3700815,,,,,,,2023-01-16,1,,,,,エブリエント,0
2414,8070003004785,新規,0,2023-01-16,2023-01-16,合同会社優光,,合同会社,群馬県,太田市,西新町８４番地１５,,10,205,3730847,,,,,,,2023-01-16,1,,,,,ユウコウ,0
2419,8080401026249,新規,0,2023-01-16,2023-01-16,株式会社中山商会,,株式会社,静岡県,掛川市,上西郷４４７９番地の１,,22,213,4360342,,,,,,,2023-01-16,1,,,,,ナカヤマショウカイ,0
2423,8100001036050,新規,0,2023-01-16,2023-01-16,株式会社ＭＭＭｓｔｕｄｉｏ,,株式会社,長野県,上伊那郡辰野町,大字辰野１７０４番地,,20,382,3990421,,,,,,,2023-01-16,1,,,,,エムエムエムスタジオ,0
2424,8100001036059,新規,0,2023-01-16,2023-01-16,株式会社キョウデンシャＨＤ,,株式会社,長野県,長野市,大字川合新田１４５５番地,,20,201,3800913,,,,,,,2023-01-16,1,,,,,キョウデンシャホールディングス,0
2439,8120001251622,新規,0,2023-01-16,2023-01-16,株式会社ＣＨＩＧＩＲＩ,,株式会社,大阪府,大阪市中央区,内久宝寺町４丁目４番１２号プライムツリー内久宝寺１１０２,,27,128,5400013,,,,,,,2023-01-16,1,,,,,チギリ,0
2440,8120001251671,新規,0,2023-01-16,2023-01-16,株式会社ｍｉｘｐａｃｋａｇｅ,,株式会社,大阪府,大阪市北区,天満橋３丁目５番,,27,127,5300042,,,,,,,2023-01-16,1,,,,,ミックスパッケージ,0
2441,8120001251762,新規,0,2023-01-16,2023-01-16,株式会社ニューファングル,,株式会社,大阪府,交野市,東倉治４丁目２３番２号,,27,230,5760061,,,,,,,2023-01-16,1,,,,,ニューファングル,0
2442,8120001251770,新規,0,2023-01-16,2023-01-16,株式会社ｅｅｅ企画,,株式会社,大阪府,大阪市中央区,本町４丁目４番１７号,,27,128,5410053,,,,,,,2023-01-16,1,,,,,イーキカク,0
2443,8120001251779,新規,0,2023-01-16,2023-01-16,株式会社Ａ‐ｓｔｙｌｅ,,株式会社,大阪府,大阪市平野区,喜連２丁目７番２５号,,27,126,5470027,,,,,,,2023-01-16,1,,,,,エースタイル,0
2444,8120001251787,新規,0,2023-01-16,2023-01-16,株式会社アサヒ電気商会,,株式会社,大阪府,大阪市旭区,森小路１丁目１１番１１－２０５号,,27,117,5350013,,,,,,,2023-01-16,1,,,,,アサヒデンキショウカイ,0
2448,8120003023251,新規,0,2023-01-16,2023-01-16,合同会社おくりばんと,,合同会社,大阪府,大阪市住吉区,万代４丁目１４番２号,,27,120,5580055,,,,,,,2023-01-16,1,,,,,オクリバント,0
2451,8120101066838,新規,0,2023-01-16,2023-01-16,株式会社阪井興業,,株式会社,大阪府,富田林市,平町２丁目８番２６号,,27,214,5840002,,,,,,,2023-01-16,1,,,,,サカイコウギョウ,0
2455,8130001073462,新規,0,2023-01-16,2023-01-16,株式会社三角舎,,株式会社,京都府,京都市左京区,岩倉長谷町６５０番地４８,,26,103,6060026,,,,,,,2023-01-16,1,,,,,サンカクシャ,0
2456,8130001073495,新規,0,2023-01-16,2023-01-16,株式会社リンクスエフ,,株式会社,京都府,京都市山科区,大宅御供田町２４０番地Ｍビル２階東,,26,110,6078192,,,,,,,2023-01-16,1,,,,,リンクスエフ,0
2459,8130003008441,新規,0,2023-01-16,2023-01-16,合同会社Ｂ＆Ｌ,,合同会社,京都府,京都市下京区,綾小路通堀川西入妙満寺町５９０番地,,26,106,6008392,,,,,,,2023-01-16,1,,,,,ビーアンドエル,0
2460,8130005016665,新規,0,2023-01-16,2023-01-16,医療法人等伯会,,その他の設立登記法人,京都府,京都市西京区,桂上野南町８９番地,,26,111,6158005,,,,,,,2023-01-16,1,,,,,トウハクカイ,0
2474,8140001128612,新規,0,2023-01-16,2023-01-16,株式会社和粧,,株式会社,兵庫県,神戸市西区,水谷２丁目６番２６号,,28,111,6512121,,,,,,,2023-01-16,1,,,,,ワショウ,0
2475,8140001128703,新規,0,2023-01-16,2023-01-16,仁和商事株式会社,,株式会社,兵庫県,尼崎市,浜田町３丁目２５番,,28,202,6600062,,,,,,,2023-01-16,1,,,,,ニワショウジ,0
2476,8140001128711,新規,0,2023-01-16,2023-01-16,フォレストバリュー株式会社,,株式会社,兵庫県,伊丹市,伊丹３丁目６番２２号,,28,207,6640846,,,,,,,2023-01-16,1,,,,,フォレストバリュー,0
2479,8140003018539,新規,0,2023-01-16,2023-01-16,ＳＵＣＣＥＳＳ合同会社,,合同会社,兵庫県,伊丹市,寺本５丁目３１８番地,,28,207,6640026,,,,,,,2023-01-16,1,,,,,サクセス,0
2481,8160001024776,新規,0,2023-01-16,2023-01-16,株式会社ＭＡＲＫＩ,,株式会社,滋賀県,蒲生郡竜王町,大字山面３５番地４８６,,25,384,5202564,,,,,,,2023-01-16,1,,,,,マーキー,0
2484,8170003001822,新規,0,2023-01-16,2023-01-16,合同会社オザキ,,合同会社,和歌山県,海南市,小野田１２０２番地１,,30,202,6420014,,,,,,,2023-01-16,1,,,,,オザキ,0
2485,8170005006992,新規,0,2023-01-16,2023-01-16,医療法人善和会,,その他の設立登記法人,和歌山県,和歌山市,美園町５丁目１－２新橘ビル２Ｆ,,30,201,6408331,,,,,,,2023-01-16,1,,,,,ゼンワカイ,0
2491,8180001154563,新規,0,2023-01-16,2023-01-16,株式会社ＣＬＡＵＤＩＡ　ＪＯＣＥＬＩＮ,,株式会社,愛知県,名古屋市西区,牛島町６－１名古屋ルーセントタワー４０階,,23,104,4510046,,,,,,,2023-01-16,1,,,,,クラウディアジョセリン,0
2499,8180003024681,新規,0,2023-01-16,2023-01-16,合同会社ＥＭＭＥＴ,,合同会社,愛知県,江南市,小折本町白山１４６番地２５,,23,217,4838124,,,,,,,2023-01-16,1,,,,,エメット,0
2500,8180003024723,新規,0,2023-01-16,2023-01-16,合同会社ＡＩＴＯ,,合同会社,愛知県,春日井市,神領町２丁目２１番地１,,23,206,4860821,,,,,,,2023-01-16,1,,,,,アイト,0
2502,8180301037022,新規,0,2023-01-16,2023-01-16,株式会社Ａｒｍｓ,,株式会社,愛知県,豊橋市,東幸町字大山１１６番地１（５０３）,,23,201,4400843,,,,,,,2023-01-16,1,,,,,アームズ,0
2516,8220001025231,新規,0,2023-01-16,2023-01-16,株式会社エミタイン,,株式会社,石川県,金沢市,藤江北１丁目４００番地,,17,201,9200345,,,,,,,2023-01-16,1,,,,,エミタイン,0
2525,8240001060961,新規,0,2023-01-16,2023-01-16,株式会社啓成工業,,株式会社,広島県,福山市,神辺町字下御領１３３２番地５,,34,207,7202117,,,,,,,2023-01-16,1,,,,,ケイセイコウギョウ,0
2527,8250001019924,新規,0,2023-01-16,2023-01-16,株式会社アモード,,株式会社,山口県,宇部市,大字東岐波１３４２番地１,,35,202,7550241,,,,,,,2023-01-16,1,,,,,アモード,0
2528,8250001019932,新規,0,2023-01-16,2023-01-16,株式会社高昇架設,00129075,株式会社,山口県,宇部市,大字東岐波字大石原１８２８番１,,35,202,7550241,,,,,,,2023-01-16,1,,,,,タカショウカセツ,0
2543,8260003004155,新規,0,2023-01-16,2023-01-16,合同会社ＣＯＲＥ,,合同会社,岡山県,備前市,大内１０７８番地５コーポ赤坂２０５号,,33,211,7050003,,,,,,,2023-01-16,1,,,,,コア,0
2555,8290001100184,新規,0,2023-01-16,2023-01-16,株式会社ＮＯＮＡＫＡ,,株式会社,福岡県,久留米市,荒木町荒木１６５７番地１サスティナヴィラ上荒木１０５,,40,203,8300063,,,,,,,2023-01-16,1,,,,,ノナカ,0
2556,8290001100259,新規,0,2023-01-16,2023-01-16,株式会社ＴＨＭクロスロード,,株式会社,福岡県,福岡市南区,長住７丁目８番２５号,,40,134,8111362,,,,,,,2023-01-16,1,,,,,ティーエイチエムクロスロード,0
2562,8330001030501,新規,0,2023-01-16,2023-01-16,株式会社平野工業,,株式会社,熊本県,合志市,竹迫１５９１－１,,43,216,8611114,,,,,,,2023-01-16,1,,,,,ヒラノコウギョウ,0
2566,8340001025293,新規,0,2023-01-16,2023-01-16,株式会社ＨＯＬＹ　ＯＣＥＡＮ,,株式会社,鹿児島県,曽於市,財部町下財部３５９５アースタウンＤ棟１Ｆ,,46,217,8994103,,,,,,,2023-01-16,1,,,,,ホーリーオーシャン,0
2570,8360001031447,新規,0,2023-01-16,2023-01-16,株式会社ＥＬ８ＭＥＤＩＡ　ＤＥＳＩＧＮ,,株式会社,沖縄県,浦添市,大平１丁目２番２０号,,47,208,9012113,,,,,,,2023-01-16,1,,,,,エルハチメディアデザイン,0
2580,8380003005364,新規,0,2023-01-16,2023-01-16,ＴＫ・Ｎｅｔｗｏｒｋ合同会社,,合同会社,福島県,石川郡浅川町,大字浅川字大明塚１１８番地の４１,,07,504,9636204,,,,,,,2023-01-16,1,,,,,ティーケイネットワーク,0
2582,8390001017138,新規,0,2023-01-16,2023-01-16,株式会社ｏｒａｎｇｅｊｕｉｃｅ．９９,,株式会社,山形県,酒田市,新橋２丁目２６番地の２１,,06,204,9980864,,,,,,,2023-01-16,1,,,,,オレンジジュースキュウジュウキュウ,0
2589,8430001088199,新規,0,2023-01-16,2023-01-16,株式会社ＫＵＫＩ,,株式会社,北海道,札幌市手稲区,前田二条３丁目２番１８号,,01,109,0060812,,,,,,,2023-01-16,1,,,,,クキ,0
2590,8430001088232,新規,0,2023-01-16,2023-01-16,株式会社Ｆ．Ｅ．Ｆ,,株式会社,北海道,札幌市中央区,南一条西２６丁目１番５－５０１号,,01,101,0640801,,,,,,,2023-01-16,1,,,,,エフイーエフ,0
2592,8430003014640,新規,0,2023-01-16,2023-01-16,合同会社ＢＯＬＴＹ,,合同会社,北海道,札幌市中央区,北七条西１７丁目７番地９,,01,101,0600007,,,,,,,2023-01-16,1,,,,,ボルティ,0
2593,8430003014649,新規,0,2023-01-16,2023-01-16,合同会社中本設計室,,合同会社,北海道,小樽市,桜３丁目１６番３３号,,01,203,0470156,,,,,,,2023-01-16,1,,,,,ナカモトセッケイシツ,0
2594,8430003014657,新規,0,2023-01-16,2023-01-16,合同会社川,,合同会社,北海道,千歳市,清水町４丁目１２番地の１,,01,224,0660041,,,,,,,2023-01-16,1,,,,,セン,0
2596,8460001005762,新規,0,2023-01-16,2023-01-16,翔建装株式会社,,株式会社,北海道,釧路市,緑ケ岡６丁目２２－４,,01,206,0850814,,,,,,,2023-01-16,1,,,,,ショウケンソウ,0
2604,8700150113746,新規,0,2023-01-16,2023-01-16,ｅｚｈｏｕ　ｊｕｎｔｅｎｇ　ｄｉａｎｚｉｓｈａｎｇｗｕ　ｙｏｕｘｉａｎｇｏｎｇｓｉ,,外国会社等,,,,,,,,Ｗｕｔｏｎｇｈｕｘｉｎｑｕ，ｚｈａｚｈｏｕｃｕｎ，ｓｕｎｊｉａｗａｎｙｉｚｕ７７，ｅｚｈｏｕ，ｈｕｂｅｉ，Ｃｈｉｎａ,,,,,,2023-01-16,1,,,,,エシュウジュンテンドーデンツィシャンウーユーシャンゴンシー,0
2605,8700150113754,新規,0,2023-01-16,2023-01-16,ＦｕｚｈｏｕＧｕｌｏｕＱｕｌｉｎｇｙｉｅｒ　ｄｉａｎｚｉｓｈａｎｇｗｕｙｏｕｘｉａｎｇｏｎｇｓｉ,,外国会社等,,,,,,,,ｄｏｎｇｄａｌｕ　３６ｈａｏ　ｈｕａｋａｉｆｕｇｕｉ　１＃Ａ　ｚｕｏ　２１Ｊ　ｓｈｉ　ｇｕｌｏｕ　ｑｕ　ｆｕｊｉａｎ　ｓｈｅｎｇ　ｆｕｚｈｏｕ　ｓｈｉ　３５０００１　ＣＮ,,,,,,2023-01-16,1,,,,,フクシュウコウロクレイイチニデンシショウボウユウゲンコウシ,0
2606,8700150113762,新規,0,2023-01-16,2023-01-16,ｋｕｎ　ｓｈａｎ　ｓｈｕ　ｌａｎ　ｘｉｎ　ｘｉ　ｋｅ　ｊｉ　ｙｏｕ　ｘｉａｎ　ｇｏｎｇ　ｓｉ,,外国会社等,,,,,,,,ｙａｏ　ｇｕ　ｇｕｏ　ｊｉ　Ａ２０７，ｇｕａｎｇ　ｍｉｎｇ　ｌｕ　ｈｕａ　ｑｉａｏ　ｚｈｅｎ　ｋｕｎ　ｓｈａｎ　ｊｉａｎｇ　ｓｕ，Ｃｈｉｎａ,,,,,,2023-01-16,1,,,,,コンサンショランシンソクカギユウゲンコウシ,0
2614,9010001232112,新規,0,2023-01-16,2023-01-16,株式会社Ｔｓｕｋｉ,,株式会社,東京都,中央区,銀座７丁目１５番８号タウンハイツ銀座,,13,102,1040061,,,,,,,2023-01-16,1,,,,,ツキ,0
2616,9010003039522,新規,0,2023-01-16,2023-01-16,アストロ・エイト合同会社,,合同会社,東京都,中央区,銀座１丁目６番１１号土志田ビルディング３Ｆ,,13,102,1040061,,,,,,,2023-01-16,1,,,,,アストロエイト,0
2617,9010003039539,新規,0,2023-01-16,2023-01-16,Ｐｏｍｖｏｍ合同会社,,合同会社,東京都,中央区,日本橋３丁目９番１号日本橋三丁目スクエア１１階,,13,102,1030027,,,,,,,2023-01-16,1,,,,,ポムボム,0
2618,9010003039596,新規,0,2023-01-16,2023-01-16,エバーグローウィング資産管理合同会社,,合同会社,東京都,中央区,銀座１丁目１２番４号Ｎ＆ＥＢＬＤ．６Ｆ,,13,102,1040061,,,,,,,2023-01-16,1,,,,,エバーグローウィングシサンカンリ,0
2626,9010401171785,新規,0,2023-01-16,2023-01-16,ＴＥＩＡＮ株式会社,,株式会社,東京都,港区,南青山６丁目２番９号ＫＳビル３Ｆ,,13,103,1070062,,,,,,,2023-01-16,1,,,,,テイアン,0
2627,9010401171793,新規,0,2023-01-16,2023-01-16,株式会社ＨＡＮＡ　ＬＩＦＥ,,株式会社,東京都,港区,港南３丁目５番１０－２６１０号,,13,103,1080075,,,,,,,2023-01-16,1,,,,,ハナライフ,0
2628,9010401171810,新規,0,2023-01-16,2023-01-16,株式会社３Ｓ３,,株式会社,東京都,港区,南青山２丁目２番１５号ｗｉｎＡｏｙａｍａビルＵＦＣ６階,,13,103,1070062,,,,,,,2023-01-16,1,,,,,スリーエスキューブ,0
2629,9010401171827,新規,0,2023-01-16,2023-01-16,株式会社シルバーフレイム,,株式会社,東京都,港区,芝公園２丁目６番１１号芝公園アビタシオン２０５,,13,103,1050011,,,,,,,2023-01-16,1,,,,,シルバーフレイム,0
2631,9010405021697,新規,0,2023-01-16,2023-01-16,Ｔｅｒｒａ一般社団法人,,その他の設立登記法人,東京都,港区,虎ノ門４丁目１番２８号,,13,103,1050001,,,,,,,2023-01-16,1,,,,,テラ,0
2634,9010601062413,新規,0,2023-01-16,2023-01-16,トライアングル株式会社,,株式会社,東京都,江東区,豊洲３丁目２番２０号,,13,108,1350061,,,,,,,2023-01-16,1,,,,,トライアングル,0
2641,9010701043726,新規,0,2023-01-16,2023-01-16,Ｂｒｉｇｈｔ　Ｍａｎａｇｅｍｅｎｔ株式会社,,株式会社,東京都,品川区,平塚１丁目６－６,,13,109,1420051,,,,,,,2023-01-16,1,,,,,ブライトマネジメント,0
2645,9010901052345,新規,0,2023-01-16,2023-01-16,オギノ工務店株式会社,,株式会社,東京都,世田谷区,池尻３丁目３０番５－１００２号,,13,112,1540001,,,,,,,2023-01-16,1,,,,,オギノコウムテン,0
2652,9011103012600,新規,0,2023-01-16,2023-01-16,合同会社ワイジーリンク,,合同会社,東京都,新宿区,西新宿８丁目８番３号,,13,104,1600023,,,,,,,2023-01-16,1,,,,,ワイジーリンク,0
2663,9011501028842,新規,0,2023-01-16,2023-01-16,株式会社サンライズ保険センター,,株式会社,東京都,北区,王子本町２丁目５番８号ＴＫハイツ１０１号,,13,117,1140022,,,,,,,2023-01-16,1,,,,,サンライズホケンセンター,0
2664,9011501028850,新規,0,2023-01-16,2023-01-16,株式会社ディオスター,,株式会社,東京都,荒川区,東日暮里５丁目１６番１－２００９号,,13,118,1160014,,,,,,,2023-01-16,1,,,,,ディオスター,0
2665,9011503005427,新規,0,2023-01-16,2023-01-16,合同会社ＨＯＡＮＧ　ＹＥＮ,,合同会社,東京都,荒川区,東尾久４丁目１３番９－５０１号司ビル,,13,118,1160012,,,,,,,2023-01-16,1,,,,,ホアンイエン,0
2670,9012301013282,新規,0,2023-01-16,2023-01-16,株式会社ＭＰＲ,,株式会社,東京都,町田市,小山町７５５番地４,,13,209,1940212,,,,,,,2023-01-16,1,,,,,エムピーアール,0
2676,9012401040078,新規,0,2023-01-16,2023-01-16,株式会社古宇田工業,,株式会社,東京都,三鷹市,新川２丁目９番１６号,,13,204,1810004,,,,,,,2023-01-16,1,,,,,コウダコウギョウ,0
2695,9020003023120,新規,0,2023-01-16,2023-01-16,合同会社ＮＵＭＢＥＲ　ＯＮＥ,,合同会社,神奈川県,横浜市中区,太田町６丁目７０番地,,14,104,2310011,,,,,,,2023-01-16,1,,,,,ナンバーワン,0
2698,9021001077967,新規,0,2023-01-16,2023-01-16,株式会社ＭＥ,,株式会社,神奈川県,藤沢市,鵠沼松が岡３丁目１４番１７号,00129072,14,205,2510038,,,,,,,2023-01-16,1,,,,,エムイー,0
2705,9030001151905,新規,0,2023-01-16,2023-01-16,株式会社ｄｕ　ｊｕｏｒ,,株式会社,埼玉県,さいたま市南区,大字太田窪３５０６番地１１輝龍ビル,,11,108,3360015,,,,,,,2023-01-16,1,,,,,ドゥジュール,0
2706,9030001151938,新規,0,2023-01-16,2023-01-16,株式会社ＮＯＮＩＷＡ,,株式会社,埼玉県,比企郡ときがわ町,大字別所４４番地４,,11,349,3550352,,,,,,,2023-01-16,1,,,,,ノニワ,0
2710,9030003020975,新規,0,2023-01-16,2023-01-16,アクセス合同会社,,合同会社,埼玉県,越谷市,千間台西３丁目３パークタウン６－３０３,,11,222,3430041,,,,,,,2023-01-16,1,,,,,アクセス,0
2713,9040003021691,新規,0,2023-01-16,2023-01-16,合同会社くっしー,,合同会社,千葉県,浦安市,日の出６丁目２番Ｃ棟３０１号アールフォーラム新浦安,,12,227,2790013,,,,,,,2023-01-16,1,,,,,クッシー,0
2719,9050001052242,新規,0,2023-01-16,2023-01-16,株式会社ＢＡＭＢＯＯ　ＵＮＩＴＥＤ,,株式会社,茨城県,つくば市,吾妻１丁目７－５ＬＥＪＡＤＥＴＳＵＫＵＢＡ１４０６,,08,220,3050031,,,,,,,2023-01-16,1,,,,,バンブーユナイテッド,0
2720,9050001052250,新規,0,2023-01-16,2023-01-16,大嶋エレクトリック株式会社,,株式会社,茨城県,ひたちなか市,津田東３丁目１１番地５コーポシバタ１階,,08,221,3120036,,,,,,,2023-01-16,1,,,,,オオシマエレクトリック,0
2721,9050001052259,新規,0,2023-01-16,2023-01-16,株式会社アイ・クリエイティブ,,株式会社,茨城県,日立市,東金沢町４丁目１０番６号,,08,202,3160014,,,,,,,2023-01-16,1,,,,,アイクリエイティブ,0
2722,9050003007153,新規,0,2023-01-16,2023-01-16,合同会社Ａｌｌ　Ｓｉｍｐｌｅ,,合同会社,茨城県,鉾田市,造谷８８９番地４,,08,234,3111415,,,,,,,2023-01-16,1,,,,,オールシンプル,0
2733,9070001040022,新規,0,2023-01-16,2023-01-16,ペルシャエンタープライズ株式会社,,株式会社,群馬県,伊勢崎市,香林町２丁目１０１７番地１,,10,204,3792206,,,,,,,2023-01-16,1,,,,,ペルシャエンタープライズ,0
2737,9080403004697,新規,0,2023-01-16,2023-01-16,ＳＬＯＷ合同会社,,合同会社,静岡県,湖西市,新居町内山２７００番地の４５,,22,221,4310304,,,,,,,2023-01-16,1,,,,,スロー,0
2738,9090005007536,新規,0,2023-01-16,2023-01-16,弁護士法人ファーストパートナーズ,,その他の設立登記法人,山梨県,甲府市,伊勢１丁目４番１１号ニューウェーブビル３階,,19,201,4000856,,,,,,,2023-01-16,1,,,,,,0
2739,9100001036058,新規,0,2023-01-16,2023-01-16,株式会社輝吉運輸,,株式会社,長野県,長野市,大字高田１６２番地１,,20,201,3810034,,,,,,,2023-01-16,1,,,,,テルヨシウンユ,0
2754,9120001251662,新規,0,2023-01-16,2023-01-16,株式会社ケーアイ,,株式会社,大阪府,大阪市旭区,赤川３丁目１４番８号,,27,117,5350005,,,,,,,2023-01-16,1,,,,,ケーアイ,0
2755,9120001251720,新規,0,2023-01-16,2023-01-16,三樹ハウス株式会社,,株式会社,大阪府,大阪市西淀川区,姫島４丁目２２番１６号２Ｆ,,27,113,5550033,,,,,,,2023-01-16,1,,,,,ミキハウス,0
2756,9120001251753,新規,0,2023-01-16,2023-01-16,株式会社ＨｅａｒｔｓＨｏｕｓｅ,,株式会社,大阪府,大阪市東住吉区,西今川１丁目２０番３０号,,27,121,5460042,,,,,,,2023-01-16,1,,,,,ハーツハウス,0
2757,9120001251761,新規,0,2023-01-16,2023-01-16,株式会社ＦＵＮＣＴＩＯＮ,,株式会社,大阪府,大阪市鶴見区,放出東３丁目１２番２１号,,27,124,5380044,,,,,,,2023-01-16,1,,,,,ファンクション,0
2758,9120001251803,新規,0,2023-01-16,2023-01-16,蘭森株式会社,,株式会社,大阪府,大阪市淀川区,西中島４丁目９番２２号３０１号室,,27,123,5320011,,,,,,,2023-01-16,1,,,,,ランシン,0
2761,9120003023242,新規,0,2023-01-16,2023-01-16,リキトウ合同会社,,合同会社,大阪府,大阪市住吉区,苅田２丁目５番２４－５０８号,,27,120,5580011,,,,,,,2023-01-16,1,,,,,リキトウ,0
2762,9120003023259,新規,0,2023-01-16,2023-01-16,ＮＡＢＯ合同会社,,合同会社,大阪府,大阪市浪速区,日本橋３丁目１番２７号サンコーポ日本橋７０３号,,27,111,5560005,,,,,,,2023-01-16,1,,,,,ナボ,0
2765,9120901046996,新規,0,2023-01-16,2023-01-16,株式会社ＶＥＲＴＥＸ,,株式会社,大阪府,茨木市,上穂積４丁目６番１－４０２号,,27,211,5670036,,,,,,,2023-01-16,1,,,,,バーテックス,0
2766,9120901047004,新規,0,2023-01-16,2023-01-16,株式会社ＦＯＵＲ　ＬＩＦＥ,,株式会社,大阪府,吹田市,泉町２丁目４６－３４,,27,205,5640041,,,,,,,2023-01-16,1,,,,,フォーライフ,0
2772,9130001073494,新規,0,2023-01-16,2023-01-16,株式会社エーアンドティプラン,,株式会社,京都府,京都市北区,紫野雲林院町１７オークプレイス京都北大路２１６,,26,101,6038214,,,,,,,2023-01-16,1,,,,,エーアンドティプラン,0
2774,9130003008432,新規,0,2023-01-16,2023-01-16,合同会社おおしま,,合同会社,京都府,福知山市,字川北７６９,,26,201,6200004,,,,,,,2023-01-16,1,,,,,オオシマ,0
2775,9130005016672,新規,0,2023-01-16,2023-01-16,医療法人たぎ内科医院,,その他の設立登記法人,京都府,福知山市,上篠尾９３０番地４,,26,201,6200000,,,,,,,2023-01-16,1,,,,,タギナイカイイン,0
2782,9140001128677,新規,0,2023-01-16,2023-01-16,株式会社フクハラ,,株式会社,兵庫県,神崎郡市川町,西田中５１４番地の１６,,28,442,6792313,,,,,,,2023-01-16,1,,,,,フクハラ,0
2783,9140001128719,新規,0,2023-01-16,2023-01-16,グロススピット株式会社,,株式会社,兵庫県,神戸市北区,ひよどり台南町３丁目３番地の４,,28,109,6511125,,,,,,,2023-01-16,1,,,,,グロススピット,0
2784,9140001128727,新規,0,2023-01-16,2023-01-16,株式会社サンコウ,,株式会社,兵庫県,宝塚市,雲雀丘１丁目１０番２４号,,28,214,6650805,,,,,,,2023-01-16,1,,,,,サンコウ,0
2785,9140001128735,新規,0,2023-01-16,2023-01-16,株式会社キジマヒロツグオフィス,,株式会社,兵庫県,神戸市中央区,八幡通４丁目２番１２号カサベラＦＲＩＩビル１０Ｆ,00129070,28,110,6510085,,,,,,,2023-01-16,1,,,,,キジマヒロツグオフィス,0
2790,9140003018579,新規,0,2023-01-16,2023-01-16,Ａ　ＡＮＤ　Ｅ　ＴＲＡＤＩＮＧ合同会社,,合同会社,兵庫県,加古川市,別府町新野辺３１７８番地,,28,210,6750131,,,,,,,2023-01-16,1,,,,,エーアンドイートレーディング,0
2791,9140003018587,新規,0,2023-01-16,2023-01-16,合同会社ａｘｉｏｍｓ,,合同会社,兵庫県,西宮市,屋敷町２１番３号,,28,204,6620963,,,,,,,2023-01-16,1,,,,,アクシアムズ,0
2793,9150001026062,新規,0,2023-01-16,2023-01-16,株式会社玉置林業,,株式会社,奈良県,五條市,近内町１４２０番地の３,,29,207,6370016,,,,,,,2023-01-16,1,,,,,タマキリンギョウ,0
2796,9170005006991,新規,0,2023-01-16,2023-01-16,一般社団法人わかやま地域おこし協力隊ネットワーク,,その他の設立登記法人,和歌山県,日高郡美浜町,大字和田１８３６番地の５,,30,381,6440044,,,,,,,2023-01-16,1,,,,,ワカヤマチイキオコシキョウリョクタイネットワーク,0
2801,9180001154595,新規,0,2023-01-16,2023-01-16,株式会社ケーアイ防災システム,,株式会社,愛知県,愛西市,町方町十二城１４７番地５,,23,232,4968014,,,,,,,2023-01-16,1,,,,,ケーアイボウサイシステム,0
2806,9180301037021,新規,0,2023-01-16,2023-01-16,株式会社岩い組,,株式会社,愛知県,豊田市,横山町４丁目２５番地,,23,211,4710068,,,,,,,2023-01-16,1,,,,,イワイグミ,0
2815,9200001040867,新規,0,2023-01-16,2023-01-16,株式会社リラーフホーム,,株式会社,岐阜県,関市,西本郷通６丁目４番１３号,,21,205,5013803,,,,,,,2023-01-16,1,,,,,リラーフホーム,0
2825,9220001025230,新規,0,2023-01-16,2023-01-16,株式会社サウザンド・サニー,,株式会社,石川県,金沢市,高畠１丁目３３５番地（高野ビル・１０１号）,,17,201,9218001,,,,,,,2023-01-16,1,,,,,サウザンドサニー,0
2841,9250001019923,新規,0,2023-01-16,2023-01-16,株式会社Ｒｉｓｕｓ,,株式会社,山口県,下関市,長府黒門東町１０番７号,,35,201,7520986,,,,,,,2023-01-16,1,,,,,リーゾス,0
2843,9250003003207,新規,0,2023-01-16,2023-01-16,合同会社サーベイ,,合同会社,山口県,下関市,細江新町３番４５号,,35,201,7500017,,,,,,,2023-01-16,1,,,,,サーベイ,0
2857,9260003004154,新規,0,2023-01-16,2023-01-16,合同会社Ｍａｈａｌｏ,,合同会社,岡山県,岡山市北区,西辛川４９５番地１北棟,,33,101,7011213,,,,,,,2023-01-16,1,,,,,マハロ,0
2872,9290003013400,新規,0,2023-01-16,2023-01-16,合同会社ＹＴＲ４,,合同会社,福岡県,福岡市博多区,上川端町１０番２５５号ロイズ博多４０２号,,40,132,8120026,,,,,,,2023-01-16,1,,,,,ワイティーアールフォー,0
2873,9290801029218,新規,0,2023-01-16,2023-01-16,株式会社ＭＭＲ,,株式会社,福岡県,北九州市小倉北区,宇佐町１丁目３番４７号中津口トクシンビル５０１,,40,106,8020016,,,,,,,2023-01-16,1,,,,,エムエムアール,0
2875,9300001013193,新規,0,2023-01-16,2023-01-16,株式会社ＭＴＳ,,株式会社,佐賀県,三養基郡上峰町,大字坊所３１６２番地３,,41,345,8490123,,,,,,,2023-01-16,1,,,,,エムティーエス,0
2881,9320003003991,新規,0,2023-01-16,2023-01-16,合同会社宇佐技工研究所,,合同会社,大分県,宇佐市,大字東高家１５９番地,,44,211,8790309,,,,,,,2023-01-16,1,,,,,ウサギコウケンキュウジョ,0
2882,9320005010045,新規,0,2023-01-16,2023-01-16,一般社団法人日出町タクシー協会,,その他の設立登記法人,大分県,速見郡日出町,２９８１番地１,,44,341,8791506,,,,,,,2023-01-16,1,,,,,ヒジマチタクシーキョウカイ,0
2887,9340001025301,新規,0,2023-01-16,2023-01-16,株式会社ＢＩＧＭＯＵＴＨ,,株式会社,鹿児島県,鹿児島市,城西１丁目４番２３号,,46,201,8900041,,,,,,,2023-01-16,1,,,,,ビッグマウス,0
2890,9340003004022,新規,0,2023-01-16,2023-01-16,合同会社ＹＫコンサル,,合同会社,鹿児島県,鹿児島市,照国町１２番７‐１００３号,,46,201,8920841,,,,,,,2023-01-16,1,,,,,ワイケイコンサル,0
2891,9350001018114,新規,0,2023-01-16,2023-01-16,株式会社畜産設備,,株式会社,宮崎県,都城市,高崎町前田２４９５番地,,45,202,8894506,,,,,,,2023-01-16,1,,,,,チクサンセツビ,0
2893,9350005006131,新規,0,2023-01-16,2023-01-16,社会保険労務士法人轟事務所,,その他の設立登記法人,宮崎県,日向市,亀崎２丁目１２３番地,,45,206,8830066,,,,,,,2023-01-16,1,,,,,トドロキジムショ,0
2894,9360001031446,新規,0,2023-01-16,2023-01-16,株式会社玉興業,,株式会社,沖縄県,石垣市,字石垣４６５番地２,,47,207,9070023,,,,,,,2023-01-16,1,,,,,タマコウギョウ,0
2899,9370001049495,新規,0,2023-01-16,2023-01-16,株式会社ｙｏｈｋ,,株式会社,宮城県,仙台市宮城野区,新田４丁目９番２７号,,04,102,9830038,,,,,,,2023-01-16,1,,,,,ヨーク,0
2901,9380001033408,新規,0,2023-01-16,2023-01-16,株式会社大空と大地,,株式会社,福島県,二本松市,鉄扇町６１５番地３,,07,210,9640008,,,,,,,2023-01-16,1,,,,,オオゾラトダイチ,0
2902,9380003005363,新規,0,2023-01-16,2023-01-16,合同会社Ｍａｓｔ・Ｏｎｅ,,合同会社,福島県,須賀川市,北横田字石の花２０９－６,,07,207,9620313,,,,,,,2023-01-16,1,,,,,マストワン,0
2904,9380005012663,新規,0,2023-01-16,2023-01-16,特定非営利活動法人ふくしまスポーツ＆サポート．ｃｏｍ,,その他の設立登記法人,福島県,福島市,東中央３丁目２３番地,,07,201,9608071,,,,,,,2023-01-16,1,,,,,フクシマスポーツアンドサポートドットコム,0
2906,9400003003018,新規,0,2023-01-16,2023-01-16,合同会社村電興業,,合同会社,岩手県,盛岡市,玉山字姥前２４番地,,03,201,0200202,,,,,,,2023-01-16,1,,,,,ムラデンコウギョウ,0
2911,9430001088198,新規,0,2023-01-16,2023-01-16,株式会社札幌メディカル,,株式会社,北海道,札幌市北区,北十四条西３丁目１番２５号,,01,102,0010014,,,,,,,2023-01-16,1,,,,,サッポロメディカル,0
2912,9430001088223,新規,0,2023-01-16,2023-01-16,株式会社ＮＯＫＯＮＯＫＯ,,株式会社,北海道,札幌市中央区,南十六条西１２丁目３番２０号,,01,101,0640916,,,,,,,2023-01-16,1,,,,,ノコノコ,0
2914,9430003014631,新規,0,2023-01-16,2023-01-16,風間英語教室合同会社,,合同会社,北海道,札幌市中央区,南二条東２丁目１６番地,,01,101,0600052,,,,,,,2023-01-16,1,,,,,カザマエイゴキョウシツ,0
2915,9430003014648,新規,0,2023-01-16,2023-01-16,合同会社りんく,,合同会社,北海道,札幌市北区,新琴似三条３丁目７番１６号,,01,102,0010903,,,,,,,2023-01-16,1,,,,,リンク,0
2917,9500003002950,新規,0,2023-01-16,2023-01-16,合同会社松田製陶所,,合同会社,愛媛県,伊予郡砥部町,岩谷口２３７番地３,,38,402,7912141,,,,,,,2023-01-16,1,,,,,マツダセイトウショ,0
2919,9700150113745,新規,0,2023-01-16,2023-01-16,Ｓｈｅｎ　Ｚｈｅｎ　Ｚｈｅｎｇ　Ｑｉ　Ｉｎｆｏｒｍａｔｉｏｎ　Ｔｅｃｈｎｏｌｏｇｙ　Ｃｏ．，Ｌｔｄ．,,外国会社等,,,,,,,,Ｈｏｎｇ　Ｄａ　Ｄａ　Ｓｈａ　２０１－２０８，Ｂａｎ　Ｔｉａｎ　Ｊｉｅ　Ｄａｏ，Ｍａ　Ａｎ　Ｔａｎｇ　Ｓｈｅ　Ｑｕ，Ｚｈｏｎｇ　Ｘｉｎｇ　Ｌｕ　１４３　Ｈａｏ，ｓｈｅｎｚｈｅｎ，Ｃｈｉｎａ,,,,,,2023-01-16,1,,,,,シンセンゼンーチイインフォメーションテクノロジーカンパニーリミテッド,0
2920,9700150113753,新規,0,2023-01-16,2023-01-16,ｅｎｓｈｉｓｈｉｘｉｅｈｕａｎｇｓｈａｎｇｍａｏｙｏｕｘｉａｎｇｏｎｇｓｉ,,外国会社等,,,,,,,,ｈｕｂｅｉｓｈｅｎｇ，ｅｎｓｈｉｓｈｉ，ｂａｉｙａｎｇｐｉｎｇｘｉａｎｇ９５ｈａｏ，ｃｈｉｎａ,,,,,,2023-01-16,1,,,,,オンシシカイコウショウボウユウゲンコウシ,0
2921,9700150113761,新規,0,2023-01-16,2023-01-16,ｓｈｅｎ　ｚｈｅｎ　ｓｈｉ　ｄｕｎ　ｄａ　ｋｅ　ｊｉ　ｙｏｕ　ｘｉａｎ　ｇｏｎｇ　ｓｉ,,外国会社等,,,,,,,,ｌｏｎｇ　ｃｈｅｎｇ　ｊｉｅ　ｄａｏ　ｚｈａｎｇ　ｂｅｉ　ｈａｏ　ｘｉａｎ　ｌｕ　２　ｈａｏ　ｃｈａｎｇ　ｆａｎｇ　３０１，ｌｏｎｇ　ｇａｎｇ　ｑｕ，ｓｈｅｎ　ｚｈｅｎ　ｓｈｉ，ｇｕａｎｇ　ｄｏｎｇ　ｓｈｅｎｇ，Ｃｈｉｎａ　５１８０００,,,,,,2023-01-16,1,,,,,シンセンシトンタツカギユウゲンコウシ,0
