sequenceNumber,corporateNumber,process,correct,updateDate,changeDate,name,nameImageId,kind,prefectureName,cityName,streetNumber,addressImageId,prefectureCode,cityCode,postCode,addressOutside,addressOutsideImageId,closeDate,closeCause,successorCorporateNumber,changeCause,assignmentDate,latest,enName,enPrefectureName,enCityName,enAddressOutside,furigana,hihyoji
19,1010003034605,登記記録の閉鎖等,0,2022-08-31,2022-08-26,由利本荘みらいエネルギー合同会社,,合同会社,東京都,中央区,日本橋２丁目５番１号,,13,102,1030027,,,2022-08-26,清算の結了等,,,2021-04-07,1,,,,,ユリホンジョウミライエネルギー,0
34,1010405017926,登記記録の閉鎖等,0,2022-08-31,2022-08-12,一般社団法人インタラクティブソリューションクリエイターズ協会,,その他の設立登記法人,東京都,港区,南青山５丁目１７番２号,,13,103,1070062,,,2022-08-12,清算の結了等,,,2019-08-14,1,,,,,インタラクティブソリューションクリエイターズキョウカイ,0
72,1011002027707,登記記録の閉鎖等,0,2022-08-31,2022-08-24,有限会社タイムマシン,,有限会社,千葉県,大網白里市,みずほ台２丁目１５－２７,,12,239,2993234,,,2022-08-24,清算の結了等,,,2015-10-05,1,,,,,タイムマシン,0
74,1011003005356,登記記録の閉鎖等,0,2022-08-31,2022-08-12,鶴見総研合同会社,,合同会社,東京都,渋谷区,恵比寿２丁目２８番１０号ＳｈｕＢＬＤＧ２６７４,,13,113,1500013,,,2022-08-12,清算の結了等,,,2015-10-05,1,,,,,ツルミソウケン,0
86,1011601007588,登記記録の閉鎖等,0,2022-08-31,2022-08-29,株式会社エー・シー・エス,,株式会社,東京都,練馬区,高松５丁目８番２０号,,13,120,1790075,,,2022-08-29,清算の結了等,,,2015-10-05,1,,,,,エーシーエス,0
90,1011801032650,登記記録の閉鎖等,0,2022-08-31,2022-08-12,ジョアドボーテ株式会社,,株式会社,東京都,港区,北青山３丁目５番１７号,,13,103,1070061,,,2022-08-12,清算の結了等,,,2016-12-14,1,,,,,ジョアドボーテ,0
103,1020002077117,登記記録の閉鎖等,0,2022-08-31,2022-08-29,有限会社ヴァランス,,有限会社,神奈川県,横浜市保土ケ谷区,東川島町７０番地３ホームズ２０－３３号,,14,106,2400041,,,2022-08-29,清算の結了等,,,2015-10-05,1,,,,,ヴァランス,0
118,1030002073404,登記記録の閉鎖等,0,2022-08-31,2022-08-22,有限会社斎藤商店,,有限会社,埼玉県,川越市,大字下新河岸４４番地,,11,201,3501136,,,2022-08-22,清算の結了等,,,2015-10-05,1,,,,,サイトウショウテン,0
140,1050005008017,登記記録の閉鎖等,0,2022-08-31,2022-08-22,特定非営利活動法人あすなろ福祉市民の会,,その他の設立登記法人,茨城県,龍ケ崎市,佐貫町７５１番地７,,08,208,3010033,,,2022-08-22,清算の結了等,,,2015-10-05,1,,,,,アスナロフクシシミンノカイ,0
145,1070001014132,登記記録の閉鎖等,0,2022-08-31,2022-08-24,長瀬縫製株式会社,,株式会社,群馬県,伊勢崎市,境女塚１６２番地,,10,204,3700121,,,2022-08-24,清算の結了等,,,2015-10-05,1,,,,,ナガセホウセイ,0
147,1080005005440,登記記録の閉鎖等,0,2022-08-31,2022-08-23,職業訓練法人焼津市建築技能訓練協会,,その他の設立登記法人,静岡県,焼津市,東小川７丁目６番地の１１,,22,212,4250035,,,2022-08-23,清算の結了等,,,2015-10-05,1,,,,,ヤイヅシケンチクギノウクンレンキョウカイ,0
150,1100001024516,登記記録の閉鎖等,0,2022-08-31,2022-08-25,株式会社ＫＵＮＩ板金,,株式会社,長野県,茅野市,湖東８１６３番地７,,20,214,3910211,,,2022-08-25,清算の結了等,,,2015-10-05,1,,,,,クニバンキン,0
154,1110002002750,登記記録の閉鎖等,0,2022-08-31,2022-08-26,有限会社佐久間直樹デザイン事務所,,有限会社,新潟県,新潟市西区,寺尾西１丁目１番４３号,,15,107,9502064,,,2022-08-26,清算の結了等,,,2015-10-05,1,,,,,サクマナオキデザインジムショ,0
159,1120001136359,登記記録の閉鎖等,0,2022-08-31,2022-08-29,株式会社典礼,,株式会社,大阪府,南河内郡河南町,大字神山４９１番地の４０,,27,382,5850034,,,2022-08-29,清算の結了等,,,2015-10-05,1,,,,,テンレイ,0
160,1120001139254,登記記録の閉鎖等,0,2022-08-31,2022-08-30,ニュートラリーノジェネレータ株式会社,,株式会社,大阪府,大阪市北区,西天満６丁目４－８－６０１,,27,127,5300047,,,2022-08-30,清算の結了等,,,2015-10-05,1,,,,,ニュートラリーノジェネレータ,0
173,1122001030260,登記記録の閉鎖等,0,2022-08-31,2022-08-23,株式会社ケーブレイジング,,株式会社,大阪府,東大阪市,川俣１丁目１５番２１号,,27,227,5770063,,,2022-08-23,合併による解散等,3122001009229,令和４年８月２３日大阪府東大阪市高井田１６番８号株式会社ハタメタルワークス（3122001009229）に合併し解散,2017-01-18,1,,,,,ケーブレイジング,0
181,1130001025024,登記記録の閉鎖等,0,2022-08-31,2022-08-24,スキューズ株式会社,,株式会社,京都府,京都市南区,吉祥院新田弐ノ段町１０６,,26,107,6018317,,,2022-08-24,清算の結了等,,,2015-10-05,1,,,,,スキューズ,0
195,1160002009675,登記記録の閉鎖等,0,2022-08-31,2022-08-26,有限会社大勝工務店,,有限会社,滋賀県,東近江市,佐野町６９９番地,,25,213,5211222,,,2022-08-26,清算の結了等,,,2015-10-05,1,,,,,ダイカツコウムテン,0
214,1200002001628,登記記録の閉鎖等,0,2022-08-31,2022-08-29,有限会社ケイエムコーポレーション,,有限会社,岐阜県,岐阜市,南蝉２丁目１２２番地,,21,201,5020852,,,2022-08-29,清算の結了等,,,2015-10-05,1,,,,,ケイエムコーポレーション,0
226,1260001017256,登記記録の閉鎖等,0,2022-08-31,2022-08-29,株式会社共生総研,,株式会社,岡山県,倉敷市,老松町３丁目１４番３３－１２０３号,,33,202,7100826,,,2022-08-29,清算の結了等,,,2015-10-05,1,,,,,キョウセイソウケン,0
249,1420005000217,登記記録の閉鎖等,0,2022-08-31,2022-08-26,青森県日専連協同組合連合会,,その他の設立登記法人,青森県,青森市,長島２丁目１８番６号,,02,201,0300861,,,2022-08-26,清算の結了等,,,2015-10-05,1,,,,,アオモリケンニッセンレン,0
255,1430002012536,登記記録の閉鎖等,0,2022-08-31,2022-08-23,有限会社タナカルチャー,,有限会社,北海道,札幌市北区,北四十条西５丁目５番２５号,,01,102,0010040,,,2022-08-23,清算の結了等,,,2015-10-05,1,,,,,タナカルチャー,0
256,1430002014169,登記記録の閉鎖等,0,2022-08-31,2022-08-24,トレードプロ有限会社,,有限会社,北海道,札幌市南区,澄川五条１２丁目３番１６号,,01,106,0050005,,,2022-08-24,清算の結了等,,,2015-10-05,1,,,,,トレードプロ,0
259,1440002008814,登記記録の閉鎖等,0,2022-08-31,2022-08-26,有限会社桜野牧場,,有限会社,北海道,二海郡八雲町,桜野２００番地の２,,01,346,0492675,,,2022-08-26,清算の結了等,,,2015-10-05,1,,,,,サクラノボクジョウ,0
261,1460102005973,登記記録の閉鎖等,0,2022-08-31,2022-08-26,有限会社北海営林,,有限会社,北海道,上川郡新得町,西一条南２丁目９番地１,,01,635,0810031,,,2022-08-26,清算の結了等,,,2015-10-05,1,,,,,ホッカイエイリン,0
279,2010001181704,登記記録の閉鎖等,0,2022-08-31,2022-08-25,株式会社サードキャピタル,,株式会社,東京都,中央区,日本橋茅場町３丁目２番２号ＥＫＫビル,,13,102,1030025,,,2022-08-25,清算の結了等,,,2017-02-23,1,,,,,,0
288,2010003029265,登記記録の閉鎖等,0,2022-08-31,2022-08-26,合同会社ＡＬＥＲＯ４０,,合同会社,東京都,千代田区,神田美土代町９番１号,,13,101,1010053,,,2022-08-26,清算の結了等,,,2019-02-13,1,,,,,アレーロフォーティー,0
290,2010401020726,登記記録の閉鎖等,0,2022-08-31,2022-08-08,株式会社ＰＴＭＬ,,株式会社,東京都,港区,芝公園４丁目２番８号,,13,103,1050011,,,2022-08-08,合併による解散等,8010401071078,令和４年６月３０日東京都港区芝公園四丁目２番８号Ｓｏｍｅｒｉｇｈｔｓ株式会社（8010401071078）に合併し解散,2015-10-05,1,,,,,ピーティーエムエル,0
301,2010601037628,登記記録の閉鎖等,0,2022-08-31,2022-08-29,株式会社ティージェイトレーディング,,株式会社,東京都,墨田区,文花１丁目３４番２２号,,13,107,1310044,,,2022-08-29,清算の結了等,,,2015-10-05,1,,,,,ティージェイトレーディング,0
308,2010802020242,登記記録の閉鎖等,0,2022-08-31,2022-08-25,有限会社振栄,,有限会社,東京都,大田区,東雪谷１丁目２０番８号,,13,111,1450065,,,2022-08-25,清算の結了等,,,2015-10-05,1,,,,,シンエイ,0
312,2010901014062,登記記録の閉鎖等,0,2022-08-31,2022-08-26,株式会社ウェル,,株式会社,東京都,世田谷区,船橋４丁目３８番１号,,13,112,1560055,,,2022-08-26,清算の結了等,,,2015-10-05,1,,,,,ウェル,0
332,2011501017827,登記記録の閉鎖等,0,2022-08-31,2022-08-26,株式会社Ｃｌｏｕｄ　Ｃａｒｒｙ,,株式会社,東京都,品川区,大井１丁目６－３アゴラ大井町ビル３階,,13,109,1400014,,,2022-08-26,清算の結了等,,,2015-10-05,1,,,,,クラウドキャリー,0
341,2012401037007,登記記録の閉鎖等,0,2022-08-31,2022-08-30,株式会社スタートアップ,,株式会社,東京都,武蔵野市,吉祥寺南町２丁目１０番６号ジョージパーク布袋堂４０６号室,,13,203,1800003,,,2022-08-30,清算の結了等,,,2020-09-25,1,,,,,スタートアップ,0
345,2012801017995,登記記録の閉鎖等,0,2022-08-31,2022-08-01,株式会社モーフィング,,株式会社,東京都,渋谷区,元代々木町２２－７村世界１Ｆ,,13,113,1510062,,,2022-08-01,合併による解散等,1012401024006,令和４年７月３１日東京都渋谷区元代々木町２２－７村世界１Ｆ世界株式会社（1012401024006）に合併し解散,2017-05-10,1,,,,,モーフィング,0
349,2013301031330,登記記録の閉鎖等,0,2022-08-31,2022-08-29,タビタビ株式会社,,株式会社,東京都,新宿区,百人町１丁目１５－２９パティオ新宿４０２号室,,13,104,1690073,,,2022-08-29,清算の結了等,,,2015-10-05,1,,,,,タビタビ,0
364,2020005001824,登記記録の閉鎖等,0,2022-08-31,2022-08-29,医療法人社団天道会,,その他の設立登記法人,神奈川県,横浜市戸塚区,品濃町５３５番地２中央街区Ｄ棟２６０７号,,14,110,2440801,,,2022-08-29,清算の結了等,,,2015-10-05,1,,,,,テンドウカイ,0
369,2021002045434,登記記録の閉鎖等,0,2022-08-31,2022-08-26,有限会社日進システム,,有限会社,神奈川県,海老名市,門沢橋６丁目９番３２号,,14,215,2430426,,,2022-08-26,合併による解散等,9021001027047,令和４年８月２３日神奈川県海老名市門沢橋六丁目９番３２号日進工業株式会社（9021001027047）に合併し解散,2015-10-05,1,,,,,ニッシンシステム,0
375,2030001139477,登記記録の閉鎖等,0,2022-08-31,2022-08-22,株式会社団居,,株式会社,埼玉県,川越市,菅原町７番地３４,,11,201,3500046,,,2022-08-22,清算の結了等,,,2020-11-30,1,,,,,マドイ,0
382,2040002091040,登記記録の閉鎖等,0,2022-08-31,2022-08-24,有限会社丹羽空調,,有限会社,千葉県,柏市,豊住１丁目２番２２号,,12,217,2770071,,,2022-08-24,清算の結了等,,,2015-10-05,1,,,,,ニワクウチョウ,0
383,2040002094976,登記記録の閉鎖等,0,2022-08-31,2022-08-24,有限会社エムケーアセット,,有限会社,千葉県,柏市,弥生町２番４号,,12,217,2770015,,,2022-08-24,清算の結了等,,,2015-10-05,1,,,,,エムケーアセット,0
393,2080101007158,登記記録の閉鎖等,0,2022-08-31,2022-08-29,株式会社グリーン・ベル,,株式会社,静岡県,沼津市,双葉町９番１１－１３号,,22,203,4100005,,,2022-08-29,清算の結了等,,,2015-10-05,1,,,,,グリーンベル,0
404,2110002014092,登記記録の閉鎖等,0,2022-08-31,2022-08-26,フジタ有限会社,,有限会社,新潟県,五泉市,村松甲１７６３番地１,,15,218,9591704,,,2022-08-26,清算の結了等,,,2015-10-05,1,,,,,フジタ,0
467,2220002000296,登記記録の閉鎖等,0,2022-08-31,2022-08-29,有限会社ＩＭＫ,,有限会社,石川県,野々市市,二日市２丁目１４番地,,17,212,9218809,,,2022-08-29,清算の結了等,,,2015-10-05,1,,,,,アイエムケイ,0
472,2230002008108,登記記録の閉鎖等,0,2022-08-31,2022-08-29,有限会社栃林鉄筋工業,,有限会社,富山県,黒部市,若栗１８８５番地,,16,207,9380802,,,2022-08-29,清算の結了等,,,2015-10-05,1,,,,,トチバヤシテッキンコウギョウ,0
478,2250002013519,登記記録の閉鎖等,0,2022-08-31,2022-08-26,有限会社山廣,00002735,有限会社,山口県,萩市,大字土原３２５番地の４,,35,204,7580025,,,2022-08-26,清算の結了等,,,2015-10-05,1,,,,,ヤマヒロ,0
482,2290001021080,登記記録の閉鎖等,0,2022-08-31,2022-08-26,株式会社エーディーエム福岡,,株式会社,福岡県,八女市,上陽町下横山４８９５番地１２,,40,210,8341104,,,2022-08-26,清算の結了等,,,2015-10-05,1,,,,,エーディーエムフクオカ,0
537,3010005031045,登記記録の閉鎖等,0,2022-08-31,2022-08-25,一般社団法人ロッキーゲートエイト,,その他の設立登記法人,東京都,中央区,日本橋１丁目４番１号,,13,102,1030027,,,2022-08-25,清算の結了等,,,2019-11-13,1,,,,,ロッキーゲートエイト,0
538,3010005031359,登記記録の閉鎖等,0,2022-08-31,2022-08-25,一般社団法人オフショア養殖推進会,,その他の設立登記法人,東京都,中央区,東日本橋２丁目１２番４号,,13,102,1030004,,,2022-08-25,清算の結了等,,,2020-01-30,1,,,,,オフショアヨウショクスイシンカイ,0
569,3010802005143,登記記録の閉鎖等,0,2022-08-31,2022-08-25,有限会社光翔精密,,有限会社,東京都,大田区,大森南２丁目４番２７号,,13,111,1430013,,,2022-08-25,清算の結了等,,,2015-10-05,1,,,,,,0
572,3010901004855,登記記録の閉鎖等,0,2022-08-31,2022-08-26,株式会社三方企画設計,,株式会社,東京都,世田谷区,深沢５丁目１９番８号３０２,,13,112,1580081,,,2022-08-26,清算の結了等,,,2015-10-05,1,,,,,ミホキカクセッケイ,0
592,3011305000391,登記記録の閉鎖等,0,2022-08-31,2022-08-03,天理教久我山分教会,,その他の設立登記法人,東京都,杉並区,久我山３丁目１番１５号,,13,115,1680082,,,2022-08-03,合併による解散等,1010905000357,令和４年７月２８日東京都世田谷区南烏山二丁目３２番１号天理教千山分教会（1010905000357）に合併し解散,2015-10-05,1,,,,,テンリキョウクガヤマブンキョウカイ,0
654,3120001228410,登記記録の閉鎖等,0,2022-08-31,2022-08-29,株式会社Ｎ－ａｔ,,株式会社,大阪府,大阪市淀川区,西中島３丁目５番９号西中島ＮＴビル５階,,27,123,5320011,,,2022-08-29,清算の結了等,,,2020-04-13,1,,,,,エヌアット,0
666,3120901041838,登記記録の閉鎖等,0,2022-08-31,2022-08-29,株式会社三洋工作所,,株式会社,大阪府,摂津市,鳥飼本町５丁目１３番４号,,27,224,5660052,,,2022-08-29,清算の結了等,,,2019-10-04,1,,,,,サンヨウコウサクショ,0
706,3180302008919,登記記録の閉鎖等,0,2022-08-31,2022-08-26,有限会社ナカザワ電気,,有限会社,愛知県,豊橋市,東幸町字大山１７３番地,,23,201,4400843,,,2022-08-26,清算の結了等,,,2015-10-05,1,,,,,ナカザワデンキ,0
713,3220002013603,登記記録の閉鎖等,0,2022-08-31,2022-08-29,有限会社めんそーれやまぐち,,有限会社,石川県,金沢市,無量寺４丁目６７番地,,17,201,9200333,,,2022-08-29,清算の結了等,,,2015-10-05,1,,,,,メンソーレヤマグチ,0
716,3230001013702,登記記録の閉鎖等,0,2022-08-31,2022-08-29,シーエルネットプランニング２株式会社,,株式会社,石川県,金沢市,西泉２丁目８３番地,,17,201,9218043,,,2022-08-29,合併による解散等,7220001006455,令和４年８月２９日石川県金沢市西泉二丁目８３番地株式会社フジカラー北陸（7220001006455）に合併し解散,2015-10-05,1,,,,,シーエルネットプランニングツー,0
720,3240005010356,登記記録の閉鎖等,0,2022-08-31,2022-07-29,奥山神社,,その他の設立登記法人,広島県,竹原市,東野町字奥在屋山５２１番地,,34,203,7250004,,,2022-07-29,合併による解散等,4240005010363,令和４年７月２９日広島県竹原市東野町字中条１４８３番地賀茂神社（4240005010363）に合併し解散,2015-10-05,1,,,,,オクヤマジンジャ,0
741,3350002007055,登記記録の閉鎖等,0,2022-08-31,2022-08-29,有限会社川越防災,,有限会社,宮崎県,東諸県郡国富町,大字本庄４５１７番地６,,45,382,8801101,,,2022-08-29,清算の結了等,,,2015-10-05,1,,,,,カワゴエボウサイ,0
756,3430001058347,登記記録の閉鎖等,0,2022-08-31,2022-08-22,株式会社エイペックスリゾートオキナワ,,株式会社,北海道,恵庭市,福住町２丁目７番８,,01,231,0611447,,,2022-08-22,清算の結了等,,,2015-10-05,1,,,,,エイペックスリゾートオキナワ,0
758,3430002002675,登記記録の閉鎖等,0,2022-08-31,2022-08-24,有限会社エース,,有限会社,東京都,大田区,東海３丁目２番１号大田市場事務棟２階東海渡井クリニック内,,13,111,1430001,,,2022-08-24,清算の結了等,,,2015-10-05,1,,,,,エース,0
775,4010001223355,登記記録の閉鎖等,0,2022-08-31,2022-08-25,株式会社ＷＯＲＬＤ　ＭＡＲＫＥＴ,,株式会社,東京都,中央区,銀座１丁目１２番４号Ｎ＆ＥＢＬＤ．７階,,13,102,1040061,,,2022-08-25,清算の結了等,,,2021-12-20,1,,,,,ワールドマーケット,0
786,4010401105797,登記記録の閉鎖等,0,2022-08-31,2022-08-25,株式会社ＫＨホールディングス,,株式会社,東京都,中央区,日本橋茅場町３丁目２番２号ＥＫＫビル,,13,102,1030025,,,2022-08-25,清算の結了等,,,2015-10-05,1,,,,,,0
788,4010401148375,登記記録の閉鎖等,0,2022-08-31,2022-08-12,シープル株式会社,,株式会社,東京都,港区,北青山３丁目５番１７号,,13,103,1070061,,,2022-08-12,清算の結了等,,,2019-10-08,1,,,,,シープル,0
804,4010801009482,登記記録の閉鎖等,0,2022-08-31,2022-08-24,株式会社二和製作所,,株式会社,東京都,大田区,大森南３丁目１１番１５号,,13,111,1430013,,,2022-08-24,清算の結了等,,,2015-10-05,1,,,,,,0
813,4011001099967,登記記録の閉鎖等,0,2022-08-31,2022-08-09,株式会社Ｓｔｕｄｉｏ　Ｓｈａｍａｎｉｋａ,,株式会社,東京都,目黒区,中目黒１丁目８番８号パリエンテ１０１,,13,110,1530061,,,2022-08-09,合併による解散等,1011001114035,令和４年５月１日東京都目黒区中目黒一丁目８番８号パリエンテ１０１株式会社ラムー（1011001114035）に合併し解散,2015-10-05,1,,,,,スタジオシャーマニカ,0
829,4011302000583,登記記録の閉鎖等,0,2022-08-31,2022-08-25,有限会社アフェクト,,有限会社,東京都,杉並区,下高井戸１丁目３４番１０号アサガ第一ビル２０１号,,13,115,1680073,,,2022-08-25,清算の結了等,,,2015-10-05,1,,,,,アフェクト,0
830,4011401000699,登記記録の閉鎖等,0,2022-08-31,2022-08-01,岩瀬精機株式会社,,株式会社,東京都,板橋区,蓮沼町８２番２号,00054641,13,119,1740052,,,2022-08-01,合併による解散等,4011401003149,令和４年８月１日東京都板橋区蓮沼町８２番２号昭和電器株式会社（4011401003149）に合併し解散,2015-10-05,1,,,,,イワセセイキ,0
832,4011401022719,登記記録の閉鎖等,0,2022-08-31,2022-08-29,株式会社剣,,株式会社,東京都,板橋区,仲宿３６番１号,,13,119,1730005,,,2022-08-29,清算の結了等,,,2020-08-06,1,,,,,,0
833,4011501003131,登記記録の閉鎖等,0,2022-08-31,2022-08-25,株式会社東京ホーム,,株式会社,東京都,北区,東十条１丁目９番９号,,13,117,1140001,,,2022-08-25,清算の結了等,,,2015-10-05,1,,,,,トウキョウホーム,0
862,4020001087857,登記記録の閉鎖等,0,2022-08-31,2022-08-29,ＫＯＫＵＡＰＬＡＮ株式会社,,株式会社,神奈川県,横浜市青葉区,寺家町８－１,,14,117,2270031,,,2022-08-29,清算の結了等,,,2015-10-05,1,,,,,,0
868,4021001017556,登記記録の閉鎖等,0,2022-08-31,2022-08-29,橋本電設株式会社,,株式会社,神奈川県,相模原市中央区,弥栄１丁目１番１３号,,14,152,2520229,,,2022-08-29,清算の結了等,,,2015-10-05,1,,,,,ハシモトデンセツ,0
870,4021002044871,登記記録の閉鎖等,0,2022-08-31,2022-08-26,有限会社辛島,,有限会社,神奈川県,海老名市,門沢橋６丁目９番３２号,,14,215,2430426,,,2022-08-26,合併による解散等,9021001027047,令和４年８月２６日神奈川県海老名市門沢橋六丁目９番３２号日進工業株式会社（9021001027047）に合併し解散,2015-10-05,1,,,,,カラシマ,0
873,4030001130104,登記記録の閉鎖等,0,2022-08-31,2022-08-22,株式会社エンジェス,,株式会社,埼玉県,越谷市,千間台東２丁目２１番地３,,11,222,3430042,,,2022-08-22,清算の結了等,,,2019-03-28,1,,,,,エンジェス,0
891,4080403003662,登記記録の閉鎖等,0,2022-08-31,2022-08-25,合同会社ＡｗａｔｔＯ,,合同会社,静岡県,浜松市西区,西山町２１５４番地の８,,22,133,4328001,,,2022-08-25,清算の結了等,,,2018-05-24,1,,,,,アワット,0
894,4100001025453,登記記録の閉鎖等,0,2022-08-31,2022-08-29,株式会社小泉商事,,株式会社,長野県,松本市,大字寿白瀬渕２１４２番地６９,,20,202,3990012,,,2022-08-29,清算の結了等,,,2015-10-05,1,,,,,コイズミショウジ,0
900,4120001141488,登記記録の閉鎖等,0,2022-08-31,2022-08-29,株式会社吉田設備設計,,株式会社,大阪府,大阪市淀川区,西中島３丁目５番９号西中島ＮＴビル５階,,27,123,5320011,,,2022-08-29,清算の結了等,,,2015-10-05,1,,,,,ヨシダセツビセッケイ,0
909,4120002011938,登記記録の閉鎖等,0,2022-08-31,2022-08-30,有限会社福田製作所,,有限会社,大阪府,大阪市平野区,長吉川辺１丁目北１番１９号,,27,126,5470014,,,2022-08-30,清算の結了等,,,2015-10-05,1,,,,,フクダセイサクショ,0
915,4120002073177,登記記録の閉鎖等,0,2022-08-31,2022-08-29,有限会社峯印刷,,有限会社,大阪府,寝屋川市,木屋町５番５号,,27,215,5720087,,,2022-08-29,清算の結了等,,,2015-10-05,1,,,,,ミネインサツ,0
927,4130001045812,登記記録の閉鎖等,0,2022-08-31,2022-08-26,株式会社淀屋,,株式会社,大阪府,羽曳野市,古市４丁目４番１８号,,27,222,5830852,,,2022-08-26,清算の結了等,,,2015-10-05,1,,,,,ヨドヤ,0
945,4180001134866,登記記録の閉鎖等,0,2022-08-31,2022-08-26,医療画像鑑定センター株式会社,,株式会社,愛知県,名古屋市天白区,久方３丁目８６番地,,23,116,4680034,,,2022-08-26,清算の結了等,,,2018-12-21,1,,,,,イリョウガゾウカンテイセンター,0
947,4180005001055,登記記録の閉鎖等,0,2022-08-31,2022-08-03,天理教薫西分教会,,その他の設立登記法人,愛知県,名古屋市西区,栄生３丁目７番２２号,,23,104,4510052,,,2022-08-03,合併による解散等,6180005001045,令和４年８月３日名古屋市西区枇杷島一丁目１７番４号天理教薫分教会（6180005001045）に合併し解散,2015-10-05,1,,,,,テンリキョウカオルニシブンキョウカイ,0
952,4200002008752,登記記録の閉鎖等,0,2022-08-31,2022-08-29,有限会社ケーアイホーム,,有限会社,岐阜県,各務原市,川島緑町５丁目９０番地,,21,213,5016027,,,2022-08-29,清算の結了等,,,2015-10-05,1,,,,,ケーアイホーム,0
967,4290001086709,登記記録の閉鎖等,0,2022-08-31,2022-08-25,株式会社アドユース,,株式会社,福岡県,筑紫野市,湯町２丁目４番６号二日市温泉エクセル１７－１０２左,,40,217,8180058,,,2022-08-25,清算の結了等,,,2019-10-08,1,,,,,アドユース,0
970,4290002053492,登記記録の閉鎖等,0,2022-08-31,2022-08-25,有限会社瀬高自動車鈑金塗装,00093579,有限会社,福岡県,みやま市,瀬高町文廣１５６４番地,,40,229,8350022,,,2022-08-25,清算の結了等,,,2015-10-05,1,,,,,セタカジドウシャバンキントソウ,0
979,4320002003592,登記記録の閉鎖等,0,2022-08-31,2022-08-30,有限会社ＪＵＮシステム工業,,有限会社,大分県,大分市,上宗方南１丁目２番４８号,,44,201,8701167,,,2022-08-30,清算の結了等,,,2015-10-05,1,,,,,ジュンシステムコウギョウ,0
1002,4400003002866,登記記録の閉鎖等,0,2022-08-31,2022-08-29,合同会社風林,,合同会社,岩手県,下閉伊郡田野畑村,七滝２３４番地２,,03,484,0288406,,,2022-08-29,清算の結了等,,,2021-12-02,1,,,,,フウリン,0
1006,4430001048561,登記記録の閉鎖等,0,2022-08-31,2022-08-22,株式会社西川電設,,株式会社,北海道,樺戸郡新十津川町,字中央３１２番地３,,01,432,0731103,,,2022-08-22,清算の結了等,,,2015-10-05,1,,,,,ニシカワデンセツ,0
1018,4470005004111,登記記録の閉鎖等,0,2022-08-31,2022-08-08,天理教香豊分教会,,その他の設立登記法人,香川県,観音寺市,観音寺町字松原甲３３４４番地３,,37,205,7680060,,,2022-08-08,合併による解散等,1470005004080,令和４年８月８日香川県観音寺市観音寺町甲２８３６番地天理教讃岐有明分教会（1470005004080）に合併し解散,2015-10-05,1,,,,,テンリキョウカトヨブンキョウカイ,0
1023,5010001100504,登記記録の閉鎖等,0,2022-08-31,2022-08-25,株式会社ＭＲＳプランニング,,株式会社,東京都,中央区,日本橋兜町８番８号,,13,102,1030026,,,2022-08-25,清算の結了等,,,2015-10-05,1,,,,,,0
1038,5010001194884,登記記録の閉鎖等,0,2022-08-31,2022-08-25,株式会社ＡＩＫホールディングス,,株式会社,東京都,千代田区,岩本町１丁目９番５号ＦＫビル３階,,13,101,1010032,,,2022-08-25,清算の結了等,,,2018-09-25,1,,,,,,0
1046,5010003030848,登記記録の閉鎖等,0,2022-08-31,2022-08-26,合同会社ＡＬＥＲＯ４３,,合同会社,東京都,千代田区,神田美土代町９番１号,,13,101,1010053,,,2022-08-26,清算の結了等,,,2019-10-09,1,,,,,アレーロフォーティースリー,0
1047,5010003037546,登記記録の閉鎖等,0,2022-08-31,2022-08-24,北里星堂医療開発合同会社,,合同会社,東京都,文京区,本郷３丁目２４番９号,,13,105,1130033,,,2022-08-24,清算の結了等,,,2022-04-28,1,,,,,キタサトセイドウイリョウカイハツ,0
1049,5010005010988,登記記録の閉鎖等,0,2022-08-31,2022-08-01,監査法人五大,,その他の設立登記法人,東京都,中央区,日本橋人形町３丁目７番３号,,13,102,1030013,,,2022-08-01,合併による解散等,8010005030042,令和４年８月１日東京都千代田区二番町１２番地１３セブネスビルＳＫＩＰ監査法人（8010005030042）に合併し解散,2015-10-05,1,,,,,ゴダイ,0
1055,5010401082425,登記記録の閉鎖等,0,2022-08-31,2022-08-26,ＴＹＰＥＳＩＸ株式会社,,株式会社,東京都,港区,赤坂２丁目１０番７－７０５号,,13,103,1070052,,,2022-08-26,合併による解散等,7011001110598,令和４年８月１日東京都渋谷区本町一丁目７番１６－１３０６号株式会社ビジネスデザインキャピタル（7011001110598）に合併し解散,2015-10-05,1,,,,,タイプシックス,0
1084,5011003009618,登記記録の閉鎖等,0,2022-08-31,2022-08-10,ＧＯＫＵＩ合同会社,,合同会社,東京都,渋谷区,円山町５番５号Ｎａｖｉ渋谷Ｖ３階,,13,113,1500044,,,2022-08-10,清算の結了等,,,2019-02-01,1,,,,,ゴクイ,0
1119,5020001098770,登記記録の閉鎖等,0,2022-08-31,2022-08-26,株式会社ストーンスープ,,株式会社,神奈川県,横浜市青葉区,市ケ尾町１１５７番地５－３０１号,,14,117,2250024,,,2022-08-26,清算の結了等,,,2015-10-05,1,,,,,ストーンスープ,0
1133,5030001076874,登記記録の閉鎖等,0,2022-08-31,2022-08-19,領家工機株式会社,,株式会社,埼玉県,川口市,東領家３丁目１４番６号,,11,203,3320003,,,2022-08-19,清算の結了等,,,2015-10-05,1,,,,,リョウケコウキ,0
1134,5030001077609,登記記録の閉鎖等,0,2022-08-31,2022-08-23,株式会社山一製作所,,株式会社,埼玉県,川口市,中青木２丁目１６番２３号,,11,203,3320032,,,2022-08-23,清算の結了等,,,2015-10-05,1,,,,,ヤマイチセイサクショ,0
1136,5030001143170,登記記録の閉鎖等,0,2022-08-31,2022-08-18,株式会社アシスト,,株式会社,埼玉県,新座市,野寺４丁目６番１８号２０５号室,,11,230,3520034,,,2022-08-18,清算の結了等,,,2021-07-08,1,,,,,アシスト,0
1140,5040003011465,登記記録の閉鎖等,0,2022-08-31,2022-08-29,タケクリーン合同会社,,合同会社,千葉県,千葉市中央区,弁天２丁目５番２３号,,12,101,2600045,,,2022-08-29,清算の結了等,,,2018-04-04,1,,,,,タケクリーン,0
1149,5080401014355,登記記録の閉鎖等,0,2022-08-31,2022-08-29,株式会社スズトー,,株式会社,静岡県,掛川市,杉谷２丁目１１番２０号,,22,213,4360017,,,2022-08-29,清算の結了等,,,2015-10-05,1,,,,,スズトー,0
1171,5120002078489,登記記録の閉鎖等,0,2022-08-31,2022-08-30,有限会社ジャステック,,有限会社,大阪府,守口市,大日東町３４番８－１２０７号,,27,209,5700016,,,2022-08-30,清算の結了等,,,2015-10-05,1,,,,,ジャステック,0
1198,5130005013491,登記記録の閉鎖等,0,2022-08-31,2022-08-23,特定非営利活動法人京都それいゆ,,その他の設立登記法人,京都府,京都市左京区,一乗寺宮ノ東町４７番地,,26,103,6068116,,,2022-08-23,清算の結了等,,,2015-10-05,1,,,,,キョウトソレイユ,0
1219,5180301026440,登記記録の閉鎖等,0,2022-08-31,2022-08-09,株式会社ホームメイド豊田,,株式会社,愛知県,刈谷市,井ケ谷町下前田５２番地,,23,210,4480001,,,2022-08-09,合併による解散等,1180001132006,令和４年８月１日愛知県春日井市中央通二丁目８６番地株式会社ホームメイド名古屋（1180001132006）に合併し解散,2015-10-05,1,,,,,,0
1229,5220001002002,登記記録の閉鎖等,0,2022-08-31,2022-08-29,株式会社金沢液化ガス貯蔵所,,株式会社,福井県,福井市,浅水町１０５号３番地,,18,201,9188181,,,2022-08-29,清算の結了等,,,2015-10-05,1,,,,,カナザワエキカガスチョゾウジショ,0
1230,5220002002389,登記記録の閉鎖等,0,2022-08-31,2022-08-30,有限会社栗山鉄工所,,有限会社,石川県,金沢市,東力２丁目４０番地,,17,201,9218015,,,2022-08-30,清算の結了等,,,2015-10-05,1,,,,,クリヤマテッコウショ,0
1234,5240002050758,登記記録の閉鎖等,0,2022-08-31,2022-08-29,有限会社ジーアイエスコンサルタント,,有限会社,広島県,尾道市,高須町５４１２番地,,34,205,7290141,,,2022-08-29,清算の結了等,,,2015-10-05,1,,,,,ジーアイエスコンサルタント,0
1242,5290001008042,登記記録の閉鎖等,0,2022-08-31,2022-08-26,株式会社じゅう,,株式会社,福岡県,福岡市中央区,薬院３丁目１６番２６号,,40,133,8100022,,,2022-08-26,清算の結了等,,,2015-10-05,1,,,,,ジュウ,0
1252,5330002009191,登記記録の閉鎖等,0,2022-08-31,2022-08-26,有限会社双葉建築工房,,有限会社,熊本県,熊本市北区,武蔵ケ丘９丁目５番４３号,,43,105,8618001,,,2022-08-26,清算の結了等,,,2015-10-05,1,,,,,フタバケンチクコウボウ,0
1277,5430002026623,登記記録の閉鎖等,0,2022-08-31,2022-08-24,有限会社フレッシュミートわたなべ,,有限会社,北海道,札幌市豊平区,中の島二条１０丁目１番２３号,,01,105,0620922,,,2022-08-24,清算の結了等,,,2015-10-05,1,,,,,フレッシュミートワタナベ,0
1302,6010001187276,登記記録の閉鎖等,0,2022-08-31,2022-08-25,株式会社ＷＩＬＬ　ＣＯＮＳＵＬＴＩＮＧ,,株式会社,東京都,中央区,八丁堀３丁目９番４号ＵＨＡＣＣＨＯＢＯＲＩ１階,,13,102,1040032,,,2022-08-25,清算の結了等,,,2017-10-27,1,,,,,,0
1305,6010001211969,登記記録の閉鎖等,0,2022-08-31,2022-08-25,株式会社ＡＭホールディングス,,株式会社,東京都,中央区,日本橋茅場町３丁目２番２号ＥＫＫビル,,13,102,1030025,,,2022-08-25,清算の結了等,,,2020-08-31,1,,,,,,0
1322,6010801028803,登記記録の閉鎖等,0,2022-08-31,2022-08-25,株式会社日本メディカルエステティック研究所,,株式会社,東京都,大田区,石川町１丁目１０番４号,,13,111,1450061,,,2022-08-25,清算の結了等,,,2018-05-10,1,,,,,ニホンメディカルエステティックケンキュウショ,0
1328,6010903005196,登記記録の閉鎖等,0,2022-08-31,2022-08-29,ハイパーステイ合同会社,,合同会社,東京都,世田谷区,太子堂２丁目９番２６号,,13,112,1540004,,,2022-08-29,清算の結了等,,,2019-09-03,1,,,,,ハイパーステイ,0
1337,6011101056536,登記記録の閉鎖等,0,2022-08-31,2022-08-25,株式会社Ｑファームフードシステム,,株式会社,東京都,新宿区,百人町１丁目８番６号,,13,104,1690073,,,2022-08-25,合併による解散等,2011101080424,令和４年５月３１日東京都新宿区百人町一丁目８番６号株式会社ゴールドファーム（2011101080424）に合併し解散,2015-10-05,1,,,,,キューファームフードシステム,0
1350,6011603001948,登記記録の閉鎖等,0,2022-08-31,2022-08-30,オーロラ・アソシエイツ合同会社,,合同会社,東京都,練馬区,大泉町６丁目２９番２０号,,13,120,1780062,,,2022-08-30,清算の結了等,,,2016-10-07,1,,,,,オーロラアソシエイツ,0
1357,6012701010320,登記記録の閉鎖等,0,2022-08-31,2022-08-26,株式会社ストークラボラトリー,,株式会社,東京都,東村山市,萩山町２丁目１６番地４,,13,213,1890012,,,2022-08-26,清算の結了等,,,2015-10-05,1,,,,,,0
1360,6013301007748,登記記録の閉鎖等,0,2022-08-31,2022-08-26,出口工業株式会社,,株式会社,東京都,豊島区,目白２丁目１３番３号,,13,116,1710031,,,2022-08-26,清算の結了等,,,2015-10-05,1,,,,,デグチコウギョウ,0
1372,6020001103141,登記記録の閉鎖等,0,2022-08-31,2022-08-26,株式会社Ａｒｃｏｂａｌｅｎｏ,,株式会社,神奈川県,川崎市幸区,矢上１５番２－５０１号,,14,132,2120056,,,2022-08-26,清算の結了等,,,2015-10-05,1,,,,,,0
1416,6120101045678,登記記録の閉鎖等,0,2022-08-31,2022-08-29,株式会社ブルーム,,株式会社,大阪府,泉大津市,板原町５丁目１１番１９号,,27,206,5950033,,,2022-08-29,清算の結了等,,,2015-10-05,1,,,,,ブルーム,0
1440,6140002008113,登記記録の閉鎖等,0,2022-08-31,2022-08-29,有限会社浅野金型彫刻所,,有限会社,兵庫県,神戸市長田区,川西通５丁目１番地,,28,106,6530834,,,2022-08-29,清算の結了等,,,2015-10-05,1,,,,,アサノカナガタチョウコクショ,0
1461,6180302027908,登記記録の閉鎖等,0,2022-08-31,2022-08-26,有限会社中島屋商店,,有限会社,愛知県,新城市,玖老勢字小屋上７３番地,,23,221,4411945,,,2022-08-26,清算の結了等,,,2015-10-05,1,,,,,ナカジマヤショウテン,0
1462,6180303004162,登記記録の閉鎖等,0,2022-08-31,2022-08-17,合同会社ＨＴ,,合同会社,愛知県,豊橋市,富士見台４丁目２番地１１ビューコーポ富士見１Ｆ,,23,201,4418135,,,2022-08-17,清算の結了等,,,2018-09-20,1,,,,,エイチティー,0
1483,6310002014184,登記記録の閉鎖等,0,2022-08-31,2022-08-29,有限会社岳野建設,,有限会社,長崎県,西海市,大瀬戸町瀬戸西濱郷４１１番地１９,,42,212,8572303,,,2022-08-29,清算の結了等,,,2015-10-05,1,,,,,タケノケンセツ,0
1494,6370001012753,登記記録の閉鎖等,0,2022-08-31,2022-08-26,株式会社ケンコウ,,株式会社,宮城県,仙台市青葉区,台原３丁目３３番１号,,04,101,9810911,,,2022-08-26,清算の結了等,,,2015-10-05,1,,,,,ケンコウ,0
1514,7010001010841,登記記録の閉鎖等,0,2022-08-31,2022-08-26,和泉産業株式会社,,株式会社,東京都,千代田区,神田岩本町１番地,,13,101,1010033,,,2022-08-26,清算の結了等,,,2015-10-05,1,,,,,イズミサンギョウ,0
1517,7010001135622,登記記録の閉鎖等,0,2022-08-31,2022-08-25,株式会社ＦＤＮｅｔｗｏｒｋ,,株式会社,東京都,千代田区,神田佐久間町３丁目３８番地第５東ビル５０１,,13,101,1010025,,,2022-08-25,清算の結了等,,,2015-10-05,1,,,,,,0
1563,7010902000684,登記記録の閉鎖等,0,2022-08-31,2022-08-29,有限会社アンスリール,,有限会社,東京都,世田谷区,弦巻２丁目８番１７号,,13,112,1540016,,,2022-08-29,清算の結了等,,,2015-10-05,1,,,,,,0
1590,7011701020015,登記記録の閉鎖等,0,2022-08-31,2022-08-29,株式会社アリシア,,株式会社,東京都,江戸川区,東葛西５丁目１２番１－１０３号,,13,123,1340084,,,2022-08-29,清算の結了等,,,2016-07-12,1,,,,,アリシア,0
1598,7012801006977,登記記録の閉鎖等,0,2022-08-31,2022-08-30,株式会社フムックス,,株式会社,東京都,昭島市,拝島町３９２６番地１,,13,207,1960002,,,2022-08-30,清算の結了等,,,2015-10-05,1,,,,,フムックス,0
1603,7020002062518,登記記録の閉鎖等,0,2022-08-31,2022-08-25,有限会社学生服の大雅,,有限会社,神奈川県,横浜市戸塚区,戸塚町５１番地,,14,110,2440003,,,2022-08-25,清算の結了等,,,2015-10-05,1,,,,,,0
1612,7030001061560,登記記録の閉鎖等,0,2022-08-31,2022-08-22,エステートコスギ株式会社,,株式会社,埼玉県,本庄市,栄３丁目２番１０号,,11,211,3670046,,,2022-08-22,清算の結了等,,,2015-10-05,1,,,,,エステートコスギ,0
1626,7040001095632,登記記録の閉鎖等,0,2022-08-31,2022-08-24,株式会社ＳｈｉｎＧａｒｉ不動産,,株式会社,千葉県,松戸市,松戸２０４０番地の７,,12,207,2710092,,,2022-08-24,清算の結了等,,,2016-06-14,1,,,,,シンガリフドウサン,0
1640,7080401015203,登記記録の閉鎖等,0,2022-08-31,2022-08-29,桂住宅株式会社,,株式会社,静岡県,掛川市,緑ケ丘２丁目８番地の５,,22,213,4360021,,,2022-08-29,清算の結了等,,,2015-10-05,1,,,,,カツラジュウタク,0
1644,7100001024576,登記記録の閉鎖等,0,2022-08-31,2022-08-29,株式会社寺島商会,,株式会社,長野県,茅野市,ちの２４７番地１,,20,214,3910001,,,2022-08-29,清算の結了等,,,2015-10-05,1,,,,,テラシマショウカイ,0
1648,7110001012308,登記記録の閉鎖等,0,2022-08-31,2022-08-26,株式会社アグリサポート,,株式会社,新潟県,阿賀野市,熊堂６８２番地,,15,223,9591907,,,2022-08-26,清算の結了等,,,2015-10-05,1,,,,,アグリサポート,0
1680,7180001007953,登記記録の閉鎖等,0,2022-08-31,2022-08-25,栄地産業株式会社,,株式会社,愛知県,名古屋市昭和区,御器所３丁目４番３号,,23,107,4660051,,,2022-08-25,清算の結了等,,,2015-10-05,1,,,,,エイチサンギョウ,0
1685,7180001122760,登記記録の閉鎖等,0,2022-08-31,2022-08-22,株式会社ＮＩＦ,,株式会社,愛知県,一宮市,大和町苅安賀字薬師堂６４番の１,,23,203,4910934,,,2022-08-22,清算の結了等,,,2016-04-12,1,,,,,エヌアイエフ,0
1686,7180001126547,登記記録の閉鎖等,0,2022-08-31,2022-08-25,カッテネー株式会社,,株式会社,愛知県,名古屋市中区,門前町１番６０号,,23,106,4600018,,,2022-08-25,清算の結了等,,,2017-02-10,1,,,,,カッテネー,0
1687,7180001127958,登記記録の閉鎖等,0,2022-08-31,2022-08-24,株式会社Ｄｉｓｅｇｎｏ,,株式会社,愛知県,名古屋市天白区,中平５丁目１３０３番地,,23,116,4680014,,,2022-08-24,清算の結了等,,,2017-05-25,1,,,,,デセグノ,0
1693,7180005007702,登記記録の閉鎖等,0,2022-08-31,2022-08-30,勅使台団地管理組合法人,,その他の設立登記法人,愛知県,豊明市,沓掛町小廻間１６番地３９５,,23,229,4701103,,,2022-08-30,清算の結了等,,,2015-10-05,1,,,,,チョクシダイダンチ,0
1698,7190002020839,登記記録の閉鎖等,0,2022-08-31,2022-08-29,大朋商事有限会社,,有限会社,三重県,四日市市,元町５番１１号,,24,202,5100088,,,2022-08-29,清算の結了等,,,2015-10-05,1,,,,,タイホウショウジ,0
1703,7230005003051,登記記録の閉鎖等,0,2022-08-31,2022-08-30,国際研修技術協同組合,,その他の設立登記法人,富山県,富山市,大江干１２０番地,,16,201,9300922,,,2022-08-30,清算の結了等,,,2015-10-05,1,,,,,コクサイケンシュウギジュツ,0
1704,7240001040254,登記記録の閉鎖等,0,2022-08-31,2022-08-29,株式会社スクラムワーク,,株式会社,広島県,三原市,城町１丁目２番１号,,34,204,7230014,,,2022-08-29,清算の結了等,,,2015-10-05,1,,,,,スクラムワーク,0
1706,7240002054377,登記記録の閉鎖等,0,2022-08-31,2022-08-29,有限会社果実の森,,有限会社,広島県,三原市,大和町大草２９１番地の１,,34,204,7291211,,,2022-08-29,清算の結了等,,,2015-10-05,1,,,,,カジツノモリ,0
1707,7270001007548,登記記録の閉鎖等,0,2022-08-31,2022-08-29,株式会社豊金属,,株式会社,鳥取県,鳥取市,新８３番地２８,,31,201,6800861,,,2022-08-29,清算の結了等,,,2018-06-27,1,,,,,ユタカキンゾク,0
1710,7290003011959,登記記録の閉鎖等,0,2022-08-31,2022-08-09,合同会社サードドア,,合同会社,福岡県,古賀市,日吉３丁目１０－２６アムールシェソワ１０４,,40,223,8113106,,,2022-08-09,清算の結了等,,,2022-01-04,1,,,,,サードドア,0
1773,8010102011127,登記記録の閉鎖等,0,2022-08-31,2022-08-26,有限会社アサブ・プレート,,有限会社,東京都,八王子市,鑓水２丁目７８番地２－１３０３,00050522,13,201,1920375,,,2022-08-26,清算の結了等,,,2015-10-05,1,,,,,アサブプレート,0
1785,8010401127631,登記記録の閉鎖等,0,2022-08-31,2022-08-03,ハナ食品株式会社,,株式会社,東京都,港区,芝３丁目２１番１５号,,13,103,1050014,,,2022-08-03,清算の結了等,,,2016-10-19,1,,,,,ハナショクヒン,0
1792,8010405020163,登記記録の閉鎖等,0,2022-08-31,2022-08-03,一般社団法人Ｂｕｓａｎ,,その他の設立登記法人,東京都,港区,虎ノ門５丁目１番４号,,13,103,1050001,,,2022-08-03,清算の結了等,,,2021-08-31,1,,,,,プサン,0
1802,8010802011657,登記記録の閉鎖等,0,2022-08-31,2022-08-26,有限会社花プロダクション,,有限会社,東京都,大田区,東嶺町３４番１０号,,13,111,1450074,,,2022-08-26,清算の結了等,,,2015-10-05,1,,,,,ハナプロダクション,0
1804,8010902019063,登記記録の閉鎖等,0,2022-08-31,2022-08-26,有限会社マイスターズユニオン,,有限会社,東京都,世田谷区,東玉川１丁目４１番３号,,13,112,1580084,,,2022-08-26,清算の結了等,,,2015-10-05,1,,,,,マイスターズユニオン,0
1826,8011301025710,登記記録の閉鎖等,0,2022-08-31,2022-08-24,秦ファーム株式会社,,株式会社,東京都,杉並区,久我山３丁目１５番８号,,13,115,1680082,,,2022-08-24,清算の結了等,,,2020-02-19,1,,,,,ハタファーム,0
1827,8011302014679,登記記録の閉鎖等,0,2022-08-31,2022-08-25,有限会社三秀エンジニアリング,,有限会社,東京都,杉並区,西荻北３丁目１２番１３－２０１号,,13,115,1670042,,,2022-08-25,清算の結了等,,,2015-10-05,1,,,,,サンシュウエンジニアリング,0
1863,8021002003196,登記記録の閉鎖等,0,2022-08-31,2022-08-29,有限会社高梨だるま藥局,00012927,有限会社,神奈川県,藤沢市,辻堂新町１丁目４番６号,,14,205,2510042,,,2022-08-29,清算の結了等,,,2015-10-05,1,,,,,,0
1875,8040001076730,登記記録の閉鎖等,0,2022-08-31,2022-08-25,株式会社農菜土,,株式会社,千葉県,柏市,手賀８０８番地,,12,217,2701465,,,2022-08-25,清算の結了等,,,2015-10-05,1,,,,,ノウサイド,0
1878,8040001116263,登記記録の閉鎖等,0,2022-08-31,2022-08-24,株式会社ＲＥ,,株式会社,千葉県,千葉市中央区,南生実町２９番地１２,,12,101,2600814,,,2022-08-24,清算の結了等,,,2020-12-15,1,,,,,アールイー,0
1882,8040002024556,登記記録の閉鎖等,0,2022-08-31,2022-08-25,有限会社パナテックサトー,,有限会社,千葉県,船橋市,夏見４丁目２３番７号,,12,204,2730865,,,2022-08-25,清算の結了等,,,2015-10-05,1,,,,,パナテックサトー,0
1892,8070001035601,登記記録の閉鎖等,0,2022-08-31,2022-08-09,株式会社カツヨシトミオカ,,株式会社,群馬県,富岡市,黒川７７９番地,,10,210,3702344,,,2022-08-09,合併による解散等,9370001041048,令和４年８月１日宮城県遠田郡涌谷町字桑木荒１６１番地１株式会社カツヨシグロース（9370001041048）に合併し解散,2019-04-11,1,,,,,カツヨシトミオカ,0
1898,8080401010525,登記記録の閉鎖等,0,2022-08-31,2022-08-30,リンドマン株式会社,,株式会社,静岡県,浜松市浜北区,永島７５５番地,,22,136,4340013,,,2022-08-30,清算の結了等,,,2015-10-05,1,,,,,リンドマン,0
1901,8100002015747,登記記録の閉鎖等,0,2022-08-31,2022-08-26,有限会社秀和,,有限会社,長野県,東御市,和３０５８番地,,20,219,3890505,,,2022-08-26,清算の結了等,,,2015-10-05,1,,,,,シュウワ,0
1902,8100002030837,登記記録の閉鎖等,0,2022-08-31,2022-08-26,有限会社アート商会,,有限会社,長野県,岡谷市,南宮２丁目４番１９号,,20,204,3940033,,,2022-08-26,清算の結了等,,,2015-10-05,1,,,,,アートショウカイ,0
1905,8120001037047,登記記録の閉鎖等,0,2022-08-31,2022-08-30,株式会社アーキテック論,,株式会社,大阪府,大阪市浪速区,元町１丁目１１番１６号,,27,111,5560016,,,2022-08-30,清算の結了等,,,2015-10-05,1,,,,,アーキテックロン,0
1953,8180002060892,登記記録の閉鎖等,0,2022-08-31,2022-08-26,有限会社フェイマスグループ,,有限会社,愛知県,名古屋市中川区,かの里３丁目８０３番地,,23,110,4540957,,,2022-08-26,清算の結了等,,,2015-10-05,1,,,,,フェイマスグループ,0
1960,8220001003484,登記記録の閉鎖等,0,2022-08-31,2022-08-29,株式会社ジュネス,,株式会社,石川県,河北郡津幡町,字潟端４１１番地３,,17,361,9290346,,,2022-08-29,清算の結了等,,,2015-10-05,1,,,,,ジュネス,0
1967,8260002011029,登記記録の閉鎖等,0,2022-08-31,2022-08-25,有限会社トリニティ・コンサルタンツ,,有限会社,岡山県,岡山市北区,蕃山町３－３０吉備システムビル２Ｆ,,33,101,7000818,,,2022-08-25,清算の結了等,,,2015-10-05,1,,,,,トリニティコンサルタンツ,0
1986,8330002018388,登記記録の閉鎖等,0,2022-08-31,2022-08-26,有限会社緒方商会,,有限会社,熊本県,山鹿市,中８２５番地,,43,208,8610531,,,2022-08-26,清算の結了等,,,2015-10-05,1,,,,,オガタショウカイ,0
2028,9010001163357,登記記録の閉鎖等,0,2022-08-31,2022-08-12,株式会社Ｄｅａｒｅｓｔ,,株式会社,東京都,港区,北青山３丁目５番１７号,,13,103,1070061,,,2022-08-12,清算の結了等,,,2015-10-05,1,,,,,ディアレスト,0
2047,9010402014349,登記記録の閉鎖等,0,2022-08-31,2022-08-03,有限会社スタッフフォー,,有限会社,東京都,港区,芝公園１丁目３番１０号,,13,103,1050011,,,2022-08-03,清算の結了等,,,2015-10-05,1,,,,,スタッフフォー,0
2066,9011001124588,登記記録の閉鎖等,0,2022-08-31,2022-08-10,株式会社ビーイーロジスティクス,,株式会社,東京都,渋谷区,代官山町２０番９号,,13,113,1500034,,,2022-08-10,清算の結了等,,,2018-10-05,1,,,,,ビーイーロジスティクス,0
2080,9011602000270,登記記録の閉鎖等,0,2022-08-31,2022-08-26,アーバンサービスセンター有限会社,,有限会社,東京都,練馬区,練馬１丁目５番７号,,13,120,1760001,,,2022-08-26,清算の結了等,,,2015-10-05,1,,,,,アーバンサービスセンター,0
2084,9011803002124,登記記録の閉鎖等,0,2022-08-31,2022-08-24,合同会社フィールドプランニング,,合同会社,東京都,足立区,綾瀬５丁目１５番１１号,,13,121,1200005,,,2022-08-24,合併による解散等,4430003013175,令和４年８月１日札幌市中央区北五条西十丁目３－１－３２５合同会社スカイフィールド（4430003013175）に合併し解散,2015-10-05,1,,,,,フィールドプランニング,0
2091,9013401006960,登記記録の閉鎖等,0,2022-08-31,2022-08-29,株式会社技研,,株式会社,東京都,稲城市,平尾１丁目３３番地の１４,,13,225,2060823,,,2022-08-29,清算の結了等,,,2015-10-05,1,,,,,ギケン,0
2093,9020001115019,登記記録の閉鎖等,0,2022-08-31,2022-08-29,株式会社石原工務店,,株式会社,神奈川県,横浜市神奈川区,羽沢南２丁目３６番８号,,14,102,2210866,,,2022-08-29,清算の結了等,,,2016-02-29,1,,,,,イシハラコウムテン,0
2101,9020005001256,登記記録の閉鎖等,0,2022-08-31,2022-08-26,一般社団法人神奈川県プラスチック工業会,,その他の設立登記法人,神奈川県,横浜市中区,太田町６丁目８４番地,,14,104,2310011,,,2022-08-26,清算の結了等,,,2015-10-05,1,,,,,カナガワケンプラスチックコウギョウカイ,0
2137,9060002025733,登記記録の閉鎖等,0,2022-08-31,2022-08-25,有限会社リプロ工房,,有限会社,栃木県,大田原市,中田原７５７番地５,,09,210,3240062,,,2022-08-25,清算の結了等,,,2015-10-05,1,,,,,リプロコウボウ,0
2154,9110002020753,登記記録の閉鎖等,0,2022-08-31,2022-08-26,有限会社努工業,,有限会社,新潟県,柏崎市,剣野町１３番１号,,15,205,9450835,,,2022-08-26,清算の結了等,,,2015-10-05,1,,,,,ツトムコウギョウ,0
2178,9130002028737,登記記録の閉鎖等,0,2022-08-31,2022-08-24,有限会社足立板金工事,,有限会社,京都府,亀岡市,篠町篠赤畑１７番地の２１,,26,206,6210826,,,2022-08-24,清算の結了等,,,2015-10-05,1,,,,,アダチバンキンコウジ,0
2198,9230005002134,登記記録の閉鎖等,0,2022-08-31,2022-08-08,医療法人社団はやしこどもクリニック,,その他の設立登記法人,富山県,富山市,経堂２丁目１７番地,,16,201,9300951,,,2022-08-08,合併による解散等,5210005008046,令和４年８月１日福井県越前市村国三丁目１番地１２医療法人彰永会（5210005008046）に合併し解散,2015-10-05,1,,,,,,0
2200,9240002039236,登記記録の閉鎖等,0,2022-08-31,2022-08-29,有限会社アルコ,,有限会社,広島県,福山市,西町３丁目１４番１８号西町プラザ３０３号,,34,207,7200067,,,2022-08-29,清算の結了等,,,2015-10-05,1,,,,,アルコ,0
2201,9240002053807,登記記録の閉鎖等,0,2022-08-31,2022-08-29,有限会社安永鉄工,,有限会社,広島県,三原市,中之町３丁目２３番１５号,,34,204,7230003,,,2022-08-29,清算の結了等,,,2015-10-05,1,,,,,ヤスナガッテコウ,0
2203,9260001014915,登記記録の閉鎖等,0,2022-08-31,2022-08-30,株式会社水島第一塾,,株式会社,岡山県,倉敷市,水島西常盤町１３番３号,,33,202,7128059,,,2022-08-30,清算の結了等,,,2015-10-05,1,,,,,ミズシマダイイチジュク,0
2205,9260002021101,登記記録の閉鎖等,0,2022-08-31,2022-08-29,有限会社堀田時計店,,有限会社,岡山県,倉敷市,阿知３丁目１２番１５号,,33,202,7100055,,,2022-08-29,清算の結了等,,,2015-10-05,1,,,,,ホッタトケイテン,0
2209,9290002010480,登記記録の閉鎖等,0,2022-08-31,2022-08-29,有限会社金陵荘,,有限会社,福岡県,福岡市中央区,地行４丁目１５番３号,,40,133,8100064,,,2022-08-29,清算の結了等,,,2015-10-05,1,,,,,キンリョウソウ,0
2217,9290801027163,登記記録の閉鎖等,0,2022-08-31,2022-08-26,株式会社ＡＳＨＩＴＡＮＯ,,株式会社,福岡県,北九州市小倉北区,木町２丁目１６番８－１号,,40,106,8030851,,,2022-08-26,清算の結了等,,,2021-02-09,1,,,,,アシタノ,0
2224,9310003002532,登記記録の閉鎖等,0,2022-08-31,2022-08-29,合同会社幸洋,,合同会社,長崎県,長崎市,万才町２番７号松本ビル４０２,,42,201,8500033,,,2022-08-29,清算の結了等,,,2015-10-05,1,,,,,コウヨウ,0
2227,9320002005213,登記記録の閉鎖等,0,2022-08-31,2022-08-30,有限会社二豊通信,,有限会社,大分県,大分市,南春日町１１番１５号,,44,201,8700815,,,2022-08-30,清算の結了等,,,2015-10-05,1,,,,,ニホウツウシン,0
2241,9410005005556,登記記録の閉鎖等,0,2022-08-31,2022-08-26,農事組合法人だいせん,,その他の設立登記法人,秋田県,大仙市,杉山田字家ノ前２５番地１,,05,212,0192205,,,2022-08-26,清算の結了等,,,2015-10-05,1,,,,,ダイセン,0
2243,9420002014402,登記記録の閉鎖等,0,2022-08-31,2022-08-26,有限会社メガネの山田,,有限会社,青森県,弘前市,大字土手町９０番地４,,02,202,0368182,,,2022-08-26,清算の結了等,,,2015-10-05,1,,,,,メガネノヤマダ,0
2246,9430001046577,登記記録の閉鎖等,0,2022-08-31,2022-08-25,株式会社東栄,,株式会社,北海道,岩見沢市,志文町３５５番地３９,,01,210,0680833,,,2022-08-25,清算の結了等,,,2015-10-05,1,,,,,トウエイ,0
2247,9430001046718,登記記録の閉鎖等,0,2022-08-31,2022-08-22,目黒建設株式会社,,株式会社,北海道,岩見沢市,美園一条１丁目,,01,210,0680811,,,2022-08-22,清算の結了等,,,2015-10-05,1,,,,,メグロケンセツ,0
2252,9440001007727,登記記録の閉鎖等,0,2022-08-31,2022-08-29,株式会社椴法華振興開発,,株式会社,北海道,函館市,恵山岬町６１番地２,,01,202,0410605,,,2022-08-29,清算の結了等,,,2015-10-05,1,,,,,トドホッケシンコウカイハツ,0
2256,9500002001466,登記記録の閉鎖等,0,2022-08-31,2022-08-30,エー・ピー・ファクトリー有限会社,,有限会社,愛媛県,松山市,船ケ谷町１０番１,,38,201,7918073,,,2022-08-30,清算の結了等,,,2018-07-02,1,,,,,,0
