sequenceNumber,corporateNumber,process,correct,updateDate,changeDate,name,nameImageId,kind,prefectureName,cityName,streetNumber,addressImageId,prefectureCode,cityCode,postCode,addressOutside,addressOutsideImageId,closeDate,closeCause,successorCorporateNumber,changeCause,assignmentDate,latest,enName,enPrefectureName,enCityName,enAddressOutside,furigana,hihyoji
5,1010001134101,登記記録の閉鎖等,0,2025-06-06,2025-06-02,株式会社アイ・アール住販,,株式会社,東京都,中央区,八丁堀２丁目２１番１１号,,13,102,1040032,,,2025-06-02,合併による解散等,4010001158626,令和７年６月１日東京都中央区八丁堀三丁目４番８号株式会社エスアールディホールディングス（4010001158626）に合併し解散,2015-10-05,1,,,,,アイアールジュウハン,0
7,1010001205240,登記記録の閉鎖等,0,2025-06-06,2025-06-02,ｃｍｃインスツルメンツアジア株式会社,,株式会社,東京都,中央区,勝どき５丁目３番１－１１１５号,,13,102,1040054,,,2025-06-02,合併による解散等,8010001179544,令和７年６月１日東京都中央区勝どき五丁目３番１号長谷川インターナショナル株式会社（8010001179544）に合併し解散,2019-11-12,1,,,,,シーエムシーインスツルメンツアジア,0
8,1010001205447,登記記録の閉鎖等,0,2025-06-06,2025-05-16,株式会社ビューマインド,,株式会社,東京都,渋谷区,千駄ヶ谷５丁目２７番５号,,13,113,1510051,,,2025-05-16,合併による解散等,9010001249016,令和７年５月１日東京都千代田区丸の内一丁目８番２号株式会社Ｊ‐ＦＵＮ１４（9010001249016）に合併し解散,2019-11-18,1,,,,,ビューマインド,0
32,1010501051399,登記記録の閉鎖等,0,2025-06-06,2025-05-26,日本雲百テクノロジー株式会社,,株式会社,東京都,台東区,台東１丁目２４番９号ブライト秋葉原Ｂ１Ｆ,,13,106,1100016,,,2025-05-26,清算の結了等,,,2023-11-21,1,,,,,ニホンウンヒャクテクノロジー,0
64,1011101012262,登記記録の閉鎖等,0,2025-06-06,2025-05-16,株式会社タカケン,,株式会社,東京都,新宿区,西落合２丁目２０番１６号,,13,104,1610031,,,2025-05-16,清算の結了等,,,2015-10-05,1,,,,,タカケン,0
83,1012701014821,登記記録の閉鎖等,0,2025-06-06,2025-05-20,株式会社ＴＷＯ　ＡＮＤ　ＯＮＥ,,株式会社,埼玉県,飯能市,大字岩沢１３４番３号,,11,209,3570023,,,2025-05-20,合併による解散等,7012701011053,令和７年５月１５日埼玉県飯能市大字岩沢１３４番３号株式会社ＪＯＪＯサービス（7012701011053）に合併し解散,2018-05-22,1,,,,,ツーアンドワン,0
86,1013301026372,登記記録の閉鎖等,0,2025-06-06,2025-05-23,株式会社アヴァロン,,株式会社,東京都,豊島区,池袋本町４丁目４７番１２号,,13,116,1700011,,,2025-05-23,清算の結了等,,,2015-10-05,1,,,,,アヴァロン,0
90,1020001019805,登記記録の閉鎖等,0,2025-06-06,2025-06-02,笠岡産業株式会社,,株式会社,神奈川県,横浜市中区,山手町４５番地スチュアートプラザ３０１,,14,104,2310862,,,2025-06-02,清算の結了等,,,2015-10-05,1,,,,,カサオカサンギョウ,0
101,1021001049230,登記記録の閉鎖等,0,2025-06-06,2025-06-05,株式会社デンオー,,株式会社,神奈川県,横須賀市,根岸町３丁目１５番１－２０２号,,14,201,2390807,,,2025-06-05,合併による解散等,1010001005707,令和７年５月２０日東京都豊島区南池袋四丁目２２番３号白羽電気株式会社（1010001005707）に合併し解散,2015-10-05,1,,,,,デンオー,0
104,1030001032443,登記記録の閉鎖等,0,2025-06-06,2025-06-02,秋本農資株式会社,,株式会社,埼玉県,加須市,岡古井１４９７番地,,11,210,3470058,,,2025-06-02,清算の結了等,,,2015-10-05,1,,,,,アキモトノウシ,0
119,1030003016725,登記記録の閉鎖等,0,2025-06-06,2025-06-02,合同会社Ｊｏｋｅｒ,,合同会社,埼玉県,越谷市,伊原２丁目１９番２号,,11,222,3430831,,,2025-06-02,合併による解散等,9030002051807,令和７年６月１日埼玉県草加市青柳三丁目１４番地１６号株式会社昴工匠（9030002051807）に合併し解散,2021-02-24,1,,,,,ジョーカー,0
122,1040001034356,登記記録の閉鎖等,0,2025-06-06,2025-05-23,株式会社ニッケンサービス,,株式会社,千葉県,市川市,鬼高２丁目１６番１３号,,12,203,2720015,,,2025-05-23,清算の結了等,,,2015-10-05,1,,,,,ニッケンサービス,0
123,1040001079970,登記記録の閉鎖等,0,2025-06-06,2025-05-22,株式会社ＬＭＪ,,株式会社,千葉県,柏市,柏２丁目１０番２－４０１号,,12,217,2770005,,,2025-05-22,清算の結了等,,,2015-10-05,1,,,,,エルエムジェイ,0
130,1060002018307,登記記録の閉鎖等,0,2025-06-06,2025-06-03,有限会社和田レンタカー,,有限会社,栃木県,芳賀郡市貝町,大字赤羽３４８番地,,09,344,3213426,,,2025-06-03,清算の結了等,,,2015-10-05,1,,,,,ワダレンタカー,0
141,1090001014477,登記記録の閉鎖等,0,2025-06-06,2025-06-02,株式会社ＨＧプレシジョン,,株式会社,山梨県,中巨摩郡昭和町,西条４６１番地２,,19,384,4093866,,,2025-06-02,清算の結了等,,,2016-02-23,1,,,,,,0
142,1090002008981,登記記録の閉鎖等,0,2025-06-06,2025-06-02,有限会社ＧＡＲＡＧＥ渡辺,,有限会社,山梨県,笛吹市,一宮町国分１３８６番地７,,19,211,4050074,,,2025-06-02,清算の結了等,,,2015-10-05,1,,,,,,0
148,1110005009669,登記記録の閉鎖等,0,2025-06-06,2025-05-27,農事組合法人ファーム川端,,その他の設立登記法人,新潟県,上越市,大字川端５１０番地,,15,222,9420038,,,2025-05-27,清算の結了等,,,2015-10-05,1,,,,,ファームカワバタ,0
169,1120102026681,登記記録の閉鎖等,0,2025-06-06,2025-06-04,有限会社野田電工,,有限会社,大阪府,和泉市,池田下町１１１５番地の１２,,27,219,5940032,,,2025-06-04,清算の結了等,,,2015-10-05,1,,,,,,0
171,1120901042771,登記記録の閉鎖等,0,2025-06-06,2025-04-30,株式会社アクセルソンピグマリオン,,株式会社,大阪府,吹田市,江坂町２丁目２番２０号,,27,205,5640063,,,2025-04-30,合併による解散等,8120901034812,令和７年４月３０日大阪府吹田市江坂町二丁目２番２０号ピグマリオンＨＤ株式会社（8120901034812）に合併し、解散,2020-05-29,1,,,,,アクセルソンピグマリオン,0
176,1130001032012,登記記録の閉鎖等,0,2025-06-06,2025-06-02,ライフ物流サービス株式会社,,株式会社,京都府,向日市,寺戸町南垣内１０番地の１サンマンションアトレ東向日２１１号,,26,208,6170002,,,2025-06-02,清算の結了等,,,2015-10-05,1,,,,,ライフブツリュウサービス,0
186,1140001072701,登記記録の閉鎖等,0,2025-06-06,2025-05-28,株式会社ケアブランディング,,株式会社,兵庫県,三田市,あかしあ台１丁目１５番地１１,,28,219,6691323,,,2025-05-28,清算の結了等,,,2015-10-05,1,,,,,ケアブランディング,0
228,1210002012062,登記記録の閉鎖等,0,2025-06-06,2025-06-03,有限会社越前製紙工場,,有限会社,福井県,越前市,大滝町１２号５番地,,18,209,9150234,,,2025-06-03,清算の結了等,,,2015-10-05,1,,,,,エチゼンセイシコウジョウ,0
231,1240001039715,登記記録の閉鎖等,0,2025-06-06,2025-06-02,トータル・エンジニアリング株式会社,,株式会社,広島県,三原市,宮浦５丁目２６番８号,,34,204,7230051,,,2025-06-02,清算の結了等,,,2015-10-05,1,,,,,,0
238,1250002001359,登記記録の閉鎖等,0,2025-06-06,2025-06-03,有限会社プロテック,,有限会社,山口県,山口市,矢原１１５７番地の１９,,35,203,7530861,,,2025-06-03,清算の結了等,,,2015-10-05,1,,,,,プロテック,0
242,1280005005437,登記記録の閉鎖等,0,2025-06-06,2025-05-15,大元神社,,その他の設立登記法人,島根県,益田市,匹見町落合ニ６６８番地,,32,204,6981213,,,2025-05-15,合併による解散等,2280005005436,令和７年５月１５日島根県益田市匹見町落合イ１７０番地大元神社（2280005005436）に合併し解散,2015-10-05,1,,,,,,0
243,1290801012998,登記記録の閉鎖等,0,2025-06-06,2025-06-03,明和株式会社,,株式会社,福岡県,遠賀郡遠賀町,田園３丁目２７番１２号,,40,384,8114343,,,2025-06-03,清算の結了等,,,2015-10-05,1,,,,,メイワ,0
247,1290803003228,登記記録の閉鎖等,0,2025-06-06,2025-06-04,合同会社福智ファブ,,合同会社,福岡県,直方市,大字赤地２０６番地４,,40,204,8220012,,,2025-06-04,清算の結了等,,,2018-11-15,1,,,,,フクチファブ,0
251,1320001019023,登記記録の閉鎖等,0,2025-06-06,2025-05-30,ＤＭＦコンサルティング株式会社,,株式会社,大分県,別府市,石垣東２丁目６番１４号,,44,202,8740919,,,2025-05-30,清算の結了等,,,2022-04-20,1,,,,,ディーエムエフコンサルティング,0
254,1330002016308,登記記録の閉鎖等,0,2025-06-06,2025-06-02,有限会社堂面,,有限会社,熊本県,阿蘇郡西原村,大字河原２２８１番地,,43,432,8612404,,,2025-06-02,清算の結了等,,,2015-10-05,1,,,,,ドウメン,0
257,1340001011110,登記記録の閉鎖等,0,2025-06-06,2025-05-30,株式会社竹広開発,,株式会社,鹿児島県,鹿児島市,西伊敷５丁目１１番１５号,,46,201,8911202,,,2025-05-30,清算の結了等,,,2015-10-05,1,,,,,タケヒロカイハツ,0
274,1430002044018,登記記録の閉鎖等,0,2025-06-06,2025-06-04,有限会社ヒット物流,,有限会社,北海道,石狩市,新港東２丁目２番地５,,01,235,0613243,,,2025-06-04,清算の結了等,,,2015-10-05,1,,,,,ヒットブツリュウ,0
281,1470001006048,登記記録の閉鎖等,0,2025-06-06,2025-06-02,ハピネスシェフ株式会社,,株式会社,香川県,高松市,太田上町３５９番地１５,,37,201,7618074,,,2025-06-02,合併による解散等,9470001012014,令和７年６月１日香川県高松市上福岡町９２２番地１レイグランド株式会社（9470001012014）に合併し解散,2015-10-05,1,,,,,ハピネスシェフ,0
307,2010403015484,登記記録の閉鎖等,0,2025-06-06,2025-06-03,みちのくトラスト合同会社,,合同会社,東京都,港区,港南３丁目５番１０号,,13,103,1080075,,,2025-06-03,合併による解散等,1012703001487,令和７年５月２３日東京都清瀬市中里五丁目６番１号良質空間合同会社（1012703001487）に合併し解散,2016-10-18,1,,,,,,0
313,2010601037396,登記記録の閉鎖等,0,2025-06-06,2025-06-02,シーク株式会社,,株式会社,東京都,江東区,森下３丁目５番２号,,13,108,1350004,,,2025-06-02,清算の結了等,,,2015-10-05,1,,,,,シーク,0
317,2010701038963,登記記録の閉鎖等,0,2025-06-06,2025-05-20,株式会社ＳＺＣＯ,,株式会社,東京都,品川区,南品川４丁目４番１７号品川サウスタワー,,13,109,1400004,,,2025-05-20,清算の結了等,,,2020-03-05,1,,,,,スズコ,0
358,2012801003161,登記記録の閉鎖等,0,2025-06-06,2025-06-02,明和自動車株式会社,,株式会社,東京都,武蔵村山市,中原１丁目１番地１１,,13,223,2080035,,,2025-06-02,清算の結了等,,,2015-10-05,1,,,,,メイワジドウシャ,0
360,2013301006539,登記記録の閉鎖等,0,2025-06-06,2025-05-27,株式会社創宝,,株式会社,東京都,豊島区,西池袋１丁目１８番１０号,,13,116,1710021,,,2025-05-27,清算の結了等,,,2015-10-05,1,,,,,ソウホウ,0
367,2020001038390,登記記録の閉鎖等,0,2025-06-06,2025-06-02,株式会社水華,,株式会社,神奈川県,横浜市保土ケ谷区,常盤台９番２１号,,14,106,2400067,,,2025-06-02,清算の結了等,,,2015-10-05,1,,,,,スイカ,0
376,2020003015017,登記記録の閉鎖等,0,2025-06-06,2025-06-02,合同会社ｔｒｅｆｏｉｌ＆Ｃｏ,,合同会社,神奈川県,川崎市中原区,木月１丁目３２－３内田マンション２Ｆ,,14,133,2110025,,,2025-06-02,清算の結了等,,,2018-10-09,1,,,,,トレフォイルアンドカンパニー,0
382,2021002056282,登記記録の閉鎖等,0,2025-06-06,2025-06-02,有限会社誠興業,,有限会社,神奈川県,足柄上郡中井町,井ノ口字遠藤原３３０４番地１,,14,361,2590151,,,2025-06-02,清算の結了等,,,2015-10-05,1,,,,,マコトコウギョウ,0
402,2030002044767,登記記録の閉鎖等,0,2025-06-06,2025-06-02,有限会社大將産業,,有限会社,埼玉県,草加市,新善町９番地,,11,221,3400054,,,2025-06-02,清算の結了等,,,2015-10-05,1,,,,,ダイショウサンギョウ,0
403,2030002096115,登記記録の閉鎖等,0,2025-06-06,2025-06-02,有限会社トウギョク,,有限会社,埼玉県,東松山市,大字新郷８８番地７,,11,212,3550071,,,2025-06-02,清算の結了等,,,2015-10-05,1,,,,,トウギョク,0
424,2070001029641,登記記録の閉鎖等,0,2025-06-06,2025-06-02,株式会社ハイランドデーリー,,株式会社,群馬県,沼田市,白沢町高平１６８番地１,,10,206,3780121,,,2025-06-02,清算の結了等,,,2015-10-05,1,,,,,ハイランドデーリー,0
429,2080002009765,登記記録の閉鎖等,0,2025-06-06,2025-06-02,有限会社草薙眼科サービス,,有限会社,静岡県,静岡市清水区,中之郷１丁目２番１７号,,22,103,4240888,,,2025-06-02,清算の結了等,,,2015-10-05,1,,,,,クサナギガンカサービス,0
435,2090001016415,登記記録の閉鎖等,0,2025-06-06,2025-06-02,エヌディエス株式会社,,株式会社,山梨県,中巨摩郡昭和町,築地新居６６９番地１,,19,384,4093853,,,2025-06-02,清算の結了等,,,2020-03-02,1,,,,,,0
449,2120001119809,登記記録の閉鎖等,0,2025-06-06,2025-05-30,株式会社ビル・サポート,,株式会社,大阪府,大阪市淀川区,西中島４丁目７番２－１１０３号,,27,123,5320011,,,2025-05-30,清算の結了等,,,2015-10-05,1,,,,,ビルサポート,0
457,2120001232347,登記記録の閉鎖等,0,2025-06-06,2025-05-26,ビズキューブ株式会社,,株式会社,大阪府,大阪市平野区,平野東１丁目８番６号,,27,126,5470043,,,2025-05-26,清算の結了等,,,2020-10-09,1,,,,,ビズキューブ,0
478,2120102022597,登記記録の閉鎖等,0,2025-06-06,2025-06-04,有限会社サン・エー,,有限会社,大阪府,岸和田市,土生滝町５３０番地,,27,202,5960844,,,2025-06-04,清算の結了等,,,2015-10-05,1,,,,,サンエー,0
479,2120105007570,登記記録の閉鎖等,0,2025-06-06,2025-06-04,一般社団法人ねんりん会,,その他の設立登記法人,大阪府,泉佐野市,下瓦屋３丁目１番１９号,,27,213,5980062,,,2025-06-04,清算の結了等,,,2015-10-05,1,,,,,ネンリンカイ,0
482,2122001031002,登記記録の閉鎖等,0,2025-06-06,2025-06-05,株式会社Ｒｈ,,株式会社,奈良県,大和高田市,北本町１２番１５号,,29,202,6350097,,,2025-06-05,清算の結了等,,,2017-10-04,1,,,,,アールエイチ,0
487,2130001063980,登記記録の閉鎖等,0,2025-06-06,2025-05-29,株式会社Ｃ,,株式会社,大阪府,大阪市中央区,西心斎橋１丁目８－９－３Ｆ,,27,128,5420086,,,2025-05-29,清算の結了等,,,2019-02-28,1,,,,,シー,0
495,2140002060142,登記記録の閉鎖等,0,2025-06-06,2025-05-29,有限会社木津商店,,有限会社,兵庫県,西宮市,岡田山３番１７号,,28,204,6620827,,,2025-05-29,清算の結了等,,,2015-10-05,1,,,,,キヅショウテン,0
514,2180302000050,登記記録の閉鎖等,0,2025-06-06,2025-06-02,有限会社小島屋ラヂオ商会,,有限会社,愛知県,岡崎市,能見町１１６番地,,23,202,4440061,,,2025-06-02,清算の結了等,,,2015-10-05,1,,,,,コジマヤラヂオショウカイ,0
534,2250002015853,登記記録の閉鎖等,0,2025-06-06,2025-06-04,有限会社林鮮魚店,,有限会社,山口県,下松市,駅南２丁目５番１０号,,35,207,7440007,,,2025-06-04,清算の結了等,,,2015-10-05,1,,,,,ハヤシセンギヨテン,0
536,2260001030043,登記記録の閉鎖等,0,2025-06-06,2025-06-02,株式会社植田工業,,株式会社,岡山県,岡山市南区,あけぼの町３４番３号,,33,104,7028057,,,2025-06-02,清算の結了等,,,2016-10-11,1,,,,,ウエダコウギョウ,0
539,2260002001844,登記記録の閉鎖等,0,2025-06-06,2025-06-02,岡山メナード販売有限会社,,有限会社,岡山県,岡山市北区,野田屋町２丁目２番２０号,,33,101,7000815,,,2025-06-02,清算の結了等,,,2015-10-05,1,,,,,オカヤマメナードハンバイ,0
569,2430001010259,登記記録の閉鎖等,0,2025-06-06,2025-06-05,狸小路山県薬局株式会社,,株式会社,北海道,札幌市白石区,平和通２丁目北８番１９号,,01,104,0030029,,,2025-06-05,清算の結了等,,,2015-10-05,1,,,,,タヌキコウジヤマガタヤッキョク,0
576,2430002041385,登記記録の閉鎖等,0,2025-06-06,2025-06-02,有限会社札幌コンサルティング,,有限会社,北海道,札幌市中央区,北二条西２８丁目１番１４号,,01,101,0640822,,,2025-06-02,清算の結了等,,,2015-10-05,1,,,,,サッポロコンサルティング,0
577,2430003004886,登記記録の閉鎖等,0,2025-06-06,2025-05-29,合同会社オリエンタルプランニング,,合同会社,北海道,札幌市中央区,南二十四条西１４丁目１番３８－４０８号,,01,101,0640924,,,2025-05-29,清算の結了等,,,2015-10-05,1,,,,,オリエンタルプランニング,0
595,3010001243874,登記記録の閉鎖等,0,2025-06-06,2025-04-24,東京オーシャン貿易株式会社,,株式会社,東京都,千代田区,神田平河町１番地第３東ビル６ＦイーオフィスＡＫＩＢＡ３番館４３号室,,13,101,1010027,,,2025-04-24,清算の結了等,,,2024-04-15,1,,,,,トウキョウオーシャンボウエキ,0
626,3011001137190,登記記録の閉鎖等,0,2025-06-06,2025-05-29,株式会社ディーンアンドデルーカ・スポット,,株式会社,東京都,目黒区,碑文谷５丁目１１番１１号,,13,110,1520003,,,2025-05-29,清算の結了等,,,2020-11-30,1,,,,,ディーンアンドデルーカスポット,0
642,3011503003535,登記記録の閉鎖等,0,2025-06-06,2025-06-02,ＦＤアセット合同会社,,合同会社,東京都,北区,西ケ原４丁目３番５号,,13,117,1140024,,,2025-06-02,合併による解散等,3011501019657,令和７年５月３１日東京都北区西ケ原四丁目３番５号フローデザイン株式会社（3011501019657）に合併し解散,2018-02-15,1,,,,,エフディーアセット,0
660,3020001091521,登記記録の閉鎖等,0,2025-06-06,2025-06-03,株式会社プランテック,,株式会社,神奈川県,川崎市高津区,久末６９７番地３,,14,134,2130026,,,2025-06-03,清算の結了等,,,2015-10-05,1,,,,,プランテック,0
673,3021001080712,登記記録の閉鎖等,0,2025-06-06,2025-06-02,株式会社フラットウェル,,株式会社,神奈川県,鎌倉市,十二所９６７番地５３,,14,204,2480001,,,2025-06-02,清算の結了等,,,2023-11-13,1,,,,,フラットウエル,0
682,3030001048165,登記記録の閉鎖等,0,2025-06-06,2025-05-19,トリニティ株式会社,,株式会社,埼玉県,新座市,東北２丁目１４番１７号,,11,230,3520001,,,2025-05-19,合併による解散等,3010001242447,令和７年５月１日東京都千代田区丸の内二丁目４番１号ＡＢ５Ａ２４０１株式会社（3010001242447）に合併し解散,2015-10-05,1,,,,,トリニティ,0
687,3030001106039,登記記録の閉鎖等,0,2025-06-06,2025-06-02,株式会社アールエフワークス,,株式会社,埼玉県,新座市,あたご３丁目８番１３号テラスあたご２・１Ｆ,,11,230,3520021,,,2025-06-02,清算の結了等,,,2015-10-05,1,,,,,アールエフワークス,0
688,3030001124726,登記記録の閉鎖等,0,2025-06-06,2025-06-02,西光株式会社,,株式会社,埼玉県,さいたま市大宮区,宮町２丁目７９番地７プラスビル６階,,11,103,3300802,,,2025-06-02,清算の結了等,,,2018-03-19,1,,,,,セイコウ,0
700,3030003006336,登記記録の閉鎖等,0,2025-06-06,2025-06-02,合同会社ＢＦコンサル,,合同会社,埼玉県,越谷市,東越谷５丁目８番地２６,,11,222,3430023,,,2025-06-02,清算の結了等,,,2015-10-05,1,,,,,ビーエフコンサル,0
712,3060001033890,登記記録の閉鎖等,0,2025-06-06,2025-06-03,株式会社ＨＡＤ,,株式会社,栃木県,宇都宮市,清原台４丁目２０番１５号,,09,201,3213223,,,2025-06-03,清算の結了等,,,2021-07-08,1,,,,,エイチエイディ,0
717,3070001010699,登記記録の閉鎖等,0,2025-06-06,2025-06-02,株式会社大洋,,株式会社,群馬県,高崎市,八幡町４３２番地３,,10,202,3700884,,,2025-06-02,清算の結了等,,,2015-10-05,1,,,,,タイヨウ,0
718,3070001031217,登記記録の閉鎖等,0,2025-06-06,2025-06-02,株式会社アール,,株式会社,群馬県,前橋市,元総社町２丁目３１番地３４,,10,201,3710846,,,2025-06-02,清算の結了等,,,2015-10-05,1,,,,,アール,0
726,3080103001067,登記記録の閉鎖等,0,2025-06-06,2025-06-03,合同会社カシミヤ,,合同会社,静岡県,沼津市,沢田町２番１号,,22,203,4100052,,,2025-06-03,清算の結了等,,,2015-10-05,1,,,,,カシミヤ,0
728,3080105005347,登記記録の閉鎖等,0,2025-06-06,2025-06-02,特定非営利活動法人日本教育研究機構,,その他の設立登記法人,静岡県,沼津市,高島町６番１３号沼津駅北口ビル４階,,22,203,4100056,,,2025-06-02,清算の結了等,,,2015-10-05,1,,,,,ニホンキョウイクケンキュウキコウ,0
750,3120002026986,登記記録の閉鎖等,0,2025-06-06,2025-05-29,有限会社コスモ技術研究所,,有限会社,大阪府,大阪市淀川区,西中島４丁目３番４号チサンマンション第６新大阪内,,27,123,5320011,,,2025-05-29,清算の結了等,,,2015-10-05,1,,,,,コスモギジュツケンキュウショ,0
751,3120003018215,登記記録の閉鎖等,0,2025-06-06,2025-05-29,ＨＡＲＵＴＡ　ＴＲＡＤＩＮＧ合同会社,,合同会社,大阪府,大阪市住吉区,長居西２丁目５番２３号,,27,120,5580002,,,2025-05-29,清算の結了等,,,2020-10-08,1,,,,,ハルタトレーディング,0
754,3120005019574,登記記録の閉鎖等,0,2025-06-06,2025-06-05,特定非営利活動法人此花まちづくり育成会,,その他の設立登記法人,大阪府,大阪市此花区,朝日２丁目１７番２号,,27,104,5540011,,,2025-06-05,清算の結了等,,,2017-07-18,1,,,,,コノハナマチヅクリイクセイカイ,0
763,3120901038685,登記記録の閉鎖等,0,2025-06-06,2025-06-03,株式会社ユアピース,,株式会社,大阪府,茨木市,西駅前町１３番２５,,27,211,5670032,,,2025-06-03,合併による解散等,6030001066965,令和７年５月１日埼玉県北葛飾郡松伏町築比地７９５番地１株式会社ウィーズ（6030001066965）に合併し解散,2017-07-10,1,,,,,,0
766,3120905002167,登記記録の閉鎖等,0,2025-06-06,2025-05-16,天理教南氷室分教会,,その他の設立登記法人,大阪府,高槻市,氷室町２丁目２４番６号,,27,207,5691141,,,2025-05-16,合併による解散等,1120005000494,令和７年５月１５日大阪市阿倍野区昭和町四丁目７番１４号天理教南大教会（1120005000494）に合併し解散,2015-10-05,1,,,,,テンリキョウミナミヒムロブンキョウカイ,0
782,3160001012868,登記記録の閉鎖等,0,2025-06-06,2025-06-02,滋賀日万株式会社,,株式会社,滋賀県,草津市,笠山１丁目２番５５号,,25,206,5250072,,,2025-06-02,清算の結了等,,,2015-10-05,1,,,,,シガニチマン,0
785,3180001058620,登記記録の閉鎖等,0,2025-06-06,2025-06-03,株式会社ＤＡＩＭＯＮ,,株式会社,愛知県,名古屋市中村区,名駅３丁目２３番１６号タキビル１階,,23,105,4500002,,,2025-06-03,合併による解散等,1190001000566,令和７年６月１日三重県津市納所町１２５番地の１株式会社ＤＡＩＭＯＮ（1190001000566）に合併し解散,2015-10-05,1,,,,,,0
795,3200002010305,登記記録の閉鎖等,0,2025-06-06,2025-06-04,有限会社あさせ,,有限会社,岐阜県,羽島市,福寿町浅平３丁目４８番地,,21,209,5016255,,,2025-06-04,清算の結了等,,,2015-10-05,1,,,,,アサセ,0
797,3200003006434,登記記録の閉鎖等,0,2025-06-06,2025-05-30,合同会社ＬＧＤ,,合同会社,岐阜県,安八郡安八町,北今ケ渕７０番地５,,21,383,5030113,,,2025-05-30,清算の結了等,,,2024-07-19,1,,,,,エルジーデー,0
801,3210001017374,登記記録の閉鎖等,0,2025-06-06,2025-06-04,ついてるニコニコ商店田中屋株式会社,,株式会社,福井県,敦賀市,三島３２号１９番地,,18,202,9140000,,,2025-06-04,清算の結了等,,,2018-12-21,1,,,,,ツイテルニコニコショウテンタナカヤ,0
813,3240002050025,登記記録の閉鎖等,0,2025-06-06,2025-06-02,有限会社因島給食センター,,有限会社,広島県,尾道市,因島中庄町２４３０番地の４,,34,205,7222211,,,2025-06-02,清算の結了等,,,2015-10-05,1,,,,,インノシマキュウショク,0
829,3290802006139,登記記録の閉鎖等,0,2025-06-06,2025-06-02,有限会社松崎組,,有限会社,福岡県,北九州市小倉南区,八幡町７番８号,,40,107,8020805,,,2025-06-02,清算の結了等,,,2015-10-05,1,,,,,マツザキグミ,0
831,3290805000758,登記記録の閉鎖等,0,2025-06-06,2025-06-03,協同組合北九州舗装協会,,その他の設立登記法人,福岡県,北九州市小倉北区,今町３丁目１７番２９号,,40,106,8030862,,,2025-06-03,清算の結了等,,,2015-10-05,1,,,,,キタキュウシュウホソウキョウカイ,0
842,3350001009432,登記記録の閉鎖等,0,2025-06-06,2025-05-30,久重アパート株式会社,,株式会社,宮崎県,日南市,岩崎３丁目３番１－１０１号,,45,204,8870014,,,2025-05-30,清算の結了等,,,2015-10-05,1,,,,,クジュウアパート,0
861,3380002029542,登記記録の閉鎖等,0,2025-06-06,2025-05-29,有限会社真弓製作所,,有限会社,福島県,相馬郡新地町,大字真弓字薬師２７番地,,07,561,9792707,,,2025-05-29,清算の結了等,,,2015-10-05,1,,,,,マユミセイサクショ,0
873,3450005002183,登記記録の閉鎖等,0,2025-06-06,2025-05-21,宗教法人総玄寺,,その他の設立登記法人,北海道,空知郡南富良野町,字落合,,01,462,0792551,,,2025-05-21,合併による解散等,7450005002221,令和７年５月２１日北海道勇払郡占冠村字双珠別基線１１番地了古院（7450005002221）に合併し解散,2015-10-05,1,,,,,ソウゲンジ,0
886,3500002005167,登記記録の閉鎖等,0,2025-06-06,2025-06-02,ニチボウ商事有限会社,,有限会社,愛媛県,松山市,吉藤２丁目１４番１９号,,38,201,7918011,,,2025-06-02,清算の結了等,,,2015-10-05,1,,,,,ニチボウショウジ,0
915,4010401083465,登記記録の閉鎖等,0,2025-06-06,2025-05-14,株式会社フューチャーＩＴアーキテクト,,株式会社,東京都,港区,三田１丁目６番３号,,13,103,1080073,,,2025-05-14,合併による解散等,6010601039190,令和７年４月１１日東京都千代田区九段南三丁目９番１１号株式会社フィナンシャルブレイズ（6010601039190）に合併し解散,2015-10-05,1,,,,,フューチャーアイティーアーキテクト,0
931,4011001040682,登記記録の閉鎖等,0,2025-06-06,2025-05-13,株式会社ウェアーズ,,株式会社,東京都,渋谷区,神宮前３丁目５番７号,,13,113,1500001,,,2025-05-13,清算の結了等,,,2015-10-05,1,,,,,ウェアーズ,0
943,4011101098786,登記記録の閉鎖等,0,2025-06-06,2025-05-19,Ｍ．Ｃ　Ｔｒａｄｅ株式会社,,株式会社,東京都,新宿区,大京町１２番地１２の１メゾン横井１０１,,13,104,1600015,,,2025-05-19,清算の結了等,,,2022-05-12,1,,,,,エムシートレード,0
946,4011102004801,登記記録の閉鎖等,0,2025-06-06,2025-05-19,有限会社琴黒潮,,有限会社,東京都,新宿区,神楽坂３丁目６番３号ヒルトップビル１階,,13,104,1620825,,,2025-05-19,清算の結了等,,,2015-10-05,1,,,,,コトクロシオ,0
951,4011401021753,登記記録の閉鎖等,0,2025-06-06,2025-06-03,損保代理店ビジネスサポート株式会社,,株式会社,東京都,板橋区,南町２４番１号２階,,13,119,1730027,,,2025-06-03,清算の結了等,,,2019-04-12,1,,,,,ソンポダイリテンビジネスサポート,0
952,4011501000343,登記記録の閉鎖等,0,2025-06-06,2025-06-02,イーピーイ・インターナショナル株式会社,,株式会社,東京都,荒川区,西日暮里２丁目５７番５号,,13,118,1160013,,,2025-06-02,合併による解散等,1011501005428,令和７年５月３１日東京都荒川区西日暮里二丁目５７番５号株式会社イーピーイ（1011501005428）に合併し解散,2015-10-05,1,,,,,イーピーイインターナショナル,0
959,4011801017830,登記記録の閉鎖等,0,2025-06-06,2025-06-02,株式会社優育スクール,,株式会社,東京都,葛飾区,四つ木５丁目７番６号,,13,122,1240011,,,2025-06-02,清算の結了等,,,2015-10-05,1,,,,,スウイクスクール,0
975,4021001034799,登記記録の閉鎖等,0,2025-06-06,2025-06-04,株式会社浅木工業,,株式会社,神奈川県,足柄下郡湯河原町,土肥２丁目７番地の８タウンコート井上１０１,,14,384,2590303,,,2025-06-04,清算の結了等,,,2015-10-05,1,,,,,アサキコウギョウ,0
981,4021003010567,登記記録の閉鎖等,0,2025-06-06,2025-06-05,合同会社養殖技研,,合同会社,神奈川県,小田原市,曽比１４５４番地２,,14,206,2500851,,,2025-06-05,清算の結了等,,,2021-06-11,1,,,,,ヨウショクギケン,0
1010,4060002031018,登記記録の閉鎖等,0,2025-06-06,2025-06-03,有限会社エフコンサルタント,,有限会社,栃木県,下野市,小金井１３４６番地７,,09,216,3290414,,,2025-06-03,清算の結了等,,,2015-10-05,1,,,,,エフコンサルタント,0
1020,4080102008013,登記記録の閉鎖等,0,2025-06-06,2025-06-03,有限会社イイダ電気工業所,,有限会社,静岡県,伊豆市,牧之郷５１９番地の１,,22,222,4102401,,,2025-06-03,清算の結了等,,,2015-10-05,1,,,,,イイダデンキコウギョウショ,0
1027,4120001168903,登記記録の閉鎖等,0,2025-06-06,2025-06-02,株式会社オンザマーク,,株式会社,大阪府,大阪市中央区,南本町１丁目５－１,,27,128,5410054,,,2025-06-02,清算の結了等,,,2015-10-05,1,,,,,オンザマーク,0
1028,4120001186145,登記記録の閉鎖等,0,2025-06-06,2025-05-29,株式会社Ｓｍｉｌｅ　Ｖｏｙａｇｅ,,株式会社,大阪府,大阪市中央区,伏見町１丁目１番１号,,27,128,5410044,,,2025-05-29,清算の結了等,,,2015-10-05,1,,,,,,0
1069,4150001024582,登記記録の閉鎖等,0,2025-06-06,2025-06-05,株式会社Ａｎ,,株式会社,奈良県,大和高田市,北本町１２番１５号,,29,202,6350097,,,2025-06-05,清算の結了等,,,2021-04-20,1,,,,,エーエヌ,0
1071,4160001010318,登記記録の閉鎖等,0,2025-06-06,2025-06-02,株式会社ヨシノヤ,,株式会社,滋賀県,蒲生郡日野町,大字上野田１６７番地の１,,25,383,5291642,,,2025-06-02,清算の結了等,,,2015-10-05,1,,,,,ヨシノヤ,0
1084,4180302015385,登記記録の閉鎖等,0,2025-06-06,2025-05-30,有限会社小久江鉄工所,,有限会社,愛知県,蒲郡市,拾石町木ノ前３番地の３,,23,214,4430038,,,2025-05-30,清算の結了等,,,2015-10-05,1,,,,,コクエテッコウショ,0
1092,4210001016433,登記記録の閉鎖等,0,2025-06-06,2025-06-04,株式会社トラディス,,株式会社,福井県,小浜市,和久里第９号１番地の２５,,18,204,9170024,,,2025-06-04,清算の結了等,,,2016-08-05,1,,,,,トラディス,0
1096,4220001011318,登記記録の閉鎖等,0,2025-06-06,2025-06-04,ＫＳＣコーポレーション株式会社,,株式会社,石川県,白山市,相木町１００番地５,,17,210,9240022,,,2025-06-04,清算の結了等,,,2015-10-05,1,,,,,ケーエスシーコーポレーション,0
1105,4240001011596,登記記録の閉鎖等,0,2025-06-06,2025-06-03,株式会社未来,,株式会社,広島県,広島市中区,河原町４番１２－２０１号,,34,101,7300856,,,2025-06-03,清算の結了等,,,2015-10-05,1,,,,,ミキ,0
1110,4240005003037,登記記録の閉鎖等,0,2025-06-06,2025-06-03,特定非営利活動法人障害者支援センター明星,,その他の設立登記法人,広島県,広島市佐伯区,五日市中央７丁目１１番７号,,34,108,7315128,,,2025-06-03,清算の結了等,,,2015-10-05,1,,,,,ショウガイシャシエンセンターミョウジョウ,0
1128,4290002001658,登記記録の閉鎖等,0,2025-06-06,2025-06-02,有限会社オートテラス福岡,,有限会社,福岡県,福岡市南区,長丘５丁目２４番３号,,40,134,8150075,,,2025-06-02,清算の結了等,,,2015-10-05,1,,,,,オートテラスフクオカ,0
1154,4390002001557,登記記録の閉鎖等,0,2025-06-06,2025-05-29,有限会社武田銀四郎商店,,有限会社,山形県,山形市,宮町１丁目１番７９号,,06,201,9900057,,,2025-05-29,清算の結了等,,,2015-10-05,1,,,,,タケダギンシロウショウテン,0
1173,5010001242016,登記記録の閉鎖等,0,2025-06-06,2025-05-20,株式会社ラナ・ソリューションズ,,株式会社,東京都,千代田区,神田岩本町一丁目１番岩本町ビル７４,,13,101,1010033,,,2025-05-20,清算の結了等,,,2024-02-02,1,,,,,ラナソリューションズ,0
1196,5010403014120,登記記録の閉鎖等,0,2025-06-06,2025-05-12,ノースイースト・ホスピタリティ・キャリアマネジメント合同会社,,合同会社,東京都,港区,虎ノ門５丁目１番５号,,13,103,1050001,,,2025-05-12,清算の結了等,,,2015-11-30,1,,,,,ノースイーストホスピタリティキャリアマネジメント,0
1229,5011502006512,登記記録の閉鎖等,0,2025-06-06,2025-06-03,有限会社ワークショップワイ,,有限会社,東京都,北区,赤羽台１丁目６番５２－４０５号,,13,117,1150053,,,2025-06-03,清算の結了等,,,2015-10-05,1,,,,,,0
1247,5013405000071,登記記録の閉鎖等,0,2025-06-06,2025-06-03,町田青果商業協同組合,,その他の設立登記法人,東京都,多摩市,永山７丁目４番地,,13,224,2060025,,,2025-06-03,清算の結了等,,,2015-10-05,1,,,,,マチダセイカショウギョウ,0
1249,5020001095074,登記記録の閉鎖等,0,2025-06-06,2025-06-02,株式会社ＭＳテクノロジー,,株式会社,神奈川県,横浜市港北区,日吉本町２丁目６４番４－１４０２号,,14,109,2230062,,,2025-06-02,清算の結了等,,,2015-10-05,1,,,,,エムエステクノロジー,0
1255,5020002034782,登記記録の閉鎖等,0,2025-06-06,2025-06-02,有限会社ティ・エヌプロジェクト,,有限会社,神奈川県,横浜市港北区,小机町３５０番地１１カサベルデ横浜Ａ２０１,,14,109,2220036,,,2025-06-02,清算の結了等,,,2015-10-05,1,,,,,ティエヌプロジェクト,0
1274,5030002080165,登記記録の閉鎖等,0,2025-06-06,2025-06-02,有限会社暮らしの映像社,,有限会社,埼玉県,川越市,かわつる三芳野１番地,,11,201,3501177,,,2025-06-02,清算の結了等,,,2015-10-05,1,,,,,クラシノエイゾウシャ,0
1291,5050005009746,登記記録の閉鎖等,0,2025-06-06,2025-06-03,特定非営利活動法人紫峰筑波,,その他の設立登記法人,茨城県,つくばみらい市,小絹１６０番地,,08,235,3002445,,,2025-06-03,清算の結了等,,,2015-10-05,1,,,,,シホウツクバ,0
1300,5070002015241,登記記録の閉鎖等,0,2025-06-06,2025-06-02,有限会社Ｋ・リアルエステート,,有限会社,群馬県,高崎市,萩原町１１６０番地,,10,202,3700013,,,2025-06-02,清算の結了等,,,2015-10-05,1,,,,,ケーリアルエステート,0
1312,5120001235644,登記記録の閉鎖等,0,2025-06-06,2025-05-29,株式会社アユムテラス,,株式会社,大阪府,大阪市福島区,鷺洲１丁目８番３５号,,27,103,5530002,,,2025-05-29,清算の結了等,,,2021-03-03,1,,,,,アユムテラス,0
1313,5120001261863,登記記録の閉鎖等,0,2025-06-06,2025-05-30,Ｈ＆Ｃ国際株式会社,,株式会社,大阪府,大阪市淀川区,西宮原３丁目２番１－６１９号新大阪ビジネス第２ニッケンマンション,,27,123,5320004,,,2025-05-30,清算の結了等,,,2024-01-31,1,,,,,エイチアンドシーコクサイ,0
1319,5120003020895,登記記録の閉鎖等,0,2025-06-06,2025-05-29,合同会社ＢＨＴ,,合同会社,大阪府,大阪市此花区,伝法６丁目３－１６３８,,27,104,5540002,,,2025-05-29,清算の結了等,,,2022-01-19,1,,,,,ビィエイチティイ,0
1327,5120901020311,登記記録の閉鎖等,0,2025-06-06,2025-06-02,株式会社青海精機製作所,,株式会社,大阪府,箕面市,白島２丁目９番１４号,,27,220,5620012,,,2025-06-02,清算の結了等,,,2015-10-05,1,,,,,オウミセイキセイサクショ,0
1343,5150005002848,登記記録の閉鎖等,0,2025-06-06,2025-06-04,特定非営利活動法人清澄の村,,その他の設立登記法人,奈良県,奈良市,高樋町８４３番地,00043829,29,201,6308411,,,2025-06-04,清算の結了等,,,2015-10-05,1,,,,,キヨスミノムラ,0
1351,5180001000027,登記記録の閉鎖等,0,2025-06-06,2025-06-02,株式会社アイテツエファー,,株式会社,愛知県,名古屋市守山区,鳥羽見２丁目２０番２５号,,23,113,4630076,,,2025-06-02,合併による解散等,7180001001493,令和７年６月１日名古屋市名東区社台一丁目６７番地の３株式会社アイテツ（7180001001493）に合併し解散,2015-10-05,1,,,,,アイテツエファー,0
1361,5180301018644,登記記録の閉鎖等,0,2025-06-06,2025-06-02,立石石油株式会社,,株式会社,愛知県,豊田市,丸山町５丁目１０番地,,23,211,4710832,,,2025-06-02,清算の結了等,,,2015-10-05,1,,,,,タテイシセキユ,0
1364,5180302026984,登記記録の閉鎖等,0,2025-06-06,2025-05-21,有限会社若松屋薬舗,,有限会社,愛知県,西尾市,一色町一色中屋敷１０７番地,,23,213,4440423,,,2025-05-21,清算の結了等,,,2015-10-05,1,,,,,ワカマツヤヤクホ,0
1369,5210002010731,登記記録の閉鎖等,0,2025-06-06,2025-06-03,有限会社ムトウ設備,,有限会社,福井県,敦賀市,野坂４３号１番地の２６,,18,202,9140145,,,2025-06-03,清算の結了等,,,2015-10-05,1,,,,,ムトウセツビ,0
1377,5240001011562,登記記録の閉鎖等,0,2025-06-06,2025-06-02,宮田油業株式会社,,株式会社,広島県,広島市南区,段原日出２丁目３番２０号,,34,103,7320818,,,2025-06-02,合併による解散等,2240001005971,令和７年６月１日広島市南区段原日出二丁目３番２０号株式会社ＴＡＩＳＥＩ（2240001005971）に合併し解散,2015-10-05,1,,,,,ミヤタユギョウ,0
1378,5240001017824,登記記録の閉鎖等,0,2025-06-06,2025-06-02,株式会社なかもと,,株式会社,広島県,広島市中区,東千田町１丁目１番１０４－３－１００７号,,34,101,7300053,,,2025-06-02,清算の結了等,,,2015-10-05,1,,,,,ナカモト,0
1379,5240001032022,登記記録の閉鎖等,0,2025-06-06,2025-05-23,株式会社ブレイン,,株式会社,広島県,福山市,春日町吉田９９９番地の１,,34,207,7210908,,,2025-05-23,清算の結了等,,,2015-10-05,1,,,,,ブレイン,0
1383,5240002011256,登記記録の閉鎖等,0,2025-06-06,2025-06-02,有限会社東部産業,,有限会社,広島県,広島市東区,牛田新町３丁目１３番２号,,34,102,7320068,,,2025-06-02,清算の結了等,,,2015-10-05,1,,,,,トウブサンギョウ,0
1402,5320001012453,登記記録の閉鎖等,0,2025-06-06,2025-06-02,株式会社ダイキ,,株式会社,京都府,京都市伏見区,横大路菅本２番地１９ＢＯＳＳＢＵＩＬＤＩＮＧ４０９号,,26,109,6128251,,,2025-06-02,清算の結了等,,,2015-10-05,1,,,,,ダイキ,0
1421,5430001075522,登記記録の閉鎖等,0,2025-06-06,2025-06-02,株式会社ＣＩＮ．ｃｏ,,株式会社,北海道,札幌市北区,北三十八条西２丁目２番１７号,,01,102,0010038,,,2025-06-02,合併による解散等,7430001060927,令和７年６月１日札幌市手稲区西宮の沢五条一丁目１３番１０号株式会社Ｒｅｇｉｏｎａｌ　Ｃｒｅａｔｉｏｎ　Ｃａｒｅ（7430001060927）に合併し解散,2017-12-18,1,,,,,シーアイエヌコーポ,0
1424,5430003012036,登記記録の閉鎖等,0,2025-06-06,2025-06-02,合同会社円山産業,,合同会社,北海道,札幌市中央区,北七条西２６丁目１番１０－５０１号,,01,101,0600007,,,2025-06-02,清算の結了等,,,2020-10-12,1,,,,,マルヤマサンギョウ,0
1428,5470005006437,登記記録の閉鎖等,0,2025-06-06,2025-06-03,特定非営利活動法人Ｈａｎｄ　ｉｎ　Ｈａｎｄ,,その他の設立登記法人,香川県,丸亀市,飯山町東小川１０７２番地１,,37,202,7620085,,,2025-06-03,清算の結了等,,,2022-04-18,1,,,,,ハンドインハンド,0
1440,6010003038816,登記記録の閉鎖等,0,2025-06-06,2025-05-19,合同会社フィエスタ,,合同会社,東京都,文京区,湯島３丁目３９番１０号第２大和ビル６階,,13,105,1130034,,,2025-05-19,清算の結了等,,,2022-10-05,1,,,,,フィエスタ,0
1445,6010005022470,登記記録の閉鎖等,0,2025-06-06,2025-06-04,山佐産業ＭＵ１一般社団法人,,その他の設立登記法人,東京都,千代田区,丸の内１丁目４番１号東京共同会計事務所内,,13,101,1000005,,,2025-06-04,清算の結了等,,,2015-10-05,1,,,,,ヤマササンギョウエムユーイチ,0
1455,6010401149181,登記記録の閉鎖等,0,2025-06-06,2025-05-13,Ｏｄｏｎａｔｅ　Ｔｈｅｒａｐｅｕｔｉｃｓ　Ｊａｐａｎ株式会社,,株式会社,東京都,港区,六本木１丁目９番１０号アークヒルズ仙石山森タワー２８階ベーカー＆マッケンジー法律事務所（外国法共同事業）内,,13,103,1060032,,,2025-05-13,清算の結了等,,,2019-11-14,1,,,,,オドネートセラピューティクスジャパン,0
1492,6011003016290,登記記録の閉鎖等,0,2025-06-06,2025-05-02,合同会社スピード,,合同会社,東京都,渋谷区,円山町５番４号フィールＡ渋谷１３１０,,13,113,1500044,,,2025-05-02,清算の結了等,,,2023-02-16,1,,,,,スピード,0
1520,6012701009742,登記記録の閉鎖等,0,2025-06-06,2025-06-02,株式会社Ａｉ教研,,株式会社,東京都,練馬区,関町南２丁目２４番６号メインステイ関町１０３,,13,120,1770053,,,2025-06-02,清算の結了等,,,2015-10-05,1,,,,,エーアイキョウケン,0
1530,6020001041259,登記記録の閉鎖等,0,2025-06-06,2025-06-02,株式会社ワールドトレーダーズ,,株式会社,神奈川県,横浜市青葉区,美しが丘西２丁目３２番地２０,,14,117,2250001,,,2025-06-02,清算の結了等,,,2015-10-05,1,,,,,ワールドトレーダーズ,0
1538,6021001030821,登記記録の閉鎖等,0,2025-06-06,2025-06-02,株式会社イチゴ企画,,株式会社,神奈川県,相模原市緑区,大島６６７番地１１,,14,151,2520135,,,2025-06-02,清算の結了等,,,2015-10-05,1,,,,,イチゴキカク,0
1540,6021001055686,登記記録の閉鎖等,0,2025-06-06,2025-06-02,相模Ｒ不動産株式会社,,株式会社,神奈川県,相模原市中央区,小山３丁目２４番７号,,14,152,2520205,,,2025-06-02,清算の結了等,,,2015-10-05,1,,,,,サガミアールフドウサン,0
1546,6030001111102,登記記録の閉鎖等,0,2025-06-06,2025-06-02,佑都株式会社,,株式会社,埼玉県,越谷市,大字大里５０８番地３ケイシービル１Ｆ,,11,222,3430031,,,2025-06-02,清算の結了等,,,2015-10-27,1,,,,,ユウト,0
1557,6030002028205,登記記録の閉鎖等,0,2025-06-06,2025-06-02,有限会社イソガイ商事,,有限会社,埼玉県,所沢市,大字上安松８８番地４,,11,208,3590025,,,2025-06-02,清算の結了等,,,2015-10-05,1,,,,,イソガイショウジ,0
1558,6030002052741,登記記録の閉鎖等,0,2025-06-06,2025-06-02,有限会社高谷エンジニアリング,,有限会社,埼玉県,草加市,吉町２丁目５番地１２レーベンハイム草加サザンコート１０３号,,11,221,3400017,,,2025-06-02,清算の結了等,,,2015-10-05,1,,,,,タカタニエンジニアリング,0
1566,6030005005614,登記記録の閉鎖等,0,2025-06-06,2025-05-22,天理教玉王分教会,,その他の設立登記法人,埼玉県,草加市,高砂２丁目２番２０号,,11,221,3400015,,,2025-05-22,合併による解散等,3011505000241,令和７年５月１９日東京都北区堀船三丁目３７番１２号天理教東郷分教会（3011505000241）に合併し解散,2015-10-05,1,,,,,テンリキョウギョクオウブンキョウカイ,0
1573,6040001106101,登記記録の閉鎖等,0,2025-06-06,2025-05-22,株式会社オフィス五十嵐,,株式会社,千葉県,野田市,花井３５７番地の１８,,12,208,2780026,,,2025-05-22,清算の結了等,,,2018-09-18,1,,,,,オフィスイガラシ,0
1592,6100002037628,登記記録の閉鎖等,0,2025-06-06,2025-06-03,有限会社米山製菓,,有限会社,長野県,飯田市,白山町２丁目６９１４番地の７,,20,205,3950076,,,2025-06-03,清算の結了等,,,2015-10-05,1,,,,,ヨネヤマセイカ,0
1613,6120101046866,登記記録の閉鎖等,0,2025-06-06,2025-06-02,株式会社カラダラン,,株式会社,大阪府,和泉市,和気町２丁目３番３－２０５号,,27,219,5940073,,,2025-06-02,清算の結了等,,,2015-10-05,1,,,,,カラダラン,0
1622,6122001005489,登記記録の閉鎖等,0,2025-06-06,2025-06-02,株式会社ニチエイ,,株式会社,大阪府,東大阪市,柏田西２丁目３番２６号,,27,227,5770835,,,2025-06-02,清算の結了等,,,2015-10-05,1,,,,,ニチエイ,0
1623,6122001012584,登記記録の閉鎖等,0,2025-06-06,2025-05-29,株式会社横山パネル,,株式会社,大阪府,東大阪市,加納４丁目１５番４５号,,27,227,5780901,,,2025-05-29,清算の結了等,,,2015-10-05,1,,,,,ヨコヤマパネル,0
1636,6140001117096,登記記録の閉鎖等,0,2025-06-06,2025-06-02,ランドストーリー株式会社,,株式会社,兵庫県,神戸市兵庫区,大井通２丁目１番５号,,28,105,6520044,,,2025-06-02,清算の結了等,,,2020-04-06,1,,,,,ランドストーリー,0
1641,6140005005933,登記記録の閉鎖等,0,2025-06-06,2025-06-02,医療法人社団内薗眼科医院,,その他の設立登記法人,兵庫県,三木市,緑が丘町東１丁目８番地の１,,28,215,6730533,,,2025-06-02,清算の結了等,,,2015-10-05,1,,,,,ウチゾノガンカイイン,0
1647,6170002005520,登記記録の閉鎖等,0,2025-06-06,2025-06-04,有限会社エム・エイ・エス,,有限会社,和歌山県,紀の川市,貴志川町北山６３３－６,,30,208,6400402,,,2025-06-04,清算の結了等,,,2015-10-05,1,,,,,エムエイエス,0
1655,6190001008282,登記記録の閉鎖等,0,2025-06-06,2025-06-02,株式会社フォレスト幸,,株式会社,三重県,度会郡度会町,小萩８番地,,24,470,5161247,,,2025-06-02,清算の結了等,,,2015-10-05,1,,,,,フォレストミユキ,0
1685,6290001086731,登記記録の閉鎖等,0,2025-06-06,2025-05-01,株式会社Ｓ－ｓｔｙｌｅ,,株式会社,福岡県,福岡市中央区,警固２丁目１８番５号,,40,133,8100023,,,2025-05-01,合併による解散等,7290001013552,令和７年４月３０日福岡市中央区警固二丁目１８番５号株式会社三和美研（7290001013552）に合併し解散,2019-10-03,1,,,,,エススタイル,0
1711,6340001008985,登記記録の閉鎖等,0,2025-06-06,2025-05-30,株式会社諏訪園組,,株式会社,鹿児島県,いちき串木野市,大里２７８４番地１,,46,219,8992103,,,2025-05-30,清算の結了等,,,2015-10-05,1,,,,,スワゾノグミ,0
1715,6340005007521,登記記録の閉鎖等,0,2025-06-06,2025-05-27,特定非営利活動法人おおさき無門塾,,その他の設立登記法人,鹿児島県,曽於郡大崎町,益丸１３３７番地１,,46,468,8997303,,,2025-05-27,清算の結了等,,,2015-10-05,1,,,,,オオサキムモンジュク,0
1750,6500002013010,登記記録の閉鎖等,0,2025-06-06,2025-06-02,池田農園有限会社,,有限会社,愛媛県,西宇和郡伊方町,二見２１００番地,,38,442,7960422,,,2025-06-02,清算の結了等,,,2015-10-05,1,,,,,イケダノウエン,0
1767,7010005037253,登記記録の閉鎖等,0,2025-06-06,2025-06-03,一般社団法人大起,,その他の設立登記法人,東京都,中央区,築地４丁目４番１４号,,13,102,1040045,,,2025-06-03,清算の結了等,,,2023-09-12,1,,,,,タイキ,0
1839,7011802009766,登記記録の閉鎖等,0,2025-06-06,2025-06-02,有限会社板倉興業,,有限会社,東京都,足立区,東和５丁目５番２６号,,13,121,1200003,,,2025-06-02,清算の結了等,,,2015-10-05,1,,,,,イタクラコウギョウ,0
1841,7011803005541,登記記録の閉鎖等,0,2025-06-06,2025-06-02,Ｈｅｌｅｎａ合同会社,,合同会社,東京都,足立区,花畑４丁目２２番１０－２０１号,,13,121,1210061,,,2025-06-02,清算の結了等,,,2023-03-03,1,,,,,ヘレナ,0
1848,7012802011134,登記記録の閉鎖等,0,2025-06-06,2025-06-02,有限会社チームｗｉｆｅ,,有限会社,東京都,立川市,羽衣町２丁目６１番地８,,13,202,1900021,,,2025-06-02,清算の結了等,,,2015-10-05,1,,,,,チームワイフ,0
1853,7020001146156,登記記録の閉鎖等,0,2025-06-06,2025-06-02,株式会社ｓｈｏｋｕｕｕ,,株式会社,神奈川県,横浜市青葉区,荏田町２９７番地３－１２０,,14,117,2250013,,,2025-06-02,清算の結了等,,,2022-04-18,1,,,,,ショクー,0
1863,7030001022612,登記記録の閉鎖等,0,2025-06-06,2025-06-02,株式会社クライス,,株式会社,埼玉県,戸田市,本町５丁目９番１１号,,11,224,3350023,,,2025-06-02,清算の結了等,,,2015-10-05,1,,,,,クライス,0
1876,7030002090716,登記記録の閉鎖等,0,2025-06-06,2025-06-02,有限会社吉川団地園娯楽センター,,有限会社,埼玉県,吉川市,中央２丁目３１番地１,,11,243,3420061,,,2025-06-02,清算の結了等,,,2015-10-05,1,,,,,ヨシカワダンチエンゴラクセンター,0
1886,7040002000517,登記記録の閉鎖等,0,2025-06-06,2025-05-22,有限会社アスリー,,有限会社,千葉県,千葉市美浜区,打瀬２丁目１４番地パティオス１１番街４３０号,,12,106,2610013,,,2025-05-22,清算の結了等,,,2015-10-05,1,,,,,アスリー,0
1915,7120001213152,登記記録の閉鎖等,0,2025-06-06,2025-06-02,株式会社ｍｅｅｔＭｅ,,株式会社,大阪府,大阪市西区,西本町２丁目１番４１号,,27,106,5500005,,,2025-06-02,合併による解散等,3120001032515,令和７年６月１日大阪市西区西本町二丁目１番４１号株式会社共進ビルド（3120001032515）に合併し解散,2018-05-08,1,,,,,ミートミー,0
1952,7150003000876,登記記録の閉鎖等,0,2025-06-06,2025-06-04,合同会社さんかく,,合同会社,奈良県,奈良市,下御門町２８番地の１,,29,201,6308365,,,2025-06-04,清算の結了等,,,2015-10-05,1,,,,,サンカク,0
1958,7180001047974,登記記録の閉鎖等,0,2025-06-06,2025-05-15,株式会社オプトル,,株式会社,岩手県,花巻市,大畑第１０地割１０９番地,,03,205,0250303,,,2025-05-15,合併による解散等,1010001235849,令和７年４月１日東京都千代田区大手町一丁目１番１号花巻ホールディングス株式会社（1010001235849）に合併し解散,2015-10-05,1,,,,,オプトル,0
1969,7180002071585,登記記録の閉鎖等,0,2025-06-06,2025-05-30,大津重機有限会社,,有限会社,愛知県,瀬戸市,大坂町２８７番地,,23,204,4890867,,,2025-05-30,清算の結了等,,,2015-10-05,1,,,,,オオツジュウキ,0
1972,7180002084141,登記記録の閉鎖等,0,2025-06-06,2025-06-02,有限会社レンタカー知多,,有限会社,愛知県,半田市,出口町２丁目２２３番地の１,,23,205,4750903,,,2025-06-02,合併による解散等,7180001091997,令和７年６月１日愛知県半田市出口町二丁目２４７番地株式会社プレスト（7180001091997）に合併し解散,2015-10-05,1,,,,,レンタカーチタ,0
1975,7180302006638,登記記録の閉鎖等,0,2025-06-06,2025-06-02,有限会社江口金物店,,有限会社,愛知県,豊橋市,南大清水町字元町１００番地,,23,201,4418132,,,2025-06-02,清算の結了等,,,2015-10-05,1,,,,,エグチカナモノテン,0
1986,7230002010653,登記記録の閉鎖等,0,2025-06-06,2025-06-02,有限会社いずみ商事,,有限会社,富山県,高岡市,駅南４丁目９番１６号,,16,202,9330871,,,2025-06-02,清算の結了等,,,2015-10-05,1,,,,,イズミショウジ,0
1989,7240001054345,登記記録の閉鎖等,0,2025-06-06,2025-06-02,株式会社ＳＡＶＥ,,株式会社,広島県,三原市,深町１３１６番地２,,34,204,7230001,,,2025-06-02,清算の結了等,,,2019-05-10,1,,,,,セイブ,0
1993,7240005013017,登記記録の閉鎖等,0,2025-06-06,2025-06-03,農事組合法人大元ライスセンター,,その他の設立登記法人,広島県,世羅郡世羅町,大字黒川１３３４番地,,34,462,7296711,,,2025-06-03,清算の結了等,,,2015-10-05,1,,,,,オオモトライスセンター,0
2014,7290801029244,登記記録の閉鎖等,0,2025-06-06,2025-06-04,株式会社大成産業,,株式会社,福岡県,遠賀郡岡垣町,大字三吉３８３番３号,,40,383,8114205,,,2025-06-04,清算の結了等,,,2023-01-31,1,,,,,タイセイサンギョウ,0
2016,7290802011424,登記記録の閉鎖等,0,2025-06-06,2025-06-02,有限会社ます也,,有限会社,福岡県,北九州市小倉北区,金田１丁目３番３２－６０７号,,40,106,8030816,,,2025-06-02,清算の結了等,,,2015-10-05,1,,,,,マスヤ,0
2017,7290803004930,登記記録の閉鎖等,0,2025-06-06,2025-06-03,合同会社ワイ・エフ,,合同会社,福岡県,北九州市門司区,大里原町１０番２７号,,40,101,8000038,,,2025-06-03,清算の結了等,,,2024-12-26,1,,,,,ワイエフ,0
2028,7370001004378,登記記録の閉鎖等,0,2025-06-06,2025-05-15,株式会社北日本ノバックス,,株式会社,宮城県,仙台市宮城野区,小田原山本丁１０１番地の６,,04,102,9830817,,,2025-05-15,合併による解散等,6122001015843,令和７年５月１日大阪府大東市諸福五丁目１３番１２号株式会社光新星（6122001015843）に合併し解散,2015-10-05,1,,,,,キタニホンノバックス,0
2045,7430001079166,登記記録の閉鎖等,0,2025-06-06,2025-06-02,サッポロファニチァー株式会社,,株式会社,北海道,北広島市,大曲２７９番地７０,,01,234,0611270,,,2025-06-02,合併による解散等,7430001024782,令和７年６月１日北海道北広島市大曲２７９番地７０株式会社札幌ファニチァー（7430001024782）に合併し解散,2019-06-14,1,,,,,サッポロファニチァー,0
2054,7470001013261,登記記録の閉鎖等,0,2025-06-06,2025-06-02,ガーネット株式会社,,株式会社,香川県,高松市,浜ノ町２６７番地１,,37,201,7600011,,,2025-06-02,合併による解散等,9470001012014,令和７年６月１日香川県高松市上福岡町９２２番地１レイグランド株式会社（9470001012014）に合併し解散,2015-10-05,1,,,,,ガーネット,0
2060,8010001117826,登記記録の閉鎖等,0,2025-06-06,2025-06-02,株式会社サンセイ,,株式会社,東京都,足立区,千住３丁目６番地１２ツオード千住壱番館１００１号,,13,121,1200034,,,2025-06-02,清算の結了等,,,2015-10-05,1,,,,,サンセイ,0
2078,8010401015373,登記記録の閉鎖等,0,2025-06-06,2025-05-12,株式会社鈴木三河屋,,株式会社,東京都,港区,赤坂２丁目１８番５号,,13,103,1070052,,,2025-05-12,清算の結了等,,,2015-10-05,1,,,,,スズキミカワヤ,0
2102,8010702002839,登記記録の閉鎖等,0,2025-06-06,2025-05-19,有限会社高地製作所,00051950,有限会社,東京都,品川区,荏原１丁目２４番３８号,,13,109,1420063,,,2025-05-19,清算の結了等,,,2015-10-05,1,,,,,コウチセイサクショ,0
2114,8011001126148,登記記録の閉鎖等,0,2025-06-06,2025-06-03,株式会社Ｇｒｏｏｖｅ　Ｖｅｎｔｕｒｅｓ,,株式会社,東京都,世田谷区,中町５丁目３７番９号,,13,112,1580091,,,2025-06-03,清算の結了等,,,2019-01-17,1,,,,,グルーヴベンチャーズ,0
2159,8021001029457,登記記録の閉鎖等,0,2025-06-06,2025-06-05,株式会社エリオス,,株式会社,神奈川県,大和市,深見西４丁目６番１１－２０８号,,14,213,2420018,,,2025-06-05,清算の結了等,,,2015-10-05,1,,,,,エリオス,0
2165,8030001002943,登記記録の閉鎖等,0,2025-06-06,2025-06-02,株式会社こもだ建総,,株式会社,埼玉県,さいたま市見沼区,大字御蔵７９７番地の２,,11,104,3370033,,,2025-06-02,清算の結了等,,,2015-10-05,1,,,,,コモダケンソウ,0
2182,8030002084717,登記記録の閉鎖等,0,2025-06-06,2025-06-02,有限会社赤川工芸,,有限会社,埼玉県,越谷市,登戸町４４番８号,,11,222,3430846,,,2025-06-02,清算の結了等,,,2015-10-05,1,,,,,アカガワコウゲイ,0
2188,8040001088882,登記記録の閉鎖等,0,2025-06-06,2025-05-23,スターコーポレーション株式会社,,株式会社,千葉県,佐倉市,上志津１６６９番地２０２,,12,212,2850846,,,2025-05-23,清算の結了等,,,2015-10-05,1,,,,,スターコーポレーション,0
2193,8040003007972,登記記録の閉鎖等,0,2025-06-06,2025-05-22,盈月堂合同会社,,合同会社,千葉県,千葉市美浜区,打瀬１丁目７番地５パティオスエリスト１７０６号,,12,106,2610013,,,2025-05-22,清算の結了等,,,2015-12-02,1,,,,,エイゲツドウ,0
2195,8040003022402,登記記録の閉鎖等,0,2025-06-06,2025-05-13,Ｍｅａｄｏｗ　Ｐｏｎｙ合同会社,,合同会社,東京都,渋谷区,神宮前４丁目１８番地９号ボヌール表参道３階,,13,113,1500001,,,2025-05-13,清算の結了等,,,2023-04-17,1,,,,,メドウポニー,0
2200,8050002034785,登記記録の閉鎖等,0,2025-06-06,2025-06-02,有限会社裕泉エンジニアリング,,有限会社,茨城県,龍ケ崎市,小柴４丁目４番地１８,,08,208,3010044,,,2025-06-02,清算の結了等,,,2015-10-05,1,,,,,ユウセンエンジニアリング,0
2208,8070001012996,登記記録の閉鎖等,0,2025-06-06,2025-06-02,株式会社かつみ工房,,株式会社,群馬県,高崎市,緑町１丁目７－８,,10,202,3700073,,,2025-06-02,清算の結了等,,,2015-10-05,1,,,,,カツミコウボウ,0
2223,8080403004376,登記記録の閉鎖等,0,2025-06-06,2025-05-19,松合同会社,,合同会社,静岡県,浜松市中央区,龍禅寺町７７８番地１竜禅寺ハイツ２０２,,22,138,4300924,,,2025-05-19,清算の結了等,,,2021-10-04,1,,,,,マツ,0
2224,8100001032264,登記記録の閉鎖等,0,2025-06-06,2025-06-02,株式会社令和笑店,,株式会社,長野県,佐久市,猿久保６１９－１１,,20,217,3850011,,,2025-06-02,合併による解散等,9100001031554,令和７年６月１日長野県中野市大字岩船４１９番地１株式会社ＳＴＡＹＧＯＬＤ（9100001031554）に合併し解散,2019-06-07,1,,,,,レイワショウテン,0
2227,8120001013675,登記記録の閉鎖等,0,2025-06-06,2025-05-30,株式会社丸榮商会,,株式会社,大阪府,大阪市東成区,東今里２丁目５番１４号,,27,115,5370011,,,2025-05-30,清算の結了等,,,2015-10-05,1,,,,,マルエイショウカイ,0
2256,8120101050742,登記記録の閉鎖等,0,2025-06-06,2025-06-02,株式会社和,,株式会社,大阪府,阪南市,尾崎町２丁目６６１番地,,27,232,5990201,,,2025-06-02,清算の結了等,,,2015-10-05,1,,,,,ナゴミ,0
2258,8120105005965,登記記録の閉鎖等,0,2025-06-06,2025-05-16,天理教喜和永分教会,,その他の設立登記法人,大阪府,岸和田市,野田町１丁目１５番５３号,,27,202,5960076,,,2025-05-16,合併による解散等,4120005000129,令和７年５月１５日大阪市平野区喜連東一丁目５番３０号天理教喜連分教会（4120005000129）に合併し解散,2015-10-05,1,,,,,テンリキョウキワナガブンキョウカイ,0
2262,8120902014359,登記記録の閉鎖等,0,2025-06-06,2025-06-02,有限会社石橋会舘,,有限会社,大阪府,池田市,石橋１丁目２３番２号,,27,204,5630032,,,2025-06-02,清算の結了等,,,2015-10-05,1,,,,,イシバシカイカン,0
2269,8140001100447,登記記録の閉鎖等,0,2025-06-06,2025-05-29,株式会社サイメクス,,株式会社,兵庫県,神戸市須磨区,戸政町４丁目２－１１,,28,107,6540034,,,2025-05-29,清算の結了等,,,2015-12-22,1,,,,,サイメクス,0
2277,8140002051284,登記記録の閉鎖等,0,2025-06-06,2025-05-22,有限会社森川住建,,有限会社,兵庫県,姫路市,余部区下余部３２９番地の１,,28,201,6711261,,,2025-05-22,清算の結了等,,,2015-10-05,1,,,,,モリカワジュウケン,0
2288,8160001019330,登記記録の閉鎖等,0,2025-06-06,2025-05-30,株式会社ＨＥＲＯＳ,,株式会社,大阪府,枚方市,東山２丁目７番地８０４,,27,210,5731114,,,2025-05-30,清算の結了等,,,2016-03-03,1,,,,,ヒーローズ,0
2324,8240002038692,登記記録の閉鎖等,0,2025-06-06,2025-06-02,創美建設工業有限会社,,有限会社,広島県,福山市,神辺町字道上１２９０番地の１,,34,207,7202104,,,2025-06-02,清算の結了等,,,2015-10-05,1,,,,,ソウビケンセツコウギョウ,0
2343,8330001016830,登記記録の閉鎖等,0,2025-06-06,2025-06-03,友愛介護株式会社,,株式会社,熊本県,上益城郡益城町,大字辻の城１６１番地２,00136636,43,443,8612243,,,2025-06-03,清算の結了等,,,2015-10-05,1,,,,,ユウアイカイゴ,0
2360,8380001012833,登記記録の閉鎖等,0,2025-06-06,2025-05-28,株式会社コウキ,,株式会社,福島県,いわき市,平上片寄字上ノ内１７５番地の１,,07,204,9708011,,,2025-05-28,清算の結了等,,,2015-10-05,1,,,,,コウキ,0
2372,8500001017984,登記記録の閉鎖等,0,2025-06-06,2025-06-02,翠化粧合板株式会社,,株式会社,愛媛県,宇和島市,坂下津甲４０７番地１０１,,38,203,7980087,,,2025-06-02,清算の結了等,,,2015-10-05,1,,,,,ミドリケショウゴウハン,0
2374,9010001029987,登記記録の閉鎖等,0,2025-06-06,2025-05-20,毎日アート出版株式会社,,株式会社,東京都,千代田区,神田小川町３丁目７番地１６報道ビル,,13,101,1010052,,,2025-05-20,清算の結了等,,,2015-10-05,1,,,,,マイニチアートシュッパン,0
2405,9010601041417,登記記録の閉鎖等,0,2025-06-06,2025-06-02,タケウチホールディングス株式会社,,株式会社,東京都,江東区,豊洲３丁目４番１－２９０３号,,13,108,1350061,,,2025-06-02,清算の結了等,,,2015-10-05,1,,,,,タケウチホールディングス,0
2410,9010801004685,登記記録の閉鎖等,0,2025-06-06,2025-06-02,株式会社サトウ電業社,,株式会社,東京都,大田区,大森西５丁目１３番２号,,13,111,1430015,,,2025-06-02,清算の結了等,,,2015-10-05,1,,,,,サトウデンギョウシャ,0
2422,9011001117154,登記記録の閉鎖等,0,2025-06-06,2025-05-12,株式会社Ｇｌｅａｍ＆Ｇｒａｃｅ,,株式会社,東京都,渋谷区,鉢山町３番２５号,,13,113,1500035,,,2025-05-12,清算の結了等,,,2017-07-05,1,,,,,グリームアンドグレース,0
2424,9011001143695,登記記録の閉鎖等,0,2025-06-06,2025-05-23,株式会社ＳＩＦＩＮＧ,,株式会社,東京都,渋谷区,神宮前５丁目３９番８号スカーラ神宮前２０２,,13,113,1500001,,,2025-05-23,清算の結了等,,,2021-10-29,1,,,,,シフィング,0
2437,9011101081283,登記記録の閉鎖等,0,2025-06-06,2025-05-19,ＴＭホールディングス株式会社,,株式会社,東京都,千代田区,飯田橋３丁目８番５号住友不動産飯田橋駅前ビル８階,,13,101,1020072,,,2025-05-19,合併による解散等,2011101014794,令和７年５月１６日東京都千代田区飯田橋三丁目８番５号住友不動産飯田橋駅前ビル８階東洋メディック株式会社（2011101014794）に合併し解散,2017-07-31,1,,,,,ティーエムホールディングス,0
2445,9011401005157,登記記録の閉鎖等,0,2025-06-06,2025-06-04,株式会社野田工務店,,株式会社,東京都,板橋区,高島平７丁目１８番１０号,,13,119,1750082,,,2025-06-04,清算の結了等,,,2015-10-05,1,,,,,ノダコウムテン,0
2450,9011601015583,登記記録の閉鎖等,0,2025-06-06,2025-06-02,大建設備工業株式会社,,株式会社,東京都,練馬区,南大泉１丁目１番１４号,,13,120,1780064,,,2025-06-02,清算の結了等,,,2015-10-05,1,,,,,ダイケンセツビコウギョウ,0
2456,9012402000114,登記記録の閉鎖等,0,2025-06-06,2025-06-02,有限会社秋元商事,,有限会社,東京都,府中市,新町１丁目４３番地６号メゾンパステル１階,,13,206,1830052,,,2025-06-02,清算の結了等,,,2015-10-05,1,,,,,アキモトショウジ,0
2458,9012703002123,登記記録の閉鎖等,0,2025-06-06,2025-06-02,合同会社ＳＴ．Ｏｎｅ,,合同会社,東京都,東大和市,向原６丁目１２０１番２号ＯＳＥビル２０３,,13,220,2070013,,,2025-06-02,清算の結了等,,,2020-12-16,1,,,,,エスティーワン,0
2488,9030001040389,登記記録の閉鎖等,0,2025-06-06,2025-06-02,株式会社システムサポート,,株式会社,埼玉県,三郷市,戸ケ崎３丁目３３３番地６,,11,237,3410044,,,2025-06-02,清算の結了等,,,2015-10-05,1,,,,,システムサポート,0
2527,9060002013135,登記記録の閉鎖等,0,2025-06-06,2025-06-03,有限会社マキ,,有限会社,栃木県,塩谷郡高根沢町,大字宝積寺２２８５番地８,,09,386,3291233,,,2025-06-03,清算の結了等,,,2015-10-05,1,,,,,マキ,0
2530,9070001028728,登記記録の閉鎖等,0,2025-06-06,2025-06-02,株式会社ＢＥＬＬＩＮＩ,,株式会社,群馬県,高崎市,西横手町３９１番地５１,,10,202,3700021,,,2025-06-02,清算の結了等,,,2015-10-05,1,,,,,ベリーニ,0
2534,9080002003241,登記記録の閉鎖等,0,2025-06-06,2025-06-02,静岡八幡金属有限会社,,有限会社,静岡県,静岡市駿河区,八幡３丁目１１番８号,,22,102,4228076,,,2025-06-02,清算の結了等,,,2015-10-05,1,,,,,シズオカヤハタキンゾク,0
2551,9110001005887,登記記録の閉鎖等,0,2025-06-06,2025-05-19,株式会社良栄,,株式会社,新潟県,新潟市東区,豊２丁目１番１４号,,15,102,9500812,,,2025-05-19,合併による解散等,1030001073207,令和７年５月１日東京都千代田区神田神保町三丁目２５番地精和ビル４階株式会社アートビークルー（1030001073207）に合併し解散,2015-10-05,1,,,,,リョウエイ,0
2556,9120001152175,登記記録の閉鎖等,0,2025-06-06,2025-05-30,株式会社関西都市開発,,株式会社,大阪府,枚方市,南中振１丁目１６番２７号,,27,210,5730094,,,2025-05-30,清算の結了等,,,2015-10-05,1,,,,,カンサイトシカイハツ,0
2568,9120002024282,登記記録の閉鎖等,0,2025-06-06,2025-05-30,有限会社ホアシ,,有限会社,大阪府,大阪市西淀川区,姫島１丁目１番５号,,27,113,5550033,,,2025-05-30,清算の結了等,,,2015-10-05,1,,,,,ホアシ,0
2571,9120101056227,登記記録の閉鎖等,0,2025-06-06,2025-06-02,株式会社一樹興業,,株式会社,大阪府,岸和田市,春木旭町３７番７号,,27,202,5960005,,,2025-06-02,清算の結了等,,,2017-03-22,1,,,,,,0
2578,9120901021958,登記記録の閉鎖等,0,2025-06-06,2025-06-02,新大阪自動車整備株式会社,,株式会社,大阪府,池田市,姫室町８番１４号,,27,204,5630046,,,2025-06-02,清算の結了等,,,2015-10-05,1,,,,,シンオオサカジドウシャセイビ,0
2585,9122005002067,登記記録の閉鎖等,0,2025-06-06,2025-05-16,天理教法井分教会,,その他の設立登記法人,大阪府,八尾市,植松町６丁目１番７号,,27,212,5810084,,,2025-05-16,合併による解散等,5150005005339,令和７年５月１４日奈良県橿原市四条町８１４番地の１天理教今井分教会（5150005005339）に合併し解散,2015-10-05,1,,,,,テンリキョウノリイブンキョウカイ,0
2604,9150001017532,登記記録の閉鎖等,0,2025-06-06,2025-06-04,株式会社パレード,,株式会社,奈良県,奈良市,帝塚山南５丁目９番１号,,29,201,6310064,,,2025-06-04,清算の結了等,,,2015-10-05,1,,,,,パレード,0
2611,9180001010947,登記記録の閉鎖等,0,2025-06-06,2025-06-02,株式会社扶桑工産,,株式会社,愛知県,名古屋市瑞穂区,船原町１丁目１３番地,,23,108,4670878,,,2025-06-02,清算の結了等,,,2015-10-05,1,,,,,フソウコウサン,0
2627,9180301028879,登記記録の閉鎖等,0,2025-06-06,2025-06-02,株式会社大石ＡＬＣ,,株式会社,愛知県,新城市,大野字小野１６番地１,,23,221,4411615,,,2025-06-02,清算の結了等,,,2016-02-08,1,,,,,オオイシエーエルシー,0
2633,9200001002025,登記記録の閉鎖等,0,2025-06-06,2025-06-02,株式会社小寺電子製作所,,株式会社,岐阜県,岐阜市,下奈良１丁目２８番２号,,21,201,5008385,,,2025-06-02,合併による解散等,6200001039796,令和７年６月１日岐阜県岐阜市下奈良一丁目２８番２号株式会社小寺電子製作所（6200001039796）に合併し解散,2015-10-05,1,,,,,コデラデンシセイサクショ,0
2636,9210002013409,登記記録の閉鎖等,0,2025-06-06,2025-06-03,松田蒔絵有限会社,,有限会社,福井県,鯖江市,河和田町第１２号１７番地,,18,207,9161222,,,2025-06-03,清算の結了等,,,2015-10-05,1,,,,,マツダマキエ,0
2645,9240001041127,登記記録の閉鎖等,0,2025-06-06,2025-06-02,株式会社穀彩庵,,株式会社,広島県,広島市安佐北区,深川２丁目４４番２６号,,34,106,7391751,,,2025-06-02,合併による解散等,5350001004695,令和７年６月１日広島市西区草津港二丁目６番６０号アグリプロデュース株式会社（5350001004695）に合併し解散,2015-10-05,1,,,,,コクサイアン,0
2647,9240001062230,登記記録の閉鎖等,0,2025-06-06,2025-06-02,株式会社メディアトラスト,,株式会社,広島県,広島市中区,土橋町７番１号,,34,101,7300854,,,2025-06-02,合併による解散等,8240001061308,令和７年６月１日広島市中区土橋町７番１号株式会社メディアクロス（8240001061308）に合併し解散,2023-10-10,1,,,,,メディアトラスト,0
2654,9250002000312,登記記録の閉鎖等,0,2025-06-06,2025-06-02,有限会社アイビシ,,有限会社,山口県,山口市,仁保下郷４７４番地,,35,203,7530303,,,2025-06-02,清算の結了等,,,2015-10-05,1,,,,,アイビシ,0
2665,9290801022981,登記記録の閉鎖等,0,2025-06-06,2025-06-02,株式会社ドリーム,,株式会社,福岡県,京都郡みやこ町,勝山大久保３８５５番地１,,40,625,8240801,,,2025-06-02,清算の結了等,,,2016-10-28,1,,,,,ドリーム,0
2675,9330002007927,登記記録の閉鎖等,0,2025-06-06,2025-06-02,有限会社日祥エコシス,,有限会社,熊本県,八代市,横手町１７５０番地８,,43,202,8660873,,,2025-06-02,清算の結了等,,,2015-10-05,1,,,,,ニッショウエコシス,0
2678,9340002010062,登記記録の閉鎖等,0,2025-06-06,2025-05-30,有限会社ユー企画,,有限会社,鹿児島県,鹿児島市,鴨池新町４番５－５０２号,,46,201,8900064,,,2025-05-30,清算の結了等,,,2015-10-05,1,,,,,ユーキカク,0
2680,9340005003179,登記記録の閉鎖等,0,2025-06-06,2025-05-29,特定非営利活動法人ワークショップくりの実の家,,その他の設立登記法人,鹿児島県,姶良郡湧水町,米永５０２番地,,46,452,8996207,,,2025-05-29,清算の結了等,,,2015-10-05,1,,,,,ワークショップクリノミノイエ,0
2693,9400001001502,登記記録の閉鎖等,0,2025-06-06,2025-06-02,ミゲンライフ株式会社,,株式会社,埼玉県,越谷市,蒲生東町１０番１７号,,11,222,3430841,,,2025-06-02,清算の結了等,,,2015-10-05,1,,,,,ミゲンライフ,0
2701,9430005008301,登記記録の閉鎖等,0,2025-06-06,2025-06-02,幸和事業協同組合,,その他の設立登記法人,北海道,小樽市,築港７番１２号,,01,203,0470008,,,2025-06-02,清算の結了等,,,2015-10-05,1,,,,,コウワ,0
2707,9480002002153,登記記録の閉鎖等,0,2025-06-06,2025-06-02,有限会社ズームインあひる,,有限会社,徳島県,徳島市,秋田町１丁目１３番地２,,36,201,7700934,,,2025-06-02,清算の結了等,,,2015-10-05,1,,,,,ズームインアヒル,0
