sequenceNumber,corporateNumber,process,correct,updateDate,changeDate,name,nameImageId,kind,prefectureName,cityName,streetNumber,addressImageId,prefectureCode,cityCode,postCode,addressOutside,addressOutsideImageId,closeDate,closeCause,successorCorporateNumber,changeCause,assignmentDate,latest,enName,enPrefectureName,enCityName,enAddressOutside,furigana,hihyoji
1,1010001019525,登記記録の閉鎖等,0,2022-06-01,2022-05-20,ジェイ・デイ販売株式会社,,株式会社,東京都,千代田区,内神田１丁目８番９号,,13,101,1010047,,,2022-05-20,清算の結了等,,,2015-10-05,1,,,,,ジェイディハンバイ,0
81,1020002049140,登記記録の閉鎖等,0,2022-06-01,2022-05-27,有限会社東和電気工業,,有限会社,神奈川県,横浜市港北区,新横浜１丁目２１番地１,,14,109,2220033,,,2022-05-27,清算の結了等,,,2015-10-05,1,,,,,トウワデンキコウギョウ,0
90,1021002036748,登記記録の閉鎖等,0,2022-06-01,2022-05-31,有限会社高麗電機工業,,有限会社,神奈川県,伊勢原市,坪ノ内２７８番７,,14,214,2591104,,,2022-05-31,清算の結了等,,,2015-10-05,1,,,,,コマデンキコウギョウ,0
128,1120002050567,登記記録の閉鎖等,0,2022-06-01,2022-05-30,有限会社クリエイトサービス,,有限会社,大阪府,大阪市西区,西本町１丁目５番３号,,27,106,5500005,,,2022-05-30,清算の結了等,,,2015-10-05,1,,,,,クリエイトサービス,0
130,1120002072306,登記記録の閉鎖等,0,2022-06-01,2022-05-30,小島モータース有限会社,,有限会社,大阪府,寝屋川市,打上中町１５番８号,,27,215,5720857,,,2022-05-30,清算の結了等,,,2015-10-05,1,,,,,コジマモータース,0
144,1140001016278,登記記録の閉鎖等,0,2022-06-01,2022-05-30,株式会社スーブニール,,株式会社,兵庫県,神戸市長田区,真野町３－１５,,28,106,6530025,,,2022-05-30,清算の結了等,,,2015-10-05,1,,,,,スーブニール,0
181,1250005005514,登記記録の閉鎖等,0,2022-06-01,2022-05-26,特定非営利活動法人ラ・コスモス,,その他の設立登記法人,山口県,周南市,今住町３番３号,,35,215,7450063,,,2022-05-26,清算の結了等,,,2015-10-05,1,,,,,ラコスモス,0
182,1260001008478,登記記録の閉鎖等,0,2022-06-01,2022-05-31,株式会社生き生き創健館,,株式会社,岡山県,岡山市北区,内山下２丁目１１－１６小山ビル,,33,101,7000824,,,2022-05-31,清算の結了等,,,2015-10-05,1,,,,,イキイキイソウケンカン,0
189,1290001015926,登記記録の閉鎖等,0,2022-06-01,2022-05-27,株式会社登高,00092240,株式会社,福岡県,福岡市東区,馬出４丁目４番２号,,40,131,8120054,,,2022-05-27,清算の結了等,,,2015-10-05,1,,,,,トウコウ,0
196,1300005003958,登記記録の閉鎖等,0,2022-06-01,2022-05-27,税理士法人武雄中央会計事務所,,その他の設立登記法人,佐賀県,武雄市,武雄町大字武雄５６３２番地,,41,206,8430022,,,2022-05-27,清算の結了等,,,2015-10-05,1,,,,,タケオチュウオウカイケイジムショ,0
203,1340002012702,登記記録の閉鎖等,0,2022-06-01,2022-05-26,有限会社内村鉄工所,,有限会社,鹿児島県,日置市,吹上町中之里１４９０番地,,46,216,8993302,,,2022-05-26,清算の結了等,,,2015-10-05,1,,,,,ウチムラテッコウショ,0
210,1380001011255,登記記録の閉鎖等,0,2022-06-01,2022-05-27,須賀川観光株式会社,,株式会社,福島県,須賀川市,山寺町８５番地,,07,207,9620062,,,2022-05-27,清算の結了等,,,2015-10-05,1,,,,,スカガワカンコウ,0
224,1450001009647,登記記録の閉鎖等,0,2022-06-01,2022-05-30,株式会社茂手木金物,,株式会社,北海道,紋別郡雄武町,字雄武８６６番地,,01,563,0981702,,,2022-05-30,清算の結了等,,,2022-01-11,1,,,,,モテギカナモノ,0
248,2010002021405,登記記録の閉鎖等,0,2022-06-01,2022-05-23,有限会社瀬戸商店,,有限会社,東京都,中央区,日本橋馬喰町１丁目１１番１７号,,13,102,1030002,,,2022-05-23,清算の結了等,,,2015-10-05,1,,,,,セトショウテン,0
281,2011101065037,登記記録の閉鎖等,0,2022-06-01,2022-05-30,株式会社ネクストウォンテット,,株式会社,神奈川県,藤沢市,鵠沼石上２丁目５番１号,,14,205,2510025,,,2022-05-30,清算の結了等,,,2015-10-05,1,,,,,ネクストウォンテット,0
291,2011802007601,登記記録の閉鎖等,0,2022-06-01,2022-05-27,有限会社ミハルコーポレーション,,有限会社,東京都,葛飾区,堀切６丁目１０番６号,,13,122,1240006,,,2022-05-27,清算の結了等,,,2015-10-05,1,,,,,ミハルコーポレーション,0
371,2120002003202,登記記録の閉鎖等,0,2022-06-01,2022-05-31,有限会社新世商事,,有限会社,大阪府,大阪市阿倍野区,王子町１丁目１番１５号,,27,119,5450023,,,2022-05-31,清算の結了等,,,2015-10-05,1,,,,,シンセイショウジ,0
373,2120003007648,登記記録の閉鎖等,0,2022-06-01,2022-05-31,フジＷＩＭ合同会社,,合同会社,大阪府,大阪市中央区,島之内１丁目１５－２グランドール島之内２０２,,27,128,5420082,,,2022-05-31,清算の結了等,,,2015-10-05,1,,,,,フジダブルアイエム,0
391,2130001037613,登記記録の閉鎖等,0,2022-06-01,2022-05-26,株式会社ＹｕＮａ　Ｊａｐａｎ,,株式会社,京都府,京都市山科区,西野様子見町４８番地の１２,,26,110,6078342,,,2022-05-26,清算の結了等,,,2015-10-05,1,,,,,ユナジャパン,0
399,2140001073145,登記記録の閉鎖等,0,2022-06-01,2022-05-30,株式会社エヌオー不動産,,株式会社,兵庫県,西宮市,里中町１丁目１番１号,,28,204,6638183,,,2022-05-30,清算の結了等,,,2015-10-05,1,,,,,,0
406,2170001003792,登記記録の閉鎖等,0,2022-06-01,2022-05-31,和歌山ツバメ空調設備株式会社,,株式会社,和歌山県,和歌山市,北島３９４番地の２,,30,201,6408403,,,2022-05-31,清算の結了等,,,2015-10-05,1,,,,,ワカヤマツバメクウチョウセツビ,0
420,2180005017557,登記記録の閉鎖等,0,2022-06-01,2022-05-26,一般社団法人中部建設請負業協会,,その他の設立登記法人,長野県,長野市,大字鶴賀上千歳町１１３７番地２３,,20,201,3800821,,,2022-05-26,合併による解散等,7010005021182,令和４年５月２３日東京都千代田区二番町３番地５一般社団法人全国建設請負業協会（7010005021182）に合併し解散,2017-11-08,1,,,,,チュウブケンセツウケオイギョウキョウカイ,0
434,2240001037263,登記記録の閉鎖等,0,2022-06-01,2022-05-30,竹原貨物運送株式会社,,株式会社,広島県,竹原市,塩町１丁目６番３号,,34,203,7250025,,,2022-05-30,清算の結了等,,,2015-10-05,1,,,,,タケハラカモツウンソウ,0
439,2240002040778,登記記録の閉鎖等,0,2022-06-01,2022-05-27,有限会社佐藤合金鋳造所,,有限会社,広島県,福山市,駅家町大字近田３４２番地の１,,34,207,7201133,,,2022-05-27,清算の結了等,,,2015-10-05,1,,,,,サトウゴウキンチュウゾウショ,0
456,2330001022801,登記記録の閉鎖等,0,2022-06-01,2022-05-30,株式会社ＯＮＥ　ＷＯＲＬＤ,,株式会社,熊本県,八代市,長田町２８２９番地３,,43,202,8660815,,,2022-05-30,清算の結了等,,,2016-05-25,1,,,,,,0
468,2360002019802,登記記録の閉鎖等,0,2022-06-01,2022-05-23,有限会社山城金物店,,有限会社,沖縄県,名護市,大南１丁目５番１０号,,47,209,9050015,,,2022-05-23,清算の結了等,,,2015-10-05,1,,,,,,0
474,2380002021525,登記記録の閉鎖等,0,2022-06-01,2022-05-27,有限会社ヒラク薬品,,有限会社,福島県,須賀川市,大黒町２７６番地,,07,207,9620023,,,2022-05-27,清算の結了等,,,2015-10-05,1,,,,,ヒラクヤクヒン,0
492,2450001007261,登記記録の閉鎖等,0,2022-06-01,2022-05-30,株式会社サンウエスト,,株式会社,北海道,名寄市,西三条南１０丁目２７番地２,,01,221,0960013,,,2022-05-30,清算の結了等,,,2015-10-05,1,,,,,サンウエスト,0
542,3010701021415,登記記録の閉鎖等,0,2022-06-01,2022-05-02,株式会社スタイル・ミー,,株式会社,東京都,品川区,戸越１丁目１番１－９０３号,,13,109,1420041,,,2022-05-02,清算の結了等,,,2015-10-05,1,,,,,スタイルミー,0
548,3010803001439,登記記録の閉鎖等,0,2022-06-01,2022-05-12,ＧＦリサーチ合同会社,,合同会社,東京都,大田区,田園調布２丁目４６番６号,,13,111,1450071,,,2022-05-12,清算の結了等,,,2015-10-05,1,,,,,ジーエフリサーチ,0
565,3011002019883,登記記録の閉鎖等,0,2022-06-01,2022-05-16,有限会社フェイス,,有限会社,東京都,渋谷区,幡ヶ谷２丁目２０番７号,,13,113,1510072,,,2022-05-16,清算の結了等,,,2015-10-05,1,,,,,フェイス,0
574,3011103008182,登記記録の閉鎖等,0,2022-06-01,2022-05-30,合同会社ジェイ・アイ・エヌ,,合同会社,東京都,新宿区,下宮比町１番４号,,13,104,1620822,,,2022-05-30,清算の結了等,,,2018-08-24,1,,,,,ジェイアイエヌ,0
591,3012401036271,登記記録の閉鎖等,0,2022-06-01,2022-05-30,株式会社スタジオキッチン,,株式会社,東京都,稲城市,向陽台４丁目３番地の２,,13,225,2060803,,,2022-05-30,清算の結了等,,,2020-02-19,1,,,,,スタジオキッチン,0
607,3020005009420,登記記録の閉鎖等,0,2022-06-01,2022-05-24,特定非営利活動法人チョコレート・ドリーム・ファクトリー,,その他の設立登記法人,神奈川県,横浜市磯子区,岡村４丁目２６番４号,,14,107,2350021,,,2022-05-24,清算の結了等,,,2015-10-05,1,,,,,チョコレートドリームファクトリー,0
610,3021001031888,登記記録の閉鎖等,0,2022-06-01,2022-05-27,湘南システム株式会社,,株式会社,神奈川県,足柄下郡真鶴町,岩８３２番地の７４,,14,383,2590202,,,2022-05-27,清算の結了等,,,2015-10-05,1,,,,,ショウナンシステム,0
641,3070002001656,登記記録の閉鎖等,0,2022-06-01,2022-05-26,有限会社共栄企画,,有限会社,群馬県,前橋市,粕川町込皆戸１０８番地の３,,10,201,3710216,,,2022-05-26,清算の結了等,,,2015-10-05,1,,,,,キョウエイキカク,0
662,3120002077922,登記記録の閉鎖等,0,2022-06-01,2022-05-31,有限会社有村工務店,,有限会社,大阪府,守口市,大久保町２丁目４０番１５号,,27,209,5700012,,,2022-05-31,清算の結了等,,,2015-10-05,1,,,,,アリムラコウムテン,0
664,3120005016687,登記記録の閉鎖等,0,2022-06-01,2022-05-30,特定非営利活動法人日本空手道糸東流武育会,,その他の設立登記法人,大阪府,大阪市北区,本庄西２丁目１番３５号,,27,127,5310073,,,2022-05-30,清算の結了等,,,2015-10-05,1,,,,,ニホンカラテドウシトウリュウブイクカイ,0
666,3120101046415,登記記録の閉鎖等,0,2022-06-01,2022-05-30,株式会社内畑鉄工所,,株式会社,大阪府,岸和田市,内畑町２１１６番地,,27,202,5960105,,,2022-05-30,清算の結了等,,,2015-10-05,1,,,,,ウチハタテッコウショ,0
669,3120105000038,登記記録の閉鎖等,0,2022-06-01,2022-05-30,医療法人あづみ会,,その他の設立登記法人,大阪府,堺市西区,浜寺石津町中２丁７番１７号,,27,144,5928334,,,2022-05-30,清算の結了等,,,2015-10-05,1,,,,,,0
677,3140001031853,登記記録の閉鎖等,0,2022-06-01,2022-05-30,株式会社ＧＲＡＮＤ　ａｕｔｏ　ＳＡＬＯＮ,,株式会社,兵庫県,神戸市西区,櫨谷町福谷７６７－２,,28,111,6512233,,,2022-05-30,清算の結了等,,,2015-10-05,1,,,,,グランドオートサロン,0
680,3140001093258,登記記録の閉鎖等,0,2022-06-01,2022-05-30,株式会社カンミナーレ,,株式会社,兵庫県,神戸市須磨区,横尾５丁目１番地の１、７３号棟１０１号,,28,107,6540131,,,2022-05-30,清算の結了等,,,2015-10-05,1,,,,,カンミナーレ,0
703,3180002000969,登記記録の閉鎖等,0,2022-06-01,2022-05-26,有限会社高松電機,,有限会社,愛知県,名古屋市守山区,弁天が丘７０４番地,,23,113,4630027,,,2022-05-26,清算の結了等,,,2015-10-05,1,,,,,タカマツデンキ,0
722,3220005008229,登記記録の閉鎖等,0,2022-06-01,2022-05-26,一般社団法人北陸建設請負業協会,,その他の設立登記法人,石川県,金沢市,松島２丁目１９１番地,,17,201,9200364,,,2022-05-26,合併による解散等,7010005021182,令和４年５月２３日東京都千代田区二番町３番地５一般社団法人全国建設請負業協会（7010005021182）に合併し解散,2017-11-07,1,,,,,ホクリクケンセツウケオイギョウキョウカイ,0
727,3240001050513,登記記録の閉鎖等,0,2022-06-01,2022-05-27,株式会社濱興,,株式会社,広島県,尾道市,因島土生町２０９３番地４,,34,205,7222323,,,2022-05-27,清算の結了等,,,2017-01-20,1,,,,,ハマコウ,0
748,3290001064814,登記記録の閉鎖等,0,2022-06-01,2022-05-27,橋本工務店株式会社,,株式会社,福岡県,福岡市西区,福重３丁目１２番１８号,,40,135,8190022,,,2022-05-27,清算の結了等,,,2015-10-05,1,,,,,,0
762,3340001008303,登記記録の閉鎖等,0,2022-06-01,2022-05-31,株式会社ＹＢＳ,,株式会社,鹿児島県,姶良市,加治木町木田１４８５番地,,46,225,8995241,,,2022-05-31,清算の結了等,,,2015-10-05,1,,,,,ワイビーエス,0
784,3420005007103,登記記録の閉鎖等,0,2022-06-01,2022-05-27,特定非営利活動法人賛否両論,,その他の設立登記法人,青森県,青森市,石江３丁目１６番地１４,,02,201,0380003,,,2022-05-27,清算の結了等,,,2015-10-05,1,,,,,,0
793,3470002014832,登記記録の閉鎖等,0,2022-06-01,2022-05-30,有限会社クォリティーミヤタケ,,有限会社,香川県,坂出市,西庄町４１１番地３,,37,203,7620021,,,2022-05-30,清算の結了等,,,2015-10-05,1,,,,,クォリティーミヤタケ,0
817,4010005021169,登記記録の閉鎖等,0,2022-06-01,2022-05-31,一般社団法人鬼怒川ホールディングス,,その他の設立登記法人,東京都,千代田区,丸の内３丁目１番１号東京共同会計事務所内,,13,101,1000005,,,2022-05-31,清算の結了等,,,2015-10-05,1,,,,,キヌガワホールディングス,0
818,4010005029708,登記記録の閉鎖等,0,2022-06-01,2022-05-30,ＥＳＲ２１・１一般社団法人,,その他の設立登記法人,東京都,中央区,日本橋１丁目４番１号日本橋一丁目ビルディング,,13,102,1030027,,,2022-05-30,清算の結了等,,,2019-02-07,1,,,,,イーエスアールトゥエンティワンワン,0
858,4011101091543,登記記録の閉鎖等,0,2022-06-01,2022-05-16,マリシャンディア株式会社,,株式会社,東京都,港区,高輪１丁目１６番２１号高輪ダイヤハイツ６０３,,13,103,1080074,,,2022-05-16,清算の結了等,,,2020-06-12,1,,,,,マリシャンディア,0
860,4011105006398,登記記録の閉鎖等,0,2022-06-01,2022-05-27,特定非営利活動法人１００歳現役を目指す会,,その他の設立登記法人,東京都,新宿区,下落合２丁目２５番９号,,13,104,1610033,,,2022-05-27,清算の結了等,,,2015-10-05,1,,,,,ヒャクサイゲンエキヲメザスカイ,0
873,4013301027574,登記記録の閉鎖等,0,2022-06-01,2022-05-20,株式会社センスィミリア,,株式会社,東京都,豊島区,池袋２丁目３７番１号,,13,116,1710014,,,2022-05-20,清算の結了等,,,2015-10-05,1,,,,,センスィミリア,0
877,4020002044808,登記記録の閉鎖等,0,2022-06-01,2022-05-27,有限会社藤原工業,,有限会社,神奈川県,横浜市港北区,箕輪町１丁目３０－１－３０４,,14,109,2230051,,,2022-05-27,清算の結了等,,,2015-10-05,1,,,,,フジワラコウギョウ,0
888,4030001034585,登記記録の閉鎖等,0,2022-06-01,2022-05-30,アイテクエンジ株式会社,,株式会社,千葉県,千葉市中央区,生実町２３２５番地１,,12,101,2600813,,,2022-05-30,清算の結了等,,,2015-10-05,1,,,,,アイテクエンジ,0
915,4070001024715,登記記録の閉鎖等,0,2022-06-01,2022-05-20,ときわ商事株式会社,,株式会社,群馬県,高崎市,新町１４３２番地１,,10,202,3701301,,,2022-05-20,合併による解散等,1070001013670,令和４年５月２０日群馬県高崎市新町１４３２番地１株式会社浜野屋（1070001013670）に合併し解散,2015-10-05,1,,,,,トキワショウジ,0
916,4080001015936,登記記録の閉鎖等,0,2022-06-01,2022-05-20,ＷＨＡ株式会社,,株式会社,東京都,千代田区,大手町１丁目７番２号東京サンケイビル２７Ｆ,,13,101,1000004,,,2022-05-20,清算の結了等,,,2015-10-05,1,,,,,ダブルエイチエー,0
920,4080102019497,登記記録の閉鎖等,0,2022-06-01,2022-05-30,有限会社栄光電気設備,,有限会社,静岡県,伊東市,岡１番地の１,,22,208,4140055,,,2022-05-30,清算の結了等,,,2015-10-05,1,,,,,,0
930,4110001013366,登記記録の閉鎖等,0,2022-06-01,2022-05-27,マルサン商事株式会社,,株式会社,新潟県,新発田市,西園町１丁目１３番２９号,,15,206,9570058,,,2022-05-27,清算の結了等,,,2015-10-05,1,,,,,マルサンショウジ,0
940,4120001116795,登記記録の閉鎖等,0,2022-06-01,2022-05-31,株式会社ラハイナ,,株式会社,大阪府,大阪市北区,梅田１丁目１番３－６００号大阪駅前第３ビル６階２０－１号室,,27,127,5300001,,,2022-05-31,清算の結了等,,,2015-10-05,1,,,,,,0
962,4122001013196,登記記録の閉鎖等,0,2022-06-01,2022-05-30,株式会社エス・シータナカ,,株式会社,大阪府,東大阪市,高井田元町２丁目２２番２６号,,27,227,5770054,,,2022-05-30,清算の結了等,,,2015-10-05,1,,,,,エスシータナカ,0
985,4160002011059,登記記録の閉鎖等,0,2022-06-01,2022-05-30,有限会社湖南建設,,有限会社,滋賀県,近江八幡市,安土町常楽寺３８番地の２,,25,204,5211351,,,2022-05-30,清算の結了等,,,2015-10-05,1,,,,,コナンケンセツ,0
1076,4500001003798,登記記録の閉鎖等,0,2022-06-01,2022-05-30,株式会社井関松山ファクトリー,,株式会社,愛媛県,松山市,馬木町７００番地,,38,201,7992655,,,2022-05-30,清算の結了等,,,2015-10-05,1,,,,,イセキマツヤマファクトリー,0
1093,5010001211169,登記記録の閉鎖等,0,2022-06-01,2022-05-20,ＩＳＯｉサポート株式会社,,株式会社,東京都,中央区,銀座１丁目２２－１１銀座大竹ビジデンス２Ｆ,,13,102,1040061,,,2022-05-20,清算の結了等,,,2020-07-27,1,,,,,アイエスオーアイサポート,0
1185,5030002025649,登記記録の閉鎖等,0,2022-06-01,2022-05-26,有限会社磯部電機,,有限会社,埼玉県,蕨市,塚越５丁目４６番１０号,,11,223,3350002,,,2022-05-26,清算の結了等,,,2015-10-05,1,,,,,イソベデンキ,0
1187,5030002055150,登記記録の閉鎖等,0,2022-06-01,2022-05-26,有限会社ミカワ,,有限会社,埼玉県,上尾市,大字上１３８０番地５,,11,219,3620001,,,2022-05-26,清算の結了等,,,2015-10-05,1,,,,,ミカワ,0
1201,5040003004163,登記記録の閉鎖等,0,2022-06-01,2022-05-26,合同会社リンクマン,,合同会社,千葉県,松戸市,古ケ崎１９２番地の６,,12,207,2710068,,,2022-05-26,清算の結了等,,,2015-10-05,1,,,,,リンクマン,0
1206,5050001000642,登記記録の閉鎖等,0,2022-06-01,2022-05-26,株式会社をばた,,株式会社,茨城県,水戸市,本町１丁目９番２５号,,08,201,3100815,,,2022-05-26,清算の結了等,,,2015-10-05,1,,,,,ヲバタ,0
1222,5080101011388,登記記録の閉鎖等,0,2022-06-01,2022-05-20,株式会社北里サプライ,,株式会社,静岡県,富士宮市,野中１１４４番地の３,,22,207,4180039,,,2022-05-20,清算の結了等,,,2015-10-05,1,,,,,キタザトサプライ,0
1227,5110002003118,登記記録の閉鎖等,0,2022-06-01,2022-05-31,有限会社シンドウ金物,,有限会社,新潟県,新潟市東区,下木戸１丁目１番２９号,,15,102,9500885,,,2022-05-31,清算の結了等,,,2015-10-05,1,,,,,シンドウカナモノ,0
1254,5140001038013,登記記録の閉鎖等,0,2022-06-01,2022-05-27,株式会社リーフ,,株式会社,兵庫県,神戸市兵庫区,湊川町４丁目１番６号,,28,105,6520041,,,2022-05-27,清算の結了等,,,2015-10-05,1,,,,,リーフ,0
1274,5180001013689,登記記録の閉鎖等,0,2022-06-01,2022-05-27,キャリアパートナー株式会社,,株式会社,愛知県,名古屋市北区,大杉２丁目１０番１３号,,23,103,4620837,,,2022-05-27,清算の結了等,,,2015-10-05,1,,,,,キャリアパートナー,0
1275,5180001032276,登記記録の閉鎖等,0,2022-06-01,2022-05-30,株式会社服部,,株式会社,愛知県,名古屋市港区,正保町８丁目４０番地,,23,111,4550074,,,2022-05-30,清算の結了等,,,2015-10-05,1,,,,,,0
1279,5180001104356,登記記録の閉鎖等,0,2022-06-01,2022-05-27,株式会社ライフアーチ,,株式会社,愛知県,清須市,西枇杷島町問屋１１番地１,,23,233,4520035,,,2022-05-27,清算の結了等,,,2015-10-05,1,,,,,ライフアーチ,0
1297,5230001002612,登記記録の閉鎖等,0,2022-06-01,2022-05-30,ヒューテック株式会社,,株式会社,富山県,富山市,水橋町１９番地,,16,201,9390509,,,2022-05-30,清算の結了等,,,2015-10-05,1,,,,,,0
1301,5240002043324,登記記録の閉鎖等,0,2022-06-01,2022-05-30,有限会社みやじ・エム・エス,,有限会社,広島県,福山市,駅家町大字江良４２７番地の１,,34,207,7201141,,,2022-05-30,清算の結了等,,,2015-10-05,1,,,,,ミヤジエムエス,0
1308,5260001034108,登記記録の閉鎖等,0,2022-06-01,2022-05-31,コーナンシステム株式会社,,株式会社,岡山県,岡山市南区,大福６０７番５号,,33,104,7010204,,,2022-05-31,清算の結了等,,,2020-03-06,1,,,,,コーナンシステム,0
1321,5290805007355,登記記録の閉鎖等,0,2022-06-01,2022-04-28,天理教田川市分教会,,その他の設立登記法人,福岡県,田川市,大字川宮１０８３番地の５,,40,206,8260042,,,2022-04-28,合併による解散等,7290805007345,令和４年４月２８日福岡県田川市大字川宮５６６番地天理教筑朝分教会（7290805007345）に合併し解散,2015-10-05,1,,,,,,0
1336,5380001011714,登記記録の閉鎖等,0,2022-06-01,2022-05-27,株式会社南東北ファミリーデパート,,株式会社,福島県,須賀川市,大黒町２７６番地,,07,207,9620023,,,2022-05-27,清算の結了等,,,2015-10-05,1,,,,,ミナミトウホクファミリーデパート,0
1353,5430001085876,登記記録の閉鎖等,0,2022-06-01,2022-05-25,株式会社優ｍｏｒｅ,,株式会社,北海道,札幌市東区,北二十五条東１４丁目２－７ノールアイ２０１,,01,103,0650025,,,2022-05-25,清算の結了等,,,2022-01-26,1,,,,,ユーモア,0
1360,5470003001729,登記記録の閉鎖等,0,2022-06-01,2022-05-30,合同会社ＯＺ,,合同会社,香川県,高松市,前田東町８０７番地３こぐま団地１棟４０２号室,,37,201,7610322,,,2022-05-30,清算の結了等,,,2020-03-10,1,,,,,オズ,0
1370,6010001053107,登記記録の閉鎖等,0,2022-06-01,2022-05-23,株式会社鍋田設計事務所,,株式会社,東京都,中央区,日本橋蛎殻町１丁目１７番２号,,13,102,1030014,,,2022-05-23,清算の結了等,,,2015-10-05,1,,,,,,0
1375,6010003026341,登記記録の閉鎖等,0,2022-06-01,2022-05-20,合同会社オーナーズブック神田須田町,,合同会社,東京都,千代田区,霞が関３丁目２番５号,,13,101,1000013,,,2022-05-20,清算の結了等,,,2017-11-01,1,,,,,オーナーズブックカンダスダチョウ,0
1399,6010805002606,登記記録の閉鎖等,0,2022-06-01,2022-05-26,一般社団法人ロジスティクス・ストラテジー研究所,,その他の設立登記法人,東京都,大田区,大森東１丁目８番２－４０３号,,13,111,1430012,,,2022-05-26,清算の結了等,,,2018-10-09,1,,,,,ロジスティクスストラテジーケンキュウジョ,0
1402,6010905003198,登記記録の閉鎖等,0,2022-06-01,2022-05-25,一般社団法人人工呼吸器で生きるＣＣＨＳの子ども達の未来を創る会,,その他の設立登記法人,東京都,世田谷区,深沢６丁目１４番８号,,13,112,1580081,,,2022-05-25,清算の結了等,,,2016-04-07,1,,,,,ジンコウコキュウキデイキルシーシーエイチエスノコドモタチノミライヲツクルカイ,0
1419,6011801030229,登記記録の閉鎖等,0,2022-06-01,2022-05-12,株式会社アソシエイツマネジメント,,株式会社,東京都,渋谷区,笹塚３丁目９番３号,,13,113,1510073,,,2022-05-12,清算の結了等,,,2015-10-05,1,,,,,アソシエイツマネジメント,0
1424,6013301035674,登記記録の閉鎖等,0,2022-06-01,2022-05-27,ＭｉｅＤａＩｓ　Ｐｅｒｅｎｉａｒｕ株式会社,,株式会社,東京都,豊島区,西池袋３丁目２１番１３－２０１３号,,13,116,1710021,,,2022-05-27,清算の結了等,,,2015-10-05,1,,,,,,0
1441,6021003003610,登記記録の閉鎖等,0,2022-06-01,2022-05-30,フューチャー・テクノロジー合同会社,,合同会社,神奈川県,相模原市緑区,小渕２２番地３,,14,151,2520184,,,2022-05-30,清算の結了等,,,2015-10-05,1,,,,,フューチャーテクノロジー,0
1451,6030002047493,登記記録の閉鎖等,0,2022-06-01,2022-05-26,有限会社東市重量,,有限会社,埼玉県,八潮市,八潮４丁目２３番地６,,11,234,3400815,,,2022-05-26,清算の結了等,,,2015-10-05,1,,,,,トウイチジュウリョウ,0
1493,6120101024582,登記記録の閉鎖等,0,2022-06-01,2022-05-30,株式会社ルクサー,,株式会社,大阪府,堺市中区,福田７５０番地４,,27,142,5998241,,,2022-05-30,清算の結了等,,,2015-10-05,1,,,,,ルクサー,0
1519,6140001111272,登記記録の閉鎖等,0,2022-06-01,2022-05-30,株式会社フェリセイト,,株式会社,兵庫県,尼崎市,東七松町１丁目１４番１６－１０１,,28,202,6600051,,,2022-05-30,清算の結了等,,,2018-09-20,1,,,,,フェリセイト,0
1535,6180301020095,登記記録の閉鎖等,0,2022-06-01,2022-05-26,株式会社創伸,,株式会社,愛知県,豊田市,大林町１０丁目２０番地１５,,23,211,4730902,,,2022-05-26,合併による解散等,9010001120861,令和４年５月１日東京都千代田区神田錦町三丁目１９番地４ＴＳＤトレーディング株式会社（9010001120861）に合併し解散,2015-10-05,1,,,,,ソウシン,0
1552,6250001000423,登記記録の閉鎖等,0,2022-06-01,2022-05-30,中央無線株式会社,,株式会社,山口県,山口市,小郡大正町３番２２号,,35,203,7540044,,,2022-05-30,清算の結了等,,,2015-10-05,1,,,,,チュウオウムセン,0
1555,6260001021443,登記記録の閉鎖等,0,2022-06-01,2022-05-20,株式会社サラニ,,株式会社,東京都,中央区,八重洲２丁目８番７号,,13,102,1040028,,,2022-05-20,清算の結了等,,,2015-10-05,1,,,,,サラニ,0
1556,6260001028554,登記記録の閉鎖等,0,2022-06-01,2022-05-30,株式会社ＥＭＴ,,株式会社,広島県,三原市,城町３丁目１０番１０－８１０号,,34,204,7230014,,,2022-05-30,清算の結了等,,,2015-10-05,1,,,,,イーエムティー,0
1574,6290802019550,登記記録の閉鎖等,0,2022-06-01,2022-05-30,有限会社萬屋,,有限会社,福岡県,北九州市若松区,大字小敷６４１番地,,40,103,8080132,,,2022-05-30,清算の結了等,,,2015-10-05,1,,,,,ヨロズヤ,0
1577,6320002013243,登記記録の閉鎖等,0,2022-06-01,2022-05-26,有限会社ＳＡＲＡＳ,,有限会社,福岡県,大野城市,東大利２丁目３番１号,,40,219,8160941,,,2022-05-26,清算の結了等,,,2015-10-05,1,,,,,サラス,0
1592,6410001011692,登記記録の閉鎖等,0,2022-06-01,2022-05-25,株式会社男鹿興業,,株式会社,秋田県,男鹿市,船川港船川字新浜町６１番地,,05,206,0100511,,,2022-05-25,清算の結了等,,,2017-11-20,1,,,,,オガコウギョウ,0
1595,6430005003024,登記記録の閉鎖等,0,2022-06-01,2022-05-02,北海道農業共済組合連合会,,その他の設立登記法人,北海道,札幌市中央区,北四条西１丁目１番地,,01,101,0600004,,,2022-05-02,合併による解散等,6430005014442,令和４年５月１日札幌市中央区北四条西一丁目１番地北海道農業共済組合（6430005014442）に権利義務を承継し解散,2015-10-05,1,,,,,ホッカイドウ,0
1600,6480005006609,登記記録の閉鎖等,0,2022-06-01,2022-05-26,一般社団法人四国建設請負業協会,,その他の設立登記法人,徳島県,徳島市,幸町３丁目１３番地の１,,36,201,7700847,,,2022-05-26,合併による解散等,7010005021182,令和４年５月２３日東京都千代田区二番町３番地５一般社団法人全国建設請負業協会（7010005021182）に合併し解散,2017-11-22,1,,,,,シコクケンセツウケオイギョウキョウカイ,0
1607,7010001106284,登記記録の閉鎖等,0,2022-06-01,2022-05-20,株式会社Ｈｕｍａｎ　ｒｅｌａｔｉｏｎｓ,,株式会社,東京都,中央区,銀座３丁目３番９号,,13,102,1040061,,,2022-05-20,清算の結了等,,,2015-10-05,1,,,,,ヒューマンリレイションズ,0
1637,7010702010198,登記記録の閉鎖等,0,2022-06-01,2022-05-30,有限会社トパーズ,,有限会社,東京都,渋谷区,千駄ヶ谷２丁目３９番３号千駄ケ谷ホリタンビル,,13,113,1510051,,,2022-05-30,清算の結了等,,,2015-10-05,1,,,,,トパーズ,0
1640,7010803002854,登記記録の閉鎖等,0,2022-06-01,2022-05-31,ＥＡＳＴＷＩＮＤ合同会社,,合同会社,兵庫県,神戸市垂水区,五色山３丁目１番３５号８１４,,28,108,6550035,,,2022-05-31,清算の結了等,,,2018-11-14,1,,,,,イーストウインド,0
1652,7011003011596,登記記録の閉鎖等,0,2022-06-01,2022-05-31,ミックスヴォックス合同会社,,合同会社,東京都,渋谷区,代々木３丁目３６－８Ｂ棟地下,,13,113,1510053,,,2022-05-31,清算の結了等,,,2020-09-09,1,,,,,ミックスヴォックス,0
1664,7011802001649,登記記録の閉鎖等,0,2022-06-01,2022-05-18,有限会社小田部自動車,,有限会社,東京都,葛飾区,四つ木５丁目２２番１４号,,13,122,1240011,,,2022-05-18,清算の結了等,,,2015-10-05,1,,,,,オタベジドウシャ,0
1669,7012402021194,登記記録の閉鎖等,0,2022-06-01,2022-05-27,有限会社京香,,有限会社,東京都,武蔵野市,中町３丁目７番８－５０９号,,13,203,1800006,,,2022-05-27,清算の結了等,,,2015-10-05,1,,,,,キョウカ,0
1676,7013101000943,登記記録の閉鎖等,0,2022-06-01,2022-05-30,三祐ナマコン株式会社,,株式会社,東京都,あきる野市,小川東１丁目２３番地１,,13,228,1970822,,,2022-05-30,清算の結了等,,,2015-10-05,1,,,,,サンユウナマコン,0
1682,7021001060330,登記記録の閉鎖等,0,2022-06-01,2022-05-27,株式会社ＦＳコーポレーション,,株式会社,神奈川県,鎌倉市,笛田２丁目１９番１２号,,14,204,2480027,,,2022-05-27,清算の結了等,,,2016-09-30,1,,,,,エフエスコーポレーション,0
1684,7021002023815,登記記録の閉鎖等,0,2022-06-01,2022-05-27,有限会社フジツーリスト,,有限会社,神奈川県,相模原市緑区,上九沢１３４番地３,,14,151,2520136,,,2022-05-27,清算の結了等,,,2015-10-05,1,,,,,フジツーリスト,0
1687,7030001095105,登記記録の閉鎖等,0,2022-06-01,2022-05-26,株式会社ＯＮＥ’Ｓプロモーション,,株式会社,埼玉県,さいたま市北区,東大成町２丁目４１５番地１０,,11,102,3310814,,,2022-05-26,清算の結了等,,,2015-10-05,1,,,,,ワンズプロモーション,0
1694,7030003004906,登記記録の閉鎖等,0,2022-06-01,2022-05-27,合同会社ドリームランド,,合同会社,埼玉県,飯能市,永田台１丁目２－８,,11,209,3570061,,,2022-05-27,清算の結了等,,,2015-10-05,1,,,,,ドリームランド,0
1718,7080002017466,登記記録の閉鎖等,0,2022-06-01,2022-05-30,有限会社北川商店,,有限会社,静岡県,藤枝市,志太１丁目５番２６号,,22,214,4260071,,,2022-05-30,清算の結了等,,,2015-10-05,1,,,,,キタガワショウテン,0
1719,7080101005529,登記記録の閉鎖等,0,2022-06-01,2022-05-30,株式会社玄海土木,,株式会社,静岡県,駿東郡清水町,玉川２６２番地の２,,22,341,4110902,,,2022-05-30,清算の結了等,,,2015-10-05,1,,,,,ゲンカイドボク,0
1724,7100001022893,登記記録の閉鎖等,0,2022-06-01,2022-05-23,株式会社原鉄エクスプレス,,株式会社,長野県,飯田市,大門町２６番地,,20,205,3950011,,,2022-05-23,合併による解散等,6100001022688,令和４年５月２１日長野県飯田市大門町２６番地株式会社原鉄（6100001022688）に合併し解散,2015-10-05,1,,,,,ハラテツエクスプレス,0
1768,7130005006097,登記記録の閉鎖等,0,2022-06-01,2022-05-30,特定非営利活動法人高校三原則・地域の高校づくりをめざす会,,その他の設立登記法人,京都府,京都市上京区,寺町通今出川上る２丁目鶴山町１５番地の７,,26,102,6020802,,,2022-05-30,清算の結了等,,,2015-10-05,1,,,,,コウコウサンゲンソクチイキノコウコウヅクリヲメザスカイ,0
1769,7130005012608,登記記録の閉鎖等,0,2022-06-01,2022-05-30,特定非営利活動法人西陣デマンド交通の会,,その他の設立登記法人,京都府,京都市上京区,御前通西裏上の下立売上る北町５７４番地２２上岡修,,26,102,6028368,,,2022-05-30,清算の結了等,,,2015-10-05,1,,,,,ニシジンデマンドコウツウノカイ,0
1770,7130005015131,登記記録の閉鎖等,0,2022-06-01,2022-05-26,一般社団法人近畿建設請負業協会,,その他の設立登記法人,滋賀県,湖南市,平松北１丁目４６,,25,211,5203235,,,2022-05-26,合併による解散等,7010005021182,令和４年５月２３日東京都千代田区二番町３番地５一般社団法人全国建設請負業協会（7010005021182）に合併し解散,2017-11-08,1,,,,,キンキケンセツウケオイギョウキョウカイ,0
1794,7180002000965,登記記録の閉鎖等,0,2022-06-01,2022-05-27,有限会社タケヒロ,,有限会社,愛知県,名古屋市守山区,元郷２丁目３２５番地,,23,113,4630025,,,2022-05-27,清算の結了等,,,2015-10-05,1,,,,,タケヒロ,0
1808,7190001007201,登記記録の閉鎖等,0,2022-06-01,2022-05-30,株式会社南勢養鶏,,株式会社,三重県,度会郡南伊勢町,伊勢路１１５２番地の２,,24,472,5160112,,,2022-05-30,清算の結了等,,,2015-10-05,1,,,,,ナンセイヨウケイ,0
1837,7290003005738,登記記録の閉鎖等,0,2022-06-01,2022-05-26,合同会社Ｃ・Ｉ・Ｎ,,合同会社,福岡県,福岡市西区,今宿１丁目４番５号,,40,135,8190167,,,2022-05-26,清算の結了等,,,2015-10-05,1,,,,,シーアイエヌ,0
1850,7370001016605,登記記録の閉鎖等,0,2022-06-01,2022-05-27,株式会社大宇宙,,株式会社,宮城県,仙台市若林区,六丁の目東町４番４４号,,04,103,9840004,,,2022-05-27,清算の結了等,,,2015-10-05,1,,,,,ダイウチュウ,0
1854,7380005005504,登記記録の閉鎖等,0,2022-06-01,2022-05-26,協同組合古殿杉の子スタンプ会,,その他の設立登記法人,福島県,石川郡古殿町,大字竹貫字竹貫２９番地の１,,07,505,9638305,,,2022-05-26,清算の結了等,,,2015-10-05,1,,,,,フルドノスギノコスタンプカイ,0
1856,7390002006842,登記記録の閉鎖等,0,2022-06-01,2022-05-20,有限会社エスアールテー,,有限会社,山形県,山形市,南館西１６番１号,,06,201,9902465,,,2022-05-20,清算の結了等,,,2015-10-05,1,,,,,エスアールテー,0
1865,7430002004957,登記記録の閉鎖等,0,2022-06-01,2022-05-24,有限会社金井美智代の美容室,,有限会社,北海道,札幌市中央区,南十一条西１４丁目２番３０号,,01,101,0640811,,,2022-05-24,清算の結了等,,,2015-10-05,1,,,,,カナイミリヨノビヨウシツ,0
1904,8010701029065,登記記録の閉鎖等,0,2022-06-01,2022-05-25,株式会社正徳,,株式会社,東京都,中央区,銀座５丁目９番５号チアーズ銀座８Ｆ,,13,102,1040061,,,2022-05-25,合併による解散等,7340001017564,令和４年５月２３日鹿児島県鹿屋市川東町８４１３番地４５株式会社Ｍ・Ｈコーポレーション（7340001017564）に合併し解散,2015-10-05,1,,,,,ショウトク,0
1925,8011601013712,登記記録の閉鎖等,0,2022-06-01,2022-05-17,海容株式会社,,株式会社,東京都,中央区,銀座３丁目１１番３号,,13,102,1040061,,,2022-05-17,清算の結了等,,,2015-10-05,1,,,,,カイヨウ,0
1934,8012301000133,登記記録の閉鎖等,0,2022-06-01,2022-05-25,トーセイ・アーバンホーム株式会社,,株式会社,東京都,町田市,中町２丁目１４番８号,,13,209,1940021,,,2022-05-25,清算の結了等,,,2015-10-05,1,,,,,トーセイアーバンホーム,0
1991,8110003002322,登記記録の閉鎖等,0,2022-06-01,2022-05-30,合資会社山萬商店,,合資会社,新潟県,魚沼市,本町１丁目２３番地,,15,225,9460041,,,2022-05-30,清算の結了等,,,2015-10-05,1,,,,,ヤママンショウテン,0
1996,8120001162308,登記記録の閉鎖等,0,2022-06-01,2022-05-26,株式会社カラーズコミュニケーションズ,,株式会社,兵庫県,芦屋市,東芦屋町１７－２６－１０１,00106620,28,206,6590095,,,2022-05-26,清算の結了等,,,2015-10-05,1,,,,,カラーズコミュニケーションズ,0
2008,8120102002899,登記記録の閉鎖等,0,2022-06-01,2022-05-30,有限会社茶谷商店,,有限会社,大阪府,堺市堺区,大町東１丁１番１３号,,27,141,5900954,,,2022-05-30,清算の結了等,,,2015-10-05,1,,,,,チャタニショウテン,0
2011,8120902014937,登記記録の閉鎖等,0,2022-06-01,2022-05-31,有限会社アビリテイ,,有限会社,大阪府,箕面市,西宿３丁目５番２号,,27,220,5620034,,,2022-05-31,清算の結了等,,,2015-10-05,1,,,,,アビリテイ,0
2045,8200001010508,登記記録の閉鎖等,0,2022-06-01,2022-05-31,株式会社ウイナーズジャパン,,株式会社,岐阜県,瑞穂市,馬場上光町３丁目５番地１,,21,216,5010203,,,2022-05-31,清算の結了等,,,2015-10-05,1,,,,,ウイナーズジャパン,0
2063,8260002033378,登記記録の閉鎖等,0,2022-06-01,2022-06-01,有限会社依田工業,,有限会社,岡山県,玉野市,八浜町波知１９６１番地１,,33,204,7060223,,,2022-06-01,清算の結了等,,,2015-10-05,1,,,,,ヨダコウギョウ,0
2068,8290001046675,登記記録の閉鎖等,0,2022-06-01,2022-05-26,株式会社聖,,株式会社,福岡県,福岡市中央区,渡辺通１丁目８番３３号,,40,133,8100004,,,2022-05-26,清算の結了等,,,2015-10-05,1,,,,,,0
2071,8290805008004,登記記録の閉鎖等,0,2022-06-01,2022-05-31,特定非営利活動法人北九州市を明るく元気にする会,,その他の設立登記法人,福岡県,北九州市八幡東区,荒手１丁目４番４０号,,40,108,8050001,,,2022-05-31,清算の結了等,,,2015-10-05,1,,,,,キタキュウシュウシヲアカルクゲンキニスルカイ,0
2077,8340002018552,登記記録の閉鎖等,0,2022-06-01,2022-05-31,エクセレント指宿有限会社,,有限会社,鹿児島県,指宿市,湯の浜５丁目２７番１４号,,46,210,8910406,,,2022-05-31,清算の結了等,,,2015-10-05,1,,,,,,0
2082,8370301002543,登記記録の閉鎖等,0,2022-06-01,2022-05-30,株式会社海鮮フーズ,,株式会社,宮城県,石巻市,丸井戸２丁目１番２９－９号,,04,202,9860865,,,2022-05-30,清算の結了等,,,2015-10-05,1,,,,,カイセンフーズ,0
2103,8430003012751,登記記録の閉鎖等,0,2022-06-01,2022-05-20,ＲＬ高田清掃管理合同会社,00123091,合同会社,北海道,札幌市東区,北三十二条東１丁目５番１号,,01,103,0650032,,,2022-05-20,清算の結了等,,,2021-05-19,1,,,,,,0
2108,8470002010760,登記記録の閉鎖等,0,2022-06-01,2022-05-30,有限会社明乳マツバラ,,有限会社,香川県,木田郡三木町,大字池戸３２６６番地,,37,341,7610701,,,2022-05-30,清算の結了等,,,2015-10-05,1,,,,,メイニュウマツバラ,0
2113,8500001021391,登記記録の閉鎖等,0,2022-06-01,2022-05-30,オレンジサービス株式会社,,株式会社,愛媛県,松山市,末広町１７－５,,38,201,7900023,,,2022-05-30,清算の結了等,,,2018-05-30,1,,,,,オレンジサービス,0
2127,9010001162763,登記記録の閉鎖等,0,2022-06-01,2022-05-23,メディジョイスト株式会社,,株式会社,東京都,中央区,日本橋兜町１７番２号兜町第６葉山ビル４階,,13,102,1030026,,,2022-05-23,清算の結了等,,,2015-10-05,1,,,,,メディジョイスト,0
2136,9010401013847,登記記録の閉鎖等,0,2022-06-01,2022-05-16,株式会社神谷町管理,,株式会社,東京都,港区,虎ノ門３丁目１１番１５号（ＳＶＡＸ・ＴＴビル）,,13,103,1050001,,,2022-05-16,清算の結了等,,,2015-10-05,1,,,,,カミヤチョウカンリ,0
2147,9010501046177,登記記録の閉鎖等,0,2022-06-01,2022-05-31,株式会社テックソムリエ,,株式会社,東京都,台東区,上野６丁目１番６号,,13,106,1100005,,,2022-05-31,清算の結了等,,,2020-09-03,1,,,,,テックソムリエ,0
2155,9010701031631,登記記録の閉鎖等,0,2022-06-01,2022-05-27,ｔｅｋｏ株式会社,,株式会社,東京都,品川区,北品川１丁目９－７トップルーム品川１０１５,,13,109,1400001,,,2022-05-27,清算の結了等,,,2015-11-13,1,,,,,テコ,0
2171,9011103007815,登記記録の閉鎖等,0,2022-06-01,2022-05-30,合同会社叢雲社,,合同会社,東京都,新宿区,北新宿１丁目５番２号佐藤ビル５階,,13,104,1690074,,,2022-05-30,清算の結了等,,,2018-04-09,1,,,,,ムラクモシャ,0
2180,9011602006490,登記記録の閉鎖等,0,2022-06-01,2022-05-30,有限会社谷口工業,,有限会社,東京都,練馬区,西大泉４丁目６番１１号,,13,120,1780065,,,2022-05-30,清算の結了等,,,2015-10-05,1,,,,,タニグチコウギョウ,0
2187,9012302005295,登記記録の閉鎖等,0,2022-06-01,2022-05-25,渡辺建設有限会社,,有限会社,東京都,町田市,南町田１丁目３８番１号,,13,209,1940005,,,2022-05-25,清算の結了等,,,2015-10-05,1,,,,,ワタナベケンセツ,0
2207,9020002080253,登記記録の閉鎖等,0,2022-06-01,2022-05-27,有限会社石栗工機,,有限会社,神奈川県,川崎市幸区,遠藤町６４番地１グランシティユーロレジデンス川崎７０９,,14,132,2120006,,,2022-05-27,清算の結了等,,,2015-10-05,1,,,,,イシグリコウキ,0
2218,9030001120793,登記記録の閉鎖等,0,2022-06-01,2022-05-27,株式会社Ｎａｔｕｒａｌ　Ｌｉｎｋ,,株式会社,埼玉県,入間市,東町１丁目１３番１６号,,11,225,3580002,,,2022-05-27,清算の結了等,,,2017-06-12,1,,,,,,0
2241,9080001020510,登記記録の閉鎖等,0,2022-06-01,2022-05-31,株式会社３ｒｄｐｌａｃｅ,,株式会社,静岡県,静岡市清水区,蒲原東１４８番地の１,,22,103,4213201,,,2022-05-31,合併による解散等,1080001010221,令和４年５月３１日静岡県静岡市清水区蒲原東１４８番地の１駿河重機建設株式会社（1080001010221）に合併し解散,2015-10-05,1,,,,,サードプレイス,0
2248,9100001022280,登記記録の閉鎖等,0,2022-06-01,2022-05-30,株式会社オキミョウ,,株式会社,長野県,飯田市,北方１７７番地３,,20,205,3950151,,,2022-05-30,清算の結了等,,,2015-10-05,1,,,,,オキミョウ,0
2268,9120002061086,登記記録の閉鎖等,0,2022-06-01,2022-05-31,有限会社堀江エステート,,有限会社,大阪府,大阪市西区,北堀江１丁目１番２７号,,27,106,5500014,,,2022-05-31,清算の結了等,,,2015-10-05,1,,,,,ホリエエステート,0
2285,9122001020799,登記記録の閉鎖等,0,2022-06-01,2022-05-30,大橋建設株式会社,,株式会社,大阪府,柏原市,法善寺３丁目５５６番地,,27,221,5820005,,,2022-05-30,清算の結了等,,,2015-10-05,1,,,,,,0
2288,9130002011478,登記記録の閉鎖等,0,2022-06-01,2022-05-26,有限会社堀田工作所,,有限会社,京都府,京都市南区,唐橋門脇町４の８番地,,26,107,6018461,,,2022-05-26,清算の結了等,,,2015-10-05,1,,,,,ホッタコウサクショ,0
2291,9140001016048,登記記録の閉鎖等,0,2022-06-01,2022-05-30,株式会社光和,,株式会社,兵庫県,神戸市長田区,若松町２丁目１番７号,,28,106,6530038,,,2022-05-30,清算の結了等,,,2015-10-05,1,,,,,,0
2293,9140001077437,登記記録の閉鎖等,0,2022-06-01,2022-05-23,株式会社茶たろう,,株式会社,兵庫県,小野市,小田町１９１０番地の４８４,,28,218,6751301,,,2022-05-23,清算の結了等,,,2015-10-05,1,,,,,チャタロウ,0
2321,9240001038197,登記記録の閉鎖等,0,2022-06-01,2022-05-30,セカイ株式会社,,株式会社,広島県,尾道市,栗原西１丁目７番２１号,,34,205,7220026,,,2022-05-30,清算の結了等,,,2015-10-05,1,,,,,セカイ,0
2355,9370001041601,登記記録の閉鎖等,0,2022-06-01,2022-05-30,株式会社平和建設,,株式会社,宮城県,岩沼市,三色吉字松４７番地の２,,04,211,9892464,,,2022-05-30,清算の結了等,,,2017-06-08,1,,,,,ヘイワケンセツ,0
