sequenceNumber,corporateNumber,process,correct,updateDate,changeDate,name,nameImageId,kind,prefectureName,cityName,streetNumber,addressImageId,prefectureCode,cityCode,postCode,addressOutside,addressOutsideImageId,closeDate,closeCause,successorCorporateNumber,changeCause,assignmentDate,latest,enName,enPrefectureName,enCityName,enAddressOutside,furigana,hihyoji
4,1010001162036,登記記録の閉鎖等,0,2023-08-01,2023-07-13,株式会社Ｍ＆Ａ能力開発本部,,株式会社,東京都,千代田区,平河町２丁目７番１号塩崎ビル,,13,101,1020093,,,2023-07-13,清算の結了等,,,2015-10-05,1,,,,,エムアンドエノウリョクカイハツホンブ,0
30,1010401137042,登記記録の閉鎖等,0,2023-08-01,2023-07-07,株式会社イーグルゼット,,株式会社,東京都,港区,南青山１丁目１５番１５号,,13,103,1070062,,,2023-07-07,清算の結了等,,,2018-03-08,1,,,,,イーグルゼット,0
67,1011102029702,登記記録の閉鎖等,0,2023-08-01,2023-07-31,有限会社富士企画,,有限会社,東京都,新宿区,若葉１丁目１３番地３,,13,104,1600011,,,2023-07-31,清算の結了等,,,2015-10-05,1,,,,,フジキカク,0
72,1012702003666,登記記録の閉鎖等,0,2023-08-01,2023-07-27,有限会社モトイ設備研究室,,有限会社,東京都,東村山市,野口町２丁目２７番地２２,,13,213,1890022,,,2023-07-27,清算の結了等,,,2015-10-05,1,,,,,モトイセツビケンキュウシツ,0
86,1021001065475,登記記録の閉鎖等,0,2023-08-01,2023-07-27,株式会社グッディ,,株式会社,神奈川県,藤沢市,菖蒲沢１１２５番地の１－１３０３号,,14,205,2520823,,,2023-07-27,清算の結了等,,,2018-08-20,1,,,,,グッディ,0
93,1030002003138,登記記録の閉鎖等,0,2023-08-01,2023-07-07,有限会社大和田製作所,,有限会社,埼玉県,さいたま市見沼区,大字南中野１１５２番地３,,11,104,3370042,,,2023-07-07,清算の結了等,,,2015-10-05,1,,,,,オオワダセイサクジョ,0
96,1030003012187,登記記録の閉鎖等,0,2023-08-01,2023-07-07,合同会社リーベ,,合同会社,埼玉県,さいたま市見沼区,大字小深作３６７番地１－３１０,,11,104,3370005,,,2023-07-07,清算の結了等,,,2018-07-24,1,,,,,リーベ,0
107,1040002030890,登記記録の閉鎖等,0,2023-08-01,2023-07-05,有限会社春生堂,,有限会社,千葉県,八千代市,八千代台北６丁目２番地１９,,12,221,2760031,,,2023-07-05,清算の結了等,,,2015-10-05,1,,,,,シュンセイドウ,0
118,1050001051771,登記記録の閉鎖等,0,2023-08-01,2023-07-25,株式会社アムロコム,,株式会社,茨城県,水戸市,笠原町７６７番地１８,,08,201,3100852,,,2023-07-25,清算の結了等,,,2022-10-06,1,,,,,アムロコム,0
124,1070001000578,登記記録の閉鎖等,0,2023-08-01,2023-07-28,加藤住宅サービス株式会社,,株式会社,群馬県,前橋市,南町１丁目８番８号,,10,201,3710805,,,2023-07-28,清算の結了等,,,2015-10-05,1,,,,,カトウジュウタクサービス,0
127,1080001016689,登記記録の閉鎖等,0,2023-08-01,2023-07-26,長谷川建設株式会社,,株式会社,静岡県,藤枝市,青南町４丁目１４番地の２８,,22,214,4260063,,,2023-07-26,清算の結了等,,,2015-10-05,1,,,,,ハセガワケンセツ,0
146,1120001153718,登記記録の閉鎖等,0,2023-08-01,2023-07-24,田中工業株式会社,,株式会社,大阪府,寝屋川市,池田北町１４番１８号,,27,215,5720073,,,2023-07-24,清算の結了等,,,2015-10-05,1,,,,,,0
164,1120901012213,登記記録の閉鎖等,0,2023-08-01,2023-07-24,株式会社山本工務店,,株式会社,大阪府,高槻市,川西町１丁目３１番１３号,,27,207,5691133,,,2023-07-24,清算の結了等,,,2015-10-05,1,,,,,ヤマモトコウムテン,0
179,1140001083211,登記記録の閉鎖等,0,2023-08-01,2023-07-27,株式会社ＫＧプランニング,,株式会社,兵庫県,宝塚市,伊孑志４丁目２番６８号,,28,214,6650033,,,2023-07-27,清算の結了等,,,2015-10-05,1,,,,,ケージープランニング,0
186,1180001001235,登記記録の閉鎖等,0,2023-08-01,2023-07-28,株式会社マルハマ,,株式会社,愛知県,名古屋市守山区,大字上志段味字中屋敷１４８８番地,,23,113,4630001,,,2023-07-28,清算の結了等,,,2015-10-05,1,,,,,マルハマ,0
194,1180002040133,登記記録の閉鎖等,0,2023-08-01,2023-07-28,有限会社サイファ,,有限会社,愛知県,名古屋市中区,丸の内２丁目２番１５号,,23,106,4600002,,,2023-07-28,清算の結了等,,,2015-10-05,1,,,,,サイファ,0
195,1180003005614,登記記録の閉鎖等,0,2023-08-01,2023-07-27,合資会社ナグラ化粧品店,,合資会社,愛知県,名古屋市中区,栄３丁目５番１２号栄地下街,,23,106,4600008,,,2023-07-27,清算の結了等,,,2015-10-05,1,,,,,ナグラケショウヒンテン,0
197,1180301037367,登記記録の閉鎖等,0,2023-08-01,2023-07-24,株式会社阪東三河,,株式会社,愛知県,岡崎市,美合新町１６番地１７,,23,202,4440801,,,2023-07-24,清算の結了等,,,2023-05-12,1,,,,,バンドウミカワ,0
199,1180302001388,登記記録の閉鎖等,0,2023-08-01,2023-07-25,有限会社三喜トラベル,,有限会社,愛知県,岡崎市,不吹町１番地１８８,,23,202,4440817,,,2023-07-25,清算の結了等,,,2015-10-05,1,,,,,ミキトラベル,0
217,1270005004423,登記記録の閉鎖等,0,2023-08-01,2023-07-12,西小鹿生産森林組合,,その他の設立登記法人,鳥取県,東伯郡三朝町,大字西小鹿１１１７番地,,31,364,6820144,,,2023-07-12,清算の結了等,,,2015-10-05,1,,,,,ニシオシカ,0
219,1290001017393,登記記録の閉鎖等,0,2023-08-01,2023-07-18,株式会社ランドアンドヒューマン,,株式会社,福岡県,福岡市中央区,天神２丁目３番３６号ｉｂｂ　ｆｕｋｕｏｋａ５Ｆ,,40,133,8100001,,,2023-07-18,清算の結了等,,,2015-10-05,1,,,,,ランドアンドヒューマン,0
245,1390001005982,登記記録の閉鎖等,0,2023-08-01,2023-07-26,株式会社スクーデリア,,株式会社,山形県,山形市,松波３丁目４番１１号,,06,201,9900023,,,2023-07-26,清算の結了等,,,2015-10-05,1,,,,,スクーデリア,0
254,1430001030712,登記記録の閉鎖等,0,2023-08-01,2023-07-18,株式会社リアール,,株式会社,北海道,札幌市白石区,北郷一条５丁目４番６１号,,01,104,0030831,,,2023-07-18,清算の結了等,,,2015-10-05,1,,,,,リアール,0
263,1460102002392,登記記録の閉鎖等,0,2023-08-01,2023-07-25,有限会社十勝サービス,,有限会社,北海道,帯広市,西五条南２９丁目９番地２,,01,207,0800015,,,2023-07-25,清算の結了等,,,2015-10-05,1,,,,,,0
264,1460105000261,登記記録の閉鎖等,0,2023-08-01,2023-07-28,帯広米穀小売商業協同組合,,その他の設立登記法人,北海道,帯広市,西六条南１４丁目１番地,,01,207,0800016,,,2023-07-28,清算の結了等,,,2015-10-05,1,,,,,オビヒロベイコクコウリ,0
273,2010001120711,登記記録の閉鎖等,0,2023-08-01,2023-07-20,株式会社リクルートグローバルインキュベーションパートナーズ,,株式会社,東京都,千代田区,丸の内１丁目９番２号,,13,101,1000005,,,2023-07-20,清算の結了等,,,2015-10-05,1,,,,,リクルートグローバルインキュベーションパートナーズ,0
289,2010401010363,登記記録の閉鎖等,0,2023-08-01,2023-07-10,株式会社コフデ,,株式会社,東京都,港区,芝大門２丁目１０番１８号,,13,103,1050012,,,2023-07-10,清算の結了等,,,2015-10-05,1,,,,,コフデ,0
296,2010602029921,登記記録の閉鎖等,0,2023-08-01,2023-07-26,有限会社ジーエー,,有限会社,東京都,墨田区,江東橋３丁目３番７号,,13,107,1300022,,,2023-07-26,清算の結了等,,,2015-10-05,1,,,,,ジーエー,0
327,2011101061077,登記記録の閉鎖等,0,2023-08-01,2023-07-10,株式会社アローズ・コミュニケーションズ,,株式会社,東京都,港区,高輪３丁目２５番２７号１１１０号室,,13,103,1080074,,,2023-07-10,清算の結了等,,,2015-10-05,1,,,,,,0
337,2011701014624,登記記録の閉鎖等,0,2023-08-01,2023-07-28,株式会社とらのまき,,株式会社,東京都,江戸川区,西小岩１丁目１６番２号アグレ西小岩２階,,13,123,1330057,,,2023-07-28,清算の結了等,,,2015-10-05,1,,,,,トラノマキ,0
345,2011802010877,登記記録の閉鎖等,0,2023-08-01,2023-07-31,有限会社おおばんフーズ,,有限会社,東京都,足立区,本木北町１０番１５号,,13,121,1230857,,,2023-07-31,清算の結了等,,,2015-10-05,1,,,,,オオバンフーズ,0
346,2011803003517,登記記録の閉鎖等,0,2023-08-01,2023-07-28,株式会社Ｋ’ｓクラフト,,株式会社,東京都,足立区,南花畑２丁目８番５号エーデルブルーメ葦川３０６,,13,121,1210062,,,2023-07-28,清算の結了等,,,2018-11-14,1,,,,,ケーズクラフト,0
357,2013301047500,登記記録の閉鎖等,0,2023-08-01,2023-07-24,株式会社オルフローレ,,株式会社,東京都,豊島区,南大塚３丁目２番１２号ＭＭビル１０１号,,13,116,1700005,,,2023-07-24,清算の結了等,,,2021-05-27,1,,,,,オルフローレ,0
359,2020001010465,登記記録の閉鎖等,0,2023-08-01,2023-07-18,株式会社ピー・エー・シー,,株式会社,神奈川県,横浜市戸塚区,平戸１丁目１３－２,,14,110,2440802,,,2023-07-18,清算の結了等,,,2015-10-05,1,,,,,ピーエーシー,0
367,2020002025974,登記記録の閉鎖等,0,2023-08-01,2023-07-19,有限会社兼音青木商店,,有限会社,神奈川県,横浜市神奈川区,山内町１番地の１,,14,102,2210054,,,2023-07-19,清算の結了等,,,2015-10-05,1,,,,,カネオトアオキショウテン,0
376,2030001046483,登記記録の閉鎖等,0,2023-08-01,2023-07-06,株式会社三功保険,,株式会社,埼玉県,富士見市,東みずほ台２丁目９番地１１,,11,235,3540015,,,2023-07-06,清算の結了等,,,2015-10-05,1,,,,,サンコウホケン,0
378,2030002084747,登記記録の閉鎖等,0,2023-08-01,2023-07-06,有限会社アサイ,,有限会社,埼玉県,越谷市,南越谷５丁目１３番地２,,11,222,3430845,,,2023-07-06,清算の結了等,,,2015-10-05,1,,,,,アサイ,0
386,2040002096452,登記記録の閉鎖等,0,2023-08-01,2023-07-07,京都産業有限会社,,有限会社,千葉県,我孫子市,寿２丁目２７番４２号,,12,222,2701152,,,2023-07-07,清算の結了等,,,2015-10-05,1,,,,,キョウトサンギョウ,0
387,2040002100503,登記記録の閉鎖等,0,2023-08-01,2023-07-05,有限会社マリンブルー,,有限会社,千葉県,南房総市,千倉町大川１２１１番地,,12,234,2950026,,,2023-07-05,清算の結了等,,,2015-10-05,1,,,,,マリンブルー,0
430,2120002003656,登記記録の閉鎖等,0,2023-08-01,2023-07-31,有限会社福栄,,有限会社,大阪府,大阪市阿倍野区,阪南町１丁目６番２号,,27,119,5450021,,,2023-07-31,清算の結了等,,,2015-10-05,1,,,,,フクエ,0
431,2120002025634,登記記録の閉鎖等,0,2023-08-01,2023-07-28,有限会社東淀電気通信,,有限会社,大阪府,大阪市東淀川区,大桐５丁目１８番１号,,27,114,5330011,,,2023-07-28,清算の結了等,,,2015-10-05,1,,,,,トウヨドデンキツウシン,0
438,2120901035980,登記記録の閉鎖等,0,2023-08-01,2023-07-28,株式会社ユウキフーズ,,株式会社,大阪府,茨木市,上穂積１丁目４番３３－１０１１号,,27,211,5670036,,,2023-07-28,清算の結了等,,,2015-10-05,1,,,,,,0
440,2120902016848,登記記録の閉鎖等,0,2023-08-01,2023-07-13,有限会社エーシーファクトリー,,有限会社,大阪府,箕面市,箕面３丁目３番２０－１０１号,,27,220,5620001,,,2023-07-13,清算の結了等,,,2015-10-05,1,,,,,エーシーファクトリー,0
443,2130001000819,登記記録の閉鎖等,0,2023-08-01,2023-07-14,株式会社坂上正香園,,株式会社,京都府,京都市中京区,壬生松原町１２番地の１０,,26,104,6048823,,,2023-07-14,清算の結了等,,,2015-10-05,1,,,,,サカガミショウカエン,0
446,2130003003142,登記記録の閉鎖等,0,2023-08-01,2023-07-13,合同会社安－あん,,合同会社,京都府,城陽市,寺田中大小５２番地,,26,207,6100121,,,2023-07-13,清算の結了等,,,2015-10-05,1,,,,,アン,0
449,2140002067088,登記記録の閉鎖等,0,2023-08-01,2023-07-27,有限会社高橋商会,,有限会社,兵庫県,宝塚市,安倉中１丁目４番１９号,,28,214,6650822,,,2023-07-27,清算の結了等,,,2015-10-05,1,,,,,タカハシショウカイ,0
474,2220005008015,登記記録の閉鎖等,0,2023-08-01,2023-07-25,特定非営利活動法人カブッキータウンこまつ,,その他の設立登記法人,石川県,小松市,三日市町３７番地,,17,203,9230924,,,2023-07-25,清算の結了等,,,2015-10-05,1,,,,,カブッキータウンコマツ,0
477,2240002035571,登記記録の閉鎖等,0,2023-08-01,2023-07-24,有限会社増本設計,,有限会社,広島県,呉市,焼山ひばりヶ丘町２番４号,,34,202,7370901,,,2023-07-24,清算の結了等,,,2015-10-05,1,,,,,マスモトセッケイ,0
478,2240002036181,登記記録の閉鎖等,0,2023-08-01,2023-07-21,有限会社ＤＳカンパニー,,有限会社,広島県,呉市,焼山北１丁目４番３１号,,34,202,7370911,,,2023-07-21,清算の結了等,,,2015-10-05,1,,,,,ディーエスカンパニー,0
485,2260002019886,登記記録の閉鎖等,0,2023-08-01,2023-07-27,有限会社ときわ薬局,,有限会社,岡山県,倉敷市,水島西常盤町５番２０号,,33,202,7128059,,,2023-07-27,清算の結了等,,,2015-10-05,1,,,,,トキワヤッキョク,0
487,2270001003808,登記記録の閉鎖等,0,2023-08-01,2023-07-18,株式会社宝商会,,株式会社,鳥取県,境港市,本町１３番地,,31,204,6840025,,,2023-07-18,清算の結了等,,,2015-10-05,1,,,,,タカラショウカイ,0
511,2330005008144,登記記録の閉鎖等,0,2023-08-01,2023-07-03,ＮＰＯ法人希望,,その他の設立登記法人,熊本県,上天草市,松島町阿村５７０２番地５,,43,212,8616101,,,2023-07-03,清算の結了等,,,2015-10-05,1,,,,,キボウ,0
512,2340002025091,登記記録の閉鎖等,0,2023-08-01,2023-07-28,有限会社鹿屋カメラセンター,,有限会社,鹿児島県,鹿屋市,寿４丁目３０９６番地４,,46,203,8930014,,,2023-07-28,清算の結了等,,,2015-10-05,1,,,,,,0
539,2440005001303,登記記録の閉鎖等,0,2023-08-01,2023-07-28,函館生コンクリート協同組合,,その他の設立登記法人,北海道,北斗市,清水川１４２番地２９,,01,236,0411221,,,2023-07-28,清算の結了等,,,2015-10-05,1,,,,,ハコダテナマコンクリート,0
549,3010001014805,登記記録の閉鎖等,0,2023-08-01,2023-07-28,株式会社キッチンジロー,,株式会社,東京都,港区,赤坂２丁目２２番２１号クラスアクトビル３階,,13,103,1070052,,,2023-07-28,合併による解散等,3320001001417,令和５年７月１日大分市三川新町一丁目１番４５号株式会社ジョイフル（3320001001417）に合併し解散,2015-10-05,1,,,,,キッチンジロー,0
551,3010001104787,登記記録の閉鎖等,0,2023-08-01,2023-07-10,株式会社わいず,,株式会社,東京都,港区,高輪４丁目２３番６－７０８号,,13,103,1080074,,,2023-07-10,清算の結了等,,,2015-10-05,1,,,,,,0
552,3010001123977,登記記録の閉鎖等,0,2023-08-01,2023-07-20,株式会社藤企画,,株式会社,東京都,中央区,銀座８丁目６番１１号,,13,102,1040061,,,2023-07-20,清算の結了等,,,2015-10-05,1,,,,,フジキカク,0
563,3010003020990,登記記録の閉鎖等,0,2023-08-01,2023-07-19,日光１６６アルテ神戸合同会社,,合同会社,東京都,千代田区,丸の内３丁目１番１号東京共同会計事務所内,,13,101,1000005,,,2023-07-19,清算の結了等,,,2015-10-05,1,,,,,ニッコウワンハンドレッドシックスティーシックスアルテコウベ,0
593,3010501045762,登記記録の閉鎖等,0,2023-08-01,2023-07-26,株式会社Ｊモンタナ,,株式会社,東京都,江戸川区,南小岩５丁目１－５,,13,123,1330056,,,2023-07-26,清算の結了等,,,2020-05-22,1,,,,,ジェイモンタナ,0
612,3011101063188,登記記録の閉鎖等,0,2023-08-01,2023-07-31,太田印刷株式会社,,株式会社,東京都,新宿区,弁天町三番地,,13,104,1620851,,,2023-07-31,清算の結了等,,,2015-10-05,1,,,,,オオタインサツ,0
621,3011401022232,登記記録の閉鎖等,0,2023-08-01,2023-07-28,株式会社ＹＡＯＫＩ,,株式会社,東京都,板橋区,赤塚５丁目１２番２５号,,13,119,1750092,,,2023-07-28,清算の結了等,,,2019-11-26,1,,,,,ヤオキ,0
622,3011501020053,登記記録の閉鎖等,0,2023-08-01,2023-07-19,株式会社フェリシア,,株式会社,神奈川県,横浜市中区,港町５丁目２４番２号,,14,104,2310017,,,2023-07-19,清算の結了等,,,2015-10-05,1,,,,,フェリシア,0
631,3011802003161,登記記録の閉鎖等,0,2023-08-01,2023-07-28,有限会社栄縫製,,有限会社,東京都,葛飾区,西新小岩４丁目１３番９号,,13,122,1240025,,,2023-07-28,清算の結了等,,,2015-10-05,1,,,,,サカエホウセイ,0
636,3012801019041,登記記録の閉鎖等,0,2023-08-01,2023-07-26,株式会社バリーアセットマネジメント,,株式会社,東京都,国立市,東３丁目９番地の７０,,13,215,1860002,,,2023-07-26,清算の結了等,,,2018-10-12,1,,,,,バリーアセットマネジメント,0
655,3021002025328,登記記録の閉鎖等,0,2023-08-01,2023-07-27,有限会社ヨシダクラフト,,有限会社,神奈川県,相模原市緑区,二本松４丁目８番６号,,14,151,2520137,,,2023-07-27,清算の結了等,,,2015-10-05,1,,,,,ヨシダクラフト,0
656,3021002038288,登記記録の閉鎖等,0,2023-08-01,2023-07-28,有限会社中村酒店,,有限会社,神奈川県,秦野市,沼代新町９番２１号,,14,211,2591316,,,2023-07-28,清算の結了等,,,2015-10-05,1,,,,,ナカムラサケテン,0
657,3021003010634,登記記録の閉鎖等,0,2023-08-01,2023-05-23,合同会社ｉＳａｎｄ,,合同会社,神奈川県,相模原市中央区,清新７丁目１６－２０－１０３,,14,152,2520216,,,2023-05-23,清算の結了等,,,2021-06-25,1,,,,,アイサンド,0
659,3030001023878,登記記録の閉鎖等,0,2023-08-01,2023-07-06,株式会社明光ライフ,,株式会社,埼玉県,所沢市,宮本町２丁目３番１０号,,11,208,3591143,,,2023-07-06,清算の結了等,,,2015-10-05,1,,,,,メイコウライフ,0
664,3040001080729,登記記録の閉鎖等,0,2023-08-01,2023-07-10,Ｋｏｆｔｅ株式会社,,株式会社,千葉県,浦安市,入船３丁目６８番１９号,,12,227,2790012,,,2023-07-10,清算の結了等,,,2015-10-05,1,,,,,,0
667,3040001127793,登記記録の閉鎖等,0,2023-08-01,2023-07-06,株式会社のどか和,,株式会社,千葉県,千葉市中央区,中央３丁目１７番１－３９０２号,,12,101,2600013,,,2023-07-06,清算の結了等,,,2023-04-06,1,,,,,ノドカ,0
688,3120001007558,登記記録の閉鎖等,0,2023-08-01,2023-07-24,株式会社サンキョウ,,株式会社,大阪府,大阪市都島区,中野町４丁目３番１１号,,27,102,5340027,,,2023-07-24,清算の結了等,,,2015-10-05,1,,,,,,0
717,3120105004583,登記記録の閉鎖等,0,2023-08-01,2023-07-31,特定非営利活動法人芝生スピリット,,その他の設立登記法人,大阪府,堺市中区,土師町３丁３２番３７号,,27,142,5998238,,,2023-07-31,清算の結了等,,,2015-10-05,1,,,,,シバフスピリット,0
721,3120901019355,登記記録の閉鎖等,0,2023-08-01,2023-07-26,株式会社今西商店,,株式会社,大阪府,池田市,室町２番４号,,27,204,5630047,,,2023-07-26,清算の結了等,,,2015-10-05,1,,,,,イマニシショウテン,0
722,3120902008266,登記記録の閉鎖等,0,2023-08-01,2023-07-24,有限会社ウオセイ,,有限会社,大阪府,摂津市,鳥飼上３丁目２番１９号,,27,224,5660062,,,2023-07-24,清算の結了等,,,2015-10-05,1,,,,,ウオセイ,0
731,3130001070324,登記記録の閉鎖等,0,2023-08-01,2023-07-27,株式会社つむぎ,,株式会社,京都府,木津川市,木津川台７丁目１番地４,,26,214,6190225,,,2023-07-27,合併による解散等,2013302015745,令和５年７月１日東京都豊島区上池袋一丁目３８番１０号不二ビル１０１株式会社コミュニティメディカル（2013302015745）に合併し解散,2021-10-14,1,,,,,ツムギ,0
737,3140005017642,登記記録の閉鎖等,0,2023-08-01,2023-07-27,農事組合法人松籟きのこセンター,,その他の設立登記法人,兵庫県,小野市,長尾町字迎山８４３番地の１５,,28,218,6751314,,,2023-07-27,清算の結了等,,,2015-10-05,1,,,,,ショウライキノコセンター,0
754,3180005003845,登記記録の閉鎖等,0,2023-08-01,2023-07-27,名古屋急便協同組合,,その他の設立登記法人,愛知県,名古屋市中川区,松重町一丁目１８番地,,23,110,4540003,,,2023-07-27,清算の結了等,,,2015-10-05,1,,,,,ナゴヤキュウビン,0
755,3180005014652,登記記録の閉鎖等,0,2023-08-01,2023-07-26,特定非営利活動法人香流川をきれいにする会,,その他の設立登記法人,愛知県,名古屋市名東区,社台３丁目２６３－１ＣＡＳＡ　ＮＯＡＨ名東１０４号室,,23,115,4650092,,,2023-07-26,清算の結了等,,,2015-10-05,1,,,,,カナレガワヲキレイニスルカイ,0
757,3180303004116,登記記録の閉鎖等,0,2023-08-01,2023-07-24,合同会社サイトウ,,合同会社,愛知県,豊橋市,三ノ輪町字本興寺４３番地,,23,201,4400837,,,2023-07-24,清算の結了等,,,2018-07-20,1,,,,,サイトウ,0
758,3190002017624,登記記録の閉鎖等,0,2023-08-01,2023-07-28,有限会社スクリーン,,有限会社,愛知県,あま市,七宝町下之森屋敷代４６７番地１コンフォール下之森Ｂ棟１０１号,,23,237,4970006,,,2023-07-28,清算の結了等,,,2015-10-05,1,,,,,スクリーン,0
759,3190005004850,登記記録の閉鎖等,0,2023-08-01,2023-07-11,瑞應院,,その他の設立登記法人,三重県,伊勢市,曽祢１丁目６番２８号,,24,203,5160078,,,2023-07-11,清算の結了等,,,2015-10-05,1,,,,,ズイオウイン,0
760,3200001014703,登記記録の閉鎖等,0,2023-08-01,2023-07-26,株式会社関ヶ原グリーンパーク,,株式会社,岐阜県,大垣市,上石津町牧田９５番地の１８,,21,202,5031602,,,2023-07-26,清算の結了等,,,2015-10-05,1,,,,,セキガハラグリーンパーク,0
775,3260005009578,登記記録の閉鎖等,0,2023-08-01,2023-07-27,ＮＰＯ法人やさい塾,,その他の設立登記法人,岡山県,井原市,西江原町１２５８番地１,,33,207,7150006,,,2023-07-27,清算の結了等,,,2015-10-05,1,,,,,ヤサイジュク,0
801,3360002009166,登記記録の閉鎖等,0,2023-08-01,2023-07-24,有限会社ダイワ冷熱システム,,有限会社,沖縄県,糸満市,字潮平６３２番地の３,,47,210,9010302,,,2023-07-24,清算の結了等,,,2015-10-05,1,,,,,ダイワレイネツシステム,0
802,3370002010494,登記記録の閉鎖等,0,2023-08-01,2023-07-25,有限会社かやば薬局,,有限会社,宮城県,仙台市青葉区,上杉２丁目４番４４－１３０４号,,04,101,9800011,,,2023-07-25,清算の結了等,,,2015-10-05,1,,,,,カヤバヤッキョク,0
809,3420002009036,登記記録の閉鎖等,0,2023-08-01,2023-07-19,有限会社湊商運,,有限会社,青森県,八戸市,大字白銀町字砂森４０番地１,,02,203,0310822,,,2023-07-19,清算の結了等,,,2015-10-05,1,,,,,ミナトショウウン,0
815,3500005002070,登記記録の閉鎖等,0,2023-08-01,2023-07-31,特定非営利活動法人ユニバーサルクリエート,,その他の設立登記法人,愛媛県,松山市,古川北３丁目４番３２号,,38,201,7900942,,,2023-07-31,清算の結了等,,,2015-10-05,1,,,,,ユニバーサルクリエート,0
842,4010002030346,登記記録の閉鎖等,0,2023-08-01,2023-07-25,株式会社トライ,,株式会社,東京都,中央区,築地２丁目２番２号,,13,102,1040045,,,2023-07-25,清算の結了等,,,2015-10-05,1,,,,,トライ,0
877,4011101070068,登記記録の閉鎖等,0,2023-08-01,2023-07-28,株式会社プレースメント,,株式会社,東京都,渋谷区,宇田川町１６－８,,13,113,1500042,,,2023-07-28,清算の結了等,,,2015-10-05,1,,,,,プレースメント,0
880,4011103000254,登記記録の閉鎖等,0,2023-08-01,2023-07-28,合同会社青木商店,,合同会社,東京都,新宿区,新小川町７番１０号,,13,104,1620814,,,2023-07-28,清算の結了等,,,2015-10-05,1,,,,,アオキショウテン,0
889,4011702009992,登記記録の閉鎖等,0,2023-08-01,2023-07-31,有限会社福田商会,,有限会社,東京都,江戸川区,新堀２丁目３１番７号,,13,123,1320001,,,2023-07-31,清算の結了等,,,2015-10-05,1,,,,,フクダショウカイ,0
894,4013201011083,登記記録の閉鎖等,0,2023-08-01,2023-07-28,日本観光株式会社,,株式会社,東京都,目黒区,南１丁目２０番８号,,13,110,1520013,,,2023-07-28,清算の結了等,,,2015-10-05,1,,,,,ニホンカンコウ,0
902,4013303005033,登記記録の閉鎖等,0,2023-08-01,2023-07-24,合同会社松田電気,,合同会社,東京都,豊島区,池袋本町２丁目３８番地８号小暮荘２０５号室,,13,116,1700011,,,2023-07-24,清算の結了等,,,2020-03-16,1,,,,,マツダデンキ,0
904,4020001021568,登記記録の閉鎖等,0,2023-08-01,2023-07-14,フジテックス株式会社,,株式会社,神奈川県,横浜市港北区,大豆戸町４９２番地の１菊名スカイマンシヨン２１２号,,14,109,2220032,,,2023-07-14,清算の結了等,,,2015-10-05,1,,,,,フジテックス,0
912,4020002071315,登記記録の閉鎖等,0,2023-08-01,2023-07-18,有限会社サンアンドムーン,,有限会社,神奈川県,横浜市港北区,小机町１５４７番地２４号,,14,109,2220036,,,2023-07-18,清算の結了等,,,2015-10-05,1,,,,,サンアンドムーン,0
932,4040001092418,登記記録の閉鎖等,0,2023-08-01,2023-07-07,株式会社愛サービス,,株式会社,千葉県,千葉市中央区,都町１丁目３９番１号ハビタント５１－３０５号,,12,101,2600001,,,2023-07-07,清算の結了等,,,2015-10-13,1,,,,,アイサービス,0
933,4040001105906,登記記録の閉鎖等,0,2023-08-01,2023-07-10,株式会社マツモトプランニング,,株式会社,千葉県,千葉市中央区,矢作町４２３番地８,,12,101,2600851,,,2023-07-10,清算の結了等,,,2018-08-24,1,,,,,マツモトプランニング,0
936,4040002035251,登記記録の閉鎖等,0,2023-08-01,2023-07-10,株式会社弘秦,,株式会社,千葉県,市川市,田尻４丁目９番２８号,,12,203,2720014,,,2023-07-10,清算の結了等,,,2015-10-05,1,,,,,,0
940,4050002028122,登記記録の閉鎖等,0,2023-08-01,2023-07-25,有限会社浜松代行,,有限会社,茨城県,神栖市,大野原３丁目１０番２８号,,08,232,3140144,,,2023-07-25,清算の結了等,,,2015-10-05,1,,,,,ハママツダイコウ,0
944,4060002034359,登記記録の閉鎖等,0,2023-08-01,2023-07-13,有限会社賑光電機,,有限会社,栃木県,下都賀郡壬生町,大字壬生丁１２６番地６,,09,361,3210216,,,2023-07-13,清算の結了等,,,2015-10-05,1,,,,,シンコウデンキ,0
953,4110002014009,登記記録の閉鎖等,0,2023-08-01,2023-07-24,有限会社坂田時計店,,有限会社,新潟県,五泉市,村松甲２４６１番地,,15,218,9591704,,,2023-07-24,清算の結了等,,,2015-10-05,1,,,,,サカタトケイテン,0
970,4120901044336,登記記録の閉鎖等,0,2023-08-01,2023-07-21,株式会社ＴＨＳ,,株式会社,大阪府,高槻市,芝生町２丁目１０番３７号,,27,207,5690823,,,2023-07-21,清算の結了等,,,2021-05-17,1,,,,,ティーエイチエス,0
991,4180003020924,登記記録の閉鎖等,0,2023-08-01,2023-07-27,合同会社ウエストホームパートナー,,合同会社,愛知県,名古屋市守山区,小幡１丁目１８番２６号,,23,113,4630011,,,2023-07-27,清算の結了等,,,2020-03-06,1,,,,,ウエストホームパートナー,0
999,4200001006609,登記記録の閉鎖等,0,2023-08-01,2023-07-28,タカ精機株式会社,,株式会社,岐阜県,山県市,洞田２番地の４４,,21,215,5012125,,,2023-07-28,清算の結了等,,,2015-10-05,1,,,,,タカセイキ,0
1000,4200001024643,登記記録の閉鎖等,0,2023-08-01,2023-07-27,株式会社野々村新聞店,,株式会社,岐阜県,岐阜市,黒野南４丁目１２４番地,,21,201,5011136,,,2023-07-27,清算の結了等,,,2015-10-05,1,,,,,ノノムラシンブンテン,0
1021,4280002000652,登記記録の閉鎖等,0,2023-08-01,2023-07-21,有限会社輝陽設備,,有限会社,島根県,松江市,東津田町３５３番地,,32,201,6900011,,,2023-07-21,清算の結了等,,,2015-10-05,1,,,,,キヨウセツビ,0
1043,4320001015795,登記記録の閉鎖等,0,2023-08-01,2023-07-28,株式会社Ｊａｐａｎ九州,,株式会社,大分県,大分市,大字下郡３１５３番地の１３,,44,201,8700951,,,2023-07-28,清算の結了等,,,2017-07-20,1,,,,,ジャパンキュウシュウ,0
1051,4370302001738,登記記録の閉鎖等,0,2023-08-01,2023-07-24,有限会社戸羽捕鯨,,有限会社,宮城県,石巻市,鮎川浜熊野１０番地１,,04,202,9862523,,,2023-07-24,清算の結了等,,,2015-10-05,1,,,,,トバホゲイ,0
1058,4420001013153,登記記録の閉鎖等,0,2023-08-01,2023-07-19,株式会社佐々木総合企画,,株式会社,青森県,十和田市,大字滝沢字赤伏４４番地,,02,206,0340213,,,2023-07-19,清算の結了等,,,2015-10-05,1,,,,,ササキソウゴウキカク,0
1060,4430001023036,登記記録の閉鎖等,0,2023-08-01,2023-07-04,丸金佐々木建設株式会社,,株式会社,北海道,札幌市白石区,本通１０丁目南３番１号,,01,104,0030026,,,2023-07-04,清算の結了等,,,2023-05-11,1,,,,,,0
1073,5010001006296,登記記録の閉鎖等,0,2023-08-01,2023-07-25,野村産業株式会社,,株式会社,東京都,文京区,千石３丁目３６番１号,,13,105,1120011,,,2023-07-25,清算の結了等,,,2015-10-05,1,,,,,ノムラサンギョウ,0
1079,5010003015064,登記記録の閉鎖等,0,2023-08-01,2023-07-25,ニュー・ビジネスアイデア合同会社,,合同会社,長野県,北佐久郡軽井沢町,大字軽井沢１０６０番地６,,20,321,3890102,,,2023-07-25,清算の結了等,,,2015-10-05,1,,,,,ニュービジネスアイデア,0
1082,5010401092944,登記記録の閉鎖等,0,2023-08-01,2023-07-19,株式会社ＮＧＳ運用サービス,,株式会社,神奈川県,横浜市戸塚区,平戸１丁目１５番２５－４１１号,,14,110,2440802,,,2023-07-19,清算の結了等,,,2015-10-05,1,,,,,エヌジーエスウンヨウサービス,0
1090,5010403023170,登記記録の閉鎖等,0,2023-08-01,2023-07-13,合同会社ａｆｔｅｒＦＩＴ－Ｍ,,合同会社,東京都,港区,芝大門２丁目４番６号豊国ビル,,13,103,1050012,,,2023-07-13,清算の結了等,,,2020-06-23,1,,,,,アフターフィットエム,0
1119,5011302000839,登記記録の閉鎖等,0,2023-08-01,2023-07-28,有限会社池永通信,,有限会社,東京都,中野区,上高田２丁目７番１１号パークヒルズ中野２０１,,13,114,1640002,,,2023-07-28,清算の結了等,,,2015-10-05,1,,,,,イケナガツウシン,0
1121,5011602011676,登記記録の閉鎖等,0,2023-08-01,2023-07-24,有限会社フェレッツ,,有限会社,新潟県,三条市,西四日町１丁目２番３６号,,15,204,9550851,,,2023-07-24,清算の結了等,,,2015-10-05,1,,,,,フェレッツ,0
1132,5020001058064,登記記録の閉鎖等,0,2023-08-01,2023-07-19,株式会社テクラトス,,株式会社,神奈川県,横浜市青葉区,奈良町２７６２番地１１７,,14,117,2270036,,,2023-07-19,清算の結了等,,,2015-10-05,1,,,,,テクラトス,0
1139,5021002065628,登記記録の閉鎖等,0,2023-08-01,2023-07-20,有限会社塚越石材店,,有限会社,神奈川県,横須賀市,安浦町１丁目２１番地,,14,201,2380012,,,2023-07-20,清算の結了等,,,2015-10-05,1,,,,,,0
1150,5040001020393,登記記録の閉鎖等,0,2023-08-01,2023-07-10,丸和商事株式会社,,株式会社,千葉県,市川市,中山１丁目１５番２号,,12,203,2720813,,,2023-07-10,清算の結了等,,,2015-10-05,1,,,,,マルワショウジ,0
1151,5040001030517,登記記録の閉鎖等,0,2023-08-01,2023-07-07,株式会社精華,,株式会社,千葉県,市川市,北方１丁目１３番３号,,12,203,2720815,,,2023-07-07,清算の結了等,,,2015-10-05,1,,,,,,0
1155,5040002028626,登記記録の閉鎖等,0,2023-08-01,2023-07-05,有限会社エンジェルサービス,,有限会社,千葉県,八千代市,八千代台北６丁目２番地１９,,12,221,2760031,,,2023-07-05,清算の結了等,,,2015-10-05,1,,,,,エンジェルサービス,0
1163,5070005008003,登記記録の閉鎖等,0,2023-08-01,2023-07-24,特定非営利活動法人ＳＥＥＤＢＬＯＯＭ,,その他の設立登記法人,群馬県,太田市,新野町７９８番地９,,10,205,3730032,,,2023-07-24,清算の結了等,,,2015-10-05,1,,,,,シードブルーム,0
1166,5080401022589,登記記録の閉鎖等,0,2023-08-01,2023-07-31,株式会社ＳＩＤＥＷＩＮＤＥＲ　ＭＫＳ,,株式会社,静岡県,菊川市,西方２５６９番地の１,,22,224,4390037,,,2023-07-31,清算の結了等,,,2017-12-08,1,,,,,サイドワインダーエムケイエス,0
1170,5110002010163,登記記録の閉鎖等,0,2023-08-01,2023-07-21,有限会社白根電装,,有限会社,新潟県,新潟市南区,杉菜６番２４号,,15,106,9501208,,,2023-07-21,清算の結了等,,,2015-10-05,1,,,,,シロネデンソウ,0
1171,5110002026449,登記記録の閉鎖等,0,2023-08-01,2023-07-24,有限会社クボタ,,有限会社,新潟県,糸魚川市,大字徳合４０９番地２,,15,216,9491301,,,2023-07-24,清算の結了等,,,2015-10-05,1,,,,,,0
1187,5120101029120,登記記録の閉鎖等,0,2023-08-01,2023-07-31,株式会社Ｒａｉｋｙｏ,,株式会社,大阪府,富田林市,伏山１丁目２４番１６号,,27,214,5840061,,,2023-07-31,清算の結了等,,,2015-10-05,1,,,,,ライキョウ,0
1188,5120102017603,登記記録の閉鎖等,0,2023-08-01,2023-07-28,有限会社ジェナムーン,,有限会社,大阪府,河内長野市,荘園町３番５号,,27,216,5860093,,,2023-07-28,清算の結了等,,,2015-10-05,1,,,,,ジェナムーン,0
1190,5122001003700,登記記録の閉鎖等,0,2023-08-01,2023-07-26,鈴木服装株式会社,,株式会社,大阪府,東大阪市,鳥居町２番１６号,,27,227,5798035,,,2023-07-26,清算の結了等,,,2015-10-05,1,,,,,スズキフクソウ,0
1193,5130001015434,登記記録の閉鎖等,0,2023-08-01,2023-07-18,原田工業株式会社,,株式会社,京都府,京都市伏見区,西桝屋町１０３４番地,,26,109,6120083,,,2023-07-18,清算の結了等,,,2015-10-05,1,,,,,ハラダコウギョウ,0
1199,5140005022616,登記記録の閉鎖等,0,2023-08-01,2023-07-27,一般社団法人太子障害福祉センター,,その他の設立登記法人,兵庫県,揖保郡太子町,蓮常寺３４５－２松本第２ビル１階,,28,464,6711535,,,2023-07-27,清算の結了等,,,2015-11-04,1,,,,,タイシショウガイフクシセンター,0
1203,5170002001207,登記記録の閉鎖等,0,2023-08-01,2023-07-19,近畿興業有限会社,,有限会社,和歌山県,和歌山市,南大工町２０番地,,30,201,6408032,,,2023-07-19,清算の結了等,,,2015-10-05,1,,,,,キンキコウギョウ,0
1204,5170005002821,登記記録の閉鎖等,0,2023-08-01,2023-07-31,特定非営利活動法人梛の会,,その他の設立登記法人,和歌山県,有田市,港町３６６番地の５,,30,204,6490305,,,2023-07-31,清算の結了等,,,2015-10-05,1,,,,,ナギノカイ,0
1210,5180002068030,登記記録の閉鎖等,0,2023-08-01,2023-07-27,有限会社肴工房,,有限会社,愛知県,春日井市,西本町１丁目９番２,,23,206,4860958,,,2023-07-27,清算の結了等,,,2015-10-05,1,,,,,サカナコウボウ,0
1211,5180003022795,登記記録の閉鎖等,0,2023-08-01,2023-07-27,合同会社居心ち,,合同会社,愛知県,日進市,米野木町南山４８７番地１７,,23,230,4700111,,,2023-07-27,清算の結了等,,,2021-07-30,1,,,,,イゴゴチ,0
1220,5220001008899,登記記録の閉鎖等,0,2023-08-01,2023-07-24,美川魚市株式会社,,株式会社,石川県,白山市,美川永代町甲１番地９４,,17,210,9290235,,,2023-07-24,清算の結了等,,,2015-10-05,1,,,,,ミカワウオイチ,0
1226,5240002016908,登記記録の閉鎖等,0,2023-08-01,2023-07-19,有限会社森本鮮魚店,,有限会社,広島県,広島市西区,草津港１丁目８番１号,,34,104,7330832,,,2023-07-19,清算の結了等,,,2015-10-05,1,,,,,モリモトセンギョテン,0
1230,5260001006313,登記記録の閉鎖等,0,2023-08-01,2023-07-28,株式会社丸善電化商会,,株式会社,岡山県,岡山市北区,東古松２丁目１番１５号,,33,101,7000921,,,2023-07-28,清算の結了等,,,2015-10-05,1,,,,,マルゼンデンカショウカイ,0
1235,5280005002182,登記記録の閉鎖等,0,2023-08-01,2023-07-19,特定非営利活動法人福祉アミーゴの会,,その他の設立登記法人,島根県,松江市,宍道町佐々布２５４番地１０,,32,201,6990406,,,2023-07-19,清算の結了等,,,2015-10-05,1,,,,,フクシアミーゴノカイ,0
1244,5290805008246,登記記録の閉鎖等,0,2023-08-01,2023-07-25,特定非営利活動法人ＣＯＣＯＲＯ日本リンパ経絡整体普及協会,,その他の設立登記法人,福岡県,北九州市小倉北区,米町１丁目１番１２号松島ビル３０３号,,40,106,8020003,,,2023-07-25,清算の結了等,,,2015-10-05,1,,,,,ココロニホンリンパケイラクセイタイフキュウキョウカイ,0
1246,5300002010994,登記記録の閉鎖等,0,2023-08-01,2023-07-21,有限会社ナカシマ工業,,有限会社,佐賀県,東松浦郡玄海町,大字藤平９３６番地,,41,387,8471405,,,2023-07-21,清算の結了等,,,2015-10-05,1,,,,,ナカシマコウギョウ,0
1253,5380001016382,登記記録の閉鎖等,0,2023-08-01,2023-07-10,株式会社日本中央福祉,,株式会社,福島県,南相馬市,原町区石神字中川原２０番地の１,,07,212,9750075,,,2023-07-10,清算の結了等,,,2015-10-05,1,,,,,ニホンチュウオウフクシ,0
1264,5440005001267,登記記録の閉鎖等,0,2023-08-01,2023-07-28,道南地区生コンクリート協同組合連合会,,その他の設立登記法人,北海道,北斗市,清水川１４２番地２９,,01,236,0411221,,,2023-07-28,清算の結了等,,,2015-10-05,1,,,,,ドウナンチクナマコンクリート,0
1265,5450001008059,登記記録の閉鎖等,0,2023-08-01,2023-07-07,鏡商事株式会社,,株式会社,北海道,稚内市,末広３丁目７番７号,,01,214,0970001,,,2023-07-07,清算の結了等,,,2015-10-05,1,,,,,カガミショウジ,0
1266,5470002004476,登記記録の閉鎖等,0,2023-08-01,2023-07-27,有限会社田中機工,,有限会社,香川県,高松市,春日町１５３８番地２,,37,201,7610101,,,2023-07-27,清算の結了等,,,2015-10-05,1,,,,,タナカキコウ,0
1277,6010001078161,登記記録の閉鎖等,0,2023-08-01,2023-07-25,株式会社三ツ矢エンジニアリング,,株式会社,東京都,千代田区,麹町２丁目７番３号,,13,101,1020083,,,2023-07-25,清算の結了等,,,2015-10-05,1,,,,,ミツヤエンジニアリング,0
1295,6010401029994,登記記録の閉鎖等,0,2023-08-01,2023-07-24,株式会社山本デザインオフィス,,株式会社,東京都,杉並区,成田西１丁目４番１０号,,13,115,1660016,,,2023-07-24,清算の結了等,,,2015-10-05,1,,,,,,0
1297,6010401089213,登記記録の閉鎖等,0,2023-08-01,2023-07-07,株式会社アジェンダ,,株式会社,東京都,港区,南麻布４丁目９番３４－２０５号,,13,103,1060047,,,2023-07-07,清算の結了等,,,2015-10-05,1,,,,,アジェンダ,0
1298,6010401152714,登記記録の閉鎖等,0,2023-08-01,2023-07-28,株式会社ミティアン投資顧問,,株式会社,東京都,世田谷区,宮坂３丁目４６番７号,,13,112,1560051,,,2023-07-28,合併による解散等,4010001233890,令和５年７月２０日東京都千代田区永田町二丁目１１番１号Ｃａｔａｌｙｓｔ　Ａｒｔ　Ｉｎｖｅｓｔｍｅｎｔｓ株式会社（4010001233890）に合併し解散,2020-05-14,1,,,,,ミティアントウシコモン,0
1310,6010501025126,登記記録の閉鎖等,0,2023-08-01,2023-07-31,株式会社ノースフィールド,,株式会社,東京都,台東区,浅草６丁目２０番１１号,,13,106,1110032,,,2023-07-31,清算の結了等,,,2015-10-05,1,,,,,ノースフィールド,0
1316,6011001045721,登記記録の閉鎖等,0,2023-08-01,2023-07-10,エクスプローラーズ・ジャパン株式会社,,株式会社,東京都,港区,六本木２丁目２－２イトーピア六本木８０１,,13,103,1060032,,,2023-07-10,清算の結了等,,,2015-10-05,1,,,,,エクスプローラーズジャパン,0
1323,6011002006862,登記記録の閉鎖等,0,2023-08-01,2023-07-31,しん川有限会社,,有限会社,東京都,渋谷区,渋谷３丁目２９番８号,,13,113,1500002,,,2023-07-31,清算の結了等,,,2015-10-05,1,,,,,シンカワ,0
1336,6011403002881,登記記録の閉鎖等,0,2023-08-01,2023-07-19,楠涛合同会社,,合同会社,神奈川県,横浜市中区,初音町２丁目３０シンポビル４０８号,,14,104,2310053,,,2023-07-19,清算の結了等,,,2020-01-09,1,,,,,ナントウ,0
1341,6011701020395,登記記録の閉鎖等,0,2023-08-01,2023-07-28,株式会社ＴＳＦａｃｔｏｒｙ,,株式会社,東京都,江戸川区,臨海町４丁目２番１号,,13,123,1340086,,,2023-07-28,清算の結了等,,,2016-11-30,1,,,,,ティーエスファクトリー,0
1345,6012701010394,登記記録の閉鎖等,0,2023-08-01,2023-07-27,ウイングエンタープライズ株式会社,,株式会社,東京都,西東京市,向台町１丁目１６番１号,,13,229,1880013,,,2023-07-27,清算の結了等,,,2015-10-05,1,,,,,ウイングエンタープライズ,0
1346,6012702006441,登記記録の閉鎖等,0,2023-08-01,2023-07-28,有限会社河村左官工業所,,有限会社,東京都,東久留米市,南町４丁目６番２１号,,13,222,2030031,,,2023-07-28,清算の結了等,,,2015-10-05,1,,,,,カワムラサカンコウギョウショ,0
1359,6020001097648,登記記録の閉鎖等,0,2023-08-01,2023-07-18,株式会社エー・エフ・ジー,,株式会社,神奈川県,横浜市青葉区,新石川１丁目９番地７,,14,117,2250003,,,2023-07-18,清算の結了等,,,2015-10-05,1,,,,,エーエフジー,0
1360,6020001129913,登記記録の閉鎖等,0,2023-08-01,2023-07-28,株式会社喫茶野ざらし,,株式会社,東京都,墨田区,吾妻橋２丁目１１－５,,13,107,1300001,,,2023-07-28,清算の結了等,,,2019-02-13,1,,,,,キッサノザラシ,0
1364,6020002039401,登記記録の閉鎖等,0,2023-08-01,2023-07-19,有限会社仲真工業,,有限会社,神奈川県,横浜市鶴見区,上の宮２丁目２－１０,,14,101,2300075,,,2023-07-19,清算の結了等,,,2015-10-05,1,,,,,ナカシンコウギョウ,0
1365,6020002054887,登記記録の閉鎖等,0,2023-08-01,2023-07-19,有限会社オーエム工販,,有限会社,神奈川県,横浜市金沢区,富岡東１丁目５２番１４－１０５号,,14,108,2360051,,,2023-07-19,清算の結了等,,,2015-10-05,1,,,,,オーエムコウハン,0
1385,6040002029086,登記記録の閉鎖等,0,2023-08-01,2023-07-05,有限会社興道,,有限会社,千葉県,八千代市,八千代台北６丁目２番地１９,,12,221,2760031,,,2023-07-05,清算の結了等,,,2015-10-05,1,,,,,コウドウ,0
1397,6060003003781,登記記録の閉鎖等,0,2023-08-01,2023-07-26,合同会社Ｆｉｒｓｔ　Ｉｍｐｒｅｓｓｉｏｎ,,合同会社,群馬県,太田市,西新町１２番地１０スターメゾンＢ２０３号室,,10,205,3730847,,,2023-07-26,清算の結了等,,,2021-08-17,1,,,,,ファーストインプレッション,0
1417,6120001086070,登記記録の閉鎖等,0,2023-08-01,2023-07-31,株式会社中島メガネ,,株式会社,大阪府,大阪市中央区,島之内２丁目１５番１８号,,27,128,5420082,,,2023-07-31,清算の結了等,,,2015-10-05,1,,,,,ナカジマメガネ,0
1429,6120102026421,登記記録の閉鎖等,0,2023-08-01,2023-07-31,有限会社ケーテック,,有限会社,大阪府,泉大津市,楠町西４番８号,,27,206,5950038,,,2023-07-31,清算の結了等,,,2015-10-05,1,,,,,ケーテック,0
1437,6130002007009,登記記録の閉鎖等,0,2023-08-01,2023-07-18,有限会社金鵄商事,,有限会社,京都府,京都市下京区,寺町通松原下る植松町７１４番地ジ・アーバネックス京都河原町プレイズ６０３,,26,106,6008028,,,2023-07-18,清算の結了等,,,2015-10-05,1,,,,,キンシショウジ,0
1447,6160005003175,登記記録の閉鎖等,0,2023-08-01,2023-07-26,特定非営利活動法人志賀地域暮らしの足を考える会,,その他の設立登記法人,滋賀県,大津市,木戸１７４２番地の８,,25,201,5200514,,,2023-07-26,清算の結了等,,,2015-10-05,1,,,,,シガチイキクラシノアシヲカンガエルカイ,0
1449,6180001056605,登記記録の閉鎖等,0,2023-08-01,2023-07-26,株式会社桜グループ,,株式会社,愛知県,名古屋市北区,大曽根４丁目１７番２３号,,23,103,4620825,,,2023-07-26,清算の結了等,,,2015-10-05,1,,,,,サクラグループ,0
1458,6180005008692,登記記録の閉鎖等,0,2023-08-01,2023-07-27,特定非営利活動法人こまき安全なまちづくり協議会,,その他の設立登記法人,愛知県,小牧市,小牧１丁目１３５番地,,23,219,4850041,,,2023-07-27,清算の結了等,,,2015-10-05,1,,,,,コマキアンゼンナマチヅクリキョウギカイ,0
1463,6200001015129,登記記録の閉鎖等,0,2023-08-01,2023-07-26,株式会社岐阜グリーンメンテナンス,,株式会社,岐阜県,大垣市,上石津町牧田９５番地の１８,,21,202,5031602,,,2023-07-26,清算の結了等,,,2015-10-05,1,,,,,ギフグリーンメンテナンス,0
1464,6200001031126,登記記録の閉鎖等,0,2023-08-01,2023-07-13,株式会社ＥＹＥ　ＢＡＧＵＥ,,株式会社,愛知県,一宮市,大志１丁目６番１７号ミヤタビル４階,,23,203,4910852,,,2023-07-13,清算の結了等,,,2015-10-05,1,,,,,アイバーグ,0
1469,6230002009614,登記記録の閉鎖等,0,2023-08-01,2023-07-28,有限会社山上住建,,有限会社,富山県,砺波市,庄川町示野７７番地,,16,208,9320315,,,2023-07-28,清算の結了等,,,2015-10-05,1,,,,,ヤマガミジュウケン,0
1478,6260002033917,登記記録の閉鎖等,0,2023-08-01,2023-07-25,有限会社山縣製材所,,有限会社,岡山県,真庭市,鹿田２９２番地,,33,214,7193152,,,2023-07-25,清算の結了等,,,2015-10-05,1,,,,,ヤマガタセイザイショ,0
1496,6320005007738,登記記録の閉鎖等,0,2023-08-01,2023-07-26,大分県北部青果商業協同組合,,その他の設立登記法人,大分県,中津市,丸山町２１番地の１,,44,203,8710047,,,2023-07-26,清算の結了等,,,2015-10-05,1,,,,,オオイタケンホクブセイカショウギョウ,0
1497,6320005009164,登記記録の閉鎖等,0,2023-08-01,2023-07-31,一般社団法人コスト管理士協会,,その他の設立登記法人,大分県,大分市,大字横尾３８３６番地の２,,44,201,8700126,,,2023-07-31,清算の結了等,,,2015-10-05,1,,,,,,0
1508,6370002013263,登記記録の閉鎖等,0,2023-08-01,2023-07-25,有限会社プラティス,,有限会社,宮城県,仙台市青葉区,栗生５丁目１６番地の６,,04,101,9893122,,,2023-07-25,清算の結了等,,,2015-10-05,1,,,,,プラティス,0
1511,6390002000978,登記記録の閉鎖等,0,2023-08-01,2023-07-26,有限会社コンサルティングハウス大野,,有限会社,山形県,山形市,あさひ町１３番１９号,,06,201,9900024,,,2023-07-26,清算の結了等,,,2015-10-05,1,,,,,コンサルティングハウスオオノ,0
1529,7010001089918,登記記録の閉鎖等,0,2023-08-01,2023-07-19,株式会社タイヨーアドクリエイティブ,,株式会社,東京都,千代田区,神田神保町２丁目３２番地,,13,101,1010051,,,2023-07-19,清算の結了等,,,2015-10-05,1,,,,,タイヨーアドクリエイティブ,0
1540,7010401088453,登記記録の閉鎖等,0,2023-08-01,2023-07-07,日綜不動産株式会社,,株式会社,東京都,港区,新橋１丁目８番３号,,13,103,1050004,,,2023-07-07,清算の結了等,,,2022-11-04,1,,,,,ニッソウフドウサン,0
1554,7010705002630,登記記録の閉鎖等,0,2023-08-01,2023-07-26,一般社団法人ダイヤモンドルートアクショントレーニング協会,,その他の設立登記法人,東京都,品川区,南品川４丁目４番１７号品川サウスタワー,,13,109,1400004,,,2023-07-26,清算の結了等,,,2017-07-21,1,,,,,ダイヤモンドルートアクショントレーニングキョウカイ,0
1562,7011101003909,登記記録の閉鎖等,0,2023-08-01,2023-07-24,株式会社ＯＰＭ,,株式会社,東京都,新宿区,新宿２丁目１５番１号,,13,104,1600022,,,2023-07-24,清算の結了等,,,2015-10-05,1,,,,,オーピーエム,0
1568,7011102022684,登記記録の閉鎖等,0,2023-08-01,2023-07-31,有限会社協進社,,有限会社,東京都,新宿区,南元町１２番地４,,13,104,1600012,,,2023-07-31,清算の結了等,,,2015-10-05,1,,,,,キョウシンシャ,0
1582,7011701018430,登記記録の閉鎖等,0,2023-08-01,2023-07-31,フォレスタルーチェ株式会社,,株式会社,東京都,江戸川区,北小岩５丁目２７番２２号,,13,123,1330051,,,2023-07-31,清算の結了等,,,2015-10-05,1,,,,,,0
1629,7040001086838,登記記録の閉鎖等,0,2023-08-01,2023-07-11,アスモアイル株式会社,,株式会社,千葉県,印旛郡栄町,安食台２丁目３番１５号,,12,329,2701515,,,2023-07-11,清算の結了等,,,2015-10-05,1,,,,,アスモアイル,0
1634,7040003020092,登記記録の閉鎖等,0,2023-08-01,2023-07-10,ケイワイ企画合同会社,,合同会社,千葉県,八千代市,八千代台東６丁目２３番８号,,12,221,2760032,,,2023-07-10,清算の結了等,,,2022-05-26,1,,,,,ケイワイキカク,0
1635,7040005003541,登記記録の閉鎖等,0,2023-08-01,2023-07-05,特定非営利活動法人マネー・スプラウト,,その他の設立登記法人,千葉県,船橋市,飯山満町３丁目１５２０番地６ライオンズガーデン薬園台２０５号,,12,204,2740822,,,2023-07-05,清算の結了等,,,2015-10-05,1,,,,,マネースプラウト,0
1643,7060003002840,登記記録の閉鎖等,0,2023-08-01,2023-07-11,合同会社ＤＳ　Ｔｒｕｓｔ,,合同会社,栃木県,那須郡那須町,大字高久甲５０４０番地１０,,09,407,3250001,,,2023-07-11,清算の結了等,,,2018-06-08,1,,,,,ディーエストラスト,0
1648,7080401000329,登記記録の閉鎖等,0,2023-08-01,2023-07-31,株式会社アライジュ,,株式会社,静岡県,浜松市東区,中田町１２４番地の１,,22,132,4350057,,,2023-07-31,清算の結了等,,,2015-10-05,1,,,,,アライジュ,0
1657,7110002031777,登記記録の閉鎖等,0,2023-08-01,2023-07-24,有限会社長谷新薬局,,有限会社,新潟県,見附市,本町２丁目１番２号,,15,211,9540053,,,2023-07-24,清算の結了等,,,2015-10-05,1,,,,,ハセシンヤッキョク,0
1667,7120001228142,登記記録の閉鎖等,0,2023-08-01,2023-07-27,Ｚｉｇｅｎ．株式会社,,株式会社,大阪府,吹田市,江坂町１丁目２３番１９号米澤ビル第５江坂７０１号室,,27,205,5640063,,,2023-07-27,清算の結了等,,,2020-03-31,1,,,,,ジゲン,0
1681,7122002011733,登記記録の閉鎖等,0,2023-08-01,2023-07-25,有限会社和光コーポレーション,,有限会社,大阪府,大東市,新田本町１２番７０５,,27,218,5740055,,,2023-07-25,清算の結了等,,,2015-10-05,1,,,,,ワコウコーポレーション,0
1685,7150001019126,登記記録の閉鎖等,0,2023-08-01,2023-07-27,株式会社あっとほうむ,,株式会社,奈良県,奈良市,此瀬町３５７番地の１,,29,201,6302177,,,2023-07-27,合併による解散等,2013302015745,令和５年７月１日東京都豊島区上池袋一丁目３８番１０号不二ビル１０１株式会社コミュニティメディカル（2013302015745）に合併し解散,2015-10-05,1,,,,,アットホウム,0
1688,7160002004836,登記記録の閉鎖等,0,2023-08-01,2023-07-24,有限会社シンクメイトリサーチ,,有限会社,滋賀県,大津市,仰木の里４丁目１３番４－１０３号,,25,201,5200246,,,2023-07-24,清算の結了等,,,2015-10-05,1,,,,,シンクメイトリサーチ,0
1716,7240002016749,登記記録の閉鎖等,0,2023-08-01,2023-07-25,有限会社木精社,,有限会社,広島県,広島市南区,皆実町３丁目４番３８号,,34,103,7340007,,,2023-07-25,清算の結了等,,,2015-10-05,1,,,,,モクセイシャ,0
1718,7240002051564,登記記録の閉鎖等,0,2023-08-01,2023-07-28,有限会社三石屋,,有限会社,広島県,尾道市,因島田熊町１２３１番地,,34,205,7222324,,,2023-07-28,清算の結了等,,,2015-10-05,1,,,,,ミツイシヤ,0
1725,7280003001374,登記記録の閉鎖等,0,2023-08-01,2023-07-25,合同会社ＭＰＧ,,合同会社,島根県,益田市,美都町都茂１０７６番地,,32,204,6980203,,,2023-07-25,清算の結了等,,,2020-04-14,1,,,,,エムピージー,0
1732,7300003001140,登記記録の閉鎖等,0,2023-08-01,2023-07-24,合同会社歩,,合同会社,佐賀県,唐津市,肥前町杉野浦３７８番地１,,41,202,8471505,,,2023-07-24,清算の結了等,,,2015-10-22,1,,,,,アユミ,0
1747,7380001026628,登記記録の閉鎖等,0,2023-08-01,2023-07-25,株式会社川島内装,,株式会社,福島県,会津若松市,門田町大字中野字屋敷７２番地の１８,,07,202,9650842,,,2023-07-25,清算の結了等,,,2016-03-22,1,,,,,カワシマナイソウ,0
1763,7460105002145,登記記録の閉鎖等,0,2023-08-01,2023-07-27,特定非営利活動法人うらほろスタイルサポート,,その他の設立登記法人,北海道,十勝郡浦幌町,字本町１６番地１,,01,649,0895603,,,2023-07-27,清算の結了等,,,2018-03-20,1,,,,,ウラホロスタイルサポート,0
1765,7470002008608,登記記録の閉鎖等,0,2023-08-01,2023-07-11,有限会社ＴＮＲ,,有限会社,香川県,善通寺市,与北町３２４２番地１,,37,204,7650040,,,2023-07-11,清算の結了等,,,2015-10-05,1,,,,,ティーエヌアール,0
1778,8010001151890,登記記録の閉鎖等,0,2023-08-01,2023-07-20,株式会社スマイルオン,,株式会社,東京都,中央区,入船３丁目１０番９号新富町ビル５Ｆ,,13,102,1040042,,,2023-07-20,清算の結了等,,,2015-10-05,1,,,,,スマイルオン,0
1795,8010401169467,登記記録の閉鎖等,0,2023-08-01,2023-07-07,株式会社ＡＰ　ＶＩＩ　ＧＰ,,株式会社,東京都,港区,虎ノ門４丁目１番２８号虎ノ門タワーズオフィス１７階,,13,103,1050001,,,2023-07-07,清算の結了等,,,2022-08-31,1,,,,,エイピーセブンジーピー,0
1809,8010605000923,登記記録の閉鎖等,0,2023-08-01,2023-07-24,ＴＲＢ協同組合,,その他の設立登記法人,東京都,江東区,亀戸６丁目２７番１号,,13,108,1360071,,,2023-07-24,清算の結了等,,,2015-10-05,1,,,,,ティーアールビー,0
1811,8010701043693,登記記録の閉鎖等,0,2023-08-01,2023-07-25,ホスピスメディケア株式会社,,株式会社,東京都,品川区,東品川４丁目１２番１１号,,13,109,1400002,,,2023-07-25,清算の結了等,,,2023-01-06,1,,,,,ホスピスメディケア,0
1812,8010801024684,登記記録の閉鎖等,0,2023-08-01,2023-07-28,ネイトロボティクス株式会社,,株式会社,東京都,目黒区,自由が丘１丁目１３番４号シャイン自由が丘ビル６０２足立国際会計事務所内,,13,110,1520035,,,2023-07-28,清算の結了等,,,2015-10-05,1,,,,,ネイトロボティクス,0
1838,8011101100408,登記記録の閉鎖等,0,2023-08-01,2023-07-26,Ｔｕｒｎｉｎｇ　Ｐｏｉｎｔ株式会社,,株式会社,東京都,新宿区,新宿２丁目９－２２,,13,104,1600022,,,2023-07-26,清算の結了等,,,2022-10-05,1,,,,,ターニングポイント,0
1848,8012401032150,登記記録の閉鎖等,0,2023-08-01,2023-07-31,ＱＯＬｄｅｓｉｇｎ株式会社,,株式会社,東京都,府中市,紅葉丘３丁目４８番５４号,,13,206,1830004,,,2023-07-31,清算の結了等,,,2016-12-28,1,,,,,キューオーエルデザイン,0
1861,8020002020350,登記記録の閉鎖等,0,2023-08-01,2023-07-18,有限会社瑠璃庵,,有限会社,神奈川県,横浜市港南区,港南台６丁目３２番１７号,,14,111,2340054,,,2023-07-18,清算の結了等,,,2015-10-05,1,,,,,ルリアン,0
1881,8040001045009,登記記録の閉鎖等,0,2023-08-01,2023-07-10,株式会社生産者連合デコポン,,株式会社,千葉県,成田市,前林９７６番地７,,12,211,2870222,,,2023-07-10,清算の結了等,,,2015-10-05,1,,,,,セイサンシャレンゴウデコポン,0
1944,8180001154167,登記記録の閉鎖等,0,2023-08-01,2023-07-27,コネクトレイ株式会社,,株式会社,愛知県,名古屋市瑞穂区,妙音通４丁目２９－７０２,,23,108,4670842,,,2023-07-27,清算の結了等,,,2022-12-12,1,,,,,コネクトレイ,0
1953,8230001003384,登記記録の閉鎖等,0,2023-08-01,2023-07-28,株式会社山森製作所,,株式会社,富山県,富山市,上赤江町１丁目３番６３号,,16,201,9300816,,,2023-07-28,合併による解散等,7230001003385,令和５年７月１日富山市上赤江町一丁目３番６３号株式会社山森製鎖（7230001003385）に合併し解散,2015-10-05,1,,,,,ヤマモリセイサクジョ,0
1957,8240001038272,登記記録の閉鎖等,0,2023-08-01,2023-07-26,株式会社大正座,,株式会社,広島県,尾道市,因島土生町１８１２番地の１,,34,205,7222323,,,2023-07-26,清算の結了等,,,2015-10-05,1,,,,,タイショウザ,0
1978,8290801022264,登記記録の閉鎖等,0,2023-08-01,2023-07-27,株式会社アクア・プロ,,株式会社,福岡県,遠賀郡岡垣町,中央台４丁目４番１６号１階,,40,383,8114218,,,2023-07-27,清算の結了等,,,2016-02-18,1,,,,,,0
1980,8290802005144,登記記録の閉鎖等,0,2023-08-01,2023-07-26,原工業有限会社,,有限会社,福岡県,北九州市小倉北区,大手町１０番５０－７０２号,,40,106,8030814,,,2023-07-26,清算の結了等,,,2015-10-05,1,,,,,ハラコウギョウ,0
2003,8460105001501,登記記録の閉鎖等,0,2023-08-01,2023-07-28,協同組合池田町ワインスタンプ会,,その他の設立登記法人,北海道,中川郡池田町,字大通１丁目３５番地,,01,644,0830090,,,2023-07-28,清算の結了等,,,2015-10-05,1,,,,,イケダチョウワインスタンプカイ,0
2010,9010001068399,登記記録の閉鎖等,0,2023-08-01,2023-07-26,株式会社システマ,,株式会社,東京都,豊島区,高田３丁目１８番１４号,,13,116,1710033,,,2023-07-26,清算の結了等,,,2015-10-05,1,,,,,システマ,0
2041,9010702002466,登記記録の閉鎖等,0,2023-08-01,2023-07-24,有限会社こうじん,,有限会社,東京都,品川区,西五反田２丁目１０番８号,,13,109,1410031,,,2023-07-24,清算の結了等,,,2015-10-05,1,,,,,コウジン,0
2056,9011103005546,登記記録の閉鎖等,0,2023-08-01,2023-07-25,合同会社新エネルギー設計,,合同会社,東京都,新宿区,新宿５丁目１４番３号有恒ビル２Ｆ,,13,104,1600022,,,2023-07-25,合併による解散等,3012703001964,令和５年７月１日東京都練馬区石神井町三丁目１０番７号コルティーレ石神井公園２０３号合同会社ＪＥＮＩ（3012703001964）に合併し解散,2015-10-05,1,,,,,シンエネルギーセッケイ,0
2065,9011801039580,登記記録の閉鎖等,0,2023-08-01,2023-07-26,株式会社Ｈｅａｌｔｈ　Ｌｉｆｔ,,株式会社,茨城県,守谷市,松並青葉１丁目１番地５レーベン守谷ＴＨＥＢＲＩＤＧＥ４２７,,08,224,3020132,,,2023-07-26,清算の結了等,,,2021-08-16,1,,,,,ヘルスリフト,0
2069,9012702010358,登記記録の閉鎖等,0,2023-08-01,2023-07-27,有限会社チョウチンマル,,有限会社,東京都,清瀬市,元町２丁目１３番２６号,,13,221,2040021,,,2023-07-27,清算の結了等,,,2015-10-05,1,,,,,チョウチンマル,0
2074,9020001046957,登記記録の閉鎖等,0,2023-08-01,2023-07-28,トータルサポート株式会社,,株式会社,神奈川県,藤沢市,鵠沼橘１丁目１７番４号小塚ビル４階,,14,205,2510024,,,2023-07-28,清算の結了等,,,2015-10-05,1,,,,,トータルサポート,0
2079,9020002001589,登記記録の閉鎖等,0,2023-08-01,2023-07-19,有限会社新和技研工業,,有限会社,神奈川県,横浜市瀬谷区,三ツ境３９番地の１０,,14,114,2460022,,,2023-07-19,清算の結了等,,,2015-10-05,1,,,,,シンワギケンコウギョウ,0
2095,9030001143448,登記記録の閉鎖等,0,2023-08-01,2023-07-06,株式会社酒文化,,株式会社,埼玉県,蕨市,塚越２丁目４番２３号司ビル５階,,11,223,3350002,,,2023-07-06,清算の結了等,,,2021-07-20,1,,,,,サケブンカ,0
2104,9040001035735,登記記録の閉鎖等,0,2023-08-01,2023-07-06,株式会社新葉建設,,株式会社,千葉県,松戸市,上本郷８９５番地２,,12,207,2710064,,,2023-07-06,清算の結了等,,,2015-10-05,1,,,,,シンヨウケンセツ,0
2118,9060001002089,登記記録の閉鎖等,0,2023-08-01,2023-07-14,株式会社ジ・イ・ピー,,株式会社,栃木県,宇都宮市,大曽１丁目２番１７号,,09,201,3200014,,,2023-07-14,清算の結了等,,,2015-10-05,1,,,,,ジイピー,0
2120,9060001010991,登記記録の閉鎖等,0,2023-08-01,2023-07-13,株式会社エス,,株式会社,栃木県,鹿沼市,緑町３丁目１番７号,,09,205,3220025,,,2023-07-13,清算の結了等,,,2015-10-05,1,,,,,エス,0
2128,9080102013140,登記記録の閉鎖等,0,2023-08-01,2023-07-28,有限会社カムアクロス,,有限会社,静岡県,富士市,伝法２８６０番地の１,,22,210,4170061,,,2023-07-28,清算の結了等,,,2015-10-05,1,,,,,カムアクロス,0
2152,9120101056887,登記記録の閉鎖等,0,2023-08-01,2023-07-31,山商自動車株式会社,,株式会社,大阪府,堺市堺区,出島西町３－１５,,27,141,5900831,,,2023-07-31,清算の結了等,,,2017-07-28,1,,,,,ヤマショウジドウシャ,0
2154,9120901000111,登記記録の閉鎖等,0,2023-08-01,2023-07-21,アルファ住研株式会社,,株式会社,大阪府,茨木市,春日３丁目３番２０号,,27,211,5670031,,,2023-07-21,清算の結了等,,,2015-10-05,1,,,,,アルファジュウケン,0
2155,9120901040677,登記記録の閉鎖等,0,2023-08-01,2023-07-27,株式会社有機炭素農業普及総研,,株式会社,大阪府,豊中市,中桜塚２丁目１５番６号,,27,203,5610881,,,2023-07-27,清算の結了等,,,2018-12-03,1,,,,,ユウキタンソノウギョウフキュウソウケン,0
2158,9122002010312,登記記録の閉鎖等,0,2023-08-01,2023-07-28,有限会社誠伸電機,,有限会社,大阪府,大阪市淀川区,田川北２丁目５番８０号,,27,123,5320021,,,2023-07-28,清算の結了等,,,2015-10-05,1,,,,,セイシンデンキ,0
2162,9130005015278,登記記録の閉鎖等,0,2023-08-01,2023-07-10,一般社団法人もやぴかどん,,その他の設立登記法人,京都府,京都市下京区,仏光寺通新町東入糸屋町２１５番地１ブローディア仏光寺７０３,,26,106,6008432,,,2023-07-10,清算の結了等,,,2018-04-20,1,,,,,モヤピカドン,0
2166,9160005003156,登記記録の閉鎖等,0,2023-08-01,2023-07-24,特定非営利活動法人甲賀ユートピアネットワーク,,その他の設立登記法人,滋賀県,甲賀市,水口町北内貴４００番地,,25,209,5280051,,,2023-07-24,清算の結了等,,,2015-10-05,1,,,,,コウカユートピアネットワーク,0
2168,9180001089651,登記記録の閉鎖等,0,2023-08-01,2023-07-26,株式会社エネリンク,,株式会社,愛知県,名古屋市中区,錦１丁目７番２８号,,23,106,4600003,,,2023-07-26,合併による解散等,6010401169080,令和５年７月１日東京都港区虎ノ門四丁目３番１号株式会社エネリンク（6010401169080）に合併し解散,2015-10-05,1,,,,,エネリンク,0
2171,9180001126685,登記記録の閉鎖等,0,2023-08-01,2023-07-28,株式会社ＮＲ,,株式会社,愛知県,名古屋市中川区,昭和橋通５丁目３６番地の１,,23,110,4540852,,,2023-07-28,清算の結了等,,,2017-02-23,1,,,,,エヌアール,0
2185,9200005011526,登記記録の閉鎖等,0,2023-08-01,2023-07-28,一般社団法人大垣銀行協会,,その他の設立登記法人,岐阜県,大垣市,郭町２丁目２５番地,,21,202,5030887,,,2023-07-28,清算の結了等,,,2015-10-05,1,,,,,オオガキギンコウキョウカイ,0
2186,9220001003260,登記記録の閉鎖等,0,2023-08-01,2023-07-24,株式会社シグマ・デザイン建築設計事務所,,株式会社,石川県,金沢市,広岡２丁目７番１号,,17,201,9200031,,,2023-07-24,合併による解散等,8010001078721,令和５年７月１日東京都中央区日本橋蛎殻町一丁目３０番５号株式会社綜企画設計（8010001078721）に合併し解散,2015-10-05,1,,,,,シグマデザインケンチクセッケイジムショ,0
2189,9230002011699,登記記録の閉鎖等,0,2023-08-01,2023-07-28,有限会社中村漆器店,,有限会社,富山県,高岡市,長慶寺５３番地,,16,202,9330951,,,2023-07-28,清算の結了等,,,2015-10-05,1,,,,,ナカムラシッキテン,0
2194,9240002013323,登記記録の閉鎖等,0,2023-08-01,2023-07-27,ハゴロモ自動車工業有限会社,,有限会社,広島県,広島市中区,羽衣町９番１４号,,34,101,7300814,,,2023-07-27,清算の結了等,,,2015-10-05,1,,,,,ハゴロモジドウシャコウギョウ,0
2195,9240002047750,登記記録の閉鎖等,0,2023-08-01,2023-07-25,今中商事有限会社,,有限会社,広島県,安芸郡海田町,新町９番１３号,,34,304,7360068,,,2023-07-25,清算の結了等,,,2015-10-05,1,,,,,イマナカショウジ,0
2215,9300002006989,登記記録の閉鎖等,0,2023-08-01,2023-07-24,有限会社田中建築工業,,有限会社,佐賀県,嬉野市,塩田町大字久間字八幡籠丙１０５７番１,,41,209,8430300,,,2023-07-24,清算の結了等,,,2015-10-05,1,,,,,タナカケンチクコウギョウ,0
2223,9320001010197,登記記録の閉鎖等,0,2023-08-01,2023-07-28,株式会社山一観光,,株式会社,大分県,日田市,天瀬町桜竹５３４番地の２,,44,204,8794201,,,2023-07-28,清算の結了等,,,2015-10-05,1,,,,,ヤマイチカンコウ,0
2225,9330005010085,登記記録の閉鎖等,0,2023-08-01,2023-07-27,一般社団法人三松,,その他の設立登記法人,鹿児島県,姶良市,西餅田３６１２番地１,,46,225,8995431,,,2023-07-27,清算の結了等,,,2019-09-27,1,,,,,サンショウ,0
2227,9340001020707,登記記録の閉鎖等,0,2023-08-01,2023-07-27,株式会社中倉会計,,株式会社,鹿児島県,肝属郡東串良町,池之原１８番地３０,,46,482,8931612,,,2023-07-27,清算の結了等,,,2017-11-07,1,,,,,ナカクラカイケイ,0
2232,9350003000961,登記記録の閉鎖等,0,2023-08-01,2023-07-04,合資会社ルミエール日向,,合資会社,宮崎県,日向市,本町１１番１号,,45,206,8830045,,,2023-07-04,合併による解散等,8350001018288,令和５年７月１日宮崎県日向市本町１１番１号株式会社ルミエール日向（8350001018288）に合併し解散,2015-10-05,1,,,,,ルミエールヒュウガ,0
2241,9380002028951,登記記録の閉鎖等,0,2023-08-01,2023-07-26,有限会社マルカノウ齋藤,,有限会社,福島県,相馬市,中野字寺前２０番地の１,,07,209,9760037,,,2023-07-26,清算の結了等,,,2015-10-05,1,,,,,マルカノウサイトウ,0
2245,9400005005177,登記記録の閉鎖等,0,2023-08-01,2023-07-18,特定非営利活動法人くらしのサポーターズ,,その他の設立登記法人,岩手県,盛岡市,中野２丁目５番１３号吉田直美方,,03,201,0200816,,,2023-07-18,清算の結了等,,,2015-10-05,1,,,,,,0
2255,9430001049084,登記記録の閉鎖等,0,2023-08-01,2023-07-10,株式会社小西測量設計,,株式会社,北海道,滝川市,緑町１丁目５番２２号,,01,225,0730023,,,2023-07-10,清算の結了等,,,2015-10-05,1,,,,,コニシソクリョウセッケイ,0
2260,9450001003403,登記記録の閉鎖等,0,2023-08-01,2023-07-27,株式会社米田組,,株式会社,北海道,旭川市,豊岡五条６丁目１番１号,,01,204,0788235,,,2023-07-27,清算の結了等,,,2015-10-05,1,,,,,ヨネタグミ,0
2261,9450002007956,登記記録の閉鎖等,0,2023-08-01,2023-07-28,有限会社ロードワーク,,有限会社,北海道,旭川市,五条西７丁目３番１３号,,01,204,0700055,,,2023-07-28,清算の結了等,,,2015-10-05,1,,,,,ロードワーク,0
2262,9460005000255,登記記録の閉鎖等,0,2023-08-01,2023-07-28,釧路廃棄物処理事業協同組合,,その他の設立登記法人,北海道,釧路市,愛国西３丁目３３番４号,,01,206,0850057,,,2023-07-28,清算の結了等,,,2015-10-05,1,,,,,クシロハイキブツショリ,0
