sequenceNumber,corporateNumber,process,correct,updateDate,changeDate,name,nameImageId,kind,prefectureName,cityName,streetNumber,addressImageId,prefectureCode,cityCode,postCode,addressOutside,addressOutsideImageId,closeDate,closeCause,successorCorporateNumber,changeCause,assignmentDate,latest,enName,enPrefectureName,enCityName,enAddressOutside,furigana,hihyoji
31,1010501035732,登記記録の閉鎖等,0,2022-05-13,2022-05-11,株式会社宝島,,株式会社,東京都,台東区,元浅草１丁目８番７号,,13,106,1110041,,,2022-05-11,合併による解散等,4010801014318,令和４年５月１日東京都大田区大森本町一丁目６番１号株式会社ＧＥＮＤＡ　ＧｉＧＯ　Ｅｎｔｅｒｔａｉｎｍｅｎｔ（4010801014318）に合併し解散,2015-10-05,1,,,,,タカラジマ,0
46,1010902026090,登記記録の閉鎖等,0,2022-05-13,2022-05-09,有限会社プラージュ,,有限会社,東京都,世田谷区,池尻３丁目１９番５号,,13,112,1540001,,,2022-05-09,清算の結了等,,,2015-10-05,1,,,,,プラージュ,0
50,1011001113045,登記記録の閉鎖等,0,2022-05-13,2022-04-22,昭和クリーンサービス株式会社,,株式会社,東京都,渋谷区,神宮前６丁目３５番３号,,13,113,1500001,,,2022-04-22,清算の結了等,,,2016-10-07,1,,,,,ショウワクリーンサービス,0
55,1011101036204,登記記録の閉鎖等,0,2022-05-13,2022-05-09,株式会社システム計画・設計研究所,,株式会社,東京都,新宿区,山吹町３５２－２２グローサユウ新宿,,13,104,1620801,,,2022-05-09,清算の結了等,,,2015-10-05,1,,,,,システムケイカクセッケイケンキュウジョ,0
79,1012402016076,登記記録の閉鎖等,0,2022-05-13,2022-05-06,有限会社秋山書店,,有限会社,東京都,武蔵野市,境５丁目１７番１４号,,13,203,1800022,,,2022-05-06,清算の結了等,,,2015-10-05,1,,,,,アキヤマショテン,0
80,1012405003897,登記記録の閉鎖等,0,2022-05-13,2022-04-21,一般社団法人Ｉｎｃｌｕｓｉｖｅ　Ｇｒｏｗｔｈ　Ｓｕｍｍｉｔ,,その他の設立登記法人,東京都,港区,六本木７丁目１１番２４号,,13,103,1060032,,,2022-04-21,清算の結了等,,,2016-04-22,1,,,,,インクルーシブグロースサミット,0
91,1020001037344,登記記録の閉鎖等,0,2022-05-13,2022-05-02,株式会社ビズ・リンク,,株式会社,神奈川県,横浜市戸塚区,下倉田町４１２番地３０,,14,110,2440815,,,2022-05-02,清算の結了等,,,2015-10-05,1,,,,,ビズリンク,0
104,1020002094855,登記記録の閉鎖等,0,2022-05-13,2022-05-09,有限会社ハセガワ電器,,有限会社,神奈川県,川崎市麻生区,王禅寺東４丁目３７番７号,,14,137,2150018,,,2022-05-09,清算の結了等,,,2015-10-05,1,,,,,ハセガワデンキ,0
111,1021005001443,登記記録の閉鎖等,0,2022-05-13,2022-05-06,宗教法人中瀬大神,,その他の設立登記法人,神奈川県,高座郡寒川町,一之宮１丁目１８番１７号,,14,321,2530111,,,2022-05-06,合併による解散等,7021005001446,令和４年５月６日神奈川県高座郡寒川町一之宮一丁目２１番１０号宗教法人八幡大神（7021005001446）に合併し解散,2015-10-05,1,,,,,,0
130,1040001012163,登記記録の閉鎖等,0,2022-05-13,2022-05-09,株式会社アイアンドケー,,株式会社,千葉県,千葉市緑区,おゆみ野南４丁目７番地３,,12,105,2660033,,,2022-05-09,合併による解散等,1010001164494,令和４年４月９日東京都千代田区六番町６－１株式会社永徳（1010001164494）に合併し解散,2015-10-05,1,,,,,アイアンドケー,0
138,1040005005304,登記記録の閉鎖等,0,2022-05-13,2022-05-02,医療法人社団慈朋会,,その他の設立登記法人,千葉県,松戸市,西馬橋蔵元町１２９番地,,12,207,2710046,,,2022-05-02,清算の結了等,,,2015-10-05,1,,,,,ジホウカイ,0
147,1080402019349,登記記録の閉鎖等,0,2022-05-13,2022-05-10,有限会社アートラッピング,,有限会社,静岡県,磐田市,今之浦１丁目７番６号,,22,211,4380071,,,2022-05-10,清算の結了等,,,2015-10-05,1,,,,,アートラッピング,0
175,1120003016658,登記記録の閉鎖等,0,2022-05-13,2022-05-11,合同会社ツーシーム,,合同会社,大阪府,大阪市中央区,今橋２丁目５番８号,,27,128,5410042,,,2022-05-11,清算の結了等,,,2019-12-06,1,,,,,ツーシーム,0
226,1180005003161,登記記録の閉鎖等,0,2022-05-13,2022-04-11,愛知県信用漁業協同組合連合会,,その他の設立登記法人,愛知県,名古屋市中区,丸の内３丁目４番３１号,,23,106,4600002,,,2022-04-11,合併による解散等,4040005000005,令和４年４月１日千葉市中央区新宿二丁目３番８号東日本信用漁業協同組合連合会（4040005000005）に合併し解散,2015-10-05,1,,,,,アイチケンシンヨウギョギョウ,0
246,1240002042197,登記記録の閉鎖等,0,2022-05-13,2022-05-09,日新木工有限会社,,有限会社,広島県,福山市,瀬戸町大字長和１０６６番地,,34,207,7200836,,,2022-05-09,清算の結了等,,,2015-10-05,1,,,,,ニッシンモッコウ,0
252,1250002007959,登記記録の閉鎖等,0,2022-05-13,2022-05-06,有限会社あの米店,,有限会社,山口県,下関市,金比羅町１２番１０号,,35,201,7500058,,,2022-05-06,清算の結了等,,,2015-10-05,1,,,,,アノコメテン,0
268,1290002018085,登記記録の閉鎖等,0,2022-05-13,2022-05-09,有限会社ヨシズミ,,有限会社,福岡県,福岡市博多区,冷泉町１番３－８０７号,,40,132,8120039,,,2022-05-09,清算の結了等,,,2015-10-05,1,,,,,ヨシズミ,0
273,1290805007086,登記記録の閉鎖等,0,2022-05-13,2022-05-11,ＮＰＯ法人ＮＩＴカウントボードＳＢＯ会,,その他の設立登記法人,福岡県,京都郡苅田町,新津１丁目１１番地１西日本工業大学内,,40,621,8000344,,,2022-05-11,清算の結了等,,,2015-10-05,1,,,,,エヌアイティカウントボードエスビーオーカイ,0
274,1300002005841,登記記録の閉鎖等,0,2022-05-13,2022-05-10,有限会社花魁譚,,有限会社,佐賀県,武雄市,朝日町大字甘久２２６０番地１,,41,206,8430001,,,2022-05-10,清算の結了等,,,2015-10-05,1,,,,,オイランタン,0
290,1360001013732,登記記録の閉鎖等,0,2022-05-13,2022-04-25,株式会社エアー宮古,,株式会社,沖縄県,宮古島市,平良字下里１６５７番地の１２８,,47,214,9060013,,,2022-04-25,清算の結了等,,,2015-10-05,1,,,,,エアーミヤコ,0
312,1430002054347,登記記録の閉鎖等,0,2022-05-13,2022-04-27,有限会社近藤商店,,有限会社,北海道,小樽市,築港１２番６１１号,,01,203,0470008,,,2022-04-27,清算の結了等,,,2015-10-05,1,,,,,コンドウショウテン,0
318,1460005001450,登記記録の閉鎖等,0,2022-05-13,2022-04-08,北海道ひがし農業共済組合,,その他の設立登記法人,北海道,標津郡中標津町,西六条南１１丁目６番地１,,01,692,0861106,,,2022-04-08,合併による解散等,6430005014442,令和４年４月１日札幌市中央区北四条西一丁目１番地みなみ北海道農業共済組合（8430005013054）と北海道深川市一条５番５号北海道中央農業共済組合（7450005004093）と北海道帯広市川西町基線５９番地２８十勝農業共済組合（5460105000349）と北海道北見市美園４９７番地１オホーツク農業共済組合（6460305001311）と合併して札幌市中央区北四条西一丁目１番地北海道農業共済組合（6430005014442）を設立し解散,2015-10-05,1,,,,,ホッカイドウヒガシ,0
341,2010001167843,登記記録の閉鎖等,0,2022-05-13,2022-04-19,平賀商事株式会社,,株式会社,東京都,千代田区,九段南２丁目４番５－１００５号,,13,101,1020074,,,2022-04-19,清算の結了等,,,2015-10-05,1,,,,,ヒラガショウジ,0
345,2010001214629,登記記録の閉鎖等,0,2022-05-13,2022-04-20,株式会社ＤＳ１,,株式会社,東京都,千代田区,内幸町２丁目１番６号,,13,101,1000011,,,2022-04-20,清算の結了等,,,2020-12-22,1,,,,,ディーエスワン,0
359,2010401138452,登記記録の閉鎖等,0,2022-05-13,2022-04-19,アニマロジー株式会社,,株式会社,東京都,港区,芝公園１丁目１－１住友不動産御成門タワー,,13,103,1050011,,,2022-04-19,合併による解散等,4010401135373,令和４年４月１５日東京都港区芝公園１－１－１住友不動産御成門タワーＲＥＧＡＩＮ　ＶＥＮＴＵＲＥ　ＣＯＮＳＵＬＴＩＮＧ株式会社（4010401135373）に合併し解散,2018-05-18,1,,,,,アニマロジー,0
365,2010601041159,登記記録の閉鎖等,0,2022-05-13,2022-05-02,株式会社プログレス,,株式会社,埼玉県,草加市,高砂１丁目１２番２３号,,11,221,3400015,,,2022-05-02,清算の結了等,,,2015-10-05,1,,,,,プログレス,0
367,2010602012349,登記記録の閉鎖等,0,2022-05-13,2022-04-26,有限会社角田商店,,有限会社,東京都,墨田区,緑２丁目２２番６号,,13,107,1300021,,,2022-04-26,清算の結了等,,,2015-10-05,1,,,,,,0
376,2010703003569,登記記録の閉鎖等,0,2022-05-13,2022-05-10,合同会社あおい管財,,合同会社,東京都,品川区,北品川１丁目９番７号トップルーム品川１０１５号,,13,109,1400001,,,2022-05-10,合併による解散等,4040003009782,令和４年５月１日千葉市中央区富士見二丁目７番９号富士見ビル６０９号合同会社すみれホーム（4040003009782）に合併し解散,2017-04-20,1,,,,,アオイカンザイ,0
382,2010901031017,登記記録の閉鎖等,0,2022-05-13,2022-05-10,株式会社オフィスＡＭＩ,,株式会社,東京都,世田谷区,等々力７丁目３番７－３０５号,,13,112,1580082,,,2022-05-10,清算の結了等,,,2015-10-05,1,,,,,オフィスアミ,0
396,2011401000602,登記記録の閉鎖等,0,2022-05-13,2022-05-02,市川冷販株式会社,,株式会社,埼玉県,新座市,野火止７丁目１８番１号ウインザーハイム志木６１４号室,,11,230,3520011,,,2022-05-02,清算の結了等,,,2015-10-05,1,,,,,イチカワレイハン,0
411,2013203001605,登記記録の閉鎖等,0,2022-05-13,2022-04-21,合同会社スプリング,,合同会社,東京都,目黒区,下目黒３丁目１８番１２号,,13,110,1530064,,,2022-04-21,清算の結了等,,,2015-10-05,1,,,,,スプリング,0
417,2020001036576,登記記録の閉鎖等,0,2022-05-13,2022-04-28,ノナカ・テクニカルサービス株式会社,,株式会社,神奈川県,横浜市中区,山田町２番地２,,14,104,2310036,,,2022-04-28,清算の結了等,,,2015-10-05,1,,,,,ノナカテクニカルサービス,0
419,2020001109489,登記記録の閉鎖等,0,2022-05-13,2022-05-02,株式会社ロコ・クリエーション,,株式会社,神奈川県,川崎市幸区,大宮町２番地８イクス川崎ザ・タワー１８０３,,14,132,2120014,,,2022-05-02,清算の結了等,,,2015-10-05,1,,,,,ロコクリエーション,0
431,2020005013142,登記記録の閉鎖等,0,2022-05-13,2022-05-02,特定非営利活動法人みやびの風,,その他の設立登記法人,神奈川県,横浜市神奈川区,中丸４２番地,,14,102,2210803,,,2022-05-02,清算の結了等,,,2017-05-25,1,,,,,ミヤビノカゼ,0
434,2021002020676,登記記録の閉鎖等,0,2022-05-13,2022-05-09,有限会社サトウ明工務店,,有限会社,神奈川県,相模原市中央区,上溝４５６５番地の４,,14,152,2520243,,,2022-05-09,清算の結了等,,,2015-10-05,1,,,,,サトウメイコウムテン,0
437,2030001003773,登記記録の閉鎖等,0,2022-05-13,2022-05-06,株式会社ジィオ,,株式会社,埼玉県,さいたま市桜区,田島５丁目１９番８号,,11,106,3380837,,,2022-05-06,清算の結了等,,,2015-10-05,1,,,,,ジィオ,0
449,2030001137118,登記記録の閉鎖等,0,2022-05-13,2022-05-02,株式会社ウイング,,株式会社,埼玉県,さいたま市浦和区,東仲町８番３号プレミア浦和５０１号,,11,107,3300056,,,2022-05-02,清算の結了等,,,2020-07-07,1,,,,,ウイング,0
456,2040001018556,登記記録の閉鎖等,0,2022-05-13,2022-05-02,株式会社フローラ,,株式会社,千葉県,船橋市,藤原４丁目４番２５号,,12,204,2730047,,,2022-05-02,合併による解散等,6040001026539,令和４年５月１日千葉県市川市八幡二丁目１番３号昭和興業株式会社（6040001026539）に合併し解散,2015-10-05,1,,,,,フローラ,0
472,2060001024791,登記記録の閉鎖等,0,2022-05-13,2022-05-10,株式会社早乙女産業,,株式会社,栃木県,佐野市,新吉水町２７２番地６,,09,204,3270314,,,2022-05-10,清算の結了等,,,2015-10-05,1,,,,,ソウトメサンギョウ,0
485,2090003001563,登記記録の閉鎖等,0,2022-05-13,2022-05-06,合同会社ＬＰ,,合同会社,山梨県,甲斐市,篠原２２０４番地１１,,19,210,4000115,,,2022-05-06,清算の結了等,,,2019-08-09,1,,,,,エルピー,0
492,2110001019332,登記記録の閉鎖等,0,2022-05-13,2022-05-10,株式会社ハクチヨウ,,株式会社,新潟県,上越市,仲町５丁目５番１５号,,15,222,9430831,,,2022-05-10,清算の結了等,,,2015-10-05,1,,,,,ハクチョウ,0
496,2120001028365,登記記録の閉鎖等,0,2022-05-13,2022-05-11,株式会社渡辺,,株式会社,大阪府,大阪市大正区,平尾２丁目１８番１３号,,27,108,5510012,,,2022-05-11,清算の結了等,,,2015-10-05,1,,,,,ワタナベ,0
504,2120002011205,登記記録の閉鎖等,0,2022-05-13,2022-05-11,有限会社三陽機械製作所,,有限会社,大阪府,大阪市平野区,長吉出戸７丁目３番４号,,27,126,5470011,,,2022-05-11,清算の結了等,,,2015-10-05,1,,,,,,0
511,2120103002581,登記記録の閉鎖等,0,2022-05-13,2022-05-11,合同会社Ｏ２Ｎインターナショナル,,合同会社,大阪府,堺市南区,庭代台３丁８番２号,,27,145,5900133,,,2022-05-11,清算の結了等,,,2016-10-19,1,,,,,オーツーエヌインターナショナル,0
517,2120903000900,登記記録の閉鎖等,0,2022-05-13,2022-05-10,合資会社シュトラール,,合資会社,大阪府,豊中市,蛍池西町二丁目４番１号,,27,203,5600000,,,2022-05-10,清算の結了等,,,2015-10-05,1,,,,,シュトラール,0
518,2122001001566,登記記録の閉鎖等,0,2022-05-13,2022-05-09,片江紙工株式会社,,株式会社,大阪府,東大阪市,御厨東１丁目３番２６号,,27,227,5770033,,,2022-05-09,清算の結了等,,,2015-10-05,1,,,,,カタエシコウ,0
547,2190001013006,登記記録の閉鎖等,0,2022-05-13,2022-05-06,三精機株式会社,,株式会社,三重県,桑名市,太一丸１５番地１,,24,205,5110005,,,2022-05-06,合併による解散等,1190001013007,令和４年５月３日三重県いなべ市大安町平塚字八幡１１７５番地株式会社三電機（1190001013007）に合併し解散,2015-10-05,1,,,,,サンセイキ,0
551,2190002018441,登記記録の閉鎖等,0,2022-05-13,2022-05-06,有限会社あさい,,有限会社,三重県,桑名市,大山田６丁目７番地１５５,,24,205,5110903,,,2022-05-06,清算の結了等,,,2015-10-05,1,,,,,アサイ,0
552,2190002020348,登記記録の閉鎖等,0,2022-05-13,2022-05-06,有限会社サザライ縫製,,有限会社,三重県,四日市市,平町２１番１号,,24,202,5108017,,,2022-05-06,清算の結了等,,,2015-10-05,1,,,,,サザライホウセイ,0
556,2200002024909,登記記録の閉鎖等,0,2022-05-13,2022-05-11,有限会社石川薬局,,有限会社,岐阜県,高山市,上一之町５１番地,,21,203,5060844,,,2022-05-11,清算の結了等,,,2015-10-05,1,,,,,イシカワヤッキョク,0
578,2290002050954,登記記録の閉鎖等,0,2022-05-13,2022-05-09,有限会社エッグハウス,,有限会社,福岡県,久留米市,諏訪野町２６３１番地,,40,203,8300037,,,2022-05-09,清算の結了等,,,2015-10-05,1,,,,,エッグハウス,0
591,2350002018887,登記記録の閉鎖等,0,2022-05-13,2022-05-09,有限会社プレジャー,,有限会社,宮崎県,宮崎市,橘通東３丁目８番２１号,,45,201,8800805,,,2022-05-09,合併による解散等,5330002018291,令和４年５月１日宮崎市橘通東三丁目８番２１号株式会社オフィスさくら（5330002018291）に合併し解散,2015-10-05,1,,,,,プレジャー,0
602,2410005002155,登記記録の閉鎖等,0,2022-05-13,2022-04-01,社会福祉法人玉米福祉会,,その他の設立登記法人,秋田県,由利本荘市,東由利舘合字向田７６番地１,,05,210,0150221,,,2022-04-01,合併による解散等,3410005002154,令和４年４月１日秋田県由利本荘市東由利蔵字蔵１２７番地２社会福祉法人蔵立会（3410005002154）に合併し解散,2015-10-05,1,,,,,トウマイフクシカイ,0
629,3010003027615,登記記録の閉鎖等,0,2022-05-13,2022-05-10,禾立合同会社,,合同会社,東京都,板橋区,徳丸２丁目３番１１号あたしばハウス１階東側,,13,119,1750083,,,2022-05-10,清算の結了等,,,2018-06-06,1,,,,,カリツ,0
641,3010601050910,登記記録の閉鎖等,0,2022-05-13,2022-04-28,株式会社フォーチュン,,株式会社,東京都,墨田区,江東橋３丁目９番１号,,13,107,1300022,,,2022-04-28,清算の結了等,,,2017-01-04,1,,,,,フォーチュン,0
645,3010901023070,登記記録の閉鎖等,0,2022-05-13,2022-05-09,株式会社ジャパニック,,株式会社,東京都,世田谷区,深沢４丁目２番６号,,13,112,1580081,,,2022-05-09,清算の結了等,,,2015-10-05,1,,,,,ジャパニック,0
654,3011005001797,登記記録の閉鎖等,0,2022-05-13,2022-04-28,医療法人社団丸山歯科クリニック,,その他の設立登記法人,東京都,渋谷区,渋谷２丁目１５番１号渋谷クロスタワー２１階,,13,113,1500002,,,2022-04-28,清算の結了等,,,2015-10-05,1,,,,,マルヤマシカクリニック,0
655,3011005006821,登記記録の閉鎖等,0,2022-05-13,2022-04-08,一般社団法人ＵＩ支援機構,,その他の設立登記法人,東京都,渋谷区,桜丘町２３番１７号シティーコート桜丘４０８,,13,113,1500031,,,2022-04-08,清算の結了等,,,2016-06-29,1,,,,,ユーアイシエンキコウ,0
713,3021001065837,登記記録の閉鎖等,0,2022-05-13,2022-04-28,湘南拓殖建設株式会社,,株式会社,神奈川県,逗子市,新宿１丁目６番２３号,,14,208,2490007,,,2022-04-28,清算の結了等,,,2018-10-18,1,,,,,,0
722,3030002064450,登記記録の閉鎖等,0,2022-05-13,2022-05-02,有限会社成増旭紙工所,,有限会社,埼玉県,和光市,中央２丁目６番５号,,11,229,3510113,,,2022-05-02,清算の結了等,,,2015-10-05,1,,,,,ナリマスアサヒシコウショ,0
725,3030002115690,登記記録の閉鎖等,0,2022-05-13,2022-05-02,井上機材有限会社,,有限会社,埼玉県,大里郡寄居町,大字桜沢２９５７番地１１,,11,408,3691202,,,2022-05-02,清算の結了等,,,2015-10-05,1,,,,,イノウエキザイ,0
736,3040001104529,登記記録の閉鎖等,0,2022-05-13,2022-05-02,株式会社ＹＣ東松戸,,株式会社,千葉県,松戸市,和名ケ谷７２４番地,,12,207,2702232,,,2022-05-02,合併による解散等,9040001034712,令和４年５月１日千葉県松戸市和名ケ谷７２４番地株式会社アイパル（9040001034712）に合併し解散,2018-05-09,1,,,,,ワイシーヒガシマツド,0
739,3040002036374,登記記録の閉鎖等,0,2022-05-13,2022-05-02,有限会社フローリア,,有限会社,千葉県,市川市,八幡２丁目１番３号,,12,203,2720021,,,2022-05-02,合併による解散等,6040001026539,令和４年５月１日千葉県市川市八幡二丁目１番３号昭和興業株式会社（6040001026539）に合併し解散,2015-10-05,1,,,,,フローリア,0
740,3040002039278,登記記録の閉鎖等,0,2022-05-13,2022-05-02,有限会社フライデーズ,,有限会社,千葉県,市川市,堀之内３丁目３０番１８号,,12,203,2720837,,,2022-05-02,清算の結了等,,,2015-10-05,1,,,,,フライデーズ,0
742,3040002101517,登記記録の閉鎖等,0,2022-05-13,2022-05-02,有限会社ＡＢＣ,,有限会社,千葉県,館山市,北条１０９４番地,,12,205,2940045,,,2022-05-02,清算の結了等,,,2015-10-05,1,,,,,エービーシー,0
748,3050002001419,登記記録の閉鎖等,0,2022-05-13,2022-05-06,有限会社さか本,,有限会社,茨城県,水戸市,堀町１２７２番地の１０,,08,201,3100903,,,2022-05-06,清算の結了等,,,2015-10-05,1,,,,,サカモト,0
757,3070002006044,登記記録の閉鎖等,0,2022-05-13,2022-04-28,有限会社望運送,,有限会社,群馬県,前橋市,公田町３９３番地１０,,10,201,3792146,,,2022-04-28,清算の結了等,,,2015-10-05,1,,,,,,0
771,3090002013864,登記記録の閉鎖等,0,2022-05-13,2022-05-02,有限会社フィールドゲート,,有限会社,山梨県,韮崎市,穂坂町宮久保６０５１番地,,19,207,4070175,,,2022-05-02,清算の結了等,,,2015-10-05,1,,,,,フィールドゲート,0
798,3130001055713,登記記録の閉鎖等,0,2022-05-13,2022-05-10,久栄産業株式会社,,株式会社,京都府,宇治市,宇治若森３５番地の１ユニライフ宇治ＩＩ３０１号,00102988,26,204,6110021,,,2022-05-10,清算の結了等,,,2015-10-05,1,,,,,キュウエイサンギョウ,0
822,3180001009334,登記記録の閉鎖等,0,2022-05-13,2022-05-06,株式会社堀江自動車工場,,株式会社,愛知県,名古屋市昭和区,福江１丁目１６番１７号,,23,107,4660059,,,2022-05-06,清算の結了等,,,2015-10-05,1,,,,,ホリエジドウシャコウジョウ,0
836,3200001027853,登記記録の閉鎖等,0,2022-05-13,2022-05-11,株式会社恒産会,,株式会社,岐阜県,岐阜市,正木１９８０番地５３,,21,201,5020857,,,2022-05-11,清算の結了等,,,2015-10-05,1,,,,,コウサンカイ,0
838,3200002004067,登記記録の閉鎖等,0,2022-05-13,2022-05-10,プロス株式会社,,株式会社,岐阜県,岐阜市,茜部菱野２丁目７７番地,,21,201,5008268,,,2022-05-10,合併による解散等,2070001017217,令和４年５月１日群馬県桐生市梅田町一丁目７２８番地１株式会社アイ・ロジアドバンス（2070001017217）に合併し解散,2015-10-05,1,,,,,,0
932,4010002011643,登記記録の閉鎖等,0,2022-05-13,2022-05-06,有限会社セン,,有限会社,東京都,調布市,多摩川７丁目１３番地４,,13,208,1820025,,,2022-05-06,清算の結了等,,,2015-10-05,1,,,,,セン,0
984,4011705000536,登記記録の閉鎖等,0,2022-05-13,2022-05-06,特定非営利活動法人くらしの助け合いの会しあわせ,,その他の設立登記法人,東京都,江戸川区,松江５丁目２８番１３号,,13,123,1320025,,,2022-05-06,清算の結了等,,,2015-10-05,1,,,,,クラシノタスケアイノカイシアワセ,0
1011,4021005002281,登記記録の閉鎖等,0,2022-05-13,2022-05-10,特定非営利活動法人ひがし,,その他の設立登記法人,神奈川県,鎌倉市,腰越２丁目１１番３号,,14,204,2480033,,,2022-05-10,清算の結了等,,,2015-10-05,1,,,,,ヒガシ,0
1014,4030001047942,登記記録の閉鎖等,0,2022-05-13,2022-05-02,株式会社本田建材,,株式会社,埼玉県,志木市,上宗岡３丁目１７番１７号,,11,228,3530001,,,2022-05-02,清算の結了等,,,2015-10-05,1,,,,,ホンダケンザイ,0
1019,4030002046893,登記記録の閉鎖等,0,2022-05-13,2022-05-02,有限会社小池商事,,有限会社,埼玉県,八潮市,大字大原６３８番地４,,11,234,3400825,,,2022-05-02,清算の結了等,,,2015-10-05,1,,,,,コイケショウジ,0
1052,4060002001945,登記記録の閉鎖等,0,2022-05-13,2022-05-10,有限会社遠藤製作所,,有限会社,栃木県,宇都宮市,石那田町２０８番地,,09,201,3212103,,,2022-05-10,清算の結了等,,,2015-10-05,1,,,,,エンドウセイサクジョ,0
1060,4100001023655,登記記録の閉鎖等,0,2022-05-13,2022-05-10,株式会社クローバー,,株式会社,長野県,長野市,下氷鉋１丁目９番地３,,20,201,3812216,,,2022-05-10,清算の結了等,,,2015-10-05,1,,,,,クローバー,0
1067,4120001053469,登記記録の閉鎖等,0,2022-05-13,2022-05-11,株式会社青山,,株式会社,大阪府,大阪市淀川区,十八条１丁目６番１０号,,27,123,5320001,,,2022-05-11,合併による解散等,6120101032998,令和４年５月１日大阪府藤井寺市沢田一丁目３０番１３号株式会社ビーバーリフォーム（6120101032998）に合併し解散,2015-10-05,1,,,,,,0
1076,4120001206126,登記記録の閉鎖等,0,2022-05-13,2022-05-11,トーマ株式会社,,株式会社,大阪府,大阪市都島区,毛馬町２丁目３番１７号,,27,102,5340001,,,2022-05-11,清算の結了等,,,2017-06-05,1,,,,,,0
1086,4120003016201,登記記録の閉鎖等,0,2022-05-13,2022-05-11,合同会社カーブ,,合同会社,大阪府,大阪市中央区,今橋２丁目５番８号,,27,128,5410042,,,2022-05-11,清算の結了等,,,2019-09-02,1,,,,,カーブ,0
1095,4130005014342,登記記録の閉鎖等,0,2022-05-13,2022-05-09,一般社団法人関西零戦搭乗員会,,その他の設立登記法人,京都府,京都市伏見区,中島樋ノ上町９０番地,00103282,26,109,6128465,,,2022-05-09,清算の結了等,,,2015-10-05,1,,,,,カンサイレイセントウジョウインカイ,0
1110,4150002003346,登記記録の閉鎖等,0,2022-05-13,2022-05-10,有限会社Ｈ・Ｉコミュニケーションズ,,有限会社,奈良県,奈良市,恋の窪２丁目２番１４号,,29,201,6308136,,,2022-05-10,清算の結了等,,,2015-10-05,1,,,,,エイチアイコミュニケーションズ,0
1112,4160005005578,登記記録の閉鎖等,0,2022-05-13,2022-04-11,天理教京光陽分教会,,その他の設立登記法人,滋賀県,彦根市,八坂町１９７２番地の１,,25,202,5220057,,,2022-04-11,合併による解散等,5130005000713,令和４年４月１日京都市東山区松原通大和大路東入三丁目興善町１４０番地天理教京城大教会（5130005000713）に合併し解散,2015-10-05,1,,,,,,0
1116,4180001111436,登記記録の閉鎖等,0,2022-05-13,2022-04-28,株式会社真人建機,,株式会社,愛知県,小牧市,光ケ丘５丁目１７番地１６,,23,219,4850811,,,2022-04-28,清算の結了等,,,2015-10-05,1,,,,,マサトケンキ,0
1131,4210001012861,登記記録の閉鎖等,0,2022-05-13,2022-04-01,株式会社コープさばえ,,株式会社,福井県,鯖江市,東鯖江４丁目３番１５号,,18,207,9160041,,,2022-04-01,合併による解散等,7210001007413,令和４年４月１日福井市渕四丁目１１０１番地株式会社フード福井（7210001007413）に合併し解散,2015-10-05,1,,,,,コープサバエ,0
1134,4240001012495,登記記録の閉鎖等,0,2022-05-13,2022-05-11,株式会社ラパン,,株式会社,広島県,広島市中区,堀川町１番１４号,,34,101,7300033,,,2022-05-11,清算の結了等,,,2015-10-05,1,,,,,ラパン,0
1150,4290003006367,登記記録の閉鎖等,0,2022-05-13,2022-05-09,合同会社グランアシスト松田,,合同会社,福岡県,福岡市東区,西戸崎５丁目６番１１号,,40,131,8110321,,,2022-05-09,清算の結了等,,,2016-03-17,1,,,,,グランアシストマツダ,0
1152,4290005003610,登記記録の閉鎖等,0,2022-05-13,2022-05-10,特定非営利活動法人青少年サポートセンターひまわりの会,,その他の設立登記法人,福岡県,福岡市博多区,銀天町３丁目５番８号,,40,132,8120879,,,2022-05-10,清算の結了等,,,2015-10-05,1,,,,,セイショウネンサポートセンターヒマワリノカイ,0
1153,4310002011150,登記記録の閉鎖等,0,2022-05-13,2022-05-11,有限会社野中電機,,有限会社,長崎県,佐世保市,有福町５７６番地１,,42,202,8593241,,,2022-05-11,清算の結了等,,,2015-10-05,1,,,,,ノナカデンキ,0
1163,4370001007813,登記記録の閉鎖等,0,2022-05-13,2022-04-28,株式会社楠産業,,株式会社,宮城県,仙台市青葉区,国分町１丁目８番１４号仙台協立第二ビル７階,,04,101,9800803,,,2022-04-28,清算の結了等,,,2015-10-05,1,,,,,クスノキサンギョウ,0
1174,4410005002806,登記記録の閉鎖等,0,2022-05-13,2022-05-02,協同組合秋田県北木材センター,,その他の設立登記法人,秋田県,大館市,川口字上野１０１番地の１,,05,204,0170878,,,2022-05-02,清算の結了等,,,2015-10-05,1,,,,,アキタケンポクモクザイセンター,0
1176,4420002014951,登記記録の閉鎖等,0,2022-05-13,2022-05-06,有限会社ランドワード,,有限会社,青森県,弘前市,大字土手町１３５番地,,02,202,0368182,,,2022-05-06,合併による解散等,5420001008994,令和４年５月１日青森県弘前市大字松森町７３番地株式会社キング（5420001008994）に合併し解散,2015-10-05,1,,,,,ランドワード,0
1194,4480002004716,登記記録の閉鎖等,0,2022-05-13,2022-05-12,有限会社みこしや手塚吉蔵商店,00005907,有限会社,徳島県,徳島市,佐古一番町４番１５号,,36,201,7700021,,,2022-05-12,清算の結了等,,,2015-10-05,1,,,,,ミコシヤテヅカキチゾウショウテン,0
1221,5010405017261,登記記録の閉鎖等,0,2022-05-13,2022-04-20,一般社団法人クリーンエナジー３,,その他の設立登記法人,東京都,港区,芝大門２丁目４番６号豊国ビル,,13,103,1050012,,,2022-04-20,清算の結了等,,,2018-11-30,1,,,,,クリーンエナジースリー,0
1225,5010501035761,登記記録の閉鎖等,0,2022-05-13,2022-04-22,メディアエース株式会社,,株式会社,東京都,港区,新橋２丁目１６－１ニュー新橋ビル７０８Ｃ－６,,13,103,1050004,,,2022-04-22,清算の結了等,,,2015-10-05,1,,,,,メディアエース,0
1229,5010602026759,登記記録の閉鎖等,0,2022-05-13,2022-04-27,有限会社イトミ,,有限会社,東京都,墨田区,菊川３丁目１１番７－４０１号,,13,107,1300024,,,2022-04-27,清算の結了等,,,2015-10-05,1,,,,,イトミ,0
1230,5010701000689,登記記録の閉鎖等,0,2022-05-13,2022-05-09,株式会社荒川商店,,株式会社,東京都,品川区,平塚１丁目７番９号,,13,109,1420051,,,2022-05-09,清算の結了等,,,2015-10-05,1,,,,,アラカワショウテン,0
1245,5011001057263,登記記録の閉鎖等,0,2022-05-13,2022-04-19,エイミングジャパン株式会社,,株式会社,東京都,千代田区,丸の内２丁目３番２号郵船ビルディング１階,,13,101,1000005,,,2022-04-19,清算の結了等,,,2015-10-05,1,,,,,,0
1260,5011203003536,登記記録の閉鎖等,0,2022-05-13,2022-05-12,合同会社ＣｒｅａｔｏｒＬａｂ,,合同会社,東京都,台東区,元浅草１丁目６－１２－７２３,,13,106,1110041,,,2022-05-12,清算の結了等,,,2021-05-10,1,,,,,クリエイターラボ,0
1293,5021002050423,登記記録の閉鎖等,0,2022-05-13,2022-05-10,有限会社いけだ,,有限会社,神奈川県,足柄下郡箱根町,畑宿１５１番地,,14,382,2500314,,,2022-05-10,清算の結了等,,,2015-10-05,1,,,,,イケダ,0
1297,5030001020964,登記記録の閉鎖等,0,2022-05-13,2022-05-02,株式会社熊本フカガワ,,株式会社,埼玉県,蕨市,塚越５丁目３６番７号,,11,223,3350002,,,2022-05-02,合併による解散等,8030001076970,令和４年５月１日埼玉県川口市西青木二丁目９番５号株式会社フカガワ（8030001076970）に合併し解散,2015-10-05,1,,,,,クマモトフカガワ,0
1306,5030001121440,登記記録の閉鎖等,0,2022-05-13,2022-05-02,株式会社３Ｓ保険サービス,,株式会社,埼玉県,戸田市,下前１丁目８番１６号コーポ園２０１号,,11,224,3350016,,,2022-05-02,清算の結了等,,,2017-07-27,1,,,,,スリーエスホケンサービス,0
1328,5050001027446,登記記録の閉鎖等,0,2022-05-13,2022-05-09,株式会社グリーンコスモ企画,,株式会社,茨城県,取手市,東６丁目３４番９号,,08,217,3020005,,,2022-05-09,清算の結了等,,,2015-10-05,1,,,,,グリーンコスモキカク,0
1331,5050002035274,登記記録の閉鎖等,0,2022-05-13,2022-05-09,ユニアート建設有限会社,,有限会社,茨城県,常陸太田市,岩手町６７３番地,,08,212,3130112,,,2022-05-09,清算の結了等,,,2015-10-05,1,,,,,ユニアートケンセツ,0
1333,5050002038599,登記記録の閉鎖等,0,2022-05-13,2022-05-06,有限会社東河物流,,有限会社,茨城県,取手市,井野台５丁目４番２４号,,08,217,3020015,,,2022-05-06,清算の結了等,,,2015-10-05,1,,,,,トウガブツリュウ,0
1363,5120001072690,登記記録の閉鎖等,0,2022-05-13,2022-05-13,株式会社日本鋳物工業新聞社,,株式会社,大阪府,大阪市北区,菅原町２番３号,,27,127,5300046,,,2022-05-13,清算の結了等,,,2015-10-05,1,,,,,ニホンイモノコウギョウシンブンシャ,0
1367,5120001166344,登記記録の閉鎖等,0,2022-05-13,2022-05-09,株式会社都市建築研究所,,株式会社,大阪府,大阪市中央区,高麗橋１丁目５番１１号,,27,128,5410043,,,2022-05-09,合併による解散等,7120001052047,令和４年５月８日大阪市東淀川区下新庄三丁目８番４０号新都共栄株式会社（7120001052047）に合併し解散,2015-10-05,1,,,,,トシケンチクケンキュウショ,0
1371,5120003016200,登記記録の閉鎖等,0,2022-05-13,2022-05-11,合同会社スライダー,,合同会社,大阪府,大阪市中央区,今橋２丁目５番８号,,27,128,5410042,,,2022-05-11,清算の結了等,,,2019-09-02,1,,,,,スライダー,0
1372,5120005005523,登記記録の閉鎖等,0,2022-05-13,2022-05-10,医療法人深江診療所,,その他の設立登記法人,大阪府,大阪市東成区,中本５丁目１３番１０号,,27,115,5370022,,,2022-05-10,清算の結了等,,,2015-10-05,1,,,,,フカエシンリョウショ,0
1373,5120005015035,登記記録の閉鎖等,0,2022-05-13,2022-05-12,アヴァンス行政書士法人,,その他の設立登記法人,大阪府,大阪市中央区,北浜２丁目２番２２号北浜中央ビル３Ｆ,,27,128,5410041,,,2022-05-12,清算の結了等,,,2015-10-05,1,,,,,アヴァンス,0
1386,5122001026783,登記記録の閉鎖等,0,2022-05-13,2022-05-11,平和製函工業株式会社,,株式会社,大阪府,八尾市,田井中３丁目５０番地,,27,212,5810095,,,2022-05-11,清算の結了等,,,2015-10-05,1,,,,,,0
1387,5130001009650,登記記録の閉鎖等,0,2022-05-13,2022-05-09,株式会社平和プリンタリー,,株式会社,京都府,京都市東山区,福稲柿本町５番２０,,26,105,6050985,,,2022-05-09,清算の結了等,,,2015-10-05,1,,,,,ヘイワプリンタリー,0
1418,5160001020761,登記記録の閉鎖等,0,2022-05-13,2022-04-01,エンゼルゲーミング株式会社,,株式会社,滋賀県,東近江市,青野町４６００番地,,25,213,5270232,,,2022-04-01,合併による解散等,7160001018416,令和４年４月１日滋賀県東近江市青野町４６００番地エンゼルゲーミング株式会社（7160001018416）に合併し解散,2018-02-28,1,,,,,エンゼルゲーミング,0
1425,5180001107532,登記記録の閉鎖等,0,2022-05-13,2022-05-02,株式会社輪華,,株式会社,愛知県,名古屋市守山区,大字上志段味字稲堀田新田１９０１番地１,,23,113,4630001,,,2022-05-02,合併による解散等,8180001066437,令和４年５月１日名古屋市中村区東宿町一丁目５４番地株式会社寿々（8180001066437）に合併し解散,2015-10-05,1,,,,,ワカ,0
1472,5330005003167,登記記録の閉鎖等,0,2022-05-13,2022-04-01,熊本県たばこ耕作組合,,その他の設立登記法人,熊本県,合志市,豊岡字上境目１５３８番地,,43,216,8611115,,,2022-04-01,合併による解散等,4330005010494,令和４年４月１日大分県臼杵市野津町大字野津市３７４番地の１大分県たばこ耕作組合（4320205000494）と合併して熊本県合志市豊岡字上境目１５３８番地中九州たばこ耕作組合（4330005010494）を設立し解散,2015-10-05,1,,,,,クマモトケンタバココウサククミアイ,0
1481,5370305001008,登記記録の閉鎖等,0,2022-05-13,2022-04-25,東松島市工務店協同組合,,その他の設立登記法人,宮城県,東松島市,牛網字駅前一丁目３番地の８,,04,214,9810301,,,2022-04-25,清算の結了等,,,2015-10-05,1,,,,,ヒガシマツシマシコウムテン,0
1495,5470002006332,登記記録の閉鎖等,0,2022-05-13,2022-05-10,有限会社松内総合会計事務所,,有限会社,香川県,高松市,太田下町２５８３番地３,,37,201,7618073,,,2022-05-10,清算の結了等,,,2015-10-05,1,,,,,マツナイソウゴウカイケイジムショ,0
1528,6010005017999,登記記録の閉鎖等,0,2022-05-13,2022-05-12,特定非営利活動法人地域医療情報連携推進機構,,その他の設立登記法人,東京都,文京区,湯島３丁目１９番１１号湯島ファーストビル４階,,13,105,1130034,,,2022-05-12,清算の結了等,,,2015-10-05,1,,,,,チイキイリョウジョウホウレンケイスイシンキコウ,0
1568,6011305000372,登記記録の閉鎖等,0,2022-05-13,2022-04-07,天理教代之里分教会,,その他の設立登記法人,東京都,杉並区,和泉４丁目３６番１６号,,13,115,1680063,,,2022-04-07,合併による解散等,8010105000655,令和４年４月１日東京都八王子市大塚１３８６番地の１天理教保代分教会（8010105000655）に合併し解散,2015-10-05,1,,,,,,0
1575,6012401037589,登記記録の閉鎖等,0,2022-05-13,2022-05-02,株式会社クラフト,,株式会社,東京都,府中市,押立町１丁目３４番地の１コープ野村府中武蔵野台３－２１３,,13,206,1830012,,,2022-05-02,清算の結了等,,,2021-03-04,1,,,,,クラフト,0
1577,6012802011110,登記記録の閉鎖等,0,2022-05-13,2022-05-11,アドバンスエージェント有限会社,,有限会社,東京都,八王子市,初沢町１４３４番地の３０,,13,201,1930845,,,2022-05-11,清算の結了等,,,2015-10-05,1,,,,,アドバンスエージェント,0
1595,6030001039335,登記記録の閉鎖等,0,2022-05-13,2022-04-20,株式会社ベクターマシン・コープ,,株式会社,東京都,中央区,新富２丁目５番５号,,13,102,1040041,,,2022-04-20,清算の結了等,,,2015-10-05,1,,,,,ベクターマシンコープ,0
1606,6040001012811,登記記録の閉鎖等,0,2022-05-13,2022-05-02,株式会社ユニバーサルエージェントプランニング,,株式会社,千葉県,千葉市美浜区,打瀬１丁目７番地４,,12,106,2610013,,,2022-05-02,清算の結了等,,,2015-10-05,1,,,,,ユニバーサルエージェントプランニング,0
1625,6050002012826,登記記録の閉鎖等,0,2022-05-13,2022-05-09,有限会社北光電設,,有限会社,茨城県,稲敷郡阿見町,中央２丁目８番１４号,,08,443,3000332,,,2022-05-09,清算の結了等,,,2015-10-05,1,,,,,ホッコウデンセツ,0
1629,6060001020762,登記記録の閉鎖等,0,2022-05-13,2022-05-10,株式会社くずう楽器,,株式会社,栃木県,佐野市,山越町７０番地５,,09,204,3270318,,,2022-05-10,清算の結了等,,,2015-10-05,1,,,,,クズウガッキ,0
1665,6120001243506,登記記録の閉鎖等,0,2022-05-13,2022-05-10,株式会社ナカモト,,株式会社,大阪府,大阪市中央区,博労町３丁目５番１号,,27,128,5410059,,,2022-05-10,清算の結了等,,,2022-01-31,1,,,,,ナカモト,0
1669,6120005012295,登記記録の閉鎖等,0,2022-05-13,2022-04-22,ＮＰＯ法人社会福祉ネットワーク協会,,その他の設立登記法人,大阪府,大阪市天王寺区,小宮町１０番１７号,,27,109,5430036,,,2022-04-22,清算の結了等,,,2015-10-05,1,,,,,シャカイフクシネットワークキョウカイ,0
1674,6120905003807,登記記録の閉鎖等,0,2022-05-13,2022-05-12,医療法人けやき会,,その他の設立登記法人,大阪府,豊能郡能勢町,野間出野５８番地あすかの郷,,27,322,5630134,,,2022-05-12,清算の結了等,,,2015-10-05,1,,,,,,0
1681,6130001006325,登記記録の閉鎖等,0,2022-05-13,2022-05-10,株式会社クリモト,,株式会社,京都府,京都市伏見区,小栗栖岩ヶ渕町１５番地５,,26,109,6120000,,,2022-05-10,清算の結了等,,,2015-10-05,1,,,,,クリモト,0
1690,6140001059339,登記記録の閉鎖等,0,2022-05-13,2022-05-02,株式会社新日本興産,,株式会社,兵庫県,姫路市,辻井４丁目９番１０号,00124991,28,201,6700083,,,2022-05-02,清算の結了等,,,2021-12-02,1,,,,,シンニホンコウサン,0
1721,6190003003059,登記記録の閉鎖等,0,2022-05-13,2022-05-02,合同会社Ｙ．,,合同会社,三重県,津市,城山１丁目１番２４号,,24,201,5140818,,,2022-05-02,清算の結了等,,,2019-02-12,1,,,,,ワイドット,0
1726,6210001017108,登記記録の閉鎖等,0,2022-05-13,2022-04-01,株式会社ＪＡ福井市ライフサービス,,株式会社,福井県,福井市,渕４丁目１１０１番地,,18,201,9188026,,,2022-04-01,合併による解散等,7210001007413,令和４年４月１日福井市渕四丁目１１０１番地株式会社フード福井（7210001007413）に合併し解散,2018-04-23,1,,,,,ジェイエイフクイシライフサービス,0
1728,6220002009301,登記記録の閉鎖等,0,2022-05-13,2022-05-10,有限会社ナカガキ機工,,有限会社,石川県,白山市,徳光町２０２番地,,17,210,9240071,,,2022-05-10,清算の結了等,,,2015-10-05,1,,,,,ナカガキキコウ,0
1735,6240002008342,登記記録の閉鎖等,0,2022-05-13,2022-05-11,スカイ観光農園有限会社,,有限会社,広島県,三原市,大和町篠２５３２番地,,34,204,7291402,,,2022-05-11,清算の結了等,,,2022-02-03,1,,,,,スカイカンコウノウエン,0
1741,6260002020758,登記記録の閉鎖等,0,2022-05-13,2022-05-10,有限会社ファイナンシャルプランニング,,有限会社,岡山県,倉敷市,中島２１５７番地１,,33,202,7100803,,,2022-05-10,清算の結了等,,,2015-10-05,1,,,,,ファイナンシャルプランニング,0
1760,6330003004629,登記記録の閉鎖等,0,2022-05-13,2022-05-06,丸長合同会社,,合同会社,熊本県,熊本市中央区,本荘町６５２番地,,43,101,8600816,,,2022-05-06,清算の結了等,,,2015-10-05,1,,,,,マルチョウ,0
1764,6360001021854,登記記録の閉鎖等,0,2022-05-13,2022-04-27,株式会社リベック,,株式会社,沖縄県,宜野湾市,普天間２丁目３１番１３号仲村ビル２Ｆ,,47,205,9012202,,,2022-04-27,清算の結了等,,,2017-01-31,1,,,,,,0
1783,6420005002340,登記記録の閉鎖等,0,2022-05-13,2022-05-06,特定非営利活動法人地域情報化モデル研究会,,その他の設立登記法人,青森県,青森市,蛍沢２丁目６番５号,,02,201,0300957,,,2022-05-06,清算の結了等,,,2015-10-05,1,,,,,チイキジョウホウカモデルケンキュウカイ,0
1803,6500002015361,登記記録の閉鎖等,0,2022-05-13,2022-05-11,有限会社伊藤建工,,有限会社,愛媛県,西条市,喜多川２４１番地の７,,38,206,7930042,,,2022-05-11,清算の結了等,,,2015-10-05,1,,,,,イトウケンコウ,0
1819,7010102008933,登記記録の閉鎖等,0,2022-05-13,2022-05-11,有限会社旦建築計画,,有限会社,東京都,八王子市,東浅川町２８８番地の８,,13,201,1930834,,,2022-05-11,清算の結了等,,,2015-10-05,1,,,,,ダンケンチクケイカク,0
1830,7010702006048,登記記録の閉鎖等,0,2022-05-13,2022-05-09,有限会社南部商事,,有限会社,東京都,品川区,西品川２丁目４番２号,,13,109,1410033,,,2022-05-09,清算の結了等,,,2015-10-05,1,,,,,ナンブショウジ,0
1834,7010901022390,登記記録の閉鎖等,0,2022-05-13,2022-05-09,株式会社英企画,,株式会社,東京都,世田谷区,成城５丁目１４－１２,,13,112,1570066,,,2022-05-09,清算の結了等,,,2015-10-05,1,,,,,ヒデキカク,0
1847,7011105007286,登記記録の閉鎖等,0,2022-05-13,2022-05-11,一般社団法人御苑塾,,その他の設立登記法人,東京都,新宿区,新宿１丁目３番８号,,13,104,1600022,,,2022-05-11,清算の結了等,,,2016-06-16,1,,,,,ギョエンジュク,0
1850,7011302001224,登記記録の閉鎖等,0,2022-05-13,2022-05-06,ヴイダツク製菓有限会社,,有限会社,東京都,杉並区,下井草１丁目２５番１６号,,13,115,1670022,,,2022-05-06,清算の結了等,,,2015-10-05,1,,,,,ヴィダックセイカ,0
1865,7012402017572,登記記録の閉鎖等,0,2022-05-13,2022-04-28,久伸商事有限会社,,有限会社,東京都,武蔵野市,吉祥寺東町１丁目６番２４号,,13,203,1800002,,,2022-04-28,清算の結了等,,,2015-10-05,1,,,,,キュウシンショウジ,0
1867,7012801008049,登記記録の閉鎖等,0,2022-05-13,2022-04-21,株式会社ヴィー・ナス,,株式会社,東京都,渋谷区,代々木２丁目１０番１３号新宿サンセイビル６Ｆ,,13,113,1510053,,,2022-04-21,清算の結了等,,,2015-10-05,1,,,,,ヴィーナス,0
1880,7020001033932,登記記録の閉鎖等,0,2022-05-13,2022-05-02,株式会社アライド・リソーシズ・コミュニケーションズ,,株式会社,埼玉県,ふじみ野市,大井武蔵野１４４０－５,,11,245,3560054,,,2022-05-02,合併による解散等,5011601018342,令和４年５月１日埼玉県ふじみ野市大井武蔵野１４４０－５株式会社ＳＩＸ　ＶＯＩＣＥ（5011601018342）に合併し解散,2015-10-05,1,,,,,アライドリソーシズコミュニケーションズ,0
1895,7030001032636,登記記録の閉鎖等,0,2022-05-13,2022-05-02,ノモト株式会社,,株式会社,埼玉県,加須市,花崎北２丁目５番地７,,11,210,3470016,,,2022-05-02,清算の結了等,,,2015-10-05,1,,,,,ノモト,0
1902,7030001087135,登記記録の閉鎖等,0,2022-05-13,2022-05-02,株式会社山屋呉服店,,株式会社,埼玉県,行田市,行田６番１号,,11,206,3610073,,,2022-05-02,清算の結了等,,,2015-10-05,1,,,,,ヤマヤゴフクテン,0
1908,7030002086870,登記記録の閉鎖等,0,2022-05-13,2022-05-02,株式会社太陽包装加工所,,株式会社,埼玉県,越谷市,大字大泊３７７番地６,,11,222,3430044,,,2022-05-02,清算の結了等,,,2015-10-05,1,,,,,タイヨウホウソウカコウジョ,0
1910,7040001027255,登記記録の閉鎖等,0,2022-05-13,2022-05-02,日舞電装株式会社,,株式会社,千葉県,浦安市,舞浜２丁目１０番２－２０４号,,12,227,2790031,,,2022-05-02,清算の結了等,,,2015-10-05,1,,,,,ニチブデンソウ,0
1912,7040001053887,登記記録の閉鎖等,0,2022-05-13,2022-05-02,株式会社コウセイ,,株式会社,千葉県,船橋市,栄町１丁目２０番２１号,,12,204,2730018,,,2022-05-02,合併による解散等,3040001051770,令和４年５月１日千葉県富津市大堀一丁目１０番地６株式会社基行（3040001051770）に合併し解散,2015-10-05,1,,,,,コウセイ,0
1914,7040001093751,登記記録の閉鎖等,0,2022-05-13,2022-05-02,アネトホロ株式会社,,株式会社,千葉県,松戸市,新松戸１丁目３６４番地きいろいビル４Ｆ,,12,207,2700034,,,2022-05-02,清算の結了等,,,2016-01-21,1,,,,,アネトホロ,0
1942,7080002013531,登記記録の閉鎖等,0,2022-05-13,2022-05-11,有限会社カネサワ曽根製茶,,有限会社,静岡県,島田市,阪本２５番地,,22,209,4270111,,,2022-05-11,清算の結了等,,,2015-10-05,1,,,,,カネサワソネセイチャ,0
1963,7120001202551,登記記録の閉鎖等,0,2022-05-13,2022-05-06,株式会社アシスト,,株式会社,三重県,名張市,東町１７９９番地１,,24,208,5180711,,,2022-05-06,清算の結了等,,,2016-12-20,1,,,,,アシスト,0
1975,7120102024226,登記記録の閉鎖等,0,2022-05-13,2022-04-08,有限会社ユバ薬局,,有限会社,大阪府,泉南郡熊取町,希望が丘３丁目５番１８号,,27,361,5900422,,,2022-04-08,合併による解散等,7430001069398,令和４年４月１日札幌市白石区東札幌五条二丁目丁目４番３０号株式会社アインファーマシーズ（7430001069398）に合併し解散,2015-10-05,1,,,,,ユバヤッキョク,0
2000,7180001026870,登記記録の閉鎖等,0,2022-05-13,2022-05-09,株式会社廣島屋,,株式会社,愛知県,名古屋市西区,花の木１丁目４番３号,,23,104,4510062,,,2022-05-09,清算の結了等,,,2015-10-05,1,,,,,ヒロシマヤ,0
2006,7180001136926,登記記録の閉鎖等,0,2022-05-13,2022-05-02,寿電設株式会社,,株式会社,愛知県,名古屋市緑区,諸の木３丁目２０２３番地,,23,114,4580817,,,2022-05-02,清算の結了等,,,2019-06-07,1,,,,,コトブキデンセツ,0
2011,7180002054136,登記記録の閉鎖等,0,2022-05-13,2022-05-06,有限会社エデュックコーポレーション,,有限会社,愛知県,名古屋市中川区,東春田２丁目２５３番地,,23,110,4540983,,,2022-05-06,清算の結了等,,,2015-10-05,1,,,,,エデュックコーポレーション,0
2014,7190001010246,登記記録の閉鎖等,0,2022-05-13,2022-05-02,株式会社三栄,,株式会社,三重県,松阪市,湊町１４８番地の９,,24,204,5150085,,,2022-05-02,清算の結了等,,,2015-10-05,1,,,,,サンエイ,0
2037,7260001010593,登記記録の閉鎖等,0,2022-05-13,2022-05-12,キリン不動産株式会社,,株式会社,岡山県,岡山市北区,足守１５１７－３,,33,101,7011463,,,2022-05-12,清算の結了等,,,2015-10-05,1,,,,,キリンフドウサン,0
2044,7290001073068,登記記録の閉鎖等,0,2022-05-13,2022-05-09,株式会社バリアンスマネジメント,,株式会社,福岡県,福岡市東区,和白東２丁目１３番３号,,40,131,8110214,,,2022-05-09,清算の結了等,,,2016-03-03,1,,,,,バリアンスマネジメント,0
2050,7290805006792,登記記録の閉鎖等,0,2022-05-13,2022-05-10,文台寺,,その他の設立登記法人,福岡県,京都郡みやこ町,犀川柳瀬６４１番地,,40,625,8240223,,,2022-05-10,清算の結了等,,,2015-10-05,1,,,,,,0
2059,7330002025542,登記記録の閉鎖等,0,2022-05-13,2022-05-09,稲本青果有限会社,,有限会社,熊本県,八代市,植柳新町１丁目壱弐号４番地,,43,202,8660084,,,2022-05-09,清算の結了等,,,2015-10-05,1,,,,,イナモトセイカ,0
2062,7340002013463,登記記録の閉鎖等,0,2022-05-13,2022-05-10,有限会社ウィズ,,有限会社,鹿児島県,霧島市,福山町福山５２９０番地１８,,46,218,8994501,,,2022-05-10,清算の結了等,,,2015-10-05,1,,,,,ウィズ,0
2088,7430001081502,登記記録の閉鎖等,0,2022-05-13,2022-05-02,２１歳のこうしろう株式会社,,株式会社,北海道,札幌市東区,北十一条東１５丁目１番２１号グリーンパレス３０３,,01,103,0650011,,,2022-05-02,清算の結了等,,,2020-05-18,1,,,,,ニジュウイッサイノコウシロウ,0
2098,7500002014569,登記記録の閉鎖等,0,2022-05-13,2022-05-10,有限会社行本藥局,,有限会社,愛媛県,西条市,大町１６８５番地,,38,206,7930030,,,2022-05-10,清算の結了等,,,2015-10-05,1,,,,,ユキモトヤッキョク,0
2184,8013301002391,登記記録の閉鎖等,0,2022-05-13,2022-05-10,株式会社音羽トレンディ,,株式会社,東京都,豊島区,巣鴨４丁目２２番２３号,,13,116,1700002,,,2022-05-10,清算の結了等,,,2015-10-05,1,,,,,オトワトレンディ,0
2191,8013305002009,登記記録の閉鎖等,0,2022-05-13,2022-05-09,特定非営利活動法人グローバルセーフティネット・ジャパン,,その他の設立登記法人,東京都,豊島区,南池袋２丁目４９番７号池袋パークビル１階インスクエア池袋２５号,,13,116,1710022,,,2022-05-09,清算の結了等,,,2015-10-05,1,,,,,グローバルセーフティネットジャパン,0
2194,8020001057253,登記記録の閉鎖等,0,2022-05-13,2022-04-26,株式会社トゥルース,,株式会社,神奈川県,横浜市鶴見区,上末吉１丁目１７番３２号,,14,101,2300011,,,2022-04-26,清算の結了等,,,2015-10-05,1,,,,,トゥルース,0
2200,8020002036322,登記記録の閉鎖等,0,2022-05-13,2022-05-02,株式会社ヤマダ,,株式会社,神奈川県,横浜市西区,北幸１丁目１１番１５号横浜ＳＴビル１８階,,14,103,2200004,,,2022-05-02,合併による解散等,8020001024955,令和４年４月３０日横浜市西区北幸一丁目１１番１５号横浜ＳＴビル１８階株式会社ワイ・エス・シー（8020001024955）に合併し解散,2015-10-05,1,,,,,ヤマダ,0
2227,8040002040702,登記記録の閉鎖等,0,2022-05-13,2022-05-02,有限会社京,,有限会社,千葉県,浦安市,猫実５丁目１８番２０号,,12,227,2790004,,,2022-05-02,清算の結了等,,,2015-10-05,1,,,,,キョウ,0
2242,8060002000175,登記記録の閉鎖等,0,2022-05-13,2022-05-10,有限会社興伸製作所,,有限会社,栃木県,宇都宮市,中岡本町３０２０番地３,,09,201,3291105,,,2022-05-10,清算の結了等,,,2015-10-05,1,,,,,コウシンセイサクショ,0
2257,8100002029458,登記記録の閉鎖等,0,2022-05-13,2022-05-09,有限会社エムイー,,有限会社,長野県,諏訪郡富士見町,落合３７０８番地１,,20,362,3990214,,,2022-05-09,清算の結了等,,,2015-10-05,1,,,,,エムイー,0
2261,8120001004492,登記記録の閉鎖等,0,2022-05-13,2022-05-11,株式会社湯山鉄工所,,株式会社,大阪府,大阪市西成区,北津守４丁目５番５５号,,27,122,5570061,,,2022-05-11,清算の結了等,,,2015-10-05,1,,,,,,0
2263,8120001150329,登記記録の閉鎖等,0,2022-05-13,2022-05-02,日本カタン株式会社,,株式会社,大阪府,枚方市,磯島南町１３番１号,,27,210,5731186,,,2022-05-02,合併による解散等,1010001183701,令和４年５月１日大阪府枚方市磯島南町１３番１号日本カタン株式会社（1010001183701）に合併し解散,2015-10-05,1,,,,,ニホンカタン,0
2266,8120001191851,登記記録の閉鎖等,0,2022-05-13,2022-05-11,株式会社桔梗,,株式会社,大阪府,大阪市港区,市岡元町３丁目７番１０号,,27,107,5520002,,,2022-05-11,清算の結了等,,,2015-10-05,1,,,,,キキョウ,0
2271,8120003016197,登記記録の閉鎖等,0,2022-05-13,2022-05-11,合同会社ナックル,,合同会社,大阪府,大阪市中央区,今橋２丁目５番８号,,27,128,5410042,,,2022-05-11,清算の結了等,,,2019-09-02,1,,,,,ナックル,0
2291,8140001029777,登記記録の閉鎖等,0,2022-05-13,2022-05-09,株式会社ヒューマン・インテグレーション,,株式会社,兵庫県,神戸市垂水区,五色山３丁目１番１４－３０３号,,28,108,6550035,,,2022-05-09,清算の結了等,,,2015-10-05,1,,,,,ヒューマンインテグレーション,0
2347,8290001006209,登記記録の閉鎖等,0,2022-05-13,2022-05-09,池田実業株式会社,,株式会社,福岡県,福岡市中央区,渡辺通５丁目１５番１３号,,40,133,8100004,,,2022-05-09,清算の結了等,,,2015-10-05,1,,,,,イケダジツギョウ,0
2360,8330002013595,登記記録の閉鎖等,0,2022-05-13,2022-05-09,有限会社ケーグランド,,有限会社,熊本県,熊本市北区,清水本町３３番２８号,,43,105,8618074,,,2022-05-09,清算の結了等,,,2015-10-05,1,,,,,ケーグランド,0
2368,8350001005014,登記記録の閉鎖等,0,2022-05-13,2022-05-09,求人サイト宮崎株式会社,,株式会社,宮崎県,宮崎市,橘通東３丁目８番２１号,,45,201,8800805,,,2022-05-09,合併による解散等,5350001002187,令和４年５月１日宮崎市橘通東三丁目８番２１号株式会社レジャークリエイトホールディングス（5350001002187）に合併し解散,2015-10-05,1,,,,,キュウジンサイトミヤザキ,0
2400,8470003000315,登記記録の閉鎖等,0,2022-05-13,2022-05-02,合資会社千葉商会,,合資会社,香川県,善通寺市,上吉田町４丁目５番８号,,37,204,7650011,,,2022-05-02,清算の結了等,,,2015-10-05,1,,,,,チバショウカイ,0
2438,9011001130611,登記記録の閉鎖等,0,2022-05-13,2022-04-21,ＢＡＲＫ株式会社,,株式会社,東京都,渋谷区,桜丘町２３番１７号シティコート桜丘４０８,,13,113,1500031,,,2022-04-21,清算の結了等,,,2019-10-30,1,,,,,バーク,0
2469,9012401012382,登記記録の閉鎖等,0,2022-05-13,2022-05-06,株式会社クボタ,,株式会社,東京都,小金井市,本町１丁目８番４－４０３号,,13,210,1840004,,,2022-05-06,清算の結了等,,,2015-10-05,1,,,,,クボタ,0
2479,9020001122733,登記記録の閉鎖等,0,2022-05-13,2022-05-10,株式会社ソイル工業,,株式会社,栃木県,宇都宮市,上横倉町８３５番地５,,09,201,3212112,,,2022-05-10,清算の結了等,,,2017-08-25,1,,,,,ソイルコウギョウ,0
2484,9020003012387,登記記録の閉鎖等,0,2022-05-13,2022-05-06,合同会社Ｍ＆Ｓ,,合同会社,神奈川県,横浜市磯子区,滝頭１丁目６番７５－３０６号,,14,107,2350012,,,2022-05-06,清算の結了等,,,2017-02-15,1,,,,,エムアンドエス,0
2492,9030001011605,登記記録の閉鎖等,0,2022-05-13,2022-05-06,池野リース株式会社,,株式会社,埼玉県,さいたま市緑区,東浦和５丁目１５－２１ナイスビル１階,,11,109,3360926,,,2022-05-06,清算の結了等,,,2015-10-05,1,,,,,,0
2521,9030005012302,登記記録の閉鎖等,0,2022-05-13,2022-04-11,天理教愛川分教会,00018629,その他の設立登記法人,埼玉県,川口市,中青木１丁目３番２号,,11,203,3320032,,,2022-04-11,合併による解散等,3180005001312,令和４年４月４日名古屋市瑞穂区豊岡通一丁目１番地天理教東愛大教会（3180005001312）に合併し解散,2015-10-05,1,,,,,テンリキョウアイカワブンキョウカイ,0
2538,9060001024736,登記記録の閉鎖等,0,2022-05-13,2022-05-10,株式会社大地のかほり,,株式会社,栃木県,小山市,大字南半田１７４６番地２,,09,208,3230011,,,2022-05-10,清算の結了等,,,2015-10-05,1,,,,,ダイチノカホリ,0
2550,9070002016145,登記記録の閉鎖等,0,2022-05-13,2022-04-27,有限会社共栄,,有限会社,群馬県,富岡市,七日市８２７番地の１,,10,210,3702343,,,2022-04-27,清算の結了等,,,2015-10-05,1,,,,,キョウエイ,0
2554,9070002026862,登記記録の閉鎖等,0,2022-05-13,2022-04-27,有限会社丸高商店,00025799,有限会社,群馬県,渋川市,伊香保町伊香保３８９番地１,,10,208,3770102,,,2022-04-27,清算の結了等,,,2015-10-05,1,,,,,マルタカショウテン,0
2555,9070005009410,登記記録の閉鎖等,0,2022-05-13,2022-04-28,ＮＰＯ法人ハリカポリー,,その他の設立登記法人,群馬県,みどり市,笠懸町阿左美１９１８番地２８,,10,212,3792311,,,2022-04-28,清算の結了等,,,2017-11-27,1,,,,,ハリカポリー,0
2566,9110002024969,登記記録の閉鎖等,0,2022-05-13,2022-05-11,有限会社広瀬工務店,,有限会社,新潟県,妙高市,大字十日市３７２番地１５,,15,217,9440095,,,2022-05-11,清算の結了等,,,2015-10-05,1,,,,,ヒロセコウムテン,0
2569,9120001089582,登記記録の閉鎖等,0,2022-05-13,2022-05-11,マザウェイズ・ジャパン株式会社,,株式会社,大阪府,大阪市中央区,南久宝寺町１丁目５番７号,,27,128,5410058,,,2022-05-11,清算の結了等,,,2015-10-05,1,,,,,,0
2574,9120001161894,登記記録の閉鎖等,0,2022-05-13,2022-04-21,ドリームラック株式会社,,株式会社,東京都,渋谷区,神宮前６丁目２８－９－６Ｆ,,13,113,1500001,,,2022-04-21,清算の結了等,,,2015-10-05,1,,,,,ドリームラック,0
2599,9122001024197,登記記録の閉鎖等,0,2022-05-13,2022-05-11,株式会社エイキュウテック,,株式会社,大阪府,八尾市,西弓削２丁目２１１－２,,27,212,5810035,,,2022-05-11,清算の結了等,,,2015-10-05,1,,,,,,0
2601,9130001021321,登記記録の閉鎖等,0,2022-05-13,2022-05-06,株式会社千松,,株式会社,京都府,京都市中京区,堺町通三条下る道祐町１４０番地,,26,104,6048118,,,2022-05-06,合併による解散等,4130001020690,令和４年５月１日京都市中京区堺町通姉小路下る大阪材木町６９０番地２株式会社健勝苑（4130001020690）に合併し解散,2015-10-05,1,,,,,センショウ,0
2604,9130001041864,登記記録の閉鎖等,0,2022-05-13,2022-04-27,マルカ大勝物産株式会社,,株式会社,京都府,綾部市,中ノ町３丁目４８番地,,26,203,6230064,,,2022-04-27,清算の結了等,,,2015-10-05,1,,,,,マルカダイカツブッサン,0
2624,9140002018258,登記記録の閉鎖等,0,2022-05-13,2022-05-10,有限会社ヒラノ,,有限会社,兵庫県,芦屋市,西蔵町４番３－３０４号,,28,206,6590026,,,2022-05-10,清算の結了等,,,2015-10-05,1,,,,,ヒラノ,0
2631,9150002005164,登記記録の閉鎖等,0,2022-05-13,2022-05-06,有限会社西原,,有限会社,奈良県,大和郡山市,箕山町１０番７号,,29,203,6391015,,,2022-05-06,清算の結了等,,,2015-10-05,1,,,,,ニシハラ,0
2636,9170001014511,登記記録の閉鎖等,0,2022-05-13,2022-05-11,株式会社ＮＯＴＥ紀州,,株式会社,和歌山県,和歌山市,十一番丁１０番地Ｊａｍビル,,30,201,6408159,,,2022-05-11,清算の結了等,,,2016-12-02,1,,,,,ノオトキシュウ,0
2639,9180001071741,登記記録の閉鎖等,0,2022-05-13,2022-05-09,株式会社ウェルス,,株式会社,福井県,福井市,毛矢３丁目１番２７号,,18,201,9188003,,,2022-05-09,清算の結了等,,,2015-10-05,1,,,,,ウェルス,0
2663,9240005015127,登記記録の閉鎖等,0,2022-05-13,2022-05-06,一般社団法人日本フィジカルサポート協会,,その他の設立登記法人,広島県,福山市,新涯町６丁目１０番４３号,,34,207,7210955,,,2022-05-06,清算の結了等,,,2020-12-07,1,,,,,フィジカルサポート,0
2671,9290005017234,登記記録の閉鎖等,0,2022-05-13,2022-05-10,合志池尻宅地開発特定目的会社,,その他の設立登記法人,福岡県,福岡市中央区,天神１丁目１３番２号,,40,133,8100001,,,2022-05-10,清算の結了等,,,2019-03-28,1,,,,,コウシイケジリタクチカイハツ,0
2673,9310001006304,登記記録の閉鎖等,0,2022-05-13,2022-05-11,長崎環境株式会社,,株式会社,長崎県,佐世保市,椎木町５３３番地４,,42,202,8580925,,,2022-05-11,清算の結了等,,,2015-10-05,1,,,,,ナガサキカンキョウ,0
2674,9310002012111,登記記録の閉鎖等,0,2022-05-13,2022-05-13,有限会社力武調色センター,,有限会社,長崎県,佐世保市,大塔町２１４１番地３,,42,202,8571161,,,2022-05-13,清算の結了等,,,2015-10-05,1,,,,,リキタケチョウショクセンター,0
2691,9370005001898,登記記録の閉鎖等,0,2022-05-13,2022-05-02,医療法人ストレスクリニック,,その他の設立登記法人,宮城県,仙台市太白区,泉崎２丁目８番１５,,04,104,9820031,,,2022-05-02,清算の結了等,,,2015-10-05,1,,,,,ストレスクリニック,0
2693,9380005006863,登記記録の閉鎖等,0,2022-05-13,2022-05-02,ＮＰＯ法人テニスネットいわき,,その他の設立登記法人,福島県,いわき市,泉玉露６丁目１２番地の２,,07,204,9718172,,,2022-05-02,清算の結了等,,,2015-10-05,1,,,,,テニスネットイワキ,0
2705,9460103000768,登記記録の閉鎖等,0,2022-05-13,2022-05-09,合同会社ＳＳＭ,,合同会社,北海道,帯広市,南の森西２丁目１番１号,,01,207,0800862,,,2022-05-09,清算の結了等,,,2015-10-05,1,,,,,,0
