sequenceNumber,corporateNumber,process,correct,updateDate,changeDate,name,nameImageId,kind,prefectureName,cityName,streetNumber,addressImageId,prefectureCode,cityCode,postCode,addressOutside,addressOutsideImageId,closeDate,closeCause,successorCorporateNumber,changeCause,assignmentDate,latest,enName,enPrefectureName,enCityName,enAddressOutside,furigana,hihyoji
16,1010401181123,登記記録の閉鎖等,0,2025-12-08,2025-11-12,株式会社廻,,株式会社,東京都,港区,西麻布２丁目８－７－２０２,,13,103,1060031,,,2025-11-12,清算の結了等,,,2024-03-22,1,,,,,メグル,0
28,1010602017407,登記記録の閉鎖等,0,2025-12-08,2025-12-04,有限会社肥前工業,,有限会社,東京都,江東区,猿江２丁目１６番２３－１２１５号,,13,108,1350003,,,2025-12-04,合併による解散等,2011101003310,令和７年１１月１日東京都新宿区上落合一丁目２９番１３号株式会社エヌビーイー（2011101003310）に合併し解散,2015-10-05,1,,,,,ヒゼンコウギョウ,0
35,1010805001488,登記記録の閉鎖等,0,2025-12-08,2025-11-17,特定非営利活動法人東京救難所,,その他の設立登記法人,東京都,大田区,西糀谷３丁目５番５号,,13,111,1440034,,,2025-11-17,清算の結了等,,,2015-10-05,1,,,,,トウキョウキュウナンジョ,0
52,1011501029716,登記記録の閉鎖等,0,2025-12-08,2025-12-03,株式会社明和塾,,株式会社,東京都,荒川区,西日暮里６丁目３７番１号ＢＩＺｃｏｍｆｏｒｔ西日暮里１Ｆ－９号室,,13,118,1160013,,,2025-12-03,清算の結了等,,,2023-09-01,1,,,,,メイワジュク,0
54,1011602023584,登記記録の閉鎖等,0,2025-12-08,2025-12-03,有限会社デレマック・エス,,有限会社,東京都,練馬区,豊玉中２丁目２５番１０－１１２号,,13,120,1760013,,,2025-12-03,清算の結了等,,,2015-10-05,1,,,,,デレマックエス,0
67,1013101006046,登記記録の閉鎖等,0,2025-12-08,2025-12-03,株式会社イイアイジイ,,株式会社,東京都,あきる野市,小川７５２番地１０,,13,228,1970821,,,2025-12-03,清算の結了等,,,2015-10-05,1,,,,,イイアイジイ,0
72,1013305000893,登記記録の閉鎖等,0,2025-12-08,2025-11-26,特定非営利活動法人２１世紀社会デザインセンター,,その他の設立登記法人,東京都,豊島区,駒込６丁目１８番１号,,13,116,1700003,,,2025-11-26,清算の結了等,,,2015-10-05,1,,,,,ニジュウイッセイキシャカイデザインセンター,0
92,1030003023432,登記記録の閉鎖等,0,2025-12-08,2025-12-02,合同会社宙美,,合同会社,愛媛県,東温市,松瀬川２０５番地,,38,215,7910314,,,2025-12-02,清算の結了等,,,2024-01-16,1,,,,,ソラミ,0
102,1040002025593,登記記録の閉鎖等,0,2025-12-08,2025-11-12,有限会社水啓木材商店,,有限会社,千葉県,船橋市,夏見台６丁目５番９号,,12,204,2730866,,,2025-11-12,清算の結了等,,,2015-10-05,1,,,,,ミズケイモクザイショウテン,0
104,1040003002716,登記記録の閉鎖等,0,2025-12-08,2025-11-12,合資会社星野商店,,合資会社,千葉県,袖ケ浦市,下泉８４４番地,,12,229,2990231,,,2025-11-12,清算の結了等,,,2015-10-05,1,,,,,ホシノショウテン,0
111,1070001029444,登記記録の閉鎖等,0,2025-12-08,2025-12-02,株式会社青木建機工業,,株式会社,群馬県,桐生市,新里町板橋５８７番地,,10,203,3760136,,,2025-12-02,清算の結了等,,,2015-10-05,1,,,,,アオキケンキコウギョウ,0
113,1080002010848,登記記録の閉鎖等,0,2025-12-08,2025-12-02,有限会社なしや,,有限会社,静岡県,静岡市清水区,八木間町１６６４番地の２,,22,103,4240212,,,2025-12-02,清算の結了等,,,2015-10-05,1,,,,,ナシヤ,0
123,1110001034225,登記記録の閉鎖等,0,2025-12-08,2025-12-03,アース・愛・ジャパン株式会社,,株式会社,新潟県,新潟市中央区,弁天１丁目２番４号,,15,103,9500901,,,2025-12-03,清算の結了等,,,2019-08-07,1,,,,,アースアイジャパン,0
128,1120001134610,登記記録の閉鎖等,0,2025-12-08,2025-11-26,メディセレ教育出版株式会社,,株式会社,大阪府,大阪市北区,鶴野町１番９号梅田ゲートタワー,,27,127,5300014,,,2025-11-26,清算の結了等,,,2015-10-05,1,,,,,メディセレキョウイクシュッパン,0
129,1120001136391,登記記録の閉鎖等,0,2025-12-08,2025-12-03,株式会社ハイエスト,,株式会社,奈良県,生駒市,萩の台３丁目２番２０号,,29,209,6300224,,,2025-12-03,清算の結了等,,,2015-10-05,1,,,,,ハイエスト,0
133,1120001246505,登記記録の閉鎖等,0,2025-12-08,2025-11-28,株式会社リバイス,,株式会社,大阪府,大阪市中央区,玉造２丁目３番２７－１０１号,,27,128,5400004,,,2025-11-28,清算の結了等,,,2022-06-10,1,,,,,リバイス,0
148,1130001030222,登記記録の閉鎖等,0,2025-12-08,2025-12-02,株式会社タカミ,,株式会社,京都府,長岡京市,神足２丁目６番２２号,,26,209,6170833,,,2025-12-02,清算の結了等,,,2015-10-05,1,,,,,タカミ,0
149,1130001030627,登記記録の閉鎖等,0,2025-12-08,2025-12-02,京栄リース株式会社,,株式会社,京都府,向日市,鶏冠井町馬司１８番地,,26,208,6170004,,,2025-12-02,合併による解散等,2130001040427,令和７年１１月２９日京都府向日市鶏冠井町馬司１８番地京栄ニチユ株式会社（2130001040427）に合併し解散,2015-10-05,1,,,,,キョウエイリース,0
157,1140001070738,登記記録の閉鎖等,0,2025-12-08,2025-12-04,株式会社ワールドエクステリア,,株式会社,兵庫県,西宮市,若草町１丁目５番５－１１０号,,28,204,6638181,,,2025-12-04,清算の結了等,,,2015-10-05,1,,,,,ワールドエクステリア,0
169,1150003001616,登記記録の閉鎖等,0,2025-12-08,2025-12-03,合同会社ディアフォレスト,,合同会社,奈良県,奈良市,学園朝日元町１丁目５０７－６,,29,201,6310015,,,2025-12-03,清算の結了等,,,2017-06-14,1,,,,,ディアフォレスト,0
170,1160001019510,登記記録の閉鎖等,0,2025-12-08,2025-12-01,株式会社すまいる,,株式会社,滋賀県,野洲市,永原６５１番地,,25,210,5202304,,,2025-12-01,合併による解散等,4160001015639,令和７年１２月１日滋賀県野洲市小篠原１９７９番地株式会社大生産業（4160001015639）に合併し解散,2016-06-06,1,,,,,スマイル,0
171,1170001006763,登記記録の閉鎖等,0,2025-12-08,2025-10-20,株式会社オプラスサービス,,株式会社,和歌山県,海南市,小野田１６３６番地１５２,,30,202,6420014,,,2025-10-20,合併による解散等,9170001005626,令和７年１０月１日和歌山県海南市小野田１６３６番地の１５２株式会社オプラス（9170001005626）に合併し解散,2015-10-05,1,,,,,オプラスサービス,0
180,1180003008872,登記記録の閉鎖等,0,2025-12-08,2025-12-03,株式会社豊栄,,株式会社,愛知県,名古屋市北区,楠２丁目３０１番地,,23,103,4620012,,,2025-12-03,清算の結了等,,,2015-10-05,1,,,,,ホウエイ,0
199,1240002048723,登記記録の閉鎖等,0,2025-12-08,2025-12-01,ホダカ機工有限会社,,有限会社,広島県,安芸郡府中町,宮の町４丁目１１番５号,,34,302,7350005,,,2025-12-01,清算の結了等,,,2015-10-05,1,,,,,ホダカキコウ,0
200,1250002011267,登記記録の閉鎖等,0,2025-12-08,2025-12-03,有限会社門林産業,,有限会社,山口県,下関市,阿弥陀寺町５番７号,,35,201,7500003,,,2025-12-03,清算の結了等,,,2015-10-05,1,,,,,モンバヤシサンギョウ,0
207,1290001035387,登記記録の閉鎖等,0,2025-12-08,2025-12-03,株式会社Ｂｌａｋｅ　Ｉｎｔｅｒｎａｔｉｏｎａｌ,,株式会社,福岡県,糟屋郡粕屋町,大字内橋６８６－２,,40,349,8112308,,,2025-12-03,清算の結了等,,,2015-10-05,1,,,,,ブレークインターナショナル,0
216,1290002027994,登記記録の閉鎖等,0,2025-12-08,2025-12-01,有限会社オネストサービス,,有限会社,福岡県,福岡市東区,松崎１丁目４２番６０－３０４号,,40,131,8130035,,,2025-12-01,清算の結了等,,,2015-10-05,1,,,,,オネストサービス,0
218,1290002052349,登記記録の閉鎖等,0,2025-12-08,2025-12-03,有限会社船越電業,,有限会社,福岡県,久留米市,田主丸町船越１０３４番地の１,,40,203,8391205,,,2025-12-03,清算の結了等,,,2015-10-05,1,,,,,フナコシデンギョウ,0
237,1340001015581,登記記録の閉鎖等,0,2025-12-08,2025-12-01,ＣＰ産廃興業株式会社,,株式会社,鹿児島県,鹿児島市,五ヶ別府町２１２４番地１,,46,201,8910101,,,2025-12-01,清算の結了等,,,2015-10-05,1,,,,,シーピーサンパイコウギョウ,0
255,1380002007830,登記記録の閉鎖等,0,2025-12-08,2025-12-02,有限会社いずみ,,有限会社,福島県,郡山市,富久山町久保田字大原１１６番２２号,,07,203,9638071,,,2025-12-02,清算の結了等,,,2015-10-05,1,,,,,イズミ,0
257,1380002023233,登記記録の閉鎖等,0,2025-12-08,2025-12-03,有限会社キョウシン,,有限会社,福島県,いわき市,鹿島町御代字赤坂１５番地の１,,07,204,9718146,,,2025-12-03,清算の結了等,,,2015-10-05,1,,,,,キョウシン,0
270,1450002012609,登記記録の閉鎖等,0,2025-12-08,2025-12-01,有限会社光鱗物産,,有限会社,北海道,紋別市,本町５丁目１番４号,,01,219,0940004,,,2025-12-01,合併による解散等,9450001009400,令和７年１１月３０日北海道紋別市本町五丁目１番４号株式会社クリエーション（9450001009400）に合併し解散,2015-10-05,1,,,,,コウリンブッサン,0
271,1450002013037,登記記録の閉鎖等,0,2025-12-08,2025-12-01,有限会社アイワ不動産,,有限会社,北海道,紋別市,本町５丁目１番４号,,01,219,0940004,,,2025-12-01,合併による解散等,9450001009400,令和７年１１月３０日北海道紋別市本町五丁目１番４号株式会社クリエーション（9450001009400）に合併し解散,2015-10-05,1,,,,,アイワフドウサン,0
277,1500002017296,登記記録の閉鎖等,0,2025-12-08,2025-12-03,有限会社山田機械工業,,有限会社,愛媛県,新居浜市,多喜浜６丁目３番６号,,38,205,7920893,,,2025-12-03,清算の結了等,,,2015-10-05,1,,,,,ヤマダキカイコウギョウ,0
290,2010003025405,登記記録の閉鎖等,0,2025-12-08,2025-11-21,ＴＲＭ合同会社,,合同会社,東京都,中央区,銀座６丁目１３番９号ＧＩＲＡＣＧＩＮＺＡ８階Ｂｉｚｃｕｂｅ内,,13,102,1040061,,,2025-11-21,清算の結了等,,,2017-05-31,1,,,,,ティーアールエム,0
292,2010005036549,登記記録の閉鎖等,0,2025-12-08,2025-11-28,一般社団法人Ｄｏｃｔｏｃｋ,,その他の設立登記法人,東京都,中央区,銀座１丁目１２番４号Ｎ＆ＥＢＬＤ．６Ｆ,,13,102,1040061,,,2025-11-28,清算の結了等,,,2023-04-20,1,,,,,ドックトック,0
296,2010401021328,登記記録の閉鎖等,0,2025-12-08,2025-11-10,株式会社ナルビック,,株式会社,東京都,港区,新橋６丁目１７番１号,,13,103,1050004,,,2025-11-10,清算の結了等,,,2015-10-05,1,,,,,,0
309,2010403033073,登記記録の閉鎖等,0,2025-12-08,2025-11-13,ＯＰＩ・２０合同会社,,合同会社,東京都,港区,浜松町２丁目４番１号,,13,103,1050013,,,2025-11-13,合併による解散等,2010401183894,令和７年１１月１２日東京都港区浜松町二丁目４番１号ＯＰＩ・１９株式会社（2010401183894）に合併し解散,2024-07-19,1,,,,,オーピーアイトゥエンティ,0
314,2010505001465,登記記録の閉鎖等,0,2025-12-08,2025-11-27,特定非営利活動法人パワードエイジ協会,,その他の設立登記法人,東京都,台東区,浅草橋１丁目１２番３号,,13,106,1110053,,,2025-11-27,清算の結了等,,,2015-10-05,1,,,,,パワードエイジキョウカイ,0
322,2010703003387,登記記録の閉鎖等,0,2025-12-08,2025-11-28,合同会社ＶＩＳＴＡＣＨＩＯ,,合同会社,東京都,品川区,西五反田３丁目６番２３－１６０３号,,13,109,1410031,,,2025-11-28,合併による解散等,2010703004443,令和７年１１月２８日東京都品川区西五反田三丁目６番２３－１６０３号ＴＥＥ－ＥＮＧＡＧＥＭＥＮＴ合同会社（2010703004443）に合併し解散,2016-12-09,1,,,,,ヴィスタチオ,0
323,2010801035118,登記記録の閉鎖等,0,2025-12-08,2025-11-27,イデビ株式会社,,株式会社,東京都,大田区,大森本町１丁目８番１０－２２０４号,,13,111,1430011,,,2025-11-27,清算の結了等,,,2024-06-07,1,,,,,イデビ,0
324,2011001126203,登記記録の閉鎖等,0,2025-12-08,2025-09-12,株式会社Ｋｉｆｕｎｅ,,株式会社,東京都,渋谷区,代々木２丁目３０－４,,13,113,1510053,,,2025-09-12,清算の結了等,,,2019-01-22,1,,,,,キフネ,0
334,2011005006946,登記記録の閉鎖等,0,2025-12-08,2025-12-03,一般社団法人雛形管財,,その他の設立登記法人,富山県,魚津市,金山谷２４５７番地,,16,204,9370832,,,2025-12-03,清算の結了等,,,2016-10-12,1,,,,,ヒナガタカンザイ,0
339,2011101088038,登記記録の閉鎖等,0,2025-12-08,2025-11-12,株式会社ワイズ,,株式会社,東京都,新宿区,西新宿３丁目９－７ＢＩＺＳＭＡＲＴ西新宿,,13,104,1600023,,,2025-11-12,清算の結了等,,,2019-06-14,1,,,,,ワイズ,0
342,2011301001782,登記記録の閉鎖等,0,2025-12-08,2025-11-17,株式会社菊地原商店,,株式会社,神奈川県,相模原市緑区,大島６１６番地１,,14,151,2520135,,,2025-11-17,清算の結了等,,,2015-10-05,1,,,,,キクチハラショウテン,0
346,2011401013587,登記記録の閉鎖等,0,2025-12-08,2025-12-04,株式会社ＡＺテック,,株式会社,東京都,板橋区,小豆沢２丁目１０番１０号,,13,119,1740051,,,2025-12-04,清算の結了等,,,2015-10-05,1,,,,,アズテック,0
356,2013301009541,登記記録の閉鎖等,0,2025-12-08,2025-12-01,日綜マシナリー株式会社,,株式会社,東京都,豊島区,高田３丁目１６番９号,,13,116,1710033,,,2025-12-01,清算の結了等,,,2015-10-05,1,,,,,ニッソウマシナリー,0
359,2020001046749,登記記録の閉鎖等,0,2025-12-08,2025-12-04,株式会社マックスアンドアレックス,,株式会社,神奈川県,横浜市西区,楠町１１番地２ストークビル横浜３０６,,14,103,2200003,,,2025-12-04,清算の結了等,,,2015-10-05,1,,,,,マックスアンドアレックス,0
369,2020002074550,登記記録の閉鎖等,0,2025-12-08,2025-12-04,有限会社オフィス小坂,,有限会社,神奈川県,横浜市緑区,長津田２丁目３４番３４－２０６号,,14,113,2260027,,,2025-12-04,清算の結了等,,,2015-10-05,1,,,,,オフィスコサカ,0
376,2021001051549,登記記録の閉鎖等,0,2025-12-08,2025-11-18,株式会社つぼみ,,株式会社,神奈川県,中郡大磯町,高麗３丁目８番１２号,,14,341,2550001,,,2025-11-18,清算の結了等,,,2015-10-05,1,,,,,ツボミ,0
389,2040001054766,登記記録の閉鎖等,0,2025-12-08,2025-12-01,株式会社バルカーエスイーエス,,株式会社,東京都,品川区,大崎２丁目１番１号,,13,109,1410032,,,2025-12-01,清算の結了等,,,2015-10-05,1,,,,,バルカーエスイーエス,0
393,2040001127051,登記記録の閉鎖等,0,2025-12-08,2025-11-13,株式会社リル,,株式会社,千葉県,船橋市,東船橋３丁目２０番１２号,,12,204,2730002,,,2025-11-13,清算の結了等,,,2023-02-13,1,,,,,,0
396,2040002051556,登記記録の閉鎖等,0,2025-12-08,2025-11-17,有限会社三共建設,,有限会社,千葉県,流山市,松ケ丘４丁目５２０番地,,12,220,2700141,,,2025-11-17,清算の結了等,,,2015-10-05,1,,,,,サンキョウケンセツ,0
397,2040002068947,登記記録の閉鎖等,0,2025-12-08,2025-11-04,有限会社アルファ,,有限会社,千葉県,木更津市,潮浜２丁目１番地２９,,12,206,2920838,,,2025-11-04,合併による解散等,1040001050535,令和７年１１月１日千葉県木更津市東太田三丁目７番８号協友建機株式会社（1040001050535）に合併し解散,2015-10-05,1,,,,,アルファ,0
398,2040002070176,登記記録の閉鎖等,0,2025-12-08,2025-11-12,有限会社タキデン,,有限会社,千葉県,君津市,法木作１丁目１１番１０号,,12,225,2991174,,,2025-11-12,清算の結了等,,,2015-10-05,1,,,,,タキデン,0
408,2070001039459,登記記録の閉鎖等,0,2025-12-08,2025-11-28,株式会社アシスト,,株式会社,群馬県,伊勢崎市,大正寺町２１８－１株式会社晃和伊勢崎工場２Ｆ,,10,204,3720841,,,2025-11-28,清算の結了等,,,2022-08-04,1,,,,,アシスト,0
410,2070001043485,登記記録の閉鎖等,0,2025-12-08,2025-12-02,高見土地株式会社,,株式会社,群馬県,高崎市,江木町１１８番地,,10,202,3700046,,,2025-12-02,清算の結了等,,,2025-10-29,1,,,,,タカミトチ,0
412,2080401016924,登記記録の閉鎖等,0,2025-12-08,2025-12-01,クリエイトシステム株式会社,,株式会社,愛知県,名古屋市港区,十一屋１丁目１０番７号,,23,111,4550831,,,2025-12-01,合併による解散等,7180001010032,令和７年１２月１日名古屋市瑞穂区新開町２２番２０号株式会社マルタパワーズ（7180001010032）に合併し解散,2015-10-05,1,,,,,クリエイトシステム,0
416,2100002007139,登記記録の閉鎖等,0,2025-12-08,2025-12-02,有限会社ユリナ薬局,,有限会社,長野県,長野市,松代町松代１５３番地１０,,20,201,3811231,,,2025-12-02,清算の結了等,,,2015-10-05,1,,,,,ユリナヤッキョク,0
432,2120002020288,登記記録の閉鎖等,0,2025-12-08,2025-12-03,有限会社丁子屋,,有限会社,大阪府,大阪市浪速区,浪速西２丁目２番１２号,,27,111,5560026,,,2025-12-03,清算の結了等,,,2015-10-05,1,,,,,チョウシヤ,0
470,2180301001842,登記記録の閉鎖等,0,2025-12-08,2025-12-02,フジ興業株式会社,,株式会社,愛知県,岡崎市,稲熊町字森下３番地１２,,23,202,4440071,,,2025-12-02,清算の結了等,,,2015-10-05,1,,,,,フジコウギョウ,0
481,2210005009872,登記記録の閉鎖等,0,2025-12-08,2025-12-03,一般社団法人Ｓａｎｃｔｕｓ,,その他の設立登記法人,福井県,福井市,二の宮４丁目１９番１３号,,18,201,9100015,,,2025-12-03,清算の結了等,,,2020-03-27,1,,,,,サンクタス,0
486,2240001034450,登記記録の閉鎖等,0,2025-12-08,2025-12-01,村上木工株式会社,,株式会社,広島県,府中市,鵜飼町５４６番地の５,,34,208,7260002,,,2025-12-01,清算の結了等,,,2015-10-05,1,,,,,ムラカミモッコウ,0
497,2260003001851,登記記録の閉鎖等,0,2025-12-08,2025-12-02,沖縄ガーデン合同会社,,合同会社,岡山県,総社市,泉１４番地２,,33,208,7191106,,,2025-12-02,清算の結了等,,,2015-10-09,1,,,,,オキナワガーデン,0
516,2290002005669,登記記録の閉鎖等,0,2025-12-08,2025-11-27,有限会社ハナヤス,,有限会社,福岡県,福岡市東区,多々良１丁目２１番２７号,,40,131,8130033,,,2025-11-27,清算の結了等,,,2015-10-05,1,,,,,ハナヤス,0
527,2310005002108,登記記録の閉鎖等,0,2025-12-08,2025-12-05,特定非営利活動法人ひよしクラブ,,その他の設立登記法人,長崎県,長崎市,飯香浦町３７２０番地３,,42,201,8510254,,,2025-12-05,清算の結了等,,,2015-10-05,1,,,,,トクテイヒエイリホウジンヒヨシクラブ,0
530,2320001013818,登記記録の閉鎖等,0,2025-12-08,2025-10-07,株式会社ぶんごや,,株式会社,大分県,中津市,餌指町８７８番地３,00096758,44,203,8710064,,,2025-10-07,合併による解散等,2320001011053,令和７年１０月１日大分県中津市豊後町８５３番地株式会社豊国畜産（2320001011053）に合併し解散,2015-10-05,1,,,,,ブンゴヤ,0
546,2370002009604,登記記録の閉鎖等,0,2025-12-08,2025-11-27,有限会社石川土建,,有限会社,宮城県,仙台市青葉区,宮町５丁目６番６号,,04,101,9800004,,,2025-11-27,清算の結了等,,,2015-10-05,1,,,,,イシカワドケン,0
548,2380001014083,登記記録の閉鎖等,0,2025-12-08,2025-12-01,陽光建設株式会社,,株式会社,福島県,いわき市,平字鷹匠町１０番地の１,,07,204,9708026,,,2025-12-01,清算の結了等,,,2015-10-05,1,,,,,ヨウコウケンセツ,0
551,2400001000972,登記記録の閉鎖等,0,2025-12-08,2025-11-11,橘産業株式会社,,株式会社,岩手県,盛岡市,下ノ橋町５番２２号,,03,201,0200877,,,2025-11-11,清算の結了等,,,2015-10-05,1,,,,,タチバナサンギョウ,0
555,2430002052184,登記記録の閉鎖等,0,2025-12-08,2025-12-01,有限会社佐藤商店,,有限会社,北海道,滝川市,朝日町西４丁目２番８号,,01,225,0730018,,,2025-12-01,清算の結了等,,,2015-10-05,1,,,,,サトウショウテン,0
557,2460102001658,登記記録の閉鎖等,0,2025-12-08,2025-12-01,鈴木ビル有限会社,,有限会社,北海道,帯広市,西一条南１０丁目５番地,,01,207,0800011,,,2025-12-01,合併による解散等,8460101000548,令和７年１１月３０日北海道帯広市西八条南十丁目４番地郷ビル株式会社（8460101000548）に合併し解散,2015-10-05,1,,,,,スズキビル,0
571,3010005039328,登記記録の閉鎖等,0,2025-12-08,2025-12-04,一般社団法人１４,,その他の設立登記法人,東京都,千代田区,丸の内１丁目４番１号東京共同会計事務所内,,13,101,1000005,,,2025-12-04,清算の結了等,,,2024-12-25,1,,,,,ジュウヨン,0
587,3010405009277,登記記録の閉鎖等,0,2025-12-08,2025-11-13,一般社団法人チームむかご,,その他の設立登記法人,東京都,港区,三田２丁目１番１号,,13,103,1080073,,,2025-11-13,清算の結了等,,,2015-10-05,1,,,,,チームムカゴ,0
594,3010701018114,登記記録の閉鎖等,0,2025-12-08,2025-12-01,株式会社渡辺エンジニアリング,,株式会社,東京都,品川区,大井７丁目１５番７号,,13,109,1400014,,,2025-12-01,清算の結了等,,,2015-10-05,1,,,,,ワタナベエンジニアリング,0
595,3010701035415,登記記録の閉鎖等,0,2025-12-08,2025-12-01,ＢＬＵＥ　ＳＫＹ　ＤＲＯＮＥ株式会社,,株式会社,東京都,品川区,西五反田５丁目２番４号レキシントン・プラザ西五反田,,13,109,1410031,,,2025-12-01,清算の結了等,,,2018-03-01,1,,,,,ブルースカイドローン,0
621,3011501022215,登記記録の閉鎖等,0,2025-12-08,2025-12-02,株式会社ＫＳプランニング,,株式会社,東京都,台東区,竜泉３丁目３番９号,,13,106,1100012,,,2025-12-02,清算の結了等,,,2016-12-28,1,,,,,ケーエスプランニング,0
637,3012805002704,登記記録の閉鎖等,0,2025-12-08,2025-12-03,一般社団法人日本エレガントメッシュバッグ協会,,その他の設立登記法人,東京都,国分寺市,高木町３丁目２２番地５,,13,214,1850036,,,2025-12-03,清算の結了等,,,2017-10-13,1,,,,,ニホンエレガントメッシュバッグキョウカイ,0
641,3013302010191,登記記録の閉鎖等,0,2025-12-08,2025-12-01,有限会社八百二,,有限会社,東京都,豊島区,要町３丁目２番１２号,,13,116,1710043,,,2025-12-01,清算の結了等,,,2015-10-05,1,,,,,ヤオニ,0
654,3021002002153,登記記録の閉鎖等,0,2025-12-08,2025-11-17,有限会社さやま,,有限会社,神奈川県,藤沢市,本町２丁目３番２９号,,14,205,2510053,,,2025-11-17,清算の結了等,,,2015-10-05,1,,,,,サヤマ,0
656,3030001165464,登記記録の閉鎖等,0,2025-12-08,2025-11-28,株式会社ミライビ,,株式会社,埼玉県,川口市,青木４丁目２１－２１－３０５号インプレスト川口青木,,11,203,3320031,,,2025-11-28,清算の結了等,,,2025-03-28,1,,,,,ミライビ,0
660,3030002083327,登記記録の閉鎖等,0,2025-12-08,2025-11-28,有限会社新栄電設工事,,有限会社,埼玉県,北本市,宮内２丁目９９番地,,11,233,3640002,,,2025-11-28,清算の結了等,,,2015-10-05,1,,,,,シンエイデンセツコウジ,0
672,3040002100460,登記記録の閉鎖等,0,2025-12-08,2025-11-13,有限会社寺澤製作所,,有限会社,千葉県,南房総市,千倉町北朝夷４８３番地,,12,234,2950011,,,2025-11-13,清算の結了等,,,2015-10-05,1,,,,,テラサワセイサクショ,0
675,3040005020904,登記記録の閉鎖等,0,2025-12-08,2025-11-14,一般社団法人ブータン・ハピネス倶楽部,,その他の設立登記法人,千葉県,浦安市,東野２丁目２３番６－２０７号モア・ステージ新浦安,,12,227,2790042,,,2025-11-14,清算の結了等,,,2020-09-10,1,,,,,ブータンハピネスクラブ,0
677,3050002016219,登記記録の閉鎖等,0,2025-12-08,2025-12-01,株式会社須崎物流,,株式会社,茨城県,石岡市,東光台５丁目４番２１号,,08,205,3150033,,,2025-12-01,合併による解散等,7050001013246,令和７年１２月１日茨城県小美玉市中野谷５０１番地１２４株式会社東亜物産（7050001013246）に合併し解散,2015-10-05,1,,,,,スザキブツリュウ,0
684,3060002021647,登記記録の閉鎖等,0,2025-12-08,2025-12-02,有限会社光輝産業,,有限会社,栃木県,鹿沼市,楡木町２１３番地９,,09,205,3220526,,,2025-12-02,清算の結了等,,,2015-10-05,1,,,,,コウキサンギョウ,0
690,3080002013709,登記記録の閉鎖等,0,2025-12-08,2025-12-01,有限会社セントラルスクリーン,,有限会社,静岡県,島田市,稲荷３丁目２番６３号,,22,209,4270038,,,2025-12-01,清算の結了等,,,2015-10-05,1,,,,,セントラルスクリーン,0
694,3080102002314,登記記録の閉鎖等,0,2025-12-08,2025-12-03,有限会社筒井町薬局,,有限会社,静岡県,沼津市,筒井町１番１２号,,22,203,4100041,,,2025-12-03,清算の結了等,,,2015-10-05,1,,,,,ツツイチョウヤッキョク,0
700,3120001021765,登記記録の閉鎖等,0,2025-12-08,2025-12-03,株式会社水野タイヤ商会,,株式会社,大阪府,大阪市平野区,平野宮町１丁目７番２－１５３号,,27,126,5470046,,,2025-12-03,清算の結了等,,,2015-10-05,1,,,,,ミズノタイヤショウカイ,0
708,3120001266658,登記記録の閉鎖等,0,2025-12-08,2025-12-03,株式会社珞初,,株式会社,大阪府,大阪市平野区,加美正覚寺１丁目５－３－２Ｂ,,27,126,5470006,,,2025-12-03,清算の結了等,,,2024-07-12,1,,,,,ラクショ,0
720,3120101028413,登記記録の閉鎖等,0,2025-12-08,2025-12-01,株式会社ヘアテック・ジャパン,,株式会社,大阪府,堺市堺区,遠里小野町２丁３番１号,,27,141,5900001,,,2025-12-01,清算の結了等,,,2015-10-05,1,,,,,ヘアテックジャパン,0
723,3120102024675,登記記録の閉鎖等,0,2025-12-08,2025-12-01,有限会社エスカルゴ,,有限会社,大阪府,泉佐野市,鶴原５丁目１番１２号,,27,213,5980071,,,2025-12-01,清算の結了等,,,2015-10-05,1,,,,,エスカルゴ,0
726,3120901032234,登記記録の閉鎖等,0,2025-12-08,2025-12-04,株式会社Ｉｓｈｉｎ,,株式会社,大阪府,箕面市,西小路３丁目１６番３号ＳＴみのおビル２Ｆ,,27,220,5620003,,,2025-12-04,合併による解散等,6120001190483,令和７年１０月１日大阪市淀川区十三東三丁目２７番１３号株式会社木村ダイヤモンド穿孔（6120001190483）に合併し解散,2015-10-05,1,,,,,イシン,0
730,3130001000545,登記記録の閉鎖等,0,2025-12-08,2025-12-03,京安工業株式会社,,株式会社,京都府,京都市右京区,西院高田町３番地,,26,108,6150031,,,2025-12-03,清算の結了等,,,2015-10-05,1,,,,,キョウアンコウギョウ,0
733,3140001004099,登記記録の閉鎖等,0,2025-12-08,2025-12-01,株式会社三浦工務店,,株式会社,兵庫県,神戸市灘区,鶴甲３丁目１３番３３－３０１号,,28,102,6570011,,,2025-12-01,清算の結了等,,,2015-10-05,1,,,,,ミウラコウムテン,0
744,3170001007165,登記記録の閉鎖等,0,2025-12-08,2025-12-03,湯浅プロパン燃料株式会社,,株式会社,和歌山県,有田郡湯浅町,大字湯浅１５８２番地,,30,361,6430004,,,2025-12-03,合併による解散等,4120001163598,令和７年１２月１日大阪市淀川区西宮原二丁目１番３号イワタニ近畿株式会社（4120001163598）に合併し解散,2015-10-05,1,,,,,ユアサプロパンネンリョウ,0
749,3180001044926,登記記録の閉鎖等,0,2025-12-08,2025-12-02,株式会社みどり建築企画,,株式会社,愛知県,名古屋市緑区,鳴海町字姥子山２３３番地の１５,,23,114,4580828,,,2025-12-02,清算の結了等,,,2015-10-05,1,,,,,ミドリケンチクキカク,0
775,3240002033888,登記記録の閉鎖等,0,2025-12-08,2025-11-28,有限会社ひじ商店,,有限会社,広島県,呉市,本通２丁目７番１６号,,34,202,7370045,,,2025-11-28,清算の結了等,,,2015-10-05,1,,,,,ヒジショウテン,0
779,3260001025835,登記記録の閉鎖等,0,2025-12-08,2025-12-02,スカイハート株式会社,,株式会社,岡山県,倉敷市,林２１３４番地,,33,202,7100142,,,2025-12-02,清算の結了等,,,2015-10-05,1,,,,,スカイハート,0
780,3260002022922,登記記録の閉鎖等,0,2025-12-08,2025-11-28,有限会社ギャラリーこのま,,有限会社,岡山県,倉敷市,児島赤崎２丁目９番２４号,,33,202,7110931,,,2025-11-28,清算の結了等,,,2015-10-05,1,,,,,ギャラリーコノマ,0
786,3290001024743,登記記録の閉鎖等,0,2025-12-08,2025-11-21,ＭＡＲＵＣＯ　ＴＥＣ株式会社,,株式会社,福岡県,福岡市南区,寺塚２丁目１番３４号,,40,134,8150074,,,2025-11-21,清算の結了等,,,2015-10-05,1,,,,,マルコテック,0
791,3290001098952,登記記録の閉鎖等,0,2025-12-08,2025-11-20,株式会社いしはら計装,,株式会社,福岡県,柳川市,七ツ家７６３番地１４の１,,40,207,8320087,,,2025-11-20,清算の結了等,,,2022-09-21,1,,,,,イシハラケイソウ,0
803,3290801020710,登記記録の閉鎖等,0,2025-12-08,2025-12-03,株式会社木本技建,,株式会社,福岡県,京都郡みやこ町,犀川本庄２４１番地１,,40,625,8240231,,,2025-12-03,清算の結了等,,,2015-10-05,1,,,,,キモトギケン,0
815,3360002022730,登記記録の閉鎖等,0,2025-12-08,2025-12-02,有限会社アート・オブ・ティダ,,有限会社,沖縄県,宮古島市,平良字下里１０２４番地１,,47,214,9060013,,,2025-12-02,清算の結了等,,,2015-10-05,1,,,,,,0
817,3370001004704,登記記録の閉鎖等,0,2025-12-08,2025-11-10,潮工業株式会社,,株式会社,宮城県,仙台市宮城野区,幸町２丁目１２番８号,,04,102,9830836,,,2025-11-10,清算の結了等,,,2025-06-27,1,,,,,ウシオコウギョウ,0
823,3390001006673,登記記録の閉鎖等,0,2025-12-08,2025-12-03,レッドバロン酒田株式会社,,株式会社,山形県,酒田市,こがね町２丁目１番地の２２,,06,204,9980852,,,2025-12-03,合併による解散等,7180301002266,令和７年１１月１日愛知県岡崎市藤川町字境松西１番地株式会社レッドバロン（7180301002266）に合併し解散,2015-10-05,1,,,,,レッドバロンサカタ,0
833,3480002011952,登記記録の閉鎖等,0,2025-12-08,2025-12-03,有限会社稲岡測建,,有限会社,徳島県,板野郡上板町,神宅字青木１９番地の１,,36,405,7711320,,,2025-12-03,清算の結了等,,,2015-10-05,1,,,,,イナオカソッケン,0
840,3500005000883,登記記録の閉鎖等,0,2025-12-08,2025-12-04,社会福祉法人松山市母子会,,その他の設立登記法人,愛媛県,松山市,萱町１丁目１番地７,,38,201,7900813,,,2025-12-04,清算の結了等,,,2015-10-05,1,,,,,,0
860,4010501023180,登記記録の閉鎖等,0,2025-12-08,2025-12-02,リアル賃貸保証株式会社,,株式会社,東京都,台東区,浅草１丁目３４番１号,,13,106,1110032,,,2025-12-02,清算の結了等,,,2015-10-05,1,,,,,リアルチンタイホショウ,0
861,4010501023395,登記記録の閉鎖等,0,2025-12-08,2025-12-03,重慶株式会社,,株式会社,東京都,台東区,台東４丁目３１番７－４０１号,,13,106,1100016,,,2025-12-03,清算の結了等,,,2015-10-05,1,,,,,ジュウケイ,0
891,4011105004138,登記記録の閉鎖等,0,2025-12-08,2025-11-07,特定非営利活動法人日本茶普及協会,,その他の設立登記法人,東京都,新宿区,新宿７丁目２７番３号,,13,104,1600022,,,2025-11-07,清算の結了等,,,2015-10-05,1,,,,,ニホンチャフキュウキョウカイ,0
894,4011502011307,登記記録の閉鎖等,0,2025-12-08,2025-12-02,有限会社水越製作所,,有限会社,東京都,荒川区,東日暮里５丁目５４番４号,,13,118,1160014,,,2025-12-02,清算の結了等,,,2015-10-05,1,,,,,ミズコシセイサクショ,0
904,4012801017052,登記記録の閉鎖等,0,2025-12-08,2025-12-01,オザキソリューションズ株式会社,,株式会社,東京都,国分寺市,東恋ヶ窪３丁目１７番地１,,13,214,1850014,,,2025-12-01,合併による解散等,9012801019127,令和７年１２月１日東京都国分寺市東元町四丁目１番３６号オザキホールディングス株式会社（9012801019127）に合併し解散,2016-02-03,1,,,,,オザキソリューションズ,0
913,4021001036077,登記記録の閉鎖等,0,2025-12-08,2025-11-18,株式会社アスカ,,株式会社,神奈川県,平塚市,錦町３番１２号,,14,203,2540044,,,2025-11-18,清算の結了等,,,2015-10-05,1,,,,,アスカ,0
919,4030001098408,登記記録の閉鎖等,0,2025-12-08,2025-11-28,株式会社ＰＲＩＮＣＩＰＩＡ,,株式会社,埼玉県,上尾市,大字菅谷９８番地６,,11,219,3620003,,,2025-11-28,清算の結了等,,,2015-10-05,1,,,,,プリンキピア,0
929,4040002037248,登記記録の閉鎖等,0,2025-12-08,2025-11-14,有限会社よしすし,,有限会社,千葉県,山武市,埴谷１６４７番地７,,12,237,2891223,,,2025-11-14,清算の結了等,,,2015-10-05,1,,,,,ヨシスシ,0
935,4040005003098,登記記録の閉鎖等,0,2025-12-08,2025-11-13,特定非営利活動法人とんぼエコオフィス,,その他の設立登記法人,千葉県,船橋市,本町４丁目２０番１８号,,12,204,2730005,,,2025-11-13,清算の結了等,,,2015-10-05,1,,,,,トンボエコオフィス,0
942,4070001027387,登記記録の閉鎖等,0,2025-12-08,2025-12-03,株式会社スズキロードサービス,,株式会社,群馬県,伊勢崎市,三和町２５１１番地２２,,10,204,3720011,,,2025-12-03,清算の結了等,,,2015-10-05,1,,,,,スズキロードサービス,0
949,4080101021743,登記記録の閉鎖等,0,2025-12-08,2025-12-03,株式会社カイショウ,,株式会社,静岡県,裾野市,二ツ屋１３６番地の５,,22,220,4101128,,,2025-12-03,清算の結了等,,,2020-04-10,1,,,,,カイショウ,0
953,4090001006868,登記記録の閉鎖等,0,2025-12-08,2025-12-03,株式会社星光,,株式会社,山梨県,南アルプス市,下今井３１１番地２,,19,208,4000331,,,2025-12-03,清算の結了等,,,2015-10-05,1,,,,,セイコウ,0
959,4110002024156,登記記録の閉鎖等,0,2025-12-08,2025-12-03,有限会社美創,,有限会社,新潟県,上越市,浦川原区飯室２０２４番地,,15,222,9420336,,,2025-12-03,清算の結了等,,,2015-10-05,1,,,,,ビソウ,0
964,4120001161494,登記記録の閉鎖等,0,2025-12-08,2025-12-04,株式会社ＨＩＮＴＯ,,株式会社,大阪府,大阪市西区,江戸堀１丁目２３番３５号,,27,106,5500002,,,2025-12-04,清算の結了等,,,2015-10-05,1,,,,,ヒント,0
967,4120001184363,登記記録の閉鎖等,0,2025-12-08,2025-12-03,株式会社ケーシーサポート,,株式会社,大阪府,大阪市阿倍野区,西田辺町２丁目５番９,,27,119,5450014,,,2025-12-03,清算の結了等,,,2015-10-05,1,,,,,ケーシーサポート,0
970,4120001254620,登記記録の閉鎖等,0,2025-12-08,2025-12-03,株式会社リバスター,,株式会社,大阪府,守口市,滝井元町１丁目６番９号,,27,209,5700065,,,2025-12-03,清算の結了等,,,2023-05-09,1,,,,,リバスター,0
994,4120905006605,登記記録の閉鎖等,0,2025-12-08,2025-12-02,一般社団法人こころと遊ぼう,,その他の設立登記法人,大阪府,三島郡島本町,高浜３丁目３番１－２１６号,,27,301,6180012,,,2025-12-02,清算の結了等,,,2024-05-01,1,,,,,,0
995,4122001004740,登記記録の閉鎖等,0,2025-12-08,2025-10-20,株式会社オプラスウエスト,,株式会社,和歌山県,和歌山市,小倉４１１番地１８,,30,201,6496261,,,2025-10-20,合併による解散等,9170001005626,令和７年１０月１日和歌山県海南市小野田１６３６番地の１５２株式会社オプラス（9170001005626）に合併し解散,2015-10-05,1,,,,,オプラスウエスト,0
998,4130001031465,登記記録の閉鎖等,0,2025-12-08,2025-12-03,株式会社Ｓ．Ｏ．Ｐ,,株式会社,京都府,京都市下京区,猪熊通高辻下る高辻猪熊町３４９番地遠藤剛熈美術館３－Ａ,00036156,26,106,6008353,,,2025-12-03,清算の結了等,,,2015-10-05,1,,,,,エスオーピー,0
1004,4140001013529,登記記録の閉鎖等,0,2025-12-08,2025-12-04,株式会社高島商事,,株式会社,兵庫県,神戸市兵庫区,切戸町６番１２号,,28,105,6520847,,,2025-12-04,清算の結了等,,,2015-10-05,1,,,,,タカシマショウジ,0
1009,4140002029045,登記記録の閉鎖等,0,2025-12-08,2025-12-01,有限会社スギタニ,,有限会社,兵庫県,明石市,材木町１番３７号,,28,203,6730893,,,2025-12-01,清算の結了等,,,2015-10-05,1,,,,,スギタニ,0
1011,4150001006779,登記記録の閉鎖等,0,2025-12-08,2025-12-03,ヤマトクリエイト株式会社,,株式会社,奈良県,天理市,檜垣町２０１番地,,29,204,6320054,,,2025-12-03,清算の結了等,,,2015-10-05,1,,,,,ヤマトクリエイト,0
1016,4170001004913,登記記録の閉鎖等,0,2025-12-08,2025-10-20,株式会社オプラスロジス,,株式会社,和歌山県,和歌山市,小倉４１１番地１８,,30,201,6496261,,,2025-10-20,合併による解散等,9170001005626,令和７年１０月１日和歌山県海南市小野田１６３６番地の１５２株式会社オプラス（9170001005626）に合併し解散,2015-10-05,1,,,,,オプラスロジス,0
1026,4190001014299,登記記録の閉鎖等,0,2025-12-08,2025-12-03,株式会社一永,,株式会社,三重県,四日市市,智積町３４３７番地の９,,24,202,5121212,,,2025-12-03,清算の結了等,,,2015-10-05,1,,,,,イチエイ,0
1029,4210002001599,登記記録の閉鎖等,0,2025-12-08,2025-12-02,有限会社シス,,有限会社,福井県,福井市,丸山３丁目２０５番地２,,18,201,9100834,,,2025-12-02,清算の結了等,,,2015-10-05,1,,,,,シス,0
1037,4260001001810,登記記録の閉鎖等,0,2025-12-08,2025-12-02,株式会社片岡商会,,株式会社,岡山県,岡山市南区,青江６丁目６番３号,,33,104,7000941,,,2025-12-02,清算の結了等,,,2015-10-05,1,,,,,カタオカショウカイ,0
1040,4260001024043,登記記録の閉鎖等,0,2025-12-08,2025-12-01,Ｗｅｅｄｓ株式会社,,株式会社,岡山県,岡山市北区,中山下１丁目１１番１５号新田第一ビル,,33,101,7000821,,,2025-12-01,清算の結了等,,,2015-10-05,1,,,,,ウイーズ,0
1051,4290001091898,登記記録の閉鎖等,0,2025-12-08,2025-12-01,株式会社セイワ技建,,株式会社,福岡県,大牟田市,西新町２０番地６,,40,202,8360031,,,2025-12-01,清算の結了等,,,2021-02-05,1,,,,,セイワギケン,0
1053,4290001109394,登記記録の閉鎖等,0,2025-12-08,2025-12-01,株式会社ＳＥＩＥＩ,,株式会社,福岡県,福岡市東区,千早１丁目１２番１２号,,40,131,8130044,,,2025-12-01,清算の結了等,,,2025-03-21,1,,,,,セイエイ,0
1058,4290002002870,登記記録の閉鎖等,0,2025-12-08,2025-12-01,有限会社東豊ビル,,有限会社,福岡県,福岡市南区,清水２丁目１４番２０号,,40,134,8150031,,,2025-12-01,清算の結了等,,,2015-10-05,1,,,,,トウホウビル,0
1098,4430002060136,登記記録の閉鎖等,0,2025-12-08,2025-12-01,有限会社三嶋自動車販売,,有限会社,北海道,苫小牧市,ときわ町３丁目１７番２３号,,01,213,0591261,,,2025-12-01,清算の結了等,,,2015-10-05,1,,,,,ミシマジドウシャハンバイ,0
1101,4450002012151,登記記録の閉鎖等,0,2025-12-08,2025-12-01,羽幌機材工業有限会社,,有限会社,北海道,苫前郡羽幌町,北四条３丁目１３番地の１,,01,484,0784114,,,2025-12-01,清算の結了等,,,2015-10-05,1,,,,,ハボロキザイコウギョウ,0
1134,5010703003120,登記記録の閉鎖等,0,2025-12-08,2025-11-28,ＦＲＯＭＺ合同会社,,合同会社,東京都,品川区,北品川１丁目９番７号トップルーム品川１０１５号,,13,109,1400001,,,2025-11-28,合併による解散等,2010703004443,令和７年１１月２８日東京都品川区西五反田三丁目６番２３－１６０３号ＴＥＥ－ＥＮＧＡＧＥＭＥＮＴ合同会社（2010703004443）に合併し解散,2016-05-16,1,,,,,フロムズィー,0
1161,5011403004342,登記記録の閉鎖等,0,2025-12-08,2025-12-04,弐月之旅合同会社,,合同会社,東京都,板橋区,前野町１丁目１番２－２０２号,,13,119,1740063,,,2025-12-04,清算の結了等,,,2024-04-15,1,,,,,ニガツノタビ,0
1163,5011502006859,登記記録の閉鎖等,0,2025-12-08,2025-12-03,有限会社荒工業,,有限会社,東京都,荒川区,西日暮里５丁目３６番９号スワローハイム道灌山５０２号,,13,118,1160013,,,2025-12-03,清算の結了等,,,2015-10-05,1,,,,,アラコウギョウ,0
1166,5011602020891,登記記録の閉鎖等,0,2025-12-08,2025-12-03,有限会社ニューアリス,,有限会社,東京都,練馬区,関町南２丁目２４番６－３０２号,,13,120,1770053,,,2025-12-03,清算の結了等,,,2015-10-05,1,,,,,ニューアリス,0
1167,5011701006362,登記記録の閉鎖等,0,2025-12-08,2025-12-02,株式会社野原,,株式会社,東京都,江戸川区,南小岩７丁目２６番２１号ペガサスステーションプラザ小岩６０５,,13,123,1330056,,,2025-12-02,清算の結了等,,,2015-10-05,1,,,,,ノハラ,0
1179,5013101003295,登記記録の閉鎖等,0,2025-12-08,2025-11-28,株式会社富士フイルムメディアクレスト,,株式会社,東京都,羽村市,神明台２丁目１０番地８,,13,227,2050023,,,2025-11-28,合併による解散等,9370201003302,令和７年１１月１日東京都調布市柴崎一丁目６７番地１株式会社富士フイルムテクノサービス（9370201003302）に合併し解散,2015-10-05,1,,,,,フジフイルムメディアクレスト,0
1223,5040001051273,登記記録の閉鎖等,0,2025-12-08,2025-11-13,アルスロン株式会社,,株式会社,千葉県,袖ケ浦市,神納１２８２番地８,,12,229,2990257,,,2025-11-13,清算の結了等,,,2015-10-05,1,,,,,アルスロン,0
1234,5040002002358,登記記録の閉鎖等,0,2025-12-08,2025-11-13,有限会社大山商店,,有限会社,千葉県,千葉市花見川区,花園２丁目９番２２号,,12,102,2620025,,,2025-11-13,清算の結了等,,,2015-10-05,1,,,,,オオヤマショウテン,0
1237,5040002049944,登記記録の閉鎖等,0,2025-12-08,2025-11-13,有限会社青空青果店,,有限会社,千葉県,松戸市,松飛台２０５番地,,12,207,2702214,,,2025-11-13,清算の結了等,,,2015-10-05,1,,,,,,0
1239,5040002098388,登記記録の閉鎖等,0,2025-12-08,2025-11-14,有限会社いちおかコンタクトレンズ,,有限会社,千葉県,野田市,清水４５１番地３０,,12,208,2780043,,,2025-11-14,清算の結了等,,,2015-10-05,1,,,,,イチオカコンタクトレンズ,0
1247,5070001029952,登記記録の閉鎖等,0,2025-12-08,2025-11-27,株式会社増田商事,,株式会社,群馬県,桐生市,新里町小林４４６番地３,,10,203,3760124,,,2025-11-27,清算の結了等,,,2015-10-05,1,,,,,マスダショウジ,0
1253,5080101004846,登記記録の閉鎖等,0,2025-12-08,2025-12-03,株式会社東京プロパン商会,,株式会社,静岡県,伊豆の国市,古奈８０番地の１,,22,225,4102201,,,2025-12-03,清算の結了等,,,2015-10-05,1,,,,,トウキョウプロパンショウカイ,0
1255,5090001005191,登記記録の閉鎖等,0,2025-12-08,2025-12-01,ワイアイ・テック株式会社,,株式会社,山梨県,南アルプス市,有野３３４６番地,,19,208,4000226,,,2025-12-01,合併による解散等,6090001005190,令和７年１２月１日山梨県南アルプス市有野３３４６番地矢崎ネットワークシステムズ株式会社（6090001005190）に合併し解散,2015-10-05,1,,,,,ワイアイテック,0
1256,5100001014950,登記記録の閉鎖等,0,2025-12-08,2025-12-02,株式会社マルタツフーズ,,株式会社,長野県,松本市,南原２丁目１０番６号,,20,202,3900846,,,2025-12-02,清算の結了等,,,2015-10-05,1,,,,,マルタツフーズ,0
1260,5110002034781,登記記録の閉鎖等,0,2025-12-08,2025-12-03,有限会社両蒲,,有限会社,新潟県,佐渡市,両津湊２６０番地,,15,224,9520014,,,2025-12-03,清算の結了等,,,2015-10-05,1,,,,,リョウカマ,0
1293,5120901049400,登記記録の閉鎖等,0,2025-12-08,2025-11-28,株式会社Ｇｌｉｍｍｅｒ　Ｆｏｒｇｅ,,株式会社,大阪府,茨木市,蔵垣内３丁目１０番３２号,,27,211,5670878,,,2025-11-28,清算の結了等,,,2024-07-05,1,,,,,グリマーフォージ,0
1301,5130001013330,登記記録の閉鎖等,0,2025-12-08,2025-12-04,株式会社本多精機,,株式会社,京都府,京都市山科区,勧修寺瀬戸河原町７０番地,,26,110,6078223,,,2025-12-04,清算の結了等,,,2015-10-05,1,,,,,ホンダセイキ,0
1306,5130002014022,登記記録の閉鎖等,0,2025-12-08,2025-12-02,有限会社上代建設,,有限会社,京都府,京都市伏見区,向島本丸町９ノ１,,26,109,6128112,,,2025-12-02,清算の結了等,,,2015-10-05,1,,,,,ジョウダイケンセツ,0
1315,5140001124985,登記記録の閉鎖等,0,2025-12-08,2025-12-03,株式会社井口工業,,株式会社,兵庫県,姫路市,総社本町１６２,,28,201,6700015,,,2025-12-03,清算の結了等,,,2022-02-28,1,,,,,イグチコウギョウ,0
1316,5140001125224,登記記録の閉鎖等,0,2025-12-08,2025-12-04,株式会社丸福,00125934,株式会社,兵庫県,神戸市須磨区,大手町３丁目１番１１号,,28,107,6540013,,,2025-12-04,清算の結了等,,,2022-03-10,1,,,,,マルフク,0
1349,5240002001777,登記記録の閉鎖等,0,2025-12-08,2025-11-28,有限会社ウイットアンドウイット,,有限会社,広島県,広島市中区,本通８番２号,,34,101,7300035,,,2025-11-28,清算の結了等,,,2015-10-05,1,,,,,ウイットアンドウイット,0
1352,5250002015041,登記記録の閉鎖等,0,2025-12-08,2025-12-04,有限会社東亜設備,,有限会社,山口県,周南市,西松原３丁目４番５号,,35,215,7450054,,,2025-12-04,清算の結了等,,,2015-10-05,1,,,,,トウアセツビ,0
1354,5260002024388,登記記録の閉鎖等,0,2025-12-08,2025-12-03,有限会社ＫＩＴ,,有限会社,岡山県,倉敷市,浦田１６５７番地５,,33,202,7100843,,,2025-12-03,清算の結了等,,,2015-10-05,1,,,,,ケーアイティ,0
1401,5380001001252,登記記録の閉鎖等,0,2025-12-08,2025-12-01,株式会社平木建築設計事務所,,株式会社,福島県,福島市,矢剣町８番２４号,,07,201,9608066,,,2025-12-01,清算の結了等,,,2015-10-05,1,,,,,ヒラキケンチクセッケイジムショ,0
1403,5380002023980,登記記録の閉鎖等,0,2025-12-08,2025-12-03,有限会社シー・エヌ・シー,,有限会社,福島県,いわき市,小島町１丁目１番地の７,,07,204,9738411,,,2025-12-03,清算の結了等,,,2015-10-05,1,,,,,シーエヌシー,0
1407,5390001015846,登記記録の閉鎖等,0,2025-12-08,2025-12-03,株式会社水産資源再生機構,,株式会社,山形県,酒田市,幸町１丁目６番６号,,06,204,9980023,,,2025-12-03,清算の結了等,,,2019-10-09,1,,,,,スイサンシゲンサイセイキコウ,0
1431,6010001235687,登記記録の閉鎖等,0,2025-12-08,2025-12-03,善工通商株式会社,,株式会社,東京都,中央区,京橋２丁目７番１４号,,13,102,1040031,,,2025-12-03,清算の結了等,,,2023-05-30,1,,,,,ゼンコウツウショウ,0
1437,6010005023700,登記記録の閉鎖等,0,2025-12-08,2025-12-03,浦安施設開発特定目的会社,,その他の設立登記法人,東京都,中央区,日本橋１丁目４番１号,,13,102,1030027,,,2025-12-03,清算の結了等,,,2015-10-05,1,,,,,ウラヤスシセツカイハツ,0
1445,6010401133846,登記記録の閉鎖等,0,2025-12-08,2025-11-13,株式会社電通デジタルドライブ,,株式会社,東京都,港区,東新橋１丁目８番１号,,13,103,1050021,,,2025-11-13,清算の結了等,,,2017-09-21,1,,,,,デンツウデジタルドライブ,0
1449,6010401159791,登記記録の閉鎖等,0,2025-12-08,2025-12-04,サンフラワー株式会社,,株式会社,東京都,中央区,日本橋小伝馬町１６番１２号,,13,102,1030001,,,2025-12-04,合併による解散等,3011501003066,令和７年１２月１日東京都北区豊島六丁目１５番９号東京化成工業株式会社（3011501003066）に合併し解散,2021-04-22,1,,,,,サンフラワー,0
1462,6010601002165,登記記録の閉鎖等,0,2025-12-08,2025-11-28,株式会社三雄デザイン工芸,,株式会社,東京都,江東区,北砂３丁目４番３３号,,13,108,1360073,,,2025-11-28,清算の結了等,,,2015-10-05,1,,,,,サンオデザインコウゲイ,0
1492,6011302001803,登記記録の閉鎖等,0,2025-12-08,2025-12-02,有限会社エムディ建築研究所,,有限会社,東京都,杉並区,西荻北２丁目２７番８号,,13,115,1670042,,,2025-12-02,清算の結了等,,,2015-10-05,1,,,,,エムディケンチクケンキュウジョ,0
1498,6011802008868,登記記録の閉鎖等,0,2025-12-08,2025-12-02,有限会社アース環境リサイクル,,有限会社,東京都,足立区,神明２丁目１１番１０号,,13,121,1210051,,,2025-12-02,清算の結了等,,,2015-10-05,1,,,,,,0
1504,6012702005988,登記記録の閉鎖等,0,2025-12-08,2025-12-01,有限会社小裕,,有限会社,東京都,東久留米市,東本町１４番２５号,,13,222,2030014,,,2025-12-01,清算の結了等,,,2015-10-05,1,,,,,コヒロ,0
1513,6020005009252,登記記録の閉鎖等,0,2025-12-08,2025-12-02,ＪＡＭ神奈川ニッポー労働組合,,その他の設立登記法人,神奈川県,横浜市緑区,白山１丁目１番２０号横浜鴨居プロムナード１０３号,,14,113,2260006,,,2025-12-02,清算の結了等,,,2015-10-05,1,,,,,,0
1521,6030005019424,登記記録の閉鎖等,0,2025-12-08,2025-11-28,特定非営利活動法人子ども食堂チ・アモ,,その他の設立登記法人,埼玉県,東松山市,大字石橋１７４７番地１６,,11,212,3550072,,,2025-11-28,清算の結了等,,,2019-04-22,1,,,,,コドモショクドウチアモ,0
1523,6040001000725,登記記録の閉鎖等,0,2025-12-08,2025-11-19,株式会社ウェーブ,,株式会社,千葉県,千葉市中央区,星久喜町４６４番地,,12,101,2600808,,,2025-11-19,清算の結了等,,,2015-10-05,1,,,,,ウェーブ,0
1528,6040002061114,登記記録の閉鎖等,0,2025-12-08,2025-11-13,滝工業有限会社,,有限会社,千葉県,佐倉市,王子台４丁目３番地１３,,12,212,2850837,,,2025-11-13,清算の結了等,,,2015-10-05,1,,,,,タキコウギョウ,0
1533,6040005007106,登記記録の閉鎖等,0,2025-12-08,2025-11-14,医療法人社団明皓会,,その他の設立登記法人,千葉県,佐倉市,山崎１５１番地５,,12,212,2850011,,,2025-11-14,清算の結了等,,,2015-10-05,1,,,,,メイコウカイ,0
1534,6050002003949,登記記録の閉鎖等,0,2025-12-08,2025-12-03,浅野商事有限会社,,有限会社,茨城県,水戸市,大足町１３９７番地,,08,201,3190312,,,2025-12-03,清算の結了等,,,2015-10-05,1,,,,,アサノショウジ,0
1539,6060002006629,登記記録の閉鎖等,0,2025-12-08,2025-12-04,有限会社友得建材,,有限会社,栃木県,宇都宮市,岩曽町字中根原１１２９番地２,,09,201,3210973,,,2025-12-04,清算の結了等,,,2015-10-05,1,,,,,ユウトクケンザイ,0
1540,6060002017634,登記記録の閉鎖等,0,2025-12-08,2025-12-03,有限会社丸福産業,,有限会社,栃木県,真岡市,荒町２０９１番地,,09,209,3214305,,,2025-12-03,清算の結了等,,,2015-10-05,1,,,,,マルフクサンギョウ,0
1541,6060005003532,登記記録の閉鎖等,0,2025-12-08,2025-12-03,医療法人社団北川医院,,その他の設立登記法人,栃木県,鹿沼市,西沢町４７２番地１,,09,205,3220344,,,2025-12-03,清算の結了等,,,2015-10-05,1,,,,,キタガワイイン,0
1548,6080101011627,登記記録の閉鎖等,0,2025-12-08,2025-12-03,株式会社東海,,株式会社,静岡県,富士宮市,淀平町１０３４番地,,22,207,4180052,,,2025-12-03,清算の結了等,,,2015-10-05,1,,,,,トウカイ,0
1549,6080101022921,登記記録の閉鎖等,0,2025-12-08,2025-12-04,株式会社ＩＳＯＫＩ,,株式会社,静岡県,富士市,永田町１丁目８５番地メゾン永田３０１,,22,210,4170055,,,2025-12-04,清算の結了等,,,2021-11-17,1,,,,,イソキ,0
1566,6110003004436,登記記録の閉鎖等,0,2025-12-08,2025-12-03,アプライズ合同会社,,合同会社,新潟県,新潟市西蒲区,巻甲１６８１番地６,,15,108,9530041,,,2025-12-03,清算の結了等,,,2021-04-02,1,,,,,アプライズ,0
1586,6120102015630,登記記録の閉鎖等,0,2025-12-08,2025-12-01,有限会社西岡組,,有限会社,大阪府,松原市,天美東６丁目６番８号,,27,217,5800032,,,2025-12-01,清算の結了等,,,2015-10-05,1,,,,,ニシオカグミ,0
1589,6120901023759,登記記録の閉鎖等,0,2025-12-08,2025-12-01,株式会社小寺事務所,,株式会社,大阪府,豊中市,北桜塚１丁目２番１号,,27,203,5600022,,,2025-12-01,清算の結了等,,,2015-10-05,1,,,,,コテラジムショ,0
1593,6130001070148,登記記録の閉鎖等,0,2025-12-08,2025-12-04,株式会社Ｋ・Ｆ,,株式会社,京都府,京都市東山区,清閑寺池田町２番地１１,,26,105,6050923,,,2025-12-04,清算の結了等,,,2021-09-24,1,,,,,ケーエフ,0
1608,6140005017755,登記記録の閉鎖等,0,2025-12-08,2025-10-28,天理教大部分教会,,その他の設立登記法人,兵庫県,小野市,喜多町１８４番地,,28,218,6751360,,,2025-10-28,合併による解散等,9140005017554,令和７年１０月２８日兵庫県加西市北条町北条８１２番地の２天理教加西分教会（9140005017554）に合併し解散,2015-10-05,1,,,,,テンリキョウオオベブンキョウカイ,0
1616,6170001006569,登記記録の閉鎖等,0,2025-12-08,2025-10-20,株式会社オプラスエキスプレス,,株式会社,和歌山県,海南市,小野田１６３６番地の１５２,,30,202,6420014,,,2025-10-20,合併による解散等,9170001005626,令和７年１０月１日和歌山県海南市小野田１６３６番地の１５２株式会社オプラス（9170001005626）に合併し解散,2015-10-05,1,,,,,オプラスエキスプレス,0
1622,6180003015815,登記記録の閉鎖等,0,2025-12-08,2025-12-03,合同会社よしみふぉれすと,,合同会社,愛知県,名古屋市中区,伊勢山１丁目５番３０号,,23,106,4600026,,,2025-12-03,清算の結了等,,,2015-10-05,1,,,,,ヨシミフォレスト,0
1623,6180301002746,登記記録の閉鎖等,0,2025-12-08,2025-12-01,株式会社ジョブテックハウス,,株式会社,愛知県,岡崎市,小針町字松山２７番地,,23,202,4440907,,,2025-12-01,清算の結了等,,,2015-10-05,1,,,,,ジョブテックハウス,0
1624,6180302008214,登記記録の閉鎖等,0,2025-12-08,2025-12-01,有限会社太宏産業,,有限会社,愛知県,豊橋市,東新町３１５番地,,23,201,4400812,,,2025-12-01,清算の結了等,,,2015-10-05,1,,,,,タイコウサンギョウ,0
1631,6200001029021,登記記録の閉鎖等,0,2025-12-08,2025-12-03,株式会社エコ・リサーチ,,株式会社,岐阜県,各務原市,那加西野町１７５番地１,,21,213,5040968,,,2025-12-03,清算の結了等,,,2015-10-05,1,,,,,エコリサーチ,0
1633,6210005009571,登記記録の閉鎖等,0,2025-12-08,2025-12-03,一般社団法人青い鳥,,その他の設立登記法人,福井県,福井市,宝永３丁目２７番５号,,18,201,9100004,,,2025-12-03,清算の結了等,,,2016-02-09,1,,,,,アオイトリ,0
1639,6260002003878,登記記録の閉鎖等,0,2025-12-08,2025-12-03,有限会社コタニワーク,,有限会社,岡山県,岡山市南区,築港元町２番１３号,,33,104,7028051,,,2025-12-03,清算の結了等,,,2015-10-05,1,,,,,コタニワーク,0
1640,6260003004355,登記記録の閉鎖等,0,2025-12-08,2025-11-28,合同会社スギハラ,,合同会社,岡山県,勝田郡勝央町,勝間田３９３番地,,33,622,7094316,,,2025-11-28,清算の結了等,,,2023-07-06,1,,,,,スギハラ,0
1641,6270005000054,登記記録の閉鎖等,0,2025-12-08,2025-12-05,医療法人社団松本歯科診療所,,その他の設立登記法人,鳥取県,鳥取市,上魚町４９番地,,31,201,6800047,,,2025-12-05,清算の結了等,,,2015-10-05,1,,,,,マツモトシカシンリョウジョ,0
1645,6290001033023,登記記録の閉鎖等,0,2025-12-08,2025-12-02,株式会社長田百貨店,,株式会社,福岡県,糸島市,前原中央３丁目６番１号,,40,230,8191116,,,2025-12-02,清算の結了等,,,2015-10-05,1,,,,,オサダヒャッカテン,0
1658,6290802018627,登記記録の閉鎖等,0,2025-12-08,2025-12-04,有限会社うさぎや,,有限会社,福岡県,遠賀郡遠賀町,大字鬼津５０４番地の３,,40,384,8114341,,,2025-12-04,清算の結了等,,,2015-10-05,1,,,,,ウサギヤ,0
1659,6290802020863,登記記録の閉鎖等,0,2025-12-08,2025-12-03,有限会社吉田自動車,00094684,有限会社,福岡県,鞍手郡鞍手町,大字中山３６５０番地の２,,40,402,8071312,,,2025-12-03,清算の結了等,,,2015-10-05,1,,,,,ヨシダジドウシャ,0
1664,6340002012739,登記記録の閉鎖等,0,2025-12-08,2025-12-01,有限会社竹田観光交通,,有限会社,鹿児島県,日置市,吹上町湯之浦２７５４番地の１,,46,216,8993303,,,2025-12-01,清算の結了等,,,2015-10-05,1,,,,,タケダカンコウコウツウ,0
1688,6430002062279,登記記録の閉鎖等,0,2025-12-08,2025-11-28,有限会社タイナカ損保事務所,,有限会社,北海道,浦河郡浦河町,堺町西１丁目１８番１６号,,01,607,0570034,,,2025-11-28,清算の結了等,,,2015-10-05,1,,,,,タイナカソンポジムショ,0
1691,6430005014178,登記記録の閉鎖等,0,2025-12-08,2025-12-01,税理士法人レアーレ,,その他の設立登記法人,北海道,札幌市中央区,北八条西２４丁目２番３号,,01,101,0600008,,,2025-12-01,清算の結了等,,,2021-05-13,1,,,,,レアーレ,0
1705,7010002009313,登記記録の閉鎖等,0,2025-12-08,2025-11-19,有限会社グラミィ,,有限会社,東京都,千代田区,神田多町２丁目９番地,,13,101,1010046,,,2025-11-19,清算の結了等,,,2015-10-05,1,,,,,グラミィ,0
1721,7010402032451,登記記録の閉鎖等,0,2025-12-08,2025-11-13,有限会社ヴィジュアル,,有限会社,東京都,港区,南麻布２丁目７番３０－４０２号,,13,103,1060047,,,2025-11-13,清算の結了等,,,2015-10-05,1,,,,,ヴィジュアル,0
1724,7010405010933,登記記録の閉鎖等,0,2025-12-08,2025-10-24,ＲＳＭ汐留パートナーズ税理士法人,,その他の設立登記法人,東京都,港区,東新橋１丁目５番２号,,13,103,1050021,,,2025-10-24,合併による解散等,5010005024451,令和７年１０月１日東京都新宿区西新宿六丁目５番１号新宿アイランドタワー４３階税理士法人東京クロスボーダーズ（5010005024451）に合併し解散,2015-10-05,1,,,,,アールエスエムシオドメパートナーズ,0
1725,7010405013795,登記記録の閉鎖等,0,2025-12-08,2025-11-13,一般社団法人バッテリー,,その他の設立登記法人,東京都,港区,新橋４丁目３０番６号京急中はらビル５階,,13,103,1050004,,,2025-11-13,清算の結了等,,,2015-10-05,1,,,,,バッテリー,0
1734,7010802006055,登記記録の閉鎖等,0,2025-12-08,2025-11-28,有限会社三共テック,,有限会社,東京都,大田区,仲池上２丁目２０番５－４０１号,,13,111,1460081,,,2025-11-28,清算の結了等,,,2015-10-05,1,,,,,サンキョウテック,0
1736,7010902001352,登記記録の閉鎖等,0,2025-12-08,2025-12-05,有限会社池原ドライクリーニング,,有限会社,東京都,世田谷区,用賀４丁目１９番１３号,,13,112,1580097,,,2025-12-05,清算の結了等,,,2015-10-05,1,,,,,イケハラドライクリーニング,0
1742,7011101009055,登記記録の閉鎖等,0,2025-12-08,2025-11-10,株式会社新富商事,,株式会社,東京都,新宿区,富久町１８番５号,,13,104,1620067,,,2025-11-10,清算の結了等,,,2015-10-05,1,,,,,シントミショウジ,0
1756,7011501025503,登記記録の閉鎖等,0,2025-12-08,2025-12-02,タイニークラフト株式会社,,株式会社,東京都,北区,浮間２丁目５番６号,,13,117,1150051,,,2025-12-02,清算の結了等,,,2020-01-22,1,,,,,タイニークラフト,0
1757,7011501029157,登記記録の閉鎖等,0,2025-12-08,2025-11-28,楓株式会社,,株式会社,埼玉県,蕨市,南町２丁目７－１南町フラット１０１,,11,223,3350003,,,2025-11-28,清算の結了等,,,2023-04-14,1,,,,,カエデ,0
1761,7011502010479,登記記録の閉鎖等,0,2025-12-08,2025-12-03,有限会社橋本商店,,有限会社,東京都,荒川区,西日暮里１丁目４番６号,,13,118,1160013,,,2025-12-03,清算の結了等,,,2015-10-05,1,,,,,ハシモトショウテン,0
1774,7012803002594,登記記録の閉鎖等,0,2025-12-08,2025-12-03,東京エクスプレス合同会社,,合同会社,神奈川県,川崎市高津区,東野川２丁目２０番２５号,,14,134,2130029,,,2025-12-03,清算の結了等,,,2021-09-16,1,,,,,トウキョウエクスプレス,0
1775,7013301044154,登記記録の閉鎖等,0,2025-12-08,2025-12-01,株式会社ロンソ,,株式会社,東京都,豊島区,西池袋３丁目２９番３号,,13,116,1710021,,,2025-12-01,清算の結了等,,,2019-07-05,1,,,,,ロンソ,0
1804,7040002031561,登記記録の閉鎖等,0,2025-12-08,2025-11-12,イトー・アセット・アプレイザル有限会社,,有限会社,千葉県,船橋市,北本町１丁目２０番１－５０７号,,12,204,2730864,,,2025-11-12,清算の結了等,,,2015-10-05,1,,,,,イトーアセットアプレイザル,0
1814,7050002034407,登記記録の閉鎖等,0,2025-12-08,2025-11-17,有限会社賃貸幸和,,有限会社,茨城県,龍ケ崎市,２８１３番地３,,08,208,3010000,,,2025-11-17,合併による解散等,3050002034658,令和７年１１月６日茨城県龍ケ崎市２８１３番地３株式会社オオツカ（3050002034658）に合併し解散,2015-10-05,1,,,,,チンタイコウワ,0
1822,7080005000469,登記記録の閉鎖等,0,2025-12-08,2025-10-23,天理教駿河岡分教会,,その他の設立登記法人,静岡県,静岡市駿河区,中村町２０７番地,,22,102,4228047,,,2025-10-23,合併による解散等,3080005000480,令和７年１０月２３日静岡市駿河区高松１８５４番地の５天理教有渡分教会（3080005000480）に合併し解散,2015-10-05,1,,,,,テンリキョウスルガオカブンキョウカイ,0
1825,7080401003884,登記記録の閉鎖等,0,2025-12-08,2025-12-04,日星アスカ開発株式会社,,株式会社,静岡県,浜松市中央区,大久保町１５０９番地,,22,138,4328006,,,2025-12-04,清算の結了等,,,2015-10-05,1,,,,,ニッセイアスカカイハツ,0
1835,7120001163769,登記記録の閉鎖等,0,2025-12-08,2025-12-01,株式会社アール・エフ・スリー,,株式会社,大阪府,堺市南区,新檜尾台１丁２４番６号,,27,145,5900143,,,2025-12-01,清算の結了等,,,2015-10-05,1,,,,,,0
1874,7160002014604,登記記録の閉鎖等,0,2025-12-08,2025-12-01,有限会社ＯＳＡＫＩ,,有限会社,滋賀県,野洲市,小篠原１９７９番地,,25,210,5202331,,,2025-12-01,合併による解散等,4160001015639,令和７年１２月１日滋賀県野洲市小篠原１９７９番地株式会社大生産業（4160001015639）に合併し解散,2015-10-05,1,,,,,オサキ,0
1884,7180001071264,登記記録の閉鎖等,0,2025-12-08,2025-12-02,東和ハイロジック株式会社,,株式会社,愛知県,名古屋市中区,千代田３丁目３３番２５号,,23,106,4600012,,,2025-12-02,清算の結了等,,,2015-10-05,1,,,,,トウワハイロジック,0
1889,7180003024625,登記記録の閉鎖等,0,2025-12-08,2025-12-03,合同会社ハピレン,,合同会社,愛知県,名古屋市瑞穂区,平郷町５丁目４番地の２,,23,108,4670879,,,2025-12-03,清算の結了等,,,2022-12-20,1,,,,,ハピレン,0
1909,7260002030327,登記記録の閉鎖等,0,2025-12-08,2025-12-01,有限会社インテリア福田,,有限会社,岡山県,美作市,東青野４９７番地,,33,215,7070403,,,2025-12-01,清算の結了等,,,2015-10-05,1,,,,,インテリアフクダ,0
1922,7290003005234,登記記録の閉鎖等,0,2025-12-08,2025-11-20,やまのめぐみ発電合同会社,,合同会社,福岡県,福岡市中央区,天神４丁目２番２０号,,40,133,8100001,,,2025-11-20,合併による解散等,6290001001310,令和７年１１月２０日福岡市中央区天神四丁目２番２０号株式会社エディット（6290001001310）に合併し解散,2015-10-05,1,,,,,ヤマノメグミハツデン,0
1929,7310005005618,登記記録の閉鎖等,0,2025-12-08,2025-12-04,医療法人善仁会,,その他の設立登記法人,長崎県,南島原市,加津佐町己３０８９番地１,,42,214,8592601,,,2025-12-04,清算の結了等,,,2015-10-05,1,,,,,ゼンジンカイ,0
1935,7330002001130,登記記録の閉鎖等,0,2025-12-08,2025-12-01,有限会社ヴィレッジ清水,,有限会社,熊本県,熊本市北区,兎谷２丁目２番３９号,,43,105,8618082,,,2025-12-01,清算の結了等,,,2015-10-05,1,,,,,ビレッジシミズ,0
1952,7410002008415,登記記録の閉鎖等,0,2025-12-08,2025-12-02,有限会社佐藤設備メンテナンス,,有限会社,秋田県,大館市,釈迦内字台野道下４２番地４,00086724,05,204,0170012,,,2025-12-02,清算の結了等,,,2015-10-05,1,,,,,サトウセツビメンテナンス,0
1953,7410003003613,登記記録の閉鎖等,0,2025-12-08,2025-12-02,合同会社サイトウ経営労務,,合同会社,秋田県,湯沢市,駒形町字三又明戸８９番地,,05,207,0120104,,,2025-12-02,清算の結了等,,,2022-02-03,1,,,,,サイトウケイエイロウム,0
1967,7450001007851,登記記録の閉鎖等,0,2025-12-08,2025-12-02,剣渕石油株式会社,,株式会社,北海道,上川郡剣淵町,緑町９番１号,,01,465,0980332,,,2025-12-02,清算の結了等,,,2015-10-05,1,,,,,ケンブチセキユ,0
1979,8010001160917,登記記録の閉鎖等,0,2025-12-08,2025-11-28,アジアインフォネットリサーチ株式会社,,株式会社,埼玉県,さいたま市南区,辻３丁目３番７号,00120317,11,108,3360026,,,2025-11-28,清算の結了等,,,2015-10-05,1,,,,,アジアインフォネットリサーチ,0
1988,8010401164988,登記記録の閉鎖等,0,2025-12-08,2025-11-13,株式会社アンドカンパニー,,株式会社,東京都,港区,赤坂４丁目８番１９号赤坂フロントタウン３階,,13,103,1070052,,,2025-11-13,清算の結了等,,,2022-01-19,1,,,,,アンドカンパニー,0
1990,8010401183435,登記記録の閉鎖等,0,2025-12-08,2025-11-13,株式会社イコール,,株式会社,東京都,港区,南青山２丁目４番１５号,,13,103,1070062,,,2025-11-13,清算の結了等,,,2024-07-01,1,,,,,イコール,0
1998,8010501048323,登記記録の閉鎖等,0,2025-12-08,2025-12-02,株式会社スミジョイ,,株式会社,東京都,葛飾区,小菅１丁目３７－１－１０７,,13,122,1240001,,,2025-12-02,清算の結了等,,,2022-01-14,1,,,,,スミジョイ,0
2036,8011502007111,登記記録の閉鎖等,0,2025-12-08,2025-12-02,有限会社伊奈製作所,,有限会社,東京都,荒川区,西尾久５丁目１９番５号,,13,118,1160011,,,2025-12-02,清算の結了等,,,2015-10-05,1,,,,,イナセイサクジョ,0
2058,8021002033912,登記記録の閉鎖等,0,2025-12-08,2025-11-17,有限会社岡本牧場,,有限会社,神奈川県,愛甲郡愛川町,三増５３２番地,,14,401,2430308,,,2025-11-17,清算の結了等,,,2015-10-05,1,,,,,オカモトボクジョウ,0
2075,8040002080574,登記記録の閉鎖等,0,2025-12-08,2025-11-12,有限会社横浜工作所,,有限会社,千葉県,長生郡長南町,市野々字向台１６４５番地,,12,427,2970144,,,2025-11-12,清算の結了等,,,2015-10-05,1,,,,,ヨコハマコウサクショ,0
2080,8050002032797,登記記録の閉鎖等,0,2025-12-08,2025-12-01,有限会社Ａｄｄ,,有限会社,茨城県,日立市,諏訪町６丁目１３番３号,,08,202,3160001,,,2025-12-01,合併による解散等,4050001023173,令和７年１２月１日茨城県日立市多賀町二丁目１０番７号コンテック株式会社（4050001023173）に合併し解散,2015-10-05,1,,,,,アデュウ,0
2089,8070003002731,登記記録の閉鎖等,0,2025-12-08,2025-12-03,合同会社Ａｒｍｏｎｉａ,,合同会社,群馬県,桐生市,本町５丁目５１番地東武桐生ビル１階ＣＯＣＯＴＯＭＯ１０２,,10,203,3760031,,,2025-12-03,清算の結了等,,,2016-09-30,1,,,,,,0
2098,8100001022199,登記記録の閉鎖等,0,2025-12-08,2025-12-04,株式会社アコーズ,,株式会社,長野県,飯田市,鼎切石４３７６番地４,,20,205,3950807,,,2025-12-04,清算の結了等,,,2015-10-05,1,,,,,アコーズ,0
2119,8120005024586,登記記録の閉鎖等,0,2025-12-08,2025-12-01,ネクサス社会保険労務士法人,,その他の設立登記法人,大阪府,大阪市西区,立売堀１丁目４－１２立売堀スクエア８階,,27,106,5500012,,,2025-12-01,清算の結了等,,,2024-10-21,1,,,,,ネクサス,0
2122,8120105006245,登記記録の閉鎖等,0,2025-12-08,2025-12-01,特定非営利活動法人自衛隊友の会いずみ,,その他の設立登記法人,大阪府,岸和田市,加守町１丁目１７番３号,,27,202,5960042,,,2025-12-01,清算の結了等,,,2015-10-05,1,,,,,ジエイタイトモノカイイズミ,0
2130,8130001054330,登記記録の閉鎖等,0,2025-12-08,2025-12-03,ＫＴＮ株式会社,,株式会社,京都府,京都市下京区,七条通新町東入西境町１６３番地,,26,106,6008218,,,2025-12-03,清算の結了等,,,2015-10-05,1,,,,,ケーティーエヌ,0
2144,8140002055319,登記記録の閉鎖等,0,2025-12-08,2025-12-04,有限会社ユウビ建設,,有限会社,兵庫県,三田市,けやき台３丁目３４番地１０,,28,219,6691321,,,2025-12-04,清算の結了等,,,2015-10-05,1,,,,,ユウビケンセツ,0
2153,8180001045333,登記記録の閉鎖等,0,2025-12-08,2025-11-26,サンユー精機株式会社,,株式会社,愛知県,清須市,朝日愛宕６９番地,,23,233,4520932,,,2025-11-26,清算の結了等,,,2015-10-05,1,,,,,サンユーセイキ,0
2160,8180002017224,登記記録の閉鎖等,0,2025-12-08,2025-12-03,有限会社アイワークシステム,,有限会社,愛知県,名古屋市中川区,高畑４丁目７番地,,23,110,4540911,,,2025-12-03,清算の結了等,,,2015-10-05,1,,,,,アイワークシステム,0
2161,8180002066469,登記記録の閉鎖等,0,2025-12-08,2025-12-03,有限会社タイコウ電子,,有限会社,愛知県,春日井市,宮町２丁目２番地の１０,,23,206,4860904,,,2025-12-03,清算の結了等,,,2015-10-05,1,,,,,タイコウデンシ,0
2171,8190002008206,登記記録の閉鎖等,0,2025-12-08,2025-12-02,有限会社石原コーポレーション,,有限会社,三重県,伊勢市,馬瀬町字北ノ口４６８番地の２,,24,203,5160002,,,2025-12-02,清算の結了等,,,2015-10-05,1,,,,,イシハラコーポレーション,0
2173,8200001016232,登記記録の閉鎖等,0,2025-12-08,2025-12-03,株式会社すぎさき,,株式会社,岐阜県,揖斐郡池田町,片山１１３１番地の１,,21,404,5032428,,,2025-12-03,清算の結了等,,,2015-10-05,1,,,,,スギサキ,0
2196,8290001033839,登記記録の閉鎖等,0,2025-12-08,2025-12-04,株式会社ＣＡＲＡＣＯＬ,,株式会社,福岡県,福岡市城南区,別府団地６番８０４号,,40,136,8140106,,,2025-12-04,清算の結了等,,,2015-10-05,1,,,,,カラコル,0
2207,8290002005746,登記記録の閉鎖等,0,2025-12-08,2025-12-01,有限会社ビューティマテリアルシーナ,,有限会社,福岡県,福岡市東区,青葉１丁目１７番１４号,,40,131,8130025,,,2025-12-01,清算の結了等,,,2015-10-05,1,,,,,ビューティマテリアルシーナ,0
2220,8330001004959,登記記録の閉鎖等,0,2025-12-08,2025-12-03,レッドバロン熊本株式会社,,株式会社,熊本県,熊本市中央区,本山４丁目２番１０号,,43,101,8600821,,,2025-12-03,合併による解散等,7180301002266,令和７年１１月１日愛知県岡崎市藤川町字境松西１番地株式会社レッドバロン（7180301002266）に合併し解散,2015-10-05,1,,,,,レッドバロンクマモト,0
2223,8340002006235,登記記録の閉鎖等,0,2025-12-08,2025-12-02,有限会社中央メディカル,,有限会社,鹿児島県,鹿児島市,荒田１丁目２５番５号,,46,201,8900054,,,2025-12-02,清算の結了等,,,2015-10-05,1,,,,,チュウオウメディカル,0
2234,8380002001802,登記記録の閉鎖等,0,2025-12-08,2025-12-04,有限会社シルクロード,,有限会社,福島県,福島市,伏拝字台田１９番地,,07,201,9608154,,,2025-12-04,清算の結了等,,,2015-10-05,1,,,,,シルクロード,0
2240,8410001008613,登記記録の閉鎖等,0,2025-12-08,2025-12-03,株式会社藤村組,,株式会社,秋田県,仙北市,田沢湖神代字珍重屋敷２９９番地の１,,05,215,0141114,,,2025-12-03,清算の結了等,,,2015-10-05,1,,,,,フジムラグミ,0
2247,8430005014993,登記記録の閉鎖等,0,2025-12-08,2025-12-02,一般社団法人こじま,,その他の設立登記法人,北海道,札幌市白石区,東札幌一条３丁目２番１－２５０１号,,01,104,0030001,,,2025-12-02,清算の結了等,,,2024-05-28,1,,,,,コジマ,0
2260,9010101007876,登記記録の閉鎖等,0,2025-12-08,2025-12-03,株式会社　セリオプランニング,,株式会社,東京都,武蔵村山市,大南２丁目３０番地の３,,13,223,2080013,,,2025-12-03,清算の結了等,,,2015-10-05,1,,,,,セリオプランニング,0
2263,9010401102096,登記記録の閉鎖等,0,2025-12-08,2025-12-03,株式会社アクアストリーム,,株式会社,東京都,港区,浜松町２丁目２番１５号,,13,103,1050013,,,2025-12-03,合併による解散等,2020001117252,令和７年１１月１日東京都千代田区麹町二丁目１０番３号エキスパートオフィス麹町株式会社ユニバーサルフラワーサービス（2020001117252）に合併し解散,2015-10-05,1,,,,,アクアストリーム,0
2264,9010401170143,登記記録の閉鎖等,0,2025-12-08,2025-11-11,株式会社トラステック,,株式会社,東京都,港区,港南２丁目１６番２号太陽生命品川ビル２８階,,13,103,1080075,,,2025-11-11,清算の結了等,,,2022-10-07,1,,,,,トラステック,0
2265,9010401183269,登記記録の閉鎖等,0,2025-12-08,2025-10-29,株式会社ＡＳＮ,,株式会社,東京都,港区,赤坂４丁目７番１５号,,13,103,1070052,,,2025-10-29,合併による解散等,4010001078337,令和７年９月３０日東京都千代田区丸の内一丁目８番１号丸の内トラストタワーＮ館ＡＰＡＭＡＮ株式会社（4010001078337）に合併し解散,2024-06-26,1,,,,,エイエスエヌ,0
2274,9010503005783,登記記録の閉鎖等,0,2025-12-08,2025-12-03,合同会社レセンザ,,合同会社,三重県,多気郡明和町,大字斎宮２５９３番地３８,,24,442,5150321,,,2025-12-03,清算の結了等,,,2019-12-26,1,,,,,レセンザ,0
2279,9010901006499,登記記録の閉鎖等,0,2025-12-08,2025-11-14,ゼブラ通信産業株式会社,,株式会社,神奈川県,綾瀬市,深谷上８丁目１２番７号,,14,218,2521108,,,2025-11-14,清算の結了等,,,2015-10-05,1,,,,,ゼブラツウシンサンギョウ,0
2330,9020001046750,登記記録の閉鎖等,0,2025-12-08,2025-12-04,株式会社アレックス,,株式会社,神奈川県,横浜市西区,楠町１１番地２ストークビル横浜,,14,103,2200003,,,2025-12-04,清算の結了等,,,2015-10-05,1,,,,,アレックス,0
2334,9020002021100,登記記録の閉鎖等,0,2025-12-08,2025-12-01,有限会社くさの産業,,有限会社,神奈川県,横浜市旭区,東希望が丘２番地の５０,,14,112,2410826,,,2025-12-01,清算の結了等,,,2015-10-05,1,,,,,クサノサンギョウ,0
2335,9020002036420,登記記録の閉鎖等,0,2025-12-08,2025-11-18,有限会社横浜技術サービス,,有限会社,神奈川県,相模原市中央区,淵野辺本町５丁目６番１２号,,14,152,2520202,,,2025-11-18,清算の結了等,,,2021-12-24,1,,,,,ヨコハマギジュツサービス,0
2341,9021002013707,登記記録の閉鎖等,0,2025-12-08,2025-11-14,有限会社関東ルートライナー,,有限会社,神奈川県,高座郡寒川町,岡田２４６２番地１,,14,321,2530105,,,2025-11-14,清算の結了等,,,2015-10-05,1,,,,,カントウルートライナー,0
2342,9021002027657,登記記録の閉鎖等,0,2025-12-08,2025-10-29,有限会社ラダーズ,,有限会社,神奈川県,相模原市緑区,元橋本町２７番５号,,14,151,2520142,,,2025-10-29,清算の結了等,,,2015-10-05,1,,,,,ラダーズ,0
2351,9030002043176,登記記録の閉鎖等,0,2025-12-08,2025-11-28,有限会社アメニティー,,有限会社,埼玉県,越谷市,レイクタウン２丁目１４番地６,,11,222,3430828,,,2025-11-28,清算の結了等,,,2015-10-05,1,,,,,アメニティー,0
2371,9050002008144,登記記録の閉鎖等,0,2025-12-08,2025-12-01,有限会社エルシーシー,,有限会社,茨城県,ひたちなか市,大字馬渡２５２５番地４１４,,08,221,3120012,,,2025-12-01,合併による解散等,8050001048522,令和７年１２月１日茨城県ひたちなか市大字馬渡２７５８番地７株式会社ＴＮＴ（8050001048522）に合併し解散,2015-10-05,1,,,,,エルシーシー,0
2378,9060002004596,登記記録の閉鎖等,0,2025-12-08,2025-12-01,新進加工販売有限会社,,有限会社,栃木県,宇都宮市,越戸３丁目１０番１０号ナイスグランソレイユ越戸１１２,,09,201,3210951,,,2025-12-01,合併による解散等,8060001031378,令和７年１２月１日栃木県宇都宮市平出町３７３７番地１９エスエステック株式会社（8060001031378）に合併し解散,2015-10-05,1,,,,,シンシンカコウハンバイ,0
2383,9100001024343,登記記録の閉鎖等,0,2025-12-08,2025-12-03,株式会社ステージワン,,株式会社,長野県,須坂市,大字塩野９２４番地５,,20,207,3820922,,,2025-12-03,清算の結了等,,,2015-10-05,1,,,,,ステージワン,0
2391,9110005001073,登記記録の閉鎖等,0,2025-12-08,2025-10-20,西宮社,,その他の設立登記法人,新潟県,新潟市東区,津島屋字新川３１０５番地,,15,102,9500801,,,2025-10-20,合併による解散等,7110005001372,令和７年１０月２０日新潟市中央区沼垂東一丁目１番１７号白山神社（7110005001372）に合併し解散,2015-10-05,1,,,,,ニシノミヤシャ,0
2406,9120901035792,登記記録の閉鎖等,0,2025-12-08,2025-12-01,株式会社ｄｅｅｓｓｅ．Ｍ,,株式会社,大阪府,豊中市,本町２丁目２番１０‐３０１号,,27,203,5600021,,,2025-12-01,清算の結了等,,,2015-10-05,1,,,,,デエスドットエム,0
2420,9140001031154,登記記録の閉鎖等,0,2025-12-08,2025-12-01,Ａ＆Ａインターセクト株式会社,,株式会社,兵庫県,神戸市北区,藤原台南町２丁目７番１１号,,28,109,6511303,,,2025-12-01,合併による解散等,7140001059239,令和７年１１月３０日兵庫県姫路市千代田町７３１番地の１ジーピーエム株式会社（7140001059239）に合併し解散,2015-10-05,1,,,,,エーアンドエーインターセクト,0
2430,9140005017570,登記記録の閉鎖等,0,2025-12-08,2025-10-28,天理教西在田分教会,,その他の設立登記法人,兵庫県,加西市,上道山町５２０番地,,28,220,6752453,,,2025-10-28,合併による解散等,9140005017554,令和７年１０月２８日兵庫県加西市北条町北条８１２番地の２天理教加西分教会（9140005017554）に合併し解散,2015-10-05,1,,,,,テンリキョウニシアリタブンキョウカイ,0
2437,9180301027039,登記記録の閉鎖等,0,2025-12-08,2025-12-02,工場電気サポート株式会社,,株式会社,愛知県,西尾市,羽塚町寅山４５番地１,00074802,23,213,4440316,,,2025-12-02,清算の結了等,,,2015-10-05,1,,,,,コウジョウデンキサポート,0
2452,9240003001905,登記記録の閉鎖等,0,2025-12-08,2025-11-28,一誠合資会社,,合資会社,広島県,尾道市,土堂１丁目１３番１４号,,34,205,7220035,,,2025-11-28,清算の結了等,,,2015-10-05,1,,,,,イチセ,0
2454,9250002004404,登記記録の閉鎖等,0,2025-12-08,2025-12-04,有限会社おおの,,有限会社,山口県,宇部市,恩田町２丁目２４番１５号,,35,202,7550023,,,2025-12-04,清算の結了等,,,2015-10-05,1,,,,,オオノ,0
2458,9270002010078,登記記録の閉鎖等,0,2025-12-08,2025-12-04,有限会社サン技術コンサルタント,,有限会社,鳥取県,倉吉市,上井８９８番地,,31,203,6820021,,,2025-12-04,清算の結了等,,,2015-10-05,1,,,,,サンギジュツコンサルタント,0
2459,9280003001166,登記記録の閉鎖等,0,2025-12-08,2025-12-05,合同会社薬研,,合同会社,島根県,松江市,砂子町１９９番地１,,32,201,6900878,,,2025-12-05,清算の結了等,,,2017-08-03,1,,,,,ヤゲン,0
2461,9290001030950,登記記録の閉鎖等,0,2025-12-08,2025-12-02,株式会社サンアロー,,株式会社,福岡県,福岡市中央区,大宮２丁目５番１９号,,40,133,8100013,,,2025-12-02,清算の結了等,,,2015-10-05,1,,,,,サンアロー,0
2480,9340003004567,登記記録の閉鎖等,0,2025-12-08,2025-12-01,合同会社第一住宅設備,,合同会社,鹿児島県,霧島市,国分広瀬２丁目２４番２８－１号,,46,218,8994321,,,2025-12-01,清算の結了等,,,2024-08-07,1,,,,,ダイイチジュウタクセツビ,0
2496,9400001004059,登記記録の閉鎖等,0,2025-12-08,2025-12-03,株式会社東京土地開発,,株式会社,岩手県,盛岡市,菜園１丁目７番２２号,,03,201,0200024,,,2025-12-03,合併による解散等,7400001001116,令和７年１２月３日岩手県盛岡市菜園一丁目７番２２号東京土地販売株式会社（7400001001116）に合併し解散,2015-10-05,1,,,,,トウキョウトチカイハツ,0
2501,9430001065338,登記記録の閉鎖等,0,2025-12-08,2025-12-03,株式会社ライブリッジ,,株式会社,北海道,札幌市西区,西野三条８丁目５番１号,,01,107,0630033,,,2025-12-03,清算の結了等,,,2015-10-05,1,,,,,ライブリッジ,0
2502,9430002060635,登記記録の閉鎖等,0,2025-12-08,2025-12-03,有限会社コスモ測量設計,,有限会社,北海道,苫小牧市,豊川町３丁目２番３号,,01,213,0530831,,,2025-12-03,清算の結了等,,,2015-10-05,1,,,,,コスモソクリョウセッケイ,0
2506,9450003001909,登記記録の閉鎖等,0,2025-12-08,2025-12-02,合同会社ＡＫプランニング,,合同会社,北海道,旭川市,四条西１丁目１番１２－２０１号ナッツＳＰＩＲＩＴ２,,01,204,0700054,,,2025-12-02,合併による解散等,5010403020754,令和７年１１月１日東京都港区浜松町二丁目２番１５号合同会社千葉エステート（5010403020754）に合併し解散,2020-01-29,1,,,,,エーケープランニング,0
