sequenceNumber,corporateNumber,process,correct,updateDate,changeDate,name,nameImageId,kind,prefectureName,cityName,streetNumber,addressImageId,prefectureCode,cityCode,postCode,addressOutside,addressOutsideImageId,closeDate,closeCause,successorCorporateNumber,changeCause,assignmentDate,latest,enName,enPrefectureName,enCityName,enAddressOutside,furigana,hihyoji
19,1010405019856,登記記録の閉鎖等,0,2024-08-19,2024-08-05,カンザス一般社団法人,,その他の設立登記法人,東京都,中央区,銀座１丁目６番１１号アースタックス税理士法人内,,13,102,1040061,,,2024-08-05,清算の結了等,,,2021-05-28,1,,,,,カンザス,0
25,1010603008669,登記記録の閉鎖等,0,2024-08-19,2024-08-15,ラクポリス合同会社,,合同会社,東京都,江東区,大島６丁目１５番２－１４０６号,,13,108,1360072,,,2024-08-15,清算の結了等,,,2020-12-07,1,,,,,ラクポリス,0
30,1011001119521,登記記録の閉鎖等,0,2024-08-19,2024-07-30,株式会社十二益,,株式会社,東京都,渋谷区,西原３丁目３３番１２号ＴＲＫ１Ａ,,13,113,1510066,,,2024-07-30,清算の結了等,,,2017-12-07,1,,,,,ジュウニエキ,0
33,1011002023111,登記記録の閉鎖等,0,2024-08-19,2024-07-30,有限会社ケイズコーポレーション,,有限会社,東京都,渋谷区,猿楽町５番１７号,,13,113,1500033,,,2024-07-30,清算の結了等,,,2015-10-05,1,,,,,ケイズコーポレーション,0
60,1013301030424,登記記録の閉鎖等,0,2024-08-19,2024-08-15,株式会社ＣＡＮ,,株式会社,東京都,板橋区,大山東町１８－６番地ＳＫＫ第二ビル３階,,13,119,1730014,,,2024-08-15,清算の結了等,,,2015-10-05,1,,,,,,0
62,1020001024549,登記記録の閉鎖等,0,2024-08-19,2024-07-16,三ツ澤電設株式会社,,株式会社,神奈川県,横浜市神奈川区,三ツ沢下町１０番１４号,,14,102,2210852,,,2024-07-16,清算の結了等,,,2018-03-05,1,,,,,ミツザワデンセツ,0
76,1021001059122,登記記録の閉鎖等,0,2024-08-19,2024-08-16,サンクスマインド湘南株式会社,,株式会社,神奈川県,足柄上郡大井町,金子６６５番地８,,14,362,2580019,,,2024-08-16,清算の結了等,,,2016-04-20,1,,,,,,0
83,1030001154881,登記記録の閉鎖等,0,2024-08-19,2024-08-09,株式会社ココカラ,,株式会社,埼玉県,熊谷市,末広４丁目１３番１５号ＫハイツＩＩ１０３,00131157,11,202,3600031,,,2024-08-09,清算の結了等,,,2023-07-13,1,,,,,ココカラ,0
87,1030002064394,登記記録の閉鎖等,0,2024-08-19,2024-08-13,有限会社難波アソシェイツ,,有限会社,埼玉県,和光市,新倉１丁目１０番４６号,,11,229,3510115,,,2024-08-13,清算の結了等,,,2015-10-05,1,,,,,ナンバアソシエイツ,0
91,1040001118357,登記記録の閉鎖等,0,2024-08-19,2024-07-29,神田メディカル株式会社,,株式会社,神奈川県,横浜市瀬谷区,上瀬谷町１２番地２５,,14,114,2460006,,,2024-07-29,清算の結了等,,,2021-05-10,1,,,,,カンダメディカル,0
97,1060001032003,登記記録の閉鎖等,0,2024-08-19,2024-08-05,株式会社プレモ,,株式会社,栃木県,小山市,粟宮１丁目１３番１６号２階,,09,208,3290201,,,2024-08-05,清算の結了等,,,2019-10-16,1,,,,,プレモ,0
118,1120001234402,登記記録の閉鎖等,0,2024-08-19,2024-08-16,株式会社平和ハウジング,,株式会社,大阪府,大阪市生野区,生野東４丁目１０番１０号,,27,116,5440025,,,2024-08-16,清算の結了等,,,2021-01-08,1,,,,,ヘイワハウジング,0
129,1120903004092,登記記録の閉鎖等,0,2024-08-19,2024-08-13,Ｓｐｉｎｅ合同会社,,合同会社,大阪府,茨木市,南春日丘７丁目５－３６－７,,27,211,5670046,,,2024-08-13,清算の結了等,,,2022-04-07,1,,,,,スパイン,0
131,1122001024444,登記記録の閉鎖等,0,2024-08-19,2024-08-16,株式会社京省,,株式会社,大阪府,柏原市,大正２丁目８番５号,,27,221,5820009,,,2024-08-16,清算の結了等,,,2015-10-05,1,,,,,ケイショウ,0
134,1130002033265,登記記録の閉鎖等,0,2024-08-19,2024-08-09,有限会社エイト,,有限会社,京都府,綾部市,舘町シボラ８番地の１,,26,203,6230232,,,2024-08-09,清算の結了等,,,2015-10-05,1,,,,,エイト,0
139,1160002004354,登記記録の閉鎖等,0,2024-08-19,2024-08-08,有限会社ＰＩＴ,,有限会社,滋賀県,大津市,柳川１丁目２番５６号,,25,201,5200014,,,2024-08-08,清算の結了等,,,2015-10-05,1,,,,,,0
149,1180002076714,登記記録の閉鎖等,0,2024-08-19,2024-08-05,有限会社損害保険アシストサービス,,有限会社,愛知県,名古屋市天白区,土原４丁目１１５番地,,23,116,4680026,,,2024-08-05,清算の結了等,,,2015-10-05,1,,,,,ソンガイホケンアシストサービス,0
151,1180005014002,登記記録の閉鎖等,0,2024-08-19,2024-08-13,愛西漁業生産組合,,その他の設立登記法人,愛知県,稲沢市,朝府町１６番３４－７０２号,,23,220,4928268,,,2024-08-13,清算の結了等,,,2015-10-05,1,,,,,アイサイギョギョウセイサン,0
158,1220002005296,登記記録の閉鎖等,0,2024-08-19,2024-08-07,有限会社ホリグチ,,有限会社,石川県,金沢市,窪５丁目２００番地,,17,201,9218151,,,2024-08-07,清算の結了等,,,2015-10-05,1,,,,,ホリグチ,0
159,1230001007689,登記記録の閉鎖等,0,2024-08-19,2024-08-15,株式会社ＮＳ,,株式会社,富山県,黒部市,宇奈月温泉６３３番地の１,,16,207,9380282,,,2024-08-15,清算の結了等,,,2015-10-05,1,,,,,エヌエス,0
166,1260001009757,登記記録の閉鎖等,0,2024-08-19,2024-08-01,株式会社ボニィタ,,株式会社,岡山県,岡山市北区,平野９９８番７号コーポサンワ１０２号室,,33,101,7010151,,,2024-08-01,清算の結了等,,,2015-10-05,1,,,,,ボニィタ,0
184,1320002003653,登記記録の閉鎖等,0,2024-08-19,2024-08-16,有限会社進和サービス,,有限会社,大分県,大分市,大字細３４８番地の７,,44,201,8700305,,,2024-08-16,清算の結了等,,,2015-10-05,1,,,,,シンワサービス,0
192,1370301000982,登記記録の閉鎖等,0,2024-08-19,2024-08-01,ナカスカ株式会社,,株式会社,宮城県,石巻市,蛇田字新丸井戸４２番地の３,,04,202,9860861,,,2024-08-01,清算の結了等,,,2015-10-05,1,,,,,ナカスカ,0
202,1420002013691,登記記録の閉鎖等,0,2024-08-19,2024-08-08,有限会社中央設計,,有限会社,青森県,弘前市,大字外崎４丁目３番地１０,,02,202,0368094,,,2024-08-08,清算の結了等,,,2015-10-05,1,,,,,チュウオウセッケイ,0
208,1430002049314,登記記録の閉鎖等,0,2024-08-19,2024-08-13,有限会社五光介護サービス,,有限会社,北海道,岩見沢市,日の出北１丁目２番４号,,01,210,0680824,,,2024-08-13,清算の結了等,,,2015-10-05,1,,,,,ゴコウカイゴサービス,0
209,1430003008087,登記記録の閉鎖等,0,2024-08-19,2024-08-13,無限技術合同会社,,合同会社,北海道,札幌市北区,あいの里四条５丁目１３番１０号,,01,102,0028074,,,2024-08-13,清算の結了等,,,2016-12-22,1,,,,,ムゲンギジュツ,0
215,1500002010367,登記記録の閉鎖等,0,2024-08-19,2024-08-13,有限会社トータルセフティ,,有限会社,愛媛県,松山市,久万ノ台４９０番地１１,,38,201,7918016,,,2024-08-13,清算の結了等,,,2015-10-05,1,,,,,トータルセフティ,0
225,2010001146269,登記記録の閉鎖等,0,2024-08-19,2024-07-29,株式会社ＮＫホールディングス,,株式会社,神奈川県,横浜市青葉区,荏田西２丁目２番地８－１Ｆ,,14,117,2250014,,,2024-07-29,清算の結了等,,,2015-10-05,1,,,,,エヌケイホールディングス,0
252,2010702009294,登記記録の閉鎖等,0,2024-08-19,2024-08-08,有限会社コバヤシ精工,,有限会社,山梨県,甲府市,上町２４番地２,,19,201,4000831,,,2024-08-08,清算の結了等,,,2015-10-05,1,,,,,コバヤシセイコウ,0
264,2011005007762,登記記録の閉鎖等,0,2024-08-19,2024-07-30,アセラス箱根一般社団法人,,その他の設立登記法人,東京都,渋谷区,広尾１丁目１１番２号ＡＩＯＳ広尾ビル５０５,,13,113,1500012,,,2024-07-30,清算の結了等,,,2018-07-11,1,,,,,アセラスハコネ,0
265,2011101074970,登記記録の閉鎖等,0,2024-08-19,2024-08-01,株式会社ＦＣＥプロセス＆テクノロジー,,株式会社,東京都,新宿区,西新宿２丁目４番１号,,13,104,1600023,,,2024-08-01,合併による解散等,5011101080339,令和６年８月１日東京都新宿区西新宿二丁目４番１号株式会社ＦＣＥ（5011101080339）に合併し解散,2015-10-26,1,,,,,エフシーイープロセスアンドテクノロジー,0
287,2021001037878,登記記録の閉鎖等,0,2024-08-19,2024-08-16,株式会社岩佐工務店,,株式会社,神奈川県,平塚市,土屋９７２番地１,,14,203,2591205,,,2024-08-16,清算の結了等,,,2015-10-05,1,,,,,,0
288,2021001046111,登記記録の閉鎖等,0,2024-08-19,2024-08-15,株式会社カガミ,,株式会社,神奈川県,中郡二宮町,中里１２５５番地の１,,14,342,2590131,,,2024-08-15,清算の結了等,,,2015-10-05,1,,,,,カガミ,0
294,2030001017575,登記記録の閉鎖等,0,2024-08-19,2024-08-07,株式会社スペースクルー,,株式会社,埼玉県,さいたま市大宮区,櫛引町１丁目７６８番地,00014664,11,103,3300851,,,2024-08-07,清算の結了等,,,2015-10-05,1,,,,,スペースクルー,0
299,2030002093847,登記記録の閉鎖等,0,2024-08-19,2024-08-09,有限会社島田木工所,,有限会社,埼玉県,入間郡越生町,大字堂山３１６番地の２,,11,327,3500406,,,2024-08-09,清算の結了等,,,2015-10-05,1,,,,,シマダモッコウジョ,0
313,2070001009131,登記記録の閉鎖等,0,2024-08-19,2024-08-14,株式会社高崎病院パーキング,,株式会社,群馬県,高崎市,中泉町６１３番地２,,10,202,3703524,,,2024-08-14,合併による解散等,7010001016343,令和６年７月１日東京都中央区日本橋二丁目１４番１号株式会社厚生会（7010001016343）に合併し解散,2015-10-05,1,,,,,タカサキビョウインパーキング,0
314,2070001040895,登記記録の閉鎖等,0,2024-08-19,2024-08-09,ジャパンストロベリー株式会社,,株式会社,群馬県,高崎市,栄町３－１１,,10,202,3700841,,,2024-08-09,合併による解散等,3470001018586,令和６年７月３１日香川県三豊市高瀬町比地中１３４８番地１ジャパンフルーツ株式会社（3470001018586）に合併し解散,2023-09-27,1,,,,,ジャパンストロベリー,0
317,2080001016952,登記記録の閉鎖等,0,2024-08-19,2024-08-13,ＦＰＫナカタケ株式会社,,株式会社,静岡県,焼津市,策牛１６番地の１,,22,212,4250007,,,2024-08-13,合併による解散等,6010601025158,令和６年８月１日東京都墨田区錦糸二丁目１０番７号ナカタケビルナカタケ株式会社（6010601025158）に合併し解散,2015-10-05,1,,,,,エフピーケーナカタケ,0
330,2120001154780,登記記録の閉鎖等,0,2024-08-19,2024-08-16,クルン株式会社,,株式会社,大阪府,門真市,島頭１丁目６－２６－４Ｆ,,27,223,5710016,,,2024-08-16,清算の結了等,,,2015-10-05,1,,,,,クルン,0
336,2120101033125,登記記録の閉鎖等,0,2024-08-19,2024-08-08,株式会社ヨシカワ電機,,株式会社,大阪府,藤井寺市,野中４丁目９番１号,,27,226,5830014,,,2024-08-08,清算の結了等,,,2015-10-05,1,,,,,ヨシカワデンキ,0
352,2160003002570,登記記録の閉鎖等,0,2024-08-19,2024-08-08,ＡＵＳＴＲＡＬ合同会社,,合同会社,滋賀県,大津市,日吉台３丁目１９番９号,,25,201,5200112,,,2024-08-08,清算の結了等,,,2022-05-19,1,,,,,アウストラル,0
356,2180001136765,登記記録の閉鎖等,0,2024-08-19,2024-08-05,株式会社シン・カ,,株式会社,愛知県,一宮市,小信中島字新田前５２番地２,,23,203,4940007,,,2024-08-05,清算の結了等,,,2019-06-04,1,,,,,シンカ,0
359,2180002003353,登記記録の閉鎖等,0,2024-08-19,2024-08-05,有限会社よし吉,,有限会社,愛知県,名古屋市名東区,高社１丁目３１番地,,23,115,4650095,,,2024-08-05,清算の結了等,,,2015-10-05,1,,,,,ヨシキチ,0
368,2180301013433,登記記録の閉鎖等,0,2024-08-19,2024-08-09,山岩建設株式会社,,株式会社,愛知県,安城市,今池町１丁目２２番７号,,23,212,4460071,,,2024-08-09,清算の結了等,,,2015-10-05,1,,,,,ヤマイワケンセツ,0
373,2200005002779,登記記録の閉鎖等,0,2024-08-19,2024-08-07,特定非営利活動法人七郷ネット,,その他の設立登記法人,岐阜県,岐阜市,上尻毛日吉２４７番地,,21,201,5011148,,,2024-08-07,清算の結了等,,,2015-10-05,1,,,,,ナナサトネット,0
389,2290802025932,登記記録の閉鎖等,0,2024-08-19,2024-08-14,有限会社ウイン,,有限会社,福岡県,宮若市,宮田４８６１番地１,,40,226,8230011,,,2024-08-14,清算の結了等,,,2015-10-05,1,,,,,ウイン,0
390,2300001013068,登記記録の閉鎖等,0,2024-08-19,2024-08-09,大動商事株式会社,,株式会社,佐賀県,三養基郡上峰町,大字坊所１５３９番地３,,41,345,8490123,,,2024-08-09,合併による解散等,8310002016055,令和６年７月３１日長崎県諫早市津久葉町６番地７４株式会社ＳＴＡＲＴ（8310002016055）に合併し解散,2022-09-16,1,,,,,ダイドウショウジ,0
399,2380002006807,登記記録の閉鎖等,0,2024-08-19,2024-08-07,有限会社ディーエム商会,,有限会社,福島県,伊達市,月舘町御代田字道ノ前５番地,,07,213,9600906,,,2024-08-07,清算の結了等,,,2015-10-05,1,,,,,ディーエムショウカイ,0
409,2440002009968,登記記録の閉鎖等,0,2024-08-19,2024-08-01,有限会社丸一森田商店,,有限会社,北海道,奥尻郡奥尻町,字松江５９番地,,01,367,0431523,,,2024-08-01,清算の結了等,,,2015-10-05,1,,,,,マルイチモリタショウテン,0
411,2470001019305,登記記録の閉鎖等,0,2024-08-19,2024-08-13,和田会計コンサルティング株式会社,,株式会社,香川県,綾歌郡宇多津町,２３４９番地１,,37,386,7690210,,,2024-08-13,清算の結了等,,,2022-10-26,1,,,,,ワダカイケイコンサルティング,0
412,2480002012126,登記記録の閉鎖等,0,2024-08-19,2024-08-16,有限会社ふく利,,有限会社,徳島県,板野郡北島町,江尻字川中須１８番地４,,36,402,7710205,,,2024-08-16,清算の結了等,,,2015-10-05,1,,,,,フクリ,0
415,3010001090375,登記記録の閉鎖等,0,2024-08-19,2024-08-16,株式会社ＯＲＣ,,株式会社,東京都,江東区,青海１丁目３番１５号,,13,108,1350064,,,2024-08-16,清算の結了等,,,2015-10-05,1,,,,,,0
426,3010401156833,登記記録の閉鎖等,0,2024-08-19,2024-07-29,株式会社アルキ・ユナイテッド,,株式会社,東京都,港区,新橋２丁目２０番１５号,,13,103,1050004,,,2024-07-29,清算の結了等,,,2020-12-04,1,,,,,アルキユナイテッド,0
438,3010701013619,登記記録の閉鎖等,0,2024-08-19,2024-08-01,株式会社アース,,株式会社,千葉県,松戸市,日暮１丁目１６番地の１１,,12,207,2702253,,,2024-08-01,合併による解散等,2040001035790,令和６年８月１日千葉県松戸市日暮一丁目１６番地の１１株式会社シルバーグループ（2040001035790）に合併し解散,2015-10-05,1,,,,,アース,0
456,3011005003257,登記記録の閉鎖等,0,2024-08-19,2024-08-05,Ａ＆Ｋ税理士法人,,その他の設立登記法人,東京都,渋谷区,恵比寿西１丁目１６番３号,,13,113,1500021,,,2024-08-05,清算の結了等,,,2015-10-05,1,,,,,エイアンドケイ,0
464,3011402006911,登記記録の閉鎖等,0,2024-08-19,2024-08-13,有限会社日信堂時計店,,有限会社,東京都,板橋区,赤塚１丁目９番１０号,00066201,13,119,1750092,,,2024-08-13,清算の結了等,,,2015-10-05,1,,,,,ニッシンドウトケイテン,0
465,3011502011605,登記記録の閉鎖等,0,2024-08-19,2024-08-15,山金皮革有限会社,,有限会社,東京都,荒川区,荒川１丁目１２番１５号,,13,118,1160002,,,2024-08-15,清算の結了等,,,2015-10-05,1,,,,,ヤマキンヒカク,0
477,3020001102212,登記記録の閉鎖等,0,2024-08-19,2024-07-26,株式会社メディカルビジョン,,株式会社,神奈川県,横浜市神奈川区,鶴屋町３丁目３３番地の８アサヒビル３Ｆ,,14,102,2210835,,,2024-07-26,合併による解散等,5020001045896,令和６年７月２６日横浜市神奈川区鶴屋町三丁目３３番地の８アーバンセンター横浜ウエスト３Ｆ株式会社ニューシティー（5020001045896）に合併し解散,2015-10-05,1,,,,,メディカルビジョン,0
493,3021005007364,登記記録の閉鎖等,0,2024-08-19,2024-08-14,特定非営利活動法人こぐまの会,,その他の設立登記法人,神奈川県,平塚市,上吉沢９１８番地の２,,14,203,2591204,,,2024-08-14,清算の結了等,,,2015-10-05,1,,,,,コグマノカイ,0
494,3030001016717,登記記録の閉鎖等,0,2024-08-19,2024-08-13,ノーベルパワーソーラー株式会社,,株式会社,埼玉県,さいたま市桜区,西堀１０丁目６番８号,,11,106,3380832,,,2024-08-13,清算の結了等,,,2015-10-05,1,,,,,ノーベルパワーソーラー,0
509,3030002024784,登記記録の閉鎖等,0,2024-08-19,2024-08-01,有限会社東京ランドリー,,有限会社,埼玉県,戸田市,笹目３丁目５番地の２,,11,224,3350034,,,2024-08-01,清算の結了等,,,2015-10-05,1,,,,,トウキョウランドリー,0
510,3030002037547,登記記録の閉鎖等,0,2024-08-19,2024-08-08,有限会社小手指メガネ,,有限会社,埼玉県,入間市,扇台５丁目５番２号,,11,225,3580023,,,2024-08-08,清算の結了等,,,2015-10-05,1,,,,,コテサシメガネ,0
525,3040002085883,登記記録の閉鎖等,0,2024-08-19,2024-08-01,有限会社林商店,,有限会社,千葉県,銚子市,幸町１丁目４８番地,,12,202,2880073,,,2024-08-01,清算の結了等,,,2015-10-05,1,,,,,,0
558,3120101053502,登記記録の閉鎖等,0,2024-08-19,2024-08-09,ＫＭ企画株式会社,,株式会社,大阪府,和泉市,いぶき野２丁目３６番９号,,27,219,5940041,,,2024-08-09,清算の結了等,,,2015-10-05,1,,,,,ケイエムキカク,0
569,3140003016992,登記記録の閉鎖等,0,2024-08-19,2024-08-14,合同会社矢崎,,合同会社,兵庫県,姫路市,香寺町溝口４６４番地２２,,28,201,6792161,,,2024-08-14,清算の結了等,,,2021-11-16,1,,,,,ヤサキ,0
578,3180001146581,登記記録の閉鎖等,0,2024-08-19,2024-08-02,株式会社ＥＮＲＩＣＨ,,株式会社,愛知県,名古屋市北区,瑠璃光町５丁目１１番地藤ハイツ１０１,,23,103,4620866,,,2024-08-02,清算の結了等,,,2021-06-21,1,,,,,エンリッチ,0
604,3280003001840,登記記録の閉鎖等,0,2024-08-19,2024-08-13,合同会社ヨシノ商事,,合同会社,島根県,松江市,乃木福富町３２番地,,32,201,6900046,,,2024-08-13,清算の結了等,,,2024-05-02,1,,,,,ヨシノショウジ,0
615,3290801027152,登記記録の閉鎖等,0,2024-08-19,2024-08-07,心明建設株式会社,,株式会社,福岡県,北九州市小倉南区,湯川新町１丁目５番３１号,,40,107,8000256,,,2024-08-07,清算の結了等,,,2021-02-05,1,,,,,シンメイケンセツ,0
625,3330003004400,登記記録の閉鎖等,0,2024-08-19,2024-08-07,長野合名会社,,合名会社,熊本県,球磨郡多良木町,大字多良木７２７番地,,43,505,8680501,,,2024-08-07,清算の結了等,,,2015-10-05,1,,,,,ナガノ,0
632,3370001007830,登記記録の閉鎖等,0,2024-08-19,2024-07-31,株式会社熊谷左官工業所,,株式会社,宮城県,仙台市青葉区,柏木１丁目２番２２号,,04,101,9810933,,,2024-07-31,清算の結了等,,,2015-10-05,1,,,,,クマガイサカンコウギョウショ,0
634,3370002013464,登記記録の閉鎖等,0,2024-08-19,2024-07-30,有限会社保原屋,,有限会社,宮城県,仙台市青葉区,東照宮２丁目１番５－２号,,04,101,9810908,,,2024-07-30,清算の結了等,,,2015-10-05,1,,,,,ホバラヤ,0
636,3370201000577,登記記録の閉鎖等,0,2024-08-19,2024-08-02,株式会社シュウワ,,株式会社,宮城県,大崎市,古川小野字須賀３１番地１,,04,215,9896251,,,2024-08-02,清算の結了等,,,2015-10-05,1,,,,,シュウワ,0
646,3430003013812,登記記録の閉鎖等,0,2024-08-19,2024-08-13,合同会社Ｃｏｃｏｒｏｍｏ．,,合同会社,北海道,札幌市中央区,南三条西５丁目１４番三条美松ビル８０２,,01,101,0600063,,,2024-08-13,清算の結了等,,,2022-04-14,1,,,,,ココロモ,0
661,4010101013433,登記記録の閉鎖等,0,2024-08-19,2024-08-16,株式会社リンクス,,株式会社,東京都,八王子市,元横山町３丁目１０番１９号１－１０１,,13,201,1920063,,,2024-08-16,清算の結了等,,,2018-09-05,1,,,,,リンクス,0
677,4010601060677,登記記録の閉鎖等,0,2024-08-19,2024-08-15,株式会社ピコディ,,株式会社,東京都,墨田区,太平３丁目１１番２－４０５号,,13,107,1300012,,,2024-08-15,清算の結了等,,,2022-02-21,1,,,,,ピコディ,0
692,4011101086741,登記記録の閉鎖等,0,2024-08-19,2024-08-01,株式会社ＲＥＧＢＯＤＹ,,株式会社,東京都,新宿区,高田馬場２丁目１６番１１号高田馬場２１６ビル７階,,13,104,1690075,,,2024-08-01,合併による解散等,8011101042732,令和６年８月１日東京都新宿区高田馬場二丁目１６番１１号高田馬場２１６ビル７階ネクステージグループホールディングス株式会社（8011101042732）に合併し解散,2019-02-06,1,,,,,レグボディ,0
699,4011105004666,登記記録の閉鎖等,0,2024-08-19,2024-07-29,一般社団法人機能性食品開発協会,,その他の設立登記法人,東京都,新宿区,市谷砂土原町２丁目７番地２７,,13,104,1620842,,,2024-07-29,清算の結了等,,,2015-10-05,1,,,,,キノウセイショクヒンカイハツキョウカイ,0
704,4011501029457,登記記録の閉鎖等,0,2024-08-19,2024-08-14,株式会社Ｍｅ　ｔｉｍｅ,,株式会社,東京都,荒川区,町屋２丁目２１番２－６０１号フレスコ町屋,,13,118,1160001,,,2024-08-14,清算の結了等,,,2023-07-04,1,,,,,ミータイム,0
711,4011802022573,登記記録の閉鎖等,0,2024-08-19,2024-08-09,有限会社エス・ティー・ピー,,有限会社,東京都,足立区,東保木間１丁目１５番１８号,,13,121,1210063,,,2024-08-09,清算の結了等,,,2015-10-05,1,,,,,エスティーピー,0
720,4020002067750,登記記録の閉鎖等,0,2024-08-19,2024-07-29,有限会社桂薬品,,有限会社,神奈川県,横浜市栄区,桂台南２丁目３２番２１号,,14,115,2470033,,,2024-07-29,清算の結了等,,,2015-10-05,1,,,,,,0
727,4021002039343,登記記録の閉鎖等,0,2024-08-19,2024-08-14,有限会社Ｇゼミナール,,有限会社,神奈川県,秦野市,栄町１番１３号,,14,211,2570043,,,2024-08-14,清算の結了等,,,2015-10-05,1,,,,,ジーゼミナール,0
731,4030001003235,登記記録の閉鎖等,0,2024-08-19,2024-08-09,株式会社サントレード,,株式会社,埼玉県,さいたま市南区,根岸５丁目１０番３号,,11,108,3360024,,,2024-08-09,清算の結了等,,,2015-10-05,1,,,,,サントレード,0
732,4030001051382,登記記録の閉鎖等,0,2024-08-19,2024-08-13,株式会社はるかシステム研究所,,株式会社,埼玉県,春日部市,増富４３７番地７,,11,214,3440041,,,2024-08-13,清算の結了等,,,2015-10-05,1,,,,,ハルカシステムケンキュウショ,0
739,4030002119518,登記記録の閉鎖等,0,2024-08-19,2024-08-06,有限会社色建築設計事務所,,有限会社,埼玉県,飯能市,大字落合７７０番地,,11,209,3570047,,,2024-08-06,清算の結了等,,,2015-10-05,1,,,,,シキケンチクセッケイジムショ,0
764,4080102019737,登記記録の閉鎖等,0,2024-08-19,2024-08-09,有限会社ケイエムビー,,有限会社,静岡県,伊東市,竹の内２丁目８番２６号,,22,208,4140027,,,2024-08-09,清算の結了等,,,2015-10-05,1,,,,,ケイエムビー,0
787,4120002073805,登記記録の閉鎖等,0,2024-08-19,2024-08-16,有限会社オクムラ設計,,有限会社,大阪府,枚方市,山之上４丁目３０番３３号,,27,210,5730047,,,2024-08-16,清算の結了等,,,2015-10-05,1,,,,,オクムラセッケイ,0
790,4120901007268,登記記録の閉鎖等,0,2024-08-19,2024-08-02,ムツミハウス株式会社,,株式会社,大阪府,吹田市,江の木町１番１号,,27,205,5640053,,,2024-08-02,清算の結了等,,,2015-10-05,1,,,,,ムツミハウス,0
792,4120901036911,登記記録の閉鎖等,0,2024-08-19,2024-08-16,株式会社ＳＵＮ,,株式会社,大阪府,大阪市北区,中津２丁目５番３１号,,27,127,5310071,,,2024-08-16,清算の結了等,,,2016-05-13,1,,,,,サン,0
793,4130001029823,登記記録の閉鎖等,0,2024-08-19,2024-08-13,株式会社ＺｏＲｏ－７,,株式会社,京都府,京都市伏見区,葭島矢倉町４番地２１,,26,109,6128224,,,2024-08-13,清算の結了等,,,2015-10-05,1,,,,,ゾロセブン,0
800,4140001117981,登記記録の閉鎖等,0,2024-08-19,2024-08-15,株式会社ＨＯＮＥＹ　ＣＡＴ,,株式会社,兵庫県,たつの市,神岡町西鳥井１９６番地５,,28,229,6794105,,,2024-08-15,清算の結了等,,,2020-07-16,1,,,,,ハニーキャット,0
804,4140002020994,登記記録の閉鎖等,0,2024-08-19,2024-08-14,有限会社竹本商店,,有限会社,兵庫県,神戸市灘区,上野通２丁目３番１３号,,28,102,6570817,,,2024-08-14,清算の結了等,,,2015-10-05,1,,,,,タケモトショウテン,0
805,4140002037394,登記記録の閉鎖等,0,2024-08-19,2024-08-13,有限会社武庫,,有限会社,兵庫県,高砂市,神爪１丁目２番５号,,28,216,6760808,,,2024-08-13,清算の結了等,,,2015-10-05,1,,,,,ムコ,0
812,4180001079888,登記記録の閉鎖等,0,2024-08-19,2024-08-06,株式会社インタープランツネット,,株式会社,愛知県,尾張旭市,渋川町１丁目２番地１,,23,226,4880839,,,2024-08-06,清算の結了等,,,2015-10-05,1,,,,,インタープランツネット,0
821,4180303003604,登記記録の閉鎖等,0,2024-08-19,2024-08-06,合同会社前田総業,,合同会社,愛知県,豊田市,北篠平町前田１０９０番地,,23,211,4700543,,,2024-08-06,清算の結了等,,,2016-04-13,1,,,,,マエダソウギョウ,0
828,4210005000697,登記記録の閉鎖等,0,2024-08-19,2024-08-09,福井県綿寝具商業組合,,その他の設立登記法人,福井県,福井市,西木田３丁目１０番１０号,,18,201,9188004,,,2024-08-09,清算の結了等,,,2015-10-05,1,,,,,フクイケンメンシング,0
845,4300001006937,登記記録の閉鎖等,0,2024-08-19,2024-08-09,株式会社ヒムカ,,株式会社,佐賀県,小城市,芦刈町芦溝１１４６番地１,00095147,41,208,8490311,,,2024-08-09,清算の結了等,,,2015-10-05,1,,,,,ヒムカ,0
850,4330003008929,登記記録の閉鎖等,0,2024-08-19,2024-08-07,合同会社ＭＡＹ,,合同会社,熊本県,熊本市東区,健軍本町２６番１０号村上ビル２－Ｂ,,43,102,8620910,,,2024-08-07,清算の結了等,,,2021-06-08,1,,,,,メイ,0
864,4400002017576,登記記録の閉鎖等,0,2024-08-19,2024-07-24,有限会社東北薬草農園開発研究所,,有限会社,岩手県,奥州市,水沢卸町２番地１６,,03,215,0230001,,,2024-07-24,清算の結了等,,,2024-04-05,1,,,,,トウホクヤクソウノウエンカイハツケンキュウジョ,0
869,4420001000779,登記記録の閉鎖等,0,2024-08-19,2024-07-30,株式会社工藤カメラ店,,株式会社,青森県,青森市,長島２丁目１０番２号,,02,201,0300861,,,2024-07-30,清算の結了等,,,2015-10-05,1,,,,,クドウカメラテン,0
876,4450001006682,登記記録の閉鎖等,0,2024-08-19,2024-08-16,株式会社グリーンケアふらの,,株式会社,北海道,富良野市,字富良野尻岸馬内２０５０番２６,,01,229,0760000,,,2024-08-16,清算の結了等,,,2015-10-05,1,,,,,グリーンケアフラノ,0
886,5010001172394,登記記録の閉鎖等,0,2024-08-19,2024-07-04,株式会社ｔｓｕｍｕｇ．ｌａｂ,,株式会社,福岡県,福岡市中央区,大名２丁目６番１１号３Ｆシェアオフィス,,40,133,8100041,,,2024-07-04,清算の結了等,,,2015-12-17,1,,,,,ツムグラボ,0
887,5010001175983,登記記録の閉鎖等,0,2024-08-19,2024-08-05,アドバンスト・アナリティクス株式会社,,株式会社,東京都,千代田区,九段北１丁目１３番５号,,13,101,1020073,,,2024-08-05,清算の結了等,,,2016-05-31,1,,,,,,0
892,5010005031555,登記記録の閉鎖等,0,2024-08-19,2024-08-05,ケイト一般社団法人,,その他の設立登記法人,東京都,中央区,銀座１丁目６番１１号アースタックス税理士法人内,,13,102,1040061,,,2024-08-05,清算の結了等,,,2020-03-10,1,,,,,ケイト,0
954,5030001123461,登記記録の閉鎖等,0,2024-08-19,2024-08-09,株式会社秋元住研,,株式会社,埼玉県,越谷市,東越谷３丁目１番地１－１０２,,11,222,3430023,,,2024-08-09,清算の結了等,,,2017-12-14,1,,,,,アキモトジュウケン,0
960,5030002049771,登記記録の閉鎖等,0,2024-08-19,2024-08-09,有限会社堀内製作所,,有限会社,埼玉県,三郷市,戸ケ崎２丁目６８番地３,,11,237,3410044,,,2024-08-09,清算の結了等,,,2015-10-05,1,,,,,ホリウチセイサクショ,0
965,5030005002926,登記記録の閉鎖等,0,2024-08-19,2024-08-09,埼玉県建設防水工事業協同組合,,その他の設立登記法人,埼玉県,さいたま市岩槻区,大字本宿３７番地１,,11,110,3390074,,,2024-08-09,清算の結了等,,,2015-10-05,1,,,,,サイタマケンケンセツボウスイコウジギョウ,0
988,5080103000942,登記記録の閉鎖等,0,2024-08-19,2024-08-09,合資会社リビング食品,,合資会社,静岡県,伊東市,大原１丁目５番２号,,22,208,4140046,,,2024-08-09,清算の結了等,,,2015-10-05,1,,,,,リビングショクヒン,0
1011,5120101055802,登記記録の閉鎖等,0,2024-08-19,2024-08-09,株式会社フューチャーライン,,株式会社,大阪府,河内長野市,向野町１４２番地の８,,27,216,5860013,,,2024-08-09,清算の結了等,,,2016-12-13,1,,,,,フューチャーライン,0
1018,5130001068300,登記記録の閉鎖等,0,2024-08-19,2024-08-13,株式会社鐵商なかせ,,株式会社,京都府,宇治市,槇島町目川１２株式会社中瀬鐵工所２Ｆ,,26,204,6110041,,,2024-08-13,清算の結了等,,,2020-12-23,1,,,,,テツショウナカセ,0
1022,5140001084643,登記記録の閉鎖等,0,2024-08-19,2024-08-13,岡崎石材株式会社,,株式会社,兵庫県,洲本市,本町８丁目５番１２号,,28,205,6560025,,,2024-08-13,清算の結了等,,,2015-10-05,1,,,,,オカザキセキザイ,0
1053,5180301038667,登記記録の閉鎖等,0,2024-08-19,2024-08-09,新和薬品株式会社,,株式会社,愛知県,豊橋市,菰口町５丁目８９番地,,23,201,4418011,,,2024-08-09,清算の結了等,,,2024-05-23,1,,,,,シンワヤクヒン,0
1070,5290001050928,登記記録の閉鎖等,0,2024-08-19,2024-08-08,株式会社あんしんプランナーズ,,株式会社,福岡県,久留米市,花畑２丁目１０番地９,,40,203,8300039,,,2024-08-08,清算の結了等,,,2015-10-05,1,,,,,アンシンプランナーズ,0
1071,5290001055811,登記記録の閉鎖等,0,2024-08-19,2024-07-08,株式会社福岡スクラム会,,株式会社,福岡県,福岡市博多区,博多駅前２丁目１７番１号,,40,132,8120011,,,2024-07-08,清算の結了等,,,2015-10-05,1,,,,,フクオカスクラムカイ,0
1080,5290002018932,登記記録の閉鎖等,0,2024-08-19,2024-07-04,有限会社中川フォトアトリエ,,有限会社,福岡県,那珂川市,片縄１丁目１３９番地,,40,231,8111201,,,2024-07-04,清算の結了等,,,2015-10-05,1,,,,,ナカガワフォトアトリエ,0
1103,5360003010682,登記記録の閉鎖等,0,2024-08-19,2024-08-14,Ｇｅｒｂｅｒａｓ合同会社,,合同会社,沖縄県,石垣市,字真栄里２０４番地９５横目アパート１０１,,47,207,9070002,,,2024-08-14,清算の結了等,,,2020-11-13,1,,,,,ガーベラス,0
1115,5430002019370,登記記録の閉鎖等,0,2024-08-19,2024-08-13,有限会社ミックサイエンス,,有限会社,北海道,札幌市西区,平和二条６丁目４番１８号,,01,107,0630022,,,2024-08-13,清算の結了等,,,2015-10-05,1,,,,,ミックサイエンス,0
1122,5460301000763,登記記録の閉鎖等,0,2024-08-19,2024-08-19,株式会社長屋重機,,株式会社,北海道,北見市,中央三輪９丁目４番地１０,,01,208,0900837,,,2024-08-19,清算の結了等,,,2015-10-05,1,,,,,ナガヤジュウキ,0
1138,6010005032593,登記記録の閉鎖等,0,2024-08-19,2024-08-02,一般社団法人家族の窓口シニアサポート協会,,その他の設立登記法人,東京都,中央区,湊１丁目２番１０号,,13,102,1040043,,,2024-08-02,清算の結了等,,,2020-11-25,1,,,,,カゾクノマドグチシニアサポートキョウカイ,0
1139,6010005033526,登記記録の閉鎖等,0,2024-08-19,2024-08-02,一般財団法人ファミリーヘルス財団,,その他の設立登記法人,東京都,千代田区,九段北４丁目１番２８号九段ファーストプレイス３Ｆ,,13,101,1020073,,,2024-08-02,清算の結了等,,,2021-06-21,1,,,,,ファミリーヘルスザイダン,0
1175,6011802009750,登記記録の閉鎖等,0,2024-08-19,2024-08-09,有限会社一幸,,有限会社,東京都,足立区,千住河原町４２番５号,,13,121,1200037,,,2024-08-09,清算の結了等,,,2015-10-05,1,,,,,イッコウ,0
1178,6012701016177,登記記録の閉鎖等,0,2024-08-19,2024-08-16,楽語株式会社,,株式会社,大阪府,貝塚市,西町１１番１７号池尻ビル１階,,27,208,5970004,,,2024-08-16,清算の結了等,,,2020-11-26,1,,,,,ラクゴ,0
1181,6020001123115,登記記録の閉鎖等,0,2024-08-19,2024-07-23,星野町不動産株式会社,,株式会社,神奈川県,横浜市神奈川区,星野町８番地１ＭＧＴ－６０１,,14,102,2210035,,,2024-07-23,清算の結了等,,,2017-09-28,1,,,,,ホシノチョウフドウサン,0
1195,6030001042660,登記記録の閉鎖等,0,2024-08-19,2024-08-09,株式会社ＷＡＫＯ,,株式会社,埼玉県,上尾市,本町６丁目９番６号,,11,219,3620014,,,2024-08-09,清算の結了等,,,2015-10-05,1,,,,,ワコー,0
1221,6060001035273,登記記録の閉鎖等,0,2024-08-19,2024-08-05,株式会社Ｒｅホールディングス,,株式会社,栃木県,宇都宮市,錦２丁目４番３号,,09,201,3210967,,,2024-08-05,清算の結了等,,,2022-09-15,1,,,,,アールイーホールディングス,0
1246,6110002004825,登記記録の閉鎖等,0,2024-08-19,2024-08-07,有限会社新潟デーシー,,有限会社,新潟県,新潟市西区,青山１丁目１２番３２号,,15,107,9502002,,,2024-08-07,清算の結了等,,,2015-10-05,1,,,,,ニイガタデーシー,0
1265,6130001073670,登記記録の閉鎖等,0,2024-08-19,2024-08-15,株式会社ノーツセキュリティ,,株式会社,京都府,京都市下京区,傘鉾町４３立原ビル４階,,26,106,6008494,,,2024-08-15,清算の結了等,,,2023-02-10,1,,,,,ノーツセキュリティ,0
1281,6180001091189,登記記録の閉鎖等,0,2024-08-19,2024-08-06,ノーマイヤー・テクフォ・ジャパン株式会社,,株式会社,愛知県,名古屋市熱田区,横田１丁目１１番６号,,23,109,4560022,,,2024-08-06,清算の結了等,,,2015-10-05,1,,,,,ノーマイヤーテクフォジャパン,0
1284,6180001137009,登記記録の閉鎖等,0,2024-08-19,2024-08-06,中日本管理センター株式会社,,株式会社,愛知県,北名古屋市,鍜治ケ一色拳５０番地,00116888,23,234,4810037,,,2024-08-06,清算の結了等,,,2019-06-14,1,,,,,ナカニホンカンリセンター,0
1287,6180001156347,登記記録の閉鎖等,0,2024-08-19,2024-08-05,株式会社ステラ,,株式会社,愛知県,日進市,赤池４丁目３０２番地４,,23,230,4700125,,,2024-08-05,清算の結了等,,,2023-05-17,1,,,,,ステラ,0
1292,6230001011926,登記記録の閉鎖等,0,2024-08-19,2024-08-16,株式会社富建,,株式会社,富山県,高岡市,明園町１番２号,,16,202,9330015,,,2024-08-16,清算の結了等,,,2015-10-05,1,,,,,トミケン,0
1311,6290005019299,登記記録の閉鎖等,0,2024-08-19,2024-06-25,多々良村農業會,,その他の設立登記法人,福岡県,福岡市東区,大字津屋１０３２番地の４,,40,131,,,,2024-06-25,清算の結了等,,,2024-03-01,1,,,,,,1
1315,6330001018309,登記記録の閉鎖等,0,2024-08-19,2024-08-07,株式会社蓮建築工房,,株式会社,熊本県,熊本市東区,東京塚町１９番１４号,,43,102,8620923,,,2024-08-07,清算の結了等,,,2015-10-05,1,,,,,レンケンチクコウボウ,0
1320,6330002027424,登記記録の閉鎖等,0,2024-08-19,2024-08-05,有限会社ファイン,,有限会社,熊本県,八代市,本町４丁目１７番１９号,,43,202,8660861,,,2024-08-05,清算の結了等,,,2015-10-05,1,,,,,ファイン,0
1321,6340002010123,登記記録の閉鎖等,0,2024-08-19,2024-08-08,有限会社ユニオン工設,,有限会社,鹿児島県,鹿児島市,吉野町１３５９番地の４,,46,201,8920871,,,2024-08-08,清算の結了等,,,2015-10-05,1,,,,,ユニオンコウセツ,0
1324,6360001005733,登記記録の閉鎖等,0,2024-08-19,2024-08-15,株式会社シーアンドアイ研究所,,株式会社,沖縄県,那覇市,三原１丁目２２番２４号第二花城荘２階,,47,201,9020063,,,2024-08-15,清算の結了等,,,2015-10-05,1,,,,,シーアンドアイケンキュウショ,0
1330,6370005009003,登記記録の閉鎖等,0,2024-08-19,2024-08-02,一般社団法人ナチュラルメイクアップ協会,,その他の設立登記法人,宮城県,仙台市太白区,長町南３丁目２番７－３１０号,,04,104,9820012,,,2024-08-02,清算の結了等,,,2016-06-02,1,,,,,ナチュラルメイクアップキョウカイ,0
1334,6430001011237,登記記録の閉鎖等,0,2024-08-19,2024-08-14,東海コンサルタント株式会社,,株式会社,北海道,札幌市手稲区,新発寒五条６丁目６番１７号,,01,109,0060805,,,2024-08-14,清算の結了等,,,2015-10-05,1,,,,,トウカイコンサルタント,0
1339,6430005010433,登記記録の閉鎖等,0,2024-08-19,2024-08-14,特定非営利活動法人きずな地域対話士協会,,その他の設立登記法人,北海道,札幌市豊平区,豊平五条６丁目１番１５－２０７号,,01,105,0620905,,,2024-08-14,清算の結了等,,,2015-10-05,1,,,,,キズナチイキタイワシキョウカイ,0
1352,7010001083350,登記記録の閉鎖等,0,2024-08-19,2024-08-02,株式会社Ｃ＆Ｔ社,,株式会社,東京都,千代田区,神田小川町２丁目８番地,,13,101,1010052,,,2024-08-02,清算の結了等,,,2015-10-05,1,,,,,シーアンドティーシャ,0
1362,7010102002481,登記記録の閉鎖等,0,2024-08-19,2024-08-16,晃信工業有限会社,,有限会社,東京都,八王子市,大和田町３丁目１２番１３号,,13,201,1920045,,,2024-08-16,清算の結了等,,,2015-10-05,1,,,,,コウシンコウギョウ,0
1364,7010401118937,登記記録の閉鎖等,0,2024-08-19,2024-07-29,Ｗクリーン株式会社,,株式会社,東京都,港区,愛宕１丁目６番８号,,13,103,1050002,,,2024-07-29,清算の結了等,,,2015-10-05,1,,,,,ダブルクリーン,0
1376,7010902002581,登記記録の閉鎖等,0,2024-08-19,2024-08-13,有限会社エスマネジメント,,有限会社,東京都,世田谷区,若林４丁目８番１０号,,13,112,1540023,,,2024-08-13,清算の結了等,,,2015-10-05,1,,,,,エスマネジメント,0
1394,7011402000381,登記記録の閉鎖等,0,2024-08-19,2024-08-15,有限会社あそう給食,,有限会社,東京都,板橋区,前野町４丁目４３番６号,,13,119,1740063,,,2024-08-15,清算の結了等,,,2015-10-05,1,,,,,,0
1399,7011802008355,登記記録の閉鎖等,0,2024-08-19,2024-08-09,吉田商事有限会社,00057322,有限会社,東京都,葛飾区,高砂６丁目２番１４－１０１号,,13,122,1250054,,,2024-08-09,清算の結了等,,,2015-10-05,1,,,,,ヨシダショウジ,0
1411,7020001078275,登記記録の閉鎖等,0,2024-08-19,2024-07-30,白山繊維株式会社,,株式会社,東京都,目黒区,洗足２丁目１９番１４号,,13,110,1520012,,,2024-07-30,清算の結了等,,,2015-10-05,1,,,,,ハクサンセンイ,0
1412,7020001147113,登記記録の閉鎖等,0,2024-08-19,2024-07-26,株式会社ＰＲＯＭＥＴＨＥＵＳ　ＡＩ,,株式会社,神奈川県,横浜市中区,山田町４番地フロール山田町第１－１０９号室,,14,104,2310036,,,2024-07-26,清算の結了等,,,2022-06-29,1,,,,,プラメシュウスエーアイ,0
1428,7030001126735,登記記録の閉鎖等,0,2024-08-19,2024-08-14,株式会社イーウーサポート,,株式会社,埼玉県,戸田市,本町４丁目４番６号ＴＢＣ,,11,224,3350023,,,2024-08-14,合併による解散等,9010401174474,令和６年７月３１日東京都中央区日本橋小網町１８番１６号日本橋サマリヤシティハイツ８０５号室株式会社イーウーサポート（9010401174474）に合併し解散,2018-07-27,1,,,,,イーウーサポート,0
1429,7030001136899,登記記録の閉鎖等,0,2024-08-19,2024-08-09,株式会社オフィスプラッツ,,株式会社,埼玉県,朝霞市,膝折町４丁目４番７号,,11,227,3510014,,,2024-08-09,清算の結了等,,,2020-06-16,1,,,,,オフィスプラッツ,0
1435,7030002028848,登記記録の閉鎖等,0,2024-08-19,2024-08-15,有限会社栢沼住宅設備,,有限会社,埼玉県,所沢市,大字上安松２７３番地の２,,11,208,3590025,,,2024-08-15,清算の結了等,,,2015-10-05,1,,,,,カヤヌマジュウタクセツビ,0
1446,7040003015687,登記記録の閉鎖等,0,2024-08-19,2024-07-31,合同会社ポワール,,合同会社,千葉県,鎌ケ谷市,くぬぎ山１丁目１４番９号ロータリーパレスくぬぎ山３０８号,,12,224,2730128,,,2024-07-31,清算の結了等,,,2020-07-10,1,,,,,ポワール,0
1461,7080101012302,登記記録の閉鎖等,0,2024-08-19,2024-08-07,株式会社ミヤテック,,株式会社,静岡県,富士宮市,淀平町３３８番地,,22,207,4180052,,,2024-08-07,清算の結了等,,,2015-10-05,1,,,,,ミヤテック,0
1475,7120001228043,登記記録の閉鎖等,0,2024-08-19,2024-08-15,桜ノ宮サービス株式会社,,株式会社,大阪府,大阪市都島区,中野町４丁目６番１３号,,27,102,5340027,,,2024-08-15,清算の結了等,,,2020-03-25,1,,,,,,0
1483,7120102006637,登記記録の閉鎖等,0,2024-08-19,2024-08-16,有限会社大貴,,有限会社,大阪府,堺市東区,草尾１番地,,27,143,5998127,,,2024-08-16,清算の結了等,,,2015-10-05,1,,,,,タイキ,0
1495,7140001130511,登記記録の閉鎖等,0,2024-08-19,2024-08-02,株式会社丸正,,株式会社,兵庫県,神戸市灘区,城内通１丁目８番１号,,28,102,6570836,,,2024-08-02,清算の結了等,,,2023-06-19,1,,,,,マルショウ,0
1496,7140002027351,登記記録の閉鎖等,0,2024-08-19,2024-08-14,株式会社ロジック・アンド・システムズ,,株式会社,兵庫県,神戸市中央区,八幡通３丁目２番５号,,28,110,6510085,,,2024-08-14,合併による解散等,2010001190366,令和６年７月１日東京都新宿区四谷三丁目２番１号株式会社ロジック・アンド・デザイン（2010001190366）に合併し解散,2015-10-05,1,,,,,ロジックアンドシステムズ,0
1513,7180003011219,登記記録の閉鎖等,0,2024-08-19,2024-08-06,合資会社共和機械製作所,,合資会社,愛知県,犬山市,大字羽黒字赤坂２８番地３,,23,215,4840894,,,2024-08-06,清算の結了等,,,2015-10-05,1,,,,,キョウワキカイセイサクジョ,0
1532,7290001088611,登記記録の閉鎖等,0,2024-08-19,2024-07-08,株式会社筑栄建設,,株式会社,福岡県,久留米市,三潴町高三潴６１番地１３,,40,203,8300103,,,2024-07-08,清算の結了等,,,2020-04-09,1,,,,,チクエイケンセツ,0
1548,7330001015197,登記記録の閉鎖等,0,2024-08-19,2024-08-07,株式会社塩田建材店,,株式会社,熊本県,天草市,牛深町２１９９番地１,,43,215,8631901,,,2024-08-07,清算の結了等,,,2015-10-05,1,,,,,シオタケンザイテン,0
1555,7360003013980,登記記録の閉鎖等,0,2024-08-19,2024-08-15,合同会社アセット,,合同会社,沖縄県,島尻郡八重瀬町,字東風平４２５番地３,,47,362,9010401,,,2024-08-15,清算の結了等,,,2024-05-20,1,,,,,アセット,0
1567,7430001068854,登記記録の閉鎖等,0,2024-08-19,2024-08-09,株式会社ＯＫＵ,,株式会社,北海道,札幌市東区,東苗穂十二条４丁目２３番地５号,,01,103,0070812,,,2024-08-09,清算の結了等,,,2015-10-05,1,,,,,オク,0
1572,7430002048590,登記記録の閉鎖等,0,2024-08-19,2024-08-09,有限会社城生野新聞店,,有限会社,北海道,千歳市,信濃３丁目１４番７号,,01,224,0660038,,,2024-08-09,清算の結了等,,,2015-10-05,1,,,,,ジョウノシンブンテン,0
1586,8010001102539,登記記録の閉鎖等,0,2024-08-19,2024-08-05,株式会社Ｃ’ｍａｐ,,株式会社,東京都,中央区,銀座７丁目１５番８号タウンハイツ銀座３０５号室,,13,102,1040061,,,2024-08-05,清算の結了等,,,2015-10-05,1,,,,,,0
1588,8010001171402,登記記録の閉鎖等,0,2024-08-19,2024-08-05,ヘルスケアアシュアランスジャパン株式会社,,株式会社,東京都,千代田区,霞が関３丁目５番１号,,13,101,1000013,,,2024-08-05,清算の結了等,,,2015-10-30,1,,,,,ヘルスケアアシュアランスジャパン,0
1593,8010401074832,登記記録の閉鎖等,0,2024-08-19,2024-07-29,株式会社Ｓｔｅｐ　ａｎｄ　Ｇｏ,,株式会社,東京都,港区,芝２丁目３番１２号ＫＷレジデンス芝公園１３０１号,,13,103,1050014,,,2024-07-29,清算の結了等,,,2015-10-05,1,,,,,,0
1619,8011101094617,登記記録の閉鎖等,0,2024-08-19,2024-08-01,Ｂｅ　ｏｎｅ株式会社,,株式会社,東京都,新宿区,高田馬場２丁目１４番３号,,13,104,1690075,,,2024-08-01,清算の結了等,,,2021-04-07,1,,,,,ビーワン,0
1627,8011201015860,登記記録の閉鎖等,0,2024-08-19,2024-07-29,株式会社キレートジャパン,,株式会社,東京都,港区,北青山３丁目８番３号,,13,103,1070061,,,2024-07-29,清算の結了等,,,2015-10-05,1,,,,,キレートジャパン,0
1635,8012701016027,登記記録の閉鎖等,0,2024-08-19,2024-08-15,麦島株式会社,,株式会社,大阪府,大阪市東淀川区,小松４丁目１３番２１号,,27,114,5330004,,,2024-08-15,清算の結了等,,,2020-08-24,1,,,,,,0
1640,8020001008033,登記記録の閉鎖等,0,2024-08-19,2024-07-29,株式会社北新設備工業,,株式会社,神奈川県,横浜市戸塚区,平戸２丁目３２番８号,,14,110,2440802,,,2024-07-29,清算の結了等,,,2015-10-05,1,,,,,ホクシンセツビコウギョウ,0
1662,8030001110226,登記記録の閉鎖等,0,2024-08-19,2024-08-14,株式会社折勝,,株式会社,埼玉県,比企郡小川町,大字高谷１２３３番地２３,,11,343,3550311,,,2024-08-14,合併による解散等,4080001002769,令和６年８月１日静岡市葵区流通センター８番１号株式会社静岡産業社（4080001002769）に合併し解散,2015-10-05,1,,,,,オリカツ,0
1663,8030001138556,登記記録の閉鎖等,0,2024-08-19,2024-08-05,株式会社Ｎシステム,,株式会社,東京都,中央区,銀座１丁目５－４－３Ｆ,,13,102,1040061,,,2024-08-05,清算の結了等,,,2020-10-05,1,,,,,エヌシステム,0
1666,8030002052616,登記記録の閉鎖等,0,2024-08-19,2024-08-14,株式会社いづみ,,株式会社,埼玉県,草加市,谷塚上町３０２番地３,,11,221,3400024,,,2024-08-14,清算の結了等,,,2015-10-05,1,,,,,イヅミ,0
1687,8090002006723,登記記録の閉鎖等,0,2024-08-19,2024-08-09,有限会社ヤマヒサ,,有限会社,山梨県,甲斐市,宇津谷４６２０番地,,19,210,4000108,,,2024-08-09,清算の結了等,,,2015-10-05,1,,,,,,0
1710,8120901024879,登記記録の閉鎖等,0,2024-08-19,2024-08-14,株式会社図書館流通センター豊中,,株式会社,大阪府,豊中市,長興寺南４丁目９番４号,,27,203,5610874,,,2024-08-14,合併による解散等,3010001005556,令和６年８月１日東京都文京区大塚三丁目１番１号株式会社図書館流通センター（3010001005556）に合併し解散,2015-10-05,1,,,,,トショカンリュウツウセンタートヨナカ,0
1715,8130001022964,登記記録の閉鎖等,0,2024-08-19,2024-08-13,株式会社山十,,株式会社,京都府,京都市中京区,壬生花井町２２番地の２７,,26,104,6048873,,,2024-08-13,清算の結了等,,,2015-10-05,1,,,,,ヤマジュウ,0
1725,8180001114732,登記記録の閉鎖等,0,2024-08-19,2024-08-06,株式会社まっとあっぷ,,株式会社,愛知県,名古屋市南区,呼続３丁目１５番１６号,,23,112,4570014,,,2024-08-06,清算の結了等,,,2015-10-05,1,,,,,マットアップ,0
1730,8180002077144,登記記録の閉鎖等,0,2024-08-19,2024-08-02,日栄物産有限会社,,有限会社,愛知県,一宮市,大和町妙興寺字山王浦３２番地の１,,23,203,4910922,,,2024-08-02,清算の結了等,,,2015-10-05,1,,,,,ニチエイブッサン,0
1731,8180002082210,登記記録の閉鎖等,0,2024-08-19,2024-08-05,有限会社マルチプランニング,,有限会社,愛知県,岩倉市,泉町西新溝廻間１番地１１,,23,228,4820045,,,2024-08-05,清算の結了等,,,2015-10-05,1,,,,,マルチプランニング,0
1735,8180301018237,登記記録の閉鎖等,0,2024-08-19,2024-08-08,興和豊田株式会社,,株式会社,愛知県,豊田市,大林町８丁目２０番地,,23,211,4730902,,,2024-08-08,清算の結了等,,,2015-10-05,1,,,,,コウワトヨタ,0
1742,8200003003906,登記記録の閉鎖等,0,2024-08-19,2024-08-08,株式会社Ｎ’ｚ　Ｊａｐａｎ,,株式会社,岐阜県,山県市,高富１８４３,,21,215,5012105,,,2024-08-08,清算の結了等,,,2016-12-27,1,,,,,エヌズジャパン,0
1752,8280002011464,登記記録の閉鎖等,0,2024-08-19,2024-08-14,有限会社日油島根工場,,有限会社,島根県,雲南市,大東町大東８７９番地２,,32,209,6991251,,,2024-08-14,清算の結了等,,,2015-10-05,1,,,,,ニチユシマネコウジョウ,0
1755,8290001057557,登記記録の閉鎖等,0,2024-08-19,2024-07-04,株式会社アップルリフォーム,,株式会社,福岡県,糟屋郡須惠町,大字須惠３７７番地６１,,40,344,8112113,,,2024-07-04,清算の結了等,,,2015-10-05,1,,,,,,0
1769,8290002034951,登記記録の閉鎖等,0,2024-08-19,2024-07-08,有限会社赤間自動車整備工場,,有限会社,福岡県,宗像市,土穴１丁目１番１４号,,40,220,8114183,,,2024-07-08,清算の結了等,,,2015-10-05,1,,,,,アカマジドウシャセイビコウジョウ,0
1772,8300002009217,登記記録の閉鎖等,0,2024-08-19,2024-08-13,有限会社帆足冷電,,有限会社,佐賀県,鳥栖市,真木町１９５４番地５,,41,203,8410046,,,2024-08-13,清算の結了等,,,2015-10-05,1,,,,,ホアシレイデン,0
1777,8330002018891,登記記録の閉鎖等,0,2024-08-19,2024-08-05,エフビークルトレーディング有限会社,,有限会社,熊本県,山鹿市,鹿本町下高橋字下田６５番,,43,208,8610316,,,2024-08-05,清算の結了等,,,2015-10-05,1,,,,,エフビークルトレーディング,0
1787,8370001043607,登記記録の閉鎖等,0,2024-08-19,2024-08-02,株式会社ｋｉｎｊｉ,,株式会社,宮城県,仙台市太白区,郡山８丁目３番５６号,,04,104,9820003,,,2024-08-02,清算の結了等,,,2018-10-18,1,,,,,キンジ,0
1789,8390002015066,登記記録の閉鎖等,0,2024-08-19,2024-07-19,有限会社ミクロ金型,,有限会社,山形県,長井市,五十川３７００番地,,06,209,9930072,,,2024-07-19,清算の結了等,,,2015-10-05,1,,,,,ミクロカナガタ,0
1801,8430003016141,登記記録の閉鎖等,0,2024-08-19,2024-08-14,合同会社ＥＺＯ　ＳＴＡＧ,,合同会社,北海道,沙流郡日高町,字富浜２２３番地の１０３,,01,601,0550005,,,2024-08-14,清算の結了等,,,2024-03-28,1,,,,,エゾスタッグ,0
1818,9010001224241,登記記録の閉鎖等,0,2024-08-19,2024-08-09,愛加株式会社,,株式会社,北海道,札幌市中央区,南九条西３丁目１０番地８０,,01,101,0640809,,,2024-08-09,清算の結了等,,,2022-01-31,1,,,,,アイカ,0
1821,9010003023253,登記記録の閉鎖等,0,2024-08-19,2024-08-05,石見バイオマス発電所合同会社,,合同会社,東京都,中央区,築地２丁目７番１２号,,13,102,1040045,,,2024-08-05,清算の結了等,,,2016-03-18,1,,,,,イシミバイオマスハツデンショ,0
1822,9010003024879,登記記録の閉鎖等,0,2024-08-19,2024-08-05,合同会社Ｍエステート,,合同会社,東京都,中央区,晴海３丁目１３番２－４９０１号,,13,102,1040053,,,2024-08-05,清算の結了等,,,2017-02-22,1,,,,,エムエステート,0
1843,9010803003982,登記記録の閉鎖等,0,2024-08-19,2024-08-09,Ｖ２合同会社,,合同会社,東京都,墨田区,業平２丁目１２番３号プティアムススカイツリー前１０３号,,13,107,1300002,,,2024-08-09,合併による解散等,9010803003339,令和６年８月１日東京都大田区千鳥一丁目２３番１号Ｔ＆Ｆ合同会社（9010803003339）に合併し解散,2021-12-17,1,,,,,ブイツー,0
1849,9011002000078,登記記録の閉鎖等,0,2024-08-19,2024-08-01,有限会社アール・エス・シー企画,,有限会社,東京都,新宿区,北新宿２丁目６番２９－８０２号,,13,104,1690074,,,2024-08-01,清算の結了等,,,2015-10-05,1,,,,,アールエスシーキカク,0
1865,9011801030408,登記記録の閉鎖等,0,2024-08-19,2024-08-09,株式会社アイ・ヒット研究所,,株式会社,東京都,足立区,梅島３丁目４番３４－３１０号,,13,121,1210816,,,2024-08-09,清算の結了等,,,2015-10-05,1,,,,,アイヒットケンキュウショ,0
1876,9020001137806,登記記録の閉鎖等,0,2024-08-19,2024-08-14,クリードパフォーマンス株式会社,,株式会社,東京都,新宿区,築地町２０－２,,13,104,1620818,,,2024-08-14,合併による解散等,1240001050259,令和６年８月１日広島市中区銀山町３番１号みらい株式会社（1240001050259）に合併し解散,2020-09-23,1,,,,,クリードパフォーマンス,0
1883,9021001053290,登記記録の閉鎖等,0,2024-08-19,2024-08-16,株式会社ＰＩＣ,,株式会社,神奈川県,藤沢市,鵠沼海岸７丁目２０番２４～１０３号,00012816,14,205,2510037,,,2024-08-16,清算の結了等,,,2015-10-05,1,,,,,,0
1893,9030003018763,登記記録の閉鎖等,0,2024-08-19,2024-08-09,合同会社ライフライン,,合同会社,埼玉県,さいたま市中央区,新中里１丁目１１番１８号３０２,,11,105,3380011,,,2024-08-09,清算の結了等,,,2022-02-01,1,,,,,ライフライン,0
1905,9070001025881,登記記録の閉鎖等,0,2024-08-19,2024-08-01,ロッソモデロ株式会社,,株式会社,群馬県,富岡市,上高瀬１２０３番地１２,,10,210,3702334,,,2024-08-01,合併による解散等,5070001011646,令和６年８月１日群馬県富岡市田篠５３３番地株式会社ロッソ（5070001011646）に合併し解散,2015-10-05,1,,,,,ロッソモデロ,0
1906,9070001028372,登記記録の閉鎖等,0,2024-08-19,2024-08-16,アイシーウィルサービス株式会社,,株式会社,群馬県,高崎市,上小鳥町２４２番地５ツルハイツ１０１号,,10,202,3700078,,,2024-08-16,清算の結了等,,,2015-10-05,1,,,,,アイシーウィルサービス,0
1922,9090002002928,登記記録の閉鎖等,0,2024-08-19,2024-08-06,株式会社ＭＳＵ,,株式会社,山梨県,中央市,臼井阿原１６４１番地１５,,19,214,4093844,,,2024-08-06,清算の結了等,,,2015-10-05,1,,,,,,0
1931,9110001035975,登記記録の閉鎖等,0,2024-08-19,2024-08-06,株式会社ＤＭＰ,,株式会社,新潟県,新潟市中央区,山二ツ２丁目１２番１４号１０５,,15,103,9500922,,,2024-08-06,清算の結了等,,,2021-08-16,1,,,,,ディーエムピー,0
1935,9120001101116,登記記録の閉鎖等,0,2024-08-19,2024-08-16,株式会社小倉貿易,,株式会社,大阪府,大阪市淀川区,西中島６丁目２番３号,,27,123,5320011,,,2024-08-16,清算の結了等,,,2015-10-05,1,,,,,オグラボウエキ,0
1938,9120001233074,登記記録の閉鎖等,0,2024-08-19,2024-08-16,株式会社浅一工務店,,株式会社,大阪府,大阪市生野区,生野東３丁目９番２４号,,27,116,5440025,,,2024-08-16,清算の結了等,,,2020-11-12,1,,,,,アサイチコウムテン,0
1973,9180001033584,登記記録の閉鎖等,0,2024-08-19,2024-07-22,株式会社アーバンホーム,,株式会社,愛知県,名古屋市中区,栄２丁目４番１号,,23,106,4600008,,,2024-07-22,清算の結了等,,,2023-08-09,1,,,,,アーバンホーム,0
1976,9180001146519,登記記録の閉鎖等,0,2024-08-19,2024-08-05,株式会社ＶＥＩＬ,,株式会社,愛知県,名古屋市中区,栄４丁目１６番２４号,,23,106,4600008,,,2024-08-05,清算の結了等,,,2021-06-15,1,,,,,ベール,0
1987,9180003015358,登記記録の閉鎖等,0,2024-08-19,2024-08-02,合同会社ＡＴＥＬＩＥＲ・ＫＡＴＺＥ,,合同会社,愛知県,名古屋市西区,市場木町３９５番地,,23,104,4520805,,,2024-08-02,清算の結了等,,,2015-10-05,1,,,,,アトリエカッツェ,0
1989,9180301006042,登記記録の閉鎖等,0,2024-08-19,2024-08-09,株式会社大建,,株式会社,愛知県,豊橋市,前田南町１丁目６番地の１０,,23,201,4400851,,,2024-08-09,清算の結了等,,,2015-10-05,1,,,,,ダイケン,0
1992,9190001010351,登記記録の閉鎖等,0,2024-08-19,2024-08-01,中南勢開発株式会社,,株式会社,三重県,松阪市,大黒田町３０５番地の３,,24,204,5150063,,,2024-08-01,清算の結了等,,,2015-10-05,1,,,,,チュウナンセイカイハツ,0
2000,9250005002842,登記記録の閉鎖等,0,2024-08-19,2024-08-08,一般社団法人美祢青年会議所,,その他の設立登記法人,山口県,美祢市,大嶺町東分３２０番地の３,,35,213,7592212,,,2024-08-08,清算の結了等,,,2015-10-05,1,,,,,ミネセイネンカイギショ,0
2012,9290001045602,登記記録の閉鎖等,0,2024-08-19,2024-08-01,ジェイ・イー・コーポレーション株式会社,,株式会社,福岡県,飯塚市,上三緒１２５番地の５６,,40,205,8200013,,,2024-08-01,清算の結了等,,,2015-10-05,1,,,,,ジェイイーコーポレーション,0
2020,9290002023680,登記記録の閉鎖等,0,2024-08-19,2024-07-08,有限会社九州サポートサービス,,有限会社,福岡県,福岡市東区,青葉７丁目１７番５号,,40,131,8130025,,,2024-07-08,清算の結了等,,,2015-10-05,1,,,,,キュウシュウサポートサービス,0
2034,9370001000474,登記記録の閉鎖等,0,2024-08-19,2024-08-01,一ノ蔵酒類販売株式会社,,株式会社,宮城県,仙台市泉区,市名坂字万吉前２３番の１,,04,105,9813117,,,2024-08-01,合併による解散等,4370201000031,令和６年８月１日宮城県大崎市松山千石字大欅１４番地株式会社一ノ蔵（4370201000031）に合併し解散,2015-10-05,1,,,,,イチノクラシュルイハンバイ,0
2043,9400001013670,登記記録の閉鎖等,0,2024-08-19,2024-08-05,株式会社いわてラボ,,株式会社,岩手県,岩手郡雫石町,鶯宿第６地割７番地,,03,301,0200500,,,2024-08-05,清算の結了等,,,2017-05-09,1,,,,,イワテラボ,0
2044,9430001020664,登記記録の閉鎖等,0,2024-08-19,2024-08-13,株式会社東洋管財,,株式会社,北海道,札幌市清田区,真栄二条２丁目１２番３８号,,01,110,0040832,,,2024-08-13,清算の結了等,,,2015-10-05,1,,,,,トウヨウカンザイ,0
2047,9430005005488,登記記録の閉鎖等,0,2024-08-19,2024-08-14,一般社団法人技術士リングネット,,その他の設立登記法人,北海道,石狩市,花川南五条４丁目７４番地,,01,235,0613205,,,2024-08-14,清算の結了等,,,2015-10-05,1,,,,,ギジュツシリングネット,0
