sequenceNumber,corporateNumber,process,correct,updateDate,changeDate,name,nameImageId,kind,prefectureName,cityName,streetNumber,addressImageId,prefectureCode,cityCode,postCode,addressOutside,addressOutsideImageId,closeDate,closeCause,successorCorporateNumber,changeCause,assignmentDate,latest,enName,enPrefectureName,enCityName,enAddressOutside,furigana,hihyoji
16,1010001221873,新規,0,2021-10-20,2021-10-20,株式会社ファシリテーションエンジニアリング,,株式会社,東京都,中央区,銀座７丁目１３番６号サガミビル２階,,13,102,1040061,,,,,,,2021-10-20,1,,,,,ファシリテーションエンジニアリング,0
17,1010001221881,新規,0,2021-10-20,2021-10-20,ファイブピーズホールディングス株式会社,,株式会社,東京都,千代田区,二番町９番地３,,13,101,1020084,,,,,,,2021-10-20,1,,,,,ファイブピーズホールディングス,0
18,1010001221931,新規,0,2021-10-20,2021-10-20,株式会社ヘッジホッグ・メドテック,,株式会社,東京都,中央区,日本橋堀留町１丁目７番４－９０４号,,13,102,1030012,,,,,,,2021-10-20,1,,,,,ヘッジホッグメドテック,0
23,1010003036023,新規,0,2021-10-20,2021-10-20,東日本エネルギー開発３号合同会社,,合同会社,東京都,千代田区,永田町２丁目１０番１号,,13,101,1000014,,,,,,,2021-10-20,1,,,,,ヒガシニホンエネルギーカイハツサンゴウ,0
24,1010003036056,新規,0,2021-10-20,2021-10-20,合同会社フォーエイト,,合同会社,東京都,千代田区,神田松永町１番地松屋ビル５階,,13,101,1010023,,,,,,,2021-10-20,1,,,,,フォーエイト,0
25,1010003036064,新規,0,2021-10-20,2021-10-20,合同会社加須ディベロップメント,,合同会社,東京都,千代田区,丸の内３丁目１番１号東京共同会計事務所内,,13,101,1000005,,,,,,,2021-10-20,1,,,,,カゾディベロップメント,0
28,1010005034116,新規,0,2021-10-20,2021-10-20,一般社団法人加須プロパティ,,その他の設立登記法人,東京都,千代田区,丸の内３丁目１番１号東京共同会計事務所内,,13,101,1000005,,,,,,,2021-10-20,1,,,,,カゾプロパティ,0
36,1010401163195,新規,0,2021-10-20,2021-10-20,株式会社ＨＡＲＵ,,株式会社,東京都,港区,南麻布４丁目９番３４－６０２号,,13,103,1060047,,,,,,,2021-10-20,1,,,,,ハル,0
37,1010401163344,新規,0,2021-10-20,2021-10-20,株式会社Ｃａｒｅｅｅｅｒ,,株式会社,東京都,港区,芝大門１丁目６番６号４階,,13,103,1050012,,,,,,,2021-10-20,1,,,,,キャリーア,0
38,1010403026342,新規,0,2021-10-20,2021-10-20,Ｃａｒａｖａｎ合同会社,,合同会社,東京都,港区,元麻布３丁目１番６号,,13,103,1060046,,,,,,,2021-10-20,1,,,,,キャラヴァン,0
48,1010603009205,新規,0,2021-10-20,2021-10-20,合同会社日江井不動産,,合同会社,東京都,江東区,亀戸１丁目３５番１２号,,13,108,1360071,,,,,,,2021-10-20,1,,,,,ヒエイフドウサン,0
49,1010603009213,新規,0,2021-10-20,2021-10-20,合同会社エンリネア,,合同会社,東京都,江東区,豊洲５丁目５番１８号ルミレイス豊洲１００７号室,,13,108,1350061,,,,,,,2021-10-20,1,,,,,エンリネア,0
54,1010801032413,新規,0,2021-10-20,2021-10-20,美理亜工業株式会社,,株式会社,東京都,大田区,蒲田５丁目２１番１３－３１３号,,13,111,1440052,,,,,,,2021-10-20,1,,,,,ビリアコウギョウ,0
55,1010803003924,新規,0,2021-10-20,2021-10-20,合同会社Ｇｏ　Ｇｏ　Ｈｏｍｅ,,合同会社,東京都,大田区,大森西１丁目７番９－３０１号,,13,111,1430015,,,,,,,2021-10-20,1,,,,,ゴーゴーホーム,0
58,1010903006884,新規,0,2021-10-20,2021-10-20,ファインゴ合同会社,,合同会社,東京都,世田谷区,祖師谷６丁目３－８－２０９号,,13,112,1570072,,,,,,,2021-10-20,1,,,,,ファインゴ,0
73,1011003013581,新規,0,2021-10-20,2021-10-20,ｍｏｎｏ　ｆｒａｍｅ合同会社,,合同会社,東京都,渋谷区,神宮前６丁目２３番４号桑野ビル２階,,13,113,1500001,,,,,,,2021-10-20,1,,,,,モノフレーム,0
74,1011005009272,新規,0,2021-10-20,2021-10-20,一般社団法人スマイルリリーフ,,その他の設立登記法人,東京都,渋谷区,代々木２丁目４４－１３アスティラハウス１階,,13,113,1510053,,,,,,,2021-10-20,1,,,,,スマイルリリーフ,0
78,1011101096520,新規,0,2021-10-20,2021-10-20,マミヤＩＴソリューションズ株式会社,,株式会社,東京都,新宿区,西新宿６丁目１８番１号,,13,104,1600023,,,,,,,2021-10-20,1,,,,,マミヤアイティソリューションズ,0
85,1011601025474,新規,0,2021-10-20,2021-10-20,株式会社ワイズハート,,株式会社,東京都,練馬区,大泉町２丁目１４番１７号,,13,120,1780062,,,,,,,2021-10-20,1,,,,,ワイズハート,0
86,1011603003412,新規,0,2021-10-20,2021-10-20,合同会社三八商会,,合同会社,東京都,練馬区,旭丘２丁目１２番１号テルメール旭Ｃ,,13,120,1760005,,,,,,,2021-10-20,1,,,,,サンパチショウカイ,0
87,1011703002974,新規,0,2021-10-20,2021-10-20,合同会社Ｓｅｖｅｎ　Ｐｉｇｓ,,合同会社,東京都,江戸川区,西小岩３丁目３番４号,,13,123,1330057,,,,,,,2021-10-20,1,,,,,セブンピッグス,0
88,1011801039778,新規,0,2021-10-20,2021-10-20,株式会社ＳＧＫ,,株式会社,東京都,足立区,中央本町５丁目３番７－４０３号,,13,121,1210011,,,,,,,2021-10-20,1,,,,,エスジーケー,0
91,1012701016727,新規,0,2021-10-20,2021-10-20,株式会社クリーン,,株式会社,東京都,東久留米市,滝山３丁目４番５－２階,,13,222,2030033,,,,,,,2021-10-20,1,,,,,クリーン,0
93,1013101008752,新規,0,2021-10-20,2021-10-20,株式会社ＲＩＳＥ,,株式会社,東京都,羽村市,羽加美４丁目１９番１０号,,13,227,2050016,,,,,,,2021-10-20,1,,,,,ライズ,0
107,1020003020629,新規,0,2021-10-20,2021-10-20,合同会社ｇｅｏｒｇｅ,,合同会社,神奈川県,横浜市保土ケ谷区,桜ケ丘２丁目３８番２４－２号,,14,106,2400011,,,,,,,2021-10-20,1,,,,,ジョージ,0
126,1030001144874,新規,0,2021-10-20,2021-10-20,株式会社ＲＥＳＨＡＺＡＭ,,株式会社,埼玉県,春日部市,中央５丁目９番地５春日部ドエリングＩＩＣー０１,00124625,11,214,3440067,,,,,,,2021-10-20,1,,,,,リシャザム,0
127,1030001144899,新規,0,2021-10-20,2021-10-20,株式会社岩田工業,,株式会社,埼玉県,三郷市,三郷１丁目１９番地２４,,11,237,3410024,,,,,,,2021-10-20,1,,,,,イワタコウギョウ,0
128,1030001144916,新規,0,2021-10-20,2021-10-20,株式会社Ｏｎｅ　Ａｃｒｅ,,株式会社,埼玉県,さいたま市浦和区,高砂１丁目２番１号エイペックスタワー２３０３号,,11,107,3300063,,,,,,,2021-10-20,1,,,,,ワンエーカー,0
130,1030005020592,新規,0,2021-10-20,2021-10-20,医療法人社団ｇｒｏｗｔｈ,,その他の設立登記法人,埼玉県,さいたま市岩槻区,美園東２丁目１７番地１３ウニクス浦和美園２階,,11,110,3390028,,,,,,,2021-10-20,1,,,,,グロース,0
137,1040001120692,新規,0,2021-10-20,2021-10-20,株式会社アレクシア,,株式会社,千葉県,船橋市,習志野２丁目８番２９－１０１号,,12,204,2740071,,,,,,,2021-10-20,1,,,,,アレクシア,0
140,1040003018778,新規,0,2021-10-20,2021-10-20,合同会社ＴＴＳ,,合同会社,千葉県,浦安市,富士見５丁目１２番５－１０２号,,12,227,2790043,,,,,,,2021-10-20,1,,,,,ティーティーエス,0
144,1050001050014,新規,0,2021-10-20,2021-10-20,株式会社ゲーニオン,,株式会社,茨城県,稲敷郡阿見町,岡崎１丁目３番地８グラースＩ２０２,00124621,08,443,3000335,,,,,,,2021-10-20,1,,,,,ゲーニオン,0
151,1050003006146,新規,0,2021-10-20,2021-10-20,合同会社Ｔ．Ｍ建設,,合同会社,茨城県,古河市,尾崎２８０５番地３７,,08,204,3060101,,,,,,,2021-10-20,1,,,,,ティーエムケンセツ,0
154,1080101022851,新規,0,2021-10-20,2021-10-20,株式会社ビッグウェーブＮＥＸＴ,,株式会社,静岡県,富士宮市,淀平町８２３番地の１,,22,207,4180052,,,,,,,2021-10-20,1,,,,,ビッグウェーブネクスト,0
155,1080401025430,新規,0,2021-10-20,2021-10-20,株式会社ＪＯＲＤＡＮ　ＢＥＬＦＯＲＴ,,株式会社,静岡県,浜松市中区,鴨江２丁目３９番２－５号カシータスカイＣ,,22,131,4328023,,,,,,,2021-10-20,1,,,,,ジョーダンベルフォート,0
156,1080403004390,新規,0,2021-10-20,2021-10-20,ＣＥＹＬＯＮ　ＫＩＴＣＨＥＮ合同会社,,合同会社,静岡県,袋井市,湊２３８番地の２Ｂ－２０１,,22,216,4371115,,,,,,,2021-10-20,1,,,,,シロンキッチン,0
161,1110001036130,新規,0,2021-10-20,2021-10-20,輪太屋商会株式会社,,株式会社,新潟県,上越市,頸城区松橋字砂原４９１番２２,,15,222,9420156,,,,,,,2021-10-20,1,,,,,ワタヤショウカイ,0
173,1120001240953,新規,0,2021-10-20,2021-10-20,株式会社ｇｉｒａｆｆｅ　ｒｅｓｏｒｔ,,株式会社,大阪府,大阪市中央区,宗右衛門町７番９号宗右衛門町ビル,,27,128,5420084,,,,,,,2021-10-20,1,,,,,ジラフリゾート,0
176,1120003020420,新規,0,2021-10-20,2021-10-20,ＳＵＮＮＹ合同会社,,合同会社,大阪府,大阪市浪速区,下寺２丁目６番２４－４０３号,,27,111,5560001,,,,,,,2021-10-20,1,,,,,サンニー,0
177,1120003020445,新規,0,2021-10-20,2021-10-20,合同会社ロクナナ,,合同会社,大阪府,守口市,京阪本通１丁目１０番３２号メロディーハイム守口５３７,,27,209,5700083,,,,,,,2021-10-20,1,,,,,ロクナナ,0
180,1120103004406,新規,0,2021-10-20,2021-10-20,合同会社ＧＥＴＴ,,合同会社,大阪府,堺市堺区,柏木町２丁１－２０－５１７,,27,141,5900837,,,,,,,2021-10-20,1,,,,,ゲット,0
181,1120901045080,新規,0,2021-10-20,2021-10-20,株式会社ＫＫホールディングス,,株式会社,大阪府,吹田市,佐竹台１丁目２番１６号１１０５号室,,27,205,5650855,,,,,,,2021-10-20,1,,,,,ケーケーホールディングス,0
195,1140001123520,新規,0,2021-10-20,2021-10-20,ビジョンプランニング株式会社,,株式会社,兵庫県,尼崎市,塚口本町１丁目３２番１８号,,28,202,6610001,,,,,,,2021-10-20,1,,,,,ビジョンプランニング,0
198,1140003016887,新規,0,2021-10-20,2021-10-20,合同会社ライオン企画,,合同会社,兵庫県,神戸市東灘区,魚崎南町５丁目５番１２－１１１５号,,28,101,6580025,,,,,,,2021-10-20,1,,,,,ライオンキカク,0
208,1180001148365,新規,0,2021-10-20,2021-10-20,株式会社プロフィットジャパン,,株式会社,愛知県,清須市,春日屋敷４３番地,,23,233,4520961,,,,,,,2021-10-20,1,,,,,プロフィットジャパン,0
229,1240003005310,新規,0,2021-10-20,2021-10-20,オイスターヨットクラブ合同会社,,合同会社,広島県,広島市南区,仁保３丁目７番１８号,,34,103,7340026,,,,,,,2021-10-20,1,,,,,オイスターヨットクラブ,0
231,1260001036074,新規,0,2021-10-20,2021-10-20,柴田電器株式会社,,株式会社,岡山県,岡山市北区,平野３６１番地５,,33,101,7010151,,,,,,,2021-10-20,1,,,,,シバタデンキ,0
249,1290001095027,新規,0,2021-10-20,2021-10-20,株式会社Ｇｌｏｂａｌ　Ｃｏｍｍｅｒｃｅ,,株式会社,福岡県,福岡市博多区,博多駅東２丁目１８番２８－８０１号,,40,132,8120013,,,,,,,2021-10-20,1,,,,,グローバルコマース,0
250,1290001095051,新規,0,2021-10-20,2021-10-20,株式会社リアン,,株式会社,福岡県,春日市,上白水１０丁目１５４番地,,40,218,8160844,,,,,,,2021-10-20,1,,,,,リアン,0
251,1290001095092,新規,0,2021-10-20,2021-10-20,株式会社双電エレクトロ,,株式会社,福岡県,福岡市早良区,田隈２丁目２０番１２号,,40,137,8140174,,,,,,,2021-10-20,1,,,,,ソウデンエレクトロ,0
257,1290003011717,新規,0,2021-10-20,2021-10-20,合同会社ピケポップ,,合同会社,福岡県,古賀市,千鳥２丁目２８番４－２号（ＲｉｚエクリュＣ号）,,40,223,8113113,,,,,,,2021-10-20,1,,,,,ピケポップ,0
258,1290003011725,新規,0,2021-10-20,2021-10-20,合同会社Ｌｕｍｉｎｕｓ,,合同会社,福岡県,福岡市博多区,相生町３丁目３番４３－２０５号,,40,132,8120885,,,,,,,2021-10-20,1,,,,,ルミナス,0
261,1290801027914,新規,0,2021-10-20,2021-10-20,ｉＳＤ株式会社,,株式会社,福岡県,北九州市小倉北区,浅野３丁目８番１号ＡＩＭビル６階,,40,106,8020001,,,,,,,2021-10-20,1,,,,,アイエスディー,0
271,1330001029087,新規,0,2021-10-20,2021-10-20,株式会社アソビココロ,,株式会社,熊本県,菊池郡菊陽町,大字津久礼２３８８番地６,,43,404,8691101,,,,,,,2021-10-20,1,,,,,アソビココロ,0
274,1330003009095,新規,0,2021-10-20,2021-10-20,合同会社絆,00124631,合同会社,熊本県,下益城郡美里町,土喰１９番地,,43,348,8614721,,,,,,,2021-10-20,1,,,,,キズナ,0
281,1340003003601,新規,0,2021-10-20,2021-10-20,合同会社かざあな,,合同会社,鹿児島県,鹿児島市,平川町５７７８番地,,46,201,8910133,,,,,,,2021-10-20,1,,,,,カザアナ,0
285,1360001029514,新規,0,2021-10-20,2021-10-20,株式会社ＺＥＸ,,株式会社,沖縄県,石垣市,字川平１０３３番地５６,,47,207,9070453,,,,,,,2021-10-20,1,,,,,ゼックス,0
287,1360003011503,新規,0,2021-10-20,2021-10-20,合同会社石垣島好き好きツアーズ,,合同会社,沖縄県,石垣市,字真栄里２０４－３２ディライト１０３,,47,207,9070002,,,,,,,2021-10-20,1,,,,,イシガキジマスキスキツアーズ,0
298,1380003005032,新規,0,2021-10-20,2021-10-20,合同会社エスティワークス,,合同会社,福島県,郡山市,香久池２丁目１８番１６号,,07,203,9638833,,,,,,,2021-10-20,1,,,,,エスティワークス,0
302,1400001015641,新規,0,2021-10-20,2021-10-20,株式会社縁,,株式会社,岩手県,盛岡市,津志田南２丁目１１番２２号,,03,201,0200839,,,,,,,2021-10-20,1,,,,,エン,0
311,1430001085211,新規,0,2021-10-20,2021-10-20,札幌スマイル引越センター株式会社,,株式会社,北海道,札幌市中央区,南一条東３丁目９－１Ｆ０１３－７０３号室,,01,101,0600051,,,,,,,2021-10-20,1,,,,,サッポロスマイルヒッコシセンター,0
314,1470001018778,新規,0,2021-10-20,2021-10-20,株式会社つむぎ建築工房,,株式会社,香川県,高松市,下田井町５３０番地４,,37,201,7610313,,,,,,,2021-10-20,1,,,,,ツムギケンチクコウボウ,0
326,2010003036022,新規,0,2021-10-20,2021-10-20,東日本エネルギー開発２号合同会社,,合同会社,東京都,千代田区,永田町２丁目１０番１号,,13,101,1000014,,,,,,,2021-10-20,1,,,,,ヒガシニホンエネルギーカイハツニゴウ,0
327,2010003036063,新規,0,2021-10-20,2021-10-20,合同会社オルタナ７,,合同会社,東京都,千代田区,丸の内３丁目１番１号東京共同会計事務所内,,13,101,1000005,,,,,,,2021-10-20,1,,,,,オルタナセブン,0
330,2010005034115,新規,0,2021-10-20,2021-10-20,一般社団法人オルナナ,,その他の設立登記法人,東京都,千代田区,丸の内３丁目１番１号東京共同会計事務所内,,13,101,1000005,,,,,,,2021-10-20,1,,,,,オルナナ,0
342,2010403026341,新規,0,2021-10-20,2021-10-20,ｕＶｕ－ｌａ合同会社,,合同会社,東京都,港区,南青山５丁目６－４ハイトリオ２０２,,13,103,1070062,,,,,,,2021-10-20,1,,,,,ウヴラ,0
347,2010701041645,新規,0,2021-10-20,2021-10-20,株式会社フォーブル,,株式会社,東京都,品川区,豊町２丁目１８番２－４０８号,,13,109,1420042,,,,,,,2021-10-20,1,,,,,フォーブル,0
348,2010801032420,新規,0,2021-10-20,2021-10-20,株式会社ＢＲＵＮ,,株式会社,東京都,大田区,蒲田５丁目４０－１１－１５０１,,13,111,1440052,,,,,,,2021-10-20,1,,,,,ブラウン,0
349,2010803003923,新規,0,2021-10-20,2021-10-20,やすまつ人事労務コンサルティング合同会社,,合同会社,東京都,大田区,西嶺町３３番１１－２０３号,,13,111,1450075,,,,,,,2021-10-20,1,,,,,ヤスマツジンジロウムコンサルティング,0
353,2010901049505,新規,0,2021-10-20,2021-10-20,株式会社エム・エー・エヌ,,株式会社,東京都,世田谷区,駒沢２丁目７－１ＨＦ駒沢公園レジデンスタワー１１０３,,13,112,1540012,,,,,,,2021-10-20,1,,,,,エムエーエヌ,0
360,2011001143231,新規,0,2021-10-20,2021-10-20,エス・ピー・シー・商事株式会社,,株式会社,東京都,渋谷区,広尾１丁目１番３３号,,13,113,1500012,,,,,,,2021-10-20,1,,,,,エスピーシーショウジ,0
361,2011001143495,新規,0,2021-10-20,2021-10-20,株式会社Ｐ６１,,株式会社,東京都,目黒区,青葉台１丁目７番１４－４０３号,,13,110,1530042,,,,,,,2021-10-20,1,,,,,パシフィック,0
374,2011401023768,新規,0,2021-10-20,2021-10-20,株式会社ＩＳＨＩＺＵＥ,,株式会社,東京都,板橋区,大谷口２丁目４６－２,,13,119,1730035,,,,,,,2021-10-20,1,,,,,イシズエ,0
375,2011401023776,新規,0,2021-10-20,2021-10-20,株式会社Ｎｏｖａｌｉｓ,,株式会社,東京都,板橋区,熊野町７番４－９０５号ＢＲＩＬＬＩＡＮＴＴＯＤＡＹ,,13,119,1730025,,,,,,,2021-10-20,1,,,,,ノヴァリス,0
381,2011801039851,新規,0,2021-10-20,2021-10-20,富海株式会社,,株式会社,東京都,足立区,竹の塚５丁目３６番１８号,,13,121,1210813,,,,,,,2021-10-20,1,,,,,トミカイ,0
384,2011803004837,新規,0,2021-10-20,2021-10-20,合同会社ＭＫｓｔｙｌｅ,,合同会社,東京都,足立区,扇３丁目１９番－５－４０２号,,13,121,1230873,,,,,,,2021-10-20,1,,,,,エムケイスタイル,0
392,2012405004655,新規,0,2021-10-20,2021-10-20,一般社団法人ファンド投資サポート,,その他の設立登記法人,東京都,武蔵野市,境南町５丁目２番７号,,13,203,1800023,,,,,,,2021-10-20,1,,,,,ファンドトウシサポート,0
412,2020003020660,新規,0,2021-10-20,2021-10-20,Ｍプログレス合同会社,,合同会社,神奈川県,横浜市西区,桜木町７丁目４５番２号横浜高島タウンハイツ２階,,14,103,2200021,,,,,,,2021-10-20,1,,,,,エムプログレス,0
413,2020003020685,新規,0,2021-10-20,2021-10-20,Ｍｅａｇｌｅ合同会社,,合同会社,神奈川県,横浜市港南区,上大岡東１丁目１２番１３号ウィステリア上大岡５０３,,14,111,2330001,,,,,,,2021-10-20,1,,,,,ミーグル,0
417,2021001074269,新規,0,2021-10-20,2021-10-20,株式会社Ｏ　ＢＬＡＮＣ,,株式会社,神奈川県,鎌倉市,扇ガ谷１丁目７番１号,,14,204,2480011,,,,,,,2021-10-20,1,,,,,オーブラン,0
428,2030001144799,新規,0,2021-10-20,2021-10-20,株式会社恵工房,,株式会社,埼玉県,春日部市,銚子口５４２,,11,214,3440013,,,,,,,2021-10-20,1,,,,,メグミコウボウ,0
429,2030001144923,新規,0,2021-10-20,2021-10-20,株式会社クリンクル,,株式会社,埼玉県,春日部市,大畑３４－１－２階,,11,214,3440022,,,,,,,2021-10-20,1,,,,,クリンクル,0
434,2030003018150,新規,0,2021-10-20,2021-10-20,合同会社マルコンデザイン,,合同会社,埼玉県,さいたま市南区,別所６丁目１７番８号１２０３,,11,108,3360021,,,,,,,2021-10-20,1,,,,,マルコンデザイン,0
445,2040001120675,新規,0,2021-10-20,2021-10-20,株式会社Ｂ－ＫＩＮＧ,,株式会社,千葉県,浦安市,東野３丁目３４番８号,,12,227,2790042,,,,,,,2021-10-20,1,,,,,ビーキング,0
447,2040003018785,新規,0,2021-10-20,2021-10-20,合同会社アドバンス,,合同会社,千葉県,八千代市,緑が丘西４丁目５－８,,12,221,2760040,,,,,,,2021-10-20,1,,,,,アドバンス,0
448,2040005021390,新規,0,2021-10-20,2021-10-20,一般社団法人Ｕｎｉｑｕｅ,,その他の設立登記法人,千葉県,船橋市,浜町２丁目３番３１－１３０５号,,12,204,2730012,,,,,,,2021-10-20,1,,,,,ユニーク,0
458,2080001024518,新規,0,2021-10-20,2021-10-20,二立産業株式会社,,株式会社,静岡県,静岡市葵区,西草深町６番３９号,,22,101,4200866,,,,,,,2021-10-20,1,,,,,ニタツサンギョウ,0
460,2080101022850,新規,0,2021-10-20,2021-10-20,里山野菜株式会社,,株式会社,静岡県,富士市,柚木６０番地の５,,22,210,4160908,,,,,,,2021-10-20,1,,,,,サトヤマヤサイ,0
483,2120001241249,新規,0,2021-10-20,2021-10-20,株式会社ベッセル,,株式会社,大阪府,大阪市北区,梅田２丁目５番１３号桜橋第一ビル３０４号,,27,127,5300001,,,,,,,2021-10-20,1,,,,,ベッセル,0
484,2120001241307,新規,0,2021-10-20,2021-10-20,株式会社ＳＡＶＥＧＥ,,株式会社,大阪府,大阪市西区,南堀江４丁目９番３６－７０３号,,27,106,5500015,,,,,,,2021-10-20,1,,,,,サベージ,0
486,2120003020452,新規,0,2021-10-20,2021-10-20,合同会社ＳＭＴ　ＭＡＲＶＥＬＯＵＳ,,合同会社,大阪府,大阪市住之江区,御崎３丁目６番１１号レジオン住之江パークプレイス１３０６号室,,27,125,5590013,,,,,,,2021-10-20,1,,,,,エスエムティマーベラス,0
494,2120101064517,新規,0,2021-10-20,2021-10-20,アスリンク株式会社,,株式会社,大阪府,貝塚市,石才３６番地１,,27,208,5970082,,,,,,,2021-10-20,1,,,,,アスリンク,0
498,2122001035275,新規,0,2021-10-20,2021-10-20,ＩＫＵＺＯ株式会社,,株式会社,大阪府,東大阪市,加納５丁目１６番１８号,,27,227,5780901,,,,,,,2021-10-20,1,,,,,イクゾ,0
505,2130005016299,新規,0,2021-10-20,2021-10-20,医療法人泰斗会,,その他の設立登記法人,京都府,長岡京市,長岡２丁目１番４１号,,26,209,6170823,,,,,,,2021-10-20,1,,,,,タイトカイ,0
509,2140001123552,新規,0,2021-10-20,2021-10-20,株式会社モフーズ,,株式会社,兵庫県,神戸市灘区,城内通５丁目５番２３－８０４号,,28,102,6570836,,,,,,,2021-10-20,1,,,,,モフーズ,0
517,2150003002522,新規,0,2021-10-20,2021-10-20,ベルエポック合同会社,,合同会社,奈良県,北葛城郡王寺町,本町２丁目２２番９号,,29,425,6360012,,,,,,,2021-10-20,1,,,,,ベルエポック,0
531,2180001148323,新規,0,2021-10-20,2021-10-20,株式会社ファーストアップス,,株式会社,愛知県,名古屋市千種区,鹿子町３丁目２８番地１サーディアム本山３０５,,23,101,4640033,,,,,,,2021-10-20,1,,,,,ファーストアップス,0
532,2180001148331,新規,0,2021-10-20,2021-10-20,株式会社知多工機,,株式会社,愛知県,知多郡東浦町,大字生路字池下６１番地の９ピボットマンション池下５０６号,,23,442,4702104,,,,,,,2021-10-20,1,,,,,チタコウキ,0
533,2180001148372,新規,0,2021-10-20,2021-10-20,株式会社カマルインターナショナル,,株式会社,愛知県,知多市,新舞子字南西田２９番地の１,,23,224,4780036,,,,,,,2021-10-20,1,,,,,カマルインターナショナル,0
534,2180001148380,新規,0,2021-10-20,2021-10-20,株式会社ラクリア,,株式会社,愛知県,犬山市,大字羽黒字堂ケ洞１０番地３,,23,215,4840894,,,,,,,2021-10-20,1,,,,,ラクリア,0
535,2180001148389,新規,0,2021-10-20,2021-10-20,株式会社みなと,,株式会社,愛知県,名古屋市東区,相生町８３番地,,23,102,4610012,,,,,,,2021-10-20,1,,,,,ミナト,0
542,2180301035535,新規,0,2021-10-20,2021-10-20,株式会社ＥＡＳＴ,,株式会社,愛知県,岡崎市,福岡町字通長３３番地１５,,23,202,4440825,,,,,,,2021-10-20,1,,,,,イースト,0
552,2220001024486,新規,0,2021-10-20,2021-10-20,株式会社Ｋプランニング,,株式会社,石川県,金沢市,額乙丸町ニ５４番地１４,,17,201,9218146,,,,,,,2021-10-20,1,,,,,ケープランニング,0
575,2290001095026,新規,0,2021-10-20,2021-10-20,株式会社Ｍ’ｓ　ｆｏｏｄ,,株式会社,福岡県,福岡市博多区,博多駅東２丁目１８番２８－８０１号,,40,132,8120013,,,,,,,2021-10-20,1,,,,,エムズフード,0
576,2290003011732,新規,0,2021-10-20,2021-10-20,合同会社ライクユー,,合同会社,福岡県,福岡市中央区,今泉１丁目１８番１３－２０１号ラ・レジダンス・ド・天神,,40,133,8100021,,,,,,,2021-10-20,1,,,,,ライクユー,0
585,2330003009094,新規,0,2021-10-20,2021-10-20,合同会社クリーンサービス川尻,,合同会社,熊本県,熊本市南区,八幡１１丁目１５－１４,,43,104,8614113,,,,,,,2021-10-20,1,,,,,クリーンサービスカワシリ,0
586,2330005010414,新規,0,2021-10-20,2021-10-20,一般社団法人慈徳会,,その他の設立登記法人,熊本県,阿蘇市,三久保５７８番地４,,43,214,8692302,,,,,,,2021-10-20,1,,,,,ジトクカイ,0
611,2390001016640,新規,0,2021-10-20,2021-10-20,株式会社たきなみ,,株式会社,山形県,米沢市,金池５丁目１３番４２号,,06,202,9920012,,,,,,,2021-10-20,1,,,,,タキナミ,0
613,2430001085185,新規,0,2021-10-20,2021-10-20,株式会社希和,,株式会社,北海道,札幌市西区,発寒四条３丁目１番２号,,01,107,0630824,,,,,,,2021-10-20,1,,,,,ノワ,0
618,2440001008962,新規,0,2021-10-20,2021-10-20,株式会社十字屋建物,,株式会社,北海道,函館市,千代台町２６番１６号,,01,202,0400013,,,,,,,2021-10-20,1,,,,,ジュウジヤタテモノ,0
625,2700150105410,新規,0,2021-10-20,2021-10-20,ＭＡＵＧＨＡＮ　ＭＩＬＬＥＮＮＩＡ　ＴＲＵＳＴ,,外国会社等,,,,,,,,７５０１　Ｅ　ＭｃＣｏｒｍｉｃｋ　Ｐｋｗｙ　Ｓｃｏｔｔｓｄａｌｅ，Ａｒｉｚｏｎａ　８５２５８　ＵＳＡ,,,,,,2021-10-20,1,,,,,モーガンミレニアトラスト,0
638,3010005034089,新規,0,2021-10-20,2021-10-20,一般社団法人橋をかける基金,,その他の設立登記法人,東京都,中央区,銀座３丁目９番１１号,,13,102,1040061,,,,,,,2021-10-20,1,,,,,ハシヲカケルキキン,0
643,3010401163342,新規,0,2021-10-20,2021-10-20,Ｕｐｓｔｒｅａｍ　Ｓｅｃｕｒｉｔｙ株式会社,,株式会社,東京都,港区,赤坂２丁目１１番７号ＡＴＴ新館１１階Ｍａｚａｒｓ・Ｊａｐａｎ株式会社内,,13,103,1070052,,,,,,,2021-10-20,1,,,,,アップストリームセキュリティ,0
644,3010401163350,新規,0,2021-10-20,2021-10-20,株式会社如意,,株式会社,東京都,港区,三田１丁目６番３－２９０４号,,13,103,1080073,,,,,,,2021-10-20,1,,,,,ニョイ,0
645,3010401163367,新規,0,2021-10-20,2021-10-20,株式会社ＲＡＷ．,,株式会社,東京都,港区,南青山５丁目１１番２４号２Ｆ,,13,103,1070062,,,,,,,2021-10-20,1,,,,,ロウ,0
646,3010401163375,新規,0,2021-10-20,2021-10-20,株式会社上園商店,,株式会社,東京都,港区,浜松町１丁目１３－２－４０２,,13,103,1050013,,,,,,,2021-10-20,1,,,,,ウエゾノショウテン,0
647,3010401163391,新規,0,2021-10-20,2021-10-20,Ｃｉｔｃｏｎ　Ｊａｐａｎ株式会社,,株式会社,東京都,港区,南麻布３丁目１９番２３号オーク南麻布ビル２階,,13,103,1060047,,,,,,,2021-10-20,1,,,,,シトコンジャパン,0
653,3010505003270,新規,0,2021-10-20,2021-10-20,一般社団法人日本天然ガス輸送システム協会,,その他の設立登記法人,東京都,台東区,浅草橋４丁目８番５号,,13,106,1110053,,,,,,,2021-10-20,1,,,,,ニホンテンネンガスユソウシステムキョウカイ,0
656,3010601060100,新規,0,2021-10-20,2021-10-20,株式会社ＡＮＥＸＴ,,株式会社,東京都,江東区,古石場２丁目１３番９号,,13,108,1350045,,,,,,,2021-10-20,1,,,,,エーネクスト,0
664,3010803003922,新規,0,2021-10-20,2021-10-20,合同会社Ｋ．Ｊ,,合同会社,東京都,大田区,山王２丁目３番９－３０４号,,13,111,1430023,,,,,,,2021-10-20,1,,,,,ケージェイ,0
666,3010901049644,新規,0,2021-10-20,2021-10-20,株式会社ハッピーランド,,株式会社,東京都,世田谷区,上馬４丁目３８番１０号,,13,112,1540011,,,,,,,2021-10-20,1,,,,,ハッピーランド,0
674,3011001143230,新規,0,2021-10-20,2021-10-20,エス・ピー・シー・通商株式会社,,株式会社,東京都,渋谷区,広尾１丁目１番３３号,,13,113,1500012,,,,,,,2021-10-20,1,,,,,エスピーシーツウショウ,0
675,3011001143486,新規,0,2021-10-20,2021-10-20,株式会社Ｍｓ．,,株式会社,東京都,目黒区,青葉台１丁目２８番３号エルアルカサル中目黒２階,,13,110,1530042,,,,,,,2021-10-20,1,,,,,ミス,0
676,3011001143503,新規,0,2021-10-20,2021-10-20,株式会社ＺＥＫＫ,,株式会社,東京都,渋谷区,渋谷２丁目１９番１５号宮益坂ビルディング６０９,,13,113,1500002,,,,,,,2021-10-20,1,,,,,ゼック,0
679,3011003013522,新規,0,2021-10-20,2021-10-20,合同会社Ｎｏ．１００,,合同会社,東京都,渋谷区,渋谷２丁目１９－１５宮益坂ビルディング６０９,,13,113,1500002,,,,,,,2021-10-20,1,,,,,ナンバーヒャク,0
680,3011005009270,新規,0,2021-10-20,2021-10-20,ザイムワークス社会保険労務士法人,,その他の設立登記法人,東京都,渋谷区,広尾１丁目１番３５号マンション広尾台４１２,,13,113,1500012,,,,,,,2021-10-20,1,,,,,ザイムワークス,0
684,3011105010021,新規,0,2021-10-20,2021-10-20,特定非営利活動法人Ｇｒａｔｅｆｕｌ　ｔｏ　ｙｏｕ,,その他の設立登記法人,東京都,新宿区,新宿１丁目３６番２号第七葉山ビル３階,,13,104,1600022,,,,,,,2021-10-20,1,,,,,グレートフルトゥーユー,0
688,3011401023775,新規,0,2021-10-20,2021-10-20,株式会社ナガサワサービス,,株式会社,東京都,板橋区,西台１丁目１２番９－３０８号,,13,119,1740045,,,,,,,2021-10-20,1,,,,,ナガサワサービス,0
689,3011403003478,新規,0,2021-10-20,2021-10-20,合同会社ＯＮＥ　ＣＲＡＦＴ,,合同会社,東京都,板橋区,高島平１丁目２８番１号,,13,119,1750082,,,,,,,2021-10-20,1,,,,,ワンクラフト,0
691,3011601025480,新規,0,2021-10-20,2021-10-20,株式会社ＪＩＴ,,株式会社,東京都,練馬区,大泉町４丁目４４番１２号,,13,120,1780062,,,,,,,2021-10-20,1,,,,,ジェイアイティ,0
699,3012403005076,新規,0,2021-10-20,2021-10-20,合同会社はらひで,,合同会社,東京都,三鷹市,下連雀８丁目４番１４号メイツ吉祥寺南７０２,,13,204,1810013,,,,,,,2021-10-20,1,,,,,ハラヒデ,0
713,3020003020676,新規,0,2021-10-20,2021-10-20,合同会社なかよし企画,,合同会社,神奈川県,横浜市都筑区,南山田２丁目１１番１６号,,14,118,2240029,,,,,,,2021-10-20,1,,,,,ナカヨシキカク,0
714,3020003020684,新規,0,2021-10-20,2021-10-20,Ｊａｐａｎ４ｗｏｒｌｄ合同会社,,合同会社,神奈川県,川崎市幸区,戸手４丁目３番４号フロール川崎戸手４番館３０３号室,,14,132,2120005,,,,,,,2021-10-20,1,,,,,ジャパンフォーワールド,0
727,3030001144872,新規,0,2021-10-20,2021-10-20,よろず商工店株式会社,,株式会社,埼玉県,所沢市,北有楽町４番３号昭和ビル２０１号室,,11,208,3591114,,,,,,,2021-10-20,1,,,,,ヨロズショウコウテン,0
728,3030001144906,新規,0,2021-10-20,2021-10-20,株式会社建機ソリューションしのざき,,株式会社,埼玉県,深谷市,上野台１３１７番地１,,11,218,3660801,,,,,,,2021-10-20,1,,,,,ケンキソリューションシノザキ,0
729,3030001144914,新規,0,2021-10-20,2021-10-20,昼間工業株式会社,,株式会社,埼玉県,八潮市,大字大曽根１０４番地,,11,234,3400834,,,,,,,2021-10-20,1,,,,,ヒルマコウギョウ,0
730,3030001144922,新規,0,2021-10-20,2021-10-20,栄和商事株式会社,,株式会社,埼玉県,さいたま市桜区,栄和３丁目１８番１１－２号,,11,106,3380823,,,,,,,2021-10-20,1,,,,,エイワショウジ,0
745,3040001120393,新規,0,2021-10-20,2021-10-20,サン・ソリューションズ株式会社,,株式会社,千葉県,市川市,市川２丁目２６番２４号,,12,203,2720034,,,,,,,2021-10-20,1,,,,,サンソリューションズ,0
746,3040001120658,新規,0,2021-10-20,2021-10-20,株式会社コネクト・ブリッジ,,株式会社,千葉県,松戸市,金ケ作３０６番地の２２５,,12,207,2702251,,,,,,,2021-10-20,1,,,,,コネクトブリッジ,0
747,3040001120674,新規,0,2021-10-20,2021-10-20,新日本ＳＫ管理株式会社,,株式会社,千葉県,白井市,西白井３丁目７番地３６,,12,232,2701408,,,,,,,2021-10-20,1,,,,,シンニホンエスケーカンリ,0
751,3040003018660,新規,0,2021-10-20,2021-10-20,ワールドトレーディング合同会社,,合同会社,千葉県,習志野市,谷津５丁目３６番１８号２１１号室,,12,216,2750026,,,,,,,2021-10-20,1,,,,,ワールドトレーディング,0
752,3040003018751,新規,0,2021-10-20,2021-10-20,ライフ・インターナショナル合同会社,,合同会社,千葉県,東金市,上谷１８０８番地１１,,12,213,2830046,,,,,,,2021-10-20,1,,,,,ライフインターナショナル,0
755,3060001034212,新規,0,2021-10-20,2021-10-20,ハウスウェル宇都宮株式会社,,株式会社,栃木県,宇都宮市,大通り５丁目３番５号,,09,201,3200811,,,,,,,2021-10-20,1,,,,,ハウスウェルウツノミヤ,0
760,3080103002387,新規,0,2021-10-20,2021-10-20,Ｈ＆Ｏジャパン合同会社,,合同会社,静岡県,三島市,南町８－４,,22,206,4110842,,,,,,,2021-10-20,1,,,,,エイチアンドオージャパン,0
769,3110003004604,新規,0,2021-10-20,2021-10-20,合同会社Ｏ・Ｋ・Ｅ,,合同会社,新潟県,南魚沼郡湯沢町,大字湯沢２５１３番地３,,15,461,9496101,,,,,,,2021-10-20,1,,,,,オーケーイー,0
780,3120001241297,新規,0,2021-10-20,2021-10-20,株式会社ＡＮＺ,,株式会社,大阪府,大阪市此花区,朝日２丁目１８番８号３Ｆ－６１１,,27,104,5540011,,,,,,,2021-10-20,1,,,,,アンズ,0
790,3120101064508,新規,0,2021-10-20,2021-10-20,株式会社Ｚ－ＥＮＤＡ,,株式会社,大阪府,堺市中区,平井８７３番地６,,27,142,5998251,,,,,,,2021-10-20,1,,,,,ゼンダ,0
799,3130001070349,新規,0,2021-10-20,2021-10-20,株式会社京友,,株式会社,京都府,京都市西京区,大枝沓掛町９番地３藤和ライブタウン洛西６０９,,26,111,6101106,,,,,,,2021-10-20,1,,,,,キョウユウ,0
801,3130003007555,新規,0,2021-10-20,2021-10-20,合同会社オリオン,,合同会社,京都府,京都市上京区,今出川通烏丸東入相国寺門前町６４７番地８,,26,102,6020898,,,,,,,2021-10-20,1,,,,,オリオン,0
809,3140001123485,新規,0,2021-10-20,2021-10-20,株式会社ＰＪ　Ｄｒｅａｍ,,株式会社,兵庫県,神戸市中央区,八幡通４丁目２番１２号カサベラＦＲＩＩビル１０Ｆ,00124630,28,110,6510085,,,,,,,2021-10-20,1,,,,,ピージェードリーム,0
814,3150001025037,新規,0,2021-10-20,2021-10-20,ピットストリート株式会社,,株式会社,奈良県,奈良市,六条緑町１丁目５番５号,,29,201,6308045,,,,,,,2021-10-20,1,,,,,ピットストリート,0
824,3180001148355,新規,0,2021-10-20,2021-10-20,ジョイジョイランド株式会社,,株式会社,愛知県,大府市,東新町３丁目８８番地,,23,223,4740073,,,,,,,2021-10-20,1,,,,,ジョイジョイランド,0
825,3180001148396,新規,0,2021-10-20,2021-10-20,株式会社林組,,株式会社,愛知県,日進市,米野木町仲田９番地,,23,230,4700111,,,,,,,2021-10-20,1,,,,,ハヤシグミ,0
839,3220001024485,新規,0,2021-10-20,2021-10-20,株式会社龍門,,株式会社,石川県,河北郡内灘町,字向粟崎２丁目３５２番地２,,17,365,9200274,,,,,,,2021-10-20,1,,,,,リュウモン,0
842,3230001019039,新規,0,2021-10-20,2021-10-20,株式会社ＷＨＯＬＥＮＩＮＥ,,株式会社,富山県,富山市,婦中町麦島７９番地３,,16,201,9392754,,,,,,,2021-10-20,1,,,,,ホールナイン,0
844,3240001058779,新規,0,2021-10-20,2021-10-20,株式会社スモールプラス,,株式会社,広島県,広島市中区,基町１１－１０合人社広島紙屋町ビル８階－Ｅ０２,,34,101,7300011,,,,,,,2021-10-20,1,,,,,スモールプラス,0
865,3290801027920,新規,0,2021-10-20,2021-10-20,濱野建設株式会社,,株式会社,福岡県,北九州市八幡西区,椋枝２丁目８番１２号,,40,109,8071115,,,,,,,2021-10-20,1,,,,,ハマノケンセツ,0
867,3290803003944,新規,0,2021-10-20,2021-10-20,フィッシュファームみらい合同会社,,合同会社,福岡県,豊前市,大字八屋２４６３－９（豊前発電所内）,,40,214,8280021,,,,,,,2021-10-20,1,,,,,フィッシュファームミライ,0
872,3320001018675,新規,0,2021-10-20,2021-10-20,スーパーノヴァジャパン株式会社,,株式会社,大分県,別府市,上田の湯町１２番２６号,,44,202,8740908,,,,,,,2021-10-20,1,,,,,スーパーノヴァジャパン,0
875,3330003009093,新規,0,2021-10-20,2021-10-20,合同会社ライフぷらす,,合同会社,熊本県,熊本市東区,新南部５丁目６番１００ー２０３号,,43,102,8618028,,,,,,,2021-10-20,1,,,,,ライフプラス,0
876,3330005010413,新規,0,2021-10-20,2021-10-20,一般社団法人熊本県ドローン産業推進協議会,,その他の設立登記法人,熊本県,熊本市中央区,安政町８番１６号村瀬海運ビル８０１号,,43,101,8600801,,,,,,,2021-10-20,1,,,,,クマモトケンドローンサンギョウスイシンキョウギカイ,0
881,3350001017369,新規,0,2021-10-20,2021-10-20,株式会社協和電機,,株式会社,宮崎県,宮崎市,清武町今泉甲３６６６番地,,45,201,8891602,,,,,,,2021-10-20,1,,,,,キョウワデンキ,0
887,3360001029520,新規,0,2021-10-20,2021-10-20,株式会社上原オート,,株式会社,沖縄県,うるま市,字高江洲１０４１番地稲福アパート２０１,,47,213,9042242,,,,,,,2021-10-20,1,,,,,ウエハラオート,0
900,3430001085176,新規,0,2021-10-20,2021-10-20,株式会社リドミー,,株式会社,北海道,札幌市白石区,本通２丁目北７番２５号,,01,104,0030027,,,,,,,2021-10-20,1,,,,,リドミー,0
920,4010001221862,新規,0,2021-10-20,2021-10-20,ＤａｎｄＹ　ｍｅｄｉｃａｌ株式会社,,株式会社,東京都,千代田区,飯田橋４丁目４番９号ダイアパレス飯田橋４１０号室,,13,101,1020072,,,,,,,2021-10-20,1,,,,,ディーアンドワイメディカル,0
924,4010005034088,新規,0,2021-10-20,2021-10-20,一般社団法人Ｎｅｘｔ　Ｐｕｂｌｉｃ　Ｈｅａｌｔｈ　Ｌａｂ,,その他の設立登記法人,東京都,中央区,銀座１丁目２２番１１号銀座大竹ビジデンス２階,,13,102,1040061,,,,,,,2021-10-20,1,,,,,ネクストパブリックヘルスラボ,0
925,4010005034113,新規,0,2021-10-20,2021-10-20,一般社団法人ＳＲＪ１,,その他の設立登記法人,東京都,中央区,銀座１丁目６番１１号土志田ビルディング３Ｆ,,13,102,1040061,,,,,,,2021-10-20,1,,,,,エスアールジェイワン,0
932,4010401163325,新規,0,2021-10-20,2021-10-20,Ｇ－ＲＡＮＫｅｒ株式会社,,株式会社,東京都,港区,虎ノ門４丁目３番１号城山トラストタワー２７階,,13,103,1050001,,,,,,,2021-10-20,1,,,,,ジーランカー,0
933,4010401163341,新規,0,2021-10-20,2021-10-20,株式会社薪鳥疋田,,株式会社,東京都,港区,三田１丁目１０番１６号,,13,103,1080073,,,,,,,2021-10-20,1,,,,,マキトリヒキタ,0
938,4010601060108,新規,0,2021-10-20,2021-10-20,株式会社ＦＵＮＮＹ　ＬＯＣＯ,,株式会社,東京都,墨田区,江東橋４丁目２２番１０号深谷ビル２Ｂ,,13,107,1300022,,,,,,,2021-10-20,1,,,,,ファニーロコ,0
952,4010901049619,新規,0,2021-10-20,2021-10-20,日本如水ＵＭＵ新材料株式会社,,株式会社,東京都,世田谷区,世田谷１丁目４１番２号,,13,112,1540017,,,,,,,2021-10-20,1,,,,,ニホンジョスイユーエムユーシンザイリョウ,0
967,4011001143469,新規,0,2021-10-20,2021-10-20,株式会社バロンドーロ,,株式会社,東京都,渋谷区,恵比寿１丁目２４番１０号,,13,113,1500013,,,,,,,2021-10-20,1,,,,,バロンドーロ,0
968,4011001143543,新規,0,2021-10-20,2021-10-20,株式会社メイク・オー,,株式会社,東京都,渋谷区,神宮前６丁目２３番４号桑野ビル２階,,13,113,1500001,,,,,,,2021-10-20,1,,,,,メイクオー,0
969,4011003013579,新規,0,2021-10-20,2021-10-20,合同会社Ｎ‐Ｗｏｒｋｓ,,合同会社,東京都,目黒区,自由が丘２丁目７番９－２０５号グランジット自由が丘,,13,110,1520035,,,,,,,2021-10-20,1,,,,,エヌワークス,0
979,4011201023339,新規,0,2021-10-20,2021-10-20,株式会社Ｗｈｉｔｅ－Ｃｏｄｅ,,株式会社,東京都,中野区,南台１丁目１－１７グランドメゾン中野南レジデンス１００１,,13,114,1640014,,,,,,,2021-10-20,1,,,,,ホワイトコード,0
980,4011201023347,新規,0,2021-10-20,2021-10-20,株式会社ＦＩＴ,,株式会社,東京都,中野区,大和町１丁目２３番７－１０２号,,13,114,1650034,,,,,,,2021-10-20,1,,,,,フィット,0
987,4011301027272,新規,0,2021-10-20,2021-10-20,インテグリア株式会社,,株式会社,東京都,杉並区,荻窪３丁目２０番２３号１０３号室,,13,115,1670051,,,,,,,2021-10-20,1,,,,,,0
992,4011701024794,新規,0,2021-10-20,2021-10-20,リダム株式会社,,株式会社,東京都,江戸川区,平井５丁目５４番８号リバーサイド平井２０５,,13,123,1320035,,,,,,,2021-10-20,1,,,,,リダム,0
999,4012401038424,新規,0,2021-10-20,2021-10-20,株式会社Ｇ．Ｏ．Ａ．Ｔ,,株式会社,東京都,武蔵野市,関前３丁目１５番１０－４０１パティオムサシノ,,13,203,1800014,,,,,,,2021-10-20,1,,,,,ゴート,0
1000,4012403005075,新規,0,2021-10-20,2021-10-20,合同会社Ｄ１３－ＣＲＥＡＴＩＶＥ,,合同会社,東京都,府中市,紅葉丘１丁目３７番地３１号,,13,206,1830004,,,,,,,2021-10-20,1,,,,,ディーサーティーンクリエイティブ,0
1008,4020001143528,新規,0,2021-10-20,2021-10-20,株式会社バッチリ興業,,株式会社,神奈川県,横浜市泉区,上飯田町３８１１番地１ファミールハイムＩＩ２０３号,00124615,14,116,2450018,,,,,,,2021-10-20,1,,,,,バッチリコウギョウ,0
1009,4020001143569,新規,0,2021-10-20,2021-10-20,潤創ビジネス株式会社,,株式会社,神奈川県,横浜市中区,松影町２丁目５番地９アークＫビル７０１号室,,14,104,2310025,,,,,,,2021-10-20,1,,,,,ジュンソウビジネス,0
1012,4020003020683,新規,0,2021-10-20,2021-10-20,カブラ合同会社,,合同会社,神奈川県,横浜市港南区,上大岡西１丁目１８番５号,,14,111,2330002,,,,,,,2021-10-20,1,,,,,カブラ,0
1016,4020005015244,新規,0,2021-10-20,2021-10-20,一般社団法人まろんクラブ,,その他の設立登記法人,神奈川県,横浜市戸塚区,深谷町３９番地２９,,14,110,2450067,,,,,,,2021-10-20,1,,,,,マロンクラブ,0
1019,4021001074267,新規,0,2021-10-20,2021-10-20,株式会社アールスタイル,,株式会社,神奈川県,鎌倉市,材木座５丁目１４番３７号,,14,204,2480013,,,,,,,2021-10-20,1,,,,,アールスタイル,0
1028,4030001144863,新規,0,2021-10-20,2021-10-20,株式会社ＲＯＡＤ,,株式会社,埼玉県,久喜市,久喜東２丁目１２番３号,,11,232,3460016,,,,,,,2021-10-20,1,,,,,ロード,0
1037,4050001050011,新規,0,2021-10-20,2021-10-20,株式会社ＶＩＶＯＴ,,株式会社,茨城県,常総市,水海道山田町９３５番地,,08,211,3030031,,,,,,,2021-10-20,1,,,,,ビボット,0
1039,4050005012957,新規,0,2021-10-20,2021-10-20,一般社団法人優和人材育成協会,,その他の設立登記法人,茨城県,土浦市,真鍋４丁目６番１８号,,08,203,3000051,,,,,,,2021-10-20,1,,,,,ユウワジンザイイクセイキョウカイ,0
1062,4110003004603,新規,0,2021-10-20,2021-10-20,合同会社Ｓｅａｓｔ　Ｈｏｕｓｅ,,合同会社,新潟県,村上市,藤沢３４６番地７,,15,212,9593131,,,,,,,2021-10-20,1,,,,,シーストハウス,0
1074,4120001241296,新規,0,2021-10-20,2021-10-20,株式会社Ｂｌｕｅｉｓｍ,,株式会社,大阪府,大阪市中央区,南船場３丁目７番３１号甲南ビル４階,,27,128,5420081,,,,,,,2021-10-20,1,,,,,ブルーイズム,0
1076,4120003020434,新規,0,2021-10-20,2021-10-20,ゼプラス合同会社,,合同会社,大阪府,大阪市平野区,加美鞍作３丁目１２番９－２０５号,,27,126,5470004,,,,,,,2021-10-20,1,,,,,ゼプラス,0
1077,4120003020442,新規,0,2021-10-20,2021-10-20,久日合同会社,,合同会社,大阪府,大阪市東淀川区,菅原４丁目１０番８号トーカン東淀川キャステール２０８号室,,27,114,5330022,,,,,,,2021-10-20,1,,,,,キュウビ,0
1084,4120101064515,新規,0,2021-10-20,2021-10-20,株式会社誠和テクノロジー,,株式会社,大阪府,和泉市,葛の葉町３丁目１３番１６－４号,,27,219,5940081,,,,,,,2021-10-20,1,,,,,セイワテクノロジー,0
1090,4130001070356,新規,0,2021-10-20,2021-10-20,株式会社Ｓｉｍｐｌｅ　Ｇｉｆｔｓ,,株式会社,京都府,京都市中京区,壬生松原町６７番地１９,,26,104,6048823,,,,,,,2021-10-20,1,,,,,シンプルギフト,0
1092,4130003007554,新規,0,2021-10-20,2021-10-20,松柏合同会社,,合同会社,京都府,京都市左京区,修学院烏丸町５番地,,26,103,6068047,,,,,,,2021-10-20,1,,,,,ショウハク,0
1100,4140001123534,新規,0,2021-10-20,2021-10-20,株式会社まる,,株式会社,兵庫県,神戸市東灘区,住吉宮町７丁目２番５号,,28,101,6580053,,,,,,,2021-10-20,1,,,,,マル,0
1101,4140001123567,新規,0,2021-10-20,2021-10-20,株式会社Ａｎｇｅｌ,,株式会社,兵庫県,西宮市,高畑町１番１－１０６号,,28,204,6638202,,,,,,,2021-10-20,1,,,,,エンジェル,0
1105,4140003016884,新規,0,2021-10-20,2021-10-20,合同会社ヒサト,,合同会社,兵庫県,神戸市西区,神出町小束野５６番地の２６１,,28,111,6512304,,,,,,,2021-10-20,1,,,,,ヒサト,0
1106,4140003016892,新規,0,2021-10-20,2021-10-20,合同会社Ｍｏｔｈｅｒ　Ｎｕｒｔｕｒｅ,,合同会社,兵庫県,神戸市東灘区,本山町岡本字梅林１１５７－５５－２,,28,101,6580071,,,,,,,2021-10-20,1,,,,,マザーナーチャー,0
1108,4150001025036,新規,0,2021-10-20,2021-10-20,理論テクノロジー株式会社,,株式会社,奈良県,桜井市,大字竜谷１４５番地の２,,29,206,6330016,,,,,,,2021-10-20,1,,,,,リロンテクノロジー,0
1130,4180001148379,新規,0,2021-10-20,2021-10-20,Ｍｏｎｄｏ　Ｓｋｙ株式会社,,株式会社,愛知県,一宮市,あずら１丁目８番２６号,,23,203,4910835,,,,,,,2021-10-20,1,,,,,モンドスカイ,0
1146,4220001024484,新規,0,2021-10-20,2021-10-20,株式会社Ａｎｇｅ,,株式会社,石川県,金沢市,入江２丁目１７９番地エステックビル１Ｆ,,17,201,9218011,,,,,,,2021-10-20,1,,,,,アンジュ,0
1152,4240001058786,新規,0,2021-10-20,2021-10-20,株式会社ＣＯＮＴＥ,,株式会社,広島県,安芸郡府中町,茂陰１丁目３番１３号１Ｆ,,34,302,7350029,,,,,,,2021-10-20,1,,,,,コンテ,0
1154,4250001019201,新規,0,2021-10-20,2021-10-20,株式会社縄重電工,,株式会社,山口県,山口市,江崎２２０１番地１,,35,203,7540896,,,,,,,2021-10-20,1,,,,,ナワシゲデンコウ,0
1174,4290003011730,新規,0,2021-10-20,2021-10-20,ニュース合同会社,,合同会社,福岡県,糟屋郡粕屋町,大字江辻１番１号,00124629,40,349,8112313,,,,,,,2021-10-20,1,,,,,ニュース,0
1186,4330001029076,新規,0,2021-10-20,2021-10-20,株式会社おやつ屋菓音,,株式会社,熊本県,上天草市,大矢野町上１４７８番地（２Ｆ）,,43,212,8693602,,,,,,,2021-10-20,1,,,,,オヤツヤカノン,0
1187,4330001029084,新規,0,2021-10-20,2021-10-20,コープ食品株式会社,,株式会社,熊本県,熊本市南区,川尻２丁目７番地２１,,43,104,8614115,,,,,,,2021-10-20,1,,,,,コープショクヒン,0
1209,4380005012494,新規,0,2021-10-20,2021-10-20,医療法人ひぐち歯科医院,,その他の設立登記法人,福島県,福島市,飯坂町字笠松２３番地２,,07,201,9600201,,,,,,,2021-10-20,1,,,,,ヒグチシカイイン,0
1216,4430003013266,新規,0,2021-10-20,2021-10-20,合同会社家族葬のサンシェール,,合同会社,北海道,札幌市北区,あいの里三条６丁目９－１０－３０１,,01,102,0028073,,,,,,,2021-10-20,1,,,,,カゾクソウノサンシェール,0
1229,4700150105409,新規,0,2021-10-20,2021-10-20,ＨＳ　ＡＤ　Ｉｎｃ．,,外国会社等,,,,,,,,韓国ソウル特別市マボ区マボ大路１５５ＬＧビル,,,,,,2021-10-20,1,,,,,エイチエスアドインク,0
1235,5010001221878,新規,0,2021-10-20,2021-10-20,株式会社Ｌｉｌｙ,,株式会社,東京都,千代田区,外神田１丁目１５番１４号リバティー２号館７階,,13,101,1010021,,,,,,,2021-10-20,1,,,,,リリー,0
1240,5010005034112,新規,0,2021-10-20,2021-10-20,Ｈｅｒｉｔａｇｅ　Ｈｏｌｄｉｎｇｓ一般社団法人,,その他の設立登記法人,東京都,中央区,八丁堀４丁目２番１０号ＡＯＪ税理士法人内,,13,102,1040032,,,,,,,2021-10-20,1,,,,,ヘリテイジホールディングス,0
1246,5010401163349,新規,0,2021-10-20,2021-10-20,株式会社ヴィオラ,,株式会社,東京都,港区,広尾四丁目１番３１－Ｇ８０８,,13,103,1050000,,,,,,,2021-10-20,1,,,,,ヴィオラ,0
1247,5010403026355,新規,0,2021-10-20,2021-10-20,アライド合同会社,,合同会社,東京都,港区,虎ノ門１丁目１７番１号虎ノ門ヒルズビジネスタワー１５Ｆ・ＣＩＣ東京,,13,103,1050001,,,,,,,2021-10-20,1,,,,,アライド,0
1249,5010601060107,新規,0,2021-10-20,2021-10-20,株式会社ｎｅｗｓｐａｐｅｒ,,株式会社,東京都,江東区,清澄１丁目１番７号,,13,108,1350024,,,,,,,2021-10-20,1,,,,,ニュースペーパー,0
1255,5010701041675,新規,0,2021-10-20,2021-10-20,株式会社ＸＹＺ,,株式会社,東京都,品川区,小山７丁目１６番５－５０１号,,13,109,1420062,,,,,,,2021-10-20,1,,,,,エックスワイジー,0
1265,5010903006880,新規,0,2021-10-20,2021-10-20,合同会社Ｄｅｕｘ　ｔｒｏｉｓ,,合同会社,東京都,世田谷区,北烏山３丁目１９番４号,,13,112,1570061,,,,,,,2021-10-20,1,,,,,デュトロワ,0
1273,5011001143501,新規,0,2021-10-20,2021-10-20,株式会社ブライトアンドエクセル,,株式会社,東京都,渋谷区,恵比寿南１丁目１６番７号エビスツイン仁平５０１,,13,113,1500022,,,,,,,2021-10-20,1,,,,,ブライトアンドエクセル,0
1274,5011003013586,新規,0,2021-10-20,2021-10-20,Ｋｕｒｕｋｕｎｅ合同会社,,合同会社,東京都,渋谷区,恵比寿１丁目５番７号,,13,113,1500013,,,,,,,2021-10-20,1,,,,,クルクネ,0
1281,5011301027271,新規,0,2021-10-20,2021-10-20,Ｓ＆Ｃｃｏｎｃｅｐｔｉｏｎ株式会社,,株式会社,東京都,杉並区,久我山４丁目２－２６Ｍｉｌｅｈｉｇｈ００３,,13,115,1680082,,,,,,,2021-10-20,1,,,,,エスアンドシーコンセプション,0
1291,5011705001698,新規,0,2021-10-20,2021-10-20,一般社団法人かしの木,,その他の設立登記法人,東京都,江戸川区,南小岩４丁目１２番５号,,13,123,1330056,,,,,,,2021-10-20,1,,,,,カシノキ,0
1293,5011801039849,新規,0,2021-10-20,2021-10-20,株式会社ジェイエヌ,,株式会社,東京都,足立区,江北６丁目２４番１９－２０３号,,13,121,1230872,,,,,,,2021-10-20,1,,,,,ジェイエヌ,0
1300,5012403005074,新規,0,2021-10-20,2021-10-20,聖蹟ファミリー合同会社,,合同会社,東京都,多摩市,乞田９５６番地の１メゾンフルール２０２,,13,224,2060014,,,,,,,2021-10-20,1,,,,,セイセキファミリー,0
1305,5013303005858,新規,0,2021-10-20,2021-10-20,合同会社アマチャン,,合同会社,東京都,豊島区,東池袋１丁目２８番４号近代ビル１、５階,,13,116,1700013,,,,,,,2021-10-20,1,,,,,アマチャン,0
1306,5013303005866,新規,0,2021-10-20,2021-10-20,合同会社ＴＵＮＩ,,合同会社,東京都,豊島区,要町１丁目１７番８号,,13,116,1710043,,,,,,,2021-10-20,1,,,,,トゥーニ,0
1328,5030003018148,新規,0,2021-10-20,2021-10-20,合同会社ＫＡＳＵＫＡＢＥ　ｃａｐｉｔａｌ,,合同会社,埼玉県,春日部市,上蛭田６３０番地１,,11,214,3440046,,,,,,,2021-10-20,1,,,,,カスカベキャピタル,0
1340,5040001120689,新規,0,2021-10-20,2021-10-20,株式会社シーホース,,株式会社,千葉県,市原市,泉台５丁目１番地５,,12,219,2990114,,,,,,,2021-10-20,1,,,,,シーホース,0
1342,5040003018782,新規,0,2021-10-20,2021-10-20,合同会社あいうえお,,合同会社,千葉県,我孫子市,栄１番３０号,,12,222,2701141,,,,,,,2021-10-20,1,,,,,アイウエオ,0
1343,5040003018790,新規,0,2021-10-20,2021-10-20,合同会社グッドライフ,,合同会社,千葉県,千葉市中央区,千葉寺町７９－１２,,12,101,2600844,,,,,,,2021-10-20,1,,,,,グッドライフ,0
1364,5110001036119,新規,0,2021-10-20,2021-10-20,株式会社Ｂ－Ｔｅｃｈ,,株式会社,新潟県,新潟市中央区,愛宕１丁目３番地４,,15,103,9500944,,,,,,,2021-10-20,1,,,,,ビーテック,0
1381,5120003020441,新規,0,2021-10-20,2021-10-20,合同会社Ｎｅｗ　ｂｉｅ,,合同会社,大阪府,大阪市西成区,梅南１丁目４番１０号,,27,122,5570033,,,,,,,2021-10-20,1,,,,,ニュービー,0
1386,5122001035280,新規,0,2021-10-20,2021-10-20,株式会社カブ,,株式会社,大阪府,八尾市,桜ヶ丘１丁目２５番地エスリード八尾桜ヶ丘１００２号,,27,212,5810869,,,,,,,2021-10-20,1,,,,,カブ,0
1403,5140001123533,新規,0,2021-10-20,2021-10-20,株式会社ＲＩＫＩ設備,,株式会社,兵庫県,神戸市須磨区,東町４丁目１－４,,28,107,6540033,,,,,,,2021-10-20,1,,,,,リキセツビ,0
1404,5140001123558,新規,0,2021-10-20,2021-10-20,株式会社アグリー,,株式会社,兵庫県,尼崎市,昭和通１丁目１６番１号,,28,202,6600881,,,,,,,2021-10-20,1,,,,,アグリー,0
1408,5140003016883,新規,0,2021-10-20,2021-10-20,ＮＡ合同会社,,合同会社,兵庫県,神戸市兵庫区,福原町１５－４,,28,105,6520036,,,,,,,2021-10-20,1,,,,,エヌエー,0
1413,5170001016833,新規,0,2021-10-20,2021-10-20,株式会社平田商事,,株式会社,和歌山県,田辺市,龍神村宮代１９４番地の４,,30,206,6450411,,,,,,,2021-10-20,1,,,,,ヒラタショウジ,0
1419,5180001148378,新規,0,2021-10-20,2021-10-20,株式会社ＦＲＴフードサービス,,株式会社,愛知県,名古屋市中区,栄２丁目４番１１号,,23,106,4600008,,,,,,,2021-10-20,1,,,,,エフアールティーフードサービス,0
1420,5180001148386,新規,0,2021-10-20,2021-10-20,株式会社Ｔ．Ｙ．Ｐ．Ｃ,,株式会社,愛知県,津島市,藤浪町５丁目５５,,23,208,4960801,,,,,,,2021-10-20,1,,,,,ティワイピーシー,0
1430,5180003023091,新規,0,2021-10-20,2021-10-20,ひじり合同会社,,合同会社,愛知県,名古屋市瑞穂区,姫宮町１丁目４７番地１第二新瑞ビル１階,,23,108,4670834,,,,,,,2021-10-20,1,,,,,ヒジリ,0
1431,5180301035532,新規,0,2021-10-20,2021-10-20,株式会社アレス岡崎,,株式会社,愛知県,豊田市,陣中町２丁目８番地６,,23,211,4710079,,,,,,,2021-10-20,1,,,,,アレスオカザキ,0
1434,5190003003803,新規,0,2021-10-20,2021-10-20,合同会社大杉谷やったるかい,,合同会社,三重県,多気郡大台町,桧原５４５番地３,,24,443,5192632,,,,,,,2021-10-20,1,,,,,オオスギダニヤッタルカイ,0
1437,5200001039310,新規,0,2021-10-20,2021-10-20,１９３５株式会社,,株式会社,岐阜県,美濃加茂市,本郷町２丁目字二夕子池下１９４７－１,,21,211,5050027,,,,,,,2021-10-20,1,,,,,イチキュウサンゴウ,0
1438,5200003005351,新規,0,2021-10-20,2021-10-20,合同会社Ｆｉｄａ,,合同会社,岐阜県,高山市,八軒町１丁目７５,,21,203,5060012,,,,,,,2021-10-20,1,,,,,フィーダ,0
1441,5220001024483,新規,0,2021-10-20,2021-10-20,株式会社ＤＥＬＡＸ,,株式会社,石川県,金沢市,桂町ロ２３９番地,,17,201,9200334,,,,,,,2021-10-20,1,,,,,デラックス,0
1454,5280001008539,新規,0,2021-10-20,2021-10-20,株式会社孝工業,,株式会社,島根県,大田市,久手町刺鹿６０６番地６７,,32,205,6940052,,,,,,,2021-10-20,1,,,,,タカシコウギョウ,0
1461,5290801027919,新規,0,2021-10-20,2021-10-20,エム・ジェイ興産株式会社,,株式会社,福岡県,中間市,中央５丁目９番３５号,,40,215,8090030,,,,,,,2021-10-20,1,,,,,エムジェイコウサン,0
1463,5290803003959,新規,0,2021-10-20,2021-10-20,合同会社歯周医学センター,,合同会社,福岡県,北九州市八幡西区,さつき台１丁目１５番１３号,,40,109,8070868,,,,,,,2021-10-20,1,,,,,シシュウイガクセンター,0
1477,5360003011508,新規,0,2021-10-20,2021-10-20,合同会社ａｖａｌａｎｃｈｅ,,合同会社,沖縄県,那覇市,若狭３丁目４４－１７ＷＡＫＡＳＡＯＡＳＩＳ９０１,,47,201,9000031,,,,,,,2021-10-20,1,,,,,アバランチ,0
1500,5470003002058,新規,0,2021-10-20,2021-10-20,合同会社一富士,,合同会社,香川県,高松市,屋島西町２５０６番地１７,,37,201,7610113,,,,,,,2021-10-20,1,,,,,イチフジ,0
1505,5500001023746,新規,0,2021-10-20,2021-10-20,株式会社ベルテック,,株式会社,愛媛県,今治市,喜田村７丁目４－６,,38,202,7991502,,,,,,,2021-10-20,1,,,,,ベルテック,0
1506,5700150105408,新規,0,2021-10-20,2021-10-20,Ｄｏｎａｌｄｓｏｎ　Ｏｖｅｒｓｅａｓ　Ｈｏｌｄｉｎｇ,,外国会社等,,,,,,,,２６，Ｂｏｕｌｅｖａｒｄ　ｄｅ　Ｋｏｃｋｅｌｓｃｈｅｕｅｒ　Ｌ－１８２１　Ｌｕｘｅｍｂｏｕｒｇ,,,,,,2021-10-20,1,,,,,ドナルドソンオーバーシーズホールデイングス,0
1514,6010001221836,新規,0,2021-10-20,2021-10-20,株式会社Ｃｈｅｅｒｓ,,株式会社,東京都,千代田区,神田須田町１丁目２４番地２１加瀬ビル１７３－４０１,,13,101,1010041,,,,,,,2021-10-20,1,,,,,チアーズ,0
1515,6010001221885,新規,0,2021-10-20,2021-10-20,株式会社Ｆｉｇｕｒｏｕｔ,,株式会社,東京都,千代田区,神田駿河台４丁目２番地５トライエッジ御茶ノ水１０階,,13,101,1010062,,,,,,,2021-10-20,1,,,,,フィギュラウト,0
1518,6010005034111,新規,0,2021-10-20,2021-10-20,スターチス税理士法人,,その他の設立登記法人,東京都,中央区,日本橋人形町３丁目３番５号天翔日本橋人形町ビル３０５,,13,102,1030013,,,,,,,2021-10-20,1,,,,,スターチス,0
1522,6010401163348,新規,0,2021-10-20,2021-10-20,株式会社クロエ,,株式会社,東京都,港区,広尾四丁目１番３１－Ｇ８０８,,13,103,1050000,,,,,,,2021-10-20,1,,,,,クロエ,0
1528,6010701041674,新規,0,2021-10-20,2021-10-20,株式会社まるふく,,株式会社,東京都,品川区,北品川２丁目１１番１号ベイテラス北品川６０２,,13,109,1400001,,,,,,,2021-10-20,1,,,,,マルフク,0
1532,6010903006888,新規,0,2021-10-20,2021-10-20,合同会社ＪＯＪＯ,,合同会社,東京都,世田谷区,太子堂３丁目３０番３６号,,13,112,1540004,,,,,,,2021-10-20,1,,,,,ジョジョ,0
1534,6011001143517,新規,0,2021-10-20,2021-10-20,株式会社虎子食堂,,株式会社,東京都,渋谷区,宇田川町１０番１号,,13,113,1500042,,,,,,,2021-10-20,1,,,,,トラノコショクドウ,0
1551,6011801039823,新規,0,2021-10-20,2021-10-20,荷米株式会社,,株式会社,東京都,足立区,竹の塚１丁目１３－１３－２０２号,,13,121,1210813,,,,,,,2021-10-20,1,,,,,カマイ,0
1555,6012401038422,新規,0,2021-10-20,2021-10-20,ＬＳＢ　ｃｏｎｓｕｌｔ株式会社,,株式会社,東京都,多摩市,関戸２丁目６７－７メゾンデュプレ２０１,,13,224,2060011,,,,,,,2021-10-20,1,,,,,エルエスビーコンサル,0
1572,6020001143550,新規,0,2021-10-20,2021-10-20,株式会社ナイトトラベラー,,株式会社,神奈川県,川崎市中原区,上平間１２００番地４－２－１０２,,14,133,2110013,,,,,,,2021-10-20,1,,,,,ナイトトラベラー,0
1573,6020001143575,新規,0,2021-10-20,2021-10-20,ＢｏｓｏｎｉＱ株式会社,,株式会社,神奈川県,川崎市高津区,下作延２丁目２－３５０３,,14,134,2130033,,,,,,,2021-10-20,1,,,,,ボソニック,0
1582,6021001074265,新規,0,2021-10-20,2021-10-20,株式会社ｆｌｏｕ　ＷＡ,,株式会社,神奈川県,藤沢市,高倉２３２５番地５,,14,205,2520802,,,,,,,2021-10-20,1,,,,,フラワ,0
1589,6030001144894,新規,0,2021-10-20,2021-10-20,株式会社ＭＲカンパニーリミテッド,,株式会社,埼玉県,熊谷市,石原１０２３番地５,,11,202,3600816,,,,,,,2021-10-20,1,,,,,エムアールカンパニーリミテッド,0
1590,6030001144903,新規,0,2021-10-20,2021-10-20,Ｓ．Ｄ　ＴＲＡＤＩＮＧ株式会社,,株式会社,埼玉県,坂戸市,中富町８番９－１号,,11,239,3500232,,,,,,,2021-10-20,1,,,,,エスディートレーディング,0
1591,6030001144911,新規,0,2021-10-20,2021-10-20,株式会社ｉｎｋＧＩＧ,,株式会社,埼玉県,朝霞市,本町１丁目１２番５－４０７号,,11,227,3510011,,,,,,,2021-10-20,1,,,,,インクギグ,0
1598,6040001120671,新規,0,2021-10-20,2021-10-20,株式会社コネクトミライ,,株式会社,千葉県,船橋市,本中山４丁目１９番６－３０１号,,12,204,2730035,,,,,,,2021-10-20,1,,,,,コネクトミライ,0
1600,6040003018781,新規,0,2021-10-20,2021-10-20,Ｒｅｊｉｎ合同会社,,合同会社,千葉県,茂原市,早野３０６６番地横山荘１号,,12,210,2970037,,,,,,,2021-10-20,1,,,,,レジン,0
1603,6050003006133,新規,0,2021-10-20,2021-10-20,合同会社ほがらか,,合同会社,茨城県,守谷市,中央１丁目２３番地－１０ライオンズ守谷駅前プレミアム８０５号,,08,224,3020115,,,,,,,2021-10-20,1,,,,,ホガラカ,0
1605,6060001034218,新規,0,2021-10-20,2021-10-20,株式会社ＫＳＫ企画,,株式会社,栃木県,宇都宮市,下荒針町３３７２番地１０,,09,201,3210346,,,,,,,2021-10-20,1,,,,,ケーエスケーキカク,0
1610,6080003002666,新規,0,2021-10-20,2021-10-20,ＹＡＮＡＧＩ合同会社,,合同会社,静岡県,静岡市清水区,吉川２４１番地の６,,22,103,4240055,,,,,,,2021-10-20,1,,,,,ヤナギ,0
1614,6080405007395,新規,0,2021-10-20,2021-10-20,医療法人社団春彩,,その他の設立登記法人,静岡県,湖西市,南台４丁目１番１号,,22,221,4310429,,,,,,,2021-10-20,1,,,,,ハルイロ,0
1644,6120001241303,新規,0,2021-10-20,2021-10-20,株式会社ｐｏｓｉｔｉｖｅ,,株式会社,大阪府,大阪市東住吉区,照ケ丘矢田１丁目８番１３－５０１号,,27,121,5460021,,,,,,,2021-10-20,1,,,,,ポジティブ,0
1651,6120101064513,新規,0,2021-10-20,2021-10-20,株式会社フジイ電気設備,,株式会社,大阪府,堺市堺区,大町東４丁２番２４－２０７号室,,27,141,5900954,,,,,,,2021-10-20,1,,,,,フジイデンキセツビ,0
1663,6120901045076,新規,0,2021-10-20,2021-10-20,ＧＭＨ株式会社,,株式会社,大阪府,箕面市,箕面５丁目１番７号（４０１号）,,27,220,5620001,,,,,,,2021-10-20,1,,,,,ジーエムエイチ,0
1670,6130001070362,新規,0,2021-10-20,2021-10-20,株式会社未来,,株式会社,京都府,城陽市,寺田築留２９番地の４,,26,207,6100121,,,,,,,2021-10-20,1,,,,,ミライ,0
1683,6140001123524,新規,0,2021-10-20,2021-10-20,株式会社繋,,株式会社,兵庫県,姫路市,東駅前町７６番地山田ビル２階,,28,201,6700926,,,,,,,2021-10-20,1,,,,,ツナグ,0
1684,6140001123532,新規,0,2021-10-20,2021-10-20,メディカリ株式会社,,株式会社,兵庫県,神戸市東灘区,住吉本町１丁目１０－１４－２,,28,101,6580051,,,,,,,2021-10-20,1,,,,,メディカリ,0
1695,6180001148360,新規,0,2021-10-20,2021-10-20,株式会社ゼロテクノロジーズ,,株式会社,愛知県,名古屋市北区,西味鋺５丁目９１４番地の３,,23,103,4620016,,,,,,,2021-10-20,1,,,,,ゼロテクノロジーズ,0
1696,6180001148377,新規,0,2021-10-20,2021-10-20,株式会社セッティングプロモーション,,株式会社,愛知県,名古屋市中区,栄５丁目２１番３７号グランルージュ栄ＩＩ２０８号室,00124623,23,106,4600008,,,,,,,2021-10-20,1,,,,,セッティングプロモーション,0
1697,6180001148393,新規,0,2021-10-20,2021-10-20,株式会社オールウィン,,株式会社,愛知県,名古屋市東区,泉１丁目１１番６号,,23,102,4610001,,,,,,,2021-10-20,1,,,,,オールウィン,0
1702,6180003023099,新規,0,2021-10-20,2021-10-20,ゴドゴド合同会社,,合同会社,愛知県,日進市,香久山５丁目２０１番地１,,23,230,4700134,,,,,,,2021-10-20,1,,,,,ゴドゴド,0
1704,6180301035531,新規,0,2021-10-20,2021-10-20,株式会社ダンデライオン,,株式会社,愛知県,豊田市,新生町１丁目３７番地３,,23,211,4710837,,,,,,,2021-10-20,1,,,,,ダンデライオンデ,0
1728,6290001095063,新規,0,2021-10-20,2021-10-20,株式会社アヴァンセ,,株式会社,福岡県,福岡市博多区,中洲３丁目４番１０号,,40,132,8100801,,,,,,,2021-10-20,1,,,,,アヴァンセ,0
1735,6290801027918,新規,0,2021-10-20,2021-10-20,株式会社ＩＮＧ,,株式会社,福岡県,直方市,大字下境２５８５－１,,40,204,8220007,,,,,,,2021-10-20,1,,,,,アイエヌジー,0
1737,6290803003958,新規,0,2021-10-20,2021-10-20,合同会社Ｙｓコーポレーション,,合同会社,福岡県,北九州市小倉南区,葛原１丁目１２番３０－６０４号,,40,107,8000251,,,,,,,2021-10-20,1,,,,,ワイズコーポレーション,0
1741,6300003001736,新規,0,2021-10-20,2021-10-20,はなまる合同会社,,合同会社,佐賀県,佐賀市,若宮１丁目９番１２号,,41,201,8490926,,,,,,,2021-10-20,1,,,,,ハナマル,0
1749,6330001029082,新規,0,2021-10-20,2021-10-20,株式会社イタリー亭福岡ビルディング,,株式会社,熊本県,熊本市中央区,上通町５番２３号,,43,101,8600845,,,,,,,2021-10-20,1,,,,,イタリーテイフクオカビルディング,0
1750,6330001029090,新規,0,2021-10-20,2021-10-20,株式会社オリンピア,,株式会社,熊本県,熊本市中央区,壺川１丁目９－３２コアマンション１０２号,,43,101,8600076,,,,,,,2021-10-20,1,,,,,オリンピア,0
1752,6340005009352,新規,0,2021-10-20,2021-10-20,オアシス福祉人材協同組合,,その他の設立登記法人,鹿児島県,霧島市,隼人町小浜３０７０番地,,46,218,8995103,,,,,,,2021-10-20,1,,,,,オアシスフクシジンザイ,0
1767,6430001085207,新規,0,2021-10-20,2021-10-20,株式会社ＳａｐｐｏｒｏＮｅｓｔ,,株式会社,北海道,札幌市中央区,南二条西３丁目１２－５,,01,101,0600062,,,,,,,2021-10-20,1,,,,,サッポロネスト,0
1781,6490005006806,新規,0,2021-10-20,2021-10-20,特定非営利活動法人土佐ａｃｔｉｖｉｔｙ倶楽部,,その他の設立登記法人,高知県,高知市,はりまや町１丁目１番１７号,,39,201,7800822,,,,,,,2021-10-20,1,,,,,トサアクティビティークラブ,0
1785,6700150105407,新規,0,2021-10-20,2021-10-20,ＡＧＥＮＣＩＡ　ＶＡＳＣＡ　ＤＥ　ＩＮＴＥＲＮＡＣＩＯＮＡＬＩＺＡＣＩＯＮ－ＢＡＳＱＵＥ　ＴＲＡＤＥ　ＡＮＤ　ＩＮＶＥＳＴＭＥＮＴ　ＳＯＣＩＥＤＡＤ　ＡＮＯＮＩＭＡ,,外国会社等,東京都,港区,西新橋２丁目４－２西新橋安田ユニオンビル３階,,13,103,1050003,スペイン王国，４８０１１，ビスカヤ，ビルバオ，３６，アラム・ドゥ・ウリキージョ,,,,,,2021-10-20,1,,,,,アージエンシアバスカドウインターナシヨナリザーシヨンバスクトレードアンドインベストメントソシエダツドアノニマ,0
1793,7010001221934,新規,0,2021-10-20,2021-10-20,ＭＢＫ　Ｗｅｌｌｎｅｓｓ　Ｈｏｌｄｉｎｇｓ株式会社,,株式会社,東京都,千代田区,大手町１丁目２番１号,,13,101,1000004,,,,,,,2021-10-20,1,,,,,エムビーケーウェルネスホールディングス,0
1794,7010001221959,新規,0,2021-10-20,2021-10-20,株式会社富士コミュニケーションズ,,株式会社,東京都,千代田区,神田三崎町３丁目３番３号太陽ビル３０２,,13,101,1010061,,,,,,,2021-10-20,1,,,,,フジコミュニケーションズ,0
1796,7010003036050,新規,0,2021-10-20,2021-10-20,合同会社ＫＣ１７パートナーズ,,合同会社,東京都,文京区,千駄木１丁目２２番１６号,,13,105,1130022,,,,,,,2021-10-20,1,,,,,ケーシーイチナナパートナーズ,0
1802,7010401163322,新規,0,2021-10-20,2021-10-20,株式会社ＮＲＰ,,株式会社,東京都,港区,南青山２丁目２番１５号ウィン青山１３０２,,13,103,1070062,,,,,,,2021-10-20,1,,,,,エヌアールピー,0
1803,7010401163347,新規,0,2021-10-20,2021-10-20,ＥＰマネジメント株式会社,,株式会社,東京都,港区,浜松町２丁目２番１５号浜松町ダイヤビル２Ｆ,,13,103,1050013,,,,,,,2021-10-20,1,,,,,イーピーマネジメント,0
1813,7010701041673,新規,0,2021-10-20,2021-10-20,株式会社瞬花旬装,,株式会社,東京都,品川区,荏原１丁目２４番１号,,13,109,1420063,,,,,,,2021-10-20,1,,,,,シュンカシュンソウ,0
1820,7010901049657,新規,0,2021-10-20,2021-10-20,株式会社ＳＥＡＳＯＮ,,株式会社,東京都,世田谷区,三軒茶屋２丁目１１番１４号,,13,112,1540024,,,,,,,2021-10-20,1,,,,,シーズン,0
1827,7011001143516,新規,0,2021-10-20,2021-10-20,株式会社日本一真起業連盟,,株式会社,東京都,渋谷区,本町３丁目４２番３号グランエッグス西新宿０７,,13,113,1510071,,,,,,,2021-10-20,1,,,,,ニホンイッシンキギョウレンメイ,0
1828,7011001143532,新規,0,2021-10-20,2021-10-20,株式会社ＦｕｔｓｕＦｕｔｓｕ,,株式会社,東京都,渋谷区,宇田川町２番１号渋谷ホームズ８１７,,13,113,1500042,,,,,,,2021-10-20,1,,,,,フツフツ,0
1837,7011301027278,新規,0,2021-10-20,2021-10-20,株式会社Ｂ．Ｓ．Ｓ．,,株式会社,東京都,杉並区,阿佐谷北１丁目４６番６号,,13,115,1660001,,,,,,,2021-10-20,1,,,,,ビーエスエス,0
1848,7011801039855,新規,0,2021-10-20,2021-10-20,株式会社竹弌管巧,,株式会社,東京都,足立区,保木間１丁目１９番２－８０２号,,13,121,1210064,,,,,,,2021-10-20,1,,,,,タケイチカンコウ,0
1863,7020001143541,新規,0,2021-10-20,2021-10-20,株式会社ＩＵＧ,,株式会社,神奈川県,横浜市磯子区,汐見台２丁目１１番地４,,14,107,2350022,,,,,,,2021-10-20,1,,,,,アイユージー,0
1864,7020001143558,新規,0,2021-10-20,2021-10-20,Ｃｒｅｄｏ　Ｐａｒｔｎｅｒｓ株式会社,,株式会社,神奈川県,横浜市港北区,新横浜３丁目７番地１８,,14,109,2220033,,,,,,,2021-10-20,1,,,,,クレドパートナーズ,0
1868,7021001074256,新規,0,2021-10-20,2021-10-20,株式会社ｍａｈａｌｏ,,株式会社,神奈川県,大和市,南林間６丁目２９番１８号,,14,213,2420006,,,,,,,2021-10-20,1,,,,,マハロ,0
1869,7021001074264,新規,0,2021-10-20,2021-10-20,株式会社Ａ＆Ｈカンパニー,,株式会社,神奈川県,厚木市,下川入９０３番地,,14,212,2430206,,,,,,,2021-10-20,1,,,,,エイアンドエイチカンパニー,0
1877,7030001144877,新規,0,2021-10-20,2021-10-20,大竹地所株式会社,,株式会社,埼玉県,飯能市,大字下名栗６２３番地１,,11,209,3570112,,,,,,,2021-10-20,1,,,,,オオタケジショ,0
1878,7030001144885,新規,0,2021-10-20,2021-10-20,株式会社荒川建築,,株式会社,埼玉県,さいたま市緑区,東浦和２丁目４番地９－１－Ｂ,,11,109,3360926,,,,,,,2021-10-20,1,,,,,アラカワケンチク,0
1879,7030001144902,新規,0,2021-10-20,2021-10-20,株式会社北翔建装,,株式会社,埼玉県,北本市,宮内２丁目２５番地,,11,233,3640002,,,,,,,2021-10-20,1,,,,,ホクトケンソウ,0
1882,7030003018146,新規,0,2021-10-20,2021-10-20,地球デトックス合同会社,,合同会社,埼玉県,川越市,幸町６－７,,11,201,3500063,,,,,,,2021-10-20,1,,,,,チキュウデトックス,0
1883,7030003018154,新規,0,2021-10-20,2021-10-20,合同会社ＭＡＳＡＳＡＭカンパニー,,合同会社,埼玉県,川口市,大字芝７０５３番地の２２,,11,203,3330866,,,,,,,2021-10-20,1,,,,,マササンカンパニー,0
1884,7030003018162,新規,0,2021-10-20,2021-10-20,合同会社リプラス,,合同会社,埼玉県,さいたま市大宮区,桜木町２丁目３番地大宮マルイ７階,,11,103,3300854,,,,,,,2021-10-20,1,,,,,リプラス,0
1895,7040003018657,新規,0,2021-10-20,2021-10-20,サンファミリー合同会社,,合同会社,千葉県,市川市,市川２丁目２６番２４号,,12,203,2720034,,,,,,,2021-10-20,1,,,,,サンファミリー,0
1898,7050001050009,新規,0,2021-10-20,2021-10-20,株式会社孝緑園,,株式会社,茨城県,かすみがうら市,上佐谷２３６９番地,,08,230,3150065,,,,,,,2021-10-20,1,,,,,コウリョクエン,0
1900,7050005012954,新規,0,2021-10-20,2021-10-20,特定非営利活動法人桜令,,その他の設立登記法人,茨城県,古河市,桜町２０番１７号,,08,204,3060036,,,,,,,2021-10-20,1,,,,,オウレイ,0
1902,7060001034217,新規,0,2021-10-20,2021-10-20,ストーンフィールド株式会社,,株式会社,栃木県,佐野市,富岡町３０９番地,,09,204,3270844,,,,,,,2021-10-20,1,,,,,ストーンフィールド,0
1908,7070001038555,新規,0,2021-10-20,2021-10-20,吉元商事株式会社,,株式会社,群馬県,伊勢崎市,堀口町８６８－２,,10,204,3720834,,,,,,,2021-10-20,1,,,,,ヨシモトショウジ,0
1914,7080105006184,新規,0,2021-10-20,2021-10-20,特定非営利活動法人ウッドジョブズ,,その他の設立登記法人,静岡県,富士宮市,内野１８００－７,,22,207,4180104,,,,,,,2021-10-20,1,,,,,ウッドジョブズ,0
1937,7120001240667,新規,0,2021-10-20,2021-10-20,株式会社Ｍ＆Ｓ,,株式会社,大阪府,枚方市,招提南町１丁目２３番１５号,,27,210,5731155,,,,,,,2021-10-20,1,,,,,エムアンドエス,0
1938,7120001241310,新規,0,2021-10-20,2021-10-20,株式会社Ｈ２Ｂｉｚ,,株式会社,大阪府,大阪市北区,梅田１丁目１番３号大阪駅前第３ビル２５階,,27,127,5300001,,,,,,,2021-10-20,1,,,,,エイチツービズ,0
1939,7120001241319,新規,0,2021-10-20,2021-10-20,株式会社Ｇｒｏｗｆｕｌ,,株式会社,大阪府,大阪市北区,梅田２丁目５番１３号桜橋第一ビル３０４号,,27,127,5300001,,,,,,,2021-10-20,1,,,,,グローフル,0
1940,7120003020448,新規,0,2021-10-20,2021-10-20,合同会社ぶどうの樹,,合同会社,大阪府,大阪市平野区,流町３丁目７番１０号,,27,126,5470032,,,,,,,2021-10-20,1,,,,,ブドウノキ,0
1943,7120101064512,新規,0,2021-10-20,2021-10-20,和恵夢株式会社,,株式会社,大阪府,泉大津市,虫取町１丁目４番１８号,,27,206,5950037,,,,,,,2021-10-20,1,,,,,カェル,0
1946,7120901045075,新規,0,2021-10-20,2021-10-20,株式会社コレサワサイクル,,株式会社,大阪府,高槻市,如是町６番１７号,,27,207,5690827,,,,,,,2021-10-20,1,,,,,コレサワサイクル,0
1965,7140001123548,新規,0,2021-10-20,2021-10-20,株式会社ＲＴＲ,,株式会社,兵庫県,西宮市,津門住江町８－１６－６０９,,28,204,6638234,,,,,,,2021-10-20,1,,,,,アールティーアール,0
1985,7180001148310,新規,0,2021-10-20,2021-10-20,株式会社Ｅａｒｔｈ　ｒｅｍａｋｅ,,株式会社,愛知県,名古屋市中区,丸の内２丁目１７番１３号ＮＫ丸の内ビル３０３,,23,106,4600002,,,,,,,2021-10-20,1,,,,,アースリメイク,0
1986,7180001148327,新規,0,2021-10-20,2021-10-20,ＳＤＮ　ＨＯＬＤＩＮＧＳ　ＪＡＰＡＮ株式会社,,株式会社,愛知県,名古屋市瑞穂区,春山町３番地２０,,23,108,4670024,,,,,,,2021-10-20,1,,,,,エスディーエヌホールディングスジャパン,0
1987,7180001148351,新規,0,2021-10-20,2021-10-20,株式会社スマイルケア,,株式会社,愛知県,名古屋市中川区,法華２丁目９番地,,23,110,4540933,,,,,,,2021-10-20,1,,,,,スマイルケア,0
2001,7220003003137,新規,0,2021-10-20,2021-10-20,合同会社ＦｉａｒＤｒｉｖｅ,,合同会社,石川県,野々市市,徳用２丁目３５マリーナＡ２０１号室,,17,212,9218842,,,,,,,2021-10-20,1,,,,,フィアードライブ,0
2030,7290001095079,新規,0,2021-10-20,2021-10-20,株式会社ニューイノベーション,,株式会社,福岡県,福津市,日蒔野３丁目６番地の１６,,40,224,8113209,,,,,,,2021-10-20,1,,,,,ニューイノベーション,0
2033,7290003011661,新規,0,2021-10-20,2021-10-20,幸満合同会社,,合同会社,福岡県,福岡市中央区,白金２丁目４番２８号ロマネスク白金５０３号室,,40,133,8100012,,,,,,,2021-10-20,1,,,,,ユキミズ,0
2034,7290003011728,新規,0,2021-10-20,2021-10-20,ＭＹ合同会社,,合同会社,福岡県,福岡市博多区,住吉３丁目８番３０号,,40,132,8120018,,,,,,,2021-10-20,1,,,,,エムワイ,0
2037,7290801027917,新規,0,2021-10-20,2021-10-20,センプレ株式会社,,株式会社,福岡県,北九州市小倉北区,篠崎５丁目２７番１号,,40,106,8030861,,,,,,,2021-10-20,1,,,,,センプレ,0
2066,7360001029517,新規,0,2021-10-20,2021-10-20,株式会社チャハヤ,,株式会社,沖縄県,宜野湾市,字宇地泊２８６番地１,,47,205,9012227,,,,,,,2021-10-20,1,,,,,チヤハヤ,0
2068,7370003005449,新規,0,2021-10-20,2021-10-20,華盛合同会社,,合同会社,宮城県,石巻市,鹿妻南４丁目１番６９号,,04,202,9860042,,,,,,,2021-10-20,1,,,,,ハナモリ,0
2080,7420005007776,新規,0,2021-10-20,2021-10-20,一般社団法人フェリーチェあおもり,,その他の設立登記法人,青森県,青森市,桜川２丁目４番１１号,,02,201,0300945,,,,,,,2021-10-20,1,,,,,フェリーチェアオモリ,0
2099,8010001221842,新規,0,2021-10-20,2021-10-20,ストレッチラボラトリー株式会社,,株式会社,東京都,中央区,築地３丁目７番２号第五銀座ウェスト築地ビル３Ｆ,,13,102,1040045,,,,,,,2021-10-20,1,,,,,ストレッチラボラトリー,0
2103,8010003036058,新規,0,2021-10-20,2021-10-20,翼合同会社,,合同会社,東京都,中央区,築地６丁目５－４築地アウルビル３Ｆ,,13,102,1040045,,,,,,,2021-10-20,1,,,,,ツバサ,0
2105,8010103001795,新規,0,2021-10-20,2021-10-20,Ｒａｎｃｈｕ　Ｊａｐａｎ合同会社,,合同会社,東京都,八王子市,中野山王２丁目３７番１号ピュア・ＩＶ５０３号,00124624,13,201,1920042,,,,,,,2021-10-20,1,,,,,ランチュウジャパン,0
2109,8010401163296,新規,0,2021-10-20,2021-10-20,株式会社ａｃｔｏｒ,,株式会社,東京都,港区,虎ノ門１丁目１７番１号虎ノ門ヒルズビジネスタワー１５階,,13,103,1050001,,,,,,,2021-10-20,1,,,,,アクター,0
2110,8010401163354,新規,0,2021-10-20,2021-10-20,株式会社ＮＥＸＴ　ＤＩＭＥＮＳＩＯＮ,,株式会社,東京都,港区,南青山２丁目２番１５号,,13,103,1070062,,,,,,,2021-10-20,1,,,,,ネクストディメンション,0
2113,8010501048001,新規,0,2021-10-20,2021-10-20,ＳＴＥＡＭ株式会社,,株式会社,東京都,台東区,浅草橋１丁目７番４号穴原ビル２階,,13,106,1110053,,,,,,,2021-10-20,1,,,,,,0
2119,8010601060104,新規,0,2021-10-20,2021-10-20,株式会社ＯＡＳＩＺ,,株式会社,東京都,江東区,大島６丁目１５番２－６０８号,,13,108,1360072,,,,,,,2021-10-20,1,,,,,オアシズ,0
2123,8010701041664,新規,0,2021-10-20,2021-10-20,株式会社Ｒｅｇｒｏｗ,,株式会社,東京都,品川区,西五反田２丁目１８番３号グレイス五反田７１４,,13,109,1410031,,,,,,,2021-10-20,1,,,,,リグロ,0
2124,8010701041672,新規,0,2021-10-20,2021-10-20,株式会社愛寿,,株式会社,東京都,品川区,上大崎２丁目７番５号目黒ＴＳビル,,13,109,1410021,,,,,,,2021-10-20,1,,,,,アイジュ,0
2132,8010901049623,新規,0,2021-10-20,2021-10-20,日本桜の物語健康研究株式会社,,株式会社,東京都,世田谷区,世田谷１丁目４１番２号,,13,112,1540017,,,,,,,2021-10-20,1,,,,,ニホンサクラノモノガタリケンコウケンキュウ,0
2143,8011001143572,新規,0,2021-10-20,2021-10-20,株式会社Ｆｏｏｄ　Ｏｐｅｒａｔｉｏｎ　Ｊａｐａｎ,,株式会社,東京都,渋谷区,桜丘町２７番１号,,13,113,1500031,,,,,,,2021-10-20,1,,,,,フードオペレーションジャパン,0
2145,8011003013583,新規,0,2021-10-20,2021-10-20,合同会社サクヤプランニング,,合同会社,東京都,目黒区,東山１丁目１０番６－１０４号,,13,110,1530043,,,,,,,2021-10-20,1,,,,,サクヤプランニング,0
2154,8011401023770,新規,0,2021-10-20,2021-10-20,株式会社ＵＮＰＬＵＧ．,,株式会社,東京都,板橋区,成増５丁目２番１２号,,13,119,1750094,,,,,,,2021-10-20,1,,,,,アンプラグ,0
2157,8011603003414,新規,0,2021-10-20,2021-10-20,合同会社ＴＲＵＥ　ＣＡＵＳＥ,,合同会社,東京都,練馬区,豊玉北５丁目９番１４－２０１号,,13,120,1760012,,,,,,,2021-10-20,1,,,,,トゥルーコーズ,0
2170,8013301048170,新規,0,2021-10-20,2021-10-20,株式会社ＲＥＭＭＵＥ,,株式会社,東京都,豊島区,南池袋１丁目９番１８号,,13,116,1710022,,,,,,,2021-10-20,1,,,,,レミュウ,0
2184,8021001074271,新規,0,2021-10-20,2021-10-20,株式会社ヴィレッジアップ,,株式会社,神奈川県,藤沢市,湘南台６丁目８番地の７メドウス湘南台１０１,,14,205,2520804,,,,,,,2021-10-20,1,,,,,ヴィレッジアップ,0
2188,8021003011009,新規,0,2021-10-20,2021-10-20,合同会社ローマ,,合同会社,神奈川県,藤沢市,大庭５５６８番地の４パピヨングレースＩＩ２０６,00124620,14,205,2510861,,,,,,,2021-10-20,1,,,,,ローマ,0
2196,8030001144760,新規,0,2021-10-20,2021-10-20,株式会社ＳｋｙＤａｔａ,,株式会社,埼玉県,さいたま市大宮区,上小町２６上小町さくら１０２,,11,103,3300855,,,,,,,2021-10-20,1,,,,,スカイデータ,0
2197,8030001144876,新規,0,2021-10-20,2021-10-20,株式会社Ｙ＆Ｍ,,株式会社,埼玉県,越谷市,南越谷１丁目３番１５号サンクレイドル新越谷１０４,,11,222,3430845,,,,,,,2021-10-20,1,,,,,ワイアンドエム,0
2212,8040003018672,新規,0,2021-10-20,2021-10-20,合同会社ＤＥＬＣＯ　ＪＡＰＡＮ,,合同会社,千葉県,浦安市,北栄４丁目４番３－３１０号ストークマンションダイゴ２,,12,227,2790002,,,,,,,2021-10-20,1,,,,,デルコジャパン,0
2213,8040003018788,新規,0,2021-10-20,2021-10-20,ＳＡＭＵＲＡＩ　ＴＲＡＤＩＮＧ合同会社,,合同会社,千葉県,千葉市若葉区,富田町１１０３番地２,,12,104,2650041,,,,,,,2021-10-20,1,,,,,サムライトレーディング,0
2214,8060001034216,新規,0,2021-10-20,2021-10-20,株式会社ＮＤ　ＴＲＡＤＩＮＧ,,株式会社,栃木県,小山市,大字下生井１１４８番地４,,09,208,3290223,,,,,,,2021-10-20,1,,,,,エヌディートレーディング,0
2215,8060003003838,新規,0,2021-10-20,2021-10-20,合同会社リルビット,,合同会社,栃木県,小山市,東間々田２丁目１８－１２,,09,208,3290206,,,,,,,2021-10-20,1,,,,,リルビット,0
2217,8070001038554,新規,0,2021-10-20,2021-10-20,株式会社ユミナガ産業,,株式会社,群馬県,館林市,高根町２５８番地の１,,10,207,3740074,,,,,,,2021-10-20,1,,,,,ユミナガサンギョウ,0
2222,8080101022837,新規,0,2021-10-20,2021-10-20,株式会社Ｒクリエイト,,株式会社,静岡県,沼津市,岡宮１０１２番地の１,,22,203,4100011,,,,,,,2021-10-20,1,,,,,アールクリエイト,0
2223,8080101022845,新規,0,2021-10-20,2021-10-20,株式会社チャトラコーヒー,,株式会社,静岡県,沼津市,大岡５０５番地の１,,22,203,4100022,,,,,,,2021-10-20,1,,,,,チャトラコーヒー,0
2226,8080403004392,新規,0,2021-10-20,2021-10-20,合同会社Ｂｒａｓｓ　Ｅｎｔｅｒｔａｉｎｍｅｎｔ　Ｃｏｍｐａｎｙ,,合同会社,静岡県,掛川市,大坂７８２４,,22,213,4371421,,,,,,,2021-10-20,1,,,,,ブラスエンターテイメントカンパニー,0
2233,8110005016725,新規,0,2021-10-20,2021-10-20,特定非営利活動法人ごきげん,,その他の設立登記法人,新潟県,新潟市西区,山田２５７６番地１６,,15,107,9501101,,,,,,,2021-10-20,1,,,,,ゴキゲン,0
2249,8120003020447,新規,0,2021-10-20,2021-10-20,もふペット合同会社,,合同会社,大阪府,大阪市北区,梅田２丁目５番１３号桜橋第一ビル３０４号,,27,127,5300001,,,,,,,2021-10-20,1,,,,,モフペット,0
2253,8120101064511,新規,0,2021-10-20,2021-10-20,株式会社ＲＵＬＥＲ,,株式会社,大阪府,羽曳野市,恵我之荘５丁目１番２７号恵我ノ荘ＡＳＫ２階倉庫,,27,222,5830886,,,,,,,2021-10-20,1,,,,,ルーラー,0
2254,8120105009462,新規,0,2021-10-20,2021-10-20,特定非営利活動法人松原防災士会,,その他の設立登記法人,大阪府,松原市,天美南１丁目２０４番地の５,,27,217,5800033,,,,,,,2021-10-20,1,,,,,マツバラボウサイシカイ,0
2264,8140001123522,新規,0,2021-10-20,2021-10-20,株式会社志船組,,株式会社,兵庫県,宍粟市,山崎町上牧谷４７１番地２,,28,227,6712508,,,,,,,2021-10-20,1,,,,,シブネグミ,0
2266,8140003016880,新規,0,2021-10-20,2021-10-20,グランキャピタル合同会社,,合同会社,兵庫県,神戸市中央区,港島中町３丁目１－２－２－１４２３,,28,110,6500046,,,,,,,2021-10-20,1,,,,,グランキャピタル,0
2268,8140005025863,新規,0,2021-10-20,2021-10-20,特定非営利活動法人フクロゥの夢,,その他の設立登記法人,兵庫県,神戸市東灘区,魚崎北町４丁目８番２３号,,28,101,6580082,,,,,,,2021-10-20,1,,,,,フクロウノユメ,0
2276,8170003001649,新規,0,2021-10-20,2021-10-20,松本元信合同会社,,合同会社,和歌山県,海草郡紀美野町,神野市場１８１番地,,30,304,6401243,,,,,,,2021-10-20,1,,,,,マツモトモトノブ,0
2288,8180001148235,新規,0,2021-10-20,2021-10-20,株式会社エムズ・クオリティー,,株式会社,愛知県,名古屋市西区,枇杷島４丁目９番２４号－２,,23,104,4510053,,,,,,,2021-10-20,1,,,,,エムズクオリティー,0
2289,8180001148375,新規,0,2021-10-20,2021-10-20,株式会社上原シーリング,,株式会社,愛知県,小牧市,東２丁目４４４番地,,23,219,4850831,,,,,,,2021-10-20,1,,,,,ウエハラシーリング,0
2294,8180003023106,新規,0,2021-10-20,2021-10-20,合同会社無双商事,,合同会社,愛知県,海部郡大治町,大字花常字東江端９番地の７,,23,424,4901136,,,,,,,2021-10-20,1,,,,,ムソウショウジ,0
2305,8240001058774,新規,0,2021-10-20,2021-10-20,株式会社行森学園,,株式会社,広島県,広島市東区,二葉の里１丁目７番１３号,,34,102,7320057,,,,,,,2021-10-20,1,,,,,ユキモリガクエン,0
2321,8290001094963,新規,0,2021-10-20,2021-10-20,株式会社ゼロイチハッカー,,株式会社,福岡県,福岡市中央区,大名２丁目６－１１ＦｕｋｕｏｋａＧｒｏｗｔｈＮｅｘｔ,,40,133,8100041,,,,,,,2021-10-20,1,,,,,ゼロイチハッカー,0
2322,8290001095086,新規,0,2021-10-20,2021-10-20,ＯＮＥ　ＳＴＹＬＥ株式会社,,株式会社,福岡県,福岡市中央区,春吉２丁目２－１８－１１０５,,40,133,8100003,,,,,,,2021-10-20,1,,,,,ワンスタイル,0
2325,8290003011727,新規,0,2021-10-20,2021-10-20,合同会社ＣＨＲ,,合同会社,福岡県,福岡市中央区,薬院２丁目７番２９－１５０１号,,40,133,8100022,,,,,,,2021-10-20,1,,,,,シーエイチアール,0
2326,8290003011735,新規,0,2021-10-20,2021-10-20,合同会社Ｄｉ　Ｍａｓｓａ,,合同会社,福岡県,福岡市博多区,博多駅前２丁目１０－１２－７０８,,40,132,8120011,,,,,,,2021-10-20,1,,,,,ディマッサ,0
2329,8290801027916,新規,0,2021-10-20,2021-10-20,株式会社若獅子,,株式会社,福岡県,北九州市戸畑区,浅生１丁目２番１５号,,40,105,8040062,,,,,,,2021-10-20,1,,,,,ワカジシ,0
2341,8360001029508,新規,0,2021-10-20,2021-10-20,株式会社ＢＬＡＣＫ　ＷＯＲＫＳ,,株式会社,沖縄県,那覇市,久茂地２丁目２－２タイムスビル２Ｆ,,47,201,9000015,,,,,,,2021-10-20,1,,,,,ブラックワークス,0
2342,8370001047723,新規,0,2021-10-20,2021-10-20,株式会社ＫＡＷＡＤＡＴＥ,,株式会社,宮城県,名取市,愛島小豆島字末無窪７１番地の６,,04,207,9811236,,,,,,,2021-10-20,1,,,,,カワダテ,0
2343,8370001047731,新規,0,2021-10-20,2021-10-20,株式会社Ｇｒａｃｉｅｕｘ,,株式会社,宮城県,登米市,津山町柳津字大柳津６９番地２,,04,212,9860401,,,,,,,2021-10-20,1,,,,,グラシュ,0
2345,8370003005448,新規,0,2021-10-20,2021-10-20,合同会社旭興産,,合同会社,宮城県,本吉郡南三陸町,志津川字田尻畑７２番地,,04,606,9860779,,,,,,,2021-10-20,1,,,,,アサヒコウサン,0
2354,8380003005042,新規,0,2021-10-20,2021-10-20,合同会社よつば,,合同会社,福島県,本宮市,本宮字栄田４２番地１,,07,214,9691148,,,,,,,2021-10-20,1,,,,,ヨツバ,0
2358,8400005008189,新規,0,2021-10-20,2021-10-20,特定非営利活動法人岩手県国際教育支援協会,,その他の設立登記法人,岩手県,盛岡市,山岸２丁目１番２２号,,03,201,0200004,,,,,,,2021-10-20,1,,,,,イワテケンコクサイキョウイクシエンキョウカイ,0
2366,8440001008965,新規,0,2021-10-20,2021-10-20,株式会社Ｃｙｂｅｒ　Ｅａｒｔｈ　Ｃｏｒｐｏｒａｔｉｏｎ,,株式会社,北海道,函館市,昭和４丁目５２番６号ハイムＲＩＩ１０２,00124626,01,202,0410812,,,,,,,2021-10-20,1,,,,,サイバーアースコーポレーション,0
2382,9010001221833,新規,0,2021-10-20,2021-10-20,株式会社遊戯,,株式会社,東京都,文京区,本郷２丁目２４－１本郷ＮＹビル２階,,13,105,1130033,,,,,,,2021-10-20,1,,,,,ユウギ,0
2383,9010001221957,新規,0,2021-10-20,2021-10-20,株式会社東洋サプライズ,,株式会社,東京都,千代田区,神田三崎町３丁目３番３号太陽ビル４０４,,13,101,1010061,,,,,,,2021-10-20,1,,,,,トウヨウサプライズ,0
2387,9010005034083,新規,0,2021-10-20,2021-10-20,一般財団法人Ｒｕｇｂｙ　Ｓｃｈｏｏｌ　Ｊａｐａｎ設立準備財団,,その他の設立登記法人,東京都,千代田区,四番町３番地１０・番町ＭＫビル１０２号室,,13,101,1020081,,,,,,,2021-10-20,1,,,,,ラグビースクールジャパンセツリツジュンビザイダン,0
2388,9010005034117,新規,0,2021-10-20,2021-10-20,一般社団法人南海堺阪急北千里メトロ江坂プロジェクト,,その他の設立登記法人,東京都,中央区,日本橋１丁目４番１号,,13,102,1030027,,,,,,,2021-10-20,1,,,,,ナンカイサカイハンキュウキタセンリメトロエサカプロジェクト,0
2394,9010401163345,新規,0,2021-10-20,2021-10-20,株式会社吉祥,,株式会社,東京都,港区,南青山３丁目１０番３０－３０１号,,13,103,1070062,,,,,,,2021-10-20,1,,,,,キチジョウ,0
2398,9010701041671,新規,0,2021-10-20,2021-10-20,ＴａｋｅＭｅ　Ｇｒｏｕｐ株式会社,,株式会社,東京都,品川区,上大崎１丁目３番２３号,,13,109,1410021,,,,,,,2021-10-20,1,,,,,テイクミーグループ,0
2406,9010901049647,新規,0,2021-10-20,2021-10-20,株式会社Ａｓｔｅｒｉｓｍ,,株式会社,東京都,世田谷区,奥沢５丁目１－１１メゾンドジョワ２０２,,13,112,1580083,,,,,,,2021-10-20,1,,,,,アステリズム,0
2407,9010901049655,新規,0,2021-10-20,2021-10-20,啓泉開発株式会社,,株式会社,東京都,世田谷区,砧１丁目１８番５号,,13,112,1570073,,,,,,,2021-10-20,1,,,,,ケイセンカイハツ,0
2411,9010903006877,新規,0,2021-10-20,2021-10-20,ケイゼットエンターテインメント合同会社,,合同会社,東京都,世田谷区,等々力４丁目１９番９号ラポール等々力１０２,,13,112,1580082,,,,,,,2021-10-20,1,,,,,ケイゼットエンターテインメント,0
2415,9011001143308,新規,0,2021-10-20,2021-10-20,株式会社つくる,,株式会社,東京都,目黒区,碑文谷１丁目４番２０号一階,,13,110,1520003,,,,,,,2021-10-20,1,,,,,ツクル,0
2416,9011001143530,新規,0,2021-10-20,2021-10-20,株式会社ＶＩＯＬＥＴ　ＣＬＯＵＤ　ＪＡＰＡＮ,,株式会社,東京都,渋谷区,円山町５番５号Ｎａｖｉ渋谷Ｖ３階,00124632,13,113,1500044,,,,,,,2021-10-20,1,,,,,バイオレットクラウドジャパン,0
2420,9011201023342,新規,0,2021-10-20,2021-10-20,株式会社ブルーリーフ,,株式会社,東京都,中野区,若宮３丁目６番１７号２０２,,13,114,1650033,,,,,,,2021-10-20,1,,,,,ブルーリーフ,0
2424,9011603003413,新規,0,2021-10-20,2021-10-20,柴山不動産合同会社,,合同会社,東京都,練馬区,南大泉４丁目５０番３号レジェンド南大泉３０６号室,,13,120,1780064,,,,,,,2021-10-20,1,,,,,シバヤマフドウサン,0
2448,9020001143440,新規,0,2021-10-20,2021-10-20,アンカー株式会社,,株式会社,神奈川県,横浜市中区,長者町８丁目１２３番地５第２末広ビル４１０,,14,104,2310033,,,,,,,2021-10-20,1,,,,,アンカー,0
2449,9020001143556,新規,0,2021-10-20,2021-10-20,株式会社ｉＤＸｃｓ,,株式会社,神奈川県,横浜市緑区,東本郷６丁目２４番地２,,14,113,2260002,,,,,,,2021-10-20,1,,,,,アイディエックス,0
2450,9020001143572,新規,0,2021-10-20,2021-10-20,株式会社ＯＫＭ,,株式会社,神奈川県,横浜市西区,南幸２丁目２０番１５号,,14,103,2200005,,,,,,,2021-10-20,1,,,,,オーケーエム,0
2451,9020003020679,新規,0,2021-10-20,2021-10-20,合同会社ＡＩＮＯ,,合同会社,神奈川県,横浜市旭区,本宿町１０５番地２９,,14,112,2410023,,,,,,,2021-10-20,1,,,,,アイノ,0
2460,9040001120685,新規,0,2021-10-20,2021-10-20,日麗株式会社,,株式会社,千葉県,船橋市,行田３丁目１番７棟６０６号,,12,204,2730044,,,,,,,2021-10-20,1,,,,,ニチレイ,0
2473,9050003006147,新規,0,2021-10-20,2021-10-20,合同会社Ｔｓｕｒｕｍｉ　Ｉｎｔｅｒｎａｔｉｏｎａｌ,,合同会社,茨城県,下妻市,高道祖４２２１番地５３,,08,210,3040031,,,,,,,2021-10-20,1,,,,,ツルミインターナショナル,0
2474,9060003003837,新規,0,2021-10-20,2021-10-20,合同会社るしあくらぶ,,合同会社,栃木県,日光市,木和田島３１１６－７,,09,206,3212345,,,,,,,2021-10-20,1,,,,,ルシアクラブ,0
2477,9070001038553,新規,0,2021-10-20,2021-10-20,株式会社ｐｌａｎｔｓ　ｔｅｃｈ,,株式会社,群馬県,邑楽郡千代田町,大字新福寺６５８番地１,,10,523,3700505,,,,,,,2021-10-20,1,,,,,プランツテック,0
2511,9120001241259,新規,0,2021-10-20,2021-10-20,株式会社ＡＤＥＡＭ,,株式会社,大阪府,大阪市浪速区,浪速東１丁目４番７号,,27,111,5560025,,,,,,,2021-10-20,1,,,,,アデアム,0
2512,9120001241300,新規,0,2021-10-20,2021-10-20,Ｔ－ブリッジンシステム株式会社,,株式会社,大阪府,門真市,五月田町１８－２７－２,,27,223,5710027,,,,,,,2021-10-20,1,,,,,ティーブリッジンシステム,0
2514,9120003020446,新規,0,2021-10-20,2021-10-20,合同会社ジュピターエイト,,合同会社,大阪府,大阪市平野区,平野東２丁目５番１９号レオパレスアーク１０４,,27,126,5470043,,,,,,,2021-10-20,1,,,,,ジュピターエイト,0
2535,9140001123521,新規,0,2021-10-20,2021-10-20,株式会社アールユー興産,,株式会社,兵庫県,尼崎市,西昆陽３丁目２１番３号,,28,202,6610047,,,,,,,2021-10-20,1,,,,,アールユーコウサン,0
2544,9160001023736,新規,0,2021-10-20,2021-10-20,農地所有適格法人みろくファーマーズ株式会社,,株式会社,滋賀県,近江八幡市,鷹飼町東２丁目８番地８,,25,204,5230897,,,,,,,2021-10-20,1,,,,,ノウチショユウテキカクホウジンミロクファーマーズ,0
2560,9180001148366,新規,0,2021-10-20,2021-10-20,株式会社松田美装,,株式会社,愛知県,海部郡大治町,大字長牧字浦畑１２３番地の３,,23,424,4901131,,,,,,,2021-10-20,1,,,,,マツダビソウ,0
2586,9290001095093,新規,0,2021-10-20,2021-10-20,株式会社吉福商事,,株式会社,福岡県,糟屋郡志免町,大字吉原１３４－２８,,40,343,8112208,,,,,,,2021-10-20,1,,,,,ヨシフクショウジ,0
2597,9290801027915,新規,0,2021-10-20,2021-10-20,株式会社Ａ－ＳＥ,,株式会社,福岡県,北九州市八幡西区,鳴水町１３番１４号,,40,109,8060052,,,,,,,2021-10-20,1,,,,,エース,0
2600,9310005008560,新規,0,2021-10-20,2021-10-20,農事組合法人かわち,,その他の設立登記法人,長崎県,東彼杵郡波佐見町,川内郷１８５８番地１,,42,323,8593721,,,,,,,2021-10-20,1,,,,,カワチ,0
2604,9320003003637,新規,0,2021-10-20,2021-10-20,合同会社ＧＥＮＫＩＤＡＭＡ,,合同会社,大分県,大分市,松が丘３丁目１９番７号,,44,201,8701168,,,,,,,2021-10-20,1,,,,,ゲンキダマ,0
2607,9330001029088,新規,0,2021-10-20,2021-10-20,株式会社山都竹琉,,株式会社,熊本県,上益城郡山都町,島木２４００,,43,447,8613454,,,,,,,2021-10-20,1,,,,,ヤマトタケル,0
2614,9360001029523,新規,0,2021-10-20,2021-10-20,株式会社ラピラス,,株式会社,沖縄県,豊見城市,字豊見城４８番地アルファステイツ豊見城城址公園４１０号,,47,212,9010241,,,,,,,2021-10-20,1,,,,,ラピラス,0
2628,9380003005041,新規,0,2021-10-20,2021-10-20,合同会社ベストワン,,合同会社,福島県,南相馬市,鹿島区北海老字大森９７番地２,,07,212,9792311,,,,,,,2021-10-20,1,,,,,ベストワン,0
2633,9430001085071,新規,0,2021-10-20,2021-10-20,株式会社ＳＥＣＯＮＤＣＬＡＳＳ,,株式会社,北海道,札幌市中央区,南一条西１６丁目１番地３２３春野ビル３階,,01,101,0600061,,,,,,,2021-10-20,1,,,,,セカンドクラス,0
2634,9430001085204,新規,0,2021-10-20,2021-10-20,株式会社コミュ,,株式会社,北海道,美唄市,西一条南２丁目２番１５号,,01,215,0720024,,,,,,,2021-10-20,1,,,,,コミュ,0
