sequenceNumber,corporateNumber,process,correct,updateDate,changeDate,name,nameImageId,kind,prefectureName,cityName,streetNumber,addressImageId,prefectureCode,cityCode,postCode,addressOutside,addressOutsideImageId,closeDate,closeCause,successorCorporateNumber,changeCause,assignmentDate,latest,enName,enPrefectureName,enCityName,enAddressOutside,furigana,hihyoji
3,1010001221262,新規,0,2021-09-22,2021-09-22,オフィスＫＴ株式会社,,株式会社,東京都,千代田区,永田町２丁目１０番３号東急キャピトルタワー１６０７,,13,101,1000014,,,,,,,2021-09-22,1,,,,,オフィスケイティー,0
4,1010001221270,新規,0,2021-09-22,2021-09-22,株式会社ＦＬＡＴ　ＬＡＮＤ,,株式会社,東京都,千代田区,平河町１丁目６番８号,,13,101,1020093,,,,,,,2021-09-22,1,,,,,フラットランド,0
5,1010001221287,新規,0,2021-09-22,2021-09-22,六ヶ所村風力開発株式会社,,株式会社,東京都,千代田区,内幸町１丁目１番６号,,13,101,1000011,,,,,,,2021-09-22,1,,,,,ロッカショムラフウリョクカイハツ,0
6,1010001221295,新規,0,2021-09-22,2021-09-22,株式会社Ｋａｒａｔ,,株式会社,東京都,千代田区,岩本町２丁目７番６号,,13,101,1010032,,,,,,,2021-09-22,1,,,,,カラット,0
10,1010003035867,新規,0,2021-09-22,2021-09-22,ジェミニ合同会社,,合同会社,東京都,中央区,銀座１丁目６番１１号土志田ビルディング３Ｆ,,13,102,1040061,,,,,,,2021-09-22,1,,,,,ジェミニ,0
11,1010003035875,新規,0,2021-09-22,2021-09-22,合同会社ハンテツ,,合同会社,東京都,文京区,西片２丁目７番１３号,,13,105,1130024,,,,,,,2021-09-22,1,,,,,ハンテツ,0
14,1010005033992,新規,0,2021-09-22,2021-09-22,一般社団法人相続・財産管理研究所,,その他の設立登記法人,東京都,文京区,湯島２丁目３１番２４号湯島ベアービル５階,,13,105,1130034,,,,,,,2021-09-22,1,,,,,ソウゾクザイサンカンリケンキュウショ,0
18,1010401162791,新規,0,2021-09-22,2021-09-22,ＭＯＶＥ株式会社,,株式会社,東京都,港区,南青山２丁目２番１５号,,13,103,1070062,,,,,,,2021-09-22,1,,,,,ムーブ,0
19,1010401162800,新規,0,2021-09-22,2021-09-22,株式会社Ｃｙｂｅｒ　ＮＥＸＴ,,株式会社,東京都,港区,赤坂４丁目２番３号ディアシティ赤坂一ツ木館４０２号室,,13,103,1070052,,,,,,,2021-09-22,1,,,,,サイバーネクスト,0
21,1010403026160,新規,0,2021-09-22,2021-09-22,合同会社謝恩,,合同会社,東京都,港区,南青山２丁目２番１５号ウィン青山９４２,,13,103,1070062,,,,,,,2021-09-22,1,,,,,シャオン,0
27,1010701041555,新規,0,2021-09-22,2021-09-22,株式会社ＫＫコーポレーション,,株式会社,東京都,品川区,東中延２丁目５－４,,13,109,1420052,,,,,,,2021-09-22,1,,,,,ケーケーコーポレーション,0
28,1010703005946,新規,0,2021-09-22,2021-09-22,金田商事合同会社,,合同会社,東京都,品川区,豊町６丁目１６番１２号,,13,109,1420042,,,,,,,2021-09-22,1,,,,,カネダショウジ,0
31,1010801032330,新規,0,2021-09-22,2021-09-22,山王ホームズ株式会社,,株式会社,東京都,大田区,山王２丁目４０番３号,,13,111,1430023,,,,,,,2021-09-22,1,,,,,サンノウホームズ,0
34,1010803003890,新規,0,2021-09-22,2021-09-22,合同会社Ｍａｋａｎａ,,合同会社,東京都,大田区,池上５丁目２１番９号デュオメゾン池上３０３,,13,111,1460082,,,,,,,2021-09-22,1,,,,,マカナ,0
37,1010901049489,新規,0,2021-09-22,2021-09-22,株式会社ティ．エッセ,,株式会社,東京都,世田谷区,池尻２丁目２１番８号アート・オブ・パークサイド１０２,,13,112,1540001,,,,,,,2021-09-22,1,,,,,ティエッセ,0
43,1011001142795,新規,0,2021-09-22,2021-09-22,株式会社ピルビスアーク,,株式会社,東京都,渋谷区,恵比寿４丁目２７番１号ｐａｇｏｄａＳＫ７０１号,,13,113,1500013,,,,,,,2021-09-22,1,,,,,ピルビスアーク,0
44,1011001142853,新規,0,2021-09-22,2021-09-22,株式会社ＧＩＺＭＯ,,株式会社,東京都,目黒区,目黒１丁目９番４号,,13,110,1530063,,,,,,,2021-09-22,1,,,,,ギズモ,0
50,1011101096330,新規,0,2021-09-22,2021-09-22,株式会社Ｓｕｃｈｉｃａ,,株式会社,東京都,新宿区,西新宿３丁目２－９新宿ワシントンホテルビル本館２Ｆ,,13,104,1600023,,,,,,,2021-09-22,1,,,,,,0
57,1011401023686,新規,0,2021-09-22,2021-09-22,株式会社ヴォーグ,,株式会社,東京都,板橋区,南常盤台１丁目３０－１７－４０１,,13,119,1740072,,,,,,,2021-09-22,1,,,,,ヴォーグ,0
64,1013301048029,新規,0,2021-09-22,2021-09-22,昆華株式会社,,株式会社,東京都,豊島区,西池袋１丁目３１－５白井ビル３－３号室,,13,116,1710021,,,,,,,2021-09-22,1,,,,,コンカ,0
65,1013303005829,新規,0,2021-09-22,2021-09-22,合同会社Ｈａｎａ－Ｈａｎａ,,合同会社,東京都,豊島区,東池袋１丁目２８－１タクトＴ・Ｏビルグローリア初穂池袋７０５号,,13,116,1700013,,,,,,,2021-09-22,1,,,,,ハナハナ,0
75,1020001143101,新規,0,2021-09-22,2021-09-22,株式会社當建,,株式会社,神奈川県,横浜市鶴見区,仲通３丁目７８番地１６,,14,101,2300042,,,,,,,2021-09-22,1,,,,,トウケン,0
80,1020003020471,新規,0,2021-09-22,2021-09-22,Ｋ＆Ｋ　ｍｅｄｉａ合同会社,,合同会社,神奈川県,川崎市高津区,久本１丁目６番８号,,14,134,2130011,,,,,,,2021-09-22,1,,,,,ケーアンドケーメディア,0
81,1020003020513,新規,0,2021-09-22,2021-09-22,合同会社フォレストラボ,,合同会社,神奈川県,横浜市西区,みなとみらい４丁目１０番２号,,14,103,2200012,,,,,,,2021-09-22,1,,,,,フォレストラボ,0
85,1021001074006,新規,0,2021-09-22,2021-09-22,５１０トラスト株式会社,,株式会社,神奈川県,藤沢市,鵠沼花沢町４番１０号,00124295,14,205,2510023,,,,,,,2021-09-22,1,,,,,ゴーイチマルトラスト,0
89,1030001144404,新規,0,2021-09-22,2021-09-22,ＡＯＮ　ＣＡＲＧＯ　ＩＮＴＥＲＮＡＴＩＯＮＡＬ　ＪＰ株式会社,,株式会社,埼玉県,狭山市,大字水野１４７番地の７５,,11,215,3501317,,,,,,,2021-09-22,1,,,,,エーオーエヌカーゴインターナショナルジェーピー,0
90,1030001144445,新規,0,2021-09-22,2021-09-22,正和株式会社,,株式会社,埼玉県,川口市,上青木西２丁目１番７－２０５号中銀マンション,,11,203,3330845,,,,,,,2021-09-22,1,,,,,ショウワ,0
91,1030001144453,新規,0,2021-09-22,2021-09-22,ＴＲＳ　ｃｌｅａｒ株式会社,,株式会社,埼玉県,新座市,野火止４丁目１９番１１－５０４号新座ビフォード,,11,230,3520011,,,,,,,2021-09-22,1,,,,,トラスクリア,0
104,1040001120247,新規,0,2021-09-22,2021-09-22,株式会社フォーチュンマッシュルームラボ,,株式会社,千葉県,佐倉市,上志津１５９９－６,,12,212,2850846,,,,,,,2021-09-22,1,,,,,フォーチュンマッシュルームラボ,0
105,1040001120271,新規,0,2021-09-22,2021-09-22,インジディア株式会社,,株式会社,千葉県,船橋市,田喜野井４丁目２４番１８号,,12,204,2740073,,,,,,,2021-09-22,1,,,,,インジディア,0
110,1050001049865,新規,0,2021-09-22,2021-09-22,株式会社こが農園,,株式会社,茨城県,古河市,尾崎２０８７番地６,,08,204,3060101,,,,,,,2021-09-22,1,,,,,コガノウエン,0
117,1080001024452,新規,0,2021-09-22,2021-09-22,株式会社エフクリエイション,,株式会社,静岡県,藤枝市,北方３５番地,,22,214,4260212,,,,,,,2021-09-22,1,,,,,エフクリエイション,0
125,1090003001944,新規,0,2021-09-22,2021-09-22,ゆたか合同会社,,合同会社,山梨県,北杜市,明野町三之蔵８７４,,19,209,4080203,,,,,,,2021-09-22,1,,,,,ユタカ,0
144,1120001240499,新規,0,2021-09-22,2021-09-22,株式会社シーズテック,,株式会社,大阪府,大阪市淀川区,木川西４丁目１番１３号,,27,123,5320013,,,,,,,2021-09-22,1,,,,,シーズテック,0
145,1120001240540,新規,0,2021-09-22,2021-09-22,株式会社関西総合サービス,,株式会社,大阪府,大阪市東淀川区,東中島１丁目２１番２－５０１号,,27,114,5330033,,,,,,,2021-09-22,1,,,,,カンサイソウゴウサービス,0
146,1120001240557,新規,0,2021-09-22,2021-09-22,東頤鈺稀元素株式会社,00124300,株式会社,大阪府,大阪市港区,南市岡３丁目１０－２グリシーヌ弁天町７０１号室,,27,107,5520011,,,,,,,2021-09-22,1,,,,,トウイギョクキゲンソ,0
147,1120001240565,新規,0,2021-09-22,2021-09-22,リアル・トーマス・ロジ株式会社,,株式会社,大阪府,大阪市北区,豊崎３丁目１１番６－１５０５号,,27,127,5310072,,,,,,,2021-09-22,1,,,,,リアルトーマスロジ,0
148,1120001240573,新規,0,2021-09-22,2021-09-22,株式会社Ｊグッズパーク,,株式会社,大阪府,大阪市西区,西本町２丁目１番２１－６０２号,,27,106,5500005,,,,,,,2021-09-22,1,,,,,ジェイグッズパーク,0
155,1120005022506,新規,0,2021-09-22,2021-09-22,特定非営利活動法人ＯＮＥ　ＷＯＲＬＤ,,その他の設立登記法人,大阪府,大阪市東住吉区,山坂１丁目３番１８号,,27,121,5460035,,,,,,,2021-09-22,1,,,,,ワンワールド,0
156,1120101064328,新規,0,2021-09-22,2021-09-22,みらい総合建築株式会社,,株式会社,大阪府,堺市東区,白鷺町２丁９番４号,,27,143,5998107,,,,,,,2021-09-22,1,,,,,ミライソウゴウケンチク,0
158,1120103004348,新規,0,2021-09-22,2021-09-22,合同会社ＮＥＸＩＡ,,合同会社,大阪府,羽曳野市,埴生野５７７番地の１８,,27,222,5830866,,,,,,,2021-09-22,1,,,,,ネクシア,0
161,1122003002183,新規,0,2021-09-22,2021-09-22,合同会社ｂｅｎｅ,,合同会社,大阪府,東大阪市,足代北２丁目９番２号,,27,227,5770058,,,,,,,2021-09-22,1,,,,,ベネ,0
163,1130001070128,新規,0,2021-09-22,2021-09-22,堀池義商店株式会社,,株式会社,京都府,相楽郡精華町,大字菅井小字西山４８番地３,,26,366,6190242,,,,,,,2021-09-22,1,,,,,ホリイケヨシショウテン,0
164,1130001070136,新規,0,2021-09-22,2021-09-22,株式会社Ｒｉｎｏ,,株式会社,京都府,京都市左京区,吉田中阿達町３３番地５,,26,103,6068306,,,,,,,2021-09-22,1,,,,,リノ,0
173,1140003016755,新規,0,2021-09-22,2021-09-22,合同会社どすこいファーム,,合同会社,兵庫県,南あわじ市,養宜上１５５番地１,,28,224,6560400,,,,,,,2021-09-22,1,,,,,ドスコイファーム,0
176,1140005025820,新規,0,2021-09-22,2021-09-22,東栄Ｅ－ｃｒｅｗ協同組合,,その他の設立登記法人,兵庫県,姫路市,東雲町５丁目８番地１,,28,201,6700046,,,,,,,2021-09-22,1,,,,,トウエイイークルー,0
179,1150001024932,新規,0,2021-09-22,2021-09-22,株式会社カットネーブル,,株式会社,奈良県,奈良市,百楽園１丁目１０番６号ビアンカ百楽園Ⅰ１０８号室,00124291,29,201,6310024,,,,,,,2021-09-22,1,,,,,カットネーブル,0
181,1160003002381,新規,0,2021-09-22,2021-09-22,合同会社イロハニホヘト,,合同会社,滋賀県,大津市,西の庄４番１３号,,25,201,5200818,,,,,,,2021-09-22,1,,,,,イロハニホヘト,0
184,1180001147904,新規,0,2021-09-22,2021-09-22,株式会社ＨＨＰ,,株式会社,愛知県,大府市,江端町３丁目１４３番地,,23,223,4740035,,,,,,,2021-09-22,1,,,,,エイチエイチピー,0
189,1190003003765,新規,0,2021-09-22,2021-09-22,合同会社みかん,,合同会社,三重県,南牟婁郡御浜町,大字阿田和５０８３番地１,,24,561,5195204,,,,,,,2021-09-22,1,,,,,ミカン,0
218,1340001024104,新規,0,2021-09-22,2021-09-22,株式会社Ｏｎｅ　Ａｓｓｉｓｔ,,株式会社,鹿児島県,奄美市,名瀬長浜町２６番１５号,,46,222,8940036,,,,,,,2021-09-22,1,,,,,ワンアシスト,0
227,1380001032202,新規,0,2021-09-22,2021-09-22,ＬＵＡＮＡ株式会社,,株式会社,福島県,伊達市,広前６番地１,,07,213,9600419,,,,,,,2021-09-22,1,,,,,ルアナ,0
228,1380001032210,新規,0,2021-09-22,2021-09-22,マルコシオート株式会社,,株式会社,福島県,郡山市,横塚２丁目２０番１１号,,07,203,9638803,,,,,,,2021-09-22,1,,,,,マルコシオート,0
236,1420001017594,新規,0,2021-09-22,2021-09-22,株式会社桜,,株式会社,青森県,八戸市,下長４丁目５－８,,02,203,0391164,,,,,,,2021-09-22,1,,,,,サクラ,0
237,1420005007773,新規,0,2021-09-22,2021-09-22,一般社団法人白昇会,,その他の設立登記法人,青森県,青森市,小柳６丁目９番１２号,,02,201,0300915,,,,,,,2021-09-22,1,,,,,ハクショウカイ,0
239,1430001085005,新規,0,2021-09-22,2021-09-22,株式会社万太郎,,株式会社,北海道,虻田郡京極町,字更進４７０－３－１０１,,01,399,0440132,,,,,,,2021-09-22,1,,,,,マンタロウ,0
242,1480001011501,新規,0,2021-09-22,2021-09-22,株式会社ＳＢＥ,,株式会社,徳島県,小松島市,横須町１３番５９号,,36,203,7730006,,,,,,,2021-09-22,1,,,,,エスビーイー,0
259,2010001221195,新規,0,2021-09-22,2021-09-22,ロシックス・ジャパン株式会社,,株式会社,東京都,千代田区,丸の内２丁目３番２号郵船ビルディング１階,,13,101,1000005,,,,,,,2021-09-22,1,,,,,ロシックスジャパン,0
260,2010001221229,新規,0,2021-09-22,2021-09-22,株式会社Ｂｅｓｔ　Ａｇｅｎｔ,,株式会社,東京都,中央区,銀座６丁目６番１号,,13,102,1040061,,,,,,,2021-09-22,1,,,,,ベストエージェント,0
261,2010001221261,新規,0,2021-09-22,2021-09-22,株式会社Ｆｏｕｒ　Ｌｅａｆ　Ｔｅｃｈｎｏｌｏｇｙ,,株式会社,東京都,千代田区,神田三崎町３丁目５番９号８１５号室,,13,101,1010061,,,,,,,2021-09-22,1,,,,,フォーリーフテクノロジー,0
266,2010005033760,新規,0,2021-09-22,2021-09-22,ベリサーブユニオン,,その他の設立登記法人,東京都,千代田区,神田三崎町３丁目１－１６神保町北東急ビル,,13,101,1010061,,,,,,,2021-09-22,1,,,,,ベリサーブユニオン,0
271,2010401162799,新規,0,2021-09-22,2021-09-22,株式会社Ｒｏｖｅｒ,,株式会社,東京都,港区,南青山２丁目２番１５号,,13,103,1070062,,,,,,,2021-09-22,1,,,,,ローバー,0
277,2010601059969,新規,0,2021-09-22,2021-09-22,まごころ株式会社,,株式会社,東京都,江東区,福住１丁目１５番６－１０４号,,13,108,1350032,,,,,,,2021-09-22,1,,,,,マゴコロ,0
278,2010701041554,新規,0,2021-09-22,2021-09-22,株式会社ＴｒｕｓｔＧ,,株式会社,東京都,品川区,大井１丁目４３－７トップルーム品川第二９０３号室,,13,109,1400014,,,,,,,2021-09-22,1,,,,,トラストジー,0
281,2010801032338,新規,0,2021-09-22,2021-09-22,ワントラック株式会社,,株式会社,東京都,大田区,南馬込４丁目４８番１０－６号,,13,111,1430025,,,,,,,2021-09-22,1,,,,,ワントラック,0
283,2010901049471,新規,0,2021-09-22,2021-09-22,株式会社ｋｉｉ　ｐｌｕｓ,,株式会社,東京都,世田谷区,赤堤４丁目３６番１８号,,13,112,1560044,,,,,,,2021-09-22,1,,,,,キイプラス,0
291,2011001142877,新規,0,2021-09-22,2021-09-22,株式会社Ｐｕｅｒ　Ｍｅｎｔｉｓ,,株式会社,東京都,目黒区,八雲５丁目１８番１５号,,13,110,1520023,,,,,,,2021-09-22,1,,,,,プエルメンティス,0
294,2011003013374,新規,0,2021-09-22,2021-09-22,Ｈ－７ＨＯＵＳＥ合同会社,,合同会社,東京都,目黒区,目黒本町１丁目１２－１２－４０８,,13,110,1520002,,,,,,,2021-09-22,1,,,,,エイチセブンハウス,0
295,2011003013390,新規,0,2021-09-22,2021-09-22,合同会社Ｓｔｙｌｅ　Ｎ．,,合同会社,東京都,渋谷区,幡ヶ谷２丁目２５番１号レジデンシャルスター幡ヶ谷４０２,,13,113,1510072,,,,,,,2021-09-22,1,,,,,スタイルエヌ,0
296,2011003013399,新規,0,2021-09-22,2021-09-22,合同会社エビスペイメント,,合同会社,東京都,渋谷区,恵比寿西２丁目５番１号セゾン代官山３０１,,13,113,1500021,,,,,,,2021-09-22,1,,,,,エビスペイメント,0
299,2011101096370,新規,0,2021-09-22,2021-09-22,株式会社マーレ,,株式会社,東京都,新宿区,大久保３丁目８番１－１４１２号,,13,104,1690072,,,,,,,2021-09-22,1,,,,,マーレ,0
306,2011601025408,新規,0,2021-09-22,2021-09-22,株式会社埼翼,,株式会社,東京都,練馬区,中村南１丁目１２番５－３０７号,,13,120,1760025,,,,,,,2021-09-22,1,,,,,キヨク,0
317,2013301048036,新規,0,2021-09-22,2021-09-22,株式会社トトノエテ,,株式会社,東京都,豊島区,東池袋２丁目７－１－１１０１,,13,116,1700013,,,,,,,2021-09-22,1,,,,,トトノエテ,0
318,2013303005828,新規,0,2021-09-22,2021-09-22,よつば合同会社,,合同会社,東京都,豊島区,東池袋５丁目４３番１０号グランデ石川３０３号,,13,116,1700013,,,,,,,2021-09-22,1,,,,,ヨツバ,0
323,2020001143100,新規,0,2021-09-22,2021-09-22,株式会社ｍｉｃｏ,,株式会社,神奈川県,川崎市高津区,末長１丁目３８番２０－３０５号,,14,134,2130013,,,,,,,2021-09-22,1,,,,,ミコ,0
324,2020001143117,新規,0,2021-09-22,2021-09-22,Ｋ－ＴＲＵＳＴ株式会社,,株式会社,神奈川県,横浜市港北区,篠原台町２番２６号,,14,109,2220024,,,,,,,2021-09-22,1,,,,,ケイトラスト,0
327,2020005015213,新規,0,2021-09-22,2021-09-22,一般社団法人こどもみらいはなまる,,その他の設立登記法人,神奈川県,横浜市中区,相生町５丁目７９番地アトラスビル２階,,14,104,2310012,,,,,,,2021-09-22,1,,,,,コドモミライハナマル,0
332,2021001073980,新規,0,2021-09-22,2021-09-22,オレンジ運送株式会社,,株式会社,神奈川県,小田原市,千代５３６,,14,206,2500215,,,,,,,2021-09-22,1,,,,,オレンジウンソウ,0
333,2021001073989,新規,0,2021-09-22,2021-09-22,株式会社Ｒｏｏｔ　Ｄｉｖｉｓｉｏｎ,,株式会社,神奈川県,藤沢市,辻堂神台２丁目２番１号アイクロス湘南５ＦＥ号Ｎｏ，１０,,14,205,2510041,,,,,,,2021-09-22,1,,,,,ルートディビジョン,0
339,2021003010908,新規,0,2021-09-22,2021-09-22,恒昌合同会社,,合同会社,神奈川県,相模原市中央区,田名２７０２番地７,,14,152,2520244,,,,,,,2021-09-22,1,,,,,コウショウ,0
343,2030001144386,新規,0,2021-09-22,2021-09-22,株式会社戸塚コーポレーション,,株式会社,埼玉県,川口市,長蔵１丁目２５番５号,,11,203,3330807,,,,,,,2021-09-22,1,,,,,トツカコーポレーション,0
344,2030001144452,新規,0,2021-09-22,2021-09-22,株式会社方誠産業,,株式会社,埼玉県,蕨市,中央１丁目１７番４８号ベルハイツ第１蕨９０６号,,11,223,3350004,,,,,,,2021-09-22,1,,,,,ホウセイサンギョウ,0
353,2040001120279,新規,0,2021-09-22,2021-09-22,株式会社オルカクリエイト,,株式会社,千葉県,佐倉市,上座４１２番地５０,,12,212,2850854,,,,,,,2021-09-22,1,,,,,オルカクリエイト,0
356,2040003018579,新規,0,2021-09-22,2021-09-22,合同会社はな会計事務所,,合同会社,千葉県,市川市,南行徳１丁目１９番１号グランデ１,,12,203,2720138,,,,,,,2021-09-22,1,,,,,ハナカイケイジムショ,0
359,2070001038452,新規,0,2021-09-22,2021-09-22,株式会社Ｐｕｐｐｙ　Ｔｈｅ　Ｍａｐｓ,,株式会社,群馬県,邑楽郡大泉町,大字古海７３６番地４８,,10,524,3700524,,,,,,,2021-09-22,1,,,,,パピーザマップス,0
362,2070003004238,新規,0,2021-09-22,2021-09-22,ＲＩＮ・スペース合同会社,,合同会社,群馬県,前橋市,岩神町３丁目４番２３号,,10,201,3710035,,,,,,,2021-09-22,1,,,,,リンスペース,0
370,2090005007435,新規,0,2021-09-22,2021-09-22,特定非営利活動法人富士山からはじまる天然顔料と粉砕の研究会,,その他の設立登記法人,山梨県,韮崎市,神山町鍋山１８３０番地１韮崎大村美術館内,,19,207,4070043,,,,,,,2021-09-22,1,,,,,フジサンカラハジマルテンネンガンリョウトフンサイノケンキュウカイ,0
389,2120001240498,新規,0,2021-09-22,2021-09-22,エーテル株式会社,,株式会社,大阪府,大阪市西区,境川２丁目４－３,,27,106,5500024,,,,,,,2021-09-22,1,,,,,エーテル,0
390,2120001240564,新規,0,2021-09-22,2021-09-22,株式会社ＶＩＶＩＡＮＡ　ＮＯＶＡＮＴＡ,,株式会社,大阪府,大阪市福島区,福島１丁目１番４８号,,27,103,5530003,,,,,,,2021-09-22,1,,,,,ヴィヴィアナノヴァンタ,0
396,2120003020287,新規,0,2021-09-22,2021-09-22,合同会社たのし味屋,,合同会社,大阪府,大阪市城東区,古市１丁目１２番１３号,,27,118,5360001,,,,,,,2021-09-22,1,,,,,タノシミヤ,0
400,2120101064137,新規,0,2021-09-22,2021-09-22,株式会社おかわり,,株式会社,大阪府,和泉市,池上町３丁目１４番１０８号,,27,219,5940083,,,,,,,2021-09-22,1,,,,,オカワリ,0
402,2120105009451,新規,0,2021-09-22,2021-09-22,一般社団法人ＪＯＳサービス,,その他の設立登記法人,大阪府,泉南市,信達大苗代５５１番地の２,,27,228,5900505,,,,,,,2021-09-22,1,,,,,ジェイオーエスサービス,0
404,2120901044908,新規,0,2021-09-22,2021-09-22,株式会社葉隠工房,,株式会社,大阪府,高槻市,安満東の町７番２９号,,27,207,5691104,,,,,,,2021-09-22,1,,,,,ハガクレ,0
405,2120901044916,新規,0,2021-09-22,2021-09-22,株式会社Ｂ－ＳＴＹＬＥ,,株式会社,大阪府,吹田市,上山手町５２番５号,,27,205,5650841,,,,,,,2021-09-22,1,,,,,ビースタイル,0
407,2120903003837,新規,0,2021-09-22,2021-09-22,合同会社Ｄ－ｓｔｏｃｋ,,合同会社,大阪府,茨木市,中津町６番２６号ダイドーシティ茨木１０２号室,,27,211,5670824,,,,,,,2021-09-22,1,,,,,ディーストック,0
410,2122003002182,新規,0,2021-09-22,2021-09-22,Ｋｉｉｔｏｓ合同会社,,合同会社,大阪府,東大阪市,西鴻池町２丁目２番２８－３０４号,,27,227,5780976,,,,,,,2021-09-22,1,,,,,キートス,0
415,2130003007498,新規,0,2021-09-22,2021-09-22,合同会社日盛国際観光,,合同会社,京都府,船井郡京丹波町,蒲生野口４９番地,,26,407,6220214,,,,,,,2021-09-22,1,,,,,ニチモリコクサイカンコウ,0
421,2140001123049,新規,0,2021-09-22,2021-09-22,株式会社ＮＴＫサービス,,株式会社,兵庫県,神戸市須磨区,平田町２丁目２番１号ＨＩＲＡＴＡ１９７７ＢＵＩＬＤＩＮＧ２階,,28,107,6540021,,,,,,,2021-09-22,1,,,,,エヌティーケーサービス,0
437,2180301035386,新規,0,2021-09-22,2021-09-22,株式会社ＤＥＮ　Ｑ,,株式会社,愛知県,豊橋市,新栄町字東小向１３番地３,,23,201,4418016,,,,,,,2021-09-22,1,,,,,デンキュー,0
448,2230005009169,新規,0,2021-09-22,2021-09-22,一般社団法人叶雲会,,その他の設立登記法人,富山県,富山市,婦中町中名９０３番地３３,,16,201,9392741,,,,,,,2021-09-22,1,,,,,キョウウンカイ,0
453,2260001035975,新規,0,2021-09-22,2021-09-22,株式会社セッションズ,,株式会社,岡山県,倉敷市,児島下の町２丁目２番１２号,,33,202,7110906,,,,,,,2021-09-22,1,,,,,セッションズ,0
464,2290003011641,新規,0,2021-09-22,2021-09-22,合同会社Ａｌｄｅｓｉｇｎ,,合同会社,福岡県,福岡市博多区,神屋町６番１８号神屋ビル２０５号,,40,132,8120022,,,,,,,2021-09-22,1,,,,,アイデザイン,0
466,2290801027822,新規,0,2021-09-22,2021-09-22,株式会社ＣａｒＲｉｄｅ,,株式会社,福岡県,北九州市小倉北区,木町１丁目７番３３号,,40,106,8030851,,,,,,,2021-09-22,1,,,,,カーライド,0
476,2370005010352,新規,0,2021-09-22,2021-09-22,特定非営利活動法人ホープエイド,,その他の設立登記法人,宮城県,宮城郡利府町,神谷沢字塚元７０番地１カーサレイールＦ２０２,,04,406,9810121,,,,,,,2021-09-22,1,,,,,ホープエイド,0
482,2390003001871,新規,0,2021-09-22,2021-09-22,合同会社寒河江システム,,合同会社,山形県,米沢市,林泉寺２丁目２番２８号,,06,202,9920062,,,,,,,2021-09-22,1,,,,,サガエシステム,0
485,2420001017593,新規,0,2021-09-22,2021-09-22,株式会社ＬＩＦＥ　ＩＳ　ＧＩＦＴ,,株式会社,青森県,青森市,橋本１丁目３－１４,,02,201,0300823,,,,,,,2021-09-22,1,,,,,ライフイズギフト,0
488,2430001085004,新規,0,2021-09-22,2021-09-22,安田工業株式会社,,株式会社,北海道,札幌市北区,新琴似町１０２２番地,,01,102,0010915,,,,,,,2021-09-22,1,,,,,ヤスダコウギョウ,0
489,2430003013177,新規,0,2021-09-22,2021-09-22,合同会社ｍｉｃｏ,,合同会社,北海道,札幌市中央区,南四条東３丁目１７番地３アルファタワー札幌南５０３,,01,101,0600054,,,,,,,2021-09-22,1,,,,,ミコ,0
493,2480001011500,新規,0,2021-09-22,2021-09-22,株式会社Ｍｏｔｈｅｒ　Ｅａｒｔｈ,,株式会社,徳島県,那賀郡那賀町,西納字戸丸４９番地５,,36,368,7715327,,,,,,,2021-09-22,1,,,,,マザーアース,0
494,2480003001730,新規,0,2021-09-22,2021-09-22,合同会社Ｍ企画,,合同会社,徳島県,吉野川市,川島町学字北久保４７番地５,,36,205,7793306,,,,,,,2021-09-22,1,,,,,エムキカク,0
503,3010001221236,新規,0,2021-09-22,2021-09-22,株式会社Ｈｙｇｏｒｙ,,株式会社,東京都,千代田区,神田淡路町２丁目１番７号ＮＣＯ神田淡路町ビル５階,,13,101,1010063,,,,,,,2021-09-22,1,,,,,ハイゴリー,0
504,3010001221260,新規,0,2021-09-22,2021-09-22,株式会社コスミックパートナーズ,,株式会社,東京都,中央区,日本橋本町２丁目６番７－１１０７号,,13,102,1030023,,,,,,,2021-09-22,1,,,,,コスミックパートナーズ,0
505,3010001221302,新規,0,2021-09-22,2021-09-22,溢多利株式会社,,株式会社,東京都,中央区,日本橋久松町１３番６号,,13,102,1030005,,,,,,,2021-09-22,1,,,,,イツタリ,0
509,3010003035873,新規,0,2021-09-22,2021-09-22,ビー・コネクトデベロップメント合同会社,,合同会社,東京都,千代田区,神田佐久間町１丁目８－４アルテール秋葉原ビル７０８,,13,101,1010025,,,,,,,2021-09-22,1,,,,,ビーコネクトデベロップメント,0
510,3010005034007,新規,0,2021-09-22,2021-09-22,一般社団法人千代崎投資,,その他の設立登記法人,東京都,千代田区,霞が関３丁目２番５号,,13,101,1000013,,,,,,,2021-09-22,1,,,,,,0
522,3010401162690,新規,0,2021-09-22,2021-09-22,株式会社クラウンアドバイザーズ,,株式会社,東京都,港区,浜松町２丁目７番１５号,,13,103,1050013,,,,,,,2021-09-22,1,,,,,クラウンアドバイザーズ,0
523,3010401162773,新規,0,2021-09-22,2021-09-22,株式会社Ｈａｎｇｏｕｔ,,株式会社,東京都,港区,麻布十番２丁目１９番１０号桂麻布十番ビル６Ｆ,,13,103,1060045,,,,,,,2021-09-22,1,,,,,ハングアウト,0
524,3010401162798,新規,0,2021-09-22,2021-09-22,株式会社Ａｍａｒｋ,,株式会社,東京都,港区,北青山２丁目７番１３号プラセオ青山ビル３階,,13,103,1070061,,,,,,,2021-09-22,1,,,,,エーマーク,0
526,3010403026159,新規,0,2021-09-22,2021-09-22,合同会社美しい村づくりプロジェクト,,合同会社,東京都,港区,南青山５丁目１番２５号メゾンドラミア１００２号室,,13,103,1070062,,,,,,,2021-09-22,1,,,,,ウツクシイムラプロジェクト,0
534,3010601059968,新規,0,2021-09-22,2021-09-22,株式会社Ｃｉｔｙ　Ａｓｓｅｔ,,株式会社,東京都,江東区,東雲１丁目９番１８－６０４号,,13,108,1350062,,,,,,,2021-09-22,1,,,,,シティアセット,0
536,3010701041553,新規,0,2021-09-22,2021-09-22,株式会社ひきこもりカンパニー,,株式会社,東京都,品川区,戸越６丁目９番７号ドルフ戸越公園３０２,,13,109,1420041,,,,,,,2021-09-22,1,,,,,ヒキコモリカンパニー,0
540,3010805002880,新規,0,2021-09-22,2021-09-22,一般社団法人クレア,,その他の設立登記法人,東京都,大田区,南久が原１丁目１４番７号,,13,111,1460084,,,,,,,2021-09-22,1,,,,,クレア,0
541,3010901049479,新規,0,2021-09-22,2021-09-22,株式会社ユニオン,,株式会社,東京都,世田谷区,上馬５丁目１６番１３号サンライズ上馬３０６,,13,112,1540011,,,,,,,2021-09-22,1,,,,,ユニオン,0
547,3011001142777,新規,0,2021-09-22,2021-09-22,株式会社東仁社,,株式会社,東京都,目黒区,大橋１丁目２－６ＯＬＩＯ池尻大橋５０２,,13,110,1530044,,,,,,,2021-09-22,1,,,,,トウジンシャ,0
548,3011001142793,新規,0,2021-09-22,2021-09-22,ＴＡＫＥＴＳＵＲＵ株式会社,,株式会社,東京都,目黒区,青葉台１丁目１０－１１コンフォリア目黒青葉台２０６,,13,110,1530042,,,,,,,2021-09-22,1,,,,,タケツル,0
549,3011001142835,新規,0,2021-09-22,2021-09-22,ＹＡＫＵＺＥＮ　ＴＯＫＹＯ株式会社,,株式会社,東京都,渋谷区,富ヶ谷１丁目３７－２松久ハイツ４０１,,13,113,1510063,,,,,,,2021-09-22,1,,,,,ヤクゼントウキョウ,0
550,3011001142843,新規,0,2021-09-22,2021-09-22,株式会社ＡＣＥ,,株式会社,東京都,渋谷区,円山町５番４号フィールＡ－１１１１号室,,13,113,1500044,,,,,,,2021-09-22,1,,,,,エース,0
553,3011003013373,新規,0,2021-09-22,2021-09-22,合同会社鴨川技術開発,,合同会社,東京都,渋谷区,渋谷２丁目１９－１５宮益坂ビルディング６０９,,13,113,1500002,,,,,,,2021-09-22,1,,,,,カモガワギジュツカイハツ,0
560,3011201023265,新規,0,2021-09-22,2021-09-22,ＭＥＯＷ　ＡＲＴＳ株式会社,,株式会社,東京都,中野区,中野４丁目１番１号中野サンプラザ９階,,13,114,1640001,,,,,,,2021-09-22,1,,,,,メオーアーツ,0
567,3011403003437,新規,0,2021-09-22,2021-09-22,合同会社ライズ,,合同会社,東京都,板橋区,西台２丁目７－６,,13,119,1750045,,,,,,,2021-09-22,1,,,,,ライズ,0
569,3011503004896,新規,0,2021-09-22,2021-09-22,合同会社ＣＯＳＴＥ,,合同会社,東京都,北区,西ケ原２丁目２２番１０－２０１号,,13,117,1140024,,,,,,,2021-09-22,1,,,,,コスト,0
574,3011801039727,新規,0,2021-09-22,2021-09-22,株式会社オートピット,,株式会社,東京都,葛飾区,水元５丁目１０番１１号,,13,122,1250032,,,,,,,2021-09-22,1,,,,,オートピット,0
577,3012401038318,新規,0,2021-09-22,2021-09-22,株式会社三広商事,,株式会社,東京都,三鷹市,井の頭２丁目７番９号ハイツクリハラ１０１,,13,204,1810001,,,,,,,2021-09-22,1,,,,,サンコウショウジ,0
579,3012403005027,新規,0,2021-09-22,2021-09-22,合同会社まさこアセットマネジメント,,合同会社,東京都,調布市,布田１丁目２２番地１,,13,208,1820024,,,,,,,2021-09-22,1,,,,,マサコアセットマネジメント,0
580,3012803002598,新規,0,2021-09-22,2021-09-22,合同会社クリエコ,,合同会社,東京都,立川市,高松町１丁目２番１５号モナーク立川高松町３０１号,,13,202,1900011,,,,,,,2021-09-22,1,,,,,クリエコ,0
585,3013301048035,新規,0,2021-09-22,2021-09-22,株式会社リッチ,,株式会社,東京都,豊島区,東池袋１丁目２６番４号,,13,116,1700013,,,,,,,2021-09-22,1,,,,,リッチ,0
587,3013303005827,新規,0,2021-09-22,2021-09-22,合同会社Ｃａｒｅｂｏｘ,,合同会社,東京都,豊島区,南長崎３丁目２－１３レジデンス南長崎５０１,,13,116,1710052,,,,,,,2021-09-22,1,,,,,ケアボックス,0
600,3020001143099,新規,0,2021-09-22,2021-09-22,株式会社ピッコロマーレ,,株式会社,神奈川県,横浜市西区,浅間町５丁目３８４番地の８ルネアージュ横浜１０１号室,,14,103,2200072,,,,,,,2021-09-22,1,,,,,ピッコロマーレ,0
601,3020001143108,新規,0,2021-09-22,2021-09-22,株式会社ウッドストック,,株式会社,神奈川県,横浜市磯子区,洋光台６丁目１番１号,,14,107,2350045,,,,,,,2021-09-22,1,,,,,ウッドストック,0
612,3021003010907,新規,0,2021-09-22,2021-09-22,合同会社ＣＨＵＲＭＡ,,合同会社,神奈川県,大和市,西鶴間３丁目１番１４号,,14,213,2420005,,,,,,,2021-09-22,1,,,,,チュルマ,0
620,3030001144385,新規,0,2021-09-22,2021-09-22,株式会社ワイズペイント,,株式会社,埼玉県,草加市,北谷１丁目５番２０号,,11,221,3400046,,,,,,,2021-09-22,1,,,,,ワイズペイント,0
621,3030001144419,新規,0,2021-09-22,2021-09-22,株式会社攻明,,株式会社,埼玉県,川越市,大字鯨井６５２番地６,,11,201,3500815,,,,,,,2021-09-22,1,,,,,コウミョウ,0
622,3030001144435,新規,0,2021-09-22,2021-09-22,株式会社信栄,,株式会社,埼玉県,さいたま市桜区,栄和５丁目２２番３号,,11,106,3380823,,,,,,,2021-09-22,1,,,,,シンエイ,0
631,3030003017944,新規,0,2021-09-22,2021-09-22,合同会社でざいん工房,,合同会社,埼玉県,所沢市,小手指南３丁目１６番地の４１,,11,208,3591146,,,,,,,2021-09-22,1,,,,,デザインコウボウ,0
632,3030003017985,新規,0,2021-09-22,2021-09-22,合同会社ＳｈａＶｉｅｗ,,合同会社,埼玉県,草加市,中央２丁目２－２０リバーコープ３０２,,11,221,3400016,,,,,,,2021-09-22,1,,,,,シャビュー,0
639,3040001120162,新規,0,2021-09-22,2021-09-22,株式会社アーキア,,株式会社,千葉県,船橋市,丸山１丁目５２番９号,,12,204,2730048,,,,,,,2021-09-22,1,,,,,アーキア,0
640,3040001120278,新規,0,2021-09-22,2021-09-22,株式会社齋藤重機,,株式会社,千葉県,船橋市,大穴南１丁目６番１９号,,12,204,2740067,,,,,,,2021-09-22,1,,,,,サイトウジュウキ,0
642,3040003018578,新規,0,2021-09-22,2021-09-22,合同会社Ｉｎｄｕｓｔｒｙ４．０,,合同会社,千葉県,柏市,若柴１７８番地４柏の葉キャンパス１４８街区１パークシティ柏の葉キャンパスザ・ゲートタワーウェスト３階,,12,217,2770871,,,,,,,2021-09-22,1,,,,,インダストリーフォー,0
643,3050001049855,新規,0,2021-09-22,2021-09-22,ＡＵ　ＩＮＴＥＲＮＡＴＩＯＮＡＬ株式会社,,株式会社,茨城県,猿島郡境町,大字若林２３８０番地３,,08,546,3060417,,,,,,,2021-09-22,1,,,,,エーユーインターナショナル,0
644,3050001049863,新規,0,2021-09-22,2021-09-22,株式会社デライト,,株式会社,茨城県,小美玉市,三箇１１９４番地８,,08,236,3190104,,,,,,,2021-09-22,1,,,,,デライト,0
662,3090001017197,新規,0,2021-09-22,2021-09-22,株式会社ＧＬＩＴＴＥＲ,,株式会社,山梨県,甲府市,七沢町３２６番地１,,19,201,4000825,,,,,,,2021-09-22,1,,,,,グリッター,0
664,3100003006238,新規,0,2021-09-22,2021-09-22,合同会社ピポピポ屋,,合同会社,長野県,松本市,大字今井３２８０－４４,,20,202,3901131,,,,,,,2021-09-22,1,,,,,ピポピポヤ,0
666,3110001036054,新規,0,2021-09-22,2021-09-22,株式会社福田,,株式会社,新潟県,南魚沼市,余川１５１１番地２５,,15,226,9496681,,,,,,,2021-09-22,1,,,,,フクダ,0
668,3110003004579,新規,0,2021-09-22,2021-09-22,合同会社Ｇｎｕ,,合同会社,新潟県,新潟市江南区,曽野木２丁目１７番５号,,15,104,9501135,,,,,,,2021-09-22,1,,,,,ヌー,0
678,3120001240489,新規,0,2021-09-22,2021-09-22,株式会社ＭＴＭ製作所,,株式会社,大阪府,大阪市平野区,長吉六反４丁目３番５７号,,27,126,5470012,,,,,,,2021-09-22,1,,,,,エムティーエムセイサクショ,0
679,3120001240497,新規,0,2021-09-22,2021-09-22,Ｓｗｉｍｍｙ株式会社,,株式会社,大阪府,大阪市中央区,谷町１丁目５－１１－４０１,,27,128,5400012,,,,,,,2021-09-22,1,,,,,スイミー,0
680,3120001240522,新規,0,2021-09-22,2021-09-22,株式会社Ｔ＆Ｓ,,株式会社,大阪府,大阪市中央区,今橋２丁目３番１６号ＭＩＤ今橋ビル１階ＴＨＥ・ＬＩＮＫＳ内,,27,128,5410042,,,,,,,2021-09-22,1,,,,,ティーアンドエス,0
681,3120001240539,新規,0,2021-09-22,2021-09-22,株式会社正東商事,,株式会社,大阪府,大阪市中央区,本町２丁目３番４号アソルティ本町４階,,27,128,5410053,,,,,,,2021-09-22,1,,,,,ショウトウショウジ,0
682,3120001240547,新規,0,2021-09-22,2021-09-22,株式会社大謙,,株式会社,大阪府,大阪市浪速区,日本橋５丁目９番１５号,,27,111,5560005,,,,,,,2021-09-22,1,,,,,ダイケン,0
687,3120003020286,新規,0,2021-09-22,2021-09-22,合同会社ＨＩＴランド,,合同会社,大阪府,大阪市北区,堂山町１番５号三共梅田ビル７階,,27,127,5300027,,,,,,,2021-09-22,1,,,,,ヒットランド,0
688,3120101064326,新規,0,2021-09-22,2021-09-22,株式会社虹色ハウジング,,株式会社,大阪府,堺市堺区,向陵中町６丁６番２２号,,27,141,5900024,,,,,,,2021-09-22,1,,,,,ニジイロハウジング,0
689,3120101064334,新規,0,2021-09-22,2021-09-22,株式会社ｙｅｌｌｏｗ　ｃｏｍｐａｎｙ,,株式会社,大阪府,堺市堺区,海山町２丁１２９番地１２,,27,141,5900982,,,,,,,2021-09-22,1,,,,,イエローカンパニー,0
693,3120103004346,新規,0,2021-09-22,2021-09-22,ＮＴ合同会社,,合同会社,大阪府,堺市堺区,北瓦町２丁２番１１号オズ堺東ＢＬＤ２階,,27,141,5900076,,,,,,,2021-09-22,1,,,,,エヌティ,0
698,3120903003836,新規,0,2021-09-22,2021-09-22,合同会社デチオ,,合同会社,大阪府,池田市,緑丘１丁目６番１３号Ａ,,27,204,5630026,,,,,,,2021-09-22,1,,,,,デチオ,0
699,3122003002181,新規,0,2021-09-22,2021-09-22,合同会社ｔｈｅ　ｍｏｓｔ　ｆｕｎ,,合同会社,大阪府,東大阪市,小阪３丁目４八戸ノ里グランドマンションＡ－７１４,,27,227,5770801,,,,,,,2021-09-22,1,,,,,ザモストファン,0
704,3130001070142,新規,0,2021-09-22,2021-09-22,株式会社ジオグランド,,株式会社,京都府,京都市左京区,松ケ崎小竹藪町３１番地１０,,26,103,6060000,,,,,,,2021-09-22,1,,,,,ジオグランド,0
707,3130003007497,新規,0,2021-09-22,2021-09-22,中庸合同会社,,合同会社,京都府,京都市南区,西九条開ケ町１２７番地５,,26,107,6018439,,,,,,,2021-09-22,1,,,,,チュウヨウ,0
714,3140001123122,新規,0,2021-09-22,2021-09-22,株式会社Ｉｍｐｒｏｖｅ,,株式会社,兵庫県,加古川市,加古川町平野３３３番地ミキハウス１０２,,28,210,6750063,,,,,,,2021-09-22,1,,,,,インプルーヴ,0
718,3150001024939,新規,0,2021-09-22,2021-09-22,株式会社ひまわり建物,,株式会社,奈良県,奈良市,北登美ヶ丘２丁目９番２３号,,29,201,6310001,,,,,,,2021-09-22,1,,,,,ヒマワリタテモノ,0
719,3150003002496,新規,0,2021-09-22,2021-09-22,丸福合同会社,,合同会社,奈良県,生駒市,西菜畑町１１１４－２ふぁみーゆ弐番館２０６,,29,209,6300264,,,,,,,2021-09-22,1,,,,,マルフク,0
760,3290001094704,新規,0,2021-09-22,2021-09-22,株式会社ＥｉｇｈｔＯｎｅ,,株式会社,福岡県,福岡市南区,井尻１丁目３５番１４号,,40,134,8111302,,,,,,,2021-09-22,1,,,,,エイトワン,0
761,3290001094712,新規,0,2021-09-22,2021-09-22,ＴｙｓｏｎＦｏｏｄ株式会社,,株式会社,福岡県,福岡市博多区,博多駅前３丁目１２番３号玉井親和ビル１－Ｂ,,40,132,8120011,,,,,,,2021-09-22,1,,,,,タイソンフード,0
768,3300003001722,新規,0,2021-09-22,2021-09-22,合同会社千鳥,,合同会社,佐賀県,佐賀市,神園３丁目６番１８号,,41,201,8400806,,,,,,,2021-09-22,1,,,,,チドリ,0
784,3380001032209,新規,0,2021-09-22,2021-09-22,ＲＥＮＥＷ株式会社,,株式会社,福島県,いわき市,郷ケ丘２丁目３４番地の６,,07,204,9708045,,,,,,,2021-09-22,1,,,,,リニュー,0
787,3400003002834,新規,0,2021-09-22,2021-09-22,ｋｎｏｃｋｅｙｅｌａｓｈ合同会社,,合同会社,岩手県,北上市,大通り１丁目２番２２号かざわやビル２階,,03,206,0240061,,,,,,,2021-09-22,1,,,,,ノックアイラッシュ,0
788,3420001017592,新規,0,2021-09-22,2021-09-22,株式会社ガイア実業,,株式会社,青森県,十和田市,西二番町１３番２４号,,02,206,0340082,,,,,,,2021-09-22,1,,,,,ガイアジツギョウ,0
793,3430003013168,新規,0,2021-09-22,2021-09-22,合同会社ＫＭＤ,,合同会社,北海道,室蘭市,知利別町２丁目１３番６号,,01,205,0500076,,,,,,,2021-09-22,1,,,,,ケーエムディ,0
798,3470001018719,新規,0,2021-09-22,2021-09-22,株式会社ラリベルテ,,株式会社,香川県,高松市,木太町１１９６番地５,,37,201,7600080,,,,,,,2021-09-22,1,,,,,ラリベルテ,0
802,3700150016813,新規,0,2021-09-22,2015-10-09,浦和青色申告会,,その他,埼玉県,さいたま市浦和区,北浦和５丁目６番５号埼玉県浦和合同庁舎別館１階,,11,107,3300074,,,,,,,2015-10-09,1,,,,,ウラワアオイロシンコクカイ,0
805,4010005033981,新規,0,2021-09-22,2021-09-22,ＣａＮ　Ｉｎｔｅｒｎａｔｉｏｎａｌ監査法人,,その他の設立登記法人,東京都,中央区,日本橋茅場町１丁目９番２号第一稲村ビル７階,,13,102,1030025,,,,,,,2021-09-22,1,,,,,キャンインターナショナル,0
815,4010401162772,新規,0,2021-09-22,2021-09-22,株式会社ＤＵＳＴＯＬ,,株式会社,東京都,港区,新橋５丁目２５－１新橋ビジネスガーデン３－６,,13,103,1050004,,,,,,,2021-09-22,1,,,,,ダストル,0
816,4010401162797,新規,0,2021-09-22,2021-09-22,株式会社イフィネクスジャパン,,株式会社,東京都,港区,赤坂２丁目１４番１１号,,13,103,1070052,,,,,,,2021-09-22,1,,,,,イフィネクスジャパン,0
828,4010703005951,新規,0,2021-09-22,2021-09-22,合同会社Ｓ＆Ａアカウンティングファーム,,合同会社,東京都,品川区,西五反田７丁目１３番５号,,13,109,1410031,,,,,,,2021-09-22,1,,,,,エスアンドエーアカウンティングファーム,0
839,4011001142834,新規,0,2021-09-22,2021-09-22,ＲＪコンサルティング株式会社,,株式会社,東京都,渋谷区,代々木５丁目１７番１－１３０４号,,13,113,1510053,,,,,,,2021-09-22,1,,,,,アールジェーコンサルティング,0
840,4011001142850,新規,0,2021-09-22,2021-09-22,ｈｕｍｕｓｕ株式会社,,株式会社,東京都,渋谷区,渋谷２丁目１９番１５号宮益坂ビルディング６０９,,13,113,1500002,,,,,,,2021-09-22,1,,,,,フムス,0
841,4011001142909,新規,0,2021-09-22,2021-09-22,株式会社オフィスあいうえお,,株式会社,東京都,渋谷区,代々木５丁目５０番１３－３１６号,,13,113,1510053,,,,,,,2021-09-22,1,,,,,オフィスアイウエオ,0
844,4011003013389,新規,0,2021-09-22,2021-09-22,合同会社ＡＲＴＳＶＯＸ,,合同会社,東京都,渋谷区,神宮前４丁目１８番９号ボヌール表参道３Ｆ,,13,113,1500001,,,,,,,2021-09-22,1,,,,,アーツボックス,0
845,4011003013397,新規,0,2021-09-22,2021-09-22,合同会社Ｃｏｒｂｅｎ,,合同会社,東京都,渋谷区,東３丁目１５番４号,,13,113,1500011,,,,,,,2021-09-22,1,,,,,コーベン,0
846,4011005009220,新規,0,2021-09-22,2021-09-22,医療法人社団三青会,,その他の設立登記法人,東京都,渋谷区,恵比寿１丁目１０番６号３階,,13,113,1500013,,,,,,,2021-09-22,1,,,,,サンセイカイ,0
850,4011101096328,新規,0,2021-09-22,2021-09-22,株式会社ブラザーズ・ジャパン,,株式会社,東京都,新宿区,歌舞伎町１丁目１７番５号,,13,104,1600021,,,,,,,2021-09-22,1,,,,,ブラザーズジャパン,0
855,4011401023683,新規,0,2021-09-22,2021-09-22,Ｔｏｐｐｅｓｔ株式会社,,株式会社,東京都,板橋区,徳丸６丁目１３番１２号ライフピアメモリー２０３号室,,13,119,1750083,,,,,,,2021-09-22,1,,,,,トップエスト,0
857,4011501027312,新規,0,2021-09-22,2021-09-22,７９株式会社,,株式会社,東京都,荒川区,西日暮里６丁目１０番１４号,,13,118,1160013,,,,,,,2021-09-22,1,,,,,ナナキュウ,0
864,4011803004785,新規,0,2021-09-22,2021-09-22,合同会社ＴＫケア,,合同会社,東京都,足立区,梅田３丁目２８番地１３号,,13,121,1230851,,,,,,,2021-09-22,1,,,,,ティケイケア,0
869,4012401038309,新規,0,2021-09-22,2021-09-22,株式会社フリューリングス,,株式会社,東京都,小金井市,中町３丁目１４－２１－１０１,,13,210,1840012,,,,,,,2021-09-22,1,,,,,フリューリングス,0
870,4012805003057,新規,0,2021-09-22,2021-09-22,医療法人社団ＣＣＲ,,その他の設立登記法人,東京都,立川市,柴崎町３丁目１０番６号イチカワビル４階,,13,202,1900023,,,,,,,2021-09-22,1,,,,,シーシーアール,0
875,4020001142975,新規,0,2021-09-22,2021-09-22,株式会社ＬＥＡＬＩＡＮ,,株式会社,神奈川県,横浜市港北区,新横浜３丁目６番地１,,14,109,2220033,,,,,,,2021-09-22,1,,,,,リーリアン,0
876,4020001143098,新規,0,2021-09-22,2021-09-22,株式会社ＴａｉＫａ,,株式会社,神奈川県,横浜市港北区,下田町４丁目１番６－１０８号,,14,109,2230064,,,,,,,2021-09-22,1,,,,,タイカ,0
877,4020001143107,新規,0,2021-09-22,2021-09-22,ＬＡＮＤ　ＷＩＴＨ株式会社,,株式会社,神奈川県,横浜市磯子区,杉田３丁目１３番２８号杉田コープ今井１０１,,14,107,2350033,,,,,,,2021-09-22,1,,,,,ランドウィズ,0
881,4020003020510,新規,0,2021-09-22,2021-09-22,レノバス合同会社,,合同会社,神奈川県,川崎市中原区,井田中ノ町２番３－５０２号,,14,133,2110034,,,,,,,2021-09-22,1,,,,,レノバス,0
886,4021001073987,新規,0,2021-09-22,2021-09-22,株式会社４８,,株式会社,神奈川県,横須賀市,平作１丁目２６番２３号,,14,201,2380032,,,,,,,2021-09-22,1,,,,,フォーティーエイト,0
887,4021001074003,新規,0,2021-09-22,2021-09-22,たけいパワーズ株式会社,,株式会社,神奈川県,横須賀市,船越町４丁目８番地６,,14,201,2370076,,,,,,,2021-09-22,1,,,,,タケイパワーズ,0
888,4021001074011,新規,0,2021-09-22,2021-09-22,株式会社翼,,株式会社,神奈川県,大和市,大和東２丁目２番１３号アサヒヤマトビル３階Ａ号室,,14,213,2420017,,,,,,,2021-09-22,1,,,,,ツバサ,0
900,4030001144450,新規,0,2021-09-22,2021-09-22,株式会社共志,,株式会社,埼玉県,入間郡越生町,大字越生８８７番地１,,11,327,3500416,,,,,,,2021-09-22,1,,,,,キョウシ,0
901,4030001144475,新規,0,2021-09-22,2021-09-22,Ｆｅｌｉｘ株式会社,,株式会社,埼玉県,三郷市,采女１丁目９５番地５,,11,237,3410011,,,,,,,2021-09-22,1,,,,,フェリックス,0
916,4040001120269,新規,0,2021-09-22,2021-09-22,みかど育種ホールディングス株式会社,,株式会社,千葉県,千葉市緑区,大野台１丁目４番地１１,,12,105,2670056,,,,,,,2021-09-22,1,,,,,ミカドイクシュホールディングス,0
917,4040001120277,新規,0,2021-09-22,2021-09-22,株式会社Ｋスマイル,,株式会社,千葉県,千葉市中央区,新町３番地８クレアホームズ千葉センタープレイス８０２号,,12,101,2600028,,,,,,,2021-09-22,1,,,,,ケースマイル,0
919,4040003018536,新規,0,2021-09-22,2021-09-22,合同会社Ｍａｋｅｊｏｙ,,合同会社,千葉県,習志野市,鷺沼台１丁目２番１２号,,12,216,2750015,,,,,,,2021-09-22,1,,,,,メイクジョイ,0
925,4050001049862,新規,0,2021-09-22,2021-09-22,株式会社都炉美煎ホールディングス,,株式会社,茨城県,水戸市,栗崎町１２５１番地５,,08,201,3111133,,,,,,,2021-09-22,1,,,,,トロビセンホールディングス,0
928,4050003006093,新規,0,2021-09-22,2021-09-22,合同会社ミラノ,,合同会社,茨城県,つくばみらい市,西丸山３１８番地５,,08,235,3002421,,,,,,,2021-09-22,1,,,,,ミラノ,0
929,4060001034112,新規,0,2021-09-22,2021-09-22,那建工業株式会社,,株式会社,栃木県,那須塩原市,二つ室１５番地４グローリィパレスＢ－１０１号,,09,213,3292731,,,,,,,2021-09-22,1,,,,,ナケンコウギョウ,0
936,4080003002643,新規,0,2021-09-22,2021-09-22,合同会社グルーヴケア,,合同会社,静岡県,焼津市,本中根５３４－１,,22,212,4250063,,,,,,,2021-09-22,1,,,,,グルーヴケア,0
947,4110001036053,新規,0,2021-09-22,2021-09-22,株式会社クロスエリア,,株式会社,新潟県,長岡市,原町１丁目５番地２,,15,202,9400013,,,,,,,2021-09-22,1,,,,,クロスエリア,0
963,4120001240496,新規,0,2021-09-22,2021-09-22,株式会社片岡商事,,株式会社,大阪府,枚方市,南中振３丁目７０番３０号,,27,210,5730094,,,,,,,2021-09-22,1,,,,,カタオカショウジ,0
964,4120001240505,新規,0,2021-09-22,2021-09-22,株式会社マーブル,,株式会社,大阪府,大阪市北区,天神橋１丁目１７番２号辻ビル３０２号,,27,127,5300041,,,,,,,2021-09-22,1,,,,,マーブル,0
965,4120001240546,新規,0,2021-09-22,2021-09-22,株式会社ＦｉｖｅＦｉｅｌｄｓ,,株式会社,大阪府,大阪市中央区,南船場４丁目１０番５号南船場ＳＯＨＯビル７０２,,27,128,5420081,,,,,,,2021-09-22,1,,,,,ファイブフィールズ,0
966,4120001240562,新規,0,2021-09-22,2021-09-22,株式会社ＡＬＩＶＥ,,株式会社,大阪府,大阪市中央区,瓦町４丁目４番１４号日宝ニュー本町ビル５０４号,,27,128,5410048,,,,,,,2021-09-22,1,,,,,アライブ,0
967,4120001240570,新規,0,2021-09-22,2021-09-22,株式会社ＳＥＴＬａ,,株式会社,大阪府,大阪市天王寺区,上本町５丁目２番１１号,,27,109,5430001,,,,,,,2021-09-22,1,,,,,セトラ,0
969,4120003020285,新規,0,2021-09-22,2021-09-22,合同会社ＨＡＲＵ,,合同会社,大阪府,守口市,豊秀町２丁目１４番５号,,27,209,5700082,,,,,,,2021-09-22,1,,,,,ハル,0
970,4120005022511,新規,0,2021-09-22,2021-09-22,一般社団法人栄響連盟,,その他の設立登記法人,大阪府,大阪市東淀川区,東中島５丁目１８－２,,27,114,5330033,,,,,,,2021-09-22,1,,,,,エイキョウレンメイ,0
975,4120101064333,新規,0,2021-09-22,2021-09-22,株式会社惣元,,株式会社,大阪府,藤井寺市,惣社１丁目１番１４号,,27,226,5830005,,,,,,,2021-09-22,1,,,,,ソウゲン,0
977,4120901044922,新規,0,2021-09-22,2021-09-22,きぼう不動産流通株式会社,,株式会社,大阪府,吹田市,内本町２丁目２０番１４号,,27,205,5640032,,,,,,,2021-09-22,1,,,,,キボウフドウサンリュウツウ,0
978,4120901044930,新規,0,2021-09-22,2021-09-22,株式会社ＧＥＡＬ,,株式会社,大阪府,高槻市,柱本３丁目５番８号,,27,207,5690844,,,,,,,2021-09-22,1,,,,,ジール,0
979,4120903003835,新規,0,2021-09-22,2021-09-22,合同会社ｅ－ｗｏｒｋｓ,,合同会社,大阪府,池田市,五月丘４丁目６－９,,27,204,5630029,,,,,,,2021-09-22,1,,,,,イーワークス,0
992,4130003007496,新規,0,2021-09-22,2021-09-22,合同会社キイウィル,,合同会社,京都府,京都市中京区,御池通高倉西入ル高宮町２１９番地サニーフォレストビル４階,,26,104,6040000,,,,,,,2021-09-22,1,,,,,キイウィル,0
998,4140001123071,新規,0,2021-09-22,2021-09-22,株式会社Ｃｉｒｕｅｌａ,,株式会社,兵庫県,高砂市,伊保港町１丁目８番２４－３号,,28,216,6760072,,,,,,,2021-09-22,1,,,,,シルエラ,0
999,4140001123088,新規,0,2021-09-22,2021-09-22,株式会社カジクマ,,株式会社,兵庫県,姫路市,広畑区高浜町３丁目６９番地４,,28,201,6711153,,,,,,,2021-09-22,1,,,,,カジクマ,0
1004,4140005025826,新規,0,2021-09-22,2021-09-22,一般社団法人紫弘会,,その他の設立登記法人,兵庫県,神戸市中央区,北長狭通４丁目９番２６号西北神ビル６階,,28,110,6500012,,,,,,,2021-09-22,1,,,,,シコウカイ,0
1007,4150003002495,新規,0,2021-09-22,2021-09-22,辻本ゼネラルマネジメント合同会社,,合同会社,奈良県,北葛城郡河合町,中山台１丁目２２番地１２,,29,427,6360072,,,,,,,2021-09-22,1,,,,,ツジモトゼネラルマネジメント,0
1020,4180301035384,新規,0,2021-09-22,2021-09-22,株式会社ｌｅａｄ,,株式会社,愛知県,豊田市,山之手４丁目９５番地,,23,211,4710833,,,,,,,2021-09-22,1,,,,,リード,0
1021,4180301035392,新規,0,2021-09-22,2021-09-22,Ｙ３エステート株式会社,,株式会社,愛知県,豊田市,栄町２丁目２０番地２,,23,211,4710066,,,,,,,2021-09-22,1,,,,,ワイスリーエステート,0
1024,4190001028695,新規,0,2021-09-22,2021-09-22,株式会社マーキュリー,,株式会社,三重県,伊勢市,御薗町高向２６２５番地,,24,203,5160805,,,,,,,2021-09-22,1,,,,,マーキュリー,0
1025,4190003003762,新規,0,2021-09-22,2021-09-22,合同会社ゴーウン,,合同会社,三重県,鈴鹿市,上箕田１丁目１９番７号,,24,207,5130056,,,,,,,2021-09-22,1,,,,,ゴーウン,0
1027,4200001039154,新規,0,2021-09-22,2021-09-22,株式会社山本プレス工業所,,株式会社,岐阜県,不破郡関ケ原町,大字関ケ原３６４０番地の２,,21,362,5031501,,,,,,,2021-09-22,1,,,,,ヤマモトプレスコウギョウショ,0
1038,4260005010972,新規,0,2021-09-22,2021-09-22,社会保険労務士法人ファイブローズ,,その他の設立登記法人,岡山県,岡山市北区,大元駅前３番４０号,,33,101,7000923,,,,,,,2021-09-22,1,,,,,ファイブローズ,0
1045,4290801027804,新規,0,2021-09-22,2021-09-22,株式会社ＨＡＹＡＳＨＩ,,株式会社,福岡県,北九州市小倉北区,神岳２丁目３番１号,,40,106,8020045,,,,,,,2021-09-22,1,,,,,ハヤシ,0
1046,4290801027820,新規,0,2021-09-22,2021-09-22,株式会社九州ＷＥＬＤ,,株式会社,福岡県,北九州市若松区,高須北３丁目４番１７号,,40,103,8080147,,,,,,,2021-09-22,1,,,,,キュウシュウウエルド,0
1055,4320001018609,新規,0,2021-09-22,2021-09-22,小野美建株式会社,,株式会社,大分県,大分市,大字八幡１５５１番地,,44,201,8700100,,,,,,,2021-09-22,1,,,,,オノビケン,0
1061,4360003011442,新規,0,2021-09-22,2021-09-22,合同会社かみや,,合同会社,沖縄県,島尻郡八重瀬町,字宜次４９０－１,,47,362,9010416,,,,,,,2021-09-22,1,,,,,カミヤ,0
1064,4380001032216,新規,0,2021-09-22,2021-09-22,株式会社フットネオス,,株式会社,福島県,いわき市,内郷小島町作田３２番地,,07,204,9738401,,,,,,,2021-09-22,1,,,,,フットネオス,0
1074,4410001012965,新規,0,2021-09-22,2021-09-22,株式会社あしたも良い日,,株式会社,秋田県,秋田市,横森４丁目９番２５号,,05,201,0100044,,,,,,,2021-09-22,1,,,,,アシタモヨイヒ,0
1075,4420001017591,新規,0,2021-09-22,2021-09-22,株式会社ＭＡＳＡＫＩ,,株式会社,青森県,青森市,安方１丁目４番１２号,,02,201,0300803,,,,,,,2021-09-22,1,,,,,マサキ,0
1078,4430001085010,新規,0,2021-09-22,2021-09-22,株式会社ＡＡＨグループ,,株式会社,北海道,札幌市白石区,菊水上町三条２丁目５２番２５５,,01,104,0030813,,,,,,,2021-09-22,1,,,,,エーエーエイチグループ,0
1081,4430005014287,新規,0,2021-09-22,2021-09-22,医療法人社団月寒東歯科クリニック,,その他の設立登記法人,北海道,札幌市豊平区,月寒東三条１１丁目１－３６ブランチ札幌月寒メディカルスクエア１階,,01,105,0620053,,,,,,,2021-09-22,1,,,,,ツキサムヒガシシカクリニック,0
1087,4700150015203,新規,0,2021-09-22,2015-10-09,市原市立姉崎公民館運営委員会,,その他,千葉県,市原市,姉崎２１５０－１,,12,219,2990111,,,,,,,2015-10-09,1,,,,,イチハラシリツアネサキコウミンカンウンエイイインカイ,0
1090,5010001221259,新規,0,2021-09-22,2021-09-22,株式会社パリ,,株式会社,東京都,中央区,銀座１丁目２２番１１号銀座大竹ビジデンス２階,,13,102,1040061,,,,,,,2021-09-22,1,,,,,パリ,0
1095,5010003035871,新規,0,2021-09-22,2021-09-22,合同会社ＫＩＣＳ,,合同会社,東京都,千代田区,外神田４丁目１１番３号シャルマン新光松富町４０２号,,13,101,1010021,,,,,,,2021-09-22,1,,,,,キックス,0
1096,5010003035888,新規,0,2021-09-22,2021-09-22,千代崎投資合同会社,,合同会社,東京都,千代田区,霞が関３丁目２番５号,,13,101,1000013,,,,,,,2021-09-22,1,,,,,チヨザキトウシ,0
1103,5010401162788,新規,0,2021-09-22,2021-09-22,Ｔｅｃｈ　Ｌａｎｇｕａｇｅ株式会社,,株式会社,東京都,港区,海岸３丁目６－３２レグノオンザベイ８０５,,13,103,1080022,,,,,,,2021-09-22,1,,,,,テックランゲージ,0
1104,5010401162796,新規,0,2021-09-22,2021-09-22,株式会社ｎｕｔｒｉｌａｂ　ｓｕｐｐｌｅｍｅｎｔｓ,,株式会社,東京都,港区,虎ノ門４丁目３番２０号神谷町ＭＴビル１４Ｆ,,13,103,1050001,,,,,,,2021-09-22,1,,,,,ニュートリラボサプリメンツ,0
1105,5010401162805,新規,0,2021-09-22,2021-09-22,株式会社ＭＡＧＭＡ　Ｔｈｅ．,,株式会社,東京都,港区,南麻布４丁目１４番６号,,13,103,1060047,,,,,,,2021-09-22,1,,,,,マグマザ,0
1110,5010801032335,新規,0,2021-09-22,2021-09-22,株式会社ＩＮＦＩＮＩＴＥ,,株式会社,東京都,大田区,千鳥１丁目１０番９号シャルル千鳥３１２号,,13,111,1460083,,,,,,,2021-09-22,1,,,,,インフィニット,0
1112,5010805002879,新規,0,2021-09-22,2021-09-22,一般社団法人新しい扉,,その他の設立登記法人,東京都,大田区,池上７丁目２番７号,,13,111,1460082,,,,,,,2021-09-22,1,,,,,アタラシイトビラ,0
1113,5010901049493,新規,0,2021-09-22,2021-09-22,株式会社日鶴,,株式会社,東京都,世田谷区,船橋５丁目２６－１０ベリスタ千歳船橋５０９号,,13,112,1560055,,,,,,,2021-09-22,1,,,,,ニッツル,0
1115,5011001142833,新規,0,2021-09-22,2021-09-22,インサイト株式会社,,株式会社,東京都,渋谷区,恵比寿３丁目４番１号ＡｒｉａＥｂｉｓ２０２号室,,13,113,1500013,,,,,,,2021-09-22,1,,,,,インサイト,0
1116,5011003013396,新規,0,2021-09-22,2021-09-22,合同会社ＪＫＭ,,合同会社,東京都,渋谷区,代々木４丁目５１番２－４０３号,,13,113,1510053,,,,,,,2021-09-22,1,,,,,ジェーケーエム,0
1117,5011003013438,新規,0,2021-09-22,2021-09-22,合同会社こころポート東京,,合同会社,東京都,渋谷区,神宮前６丁目２３番４号桑野ビル２階,,13,113,1500001,,,,,,,2021-09-22,1,,,,,ココロポートトウキョウ,0
1118,5011005009236,新規,0,2021-09-22,2021-09-22,一般社団法人新宿ＭＩＬＡＮＯ０５,,その他の設立登記法人,東京都,目黒区,五本木１丁目１２番１７号,,13,110,1530053,,,,,,,2021-09-22,1,,,,,シンジュクミラノゼロファイブ,0
1120,5011101096368,新規,0,2021-09-22,2021-09-22,株式会社スクーターフィルムズ,,株式会社,東京都,新宿区,四谷本塩町３番３号,,13,104,1600003,,,,,,,2021-09-22,1,,,,,スクーターフィルムズ,0
1122,5011103011011,新規,0,2021-09-22,2021-09-22,合同会社ＫＡＧＵＲＡ,,合同会社,東京都,新宿区,榎町３７番地リヴィエール神楽坂８０２,,13,104,1620806,,,,,,,2021-09-22,1,,,,,カグラ,0
1123,5011103011028,新規,0,2021-09-22,2021-09-22,合同会社Ｌｉｂｅｒａ,,合同会社,東京都,新宿区,中落合４丁目２５番９号,,13,104,1610032,,,,,,,2021-09-22,1,,,,,リベラ,0
1125,5011203003643,新規,0,2021-09-22,2021-09-22,Ｌｉｖｅ　Ｓｍａｒｔ　Ｊａｐａｎ合同会社,,合同会社,東京都,中野区,東中野２丁目６－５－８０３号,,13,114,1640003,,,,,,,2021-09-22,1,,,,,リブスマートジャパン,0
1130,5011401023682,新規,0,2021-09-22,2021-09-22,株式会社アーバングリーンゴルフ,,株式会社,東京都,板橋区,泉町３２番７号,,13,119,1740055,,,,,,,2021-09-22,1,,,,,アーバングリーンゴルフ,0
1131,5011401023690,新規,0,2021-09-22,2021-09-22,株式会社スカイテラス,,株式会社,東京都,板橋区,成増４丁目１７番１６号,,13,119,1750094,,,,,,,2021-09-22,1,,,,,スカイテラス,0
1141,5011803004784,新規,0,2021-09-22,2021-09-22,合同会社ＨＴアセットマネジメント,,合同会社,東京都,葛飾区,金町６丁目２番１－３８１０号ヴィナシス金町タワーレジデンス,,13,122,1250042,,,,,,,2021-09-22,1,,,,,エイチティアセットマネジメント,0
1145,5012303001594,新規,0,2021-09-22,2021-09-22,合同会社セイショーフードサービス,,合同会社,東京都,町田市,南つくし野２丁目１６番地５,,13,209,1940002,,,,,,,2021-09-22,1,,,,,セイショーフードサービス,0
1148,5012403005033,新規,0,2021-09-22,2021-09-22,合同会社ＯＭＵ,,合同会社,東京都,三鷹市,井の頭１丁目６－２７,,13,204,1810001,,,,,,,2021-09-22,1,,,,,オム,0
1161,5020001143122,新規,0,2021-09-22,2021-09-22,株式会社プライマリー,,株式会社,神奈川県,横浜市南区,万世町２丁目２４番地グランシティレイディアント横濱コンフォルト８０４号,,14,105,2320032,,,,,,,2021-09-22,1,,,,,プライマリー,0
1167,5021001073986,新規,0,2021-09-22,2021-09-22,株式会社バルティヤ・ザイカ,,株式会社,神奈川県,小田原市,荻窪３１４番地正和ビル南２０２,,14,206,2500042,,,,,,,2021-09-22,1,,,,,バルティヤザイカ,0
1168,5021001074002,新規,0,2021-09-22,2021-09-22,株式会社ＳＥＩＰＨＯ,,株式会社,神奈川県,座間市,相武台２丁目１３番６５－３０３号,,14,216,2520011,,,,,,,2021-09-22,1,,,,,セイフォ,0
1169,5021001074010,新規,0,2021-09-22,2021-09-22,株式会社エジソンラボ,,株式会社,神奈川県,鎌倉市,稲村ガ崎２丁目１０番２１号,,14,204,2480024,,,,,,,2021-09-22,1,,,,,エジソンラボ,0
1178,5021003010913,新規,0,2021-09-22,2021-09-22,合同会社誠意堂,,合同会社,神奈川県,藤沢市,長後１２２５番地の１レーベンスクエア藤沢プレイジアム８１２,,14,205,2520801,,,,,,,2021-09-22,1,,,,,セイイドウ,0
1184,5030001144417,新規,0,2021-09-22,2021-09-22,株式会社彩一,,株式会社,埼玉県,熊谷市,小八林１番地２,,11,202,3690103,,,,,,,2021-09-22,1,,,,,サイイチ,0
1185,5030001144425,新規,0,2021-09-22,2021-09-22,株式会社タルムード,,株式会社,埼玉県,川口市,芝樋ノ爪１丁目１２番１２号,,11,203,3330852,,,,,,,2021-09-22,1,,,,,タルムード,0
1186,5030001144441,新規,0,2021-09-22,2021-09-22,株式会社継真不動産,,株式会社,埼玉県,川口市,本町１丁目１６番４－２０２号川口サニーコーポ,,11,203,3320012,,,,,,,2021-09-22,1,,,,,ケイシンフドウサン,0
1187,5030001144474,新規,0,2021-09-22,2021-09-22,株式会社アットジョイ,,株式会社,埼玉県,さいたま市西区,大字中釘２９４番地３６,,11,101,3310077,,,,,,,2021-09-22,1,,,,,アットジョイ,0
1190,5030003017975,新規,0,2021-09-22,2021-09-22,すいかＤＥＳＩＧＮ合同会社,,合同会社,埼玉県,南埼玉郡宮代町,川端２丁目２番２３号,,11,442,3450804,,,,,,,2021-09-22,1,,,,,スイカデザイン,0
1196,5040001120219,新規,0,2021-09-22,2021-09-22,株式会社ウィンドライツ,,株式会社,千葉県,市原市,草刈９９０番地,,12,219,2900001,,,,,,,2021-09-22,1,,,,,ウインドライツ,0
1197,5040001120251,新規,0,2021-09-22,2021-09-22,株式会社ラヴィリス,,株式会社,千葉県,柏市,柏２丁目５番５号ザ・カシワ拾番２０５号,,12,217,2770005,,,,,,,2021-09-22,1,,,,,ラヴィリス,0
1198,5040001120268,新規,0,2021-09-22,2021-09-22,ｓｍｉｌｅ株式会社,,株式会社,千葉県,柏市,根戸４８０番地１,,12,217,2770831,,,,,,,2021-09-22,1,,,,,スマイル,0
1199,5040001120276,新規,0,2021-09-22,2021-09-22,株式会社メタル電気工事,,株式会社,千葉県,千葉市中央区,生実町９３１番地１,,12,101,2600813,,,,,,,2021-09-22,1,,,,,メタルデンキコウジ,0
1200,5040001120284,新規,0,2021-09-22,2021-09-22,株式会社永瑞金属,,株式会社,千葉県,富里市,七栄４２番地２,,12,233,2860221,,,,,,,2021-09-22,1,,,,,ナカミズキンゾク,0
1207,5050003006092,新規,0,2021-09-22,2021-09-22,合同会社ｉ－ｎｅｘｕｓ,,合同会社,茨城県,小美玉市,下玉里１１２５－２,,08,236,3113432,,,,,,,2021-09-22,1,,,,,アイーネクサス,0
1226,5100003006236,新規,0,2021-09-22,2021-09-22,合同会社ＭＯＭＯ’ｓ家,,合同会社,長野県,千曲市,大字羽尾１９８３番地１,,20,218,3890812,,,,,,,2021-09-22,1,,,,,モモノヤ,0
1227,5110001036052,新規,0,2021-09-22,2021-09-22,株式会社ＪＩＣ,,株式会社,新潟県,上越市,板倉区稲増１５１番地１４,,15,222,9440101,,,,,,,2021-09-22,1,,,,,ジェーアイシー,0
1237,5120001240537,新規,0,2021-09-22,2021-09-22,株式会社クアンティック,,株式会社,大阪府,大阪市西区,北堀江２丁目４番１１号サンライズビル８Ｆー４,,27,106,5500014,,,,,,,2021-09-22,1,,,,,クアンティック,0
1238,5120001240553,新規,0,2021-09-22,2021-09-22,株式会社ＭＡＰＰＹ,,株式会社,大阪府,大阪市阿倍野区,晴明通９番７号,,27,119,5450032,,,,,,,2021-09-22,1,,,,,マッピー,0
1242,5120003020276,新規,0,2021-09-22,2021-09-22,ＳＥＡＳｉＤＥ　ＨＯＵＳＥ合同会社,,合同会社,大阪府,大阪市中央区,南船場４丁目１０番５号南船場ＳＯＨＯビル７０２,,27,128,5420081,,,,,,,2021-09-22,1,,,,,シーサイドハウス,0
1243,5120005022510,新規,0,2021-09-22,2021-09-22,一般社団法人痩身エステ協会,,その他の設立登記法人,大阪府,大阪市都島区,東野田町２丁目８番１８号２階,,27,102,5340024,,,,,,,2021-09-22,1,,,,,ソウシンエステキョウカイ,0
1245,5120101064332,新規,0,2021-09-22,2021-09-22,株式会社ココロとカラダの未来,,株式会社,大阪府,貝塚市,近木町３番１号,,27,208,5970001,,,,,,,2021-09-22,1,,,,,ココロトカラダノミライ,0
1264,5130001070132,新規,0,2021-09-22,2021-09-22,株式会社Ａ５Ｂ,,株式会社,京都府,京都市中京区,先斗町通三条下る橋下町１３４番地,,26,104,6048003,,,,,,,2021-09-22,1,,,,,エーファイブビー,0
1265,5130001070140,新規,0,2021-09-22,2021-09-22,株式会社ＴＤ－ＬＡＮＡ,,株式会社,京都府,京都市西京区,松室河原町５番地１０,,26,111,6158207,,,,,,,2021-09-22,1,,,,,ティーディーラナ,0
1275,5140001123095,新規,0,2021-09-22,2021-09-22,株式会社ＡＳＴ,,株式会社,兵庫県,西宮市,神楽町１番２６号,,28,204,6620977,,,,,,,2021-09-22,1,,,,,アスト,0
1276,5140001123104,新規,0,2021-09-22,2021-09-22,株式会社裕真,,株式会社,兵庫県,三木市,志染町吉田９６７番地,,28,215,6730501,,,,,,,2021-09-22,1,,,,,ユウシン,0
1280,5140005025817,新規,0,2021-09-22,2021-09-22,一般社団法人笑波,,その他の設立登記法人,兵庫県,伊丹市,平松２丁目４番２７号,,28,207,6640853,,,,,,,2021-09-22,1,,,,,エナミ,0
1282,5150001024937,新規,0,2021-09-22,2021-09-22,株式会社ひまわり,,株式会社,奈良県,奈良市,西大寺北町１丁目２番１４号,,29,201,6310817,,,,,,,2021-09-22,1,,,,,ヒマワリ,0
1283,5150003002494,新規,0,2021-09-22,2021-09-22,合同会社ビルカンパニー,,合同会社,奈良県,奈良市,六条西３丁目１７番５号,,29,201,6308044,,,,,,,2021-09-22,1,,,,,ビルカンパニー,0
1296,5180001147909,新規,0,2021-09-22,2021-09-22,株式会社ＳＡＴ,,株式会社,愛知県,江南市,木賀本郷町東１４６番地,,23,217,4838231,,,,,,,2021-09-22,1,,,,,エスエーティー,0
1313,5220001024434,新規,0,2021-09-22,2021-09-22,５‐Ｄジャパンサポート株式会社,,株式会社,石川県,金沢市,鞍月５丁目２０番地,,17,201,9208203,,,,,,,2021-09-22,1,,,,,ファイブディジャパンサポート,0
1318,5250003002906,新規,0,2021-09-22,2021-09-22,合同会社リリョク,,合同会社,山口県,下関市,秋根東町６番２９号,,35,201,7510877,,,,,,,2021-09-22,1,,,,,リリョク,0
1319,5250005008686,新規,0,2021-09-22,2021-09-22,共立事業協同組合,,その他の設立登記法人,山口県,下関市,豊浦町大字吉永５８４番地の３,,35,201,7596311,,,,,,,2021-09-22,1,,,,,キョウリツジギョウ,0
1325,5280005007438,新規,0,2021-09-22,2021-09-22,特定非営利活動法人文化のタネ,,その他の設立登記法人,島根県,大田市,大田町大田ハ１８７番地,,32,205,6940064,,,,,,,2021-09-22,1,,,,,ブンカノタネ,0
1328,5290001094710,新規,0,2021-09-22,2021-09-22,株式会社ナインケース,,株式会社,福岡県,福岡市早良区,高取２丁目５番２９号,,40,137,8140011,,,,,,,2021-09-22,1,,,,,ナインケース,0
1332,5290801027811,新規,0,2021-09-22,2021-09-22,株式会社ＬＩＧＨＴ九州,,株式会社,福岡県,北九州市八幡西区,若葉３丁目１６番８号,,40,109,8060066,,,,,,,2021-09-22,1,,,,,ライトキュウシュウ,0
1347,5360001029378,新規,0,2021-09-22,2021-09-22,Ｌａｎｄ　Ａｑｕａ　Ｃｕｌｔｕｒｅ　Ｉｎｎｏｖａｔｉｏｎ株式会社,,株式会社,沖縄県,浦添市,仲西３丁目１５－２フェニックス２１－３０５,,47,208,9012125,,,,,,,2021-09-22,1,,,,,ランドアクアカルチャーイノベーション,0
1355,5380001032198,新規,0,2021-09-22,2021-09-22,株式会社鈴木総合住建,,株式会社,福島県,会津若松市,東栄町３番２１号レユシール東栄町Ｃ号室,,07,202,9650872,,,,,,,2021-09-22,1,,,,,スズキソウゴウジュウケン,0
1366,5430001084977,新規,0,2021-09-22,2021-09-22,株式会社遺品整理特殊研修センター,,株式会社,北海道,千歳市,東郊２丁目２番８号,,01,224,0660021,,,,,,,2021-09-22,1,,,,,イヒンセイリトクシュケンシュウセンター,0
1367,5430001085001,新規,0,2021-09-22,2021-09-22,株式会社ＭＡＲＵＹＯＳＨＩ,,株式会社,北海道,札幌市中央区,南一条西１２丁目４番地１８８ー６０３号,,01,101,0600061,,,,,,,2021-09-22,1,,,,,マルヨシ,0
1369,5430003013166,新規,0,2021-09-22,2021-09-22,合同会社よくすむ,,合同会社,北海道,石狩市,花川東二条２丁目７９番地ＨＯＣＫ’Ｓ－Ⅴ　Ｅ号,00124292,01,235,0613262,,,,,,,2021-09-22,1,,,,,ヨクスム,0
1370,5430003013174,新規,0,2021-09-22,2021-09-22,合同会社Ｇｏｏｄ,,合同会社,北海道,札幌市豊平区,美園一条８丁目１番１号ＳＥＭＡ　Ｂｌｄｇ．２Ｆ２０５,,01,105,0620001,,,,,,,2021-09-22,1,,,,,グッド,0
1374,5460103001398,新規,0,2021-09-22,2021-09-22,合同会社ファーストライフ,,合同会社,北海道,帯広市,東一条南１８丁目２番地１,,01,207,0800801,,,,,,,2021-09-22,1,,,,,ファーストライフ,0
1375,5460303000737,新規,0,2021-09-22,2021-09-22,合同会社スノーフリークス,,合同会社,北海道,北見市,幸町７丁目１番１－３０１号,,01,208,0900036,,,,,,,2021-09-22,1,,,,,,0
1397,6010403026164,新規,0,2021-09-22,2021-09-22,インターメディア・テクノロジーズ・ジャパン合同会社,,合同会社,東京都,港区,六本木１丁目９番１０号アークヒルズ仙石山森タワー２８階ベーカー＆マッケンジー法律事務所（外国法共同事業）内,,13,103,1060032,,,,,,,2021-09-22,1,,,,,,0
1402,6010605004001,新規,0,2021-09-22,2021-09-22,一般社団法人白岩協会,,その他の設立登記法人,東京都,江東区,豊洲３丁目６番５－３８０４号,,13,108,1350061,,,,,,,2021-09-22,1,,,,,シロイワキョウカイ,0
1407,6010701041542,新規,0,2021-09-22,2021-09-22,株式会社ＡＰソリューション,,株式会社,東京都,品川区,西五反田８丁目２番１２号,,13,109,1410031,,,,,,,2021-09-22,1,,,,,エーピーソリューション,0
1411,6010801032334,新規,0,2021-09-22,2021-09-22,株式会社リアンズ,,株式会社,東京都,大田区,西六郷４丁目１６番１５号フラッツ６５－１０２,,13,111,1440056,,,,,,,2021-09-22,1,,,,,リアンズ,0
1414,6010903006822,新規,0,2021-09-22,2021-09-22,合同会社ＲｉｔａＦｒｕｉｔｓ,,合同会社,東京都,世田谷区,上野毛２丁目５番２４－２０３号,,13,112,1580093,,,,,,,2021-09-22,1,,,,,リタフルーツ,0
1422,6011001142808,新規,0,2021-09-22,2021-09-22,株式会社ＥＸＥＤＥＮ,,株式会社,東京都,目黒区,中目黒３丁目６番２号中目黒Ｆ・Ｓビル５階,,13,110,1530061,,,,,,,2021-09-22,1,,,,,エクスエデン,0
1423,6011001142832,新規,0,2021-09-22,2021-09-22,ＷｈｉｔｅｆｌｏｗｅＲ株式会社,,株式会社,東京都,渋谷区,広尾５丁目１４番２号,,13,113,1500012,,,,,,,2021-09-22,1,,,,,ホワイトフラワー,0
1424,6011001142840,新規,0,2021-09-22,2021-09-22,ＥＬＥＫＳ　Ｊａｐａｎ株式会社,,株式会社,東京都,渋谷区,恵比寿４丁目２０番３号恵比寿ガーデンプレイスタワー１８階,,13,113,1500013,,,,,,,2021-09-22,1,,,,,エレクスジャパン,0
1427,6011003013346,新規,0,2021-09-22,2021-09-22,ＭＩＭＯＳＡ商店合同会社,,合同会社,東京都,渋谷区,恵比寿南２丁目３１番３号,,13,113,1500022,,,,,,,2021-09-22,1,,,,,ミモザショウテン,0
1428,6011003013370,新規,0,2021-09-22,2021-09-22,合同会社Ｋａｙ‐Ｒｉｄｅ　Ｉｎｔｅｒｎａｔｉｏｎａｌ,,合同会社,東京都,渋谷区,本町６丁目３３番２号,,13,113,1510071,,,,,,,2021-09-22,1,,,,,ケイライドインターナショナル,0
1430,6011101096367,新規,0,2021-09-22,2021-09-22,株式会社リンクプロジェクト,,株式会社,東京都,新宿区,高田馬場４丁目８番４号ＯＲＡＧＡビル８Ｂ号室,,13,104,1690075,,,,,,,2021-09-22,1,,,,,リンクプロジェクト,0
1436,6011501027319,新規,0,2021-09-22,2021-09-22,ＰＲＯＯＮ株式会社,,株式会社,東京都,荒川区,南千住３丁目４０番１０号,,13,118,1160003,,,,,,,2021-09-22,1,,,,,プロオン,0
1442,6011803004783,新規,0,2021-09-22,2021-09-22,合同会社ビームスキャリア,,合同会社,東京都,葛飾区,金町６丁目２番１－３８１０号ヴィナシス金町タワーレジデンス,,13,122,1250042,,,,,,,2021-09-22,1,,,,,ビームスキャリア,0
1445,6012303001593,新規,0,2021-09-22,2021-09-22,合同会社フォレスト,,合同会社,東京都,町田市,南町田３丁目４４－５８アーリーローズリライト３０５号,,13,209,1940005,,,,,,,2021-09-22,1,,,,,フォレスト,0
1446,6012401038315,新規,0,2021-09-22,2021-09-22,株式会社大榮,,株式会社,東京都,府中市,若松町２丁目３７番地の１,,13,206,1830005,,,,,,,2021-09-22,1,,,,,ダイエイ,0
1448,6012805003055,新規,0,2021-09-22,2021-09-22,医療法人社団常衛会,,その他の設立登記法人,東京都,立川市,幸町３丁目２番地の１１,,13,202,1900002,,,,,,,2021-09-22,1,,,,,ジョウエイカイ,0
1450,6013305003264,新規,0,2021-09-22,2021-09-22,田口行政書士法人,,その他の設立登記法人,東京都,豊島区,南大塚２丁目３５番３号鴨志田ビル５Ｆ,,13,116,1700005,,,,,,,2021-09-22,1,,,,,タグチ,0
1455,6020001143096,新規,0,2021-09-22,2021-09-22,株式会社グリーンセイル,,株式会社,神奈川県,川崎市宮前区,鷺沼４丁目１４番地２－Ｆ－１０７,,14,136,2160004,,,,,,,2021-09-22,1,,,,,グリーンセイル,0
1456,6020001143105,新規,0,2021-09-22,2021-09-22,株式会社ｓｈｅｅｐドリーム,,株式会社,神奈川県,横浜市栄区,桂台南２丁目３９－１２,,14,115,2470033,,,,,,,2021-09-22,1,,,,,シープドリーム,0
1457,6020001143121,新規,0,2021-09-22,2021-09-22,株式会社ファミリーケータリン,,株式会社,神奈川県,横浜市鶴見区,矢向４丁目３番１１号尻手駅前貸店舗２,,14,101,2300001,,,,,,,2021-09-22,1,,,,,ファミリーケータリン,0
1459,6020003020517,新規,0,2021-09-22,2021-09-22,Ｖｅｎｔｕｒｅ　Ｆｏｒｔｈ合同会社,,合同会社,神奈川県,横浜市青葉区,榎が丘５５―１６,,14,117,2270063,,,,,,,2021-09-22,1,,,,,ベンチャーフォース,0
1462,6021001074018,新規,0,2021-09-22,2021-09-22,株式会社Ａｃｏ,,株式会社,神奈川県,相模原市中央区,共和４丁目９番２４号－２０５,,14,152,2520234,,,,,,,2021-09-22,1,,,,,アコ,0
1467,6021003010912,新規,0,2021-09-22,2021-09-22,合同会社ＣＯＡＳＴ　ＬＥＡＴＨＥＲ　ＰＡＲＴＹ,,合同会社,神奈川県,鎌倉市,坂ノ下１３番３号,,14,204,2480021,,,,,,,2021-09-22,1,,,,,コーストレザーパーティ,0
1480,6030001144432,新規,0,2021-09-22,2021-09-22,株式会社ＫＳボイラーサービス,,株式会社,埼玉県,朝霞市,三原３丁目２３番５－４０２号,,11,227,3510025,,,,,,,2021-09-22,1,,,,,ケーエスボイラーサービス,0
1481,6030001144440,新規,0,2021-09-22,2021-09-22,株式会社ＬＹＧ,,株式会社,埼玉県,さいたま市見沼区,東大宮５丁目２９番地１,,11,104,3370051,,,,,,,2021-09-22,1,,,,,エルワイジー,0
1482,6030001144449,新規,0,2021-09-22,2021-09-22,株式会社ＭＩＳＯＮＯ,,株式会社,埼玉県,さいたま市大宮区,大門町３丁目１９０,,11,103,3300846,,,,,,,2021-09-22,1,,,,,ミソノ,0
1483,6030001144457,新規,0,2021-09-22,2021-09-22,株式会社ｅ‐ＫＺ,,株式会社,埼玉県,和光市,西大和団地３番４号４０７,,11,229,3510105,,,,,,,2021-09-22,1,,,,,イーケイゼット,0
1488,6030003017982,新規,0,2021-09-22,2021-09-22,合同会社Ｆａｍｉｌｌｅ　ｓｏｉｎ,,合同会社,埼玉県,さいたま市見沼区,大字東門前６４番地２－１０３号,,11,104,3370016,,,,,,,2021-09-22,1,,,,,ファミーユソワン,0
1493,6040003018575,新規,0,2021-09-22,2021-09-22,合同会社清光運送,,合同会社,千葉県,山武市,富田トの７１番地１０,,12,237,2891321,,,,,,,2021-09-22,1,,,,,セイコウウンソウ,0
1495,6050001049869,新規,0,2021-09-22,2021-09-22,株式会社ＳＡＶＯＮ,,株式会社,茨城県,つくば市,梅園２丁目１番地１５スプリングテックつくばビル４０１,,08,220,3050045,,,,,,,2021-09-22,1,,,,,サボン,0
1500,6070001038457,新規,0,2021-09-22,2021-09-22,株式会社かんなび環境,,株式会社,群馬県,みどり市,笠懸町西鹿田１９４番地１,,10,212,3792314,,,,,,,2021-09-22,1,,,,,カンナビカンキョウ,0
1508,6080401025351,新規,0,2021-09-22,2021-09-22,株式会社ＧＲＡＰＨＹＳ,,株式会社,静岡県,浜松市東区,有玉西町１６３番地の２,,22,132,4313123,,,,,,,2021-09-22,1,,,,,グラフィーズ,0
1509,6090001017194,新規,0,2021-09-22,2021-09-22,欣大商事株式会社,,株式会社,山梨県,笛吹市,石和町川中島６３番地１リーヴルイサワ－３０１,,19,211,4060024,,,,,,,2021-09-22,1,,,,,キンダイショウジ,0
1513,6110001036051,新規,0,2021-09-22,2021-09-22,早川設備株式会社,,株式会社,新潟県,新潟市秋葉区,覚路津４３３２番地３,,15,105,9560001,,,,,,,2021-09-22,1,,,,,ハヤカワセツビ,0
1523,6120001240511,新規,0,2021-09-22,2021-09-22,ＯＲＩＧＩＮＡＬ　ＶＩＬＬＡＧＥ株式会社,,株式会社,大阪府,大阪市福島区,福島４丁目２番６２号ヴィサージュⅡ５０１号,00124294,27,103,5530003,,,,,,,2021-09-22,1,,,,,オリジナルビレッジ,0
1524,6120001240569,新規,0,2021-09-22,2021-09-22,株式会社Ｔｏｗａｒｄ,,株式会社,大阪府,守口市,豊秀町２丁目２番１０－８０２号,,27,209,5700082,,,,,,,2021-09-22,1,,,,,トワード,0
1527,6120101064323,新規,0,2021-09-22,2021-09-22,株式会社ＭＡＣ,,株式会社,大阪府,和泉市,阪本町１３番地の１,,27,219,5940052,,,,,,,2021-09-22,1,,,,,マック,0
1528,6120101064331,新規,0,2021-09-22,2021-09-22,株式会社アーカンシエル,,株式会社,大阪府,堺市南区,三原台４丁４番６号,,27,145,5900111,,,,,,,2021-09-22,1,,,,,アーカンシエル,0
1533,6122001035180,新規,0,2021-09-22,2021-09-22,株式会社歯ライン,,株式会社,大阪府,八尾市,佐堂町３丁目４番４号,,27,212,5810816,,,,,,,2021-09-22,1,,,,,シライン,0
1536,6130001070131,新規,0,2021-09-22,2021-09-22,株式会社ＧＲＡＣＥ,,株式会社,京都府,京都市右京区,太秦中筋町９番地１クレスト太秦２０６号,,26,108,6168184,,,,,,,2021-09-22,1,,,,,グレース,0
1539,6140001123128,新規,0,2021-09-22,2021-09-22,株式会社ＫＧトラスト,,株式会社,兵庫県,西宮市,上ケ原一番町１番１５５号,,28,204,6620891,,,,,,,2021-09-22,1,,,,,ケージートラスト,0
1541,6140005025824,新規,0,2021-09-22,2021-09-22,ＮＰＯ法人住まいの環境研究所,,その他の設立登記法人,兵庫県,丹波市,柏原町北山２９０番地,,28,223,6693313,,,,,,,2021-09-22,1,,,,,スマイノカンキョウケンキュウショ,0
1550,6180001147908,新規,0,2021-09-22,2021-09-22,株式会社Ｍｏｂｉｒｔａ,,株式会社,愛知県,名古屋市西区,名駅２丁目３４番１７号セントラル名古屋１１０１号,,23,104,4510045,,,,,,,2021-09-22,1,,,,,モビルタ,0
1557,6180003022976,新規,0,2021-09-22,2021-09-22,合同会社ＷｈａｌｅＢ,,合同会社,愛知県,名古屋市中区,正木４丁目６－６第１３フクマルビル８０１,,23,106,4600024,,,,,,,2021-09-22,1,,,,,ホエールビー,0
1563,6190001028693,新規,0,2021-09-22,2021-09-22,株式会社ＬＯＤＩ　Ｐｌｕｓｔ,,株式会社,三重県,鈴鹿市,下箕田３丁目１５番１０号,,24,207,5130052,,,,,,,2021-09-22,1,,,,,ロヂプラスト,0
1566,6200001039160,新規,0,2021-09-22,2021-09-22,株式会社日比野商事,,株式会社,岐阜県,大垣市,荒川町４５５番地,,21,202,5030993,,,,,,,2021-09-22,1,,,,,ヒビノショウジ,0
1572,6200003005318,新規,0,2021-09-22,2021-09-22,合同会社ＭＡ　Ｉｎｔｅｒｎａｔｉｏｎａｌ　Ｔｒａｄｉｎｇ,,合同会社,岐阜県,岐阜市,大福九丁目９２番地３大福パレス１０５,,21,201,5000000,,,,,,,2021-09-22,1,,,,,エムエーインターナショナルトレーディング,0
1575,6220001024433,新規,0,2021-09-22,2021-09-22,株式会社フォーシステム,,株式会社,石川県,金沢市,桂町ハ６番地,,17,201,9200334,,,,,,,2021-09-22,1,,,,,フォーシステム,0
1577,6230001018995,新規,0,2021-09-22,2021-09-22,Ｒ・ＴＥＣ株式会社,,株式会社,富山県,富山市,下赤江町２丁目１番６－２０３号,,16,201,9300813,,,,,,,2021-09-22,1,,,,,アルテック,0
1595,6240003005280,新規,0,2021-09-22,2021-09-22,合同会社ＱＵＥＥＮ,,合同会社,広島県,竹原市,西野町１５８１番地２,,34,203,7250002,,,,,,,2021-09-22,1,,,,,,0
1596,6240005015278,新規,0,2021-09-22,2021-09-22,日本製鉄呉労働組合,,その他の設立登記法人,広島県,呉市,昭和町１１番１号,,34,202,7370027,,,,,,,2021-09-22,1,,,,,,0
1597,6250003002905,新規,0,2021-09-22,2021-09-22,合同会社つぐ吉,,合同会社,山口県,周南市,城ケ丘５丁目８番３８号,,35,215,7450807,,,,,,,2021-09-22,1,,,,,ツグキチ,0
1598,6250005008685,新規,0,2021-09-22,2021-09-22,一般社団法人山口県軽自動車標板センター,,その他の設立登記法人,山口県,山口市,葵１丁目５番５８号,,35,203,7530821,,,,,,,2021-09-22,1,,,,,ヤマグチケンケイジドウシャヒョウバンセンター,0
1605,6290001094692,新規,0,2021-09-22,2021-09-22,株式会社ＮＯＷＡＲ,,株式会社,福岡県,福岡市中央区,天神２丁目３番１０号天神パインクレスト７１９号,,40,133,8100001,,,,,,,2021-09-22,1,,,,,ノワー,0
1611,6290005018359,新規,0,2021-09-22,2021-09-22,ＮＰＯ法人Ａｒｔ　ｉｓ,,その他の設立登記法人,福岡県,福岡市中央区,地行浜２丁目２番５－１９０７号ザ・パークハウス福岡タワーズＥＡＳＴ,,40,133,8100065,,,,,,,2021-09-22,1,,,,,アートイズ,0
1615,6320001018615,新規,0,2021-09-22,2021-09-22,株式会社ファッションプランニング都,,株式会社,大分県,別府市,大字南石垣１５１８番地の１２リバーサイドハイツ荘園２Ｆ,,44,202,8740000,,,,,,,2021-09-22,1,,,,,ファッションプランニングミヤコ,0
1619,6350001017317,新規,0,2021-09-22,2021-09-22,株式会社グローバルセンス,,株式会社,宮崎県,宮崎市,吉村町西田甲６８０番地３－１０２号,,45,201,8800841,,,,,,,2021-09-22,1,,,,,グローバルセンス,0
1620,6350003003926,新規,0,2021-09-22,2021-09-22,合同会社Ｐａｒａｃｏｒｄ,,合同会社,宮崎県,日向市,大字日知屋８０９７番地２ひゅうが創業支援夢プラザ区画２,,45,206,8830062,,,,,,,2021-09-22,1,,,,,パラコード,0
1622,6360005006513,新規,0,2021-09-22,2021-09-22,石垣島スッポン養殖事業協同組合,,その他の設立登記法人,沖縄県,石垣市,字登野城５１３番地,,47,207,9070004,,,,,,,2021-09-22,1,,,,,イシガキジマスッポンヨウショクジギョウ,0
1637,6430001085017,新規,0,2021-09-22,2021-09-22,ＡＷＥＸ．ＦＯＯＤＳＬＡＢＯ株式会社,,株式会社,北海道,札幌市中央区,大通西１丁目１４番地２桂和大通ビル５０－９Ｆ,,01,101,0600042,,,,,,,2021-09-22,1,,,,,オークスフーズラボ,0
1639,6430003013165,新規,0,2021-09-22,2021-09-22,合同会社Ｃｏｒｅ,,合同会社,北海道,札幌市豊平区,美園一条８丁目１番１号,,01,105,0620001,,,,,,,2021-09-22,1,,,,,コア,0
1640,6430003013173,新規,0,2021-09-22,2021-09-22,合同会社チアフル,,合同会社,北海道,札幌市白石区,北郷二条１３丁目３－２３ほたる館,,01,104,0030832,,,,,,,2021-09-22,1,,,,,チアフル,0
1658,7010001221240,新規,0,2021-09-22,2021-09-22,盈運株式会社,,株式会社,東京都,中央区,東日本橋２丁目２８番５号５０８,,13,102,1030004,,,,,,,2021-09-22,1,,,,,エイヒン,0
1666,7010003035861,新規,0,2021-09-22,2021-09-22,合同会社ＪＩＮ－ＳＡＫＵみらいファンド太陽光発電所,,合同会社,東京都,千代田区,一ツ橋２丁目６番３号アクシスインベストメントアドバイザーズ株式会社内,,13,101,1010003,,,,,,,2021-09-22,1,,,,,ジンサクミライファンドタイヨウコウハツデンショ,0
1680,7010401162778,新規,0,2021-09-22,2021-09-22,株式会社サードオペレーションズ,,株式会社,東京都,港区,新橋２丁目２０番１５号新橋駅前ビル１号館９Ｆ，ＳｅａＳｑｕａｒｅ内,,13,103,1050004,,,,,,,2021-09-22,1,,,,,サードオペレーションズ,0
1681,7010401162794,新規,0,2021-09-22,2021-09-22,株式会社ヴェルテ,,株式会社,東京都,港区,虎ノ門３丁目１８番１２号,,13,103,1050001,,,,,,,2021-09-22,1,,,,,ヴェルテ,0
1682,7010401162803,新規,0,2021-09-22,2021-09-22,ＩＴＳ株式会社,,株式会社,東京都,港区,港南２丁目１５番１号,,13,103,1080075,,,,,,,2021-09-22,1,,,,,アイティエス,0
1687,7010601059964,新規,0,2021-09-22,2021-09-22,株式会社ｉｎｓｉｄｅ　ｖｉｌｌａｇｅ,,株式会社,東京都,墨田区,八広６丁目１９番１６号,,13,107,1310041,,,,,,,2021-09-22,1,,,,,インサイドビレッジ,0
1689,7010603009158,新規,0,2021-09-22,2021-09-22,合同会社ＴＩＭＬ,,合同会社,東京都,江東区,東砂８丁目１９番４－１３０５号,,13,108,1360074,,,,,,,2021-09-22,1,,,,,ティムル,0
1690,7010603009166,新規,0,2021-09-22,2021-09-22,合同会社ＦＣＴ,,合同会社,東京都,江東区,亀戸９丁目２１番１０号,,13,108,1360071,,,,,,,2021-09-22,1,,,,,エフシーティー,0
1698,7010701041541,新規,0,2021-09-22,2021-09-22,ＢｏｔａｎｉｃａＬ株式会社,,株式会社,東京都,品川区,南大井６丁目２１番１６号畑中コーポラル５０１,,13,109,1400013,,,,,,,2021-09-22,1,,,,,ボタニカル,0
1705,7010903006821,新規,0,2021-09-22,2021-09-22,こころ愛結合同会社,,合同会社,東京都,世田谷区,下馬１丁目５５－２２－７０５,,13,112,1540002,,,,,,,2021-09-22,1,,,,,ココロメイ,0
1709,7011003013394,新規,0,2021-09-22,2021-09-22,合同会社Ｕフォリア,,合同会社,東京都,渋谷区,円山町５番５号Ｎａｖｉ渋谷Ｖ３階,,13,113,1500044,,,,,,,2021-09-22,1,,,,,ユーフォリア,0
1710,7011003013403,新規,0,2021-09-22,2021-09-22,合同会社Ｎｅｅｄｏｕｍ,,合同会社,東京都,渋谷区,神宮前６丁目２３番４号桑野ビル２階,,13,113,1500001,,,,,,,2021-09-22,1,,,,,ニドム,0
1720,7011103011026,新規,0,2021-09-22,2021-09-22,合同会社スターズ,,合同会社,東京都,新宿区,西新宿３丁目５番１５－３０３号,,13,104,1600023,,,,,,,2021-09-22,1,,,,,スターズ,0
1727,7011503004901,新規,0,2021-09-22,2021-09-22,合同会社丸Ｔ商会,,合同会社,東京都,荒川区,町屋３丁目２３番１８号,,13,118,1160001,,,,,,,2021-09-22,1,,,,,マルティショウカイ,0
1728,7011601025411,新規,0,2021-09-22,2021-09-22,株式会社ＧＲＯＷ,,株式会社,東京都,練馬区,豊玉南３丁目１７番１０－３０３号,,13,120,1760014,,,,,,,2021-09-22,1,,,,,グロウ,0
1730,7011801039723,新規,0,2021-09-22,2021-09-22,株式会社ＬＯＲＥ,,株式会社,東京都,足立区,西加平１丁目２番４２号,,13,121,1210074,,,,,,,2021-09-22,1,,,,,ロア,0
1733,7012401038322,新規,0,2021-09-22,2021-09-22,株式会社佐藤不動産,,株式会社,東京都,武蔵野市,吉祥寺北町４丁目１２番７号,,13,203,1800001,,,,,,,2021-09-22,1,,,,,サトウフドウサン,0
1747,7020001143112,新規,0,2021-09-22,2021-09-22,株式会社Ａ,,株式会社,神奈川県,横浜市都筑区,荏田南町４１８４番地１,,14,118,2240008,,,,,,,2021-09-22,1,,,,,エー,0
1748,7020001143120,新規,0,2021-09-22,2021-09-22,株式会社ＲｉｎｋＵｓ,,株式会社,神奈川県,横浜市中区,蓬莱町２丁目４番地５関内ＤＯＭＯＮビル４－Ｂ,,14,104,2310048,,,,,,,2021-09-22,1,,,,,リンクアス,0
1756,7021001073992,新規,0,2021-09-22,2021-09-22,株式会社クリケット,,株式会社,神奈川県,相模原市中央区,東淵野辺４丁目２番５号,,14,152,2520203,,,,,,,2021-09-22,1,,,,,クリケット,0
1757,7021001074000,新規,0,2021-09-22,2021-09-22,株式会社光渡土建,,株式会社,神奈川県,藤沢市,土棚６５９番地,,14,205,2520806,,,,,,,2021-09-22,1,,,,,コウトドケン,0
1758,7021001074009,新規,0,2021-09-22,2021-09-22,株式会社ＴＡＣ・Ｋ,,株式会社,神奈川県,大和市,中央林間３丁目１７番２０号タックビルⅠ,00124293,14,213,2420007,,,,,,,2021-09-22,1,,,,,タック,0
1759,7021001074017,新規,0,2021-09-22,2021-09-22,株式会社Ｊｅａｎｎｉｅ　ｏｆ　Ｌａｍｐ,,株式会社,神奈川県,相模原市中央区,千代田６丁目１１番１号,,14,152,2520237,,,,,,,2021-09-22,1,,,,,ジーニーオブランプ,0
1771,7030001144423,新規,0,2021-09-22,2021-09-22,株式会社有間渓谷観光釣り場,,株式会社,埼玉県,飯能市,大字下名栗１８１１番地１,,11,209,3570112,,,,,,,2021-09-22,1,,,,,アリマケイコクカンコウツリバ,0
1772,7030001144448,新規,0,2021-09-22,2021-09-22,株式会社Ｄｏｇ　Ｎｉｔ’ｓ,,株式会社,埼玉県,三郷市,早稲田７丁目１５番地１２,,11,237,3410018,,,,,,,2021-09-22,1,,,,,ドッグニッツ,0
1778,7040001120282,新規,0,2021-09-22,2021-09-22,株式会社エフプラン,,株式会社,千葉県,松戸市,新松戸３丁目３６６番地の２,,12,207,2700034,,,,,,,2021-09-22,1,,,,,エフプラン,0
1787,7070001038456,新規,0,2021-09-22,2021-09-22,共栄総業株式会社,,株式会社,群馬県,邑楽郡大泉町,仙石１丁目１２番３０号１Ｆ,,10,524,3700533,,,,,,,2021-09-22,1,,,,,キョウエイソウギョウ,0
1797,7080401025350,新規,0,2021-09-22,2021-09-22,株式会社ワンセルフサポート,,株式会社,静岡県,浜松市西区,神ケ谷町４３３１番地の１,,22,133,4328005,,,,,,,2021-09-22,1,,,,,ワンセルフサポート,0
1798,7080405007386,新規,0,2021-09-22,2021-09-22,企業組合エシカルリビング,,その他の設立登記法人,静岡県,浜松市天竜区,春野町堀之内７２９番地,,22,137,4370625,,,,,,,2021-09-22,1,,,,,エシカルリビング,0
1803,7100005012767,新規,0,2021-09-22,2021-09-22,一般社団法人住み家,,その他の設立登記法人,長野県,松本市,大字島立６３５番地１,,20,202,3900852,,,,,,,2021-09-22,1,,,,,スミカ,0
1805,7110001036050,新規,0,2021-09-22,2021-09-22,株式会社五十嵐工務店,,株式会社,新潟県,燕市,渡部６８番地６４,,15,213,9590135,,,,,,,2021-09-22,1,,,,,イカラシコウムテン,0
1815,7120001240485,新規,0,2021-09-22,2021-09-22,株式会社Ｑｕｏｎ,,株式会社,大阪府,大阪市浪速区,難波中３丁目９番３－ＲＥ０２０,,27,111,5560011,,,,,,,2021-09-22,1,,,,,クオン,0
1816,7120001240510,新規,0,2021-09-22,2021-09-22,株式会社銘辰,,株式会社,大阪府,大阪市浪速区,元町３丁目８番７号伍條ビル５階,,27,111,5560016,,,,,,,2021-09-22,1,,,,,メイシン,0
1817,7120001240519,新規,0,2021-09-22,2021-09-22,株式会社タクトプラン,,株式会社,大阪府,大阪市東住吉区,東田辺１丁目２番５号,,27,121,5460032,,,,,,,2021-09-22,1,,,,,タクトプラン,0
1818,7120001240543,新規,0,2021-09-22,2021-09-22,株式会社エイコー,,株式会社,大阪府,大阪市生野区,生野東２丁目３番７号,,27,116,5440025,,,,,,,2021-09-22,1,,,,,エイコー,0
1819,7120001240576,新規,0,2021-09-22,2021-09-22,新阪不動産株式会社,,株式会社,大阪府,大阪市中央区,本町２丁目３番４号アソルティ本町４階,,27,128,5410053,,,,,,,2021-09-22,1,,,,,シンハンフドウサン,0
1821,7120003020274,新規,0,2021-09-22,2021-09-22,丸梵合同会社,,合同会社,大阪府,大阪市東淀川区,淡路４丁目９番１４号エイゼンビル７階,,27,114,5330032,,,,,,,2021-09-22,1,,,,,マルボン,0
1823,7120005022509,新規,0,2021-09-22,2021-09-22,社会保険労務士法人ＦＰ総合研究所,,その他の設立登記法人,大阪府,大阪市中央区,本町３丁目４番１０号,,27,128,5410053,,,,,,,2021-09-22,1,,,,,エフピーソウゴウケンキュウジョ,0
1825,7120101064330,新規,0,2021-09-22,2021-09-22,株式会社シャルム・ボーホールディングス,,株式会社,大阪府,堺市中区,深井東町３０１４番地,,27,142,5998235,,,,,,,2021-09-22,1,,,,,シャルムボーホールディングス,0
1847,7140001123093,新規,0,2021-09-22,2021-09-22,ＧＴ株式会社,,株式会社,兵庫県,神戸市東灘区,住吉宮町３丁目１４番１３号ジュピタービル３０３号,,28,101,6580053,,,,,,,2021-09-22,1,,,,,ジーティー,0
1848,7140001123102,新規,0,2021-09-22,2021-09-22,株式会社平城左官,,株式会社,兵庫県,揖保郡太子町,立岡１５３番地１,,28,464,6711531,,,,,,,2021-09-22,1,,,,,ヒラジョウサカン,0
1852,7160001023639,新規,0,2021-09-22,2021-09-22,株式会社ｙ’ｓホーム,,株式会社,滋賀県,大津市,真野１丁目８番１０号,,25,201,5200232,,,,,,,2021-09-22,1,,,,,ワイズホーム,0
1857,7180001147907,新規,0,2021-09-22,2021-09-22,株式会社ＵＮＩＳＥＥＤ,,株式会社,愛知県,名古屋市千種区,楠元町２丁目１１番地アーバン本山２Ａ,,23,101,4640037,,,,,,,2021-09-22,1,,,,,ユニシード,0
1858,7180003022975,新規,0,2021-09-22,2021-09-22,合同会社ＩＭＡＩＫＥ,,合同会社,愛知県,名古屋市緑区,東神の倉３丁目１０８番地,,23,114,4580808,,,,,,,2021-09-22,1,,,,,イマイケ,0
1861,7190005011620,新規,0,2021-09-22,2021-09-22,一般社団法人Ｒｅａ,,その他の設立登記法人,三重県,三重郡菰野町,大字潤田９９６番地,,24,341,5101253,,,,,,,2021-09-22,1,,,,,レア,0
1866,7220003003120,新規,0,2021-09-22,2021-09-22,財界いしかわ合同会社,,合同会社,石川県,金沢市,法島町８‐２８,,17,201,9218101,,,,,,,2021-09-22,1,,,,,ザイカイイシカワ,0
1868,7230001018994,新規,0,2021-09-22,2021-09-22,株式会社ビルトケア,,株式会社,富山県,富山市,館出町２丁目４番４号,,16,201,9300014,,,,,,,2021-09-22,1,,,,,ビルトケア,0
1870,7240001058635,新規,0,2021-09-22,2021-09-22,株式会社Ｗｏｒｋｖａｔｉｏｎ,,株式会社,広島県,広島市中区,鉄砲町１番１８号,,34,101,7300017,,,,,,,2021-09-22,1,,,,,ワークベーション,0
1891,7290801027818,新規,0,2021-09-22,2021-09-22,株式会社さくらの樹,,株式会社,福岡県,北九州市小倉北区,赤坂５丁目５番５６号,,40,106,8020032,,,,,,,2021-09-22,1,,,,,サクラノキ,0
1894,7320001018614,新規,0,2021-09-22,2021-09-22,株式会社ユナイテッド,,株式会社,大分県,国東市,国東町田深９１３番地,,44,214,8730502,,,,,,,2021-09-22,1,,,,,ユナイテッド,0
1896,7320003003614,新規,0,2021-09-22,2021-09-22,合同会社石川農園,,合同会社,大分県,由布市,湯布院町川北１１１２番地２,,44,213,8795114,,,,,,,2021-09-22,1,,,,,,0
1897,7330005010401,新規,0,2021-09-22,2021-09-22,一般社団法人熊本地域ＩＣＴ協会,,その他の設立登記法人,熊本県,宇土市,松原町６１番地２４,,43,211,8690407,,,,,,,2021-09-22,1,,,,,クマモトチイキアイシーティーキョウカイ,0
1900,7340005009343,新規,0,2021-09-22,2021-09-22,特定非営利活動法人ＮＰＯいぶすき子育てサポートセンターＬＵＡＮＡ,,その他の設立登記法人,鹿児島県,指宿市,大牟礼１丁目３１番４号,,46,210,8910401,,,,,,,2021-09-22,1,,,,,イブスキコソダテサポートセンタールアナ,0
1906,7370001047609,新規,0,2021-09-22,2021-09-22,株式会社カムクリーン,,株式会社,宮城県,仙台市若林区,若林５丁目８番３３号,,04,103,9840826,,,,,,,2021-09-22,1,,,,,カムクリーン,0
1911,7380003005019,新規,0,2021-09-22,2021-09-22,合同会社ＪＳＫ,,合同会社,福島県,郡山市,鶴見坦２丁目３番２１号,,07,203,9638861,,,,,,,2021-09-22,1,,,,,ジェイエスケー,0
1920,7430001085008,新規,0,2021-09-22,2021-09-22,株式会社ボナンザ,,株式会社,北海道,札幌市東区,北三十九条東１７丁目１番１６号,,01,103,0070839,,,,,,,2021-09-22,1,,,,,ボナンザ,0
1924,7430003013164,新規,0,2021-09-22,2021-09-22,合同会社ＨＴＩ,,合同会社,北海道,苫小牧市,桜坂町２丁目１１番２号,,01,213,0530843,,,,,,,2021-09-22,1,,,,,エイチティーアイ,0
1926,7430005014284,新規,0,2021-09-22,2021-09-22,医療法人社団理知会,,その他の設立登記法人,北海道,札幌市中央区,北五条西２５丁目３番１号,,01,101,0640825,,,,,,,2021-09-22,1,,,,,リチカイ,0
1928,7480001011504,新規,0,2021-09-22,2021-09-22,株式会社ＭＡＴＳＵＤＡ,,株式会社,徳島県,阿南市,上中町岡３５０番地１,,36,204,7740044,,,,,,,2021-09-22,1,,,,,マツダ,0
1930,7500001023686,新規,0,2021-09-22,2021-09-22,株式会社八雲農園,,株式会社,愛媛県,松山市,鴨川１丁目８番３０号,,38,201,7918004,,,,,,,2021-09-22,1,,,,,ヤクモノウエン,0
1936,8010001221181,新規,0,2021-09-22,2021-09-22,株式会社アミティエ,,株式会社,東京都,中央区,銀座３丁目２番１１号ＧＩＮＺＡ・ＳＡＬＯＮＥ１０階,,13,102,1040061,,,,,,,2021-09-22,1,,,,,アミティエ,0
1937,8010001221280,新規,0,2021-09-22,2021-09-22,株式会社どこでもエナジー,,株式会社,東京都,中央区,銀座８丁目１０番５号,,13,102,1040061,,,,,,,2021-09-22,1,,,,,ドコデモエナジー,0
1939,8010005033994,新規,0,2021-09-22,2021-09-22,一般社団法人ＬＰＬＣ,,その他の設立登記法人,東京都,千代田区,一ツ橋２丁目６番３号アクシスインベストメントアドバイザーズ株式会社内,,13,101,1010003,,,,,,,2021-09-22,1,,,,,エルピーエルシー,0
1946,8010401162785,新規,0,2021-09-22,2021-09-22,株式会社ＫＰ,,株式会社,東京都,港区,三田２丁目４番３号コノエ三田綱町１０１,,13,103,1080073,,,,,,,2021-09-22,1,,,,,ケーピー,0
1952,8010403026154,新規,0,2021-09-22,2021-09-22,スター企画合同会社,,合同会社,東京都,港区,虎ノ門３丁目１８番６－６１４号,,13,103,1050001,,,,,,,2021-09-22,1,,,,,スターキカク,0
1957,8010701041524,新規,0,2021-09-22,2021-09-22,ＭＥＧＩＮ株式会社,,株式会社,東京都,品川区,戸越１丁目１５番１６号協和第二ビル３０１,,13,109,1420041,,,,,,,2021-09-22,1,,,,,メジン,0
1962,8010801032332,新規,0,2021-09-22,2021-09-22,羽田空港パートナーズ株式会社,,株式会社,東京都,大田区,羽田空港１丁目６番６号,,13,111,1440041,,,,,,,2021-09-22,1,,,,,ハネダクウコウパートナーズ,0
1963,8010801032340,新規,0,2021-09-22,2021-09-22,株式会社Ｄａｙｓ．ｄ．ｄ．ｏ,,株式会社,東京都,大田区,西蒲田６丁目３２－１１,,13,111,1440051,,,,,,,2021-09-22,1,,,,,デイズディーディーオー,0
1971,8011001142789,新規,0,2021-09-22,2021-09-22,株式会社ミライズインシュア,,株式会社,東京都,渋谷区,恵比寿西２丁目７番３号いちご恵比寿西ビル５階,,13,113,1500021,,,,,,,2021-09-22,1,,,,,ミライズインシュア,0
1972,8011001142797,新規,0,2021-09-22,2021-09-22,Ｔｈｅ　ｂｒｉｄ株式会社,,株式会社,東京都,渋谷区,円山町５番５号Ｎａｖｉ渋谷Ｖ３階,,13,113,1500044,,,,,,,2021-09-22,1,,,,,ザブリッド,0
1973,8011001142822,新規,0,2021-09-22,2021-09-22,株式会社ＫＩＲＡ‐ＬＩＮＫ,,株式会社,東京都,渋谷区,渋谷２丁目７－１４ＶＯＲＴＡＯＹＡＭＡ３０２,,13,113,1500002,,,,,,,2021-09-22,1,,,,,キラリンク,0
1974,8011001142830,新規,0,2021-09-22,2021-09-22,株式会社オールインサイト,,株式会社,東京都,渋谷区,代々木１丁目１０番地１号８０２号,,13,113,1510053,,,,,,,2021-09-22,1,,,,,オールインサイト,0
1975,8011001142847,新規,0,2021-09-22,2021-09-22,株式会社ＳＥＥＤ＆ｂｅａｕｔｙ,,株式会社,東京都,渋谷区,南平台町１３番３号,,13,113,1500036,,,,,,,2021-09-22,1,,,,,シードアンドビューティー,0
1976,8011001142888,新規,0,2021-09-22,2021-09-22,株式会社アトリエドマー,,株式会社,東京都,渋谷区,初台１丁目３９番１１号,,13,113,1510061,,,,,,,2021-09-22,1,,,,,アトリエドマー,0
1977,8011001142921,新規,0,2021-09-22,2021-09-22,ＭＬ株式会社,,株式会社,東京都,渋谷区,恵比寿１丁目３１番１１－５０１号,,13,113,1500013,,,,,,,2021-09-22,1,,,,,エムエル,0
1986,8011105009991,新規,0,2021-09-22,2021-09-22,一般社団法人コーポレート・ガバナンス推進機構,,その他の設立登記法人,東京都,新宿区,四谷本塩町４番１５号新井ビル３階,,13,104,1600003,,,,,,,2021-09-22,1,,,,,コーポレートガバナンススイシンキコウ,0
1990,8012301012715,新規,0,2021-09-22,2021-09-22,株式会社ホープデザイアー,,株式会社,東京都,町田市,原町田３丁目７番１０号メゾントリアノン３０１,,13,209,1940013,,,,,,,2021-09-22,1,,,,,ホープデザイアー,0
1996,8013301048039,新規,0,2021-09-22,2021-09-22,株式会社Ｌｅｏｔｏｒｉａ,,株式会社,東京都,豊島区,西巣鴨１丁目３番１４号,,13,116,1700001,,,,,,,2021-09-22,1,,,,,レオトリア,0
1998,8013303005830,新規,0,2021-09-22,2021-09-22,合同会社スリーエム,,合同会社,東京都,豊島区,東池袋２丁目３９番２号,,13,116,1700013,,,,,,,2021-09-22,1,,,,,スリーエム,0
2003,8020001143103,新規,0,2021-09-22,2021-09-22,株式会社ＩＲＩＤＡＲＥ,,株式会社,神奈川県,横浜市都筑区,牛久保２丁目４番５号,,14,118,2240012,,,,,,,2021-09-22,1,,,,,イリダーレ,0
2010,8020003020507,新規,0,2021-09-22,2021-09-22,大成合同会社,,合同会社,神奈川県,横浜市神奈川区,二ツ谷町４－５,,14,102,2210823,,,,,,,2021-09-22,1,,,,,タイセイ,0
2014,8021005012302,新規,0,2021-09-22,2021-09-22,ＮＰＯ法人ざま野良猫を増やさない会,,その他の設立登記法人,神奈川県,座間市,相武台１丁目４２番１号,,14,216,2520011,,,,,,,2021-09-22,1,,,,,ザマノラネコヲフヤサナイカイ,0
2024,8030001144406,新規,0,2021-09-22,2021-09-22,株式会社ホーミー,,株式会社,埼玉県,新座市,片山１丁目２０番３８号２－１０２,,11,230,3520025,,,,,,,2021-09-22,1,,,,,ホーミー,0
2025,8030001144422,新規,0,2021-09-22,2021-09-22,株式会社ぬまぐち,,株式会社,埼玉県,川口市,中青木４丁目９番３１号,,11,203,3320032,,,,,,,2021-09-22,1,,,,,ヌマグチ,0
2026,8030001144439,新規,0,2021-09-22,2021-09-22,株式会社ＢＡＬＩＧＯＯＤ,,株式会社,埼玉県,さいたま市見沼区,大字南中丸８９５－２０,,11,104,3370041,,,,,,,2021-09-22,1,,,,,バリグット,0
2032,8040001120273,新規,0,2021-09-22,2021-09-22,株式会社ジャパンポート,,株式会社,千葉県,千葉市美浜区,幸町１丁目５番３棟１３１２号,,12,106,2610001,,,,,,,2021-09-22,1,,,,,ジャパンポート,0
2044,8070001038455,新規,0,2021-09-22,2021-09-22,株式会社Ｋｕｒａｓａｐｏ,,株式会社,群馬県,高崎市,東貝沢町４丁目２番地３６,,10,202,3700041,,,,,,,2021-09-22,1,,,,,クラサポ,0
2048,8080403004368,新規,0,2021-09-22,2021-09-22,Ｆｏｒｔｉｔｕｄｅ合同会社,,合同会社,静岡県,浜松市中区,泉１丁目５番３４号スプリングヒルズ１０２,,22,131,4338124,,,,,,,2021-09-22,1,,,,,フォーティチュード,0
2059,8120001240369,新規,0,2021-09-22,2021-09-22,株式会社ＢＳＳ,,株式会社,大阪府,大阪市西区,南堀江１丁目２５番１２号ＲＥ－０１５－４０２,,27,106,5500015,,,,,,,2021-09-22,1,,,,,ビーエスエス,0
2060,8120001240484,新規,0,2021-09-22,2021-09-22,株式会社英弘ＪＡＰＡＮ,,株式会社,大阪府,枚方市,星丘２丁目４３－２,,27,210,5730013,,,,,,,2021-09-22,1,,,,,エイコウジャパン,0
2061,8120001240501,新規,0,2021-09-22,2021-09-22,株式会社守口門真共同ガス,,株式会社,大阪府,守口市,馬場町３丁目１４番１８号,,27,209,5700062,,,,,,,2021-09-22,1,,,,,モリグチカドマキョウドウガス,0
2062,8120001240550,新規,0,2021-09-22,2021-09-22,江南株式会社,,株式会社,大阪府,大阪市東淀川区,小松２丁目１４番１９号,,27,114,5330004,,,,,,,2021-09-22,1,,,,,カンナム,0
2063,8120001240575,新規,0,2021-09-22,2021-09-22,株式会社Ｇａｎｃｈａｎ,,株式会社,大阪府,大阪市住吉区,沢之町２丁目１０－１シャーメゾンＭａｉＭａｉ２０１,,27,120,5580031,,,,,,,2021-09-22,1,,,,,ガンチャン,0
2064,8120001240591,新規,0,2021-09-22,2021-09-22,吉祥森株式会社,,株式会社,大阪府,大阪市北区,堂山町１番５号三共梅田ビル６Ｆ,,27,127,5300027,,,,,,,2021-09-22,1,,,,,キショウモリ,0
2069,8120003020273,新規,0,2021-09-22,2021-09-22,合同会社ＷａＲｅＫａＲａ,,合同会社,大阪府,大阪市此花区,朝日２丁目１８番８号３Ｆ－６０６,,27,104,5540011,,,,,,,2021-09-22,1,,,,,ワレカラ,0
2081,8122001035187,新規,0,2021-09-22,2021-09-22,株式会社ライフモデレーションＯＳＡＫＡ,,株式会社,大阪府,東大阪市,西岩田３丁目５－６５－９２６,,27,227,5780947,,,,,,,2021-09-22,1,,,,,ライフモデレーションオーサカ,0
2085,8130001070138,新規,0,2021-09-22,2021-09-22,株式会社鼎鳴,,株式会社,京都府,京都市伏見区,竹田久保町２番地４６,,26,109,6128411,,,,,,,2021-09-22,1,,,,,テイミョウ,0
2086,8130005016269,新規,0,2021-09-22,2021-09-22,特定非営利活動法人お客様がいらっしゃいました．,,その他の設立登記法人,京都府,京都市上京区,丸太町通大宮西入一町目８５５番地５日邦丸太町ビル７０６号,,26,102,6028134,,,,,,,2021-09-22,1,,,,,オキャクサマガイラッシャイマシタ,0
2088,8140001123002,新規,0,2021-09-22,2021-09-22,株式会社ＰｏｓｔＦｅｅｄ,,株式会社,兵庫県,加古川市,平岡町二俣６５９番地の７リアラス東加古川６０２,,28,210,6750111,,,,,,,2021-09-22,1,,,,,ポストフィード,0
2090,8140003016757,新規,0,2021-09-22,2021-09-22,合同会社神戸えん食,,合同会社,兵庫県,神戸市灘区,寺口町５－５,,28,102,6570062,,,,,,,2021-09-22,1,,,,,コウベエンショク,0
2093,8140005025822,新規,0,2021-09-22,2021-09-22,一般社団法人世界遺産ツーリズム事業者協会・姫路うちまち商店会,,その他の設立登記法人,兵庫県,姫路市,二階町７９番地,,28,201,6700922,,,,,,,2021-09-22,1,,,,,セカイイサンツーリズムジギョウシャキョウカイヒメジウチマチショウテンカイ,0
2094,8150001024934,新規,0,2021-09-22,2021-09-22,株式会社Ｔ．ポケット,,株式会社,奈良県,奈良市,宝来４丁目１５番３２号,,29,201,6310845,,,,,,,2021-09-22,1,,,,,ティーポケット,0
2097,8160001023638,新規,0,2021-09-22,2021-09-22,ぽこぁぽこ株式会社,,株式会社,滋賀県,大津市,朝日が丘１丁目１４番４号,,25,201,5200052,,,,,,,2021-09-22,1,,,,,ポコアポコ,0
2098,8160003002383,新規,0,2021-09-22,2021-09-22,ＫＡＺＡＯＴＯ合同会社,,合同会社,滋賀県,東近江市,五個荘金堂町１１１１,,25,213,5291405,,,,,,,2021-09-22,1,,,,,カザオト,0
2103,8180001147906,新規,0,2021-09-22,2021-09-22,株式会社ＡＳＸＥＥＤ,,株式会社,愛知県,愛知郡東郷町,清水４丁目１２番地９,,23,302,4700165,,,,,,,2021-09-22,1,,,,,アスシード,0
2104,8180001147914,新規,0,2021-09-22,2021-09-22,Ｇｌｏｂａｌ　Ｐｒｏｐｏｓａｌ株式会社,,株式会社,愛知県,あま市,西今宿山伏一１１番地２,,23,237,4901104,,,,,,,2021-09-22,1,,,,,グローバルプロポーザル,0
2106,8180005019432,新規,0,2021-09-22,2021-09-22,特定非営利活動法人あおぞら,,その他の設立登記法人,愛知県,名古屋市東区,東桜２丁目９番３１号プレサンスロジェ高岳駅前５０１号,,23,102,4610005,,,,,,,2021-09-22,1,,,,,アオゾラ,0
2110,8200001039167,新規,0,2021-09-22,2021-09-22,株式会社ＨＯＳＨＯ空機,,株式会社,岐阜県,岐阜市,徹明通５丁目８番地,,21,201,5008879,,,,,,,2021-09-22,1,,,,,ホウショウクウキ,0
2118,8230001018993,新規,0,2021-09-22,2021-09-22,株式会社Ｇ＆Ｗ　Ｏｕｔｄｏｏｒｓ,,株式会社,富山県,氷見市,稲積字宮ケ谷内１２４番地１,,16,205,9350006,,,,,,,2021-09-22,1,,,,,ジーアンドダブリューアウトドアーズ,0
2125,8280001008511,新規,0,2021-09-22,2021-09-22,株式会社近藤商店,,株式会社,島根県,大田市,久利町行恒１０番地１５,,32,205,6940021,,,,,,,2021-09-22,1,,,,,コンドウショウテン,0
2140,8310005008545,新規,0,2021-09-22,2021-09-22,壱岐市農業支援事業協同組合,,その他の設立登記法人,長崎県,壱岐市,芦辺町国分東触６７９番地ＪＡ壱岐市営農センター内,00124301,42,210,8115732,,,,,,,2021-09-22,1,,,,,イキシノウギョウシエンジギョウ,0
2144,8340001024106,新規,0,2021-09-22,2021-09-22,株式会社岡留建築,,株式会社,鹿児島県,鹿屋市,札元２丁目３６４５番地２８Ｄビル２階,,46,203,8930013,,,,,,,2021-09-22,1,,,,,オカドメケンチク,0
2145,8340003003561,新規,0,2021-09-22,2021-09-22,合同会社マネクル,,合同会社,鹿児島県,霧島市,福山町福沢４６９０－１４,,46,218,8994503,,,,,,,2021-09-22,1,,,,,マネクル,0
2158,8390001016602,新規,0,2021-09-22,2021-09-22,株式会社ＲＡＤＩＴＥ,,株式会社,山形県,米沢市,塩井町塩野１４９２番地の１７,,06,202,9920042,,,,,,,2021-09-22,1,,,,,ラディーテ,0
2173,8430001085007,新規,0,2021-09-22,2021-09-22,株式会社オフィス・ピノ,,株式会社,北海道,白老郡白老町,本町１丁目４番２１号,,01,578,0590906,,,,,,,2021-09-22,1,,,,,オフィスピノ,0
2177,8430005014283,新規,0,2021-09-22,2021-09-22,医療法人ていね駅前矯正歯科,,その他の設立登記法人,北海道,札幌市手稲区,手稲本町一条４丁目１番４号テイネ１・４ビル１Ｆ,,01,109,0060021,,,,,,,2021-09-22,1,,,,,テイネエキマエキョウセイシカ,0
2181,8440001008949,新規,0,2021-09-22,2021-09-22,Ａｌｌ　ｉｎ　Ａｌｌビルド株式会社,,株式会社,北海道,函館市,鍛治２丁目２５番８号,,01,202,0410852,,,,,,,2021-09-22,1,,,,,オールインオールビルド,0
2183,8450003002123,新規,0,2021-09-22,2021-09-22,クリエイトＯＮＥ合同会社,,合同会社,北海道,旭川市,東光二条１丁目２番２１号,,01,204,0788342,,,,,,,2021-09-22,1,,,,,クリエイトワン,0
2185,8470003002039,新規,0,2021-09-22,2021-09-22,Ｙｅｅｋ合同会社,,合同会社,香川県,高松市,多肥下町１５５５番地９サーパス太田公園８０５,,37,201,7618075,,,,,,,2021-09-22,1,,,,,イーク,0
2189,8500003002695,新規,0,2021-09-22,2021-09-22,ＯＭＯＲＯ合同会社,,合同会社,愛媛県,今治市,大三島町宮浦５６３０番地,,38,202,7941304,,,,,,,2021-09-22,1,,,,,オモロ,0
2204,9010001221239,新規,0,2021-09-22,2021-09-22,ＧｅｎｅＸ　Ｃｏ．株式会社,,株式会社,東京都,中央区,東日本橋２丁目２８番５号５０８,,13,102,1030004,,,,,,,2021-09-22,1,,,,,ジエネックシーオー,0
2205,9010001221247,新規,0,2021-09-22,2021-09-22,株式会社プロセスバリュー,,株式会社,東京都,千代田区,神田佐久間町１丁目８番地４アルテール秋葉原７０８,,13,101,1010025,,,,,,,2021-09-22,1,,,,,プロセスバリュー,0
2206,9010001221263,新規,0,2021-09-22,2021-09-22,日本橋バリューパートナーズ株式会社,,株式会社,東京都,文京区,白山１丁目２番１０号,,13,105,1130001,,,,,,,2021-09-22,1,,,,,ニホンバシバリューパートナーズ,0
2207,9010001221288,新規,0,2021-09-22,2021-09-22,八峰・能代洋上風力開発株式会社,,株式会社,東京都,千代田区,内幸町１丁目１番６号,,13,101,1000011,,,,,,,2021-09-22,1,,,,,ハッポウノシロヨウジョウフウリョクカイハツ,0
2210,9010003035868,新規,0,2021-09-22,2021-09-22,合同会社レイス,,合同会社,東京都,中央区,銀座１丁目２２番１１号銀座大竹ビジデンス２階,,13,102,1040061,,,,,,,2021-09-22,1,,,,,レイス,0
2212,9010005033928,新規,0,2021-09-22,2021-09-22,一般社団法人日ＥＵ貿易協会,,その他の設立登記法人,東京都,千代田区,飯田橋１丁目８番９号ニューシティハイツ飯田橋７０７,,13,101,1020072,,,,,,,2021-09-22,1,,,,,ニチイーユーボウエキキョウカイ,0
2213,9010005033993,新規,0,2021-09-22,2021-09-22,一般社団法人ＧＥアセットマネジメント,,その他の設立登記法人,東京都,千代田区,一ツ橋２丁目６番３号アクシスインベストメントアドバイザーズ株式会社内,,13,101,1010003,,,,,,,2021-09-22,1,,,,,ジーイーアセットマネジメント,0
2214,9010005034001,新規,0,2021-09-22,2021-09-22,医療法人社団輝晶会,,その他の設立登記法人,東京都,中央区,八重洲２丁目６番２１号４階,,13,102,1040028,,,,,,,2021-09-22,1,,,,,キショウカイ,0
2220,9010401162792,新規,0,2021-09-22,2021-09-22,株式会社Ｗ８ＳＹＳＴＥＭＳ,,株式会社,東京都,港区,白金６丁目３番５号,,13,103,1080072,,,,,,,2021-09-22,1,,,,,ウーブンエイトシステムズ,0
2232,9010801032307,新規,0,2021-09-22,2021-09-22,エコプロメンテ株式会社,,株式会社,東京都,大田区,中央５丁目１７番５号,,13,111,1430024,,,,,,,2021-09-22,1,,,,,エコプロメンテ,0
2233,9010803003891,新規,0,2021-09-22,2021-09-22,ＡＮ‐ＲＹＵ合同会社,,合同会社,東京都,大田区,下丸子１丁目１９－９キモリビル３０１,,13,111,1460092,,,,,,,2021-09-22,1,,,,,アンリュウ,0
2235,9010901049481,新規,0,2021-09-22,2021-09-22,株式会社ＳＫＬ,,株式会社,東京都,世田谷区,代沢２丁目２８－６－５０１,,13,112,1550032,,,,,,,2021-09-22,1,,,,,エスケーエル,0
2243,9011001142895,新規,0,2021-09-22,2021-09-22,株式会社Ａｃｃｅｓｓｏｒ,,株式会社,東京都,渋谷区,神宮前６丁目２３番４号桑野ビル２階,,13,113,1500001,,,,,,,2021-09-22,1,,,,,アクセサ,0
2246,9011003013376,新規,0,2021-09-22,2021-09-22,メタバーサルアセットマネージメント合同会社,,合同会社,東京都,目黒区,自由が丘３丁目１０－１０,,13,110,1520035,,,,,,,2021-09-22,1,,,,,メタバーサルアセットマネージメント,0
2247,9011003013384,新規,0,2021-09-22,2021-09-22,合同会社Ｌｉｕｒｅ,,合同会社,東京都,目黒区,上目黒３丁目２２－４,,13,110,1530051,,,,,,,2021-09-22,1,,,,,リウレ,0
2253,9011101096307,新規,0,2021-09-22,2021-09-22,株式会社碧,,株式会社,東京都,新宿区,若葉１丁目１番２２号,,13,104,1600011,,,,,,,2021-09-22,1,,,,,アオ,0
2257,9011201023268,新規,0,2021-09-22,2021-09-22,株式会社ｄｉｆｆｕｓｅ,,株式会社,東京都,中野区,中野４丁目１番１号中野サンプラザ９階,,13,114,1640001,,,,,,,2021-09-22,1,,,,,デフュース,0
2261,9011403003448,新規,0,2021-09-22,2021-09-22,アシスト．ｃｏｍ合同会社,,合同会社,東京都,板橋区,板橋３丁目４５－１,,13,119,1730004,,,,,,,2021-09-22,1,,,,,アシストドットコム,0
2265,9011603003388,新規,0,2021-09-22,2021-09-22,合同会社Ｅｎｒｉｃｈ,,合同会社,東京都,練馬区,下石神井３丁目９番１０号ハウスベル１号棟１０３号室,,13,120,1770042,,,,,,,2021-09-22,1,,,,,エンリッチ,0
2268,9011801039721,新規,0,2021-09-22,2021-09-22,株式会社ビッグスリー,,株式会社,東京都,足立区,梅田２丁目７番６－４０２号,,13,121,1230851,,,,,,,2021-09-22,1,,,,,ビッグスリー,0
2275,9012401038320,新規,0,2021-09-22,2021-09-22,株式会社哲剣,,株式会社,東京都,三鷹市,牟礼１丁目８番４０号,,13,204,1810002,,,,,,,2021-09-22,1,,,,,テツケン,0
2278,9012701016678,新規,0,2021-09-22,2021-09-22,株式会社西郎フーズ,,株式会社,東京都,清瀬市,松山１丁目８番４号,,13,221,2040022,,,,,,,2021-09-22,1,,,,,セイロウフーズ,0
2284,9013301048038,新規,0,2021-09-22,2021-09-22,株式会社Ｒｉｘｙ,,株式会社,東京都,豊島区,西池袋５丁目５番２１－４０６号,,13,116,1710021,,,,,,,2021-09-22,1,,,,,リクシー,0
2289,9020001143077,新規,0,2021-09-22,2021-09-22,株式会社タイランドブリッジ,,株式会社,神奈川県,横浜市中区,本牧満坂１４番地７,,14,104,2310833,,,,,,,2021-09-22,1,,,,,タイランドブリッジ,0
2290,9020001143110,新規,0,2021-09-22,2021-09-22,Ｇｒｅｅｎ株式会社,,株式会社,神奈川県,横浜市中区,本牧町１丁目１４３番地,,14,104,2310806,,,,,,,2021-09-22,1,,,,,グリーン,0
2291,9020001143127,新規,0,2021-09-22,2021-09-22,株式会社白亜建設,,株式会社,神奈川県,横浜市磯子区,磯子２丁目２１番１２号,,14,107,2350016,,,,,,,2021-09-22,1,,,,,ハクアケンセツ,0
2297,9020003020514,新規,0,2021-09-22,2021-09-22,合同会社謙美,,合同会社,神奈川県,横浜市泉区,和泉中央北２丁目３５－２８,,14,116,2450024,,,,,,,2021-09-22,1,,,,,ケンビ,0
2300,9021001073933,新規,0,2021-09-22,2021-09-22,ダルマエクスプレス株式会社,,株式会社,神奈川県,厚木市,戸田１４３６－５－１０１号室,,14,212,2430023,,,,,,,2021-09-22,1,,,,,ダルマエクスプレス,0
2301,9021001073990,新規,0,2021-09-22,2021-09-22,株式会社Ｒｅｂｕｉｌｄｉｎｇ,,株式会社,神奈川県,鎌倉市,扇ガ谷２丁目１７番６号,,14,204,2480011,,,,,,,2021-09-22,1,,,,,リビルディング,0
2302,9021001074007,新規,0,2021-09-22,2021-09-22,株式会社司創建,,株式会社,神奈川県,海老名市,柏ケ谷６００番地の５（１－５０８）,,14,215,2430402,,,,,,,2021-09-22,1,,,,,ツカサソウケン,0
2303,9021001074015,新規,0,2021-09-22,2021-09-22,株式会社クリーンたっち,,株式会社,神奈川県,海老名市,杉久保北３丁目８－１２,,14,215,2430410,,,,,,,2021-09-22,1,,,,,クリーンタッチ,0
2307,9021003010918,新規,0,2021-09-22,2021-09-22,合同会社ＥＸＳＡＩＬ,,合同会社,神奈川県,横須賀市,船越町４丁目２３番地２,,14,201,2370076,,,,,,,2021-09-22,1,,,,,エクセイル,0
2315,9030001144405,新規,0,2021-09-22,2021-09-22,株式会社マオイズムブライダル,,株式会社,埼玉県,草加市,栄町３丁目１番１４号,,11,221,3400011,,,,,,,2021-09-22,1,,,,,マオイズムブライダル,0
2316,9030001144421,新規,0,2021-09-22,2021-09-22,株式会社ラフター,,株式会社,埼玉県,草加市,吉町５丁目３番３８－２号,,11,221,3400017,,,,,,,2021-09-22,1,,,,,ラフター,0
2317,9030001144446,新規,0,2021-09-22,2021-09-22,株式会社Ｋ２,,株式会社,埼玉県,川口市,元郷２丁目１５番１号－４２０１,,11,203,3320011,,,,,,,2021-09-22,1,,,,,ケーツー,0
2318,9030001144470,新規,0,2021-09-22,2021-09-22,Ｋ’ｓ　ｂｕｉｌｄ株式会社,,株式会社,埼玉県,三郷市,彦倉１丁目６１番地５,,11,237,3410053,,,,,,,2021-09-22,1,,,,,ケーズビルド,0
2327,9030003017971,新規,0,2021-09-22,2021-09-22,合同会社永錦,,合同会社,埼玉県,戸田市,喜沢１丁目１５番地の１８,,11,224,3350013,,,,,,,2021-09-22,1,,,,,ナガニシキ,0
2329,9040001120272,新規,0,2021-09-22,2021-09-22,ケーウエストフード株式会社,,株式会社,千葉県,柏市,豊四季２２９－２,,12,217,2770863,,,,,,,2021-09-22,1,,,,,ケーウエストフード,0
2330,9040001120280,新規,0,2021-09-22,2021-09-22,株式会社怡和コーポレーション,,株式会社,千葉県,市川市,曽谷８丁目１５－１３,,12,203,2720832,,,,,,,2021-09-22,1,,,,,イワコーポレーション,0
2334,9050001049866,新規,0,2021-09-22,2021-09-22,株式会社稼,,株式会社,茨城県,取手市,野々井１４４７番地２,,08,217,3020032,,,,,,,2021-09-22,1,,,,,ミノリ,0
2336,9050003006089,新規,0,2021-09-22,2021-09-22,合同会社ＳＡＮＳＵ　ＥＮＴＥＲＰＲＩＳＥＳ,,合同会社,茨城県,古河市,幸町１４－１Ａ１０２,,08,204,3060024,,,,,,,2021-09-22,1,,,,,サンスエンタープライス,0
2346,9070001038454,新規,0,2021-09-22,2021-09-22,株式会社Ｕ－ＤＥＮＫＩ,,株式会社,群馬県,桐生市,新里町大久保５５７番地５,,10,203,3760133,,,,,,,2021-09-22,1,,,,,ユーデンキ,0
2356,9100001034623,新規,0,2021-09-22,2021-09-22,株式会社Ｃｏｃｃｏｌｅ,,株式会社,長野県,塩尻市,大字宗賀７１番地７４７,,20,215,3996461,,,,,,,2021-09-22,1,,,,,コッコレ,0
2359,9110001036057,新規,0,2021-09-22,2021-09-22,株式会社ｍｉｌｅｓｔｏｎｅ,,株式会社,新潟県,三条市,神明町３－７,,15,204,9550063,,,,,,,2021-09-22,1,,,,,マイルストーン,0
2380,9120001240509,新規,0,2021-09-22,2021-09-22,株式会社ネクストライフステージ,,株式会社,大阪府,大阪市平野区,長吉長原西３丁目３番１３号,,27,126,5470015,,,,,,,2021-09-22,1,,,,,ネクストライフステージ,0
2381,9120001240558,新規,0,2021-09-22,2021-09-22,恒業株式会社,,株式会社,大阪府,大阪市中央区,徳井町２丁目１－１５第二共栄ビル５０２号室,,27,128,5400025,,,,,,,2021-09-22,1,,,,,コウギョウ,0
2382,9120001240582,新規,0,2021-09-22,2021-09-22,佳宜株式会社,,株式会社,大阪府,大阪市北区,天満２丁目１－１２天満橋ＳＥビル４階,,27,127,5300043,,,,,,,2021-09-22,1,,,,,カイ,0
2384,9120101064329,新規,0,2021-09-22,2021-09-22,ジープラス株式会社,,株式会社,大阪府,堺市堺区,竜神橋町２丁３番１号ステュディオ堺フェニックス９０２,,27,141,5900972,,,,,,,2021-09-22,1,,,,,ジープラス,0
2386,9120103004349,新規,0,2021-09-22,2021-09-22,合同会社ミライズ投資研究所,,合同会社,大阪府,堺市西区,浜寺石津町東５丁５番１７－１０１号,,27,144,5928335,,,,,,,2021-09-22,1,,,,,ミライズトウシケンキュウジョ,0
2391,9130001070137,新規,0,2021-09-22,2021-09-22,龍導運輸株式会社,,株式会社,京都府,木津川市,山城町平尾上垣内１０番地,,26,214,6190202,,,,,,,2021-09-22,1,,,,,リュウドウウンユ,0
2397,9140001123091,新規,0,2021-09-22,2021-09-22,株式会社これなんで商会,,株式会社,兵庫県,西宮市,西田町１番５号,,28,204,6620034,,,,,,,2021-09-22,1,,,,,コレナンデショウカイ,0
2400,9140003016756,新規,0,2021-09-22,2021-09-22,アースプロテクションズ合同会社,,合同会社,兵庫県,宍粟市,一宮町伊和６１５番２号,,28,227,6714134,,,,,,,2021-09-22,1,,,,,アースプロテクションズ,0
2403,9150001024933,新規,0,2021-09-22,2021-09-22,株式会社中村企画,,株式会社,奈良県,天理市,中町３３８番地,,29,204,6320097,,,,,,,2021-09-22,1,,,,,ナカムラキカク,0
2405,9160003002382,新規,0,2021-09-22,2021-09-22,合同会社ダンデライオン滋賀,,合同会社,滋賀県,彦根市,三津町６６４,,25,202,5211122,,,,,,,2021-09-22,1,,,,,ダンデライオンシガ,0
2414,9180001147896,新規,0,2021-09-22,2021-09-22,株式会社ライジン,,株式会社,愛知県,名古屋市中川区,西日置町９丁目１２１番地の３,,23,110,4540005,,,,,,,2021-09-22,1,,,,,ライジン,0
2422,9190003003766,新規,0,2021-09-22,2021-09-22,ＴＡＫＴＡＫ合同会社,,合同会社,三重県,伊勢市,吹上２丁目９番３３号丸二マンション１－５１０,,24,203,5160073,,,,,,,2021-09-22,1,,,,,タクタク,0
2423,9190005011619,新規,0,2021-09-22,2021-09-22,特定非営利活動法人そらと風,,その他の設立登記法人,三重県,桑名市,多度町小山２６２９番地１（９街区１３）,,24,205,5110105,,,,,,,2021-09-22,1,,,,,ソラトカゼ,0
2430,9230001018992,新規,0,2021-09-22,2021-09-22,三和インフォメーションビーエムエス株式会社,,株式会社,富山県,富山市,経堂新町２番地２１,,16,201,9300956,,,,,,,2021-09-22,1,,,,,サンワインフォメーションビーエムエス,0
2439,9240001058625,新規,0,2021-09-22,2021-09-22,株式会社馬上酒造,,株式会社,広島県,安芸郡熊野町,城之堀２丁目５番１６号,,34,307,7314215,,,,,,,2021-09-22,1,,,,,バジョウシュゾウ,0
2448,9270003001349,新規,0,2021-09-22,2021-09-22,合同会社Ｌｉｅｎ,,合同会社,鳥取県,米子市,両三柳５４３６番地２,,31,202,6830853,,,,,,,2021-09-22,1,,,,,リアン,0
2454,9290001094715,新規,0,2021-09-22,2021-09-22,株式会社デンタルアーキデザイン,,株式会社,福岡県,福岡市博多区,博多駅中央街８番１号ＪＲＪＰ博多ビル３階,,40,132,8120012,,,,,,,2021-09-22,1,,,,,デンタルアーキデザイン,0
2462,9290801027808,新規,0,2021-09-22,2021-09-22,株式会社ＭＥＡＴ５,,株式会社,福岡県,北九州市八幡西区,楠橋西２丁目１４番１２－２Ｆ,,40,109,8071145,,,,,,,2021-09-22,1,,,,,ミートファイブ,0
2465,9310005008544,新規,0,2021-09-22,2021-09-22,一般社団法人ＭＹＮ,,その他の設立登記法人,長崎県,長崎市,新小が倉１丁目８番３号,,42,201,8500962,,,,,,,2021-09-22,1,,,,,エムワイエヌ,0
2467,9320001018612,新規,0,2021-09-22,2021-09-22,株式会社渡辺電設,,株式会社,大分県,宇佐市,大字芝原３１２番地,,44,211,8790457,,,,,,,2021-09-22,1,,,,,ワタナベデンセツ,0
2473,9340001024105,新規,0,2021-09-22,2021-09-22,ａｌｃｈｅｍｙ株式会社,,株式会社,鹿児島県,鹿児島市,犬迫町５９１１番地１,,46,201,8911205,,,,,,,2021-09-22,1,,,,,アルケミー,0
2488,9430001084998,新規,0,2021-09-22,2021-09-22,株式会社Ｒｅ’ｃｏｌｄｏ,,株式会社,北海道,札幌市中央区,北二条東２丁目１番地４ライオンズ札幌中央レガシア８０６号,,01,101,0600032,,,,,,,2021-09-22,1,,,,,リコルド,0
2489,9430001085006,新規,0,2021-09-22,2021-09-22,株式会社ＡＩＬＥ,,株式会社,北海道,札幌市豊平区,豊平四条１０丁目３番１８－１０３号,,01,105,0620904,,,,,,,2021-09-22,1,,,,,エル,0
2494,9430003013162,新規,0,2021-09-22,2021-09-22,合同会社ＴＮＫ,,合同会社,北海道,札幌市東区,中沼五条２丁目４番６号,,01,103,0070005,,,,,,,2021-09-22,1,,,,,ティーエヌケー,0
2495,9430003013170,新規,0,2021-09-22,2021-09-22,合同会社ｓｃａｌｅ,,合同会社,北海道,札幌市厚別区,上野幌三条５丁目１番１－８０４号,,01,108,0040033,,,,,,,2021-09-22,1,,,,,スケール,0
2503,9470001018721,新規,0,2021-09-22,2021-09-22,株式会社Ｃｈｉｚｕ,,株式会社,香川県,丸亀市,綾歌町富熊９８７番地１,,37,202,7612407,,,,,,,2021-09-22,1,,,,,チズ,0
2504,9470003002038,新規,0,2021-09-22,2021-09-22,合同会社ＨＡＲＥ,,合同会社,香川県,高松市,藤塚町１丁目１０番３０号,,37,201,7600071,,,,,,,2021-09-22,1,,,,,ハレ,0
