sequenceNumber,corporateNumber,process,correct,updateDate,changeDate,name,nameImageId,kind,prefectureName,cityName,streetNumber,addressImageId,prefectureCode,cityCode,postCode,addressOutside,addressOutsideImageId,closeDate,closeCause,successorCorporateNumber,changeCause,assignmentDate,latest,enName,enPrefectureName,enCityName,enAddressOutside,furigana,hihyoji
20,1010002025514,登記記録の閉鎖等,0,2021-10-11,2021-10-01,有限会社みずほ,,有限会社,東京都,中央区,日本橋３丁目６番１３号,,13,102,1030027,,,2021-10-01,合併による解散等,4010001057142,令和３年１０月１日東京都中央区日本橋三丁目６番１３号株式会社すし鉄（4010001057142）に合併し解散,2015-10-05,1,,,,,ミズホ,0
43,1010502004884,登記記録の閉鎖等,0,2021-10-11,2021-10-01,有限会社サロンドウヘアレーヌ,,有限会社,東京都,台東区,雷門１丁目２番７号オガタビル,,13,106,1110034,,,2021-10-01,清算の結了等,,,2015-10-05,1,,,,,サロンドウヘアレーヌ,0
45,1010502005783,登記記録の閉鎖等,0,2021-10-11,2021-10-01,有限会社スリーライン,,有限会社,東京都,台東区,三筋１丁目４番１２号,,13,106,1110055,,,2021-10-01,合併による解散等,5010501013767,令和３年１０月１日東京都台東区三筋一丁目４番１２号株式会社三筋（5010501013767）に合併し解散,2015-10-05,1,,,,,スリーライン,0
49,1010801013256,登記記録の閉鎖等,0,2021-10-11,2021-10-01,株式会社ニュートン,,株式会社,東京都,大田区,蒲田５丁目２７番１０号,,13,111,1440052,,,2021-10-01,合併による解散等,3010801006233,令和３年１０月１日東京都大田区南蒲田二丁目１６番１号株式会社マイナビＥｄｇｅ（3010801006233）に合併し解散,2015-10-05,1,,,,,ニュートン,0
72,1011001126625,登記記録の閉鎖等,0,2021-10-11,2021-09-21,株式会社スターエデュ,,株式会社,東京都,渋谷区,代々木１丁目１２番８号,,13,113,1510053,,,2021-09-21,清算の結了等,,,2019-02-19,1,,,,,スターエデュ,0
94,1011701006069,登記記録の閉鎖等,0,2021-10-11,2021-10-05,エス・エス運輸株式会社,,株式会社,東京都,江戸川区,西瑞江４丁目１５番地,,13,123,1340015,,,2021-10-05,清算の結了等,,,2015-10-05,1,,,,,エスエスウンユ,0
100,1012802000836,登記記録の閉鎖等,0,2021-10-11,2021-10-04,有限会社孝養,,有限会社,東京都,立川市,柴崎町１丁目６番１号,,13,202,1900023,,,2021-10-04,清算の結了等,,,2015-10-05,1,,,,,コウヨウ,0
105,1013202006671,登記記録の閉鎖等,0,2021-10-11,2021-09-24,有限会社友電工業,,有限会社,東京都,目黒区,柿の木坂２丁目１３番１３号,,13,110,1520022,,,2021-09-24,清算の結了等,,,2015-10-05,1,,,,,ユウデンコウギョウ,0
135,1030005003127,登記記録の閉鎖等,0,2021-10-11,2021-09-29,戸田市商業協同組合,,その他の設立登記法人,埼玉県,戸田市,上戸田１丁目２１番２３号,,11,224,3350022,,,2021-09-29,清算の結了等,,,2015-10-05,1,,,,,トダシショウギョウ,0
137,1040001033226,登記記録の閉鎖等,0,2021-10-11,2021-10-01,株式会社太陽地所,,株式会社,千葉県,市川市,南大野２丁目１７番９号,,12,203,2720804,,,2021-10-01,清算の結了等,,,2015-10-05,1,,,,,タイヨウジショ,0
141,1040001071639,登記記録の閉鎖等,0,2021-10-11,2021-10-07,三昌株式会社,,株式会社,東京都,葛飾区,四つ木４丁目１８番１１号,,13,122,1240011,,,2021-10-07,清算の結了等,,,2015-10-05,1,,,,,サンショウ,0
166,1070002032991,登記記録の閉鎖等,0,2021-10-11,2021-10-07,有限会社荒善工房,,有限会社,群馬県,館林市,仲町９番１号,,10,207,3740029,,,2021-10-07,清算の結了等,,,2015-10-05,1,,,,,アラゼンコウボウ,0
169,1080001014643,登記記録の閉鎖等,0,2021-10-11,2021-10-01,株式会社いかり寿し,,株式会社,静岡県,焼津市,本町１丁目６番１１号,,22,212,4250022,,,2021-10-01,合併による解散等,6080001015083,令和３年１０月１日静岡県焼津市本町一丁目６番１１号中村水産株式会社（6080001015083）に合併し解散,2015-10-05,1,,,,,イカリズシ,0
176,1080402013871,登記記録の閉鎖等,0,2021-10-11,2021-10-08,有限会社にじ,,有限会社,静岡県,浜松市東区,中田町６４２番地の４,,22,132,4350057,,,2021-10-08,清算の結了等,,,2015-10-05,1,,,,,ニジ,0
177,1080405006253,登記記録の閉鎖等,0,2021-10-11,2021-10-04,一般社団法人Ｋ’ｓカッサ美養研究会,,その他の設立登記法人,静岡県,磐田市,国府台６１－５,,22,211,4380077,,,2021-10-04,清算の結了等,,,2015-10-05,1,,,,,ケーズカッサビヨウケンキュウカイ,0
185,1100001029597,登記記録の閉鎖等,0,2021-10-11,2021-10-05,株式会社三洋,,株式会社,長野県,上田市,別所温泉１８８０番地１,,20,203,3861431,,,2021-10-05,清算の結了等,,,2016-09-02,1,,,,,サンヨウ,0
192,1110002025470,登記記録の閉鎖等,0,2021-10-11,2021-10-04,有限会社川崎商会,,有限会社,新潟県,十日町市,本町５丁目３０３番地３,,15,210,9480081,,,2021-10-04,清算の結了等,,,2015-10-05,1,,,,,カワサキショウカイ,0
218,1120101045427,登記記録の閉鎖等,0,2021-10-11,2021-10-01,株式会社　Ｏ．Ａ．Ｃ,,株式会社,大阪府,泉佐野市,中町２丁目３番２２号,,27,213,5980013,,,2021-10-01,清算の結了等,,,2015-10-05,1,,,,,オーエーシー,0
219,1120101059146,登記記録の閉鎖等,0,2021-10-11,2021-10-04,ＴＫビジネスファーム株式会社,,株式会社,大阪府,貝塚市,二色南町８番１,,27,208,5970094,,,2021-10-04,清算の結了等,,,2018-12-11,1,,,,,ティーケービジネスファーム,0
223,1122001013843,登記記録の閉鎖等,0,2021-10-11,2021-10-07,樋田鋼材株式会社,,株式会社,大阪府,東大阪市,川俣１丁目９番２７号,,27,227,5770063,,,2021-10-07,清算の結了等,,,2015-10-05,1,,,,,ヒダコウザイ,0
228,1130001056829,登記記録の閉鎖等,0,2021-10-11,2021-10-07,株式会社八百起Ｓｏｌａｃｅ,,株式会社,京都府,亀岡市,下矢田町東法楽寺５５番地１７,,26,206,6210854,,,2021-10-07,清算の結了等,,,2016-02-09,1,,,,,,0
237,1140001082832,登記記録の閉鎖等,0,2021-10-11,2021-10-05,株式会社ＳＹ,,株式会社,大阪府,豊中市,新千里北町１丁目７番３号,,27,203,5600081,,,2021-10-05,清算の結了等,,,2015-10-05,1,,,,,エスワイ,0
244,1140002011559,登記記録の閉鎖等,0,2021-10-11,2021-10-04,有限会社正和,,有限会社,兵庫県,神戸市北区,星和台４丁目７番地の４,,28,109,6511121,,,2021-10-04,清算の結了等,,,2015-10-05,1,,,,,ショウワ,0
265,1180302019447,登記記録の閉鎖等,0,2021-10-11,2021-10-06,有限会社すずかん産業,,有限会社,愛知県,知立市,山屋敷町富士塚２４番地１０,,23,225,4720022,,,2021-10-06,清算の結了等,,,2015-10-05,1,,,,,スズカンサンギョウ,0
266,1180302022574,登記記録の閉鎖等,0,2021-10-11,2021-10-05,有限会社大和住宅,,有限会社,愛知県,豊田市,挙母町１丁目６６番地,,23,211,4710023,,,2021-10-05,清算の結了等,,,2015-10-05,1,,,,,ダイワジュウタク,0
293,1260002016208,登記記録の閉鎖等,0,2021-10-11,2021-10-08,有限会社アスカホーム,,有限会社,岡山県,倉敷市,水島西弥生町８番３号,,33,202,7128036,,,2021-10-08,清算の結了等,,,2015-10-05,1,,,,,アスカホーム,0
308,1290005016961,登記記録の閉鎖等,0,2021-10-11,2021-10-05,特定非営利活動法人ＡＬＦＥＥ,,その他の設立登記法人,福岡県,糟屋郡志免町,東公園台２丁目５番２号,,40,343,8112241,,,2021-10-05,清算の結了等,,,2018-08-16,1,,,,,アルフィー,0
315,1310002002284,登記記録の閉鎖等,0,2021-10-11,2021-10-07,有限会社新星電工,,有限会社,長崎県,長崎市,大手２丁目３１番２４号,,42,201,8528127,,,2021-10-07,清算の結了等,,,2015-10-05,1,,,,,シンセイデンコウ,0
320,1320002016969,登記記録の閉鎖等,0,2021-10-11,2021-10-07,有限会社田中薬局,,有限会社,大分県,佐伯市,駅前２丁目５番１０号,,44,205,8760803,,,2021-10-07,合併による解散等,6350002007003,令和３年１０月１日宮崎市高岡町花見９４４番地４株式会社サニープレイス（6350002007003）に合併し解散,2015-10-05,1,,,,,タナカヤッキョク,0
327,1340002013881,登記記録の閉鎖等,0,2021-10-11,2021-10-01,有限会社ティ・ディ・ワークス,,有限会社,鹿児島県,霧島市,隼人町松永１９７７番地５,,46,218,8995112,,,2021-10-01,清算の結了等,,,2015-10-05,1,,,,,ティディワークス,0
332,1360001015076,登記記録の閉鎖等,0,2021-10-11,2021-10-01,株式会社共栄自動車,,株式会社,沖縄県,糸満市,字潮平７９４番地２,,47,210,9010302,,,2021-10-01,合併による解散等,7360002012182,令和３年１０月１日沖縄県沖縄市字登川２３９８番地株式会社西自動車商会（7360002012182）に合併し解散,2015-10-05,1,,,,,キョウエイジドウシャ,0
339,1370002001306,登記記録の閉鎖等,0,2021-10-11,2021-09-30,有限会社テクノグリーン,,有限会社,宮城県,仙台市泉区,館３丁目４９番地の４号,,04,105,9813214,,,2021-09-30,清算の結了等,,,2015-10-05,1,,,,,テクノグリーン,0
341,1380001004713,登記記録の閉鎖等,0,2021-10-11,2021-10-04,株式会社エリート店舗センター,,株式会社,福島県,郡山市,中町１１番１０号,,07,203,9638004,,,2021-10-04,合併による解散等,4380001004710,令和３年１０月１日福島県郡山市中町１１番１０号エリート株式会社（4380001004710）に合併し解散,2015-10-05,1,,,,,エリートテンポセンター,0
363,1480001000842,登記記録の閉鎖等,0,2021-10-11,2021-10-01,四国通信機販売株式会社,,株式会社,徳島県,徳島市,北沖洲２丁目９番２７号,,36,201,7700872,,,2021-10-01,合併による解散等,7480001001348,令和３年１０月１日徳島県徳島市北沖洲二丁目９番２７号株式会社テレパス四国（7480001001348）に合併し解散,2015-10-05,1,,,,,シコクツウシンキハンバイ,0
370,2010001015176,登記記録の閉鎖等,0,2021-10-11,2021-10-01,株式会社クリエ,,株式会社,東京都,千代田区,神田三崎町３丁目６番２号,,13,101,1010061,,,2021-10-01,清算の結了等,,,2015-10-05,1,,,,,クリエ,0
371,2010001037022,登記記録の閉鎖等,0,2021-10-11,2021-10-01,株式会社Ｊ－ＰＯＷＥＲリソーシズ,,株式会社,東京都,中央区,築地４丁目４番１２号,,13,102,1040045,,,2021-10-01,合併による解散等,6010601030083,令和３年１０月１日東京都中央区築地四丁目６番４号株式会社Ｊ－ＰＯＷＥＲビジネスサービス（6010601030083）に合併し解散,2015-10-05,1,,,,,ジェイパワーリソーシズ,0
379,2010002039653,登記記録の閉鎖等,0,2021-10-11,2021-10-01,有限会社三鬼開発,,有限会社,東京都,港区,赤坂１丁目５番１４号,,13,103,1070052,,,2021-10-01,清算の結了等,,,2015-10-05,1,,,,,ミキカイハツ,0
403,2010701021069,登記記録の閉鎖等,0,2021-10-11,2021-10-06,株式会社ｅ－フラット,,株式会社,東京都,品川区,南大井５丁目１５番１－８０４号,,13,109,1400013,,,2021-10-06,清算の結了等,,,2015-10-05,1,,,,,イーフラット,0
407,2010801024104,登記記録の閉鎖等,0,2021-10-11,2021-10-04,株式会社ＶＩＮＯ,,株式会社,東京都,大田区,山王１丁目２６番２６号,,13,111,1430023,,,2021-10-04,合併による解散等,1010801028650,令和３年１０月１日東京都大田区山王一丁目２６番２６号株式会社辰吉（1010801028650）に合併し解散,2015-10-05,1,,,,,ビィーノ,0
420,2011002007947,登記記録の閉鎖等,0,2021-10-11,2021-09-22,有限会社チエントロ,,有限会社,東京都,渋谷区,神宮前３丁目３８番１２号パズル青山Ｂ１Ｆ,,13,113,1500001,,,2021-09-22,清算の結了等,,,2015-10-05,1,,,,,チエントロ,0
427,2011201018522,登記記録の閉鎖等,0,2021-10-11,2021-10-04,株式会社アサカヤホールディングス,,株式会社,東京都,中野区,野方４丁目２０番３号,,13,114,1650027,,,2021-10-04,清算の結了等,,,2015-10-05,1,,,,,アサカヤホールディングス,0
437,2011802009003,登記記録の閉鎖等,0,2021-10-11,2021-10-07,有限会社アクセス,,有限会社,東京都,足立区,大谷田５丁目３番１１号２０３,,13,121,1200001,,,2021-10-07,清算の結了等,,,2015-10-05,1,,,,,アクセス,0
464,2020002066960,登記記録の閉鎖等,0,2021-10-11,2021-10-05,有限会社穂葉,,有限会社,神奈川県,横浜市磯子区,磯子２丁目７番３５号,,14,107,2350016,,,2021-10-05,清算の結了等,,,2015-10-05,1,,,,,スイハ,0
465,2020003014167,登記記録の閉鎖等,0,2021-10-11,2021-10-05,合同会社ＰＡＲＡＭＩＴＡ,,合同会社,神奈川県,横浜市青葉区,もみの木台１７番地７メゾンＴＳ３０１,,14,117,2250026,,,2021-10-05,清算の結了等,,,2018-04-11,1,,,,,パラミタ,0
491,2040001023564,登記記録の閉鎖等,0,2021-10-11,2021-10-04,株式会社アニーズ,,株式会社,千葉県,船橋市,習志野４丁目２番４号,,12,204,2740071,,,2021-10-04,清算の結了等,,,2015-10-05,1,,,,,アニーズ,0
492,2040001042606,登記記録の閉鎖等,0,2021-10-11,2021-10-01,株式会社武蔵５１３,,株式会社,千葉県,市川市,福栄１丁目３番１８号,,12,203,2720137,,,2021-10-01,合併による解散等,1040001089524,令和３年１０月１日千葉県市川市福栄一丁目３番１８号株式会社松崎（1040001089524）に合併し解散,2015-10-05,1,,,,,ムサシゴーイチサン,0
493,2040001047704,登記記録の閉鎖等,0,2021-10-11,2021-10-01,株式会社東関流通,,株式会社,千葉県,八街市,八街は１０５番地１８９,,12,230,2891107,,,2021-10-01,清算の結了等,,,2015-10-05,1,,,,,トウカンリュウツウ,0
502,2040002057818,登記記録の閉鎖等,0,2021-10-11,2021-09-30,有限会社福治,,有限会社,千葉県,白井市,平塚１６０２番地の１,,12,232,2701402,,,2021-09-30,清算の結了等,,,2015-10-05,1,,,,,フクハル,0
519,2070002015161,登記記録の閉鎖等,0,2021-10-11,2021-10-06,有限会社ミツヤ洋服店,,有限会社,群馬県,安中市,松井田町松井田５６８番地,,10,211,3790222,,,2021-10-06,清算の結了等,,,2015-10-05,1,,,,,ミツヤヨウフクテン,0
520,2070002017513,登記記録の閉鎖等,0,2021-10-11,2021-10-06,有限会社シンメイ電子,,有限会社,群馬県,藤岡市,中栗須６３５番地,,10,209,3750015,,,2021-10-06,清算の結了等,,,2015-10-05,1,,,,,シンメイデンシ,0
525,2080101008651,登記記録の閉鎖等,0,2021-10-11,2021-09-30,ジエイシーエス株式会社,,株式会社,静岡県,富士市,本町１５番５号,,22,210,4160914,,,2021-09-30,清算の結了等,,,2015-10-05,1,,,,,ジェイシーエス,0
534,2100005008869,登記記録の閉鎖等,0,2021-10-11,2021-10-05,医療法人樋代内科医院,00070112,その他の設立登記法人,長野県,伊那市,坂下１８９４番地,,20,209,3960024,,,2021-10-05,清算の結了等,,,2015-10-05,1,,,,,ヒダイナイカイイン,0
543,2120001084227,登記記録の閉鎖等,0,2021-10-11,2021-10-04,株式会社田村商会,,株式会社,大阪府,大阪市中央区,（大阪市東区森ノ宮中央一丁目９番２５号）,,27,128,5390000,,,2021-10-04,清算の結了等,,,2015-10-05,1,,,,,タムラショウカイ,1
547,2120001219476,登記記録の閉鎖等,0,2021-10-11,2021-10-05,ティーケープランニング株式会社,,株式会社,大阪府,大阪市中央区,安土町１丁目７番１３号トヤマビル８階,,27,128,5410052,,,2021-10-05,合併による解散等,9180001037916,令和３年１０月１日名古屋市千種区千種通七丁目２５－１サンライズ千種８Ａ谷健株式会社（9180001037916）に合併し解散,2019-03-08,1,,,,,,0
558,2120103004173,登記記録の閉鎖等,0,2021-10-11,2021-10-05,タック合同会社,,合同会社,大阪府,富田林市,津々山台１丁目５番８号,,27,214,5840086,,,2021-10-05,清算の結了等,,,2021-05-24,1,,,,,タック,0
566,2130001043512,登記記録の閉鎖等,0,2021-10-11,2021-10-06,株式会社太陽堂,,株式会社,京都府,舞鶴市,字福来１１１１番２,,26,202,6240905,,,2021-10-06,合併による解散等,6200001014428,令和３年１０月１日岐阜県大垣市林町十丁目１３３９番地１株式会社ユタカファーマシー（6200001014428）に合併し解散,2015-10-05,1,,,,,タイヨウドウ,0
573,2140001070282,登記記録の閉鎖等,0,2021-10-11,2021-10-04,株式会社ペップ,,株式会社,兵庫県,西宮市,甲子園口３丁目２２番２０号ネオ．ダイキョウ甲子園口２０７号,,28,204,6638113,,,2021-10-04,清算の結了等,,,2021-04-16,1,,,,,ペップ,0
582,2140002019774,登記記録の閉鎖等,0,2021-10-11,2021-10-01,有限会社テック,,有限会社,兵庫県,神戸市兵庫区,今出在家町１丁目２番４号,,28,105,6520853,,,2021-10-01,合併による解散等,6140001013519,令和３年１０月１日神戸市兵庫区今出在家町一丁目２番４号竹内マネージメント株式会社（6140001013519）に合併し解散,2015-10-05,1,,,,,テック,0
589,2150001006525,登記記録の閉鎖等,0,2021-10-11,2021-10-05,株式会社新宅家具,,株式会社,奈良県,天理市,別所町１９番地,,29,204,6320018,,,2021-10-05,清算の結了等,,,2015-10-05,1,,,,,シンタクカグ,0
603,2180001143555,登記記録の閉鎖等,0,2021-10-11,2021-10-01,株式会社ティ・エス・ケー,,株式会社,愛知県,名古屋市中区,栄５丁目１番２３号－６０５,,23,106,4600008,,,2021-10-01,清算の結了等,,,2020-11-13,1,,,,,ティエスケー,0
609,2180301005273,登記記録の閉鎖等,0,2021-10-11,2021-10-05,大林製パン株式会社,,株式会社,愛知県,豊橋市,高師町字西沢８０番地,,23,201,4418156,,,2021-10-05,清算の結了等,,,2015-10-05,1,,,,,オオバヤシセイパン,0
613,2190001024151,登記記録の閉鎖等,0,2021-10-11,2021-10-07,株式会社菱川,,株式会社,三重県,津市,東丸之内３３番１号,,24,201,5140028,,,2021-10-07,合併による解散等,7180001031391,令和３年１０月１日名古屋市中村区名駅四丁目２６番１３号株式会社ちとせ（7180001031391）に合併し解散,2016-11-15,1,,,,,,0
615,2200001012724,登記記録の閉鎖等,0,2021-10-11,2021-10-07,株式会社ＴＢＳ管財,,株式会社,岐阜県,岐阜市,金宝町１丁目６番地,,21,201,5008847,,,2021-10-07,清算の結了等,,,2015-10-05,1,,,,,ティービーエスカンザイ,0
619,2230001009560,登記記録の閉鎖等,0,2021-10-11,2021-10-01,株式会社クリア,,株式会社,富山県,黒部市,堀高４０番地８,,16,207,9380023,,,2021-10-01,合併による解散等,4230001006242,令和３年１０月１日富山市根塚町一丁目４番地１４株式会社マジェンタ（4230001006242）に合併し解散,2015-10-05,1,,,,,クリア,0
620,2230001018578,登記記録の閉鎖等,0,2021-10-11,2021-09-30,株式会社ＡＬＴＧ,,株式会社,富山県,富山市,中冨居新町３番１２号,,16,201,9300830,,,2021-09-30,合併による解散等,5230001000376,令和３年９月３０日富山市中冨居新町３番１２号株式会社エクト（5230001000376）に合併し解散,2020-12-10,1,,,,,エィエルティジー,0
640,2290001031534,登記記録の閉鎖等,0,2021-10-11,2021-09-30,株式会社ＫＡＪＳＡ,,株式会社,福岡県,福岡市東区,みどりが丘１丁目３番４号,,40,131,8130021,,,2021-09-30,合併による解散等,8290002029852,令和３年９月３０日福岡市東区香椎照葉三丁目３番１－３４０１号株式会社彩（8290002029852）に合併し解散,2015-10-05,1,,,,,カーサ,0
646,2290002007252,登記記録の閉鎖等,0,2021-10-11,2021-09-27,有限会社プラムハウスコーポレション,,有限会社,福岡県,福岡市中央区,赤坂１丁目６－１１赤坂コートビル１Ｆ,,40,133,8100042,,,2021-09-27,清算の結了等,,,2015-10-05,1,,,,,プラムハウスコーポレション,0
647,2290002049534,登記記録の閉鎖等,0,2021-10-11,2021-10-01,有限会社天神調剤薬局,,有限会社,福岡県,久留米市,東町３１番地２４下川ビル１０１号,,40,203,8300032,,,2021-10-01,合併による解散等,6290002025853,令和３年１０月１日福岡県柳川市矢加部２２９番地１株式会社アリタス（6290002025853）に合併し解散,2015-10-05,1,,,,,テンジンチョウザイヤッキョク,0
652,2310001013595,登記記録の閉鎖等,0,2021-10-11,2021-10-04,株式会社玉梅堂,,株式会社,長崎県,長崎市,新地町１３番１６号,,42,201,8500842,,,2021-10-04,合併による解散等,5310001000558,令和３年１０月１日長崎市新地町１２番２号株式会社江山楼（5310001000558）に合併し解散,2015-10-05,1,,,,,ギョクバイドウ,0
665,2360002001537,登記記録の閉鎖等,0,2021-10-11,2021-10-04,有限会社グランダム,,有限会社,沖縄県,那覇市,小禄１丁目５番２３号１丁目マンション３０１,,47,201,9010152,,,2021-10-04,清算の結了等,,,2015-10-05,1,,,,,グランダム,0
667,2370001005232,登記記録の閉鎖等,0,2021-10-11,2021-09-30,株式会社システムサービス仙台,,株式会社,宮城県,仙台市宮城野区,岩切字洞ノ口東３１番地の１,,04,102,9830821,,,2021-09-30,清算の結了等,,,2015-10-05,1,,,,,システムサービスセンダイ,0
677,2420002017221,登記記録の閉鎖等,0,2021-10-11,2021-10-06,有限会社ながや運輸,,有限会社,青森県,上北郡六戸町,金矢１丁目５番地の１,,02,405,0330073,,,2021-10-06,清算の結了等,,,2015-10-05,1,,,,,ナガヤウンユ,0
678,2430001004310,登記記録の閉鎖等,0,2021-10-11,2021-10-05,株式会社貴洲屋,,株式会社,北海道,札幌市中央区,北三条西１２丁目２番地１,,01,101,0600003,,,2021-10-05,清算の結了等,,,2015-10-05,1,,,,,キシュウヤ,0
702,3010003028101,登記記録の閉鎖等,0,2021-10-11,2021-10-01,ＥＳＲ守谷合同会社,,合同会社,東京都,中央区,日本橋１丁目４番１号日本橋一丁目ビルディング,,13,102,1030027,,,2021-10-01,清算の結了等,,,2018-08-15,1,,,,,イーエスアールモリヤ,0
706,3010401077773,登記記録の閉鎖等,0,2021-10-11,2021-10-01,株式会社トリスタ,,株式会社,東京都,中央区,銀座４丁目１２番１５号,,13,102,1040061,,,2021-10-01,合併による解散等,1010001096746,令和３年１０月１日東京都千代田区富士見二丁目１３番３号株式会社ブックウォーカー（1010001096746）に合併し解散,2015-10-05,1,,,,,トリスタ,0
716,3010501007993,登記記録の閉鎖等,0,2021-10-11,2021-10-01,株式会社中和メンテナンス,,株式会社,東京都,台東区,台東１丁目１番１４号,,13,106,1100016,,,2021-10-01,合併による解散等,4010501007992,令和３年１０月１日東京都台東区台東一丁目１番１４号中和産業株式会社（4010501007992）に合併し解散,2015-10-05,1,,,,,チュウワメンテナンス,0
718,3010601031522,登記記録の閉鎖等,0,2021-10-11,2021-10-07,西明株式会社,,株式会社,東京都,墨田区,両国２丁目２番５号,,13,107,1300026,,,2021-10-07,合併による解散等,2120001100405,令和３年１０月１日大阪市中央区北久宝寺町四丁目３番５号ダイワボウアドバンス株式会社（2120001100405）に合併し解散,2015-10-05,1,,,,,ニシアキ,0
722,3010801009153,登記記録の閉鎖等,0,2021-10-11,2021-10-04,日東メンテオール株式会社,,株式会社,神奈川県,川崎市高津区,下作延３丁目１３番１９－２号,,14,134,2130033,,,2021-10-04,清算の結了等,,,2015-10-05,1,,,,,ニットウメンテオール,0
738,3011101090760,登記記録の閉鎖等,0,2021-10-11,2021-10-01,株式会社リ・マーク,,株式会社,東京都,新宿区,西新宿６丁目１５番１号セントラルパークタワー・ラ・トゥール新宿,,13,104,1600023,,,2021-10-01,清算の結了等,,,2020-03-17,1,,,,,リマーク,0
743,3011202005717,登記記録の閉鎖等,0,2021-10-11,2021-10-04,有限会社丸中森商店,,有限会社,東京都,中野区,大和町１丁目６７番１０号,,13,114,1650034,,,2021-10-04,清算の結了等,,,2015-10-05,1,,,,,マルナカモリショウテン,0
755,3011802020925,登記記録の閉鎖等,0,2021-10-11,2021-10-08,泰祥実業有限会社,,有限会社,東京都,葛飾区,白鳥４丁目１番３－４１４号,,13,122,1250063,,,2021-10-08,清算の結了等,,,2015-10-05,1,,,,,タイショウジツギョウ,0
758,3012701010645,登記記録の閉鎖等,0,2021-10-11,2021-10-07,株式会社Ｋｙｕａ　Ｒｕｌｅｚ,,株式会社,東京都,小平市,天神町４丁目２９番３８－９０５号,,13,211,1870004,,,2021-10-07,清算の結了等,,,2015-10-05,1,,,,,,0
762,3012805000492,登記記録の閉鎖等,0,2021-10-11,2021-09-29,特定非営利活動法人労働サポートセンター,,その他の設立登記法人,東京都,立川市,曙町１丁目１０番２号,00059603,13,202,1900012,,,2021-09-29,清算の結了等,,,2015-10-05,1,,,,,,0
779,3020001112418,登記記録の閉鎖等,0,2021-10-11,2021-10-04,株式会社ＭＯ建興,,株式会社,神奈川県,川崎市高津区,上作延１４７番地２９,,14,134,2130034,,,2021-10-04,清算の結了等,,,2015-10-05,1,,,,,エムオーケンコウ,0
788,3020002015140,登記記録の閉鎖等,0,2021-10-11,2021-10-04,有限会社ハイツリー,,有限会社,神奈川県,横浜市青葉区,新石川３丁目３番地２,,14,117,2250003,,,2021-10-04,清算の結了等,,,2015-10-05,1,,,,,ハイツリー,0
801,3021001000942,登記記録の閉鎖等,0,2021-10-11,2021-10-05,湘南トーヨー住器株式会社,,株式会社,神奈川県,藤沢市,土棚６６４番地２,,14,205,2520806,,,2021-10-05,清算の結了等,,,2015-10-05,1,,,,,ショウナントーヨージュウキ,0
803,3021002013290,登記記録の閉鎖等,0,2021-10-11,2021-10-07,有限会社ＫＫインターナショナル,,有限会社,神奈川県,茅ヶ崎市,東海岸南１丁目１６番３１号,,14,207,2530054,,,2021-10-07,清算の結了等,,,2015-10-05,1,,,,,ケーケーインターナショナル,0
804,3021002046175,登記記録の閉鎖等,0,2021-10-11,2021-10-05,有限会社カワヒラ技研,,有限会社,神奈川県,綾瀬市,寺尾釜田１丁目１０番１８号,,14,218,2521135,,,2021-10-05,清算の結了等,,,2015-10-05,1,,,,,カワヒラギケン,0
809,3021003008281,登記記録の閉鎖等,0,2021-10-11,2021-10-06,ＴＹ合同会社,,合同会社,神奈川県,平塚市,宝町２番１号,,14,203,2540034,,,2021-10-06,清算の結了等,,,2019-04-05,1,,,,,ティーワイ,0
813,3030002063015,登記記録の閉鎖等,0,2021-10-11,2021-09-29,有限会社栗田興業,,有限会社,埼玉県,富士見市,水谷東２丁目１８番１１号,,11,235,3540013,,,2021-09-29,清算の結了等,,,2015-10-05,1,,,,,,0
841,3050001045037,登記記録の閉鎖等,0,2021-10-11,2021-10-01,株式会社コウハク,,株式会社,茨城県,つくば市,鹿島台１２番地７－２,,08,220,3003254,,,2021-10-01,清算の結了等,,,2018-10-03,1,,,,,コウハク,0
851,3080102019688,登記記録の閉鎖等,0,2021-10-11,2021-10-06,有限会社クリーンライフ・佐々木,,有限会社,静岡県,伊東市,宇佐美２７４８番地の２,,22,208,4140001,,,2021-10-06,清算の結了等,,,2015-10-05,1,,,,,クリーンライフササキ,0
861,3110001015339,登記記録の閉鎖等,0,2021-10-11,2021-10-06,丸惣渡辺運送株式会社,,株式会社,新潟県,加茂市,岡ノ町７番３号,,15,209,9591377,,,2021-10-06,清算の結了等,,,2015-10-05,1,,,,,マルソウワタナベウンソウ,0
867,3120001015073,登記記録の閉鎖等,0,2021-10-11,2021-10-05,下川電材株式会社,,株式会社,大阪府,大阪市城東区,関目３丁目１１番１２号,,27,118,5360008,,,2021-10-05,清算の結了等,,,2015-10-05,1,,,,,,0
868,3120001081479,登記記録の閉鎖等,0,2021-10-11,2021-10-05,株式会社扶桑ツーリスト,,株式会社,大阪府,大阪市都島区,高倉町１丁目１３番５－２０７号,,27,102,5340011,,,2021-10-05,清算の結了等,,,2015-10-05,1,,,,,フソウツーリスト,0
872,3120002063600,登記記録の閉鎖等,0,2021-10-11,2021-10-05,有限会社キサンライフ,,有限会社,大阪府,大阪市北区,西天満５丁目８番１５号,,27,127,5300047,,,2021-10-05,清算の結了等,,,2015-10-05,1,,,,,,0
876,3120005020268,登記記録の閉鎖等,0,2021-10-11,2021-10-05,一般社団法人プロフェッショナル・サービス・サポート協議会,,その他の設立登記法人,大阪府,大阪市中央区,安土町３丁目２番１４号イワタニ第２ビル１３階友朋監査法人内,,27,128,5410052,,,2021-10-05,清算の結了等,,,2018-07-06,1,,,,,プロフェッショナルサービスサポートキョウギカイ,0
886,3120901034107,登記記録の閉鎖等,0,2021-10-11,2021-10-01,株式会社グッドライフ,,株式会社,大阪府,高槻市,大畑町１７番２５号,,27,207,5691144,,,2021-10-01,清算の結了等,,,2015-10-05,1,,,,,グッドライフ,0
892,3130001000140,登記記録の閉鎖等,0,2021-10-11,2021-10-05,嵐山観光株式会社,,株式会社,京都府,京都市上京区,寺之内通大宮東入妙蓮寺前町３３８番地,,26,102,6028418,,,2021-10-05,清算の結了等,,,2015-10-05,1,,,,,アラシヤマカンコウ,0
908,3140002068119,登記記録の閉鎖等,0,2021-10-11,2021-10-06,有限会社卯月会,,有限会社,兵庫県,宝塚市,武庫川町５番３６－１３０２号,,28,214,6650844,,,2021-10-06,清算の結了等,,,2015-10-05,1,,,,,ウヅキカイ,0
910,3150001008207,登記記録の閉鎖等,0,2021-10-11,2021-10-05,富士商工業株式会社,,株式会社,奈良県,天理市,平等坊町２４３番地７,,29,204,6320077,,,2021-10-05,清算の結了等,,,2015-10-05,1,,,,,フジショウコウギョウ,0
920,3160002006332,登記記録の閉鎖等,0,2021-10-11,2021-10-07,大浜酒造有限会社,,有限会社,滋賀県,長浜市,大浜町３７８番地,,25,203,5260115,,,2021-10-07,清算の結了等,,,2015-10-05,1,,,,,オオハマシュゾウ,0
926,3180001042483,登記記録の閉鎖等,0,2021-10-11,2021-10-04,株式会社モデュス,,株式会社,愛知県,名古屋市昭和区,広路町字石坂２８番地の１,,23,107,4660834,,,2021-10-04,清算の結了等,,,2015-10-05,1,,,,,モデュス,0
927,3180001067134,登記記録の閉鎖等,0,2021-10-11,2021-10-05,昭和ファインセラミックス株式会社,,株式会社,長野県,塩尻市,大字宗賀１番地,,20,215,3996461,,,2021-10-05,合併による解散等,6230001001282,令和３年１０月１日長野県塩尻市大字宗賀１番地昭和電工セラミックス株式会社（6230001001282）に合併し解散,2015-10-05,1,,,,,ショウワファインセラミックス,0
929,3180001120974,登記記録の閉鎖等,0,2021-10-11,2021-10-06,グッドラックカンパニー株式会社,,株式会社,愛知県,名古屋市中村区,岩塚町字上小路７５番地の２,,23,105,4530862,,,2021-10-06,清算の結了等,,,2015-11-13,1,,,,,グッドラックカンパニー,0
941,3190001012403,登記記録の閉鎖等,0,2021-10-11,2021-10-06,株式会社長栄堂,,株式会社,三重県,桑名市,堤原５３番地,,24,205,5110072,,,2021-10-06,清算の結了等,,,2015-10-05,1,,,,,チョウエイドウ,0
963,3250001005004,登記記録の閉鎖等,0,2021-10-11,2021-10-07,株式会社Ａｓｕｌｅａｄ,,株式会社,山口県,山口市,朝田６１２番地２６,,35,203,7530871,,,2021-10-07,清算の結了等,,,2015-10-05,1,,,,,アスリード,0
964,3250002019333,登記記録の閉鎖等,0,2021-10-11,2021-10-01,大鵬商事有限会社,,有限会社,山口県,岩国市,麻里布町４丁目７－４,,35,208,7400018,,,2021-10-01,清算の結了等,,,2015-10-05,1,,,,,,0
986,3330002027600,登記記録の閉鎖等,0,2021-10-11,2021-10-05,有限会社プラザ産商,,有限会社,熊本県,葦北郡芦北町,大字芦北２７８１番地の８,00097963,43,482,8695461,,,2021-10-05,清算の結了等,,,2015-10-05,1,,,,,プラザサンショウ,0
994,3360001013136,登記記録の閉鎖等,0,2021-10-11,2021-10-01,株式会社タウンマネージメント石垣,,株式会社,沖縄県,石垣市,字大川２０３番地,,47,207,9070022,,,2021-10-01,清算の結了等,,,2015-10-05,1,,,,,タウンマネージメントイシガキ,0
1040,4010001007485,登記記録の閉鎖等,0,2021-10-11,2021-10-01,株式会社プレテックス,,株式会社,東京都,台東区,東上野２丁目１２番８号芳屋ビル４階,,13,106,1100015,,,2021-10-01,合併による解散等,7010001002624,令和３年１０月１日東京都台東区東上野二丁目１２番８号芳屋ビル４階株式会社光洋（7010001002624）に合併し解散,2015-10-05,1,,,,,プレテックス,0
1091,4011001120195,登記記録の閉鎖等,0,2021-10-11,2021-10-07,株式会社メイクセンス,,株式会社,東京都,渋谷区,円山町１０番１２号ランドステージ渋谷５階,,13,113,1500044,,,2021-10-07,清算の結了等,,,2018-01-17,1,,,,,メイクセンス,0
1092,4011001130384,登記記録の閉鎖等,0,2021-10-11,2021-09-08,株式会社Ｏｎｅ　Ｓｈａｒｅ,,株式会社,東京都,渋谷区,渋谷３丁目６番２号エクラート渋谷５Ｆ,,13,113,1500002,,,2021-09-08,清算の結了等,,,2019-10-10,1,,,,,ワンシェア,0
1107,4011502012255,登記記録の閉鎖等,0,2021-10-11,2021-10-04,有限会社フルハシ・タネヤ,,有限会社,東京都,荒川区,荒川４丁目４０番１１号,,13,118,1160002,,,2021-10-04,清算の結了等,,,2015-10-05,1,,,,,フルハシタネヤ,0
1125,4020001119503,登記記録の閉鎖等,0,2021-10-11,2021-10-04,株式会社Ａ．Ｆ．ＩＮＴＥＲＮＡＴＩＯＮＡＬ,,株式会社,神奈川県,川崎市中原区,木月３丁目１２番２６号Ｎ＆Ｎ木月１０２号,,14,133,2110025,,,2021-10-04,清算の結了等,,,2017-01-17,1,,,,,,0
1126,4020001122283,登記記録の閉鎖等,0,2021-10-11,2021-10-05,アバター・インテグレイテッド・システムズ株式会社,,株式会社,神奈川県,横浜市港北区,新横浜２丁目５番地１日総第１３ビル８階,,14,109,2220033,,,2021-10-05,合併による解散等,7010701009720,令和３年１０月１日東京都品川区北品川四丁目７番３５号シーメンスＥＤＡジャパン株式会社（7010701009720）に合併し解散,2017-07-25,1,,,,,アバターインテグレイテッドシステムズ,0
1147,4030002024651,登記記録の閉鎖等,0,2021-10-11,2021-09-28,有限会社高島商店,,有限会社,埼玉県,戸田市,中町２丁目１４番２５号,,11,224,3350012,,,2021-09-28,清算の結了等,,,2015-10-05,1,,,,,タカシマショウテン,0
1151,4030002118008,登記記録の閉鎖等,0,2021-10-11,2021-09-29,有限会社鳥新,,有限会社,埼玉県,行田市,富士見町１丁目１０番地１,,11,206,3610021,,,2021-09-29,清算の結了等,,,2015-10-05,1,,,,,トリシン,0
1180,4080001001416,登記記録の閉鎖等,0,2021-10-11,2021-10-07,小泉商事株式会社,,株式会社,静岡県,静岡市葵区,南安倍１丁目５番３号,,22,101,4200054,,,2021-10-07,清算の結了等,,,2015-10-05,1,,,,,コイズミショウジ,0
1195,4100002018175,登記記録の閉鎖等,0,2021-10-11,2021-10-07,有限会社原鉄工,,有限会社,長野県,中野市,大字桜沢３０６番地１,,20,211,3830044,,,2021-10-07,清算の結了等,,,2015-10-05,1,,,,,ハラテッコウ,0
1200,4110002011385,登記記録の閉鎖等,0,2021-10-11,2021-10-05,有限会社エベレストインターナショナル,,有限会社,新潟県,新潟市中央区,南笹口１丁目１５番１３,,15,103,9500912,,,2021-10-05,清算の結了等,,,2015-10-05,1,,,,,エベレストインターナショナル,0
1204,4120001092673,登記記録の閉鎖等,0,2021-10-11,2021-10-05,株式会社和光設計積算事務所,,株式会社,大阪府,大阪市中央区,南船場３丁目２番２２号,,27,128,5420081,,,2021-10-05,清算の結了等,,,2015-10-05,1,,,,,ワコウセッケイセキサンジムショ,0
1216,4120002007440,登記記録の閉鎖等,0,2021-10-11,2021-10-06,有限会社ムラカワ,,有限会社,大阪府,大阪市東成区,深江南３丁目５番４号,,27,115,5370002,,,2021-10-06,清算の結了等,,,2015-10-05,1,,,,,ムラカワ,0
1228,4120901029312,登記記録の閉鎖等,0,2021-10-11,2021-10-07,株式会社フォルトゥーナ,,株式会社,大阪府,箕面市,船場西３丁目１番４号,,27,220,5620036,,,2021-10-07,合併による解散等,6120101048391,令和３年１０月１日大阪府堺市堺区北花田口町三丁１番１５号株式会社プリメールリーシング（6120101048391）に合併し解散,2015-10-05,1,,,,,フォルトゥーナ,0
1231,4120903001566,登記記録の閉鎖等,0,2021-10-11,2021-10-05,合同会社ラポルティ,,合同会社,大阪府,吹田市,山田西１丁目２３番,,27,205,5650824,,,2021-10-05,清算の結了等,,,2015-10-05,1,,,,,,0
1235,4130002005682,登記記録の閉鎖等,0,2021-10-11,2021-10-05,有限会社たまや,,有限会社,京都府,京都市左京区,浄土寺真如町１６０番地,,26,103,6068414,,,2021-10-05,清算の結了等,,,2015-10-05,1,,,,,タマヤ,0
1241,4140001024393,登記記録の閉鎖等,0,2021-10-11,2021-10-04,株式会社オンケン,,株式会社,兵庫県,神戸市中央区,上筒井通３丁目１－２０－２０３,,28,110,6510061,,,2021-10-04,清算の結了等,,,2015-10-05,1,,,,,オンケン,0
1267,4180001137547,登記記録の閉鎖等,0,2021-10-11,2021-10-05,株式会社花正,,株式会社,愛知県,一宮市,花池３丁目２７番８号,,23,203,4910914,,,2021-10-05,清算の結了等,,,2019-08-05,1,,,,,ハナマサ,0
1277,4180003015098,登記記録の閉鎖等,0,2021-10-11,2021-10-04,合同会社コクーン,,合同会社,東京都,台東区,東上野１丁目８番６号妙高酒造ビル３Ｆ,,13,106,1100015,,,2021-10-04,清算の結了等,,,2015-10-05,1,,,,,コクーン,0
1279,4180005009610,登記記録の閉鎖等,0,2021-10-11,2021-10-06,一宮市医師会協同組合,,その他の設立登記法人,愛知県,一宮市,貴船町３丁目２番地,,23,203,4910076,,,2021-10-06,清算の結了等,,,2015-10-05,1,,,,,イチノミヤシイシカイ,0
1291,4230001017149,登記記録の閉鎖等,0,2021-10-11,2021-10-04,株式会社ホクタテアグリ,,株式会社,富山県,富山市,中野新町１丁目２番１０号,,16,201,9398085,,,2021-10-04,清算の結了等,,,2017-10-04,1,,,,,ホクタテアグリ,0
1293,4230002006357,登記記録の閉鎖等,0,2021-10-11,2021-10-01,有限会社ｅｍｉ,,有限会社,富山県,富山市,根塚町１丁目４番地１０,,16,201,9398204,,,2021-10-01,合併による解散等,4230001006242,令和３年１０月１日富山市根塚町一丁目４番地１４株式会社マジェンタ（4230001006242）に合併し解散,2015-10-05,1,,,,,エミ,0
1296,4240001049505,登記記録の閉鎖等,0,2021-10-11,2021-10-05,株式会社Ａｘｉｏｎ,,株式会社,広島県,安芸郡府中町,八幡３丁目１３番２号,,34,302,7350012,,,2021-10-05,合併による解散等,9240001047660,令和３年１０月１日広島市東区温品一丁目３番２号株式会社ＡＸＩＳ（9240001047660）に合併し解散,2016-06-07,1,,,,,アクシオン,0
1298,4240002013427,登記記録の閉鎖等,0,2021-10-11,2021-10-08,有限会社服部広告事務所,,有限会社,広島県,広島市中区,小町５番１８クレセント小町５０３号,,34,101,7300041,,,2021-10-08,清算の結了等,,,2015-10-05,1,,,,,ハットリコウコクジムショ,0
1319,4310002000153,登記記録の閉鎖等,0,2021-10-11,2021-10-07,有限会社あじさい調剤薬局,,有限会社,長崎県,長崎市,家野町８番２号,,42,201,8528136,,,2021-10-07,合併による解散等,6350002007003,令和３年１０月１日宮崎市高岡町花見９４４番地４株式会社サニープレイス（6350002007003）に合併し解散,2015-10-05,1,,,,,アジサイチョウザイヤッキョク,0
1320,4310002003164,登記記録の閉鎖等,0,2021-10-11,2021-10-07,有限会社タナカ商行,,有限会社,長崎県,長崎市,花園町１０番２６号,,42,201,8528024,,,2021-10-07,清算の結了等,,,2021-06-21,1,,,,,タナカショウコウ,0
1343,4370001007532,登記記録の閉鎖等,0,2021-10-11,2021-09-30,カクダイ商事株式会社,,株式会社,宮城県,仙台市青葉区,片平１丁目４番６－１２０６号,,04,101,9800812,,,2021-09-30,清算の結了等,,,2015-10-05,1,,,,,カクダイショウジ,0
1346,4370302000558,登記記録の閉鎖等,0,2021-10-11,2021-09-30,有限会社女川マルゴ企画,,有限会社,宮城県,牡鹿郡女川町,鷲神浜字鷲神９８番地,,04,581,9862243,,,2021-09-30,清算の結了等,,,2015-10-05,1,,,,,オナガワマルゴキカク,0
1347,4370501000796,登記記録の閉鎖等,0,2021-10-11,2021-09-28,株式会社鴻丸漁業部,,株式会社,宮城県,気仙沼市,唐桑町崎浜１５２番地７,,04,205,9880554,,,2021-09-28,清算の結了等,,,2015-10-05,1,,,,,オオトリマルギョギョウブ,0
1349,4380002018180,登記記録の閉鎖等,0,2021-10-11,2021-10-05,有限会社東木販売,,有限会社,福島県,白河市,池下向山１番地の３,,07,205,9610825,,,2021-10-05,清算の結了等,,,2015-10-05,1,,,,,トーモクハンバイ,0
1357,4400001001903,登記記録の閉鎖等,0,2021-10-11,2021-10-08,株式会社第一ポートリーフアーム,,株式会社,岩手県,岩手郡岩手町,大字土川第４地割３３１番地３,,03,303,0284423,,,2021-10-08,合併による解散等,2430001028862,令和３年１０月１日札幌市白石区中央二条三丁目６番１５号株式会社ホクリヨウ（2430001028862）に合併し解散,2015-10-05,1,,,,,ダイイチポートリーファーム,0
1360,4410001006620,登記記録の閉鎖等,0,2021-10-11,2021-10-05,株式会社田中屋,,株式会社,秋田県,鹿角市,花輪字寺ノ後１０２番地,,05,209,0185201,,,2021-10-05,清算の結了等,,,2015-10-05,1,,,,,タナカヤ,0
1361,4430001006065,登記記録の閉鎖等,0,2021-10-11,2021-10-06,コンクリートコーリング株式会社,,株式会社,北海道,札幌市東区,北丘珠四条３丁目１２番３８号,,01,103,0070884,,,2021-10-06,合併による解散等,1011601002283,令和３年１０月１日東京都練馬区立野町１６番１２号コンクリートコーリング株式会社（1011601002283）に合併し解散,2015-10-05,1,,,,,コンクリートコーリング,0
1363,4430001033654,登記記録の閉鎖等,0,2021-10-11,2021-10-01,株式会社ＭＩＤ交通,,株式会社,北海道,札幌市中央区,南十六条西１０丁目２番２０号,,01,101,0640916,,,2021-10-01,合併による解散等,3430001022476,令和３年１０月１日札幌市東区東苗穂五条二丁目５番１９号株式会社北海道ブブ（3430001022476）に合併し解散,2015-10-05,1,,,,,エムアイディコウツウ,0
1370,4430002059005,登記記録の閉鎖等,0,2021-10-11,2021-10-01,有限会社税法管理センター,,有限会社,北海道,苫小牧市,旭町４丁目３番２０号,,01,213,0530018,,,2021-10-01,清算の結了等,,,2015-10-05,1,,,,,,0
1375,4470001000808,登記記録の閉鎖等,0,2021-10-11,2021-10-05,株式会社オオシマ,,株式会社,香川県,高松市,御厩町１３０４番地３,,37,201,7618042,,,2021-10-05,清算の結了等,,,2015-10-05,1,,,,,オオシマ,0
1377,4470003000434,登記記録の閉鎖等,0,2021-10-11,2021-09-29,合資会社ブルーム,,合資会社,香川県,東かがわ市,松原１０４３番地４,,37,207,7692702,,,2021-09-29,清算の結了等,,,2015-10-05,1,,,,,ブルーム,0
1380,4500001005274,登記記録の閉鎖等,0,2021-10-11,2021-10-07,株式会社シー，ベアー,,株式会社,愛媛県,松山市,宮田町１３９番地６,,38,201,7900066,,,2021-10-07,清算の結了等,,,2015-10-05,1,,,,,シーベアー,0
1422,5010901030528,登記記録の閉鎖等,0,2021-10-11,2021-10-04,株式会社ケーネクスト,,株式会社,東京都,世田谷区,桜１丁目６番１１号,,13,112,1560053,,,2021-10-04,清算の結了等,,,2015-10-05,1,,,,,ケーネクスト,0
1425,5011001130557,登記記録の閉鎖等,0,2021-10-11,2021-09-27,株式会社日本先進医療インフラ開発機構,,株式会社,東京都,渋谷区,神宮前６丁目２３番４号桑野ビル２階,,13,113,1500001,,,2021-09-27,清算の結了等,,,2019-10-24,1,,,,,ニホンセンシンイリョウインフラカイハツキコウ,0
1452,5011801025097,登記記録の閉鎖等,0,2021-10-11,2021-10-07,ミタマテリアル株式会社,,株式会社,東京都,葛飾区,鎌倉１丁目６番１号,,13,122,1250053,,,2021-10-07,清算の結了等,,,2015-10-05,1,,,,,ミタマテリアル,0
1453,5011802013209,登記記録の閉鎖等,0,2021-10-11,2021-10-07,有限会社櫻澤設計事務所,,有限会社,東京都,足立区,谷中３丁目６番５号,,13,121,1200006,,,2021-10-07,清算の結了等,,,2015-10-05,1,,,,,,0
1464,5020001033182,登記記録の閉鎖等,0,2021-10-11,2021-10-04,株式会社ルイズミラー,,株式会社,神奈川県,横浜市西区,岡野１丁目１２番１５号,,14,103,2200073,,,2021-10-04,清算の結了等,,,2015-10-05,1,,,,,ルイズミラー,0
1477,5021001023198,登記記録の閉鎖等,0,2021-10-11,2021-10-06,株式会社伊勢竜塗装,,株式会社,神奈川県,伊勢原市,上粕屋２５５０番地の１８,,14,214,2591141,,,2021-10-06,清算の結了等,,,2015-10-05,1,,,,,,0
1501,5040001060365,登記記録の閉鎖等,0,2021-10-11,2021-09-30,房総コースト株式会社,,株式会社,千葉県,長生郡睦沢町,上市場１３１２番地２,,12,422,2994403,,,2021-09-30,清算の結了等,,,2015-10-05,1,,,,,ボウソウコースト,0
1527,5060002009566,登記記録の閉鎖等,0,2021-10-11,2021-10-04,有限会社渡辺製作所,,有限会社,栃木県,宇都宮市,中今泉１丁目９番２７号,,09,201,3210968,,,2021-10-04,清算の結了等,,,2015-10-05,1,,,,,ワタナベセイサクジョ,0
1531,5070005007021,登記記録の閉鎖等,0,2021-10-11,2021-10-05,農事組合法人川場牧場組合,,その他の設立登記法人,群馬県,利根郡川場村,大字谷地２３９０番地２,,10,444,3780101,,,2021-10-05,清算の結了等,,,2015-10-05,1,,,,,,0
1536,5080401019016,登記記録の閉鎖等,0,2021-10-11,2021-10-04,ＭＯＳＫケミカル株式会社,,株式会社,東京都,千代田区,神田多町２丁目８番８号水野ビル２Ｆコステックジャパン（株）内,,13,101,1010046,,,2021-10-04,清算の結了等,,,2015-10-05,1,,,,,モスクケミカル,0
1566,5120002065867,登記記録の閉鎖等,0,2021-10-11,2021-10-04,有限会社フレッチェエスポワール,,有限会社,大阪府,大阪市東淀川区,東中島１丁目１８番２７号新大阪丸ビル新館１階,,27,114,5330033,,,2021-10-04,清算の結了等,,,2015-10-05,1,,,,,フレッチェエスポワール,0
1576,5130001014270,登記記録の閉鎖等,0,2021-10-11,2021-10-01,京琳工芸株式会社,,株式会社,広島県,府中市,広谷町９５３番地,,34,208,7260011,,,2021-10-01,合併による解散等,2240001034434,令和３年１０月１日広島県府中市広谷町９５３番地株式会社松創（2240001034434）に合併し解散,2015-10-05,1,,,,,キョウリンコウゲイ,0
1583,5140002009863,登記記録の閉鎖等,0,2021-10-11,2021-10-08,有限会社共和商事,,有限会社,兵庫県,神戸市北区,惣山町４丁目１２番地の１３,,28,109,6511145,,,2021-10-08,清算の結了等,,,2015-10-05,1,,,,,キョウワショウジ,0
1588,5140005004589,登記記録の閉鎖等,0,2021-10-11,2021-10-06,特定非営利活動法人エーエスパートナーズ,,その他の設立登記法人,兵庫県,神戸市垂水区,星が丘２丁目４番１６号,,28,108,6550032,,,2021-10-06,清算の結了等,,,2015-10-05,1,,,,,エーエスパートナーズ,0
1599,5170001005927,登記記録の閉鎖等,0,2021-10-11,2021-10-08,下津海運株式会社,,株式会社,和歌山県,海南市,下津町下津７７４番地２,,30,202,6490101,,,2021-10-08,清算の結了等,,,2015-10-05,1,,,,,,0
1602,5180001027912,登記記録の閉鎖等,0,2021-10-11,2021-09-30,株式会社大高書店,,株式会社,愛知県,名古屋市緑区,大高町字鶴田２０番地の２,,23,114,4598001,,,2021-09-30,清算の結了等,,,2015-10-05,1,,,,,オオダカショテン,0
1625,5180305002363,登記記録の閉鎖等,0,2021-10-11,2021-10-07,医療法人穂祥会,,その他の設立登記法人,愛知県,豊橋市,中浜町７７番地,,23,201,4418065,,,2021-10-07,清算の結了等,,,2015-10-05,1,,,,,スイショウカイ,0
1631,5200005013063,登記記録の閉鎖等,0,2021-10-11,2021-10-06,ＣＳ中津川労働組合,,その他の設立登記法人,岐阜県,中津川市,茄子川１６４２番地の４,,21,206,5099132,,,2021-10-06,清算の結了等,,,2020-05-25,1,,,,,シーエスナカツガワ,0
1638,5230001017247,登記記録の閉鎖等,0,2021-10-11,2021-10-01,株式会社ピュア,,株式会社,富山県,黒部市,堀高４０番地８,,16,207,9380023,,,2021-10-01,合併による解散等,4230001006242,令和３年１０月１日富山市根塚町一丁目４番地１４株式会社マジェンタ（4230001006242）に合併し解散,2017-12-27,1,,,,,ピュア,0
1668,5330001012139,登記記録の閉鎖等,0,2021-10-11,2021-10-04,城門瓦工業株式会社,,株式会社,熊本県,玉名郡南関町,大字関東６７３番地１,,43,367,8610802,,,2021-10-04,清算の結了等,,,2015-10-05,1,,,,,キドカワラコウギョウ,0
1681,5370301001309,登記記録の閉鎖等,0,2021-10-11,2021-09-30,株式会社宮戸水産,,株式会社,宮城県,東松島市,宮戸字西大振場１番地１,,04,214,9810412,,,2021-09-30,清算の結了等,,,2015-10-05,1,,,,,ミヤトスイサン,0
1682,5380001009469,登記記録の閉鎖等,0,2021-10-11,2021-10-05,福島ルビコン株式会社,,株式会社,福島県,二本松市,戸沢字六角１１番地,,07,210,9640201,,,2021-10-05,合併による解散等,6100001020948,令和３年１０月１日長野県伊那市西箕輪１９３８番地１ルビコン株式会社（6100001020948）に合併し解散,2015-10-05,1,,,,,フクシマルビコン,0
1684,5380002012975,登記記録の閉鎖等,0,2021-10-11,2021-10-05,有限会社よさこい,,有限会社,福島県,郡山市,安積２丁目３４６番地,,07,203,9630107,,,2021-10-05,合併による解散等,1380001020974,令和３年１０月１日福島県郡山市香久池一丁目６３番１号株式会社幸村コーポレーション（1380001020974）に合併し解散,2015-10-05,1,,,,,ヨサコイ,0
1686,5390001007752,登記記録の閉鎖等,0,2021-10-11,2021-10-04,株式会社ハイヤーセンター,,株式会社,山形県,鶴岡市,朝暘町１９番２７号,,06,203,9970024,,,2021-10-04,清算の結了等,,,2015-10-05,1,,,,,,0
1689,5430001010446,登記記録の閉鎖等,0,2021-10-11,2021-10-04,丸斗北斗醸造株式会社,,株式会社,北海道,札幌市中央区,南三条東５丁目１番地,,01,101,0600053,,,2021-10-04,合併による解散等,5430001046226,令和３年１０月１日札幌市中央区南三条東五丁目１番地株式会社千歳鶴商会（5430001046226）に合併し解散,2015-10-05,1,,,,,マルトホクトジョウゾウ,0
1693,5430002048584,登記記録の閉鎖等,0,2021-10-11,2021-10-01,有限会社ヤウチ,,有限会社,北海道,恵庭市,島松寿町１丁目２７番地５,,01,231,0611355,,,2021-10-01,清算の結了等,,,2015-10-05,1,,,,,ヤウチ,0
1701,6010001009513,登記記録の閉鎖等,0,2021-10-11,2021-10-05,株式会社アイネットワーク,,株式会社,東京都,中央区,日本橋箱崎町３番１４号,,13,102,1030015,,,2021-10-05,合併による解散等,2430001021958,令和３年１０月１日札幌市中央区南一条西十丁目３番地南一条道銀ビル株式会社北海道総合技術研究所（2430001021958）に合併し解散,2015-10-05,1,,,,,アイネットワーク,0
1708,6010001194891,登記記録の閉鎖等,0,2021-10-11,2021-10-01,株式会社クリエイティブディストラクション,,株式会社,東京都,千代田区,一番町８番地１５,,13,101,1020082,,,2021-10-01,合併による解散等,5010001141754,令和３年１０月１日東京都千代田区一番町８番地１５株式会社スマートグリッド（5010001141754）に合併し解散,2018-09-20,1,,,,,クリエイティブディストラクション,0
1739,6010701016271,登記記録の閉鎖等,0,2021-10-11,2021-10-01,株式会社ＭＴＧメディカル,,株式会社,愛知県,名古屋市中村区,本陣通４丁目１３番,,23,105,4530041,,,2021-10-01,合併による解散等,6180001051390,令和３年１０月１日名古屋市中村区本陣通二丁目３２番株式会社ＭＴＧ（6180001051390）に合併し解散,2015-10-05,1,,,,,エムティージーメディカル,0
1742,6010901039989,登記記録の閉鎖等,0,2021-10-11,2021-10-04,アンドスポーツ株式会社,,株式会社,東京都,世田谷区,岡本３丁目２３番２１号,,13,112,1570076,,,2021-10-04,清算の結了等,,,2017-04-26,1,,,,,アンドスポーツ,0
1747,6011001117339,登記記録の閉鎖等,0,2021-10-11,2021-10-07,株式会社Ｓａｍｅ　Ｓｋｙ,,株式会社,東京都,渋谷区,松濤１丁目２８－２ワークコート渋谷松濤,,13,113,1500046,,,2021-10-07,清算の結了等,,,2017-07-11,1,,,,,,0
1748,6011001130226,登記記録の閉鎖等,0,2021-10-11,2021-09-22,ノブラボ株式会社,,株式会社,東京都,渋谷区,桜丘町２３番１７号シティコート桜丘４０８,,13,113,1500031,,,2021-09-22,清算の結了等,,,2019-10-08,1,,,,,ノブラボ,0
1772,6011701013911,登記記録の閉鎖等,0,2021-10-11,2021-10-06,株式会社ジェイ・エー・エー,,株式会社,東京都,江戸川区,臨海町３丁目２番１号,,13,123,1340086,,,2021-10-06,合併による解散等,3180001094608,令和３年１０月１日愛知県東海市新宝町５０７番地の２０株式会社ユー・エス・エス（3180001094608）に合併し解散,2015-10-05,1,,,,,ジェイエーエー,0
1786,6012701014957,登記記録の閉鎖等,0,2021-10-11,2021-10-06,株式会社ランドフェクト,,株式会社,東京都,東久留米市,南沢５丁目１９番２４－６０３号,,13,222,2030023,,,2021-10-06,清算の結了等,,,2018-08-10,1,,,,,ランドフェクト,0
1794,6013202012681,登記記録の閉鎖等,0,2021-10-11,2021-10-07,有限会社西美,,有限会社,東京都,目黒区,柿の木坂２丁目１８番５号,,13,110,1520022,,,2021-10-07,清算の結了等,,,2015-10-05,1,,,,,サイビ,0
1808,6021002019319,登記記録の閉鎖等,0,2021-10-11,2021-09-30,有限会社銀海,,有限会社,神奈川県,相模原市南区,鵜野森２丁目２６番６号,,14,153,2520301,,,2021-09-30,清算の結了等,,,2015-10-05,1,,,,,ギンカイ,0
1809,6021002037568,登記記録の閉鎖等,0,2021-10-11,2021-10-06,有限会社江戸勝,,有限会社,神奈川県,秦野市,鶴巻南４丁目１番３５号,,14,211,2570002,,,2021-10-06,清算の結了等,,,2015-10-05,1,,,,,,0
1811,6021002054910,登記記録の閉鎖等,0,2021-10-11,2021-10-06,有限会社ＹＣ小田原中央,,有限会社,神奈川県,小田原市,中町３丁目１０－１１,,14,206,2500005,,,2021-10-06,清算の結了等,,,2015-10-05,1,,,,,,0
1815,6030001034402,登記記録の閉鎖等,0,2021-10-11,2021-09-29,株式会社福田サービス,,株式会社,埼玉県,蓮田市,馬込６丁目２８番地－２０８,,11,238,3490114,,,2021-09-29,清算の結了等,,,2015-10-05,1,,,,,,0
1818,6030001075834,登記記録の閉鎖等,0,2021-10-11,2021-09-29,大洋エンジニアリング株式会社,,株式会社,埼玉県,川口市,赤井２丁目４番２２号,,11,203,3340073,,,2021-09-29,清算の結了等,,,2015-10-05,1,,,,,タイヨウエンジニアリング,0
1827,6030002055876,登記記録の閉鎖等,0,2021-10-11,2021-09-29,有限会社武村旅館,,有限会社,埼玉県,桶川市,南１丁目８番８号,,11,231,3630015,,,2021-09-29,清算の結了等,,,2015-10-05,1,,,,,,0
1853,6060001009649,登記記録の閉鎖等,0,2021-10-11,2021-10-04,株式会社直江コーポレーション,,株式会社,栃木県,芳賀郡茂木町,大字茂木１３２０番地,,09,343,3213531,,,2021-10-04,清算の結了等,,,2015-10-05,1,,,,,ナオエコーポレーション,0
1856,6060002004335,登記記録の閉鎖等,0,2021-10-11,2021-10-04,有限会社桜保険企画,,有限会社,栃木県,宇都宮市,上戸祭４丁目１５番３１号,,09,201,3200058,,,2021-10-04,清算の結了等,,,2015-10-05,1,,,,,サクラホケンキカク,0
1876,6100001015980,登記記録の閉鎖等,0,2021-10-11,2021-10-05,Ｊプロスト株式会社,,株式会社,長野県,松本市,梓川倭１６６６番地８,,20,202,3901701,,,2021-10-05,清算の結了等,,,2015-10-05,1,,,,,,0
1879,6100002035771,登記記録の閉鎖等,0,2021-10-11,2021-10-07,有限会社今村建具製作所,,有限会社,長野県,飯田市,上郷別府３３４０番地８,,20,205,3950003,,,2021-10-07,清算の結了等,,,2015-10-05,1,,,,,イマムラタテグセイサクショ,0
1885,6120001005492,登記記録の閉鎖等,0,2021-10-11,2021-10-05,進光堂印刷株式会社,,株式会社,大阪府,大阪市阿倍野区,昭和町２丁目２番４号,,27,119,5450011,,,2021-10-05,清算の結了等,,,2015-10-05,1,,,,,シンコウドウインサツ,0
1886,6120001010063,登記記録の閉鎖等,0,2021-10-11,2021-10-04,松栄不動産株式会社,,株式会社,大阪府,大阪市淀川区,加島３丁目４番２４号,,27,123,5320031,,,2021-10-04,清算の結了等,,,2015-10-05,1,,,,,ショウエイフドウサン,0
1901,6120101041280,登記記録の閉鎖等,0,2021-10-11,2021-10-05,株式会社ＯＩＧ,,株式会社,大阪府,和泉市,仏並町１０４番地の１,,27,219,5941136,,,2021-10-05,清算の結了等,,,2015-10-05,1,,,,,オーアイジー,0
1911,6130001047294,登記記録の閉鎖等,0,2021-10-11,2021-10-07,風和里株式会社,,株式会社,京都府,京都市西京区,大枝沓掛町１２番地１２６,,26,111,6101106,,,2021-10-07,清算の結了等,,,2015-10-05,1,,,,,フワリ,0
1914,6130005003946,登記記録の閉鎖等,0,2021-10-11,2021-10-06,医療法人並河整形外科医院,,その他の設立登記法人,京都府,京都市山科区,椥辻西浦町２６番地の４,00038550,26,110,6078169,,,2021-10-06,清算の結了等,,,2015-10-05,1,,,,,ナミカワセイケイゲカイイン,0
1918,6140001040018,登記記録の閉鎖等,0,2021-10-11,2021-10-07,播磨トーヨー住器株式会社,,株式会社,兵庫県,赤穂市,加里屋１１３９番地の７６,,28,212,6780239,,,2021-10-07,合併による解散等,8130001029927,令和３年１０月１日京都市伏見区竹田西桶ノ井町４０番地株式会社ウインスリー（8130001029927）に合併し解散,2015-10-05,1,,,,,ハリマトーヨージュウキ,0
1963,6190002018446,登記記録の閉鎖等,0,2021-10-11,2021-10-06,有限会社モードプライム,,有限会社,三重県,員弁郡東員町,大字六把野新田３０５番地４,,24,324,5110242,,,2021-10-06,清算の結了等,,,2015-10-05,1,,,,,モードプライム,0
1979,6240002034041,登記記録の閉鎖等,0,2021-10-11,2021-10-07,有限会社平城,,有限会社,広島県,呉市,広横路３丁目６番１２号,,34,202,7370113,,,2021-10-07,清算の結了等,,,2015-10-05,1,,,,,ヘイジョウ,0
1980,6240002039305,登記記録の閉鎖等,0,2021-10-11,2021-10-05,伊勢丘自動車有限会社,,有限会社,広島県,福山市,伊勢丘７丁目３番２号,,34,207,7210915,,,2021-10-05,清算の結了等,,,2015-10-05,1,,,,,イセガオカジドウシャ,0
1984,6250002002757,登記記録の閉鎖等,0,2021-10-11,2021-10-07,有限会社ＡＳＰＡ,,有限会社,山口県,山口市,朝田６１２番地２６,,35,203,7530871,,,2021-10-07,清算の結了等,,,2015-10-05,1,,,,,アスパ,0
2005,6310001014004,登記記録の閉鎖等,0,2021-10-11,2021-10-07,株式会社伊木力コンサルティング,,株式会社,長崎県,諫早市,多良見町舟津１６２７番地,,42,204,8590417,,,2021-10-07,清算の結了等,,,2016-01-05,1,,,,,イキリキコンサルティング,0
2027,6380002009979,登記記録の閉鎖等,0,2021-10-11,2021-10-04,有限会社新日本総業,,有限会社,福島県,郡山市,中町１１番１０号,,07,203,9638004,,,2021-10-04,合併による解散等,4380001004710,令和３年１０月１日福島県郡山市中町１１番１０号エリート株式会社（4380001004710）に合併し解散,2015-10-05,1,,,,,シンニホンソウギョウ,0
2028,6380002029556,登記記録の閉鎖等,0,2021-10-11,2021-10-05,有限会社パーソナルコンピュータシステム,,有限会社,福島県,南相馬市,小高区小高字上広畑１４５番地の５,,07,212,9792102,,,2021-10-05,清算の結了等,,,2015-10-05,1,,,,,,0
2046,7010001016789,登記記録の閉鎖等,0,2021-10-11,2021-10-01,株式会社コンピューター・メンテナンス・サービス,,株式会社,東京都,中央区,日本橋茅場町１丁目１番３号,,13,102,1030025,,,2021-10-01,合併による解散等,1010001053755,令和３年１０月１日東京都中央区日本橋茅場町一丁目１番３号ニツクコンピユータサービス株式会社（1010001053755）に合併し解散,2015-10-05,1,,,,,コンピューターメンテナンスサービス,0
2052,7010001204311,登記記録の閉鎖等,0,2021-10-11,2021-10-01,株式会社ｇｒａｐｈｅｅ,,株式会社,東京都,千代田区,九段南１丁目５番６号りそな九段ビル５階ＫＳフロア,,13,101,1020074,,,2021-10-01,清算の結了等,,,2019-10-02,1,,,,,グラフィー,0
2076,7010602028324,登記記録の閉鎖等,0,2021-10-11,2021-09-27,有限会社オレンジシステム,,有限会社,東京都,江東区,住吉１丁目１５番１１号,,13,108,1350002,,,2021-09-27,清算の結了等,,,2015-10-05,1,,,,,オレンジシステム,0
2077,7010603006428,登記記録の閉鎖等,0,2021-10-11,2021-09-30,ｂｉｚＳｙｓｔｅｍ合同会社,,合同会社,東京都,江東区,南砂３丁目８番１－１０１２号,,13,108,1360076,,,2021-09-30,清算の結了等,,,2016-09-14,1,,,,,ビズシステム,0
2081,7010702011056,登記記録の閉鎖等,0,2021-10-11,2021-10-06,有限会社　小泉商事,,有限会社,東京都,品川区,西五反田４丁目１４番３号,,13,109,1410031,,,2021-10-06,清算の結了等,,,2015-10-05,1,,,,,コイズミショウジ,0
2082,7010703005230,登記記録の閉鎖等,0,2021-10-11,2021-10-07,Ｓａｍｕｒａｉｌａｎｄ合同会社,,合同会社,東京都,品川区,西五反田３丁目１１番６号,,13,109,1410031,,,2021-10-07,清算の結了等,,,2020-05-01,1,,,,,サムライランド,0
2096,7011101034557,登記記録の閉鎖等,0,2021-10-11,2021-10-01,株式会社ワイアンドワイ・アセットリサーチ,,株式会社,東京都,世田谷区,経堂３丁目９番１２号,,13,112,1560052,,,2021-10-01,清算の結了等,,,2015-10-05,1,,,,,ワイアンドワイアセットリサーチ,0
2105,7011103003320,登記記録の閉鎖等,0,2021-10-11,2021-09-29,合同会社グローバルマネージメント,,合同会社,埼玉県,飯能市,美杉台２丁目４番地３８,,11,209,3570041,,,2021-09-29,清算の結了等,,,2015-10-05,1,,,,,グローバルマネージメント,0
2126,7011803000897,登記記録の閉鎖等,0,2021-10-11,2021-10-07,合資会社シルバーキッズ,,合資会社,東京都,足立区,大谷田１丁目７－１１,,13,121,1200001,,,2021-10-07,清算の結了等,,,2015-10-05,1,,,,,シルバーキッズ,0
2128,7012401025725,登記記録の閉鎖等,0,2021-10-11,2021-10-06,株式会社リボン,,株式会社,東京都,武蔵野市,吉祥寺南町２丁目２５番１０号,,13,203,1800003,,,2021-10-06,清算の結了等,,,2015-10-05,1,,,,,リボン,0
2137,7020001040557,登記記録の閉鎖等,0,2021-10-11,2021-10-05,株式会社青木工業,,株式会社,神奈川県,横浜市戸塚区,原宿３丁目４番１号,,14,110,2450063,,,2021-10-05,清算の結了等,,,2015-10-05,1,,,,,アオキコウギョウ,0
2154,7030001037107,登記記録の閉鎖等,0,2021-10-11,2021-09-30,株式会社利起商事,,株式会社,埼玉県,三郷市,鷹野３丁目２６５番地３,,11,237,3410035,,,2021-09-30,清算の結了等,,,2015-10-05,1,,,,,リキショウジ,0
2158,7030002050125,登記記録の閉鎖等,0,2021-10-11,2021-09-29,有限会社ユーキ,,有限会社,埼玉県,三郷市,番匠免１丁目１３４番地２,,11,237,3410056,,,2021-09-29,清算の結了等,,,2015-10-05,1,,,,,,0
2159,7030002092720,登記記録の閉鎖等,0,2021-10-11,2021-09-28,有限会社長島工務店,,有限会社,埼玉県,坂戸市,大字塚越１０９０番地,,11,239,3500209,,,2021-09-28,清算の結了等,,,2015-10-05,1,,,,,ナガシマコウムテン,0
2167,7040001096424,登記記録の閉鎖等,0,2021-10-11,2021-10-06,株式会社ファミーユ,,株式会社,東京都,墨田区,江東橋４丁目９番４号,,13,107,1300022,,,2021-10-06,合併による解散等,3040001083938,令和３年１０月１日東京都千代田区外神田四丁目９番２号株式会社セイワ（3040001083938）に合併し解散,2016-08-04,1,,,,,ファミーユ,0
2175,7040002048580,登記記録の閉鎖等,0,2021-10-11,2021-09-29,有限会社ポトス,,有限会社,千葉県,松戸市,二十世紀が丘丸山町１２６番地２,,12,207,2710084,,,2021-09-29,清算の結了等,,,2015-10-05,1,,,,,ポトス,0
2186,7070003003383,登記記録の閉鎖等,0,2021-10-11,2021-10-08,アイエス合同会社,,合同会社,群馬県,前橋市,箱田町１５２７番地４,,10,201,3710837,,,2021-10-08,清算の結了等,,,2019-02-15,1,,,,,アイエス,0
2198,7100003003974,登記記録の閉鎖等,0,2021-10-11,2021-10-06,合同会社ｍａｍ．,,合同会社,長野県,長野市,吉田２丁目１６番１０号サツキビル１Ｆ,,20,201,3810043,,,2021-10-06,清算の結了等,,,2015-10-05,1,,,,,マアム,0
2201,7110001010864,登記記録の閉鎖等,0,2021-10-11,2021-10-05,株式会社アステル,,株式会社,新潟県,新潟市東区,下場新町１６番３９号,,15,102,9500832,,,2021-10-05,清算の結了等,,,2015-10-05,1,,,,,アステル,0
2216,7120002078099,登記記録の閉鎖等,0,2021-10-11,2021-10-04,有限会社エム・ワイ・シー,,有限会社,大阪府,守口市,高瀬町１丁目２番１５号,,27,209,5700053,,,2021-10-04,清算の結了等,,,2015-10-05,1,,,,,,0
2242,7140001052986,登記記録の閉鎖等,0,2021-10-11,2021-10-06,株式会社建築研究所アルセック,,株式会社,兵庫県,尼崎市,富松町４丁目７番２６号,,28,202,6610003,,,2021-10-06,清算の結了等,,,2015-10-05,1,,,,,ケンチクケンキュウショアルセック,0
2245,7140001076358,登記記録の閉鎖等,0,2021-10-11,2021-10-06,株式会社テクノファースト,,株式会社,兵庫県,加西市,田谷町７４０番地,,28,220,6752402,,,2021-10-06,清算の結了等,,,2015-10-05,1,,,,,テクノファースト,0
2264,7150002002386,登記記録の閉鎖等,0,2021-10-11,2021-10-05,有限会社プライムアカデミー,,有限会社,奈良県,奈良市,芝辻町５０６番地,00043313,29,201,6308114,,,2021-10-05,清算の結了等,,,2015-10-05,1,,,,,プライムアカデミー,0
2278,7180001119848,登記記録の閉鎖等,0,2021-10-11,2021-10-07,株式会社ビックテック,,株式会社,静岡県,静岡市駿河区,西平松４６４番地１,,22,102,4228016,,,2021-10-07,清算の結了等,,,2015-10-05,1,,,,,ビックテック,0
2280,7180002041183,登記記録の閉鎖等,0,2021-10-11,2021-10-04,有限会社ラメール,,有限会社,愛知県,北名古屋市,沖村西ノ郷８２番地,,23,234,4810043,,,2021-10-04,清算の結了等,,,2015-10-05,1,,,,,ラメール,0
2283,7180002063723,登記記録の閉鎖等,0,2021-10-11,2021-09-30,有限会社グローバル・スパイン,,有限会社,愛知県,長久手市,喜婦嶽１５０９番地,,23,238,4801117,,,2021-09-30,清算の結了等,,,2015-10-05,1,,,,,グローバルスパイン,0
2284,7180002067550,登記記録の閉鎖等,0,2021-10-11,2021-10-05,有限会社メディコ春日井,,有限会社,愛知県,春日井市,美濃町２丁目２１４番地の３,,23,206,4860917,,,2021-10-05,清算の結了等,,,2015-10-05,1,,,,,メディコカスガイ,0
2286,7180003019773,登記記録の閉鎖等,0,2021-10-11,2021-10-04,合同会社ＳＯＩＮ,,合同会社,愛知県,名古屋市中区,丸の内２丁目１３番１６号,,23,106,4600002,,,2021-10-04,清算の結了等,,,2019-03-08,1,,,,,ソワン,0
2291,7200001005293,登記記録の閉鎖等,0,2021-10-11,2021-10-04,株式会社美ゆき,,株式会社,岐阜県,岐阜市,神明町２丁目１１番地,,21,201,5008848,,,2021-10-04,合併による解散等,5200001004578,令和３年９月３０日岐阜市神明町二丁目１１番地株式会社不破（5200001004578）に合併し解散,2015-10-05,1,,,,,ミユキ,0
2298,7230001009572,登記記録の閉鎖等,0,2021-10-11,2021-09-29,株式会社創夢,,株式会社,富山県,富山市,水橋伊勢屋１７６番地１,,16,201,9393524,,,2021-09-29,合併による解散等,9230001001180,令和３年９月２８日富山市水橋伊勢屋１７６番地の１株式会社シンソーワ（9230001001180）に合併し解散,2015-10-05,1,,,,,ソウム,0
2341,7340002026795,登記記録の閉鎖等,0,2021-10-11,2021-09-28,有限会社大隅浄水工業,,有限会社,鹿児島県,鹿屋市,川西町４４６０番地２,,46,203,8930032,,,2021-09-28,清算の結了等,,,2015-10-05,1,,,,,オオスミジョウスイコウギョウ,0
2351,7370502000223,登記記録の閉鎖等,0,2021-10-11,2021-09-28,有限会社キクタ電機工業,,有限会社,宮城県,気仙沼市,田中前３丁目６番地の９,,04,205,9880053,,,2021-09-28,清算の結了等,,,2015-10-05,1,,,,,キクタデンキコウギョウ,0
2353,7380001020903,登記記録の閉鎖等,0,2021-10-11,2021-10-04,株式会社渡辺総業,,株式会社,福島県,郡山市,中町１１番１０号,,07,203,9638004,,,2021-10-04,合併による解散等,4380001004710,令和３年１０月１日福島県郡山市中町１１番１０号エリート株式会社（4380001004710）に合併し解散,2015-10-05,1,,,,,ワタナベソウギョウ,0
2354,7380001028236,登記記録の閉鎖等,0,2021-10-11,2021-10-06,こころｅパワー株式会社,,株式会社,福島県,福島市,鎌田字舟戸前１５番地１,,07,201,9600102,,,2021-10-06,合併による解散等,8380001003122,令和３年１０月１日福島市鎌田字舟戸前１５番地１こころネット株式会社（8380001003122）に合併し解散,2017-06-26,1,,,,,ココロイーパワー,0
2356,7410001005033,登記記録の閉鎖等,0,2021-10-11,2021-10-05,秋田ルビコン株式会社,,株式会社,秋田県,由利本荘市,東由利舘合字上ノ代１番地１,,05,210,0150221,,,2021-10-05,合併による解散等,6100001020948,令和３年１０月１日長野県伊那市西箕輪１９３８番地１ルビコン株式会社（6100001020948）に合併し解散,2015-10-05,1,,,,,アキタルビコン,0
2359,7420002016292,登記記録の閉鎖等,0,2021-10-11,2021-10-01,有限会社マシーン,,有限会社,青森県,弘前市,大字神田５丁目４番地１,,02,202,0368061,,,2021-10-01,合併による解散等,2420001010318,令和３年１０月１日青森県弘前市大字石川字春仕内１０７番地株式会社ＭＡＣＳ（2420001010318）に合併し解散,2015-10-05,1,,,,,マシーン,0
2361,7430001029286,登記記録の閉鎖等,0,2021-10-11,2021-10-04,道民運輸株式会社,,株式会社,北海道,札幌市東区,苗穂町２丁目１番３０号,,01,103,0650043,,,2021-10-04,清算の結了等,,,2015-10-05,1,,,,,ドウミンウンユ,0
2367,7460305001616,登記記録の閉鎖等,0,2021-10-11,2021-10-05,中小企業経営支援事業協同組合,,その他の設立登記法人,北海道,網走市,南六条西２丁目４番地１,,01,211,0930016,,,2021-10-05,清算の結了等,,,2015-10-05,1,,,,,,0
2369,7470001006793,登記記録の閉鎖等,0,2021-10-11,2021-10-06,日本空間造形株式会社,,株式会社,香川県,木田郡三木町,大字氷上１２３１番地,,37,341,7610612,,,2021-10-06,清算の結了等,,,2015-10-05,1,,,,,ニホンクウカンゾウケイ,0
2386,8010001081007,登記記録の閉鎖等,0,2021-10-11,2021-10-07,株式会社ジーコムネット,,株式会社,東京都,港区,芝公園１丁目１番１２号,,13,103,1050011,,,2021-10-07,合併による解散等,2010401069169,令和３年１０月１日東京都港区六本木六丁目１０番１号株式会社テクノプロ（2010401069169）に合併し解散,2015-10-05,1,,,,,ジーコムネット,0
2387,8010001138558,登記記録の閉鎖等,0,2021-10-11,2021-10-01,Ｃｙｎａｐｓｅ株式会社,,株式会社,東京都,千代田区,神田佐久間町３丁目３８番地,,13,101,1010025,,,2021-10-01,合併による解散等,1010001174378,令和３年１０月１日東京都千代田区神田佐久間町三丁目３８番地データリファイメント株式会社（1010001174378）に合併し解散,2015-10-05,1,,,,,サイナプス,0
2389,8010001166922,登記記録の閉鎖等,0,2021-10-11,2021-10-01,株式会社クォンタムジャンプコンサルティング,,株式会社,東京都,千代田区,一番町８番地１５,,13,101,1020082,,,2021-10-01,合併による解散等,5010001141754,令和３年１０月１日東京都千代田区一番町８番地１５株式会社スマートグリッド（5010001141754）に合併し解散,2015-10-05,1,,,,,クォンタムジャンプコンサルティング,0
2418,8010801023018,登記記録の閉鎖等,0,2021-10-11,2021-10-04,株式会社ウエーブテック,,株式会社,東京都,大田区,矢口３丁目２８番８－６２０号,,13,111,1460093,,,2021-10-04,清算の結了等,,,2015-10-05,1,,,,,ウエーブテック,0
2419,8010802000791,登記記録の閉鎖等,0,2021-10-11,2021-10-04,有限会社アマミ電機工業所,,有限会社,東京都,大田区,上池台３丁目１８番４号,,13,111,1450064,,,2021-10-04,清算の結了等,,,2015-10-05,1,,,,,アマミデンキコウギョウショ,0
2449,8012401016616,登記記録の閉鎖等,0,2021-10-11,2021-09-30,株式会社航空経営研究所,,株式会社,東京都,府中市,清水が丘１丁目１９番地の４,,13,206,1830015,,,2021-09-30,清算の結了等,,,2015-10-05,1,,,,,コウクウケイエイケンキュウジョ,0
2457,8013301017951,登記記録の閉鎖等,0,2021-10-11,2021-10-07,スプリームシステム株式会社,,株式会社,東京都,豊島区,東池袋２丁目６０番３号グレイスロータリービル７Ｆ,,13,116,1700013,,,2021-10-07,合併による解散等,4010401161023,令和３年１０月１日東京都港区赤坂八丁目１１番３７号スプリームシステム株式会社（4010401161023）に合併し解散,2015-10-05,1,,,,,スプリームシステム,0
2460,8020001010245,登記記録の閉鎖等,0,2021-10-11,2021-10-04,株式会社天商,,株式会社,神奈川県,横浜市保土ケ谷区,天王町２丁目３７番地２,,14,106,2400003,,,2021-10-04,清算の結了等,,,2015-10-05,1,,,,,,0
2469,8020002030696,登記記録の閉鎖等,0,2021-10-11,2021-10-04,有限会社タエーコーポレーション,,有限会社,神奈川県,横浜市南区,六ツ川１丁目６９３番地の７１,,14,105,2320066,,,2021-10-04,清算の結了等,,,2015-10-05,1,,,,,タエーコーポレーション,0
2481,8030001006317,登記記録の閉鎖等,0,2021-10-11,2021-09-29,日本ビニル工業株式会社,,株式会社,埼玉県,さいたま市浦和区,北浦和５丁目３番２０号,,11,107,3300074,,,2021-09-29,清算の結了等,,,2015-10-05,1,,,,,ニホンビニルコウギョウ,0
2489,8040001013403,登記記録の閉鎖等,0,2021-10-11,2021-09-30,フレンチブルドックカンパニー株式会社,,株式会社,千葉県,市原市,椎の木台２丁目２４番地７,,12,219,2990128,,,2021-09-30,清算の結了等,,,2015-10-05,1,,,,,フレンチブルドックカンパニー,0
2511,8080001008440,登記記録の閉鎖等,0,2021-10-11,2021-10-08,株式会社スギジン,,株式会社,静岡県,静岡市清水区,入江南町９番２１号,,22,103,4240832,,,2021-10-08,清算の結了等,,,2015-10-05,1,,,,,スギジン,0
2519,8100001014345,登記記録の閉鎖等,0,2021-10-11,2021-10-05,株式会社ユアーテクノ,,株式会社,長野県,松本市,大字和田５５１１番地１９,,20,202,3901242,,,2021-10-05,清算の結了等,,,2015-10-05,1,,,,,,0
2520,8100002011465,登記記録の閉鎖等,0,2021-10-11,2021-10-05,有限会社茂木新聞店,,有限会社,長野県,北佐久郡御代田町,大字御代田３９１０番地１７,,20,323,3890206,,,2021-10-05,清算の結了等,,,2015-10-05,1,,,,,モテキシンブンテン,0
2521,8100002013602,登記記録の閉鎖等,0,2021-10-11,2021-10-05,飯川電設工業有限会社,,有限会社,長野県,上田市,小泉５８２番地２,,20,203,3861106,,,2021-10-05,清算の結了等,,,2015-10-05,1,,,,,イイカワデンセツコウギョウ,0
2555,8130001070055,登記記録の閉鎖等,0,2021-10-11,2021-10-06,大鴻産業株式会社,,株式会社,京都府,京都市南区,西九条蔵王町６２番地,,26,107,6018414,,,2021-10-06,清算の結了等,,,2021-09-08,1,,,,,タイコウサンギョウ,0
2573,8140005022489,登記記録の閉鎖等,0,2021-10-11,2021-10-06,特定非営利活動法人ハーネスの会,,その他の設立登記法人,兵庫県,姫路市,上手野３２０番地８,,28,201,6700065,,,2021-10-06,清算の結了等,,,2015-10-05,1,,,,,ハーネスノカイ,0
2604,8190001010154,登記記録の閉鎖等,0,2021-10-11,2021-10-08,河村鉄工鈑金株式会社,,株式会社,三重県,松阪市,塚本町２４番地,,24,204,5150811,,,2021-10-08,清算の結了等,,,2015-10-05,1,,,,,カワムラテッコウバンキン,0
2614,8210001014846,登記記録の閉鎖等,0,2021-10-11,2021-10-05,ジーエヌ株式会社,,株式会社,福井県,福井市,若杉３丁目１７１３番地１,,18,201,9188055,,,2021-10-05,清算の結了等,,,2015-10-05,1,,,,,ジーエヌ,0
2618,8230001001157,登記記録の閉鎖等,0,2021-10-11,2021-10-01,シキノ産業株式会社,,株式会社,富山県,富山市,針原中町４１９－１,,16,201,9318431,,,2021-10-01,合併による解散等,6230001001225,令和３年１０月１日富山市針原中町４１９－１島宇石油販売株式会社（6230001001225）に合併し解散,2015-10-05,1,,,,,シキノサンギョウ,0
2633,8260005009425,登記記録の閉鎖等,0,2021-10-11,2021-09-29,特定非営利活動法人歌音文化会,,その他の設立登記法人,岡山県,真庭市,大庭５３９番地２,,33,214,7193102,,,2021-09-29,清算の結了等,,,2015-10-05,1,,,,,カノンブンカカイ,0
2636,8290001037872,登記記録の閉鎖等,0,2021-10-11,2021-09-30,株式会社Ｋ＆Ａ,,株式会社,福岡県,福岡市東区,みどりが丘１丁目３番４号,,40,131,8130021,,,2021-09-30,合併による解散等,8290002029852,令和３年９月３０日福岡市東区香椎照葉三丁目３番１－３４０１号株式会社彩（8290002029852）に合併し解散,2015-10-05,1,,,,,ケーアンドエー,0
2643,8290002038390,登記記録の閉鎖等,0,2021-10-11,2021-10-01,親和通信工業有限会社,,有限会社,福岡県,糟屋郡志免町,志免２丁目７番１２号,,40,343,8112202,,,2021-10-01,合併による解散等,9290001039406,令和３年１０月１日福岡県糟屋郡志免町志免二丁目７番１２号大成総合企画株式会社（9290001039406）に合併し解散,2015-10-05,1,,,,,シンワツウシンコウギョウ,0
2664,8340002005179,登記記録の閉鎖等,0,2021-10-11,2021-10-04,有限会社スコット商会,,有限会社,鹿児島県,鹿児島市,金生町７番１０号,,46,201,8920828,,,2021-10-04,清算の結了等,,,2015-10-05,1,,,,,スコットショウカイ,0
2665,8340002015938,登記記録の閉鎖等,0,2021-10-11,2021-10-01,有限会社たき調剤薬局,,有限会社,鹿児島県,姶良市,西餅田５７２番地,00099364,46,225,8995431,,,2021-10-01,清算の結了等,,,2015-10-05,1,,,,,タキチョウザイヤッキョク,0
2669,8360002021323,登記記録の閉鎖等,0,2021-10-11,2021-10-01,有限会社平良造園,,有限会社,沖縄県,石垣市,字新川２３５７番地の１８６,,47,207,9070024,,,2021-10-01,清算の結了等,,,2015-10-05,1,,,,,タイラゾウエン,0
2699,8460102001909,登記記録の閉鎖等,0,2021-10-11,2021-10-05,有限会社タカラサプライ帯広,,有限会社,北海道,帯広市,西十七条南１丁目１６番１１号,,01,207,0800027,,,2021-10-05,合併による解散等,2430001010127,令和３年９月２９日札幌市手稲区星置一条三丁目４番１号ティービーエル株式会社（2430001010127）に合併し解散,2015-10-05,1,,,,,,0
2712,9010001031877,登記記録の閉鎖等,0,2021-10-11,2021-10-05,ラドセーフテクニカルサービス株式会社,,株式会社,東京都,品川区,西五反田２丁目１２番１９号,,13,109,1410031,,,2021-10-05,合併による解散等,7140001004624,令和３年１０月１日神戸市西区高塚台三丁目２番地１６エア・ウォーター防災株式会社（7140001004624）に合併し解散,2015-10-05,1,,,,,ラドセーフテクニカルサービス,0
2728,9010501007625,登記記録の閉鎖等,0,2021-10-11,2021-10-04,株式会社宝屋,,株式会社,東京都,台東区,雷門１丁目５番６－９１号,,13,106,1110034,,,2021-10-04,清算の結了等,,,2015-10-05,1,,,,,,0
2732,9010601054063,登記記録の閉鎖等,0,2021-10-11,2021-09-28,ユナ株式会社,,株式会社,東京都,江東区,豊洲３丁目４番１－１７０５号,,13,108,1350061,,,2021-09-28,清算の結了等,,,2018-10-15,1,,,,,ユナ,0
2747,9011001104937,登記記録の閉鎖等,0,2021-10-11,2021-10-07,株式会社レジリエント,,株式会社,東京都,渋谷区,代々木１丁目２５番５号,,13,113,1510053,,,2021-10-07,清算の結了等,,,2015-10-05,1,,,,,レジリエント,0
2798,9030003008780,登記記録の閉鎖等,0,2021-10-11,2021-09-29,ＭＥコンサル合同会社,,合同会社,埼玉県,八潮市,八潮６丁目２３番地１,,11,234,3400815,,,2021-09-29,清算の結了等,,,2016-05-02,1,,,,,エムイーコンサル,0
2801,9040001067084,登記記録の閉鎖等,0,2021-10-11,2021-10-01,株式会社渡辺材木店,,株式会社,千葉県,我孫子市,寿１丁目８番２号,,12,222,2701152,,,2021-10-01,清算の結了等,,,2015-10-05,1,,,,,ワタナベザイモクテン,0
2808,9040002061805,登記記録の閉鎖等,0,2021-10-11,2021-10-04,有限会社渡貫商事,,有限会社,千葉県,佐倉市,城６８５番地,,12,212,2850815,,,2021-10-04,清算の結了等,,,2015-10-05,1,,,,,ワタヌキショウジ,0
2824,9060002027011,登記記録の閉鎖等,0,2021-10-11,2021-10-04,有限会社三友工業,,有限会社,栃木県,矢板市,東町９番３３号,,09,211,3292136,,,2021-10-04,清算の結了等,,,2015-10-05,1,,,,,サンユウコウギョウ,0
2830,9070002024692,登記記録の閉鎖等,0,2021-10-11,2021-10-07,有限会社星野商店,,有限会社,群馬県,桐生市,新里町板橋６７番地の３,,10,203,3760136,,,2021-10-07,清算の結了等,,,2015-10-05,1,,,,,ホシノショウテン,0
2833,9100001011036,登記記録の閉鎖等,0,2021-10-11,2021-10-05,信州富士電機株式会社,,株式会社,長野県,上田市,御嶽堂字原山２５３５番地,,20,203,3860412,,,2021-10-05,合併による解散等,3190001016429,令和３年１０月１日三重県四日市市富士町１番２７号株式会社三重富士（3190001016429）に合併し解散,2015-10-05,1,,,,,シンシュウフジデンキ,0
2840,9110001013634,登記記録の閉鎖等,0,2021-10-11,2021-10-06,株式会社ＭＩＫＡＤＯ,,株式会社,新潟県,新潟市中央区,米山４丁目１番３１号紫竹綜合ビル２２１号,,15,103,9500916,,,2021-10-06,清算の結了等,,,2015-10-05,1,,,,,,0
2841,9110002026965,登記記録の閉鎖等,0,2021-10-11,2021-09-29,有限会社エステートプランニング長岡,,有限会社,新潟県,長岡市,北山３丁目１番地５,,15,202,9402114,,,2021-09-29,清算の結了等,,,2015-10-05,1,,,,,エステートプランニングナガオカ,0
2847,9120001181083,登記記録の閉鎖等,0,2021-10-11,2021-10-05,株式会社Ｆｅｌｉｚ,,株式会社,大阪府,大阪市中央区,谷町５丁目６番７号,,27,128,5400012,,,2021-10-05,清算の結了等,,,2015-10-05,1,,,,,,0
2848,9120001205825,登記記録の閉鎖等,0,2021-10-11,2021-10-05,ポポリー株式会社,,株式会社,大阪府,大阪市北区,西天満５丁目１番９号,,27,127,5300047,,,2021-10-05,清算の結了等,,,2017-05-24,1,,,,,ポポリー,0
2872,9130002022368,登記記録の閉鎖等,0,2021-10-11,2021-10-05,有限会社オクト,,有限会社,京都府,京都市右京区,宇多野柴橋町８番地１１,,26,108,6168203,,,2021-10-05,清算の結了等,,,2015-10-05,1,,,,,オクト,0
2883,9140001105866,登記記録の閉鎖等,0,2021-10-11,2021-10-06,株式会社やまやレストランシステムズ,,株式会社,兵庫県,神戸市須磨区,弥栄台５丁目１９番地の２,,28,107,6540161,,,2021-10-06,清算の結了等,,,2017-04-21,1,,,,,ヤマヤレストランシステムズ,0
2893,9160001010494,登記記録の閉鎖等,0,2021-10-11,2021-10-08,株式会社コトー,,株式会社,滋賀県,東近江市,南清水町７２５番地,,25,213,5270127,,,2021-10-08,合併による解散等,5120001003530,令和３年９月２１日大阪市西成区南津守四丁目１番７号ジュラロン株式会社（5120001003530）に合併し解散,2015-10-05,1,,,,,コトー,0
2896,9160001015774,登記記録の閉鎖等,0,2021-10-11,2021-10-07,株式会社モス,,株式会社,滋賀県,野洲市,吉地１１４８,,25,210,5202413,,,2021-10-07,清算の結了等,,,2015-10-05,1,,,,,モス,0
2908,9180002053739,登記記録の閉鎖等,0,2021-10-11,2021-10-05,有限会社テクノナカコ,,有限会社,愛知県,名古屋市中村区,烏森町７丁目３２１番地の２,,23,105,4530855,,,2021-10-05,清算の結了等,,,2015-10-05,1,,,,,テクノナカコ,0
2911,9180003021678,登記記録の閉鎖等,0,2021-10-11,2021-09-17,由章殖産合資会社,,合資会社,愛知県,名古屋市中区,錦１丁目１１番２０号大永ビル９階,,23,106,4600003,,,2021-09-17,清算の結了等,,,2020-10-09,1,,,,,ヨシアキショクサン,0
2918,9180302009746,登記記録の閉鎖等,0,2021-10-11,2021-10-06,有限会社牧野建築設計事務所,,有限会社,愛知県,豊橋市,東岩田３丁目１４番地の６,,23,201,4400033,,,2021-10-06,清算の結了等,,,2015-10-05,1,,,,,マキノケンチクセッケイジムショ,0
2921,9200001014400,登記記録の閉鎖等,0,2021-10-11,2021-10-08,株式会社矢橋巧務店,,株式会社,岐阜県,大垣市,赤坂町２２６番地,,21,202,5032213,,,2021-10-08,合併による解散等,4200001014405,令和３年１０月１日岐阜県大垣市赤坂町２２６番地矢橋林業株式会社（4200001014405）に合併し解散,2015-10-05,1,,,,,ヤバシコウムテン,0
2922,9200002004771,登記記録の閉鎖等,0,2021-10-11,2021-10-08,有限会社名岐亭,,有限会社,岐阜県,岐阜市,神田町８丁目１５番地,,21,201,5008833,,,2021-10-08,清算の結了等,,,2015-10-05,1,,,,,メイギテイ,0
2925,9210005005543,登記記録の閉鎖等,0,2021-10-11,2021-10-05,下据生産森林組合,,その他の設立登記法人,福井県,大野市,下据第１７号２８番地,,18,205,9120431,,,2021-10-05,清算の結了等,,,2015-10-05,1,,,,,シモシガラミ,0
2986,9370201003277,登記記録の閉鎖等,0,2021-10-11,2021-09-30,株式会社二階堂土木,,株式会社,宮城県,栗原市,金成梨崎佐野３２番地,,04,213,9895173,,,2021-09-30,清算の結了等,,,2015-10-05,1,,,,,ニカイドウドボク,0
3001,9430003003502,登記記録の閉鎖等,0,2021-10-11,2021-10-05,エスケー電気工業株式会社,,株式会社,北海道,苫小牧市,新中野町３丁目７番８号,,01,213,0530006,,,2021-10-05,合併による解散等,3430001004458,令和３年９月２１日福井県坂井市春江町沖布目第３８号３番地未来のアグリ株式会社（3430001004458）に合併し解散,2015-10-05,1,,,,,エスケーデンキコウギョウ,0
3002,9440002002966,登記記録の閉鎖等,0,2021-10-11,2021-10-05,有限会社道南機工,,有限会社,北海道,函館市,宮前町３２番１３号,,01,202,0400073,,,2021-10-05,合併による解散等,2430001010127,令和３年９月２９日札幌市手稲区星置一条三丁目４番１号ティービーエル株式会社（2430001010127）に合併し解散,2015-10-05,1,,,,,ドウナンキコウ,0
