sequenceNumber,corporateNumber,process,correct,updateDate,changeDate,name,nameImageId,kind,prefectureName,cityName,streetNumber,addressImageId,prefectureCode,cityCode,postCode,addressOutside,addressOutsideImageId,closeDate,closeCause,successorCorporateNumber,changeCause,assignmentDate,latest,enName,enPrefectureName,enCityName,enAddressOutside,furigana,hihyoji
1,1010001001961,登記記録の閉鎖等,0,2021-11-17,2021-11-11,協和海外旅行株式会社,,株式会社,東京都,文京区,本郷４丁目５番１０号,,13,105,1130033,,,2021-11-11,清算の結了等,,,2015-10-05,1,,,,,キョウワカイガイリョコウ,0
23,1010003024440,登記記録の閉鎖等,0,2021-11-17,2021-11-12,日光Ｐｌｕｓホールディング合同会社,,合同会社,東京都,千代田区,丸の内３丁目１番１号東京共同会計事務所内,,13,101,1000005,,,2021-11-12,清算の結了等,,,2016-11-25,1,,,,,ニッコウプラスホールディング,0
24,1010003025001,登記記録の閉鎖等,0,2021-11-17,2021-11-12,日光ゼニスホールディング合同会社,,合同会社,東京都,千代田区,丸の内３丁目１番１号東京共同会計事務所内,,13,101,1000005,,,2021-11-12,清算の結了等,,,2017-03-13,1,,,,,ニッコウゼニスホールディング,0
51,1010501045888,登記記録の閉鎖等,0,2021-11-17,2021-11-15,ＰＥＥＲ８株式会社,,株式会社,東京都,台東区,浅草橋５丁目８番１１号大富ビルＡＫＩＢＡＥＡＳＴビジネスセンター５０３号室,,13,106,1110053,,,2021-11-15,清算の結了等,,,2020-06-22,1,,,,,ピアーエイト,0
60,1010702007126,登記記録の閉鎖等,0,2021-11-17,2021-11-12,富士工販有限会社,,有限会社,東京都,品川区,荏原４丁目１１番２号,,13,109,1420063,,,2021-11-12,清算の結了等,,,2015-10-05,1,,,,,フジコウハン,0
61,1010702013438,登記記録の閉鎖等,0,2021-11-17,2021-11-17,有限会社ぶなの木出版,,有限会社,東京都,品川区,南大井３丁目１５番１１号ハイライフ大森３０４号室,,13,109,1400013,,,2021-11-17,清算の結了等,,,2015-10-05,1,,,,,ブナノキシュツパン,0
69,1010903001480,登記記録の閉鎖等,0,2021-11-17,2021-11-12,ルミナス合同会社,,合同会社,東京都,世田谷区,赤堤２丁目５番１０号豪徳寺ハイム３０３号,,13,112,1560044,,,2021-11-12,清算の結了等,,,2015-10-05,1,,,,,ルミナス,0
81,1011101007551,登記記録の閉鎖等,0,2021-11-17,2021-11-10,株式会社三恵ロード,,株式会社,東京都,新宿区,西新宿１丁目１５番１３号西新宿島田ビル３階,,13,104,1600023,,,2021-11-10,清算の結了等,,,2015-10-05,1,,,,,サンケイロード,0
105,1013201000493,登記記録の閉鎖等,0,2021-11-17,2021-11-15,株式会社イクタ工業,,株式会社,東京都,目黒区,八雲２丁目２３番９号,,13,110,1520023,,,2021-11-15,清算の結了等,,,2015-10-05,1,,,,,イクタコウギョウ,0
178,1090001015616,登記記録の閉鎖等,0,2021-11-17,2021-11-11,株式会社アグリ甲州,,株式会社,山梨県,甲州市,勝沼町藤井４２１番地,,19,213,4091314,,,2021-11-11,清算の結了等,,,2018-06-20,1,,,,,アグリコウシュウ,0
182,1110001011455,登記記録の閉鎖等,0,2021-11-17,2021-11-11,株式会社旗野住研,,株式会社,新潟県,阿賀野市,保田３２７０番地１,,15,223,9592221,,,2021-11-11,清算の結了等,,,2015-10-05,1,,,,,ハタノジュウケン,0
183,1110001027419,登記記録の閉鎖等,0,2021-11-17,2021-11-12,知的財産権研究機構・Ｉ　ｐｒｓｍ株式会社,,株式会社,新潟県,長岡市,中沢１丁目２３１３番地１,,15,202,9400853,,,2021-11-12,清算の結了等,,,2015-10-05,1,,,,,チテキザイサンケンケンキュウキコウアイプリズム,0
184,1110001033714,登記記録の閉鎖等,0,2021-11-17,2021-11-10,株式会社三林,,株式会社,新潟県,燕市,松橋１０９番地３,,15,213,9591202,,,2021-11-10,清算の結了等,,,2018-12-21,1,,,,,サンリン,0
188,1120001036518,登記記録の閉鎖等,0,2021-11-17,2021-11-12,株式会社丸廣,,株式会社,大阪府,大阪市福島区,野田２丁目８番１０号,,27,103,5530005,,,2021-11-12,清算の結了等,,,2015-10-05,1,,,,,マルヒロ,0
206,1120101030362,登記記録の閉鎖等,0,2021-11-17,2021-11-15,南大阪車輌株式会社,,株式会社,大阪府,高石市,取石５丁目７番３号,,27,225,5920013,,,2021-11-15,清算の結了等,,,2015-10-05,1,,,,,ミナミオオサカシャリョウ,0
211,1120105006350,登記記録の閉鎖等,0,2021-11-17,2021-11-02,天理教榮二分教会,,その他の設立登記法人,大阪府,泉佐野市,新町２丁目２番１０号,,27,213,5980051,,,2021-11-02,合併による解散等,6170005000601,令和３年１１月１日和歌山市北中間町３番地天理教紀榮分教会（6170005000601）に合併し解散,2015-10-05,1,,,,,,0
218,1120902008953,登記記録の閉鎖等,0,2021-11-17,2021-11-15,有限会社ナガオカ,,有限会社,大阪府,摂津市,一津屋３丁目１０番１７号,,27,224,5660043,,,2021-11-15,清算の結了等,,,2015-10-05,1,,,,,ナガオカ,0
229,1140001025205,登記記録の閉鎖等,0,2021-11-17,2021-11-12,近畿産業車輌サービス株式会社,,株式会社,兵庫県,神戸市灘区,天城通１丁目３番７号ロイヤルハイツ３０４号,,28,102,6570823,,,2021-11-12,清算の結了等,,,2015-10-05,1,,,,,,0
243,1170002009063,登記記録の閉鎖等,0,2021-11-17,2021-11-15,有限会社堀本商店,,有限会社,和歌山県,田辺市,本町３７番地,,30,206,6460046,,,2021-11-15,清算の結了等,,,2015-10-05,1,,,,,ホリモトショウテン,0
255,1180002032196,登記記録の閉鎖等,0,2021-11-17,2021-11-15,有限会社名古屋プリント,,有限会社,愛知県,名古屋市中区,丸の内２丁目１１番６号,,23,106,4600002,,,2021-11-15,清算の結了等,,,2015-10-05,1,,,,,ナゴヤプリント,0
267,1210002010594,登記記録の閉鎖等,0,2021-11-17,2021-11-12,有限会社平野工業,,有限会社,福井県,敦賀市,金山８２号２番地の４,,18,202,9140146,,,2021-11-12,清算の結了等,,,2015-10-05,1,,,,,ヒラノコウギョウ,0
282,1270001006191,登記記録の閉鎖等,0,2021-11-17,2021-11-12,株式会社ウォータープラント,,株式会社,鳥取県,米子市,八幡２７５番地,,31,202,6830012,,,2021-11-12,清算の結了等,,,2015-10-05,1,,,,,ウォータープラント,0
297,1320001013843,登記記録の閉鎖等,0,2021-11-17,2021-11-15,メンタルビジネスジャパン株式会社,,株式会社,大分県,大分市,都町１丁目２番１号,,44,201,8700034,,,2021-11-15,合併による解散等,6320001004508,令和３年１１月１５日大分市都町一丁目２番１号ＪＡＳＰＡ株式会社（6320001004508）に合併し解散,2015-10-05,1,,,,,メンタルビジネスジャパン,0
324,1400001007465,登記記録の閉鎖等,0,2021-11-17,2021-11-15,星和機械工業株式会社,,株式会社,岩手県,釜石市,小佐野町４丁目１番２７号,,03,211,0260052,,,2021-11-15,清算の結了等,,,2015-10-05,1,,,,,セイワキカイコウギョウ,0
325,1410001003190,登記記録の閉鎖等,0,2021-11-17,2021-11-11,株式会社石橋内装,,株式会社,秋田県,秋田市,仁井田二ツ屋１丁目１１番８号,,05,201,0101431,,,2021-11-11,清算の結了等,,,2021-01-08,1,,,,,イシバシナイソウ,0
336,1500002005490,登記記録の閉鎖等,0,2021-11-17,2021-11-16,有限会社東調剤薬局,,有限会社,愛媛県,松山市,松末２丁目１９番４０号,,38,201,7900915,,,2021-11-16,清算の結了等,,,2015-10-05,1,,,,,ヒガシチョウザイヤッキョク,0
368,2010401146802,登記記録の閉鎖等,0,2021-11-17,2021-11-12,株式会社ＨＢ　Ｌａｂ,,株式会社,東京都,品川区,東大井６丁目８－１６－１０１,,13,109,1400011,,,2021-11-12,清算の結了等,,,2019-07-17,1,,,,,ヘルスビューティーラボ,0
393,2011102014224,登記記録の閉鎖等,0,2021-11-17,2021-11-11,有限会社レンタル白衣,,有限会社,東京都,新宿区,新宿５丁目１７番６－９０８号,,13,104,1600022,,,2021-11-11,清算の結了等,,,2015-10-05,1,,,,,レンタルハクイ,0
397,2011401000148,登記記録の閉鎖等,0,2021-11-17,2021-11-12,株式会社亜光産業,,株式会社,東京都,板橋区,双葉町８番４号,,13,119,1730011,,,2021-11-12,清算の結了等,,,2015-10-05,1,,,,,アコウサンギョウ,0
440,2021001065763,登記記録の閉鎖等,0,2021-11-17,2021-11-01,株式会社ＷＤＫ,,株式会社,神奈川県,藤沢市,湘南台２丁目６番１号４階,,14,205,2520804,,,2021-11-01,合併による解散等,2021001051565,令和３年１１月１日神奈川県藤沢市鵠沼橘一丁目２番１０号株式会社ｒｅｌｍｅ（2021001051565）に合併し解散,2018-10-05,1,,,,,ダブルディーケー,0
473,2040002018043,登記記録の閉鎖等,0,2021-11-17,2021-11-09,有限会社ウェルテック,,有限会社,千葉県,習志野市,東習志野６丁目９番２４号,,12,216,2750001,,,2021-11-09,清算の結了等,,,2015-10-05,1,,,,,ウェルテック,0
476,2040003000306,登記記録の閉鎖等,0,2021-11-17,2021-11-11,合資会社島崎商事,00021197,合資会社,千葉県,千葉市稲毛区,六方町４５番地７,,12,103,2630004,,,2021-11-11,清算の結了等,,,2015-10-05,1,,,,,,0
520,2122002002299,登記記録の閉鎖等,0,2021-11-17,2021-11-04,有限会社酒井工業,,有限会社,大阪府,東大阪市,小阪２丁目１７番１１号,,27,227,5770801,,,2021-11-04,清算の結了等,,,2015-10-05,1,,,,,サカイコウギョウ,0
531,2130005015490,登記記録の閉鎖等,0,2021-11-17,2021-11-11,弁護士法人宇治こはな法律事務所,,その他の設立登記法人,京都府,宇治市,広野町西裏５４番地１７,,26,204,6110031,,,2021-11-11,清算の結了等,,,2019-01-21,1,,,,,ウジコハナホウリツジムショ,0
540,2180001054620,登記記録の閉鎖等,0,2021-11-17,2021-11-10,株式会社ドリームワン,,株式会社,愛知県,半田市,岩滑西町９丁目１０１番地,,23,205,4750966,,,2021-11-10,清算の結了等,,,2015-10-05,1,,,,,ドリームワン,0
542,2180001103484,登記記録の閉鎖等,0,2021-11-17,2021-11-12,緑ｅｃｏ株式会社,,株式会社,愛知県,名古屋市緑区,滝ノ水１丁目８０９番地,,23,114,4580021,,,2021-11-12,清算の結了等,,,2015-10-05,1,,,,,ミドリエコ,0
545,2180001130751,登記記録の閉鎖等,0,2021-11-17,2021-11-10,株式会社山電,,株式会社,兵庫県,相生市,本郷町３番１３号,,28,208,6780006,,,2021-11-10,清算の結了等,,,2018-01-15,1,,,,,ヤマデン,0
555,2180002070377,登記記録の閉鎖等,0,2021-11-17,2021-11-12,有限会社ステファンペペ,,有限会社,愛知県,小牧市,大字小牧原新田７４５番地の６５,,23,219,4850012,,,2021-11-12,清算の結了等,,,2015-10-05,1,,,,,ステファンペペ,0
578,2230001007886,登記記録の閉鎖等,0,2021-11-17,2021-11-02,株式会社細岡屋,,株式会社,富山県,滑川市,上小泉１０３９番地の１,,16,206,9360053,,,2021-11-02,清算の結了等,,,2018-03-20,1,,,,,ホソオカヤ,0
609,2340002023038,登記記録の閉鎖等,0,2021-11-17,2021-11-12,有限会社横山友吉商店,,有限会社,鹿児島県,出水市,緑町７番３号,,46,208,8990201,,,2021-11-12,清算の結了等,,,2015-10-05,1,,,,,ヨコヤマトモキチショウテン,0
641,2500002005036,登記記録の閉鎖等,0,2021-11-17,2021-11-15,有限会社西岡庭石,,有限会社,愛媛県,松山市,上野町甲１０９番地,,38,201,7911136,,,2021-11-15,清算の結了等,,,2015-10-05,1,,,,,ニシオカテイセキ,0
665,3010401154589,登記記録の閉鎖等,0,2021-11-17,2021-11-05,マスターファンド・ジャパン株式会社,,株式会社,東京都,港区,南麻布３丁目１９番２３号オーク南麻布ビル２階,,13,103,1060047,,,2021-11-05,清算の結了等,,,2020-08-18,1,,,,,マスターファンドジャパン,0
674,3010601040572,登記記録の閉鎖等,0,2021-11-17,2021-11-10,株式会社かいしん不動産,,株式会社,東京都,江東区,扇橋３丁目１５番９号岡田ビル１階,,13,108,1350011,,,2021-11-10,清算の結了等,,,2015-10-05,1,,,,,カイシンフドウサン,0
752,3020002034495,登記記録の閉鎖等,0,2021-11-17,2021-11-15,有限会社大桜測量,,有限会社,神奈川県,横浜市港北区,綱島西４丁目１２番２２号綱島コーポ５０４,,14,109,2230053,,,2021-11-15,清算の結了等,,,2015-10-05,1,,,,,ダイオウソクリョウ,0
766,3030002087261,登記記録の閉鎖等,0,2021-11-17,2021-11-11,有限会社ガモウオリコミ,,有限会社,埼玉県,越谷市,蒲生本町１３番地８号,,11,222,3430837,,,2021-11-11,清算の結了等,,,2015-10-05,1,,,,,ガモウオリコミ,0
777,3040001072123,登記記録の閉鎖等,0,2021-11-17,2021-11-08,株式会社関東クリーンサービス,,株式会社,千葉県,野田市,上花輪１１４８番地の５吉野ビル,,12,208,2780033,,,2021-11-08,清算の結了等,,,2015-10-05,1,,,,,,0
781,3040001094860,登記記録の閉鎖等,0,2021-11-17,2021-11-12,山下工業株式会社,,株式会社,千葉県,千葉市緑区,誉田町２丁目２番地１０６グラン・コート誉田３０８号,,12,105,2660005,,,2021-11-12,清算の結了等,,,2016-04-13,1,,,,,ヤマシタコウギョウ,0
807,3050003001112,登記記録の閉鎖等,0,2021-11-17,2021-11-11,合同会社パーソンズジャパン,,合同会社,茨城県,つくば市,花畑３丁目１９番地２６,,08,220,3003261,,,2021-11-11,清算の結了等,,,2015-10-05,1,,,,,パーソンズジャパン,0
820,3070001019765,登記記録の閉鎖等,0,2021-11-17,2021-11-12,株式会社東京リード,,株式会社,群馬県,太田市,飯塚町１３３５番地,,10,205,3730817,,,2021-11-12,清算の結了等,,,2015-10-05,1,,,,,トウキョウリード,0
824,3070002028534,登記記録の閉鎖等,0,2021-11-17,2021-11-08,有限会社小川縫製,,有限会社,群馬県,太田市,宝町３０番地の１,,10,205,3730042,,,2021-11-08,清算の結了等,,,2015-10-05,1,,,,,オガワホウセイ,0
826,3080001010319,登記記録の閉鎖等,0,2021-11-17,2021-11-15,株式会社創碧社,,株式会社,静岡県,静岡市駿河区,西中原１丁目５番３２号,,22,102,4228053,,,2021-11-15,清算の結了等,,,2015-10-05,1,,,,,,0
885,3180001066573,登記記録の閉鎖等,0,2021-11-17,2021-11-12,株式会社オフィスシオン名古屋,,株式会社,愛知県,名古屋市守山区,城南町２番３２号,,23,113,4630014,,,2021-11-12,清算の結了等,,,2015-10-05,1,,,,,オフィスシオンナゴヤ,0
889,3180001109794,登記記録の閉鎖等,0,2021-11-17,2021-11-10,株式会社聖友会,,株式会社,愛知県,名古屋市中区,正木４丁目８番７号れんが橋ビル４階,,23,106,4600024,,,2021-11-10,清算の結了等,,,2015-10-05,1,,,,,セイユウカイ,0
893,3180002006165,登記記録の閉鎖等,0,2021-11-17,2021-11-12,小笠原産業有限会社,,有限会社,愛知県,名古屋市港区,高木町１丁目３８番地の１４,,23,111,4550821,,,2021-11-12,清算の結了等,,,2015-10-05,1,,,,,オガサワラサンギョウ,0
895,3180303003860,登記記録の閉鎖等,0,2021-11-17,2021-11-16,合同会社ＴＴクリエーション,,合同会社,愛知県,岡崎市,中町字長狭間８番地７９,,23,202,4440015,,,2021-11-16,清算の結了等,,,2017-06-01,1,,,,,ティーティークリエーション,0
930,3320001010260,登記記録の閉鎖等,0,2021-11-17,2021-11-01,九重観光株式会社,,株式会社,大分県,玖珠郡九重町,大字田野１５５１番地,,44,461,8794911,,,2021-11-01,合併による解散等,5320001010275,令和３年１１月１日大分県玖珠郡九重町大字湯坪６１２番地の１九重森林公園株式会社（5320001010275）に合併し解散,2015-10-05,1,,,,,クジュウカンコウ,0
959,3390001009197,登記記録の閉鎖等,0,2021-11-17,2021-11-15,カクサンモータース株式会社,,株式会社,山形県,尾花沢市,大字五十沢１８番地の５,,06,212,9994223,,,2021-11-15,清算の結了等,,,2015-10-05,1,,,,,カクサンモータース,0
960,3400001003636,登記記録の閉鎖等,0,2021-11-17,2021-11-01,株式会社盛コン,,株式会社,岩手県,岩手郡雫石町,沼返１１１番地１,,03,301,0200506,,,2021-11-01,合併による解散等,9400601000507,令和３年１１月１日岩手県胆沢郡金ケ崎町六原森合４３番地１株式会社六原（9400601000507）に合併し解散,2015-10-05,1,,,,,モリコン,0
981,4010001062720,登記記録の閉鎖等,0,2021-11-17,2021-10-26,株式会社シー・タック,,株式会社,東京都,小笠原村,父島字宮之浜道,,13,421,1002101,,,2021-10-26,清算の結了等,,,2015-10-05,1,,,,,シータック,0
987,4010001205493,登記記録の閉鎖等,0,2021-11-17,2021-11-12,株式会社ＦＲＥＥＣＯ,,株式会社,東京都,中央区,銀座１丁目１６番７号,,13,102,1040061,,,2021-11-12,清算の結了等,,,2019-12-17,1,,,,,フリーコ,0
1010,4010403012109,登記記録の閉鎖等,0,2021-11-17,2021-11-08,Ｒａｅｔｉａ　ＩＢＬＰ合同会社,,合同会社,東京都,港区,虎ノ門３丁目２２番１０－２０１号,,13,103,1050001,,,2021-11-08,清算の結了等,,,2015-10-05,1,,,,,ラエティアアイビーエルピー,0
1015,4010602029218,登記記録の閉鎖等,0,2021-11-17,2021-11-12,有限会社まいまい企画,,有限会社,埼玉県,川越市,大字南田島９２３番地３ＬＭ第３－４１５,,11,201,3500027,,,2021-11-12,清算の結了等,,,2015-10-05,1,,,,,マイマイキカク,0
1019,4010702002917,登記記録の閉鎖等,0,2021-11-17,2021-11-15,有限会社巧栄システマティック,,有限会社,東京都,品川区,西品川３丁目１９番１４号,,13,109,1410033,,,2021-11-15,清算の結了等,,,2015-10-05,1,,,,,コウエイシステマティック,0
1032,4011001094324,登記記録の閉鎖等,0,2021-11-17,2021-11-01,株式会社ＢＧホールディングス,,株式会社,東京都,渋谷区,道玄坂１丁目１２－１,,13,113,1500043,,,2021-11-01,清算の結了等,,,2015-10-05,1,,,,,ビージーホールディングス,0
1037,4011105006431,登記記録の閉鎖等,0,2021-11-17,2021-11-11,特定非営利活動法人多文化間メンタルヘルス研究所,,その他の設立登記法人,東京都,新宿区,下落合３丁目１６番１０号,,13,104,1610033,,,2021-11-11,清算の結了等,,,2015-10-05,1,,,,,タブンカカンメンタルヘルスケンキュウジョ,0
1048,4012401000094,登記記録の閉鎖等,0,2021-11-17,2021-11-12,株式会社アモンド,,株式会社,東京都,府中市,美好町１丁目３３番地の１,,13,206,1830045,,,2021-11-12,清算の結了等,,,2015-10-05,1,,,,,アモンド,0
1055,4013301030272,登記記録の閉鎖等,0,2021-11-17,2021-11-15,株式会社ジュピターソリューションズ,,株式会社,東京都,中野区,上鷺宮４丁目１９番１７号,,13,114,1650031,,,2021-11-15,清算の結了等,,,2015-10-05,1,,,,,ジュピターソリューションズ,0
1084,4021002049730,登記記録の閉鎖等,0,2021-11-17,2021-11-12,有限会社青貫水産,,有限会社,神奈川県,足柄下郡真鶴町,岩３４番地の６,,14,383,2590202,,,2021-11-12,清算の結了等,,,2015-10-05,1,,,,,アオカンスイサン,0
1087,4030001137181,登記記録の閉鎖等,0,2021-11-17,2021-11-10,株式会社アクセス,,株式会社,埼玉県,さいたま市見沼区,東大宮７丁目４９番地１４－１０２号室,,11,104,3370051,,,2021-11-10,清算の結了等,,,2020-07-06,1,,,,,アクセス,0
1110,4050001004867,登記記録の閉鎖等,0,2021-11-17,2021-11-01,株式会社ダイテツ,,株式会社,茨城県,那珂郡東海村,大字須和間１４５３番地２,,08,341,3191114,,,2021-11-01,合併による解散等,8050001004574,茨城県那珂市後台字野中１８０９番地株式会社大平（8050001004574）に合併し解散,2015-10-05,1,,,,,ダイテツ,0
1145,4120001132693,登記記録の閉鎖等,0,2021-11-17,2021-11-12,株式会社デザインオフィスＹＯＵ,,株式会社,大阪府,大阪市西淀川区,百島１丁目３番１００号,,27,113,5550044,,,2021-11-12,清算の結了等,,,2015-10-05,1,,,,,デザインオフィスユー,0
1160,4120005020911,登記記録の閉鎖等,0,2021-11-17,2021-11-15,一般社団法人大阪府ディスコン協会,,その他の設立登記法人,大阪府,大阪市住之江区,浜口西１丁目１７番１１号,,27,125,5590006,,,2021-11-15,清算の結了等,,,2019-06-03,1,,,,,オオサカフディスコンキョウカイ,0
1165,4120102023098,登記記録の閉鎖等,0,2021-11-17,2021-11-09,有限会社う輝舟,,有限会社,大阪府,岸和田市,行遇町１番地の２６２,,27,202,5960836,,,2021-11-09,清算の結了等,,,2015-10-05,1,,,,,ウキフネ,0
1245,4330005009231,登記記録の閉鎖等,0,2021-11-17,2021-11-12,一般社団法人九州Ｇ空間情報実践協議会,,その他の設立登記法人,熊本県,人吉市,駒井田町１０５７番地１２,,43,203,8680006,,,2021-11-12,清算の結了等,,,2015-10-05,1,,,,,キュウシュウジークウカンジョウホウジッセンキョウギカイ,0
1250,4360003009387,登記記録の閉鎖等,0,2021-11-17,2021-11-11,合同会社Ｇｏｄ’ｓＨａｎｄｓ,,合同会社,沖縄県,那覇市,泉崎２丁目１０４番地３グランドパレス泉崎ハーバービュー１１０２,,47,201,9000021,,,2021-11-11,清算の結了等,,,2019-02-27,1,,,,,ゴッズハンズ,0
1270,4450002000536,登記記録の閉鎖等,0,2021-11-17,2021-11-15,有限会社旭川豊岡六条,,有限会社,北海道,旭川市,豊岡六条７丁目２番５号,,01,204,0788236,,,2021-11-15,清算の結了等,,,2015-10-05,1,,,,,アサヒカワトヨオカロクジョウ,0
1281,4500002024265,登記記録の閉鎖等,0,2021-11-17,2021-11-15,有限会社ケンコウファーム,,有限会社,愛媛県,宇和島市,宮下甲１１１４番地,,38,203,7980085,,,2021-11-15,清算の結了等,,,2015-10-05,1,,,,,ケンコウファーム,0
1314,5010501012827,登記記録の閉鎖等,0,2021-11-17,2021-11-12,株式会社萬寿山,,株式会社,東京都,台東区,上野２丁目１３番１号,,13,106,1100005,,,2021-11-12,清算の結了等,,,2015-10-05,1,,,,,マンジュザン,0
1323,5010901018374,登記記録の閉鎖等,0,2021-11-17,2021-11-15,株式会社システム技研,,株式会社,神奈川県,三浦郡葉山町,下山口１７３２番地の１,,14,301,2400116,,,2021-11-15,清算の結了等,,,2015-10-05,1,,,,,システムギケン,0
1344,5011501008410,登記記録の閉鎖等,0,2021-11-17,2021-11-12,株式会社平岡製作所,,株式会社,東京都,荒川区,東日暮里２丁目４７番５号,,13,118,1160014,,,2021-11-12,清算の結了等,,,2015-10-05,1,,,,,ヒラオカセイサクショ,0
1402,5030001097945,登記記録の閉鎖等,0,2021-11-17,2021-11-10,株式会社トリスブレイブ,,株式会社,宮城県,仙台市若林区,舟丁３番地１,,04,103,9840806,,,2021-11-10,合併による解散等,7430001069398,令和３年１１月１日札幌市白石区東札幌五条二丁目４番３０号株式会社アインファーマシーズ（7430001069398）に合併し解散,2015-10-05,1,,,,,トリスブレイブ,0
1459,5080102015594,登記記録の閉鎖等,0,2021-11-17,2021-11-10,有限会社カーセンター,,有限会社,静岡県,富士市,天間１４０８番地の７,,22,210,4190205,,,2021-11-10,清算の結了等,,,2015-10-05,1,,,,,,0
1463,5090003001437,登記記録の閉鎖等,0,2021-11-17,2021-11-09,合同会社ＹＫファーム,,合同会社,山梨県,甲斐市,宇津谷５１５４番地,,19,210,4000108,,,2021-11-09,清算の結了等,,,2018-08-17,1,,,,,ワイケーファーム,0
1464,5090005003010,登記記録の閉鎖等,0,2021-11-17,2021-10-29,天理教都留分教会,00069044,その他の設立登記法人,山梨県,大月市,初狩町下初狩３５５番地,,19,206,4010021,,,2021-10-29,合併による解散等,7090005000864,令和３年１０月２３日山梨県甲府市中央二丁目８番１５号天理教甲府大教会（7090005000864）に合併し解散,2015-10-05,1,,,,,テンリキョウツル,0
1470,5110001032927,登記記録の閉鎖等,0,2021-11-17,2021-11-05,株式会社高齢者サポートセンター,,株式会社,新潟県,新潟市中央区,女池４丁目１８番１８号,,15,103,9500941,,,2021-11-05,清算の結了等,,,2018-01-10,1,,,,,コウレイシャサポートセンター,0
1554,5230001001580,登記記録の閉鎖等,0,2021-11-17,2021-11-09,武田建設株式会社,,株式会社,富山県,富山市,岩瀬白山町６８番地,,16,201,9318361,,,2021-11-09,清算の結了等,,,2015-10-05,1,,,,,タケダケンセツ,0
1601,5380002000914,登記記録の閉鎖等,0,2021-11-17,2021-11-12,有限会社菅野富士薬品,,有限会社,福島県,福島市,田沢字桜台３２番地の１１,,07,201,9608156,,,2021-11-12,清算の結了等,,,2015-10-05,1,,,,,カンノフジヤクヒン,0
1602,5380002020251,登記記録の閉鎖等,0,2021-11-17,2021-11-11,有限会社松島商店,,有限会社,福島県,須賀川市,南町９６番地,,07,207,9620838,,,2021-11-11,清算の結了等,,,2015-10-05,1,,,,,マツシマショウテン,0
1609,5420001005182,登記記録の閉鎖等,0,2021-11-17,2021-11-15,株式会社らくだや,,株式会社,青森県,青森市,大字大谷字小谷１番地５,,02,201,0300155,,,2021-11-15,清算の結了等,,,2015-10-05,1,,,,,,0
1660,6010901006642,登記記録の閉鎖等,0,2021-11-17,2021-11-15,株式会社祖師谷工務店,,株式会社,東京都,世田谷区,祖師谷１丁目３４番９号,,13,112,1570072,,,2021-11-15,清算の結了等,,,2015-10-05,1,,,,,ソシガヤコウムテン,0
1680,6011005008600,登記記録の閉鎖等,0,2021-11-17,2021-11-01,一般社団法人ゆらりんアカデミー,,その他の設立登記法人,東京都,渋谷区,千駄ヶ谷５丁目３４番７号,,13,113,1510051,,,2021-11-01,清算の結了等,,,2020-06-09,1,,,,,ユラリンアカデミー,0
1687,6011202003916,登記記録の閉鎖等,0,2021-11-17,2021-11-15,有限会社鶴の湯,,有限会社,東京都,中野区,江古田２丁目２１番１１号,,13,114,1650022,,,2021-11-15,清算の結了等,,,2015-10-05,1,,,,,ツルノユ,0
1710,6013301037308,登記記録の閉鎖等,0,2021-11-17,2021-11-01,株式会社メイキング,,株式会社,東京都,目黒区,中根２丁目１８番２６号コスモ都立大２０２,,13,110,1520031,,,2021-11-01,清算の結了等,,,2015-10-05,1,,,,,メイキング,0
1713,6020001059219,登記記録の閉鎖等,0,2021-11-17,2021-11-12,リーディング・エッジ株式会社,,株式会社,神奈川県,横浜市戸塚区,平戸町２０２番地１２,,14,110,2440803,,,2021-11-12,清算の結了等,,,2015-10-05,1,,,,,リーディングエッジ,0
1749,6040001034467,登記記録の閉鎖等,0,2021-11-17,2021-11-10,株式会社豊,,株式会社,千葉県,千葉市中央区,長洲１丁目１１番１－１４０４号,,12,101,2600854,,,2021-11-10,清算の結了等,,,2015-10-05,1,,,,,ユタカ,0
1756,6040002032115,登記記録の閉鎖等,0,2021-11-17,2021-11-11,有限会社アイビーエステティック,,有限会社,千葉県,市川市,南八幡３丁目７番１号,,12,203,2720023,,,2021-11-11,清算の結了等,,,2015-10-05,1,,,,,アイビーエステティック,0
1757,6040002099749,登記記録の閉鎖等,0,2021-11-17,2021-11-10,有限会社福力屋本店,,有限会社,千葉県,館山市,北条２６０３番地の１７,,12,205,2940045,,,2021-11-10,清算の結了等,,,2015-10-05,1,,,,,フクリキヤホンテン,0
1760,6050001011317,登記記録の閉鎖等,0,2021-11-17,2021-11-12,株式会社鬼沢組,,株式会社,茨城県,石岡市,小幡３１８６番地,,08,205,3150155,,,2021-11-12,清算の結了等,,,2015-10-05,1,,,,,,0
1780,6080101008466,登記記録の閉鎖等,0,2021-11-17,2021-11-10,株式会社ケント,,株式会社,静岡県,富士市,中央町２丁目２番５号,,22,210,4170052,,,2021-11-10,清算の結了等,,,2015-10-05,1,,,,,ケント,0
1826,6130001055594,登記記録の閉鎖等,0,2021-11-17,2021-11-12,株式会社Ｎｏｌｅｍ,,株式会社,大阪府,大阪市北区,角田町１番１２号,,27,127,5300017,,,2021-11-12,清算の結了等,,,2015-10-05,1,,,,,,0
1839,6140001058407,登記記録の閉鎖等,0,2021-11-17,2021-11-11,川端商事株式会社,,株式会社,兵庫県,姫路市,東辻井２丁目９番１５号,00039789,28,201,6700084,,,2021-11-11,清算の結了等,,,2015-10-05,1,,,,,カワバタショウジ,0
1843,6140001086481,登記記録の閉鎖等,0,2021-11-17,2021-11-12,株式会社ケーエムシーアドバンス,,株式会社,兵庫県,西宮市,津門川町２番９号,,28,204,6638233,,,2021-11-12,清算の結了等,,,2015-10-05,1,,,,,ケーエムシーアドバンス,0
1844,6140001090913,登記記録の閉鎖等,0,2021-11-17,2021-11-15,株式会社久々知製作所,,株式会社,大阪府,大東市,新田境町１番８号,,27,218,5740051,,,2021-11-15,清算の結了等,,,2015-10-05,1,,,,,ククチセイサクショ,0
1857,6160002008846,登記記録の閉鎖等,0,2021-11-17,2021-11-15,有限会社浦田,,有限会社,滋賀県,彦根市,平田町１３１番地２,,25,202,5220041,,,2021-11-15,清算の結了等,,,2015-10-05,1,,,,,ウラタ,0
1869,6180002040913,登記記録の閉鎖等,0,2021-11-17,2021-11-10,有限会社協和建築,,有限会社,愛知県,北名古屋市,北野五反畑４４番地,,23,234,4810034,,,2021-11-10,清算の結了等,,,2015-10-05,1,,,,,キョウワケンチク,0
1871,6180301000576,登記記録の閉鎖等,0,2021-11-17,2021-11-15,株式会社河澄土木,,株式会社,愛知県,岡崎市,丸山町字経ケ峯４２番地,,23,202,4440006,,,2021-11-15,清算の結了等,,,2015-10-05,1,,,,,カワスミドボク,0
1875,6180301033262,登記記録の閉鎖等,0,2021-11-17,2021-11-15,株式会社三河屋,,株式会社,愛知県,豊橋市,西小田原町４９番地,,23,201,4400887,,,2021-11-15,清算の結了等,,,2019-12-25,1,,,,,ミカワヤ,0
1887,6190005005227,登記記録の閉鎖等,0,2021-11-17,2021-10-29,天理教海龍分教会,00076295,その他の設立登記法人,三重県,度会郡南伊勢町,伊勢路１６９９番地,,24,472,5160112,,,2021-10-29,合併による解散等,6190005004939,令和３年１０月２９日三重県伊勢市二俣三丁目４番２１号天理教度會分教会（6190005004939）に合併し解散,2015-10-05,1,,,,,テンリキョウカイリュウブンキョウカイ,0
1889,6200001029657,登記記録の閉鎖等,0,2021-11-17,2021-11-12,株式会社寛,,株式会社,岐阜県,養老郡養老町,宇田本堂１１６７番地,,21,341,5031335,,,2021-11-12,合併による解散等,5200001013216,令和３年１１月１２日岐阜県養老郡養老町宇田１１６７番地株式会社イチハシ金属工芸（5200001013216）に合併し解散,2015-10-05,1,,,,,カン,0
1894,6210002010227,登記記録の閉鎖等,0,2021-11-17,2021-11-11,有限会社共栄土地,,有限会社,福井県,敦賀市,松島町２丁目８番３１号,,18,202,9140801,,,2021-11-11,清算の結了等,,,2015-10-05,1,,,,,キョウエイトチ,0
1898,6220002011637,登記記録の閉鎖等,0,2021-11-17,2021-11-15,有限会社ナカムラ建材,,有限会社,石川県,能美市,中庄町丙８１番地の１,,17,211,9290104,,,2021-11-15,清算の結了等,,,2015-10-05,1,,,,,ナカムラケンザイ,0
1942,6370205001511,登記記録の閉鎖等,0,2021-11-17,2021-11-08,医療法人順生会片山内科胃腸科クリニック,,その他の設立登記法人,宮城県,栗原市,金成沢辺木戸口２８番地の４,,04,213,9895171,,,2021-11-08,清算の結了等,,,2015-10-05,1,,,,,ジュンセイカイカタヤマナイカイチョウカクリニック,0
1947,6390002013006,登記記録の閉鎖等,0,2021-11-17,2021-11-12,有限会社新野会計事務所,,有限会社,山形県,米沢市,下花沢３丁目３番３９－３０１号,,06,202,9920023,,,2021-11-12,清算の結了等,,,2015-10-05,1,,,,,ニイノカイケイジムショ,0
1962,6470002007321,登記記録の閉鎖等,0,2021-11-17,2021-11-15,有限会社吉田住宅,,有限会社,香川県,高松市,木太町３５８５番地２,,37,201,7600080,,,2021-11-15,清算の結了等,,,2015-10-05,1,,,,,ヨシダジュウタク,0
1968,7010001079051,登記記録の閉鎖等,0,2021-11-17,2021-11-12,株式会社ゼストネット,,株式会社,東京都,中央区,月島１丁目２番１３号,,13,102,1040052,,,2021-11-12,清算の結了等,,,2015-10-05,1,,,,,ゼストネット,0
1984,7010401016091,登記記録の閉鎖等,0,2021-11-17,2021-11-08,株式会社綜合建築企画研究所,,株式会社,東京都,港区,西麻布４丁目１番１号,,13,103,1060031,,,2021-11-08,清算の結了等,,,2015-10-05,1,,,,,ソウゴウケンチクキカクケンキュウジョ,0
1996,7010601014325,登記記録の閉鎖等,0,2021-11-17,2021-11-10,株式会社ビルホルド,,株式会社,東京都,墨田区,石原４丁目９番９号,,13,107,1300011,,,2021-11-10,清算の結了等,,,2015-10-05,1,,,,,ビルホルド,0
2030,7011105009019,登記記録の閉鎖等,0,2021-11-17,2021-11-01,一般社団法人トラストコラボレーション,,その他の設立登記法人,東京都,新宿区,高田馬場２丁目１８番６号,,13,104,1690075,,,2021-11-01,清算の結了等,,,2019-08-20,1,,,,,トラストコラボレーション,0
2064,7020001068540,登記記録の閉鎖等,0,2021-11-17,2021-11-12,株式会社マッシィーインターナショナル,,株式会社,神奈川県,川崎市宮前区,有馬６丁目２１番１５号,,14,136,2160003,,,2021-11-12,清算の結了等,,,2015-10-05,1,,,,,マッシィーインターナショナル,0
2099,7040001115126,登記記録の閉鎖等,0,2021-11-17,2021-11-08,株式会社ＧｅｒｂｅｒａＣｒｅｓｔ,,株式会社,千葉県,柏市,旭町２丁目５－３－８０３ルイシャトレ８０３,,12,217,2770852,,,2021-11-08,清算の結了等,,,2020-09-16,1,,,,,ガーベラクレスト,0
2115,7080001017137,登記記録の閉鎖等,0,2021-11-17,2021-11-15,株式会社こだま,,株式会社,静岡県,藤枝市,上当間７７８番地の１１,,22,214,4260004,,,2021-11-15,清算の結了等,,,2015-10-05,1,,,,,コダマ,0
2116,7080002015783,登記記録の閉鎖等,0,2021-11-17,2021-11-12,有限会社刻蔵建築,,有限会社,静岡県,焼津市,浜当目４丁目７番４号,,22,212,4250012,,,2021-11-12,清算の結了等,,,2015-10-05,1,,,,,コクゾウケンチク,0
2129,7110001002011,登記記録の閉鎖等,0,2021-11-17,2021-11-12,株式会社後藤鉄工所,,株式会社,新潟県,新潟市東区,下木戸３丁目１番２４号,,15,102,9500885,,,2021-11-12,清算の結了等,,,2015-10-05,1,,,,,ゴトウテッコウショ,0
2159,7122001013350,登記記録の閉鎖等,0,2021-11-17,2021-11-15,株式会社環境革命,,株式会社,大阪府,東大阪市,玉串元町２丁目１２番２９号,,27,227,5780933,,,2021-11-15,清算の結了等,,,2015-10-05,1,,,,,カンキョウカクメイ,0
2162,7130005004324,登記記録の閉鎖等,0,2021-11-17,2021-11-02,社会福祉法人青谷福祉会,,その他の設立登記法人,京都府,京都市伏見区,深草正覚町２３番,,26,109,6120801,,,2021-11-02,合併による解散等,5130005007089,令和３年１１月２日京都府宇治市宇治里尻３６番３５社会福祉法人悠仁福祉会（5130005007089）に合併し解散,2015-10-05,1,,,,,アオダニフクシカイ,0
2188,7180002086261,登記記録の閉鎖等,0,2021-11-17,2021-11-12,有限会社マート福寿,,有限会社,愛知県,常滑市,榎戸町４丁目３７０番地,,23,216,4790854,,,2021-11-12,清算の結了等,,,2015-10-05,1,,,,,マートフクジュ,0
2197,7180305004985,登記記録の閉鎖等,0,2021-11-17,2021-11-15,医療法人松和会,,その他の設立登記法人,愛知県,碧南市,松江町６丁目８３番地,,23,209,4470868,,,2021-11-15,清算の結了等,,,2015-10-05,1,,,,,ショウワカイ,0
2198,7190001009073,登記記録の閉鎖等,0,2021-11-17,2021-11-12,株式会社松風,,株式会社,三重県,伊賀市,勝地５９７番地,,24,216,5180203,,,2021-11-12,清算の結了等,,,2015-10-05,1,,,,,マツカゼ,0
2206,7230002007410,登記記録の閉鎖等,0,2021-11-17,2021-11-12,有限会社油本製作所,,有限会社,富山県,魚津市,岡経田字宮ノ前４６番地の７,,16,204,9370004,,,2021-11-12,清算の結了等,,,2015-10-05,1,,,,,アブラモトセイサクショ,0
2210,7240002012533,登記記録の閉鎖等,0,2021-11-17,2021-11-11,有限会社野瀬商会,,有限会社,広島県,広島市中区,西白島町２２番５８－５２５号,,34,101,7300005,,,2021-11-11,清算の結了等,,,2015-10-05,1,,,,,ノセショウカイ,0
2213,7240005000452,登記記録の閉鎖等,0,2021-11-17,2021-11-01,天理教廣島分教会,,その他の設立登記法人,広島県,広島市西区,東観音町２２番８号,,34,104,7330032,,,2021-11-01,合併による解散等,6170005004734,令和３年１０月２９日和歌山県橋本市古佐田四丁目７番３号天理教橋本分教会（6170005004734）に合併し解散,2015-10-05,1,,,,,,0
2216,7250002003597,登記記録の閉鎖等,0,2021-11-17,2021-11-15,有限会社ユーティーエム企画,,有限会社,山口県,防府市,車塚町１番３２号,,35,206,7470811,,,2021-11-15,清算の結了等,,,2015-10-05,1,,,,,,0
2221,7290001010475,登記記録の閉鎖等,0,2021-11-17,2021-11-12,株式会社松尾商店,,株式会社,福岡県,福岡市中央区,長浜３丁目１１番３－６０５号,,40,133,8100072,,,2021-11-12,清算の結了等,,,2015-10-05,1,,,,,マツオショウテン,0
2237,7300003000349,登記記録の閉鎖等,0,2021-11-17,2021-11-09,石井土地合資会社,,合資会社,佐賀県,武雄市,武雄町大字富岡８３１４番地２,,41,206,8430024,,,2021-11-09,清算の結了等,,,2015-10-05,1,,,,,イシイトチ,0
2249,7360001005212,登記記録の閉鎖等,0,2021-11-17,2021-11-01,株式会社タイムスアド企画,,株式会社,沖縄県,那覇市,久茂地２丁目２番２号タイムスビル１０階,,47,201,9000015,,,2021-11-01,合併による解散等,1360001000417,令和３年１１月１日沖縄県那覇市久茂地二丁目２番２号株式会社沖縄タイムス社（1360001000417）に合併し解散,2015-10-05,1,,,,,タイムスアドキカク,0
2321,8010901011896,登記記録の閉鎖等,0,2021-11-17,2021-11-16,武蔵電建株式会社,,株式会社,東京都,世田谷区,等々力２丁目７番５号,,13,112,1580082,,,2021-11-16,清算の結了等,,,2015-10-05,1,,,,,,0
2328,8011001026348,登記記録の閉鎖等,0,2021-11-17,2021-11-02,株式会社ララ・プラン,,株式会社,東京都,渋谷区,千駄ヶ谷３丁目２６番８号ＢＩＲＺビル,,13,113,1510051,,,2021-11-02,清算の結了等,,,2015-10-05,1,,,,,ララプラン,0
2360,8011701012639,登記記録の閉鎖等,0,2021-11-17,2021-11-12,株式会社フォーディー,,株式会社,東京都,江戸川区,西葛西７丁目２２番１７号,,13,123,1340088,,,2021-11-12,清算の結了等,,,2015-10-05,1,,,,,フォーディー,0
2374,8020001048087,登記記録の閉鎖等,0,2021-11-17,2021-11-12,株式会社面川興業,,株式会社,神奈川県,横浜市磯子区,滝頭１丁目６番３０号,,14,107,2350012,,,2021-11-12,清算の結了等,,,2015-10-05,1,,,,,,0
2383,8021002071350,登記記録の閉鎖等,0,2021-11-17,2021-11-12,有限会社大前,,有限会社,神奈川県,三浦市,三崎町小網代５５番地の８,,14,210,2380225,,,2021-11-12,清算の結了等,,,2015-10-05,1,,,,,オオマエ,0
2413,8040002068116,登記記録の閉鎖等,0,2021-11-17,2021-11-09,東自動車商会有限会社,,有限会社,千葉県,袖ケ浦市,神納２丁目１６番地１０,,12,229,2990257,,,2021-11-09,清算の結了等,,,2015-10-05,1,,,,,アズマジドウシャショウカイ,0
2420,8050001037780,登記記録の閉鎖等,0,2021-11-17,2021-11-12,株式会社ＹＥＳ,,株式会社,茨城県,水戸市,五軒町１丁目４番２０号,,08,201,3100063,,,2021-11-12,清算の結了等,,,2015-10-05,1,,,,,イエス,0
2422,8050002003055,登記記録の閉鎖等,0,2021-11-17,2021-11-10,有限会社水喜商事,,有限会社,茨城県,水戸市,元吉田町１５０４番地の１,,08,201,3100836,,,2021-11-10,清算の結了等,,,2015-10-05,1,,,,,ミズキショウジ,0
2439,8080001008960,登記記録の閉鎖等,0,2021-11-17,2021-11-15,株式会社原田工務店,,株式会社,静岡県,静岡市清水区,草薙２丁目３番５号,,22,103,4240886,,,2021-11-15,清算の結了等,,,2015-10-05,1,,,,,ハラダコウムテン,0
2452,8120001024821,登記記録の閉鎖等,0,2021-11-17,2021-11-12,西日本住宅流通株式会社,,株式会社,大阪府,大阪市天王寺区,上本町８丁目２番８－６０２号,,27,109,5430001,,,2021-11-12,清算の結了等,,,2015-10-05,1,,,,,ニシニホンジュウタクリュウツウ,0
2454,8120001155583,登記記録の閉鎖等,0,2021-11-17,2021-11-12,近畿大阪電気工事株式会社,,株式会社,大阪府,門真市,速見町２番１５号,,27,223,5710039,,,2021-11-12,清算の結了等,,,2015-10-05,1,,,,,キンキオオサカデンキコウジ,0
2485,8140003007905,登記記録の閉鎖等,0,2021-11-17,2021-11-11,トランスキャピタル合同会社,,合同会社,兵庫県,西宮市,五月ケ丘９番２１－５０１号,,28,204,6620875,,,2021-11-11,清算の結了等,,,2015-10-05,1,,,,,トランスキャピタル,0
2492,8180001028081,登記記録の閉鎖等,0,2021-11-17,2021-11-15,株式会社コジマ,,株式会社,愛知県,名古屋市緑区,鳴海町字向田１７８番地の２,,23,114,4580831,,,2021-11-15,清算の結了等,,,2015-10-05,1,,,,,コジマ,0
2523,8210001012668,登記記録の閉鎖等,0,2021-11-17,2021-11-12,株式会社石黒組,,株式会社,福井県,鯖江市,川島町１７字１４番,,18,207,9161116,,,2021-11-12,清算の結了等,,,2015-10-05,1,,,,,イシグログミ,0
2535,8280005003558,登記記録の閉鎖等,0,2021-11-17,2021-11-09,特定非営利活動法人島根県氷上スポーツ振興会,,その他の設立登記法人,島根県,出雲市,鹿園寺町２７１番地,,32,203,6910075,,,2021-11-09,清算の結了等,,,2015-10-05,1,,,,,シマネケンヒョウジョウスポーツシンコウカイ,0
2541,8290005017235,登記記録の閉鎖等,0,2021-11-17,2021-11-15,一般社団法人清流,,その他の設立登記法人,福岡県,糟屋郡久山町,大字猪野９９５番地２,,40,348,8112503,,,2021-11-15,清算の結了等,,,2019-03-28,1,,,,,セイリュウ,0
2549,8330001022614,登記記録の閉鎖等,0,2021-11-17,2021-11-12,ＮＩＮＪＡ株式会社,,株式会社,熊本県,熊本市西区,池田４丁目２２番１号,,43,103,8600082,,,2021-11-12,清算の結了等,,,2016-03-24,1,,,,,ニンジャ,0
2565,8390002009431,登記記録の閉鎖等,0,2021-11-17,2021-11-15,有限会社しゃぼんだま,,有限会社,山形県,鶴岡市,睦町１５番１７号,,06,203,9970817,,,2021-11-15,清算の結了等,,,2015-10-05,1,,,,,シャボンダマ,0
2570,8430001035985,登記記録の閉鎖等,0,2021-11-17,2021-11-15,株式会社ＹＣアビイロード,,株式会社,北海道,札幌市清田区,真栄一条２丁目２４番５号,,01,110,0040831,,,2021-11-15,清算の結了等,,,2015-10-05,1,,,,,ワイシーアビイロード,0
2603,9010005032450,登記記録の閉鎖等,0,2021-11-17,2021-11-12,一般社団法人スマートコントラクト推進協会,,その他の設立登記法人,東京都,千代田区,永田町２丁目１４番３号東急不動産赤坂ビル１２階,,13,101,1000014,,,2021-11-12,清算の結了等,,,2020-10-23,1,,,,,スマートコントラクトスイシンキョウカイ,0
2616,9010601005330,登記記録の閉鎖等,0,2021-11-17,2021-11-05,長尾木材工業株式会社,,株式会社,東京都,江東区,石島６番１１号,,13,108,1350014,,,2021-11-05,清算の結了等,,,2015-10-05,1,,,,,ナガオモクザイコウギョウ,0
2625,9010803001623,登記記録の閉鎖等,0,2021-11-17,2021-11-15,アットリバース合同会社,,合同会社,愛知県,豊橋市,忠興２丁目９番地３,,23,201,4400004,,,2021-11-15,清算の結了等,,,2015-10-05,1,,,,,アットリバース,0
2636,9011001117559,登記記録の閉鎖等,0,2021-11-17,2021-11-12,株式会社ムービー企画,,株式会社,神奈川県,横浜市港北区,新横浜３丁目２３番３号,,14,109,2220033,,,2021-11-12,合併による解散等,2011001044074,令和３年９月１日東京都渋谷区神宮前六丁目２５番１４号株式会社フォーシスアンドカンパニー（2011001044074）に合併し解散,2017-07-25,1,,,,,ムービーキカク,0
2644,9011101082645,登記記録の閉鎖等,0,2021-11-17,2021-11-12,株式会社Ｌｉｂｅｒａｐｐ,,株式会社,東京都,新宿区,西新宿３丁目９番７号,,13,104,1600023,,,2021-11-12,清算の結了等,,,2017-12-21,1,,,,,リベラップ,0
2654,9011401019033,登記記録の閉鎖等,0,2021-11-17,2021-11-11,株式会社松嶋商事,,株式会社,東京都,板橋区,大山金井町１３番９号パラスト大山６０２,,13,119,1730024,,,2021-11-11,合併による解散等,2010401070977,令和３年１１月１日東京都港区虎ノ門三丁目６番２号株式会社紀鳳産業（2010401070977）に合併し解散,2015-11-17,1,,,,,,0
2667,9011801006903,登記記録の閉鎖等,0,2021-11-17,2021-11-16,株式会社加藤エンタープライズ,,株式会社,東京都,足立区,南花畑３丁目３２番１２号,,13,121,1210062,,,2021-11-16,清算の結了等,,,2015-10-05,1,,,,,,0
2684,9020002072960,登記記録の閉鎖等,0,2021-11-17,2021-11-12,有限会社Ｍ．Ｉ．Ｒ．Ａ．Ｉ．ＭＵＧＥＮ,,有限会社,神奈川県,横浜市中区,相生町３丁目６１番地泰生ビル２Ｆ,,14,104,2310012,,,2021-11-12,清算の結了等,,,2015-10-05,1,,,,,ミライムゲン,0
2687,9021001070889,登記記録の閉鎖等,0,2021-11-17,2021-11-01,株式会社ＴｒｙＡｎｄ,,株式会社,神奈川県,藤沢市,片瀬海岸２丁目８番６号ＴＨＥ・ＰＯＩＮＴ２Ｆ,,14,205,2510035,,,2021-11-01,合併による解散等,2021001051565,令和３年１１月１日神奈川県藤沢市鵠沼橘一丁目２番１０号株式会社ｒｅｌｍｅ（2021001051565）に合併し解散,2020-09-18,1,,,,,トライアンド,0
2717,9040001084344,登記記録の閉鎖等,0,2021-11-17,2021-11-10,株式会社スガイ,,株式会社,千葉県,成田市,美郷台１丁目３番地９,,12,211,2860013,,,2021-11-10,清算の結了等,,,2015-10-05,1,,,,,スガイ,0
2726,9050001018136,登記記録の閉鎖等,0,2021-11-17,2021-11-15,アジア建設株式会社,,株式会社,茨城県,つくば市,竹園２丁目１８番地１ＴＢＭビル３階,,08,220,3050032,,,2021-11-15,合併による解散等,6050001017090,令和３年１１月１２日茨城県つくば市竹園二丁目１８番地１ＴＢＭビル３階アジアリビング株式会社（6050001017090）に合併し解散,2015-10-05,1,,,,,アジアケンセツ,0
2764,9130002009308,登記記録の閉鎖等,0,2021-11-17,2021-11-15,有限会社ほりうち染織,,有限会社,京都府,向日市,寺戸町大牧６番地の１４,,26,208,6170002,,,2021-11-15,清算の結了等,,,2015-10-05,1,,,,,,0
2765,9130002013012,登記記録の閉鎖等,0,2021-11-17,2021-11-15,有限会社ルルドインターナショナル,,有限会社,京都府,京都市山科区,椥辻西潰１３－１７,00037376,26,110,6078164,,,2021-11-15,清算の結了等,,,2015-10-05,1,,,,,ルルドインターナショナル,0
2802,9200002001983,登記記録の閉鎖等,0,2021-11-17,2021-11-15,株式会社山県工務店,,株式会社,岐阜県,山県市,東深瀬２３６０番地１,,21,215,5012104,,,2021-11-15,清算の結了等,,,2015-10-05,1,,,,,ヤマガタコウムテン,0
2807,9220005002283,登記記録の閉鎖等,0,2021-11-17,2021-11-12,北陸交通労働組合,,その他の設立登記法人,石川県,白山市,安養寺町ニ３０番地,,17,210,9202141,,,2021-11-12,清算の結了等,,,2015-10-05,1,,,,,ホクリクコウツウ,0
2822,9280002006827,登記記録の閉鎖等,0,2021-11-17,2021-11-15,有限会社八頭工業,,有限会社,島根県,出雲市,浜町１１４２番地,,32,203,6930054,,,2021-11-15,清算の結了等,,,2015-10-05,1,,,,,ヤズコウギョウ,0
2841,9330005009078,登記記録の閉鎖等,0,2021-11-17,2021-11-11,一般社団法人川崎マネジメント,00098479,その他の設立登記法人,熊本県,熊本市西区,池田３丁目５２番３３号,,43,103,8600082,,,2021-11-11,清算の結了等,,,2015-10-05,1,,,,,カワサキマネジメント,0
2846,9360001000418,登記記録の閉鎖等,0,2021-11-17,2021-11-01,株式会社沖縄タイムスサービスセンター,,株式会社,沖縄県,那覇市,久茂地２丁目２番２号,,47,201,9000015,,,2021-11-01,合併による解散等,1360001000417,令和３年１１月１日沖縄県那覇市久茂地二丁目２番２号株式会社沖縄タイムス社（1360001000417）に合併し解散,2015-10-05,1,,,,,オキナワタイムスサービスセンター,0
2847,9360001008312,登記記録の閉鎖等,0,2021-11-17,2021-11-10,株式会社沖都,,株式会社,沖縄県,沖縄市,泡瀬２丁目３９番３号,,47,211,9042172,,,2021-11-10,清算の結了等,,,2015-10-05,1,,,,,オキト,0
2854,9370805000281,登記記録の閉鎖等,0,2021-11-17,2021-11-08,山元町商業協同組合,,その他の設立登記法人,宮城県,亘理郡山元町,浅生原字作田山２番地の７０,,04,362,9892203,,,2021-11-08,清算の結了等,,,2015-10-05,1,,,,,ヤマモトチョウショウギョウ,0
2868,9450005003102,登記記録の閉鎖等,0,2021-11-17,2021-11-02,天理教利尻分教会,,その他の設立登記法人,北海道,利尻郡利尻富士町,鬼脇字鬼脇１１８番地,,01,519,0970211,,,2021-11-02,合併による解散等,7450005002980,令和３年１１月２日北海道天塩郡天塩町山手通九丁目２２９番地天理教北天塩分教会（7450005002980）に合併し解散,2015-10-05,1,,,,,テンリキョウテシオブンキョウカイ,0
