sequenceNumber,corporateNumber,process,correct,updateDate,changeDate,name,nameImageId,kind,prefectureName,cityName,streetNumber,addressImageId,prefectureCode,cityCode,postCode,addressOutside,addressOutsideImageId,closeDate,closeCause,successorCorporateNumber,changeCause,assignmentDate,latest,enName,enPrefectureName,enCityName,enAddressOutside,furigana,hihyoji
9,1010001249262,新規,0,2024-10-31,2024-10-31,ＡｒｃＡｉｄ株式会社,,株式会社,東京都,中央区,日本橋小網町８番２号ＢＩＺＭＡＲＫＳ日本橋茅場町３１２号室,,13,102,1030016,,,,,,,2024-10-31,1,,,,,アークエード,0
13,1010003045313,新規,0,2024-10-31,2024-10-31,アイオライトスリー合同会社,,合同会社,東京都,中央区,日本橋１丁目４番１号日本橋一丁目ビルディング,,13,102,1030027,,,,,,,2024-10-31,1,,,,,アイオライトスリー,0
14,1010005039040,新規,0,2024-10-31,2024-10-31,ギオン・ＧＬＰ相模原特定目的会社,,その他の設立登記法人,東京都,中央区,八重洲２丁目２番１号,,13,102,1040028,,,,,,,2024-10-31,1,,,,,ギオンジーエルピーサガミハラ,0
20,1010401186122,新規,0,2024-10-31,2024-10-31,株式会社Ｃｏｍｍｉｎｉｏ,,株式会社,東京都,港区,南青山３丁目１番３６号青山丸竹ビル６Ｆ,,13,103,1070062,,,,,,,2024-10-31,1,,,,,コミニオ,0
39,1011003020306,新規,0,2024-10-31,2024-10-31,ｓｗｅｅｔ　ｒｉｂｂｏｎ合同会社,,合同会社,東京都,渋谷区,道玄坂１丁目１０番８号渋谷道玄坂東急ビル２Ｆ‐Ｃ,,13,113,1500043,,,,,,,2024-10-31,1,,,,,スウィートリボン,0
45,1011101109315,新規,0,2024-10-31,2024-10-31,株式会社ミライエント,,株式会社,東京都,新宿区,新宿１丁目３６－２・７ｔｈｈａｙａｍａｂｕｉｌｄｉｎｇ２階,,13,104,1600022,,,,,,,2024-10-31,1,,,,,ミライエント,0
46,1011101109356,新規,0,2024-10-31,2024-10-31,株式会社タス,,株式会社,東京都,新宿区,西新宿５丁目１番１－２８０４号,,13,104,1600023,,,,,,,2024-10-31,1,,,,,タス,0
47,1011101109364,新規,0,2024-10-31,2024-10-31,株式会社Ｌｅａｄ　Ｂｒｉｄｇｅ,,株式会社,東京都,新宿区,西新宿３丁目３番１３号,,13,104,1600023,,,,,,,2024-10-31,1,,,,,リードブリッジ,0
48,1011101109397,新規,0,2024-10-31,2024-10-31,株式会社ドリム２４,,株式会社,東京都,新宿区,百人町２丁目４－５－５０８号室,,13,104,1690073,,,,,,,2024-10-31,1,,,,,ドリムニジュウヨン,0
53,1011503006283,新規,0,2024-10-31,2024-10-31,カケル合同会社,,合同会社,東京都,北区,赤羽南１丁目６番５号,,13,117,1150044,,,,,,,2024-10-31,1,,,,,カケル,0
54,1011605002610,新規,0,2024-10-31,2024-10-31,一般社団法人１億人の祈り人プロジェクト,,その他の設立登記法人,東京都,練馬区,大泉四丁目７番１５号,,13,120,1760000,,,,,,,2024-10-31,1,,,,,イチオクニンノイノリビトプロジェクト,0
58,1011803006537,新規,0,2024-10-31,2024-10-31,合同会社ダイニングＳｉｎ,,合同会社,東京都,足立区,西保木間２丁目１８番２８－５０７号,,13,121,1210812,,,,,,,2024-10-31,1,,,,,ダイニングシン,0
61,1012401042437,新規,0,2024-10-31,2024-10-31,株式会社Ａ．Ｒ．Ｃ．Ｌａｂ,,株式会社,東京都,府中市,浅間町３丁目１８番地の１エルフォレストガーデンウィング棟４２８,,13,206,1830001,,,,,,,2024-10-31,1,,,,,アークラボ,0
63,1012803003524,新規,0,2024-10-31,2024-10-31,合同会社新宿観光建物管理,,合同会社,東京都,日野市,平山４丁目１８番地の１都営日野平山４丁目アパート２－４０４,,13,212,1910043,,,,,,,2024-10-31,1,,,,,シンジュクカンコウタテモノカンリ,0
73,1020001159741,新規,0,2024-10-31,2024-10-31,株式会社ＯＦＤ,,株式会社,神奈川県,川崎市多摩区,栗谷４丁目６番２３－２号,,14,135,2140039,,,,,,,2024-10-31,1,,,,,オーエフディー,0
74,1020001159799,新規,0,2024-10-31,2024-10-31,株式会社東洋占術研究会,,株式会社,神奈川県,横浜市中区,元町２丁目８７番９号,,14,104,2310861,,,,,,,2024-10-31,1,,,,,トウヨウセンジュツケンキュウカイ,0
75,1020001159832,新規,0,2024-10-31,2024-10-31,株式会社ａｒｔｉｃａｌ　ｓｏｕｎｄ　ｓｙｓｔｅｍ,,株式会社,神奈川県,川崎市川崎区,四谷下町１９番１５号,,14,131,2100827,,,,,,,2024-10-31,1,,,,,,0
76,1020001159849,新規,0,2024-10-31,2024-10-31,日本ロジスティックスプラス株式会社,,株式会社,神奈川県,横浜市青葉区,あざみ野１丁目７番１号ゴールドワンあざみ野５０１,,14,117,2250011,,,,,,,2024-10-31,1,,,,,ニホンロジスティックスプラス,0
77,1020001159980,新規,0,2024-10-31,2024-10-31,株式会社ＨＡＹＡＫＩＸ,,株式会社,神奈川県,川崎市幸区,幸町１丁目７８９－３,,14,132,2120011,,,,,,,2024-10-31,1,,,,,ハヤキックス,0
79,1020003027211,新規,0,2024-10-31,2024-10-31,ＡＭＳＯＬＵＴＩＯＮＳ合同会社,,合同会社,神奈川県,横浜市西区,北幸２丁目１０番４８号むつみビル３階,,14,103,2200004,,,,,,,2024-10-31,1,,,,,エイエムソリューションズ,0
81,1020005016583,新規,0,2024-10-31,2024-10-31,特定非営利活動法人ＢＦＪ横浜,,その他の設立登記法人,神奈川県,横浜市西区,戸部町４丁目１２５番地ハイツ鳥居１０２,,14,103,2200042,,,,,,,2024-10-31,1,,,,,ビーエフジェーヨコハマ,0
91,1021003015156,新規,0,2024-10-31,2024-10-31,合同会社ＲＥ　ＶＥＮＴ,,合同会社,神奈川県,藤沢市,鵠沼石上２丁目５番１号湘南鵠沼ＢＬＤ３階Ｃ号室,00136845,14,205,2510025,,,,,,,2024-10-31,1,,,,,リーベント,0
101,1030001163206,新規,0,2024-10-31,2024-10-31,株式会社高原商店,00136840,株式会社,埼玉県,草加市,青柳８丁目３２番１４号,,11,221,3400002,,,,,,,2024-10-31,1,,,,,タカハラショウテン,0
109,1030003025404,新規,0,2024-10-31,2024-10-31,ＥＣＯ　ＥＸＰＲＥＳＳＩＯＮＳ合同会社,,合同会社,埼玉県,春日部市,粕壁東６丁目１６番５号ヴィラ・カスガ１０３号,,11,214,3440062,,,,,,,2024-10-31,1,,,,,エコエクスプレッションス,0
125,1070001042315,新規,0,2024-10-31,2024-10-31,ＥＳＱＵＩＳＳＥ株式会社,,株式会社,群馬県,吾妻郡嬬恋村,大字鎌原１７８８番地４６,,10,425,3771524,,,,,,,2024-10-31,1,,,,,エスキース,0
126,1070001042323,新規,0,2024-10-31,2024-10-31,株式会社義真,,株式会社,群馬県,沼田市,下沼田町５０９番地１ハイツはせがわＩＩ８号,00136839,10,206,3780063,,,,,,,2024-10-31,1,,,,,ヨシマサ,0
134,1080403005133,新規,0,2024-10-31,2024-10-31,合同会社ストラーダ,,合同会社,静岡県,掛川市,下垂木３２９１番地の１,,22,213,4360222,,,,,,,2024-10-31,1,,,,,ストラーダ,0
136,1090001018973,新規,0,2024-10-31,2024-10-31,Ｂ・Ｗ・Ｇ株式会社,,株式会社,山梨県,南都留郡富士河口湖町,船津７１５４番地,,19,430,4010301,,,,,,,2024-10-31,1,,,,,ビーダブリュジー,0
137,1100001037971,新規,0,2024-10-31,2024-10-31,イチワ住設株式会社,,株式会社,長野県,茅野市,米沢４０３６番地の３,,20,214,3910216,,,,,,,2024-10-31,1,,,,,イチワジュウセツ,0
148,1120001269737,新規,0,2024-10-31,2024-10-31,文濤株式会社,,株式会社,大阪府,大阪市浪速区,浪速東１丁目２番３号１０４号室,,27,111,5560025,,,,,,,2024-10-31,1,,,,,ブントウ,0
149,1120001269828,新規,0,2024-10-31,2024-10-31,株式会社エスエヌシー,,株式会社,大阪府,大阪市東淀川区,大桐５丁目１９番７５号,,27,114,5330011,,,,,,,2024-10-31,1,,,,,エスエヌシー,0
150,1120001269836,新規,0,2024-10-31,2024-10-31,株式会社ｂｐｂｐ,,株式会社,大阪府,大阪市浪速区,元町１丁目１２番８－５０５号,,27,111,5560016,,,,,,,2024-10-31,1,,,,,ビーピービーピー,0
151,1120001269844,新規,0,2024-10-31,2024-10-31,国泰株式会社,,株式会社,大阪府,大阪市生野区,新今里６丁目３番１０号エクラ新今里１０６,,27,116,5440001,,,,,,,2024-10-31,1,,,,,コクタイ,0
152,1120001269852,新規,0,2024-10-31,2024-10-31,醒株式会社,,株式会社,大阪府,大阪市城東区,鴫野西５丁目１５番７－３０４号,,27,118,5360014,,,,,,,2024-10-31,1,,,,,セイ,0
153,1120001269877,新規,0,2024-10-31,2024-10-31,株式会社天印,,株式会社,大阪府,大阪市浪速区,大国１丁目９－１３－４０３Ａ,,27,111,5560014,,,,,,,2024-10-31,1,,,,,テンイン,0
154,1120001269885,新規,0,2024-10-31,2024-10-31,株式会社防建社,,株式会社,大阪府,大阪市淀川区,十八条３丁目５番８号,,27,123,5320001,,,,,,,2024-10-31,1,,,,,ボウケンシャ,0
155,1120003027820,新規,0,2024-10-31,2024-10-31,合同会社ロプロス,,合同会社,大阪府,大阪市西区,千代崎２丁目１５－２,,27,106,5500023,,,,,,,2024-10-31,1,,,,,ロプロス,0
156,1120003027861,新規,0,2024-10-31,2024-10-31,嘉夜合同会社,,合同会社,大阪府,大阪市北区,長柄中２丁目５番３０号,,27,127,5310062,,,,,,,2024-10-31,1,,,,,カヤ,0
157,1120003027878,新規,0,2024-10-31,2024-10-31,合同会社Ａｎｄ　Ｍａｒｃｈ,,合同会社,大阪府,大阪市天王寺区,上本町９丁目６番１２,,27,109,5430001,,,,,,,2024-10-31,1,,,,,アンドマーチ,0
158,1120005024576,新規,0,2024-10-31,2024-10-31,一般社団法人日本脳科学心理教育協会,,その他の設立登記法人,大阪府,大阪市天王寺区,上汐３丁目８番４号プラスビル４１１Ｂ,,27,109,5430002,,,,,,,2024-10-31,1,,,,,,0
162,1120101070499,新規,0,2024-10-31,2024-10-31,株式会社ＨＹＯＤＯＨ,,株式会社,大阪府,堺市西区,鳳北町２丁７０番地１,,27,144,5938328,,,,,,,2024-10-31,1,,,,,ヒョードー,0
169,1122001038576,新規,0,2024-10-31,2024-10-31,ココロヘ株式会社,,株式会社,大阪府,東大阪市,永和１丁目１７番１２ライオンズ永和レジデンス１３０４号,,27,227,5770809,,,,,,,2024-10-31,1,,,,,ココロヘ,0
170,1122001038584,新規,0,2024-10-31,2024-10-31,株式会社ビュークレスト,,株式会社,大阪府,東大阪市,鴻池元町５番９－１０２号,,27,227,5780974,,,,,,,2024-10-31,1,,,,,ビュークレスト,0
174,1130001078253,新規,0,2024-10-31,2024-10-31,栄宝株式会社,,株式会社,京都府,京都市下京区,上錫屋町６８－２,,26,106,6008312,,,,,,,2024-10-31,1,,,,,エイホウ,0
175,1130003009958,新規,0,2024-10-31,2024-10-31,合同会社ＢＴＢ創薬研究センター,,合同会社,京都府,京都市左京区,聖護院川原町５３メディカルイノベーションセンター４Ｆ,,26,103,6068397,,,,,,,2024-10-31,1,,,,,ビーティービーソウヤクケンキュウセンター,0
176,1130003009966,新規,0,2024-10-31,2024-10-31,合同会社タブチ,,合同会社,京都府,福知山市,字前田１３７４番地,,26,201,6200867,,,,,,,2024-10-31,1,,,,,タブチ,0
178,1130005017232,新規,0,2024-10-31,2024-10-31,一般財団法人ＰＦサイエンス,,その他の設立登記法人,京都府,京都市西京区,御陵大原１番地４９,,26,111,6158245,,,,,,,2024-10-31,1,,,,,ファーマフーズサイエンス,0
186,1160003003322,新規,0,2024-10-31,2024-10-31,合同会社望,,合同会社,滋賀県,近江八幡市,池田本町９４２－４,,25,204,5230043,,,,,,,2024-10-31,1,,,,,ノゾミ,0
191,1180001163918,新規,0,2024-10-31,2024-10-31,株式会社三と十,,株式会社,愛知県,一宮市,萩原町河田方字下り松２７番地,,23,203,4910366,,,,,,,2024-10-31,1,,,,,サントジュウ,0
199,1230005009418,新規,0,2024-10-31,2024-10-31,弁護士法人山本・越後法律事務所,,その他の設立登記法人,富山県,高岡市,広小路１番１８号,,16,202,9330057,,,,,,,2024-10-31,1,,,,,ヤマモトエチゴホウリツジムショ,0
211,1270001009079,新規,0,2024-10-31,2024-10-31,株式会社まつかぜ,,株式会社,鳥取県,米子市,彦名新田４９６番地,,31,202,6830855,,,,,,,2024-10-31,1,,,,,マツカゼ,0
217,1290001107748,新規,0,2024-10-31,2024-10-31,株式会社ＹＳＧＬＯＢＡＬ,,株式会社,福岡県,福岡市中央区,赤坂１丁目７番１０号リアン赤坂ビル６Ｆ,,40,133,8100042,,,,,,,2024-10-31,1,,,,,ワイエスグローバル,0
218,1290001107806,新規,0,2024-10-31,2024-10-31,株式会社Ｍ‐ｇｒｏｕｐ,,株式会社,福岡県,福岡市博多区,築港本町５番２４－９０５号エンクレストベイ天神東,,40,132,8120021,,,,,,,2024-10-31,1,,,,,エムグループ,0
224,1330001032603,新規,0,2024-10-31,2024-10-31,阿蘇海女株式会社,,株式会社,熊本県,阿蘇市,一宮町宮地１５３４－２,,43,214,8692600,,,,,,,2024-10-31,1,,,,,アソアマ,0
225,1340001026901,新規,0,2024-10-31,2024-10-31,株式会社ガーウィン,,株式会社,鹿児島県,鹿児島市,田上２丁目２９番２６号,,46,201,8900034,,,,,,,2024-10-31,1,,,,,ガーウィン,0
228,1360001034381,新規,0,2024-10-31,2024-10-31,琉瑞観光株式会社,,株式会社,沖縄県,糸満市,西崎６丁目１７番１－１３０９号プレサンスロジェ西崎レーヴタワー,,47,210,9010305,,,,,,,2024-10-31,1,,,,,リュウスイカンコウ,0
232,1370005010849,新規,0,2024-10-31,2024-10-31,弁護士法人官澤綜合法律事務所,,その他の設立登記法人,宮城県,仙台市青葉区,二日町１番２３号アーバンネット勾当台ビル１０階,,04,101,9800802,,,,,,,2024-10-31,1,,,,,カンザワソウゴウホウリツジムショ,0
236,1390003002301,新規,0,2024-10-31,2024-10-31,鶴岡ファーマーズ合同会社,,合同会社,山形県,鶴岡市,稲生１丁目２１番２６号,,06,203,9970834,,,,,,,2024-10-31,1,,,,,ツルオカファーマーズ,0
241,1430001092967,新規,0,2024-10-31,2024-10-31,株式会社北の食と健康創造社,,株式会社,北海道,札幌市中央区,大通西６丁目５番地２プライムメゾン大通公園７０１号,,01,101,0600042,,,,,,,2024-10-31,1,,,,,キタノショクトケンコウソウゾウシャ,0
242,1430001092975,新規,0,2024-10-31,2024-10-31,株式会社ハウスサポートＭＩＸ,,株式会社,北海道,札幌市白石区,北郷二条４丁目２番４７号,,01,104,0030832,,,,,,,2024-10-31,1,,,,,ハウスサポートミックス,0
244,1430003016949,新規,0,2024-10-31,2024-10-31,合同会社わくわく,,合同会社,北海道,札幌市中央区,南十五条西１５丁目３番１６号,,01,101,0640915,,,,,,,2024-10-31,1,,,,,ワクワク,0
247,1450001014440,新規,0,2024-10-31,2024-10-31,ゼニスベンチャー・ホールディングス株式会社,,株式会社,北海道,名寄市,西五条南７丁目１５番地,,01,221,0960015,,,,,,,2024-10-31,1,,,,,,0
251,1490001010898,新規,0,2024-10-31,2024-10-31,下元木材株式会社,,株式会社,高知県,高知市,朝倉乙８８７番地,,39,201,7808062,,,,,,,2024-10-31,1,,,,,シモモトモクザイ,0
254,1700150127645,新規,0,2024-10-31,2024-10-31,ｔｉａｎｊｉｎｓｈｉｙｕｎｆａｎｄｉａｎｚｉｋｅｊｉｙｏｕｘｉａｎｇｏｎｇｓｉ,,外国会社等,,,,,,,,ｔｉａｎｊｉｎｂｉｎｈａｉｇａｏｘｉｎｑｕｔａｎｇｇｕｈａｉｙａｎｇｋｅｊｉｙｕａｎｊｉｎｈａｉｗａｎ１８－１－２９０２,,,,,,2024-10-31,1,,,,,テンジンシユンファンデンシカギユウゲンコウシ,0
263,2010001249336,新規,0,2024-10-31,2024-10-31,睿勢株式会社,,株式会社,東京都,文京区,水道２丁目８番地８号,,13,105,1120005,,,,,,,2024-10-31,1,,,,,エイセイ,0
264,2010001249393,新規,0,2024-10-31,2024-10-31,株式会社グランバリュー,,株式会社,東京都,千代田区,神田東松下町４１番地１,,13,101,1010042,,,,,,,2024-10-31,1,,,,,グランバリュー,0
266,2010003045312,新規,0,2024-10-31,2024-10-31,アメジストスリー合同会社,,合同会社,東京都,中央区,日本橋１丁目４番１号日本橋一丁目ビルディング,,13,102,1030027,,,,,,,2024-10-31,1,,,,,アメジストスリー,0
269,2010401186121,新規,0,2024-10-31,2024-10-31,株式会社ゼブラカンパニー,,株式会社,東京都,港区,東麻布２丁目３５番１号ＫＣビル７１３,,13,103,1060044,,,,,,,2024-10-31,1,,,,,ゼブラカンパニー,0
271,2010403033701,新規,0,2024-10-31,2024-10-31,合同会社コスモネクシア,,合同会社,東京都,港区,浜松町１丁目２３番４号,,13,103,1050013,,,,,,,2024-10-31,1,,,,,コスモネクシア,0
272,2010405023725,新規,0,2024-10-31,2024-10-31,一般社団法人シェアでんき２４Ｇ,,その他の設立登記法人,東京都,港区,新橋４丁目１１番１号Ａ－ＰＬＡＣＥ新橋４Ｆ,,13,103,1050004,,,,,,,2024-10-31,1,,,,,シェアデンキニジュウヨンジー,0
280,2010601066197,新規,0,2024-10-31,2024-10-31,株式会社シャトンブルー,,株式会社,東京都,江東区,古石場２丁目１４番１ー１１０４号,,13,108,1350045,,,,,,,2024-10-31,1,,,,,シャトンブルー,0
286,2010801035530,新規,0,2024-10-31,2024-10-31,株式会社スワン,,株式会社,東京都,大田区,大森北１丁目１９番２号,,13,111,1430016,,,,,,,2024-10-31,1,,,,,スワン,0
297,2011201025898,新規,0,2024-10-31,2024-10-31,株式会社ＥＨＣソリューションズ,,株式会社,東京都,中野区,本町２丁目２番１１号ＦＬＯＯＲＡＮＤＷＡＬＬＳ中野坂上７Ｆ,,13,114,1640012,,,,,,,2024-10-31,1,,,,,イーエイチシーソリューションズ,0
306,2011601028162,新規,0,2024-10-31,2024-10-31,株式会社Ｔｉｎｙ　Ｍｉｋｉ,,株式会社,東京都,練馬区,石神井町２丁目８番２６号,,13,120,1770041,,,,,,,2024-10-31,1,,,,,タイニーミキ,0
307,2011603004475,新規,0,2024-10-31,2024-10-31,合同会社弥雄,,合同会社,東京都,練馬区,石神井台４丁目３番１７号,,13,120,1770045,,,,,,,2024-10-31,1,,,,,ミユウ,0
310,2011803006536,新規,0,2024-10-31,2024-10-31,合同会社Ｓｐｅｃ　Ａｕｔｏｍｏｔｉｖｅ,,合同会社,東京都,足立区,西伊興２丁目２－１１,,13,121,1210824,,,,,,,2024-10-31,1,,,,,スペックオートモーティブ,0
311,2012401042436,新規,0,2024-10-31,2024-10-31,株式会社Ｌｅａｐ,,株式会社,東京都,調布市,緑ケ丘２丁目１１番地６３,,13,208,1820001,,,,,,,2024-10-31,1,,,,,リープ,0
312,2013305003664,新規,0,2024-10-31,2024-10-31,一般社団法人さきのつえ,,その他の設立登記法人,東京都,豊島区,長崎２丁目２７番１５号,,13,116,1710051,,,,,,,2024-10-31,1,,,,,サキノツエ,0
318,2020001159823,新規,0,2024-10-31,2024-10-31,株式会社ＩＫＴ,,株式会社,神奈川県,川崎市多摩区,生田８丁目１番１５号スワンハイツ１０１,,14,135,2140038,,,,,,,2024-10-31,1,,,,,アイケイティー,0
319,2020001159856,新規,0,2024-10-31,2024-10-31,株式会社Ｃ＆Ｃ,,株式会社,神奈川県,横浜市瀬谷区,東野１０４番地１インフォレスト横浜Ａ棟１０２,,14,114,2460012,,,,,,,2024-10-31,1,,,,,シーアンドシー,0
321,2020003027160,新規,0,2024-10-31,2024-10-31,合同会社倖進,,合同会社,神奈川県,横浜市旭区,市沢町３２３－７,,14,112,2410014,,,,,,,2024-10-31,1,,,,,コウシン,0
324,2021003015163,新規,0,2024-10-31,2024-10-31,合同会社大樹ケア,,合同会社,神奈川県,藤沢市,辻堂元町３丁目１６番７号,,14,205,2510043,,,,,,,2024-10-31,1,,,,,タイジュケア,0
330,2030001163015,新規,0,2024-10-31,2024-10-31,株式会社Ｄ’Ａｎｎａ,,株式会社,埼玉県,草加市,稲荷４丁目１３番４１号,,11,221,3400003,,,,,,,2024-10-31,1,,,,,ダンナ,0
331,2030001163205,新規,0,2024-10-31,2024-10-31,ＮＣＳ株式会社,,株式会社,埼玉県,川口市,西川口１丁目２２番１－６０２,,11,203,3320021,,,,,,,2024-10-31,1,,,,,エヌシーエス,0
341,2030003025403,新規,0,2024-10-31,2024-10-31,ＰＥＮＮ　ＡＵＴＯ合同会社,,合同会社,埼玉県,春日部市,備後西４丁目５－２３グレース山陽２０３,,11,214,3440033,,,,,,,2024-10-31,1,,,,,ペンオート,0
350,2040001135979,新規,0,2024-10-31,2024-10-31,株式会社なかよしや不動産,,株式会社,千葉県,千葉市花見川区,幕張町５丁目４１７番地２８１,,12,102,2620032,,,,,,,2024-10-31,1,,,,,ナカヨシヤフドウサン,0
365,2080003003321,新規,0,2024-10-31,2024-10-31,合同会社Ｗｉｌｌ　Ｃｏｍｉｎｇ,,合同会社,静岡県,静岡市駿河区,曲金７丁目１６番５２号,,22,102,4228006,,,,,,,2024-10-31,1,,,,,ウィルカミング,0
376,2100001037970,新規,0,2024-10-31,2024-10-31,ワクワクファーム株式会社,,株式会社,長野県,中野市,大字西条７３２番地,,20,211,3830042,,,,,,,2024-10-31,1,,,,,ワクワクファーム,0
384,2120001269736,新規,0,2024-10-31,2024-10-31,文転株式会社,,株式会社,大阪府,大阪市西成区,橘１丁目１１－２８オフィスポート橘４０６号室,,27,122,5570051,,,,,,,2024-10-31,1,,,,,ブンテン,0
385,2120001269810,新規,0,2024-10-31,2024-10-31,Ｊａｃｋｓｏｎ　ｔｅｃｈ　ｄｅｖ株式会社,,株式会社,大阪府,大阪市西淀川区,柏里２丁目７番２６号ラピース塚本４０５号室,,27,113,5550022,,,,,,,2024-10-31,1,,,,,ジャクソンテックデヴィ,0
386,2120001269827,新規,0,2024-10-31,2024-10-31,原宇株式会社,,株式会社,大阪府,大阪市天王寺区,四天王寺１丁目５番５号,,27,109,5430051,,,,,,,2024-10-31,1,,,,,ゲンウ,0
387,2120001269843,新規,0,2024-10-31,2024-10-31,Ｗｏｒｌｄ　Ｔｒａｄｅ　Ｃｅｎｔｅｒ　Ｏｓａｋａ株式会社,,株式会社,大阪府,大阪市北区,堂島１丁目１番５号関電不動産梅田新道ビル２階,,27,127,5300003,,,,,,,2024-10-31,1,,,,,ワールドトレードセンターオオサカ,0
388,2120001269876,新規,0,2024-10-31,2024-10-31,株式会社アラジン,,株式会社,大阪府,大阪市港区,夕凪２丁目１８番７－５０１号,,27,107,5520004,,,,,,,2024-10-31,1,,,,,アラジン,0
389,2120001269884,新規,0,2024-10-31,2024-10-31,株式会社アシスト,,株式会社,大阪府,大阪市中央区,南船場３丁目２番２２号おおきに南船場ビル２０５,,27,128,5420081,,,,,,,2024-10-31,1,,,,,アシスト,0
390,2120001269901,新規,0,2024-10-31,2024-10-31,颯栄株式会社,,株式会社,大阪府,大阪市住吉区,長居４丁目１０番２８号,,27,120,5580003,,,,,,,2024-10-31,1,,,,,ソウエイ,0
391,2120001269918,新規,0,2024-10-31,2024-10-31,株式会社ファスリーズ,,株式会社,大阪府,大阪市中央区,博労町３丁目５番１号,,27,128,5410059,,,,,,,2024-10-31,1,,,,,ファスリーズ,0
392,2120001269934,新規,0,2024-10-31,2024-10-31,松源商社株式会社,,株式会社,大阪府,大阪市西成区,北津守３丁目１２－２１－２０１号室,,27,122,5570061,,,,,,,2024-10-31,1,,,,,マツゲンショウシャ,0
401,2120003027869,新規,0,2024-10-31,2024-10-31,合同会社カイオウ,,合同会社,大阪府,大阪市中央区,高津２丁目４－２１おおきに道頓堀ビル４１１号室,,27,128,5420072,,,,,,,2024-10-31,1,,,,,カイオウ,0
406,2120101070498,新規,0,2024-10-31,2024-10-31,株式会社真野,,株式会社,大阪府,泉南市,岡田５丁目２０番１８号,,27,228,5900531,,,,,,,2024-10-31,1,,,,,マノ,0
407,2120101070507,新規,0,2024-10-31,2024-10-31,株式会社根来電機,,株式会社,大阪府,岸和田市,南上町１丁目２９番４号,,27,202,5960078,,,,,,,2024-10-31,1,,,,,ネゴロデンキ,0
411,2120901049972,新規,0,2024-10-31,2024-10-31,日東真空工業株式会社,,株式会社,大阪府,吹田市,佐竹台１丁目５番１０－３１３号,,27,205,5650855,,,,,,,2024-10-31,1,,,,,ニットウシンクウコウギョウ,0
415,2130001078252,新規,0,2024-10-31,2024-10-31,豊鏈芸樹株式会社,,株式会社,京都府,京都市右京区,嵯峨野宮ノ元町４９番２１,,26,108,6168315,,,,,,,2024-10-31,1,,,,,ホウレンゲイジュ,0
424,2140001136240,新規,0,2024-10-31,2024-10-31,株式会社リンクセンシア,,株式会社,兵庫県,西宮市,城ケ堀町２番２１－６０２号,,28,204,6620856,,,,,,,2024-10-31,1,,,,,リンクセンシア,0
430,2160001026316,新規,0,2024-10-31,2024-10-31,株式会社フレイム,,株式会社,滋賀県,栗東市,御園１１６７番地６,,25,208,5203005,,,,,,,2024-10-31,1,,,,,フレイム,0
431,2160003003321,新規,0,2024-10-31,2024-10-31,合同会社ＨＳＫＫＳ,,合同会社,滋賀県,大津市,雄琴６丁目２３番６号,,25,201,5200101,,,,,,,2024-10-31,1,,,,,エイチエスケイケイエス,0
435,2180001163917,新規,0,2024-10-31,2024-10-31,株式会社ＫＧＣＳ,,株式会社,愛知県,北名古屋市,北野神明前６５番地２,,23,234,4810034,,,,,,,2024-10-31,1,,,,,ケージーシーエス,0
441,2190003004845,新規,0,2024-10-31,2024-10-31,合同会社Ｍｐｒｏ,,合同会社,三重県,松阪市,立野町４６６番地５,,24,204,5150054,,,,,,,2024-10-31,1,,,,,エムプロ,0
443,2210001019958,新規,0,2024-10-31,2024-10-31,株式会社吉田教材,,株式会社,福井県,大野市,猪島４号３番地,,18,205,9120404,,,,,,,2024-10-31,1,,,,,ヨシダキョウザイ,0
450,2240005015851,新規,0,2024-10-31,2024-10-31,一般社団法人創業事業継続振興会,,その他の設立登記法人,広島県,福山市,東吉津町１番２－１０３号,,34,207,7200071,,,,,,,2024-10-31,1,,,,,ソウギョウジギョウケイゾクシンコウカイ,0
452,2250001020870,新規,0,2024-10-31,2024-10-31,株式会社ＡＣＴＡ　ＰＬＵＳ,,株式会社,山口県,周南市,大字久米３０３４番地の１,,35,215,7450801,,,,,,,2024-10-31,1,,,,,アクタプラス,0
460,2290001107722,新規,0,2024-10-31,2024-10-31,株式会社ＵＫＹＥ,,株式会社,福岡県,福岡市中央区,渡辺通２丁目６番１２号,,40,133,8100004,,,,,,,2024-10-31,1,,,,,ユーケーワイイー,0
461,2290001107821,新規,0,2024-10-31,2024-10-31,株式会社アクセラ,,株式会社,福岡県,福岡市中央区,大名１丁目３番４１号プリオ大名ビル２Ｆ,,40,133,8100041,,,,,,,2024-10-31,1,,,,,,0
470,2300001013951,新規,0,2024-10-31,2024-10-31,株式会社Ｎｏａｈ’ｓ,,株式会社,佐賀県,佐賀市,巨勢町牛島１０３－２,,41,201,8490000,,,,,,,2024-10-31,1,,,,,ノアズ,0
471,2310001019295,新規,0,2024-10-31,2024-10-31,株式会社がぎゅう,,株式会社,長崎県,佐世保市,木原町１８９７番地１,,42,202,8593166,,,,,,,2024-10-31,1,,,,,ガギュウ,0
474,2330001032593,新規,0,2024-10-31,2024-10-31,株式会社キゴコロ,,株式会社,熊本県,上益城郡山都町,南田３６番地１,,43,447,8613546,,,,,,,2024-10-31,1,,,,,キゴコロ,0
475,2340001026891,新規,0,2024-10-31,2024-10-31,株式会社Ｊｏｉｎｔ,,株式会社,鹿児島県,肝属郡肝付町,新富７２６番地２,,46,492,8931207,,,,,,,2024-10-31,1,,,,,ジョイント,0
487,2360001034389,新規,0,2024-10-31,2024-10-31,華瑞株式会社,,株式会社,沖縄県,豊見城市,字豊見城３１９番地１,,47,212,9010241,,,,,,,2024-10-31,1,,,,,カズイ,0
491,2380001034874,新規,0,2024-10-31,2024-10-31,株式会社ＳＴＪ,,株式会社,福島県,福島市,置賜町８番１５号ピア２１ビル４Ｆ‐Ａ,,07,201,9608034,,,,,,,2024-10-31,1,,,,,エスティジェイ,0
494,2390003002300,新規,0,2024-10-31,2024-10-31,合同会社ＳＳＳ,,合同会社,山形県,山形市,南館５丁目２番２７号藤木ビル１Ｆ,,06,201,9902461,,,,,,,2024-10-31,1,,,,,スリーエス,0
500,2430001092966,新規,0,2024-10-31,2024-10-31,株式会社ＲＩＶＥＲ　ＣＯＵＮＴＲＹ,,株式会社,北海道,札幌市中央区,北十二条西２０丁目２番１号札幌市中央卸売市場水産棟４階,,01,101,0600012,,,,,,,2024-10-31,1,,,,,リバーカントリー,0
503,2430003016948,新規,0,2024-10-31,2024-10-31,合同会社Ｓｕｎｉｔ,,合同会社,北海道,札幌市北区,新琴似三条６丁目１番８号,,01,102,0010903,,,,,,,2024-10-31,1,,,,,エスユニット,0
508,2700150002954,新規,0,2024-10-31,2015-10-09,全国町村議会議員互助会,,その他,東京都,千代田区,一番町２５全国町村議員会館　２階,,13,101,1020082,,,,,,,2015-10-09,1,,,,,ゼンコクチヨウソンギカイギインゴジヨカイ,0
509,2700150127644,新規,0,2024-10-31,2024-10-31,ＢＨＡＴＴＩ　ＦＩＬＬＩＮＧ　ＳＴＡＴＩＯＮ,,外国会社等,茨城県,猿島郡境町,大字塚崎２９９５番地,,08,546,3060405,パキスタン・イスラム共和国、シェイクプラ地区、バティガソリンスタンドカーンプールテヒシルフェローズワラ,,,,,,2024-10-31,1,,,,,バツテイフイリングステーシヨン,0
517,3010001249335,新規,0,2024-10-31,2024-10-31,株式会社ＡＧＫ,,株式会社,東京都,千代田区,神田三崎町２丁目１７番８号ドメス水道橋２Ｆ－４,,13,101,1010061,,,,,,,2024-10-31,1,,,,,エジケ,0
518,3010001249483,新規,0,2024-10-31,2024-10-31,株式会社Ｓｍｉｌｅ　ａｎｄ　Ｊａｓｍｉｎｅ,,株式会社,東京都,千代田区,神田佐久間町１丁目８番４号アルテール秋葉原７０８,,13,101,1010025,,,,,,,2024-10-31,1,,,,,スマイルアンドジャスミン,0
519,3010003045311,新規,0,2024-10-31,2024-10-31,ガーネットスリー合同会社,,合同会社,東京都,中央区,日本橋１丁目４番１号日本橋一丁目ビルディング,,13,102,1030027,,,,,,,2024-10-31,1,,,,,ガーネットスリー,0
520,3010003045344,新規,0,2024-10-31,2024-10-31,合同会社Ｆｌｏｕｒｉｓｈ,,合同会社,東京都,千代田区,丸の内１丁目４番１号東京共同会計事務所内,,13,101,1000005,,,,,,,2024-10-31,1,,,,,フローリッシュ,0
537,3010903009448,新規,0,2024-10-31,2024-10-31,ＢＢラボ合同会社,,合同会社,東京都,世田谷区,世田谷３丁目１７番１５号,,13,112,1540017,,,,,,,2024-10-31,1,,,,,ビービーラボ,0
549,3011501031323,新規,0,2024-10-31,2024-10-31,悦＿株式会社,00136843,株式会社,東京都,北区,豊島２丁目１０番６号４階,,13,117,1140003,,,,,,,2024-10-31,1,,,,,エツケイ,0
551,3011601028161,新規,0,2024-10-31,2024-10-31,株式会社ウッドラフ,,株式会社,東京都,練馬区,中村２丁目１７番１６号,,13,120,1760024,,,,,,,2024-10-31,1,,,,,ウッドラフ,0
553,3011701027765,新規,0,2024-10-31,2024-10-31,アトラスアセット株式会社,,株式会社,東京都,江戸川区,平井６丁目３６番３号,,13,123,1320035,,,,,,,2024-10-31,1,,,,,アトラスアセット,0
554,3011801045007,新規,0,2024-10-31,2024-10-31,株式会社Ｗ　ＰＬＵＳ　ＤＥＳＩＧＮＯ,,株式会社,東京都,足立区,中央本町１丁目１８番１４－８０８号,,13,121,1200011,,,,,,,2024-10-31,1,,,,,ダブリュープラスデジーノ,0
556,3011803006535,新規,0,2024-10-31,2024-10-31,スペックスタイル合同会社,,合同会社,東京都,足立区,西伊興２丁目２番１１号,,13,121,1210824,,,,,,,2024-10-31,1,,,,,スペックスタイル,0
557,3012401042435,新規,0,2024-10-31,2024-10-31,株式会社ＮＤＲ,,株式会社,東京都,三鷹市,新川６丁目３６番２２－２０８号村越ビル,,13,204,1810004,,,,,,,2024-10-31,1,,,,,エヌディーアール,0
558,3012403006818,新規,0,2024-10-31,2024-10-31,ｂａｍｂｏｏ　ｍｏｔｉｏｎ合同会社,,合同会社,東京都,武蔵野市,吉祥寺南町５丁目１番８号ヤマトビル４０３,,13,203,1800003,,,,,,,2024-10-31,1,,,,,バンブーモーション,0
560,3013103001381,新規,0,2024-10-31,2024-10-31,ＭＩＮＡＫＳＨＩ合同会社,,合同会社,東京都,福生市,大字熊川５０７番地６コーポリプリット１０１号室,,13,218,1970003,,,,,,,2024-10-31,1,,,,,ミナクシ,0
565,3013303007369,新規,0,2024-10-31,2024-10-31,ユニバーサルギア合同会社,,合同会社,東京都,豊島区,池袋３丁目３４番７号ビジネスパーク池袋２階,,13,116,1710014,,,,,,,2024-10-31,1,,,,,ユニバーサルギア,0
566,3013303007377,新規,0,2024-10-31,2024-10-31,合同会社ａｖｅｎｉｒ,,合同会社,東京都,豊島区,東池袋１丁目３９番８号,,13,116,1700013,,,,,,,2024-10-31,1,,,,,アヴニール,0
570,3020001159830,新規,0,2024-10-31,2024-10-31,株式会社Ｒ’ｆｒｅｅ,,株式会社,神奈川県,横浜市南区,高砂町２丁目２７番地１０コーポＧ１０２,,14,105,2320025,,,,,,,2024-10-31,1,,,,,アールフリー,0
590,3030001163187,新規,0,2024-10-31,2024-10-31,天鳳総業株式会社,,株式会社,埼玉県,入間市,大字上藤沢９２５－６,,11,225,3580013,,,,,,,2024-10-31,1,,,,,テンホウソウギョウ,0
593,3030003025402,新規,0,2024-10-31,2024-10-31,アッカプロジェット合同会社,,合同会社,埼玉県,ふじみ野市,上福岡１丁目４－１０協和ハイツ１０２,,11,245,3560004,,,,,,,2024-10-31,1,,,,,アッカプロジェット,0
594,3030003025410,新規,0,2024-10-31,2024-10-31,合同会社Ｆｉｎｅ‐ｎａｔｕｒａｌ‐ｒｕｇ,,合同会社,埼玉県,さいたま市浦和区,北浦和３丁目２番１８号６０３,,11,107,3300074,,,,,,,2024-10-31,1,,,,,ファインナチュラルラグ,0
609,3070001042321,新規,0,2024-10-31,2024-10-31,株式会社アズイズ,,株式会社,群馬県,前橋市,高花台１丁目１３番地１６,,10,201,3710123,,,,,,,2024-10-31,1,,,,,アズイズ,0
615,3100001037961,新規,0,2024-10-31,2024-10-31,Ｋａｓｐａ　Ｐａｙ株式会社,,株式会社,長野県,長野市,松代町東条２９９８番地１,,20,201,3811221,,,,,,,2024-10-31,1,,,,,カスパペイ,0
625,3120001269776,新規,0,2024-10-31,2024-10-31,株式会社Ｋ．Ｔ不動産,,株式会社,大阪府,大阪市中央区,南久宝寺町４丁目４番１３号大東ビル５０５,,27,128,5410058,,,,,,,2024-10-31,1,,,,,ケイティフドウサン,0
626,3120001269859,新規,0,2024-10-31,2024-10-31,株式会社ＢＡＬＤＢＯＳＳ,,株式会社,大阪府,大阪市中央区,瓦屋町３丁目７番２０－３０６号,,27,128,5420066,,,,,,,2024-10-31,1,,,,,バルドボス,0
627,3120001269867,新規,0,2024-10-31,2024-10-31,株式会社ＡＸＩＳ,,株式会社,大阪府,大阪市中央区,東高麗橋２－３３セレニテ北浜１００７,,27,128,5400039,,,,,,,2024-10-31,1,,,,,アクシス,0
628,3120001269875,新規,0,2024-10-31,2024-10-31,株式会社ＢｌｉｓｓＮｅｓｓ,,株式会社,大阪府,大阪市中央区,南本町２丁目５番９－２８０２号,,27,128,5410054,,,,,,,2024-10-31,1,,,,,ブリスネス,0
629,3120001269917,新規,0,2024-10-31,2024-10-31,株式会社ミナセ,,株式会社,大阪府,大阪市福島区,福島５丁目１３－１８福島ビル１階,,27,103,5530003,,,,,,,2024-10-31,1,,,,,ミナセ,0
630,3120001269925,新規,0,2024-10-31,2024-10-31,株式会社Ａ’ＫＢＩ,,株式会社,大阪府,大阪市北区,梅田１丁目２番２号大阪駅前第２ビル１２－１２,,27,127,5300001,,,,,,,2024-10-31,1,,,,,アクビ,0
631,3120003027868,新規,0,2024-10-31,2024-10-31,合同会社セブン,,合同会社,大阪府,大阪市西区,靱本町３丁目１０番２２－３０１号,,27,106,5500004,,,,,,,2024-10-31,1,,,,,セブン,0
632,3120003027884,新規,0,2024-10-31,2024-10-31,合同会社東成経営,,合同会社,大阪府,大阪市東成区,東中本２丁目２番２６号,,27,115,5370021,,,,,,,2024-10-31,1,,,,,ヒガシナリケイエイ,0
636,3120101070514,新規,0,2024-10-31,2024-10-31,株式会社センヨー,,株式会社,大阪府,堺市南区,豊田１５３６番地４,,27,145,5900106,,,,,,,2024-10-31,1,,,,,センヨー,0
639,3120901049971,新規,0,2024-10-31,2024-10-31,株式会社ＢＥＮＴＯ,,株式会社,大阪府,吹田市,岸部南３丁目３番１号オフィスＡＳＡＨＩ１０２号,,27,205,5640011,,,,,,,2024-10-31,1,,,,,ベント,0
648,3160003003320,新規,0,2024-10-31,2024-10-31,合同会社Ｗｏｌｖｅｓ,,合同会社,滋賀県,大津市,稲津２丁目１６番１８号２０１,,25,201,5202271,,,,,,,2024-10-31,1,,,,,ウルブス,0
649,3170001018360,新規,0,2024-10-31,2024-10-31,佐康園株式会社,,株式会社,和歌山県,有田郡有田川町,大字土生９７番地,,30,366,6430025,,,,,,,2024-10-31,1,,,,,サコウエン,0
665,3200003006566,新規,0,2024-10-31,2024-10-31,合同会社八木林業,,合同会社,岐阜県,下呂市,萩原町尾崎３９６７番地２,,21,220,5092508,,,,,,,2024-10-31,1,,,,,ヤギリンギョウ,0
667,3220005008897,新規,0,2024-10-31,2024-10-31,社会保険労務士法人ビータス,,その他の設立登記法人,石川県,金沢市,涌波２丁目１４番１０号,,17,201,9200953,,,,,,,2024-10-31,1,,,,,,0
686,3290001107721,新規,0,2024-10-31,2024-10-31,株式会社ベルボトム,,株式会社,福岡県,糟屋郡宇美町,障子岳６丁目５番６号,,40,341,8112127,,,,,,,2024-10-31,1,,,,,ベルボトム,0
692,3310003004889,新規,0,2024-10-31,2024-10-31,ＳＰＥＥＤ合同会社,,合同会社,長崎県,松浦市,志佐町浦免９０８番地１,,42,208,8594501,,,,,,,2024-10-31,1,,,,,スピード,0
693,3330003010621,新規,0,2024-10-31,2024-10-31,合同会社三輪社,,合同会社,熊本県,熊本市東区,戸島４丁目１番４５号,,43,102,8618041,,,,,,,2024-10-31,1,,,,,サンリンシャ,0
696,3340001026899,新規,0,2024-10-31,2024-10-31,ＧＦＩホールディングス株式会社,,株式会社,鹿児島県,大島郡徳之島町,亀津５２８９番地１,,46,530,8917101,,,,,,,2024-10-31,1,,,,,ジーエフアイホールディングス,0
700,3380001034873,新規,0,2024-10-31,2024-10-31,開星株式会社,,株式会社,福島県,いわき市,平字五色町５７番地の１,,07,204,9708026,,,,,,,2024-10-31,1,,,,,カイセイ,0
711,3430003016955,新規,0,2024-10-31,2024-10-31,ＭＩＵＰＬＵＳ合同会社,,合同会社,北海道,札幌市東区,北四十三条東４丁目１番２０－１０１号,,01,103,0070843,,,,,,,2024-10-31,1,,,,,ミウプラス,0
717,3700150127643,新規,0,2024-10-31,2024-10-31,Ｉｎｖｉｃｔｕｓ　Ｂａｎｚａｉ　Ｐｔｅ．Ｌｔｄ．,,外国会社等,東京都,港区,虎ノ門５丁目１番５号,,13,103,1050001,シンガポール共和国、ロビンソンロード１３８、オクスリータワー＃０５－０３,,,,,,2024-10-31,1,,,,,インビクタスバンザイピーテイーイーリミテツド,0
726,4010001249177,新規,0,2024-10-31,2024-10-31,株式会社ＯＲＩＧＡＭＩ,,株式会社,東京都,中央区,日本橋箱崎町３０－１・Ａ．ｉ．Ｎｉｈｏｍｂａｓｈｉ・ＥＡＳＴ・１Ｆ,00136842,13,102,1030015,,,,,,,2024-10-31,1,,,,,オリガミ,0
728,4010003045310,新規,0,2024-10-31,2024-10-31,合同会社ｊｕｉｎ,,合同会社,東京都,中央区,銀座１丁目２２番１１号,,13,102,1040061,,,,,,,2024-10-31,1,,,,,ジュアン,0
729,4010003045319,新規,0,2024-10-31,2024-10-31,虎ノ門インベストメント合同会社,,合同会社,東京都,中央区,京橋２丁目１２番６号ＡＯＪ税理士法人内,,13,102,1040031,,,,,,,2024-10-31,1,,,,,トラノモンインベストメント,0
737,4010401186078,新規,0,2024-10-31,2024-10-31,株式会社Ｙ．Ｋ．ＪＡＰＡＮ,,株式会社,東京都,港区,南青山３丁目１番３６号青山丸竹ビル６Ｆ,,13,103,1070062,,,,,,,2024-10-31,1,,,,,ワイケージャパン,0
740,4010501053095,新規,0,2024-10-31,2024-10-31,株式会社パンインテリア建設,,株式会社,東京都,台東区,台東４丁目８番５号,,13,106,1100016,,,,,,,2024-10-31,1,,,,,パンインテリアケンセツ,0
741,4010601066204,新規,0,2024-10-31,2024-10-31,ＡＩＡＩ　Ｉｎｃｌｕｓｉｖｅ株式会社,,株式会社,東京都,墨田区,錦糸１丁目２番１号,,13,107,1300013,,,,,,,2024-10-31,1,,,,,アイアイインクルーシブ,0
753,4011101109337,新規,0,2024-10-31,2024-10-31,株式会社ＡＮＧＥＬ　ＧＲＯＵＰ　ＥＮＴＥＲＴＡＩＮＭＥＮＴ,,株式会社,東京都,新宿区,四谷４丁目９番地新宿４４ステーションビル,,13,104,1600004,,,,,,,2024-10-31,1,,,,,エンジェルグループエンターテインメント,0
758,4011501031314,新規,0,2024-10-31,2024-10-31,和信株式会社,,株式会社,東京都,荒川区,町屋３丁目１－１３,,13,118,1160001,,,,,,,2024-10-31,1,,,,,ワシン,0
764,4011801045088,新規,0,2024-10-31,2024-10-31,株式会社ＩＤＥＡＬ,,株式会社,東京都,足立区,梅田７丁目３７番８号,,13,121,1230851,,,,,,,2024-10-31,1,,,,,アイディール,0
767,4012801023538,新規,0,2024-10-31,2024-10-31,株式会社Ｐｅａｋｓ,,株式会社,東京都,国立市,中１丁目１４－８くにたち小野ビル２階,,13,215,1860004,,,,,,,2024-10-31,1,,,,,ピークス,0
772,4013301053298,新規,0,2024-10-31,2024-10-31,エリートステイサービス株式会社,,株式会社,東京都,豊島区,東池袋４丁目２番１号プラウドタワー東池袋ステーションアリーナ３１０７号室,,13,116,1700013,,,,,,,2024-10-31,1,,,,,エリートステイサービス,0
773,4013303007368,新規,0,2024-10-31,2024-10-31,万宏合同会社,,合同会社,東京都,豊島区,池袋１丁目２番６号ベルメゾン池袋１０４,,13,116,1700014,,,,,,,2024-10-31,1,,,,,バンコウ,0
776,4020001159730,新規,0,2024-10-31,2024-10-31,ワンフィニタス株式会社,,株式会社,神奈川県,横浜市西区,浅間町１丁目４番地３ウィザードビル４０２,,14,103,2200072,,,,,,,2024-10-31,1,,,,,ワンフィニタス,0
777,4020001159771,新規,0,2024-10-31,2024-10-31,がんばる株式会社,,株式会社,神奈川県,横浜市中区,尾上町３丁目３５リストイーストビルＢ１Ｆ,,14,104,2310015,,,,,,,2024-10-31,1,,,,,ガンバル,0
778,4020001159838,新規,0,2024-10-31,2024-10-31,株式会社フォレスト・ウッズ,,株式会社,神奈川県,横浜市神奈川区,神奈川２丁目９番地１５,,14,102,2210045,,,,,,,2024-10-31,1,,,,,フォレストウッズ,0
779,4020001159846,新規,0,2024-10-31,2024-10-31,日本水素エネルギー動力株式会社,,株式会社,神奈川県,横浜市金沢区,福浦２丁目１１番３号,,14,108,2360004,,,,,,,2024-10-31,1,,,,,ニホンスイソエネルギードウリョク,0
782,4020003027159,新規,0,2024-10-31,2024-10-31,合同会社出川,,合同会社,神奈川県,横浜市鶴見区,矢向４丁目５番２０号,,14,101,2300001,,,,,,,2024-10-31,1,,,,,デガワ,0
783,4020003027167,新規,0,2024-10-31,2024-10-31,アオミーキャピタル合同会社,,合同会社,神奈川県,横浜市神奈川区,金港町５－１４クアドリフォリオ８階,,14,102,2210056,,,,,,,2024-10-31,1,,,,,アオミーキャピタル,0
785,4020005016580,新規,0,2024-10-31,2024-10-31,一般社団法人カミスク,,その他の設立登記法人,神奈川県,川崎市麻生区,王禅寺西６丁目１０－２１,,14,137,2150017,,,,,,,2024-10-31,1,,,,,カミスク,0
788,4021001083607,新規,0,2024-10-31,2024-10-31,株式会社ＴＯＩＶＯＡ,,株式会社,神奈川県,大和市,下鶴間２３３５番地１リエスつきみ野１０２号室,,14,213,2420001,,,,,,,2024-10-31,1,,,,,トイヴォア,0
797,4030001163211,新規,0,2024-10-31,2024-10-31,株式会社エヌ＆エス,,株式会社,埼玉県,深谷市,上野台２３５２番地ダイアパレスＢＷ深谷８２８号,,11,218,3660801,,,,,,,2024-10-31,1,,,,,エヌアンドエス,0
801,4030005021919,新規,0,2024-10-31,2024-10-31,農事組合法人センチュリオン,,その他の設立登記法人,埼玉県,春日部市,上蛭田２４８番地１山口ハイツ１０１号室,,11,214,3440046,,,,,,,2024-10-31,1,,,,,センチュリオン,0
813,4040003025953,新規,0,2024-10-31,2024-10-31,楽亭合同会社,,合同会社,千葉県,船橋市,金杉９丁目１５－１６－１Ｆ,,12,204,2730853,,,,,,,2024-10-31,1,,,,,ラクテイ,0
822,4080101025100,新規,0,2024-10-31,2024-10-31,大宮精機ホールディングス株式会社,,株式会社,静岡県,富士宮市,万野原新田３７１８番地の１,,22,207,4180001,,,,,,,2024-10-31,1,,,,,オオミヤセイキホールディングス,0
829,4100003007838,新規,0,2024-10-31,2024-10-31,Ａｄｖｅｎｔｕｒｅ　Ｊａｐａｎ合同会社,,合同会社,長野県,長野市,鬼無里日影４９１９番地,,20,201,3814302,,,,,,,2024-10-31,1,,,,,アドベンチャージャパン,0
831,4100005013248,新規,0,2024-10-31,2024-10-31,一般社団法人上土シネマミュージアム,,その他の設立登記法人,長野県,松本市,大手４丁目１０番１２号,,20,202,3900874,,,,,,,2024-10-31,1,,,,,アゲツチシネマミュージアム,0
834,4110005017149,新規,0,2024-10-31,2024-10-31,特定非営利活動法人Ｎｅｏアスビレッジ,,その他の設立登記法人,新潟県,新潟市東区,長者町５番１５号,,15,102,9500066,,,,,,,2024-10-31,1,,,,,ネオアスビレッジ,0
839,4120001269809,新規,0,2024-10-31,2024-10-31,初美株式会社,,株式会社,大阪府,大阪市中央区,松屋町９番２０号ローレルステート松屋町１４０５Ａ,,27,128,5420067,,,,,,,2024-10-31,1,,,,,ショミ,0
840,4120001269841,新規,0,2024-10-31,2024-10-31,株式会社Ｍｉｒａｉ　Ｍｏｂｉｌｉｔｙ,,株式会社,大阪府,大阪市北区,西天満３丁目５番１８号第三新興ビル５０３,,27,127,5300047,,,,,,,2024-10-31,1,,,,,ミライモビリティ,0
841,4120001269866,新規,0,2024-10-31,2024-10-31,ゼフィリア株式会社,,株式会社,大阪府,門真市,島頭４丁目２４番１７号,,27,223,5710016,,,,,,,2024-10-31,1,,,,,ゼフィリア,0
842,4120001269882,新規,0,2024-10-31,2024-10-31,株式会社ＳｎｏｗＰｉｎｅ,,株式会社,大阪府,大阪市生野区,新今里５丁目１２番９号オーシャン今里,,27,116,5440001,,,,,,,2024-10-31,1,,,,,スノーパイン,0
843,4120001269899,新規,0,2024-10-31,2024-10-31,株式会社未来方程,,株式会社,大阪府,大阪市中央区,高津２丁目４－２１,,27,128,5420072,,,,,,,2024-10-31,1,,,,,ミライホウテイ,0
844,4120001269916,新規,0,2024-10-31,2024-10-31,株式会社Ｆｌｏｒｅｎｃｅ,,株式会社,大阪府,枚方市,長尾元町１丁目３３番６７号,,27,210,5730163,,,,,,,2024-10-31,1,,,,,フローレンス,0
848,4120003027867,新規,0,2024-10-31,2024-10-31,合同会社一織人,,合同会社,大阪府,大阪市平野区,平野北１丁目１０番３３号ＣＹＰＲＥＳＳ・ＨＩＲＡＮＯ２階,,27,126,5470041,,,,,,,2024-10-31,1,,,,,イオト,0
849,4120003027875,新規,0,2024-10-31,2024-10-31,合同会社ゲート,,合同会社,大阪府,大阪市西区,京町堀２丁目１３番１０－３０８号,,27,106,5500003,,,,,,,2024-10-31,1,,,,,ゲート,0
850,4120101070505,新規,0,2024-10-31,2024-10-31,伍伍ｓｔｙｌｅ株式会社,,株式会社,大阪府,泉北郡忠岡町,忠岡南３丁目７番１４号,,27,341,5950813,,,,,,,2024-10-31,1,,,,,ゴンゴスタイル,0
852,4120901049970,新規,0,2024-10-31,2024-10-31,ＫＡＷＡＳＡＫＩ　ＥＬＥＸ株式会社,,株式会社,大阪府,茨木市,沢良宜浜１丁目１１番１７号の３,,27,211,5670864,,,,,,,2024-10-31,1,,,,,カワサキエレックス,0
868,4180301039179,新規,0,2024-10-31,2024-10-31,株式会社Ｃｏｒｅｎ,,株式会社,愛知県,豊橋市,西口町字元茶屋９２番地１,,23,201,4400841,,,,,,,2024-10-31,1,,,,,コーレン,0
872,4190003004843,新規,0,2024-10-31,2024-10-31,ＳｅｃｕｒｅＢａｓｅ合同会社,,合同会社,三重県,松阪市,南町２７５番地５,,24,204,5150034,,,,,,,2024-10-31,1,,,,,セキュアベース,0
879,4240001064017,新規,0,2024-10-31,2024-10-31,株式会社ＲＥ,,株式会社,広島県,広島市中区,八丁堀１番２３号,,34,101,7300013,,,,,,,2024-10-31,1,,,,,アールイー,0
885,4250003003582,新規,0,2024-10-31,2024-10-31,合同会社みわるごん,,合同会社,山口県,下関市,一の宮町２丁目２番地１７－６１３号サンライズ一の宮,,35,201,7510806,,,,,,,2024-10-31,1,,,,,ミワルゴン,0
896,4290001107753,新規,0,2024-10-31,2024-10-31,株式会社ＺＥＮコーポレーション,,株式会社,福岡県,福岡市南区,野間３丁目１８番１２－１０１号,,40,134,8150041,,,,,,,2024-10-31,1,,,,,ゼンコーポレーション,0
899,4290003016011,新規,0,2024-10-31,2024-10-31,合同会社ＯＮＥＪＯＹ,,合同会社,福岡県,福岡市南区,野多目５丁目１５番４号,,40,134,8111347,,,,,,,2024-10-31,1,,,,,ワンジョイ,0
900,4290801030997,新規,0,2024-10-31,2024-10-31,賦源株式会社,,株式会社,福岡県,宮若市,宮田５４９２番１８,,40,226,8230011,,,,,,,2024-10-31,1,,,,,フゲン,0
907,4310003004888,新規,0,2024-10-31,2024-10-31,合同会社ｍａｅｍｕｋｉ,,合同会社,長崎県,松浦市,志佐町浦免９０８番地１,,42,208,8594501,,,,,,,2024-10-31,1,,,,,マエムキ,0
912,4330001032600,新規,0,2024-10-31,2024-10-31,株式会社宮本電工社,,株式会社,熊本県,宇城市,小川町南小野１１８５番地,,43,213,8690603,,,,,,,2024-10-31,1,,,,,ミヤモトデンコウシャ,0
921,4340003004646,新規,0,2024-10-31,2024-10-31,合同会社ａｎｄ湧水,,合同会社,鹿児島県,姶良郡湧水町,木場１０７４番２号,,46,452,8996201,,,,,,,2024-10-31,1,,,,,アンドユウスイ,0
934,4380005012890,新規,0,2024-10-31,2024-10-31,エフティーライン協同組合,,その他の設立登記法人,福島県,石川郡平田村,大字上蓬田字上槍＿６０番地,00136852,07,503,9638202,,,,,,,2024-10-31,1,,,,,エフティーライン,0
941,4430001092972,新規,0,2024-10-31,2024-10-31,株式会社ＨＡＲＥＲＵＬＩＦＥ,,株式会社,北海道,江別市,牧場町３番地の６,,01,217,0670005,,,,,,,2024-10-31,1,,,,,ハレルライフ,0
942,4430001092980,新規,0,2024-10-31,2024-10-31,ハウスバウ株式会社,,株式会社,北海道,札幌市中央区,円山西町５丁目９番５号,,01,101,0640944,,,,,,,2024-10-31,1,,,,,ハウスバウ,0
944,4430003016946,新規,0,2024-10-31,2024-10-31,合同会社すぷれっど,,合同会社,北海道,札幌市豊平区,月寒東三条９丁目２番１２号,,01,105,0620053,,,,,,,2024-10-31,1,,,,,スプレッド,0
947,4450001014438,新規,0,2024-10-31,2024-10-31,株式会社ＳＳレンタカー,,株式会社,北海道,旭川市,末広東二条６丁目２番１４号,,01,204,0718122,,,,,,,2024-10-31,1,,,,,エスエスレンタカー,0
956,4500001025974,新規,0,2024-10-31,2024-10-31,ｔｈｅ　ＴＥＮＴ．株式会社,,株式会社,愛媛県,松山市,空港通１丁目６番９号,,38,201,7900054,,,,,,,2024-10-31,1,,,,,テント,0
957,4700150127642,新規,0,2024-10-31,2024-10-31,Ｕｎｄｅｒｗａｔｅｒ　Ｃｏｎｓｔｒｕｃｔｉｏｎ　Ｃｏｒｐｏｒａｔｉｏｎ,,外国会社等,,,,,,,,１１０　Ｐｌａｉｎｓ　ＲＤ　Ｅｓｓｅｘ　ＣＴ　０６４２６　アメリカ合衆国,,,,,,2024-10-31,1,,,,,アンダーウオーターコンストラクシヨンコーポレーシヨン,0
958,4700150127650,新規,0,2024-10-31,2024-10-31,Ｙａｎｔａｉ　Ｃｈｅｎｇｗｅｉ　Ｉｎｔｅｒｎａｔｉｏｎａｌ　Ｌｏｇｉｓｔｉｃｓ　ｃｏ．ＬＴＤ,,外国会社等,,,,,,,,Ｎｏ．９，Ｚｈｉｃｈｕ　Ｓｏｕｔｈ　Ｒｏａｄ，Ｚｈｉｆｕ　Ｄｉｓｔｒｉｃｔ，Ｙａｎｔａｉ　Ｃｉｔｙ，Ｓｈａｎｄｏｎｇ　Ｐｒｏｖｉｎｃｅ，Ｃｈｉｎａ,,,,,,2024-10-31,1,,,,,ヤンタイチエンウエイインターナシヨナルロジステイクスカンパニーリミテツド,0
962,5010001249390,新規,0,2024-10-31,2024-10-31,Ｄｒａｍａ　Ｔｉｍｅｓ株式会社,,株式会社,東京都,中央区,日本橋蛎殻町２丁目１１－２,,13,102,1030014,,,,,,,2024-10-31,1,,,,,ドラマタイムズ,0
963,5010001249424,新規,0,2024-10-31,2024-10-31,株式会社マウンテンキャッスル,,株式会社,東京都,中央区,銀座７丁目５－４,,13,102,1040061,,,,,,,2024-10-31,1,,,,,マウンテンキャッスル,0
964,5010001249457,新規,0,2024-10-31,2024-10-31,Ｙｅｌｌｏｗ　Ｕｎｉｔｅ株式会社,,株式会社,東京都,中央区,築地２丁目７番１２－１１０５号,,13,102,1040045,,,,,,,2024-10-31,1,,,,,イエローユナイト,0
966,5010003045342,新規,0,2024-10-31,2024-10-31,合同会社ＧＬＰＢＦ１,,合同会社,東京都,中央区,日本橋１丁目４番１号,,13,102,1030027,,,,,,,2024-10-31,1,,,,,ジーエルピービーエフワン,0
970,5010405023706,新規,0,2024-10-31,2024-10-31,一般社団法人Ｒメディカルクリニック,,その他の設立登記法人,東京都,港区,虎ノ門１丁目１番１１号マスダビル３階,,13,103,1050001,,,,,,,2024-10-31,1,,,,,アールメディカルクリニック,0
974,5010601066104,新規,0,2024-10-31,2024-10-31,株式会社Ｕｌａ,,株式会社,東京都,江東区,豊洲３丁目４－１ｓ１７１５,,13,108,1350061,,,,,,,2024-10-31,1,,,,,ウラ,0
983,5010901056226,新規,0,2024-10-31,2024-10-31,株式会社ビッグバウンス,,株式会社,東京都,世田谷区,成城２丁目３１番１３号メゾネット成城３０１,,13,112,1570066,,,,,,,2024-10-31,1,,,,,ビッグバウンス,0
987,5010903009454,新規,0,2024-10-31,2024-10-31,ＫＧＭ合同会社,,合同会社,東京都,世田谷区,成城１丁目２８番８号,,13,112,1570066,,,,,,,2024-10-31,1,,,,,ケイジーエム,0
990,5011001165603,新規,0,2024-10-31,2024-10-31,株式会社ＣＨＡＮＣＥ,,株式会社,東京都,渋谷区,宇田川町１番１２－１１１１号,,13,113,1500042,,,,,,,2024-10-31,1,,,,,チャンス,0
991,5011001165611,新規,0,2024-10-31,2024-10-31,株式会社Ｃａｓａ．ａｎｄ,,株式会社,東京都,渋谷区,神宮前６丁目２３番４号桑野ビル２階,,13,113,1500001,,,,,,,2024-10-31,1,,,,,カーサアンド,0
1000,5011101109377,新規,0,2024-10-31,2024-10-31,ＳＦＧ株式会社,,株式会社,東京都,新宿区,西新宿３丁目３番１３号西新宿水間ビル６階,,13,104,1600023,,,,,,,2024-10-31,1,,,,,エスエフジー,0
1003,5011401026545,新規,0,2024-10-31,2024-10-31,ＧＳＶ株式会社,,株式会社,東京都,板橋区,弥生町４９－７丸山荘２０１号室,,13,119,1730021,,,,,,,2024-10-31,1,,,,,ジーエスブイ,0
1007,5011501031321,新規,0,2024-10-31,2024-10-31,株式会社ＶａｍｏＣａｍｏ,,株式会社,東京都,荒川区,荒川３丁目３－１４,,13,118,1160002,,,,,,,2024-10-31,1,,,,,ヴァモカモ,0
1012,5011801045079,新規,0,2024-10-31,2024-10-31,株式会社ビックストーム,,株式会社,東京都,葛飾区,亀有３丁目１３番１５－９０３号ラヴィアンコート亀有,,13,122,1250061,,,,,,,2024-10-31,1,,,,,ビックストーム,0
1019,5012801023537,新規,0,2024-10-31,2024-10-31,株式会社ｔｏｍｏｎｉｓａｋａｅｒｕ,,株式会社,東京都,立川市,柴崎町２丁目２３番２４号アヴニール３０３,,13,202,1900023,,,,,,,2024-10-31,1,,,,,トモニサカエル,0
1030,5013301053289,新規,0,2024-10-31,2024-10-31,至道デザイン株式会社,,株式会社,東京都,豊島区,上池袋３丁目４７番９号４Ｆ－４号室,,13,116,1700012,,,,,,,2024-10-31,1,,,,,シドウデザイン,0
1031,5013303007367,新規,0,2024-10-31,2024-10-31,Ｋｏｎｇｓ合同会社,,合同会社,東京都,豊島区,池袋１丁目５－１７－１Ｆ,,13,116,1700014,,,,,,,2024-10-31,1,,,,,コーンス,0
1039,5020001159837,新規,0,2024-10-31,2024-10-31,株式会社ＤＡＷＧ　ＴＡＧ,,株式会社,神奈川県,横浜市戸塚区,深谷町５５番地２７,,14,110,2450067,,,,,,,2024-10-31,1,,,,,ドッグタッグ,0
1040,5020001159845,新規,0,2024-10-31,2024-10-31,株式会社Ｆｒｅｅ,,株式会社,神奈川県,横浜市南区,山王町２丁目１９番地１－７０６号,,14,105,2320013,,,,,,,2024-10-31,1,,,,,フリー,0
1043,5020003027166,新規,0,2024-10-31,2024-10-31,合同会社ワンチャンス,,合同会社,神奈川県,横浜市鶴見区,鶴見中央３丁目１番地６号,,14,101,2300051,,,,,,,2024-10-31,1,,,,,ワンチャンス,0
1045,5021001083655,新規,0,2024-10-31,2024-10-31,株式会社アンジュ,,株式会社,神奈川県,逗子市,小坪１丁目１５番２１号,,14,208,2490008,,,,,,,2024-10-31,1,,,,,アンジュ,0
1055,5030001163235,新規,0,2024-10-31,2024-10-31,株式会社ＭｉｒａＸｅｅｄ,,株式会社,埼玉県,児玉郡美里町,大字小茂田３９６番地１３,,11,381,3670101,,,,,,,2024-10-31,1,,,,,ミラシード,0
1059,5030005021918,新規,0,2024-10-31,2024-10-31,農事組合法人米谷ファーム,,その他の設立登記法人,埼玉県,春日部市,上蛭田２４８番地１山口ハイツ１０１号室,,11,214,3440046,,,,,,,2024-10-31,1,,,,,ヨネヤファーム,0
1064,5040003026075,新規,0,2024-10-31,2024-10-31,濱航辰合同会社,,合同会社,千葉県,市川市,新田３丁目１２番１０号－Ｂ室,,12,203,2720035,,,,,,,2024-10-31,1,,,,,ハマコウシン,0
1068,5060003005309,新規,0,2024-10-31,2024-10-31,合同会社龍希商事,,合同会社,栃木県,佐野市,犬伏新町８１１番６,,09,204,3270803,,,,,,,2024-10-31,1,,,,,タツキショウジ,0
1071,5070003005638,新規,0,2024-10-31,2024-10-31,森下合同会社,,合同会社,群馬県,太田市,龍舞町１８１３番地３,,10,205,3730806,,,,,,,2024-10-31,1,,,,,モリシタ,0
1072,5080001026569,新規,0,2024-10-31,2024-10-31,株式会社アリア,,株式会社,静岡県,静岡市葵区,梅ケ島３４６７番地,,22,101,4212301,,,,,,,2024-10-31,1,,,,,アリア,0
1081,5100001037968,新規,0,2024-10-31,2024-10-31,株式会社ゆう,,株式会社,長野県,伊那市,美篶４２２８番地７,,20,209,3960111,,,,,,,2024-10-31,1,,,,,ユウ,0
1084,5100003007845,新規,0,2024-10-31,2024-10-31,合同会社Ｏｇｆａｒｍ,,合同会社,長野県,中野市,大字越３７３番地,,20,211,3830005,,,,,,,2024-10-31,1,,,,,オージーファーム,0
1102,5120001269667,新規,0,2024-10-31,2024-10-31,三永株式会社,,株式会社,大阪府,大阪市平野区,瓜破３丁目３番６５－５１５号,,27,126,5470024,,,,,,,2024-10-31,1,,,,,サンエイ,0
1103,5120001269832,新規,0,2024-10-31,2024-10-31,株式会社ＮＡＲＩＴＡＩ,,株式会社,大阪府,大阪市北区,梅田１丁目１－３大阪駅前第３ビル２９階１－１－１号室,,27,127,5300001,,,,,,,2024-10-31,1,,,,,ナリタイ,0
1104,5120001269840,新規,0,2024-10-31,2024-10-31,株式会社ＲＡＫＵＧＡＫＵ,,株式会社,大阪府,大阪市北区,梅田１丁目１１番４号大阪駅前第四ビル９階９２３－１６７６号,,27,127,5300001,,,,,,,2024-10-31,1,,,,,ラクガク,0
1105,5120001269849,新規,0,2024-10-31,2024-10-31,吉冶株式会社,,株式会社,大阪府,大阪市西成区,花園南１丁目６番１０号４０２号室,,27,122,5570015,,,,,,,2024-10-31,1,,,,,キチジ,0
1106,5120001269873,新規,0,2024-10-31,2024-10-31,株式会社ＣＯＳＴＥＡＭ,,株式会社,大阪府,大阪市浪速区,難波中３丁目７番２号新難波ビル１階,,27,111,5560011,,,,,,,2024-10-31,1,,,,,コスチーム,0
1107,5120001269881,新規,0,2024-10-31,2024-10-31,株式会社ビッグライトカンパニー,,株式会社,大阪府,大阪市平野区,加美鞍作３丁目１－５－２１０,,27,126,5470004,,,,,,,2024-10-31,1,,,,,ビッグライトカンパニー,0
1108,5120001269915,新規,0,2024-10-31,2024-10-31,株式会社ＭＪ電算センター,,株式会社,大阪府,大阪市北区,西天満６丁目７番４号大阪弁護士ビル５１０号室,,27,127,5300047,,,,,,,2024-10-31,1,,,,,エムジェイデンサンセンター,0
1114,5120003027866,新規,0,2024-10-31,2024-10-31,Ｊａｙｅｆ　Ｔｒａｄｉｎｇ　Ｃｏｒｐｏｒａｔｉｏｎ合同会社,,合同会社,大阪府,大阪市西淀川区,大和田４丁目１３番１３－３０３号,,27,113,5550032,,,,,,,2024-10-31,1,,,,,ジャイフトレーディングコーポレーション,0
1115,5120003027874,新規,0,2024-10-31,2024-10-31,Ｔｈｅ　Ｗｏｌｆ　Ｊｐ合同会社,,合同会社,大阪府,大阪市東住吉区,湯里２丁目１３－２－５０５号,,27,121,5460013,,,,,,,2024-10-31,1,,,,,テーヴルフジャパン,0
1118,5120005024597,新規,0,2024-10-31,2024-10-31,一般社団法人Ｃｉａｏ,,その他の設立登記法人,大阪府,大阪市福島区,鷺洲１丁目２－８スピインスマンション３０３,,27,103,5530002,,,,,,,2024-10-31,1,,,,,チャオ,0
1120,5120101070504,新規,0,2024-10-31,2024-10-31,ニコニコ印刷株式会社,,株式会社,大阪府,河内長野市,荘園町３９番１号,,27,216,5860093,,,,,,,2024-10-31,1,,,,,ニコニコインサツ,0
1122,5120901049945,新規,0,2024-10-31,2024-10-31,株式会社リブ・ヤマグチ関西,,株式会社,大阪府,吹田市,広芝町４番１号江坂・ミタカビル３０２号室,,27,205,5640052,,,,,,,2024-10-31,1,,,,,リブヤマグチカンサイ,0
1130,5130003009962,新規,0,2024-10-31,2024-10-31,ＰＲＩＭＥ　ＯＮＥ合同会社,,合同会社,京都府,京都市左京区,田中樋ノ口町６,00136846,26,103,6068222,,,,,,,2024-10-31,1,,,,,プライムワン,0
1131,5130003009970,新規,0,2024-10-31,2024-10-31,合同会社三宅プロダクション,,合同会社,京都府,京都市左京区,一乗寺河原田町３７番地１,,26,103,6068172,,,,,,,2024-10-31,1,,,,,ミヤケプロダクション,0
1135,5140001136270,新規,0,2024-10-31,2024-10-31,木日木株式会社,,株式会社,兵庫県,淡路市,長澤４０５番地２,,28,226,6562221,,,,,,,2024-10-31,1,,,,,コビキ,0
1136,5140001136287,新規,0,2024-10-31,2024-10-31,株式会社ＯＡ,,株式会社,兵庫県,明石市,朝霧山手町１６－１３,,28,203,6730853,,,,,,,2024-10-31,1,,,,,オーエー,0
1138,5140005027251,新規,0,2024-10-31,2024-10-31,一般社団法人日本地域価値協奏社,,その他の設立登記法人,兵庫県,佐用郡佐用町,佐用３０４３番地２,,28,501,6795301,,,,,,,2024-10-31,1,,,,,ニホンチイキカチキョウソウシャ,0
1143,5180001163815,新規,0,2024-10-31,2024-10-31,株式会社キセキ,,株式会社,愛知県,春日井市,瑞穂通６丁目２１番地１,,23,206,4860845,,,,,,,2024-10-31,1,,,,,キセキ,0
1144,5180001163939,新規,0,2024-10-31,2024-10-31,株式会社ＧＯＭＡＲＵ,,株式会社,愛知県,名古屋市中川区,野田２丁目４００番地,,23,110,4540912,,,,,,,2024-10-31,1,,,,,ゴマル,0
1152,5180301039178,新規,0,2024-10-31,2024-10-31,イニシエート株式会社,,株式会社,愛知県,刈谷市,野田町新上納８１番地１,,23,210,4480803,,,,,,,2024-10-31,1,,,,,イニシエート,0
1153,5180301039186,新規,0,2024-10-31,2024-10-31,ＫＡＷＡＫＡＭＩ　ＨＤ株式会社,,株式会社,愛知県,西尾市,吉良町吉田宮前１６番地,,23,213,4440516,,,,,,,2024-10-31,1,,,,,カワカミホールディングス,0
1156,5190003004842,新規,0,2024-10-31,2024-10-31,合同会社エスコート,,合同会社,三重県,伊勢市,馬瀬町５４１番地１２,,24,203,5160002,,,,,,,2024-10-31,1,,,,,エスコート,0
1157,5200003006564,新規,0,2024-10-31,2024-10-31,合同会社Ｉｎｎｏｖａｔｅ　ｗｏｒｋｓ,,合同会社,岐阜県,多治見市,東栄町１丁目１番地の５,,21,204,5070013,,,,,,,2024-10-31,1,,,,,イノヴェイトワークス,0
1159,5220001026298,新規,0,2024-10-31,2024-10-31,株式会社ｎａｖｉｌｅｓｓ,,株式会社,石川県,金沢市,泉野町３丁目３番９号,,17,201,9218034,,,,,,,2024-10-31,1,,,,,ナビレス,0
1168,5260003004950,新規,0,2024-10-31,2024-10-31,ｈｉ合同会社,,合同会社,岡山県,岡山市北区,丸の内２丁目１０番２号１階,,33,101,7000823,,,,,,,2024-10-31,1,,,,,エイチアイ,0
1175,5290001107736,新規,0,2024-10-31,2024-10-31,株式会社ＲＩＣＨ　ＯＮＥ,,株式会社,福岡県,春日市,大和町２丁目７番地,,40,218,8160874,,,,,,,2024-10-31,1,,,,,リッチワン,0
1188,5310003004887,新規,0,2024-10-31,2024-10-31,合同会社ミント,,合同会社,長崎県,松浦市,志佐町浦免９０８番地１,,42,208,8594501,,,,,,,2024-10-31,1,,,,,ミント,0
1189,5330001032582,新規,0,2024-10-31,2024-10-31,株式会社ネクサス,,株式会社,熊本県,合志市,豊岡２５２７番地１７８,,43,216,8611115,,,,,,,2024-10-31,1,,,,,ネクサス,0
1194,5350003004776,新規,0,2024-10-31,2024-10-31,合同会社Ｍ＆Ｍ,,合同会社,宮崎県,宮崎市,大字大瀬町字長迫４０７６番地４,,45,201,8800045,,,,,,,2024-10-31,1,,,,,エムアンドエム,0
1207,5430001092963,新規,0,2024-10-31,2024-10-31,株式会社Ｄａｎｋ,,株式会社,北海道,札幌市北区,新琴似五条１６丁目２番１４号,,01,102,0010905,,,,,,,2024-10-31,1,,,,,ダンク,0
1208,5430001092971,新規,0,2024-10-31,2024-10-31,株式会社ＵＴＡＲ,,株式会社,北海道,札幌市清田区,北野七条４丁目１２－３,,01,110,0040867,,,,,,,2024-10-31,1,,,,,ウター,0
1210,5430003016945,新規,0,2024-10-31,2024-10-31,合同会社うまずたゆまず,,合同会社,北海道,札幌市清田区,美しが丘三条３丁目１番１号,,01,110,0040813,,,,,,,2024-10-31,1,,,,,ウマズタユマズ,0
1216,5450001014437,新規,0,2024-10-31,2024-10-31,株式会社ＥＶＥＲＮＹ,,株式会社,北海道,旭川市,永山一条２４丁目６番８号アルカーノ２０２,,01,204,0798411,,,,,,,2024-10-31,1,,,,,エバニー,0
1224,5500001025973,新規,0,2024-10-31,2024-10-31,株式会社ガイナオートスタイル,,株式会社,愛媛県,松山市,湯の山４丁目８番地２５,,38,201,7910121,,,,,,,2024-10-31,1,,,,,ガイナオートスタイル,0
1225,5700150127476,新規,0,2024-10-31,2024-10-16,池内自治連合会,,その他,大阪府,松原市,天美東８丁目２番２３号,,27,217,5800032,,,,,,,2024-10-16,1,,,,,イケウチジチレンゴウカイ,0
1226,5700150127641,新規,0,2024-10-31,2024-10-31,Ｄｅｅｄｙ　Ｓｕｐｐｌｙ　Ｃｈａｉｎ　Ｔｅｃｈｎｏｌｏｇｙ　Ｃｏ．，Ｌｔｄ,,外国会社等,,,,,,,,Ｏｆｆｉｃｅ　Ｕｎｉｔ　Ｂ　９／Ｆ　Ｔｈｏｍｓｏｎ　Ｃｏｍｍｅｒｃｉａｌ　Ｂｕｉｌｄｉｎｇ　８　Ｔｈｏｍｓｏｎ　Ｒｏａｄ，Ｈｏｎｇ　Ｋｏｎｇ,,,,,,2024-10-31,1,,,,,デイーデイーサプライチエーンテクノロジーカンパニーリミテツド,0
1247,6010003045300,新規,0,2024-10-31,2024-10-31,合同会社Ｙ２,,合同会社,東京都,千代田区,丸の内１丁目４番１号東京共同会計事務所内,,13,101,1000005,,,,,,,2024-10-31,1,,,,,ワイツー,0
1252,6010401186101,新規,0,2024-10-31,2024-10-31,株式会社サスティナブルワイテクノロジーズ,,株式会社,東京都,港区,西新橋１丁目２０－１０,,13,103,1050003,,,,,,,2024-10-31,1,,,,,サスティナブルワイテクノロジーズ,0
1253,6010403033714,新規,0,2024-10-31,2024-10-31,ジーアールイージェイホールディングスツー合同会社,,合同会社,東京都,港区,虎ノ門２丁目６番１号虎ノ門ヒルズステーションタワー,,13,103,1050001,,,,,,,2024-10-31,1,,,,,ジーアールイージェイホールディングスツー,0
1256,6010501053110,新規,0,2024-10-31,2024-10-31,株式会社真行建設,,株式会社,東京都,台東区,千束２丁目２４番５－３０２号グレイス北上野,,13,106,1110031,,,,,,,2024-10-31,1,,,,,シンコウケンセツ,0
1262,6010901056217,新規,0,2024-10-31,2024-10-31,株式会社ｎ２ｖ,,株式会社,東京都,世田谷区,瀬田２丁目１－１５シンシアフォーディエフフォート１０１,,13,112,1580095,,,,,,,2024-10-31,1,,,,,エヌツーブイ,0
1263,6010901056233,新規,0,2024-10-31,2024-10-31,株式会社ＧＲＥＥＮ　ＷＥＬＬＮＥＳＳ,,株式会社,東京都,世田谷区,三宿２丁目１１番２４号,,13,112,1540005,,,,,,,2024-10-31,1,,,,,グリーンウェルネス,0
1285,6011801045078,新規,0,2024-10-31,2024-10-31,明治国際投資株式会社,,株式会社,東京都,葛飾区,金町６丁目１２－７ヴオールト３０５,,13,122,1250042,,,,,,,2024-10-31,1,,,,,メイジコクサイトウシ,0
1289,6011803006532,新規,0,2024-10-31,2024-10-31,東京植栽管理合同会社,,合同会社,東京都,足立区,西新井２丁目３２番２号,,13,121,1230841,,,,,,,2024-10-31,1,,,,,トウキョウショクサイカンリ,0
1291,6012401042440,新規,0,2024-10-31,2024-10-31,株式会社和佳,,株式会社,東京都,調布市,仙川町１丁目１９番１２号,,13,208,1820002,,,,,,,2024-10-31,1,,,,,ノドカ,0
1295,6013301053296,新規,0,2024-10-31,2024-10-31,ＡＫ　ＥＸＰＲＥＳＳ　ＳＨＩＮＪＵＫＵ株式会社,,株式会社,東京都,豊島区,巣鴨２丁目９番２８号,,13,116,1700002,,,,,,,2024-10-31,1,,,,,エイケイエクスプレスシンジュク,0
1301,6020001159729,新規,0,2024-10-31,2024-10-31,ミルク株式会社,,株式会社,神奈川県,横浜市青葉区,新石川１丁目１０番地４２,,14,117,2250003,,,,,,,2024-10-31,1,,,,,ミルク,0
1302,6020001159836,新規,0,2024-10-31,2024-10-31,東輪株式会社,,株式会社,神奈川県,横浜市南区,宿町１丁目２２番地ボンドワール蒔田２－Ａ,,14,105,2320017,,,,,,,2024-10-31,1,,,,,トウリン,0
1305,6020003027165,新規,0,2024-10-31,2024-10-31,合同会社くに,,合同会社,神奈川県,川崎市川崎区,駅前本町１１番地２川崎フロンティアビル４階,,14,131,2100007,,,,,,,2024-10-31,1,,,,,クニ,0
1306,6020005016587,新規,0,2024-10-31,2024-10-31,一般社団法人里山,,その他の設立登記法人,神奈川県,横浜市戸塚区,名瀬町２０２６番地,,14,110,2450051,,,,,,,2024-10-31,1,,,,,サトヤマ,0
1311,6021001083654,新規,0,2024-10-31,2024-10-31,永昌貿易株式会社,,株式会社,神奈川県,伊勢原市,子易４９９,,14,214,2591102,,,,,,,2024-10-31,1,,,,,エイショウボウエキ,0
1324,6030001163234,新規,0,2024-10-31,2024-10-31,株式会社ＲＡＷＣＬＵＴＣＨ,,株式会社,埼玉県,川越市,六軒町１丁目２０番地３レーベン川越六軒町５０９号室,,11,201,3500041,,,,,,,2024-10-31,1,,,,,ロウクラッチ,0
1326,6030005021917,新規,0,2024-10-31,2024-10-31,農事組合法人蛭田ファーム,,その他の設立登記法人,埼玉県,春日部市,上蛭田２４８番地１山口ハイツ１０１号室,,11,214,3440046,,,,,,,2024-10-31,1,,,,,ヒルタファーム,0
1331,6040001135967,新規,0,2024-10-31,2024-10-31,鈴木工業株式会社,,株式会社,千葉県,船橋市,習志野台４丁目１２番３棟５０４号,,12,204,2740063,,,,,,,2024-10-31,1,,,,,スズキコウギョウ,0
1332,6040001135983,新規,0,2024-10-31,2024-10-31,株式会社ヤスタケ,,株式会社,千葉県,松戸市,常盤平２丁目１４番地の２８,,12,207,2702261,,,,,,,2024-10-31,1,,,,,ヤスタケ,0
1340,6050001055603,新規,0,2024-10-31,2024-10-31,株式会社エムジェイ,,株式会社,茨城県,高萩市,大字高戸４６２番地の２,,08,214,3180002,,,,,,,2024-10-31,1,,,,,エムジェイ,0
1347,6070001042327,新規,0,2024-10-31,2024-10-31,株式会社ＲＩＫＯ,,株式会社,群馬県,伊勢崎市,田中島町１４７４番地４,,10,204,3720802,,,,,,,2024-10-31,1,,,,,リコ,0
1353,6080101025098,新規,0,2024-10-31,2024-10-31,ＴＫＣ株式会社,,株式会社,静岡県,熱海市,海光町７番９５号ライオンズマンション１２０３,,22,205,4130003,,,,,,,2024-10-31,1,,,,,ティーケーシー,0
1355,6080103003184,新規,0,2024-10-31,2024-10-31,合同会社ＡＳＯＭＯＮ,,合同会社,静岡県,富士市,大淵１８５７番地の３,,22,210,4170801,,,,,,,2024-10-31,1,,,,,アソモン,0
1359,6100001037975,新規,0,2024-10-31,2024-10-31,株式会社ｍｏｌ＆ｂ,,株式会社,長野県,岡谷市,神明町１丁目３番５号,,20,204,3940004,,,,,,,2024-10-31,1,,,,,モルアンドビー,0
1370,6120001269749,新規,0,2024-10-31,2024-10-31,株式会社Ｊ＆Ｃｏｍｐａｎｙ,,株式会社,大阪府,大阪市中央区,日本橋１丁目１８番１号４０１号,,27,128,5420073,,,,,,,2024-10-31,1,,,,,ジェイアンドカンパニー,0
1371,6120001269831,新規,0,2024-10-31,2024-10-31,言庭株式会社,,株式会社,大阪府,大阪市東住吉区,鷹合４丁目２１番１６号３Ｆ－Ｃ,,27,121,5460014,,,,,,,2024-10-31,1,,,,,ゲンテイ,0
1372,6120001269848,新規,0,2024-10-31,2024-10-31,武濱株式会社,,株式会社,大阪府,大阪市浪速区,下寺２丁目５番１２号１１０６号室,,27,111,5560001,,,,,,,2024-10-31,1,,,,,タケハマ,0
1373,6120001269856,新規,0,2024-10-31,2024-10-31,静の蓮株式会社,,株式会社,大阪府,大阪市西成区,天下茶屋２丁目２１番６－４１０号室,,27,122,5570014,,,,,,,2024-10-31,1,,,,,セイノレン,0
1378,6120003027881,新規,0,2024-10-31,2024-10-31,合同会社夢屋本舗,,合同会社,大阪府,大阪市浪速区,幸町２丁目８番７号六甲桜川ビル７０４,,27,111,5560021,,,,,,,2024-10-31,1,,,,,ユメヤホンポ,0
1382,6120103006109,新規,0,2024-10-31,2024-10-31,合同会社シーウェルビーイング,,合同会社,大阪府,堺市西区,堀上緑町３丁３番３８号,,27,144,5938305,,,,,,,2024-10-31,1,,,,,シーウェルビーイング,0
1384,6120901049969,新規,0,2024-10-31,2024-10-31,株式会社ＣＡＲ　ＦＡＩＴＨ,,株式会社,大阪府,茨木市,玉櫛２丁目２１番２２号,,27,211,5670895,,,,,,,2024-10-31,1,,,,,カーフェイス,0
1385,6120901049977,新規,0,2024-10-31,2024-10-31,株式会社ＯＮＥ‐ＢＥＥＴＳ,,株式会社,大阪府,池田市,満寿美町７番３１号,,27,204,5630041,,,,,,,2024-10-31,1,,,,,ワンビーツ,0
1386,6120903005400,新規,0,2024-10-31,2024-10-31,合同会社Ａｓｓｉｓｔ,,合同会社,大阪府,吹田市,垂水町３丁目１６番３６－５０１号,,27,205,5640062,,,,,,,2024-10-31,1,,,,,アシスト,0
1387,6120905006652,新規,0,2024-10-31,2024-10-31,ＮＰＯ法人ＢＯＮＰＬＡＣＥ,,その他の設立登記法人,大阪府,吹田市,五月が丘東２番Ｂ－８０３号,,27,205,5650831,,,,,,,2024-10-31,1,,,,,ボンプレイス,0
1391,6130001078249,新規,0,2024-10-31,2024-10-31,株式会社ＣＲＥ,,株式会社,京都府,京都市下京区,仏光寺通大宮西入坊門町８２７番地４１,,26,106,6008388,,,,,,,2024-10-31,1,,,,,シーアールイー,0
1393,6140003021247,新規,0,2024-10-31,2024-10-31,合同会社結,,合同会社,兵庫県,加東市,上滝野２１２９番地,,28,228,6790211,,,,,,,2024-10-31,1,,,,,ユイ,0
1407,6180001163863,新規,0,2024-10-31,2024-10-31,環クリエイト株式会社,,株式会社,愛知県,名古屋市緑区,鳴海町字上汐田２５７－１－３０７,,23,114,4580835,,,,,,,2024-10-31,1,,,,,タマキクリエイト,0
1408,6180001163905,新規,0,2024-10-31,2024-10-31,三ツ矢製菓ＨＤ株式会社,,株式会社,愛知県,名古屋市中川区,富川町４丁目１番地,,23,110,4540037,,,,,,,2024-10-31,1,,,,,ミツヤセイカホールディングス,0
1411,6180003027562,新規,0,2024-10-31,2024-10-31,ＡＬ　ＦＡＪＲ　ＥＸＰＯＲＴ合同会社,,合同会社,愛知県,名古屋市港区,春田野１丁目２２０６番地グランプリハイツ２０２号室,,23,111,4550873,,,,,,,2024-10-31,1,,,,,アルファジルエクスポート,0
1416,6190003004841,新規,0,2024-10-31,2024-10-31,合同会社ＳＫＹＴＲＩＰ,,合同会社,三重県,伊賀市,平野清水６３１番地の１１,,24,216,5180827,,,,,,,2024-10-31,1,,,,,スカイトリップ,0
1424,6240001064031,新規,0,2024-10-31,2024-10-31,株式会社Ｎカンパニー,,株式会社,広島県,広島市西区,高須１丁目３番３６－２０１号,,34,104,7330871,,,,,,,2024-10-31,1,,,,,エヌカンパニー,0
1432,6270001009082,新規,0,2024-10-31,2024-10-31,株式会社エフビーワン,,株式会社,鳥取県,境港市,外江町２７８３番地,,31,204,6840071,,,,,,,2024-10-31,1,,,,,エフビーワン,0
1442,6300005007211,新規,0,2024-10-31,2024-10-31,社会保険労務士法人塚本事務所,00136844,その他の設立登記法人,佐賀県,唐津市,和多田海士町５番１６号,,41,202,8470071,,,,,,,2024-10-31,1,,,,,ツカモトジムショ,0
1443,6310001019291,新規,0,2024-10-31,2024-10-31,凱崎株式会社,,株式会社,長崎県,長崎市,万屋町５番１３－１２０２,,42,201,8500852,,,,,,,2024-10-31,1,,,,,カイキ,0
1447,6330001032565,新規,0,2024-10-31,2024-10-31,株式会社菊陽永田電気,,株式会社,熊本県,菊池郡菊陽町,武蔵ヶ丘北２丁目２２番８号,,43,404,8691112,,,,,,,2024-10-31,1,,,,,キクヨウナガタデンキ,0
1448,6330001032598,新規,0,2024-10-31,2024-10-31,オプトグラフィックコントロールズ株式会社,,株式会社,熊本県,熊本市東区,長嶺西１丁目８番１０４号,,43,102,8618037,,,,,,,2024-10-31,1,,,,,オプトグラフィックコントロールズ,0
1465,6430001092970,新規,0,2024-10-31,2024-10-31,株式会社大西商店,,株式会社,北海道,札幌市西区,二十四軒三条１丁目４番５号,,01,107,0630803,,,,,,,2024-10-31,1,,,,,オオニシショウテン,0
1468,6430003016952,新規,0,2024-10-31,2024-10-31,合同会社ｉｔｏ,,合同会社,北海道,札幌市中央区,南四条西４丁目１６番地恵愛ビル８階ｅｓｖｉｌｌａｇｅ,,01,101,0640804,,,,,,,2024-10-31,1,,,,,イト,0
1471,6450001014436,新規,0,2024-10-31,2024-10-31,富良野観光株式会社,,株式会社,北海道,富良野市,山部南町４番２５号,,01,229,0791565,,,,,,,2024-10-31,1,,,,,フラノカンコウ,0
1478,6700150127640,新規,0,2024-10-31,2024-10-31,ＬＵＮＡ　ＥＮＴＥＲＰＲＩＳＥＳ,,外国会社等,千葉県,山武郡横芝光町,新島５２１４番地３オフィス－Ｃ,,12,410,2891736,スリランカ民主社会主義共和国、カルムナイ、ニューバザールメインストリート、Ｎｏ．１１４／Ｇ,,,,,,2024-10-31,1,,,,,ルナエンタープライズ,0
1479,6700150127649,新規,0,2024-10-31,2024-10-31,徳理企管顧問股斌有限公司,00136763,外国会社等,,,,,,,,高雄市前金區中山二路５３３號９棲,,,,,,2024-10-31,1,,,,,テリエンタープライズマネージメント,0
1485,7010001249414,新規,0,2024-10-31,2024-10-31,株式会社オアシスラボ,,株式会社,東京都,中央区,築地７丁目８番３－８０２号,,13,102,1040045,,,,,,,2024-10-31,1,,,,,オアシスラボ,0
1486,7010001249455,新規,0,2024-10-31,2024-10-31,株式会社Ｇｌｏｂａｌ　Ｗａｔｅｒ　Ｔｅｃｈ　Ｆｒｏｎｔｉｅｒ,,株式会社,東京都,中央区,築地１丁目１２－２２コンワビル２階,,13,102,1040045,,,,,,,2024-10-31,1,,,,,グローバルウォーターテックフロンティア,0
1487,7010003045332,新規,0,2024-10-31,2024-10-31,合同会社ランドエー,,合同会社,東京都,千代田区,丸の内１丁目４番１号東京共同会計事務所内,,13,101,1000005,,,,,,,2024-10-31,1,,,,,ランドエー,0
1489,7010403033688,新規,0,2024-10-31,2024-10-31,合同会社サクラトレーディングジャパン,,合同会社,東京都,港区,三田１丁目７－１,,13,103,1080073,,,,,,,2024-10-31,1,,,,,サクラトレーディングジャパン,0
1490,7010405023687,新規,0,2024-10-31,2024-10-31,一般財団法人ＭＵＯ　ＮＥＳＴ　ＴＯＧＥＴＨＥＲ,,その他の設立登記法人,東京都,港区,六本木３丁目６番１号,,13,103,1060032,,,,,,,2024-10-31,1,,,,,ムオウネストトゥギャザー,0
1493,7010601066184,新規,0,2024-10-31,2024-10-31,株式会社ＧＳコンサルティング,,株式会社,東京都,江東区,木場５丁目６番２号３０２号室,,13,108,1350042,,,,,,,2024-10-31,1,,,,,ジーエスコンサルティング,0
1518,7011303005331,新規,0,2024-10-31,2024-10-31,合同会社ＫＡＲＡＳＵＴＳＵＫＩ,,合同会社,東京都,杉並区,松ノ木１丁目７番１４号,,13,115,1660014,,,,,,,2024-10-31,1,,,,,カラスツキ,0
1523,7011605002613,新規,0,2024-10-31,2024-10-31,一般社団法人Ｓｍｉｌｅ　Ａｗａｙ,,その他の設立登記法人,東京都,練馬区,平和台４丁目２１番１０号クリエシェンテ練馬平和台２階,,13,120,1790083,,,,,,,2024-10-31,1,,,,,スマイルアウェイ,0
1527,7011801045077,新規,0,2024-10-31,2024-10-31,株式会社ＡＢＤ　ＫＡＬＩＫＡ,,株式会社,東京都,足立区,中川４丁目２４番７号亀有ＭＳビル５階Ａ号室,,13,121,1200002,,,,,,,2024-10-31,1,,,,,エービーディーカリカ,0
1531,7012701018536,新規,0,2024-10-31,2024-10-31,株式会社ｐｅｒｓｏｎａｌ　ｗｅａｌｔｈ,,株式会社,東京都,東久留米市,東本町１番１５号ウィステリアＭＦビル２０３,,13,222,2030014,,,,,,,2024-10-31,1,,,,,パーソナルウェルス,0
1533,7012801023527,新規,0,2024-10-31,2024-10-31,株式会社グリーンソリューション,,株式会社,東京都,昭島市,松原町５丁目２番２１,,13,207,1960003,,,,,,,2024-10-31,1,,,,,グリーンソリューション,0
1534,7013301053304,新規,0,2024-10-31,2024-10-31,株式会社Ｓｋｉｌｌ　Ｆｏｒｃｅ,,株式会社,東京都,豊島区,池袋２丁目４３番３号田村ビル４Ｆ,,13,116,1710014,,,,,,,2024-10-31,1,,,,,スキルフォース,0
1535,7013301053312,新規,0,2024-10-31,2024-10-31,株式会社寿りあん,,株式会社,東京都,豊島区,西巣鴨２丁目２０番１７号,,13,116,1700001,,,,,,,2024-10-31,1,,,,,ジュリアン,0
1536,7013303007365,新規,0,2024-10-31,2024-10-31,Ｒａｎｇｏｏｎ８８合同会社,,合同会社,東京都,豊島区,池袋２丁目２４番１１－３０２,,13,116,1710014,,,,,,,2024-10-31,1,,,,,ラングーンエイティエイト,0
1537,7013303007373,新規,0,2024-10-31,2024-10-31,合同会社むつみＡＲＴ＆Ｃｏ,,合同会社,東京都,豊島区,池袋３丁目６４番２号,,13,116,1710014,,,,,,,2024-10-31,1,,,,,ムツミアートアンドコー,0
1543,7020001159810,新規,0,2024-10-31,2024-10-31,株式会社Ｌｉｌａｃ,,株式会社,神奈川県,横浜市青葉区,荏田町４４６－１１,,14,117,2250013,,,,,,,2024-10-31,1,,,,,ライラック,0
1544,7020001159843,新規,0,2024-10-31,2024-10-31,株式会社ＳＳＣ,,株式会社,神奈川県,川崎市川崎区,大師河原１丁目１番１２－３０４号ミラリオ大師河原２号,,14,131,2100811,,,,,,,2024-10-31,1,,,,,エスエスシー,0
1550,7020003027156,新規,0,2024-10-31,2024-10-31,合同会社ＩＳＭ,,合同会社,神奈川県,横浜市港南区,笹下７丁目２７番７－３号,,14,111,2340052,,,,,,,2024-10-31,1,,,,,イズム,0
1566,7030005021916,新規,0,2024-10-31,2024-10-31,農事組合法人栄,,その他の設立登記法人,埼玉県,春日部市,上蛭田２４８番地１山口ハイツ１０１号室,,11,214,3440046,,,,,,,2024-10-31,1,,,,,サカエ,0
1569,7040001135958,新規,0,2024-10-31,2024-10-31,株式会社１９８５,,株式会社,千葉県,印西市,牧の原３丁目６番地１４９,,12,231,2701331,,,,,,,2024-10-31,1,,,,,イチキュウハチゴ,0
1579,7070001042326,新規,0,2024-10-31,2024-10-31,株式会社木暮鉄工所,,株式会社,群馬県,渋川市,上白井３２３５番地３,,10,208,3770201,,,,,,,2024-10-31,1,,,,,コグレテッコウショ,0
1592,7090003002672,新規,0,2024-10-31,2024-10-31,西東京総合研究所合同会社,,合同会社,山梨県,笛吹市,一宮町北野呂４６５番地,,19,211,4050051,,,,,,,2024-10-31,1,,,,,ニシトウキョウソウゴウケンキュウジョ,0
1605,7120001269839,新規,0,2024-10-31,2024-10-31,アオハウオリコンサルティング株式会社,,株式会社,大阪府,大阪市中央区,南船場２丁目１１番９号チサンマンション４０５号,,27,128,5420081,,,,,,,2024-10-31,1,,,,,アオハウオリコンサルティング,0
1606,7120001269855,新規,0,2024-10-31,2024-10-31,株式会社カリテス,,株式会社,大阪府,大阪市北区,天神橋１丁目１８－１ＥＳビル５０１,,27,127,5300041,,,,,,,2024-10-31,1,,,,,カリテス,0
1614,7120003027864,新規,0,2024-10-31,2024-10-31,合同会社ＮＯＢＩＳＨＩＲＯ,,合同会社,大阪府,大阪市鶴見区,茨田大宮１丁目９番３２号,,27,124,5380031,,,,,,,2024-10-31,1,,,,,ノビシロ,0
1615,7120005024595,新規,0,2024-10-31,2024-10-31,一般社団法人七星会,,その他の設立登記法人,大阪府,大阪市福島区,大開１丁目１－４Ｔａｋｕｙｏ．Ｂｉｌ．１階,,27,103,5530007,,,,,,,2024-10-31,1,,,,,シチセイカイ,0
1617,7120101070502,新規,0,2024-10-31,2024-10-31,株式会社グリーンリーフ,,株式会社,大阪府,和泉市,箕形町４丁目５番６６号,,27,219,5940042,,,,,,,2024-10-31,1,,,,,グリーンリーフ,0
1623,7130005017227,新規,0,2024-10-31,2024-10-31,一般社団法人紫草,,その他の設立登記法人,京都府,京都市北区,紫野西御所田町３４番地２,,26,101,6038165,,,,,,,2024-10-31,1,,,,,ムラサキ,0
1625,7140001136285,新規,0,2024-10-31,2024-10-31,株式会社更紗,,株式会社,兵庫県,西宮市,鳴尾町３丁目１７－１０,,28,204,6638184,,,,,,,2024-10-31,1,,,,,サラサ,0
1631,7180001163870,新規,0,2024-10-31,2024-10-31,国棟株式会社,,株式会社,愛知県,名古屋市北区,米が瀬町３９番地の１,,23,103,4620031,,,,,,,2024-10-31,1,,,,,コクトウ,0
1632,7180001163929,新規,0,2024-10-31,2024-10-31,株式会社ＴＳ　ｃａｐｉｔａｌ　ｃｏｒｐｏｒａｔｉｏｎ,,株式会社,愛知県,津島市,唐臼町立出２３番地３,,23,208,4960026,,,,,,,2024-10-31,1,,,,,ティーエスキャピタルコーポレーション,0
1639,7190001031762,新規,0,2024-10-31,2024-10-31,ＦｕｎＭｅｄｉａ　Ｇｒｏｕｐ株式会社,,株式会社,三重県,伊勢市,小俣町湯田５７１番地,,24,203,5190506,,,,,,,2024-10-31,1,,,,,ファンメディアグループ,0
1650,7240001064022,新規,0,2024-10-31,2024-10-31,株式会社幸祐,00136850,株式会社,広島県,三原市,沼田西町惣定２３１番地２,,34,204,7290474,,,,,,,2024-10-31,1,,,,,コウユウ,0
1657,7270001009081,新規,0,2024-10-31,2024-10-31,株式会社Ｒｅｇａｒｄ,,株式会社,鳥取県,倉吉市,中江２８８番地１０,,31,203,6820002,,,,,,,2024-10-31,1,,,,,リガード,0
1659,7290001107759,新規,0,2024-10-31,2024-10-31,株式会社ＡＤＬＥ,,株式会社,福岡県,福岡市中央区,六本松２丁目４番１９号,,40,133,8100044,,,,,,,2024-10-31,1,,,,,アドレ,0
1668,7310005008810,新規,0,2024-10-31,2024-10-31,生活協同組合ララコープ労働組合,,その他の設立登記法人,長崎県,西彼杵郡長与町,岡郷１４７４番地,,42,307,8512121,,,,,,,2024-10-31,1,,,,,セイカツキョウドウクミアイララコープ,0
1671,7330001032597,新規,0,2024-10-31,2024-10-31,株式会社Ｃａｎｄｏコンサルタント,,株式会社,熊本県,熊本市中央区,水前寺３丁目３２番７号,,43,101,8620950,,,,,,,2024-10-31,1,,,,,キャンドゥコンサルタント,0
1673,7340001026895,新規,0,2024-10-31,2024-10-31,株式会社ゴールデンシップ,,株式会社,鹿児島県,鹿児島市,易居町１０番４－１００１号,,46,201,8920815,,,,,,,2024-10-31,1,,,,,ゴールデンシップ,0
1675,7360001034376,新規,0,2024-10-31,2024-10-31,株式会社Ｒｅｃｔ,,株式会社,沖縄県,那覇市,前島１丁目２番３号Ｙ’ｚ前島４０１,,47,201,9000016,,,,,,,2024-10-31,1,,,,,レクト,0
1676,7360001034384,新規,0,2024-10-31,2024-10-31,南陽薬草株式会社,,株式会社,沖縄県,那覇市,壺屋２丁目１番３０号２Ｆ,,47,201,9020065,,,,,,,2024-10-31,1,,,,,ナンヨウヤクソウ,0
1685,7430001092961,新規,0,2024-10-31,2024-10-31,株式会社一美,,株式会社,北海道,札幌市北区,新川四条１１丁目３番１１号,,01,102,0010924,,,,,,,2024-10-31,1,,,,,カズミ,0
1686,7430003016852,新規,0,2024-10-31,2024-10-31,合同会社シュガーブリッジ,,合同会社,北海道,札幌市東区,北二十六条東７丁目３－２３,,01,103,0650026,,,,,,,2024-10-31,1,,,,,シュガーブリッジ,0
1690,7480001012634,新規,0,2024-10-31,2024-10-31,株式会社あがりや,,株式会社,徳島県,徳島市,国府町日開字東４４７番地２,,36,201,7793117,,,,,,,2024-10-31,1,,,,,アガリヤ,0
1692,7500001025971,新規,0,2024-10-31,2024-10-31,株式会社Ｓｃｅｎｔ　ｏｆ　Ｓｅａ,,株式会社,愛媛県,松山市,三番町１丁目１３番地１,,38,201,7900003,,,,,,,2024-10-31,1,,,,,セントオブシー,0
1695,7700150127648,新規,0,2024-10-31,2024-10-31,Ｚｈｅｊｉａｎｇ　ＧＵＹＵ　Ｔｒａｄｅ　ＣＯ．，ＬＴＤ,,外国会社等,,,,,,,,Ｒｏｏｍ　５０２，ｕｎｉｔ　３，ｂｕｉｌｄｉｎｇ　２，ｚｏｎｅ　Ｂ　Ｘｉｎｋｅ　Ｇａｒｄｅｎ，Ｃｈｏｕ　ｊｉａｎｇ　Ｓｔｒｅｅｔ，Ｙｉｗｕ，Ｚｈｅｊｉａｎｇ　３２２０００　ＣＮ,,,,,,2024-10-31,1,,,,,ゼジャングユトレードカンパニーリミテッド,0
1702,8010001249314,新規,0,2024-10-31,2024-10-31,ＳＣＰ　ＪＡＰＡＮ株式会社,,株式会社,東京都,千代田区,有楽町１丁目２－２東宝日比谷ビル９Ｆ,,13,101,1000006,,,,,,,2024-10-31,1,,,,,エスシーピージャパン,0
1704,8010003045315,新規,0,2024-10-31,2024-10-31,エメラルドスリー合同会社,,合同会社,東京都,中央区,日本橋１丁目４番１号日本橋一丁目ビルディング,,13,102,1030027,,,,,,,2024-10-31,1,,,,,エメラルドスリー,0
1720,8010405023694,新規,0,2024-10-31,2024-10-31,一般社団法人日中幹細胞再生医療協会,,その他の設立登記法人,東京都,港区,南青山３丁目１番５号ＴＨＥＢＡＴＯＮＭｉｎａｍｉＡｏｙａｍａ３階,,13,103,1070062,,,,,,,2024-10-31,1,,,,,ニッチュウカンサイボウサイセイイリョウキョウカイ,0
1723,8010601066200,新規,0,2024-10-31,2024-10-31,株式会社ＪＫｈｏｌｄｉｎｇｓ　ｉｎｖｅｓｔｍｅｎｔ　ｂｕｓｉｎｅｓｓ１号,,株式会社,東京都,江東区,新木場１丁目７番２２号,,13,108,1360082,,,,,,,2024-10-31,1,,,,,ジェイケイホールディングスインベストメントビジネスイチゴウ,0
1731,8011001165526,新規,0,2024-10-31,2024-10-31,株式会社ＯＢＯ．,,株式会社,東京都,渋谷区,本町３丁目５３番２号コーポすまや５０２,,13,113,1510071,,,,,,,2024-10-31,1,,,,,オービーオー,0
1732,8011001165682,新規,0,2024-10-31,2024-10-31,ＴＡＫＹ株式会社,,株式会社,東京都,目黒区,下目黒１丁目１番１４号コノトラビル７Ｆ,,13,110,1530064,,,,,,,2024-10-31,1,,,,,テイキー,0
1733,8011003020332,新規,0,2024-10-31,2024-10-31,合同会社ＤｒｉｖｅＳｈａｄ,,合同会社,東京都,渋谷区,神宮前６丁目２３番４号桑野ビル２階,,13,113,1500001,,,,,,,2024-10-31,1,,,,,ドライブシャッド,0
1734,8011003020349,新規,0,2024-10-31,2024-10-31,ｉ‐ｉｍ合同会社,,合同会社,東京都,渋谷区,渋谷２丁目１９－１５宮益坂ビルディング６０９,,13,113,1500002,,,,,,,2024-10-31,1,,,,,アイム,0
1747,8011701027769,新規,0,2024-10-31,2024-10-31,Ｌｉｍ株式会社,,株式会社,東京都,江戸川区,平井１丁目１０番７号,,13,123,1320035,,,,,,,2024-10-31,1,,,,,リム,0
1749,8011801045068,新規,0,2024-10-31,2024-10-31,ＭＩＣＲＯＯＬＥＤ株式会社,,株式会社,東京都,葛飾区,柴又３丁目１１－１１カエデ柴又１０２,,13,122,1250052,,,,,,,2024-10-31,1,,,,,ミクローレッド,0
1752,8012701018543,新規,0,2024-10-31,2024-10-31,株式会社Ｉｎｉｔｉａｌ　Ｓ,,株式会社,東京都,西東京市,富士町６丁目８－２２,,13,229,2020014,,,,,,,2024-10-31,1,,,,,イニシャルエス,0
1753,8012801023526,新規,0,2024-10-31,2024-10-31,アーティザノ株式会社,,株式会社,東京都,国分寺市,北町４丁目１５番地５１,,13,214,1850001,,,,,,,2024-10-31,1,,,,,アーティザノ,0
1754,8013301053303,新規,0,2024-10-31,2024-10-31,インシュラントグループ株式会社,,株式会社,東京都,豊島区,西池袋１丁目４番１０号,,13,116,1710021,,,,,,,2024-10-31,1,,,,,インシュラントグループ,0
1755,8013301053311,新規,0,2024-10-31,2024-10-31,株式会社Ｓｃｈｅｈｅｒａｚａｄｅ,,株式会社,東京都,豊島区,南池袋１丁目９番１８号,,13,116,1710022,,,,,,,2024-10-31,1,,,,,シェヘラザード,0
1756,8013303007372,新規,0,2024-10-31,2024-10-31,ルークス合同会社,,合同会社,東京都,豊島区,東池袋２丁目３８番４－６０２号,,13,116,1700013,,,,,,,2024-10-31,1,,,,,ルークス,0
1762,8020001159826,新規,0,2024-10-31,2024-10-31,株式会社ＳＡＲ,,株式会社,神奈川県,横浜市磯子区,上町８番８号,,14,107,2350001,,,,,,,2024-10-31,1,,,,,サー,0
1763,8020001159842,新規,0,2024-10-31,2024-10-31,Ｈｏｒｉｚｏｎ　Ｉｎｎｏｖａｔｉｏｎ株式会社,,株式会社,神奈川県,川崎市中原区,新丸子町７３５－１ガーラシティ新丸子駅前１３０５,,14,133,2110005,,,,,,,2024-10-31,1,,,,,ホライズンイノベーション,0
1764,8020001159850,新規,0,2024-10-31,2024-10-31,Ｗｉｌｓｏｎ　Ｐｒｅｃｉｓｉｏｎ　Ｔｏｏｌ　Ｊａｐａｎ株式会社,,株式会社,神奈川県,横浜市西区,北幸１丁目１１番１号水信ビル７階,,14,103,2200004,,,,,,,2024-10-31,1,,,,,ウィルソンプレシジョンツールジャパン,0
1768,8020003027147,新規,0,2024-10-31,2024-10-31,ｕｔａｏｓ合同会社,,合同会社,神奈川県,横浜市港南区,最戸１丁目２０番地３３－２０７,,14,111,2330008,,,,,,,2024-10-31,1,,,,,ウタオス,0
1769,8020003027155,新規,0,2024-10-31,2024-10-31,合同会社ネクスト,,合同会社,神奈川県,横浜市神奈川区,青木町７番地６,,14,102,2210057,,,,,,,2024-10-31,1,,,,,ネクスト,0
1773,8021001083652,新規,0,2024-10-31,2024-10-31,株式会社近藤建材,,株式会社,神奈川県,平塚市,大神５丁目１８番１９号,,14,203,2540012,,,,,,,2024-10-31,1,,,,,コンドウケンザイ,0
1778,8021003015174,新規,0,2024-10-31,2024-10-31,合同会社香取,,合同会社,神奈川県,横須賀市,汐入町５丁目３番地,,14,201,2380042,,,,,,,2024-10-31,1,,,,,カトリ,0
1784,8030001163174,新規,0,2024-10-31,2024-10-31,株式会社イマジナシオン,,株式会社,埼玉県,さいたま市緑区,大字大間木１７４９－１－２０４,,11,109,3360923,,,,,,,2024-10-31,1,,,,,イマジナシオン,0
1785,8030003025372,新規,0,2024-10-31,2024-10-31,合同会社ＰＯＩ　ＪＡＰＡＮ,,合同会社,埼玉県,越谷市,大字西方２９７５－１－１３７,,11,222,3430822,,,,,,,2024-10-31,1,,,,,ポイジャパン,0
1786,8030003025406,新規,0,2024-10-31,2024-10-31,ホリキャピタル合同会社,,合同会社,埼玉県,所沢市,小手指町１丁目１３番地の１７,,11,208,3591141,,,,,,,2024-10-31,1,,,,,ホリキャピタル,0
1794,8060003005306,新規,0,2024-10-31,2024-10-31,合同会社ＵＮＩＯＮＥ,,合同会社,栃木県,宇都宮市,江曽島本町７番１号コーポひまわり３０２号,,09,201,3210101,,,,,,,2024-10-31,1,,,,,ユニワン,0
1796,8070001042300,新規,0,2024-10-31,2024-10-31,デジタル・リンク株式会社,,株式会社,群馬県,安中市,秋間みのりが丘３番地３４,,10,211,3790109,,,,,,,2024-10-31,1,,,,,デジタルリンク,0
1798,8080103003182,新規,0,2024-10-31,2024-10-31,合同会社ベルツリー,,合同会社,静岡県,賀茂郡東伊豆町,稲取１９０２番地の８,,22,301,4130411,,,,,,,2024-10-31,1,,,,,ベルツリー,0
1802,8080401027536,新規,0,2024-10-31,2024-10-31,株式会社オールドブリッチ,,株式会社,静岡県,浜松市中央区,佐浜町１９９３番地,,22,138,4311114,,,,,,,2024-10-31,1,,,,,オールドブリッチ,0
1806,8100001037981,新規,0,2024-10-31,2024-10-31,株式会社ＦＬＯＷ,,株式会社,長野県,上伊那郡辰野町,大字小野１７３１－８６,,20,382,3990601,,,,,,,2024-10-31,1,,,,,フロー,0
1809,8120001269739,新規,0,2024-10-31,2024-10-31,栄格株式会社,,株式会社,大阪府,大阪市浪速区,浪速東１丁目２番３号２０４号室,,27,111,5560025,,,,,,,2024-10-31,1,,,,,エイカク,0
1810,8120001269846,新規,0,2024-10-31,2024-10-31,ＳＦＫＳ００５株式会社,,株式会社,大阪府,大阪市西淀川区,御幣島５丁目１７番２２号,,27,113,5550012,,,,,,,2024-10-31,1,,,,,エスエフケイエスゼロゼロゴ,0
1811,8120001269870,新規,0,2024-10-31,2024-10-31,株式会社家づくり相談室,,株式会社,大阪府,大阪市北区,芝田２丁目１番１８号西阪急ビル１Ｆ,,27,127,5300012,,,,,,,2024-10-31,1,,,,,イエヅクリソウダンシツ,0
1812,8120001269879,新規,0,2024-10-31,2024-10-31,宝業グループ株式会社,,株式会社,大阪府,大阪市浪速区,大国１丁目９－１３－４０２Ｂ,,27,111,5560014,,,,,,,2024-10-31,1,,,,,ホウギョウグループ,0
1813,8120001269904,新規,0,2024-10-31,2024-10-31,株式会社ＩＴ総研ネオファースト,,株式会社,大阪府,大阪市中央区,南船場２丁目１１番１３号福田ビル６０３,,27,128,5420081,,,,,,,2024-10-31,1,,,,,アイティソウケンネオファースト,0
1816,8120003027855,新規,0,2024-10-31,2024-10-31,Ａ．Ｆ　ＴＲＡＤＩＮＧ合同会社,,合同会社,大阪府,大阪市西成区,鶴見橋３丁目１０－３２－１Ｃ,,27,122,5570031,,,,,,,2024-10-31,1,,,,,エイエフトレーディング,0
1817,8120003027863,新規,0,2024-10-31,2024-10-31,合同会社灰桜,,合同会社,大阪府,寝屋川市,太秦東が丘２１番７号,,27,215,5720841,,,,,,,2024-10-31,1,,,,,ハイザクラ,0
1818,8120003027871,新規,0,2024-10-31,2024-10-31,合同会社カミーロ,,合同会社,大阪府,大阪市中央区,島町２丁目３番１９号,,27,128,5400034,,,,,,,2024-10-31,1,,,,,カミーロ,0
1820,8120101070501,新規,0,2024-10-31,2024-10-31,株式会社Ｌｏｕｉｓ,,株式会社,大阪府,藤井寺市,小山１丁目１４番１０号,,27,226,5830033,,,,,,,2024-10-31,1,,,,,ルイ,0
1824,8120901049975,新規,0,2024-10-31,2024-10-31,いるかパートナーズ株式会社,,株式会社,大阪府,箕面市,小野原東６丁目２－２４,,27,220,5620031,,,,,,,2024-10-31,1,,,,,イルカパートナーズ,0
1828,8130001078222,新規,0,2024-10-31,2024-10-31,アグホーム株式会社,,株式会社,京都府,京都市中京区,西ノ京月輪町３番地１,,26,104,6048444,,,,,,,2024-10-31,1,,,,,アグホーム,0
1830,8140003021245,新規,0,2024-10-31,2024-10-31,ＰｏｐｏＧａｒｄｅｎ合同会社,,合同会社,兵庫県,神戸市西区,押部谷町福住１２１番地,,28,111,6512213,,,,,,,2024-10-31,1,,,,,ポポガーデン,0
1848,8180003027536,新規,0,2024-10-31,2024-10-31,ＵＯＺＡ合同会社,,合同会社,愛知県,名古屋市天白区,弥生が岡２０１番地の１シティハウス八事６０２号,,23,116,4680062,,,,,,,2024-10-31,1,,,,,ウオザ,0
1851,8190001031761,新規,0,2024-10-31,2024-10-31,株式会社ＡＲＹ,,株式会社,三重県,四日市市,天カ須賀５丁目１番７‐８号,,24,202,5108001,,,,,,,2024-10-31,1,,,,,アリー,0
1870,8260001039590,新規,0,2024-10-31,2024-10-31,株式会社ＩＫＥＧＡＷＡ,,株式会社,岡山県,岡山市中区,海吉２０３３番地１２,,33,102,7038261,,,,,,,2024-10-31,1,,,,,イケガワ,0
1871,8270001009080,新規,0,2024-10-31,2024-10-31,株式会社ホシトリンク,,株式会社,鳥取県,東伯郡北栄町,松神６番地２,,31,372,6892106,,,,,,,2024-10-31,1,,,,,ホシトリンク,0
1877,8290001107758,新規,0,2024-10-31,2024-10-31,株式会社ＥＤＥＮ　ＰＲＯＤＵＣＴＩＯＮ,,株式会社,福岡県,福岡市中央区,笹丘３丁目１８番２８号,,40,133,8100034,,,,,,,2024-10-31,1,,,,,エデンプロダクション,0
1878,8290001107824,新規,0,2024-10-31,2024-10-31,株式会社ベネフィ,,株式会社,福岡県,朝倉市,堤７０５番地ＮＲ２０Ｄ１０２号室,,40,228,8380062,,,,,,,2024-10-31,1,,,,,ベネフィ,0
1879,8290001107832,新規,0,2024-10-31,2024-10-31,ＫＥＹ　ＣＬＩＮＩＣ株式会社,,株式会社,福岡県,福岡市中央区,天神２丁目７番２８号２階,,40,133,8100001,,,,,,,2024-10-31,1,,,,,キークリニック,0
1884,8290803004871,新規,0,2024-10-31,2024-10-31,ＴＴＫ合同会社,,合同会社,福岡県,田川市,本町４－１２,,40,206,8260022,,,,,,,2024-10-31,1,,,,,ティーティーケイ,0
1886,8300001013921,新規,0,2024-10-31,2024-10-31,株式会社キサカ創設,,株式会社,佐賀県,武雄市,山内町大字宮野９６７－３,,41,206,8492305,,,,,,,2024-10-31,1,,,,,キサカソウセツ,0
1888,8310001019298,新規,0,2024-10-31,2024-10-31,株式会社浦越建設,,株式会社,長崎県,西彼杵郡時津町,日並郷３０９３番地,,42,308,8512108,,,,,,,2024-10-31,1,,,,,ウラコシケンセツ,0
1889,8320001020783,新規,0,2024-10-31,2024-10-31,株式会社ホテルフジヨシ,,株式会社,大分県,別府市,野口元町１番３号,,44,202,8740933,,,,,,,2024-10-31,1,,,,,ホテルフジヨシ,0
1895,8330001032596,新規,0,2024-10-31,2024-10-31,株式会社かくやフーズ熊本,,株式会社,熊本県,上益城郡嘉島町,大字井寺４１番地８,,43,442,8613103,,,,,,,2024-10-31,1,,,,,カクヤフーズクマモト,0
1897,8330003010617,新規,0,2024-10-31,2024-10-31,合同会社三久,,合同会社,熊本県,合志市,須屋２６５７番地９５,,43,216,8611102,,,,,,,2024-10-31,1,,,,,サンキュウ,0
1902,8360001034383,新規,0,2024-10-31,2024-10-31,株式会社まどか企画,,株式会社,沖縄県,沖縄市,比屋根６丁目３４番１０号－４０２,,47,211,9042173,,,,,,,2024-10-31,1,,,,,マドカキカク,0
1913,8430001092969,新規,0,2024-10-31,2024-10-31,株式会社フロスト,,株式会社,北海道,札幌市白石区,北郷二条４丁目６番５０号,,01,104,0030832,,,,,,,2024-10-31,1,,,,,フロスト,0
1918,8500001025979,新規,0,2024-10-31,2024-10-31,株式会社ＦＵＬＬ　ＥＮＤＥＡＶＯＵＲ,,株式会社,愛媛県,松山市,御幸２丁目５番１５号,,38,201,7900824,,,,,,,2024-10-31,1,,,,,フルエンデバー,0
1924,8700150127639,新規,0,2024-10-31,2024-10-31,ＣＩＲＣＡＳＳＩＡ　ＡＢ,,外国会社等,,,,,,,,Ｈａｎｓｅｌｌｉｓｇａｔａｎ　１３，ＳＥ－７５４　５０　Ｕｐｐｓａｌａ，Ｓｗｅｄｅｎ,,,,,,2024-10-31,1,,,,,サーカシアエービー,0
1925,8700150127647,新規,0,2024-10-31,2024-10-31,Ｄｏｎｇｇｕａｎ　ＤＯＮＧＹＩＤＡ　Ｅｌｅｃｔｒｏｎｉｃｓ　Ｃｏ．，Ｌｔｄ,,外国会社等,,,,,,,,Ｒｏｏｍ　３０３，Ｂｕｉｌｄｉｎｇ　３，Ｎｏ．８　Ｈｅｎｇｚｈｕｔａｎｇ　Ｒｏａｄ，Ｌｉａｏｂｕ　Ｔｏｗｎ，Ｄｏｎｇｇｕａｎ　Ｃｉｔｙ，Ｇｕａｎｇｄｏｎｇ　Ｐｒｏｖｉｎｃｅ，Ｃｈｉｎａ　５２３０００,,,,,,2024-10-31,1,,,,,ドングアンドンイダエレクトロニクスカンパニーリミテッド,0
1933,9010001249420,新規,0,2024-10-31,2024-10-31,株式会社ｓｍｉｌｉａ,,株式会社,東京都,中央区,銀座１丁目１６番７号大栄銀座ビル５階,,13,102,1040061,,,,,,,2024-10-31,1,,,,,スミリア,0
1934,9010001249478,新規,0,2024-10-31,2024-10-31,ＬＴＴＦ株式会社,,株式会社,東京都,中央区,日本橋室町１丁目１１番１２号日本橋水野ビル７階,,13,102,1030022,,,,,,,2024-10-31,1,,,,,エルティーティーエフ,0
1935,9010001249486,新規,0,2024-10-31,2024-10-31,泡尚の家株式会社,,株式会社,東京都,文京区,千石４丁目１４番９号,,13,105,1120011,,,,,,,2024-10-31,1,,,,,アワナオノイエ,0
1937,9010003045314,新規,0,2024-10-31,2024-10-31,モルガナイトスリー合同会社,,合同会社,東京都,中央区,日本橋１丁目４番１号日本橋一丁目ビルディング,,13,102,1030027,,,,,,,2024-10-31,1,,,,,モルガナイトスリー,0
1938,9010003045330,新規,0,2024-10-31,2024-10-31,合同会社ＯＮＥ,,合同会社,東京都,千代田区,飯田橋２丁目１番４号九段セントラルビル１０２号室,,13,101,1020072,,,,,,,2024-10-31,1,,,,,ワン,0
1939,9010003045339,新規,0,2024-10-31,2024-10-31,ホライズン３合同会社,,合同会社,東京都,中央区,日本橋１丁目４番１号日本橋一丁目ビルディング,,13,102,1030027,,,,,,,2024-10-31,1,,,,,ホライズンスリー,0
1947,9010401186081,新規,0,2024-10-31,2024-10-31,株式会社インプレストラベル,,株式会社,東京都,港区,新橋５丁目２７番１号新橋パークプレイスビル２Ｆ,,13,103,1050004,,,,,,,2024-10-31,1,,,,,インプレストラベル,0
1948,9010403033703,新規,0,2024-10-31,2024-10-31,合同会社ＢｌｕｅＳｔａｒ　Ａｉ,,合同会社,東京都,港区,南青山３丁目１番３６号青山丸竹ビル６Ｆ,,13,103,1070062,,,,,,,2024-10-31,1,,,,,ブルースターエーアイ,0
1950,9010405023702,新規,0,2024-10-31,2024-10-31,一般社団法人Ｊａｐａｎ　Ｓｔｏｒａｇｅ　Ｂａｔｔｅｒｙ,,その他の設立登記法人,東京都,港区,六本木１丁目６番１号泉ガーデンタワー,,13,103,1060032,,,,,,,2024-10-31,1,,,,,ジャパンストレージバッテリー,0
1951,9010405023727,新規,0,2024-10-31,2024-10-31,大府リテールホールディング１一般社団法人,,その他の設立登記法人,東京都,港区,虎ノ門３丁目２２番１０－２０１号,,13,103,1050001,,,,,,,2024-10-31,1,,,,,オオブリテールホールディングワン,0
1953,9010501053124,新規,0,2024-10-31,2024-10-31,星光株式会社,,株式会社,東京都,台東区,根岸１丁目５番１６－４０１号,,13,106,1100003,,,,,,,2024-10-31,1,,,,,セイコー,0
1968,9011005010719,新規,0,2024-10-31,2024-10-31,一般社団法人医革会,,その他の設立登記法人,東京都,渋谷区,恵比寿南２丁目１２番３号フォーレスト恵比寿４０１,,13,113,1500022,,,,,,,2024-10-31,1,,,,,イカクカイ,0
1974,9011101109332,新規,0,2024-10-31,2024-10-31,株式会社パレード,,株式会社,東京都,新宿区,新宿１丁目９番１０号ＹＫＢ東ビル６０２,,13,104,1600022,,,,,,,2024-10-31,1,,,,,パレード,0
1975,9011101109357,新規,0,2024-10-31,2024-10-31,株式会社フォース,,株式会社,東京都,新宿区,西新宿５丁目１番１－２８０４号,,13,104,1600023,,,,,,,2024-10-31,1,,,,,フォース,0
1976,9011101109415,新規,0,2024-10-31,2024-10-31,ライズアップリアルティ株式会社,,株式会社,東京都,新宿区,新宿２丁目１２番４号アコード新宿ビル４Ｆ,,13,104,1600022,,,,,,,2024-10-31,1,,,,,ライズアップリアルティ,0
1978,9011103015124,新規,0,2024-10-31,2024-10-31,Ｂｌｕｅｂｉｒｄ　Ｈａｒｍｏｎｙ合同会社,,合同会社,東京都,新宿区,西新宿７丁目５番９－２２０５号,,13,104,1600023,,,,,,,2024-10-31,1,,,,,ブルーバードハーモニー,0
1985,9011703004022,新規,0,2024-10-31,2024-10-31,合同会社Ｍ＆Ｈ,,合同会社,東京都,江戸川区,南小岩７丁目２６番４号薮田ビル１Ｆ,,13,123,1330056,,,,,,,2024-10-31,1,,,,,エムアンドエイチ,0
1987,9011801045083,新規,0,2024-10-31,2024-10-31,株式会社レミニセンス,,株式会社,東京都,足立区,江北３丁目１８番１０号,,13,121,1230872,,,,,,,2024-10-31,1,,,,,レミニセンス,0
1999,9012403006812,新規,0,2024-10-31,2024-10-31,合同会社Ｍｏｎｄｏ,,合同会社,東京都,多摩市,関戸２丁目６５番地の８聖蹟フラット１０１,,13,224,2060011,,,,,,,2024-10-31,1,,,,,モンド,0
2000,9012701018518,新規,0,2024-10-31,2024-10-31,株式会社フィールド企画,,株式会社,東京都,小平市,仲町１５５番地３２ビューラーセキ２－１０２号,,13,211,1870042,,,,,,,2024-10-31,1,,,,,フィールドキカク,0
2006,9013301053302,新規,0,2024-10-31,2024-10-31,株式会社モゾクリエート,,株式会社,東京都,豊島区,東池袋１丁目３４番５号いちご東池袋ビル６階,,13,116,1700013,,,,,,,2024-10-31,1,,,,,モゾクリエート,0
2011,9020001159817,新規,0,2024-10-31,2024-10-31,株式会社カジカインダストリー,,株式会社,神奈川県,横浜市西区,高島２丁目１１番２号,,14,103,2200011,,,,,,,2024-10-31,1,,,,,カジカインダストリー,0
2012,9020001159841,新規,0,2024-10-31,2024-10-31,株式会社ＴＥＡ　ＭＡＮ,,株式会社,神奈川県,川崎市中原区,木月住吉町７番８－２０１号,,14,133,2110021,,,,,,,2024-10-31,1,,,,,ティーマン,0
2016,9020003027162,新規,0,2024-10-31,2024-10-31,ｔｏｂｉｕｏ　ｓｔｕｄｉｏ合同会社,,合同会社,神奈川県,川崎市高津区,溝口１丁目９番７号長谷川ビル５Ｆ,,14,134,2130001,,,,,,,2024-10-31,1,,,,,トビウオスタジオ,0
2019,9021003015157,新規,0,2024-10-31,2024-10-31,ラスペルタ合同会社,,合同会社,神奈川県,横須賀市,佐島３丁目１２番２１号,,14,201,2400103,,,,,,,2024-10-31,1,,,,,ラスペルタ,0
2020,9021003015165,新規,0,2024-10-31,2024-10-31,３７合同会社,,合同会社,神奈川県,藤沢市,鵠沼花沢町３－２８,,14,205,2510023,,,,,,,2024-10-31,1,,,,,サンナナ,0
2026,9030001163165,新規,0,2024-10-31,2024-10-31,株式会社ＩＮＣＬＵＳＩＶＥ,,株式会社,埼玉県,春日部市,八丁目１３３番地２パインズヴィラＩＩ３０１,00136841,11,214,3440006,,,,,,,2024-10-31,1,,,,,インクルーシブ,0
2030,9030005021922,新規,0,2024-10-31,2024-10-31,一般社団法人Ｋフロンティア,,その他の設立登記法人,埼玉県,鴻巣市,本町６丁目１番１０号,,11,217,3650038,,,,,,,2024-10-31,1,,,,,ケーフロンティア,0
2037,9040001135997,新規,0,2024-10-31,2024-10-31,株式会社ベルクローシェ,,株式会社,千葉県,市原市,五井中央西１丁目６－１ＡＲＥＣＸ５Ｙ５,,12,219,2900081,,,,,,,2024-10-31,1,,,,,ベルクローシェ,0
2045,9060005010261,新規,0,2024-10-31,2024-10-31,一般社団法人ＴＨＡＮ‐ＫＹＵ,,その他の設立登記法人,栃木県,那須塩原市,大原間２７０番地,,09,213,3293153,,,,,,,2024-10-31,1,,,,,タンキュウ,0
2047,9070001042316,新規,0,2024-10-31,2024-10-31,みつは株式会社,,株式会社,群馬県,高崎市,筑縄町３７１番地５,,10,202,3700075,,,,,,,2024-10-31,1,,,,,ミツハ,0
2048,9080101025095,新規,0,2024-10-31,2024-10-31,株式会社ＲｅＱ,,株式会社,静岡県,富士市,鮫島３８９－１,,22,210,4160934,,,,,,,2024-10-31,1,,,,,リキュウ,0
2051,9100001037972,新規,0,2024-10-31,2024-10-31,株式会社ｆｌｂ,,株式会社,長野県,北佐久郡立科町,大字宇山１６９４番地２,,20,324,3842306,,,,,,,2024-10-31,1,,,,,エフエルビー,0
2060,9120001269663,新規,0,2024-10-31,2024-10-31,ＬＴＰ株式会社,,株式会社,大阪府,大阪市淀川区,宮原２丁目９番１９－８０３号,,27,123,5320003,,,,,,,2024-10-31,1,,,,,エルティーピー,0
2061,9120001269738,新規,0,2024-10-31,2024-10-31,集合会株式会社,,株式会社,大阪府,大阪市東淀川区,瑞光４丁目２－２１プレアール瑞光３０３,,27,114,5330005,,,,,,,2024-10-31,1,,,,,シュウゴウカイ,0
2062,9120001269845,新規,0,2024-10-31,2024-10-31,株式会社松福,,株式会社,大阪府,大阪市中央区,日本橋１丁目１番１号,,27,128,5420073,,,,,,,2024-10-31,1,,,,,マツフク,0
2063,9120001269853,新規,0,2024-10-31,2024-10-31,大山株式会社,,株式会社,大阪府,大阪市東淀川区,西淡路５丁目１番１号２階２０４－８号室,,27,114,5330031,,,,,,,2024-10-31,1,,,,,オオヤマ,0
2064,9120001269878,新規,0,2024-10-31,2024-10-31,株式会社スズキデザイン,,株式会社,大阪府,大阪市中央区,上町１丁目１５番１５－７０４号,,27,128,5400005,,,,,,,2024-10-31,1,,,,,スズキデザイン,0
2065,9120001269886,新規,0,2024-10-31,2024-10-31,ＳＷＥＥＴ　ＤＡＹＳ株式会社,,株式会社,大阪府,大阪市浪速区,難波中２丁目７番１６－２０３号,,27,111,5560011,,,,,,,2024-10-31,1,,,,,スウィートデイズ,0
2068,9120003027870,新規,0,2024-10-31,2024-10-31,合同会社Ｍ‐ＧＡＲＡＧＥ,,合同会社,大阪府,大阪市平野区,瓜破６丁目４－１９,,27,126,5470024,,,,,,,2024-10-31,1,,,,,エムガレージ,0
2071,9120101070500,新規,0,2024-10-31,2024-10-31,株式会社Ｔ’ｓ　ＹＯＬＯ,,株式会社,大阪府,堺市北区,奥本町１丁３３６番地,,27,146,5918007,,,,,,,2024-10-31,1,,,,,ティーズヨーロー,0
2072,9120101070509,新規,0,2024-10-31,2024-10-31,伍光建設株式会社,,株式会社,大阪府,堺市美原区,小平尾１１９２番１号,,27,147,5870021,,,,,,,2024-10-31,1,,,,,ゴコウケンセツ,0
2075,9122001038585,新規,0,2024-10-31,2024-10-31,株式会社ビヤンネートル,,株式会社,大阪府,八尾市,竹渕４丁目３３番地の３アビタシオン岸田４０５号,,27,212,5810052,,,,,,,2024-10-31,1,,,,,ビヤンネートル,0
2076,9122003003026,新規,0,2024-10-31,2024-10-31,合同会社こといろ,,合同会社,大阪府,八尾市,龍華町１丁目４番１－２３１６号,,27,212,5810069,,,,,,,2024-10-31,1,,,,,コトイロ,0
2079,9130003009959,新規,0,2024-10-31,2024-10-31,合同会社ワイアド,,合同会社,京都府,京都市中京区,西ノ京永本町１３－２３,,26,104,6048421,,,,,,,2024-10-31,1,,,,,ワイアド,0
2083,9140001136275,新規,0,2024-10-31,2024-10-31,相生エコサービス株式会社,,株式会社,兵庫県,神戸市東灘区,向洋町中２丁目９番地１,,28,101,6580032,,,,,,,2024-10-31,1,,,,,アイオイエコサービス,0
2092,9180001163919,新規,0,2024-10-31,2024-10-31,株式会社ＨＩＣ,,株式会社,愛知県,春日井市,下原町１７９７番地１,,23,206,4860819,,,,,,,2024-10-31,1,,,,,エイチアイシー,0
2093,9180001163927,新規,0,2024-10-31,2024-10-31,ステッチ・ワークス・ジャパン株式会社,,株式会社,愛知県,名古屋市中区,大須２丁目２５番１１号,,23,106,4600011,,,,,,,2024-10-31,1,,,,,ステッチワークスジャパン,0
2104,9190001031760,新規,0,2024-10-31,2024-10-31,株式会社Ｂｌｕｅ　Ｐｅａｒｌ　Ｍａｎａｇｅｍｅｎｔ,,株式会社,三重県,志摩市,志摩町御座９５０番,,24,215,5170705,,,,,,,2024-10-31,1,,,,,ブルーパールマネジメント,0
2115,9240001064029,新規,0,2024-10-31,2024-10-31,株式会社ぎんざ,,株式会社,広島県,広島市中区,吉島新町２丁目１６番８号,,34,101,7300824,,,,,,,2024-10-31,1,,,,,ギンザ,0
2118,9250001020872,新規,0,2024-10-31,2024-10-31,株式会社笑和,,株式会社,山口県,周南市,大字戸田１６３２番地の１２,,35,215,7451131,,,,,,,2024-10-31,1,,,,,ショウワ,0
2119,9260003004947,新規,0,2024-10-31,2024-10-31,ルミナス合同会社,,合同会社,岡山県,笠岡市,三番町７番地１２,,33,205,7140084,,,,,,,2024-10-31,1,,,,,ルミナス,0
2131,9310001019297,新規,0,2024-10-31,2024-10-31,株式会社ＲＥＬＡＩＲ,,株式会社,長崎県,佐世保市,大和町９５７番地３エンドレス１０２,,42,202,8571165,,,,,,,2024-10-31,1,,,,,リレア,0
2136,9340001026893,新規,0,2024-10-31,2024-10-31,株式会社ＯＮＥ　ＢＡＳＥ,,株式会社,鹿児島県,大島郡宇検村,大字湯湾２９３７番地６４,,46,524,8943301,,,,,,,2024-10-31,1,,,,,ワンベース,0
2138,9340003004641,新規,0,2024-10-31,2024-10-31,合同会社みにＺＯＯ,,合同会社,鹿児島県,薩摩川内市,宮内町１８９２番地,,46,215,8950065,,,,,,,2024-10-31,1,,,,,ミニズー,0
2139,9350001019260,新規,0,2024-10-31,2024-10-31,株式会社音月,,株式会社,宮崎県,宮崎市,中央通１番１０号宮崎第一ビル４０２号,,45,201,8800002,,,,,,,2024-10-31,1,,,,,オツキ,0
2141,9360001034382,新規,0,2024-10-31,2024-10-31,株式会社バッファローランド,,株式会社,沖縄県,石垣市,字真栄里１１７番地２４,,47,207,9070002,,,,,,,2024-10-31,1,,,,,バッファローランド,0
2142,9370001051872,新規,0,2024-10-31,2024-10-31,株式会社ＢｒｉｇｈｔＰａｔｈ,,株式会社,宮城県,仙台市太白区,松が丘１２番５号,,04,104,9820821,,,,,,,2024-10-31,1,,,,,ブライトパス,0
2158,9490001010899,新規,0,2024-10-31,2024-10-31,株式会社ＭｉｃＴ,,株式会社,高知県,香南市,夜須町手結山１６３５番地８,,39,211,7815622,,,,,,,2024-10-31,1,,,,,ミクト,0
2159,9700150127638,新規,0,2024-10-31,2024-10-31,ＨＡＭＩＴＨ　ＭＯＴＯＲＳ,,外国会社等,千葉県,山武市,松尾町本水深７３１－１－２,,12,237,2891525,スリランカ民主社会主義共和国ムリヤカダワラ、ウットゥピティヤ,,,,,,2024-10-31,1,,,,,ハミスモータース,0
2160,9700150127646,新規,0,2024-10-31,2024-10-31,ＧＬＯＢＡＬ　ＷＥＢ　ＥＮＴＥＲＰＲＩＳＥ　ＬＬＣ,,外国会社等,,,,,,,,９９　Ｗａｌｌ　Ｓｔｒｅｅｔ　＃１５９９，Ｎｅｗ　Ｙｏｒｋ，Ｎｅｗ　Ｙｏｒｋ，１０００５　ＵＳ,,,,,,2024-10-31,1,,,,,グローバルウェブエンタープライズエルエルシー,0
