sequenceNumber,corporateNumber,process,correct,updateDate,changeDate,name,nameImageId,kind,prefectureName,cityName,streetNumber,addressImageId,prefectureCode,cityCode,postCode,addressOutside,addressOutsideImageId,closeDate,closeCause,successorCorporateNumber,changeCause,assignmentDate,latest,enName,enPrefectureName,enCityName,enAddressOutside,furigana,hihyoji
9,1010001245303,新規,0,2024-06-05,2024-06-05,株式会社Ｅａｒｅｎｄｅｌ　Ｄａｔａ,,株式会社,東京都,文京区,本郷４丁目１番３号明和本郷ビル７階,,13,105,1130033,,,,,,,2024-06-05,1,,,,,エアレンデルデータ,0
10,1010001245419,新規,0,2024-06-05,2024-06-05,株式会社ニッパホールディングス,,株式会社,東京都,千代田区,内幸町１丁目３番３号,,13,101,1000011,,,,,,,2024-06-05,1,,,,,ニッパホールディングス,0
11,1010001245435,新規,0,2024-06-05,2024-06-05,株式会社ＩＴブリッジ,,株式会社,東京都,文京区,小日向２丁目１番３０－１１４号,,13,105,1120006,,,,,,,2024-06-05,1,,,,,アイティーブリッジ,0
12,1010001245451,新規,0,2024-06-05,2024-06-05,株式会社Ｓｏｒａｃｌｅ,,株式会社,東京都,中央区,日本橋小伝馬町７番１６号,,13,102,1030001,,,,,,,2024-06-05,1,,,,,ソラクル,0
13,1010003043944,新規,0,2024-06-05,2024-06-05,ＢＹＴＥＢＲＩＤＧＥ　ＴＥＣＨＮＯＬＯＧＹ合同会社,,合同会社,東京都,千代田区,霞が関３丁目２番６号東京倶楽部ビルディング１１階,,13,101,1000013,,,,,,,2024-06-05,1,,,,,バイトブリッジテクノロジー,0
18,1010101016174,新規,0,2024-06-05,2024-06-05,株式会社タカヨシ,,株式会社,東京都,八王子市,堀之内３丁目１５番地１,,13,201,1920355,,,,,,,2024-06-05,1,,,,,タカヨシ,0
21,1010103002370,新規,0,2024-06-05,2024-06-05,合同会社ヘブナ,,合同会社,東京都,八王子市,中野上町１丁目８番地１７号２,,13,201,1920041,,,,,,,2024-06-05,1,,,,,,0
31,1010401182591,新規,0,2024-06-05,2024-06-05,Ｑｕｅｓｓ‐Ｐａｒｔｎｅｒｓ株式会社,,株式会社,東京都,港区,虎ノ門３丁目８番地２５近鉄虎ノ門ビル６階,,13,103,1050001,,,,,,,2024-06-05,1,,,,,クエスパートナーズ,0
32,1010401182872,新規,0,2024-06-05,2024-06-05,Ｈａｈｏｗ　Ｊａｐａｎ株式会社,,株式会社,東京都,港区,赤坂２丁目５番８号３Ｆ,,13,103,1070052,,,,,,,2024-06-05,1,,,,,ハハウジャパン,0
33,1010401182880,新規,0,2024-06-05,2024-06-05,日本クリーンアンモニアシッピング株式会社,,株式会社,東京都,港区,北青山２丁目５番１号,,13,103,1070061,,,,,,,2024-06-05,1,,,,,ニホンクリーンアンモニアシッピング,0
34,1010401182947,新規,0,2024-06-05,2024-06-05,株式会社タイムイズマネー,,株式会社,東京都,港区,虎ノ門４丁目３－１城山トラストタワー２７階,,13,103,1050001,,,,,,,2024-06-05,1,,,,,,0
36,1010403032737,新規,0,2024-06-05,2024-06-05,合同会社Ｓｏｌａｒｉｓ　Ａｓｓｅｔ　Ｍａｎａｇｅｍｅｎｔ,,合同会社,東京都,港区,赤坂３丁目１１－１５ＶＯＲＴ赤坂見附４階,,13,103,1070052,,,,,,,2024-06-05,1,,,,,ソラリスアセットマネジメント,0
40,1010501052397,新規,0,2024-06-05,2024-06-05,大川国際物流株式会社,,株式会社,東京都,台東区,台東１丁目１２－１１,,13,106,1100016,,,,,,,2024-06-05,1,,,,,オオガワコクサイブツリュウ,0
44,1010803004971,新規,0,2024-06-05,2024-06-05,合同会社錦,,合同会社,東京都,大田区,西蒲田２丁目１番５－７０２号,,13,111,1440051,,,,,,,2024-06-05,1,,,,,ニシキ,0
53,1011001162414,新規,0,2024-06-05,2024-06-05,株式会社Ｃｏｍｉｎａｌ,,株式会社,東京都,渋谷区,円山町５番５号Ｎａｖｉ渋谷Ｖ３階,,13,113,1500044,,,,,,,2024-06-05,1,,,,,コミナル,0
54,1011001162439,新規,0,2024-06-05,2024-06-05,株式会社トライシップ,,株式会社,東京都,渋谷区,本町６丁目４番５号,,13,113,1510071,,,,,,,2024-06-05,1,,,,,トライシップ,0
55,1011101107450,新規,0,2024-06-05,2024-06-05,株式会社テアールネクスト,,株式会社,東京都,新宿区,市谷仲之町２番７－５０２号,,13,104,1620064,,,,,,,2024-06-05,1,,,,,テアールネクスト,0
59,1011501030756,新規,0,2024-06-05,2024-06-05,株式会社ＣＲＦ,,株式会社,東京都,北区,昭和町２丁目１４番１４号,,13,117,1140011,,,,,,,2024-06-05,1,,,,,シーアールエフ,0
61,1011503006093,新規,0,2024-06-05,2024-06-05,合同会社Ｋ＆Ｋマネジメント,,合同会社,東京都,北区,赤羽南１丁目１９番４－７０３号,,13,117,1150044,,,,,,,2024-06-05,1,,,,,ケイアンドケイマネジメント,0
66,1011705001834,新規,0,2024-06-05,2024-06-05,ＮＰＯ法人Ｒａｙｍｓ,,その他の設立登記法人,東京都,江戸川区,北葛西１丁目２３番２１－９０８号,,13,123,1340081,,,,,,,2024-06-05,1,,,,,ライム,0
67,1011801044332,新規,0,2024-06-05,2024-06-05,株式会社ケアサービス末広,,株式会社,東京都,足立区,梅田２丁目４番１７－９０５号,,13,121,1230851,,,,,,,2024-06-05,1,,,,,ケアサービススエヒロ,0
68,1011803006272,新規,0,2024-06-05,2024-06-05,ＢａｏＢａｏ合同会社,,合同会社,東京都,葛飾区,堀切７丁目２７－７名橋ビル４０４,,13,122,1240006,,,,,,,2024-06-05,1,,,,,ボーボー,0
69,1012401041934,新規,0,2024-06-05,2024-06-05,株式会社白壁屋,,株式会社,東京都,稲城市,坂浜４丁目１番地の２,,13,225,2060822,,,,,,,2024-06-05,1,,,,,シロカベヤ,0
70,1012401041942,新規,0,2024-06-05,2024-06-05,株式会社５,,株式会社,東京都,狛江市,東和泉１丁目２９番１１号サンライズビル３０３号室,,13,219,2010014,,,,,,,2024-06-05,1,,,,,ファイブ,0
86,1020001157555,新規,0,2024-06-05,2024-06-05,株式会社Ｔｒｕｓｔ　Ｃｌｅａｎ,,株式会社,神奈川県,横浜市中区,大平町９８番地２大平コーポ１１１号室,,14,104,2310859,,,,,,,2024-06-05,1,,,,,トラストクリーン,0
97,1021003014604,新規,0,2024-06-05,2024-06-05,カナ総合防災合同会社,,合同会社,神奈川県,厚木市,愛甲４丁目３番４６号コスモエステート１０３号室,,14,212,2430035,,,,,,,2024-06-05,1,,,,,カナソウゴウボウサイ,0
108,1030001160698,新規,0,2024-06-05,2024-06-05,株式会社ｎａｉｎｋ,,株式会社,埼玉県,富士見市,西みずほ台２丁目２－９ＴＭビル１０２,,11,235,3540018,,,,,,,2024-06-05,1,,,,,ナインケイ,0
111,1030003024414,新規,0,2024-06-05,2024-06-05,甘酒本舗合同会社,,合同会社,埼玉県,熊谷市,妻沼１８５６－１,,11,202,3600201,,,,,,,2024-06-05,1,,,,,アマザケホンポ,0
113,1040001133843,新規,0,2024-06-05,2024-06-05,株式会社ジィー・オー・エム,,株式会社,千葉県,市川市,南大野２丁目３０番１７号,,12,203,2720804,,,,,,,2024-06-05,1,,,,,,0
114,1040001133851,新規,0,2024-06-05,2024-06-05,株式会社ジョジュ,,株式会社,千葉県,柏市,若柴１７８番地４柏の葉キャンパス１４８街区１パークシティ柏の葉キャンパスザ・ゲートタワーウエスト３Ｆ,,12,217,2770871,,,,,,,2024-06-05,1,,,,,ジョジュ,0
115,1040001133892,新規,0,2024-06-05,2024-06-05,株式会社利伸工業,,株式会社,千葉県,白井市,冨士１５１番地の２,,12,232,2701432,,,,,,,2024-06-05,1,,,,,トシノブコウギョウ,0
116,1040001133926,新規,0,2024-06-05,2024-06-05,株式会社ｂｌｉｚｚａｒｄ,,株式会社,千葉県,富里市,七栄２番地４,,12,233,2860221,,,,,,,2024-06-05,1,,,,,ブリザード,0
120,1040003025097,新規,0,2024-06-05,2024-06-05,合同会社Ｇａｍｅ　Ｓｅｖｅｎ,,合同会社,千葉県,流山市,おおたかの森北３丁目３４番地の８,,12,220,2700119,,,,,,,2024-06-05,1,,,,,ゲームセブン,0
122,1050001054865,新規,0,2024-06-05,2024-06-05,ＡＬ　ＳＡＬＩＫ商会株式会社,,株式会社,茨城県,坂東市,逆井字内野６０６９番地２,,08,228,3060501,,,,,,,2024-06-05,1,,,,,アルサリックショウカイ,0
135,1080401027229,新規,0,2024-06-05,2024-06-05,株式会社ＧＯＲＩＸ,,株式会社,静岡県,磐田市,豊田２２０番地,,22,211,4380808,,,,,,,2024-06-05,1,,,,,ゴリックス,0
137,1100001037526,新規,0,2024-06-05,2024-06-05,株式会社Ｂｉｋｉｎｍａｎ,,株式会社,長野県,飯田市,上郷飯沼７４４番地４,,20,205,3950002,,,,,,,2024-06-05,1,,,,,バイキンマン,0
141,1110001038449,新規,0,2024-06-05,2024-06-05,株式会社ＵＳＡＢＵＲＯ,,株式会社,新潟県,新発田市,五十公野４６９８番地,,15,206,9570021,,,,,,,2024-06-05,1,,,,,ウサブロ,0
143,1110005017102,新規,0,2024-06-05,2024-06-05,労働者協同組合ワーカーズコープごまのたね,,その他の設立登記法人,新潟県,新潟市中央区,沼垂東１丁目５番２２号,,15,103,9500075,,,,,,,2024-06-05,1,,,,,ワーカーズコープゴマノタネ,0
154,1120001265496,新規,0,2024-06-05,2024-06-05,株式会社エヌテック,,株式会社,大阪府,大阪市平野区,背戸口２丁目１６－１２－１０１号室,,27,126,5470034,,,,,,,2024-06-05,1,,,,,エヌテック,0
155,1120001265505,新規,0,2024-06-05,2024-06-05,株式会社Ｐｒｏｎｅｏ,,株式会社,大阪府,大阪市北区,西天満３丁目６－２２日宝北大阪屋ビル,,27,127,5300047,,,,,,,2024-06-05,1,,,,,プロネオ,0
156,1120001265554,新規,0,2024-06-05,2024-06-05,ＳＡＳホールディングス株式会社,,株式会社,大阪府,大阪市西区,新町１丁目２４番１１号,,27,106,5500013,,,,,,,2024-06-05,1,,,,,エスエーエスホールディングス,0
157,1120001265562,新規,0,2024-06-05,2024-06-05,明暉株式会社,,株式会社,大阪府,大阪市中央区,松屋町９番２０号ローレルステート松屋町６０７Ａ,,27,128,5420067,,,,,,,2024-06-05,1,,,,,メイキ,0
158,1120001265595,新規,0,2024-06-05,2024-06-05,株式会社北浦下地工業,,株式会社,大阪府,寝屋川市,池田旭町２番７号,,27,215,5720035,,,,,,,2024-06-05,1,,,,,キタウラシタジコウギョウ,0
159,1120001265604,新規,0,2024-06-05,2024-06-05,藤田貿易株式会社,,株式会社,大阪府,大阪市住之江区,南港中３丁目９番２５－５０７号,,27,125,5590033,,,,,,,2024-06-05,1,,,,,フジタボウエキ,0
160,1120001265612,新規,0,2024-06-05,2024-06-05,株式会社ＴＯＲＣＨ,,株式会社,大阪府,大阪市西区,立売堀６丁目７番５０－１０１０号,,27,106,5500012,,,,,,,2024-06-05,1,,,,,トーチ,0
161,1120001265637,新規,0,2024-06-05,2024-06-05,株式会社ＦｏｒＭｅ　ｗｏｒｋｓ,,株式会社,大阪府,大阪市東住吉区,鷹合３丁目１３番２８号フォレスト１０５号,,27,121,5460014,,,,,,,2024-06-05,1,,,,,フォーミーワークス,0
163,1120003026748,新規,0,2024-06-05,2024-06-05,合同会社ｎｏｖｅｌｔｙ,,合同会社,大阪府,大阪市生野区,新今里３丁目１２番３号,,27,116,5440001,,,,,,,2024-06-05,1,,,,,ノベルティ,0
168,1120103005874,新規,0,2024-06-05,2024-06-05,合同会社桜の抄,,合同会社,大阪府,岸和田市,春木旭町１５番４０号リスペクトＢ棟１０２号室,,27,202,5960005,,,,,,,2024-06-05,1,,,,,サクラノショウ,0
172,1120903005207,新規,0,2024-06-05,2024-06-05,合同会社アップステムブロッコリー,,合同会社,大阪府,高槻市,野田１丁目１４番１０号,,27,207,5690013,,,,,,,2024-06-05,1,,,,,アップステムブロッコリー,0
181,1130003009603,新規,0,2024-06-05,2024-06-05,Ａｒｔ　ｏｆ　Ｌｉｖｉｎｇ　Ｊａｐａｎ合同会社,,合同会社,京都府,京都市下京区,東塩小路町６１４番地新京都センタービル５階,,26,106,6000000,,,,,,,2024-06-05,1,,,,,アートオブリビングジャパン,0
189,1140001134591,新規,0,2024-06-05,2024-06-05,エーピーパートナーズ株式会社,,株式会社,兵庫県,尼崎市,塚口町３丁目３８番地の７,,28,202,6610002,,,,,,,2024-06-05,1,,,,,エーピーパートナーズ,0
190,1140001134633,新規,0,2024-06-05,2024-06-05,株式会社松本工業,,株式会社,兵庫県,尼崎市,上ノ島町２丁目１－２４,,28,202,6610014,,,,,,,2024-06-05,1,,,,,マツモトコウギョウ,0
191,1140001134666,新規,0,2024-06-05,2024-06-05,株式会社Ｌａ　Ｂｅａｕｔｅ　ｃｏ　ＮＯＡ,,株式会社,兵庫県,西宮市,六湛寺町１５番２号エビスタ西宮１階,,28,204,6620918,,,,,,,2024-06-05,1,,,,,ラボーテコノア,0
194,1140003020658,新規,0,2024-06-05,2024-06-05,ＦＡＭＩ合同会社,,合同会社,兵庫県,西宮市,弓場町３番１６号,,28,204,6620964,,,,,,,2024-06-05,1,,,,,ファミ,0
196,1150001027324,新規,0,2024-06-05,2024-06-05,株式会社徳隣堂,,株式会社,奈良県,奈良市,帝塚山２丁目１番２９－４１１号,00135021,29,201,6310062,,,,,,,2024-06-05,1,,,,,トクリンドウ,0
198,1160001025979,新規,0,2024-06-05,2024-06-05,楽源株式会社,,株式会社,滋賀県,草津市,東草津２丁目６番１－７号,,25,206,5250033,,,,,,,2024-06-05,1,,,,,,0
207,1180001161822,新規,0,2024-06-05,2024-06-05,株式会社江戸川建築,,株式会社,愛知県,名古屋市西区,大野木３丁目９３番地,,23,104,4520803,,,,,,,2024-06-05,1,,,,,エドガワケンチク,0
208,1180001161830,新規,0,2024-06-05,2024-06-05,株式会社プアメリア,,株式会社,愛知県,瀬戸市,幡野町３４０番地あべかんビル１Ｆ,,23,204,4890874,,,,,,,2024-06-05,1,,,,,プアメリア,0
209,1180003026882,新規,0,2024-06-05,2024-06-05,合同会社ＣＯＲＥ,,合同会社,愛知県,犬山市,大字犬山字富士見町１５番地６,,23,215,4840081,,,,,,,2024-06-05,1,,,,,コア,0
211,1190001031388,新規,0,2024-06-05,2024-06-05,株式会社Ｇｒｅｅｎ　Ｓｗｉｆｔ,,株式会社,三重県,松阪市,久保町１８５５番地１１８,,24,204,5150044,,,,,,,2024-06-05,1,,,,,,0
212,1200001042557,新規,0,2024-06-05,2024-06-05,株式会社ＡＫＲ,,株式会社,岐阜県,岐阜市,大菅北１２番１０号,,21,201,5010118,,,,,,,2024-06-05,1,,,,,エーケーアール,0
220,1240001063310,新規,0,2024-06-05,2024-06-05,株式会社ｚｏｏ,,株式会社,広島県,呉市,焼山東２丁目７番１０号,,34,202,7370936,,,,,,,2024-06-05,1,,,,,ズー,0
221,1240001063327,新規,0,2024-06-05,2024-06-05,株式会社Ｍｃｌａｓｓｉｃ,,株式会社,広島県,広島市東区,牛田東２丁目１８－４,,34,102,7320063,,,,,,,2024-06-05,1,,,,,エムクラシック,0
222,1240001063335,新規,0,2024-06-05,2024-06-05,株式会社ビズエンタ,,株式会社,広島県,広島市西区,古江東町８番１－４０５号,,34,104,7330872,,,,,,,2024-06-05,1,,,,,ビズエンタ,0
230,1260001039135,新規,0,2024-06-05,2024-06-05,株式会社和田電気,,株式会社,岡山県,倉敷市,児島小川９丁目７番３２－１７号,,33,202,7110911,,,,,,,2024-06-05,1,,,,,ワダデンキ,0
239,1290001106064,新規,0,2024-06-05,2024-06-05,株式会社ｍｏｋｕ,,株式会社,福岡県,糟屋郡粕屋町,酒殿２丁目６番１６号ファミーユＢ１号,,40,349,8112303,,,,,,,2024-06-05,1,,,,,モク,0
246,1290803004746,新規,0,2024-06-05,2024-06-05,リンク合同会社,,合同会社,福岡県,北九州市小倉北区,片野２丁目２番２１号シャトレ片野１０３号,,40,106,8020064,,,,,,,2024-06-05,1,,,,,リンク,0
248,1310001019032,新規,0,2024-06-05,2024-06-05,株式会社ＣＯＮＮＥＣＴ,,株式会社,長崎県,佐世保市,島地町１０番１５号ポレスターセントラルシティ佐世保５０８号,,42,202,8570879,,,,,,,2024-06-05,1,,,,,コネクト,0
249,1310003004800,新規,0,2024-06-05,2024-06-05,合同会社愛・らいふ,,合同会社,長崎県,佐世保市,福石町８番８号,,42,202,8570854,,,,,,,2024-06-05,1,,,,,アイライフ,0
254,1340001026554,新規,0,2024-06-05,2024-06-05,株式会社しまづ屋,,株式会社,鹿児島県,鹿児島市,東千石町１番２６号フォリス観光ビル天文館５階,,46,201,8920842,,,,,,,2024-06-05,1,,,,,シマヅヤ,0
255,1340003004500,新規,0,2024-06-05,2024-06-05,ＣＨａＮｚｅ合同会社,,合同会社,鹿児島県,鹿児島市,甲突町２番７号Ａ－ＳＴＥＰ甲突７０２号,,46,201,8920837,,,,,,,2024-06-05,1,,,,,チェンジ,0
260,1360001033739,新規,0,2024-06-05,2024-06-05,ＩＣＰ株式会社,,株式会社,沖縄県,糸満市,字糸満２０７７番地の１ハーバーゾーン日本ＢＬＤＧ４０２号室,,47,210,9010361,,,,,,,2024-06-05,1,,,,,アイシーピー,0
261,1360001033755,新規,0,2024-06-05,2024-06-05,株式会社ＨＲＩコンサルティング,,株式会社,沖縄県,那覇市,金城３丁目８－１１ゆいビル３Ｆ,,47,201,9010155,,,,,,,2024-06-05,1,,,,,エイチアールアイコンサルティング,0
263,1360003014043,新規,0,2024-06-05,2024-06-05,合同会社ＧＬＯＢＡＬ　ＳＴＥＰ,,合同会社,沖縄県,南城市,知念字久手堅６４１番地２,,47,215,9011511,,,,,,,2024-06-05,1,,,,,グローバルステップ,0
264,1370001051368,新規,0,2024-06-05,2024-06-05,ＯＫふくしチャレンジ株式会社,,株式会社,宮城県,仙台市宮城野区,栄２丁目９番２０号,,04,102,9830011,,,,,,,2024-06-05,1,,,,,オーケーフクシチャレンジ,0
265,1370001051384,新規,0,2024-06-05,2024-06-05,株式会社湊興業,,株式会社,宮城県,黒川郡大郷町,土橋字上野２８－１,,04,422,9813523,,,,,,,2024-06-05,1,,,,,ミナトコウギョウ,0
266,1370003006634,新規,0,2024-06-05,2024-06-05,インベストクリエイト合同会社,,合同会社,宮城県,仙台市宮城野区,五輪２丁目１番８号,,04,102,9830842,,,,,,,2024-06-05,1,,,,,インベストクリエイト,0
284,1430001091952,新規,0,2024-06-05,2024-06-05,株式会社ＳＯＬ,,株式会社,北海道,札幌市北区,北十八条西３丁目１番１８号,,01,102,0010018,,,,,,,2024-06-05,1,,,,,ソル,0
288,1430003016404,新規,0,2024-06-05,2024-06-05,合同会社エスカルゴ,,合同会社,北海道,北広島市,大曲１３－７８,,01,234,0611270,,,,,,,2024-06-05,1,,,,,エスカルゴ,0
289,1430003016420,新規,0,2024-06-05,2024-06-05,合同会社ＢｒｉｇｈｔＳｔｅｐｓ,,合同会社,北海道,札幌市北区,百合が原７丁目５番１４号１階,,01,102,0028081,,,,,,,2024-06-05,1,,,,,ブライトステップ,0
299,1460101007558,新規,0,2024-06-05,2024-06-05,株式会社ベストスポーツ,,株式会社,北海道,帯広市,西十二条南３４丁目３０番地３,,01,207,0800022,,,,,,,2024-06-05,1,,,,,ベストスポーツ,0
303,1480001012499,新規,0,2024-06-05,2024-06-05,株式会社Ｍ’ｓ　Ｄｅｎｔａｌ　Ｃｏｍｐａｎｙ,,株式会社,徳島県,吉野川市,鴨島町西麻植字絵馬堂１１６番地１０,,36,205,7760020,,,,,,,2024-06-05,1,,,,,エムズデンタルカンパニー,0
309,1500001025671,新規,0,2024-06-05,2024-06-05,株式会社クラヴデザイン,,株式会社,愛媛県,松山市,千舟町５丁目３－１７・４階,,38,201,7900011,,,,,,,2024-06-05,1,,,,,クラヴデザイン,0
310,1700150125764,新規,0,2024-06-05,2024-06-05,厦門心啓航国際物流有限公司,,外国会社等,,,,,,,,Ｒｏｏｍ　８０６，Ｎｏ．８８　Ｘｉａｎｇｙｕ　Ｒｏａｄ，Ｘｉａｍｅｎ　Ａｒｅａ，Ｃｈｉｎａ（Ｆｕｊｉａｎ）Ｐｉｌｏｔ　Ｆｒｅｅ　Ｔｒａｄｅ　Ｚｏｎｅ,,,,,,2024-06-05,1,,,,,シアメンシンチーハンインターナシヨナルロジステイクスユウゲンコウシ,0
311,1700150125772,新規,0,2024-06-05,2024-06-05,株式会社オーディナリー・デバイシス,,外国会社等,東京都,荒川区,東日暮里５丁目４９－８－２０１,,13,118,1160014,大韓民国ソウル特別市永登浦区国会大路３６キル６－１、２階１２８９号（堂山洞３街）,,,,,,2024-06-05,1,,,,,カブシキガイシヤオーデイナリーデバイシス,0
322,2010001245442,新規,0,2024-06-05,2024-06-05,ＩＮＳＰＩＲＹ　ＧＬＯＢＡＬ株式会社,,株式会社,東京都,中央区,新川１丁目１６－４ＶＯＲＴ茅場町イースト９Ｆ,,13,102,1040033,,,,,,,2024-06-05,1,,,,,インスパイリーグローバル,0
323,2010001245491,新規,0,2024-06-05,2024-06-05,ファースト株式会社,,株式会社,東京都,千代田区,有楽町１丁目７番１号有楽町電気ビル南館５階５５２,,13,101,1000006,,,,,,,2024-06-05,1,,,,,ファースト,0
324,2010003043935,新規,0,2024-06-05,2024-06-05,合同会社Ｓ．ＣＯＭＰＡＮＹ,,合同会社,東京都,中央区,銀座６丁目６番１９号新太炉ビル地下１階,,13,102,1040061,,,,,,,2024-06-05,1,,,,,エスカンパニー,0
331,2010401182913,新規,0,2024-06-05,2024-06-05,オプシー株式会社,,株式会社,東京都,港区,虎ノ門５丁目１１番１号オランダヒルズ森タワーＲｏＰ,,13,103,1050001,,,,,,,2024-06-05,1,,,,,オプシー,0
356,2011003019272,新規,0,2024-06-05,2024-06-05,合同会社Ｔｉｍｅ＆Ｐｌａｃｅ,,合同会社,東京都,目黒区,目黒本町６丁目１７番２７号春野ビル３０３,,13,110,1520002,,,,,,,2024-06-05,1,,,,,タイムアンドプレイス,0
361,2011101107557,新規,0,2024-06-05,2024-06-05,株式会社マロン,,株式会社,東京都,新宿区,西早稲田３丁目２９番９－３１８号,,13,104,1690051,,,,,,,2024-06-05,1,,,,,マロン,0
362,2011101107573,新規,0,2024-06-05,2024-06-05,株式会社スタンダードピクチャーズ,,株式会社,東京都,新宿区,市谷田町２丁目１７番地八重洲市谷ビル８Ｆ,,13,104,1620843,,,,,,,2024-06-05,1,,,,,スタンダードピクチャーズ,0
364,2011103014495,新規,0,2024-06-05,2024-06-05,ＮｏＢ合同会社,,合同会社,東京都,新宿区,西新宿３丁目３番１３号西新宿水間ビル２Ｆ,,13,104,1600023,,,,,,,2024-06-05,1,,,,,ノーブ,0
367,2011501030763,新規,0,2024-06-05,2024-06-05,株式会社中村インテリア,,株式会社,東京都,荒川区,西尾久２丁目３７番３号,,13,118,1160011,,,,,,,2024-06-05,1,,,,,ナカムラインテリア,0
369,2011601027800,新規,0,2024-06-05,2024-06-05,瑞豊株式会社,,株式会社,東京都,練馬区,練馬３丁目３－１１－７０３号室,,13,120,1760001,,,,,,,2024-06-05,1,,,,,ズイホウ,0
371,2011705001833,新規,0,2024-06-05,2024-06-05,一般社団法人誉会,,その他の設立登記法人,東京都,江戸川区,中葛西５丁目３２番８号圭盟ビル６階,,13,123,1340083,,,,,,,2024-06-05,1,,,,,ホマレカイ,0
374,2011803006271,新規,0,2024-06-05,2024-06-05,合同会社クレッシェンド,,合同会社,東京都,葛飾区,東金町６丁目６番２－４０２号コティリードン,,13,122,1250041,,,,,,,2024-06-05,1,,,,,クレッシェンド,0
375,2012301013941,新規,0,2024-06-05,2024-06-05,Ｎａ２株式会社,,株式会社,東京都,町田市,鶴間２丁目５番地１０,,13,209,1940004,,,,,,,2024-06-05,1,,,,,エヌエーツー,0
380,2012405005001,新規,0,2024-06-05,2024-06-05,特定非営利活動法人ＬＩＴＥＲＩＧＨＴ,,その他の設立登記法人,東京都,府中市,宮町３丁目１２番８,,13,206,1830023,,,,,,,2024-06-05,1,,,,,リテライト,0
401,2020003026303,新規,0,2024-06-05,2024-06-05,合同会社ＯＫＤＸ,,合同会社,神奈川県,横浜市鶴見区,栄町通４丁目４０番地３８,,14,101,2300038,,,,,,,2024-06-05,1,,,,,オーケーディーエックス,0
404,2021001082379,新規,0,2024-06-05,2024-06-05,株式会社クリニックリソース,,株式会社,神奈川県,平塚市,豊原町４－１８,,14,203,2540051,,,,,,,2024-06-05,1,,,,,クリニックリソース,0
405,2021001082387,新規,0,2024-06-05,2024-06-05,株式会社マルマサ青果,,株式会社,神奈川県,大和市,下鶴間２７７１番地１８,,14,213,2420001,,,,,,,2024-06-05,1,,,,,マルマサセイカ,0
406,2021001082412,新規,0,2024-06-05,2024-06-05,株式会社ＳＳ‐Ｇｒｏｕｐ,,株式会社,神奈川県,相模原市南区,下溝８２０番地５,,14,153,2520335,,,,,,,2024-06-05,1,,,,,エスエスグループ,0
411,2021003014603,新規,0,2024-06-05,2024-06-05,コヒーレントウェーブ合同会社,,合同会社,神奈川県,座間市,相模が丘１丁目３３－２５－７０２,,14,216,2520001,,,,,,,2024-06-05,1,,,,,コヒーレントウェーブ,0
417,2030001160664,新規,0,2024-06-05,2024-06-05,雲錦株式会社,,株式会社,埼玉県,川口市,西川口６丁目１６番９－９０２号,,11,203,3320021,,,,,,,2024-06-05,1,,,,,ウンキン,0
418,2030001160680,新規,0,2024-06-05,2024-06-05,株式会社ＳＹＮＥＧＩＦ,,株式会社,埼玉県,三郷市,栄３丁目２９０番１,,11,237,3410043,,,,,,,2024-06-05,1,,,,,シナギフ,0
419,2030001160730,新規,0,2024-06-05,2024-06-05,ＬＬＣ株式会社,,株式会社,埼玉県,春日部市,大場１０９４番地,,11,214,3440021,,,,,,,2024-06-05,1,,,,,エルエルシー,0
427,2030003024421,新規,0,2024-06-05,2024-06-05,合同会社ＳＵＮＲＩＳＥ,,合同会社,埼玉県,さいたま市桜区,田島９丁目１８番２１号メルディア西浦和ＩＩ３０５,00135020,11,106,3380837,,,,,,,2024-06-05,1,,,,,サンライズ,0
428,2040001133883,新規,0,2024-06-05,2024-06-05,株式会社ＫＩＣＨＩ,,株式会社,千葉県,松戸市,牧の原１丁目２７番地の１ルネ常盤平５０２号,,12,207,2702267,,,,,,,2024-06-05,1,,,,,キチ,0
429,2040001133891,新規,0,2024-06-05,2024-06-05,株式会社フィガロ,,株式会社,千葉県,柏市,豊四季６７８番地１６９,,12,217,2770863,,,,,,,2024-06-05,1,,,,,フィガロ,0
430,2040001133933,新規,0,2024-06-05,2024-06-05,ＴＳＣ株式会社,,株式会社,千葉県,柏市,南逆井４丁目２０番４０号,,12,217,2770043,,,,,,,2024-06-05,1,,,,,ティーエスシー,0
438,2050003008422,新規,0,2024-06-05,2024-06-05,合同会社ＴＥＲＡ,,合同会社,茨城県,水戸市,元吉田町１６６６番地,,08,201,3100836,,,,,,,2024-06-05,1,,,,,テラ,0
440,2060001037174,新規,0,2024-06-05,2024-06-05,株式会社坂本電気,,株式会社,栃木県,那須塩原市,鍋掛１４７５番地２９６,,09,213,3250013,,,,,,,2024-06-05,1,,,,,サカモトデンキ,0
446,2070005010283,新規,0,2024-06-05,2024-06-05,一般社団法人Ｔｈａｎｋ総合研究所,,その他の設立登記法人,群馬県,みどり市,大間々町大間々１３４５番地,,10,212,3760101,,,,,,,2024-06-05,1,,,,,サンクソウゴウケンキュウジョ,0
449,2080001026332,新規,0,2024-06-05,2024-06-05,株式会社みらい創造舎,,株式会社,静岡県,静岡市葵区,鷹匠２丁目６番１０号,,22,101,4200839,,,,,,,2024-06-05,1,,,,,ミライソウゾウシャ,0
452,2080101024780,新規,0,2024-06-05,2024-06-05,株式会社丸富興業,,株式会社,静岡県,富士市,伝法５番地の４４,,22,210,4170061,,,,,,,2024-06-05,1,,,,,マルトミコウギョウ,0
453,2080101024789,新規,0,2024-06-05,2024-06-05,メンテックス株式会社,,株式会社,静岡県,伊東市,宇佐美４２２番地の１１,,22,208,4140001,,,,,,,2024-06-05,1,,,,,メンテックス,0
473,2120001265553,新規,0,2024-06-05,2024-06-05,清風株式会社,,株式会社,大阪府,大阪市中央区,龍造寺町４番５号,,27,128,5400014,,,,,,,2024-06-05,1,,,,,セイフウ,0
474,2120001265561,新規,0,2024-06-05,2024-06-05,影游株式会社,,株式会社,大阪府,大阪市城東区,関目５丁目１９番９号関目花博公館５０６Ａ,,27,118,5360008,,,,,,,2024-06-05,1,,,,,エイユウ,0
475,2120001265578,新規,0,2024-06-05,2024-06-05,株式会社くまの,,株式会社,大阪府,大阪市鶴見区,放出東３丁目３４番３－９０８号,,27,124,5380044,,,,,,,2024-06-05,1,,,,,クマノ,0
476,2120001265594,新規,0,2024-06-05,2024-06-05,ＡＬＬＡＧＩ　ＣＵＥＮＴＯ株式会社,,株式会社,大阪府,大阪市北区,梅田１丁目８番１７号１階,,27,127,5300001,,,,,,,2024-06-05,1,,,,,アレジクエント,0
477,2120001265636,新規,0,2024-06-05,2024-06-05,株式会社ＳｏｕＺｏｕ,,株式会社,大阪府,大阪市浪速区,稲荷２丁目７－２２ＵＲＢＡＮＰＡＲＫ難波３０８号室,,27,111,5560023,,,,,,,2024-06-05,1,,,,,ソウゾウ,0
478,2120001265644,新規,0,2024-06-05,2024-06-05,株式会社田中アセットマネジメント,,株式会社,大阪府,大阪市北区,梅田１丁目２番２号大阪駅前第２ビル１２－１２,,27,127,5300001,,,,,,,2024-06-05,1,,,,,タナカアセットマネジメント,0
479,2120001265652,新規,0,2024-06-05,2024-06-05,株式会社２ｎｄ,,株式会社,大阪府,大阪市西区,立売堀１丁目３番１７号,,27,106,5500012,,,,,,,2024-06-05,1,,,,,セカンド,0
481,2120003026747,新規,0,2024-06-05,2024-06-05,博雅合同会社,,合同会社,大阪府,大阪市中央区,心斎橋筋１丁目５番２８号１０２号室,,27,128,5420085,,,,,,,2024-06-05,1,,,,,ホヤ,0
482,2120003026763,新規,0,2024-06-05,2024-06-05,合同会社ＫＯＮＡＴＳＵ,,合同会社,大阪府,大阪市生野区,小路１丁目２３番１６号,,27,116,5440002,,,,,,,2024-06-05,1,,,,,コナツ,0
483,2120003026771,新規,0,2024-06-05,2024-06-05,合同会社ＨＤ,,合同会社,大阪府,大阪市西区,新町１丁目２５－１８－５０４,,27,106,5500013,,,,,,,2024-06-05,1,,,,,エイチディー,0
485,2120005024360,新規,0,2024-06-05,2024-06-05,特定非営利活動法人ＮａｖｙＲｅｄｓＲｕｇｂｙＣｌｕｂ,,その他の設立登記法人,大阪府,大阪市都島区,毛馬町２丁目３－８－６０１,,27,102,5340001,,,,,,,2024-06-05,1,,,,,ネイビーレッズラグビークラブ,0
488,2120101069689,新規,0,2024-06-05,2024-06-05,リステート株式会社,,株式会社,大阪府,羽曳野市,南古市２丁目１０番２号,,27,222,5830858,,,,,,,2024-06-05,1,,,,,リステート,0
489,2120101069714,新規,0,2024-06-05,2024-06-05,株式会社ＬＯＲＤ,,株式会社,大阪府,岸和田市,加守町４丁目８番５－１０３号,,27,202,5960042,,,,,,,2024-06-05,1,,,,,ロード,0
494,2120901049270,新規,0,2024-06-05,2024-06-05,ラシーン館株式会社,,株式会社,大阪府,吹田市,江の木町１３番１－３０３号,,27,205,5640053,,,,,,,2024-06-05,1,,,,,ラシーンカン,0
495,2120903005189,新規,0,2024-06-05,2024-06-05,合同会社ＲＥＭ,,合同会社,大阪府,吹田市,広芝町１２番２８－７０４号,,27,205,5640052,,,,,,,2024-06-05,1,,,,,アールイーエム,0
499,2122001038138,新規,0,2024-06-05,2024-06-05,株式会社ＴＯＭＩ建設,,株式会社,大阪府,東大阪市,新家２丁目９番１４号,,27,227,5770025,,,,,,,2024-06-05,1,,,,,トミケンセツ,0
500,2122001038154,新規,0,2024-06-05,2024-06-05,エムエー総建株式会社,,株式会社,大阪府,大東市,大東町７番２９号,,27,218,5740061,,,,,,,2024-06-05,1,,,,,エムエーソウケン,0
501,2122003002901,新規,0,2024-06-05,2024-06-05,合同会社Ｃｏｒａｚｏｎ,,合同会社,大阪府,大東市,扇町８番８号ＴＵＲＡＮＤＯＴ４０６号,,27,218,5740033,,,,,,,2024-06-05,1,,,,,コラソン,0
511,2140001134649,新規,0,2024-06-05,2024-06-05,株式会社アソプロ,,株式会社,兵庫県,西宮市,小曽根町４丁目６番２０号,,28,204,6638122,,,,,,,2024-06-05,1,,,,,アソプロ,0
512,2140003020632,新規,0,2024-06-05,2024-06-05,合同会社キュイス,,合同会社,兵庫県,神戸市中央区,磯辺通１丁目１番１８号カサベラ国際プラザビル７０７,,28,110,6510084,,,,,,,2024-06-05,1,,,,,キュイス,0
515,2150001027323,新規,0,2024-06-05,2024-06-05,株式会社ＴＯＭＩＩ,,株式会社,奈良県,葛城市,竹内５１４番地,,29,211,6392155,,,,,,,2024-06-05,1,,,,,トミイ,0
517,2150005009598,新規,0,2024-06-05,2024-06-05,一般社団法人日本整形外科超音波学会,,その他の設立登記法人,奈良県,橿原市,四条町８４０番地奈良県立医科大学,,29,205,6340813,,,,,,,2024-06-05,1,,,,,ニホンセイケイゲカチョウオンパガッカイ,0
520,2160001025978,新規,0,2024-06-05,2024-06-05,株式会社鍛冶大鐵工,,株式会社,滋賀県,野洲市,冨波乙６５３番地,,25,210,5202352,,,,,,,2024-06-05,1,,,,,カジダイテッコウ,0
523,2170001018171,新規,0,2024-06-05,2024-06-05,株式会社アースクリーン,,株式会社,和歌山県,和歌山市,松江中２丁目５番３０号,,30,201,6408423,,,,,,,2024-06-05,1,,,,,アースクリーン,0
526,2180001161747,新規,0,2024-06-05,2024-06-05,株式会社Ｆｕｊｉ‐ｉ,,株式会社,愛知県,名古屋市昭和区,広見町６丁目６３番地,,23,107,4660046,,,,,,,2024-06-05,1,,,,,フジーアイ,0
527,2180003026898,新規,0,2024-06-05,2024-06-05,合同会社ＧＬＯＢＡＬ,,合同会社,愛知県,名古屋市西区,名駅２丁目３４番１７号セントラル名古屋１１０１号,,23,104,4510045,,,,,,,2024-06-05,1,,,,,グローバル,0
529,2200005013628,新規,0,2024-06-05,2024-06-05,一般社団法人日本アカウンタビリティ・パートナー協会,,その他の設立登記法人,岐阜県,不破郡垂井町,地蔵２丁目４７番地,,21,361,5032100,,,,,,,2024-06-05,1,,,,,ニホンアカウンタビリティパートナーキョウカイ,0
530,2210001019776,新規,0,2024-06-05,2024-06-05,株式会社くいしんぼ市場,,株式会社,福井県,福井市,高木中央３丁目５０１,,18,201,9100804,,,,,,,2024-06-05,1,,,,,クイシンボイチバ,0
541,2240001063326,新規,0,2024-06-05,2024-06-05,株式会社西風田村設備,,株式会社,広島県,広島市安佐南区,大塚西３丁目８－１３－７,,34,105,7313167,,,,,,,2024-06-05,1,,,,,セイフウタムラセツビ,0
542,2240001063334,新規,0,2024-06-05,2024-06-05,リノベ株式会社,,株式会社,広島県,広島市安芸区,船越６丁目４０番１２号,,34,107,7360081,,,,,,,2024-06-05,1,,,,,リノベ,0
548,2240005015777,新規,0,2024-06-05,2024-06-05,一般社団法人こどもぷらす,,その他の設立登記法人,広島県,広島市中区,吉島西２丁目１３番４１－２０１号,,34,101,7300823,,,,,,,2024-06-05,1,,,,,コドモプラス,0
558,2290803004745,新規,0,2024-06-05,2024-06-05,合同会社ケアプランセンターさとう,,合同会社,福岡県,北九州市門司区,東本町１丁目２番１８号,,40,101,8010851,,,,,,,2024-06-05,1,,,,,ケアプランセンターサトウ,0
565,2330001032123,新規,0,2024-06-05,2024-06-05,ヒノクリーン株式会社,,株式会社,熊本県,菊池市,木庭４５番地,,43,210,8611301,,,,,,,2024-06-05,1,,,,,ヒノクリーン,0
566,2340001026553,新規,0,2024-06-05,2024-06-05,株式会社山口,,株式会社,鹿児島県,鹿児島市,山之口町４－１５－２０１,,46,201,8920844,,,,,,,2024-06-05,1,,,,,ヤマグチ,0
571,2370001051367,新規,0,2024-06-05,2024-06-05,株式会社アクロス,,株式会社,宮城県,多賀城市,浮島１丁目１１番１６号,,04,209,9850861,,,,,,,2024-06-05,1,,,,,アクロス,0
581,2390003002250,新規,0,2024-06-05,2024-06-05,合同会社ブランディング欅,,合同会社,山形県,酒田市,中町１丁目１４番２９号ブランニュースペースなかまち１Ｆ,,06,204,9980044,,,,,,,2024-06-05,1,,,,,ブランディングケヤキ,0
582,2400001016671,新規,0,2024-06-05,2024-06-05,株式会社盛勝,,株式会社,岩手県,盛岡市,本町通３丁目８番１２号,,03,201,0200015,,,,,,,2024-06-05,1,,,,,セイショウ,0
583,2410001013841,新規,0,2024-06-05,2024-06-05,秋田アニメ予備校株式会社,,株式会社,秋田県,秋田市,千秋矢留町７番１１号,,05,201,0100877,,,,,,,2024-06-05,1,,,,,アキタアニメヨビコウ,0
585,2420001018749,新規,0,2024-06-05,2024-06-05,株式会社Ｂｒワークス,,株式会社,青森県,青森市,本町５丁目４番２１号,,02,201,0300802,,,,,,,2024-06-05,1,,,,,ビーアールワークス,0
587,2420003002932,新規,0,2024-06-05,2024-06-05,合同会社ねぶた茶屋,,合同会社,青森県,青森市,花園２丁目１２番５号,,02,201,0300966,,,,,,,2024-06-05,1,,,,,ネブタヂャヤ,0
591,2430001091951,新規,0,2024-06-05,2024-06-05,株式会社ＣＡＳＥ,,株式会社,北海道,札幌市手稲区,曙六条３丁目５番４号,,01,109,0060836,,,,,,,2024-06-05,1,,,,,ケース,0
594,2430003016411,新規,0,2024-06-05,2024-06-05,合同会社蕎麦鳥,,合同会社,北海道,札幌市中央区,大通西１１丁目４番地,,01,101,0600042,,,,,,,2024-06-05,1,,,,,ソバチョウ,0
596,2440001009449,新規,0,2024-06-05,2024-06-05,株式会社ＴＨＲＥＥ,,株式会社,北海道,函館市,美原２丁目３８番１３号,,01,202,0410806,,,,,,,2024-06-05,1,,,,,スリー,0
605,2480001012498,新規,0,2024-06-05,2024-06-05,株式会社グッドリバー,,株式会社,徳島県,徳島市,佐古三番町１５番２２号,,36,201,7700023,,,,,,,2024-06-05,1,,,,,グッドリバー,0
617,2490003001894,新規,0,2024-06-05,2024-06-05,合同会社キリン館,,合同会社,高知県,高岡郡佐川町,甲１３００番地,,39,402,7891201,,,,,,,2024-06-05,1,,,,,,0
621,2700150125763,新規,0,2024-06-05,2024-06-05,Ｓｈｅｎｚｈｅｎ　Ｒｉｂａｎｇ　Ｔｏｎｇｄａ　Ｉｎｔｅｒｎａｔｉｏｎａｌ　Ｆｒｅｉｇｈｔ　Ｆｏｒｗａｒｄｉｎｇ　Ｃｏ．，Ｌｔｄ,,外国会社等,,,,,,,,Ａ３０２，Ｂｕｉｌｄｉｎｇ　Ａ，Ｘｉｎｇｗｅｉ　Ｌｏｇｉｓｔｉｃｓ　Ｃｅｎｔｅｒ，Ｎｏ．６０４０，Ｂａｏａｎ　Ａｖｅｎｕｅ，Ｘｉｎｇｗｅｉ　Ｃｏｍｍｕｎｉｔｙ，Ｆｕｙｏｎｇ　Ｓｔｒｅｅｔ，Ｂａｏａｎ　Ｄｉｓｔｒｉｃｔ，Ｓｈｅｎｚｈｅｎ，Ｃｈｉｎａ,,,,,,2024-06-05,1,,,,,シエンチエンリーバントンダーインターナシヨナルフレイトフオワーデイングカンパニーリミテツド,0
622,2700150125771,新規,0,2024-06-05,2024-06-05,株式会社アロマティカ,,外国会社等,東京都,荒川区,東日暮里５丁目４９番８－２０１号,,13,118,1160014,大韓民国ソウル特別市江南区江南大路１６２ギル４１－４（新沙洞）,,,,,,2024-06-05,1,,,,,カブシキガイシヤアロマテイカ,0
639,3010005038379,新規,0,2024-06-05,2024-06-05,ショーグン特定目的会社,,その他の設立登記法人,東京都,千代田区,霞が関３丁目２番６号東京倶楽部ビルディング１１階,,13,101,1000013,,,,,,,2024-06-05,1,,,,,ショーグン,0
640,3010105002268,新規,0,2024-06-05,2024-06-05,一般社団法人昼間の塾フレップ,,その他の設立登記法人,東京都,八王子市,元横山町１丁目１０番３号池田ビル２１６号室,,13,201,1920063,,,,,,,2024-06-05,1,,,,,ヒルマノジュクフレップ,0
646,3010401182854,新規,0,2024-06-05,2024-06-05,株式会社ＧＬ,,株式会社,東京都,港区,赤坂９丁目１番２－５０１号,,13,103,1070052,,,,,,,2024-06-05,1,,,,,ジーエル,0
647,3010401182870,新規,0,2024-06-05,2024-06-05,株式会社リベルタス,,株式会社,東京都,港区,南青山３丁目１番３６号青山丸竹ビル６Ｆ,,13,103,1070062,,,,,,,2024-06-05,1,,,,,リベルタス,0
648,3010401182912,新規,0,2024-06-05,2024-06-05,Ｙｕａｎｈｕｔａｉ株式会社,,株式会社,東京都,港区,西新橋３丁目１４番５号エラスムス虎ノ門３階,,13,103,1050003,,,,,,,2024-06-05,1,,,,,ユアンフタイ,0
651,3010403032727,新規,0,2024-06-05,2024-06-05,Ｍｏｔｏｒ　Ｗｏｒｌｄ合同会社,,合同会社,東京都,港区,浜松町２丁目７番１７号イーグル浜松町天翔オフィス浜松町大門５階５１５号室,,13,103,1050013,,,,,,,2024-06-05,1,,,,,モーターワールド,0
657,3010501052387,新規,0,2024-06-05,2024-06-05,株式会社ツージャック,,株式会社,東京都,台東区,台東４丁目１５番３号－４０１,,13,106,1100016,,,,,,,2024-06-05,1,,,,,ツージャック,0
659,3010503007471,新規,0,2024-06-05,2024-06-05,合同会社ＢＫＮ,,合同会社,東京都,台東区,浅草２丁目３番１１号,,13,106,1110032,,,,,,,2024-06-05,1,,,,,ビーケーエヌ,0
674,3010703007206,新規,0,2024-06-05,2024-06-05,合同会社Ａｙａｄｏ,,合同会社,東京都,品川区,西五反田３丁目９－１・９０３,,13,109,1410031,,,,,,,2024-06-05,1,,,,,アヤド,0
676,3010901055403,新規,0,2024-06-05,2024-06-05,株式会社Ａｉｌｅ　Ｊ,,株式会社,東京都,世田谷区,成城９丁目３番９号,,13,112,1570066,,,,,,,2024-06-05,1,,,,,エールジェー,0
677,3010903009092,新規,0,2024-06-05,2024-06-05,合同会社フィールドシティ,,合同会社,東京都,世田谷区,等々力４丁目１８－１２－５０５,,13,112,1580082,,,,,,,2024-06-05,1,,,,,フィールドシティ,0
678,3010903009118,新規,0,2024-06-05,2024-06-05,Ａｍａｔａ合同会社,,合同会社,東京都,世田谷区,深沢２丁目１番４号,,13,112,1580081,,,,,,,2024-06-05,1,,,,,アマタ,0
680,3011001162420,新規,0,2024-06-05,2024-06-05,株式会社ＴＯＲＩＴＥＮ,,株式会社,東京都,渋谷区,神泉町２０－２１ＭＩＤＰＯＩＮＴ渋谷神泉３－０９,,13,113,1500045,,,,,,,2024-06-05,1,,,,,トリテン,0
682,3011003019313,新規,0,2024-06-05,2024-06-05,Ｓｈｉｎｇｏ　Ｔｒａｖｅｌ合同会社,,合同会社,東京都,渋谷区,本町４丁目４３番３号ＯＮＥ’Ｓビル３０１,,13,113,1510071,,,,,,,2024-06-05,1,,,,,シンゴトラベル,0
686,3011101107523,新規,0,2024-06-05,2024-06-05,株式会社ＡＳＩＡ　ＮＥＸＵＳ　ＥＮＴＥＲＴＡＩＮＭＥＮＴ,,株式会社,東京都,新宿区,山吹町３３１－４、７階,,13,104,1620801,,,,,,,2024-06-05,1,,,,,アジアネクサスエンターテインメント,0
687,3011101107548,新規,0,2024-06-05,2024-06-05,株式会社クロスピーク,,株式会社,東京都,新宿区,新宿１丁目２９番７号５階,,13,104,1600022,,,,,,,2024-06-05,1,,,,,クロスピーク,0
688,3011101107572,新規,0,2024-06-05,2024-06-05,株式会社ＡＡ,,株式会社,東京都,新宿区,西新宿３丁目３番１３号西新宿水間ビル２Ｆ,,13,104,1600023,,,,,,,2024-06-05,1,,,,,エーシーズ,0
689,3011101107589,新規,0,2024-06-05,2024-06-05,株式会社東京環境会議,,株式会社,東京都,新宿区,新宿１丁目１２番１２号オスカカテリーナ５階,,13,104,1600022,,,,,,,2024-06-05,1,,,,,トウキョウカンキョウカイギ,0
692,3011201025526,新規,0,2024-06-05,2024-06-05,株式会社キープビジョン,,株式会社,東京都,中野区,白鷺３丁目７番７号ホサカ白鷺荘２０１,,13,114,1650035,,,,,,,2024-06-05,1,,,,,キープビジョン,0
705,3011601027799,新規,0,2024-06-05,2024-06-05,株式会社九十九,,株式会社,東京都,練馬区,西大泉２丁目１０番１７号,,13,120,1780065,,,,,,,2024-06-05,1,,,,,ツクモ,0
710,3012301013940,新規,0,2024-06-05,2024-06-05,株式会社Ｃｈｒｏｍｅ　ＣＲＥＷ,,株式会社,東京都,町田市,矢部町１２番地２０,,13,209,1940214,,,,,,,2024-06-05,1,,,,,クロームクルー,0
716,3012801023225,新規,0,2024-06-05,2024-06-05,株式会社ＳＱＵＡＲＥＡ,,株式会社,東京都,昭島市,朝日町１丁目３番９号,,13,207,1960025,,,,,,,2024-06-05,1,,,,,スクエリア,0
723,3020003026252,新規,0,2024-06-05,2024-06-05,ＪＴＳＡｉｎｎｏｖａｔｉｏｎ合同会社,,合同会社,神奈川県,川崎市中原区,今井仲町３番１８号,,14,133,2110065,,,,,,,2024-06-05,1,,,,,ジェイティエスエーイノベーション,0
724,3020005016441,新規,0,2024-06-05,2024-06-05,一般財団法人タカナシ育英財団,,その他の設立登記法人,神奈川県,横浜市保土ケ谷区,神戸町１３４番地横浜ビジネスパークイーストタワー１３階,,14,106,2400005,,,,,,,2024-06-05,1,,,,,タカナシイクエイザイダン,0
726,3021001082386,新規,0,2024-06-05,2024-06-05,株式会社トーチ,,株式会社,神奈川県,大和市,大和東１丁目４番５号ヴィレッジ大和東３階,,14,213,2420017,,,,,,,2024-06-05,1,,,,,トーチ,0
728,3021003014585,新規,0,2024-06-05,2024-06-05,合同会社結十,,合同会社,神奈川県,相模原市中央区,相生１丁目１３番８号,,14,152,2520235,,,,,,,2024-06-05,1,,,,,ユイジュウ,0
729,3021003014593,新規,0,2024-06-05,2024-06-05,ＡＭＣＡ合同会社,,合同会社,神奈川県,藤沢市,川名９３０番地カデンタ湘南３０２号,,14,205,2510015,,,,,,,2024-06-05,1,,,,,エーエムシーエー,0
735,3030001160548,新規,0,2024-06-05,2024-06-05,ＨＡＰＰＹ　ＨＩＶＥ株式会社,,株式会社,埼玉県,川口市,栄町３丁目１１番１０号,,11,203,3320017,,,,,,,2024-06-05,1,,,,,ハッピーハイブ,0
736,3030001160671,新規,0,2024-06-05,2024-06-05,株式会社関東キハン,,株式会社,埼玉県,日高市,大字原宿８１２番地５,,11,242,3501205,,,,,,,2024-06-05,1,,,,,カントウキハン,0
737,3030001160688,新規,0,2024-06-05,2024-06-05,ＳＷＳ株式会社,,株式会社,埼玉県,蓮田市,大字江ケ崎１２９４番地２,,11,238,3490102,,,,,,,2024-06-05,1,,,,,エスダブリューエス,0
738,3030001160696,新規,0,2024-06-05,2024-06-05,株式会社Ｐｕｒｅ　ＭＹＳ,,株式会社,埼玉県,越谷市,蒲生茜町１９番地８蒲生ビューハイツ４０３,,11,222,3430843,,,,,,,2024-06-05,1,,,,,ピュアマイズ,0
739,3030001160705,新規,0,2024-06-05,2024-06-05,株式会社ＫＩＣ　ＰＲＩＮＴ,,株式会社,埼玉県,川口市,領家３丁目１番１１号,,11,203,3320004,,,,,,,2024-06-05,1,,,,,ケイアイシープリント,0
741,3030003024404,新規,0,2024-06-05,2024-06-05,合同会社Ｋ‐アグリ,,合同会社,埼玉県,さいたま市浦和区,領家５丁目１２－１１プルミエＢ１０１,,11,107,3300072,,,,,,,2024-06-05,1,,,,,ケイアグリ,0
742,3030005021721,新規,0,2024-06-05,2024-06-05,一般社団法人真勇,,その他の設立登記法人,埼玉県,三郷市,戸ケ崎３丁目５２番地１,,11,237,3410044,,,,,,,2024-06-05,1,,,,,シンユウ,0
747,3040001133882,新規,0,2024-06-05,2024-06-05,株式会社縁樹,,株式会社,千葉県,香取市,桐谷３１３番地１,,12,236,2890422,,,,,,,2024-06-05,1,,,,,エンジュ,0
748,3040001133890,新規,0,2024-06-05,2024-06-05,株式会社オノエホールディングス,,株式会社,千葉県,千葉市中央区,千葉寺町５８３番地５ベルデー青葉の森２０１号,,12,101,2600844,,,,,,,2024-06-05,1,,,,,オノエホールディングス,0
749,3040001133899,新規,0,2024-06-05,2024-06-05,株式会社Ｒ・ｌａｎｄ,,株式会社,千葉県,千葉市緑区,大木戸町３９６番地１,,12,105,2670057,,,,,,,2024-06-05,1,,,,,アールランド,0
750,3040001133932,新規,0,2024-06-05,2024-06-05,株式会社ＰＨＵＣ　ＢＡＯ,,株式会社,千葉県,柏市,つくしが丘３丁目６番１５号シャンブルハイツ１０５号,,12,217,2770072,,,,,,,2024-06-05,1,,,,,フックバオ,0
755,3040003025112,新規,0,2024-06-05,2024-06-05,合同会社アップ・スタート,,合同会社,千葉県,四街道市,旭ケ丘４丁目１番１号,,12,228,2840024,,,,,,,2024-06-05,1,,,,,アップスタート,0
756,3040003025129,新規,0,2024-06-05,2024-06-05,三月合同会社,,合同会社,千葉県,市川市,南大野２丁目４－４１－１０５号,,12,203,2720804,,,,,,,2024-06-05,1,,,,,サンガツ,0
757,3040003025137,新規,0,2024-06-05,2024-06-05,ひら乃合同会社,,合同会社,千葉県,船橋市,本中山６丁目５番１号,,12,204,2730035,,,,,,,2024-06-05,1,,,,,ヒラノ,0
759,3040005022413,新規,0,2024-06-05,2024-06-05,一般社団法人ＡＴＨＬＥＴＥ　ＦＯＲＣＥ,,その他の設立登記法人,千葉県,千葉市花見川区,さつきが丘１丁目２６番地１７,,12,102,2620014,,,,,,,2024-06-05,1,,,,,アスリートフォース,0
763,3050001054855,新規,0,2024-06-05,2024-06-05,株式会社ケイジェイウィールド,,株式会社,茨城県,水戸市,河和田町１１９番地の１１,,08,201,3114153,,,,,,,2024-06-05,1,,,,,ケイジェイウィールド,0
764,3050001054863,新規,0,2024-06-05,2024-06-05,リアガーデン株式会社,,株式会社,茨城県,牛久市,猪子町９９５番地２０９猪子町事務所１０２,,08,219,3001231,,,,,,,2024-06-05,1,,,,,リアガーデン,0
775,3070003005441,新規,0,2024-06-05,2024-06-05,Ｄ　Ｄ　Ｉｎｔｅｒｎａｔｉｏｎａｌ合同会社,,合同会社,群馬県,桐生市,菱町１丁目２９５－３,,10,203,3760001,,,,,,,2024-06-05,1,,,,,ディーディーインターナショナル,0
776,3070005010282,新規,0,2024-06-05,2024-06-05,一般社団法人コマンドアール,,その他の設立登記法人,群馬県,前橋市,千代田町２丁目２－１１・２階,,10,201,3710022,,,,,,,2024-06-05,1,,,,,コマンドアール,0
786,3100001037516,新規,0,2024-06-05,2024-06-05,中美精機株式会社,,株式会社,長野県,上田市,中央２丁目２２番２号,,20,203,3860012,,,,,,,2024-06-05,1,,,,,ナカミセイキ,0
787,3100003007590,新規,0,2024-06-05,2024-06-05,Ｂ‐ＳＯＮＥＴ合同会社,,合同会社,長野県,佐久市,岩村田２０２４番地２,,20,217,3850022,,,,,,,2024-06-05,1,,,,,ビィーソネット,0
798,3120001265544,新規,0,2024-06-05,2024-06-05,株式会社アートファインダー,,株式会社,大阪府,大阪市東成区,大今里３丁目１５番７号ＦＯＲＥＳＴＹビル,,27,115,5370012,,,,,,,2024-06-05,1,,,,,アートファインダー,0
799,3120001265552,新規,0,2024-06-05,2024-06-05,株式会社大津,,株式会社,大阪府,大阪市浪速区,恵美須東１丁目２２番２１号,,27,111,5560002,,,,,,,2024-06-05,1,,,,,オオシン,0
800,3120001265560,新規,0,2024-06-05,2024-06-05,嘉濃株式会社,,株式会社,大阪府,大阪市大正区,三軒家西３丁目４番１６号中山ビル１０１Ａ,,27,108,5510001,,,,,,,2024-06-05,1,,,,,カノウ,0
801,3120001265569,新規,0,2024-06-05,2024-06-05,ＮＡＶＩＯ株式会社,,株式会社,大阪府,大阪市北区,梅田１丁目１３番１号大阪梅田ツインタワーズ・サウス１５Ｆ,,27,127,5300001,,,,,,,2024-06-05,1,,,,,ナビオ,0
802,3120001265619,新規,0,2024-06-05,2024-06-05,株式会社トラスマ,,株式会社,大阪府,大阪市北区,梅田１丁目２番２号大阪駅前第２ビル１２－１２,,27,127,5300001,,,,,,,2024-06-05,1,,,,,トラスマ,0
803,3120001265635,新規,0,2024-06-05,2024-06-05,株式会社はっち,,株式会社,大阪府,大阪市平野区,長吉出戸７丁目３番３９号,,27,126,5470011,,,,,,,2024-06-05,1,,,,,ハッチ,0
807,3120003026589,新規,0,2024-06-05,2024-06-05,おがまり合同会社,,合同会社,大阪府,枚方市,東山１丁目４５－６０５,,27,210,5731114,,,,,,,2024-06-05,1,,,,,オガマリ,0
808,3120003026779,新規,0,2024-06-05,2024-06-05,ｈａｃｏ　ｄｅｓｉｇｎ合同会社,,合同会社,大阪府,大阪市北区,豊崎４丁目６番７‐８０２号,,27,127,5310072,,,,,,,2024-06-05,1,,,,,ハコデザイン,0
811,3120103005872,新規,0,2024-06-05,2024-06-05,合同会社オフィスＷＡＤ,,合同会社,大阪府,岸和田市,磯上町２丁目２１番１５号,,27,202,5960001,,,,,,,2024-06-05,1,,,,,オフィスワダ,0
814,3120903005196,新規,0,2024-06-05,2024-06-05,合同会社ＣｈｏＣｏ,,合同会社,大阪府,豊中市,刀根山６丁目９番４８号,,27,203,5600045,,,,,,,2024-06-05,1,,,,,,0
815,3120903005205,新規,0,2024-06-05,2024-06-05,合同会社アイチ,,合同会社,大阪府,豊中市,上野東３丁目５番３９号２Ｆ,,27,203,5600013,,,,,,,2024-06-05,1,,,,,アイチ,0
816,3122001038153,新規,0,2024-06-05,2024-06-05,株式会社ｍａｋ,,株式会社,大阪府,東大阪市,高井田６番６号,,27,227,5770053,,,,,,,2024-06-05,1,,,,,マック,0
830,3140001134648,新規,0,2024-06-05,2024-06-05,株式会社八百太,,株式会社,兵庫県,神戸市垂水区,つつじが丘５丁目９番地の１７,,28,108,6550853,,,,,,,2024-06-05,1,,,,,ヤオタ,0
838,3150005009597,新規,0,2024-06-05,2024-06-05,特定非営利活動法人さとやまから,,その他の設立登記法人,奈良県,御所市,大字西佐味９８４番地,,29,208,6392345,,,,,,,2024-06-05,1,,,,,サトヤマカラ,0
844,3160001025977,新規,0,2024-06-05,2024-06-05,ＢＳＴ株式会社,,株式会社,滋賀県,甲賀市,水口町東名坂１１２－３０２,,25,209,5280036,,,,,,,2024-06-05,1,,,,,ビーエスティー,0
845,3170001018162,新規,0,2024-06-05,2024-06-05,株式会社ＡＩＭＩＬ,,株式会社,和歌山県,和歌山市,美園町５丁目７番８号パーク美園町ビル,,30,201,6408331,,,,,,,2024-06-05,1,,,,,アイミル,0
850,3180001161812,新規,0,2024-06-05,2024-06-05,株式会社安藤薬業,,株式会社,愛知県,江南市,高屋町十六田１００番地２,,23,217,4838064,,,,,,,2024-06-05,1,,,,,アンドウヤクギョウ,0
851,3180001161829,新規,0,2024-06-05,2024-06-05,株式会社エイチフォー,,株式会社,愛知県,名古屋市中川区,澄池町１３番２５号,,23,110,4540806,,,,,,,2024-06-05,1,,,,,エイチフォー,0
853,3180003026880,新規,0,2024-06-05,2024-06-05,合同会社Ｂｅｎａ　Ｕｐ　Ｃｌｅａｎ,,合同会社,愛知県,名古屋市昭和区,安田通３丁目６番地の２９,,23,107,4660857,,,,,,,2024-06-05,1,,,,,ベナアップクリーン,0
858,3190001031386,新規,0,2024-06-05,2024-06-05,株式会社エス・ケー,,株式会社,三重県,松阪市,郷津町２５５番地１２,,24,204,5150002,,,,,,,2024-06-05,1,,,,,エスケー,0
879,3240001063317,新規,0,2024-06-05,2024-06-05,株式会社武武,,株式会社,広島県,安芸郡熊野町,萩原４丁目１４番５８号,,34,307,7314213,,,,,,,2024-06-05,1,,,,,ブブ,0
880,3240001063333,新規,0,2024-06-05,2024-06-05,株式会社Ｎｅｘｔ　ｓｍｉｌｅ,,株式会社,広島県,呉市,東片山町３番９号,,34,202,7370805,,,,,,,2024-06-05,1,,,,,ネクストスマイル,0
883,3260001039133,新規,0,2024-06-05,2024-06-05,株式会社Ｗｉｒｅｎｉｃｓ,,株式会社,岡山県,岡山市南区,福成３丁目２‐１０,,33,104,7028022,,,,,,,2024-06-05,1,,,,,ワイヤニクス,0
884,3260001039141,新規,0,2024-06-05,2024-06-05,株式会社ｋａｉ,,株式会社,岡山県,岡山市北区,牟佐１３６８番地１７,,33,101,7012141,,,,,,,2024-06-05,1,,,,,カイ,0
897,3320001020508,新規,0,2024-06-05,2024-06-05,株式会社Ｍｉｔｓｕｋｉカンパニー,,株式会社,大分県,大分市,三佐２丁目２番１号Ｄ,,44,201,8700108,,,,,,,2024-06-05,1,,,,,,0
899,3330001032114,新規,0,2024-06-05,2024-06-05,株式会社英傑集団,,株式会社,熊本県,阿蘇郡西原村,大字小森３３３５番地,,43,432,8612402,,,,,,,2024-06-05,1,,,,,エイケツシュウダン,0
902,3340001026552,新規,0,2024-06-05,2024-06-05,株式会社Ｎｏｍｏｔｏｂｒａｎｃｈ,,株式会社,鹿児島県,日置市,日吉町日置７８３６番地,,46,216,8993101,,,,,,,2024-06-05,1,,,,,ノモトブランチ,0
907,3340003004498,新規,0,2024-06-05,2024-06-05,合同会社ツチモリ,,合同会社,鹿児島県,薩摩川内市,永利町１３１番地１,,46,215,8950005,,,,,,,2024-06-05,1,,,,,ツチモリ,0
910,3350005006236,新規,0,2024-06-05,2024-06-05,行政書士法人ＹＵＡＳＡ,,その他の設立登記法人,宮崎県,宮崎市,清水１丁目１３番２２号,,45,201,8800021,,,,,,,2024-06-05,1,,,,,ユアサ,0
912,3360001033737,新規,0,2024-06-05,2024-06-05,株式会社大嗣工業,,株式会社,沖縄県,中頭郡中城村,字南上原１０２３番地４第二がくちょうビル４－Ｂ,,47,328,9012424,,,,,,,2024-06-05,1,,,,,ダイシコウギョウ,0
913,3360001033753,新規,0,2024-06-05,2024-06-05,Ｎｅｗ　Ｌｉｆｅ株式会社,,株式会社,沖縄県,名護市,宮里１丁目１０番１４号,,47,209,9050011,,,,,,,2024-06-05,1,,,,,ニューライフ,0
914,3360003014041,新規,0,2024-06-05,2024-06-05,ｍａｋｏ’ｓ　ｒｅｍａｋｅｒ合同会社,,合同会社,沖縄県,うるま市,石川東山２丁目２２番地１３,,47,213,9041102,,,,,,,2024-06-05,1,,,,,マーコーズリメーカー,0
915,3370001051358,新規,0,2024-06-05,2024-06-05,未来技建株式会社,,株式会社,宮城県,仙台市宮城野区,扇町３丁目１０番１２号,,04,102,9830034,,,,,,,2024-06-05,1,,,,,ミライギケン,0
919,3420001018748,新規,0,2024-06-05,2024-06-05,広田電気株式会社,,株式会社,青森県,弘前市,大字鳥井野字長田５１番地８,,02,202,0361333,,,,,,,2024-06-05,1,,,,,ヒロタデンキ,0
921,3420005007904,新規,0,2024-06-05,2024-06-05,堤頭開拓農業協同組合,,その他の設立登記法人,青森県,十和田市,大字滝沢字堤頭７０番地１号,,02,206,0340213,,,,,,,2024-06-05,1,,,,,ツツミガシラカイタク,0
924,3430001091950,新規,0,2024-06-05,2024-06-05,株式会社ＫＣＪ,,株式会社,北海道,札幌市東区,丘珠町８７０－１４,,01,103,0070880,,,,,,,2024-06-05,1,,,,,ケーシージェー,0
927,3430003016402,新規,0,2024-06-05,2024-06-05,ワイムズ合同会社,,合同会社,北海道,札幌市手稲区,前田一条１０丁目３－５１－５０７リッツグランデ手稲駅前,,01,109,0060811,,,,,,,2024-06-05,1,,,,,ワイムズ,0
928,3430003016410,新規,0,2024-06-05,2024-06-05,合同会社ＧＭ,,合同会社,北海道,札幌市中央区,南五条西４丁目９番地１バッカスビル８階,,01,101,0640805,,,,,,,2024-06-05,1,,,,,ジーエム,0
929,3440001009448,新規,0,2024-06-05,2024-06-05,株式会社Ｓｅｉ,,株式会社,北海道,函館市,港町１丁目１８番３９号,,01,202,0410821,,,,,,,2024-06-05,1,,,,,セイ,0
936,3480001012497,新規,0,2024-06-05,2024-06-05,株式会社菜菜倶楽部,,株式会社,徳島県,徳島市,国府町桜間字万ノ内６４番地,,36,201,7793114,,,,,,,2024-06-05,1,,,,,サイサイクラブ,0
948,3490001010789,新規,0,2024-06-05,2024-06-05,住友アセットマネジメント株式会社,,株式会社,高知県,高知市,鷹匠町２丁目２番３２－１３０２号,,39,201,7800862,,,,,,,2024-06-05,1,,,,,スミトモアセットマネジメント,0
951,3490003001893,新規,0,2024-06-05,2024-06-05,合同会社大和,,合同会社,高知県,高岡郡四万十町,十川１２０番地２,,39,412,7860504,,,,,,,2024-06-05,1,,,,,ヤマト,0
953,3700150063723,新規,0,2024-06-05,2015-10-09,都松地区振興協議会,,その他,大分県,臼杵市,野津町大字都原１０１４,,44,206,8750211,,,,,,,2015-10-09,1,,,,,ミヤコマツチクシンコウキヨウギカイ,0
954,3700150125548,新規,0,2024-06-05,2024-06-05,Ｑｉｎｇｄａｏ　Ｇｕｄａｎ　Ｚｈａｎｙａｎｇ　Ｉｎｔｅｒｎａｔｉｏｎａｌ　Ｔｒａｄｅ　Ｃｏ．，Ｌｔｄ,,外国会社等,,,,,,,,Ｈｕａｎｇｄａｏ　Ｄｉｓｔｒｉｃｔ　Ｎｏ．５　Ｔｉｅｓｈａｎ　Ｅａｓｔ　Ｒｏａｄ　ＹｕａｎＪｉａｏｎａｎ　Ｃｉｔｙ　２１０８　ｈｏｕｓｅｈｏｌｄｓ　ｉｎ　ｕｎｉｔ　１　ｂｕｉｌｄｉｎｇ　１　Ｑｉｎｇｄａｏ　Ｓｈａｎｄｏｎｇ　Ｐｒｏｖｉｎｃｅ,,,,,,2024-06-05,1,,,,,チンダオグダンザンヤンインターナショナルトレードカンパニーリミテッド,0
955,3700150125762,新規,0,2024-06-05,2024-06-05,ＳＨＡＮＧＨＡＩ　ＬＥＩＺＨＡＯ　ＩＮＴＥＲＮＡＴＩＯＮＡＬ　ＬＯＧＩＳＴＩＣＳ　ＣＯ．，ＬＴＤ．,,外国会社等,,,,,,,,Ｂｕｉｌｄｉｎｇ　１，Ｌａｎｅ　１３３３，Ｊｉａｎｇｎａｎ　Ａｖｅｎｕｅ，Ｃｈａｎｇｘｉｎｇ　Ｔｏｗｎ，Ｃｈｏｎｇｍｉｎｇ　Ｄｉｓｔｒｉｃｔ，Ｓｈａｎｇｈａｉ，Ｃｈｉｎａ,,,,,,2024-06-05,1,,,,,シヤンハイライザオインターナシヨナルロジステイクスカンパニーリミテツド,0
956,3700150125770,新規,0,2024-06-05,2024-06-05,Ｈｉｎｏ　Ｔｒａｄｉｎｇ　Ｐｒｉｖａｔｅ　Ｌｉｍｉｔｅｄ,,外国会社等,千葉県,富里市,十倉２３５３番地１,,12,233,2860212,スリランカ民主社会主義共和国、アクラナ、テルンブガハワッタ、Ｎｏ．２８７／５,,,,,,2024-06-05,1,,,,,ヒノトレーデイングプライベートリミテツド,0
965,4010001244830,新規,0,2024-06-05,2024-06-05,ＢＥＴＴＥＸ　ＪＡＰＡＮ株式会社,,株式会社,東京都,中央区,日本橋室町１丁目１２－２兼八ビル７階,,13,102,1030022,,,,,,,2024-06-05,1,,,,,ベテックスジャパン,0
966,4010001245432,新規,0,2024-06-05,2024-06-05,ＶＱＰ２０２４株式会社,,株式会社,東京都,千代田区,神田須田町１丁目１４番地ヒューリック神田須田町ビル３Ｆ,,13,101,1010041,,,,,,,2024-06-05,1,,,,,ブイキューピーニセンニジュウヨン,0
967,4010001245457,新規,0,2024-06-05,2024-06-05,株式会社エスプールブリッジ,,株式会社,東京都,千代田区,外神田１丁目１８番１３号,,13,101,1010021,,,,,,,2024-06-05,1,,,,,エスプールブリッジ,0
973,4010401182845,新規,0,2024-06-05,2024-06-05,Ａｓｉａｎ　Ｂｒｉｄｇｅ株式会社,,株式会社,東京都,港区,赤坂１丁目１２番１２号榎坂ビル３階,,13,103,1070052,,,,,,,2024-06-05,1,,,,,アジアンブリッジ,0
974,4010401182911,新規,0,2024-06-05,2024-06-05,ＡＥＭ　ＪＡＰＡＮ株式会社,,株式会社,東京都,港区,港南２丁目１５番１号品川インターシティＡ棟２８階,,13,103,1080075,,,,,,,2024-06-05,1,,,,,エーイーエムジャパン,0
978,4010403032734,新規,0,2024-06-05,2024-06-05,合同会社グローバー,,合同会社,東京都,港区,海岸１丁目１番１号アクティ汐留,,13,103,1050022,,,,,,,2024-06-05,1,,,,,グローバー,0
979,4010403032742,新規,0,2024-06-05,2024-06-05,ＣＨＩＣＫＥＮ　ＳＫＩＮ合同会社,,合同会社,東京都,港区,六本木３丁目２番１号,,13,103,1060032,,,,,,,2024-06-05,1,,,,,チキンスキン,0
987,4010501052378,新規,0,2024-06-05,2024-06-05,株式会社ＳＭＴ,,株式会社,東京都,台東区,松が谷１丁目１４番１０号Ｒｏｏｍ３２８－１０１,,13,106,1110036,,,,,,,2024-06-05,1,,,,,エスエムティー,0
988,4010503007470,新規,0,2024-06-05,2024-06-05,Ｂｒｏｏｋｌｙｎ　Ｔｏｋｙｏ合同会社,,合同会社,東京都,台東区,元浅草１丁目１６番４号,,13,106,1110041,,,,,,,2024-06-05,1,,,,,ブルックリントウキョウ,0
995,4010603010878,新規,0,2024-06-05,2024-06-05,合同会社楽源,,合同会社,東京都,墨田区,京島１丁目４３番２号２－Ａ室,,13,107,1310046,,,,,,,2024-06-05,1,,,,,ラクゲン,0
999,4010901055402,新規,0,2024-06-05,2024-06-05,株式会社ＴｅｃｈＰｒｏｆｉｔ,,株式会社,東京都,世田谷区,三宿２丁目１６番１０－６１９号,,13,112,1540005,,,,,,,2024-06-05,1,,,,,テックプロフィット,0
1007,4011001162428,新規,0,2024-06-05,2024-06-05,大吉会計株式会社,,株式会社,東京都,目黒区,下目黒１丁目１番１４号コノトラビル７Ｆ,,13,110,1530064,,,,,,,2024-06-05,1,,,,,ダイキチカイケイ,0
1008,4011003019312,新規,0,2024-06-05,2024-06-05,ＪＵＣ合同会社,,合同会社,東京都,渋谷区,代官山町４番１－９０６号,,13,113,1500034,,,,,,,2024-06-05,1,,,,,ジェイユーシー,0
1011,4011101107539,新規,0,2024-06-05,2024-06-05,株式会社ＨＯＲＩＺＯＮ　ＧＲＯＵＰ,,株式会社,東京都,新宿区,百人町１丁目２０番２６号バラードハイムムサシノビル８０６号室,,13,104,1690073,,,,,,,2024-06-05,1,,,,,ホライズングループ,0
1012,4011101107547,新規,0,2024-06-05,2024-06-05,株式会社パルヴィン・オート,,株式会社,東京都,新宿区,百人町１丁目１０－４Ｋ－ビル１０１号,,13,104,1690073,,,,,,,2024-06-05,1,,,,,パルヴィンオート,0
1013,4011101107563,新規,0,2024-06-05,2024-06-05,株式会社ＩＶＧジャパン,,株式会社,東京都,新宿区,四谷三栄町６番１７号パークサイド四谷ビル５階,,13,104,1600008,,,,,,,2024-06-05,1,,,,,アイヴイジージャパン,0
1014,4011101107588,新規,0,2024-06-05,2024-06-05,Ｔｒｅａｓｕｒｅ　Ｗｏｒｌｄ株式会社,,株式会社,東京都,新宿区,新宿３丁目３１番５号ペガサス館５階,,13,104,1600022,,,,,,,2024-06-05,1,,,,,トレジャーワールド,0
1015,4011101107596,新規,0,2024-06-05,2024-06-05,株式会社エスホールディングス,,株式会社,東京都,新宿区,西新宿６丁目２２番１号新宿スクエアタワー２６階,,13,104,1600023,,,,,,,2024-06-05,1,,,,,エスホールディングス,0
1025,4011801044321,新規,0,2024-06-05,2024-06-05,ＳＤＲ株式会社,,株式会社,東京都,足立区,保木間３丁目３７番５－２０２号,,13,121,1210064,,,,,,,2024-06-05,1,,,,,エスディーアール,0
1031,4012703003010,新規,0,2024-06-05,2024-06-05,合同会社ＭＯ,,合同会社,東京都,東村山市,萩山町１丁目１７番地６ＧＲＡＮＤＴＩＣ小平１０２,,13,213,1890012,,,,,,,2024-06-05,1,,,,,エムオー,0
1032,4012801023240,新規,0,2024-06-05,2024-06-05,ＴｗｉｎＡｒｔｅ株式会社,,株式会社,東京都,立川市,錦町１丁目４－４サニービル２ＦＣＳ－１８１,,13,202,1900022,,,,,,,2024-06-05,1,,,,,ツインアート,0
1043,4020001157189,新規,0,2024-06-05,2024-06-05,ＦＯＲＥＳＴ　ＦＯＯＴＢＡＬＬ株式会社,,株式会社,神奈川県,川崎市中原区,下小田中６丁目７－１ネイバーズ武蔵中原４３５,,14,133,2110041,,,,,,,2024-06-05,1,,,,,フォレストフットボール,0
1044,4020001157560,新規,0,2024-06-05,2024-06-05,株式会社Ａｄｄ９ＴＨ,,株式会社,神奈川県,横浜市中区,翁町２丁目７番地１２ＧＲＡＮＰＡＳＥＯ４０２,,14,104,2310028,,,,,,,2024-06-05,1,,,,,アドナインス,0
1046,4020003026284,新規,0,2024-06-05,2024-06-05,ビタミンワークス合同会社,,合同会社,神奈川県,川崎市宮前区,宮前平２丁目１９番地１イーストヒルズ宮前Ｄ－１０３,,14,136,2160006,,,,,,,2024-06-05,1,,,,,ビタミンワークス,0
1047,4020003026301,新規,0,2024-06-05,2024-06-05,ＰＡＷシステム合同会社,,合同会社,神奈川県,横浜市南区,新川町１丁目２番地６スタジオデン横濱吉野町ＩＩ８０１号,00135016,14,105,2320027,,,,,,,2024-06-05,1,,,,,パウシステム,0
1050,4021001082410,新規,0,2024-06-05,2024-06-05,株式会社ノブレス,,株式会社,神奈川県,鎌倉市,小町２丁目１０番１２号２階,,14,204,2480006,,,,,,,2024-06-05,1,,,,,ノブレス,0
1052,4021003014592,新規,0,2024-06-05,2024-06-05,ＨＰ＆Ｖパートナー合同会社,,合同会社,神奈川県,大和市,中央林間７丁目１番地１５号ＥＬＰＡＳＯ中央林間１０６号室,,14,213,2420007,,,,,,,2024-06-05,1,,,,,エイチピーアンドブイパートナー,0
1058,4030001160695,新規,0,2024-06-05,2024-06-05,株式会社ボーダレス,,株式会社,埼玉県,さいたま市南区,文蔵３丁目２６番４号,,11,108,3360025,,,,,,,2024-06-05,1,,,,,ボーダレス,0
1059,4030001160737,新規,0,2024-06-05,2024-06-05,株式会社樹興業,,株式会社,埼玉県,川口市,大字安行原２４２８番地の２,,11,203,3340057,,,,,,,2024-06-05,1,,,,,タツキコウギョウ,0
1063,4030005021720,新規,0,2024-06-05,2024-06-05,一般社団法人鳩ヶ谷合同稽古会,,その他の設立登記法人,埼玉県,三郷市,戸ケ崎３丁目５２番地１,,11,237,3410044,,,,,,,2024-06-05,1,,,,,ハトガヤゴウドウケイコカイ,0
1066,4040001133799,新規,0,2024-06-05,2024-06-05,元泊利金属株式会社,,株式会社,千葉県,市原市,松崎６５番地１,,12,219,2900217,,,,,,,2024-06-05,1,,,,,モトトマリキンゾク,0
1067,4040001133881,新規,0,2024-06-05,2024-06-05,宏祥商事株式会社,,株式会社,千葉県,印西市,舞姫１丁目１０番地４,,12,231,2701608,,,,,,,2024-06-05,1,,,,,コウショウショウジ,0
1068,4040001133923,新規,0,2024-06-05,2024-06-05,株式会社夢光,,株式会社,千葉県,東金市,関下３０１番地３,,12,213,2830038,,,,,,,2024-06-05,1,,,,,ムコウ,0
1069,4040001133931,新規,0,2024-06-05,2024-06-05,株式会社Ｗｅ　ｃａｎ　Ｊａｐａｎ,,株式会社,千葉県,八街市,八街い８３番地２４,,12,230,2891143,,,,,,,2024-06-05,1,,,,,ウィーキャンジャパン,0
1074,4040003025136,新規,0,2024-06-05,2024-06-05,ミルベーラ合同会社,,合同会社,千葉県,柏市,明原２丁目３番１７号上田ビル１階,,12,217,2770843,,,,,,,2024-06-05,1,,,,,ミルベーラ,0
1080,4060001037172,新規,0,2024-06-05,2024-06-05,株式会社ガスワン北関東,,株式会社,栃木県,宇都宮市,宮の内４丁目１８９番地,,09,201,3210131,,,,,,,2024-06-05,1,,,,,ガスワンキタカントウ,0
1081,4060001037180,新規,0,2024-06-05,2024-06-05,株式会社Ｐａｍｏｊａ　ｎａ　Ａｆｒｉｃａ,,株式会社,栃木県,佐野市,浅沼町４番地６,,09,204,3270831,,,,,,,2024-06-05,1,,,,,パモジャナアフリカ,0
1085,4060003005103,新規,0,2024-06-05,2024-06-05,合同会社Ｍｏｒｎｉｎｇ　ｃａｌｌ,,合同会社,栃木県,鹿沼市,貝島町５０２８番地２５,,09,205,3220027,,,,,,,2024-06-05,1,,,,,モーニングコール,0
1088,4080001026330,新規,0,2024-06-05,2024-06-05,株式会社ウノハウス,,株式会社,静岡県,静岡市清水区,八木間町１５５番地の１,,22,103,4240212,,,,,,,2024-06-05,1,,,,,,0
1089,4080101024779,新規,0,2024-06-05,2024-06-05,株式会社Ｓｏｒｒｉｓｏ,,株式会社,静岡県,富士宮市,小泉１４９６番地の３,,22,207,4180022,,,,,,,2024-06-05,1,,,,,ソリーゾ,0
1091,4080401027226,新規,0,2024-06-05,2024-06-05,株式会社松井設備,,株式会社,静岡県,浜松市中央区,豊岡町１５番地の６,,22,138,4338103,,,,,,,2024-06-05,1,,,,,マツイセツビ,0
1095,4100005013181,新規,0,2024-06-05,2024-06-05,一優事業協同組合,,その他の設立登記法人,長野県,伊那市,山寺３１８９番地５,,20,209,3960023,,,,,,,2024-06-05,1,,,,,イチユウ,0
1096,4110003005411,新規,0,2024-06-05,2024-06-05,合同会社レクサス,,合同会社,新潟県,新潟市西区,坂井東６丁目６番１９号,,15,107,9502041,,,,,,,2024-06-05,1,,,,,レクサス,0
1114,4120001265337,新規,0,2024-06-05,2024-06-05,パンダスポーツ株式会社,,株式会社,大阪府,大阪市西成区,玉出中２丁目１１－３４－２０２号室,,27,122,5570044,,,,,,,2024-06-05,1,,,,,パンダスポーツ,0
1115,4120001265551,新規,0,2024-06-05,2024-06-05,ＫＥＮＫＥＮ株式会社,,株式会社,大阪府,大阪市天王寺区,大道１丁目１３番１８号１０３,,27,109,5430052,,,,,,,2024-06-05,1,,,,,ケンケン,0
1116,4120001265576,新規,0,2024-06-05,2024-06-05,サムティホールディングス株式会社,,株式会社,大阪府,大阪市淀川区,西宮原１丁目８番３９号,,27,123,5320004,,,,,,,2024-06-05,1,,,,,サムティホールディングス,0
1117,4120001265584,新規,0,2024-06-05,2024-06-05,佐藤商事株式会社,,株式会社,大阪府,大阪市平野区,加美北２丁目３番５号,,27,126,5470001,,,,,,,2024-06-05,1,,,,,サトウショウジ,0
1118,4120001265618,新規,0,2024-06-05,2024-06-05,株式会社Ｏｒｄｅｒ　Ｎｅｓｔ,,株式会社,大阪府,大阪市此花区,島屋６丁目２番９５－８０３号,,27,104,5540024,,,,,,,2024-06-05,1,,,,,オーダーネスト,0
1123,4120005024359,新規,0,2024-06-05,2024-06-05,グロリア税理士法人,,その他の設立登記法人,大阪府,大阪市中央区,東高麗橋４番３号ＴＫＧ．ＢＬＤ,,27,128,5400039,,,,,,,2024-06-05,1,,,,,グロリア,0
1125,4120101069695,新規,0,2024-06-05,2024-06-05,株式会社タカラ,,株式会社,大阪府,泉佐野市,日根野３４８２番地の２２,,27,213,5980021,,,,,,,2024-06-05,1,,,,,タカラ,0
1127,4120903005204,新規,0,2024-06-05,2024-06-05,合同会社Ｎ３,,合同会社,大阪府,吹田市,長野東６番４－２０５号,,27,205,5650816,,,,,,,2024-06-05,1,,,,,エヌスリー,0
1129,4122001038152,新規,0,2024-06-05,2024-06-05,株式会社ＮＩＮＥ,,株式会社,大阪府,大東市,赤井１丁目４番１号京阪百貨店すみのどう店２Ｆ,,27,218,5740046,,,,,,,2024-06-05,1,,,,,ナイン,0
1136,4130001077178,新規,0,2024-06-05,2024-06-05,銀河株式会社,,株式会社,京都府,京都市北区,上賀茂畔勝町８番地,,26,101,6038044,,,,,,,2024-06-05,1,,,,,ギンガ,0
1146,4140001134663,新規,0,2024-06-05,2024-06-05,別所工業株式会社,,株式会社,兵庫県,加古川市,上荘町都台１丁目２２番地の５,,28,210,6751215,,,,,,,2024-06-05,1,,,,,ベッショコウギョウ,0
1151,4140003020671,新規,0,2024-06-05,2024-06-05,合同会社Ｒｅｐｅａｔ　ｐｌｕｓ,,合同会社,兵庫県,川西市,清和台東１丁目３番地の９０,,28,217,6660142,,,,,,,2024-06-05,1,,,,,リピートプラス,0
1154,4150001027321,新規,0,2024-06-05,2024-06-05,スカイメタル株式会社,,株式会社,奈良県,大和郡山市,小泉町１６１番地１,,29,203,6391042,,,,,,,2024-06-05,1,,,,,スカイメタル,0
1155,4150003003254,新規,0,2024-06-05,2024-06-05,Ｓ’ＭＯＭＯ合同会社,,合同会社,奈良県,香芝市,上中４２４番地１０,,29,210,6390265,,,,,,,2024-06-05,1,,,,,スモモ,0
1156,4160001025976,新規,0,2024-06-05,2024-06-05,株式会社ひまわり不動産,,株式会社,滋賀県,近江八幡市,古川町１４１４番地５８,,25,204,5230056,,,,,,,2024-06-05,1,,,,,ヒマワリフドウサン,0
1164,4180001161811,新規,0,2024-06-05,2024-06-05,株式会社ＰＲＥＡＩ,,株式会社,愛知県,名古屋市千種区,東山通２丁目４番地１,,23,101,4640807,,,,,,,2024-06-05,1,,,,,プレアイ,0
1165,4180003026888,新規,0,2024-06-05,2024-06-05,合同会社ｈｕｓｅ,,合同会社,愛知県,あま市,甚目寺流８８ニューエステートＢ２０２,,23,237,4901111,,,,,,,2024-06-05,1,,,,,ヒューズ,0
1170,4180301038684,新規,0,2024-06-05,2024-06-05,ワン・エイト株式会社,,株式会社,愛知県,岡崎市,福岡町字東通長１２番地４,,23,202,4440825,,,,,,,2024-06-05,1,,,,,ワンエイト,0
1171,4180301038692,新規,0,2024-06-05,2024-06-05,カトー技研興業株式会社,,株式会社,愛知県,刈谷市,野田町新田４１番地１,,23,210,4480803,,,,,,,2024-06-05,1,,,,,カトーギケンコウギョウ,0
1184,4230003002223,新規,0,2024-06-05,2024-06-05,合同会社水野商会,,合同会社,富山県,高岡市,二塚１０６１番地,,16,202,9330816,,,,,,,2024-06-05,1,,,,,ミズノショウカイ,0
1200,4260001039140,新規,0,2024-06-05,2024-06-05,株式会社Ｔ’ｓ,,株式会社,岡山県,倉敷市,連島町鶴新田１５４９番地７,,33,202,7128006,,,,,,,2024-06-05,1,,,,,ティーズ,0
1203,4290001105996,新規,0,2024-06-05,2024-06-05,株式会社旭ハウス,,株式会社,福岡県,福岡市博多区,東比恵１丁目３番１１－４０５号,,40,132,8120007,,,,,,,2024-06-05,1,,,,,アサヒハウス,0
1204,4290001106037,新規,0,2024-06-05,2024-06-05,Ｏ‐ｔｅｃｈ株式会社,,株式会社,福岡県,福岡市東区,香椎駅東４丁目３５番４０号,,40,131,8130012,,,,,,,2024-06-05,1,,,,,オーテック,0
1207,4290003015384,新規,0,2024-06-05,2024-06-05,合同会社ＫＯＰＥＣＴ,,合同会社,福岡県,宗像市,日の里８丁目２３番地１７,,40,220,8113425,,,,,,,2024-06-05,1,,,,,コペクト,0
1208,4290003015392,新規,0,2024-06-05,2024-06-05,合同会社ＳＫＫ,,合同会社,福岡県,福岡市博多区,西月隈１丁目１３番２８－５０３号シティライフ板付５０３号,,40,132,8120857,,,,,,,2024-06-05,1,,,,,エスケーケー,0
1209,4290801030626,新規,0,2024-06-05,2024-06-05,株式会社Ｉ　ＳＭＩＬＥ,,株式会社,福岡県,北九州市小倉北区,黒原１丁目１番１３号,,40,106,8020051,,,,,,,2024-06-05,1,,,,,アイスマイル,0
1211,4320001020507,新規,0,2024-06-05,2024-06-05,株式会社あんどう美装,,株式会社,大分県,大分市,大字横尾１８１０番地の３０,,44,201,8700126,,,,,,,2024-06-05,1,,,,,アンドウビソウ,0
1213,4330001032138,新規,0,2024-06-05,2024-06-05,株式会社ｒｅｗａｋｅ,,株式会社,熊本県,熊本市西区,谷尾崎町５２７番地,,43,103,8600044,,,,,,,2024-06-05,1,,,,,リウエイク,0
1214,4330003010406,新規,0,2024-06-05,2024-06-05,合同会社上林,,合同会社,熊本県,菊池市,泗水町豊水４２８６番地２,,43,210,8611212,,,,,,,2024-06-05,1,,,,,カンバヤシ,0
1215,4340001026551,新規,0,2024-06-05,2024-06-05,株式会社ａｒｉｅｓ,,株式会社,鹿児島県,薩摩川内市,中郷４丁目１４８番地ベリエビル,,46,215,8950072,,,,,,,2024-06-05,1,,,,,アリエス,0
1225,4370001051365,新規,0,2024-06-05,2024-06-05,株式会社マサノ設備,,株式会社,宮城県,仙台市宮城野区,新田５丁目１２番１４号,,04,102,9830038,,,,,,,2024-06-05,1,,,,,マサノセツビ,0
1231,4390001017629,新規,0,2024-06-05,2024-06-05,株式会社ＰＲＩＤＥ,,株式会社,山形県,新庄市,大字泉田字下村西１９番地の５６,,06,205,9995103,,,,,,,2024-06-05,1,,,,,プライド,0
1235,4420001018747,新規,0,2024-06-05,2024-06-05,株式会社Ｒｉｓｅ不動産,,株式会社,青森県,青森市,大字浜田字玉川１４２番地１１,,02,201,0300843,,,,,,,2024-06-05,1,,,,,ライズフドウサン,0
1245,4430001091933,新規,0,2024-06-05,2024-06-05,いきてる株式会社,,株式会社,北海道,札幌市清田区,平岡二条５丁目８番６号,,01,110,0040872,,,,,,,2024-06-05,1,,,,,イキテル,0
1247,4430003016384,新規,0,2024-06-05,2024-06-05,合同会社飛龍,,合同会社,北海道,札幌市東区,北三十五条東８丁目２番１７－３０６号,,01,103,0070835,,,,,,,2024-06-05,1,,,,,ヒリュウ,0
1251,4460301005227,新規,0,2024-06-05,2024-06-05,株式会社慶州園,,株式会社,北海道,紋別郡遠軽町,大通北６丁目４番地３４,,01,555,0990404,,,,,,,2024-06-05,1,,,,,ケイシュウエン,0
1252,4480001012496,新規,0,2024-06-05,2024-06-05,神山産業株式会社,,株式会社,徳島県,名西郡神山町,神領字北１５５番地１,,36,342,7713311,,,,,,,2024-06-05,1,,,,,カミヤマサンギョウ,0
1263,4700150122131,新規,0,2024-06-05,2024-06-05,Ｓｈｅｎｚｈｅｎｓｈｉ　Ｆｕｌｉｍｅｉ　Ｋｅｊｉ　Ｙｏｕｘｉａｎ　Ｇｏｎｇｓｉ,,外国会社等,,,,,,,,Ｄｏｎｇｆｕｗｅｉｘｉｊｉｅ　２７－２９　Ｈａｏ　Ｗｕｌｏｕ（Ｂａｎｇｏｎｇ　ｃｈａｎｇｓｕｏ）Ｓｈｅｎｚｈｅｎｓｈｉ　Ｂａｏａｎｑｕ　Ｆｕｙｏｎｇｊｉｅｄａｏ　Ｇｕａｎｇｄｏｎｇ　Ｓｈｅｎｇ,,,,,,2024-06-05,1,,,,,シェンジェンシフゥリメイコァジヨウシエンゴンス,0
1264,4700150125547,新規,0,2024-06-05,2024-06-05,ＳＨＥＮＺＨＥＮＳＨＩＭＡＪＩＡＭＡＯＹＩＹＯＵＸＩＡＮＧＯＮＧＳＩ,,外国会社等,,,,,,,,６１６　ｄｏｎｇ　５０７，ｂａｇｕａｌｉｎｇ　ｇｏｎｇｙｅｑｕ，ｙｕａｎｌｉｎｇｊｉｅｄａｏ，ｐｅｎｇｓｈｅｎｇｓｈｅｑｕ，ｂａｇｕａｅｒｌｕ，ｆｕｔｉａｎｑｕ　ＳＨＥＮＺＨＥＮ,,,,,,2024-06-05,1,,,,,シンセンシマジアマオイユウゲンコウシ,0
1265,4700150125761,新規,0,2024-06-05,2024-06-05,ＳＫＹＷＯＲＫ　ＡＩ　ＰＴＥ．ＬＴＤ．,,外国会社等,,,,,,,,２　ＳＣＩＥＮＣＥ　ＰＡＲＫ　ＤＲＩＶＥ　＃０１－０８　ＡＳＣＥＮＴ　ＳＩＮＧＡＰＯＲＥ（１１８２２２）,,,,,,2024-06-05,1,,,,,スカイワークエーアイピーテイーイーリミテツド,0
1271,5010001245349,新規,0,2024-06-05,2024-06-05,金徠商事株式会社,,株式会社,東京都,中央区,日本橋蛎殻町１丁目１９番１－２０２号,,13,102,1030014,,,,,,,2024-06-05,1,,,,,キンライショウジ,0
1272,5010001245415,新規,0,2024-06-05,2024-06-05,ＤｒｅａｍＴｅｃｈ株式会社,,株式会社,東京都,千代田区,岩本町３丁目１１－８ハローオフィス秋葉原（岩本町）２２４号,,13,101,1010032,,,,,,,2024-06-05,1,,,,,ドリームテック,0
1273,5010001245431,新規,0,2024-06-05,2024-06-05,Ｉｎｔｅｒｓｔｅｌｌａ株式会社,,株式会社,東京都,中央区,銀座１丁目１２番４号Ｎ＆Ｅ．ＢＬＤ．６Ｆ,,13,102,1040061,,,,,,,2024-06-05,1,,,,,インターステラ,0
1274,5010001245489,新規,0,2024-06-05,2024-06-05,株式会社ＭＳＣ,,株式会社,東京都,千代田区,神田和泉町１番地６の１６ヤマトビル４０５,,13,101,1010024,,,,,,,2024-06-05,1,,,,,エムエスシー,0
1275,5010003043940,新規,0,2024-06-05,2024-06-05,えびンモ合同会社,,合同会社,東京都,中央区,日本橋室町１丁目１１番１２号日本橋水野ビル７階,,13,102,1030022,,,,,,,2024-06-05,1,,,,,エビンモ,0
1276,5010003043949,新規,0,2024-06-05,2024-06-05,合同会社いまぷら,,合同会社,東京都,千代田区,九段南１丁目５番６号りそな九段ビル５ＦＫＳフロア,,13,101,1020074,,,,,,,2024-06-05,1,,,,,イマプラ,0
1279,5010005038360,新規,0,2024-06-05,2024-06-05,ニセコ・Ｉ４４特定目的会社,,その他の設立登記法人,東京都,千代田区,霞が関３丁目２番５号,,13,101,1000013,,,,,,,2024-06-05,1,,,,,ニセコアイヨンヨン,0
1283,5010401182852,新規,0,2024-06-05,2024-06-05,株式会社Ｍｅｒａｃｈｉ．,,株式会社,東京都,港区,西麻布１丁目４番２３号アルゴ西麻布１階Ｂ号,,13,103,1060031,,,,,,,2024-06-05,1,,,,,メラキ,0
1284,5010401182885,新規,0,2024-06-05,2024-06-05,クラフトインキュベーター株式会社,,株式会社,東京都,港区,芝大門１丁目５番１２号,,13,103,1050012,,,,,,,2024-06-05,1,,,,,クラフトインキュベーター,0
1285,5010401182902,新規,0,2024-06-05,2024-06-05,株式会社Ｃｅｌｅｂｒａｔｉｏｎ,,株式会社,東京都,港区,南青山３丁目１番３６号青山丸竹ビル６Ｆ,,13,103,1070062,,,,,,,2024-06-05,1,,,,,セレブレーション,0
1286,5010403032741,新規,0,2024-06-05,2024-06-05,ＴＨＵＮＴ合同会社,,合同会社,東京都,港区,六本木３丁目２番１号,,13,103,1060032,,,,,,,2024-06-05,1,,,,,ティーハント,0
1290,5010405023284,新規,0,2024-06-05,2024-06-05,一般社団法人日本終活センター,,その他の設立登記法人,東京都,港区,赤坂４丁目１番２号シントミ赤坂一ツ木ビル６階,,13,103,1070052,,,,,,,2024-06-05,1,,,,,ニホンシュウカツセンター,0
1291,5010601065320,新規,0,2024-06-05,2024-06-05,株式会社Ｆｒｅｑｕｅｎｃｙ,,株式会社,東京都,江東区,亀戸４丁目１５番５－４０２号,,13,108,1360071,,,,,,,2024-06-05,1,,,,,フリークエンシー,0
1292,5010801035115,新規,0,2024-06-05,2024-06-05,株式会社Ｌａｕｇｈ,,株式会社,東京都,大田区,池上７丁目２３番３－３０２号,,13,111,1460082,,,,,,,2024-06-05,1,,,,,ラフ,0
1294,5010903009116,新規,0,2024-06-05,2024-06-05,ＫＢＪＣ合同会社,,合同会社,東京都,世田谷区,三宿２丁目３３－１１,,13,112,1540005,,,,,,,2024-06-05,1,,,,,ケービージェーシー,0
1295,5011001162427,新規,0,2024-06-05,2024-06-05,株式会社Ｅｎｒｉｃｈ　Ｐａｒｔｎｅｒｓ,,株式会社,東京都,渋谷区,道玄坂１丁目１０－８渋谷道玄坂東急ビル２Ｆ－Ｃ,,13,113,1500043,,,,,,,2024-06-05,1,,,,,エンリッチパートナーズ,0
1298,5011101107546,新規,0,2024-06-05,2024-06-05,株式会社Ｐｅａｋ　Ｗａｙ,,株式会社,東京都,新宿区,西新宿４丁目１７番３号ベルパークシティ西新宿２１６,,13,104,1600023,,,,,,,2024-06-05,1,,,,,ピークウェイ,0
1299,5011103014492,新規,0,2024-06-05,2024-06-05,ステラプラス合同会社,,合同会社,東京都,新宿区,西新宿７丁目２２番４４号コマツビル２階,,13,104,1600023,,,,,,,2024-06-05,1,,,,,ステラプラス,0
1300,5011103014501,新規,0,2024-06-05,2024-06-05,合同会社ｍａｒｂｌｅｐａｒｅｔｔｏ,,合同会社,東京都,新宿区,西新宿３丁目３番１３号西新宿水間ビル６階,,13,104,1600023,,,,,,,2024-06-05,1,,,,,マーブルパレット,0
1305,5011201025516,新規,0,2024-06-05,2024-06-05,株式会社ｄｅｓｅｒｔ　ｒｅａｓｏｎ,,株式会社,東京都,中野区,南台２丁目１番７号,,13,114,1640014,,,,,,,2024-06-05,1,,,,,デザートリーズン,0
1308,5011401026157,新規,0,2024-06-05,2024-06-05,ＴＳＢｅｅｅ株式会社,,株式会社,東京都,板橋区,仲宿３６－２,,13,119,1730005,,,,,,,2024-06-05,1,,,,,ティーエスビー,0
1314,5011501030694,新規,0,2024-06-05,2024-06-05,Ｍｉｒａｉ商社株式会社,,株式会社,東京都,荒川区,東日暮里５丁目４８番３－３０５号,,13,118,1160014,,,,,,,2024-06-05,1,,,,,ミライショウシャ,0
1316,5011601027797,新規,0,2024-06-05,2024-06-05,株式会社セリーシャ,,株式会社,東京都,練馬区,石神井町７丁目１７番１２号,,13,120,1770041,,,,,,,2024-06-05,1,,,,,セリーシャ,0
1319,5012301013939,新規,0,2024-06-05,2024-06-05,株式会社エスＴｅｌｌａ,,株式会社,東京都,町田市,金井２丁目２１番地７,,13,209,1950072,,,,,,,2024-06-05,1,,,,,エステラ,0
1321,5012401041939,新規,0,2024-06-05,2024-06-05,株式会社Ｎ＆Ｃｏ．,,株式会社,東京都,武蔵野市,吉祥寺本町１丁目３１番１３号アサカビル４階,,13,203,1800004,,,,,,,2024-06-05,1,,,,,エヌアンドコー,0
1329,5020001156891,新規,0,2024-06-05,2024-06-05,株式会社卍の坂,,株式会社,神奈川県,川崎市高津区,坂戸３丁目１４‐４‐１０１,,14,134,2130012,,,,,,,2024-06-05,1,,,,,マンジノサカ,0
1330,5020001157584,新規,0,2024-06-05,2024-06-05,ＬＯＮＧＥＶＩＴＥ株式会社,,株式会社,神奈川県,横浜市港北区,新横浜３丁目２４番５号,,14,109,2220033,,,,,,,2024-06-05,1,,,,,ロンジェビテ,0
1334,5020003026275,新規,0,2024-06-05,2024-06-05,ＫＴＣ合同会社,,合同会社,神奈川県,横浜市中区,鷺山４番地７,,14,104,2310848,,,,,,,2024-06-05,1,,,,,ケーティーシー,0
1340,5030001160694,新規,0,2024-06-05,2024-06-05,株式会社轍わだち,,株式会社,埼玉県,新座市,野火止４丁目１番２３号ビル２階,,11,230,3520011,,,,,,,2024-06-05,1,,,,,ワダチワダチ,0
1341,5030001160711,新規,0,2024-06-05,2024-06-05,株式会社グッティ,,株式会社,埼玉県,越谷市,相模町５丁目６６番地３,,11,222,3430823,,,,,,,2024-06-05,1,,,,,グッティ,0
1342,5030001160736,新規,0,2024-06-05,2024-06-05,テックグループホールディングス株式会社,,株式会社,埼玉県,入間郡三芳町,大字上富１９７番地２,,11,324,3540045,,,,,,,2024-06-05,1,,,,,テックグループホールディングス,0
1343,5030001160760,新規,0,2024-06-05,2024-06-05,株式会社Ａｎｙｔｈｉｎｇ　Ｒｅｆｏｒｍ,,株式会社,埼玉県,新座市,野火止１丁目７番５４号,,11,230,3520011,,,,,,,2024-06-05,1,,,,,エニシングリフォーム,0
1346,5030003024419,新規,0,2024-06-05,2024-06-05,合同会社ＳＥＳ,,合同会社,埼玉県,狭山市,富士見１丁目１３番地１８号１０１号室,,11,215,3501306,,,,,,,2024-06-05,1,,,,,エスイーエス,0
1350,5040001133781,新規,0,2024-06-05,2024-06-05,株式会社あずま動物病院,,株式会社,千葉県,大網白里市,駒込１３８７番地３,,12,239,2993235,,,,,,,2024-06-05,1,,,,,アズマドウブツビョウイン,0
1351,5040001133930,新規,0,2024-06-05,2024-06-05,東昇株式会社,,株式会社,千葉県,市原市,姉崎６４２番地４,,12,219,2990111,,,,,,,2024-06-05,1,,,,,トウショウ,0
1355,5040003025110,新規,0,2024-06-05,2024-06-05,合同会社真和,,合同会社,千葉県,松戸市,古ケ崎３丁目３３４６番地の３－１０２,,12,207,2710068,,,,,,,2024-06-05,1,,,,,シンワ,0
1356,5040003025119,新規,0,2024-06-05,2024-06-05,合同会社アシスト,,合同会社,千葉県,柏市,東中新宿１丁目１７番６－３号,,12,217,2770061,,,,,,,2024-06-05,1,,,,,アシスト,0
1365,5070001041800,新規,0,2024-06-05,2024-06-05,株式会社Ｍｉｓｈｅｌｌ　Ｑｕｅｓｔ,,株式会社,群馬県,前橋市,広瀬町１丁目１２番地３０,,10,201,3710812,,,,,,,2024-06-05,1,,,,,ミシェルクエスト,0
1366,5070005010280,新規,0,2024-06-05,2024-06-05,ＮＰＯ法人ＦＨＩバス写真保存会,,その他の設立登記法人,群馬県,桐生市,浜松町１丁目１２番１６号,,10,203,3760007,,,,,,,2024-06-05,1,,,,,エフエッチアイバスシャシンホゾンカイ,0
1367,5080101024786,新規,0,2024-06-05,2024-06-05,株式会社アサマ林産,,株式会社,静岡県,富士宮市,外神１３９５番地の１２４,,22,207,4180006,,,,,,,2024-06-05,1,,,,,アサマリンサン,0
1373,5100003007589,新規,0,2024-06-05,2024-06-05,楽しい合同会社,,合同会社,長野県,飯山市,大字飯山１１４９２番地３３１,,20,213,3892253,,,,,,,2024-06-05,1,,,,,タノシイ,0
1394,5120001265526,新規,0,2024-06-05,2024-06-05,株式会社リミックストレーディング,,株式会社,大阪府,大阪市天王寺区,空堀町１３番２４号ＲＥＭＸビル,,27,109,5430012,,,,,,,2024-06-05,1,,,,,リミックストレーディング,0
1395,5120001265550,新規,0,2024-06-05,2024-06-05,株式会社浪速通信,,株式会社,大阪府,大阪市城東区,永田２丁目７番２８号,,27,118,5360022,,,,,,,2024-06-05,1,,,,,ナニワツウシン,0
1396,5120001265559,新規,0,2024-06-05,2024-06-05,株式会社ＫＴＣ,,株式会社,大阪府,大阪市城東区,関目５丁目１９番９号関目花博公館５１４Ｂ,,27,118,5360008,,,,,,,2024-06-05,1,,,,,ケーティーシー,0
1397,5120001265583,新規,0,2024-06-05,2024-06-05,株式会社ハセガワ,,株式会社,大阪府,寝屋川市,高宮あさひ丘１７番１５号,,27,215,5720867,,,,,,,2024-06-05,1,,,,,ハセガワ,0
1398,5120001265600,新規,0,2024-06-05,2024-06-05,株式会社東博,,株式会社,大阪府,大阪市北区,同心１丁目２番６－７０４号,,27,127,5300035,,,,,,,2024-06-05,1,,,,,トウハク,0
1399,5120001265617,新規,0,2024-06-05,2024-06-05,力登株式会社,,株式会社,大阪府,大阪市浪速区,敷津西１丁目９番１７－１０５号,,27,111,5560015,,,,,,,2024-06-05,1,,,,,リキト,0
1400,5120001265625,新規,0,2024-06-05,2024-06-05,徳馨株式会社,,株式会社,大阪府,大阪市城東区,東中浜９丁目８番２６号１０６室,,27,118,5360023,,,,,,,2024-06-05,1,,,,,トクシン,0
1403,5120003026744,新規,0,2024-06-05,2024-06-05,倉八商事合同会社,,合同会社,大阪府,大阪市東住吉区,桑津３丁目２番２１号,,27,121,5460041,,,,,,,2024-06-05,1,,,,,クラハチショウジ,0
1407,5120101069711,新規,0,2024-06-05,2024-06-05,ユタカ電機株式会社,,株式会社,大阪府,泉大津市,森町１丁目１３番１６号,,27,206,5950005,,,,,,,2024-06-05,1,,,,,ユタカデンキ,0
1417,5130001077210,新規,0,2024-06-05,2024-06-05,株式会社Ｒｅ　Ｓａｋｕｒａ,,株式会社,京都府,亀岡市,篠町篠上北裏８７番地５,,26,206,6210826,,,,,,,2024-06-05,1,,,,,リサクラ,0
1420,5130003009616,新規,0,2024-06-05,2024-06-05,合同会社珍閑雅,,合同会社,京都府,京都市右京区,西院久保田町１６番地１西院グリーンハイツ１０１,,26,108,6150053,,,,,,,2024-06-05,1,,,,,チンカンガ,0
1429,5140001134638,新規,0,2024-06-05,2024-06-05,ＦＩＲＭＯ株式会社,,株式会社,兵庫県,西宮市,名次町５番１３－１号,,28,204,6620024,,,,,,,2024-06-05,1,,,,,ファーモ,0
1430,5140001134646,新規,0,2024-06-05,2024-06-05,きつね森株式会社,,株式会社,兵庫県,神戸市西区,竹の台２丁目１２番地の２２,,28,111,6512274,,,,,,,2024-06-05,1,,,,,キツネモリ,0
1431,5140001134654,新規,0,2024-06-05,2024-06-05,白川建設株式会社,,株式会社,兵庫県,明石市,西明石西町２丁目１２番１６号,,28,203,6730049,,,,,,,2024-06-05,1,,,,,シラカワケンセツ,0
1432,5140001134662,新規,0,2024-06-05,2024-06-05,株式会社うえの,,株式会社,兵庫県,姫路市,山田町北山田５９６番地１,,28,201,6792112,,,,,,,2024-06-05,1,,,,,ウエノ,0
1436,5140003020670,新規,0,2024-06-05,2024-06-05,合同会社Ａｌｓｔｒｏｍｅｒｉａ,,合同会社,兵庫県,神戸市中央区,生田町１丁目２番２３号新神戸サンクレバー７Ｂ,,28,110,6510092,,,,,,,2024-06-05,1,,,,,アルストロメリア,0
1437,5140005027103,新規,0,2024-06-05,2024-06-05,特定非営利活動法人すべての人のウェルビーイングのためのＫＩＺＵＫＩ,,その他の設立登記法人,兵庫県,西宮市,市庭町６－６、２階,,28,204,6620975,,,,,,,2024-06-05,1,,,,,スベテノヒトノウェルビーイングノタメノキズキ,0
1449,5180001161769,新規,0,2024-06-05,2024-06-05,株式会社勝又ＨＳＬ,,株式会社,愛知県,一宮市,栄１丁目１１番２１号,,23,203,4910858,,,,,,,2024-06-05,1,,,,,カツマタエイチエスエル,0
1450,5180001161827,新規,0,2024-06-05,2024-06-05,ＫＢプラン株式会社,,株式会社,愛知県,名古屋市北区,喜惣治１丁目１７６番地の１喜惣治レジデンス１０２号,,23,103,4620065,,,,,,,2024-06-05,1,,,,,ケービープラン,0
1460,5200001042561,新規,0,2024-06-05,2024-06-05,株式会社エムズ,,株式会社,岐阜県,瑞穂市,馬場前畑町３丁目１３２番地２,,21,216,5010202,,,,,,,2024-06-05,1,,,,,エムズ,0
1473,5240003006701,新規,0,2024-06-05,2024-06-05,合同会社永井工業,,合同会社,広島県,広島市安佐北区,亀山西１丁目１４番２８号,,34,106,7310233,,,,,,,2024-06-05,1,,,,,ナガイコウギョウ,0
1487,5290003015350,新規,0,2024-06-05,2024-06-05,合同会社彫夢,,合同会社,福岡県,福岡市南区,鶴田２丁目２７番地１６号,,40,134,8111352,,,,,,,2024-06-05,1,,,,,ホルム,0
1495,5290801030625,新規,0,2024-06-05,2024-06-05,株式会社ビジョン,,株式会社,福岡県,北九州市小倉北区,紺屋町８番１号アルシオンブルービル１００１号,,40,106,8020081,,,,,,,2024-06-05,1,,,,,ビジョン,0
1501,5320001020506,新規,0,2024-06-05,2024-06-05,株式会社森友会計,,株式会社,大分県,大分市,高崎３丁目１番１５号高崎ビル２Ｆ,,44,201,8700872,,,,,,,2024-06-05,1,,,,,モリトモカイケイ,0
1502,5320003004382,新規,0,2024-06-05,2024-06-05,合同会社幸磨工業,,合同会社,大分県,竹田市,荻町馬場４３２番地１,,44,208,8796115,,,,,,,2024-06-05,1,,,,,コウマコウギョウ,0
1503,5330001032137,新規,0,2024-06-05,2024-06-05,ゼブラアグリ株式会社,,株式会社,熊本県,熊本市中央区,出水７丁目５番１５号,,43,101,8620941,,,,,,,2024-06-05,1,,,,,ゼブラアグリ,0
1517,5380001034582,新規,0,2024-06-05,2024-06-05,ＨＩＤＡＹＡＴ　ＵＬＬＡＨ　ＴＲＡＤＩＮＧ株式会社,,株式会社,福島県,二本松市,板目沢４２番地Ｃ棟１号室,,07,210,9640015,,,,,,,2024-06-05,1,,,,,ヒダヤットウラートレーディング,0
1523,5390001017628,新規,0,2024-06-05,2024-06-05,株式会社啓愛舎,,株式会社,山形県,東村山郡中山町,大字金沢１２０番地,,06,302,9900405,,,,,,,2024-06-05,1,,,,,ケイアイシャ,0
1529,5430001091932,新規,0,2024-06-05,2024-06-05,株式会社Ｒｙｕ・Ｊｉｎ,,株式会社,北海道,札幌市厚別区,上野幌三条６丁目１番１８号,,01,108,0040033,,,,,,,2024-06-05,1,,,,,リュウジン,0
1530,5430001091940,新規,0,2024-06-05,2024-06-05,株式会社ＷＡＬＤ１１,,株式会社,北海道,札幌市中央区,北二条東３丁目２－２マルタビル札幌８階株式会社大東バリューイノベーション内,,01,101,0600032,,,,,,,2024-06-05,1,,,,,ヴァルトイレブン,0
1535,5430003016409,新規,0,2024-06-05,2024-06-05,アゴー企画合同会社,,合同会社,北海道,札幌市厚別区,厚別東二条１丁目３番３５－３０８号,,01,108,0040002,,,,,,,2024-06-05,1,,,,,アゴーキカク,0
1536,5430003016417,新規,0,2024-06-05,2024-06-05,琉神合同会社,,合同会社,北海道,石狩郡当別町,六軒町７２番地６９,,01,303,0610231,,,,,,,2024-06-05,1,,,,,リュウシン,0
1537,5430005014996,新規,0,2024-06-05,2024-06-05,一般社団法人ＥＳＧサポート,,その他の設立登記法人,北海道,札幌市中央区,大通東２丁目８－５プレジデント札幌ビル,,01,101,0600041,,,,,,,2024-06-05,1,,,,,イーエスジーサポート,0
1541,5480001012495,新規,0,2024-06-05,2024-06-05,北橋エナジー株式会社,,株式会社,徳島県,徳島市,昭和町２丁目３２番地の１－３０２号室,,36,201,7700942,,,,,,,2024-06-05,1,,,,,キタハシエナジー,0
1550,5490003001891,新規,0,2024-06-05,2024-06-05,ＬＡＮＧ　ＳＯＮ合同会社,,合同会社,高知県,南国市,元町１丁目１番２０号,,39,204,7830014,,,,,,,2024-06-05,1,,,,,ランソン,0
1552,5500001025676,新規,0,2024-06-05,2024-06-05,株式会社高橋石油店,00135030,株式会社,愛媛県,四国中央市,土居町小林１０４４番地１,,38,213,7990702,,,,,,,2024-06-05,1,,,,,タカハシセキユテン,0
1554,5700150125546,新規,0,2024-06-05,2024-06-05,Ｓｈｅｎｚｈｅｎｓｈｉ　Ｇｅｌｉｎｘｉｎｇｘｉａｎｓｈｉ　Ｔｅｃｈｎｏｌｏｇｙ　Ｃｏ．，Ｌｔｄ,,外国会社等,,,,,,,,Ｂｕｉｌｄｉｎｇ　１４，Ｎｏ．３５　Ｄａｆｕ　Ｒｏａｄ，Ｚｈａｎｇｇｅ　Ｃｏｍｍｕｎｉｔｙ，Ｆｕｃｈｅｎｇ　Ｓｔｒｅｅｔ，Ｌｏｎｇｈｕａ　Ｄｉｓｔｒｉｃｔ，Ｓｈｅｎｚｈｅｎ　Ｃｉｔｙ,,,,,,2024-06-05,1,,,,,シンセンシゲリンシンセンシテクノロジーカンパニーリミテッド,0
1555,5700150125760,新規,0,2024-06-05,2024-06-05,Ｓｈｅｎｚｈｅｎ　Ｎｅｗ　Ｃｈａｎｎｅｌ　Ｓｕｐｐｌｙ　Ｃｈａｉｎ　Ｃｏ．，Ｌｔｄ,,外国会社等,,,,,,,,Ｂ３－６，Ｂｕｉｌｄｉｎｇ　Ｂ３，Ｔｗｅｌｖｅ　Ｏａｋｓ　Ｍａｎｏｒ，Ｗｕｈｅ　Ｃｏｍｍｕｎｉｔｙ，Ｂａｎｔｉａｎ　Ｓｔｒｅｅｔ，ＬｏｎｇｇａｎｇＤｉｓｔｒｉｃｔ，Ｓｈｅｎｚｈｅｎ，Ｃｈｉｎａ,,,,,,2024-06-05,1,,,,,シエンチエンニユーチヤンネルサプライチエーンカンパニーリミテツド,0
1556,5700150125769,新規,0,2024-06-05,2024-06-05,Ｆｏｓｈａｎ　Ａｎｇｅｓｉｙａ　Ｔｅｃｈｎｏｌｏｇｙ　Ｃｏ．，Ｌｔｄ,,外国会社等,,,,,,,,Ｈｏｎｇｘｉｎｇ　Ｎｏｒｔｈ　Ｒｏａｄ　５０２　Ｑｉｌｉｘｉａｎｇ　Ｍａｋｅｒ　Ｃｅｎｔｅｒ　Ｓｈｉｓｈａｎ　Ｔｏｗｎ，Ｎａｎｈａｉ　Ｄｉｓｔｒｉｃｔ　Ｆｏｓｈａｎ　Ｃｉｔｙ，Ｇｕａｎｇｄｏｎｇ　Ｐｒｏｖｉｎｃｅ　５２８２２５　ＣＮ,,,,,,2024-06-05,1,,,,,フォーシャンシアンゴォスーヤーカージヨウシェンゴンスー,0
1557,5700150125777,新規,0,2024-06-05,2024-06-05,Ｔａｉｚｈｏｕ　Ｃｉｔｙ　Ｆｅｉｈｕ　Ｅｌｅｃｔｒｏｎｉｃ　Ｃｏｍｍｅｒｃｅ　Ｌｉｍｉｔｅｄ,,外国会社等,,,,,,,,５７　Ｂｌｏｃｋ　１，Ｘｉｘｉａｙｕｙｕａｎ　Ｔａｉｚｈｏｕ　Ｌｕｑｉａｏ　Ｚｈｅｊｉａｎｇ　３１８０５０　ＣＮ,,,,,,2024-06-05,1,,,,,タイジョウシーフェイフーディエンズーシャンウーヨウシエンゴンスー,0
1566,6010001245488,新規,0,2024-06-05,2024-06-05,創建プラン株式会社,,株式会社,東京都,文京区,本駒込６丁目１５番８号,,13,105,1130021,,,,,,,2024-06-05,1,,,,,ソウケンプラン,0
1567,6010001245496,新規,0,2024-06-05,2024-06-05,日中経済文化創造株式会社,,株式会社,東京都,文京区,小日向４丁目４番６－２０１号,,13,105,1120006,,,,,,,2024-06-05,1,,,,,ニッチュウケイザイブンカソウゾウ,0
1569,6010101016178,新規,0,2024-06-05,2024-06-05,株式会社ｉｔｏｋｏｕ,,株式会社,東京都,八王子市,下柚木３丁目１０５７番地２２,,13,201,1920372,,,,,,,2024-06-05,1,,,,,イトコウ,0
1575,6010401182843,新規,0,2024-06-05,2024-06-05,株式会社ＪＤＥＮＴＡＬ　ＣＡＲＥ　ＪＡＰＡＮ,,株式会社,東京都,港区,六本木７丁目７番７号Ｔｒｉ－ＳｅｖｅｎＲｏｐｐｏｎｇｉ８階,,13,103,1060032,,,,,,,2024-06-05,1,,,,,ジェイデンタルケアジャパン,0
1576,6010401182851,新規,0,2024-06-05,2024-06-05,株式会社Ｍｉｌｃａ,,株式会社,東京都,港区,北青山１丁目３番１号,,13,103,1070061,,,,,,,2024-06-05,1,,,,,ミルカ,0
1577,6010401182918,新規,0,2024-06-05,2024-06-05,アイスリーマーケティング株式会社,,株式会社,東京都,港区,南青山２丁目２番１５号ウィン青山９４２,,13,103,1070062,,,,,,,2024-06-05,1,,,,,アイスリーマーケティング,0
1579,6010403032740,新規,0,2024-06-05,2024-06-05,ＳＶＦ　Ｓｅｒｖｉｃｅ合同会社,,合同会社,東京都,港区,六本木３丁目２番１号,,13,103,1060032,,,,,,,2024-06-05,1,,,,,エスブイエフサービス,0
1580,6010403032749,新規,0,2024-06-05,2024-06-05,青山合同会社,,合同会社,東京都,港区,南青山２丁目１４番１９号,,13,103,1070062,,,,,,,2024-06-05,1,,,,,アオヤマ,0
1585,6010405023283,新規,0,2024-06-05,2024-06-05,Ｓｈｅｅｐｄｏｇ　Ｔｈｅａｔｒｅ一般社団法人,,その他の設立登記法人,東京都,港区,六本木６丁目２番３１号六本木ヒルズノースタワー１７Ｆ,,13,103,1060032,,,,,,,2024-06-05,1,,,,,シープドグシアター,0
1594,6010803004975,新規,0,2024-06-05,2024-06-05,ピアノ調律塾合同会社,,合同会社,東京都,大田区,仲六郷４丁目３３番８号,,13,111,1440055,,,,,,,2024-06-05,1,,,,,ピアノチョウリツジュク,0
1596,6010903009115,新規,0,2024-06-05,2024-06-05,合同会社ＴＡＣ,,合同会社,東京都,世田谷区,奥沢５丁目２８番１号フィーノ自由が丘４０８号,,13,112,1580083,,,,,,,2024-06-05,1,,,,,ティーエーシー,0
1601,6011001162426,新規,0,2024-06-05,2024-06-05,株式会社ストーンリンク,,株式会社,東京都,目黒区,目黒１丁目４番８号ニュー目黒ビル４Ｆ,,13,110,1530063,,,,,,,2024-06-05,1,,,,,ストーンリンク,0
1602,6011001162533,新規,0,2024-06-05,2024-06-05,Ｆｕｅｌ株式会社,,株式会社,東京都,渋谷区,渋谷２丁目１９―１５宮益坂ビルディング６０９,,13,113,1500002,,,,,,,2024-06-05,1,,,,,フュール,0
1606,6011101107537,新規,0,2024-06-05,2024-06-05,株式会社日本ＡＩ経営研究所,,株式会社,東京都,新宿区,西新宿３丁目３番１３号西新宿水間ビル６階,,13,104,1600023,,,,,,,2024-06-05,1,,,,,ニホンエーアイケイエイケンキュウジョ,0
1607,6011101107553,新規,0,2024-06-05,2024-06-05,株式会社Ｂｒｉｌｌａｎｔｅ,,株式会社,東京都,新宿区,高田馬場１丁目１６－３０ＫＩＫビル５０２,,13,104,1690075,,,,,,,2024-06-05,1,,,,,ブリランテ,0
1617,6011501030768,新規,0,2024-06-05,2024-06-05,株式会社ＥＨ,,株式会社,東京都,北区,赤羽北２丁目１４番８号ＡＶＩＡＲＡ－２０２号,,13,117,1150052,,,,,,,2024-06-05,1,,,,,イエイチ,0
1618,6011601027796,新規,0,2024-06-05,2024-06-05,株式会社ペンローズ,,株式会社,東京都,練馬区,石神井町７丁目１７番１２号,,13,120,1770041,,,,,,,2024-06-05,1,,,,,ペンローズ,0
1619,6011601027805,新規,0,2024-06-05,2024-06-05,ハナブサ地所株式会社,,株式会社,東京都,練馬区,北町８丁目１２－１６ボヌール・マ・メゾンＢ１－Ｅ号室,,13,120,1790081,,,,,,,2024-06-05,1,,,,,ハナブサジショ,0
1620,6011603004356,新規,0,2024-06-05,2024-06-05,合同会社ロイヤル・デザイン,,合同会社,東京都,練馬区,石神井台２丁目２２番８号,,13,120,1770045,,,,,,,2024-06-05,1,,,,,ロイヤルデザイン,0
1622,6012401041938,新規,0,2024-06-05,2024-06-05,株式会社ふよう,,株式会社,東京都,府中市,府中町２丁目１３番地の３,,13,206,1830055,,,,,,,2024-06-05,1,,,,,フヨウ,0
1624,6012801023230,新規,0,2024-06-05,2024-06-05,株式会社シューズフォレスト,,株式会社,東京都,国分寺市,本町４丁目１２番１号,,13,214,1850012,,,,,,,2024-06-05,1,,,,,シューズフォレスト,0
1635,6020001157575,新規,0,2024-06-05,2024-06-05,株式会社ｍａｏ,,株式会社,神奈川県,横浜市港北区,大倉山４丁目１番１１号,,14,109,2220037,,,,,,,2024-06-05,1,,,,,マオ,0
1643,6020003026266,新規,0,2024-06-05,2024-06-05,合同会社ＳＭＬｘ,,合同会社,神奈川県,横浜市保土ケ谷区,川辺町３－１－Ｂ－７０９,,14,106,2400001,,,,,,,2024-06-05,1,,,,,エスエムエルエックス,0
1650,6021003014590,新規,0,2024-06-05,2024-06-05,合同会社アールジェイ,,合同会社,神奈川県,鎌倉市,山崎１１１４番地１７,,14,204,2470066,,,,,,,2024-06-05,1,,,,,アールジェイ,0
1658,6030001160693,新規,0,2024-06-05,2024-06-05,東京雲鵬株式会社,,株式会社,埼玉県,川口市,本町４丁目１２番１３‐４０５号,,11,203,3320012,,,,,,,2024-06-05,1,,,,,トウキョウウンホウ,0
1659,6030001160710,新規,0,2024-06-05,2024-06-05,株式会社Ｎｅｘｔ企画,,株式会社,埼玉県,さいたま市大宮区,桜木町１丁目１９５番地大宮ソラマチＫＯＺ,,11,103,3300854,,,,,,,2024-06-05,1,,,,,ネクストキカク,0
1678,6040001133839,新規,0,2024-06-05,2024-06-05,株式会社ＪＳＲ,,株式会社,千葉県,成田市,並木町２１９番地２５２（ロザージュＤ）,,12,211,2860045,,,,,,,2024-06-05,1,,,,,ジェーエスアール,0
1682,6040003025118,新規,0,2024-06-05,2024-06-05,合同会社ＷＣＴウィズ,,合同会社,千葉県,八千代市,緑が丘西１丁目８番地２１,,12,221,2760040,,,,,,,2024-06-05,1,,,,,ワクトウィズ,0
1683,6040003025126,新規,0,2024-06-05,2024-06-05,Ｕ　ＯＦＦグループ合同会社,,合同会社,千葉県,我孫子市,中峠１２２７番地の４,,12,222,2701121,,,,,,,2024-06-05,1,,,,,ユーオフグループ,0
1685,6050001054869,新規,0,2024-06-05,2024-06-05,株式会社あかつき,,株式会社,茨城県,猿島郡境町,１５９９番地,,08,546,3060433,,,,,,,2024-06-05,1,,,,,アカツキ,0
1700,6080003003219,新規,0,2024-06-05,2024-06-05,合同会社アイテック,,合同会社,静岡県,焼津市,小川新町２丁目６番１７,,22,212,4250031,,,,,,,2024-06-05,1,,,,,,0
1706,6100001037546,新規,0,2024-06-05,2024-06-05,株式会社ＴｈｅＲｉｃｈ,,株式会社,長野県,北佐久郡軽井沢町,大字長倉４４０４番地３,,20,321,3890111,,,,,,,2024-06-05,1,,,,,ザリッチ,0
1708,6110001038469,新規,0,2024-06-05,2024-06-05,株式会社ＬＵＣＫＤＩＲＥＣＴＩＯＮＳＥＲＶＩＣＥ,,株式会社,新潟県,長岡市,四郎丸２丁目３―８,,15,202,9400046,,,,,,,2024-06-05,1,,,,,ラックディレクションサービス,0
1722,6120001265509,新規,0,2024-06-05,2024-06-05,株式会社ラウレアエステート,,株式会社,大阪府,大阪市阿倍野区,北畠１丁目１１番４－４０５号,,27,119,5450035,,,,,,,2024-06-05,1,,,,,ラウレアエステート,0
1723,6120001265517,新規,0,2024-06-05,2024-06-05,株式会社ムンド,,株式会社,大阪府,大阪市中央区,南船場４丁目１０番５号南船場ＳＯＨＯビル７０２,,27,128,5420081,,,,,,,2024-06-05,1,,,,,ムンド,0
1724,6120001265558,新規,0,2024-06-05,2024-06-05,株式会社ＹＬ,,株式会社,大阪府,大阪市中央区,松屋町９番２０号ローレルステート松屋町６０９Ａ,,27,128,5420067,,,,,,,2024-06-05,1,,,,,ワイエル,0
1725,6120001265616,新規,0,2024-06-05,2024-06-05,ＰＴＳ株式会社,,株式会社,大阪府,大阪市西区,南堀江４丁目２３番８－７０１号,,27,106,5500015,,,,,,,2024-06-05,1,,,,,ピーティーエス,0
1726,6120001265640,新規,0,2024-06-05,2024-06-05,株式会社ＮＮＮ,,株式会社,大阪府,大阪市港区,八幡屋１丁目６番１０号,,27,107,5520014,,,,,,,2024-06-05,1,,,,,エヌエヌエヌ,0
1734,6120101069693,新規,0,2024-06-05,2024-06-05,株式会社ＴＯＭＢＯＷ,,株式会社,大阪府,堺市南区,茶山台３丁２６番１号,,27,145,5900115,,,,,,,2024-06-05,1,,,,,トンボ,0
1737,6120901049267,新規,0,2024-06-05,2024-06-05,株式会社ＢＣＣ,,株式会社,大阪府,吹田市,千里丘中２１番６号,,27,205,5650812,,,,,,,2024-06-05,1,,,,,ビーシーシー,0
1738,6120901049275,新規,0,2024-06-05,2024-06-05,株式会社日本Ｍ＆Ａ綜研,,株式会社,大阪府,茨木市,彩都やまぶき４丁目１０番５号,,27,211,5670086,,,,,,,2024-06-05,1,,,,,ニホンエムアンドエーソウケン,0
1740,6120903005202,新規,0,2024-06-05,2024-06-05,ＱＸＣ合同会社,,合同会社,大阪府,茨木市,彩都やまぶき２丁目２番Ａ－２０５号,,27,211,5670086,,,,,,,2024-06-05,1,,,,,キュエクスシー,0
1742,6130001077176,新規,0,2024-06-05,2024-06-05,Ｔｕｋｕｓｉ株式会社,,株式会社,京都府,京都市下京区,玉津島町２９４,,26,106,6008427,,,,,,,2024-06-05,1,,,,,ツクシ,0
1743,6130001077201,新規,0,2024-06-05,2024-06-05,ナモライズ株式会社,,株式会社,京都府,京都市左京区,浄土寺下南田町７８,,26,103,6068404,,,,,,,2024-06-05,1,,,,,ナモライズ,0
1750,6140001134620,新規,0,2024-06-05,2024-06-05,株式会社マツモト林業,,株式会社,兵庫県,姫路市,余部区上余部７３８番地１１,,28,201,6711262,,,,,,,2024-06-05,1,,,,,マツモトリンギョウ,0
1751,6140001134645,新規,0,2024-06-05,2024-06-05,株式会社ＳＪメンテナンス,,株式会社,兵庫県,神戸市中央区,港島中町３丁目１番地ポートアイランド住宅４５号棟１２０８号室,,28,110,6500046,,,,,,,2024-06-05,1,,,,,エスジェイメンテナンス,0
1752,6140001134653,新規,0,2024-06-05,2024-06-05,株式会社ａｉ,,株式会社,兵庫県,姫路市,北今宿３丁目１７番３－５号,,28,201,6700057,,,,,,,2024-06-05,1,,,,,アイ,0
1753,6140001134661,新規,0,2024-06-05,2024-06-05,宮本不動産鑑定株式会社,,株式会社,兵庫県,尼崎市,立花町１丁目２８番４号グレストハイツ１０２,,28,202,6610025,,,,,,,2024-06-05,1,,,,,ミヤモトフドウサンカンテイ,0
1754,6140001134678,新規,0,2024-06-05,2024-06-05,株式会社ＦＡＭＳ,,株式会社,兵庫県,神戸市北区,藤原台北町５丁目３番８－７０１号,,28,109,6511301,,,,,,,2024-06-05,1,,,,,ファムス,0
1756,6140003020661,新規,0,2024-06-05,2024-06-05,合同会社氷上オリコミセンター,,合同会社,兵庫県,丹波市,氷上町稲継２３０番地１,,28,223,6693466,,,,,,,2024-06-05,1,,,,,ヒカミオリコミセンター,0
1758,6150001027328,新規,0,2024-06-05,2024-06-05,ハートトラスト株式会社,,株式会社,奈良県,生駒郡三郷町,勢野北５丁目８番１２号,,29,343,6360815,,,,,,,2024-06-05,1,,,,,ハートトラスト,0
1760,6160001025974,新規,0,2024-06-05,2024-06-05,株式会社ｅｎ,,株式会社,滋賀県,草津市,南草津プリムタウン３丁目１４－７,,25,206,5250068,,,,,,,2024-06-05,1,,,,,エン,0
1769,6190003004701,新規,0,2024-06-05,2024-06-05,ＦＩＲＳＴ合同会社,,合同会社,三重県,四日市市,諏訪栄町１１番５号堀田ビル２階,,24,202,5100086,,,,,,,2024-06-05,1,,,,,ファースト,0
1791,6240001063314,新規,0,2024-06-05,2024-06-05,株式会社ミヤモト建機整備,,株式会社,広島県,三次市,糸井町３８番地７,,34,209,7296212,,,,,,,2024-06-05,1,,,,,ミヤモトケンキセイビ,0
1793,6240003006709,新規,0,2024-06-05,2024-06-05,合同会社一心,,合同会社,広島県,広島市西区,横川町２丁目８－２０桜レジデンス横川７０３,,34,104,7330011,,,,,,,2024-06-05,1,,,,,イッシン,0
1800,6290001040705,新規,0,2024-06-05,2024-06-05,株式会社サン住宅,,株式会社,福岡県,大野城市,仲畑４丁目２２番１８号,,40,219,8160921,,,,,,,2024-06-05,1,,,,,,0
1803,6290001106010,新規,0,2024-06-05,2024-06-05,ウルトラ天神株式会社,,株式会社,福岡県,福岡市中央区,渡辺通５丁目２－１０渡辺通プレイス３０１,,40,133,8100004,,,,,,,2024-06-05,1,,,,,ウルトラテンジン,0
1807,6290801030624,新規,0,2024-06-05,2024-06-05,株式会社信工業,,株式会社,福岡県,中間市,東中間２丁目１２番１号,,40,215,8090019,,,,,,,2024-06-05,1,,,,,シンコウギョウ,0
1808,6300001013758,新規,0,2024-06-05,2024-06-05,株式会社ほり江,,株式会社,佐賀県,唐津市,北波多田中８００番地１９,,41,202,8471202,,,,,,,2024-06-05,1,,,,,ホリエ,0
1809,6300003002131,新規,0,2024-06-05,2024-06-05,Ｇｌｏｂａｌｂｙｔｅ合同会社,,合同会社,佐賀県,唐津市,鏡新開８番地１,,41,202,8470028,,,,,,,2024-06-05,1,,,,,グローバルバイト,0
1812,6320001020505,新規,0,2024-06-05,2024-06-05,株式会社ＤＥＦＩ,,株式会社,大分県,佐伯市,弥生大字井崎５番地２０,,44,205,8760111,,,,,,,2024-06-05,1,,,,,デフィ,0
1813,6320001020513,新規,0,2024-06-05,2024-06-05,ホーヨ株式会社,,株式会社,大分県,大分市,末広町２丁目１０番４号,,44,201,8700027,,,,,,,2024-06-05,1,,,,,,0
1819,6360001033759,新規,0,2024-06-05,2024-06-05,株式会社逆襲,,株式会社,沖縄県,浦添市,仲西１丁目２番５－８０５号ネクステージＣａｍｅｌｌｉａＩＩ,00135017,47,208,9012125,,,,,,,2024-06-05,1,,,,,ギャクシュウ,0
1822,6360005007049,新規,0,2024-06-05,2024-06-05,グスクード社会保険労務士法人,,その他の設立登記法人,沖縄県,那覇市,字天久７６２－１４クリアスビル３Ｆ,,47,201,9000005,,,,,,,2024-06-05,1,,,,,グスクード,0
1828,6370001051355,新規,0,2024-06-05,2024-06-05,株式会社仁和電工,,株式会社,宮城県,石巻市,大宮町５番２０－４号,,04,202,9862132,,,,,,,2024-06-05,1,,,,,ニワデンコウ,0
1829,6370001051363,新規,0,2024-06-05,2024-06-05,株式会社高橋組,00135019,株式会社,宮城県,仙台市若林区,蒲町３５番１０号,,04,103,9840037,,,,,,,2024-06-05,1,,,,,タカハシグミ,0
1830,6370001051371,新規,0,2024-06-05,2024-06-05,カミーナジャパン株式会社,,株式会社,宮城県,遠田郡美里町,駅東３丁目２番地４,,04,505,9870038,,,,,,,2024-06-05,1,,,,,カミーナジャパン,0
1834,6390001017627,新規,0,2024-06-05,2024-06-05,株式会社プラスワークス山形,,株式会社,山形県,山形市,北町１丁目５番１２号３Ｆ,,06,201,9900821,,,,,,,2024-06-05,1,,,,,プラスワークスヤマガタ,0
1838,6410001013846,新規,0,2024-06-05,2024-06-05,あきたみらい共生電力株式会社,,株式会社,秋田県,秋田市,寺内字イサノ３５番地,,05,201,0110901,,,,,,,2024-06-05,1,,,,,アキタミライキョウセイデンリョク,0
1840,6420001018745,新規,0,2024-06-05,2024-06-05,リハインクルージョン株式会社,,株式会社,青森県,十和田市,大字三本木字並木西１６４番地１８,,02,206,0340001,,,,,,,2024-06-05,1,,,,,リハインクルージョン,0
1844,6430001091948,新規,0,2024-06-05,2024-06-05,株式会社ビカラ,,株式会社,北海道,札幌市手稲区,稲穂三条３丁目８番３号,,01,109,0060033,,,,,,,2024-06-05,1,,,,,ビカラ,0
1847,6440003001598,新規,0,2024-06-05,2024-06-05,合同会社美来,,合同会社,北海道,久遠郡せたな町,瀬棚区東大里１８８番地３１,,01,371,0494826,,,,,,,2024-06-05,1,,,,,ミライ,0
1849,6470001020242,新規,0,2024-06-05,2024-06-05,株式会社ＫＲコーポレーション,,株式会社,香川県,丸亀市,飯山町東小川１９７５番地１８,,37,202,7620085,,,,,,,2024-06-05,1,,,,,ケーアールコーポレーション,0
1858,6700150125545,新規,0,2024-06-05,2024-06-05,ＺｈａｎｇＺｈｏｕＢｕＬｉｎｇＢｕＬｉｎｇＤｉａｎＺｉＹｏｕＸｉａｎＧｏｎｇＳｉ,,外国会社等,,,,,,,,Ｒｏｏｍ　２１０５，Ｕｎｉｔ　２，Ｂｕｉｌｄｉｎｇ　３，Ｚｏｎｅ　Ｂ，Ｊｉｎｘｉｕ　Ｂｉｈｕ，Ｎｏ．２１　Ｊｉａｎｙｕａｎ　Ｅａｓｔ　Ｒｏａｄ，Ｌｏｎｇｗｅｎ　Ｄｉｓｔｒｉｃｔ，Ｚｈａｎｇｚｈｏｕ　Ｃｉｔｙ，Ｆｕｊｉａｎ　Ｐｒｏｖｉｎｃｅ,,,,,,2024-06-05,1,,,,,ザンゾウブリンブリンデンシユウゲンコウシ,0
1859,6700150125743,新規,0,2024-06-05,2024-06-04,パティーナ住吉Ｄｕｏ管理組合,,その他,東京都,江東区,海辺２２－３,,13,108,1350012,,,,,,,2024-06-04,1,,,,,パテイーナスミヨシデユオカンリクミアイ,0
1860,6700150125768,新規,0,2024-06-05,2024-06-05,深セン涛銘電器有限公司,,外国会社等,,,,,,,,中国深セン市龍崗区横崗街道六約北社区深峰路１５号３６５,,,,,,2024-06-05,1,,,,,シンセントウメイデンキユウゲンコウシ,0
1861,6700150125776,新規,0,2024-06-05,2024-06-05,ｘｉｎｙｕｓｈｉｊｉｙｏｕｄｉａｎｚｉｓｈａｎｇｗｕｙｏｕｘｉａｎｇｏｎｇｓｉ,,外国会社等,,,,,,,,８　＃　１－６０２，Ｗｅｓｔ　Ｓｉｄｅ　ｏｆ　Ｚｈａｎｑｉａｎ　Ｒｏａｄ，Ｆｅｎｙｉ　Ｃｏｕｎｔｙ，Ｘｉｎｙｕ　Ｃｉｔｙ，Ｊｉａｎｇｘｉ　Ｐｒｏｖｉｎｃｅ（Ｎｏ．１　Ｊｉｎｈｕａ　Ｐａｒｋ）,,,,,,2024-06-05,1,,,,,シンユイシージーヨウディエンズーシャーンウーヨウシエンゴーンスー,0
1865,7010001245405,新規,0,2024-06-05,2024-06-05,ＭｉＰａｒｔｎｅｒｓ株式会社,,株式会社,東京都,中央区,日本橋小舟町３－１クレイドル日本橋１００２,,13,102,1030024,,,,,,,2024-06-05,1,,,,,マイパートナーズ,0
1866,7010001245487,新規,0,2024-06-05,2024-06-05,Ｏｎｅ’ｓ　ＳｔｒｉＤｅ株式会社,,株式会社,東京都,中央区,銀座１丁目１２番４号Ｎ＆ＥＢＬＤ．６Ｆ,,13,102,1040061,,,,,,,2024-06-05,1,,,,,ワンズストライド,0
1867,7010001245495,新規,0,2024-06-05,2024-06-05,ｐｅｅｍ株式会社,,株式会社,東京都,中央区,日本橋２丁目１番３号アーバンネット日本橋二丁目ビル１０階,,13,102,1030027,,,,,,,2024-06-05,1,,,,,ピーム,0
1870,7010005038367,新規,0,2024-06-05,2024-06-05,シンカ社会保険労務士法人,,その他の設立登記法人,東京都,中央区,銀座７丁目８番８号ｉｓｇＢＵＩＬＤＩＮＧ８階,,13,102,1040061,,,,,,,2024-06-05,1,,,,,シンカ,0
1871,7010005038383,新規,0,2024-06-05,2024-06-05,えりも風力一般社団法人,,その他の設立登記法人,東京都,千代田区,内神田１丁目３番７号４０１あすな会計事務所内,,13,101,1010047,,,,,,,2024-06-05,1,,,,,エリモフウリョク,0
1881,7010401182875,新規,0,2024-06-05,2024-06-05,株式会社ティーワイエヌ,,株式会社,東京都,港区,白金台１丁目１番１１－１１０１号,,13,103,1080071,,,,,,,2024-06-05,1,,,,,ティーワイエヌ,0
1882,7010401182900,新規,0,2024-06-05,2024-06-05,株式会社Ｂｉｌｌｉｏｎｓ　Ｍｅｄｉａ,,株式会社,東京都,港区,白金６丁目２番６号５Ｆ,,13,103,1080072,,,,,,,2024-06-05,1,,,,,ビリオンズメディア,0
1883,7010401182909,新規,0,2024-06-05,2024-06-05,株式会社ＴｒｉｐＴｒｉｐ,,株式会社,東京都,港区,南麻布２丁目８番２１号,,13,103,1060047,,,,,,,2024-06-05,1,,,,,トリップトリップ,0
1884,7010401182941,新規,0,2024-06-05,2024-06-05,総合保証サービス株式会社,,株式会社,東京都,港区,北青山１丁目２番３号,,13,103,1070061,,,,,,,2024-06-05,1,,,,,ソウゴウホショウサービス,0
1887,7010403032772,新規,0,2024-06-05,2024-06-05,Ｇ＆Ｍパブリックコンサルティング合同会社,,合同会社,東京都,港区,南青山３丁目１番３６号青山丸竹ビル６Ｆ,,13,103,1070062,,,,,,,2024-06-05,1,,,,,ジーアンドエムパブリックコンサルティング,0
1891,7010405023282,新規,0,2024-06-05,2024-06-05,一般社団法人結の会,,その他の設立登記法人,東京都,港区,東麻布２丁目２３番３－１０３号,,13,103,1060044,,,,,,,2024-06-05,1,,,,,ユイノカイ,0
1899,7010901055399,新規,0,2024-06-05,2024-06-05,株式会社メックグループ,,株式会社,東京都,世田谷区,大蔵６丁目１３番２号,,13,112,1570074,,,,,,,2024-06-05,1,,,,,メックグループ,0
1907,7011001161880,新規,0,2024-06-05,2024-06-05,株式会社ＨＡＣＨＡ,,株式会社,東京都,渋谷区,恵比寿西２丁目８－４ＥＸ恵比寿西ビル５階,,13,113,1500021,,,,,,,2024-06-05,1,,,,,ハチャ,0
1908,7011001162433,新規,0,2024-06-05,2024-06-05,曼荼羅ＬＡＢＯ．雅株式会社,,株式会社,東京都,渋谷区,道玄坂１丁目１０番８号渋谷道玄坂東急ビル２Ｆ－Ｃ,,13,113,1500043,,,,,,,2024-06-05,1,,,,,マンダララボミヤビ,0
1909,7011001162474,新規,0,2024-06-05,2024-06-05,Ｆｏｒ　Ｔｒｕｓｔ株式会社,,株式会社,東京都,渋谷区,恵比寿西２丁目４番８号ウィンド恵比寿ビル８Ｆ,,13,113,1500021,,,,,,,2024-06-05,1,,,,,フォートラスト,0
1910,7011003019276,新規,0,2024-06-05,2024-06-05,ＢＲＡＮＤｉｔ　Ｍａｒｋｅｔｉｎｇ＆Ｐｒｏｍｏｔｉｏｎｓ　Ｊａｐａｎ合同会社,,合同会社,東京都,渋谷区,渋谷２丁目１９－１５宮益坂ビルディング６０９,,13,113,1500002,,,,,,,2024-06-05,1,,,,,,0
1916,7011101107536,新規,0,2024-06-05,2024-06-05,ＪＮＥＴ株式会社,,株式会社,東京都,新宿区,高田馬場３丁目２１番９緒方荘２－１号室,,13,104,1690075,,,,,,,2024-06-05,1,,,,,ジェーネット,0
1917,7011101107569,新規,0,2024-06-05,2024-06-05,株式会社ＳＴ,,株式会社,東京都,新宿区,西新宿８丁目１５番１６号,,13,104,1600023,,,,,,,2024-06-05,1,,,,,エスティー,0
1930,7011601027795,新規,0,2024-06-05,2024-06-05,株式会社ランビエール,,株式会社,東京都,練馬区,石神井町７丁目１７番１２号,,13,120,1770041,,,,,,,2024-06-05,1,,,,,ランビエール,0
1931,7011601027804,新規,0,2024-06-05,2024-06-05,Ｃ＆Ｍコーポレーション株式会社,,株式会社,東京都,練馬区,北町８丁目１２－１６ボヌール・マ・メゾンＢ１－Ｆ号室,,13,120,1790081,,,,,,,2024-06-05,1,,,,,シーアンドエムコーポレーション,0
1932,7011603004355,新規,0,2024-06-05,2024-06-05,合同会社パキラ,,合同会社,東京都,練馬区,旭町２丁目３２番８号－２１０,,13,120,1790071,,,,,,,2024-06-05,1,,,,,パキラ,0
1934,7011801044327,新規,0,2024-06-05,2024-06-05,株式会社ＦＵＫＵＲＯＷ,,株式会社,東京都,足立区,梅島２丁目２番１１号,,13,121,1210816,,,,,,,2024-06-05,1,,,,,フクロウ,0
1935,7011803006267,新規,0,2024-06-05,2024-06-05,レジリエンスエージェント合同会社,,合同会社,東京都,足立区,西新井７丁目３番２号,,13,121,1230841,,,,,,,2024-06-05,1,,,,,レジリエンスエージェント,0
1941,7012403006599,新規,0,2024-06-05,2024-06-05,合同会社ｍｏｓｓｇｒｅｅｎｇｏｌｆ,,合同会社,東京都,府中市,新町１丁目１３番地の１３ディアコート府中２０１,,13,206,1830052,,,,,,,2024-06-05,1,,,,,モスグリーンゴルフ,0
1955,7020001157574,新規,0,2024-06-05,2024-06-05,株式会社ＵＮＩＪＵＮＥ,,株式会社,神奈川県,横浜市港北区,綱島西３丁目２８番２６号３Ｆ,,14,109,2230053,,,,,,,2024-06-05,1,,,,,ユニジュン,0
1966,7021001082408,新規,0,2024-06-05,2024-06-05,株式会社一助ホーム,,株式会社,神奈川県,大和市,西鶴間３丁目６番１号,,14,213,2420005,,,,,,,2024-06-05,1,,,,,イチジョホーム,0
1982,7030001160718,新規,0,2024-06-05,2024-06-05,ＴＷ株式会社,,株式会社,埼玉県,春日部市,新宿新田２２５番地９２,,11,214,3440113,,,,,,,2024-06-05,1,,,,,ティーダブリュー,0
1993,7040001133895,新規,0,2024-06-05,2024-06-05,生友総合サービス株式会社,,株式会社,千葉県,成田市,三里塚光ケ丘１番地４４７,,12,211,2860117,,,,,,,2024-06-05,1,,,,,セイユウソウゴウサービス,0
1997,7040003025133,新規,0,2024-06-05,2024-06-05,ＣＨＡＭＩＮＤＡ　ＴＲＡＤＥＲＳ合同会社,,合同会社,千葉県,千葉市若葉区,小倉町１７３２－１,,12,104,2640007,,,,,,,2024-06-05,1,,,,,チャミンダトレーダーズ,0
1998,7050001054827,新規,0,2024-06-05,2024-06-05,ＴＶ　ＧＲＯＵＰ株式会社,,株式会社,茨城県,常総市,上蛇町１５６０,,08,211,3002502,,,,,,,2024-06-05,1,,,,,ティーブイグループ,0
1999,7050001054868,新規,0,2024-06-05,2024-06-05,スワンナプーム株式会社,,株式会社,茨城県,小美玉市,栗又四ケ２５３０番地１８,,08,236,3113434,,,,,,,2024-06-05,1,,,,,スワンナプーム,0
2007,7060005010206,新規,0,2024-06-05,2024-06-05,一般社団法人グル・リンポチェ・トラスト,,その他の設立登記法人,栃木県,日光市,瀬尾字大ナコウ３３６０番地１８,,09,206,3211264,,,,,,,2024-06-05,1,,,,,グルリンポチェトラスト,0
2021,7080401027223,新規,0,2024-06-05,2024-06-05,株式会社長谷川建築,,株式会社,静岡県,磐田市,見付１４１１番地１８,,22,211,4380086,,,,,,,2024-06-05,1,,,,,ハセガワケンチク,0
2022,7080401027231,新規,0,2024-06-05,2024-06-05,株式会社ｓｈｅｌｐ　ｏｎｅ,,株式会社,静岡県,浜松市中央区,富塚町４３０６番地の５ＢｅｌｌｅＶｉｅＢ,,22,138,4328002,,,,,,,2024-06-05,1,,,,,シェルプワン,0
2023,7100001037520,新規,0,2024-06-05,2024-06-05,株式会社ＴＯＫＩ,,株式会社,長野県,上田市,中央１丁目３番９号、１階,,20,203,3860012,,,,,,,2024-06-05,1,,,,,トキ,0
2037,7120001265499,新規,0,2024-06-05,2024-06-05,株式会社ｃｏｕｌｅｕｒ,,株式会社,大阪府,大阪市西区,新町１丁目２４番８号,,27,106,5500013,,,,,,,2024-06-05,1,,,,,クルール,0
2038,7120001265540,新規,0,2024-06-05,2024-06-05,株式会社星森,,株式会社,大阪府,大阪市中央区,北久宝寺町１丁目５－６－１００３号室,,27,128,5410057,,,,,,,2024-06-05,1,,,,,ホシモリ,0
2039,7120001265557,新規,0,2024-06-05,2024-06-05,穗安株式会社,,株式会社,大阪府,大阪市東成区,深江北３丁目４番２１号エクラ深江橋７０６Ｂ,,27,115,5370001,,,,,,,2024-06-05,1,,,,,スイアン,0
2040,7120001265581,新規,0,2024-06-05,2024-06-05,加美北工業株式会社,,株式会社,大阪府,大阪市平野区,加美北６丁目４番２９号,,27,126,5470001,,,,,,,2024-06-05,1,,,,,カミキタコウギョウ,0
2041,7120003026767,新規,0,2024-06-05,2024-06-05,合同会社カホウモノサービス,,合同会社,大阪府,寝屋川市,三井南町３０番１－６０６号,,27,215,5720019,,,,,,,2024-06-05,1,,,,,カホウモノサービス,0
2042,7120003026775,新規,0,2024-06-05,2024-06-05,合同会社ＦＡＮ,,合同会社,大阪府,大阪市福島区,吉野３丁目２２番１４－６０３号,,27,103,5530006,,,,,,,2024-06-05,1,,,,,ファン,0
2054,7122001038141,新規,0,2024-06-05,2024-06-05,株式会社ＲＥＶＥ,,株式会社,大阪府,東大阪市,岩田町１丁目２１番５号,,27,227,5780941,,,,,,,2024-06-05,1,,,,,レーヴ,0
2057,7130003009606,新規,0,2024-06-05,2024-06-05,合同会社まるおプランニング,,合同会社,京都府,京都市左京区,岩倉南平岡町９番地,,26,103,6060032,,,,,,,2024-06-05,1,,,,,マルオプランニング,0
2062,7140001134660,新規,0,2024-06-05,2024-06-05,株式会社Ｌｉｎｏｖａｔｉｏｎ,,株式会社,兵庫県,伊丹市,中央５丁目３番２３メイフェア１０１,,28,207,6640851,,,,,,,2024-06-05,1,,,,,リノベーション,0
2069,7140003020669,新規,0,2024-06-05,2024-06-05,合同会社Ｌｕｃｅ,,合同会社,兵庫県,神戸市灘区,森後町２丁目１番９号,,28,102,6570028,,,,,,,2024-06-05,1,,,,,ルーチェ,0
2071,7160001025973,新規,0,2024-06-05,2024-06-05,鈴蘭健康衣料株式会社,,株式会社,滋賀県,東近江市,山路町３５４番地７,,25,213,5211225,,,,,,,2024-06-05,1,,,,,スズランケンコウイリョウ,0
2075,7170005007083,新規,0,2024-06-05,2024-06-05,一般社団法人くちくまの学生寮,,その他の設立登記法人,和歌山県,西牟婁郡上富田町,朝来２４６０番地の４,,30,404,6492105,,,,,,,2024-06-05,1,,,,,クチクマノガクセイリョウ,0
2083,7180001161767,新規,0,2024-06-05,2024-06-05,株式会社ＭＹＭＩＳＴ,,株式会社,愛知県,春日井市,鳥居松町１丁目２４６番地ロフティ勝川ウイングガーデン９０４号,,23,206,4860844,,,,,,,2024-06-05,1,,,,,マイミスト,0
2084,7180001161783,新規,0,2024-06-05,2024-06-05,株式会社Ｒｕｃｈｉｌｕ,,株式会社,愛知県,名古屋市緑区,桶狭間森前２１０７番地,,23,114,4580910,,,,,,,2024-06-05,1,,,,,ルチル,0
2085,7180001161825,新規,0,2024-06-05,2024-06-05,株式会社ＬＥＧＡＲＥＡ,,株式会社,愛知県,名古屋市西区,名駅１丁目１番１７号名駅ダイヤメイテツビル１１階,,23,104,4510045,,,,,,,2024-06-05,1,,,,,レガリア,0
2086,7180001161833,新規,0,2024-06-05,2024-06-05,株式会社ＭＵＲ,,株式会社,愛知県,名古屋市東区,東大曽根町２３番１５号ＰＵＬＣＨＲＡ　ＯＺＯＮＥ２０１号,,23,102,4610022,,,,,,,2024-06-05,1,,,,,ミュール,0
2087,7180003026885,新規,0,2024-06-05,2024-06-05,合同会社Ｗｅ’ｖｅ　ｗｅｂ,,合同会社,愛知県,名古屋市東区,芳野町三丁目２番３号,,23,102,4610000,,,,,,,2024-06-05,1,,,,,ウィブウェブ,0
2089,7190003004700,新規,0,2024-06-05,2024-06-05,Ｔ２Ｋ合同会社,,合同会社,三重県,四日市市,諏訪栄町８番１６－１号諏訪栄三好ビル２階,,24,202,5100086,,,,,,,2024-06-05,1,,,,,ティーツーケイ,0
2097,7230001020380,新規,0,2024-06-05,2024-06-05,株式会社けんとれ,,株式会社,富山県,富山市,上袋６０５番地２それいゆビル１Ｆ,,16,201,9398071,,,,,,,2024-06-05,1,,,,,ケントレ,0
2102,7240003006708,新規,0,2024-06-05,2024-06-05,合同会社ユウインｆｘ,,合同会社,広島県,福山市,津之郷町大字津之郷４１２番地３３,,34,207,7200841,,,,,,,2024-06-05,1,,,,,ユウインエフエックス,0
2104,7250003003514,新規,0,2024-06-05,2024-06-05,合同会社ホームケアいちか,,合同会社,山口県,山口市,平井３００番地１（１０２号）,,35,203,7530831,,,,,,,2024-06-05,1,,,,,ホームケアイチカ,0
2106,7260001039146,新規,0,2024-06-05,2024-06-05,株式会社日本あにまるラボ,,株式会社,岡山県,井原市,東江原町４２番地１,,33,207,7150003,,,,,,,2024-06-05,1,,,,,ニホンアニマルラボ,0
2108,7260003004783,新規,0,2024-06-05,2024-06-05,大空設備合同会社,,合同会社,岡山県,岡山市中区,平井５丁目２番４７－４号,,33,102,7038282,,,,,,,2024-06-05,1,,,,,ダイクウセツビ,0
2123,7290003015349,新規,0,2024-06-05,2024-06-05,合同会社ＮＳ技建,,合同会社,福岡県,福岡市博多区,博多駅前１丁目２３番２号ＰａｒｋＦｒｏｎｔ博多駅前１丁目５Ｆ－Ｂ,,40,132,8120011,,,,,,,2024-06-05,1,,,,,エヌエスギケン,0
2126,7290801030615,新規,0,2024-06-05,2024-06-05,ＢＣＭホールディングス株式会社,,株式会社,福岡県,北九州市小倉北区,中井５丁目１７番２９号ピエドラブランカ中井２Ｆ,,40,106,8030836,,,,,,,2024-06-05,1,,,,,ビーシーエムホールディングス,0
2127,7290801030623,新規,0,2024-06-05,2024-06-05,ＴＵＫＩ‐ＹＵ株式会社,,株式会社,福岡県,北九州市小倉南区,企救丘６丁目１４番８号,,40,107,8020981,,,,,,,2024-06-05,1,,,,,ツキユ,0
2129,7290805009746,新規,0,2024-06-05,2024-06-05,一般財団法人八幡高校奨学会,,その他の設立登記法人,福岡県,北九州市八幡東区,荒生田１丁目６番１７号,,40,108,8050015,,,,,,,2024-06-05,1,,,,,ヤハタコウコウショウガクカイ,0
2130,7300001013765,新規,0,2024-06-05,2024-06-05,株式会社洋建,,株式会社,佐賀県,佐賀市,西与賀町大字厘外１２３０番地６,,41,201,8400034,,,,,,,2024-06-05,1,,,,,ナダケン,0
2136,7330001032119,新規,0,2024-06-05,2024-06-05,株式会社オフィスＤａｉ,,株式会社,熊本県,熊本市中央区,壺川１丁目９番３２－７０３号,,43,101,8600076,,,,,,,2024-06-05,1,,,,,オフィスダイ,0
2137,7330001032135,新規,0,2024-06-05,2024-06-05,株式会社ＴＭＲＭ,,株式会社,熊本県,山鹿市,鹿本町下高橋１１９番地２,,43,208,8610316,,,,,,,2024-06-05,1,,,,,ティーエムアールエム,0
2140,7340001026549,新規,0,2024-06-05,2024-06-05,株式会社日盛金属,,株式会社,鹿児島県,曽於郡大崎町,永吉８２９４番地２,,46,468,8997306,,,,,,,2024-06-05,1,,,,,ニッセイキンゾク,0
2141,7340001026557,新規,0,2024-06-05,2024-06-05,宗芳茶道会株式会社,,株式会社,鹿児島県,熊毛郡屋久島町,麦生４１６番地,,46,505,8914402,,,,,,,2024-06-05,1,,,,,ソウホウサドウカイ,0
2151,7400003003283,新規,0,2024-06-05,2024-06-05,合同会社イチカラ,,合同会社,岩手県,岩手郡岩手町,大字沼宮内第７地割１４番地１,,03,303,0284301,,,,,,,2024-06-05,1,,,,,イチカラ,0
2158,7430001091939,新規,0,2024-06-05,2024-06-05,江戸旭株式会社,,株式会社,北海道,小樽市,蘭島１丁目１０番３７号,,01,203,0482562,,,,,,,2024-06-05,1,,,,,エドアサヒ,0
2159,7430001091947,新規,0,2024-06-05,2024-06-05,株式会社バサラ,,株式会社,北海道,札幌市北区,北三十条西１３丁目３番１０号,,01,102,0010030,,,,,,,2024-06-05,1,,,,,バサラ,0
2161,7430003016415,新規,0,2024-06-05,2024-06-05,ＴＯＭＯＲＲＯＷ　ＳＴＡＲ合同会社,,合同会社,北海道,札幌市北区,北二十五条西１２丁目２番８－１１０４号,,01,102,0010025,,,,,,,2024-06-05,1,,,,,ツモロースター,0
2168,7470001020241,新規,0,2024-06-05,2024-06-05,林不動産管理株式会社,,株式会社,香川県,高松市,林町４４８番地２,,37,201,7610301,,,,,,,2024-06-05,1,,,,,ハヤシフドウサンカンリ,0
2170,7500001025674,新規,0,2024-06-05,2024-06-05,飯田防災株式会社,,株式会社,愛媛県,松山市,来住町９８４番地１０,,38,201,7911102,,,,,,,2024-06-05,1,,,,,イイダボウサイ,0
2175,7700150125544,新規,0,2024-06-05,2024-06-05,ＺＨＡＮＧＺＨＯＵＳＨＩＹＵＡＮＤＩＡＮＱＩＹＥＧＵＡＮＬＩＺＩＸＵＮＹＯＵＸＩＡＮＧＯＮＧＳＩ,,外国会社等,,,,,,,,ＸＩＡＮＧＣＨＥＮＧＱＵ　ＺＨＡＮＧＨＵＡＺＨＯＮＧＬＵ３９９ＨＡＯ　ＱＵＮＹＵＸＩＡＯＱＵ５５ＺＨＵＡＮＧ　１０３ＳＨＩ　ＺＨＡＮＧＺＨＯＵＳＨＩ　ＦＵＪＩＡＮＳＨＥＮＧ　ＣＮ,,,,,,2024-06-05,1,,,,,ザンゾウシユェンデェンキギョウカンリジシュンユウゲンコウシ,0
2176,7700150125651,新規,0,2024-06-05,2024-06-05,ＲａｎＺｈｉ　ｗｅｉｈａｉ　Ｏｕｔｄｏｏｒ　Ｐｒｏｄｕｃｔｓ　ｃｏ＆ｌｔｄ,,外国会社等,,,,,,,,Ｎｏ．１７０７，Ａ３，Ｗｉｓｄｏｍ　Ｖａｌｌｅｙ，Ｎｏ．１７－５，Ｘｉａｎｇｇａｎｇ　Ｒｏａｄ，Ｃｒｏｗｎ　Ｓｔｒｅｅｔ　Ｏｆｆｉｃｅ，Ｗｅｉｈａｉ　Ｅｃｏｎｏｍｉｃ　ａｎｄ　Ｔｅｃｈｎｏｌｏｇｉｃａｌ　Ｄｅｖｅｌｏｐｍｅｎｔ　Ｚｏｎｅ，Ｓｈａｎｄｏｎｇ　Ｐｒｏｖｉｎｃｅ，Ｐ．Ｒ．Ｃｈｉｎａ,,,,,,2024-06-05,1,,,,,ランジウェイハイアウトドアプロダクツカンパニーアンドリミテッド,0
2177,7700150125759,新規,0,2024-06-05,2024-06-05,ＦＲＥＱＵＥＮＣＹ　ＪＡＰＡＮ　実行委員会,,その他,東京都,杉並区,西荻南３丁目２４－１,,13,115,1670053,,,,,,,2024-06-05,1,,,,,フリクエンシージャパンジッコウイインカイ,0
2178,7700150125767,新規,0,2024-06-05,2024-06-05,ＳＨＥＮＺＨＥＮ　ＤＵＯＰＵＤＡ　ＩＮＴＥＬＬＩＧＥＮＴ　ＬＯＧＩＳＴＩＣＳ　ＣＯ．，ＬＴＤ,,外国会社等,,,,,,,,２７Ａ，Ｂｕｉｌｄｉｎｇ　３，Ｌｅｈｕｉ　Ｓｃｉｅｎｃｅ　ａｎｄ　Ｔｅｃｈｎｏｌｏｇｙ　Ｉｎｎｏｖａｔｉｏｎ　Ｃｅｎｔｅｒ，Ｎｏ．４８９，ＪｉｈｕａＲｏａｄ，Ｂａｎｔｉａｎ　Ｃｏｍｍｕｎｉｔｙ，Ｂａｎｔｉａｎ　Ｓｔｒｅｅｔ，Ｌｏｎｇｇａｎｇ　Ｄｉｓｔｒｉｃｔ，Ｓｈｅｎｚｈｅｎ，Ｃｈｉｎａ,,,,,,2024-06-05,1,,,,,シエンチエンドウオプダインテリジエントロジステイクスカンパニーリミテツド,0
2180,8010001245387,新規,0,2024-06-05,2024-06-05,ＹＵ株式会社,,株式会社,東京都,千代田区,外神田３丁目５番１２号,,13,101,1010021,,,,,,,2024-06-05,1,,,,,ワイユー,0
2181,8010001245445,新規,0,2024-06-05,2024-06-05,Ｎｕｖｅｉ　Ｊａｐａｎ株式会社,,株式会社,東京都,千代田区,平河町２丁目６番１号平河町ビル７階,,13,101,1020093,,,,,,,2024-06-05,1,,,,,ヌベイジャパン,0
2182,8010001245461,新規,0,2024-06-05,2024-06-05,株式会社コネクト,,株式会社,東京都,中央区,新川１丁目３番２号ナックスビル６階,,13,102,1040033,,,,,,,2024-06-05,1,,,,,コネクト,0
2183,8010001245494,新規,0,2024-06-05,2024-06-05,株式会社サキモメディカル,,株式会社,東京都,千代田区,麹町４丁目１－５－２階,,13,101,1020083,,,,,,,2024-06-05,1,,,,,サキモメディカル,0
2186,8010003043814,新規,0,2024-06-05,2024-06-05,インスコビー合同会社,,合同会社,東京都,千代田区,神田駿河台２番９－１号,,13,101,1000000,,,,,,,2024-06-05,1,,,,,インスコビー,0
2187,8010003043913,新規,0,2024-06-05,2024-06-05,東台合同会社,,合同会社,東京都,中央区,日本橋室町１丁目１１番１２号日本橋水野ビル７階,,13,102,1030022,,,,,,,2024-06-05,1,,,,,トウタイ,0
2195,8010401182882,新規,0,2024-06-05,2024-06-05,ＵＳＢＣ株式会社,,株式会社,東京都,港区,西新橋３丁目２４番８号山内ビル３Ｆ,,13,103,1050003,,,,,,,2024-06-05,1,,,,,ユーエスビーシー,0
2200,8010403032739,新規,0,2024-06-05,2024-06-05,ＭＡＫＵＲＵ合同会社,,合同会社,東京都,港区,六本木３丁目２番１号,,13,103,1060032,,,,,,,2024-06-05,1,,,,,マクル,0
2201,8010403032755,新規,0,2024-06-05,2024-06-05,Ｍａｄａｒａｏ　Ｓｉｌｖｅｒ　Ｆｏｘ合同会社,,合同会社,東京都,港区,白金台３丁目１０番１０号,,13,103,1080071,,,,,,,2024-06-05,1,,,,,マダラオシルバーフォックス,0
2203,8010405023281,新規,0,2024-06-05,2024-06-05,一般社団法人リオナス,,その他の設立登記法人,東京都,港区,北青山３丁目５番１４号７階,,13,103,1070061,,,,,,,2024-06-05,1,,,,,リオナス,0
2204,8010505003530,新規,0,2024-06-05,2024-06-05,一般社団法人こどものみらい,,その他の設立登記法人,東京都,台東区,蔵前４丁目１１番１０号全国保育会館,,13,106,1110051,,,,,,,2024-06-05,1,,,,,コドモノミライ,0
2206,8010601065301,新規,0,2024-06-05,2024-06-05,春田花花株式会社,,株式会社,東京都,墨田区,向島５丁目３８番１０号,,13,107,1310033,,,,,,,2024-06-05,1,,,,,ハルタハナハナ,0
2207,8010601065326,新規,0,2024-06-05,2024-06-05,晴輝株式会社,,株式会社,東京都,墨田区,両国２丁目２番１０号キャッスルマンション両国Ｂ号館７０２号,,13,107,1300026,,,,,,,2024-06-05,1,,,,,ハルキ,0
2211,8010701046093,新規,0,2024-06-05,2024-06-05,株式会社ぢゅげむ,,株式会社,東京都,品川区,西大井２丁目１３番１号,,13,109,1400015,,,,,,,2024-06-05,1,,,,,ヂュゲム,0
2222,8010801035112,新規,0,2024-06-05,2024-06-05,株式会社欣光,,株式会社,東京都,大田区,山王１丁目５番１１号,,13,111,1430023,,,,,,,2024-06-05,1,,,,,シンコウ,0
2223,8010803004973,新規,0,2024-06-05,2024-06-05,ツルタ消毒合同会社,,合同会社,東京都,大田区,新蒲田３丁目６番１６号グレイスコート多摩川１０７,,13,111,1440054,,,,,,,2024-06-05,1,,,,,ツルタショウドク,0
2226,8010905004624,新規,0,2024-06-05,2024-06-05,一般社団法人Ｊａｐａｎ　Ｈｏｌｉｓｔｉｃ　Ｉｎｓｕｒａｎｃｅ共済,,その他の設立登記法人,東京都,世田谷区,南烏山１丁目９番２０号Ｃ棟,,13,112,1570062,,,,,,,2024-06-05,1,,,,,ジャパンホリスティックインシュランスキョウサイ,0
2227,8011001162424,新規,0,2024-06-05,2024-06-05,ＫＡＢＵＫＩ　ＢＥＡＵＴＹ株式会社,,株式会社,東京都,渋谷区,笹塚２丁目２５番６号,,13,113,1510073,,,,,,,2024-06-05,1,,,,,カブキビューティー,0
2229,8011003019291,新規,0,2024-06-05,2024-06-05,東邦開発合同会社,,合同会社,東京都,目黒区,大橋１丁目１０番１－２５０２号,,13,110,1530044,,,,,,,2024-06-05,1,,,,,トウホウ,0
2230,8011003019309,新規,0,2024-06-05,2024-06-05,合同会社ＭＩＤＦＩＥＬＤ,,合同会社,東京都,目黒区,目黒２丁目１３番２５－１１０４号,,13,110,1530063,,,,,,,2024-06-05,1,,,,,ミッドフィールド,0
2233,8011101107576,新規,0,2024-06-05,2024-06-05,ＡＸＩＭ株式会社,,株式会社,東京都,新宿区,西新宿６丁目５番１号新宿アイランドタワー２階,,13,104,1600023,,,,,,,2024-06-05,1,,,,,アクシム,0
2239,8011601027803,新規,0,2024-06-05,2024-06-05,株式会社Ｔ＆Ｇグループ,,株式会社,東京都,練馬区,大泉学園町５丁目３２番２号,,13,120,1780061,,,,,,,2024-06-05,1,,,,,ティーアンドジーグループ,0
2248,8020001157540,新規,0,2024-06-05,2024-06-05,章水株式会社,,株式会社,神奈川県,横浜市中区,山下町９８番地ＧＳハイム山下町４０３,,14,104,2310023,,,,,,,2024-06-05,1,,,,,ショウスイ,0
2255,8020003026272,新規,0,2024-06-05,2024-06-05,ＭＩＪ　Ｑｕａｌｉｔｙ　Ｒｅｃｏｒｄｓ合同会社,,合同会社,神奈川県,川崎市川崎区,港町５番１－１３１５号,,14,131,2100807,,,,,,,2024-06-05,1,,,,,エムアイジェイクオリティレコーズ,0
2259,8021001082407,新規,0,2024-06-05,2024-06-05,株式会社ケイツーサービス,,株式会社,神奈川県,相模原市中央区,光が丘２丁目１２番８－１号,,14,152,2520227,,,,,,,2024-06-05,1,,,,,ケイツーサービス,0
2260,8021001082415,新規,0,2024-06-05,2024-06-05,株式会社大塚造園土木,,株式会社,神奈川県,茅ヶ崎市,今宿５１番地１０,,14,207,2530072,,,,,,,2024-06-05,1,,,,,オオツカゾウエンドボク,0
2262,8021003014589,新規,0,2024-06-05,2024-06-05,合同会社ＫＩＴＬｉｎｋ,,合同会社,神奈川県,藤沢市,辻堂６丁目７番５号,,14,205,2510047,,,,,,,2024-06-05,1,,,,,ケイアイティリンク,0
2263,8021003014597,新規,0,2024-06-05,2024-06-05,合同会社蓬,,合同会社,神奈川県,三浦郡葉山町,下山口１１３４番地の１,,14,301,2400116,,,,,,,2024-06-05,1,,,,,ヨモギ,0
2270,8030001160510,新規,0,2024-06-05,2024-06-05,株式会社スパイスランド,,株式会社,埼玉県,草加市,原町１丁目５番３４号レオニス２０１号,,11,221,3400048,,,,,,,2024-06-05,1,,,,,スパイスランド,0
2273,8030003024416,新規,0,2024-06-05,2024-06-05,マリ合同会社,,合同会社,埼玉県,越谷市,大字大林２５３番３５メゾンドミール１０１号室,,11,222,3430021,,,,,,,2024-06-05,1,,,,,マリ,0
2274,8040001133845,新規,0,2024-06-05,2024-06-05,株式会社ＷＡＴＡＭＩ,,株式会社,千葉県,市原市,東国分寺台５丁目７番地１０ソレイユ１０３,,12,219,2900074,,,,,,,2024-06-05,1,,,,,ワタミ,0
2275,8040001133894,新規,0,2024-06-05,2024-06-05,株式会社アイナホールディングス,,株式会社,千葉県,松戸市,仲井町２丁目４５番地,,12,207,2702242,,,,,,,2024-06-05,1,,,,,アイナホールディングス,0
2276,8040001133928,新規,0,2024-06-05,2024-06-05,株式会社ＲＲＤ,,株式会社,千葉県,松戸市,新松戸南１丁目４５９番地の３,,12,207,2700035,,,,,,,2024-06-05,1,,,,,アールアールディー,0
2280,8040003025116,新規,0,2024-06-05,2024-06-05,合同会社Ｃｌｉｍｂ　Ｃｏｍｐａｎｙ,,合同会社,千葉県,千葉市中央区,亀井町１－１２,,12,101,2600011,,,,,,,2024-06-05,1,,,,,クライムカンパニー,0
2281,8040005022409,新規,0,2024-06-05,2024-06-05,一般社団法人ＡＲＴ　Ｕｎｉｖｅｒｓｅメセナちば,,その他の設立登記法人,千葉県,千葉市若葉区,千城台東２丁目２８番２号,,12,104,2640002,,,,,,,2024-06-05,1,,,,,アートユニバースメセナチバ,0
2284,8050001054867,新規,0,2024-06-05,2024-06-05,株式会社ナガハマ美容室,,株式会社,茨城県,古河市,横山町３丁目９番７号,,08,204,3060022,,,,,,,2024-06-05,1,,,,,ナガハマビヨウシツ,0
2286,8050003008417,新規,0,2024-06-05,2024-06-05,合同会社ＫＯＯＮＳ　ＬＡＮＫＡ　ＩＮＴＥＲＮＡＴＩＯＮＡＬ,,合同会社,茨城県,筑西市,玉戸２９１８番地コーポ玉戸西原３号棟１号室,,08,227,3080847,,,,,,,2024-06-05,1,,,,,クーンズランカインターナショナル,0
2288,8070001041797,新規,0,2024-06-05,2024-06-05,株式会社ＬＡＳＴＩＮＧ,,株式会社,群馬県,高崎市,緑町１丁目２７番４号,,10,202,3700073,,,,,,,2024-06-05,1,,,,,ラスティング,0
2289,8070001041830,新規,0,2024-06-05,2024-06-05,株式会社バイステップ,,株式会社,群馬県,沼田市,沼須町５９番地４,,10,206,3780012,,,,,,,2024-06-05,1,,,,,,0
2300,8080101024791,新規,0,2024-06-05,2024-06-05,株式会社わかば介護センター,,株式会社,静岡県,伊東市,玖須美元和田７２９番地の３６,,22,208,4140045,,,,,,,2024-06-05,1,,,,,ワカバカイゴセンター,0
2316,8120001265283,新規,0,2024-06-05,2024-06-05,メディカルサイエンス・ジャパン株式会社,,株式会社,大阪府,大阪市中央区,難波２丁目４番２２号,,27,128,5420076,,,,,,,2024-06-05,1,,,,,メディカルサイエンスジャパン,0
2317,8120001265498,新規,0,2024-06-05,2024-06-05,ＧＬＯＢＡＬ　ＢＥＡＴＳ株式会社,,株式会社,大阪府,大阪市城東区,蒲生２丁目１０番３３号２Ｆ,,27,118,5360016,,,,,,,2024-06-05,1,,,,,グローバルビーツ,0
2318,8120001265556,新規,0,2024-06-05,2024-06-05,株式会社啓信会ヘルスケア,,株式会社,大阪府,大阪市福島区,大開４丁目２番９号,,27,103,5530007,,,,,,,2024-06-05,1,,,,,ケイシンカイヘルスケア,0
2319,8120001265564,新規,0,2024-06-05,2024-06-05,森嘉株式会社,,株式会社,大阪府,大阪市城東区,蒲生３丁目１５番１２号セザンヌ藤３０５Ａ,,27,118,5360016,,,,,,,2024-06-05,1,,,,,シンカ,0
2320,8120001265572,新規,0,2024-06-05,2024-06-05,株式会社スマートエナジー,,株式会社,大阪府,大阪市東淀川区,淡路１丁目１２番２０－１１１号,,27,114,5330032,,,,,,,2024-06-05,1,,,,,スマートエナジー,0
2321,8120001265614,新規,0,2024-06-05,2024-06-05,株式会社Ｎ・Ｉフェローズ,,株式会社,大阪府,大阪市淀川区,三国本町２丁目８番２７号,,27,123,5320005,,,,,,,2024-06-05,1,,,,,エヌアイフェローズ,0
2322,8120001265622,新規,0,2024-06-05,2024-06-05,龍龍株式会社,,株式会社,大阪府,大阪市東住吉区,杭全１丁目１７－１７－２０１号室,,27,121,5460002,,,,,,,2024-06-05,1,,,,,リュウリュウ,0
2323,8120001265639,新規,0,2024-06-05,2024-06-05,ＮＤ国際株式会社,,株式会社,大阪府,大阪市西成区,長橋２丁目６－４エルメゾングランデ３０３,,27,122,5570025,,,,,,,2024-06-05,1,,,,,エヌディーコクサイ,0
2327,8120003026733,新規,0,2024-06-05,2024-06-05,ＴａｋｏＰａｃａ合同会社,,合同会社,大阪府,大阪市中央区,南本町２丁目１番１－２０１号,,27,128,5410054,,,,,,,2024-06-05,1,,,,,タコパカ,0
2328,8120003026766,新規,0,2024-06-05,2024-06-05,合同会社Ｓ・ロード,,合同会社,大阪府,大阪市港区,築港２丁目６－８,,27,107,5520021,,,,,,,2024-06-05,1,,,,,エスロード,0
2342,8140001134692,新規,0,2024-06-05,2024-06-05,株式会社Ｎサポート,,株式会社,兵庫県,川辺郡猪名川町,白金２丁目１１番地１２,,28,301,6660257,,,,,,,2024-06-05,1,,,,,エヌサポート,0
2347,8160001025980,新規,0,2024-06-05,2024-06-05,ＨＳＣ株式会社,,株式会社,滋賀県,甲賀市,水口町山７１４番地１１,,25,209,5280067,,,,,,,2024-06-05,1,,,,,,0
2357,8180001161766,新規,0,2024-06-05,2024-06-05,株式会社ＨＡＭＵ,,株式会社,愛知県,名古屋市港区,本宮新町８２番地,,23,111,4550065,,,,,,,2024-06-05,1,,,,,ハム,0
2358,8180001161816,新規,0,2024-06-05,2024-06-05,ＲＥＳＴ株式会社,,株式会社,愛知県,名古屋市昭和区,緑町３丁目６番地,,23,107,4660013,,,,,,,2024-06-05,1,,,,,レスト,0
2359,8180001161824,新規,0,2024-06-05,2024-06-05,株式会社ｎｏｉｘ,,株式会社,愛知県,海部郡大治町,大字三本木字屋形９５番地の１,,23,424,4901142,,,,,,,2024-06-05,1,,,,,ノア,0
2361,8180303006140,新規,0,2024-06-05,2024-06-05,合同会社ＫＮサービス,,合同会社,愛知県,蒲郡市,神ノ郷町地蔵ケ崎１９番地１２,,23,214,4430007,,,,,,,2024-06-05,1,,,,,ケイエヌサービス,0
2364,8190003004699,新規,0,2024-06-05,2024-06-05,ＦＡＴＥ合同会社,,合同会社,三重県,四日市市,西新地６番４号川喜ビル３階３０１号室,,24,202,5100087,,,,,,,2024-06-05,1,,,,,フェイト,0
2373,8240001063320,新規,0,2024-06-05,2024-06-05,ＨＲＫ株式会社,,株式会社,広島県,広島市安芸区,瀬野西１丁目２８番１０号,,34,107,7390313,,,,,,,2024-06-05,1,,,,,エイチアールケイ,0
2374,8240001063329,新規,0,2024-06-05,2024-06-05,株式会社森田不動産,,株式会社,広島県,広島市安佐北区,口田５丁目４５番２５号,,34,106,7391734,,,,,,,2024-06-05,1,,,,,モリタフドウサン,0
2377,8240003006707,新規,0,2024-06-05,2024-06-05,合同会社グローイングナウ,,合同会社,広島県,広島市佐伯区,藤の木１丁目１６番１３号,,34,108,7315103,,,,,,,2024-06-05,1,,,,,グローイングナウ,0
2378,8250001020675,新規,0,2024-06-05,2024-06-05,舜工業株式会社,,株式会社,山口県,山口市,大内御堀４２５０番地１,,35,203,7530214,,,,,,,2024-06-05,1,,,,,シュンコウギョウ,0
2382,8250003003513,新規,0,2024-06-05,2024-06-05,合同会社山万,,合同会社,山口県,山口市,佐山２８１８－１クエスト佐山Ａ２０２,,35,203,7540894,,,,,,,2024-06-05,1,,,,,ヤママン,0
2383,8250005008923,新規,0,2024-06-05,2024-06-05,アソビノ産官学連携推進協同組合,,その他の設立登記法人,山口県,周南市,銀座１丁目１２番地徳山セマディオビル５階,,35,215,7450032,,,,,,,2024-06-05,1,,,,,アソビノサンカンガクレンケイスイシン,0
2386,8260001039129,新規,0,2024-06-05,2024-06-05,株式会社ＰＬａｔＺａｉｍ,,株式会社,岡山県,岡山市北区,今３丁目１０番１０号備前ビル２階,,33,101,7000975,,,,,,,2024-06-05,1,,,,,プラットザイム,0
2387,8260001039145,新規,0,2024-06-05,2024-06-05,ＫＹＯＤＡＹ株式会社,,株式会社,岡山県,岡山市北区,厚生町１丁目５番２０号大野マンション４０２号,,33,101,7000985,,,,,,,2024-06-05,1,,,,,キョウデイ,0
2388,8270001008990,新規,0,2024-06-05,2024-06-05,株式会社サエキ,,株式会社,鳥取県,西伯郡南部町,福成１２７１番地１,,31,389,6830312,,,,,,,2024-06-05,1,,,,,サエキ,0
2403,8290005019421,新規,0,2024-06-05,2024-06-05,一般社団法人南福岡公共嘱託登記土地家屋調査士協会,,その他の設立登記法人,福岡県,福岡市南区,塩原３丁目８番２８号,,40,134,8150032,,,,,,,2024-06-05,1,,,,,ミナミフクオカコウキョウショクタクトウキトチカオクチョウサシキョウカイ,0
2404,8290801030622,新規,0,2024-06-05,2024-06-05,株式会社ピースケア,,株式会社,福岡県,北九州市小倉北区,片野新町２丁目１番７－３０２号,,40,106,8020062,,,,,,,2024-06-05,1,,,,,ピースケア,0
2405,8290803004748,新規,0,2024-06-05,2024-06-05,合同会社ウォンチュー,,合同会社,福岡県,北九州市小倉北区,紺屋町１１番２３－６０２号,,40,106,8020081,,,,,,,2024-06-05,1,,,,,ウォンチュー,0
2407,8320001020511,新規,0,2024-06-05,2024-06-05,ワコー株式会社,,株式会社,大分県,津久見市,立花町６番３号,,44,207,8792434,,,,,,,2024-06-05,1,,,,,ワコー,0
2408,8330001032118,新規,0,2024-06-05,2024-06-05,株式会社レイズ,,株式会社,熊本県,熊本市中央区,国府１丁目１３番１６－５０２号シティマンション国府,,43,101,8620949,,,,,,,2024-06-05,1,,,,,レイズ,0
2409,8330003010402,新規,0,2024-06-05,2024-06-05,合同会社ＥＬ　ＤＯＲＡＤＯ,,合同会社,熊本県,熊本市中央区,大江４丁目１９番１９号北川ビル３０２号,,43,101,8620971,,,,,,,2024-06-05,1,,,,,エルドラード,0
2414,8360003014045,新規,0,2024-06-05,2024-06-05,合同会社ＳＡＣＨＩ,,合同会社,沖縄県,糸満市,潮崎町４丁目２８番地の２０,,47,210,9010364,,,,,,,2024-06-05,1,,,,,サチ,0
2421,8380001034588,新規,0,2024-06-05,2024-06-05,株式会社アセットマネジメント,,株式会社,福島県,福島市,飯坂町平野字中原３６－３－１０２,,07,201,9600231,,,,,,,2024-06-05,1,,,,,アセットマネジメント,0
2427,8410001013844,新規,0,2024-06-05,2024-06-05,株式会社クレール,,株式会社,秋田県,秋田市,新屋船場町６番５５号,,05,201,0101615,,,,,,,2024-06-05,1,,,,,クレール,0
2434,8430001091938,新規,0,2024-06-05,2024-06-05,アーツシーイー株式会社,,株式会社,北海道,札幌市東区,北六条東３丁目３番地１,,01,103,0600906,,,,,,,2024-06-05,1,,,,,アーツシーイー,0
2435,8430001091962,新規,0,2024-06-05,2024-06-05,株式会社ＴＳＵＲＥ,,株式会社,北海道,札幌市東区,北二十一条東１８丁目２－２６フラワー西尾Ｂ棟２階,,01,103,0650021,,,,,,,2024-06-05,1,,,,,ツレ,0
2441,8450001014335,新規,0,2024-06-05,2024-06-05,株式会社ＰＲＩＭＥ,,株式会社,北海道,旭川市,末広三条６丁目８番８号Ｌ,,01,204,0718133,,,,,,,2024-06-05,1,,,,,プライム,0
2442,8470001020240,新規,0,2024-06-05,2024-06-05,株式会社ＣＵＴ　ＭＡＲＵ,,株式会社,香川県,仲多度郡まんのう町,東高篠４０番地１５,,37,406,7660013,,,,,,,2024-06-05,1,,,,,カットマル,0
2457,8700150122128,新規,0,2024-06-05,2024-06-05,Ｓｈｅｎｚｈｅｎ　Ｃｈｅｎｇｙｉ　Ｓｅｃｕｒｉｔｙ　Ｔｅｃｈｎｏｌｏｇｙ　Ｃｏ．，Ｌｔｄ．,,外国会社等,,,,,,,,ｂａｏａｎ　ｄｉｓｔｒｉｃｔ，ｘｉｎａｎ　ｊｉｅｄａｏ，ｄａｌａｎｇ　ｓｈｅｑｕ，ｃｈｕａｎｇｙｅ　ｅｒｌｕ，ｂｅｉ　ｅｒ　ｘｉａｎｇ　３ｈａｏ，ｘｉｎｙｉｄａｉ　ｘｉｎｘｉ　ｊｉｓｈ　ｃｈａｎｙｅｙｕａｎ　Ｃｚｕｏ３２０　ｓｈｅｎｚｈｅｎ　Ｇｕａｎｇｄｏｎｇ,,,,,,2024-06-05,1,,,,,シェンジェンシチュヨンイアンファンコァジヨウシエンゴンス,0
2458,8700150125543,新規,0,2024-06-05,2024-06-05,ＱｕＺｈｏｕＳｈｉＸｉａｏＭｕＸｉｎｇＤｉａｎＺｉＹｏｕＸｉａｎＧｏｎｇＳｉ,,外国会社等,,,,,,,,ｋｅｃｈｅｎｇ　ｑｕ，ｆｅｉ　ｃｕｉ　ｂｉｎ　ｊｉａｎｇ　ｘｉａｏ　ｑｕ，１　ｚｈｕａｎｇ　７０６　ｓｈｉ　ｑｕｚｈｏｕ　ｓｈｉ　ｚｈｅｊｉａｎｇ　ｓｈｅｎｇ,,,,,,2024-06-05,1,,,,,クシュウシシャオムシンデンシユウゲンコウシ,0
2459,8700150125650,新規,0,2024-06-05,2024-06-05,Ｆｏｓｈａｎ　Ｓｉｗｅｉｏｕｋｅ　ｄｉａｎｚｉｓｈａｎｇｗｕｙｏｕｘｉａｎｇｏｎｇｓｉ,,外国会社等,,,,,,,,Ｆｏｓｈａｎ　Ｃｉｔｙ，Ｃｈａｎｃｈｅｎｇ　Ｄｉｓｔｒｉｃｔ，Ｚｈａｎｇ　Ｒｕｂ　Ｓｔｒｅｅｔ，Ｎｏ．２３５，Ｌｉａｎｊｉａｎｇ　１ｓｔ　Ｒｏａｄ，ｏｎｅ　ｏｆ　ｔｈｅ　ｗｅｓｔ　ｓｉｄｅ　ｏｆ　ｔｈｅ　ｓｅｌｆ－ｐｒｏｇｒａｍｍｉｎｇ　ｏｆ　ｔｈｅ　Ｒｅｓｅａｒｃｈ　ａｎｄ　Ｄｅｖｅｌｏｐｍｅｎｔ　Ｂｕｉｌｄｉｎｇ　Ｐ　Ｂｕｉｌｄｉｎｇ,,,,,,2024-06-05,1,,,,,フォサンシウェイオウケデンシショウムユウゲンコウシ,0
2460,8700150125766,新規,0,2024-06-05,2024-06-05,杭州承和国際貿易有限公司,,外国会社等,東京都,千代田区,永田町２丁目４－７秀和永田町レジデンス３０１,,13,101,1000014,中国浙江省杭州市余杭区倉前街道余杭塘路２６３６号１幢３層３０２室,,,,,,2024-06-05,1,,,,,コウシユウシヨウワコクサイボウエキユウゲンコウシ,0
2467,9010001245436,新規,0,2024-06-05,2024-06-05,株式会社バイト,,株式会社,東京都,文京区,白山５丁目１３番２－２０４号,,13,105,1120001,,,,,,,2024-06-05,1,,,,,バイト,0
2468,9010001245444,新規,0,2024-06-05,2024-06-05,Ｍｏｎｔｅｒｅｙ　Ｃａｐｉｔａｌ　Ｍａｎａｇｅｍｅｎｔ　Ｊａｐａｎ株式会社,,株式会社,東京都,中央区,入船１丁目３番９号,,13,102,1040042,,,,,,,2024-06-05,1,,,,,モントレーキャピタルマネジメントジャパン,0
2469,9010001245527,新規,0,2024-06-05,2024-06-05,株式会社ＸＩＣ,,株式会社,東京都,中央区,銀座１丁目１２番４号Ｎ＆ＥＢＬＤ．６Ｆ,,13,102,1040061,,,,,,,2024-06-05,1,,,,,シック,0
2471,9010003043920,新規,0,2024-06-05,2024-06-05,ＳＯＮＩＡ・マーケット・コンサルティング合同会社,,合同会社,東京都,中央区,銀座１丁目１２－４Ｎ＆ＥＢＬＤ．７階,,13,102,1040061,,,,,,,2024-06-05,1,,,,,ソニアマーケットコンサルティング,0
2484,9010401182717,新規,0,2024-06-05,2024-06-05,株式会社Ｉｍｐａｃｔ　Ｃｅｌｌ,,株式会社,東京都,港区,赤坂４丁目２－３,,13,103,1070052,,,,,,,2024-06-05,1,,,,,インパクトセル,0
2486,9010403032738,新規,0,2024-06-05,2024-06-05,ＪＡＹＫＥＩ　ＧＡＭＥＳ合同会社,,合同会社,東京都,港区,六本木３丁目２番１号,,13,103,1060032,,,,,,,2024-06-05,1,,,,,ジェイケイゲームス,0
2492,9010601065300,新規,0,2024-06-05,2024-06-05,三道株式会社,,株式会社,東京都,墨田区,業平２丁目１６番４号ホーユウコンフォルト隅田公園６０３,,13,107,1300002,,,,,,,2024-06-05,1,,,,,サンドウ,0
2502,9011001162357,新規,0,2024-06-05,2024-06-05,株式会社ディアモン,,株式会社,東京都,渋谷区,代々木１丁目３０番１５号天翔代々木ビル１階Ｓ１１４号室,,13,113,1510053,,,,,,,2024-06-05,1,,,,,ディアモン,0
2503,9011001162415,新規,0,2024-06-05,2024-06-05,株式会社アノライズ,,株式会社,東京都,渋谷区,道玄坂１丁目１０番８号渋谷道玄坂東急ビル２Ｆ－Ｃ,,13,113,1500043,,,,,,,2024-06-05,1,,,,,アノライズ,0
2504,9011003019308,新規,0,2024-06-05,2024-06-05,ＲＩＣＯＲＩＣＯ合同会社,,合同会社,東京都,渋谷区,神宮前２丁目５番１４号阪口ビル２０１,,13,113,1500001,,,,,,,2024-06-05,1,,,,,リコリコ,0
2511,9011101107534,新規,0,2024-06-05,2024-06-05,思遠株式会社,,株式会社,東京都,新宿区,高田馬場４丁目１８－９ハイシティ高田馬場２０１,,13,104,1690075,,,,,,,2024-06-05,1,,,,,シオン,0
2512,9011101107567,新規,0,2024-06-05,2024-06-05,株式会社Ｂｌｕｅ　Ｃｈｅｅｓｅ,,株式会社,東京都,新宿区,大京町３１番地４－５０５号,,13,104,1600015,,,,,,,2024-06-05,1,,,,,ブルーチーズ,0
2519,9011501030757,新規,0,2024-06-05,2024-06-05,株式会社オービーエム,,株式会社,東京都,北区,西ケ原１丁目６４番１４号,,13,117,1140024,,,,,,,2024-06-05,1,,,,,オービーエム,0
2521,9011601027802,新規,0,2024-06-05,2024-06-05,株式会社ＢＲＥＳＴ,,株式会社,東京都,練馬区,大泉町５丁目７番６号メルヴェーユＣ,,13,120,1780062,,,,,,,2024-06-05,1,,,,,ブレスト,0
2523,9011701027347,新規,0,2024-06-05,2024-06-05,株式会社フロンティア,,株式会社,東京都,江戸川区,南小岩６丁目１２番２１号,,13,123,1330056,,,,,,,2024-06-05,1,,,,,フロンティア,0
2524,9011801044333,新規,0,2024-06-05,2024-06-05,株式会社安藤電工,,株式会社,東京都,足立区,伊興２丁目１番１５号,,13,121,1210823,,,,,,,2024-06-05,1,,,,,アンドウデンコウ,0
2530,9012403006597,新規,0,2024-06-05,2024-06-05,合同会社リベラリンク,,合同会社,東京都,三鷹市,井の頭２丁目３０番１３－１０３号,,13,204,1810001,,,,,,,2024-06-05,1,,,,,リベラリンク,0
2531,9012701018286,新規,0,2024-06-05,2024-06-05,株式会社小針架設,,株式会社,東京都,小平市,小川町２丁目１２５１番地の１３－２０１,,13,211,1870032,,,,,,,2024-06-05,1,,,,,コバリカセツ,0
2532,9012803003418,新規,0,2024-06-05,2024-06-05,合同会社ＹＲ　ＰＬＵＳ,,合同会社,東京都,立川市,錦町５丁目２番２４号,,13,202,1900022,,,,,,,2024-06-05,1,,,,,ワイアールプラス,0
2543,9020003026263,新規,0,2024-06-05,2024-06-05,Ｍａ２Ｈ合同会社,,合同会社,神奈川県,川崎市中原区,小杉町２丁目２２８番地１Ｗ２８０２,,14,133,2110063,,,,,,,2024-06-05,1,,,,,エムエーツーエイチ,0
2545,9020005016436,新規,0,2024-06-05,2024-06-05,特定非営利活動法人カラバオの会,,その他の設立登記法人,神奈川県,横浜市中区,寿町３丁目１０番地１３金岡ビル５０５号室,,14,104,2310026,,,,,,,2024-06-05,1,,,,,カラバオノカイ,0
2551,9021003014605,新規,0,2024-06-05,2024-06-05,合同会社ＭａｙｕＭａｙｕ,,合同会社,神奈川県,平塚市,御殿２丁目５番２０号,,14,203,2540061,,,,,,,2024-06-05,1,,,,,マユマユ,0
2559,9030001160708,新規,0,2024-06-05,2024-06-05,ＡＲＫテック株式会社,,株式会社,埼玉県,朝霞市,泉水２丁目１番１４－２０３号泉水ガーデン,,11,227,3510024,,,,,,,2024-06-05,1,,,,,アークテック,0
2566,9030003024415,新規,0,2024-06-05,2024-06-05,合同会社キトハルト．,,合同会社,埼玉県,川口市,幸町２丁目２番１６－１１０５号,,11,203,3320016,,,,,,,2024-06-05,1,,,,,キトハルト,0
2567,9030003024423,新規,0,2024-06-05,2024-06-05,エチュードリビング合同会社,,合同会社,埼玉県,新座市,東北２丁目２４番４１号,,11,230,3520001,,,,,,,2024-06-05,1,,,,,エチュードリビング,0
2568,9030003024431,新規,0,2024-06-05,2024-06-05,合同会社ＫＡＴＳＵＧＡＴＳＵ,,合同会社,埼玉県,東松山市,大字岩殿９６番地,,11,212,3550065,,,,,,,2024-06-05,1,,,,,カツガツ,0
2571,9040001133885,新規,0,2024-06-05,2024-06-05,株式会社アーバンデール,,株式会社,千葉県,鴨川市,天津２０７５番地１,,12,223,2995503,,,,,,,2024-06-05,1,,,,,アーバンデール,0
2572,9040001133927,新規,0,2024-06-05,2024-06-05,株式会社エムエーオー,,株式会社,千葉県,松戸市,三矢小台４丁目１６番地の３３,,12,207,2710087,,,,,,,2024-06-05,1,,,,,エムエーオー,0
2575,9040003025115,新規,0,2024-06-05,2024-06-05,合同会社ＤＥＮ‐ｅｎ,,合同会社,千葉県,長生郡一宮町,一宮１３－１２,,12,421,2994301,,,,,,,2024-06-05,1,,,,,デンエン,0
2576,9040003025123,新規,0,2024-06-05,2024-06-05,合同会社クロススクエア,,合同会社,千葉県,大網白里市,北飯塚２４６－７,,12,239,2993218,,,,,,,2024-06-05,1,,,,,クロススクエア,0
2577,9040005022416,新規,0,2024-06-05,2024-06-05,団地管理組合法人原山レジデンス管理組合,,その他の設立登記法人,千葉県,印西市,原山３丁目９番７号,,12,231,2701341,,,,,,,2024-06-05,1,,,,,ハラヤマレジデンスカンリクミアイ,0
2580,9050001054874,新規,0,2024-06-05,2024-06-05,株式会社ｃ．ａ．ｍ．ｐ,,株式会社,茨城県,水戸市,開江町１３７番地の５０,,08,201,3114144,,,,,,,2024-06-05,1,,,,,シーエーエムピー,0
2592,9060005010212,新規,0,2024-06-05,2024-06-05,一般社団法人ひびとりどり,,その他の設立登記法人,栃木県,大田原市,本町２丁目２８３０番地３２,,09,210,3240041,,,,,,,2024-06-05,1,,,,,ヒビトリドリ,0
2594,9070001041821,新規,0,2024-06-05,2024-06-05,黒澤株式会社,,株式会社,群馬県,前橋市,千代田町５丁目７番３４号,,10,201,3710022,,,,,,,2024-06-05,1,,,,,クロサワ,0
2600,9080101024774,新規,0,2024-06-05,2024-06-05,通智株式会社,,株式会社,静岡県,賀茂郡東伊豆町,稲取１０８９番５９,,22,301,4130411,,,,,,,2024-06-05,1,,,,,ツウチ,0
2607,9100003007503,新規,0,2024-06-05,2024-06-05,合同会社ＦＲＩＥＤＥＮ,,合同会社,長野県,茅野市,ちの８８２番地６ラ・ピエールＩＩ１０２号,00135028,20,214,3910001,,,,,,,2024-06-05,1,,,,,フリーデン,0
2608,9100003007585,新規,0,2024-06-05,2024-06-05,合同会社Ｌｅｓ　Ｍｕｓｅｓ　ｄ’ｕｎｉｖｅｒｓ,,合同会社,長野県,北佐久郡軽井沢町,大字追分３２１－７０,,20,321,3890115,,,,,,,2024-06-05,1,,,,,レミューズデュニヴェール,0
2624,9120001265530,新規,0,2024-06-05,2024-06-05,ＣＯ２ＷＯＲＬＤ　ＢＡＮＫ株式会社,,株式会社,大阪府,大阪市淀川区,十三本町１丁目１０番２号十三Ａビル４Ｆ,,27,123,5320024,,,,,,,2024-06-05,1,,,,,シーオーツーワールドバンク,0
2625,9120001265539,新規,0,2024-06-05,2024-06-05,株式会社グッドフーズジャパン,,株式会社,大阪府,大阪市北区,中津３丁目１１番２－５０２号,,27,127,5310071,,,,,,,2024-06-05,1,,,,,グッドフーズジャパン,0
2626,9120001265547,新規,0,2024-06-05,2024-06-05,株式会社ジャパンサミットコンサルティング,,株式会社,大阪府,大阪市城東区,放出西２丁目５番３号,,27,118,5360011,,,,,,,2024-06-05,1,,,,,ジャパンサミットコンサルティング,0
2627,9120001265563,新規,0,2024-06-05,2024-06-05,春夏夏株式会社,,株式会社,大阪府,大阪市中央区,松屋町９番２０号ローレルステート松屋町７０９Ｂ,,27,128,5420067,,,,,,,2024-06-05,1,,,,,シュンカカ,0
2629,9120103005867,新規,0,2024-06-05,2024-06-05,サクラグループ合同会社,,合同会社,大阪府,岸和田市,内畑町２９８番地,,27,202,5960105,,,,,,,2024-06-05,1,,,,,サクラグループ,0
2630,9120901049272,新規,0,2024-06-05,2024-06-05,株式会社Ｌｒｅａ,,株式会社,大阪府,茨木市,西駅前町４番１０７号,,27,211,5670032,,,,,,,2024-06-05,1,,,,,エルレア,0
2642,9140001134535,新規,0,2024-06-05,2024-06-05,一番星株式会社,,株式会社,兵庫県,神戸市中央区,元町通５丁目２番３－１０６号,,28,110,6500022,,,,,,,2024-06-05,1,,,,,イチバンボシ,0
2643,9140001134634,新規,0,2024-06-05,2024-06-05,ステラクス株式会社,,株式会社,兵庫県,宍粟市,山崎町三津３２０番地２２グランディール３０６,,28,227,6712516,,,,,,,2024-06-05,1,,,,,ステラクス,0
2644,9140001134659,新規,0,2024-06-05,2024-06-05,株式会社リブリーフ,,株式会社,兵庫県,加古川市,志方町原７５９－１,,28,210,6750335,,,,,,,2024-06-05,1,,,,,リブリーフ,0
2650,9150001027325,新規,0,2024-06-05,2024-06-05,株式会社ＮＩＣＯ,,株式会社,奈良県,生駒市,東生駒１丁目６５番地４０４号,,29,209,6300213,,,,,,,2024-06-05,1,,,,,ニコ,0
2661,9180005020645,新規,0,2024-06-05,2024-06-05,特定非営利活動法人ルームパレット,,その他の設立登記法人,愛知県,知多郡阿久比町,大字卯坂字堂山４８番地３,,23,441,4702212,,,,,,,2024-06-05,1,,,,,ルームパレット,0
2662,9180005020653,新規,0,2024-06-05,2024-06-05,一般社団法人全国工事測量協会,,その他の設立登記法人,愛知県,名古屋市港区,港楽３丁目８番１６号明興産業ビル２階,,23,111,4550014,,,,,,,2024-06-05,1,,,,,ゼンコクコウジソクリョウキョウカイ,0
2666,9190001031389,新規,0,2024-06-05,2024-06-05,株式会社エムジェイ,,株式会社,三重県,三重郡川越町,大字豊田９６１番地,,24,344,5108122,,,,,,,2024-06-05,1,,,,,エムジェイ,0
2670,9210003001800,新規,0,2024-06-05,2024-06-05,合同会社デザインライフＭＫ,,合同会社,福井県,大飯郡おおい町,名田庄小倉第２３号９番地１,,18,483,9170371,,,,,,,2024-06-05,1,,,,,デザインライフエムケー,0
2673,9230003002219,新規,0,2024-06-05,2024-06-05,合同会社Ｐｌｅａｓｕｒｅ　ｏｆ　Ｌｉｆｅ,,合同会社,富山県,中新川郡立山町,西大森４７番,,16,323,9300267,,,,,,,2024-06-05,1,,,,,プレジャーオブライフ,0
2674,9230005009393,新規,0,2024-06-05,2024-06-05,一般社団法人Ｑｕａｎｔｕｍ　Ｏｂｓｅｒｖａｔｉｏｎ　Ｌａｂ,,その他の設立登記法人,富山県,富山市,婦中町速星４２５番地１,,16,201,9392706,,,,,,,2024-06-05,1,,,,,クオンタムオブザベーションラボ,0
2681,9240001063311,新規,0,2024-06-05,2024-06-05,株式会社門井ホールディングス,,株式会社,広島県,福山市,明神町１丁目４番１５号,,34,207,7210961,,,,,,,2024-06-05,1,,,,,カドイホールディングス,0
2682,9240003006706,新規,0,2024-06-05,2024-06-05,合同会社Ｆｅｌｉａｌｎｚａｒ,,合同会社,広島県,広島市安佐北区,可部東２丁目１２―１１,,34,106,7310222,,,,,,,2024-06-05,1,,,,,フェリアランサー,0
2684,9250001020674,新規,0,2024-06-05,2024-06-05,株式会社光真運送,,株式会社,山口県,光市,室積西ノ庄１６番１３号,,35,210,7430074,,,,,,,2024-06-05,1,,,,,コウシンウンソウ,0
2688,9250005008922,新規,0,2024-06-05,2024-06-05,一般社団法人西高泊保育園,,その他の設立登記法人,山口県,山陽小野田市,大字西高泊１８６７番１,,35,216,7560057,,,,,,,2024-06-05,1,,,,,ニシタカドマリホイクエン,0
2690,9260001039144,新規,0,2024-06-05,2024-06-05,株式会社蒼天,,株式会社,岡山県,勝田郡勝央町,岡５番地１,,33,622,7094311,,,,,,,2024-06-05,1,,,,,ソウテン,0
2694,9290001105983,新規,0,2024-06-05,2024-06-05,株式会社クオリティジャパン,,株式会社,福岡県,福岡市中央区,平尾４丁目１８番３２－３０１号グランドヒルズ平尾ミュゼオ,,40,133,8100014,,,,,,,2024-06-05,1,,,,,クオリティジャパン,0
2695,9290001106024,新規,0,2024-06-05,2024-06-05,株式会社ＦＫ　ＡＳＳＩＳＴ,,株式会社,福岡県,福岡市南区,塩原３丁目１４－２３デイプレイス大橋３０３号室,,40,134,8150032,,,,,,,2024-06-05,1,,,,,エフケイアシスト,0
2696,9290001106032,新規,0,2024-06-05,2024-06-05,株式会社流守,,株式会社,福岡県,糟屋郡粕屋町,内橋西３丁目１２番１号カレンシーハイツ西村６０１号室,,40,349,8112321,,,,,,,2024-06-05,1,,,,,ルカミ,0
2697,9290801030621,新規,0,2024-06-05,2024-06-05,窪田建機サービス株式会社,,株式会社,福岡県,直方市,大字植木１４１６番地６,,40,204,8220031,,,,,,,2024-06-05,1,,,,,クボタケンキサービス,0
2698,9290803004747,新規,0,2024-06-05,2024-06-05,ＨＡＭＡＮＯ合同会社,,合同会社,福岡県,豊前市,大字八屋１８８９－３－２Ｆ,,40,214,8280021,,,,,,,2024-06-05,1,,,,,ハマノ,0
2699,9310001019041,新規,0,2024-06-05,2024-06-05,竹下総業株式会社,,株式会社,長崎県,佐世保市,有福町２４８４番地,,42,202,8593241,,,,,,,2024-06-05,1,,,,,タケシタソウギョウ,0
2700,9310003004801,新規,0,2024-06-05,2024-06-05,フェイズ合同会社,,合同会社,長崎県,長崎市,魚の町６番２２号吉田ビル４０３,,42,201,8500874,,,,,,,2024-06-05,1,,,,,,0
2702,9320001020510,新規,0,2024-06-05,2024-06-05,株式会社ＨＡＺＩＭＥ,,株式会社,大分県,宇佐市,大字上乙女５番地,,44,211,8790303,,,,,,,2024-06-05,1,,,,,ハジメ,0
2706,9330001032133,新規,0,2024-06-05,2024-06-05,株式会社ＳＥＩＳＨＩＮ,,株式会社,熊本県,菊池郡菊陽町,花立２丁目９番２７号,,43,404,8691113,,,,,,,2024-06-05,1,,,,,セイシン,0
2708,9330003010401,新規,0,2024-06-05,2024-06-05,合同会社Ｏｓｅｋｋａｉ,,合同会社,熊本県,荒尾市,樺６８３番地２,,43,204,8640165,,,,,,,2024-06-05,1,,,,,オセッカイ,0
2710,9340001026555,新規,0,2024-06-05,2024-06-05,株式会社作ファーム,,株式会社,鹿児島県,南九州市,知覧町郡４６３０番地１３２ウッドタウン２３,,46,223,8970302,,,,,,,2024-06-05,1,,,,,サクファーム,0
2712,9340005009738,新規,0,2024-06-05,2024-06-05,アジアヒューマンリソースアソシエーション協同組合,,その他の設立登記法人,鹿児島県,薩摩川内市,陽成町１４６６番地１,,46,215,8950212,,,,,,,2024-06-05,1,,,,,アジアヒューマンリソースアソシエーション,0
2716,9360001033756,新規,0,2024-06-05,2024-06-05,株式会社Ｓａｖａｇｅ　Ｆａｒｍ,,株式会社,沖縄県,中頭郡北谷町,伊平２丁目１９番９号ワイズエステムコートウエスト７０７号,,47,326,9040102,,,,,,,2024-06-05,1,,,,,サベージファーム,0
2720,9360005007046,新規,0,2024-06-05,2024-06-05,一般社団法人宿命鑑定カウンセリング協会,,その他の設立登記法人,沖縄県,那覇市,松尾１丁目１０番２４号ホークシティ那覇ビル１Ｆ,00135015,47,201,9000014,,,,,,,2024-06-05,1,,,,,シュクメイカンテイカウンセリングキョウカイ,0
2725,9400003003281,新規,0,2024-06-05,2024-06-05,合同会社菊地牧場,,合同会社,岩手県,滝沢市,大釜中道１２４番地５,,03,216,0200767,,,,,,,2024-06-05,1,,,,,キクチボクジョウ,0
2727,9420001018750,新規,0,2024-06-05,2024-06-05,株式会社やまなみ,,株式会社,青森県,青森市,大字浜田字玉川２１４番地１９,,02,201,0300843,,,,,,,2024-06-05,1,,,,,ヤマナミ,0
2734,9430001091961,新規,0,2024-06-05,2024-06-05,株式会社アンドカムイ,,株式会社,北海道,余市郡赤井川村,字常盤４４３番地１,,01,409,0460571,,,,,,,2024-06-05,1,,,,,アンドカムイ,0
2737,9430003016413,新規,0,2024-06-05,2024-06-05,合同会社Ａ．ｏｎｅ,,合同会社,北海道,札幌市白石区,南郷通１１丁目南１番１号,,01,104,0030022,,,,,,,2024-06-05,1,,,,,エードットワン,0
2742,9480001012500,新規,0,2024-06-05,2024-06-05,株式会社ＦＯＲＭ,,株式会社,徳島県,徳島市,佐古一番町１８番１１－４０３号サーパス佐古一番町,,36,201,7700021,,,,,,,2024-06-05,1,,,,,フォーム,0
2751,9490001010791,新規,0,2024-06-05,2024-06-05,株式会社ＴＫ設備,,株式会社,高知県,高知市,大津乙１２３１番地１－１０１,,39,201,7815103,,,,,,,2024-06-05,1,,,,,ティーケーセツビ,0
2752,9500001025672,新規,0,2024-06-05,2024-06-05,株式会社萩山建装,,株式会社,愛媛県,松山市,庄甲９００番地,,38,201,7992404,,,,,,,2024-06-05,1,,,,,ハギヤマケンソウ,0
2753,9700150112516,新規,0,2024-06-05,2024-06-05,Ｔｅｒｅｎｏ　Ｓｄｎ　Ｂｈｄ,,外国会社等,,,,,,,,１５（２ｎｄ　ｆｌｏｏｒ），Ｊａｌａｎ　Ｔｅｍｏｈ　Ｋａｗａｓａｎ　１８　Ｋｌａｎｇ　Ｓｅｌａｎｇｏｒ，４１４００　Ｍａｌａｙｓｉａ,,,,,,2024-06-05,1,,,,,テレノスンディリアンブルハド,0
2754,9700150119131,新規,0,2024-06-05,2024-06-05,Ｓｈｅｎｚｈｅｎ　Ｊｉａｓｈｉｄａ　Ｔｅｃｈｎｏｌｏｇｙ　Ｃｏ．，Ｌｔｄ．,,外国会社等,,,,,,,,Ｆｌｏｏｒ４，ＢｕｉｌｄｉｎｇＡ，Ｙｉｎｇｄａｆｅｎｇ　Ｉｎｄｕｓｔｒｉａｌ　Ｚｏｎｅ，Ｊｉｈｕａ　Ｒｏａｄ，Ｓｈｅｎｚｈｅｎ　Ｇｕａｎｇｄｏｎｇ,,,,,,2024-06-05,1,,,,,シンセンカシタカイギウユウゲンガイシャ,0
2755,9700150125765,新規,0,2024-06-05,2024-06-05,Ｓｈａｎｇｈａｉ　ＪＵＮＪＩＡＹＩ　Ｓｕｐｐｌｙ　Ｃｈａｉｎ　Ｍａｎａｇｅｍｅｎｔ　Ｃｏ．，Ｌｔｄ,,外国会社等,,,,,,,,Ｗａｒｅｈｏｕｓｅ　３，Ｎｏ．１５，Ｌａｎｅ　２４８，Ｈｕｑｉｎｇｐｉｎｇ　Ｒｏａｄ，Ｍｉｎｈａｎｇ　Ｄｉｓｔｒｉｃｔ，Ｓｈａｎｇｈａｉ，Ｃｈｉｎａ,,,,,,2024-06-05,1,,,,,シヤンハイジユンジアイーサプライチエーンマネジメントカンパニーリミテツド,0
