sequenceNumber,corporateNumber,process,correct,updateDate,changeDate,name,nameImageId,kind,prefectureName,cityName,streetNumber,addressImageId,prefectureCode,cityCode,postCode,addressOutside,addressOutsideImageId,closeDate,closeCause,successorCorporateNumber,changeCause,assignmentDate,latest,enName,enPrefectureName,enCityName,enAddressOutside,furigana,hihyoji
8,1010001231179,新規,0,2022-12-07,2022-12-07,株式会社嵐浦,,株式会社,東京都,千代田区,外神田２丁目５番９－１００１号,,13,101,1010021,,,,,,,2022-12-07,1,,,,,ランプ,0
9,1010001231286,新規,0,2022-12-07,2022-12-07,株式会社Ｊ２,,株式会社,東京都,千代田区,平河町１丁目３番１３号ＣＩＲＣＬＥＳ平河町１１階,,13,101,1020093,,,,,,,2022-12-07,1,,,,,ジェイツー,0
11,1010003039265,新規,0,2022-12-07,2022-12-07,合同会社ＹＯＬＯ,,合同会社,東京都,中央区,日本橋小舟町６番４‐３０３号,,13,102,1030024,,,,,,,2022-12-07,1,,,,,ヨロ,0
12,1010101015440,新規,0,2022-12-07,2022-12-07,山二商事株式会社,,株式会社,東京都,八王子市,泉町１４７３番地の２,,13,201,1930814,,,,,,,2022-12-07,1,,,,,ヤマニショウジ,0
13,1010103002032,新規,0,2022-12-07,2022-12-07,馳揚レンタル合同会社,,合同会社,東京都,八王子市,子安町１丁目４８番９号共立リライアンス子安２０２号室,,13,201,1920904,,,,,,,2022-12-07,1,,,,,チョウレンタル,0
21,1010401171223,新規,0,2022-12-07,2022-12-07,株式会社ＮＡＴＩＶＥ　ＧＲＵＢ,,株式会社,東京都,港区,南青山３丁目１番３６号青山丸竹ビル６Ｆ,,13,103,1070062,,,,,,,2022-12-07,1,,,,,ネイティブグラブ,0
25,1010501013291,新規,0,2022-12-07,2022-12-07,株式会社店舗家具商会,,株式会社,東京都,台東区,松が谷１丁目１１番９号,,13,106,1110036,,,,,,,2022-12-07,1,,,,,テンポカグショウカイ,0
32,1010601062263,新規,0,2022-12-07,2022-12-07,株式会社クォリティーズ,,株式会社,東京都,江東区,豊洲４丁目７番６－８０２号,,13,108,1350061,,,,,,,2022-12-07,1,,,,,クォリティーズ,0
35,1010703006498,新規,0,2022-12-07,2022-12-07,ＫＷＧ合同会社,,合同会社,東京都,品川区,西五反田２丁目１９－１２五反田井門ビル,,13,109,1410031,,,,,,,2022-12-07,1,,,,,ケイダブリュージー,0
36,1010801033493,新規,0,2022-12-07,2022-12-07,ＷＨジャパン株式会社,,株式会社,東京都,大田区,仲六郷１丁目４５番８号リヴイン共進仲六郷１０７,,13,111,1440055,,,,,,,2022-12-07,1,,,,,ダブリューエイチジャパン,0
46,1011003015801,新規,0,2022-12-07,2022-12-07,浅井宗裕合同会社,,合同会社,東京都,目黒区,八雲３丁目１－７－１０５インペリアル八雲ハイム,,13,110,1520023,,,,,,,2022-12-07,1,,,,,アサイムネヒロ,0
61,1011601026415,新規,0,2022-12-07,2022-12-07,ＳｕｚｕＣｏｎｓｕｌｔｉｎｇ株式会社,,株式会社,東京都,練馬区,田柄５丁目４番１３号,,13,120,1790073,,,,,,,2022-12-07,1,,,,,スズコンサルティング,0
63,1011801041643,新規,0,2022-12-07,2022-12-07,Ｉｎｔｏ株式会社,,株式会社,東京都,足立区,皿沼２丁目５番１２号,,13,121,1230862,,,,,,,2022-12-07,1,,,,,イントゥー,0
64,1011801041651,新規,0,2022-12-07,2022-12-07,株式会社Ｍ’ｓ,,株式会社,東京都,葛飾区,西亀有４丁目７番１３号,,13,122,1250002,,,,,,,2022-12-07,1,,,,,エムズ,0
67,1012401039945,新規,0,2022-12-07,2022-12-07,株式会社Ｔｒｉｏｍｐｈｅ,,株式会社,東京都,府中市,若松町３丁目１４番地の１１,,13,206,1830005,,,,,,,2022-12-07,1,,,,,トリオンフ,0
70,1012801021998,新規,0,2022-12-07,2022-12-07,株式会社ベベボーイ,,株式会社,東京都,国分寺市,本多１丁目１０番１４号ＢＥＬＩＳＴＡ国分寺２０７,,13,214,1850011,,,,,,,2022-12-07,1,,,,,ベベボーイ,0
71,1012801022006,新規,0,2022-12-07,2022-12-07,株式会社ヒューマンライフ,,株式会社,東京都,立川市,錦町１丁目５番１４号メゾンＮ１０２,,13,202,1900022,,,,,,,2022-12-07,1,,,,,,0
75,1013301049976,新規,0,2022-12-07,2022-12-07,ラルフ株式会社,,株式会社,東京都,豊島区,西池袋１丁目１５番３号,,13,116,1710021,,,,,,,2022-12-07,1,,,,,ラルフ,0
76,1013301050026,新規,0,2022-12-07,2022-12-07,株式会社タイムメルト,,株式会社,東京都,豊島区,高松１丁目１番１１号東京ファーストシティビル４Ｆ,,13,116,1710042,,,,,,,2022-12-07,1,,,,,タイムメルト,0
77,1013301050034,新規,0,2022-12-07,2022-12-07,株式会社ストリム,,株式会社,東京都,豊島区,西池袋３丁目２９番９号福利ビル４Ｆ,,13,116,1710021,,,,,,,2022-12-07,1,,,,,ストリム,0
78,1013301050042,新規,0,2022-12-07,2022-12-07,ＳＫＹ株式会社,,株式会社,東京都,豊島区,駒込１丁目３４番２号ヒルクレスト駒込６０７室,,13,116,1700003,,,,,,,2022-12-07,1,,,,,スカイ,0
88,1020005015742,新規,0,2022-12-07,2022-12-07,医療法人Ｄｅｎｔａｌ　Ｃｏｍｍｕｎｉｔｙ,,その他の設立登記法人,神奈川県,横浜市港南区,港南台７丁目８番４４号,,14,111,2340054,,,,,,,2022-12-07,1,,,,,デンタルコミュニティ,0
93,1021001077611,新規,0,2022-12-07,2022-12-07,株式会社ＲＩＳＥ,,株式会社,神奈川県,座間市,緑ケ丘１丁目２４番８号,,14,216,2520021,,,,,,,2022-12-07,1,,,,,ライズ,0
95,1021003012459,新規,0,2022-12-07,2022-12-07,合同会社小野商会,,合同会社,神奈川県,相模原市中央区,富士見５丁目６番６－２０１,,14,152,2520236,,,,,,,2022-12-07,1,,,,,オノショウカイ,0
99,1030001151359,新規,0,2022-12-07,2022-12-07,株式会社ＦＬＯＲＩＡ,,株式会社,埼玉県,上尾市,上平中央２丁目３１番地２８,,11,219,3620008,,,,,,,2022-12-07,1,,,,,フローリア,0
104,1030003020693,新規,0,2022-12-07,2022-12-07,合同会社Ａ．Ｈ．Ｅ,,合同会社,埼玉県,春日部市,東中野１５１８番地６４,,11,214,3440114,,,,,,,2022-12-07,1,,,,,エーエイチイー,0
105,1030003020710,新規,0,2022-12-07,2022-12-07,Ｂｌｕｅ　Ｗｉｌｌｏｗ　Ｓｙｓｔｅｍｓ合同会社,,合同会社,埼玉県,鴻巣市,人形２丁目１番２１号,,11,217,3650037,,,,,,,2022-12-07,1,,,,,ブルーウィロウシステムズ,0
112,1040001126062,新規,0,2022-12-07,2022-12-07,インフォーム株式会社,,株式会社,千葉県,船橋市,大穴南１丁目３３番１７号,,12,204,2740067,,,,,,,2022-12-07,1,,,,,インフォーム,0
113,1040001126095,新規,0,2022-12-07,2022-12-07,Ｆ‐ＴＥＣＨ株式会社,,株式会社,千葉県,柏市,みどり台１丁目８番２０号,,12,217,2770884,,,,,,,2022-12-07,1,,,,,エフテック,0
114,1040001126104,新規,0,2022-12-07,2022-12-07,株式会社ツインラボ,,株式会社,千葉県,千葉市中央区,新千葉１丁目７番２号ペリエ＋ｐｌｕｓビル３Ｆ－３６,,12,101,2600031,,,,,,,2022-12-07,1,,,,,ツインラボ,0
115,1040001126112,新規,0,2022-12-07,2022-12-07,株式会社ＶＩＺＮＡＳ,,株式会社,千葉県,松戸市,新松戸１丁目５７番地の１エクセル新松戸２０５号,,12,207,2700034,,,,,,,2022-12-07,1,,,,,ヴィズナス,0
116,1040001126129,新規,0,2022-12-07,2022-12-07,ＡＤ　ＨＯＭＥ株式会社,,株式会社,千葉県,千葉市稲毛区,長沼原町３１７－１ラ・ポルテ・ヴィス２階２Ｅ号,,12,103,2630001,,,,,,,2022-12-07,1,,,,,エデイホーム,0
117,1040001126137,新規,0,2022-12-07,2022-12-07,株式会社Ｈｕｎｄｒｅｄ　Ｓｅｍｉｃｏｎｄｕｃｔｏｒｓ,,株式会社,千葉県,柏市,布施８１０番地１１,,12,217,2770825,,,,,,,2022-12-07,1,,,,,ハンドレッドセミコンダクターズ,0
118,1040001126145,新規,0,2022-12-07,2022-12-07,株式会社とおちか,,株式会社,千葉県,匝瑳市,上谷中２２６０番地２サウスハイツＤ１０２,,12,235,2892114,,,,,,,2022-12-07,1,,,,,トオチカ,0
122,1040003021385,新規,0,2022-12-07,2022-12-07,合同会社ＧＥＲＤＯＵＴ,,合同会社,千葉県,市川市,新田３丁目１２番７号ＲＦＩＥＬＤＳＩＣＨＩＫＡＷＡ４０２号,,12,203,2720035,,,,,,,2022-12-07,1,,,,,ジェアードウト,0
123,1040003021402,新規,0,2022-12-07,2022-12-07,あねら合同会社,,合同会社,千葉県,船橋市,松が丘４丁目１１番５号,,12,204,2740064,,,,,,,2022-12-07,1,,,,,アネラ,0
125,1050001052043,新規,0,2022-12-07,2022-12-07,ニッケイホールディングス株式会社,,株式会社,茨城県,水戸市,萱場町１０４１番３,,08,201,3114154,,,,,,,2022-12-07,1,,,,,ニッケイホールディングス,0
126,1050001052051,新規,0,2022-12-07,2022-12-07,株式会社Ｌｏｆｔｕｓ,,株式会社,茨城県,稲敷郡阿見町,大字曙３４５番地５,,08,443,3000306,,,,,,,2022-12-07,1,,,,,ロフタス,0
127,1050001052068,新規,0,2022-12-07,2022-12-07,株式会社Ｃｉ‐ｒｅｆ,,株式会社,茨城県,日立市,台原町２丁目１３番３号２Ｆ,,08,202,3160021,,,,,,,2022-12-07,1,,,,,シーレフ,0
133,1070003004742,新規,0,2022-12-07,2022-12-07,合同会社アセットエルシア,,合同会社,群馬県,前橋市,箱田町２６－５,,10,201,3710837,,,,,,,2022-12-07,1,,,,,アセットエルシア,0
135,1080001025335,新規,0,2022-12-07,2022-12-07,株式会社Ｆｉｒｓｔ　Ｃｏｍｐａｎｙ,,株式会社,静岡県,静岡市葵区,瀬名川１丁目８番２５－３０１号,,22,101,4200913,,,,,,,2022-12-07,1,,,,,ファーストカンパニー,0
137,1080101023676,新規,0,2022-12-07,2022-12-07,わたなべせつび株式会社,,株式会社,静岡県,富士宮市,大岩８００番地の１２,,22,207,4180013,,,,,,,2022-12-07,1,,,,,ワタナベセツビ,0
140,1080401026189,新規,0,2022-12-07,2022-12-07,ＯＦＦＩＣＥ山田株式会社,,株式会社,静岡県,浜松市西区,入野町４７０７番地の２６,,22,133,4328061,,,,,,,2022-12-07,1,,,,,オフィスヤマダ,0
169,1120001250754,新規,0,2022-12-07,2022-12-07,株式会社ＥＣＯＴ,,株式会社,大阪府,大阪市西区,北堀江１丁目１６番１６―８０３号,,27,106,5500014,,,,,,,2022-12-07,1,,,,,エコット,0
170,1120001250762,新規,0,2022-12-07,2022-12-07,株式会社アップルクリーン,,株式会社,大阪府,大阪市生野区,小路東２丁目２３－２３,,27,116,5440003,,,,,,,2022-12-07,1,,,,,アップルクリーン,0
171,1120001250787,新規,0,2022-12-07,2022-12-07,株式会社富山工業,,株式会社,大阪府,大阪市城東区,今福東３丁目５番２９号,,27,118,5360002,,,,,,,2022-12-07,1,,,,,トミヤマコウギョウ,0
173,1120003022994,新規,0,2022-12-07,2022-12-07,ＫｉｎＮｅＫｏ合同会社,,合同会社,大阪府,大阪市天王寺区,味原町１番１７号プラスパーハイツ５０５号室,,27,109,5430023,,,,,,,2022-12-07,1,,,,,キンネコ,0
174,1120003023027,新規,0,2022-12-07,2022-12-07,ラーテルサンライズ合同会社,,合同会社,大阪府,大阪市浪速区,稲荷２丁目３番２５号ベルヴィラージュ桜川５０１号室,,27,111,5560023,,,,,,,2022-12-07,1,,,,,ラーテルサンライズ,0
184,1122001036472,新規,0,2022-12-07,2022-12-07,株式会社ウエスタンフィールド,,株式会社,大阪府,東大阪市,上小阪３丁目８番３１号,,27,227,5770806,,,,,,,2022-12-07,1,,,,,ウエスタンフィールド,0
193,1130003008365,新規,0,2022-12-07,2022-12-07,合同会社ＯｐｅｎＳｅｓａｍｅ,,合同会社,京都府,京都市中京区,錦小路通室町東入占出山町３０８ヤマチュウビル,,26,104,6048155,,,,,,,2022-12-07,1,,,,,オープンセサミ,0
203,1140001128305,新規,0,2022-12-07,2022-12-07,ＡＭＢＥＲ株式会社,,株式会社,兵庫県,神戸市垂水区,狩口台４丁目３４番１０６号,,28,108,6550049,,,,,,,2022-12-07,1,,,,,アンバー,0
208,1150003002829,新規,0,2022-12-07,2022-12-07,合同会社プランドール,,合同会社,奈良県,生駒郡三郷町,勢野東３丁目１０番７号,,29,343,6360811,,,,,,,2022-12-07,1,,,,,プランドール,0
222,1180001154108,新規,0,2022-12-07,2022-12-07,株式会社ユキヤマダ,,株式会社,愛知県,名古屋市瑞穂区,中山町６丁目８番地の５,,23,108,4670803,,,,,,,2022-12-07,1,,,,,ユキヤマダ,0
223,1180001154116,新規,0,2022-12-07,2022-12-07,株式会社スティーヅ,,株式会社,愛知県,名古屋市西区,那古野２丁目１４－１,,23,104,4510042,,,,,,,2022-12-07,1,,,,,スティーヅ,0
233,1190001029993,新規,0,2022-12-07,2022-12-07,株式会社安心,,株式会社,三重県,四日市市,八田１丁目１３番１０号,,24,202,5100001,,,,,,,2022-12-07,1,,,,,アンシン,0
234,1190005011774,新規,0,2022-12-07,2022-12-07,特定非営利活動法人トラノオ,,その他の設立登記法人,三重県,伊勢市,二見町西３８７番地１１,,24,203,5190607,,,,,,,2022-12-07,1,,,,,トラノオ,0
237,1210001019174,新規,0,2022-12-07,2022-12-07,株式会社Ｔ．Ｈ．Ｕ,,株式会社,福井県,福井市,三郎丸２丁目８２０番地フロラシオン・Ｙ１０２,,18,201,9100033,,,,,,,2022-12-07,1,,,,,ティーエイチユー,0
240,1230001019627,新規,0,2022-12-07,2022-12-07,株式会社朝風の不動産,,株式会社,富山県,富山市,本郷町１３０番地１１,,16,201,9398045,,,,,,,2022-12-07,1,,,,,アサカゼノフドウサン,0
250,1260003004120,新規,0,2022-12-07,2022-12-07,のざか合同会社,,合同会社,岡山県,備前市,吉永町南方２８６番地４,,33,211,7090223,,,,,,,2022-12-07,1,,,,,ノザカ,0
254,1290001099804,新規,0,2022-12-07,2022-12-07,株式会社みのうファーム,,株式会社,福岡県,久留米市,小頭町１２番地１ニュー大和ビル２０１,,40,203,8300045,,,,,,,2022-12-07,1,,,,,ミノウファーム,0
255,1290001099820,新規,0,2022-12-07,2022-12-07,株式会社ＬＩＢ,,株式会社,福岡県,福岡市博多区,博多駅前１丁目２３番１号ＰａｒｋＦｒｏｎｔ博多駅前一丁目５Ｆ－Ｂ,,40,132,8120011,,,,,,,2022-12-07,1,,,,,リブ,0
260,1290003013291,新規,0,2022-12-07,2022-12-07,合同会社あきまさ,,合同会社,福岡県,久留米市,南４丁目１０番１１号,,40,203,8300051,,,,,,,2022-12-07,1,,,,,アキマサ,0
263,1290801029092,新規,0,2022-12-07,2022-12-07,リベルテ株式会社,,株式会社,福岡県,田川市,大字弓削田２３３番地２,,40,206,8260041,,,,,,,2022-12-07,1,,,,,リベルテ,0
264,1300001013151,新規,0,2022-12-07,2022-12-07,株式会社Ｔ＆Ｆ,,株式会社,佐賀県,西松浦郡有田町,本町乙３００７番地８,,41,401,8440018,,,,,,,2022-12-07,1,,,,,ティーアンドエフ,0
274,1330003009608,新規,0,2022-12-07,2022-12-07,合同会社ＴＯＲＩＤＯＲＩ,,合同会社,熊本県,熊本市中央区,下通１丁目６－４,,43,101,8600807,,,,,,,2022-12-07,1,,,,,トリドリ,0
276,1360003012518,新規,0,2022-12-07,2022-12-07,サンテック合同会社,,合同会社,沖縄県,豊見城市,字高安５８６番地,,47,212,9010242,,,,,,,2022-12-07,1,,,,,サンテック,0
277,1360003012526,新規,0,2022-12-07,2022-12-07,合同会社カウカウクリーン,,合同会社,沖縄県,宮古島市,平良字西里２０１３番地３,,47,214,9060012,,,,,,,2022-12-07,1,,,,,カウカウクリーン,0
281,1380001033316,新規,0,2022-12-07,2022-12-07,株式会社ＦＣＡＣ,,株式会社,福島県,福島市,宮下町１７番１８号,,07,201,9608011,,,,,,,2022-12-07,1,,,,,エフシーエーシー,0
289,1430001087967,新規,0,2022-12-07,2022-12-07,岡本広告制作所株式会社,,株式会社,北海道,札幌市中央区,南二条西１０丁目１０００番地２０ＵＧＡ札幌南２条ビル６階,,01,101,0600062,,,,,,,2022-12-07,1,,,,,オカモトコウコクセイサクジョ,0
290,1430001087975,新規,0,2022-12-07,2022-12-07,株式会社ＹＯＮＥ設備,,株式会社,北海道,札幌市手稲区,富丘一条５丁目３番１３号,,01,109,0060011,,,,,,,2022-12-07,1,,,,,ヨネセツビ,0
301,1470003002301,新規,0,2022-12-07,2022-12-07,合同会社瀬戸内ユニオン,,合同会社,香川県,仲多度郡多度津町,本通１丁目７番９号,,37,404,7640014,,,,,,,2022-12-07,1,,,,,セトウチユニオン,0
306,1500001024632,新規,0,2022-12-07,2022-12-07,株式会社ひまち,,株式会社,愛媛県,新居浜市,泉宮町９番３８号,,38,205,7920021,,,,,,,2022-12-07,1,,,,,ヒマチ,0
308,1700150113281,新規,0,2022-12-07,2022-12-07,ＡＹＡＡＮＡ　ＥＮＴＥＲＰＲＩＳＥＳ,,外国会社等,千葉県,山武市,上横地４５５４番地１７－Ａ,,12,237,2891313,スリランカ民主社会主義共和国、キャンディ、アラワトゥゴダ、８ｔｈマイルポスト、２８８,,,,,,2022-12-07,1,,,,,アヤアナエンタープライズ,0
309,1700150113298,新規,0,2022-12-07,2022-12-07,Ｌｏｎｄｏｎ　Ｂｒｉｄｇｅ　Ｃｏｒｐｏｒａｔｅ　Ｍｅｍｂｅｒ　Ｎｏ．１　Ｌｉｍｉｔｅｄ,,外国会社等,東京都,千代田区,霞が関３丁目２－６東京倶楽部ビルディング６階　ロイズジャパン株式会社内,,13,101,1000013,Ｏｎｅ　Ｌｉｍｅ　Ｓｔｒｅｅｔ　Ｌｏｎｄｏｎ　ＥＣ３Ｍ　７ＨＡ　ＵＫ,,,,,,2022-12-07,1,,,,,ロンドンブリツジコーポレートメンバーナンバーワンリミテツド,0
310,1700150113307,新規,0,2022-12-07,2022-12-07,Ｎａｍｅｃｏ（Ｎｏ．１３６１）Ｌｉｍｉｔｅｄ,,外国会社等,東京都,千代田区,霞が関３丁目２－６東京倶楽部ビルディング６階　ロイズジャパン株式会社内,,13,101,1000013,Ｏｎｅ　Ｌｉｍｅ　Ｓｔｒｅｅｔ　Ｌｏｎｄｏｎ　ＥＣ３Ｍ　７ＨＡ　ＵＫ,,,,,,2022-12-07,1,,,,,ネームコナンバーワンスリーシツクスワンリミテツド,0
311,1700150113315,新規,0,2022-12-07,2022-12-07,Ｐｉｓｃｉｓ　Ｆｏｒｕｍ，ＬＬＣ,,外国会社等,東京都,江東区,豊洲５丁目１－３－３５０９,,13,108,1350061,３００　Ｄｅｌａｗａｒｅ　Ａｖｅ．Ｓｔｅ　２１０，Ｗｉｌｍｉｎｇｔｏｎ，１９８０１－６６０１，ＵＳＡ,,,,,,2022-12-07,1,,,,,ピスキスフオーラムエルエルシー,0
317,2010001231351,新規,0,2022-12-07,2022-12-07,株式会社ＴＯＢＹ,,株式会社,東京都,文京区,湯島４丁目１１番１６－６０８号,,13,105,1130034,,,,,,,2022-12-07,1,,,,,トビー,0
318,2010001231368,新規,0,2022-12-07,2022-12-07,株式会社Ｍ＆Ｈ,,株式会社,東京都,中央区,晴海３丁目１３番２号ＤＥＵＸ・ＴＯＵＲＳ・ＷＥＳＴタワー１２０１,,13,102,1040053,,,,,,,2022-12-07,1,,,,,エムアンドエイチ,0
319,2010003039231,新規,0,2022-12-07,2022-12-07,アスターネット合同会社,,合同会社,東京都,中央区,日本橋３丁目２番１４号新槇町ビル別館第一１Ｆ,,13,102,1030027,,,,,,,2022-12-07,1,,,,,アスターネット,0
320,2010003039272,新規,0,2022-12-07,2022-12-07,ＴＣ１１合同会社,,合同会社,東京都,中央区,日本橋１丁目４番１号日本橋一丁目ビルディング,,13,102,1030027,,,,,,,2022-12-07,1,,,,,ティーシーイレブン,0
325,2010401171197,新規,0,2022-12-07,2022-12-07,株式会社金田企画,,株式会社,東京都,港区,南青山４丁目１１番２号ＡＺＯｍｏｔｅｓａｎｄｏＢＬＧＤ．２Ｂ,,13,103,1070062,,,,,,,2022-12-07,1,,,,,カネタキカク,0
326,2010401171263,新規,0,2022-12-07,2022-12-07,株式会社ＯＵＲ　ＣＵＬＢ,,株式会社,東京都,港区,高輪４丁目２２－１０小川商事ビルＢ１,,13,103,1080074,,,,,,,2022-12-07,1,,,,,アワークラブ,0
338,2010601062262,新規,0,2022-12-07,2022-12-07,株式会社ちっかっぽい,,株式会社,東京都,江東区,三好３丁目３－１６－３０２,,13,108,1350022,,,,,,,2022-12-07,1,,,,,チッカッポイ,0
339,2010603009880,新規,0,2022-12-07,2022-12-07,合同会社ＢＥＹＯＮＤ１６,,合同会社,東京都,江東区,東砂８丁目１９番４－７０７号,,13,108,1360074,,,,,,,2022-12-07,1,,,,,ビヨンドシックスティーン,0
358,2011101101080,新規,0,2022-12-07,2022-12-07,ＳＴコーポレーション株式会社,,株式会社,東京都,新宿区,大久保２丁目７番１号大久保フジビル１００５,,13,104,1690072,,,,,,,2022-12-07,1,,,,,エスティーコーポレーション,0
367,2011403003842,新規,0,2022-12-07,2022-12-07,日孟てく合同会社,,合同会社,東京都,板橋区,成増２丁目３３番１０－５０１号,,13,119,1750094,,,,,,,2022-12-07,1,,,,,ニチバンテク,0
370,2011501028733,新規,0,2022-12-07,2022-12-07,Ｏｌｉ株式会社,,株式会社,東京都,荒川区,南千住７丁目２２番３－９０３号,,13,118,1160003,,,,,,,2022-12-07,1,,,,,オリ,0
377,2011803005414,新規,0,2022-12-07,2022-12-07,合同会社フリップオン,,合同会社,東京都,足立区,梅田６丁目２８番３号２０４号室,,13,121,1230851,,,,,,,2022-12-07,1,,,,,フリップオン,0
379,2012303001754,新規,0,2022-12-07,2022-12-07,合同会社ふたば,,合同会社,東京都,町田市,金井２丁目１番地４,,13,209,1950072,,,,,,,2022-12-07,1,,,,,フタバ,0
380,2012403005721,新規,0,2022-12-07,2022-12-07,合同会社ＯｎｅＴｗｏコーポレーション,,合同会社,東京都,武蔵野市,吉祥寺本町１丁目１３番２号５Ｆ,,13,203,1800004,,,,,,,2022-12-07,1,,,,,ワントゥーコーポレーション,0
383,2013103001192,新規,0,2022-12-07,2022-12-07,インフィニート合同会社,,合同会社,東京都,あきる野市,原小宮３０９番地１２,,13,228,1970811,,,,,,,2022-12-07,1,,,,,インフィニート,0
387,2013301050041,新規,0,2022-12-07,2022-12-07,昌＿株式会社,00128717,株式会社,東京都,豊島区,南大塚１丁目３３番１２号－Ｂ１Ｆ,,13,116,1700005,,,,,,,2022-12-07,1,,,,,ショウキン,0
399,2020001149279,新規,0,2022-12-07,2022-12-07,株式会社ＫｏＤｏＮａ,,株式会社,神奈川県,川崎市川崎区,駅前本町１１番地２川崎フロンティアビル４階,,14,131,2100007,,,,,,,2022-12-07,1,,,,,コドナ,0
400,2020001149295,新規,0,2022-12-07,2022-12-07,株式会社ｔｕｋｒｉｅ,,株式会社,神奈川県,横浜市都筑区,中川中央１丁目２番３号エスタシオン１階,,14,118,2240003,,,,,,,2022-12-07,1,,,,,ツクリエ,0
401,2020001149312,新規,0,2022-12-07,2022-12-07,株式会社庭翔,,株式会社,神奈川県,横浜市港北区,日吉６丁目１番１９号パールメゾン日吉２０２,,14,109,2230061,,,,,,,2022-12-07,1,,,,,ニワショウ,0
404,2020003022847,新規,0,2022-12-07,2022-12-07,合同会社すず屋,,合同会社,神奈川県,横浜市港北区,日吉本町４丁目１０番Ｂ－１０３号,,14,109,2230062,,,,,,,2022-12-07,1,,,,,スズヤ,0
410,2021001077643,新規,0,2022-12-07,2022-12-07,株式会社ＩｎｆｉｎｉＤ,,株式会社,神奈川県,横須賀市,追浜東町２丁目３番地１ザ・パークハウス追浜Ｄ－７０６,,14,201,2370063,,,,,,,2022-12-07,1,,,,,インフィニディー,0
414,2021003012474,新規,0,2022-12-07,2022-12-07,合同会社ドリーミースカイ,,合同会社,神奈川県,藤沢市,円行１丁目２番地の１９ドミトリーハウス湘南４０４,,14,205,2520805,,,,,,,2022-12-07,1,,,,,ドリーミースカイ,0
423,2030001151234,新規,0,2022-12-07,2022-12-07,ビー・エイチ・ティー株式会社,,株式会社,埼玉県,草加市,谷塚２丁目２６番１３号,,11,221,3400028,,,,,,,2022-12-07,1,,,,,ビーエイチティー,0
424,2030001151358,新規,0,2022-12-07,2022-12-07,株式会社Ｓｔｕｄｉｏ　ＤＩＡ,,株式会社,埼玉県,春日部市,南２丁目２番６３号,,11,214,3440064,,,,,,,2022-12-07,1,,,,,スタジオダイア,0
430,2030005021078,新規,0,2022-12-07,2022-12-07,一般社団法人日本空手道一空会,,その他の設立登記法人,埼玉県,川口市,前川１丁目１番４０号,,11,203,3330842,,,,,,,2022-12-07,1,,,,,ニホンカラテドウイックウカイ,0
431,2030005021086,新規,0,2022-12-07,2022-12-07,社会保険労務士法人ワークインライフ,,その他の設立登記法人,埼玉県,北本市,東間１丁目９９番地,,11,233,3640007,,,,,,,2022-12-07,1,,,,,ワークインライフ,0
441,2040001126086,新規,0,2022-12-07,2022-12-07,株式会社フォースプレイス,,株式会社,千葉県,松戸市,稔台７丁目２３番地の２,,12,207,2702231,,,,,,,2022-12-07,1,,,,,フォースプレイス,0
442,2040001126094,新規,0,2022-12-07,2022-12-07,ＳＫドリームワークス株式会社,,株式会社,千葉県,千葉市若葉区,みつわ台５丁目２１ー１ー１０１,,12,104,2640032,,,,,,,2022-12-07,1,,,,,エスケードリームワークス,0
443,2040001126111,新規,0,2022-12-07,2022-12-07,株式会社大商,,株式会社,千葉県,印旛郡酒々井町,墨８８７番地１,,12,322,2850913,,,,,,,2022-12-07,1,,,,,オオショウ,0
444,2040001126128,新規,0,2022-12-07,2022-12-07,株式会社Ｔｅｓｏｒｏ,,株式会社,千葉県,千葉市花見川区,作新台６丁目２０番２７号,,12,102,2620045,,,,,,,2022-12-07,1,,,,,テゾーロ,0
445,2040001126144,新規,0,2022-12-07,2022-12-07,株式会社ナタデココ,,株式会社,千葉県,印西市,中央南１丁目１３番地４１８号,,12,231,2701340,,,,,,,2022-12-07,1,,,,,ナタデココ,0
451,2040003021392,新規,0,2022-12-07,2022-12-07,合同会社ちゃんすめーかー,,合同会社,千葉県,佐倉市,染井野５丁目２６番地１３,,12,212,2850831,,,,,,,2022-12-07,1,,,,,チャンスメーカー,0
452,2040003021401,新規,0,2022-12-07,2022-12-07,合同会社ＧＣＭ,,合同会社,千葉県,柏市,松ケ崎１２１３番地３０,,12,217,2770835,,,,,,,2022-12-07,1,,,,,ジーシーエム,0
453,2040005021829,新規,0,2022-12-07,2022-12-07,一般社団法人市原市立南総・鶴舞公民館運営委員会,,その他の設立登記法人,千葉県,市原市,牛久５２０番地１南総公民館内,,12,219,2900225,,,,,,,2022-12-07,1,,,,,イチハラシリツナンソウツルマイコウミンカンウンエイイインカイ,0
456,2050001052059,新規,0,2022-12-07,2022-12-07,株式会社インテグラルシステムズ,,株式会社,茨城県,つくば市,学園南２丁目７番地,,08,220,3050818,,,,,,,2022-12-07,1,,,,,インテグラルシステムズ,0
457,2050001052067,新規,0,2022-12-07,2022-12-07,株式会社ＨＡＮＳＡ　ＴＲＡＤＩＮＧ,,株式会社,茨城県,常総市,向石下１１２番地３,,08,211,3002742,,,,,,,2022-12-07,1,,,,,ハンサトレーディング,0
462,2050003007077,新規,0,2022-12-07,2022-12-07,合同会社ａａｌｆｒｅｓｃｏ,,合同会社,茨城県,つくば市,研究学園６丁目１１番地１,,08,220,3050817,,,,,,,2022-12-07,1,,,,,アールフレスコ,0
473,2070001039896,新規,0,2022-12-07,2022-12-07,株式会社松商カットサポート,,株式会社,群馬県,前橋市,粕川町込皆戸２２９番地２,,10,201,3710216,,,,,,,2022-12-07,1,,,,,マツショウカットサポート,0
475,2080101023675,新規,0,2022-12-07,2022-12-07,株式会社ライフプラス,,株式会社,静岡県,三島市,寿町９番１３号,,22,206,4110039,,,,,,,2022-12-07,1,,,,,ライフプラス,0
482,2090003002207,新規,0,2022-12-07,2022-12-07,合同会社ＲＯＵＴＥ,,合同会社,山梨県,南都留郡富士河口湖町,勝山４４８２番地－Ｂ１０１,,19,430,4010310,,,,,,,2022-12-07,1,,,,,,0
485,2100003006800,新規,0,2022-12-07,2022-12-07,合同会社きずなグループ進,,合同会社,長野県,安曇野市,豊科４６８１番地２６,,20,220,3998205,,,,,,,2022-12-07,1,,,,,キズナグループススム,0
490,2110001037152,新規,0,2022-12-07,2022-12-07,株式会社Ｇｒａｎｄ　Ｆａｒｍ,,株式会社,新潟県,柏崎市,西山町尾野内４４７番地,,15,205,9494112,,,,,,,2022-12-07,1,,,,,グランドファーム,0
501,2120001250828,新規,0,2022-12-07,2022-12-07,天海通商株式会社,,株式会社,大阪府,大阪市平野区,平野西４丁目８番５号リアライズ平野西１０１号,,27,126,5470033,,,,,,,2022-12-07,1,,,,,,0
502,2120001250836,新規,0,2022-12-07,2022-12-07,株式会社ＧＳホールディングス,,株式会社,大阪府,大阪市西区,西本町１丁目５番１３号,,27,106,5500005,,,,,,,2022-12-07,1,,,,,ジーエスホールディングス,0
513,2120103004958,新規,0,2022-12-07,2022-12-07,合同会社ＰｏＫ,,合同会社,大阪府,堺市南区,豊田１５３７番地１フェリスタ１０１号,,27,145,5900106,,,,,,,2022-12-07,1,,,,,ピーオーケイ,0
522,2122001036463,新規,0,2022-12-07,2022-12-07,株式会社ＦＩＡ,,株式会社,大阪府,東大阪市,小阪本町１丁目２番１５号エスリード小阪本町２０７号室,,27,227,5770802,,,,,,,2022-12-07,1,,,,,エフアイエー,0
524,2130001073253,新規,0,2022-12-07,2022-12-07,株式会社トライアセット,,株式会社,京都府,京都市左京区,修学院千万田町５－８６,,26,103,6068024,,,,,,,2022-12-07,1,,,,,トライアセット,0
527,2140001128279,新規,0,2022-12-07,2022-12-07,株式会社森元建築,,株式会社,兵庫県,姫路市,飾磨区玉地１丁目７１－１０１,,28,201,6728052,,,,,,,2022-12-07,1,,,,,モリモトケンチク,0
528,2140001128287,新規,0,2022-12-07,2022-12-07,株式会社ｎｏｖｕｓ,,株式会社,兵庫県,西宮市,堤町３番６－２号,,28,204,6638012,,,,,,,2022-12-07,1,,,,,ノウス,0
529,2140001128304,新規,0,2022-12-07,2022-12-07,株式会社ライフエージェント,,株式会社,兵庫県,明石市,大久保町大窪１２８７番地の１７,,28,203,6740051,,,,,,,2022-12-07,1,,,,,ライフエージェント,0
542,2180001154008,新規,0,2022-12-07,2022-12-07,株式会社スペースアセットマネジメント,,株式会社,愛知県,名古屋市名東区,猪子石原３丁目５０２番地,,23,115,4650008,,,,,,,2022-12-07,1,,,,,スペースアセットマネジメント,0
543,2180001154107,新規,0,2022-12-07,2022-12-07,株式会社オネスト,,株式会社,愛知県,春日井市,藤山台３丁目１番地３,,23,206,4870035,,,,,,,2022-12-07,1,,,,,オネスト,0
544,2180001154115,新規,0,2022-12-07,2022-12-07,株式会社ネクサス,,株式会社,愛知県,小牧市,藤島町居屋敷２２８番地,,23,219,4850067,,,,,,,2022-12-07,1,,,,,ネクサス,0
549,2180003024563,新規,0,2022-12-07,2022-12-07,合同会社つけ麺本丸栄店,,合同会社,愛知県,名古屋市中区,栄３丁目８番３３号サカイビル１Ｆ,,23,106,4600008,,,,,,,2022-12-07,1,,,,,ツケメンホンマルサカエテン,0
562,2200003005759,新規,0,2022-12-07,2022-12-07,合同会社にゃもわーるど,,合同会社,岐阜県,揖斐郡大野町,大字松山１９１番地２,,21,403,5010562,,,,,,,2022-12-07,1,,,,,ニャモワールド,0
568,2220001025146,新規,0,2022-12-07,2022-12-07,株式会社加藤松商店,,株式会社,石川県,金沢市,湊２丁目２２番地,,17,201,9200211,,,,,,,2022-12-07,1,,,,,カトウマツショウテン,0
586,2260001037476,新規,0,2022-12-07,2022-12-07,株式会社家のたからばこ,,株式会社,岡山県,岡山市南区,立川町３番２６号,,33,104,7028046,,,,,,,2022-12-07,1,,,,,イエノタカラバコ,0
593,2290001099737,新規,0,2022-12-07,2022-12-07,株式会社ユナイディア,,株式会社,福岡県,福岡市博多区,住吉４丁目４番１３－７０３号アセットヒルズパークサイト博多,,40,132,8120018,,,,,,,2022-12-07,1,,,,,ユナイディア,0
594,2290001099811,新規,0,2022-12-07,2022-12-07,Ｃｈａｉｎｏｎ．株式会社,,株式会社,福岡県,福岡市博多区,住吉２丁目１６番３８号２Ｆ,,40,132,8120018,,,,,,,2022-12-07,1,,,,,シェノン,0
598,2300001013150,新規,0,2022-12-07,2022-12-07,株式会社翼工業,,株式会社,佐賀県,杵島郡江北町,大字上小田３５１３番地,,41,424,8490506,,,,,,,2022-12-07,1,,,,,ツバサコウギョウ,0
603,2350001018070,新規,0,2022-12-07,2022-12-07,株式会社ｆｕｋｕｙａｍａ,,株式会社,宮崎県,宮崎市,橘通東５丁目４番１１号サーパス橘通東４０３号,,45,201,8800805,,,,,,,2022-12-07,1,,,,,フクヤマ,0
605,2360001031287,新規,0,2022-12-07,2022-12-07,ミナミ興業株式会社,,株式会社,沖縄県,糸満市,西崎２丁目３－２０マ・エスパス２０１号,,47,210,9010305,,,,,,,2022-12-07,1,,,,,ミナミコウギョウ,0
606,2360001031295,新規,0,2022-12-07,2022-12-07,株式会社Ｐｏｌｅｓｔａｒ北海道沖縄林事務所,,株式会社,沖縄県,那覇市,字天久７７０番地８グランデュールＫ２０１,,47,201,9000005,,,,,,,2022-12-07,1,,,,,ポールスターホッカイドウオキナワハヤシジムショ,0
608,2360003012500,新規,0,2022-12-07,2022-12-07,Ｇｅｆａ合同会社,,合同会社,沖縄県,豊見城市,字豊見城５７３番地２,,47,212,9010241,,,,,,,2022-12-07,1,,,,,ジーファ,0
609,2360003012517,新規,0,2022-12-07,2022-12-07,合同会社ＬＥＡＲＮｇｒｏｗ,,合同会社,沖縄県,那覇市,壺川１丁目１６番地１３,,47,201,9000025,,,,,,,2022-12-07,1,,,,,ラングロウ,0
610,2360003012533,新規,0,2022-12-07,2022-12-07,合同会社ＰＦＧ,,合同会社,沖縄県,那覇市,字大道１７３番地１８－２０５,,47,201,9020066,,,,,,,2022-12-07,1,,,,,ピーエフジー,0
613,2370001049329,新規,0,2022-12-07,2022-12-07,株式会社美月ノ杜,,株式会社,宮城県,仙台市宮城野区,岩切字青津目１３６番地の１７,,04,102,9830821,,,,,,,2022-12-07,1,,,,,ミツキノモリ,0
614,2370001049353,新規,0,2022-12-07,2022-12-07,株式会社ノアズクリエイト,,株式会社,宮城県,仙台市若林区,五橋３丁目１番３－２８１０号,,04,103,9840022,,,,,,,2022-12-07,1,,,,,ノアズクリエイト,0
617,2400001016077,新規,0,2022-12-07,2022-12-07,株式会社ＭＳＭ,,株式会社,岩手県,盛岡市,向中野２丁目２２番４０号,,03,201,0200851,,,,,,,2022-12-07,1,,,,,エムエスエム,0
618,2400002008949,新規,0,2022-12-07,2022-12-07,有限会社岩手土地,,有限会社,岩手県,花巻市,東町７番６号,,03,205,0250088,,,,,,,2022-12-07,1,,,,,,0
630,2430001088015,新規,0,2022-12-07,2022-12-07,株式会社ＫａｒＫ,,株式会社,北海道,札幌市中央区,北五条西８丁目１－１ラ・トゥール札幌伊藤ガーデン１１１１号,,01,101,0600005,,,,,,,2022-12-07,1,,,,,カーク,0
631,2430003014514,新規,0,2022-12-07,2022-12-07,合同会社ｊ．ｏ．フルーガル,,合同会社,北海道,札幌市中央区,南一条西１６丁目１番地３２３春野ビル３Ｆ,,01,101,0600061,,,,,,,2022-12-07,1,,,,,ジェイオーフルーガル,0
632,2430003014530,新規,0,2022-12-07,2022-12-07,そらいろ合同会社,,合同会社,北海道,札幌市白石区,菊水二条３丁目２番６号,,01,104,0030802,,,,,,,2022-12-07,1,,,,,ソライロ,0
633,2450001013854,新規,0,2022-12-07,2022-12-07,サン・フロンティア株式会社,,株式会社,北海道,旭川市,南六条通２４丁目１９７６番地４７１,,01,204,0788336,,,,,,,2022-12-07,1,,,,,サンフロンティア,0
640,2700150113280,新規,0,2022-12-07,2022-12-07,Ｍ．Ｒ．Ｍ　ＥＮＴＥＲＰＲＩＳＥＳ,,外国会社等,千葉県,山武市,麻生新田１５４番地５８,,12,237,2891203,スリランカ民主社会主義共和国、コロンボ２、ワックスホールストリート、９０,,,,,,2022-12-07,1,,,,,エムアールエムエンタープライズ,0
641,2700150113297,新規,0,2022-12-07,2022-12-07,Ｋｏｒｅａｎ　Ｒｅ　Ｕｎｄｅｒｗｒｉｔｉｎｇ　Ｌｉｍｉｔｅｄ,,外国会社等,東京都,千代田区,霞が関３丁目２－６東京倶楽部ビルディング６階　ロイズジャパン株式会社内,,13,101,1000013,Ｏｎｅ　Ｌｉｍｅ　Ｓｔｒｅｅｔ　Ｌｏｎｄｏｎ　ＥＣ３Ｍ　７ＨＡ　ＵＫ,,,,,,2022-12-07,1,,,,,コーリアンリアンダーライテイングリミテツド,0
642,2700150113306,新規,0,2022-12-07,2022-12-07,Ｎａｍｅｃｏ（Ｎｏ．１３６０）Ｌｉｍｉｔｅｄ,,外国会社等,東京都,千代田区,霞が関３丁目２－６東京倶楽部ビルディング６階　ロイズジャパン株式会社内,,13,101,1000013,Ｏｎｅ　Ｌｉｍｅ　Ｓｔｒｅｅｔ　Ｌｏｎｄｏｎ　ＥＣ３Ｍ　７ＨＡ　ＵＫ,,,,,,2022-12-07,1,,,,,ネームコナンバーワンスリーシツクスゼロリミテツド,0
643,2700150113314,新規,0,2022-12-07,2022-12-07,Ｇａｏｍｏｎ　Ｔｅｃｈｎｏｌｏｇｙ　Ｃｏ．，Ｌｉｍｉｔｅｄ,,外国会社等,,,,,,,,ＲＭ　８０３　ＣＨＥＶＡＬＩＥＲ　ＨＳＥ　４５－５１　ＣＨＡＴＨＡＭ　ＲＤ　ＳＯＵＴＨ　ＴＳＴ　ＫＬＮ　ＨＯＮＧ　ＫＯＮＧ,,,,,,2022-12-07,1,,,,,ガオモンテクノロジーカンパニーリミテツド,0
647,3010001231375,新規,0,2022-12-07,2022-12-07,株式会社Ｒｅｍ,,株式会社,東京都,文京区,千駄木３丁目３６－１１千駄木センチュリー２１、８０３号室,,13,105,1130022,,,,,,,2022-12-07,1,,,,,レム,0
658,3010401171213,新規,0,2022-12-07,2022-12-07,株式会社４Ｍｅ．,,株式会社,東京都,港区,元麻布１丁目７番１２号ー４階ＰＩＡ麻布十番ＩＶ,00128719,13,103,1060046,,,,,,,2022-12-07,1,,,,,フォーミー,0
661,3010403029095,新規,0,2022-12-07,2022-12-07,合同会社１０ｍｏｒｅ,,合同会社,東京都,港区,東麻布２丁目２２番５号ＡｚａｂｕＥａｓｔＣｏｕｒｔ１Ｆ,,13,103,1060044,,,,,,,2022-12-07,1,,,,,テンモア,0
662,3010403029104,新規,0,2022-12-07,2022-12-07,ｓｏａｐｓ合同会社,,合同会社,東京都,港区,浜松町２丁目２番１５号２階,,13,103,1050013,,,,,,,2022-12-07,1,,,,,ソープス,0
665,3010603009888,新規,0,2022-12-07,2022-12-07,ＪＰ有家合同会社,,合同会社,東京都,江東区,大島６丁目２２－６レジェンド中の橋２０２号室,,13,108,1360072,,,,,,,2022-12-07,1,,,,,ジェイピーアリイエ,0
669,3010801033491,新規,0,2022-12-07,2022-12-07,株式会社Ｍ‐ｃｒｅｗ,,株式会社,東京都,大田区,大森中２丁目２３番１号プランタン２０３,,13,111,1430014,,,,,,,2022-12-07,1,,,,,エムクルー,0
674,3010903007831,新規,0,2022-12-07,2022-12-07,Ｍａｃｌｅａｒ合同会社,,合同会社,東京都,世田谷区,成城８丁目４－１４リビオン成城２０５,,13,112,1570066,,,,,,,2022-12-07,1,,,,,メイクリア,0
683,3011003015840,新規,0,2022-12-07,2022-12-07,合同会社Ｅｄｅｎ,,合同会社,東京都,渋谷区,神宮前６丁目２３－４桑野ビル２階,,13,113,1500001,,,,,,,2022-12-07,1,,,,,エデン,0
691,3011101101071,新規,0,2022-12-07,2022-12-07,株式会社白坂ハイム,,株式会社,東京都,新宿区,早稲田鶴巻町５４７番地,,13,104,1620041,,,,,,,2022-12-07,1,,,,,シラサカハイム,0
695,3011301028288,新規,0,2022-12-07,2022-12-07,Ｒｅｈａｂｉｌｉｔａｔｉｏｎ　Ｐｌｕｓ株式会社,,株式会社,東京都,杉並区,桃井１丁目４番２号１Ｆ,,13,115,1670034,,,,,,,2022-12-07,1,,,,,リハビリテーションプラス,0
696,3011401024757,新規,0,2022-12-07,2022-12-07,株式会社ＦＬＯＴ,,株式会社,東京都,板橋区,上板橋２丁目１２番９号,,13,119,1740076,,,,,,,2022-12-07,1,,,,,フロット,0
699,3011601026413,新規,0,2022-12-07,2022-12-07,ｅｓｔ株式会社,,株式会社,東京都,練馬区,東大泉４丁目２７番１７号,,13,120,1780063,,,,,,,2022-12-07,1,,,,,エスト,0
702,3011701025843,新規,0,2022-12-07,2022-12-07,佳築不動産株式会社,,株式会社,東京都,江戸川区,春江町５丁目５－１３,,13,123,1340003,,,,,,,2022-12-07,1,,,,,ヨチクフドウサン,0
707,3012401039943,新規,0,2022-12-07,2022-12-07,株式会社Ｓｈｉｎ,,株式会社,東京都,調布市,仙川町１丁目１１－４,,13,208,1820002,,,,,,,2022-12-07,1,,,,,シン,0
710,3012801021996,新規,0,2022-12-07,2022-12-07,株式会社多摩伍,,株式会社,東京都,国立市,西２丁目１７番地の５１,,13,215,1860005,,,,,,,2022-12-07,1,,,,,タマゴ,0
721,3013303006395,新規,0,2022-12-07,2022-12-07,ダイナソルコンサルティング合同会社,,合同会社,東京都,豊島区,南大塚１丁目６０－２０天翔大塚駅前ビル１２Ｆ,,13,116,1700005,,,,,,,2022-12-07,1,,,,,ダイナソルコンサルティング,0
724,3020001149245,新規,0,2022-12-07,2022-12-07,翔貴株式会社,,株式会社,神奈川県,横浜市南区,新川町５丁目２９番地７新川町ビル３階,,14,105,2320027,,,,,,,2022-12-07,1,,,,,ショウキ,0
725,3020001149261,新規,0,2022-12-07,2022-12-07,ＭＨＤ株式会社,,株式会社,神奈川県,川崎市高津区,坂戸１丁目２０番１号,,14,134,2130012,,,,,,,2022-12-07,1,,,,,エムエイチディー,0
726,3020001149303,新規,0,2022-12-07,2022-12-07,千式株式会社,,株式会社,神奈川県,川崎市川崎区,堀之内町７－２７マリオンテクノ・ウィング川崎８０６号室,,14,131,2100003,,,,,,,2022-12-07,1,,,,,センシキ,0
735,3021001077634,新規,0,2022-12-07,2022-12-07,株式会社Ｂｏｏｋｓｈｏｐ,,株式会社,神奈川県,大和市,下鶴間２７８６番地４南林間パーク・ホームズ弐番館１０６号,,14,213,2420001,,,,,,,2022-12-07,1,,,,,ブックショップ,0
737,3021003012473,新規,0,2022-12-07,2022-12-07,合同会社手と手,,合同会社,神奈川県,海老名市,社家６丁目１１番３３－６０８号,,14,215,2430424,,,,,,,2022-12-07,1,,,,,テトテ,0
743,3030001151159,新規,0,2022-12-07,2022-12-07,株式会社３７ＰＡＲＫ,,株式会社,埼玉県,さいたま市西区,大字島根５８３,,11,101,3310054,,,,,,,2022-12-07,1,,,,,サナパーク,0
744,3030001151365,新規,0,2022-12-07,2022-12-07,株式会社Ｖａｌｕｅ,,株式会社,埼玉県,さいたま市緑区,大字中尾３２３１番地Ａ１０１号室,,11,109,3360932,,,,,,,2022-12-07,1,,,,,バリュー,0
745,3030001151381,新規,0,2022-12-07,2022-12-07,朝賀プロパティマネジメント株式会社,,株式会社,埼玉県,所沢市,松葉町１番地７号,,11,208,3590044,,,,,,,2022-12-07,1,,,,,アサガプロパティマネジメント,0
752,3030003020709,新規,0,2022-12-07,2022-12-07,合同会社Ｍ．Ａ．Ｋｉｄｓ,,合同会社,埼玉県,さいたま市南区,白幡２丁目９番１－２号,,11,108,3360022,,,,,,,2022-12-07,1,,,,,エムエーキッズ,0
758,3040001126093,新規,0,2022-12-07,2022-12-07,株式会社Ｗａｉｓｌａｎｄ,,株式会社,千葉県,松戸市,根本４５０番地２,,12,207,2710077,,,,,,,2022-12-07,1,,,,,ワイズランド,0
759,3040001126110,新規,0,2022-12-07,2022-12-07,株式会社ＵＧＯＣＫＳ,,株式会社,千葉県,船橋市,宮本６丁目１０番１９号,,12,204,2730003,,,,,,,2022-12-07,1,,,,,ウゴックス,0
761,3040003021391,新規,0,2022-12-07,2022-12-07,合同会社サマーエコーズ,,合同会社,千葉県,鎌ケ谷市,中沢新町１番１５号,,12,224,2730119,,,,,,,2022-12-07,1,,,,,サマーエコーズ,0
762,3040003021417,新規,0,2022-12-07,2022-12-07,合同会社ＵＴＹ,,合同会社,千葉県,我孫子市,湖北台１丁目１６番地の７,,12,222,2701132,,,,,,,2022-12-07,1,,,,,ユーティーワイ,0
763,3040003021433,新規,0,2022-12-07,2022-12-07,海洋合同会社,,合同会社,千葉県,印旛郡酒々井町,下岩橋２２８－１０コーポサンロード２０２号室,,12,322,2850907,,,,,,,2022-12-07,1,,,,,カイヨウ,0
764,3040003021441,新規,0,2022-12-07,2022-12-07,ズハラインターナショナル合同会社,,合同会社,千葉県,山武市,横田５１８番地１００,,12,237,2891226,,,,,,,2022-12-07,1,,,,,ズハラインターナショナル,0
765,3040005021828,新規,0,2022-12-07,2022-12-07,特定非営利活動法人Ｆａｍｉｌｙ　Ｐａｒｔｎｅｒ‐Ｃｈｉｌｌ,,その他の設立登記法人,千葉県,成田市,はなのき台１丁目３番地１３,,12,211,2860007,,,,,,,2022-12-07,1,,,,,ファミリーパートナーチル,0
769,3050001052058,新規,0,2022-12-07,2022-12-07,株式会社ＨＡＭＺＡ　ＴＲＡＤＩＮＧ,,株式会社,茨城県,筑西市,谷永島字前原５０１番２,,08,227,3091121,,,,,,,2022-12-07,1,,,,,ハムザトレーディング,0
770,3050001052066,新規,0,2022-12-07,2022-12-07,株式会社ＳＥＶＥＮＴＨ　ＫＥＹ,,株式会社,茨城県,常総市,向石下８９９－３亀仙人街Ｊ号,,08,211,3002742,,,,,,,2022-12-07,1,,,,,セブンススキー,0
774,3050003007076,新規,0,2022-12-07,2022-12-07,合同会社みらい興業,,合同会社,茨城県,稲敷郡河内町,生板８０５３番地３,,08,447,3001331,,,,,,,2022-12-07,1,,,,,ミライコウギョウ,0
778,3060003004329,新規,0,2022-12-07,2022-12-07,合同会社井出事務所,,合同会社,栃木県,那須塩原市,末広町５３番地,,09,213,3250061,,,,,,,2022-12-07,1,,,,,イデジムショ,0
780,3070001039879,新規,0,2022-12-07,2022-12-07,ＳＨＥＫＨ　ＨＡＹＡＳＨＩモノオロシ株式会社,,株式会社,群馬県,邑楽郡大泉町,朝日５丁目２９番１号,,10,524,3700514,,,,,,,2022-12-07,1,,,,,シェックハヤシモノオロシ,0
781,3070001039887,新規,0,2022-12-07,2022-12-07,Ｒａｙｚ株式会社,,株式会社,群馬県,太田市,藤阿久町５００番地１ライズオフィス,,10,205,3730034,,,,,,,2022-12-07,1,,,,,ライズ,0
785,3080001025333,新規,0,2022-12-07,2022-12-07,株式会社やさしく無理して,,株式会社,静岡県,静岡市葵区,川合３丁目１２番５号,,22,101,4200923,,,,,,,2022-12-07,1,,,,,ヤサシクムリシテ,0
792,3080105006304,新規,0,2022-12-07,2022-12-07,一般社団法人かがやき,,その他の設立登記法人,静岡県,伊東市,十足６０８番地の８９,,22,208,4140052,,,,,,,2022-12-07,1,,,,,カガヤキ,0
807,3110001037168,新規,0,2022-12-07,2022-12-07,ＯＨ商会株式会社,,株式会社,新潟県,小千谷市,旭町２番３１号,,15,208,9470005,,,,,,,2022-12-07,1,,,,,オーエイチショウカイ,0
814,3120001250728,新規,0,2022-12-07,2022-12-07,青鳥株式会社,,株式会社,大阪府,大阪市西区,立売堀２丁目１－１４－９Ｆ,,27,106,5500012,,,,,,,2022-12-07,1,,,,,アオトリ,0
815,3120001250744,新規,0,2022-12-07,2022-12-07,三石磊株式会社,,株式会社,大阪府,大阪市東住吉区,鷹合４丁目２１番１６号１Ｆ－Ｂ,,27,121,5460014,,,,,,,2022-12-07,1,,,,,サンシライ,0
816,3120001250793,新規,0,2022-12-07,2022-12-07,株式会社クミアワセ,,株式会社,大阪府,寝屋川市,高宮あさひ丘１４番１号,,27,215,5720867,,,,,,,2022-12-07,1,,,,,クミアワセ,0
817,3120001250802,新規,0,2022-12-07,2022-12-07,株式会社チアフル,,株式会社,大阪府,大阪市東淀川区,西淡路１丁目３番２６号弥生新大阪第一ビル２０３号,,27,114,5330031,,,,,,,2022-12-07,1,,,,,チアフル,0
818,3120001250810,新規,0,2022-12-07,2022-12-07,株式会社ＳＴＥＬＬＡ,,株式会社,大阪府,大阪市北区,小松原町３番３号,,27,127,5300018,,,,,,,2022-12-07,1,,,,,ステラ,0
819,3120001250827,新規,0,2022-12-07,2022-12-07,株式会社陽だまりの樹ソレイル,,株式会社,大阪府,大阪市生野区,小路東１丁目１８－１１,,27,116,5440003,,,,,,,2022-12-07,1,,,,,ヒダマリノキソレイル,0
820,3120001250835,新規,0,2022-12-07,2022-12-07,株式会社たーべーる,,株式会社,大阪府,大阪市淀川区,西中島６丁目２番８号,,27,123,5320011,,,,,,,2022-12-07,1,,,,,ターベール,0
825,3120003022992,新規,0,2022-12-07,2022-12-07,合同会社カラフルプロモーション,,合同会社,大阪府,大阪市中央区,南船場３丁目１番７号日宝東心斎橋ビル７０７号,,27,128,5420081,,,,,,,2022-12-07,1,,,,,カラフルプロモーション,0
826,3120003023025,新規,0,2022-12-07,2022-12-07,ＳＭＦ合同会社,,合同会社,大阪府,大阪市生野区,新今里７丁目６番４号,,27,116,5440001,,,,,,,2022-12-07,1,,,,,エスエムエフ,0
835,3120901046829,新規,0,2022-12-07,2022-12-07,株式会社Ｃｏｌｏｒ　Ｂｒａｎｄｉｎｇ,,株式会社,大阪府,茨木市,稲葉町５番１２号稲葉奏風館５０２号,,27,211,5670827,,,,,,,2022-12-07,1,,,,,カラーブランディング,0
839,3122001036470,新規,0,2022-12-07,2022-12-07,株式会社オリエント,,株式会社,大阪府,東大阪市,高井田西６丁目１番２８高井田シグマビル５階,,27,227,5770067,,,,,,,2022-12-07,1,,,,,オリエント,0
840,3122001036479,新規,0,2022-12-07,2022-12-07,株式会社ＵＣＤＷ,,株式会社,大阪府,東大阪市,長堂１丁目８番３７号,,27,227,5770056,,,,,,,2022-12-07,1,,,,,ユーシーディーダブリュー,0
855,3140001128278,新規,0,2022-12-07,2022-12-07,株式会社ｍａｔｒｏｏｓ,,株式会社,兵庫県,神戸市中央区,港島南町１丁目５番地の２キメックセンタービル１Ｆ,,28,110,6500047,,,,,,,2022-12-07,1,,,,,マドロス,0
856,3140001128303,新規,0,2022-12-07,2022-12-07,キャリウェル株式会社,,株式会社,兵庫県,西宮市,浜甲子園４丁目９番３号,,28,204,6638154,,,,,,,2022-12-07,1,,,,,キャリウェル,0
861,3170003001802,新規,0,2022-12-07,2022-12-07,野村ＫＹ商事合同会社,,合同会社,和歌山県,和歌山市,中之島８９４番地１,,30,201,6408392,,,,,,,2022-12-07,1,,,,,ノムラケーワイショウジ,0
876,3180001154114,新規,0,2022-12-07,2022-12-07,佳柴堂株式会社,,株式会社,愛知県,名古屋市港区,名四町４９番地桔梗ビル１０２,,23,111,4550053,,,,,,,2022-12-07,1,,,,,カシバドウ,0
877,3180001154122,新規,0,2022-12-07,2022-12-07,株式会社Ｔｏｐ,,株式会社,愛知県,春日井市,鳥居松町２丁目１８９番地ロイヤルマンション鳥居松５０２号,,23,206,4860844,,,,,,,2022-12-07,1,,,,,トップ,0
886,3180301036887,新規,0,2022-12-07,2022-12-07,株式会社ＡＣＴ,,株式会社,愛知県,安城市,赤松町新屋敷１１２番地１,,23,212,4460046,,,,,,,2022-12-07,1,,,,,アクト,0
890,3190001029983,新規,0,2022-12-07,2022-12-07,株式会社ｐｏｎｏ,,株式会社,三重県,四日市市,楠町南五味塚２９０番地２,,24,202,5100104,,,,,,,2022-12-07,1,,,,,ポノ,0
893,3210001019172,新規,0,2022-12-07,2022-12-07,株式会社ごまさんち,,株式会社,福井県,福井市,高木中央２丁目３３０８番地,,18,201,9100804,,,,,,,2022-12-07,1,,,,,ゴマサンチ,0
899,3240001060768,新規,0,2022-12-07,2022-12-07,株式会社たぬきや,,株式会社,広島県,広島市中区,流川町６番１２号,,34,101,7300028,,,,,,,2022-12-07,1,,,,,タヌキヤ,0
922,3290001099810,新規,0,2022-12-07,2022-12-07,福岡食品株式会社,,株式会社,福岡県,糟屋郡新宮町,三代西１丁目９番１０号,,40,345,8110125,,,,,,,2022-12-07,1,,,,,フクオカショクヒン,0
923,3290001099819,新規,0,2022-12-07,2022-12-07,株式会社ＣＨＡＢＡＫＯ,,株式会社,福岡県,福岡市中央区,天神３丁目１６番１号天神日若ビル６階,,40,133,8100001,,,,,,,2022-12-07,1,,,,,チャバコ,0
927,3290003013281,新規,0,2022-12-07,2022-12-07,合同会社ＯＮＥ,,合同会社,福岡県,福岡市東区,松香台２丁目６番１号１Ｆ,,40,131,8130004,,,,,,,2022-12-07,1,,,,,ワン,0
929,3290801029099,新規,0,2022-12-07,2022-12-07,株式会社プロ・アソシエイツ北九州,,株式会社,福岡県,北九州市戸畑区,新池３丁目６番１５‐６０３号,,40,105,8040082,,,,,,,2022-12-07,1,,,,,プロアソシエイツキタキュウシュウ,0
930,3290801029108,新規,0,2022-12-07,2022-12-07,株式会社ＤＬＰ１０,,株式会社,福岡県,北九州市小倉北区,井堀３丁目１６番３号,,40,106,8030835,,,,,,,2022-12-07,1,,,,,ディーエルピーテン,0
935,3320003003964,新規,0,2022-12-07,2022-12-07,合同会社ハーティ,,合同会社,大分県,別府市,秋葉町７番９号,,44,202,8740937,,,,,,,2022-12-07,1,,,,,ハーティ,0
937,3330003009614,新規,0,2022-12-07,2022-12-07,合同会社あらき,,合同会社,熊本県,天草市,今釜新町３４６８,,43,215,8630013,,,,,,,2022-12-07,1,,,,,アラキ,0
943,3360001031286,新規,0,2022-12-07,2022-12-07,株式会社無二,,株式会社,沖縄県,那覇市,泊３丁目７番地１４国際貿易ビル８階,,47,201,9000012,,,,,,,2022-12-07,1,,,,,ムニ,0
945,3360003012516,新規,0,2022-12-07,2022-12-07,合同会社幸地企画,,合同会社,沖縄県,南城市,字つきしろ１５３９番地２４１,,47,215,9011407,,,,,,,2022-12-07,1,,,,,コウチキカク,0
946,3360003012524,新規,0,2022-12-07,2022-12-07,Ｔｅｒｒａ合同会社,,合同会社,沖縄県,中頭郡中城村,字南上原３６３番地サンシャインエアリー１０２号,,47,328,9012424,,,,,,,2022-12-07,1,,,,,テラ,0
948,3370001049328,新規,0,2022-12-07,2022-12-07,株式会社ソトモプラス,,株式会社,宮城県,宮城郡七ヶ浜町,代ヶ崎浜字清水１１４,,04,404,9850801,,,,,,,2022-12-07,1,,,,,ソトモプラス,0
950,3400001016076,新規,0,2022-12-07,2022-12-07,株式会社シュガー,,株式会社,岩手県,北上市,村崎野１５地割５３４番地３２,,03,206,0240004,,,,,,,2022-12-07,1,,,,,,0
957,3430001087973,新規,0,2022-12-07,2022-12-07,ペットケーキ工場株式会社,,株式会社,北海道,札幌市中央区,南一条西１６丁目１番地３２３春野ビル３Ｆ,,01,101,0600061,,,,,,,2022-12-07,1,,,,,ペットケーキコウジョウ,0
958,3430001087981,新規,0,2022-12-07,2022-12-07,フレーズ株式会社,,株式会社,北海道,札幌市中央区,南十一条西１３丁目２番２５－３号,,01,101,0640811,,,,,,,2022-12-07,1,,,,,フレーズ,0
959,3430001087998,新規,0,2022-12-07,2022-12-07,株式会社ＳＮＪ,,株式会社,北海道,札幌市中央区,南三条西５丁目１４番地三条美松ビル２Ｆ,,01,101,0600063,,,,,,,2022-12-07,1,,,,,エスエヌジェイ,0
966,3450001013853,新規,0,2022-12-07,2022-12-07,大野測量コンサルタント株式会社,,株式会社,北海道,深川市,二条１８番５号,,01,228,0740002,,,,,,,2022-12-07,1,,,,,オオノソクリョウコンサルタント,0
969,3470003002299,新規,0,2022-12-07,2022-12-07,合同会社栄進企画,,合同会社,香川県,丸亀市,津森町８３３番地８,,37,202,7630052,,,,,,,2022-12-07,1,,,,,エイシンキカク,0
975,3500001024639,新規,0,2022-12-07,2022-12-07,株式会社Ｇ‐ｒｉｎｋ,,株式会社,愛媛県,松山市,上市２丁目６－４－３０３,,38,201,7900853,,,,,,,2022-12-07,1,,,,,ジーリンク,0
978,3700150113305,新規,0,2022-12-07,2022-12-07,Ｎａｍｅｃｏ（Ｎｏ．１３５９）Ｌｉｍｉｔｅｄ,,外国会社等,東京都,千代田区,霞が関３丁目２－６東京倶楽部ビルディング６階　ロイズジャパン株式会社内,,13,101,1000013,Ｏｎｅ　Ｌｉｍｅ　Ｓｔｒｅｅｔ　Ｌｏｎｄｏｎ　ＥＣ３Ｍ　７ＨＡ　ＵＫ,,,,,,2022-12-07,1,,,,,ネームコナンバーワンスリーフアイブナインリミテツド,0
979,3700150113313,新規,0,2022-12-07,2022-12-07,Ｒａｒｂ　Ｎａｍｅｃｏ　Ｌｉｍｉｔｅｄ,,外国会社等,東京都,千代田区,霞が関３丁目２－６東京倶楽部ビルディング６階　ロイズジャパン株式会社内,,13,101,1000013,Ｏｎｅ　Ｌｉｍｅ　Ｓｔｒｅｅｔ　Ｌｏｎｄｏｎ　ＥＣ３Ｍ　７ＨＡ　ＵＫ,,,,,,2022-12-07,1,,,,,ラブネームコリミテツド,0
989,4010101015438,新規,0,2022-12-07,2022-12-07,ＬＳキャピタルインベストメント株式会社,,株式会社,東京都,八王子市,堀之内１９８７番地,,13,201,1920355,,,,,,,2022-12-07,1,,,,,エルエスキャピタルインベストメント,0
992,4010401171146,新規,0,2022-12-07,2022-12-07,Ｃｕｅ　Ｊａｐａｎ株式会社,,株式会社,東京都,港区,赤坂２丁目１４番５号Ｄａｉｗａ赤坂ビル４階,,13,103,1070052,,,,,,,2022-12-07,1,,,,,キュージャパン,0
993,4010405021644,新規,0,2022-12-07,2022-12-07,一般社団法人ＳＥＳＣＯ,,その他の設立登記法人,東京都,港区,浜松町２丁目２番１５号浜松町ダイヤビル２Ｆ,,13,103,1050013,,,,,,,2022-12-07,1,,,,,セスコ,0
996,4010603009887,新規,0,2022-12-07,2022-12-07,合同会社エスケル,,合同会社,東京都,墨田区,横網２丁目６番１１－５０１号,,13,107,1300015,,,,,,,2022-12-07,1,,,,,エスケル,0
997,4010703006495,新規,0,2022-12-07,2022-12-07,合資会社ＳＰＲＩＮＴ,,合資会社,東京都,品川区,大崎３丁目５番２号エステージ大崎ビル６Ｆ,,13,109,1410032,,,,,,,2022-12-07,1,,,,,スプリント,0
1002,4010901052102,新規,0,2022-12-07,2022-12-07,サニーサイド株式会社,,株式会社,東京都,世田谷区,三軒茶屋２丁目５５番８号パレグレイス３０２,,13,112,1540024,,,,,,,2022-12-07,1,,,,,サニーサイド,0
1007,4011001151307,新規,0,2022-12-07,2022-12-07,株式会社あさひ,,株式会社,東京都,目黒区,東山１丁目１９番９号,,13,110,1530043,,,,,,,2022-12-07,1,,,,,アサヒ,0
1010,4011005009864,新規,0,2022-12-07,2022-12-07,一般社団法人家族信託監督人協会,,その他の設立登記法人,東京都,渋谷区,道玄坂１丁目２０番１２号ＭＴ道玄坂３０２,,13,113,1500043,,,,,,,2022-12-07,1,,,,,カゾクシンタクカントクニンキョウカイ,0
1011,4011101101070,新規,0,2022-12-07,2022-12-07,株式会社ＳＡＴＹ,,株式会社,東京都,新宿区,西新宿３丁目３番１３号西新宿水間ビル６階,,13,104,1600023,,,,,,,2022-12-07,1,,,,,サティ,0
1016,4011201024254,新規,0,2022-12-07,2022-12-07,日本健櫻株式会社,,株式会社,東京都,中野区,江古田４丁目２５－３－１０１室,,13,114,1650022,,,,,,,2022-12-07,1,,,,,ニホンケンエイ,0
1018,4011301028279,新規,0,2022-12-07,2022-12-07,株式会社Ｖａｎｅｓｓａ,,株式会社,東京都,杉並区,高円寺南５丁目１５番１５号ケイアンドティ中野２０６号,,13,115,1660003,,,,,,,2022-12-07,1,,,,,,0
1020,4011303004600,新規,0,2022-12-07,2022-12-07,合鶴合同会社,,合同会社,東京都,杉並区,高円寺南５丁目１５番１２－３０１号,,13,115,1660003,,,,,,,2022-12-07,1,,,,,アイヅル,0
1024,4011501028731,新規,0,2022-12-07,2022-12-07,ＪＥＤ株式会社,,株式会社,東京都,荒川区,西日暮里４丁目１番２０号西日暮里エーシービル１０６Ｅ,,13,118,1160013,,,,,,,2022-12-07,1,,,,,ジェイイーディ,0
1029,4011803005420,新規,0,2022-12-07,2022-12-07,合同会社ライノ,,合同会社,東京都,葛飾区,新宿６丁目２番１８－１５３１号,,13,122,1250051,,,,,,,2022-12-07,1,,,,,ライノ,0
1030,4012301013238,新規,0,2022-12-07,2022-12-07,株式会社ＫＭＮ,,株式会社,東京都,町田市,鶴間１丁目８番地１１,,13,209,1940004,,,,,,,2022-12-07,1,,,,,ケイエムエヌ,0
1039,4020001149285,新規,0,2022-12-07,2022-12-07,株式会社ＴＯＰ　ＲＵＮＮＥＲ,,株式会社,神奈川県,横浜市西区,紅葉ケ丘６－１ＫＤＸレジデンス横濱紅葉坂７１０号,,14,103,2200044,,,,,,,2022-12-07,1,,,,,トップランナー,0
1040,4020001149302,新規,0,2022-12-07,2022-12-07,株式会社ＳＹＯＵＫＹＵ,,株式会社,神奈川県,横浜市西区,北幸２丁目１０番２８号むつみビル３Ｆ,,14,103,2200004,,,,,,,2022-12-07,1,,,,,ショウキュウ,0
1044,4020003022845,新規,0,2022-12-07,2022-12-07,合同会社ＣＨＩＫＵＳＨＩ,,合同会社,神奈川県,川崎市中原区,木月１丁目３５番７号元住吉ＧＳビル２０１,,14,133,2110025,,,,,,,2022-12-07,1,,,,,チクシ,0
1045,4020003022853,新規,0,2022-12-07,2022-12-07,合同会社イワミ,,合同会社,神奈川県,横浜市港北区,新吉田東６丁目５３－４４,,14,109,2230058,,,,,,,2022-12-07,1,,,,,イワミ,0
1049,4021001077633,新規,0,2022-12-07,2022-12-07,株式会社ＡＡＭＡ,,株式会社,神奈川県,相模原市緑区,城山４丁目２番３号,,14,151,2520116,,,,,,,2022-12-07,1,,,,,アーマ,0
1050,4021001077641,新規,0,2022-12-07,2022-12-07,株式会社オジキ,,株式会社,神奈川県,座間市,ひばりが丘５丁目４９番１６号,,14,216,2520003,,,,,,,2022-12-07,1,,,,,オジキ,0
1055,4021003012472,新規,0,2022-12-07,2022-12-07,合同会社ＭＺ,,合同会社,神奈川県,横須賀市,吉井４丁目２６番５号,,14,201,2390804,,,,,,,2022-12-07,1,,,,,エムゼット,0
1056,4021003012480,新規,0,2022-12-07,2022-12-07,合同会社杉本商事,,合同会社,神奈川県,藤沢市,湘南台７丁目３８番地の２,,14,205,2520804,,,,,,,2022-12-07,1,,,,,スギモトショウジ,0
1067,4030001151281,新規,0,2022-12-07,2022-12-07,株式会社Ｂｕｅｎａ　Ｖｉｄａ,,株式会社,埼玉県,幸手市,東３丁目３番７号,,11,240,3400114,,,,,,,2022-12-07,1,,,,,ブエナヴィーダ,0
1068,4030001151315,新規,0,2022-12-07,2022-12-07,株式会社Ｈｏｎｅｙｃｏｍ　Ｂ　Ｗｏｒｋｓ,,株式会社,埼玉県,白岡市,白岡７０７番地６,,11,246,3490218,,,,,,,2022-12-07,1,,,,,ハニカムビーワークス,0
1069,4030001151323,新規,0,2022-12-07,2022-12-07,株式会社アトラテック,,株式会社,埼玉県,さいたま市見沼区,大字南中野７１８番地１４,,11,104,3370042,,,,,,,2022-12-07,1,,,,,アトラテック,0
1070,4030001151348,新規,0,2022-12-07,2022-12-07,株式会社エフエス,,株式会社,埼玉県,さいたま市南区,内谷６丁目７－２１－３０１号,,11,108,3360034,,,,,,,2022-12-07,1,,,,,エフエス,0
1082,4040003021382,新規,0,2022-12-07,2022-12-07,バックウェル合同会社,,合同会社,千葉県,松戸市,根木内２３７番地の１－４０３号,,12,207,2700011,,,,,,,2022-12-07,1,,,,,バックウェル,0
1083,4040003021399,新規,0,2022-12-07,2022-12-07,合同会社ＴｓｕｒｕｏｋａＴｒａｎｓＰｏｒｔ,,合同会社,千葉県,市原市,惣社１５０番地,,12,219,2900023,,,,,,,2022-12-07,1,,,,,ツルオカトランスポート,0
1084,4040003021416,新規,0,2022-12-07,2022-12-07,ＲＥＤコイ自動車合同会社,,合同会社,千葉県,成田市,津富浦６０２－１,,12,211,2870236,,,,,,,2022-12-07,1,,,,,レッドコイジドウシャ,0
1085,4040003021432,新規,0,2022-12-07,2022-12-07,ＤＲＥＡＭ　ＡＵＴＯ　ＬＩＮＫ合同会社,,合同会社,千葉県,山武郡芝山町,高田１１８０番地３のＤ,,12,409,2891623,,,,,,,2022-12-07,1,,,,,ドリームオートリンク,0
1086,4040003021440,新規,0,2022-12-07,2022-12-07,合同会社東宇,,合同会社,千葉県,柏市,藤ケ谷３５７番地,,12,217,2770931,,,,,,,2022-12-07,1,,,,,トウウ,0
1087,4040005021835,新規,0,2022-12-07,2022-12-07,一般社団法人ガリア,,その他の設立登記法人,千葉県,千葉市稲毛区,稲毛東３丁目２０番１３号第２大越ビル４０５,,12,103,2630031,,,,,,,2022-12-07,1,,,,,ガリア,0
1091,4050001052049,新規,0,2022-12-07,2022-12-07,株式会社レプラス,,株式会社,茨城県,つくば市,吾妻１丁目５番地７ダイワロイネットつくばビル,,08,220,3050031,,,,,,,2022-12-07,1,,,,,レプラス,0
1100,4080003002908,新規,0,2022-12-07,2022-12-07,合同会社ヤルコト,,合同会社,静岡県,静岡市駿河区,池田８４５番地の５,,22,102,4228005,,,,,,,2022-12-07,1,,,,,ヤルコト,0
1101,4080105006303,新規,0,2022-12-07,2022-12-07,一般社団法人伊豆高原観光オフィス,,その他の設立登記法人,静岡県,伊東市,富戸１３１７番地の５,,22,208,4130231,,,,,,,2022-12-07,1,,,,,イズコウゲンカンコウオフィス,0
1129,4120001250743,新規,0,2022-12-07,2022-12-07,明和株式会社,,株式会社,大阪府,大阪市東住吉区,鷹合４丁目２１番１６号１Ｆ－Ａ,,27,121,5460014,,,,,,,2022-12-07,1,,,,,メイワ,0
1130,4120001250792,新規,0,2022-12-07,2022-12-07,株式会社グリーンフロレスタ,,株式会社,大阪府,大阪市福島区,大開１丁目１０番１０号,,27,103,5530007,,,,,,,2022-12-07,1,,,,,グリーンフロレスタ,0
1131,4120001250801,新規,0,2022-12-07,2022-12-07,株式会社めいてるキッチン,,株式会社,大阪府,大阪市阿倍野区,阿倍野筋２丁目４番３９号,,27,119,5450052,,,,,,,2022-12-07,1,,,,,メイテルキッチン,0
1132,4120001250826,新規,0,2022-12-07,2022-12-07,ＨＳＪＡＰＡＮ株式会社,,株式会社,大阪府,大阪市西成区,津守１丁目８番８号,,27,122,5570062,,,,,,,2022-12-07,1,,,,,エッチエスジャパン,0
1133,4120001250883,新規,0,2022-12-07,2022-12-07,株式会社ＫＡＫ,,株式会社,大阪府,大阪市浪速区,下寺１丁目２番６号中川マンション１０１号,,27,111,5560001,,,,,,,2022-12-07,1,,,,,ケーエーケー,0
1138,4120003022975,新規,0,2022-12-07,2022-12-07,ＡＬＬ　ＤＡＹ合同会社,,合同会社,大阪府,大阪市中央区,内久宝寺町３丁目３－１０,,27,128,5400013,,,,,,,2022-12-07,1,,,,,オールデイ,0
1139,4120003023024,新規,0,2022-12-07,2022-12-07,秀荘合同会社,,合同会社,大阪府,大阪市中央区,島之内１丁目４番３０号,,27,128,5420082,,,,,,,2022-12-07,1,,,,,シュウソウ,0
1142,4120101066619,新規,0,2022-12-07,2022-12-07,株式会社エムテック,,株式会社,大阪府,岸和田市,春木泉町１８－４５,,27,202,5960035,,,,,,,2022-12-07,1,,,,,エムテック,0
1144,4120901046836,新規,0,2022-12-07,2022-12-07,株式会社２３ＨＩＤＥ,,株式会社,大阪府,豊中市,走井２丁目１番８号,,27,203,5610891,,,,,,,2022-12-07,1,,,,,ニイサンヒデ,0
1151,4130001073227,新規,0,2022-12-07,2022-12-07,株式会社Ｅｎｅ　Ｓｍｉｌｅ,,株式会社,京都府,八幡市,八幡月夜田６７番地の１０,,26,210,6148047,,,,,,,2022-12-07,1,,,,,エネスマイル,0
1152,4130001073235,新規,0,2022-12-07,2022-12-07,株式会社Ｇａｔｅｗａｙ,,株式会社,京都府,京都市伏見区,深草キトロ町１２番地１０１号,,26,109,6120025,,,,,,,2022-12-07,1,,,,,ゲートウェイ,0
1154,4130003008362,新規,0,2022-12-07,2022-12-07,合同会社コロン,,合同会社,京都府,宮津市,字由良２６７９番地,,26,205,6260071,,,,,,,2022-12-07,1,,,,,コロン,0
1173,4180001154071,新規,0,2022-12-07,2022-12-07,株式会社ＡＸＩＳ,,株式会社,愛知県,名古屋市名東区,牧の原１丁目３３０番地,,23,115,4650072,,,,,,,2022-12-07,1,,,,,アクシス,0
1174,4180001154088,新規,0,2022-12-07,2022-12-07,株式会社リネックス,,株式会社,愛知県,名古屋市中村区,名駅５丁目３１番１０号リンクス名駅ビル６０９－６１０,,23,105,4500002,,,,,,,2022-12-07,1,,,,,リネックス,0
1175,4180001154105,新規,0,2022-12-07,2022-12-07,Ａｍｖｉａｔｉｏ株式会社,,株式会社,愛知県,名古屋市中村区,名駅３丁目４－１０アルティメイト名駅１ｓｔ、２階,,23,105,4500002,,,,,,,2022-12-07,1,,,,,アンビエーシオ,0
1176,4180001154113,新規,0,2022-12-07,2022-12-07,株式会社アパリリ,,株式会社,愛知県,名古屋市中村区,稲上町１丁目２３番地２Ｃ,,23,105,4530066,,,,,,,2022-12-07,1,,,,,アパリリ,0
1177,4180001154121,新規,0,2022-12-07,2022-12-07,株式会社Ｌ,,株式会社,愛知県,春日井市,鳥居松町２丁目１８９番地ロイヤルマンション鳥居松５０２号,,23,206,4860844,,,,,,,2022-12-07,1,,,,,エル,0
1178,4180003024545,新規,0,2022-12-07,2022-12-07,前廣合同会社,,合同会社,愛知県,名古屋市中村区,名駅３丁目４－１０アルティメイト名駅１ｓｔ、２階,,23,105,4500002,,,,,,,2022-12-07,1,,,,,マエヒロ,0
1179,4180003024578,新規,0,2022-12-07,2022-12-07,合同会社ＮＷ,,合同会社,愛知県,名古屋市昭和区,萩原町３丁目２５番地の２,,23,107,4660852,,,,,,,2022-12-07,1,,,,,エヌダブリュー,0
1185,4190001029990,新規,0,2022-12-07,2022-12-07,株式会社ＮＥＸＴ　ＧＲＯＷＴＨ,,株式会社,三重県,四日市市,六名町８６１番地３１,,24,202,5121116,,,,,,,2022-12-07,1,,,,,ネクストグロウス,0
1202,4260001037474,新規,0,2022-12-07,2022-12-07,豪創株式会社,,株式会社,岡山県,岡山市北区,岡町７番２０号メゾン岡町５０３号,,33,101,7000867,,,,,,,2022-12-07,1,,,,,ゴウソウ,0
1215,4290001099801,新規,0,2022-12-07,2022-12-07,ライム株式会社,,株式会社,福岡県,柳川市,大和町六合９２０番地,,40,207,8390244,,,,,,,2022-12-07,1,,,,,ライム,0
1220,4290801029107,新規,0,2022-12-07,2022-12-07,株式会社北九州ＳＤＧｓソーシャルファーム,,株式会社,福岡県,北九州市小倉北区,浅野３丁目８番１号ＡＩＭビル８階,,40,106,8020001,,,,,,,2022-12-07,1,,,,,キタキュウシュウエスディージーズソーシャルファーム,0
1224,4310001018155,新規,0,2022-12-07,2022-12-07,株式会社香焼プロパン,,株式会社,長崎県,長崎市,香焼町４４４番地１,,42,201,8510310,,,,,,,2022-12-07,1,,,,,コウヤギプロバン,0
1225,4320001019458,新規,0,2022-12-07,2022-12-07,株式会社クオリタスパートナーズ,,株式会社,大分県,大分市,大字荏隈７９２番地の７４,,44,201,8700889,,,,,,,2022-12-07,1,,,,,クオリタスパートナーズ,0
1228,4330001030372,新規,0,2022-12-07,2022-12-07,株式会社ＹＭＣ,,株式会社,熊本県,熊本市中央区,琴平１丁目１２番７号３０１,,43,101,8600813,,,,,,,2022-12-07,1,,,,,ワイエムシー,0
1236,4360001031285,新規,0,2022-12-07,2022-12-07,株式会社星南実業,,株式会社,沖縄県,宜野湾市,嘉数１丁目２１番１１号２Ｆ,,47,205,9012226,,,,,,,2022-12-07,1,,,,,セイナンジツギョウ,0
1242,4380001033313,新規,0,2022-12-07,2022-12-07,株式会社西山タイヤ商会,,株式会社,福島県,いわき市,四倉町字西二丁目３番地３,,07,204,9790201,,,,,,,2022-12-07,1,,,,,ニシヤマタイヤショウカイ,0
1244,4380002036331,新規,0,2022-12-07,2022-12-07,有限会社会陽産業商会,,有限会社,福島県,河沼郡会津坂下町,大字新舘字舘ノ内３番地,,07,421,9696505,,,,,,,2022-12-07,1,,,,,カイヨウサンギョウショウカイ,0
1246,4400001016075,新規,0,2022-12-07,2022-12-07,株式会社ＺＥＮ,,株式会社,岩手県,盛岡市,小鳥沢１丁目１４番３号,,03,201,0200104,,,,,,,2022-12-07,1,,,,,ゼン,0
1247,4400003002998,新規,0,2022-12-07,2022-12-07,合同会社ｂｉｇａｐ,,合同会社,岩手県,陸前高田市,広田町字六ヶ浦２９,,03,210,0292208,,,,,,,2022-12-07,1,,,,,ビギャップ,0
1254,4430001087997,新規,0,2022-12-07,2022-12-07,高橋ＡＹＯ工業株式会社,00128705,株式会社,北海道,札幌市手稲区,前田四条８丁目３番１号,,01,109,0060814,,,,,,,2022-12-07,1,,,,,タカハシエーワイオーコウギョウ,0
1255,4430001088013,新規,0,2022-12-07,2022-12-07,株式会社２７ホールディングス,,株式会社,北海道,札幌市中央区,宮の森一条５丁目１番６号,,01,101,0640951,,,,,,,2022-12-07,1,,,,,ツーセブンホールディングス,0
1257,4430003014529,新規,0,2022-12-07,2022-12-07,合同会社建基工業,,合同会社,北海道,札幌市白石区,川下５７４番地５６,,01,104,0030869,,,,,,,2022-12-07,1,,,,,ケンキコウギョウ,0
1263,4470003002298,新規,0,2022-12-07,2022-12-07,合同会社エマリープ,,合同会社,香川県,丸亀市,魚屋町１２番地１アルファスマート丸亀駅ＩＩ１００１号,00128708,37,202,7630006,,,,,,,2022-12-07,1,,,,,エマリープ,0
1266,4500001024638,新規,0,2022-12-07,2022-12-07,株式会社樹,,株式会社,愛媛県,今治市,高市甲４５番地８,,38,202,7991512,,,,,,,2022-12-07,1,,,,,イツキ,0
1271,4700150113279,新規,0,2022-12-07,2022-12-07,ＲＯＹＡＬ　ＴＲＡＤＥＲＳ,,外国会社等,千葉県,東金市,丹尾２１０番地４１オフィス２号,,12,213,2830824,スリランカ民主社会主義共和国、メダワチチヤ、テンプルロード、６０,,,,,,2022-12-07,1,,,,,ロイヤルトレーダース,0
1272,4700150113304,新規,0,2022-12-07,2022-12-07,Ｎａｍｅｃｏ（Ｎｏ．１３５８）Ｌｉｍｉｔｅｄ,,外国会社等,東京都,千代田区,霞が関３丁目２－６東京倶楽部ビルディング６階　ロイズジャパン株式会社内,,13,101,1000013,Ｏｎｅ　Ｌｉｍｅ　Ｓｔｒｅｅｔ　Ｌｏｎｄｏｎ　ＥＣ３Ｍ　７ＨＡ　ＵＫ,,,,,,2022-12-07,1,,,,,ネームコナンバーワンスリーフアイブエイトリミテツド,0
1273,4700150113312,新規,0,2022-12-07,2022-12-07,Ｎｏｍｉｎａ　Ｎｏ　６０６　ＬＬＰ,,外国会社等,東京都,千代田区,霞が関３丁目２－６東京倶楽部ビルディング６階　ロイズジャパン株式会社内,,13,101,1000013,Ｏｎｅ　Ｌｉｍｅ　Ｓｔｒｅｅｔ　Ｌｏｎｄｏｎ　ＥＣ３Ｍ　７ＨＡ　ＵＫ,,,,,,2022-12-07,1,,,,,ノミナナンバーシツクスゼロシツクスエルエルピー,0
1281,5010001231282,新規,0,2022-12-07,2022-12-07,ＳｐｉｅｌＰｌａｔｚ株式会社,,株式会社,東京都,中央区,日本橋茅場町１丁目１２番６号,,13,102,1030025,,,,,,,2022-12-07,1,,,,,シュピールプラッツ,0
1282,5010001231316,新規,0,2022-12-07,2022-12-07,株式会社フロンティア,,株式会社,東京都,中央区,勝どき１丁目８番１－４８０３号,,13,102,1040054,,,,,,,2022-12-07,1,,,,,フロンティア,0
1283,5010001231332,新規,0,2022-12-07,2022-12-07,エムコー株式会社,,株式会社,東京都,千代田区,富士見２丁目１０番３－４００５号,,13,101,1020071,,,,,,,2022-12-07,1,,,,,エムコー,0
1284,5010001231349,新規,0,2022-12-07,2022-12-07,株式会社ＧＸ　ＥＮＥＲＧＹ,,株式会社,東京都,中央区,日本橋本町３丁目８番５号,,13,102,1030023,,,,,,,2022-12-07,1,,,,,ジーエックスエナジー,0
1285,5010001231398,新規,0,2022-12-07,2022-12-07,株式会社ナレジー,,株式会社,東京都,中央区,銀座１丁目１２－４Ｎ＆Ｅ．ＢＬＤ．７階,,13,102,1040061,,,,,,,2022-12-07,1,,,,,ナレジー,0
1290,5010005035878,新規,0,2022-12-07,2022-12-07,一般社団法人ＴＣ１１,,その他の設立登記法人,東京都,中央区,日本橋１丁目４番１号日本橋一丁目ビルディング,,13,102,1030027,,,,,,,2022-12-07,1,,,,,ティーシーイレブン,0
1291,5010101015437,新規,0,2022-12-07,2022-12-07,株式会社ＣＥＤＡＲ,,株式会社,東京都,八王子市,谷野町７１９番地７２８,,13,201,1920016,,,,,,,2022-12-07,1,,,,,シダー,0
1303,5010401171145,新規,0,2022-12-07,2022-12-07,株式会社ｙｉｅｌｄｓｐａｃｅ,,株式会社,東京都,港区,赤坂１丁目１２－３２アーク森ビル３階,,13,103,1070052,,,,,,,2022-12-07,1,,,,,イールドスペース,0
1304,5010401171211,新規,0,2022-12-07,2022-12-07,株式会社フルスタックアソシエイツ,,株式会社,東京都,港区,浜松町２丁目２番１５号浜松町ダイヤビル２Ｆ,,13,103,1050013,,,,,,,2022-12-07,1,,,,,フルスタックアソシエイツ,0
1306,5010403029085,新規,0,2022-12-07,2022-12-07,Ｎｏｒｉｐｙ　ｔｏｕｒｓ合同会社,,合同会社,東京都,港区,西麻布３丁目７番１３号,,13,103,1060031,,,,,,,2022-12-07,1,,,,,ノリピーツアーズ,0
1310,5010601062251,新規,0,2022-12-07,2022-12-07,株式会社サンシャインプランニング,,株式会社,東京都,江東区,富岡２丁目１番１１－７０６号,,13,108,1350047,,,,,,,2022-12-07,1,,,,,サンシャインプランニング,0
1328,5011001151215,新規,0,2022-12-07,2022-12-07,株式会社ｆｌｏｗ,,株式会社,東京都,渋谷区,道玄坂１丁目１０番８号渋谷道玄坂東急ビル２Ｆ－Ｃ,,13,113,1500043,,,,,,,2022-12-07,1,,,,,フロー,0
1329,5011001151322,新規,0,2022-12-07,2022-12-07,株式会社ＡＢラボ,,株式会社,東京都,渋谷区,恵比寿１丁目１９番１９号,,13,113,1500013,,,,,,,2022-12-07,1,,,,,エービーラボ,0
1332,5011101101078,新規,0,2022-12-07,2022-12-07,株式会社ライフ,,株式会社,東京都,新宿区,西落合１丁目８番１１号,,13,104,1610031,,,,,,,2022-12-07,1,,,,,ライフ,0
1333,5011101101086,新規,0,2022-12-07,2022-12-07,株式会社Ｍｅｓｏｔｅｓ,,株式会社,東京都,新宿区,新宿７丁目２０番６号大久保マンション,,13,104,1600022,,,,,,,2022-12-07,1,,,,,メソテース,0
1335,5011303004599,新規,0,2022-12-07,2022-12-07,合同会社ふらっと,,合同会社,東京都,杉並区,高円寺南３丁目４５番３号吉本ＢＬ２０２号室,,13,115,1660003,,,,,,,2022-12-07,1,,,,,フラット,0
1336,5011401024747,新規,0,2022-12-07,2022-12-07,株式会社白鯨社,,株式会社,東京都,板橋区,舟渡３丁目１６番１１号,,13,119,1740041,,,,,,,2022-12-07,1,,,,,ハクゲイシャ,0
1340,5011501028730,新規,0,2022-12-07,2022-12-07,六相株式会社,,株式会社,東京都,荒川区,町屋３丁目２番１号Ｂ１Ｆ,,13,118,1160001,,,,,,,2022-12-07,1,,,,,ロクソウ,0
1343,5011701025833,新規,0,2022-12-07,2022-12-07,楽美佳旅行株式会社,,株式会社,東京都,江戸川区,中葛西８丁目１１－１６アセンズシティ３－９０１号室,,13,123,1340083,,,,,,,2022-12-07,1,,,,,ラクビカリョコウ,0
1346,5011805003231,新規,0,2022-12-07,2022-12-07,行政書士法人ペンタングル,,その他の設立登記法人,東京都,葛飾区,東堀切２丁目５番６号,,13,122,1240004,,,,,,,2022-12-07,1,,,,,,0
1347,5012301013237,新規,0,2022-12-07,2022-12-07,株式会社ＫＭＩ,,株式会社,東京都,町田市,鶴間１丁目８番地１１,,13,209,1940004,,,,,,,2022-12-07,1,,,,,ケイエムアイ,0
1348,5012401039933,新規,0,2022-12-07,2022-12-07,株式会社仙川堂,,株式会社,東京都,調布市,仙川町１丁目１２番地４３－３階,,13,208,1820002,,,,,,,2022-12-07,1,,,,,センガワドウ,0
1349,5012401039941,新規,0,2022-12-07,2022-12-07,ＵＮＩＴ株式会社,,株式会社,東京都,府中市,浅間町２丁目１６番地の３０,,13,206,1830001,,,,,,,2022-12-07,1,,,,,ユニット,0
1356,5013305003414,新規,0,2022-12-07,2022-12-07,一般社団法人音楽樹,,その他の設立登記法人,東京都,豊島区,東池袋２丁目２８番４－１０１号,,13,116,1700013,,,,,,,2022-12-07,1,,,,,オンガクジュ,0
1366,5020001149251,新規,0,2022-12-07,2022-12-07,株式会社インサイトライフ,,株式会社,神奈川県,横浜市西区,北幸２丁目１０－２８むつみビル３Ｆ,,14,103,2200004,,,,,,,2022-12-07,1,,,,,インサイトライフ,0
1367,5020001149268,新規,0,2022-12-07,2022-12-07,株式会社ブルームチェーン,,株式会社,神奈川県,横浜市西区,南浅間町１４番地２９－３Ｆ,,14,103,2200074,,,,,,,2022-12-07,1,,,,,ブルームチェーン,0
1371,5020003022844,新規,0,2022-12-07,2022-12-07,まなたか合同会社,,合同会社,神奈川県,横浜市青葉区,美しが丘１丁目８－１ドレッセワイズたまプラーザＣ５０４,,14,117,2250002,,,,,,,2022-12-07,1,,,,,マナタカ,0
1372,5020005015755,新規,0,2022-12-07,2022-12-07,医療法人雅房会,,その他の設立登記法人,神奈川県,横浜市神奈川区,栄町６番地１ヨコハマポートサイドロア弐番館１Ｆ,,14,102,2210052,,,,,,,2022-12-07,1,,,,,,0
1375,5021001077649,新規,0,2022-12-07,2022-12-07,株式会社ＭＩＲＡＩ　ＪＡＰＡＮ,,株式会社,神奈川県,厚木市,三田１８０５番地１,,14,212,2430211,,,,,,,2022-12-07,1,,,,,ミライジャパン,0
1379,5021003012463,新規,0,2022-12-07,2022-12-07,Ｌａｎｄｉｎｇ　Ｐａｄ　Ｔｏｋｙｏ　Ｐｌｕｓ合同会社,,合同会社,神奈川県,相模原市緑区,西橋本５丁目４番２１号,,14,151,2520131,,,,,,,2022-12-07,1,,,,,ランディングパッドトウキョウプラス,0
1380,5021003012471,新規,0,2022-12-07,2022-12-07,合同会社ＬｉｆｅＬｉｎｅ,,合同会社,神奈川県,小田原市,高田１９３－２４,,14,206,2500216,,,,,,,2022-12-07,1,,,,,ライフライン,0
1382,5030001151330,新規,0,2022-12-07,2022-12-07,株式会社ＴＮＫ,,株式会社,埼玉県,上尾市,大字地頭方５３７番地１３,,11,219,3620051,,,,,,,2022-12-07,1,,,,,ティーエヌケイ,0
1397,5040003021415,新規,0,2022-12-07,2022-12-07,合同会社上元商事,,合同会社,千葉県,千葉市美浜区,磯辺５丁目４番１棟２０３号,,12,106,2610012,,,,,,,2022-12-07,1,,,,,ウエモトショウジ,0
1398,5040003021431,新規,0,2022-12-07,2022-12-07,伝わる動画制作合同会社,,合同会社,千葉県,千葉市稲毛区,作草部町９５５－１－４－２０２,,12,103,2630014,,,,,,,2022-12-07,1,,,,,ツタワルドウガセイサク,0
1402,5050001052048,新規,0,2022-12-07,2022-12-07,株式会社百笑会,,株式会社,茨城県,石岡市,根小屋９６１番地２,,08,205,3150132,,,,,,,2022-12-07,1,,,,,ヒャクショウカイ,0
1403,5050003007074,新規,0,2022-12-07,2022-12-07,農業法人るるの森合同会社,,合同会社,茨城県,桜川市,真壁町原方１１４０番地１,,08,231,3004421,,,,,,,2022-12-07,1,,,,,ノウギョウホウジンルルノモリ,0
1409,5070001039893,新規,0,2022-12-07,2022-12-07,株式会社亀井企画,,株式会社,群馬県,伊勢崎市,西久保町３丁目９８５番地１,,10,204,3792204,,,,,,,2022-12-07,1,,,,,カメイキカク,0
1411,5070003004739,新規,0,2022-12-07,2022-12-07,合同会社Ｍ’ｓ,,合同会社,群馬県,高崎市,若松町３番地１４,,10,202,3700836,,,,,,,2022-12-07,1,,,,,エムズ,0
1412,5080003002907,新規,0,2022-12-07,2022-12-07,合同会社Ｅｉｇｈｔ,,合同会社,静岡県,藤枝市,高柳１丁目１２番１７－１号,,22,214,4260041,,,,,,,2022-12-07,1,,,,,エイト,0
1413,5080103002699,新規,0,2022-12-07,2022-12-07,Ｔｒｉｎｉｔｙ合同会社,,合同会社,静岡県,沼津市,東熊堂１６１‐１７,,22,203,4100013,,,,,,,2022-12-07,1,,,,,トリニティー,0
1429,5120001250726,新規,0,2022-12-07,2022-12-07,株式会社ＹＰＮ,,株式会社,大阪府,大阪市中央区,久太郎町２丁目４番１８－１００１号,,27,128,5410056,,,,,,,2022-12-07,1,,,,,ワイピーエヌ,0
1430,5120001250734,新規,0,2022-12-07,2022-12-07,株式会社Ｊ国際学院,,株式会社,大阪府,大阪市西区,立売堀１丁目７番１８号,,27,106,5500012,,,,,,,2022-12-07,1,,,,,ジェイコクサイガクイン,0
1431,5120001250783,新規,0,2022-12-07,2022-12-07,株式会社ＩＲＯＮ　ＦＡＣＴＯＲＹ,,株式会社,大阪府,大阪市平野区,加美東３丁目２番３号,,27,126,5470002,,,,,,,2022-12-07,1,,,,,アイアンファクトリー,0
1432,5120001250791,新規,0,2022-12-07,2022-12-07,Ｓ．Ｔ．Ｌ株式会社,,株式会社,大阪府,大阪市平野区,長吉長原西１丁目３番１３号ウノスビル３０７号,,27,126,5470015,,,,,,,2022-12-07,1,,,,,エスティーエル,0
1433,5120001250882,新規,0,2022-12-07,2022-12-07,株式会社ユー・プランニング,,株式会社,大阪府,大阪市福島区,福島７丁目１５番１－１８０１号,,27,103,5530003,,,,,,,2022-12-07,1,,,,,ユープランニング,0
1446,5120901046835,新規,0,2022-12-07,2022-12-07,ＫＳ　Ｐａｒｔｎｅｒｓ株式会社,,株式会社,大阪府,箕面市,箕面４丁目６番７号,,27,220,5620001,,,,,,,2022-12-07,1,,,,,ケイエスパートナーズ,0
1448,5122001036477,新規,0,2022-12-07,2022-12-07,株式会社ＢＲＩＧＨＴ　ＳＴＥＰ,,株式会社,大阪府,八尾市,太田新町３丁目１１４番地の６,,27,212,5810039,,,,,,,2022-12-07,1,,,,,ブライトステップ,0
1450,5122005003655,新規,0,2022-12-07,2022-12-07,一般社団法人かわちの労災保険センター,,その他の設立登記法人,大阪府,東大阪市,長田東２丁目１番３１号,,27,227,5770012,,,,,,,2022-12-07,1,,,,,カワチノロウサイホケンセンター,0
1452,5130001073192,新規,0,2022-12-07,2022-12-07,贏芝株式会社,,株式会社,京都府,京都市下京区,玉津島町２９４番地４０２号,,26,106,6008427,,,,,,,2022-12-07,1,,,,,エイシ,0
1453,5130001073242,新規,0,2022-12-07,2022-12-07,株式会社ＨＡＬＥ,,株式会社,京都府,城陽市,寺田丁子口７２番地の２４,,26,207,6100121,,,,,,,2022-12-07,1,,,,,ハレ,0
1460,5140003018442,新規,0,2022-12-07,2022-12-07,サルマ合同会社,,合同会社,兵庫県,神戸市長田区,上池田１丁目２番２４号左,,28,106,6530827,,,,,,,2022-12-07,1,,,,,サルマ,0
1468,5180001154112,新規,0,2022-12-07,2022-12-07,株式会社アイ・テック,,株式会社,愛知県,名古屋市千種区,春岡１丁目１番５号,,23,101,4640848,,,,,,,2022-12-07,1,,,,,アイテック,0
1469,5180001154120,新規,0,2022-12-07,2022-12-07,株式会社マムアン,,株式会社,愛知県,愛西市,稲葉町米野２２１番地１,,23,232,4960907,,,,,,,2022-12-07,1,,,,,マムアン,0
1477,5180003024577,新規,0,2022-12-07,2022-12-07,合同会社Ｒｅ　Ｌｉｅｎ,,合同会社,愛知県,名古屋市千種区,千種通５丁目２３番地ハイツアイリス３０１号,,23,101,4640855,,,,,,,2022-12-07,1,,,,,リリアン,0
1483,5180305009417,新規,0,2022-12-07,2022-12-07,リバーサイドみやこし管理組合法人,,その他の設立登記法人,愛知県,豊橋市,下地町字宮腰３３番地,,23,201,4400084,,,,,,,2022-12-07,1,,,,,リバーサイドミヤコシ,0
1490,5200001040747,新規,0,2022-12-07,2022-12-07,株式会社レコンド,,株式会社,岐阜県,不破郡垂井町,平尾７２９－１,,21,361,5032111,,,,,,,2022-12-07,1,,,,,レコンド,0
1493,5220001025168,新規,0,2022-12-07,2022-12-07,Ｍｉｒａｉｚ株式会社,,株式会社,石川県,金沢市,幸町１５番２号,,17,201,9200968,,,,,,,2022-12-07,1,,,,,ミライズ,0
1500,5240002041476,新規,0,2022-12-07,2022-12-07,有限会社対山館,,有限会社,広島県,福山市,鞆町鞆６２９番地,00128657,34,207,7200201,,,,,,,2022-12-07,1,,,,,ツイヤマカン,0
1515,5290001099809,新規,0,2022-12-07,2022-12-07,株式会社司竜,,株式会社,福岡県,小郡市,稲吉１０９番地１,,40,216,8380128,,,,,,,2022-12-07,1,,,,,シリュウ,0
1516,5290001099817,新規,0,2022-12-07,2022-12-07,株式会社Ｒｅ．Ｌｉｆｅ,,株式会社,福岡県,飯塚市,相田１８１－２２２,,40,205,8200052,,,,,,,2022-12-07,1,,,,,リライフ,0
1526,5290801029106,新規,0,2022-12-07,2022-12-07,日本ミライテクノロジー株式会社,,株式会社,福岡県,中間市,上蓮花寺１丁目２番１号,,40,215,8090013,,,,,,,2022-12-07,1,,,,,ニホンミライテクノロジー,0
1539,5360001031276,新規,0,2022-12-07,2022-12-07,ＧＲＯＯＶＥＲＳ株式会社,,株式会社,沖縄県,石垣市,字川平８６８番地１,,47,207,9070453,,,,,,,2022-12-07,1,,,,,グルーヴァーズ,0
1540,5360001031284,新規,0,2022-12-07,2022-12-07,株式会社リメイクホーム,,株式会社,沖縄県,宜野湾市,字宇地泊８０番地１,,47,205,9012227,,,,,,,2022-12-07,1,,,,,リメイクホーム,0
1543,5360005006753,新規,0,2022-12-07,2022-12-07,一般社団法人まじきな事務所,,その他の設立登記法人,沖縄県,沖縄市,高原６丁目２０番３号,,47,211,9042171,,,,,,,2022-12-07,1,,,,,マジキナジムショ,0
1546,5370001049326,新規,0,2022-12-07,2022-12-07,株式会社ＳＫインターナショナル,,株式会社,宮城県,仙台市青葉区,国分町２丁目１２－４セブンビレッジビル４Ｆ,,04,101,9800803,,,,,,,2022-12-07,1,,,,,エスケーインターナショナル,0
1547,5370001049334,新規,0,2022-12-07,2022-12-07,株式会社アールシー,,株式会社,宮城県,名取市,増田字後島２１５番地１,,04,207,9811224,,,,,,,2022-12-07,1,,,,,アールシー,0
1548,5370001049350,新規,0,2022-12-07,2022-12-07,Ｂｒｉｔｉｓｈ　Ｔｒａｄｅ　Ｊａｐａｎ株式会社,,株式会社,宮城県,仙台市太白区,茂庭字中ノ瀬東４－１,,04,104,9820251,,,,,,,2022-12-07,1,,,,,ブリティッシュトレードジャパン,0
1549,5370005010564,新規,0,2022-12-07,2022-12-07,医療法人りょうベビー＆キッズクリニック,,その他の設立登記法人,宮城県,仙台市青葉区,五橋２丁目１番１７号２階,,04,101,9800022,,,,,,,2022-12-07,1,,,,,リョウベビーアンドキッズクリニック,0
1555,5380001033304,新規,0,2022-12-07,2022-12-07,株式会社開成装美,,株式会社,福島県,郡山市,開成４丁目１番１９号,,07,203,9638851,,,,,,,2022-12-07,1,,,,,カイセイソウビ,0
1560,5400001016074,新規,0,2022-12-07,2022-12-07,千葉塗装工業株式会社,,株式会社,岩手県,滝沢市,穴口３８３番地１１,,03,216,0200633,,,,,,,2022-12-07,1,,,,,チバトソウコウギョウ,0
1568,5430001087988,新規,0,2022-12-07,2022-12-07,株式会社ＳＲＮ,,株式会社,北海道,小樽市,桜５丁目４番５号,,01,203,0470156,,,,,,,2022-12-07,1,,,,,エスアールエヌ,0
1569,5430001088020,新規,0,2022-12-07,2022-12-07,株式会社はるな不動産,,株式会社,北海道,札幌市北区,あいの里三条１丁目５番２３号,,01,102,0028073,,,,,,,2022-12-07,1,,,,,ハルナフドウサン,0
1571,5430003014528,新規,0,2022-12-07,2022-12-07,みるくケア北海道合同会社,,合同会社,北海道,札幌市北区,篠路二条５丁目１番１６号,,01,102,0028022,,,,,,,2022-12-07,1,,,,,ミルクケアホッカイドウ,0
1584,5500001024637,新規,0,2022-12-07,2022-12-07,株式会社佐々木設備,,株式会社,愛媛県,新居浜市,八幡３丁目６番１６号,,38,205,7920871,,,,,,,2022-12-07,1,,,,,ササキセツビ,0
1587,5700150113278,新規,0,2022-12-07,2022-12-07,ＮＡＫＡＩ　ＭＯＴＯＲＳ,,外国会社等,千葉県,山武市,上横地１２４０－１５－Ａ,,12,237,2891313,スリランカ民主社会主義共和国、キャンディ、アラワツゴダ、マルガマンデニヤ、Ｎｏ．１４１／Ｂ,,,,,,2022-12-07,1,,,,,ナカイモータース,0
1588,5700150113303,新規,0,2022-12-07,2022-12-07,Ｎａｍｅｃｏ（Ｎｏ．１３５７）Ｌｉｍｉｔｅｄ,,外国会社等,東京都,千代田区,霞が関３丁目２－６東京倶楽部ビルディング６階　ロイズジャパン株式会社内,,13,101,1000013,Ｏｎｅ　Ｌｉｍｅ　Ｓｔｒｅｅｔ　Ｌｏｎｄｏｎ　ＥＣ３Ｍ　７ＨＡ　ＵＫ,,,,,,2022-12-07,1,,,,,ネームコナンバーワンスリーフアイブセブンリミテツド,0
1589,5700150113311,新規,0,2022-12-07,2022-12-07,Ｎｏｍｉｎａ（Ｎｏ．１３６５）Ｌｉｍｉｔｅｄ,,外国会社等,東京都,千代田区,霞が関３丁目２－６東京倶楽部ビルディング６階　ロイズジャパン株式会社内,,13,101,1000013,Ｏｎｅ　Ｌｉｍｅ　Ｓｔｒｅｅｔ　Ｌｏｎｄｏｎ　ＥＣ３Ｍ　７ＨＡ　ＵＫ,,,,,,2022-12-07,1,,,,,ノミナナンバーワンスリーシツクスフアイブリミテツド,0
1598,6010001230886,新規,0,2022-12-07,2022-12-07,七七株式会社,,株式会社,東京都,千代田区,内神田１丁目１８番１１－４１８号,,13,101,1010047,,,,,,,2022-12-07,1,,,,,シチシチ,0
1599,6010003039236,新規,0,2022-12-07,2022-12-07,シークラフト合同会社,,合同会社,東京都,千代田区,霞が関３丁目６番１４号,,13,101,1000013,,,,,,,2022-12-07,1,,,,,シークラフト,0
1600,6010003039244,新規,0,2022-12-07,2022-12-07,合同会社サーブアップ,,合同会社,東京都,中央区,銀座１丁目１２－４Ｎ＆ＥＢＬＤ．７階,,13,102,1040061,,,,,,,2022-12-07,1,,,,,サーブアップ,0
1601,6010003039252,新規,0,2022-12-07,2022-12-07,ジェネシススリー合同会社,,合同会社,東京都,千代田区,丸の内３丁目１番１号東京共同会計事務所内,,13,101,1000005,,,,,,,2022-12-07,1,,,,,ジェネシススリー,0
1605,6010101015444,新規,0,2022-12-07,2022-12-07,株式会社ＮＥＸＵＳ,,株式会社,東京都,八王子市,東町２－５ＴＭビル５Ｆ,,13,201,1920082,,,,,,,2022-12-07,1,,,,,ネクサス,0
1606,6010103002036,新規,0,2022-12-07,2022-12-07,合同会社Ｋａｔａｒｉｎａ　Ｓｔｕｄｉｏ,,合同会社,東京都,八王子市,天神町２番地１０パレ・ドール八王子３０３号室,,13,201,1920074,,,,,,,2022-12-07,1,,,,,カタリナスタジオ,0
1609,6010401171152,新規,0,2022-12-07,2022-12-07,株式会社ＩＴＬＩＮＥ,,株式会社,東京都,港区,虎ノ門３丁目２５番５－１００３号,,13,103,1050001,,,,,,,2022-12-07,1,,,,,アイティーライン,0
1610,6010401171210,新規,0,2022-12-07,2022-12-07,リダクション株式会社,,株式会社,東京都,港区,六本木６丁目８番１０号ステップ六本木,,13,103,1060032,,,,,,,2022-12-07,1,,,,,リダクション,0
1611,6010401171227,新規,0,2022-12-07,2022-12-07,株式会社ＦｏｒＳｍｉｌｅ,,株式会社,東京都,港区,白金３丁目２３番６号フォリア白金１Ｆ,,13,103,1080072,,,,,,,2022-12-07,1,,,,,フォースマイル,0
1613,6010403028251,新規,0,2022-12-07,2022-12-07,合同会社ｉ‐Ｗｉｌｌｉｎｋ,,合同会社,東京都,港区,南青山２丁目２番１５号,,13,103,1070062,,,,,,,2022-12-07,1,,,,,アイウィリンク,0
1614,6010403029092,新規,0,2022-12-07,2022-12-07,合同会社ＡＲＳ,,合同会社,東京都,港区,芝浦４丁目５番９号ザハーバー芝浦５０３,,13,103,1080023,,,,,,,2022-12-07,1,,,,,アルス,0
1615,6010403029118,新規,0,2022-12-07,2022-12-07,合同会社ＳＰＣ米百俵プレイス北館,,合同会社,東京都,港区,元赤坂１丁目１番８号赤坂コミュニティビル４階,,13,103,1070051,,,,,,,2022-12-07,1,,,,,エスピーシーコメヒャッピョウプレイスキタカン,0
1616,6010405021659,新規,0,2022-12-07,2022-12-07,一般社団法人三郷半田組合,,その他の設立登記法人,東京都,港区,虎ノ門３丁目２２番１０－２０１号,,13,103,1050001,,,,,,,2022-12-07,1,,,,,ミサトハンダクミアイ,0
1626,6010901052117,新規,0,2022-12-07,2022-12-07,株式会社ディエディット,,株式会社,東京都,世田谷区,大蔵１丁目９番７号,,13,112,1570074,,,,,,,2022-12-07,1,,,,,ディエディット,0
1630,6011001151296,新規,0,2022-12-07,2022-12-07,株式会社Ｅｌｉｔｈ,,株式会社,東京都,渋谷区,恵比寿西２丁目３番１３号,,13,113,1500021,,,,,,,2022-12-07,1,,,,,エリス,0
1631,6011001151321,新規,0,2022-12-07,2022-12-07,大方株式会社,,株式会社,東京都,渋谷区,広尾５丁目４－２０,,13,113,1500012,,,,,,,2022-12-07,1,,,,,タイホウ,0
1634,6011101101077,新規,0,2022-12-07,2022-12-07,株式会社ＬＱＶＥ,,株式会社,東京都,新宿区,西新宿１丁目２５－１新宿センタービル４９階,,13,104,1600023,,,,,,,2022-12-07,1,,,,,エルキューブイイー,0
1644,6011801041639,新規,0,2022-12-07,2022-12-07,ＳＵＩ株式会社,,株式会社,東京都,葛飾区,堀切１丁目１１番７号,,13,122,1240006,,,,,,,2022-12-07,1,,,,,エスユーアイ,0
1645,6011801041647,新規,0,2022-12-07,2022-12-07,株式会社アドバンス,,株式会社,東京都,足立区,鹿浜４丁目１７番２７号,,13,121,1230864,,,,,,,2022-12-07,1,,,,,アドバンス,0
1647,6012401039924,新規,0,2022-12-07,2022-12-07,株式会社いるてと,,株式会社,東京都,三鷹市,新川６丁目３番１０号,,13,204,1810004,,,,,,,2022-12-07,1,,,,,イルテト,0
1648,6012401039940,新規,0,2022-12-07,2022-12-07,株式会社ＦＤグループ,,株式会社,東京都,調布市,国領町１丁目１７番地１,,13,208,1820022,,,,,,,2022-12-07,1,,,,,エフディーグループ,0
1657,6013301050038,新規,0,2022-12-07,2022-12-07,株式会社ｌｉｍａ,,株式会社,東京都,豊島区,池袋２丁目１３番４号天翔オフィス池袋西口３１３,,13,116,1710014,,,,,,,2022-12-07,1,,,,,アイマ,0
1659,6013303006392,新規,0,2022-12-07,2022-12-07,合同会社ＮＥＷ　ＷＯＲＬＤ,,合同会社,東京都,豊島区,池袋２丁目２２番３号池袋サンハイツ５０１,,13,116,1710014,,,,,,,2022-12-07,1,,,,,ニューワールド,0
1660,6013303006401,新規,0,2022-12-07,2022-12-07,合同会社ＥＸＣＥＥＤ,,合同会社,東京都,豊島区,南池袋１丁目９番１８号,,13,116,1710022,,,,,,,2022-12-07,1,,,,,,0
1666,6020001149242,新規,0,2022-12-07,2022-12-07,株式会社リトモス,,株式会社,神奈川県,横浜市青葉区,あざみ野１丁目９番地３クレアヒルズあざみ野５０４,,14,117,2250011,,,,,,,2022-12-07,1,,,,,リトモス,0
1672,6020005015754,新規,0,2022-12-07,2022-12-07,医療法人社団樹会,,その他の設立登記法人,神奈川県,川崎市高津区,諏訪３丁目１８番５号ドエルウィング１階,,14,134,2130004,,,,,,,2022-12-07,1,,,,,イツキカイ,0
1681,6021005012683,新規,0,2022-12-07,2022-12-07,医療法人仁結会,,その他の設立登記法人,神奈川県,藤沢市,鵠沼海岸２丁目３番地１３号ＴＡ湘南鵠沼海岸ビル２Ｆ－１号室,,14,205,2510037,,,,,,,2022-12-07,1,,,,,ジンユウカイ,0
1691,6030001151354,新規,0,2022-12-07,2022-12-07,株式会社大研,,株式会社,埼玉県,八潮市,大字二丁目９３９番地３,,11,234,3400811,,,,,,,2022-12-07,1,,,,,ダイケン,0
1692,6030001151370,新規,0,2022-12-07,2022-12-07,株式会社３Ｌｐａｒｔｎｅｒｓ,,株式会社,埼玉県,さいたま市大宮区,宮町２丁目９３－２,,11,103,3300802,,,,,,,2022-12-07,1,,,,,サンエルパートナーズ,0
1701,6030003020680,新規,0,2022-12-07,2022-12-07,合同会社Ｊ’ｓクルー,,合同会社,埼玉県,三郷市,高州３丁目３番地,,11,237,3410037,,,,,,,2022-12-07,1,,,,,ジェイズクルー,0
1702,6030003020697,新規,0,2022-12-07,2022-12-07,合同会社キャッツハンズ,,合同会社,埼玉県,幸手市,大字上高野１２７１番地１,,11,240,3400155,,,,,,,2022-12-07,1,,,,,キャッツハンズ,0
1709,6040001126090,新規,0,2022-12-07,2022-12-07,株式会社千葉中央どうぶつ病院,,株式会社,千葉県,千葉市中央区,院内１丁目２番８号川上ビル１階,,12,101,2600018,,,,,,,2022-12-07,1,,,,,チバチュウオウドウブツビョウイン,0
1710,6040001126124,新規,0,2022-12-07,2022-12-07,Ｊ２Ａ　Ｎｅｔｗｏｒｋ株式会社,,株式会社,千葉県,習志野市,谷津３丁目１番４１－６０６号,,12,216,2750026,,,,,,,2022-12-07,1,,,,,ジェイツーエーネットワーク,0
1711,6040001126132,新規,0,2022-12-07,2022-12-07,株式会社スカイクロス,,株式会社,千葉県,習志野市,大久保２丁目１５番２１号,,12,216,2750011,,,,,,,2022-12-07,1,,,,,スカイクロス,0
1712,6040001126140,新規,0,2022-12-07,2022-12-07,株式会社ヴィーナスアルケミー,,株式会社,千葉県,千葉市若葉区,都賀３丁目２番５号なかや第２ビル１Ｆ,,12,104,2640025,,,,,,,2022-12-07,1,,,,,ヴィーナスアルケミー,0
1718,6040003021397,新規,0,2022-12-07,2022-12-07,合同会社ラシクラス,,合同会社,千葉県,市川市,北方１丁目２４－１０,,12,203,2720815,,,,,,,2022-12-07,1,,,,,ラシクラス,0
1719,6040003021414,新規,0,2022-12-07,2022-12-07,Ａ‐ｔｒａｉｎｉｎｇ合同会社,,合同会社,千葉県,市川市,新田５丁目４番１号丸栄ビル２階,,12,203,2720035,,,,,,,2022-12-07,1,,,,,,0
1720,6040005021833,新規,0,2022-12-07,2022-12-07,一般社団法人Ｌｅａｐ,,その他の設立登記法人,千葉県,浦安市,今川３丁目２番２７号,,12,227,2790022,,,,,,,2022-12-07,1,,,,,リープ,0
1723,6050003007073,新規,0,2022-12-07,2022-12-07,ＫＯＫＡＷＡＬＡ合同会社,,合同会社,茨城県,龍ケ崎市,佐貫町４８６番地５－２階,,08,208,3010033,,,,,,,2022-12-07,1,,,,,コカワラ,0
1726,6070001039892,新規,0,2022-12-07,2022-12-07,株式会社はくさん企画,,株式会社,群馬県,高崎市,本郷町６０８番地３,,10,202,3703334,,,,,,,2022-12-07,1,,,,,ハクサンキカク,0
1739,6110001037165,新規,0,2022-12-07,2022-12-07,株式会社中野電気商会,,株式会社,新潟県,南蒲原郡田上町,大字原ケ崎新田２６３６番地１,,15,361,9591503,,,,,,,2022-12-07,1,,,,,ナカノデンキショウカイ,0
1744,6110003004931,新規,0,2022-12-07,2022-12-07,合同会社石原設計,,合同会社,新潟県,長岡市,来迎寺甲２６６４番地１８,,15,202,9495411,,,,,,,2022-12-07,1,,,,,イシハラセッケイ,0
1761,6120001250320,新規,0,2022-12-07,2022-12-07,星空株式会社,,株式会社,大阪府,大阪市西淀川区,姫島１丁目２１番１７号,,27,113,5550033,,,,,,,2022-12-07,1,,,,,ホシゾラ,0
1762,6120001250733,新規,0,2022-12-07,2022-12-07,株式会社ＩＥＤ,,株式会社,大阪府,大阪市西区,立売堀１丁目７番１８号,,27,106,5500012,,,,,,,2022-12-07,1,,,,,アイイーディー,0
1763,6120001250741,新規,0,2022-12-07,2022-12-07,大千株式会社,,株式会社,大阪府,大阪市生野区,巽北１丁目１番１号２Ｆ－Ｄ,,27,116,5440004,,,,,,,2022-12-07,1,,,,,ダイセン,0
1764,6120001250799,新規,0,2022-12-07,2022-12-07,株式会社ＮＫＢ,,株式会社,大阪府,大阪市城東区,中央２丁目１４番Ｄ－３００５号,,27,118,5360005,,,,,,,2022-12-07,1,,,,,エヌケービー,0
1765,6120001250808,新規,0,2022-12-07,2022-12-07,株式会社フレイヤ,,株式会社,大阪府,大阪市大正区,千島２丁目４番４－９２９号,,27,108,5510003,,,,,,,2022-12-07,1,,,,,フレイヤ,0
1791,6130003008369,新規,0,2022-12-07,2022-12-07,合同会社ジェネラルフリーコーポレーション,,合同会社,京都府,宇治市,広野町小根尾１３８番地９５,,26,204,6110031,,,,,,,2022-12-07,1,,,,,ジェネラルフリーコーポレーション,0
1798,6140001128300,新規,0,2022-12-07,2022-12-07,株式会社Ｔｏｒｔｕｅ,,株式会社,兵庫県,姫路市,西新在家３丁目６番２６号,,28,201,6700096,,,,,,,2022-12-07,1,,,,,トルチェ,0
1818,6180001154078,新規,0,2022-12-07,2022-12-07,シエナ株式会社,,株式会社,愛知県,名古屋市中川区,大当郎１丁目２００１番地の７,,23,110,4540943,,,,,,,2022-12-07,1,,,,,シエナ,0
1824,6180301036884,新規,0,2022-12-07,2022-12-07,株式会社Ｆｕｒｙ,,株式会社,愛知県,豊橋市,西幸町字浜池３３３番地９豊橋サイエンスコア１０９,,23,201,4418113,,,,,,,2022-12-07,1,,,,,フューリー,0
1833,6200001040738,新規,0,2022-12-07,2022-12-07,トラスティレンタカー岐阜株式会社,,株式会社,岐阜県,羽島郡岐南町,三宅４丁目１６４番地１,,21,302,5016002,,,,,,,2022-12-07,1,,,,,トラスティレンタカーギフ,0
1838,6220001025167,新規,0,2022-12-07,2022-12-07,株式会社能美スクールランチパートナーズ,,株式会社,石川県,能美市,浜町ヌ１６１番地２,,17,211,9290124,,,,,,,2022-12-07,1,,,,,ノミスクールランチパートナーズ,0
1852,6290001099766,新規,0,2022-12-07,2022-12-07,博多キャピタルマネジメント株式会社,,株式会社,福岡県,福岡市博多区,中洲４丁目１番２２号ＥＲＩビル８,,40,132,8100801,,,,,,,2022-12-07,1,,,,,ハカタキャピタルマネジメント,0
1853,6290001099808,新規,0,2022-12-07,2022-12-07,株式会社アカラ,,株式会社,福岡県,福岡市東区,名島４丁目２４番２号,,40,131,8130043,,,,,,,2022-12-07,1,,,,,アカラ,0
1854,6290001099816,新規,0,2022-12-07,2022-12-07,株式会社テルックス,,株式会社,福岡県,那珂川市,大字埋金８３０－１,,40,231,8111232,,,,,,,2022-12-07,1,,,,,テルックス,0
1858,6290003013295,新規,0,2022-12-07,2022-12-07,ＲＵＢＹ合同会社,,合同会社,福岡県,福岡市東区,箱崎２丁目４１番７号,,40,131,8120053,,,,,,,2022-12-07,1,,,,,ルビ,0
1872,6310001018153,新規,0,2022-12-07,2022-12-07,株式会社ＯＭＮ総業,,株式会社,長崎県,長崎市,寄合町３番３８号丸山マンション４Ｆ,,42,201,8500903,,,,,,,2022-12-07,1,,,,,オーエムエヌソウギョウ,0
1875,6330001030370,新規,0,2022-12-07,2022-12-07,株式会社ラキエスト不動産,,株式会社,熊本県,熊本市北区,龍田５丁目１２番３５－１号,,43,105,8618006,,,,,,,2022-12-07,1,,,,,ラキエストフドウサン,0
1880,6340005009534,新規,0,2022-12-07,2022-12-07,みなみたね地域創生協同組合,,その他の設立登記法人,鹿児島県,熊毛郡南種子町,中之上２２６２番地２,,46,502,8913701,,,,,,,2022-12-07,1,,,,,ミナミタネチイキソウセイ,0
1882,6360001031275,新規,0,2022-12-07,2022-12-07,ハッピーフラワー株式会社,,株式会社,沖縄県,南城市,知念字知念９１５番地１,,47,215,9011513,,,,,,,2022-12-07,1,,,,,ハッピーフラワー,0
1883,6360001031283,新規,0,2022-12-07,2022-12-07,株式会社Ｎｅｘｔ　ＤＩＭＥＮＳＩＯＮ,,株式会社,沖縄県,那覇市,おもろまち４丁目１７番１７号ＳＯＬビル１階,,47,201,9000006,,,,,,,2022-12-07,1,,,,,ネクストディメンション,0
1887,6370001049333,新規,0,2022-12-07,2022-12-07,株式会社サンシャイン動物病院,,株式会社,宮城県,仙台市太白区,八木山南６丁目７番地の４,,04,104,9820807,,,,,,,2022-12-07,1,,,,,サンシャインドウブツビョウイン,0
1888,6370003005912,新規,0,2022-12-07,2022-12-07,合同会社あしたファーム,,合同会社,宮城県,大崎市,古川七日町１０―２ａｌａｔａ内,,04,215,9896153,,,,,,,2022-12-07,1,,,,,アシタファーム,0
1896,6390002015290,新規,0,2022-12-07,2022-12-07,小国建設工業有限会社,,有限会社,山形県,西置賜郡小国町,大字大滝５４８番地,,06,401,9991336,,,,,,,2022-12-07,1,,,,,,0
1897,6400001016073,新規,0,2022-12-07,2022-12-07,株式会社アズ水沢,,株式会社,岩手県,一関市,花泉町油島字花欠２３番地３,,03,209,0293207,,,,,,,2022-12-07,1,,,,,アズミズサワ,0
1899,6400003003004,新規,0,2022-12-07,2022-12-07,Ｎａｓｈ　Ｅｎｅｒｇｙ　Ｊａｐａｎ合同会社,,合同会社,岩手県,盛岡市,盛岡駅西通１丁目９番３－１３０７号,,03,201,0200045,,,,,,,2022-12-07,1,,,,,,0
1903,6420001018092,新規,0,2022-12-07,2022-12-07,株式会社エムズライフ,,株式会社,青森県,十和田市,東十一番町２５番３１号,,02,206,0340013,,,,,,,2022-12-07,1,,,,,エムズライフ,0
1911,6430001088011,新規,0,2022-12-07,2022-12-07,株式会社トラストカーズ,,株式会社,北海道,札幌市南区,北ノ沢１７５３－１,,01,106,0050832,,,,,,,2022-12-07,1,,,,,トラストカーズ,0
1923,6700150113277,新規,0,2022-12-07,2022-12-07,ＥＬＩＧＨＴ　ＩＮＴＥＲＮＡＴＩＯＮＡＬ,,外国会社等,千葉県,山武市,上横地１２４０－１５－Ｂ,,12,237,2891313,スリランカ民主社会主義共和国、アクラナ、ニーレラジャンクション、Ｎｏ．１３７／Ａ,,,,,,2022-12-07,1,,,,,イーライトインターナシヨナル,0
1924,6700150113285,新規,0,2022-12-07,2022-12-07,Ｍａｄｈｕ　Ｔｒａｄｅ　Ｌｉｎｋ　株式会社,,外国会社等,東京都,板橋区,大山金井町５２－１５あらき荘２０１,,13,119,1730024,ネパール国カトマンズ市カトマンズ１０番地,,,,,,2022-12-07,1,,,,,マドウトレードリンクカブシキガイシヤ,0
1925,6700150113302,新規,0,2022-12-07,2022-12-07,Ｎａｍｅｃｏ（Ｎｏ　１３６８）Ｌｉｍｉｔｅｄ,,外国会社等,東京都,千代田区,霞が関３丁目２－６東京倶楽部ビルディング６階　ロイズジャパン株式会社内,,13,101,1000013,Ｏｎｅ　Ｌｉｍｅ　Ｓｔｒｅｅｔ　Ｌｏｎｄｏｎ　ＥＣ３Ｍ　７ＨＡ　ＵＫ,,,,,,2022-12-07,1,,,,,ネームコナンバーワンスリーシツクスエイトリミテツド,0
1926,6700150113310,新規,0,2022-12-07,2022-12-07,Ｎａｍｅｃｏ（Ｎｏ．１３７１）Ｌｉｍｉｔｅｄ,,外国会社等,東京都,千代田区,霞が関３丁目２－６東京倶楽部ビルディング６階　ロイズジャパン株式会社内,,13,101,1000013,Ｏｎｅ　Ｌｉｍｅ　Ｓｔｒｅｅｔ　Ｌｏｎｄｏｎ　ＥＣ３Ｍ　７ＨＡ　ＵＫ,,,,,,2022-12-07,1,,,,,ネームコナンバーワンスリーセブンワンリミテツド,0
1934,7010001231388,新規,0,2022-12-07,2022-12-07,株式会社トリニティ,,株式会社,東京都,中央区,銀座８丁目５番５号,,13,102,1040061,,,,,,,2022-12-07,1,,,,,トリニティ,0
1935,7010001231396,新規,0,2022-12-07,2022-12-07,ＫＡＳジャパン株式会社,,株式会社,東京都,千代田区,神田錦町２丁目２番地１,,13,101,1010054,,,,,,,2022-12-07,1,,,,,ケイエーエスジャパン,0
1943,7010005035876,新規,0,2022-12-07,2022-12-07,千葉北２ロジスティック特定目的会社,,その他の設立登記法人,東京都,中央区,八重洲２丁目２番１号,,13,102,1040028,,,,,,,2022-12-07,1,,,,,チバキタツーロジスティック,0
1949,7010401171192,新規,0,2022-12-07,2022-12-07,ｄｏｔｃｈｉ株式会社,,株式会社,東京都,港区,浜松町２丁目２番１５号浜松町ダイヤビル２Ｆ,,13,103,1050013,,,,,,,2022-12-07,1,,,,,ドッチ,0
1950,7010401171201,新規,0,2022-12-07,2022-12-07,株式会社ＳＵＬ　ＰＯＮＴＥ,,株式会社,東京都,港区,東麻布２丁目３５番１号ＫＣビル６Ｆ,,13,103,1060044,,,,,,,2022-12-07,1,,,,,スルポンテ,0
1961,7010605004157,新規,0,2022-12-07,2022-12-07,一般社団法人日本ビジネス交流協会,,その他の設立登記法人,東京都,江東区,白河３丁目１８番１０号,,13,108,1350021,,,,,,,2022-12-07,1,,,,,ニホンビジネスコウリュウキョウカイ,0
1968,7010901052108,新規,0,2022-12-07,2022-12-07,株式会社サンナース,,株式会社,東京都,世田谷区,代田５丁目１０番７－２０１号,,13,112,1550033,,,,,,,2022-12-07,1,,,,,サンナース,0
1974,7011001151361,新規,0,2022-12-07,2022-12-07,ｃｈｉｍａｌａ　ｄｅｓｉｇｎ株式会社,,株式会社,東京都,渋谷区,恵比寿南２丁目１６番６号サンレミナス２０１,,13,113,1500022,,,,,,,2022-12-07,1,,,,,チマラデザイン,0
1984,7011203003955,新規,0,2022-12-07,2022-12-07,合同会社レイジングフラワーズ,,合同会社,東京都,中野区,中央５丁目１４番４－２０３号,,13,114,1640011,,,,,,,2022-12-07,1,,,,,レイジングフラワーズ,0
1988,7011303004597,新規,0,2022-12-07,2022-12-07,ＩＳＰ合同会社,,合同会社,東京都,杉並区,高円寺北３丁目１９－６サンライズ高円寺１０５号室,,13,115,1660002,,,,,,,2022-12-07,1,,,,,アイエスピー,0
1998,7011801041646,新規,0,2022-12-07,2022-12-07,株式会社アルマパスレル,,株式会社,東京都,足立区,皿沼３丁目２９番１１号,,13,121,1230862,,,,,,,2022-12-07,1,,,,,アルマパスレル,0
2002,7012401039923,新規,0,2022-12-07,2022-12-07,株式会社車内の洗車屋さん,,株式会社,東京都,三鷹市,新川３丁目１７番８号,,13,204,1810004,,,,,,,2022-12-07,1,,,,,シャナイノセンシャヤサン,0
2003,7012403005709,新規,0,2022-12-07,2022-12-07,合同会社ネクサム,,合同会社,東京都,狛江市,西野川１丁目２５神代団地５７号棟３０２,,13,219,2010001,,,,,,,2022-12-07,1,,,,,ネクサム,0
2004,7012403005725,新規,0,2022-12-07,2022-12-07,合同会社Ｓｙｓｔｅｍ　ｏｆ　Ｕｎｉｔｙ,,合同会社,東京都,調布市,西つつじケ丘４丁目３－７メゾンＳＴ２号棟,,13,208,1820006,,,,,,,2022-12-07,1,,,,,システムオブユニティ,0
2006,7012803002941,新規,0,2022-12-07,2022-12-07,Ｍ＆Ａ　ＹＯＵＴＨ合同会社,,合同会社,東京都,日野市,落川２００１－７ジェイパーク聖蹟桜ヶ丘ＩＩ３０１号室,00128718,13,212,1910034,,,,,,,2022-12-07,1,,,,,エムアンドエーユース,0
2019,7020003022850,新規,0,2022-12-07,2022-12-07,ＹＭＣリフォーム合同会社,,合同会社,神奈川県,横浜市金沢区,長浜２丁目１番１２号,,14,108,2360011,,,,,,,2022-12-07,1,,,,,ワイエムシーリフォーム,0
2020,7020005015745,新規,0,2022-12-07,2022-12-07,医療法人清泉会,,その他の設立登記法人,神奈川県,横浜市戸塚区,品濃町５１５番地１ニューシティ東戸塚南の街３号棟１０９,,14,110,2440801,,,,,,,2022-12-07,1,,,,,セイセンカイ,0
2021,7020005015753,新規,0,2022-12-07,2022-12-07,医療法人ＧＯＴＯ会,,その他の設立登記法人,神奈川県,横浜市都筑区,茅ケ崎中央１番２号センター南駅光ビル４階,,14,118,2240032,,,,,,,2022-12-07,1,,,,,ゴトウカイ,0
2024,7021001077622,新規,0,2022-12-07,2022-12-07,株式会社ＬＴＳ,,株式会社,神奈川県,厚木市,鳶尾２丁目２３番１３号,,14,212,2430204,,,,,,,2022-12-07,1,,,,,エルティーエス,0
2025,7021001077639,新規,0,2022-12-07,2022-12-07,株式会社長島緑園計画,,株式会社,神奈川県,愛甲郡愛川町,角田１３４番地の２,,14,401,2430301,,,,,,,2022-12-07,1,,,,,ナガシマリョクエンケイカク,0
2026,7021001077647,新規,0,2022-12-07,2022-12-07,ワーキングクラス株式会社,,株式会社,神奈川県,厚木市,上荻野１２８６番地１,,14,212,2430201,,,,,,,2022-12-07,1,,,,,ワーキングクラス,0
2030,7021003012486,新規,0,2022-12-07,2022-12-07,ｓｅｅｄｓ＆ｌａｂｓ合同会社,,合同会社,神奈川県,茅ヶ崎市,松が丘２丁目６番４２－１４号,,14,207,2530025,,,,,,,2022-12-07,1,,,,,シーズアンドラボス,0
2036,7030001151337,新規,0,2022-12-07,2022-12-07,新座商事株式会社,,株式会社,埼玉県,新座市,野寺１丁目６８６番地４,,11,230,3520034,,,,,,,2022-12-07,1,,,,,ニイザショウジ,0
2046,7040001125975,新規,0,2022-12-07,2022-12-07,さくら商店株式会社,,株式会社,千葉県,流山市,大字西平井５６３番地の８,,12,220,2700156,,,,,,,2022-12-07,1,,,,,サクラショウテン,0
2047,7040001126081,新規,0,2022-12-07,2022-12-07,株式会社ベストマッチキャリア,,株式会社,千葉県,船橋市,本町７丁目１１番５号ＫＤＸ船橋ビル３Ｆ,,12,204,2730005,,,,,,,2022-12-07,1,,,,,ベストマッチキャリア,0
2048,7040001126131,新規,0,2022-12-07,2022-12-07,株式会社Ｄｏｕｓａｎ,,株式会社,千葉県,市川市,南八幡４丁目１６－１２ルネス本八幡南６０１,,12,203,2720023,,,,,,,2022-12-07,1,,,,,ドウサン,0
2052,7040005021733,新規,0,2022-12-07,2022-12-07,旭製粉製麺食品雑貨商工業協同組合,,その他の設立登記法人,千葉県,旭市,ロの７５１番地,,12,215,2892516,,,,,,,2022-12-07,1,,,,,アサヒセイフンセイメンショクヒンザッカショウコウギョウ,0
2053,7050001052054,新規,0,2022-12-07,2022-12-07,ケンコウ株式会社,,株式会社,茨城県,取手市,稲６０２番地１９,,08,217,3020026,,,,,,,2022-12-07,1,,,,,ケンコウ,0
2057,7050005013184,新規,0,2022-12-07,2022-12-07,一般社団法人土浦医療福祉連絡協議会,,その他の設立登記法人,茨城県,土浦市,桜町４丁目１１番１６号,,08,203,3000037,,,,,,,2022-12-07,1,,,,,ツチウライリョウフクシレンラクキョウギカイ,0
2060,7060001035512,新規,0,2022-12-07,2022-12-07,山光メンテ株式会社,,株式会社,栃木県,足利市,福居町５９５番地１,,09,202,3260338,,,,,,,2022-12-07,1,,,,,サンコウメンテ,0
2065,7070001039875,新規,0,2022-12-07,2022-12-07,株式会社ポリム・ラボ,,株式会社,群馬県,桐生市,広沢町５丁目５００６番地６,,10,203,3760013,,,,,,,2022-12-07,1,,,,,ポリムラボ,0
2066,7070001039883,新規,0,2022-12-07,2022-12-07,株式会社土屋商店,,株式会社,群馬県,吾妻郡嬬恋村,大字鎌原４５３番地の２,,10,425,3771524,,,,,,,2022-12-07,1,,,,,ツチヤショウテン,0
2069,7070003004737,新規,0,2022-12-07,2022-12-07,合同会社大勲,,合同会社,群馬県,高崎市,八幡原町４９７番地１,,10,202,3700024,,,,,,,2022-12-07,1,,,,,ダイクン,0
2070,7070003004745,新規,0,2022-12-07,2022-12-07,合同会社ＳＴＫ,,合同会社,群馬県,前橋市,三俣町１丁目４５番地３８,,10,201,3710018,,,,,,,2022-12-07,1,,,,,エスティーケー,0
2075,7110001037164,新規,0,2022-12-07,2022-12-07,株式会社ツクシ,,株式会社,新潟県,南蒲原郡田上町,大字原ケ崎新田１３６５番地１,,15,361,9591503,,,,,,,2022-12-07,1,,,,,ツクシ,0
2091,7120001250724,新規,0,2022-12-07,2022-12-07,株式会社安田商店,,株式会社,大阪府,大阪市東淀川区,大道南３丁目３番１４号,,27,114,5330012,,,,,,,2022-12-07,1,,,,,ヤスダショウテン,0
2092,7120001250732,新規,0,2022-12-07,2022-12-07,株式会社シナジー総研,,株式会社,大阪府,大阪市西区,立売堀１丁目７番１８号,,27,106,5500012,,,,,,,2022-12-07,1,,,,,シナジーソウケン,0
2093,7120001250798,新規,0,2022-12-07,2022-12-07,株式会社野田,,株式会社,大阪府,大阪市北区,池田町３番１号,,27,127,5300033,,,,,,,2022-12-07,1,,,,,ノダ,0
2099,7120101066616,新規,0,2022-12-07,2022-12-07,東特株式会社,,株式会社,大阪府,堺市西区,浜寺石津町東３丁１－６,,27,144,5928335,,,,,,,2022-12-07,1,,,,,トウトク,0
2110,7122001036475,新規,0,2022-12-07,2022-12-07,株式会社サンリムーヴ,,株式会社,大阪府,東大阪市,御厨西ノ町２丁目１番３号,,27,227,5770037,,,,,,,2022-12-07,1,,,,,サンリムーヴ,0
2115,7130001073224,新規,0,2022-12-07,2022-12-07,ＨＡＮＡＳＵＩ株式会社,,株式会社,京都府,京都市下京区,七条通油小路東入大黒町２２７番地第２キョートビル４０２,,26,106,6008223,,,,,,,2022-12-07,1,,,,,ハナスイ,0
2116,7130001073240,新規,0,2022-12-07,2022-12-07,Ｐａｔｅｎｔｉｘ株式会社,,株式会社,京都府,京都市西京区,下津林大般若町１２８番地１７,,26,111,6158037,,,,,,,2022-12-07,1,,,,,パテンティクス,0
2124,7140001128299,新規,0,2022-12-07,2022-12-07,姫路ＩＫサービス株式会社,,株式会社,兵庫県,姫路市,伊伝居９番地２,,28,201,6700871,,,,,,,2022-12-07,1,,,,,ヒメジアイケイサービス,0
2151,7180003024575,新規,0,2022-12-07,2022-12-07,合同会社ワイスタイル,,合同会社,愛知県,名古屋市東区,泉１丁目２１番２９号桜鈴館２０２,,23,102,4610001,,,,,,,2022-12-07,1,,,,,ワイスタイル,0
2156,7190001029996,新規,0,2022-12-07,2022-12-07,ファインエステート株式会社,,株式会社,三重県,桑名市,大字西別所１７００番地９０,,24,205,5110851,,,,,,,2022-12-07,1,,,,,ファインエステート,0
2158,7190003004163,新規,0,2022-12-07,2022-12-07,Ｆ＆Ｈ合同会社,,合同会社,三重県,四日市市,みゆきケ丘２丁目１４７３番地５７,,24,202,5100811,,,,,,,2022-12-07,1,,,,,エフアンドエイチ,0
2161,7200001040745,新規,0,2022-12-07,2022-12-07,株式会社トーカイ電設,,株式会社,岐阜県,可児市,土田字堀口４１７６番地１,,21,214,5090206,,,,,,,2022-12-07,1,,,,,トーカイデンセツ,0
2162,7220001025158,新規,0,2022-12-07,2022-12-07,ＧＩＫＥＮホールディングス株式会社,,株式会社,石川県,能美市,下清水町３番地２,,17,211,9231238,,,,,,,2022-12-07,1,,,,,ギケンホールディングス,0
2173,7250001019867,新規,0,2022-12-07,2022-12-07,株式会社ユナイテクト,,株式会社,山口県,柳井市,柳井４７１４番地１０,,35,212,7420021,,,,,,,2022-12-07,1,,,,,ユナイテクト,0
2178,7270001008678,新規,0,2022-12-07,2022-12-07,株式会社ＫＣ,,株式会社,鳥取県,倉吉市,海田東町５３０番地,,31,203,6820014,,,,,,,2022-12-07,1,,,,,ケーシー,0
2180,7270003001466,新規,0,2022-12-07,2022-12-07,合同会社セントラルオペレーション,,合同会社,鳥取県,日野郡日南町,佐木谷１０７５番地１,,31,401,6895541,,,,,,,2022-12-07,1,,,,,セントラルオペレーション,0
2186,7290001099815,新規,0,2022-12-07,2022-12-07,株式会社田口システムズ,,株式会社,福岡県,福岡市東区,香椎浜４丁目５番２‐１４１６号,,40,131,8130016,,,,,,,2022-12-07,1,,,,,タグチシステムズ,0
2198,7300001013154,新規,0,2022-12-07,2022-12-07,ＯＣＥＡＮ株式会社,,株式会社,佐賀県,藤津郡太良町,大字大浦丙７９２番地５,,41,441,8491613,,,,,,,2022-12-07,1,,,,,オーシャン,0
2210,7360001031274,新規,0,2022-12-07,2022-12-07,株式会社１１２９４７８,,株式会社,沖縄県,豊見城市,字豊崎３番地８４,,47,212,9010225,,,,,,,2022-12-07,1,,,,,イチイチニキュウヨナハ,0
2211,7360001031290,新規,0,2022-12-07,2022-12-07,株式会社良幸,,株式会社,沖縄県,那覇市,天久２丁目２１番２３号マンション和４階,,47,201,9000005,,,,,,,2022-12-07,1,,,,,リョウコウ,0
2212,7360001031299,新規,0,2022-12-07,2022-12-07,株式会社赤青の花,,株式会社,沖縄県,宜野湾市,赤道２丁目４番２１号１号室,,47,205,9012205,,,,,,,2022-12-07,1,,,,,セキセイノハナ,0
2213,7360003012520,新規,0,2022-12-07,2022-12-07,合同会社わかば,,合同会社,沖縄県,うるま市,字安慶名３８１番地４,,47,213,9042214,,,,,,,2022-12-07,1,,,,,ワカバ,0
2214,7360003012537,新規,0,2022-12-07,2022-12-07,合同会社アミーカンパニー,,合同会社,沖縄県,沖縄市,上地３丁目８番１０号,,47,211,9040031,,,,,,,2022-12-07,1,,,,,アミーカンパニー,0
2217,7370001049332,新規,0,2022-12-07,2022-12-07,株式会社秋茜,,株式会社,宮城県,富谷市,上桜木２丁目２番地２,,04,216,9813328,,,,,,,2022-12-07,1,,,,,アキアカネ,0
2218,7370001049340,新規,0,2022-12-07,2022-12-07,株式会社越浦,,株式会社,宮城県,多賀城市,南宮字町２７番地の１,,04,209,9850851,,,,,,,2022-12-07,1,,,,,コシウラ,0
2219,7370001049349,新規,0,2022-12-07,2022-12-07,株式会社フラット,,株式会社,宮城県,登米市,米山町中津山字的場９番地,,04,212,9870331,,,,,,,2022-12-07,1,,,,,フラット,0
2221,7370005010570,新規,0,2022-12-07,2022-12-07,医療法人芳縁会,,その他の設立登記法人,宮城県,仙台市青葉区,八幡２丁目３－６グラシアスはちまん１Ｆ,,04,101,9800871,,,,,,,2022-12-07,1,,,,,ホウエンカイ,0
2223,7380001033319,新規,0,2022-12-07,2022-12-07,株式会社ショウリュウ,,株式会社,福島県,双葉郡浪江町,大字権現堂字漆原１７番地ウェスティンハウス２０１,,07,547,9791521,,,,,,,2022-12-07,1,,,,,ショウリュウ,0
2225,7400001016080,新規,0,2022-12-07,2022-12-07,株式会社仁屋,,株式会社,岩手県,遠野市,松崎町白岩１３地割４番地１,,03,208,0280541,,,,,,,2022-12-07,1,,,,,ジンヤ,0
2227,7400003003003,新規,0,2022-12-07,2022-12-07,合同会社ＹＯＵＮＧ,,合同会社,岩手県,盛岡市,永井１９地割８番地１２シャーメゾンｆａｍ２０１号,,03,201,0200834,,,,,,,2022-12-07,1,,,,,ヤング,0
2228,7430001088002,新規,0,2022-12-07,2022-12-07,株式会社Ｎｏｒｔｈ　Ｔｏｎｅ,,株式会社,北海道,札幌市中央区,南二条東２丁目７番地１ビルセススクエア大通４階４０１,,01,101,0600052,,,,,,,2022-12-07,1,,,,,ノーストーン,0
2229,7430001088010,新規,0,2022-12-07,2022-12-07,株式会社ミヤセイフーズ,,株式会社,北海道,札幌市北区,新琴似七条１４丁目６番２７号,,01,102,0010907,,,,,,,2022-12-07,1,,,,,ミヤセイフーズ,0
2230,7430005014607,新規,0,2022-12-07,2022-12-07,一般社団法人北海道レーザークリーナー協会,,その他の設立登記法人,北海道,札幌市手稲区,富丘四条九丁目９番２７号,,01,109,0060000,,,,,,,2022-12-07,1,,,,,ホッカイドウレーザークリーナーキョウカイ,0
2239,7470001019374,新規,0,2022-12-07,2022-12-07,株式会社トモエコーポレーション,,株式会社,香川県,高松市,林町２５３３番地２,,37,201,7610301,,,,,,,2022-12-07,1,,,,,トモエコーポレーション,0
2243,7490003001717,新規,0,2022-12-07,2022-12-07,くいな合同会社,,合同会社,高知県,香南市,野市町中ノ村６２３番地,,39,211,7815211,,,,,,,2022-12-07,1,,,,,クイナ,0
2246,7700150113301,新規,0,2022-12-07,2022-12-07,Ｎａｍｅｃｏ（Ｎｏ　１３６３）Ｌｉｍｉｔｅｄ,,外国会社等,東京都,千代田区,霞が関３丁目２－６東京倶楽部ビルディング６階　ロイズジャパン株式会社内,,13,101,1000013,Ｏｎｅ　Ｌｉｍｅ　Ｓｔｒｅｅｔ　Ｌｏｎｄｏｎ　ＥＣ３Ｍ　７ＨＡ　ＵＫ,,,,,,2022-12-07,1,,,,,ネームコナンバーワンスリーシツクススリーリミテツド,0
2253,8010001231395,新規,0,2022-12-07,2022-12-07,株式会社ｉｎｉｔｉｕｍ,,株式会社,東京都,中央区,銀座１丁目２２－１１銀座大竹ビジデンス２Ｆ,,13,102,1040061,,,,,,,2022-12-07,1,,,,,イニティウム,0
2259,8010003039275,新規,0,2022-12-07,2022-12-07,合同会社Ｋ＆Ｋ,,合同会社,東京都,文京区,本郷１丁目８番１４号－７０３,,13,105,1130033,,,,,,,2022-12-07,1,,,,,ケーアンドケー,0
2261,8010101015442,新規,0,2022-12-07,2022-12-07,株式会社水足総合研究所,,株式会社,東京都,八王子市,めじろ台４丁目３２番地１２,,13,201,1930833,,,,,,,2022-12-07,1,,,,,ミズタリソウゴウケンキュウショ,0
2265,8010401171200,新規,0,2022-12-07,2022-12-07,ｇｉｖｅｒｆｏｒｇｅｔ株式会社,,株式会社,東京都,港区,南青山３丁目１番３６号青山丸竹ビル６Ｆ,,13,103,1070062,,,,,,,2022-12-07,1,,,,,ギヴァーフォゲット,0
2266,8010401171217,新規,0,2022-12-07,2022-12-07,株式会社ピー・シー・エル,,株式会社,東京都,港区,新橋１丁目１１番４号三栄ビル５Ｆ,,13,103,1050004,,,,,,,2022-12-07,1,,,,,ピーシーエル,0
2269,8010405021624,新規,0,2022-12-07,2022-12-07,一般社団法人地産地消エネルギー推進センター,,その他の設立登記法人,東京都,港区,港南１丁目６番３８号イズミヤビル３階,,13,103,1080075,,,,,,,2022-12-07,1,,,,,チサンチショウエネルギースイシンセンター,0
2273,8010601062240,新規,0,2022-12-07,2022-12-07,株式会社金城国際貿易,,株式会社,東京都,江東区,亀戸６丁目５６－９－２０２,,13,108,1360071,,,,,,,2022-12-07,1,,,,,カネシロコクサイボウエキ,0
2274,8010603009883,新規,0,2022-12-07,2022-12-07,合同会社ｋｏｍｏｎｓ　ｓｅｌｅｃｔｉｏｎ,,合同会社,東京都,江東区,大島８丁目３８－１５ライオンズステージイーストアクエア３０２,,13,108,1360072,,,,,,,2022-12-07,1,,,,,コモンズセレクション,0
2275,8010701043586,新規,0,2022-12-07,2022-12-07,ゴールデン・イースト・インベストメント・ジャパン株式会社,,株式会社,東京都,品川区,大崎４丁目１－６－２０１,,13,109,1410032,,,,,,,2022-12-07,1,,,,,ゴールデンイーストインベストメントジャパン,0
2277,8010703006500,新規,0,2022-12-07,2022-12-07,合同会社Ｈｕｇ,,合同会社,東京都,品川区,大崎３丁目５番３号,,13,109,1410032,,,,,,,2022-12-07,1,,,,,ハグ,0
2278,8010801033487,新規,0,2022-12-07,2022-12-07,Ｈｉ株式会社,,株式会社,東京都,大田区,下丸子２丁目２４番１０号多摩川ハイム１－３０７,,13,111,1460092,,,,,,,2022-12-07,1,,,,,ハーイ,0
2279,8010803004379,新規,0,2022-12-07,2022-12-07,合同会社ＳＯＭＡ,,合同会社,東京都,大田区,山王４丁目１９番９号,,13,111,1430023,,,,,,,2022-12-07,1,,,,,,0
2280,8010805002991,新規,0,2022-12-07,2022-12-07,大房行政書士法人,,その他の設立登記法人,東京都,大田区,西蒲田７丁目２６番１１号Ｆｌｏｓ蒲田４階,,13,111,1440051,,,,,,,2022-12-07,1,,,,,オオフサ,0
2292,8011005009860,新規,0,2022-12-07,2022-12-07,一般社団法人Ｊａｐａｎ　Ｈａｉｒｌｐ　Ｄｅｓｉｇｎ協会,,その他の設立登記法人,東京都,渋谷区,代々木１丁目５５番地２号,,13,113,1510053,,,,,,,2022-12-07,1,,,,,ジャパンヘアルプデザインキョウカイ,0
2299,8011101101100,新規,0,2022-12-07,2022-12-07,Ｌｉｂｅｎｐｌｕｓ株式会社,,株式会社,東京都,新宿区,西新宿３丁目３番１３号,,13,104,1600023,,,,,,,2022-12-07,1,,,,,リベンプラス,0
2301,8011103012469,新規,0,2022-12-07,2022-12-07,ＥＳＪコンサルティング合同会社,,合同会社,東京都,新宿区,西新宿３丁目３番１３号西新宿水間ビル２Ｆ,,13,104,1600023,,,,,,,2022-12-07,1,,,,,イーエスジェーコンサルティング,0
2311,8011403003837,新規,0,2022-12-07,2022-12-07,合同会社エンフル,,合同会社,東京都,板橋区,小茂根２丁目３番１５号横山第三ビル,,13,119,1730037,,,,,,,2022-12-07,1,,,,,エンフル,0
2312,8011501028736,新規,0,2022-12-07,2022-12-07,Ｔ２バレー株式会社,,株式会社,東京都,北区,十条仲原２丁目１２番１７号,,13,117,1140031,,,,,,,2022-12-07,1,,,,,ティーツーバレー,0
2320,8011703003322,新規,0,2022-12-07,2022-12-07,合同会社トレンドタイムズ,,合同会社,東京都,江戸川区,西小松川町１０番１３号,,13,123,1320032,,,,,,,2022-12-07,1,,,,,トレンドタイムズ,0
2328,8013101009067,新規,0,2022-12-07,2022-12-07,株式会社ＳＰＡＣＥ３６９,,株式会社,東京都,青梅市,梅郷２丁目４７８番地の１,,13,205,1980063,,,,,,,2022-12-07,1,,,,,スペースミロク,0
2331,8013301050028,新規,0,2022-12-07,2022-12-07,株式会社西武プロセスイノベーション,,株式会社,東京都,豊島区,南池袋１丁目１６番１５号,,13,116,1710022,,,,,,,2022-12-07,1,,,,,セイブプロセスイノベーション,0
2332,8013303006399,新規,0,2022-12-07,2022-12-07,合同会社フジプラザ,,合同会社,東京都,豊島区,東池袋１丁目１５番８号,,13,116,1700013,,,,,,,2022-12-07,1,,,,,フジプラザ,0
2342,8020001149232,新規,0,2022-12-07,2022-12-07,陽光航海株式会社,,株式会社,神奈川県,川崎市川崎区,砂子１丁目１番１２号いせやビル３０３号,,14,131,2100006,,,,,,,2022-12-07,1,,,,,ヨウコウコウカイ,0
2360,8021003012477,新規,0,2022-12-07,2022-12-07,合同会社Ｍ．Ｔ．Ｔｒａｄｉｎｇ,,合同会社,神奈川県,座間市,座間１丁目３１８７番地の３宝アパート２号１階２号室,,14,216,2520027,,,,,,,2022-12-07,1,,,,,,0
2370,8030003020695,新規,0,2022-12-07,2022-12-07,合同会社ヒラソル,,合同会社,埼玉県,羽生市,大字常木６００,,11,216,3480003,,,,,,,2022-12-07,1,,,,,ヒラソル,0
2376,8040001126089,新規,0,2022-12-07,2022-12-07,株式会社ピッコロ,,株式会社,千葉県,館山市,坂田９６番地１,,12,205,2940308,,,,,,,2022-12-07,1,,,,,ピッコロ,0
2377,8040001126130,新規,0,2022-12-07,2022-12-07,株式会社Ｌｉｎｏ,,株式会社,千葉県,松戸市,北松戸２丁目１４番地１,,12,207,2710063,,,,,,,2022-12-07,1,,,,,リノ,0
2384,8040003021420,新規,0,2022-12-07,2022-12-07,合同会社アイエム硝子,,合同会社,千葉県,松戸市,八ケ崎７丁目９－１１ジュネパレス松戸５９、２０８号,,12,207,2700023,,,,,,,2022-12-07,1,,,,,アイエムガラス,0
2385,8040003021429,新規,0,2022-12-07,2022-12-07,Ｍａｖｉｅ　Ｓｅｒｖｉｃｅ合同会社,,合同会社,千葉県,佐倉市,上志津１０６８番地１７リヴェール南ユーカリが丘２１０,,12,212,2850846,,,,,,,2022-12-07,1,,,,,メヴィサービス,0
2389,8050001052045,新規,0,2022-12-07,2022-12-07,ワイテック株式会社,,株式会社,茨城県,結城市,大字結城１１４８７番地４１,,08,207,3070001,,,,,,,2022-12-07,1,,,,,ワイテック,0
2390,8050001052061,新規,0,2022-12-07,2022-12-07,株式会社ＢＯＮＳ,,株式会社,茨城県,ひたちなか市,阿字ケ浦町２０００番地１メゾン・ド・シャルマン１０３号,,08,221,3111201,,,,,,,2022-12-07,1,,,,,ボンズ,0
2394,8050005013183,新規,0,2022-12-07,2022-12-07,一般社団法人スポーツ医学総合サポート土浦,,その他の設立登記法人,茨城県,土浦市,桜町４丁目１１番１６号,,08,203,3000037,,,,,,,2022-12-07,1,,,,,スポーツイガクソウゴウサポートツチウラ,0
2396,8060005010031,新規,0,2022-12-07,2022-12-07,一般社団法人ベストオブライフサポートエール,,その他の設立登記法人,栃木県,小山市,神鳥谷２丁目２１番１５号,,09,208,3230034,,,,,,,2022-12-07,1,,,,,ベストオブライフサポートエール,0
2398,8070003004728,新規,0,2022-12-07,2022-12-07,ＳＳ　ＩＮＴＥＲＮＡＴＩＯＮＡＬ合同会社,,合同会社,群馬県,伊勢崎市,境中島４０４番地１－２号,,10,204,3700133,,,,,,,2022-12-07,1,,,,,エスエスインターナショナル,0
2399,8070003004744,新規,0,2022-12-07,2022-12-07,合同会社ＡＧＥ,,合同会社,群馬県,前橋市,朝日町４丁目１１番１４号,,10,201,3710014,,,,,,,2022-12-07,1,,,,,エイジ,0
2400,8080001025337,新規,0,2022-12-07,2022-12-07,株式会社未来図,,株式会社,静岡県,静岡市駿河区,八幡４丁目１１番１２号,,22,102,4228076,,,,,,,2022-12-07,1,,,,,ミライズ,0
2403,8080101023678,新規,0,2022-12-07,2022-12-07,株式会社ＯＮＫ,,株式会社,静岡県,沼津市,北今沢２６番地の１７,,22,203,4100876,,,,,,,2022-12-07,1,,,,,オーエヌケー,0
2426,8120001250616,新規,0,2022-12-07,2022-12-07,株式会社高橋電気設備,,株式会社,大阪府,枚方市,町楠葉１丁目２２－２２,,27,210,5731106,,,,,,,2022-12-07,1,,,,,タカハシデンキセツビ,0
2427,8120001250839,新規,0,2022-12-07,2022-12-07,新野株式会社,,株式会社,大阪府,大阪市港区,八幡屋１丁目３－１－５０１,,27,107,5520014,,,,,,,2022-12-07,1,,,,,シンノ,0
2429,8120003022996,新規,0,2022-12-07,2022-12-07,合同会社ＶＩＥＴ　ＮＨＡＴ　ＳＨＯＰ,,合同会社,大阪府,大阪市生野区,新今里３丁目８番１７号ラ・フォンテ今里５０２号室,,27,116,5440001,,,,,,,2022-12-07,1,,,,,ヴィエトニャットショップ,0
2430,8120003023020,新規,0,2022-12-07,2022-12-07,合同会社Ｅ‐ＰＩＣ,,合同会社,大阪府,大阪市西区,北堀江１丁目１５番４号,,27,106,5500014,,,,,,,2022-12-07,1,,,,,イーピック,0
2431,8120005023324,新規,0,2022-12-07,2022-12-07,一般社団法人コンプリート,,その他の設立登記法人,大阪府,寝屋川市,太間東町８番７号,,27,215,5720072,,,,,,,2022-12-07,1,,,,,コンプリート,0
2442,8122001036466,新規,0,2022-12-07,2022-12-07,株式会社ＪＯＫＥＲ２４,,株式会社,大阪府,八尾市,南植松町５丁目１８１番地,,27,212,5810091,,,,,,,2022-12-07,1,,,,,ジョーカートゥエンティーフォー,0
2443,8122001036474,新規,0,2022-12-07,2022-12-07,ファンド株式会社,,株式会社,大阪府,大東市,中垣内１丁目８番３１号,,27,218,5740013,,,,,,,2022-12-07,1,,,,,ファンド,0
2444,8122001036482,新規,0,2022-12-07,2022-12-07,株式会社保険屋プラス,,株式会社,大阪府,八尾市,久宝寺１丁目２番２７号,,27,212,5810072,,,,,,,2022-12-07,1,,,,,ホケンヤプラス,0
2453,8130003008359,新規,0,2022-12-07,2022-12-07,合同会社ＥＮＥソーラー１号,,合同会社,京都府,八幡市,欽明台西８番地３,,26,210,6148297,,,,,,,2022-12-07,1,,,,,エネソーラーイチゴウ,0
2460,8140001128190,新規,0,2022-12-07,2022-12-07,株式会社コッタン,,株式会社,兵庫県,神戸市東灘区,魚崎北町４丁目１５番１９－２０３号ヴェルティーク住吉川,,28,101,6580082,,,,,,,2022-12-07,1,,,,,コッタン,0
2461,8140001128273,新規,0,2022-12-07,2022-12-07,嘉達株式会社,,株式会社,兵庫県,芦屋市,奥池南町４８番１２号,,28,206,6590004,,,,,,,2022-12-07,1,,,,,ヨシタツ,0
2465,8150005009444,新規,0,2022-12-07,2022-12-07,医療法人まゆみ会,,その他の設立登記法人,奈良県,生駒市,真弓２丁目４番５号,,29,209,6300122,,,,,,,2022-12-07,1,,,,,マユミカイ,0
2480,8180001154118,新規,0,2022-12-07,2022-12-07,株式会社ＧＩＰＳ,,株式会社,愛知県,日進市,岩崎町南口８３－２,,23,230,4700131,,,,,,,2022-12-07,1,,,,,ギプス,0
2486,8180003024574,新規,0,2022-12-07,2022-12-07,合同会社えにし,,合同会社,愛知県,瀬戸市,松原町１丁目６５番地の８,,23,204,4890985,,,,,,,2022-12-07,1,,,,,エニシ,0
2490,8190001029995,新規,0,2022-12-07,2022-12-07,高山塗建株式会社,00128707,株式会社,三重県,松阪市,小黒田町５５３番地４,,24,204,5150062,,,,,,,2022-12-07,1,,,,,タカヤマトケン,0
2491,8190003004162,新規,0,2022-12-07,2022-12-07,ＶＵＧＩＡ合同会社,,合同会社,三重県,四日市市,浜田町１０番１号,,24,202,5100067,,,,,,,2022-12-07,1,,,,,ブーザ,0
2501,8230005009270,新規,0,2022-12-07,2022-12-07,一般社団法人アキヤラボ,,その他の設立登記法人,富山県,南砺市,井波３０９４番地,,16,210,9320211,,,,,,,2022-12-07,1,,,,,アキヤラボ,0
2510,8250001019874,新規,0,2022-12-07,2022-12-07,ＭＮＳ株式会社,,株式会社,山口県,下関市,新地町４番５－１４０２号,,35,201,7500063,,,,,,,2022-12-07,1,,,,,エムエヌエス,0
2522,8290001099772,新規,0,2022-12-07,2022-12-07,株式会社ウエスタンヒル,,株式会社,福岡県,筑後市,大字熊野１５７６番地１３,,40,211,8330055,,,,,,,2022-12-07,1,,,,,ウエスタンヒル,0
2523,8290001099806,新規,0,2022-12-07,2022-12-07,ＡＮＤ．Ｄ株式会社,,株式会社,福岡県,福岡市早良区,東入部１丁目４２番１号,,40,137,8111102,,,,,,,2022-12-07,1,,,,,アンドディー,0
2524,8290001099814,新規,0,2022-12-07,2022-12-07,株式会社ＫＲＩＺＥ,,株式会社,福岡県,福岡市早良区,原４丁目１５番１７‐７０３号アーサー原クオリア,,40,137,8140022,,,,,,,2022-12-07,1,,,,,クライズ,0
2529,8290801029111,新規,0,2022-12-07,2022-12-07,株式会社福建,,株式会社,福岡県,北九州市八幡西区,西神原町３番９‐３０５号,,40,109,8060026,,,,,,,2022-12-07,1,,,,,フクケン,0
2531,8290803004285,新規,0,2022-12-07,2022-12-07,合同会社旭,,合同会社,福岡県,北九州市八幡東区,槻田２丁目１２番３号サーフサイドビル到津２０２号室,,40,108,8050031,,,,,,,2022-12-07,1,,,,,アサヒ,0
2532,8300001013153,新規,0,2022-12-07,2022-12-07,株式会社サガリペ,,株式会社,佐賀県,佐賀市,大和町大字池上１９５３番地１,,41,201,8400212,,,,,,,2022-12-07,1,,,,,サガリペ,0
2539,8350001018057,新規,0,2022-12-07,2022-12-07,株式会社南国きのこ,,株式会社,宮崎県,都城市,丸谷町３９６３番地,,45,202,8851105,,,,,,,2022-12-07,1,,,,,ナンゴクキノコ,0
2541,8360001007018,新規,0,2022-12-07,2022-12-07,株式会社マキシー,,株式会社,沖縄県,那覇市,牧志２丁目２番６号,,47,201,9000013,,,,,,,2022-12-07,1,,,,,マキシー,0
2542,8360001031232,新規,0,2022-12-07,2022-12-07,ＬＩＮＫ株式会社,,株式会社,沖縄県,中頭郡西原町,字内間４３７－２,,47,329,9030121,,,,,,,2022-12-07,1,,,,,リンク,0
2544,8360003012528,新規,0,2022-12-07,2022-12-07,合同会社ＳＫＫスポーツ,,合同会社,沖縄県,那覇市,松尾１丁目２０番１５号１Ｆ,,47,201,9000014,,,,,,,2022-12-07,1,,,,,エスケーケースポーツ,0
2545,8360003012536,新規,0,2022-12-07,2022-12-07,沖縄ＴＦＣ合同会社,,合同会社,沖縄県,那覇市,若狭１丁目３番１７号フランスビル１階,,47,201,9000031,,,,,,,2022-12-07,1,,,,,オキナワティーエフシー,0
2548,8370001049348,新規,0,2022-12-07,2022-12-07,アニー工業株式会社,,株式会社,宮城県,多賀城市,下馬３丁目１０番３２号,,04,209,9850835,,,,,,,2022-12-07,1,,,,,アニーコウギョウ,0
2549,8370003005910,新規,0,2022-12-07,2022-12-07,合同会社環境技研,,合同会社,宮城県,仙台市太白区,西多賀１丁目２１番８号三神峯ビル２０１号,,04,104,9820034,,,,,,,2022-12-07,1,,,,,カンキョウギケン,0
2558,8400003003002,新規,0,2022-12-07,2022-12-07,合同会社ＨＥＡＲＴ,,合同会社,岩手県,盛岡市,永井１９地割８番地１２シャーメゾンｆａｍ２０１号,,03,201,0200834,,,,,,,2022-12-07,1,,,,,ハート,0
2576,8700150113300,新規,0,2022-12-07,2022-12-07,Ｍｏｓａｉｃ　Ｃｏｒｐｏｒａｔｅ　Ｃａｐｉｔａｌ　Ｌｉｍｉｔｅｄ,,外国会社等,東京都,千代田区,霞が関３丁目２－６東京倶楽部ビルディング６階　ロイズジャパン株式会社内,,13,101,1000013,Ｏｎｅ　Ｌｉｍｅ　Ｓｔｒｅｅｔ　Ｌｏｎｄｏｎ　ＥＣ３Ｍ　７ＨＡ　ＵＫ,,,,,,2022-12-07,1,,,,,モザイクコーポレートキヤピタルリミテツド,0
2577,8700150113309,新規,0,2022-12-07,2022-12-07,Ｎａｍｅｃｏ（Ｎｏ．１３６９）Ｌｉｍｉｔｅｄ,,外国会社等,東京都,千代田区,霞が関３丁目２－６東京倶楽部ビルディング６階　ロイズジャパン株式会社内,,13,101,1000013,Ｏｎｅ　Ｌｉｍｅ　Ｓｔｒｅｅｔ　Ｌｏｎｄｏｎ　ＥＣ３Ｍ　７ＨＡ　ＵＫ,,,,,,2022-12-07,1,,,,,ネームコナンバーワンスリーシツクスナインリミテツド,0
2590,9010001231353,新規,0,2022-12-07,2022-12-07,株式会社ＮＤＣ,,株式会社,東京都,中央区,銀座６丁目６番１号銀座風月堂ビル５Ｆ,,13,102,1040061,,,,,,,2022-12-07,1,,,,,エヌディシー,0
2591,9010001231378,新規,0,2022-12-07,2022-12-07,株式会社トランプ企画ジャパン,,株式会社,東京都,千代田区,神田三崎町３丁目３番３号４０４,,13,101,1010061,,,,,,,2022-12-07,1,,,,,トランプキカクジャパン,0
2592,9010001231444,新規,0,2022-12-07,2022-12-07,ＡＳＴＨＯＭ　ＰＡＲＴＮＥＲＳ株式会社,,株式会社,東京都,千代田区,大手町１丁目９番５号大手町フィナンシャルシティノースタワー,,13,101,1000004,,,,,,,2022-12-07,1,,,,,アストムパートナーズ,0
2594,9010101015441,新規,0,2022-12-07,2022-12-07,株式会社アイダッシュ,,株式会社,東京都,八王子市,左入町３３４番地２,,13,201,1920012,,,,,,,2022-12-07,1,,,,,アイダッシュ,0
2597,9010401171208,新規,0,2022-12-07,2022-12-07,株式会社Ｇｒｏｗ,,株式会社,東京都,港区,赤坂４丁目８番１９号赤坂フロントタウン３階,,13,103,1070052,,,,,,,2022-12-07,1,,,,,グロウ,0
2607,9010701043585,新規,0,2022-12-07,2022-12-07,オカム・ニッポン・キャピタル株式会社,,株式会社,東京都,品川区,大崎４丁目１－６－２０１,,13,109,1410032,,,,,,,2022-12-07,1,,,,,オカムニッポンキャピタル,0
2608,9010703006499,新規,0,2022-12-07,2022-12-07,合同会社リーブル,,合同会社,東京都,品川区,大井４丁目１８－２,,13,109,1400014,,,,,,,2022-12-07,1,,,,,,0
2609,9010801033486,新規,0,2022-12-07,2022-12-07,株式会社Ｕｎｉｅ,,株式会社,東京都,大田区,仲六郷１丁目５２番１９号,,13,111,1440055,,,,,,,2022-12-07,1,,,,,ユニー,0
2611,9010803004378,新規,0,2022-12-07,2022-12-07,工房ＯＤＯＮＴＯＧＬＯＳＳＵＭ合同会社,,合同会社,東京都,大田区,南馬込４丁目１０番１６－３０３号,,13,111,1430025,,,,,,,2022-12-07,1,,,,,コウボウオドントグロッサム,0
2615,9010901052114,新規,0,2022-12-07,2022-12-07,株式会社ジムグリット,,株式会社,東京都,世田谷区,中町５丁目１７番１号,,13,112,1580091,,,,,,,2022-12-07,1,,,,,ジムグリット,0
2627,9011003015736,新規,0,2022-12-07,2022-12-07,合同会社ｋｏｔ,,合同会社,東京都,目黒区,中目黒５丁目７番３３－１０２号ハイツ伊東,,13,110,1530061,,,,,,,2022-12-07,1,,,,,コト,0
2633,9011105010486,新規,0,2022-12-07,2022-12-07,一般社団法人日本サッカー審判協会,,その他の設立登記法人,東京都,新宿区,新小川町５番２０号,,13,104,1620814,,,,,,,2022-12-07,1,,,,,ニホンサッカーシンパンキョウカイ,0
2635,9011201024274,新規,0,2022-12-07,2022-12-07,株式会社ＶＩＮＧＴ　ＳＥＰＴ,,株式会社,東京都,中野区,大和町４丁目４３番５号,,13,114,1650034,,,,,,,2022-12-07,1,,,,,ヴァンセット,0
2636,9011201024282,新規,0,2022-12-07,2022-12-07,株式会社モア,,株式会社,東京都,中野区,野方３丁目１番１４－２０２号,,13,114,1650027,,,,,,,2022-12-07,1,,,,,モア,0
2646,9011305002878,新規,0,2022-12-07,2022-12-07,特定非営利活動法人ＯＭＯＩＹＡＲＩ　ＳＯＮＴＯＫＵ,,その他の設立登記法人,東京都,杉並区,西荻北４丁目４番４号,,13,115,1670042,,,,,,,2022-12-07,1,,,,,,0
2650,9011501028735,新規,0,2022-12-07,2022-12-07,株式会社フジ工業,,株式会社,東京都,荒川区,南千住１丁目５６番８号,,13,118,1160003,,,,,,,2022-12-07,1,,,,,フジコウギョウ,0
2656,9012401039946,新規,0,2022-12-07,2022-12-07,株式会社ＴＤＫ,,株式会社,東京都,多摩市,和田１１９２番地の１ライオンズマンション聖蹟桜ヶ丘第６－２０４,,13,224,2060001,,,,,,,2022-12-07,1,,,,,ティーディーケー,0
2658,9012403005715,新規,0,2022-12-07,2022-12-07,合同会社ＦＩＳ,,合同会社,東京都,多摩市,落合１丁目５番１号グリムコートビル６０２,,13,224,2060033,,,,,,,2022-12-07,1,,,,,フィズ,0
2664,9013301050019,新規,0,2022-12-07,2022-12-07,キーポイント東京株式会社,,株式会社,東京都,豊島区,池袋２丁目２２番１号,,13,116,1710014,,,,,,,2022-12-07,1,,,,,キーポイントトウキョウ,0
2671,9020001149256,新規,0,2022-12-07,2022-12-07,株式会社ニアーズ,,株式会社,神奈川県,横浜市磯子区,森３丁目３番４号,,14,107,2350023,,,,,,,2022-12-07,1,,,,,ニアーズ,0
2672,9020001149289,新規,0,2022-12-07,2022-12-07,株式会社デザインジャパン,,株式会社,神奈川県,横浜市都筑区,東山田２丁目１０番３７号２Ｂ室,,14,118,2240023,,,,,,,2022-12-07,1,,,,,デザインジャパン,0
2682,9021001077637,新規,0,2022-12-07,2022-12-07,株式会社Ｒ・Ｍ　ＳＴＹＬＥ,,株式会社,神奈川県,相模原市中央区,相模原４丁目３番１７号相模原ＴＯＢビル７階,,14,152,2520231,,,,,,,2022-12-07,1,,,,,アールエムスタイル,0
2685,9021003012435,新規,0,2022-12-07,2022-12-07,Ｍ・ｐａｌｅｔｔｅ合同会社,,合同会社,神奈川県,藤沢市,鵠沼橘１丁目１６－５ザパークハウス藤沢１３０２,,14,205,2510024,,,,,,,2022-12-07,1,,,,,マーッケティングパレッド,0
2687,9030001151302,新規,0,2022-12-07,2022-12-07,株式会社イトスギ,,株式会社,埼玉県,新座市,東北２丁目２番１６号,,11,230,3520001,,,,,,,2022-12-07,1,,,,,イトスギ,0
2688,9030001151368,新規,0,2022-12-07,2022-12-07,北昇株式会社,,株式会社,埼玉県,草加市,手代３丁目５４番２６号,,11,221,3400021,,,,,,,2022-12-07,1,,,,,ホクショウ,0
2693,9030003020694,新規,0,2022-12-07,2022-12-07,合同会社Ｓ１水道メンテナンス,,合同会社,埼玉県,春日部市,粕壁５９９９番地１２,,11,214,3440061,,,,,,,2022-12-07,1,,,,,エスワンスイドウメンテナンス,0
2696,9040001126088,新規,0,2022-12-07,2022-12-07,エクト株式会社,,株式会社,千葉県,市川市,国分７丁目１番２号,,12,203,2720834,,,,,,,2022-12-07,1,,,,,エクト,0
2697,9040001126121,新規,0,2022-12-07,2022-12-07,株式会社大樹,,株式会社,千葉県,市川市,南大野１丁目４７番５６－１１３号,,12,203,2720804,,,,,,,2022-12-07,1,,,,,ダイキ,0
2698,9040001126138,新規,0,2022-12-07,2022-12-07,大宇通商株式会社,,株式会社,千葉県,市川市,塩焼５丁目１２番３４－３０６号,,12,203,2720114,,,,,,,2022-12-07,1,,,,,ダイウツウショウ,0
2702,9040003021428,新規,0,2022-12-07,2022-12-07,合同会社三代,,合同会社,千葉県,松戸市,新松戸３丁目１－２－１３１２,,12,207,2700034,,,,,,,2022-12-07,1,,,,,ミヨ,0
2703,9040003021436,新規,0,2022-12-07,2022-12-07,合同会社ユイアーチ,,合同会社,千葉県,船橋市,小室町９０１番地Ｃ―１１棟１０３号,,12,204,2701471,,,,,,,2022-12-07,1,,,,,ユイアーチ,0
2717,9070001039881,新規,0,2022-12-07,2022-12-07,株式会社ひかり商事,,株式会社,群馬県,伊勢崎市,境東新井４８６番地,,10,204,3700101,,,,,,,2022-12-07,1,,,,,ヒカリショウジ,0
2720,9070003004743,新規,0,2022-12-07,2022-12-07,合同会社レイクプラッツ,,合同会社,群馬県,高崎市,井野町１１０９番地４,,10,202,3700004,,,,,,,2022-12-07,1,,,,,レイクプラッツ,0
2724,9080001025336,新規,0,2022-12-07,2022-12-07,ＡｏｉＨｉｒｏ株式会社,,株式会社,静岡県,静岡市葵区,瀬名川２丁目１４番４８号,,22,101,4200913,,,,,,,2022-12-07,1,,,,,アオイヒロ,0
2728,9100003006810,新規,0,2022-12-07,2022-12-07,三山アセットマネジメント合同会社,,合同会社,長野県,北安曇郡白馬村,大字北城８３６番地６５,,20,485,3999301,,,,,,,2022-12-07,1,,,,,サンザンアセットマネジメント,0
2733,9110003004937,新規,0,2022-12-07,2022-12-07,合同会社ユウ,,合同会社,新潟県,上越市,昭和町２丁目２７番３５号,,15,222,9430891,,,,,,,2022-12-07,1,,,,,ユウ,0
2745,9120001250739,新規,0,2022-12-07,2022-12-07,株式会社アイエスホールディングス,,株式会社,大阪府,大阪市中央区,平野町４丁目６番４号,,27,128,5410046,,,,,,,2022-12-07,1,,,,,アイエスホールディングス,0
2746,9120001250755,新規,0,2022-12-07,2022-12-07,Ｍａ　ＺｏｏＭ株式会社,,株式会社,大阪府,大阪市都島区,都島北通２丁目２２番３２－１７０６号,,27,102,5340014,,,,,,,2022-12-07,1,,,,,マーズーム,0
2747,9120001250771,新規,0,2022-12-07,2022-12-07,株式会社Ｎｉｗａ　Ｈｏｌｄｉｎｇｓ,,株式会社,大阪府,大阪市西区,京町堀１丁目４番１６号,,27,106,5500003,,,,,,,2022-12-07,1,,,,,ニワホールディングス,0
2748,9120001250805,新規,0,2022-12-07,2022-12-07,株式会社ライフドア,,株式会社,大阪府,大阪市西区,新町１丁目３４番２号クロスレジデンス大阪新町２１０号,,27,106,5500013,,,,,,,2022-12-07,1,,,,,ライフドア,0
2749,9120001250879,新規,0,2022-12-07,2022-12-07,株式会社ＭＥＣテクノロジー,,株式会社,大阪府,大阪市北区,梅田１丁目１１番４号大阪駅前第４ビル９階９２３－１６４８号,,27,127,5300001,,,,,,,2022-12-07,1,,,,,メックテクノロジー,0
2765,9120901046831,新規,0,2022-12-07,2022-12-07,三清株式会社,,株式会社,大阪府,吹田市,江坂町２丁目８番２号,,27,205,5640063,,,,,,,2022-12-07,1,,,,,サンセイ,0
2766,9120903004408,新規,0,2022-12-07,2022-12-07,合同会社アヤエステート,,合同会社,大阪府,茨木市,上泉町１４番３０－５１０号,,27,211,5670811,,,,,,,2022-12-07,1,,,,,アヤエステート,0
2771,9122001036465,新規,0,2022-12-07,2022-12-07,日本エリア通信株式会社,,株式会社,大阪府,東大阪市,長田東１丁目１４７番地,,27,227,5770012,,,,,,,2022-12-07,1,,,,,ニホンエリアツウシン,0
2772,9122001036481,新規,0,2022-12-07,2022-12-07,株式会社ＡＮＤホールディングス,,株式会社,大阪府,東大阪市,上石切町１丁目１１番１４－３０４号,,27,227,5798012,,,,,,,2022-12-07,1,,,,,アンドホールディングス,0
2779,9130001073247,新規,0,2022-12-07,2022-12-07,日本福吉株式会社,,株式会社,京都府,京都市北区,大北山原谷乾町４７－９－２０１,,26,101,6038487,,,,,,,2022-12-07,1,,,,,ニホンフクヨシ,0
2781,9130003008366,新規,0,2022-12-07,2022-12-07,ココンＫ合同会社,,合同会社,京都府,京都市伏見区,深草大亀谷万帖敷町１５１番地３２,,26,109,6120846,,,,,,,2022-12-07,1,,,,,ココンケー,0
2796,9140001128280,新規,0,2022-12-07,2022-12-07,ＭＦオプテックス株式会社,,株式会社,兵庫県,尼崎市,東向島西之町８番地,,28,202,6600856,,,,,,,2022-12-07,1,,,,,エムエフオプテックス,0
2797,9140001128297,新規,0,2022-12-07,2022-12-07,株式会社カメラのカツミ堂,,株式会社,兵庫県,神戸市中央区,元町通２丁目５番１０号,,28,110,6500022,,,,,,,2022-12-07,1,,,,,カメラノカツミドウ,0
2798,9140001128306,新規,0,2022-12-07,2022-12-07,株式会社ｐｏｌｅ　ｎａ　ｓａｆａｒｉ,,株式会社,兵庫県,神戸市東灘区,鴨子ケ原１丁目２番７号Ｅ－１,,28,101,6580064,,,,,,,2022-12-07,1,,,,,ポレナサファリ,0
2799,9140001128314,新規,0,2022-12-07,2022-12-07,株式会社チェンジ,,株式会社,兵庫県,神戸市兵庫区,中道通２丁目２番９号,,28,105,6520801,,,,,,,2022-12-07,1,,,,,チェンジ,0
2818,9180001154091,新規,0,2022-12-07,2022-12-07,株式会社シロマテック,,株式会社,愛知県,名古屋市緑区,野末町３０５番地,,23,114,4580915,,,,,,,2022-12-07,1,,,,,シロマテック,0
2819,9180001154109,新規,0,2022-12-07,2022-12-07,株式会社ＡＧ工業,,株式会社,愛知県,名古屋市北区,五反田町１９９番地の３,,23,103,4620011,,,,,,,2022-12-07,1,,,,,エイジーコウギョウ,0
2820,9180001154117,新規,0,2022-12-07,2022-12-07,株式会社Ｚｅｒｏ　Ｏｎｅ　Ｃｏｄｅ,,株式会社,愛知県,名古屋市西区,名駅１丁目１－１７名駅ダイヤメイテツビル１１階,,23,104,4510045,,,,,,,2022-12-07,1,,,,,ゼロワンコード,0
2821,9180003024573,新規,0,2022-12-07,2022-12-07,室屋アフィリエイト合同会社,,合同会社,愛知県,名古屋市中村区,名駅４丁目２４番５号第２森ビル４０１,,23,105,4500002,,,,,,,2022-12-07,1,,,,,ムロヤアフィリエイト,0
2825,9180301036881,新規,0,2022-12-07,2022-12-07,株式会社Ｆ＆Ｇ,,株式会社,愛知県,豊田市,東山町４丁目１１７８番地４,,23,211,4710014,,,,,,,2022-12-07,1,,,,,エフアンドジー,0
2827,9190005011775,新規,0,2022-12-07,2022-12-07,天理教伊賀分教会,,その他の設立登記法人,三重県,伊賀市,阿保２６４番地の３,,24,216,5180226,,,,,,,2022-12-07,1,,,,,テンリキョウイガブンキョウカイ,0
2833,9210001019175,新規,0,2022-12-07,2022-12-07,ウチダプランニング株式会社,,株式会社,福井県,福井市,中央３丁目５－１２,,18,201,9100006,,,,,,,2022-12-07,1,,,,,ウチダプランニング,0
2838,9220005008719,新規,0,2022-12-07,2022-12-07,特定非営利活動法人安心生活ネットワークいち,,その他の設立登記法人,石川県,金沢市,間明町２丁目３４５番１号,,17,201,9218005,,,,,,,2022-12-07,1,,,,,アンシンセイカツネットワークイチ,0
2842,9240001060746,新規,0,2022-12-07,2022-12-07,株式会社ライトニングシステム,,株式会社,広島県,安芸郡海田町,畝１丁目２２番１１－３０２号,,34,304,7360005,,,,,,,2022-12-07,1,,,,,ライトニングシステム,0
2843,9240001060762,新規,0,2022-12-07,2022-12-07,株式会社クラシカル・スタンス,,株式会社,広島県,広島市西区,中広町３丁目６番１６号,,34,104,7330012,,,,,,,2022-12-07,1,,,,,クラシカルスタンス,0
2855,9260001037478,新規,0,2022-12-07,2022-12-07,株式会社ＴＡＫＥ,,株式会社,岡山県,岡山市中区,平井４丁目２４番１１－８号,,33,102,7038282,,,,,,,2022-12-07,1,,,,,テイク,0
2856,9260003004121,新規,0,2022-12-07,2022-12-07,合同会社ＡＴＨＥＮＡ,,合同会社,岡山県,岡山市北区,川入９６３番地３,,33,101,7010161,,,,,,,2022-12-07,1,,,,,アテナ,0
2858,9270001008676,新規,0,2022-12-07,2022-12-07,株式会社河村建築設計室,,株式会社,鳥取県,八頭郡智頭町,大字智頭６０番地２,,31,328,6891402,,,,,,,2022-12-07,1,,,,,カワムラケンチクセッケイシツ,0
2865,9290001099796,新規,0,2022-12-07,2022-12-07,株式会社のぶ福,,株式会社,福岡県,福岡市中央区,春吉３丁目２２番７－１号プロスペリタ天神Ｉ２Ｆ－Ｂ,00128716,40,133,8100003,,,,,,,2022-12-07,1,,,,,ノブフク,0
2866,9290001099813,新規,0,2022-12-07,2022-12-07,株式会社ＣｏＣｏａ,,株式会社,福岡県,糟屋郡志免町,志免中央１丁目７番１６号,,40,343,8112244,,,,,,,2022-12-07,1,,,,,ココア,0
2867,9290001099821,新規,0,2022-12-07,2022-12-07,渡辺株式会社,,株式会社,福岡県,福岡市南区,警弥郷３丁目３０－１０,,40,134,8111324,,,,,,,2022-12-07,1,,,,,ワタナベ,0
2871,9290003013292,新規,0,2022-12-07,2022-12-07,合同会社城戸,,合同会社,福岡県,福岡市中央区,春吉２丁目１８番３－５０４号,,40,133,8100003,,,,,,,2022-12-07,1,,,,,キド,0
2880,9340001025227,新規,0,2022-12-07,2022-12-07,株式会社ＦＬＣ,,株式会社,鹿児島県,志布志市,有明町野井倉４８５４番地,,46,221,8997402,,,,,,,2022-12-07,1,,,,,エフエルシー,0
2883,9350001018072,新規,0,2022-12-07,2022-12-07,株式会社Ｔｓｕｋｉｄｅｎ,,株式会社,宮崎県,都城市,志比田町９６３３番１,,45,202,8850093,,,,,,,2022-12-07,1,,,,,ツキデン,0
2884,9350003004236,新規,0,2022-12-07,2022-12-07,合同会社フロー,,合同会社,宮崎県,宮崎市,清水２丁目７番３８号アーベイン清水２０１,,45,201,8800021,,,,,,,2022-12-07,1,,,,,フロー,0
2887,9360001031280,新規,0,2022-12-07,2022-12-07,株式会社オトノヤ,,株式会社,沖縄県,浦添市,当山１丁目７番１号（３Ｆ）,,47,208,9012104,,,,,,,2022-12-07,1,,,,,オトノヤ,0
2893,9370001049339,新規,0,2022-12-07,2022-12-07,株式会社カワムラ,,株式会社,宮城県,刈田郡蔵王町,宮字坂山２０番地５,,04,301,9890701,,,,,,,2022-12-07,1,,,,,カワムラ,0
2896,9370005010569,新規,0,2022-12-07,2022-12-07,医療法人白柚会,,その他の設立登記法人,宮城県,仙台市泉区,泉中央４丁目８番地の２,,04,105,9813133,,,,,,,2022-12-07,1,,,,,ハクユウカイ,0
2905,9430001087943,新規,0,2022-12-07,2022-12-07,株式会社キーコネクト,,株式会社,北海道,苫小牧市,美原町３丁目２番１４号,,01,213,0591262,,,,,,,2022-12-07,1,,,,,キーコネクト,0
2906,9430001087976,新規,0,2022-12-07,2022-12-07,株式会社北興工業,,株式会社,北海道,室蘭市,入江町１番地の６３,,01,205,0510023,,,,,,,2022-12-07,1,,,,,ホッコウコウギョウ,0
2907,9430001088009,新規,0,2022-12-07,2022-12-07,ｉＪＹＲ　ｓｔａｒ株式会社,,株式会社,北海道,札幌市中央区,南十条西２１丁目５番１０号,,01,101,0640810,,,,,,,2022-12-07,1,,,,,アイジェイワイアールスター,0
2917,9450005004356,新規,0,2022-12-07,2022-12-07,特定非営利活動法人Ｅｑｕｉｐｅ,,その他の設立登記法人,北海道,旭川市,忠和四条５丁目４番４号アリスビル１Ｆ,,01,204,0708044,,,,,,,2022-12-07,1,,,,,エイキープ,0
2928,9500001024633,新規,0,2022-12-07,2022-12-07,株式会社ＭＳ商会,,株式会社,愛媛県,松山市,中通甲１３番１,,38,201,7992406,,,,,,,2022-12-07,1,,,,,エムエスショウカイ,0
2930,9700150113299,新規,0,2022-12-07,2022-12-07,ＭＣＩＮＴＹＲＥ　ＣＥＤＡＲ　ＣＯＲＰＯＲＡＴＥ　ＭＥＭＢＥＲ　ＬＬＰ,,外国会社等,東京都,千代田区,霞が関３丁目２－６東京倶楽部ビルディング６階　ロイズジャパン株式会社内,,13,101,1000013,Ｏｎｅ　Ｌｉｍｅ　Ｓｔｒｅｅｔ　Ｌｏｎｄｏｎ　ＥＣ３Ｍ　７ＨＡ　ＵＫ,,,,,,2022-12-07,1,,,,,マツキンタイヤシダーコーポレートメンバーエルエルピー,0
2931,9700150113308,新規,0,2022-12-07,2022-12-07,Ｎａｍｅｃｏ（Ｎｏ．１３６４）Ｌｉｍｉｔｅｄ,,外国会社等,東京都,千代田区,霞が関３丁目２－６東京倶楽部ビルディング６階　ロイズジャパン株式会社内,,13,101,1000013,Ｏｎｅ　Ｌｉｍｅ　Ｓｔｒｅｅｔ　Ｌｏｎｄｏｎ　ＥＣ３Ｍ　７ＨＡ　ＵＫ,,,,,,2022-12-07,1,,,,,ネームコナンバーワンスリーシツクスフオーリミテツド,0
2932,9700150113316,新規,0,2022-12-07,2022-12-07,義烏市昇杉貿易有限公司,,外国会社等,,,,,,,,中華人民共和国浙江省義烏市江東街道王二区３８棟３単元３０５,,,,,,2022-12-07,1,,,,,ギウシシヨウサンボウエキユウゲンコウシ,0
