sequenceNumber,corporateNumber,process,correct,updateDate,changeDate,name,nameImageId,kind,prefectureName,cityName,streetNumber,addressImageId,prefectureCode,cityCode,postCode,addressOutside,addressOutsideImageId,closeDate,closeCause,successorCorporateNumber,changeCause,assignmentDate,latest,enName,enPrefectureName,enCityName,enAddressOutside,furigana,hihyoji
12,1010001260979,新規,0,2025-12-12,2025-12-12,株式会社ＭＥＴＡＳＹＳＴＥＭ,,株式会社,東京都,中央区,日本橋兜町１７－２兜町第６葉山ビル４Ｆ,,13,102,1030026,,,,,,,2025-12-12,1,,,,,メタシステム,0
13,1010003049669,新規,0,2025-12-12,2025-12-12,合同会社Ｎ‐Ｖｅｒｓｅ,,合同会社,東京都,千代田区,神田多町２丁目１－２３神田東山ビル７Ｆ・８Ｆ,,13,101,1010046,,,,,,,2025-12-12,1,,,,,エヌバース,0
14,1010003049710,新規,0,2025-12-12,2025-12-12,合同会社戸塚クロス,,合同会社,東京都,中央区,銀座４丁目６番１号三幸アセットマネジメント株式会社内,,13,102,1040061,,,,,,,2025-12-12,1,,,,,トツカクロス,0
19,1010401194967,新規,0,2025-12-12,2025-12-12,けだま工房株式会社,,株式会社,東京都,港区,北青山１丁目３－３三橋ビル３階,,13,103,1070061,,,,,,,2025-12-12,1,,,,,ケダマコウボウ,0
20,1010401195065,新規,0,2025-12-12,2025-12-12,株式会社まつ里,,株式会社,東京都,港区,六本木４丁目５番１３号,,13,103,1060032,,,,,,,2025-12-12,1,,,,,マツリ,0
21,1010401195206,新規,0,2025-12-12,2025-12-12,株式会社フォークウェル,,株式会社,東京都,港区,南青山５丁目４番２７号,,13,103,1070062,,,,,,,2025-12-12,1,,,,,フォークウェル,0
24,1010403036812,新規,0,2025-12-12,2025-12-12,合同会社Ａｌｕｍｉｌｉａ,,合同会社,東京都,港区,北青山１丁目３番３号三橋ビル３階,,13,103,1070061,,,,,,,2025-12-12,1,,,,,アルミリア,0
26,1010503008117,新規,0,2025-12-12,2025-12-12,合同会社ＹＡＭ,,合同会社,東京都,台東区,竜泉３丁目１４番９－７０３号サンクレスト竜泉,,13,106,1100012,,,,,,,2025-12-12,1,,,,,ワイエーエム,0
31,1010601068418,新規,0,2025-12-12,2025-12-12,ＡＲＣ株式会社,,株式会社,東京都,墨田区,立花５丁目５０番２８－４０３号ソライエ・プレミアムテラス,,13,107,1310043,,,,,,,2025-12-12,1,,,,,アーク,0
42,1011001173865,新規,0,2025-12-12,2025-12-12,株式会社クラック,,株式会社,東京都,渋谷区,神宮前３丁目１－２５野沢方,,13,113,1500001,,,,,,,2025-12-12,1,,,,,クラック,0
43,1011001174137,新規,0,2025-12-12,2025-12-12,ＳＯＭキャリア株式会社,,株式会社,東京都,渋谷区,円山町５番３号ＭＩＥＵＸ渋谷ビル８階,,13,113,1500044,,,,,,,2025-12-12,1,,,,,エスオーエムキャリア,0
44,1011001174153,新規,0,2025-12-12,2025-12-12,ＡＲＴＩＬＩＴＹ株式会社,,株式会社,東京都,渋谷区,神宮前４丁目２６番２８号２階,,13,113,1500001,,,,,,,2025-12-12,1,,,,,アーティリティ,0
45,1011101021395,新規,0,2025-12-12,2025-12-12,株式会社山銀,,株式会社,東京都,新宿区,西新宿７丁目８番６号,,13,104,1600023,,,,,,,2025-12-12,1,,,,,ヤマギン,0
48,1011101114166,新規,0,2025-12-12,2025-12-12,ＡＴＫファミリーオフィス株式会社,,株式会社,東京都,新宿区,新宿１丁目１１番１７号,,13,104,1600022,,,,,,,2025-12-12,1,,,,,エーティケイファミリーオフィス,0
49,1011101114182,新規,0,2025-12-12,2025-12-12,メタマーケティング株式会社,,株式会社,東京都,新宿区,新宿１丁目３６－２新宿第七葉山ビル３Ｆ,,13,104,1600022,,,,,,,2025-12-12,1,,,,,メタマーケティング,0
52,1011303005799,新規,0,2025-12-12,2025-12-12,ＥＮ合同会社,,合同会社,東京都,杉並区,下高井戸３丁目３２番１０号,,13,115,1680073,,,,,,,2025-12-12,1,,,,,エン,0
60,1012403007512,新規,0,2025-12-12,2025-12-12,百屋合同会社,,合同会社,東京都,多摩市,落合１丁目２７番１号ハイネス多摩センター４０１号,,13,224,2060033,,,,,,,2025-12-12,1,,,,,モモヤ,0
62,1012705002491,新規,0,2025-12-12,2025-12-12,医療法人社団慈友,,その他の設立登記法人,東京都,西東京市,住吉町３丁目９番８号ひばりヶ丘メディカルプラザ５階,,13,229,2020005,,,,,,,2025-12-12,1,,,,,ジユウ,0
63,1013103001516,新規,0,2025-12-12,2025-12-12,Ｐｒａｓｉｄ　ｉｎｔｅｒｎａｔｉｏｎａｌ合同会社,,合同会社,東京都,福生市,大字熊川１６８９番地２３サンハイツ２０５号室,,13,218,1970003,,,,,,,2025-12-12,1,,,,,プラシドインターナショナル,0
73,1020001166226,新規,0,2025-12-12,2025-12-12,株式会社フォルチャ,,株式会社,神奈川県,川崎市高津区,下作延２丁目２０－１９,,14,134,2130033,,,,,,,2025-12-12,1,,,,,フォルチャ,0
74,1020001166267,新規,0,2025-12-12,2025-12-12,株式会社ＤＮＲ準備会社,,株式会社,神奈川県,横浜市港北区,新横浜２丁目１３番地１３ＴＰＲ新横浜ビル２階,,14,109,2220033,,,,,,,2025-12-12,1,,,,,ディーエヌアールジュンビガイシャ,0
78,1020003029950,新規,0,2025-12-12,2025-12-12,合同会社渚,,合同会社,神奈川県,川崎市宮前区,宮前平１丁目１番地１０ソーシャルコート宮崎台３０１,,14,136,2160006,,,,,,,2025-12-12,1,,,,,ナギサ,0
82,1021001087032,新規,0,2025-12-12,2025-12-12,株式会社山崎工業,00141860,株式会社,神奈川県,相模原市南区,磯部９０４番地２,,14,153,2520327,,,,,,,2025-12-12,1,,,,,ヤマザキコウギョウ,0
84,1021003016897,新規,0,2025-12-12,2025-12-12,合同会社ＵＴＡ,,合同会社,神奈川県,海老名市,河原口１丁目１９番１２号,,14,215,2430433,,,,,,,2025-12-12,1,,,,,ウタ,0
89,1030001170086,新規,0,2025-12-12,2025-12-12,株式会社ＰＯＲＴＡ　ＦＥＬＩＣＥ,,株式会社,埼玉県,行田市,向町５番２２号,,11,206,3610075,,,,,,,2025-12-12,1,,,,,ポルタフェリーチェ,0
90,1030001170094,新規,0,2025-12-12,2025-12-12,株式会社エフ・ジー・プラス,,株式会社,埼玉県,東松山市,大字石橋１２６３番地３,,11,212,3550072,,,,,,,2025-12-12,1,,,,,エフジープラス,0
91,1030001170103,新規,0,2025-12-12,2025-12-12,三有商事株式会社,,株式会社,埼玉県,熊谷市,大麻生８９１－１,,11,202,3600835,,,,,,,2025-12-12,1,,,,,サンユウショウジ,0
94,1030005022366,新規,0,2025-12-12,2025-12-12,特定非営利活動法人かわねこ,,その他の設立登記法人,埼玉県,川口市,大字東本郷８１０番地の７,,11,203,3340063,,,,,,,2025-12-12,1,,,,,カワネコ,0
97,1040001141747,新規,0,2025-12-12,2025-12-12,株式会社ｎｕｎｕ,,株式会社,千葉県,浦安市,舞浜３丁目３３番１６号,,12,227,2790031,,,,,,,2025-12-12,1,,,,,ヌヌ,0
102,1040003029107,新規,0,2025-12-12,2025-12-12,ホークスファーム合同会社,,合同会社,千葉県,香取郡多古町,多古２０００番地１６８,,12,347,2892241,,,,,,,2025-12-12,1,,,,,ホークスファーム,0
103,1040005022968,新規,0,2025-12-12,2025-12-12,一般社団法人とねのね,,その他の設立登記法人,千葉県,柏市,南高柳９番地２６,,12,217,2770944,,,,,,,2025-12-12,1,,,,,トネノネ,0
104,1050001057694,新規,0,2025-12-12,2025-12-12,株式会社よつばアニマルクリニック,,株式会社,茨城県,古河市,西牛谷２４６番地１,,08,204,3060233,,,,,,,2025-12-12,1,,,,,ヨツバアニマルクリニック,0
108,1060001038850,新規,0,2025-12-12,2025-12-12,株式会社明萌舎,,株式会社,栃木県,宇都宮市,鶴田町３０８５番地４,,09,201,3200851,,,,,,,2025-12-12,1,,,,,メイホウシャ,0
110,1070001043643,新規,0,2025-12-12,2025-12-12,株式会社ぽたぽたレコード,,株式会社,群馬県,藤岡市,藤岡７７５番地１７,,10,209,3750024,,,,,,,2025-12-12,1,,,,,ポタポタレコード,0
113,1080401028318,新規,0,2025-12-12,2025-12-12,株式会社ＳＢＣ,,株式会社,静岡県,袋井市,愛野南４丁目２０番地の１ガイア１０３,,22,216,4370040,,,,,,,2025-12-12,1,,,,,エスビーシー,0
114,1080403005406,新規,0,2025-12-12,2025-12-12,合同会社ＥＴＣ　ＷＯＲＫＳ,,合同会社,静岡県,浜松市中央区,田町２２３番地の２１,,22,138,4300944,,,,,,,2025-12-12,1,,,,,イーティーシーワークス,0
119,1110001039777,新規,0,2025-12-12,2025-12-12,株式会社たかさわ農産,,株式会社,新潟県,糸魚川市,大字上路１０８７番地３,,15,216,9490112,,,,,,,2025-12-12,1,,,,,タカサワノウサン,0
126,1120001282649,新規,0,2025-12-12,2025-12-12,株式会社ル・ソベール,,株式会社,大阪府,大阪市浪速区,幸町１丁目３番１６－６０５号,,27,111,5560021,,,,,,,2025-12-12,1,,,,,ルソベール,0
127,1120001282681,新規,0,2025-12-12,2025-12-12,今日誕株式会社,,株式会社,大阪府,大阪市浪速区,日本橋東３丁目１４－１０フロンティアタワー難波イースト６０２号室,,27,111,5560006,,,,,,,2025-12-12,1,,,,,キョウタン,0
128,1120001282698,新規,0,2025-12-12,2025-12-12,株式会社松原ＨＤ,,株式会社,大阪府,大阪市住之江区,柴谷２丁目５番７８号,,27,125,5590021,,,,,,,2025-12-12,1,,,,,マツバラホールディングス,0
129,1120001282715,新規,0,2025-12-12,2025-12-12,ステップバリュー株式会社,,株式会社,大阪府,大阪市中央区,内本町１丁目２番１５号谷四スクエアビル５Ｆ－１１号室,,27,128,5400026,,,,,,,2025-12-12,1,,,,,ステップバリュー,0
130,1120001282723,新規,0,2025-12-12,2025-12-12,新名洋株式会社,,株式会社,大阪府,大阪市港区,港晴３丁目１番１１－３０３号,,27,107,5520023,,,,,,,2025-12-12,1,,,,,シンメイヨウ,0
141,1120901051954,新規,0,2025-12-12,2025-12-12,ＫＯＫＯＲＯ株式会社,,株式会社,大阪府,茨木市,彩都やまぶき３丁目２１番３０号,,27,211,5670086,,,,,,,2025-12-12,1,,,,,ココロ,0
143,1130001081199,新規,0,2025-12-12,2025-12-12,株式会社溝口設計,,株式会社,京都府,京都市右京区,鳴滝桐ケ淵町１番地６,,26,108,6168238,,,,,,,2025-12-12,1,,,,,ミゾグチセッケイ,0
146,1130003010965,新規,0,2025-12-12,2025-12-12,関西医療福祉ネットワーク合同会社,,合同会社,京都府,八幡市,男山八望３－１男山団地Ｂ５２棟,,26,210,6148373,,,,,,,2025-12-12,1,,,,,カンサイイリョウフクシネットワーク,0
153,1140001141051,新規,0,2025-12-12,2025-12-12,株式会社ＭｃＫｉｎｌｅｙ,,株式会社,兵庫県,神戸市垂水区,西舞子１丁目５－２３,,28,108,6550048,,,,,,,2025-12-12,1,,,,,マッキンリー,0
154,1140001141076,新規,0,2025-12-12,2025-12-12,株式会社ＦＬＯＲＡＩＳＯＮ,,株式会社,兵庫県,神戸市須磨区,多井畑字清水２３番地の１ポルトヴィラージュ１０３,,28,107,6540133,,,,,,,2025-12-12,1,,,,,フロレゾン,0
155,1140001141084,新規,0,2025-12-12,2025-12-12,株式会社緑車美装,,株式会社,兵庫県,たつの市,龍野町島田７３４番地の１,,28,229,6794121,,,,,,,2025-12-12,1,,,,,リョクシャビソウ,0
157,1140003022951,新規,0,2025-12-12,2025-12-12,グリーン水素エネルギー合同会社,,合同会社,兵庫県,神戸市中央区,熊内町４丁目８番４号７Ｆ,,28,110,6510056,,,,,,,2025-12-12,1,,,,,グリーンスイソエネルギー,0
159,1160003003677,新規,0,2025-12-12,2025-12-12,合同会社路逢,,合同会社,滋賀県,大津市,清風町２５番７号,,25,201,5200225,,,,,,,2025-12-12,1,,,,,ローズ,0
167,1180001169782,新規,0,2025-12-12,2025-12-12,株式会社ユウウェル,,株式会社,愛知県,名古屋市港区,春田野１丁目１７０９番地,,23,111,4550873,,,,,,,2025-12-12,1,,,,,ユウウェル,0
168,1180001169873,新規,0,2025-12-12,2025-12-12,株式会社エスケー住宅サービス名古屋,,株式会社,愛知県,名古屋市中村区,並木２丁目６番地,,23,105,4530856,,,,,,,2025-12-12,1,,,,,エスケージュウタクサービスナゴヤ,0
169,1180001169907,新規,0,2025-12-12,2025-12-12,株式会社建正,,株式会社,愛知県,名古屋市天白区,元八事４丁目９９番地Ｌａ・Ｆｏｎｔｅ２０１号室,,23,116,4680066,,,,,,,2025-12-12,1,,,,,ケンショウ,0
192,1240001065918,新規,0,2025-12-12,2025-12-12,株式会社リコ・ネクション,,株式会社,広島県,廿日市市,宮内４３０５－８,,34,213,7380034,,,,,,,2025-12-12,1,,,,,リコネクション,0
193,1240003007521,新規,0,2025-12-12,2025-12-12,合同会社ソーラーエナジー・ブリッジ,,合同会社,広島県,福山市,入船町２丁目１番２４号,,34,207,7200801,,,,,,,2025-12-12,1,,,,,ソーラーエナジーブリッジ,0
199,1250001021465,新規,0,2025-12-12,2025-12-12,ファルシア・コンサルティング株式会社,,株式会社,山口県,下関市,竹崎町４丁目７番２４号エストラスト下関センタービル５Ｆ４号室,,35,201,7500025,,,,,,,2025-12-12,1,,,,,ファルシアコンサルティング,0
204,1260001040811,新規,0,2025-12-12,2025-12-12,株式会社ＴＥＯＴＯＲＩ,,株式会社,岡山県,岡山市南区,内尾２８３番地２６,,33,104,7010212,,,,,,,2025-12-12,1,,,,,テオトリ,0
210,1290001112418,新規,0,2025-12-12,2025-12-12,株式会社オレンジハウス,,株式会社,福岡県,福岡市中央区,天神２丁目２番１２号Ｔ＆Ｊビルディング７Ｆ,,40,133,8100001,,,,,,,2025-12-12,1,,,,,オレンジハウス,0
212,1290801032088,新規,0,2025-12-12,2025-12-12,株式会社悠翔国際旅行,,株式会社,福岡県,北九州市門司区,大字白野江５４６番地１,,40,101,8010802,,,,,,,2025-12-12,1,,,,,ユウショウコクサイリョコウ,0
219,1330001033824,新規,0,2025-12-12,2025-12-12,ＡｉｍｓＨＤ株式会社,,株式会社,熊本県,熊本市南区,城南町鰐瀬８６５番１,,43,104,8614222,,,,,,,2025-12-12,1,,,,,エイムズホールディングス,0
220,1330001033832,新規,0,2025-12-12,2025-12-12,株式会社ＫＵＭＡＳＵＮ,,株式会社,熊本県,熊本市東区,戸島町２６６８番地１,,43,102,8618031,,,,,,,2025-12-12,1,,,,,クマサン,0
221,1330003011349,新規,0,2025-12-12,2025-12-12,合同会社ａｎｄ,,合同会社,熊本県,熊本市南区,御幸西３丁目７番２１号,,43,104,8614171,,,,,,,2025-12-12,1,,,,,アンド,0
222,1340001027841,新規,0,2025-12-12,2025-12-12,株式会社シンタク,,株式会社,鹿児島県,出水市,高尾野町江内６８０１番地６,,46,208,8990407,,,,,,,2025-12-12,1,,,,,シンタク,0
229,1360001036122,新規,0,2025-12-12,2025-12-12,株式会社あったかや,,株式会社,沖縄県,宮古島市,下地字洲鎌４７３番地１,,47,214,9060303,,,,,,,2025-12-12,1,,,,,アッタカヤ,0
230,1360003015462,新規,0,2025-12-12,2025-12-12,ＡＬＬアイランド沖縄合同会社,,合同会社,沖縄県,宮古島市,上野字宮国３２番地１２,,47,214,9060203,,,,,,,2025-12-12,1,,,,,オールアイランドオキナワ,0
231,1360003015470,新規,0,2025-12-12,2025-12-12,合同会社さんらいず,,合同会社,沖縄県,島尻郡八重瀬町,字長毛２７１番地,,47,362,9010501,,,,,,,2025-12-12,1,,,,,サンライズ,0
242,1420001019368,新規,0,2025-12-12,2025-12-12,株式会社Ｌｉｆｅｍａｐ,,株式会社,青森県,八戸市,根城８丁目６番１１号,,02,203,0391166,,,,,,,2025-12-12,1,,,,,ライフマップ,0
244,1420003003213,新規,0,2025-12-12,2025-12-12,合同会社Ｊ‐Ｌｉｇｈｔ,,合同会社,青森県,青森市,新田１丁目１２番１３号,,02,201,0380001,,,,,,,2025-12-12,1,,,,,ジェイライト,0
248,1430003018417,新規,0,2025-12-12,2025-12-12,合同会社Ｎ・ｂｉｚ,,合同会社,北海道,札幌市西区,琴似二条３丁目１番１７号バウフィスＢＬＤ．３Ｆ,,01,107,0630812,,,,,,,2025-12-12,1,,,,,エヌビズ,0
249,1430003018425,新規,0,2025-12-12,2025-12-12,ＨＡＰＰＩＡ合同会社,,合同会社,北海道,札幌市北区,北二十九条西１２丁目５番７号,,01,102,0010029,,,,,,,2025-12-12,1,,,,,ハピエ,0
252,1700150133395,新規,0,2025-12-12,2025-12-12,ＧＡＺＺＥＷ　ＩＮＤＵＳＴＲＩＥＳ　ＬＩＭＩＴＥＤ,,外国会社等,,,,,,,,ＷＯＲＫＩＮＧＴＯＮ　ＴＯＷＥＲ　ＲＯＯＭ　１６０２，１６　ＦＬＯＯＲ　ＳＨＥＵＮＧ　ＷＡＮ　７８　ＢＯＮＨＡＭ　ＳＴＲＡＮＤ　ＨＫ,,,,,,2025-12-12,1,,,,,ジアズゥオシーイエヨウシエンゴーンスー,0
253,1700150133404,新規,0,2025-12-12,2025-12-12,地域医療振興協会健康保険組合,,その他,東京都,新宿区,市谷田町１丁目１０番地　プライム市ヶ谷ビル７階,,13,104,1620843,,,,,,,2025-12-12,1,,,,,チイキイリョウシンコウキョウカイケンコウホケンクミアイ,0
254,1700150133412,新規,0,2025-12-12,2025-12-12,Ｎｏｍｉｎａ　Ｎｏ　６１２　ＬＬＰ,,外国会社等,,,,,,,,Ｏｎｅ　Ｌｉｍｅ　Ｓｔｒｅｅｔ，Ｌｏｎｄｏｎ　ＥＣ３Ｍ　７ＨＡ　ＵＫ,,,,,,2025-12-12,1,,,,,ノミナナンバーシツクスワンツーエルエルピー,0
255,1700150133420,新規,0,2025-12-12,2025-12-12,ニチコン健康保険組合,,その他,京都府,京都市中京区,烏丸通御池上る二条殿町５５１番地,,26,104,6040845,,,,,,,2025-12-12,1,,,,,ニチコンケンコウホケンクミアイ,0
256,1700150133429,新規,0,2025-12-12,2025-12-12,石原産業健康保険組合,,その他,三重県,四日市市,石原町１番地,,24,202,5100842,,,,,,,2025-12-12,1,,,,,イシハラサンギョウケンコウホケンクミアイ,0
275,2010001260953,新規,0,2025-12-12,2025-12-12,株式会社Ｕｃｈｉｍｕｒａ　Ｓｐｏｒｔｓ　Ａｃａｄｅｍｙ,,株式会社,東京都,千代田区,神田三崎町３丁目３番３号,,13,101,1010061,,,,,,,2025-12-12,1,,,,,ウチムラスポーツアカデミー,0
276,2010001260986,新規,0,2025-12-12,2025-12-12,株式会社ビジョンアート,,株式会社,東京都,中央区,八重洲２丁目１番１号ＹＡＮＭＡＲＴＯＫＹＯ１２階,,13,102,1040028,,,,,,,2025-12-12,1,,,,,ビジョンアート,0
277,2010001260994,新規,0,2025-12-12,2025-12-12,株式会社駅前通りアセット,,株式会社,東京都,中央区,銀座１丁目１２－４Ｎ＆ＥＢＬＤ．７階,,13,102,1040061,,,,,,,2025-12-12,1,,,,,エキマエドオリアセット,0
278,2010001261010,新規,0,2025-12-12,2025-12-12,株式会社ハレソラ,,株式会社,東京都,中央区,銀座１丁目２２番１１号銀座大竹ビジデンス２Ｆ,,13,102,1040061,,,,,,,2025-12-12,1,,,,,,0
279,2010001261118,新規,0,2025-12-12,2025-12-12,株式会社ＪＡＰＡＮ　ＰＡＳＳ,,株式会社,東京都,千代田区,丸の内３丁目２番２号,,13,101,1000005,,,,,,,2025-12-12,1,,,,,ジャパンパス,0
280,2010001261142,新規,0,2025-12-12,2025-12-12,株式会社ＴＥＴＳＵ生物医学研究所,,株式会社,東京都,中央区,築地５丁目１番１号,,13,102,1040045,,,,,,,2025-12-12,1,,,,,テツセイブツイガクケンキュウショ,0
291,2010005041061,新規,0,2025-12-12,2025-12-12,一般社団法人目白三丁目プロジェクト,,その他の設立登記法人,東京都,千代田区,丸の内１丁目４番１号東京共同会計事務所内,,13,101,1000005,,,,,,,2025-12-12,1,,,,,メジロサンチョウメプロジェクト,0
301,2010503008116,新規,0,2025-12-12,2025-12-12,合同会社Ｇｉｓｅｌｌｅ,,合同会社,東京都,台東区,下谷３丁目１－２４－９０１,,13,106,1100004,,,,,,,2025-12-12,1,,,,,ジゼル,0
302,2010603011960,新規,0,2025-12-12,2025-12-12,ＤＶＳ　Ｔｅｃｈｎｏｌｏｇｉｅｓ合同会社,,合同会社,東京都,江東区,有明３丁目７番２６号有明フロンティアビル９Ｆ,,13,108,1350063,,,,,,,2025-12-12,1,,,,,ディーブイエステクノロジーズ,0
310,2011001174284,新規,0,2025-12-12,2025-12-12,株式会社ＧＲＩＤＡ,,株式会社,東京都,渋谷区,渋谷１丁目８番５号,,13,113,1500002,,,,,,,2025-12-12,1,,,,,グリダ,0
311,2011001174334,新規,0,2025-12-12,2025-12-12,株式会社ＬＡＤＤＥＲＳ,,株式会社,東京都,渋谷区,道玄坂１丁目１０番地８号渋谷道玄坂東急ビル２Ｆ－Ｃ,,13,113,1500043,,,,,,,2025-12-12,1,,,,,ラダーズ,0
313,2011003022945,新規,0,2025-12-12,2025-12-12,ＧｉｇａＣｒａｆｔ合同会社,,合同会社,東京都,渋谷区,道玄坂１丁目１０番８号渋谷道玄坂東急ビル２Ｆ－Ｃ,,13,113,1500043,,,,,,,2025-12-12,1,,,,,ギガクラフト,0
317,2011101114223,新規,0,2025-12-12,2025-12-12,株式会社ＣＯＯＮＥＳＴ,,株式会社,東京都,新宿区,新宿２丁目１３番７号,,13,104,1600022,,,,,,,2025-12-12,1,,,,,コーネスト,0
318,2011101114256,新規,0,2025-12-12,2025-12-12,株式会社ミヤビーン,,株式会社,東京都,新宿区,中落合３丁目２９番１０号６階,,13,104,1610032,,,,,,,2025-12-12,1,,,,,ミヤビーン,0
319,2011101114264,新規,0,2025-12-12,2025-12-12,株式会社ちいさなほし,,株式会社,東京都,新宿区,西新宿５丁目８－２惠徳ビル５０３号室,,13,104,1600023,,,,,,,2025-12-12,1,,,,,チイサナホシ,0
320,2011101114280,新規,0,2025-12-12,2025-12-12,株式会社１２４．,,株式会社,東京都,新宿区,若宮町１２番地４,,13,104,1620827,,,,,,,2025-12-12,1,,,,,イチニヨン,0
329,2011403004972,新規,0,2025-12-12,2025-12-12,合同会社ＪＹ,,合同会社,東京都,板橋区,板橋４丁目１３番３－５０１号大橋ビル,,13,119,1730004,,,,,,,2025-12-12,1,,,,,ジェーワイ,0
330,2011501032909,新規,0,2025-12-12,2025-12-12,株式会社アキラ商事,,株式会社,東京都,荒川区,荒川３丁目１５番９号,,13,118,1160002,,,,,,,2025-12-12,1,,,,,アキラショウジ,0
338,2012801024414,新規,0,2025-12-12,2025-12-12,株式会社ＴＫ２ＰＬＡＮ,,株式会社,東京都,東大和市,高木３丁目２４５番地の２４,,13,220,2070005,,,,,,,2025-12-12,1,,,,,ティーケイツープラン,0
339,2013103001515,新規,0,2025-12-12,2025-12-12,ＴＥＳＳＨＡホールディングス合同会社,,合同会社,東京都,西多摩郡瑞穂町,大字箱根ケ崎１３２２番地１,,13,303,1901221,,,,,,,2025-12-12,1,,,,,テッシャホールディングス,0
348,2020001166241,新規,0,2025-12-12,2025-12-12,株式会社ＥＮＲＩＣＨ,,株式会社,神奈川県,川崎市川崎区,四谷上町１４番２４号,,14,131,2100828,,,,,,,2025-12-12,1,,,,,エンリッチ,0
354,2021001086966,新規,0,2025-12-12,2025-12-12,ＴＫ　Ｐｉｌｉｎａ株式会社,,株式会社,神奈川県,鎌倉市,雪ノ下３丁目４－１２－２,,14,204,2480005,,,,,,,2025-12-12,1,,,,,ティーケーピリナ,0
355,2021001086982,新規,0,2025-12-12,2025-12-12,ｌｉｏｏ株式会社,,株式会社,神奈川県,逗子市,桜山５丁目４６番１２号,,14,208,2490005,,,,,,,2025-12-12,1,,,,,リオ,0
356,2021001086990,新規,0,2025-12-12,2025-12-12,ＰＥＡＣＥ　ＴＲＥＥ株式会社,,株式会社,神奈川県,相模原市中央区,清新３丁目１２番１５－３０５,,14,152,2520216,,,,,,,2025-12-12,1,,,,,ピースツリー,0
361,2021003016888,新規,0,2025-12-12,2025-12-12,合同会社サンアール,,合同会社,神奈川県,大和市,柳橋３丁目１６番地ハイム桜ケ丘６－５０４,,14,213,2420022,,,,,,,2025-12-12,1,,,,,サンアール,0
362,2021003016896,新規,0,2025-12-12,2025-12-12,合同会社Ｒｅ　ｂｏｒｎ,,合同会社,神奈川県,三浦市,東岡町１１番５５号,,14,210,2380242,,,,,,,2025-12-12,1,,,,,リボーン,0
367,2030001170069,新規,0,2025-12-12,2025-12-12,フューチャーウェルネス株式会社,,株式会社,埼玉県,上尾市,中妻１丁目１６番地１５,,11,219,3620072,,,,,,,2025-12-12,1,,,,,フューチャーウェルネス,0
368,2030001170085,新規,0,2025-12-12,2025-12-12,Ｒｅ．ＬＩＦＥ株式会社,,株式会社,埼玉県,さいたま市浦和区,領家１丁目１７番８－７０３号,,11,107,3300072,,,,,,,2025-12-12,1,,,,,リライフ,0
369,2030001170093,新規,0,2025-12-12,2025-12-12,株式会社マスダ,,株式会社,埼玉県,春日部市,米島３５８番地１３０,,11,214,3440115,,,,,,,2025-12-12,1,,,,,マスダ,0
370,2030001170102,新規,0,2025-12-12,2025-12-12,株式会社ブリッジ,,株式会社,埼玉県,朝霞市,溝沼５丁目１９－５シオミプラザセブン２Ａ,,11,227,3510023,,,,,,,2025-12-12,1,,,,,ブリッジ,0
374,2030003028166,新規,0,2025-12-12,2025-12-12,合同会社ｉＦａｍｉｌｙ,,合同会社,埼玉県,行田市,大字白川戸５９４－１,,11,206,3610006,,,,,,,2025-12-12,1,,,,,アイファミリー,0
375,2030003028182,新規,0,2025-12-12,2025-12-12,合同会社ＴＯＰ　Ｄｅｖａｎｉｓｔ　Ｙ’ｓ,,合同会社,埼玉県,本庄市,東台２丁目３番１号ＫＲＳ本庄ビル１階,,11,211,3670021,,,,,,,2025-12-12,1,,,,,トップデバニストワイズ,0
376,2030003028240,新規,0,2025-12-12,2025-12-12,ＴＳ通信合同会社,,合同会社,埼玉県,所沢市,大字下安松６８５番地の６,,11,208,3590024,,,,,,,2025-12-12,1,,,,,ティーエスツウシン,0
377,2030005022365,新規,0,2025-12-12,2025-12-12,一般社団法人若葉ひまわり福祉支援協会,,その他の設立登記法人,埼玉県,坂戸市,関間４丁目２－３２ひまわりビル４階,,11,239,3500215,,,,,,,2025-12-12,1,,,,,ワカバヒマワリフクシシエンキョウカイ,0
382,2040003029072,新規,0,2025-12-12,2025-12-12,合同会社ＲＩＲＡＫＯＭＡＴＳＵ,,合同会社,千葉県,松戸市,本町１７番１１号芹澤ビル６Ｆ,,12,207,2710091,,,,,,,2025-12-12,1,,,,,リラコマツ,0
395,2080001027330,新規,0,2025-12-12,2025-12-12,株式会社実践経理塾,,株式会社,静岡県,藤枝市,志太２丁目２１番２０号,,22,214,4260071,,,,,,,2025-12-12,1,,,,,ジッセンケイリジュク,0
397,2080101025960,新規,0,2025-12-12,2025-12-12,アイリーテクト株式会社,,株式会社,静岡県,沼津市,本田町７番３５号Ｃａｓａ１０６,,22,203,4100004,,,,,,,2025-12-12,1,,,,,アイリーテクト,0
398,2080403005405,新規,0,2025-12-12,2025-12-12,合同会社右ナナメうえ,,合同会社,静岡県,浜松市中央区,松城町２１４番地の３９ブライトタウン松城１３０４号室,,22,138,4300947,,,,,,,2025-12-12,1,,,,,ミギナナメウエ,0
408,2110005017299,新規,0,2025-12-12,2025-12-12,一般財団法人ナミックス財団,,その他の設立登記法人,新潟県,新潟市北区,濁川３９９３番地,,15,101,9503131,,,,,,,2025-12-12,1,,,,,ナミックスザイダン,0
416,2120001282697,新規,0,2025-12-12,2025-12-12,株式会社ひかりパートナーズ,,株式会社,大阪府,守口市,大日東町４番Ａ－１５０２号,,27,209,5700016,,,,,,,2025-12-12,1,,,,,ヒカリパートナーズ,0
417,2120001282706,新規,0,2025-12-12,2025-12-12,株式会社Ｗｏｎｄｅｒ　Ｗｏｒｌｄ,,株式会社,大阪府,大阪市北区,梅田１丁目２番２号大阪駅前第２ビル１２－１２,,27,127,5300001,,,,,,,2025-12-12,1,,,,,ワンダーワールド,0
418,2120001282714,新規,0,2025-12-12,2025-12-12,曜信グローバルキャピタル株式会社,,株式会社,大阪府,大阪市西淀川区,柏里２丁目７番２６号ラピース塚本４０２号室,00141866,27,113,5550022,,,,,,,2025-12-12,1,,,,,ヨウシングローバルキャピタル,0
420,2120003031441,新規,0,2025-12-12,2025-12-12,合同会社ＳＡＴＥＴＳＵＭＡＧＡＺＩＮＥ　ＣＯＭＭＯＮＳ,,合同会社,大阪府,大阪市淀川区,西中島７丁目１－１興北ビル７階,,27,123,5320011,,,,,,,2025-12-12,1,,,,,サテツマガジンコモンズ,0
423,2120101072809,新規,0,2025-12-12,2025-12-12,株式会社トライス,,株式会社,大阪府,羽曳野市,古市７丁目１０番６号,,27,222,5830852,,,,,,,2025-12-12,1,,,,,トライス,0
424,2120103006896,新規,0,2025-12-12,2025-12-12,合同会社ｉＬａｓｈｉｋｕ,,合同会社,大阪府,堺市北区,長曽根町１３０番地４２の３階３０４号室,,27,146,5918025,,,,,,,2025-12-12,1,,,,,アイラシク,0
438,2140001141067,新規,0,2025-12-12,2025-12-12,株式会社ＫＡＴＯホールディングス,,株式会社,兵庫県,姫路市,大津区新町２丁目５８番地,,28,201,6711135,,,,,,,2025-12-12,1,,,,,カトウホールディングス,0
439,2140003022918,新規,0,2025-12-12,2025-12-12,合同会社デライト,,合同会社,兵庫県,西宮市,北名次町１番８号４１１,,28,204,6620025,,,,,,,2025-12-12,1,,,,,デライト,0
442,2160001027272,新規,0,2025-12-12,2025-12-12,魔家智創株式会社,,株式会社,滋賀県,栗東市,小柿９丁目７番３５号１０１室,,25,208,5203024,,,,,,,2025-12-12,1,,,,,マカチソウ,0
451,2180001169914,新規,0,2025-12-12,2025-12-12,株式会社リヴ,,株式会社,愛知県,一宮市,島村字下老光寺３３,,23,203,4910121,,,,,,,2025-12-12,1,,,,,リヴ,0
476,2240001065917,新規,0,2025-12-12,2025-12-12,株式会社カヌヌ,,株式会社,広島県,広島市南区,東雲本町１丁目７番１８号,,34,103,7340023,,,,,,,2025-12-12,1,,,,,カヌヌ,0
486,2280001009556,新規,0,2025-12-12,2025-12-12,株式会社ＲｕｒａＬｕｘｅ,,株式会社,島根県,益田市,本町１番５７号,,32,204,6980005,,,,,,,2025-12-12,1,,,,,ルラルクス,0
493,2290001112433,新規,0,2025-12-12,2025-12-12,株式会社ライフ,,株式会社,福岡県,福岡市東区,多の津４丁目１９番５号,,40,131,8130034,,,,,,,2025-12-12,1,,,,,ライフ,0
496,2290003017845,新規,0,2025-12-12,2025-12-12,合同会社ＤＹＮ,,合同会社,福岡県,大野城市,筒井５丁目１０番１４号アルフィーネ大野城アクアサイド５０６号室,,40,219,8160931,,,,,,,2025-12-12,1,,,,,ディーワイエヌ,0
499,2330001033823,新規,0,2025-12-12,2025-12-12,株式会社Ｇｒａｃｅ,,株式会社,熊本県,熊本市南区,日吉１丁目８番２０－１１０６号,,43,104,8614109,,,,,,,2025-12-12,1,,,,,グレイス,0
501,2330003011348,新規,0,2025-12-12,2025-12-12,ホープループ合同会社,,合同会社,熊本県,熊本市中央区,水前寺４丁目２０番３４号,,43,101,8620950,,,,,,,2025-12-12,1,,,,,ホープループ,0
511,2360001036121,新規,0,2025-12-12,2025-12-12,株式会社てんてん堂,,株式会社,沖縄県,那覇市,安謝１丁目３番３１号サントピア那覇新都心第２・２０１,,47,201,9000003,,,,,,,2025-12-12,1,,,,,テンテンドウ,0
516,2360003015445,新規,0,2025-12-12,2025-12-12,オキリブル合同会社,,合同会社,沖縄県,那覇市,牧志２丁目１７－２７－４０１,,47,201,9000013,,,,,,,2025-12-12,1,,,,,オキリブル,0
529,2400001017249,新規,0,2025-12-12,2025-12-12,株式会社ラクットネス,,株式会社,岩手県,一関市,千厩町千厩字石堂４５番地１９,00141856,03,209,0290803,,,,,,,2025-12-12,1,,,,,ラクットネス,0
532,2410005006668,新規,0,2025-12-12,2025-12-12,一般社団法人秋田県バレーボール協会,,その他の設立登記法人,秋田県,秋田市,八橋運動公園１番５号秋田県スポーツ科学センター内,,05,201,0100974,,,,,,,2025-12-12,1,,,,,アキタケンバレーボールキョウカイ,0
535,2430001095853,新規,0,2025-12-12,2025-12-12,株式会社ｔｅｎｓｉｏｎ,,株式会社,北海道,札幌市中央区,南二条東２丁目１２番地３ベルヴィル１階,,01,101,0600052,,,,,,,2025-12-12,1,,,,,テンション,0
539,2430003018399,新規,0,2025-12-12,2025-12-12,合同会社Ｓｔｕｄｉｏ　Ｓｐｒｏｕｔ,,合同会社,北海道,札幌市西区,西野八条４丁目２１番１７号,,01,107,0630038,,,,,,,2025-12-12,1,,,,,スタジオスプラウト,0
540,2430003018416,新規,0,2025-12-12,2025-12-12,合同会社Ｓｍｉｌｅ　Ｈｏｕｓｅ,,合同会社,北海道,札幌市北区,新琴似十一条３丁目４番３２－１号,,01,102,0010911,,,,,,,2025-12-12,1,,,,,スマイルハウス,0
545,2700150133394,新規,0,2025-12-12,2025-12-12,四電工健康保険組合,,その他,香川県,高松市,花ノ宮町２丁目３番９号,,37,201,7618063,,,,,,,2025-12-12,1,,,,,ヨンデンコウケンコウホケンクミアイ,0
546,2700150133403,新規,0,2025-12-12,2025-12-12,カルビー健康保険組合,,その他,東京都,渋谷区,千駄ヶ谷５丁目２３番５号,,13,113,1510051,,,,,,,2025-12-12,1,,,,,カルビーケンコウホケンクミアイ,0
547,2700150133411,新規,0,2025-12-12,2025-12-12,ＩＣＣ　Ｒｅ　Ｌｉｍｉｔｅｄ,,外国会社等,,,,,,,,Ｏｎｅ　Ｌｉｍｅ　Ｓｔｒｅｅｔ，Ｌｏｎｄｏｎ　ＥＣ３Ｍ　７ＨＡ　ＵＫ,,,,,,2025-12-12,1,,,,,アイシーシーリリミテツド,0
548,2700150133428,新規,0,2025-12-12,2025-12-12,杏林健康保険組合,,その他,東京都,千代田区,大手町１丁目３番７号,,13,101,1000004,,,,,,,2025-12-12,1,,,,,キョウリンケンコウホケンクミアイ,0
555,3010001260985,新規,0,2025-12-12,2025-12-12,株式会社３ＹＥ,,株式会社,東京都,千代田区,神田鍛冶町３丁目７番地八光ビル地下１階,,13,101,1010045,,,,,,,2025-12-12,1,,,,,スリーワイイー,0
556,3010001261125,新規,0,2025-12-12,2025-12-12,キャッシュジャパン株式会社,,株式会社,東京都,千代田区,外神田３丁目１３番８号ＦＴＫ秋葉原７階,,13,101,1010021,,,,,,,2025-12-12,1,,,,,キャッシュジャパン,0
557,3010001261133,新規,0,2025-12-12,2025-12-12,株式会社ＧＴＧ　Ｊａｐａｎ,,株式会社,東京都,千代田区,紀尾井町３番１２号,,13,101,1020094,,,,,,,2025-12-12,1,,,,,ジーティージージャパン,0
561,3010003049675,新規,0,2025-12-12,2025-12-12,合同会社ＣＫ　Ｉｎｆｉｎｉｔｙ,,合同会社,東京都,中央区,日本橋堀留町１丁目１０番１号カクタビル２Ｆ,,13,102,1030012,,,,,,,2025-12-12,1,,,,,シーケーインフィニティ,0
562,3010003049700,新規,0,2025-12-12,2025-12-12,Ｉ　Ｐｒｏｐｅｒｔｙ　Ｍａｎａｇｅｍｅｎｔ合同会社,,合同会社,東京都,千代田区,六番町１０番地１グランスイート六番町７０１号,,13,101,1020085,,,,,,,2025-12-12,1,,,,,アイプロパティーマネージメント,0
583,3010803005638,新規,0,2025-12-12,2025-12-12,合同会社Ｍエステート,,合同会社,東京都,大田区,蒲田３丁目１７番１６号,,13,111,1440052,,,,,,,2025-12-12,1,,,,,エムエステート,0
598,3011003023109,新規,0,2025-12-12,2025-12-12,合同会社ｐａｓｔｏｋ,,合同会社,東京都,渋谷区,神南１丁目１１－４ＦＰＧリンクス神南５階,,13,113,1500041,,,,,,,2025-12-12,1,,,,,パストック,0
601,3011101114288,新規,0,2025-12-12,2025-12-12,株式会社Ｌａｓｅｒ　Ｓｔｕｄｉｏ,,株式会社,東京都,新宿区,西新宿１丁目２０番３号西新宿高木ビル７階,00141868,13,104,1600023,,,,,,,2025-12-12,1,,,,,レーザースタジオ,0
605,3011105011671,新規,0,2025-12-12,2025-12-12,一般社団法人地域活性化推進団体商店街盛り上げボーイズ,,その他の設立登記法人,東京都,新宿区,高田馬場３丁目３７番１号大庭ビル３０２,,13,104,1690075,,,,,,,2025-12-12,1,,,,,チイキカッセイカスイシンダンタイショウテンガイモリアゲボーイズ,0
607,3011201026846,新規,0,2025-12-12,2025-12-12,ＷＡ　ＬＯＯＰ株式会社,,株式会社,東京都,中野区,中野４丁目６－２４オックスファミリア新中野ビル３０１,,13,114,1640001,,,,,,,2025-12-12,1,,,,,ワループ,0
615,3011501032908,新規,0,2025-12-12,2025-12-12,株式会社ダイセイ,,株式会社,東京都,北区,中里３丁目１８番２号,,13,117,1140015,,,,,,,2025-12-12,1,,,,,ダイセイ,0
621,3012403007485,新規,0,2025-12-12,2025-12-12,合同会社Ｏｒｂｉｔ　Ｏｎｅ,,合同会社,東京都,武蔵野市,吉祥寺北町３丁目５‐８イトーピア吉祥寺マンション５０７,,13,203,1800001,,,,,,,2025-12-12,1,,,,,オービットワン,0
625,3013103001514,新規,0,2025-12-12,2025-12-12,合同会社ＴＯＭＯＤＡ,,合同会社,東京都,羽村市,五ノ神４丁目１番２－３０１号,,13,227,2050011,,,,,,,2025-12-12,1,,,,,トモダ,0
640,3020001166083,新規,0,2025-12-12,2025-12-12,株式会社助っ人,,株式会社,神奈川県,横浜市都筑区,大棚町３００３番地５,,14,118,2240027,,,,,,,2025-12-12,1,,,,,スケット,0
642,3020005017084,新規,0,2025-12-12,2025-12-12,医療法人社団大成会,,その他の設立登記法人,神奈川県,川崎市麻生区,下麻生３丁目２１－５麻生メディカルセンター３０１号,,14,137,2150022,,,,,,,2025-12-12,1,,,,,タイセイカイ,0
646,3021001086981,新規,0,2025-12-12,2025-12-12,株式会社ＳｋｉｐｊａｃｋＰａｌ,,株式会社,神奈川県,相模原市中央区,東淵野辺２丁目９番５７号,,14,152,2520203,,,,,,,2025-12-12,1,,,,,スキップジャックパル,0
648,3021003016904,新規,0,2025-12-12,2025-12-12,合同会社ＡＮＭ,,合同会社,神奈川県,藤沢市,湘南台２丁目３番地の７ノワビルワン２階,,14,205,2520804,,,,,,,2025-12-12,1,,,,,エーエヌエム,0
659,3030001169853,新規,0,2025-12-12,2025-12-12,ｓ‐ｐａｒｋ株式会社,,株式会社,埼玉県,さいたま市大宮区,桜木町１丁目１９５番地１大宮ソラミチＫＯＺ４階,,11,103,3300854,,,,,,,2025-12-12,1,,,,,スパーク,0
660,3030001170068,新規,0,2025-12-12,2025-12-12,株式会社ＡＯ,,株式会社,埼玉県,熊谷市,河原町２丁目１６９番地,,11,202,3600035,,,,,,,2025-12-12,1,,,,,,0
661,3030001170092,新規,0,2025-12-12,2025-12-12,株式会社レーマン・トレーディング,,株式会社,埼玉県,鶴ヶ島市,大字下新田５７４番地２７・２階,,11,241,3502222,,,,,,,2025-12-12,1,,,,,レーマントレーディング,0
666,3030003028248,新規,0,2025-12-12,2025-12-12,合同会社ＳＮＯＷＭＯＵＳＥ,,合同会社,埼玉県,児玉郡上里町,大字神保原町９２５－２２,,11,385,3690305,,,,,,,2025-12-12,1,,,,,スノーマウス,0
671,3040003029121,新規,0,2025-12-12,2025-12-12,三休ハラール合同会社,,合同会社,千葉県,松戸市,栄町西１丁目７７２―６,,12,207,2710061,,,,,,,2025-12-12,1,,,,,サンキュウハラール,0
672,3040005022966,新規,0,2025-12-12,2025-12-12,特定非営利活動法人三番瀬の再生と行徳臨海部のまちづくりの会,,その他の設立登記法人,千葉県,市川市,高石神３３番２０号,,12,203,2720814,,,,,,,2025-12-12,1,,,,,サンバンゼノサイセイトギョウトクリンカイブノマチヅクリノカイ,0
687,3070003006209,新規,0,2025-12-12,2025-12-12,合同会社和ライン,,合同会社,群馬県,太田市,西新町８０番地１０,,10,205,3730847,,,,,,,2025-12-12,1,,,,,,0
688,3070003006217,新規,0,2025-12-12,2025-12-12,合同会社Ｇｒｏｏｍ,,合同会社,群馬県,前橋市,西片貝町２丁目４０４番地１メゾンヴェルテ西片貝Ｂ１０１号室,,10,201,3710013,,,,,,,2025-12-12,1,,,,,,0
691,3080103003484,新規,0,2025-12-12,2025-12-12,フラパートナーズ合同会社,,合同会社,静岡県,熱海市,泉２４９番地の１９東熱海シーサイドハイツ,,22,205,4130001,,,,,,,2025-12-12,1,,,,,フラパートナーズ,0
695,3090001019656,新規,0,2025-12-12,2025-12-12,菜食品株式会社,,株式会社,山梨県,富士吉田市,上吉田東４丁目１５番７号,,19,202,4030032,,,,,,,2025-12-12,1,,,,,サイショクヒン,0
700,3110001039783,新規,0,2025-12-12,2025-12-12,株式会社Ｃａｄｒｅ,,株式会社,新潟県,新潟市中央区,京王３丁目１３番８号,,15,103,9500921,,,,,,,2025-12-12,1,,,,,カドル,0
710,3120001282572,新規,0,2025-12-12,2025-12-12,株式会社ＡＶＡＮＴＲＡＤＥ,,株式会社,大阪府,大阪市北区,梅田１丁目２番２号大阪駅前第２ビル１２－１２,,27,127,5300001,,,,,,,2025-12-12,1,,,,,アヴァントレード,0
711,3120001282671,新規,0,2025-12-12,2025-12-12,Ｓｅｅｄｉａ株式会社,,株式会社,大阪府,大阪市中央区,大手前１丁目７－３１ＯＭＭ１階ＳｅｒｖｉｃｅＯｆｆｉｃｅＷ天満橋,,27,128,5400008,,,,,,,2025-12-12,1,,,,,シーディア,0
712,3120001282746,新規,0,2025-12-12,2025-12-12,株式会社ＧＧエンターテインメント,,株式会社,大阪府,大阪市中央区,島之内２丁目１７－６ＡＸＩＳコア道頓堀３０４,,27,128,5420082,,,,,,,2025-12-12,1,,,,,ジージーエンターテインメント,0
713,3120001282754,新規,0,2025-12-12,2025-12-12,株式会社ＩｎｔｅｒＷｉｓｅ,,株式会社,大阪府,大阪市西区,江戸堀１丁目１５番２１号９９９９ビル１１０１,,27,106,5500002,,,,,,,2025-12-12,1,,,,,インターワイズ,0
715,3120003031449,新規,0,2025-12-12,2025-12-12,合同会社アクセルリード,,合同会社,大阪府,大阪市阿倍野区,阪南町５丁目６番２３号,,27,119,5450021,,,,,,,2025-12-12,1,,,,,アクセルリード,0
719,3120101072948,新規,0,2025-12-12,2025-12-12,株式会社青空,,株式会社,大阪府,堺市西区,鳳西町３丁６４８番地１エクシード鳳１０３号,,27,144,5938326,,,,,,,2025-12-12,1,,,,,アオゾラ,0
725,3120901051969,新規,0,2025-12-12,2025-12-12,株式会社エムエヌロード,,株式会社,大阪府,高槻市,芝生町２丁目７番３９号,,27,207,5690823,,,,,,,2025-12-12,1,,,,,エムエヌロード,0
728,3122001039985,新規,0,2025-12-12,2025-12-12,株式会社エイチティーシー,,株式会社,大阪府,四條畷市,岡山東５丁目３番７３号,,27,229,5750003,,,,,,,2025-12-12,1,,,,,エイチティーシー,0
744,3140001141074,新規,0,2025-12-12,2025-12-12,株式会社Ｌｉｎｏ,,株式会社,兵庫県,尼崎市,西難波町１丁目３０番１４号,,28,202,6600893,,,,,,,2025-12-12,1,,,,,リノ,0
746,3140003022925,新規,0,2025-12-12,2025-12-12,合同会社ロウリュウ,,合同会社,兵庫県,神戸市長田区,長田町２丁目１－６－３０２,,28,106,6530812,,,,,,,2025-12-12,1,,,,,ロウリュウ,0
748,3150001028592,新規,0,2025-12-12,2025-12-12,株式会社ティヤム,,株式会社,奈良県,奈良市,大宮町３丁目５番３５号アクティブ宝泉ビル３階,,29,201,6308115,,,,,,,2025-12-12,1,,,,,ティヤム,0
754,3180001169731,新規,0,2025-12-12,2025-12-12,株式会社ＩＢＨ,,株式会社,愛知県,名古屋市東区,泉２丁目２番３０号,,23,102,4610001,,,,,,,2025-12-12,1,,,,,アイビーエイチ,0
755,3180001169847,新規,0,2025-12-12,2025-12-12,株式会社グロリア,,株式会社,愛知県,名古屋市中区,橘１丁目１６番４５号プレサンスジェネ上前津１２０６号,,23,106,4600016,,,,,,,2025-12-12,1,,,,,グロリア,0
763,3180003029487,新規,0,2025-12-12,2025-12-12,ワークライフ合同会社,,合同会社,愛知県,春日井市,柏原町３丁目１３８番地,,23,206,4860913,,,,,,,2025-12-12,1,,,,,ワークライフ,0
764,3180003029495,新規,0,2025-12-12,2025-12-12,合同会社ササキ,,合同会社,愛知県,あま市,篠田藤東２７番地,,23,237,4901211,,,,,,,2025-12-12,1,,,,,ササキ,0
765,3180005021343,新規,0,2025-12-12,2025-12-12,弁護士法人Ｆ法律事務所,,その他の設立登記法人,愛知県,一宮市,大宮３丁目８番５号,,23,203,4910044,,,,,,,2025-12-12,1,,,,,エフホウリツジムショ,0
777,3240001065908,新規,0,2025-12-12,2025-12-12,ＧｏｔｏＳｕｎ株式会社,,株式会社,広島県,福山市,奈良津町３丁目９番２９号,,34,207,7200022,,,,,,,2025-12-12,1,,,,,ゴートゥーサン,0
780,3280001009555,新規,0,2025-12-12,2025-12-12,株式会社堀総研ホールディングス,,株式会社,島根県,鹿足郡津和野町,枕瀬５７５番地９,,32,501,6995207,,,,,,,2025-12-12,1,,,,,ホリソウケンホールディングス,0
784,3290003017786,新規,0,2025-12-12,2025-12-12,合同会社Ｂｕｅｎａｓｕｅｒｕｔｅ,,合同会社,福岡県,福岡市中央区,天神２丁目２番１２－７階,,40,133,8100001,,,,,,,2025-12-12,1,,,,,ブエナスエルテ,0
789,3320001021489,新規,0,2025-12-12,2025-12-12,株式会社アグリゲート大分,,株式会社,大分県,大分市,三佐６丁目２番５０号,,44,201,8700108,,,,,,,2025-12-12,1,,,,,アグリゲートオオイタ,0
795,3330001033822,新規,0,2025-12-12,2025-12-12,株式会社チームファーム,,株式会社,熊本県,熊本市北区,高平３丁目２８番６号,,43,105,8600085,,,,,,,2025-12-12,1,,,,,チームファーム,0
804,3360001036129,新規,0,2025-12-12,2025-12-12,沖縄ドローン株式会社,,株式会社,沖縄県,名護市,字宇茂佐４２８番地２４,,47,209,9050006,,,,,,,2025-12-12,1,,,,,オキナワドローン,0
814,3400001017248,新規,0,2025-12-12,2025-12-12,コファウンダー株式会社,,株式会社,岩手県,岩手郡岩手町,大字江刈内第６地割１番１９,,03,303,0284303,,,,,,,2025-12-12,1,,,,,コファウンダー,0
822,3430001095852,新規,0,2025-12-12,2025-12-12,株式会社ｓａｎｅｙｅ,,株式会社,北海道,美唄市,大通西一条南２丁目２番１４号,,01,215,0720023,,,,,,,2025-12-12,1,,,,,サンアイ,0
823,3430001095860,新規,0,2025-12-12,2025-12-12,株式会社Ａｔｅｌｉｅｒ　ＮＡＮＡ,,株式会社,北海道,札幌市中央区,南五条西１３丁目１番２３号,,01,101,0640805,,,,,,,2025-12-12,1,,,,,アトリエナナ,0
827,3430003018415,新規,0,2025-12-12,2025-12-12,合同会社杜,,合同会社,北海道,札幌市南区,北ノ沢１８０３番地１６,,01,106,0050832,,,,,,,2025-12-12,1,,,,,ヤマナラシ,0
828,3430005015369,新規,0,2025-12-12,2025-12-12,一般社団法人安心終活プランサポート,,その他の設立登記法人,北海道,札幌市白石区,南郷通８丁目南３番２９号,,01,104,0030022,,,,,,,2025-12-12,1,,,,,アンシンシュウカツプランサポート,0
830,3440001009729,新規,0,2025-12-12,2025-12-12,株式会社スズキ,,株式会社,北海道,北斗市,本郷２丁目９番５号,,01,236,0411251,,,,,,,2025-12-12,1,,,,,スズキ,0
834,3470003003033,新規,0,2025-12-12,2025-12-12,合同会社コネクト,,合同会社,香川県,木田郡三木町,大字池戸３４１７番地２,,37,341,7610701,,,,,,,2025-12-12,1,,,,,,0
835,3490001011234,新規,0,2025-12-12,2025-12-12,株式会社勇,,株式会社,高知県,宿毛市,西町５丁目１５番７号,,39,208,7880025,,,,,,,2025-12-12,1,,,,,イサミ,0
838,3700150133393,新規,0,2025-12-12,2025-12-12,ダイレクトマーケティングミックス健康保険組合,,その他,大阪府,大阪市北区,南森町２丁目１番２９号,,27,127,5300054,,,,,,,2025-12-12,1,,,,,ダイレクトマーケティングミックスケンコウホケンクミアイ,0
839,3700150133402,新規,0,2025-12-12,2025-12-12,大阪瓦斯健康保険組合,,その他,大阪府,大阪市中央区,平野町４丁目１番２号,,27,128,5410046,,,,,,,2025-12-12,1,,,,,オオサカガスケンコウホケンクミアイ,0
840,3700150133410,新規,0,2025-12-12,2025-12-12,Ｎ１３０８　ＬＩＭＩＴＥＤ,,外国会社等,,,,,,,,Ｏｎｅ　Ｌｉｍｅ　Ｓｔｒｅｅｔ，Ｌｏｎｄｏｎ　ＥＣ３Ｍ　７ＨＡ　ＵＫ,,,,,,2025-12-12,1,,,,,エヌワンスリーオーエイトリミテツド,0
841,3700150133419,新規,0,2025-12-12,2025-12-12,ＮＤＳ健康保険組合,,その他,愛知県,名古屋市中区,千代田２丁目１５番１８号,,23,106,4600012,,,,,,,2025-12-12,1,,,,,エヌデイエスケンコウホケンクミアイ,0
842,3700150133427,新規,0,2025-12-12,2025-12-12,セイコー健康保険組合,,その他,東京都,中央区,銀座１丁目２０番１４号,,13,102,1040061,,,,,,,2025-12-12,1,,,,,セイコーケンコウホケンクミアイ,0
849,4010001260984,新規,0,2025-12-12,2025-12-12,株式会社ＨＳＫ,,株式会社,東京都,中央区,湊３丁目２－９丹波ビル３階,,13,102,1040043,,,,,,,2025-12-12,1,,,,,エイチエスケー,0
853,4010003049600,新規,0,2025-12-12,2025-12-12,合同会社ＯＨＡＮＡ,,合同会社,東京都,中央区,勝どき５丁目１番２０－８０３号,,13,102,1040054,,,,,,,2025-12-12,1,,,,,オハナ,0
854,4010003049666,新規,0,2025-12-12,2025-12-12,プレスブラザーズ合同会社,,合同会社,東京都,中央区,日本橋兜町１７―２兜町第６葉山ビル４Ｆ,,13,102,1030026,,,,,,,2025-12-12,1,,,,,プレスブラザーズ,0
855,4010003049716,新規,0,2025-12-12,2025-12-12,合同会社Ｒｏｕｔｅ６,,合同会社,東京都,千代田区,平河町１丁目６番１５号シルスフィア会計事務所内,,13,101,1020093,,,,,,,2025-12-12,1,,,,,ルートシックス,0
856,4010003049732,新規,0,2025-12-12,2025-12-12,合同会社ハルシンク,,合同会社,東京都,千代田区,神田須田町１丁目７番８号ＶＯＲＴ秋葉原ＩＶ２Ｆ,,13,101,1010041,,,,,,,2025-12-12,1,,,,,ハルシンク,0
871,4010601068423,新規,0,2025-12-12,2025-12-12,株式会社ＬＯＹＡＬ,,株式会社,東京都,墨田区,八広５丁目６番６号,,13,107,1310041,,,,,,,2025-12-12,1,,,,,ロイヤル,0
873,4010701048746,新規,0,2025-12-12,2025-12-12,株式会社Ａｓｔｅｒ　Ｐｒｏｍｏｔｉｏｎ,,株式会社,東京都,品川区,戸越３丁目３番５号ＮＹＭ・ＲＩＶＩＥＲＥ・ＴＯＧＯＳＨＩ－２０１号,,13,109,1420041,,,,,,,2025-12-12,1,,,,,アスタープロモーション,0
874,4010701048754,新規,0,2025-12-12,2025-12-12,ＣＯＣＯＲＵ株式会社,,株式会社,東京都,品川区,東品川４丁目１３番２４－２００４号,,13,109,1400002,,,,,,,2025-12-12,1,,,,,ココル,0
875,4010701048762,新規,0,2025-12-12,2025-12-12,ＡＤＡ株式会社,,株式会社,東京都,品川区,北品川３丁目１１番５号プレミスト北品川４０５,,13,109,1400001,,,,,,,2025-12-12,1,,,,,エーディーエー,0
876,4010801036873,新規,0,2025-12-12,2025-12-12,株式会社ｍａｓａ‐ｓｔａｒ,,株式会社,東京都,大田区,大森中１丁目２－５エンゼルハイム大森町壱番館６０１,,13,111,1430014,,,,,,,2025-12-12,1,,,,,マサスター,0
880,4010901058636,新規,0,2025-12-12,2025-12-12,株式会社蓮沼エステート,,株式会社,東京都,世田谷区,奥沢３丁目３５番１８号,,13,112,1580083,,,,,,,2025-12-12,1,,,,,ハスヌマエステート,0
887,4011001174142,新規,0,2025-12-12,2025-12-12,アーキサポートセンター株式会社,,株式会社,東京都,目黒区,下目黒１丁目１番１４号,,13,110,1530064,,,,,,,2025-12-12,1,,,,,アーキサポートセンター,0
888,4011001174209,新規,0,2025-12-12,2025-12-12,ＴＥＮＴＯ．株式会社,,株式会社,東京都,目黒区,青葉台４丁目４番１２号,,13,110,1530042,,,,,,,2025-12-12,1,,,,,テント,0
889,4011001174225,新規,0,2025-12-12,2025-12-12,株式会社ＰＯＲＴ　ＡＩ,,株式会社,東京都,渋谷区,円山町３－６Ｅ・スペースタワー６Ｆ西,,13,113,1500044,,,,,,,2025-12-12,1,,,,,ポートエーアイ,0
895,4011101114171,新規,0,2025-12-12,2025-12-12,ＨＵＢｅｅ　ＭＡＲＫＥＴＩＮＧ株式会社,,株式会社,東京都,新宿区,西新宿３丁目３番１３号西新宿水間ビル６階,,13,104,1600023,,,,,,,2025-12-12,1,,,,,ハビーマーケティング,0
896,4011101114304,新規,0,2025-12-12,2025-12-12,山田食品開発株式会社,,株式会社,東京都,新宿区,弁天町６６,,13,104,1620851,,,,,,,2025-12-12,1,,,,,ヤマダショクヒンカイハツ,0
897,4011105011687,新規,0,2025-12-12,2025-12-12,未来国際行政書士法人,,その他の設立登記法人,東京都,新宿区,高田馬場２丁目８－２－６Ｆ,,13,104,1690075,,,,,,,2025-12-12,1,,,,,ミライコクサイ,0
900,4011603004952,新規,0,2025-12-12,2025-12-12,合同会社冨樫,,合同会社,東京都,練馬区,三原台１丁目２５番８号,,13,120,1770031,,,,,,,2025-12-12,1,,,,,トガシ,0
903,4011705001922,新規,0,2025-12-12,2025-12-12,一般社団法人マハラシュトラ州起業家交流会,,その他の設立登記法人,東京都,江戸川区,北葛西２丁目１２番２３号,,13,123,1340081,,,,,,,2025-12-12,1,,,,,マハラシュトラシュウキギョウカコウリュウカイ,0
904,4011801047150,新規,0,2025-12-12,2025-12-12,Ｍａｇｎｏｌｉａ株式会社,,株式会社,東京都,足立区,千住５丁目１９番８号２０３号室,,13,121,1200034,,,,,,,2025-12-12,1,,,,,マグノリア,0
905,4011801047183,新規,0,2025-12-12,2025-12-12,株式会社ＳＡＭコンサルタンツ,,株式会社,東京都,足立区,扇２丁目１１番１号,,13,121,1230873,,,,,,,2025-12-12,1,,,,,サムコンサルタンツ,0
906,4011803007193,新規,0,2025-12-12,2025-12-12,ＮｅｗＴｕｒｎ合同会社,,合同会社,東京都,足立区,新田３丁目３７－１３－１１１３,,13,121,1230865,,,,,,,2025-12-12,1,,,,,ニューターン,0
907,4012405005197,新規,0,2025-12-12,2025-12-12,一般社団法人夜久学社,,その他の設立登記法人,東京都,武蔵野市,桜堤２丁目９番１８号,,13,203,1800021,,,,,,,2025-12-12,1,,,,,ヤクガクシャ,0
924,4020001166231,新規,0,2025-12-12,2025-12-12,株式会社フーズネスト,,株式会社,神奈川県,横浜市西区,浅間町１丁目４番３号ウィザードビル４０２,,14,103,2200072,,,,,,,2025-12-12,1,,,,,フーズネクスト,0
925,4020001166256,新規,0,2025-12-12,2025-12-12,ＴＨ　ＴＯＫＹＯ株式会社,,株式会社,神奈川県,横浜市泉区,上飯田町２７８１番地１,,14,116,2450018,,,,,,,2025-12-12,1,,,,,ティエイチトウキョウ,0
926,4020001166280,新規,0,2025-12-12,2025-12-12,トリアス株式会社,,株式会社,神奈川県,横浜市都筑区,北山田５丁目６番２－１４０２号,,14,118,2240021,,,,,,,2025-12-12,1,,,,,トリアス,0
927,4020001166314,新規,0,2025-12-12,2025-12-12,株式会社ファイナルシフト,,株式会社,神奈川県,横浜市西区,高島２丁目１０番１３号横浜東口ビル８０４号室,,14,103,2200011,,,,,,,2025-12-12,1,,,,,ファイナルシフト,0
928,4020005017083,新規,0,2025-12-12,2025-12-12,医療法人社団黎明会,,その他の設立登記法人,神奈川県,横浜市中区,松影町１丁目３番地７ロックヒルズＶＩＩＩ３階,00141858,14,104,2310025,,,,,,,2025-12-12,1,,,,,レイメイカイ,0
933,4021001086989,新規,0,2025-12-12,2025-12-12,株式会社ｂｒａｎｃｈｅ,,株式会社,神奈川県,綾瀬市,深谷南１丁目１０番２２号,,14,218,2521106,,,,,,,2025-12-12,1,,,,,ブランシェ,0
934,4021001087013,新規,0,2025-12-12,2025-12-12,Ｋｎｉｇｈｔｗｅｌｌ株式会社,,株式会社,神奈川県,厚木市,温水１８９２番地,,14,212,2430033,,,,,,,2025-12-12,1,,,,,ナイトウェル,0
936,4021003016903,新規,0,2025-12-12,2025-12-12,合同会社ローカルステーション,,合同会社,神奈川県,高座郡寒川町,岡田４丁目１４番１３号,,14,321,2530105,,,,,,,2025-12-12,1,,,,,ローカルステーション,0
944,4030001170067,新規,0,2025-12-12,2025-12-12,株式会社ＹＵＩ　ｃｏｒｐｏｒａｔｉｏｎ,,株式会社,埼玉県,川越市,大字下赤坂５２番地６－２Ｆ,,11,201,3501155,,,,,,,2025-12-12,1,,,,,ユイコーポレーション,0
945,4030001170117,新規,0,2025-12-12,2025-12-12,株式会社和章,,株式会社,埼玉県,蓮田市,末広１丁目５番１５号,,11,238,3490124,,,,,,,2025-12-12,1,,,,,ワショウ,0
953,4030003028247,新規,0,2025-12-12,2025-12-12,合同会社コウノドリ,,合同会社,埼玉県,さいたま市浦和区,領家３丁目４番５号,,11,107,3300072,,,,,,,2025-12-12,1,,,,,コウノドリ,0
959,4040001141703,新規,0,2025-12-12,2025-12-12,株式会社ＪＳＴ,,株式会社,千葉県,富津市,湊１５３１番地２１,,12,226,2991607,,,,,,,2025-12-12,1,,,,,ジェイエスティー,0
964,4040003029112,新規,0,2025-12-12,2025-12-12,ＹＳＫアセット合同会社,,合同会社,千葉県,市川市,須和田１丁目３１番１７号,,12,203,2720825,,,,,,,2025-12-12,1,,,,,ワイエスケイアセット,0
965,4040003029137,新規,0,2025-12-12,2025-12-12,合同会社積立コンマ,,合同会社,千葉県,流山市,おおたかの森北３丁目４４番地７,,12,220,2700119,,,,,,,2025-12-12,1,,,,,ツミタテコンマ,0
968,4050001057725,新規,0,2025-12-12,2025-12-12,株式会社アリハンコーポレーション,,株式会社,茨城県,下妻市,南原１２６番地１,,08,210,3040075,,,,,,,2025-12-12,1,,,,,アリハンコーポレーション,0
970,4050003009781,新規,0,2025-12-12,2025-12-12,合同会社丸蔵,,合同会社,茨城県,水戸市,双葉台２丁目２３番地の７,,08,201,3114145,,,,,,,2025-12-12,1,,,,,マルゾウ,0
971,4060001038848,新規,0,2025-12-12,2025-12-12,株式会社ブレーヴ,,株式会社,栃木県,宇都宮市,インターパーク２丁目１４番地８,,09,201,3210118,,,,,,,2025-12-12,1,,,,,ブレーブ,0
974,4070003006216,新規,0,2025-12-12,2025-12-12,合同会社はこけん,,合同会社,群馬県,吾妻郡中之条町,大字横尾１８０５番地３５,,10,421,3770415,,,,,,,2025-12-12,1,,,,,ハコケン,0
979,4080403005403,新規,0,2025-12-12,2025-12-12,合同会社イノヴァ・アセット,,合同会社,静岡県,浜松市中央区,元魚町１０１,,22,138,4328026,,,,,,,2025-12-12,1,,,,,イノヴァアセット,0
982,4100003008514,新規,0,2025-12-12,2025-12-12,合同会社＿商事,00141852,合同会社,長野県,飯田市,今宮町２丁目３１番地,,20,205,3950071,,,,,,,2025-12-12,1,,,,,キンショウジ,0
996,4120001282704,新規,0,2025-12-12,2025-12-12,株式会社クレアールース,,株式会社,大阪府,大阪市淀川区,西三国２丁目７番８－３０１号,,27,123,5320006,,,,,,,2025-12-12,1,,,,,クレアールース,0
997,4120001282729,新規,0,2025-12-12,2025-12-12,Ａｓａｎａ　Ｓｔｕｄｉｏ株式会社,,株式会社,大阪府,大阪市中央区,松屋町住吉６番２６号住吉ビル３０２,,27,128,5400017,,,,,,,2025-12-12,1,,,,,アサナスタジオ,0
998,4120001282753,新規,0,2025-12-12,2025-12-12,株式会社国際珠宝玉石協会,,株式会社,大阪府,守口市,八雲北町３丁目３０番１１号,,27,209,5700008,,,,,,,2025-12-12,1,,,,,コクサイジュエリージェイドキョウカイ,0
1000,4120003031415,新規,0,2025-12-12,2025-12-12,合同会社ＨＢＢ,,合同会社,大阪府,大阪市住之江区,泉１丁目１番８２号スポーツビレッジスミノエ内,,27,125,5590023,,,,,,,2025-12-12,1,,,,,エイチビービー,0
1001,4120003031456,新規,0,2025-12-12,2025-12-12,合同会社三矢商会,,合同会社,大阪府,枚方市,杉山手１丁目２５－１３,,27,210,5730118,,,,,,,2025-12-12,1,,,,,ミヤショウカイ,0
1010,4130003011011,新規,0,2025-12-12,2025-12-12,つみき合同会社,,合同会社,京都府,京都市左京区,岡崎天王町６９番地ネバーランド京都岡崎１０５,,26,103,6068335,,,,,,,2025-12-12,1,,,,,ツミキ,0
1018,4140001141040,新規,0,2025-12-12,2025-12-12,株式会社舞時双,,株式会社,兵庫県,西宮市,清水町２番１１号,,28,204,6620033,,,,,,,2025-12-12,1,,,,,ブタイムソウ,0
1019,4140001141065,新規,0,2025-12-12,2025-12-12,株式会社ファイブオート,,株式会社,兵庫県,伊丹市,南野北４丁目２番１６－２号,,28,207,6640887,,,,,,,2025-12-12,1,,,,,ファイブオート,0
1020,4140001141081,新規,0,2025-12-12,2025-12-12,萬屋作兵衛商店株式会社,,株式会社,兵庫県,尼崎市,開明町１丁目１７番地,,28,202,6600862,,,,,,,2025-12-12,1,,,,,ヨロズヤサクベエショウテン,0
1021,4140001141098,新規,0,2025-12-12,2025-12-12,株式会社森賀コンサルティング,,株式会社,兵庫県,神戸市中央区,北長狭通４丁目２－１９アムズ元町４Ｆ－１１号室,,28,110,6500012,,,,,,,2025-12-12,1,,,,,モリガコンサルティング,0
1023,4140003022965,新規,0,2025-12-12,2025-12-12,はる風合同会社,,合同会社,兵庫県,神戸市垂水区,舞多聞西８丁目１０番３号,,28,108,6550051,,,,,,,2025-12-12,1,,,,,ハルカゼ,0
1029,4160001027287,新規,0,2025-12-12,2025-12-12,株式会社ビクシオン,,株式会社,滋賀県,草津市,南草津プリムタウン１丁目１６番地６,,25,206,5250068,,,,,,,2025-12-12,1,,,,,ビクシオン,0
1041,4180001169730,新規,0,2025-12-12,2025-12-12,株式会社ＳＫＮ,,株式会社,愛知県,名古屋市東区,泉２丁目１番２８号,,23,102,4610001,,,,,,,2025-12-12,1,,,,,エスケーエヌ,0
1042,4180001169846,新規,0,2025-12-12,2025-12-12,株式会社ＡＳＴＲＥＡ,,株式会社,愛知県,名古屋市中区,錦１丁目８番４９号,,23,106,4600003,,,,,,,2025-12-12,1,,,,,アストレア,0
1043,4180001169895,新規,0,2025-12-12,2025-12-12,株式会社ライフエンリッチ,,株式会社,愛知県,名古屋市中区,栄３丁目２番３号名古屋日興証券ビル４階,,23,106,4600008,,,,,,,2025-12-12,1,,,,,ライフエンリッチ,0
1044,4180003029478,新規,0,2025-12-12,2025-12-12,合同会社ＴＭ２,,合同会社,愛知県,豊明市,阿野町大高道２０番地７,,23,229,4701141,,,,,,,2025-12-12,1,,,,,ティーエムスクエア,0
1051,4200001044518,新規,0,2025-12-12,2025-12-12,株式会社ＢＥＥＴＳ,,株式会社,岐阜県,中津川市,落合１０２１番地の１,,21,206,5080006,,,,,,,2025-12-12,1,,,,,ビーツ,0
1063,4240001065915,新規,0,2025-12-12,2025-12-12,株式会社ＵＲＢＡＮ　ＢＡＳＥ,,株式会社,広島県,広島市安佐北区,落合２丁目２４番１７－５号,,34,106,7391731,,,,,,,2025-12-12,1,,,,,アーバンベース,0
1070,4270001009349,新規,0,2025-12-12,2025-12-12,株式会社ミナト安全施設,,株式会社,鳥取県,鳥取市,南安長１丁目２０番３６号,,31,201,6800914,,,,,,,2025-12-12,1,,,,,ミナトアンゼンシセツ,0
1078,4290003017819,新規,0,2025-12-12,2025-12-12,合同会社ｙｏｍｏｃ,,合同会社,福岡県,福岡市南区,南大橋１丁目２番２８号,,40,134,8150034,,,,,,,2025-12-12,1,,,,,ヨモック,0
1083,4310003005143,新規,0,2025-12-12,2025-12-12,合同会社マユハマヤ,,合同会社,長崎県,長崎市,中小島２丁目９番３－８０１号,,42,201,8500836,,,,,,,2025-12-12,1,,,,,マユハマヤ,0
1089,4330003011346,新規,0,2025-12-12,2025-12-12,余白研究室合同会社,,合同会社,熊本県,阿蘇郡産山村,大字田尻３５７番地,,43,425,8692704,,,,,,,2025-12-12,1,,,,,ヨハクケンキュウシツ,0
1094,4360003015468,新規,0,2025-12-12,2025-12-12,ＵＳＡ総合リサイクルＳｅｃａｎｄ　ｌｉｆｅ　Ｏｋｉｎａｗａ合同会社,,合同会社,沖縄県,中頭郡西原町,字小波津２３３番地の１２４小波津団地Ｓ－５,,47,329,9030118,,,,,,,2025-12-12,1,,,,,ユーエスエーソウゴウリサイクルセカンドライフオキナワ,0
1109,4430001095843,新規,0,2025-12-12,2025-12-12,株式会社ミラケア,,株式会社,北海道,苫小牧市,澄川町３丁目１９番８号,,01,213,0591271,,,,,,,2025-12-12,1,,,,,ミラケア,0
1111,4430003018356,新規,0,2025-12-12,2025-12-12,前進寥氏合同会社,,合同会社,北海道,小樽市,最上２丁目１４番３号,,01,203,0470023,,,,,,,2025-12-12,1,,,,,ゼンシンリョウジ,0
1116,4490003002073,新規,0,2025-12-12,2025-12-12,合同会社ＭＵＳＴＡＦＡ　ＣＯＲＰＯＲＡＴＩＯＮ,,合同会社,高知県,土佐市,塚地３４３番地３,,39,205,7811153,,,,,,,2025-12-12,1,,,,,ムスタファコーポレーション,0
1119,4700150133392,新規,0,2025-12-12,2025-12-12,フジシールグループ健康保険組合,,その他,大阪府,大阪市北区,南森町２丁目１番２９号,,27,127,5300054,,,,,,,2025-12-12,1,,,,,フジシールグループケンコウホケンクミアイ,0
1120,4700150133401,新規,0,2025-12-12,2025-12-12,渡辺パイプ健康保険組合,,その他,東京都,千代田区,大手町１丁目３－２,,13,101,1000004,,,,,,,2025-12-12,1,,,,,ワタナベパイプケンコウホケンクミアイ,0
1121,4700150133418,新規,0,2025-12-12,2025-12-12,Ｎａｍｅｃｏ（Ｎｏ１４１４）Ｌｉｍｉｔｅｄ,,外国会社等,,,,,,,,Ｏｎｅ　Ｌｉｍｅ　Ｓｔｒｅｅｔ，Ｌｏｎｄｏｎ　ＥＣ３Ｍ　７ＨＡ　ＵＫ,,,,,,2025-12-12,1,,,,,ネームコナンバーワンフオーワンフオーリミテツド,0
1122,4700150133426,新規,0,2025-12-12,2025-12-12,スルガ銀行健康保険組合,,その他,静岡県,沼津市,通横町２３番地,,22,203,4100891,,,,,,,2025-12-12,1,,,,,スルガギンコウケンコウホケンクミアイ,0
1132,5010001261107,新規,0,2025-12-12,2025-12-12,ＭＳＣスマートケア株式会社,,株式会社,東京都,文京区,本駒込６丁目１番１５－１２０１号,,13,105,1130021,,,,,,,2025-12-12,1,,,,,エムエスシースマートケア,0
1133,5010001261115,新規,0,2025-12-12,2025-12-12,丸紅コンシューマープラットフォームインド株式会社,,株式会社,東京都,千代田区,大手町１丁目４番２号,,13,101,1000004,,,,,,,2025-12-12,1,,,,,マルベニコンシューマープラットフォームインド,0
1134,5010001261131,新規,0,2025-12-12,2025-12-12,株式会社しき,,株式会社,東京都,中央区,日本橋浜町１丁目９番２号ＦＬＵＦＦＹ浜町１Ｆ,,13,102,1030007,,,,,,,2025-12-12,1,,,,,シキ,0
1138,5010003049649,新規,0,2025-12-12,2025-12-12,合同会社Ｃａｐｉｔａｒｉｓｅ,,合同会社,東京都,中央区,銀座１丁目２２番１１号銀座大竹ビジデンス２Ｆ,,13,102,1040061,,,,,,,2025-12-12,1,,,,,キャピタライズ,0
1139,5010003049673,新規,0,2025-12-12,2025-12-12,合同会社Ｌｉｏｒａ,,合同会社,東京都,文京区,本郷５丁目１番１号ＫＩＩＨＯＵＳＥ２０２,,13,105,1130033,,,,,,,2025-12-12,1,,,,,リィオラ,0
1140,5010003049715,新規,0,2025-12-12,2025-12-12,鬼高資産開発合同会社,,合同会社,東京都,千代田区,平河町１丁目６番１５号シルスフィア会計事務所内,,13,101,1020093,,,,,,,2025-12-12,1,,,,,オニタカシサンカイハツ,0
1145,5010005041059,新規,0,2025-12-12,2025-12-12,弁護士法人松田綜合法律事務所,,その他の設立登記法人,東京都,千代田区,大手町２丁目１番１号,,13,101,1000004,,,,,,,2025-12-12,1,,,,,マツダソウゴウホウリツジムショ,0
1158,5010401194344,新規,0,2025-12-12,2025-12-12,株式会社ＸＦＯＯＤＳ,,株式会社,東京都,港区,白金６丁目１４－２ヒルクレスト白金３０１,,13,103,1080072,,,,,,,2025-12-12,1,,,,,エックスフーズ,0
1161,5010601068422,新規,0,2025-12-12,2025-12-12,株式会社テラシマ,,株式会社,東京都,墨田区,東向島６丁目６３番１５号,,13,107,1310032,,,,,,,2025-12-12,1,,,,,テラシマ,0
1167,5010801036864,新規,0,2025-12-12,2025-12-12,エヌエステクノ株式会社,,株式会社,東京都,大田区,山王４丁目２１番１２号,,13,111,1430023,,,,,,,2025-12-12,1,,,,,エヌエステクノ,0
1168,5010801036880,新規,0,2025-12-12,2025-12-12,株式会社麗泉,,株式会社,東京都,大田区,南久が原１丁目６番１２号,,13,111,1460084,,,,,,,2025-12-12,1,,,,,レイセン,0
1170,5010903010486,新規,0,2025-12-12,2025-12-12,ＡＹＶＩＡ合同会社,,合同会社,東京都,世田谷区,桜丘５丁目２２―１５―５０６,,13,112,1560054,,,,,,,2025-12-12,1,,,,,アイヴィア,0
1171,5010903010494,新規,0,2025-12-12,2025-12-12,合同会社ＴａｉＭｅｉ＆Ｓ,,合同会社,東京都,世田谷区,池尻２丁目２５番１２号昆野ハウス１０１,,13,112,1540001,,,,,,,2025-12-12,1,,,,,タイメイアンドエス,0
1179,5011001174323,新規,0,2025-12-12,2025-12-12,イーゼットプラス株式会社,,株式会社,東京都,目黒区,八雲１丁目１２番１４号,,13,110,1520023,,,,,,,2025-12-12,1,,,,,イーゼットプラス,0
1185,5011103016794,新規,0,2025-12-12,2025-12-12,ヒカリヤ合同会社,,合同会社,東京都,新宿区,歌舞伎町２丁目２５番８号２１４室,,13,104,1600021,,,,,,,2025-12-12,1,,,,,ヒカリヤ,0
1186,5011103016828,新規,0,2025-12-12,2025-12-12,３６５日エンターテインメント合同会社,,合同会社,東京都,新宿区,新宿５丁目１２番１６号Ｄａｓｈビル１Ｆ,,13,104,1600022,,,,,,,2025-12-12,1,,,,,サンビャクロクジュウゴニチエンターテインメント,0
1187,5011103016844,新規,0,2025-12-12,2025-12-12,合同会社森,,合同会社,東京都,新宿区,西新宿３丁目３番１３号西新宿水間ビル６階,,13,104,1600023,,,,,,,2025-12-12,1,,,,,モリ,0
1188,5011103016852,新規,0,2025-12-12,2025-12-12,合同会社ＺＥＲＯＧＲＡＰＨ,,合同会社,東京都,新宿区,西新宿３丁目３番１３号西新宿水間ビル６階,,13,104,1600023,,,,,,,2025-12-12,1,,,,,ゼログラフ,0
1189,5011105011678,新規,0,2025-12-12,2025-12-12,社会保険労務士法人Ｏｎ　Ｙｏｕｒ　Ｓｉｄｅ,,その他の設立登記法人,東京都,新宿区,西新宿３丁目３番１３号西新宿水間ビル２階,,13,104,1600023,,,,,,,2025-12-12,1,,,,,オンユアサイド,0
1195,5011501032906,新規,0,2025-12-12,2025-12-12,株式会社Ｓｃｈｉｃｋｓａｌ,,株式会社,東京都,北区,田端新町２丁目２０番６－２０２号,,13,117,1140012,,,,,,,2025-12-12,1,,,,,シックザール,0
1198,5011603004951,新規,0,2025-12-12,2025-12-12,合同会社Ｓｎｏｗｃｒｅｓｔ,,合同会社,東京都,練馬区,中村南３丁目１２番６号,,13,120,1760025,,,,,,,2025-12-12,1,,,,,スノークレスト,0
1202,5011701029017,新規,0,2025-12-12,2025-12-12,株式会社Ｙ‐Ｃｏｒｐｏｒａｔｉｏｎ,,株式会社,東京都,江戸川区,松江３丁目７－１０ロイヤルシティ船堀松江８０３,,13,123,1320025,,,,,,,2025-12-12,1,,,,,ワイコーポレーション,0
1203,5011802031235,新規,0,2025-12-12,2025-12-12,有限会社バーデイ企画,,有限会社,東京都,葛飾区,堀切４丁目５３番３号,,13,122,1240006,,,,,,,2025-12-12,1,,,,,バーデイキカク,0
1219,5021001086988,新規,0,2025-12-12,2025-12-12,株式会社ＳＷＩＦＴ　ＬＩＮＫ,,株式会社,神奈川県,藤沢市,城南４丁目１番１６号,,14,205,2510057,,,,,,,2025-12-12,1,,,,,スウィフトリンク,0
1220,5021001087012,新規,0,2025-12-12,2025-12-12,ゴールドロード株式会社,,株式会社,神奈川県,茅ヶ崎市,共恵１丁目１７－３－３０５号,,14,207,2530056,,,,,,,2025-12-12,1,,,,,ゴールドロード,0
1221,5021001087029,新規,0,2025-12-12,2025-12-12,株式会社ターニングポイント,,株式会社,神奈川県,茅ヶ崎市,萩園１３０６,,14,207,2530071,,,,,,,2025-12-12,1,,,,,ターニングポイント,0
1223,5021003016885,新規,0,2025-12-12,2025-12-12,Ｄｆｎ合同会社,,合同会社,神奈川県,鎌倉市,浄明寺１丁目９番１４号,,14,204,2480003,,,,,,,2025-12-12,1,,,,,ディーエフエヌ,0
1234,5030001170099,新規,0,2025-12-12,2025-12-12,株式会社清水,,株式会社,埼玉県,川口市,大字安行原２５３６番地の７,,11,203,3340057,,,,,,,2025-12-12,1,,,,,シミズ,0
1235,5030001170108,新規,0,2025-12-12,2025-12-12,株式会社Ｓｉｎａｒｙファルコン,,株式会社,埼玉県,戸田市,上戸田２丁目３８番５号ＭａｉｓｏｎＢｌａｎｃｈｅ１０２,,11,224,3350022,,,,,,,2025-12-12,1,,,,,シナリーファルコン,0
1236,5030001170116,新規,0,2025-12-12,2025-12-12,株式会社ブッダ堂,,株式会社,埼玉県,上尾市,大字畔吉７５１番地,,11,219,3620065,,,,,,,2025-12-12,1,,,,,ブッダドウ,0
1237,5030001170132,新規,0,2025-12-12,2025-12-12,ＴｒｉＳｔｒｕｃｔ株式会社,,株式会社,埼玉県,飯能市,大字矢颪１１２番地１１,,11,209,3570042,,,,,,,2025-12-12,1,,,,,トライストラクト,0
1240,5030003028188,新規,0,2025-12-12,2025-12-12,ｌｉｖｅｓｕｒｆａｃｅ合同会社,,合同会社,埼玉県,桶川市,大字坂田１４９６番地の１シャトレー坂田５０８,,11,231,3630008,,,,,,,2025-12-12,1,,,,,ライブサーフィス,0
1241,5030003028262,新規,0,2025-12-12,2025-12-12,Ｃｕｒｅｖｅ合同会社,,合同会社,埼玉県,さいたま市西区,大字高木８５番地１指扇ホームズＡ３２,,11,101,3310071,,,,,,,2025-12-12,1,,,,,キューヴ,0
1250,5040001141743,新規,0,2025-12-12,2025-12-12,ＬＯＴＵＳ株式会社,,株式会社,千葉県,千葉市中央区,都町１丁目３８－６,,12,101,2600001,,,,,,,2025-12-12,1,,,,,ロータス,0
1260,5070003006215,新規,0,2025-12-12,2025-12-12,ｐｒｉｍｅ合同会社,,合同会社,群馬県,伊勢崎市,連取町３２９５－４クレールフォンティーヌ１－Ｃ,,10,204,3720812,,,,,,,2025-12-12,1,,,,,,0
1262,5080005007747,新規,0,2025-12-12,2025-12-12,一般社団法人ＫＡＰＷＡ,,その他の設立登記法人,静岡県,焼津市,本町４丁目１０番１８号,,22,212,4250022,,,,,,,2025-12-12,1,,,,,カプワ,0
1271,5110005017296,新規,0,2025-12-12,2025-12-12,特定非営利活動法人あにまるシェルターひだまり,,その他の設立登記法人,新潟県,上越市,板倉区中之宮５７０番地８,,15,222,9440122,,,,,,,2025-12-12,1,,,,,アニマルシェルターヒダマリ,0
1285,5120001282728,新規,0,2025-12-12,2025-12-12,翔馬株式会社,,株式会社,大阪府,大阪市生野区,田島６丁目２番２８－４０２号,,27,116,5440011,,,,,,,2025-12-12,1,,,,,ショウマ,0
1286,5120001282752,新規,0,2025-12-12,2025-12-12,株式会社園,,株式会社,大阪府,大阪市西成区,天下茶屋東２丁目１１番１７号,,27,122,5570011,,,,,,,2025-12-12,1,,,,,エン,0
1290,5120101072946,新規,0,2025-12-12,2025-12-12,株式会社コアサポート,,株式会社,大阪府,岸和田市,中井町３丁目１９－２２,,27,202,5960003,,,,,,,2025-12-12,1,,,,,コアサポート,0
1291,5120101072954,新規,0,2025-12-12,2025-12-12,株式会社クリエイトリンクス,,株式会社,大阪府,堺市堺区,北瓦町２丁１番３１号キラク第一ビル４Ｆ,,27,141,5900076,,,,,,,2025-12-12,1,,,,,クリエイトリンクス,0
1292,5120103006893,新規,0,2025-12-12,2025-12-12,合同会社彩華,,合同会社,大阪府,和泉市,内田町２丁目６番１３号,,27,219,5941156,,,,,,,2025-12-12,1,,,,,サイカ,0
1293,5120105010092,新規,0,2025-12-12,2025-12-12,一般社団法人堺市教育会館,,その他の設立登記法人,大阪府,堺市堺区,北三国ヶ丘町１丁２番２５号,,27,141,5900021,,,,,,,2025-12-12,1,,,,,サカイシキョウイクカイカン,0
1295,5120905006819,新規,0,2025-12-12,2025-12-12,一般社団法人非公開会社ガバナンス推進機構,,その他の設立登記法人,大阪府,箕面市,新稲４丁目１７番３－１０２号,,27,220,5620005,,,,,,,2025-12-12,1,,,,,ヒコウカイガイシャガバナンススイシンキコウ,0
1314,5160001027286,新規,0,2025-12-12,2025-12-12,株式会社ＯＳＩＯ,,株式会社,滋賀県,彦根市,本町１丁目１２番２８号,,25,202,5220064,,,,,,,2025-12-12,1,,,,,オシオ,0
1330,5180001169812,新規,0,2025-12-12,2025-12-12,株式会社コスメニ,,株式会社,愛知県,名古屋市中村区,川前町５１５,,23,105,4530865,,,,,,,2025-12-12,1,,,,,,0
1331,5180001169886,新規,0,2025-12-12,2025-12-12,株式会社未来工房,,株式会社,愛知県,春日井市,八事町３丁目５２番地２シャトー八事７０２号,,23,206,4860836,,,,,,,2025-12-12,1,,,,,ミライコウボウ,0
1332,5180001169903,新規,0,2025-12-12,2025-12-12,株式会社Ｄｅｓｃｒｉｂｅ,,株式会社,愛知県,北名古屋市,熊之庄八幡２６４番地１,,23,234,4810006,,,,,,,2025-12-12,1,,,,,ディスクライブ,0
1335,5180003029477,新規,0,2025-12-12,2025-12-12,合同会社アースワン,,合同会社,愛知県,名古屋市中村区,名駅３丁目４－１０アルティメイト名駅１ｓｔ２階,,23,105,4500002,,,,,,,2025-12-12,1,,,,,アースワン,0
1336,5180003029485,新規,0,2025-12-12,2025-12-12,合同会社ＳＲ,,合同会社,愛知県,名古屋市名東区,藤巻町２丁目２－１２８５,,23,115,4650075,,,,,,,2025-12-12,1,,,,,エスアール,0
1337,5180003029493,新規,0,2025-12-12,2025-12-12,合同会社Ｒｅｓｅｒｖｅ,,合同会社,愛知県,名古屋市瑞穂区,白砂町３丁目２４番１,,23,108,4670056,,,,,,,2025-12-12,1,,,,,リザーブ,0
1347,5190001032754,新規,0,2025-12-12,2025-12-12,前地設備株式会社,,株式会社,三重県,南牟婁郡紀宝町,鵜殿７４４番地,,24,562,5195701,,,,,,,2025-12-12,1,,,,,マエジセツビ,0
1353,5230003002552,新規,0,2025-12-12,2025-12-12,龍華誉合同会社,,合同会社,富山県,高岡市,下麻生３０８番地,,16,202,9391272,,,,,,,2025-12-12,1,,,,,リュウカヨ,0
1360,5250003003862,新規,0,2025-12-12,2025-12-12,合同会社ひあたり良好,,合同会社,山口県,山口市,黒川８０７番地３,,35,203,7530851,,,,,,,2025-12-12,1,,,,,ヒアタリリョウコウ,0
1372,5260003005445,新規,0,2025-12-12,2025-12-12,合同会社セブンツリーズ,,合同会社,岡山県,岡山市東区,瀬戸町旭ヶ丘１丁目１番地５,,33,103,7090853,,,,,,,2025-12-12,1,,,,,セブンツリーズ,0
1373,5260005011557,新規,0,2025-12-12,2025-12-12,特定非営利活動法人Ｃｏｚｙ　Ｃａｔ　Ｓｈｅｌｔｅｒ,,その他の設立登記法人,岡山県,岡山市中区,平井６丁目７番１７号,,33,102,7038282,,,,,,,2025-12-12,1,,,,,コージーキャットシェルター,0
1374,5270001009348,新規,0,2025-12-12,2025-12-12,株式会社ワイドマネジメント,,株式会社,鳥取県,鳥取市,的場３丁目２０番地１,,31,201,6800873,,,,,,,2025-12-12,1,,,,,ワイドマネジメント,0
1388,5290005019894,新規,0,2025-12-12,2025-12-12,弁理士法人Ｐｒｏｖｉａ国際特許商標事務所,,その他の設立登記法人,福岡県,福岡市博多区,博多駅前３丁目２５番２１号博多駅前ビジネスセンター４１１号,,40,132,8120011,,,,,,,2025-12-12,1,,,,,プロヴィアコクサイトッキョショウヒョウジムショ,0
1389,5290801032101,新規,0,2025-12-12,2025-12-12,株式会社原建設,,株式会社,福岡県,田川郡糸田町,川宮１８５９番地４６,,40,604,8221300,,,,,,,2025-12-12,1,,,,,ハラケンセツ,0
1395,5340001027838,新規,0,2025-12-12,2025-12-12,株式会社ＴＥＡ　ＰＬＡＮＥＴＳ　ＨＯＬＤＩＮＧＳ,,株式会社,鹿児島県,南九州市,知覧町郡１７２５８番地１,,46,223,8970302,,,,,,,2025-12-12,1,,,,,ティープラネッツホールディングス,0
1397,5360001036119,新規,0,2025-12-12,2025-12-12,株式会社ＯＮＥＷＩＬＬ,,株式会社,沖縄県,中頭郡北中城村,字島袋６０４番地１２スノーボール１０２,,47,327,9012301,,,,,,,2025-12-12,1,,,,,ワンウィル,0
1398,5360001036127,新規,0,2025-12-12,2025-12-12,株式会社ケンチャンストアー,,株式会社,沖縄県,島尻郡南大東村,字在所１４２番地２,,47,357,9013805,,,,,,,2025-12-12,1,,,,,ケンチャンストアー,0
1423,5430001095784,新規,0,2025-12-12,2025-12-12,Ｉ・Ｍエンジ株式会社,,株式会社,北海道,小樽市,銭函３丁目５１４番地１２,,01,203,0470261,,,,,,,2025-12-12,1,,,,,アイエムエンジ,0
1425,5430001095842,新規,0,2025-12-12,2025-12-12,株式会社ＫＳＲ,,株式会社,北海道,苫小牧市,本町１丁目４番１号,,01,213,0530025,,,,,,,2025-12-12,1,,,,,ケーエスアール,0
1426,5430001095850,新規,0,2025-12-12,2025-12-12,株式会社Ｅｌｍ　Ｆｌｅｕｒ,,株式会社,北海道,江別市,野幌松並町２６番地の６,,01,217,0690814,,,,,,,2025-12-12,1,,,,,エルムフルール,0
1427,5430001095859,新規,0,2025-12-12,2025-12-12,株式会社テックコタン,,株式会社,北海道,札幌市中央区,南二条西５丁目３１番地１ＲＭＢｌｄ．７０１,,01,101,0600062,,,,,,,2025-12-12,1,,,,,テックコタン,0
1428,5430001095867,新規,0,2025-12-12,2025-12-12,株式会社西尾,,株式会社,北海道,岩見沢市,三条西２丁目１１番地１第３ポルタ７０７,,01,210,0680023,,,,,,,2025-12-12,1,,,,,ニシオ,0
1433,5440001009727,新規,0,2025-12-12,2025-12-12,株式会社３Ｒ‐ＶＩＬＬＡＧＥ,,株式会社,北海道,函館市,神山町２５１番地,,01,202,0410831,,,,,,,2025-12-12,1,,,,,スリーアールビレッジ,0
1441,5700150133391,新規,0,2025-12-12,2025-12-12,京都信用金庫健康保険組合,,その他,京都府,京都市下京区,四条通柳馬場東入立売東町７番地,,26,106,6008005,,,,,,,2025-12-12,1,,,,,キョウトシンヨウキンコケンコウホケンクミアイ,0
1442,5700150133400,新規,0,2025-12-12,2025-12-12,出光興産健康保険組合,,その他,東京都,千代田区,大手町１丁目２番１号,,13,101,1000004,,,,,,,2025-12-12,1,,,,,イデミツコウサンケンコウホケンクミアイ,0
1443,5700150133417,新規,0,2025-12-12,2025-12-12,Ｎａｍｅｃｏ（Ｎｏ．１４０３）Ｌｉｍｉｔｅｄ,,外国会社等,,,,,,,,Ｏｎｅ　Ｌｉｍｅ　Ｓｔｒｅｅｔ，Ｌｏｎｄｏｎ　ＥＣ３Ｍ　７ＨＡ　ＵＫ,,,,,,2025-12-12,1,,,,,ネームコナンバーワンフオーオースリーリミテツド,0
1444,5700150133425,新規,0,2025-12-12,2025-12-12,オークマ健康保険組合,,その他,愛知県,丹羽郡大口町,下小口５丁目２５番地の１,,23,361,4800144,,,,,,,2025-12-12,1,,,,,オークマケンコウホケンクミアイ,0
1455,6010001260941,新規,0,2025-12-12,2025-12-12,株式会社Ｂｕｅｎａ　Ｖｉｓｔａ,,株式会社,東京都,中央区,日本橋室町１丁目１１番１２号日本橋水野ビル７階,,13,102,1030022,,,,,,,2025-12-12,1,,,,,,0
1456,6010001260982,新規,0,2025-12-12,2025-12-12,株式会社Ｌａｇｕｎａ,,株式会社,東京都,中央区,銀座１丁目１２番４号Ｎ＆ＥＢＬＤ．６Ｆ,,13,102,1040061,,,,,,,2025-12-12,1,,,,,ラグーナ,0
1457,6010001261114,新規,0,2025-12-12,2025-12-12,株式会社ＸｎｅＸｅｎＸ,,株式会社,東京都,中央区,銀座１丁目１２番４号Ｎ＆Ｅ－ＢＬＤ．７階,,13,102,1040061,,,,,,,2025-12-12,1,,,,,ネクセン,0
1460,6010003049689,新規,0,2025-12-12,2025-12-12,Ｅｎ　Ｂｉｏｔｈｅｒａｐｅｕｔｉｃｓ　Ｊａｐａｎ合同会社,,合同会社,東京都,中央区,日本橋堀留町１丁目９番１０号,,13,102,1030012,,,,,,,2025-12-12,1,,,,,エンバイオセラピューティクスジャパン,0
1463,6010005041066,新規,0,2025-12-12,2025-12-12,一般社団法人ＵＭＩＳＯＫＯ,,その他の設立登記法人,東京都,千代田区,九段南３丁目７番７号成和綜合会計事務所内,,13,101,1020074,,,,,,,2025-12-12,1,,,,,ウミソコ,0
1474,6010401194806,新規,0,2025-12-12,2025-12-12,ＮＥＷＯＲＫ株式会社,,株式会社,東京都,港区,赤坂４丁目１３番５号赤坂オフィスハイツ,,13,103,1070052,,,,,,,2025-12-12,1,,,,,ニュワーク,0
1475,6010401195184,新規,0,2025-12-12,2025-12-12,タイヨウキャピタル株式会社,,株式会社,東京都,港区,芝浦４丁目１９番１－３４１５号,,13,103,1080023,,,,,,,2025-12-12,1,,,,,タイヨウキャピタル,0
1480,6010601068388,新規,0,2025-12-12,2025-12-12,株式会社Ｒ＆Ｍ,,株式会社,東京都,江東区,豊洲３丁目５番３－１１１７号,,13,108,1350061,,,,,,,2025-12-12,1,,,,,アールアンドエム,0
1483,6010701048752,新規,0,2025-12-12,2025-12-12,株式会社Ｏｒａｌｉｎｋ,,株式会社,東京都,品川区,小山１丁目１番９号イニシアイオ武蔵小山２１１,,13,109,1420062,,,,,,,2025-12-12,1,,,,,オーラリンク,0
1484,6010903010477,新規,0,2025-12-12,2025-12-12,合同会社ＨＹＭ　ｐｒｏｄｕｃｅ,,合同会社,東京都,世田谷区,三軒茶屋１丁目６番４号,,13,112,1540024,,,,,,,2025-12-12,1,,,,,エイチワイエムプロデュース,0
1487,6011001174149,新規,0,2025-12-12,2025-12-12,株式会社ＮＸＴＡＩＬ,,株式会社,東京都,渋谷区,代々木２丁目２３番１－５２２号,,13,113,1510053,,,,,,,2025-12-12,1,,,,,ネクステール,0
1488,6011001174388,新規,0,2025-12-12,2025-12-12,株式会社ＴＥＴＳＵ　ＰＲＯＪＥＣＴ,,株式会社,東京都,渋谷区,恵比寿西２丁目８番４号ＥＸ恵比寿西ビル５階,,13,113,1500021,,,,,,,2025-12-12,1,,,,,テツプロジェクト,0
1490,6011003023097,新規,0,2025-12-12,2025-12-12,合同会社バブリースタイル,,合同会社,東京都,渋谷区,渋谷２丁目１９番１９号ワコー宮益坂ビル５階,,13,113,1500002,,,,,,,2025-12-12,1,,,,,バブリースタイル,0
1491,6011003023163,新規,0,2025-12-12,2025-12-12,合同会社ココアル,,合同会社,東京都,目黒区,下目黒１丁目１番１４号コノトラビル７Ｆ,,13,110,1530064,,,,,,,2025-12-12,1,,,,,ココアル,0
1494,6011101114137,新規,0,2025-12-12,2025-12-12,株式会社ＴｏｍｏＰｅｔ,,株式会社,東京都,新宿区,西新宿３丁目３番１３号西新宿水間ビル２Ｆ,,13,104,1600023,,,,,,,2025-12-12,1,,,,,トモペット,0
1495,6011101114211,新規,0,2025-12-12,2025-12-12,株式会社Ａｓｏｂｉｙａ,,株式会社,東京都,新宿区,水道町三丁目１４番神楽坂Ｎビル,,13,104,1620811,,,,,,,2025-12-12,1,,,,,アソビヤ,0
1496,6011101114269,新規,0,2025-12-12,2025-12-12,ＢＯＯＳＴＴＥＣＨ株式会社,,株式会社,東京都,新宿区,新宿３丁目３番１３号西新宿水間ビル２Ｆ,,13,104,1600022,,,,,,,2025-12-12,1,,,,,ブーストテック,0
1497,6011103016851,新規,0,2025-12-12,2025-12-12,Ｐｈｙｘｉｎｅｘ合同会社,,合同会社,東京都,新宿区,西新宿３丁目３番１３号西新宿水間ビル２Ｆ,,13,104,1600023,,,,,,,2025-12-12,1,,,,,フィクシネクス,0
1503,6011503006808,新規,0,2025-12-12,2025-12-12,合同会社あんずクリーム,,合同会社,東京都,荒川区,南千住５丁目３６番８－２０３号南千住サニーコート,,13,118,1160003,,,,,,,2025-12-12,1,,,,,アンズクリーム,0
1505,6011603004950,新規,0,2025-12-12,2025-12-12,合同会社ｐｏｌｅｐｏｌｅ,,合同会社,東京都,練馬区,南大泉５丁目３番４号,,13,120,1780064,,,,,,,2025-12-12,1,,,,,ポレポレ,0
1507,6011801047181,新規,0,2025-12-12,2025-12-12,株式会社ａｎｇｅ,,株式会社,東京都,足立区,千住仲町４５番１０号,,13,121,1200036,,,,,,,2025-12-12,1,,,,,アンジュ,0
1508,6012301014639,新規,0,2025-12-12,2025-12-12,さにーさんぽ株式会社,,株式会社,東京都,町田市,成瀬が丘２丁目１８番地１,,13,209,1940011,,,,,,,2025-12-12,1,,,,,サニーサンポ,0
1514,6013101009878,新規,0,2025-12-12,2025-12-12,ＭＩデジタル株式会社,,株式会社,東京都,福生市,大字熊川７５６番地,,13,218,1970003,,,,,,,2025-12-12,1,,,,,エムアイデジタル,0
1519,6013301055417,新規,0,2025-12-12,2025-12-12,ＩＲｉｔｈ株式会社,,株式会社,東京都,豊島区,西池袋５丁目２７番１３号信用マンション２０１,,13,116,1710021,,,,,,,2025-12-12,1,,,,,アイリス,0
1528,6020003029896,新規,0,2025-12-12,2025-12-12,Ｌｕｍｉ・Ｃｒｅａｔｅ合同会社,,合同会社,神奈川県,横浜市中区,英町１０－２マリオン横浜英町５０２,,14,104,2310052,,,,,,,2025-12-12,1,,,,,ルミクリエイト,0
1529,6020003029938,新規,0,2025-12-12,2025-12-12,合同会社バイタルラボ,,合同会社,神奈川県,川崎市麻生区,向原２丁目１６－１４,,14,137,2150007,,,,,,,2025-12-12,1,,,,,バイタルラボ,0
1530,6020003029962,新規,0,2025-12-12,2025-12-12,合同会社ＳｋｙＧｉｆｔ,,合同会社,神奈川県,川崎市多摩区,菅城下３１番５号,,14,135,2140007,,,,,,,2025-12-12,1,,,,,スカイギフト,0
1535,6021001086995,新規,0,2025-12-12,2025-12-12,株式会社佐野商店,,株式会社,神奈川県,海老名市,東柏ケ谷２丁目３０番１７号,,14,215,2430401,,,,,,,2025-12-12,1,,,,,サノショウテン,0
1536,6021001087003,新規,0,2025-12-12,2025-12-12,株式会社ＣＩＥＬ,,株式会社,神奈川県,平塚市,明石町１７番１１号松屋明石町ビル３階,,14,203,2540042,,,,,,,2025-12-12,1,,,,,シエル,0
1537,6021001087028,新規,0,2025-12-12,2025-12-12,シンデューロセラピューティクス株式会社,,株式会社,神奈川県,藤沢市,村岡東２丁目２６番地の１,,14,205,2510012,,,,,,,2025-12-12,1,,,,,シンデューロセラピューティクス,0
1553,6030001170073,新規,0,2025-12-12,2025-12-12,株式会社ＥＲＰＺ,,株式会社,埼玉県,草加市,高砂２丁目１６番地３号松井ビル２０１号室,,11,221,3400015,,,,,,,2025-12-12,1,,,,,イーアールピーゼット,0
1554,6030001170098,新規,0,2025-12-12,2025-12-12,株式会社わらお,,株式会社,埼玉県,さいたま市大宮区,桜木町２丁目３番地大宮マルイ７階,,11,103,3300854,,,,,,,2025-12-12,1,,,,,ワラオ,0
1555,6030001170115,新規,0,2025-12-12,2025-12-12,株式会社Ａｒｃｓ,,株式会社,埼玉県,越谷市,谷中町１丁目１０４－５,,11,222,3430856,,,,,,,2025-12-12,1,,,,,アルクス,0
1556,6030001170131,新規,0,2025-12-12,2025-12-12,Ｎｅｔｗｏｒｋ　Ｌｉｆｅ株式会社,,株式会社,埼玉県,川口市,芝新町４番８号ＵＲＢＡＮＦＯＲＵＭ蕨５Ｆ,,11,203,3330851,,,,,,,2025-12-12,1,,,,,ネットワークライフ,0
1571,6080101025940,新規,0,2025-12-12,2025-12-12,赤池ホールディングス株式会社,,株式会社,静岡県,富士市,厚原５０６番地の４,,22,210,4190201,,,,,,,2025-12-12,1,,,,,アカイケホールディングス,0
1572,6090001019653,新規,0,2025-12-12,2025-12-12,株式会社ＹＪアセット,,株式会社,山梨県,南アルプス市,飯野１８１０番地,,19,208,4000222,,,,,,,2025-12-12,1,,,,,ワイジェイアセット,0
1594,6120001282512,新規,0,2025-12-12,2025-12-12,新南海株式会社,,株式会社,大阪府,大阪市中央区,釣鐘町１丁目５番１－１５０２号,,27,128,5400035,,,,,,,2025-12-12,1,,,,,シンナンカイ,0
1597,6120003031446,新規,0,2025-12-12,2025-12-12,Ｃｒｙｐｔｏ　Ｗａｖｅ合同会社,,合同会社,大阪府,大阪市北区,梅田１丁目１－３大阪駅前第３ビル２９階１－１－１号室,,27,127,5300001,,,,,,,2025-12-12,1,,,,,クリプトウェーブ,0
1598,6120003031454,新規,0,2025-12-12,2025-12-12,新桃源合同会社,,合同会社,大阪府,大阪市此花区,四貫島２丁目６番９－２０２号,,27,104,5540014,,,,,,,2025-12-12,1,,,,,シントウゲン,0
1601,6120103006892,新規,0,2025-12-12,2025-12-12,ワイズコネクト合同会社,,合同会社,大阪府,河内長野市,千代田台町２番２号,,27,216,5860027,,,,,,,2025-12-12,1,,,,,ワイズコネクト,0
1618,6130003011001,新規,0,2025-12-12,2025-12-12,合同会社幸洛,,合同会社,京都府,京都市北区,衣笠赤阪町１－２８４,,26,101,6038486,,,,,,,2025-12-12,1,,,,,コウラク,0
1620,6140001141071,新規,0,2025-12-12,2025-12-12,アンド自動車株式会社,,株式会社,兵庫県,赤穂市,浜市２０４番地１２,,28,212,6780173,,,,,,,2025-12-12,1,,,,,アンドジドウシャ,0
1621,6140001141088,新規,0,2025-12-12,2025-12-12,ナカノシマエンジニアリング株式会社,,株式会社,兵庫県,尼崎市,上坂部２丁目６番１０号,,28,202,6610979,,,,,,,2025-12-12,1,,,,,ナカノシマエンジニアリング,0
1637,6180003029476,新規,0,2025-12-12,2025-12-12,合同会社Ｎｅｘｔ　ｏｎｅ,,合同会社,愛知県,愛西市,持中町郷前２６番地,,23,232,4968006,,,,,,,2025-12-12,1,,,,,ネクストワン,0
1638,6180003029484,新規,0,2025-12-12,2025-12-12,合同会社ポラリス,,合同会社,愛知県,あま市,七宝町下田江東本町２０番地３フレグランス七宝１０１,,23,237,4970012,,,,,,,2025-12-12,1,,,,,ポラリス,0
1639,6180005021332,新規,0,2025-12-12,2025-12-12,特定非営利活動法人太陽金ＪＰ,,その他の設立登記法人,愛知県,名古屋市中村区,牛田通１丁目２１番地,,23,105,4530853,,,,,,,2025-12-12,1,,,,,,0
1648,6220001027072,新規,0,2025-12-12,2025-12-12,株式会社光翔工業,,株式会社,石川県,小松市,下牧町６４番地,,17,203,9230026,,,,,,,2025-12-12,1,,,,,コウショウコウギョウ,0
1653,6230003002551,新規,0,2025-12-12,2025-12-12,合同会社ＦＵＵＲＩＮＧ,,合同会社,富山県,砺波市,高道５０番地,,16,208,9391383,,,,,,,2025-12-12,1,,,,,,0
1654,6240001065913,新規,0,2025-12-12,2025-12-12,株式会社アスピリオ,,株式会社,広島県,三次市,畠敷町４９１番地２４,,34,209,7280006,,,,,,,2025-12-12,1,,,,,アスピリオ,0
1662,6240003007517,新規,0,2025-12-12,2025-12-12,合同会社ＩＳＯＤ,,合同会社,広島県,広島市中区,羽衣町１３－１２,,34,101,7300814,,,,,,,2025-12-12,1,,,,,イソッド,0
1665,6250003003861,新規,0,2025-12-12,2025-12-12,合同会社ようと,,合同会社,山口県,萩市,大字平安古町６０３番地２,,35,204,7580074,,,,,,,2025-12-12,1,,,,,ヨウト,0
1673,6290001112487,新規,0,2025-12-12,2025-12-12,株式会社住食創建,,株式会社,福岡県,福岡市博多区,東光寺町１丁目７番１８号,,40,132,8120896,,,,,,,2025-12-12,1,,,,,ジュウショクソウケン,0
1680,6300003002387,新規,0,2025-12-12,2025-12-12,合同会社ｙｏｌ,,合同会社,佐賀県,武雄市,武雄町大字武雄７３４５番地,,41,206,8430022,,,,,,,2025-12-12,1,,,,,ヨル,0
1696,6360001036126,新規,0,2025-12-12,2025-12-12,株式会社ＬＩＮＫ,,株式会社,沖縄県,島尻郡八重瀬町,字伊覇４３７番地１６,,47,362,9010405,,,,,,,2025-12-12,1,,,,,リンク,0
1701,6400001017253,新規,0,2025-12-12,2025-12-12,株式会社Ｒ．Ｈオイカワ,,株式会社,岩手県,盛岡市,みたけ５丁目１番４３号,,03,201,0200122,,,,,,,2025-12-12,1,,,,,アールエイチオイカワ,0
1711,6460103001769,新規,0,2025-12-12,2025-12-12,合同会社ｅ‐Ｔｏｋａｃｈｉ,,合同会社,北海道,帯広市,白樺十六条東２０丁目１０番地サンライズビル２Ｆ,,01,207,0800050,,,,,,,2025-12-12,1,,,,,イートカチ,0
1713,6470001021001,新規,0,2025-12-12,2025-12-12,株式会社香川グローバルソリューション,,株式会社,香川県,高松市,亀井町７番地の１,,37,201,7600050,,,,,,,2025-12-12,1,,,,,カガワグローバルソリューション,0
1717,6700150133390,新規,0,2025-12-12,2025-12-12,東海放送健康保険組合,,その他,愛知県,名古屋市東区,東桜１丁目１４番２５号,,23,102,4610005,,,,,,,2025-12-12,1,,,,,トウカイホウソウケンコウホケンクミアイ,0
1718,6700150133399,新規,0,2025-12-12,2025-12-12,Ｕ－ＮＥＸＴ　ＨＯＬＤＩＮＧＳ健康保険組合,,その他,大阪府,大阪市中央区,高津３丁目１５番２号,,27,128,5420072,,,,,,,2025-12-12,1,,,,,ユーネクストホールディングスケンコウホケンクミアイ,0
1719,6700150133408,新規,0,2025-12-12,2025-12-12,持田製薬健康保険組合,,その他,東京都,新宿区,四谷１丁目７番地,,13,104,1600004,,,,,,,2025-12-12,1,,,,,モチダセイヤクケンコウホケンクミアイ,0
1720,6700150133416,新規,0,2025-12-12,2025-12-12,Ｎａｍｅｃｏ（Ｎｏ６３１）Ｌｉｍｉｔｅｄ,,外国会社等,,,,,,,,Ｏｎｅ　Ｌｉｍｅ　Ｓｔｒｅｅｔ，Ｌｏｎｄｏｎ　ＥＣ３Ｍ　７ＨＡ　ＵＫ,,,,,,2025-12-12,1,,,,,ネームコナンバーシツクシスリーワンリミテツド,0
1721,6700150133424,新規,0,2025-12-12,2025-12-12,山九健康保険組合,,その他,福岡県,北九州市戸畑区,大字中原先の浜４６－５１,,40,105,8040002,,,,,,,2025-12-12,1,,,,,サンキュウケンコウホケンクミアイ,0
1738,7010001260973,新規,0,2025-12-12,2025-12-12,株式会社４０４ｘ,,株式会社,東京都,中央区,銀座１丁目１２－４Ｎ＆ＥＢＬＤ．７階,,13,102,1040061,,,,,,,2025-12-12,1,,,,,ヨンマルヨンエックス,0
1739,7010001261039,新規,0,2025-12-12,2025-12-12,株式会社ＰＯＣＨＩＫＯ,,株式会社,東京都,千代田区,神田神保町３丁目１１番６号神保町ビル１０階,,13,101,1010051,,,,,,,2025-12-12,1,,,,,ポチコ,0
1740,7010001261088,新規,0,2025-12-12,2025-12-12,株式会社ナカノホールディングス,,株式会社,東京都,中央区,日本橋小伝馬町１１番９号,,13,102,1030001,,,,,,,2025-12-12,1,,,,,ナカノホールディングス,0
1741,7010001261105,新規,0,2025-12-12,2025-12-12,株式会社かみなんど,,株式会社,東京都,文京区,千駄木４丁目１１番６号,,13,105,1130022,,,,,,,2025-12-12,1,,,,,カミナンド,0
1742,7010001261179,新規,0,2025-12-12,2025-12-12,アルヴィオン株式会社,,株式会社,東京都,中央区,日本橋兜町５番１号,,13,102,1030026,,,,,,,2025-12-12,1,,,,,アルヴィオン,0
1752,7010005041057,新規,0,2025-12-12,2025-12-12,一般社団法人ｈａｍｕｎｉｔｙ,,その他の設立登記法人,東京都,文京区,根津２丁目１６番８号ＷＡＬＬ１階,,13,105,1130031,,,,,,,2025-12-12,1,,,,,ハミュニティ,0
1753,7010105002355,新規,0,2025-12-12,2025-12-12,特定非営利活動法人高尾こてんぐの会,,その他の設立登記法人,東京都,八王子市,高尾町２４３９番地,,13,201,1930844,,,,,,,2025-12-12,1,,,,,タカオコテングノカイ,0
1764,7010403036798,新規,0,2025-12-12,2025-12-12,向ヶ丘遊園合同会社,,合同会社,東京都,港区,元赤坂１丁目１番７－１２０９号,,13,103,1070051,,,,,,,2025-12-12,1,,,,,ムコウガオカユウエン,0
1773,7010601068420,新規,0,2025-12-12,2025-12-12,株式会社グローバルネットワークイノベーション,,株式会社,東京都,墨田区,江東橋４丁目２２－１０深谷ビル５－Ａ,,13,107,1300022,,,,,,,2025-12-12,1,,,,,グローバルネットワークイノベーション,0
1779,7010801036854,新規,0,2025-12-12,2025-12-12,株式会社ゆうぐれや,,株式会社,東京都,大田区,新蒲田１丁目２０番６－５０２号,,13,111,1440054,,,,,,,2025-12-12,1,,,,,ユウグレヤ,0
1780,7010901058583,新規,0,2025-12-12,2025-12-12,Ｔｅｍｐｅｓｔａ株式会社,,株式会社,東京都,世田谷区,松原２丁目２番１７号,,13,112,1560043,,,,,,,2025-12-12,1,,,,,テンペスタ,0
1781,7010901058617,新規,0,2025-12-12,2025-12-12,ＣＯＲＯＳ　ＪＡＰＡＮ株式会社,,株式会社,東京都,世田谷区,岡本１丁目１９－２１ＬＯＧＧＩＡ２０４号室,,13,112,1570076,,,,,,,2025-12-12,1,,,,,カロスジャパン,0
1782,7010903010492,新規,0,2025-12-12,2025-12-12,合同会社Ｂｕｄｄｙ,,合同会社,東京都,世田谷区,経堂４丁目３２番５号メゾンドベルナ経堂１Ｆ,,13,112,1560052,,,,,,,2025-12-12,1,,,,,バディ,0
1794,7011001173736,新規,0,2025-12-12,2025-12-12,Ｃｏｒｅｖａｎｃｅ　Ｇｒｏｕｐ株式会社,,株式会社,東京都,渋谷区,恵比寿１丁目２１番２－４０５号,,13,113,1500013,,,,,,,2025-12-12,1,,,,,コアバンスグループ,0
1795,7011001174206,新規,0,2025-12-12,2025-12-12,株式会社ｍｐｋ,,株式会社,東京都,渋谷区,神宮前１丁目１７－５原宿シュロス４階ブース番号４３０号,,13,113,1500001,,,,,,,2025-12-12,1,,,,,エムピーケー,0
1796,7011001174239,新規,0,2025-12-12,2025-12-12,株式会社Ｔ．Ｏ．Ｐ．,,株式会社,東京都,渋谷区,道玄坂１丁目１５－３－プリメーラ道玄坂７０９,,13,113,1500043,,,,,,,2025-12-12,1,,,,,トップ,0
1800,7011101114094,新規,0,2025-12-12,2025-12-12,株式会社インクルード,,株式会社,東京都,新宿区,西新宿３丁目３番１３号西新宿水間ビル２Ｆ,,13,104,1600023,,,,,,,2025-12-12,1,,,,,インクルード,0
1801,7011101114268,新規,0,2025-12-12,2025-12-12,株式会社ヴェルディア,,株式会社,東京都,新宿区,若松町６－１１プライマル新宿区若松町１２０４号室,,13,104,1620056,,,,,,,2025-12-12,1,,,,,ヴェルディア,0
1805,7011201026850,新規,0,2025-12-12,2025-12-12,ＬＹ株式会社,,株式会社,東京都,中野区,若宮１丁目２０番３号,,13,114,1650033,,,,,,,2025-12-12,1,,,,,エルワイ,0
1812,7011503006807,新規,0,2025-12-12,2025-12-12,ａＩｍＳ合同会社,,合同会社,東京都,北区,岩淵町２５番２６号,,13,117,1150041,,,,,,,2025-12-12,1,,,,,エイムズ,0
1813,7011601029239,新規,0,2025-12-12,2025-12-12,株式会社久保田ＦＰ事務所,,株式会社,東京都,練馬区,栄町１８番７－７０７号,,13,120,1760006,,,,,,,2025-12-12,1,,,,,クボタエフピージムショ,0
1814,7011701028999,新規,0,2025-12-12,2025-12-12,株式会社ウェルフラット,,株式会社,東京都,江戸川区,平井６丁目１４番１０号,,13,123,1320035,,,,,,,2025-12-12,1,,,,,ウェルフラット,0
1830,7020001166253,新規,0,2025-12-12,2025-12-12,株式会社ウェブガル,,株式会社,神奈川県,横浜市西区,北幸２丁目１０－４８むつみビル３階,,14,103,2200004,,,,,,,2025-12-12,1,,,,,ウェブガル,0
1835,7020003029953,新規,0,2025-12-12,2025-12-12,合同会社コハマワークス,,合同会社,神奈川県,横浜市中区,桜木町１丁目１０１番地１クロスゲート７階,,14,104,2310062,,,,,,,2025-12-12,1,,,,,コハマワークス,0
1836,7020003029961,新規,0,2025-12-12,2025-12-12,Ｐａｗｄｏｒａｂｌｅ合同会社,,合同会社,神奈川県,川崎市中原区,中丸子１３－１７ＴＨＥＫＯＳＵＧＩＴＯＷＥＲ２６１０号,,14,133,2110012,,,,,,,2025-12-12,1,,,,,ポードーラブル,0
1837,7020005017056,新規,0,2025-12-12,2025-12-12,一般社団法人こころて神奈川,,その他の設立登記法人,神奈川県,川崎市川崎区,京町３丁目２５番１－２２１号小田公園エルハイツ,,14,131,2100848,,,,,,,2025-12-12,1,,,,,ココロテカナガワ,0
1840,7021001086994,新規,0,2025-12-12,2025-12-12,株式会社ホルクラ,,株式会社,神奈川県,海老名市,東柏ケ谷３丁目１４番４号,,14,215,2430401,,,,,,,2025-12-12,1,,,,,ホルクラ,0
1841,7021001087002,新規,0,2025-12-12,2025-12-12,株式会社ＫＲＫ,,株式会社,神奈川県,足柄下郡湯河原町,宮上１４４番地の１５,,14,384,2590314,,,,,,,2025-12-12,1,,,,,ケーアールケー,0
1842,7021001087027,新規,0,2025-12-12,2025-12-12,マーベラスジャパンロジスティクス株式会社,,株式会社,神奈川県,大和市,深見西６丁目６番２４－１１９号ライオンズマンション大和,,14,213,2420018,,,,,,,2025-12-12,1,,,,,マーベラスジャパンロジスティクス,0
1843,7021001087035,新規,0,2025-12-12,2025-12-12,株式会社ＫＵＲＡ　ＣＰＡ,,株式会社,神奈川県,厚木市,栄町１丁目１３番２１号,,14,212,2430017,,,,,,,2025-12-12,1,,,,,クラシーピーエー,0
1847,7021003016867,新規,0,2025-12-12,2025-12-12,ＭＩＩＲＯＫＯ合同会社,,合同会社,神奈川県,鎌倉市,笹目町１１番１０号,,14,204,2480015,,,,,,,2025-12-12,1,,,,,ミロコ,0
1858,7030001170064,新規,0,2025-12-12,2025-12-12,株式会社シルキューレ,,株式会社,埼玉県,さいたま市桜区,大字下大久保９７０－９－１０５,,11,106,3380825,,,,,,,2025-12-12,1,,,,,シルキューレ,0
1859,7030001170089,新規,0,2025-12-12,2025-12-12,ＪＯＢＡＩＤ　ＭＹＡＮＭＡＲ株式会社,,株式会社,埼玉県,久喜市,栗橋東５丁目２５－２,,11,232,3491103,,,,,,,2025-12-12,1,,,,,ジョブエイドミャンマー,0
1865,7040001141709,新規,0,2025-12-12,2025-12-12,株式会社ＯＳＴ,,株式会社,千葉県,船橋市,西習志野３丁目２０番９号,,12,204,2740815,,,,,,,2025-12-12,1,,,,,オーエスティー,0
1868,7040005022962,新規,0,2025-12-12,2025-12-12,一般社団法人ちば地域事業サポートネットワーク,,その他の設立登記法人,千葉県,千葉市中央区,今井２丁目１３番５号,,12,101,2600834,,,,,,,2025-12-12,1,,,,,,0
1872,7050005013738,新規,0,2025-12-12,2025-12-12,きらめき協同組合,,その他の設立登記法人,茨城県,古河市,諸川６３３番地２,,08,204,3060126,,,,,,,2025-12-12,1,,,,,キラメキ,0
1875,7070001043646,新規,0,2025-12-12,2025-12-12,株式会社ＫＯＮ堂,,株式会社,群馬県,太田市,宝町１０３番地２,,10,205,3730042,,,,,,,2025-12-12,1,,,,,,0
1876,7070005010452,新規,0,2025-12-12,2025-12-12,農事組合法人ハルナクリエイト,,その他の設立登記法人,群馬県,高崎市,上里見町４０２６番地３,,10,202,3703345,,,,,,,2025-12-12,1,,,,,ハルナクリエイト,0
1899,7120001282692,新規,0,2025-12-12,2025-12-12,株式会社アールリンク,,株式会社,大阪府,大阪市東住吉区,田辺２丁目７番１６号,,27,121,5460031,,,,,,,2025-12-12,1,,,,,アールリンク,0
1900,7120001282726,新規,0,2025-12-12,2025-12-12,株式会社Ｆｏｒｅｖｅｒ　Ｙｏｕｎｇ,,株式会社,大阪府,大阪市浪速区,桜川４丁目１４番３－９０５号,,27,111,5560022,,,,,,,2025-12-12,1,,,,,フォーエバーヤング,0
1901,7120003031445,新規,0,2025-12-12,2025-12-12,合同会社エターナルパートナー,,合同会社,大阪府,大阪市北区,西天満４丁目５－６－４Ｆ,,27,127,5300047,,,,,,,2025-12-12,1,,,,,エターナルパートナー,0
1910,7120101072952,新規,0,2025-12-12,2025-12-12,株式会社ａｍａｎｅｌｌ．,,株式会社,大阪府,堺市西区,浜寺昭和町５丁６０３番地２,,27,144,5928345,,,,,,,2025-12-12,1,,,,,アマネル,0
1912,7120901051965,新規,0,2025-12-12,2025-12-12,株式会社情報システム室,,株式会社,大阪府,高槻市,本町２番２６号,,27,207,5690074,,,,,,,2025-12-12,1,,,,,ジョウホウシステムシツ,0
1921,7140001141070,新規,0,2025-12-12,2025-12-12,Ｋ．Ｂ．ＥＳＴＡＴＥ株式会社,,株式会社,兵庫県,神戸市長田区,五位ノ池町２丁目１番１１号,,28,106,6530851,,,,,,,2025-12-12,1,,,,,ケービーエステート,0
1922,7140003022954,新規,0,2025-12-12,2025-12-12,合同会社Ａ＆Ｍ,,合同会社,兵庫県,神戸市垂水区,神陵台８丁目１番１２号３階北,,28,108,6550041,,,,,,,2025-12-12,1,,,,,エーアンドエム,0
1926,7160001027284,新規,0,2025-12-12,2025-12-12,株式会社Ｎ．ＢＡＳＥ‐ｓｔｙｌｅ,,株式会社,滋賀県,東近江市,垣見町代浄権１５９０番地,,25,213,5211221,,,,,,,2025-12-12,1,,,,,エヌベーススタイル,0
1927,7170001018910,新規,0,2025-12-12,2025-12-12,株式会社光乃里,,株式会社,和歌山県,東牟婁郡串本町,潮岬３４９４番地１,,30,428,6493502,,,,,,,2025-12-12,1,,,,,ヒカリノサト,0
1932,7180001169876,新規,0,2025-12-12,2025-12-12,ＮＰＬＷホールディングス株式会社,,株式会社,愛知県,名古屋市南区,加福本通２丁目１番地,,23,112,4570836,,,,,,,2025-12-12,1,,,,,エヌピーエルダブリューホールディングス,0
1933,7180001169884,新規,0,2025-12-12,2025-12-12,株式会社ａｌｕ,,株式会社,愛知県,名古屋市中区,丸の内３丁目２１番１９号,,23,106,4600002,,,,,,,2025-12-12,1,,,,,アル,0
1936,7180003029483,新規,0,2025-12-12,2025-12-12,合同会社アスクル,,合同会社,愛知県,名古屋市中村区,名駅４丁目２４－５第２森ビル４０１,,23,105,4500002,,,,,,,2025-12-12,1,,,,,アスクル,0
1940,7180303006843,新規,0,2025-12-12,2025-12-12,合同会社ＯＷＮ,,合同会社,愛知県,西尾市,熊味町道万１番地,,23,213,4450071,,,,,,,2025-12-12,1,,,,,,0
1946,7230001021206,新規,0,2025-12-12,2025-12-12,株式会社リバイバル,,株式会社,富山県,高岡市,木津３０７番地１,,16,202,9330857,,,,,,,2025-12-12,1,,,,,リバイバル,0
1947,7230003002550,新規,0,2025-12-12,2025-12-12,合同会社ぴゆあ,,合同会社,富山県,射水市,大江５８０番地１,,16,211,9390302,,,,,,,2025-12-12,1,,,,,ピユア,0
1948,7240001065920,新規,0,2025-12-12,2025-12-12,株式会社エストック,,株式会社,広島県,広島市東区,牛田東２丁目２番５７号,,34,102,7320063,,,,,,,2025-12-12,1,,,,,,0
1951,7240003007516,新規,0,2025-12-12,2025-12-12,合同会社ＣＯＬＬＥＴ,,合同会社,広島県,福山市,千代田町２丁目１０番３０－４号,,34,207,7200823,,,,,,,2025-12-12,1,,,,,コレット,0
1959,7290001112453,新規,0,2025-12-12,2025-12-12,株式会社辻事務所,00141857,株式会社,福岡県,福岡市城南区,鳥飼７丁目１３番７号２階,,40,136,8140103,,,,,,,2025-12-12,1,,,,,ツジジムショ,0
1963,7290003017824,新規,0,2025-12-12,2025-12-12,ＣｒｏｓｓＡＩ合同会社,,合同会社,福岡県,春日市,原町１丁目１０７－１,,40,218,8160804,,,,,,,2025-12-12,1,,,,,クロスエーアイ,0
1964,7290801032099,新規,0,2025-12-12,2025-12-12,株式会社アルコ設計一級建築士事務所,,株式会社,福岡県,北九州市小倉北区,古船場町２番２８号,,40,106,8020082,,,,,,,2025-12-12,1,,,,,アルコセッケイイッキュウケンチクシジムショ,0
1972,7300005007284,新規,0,2025-12-12,2025-12-12,医療法人さとクリ,,その他の設立登記法人,佐賀県,佐賀市,川副町大字南里３７２番地１,,41,201,8402205,,,,,,,2025-12-12,1,,,,,サトクリ,0
1978,7330001033827,新規,0,2025-12-12,2025-12-12,Ｌｏｃａｌ　Ｆｏｒｃｅ　Ｈｏｌｄｉｎｇｓ株式会社,,株式会社,熊本県,熊本市東区,御領６丁目５番２３号,,43,102,8618035,,,,,,,2025-12-12,1,,,,,ローカルフォースホールディングス,0
1995,7400001017252,新規,0,2025-12-12,2025-12-12,株式会社ｅｎｚｉｍａ,,株式会社,岩手県,奥州市,水沢台町１番１５号,,03,215,0230825,,,,,,,2025-12-12,1,,,,,エンジーマ,0
2009,7470001021017,新規,0,2025-12-12,2025-12-12,株式会社ＴｏＮｅｘｔ,,株式会社,香川県,綾歌郡宇多津町,浜九番丁１４２番地５,,37,386,7690209,,,,,,,2025-12-12,1,,,,,トゥーネクスト,0
2012,7700150133398,新規,0,2025-12-12,2025-12-12,なとり健康保険組合,,その他,東京都,北区,豊島８丁目３－３,,13,117,1140003,,,,,,,2025-12-12,1,,,,,ナトリケンコウホケンクミアイ,0
2013,7700150133407,新規,0,2025-12-12,2025-12-12,プラチナ萬年筆健康保険組合,,その他,東京都,台東区,東上野２丁目５番１０号,,13,106,1100015,,,,,,,2025-12-12,1,,,,,プラチナマンネンヒツケンコウホケンクミアイ,0
2014,7700150133415,新規,0,2025-12-12,2025-12-12,Ｎａｍｅｃｏ（Ｎｏ１４０６）Ｌｉｍｉｔｅｄ,,外国会社等,,,,,,,,Ｏｎｅ　Ｌｉｍｅ　Ｓｔｒｅｅｔ，Ｌｏｎｄｏｎ　ＥＣ３Ｍ　７ＨＡ　ＵＫ,,,,,,2025-12-12,1,,,,,ネームコナンバーワンフオーオーシツクスリミテツド,0
2015,7700150133423,新規,0,2025-12-12,2025-12-12,小倉記念病院健康保険組合,,その他,福岡県,北九州市小倉北区,浅野３丁目２番１号,,40,106,8020001,,,,,,,2025-12-12,1,,,,,コクラキネンビョウインケンコウホケンクミアイ,0
2016,7700150133431,新規,0,2025-12-12,2025-12-12,ソルコム健康保険組合,,その他,広島県,広島市中区,南千田東町２－３２,,34,101,7300054,,,,,,,2025-12-12,1,,,,,ソルコムケンコウホケンクミアイ,0
2025,8010001260840,新規,0,2025-12-12,2025-12-12,株式会社ＬＣ‐ＭＩＲＩＳＥ,,株式会社,東京都,中央区,銀座７丁目１３番６号サガミビル２階,,13,102,1040061,,,,,,,2025-12-12,1,,,,,エルシーミライズ,0
2026,8010001261145,新規,0,2025-12-12,2025-12-12,株式会社いなほ,,株式会社,東京都,千代田区,神田須田町２丁目１３番地１ノルン秋葉原ビル１階,,13,101,1010041,,,,,,,2025-12-12,1,,,,,イナホ,0
2027,8010003049670,新規,0,2025-12-12,2025-12-12,大平アドバイザリー合同会社,,合同会社,東京都,文京区,本郷１丁目２８番３号プラウド本郷壱岐坂４０４,,13,105,1130033,,,,,,,2025-12-12,1,,,,,オオヒラアドバイザリー,0
2028,8010003049712,新規,0,2025-12-12,2025-12-12,シェアエナ企画合同会社,,合同会社,東京都,中央区,銀座５丁目１５－１ＳＰ８７３,,13,102,1040061,,,,,,,2025-12-12,1,,,,,シェアエナキカク,0
2029,8010005041015,新規,0,2025-12-12,2025-12-12,一般社団法人社会共生推進機構,,その他の設立登記法人,東京都,文京区,湯島２丁目２５番７号ＩＴＰ本郷ビル６Ｆ,,13,105,1130034,,,,,,,2025-12-12,1,,,,,シャカイキョウセイスイシンキコウ,0
2055,8010801036878,新規,0,2025-12-12,2025-12-12,株式会社Ｌａ　Ｍｉｓｔｉｃａ,,株式会社,東京都,大田区,池上６丁目３２番１１号,,13,111,1460082,,,,,,,2025-12-12,1,,,,,ラミスティカ,0
2059,8010901058632,新規,0,2025-12-12,2025-12-12,株式会社ＭＭＭ,,株式会社,東京都,世田谷区,太子堂４丁目１８番１５号マガザン三軒茶屋２、３Ｆ－３,,13,112,1540004,,,,,,,2025-12-12,1,,,,,エムエムエム,0
2065,8011001174139,新規,0,2025-12-12,2025-12-12,株式会社ＲＵＮＤＯＧＲＵＮ,,株式会社,東京都,渋谷区,上原２丁目３０番１号,,13,113,1510064,,,,,,,2025-12-12,1,,,,,ランドッグラン,0
2066,8011001174155,新規,0,2025-12-12,2025-12-12,株式会社ｍａｈｏｒｏ,,株式会社,東京都,渋谷区,代々木２丁目２４－７代々木グリーンハイム５０５,,13,113,1510053,,,,,,,2025-12-12,1,,,,,マホロ,0
2067,8011001174304,新規,0,2025-12-12,2025-12-12,株式会社ＮＥＥＢ,,株式会社,東京都,渋谷区,神南１丁目２３番１４号リージャス渋谷公園通りセンター,,13,113,1500041,,,,,,,2025-12-12,1,,,,,ニーブ,0
2069,8011003023129,新規,0,2025-12-12,2025-12-12,合同会社Ｂｅｂａｓ,,合同会社,東京都,目黒区,八雲４丁目１番２号,,13,110,1520023,,,,,,,2025-12-12,1,,,,,ベバス,0
2082,8011101114275,新規,0,2025-12-12,2025-12-12,株式会社ファインド,,株式会社,東京都,新宿区,西新宿３丁目３－１３西新宿水間ビル６階,,13,104,1600023,,,,,,,2025-12-12,1,,,,,ファインド,0
2083,8011103016817,新規,0,2025-12-12,2025-12-12,合同会社Ｉｂｕ‐Ｉｂｕ,,合同会社,東京都,新宿区,西新宿３丁目３番１３号西新宿水間ビル２Ｆ,,13,104,1600023,,,,,,,2025-12-12,1,,,,,イブイブ,0
2084,8011303005801,新規,0,2025-12-12,2025-12-12,ケイアイ・マネジメント合同会社,,合同会社,東京都,杉並区,下高井戸４丁目４２番１４号,,13,115,1680073,,,,,,,2025-12-12,1,,,,,ケイアイマネジメント,0
2089,8011501032837,新規,0,2025-12-12,2025-12-12,賢隆株式会社,,株式会社,東京都,北区,西ケ原３丁目３４－３,,13,117,1140024,,,,,,,2025-12-12,1,,,,,ケンリュウ,0
2091,8011503006806,新規,0,2025-12-12,2025-12-12,ハートランド合同会社,,合同会社,東京都,北区,浮間３丁目１６－１５ホワイトローズ４０１,,13,117,1150051,,,,,,,2025-12-12,1,,,,,ハートランド,0
2095,8011701029022,新規,0,2025-12-12,2025-12-12,株式会社畠山建設,,株式会社,東京都,江戸川区,北小岩６丁目４７番２１号,,13,123,1330051,,,,,,,2025-12-12,1,,,,,ハタケヤマケンセツ,0
2102,8012401043916,新規,0,2025-12-12,2025-12-12,株式会社ＲＩＣＯＥ,,株式会社,東京都,武蔵野市,吉祥寺本町２丁目２８番１６－１０３号,,13,203,1800004,,,,,,,2025-12-12,1,,,,,リコエ,0
2117,8020001166269,新規,0,2025-12-12,2025-12-12,株式会社菊田設備,,株式会社,神奈川県,川崎市高津区,諏訪２丁目２番１２－１号,,14,134,2130004,,,,,,,2025-12-12,1,,,,,キクタセツビ,0
2121,8020003029952,新規,0,2025-12-12,2025-12-12,合同会社ＦＺＬ,,合同会社,神奈川県,横浜市鶴見区,東寺尾１丁目１番２６－３０８号,,14,101,2300077,,,,,,,2025-12-12,1,,,,,エフゼットエル,0
2122,8020003029977,新規,0,2025-12-12,2025-12-12,合同会社ＭＡＲＱＩＳ,,合同会社,神奈川県,横浜市西区,北幸２丁目１０番４８号　むつみビル３階,,14,103,2200004,,,,,,,2025-12-12,1,,,,,マーキス,0
2132,8021001086977,新規,0,2025-12-12,2025-12-12,株式会社神月,,株式会社,神奈川県,平塚市,紅谷町１２番１２号,,14,203,2540043,,,,,,,2025-12-12,1,,,,,シンゲツ,0
2133,8021001086993,新規,0,2025-12-12,2025-12-12,日進電機株式会社,,株式会社,神奈川県,相模原市南区,若松５丁目１３－１７－２,,14,153,2520334,,,,,,,2025-12-12,1,,,,,ニッシンデンキ,0
2134,8021001087018,新規,0,2025-12-12,2025-12-12,株式会社箱根ゴールデンバレー,,株式会社,神奈川県,足柄下郡箱根町,仙石原１７８－４,,14,382,2500631,,,,,,,2025-12-12,1,,,,,ハコネゴールデンバレー,0
2135,8021001087026,新規,0,2025-12-12,2025-12-12,ＳＪホールディングス株式会社,,株式会社,神奈川県,藤沢市,円行１丁目１番地４号システムジャパン株式会社内,,14,205,2520805,,,,,,,2025-12-12,1,,,,,エスジェーホールディングス,0
2136,8021001087034,新規,0,2025-12-12,2025-12-12,株式会社オリ・インターナショナル,,株式会社,神奈川県,相模原市中央区,上溝７丁目１７番２１号,,14,152,2520243,,,,,,,2025-12-12,1,,,,,オリインターナショナル,0
2139,8021003016916,新規,0,2025-12-12,2025-12-12,ｐａｔｃｈｗｏｒｋ　ｈｏｍｅ合同会社,,合同会社,神奈川県,小田原市,鴨宮１９６,,14,206,2500874,,,,,,,2025-12-12,1,,,,,パッチワークホーム,0
2160,8040001141716,新規,0,2025-12-12,2025-12-12,株式会社グリップス,,株式会社,千葉県,船橋市,習志野２丁目２－７,,12,204,2740071,,,,,,,2025-12-12,1,,,,,グリップス,0
2164,8040003029083,新規,0,2025-12-12,2025-12-12,合同会社Ｒｅ‐Ｔａｉｌ,,合同会社,千葉県,千葉市若葉区,下田町１３６９－２－２Ｆ,,12,104,2650076,,,,,,,2025-12-12,1,,,,,リテイル,0
2171,8080103003488,新規,0,2025-12-12,2025-12-12,高松合同会社,,合同会社,静岡県,伊豆の国市,戸沢４２番地の１,,22,225,4102213,,,,,,,2025-12-12,1,,,,,タカマツ,0
2189,8120001282436,新規,0,2025-12-12,2025-12-12,株式会社ザ・ホールディングス,,株式会社,大阪府,大阪市天王寺区,味原町１番１号,,27,109,5430023,,,,,,,2025-12-12,1,,,,,ザホールディングス,0
2190,8120001282659,新規,0,2025-12-12,2025-12-12,藍牧科技株式会社,,株式会社,大阪府,大阪市中央区,内本町２丁目１番１９－１２０３号室,,27,128,5400026,,,,,,,2025-12-12,1,,,,,アイマキカギ,0
2191,8120001282675,新規,0,2025-12-12,2025-12-12,株式会社Ｇａｔｏ　Ｓｈａｌｏｍ,,株式会社,大阪府,大阪市中央区,南本町２丁目１－１本町サザンビルＴＤフロア１Ｆ,,27,128,5410054,,,,,,,2025-12-12,1,,,,,ガトシャローム,0
2192,8120001282700,新規,0,2025-12-12,2025-12-12,株式会社Ｇｉｖｅｒａｇｅ,,株式会社,大阪府,大阪市中央区,東心斎橋２丁目３－１３日宝スターライトビル３階３号室,,27,128,5420083,,,,,,,2025-12-12,1,,,,,ギバレッジ,0
2193,8120001282709,新規,0,2025-12-12,2025-12-12,株式会社アールコードシステム,,株式会社,大阪府,大阪市城東区,中浜３丁目１０番６号（１０１）,,27,118,5360024,,,,,,,2025-12-12,1,,,,,アールコードシステム,0
2194,8120001282725,新規,0,2025-12-12,2025-12-12,株式会社ＦＵＫＵ,,株式会社,大阪府,大阪市福島区,吉野４丁目２５番１６号,,27,103,5530006,,,,,,,2025-12-12,1,,,,,フク,0
2196,8120003031444,新規,0,2025-12-12,2025-12-12,合同会社オーディーピー,,合同会社,大阪府,大阪市北区,梅田１丁目１番３号大阪駅前第３ビル２９階１－１－１号室,,27,127,5300001,,,,,,,2025-12-12,1,,,,,オーディーピー,0
2200,8120101072951,新規,0,2025-12-12,2025-12-12,株式会社ＬＩＶＩＡ　ＥＳＴＡＴＥ,,株式会社,大阪府,堺市中区,深井沢町３１４２番地１０２号,,27,142,5998236,,,,,,,2025-12-12,1,,,,,リヴィアエステート,0
2202,8120901051956,新規,0,2025-12-12,2025-12-12,村上工業株式会社,,株式会社,大阪府,豊中市,小曽根２丁目１２番２８号,,27,203,5610813,,,,,,,2025-12-12,1,,,,,ムラカミコウギョウ,0
2206,8122001039997,新規,0,2025-12-12,2025-12-12,株式会社ダブルアール,,株式会社,大阪府,大東市,三箇５丁目６番５０号,,27,218,5740077,,,,,,,2025-12-12,1,,,,,ダブルアール,0
2208,8130001081184,新規,0,2025-12-12,2025-12-12,株式会社カコムタク,,株式会社,京都府,京都市下京区,七条通油小路東入大黒町２２７番地第２キョートビル４０２,,26,106,6008223,,,,,,,2025-12-12,1,,,,,カコムタク,0
2217,8160001027283,新規,0,2025-12-12,2025-12-12,株式会社湖音,,株式会社,滋賀県,栗東市,霊仙寺２丁目１３－１７,,25,208,5203035,,,,,,,2025-12-12,1,,,,,ミオン,0
2218,8160001027291,新規,0,2025-12-12,2025-12-12,株式会社ＬＵＣＲＩＳ,,株式会社,滋賀県,大津市,竜が丘２６－３,,25,201,5200803,,,,,,,2025-12-12,1,,,,,ラクリス,0
2220,8160005011473,新規,0,2025-12-12,2025-12-12,特定非営利活動法人星の子クラブ,,その他の設立登記法人,滋賀県,湖南市,岩根４９９番地１３９,,25,211,5203252,,,,,,,2025-12-12,1,,,,,ホシノコクラブ,0
2234,8180001169875,新規,0,2025-12-12,2025-12-12,株式会社ピカケ,,株式会社,愛知県,名古屋市天白区,焼山２丁目１２０５番地,,23,116,4680002,,,,,,,2025-12-12,1,,,,,ピカケ,0
2235,8180001169891,新規,0,2025-12-12,2025-12-12,株式会社ＥＭＡ,,株式会社,愛知県,名古屋市中区,錦２丁目１２番３２号さくらヒルズ錦プラチナムレジデンス３０７,,23,106,4600003,,,,,,,2025-12-12,1,,,,,エマ,0
2236,8180001169900,新規,0,2025-12-12,2025-12-12,株式会社ＲｅＨｅａｋ,,株式会社,愛知県,名古屋市北区,大曽根３丁目１０番７号リニアビル４Ｃ,,23,103,4620825,,,,,,,2025-12-12,1,,,,,リヘック,0
2238,8180003029482,新規,0,2025-12-12,2025-12-12,ＴＣＳ合同会社,,合同会社,愛知県,名古屋市北区,中味鋺２丁目９２７番地２メルベーユＡ棟,,23,103,4620015,,,,,,,2025-12-12,1,,,,,ティーシーエス,0
2239,8180003029499,新規,0,2025-12-12,2025-12-12,合同会社カンジンカナメ,,合同会社,愛知県,名古屋市瑞穂区,竹田町４丁目１０番地メゾン竹田１Ｆ東,,23,108,4670873,,,,,,,2025-12-12,1,,,,,カンジンカナメ,0
2247,8200001044522,新規,0,2025-12-12,2025-12-12,株式会社ＡＴＭＳ,,株式会社,岐阜県,加茂郡白川町,赤河１８６８番地１５,,21,506,5091112,,,,,,,2025-12-12,1,,,,,アトムズ,0
2248,8200002010366,新規,0,2025-12-12,2025-12-12,伊藤織物有限会社,,有限会社,岐阜県,羽島市,足近町坂井６４番地,,21,209,5016208,,,,,,,2025-12-12,1,,,,,イトウオリモノ,0
2249,8200005013829,新規,0,2025-12-12,2025-12-12,特定非営利活動法人山県郷の和,,その他の設立登記法人,岐阜県,山県市,谷合２４９６番地２,,21,215,5012321,,,,,,,2025-12-12,1,,,,,ヤマガタサトノワ,0
2256,8250001021467,新規,0,2025-12-12,2025-12-12,株式会社あまぞら,,株式会社,山口県,熊毛郡田布施町,大字波野２１９９番地１１,,35,343,7421502,,,,,,,2025-12-12,1,,,,,アマゾラ,0
2257,8250005009046,新規,0,2025-12-12,2025-12-12,特定非営利活動法人萩テレワーク協会,,その他の設立登記法人,山口県,萩市,大字堀内２９０番地１１,,35,204,7580057,,,,,,,2025-12-12,1,,,,,ハギテレワークキョウカイ,0
2259,8260001040813,新規,0,2025-12-12,2025-12-12,株式会社共成レジン,,株式会社,岡山県,岡山市中区,今在家１５９番地５,,33,102,7038208,,,,,,,2025-12-12,1,,,,,キョウセイレジン,0
2260,8260003005450,新規,0,2025-12-12,2025-12-12,おおつき工房合同会社,,合同会社,岡山県,総社市,岡谷９４番地７,,33,208,7191162,,,,,,,2025-12-12,1,,,,,オオツキコウボウ,0
2265,8290001112485,新規,0,2025-12-12,2025-12-12,株式会社メディシード,,株式会社,福岡県,福岡市中央区,平尾２丁目９番８号サンハイツ平尾２０２,,40,133,8100014,,,,,,,2025-12-12,1,,,,,メディシード,0
2266,8290003017815,新規,0,2025-12-12,2025-12-12,合同会社真建工業,,合同会社,福岡県,福岡市早良区,加茂三丁目１番１７－３１７号,,40,137,8140000,,,,,,,2025-12-12,1,,,,,シンケンコウギョウ,0
2268,8290005019900,新規,0,2025-12-12,2025-12-12,一般社団法人国際睡眠環境研究会,,その他の設立登記法人,福岡県,福岡市博多区,奈良屋町５－２３,,40,132,8120023,,,,,,,2025-12-12,1,,,,,コクサイスイミンカンキョウケンキュウカイ,0
2269,8300001014440,新規,0,2025-12-12,2025-12-12,株式会社アグリバリュー,,株式会社,佐賀県,神埼市,千代田町直鳥６１６番地,,41,210,8420053,,,,,,,2025-12-12,1,,,,,アグリバリュー,0
2274,8330001033826,新規,0,2025-12-12,2025-12-12,株式会社森永型枠,,株式会社,熊本県,八代市,松崎町１６３番地１５,,43,202,8660884,,,,,,,2025-12-12,1,,,,,モリナガカタワク,0
2284,8360001036124,新規,0,2025-12-12,2025-12-12,株式会社エス・アイ・シー,,株式会社,沖縄県,糸満市,字新垣１２番地２,,47,210,9010323,,,,,,,2025-12-12,1,,,,,エスアイシー,0
2285,8360003015464,新規,0,2025-12-12,2025-12-12,合同会社ｂｅ　Ｏｎｅ,,合同会社,沖縄県,那覇市,小禄１丁目１７番１２－１０７号高良ハイツ,,47,201,9010152,,,,,,,2025-12-12,1,,,,,ビーワン,0
2286,8360003015472,新規,0,2025-12-12,2025-12-12,合同会社ｏｆｆｉｃｅ　ｆｕｇａｋｕ,,合同会社,沖縄県,那覇市,牧志２丁目１７―２７―４０１,,47,201,9000013,,,,,,,2025-12-12,1,,,,,オフィスフガク,0
2289,8370001053309,新規,0,2025-12-12,2025-12-12,三友クリエイト株式会社,,株式会社,宮城県,仙台市若林区,中倉２丁目１１番３－４０３号,,04,103,9840821,,,,,,,2025-12-12,1,,,,,サンユウクリエイト,0
2308,8430001095856,新規,0,2025-12-12,2025-12-12,ジャパンシニアサポートコーポレーション株式会社,,株式会社,北海道,札幌市白石区,南郷通８丁目南３番２９号,,01,104,0030022,,,,,,,2025-12-12,1,,,,,ジャパンシニアサポートコーポレーション,0
2309,8430001095864,新規,0,2025-12-12,2025-12-12,成美株式会社,,株式会社,北海道,札幌市南区,北ノ沢１８４２番地１２９,,01,106,0050832,,,,,,,2025-12-12,1,,,,,ナルミ,0
2313,8460101007790,新規,0,2025-12-12,2025-12-12,株式会社ＴＯＫＡＣＨＩ　ＢＡＳＥ,,株式会社,北海道,帯広市,西二条南１１丁目２－２猫天ビル１階,,01,207,0800012,,,,,,,2025-12-12,1,,,,,トカチベース,0
2316,8700150133397,新規,0,2025-12-12,2025-12-12,ｓｈｅｎｚｈｅｎｓｈｉｋａｉｓｉｎｉｕｄｉａｎｚｉｓｈａｎｇｗｕｙｏｕｘｉａｎｇｏｎｇｓｉ,,外国会社等,,,,,,,,ｓｈｅｎｚｈｅｎｓｈｉ　ｌｏｎｇｇａｎｇｑｕ　ｎａｎｗａｎｊｉｅｄａｏ　ｎａｎｌｉｎｇｃｕｎｓｈｅｑｕ　ｈｕａｎｇｊｉｎｎａｎｌｕ９５ｈａｏ　ｈｕａｎｇｊｉｎｈａｏｔｉｎｇ５ｄｏｎｇ２００８　５１８０００　ＣＮ,,,,,,2025-12-12,1,,,,,シンセンシカイシニュウデンシショウムヨウシエンゴンスー,0
2317,8700150133406,新規,0,2025-12-12,2025-12-12,近畿日本鉄道健康保険組合,,その他,大阪府,大阪市天王寺区,上本町６丁目１番５５号,,27,109,5430001,,,,,,,2025-12-12,1,,,,,キンキニッポンテツドウケンコウホケンクミアイ,0
2318,8700150133414,新規,0,2025-12-12,2025-12-12,Ｎａｍｅｃｏ（Ｎｏ．１４０４）Ｌｉｍｉｔｅｄ,,外国会社等,,,,,,,,Ｏｎｅ　Ｌｉｍｅ　Ｓｔｒｅｅｔ，Ｌｏｎｄｏｎ　ＥＣ３Ｍ　７ＨＡ　ＵＫ,,,,,,2025-12-12,1,,,,,ネームコナンバーワンフオーオーフオーリミテツド,0
2319,8700150133422,新規,0,2025-12-12,2025-12-12,アルプス電気健康保険組合,,その他,東京都,大田区,雪谷大塚町１番７号,,13,111,1450067,,,,,,,2025-12-12,1,,,,,アルプスデンキケンコウホケンクミアイ,0
2320,8700150133430,新規,0,2025-12-12,2025-12-12,東海マツダ販売健康保険組合,,その他,愛知県,名古屋市瑞穂区,二野町３番１８号,,23,108,4670861,,,,,,,2025-12-12,1,,,,,トウカイマツダハンバイケンコウホケンクミアイ,0
2339,9010001259329,新規,0,2025-12-12,2025-12-12,株式会社ＭＣＳ,,株式会社,東京都,千代田区,神田須田町１丁目７番８号ＶＯＲＴ秋葉原ＩＶ２Ｆ,,13,101,1010041,,,,,,,2025-12-12,1,,,,,エムシーエス,0
2340,9010001260939,新規,0,2025-12-12,2025-12-12,株式会社ＦａｂｒｉＡＩ,,株式会社,東京都,中央区,晴海４丁目７－４ＣＲＯＳＳＤＯＣＫＨＡＲＵＭＩ１Ｆ,,13,102,1040053,,,,,,,2025-12-12,1,,,,,,0
2341,9010001260963,新規,0,2025-12-12,2025-12-12,ＡｄＲｅｅ株式会社,,株式会社,東京都,千代田区,神田多町２丁目１－２３神田東山ビル７Ｆ・８Ｆ,,13,101,1010046,,,,,,,2025-12-12,1,,,,,アドリー,0
2342,9010001260971,新規,0,2025-12-12,2025-12-12,株式会社エニア・テック,,株式会社,東京都,千代田区,神田鍛冶町３丁目８－６第一古川ビル４Ａ,,13,101,1010045,,,,,,,2025-12-12,1,,,,,,0
2343,9010001261111,新規,0,2025-12-12,2025-12-12,株式会社ＮＥＥＤＳ,,株式会社,東京都,中央区,日本橋３丁目４番１号,,13,102,1030027,,,,,,,2025-12-12,1,,,,,ニーズ,0
2345,9010003049661,新規,0,2025-12-12,2025-12-12,ＪＬＰ１ＭＬ合同会社,,合同会社,東京都,千代田区,霞が関３丁目２番５号,,13,101,1000013,,,,,,,2025-12-12,1,,,,,ジェイエルピーワンエムエル,0
2351,9010401194778,新規,0,2025-12-12,2025-12-12,ＳＤＢホールディングス株式会社,,株式会社,東京都,港区,海岸１丁目９番１号,,13,103,1050022,,,,,,,2025-12-12,1,,,,,エスディービーホールディングス,0
2360,9010601068419,新規,0,2025-12-12,2025-12-12,Ｐｌｅｎｉｖｅｒａ株式会社,,株式会社,東京都,江東区,南砂２丁目５番１４号ｇｏｏｄｏｆｆｉｃｅ東陽町,,13,108,1360076,,,,,,,2025-12-12,1,,,,,プレニヴェラ,0
2361,9010601068427,新規,0,2025-12-12,2025-12-12,株式会社ｓｈｉｏ源,,株式会社,東京都,墨田区,東向島２丁目４４番３号,,13,107,1310032,,,,,,,2025-12-12,1,,,,,シオゲン,0
2362,9010603011962,新規,0,2025-12-12,2025-12-12,合同会社ＴＭＲアセット,,合同会社,東京都,江東区,豊洲３丁目５番３号３０２,,13,108,1350061,,,,,,,2025-12-12,1,,,,,ティーエムアールアセット,0
2364,9010705003833,新規,0,2025-12-12,2025-12-12,一般社団法人そだち・からだ・あそびラボ,,その他の設立登記法人,東京都,品川区,八潮５丁目４番２１－３０５号,,13,109,1400003,,,,,,,2025-12-12,1,,,,,ソダチカラダアソビラボ,0
2366,9010801036877,新規,0,2025-12-12,2025-12-12,株式会社ＬＵＭＩＮＡ,,株式会社,東京都,大田区,池上６丁目３２番１１号,,13,111,1460082,,,,,,,2025-12-12,1,,,,,ルミナ,0
2367,9010803005640,新規,0,2025-12-12,2025-12-12,Ｅｖｅｒｃｒｅｓｔ　Ｃａｐｉｔａｌ合同会社,,合同会社,東京都,大田区,上池台３丁目１１番１３号,,13,111,1450064,,,,,,,2025-12-12,1,,,,,エバークレストキャピタル,0
2368,9010901058631,新規,0,2025-12-12,2025-12-12,株式会社ＩＫＥＪＩＲＩＢＡＳＥ,,株式会社,東京都,世田谷区,池尻４丁目２５番３号,,13,112,1540001,,,,,,,2025-12-12,1,,,,,イケジリベース,0
2373,9011001174195,新規,0,2025-12-12,2025-12-12,株式会社３７ｄｅｇｒｅｅｓ,,株式会社,東京都,渋谷区,道玄坂１丁目１０番８号渋谷道玄坂東急ビル２Ｆ－Ｃ,,13,113,1500043,,,,,,,2025-12-12,1,,,,,サーティーセブンディグリーズ,0
2374,9011001174328,新規,0,2025-12-12,2025-12-12,株式会社Ａ２Ｚ,,株式会社,東京都,渋谷区,広尾１丁目６番１０号Ｇｉｒａｆｆａ１１階,,13,113,1500012,,,,,,,2025-12-12,1,,,,,エートゥーゼット,0
2375,9011001174443,新規,0,2025-12-12,2025-12-12,ＶｅｒｉｔａｓＣｈａｉｎ株式会社,,株式会社,東京都,渋谷区,恵比寿西２丁目４―８,,13,113,1500021,,,,,,,2025-12-12,1,,,,,ヴェリタスチェーン,0
2377,9011003023086,新規,0,2025-12-12,2025-12-12,千束開発合同会社,,合同会社,東京都,目黒区,南１丁目１８番５号フラット洗足１０２,,13,110,1520013,,,,,,,2025-12-12,1,,,,,センゾクカイハツ,0
2389,9011503006805,新規,0,2025-12-12,2025-12-12,スカルＡＩ合同会社,,合同会社,東京都,北区,西ケ原２丁目３９－１２－３０１,,13,117,1140024,,,,,,,2025-12-12,1,,,,,スカルアイ,0
2421,9020001166276,新規,0,2025-12-12,2025-12-12,株式会社ＬＥＡＤＥＮ,,株式会社,神奈川県,横浜市鶴見区,岸谷１丁目１０番１９号,,14,101,2300078,,,,,,,2025-12-12,1,,,,,リーデン,0
2425,9020003029927,新規,0,2025-12-12,2025-12-12,ＤｕｂＷｏｒｋｓ合同会社,,合同会社,神奈川県,横浜市中区,元町４丁目１６８,,14,104,2310861,,,,,,,2025-12-12,1,,,,,ダブワークス,0
2426,9020003029951,新規,0,2025-12-12,2025-12-12,合同会社ＭｙＳｔｙｌｅ　Ｆａｃｔｏｒｙ,,合同会社,神奈川県,横浜市西区,浅間町１丁目４番３号ウィザードビル４０２,,14,103,2200072,,,,,,,2025-12-12,1,,,,,マイスタイルファクトリー,0
2427,9020003029968,新規,0,2025-12-12,2025-12-12,合同会社ＮＥＸＵＳ　ＥＤＵＣＡＴＩＯＮ,,合同会社,神奈川県,横浜市緑区,白山４丁目６８番地２号,,14,113,2260006,,,,,,,2025-12-12,1,,,,,ネクサスエデュケーション,0
2431,9020005017079,新規,0,2025-12-12,2025-12-12,医療法人社団咲心会,,その他の設立登記法人,神奈川県,川崎市高津区,溝口３丁目７番１１号高津駅前Ｊ’ｓビル４階,,14,134,2130001,,,,,,,2025-12-12,1,,,,,サクシンカイ,0
2432,9021001086968,新規,0,2025-12-12,2025-12-12,株式会社ランブリング,,株式会社,神奈川県,相模原市南区,西大沼１丁目１番６－１０２号,,14,153,2520332,,,,,,,2025-12-12,1,,,,,ランブリング,0
2433,9021001087017,新規,0,2025-12-12,2025-12-12,株式会社Ｙ・ＩＧＡＹＡ企画,,株式会社,神奈川県,厚木市,飯山南２丁目１４番１０号,,14,212,2430218,,,,,,,2025-12-12,1,,,,,ワイイガヤキカク,0
2434,9021001087025,新規,0,2025-12-12,2025-12-12,株式会社誠鋼業,,株式会社,神奈川県,相模原市中央区,緑が丘１丁目３４番１３号,,14,152,2520225,,,,,,,2025-12-12,1,,,,,マコトコウギョウ,0
2436,9030001170062,新規,0,2025-12-12,2025-12-12,さくらアセット株式会社,,株式会社,埼玉県,さいたま市浦和区,東高砂町９番１９－９０５号,,11,107,3300055,,,,,,,2025-12-12,1,,,,,サクラアセット,0
2437,9030001170070,新規,0,2025-12-12,2025-12-12,株式会社Ｃａｌｉｃｏ,,株式会社,埼玉県,さいたま市見沼区,大字東新井４７番地１,,11,104,3370032,,,,,,,2025-12-12,1,,,,,キャリコ,0
2438,9030001170079,新規,0,2025-12-12,2025-12-12,艾康株式会社,,株式会社,埼玉県,越谷市,レイクタウン７丁目２４番地１、３３２号,,11,222,3430828,,,,,,,2025-12-12,1,,,,,アイコウ,0
2439,9030001170104,新規,0,2025-12-12,2025-12-12,株式会社ＧＮＡＳＴＹ,,株式会社,埼玉県,さいたま市大宮区,桜木町２丁目７番地６スミダビル５階,,11,103,3300854,,,,,,,2025-12-12,1,,,,,グナスティ,0
2440,9030001170137,新規,0,2025-12-12,2025-12-12,スプラッシュ株式会社,,株式会社,埼玉県,八潮市,大字垳１１６番地２,,11,234,3400824,,,,,,,2025-12-12,1,,,,,スプラッシュ,0
2445,9030003028250,新規,0,2025-12-12,2025-12-12,合同会社ＭＩＮＴ,,合同会社,埼玉県,川越市,大字扇河岸７０番地２２,,11,201,3501134,,,,,,,2025-12-12,1,,,,,ミント,0
2449,9040003029116,新規,0,2025-12-12,2025-12-12,合同会社ワールドドラフト,,合同会社,千葉県,千葉市美浜区,幕張西１丁目１９番２－２号,,12,106,2610026,,,,,,,2025-12-12,1,,,,,ワールドドラフト,0
2450,9040003029132,新規,0,2025-12-12,2025-12-12,陽和合同会社,,合同会社,千葉県,千葉市美浜区,若葉３丁目１番地１１幕張ベイパークミッドスクエアタワー７０１号,,12,106,2610014,,,,,,,2025-12-12,1,,,,,ヨウワ,0
2453,9050001057670,新規,0,2025-12-12,2025-12-12,株式会社ピコ,,株式会社,茨城県,土浦市,西根南３丁目１番１２号,,08,203,3000842,,,,,,,2025-12-12,1,,,,,ピコ,0
2470,9080101025954,新規,0,2025-12-12,2025-12-12,株式会社勝又商店,,株式会社,静岡県,富士市,原田９０９番地の６,,22,210,4170852,,,,,,,2025-12-12,1,,,,,カツマタショウテン,0
2490,9120001282674,新規,0,2025-12-12,2025-12-12,大勝家株式会社,,株式会社,大阪府,大阪市住吉区,遠里小野１丁目４－２６カンサイドリームハイツ５０３号室,,27,120,5580032,,,,,,,2025-12-12,1,,,,,ダイショウカ,0
2491,9120001282690,新規,0,2025-12-12,2025-12-12,株式会社ＳＨＡＲＥ　ＬＩＮＫ,,株式会社,大阪府,大阪市中央区,東心斎橋２丁目８番２１号日宝畳屋町会館１階１５号,,27,128,5420083,,,,,,,2025-12-12,1,,,,,シェアリンク,0
2492,9120001282716,新規,0,2025-12-12,2025-12-12,永盛株式会社,,株式会社,大阪府,大阪市東住吉区,照ケ丘矢田２丁目６番７号３５号室,,27,121,5460021,,,,,,,2025-12-12,1,,,,,エイモリ,0
2493,9120001282773,新規,0,2025-12-12,2025-12-12,株式会社ＣＳＳ‐ｍａｒｋｅｔｉｎｇ,,株式会社,大阪府,大阪市淀川区,西中島５丁目１２番８号,,27,123,5320011,,,,,,,2025-12-12,1,,,,,シーエスエスマーケティング,0
2498,9120901051848,新規,0,2025-12-12,2025-12-12,日本ホームズ株式会社,,株式会社,大阪府,箕面市,西小路２丁目８番１７号２０３,,27,220,5620003,,,,,,,2025-12-12,1,,,,,ニホンホームズ,0
2499,9120901051963,新規,0,2025-12-12,2025-12-12,株式会社濱口工業,,株式会社,大阪府,高槻市,安岡寺町５丁目１２番１３号,,27,207,5691029,,,,,,,2025-12-12,1,,,,,ハマグチコウギョウ,0
2512,9140001141069,新規,0,2025-12-12,2025-12-12,株式会社ＡＮ,,株式会社,兵庫県,芦屋市,翠ケ丘町７番７号,,28,206,6590014,,,,,,,2025-12-12,1,,,,,アン,0
2513,9140001141077,新規,0,2025-12-12,2025-12-12,株式会社継ぐ舎,,株式会社,兵庫県,豊岡市,清冷寺１１番地,,28,209,6680853,,,,,,,2025-12-12,1,,,,,ツグヤ,0
2516,9140003022960,新規,0,2025-12-12,2025-12-12,ＮＡＴＵＲＡＬ　ＣＯＳＭＥＴＩＣ　ｌａｂｏ合同会社,,合同会社,兵庫県,神戸市中央区,山本通２丁目１４番１３号,,28,110,6500003,,,,,,,2025-12-12,1,,,,,ナチュラルコスメティックラボ,0
2520,9160001027282,新規,0,2025-12-12,2025-12-12,株式会社レモンの木,,株式会社,滋賀県,彦根市,金剛寺町３１８番地８,,25,202,5220235,,,,,,,2025-12-12,1,,,,,レモンノキ,0
2535,9180001169833,新規,0,2025-12-12,2025-12-12,株式会社ｍｏＫＡ建築工房,,株式会社,愛知県,名古屋市名東区,貴船１丁目２６７番地の５,,23,115,4650058,,,,,,,2025-12-12,1,,,,,モカケンチクコウボウ,0
2536,9180001169874,新規,0,2025-12-12,2025-12-12,覚王山商事株式会社,,株式会社,愛知県,名古屋市千種区,法王町２丁目５番地の７,,23,101,4640057,,,,,,,2025-12-12,1,,,,,カクオウザンショウジ,0
2537,9180001169890,新規,0,2025-12-12,2025-12-12,ＭＴｅｃｈホールディングス株式会社,,株式会社,愛知県,名古屋市南区,堤町２丁目４８番地,,23,112,4570844,,,,,,,2025-12-12,1,,,,,エムテックホールディングス,0
2546,9180003029481,新規,0,2025-12-12,2025-12-12,合同会社エンエンＤＥねんね,,合同会社,愛知県,名古屋市中村区,名駅４丁目２４番５号第２森ビル４０１,,23,105,4500002,,,,,,,2025-12-12,1,,,,,エンエンデネンネ,0
2547,9180003029498,新規,0,2025-12-12,2025-12-12,合同会社アルコバレーノ,,合同会社,愛知県,名古屋市中村区,名駅４丁目２５－１６ウィンズ名駅５Ｆ,,23,105,4500002,,,,,,,2025-12-12,1,,,,,アルコバレーノ,0
2555,9200003007170,新規,0,2025-12-12,2025-12-12,合同会社ＹＫＳ,,合同会社,岐阜県,多治見市,幸町６丁目２６番地の１８,,21,204,5070077,,,,,,,2025-12-12,1,,,,,ワイケイエス,0
2588,9330001033833,新規,0,2025-12-12,2025-12-12,株式会社ＫＵＭＡＳＥＡ,,株式会社,熊本県,熊本市東区,戸島町２６６８番地１,,43,102,8618031,,,,,,,2025-12-12,1,,,,,クマシー,0
2596,9360001036098,新規,0,2025-12-12,2025-12-12,株式会社日献産業,,株式会社,沖縄県,浦添市,西洲２丁目４番地４,,47,208,9012123,,,,,,,2025-12-12,1,,,,,ニッケンサンギョウ,0
2597,9360001036123,新規,0,2025-12-12,2025-12-12,株式会社赤嶺重機,,株式会社,沖縄県,豊見城市,字根差部１番地５,,47,212,9010205,,,,,,,2025-12-12,1,,,,,アカミネジュウキ,0
2601,9360003015471,新規,0,2025-12-12,2025-12-12,合同会社ＨＯＮＯＲ’Ｓ,,合同会社,沖縄県,那覇市,牧志１丁目２番５号,,47,201,9000013,,,,,,,2025-12-12,1,,,,,オーナーズ,0
2603,9370001053308,新規,0,2025-12-12,2025-12-12,株式会社家土心,,株式会社,宮城県,仙台市宮城野区,元寺小路３０４番地の７,,04,102,9830865,,,,,,,2025-12-12,1,,,,,イエドコロ,0
2620,9430001095871,新規,0,2025-12-12,2025-12-12,株式会社福政,,株式会社,北海道,札幌市東区,東雁来十条４丁目３番１２号,,01,103,0070030,,,,,,,2025-12-12,1,,,,,フクマサ,0
2628,9700150133396,新規,0,2025-12-12,2025-12-12,Ｓａｎｙａ　Ｌｅｚｈｉ　Ｔｅｃｈｎｏｌｏｇｙ　Ｃｏ．，Ｌｔｄ．,,外国会社等,,,,,,,,Ｒｏｏｍ　ＳＷ７０８，７ｔｈ　Ｆｌｏｏｒ，Ｂｕｉｌｄｉｎｇ　２，Ｓａｎｙａｔａｉｐｉｎｇ　Ｆｉｎａｎｃｉａｌ　Ｉｎｄｕｓｔｒｙ　Ｐａｒｋ，Ｎｏ．１９８　Ｙｉｎｇｂｉｎ　Ｒｏａｄ，Ｊｉｙａｎｇ　Ｄｉｓｔｒｉｃｔ，Ｓａｎｙａ　Ｃｉｔｙ，Ｈａｉｎａｎ　５７２０００　ＣＮ,,,,,,2025-12-12,1,,,,,サンヤラーヂテクノロジーカンパニーリミテッド,0
2629,9700150133405,新規,0,2025-12-12,2025-12-12,日本化学工業健康保険組合,,その他,東京都,江東区,亀戸９丁目１１番１号,,13,108,1360071,,,,,,,2025-12-12,1,,,,,ニホンカガクコウギョウケンコウホケンクミアイ,0
2630,9700150133413,新規,0,2025-12-12,2025-12-12,Ｎｉｘｏｎ　４２　ＬＬＰ,,外国会社等,,,,,,,,Ｏｎｅ　Ｌｉｍｅ　Ｓｔｒｅｅｔ，Ｌｏｎｄｏｎ　ＥＣ３Ｍ　７ＨＡ　ＵＫ,,,,,,2025-12-12,1,,,,,ニクソンフオーツーエルエルピー,0
2631,9700150133421,新規,0,2025-12-12,2025-12-12,青山商事健康保険組合,,その他,広島県,福山市,王子町２丁目１４番３８号,,34,207,7210965,,,,,,,2025-12-12,1,,,,,アオヤマショウジケンコウホケンクミアイ,0
