sequenceNumber,corporateNumber,process,correct,updateDate,changeDate,name,nameImageId,kind,prefectureName,cityName,streetNumber,addressImageId,prefectureCode,cityCode,postCode,addressOutside,addressOutsideImageId,closeDate,closeCause,successorCorporateNumber,changeCause,assignmentDate,latest,enName,enPrefectureName,enCityName,enAddressOutside,furigana,hihyoji
3,1010001253124,新規,0,2025-04-03,2025-04-03,株式会社ＢＯＲＤＥＲ,,株式会社,東京都,中央区,銀座７丁目７番１５号スキャンテックビル３ＦＡ室,,13,102,1040061,,,,,,,2025-04-03,1,,,,,ボーダー,0
4,1010001253611,新規,0,2025-04-03,2025-04-03,株式会社Ｈｏｔｏｎｅ　Ｊａｐａｎ,,株式会社,東京都,文京区,湯島２丁目２番４号ＪＰーＢＡＳＥ御茶ノ水９Ｆ,,13,105,1130034,,,,,,,2025-04-03,1,,,,,ホットトーンジャパン,0
5,1010001253719,新規,0,2025-04-03,2025-04-03,株式会社日本医療ＬＬＭ研究所,,株式会社,東京都,千代田区,有楽町１丁目１番２号日比谷三井タワー１２階,,13,101,1000006,,,,,,,2025-04-03,1,,,,,ニホンイリョウエルエルエムケンキュウショ,0
6,1010001253727,新規,0,2025-04-03,2025-04-03,株式会社ＹＵＫＵＥ,,株式会社,東京都,中央区,銀座１丁目２２番１－５０８号,,13,102,1040061,,,,,,,2025-04-03,1,,,,,ユクエ,0
7,1010001253735,新規,0,2025-04-03,2025-04-03,Ｉｎｓｙｎｅｒｇｙ株式会社,,株式会社,東京都,中央区,銀座１丁目２２番１１号銀座大竹ビジデンス２Ｆ,,13,102,1040061,,,,,,,2025-04-03,1,,,,,インシナジー,0
8,1010001253743,新規,0,2025-04-03,2025-04-03,株式会社Ｒ＆Ｙ　Ｉｎｖｅｓｔｍｅｎｔ,,株式会社,東京都,千代田区,平河町２丁目１１番１０号パークウエストひらかわ２０２,,13,101,1020093,,,,,,,2025-04-03,1,,,,,アールアンドワイインベストメント,0
9,1010001253792,新規,0,2025-04-03,2025-04-03,博友インターナショナル株式会社,,株式会社,東京都,千代田区,丸の内１丁目８番３号丸の内トラストタワー本館２０階,,13,101,1000005,,,,,,,2025-04-03,1,,,,,ハクユウインターナショナル,0
10,1010001253826,新規,0,2025-04-03,2025-04-03,Ｎａｇａｓｅ　Ｆｕｔｕｒｅ　Ｉｎｖｅｓｔｍｅｎｔｓ株式会社,,株式会社,東京都,千代田区,大手町２丁目６番４号,,13,101,1000004,,,,,,,2025-04-03,1,,,,,ナガセフューチャーインベストメンツ,0
11,1010001253834,新規,0,2025-04-03,2025-04-03,中真株式会社,,株式会社,東京都,中央区,銀座１丁目２７番１０号,,13,102,1040061,,,,,,,2025-04-03,1,,,,,ナカシン,0
12,1010001253842,新規,0,2025-04-03,2025-04-03,株式会社Ｃａｒｄｉｏ,,株式会社,東京都,文京区,大塚１丁目４番１５号アトラスタワー茗荷谷６０２,,13,105,1120012,,,,,,,2025-04-03,1,,,,,カルディオ,0
13,1010003046922,新規,0,2025-04-03,2025-04-03,奄美やねでんソーラー合同会社,,合同会社,東京都,千代田区,大手町１丁目４番２号,,13,101,1000004,,,,,,,2025-04-03,1,,,,,アマミヤネデンソーラー,0
14,1010003046947,新規,0,2025-04-03,2025-04-03,合同会社ＰＦアーク,,合同会社,東京都,千代田区,平河町１丁目６番１５号シルスフィア会計事務所内,,13,101,1020093,,,,,,,2025-04-03,1,,,,,ピーエフアーク,0
15,1010003046963,新規,0,2025-04-03,2025-04-03,リンクブロード合同会社,,合同会社,東京都,中央区,八重洲２丁目１番１号ＹＡＮＭＡＲＴＯＫＹＯ１２階,,13,102,1040028,,,,,,,2025-04-03,1,,,,,リンクブロード,0
16,1010005039866,新規,0,2025-04-03,2025-04-03,一般社団法人研究営業アライアンス,,その他の設立登記法人,東京都,文京区,向丘２丁目３番１０号東大前ＨｉＲＡＫＵＧＡＴＥ,,13,105,1130023,,,,,,,2025-04-03,1,,,,,ケンキュウエイギョウアライアンス,0
28,1010405024195,新規,0,2025-04-03,2025-04-03,医療法人社団均昌会,,その他の設立登記法人,東京都,港区,三田５丁目１１番１０号サンヒルズビル７階,,13,103,1080073,,,,,,,2025-04-03,1,,,,,キンショウカイ,0
29,1010501053874,新規,0,2025-04-03,2025-04-03,株式会社今二,,株式会社,東京都,台東区,西浅草１丁目１番８－１００１号,,13,106,1110035,,,,,,,2025-04-03,1,,,,,イマジ,0
30,1010503007787,新規,0,2025-04-03,2025-04-03,合同会社ＥＫマネジメント,,合同会社,東京都,台東区,池之端１丁目４－３３－３４０３,,13,106,1100008,,,,,,,2025-04-03,1,,,,,イーケイマネジメント,0
31,1010603011466,新規,0,2025-04-03,2025-04-03,光地合同会社,,合同会社,東京都,墨田区,業平４丁目１８番１３号,,13,107,1300002,,,,,,,2025-04-03,1,,,,,コウチ,0
35,1010901057112,新規,0,2025-04-03,2025-04-03,ドゥビーアンドカンパニー株式会社,,株式会社,東京都,世田谷区,桜新町２丁目１－１４ラフィーネ桜新町３０５Ｄｏｖｉｅ＆Ｃｏ．内,,13,112,1540015,,,,,,,2025-04-03,1,,,,,ドゥビーアンドカンパニー,0
39,1011003021337,新規,0,2025-04-03,2025-04-03,ＡｉｒＴｒｕｎｋ　Ｊａｐａｎ　Ｇ合同会社,,合同会社,東京都,渋谷区,円山町３番６号Ｅ・スペースタワー,,13,113,1500044,,,,,,,2025-04-03,1,,,,,エアトランクジャパンジー,0
47,1011803006768,新規,0,2025-04-03,2025-04-03,Ｒ‐ＴＥＣ合同会社,,合同会社,東京都,葛飾区,宝町２丁目１６番１号平本荘２０２,,13,122,1240005,,,,,,,2025-04-03,1,,,,,アールテック,0
51,1012403007058,新規,0,2025-04-03,2025-04-03,合同会社Ｄｉｇ‐Ｉｔ‐Ａｌｌ,,合同会社,東京都,府中市,住吉町５丁目１０－１プラウド府中中河原１１６,,13,206,1830034,,,,,,,2025-04-03,1,,,,,ディグイットオール,0
56,1013301054068,新規,0,2025-04-03,2025-04-03,Ｃｒａｆｄｏｔ株式会社,,株式会社,東京都,豊島区,東池袋２丁目６２番８号ＢＩＧオフィスプラザ池袋１２０６,,13,116,1700013,,,,,,,2025-04-03,1,,,,,クラフドット,0
67,1020005016765,新規,0,2025-04-03,2025-04-03,一般社団法人メモリアルパーク南横浜管理事務所,,その他の設立登記法人,神奈川県,横浜市戸塚区,品濃町９２７番地,,14,110,2440801,,,,,,,2025-04-03,1,,,,,メモリアルパークミナミヨコハマカンリジムショ,0
70,1021001084847,新規,0,2025-04-03,2025-04-03,ＳＯＯＮＷＯＲＬＤＷＩＤＥ株式会社,,株式会社,神奈川県,逗子市,沼間１丁目１２－１０,,14,208,2490004,,,,,,,2025-04-03,1,,,,,スーンワールドワイド,0
74,1030001165664,新規,0,2025-04-03,2025-04-03,株式会社成樂備興業,,株式会社,埼玉県,川口市,大字木曽呂５６２番地,,11,203,3330831,,,,,,,2025-04-03,1,,,,,セイラビコウギョウ,0
75,1030001165697,新規,0,2025-04-03,2025-04-03,株式会社庭富,,株式会社,埼玉県,川口市,大字芝３８７１番地,,11,203,3330866,,,,,,,2025-04-03,1,,,,,ニワトミ,0
76,1030001165714,新規,0,2025-04-03,2025-04-03,株式会社インフィニティ,,株式会社,埼玉県,上尾市,本町３丁目７番５号,,11,219,3620014,,,,,,,2025-04-03,1,,,,,インフィニティ,0
77,1030001165788,新規,0,2025-04-03,2025-04-03,株式会社ＭＥＴＡＬ　ＳＨＯＰ,,株式会社,埼玉県,東松山市,大字上唐子１４９６番地１１,,11,212,3550077,,,,,,,2025-04-03,1,,,,,メタルショップ,0
87,1040003027234,新規,0,2025-04-03,2025-04-03,合同会社林農園,,合同会社,千葉県,旭市,神宮寺２６０３番地,,12,215,2892524,,,,,,,2025-04-03,1,,,,,ハヤシノウエン,0
93,1050003009165,新規,0,2025-04-03,2025-04-03,合同会社ＨＳＭ　ＩＮＴＥＲＮＡＴＩＯＮＡＬ,,合同会社,茨城県,坂東市,山６２０番地,,08,228,3060502,,,,,,,2025-04-03,1,,,,,エイチエスエムインターナショナル,0
94,1050005013594,新規,0,2025-04-03,2025-04-03,医療法人新葉会,,その他の設立登記法人,茨城県,東茨城郡茨城町,桜の郷１４００番地５,,08,302,3113117,,,,,,,2025-04-03,1,,,,,シンヨウカイ,0
96,1060001038066,新規,0,2025-04-03,2025-04-03,株式会社Ｔ‐ＢＥＳＴ,,株式会社,栃木県,那須塩原市,大黒町１－１,,09,213,3250046,,,,,,,2025-04-03,1,,,,,ティーベスト,0
97,1060001038074,新規,0,2025-04-03,2025-04-03,株式会社カネウ,,株式会社,栃木県,宇都宮市,日の出１丁目６番４号,,09,201,3200832,,,,,,,2025-04-03,1,,,,,カネウ,0
99,1070003005848,新規,0,2025-04-03,2025-04-03,合同会社ＳＫＴ,,合同会社,群馬県,伊勢崎市,三光町１２番１号,,10,204,3720046,,,,,,,2025-04-03,1,,,,,,0
100,1070003005856,新規,0,2025-04-03,2025-04-03,合同会社ＰＡＰＵＲＡ．,,合同会社,群馬県,渋川市,北橘町上箱田８７７番地２,,10,208,3770052,,,,,,,2025-04-03,1,,,,,パプラ,0
101,1080001026853,新規,0,2025-04-03,2025-04-03,株式会社柴切園,,株式会社,静岡県,静岡市清水区,茂畑２９４,,22,103,4240101,,,,,,,2025-04-03,1,,,,,シバキリエン,0
102,1080101025417,新規,0,2025-04-03,2025-04-03,ロルバーン株式会社,,株式会社,静岡県,沼津市,大岡３３８１番地の３,,22,203,4100022,,,,,,,2025-04-03,1,,,,,ロルバーン,0
103,1080401027831,新規,0,2025-04-03,2025-04-03,クレイズジャパン株式会社,,株式会社,静岡県,浜松市中央区,新津町９５５番地の５,,22,138,4300911,,,,,,,2025-04-03,1,,,,,クレイズジャパン,0
112,1120001274547,新規,0,2025-04-03,2025-04-03,株式会社ＢＵＲＳＴ,,株式会社,大阪府,大阪市中央区,久太郎町１丁目５－３１リアライズ堺筋本町ビル８０７号室,,27,128,5410056,,,,,,,2025-04-03,1,,,,,バースト,0
114,1120003029024,新規,0,2025-04-03,2025-04-03,合同会社エクリック,,合同会社,大阪府,大阪市中央区,南船場３丁目２番２２号おおきに南船場ビル２０５,,27,128,5420081,,,,,,,2025-04-03,1,,,,,エクリック,0
116,1120005024865,新規,0,2025-04-03,2025-04-03,一般社団法人結心,,その他の設立登記法人,大阪府,大阪市淀川区,西宮原３丁目３番２－８１５号,,27,123,5320004,,,,,,,2025-04-03,1,,,,,ユウシン,0
122,1120901050650,新規,0,2025-04-03,2025-04-03,株式会社ハイレイク,,株式会社,大阪府,吹田市,長野東２５番２１－５０３号,,27,205,5650816,,,,,,,2025-04-03,1,,,,,ハイレイク,0
123,1120901050667,新規,0,2025-04-03,2025-04-03,株式会社だんらん,,株式会社,大阪府,高槻市,南芥川町１４番２７号,,27,207,5691124,,,,,,,2025-04-03,1,,,,,,0
127,1122003003165,新規,0,2025-04-03,2025-04-03,合同会社Ｕ　ａｎｄ　Ｉ,,合同会社,大阪府,八尾市,渋川町３丁目４番８号,,27,212,5810075,,,,,,,2025-04-03,1,,,,,ユーアンドアイ,0
132,1130001079359,新規,0,2025-04-03,2025-04-03,株式会社Ｅｎｔｅｎ　Ｅｌｌｅｒ,,株式会社,京都府,京都市下京区,西洞院通五条上る八幡町５２７番地１－６０１号,,26,106,6008455,,,,,,,2025-04-03,1,,,,,エンテンエラー,0
133,1130003010338,新規,0,2025-04-03,2025-04-03,合同会社ともカフェ,,合同会社,京都府,京都市右京区,西京極南大入町５２番１号カーサパレルモ１０３,,26,108,6150883,,,,,,,2025-04-03,1,,,,,トモカフェ,0
136,1140001137982,新規,0,2025-04-03,2025-04-03,株式会社ＹＮホーム,,株式会社,兵庫県,姫路市,網干区新在家３４４番地１５,,28,201,6711234,,,,,,,2025-04-03,1,,,,,ワイエヌホーム,0
139,1140003021879,新規,0,2025-04-03,2025-04-03,ｍｏｋｏ．ｓ合同会社,,合同会社,兵庫県,姫路市,川西台１番地２２,,28,201,6712213,,,,,,,2025-04-03,1,,,,,モコズ,0
140,1150001028009,新規,0,2025-04-03,2025-04-03,株式会社Ｏｎｅ　ｆｏｒ　Ｊａｐａｎ,,株式会社,奈良県,奈良市,三条町４７５松田ビル２Ｆ,,29,201,6308244,,,,,,,2025-04-03,1,,,,,ワンフォージャパン,0
141,1150003003538,新規,0,2025-04-03,2025-04-03,合同会社Ｃｏｒｅ　Ｃｏｌｏｒ,,合同会社,奈良県,北葛城郡広陵町,大字大野３５９番地６,,29,426,6350803,,,,,,,2025-04-03,1,,,,,コアカラー,0
142,1160001026639,新規,0,2025-04-03,2025-04-03,株式会社Ｃｅｌｅｓｔｅ,,株式会社,滋賀県,大津市,南郷４丁目２６番１９号,,25,201,5200865,,,,,,,2025-04-03,1,,,,,セレステ,0
146,1180001166152,新規,0,2025-04-03,2025-04-03,株式会社ペイフォワード,,株式会社,愛知県,名古屋市中川区,高畑３丁目９７番地,,23,110,4540911,,,,,,,2025-04-03,1,,,,,ペイフォワード,0
147,1180001166210,新規,0,2025-04-03,2025-04-03,株式会社ＳＯＡＲ　ＬＡＢＯ,,株式会社,愛知県,江南市,前飛保町栄２８番地、ラグーン江南１Ａ号室,,23,217,4838341,,,,,,,2025-04-03,1,,,,,ソアラボ,0
149,1180003028251,新規,0,2025-04-03,2025-04-03,シン・プランニング合同会社,,合同会社,愛知県,名古屋市中村区,名駅１丁目１―１,,23,105,4500002,,,,,,,2025-04-03,1,,,,,シンプランニング,0
154,1190001032122,新規,0,2025-04-03,2025-04-03,株式会社ＺＥＲＯ工業,,株式会社,三重県,四日市市,下さざらい町１４番１７号サンワードＢ－２０２,,24,202,5108033,,,,,,,2025-04-03,1,,,,,ゼロコウギョウ,0
155,1190001032130,新規,0,2025-04-03,2025-04-03,長谷川土建株式会社,,株式会社,三重県,津市,白塚町４５４７番地１,,24,201,5140101,,,,,,,2025-04-03,1,,,,,ハセガワドケン,0
158,1210001020124,新規,0,2025-04-03,2025-04-03,株式会社家来,,株式会社,福井県,福井市,西谷２丁目１６０４番地,,18,201,9188023,,,,,,,2025-04-03,1,,,,,ウチクル,0
160,1220001026582,新規,0,2025-04-03,2025-04-03,株式会社クリエイト,,株式会社,石川県,鹿島郡中能登町,井田８２部２９番地,,17,407,9291721,,,,,,,2025-04-03,1,,,,,クリエイト,0
167,1240001064738,新規,0,2025-04-03,2025-04-03,株式会社ＨＡＳ,,株式会社,広島県,東広島市,西条町田口１２５番地２６,,34,212,7390036,,,,,,,2025-04-03,1,,,,,エイチエーエス,0
172,1250001021069,新規,0,2025-04-03,2025-04-03,ヨシノ企画株式会社,,株式会社,山口県,山陽小野田市,大字東高泊１６９番地１,,35,216,7560088,,,,,,,2025-04-03,1,,,,,ヨシノキカク,0
173,1250001021077,新規,0,2025-04-03,2025-04-03,株式会社中川造園,,株式会社,山口県,山口市,下小鯖４０２１番地３,,35,203,7530212,,,,,,,2025-04-03,1,,,,,ナカガワゾウエン,0
176,1260001040068,新規,0,2025-04-03,2025-04-03,株式会社マージプランニング,,株式会社,岡山県,総社市,岡谷１８７１番地,,33,208,7191162,,,,,,,2025-04-03,1,,,,,マージプランニング,0
177,1270001009178,新規,0,2025-04-03,2025-04-03,株式会社やずふれあい市場,,株式会社,鳥取県,八頭郡八頭町,宮谷２４９番地３,,31,329,6800463,,,,,,,2025-04-03,1,,,,,ヤズフレアイイチバ,0
184,1290801031404,新規,0,2025-04-03,2025-04-03,高浪自動車株式会社,00138543,株式会社,福岡県,田川郡糸田町,２１３３番地１,,40,604,8221300,,,,,,,2025-04-03,1,,,,,タカナミジドウシャ,0
192,1300005007232,新規,0,2025-04-03,2025-04-03,一般社団法人佐賀県馬主会,,その他の設立登記法人,佐賀県,鳥栖市,江島町３２５６番地２２８,,41,203,8410073,,,,,,,2025-04-03,1,,,,,サガケンバシュカイ,0
193,1310001019528,新規,0,2025-04-03,2025-04-03,ＣＶＣｏｍｐａｎｙ株式会社,,株式会社,長崎県,壱岐市,芦辺町諸吉大石触字堀ノ内６０３号,,42,210,8115316,,,,,,,2025-04-03,1,,,,,シーブイカンパニー,0
196,1340003004806,新規,0,2025-04-03,2025-04-03,ミラテクノ合同会社,,合同会社,鹿児島県,鹿児島市,新屋敷町１６番公社ビル４階４０２Ａ,,46,201,8920838,,,,,,,2025-04-03,1,,,,,ミラテクノ,0
203,1360001034984,新規,0,2025-04-03,2025-04-03,株式会社ＡＴＯＭ,,株式会社,沖縄県,那覇市,壺川１丁目７番地１,,47,201,9000025,,,,,,,2025-04-03,1,,,,,アトム,0
206,1370001052399,新規,0,2025-04-03,2025-04-03,株式会社のあのはこぶね,,株式会社,宮城県,仙台市宮城野区,燕沢東３丁目１８番８号ブラウンピール１０１,,04,102,9830822,,,,,,,2025-04-03,1,,,,,ノアノハコブネ,0
209,1390001017937,新規,0,2025-04-03,2025-04-03,スマートパワー株式会社,,株式会社,山形県,山形市,平清水１丁目１番７５号,,06,201,9902401,,,,,,,2025-04-03,1,,,,,スマートパワー,0
215,1430001094088,新規,0,2025-04-03,2025-04-03,株式会社宮ちゃん,,株式会社,北海道,札幌市中央区,南一条西２６丁目１番地１ターミナルハイツ円山３０号室,,01,101,0640801,,,,,,,2025-04-03,1,,,,,ミヤチャン,0
216,1430001094096,新規,0,2025-04-03,2025-04-03,喜助株式会社,,株式会社,北海道,岩見沢市,幌向南四条２丁目２３９番地３３,,01,210,0690374,,,,,,,2025-04-03,1,,,,,キスケ,0
217,1430003017468,新規,0,2025-04-03,2025-04-03,合同会社Ｓ不動産,,合同会社,北海道,札幌市豊平区,月寒東二条１７丁目３番４８号,,01,105,0620052,,,,,,,2025-04-03,1,,,,,エスフドウサン,0
218,1430003017476,新規,0,2025-04-03,2025-04-03,合同会社ＳＧＤ,,合同会社,北海道,札幌市豊平区,平岸六条９丁目１番６号,,01,105,0620936,,,,,,,2025-04-03,1,,,,,エスジーディー,0
222,1460103001699,新規,0,2025-04-03,2025-04-03,合同会社ジョイン十勝,,合同会社,北海道,帯広市,西十九条南３７丁目３番１号,,01,207,0800029,,,,,,,2025-04-03,1,,,,,ジョイントカチ,0
224,1470001020651,新規,0,2025-04-03,2025-04-03,株式会社近藤組,,株式会社,香川県,三豊市,財田町財田中５４６番地３,,37,208,7690402,,,,,,,2025-04-03,1,,,,,コンドウグミ,0
228,1700150129798,新規,0,2025-04-03,2025-04-03,ＳＥＲＥＮＤＩＢ　ＭＯＴＯＲＳ,,外国会社等,千葉県,山武市,森１５０７番地３０オフィス３号,,12,237,2891214,スリランカ民主社会主義共和国、キャンディ、アクラナ、ブルゴハテンナ、Ｎｏ．２９８／Ａ,,,,,,2025-04-03,1,,,,,セレンデイツプモータース,0
229,1700150129807,新規,0,2025-04-03,2025-04-03,ＧＬＯＢＡＬ　ＡＵＴＯ　ＴＲＡＤＩＮＧ,,外国会社等,神奈川県,愛甲郡清川村,煤ヶ谷４０４９番地２Ａ,,14,402,2430112,スリランカ民主社会主義共和国、キャンディ、バトゥゴダ、パリヤコトゥワ、ＮＯ．３７５Ｂ,,,,,,2025-04-03,1,,,,,グローバルオートトレーデイング,0
230,1700150129815,新規,0,2025-04-03,2025-04-03,Ｃ　Ｓｐｉｒｅ　Ｈｏｌｄｉｎｇｓ　Ｐｒｉｖａｔｅ　Ｌｉｍｉｔｅｄ,,外国会社等,埼玉県,南埼玉郡宮代町,大字和戸９８８番地,,11,442,3450836,スリランカ民主社会主義共和国、キャンディ、アクラナ、パッレウェリケティヤ、Ｎｏ．１４８／１／Ａ,,,,,,2025-04-03,1,,,,,シースパイアホールデイングスプライベートリミテツド,0
233,2010001253560,新規,0,2025-04-03,2025-04-03,能道再生株式会社,,株式会社,東京都,千代田区,神田佐久間町３丁目２８番星野ビル５１２号,,13,101,1010025,,,,,,,2025-04-03,1,,,,,ノウドウサイセイ,0
234,2010001253610,新規,0,2025-04-03,2025-04-03,ギバー株式会社,,株式会社,東京都,千代田区,麹町３丁目５番地４麹町インテリジェントビルＢ－１,,13,101,1020083,,,,,,,2025-04-03,1,,,,,ギバー,0
235,2010001253668,新規,0,2025-04-03,2025-04-03,ＪＵＬＹ　ａｎｄ　Ｐａｒｔｎｅｒｓ株式会社,,株式会社,東京都,中央区,入船２丁目３－７築地エー・アイ・ユービル５階５０８,,13,102,1040042,,,,,,,2025-04-03,1,,,,,ジュライアンドパートナーズ,0
236,2010001253742,新規,0,2025-04-03,2025-04-03,株式会社ＤＳＫ,,株式会社,東京都,中央区,佃１丁目１１番６－３５０３号,,13,102,1040051,,,,,,,2025-04-03,1,,,,,ディエスケイ,0
237,2010001253775,新規,0,2025-04-03,2025-04-03,株式会社東尾,,株式会社,東京都,千代田区,内神田１丁目１５番１６号,,13,101,1010047,,,,,,,2025-04-03,1,,,,,トオノ,0
238,2010001253800,新規,0,2025-04-03,2025-04-03,株式会社ＨＡＮＥＬＵ,,株式会社,東京都,文京区,小日向４丁目２－６プライム小石川ビル５Ｆ,,13,105,1120006,,,,,,,2025-04-03,1,,,,,ハネル,0
239,2010005039857,新規,0,2025-04-03,2025-04-03,霞ヶ関ホテルリート投資法人,,その他の設立登記法人,東京都,千代田区,霞が関３丁目２番５号,,13,101,1000013,,,,,,,2025-04-03,1,,,,,カスミガセキホテルリート,0
242,2010401189306,新規,0,2025-04-03,2025-04-03,Ｅｃｌａｔ株式会社,,株式会社,東京都,港区,港南４丁目６番３－３２０１号,,13,103,1080075,,,,,,,2025-04-03,1,,,,,エクラ,0
244,2010603011473,新規,0,2025-04-03,2025-04-03,Ｋｙｕｙｏｎ　Ｉｎｄｕｓｔｒｉｅｓ合同会社,,合同会社,東京都,江東区,新木場１丁目８番１１号－中２階,,13,108,1360082,,,,,,,2025-04-03,1,,,,,キュウヨンインダストリーズ,0
252,2010905004761,新規,0,2025-04-03,2025-04-03,一般社団法人ＪＰＨＣ,,その他の設立登記法人,東京都,世田谷区,松原３丁目４０番７号パインフィールド３０２,,13,112,1560043,,,,,,,2025-04-03,1,,,,,ジェーピーエイチシー,0
255,2011001168666,新規,0,2025-04-03,2025-04-03,Ｇｒａｃｅ　Ｌｅａｄ株式会社,,株式会社,東京都,目黒区,下目黒５丁目１１－２２ＬｉｎｇＡＣａｓａ清橋２０５,,13,110,1530064,,,,,,,2025-04-03,1,,,,,グレイスリード,0
256,2011001168716,新規,0,2025-04-03,2025-04-03,株式会社ｓｅｎｏ,,株式会社,東京都,渋谷区,宇田川町１－１２パークコート渋谷ザ・タワー１４０４,,13,113,1500042,,,,,,,2025-04-03,1,,,,,セノ,0
260,2011003021286,新規,0,2025-04-03,2025-04-03,合同会社ＵＮＦＩＬＴＥＲＥＤ,,合同会社,東京都,渋谷区,恵比寿西２丁目４番８号ウィンド恵比寿ビル８Ｆ,,13,113,1500021,,,,,,,2025-04-03,1,,,,,アンフィルタード,0
278,2011501031885,新規,0,2025-04-03,2025-04-03,株式会社飯稲米通信社,,株式会社,東京都,荒川区,荒川１丁目４番地１号,,13,118,1160002,,,,,,,2025-04-03,1,,,,,ハントウマイツウシンシャ,0
280,2011605002642,新規,0,2025-04-03,2025-04-03,一般社団法人Ｃｏもれび,,その他の設立登記法人,東京都,練馬区,早宮３丁目３１－１１,,13,120,1790085,,,,,,,2025-04-03,1,,,,,コモレビ,0
288,2012403007057,新規,0,2025-04-03,2025-04-03,合同会社アルコール・トレランス・チェックシステムズ,,合同会社,東京都,府中市,分梅町２丁目３７－４－２０６,,13,206,1830033,,,,,,,2025-04-03,1,,,,,アルコールトレランスチェックシステムズ,0
290,2012801023861,新規,0,2025-04-03,2025-04-03,ＩＲＩＥ株式会社,,株式会社,東京都,日野市,落川３４８ハイツ守屋２１０号室,,13,212,1910034,,,,,,,2025-04-03,1,,,,,アイリー,0
291,2013101009667,新規,0,2025-04-03,2025-04-03,株式会社倭電設,,株式会社,東京都,青梅市,勝沼２丁目３８０番地,,13,205,1980041,,,,,,,2025-04-03,1,,,,,ヤマトデンセツ,0
302,2020003028225,新規,0,2025-04-03,2025-04-03,ＫＤ　ｍａｇｉｃ合同会社,,合同会社,神奈川県,横浜市戸塚区,下倉田町７７２－２４,,14,110,2440815,,,,,,,2025-04-03,1,,,,,ケーディーマジック,0
303,2020005016764,新規,0,2025-04-03,2025-04-03,一般社団法人メモリアルステージ新横浜管理事務所,,その他の設立登記法人,神奈川県,横浜市緑区,鴨居町２５５１番地３,,14,113,2260004,,,,,,,2025-04-03,1,,,,,メモリアルステージシンヨコハマカンリジムショ,0
307,2021001084838,新規,0,2025-04-03,2025-04-03,ＩＱ　ＤＡＴＡ株式会社,,株式会社,神奈川県,相模原市南区,若松５丁目１３－１７－２,,14,153,2520334,,,,,,,2025-04-03,1,,,,,アイキューデータ,0
308,2021001084846,新規,0,2025-04-03,2025-04-03,ＫＯＭＯｄｅｓｉｇｎ株式会社,,株式会社,神奈川県,相模原市南区,上鶴間本町６丁目７番３９号ロアーブル・ガーデン相模大野イースト館２０８,,14,153,2520318,,,,,,,2025-04-03,1,,,,,コモデザイン,0
309,2021001084879,新規,0,2025-04-03,2025-04-03,株式会社ファイブワン工房,,株式会社,神奈川県,茅ヶ崎市,香川４丁目２６番１２号,,14,207,2530082,,,,,,,2025-04-03,1,,,,,ファイブワンコウボウ,0
311,2030001165705,新規,0,2025-04-03,2025-04-03,株式会社信喜,,株式会社,埼玉県,川越市,大字寺尾９３番地５,,11,201,3501141,,,,,,,2025-04-03,1,,,,,シンキ,0
314,2030003026467,新規,0,2025-04-03,2025-04-03,合同会社ＧＮＤＲ,,合同会社,埼玉県,さいたま市浦和区,岸町６丁目４番１－１３０２号,,11,107,3300064,,,,,,,2025-04-03,1,,,,,ジーエヌディーアール,0
315,2030005022101,新規,0,2025-04-03,2025-04-03,一般社団法人ＮＳ　Ｌｏｇｉｓｔｉｃｓ２,,その他の設立登記法人,埼玉県,熊谷市,佐谷田１６３１番地,,11,202,3600023,,,,,,,2025-04-03,1,,,,,エヌエスロジスティクスツー,0
320,2040001138115,新規,0,2025-04-03,2025-04-03,株式会社シャルル・メゾン・フォトグラファーズ,,株式会社,千葉県,柏市,あけぼの４丁目１番３号,,12,217,2770841,,,,,,,2025-04-03,1,,,,,シャルルメゾンフォトグラファーズ,0
327,2070001042801,新規,0,2025-04-03,2025-04-03,ライフビーツジャパン株式会社,,株式会社,群馬県,佐波郡玉村町,大字樋越１６３２番地４,,10,464,3701103,,,,,,,2025-04-03,1,,,,,ライフビーツジャパン,0
329,2070003005847,新規,0,2025-04-03,2025-04-03,ＯａｒｋｍｏｎｔＧｒｏｕｐ合同会社,,合同会社,群馬県,沼田市,白岩町５番地１,,10,206,3780033,,,,,,,2025-04-03,1,,,,,オークモントグループ,0
330,2070003005855,新規,0,2025-04-03,2025-04-03,合同会社あがつま堂,,合同会社,群馬県,吾妻郡高山村,大字中山６８７７－１,,10,428,3770702,,,,,,,2025-04-03,1,,,,,アガツマドウ,0
331,2080001026852,新規,0,2025-04-03,2025-04-03,ｔｒｙｓｅｌｌ株式会社,,株式会社,静岡県,静岡市清水区,七ツ新屋１丁目１４番７－６０１号,,22,103,4240066,,,,,,,2025-04-03,1,,,,,トライセル,0
332,2080003003429,新規,0,2025-04-03,2025-04-03,マルツコーム合同会社,,合同会社,静岡県,静岡市葵区,伝馬町２０番地の９,,22,101,4200858,,,,,,,2025-04-03,1,,,,,マルツコーム,0
334,2080101025424,新規,0,2025-04-03,2025-04-03,日本健康開発株式会社,,株式会社,静岡県,富士市,吉原１丁目２番１０号,,22,210,4170051,,,,,,,2025-04-03,1,,,,,,0
335,2080103003287,新規,0,2025-04-03,2025-04-03,アカーシャストライド合同会社,,合同会社,静岡県,御殿場市,柴怒田９６１番地,,22,215,4120003,,,,,,,2025-04-03,1,,,,,アカーシャストライド,0
340,2080401027830,新規,0,2025-04-03,2025-04-03,佐々木工業株式会社,,株式会社,静岡県,御前崎市,白羽２２３５番地の８,,22,223,4371622,,,,,,,2025-04-03,1,,,,,ササキコウギョウ,0
343,2100001038465,新規,0,2025-04-03,2025-04-03,株式会社峯友コーポレーション,,株式会社,長野県,長野市,大字栗田４４７番地,,20,201,3800921,,,,,,,2025-04-03,1,,,,,ホウユウコーポレーション,0
346,2100005013316,新規,0,2025-04-03,2025-04-03,医療法人ＲＤ,,その他の設立登記法人,長野県,松本市,大字岡田町４８９番地１９,,20,202,3900315,,,,,,,2025-04-03,1,,,,,アールディー,0
347,2110001039157,新規,0,2025-04-03,2025-04-03,山崎工業株式会社,00138556,株式会社,新潟県,新潟市北区,松浜７丁目１３番地１９,,15,101,9503126,,,,,,,2025-04-03,1,,,,,ヤマザキコウギョウ,0
348,2110001039165,新規,0,2025-04-03,2025-04-03,エフズデザイン新潟株式会社,,株式会社,新潟県,新潟市西区,浦山２丁目１番２６号,,15,107,9502001,,,,,,,2025-04-03,1,,,,,エフズデザインニイガタ,0
355,2120001274125,新規,0,2025-04-03,2025-04-03,株式会社栄立,,株式会社,大阪府,大阪市西成区,千本南１丁目３番１４－２０２号,,27,122,5570055,,,,,,,2025-04-03,1,,,,,エイリツ,0
356,2120001274158,新規,0,2025-04-03,2025-04-03,株式会社ＡＺ　ＫＡＴＴＥ,,株式会社,大阪府,大阪市淀川区,塚本６丁目３番３３－５２９号,,27,123,5320026,,,,,,,2025-04-03,1,,,,,アズカッテ,0
357,2120001274166,新規,0,2025-04-03,2025-04-03,コンボイ株式会社,,株式会社,大阪府,大阪市住吉区,長居２丁目１０番３－２０６号,,27,120,5580003,,,,,,,2025-04-03,1,,,,,コンボイ,0
359,2120003029015,新規,0,2025-04-03,2025-04-03,合同会社ＬＩＦＲＥＥ,,合同会社,大阪府,大阪市中央区,淡路町３丁目５番１３号創建御堂筋ビル,,27,128,5410047,,,,,,,2025-04-03,1,,,,,ライフリー,0
362,2120005024864,新規,0,2025-04-03,2025-04-03,一般社団法人日本福祉美容トータルサポート協会,,その他の設立登記法人,大阪府,門真市,脇田町３０番１２号,,27,223,5710011,,,,,,,2025-04-03,1,,,,,ニホンフクシビヨウトータルサポートキョウカイ,0
372,2130001079317,新規,0,2025-04-03,2025-04-03,株式会社Ｆｕｋｉｎｕｋｅ,,株式会社,京都府,京都市右京区,嵯峨大覚寺門前八軒町３番地２７レジウム嵯峨２０２,,26,108,6168414,,,,,,,2025-04-03,1,,,,,フキヌケ,0
373,2130001079333,新規,0,2025-04-03,2025-04-03,坂本興業株式会社,,株式会社,京都府,京都市左京区,古知平町２２８番地,,26,103,6060000,,,,,,,2025-04-03,1,,,,,サカモトコウギョウ,0
374,2130001079358,新規,0,2025-04-03,2025-04-03,株式会社ＵＮＩＴＹ工業,,株式会社,京都府,宇治市,槇島町十一１３９－１,,26,204,6110041,,,,,,,2025-04-03,1,,,,,ユニティコウギョウ,0
375,2130003010329,新規,0,2025-04-03,2025-04-03,Ｆｏｎｄｕｅ合同会社,,合同会社,京都府,京都市中京区,岩上通四条上る松浦町８６８番地,,26,104,6048362,,,,,,,2025-04-03,1,,,,,フォンドゥ,0
376,2130003010337,新規,0,2025-04-03,2025-04-03,美容予防医学協会合同会社,,合同会社,京都府,京都市下京区,仏光寺通烏丸東入上柳町３３１番地タカノハスクエア４Ｆ,,26,106,6008099,,,,,,,2025-04-03,1,,,,,ビヨウヨボウイガクキョウカイ,0
377,2130003010345,新規,0,2025-04-03,2025-04-03,合同会社カジカジ,,合同会社,京都府,宇治市,神明宮北４１番地の３７,,26,204,6110025,,,,,,,2025-04-03,1,,,,,カジカジ,0
379,2140001137940,新規,0,2025-04-03,2025-04-03,株式会社ＳＯＵＥＮホールディングス,,株式会社,兵庫県,神戸市東灘区,本山南町８丁目６番２６号,,28,101,6580015,,,,,,,2025-04-03,1,,,,,ソウエンホールディングス,0
380,2140001137981,新規,0,2025-04-03,2025-04-03,株式会社Ｅｎｄｌｅｓｓ　Ａｒｋ,,株式会社,兵庫県,豊岡市,庄境１５０番地の１８,,28,209,6680873,,,,,,,2025-04-03,1,,,,,エンドレスアーク,0
384,2140005027428,新規,0,2025-04-03,2025-04-03,医療法人社団ふじい皮膚科・アレルギー科クリニック,,その他の設立登記法人,兵庫県,神戸市垂水区,舞多聞西５丁目１－３ノアすこやかプラザ舞多聞２０４,,28,108,6550051,,,,,,,2025-04-03,1,,,,,フジイヒフカアレルギーカクリニック,0
386,2150005009680,新規,0,2025-04-03,2025-04-03,一般社団法人奈良こども支援センターＥｄｕｃａｒｅ,,その他の設立登記法人,奈良県,大和郡山市,筒井町１５９８番地,,29,203,6391123,,,,,,,2025-04-03,1,,,,,ナラコドモシエンセンターエデュケア,0
390,2180001166184,新規,0,2025-04-03,2025-04-03,株式会社ＣＯＬＯＲ,,株式会社,愛知県,名古屋市中川区,長良町５丁目１０７番地カーサグラッツィオーソ２０２号,,23,110,4540815,,,,,,,2025-04-03,1,,,,,カラー,0
391,2180001166226,新規,0,2025-04-03,2025-04-03,株式会社ＮＩＣ,,株式会社,愛知県,海部郡大治町,大字堀之内字北二反畑６３２番地の１チサンマンション新大治４０３号,,23,424,4901137,,,,,,,2025-04-03,1,,,,,エヌアイシー,0
392,2180001166242,新規,0,2025-04-03,2025-04-03,株式会社マイムマイムサポート,,株式会社,愛知県,大府市,大東町１丁目７７７番地,,23,223,4740023,,,,,,,2025-04-03,1,,,,,マイムマイムサポート,0
395,2180003028250,新規,0,2025-04-03,2025-04-03,合同会社ＴＲＵＳＴ,,合同会社,愛知県,名古屋市中村区,名駅南１丁目１１番１２号Ｋｉｎｊｉｒｏ名駅Ｍｉｎａｍｉビル１Ｆ,,23,105,4500003,,,,,,,2025-04-03,1,,,,,トラスト,0
396,2180003028259,新規,0,2025-04-03,2025-04-03,合同会社アセットゲイン,,合同会社,愛知県,名古屋市緑区,神沢２丁目８４６番地の３,,23,114,4580014,,,,,,,2025-04-03,1,,,,,アセットゲイン,0
403,2220001026598,新規,0,2025-04-03,2025-04-03,Ｃｒａｆｔ　Ｊａｐａｎ株式会社,,株式会社,石川県,金沢市,粟崎町４丁目７８番地３３　サンハイツ粟崎１０４号室,,17,201,9200226,,,,,,,2025-04-03,1,,,,,クラフトジャパン,0
410,2240001064737,新規,0,2025-04-03,2025-04-03,株式会社創,,株式会社,広島県,福山市,幕山台７丁目２７番１８号,,34,207,7210913,,,,,,,2025-04-03,1,,,,,ソウ,0
411,2240001064761,新規,0,2025-04-03,2025-04-03,フロンティアステイ株式会社,,株式会社,広島県,広島市安佐南区,大町東２丁目１４番２３号,,34,105,7310124,,,,,,,2025-04-03,1,,,,,フロンティアステイ,0
417,2280001009390,新規,0,2025-04-03,2025-04-03,すみか住宅株式会社,,株式会社,島根県,江津市,黒松町１０２５番地１２,,32,207,6992831,,,,,,,2025-04-03,1,,,,,スミカジュウタク,0
424,2290003016632,新規,0,2025-04-03,2025-04-03,合同会社ＭＵＳＡＳＨＩ,,合同会社,福岡県,久留米市,合川町１５２－４－７０６,,40,203,8390861,,,,,,,2025-04-03,1,,,,,,0
426,2290801031411,新規,0,2025-04-03,2025-04-03,カスミ測量設計株式会社,,株式会社,福岡県,遠賀郡芦屋町,山鹿３番７号,,40,381,8070141,,,,,,,2025-04-03,1,,,,,カスミソクリョウセッケイ,0
428,2300003002259,新規,0,2025-04-03,2025-04-03,ノアハピネス合同会社,,合同会社,佐賀県,鳥栖市,藤木町２４５６番地,,41,203,8410048,,,,,,,2025-04-03,1,,,,,ノアハピネス,0
429,2300005007231,新規,0,2025-04-03,2025-04-03,農事組合法人ソノリク有機農業農事組合,,その他の設立登記法人,佐賀県,鳥栖市,姫方町１６６０番地,,41,203,8410023,,,,,,,2025-04-03,1,,,,,ソノリクユウキノウギョウノウジクミアイ,0
436,2330001033014,新規,0,2025-04-03,2025-04-03,株式会社ＮＹライフプランニング,,株式会社,熊本県,熊本市中央区,水前寺４丁目３１番３１号,,43,101,8620950,,,,,,,2025-04-03,1,,,,,エヌワイライフプランニング,0
439,2340001027238,新規,0,2025-04-03,2025-04-03,株式会社アビスアップ,,株式会社,鹿児島県,鹿児島市,東千石町１８－７井上ビル４０２号室,,46,201,8920842,,,,,,,2025-04-03,1,,,,,アビスアップ,0
440,2340001027246,新規,0,2025-04-03,2025-04-03,ＥＶ鹿児島株式会社,,株式会社,鹿児島県,鹿児島市,本名町５０８番地１０,,46,201,8911304,,,,,,,2025-04-03,1,,,,,イーブイカゴシマ,0
445,2350003004894,新規,0,2025-04-03,2025-04-03,合同会社谷菱興業,,合同会社,宮崎県,延岡市,大貫町３丁目７１２番地８,,45,203,8820803,,,,,,,2025-04-03,1,,,,,タニビシコウギョウ,0
446,2350005006303,新規,0,2025-04-03,2025-04-03,医療法人ＭＫクリニック,,その他の設立登記法人,宮崎県,都城市,早鈴町１５１２番地,,45,202,8850055,,,,,,,2025-04-03,1,,,,,エムケイクリニック,0
452,2390001017936,新規,0,2025-04-03,2025-04-03,株式会社月と山,,株式会社,山形県,西村山郡西川町,大字間沢３００番地１,,06,322,9900703,,,,,,,2025-04-03,1,,,,,,0
455,2420001019078,新規,0,2025-04-03,2025-04-03,株式会社白井設備,,株式会社,青森県,青森市,佃３丁目１６番６号,,02,201,0300962,,,,,,,2025-04-03,1,,,,,シライセツビ,0
460,2430001094095,新規,0,2025-04-03,2025-04-03,札幌ミナミ工業株式会社,,株式会社,北海道,札幌市南区,南沢一条２丁目７番１４号,,01,106,0050821,,,,,,,2025-04-03,1,,,,,サッポロミナミコウギョウ,0
461,2430001094112,新規,0,2025-04-03,2025-04-03,クリエイティブ・アペクシード株式会社,,株式会社,北海道,札幌市白石区,米里四条２丁目１番地６,,01,104,0030874,,,,,,,2025-04-03,1,,,,,クリエイティブアペクシード,0
462,2430003017475,新規,0,2025-04-03,2025-04-03,合同会社アグリクリート,,合同会社,北海道,北広島市,西の里東１丁目１０番地３,,01,234,0611105,,,,,,,2025-04-03,1,,,,,アグリクリート,0
463,2430005015196,新規,0,2025-04-03,2025-04-03,特定非営利活動法人ヘルスリテラシー推進会議,,その他の設立登記法人,北海道,札幌市手稲区,稲穂四条６丁目１１番３２号,,01,109,0060034,,,,,,,2025-04-03,1,,,,,ヘルスリテラシースイシンカイギ,0
464,2430005015205,新規,0,2025-04-03,2025-04-03,特定非営利活動法人ＩＴＣさっぽろ,,その他の設立登記法人,北海道,札幌市中央区,北四条西１８丁目７番１２号レガーロ美術館通５０１号室,,01,101,0600004,,,,,,,2025-04-03,1,,,,,アイティーシーサッポロ,0
468,2500001026223,新規,0,2025-04-03,2025-04-03,株式会社水野工業,,株式会社,愛媛県,伊予郡松前町,大字西高柳３３６番地１,,38,401,7913132,,,,,,,2025-04-03,1,,,,,ミズノコウギョウ,0
469,2500005008779,新規,0,2025-04-03,2025-04-03,医療法人こみなと整形外科,,その他の設立登記法人,愛媛県,松山市,北土居３丁目１１番３２号,,38,201,7911104,,,,,,,2025-04-03,1,,,,,コミナトセイケイゲカ,0
470,2700150129789,新規,0,2025-04-03,2025-04-03,ブリストル・マイヤーズ　スクイブ健康保険組合,,その他,東京都,千代田区,紀尾井町３－６　紀尾井町パークビル,,13,101,1020094,,,,,,,2025-04-03,1,,,,,ブリストルマイヤーズスクイブケンコウホケンクミアイ,0
471,2700150129797,新規,0,2025-04-03,2025-04-03,ＭＩＬＡＮＯ　ＭＯＴＯＲＳ,,外国会社等,千葉県,山武市,小松１６９番地５Ｃ,,12,237,2891302,スリランカ民主社会主義共和国、キャンディ、ハサラカ、キャンディロード、ＮＯ．１９５,,,,,,2025-04-03,1,,,,,ミラノモータース,0
472,2700150129806,新規,0,2025-04-03,2025-04-03,ＯＲＩＥＮＴ　ＣＯＲＰＯＲＡＴＩＯＮＳ　ＰＶＴ　ＬＴＤ,,外国会社等,神奈川県,厚木市,岡田３１７１,,14,212,2430021,スリランカ民主社会主義共和国、アヌラーダプラロード、ホロウポタナ,,,,,,2025-04-03,1,,,,,オリエントコーポレーシヨンズプライベートリミテツド,0
473,2700150129814,新規,0,2025-04-03,2025-04-03,ＣＥＹＬＯＮ　ＣＡＲ　ＨＵＢ,,外国会社等,茨城県,鉾田市,梶山７５９番地１１－１Ａ,,08,234,3112104,スリランカ民主社会主義共和国、アクラナ、マタレロード、Ｎｏ．２２１／４ｅ,,,,,,2025-04-03,1,,,,,セイロンカーハブ,0
476,3010001253601,新規,0,2025-04-03,2025-04-03,株式会社アトモスフィア,,株式会社,東京都,中央区,日本橋兜町６－７兜町第７平和ビル１Ｆ,,13,102,1030026,,,,,,,2025-04-03,1,,,,,アトモスフィア,0
477,3010001253618,新規,0,2025-04-03,2025-04-03,株式会社啓桜,,株式会社,東京都,文京区,湯島４丁目１１番１６－３１２号,,13,105,1130034,,,,,,,2025-04-03,1,,,,,ケイオウ,0
478,3010001253741,新規,0,2025-04-03,2025-04-03,株式会社ＨＡＲＵＭＩ　ＴＥＣＨ,,株式会社,東京都,中央区,晴海５丁目４―５―８０３,,13,102,1040053,,,,,,,2025-04-03,1,,,,,ハルミテック,0
479,3010001253782,新規,0,2025-04-03,2025-04-03,株式会社太陽ビルサービス,,株式会社,東京都,中央区,日本橋２丁目７番１号,,13,102,1030027,,,,,,,2025-04-03,1,,,,,タイヨウビルサービス,0
480,3010001253824,新規,0,2025-04-03,2025-04-03,株式会社ＢＣＪ‐９７,,株式会社,東京都,千代田区,丸の内１丁目１番１号パレスビル５階,,13,101,1000005,,,,,,,2025-04-03,1,,,,,ビーシージェイナインティーセブン,0
487,3010401189214,新規,0,2025-04-03,2025-04-03,株式会社キャストハブ,,株式会社,東京都,港区,南青山２丁目２－１５ＷＩＮ青山５３１,,13,103,1070062,,,,,,,2025-04-03,1,,,,,キャストハブ,0
488,3010501053880,新規,0,2025-04-03,2025-04-03,ＳＰＡＤＥ株式会社,,株式会社,東京都,台東区,浅草橋４丁目１０番８号ＴＦＡビル２階,,13,106,1110053,,,,,,,2025-04-03,1,,,,,スペード,0
490,3010601067005,新規,0,2025-04-03,2025-04-03,Ｐｉｓｔｅ　Ｓ’ａｌｌｉｅｒ株式会社,,株式会社,東京都,墨田区,江東橋４丁目２９－１３第二鈴勘ビル８階８０１号室,,13,107,1300022,,,,,,,2025-04-03,1,,,,,ピストサリエ,0
491,3010601067054,新規,0,2025-04-03,2025-04-03,株式会社ＧＭＴ,,株式会社,東京都,江東区,有明３丁目７番１１号有明パークビル２０Ｆ,,13,108,1350063,,,,,,,2025-04-03,1,,,,,ジーエムティー,0
492,3010603011480,新規,0,2025-04-03,2025-04-03,ＢＯＮＤＡＤ合同会社,,合同会社,東京都,墨田区,立花５丁目２番４－１００２号,,13,107,1310043,,,,,,,2025-04-03,1,,,,,ボンダッド,0
493,3010703007651,新規,0,2025-04-03,2025-04-03,合同会社ＩＺＵＭＩＧＵＭＩ,,合同会社,東京都,品川区,西大井６丁目１６番６－３０５号,,13,109,1400015,,,,,,,2025-04-03,1,,,,,イズミグミ,0
495,3010801036008,新規,0,2025-04-03,2025-04-03,株式会社城南アーキテクツ,,株式会社,東京都,大田区,大森北６丁目１６番２号,,13,111,1430016,,,,,,,2025-04-03,1,,,,,アーキテクツ,0
497,3011001168780,新規,0,2025-04-03,2025-04-03,株式会社ＳＡＫＡＫＩ　ＭＡＮＡＧＥＭＥＮＴ,,株式会社,東京都,渋谷区,恵比寿４丁目２０－３ガーデンプレイスタワー１８階,,13,113,1500013,,,,,,,2025-04-03,1,,,,,サカキマネジメント,0
498,3011001168847,新規,0,2025-04-03,2025-04-03,ｅｌｕ株式会社,,株式会社,東京都,渋谷区,神南１丁目１１－４ＦＰＧリンクス神南５階,,13,113,1500041,,,,,,,2025-04-03,1,,,,,エル,0
499,3011003021302,新規,0,2025-04-03,2025-04-03,合同会社なかじまや,,合同会社,東京都,渋谷区,西原２丁目１２－６,,13,113,1510066,,,,,,,2025-04-03,1,,,,,ナカジマヤ,0
500,3011005010914,新規,0,2025-04-03,2025-04-03,一般社団法人芝三光の江戸しぐさ,,その他の設立登記法人,東京都,目黒区,目黒本町３丁目７番地１７号,,13,110,1520002,,,,,,,2025-04-03,1,,,,,シバミツアキラノエドシグサ,0
502,3011101111186,新規,0,2025-04-03,2025-04-03,ＦＹ兄弟株式会社,,株式会社,東京都,新宿区,百人町３丁目１５番８号３階,,13,104,1690073,,,,,,,2025-04-03,1,,,,,エフワイキョウダイ,0
504,3011103015708,新規,0,2025-04-03,2025-04-03,Ｔｒｕｔｈ　Ｒｅｓｅａｒｃｈ合同会社,,合同会社,東京都,新宿区,西新宿３丁目３番１３号西新宿水間ビル６階,,13,104,1600023,,,,,,,2025-04-03,1,,,,,トゥルースリサーチ,0
505,3011105011390,新規,0,2025-04-03,2025-04-03,一般社団法人椎園,,その他の設立登記法人,東京都,新宿区,四谷三栄町１１番１５－９０２号,,13,104,1600008,,,,,,,2025-04-03,1,,,,,シイゾノ,0
507,3011501031884,新規,0,2025-04-03,2025-04-03,和農貿易株式会社,,株式会社,東京都,北区,東田端２丁目９‐１７、２１１号室,,13,117,1140013,,,,,,,2025-04-03,1,,,,,ワノウボウエキ,0
512,3011503006471,新規,0,2025-04-03,2025-04-03,合同会社ツミアゲスリー,,合同会社,東京都,荒川区,西日暮里６丁目１６－１１エヴァーグリーン西日暮里３０１,,13,118,1160013,,,,,,,2025-04-03,1,,,,,ツミアゲスリー,0
514,3011701028210,新規,0,2025-04-03,2025-04-03,デュオコーディネーション株式会社,,株式会社,東京都,江戸川区,江戸川２丁目３１番２０－７０１号グランシティユーロレジデンス瑞江,,13,123,1320013,,,,,,,2025-04-03,1,,,,,デュオコーディネーション,0
523,3012801023877,新規,0,2025-04-03,2025-04-03,株式会社ビーウォーター,,株式会社,東京都,国立市,東４丁目２４番地の２０国立パークホームズ４０３,,13,215,1860002,,,,,,,2025-04-03,1,,,,,ビーウォーター,0
531,3021001084845,新規,0,2025-04-03,2025-04-03,株式会社エクリュバン,,株式会社,神奈川県,三浦郡葉山町,長柄１６４２番地の４３０,,14,301,2400113,,,,,,,2025-04-03,1,,,,,エクリュバン,0
533,3030001165415,新規,0,2025-04-03,2025-04-03,株式会社ゼンライズ,,株式会社,埼玉県,所沢市,東新井町７６－１アドバンスハイムＡ１０１,,11,208,3590034,,,,,,,2025-04-03,1,,,,,ゼンライズ,0
534,3030001165687,新規,0,2025-04-03,2025-04-03,ネクストミライ株式会社,,株式会社,埼玉県,川口市,飯塚２丁目６番８号ミライオンビル１階,,11,203,3320023,,,,,,,2025-04-03,1,,,,,ネクストミライ,0
535,3030001165704,新規,0,2025-04-03,2025-04-03,株式会社ブリットるい,,株式会社,埼玉県,さいたま市大宮区,上小町１０３４番地,,11,103,3300855,,,,,,,2025-04-03,1,,,,,ブリットルイ,0
536,3030001165720,新規,0,2025-04-03,2025-04-03,株式会社ＮＰＣブックバインダリー,,株式会社,埼玉県,戸田市,美女木東１丁目４番１号,,11,224,3350032,,,,,,,2025-04-03,1,,,,,エヌピーシーブックバインダリー,0
538,3030003026458,新規,0,2025-04-03,2025-04-03,合同会社ＮＳ０２,,合同会社,埼玉県,熊谷市,佐谷田１６３１番地,,11,202,3600023,,,,,,,2025-04-03,1,,,,,エヌエスゼロツー,0
541,3040001138114,新規,0,2025-04-03,2025-04-03,株式会社Ｔｈｅ　Ｃｈｅｌｓｅａ　Ｃｏｕｒｔ,,株式会社,千葉県,柏市,あけぼの４丁目１番３号,,12,217,2770841,,,,,,,2025-04-03,1,,,,,ザチェルシーコート,0
542,3040003027249,新規,0,2025-04-03,2025-04-03,ＫＡＲＡ　ＴＲＡＤＩＮＧ合同会社,,合同会社,千葉県,八街市,朝日２２６番地２２コーポ朝日ＩＩ１０５,00138542,12,230,2891101,,,,,,,2025-04-03,1,,,,,カラトレーディング,0
544,3050001056356,新規,0,2025-04-03,2025-04-03,Ｃｏｒｅ　ＡＩ　Ｓｏｌｕｔｉｏｎ株式会社,,株式会社,茨城県,つくば市,吾妻１丁目１０番地１センタービル１Ｆ,,08,220,3050031,,,,,,,2025-04-03,1,,,,,コレエイアイソリューション,0
546,3060001038064,新規,0,2025-04-03,2025-04-03,株式会社ＬＡＦ,,株式会社,栃木県,宇都宮市,岩曽町１３７８番地９９,,09,201,3210973,,,,,,,2025-04-03,1,,,,,ラフ,0
547,3060001038080,新規,0,2025-04-03,2025-04-03,株式会社ゆめなれ,,株式会社,栃木県,栃木市,柳橋町１５番９号,,09,203,3280051,,,,,,,2025-04-03,1,,,,,ユメナレ,0
551,3080001026851,新規,0,2025-04-03,2025-04-03,株式会社Ｃｒａｆｔ　Ｔｏｗｎ,,株式会社,静岡県,島田市,元島田９０９１番地の１,,22,209,4270057,,,,,,,2025-04-03,1,,,,,クラフトタウン,0
554,3080401027838,新規,0,2025-04-03,2025-04-03,株式会社アキカワ,,株式会社,静岡県,御前崎市,佐倉４００１番地の２,,22,223,4371604,,,,,,,2025-04-03,1,,,,,アキカワ,0
555,3080405007720,新規,0,2025-04-03,2025-04-03,医療法人社団和心二葉会,,その他の設立登記法人,静岡県,浜松市中央区,住吉１丁目２４番１号ＮＴＴ住吉ビル４階,,22,138,4300906,,,,,,,2025-04-03,1,,,,,ワシンニヨウカイ,0
556,3100001002734,新規,0,2025-04-03,2025-04-03,株式会社日新産業,,株式会社,長野県,長野市,三輪８丁目２９番６号,,20,201,3800803,,,,,,,2025-04-03,1,,,,,ニッシンサンギョウ,0
558,3100001038456,新規,0,2025-04-03,2025-04-03,株式会社ＭＩＫＩ　ＦＡＲＭ,,株式会社,長野県,下高井郡山ノ内町,大字夜間瀬字大沢１２３７７番１７,,20,561,3810405,,,,,,,2025-04-03,1,,,,,ミキファーム,0
565,3120001274090,新規,0,2025-04-03,2025-04-03,四季貿易株式会社,,株式会社,大阪府,大阪市浪速区,塩草３丁目６－１１ティーズ桜川マンション２０１号,,27,111,5560024,,,,,,,2025-04-03,1,,,,,シキボウエキ,0
566,3120001274099,新規,0,2025-04-03,2025-04-03,株式会社ルチアサービス,,株式会社,大阪府,大阪市大正区,千島３丁目１番８号,,27,108,5510003,,,,,,,2025-04-03,1,,,,,ルチアサービス,0
567,3120001274165,新規,0,2025-04-03,2025-04-03,株式会社みちひらき,,株式会社,大阪府,大阪市阿倍野区,昭和町２丁目９番９号,,27,119,5450011,,,,,,,2025-04-03,1,,,,,ミチヒラキ,0
568,3120001274529,新規,0,2025-04-03,2025-04-03,株式会社ＳＡＹＳ,,株式会社,大阪府,大阪市中央区,安土町３丁目４番９‐２３０４号,,27,128,5410052,,,,,,,2025-04-03,1,,,,,セイズ,0
569,3120003029030,新規,0,2025-04-03,2025-04-03,東白合同会社,,合同会社,大阪府,大阪市東成区,東中本３丁目２０番２２号関西マンション２０５号室,,27,115,5370021,,,,,,,2025-04-03,1,,,,,トウハク,0
570,3120003029047,新規,0,2025-04-03,2025-04-03,合同会社ムスブレイブ,,合同会社,大阪府,交野市,藤が尾６丁目１番２４号,,27,230,5760022,,,,,,,2025-04-03,1,,,,,ムスブレイブ,0
574,3120901050665,新規,0,2025-04-03,2025-04-03,六甲工業株式会社,,株式会社,大阪府,豊中市,大島町１丁目５番１６号,,27,203,5610824,,,,,,,2025-04-03,1,,,,,ロッコウコウギョウ,0
579,3130001079308,新規,0,2025-04-03,2025-04-03,新烏丸株式会社,,株式会社,京都府,京都市上京区,河原町通荒神口下る西入新烏丸頭町１５８番地,,26,102,6020861,,,,,,,2025-04-03,1,,,,,シンカラスマ,0
580,3130001079316,新規,0,2025-04-03,2025-04-03,株式会社ＦＤＷ,,株式会社,京都府,京都市上京区,西堀川通下立売上る四町目５５番地,,26,102,6028112,,,,,,,2025-04-03,1,,,,,エフディーダブリュー,0
581,3130003010336,新規,0,2025-04-03,2025-04-03,Ｎｅｏｒｅｌｉａ合同会社,,合同会社,京都府,京都市下京区,七条通油小路東入大黒町２２７番地第２キョートビル４０２,,26,106,6008223,,,,,,,2025-04-03,1,,,,,ネオレリア,0
586,3140003021794,新規,0,2025-04-03,2025-04-03,ＪＡＰＡＮ一番屋台合同会社,,合同会社,兵庫県,南あわじ市,阿那賀１０４２番１,,28,224,6560661,,,,,,,2025-04-03,1,,,,,ジャパンイチバンヤタイ,0
588,3140005027427,新規,0,2025-04-03,2025-04-03,Ｐｏｒｔ行政書士法人,,その他の設立登記法人,兵庫県,神戸市中央区,江戸町８５－１,,28,110,6500033,,,,,,,2025-04-03,1,,,,,,0
589,3160003003444,新規,0,2025-04-03,2025-04-03,ＨＵＮＧ　ＰＨＵ合同会社,,合同会社,滋賀県,近江八幡市,堀上町１３２番地７,,25,204,5230031,,,,,,,2025-04-03,1,,,,,フンフー,0
590,3170001018550,新規,0,2025-04-03,2025-04-03,株式会社桶谷電気計装,,株式会社,和歌山県,和歌山市,加納１３８番地２９,,30,201,6408391,,,,,,,2025-04-03,1,,,,,オケタニデンキケイソウ,0
593,3180301039659,新規,0,2025-04-03,2025-04-03,株式会社ＭＧホールディングス,,株式会社,愛知県,高浜市,青木町１丁目２番地１,,23,227,4441325,,,,,,,2025-04-03,1,,,,,エムジーホールディングス,0
594,3190001032120,新規,0,2025-04-03,2025-04-03,石丸工業株式会社,,株式会社,三重県,伊賀市,長田１９９５番地の１,,24,216,5180031,,,,,,,2025-04-03,1,,,,,イシマルコウギョウ,0
598,3220001026572,新規,0,2025-04-03,2025-04-03,諾邦住建株式会社,,株式会社,石川県,金沢市,芳斉１丁目６－１６,,17,201,9200862,,,,,,,2025-04-03,1,,,,,タクホウジュウケン,0
599,3220001026589,新規,0,2025-04-03,2025-04-03,株式会社ミサキ,,株式会社,石川県,加賀市,丸山町１丁目７番地,,17,206,9220221,,,,,,,2025-04-03,1,,,,,ミサキ,0
600,3220001026597,新規,0,2025-04-03,2025-04-03,株式会社やなぎ企画,,株式会社,石川県,珠洲市,正院町正院２０部３３番２地,,17,205,9271206,,,,,,,2025-04-03,1,,,,,ヤナギキカク,0
606,3240001064752,新規,0,2025-04-03,2025-04-03,株式会社ＪＡＭ,,株式会社,広島県,三原市,中之町１丁目２６番１９号,,34,204,7230003,,,,,,,2025-04-03,1,,,,,ジャム,0
612,3260001040074,新規,0,2025-04-03,2025-04-03,株式会社ヤシロ電器,,株式会社,岡山県,赤磐市,桜が丘東５丁目５番地１９９,,33,213,7090721,,,,,,,2025-04-03,1,,,,,ヤシロデンキ,0
613,3260003005117,新規,0,2025-04-03,2025-04-03,合同会社ネクストプラス,,合同会社,岡山県,岡山市北区,中山下１丁目４番５８号６０１号,,33,101,7000821,,,,,,,2025-04-03,1,,,,,ネクストプラス,0
614,3270005005634,新規,0,2025-04-03,2025-04-03,一般社団法人鳥取県バレーボール協会,,その他の設立登記法人,鳥取県,鳥取市,南安長１丁目１５番２１号,,31,201,6800914,,,,,,,2025-04-03,1,,,,,トットリケンバレーボールキョウカイ,0
625,3290801031393,新規,0,2025-04-03,2025-04-03,住友株式会社,,株式会社,福岡県,北九州市八幡西区,引野３丁目８番４号,,40,109,8060067,,,,,,,2025-04-03,1,,,,,スミトモ,0
627,3290805009816,新規,0,2025-04-03,2025-04-03,一般社団法人日本華僑華人商業協会,,その他の設立登記法人,福岡県,北九州市八幡西区,熊西２丁目３番１９号８０８室,,40,109,8060031,,,,,,,2025-04-03,1,,,,,ニホンカキョウカジンショウギョウキョウカイ,0
631,3300003002258,新規,0,2025-04-03,2025-04-03,合同会社空とたね,,合同会社,佐賀県,三養基郡基山町,大字園部２２５４番地１,,41,341,8410203,,,,,,,2025-04-03,1,,,,,ソラトタネ,0
639,3330005010891,新規,0,2025-04-03,2025-04-03,一般社団法人塗装保証協会,,その他の設立登記法人,熊本県,熊本市東区,画図町大字重富９５７番地５,,43,102,8620947,,,,,,,2025-04-03,1,,,,,トソウホショウキョウカイ,0
640,3340001027245,新規,0,2025-04-03,2025-04-03,株式会社翼工業,,株式会社,鹿児島県,鹿児島市,祇園之洲町６番地グランデージ祇園之洲７０５号,00138558,46,201,8920803,,,,,,,2025-04-03,1,,,,,ツバサコウギョウ,0
641,3340005009842,新規,0,2025-04-03,2025-04-03,さつま運送事業協同組合,,その他の設立登記法人,鹿児島県,薩摩郡さつま町,船木２９５５番地１,,46,392,8951804,,,,,,,2025-04-03,1,,,,,サツマウンソウ,0
643,3350003004893,新規,0,2025-04-03,2025-04-03,合同会社Ｒａｌｓｅ,,合同会社,宮崎県,都城市,南横市町３７３０番地１３,,45,202,8850092,,,,,,,2025-04-03,1,,,,,ライズ,0
644,3350005006302,新規,0,2025-04-03,2025-04-03,社会福祉法人育幸会,,その他の設立登記法人,宮崎県,児湯郡高鍋町,大字上江７７８５番地,,45,401,8840006,,,,,,,2025-04-03,1,,,,,イクコウカイ,0
652,3370001052430,新規,0,2025-04-03,2025-04-03,株式会社Ｎラーニング＆ソリューションズ,,株式会社,宮城県,仙台市泉区,向陽台２丁目２４－８,,04,105,9813102,,,,,,,2025-04-03,1,,,,,エヌラーニングアンドソリューションズ,0
657,3390001017935,新規,0,2025-04-03,2025-04-03,株式会社壱優,,株式会社,山形県,新庄市,新町９番４７－７号ミルウォーキー新町５号室,,06,205,9960078,,,,,,,2025-04-03,1,,,,,イチユウ,0
658,3390005009111,新規,0,2025-04-03,2025-04-03,一般社団法人やまがた相続支援センター,,その他の設立登記法人,山形県,山形市,やよい町二丁目１番３０号,,06,201,9900000,,,,,,,2025-04-03,1,,,,,ヤマガタソウゾクシエンセンター,0
660,3430001094078,新規,0,2025-04-03,2025-04-03,株式会社Ｋ３,,株式会社,北海道,札幌市中央区,北三条西２９丁目５番５号,,01,101,0640823,,,,,,,2025-04-03,1,,,,,ケイスリイ,0
661,3430001094111,新規,0,2025-04-03,2025-04-03,株式会社ジャパン・ポート,,株式会社,北海道,札幌市南区,石山二条３丁目８番５号２０２号,,01,106,0050842,,,,,,,2025-04-03,1,,,,,ジャパンポート,0
664,3430003017466,新規,0,2025-04-03,2025-04-03,合同会社ｍｏｄｅｓｔ,,合同会社,北海道,小樽市,若竹町２４番４７号,,01,203,0470001,,,,,,,2025-04-03,1,,,,,モデスト,0
673,3490003002000,新規,0,2025-04-03,2025-04-03,合同会社幸,,合同会社,高知県,高知市,万々２８７―１シャーメゾン万々Ｂ１０２,,39,201,7800973,,,,,,,2025-04-03,1,,,,,ミユキ,0
675,3700150129796,新規,0,2025-04-03,2025-04-03,ＺＡＡＴＨＩ　ＴＲＡＤＩＮＧ,,外国会社等,千葉県,山武市,小松１６９番地６Ａ,,12,237,2891302,スリランカ民主社会主義共和国、キャンディ、アクラナ、マータレーロード、ＮＯ．１４５／Ｃ,,,,,,2025-04-03,1,,,,,ザーテイートレーデイング,0
676,3700150129805,新規,0,2025-04-03,2025-04-03,ＡＶＡＬＯＮ　ＲＥＤ　ＷＩＮＧＳ,,外国会社等,神奈川県,厚木市,金田７８４番地１５－２０２,,14,212,2430807,スリランカ民主社会主義共和国、アンパラ、ティルッコビル４、１ｓｔロード,,,,,,2025-04-03,1,,,,,アバロンレツドウイングス,0
677,3700150129813,新規,0,2025-04-03,2025-04-03,ＨＯＮＪＯ　ＴＲＡＤＩＮＧ,,外国会社等,神奈川県,愛甲郡愛川町,田代９７３－１－Ｂ,,14,401,2430306,スリランカ民主社会主義共和国、ＮＯ．１２７、マダベラバザール、キャンディ,,,,,,2025-04-03,1,,,,,ホンジヨトレーデイング,0
684,4010001253609,新規,0,2025-04-03,2025-04-03,株式会社ＴＳコーポレーション,,株式会社,東京都,千代田区,永田町２丁目１１番１号山王パークタワー５階トラスティーズ・コンサルティングＬＬＰ内,,13,101,1000014,,,,,,,2025-04-03,1,,,,,ティーエスコーポレーション,0
685,4010001253682,新規,0,2025-04-03,2025-04-03,株式会社エクスマインド,,株式会社,東京都,中央区,日本橋大伝馬町２番１４号パールビル９階,,13,102,1030011,,,,,,,2025-04-03,1,,,,,エクスマインド,0
686,4010001253708,新規,0,2025-04-03,2025-04-03,株式会社ＴＡＤＡＳＨＩ　ＶＩＮＴＡＧＥ,,株式会社,東京都,中央区,銀座１丁目９－８奥野ビル２１０,,13,102,1040061,,,,,,,2025-04-03,1,,,,,タダシヴィンテージ,0
687,4010001253732,新規,0,2025-04-03,2025-04-03,旭コンスディール株式会社,,株式会社,東京都,中央区,新川１丁目１５番５号,,13,102,1040033,,,,,,,2025-04-03,1,,,,,アサヒコンスディール,0
688,4010001253757,新規,0,2025-04-03,2025-04-03,株式会社Ｙａｑｕｍｏ,,株式会社,東京都,千代田区,丸の内２丁目３番２号郵船ビルディング１階,,13,101,1000005,,,,,,,2025-04-03,1,,,,,ヤクモ,0
689,4010001253823,新規,0,2025-04-03,2025-04-03,株式会社ＢＣＪ‐９８,,株式会社,東京都,千代田区,丸の内１丁目１番１号パレスビル５階,,13,101,1000005,,,,,,,2025-04-03,1,,,,,ビーシージェイナインティーエイト,0
691,4010003046936,新規,0,2025-04-03,2025-04-03,ＯＭＧ合同会社,,合同会社,東京都,中央区,銀座１丁目１２番４号Ｎ＆ＥＢＬＤ．６Ｆ,,13,102,1040061,,,,,,,2025-04-03,1,,,,,オーエムジー,0
701,4010401189213,新規,0,2025-04-03,2025-04-03,株式会社ＵｎｌｉｍｉＴｅｃｈ,,株式会社,東京都,港区,元赤坂１丁目２－７赤坂Ｋタワー４Ｆ,,13,103,1070051,,,,,,,2025-04-03,1,,,,,アンリミテック,0
702,4010403034755,新規,0,2025-04-03,2025-04-03,合同会社ｌｉｌｙ,,合同会社,東京都,港区,赤坂４丁目１４番１４号,,13,103,1070052,,,,,,,2025-04-03,1,,,,,ユウリ,0
707,4010601067053,新規,0,2025-04-03,2025-04-03,株式会社ケークラフト,,株式会社,東京都,江東区,亀戸１丁目１９番６－６１７号,,13,108,1360071,,,,,,,2025-04-03,1,,,,,ケークラフト,0
708,4010603011488,新規,0,2025-04-03,2025-04-03,合同会社ＴＨＥ　ＯＮＥ,,合同会社,東京都,江東区,豊洲３丁目５－３－３３３,,13,108,1350061,,,,,,,2025-04-03,1,,,,,ジワン,0
711,4010701047475,新規,0,2025-04-03,2025-04-03,株式会社ＵＮＰＡＳＯ,,株式会社,東京都,品川区,東品川４丁目１１－３６,,13,109,1400002,,,,,,,2025-04-03,1,,,,,ウンパソ,0
712,4010701047491,新規,0,2025-04-03,2025-04-03,株式会社ワルツ,,株式会社,東京都,品川区,東五反田１丁目１２番１０号３階,,13,109,1410022,,,,,,,2025-04-03,1,,,,,ワルツ,0
720,4011001168730,新規,0,2025-04-03,2025-04-03,株式会社ｃｌｅａｒ,,株式会社,東京都,目黒区,中根２丁目８番１号コンフォート都立大１０２,,13,110,1520031,,,,,,,2025-04-03,1,,,,,クリアー,0
721,4011001168771,新規,0,2025-04-03,2025-04-03,株式会社ＤＲＡＷＳ　Ａ　ＤＲＥＡＭ,,株式会社,東京都,渋谷区,桜丘町４番１４号Ｖｏｒｔ渋谷桜丘５Ｆ,,13,113,1500031,,,,,,,2025-04-03,1,,,,,ドローズアドリーム,0
722,4011001168788,新規,0,2025-04-03,2025-04-03,株式会社リブラ,,株式会社,東京都,渋谷区,神宮前４丁目２３番３－１０２号,,13,113,1500001,,,,,,,2025-04-03,1,,,,,リブラ,0
723,4011003021342,新規,0,2025-04-03,2025-04-03,ＡｉｒＴｒｕｎｋ　Ｊａｐａｎ　Ｈｏｌｄｉｎｇ８合同会社,,合同会社,東京都,渋谷区,円山町３番６号Ｅ・スペースタワー,,13,113,1500044,,,,,,,2025-04-03,1,,,,,エアトランクジャパンホールディングエイト,0
727,4011103015731,新規,0,2025-04-03,2025-04-03,Ｔｏｋｙｏ　Ｈｏｔｅｌ　Ｅｘｐｒｅｓｓ合同会社,,合同会社,東京都,新宿区,早稲田鶴巻町５２３－１７－４０４,,13,104,1620041,,,,,,,2025-04-03,1,,,,,トウキョウホテルエクスプレス,0
733,4011401026975,新規,0,2025-04-03,2025-04-03,株式会社堀柴,,株式会社,東京都,板橋区,小豆沢２丁目３３番６―１０７号メゾン小豆沢公園,,13,119,1740051,,,,,,,2025-04-03,1,,,,,ホリシバ,0
735,4011501031883,新規,0,2025-04-03,2025-04-03,株式会社堺屋,,株式会社,東京都,荒川区,東日暮里４丁目１番４－１２０１号,,13,118,1160014,,,,,,,2025-04-03,1,,,,,サカイヤ,0
742,4012401042938,新規,0,2025-04-03,2025-04-03,ジャピプラス株式会社,,株式会社,東京都,狛江市,元和泉１丁目１－２エコルマ２－２０１,,13,219,2010013,,,,,,,2025-04-03,1,,,,,ジャピプラス,0
744,4012701018778,新規,0,2025-04-03,2025-04-03,株式会社ＷＡＮＴＡＴＩＯＮ,,株式会社,東京都,西東京市,向台町２丁目１６番３２号－２０３号,,13,229,1880013,,,,,,,2025-04-03,1,,,,,ウォンテーション,0
753,4021001084852,新規,0,2025-04-03,2025-04-03,株式会社ＬＩＦＥ,,株式会社,神奈川県,鎌倉市,長谷２丁目１０番４３号,,14,204,2480016,,,,,,,2025-04-03,1,,,,,ライフ,0
754,4021001084869,新規,0,2025-04-03,2025-04-03,株式会社Ｄ．ｃｏｍｐａｎｙ,,株式会社,神奈川県,茅ヶ崎市,東海岸北４丁目５番２１―１１号,,14,207,2530053,,,,,,,2025-04-03,1,,,,,ディードットカンパニー,0
755,4030001165711,新規,0,2025-04-03,2025-04-03,株式会社ＦＯＣＵＳ,,株式会社,埼玉県,さいたま市岩槻区,西町４丁目４番１９号,,11,110,3390067,,,,,,,2025-04-03,1,,,,,フォーカス,0
756,4030001165728,新規,0,2025-04-03,2025-04-03,株式会社エステック,,株式会社,埼玉県,川口市,大字石神３２５番地の１１,,11,203,3330823,,,,,,,2025-04-03,1,,,,,エステック,0
757,4030001165744,新規,0,2025-04-03,2025-04-03,株式会社ＴＨＲＥＥ　ＥＩＧＨＴ,,株式会社,埼玉県,さいたま市見沼区,深作２丁目１７番地１３,,11,104,3370003,,,,,,,2025-04-03,1,,,,,スリーエイト,0
765,4040001138113,新規,0,2025-04-03,2025-04-03,株式会社Ｃ・Ｂ・Ｈクリエイティブ,,株式会社,千葉県,柏市,あけぼの４丁目１番３号,,12,217,2770841,,,,,,,2025-04-03,1,,,,,シービーエイチクリエイティブ,0
767,4040003027198,新規,0,2025-04-03,2025-04-03,合同会社モリタヤパートナーズ,,合同会社,千葉県,千葉市稲毛区,稲毛東４丁目５－１－５１３,,12,103,2630031,,,,,,,2025-04-03,1,,,,,モリタヤパートナーズ,0
770,4050003009162,新規,0,2025-04-03,2025-04-03,合同会社クインＪＰ,,合同会社,茨城県,下妻市,長塚７番地長塚ハイツＩＩ号棟２０２号室,00138560,08,210,3040056,,,,,,,2025-04-03,1,,,,,クインジェイピイ,0
773,4060001038063,新規,0,2025-04-03,2025-04-03,株式会社カエデコージーホールディングス,,株式会社,栃木県,那須塩原市,上塩原２３番地,,09,213,3292923,,,,,,,2025-04-03,1,,,,,カエデコージーホールディングス,0
777,4070003005853,新規,0,2025-04-03,2025-04-03,クリアーテック合同会社,,合同会社,群馬県,前橋市,北代田町５５８番地,,10,201,3710055,,,,,,,2025-04-03,1,,,,,クリアーテック,0
778,4080001026834,新規,0,2025-04-03,2025-04-03,株式会社ＩＴＳＵＫＩ,,株式会社,静岡県,静岡市清水区,宮代町２－５,,22,103,4240807,,,,,,,2025-04-03,1,,,,,イツキ,0
780,4080101025414,新規,0,2025-04-03,2025-04-03,株式会社カササギ,,株式会社,静岡県,三島市,萩６４８番地の１,,22,206,4110045,,,,,,,2025-04-03,1,,,,,カササギ,0
781,4080401027837,新規,0,2025-04-03,2025-04-03,株式会社２ｄｏ,,株式会社,静岡県,浜松市中央区,幸４丁目１８番１９号,,22,138,4338123,,,,,,,2025-04-03,1,,,,,ニド,0
785,4110001039171,新規,0,2025-04-03,2025-04-03,Ｍａｔｈ＆Ｓｏｌｕｔｉｏｎｓ株式会社,,株式会社,新潟県,新潟市中央区,長嶺町１５９番地,,15,103,9500085,,,,,,,2025-04-03,1,,,,,マスアンドソリューションズ,0
797,4120001273942,新規,0,2025-04-03,2025-04-03,富士貿易株式会社,,株式会社,大阪府,大阪市港区,市岡元町１丁目６－１１－９０８号,,27,107,5520002,,,,,,,2025-04-03,1,,,,,フジボウエキ,0
798,4120001274172,新規,0,2025-04-03,2025-04-03,新図不動産株式会社,,株式会社,大阪府,大阪市住之江区,新北島２丁目４番４号,,27,125,5590024,,,,,,,2025-04-03,1,,,,,シンズフドウサン,0
799,4120001274222,新規,0,2025-04-03,2025-04-03,瑞和国際貿易株式会社,,株式会社,大阪府,大阪市中央区,安土町１丁目４番５号本町ビル４階１１号室,,27,128,5410052,,,,,,,2025-04-03,1,,,,,ズイワコクサイボウエキ,0
802,4120901050656,新規,0,2025-04-03,2025-04-03,雛象株式会社,,株式会社,大阪府,豊中市,寺内１丁目１０番７－２０５号室,,27,203,5610872,,,,,,,2025-04-03,1,,,,,スゾウ,0
805,4122001039019,新規,0,2025-04-03,2025-04-03,サイトウ商事株式会社,,株式会社,大阪府,大東市,谷川１丁目４番２６号－１０５号,,27,218,5740074,,,,,,,2025-04-03,1,,,,,サイトウショウジ,0
808,4130001079307,新規,0,2025-04-03,2025-04-03,株式会社Ｔｏｐ　Ｃｒｕｉｓｅ,,株式会社,京都府,木津川市,市坂幣羅坂７７番地,,26,214,6190213,,,,,,,2025-04-03,1,,,,,トップクルーズ,0
809,4130001079323,新規,0,2025-04-03,2025-04-03,株式会社三結,,株式会社,京都府,京都市山科区,音羽乙出町１－５,,26,110,6078074,,,,,,,2025-04-03,1,,,,,ミツキ,0
810,4130001079331,新規,0,2025-04-03,2025-04-03,株式会社貴工建,,株式会社,京都府,京都市左京区,一乗寺西水干町２６番地,,26,103,6068171,,,,,,,2025-04-03,1,,,,,タカコウケン,0
811,4130001079356,新規,0,2025-04-03,2025-04-03,株式会社Ｃｌｏｕｄ１０,,株式会社,京都府,京都市西京区,桂千代原町３３番地６,,26,111,6158085,,,,,,,2025-04-03,1,,,,,クラウドテン,0
821,4140001137988,新規,0,2025-04-03,2025-04-03,株式会社ＬＵＲＥ,,株式会社,兵庫県,神戸市中央区,南本町通６丁目１番２３号棟０階３号室,,28,110,6510074,,,,,,,2025-04-03,1,,,,,ルアー,0
824,4150003003543,新規,0,2025-04-03,2025-04-03,松井商会合同会社,,合同会社,奈良県,宇陀市,室生上笠間３２９５番地,,29,212,6320202,,,,,,,2025-04-03,1,,,,,マツイショウカイ,0
826,4160003003443,新規,0,2025-04-03,2025-04-03,みやこ管理合同会社,,合同会社,滋賀県,大津市,八屋戸１９６４番地の９,,25,201,5200515,,,,,,,2025-04-03,1,,,,,ミヤコカンリ,0
829,4180001166190,新規,0,2025-04-03,2025-04-03,株式会社スマートライフ,,株式会社,愛知県,北名古屋市,六ツ師道毛１８２番地１,,23,234,4810001,,,,,,,2025-04-03,1,,,,,スマートライフ,0
835,4180303006508,新規,0,2025-04-03,2025-04-03,合同会社Ｓｖｉｌｌａｇｅ,,合同会社,愛知県,刈谷市,東刈谷町１丁目５番地１０,,23,210,4480807,,,,,,,2025-04-03,1,,,,,エスビレッジ,0
836,4190003004983,新規,0,2025-04-03,2025-04-03,合同会社湊茶屋,,合同会社,三重県,伊勢市,大湊町１３４７番地６,,24,203,5160001,,,,,,,2025-04-03,1,,,,,ミナトジャヤ,0
839,4210001020121,新規,0,2025-04-03,2025-04-03,リレイト株式会社,,株式会社,福井県,福井市,渕３丁目８０２番地,,18,201,9188026,,,,,,,2025-04-03,1,,,,,リレイト,0
842,4230001020813,新規,0,2025-04-03,2025-04-03,株式会社ＳＮプロジェクト,,株式会社,富山県,射水市,庄西町２丁目１７番１６号,,16,211,9340001,,,,,,,2025-04-03,1,,,,,エスエヌプロジェクト,0
846,4240001064751,新規,0,2025-04-03,2025-04-03,株式会社ニシロジ,,株式会社,広島県,三原市,本郷町南方４９６２番地,,34,204,7290413,,,,,,,2025-04-03,1,,,,,ニシロジ,0
849,4250001021074,新規,0,2025-04-03,2025-04-03,ホースフィールド株式会社,,株式会社,山口県,防府市,沖今宿１丁目１番１５号,,35,206,7470013,,,,,,,2025-04-03,1,,,,,ホースフィールド,0
850,4260001040065,新規,0,2025-04-03,2025-04-03,エコフィックス株式会社,,株式会社,岡山県,総社市,秦３５１６番地,,33,208,7191142,,,,,,,2025-04-03,1,,,,,エコフィックス,0
856,4290801031392,新規,0,2025-04-03,2025-04-03,株式会社Ｕ建,,株式会社,福岡県,北九州市小倉南区,朽網東２丁目２２番１４号,,40,107,8000232,,,,,,,2025-04-03,1,,,,,ユーケン,0
857,4290801031418,新規,0,2025-04-03,2025-04-03,ＭｅＲｉＨａＬｉ株式会社,,株式会社,福岡県,築上郡築上町,大字椎田１２１４番地１,,40,647,8290301,,,,,,,2025-04-03,1,,,,,メリハリ,0
860,4340001027236,新規,0,2025-04-03,2025-04-03,株式会社梶尾防水,,株式会社,鹿児島県,鹿児島市,吉野町２２４０番地１０,,46,201,8920871,,,,,,,2025-04-03,1,,,,,カジオボウスイ,0
861,4340001027244,新規,0,2025-04-03,2025-04-03,ＢＳホーム株式会社,,株式会社,鹿児島県,鹿児島市,山之口町１－７,,46,201,8920844,,,,,,,2025-04-03,1,,,,,ビーエスホーム,0
862,4340003004803,新規,0,2025-04-03,2025-04-03,合同会社アークエステート,,合同会社,鹿児島県,鹿児島市,祇園之洲町１２番地セジュール祇園之洲１０１号,00138559,46,201,8920803,,,,,,,2025-04-03,1,,,,,アークエステート,0
866,4370001052396,新規,0,2025-04-03,2025-04-03,株式会社アジアコネクト,,株式会社,宮城県,仙台市青葉区,中央４丁目８番１７号,,04,101,9800021,,,,,,,2025-04-03,1,,,,,アジアコネクト,0
867,4370001052405,新規,0,2025-04-03,2025-04-03,株式会社ＴａｎｄＭ,,株式会社,宮城県,塩竈市,港町２丁目１０番１０号,,04,203,9850016,,,,,,,2025-04-03,1,,,,,タンデム,0
869,4370003007010,新規,0,2025-04-03,2025-04-03,合同会社ふうが,,合同会社,宮城県,仙台市若林区,河原町１丁目３番２６号,,04,103,9840816,,,,,,,2025-04-03,1,,,,,フウガ,0
873,4390001017934,新規,0,2025-04-03,2025-04-03,株式会社エヌ・ホールディングス,,株式会社,山形県,東田川郡三川町,大字押切新田字五反９８番地１,,06,426,9971321,,,,,,,2025-04-03,1,,,,,エヌホールディングス,0
874,4390001017942,新規,0,2025-04-03,2025-04-03,株式会社Ｂ．Ｃ　ｒｉｓｉｎｇ,,株式会社,山形県,天童市,乱川２丁目１番１８号,,06,210,9940002,,,,,,,2025-04-03,1,,,,,ビーシーライジング,0
877,4400003003427,新規,0,2025-04-03,2025-04-03,合同会社虎門天,,合同会社,岩手県,滝沢市,大崎２３５－３０,,03,216,0200621,,,,,,,2025-04-03,1,,,,,トラモンテン,0
882,4430001094069,新規,0,2025-04-03,2025-04-03,株式会社Ｓｅｃｒｅｔ　Ｂａｓｅ,,株式会社,北海道,札幌市東区,北二十一条東３丁目１番１１号,,01,103,0650021,,,,,,,2025-04-03,1,,,,,シークレットベース,0
883,4430001094102,新規,0,2025-04-03,2025-04-03,株式会社ＴＳ　ＯＮＥ,,株式会社,北海道,札幌市厚別区,厚別西五条６丁目２番７号,,01,108,0040065,,,,,,,2025-04-03,1,,,,,ティーエスワン,0
884,4430001094110,新規,0,2025-04-03,2025-04-03,大地工業株式会社,,株式会社,北海道,札幌市白石区,北郷五条４丁目１０番２２号,,01,104,0030835,,,,,,,2025-04-03,1,,,,,ダイチコウギョウ,0
885,4430003017465,新規,0,2025-04-03,2025-04-03,合同会社ＢＰＳ,,合同会社,北海道,札幌市中央区,大通東２丁目８番地,,01,101,0600041,,,,,,,2025-04-03,1,,,,,ビーピーエス,0
891,4480001012793,新規,0,2025-04-03,2025-04-03,株式会社浅田ホールディングス,,株式会社,徳島県,小松島市,中田町字東山６６番地５,,36,203,7730015,,,,,,,2025-04-03,1,,,,,アサダホールディングス,0
893,4700150129795,新規,0,2025-04-03,2025-04-03,Ｊ．Ｊ．ＬＡＮＫＡ　ＭＯＴＯＲＳ,,外国会社等,千葉県,東金市,二又３３６番地２オフィス５Ａ,,12,213,2830004,スリランカ民主社会主義共和国、キャンディ、バトゥゴダ、カサワッタ、Ｎｏ．４７８,,,,,,2025-04-03,1,,,,,ジエイジエイランカモータース,0
894,4700150129804,新規,0,2025-04-03,2025-04-03,ＪＥＴ　ＣＯ．ＬＡＮＫＡ,,外国会社等,神奈川県,厚木市,金田７８４番地１５－２０３,,14,212,2430807,スリランカ民主社会主義共和国、ケガッレ、ロックヒル、Ｎｏ．２９,,,,,,2025-04-03,1,,,,,ジエツトカンパニーランカ,0
895,4700150129812,新規,0,2025-04-03,2025-04-03,ＬＡＮＫＡ　ＩＮＴＥＲＮＡＴＩＯＮＡＬ,,外国会社等,神奈川県,愛甲郡愛川町,半原４６０７－５,,14,401,2430307,スリランカ民主社会主義共和国、ＮＯ．２９８／２、ペーラデニヤロード、キャンディ,,,,,,2025-04-03,1,,,,,ランカインターナシヨナル,0
898,5010001253681,新規,0,2025-04-03,2025-04-03,ＡＩトリックス株式会社,,株式会社,東京都,中央区,日本橋堀留町１丁目１０番１号カクタビル２Ｆ,,13,102,1030012,,,,,,,2025-04-03,1,,,,,エーアイトリックス,0
899,5010001253723,新規,0,2025-04-03,2025-04-03,株式会社Ｎｅｄｏｃｏ,,株式会社,東京都,中央区,東日本橋２丁目２８番４号日本橋ＣＥＴビル２階,,13,102,1030004,,,,,,,2025-04-03,1,,,,,ネドコ,0
900,5010001253731,新規,0,2025-04-03,2025-04-03,株式会社Ｍｅｎｔｏｒ,,株式会社,東京都,中央区,東日本橋１丁目９番２号パインコート日本橋ビル３階,,13,102,1030004,,,,,,,2025-04-03,1,,,,,メンター,0
901,5010001253748,新規,0,2025-04-03,2025-04-03,株式会社久保田商店,,株式会社,東京都,中央区,日本橋浜町１丁目５番６号小川ビル１階,,13,102,1030007,,,,,,,2025-04-03,1,,,,,クボタショウテン,0
902,5010001253780,新規,0,2025-04-03,2025-04-03,ＭＨＣインキュベーションセンター株式会社,,株式会社,東京都,千代田区,丸の内１丁目５番１号,,13,101,1000005,,,,,,,2025-04-03,1,,,,,エムエイチシーインキュベーションセンター,0
906,5010003046910,新規,0,2025-04-03,2025-04-03,Ｈａｋｏｎｅ　ＡＶＣ　Ｈｏｔｅｌ　Ｍａｎａｇｅｍｅｎｔ合同会社,,合同会社,東京都,千代田区,九段北４丁目１番９号市ヶ谷МＳビル６階,,13,101,1020073,,,,,,,2025-04-03,1,,,,,ハコネエーヴィーシーホテルマネジメント,0
907,5010003046927,新規,0,2025-04-03,2025-04-03,御影合同会社,,合同会社,東京都,中央区,晴海３丁目１３番１－４８２４号,,13,102,1040053,,,,,,,2025-04-03,1,,,,,ミカゲ,0
908,5010003046943,新規,0,2025-04-03,2025-04-03,殿町ラボ合同会社,,合同会社,東京都,千代田区,飯田橋４丁目７番１号結和税理士法人内,,13,101,1020072,,,,,,,2025-04-03,1,,,,,トノマチラボ,0
909,5010005039854,新規,0,2025-04-03,2025-04-03,一般社団法人ＧＮＮＲＦ１ホールディングス,,その他の設立登記法人,東京都,千代田区,丸の内１丁目４番１号東京共同会計事務所内,,13,101,1000005,,,,,,,2025-04-03,1,,,,,ジーエヌエヌアールエフワンホールディングス,0
911,5010403034754,新規,0,2025-04-03,2025-04-03,紫源合同会社,,合同会社,東京都,港区,南麻布５丁目２番５－４１０号,,13,103,1060047,,,,,,,2025-04-03,1,,,,,シゲン,0
912,5010405024191,新規,0,2025-04-03,2025-04-03,一般社団法人虎ノ門アカデミー,,その他の設立登記法人,東京都,港区,西新橋１丁目２０番１１号,,13,103,1050003,,,,,,,2025-04-03,1,,,,,トラノモンアカデミー,0
914,5010601067044,新規,0,2025-04-03,2025-04-03,坤盛株式会社,,株式会社,東京都,江東区,扇橋１丁目３番４号フェリス扇橋１０３,,13,108,1350011,,,,,,,2025-04-03,1,,,,,ツチモリ,0
915,5010601067052,新規,0,2025-04-03,2025-04-03,株式会社ステラ・サプウェア,,株式会社,東京都,江東区,枝川３丁目１０番２０－４０７号,,13,108,1350051,,,,,,,2025-04-03,1,,,,,ステラサプウェア,0
919,5010905004759,新規,0,2025-04-03,2025-04-03,一般社団法人不二工機科学技術育英会,,その他の設立登記法人,東京都,世田谷区,等々力７丁目１７番２４号,,13,112,1580082,,,,,,,2025-04-03,1,,,,,フジコウキカガクギジュツイクエイカイ,0
922,5011001168671,新規,0,2025-04-03,2025-04-03,株式会社ＮＥＪ,,株式会社,東京都,渋谷区,渋谷２丁目１９－１５宮益坂ビルディング６０９,,13,113,1500002,,,,,,,2025-04-03,1,,,,,エヌイージェー,0
923,5011001168696,新規,0,2025-04-03,2025-04-03,Ｓｐｉｒｉｔ　Ｌｅｖｅｌ株式会社,,株式会社,東京都,目黒区,青葉台３丁目３番１１号みどり荘２階,,13,110,1530042,,,,,,,2025-04-03,1,,,,,スピリットレベル,0
924,5011001168770,新規,0,2025-04-03,2025-04-03,株式会社ＭＡＩＴＯ,,株式会社,東京都,渋谷区,道玄坂１丁目１０番８号渋谷道玄坂東急ビル２Ｆ,,13,113,1500043,,,,,,,2025-04-03,1,,,,,マイト,0
926,5011003021300,新規,0,2025-04-03,2025-04-03,合同会社インフィニティ,,合同会社,東京都,渋谷区,神泉町２４番１－１２０２号,,13,113,1500045,,,,,,,2025-04-03,1,,,,,インフィニティ,0
927,5011003021341,新規,0,2025-04-03,2025-04-03,ＡｉｒＴｒｕｎｋ　Ｊａｐａｎ　Ｈｏｌｄｉｎｇ７合同会社,,合同会社,東京都,渋谷区,円山町３番６号Ｅ・スペースタワー,,13,113,1500044,,,,,,,2025-04-03,1,,,,,エアトランクジャパンホールディングセブン,0
932,5011101111218,新規,0,2025-04-03,2025-04-03,株式会社アイルロ,,株式会社,東京都,新宿区,西新宿３丁目３番１３号西新宿水間ビル２Ｆ,,13,104,1600023,,,,,,,2025-04-03,1,,,,,アイルロ,0
952,5011703004182,新規,0,2025-04-03,2025-04-03,青猫合同会社,,合同会社,東京都,江戸川区,平井４丁目２３―４,,13,123,1320035,,,,,,,2025-04-03,1,,,,,アオネコ,0
953,5011801045896,新規,0,2025-04-03,2025-04-03,ＶＩＣ株式会社,,株式会社,東京都,足立区,六町４丁目７番３７号,,13,121,1210073,,,,,,,2025-04-03,1,,,,,ブイアイシー,0
956,5012401042929,新規,0,2025-04-03,2025-04-03,星羽堂株式会社,,株式会社,東京都,調布市,多摩川３丁目３１番地１百花苑多摩ハイツ２－Ｆ号室,,13,208,1820025,,,,,,,2025-04-03,1,,,,,ホシハネドウ,0
961,5012803003677,新規,0,2025-04-03,2025-04-03,合同会社ｍｕｓａｓｈｉ,,合同会社,東京都,昭島市,代官山２丁目５番１－１３４４号,,13,207,1960005,,,,,,,2025-04-03,1,,,,,ムサシ,0
973,5030001165652,新規,0,2025-04-03,2025-04-03,株式会社夢企画,,株式会社,埼玉県,さいたま市岩槻区,大字柏崎１８０番地８,,11,110,3390045,,,,,,,2025-04-03,1,,,,,ユメキカク,0
974,5030001165719,新規,0,2025-04-03,2025-04-03,株式会社ＮＰＣディストリビューションプロセッシング,,株式会社,埼玉県,戸田市,美女木東１丁目４番１号,,11,224,3350032,,,,,,,2025-04-03,1,,,,,エヌピーシーディストリビューションプロセッシング,0
975,5030001165727,新規,0,2025-04-03,2025-04-03,株式会社ＬＹＣＨＥＥ＆ＰＡＲＴＮＥＲ,,株式会社,埼玉県,さいたま市大宮区,桜木町１丁目１９５番地１大宮ソラミチＫＯＺ４階,,11,103,3300854,,,,,,,2025-04-03,1,,,,,レイシーアンドパートナー,0
976,5030001165743,新規,0,2025-04-03,2025-04-03,株式会社合田愛,,株式会社,埼玉県,川口市,桜町１丁目７番８号,,11,203,3340001,,,,,,,2025-04-03,1,,,,,アイダアイ,0
979,5030003026464,新規,0,2025-04-03,2025-04-03,合同会社泉雅,,合同会社,埼玉県,春日部市,一ノ割２丁目１番１７号メゾンウィステリア１０３号,,11,214,3440031,,,,,,,2025-04-03,1,,,,,センガ,0
983,5040001138046,新規,0,2025-04-03,2025-04-03,株式会社Ｆｒｏｍ,,株式会社,千葉県,浦安市,東野３丁目３４－１,,12,227,2790042,,,,,,,2025-04-03,1,,,,,フロム,0
984,5040001138112,新規,0,2025-04-03,2025-04-03,株式会社ＡＲｆｒｅｅｄｏｍ,,株式会社,千葉県,船橋市,薬円台３丁目１９番２２号,,12,204,2740077,,,,,,,2025-04-03,1,,,,,エーアールフリーダム,0
986,5040005022659,新規,0,2025-04-03,2025-04-03,特定非営利活動法人グルメ会サークル,,その他の設立登記法人,千葉県,浦安市,富士見２丁目２１番２１号レジデンス６（２０４）,,12,227,2790043,,,,,,,2025-04-03,1,,,,,グルメカイサークル,0
987,5050001056412,新規,0,2025-04-03,2025-04-03,株式会社ＪＰリサーチ,,株式会社,茨城県,北茨城市,磯原町豊田５８２番地２,,08,215,3191543,,,,,,,2025-04-03,1,,,,,ジェイピー,0
989,5060001038070,新規,0,2025-04-03,2025-04-03,株式会社柴田損保オフィス,,株式会社,栃木県,宇都宮市,宝木本町１２８１番地１５,,09,201,3200075,,,,,,,2025-04-03,1,,,,,シバタソンポオフィス,0
990,5070001042798,新規,0,2025-04-03,2025-04-03,日星株式会社,,株式会社,群馬県,沼田市,西原新町１２９番地２,,10,206,3780054,,,,,,,2025-04-03,1,,,,,ニッセイ,0
992,5080101025421,新規,0,2025-04-03,2025-04-03,株式会社鈴木硝子,,株式会社,静岡県,伊東市,大原１丁目７番４９号,,22,208,4140046,,,,,,,2025-04-03,1,,,,,スズキガラス,0
994,5080401027836,新規,0,2025-04-03,2025-04-03,株式会社ＡＳメカニカル,,株式会社,静岡県,浜松市中央区,三島町１５３４番地の１,,22,138,4300853,,,,,,,2025-04-03,1,,,,,エーエスメカニカル,0
996,5080403005237,新規,0,2025-04-03,2025-04-03,合同会社キャリコ,,合同会社,静岡県,浜松市中央区,三方原町１３１６番地,,22,138,4338105,,,,,,,2025-04-03,1,,,,,キャリコ,0
998,5100001038454,新規,0,2025-04-03,2025-04-03,Ｅ＆Ｒ長野株式会社,,株式会社,長野県,長野市,大字大豆島１６６０番地,,20,201,3810022,,,,,,,2025-04-03,1,,,,,イーアンドアールナガノ,0
1001,5110001039154,新規,0,2025-04-03,2025-04-03,株式会社一慧,,株式会社,新潟県,新潟市江南区,袋津３丁目３番８５号,,15,104,9500131,,,,,,,2025-04-03,1,,,,,イチエ,0
1002,5110001039162,新規,0,2025-04-03,2025-04-03,株式会社ＫＳ　ＰＬＡＮＮＩＮＧ,,株式会社,新潟県,新潟市北区,下土地亀２９５番地,,15,101,9503346,,,,,,,2025-04-03,1,,,,,ケイエスプランニング,0
1012,5120001274188,新規,0,2025-04-03,2025-04-03,清控智明株式会社,,株式会社,大阪府,大阪市住之江区,安立２丁目１０番１４号三坂ビル２０７号室,,27,125,5590003,,,,,,,2025-04-03,1,,,,,セイコウチメイ,0
1013,5120003029004,新規,0,2025-04-03,2025-04-03,合同会社奏,,合同会社,大阪府,大阪市中央区,北久宝寺町４丁目４番１５号,,27,128,5410057,,,,,,,2025-04-03,1,,,,,カナデ,0
1014,5120003029053,新規,0,2025-04-03,2025-04-03,ＡＩ　Ｇｒｉｄ合同会社,,合同会社,大阪府,大阪市平野区,加美北１丁目１８－９,,27,126,5470001,,,,,,,2025-04-03,1,,,,,エイアイグリッド,0
1018,5120005024878,新規,0,2025-04-03,2025-04-03,木村国際行政書士法人,,その他の設立登記法人,大阪府,大阪市淀川区,西中島３丁目１０番１３号新大阪物産ビル８０５号室,,27,123,5320011,,,,,,,2025-04-03,1,,,,,キムラコクサイ,0
1020,5122003003161,新規,0,2025-04-03,2025-04-03,ＩＳＩ合同会社,,合同会社,大阪府,東大阪市,菱屋西１丁目１５番１７号,,27,227,5770807,,,,,,,2025-04-03,1,,,,,アイエスアイ,0
1025,5130001079314,新規,0,2025-04-03,2025-04-03,ＴＨＥ　ＰＡＴＨ株式会社,,株式会社,京都府,京都市下京区,七条通大宮西入花畑町５８２－４,,26,106,6008831,,,,,,,2025-04-03,1,,,,,ザパス,0
1026,5130001079330,新規,0,2025-04-03,2025-04-03,株式会社一琳商会,,株式会社,京都府,京都市南区,西九条南田町３６番地２０,,26,107,6018441,,,,,,,2025-04-03,1,,,,,イチリンショウカイ,0
1027,5130001079347,新規,0,2025-04-03,2025-04-03,株式会社ＳｋｙＣｏｄａ,,株式会社,京都府,京都市南区,久世上久世町７９番地３０,,26,107,6018212,,,,,,,2025-04-03,1,,,,,スカイコーダ,0
1028,5130001079371,新規,0,2025-04-03,2025-04-03,株式会社ＮＩＰＰＯＮどこでもクリニック,,株式会社,京都府,京都市伏見区,桃山羽柴長吉中町４６番地１ＧｒａｎＰｉｎｏ伏見桃山１階１１００号室,,26,109,6120066,,,,,,,2025-04-03,1,,,,,ニッポンドコデモクリニック,0
1030,5130005017336,新規,0,2025-04-03,2025-04-03,一般社団法人清宗親交会,,その他の設立登記法人,京都府,向日市,森本町戌亥５番地の３,,26,208,6170003,,,,,,,2025-04-03,1,,,,,セイシュウシンコウカイ,0
1036,5140001137970,新規,0,2025-04-03,2025-04-03,株式会社ＳＡＥＫＩ,,株式会社,兵庫県,高砂市,米田町米田３１７番地の１０,,28,216,6760805,,,,,,,2025-04-03,1,,,,,サエキ,0
1039,5140003021909,新規,0,2025-04-03,2025-04-03,ＢＲＩＧＨＴ　ＰＡＴＨ合同会社,,合同会社,兵庫県,尼崎市,今福２丁目２－１２,,28,202,6600812,,,,,,,2025-04-03,1,,,,,ブライトパース,0
1041,5150001027989,新規,0,2025-04-03,2025-04-03,株式会社Ｍａ　Ｒｏｓｅ,,株式会社,奈良県,天理市,指柳町２７４番地１７,,29,204,6320093,,,,,,,2025-04-03,1,,,,,マローズ,0
1042,5170001018549,新規,0,2025-04-03,2025-04-03,株式会社久保建設,,株式会社,和歌山県,有田郡有田川町,大字徳田１４６２番地１８,,30,366,6430801,,,,,,,2025-04-03,1,,,,,クボケンセツ,0
1048,5180001166124,新規,0,2025-04-03,2025-04-03,株式会社清水,,株式会社,愛知県,名古屋市瑞穂区,牛巻町１０番２６号,,23,108,4670863,,,,,,,2025-04-03,1,,,,,シミズ,0
1053,5180003028231,新規,0,2025-04-03,2025-04-03,合同会社ＬＡＮＤ,,合同会社,愛知県,名古屋市中村区,名駅３丁目１番２号グラン・アベニュー名駅１００８号,,23,105,4500002,,,,,,,2025-04-03,1,,,,,ランド,0
1054,5180003028256,新規,0,2025-04-03,2025-04-03,ＳＥＣＯＮＤ　ＨＯＭＥ合同会社,,合同会社,愛知県,名古屋市中区,栄２丁目アーク白川公園ビルディング本館Ｂ１,,23,106,4600008,,,,,,,2025-04-03,1,,,,,セカンドホーム,0
1055,5180003028272,新規,0,2025-04-03,2025-04-03,ＩＭＳパートナーズ合同会社,,合同会社,愛知県,小牧市,大字池之内３１１４番地１５,,23,219,4850804,,,,,,,2025-04-03,1,,,,,アイエムエスパートナーズ,0
1056,5190001032119,新規,0,2025-04-03,2025-04-03,カワユウ木工株式会社,,株式会社,三重県,多気郡明和町,大字馬之上１２８番地４,,24,442,5150332,,,,,,,2025-04-03,1,,,,,カワユウモッコウ,0
1064,5220001026595,新規,0,2025-04-03,2025-04-03,株式会社シンクロセンス,,株式会社,石川県,金沢市,西念３丁目１８番１１号,,17,201,9200024,,,,,,,2025-04-03,1,,,,,シンクロセンス,0
1067,5220003003989,新規,0,2025-04-03,2025-04-03,ミヤモトサイン合同会社,,合同会社,石川県,金沢市,大浦町リ１８番地１,,17,201,9200205,,,,,,,2025-04-03,1,,,,,ミヤモトサイン,0
1070,5240001064750,新規,0,2025-04-03,2025-04-03,株式会社グッチサービス,,株式会社,広島県,広島市安佐北区,亀山４丁目１９番１１号,,34,106,7310231,,,,,,,2025-04-03,1,,,,,グッチサービス,0
1072,5260003005123,新規,0,2025-04-03,2025-04-03,合同会社メディカルビューティーラウンジ,,合同会社,岡山県,岡山市中区,国富２３４番地８,,33,102,7038236,,,,,,,2025-04-03,1,,,,,メディカルビューティーラウンジ,0
1081,5290801031391,新規,0,2025-04-03,2025-04-03,株式会社Ｏｒｉｄｅｎ,,株式会社,福岡県,北九州市八幡西区,永犬丸２丁目１４番２７－２号,,40,109,8070851,,,,,,,2025-04-03,1,,,,,オリデン,0
1082,5290801031400,新規,0,2025-04-03,2025-04-03,株式会社クエタ企画,,株式会社,福岡県,行橋市,大字矢留１３７２番地２１,,40,213,8240037,,,,,,,2025-04-03,1,,,,,クエタキカク,0
1083,5290801031409,新規,0,2025-04-03,2025-04-03,株式会社佐藤造園,,株式会社,福岡県,遠賀郡水巻町,猪熊６丁目７番５号,,40,382,8070001,,,,,,,2025-04-03,1,,,,,サトウゾウエン,0
1084,5290803005014,新規,0,2025-04-03,2025-04-03,合同会社ポケット,,合同会社,福岡県,北九州市小倉北区,片野４丁目６番６－７０４号,,40,106,8020064,,,,,,,2025-04-03,1,,,,,ポケット,0
1092,5310003004978,新規,0,2025-04-03,2025-04-03,合同会社ＡＣＴ　ＯＮＥ　ＳＴＥＰ,,合同会社,長崎県,長崎市,戸町１丁目５番１－６１２号,,42,201,8500952,,,,,,,2025-04-03,1,,,,,アクトワンステップ,0
1094,5320005010230,新規,0,2025-04-03,2025-04-03,一般社団法人優光,,その他の設立登記法人,大分県,別府市,大字野田１６６５番地の２,,44,202,8740016,,,,,,,2025-04-03,1,,,,,ユウコウ,0
1098,5340003004793,新規,0,2025-04-03,2025-04-03,合同会社健翔,,合同会社,鹿児島県,鹿児島市,西伊敷３丁目２７番１６号,,46,201,8900002,,,,,,,2025-04-03,1,,,,,ケンショウ,0
1099,5340003004802,新規,0,2025-04-03,2025-04-03,合同会社Ｂｒｉｇｈｔ　ａｎｄ　ｈｏｐｅ,,合同会社,鹿児島県,鹿児島市,中央町２４－３７,,46,201,8900053,,,,,,,2025-04-03,1,,,,,ブライトアンドホープ,0
1100,5350003004891,新規,0,2025-04-03,2025-04-03,ＹＯＬＯｓｅｅｋ合同会社,,合同会社,宮崎県,宮崎市,生目台東１丁目２５番地３,,45,201,8800942,,,,,,,2025-04-03,1,,,,,ヨロシーク,0
1102,5370001052404,新規,0,2025-04-03,2025-04-03,株式会社Ｍｏｒｇｅｎ,,株式会社,宮城県,仙台市青葉区,錦ケ丘８丁目１３番地の３３,,04,101,9893123,,,,,,,2025-04-03,1,,,,,モルゲン,0
1103,5370001052437,新規,0,2025-04-03,2025-04-03,株式会社ＧＲＡＴＥＦＵＬ,,株式会社,宮城県,多賀城市,留ケ谷２丁目１１番地１１号,,04,209,9850871,,,,,,,2025-04-03,1,,,,,グレイトフル,0
1106,5390001017941,新規,0,2025-04-03,2025-04-03,株式会社落語器材,,株式会社,山形県,山形市,大字風間１２２７番地,,06,201,9902221,,,,,,,2025-04-03,1,,,,,,0
1111,5420005007951,新規,0,2025-04-03,2025-04-03,一般社団法人六彩デザインルーム,,その他の設立登記法人,青森県,上北郡六戸町,大字犬落瀬字堀切沢６０番地１３００,,02,405,0330071,,,,,,,2025-04-03,1,,,,,ロクサイデザインルーム,0
1114,5430001094051,新規,0,2025-04-03,2025-04-03,ＭＩＴＯ株式会社,,株式会社,北海道,札幌市清田区,里塚緑ケ丘１丁目１０番１１,,01,110,0040805,,,,,,,2025-04-03,1,,,,,ミート,0
1115,5430003017464,新規,0,2025-04-03,2025-04-03,合同会社Ｄｉｇｒｙ,,合同会社,北海道,北広島市,大曲並木２丁目３番地１サーム広島インター１１５,,01,234,0611279,,,,,,,2025-04-03,1,,,,,ディグリー,0
1116,5430003017472,新規,0,2025-04-03,2025-04-03,合同会社住まいの整理堂,,合同会社,北海道,石狩市,花川南八条４丁目４３４番地リベロ１階,,01,235,0613208,,,,,,,2025-04-03,1,,,,,スマイノセイリドウ,0
1117,5450001014577,新規,0,2025-04-03,2025-04-03,株式会社グローバル・ジョイント・コミットメント,,株式会社,北海道,上川郡東川町,東町３丁目１番２０号,,01,458,0711423,,,,,,,2025-04-03,1,,,,,グローバルジョイントコミットメント,0
1118,5460001005988,新規,0,2025-04-03,2025-04-03,株式会社ベルテック,,株式会社,北海道,釧路市,浦見３丁目３番１１号,,01,206,0850835,,,,,,,2025-04-03,1,,,,,ベルテック,0
1121,5460303000860,新規,0,2025-04-03,2025-04-03,合同会社クリーンテック,,合同会社,北海道,網走市,駒場南２丁目１２番１号,,01,211,0930035,,,,,,,2025-04-03,1,,,,,クリーンテック,0
1130,5700150129794,新規,0,2025-04-03,2025-04-03,Ｓ．Ｔ．Ｒ．ＭＯＴＯＲＳ,,外国会社等,千葉県,東金市,二又３３６番地２オフィス７Ａ,,12,213,2830004,スリランカ民主社会主義共和国、キャンディ、ガルヒンナ、モスクロード、Ｎｏ．３０／１Ａ,,,,,,2025-04-03,1,,,,,エステイアールモータース,0
1131,5700150129803,新規,0,2025-04-03,2025-04-03,Ｓ．Ｄ．ＡＵＴＯ　ＭＡＲＴ,,外国会社等,千葉県,大網白里市,細草１４１２番地４Ａ,,12,239,2993211,スリランカ民主社会主義共和国、カドゥガンナワ、イルクワスタ、Ｎｏ．５５０／Ａ,,,,,,2025-04-03,1,,,,,エスデイオートマート,0
1132,5700150129811,新規,0,2025-04-03,2025-04-03,Ｙ　Ｍ　ＴＲＡＤＩＮＧ　ＩＮＴＥＲＮＡＴＩＯＮＡＬ　ＰＶＴ　ＬＴＤ,,外国会社等,神奈川県,愛甲郡愛川町,中津３８２７－１コーポ愛川２０１－Ａ,,14,401,2430303,スリランカ民主社会主義共和国，アクラナ、ブルゴハテンナ、ＮＯ９９－４,,,,,,2025-04-03,1,,,,,ワイエムトレーデイングインターナシヨナルプライベートリミテツド,0
1136,6010001253664,新規,0,2025-04-03,2025-04-03,メックスアーツジャパン株式会社,,株式会社,東京都,千代田区,内神田２丁目１６－８第五氏家ビル３０１,,13,101,1010047,,,,,,,2025-04-03,1,,,,,メックスアーツジャパン,0
1137,6010001253672,新規,0,2025-04-03,2025-04-03,ＷＰＭ株式会社,,株式会社,東京都,中央区,八丁堀３丁目１１番８号,,13,102,1040032,,,,,,,2025-04-03,1,,,,,ダブリューピーエム,0
1138,6010001253722,新規,0,2025-04-03,2025-04-03,Ｂｌａｃｋ　Ｃａｔ株式会社,,株式会社,東京都,中央区,新川２丁目２２－６ＳＪＩビル６Ｆ,,13,102,1040033,,,,,,,2025-04-03,1,,,,,ブラックキャット,0
1139,6010001253739,新規,0,2025-04-03,2025-04-03,株式会社刀キャピタル,,株式会社,東京都,中央区,日本橋兜町９－５兜町平和ダイヤビル３Ｆ,,13,102,1030026,,,,,,,2025-04-03,1,,,,,カタナキャピタル,0
1142,6010003046918,新規,0,2025-04-03,2025-04-03,ＡＭＴコンサルティング合同会社,,合同会社,東京都,千代田区,大手町１丁目１－１大手町パークビルディング,,13,101,1000004,,,,,,,2025-04-03,1,,,,,エイエムティーコンサルティング,0
1143,6010003046934,新規,0,2025-04-03,2025-04-03,Ｗａｖｅ　Ｃｒｅａｔｏｒｓ合同会社,,合同会社,東京都,中央区,銀座３丁目４－１大倉別館５階,,13,102,1040061,,,,,,,2025-04-03,1,,,,,ウェイブクリエイターズ,0
1144,6010005039804,新規,0,2025-04-03,2025-04-03,一般社団法人日本プロ管理職協会,,その他の設立登記法人,東京都,中央区,銀座１丁目１６番７号,,13,102,1040061,,,,,,,2025-04-03,1,,,,,ニホンプロカンリショクキョウカイ,0
1151,6010401189211,新規,0,2025-04-03,2025-04-03,ｗｍ株式会社,,株式会社,東京都,港区,北青山１丁目３－３三橋ビル３階,,13,103,1070061,,,,,,,2025-04-03,1,,,,,ダブルエム,0
1152,6010401189293,新規,0,2025-04-03,2025-04-03,株式会社ＴＡＣＡＵＳＥ,,株式会社,東京都,港区,北青山１丁目３－３三橋ビル３階,,13,103,1070061,,,,,,,2025-04-03,1,,,,,タコーズ,0
1153,6010401189426,新規,0,2025-04-03,2025-04-03,株式会社ＯｎｅＲｉｄｅ,,株式会社,東京都,港区,芝浦４丁目１９番１－２６１８号,,13,103,1080023,,,,,,,2025-04-03,1,,,,,ワンライド,0
1154,6010403034745,新規,0,2025-04-03,2025-04-03,ＫＯＴＯＲＩ合同会社,,合同会社,東京都,港区,南青山３丁目１番３６号青山丸竹ビル６Ｆ,,13,103,1070062,,,,,,,2025-04-03,1,,,,,コトリ,0
1155,6010403034761,新規,0,2025-04-03,2025-04-03,合同会社ＤＯアセット,,合同会社,東京都,港区,麻布狸穴町５１番地１Ｄｉｍｕｓ麻布狸穴町２０６,,13,103,1060042,,,,,,,2025-04-03,1,,,,,ディーオーアセット,0
1156,6010403034803,新規,0,2025-04-03,2025-04-03,ＧＰ合同会社,,合同会社,東京都,港区,北青山１丁目３番１号アールキューブ青山３階,,13,103,1070061,,,,,,,2025-04-03,1,,,,,ジイピイ,0
1157,6010405024199,新規,0,2025-04-03,2025-04-03,医療法人社団ＴＯＫＩ,,その他の設立登記法人,東京都,港区,虎ノ門１丁目３番１号東京虎ノ門グローバルスクエア２階,,13,103,1050001,,,,,,,2025-04-03,1,,,,,トキ,0
1158,6010601066994,新規,0,2025-04-03,2025-04-03,株式会社ＩＦＣ,,株式会社,東京都,墨田区,両国２丁目５番１２号ニュー両国サンハイツ１０１号室,,13,107,1300026,,,,,,,2025-04-03,1,,,,,アイエフシー,0
1159,6010601067043,新規,0,2025-04-03,2025-04-03,１２Ｓｃａｌｅｓ株式会社,,株式会社,東京都,墨田区,両国１丁目１５－８、４階,,13,107,1300026,,,,,,,2025-04-03,1,,,,,ジュウニスケールズ,0
1160,6010603011478,新規,0,2025-04-03,2025-04-03,ＩＳＡ　Ｔｒａｄｅｒｓ合同会社,,合同会社,東京都,江東区,東陽２丁目４番３９号新東陽ビル４階１１号,,13,108,1350016,,,,,,,2025-04-03,1,,,,,アイエスエートレーダーズ,0
1161,6010701047481,新規,0,2025-04-03,2025-04-03,株式会社ｆｉｅｔｏｉｌｅ,,株式会社,東京都,品川区,西五反田１丁目２６番２号五反田サンハイツ９１１,,13,109,1410031,,,,,,,2025-04-03,1,,,,,フィエトワール,0
1167,6010903009809,新規,0,2025-04-03,2025-04-03,合同会社テネットビジョン,,合同会社,東京都,世田谷区,南烏山１丁目２３番９号,,13,112,1570062,,,,,,,2025-04-03,1,,,,,テネットビジョン,0
1170,6011001168670,新規,0,2025-04-03,2025-04-03,Ｔｒａｖｅｌｉａｎ株式会社,,株式会社,東京都,渋谷区,恵比寿西２丁目４－８ウィンド恵比寿ビル８Ｆ,,13,113,1500021,,,,,,,2025-04-03,1,,,,,トラベリアン,0
1171,6011003021332,新規,0,2025-04-03,2025-04-03,合同会社ＡＬＥＴＨＥＩＡ,,合同会社,東京都,渋谷区,恵比寿西１丁目１５番１０号第六横芝ビルＢ１,,13,113,1500021,,,,,,,2025-04-03,1,,,,,アレシア,0
1172,6011003021340,新規,0,2025-04-03,2025-04-03,ＡｉｒＴｒｕｎｋ　Ｊａｐａｎ　Ｈｏｌｄｉｎｇ６合同会社,,合同会社,東京都,渋谷区,円山町３番６号Ｅ・スペースタワー,,13,113,1500044,,,,,,,2025-04-03,1,,,,,エアトランクジャパンホールディングシックス,0
1178,6011201026257,新規,0,2025-04-03,2025-04-03,株式会社アウグス,,株式会社,東京都,中野区,大和町２丁目７番３－１０１号,,13,114,1650034,,,,,,,2025-04-03,1,,,,,アウグス,0
1179,6011401026965,新規,0,2025-04-03,2025-04-03,株式会社ＢＯＮＵ,,株式会社,東京都,板橋区,大山町６番９号２Ｆ,,13,119,1730023,,,,,,,2025-04-03,1,,,,,ボヌ,0
1180,6011401026973,新規,0,2025-04-03,2025-04-03,株式会社ＳＯＷ,,株式会社,東京都,板橋区,成増２丁目３６番３５－４０９号,,13,119,1750094,,,,,,,2025-04-03,1,,,,,ソウ,0
1181,6011503006469,新規,0,2025-04-03,2025-04-03,合同会社ＢＥＳＴ　ＯＮＥ,,合同会社,東京都,荒川区,荒川３丁目２４番４号浜野ビル３０２－２号,,13,118,1160002,,,,,,,2025-04-03,1,,,,,ベストワン,0
1182,6011601028539,新規,0,2025-04-03,2025-04-03,株式会社Ｊｅｃｏ,,株式会社,東京都,練馬区,練馬１丁目２３番９号ＳＯＮＯＲＡ１０５,,13,120,1760001,,,,,,,2025-04-03,1,,,,,ジェコ,0
1183,6011701028216,新規,0,2025-04-03,2025-04-03,株式会社Ｓｐｒｏｕｔ．Ｈ＆Ｅ,,株式会社,東京都,江戸川区,東葛西１丁目４５－１５ベイサイド栄華１０１,,13,123,1340084,,,,,,,2025-04-03,1,,,,,スプラウトエイチアンドイー,0
1185,6012401042936,新規,0,2025-04-03,2025-04-03,株式会社リアルター・ワン,,株式会社,東京都,多摩市,和田３９７番地１,,13,224,2060001,,,,,,,2025-04-03,1,,,,,リアルターワン,0
1193,6020003028171,新規,0,2025-04-03,2025-04-03,合同会社Ｈ＆Ｎホールディングス,,合同会社,神奈川県,横浜市中区,不老町３丁目１４－２－７０２,,14,104,2310032,,,,,,,2025-04-03,1,,,,,エイチアンドエヌホールディングス,0
1197,6021001084842,新規,0,2025-04-03,2025-04-03,株式会社アラキ,,株式会社,神奈川県,藤沢市,辻堂元町４丁目１１番３号,,14,205,2510043,,,,,,,2025-04-03,1,,,,,アラキ,0
1200,6021003015804,新規,0,2025-04-03,2025-04-03,合同会社誉工藝社,,合同会社,神奈川県,相模原市南区,新戸２５０３番地１,,14,153,2520326,,,,,,,2025-04-03,1,,,,,タカコウゲイシャ,0
1207,6030001165692,新規,0,2025-04-03,2025-04-03,株式会社ＳＡＲＡＩシステム研究所,,株式会社,埼玉県,所沢市,大字下安松１４８２番地の７,,11,208,3590024,,,,,,,2025-04-03,1,,,,,サライシステムケンキュウジョ,0
1212,6030003026463,新規,0,2025-04-03,2025-04-03,合同会社美伸商事,,合同会社,埼玉県,本庄市,児玉町児玉１０２０－１,,11,211,3670212,,,,,,,2025-04-03,1,,,,,ビシンショウジ,0
1215,6040001138078,新規,0,2025-04-03,2025-04-03,株式会社ＭＡＫＥ,,株式会社,千葉県,船橋市,二和東６丁目１６番地９みさと店舗１０２,,12,204,2740805,,,,,,,2025-04-03,1,,,,,メイク,0
1218,6040003027196,新規,0,2025-04-03,2025-04-03,Ｂｅ　Ｍｏｒｅ合同会社,,合同会社,千葉県,我孫子市,寿２丁目７－２８－２号,,12,222,2701152,,,,,,,2025-04-03,1,,,,,ビーモア,0
1221,6050001056444,新規,0,2025-04-03,2025-04-03,株式会社髪水,,株式会社,茨城県,水戸市,元吉田町１６３０番地の２,,08,201,3100836,,,,,,,2025-04-03,1,,,,,カミスイ,0
1227,6080001026832,新規,0,2025-04-03,2025-04-03,株式会社Ｇ‐Ｐｉｎｅ,,株式会社,静岡県,島田市,東光寺１番地の４,,22,209,4270003,,,,,,,2025-04-03,1,,,,,ジーパイン,0
1229,6080401027835,新規,0,2025-04-03,2025-04-03,ＶＥＲＳＩＯＮＸ株式会社,,株式会社,静岡県,浜松市中央区,板屋町１０２－１５河合ビルＤｅｘｉ板屋,,22,138,4300928,,,,,,,2025-04-03,1,,,,,バージョンエックス,0
1230,6080401027843,新規,0,2025-04-03,2025-04-03,株式会社トラスデザイン,,株式会社,静岡県,浜松市中央区,鹿谷町１２番１０号,,22,138,4328014,,,,,,,2025-04-03,1,,,,,トラスデザイン,0
1231,6080403005236,新規,0,2025-04-03,2025-04-03,ｂｏｄｈｉ　ｔｅａ＆ｃｕｌｔｕｒｅ合同会社,,合同会社,静岡県,袋井市,豊沢５２１－１,,22,216,4370032,,,,,,,2025-04-03,1,,,,,ボーディーティーアンドカルチャー,0
1233,6100001038453,新規,0,2025-04-03,2025-04-03,株式会社ＧＲＥＥＮＤＡＹ,,株式会社,長野県,長野市,西三才２４８番地７３,,20,201,3810083,,,,,,,2025-04-03,1,,,,,グリーンデイ,0
1247,6120001274039,新規,0,2025-04-03,2025-04-03,光信株式会社,,株式会社,大阪府,大阪市西区,立売堀４丁目３番１６号５階５０２号室,,27,106,5500012,,,,,,,2025-04-03,1,,,,,コウシン,0
1248,6120001274146,新規,0,2025-04-03,2025-04-03,株式会社リトルアップ,,株式会社,大阪府,大阪市北区,梅田１丁目２番２号大阪駅前第２ビル１２－１２,,27,127,5300001,,,,,,,2025-04-03,1,,,,,リトルアップ,0
1249,6120001274154,新規,0,2025-04-03,2025-04-03,ＢＩＷＡＫＯ　ＨＯＵＳＥ株式会社,,株式会社,大阪府,大阪市福島区,海老江６丁目２番７号大同ビル４Ｆ,,27,103,5530001,,,,,,,2025-04-03,1,,,,,ビワコハウス,0
1250,6120001274162,新規,0,2025-04-03,2025-04-03,株式会社サポートハウス,,株式会社,大阪府,枚方市,三矢町２－５コマサビル４Ｆ,,27,210,5730051,,,,,,,2025-04-03,1,,,,,サポートハウス,0
1251,6120001274170,新規,0,2025-04-03,2025-04-03,大阪誌千株式会社,,株式会社,大阪府,大阪市東淀川区,豊里２丁目１１番５８号木元ハイツ３０５号室,,27,114,5330013,,,,,,,2025-04-03,1,,,,,オオサカシセン,0
1252,6120001274187,新規,0,2025-04-03,2025-04-03,飛飛株式会社,,株式会社,大阪府,大阪市住之江区,安立２丁目１０番１４号三坂ビル１０２号室,,27,125,5590003,,,,,,,2025-04-03,1,,,,,ヒヒ,0
1256,6120005024877,新規,0,2025-04-03,2025-04-03,税理士法人森下会計事務所,,その他の設立登記法人,大阪府,大阪市中央区,淡路町１丁目６番９号ＤＰスクエア堺筋本町１０階,,27,128,5410047,,,,,,,2025-04-03,1,,,,,モリシタカイケイジムショ,0
1263,6122001019308,新規,0,2025-04-03,2025-04-03,株式会社司ハウス,,株式会社,大阪府,八尾市,垣内１丁目１６６番地,,27,212,5810881,,,,,,,2025-04-03,1,,,,,ツカサハウス,0
1269,6130001079313,新規,0,2025-04-03,2025-04-03,株式会社Ｌｉｎｋ,,株式会社,京都府,京都市下京区,新町通花屋町上る艮町８４８,,26,106,6008304,,,,,,,2025-04-03,1,,,,,リンク,0
1270,6130001079354,新規,0,2025-04-03,2025-04-03,株式会社桔梗屋,,株式会社,京都府,京都市中京区,油小路通丸太町下る大文字町４３番地,,26,104,6040071,,,,,,,2025-04-03,1,,,,,キキョウヤ,0
1271,6130003010325,新規,0,2025-04-03,2025-04-03,キャンベルスズキ合同会社,,合同会社,京都府,京都市左京区,北白川仕伏町５－６,,26,103,6068283,,,,,,,2025-04-03,1,,,,,キャンベルスズキ,0
1272,6130003010333,新規,0,2025-04-03,2025-04-03,合同会社ＡＳＭＯ,,合同会社,京都府,京都市伏見区,三栖町４丁目８４６番地,,26,109,6128233,,,,,,,2025-04-03,1,,,,,アスモ,0
1273,6130005017327,新規,0,2025-04-03,2025-04-03,一般社団法人Ｋｂ‐ＳＴこども育み基金,,その他の設立登記法人,京都府,京都市下京区,松原通東洞院東入本燈籠町２２番地２,,26,106,6008086,,,,,,,2025-04-03,1,,,,,ケービーエスティコドモハグクミキキン,0
1276,6140001137986,新規,0,2025-04-03,2025-04-03,ＳＹ　ＴＲＡＤＩＮＧ株式会社,,株式会社,兵庫県,神戸市西区,大津和３丁目１番１０号４２５,,28,111,6512112,,,,,,,2025-04-03,1,,,,,エスワイトレーディング,0
1277,6140001138084,新規,0,2025-04-03,2025-04-03,株式会社まる,,株式会社,兵庫県,神戸市東灘区,深江南町１丁目８番３１－３０２号,,28,101,6580022,,,,,,,2025-04-03,1,,,,,マル,0
1279,6140005027432,新規,0,2025-04-03,2025-04-03,一般社団法人大広ライスセンター,,その他の設立登記法人,兵庫県,佐用郡佐用町,末廣１６２８番５,,28,501,6795147,,,,,,,2025-04-03,1,,,,,オオヒロライスセンター,0
1280,6140005027440,新規,0,2025-04-03,2025-04-03,医療法人社団博陽会,,その他の設立登記法人,兵庫県,西宮市,柳本町８－３６,,28,204,6620866,,,,,,,2025-04-03,1,,,,,ハクヨウカイ,0
1281,6150003003541,新規,0,2025-04-03,2025-04-03,合同会社せんていや,,合同会社,奈良県,奈良市,四条大路５丁目２番１８－３号,,29,201,6308014,,,,,,,2025-04-03,1,,,,,センテイヤ,0
1282,6150005009685,新規,0,2025-04-03,2025-04-03,一般社団法人奈良県設備設計事務所協会,,その他の設立登記法人,奈良県,奈良市,西ノ京町１０１番地の１（株）桝谷設計内,,29,201,6308042,,,,,,,2025-04-03,1,,,,,ナラケンセツビセッケイジムショキョウカイ,0
1283,6170001018548,新規,0,2025-04-03,2025-04-03,株式会社桃山オート,,株式会社,和歌山県,紀の川市,桃山町元６９番地１,,30,208,6496122,,,,,,,2025-04-03,1,,,,,モモヤマオート,0
1285,6180001166156,新規,0,2025-04-03,2025-04-03,株式会社笑也,,株式会社,愛知県,名古屋市千種区,千種１丁目３０番２号,,23,101,4640858,,,,,,,2025-04-03,1,,,,,ショウヤ,0
1286,6180001166164,新規,0,2025-04-03,2025-04-03,ＨｉＢｉＫｉ株式会社,,株式会社,愛知県,名古屋市西区,浄心本通３丁目４３番地の５,,23,104,4510073,,,,,,,2025-04-03,1,,,,,ヒビキ,0
1287,6180001166180,新規,0,2025-04-03,2025-04-03,株式会社東海ＡＲＴ,,株式会社,愛知県,名古屋市中村区,名駅南３丁目９番５号,,23,105,4500003,,,,,,,2025-04-03,1,,,,,トウカイアート,0
1288,6180001166189,新規,0,2025-04-03,2025-04-03,レーヴ株式会社,,株式会社,愛知県,名古屋市緑区,浦里１丁目８４番地の１,,23,114,4580847,,,,,,,2025-04-03,1,,,,,レーヴ,0
1289,6180001166255,新規,0,2025-04-03,2025-04-03,株式会社かわだ工芸,,株式会社,愛知県,名古屋市守山区,町北１１番地５９・Ｄ号室,,23,113,4630074,,,,,,,2025-04-03,1,,,,,カワダコウゲイ,0
1291,6180003028239,新規,0,2025-04-03,2025-04-03,合同会社あいの手,,合同会社,愛知県,海部郡大治町,大字中島字大門先１１６番地の２,,23,424,4901145,,,,,,,2025-04-03,1,,,,,アイノテ,0
1299,6190001032126,新規,0,2025-04-03,2025-04-03,株式会社あおぞら,,株式会社,三重県,津市,上弁財町１２番２３号,,24,201,5140806,,,,,,,2025-04-03,1,,,,,アオゾラ,0
1303,6220001026586,新規,0,2025-04-03,2025-04-03,ユニオン株式会社,,株式会社,石川県,金沢市,新神田１丁目９番１号,,17,201,9218013,,,,,,,2025-04-03,1,,,,,ユニオン,0
1304,6220001026594,新規,0,2025-04-03,2025-04-03,株式会社エムツーグローバル,,株式会社,石川県,白山市,宮丸町１６０番地,,17,210,9240033,,,,,,,2025-04-03,1,,,,,エムツーグローバル,0
1305,6220003003988,新規,0,2025-04-03,2025-04-03,合同会社ｃｌａｓｓ‐ｓ‐ｓｕｐｐｏｒｔ,,合同会社,石川県,金沢市,大豆田本町甲２４９番地,,17,201,9200047,,,,,,,2025-04-03,1,,,,,クラスエスサポート,0
1309,6240001064758,新規,0,2025-04-03,2025-04-03,株式会社原田技建,,株式会社,広島県,広島市南区,宇品神田５丁目２５－１０－４０２,,34,103,7340004,,,,,,,2025-04-03,1,,,,,ハラダギケン,0
1314,6240003007137,新規,0,2025-04-03,2025-04-03,合同会社ＭＤＭ,,合同会社,広島県,安芸高田市,美土里町北２７６８番地１,,34,214,7310701,,,,,,,2025-04-03,1,,,,,エムディエム,0
1316,6250001021072,新規,0,2025-04-03,2025-04-03,岩国水処理サービス株式会社,,株式会社,山口県,岩国市,今津町１丁目１２番６号トレインビュー２０２号,,35,208,7400017,,,,,,,2025-04-03,1,,,,,イワクニミズショリサービス,0
1321,6290801031390,新規,0,2025-04-03,2025-04-03,ＹＨ株式会社,,株式会社,福岡県,宮若市,長井鶴４６７番地の６,,40,226,8230012,,,,,,,2025-04-03,1,,,,,ワイエイチ,0
1324,6290803005013,新規,0,2025-04-03,2025-04-03,合同会社ミナミ,,合同会社,福岡県,北九州市小倉北区,下富野２丁目１－２７,,40,106,8020023,,,,,,,2025-04-03,1,,,,,ミナミ,0
1331,6320001021024,新規,0,2025-04-03,2025-04-03,冨永コンサルタント株式会社,,株式会社,大分県,中津市,１５４３番地,,44,203,8710099,,,,,,,2025-04-03,1,,,,,トミナガコンサルタント,0
1333,6320003004613,新規,0,2025-04-03,2025-04-03,合名会社ＩＷＡＭＯＴＯ,,合名会社,大分県,大分市,大字横尾３８６０番地,,44,201,8700126,,,,,,,2025-04-03,1,,,,,イワモト,0
1335,6340001027218,新規,0,2025-04-03,2025-04-03,株式会社ＮＥＸｉＡホールディングス,,株式会社,鹿児島県,鹿児島市,中央町２番５１号ＴＹビル３階,,46,201,8900053,,,,,,,2025-04-03,1,,,,,ネクシアホールディングス,0
1336,6340001027250,新規,0,2025-04-03,2025-04-03,株式会社Ｊｏｙ　Ｌｉｆｅ,,株式会社,鹿児島県,鹿児島市,吉野２丁目３７番３号,,46,201,8920877,,,,,,,2025-04-03,1,,,,,ジョイライフ,0
1337,6340003004792,新規,0,2025-04-03,2025-04-03,ｓｔａｎｄｕｐ合同会社,,合同会社,鹿児島県,鹿児島市,西谷山４丁目２０番２号,,46,201,8910117,,,,,,,2025-04-03,1,,,,,スタンドアップ,0
1338,6340003004801,新規,0,2025-04-03,2025-04-03,Ｂｌｕｅ合同会社,,合同会社,鹿児島県,霧島市,隼人町東郷１４０番地１１,,46,218,8995115,,,,,,,2025-04-03,1,,,,,ブルー,0
1341,6360001034988,新規,0,2025-04-03,2025-04-03,株式会社ホクセイコウギョウ,,株式会社,沖縄県,浦添市,西原４丁目５番６－１０２号,,47,208,9012101,,,,,,,2025-04-03,1,,,,,ホクセイコウギョウ,0
1343,6360005007197,新規,0,2025-04-03,2025-04-03,一般社団法人石垣島レンタカー協力会,,その他の設立登記法人,沖縄県,石垣市,字白保７８１番地１,,47,207,9070242,,,,,,,2025-04-03,1,,,,,イシガキジマレンタカーキョウリョクカイ,0
1345,6370001052428,新規,0,2025-04-03,2025-04-03,コウヨウ電気株式会社,,株式会社,宮城県,仙台市泉区,松森字内町５番地の３,,04,105,9813111,,,,,,,2025-04-03,1,,,,,コウヨウデンキ,0
1351,6420001019082,新規,0,2025-04-03,2025-04-03,株式会社櫻井建設工業,,株式会社,青森県,北津軽郡鶴田町,大字木筒字中柳川３３番地５,,02,384,0383531,,,,,,,2025-04-03,1,,,,,サクライケンセツコウギョウ,0
1355,6430001094067,新規,0,2025-04-03,2025-04-03,株式会社ＳＨＣ,,株式会社,北海道,札幌市清田区,真栄一条２丁目２３番２６号,,01,110,0040831,,,,,,,2025-04-03,1,,,,,エスエッチシー,0
1356,6430001094100,新規,0,2025-04-03,2025-04-03,株式会社ＯＨＡ,,株式会社,北海道,札幌市西区,琴似一条５丁目４－１８細川ビル３Ｆ,,01,107,0630811,,,,,,,2025-04-03,1,,,,,オーエイチエー,0
1357,6430003017463,新規,0,2025-04-03,2025-04-03,合同会社ＡＫＫ,,合同会社,北海道,札幌市中央区,南八条西１３丁目４－７－４０５,,01,101,0640808,,,,,,,2025-04-03,1,,,,,エイケイケイ,0
1365,6500003003464,新規,0,2025-04-03,2025-04-03,合同会社ＮＥＲＶ,,合同会社,愛媛県,伊予郡砥部町,宮内１１１９番地,,38,402,7912120,,,,,,,2025-04-03,1,,,,,ネルフ,0
1366,6700150129793,新規,0,2025-04-03,2025-04-03,Ａ．Ｒ．ＥＸＰＯＲＴＳ＆ＩＭＰＯＲＴＳ,,外国会社等,千葉県,山武市,椎崎１００２番地３Ａ,,12,237,2891205,スリランカ民主社会主義共和国、カラゲディヘナ、ティハリヤ、ヒジラマワタ、Ｎｏ．４８６／１,,,,,,2025-04-03,1,,,,,エーアールエクスポーツアンドインポーツ,0
1367,6700150129802,新規,0,2025-04-03,2025-04-03,Ｓ．Ｄ．ＡＵＴＯ　ＬＡＮＫＡ,,外国会社等,千葉県,大網白里市,細草１４１２番地５Ａ,,12,239,2993211,スリランカ民主社会主義共和国、パハラカドゥガンナワ、クルクタラ、Ｎｏ．２１１,,,,,,2025-04-03,1,,,,,エスデイオートランカ,0
1368,6700150129810,新規,0,2025-04-03,2025-04-03,ＺＡＮＨＡ　ＴＲＡＤＩＮＧ　ＰＶＴ　ＬＴＤ,,外国会社等,神奈川県,厚木市,金田７８４－１５金田貸家－１０１,,14,212,2430807,スリランカ民主社会主義共和国，キラガマ，プージャピティヤＮＯ．１９２－１,,,,,,2025-04-03,1,,,,,ザンハトレーデイングプライベートリミテツド,0
1369,6700150129819,新規,0,2025-04-03,2025-04-03,Ｚ．Ｒ．ＴＲＡＤＩＮＧ,,外国会社等,茨城県,日立市,金沢町４丁目６０オフィス５Ａ,,08,202,3160015,スリランカ民主社会主義共和国、キャンディ、カトゥガストタ、ラナワナロード、Ｎｏ．１０／Ａ,,,,,,2025-04-03,1,,,,,ゼツトアールトレーデイング,0
1371,7010001253523,新規,0,2025-04-03,2025-04-03,Ａｄｅｌｉｅ株式会社,,株式会社,東京都,中央区,銀座１丁目１２番４号Ｎ＆ＥＢＬＤ．６Ｆ,,13,102,1040061,,,,,,,2025-04-03,1,,,,,アデリー,0
1372,7010001253754,新規,0,2025-04-03,2025-04-03,ＯＳＥ株式会社,,株式会社,東京都,千代田区,外神田３丁目９番３号,,13,101,1010021,,,,,,,2025-04-03,1,,,,,オーエスイー,0
1373,7010001253770,新規,0,2025-04-03,2025-04-03,株式会社国翔グループ,,株式会社,東京都,中央区,銀座１丁目１２番４号Ｎ＆Ｅ・ＢＬＤ．７Ｆ,,13,102,1040061,,,,,,,2025-04-03,1,,,,,コクショウグループ,0
1374,7010001253779,新規,0,2025-04-03,2025-04-03,株式会社ＡＧＳキャピタルパートナーズ,,株式会社,東京都,千代田区,大手町１丁目９番５号大手町フィナンシャルシティノースタワー,,13,101,1000004,,,,,,,2025-04-03,1,,,,,エイジーエスキャピタルパートナーズ,0
1375,7010001253787,新規,0,2025-04-03,2025-04-03,叡泰投資株式会社,,株式会社,東京都,中央区,日本橋室町１丁目１１番１２号日本橋水野ビル７階,,13,102,1030022,,,,,,,2025-04-03,1,,,,,エイタイトウシ,0
1376,7010001253820,新規,0,2025-04-03,2025-04-03,ＣＪ　ＬＩＮＫ株式会社,,株式会社,東京都,中央区,東日本橋３丁目６番２０－１３０３号,,13,102,1030004,,,,,,,2025-04-03,1,,,,,シージェーリンク,0
1377,7010003046933,新規,0,2025-04-03,2025-04-03,合同会社翼パワー,,合同会社,東京都,中央区,日本橋３丁目２－１４新槇町ビル別館第一１階,,13,102,1030027,,,,,,,2025-04-03,1,,,,,ツバサパワー,0
1378,7010003046941,新規,0,2025-04-03,2025-04-03,合同会社センス,,合同会社,東京都,中央区,銀座８丁目１８番１５号大川ビル２階,,13,102,1040061,,,,,,,2025-04-03,1,,,,,,0
1379,7010101016598,新規,0,2025-04-03,2025-04-03,アーチ株式会社,,株式会社,東京都,八王子市,元八王子町１丁目４９９番地１２,,13,201,1930826,,,,,,,2025-04-03,1,,,,,アーチ,0
1380,7010103002547,新規,0,2025-04-03,2025-04-03,合同会社わしがす総合研究所,,合同会社,東京都,八王子市,別所１丁目６８番地７,,13,201,1920363,,,,,,,2025-04-03,1,,,,,ワシガスソウゴウケンキュウジョ,0
1388,7010401189284,新規,0,2025-04-03,2025-04-03,株式会社Ｍｏｈｏ　Ｊａｐａｎ,,株式会社,東京都,港区,六本木７丁目７番７号Ｔｒｉ－ＳｅｖｅｎＲｏｐｐｏｎｇｉ８階,,13,103,1060032,,,,,,,2025-04-03,1,,,,,モホジャパン,0
1389,7010401189342,新規,0,2025-04-03,2025-04-03,シャインアーチ株式会社,,株式会社,東京都,港区,新橋５丁目１４番１０号,,13,103,1050004,,,,,,,2025-04-03,1,,,,,シャインアーチ,0
1391,7010403034752,新規,0,2025-04-03,2025-04-03,永井興業合同会社,,合同会社,東京都,港区,白金６丁目１０－２,,13,103,1080072,,,,,,,2025-04-03,1,,,,,ナガイコウギョウ,0
1393,7010703007648,新規,0,2025-04-03,2025-04-03,Ａｌａｔａｋａ合同会社,,合同会社,東京都,品川区,西五反田２丁目９－７ドルミ五反田アンメゾン４０７号,,13,109,1410031,,,,,,,2025-04-03,1,,,,,アラタカ,0
1396,7010901057049,新規,0,2025-04-03,2025-04-03,株式会社オルドメイト,,株式会社,東京都,世田谷区,池尻２丁目９－８エンドウビル２０１,,13,112,1540001,,,,,,,2025-04-03,1,,,,,オルドメイト,0
1397,7010901057107,新規,0,2025-04-03,2025-04-03,株式会社ＡＸＣＩＳ,,株式会社,東京都,世田谷区,南烏山６丁目２９番３号快晴館２０１,,13,112,1570062,,,,,,,2025-04-03,1,,,,,アクシス,0
1398,7010901057115,新規,0,2025-04-03,2025-04-03,株式会社Ｇｌｉｍｍｅｒ,,株式会社,東京都,世田谷区,下馬１丁目５番３号ベントーレ・三宿３０４,,13,112,1540002,,,,,,,2025-04-03,1,,,,,グリマー,0
1402,7011001168645,新規,0,2025-04-03,2025-04-03,株式会社ＡｌｇｏＸ,,株式会社,東京都,渋谷区,道玄坂１丁目１０番８号渋谷道玄坂東急ビル２Ｆ－Ｃ,,13,113,1500043,,,,,,,2025-04-03,1,,,,,アルゴエックス,0
1403,7011001168728,新規,0,2025-04-03,2025-04-03,株式会社ＮＩＤＡ,,株式会社,東京都,渋谷区,道玄坂１丁目１０－８渋谷道玄坂東急ビル２Ｆ－Ｃ,,13,113,1500043,,,,,,,2025-04-03,1,,,,,ニダ,0
1404,7011001168744,新規,0,2025-04-03,2025-04-03,株式会社Ｈａｌｃａ,,株式会社,東京都,目黒区,下目黒１丁目１番１４号コノトラビル７Ｆ,,13,110,1530064,,,,,,,2025-04-03,1,,,,,ハルカ,0
1407,7011201026256,新規,0,2025-04-03,2025-04-03,株式会社カラフル,,株式会社,東京都,中野区,中野２丁目２４番１１号住友不動産中野駅前ビル,,13,114,1640001,,,,,,,2025-04-03,1,,,,,カラフル,0
1411,7011601028538,新規,0,2025-04-03,2025-04-03,株式会社勝又総合研究所,,株式会社,東京都,練馬区,関町北５丁目１６番３６－７０９号,,13,120,1770051,,,,,,,2025-04-03,1,,,,,カツマタソウゴウケンキュウジョ,0
1412,7011701028223,新規,0,2025-04-03,2025-04-03,株式会社ニュースター,,株式会社,東京都,江戸川区,東小松川４丁目２１番１３号,,13,123,1320033,,,,,,,2025-04-03,1,,,,,ニュースター,0
1414,7011801045878,新規,0,2025-04-03,2025-04-03,よしや株式会社,,株式会社,東京都,葛飾区,西新小岩５丁目２５番２号,,13,122,1240025,,,,,,,2025-04-03,1,,,,,ヨシヤ,0
1415,7011801045886,新規,0,2025-04-03,2025-04-03,株式会社エコメイク,,株式会社,東京都,足立区,江北２丁目２８番１８号,,13,121,1230872,,,,,,,2025-04-03,1,,,,,エコメイク,0
1417,7012401042935,新規,0,2025-04-03,2025-04-03,ＷＪ　Ｂｒｏｔｈｅｒｓ株式会社,,株式会社,東京都,府中市,白糸台３丁目３１番地の６Ｃ－２１０,,13,206,1830011,,,,,,,2025-04-03,1,,,,,ダブリュージェイブラザーズ,0
1420,7013101009670,新規,0,2025-04-03,2025-04-03,ＮｅｘｔＣａｒｔ株式会社,,株式会社,東京都,福生市,北田園２丁目２６－２５,,13,218,1970005,,,,,,,2025-04-03,1,,,,,ネクストカート,0
1422,7013301054046,新規,0,2025-04-03,2025-04-03,浦翔テクノロジー株式会社,,株式会社,東京都,豊島区,西巣鴨２丁目６－１２－５１１室,,13,116,1700001,,,,,,,2025-04-03,1,,,,,ウラショウテクノロジー,0
1426,7020003028220,新規,0,2025-04-03,2025-04-03,合同会社ＫＪ企画,,合同会社,神奈川県,横浜市都筑区,南山田２丁目１－２－４１０,,14,118,2240029,,,,,,,2025-04-03,1,,,,,ケイジェイキカク,0
1427,7020005016768,新規,0,2025-04-03,2025-04-03,行政書士法人ミナト,,その他の設立登記法人,神奈川県,横浜市西区,高島２丁目１０－１３横浜東口ビル４０２－Ａ号,,14,103,2200011,,,,,,,2025-04-03,1,,,,,ミナト,0
1429,7021001084866,新規,0,2025-04-03,2025-04-03,株式会社渚ホーム,,株式会社,神奈川県,横須賀市,森崎１丁目１１番１８号,,14,201,2380023,,,,,,,2025-04-03,1,,,,,ナギサホーム,0
1439,7030001165683,新規,0,2025-04-03,2025-04-03,株式会社アペリオ,,株式会社,埼玉県,草加市,谷塚町１４８８－１１ＧＲＡＣＥＡＢＯＤＥ１０１,,11,221,3400023,,,,,,,2025-04-03,1,,,,,アペリオ,0
1440,7030001165691,新規,0,2025-04-03,2025-04-03,株式会社Ｖｅｉｌｅｄ,,株式会社,埼玉県,さいたま市岩槻区,大字釣上新田８９３番地６,,11,110,3390025,,,,,,,2025-04-03,1,,,,,ヴェイルド,0
1441,7030001165733,新規,0,2025-04-03,2025-04-03,株式会社リレイズ,,株式会社,埼玉県,戸田市,上戸田５丁目１９番６号,,11,224,3350022,,,,,,,2025-04-03,1,,,,,リレイズ,0
1444,7040001138077,新規,0,2025-04-03,2025-04-03,株式会社ウィード,,株式会社,千葉県,長生郡睦沢町,妙楽寺６１２番地,,12,422,2994424,,,,,,,2025-04-03,1,,,,,ウィード,0
1445,7040003027245,新規,0,2025-04-03,2025-04-03,合同会社フェリーチェ,,合同会社,千葉県,香取郡神崎町,神崎神宿６８０番地,,12,342,2890226,,,,,,,2025-04-03,1,,,,,フェリーチェ,0
1446,7050001056435,新規,0,2025-04-03,2025-04-03,ファウンド株式会社,,株式会社,茨城県,那珂市,横堀２０５４番地６,,08,226,3110103,,,,,,,2025-04-03,1,,,,,ファウンド,0
1450,7080401027826,新規,0,2025-04-03,2025-04-03,株式会社ＢＥＮＩＲ,,株式会社,静岡県,浜松市中央区,入野町６０２０番地,,22,138,4328061,,,,,,,2025-04-03,1,,,,,ベニル,0
1451,7080401027834,新規,0,2025-04-03,2025-04-03,株式会社ＯＷＬ,,株式会社,静岡県,浜松市中央区,三組町４０番地の１ナイスアーバン秋葉坂５０１,,22,138,4328017,,,,,,,2025-04-03,1,,,,,アウル,0
1452,7080401027842,新規,0,2025-04-03,2025-04-03,株式会社しずおか未来,,株式会社,静岡県,浜松市浜名区,中瀬７１８５－１５,,22,139,4340012,,,,,,,2025-04-03,1,,,,,シズオカミライ,0
1455,7080403005235,新規,0,2025-04-03,2025-04-03,Ｍ．Ｅ．Ｓ合同会社,,合同会社,静岡県,浜松市中央区,舞阪町弁天島３６３２番地の３,,22,138,4310214,,,,,,,2025-04-03,1,,,,,エムイーエス,0
1456,7100001038460,新規,0,2025-04-03,2025-04-03,山崎自動車株式会社,00138541,株式会社,長野県,埴科郡坂城町,大字南条２５９番地,,20,521,3890603,,,,,,,2025-04-03,1,,,,,ヤマザキジドウシャ,0
1457,7100003008065,新規,0,2025-04-03,2025-04-03,合同会社ＡｔｅｌｉｅｒＵｎＤｅｕｘ,,合同会社,長野県,松本市,桐１丁目８番８－３号,,20,202,3900871,,,,,,,2025-04-03,1,,,,,アトリエアンドゥ,0
1458,7110001039152,新規,0,2025-04-03,2025-04-03,心農場株式会社,,株式会社,新潟県,刈羽郡刈羽村,大字刈羽３６６６番地２,,15,504,9450307,,,,,,,2025-04-03,1,,,,,シンノウジョウ,0
1459,7110001039169,新規,0,2025-04-03,2025-04-03,ＯＫＡＭＵＲＡ　ＢＡＳＥ株式会社,,株式会社,新潟県,新潟市西区,上新栄町３丁目７番８号,,15,107,9502076,,,,,,,2025-04-03,1,,,,,オカムラベース,0
1460,7110001039177,新規,0,2025-04-03,2025-04-03,株式会社やまや,,株式会社,新潟県,新潟市南区,月潟４４６番地４,,15,106,9501304,,,,,,,2025-04-03,1,,,,,ヤマヤ,0
1474,7120001274104,新規,0,2025-04-03,2025-04-03,一寧株式会社,,株式会社,大阪府,大阪市中央区,島之内２丁目１１－２７－８０１号,,27,128,5420082,,,,,,,2025-04-03,1,,,,,イチネイ,0
1475,7120001274153,新規,0,2025-04-03,2025-04-03,株式会社欒葉和歌,00138554,株式会社,大阪府,大阪市北区,天満２丁目９－１７天満双葉ビル４０４号室,,27,127,5300043,,,,,,,2025-04-03,1,,,,,ランヨウワカ,0
1476,7120001274203,新規,0,2025-04-03,2025-04-03,株式会社サンスキー,,株式会社,大阪府,大阪市北区,大淀南３丁目１３番１１－３０１号,,27,127,5310075,,,,,,,2025-04-03,1,,,,,サンスキー,0
1481,7120003029002,新規,0,2025-04-03,2025-04-03,ＫＫ合同会社,,合同会社,大阪府,門真市,上野口町１８－４－１,,27,223,5710070,,,,,,,2025-04-03,1,,,,,ケーケー,0
1482,7120005024851,新規,0,2025-04-03,2025-04-03,一般社団法人大阪タッチラグビー普及協議会,,その他の設立登記法人,大阪府,大阪市西区,九条南１丁目５番１５号,,27,106,5500025,,,,,,,2025-04-03,1,,,,,オオサカタッチラグビーフキュウキョウギカイ,0
1483,7120005024876,新規,0,2025-04-03,2025-04-03,関西経営合理化事業協同組合,,その他の設立登記法人,大阪府,大阪市淀川区,西中島４丁目４－２５フルーレ新大阪３０８号室,,27,123,5320011,,,,,,,2025-04-03,1,,,,,カンサイケイエイゴウリカジギョウ,0
1484,7120105009991,新規,0,2025-04-03,2025-04-03,一般社団法人ナープアカルヘア,,その他の設立登記法人,大阪府,南河内郡河南町,大字大ヶ塚３７０番地,00138549,27,382,5850000,,,,,,,2025-04-03,1,,,,,ナープアカルヘア,0
1485,7120901050686,新規,0,2025-04-03,2025-04-03,株式会社Ｇ＆Ｒ,,株式会社,大阪府,豊中市,庄内西町２丁目２２－３水谷ビル１階１０８号室,,27,203,5610832,,,,,,,2025-04-03,1,,,,,ジーアンドアール,0
1492,7130001079304,新規,0,2025-04-03,2025-04-03,株式会社ディエムラボ,,株式会社,京都府,京田辺市,興戸地蔵谷１番地,,26,211,6100332,,,,,,,2025-04-03,1,,,,,ディエムラボ,0
1493,7130001079345,新規,0,2025-04-03,2025-04-03,株式会社よしだ,,株式会社,京都府,京都市右京区,嵯峨天龍寺造路町２０番地２４,,26,108,6168384,,,,,,,2025-04-03,1,,,,,ヨシダ,0
1496,7140001137969,新規,0,2025-04-03,2025-04-03,くくら株式会社,,株式会社,兵庫県,神戸市東灘区,深江本町１丁目１０番１２号,,28,101,6580021,,,,,,,2025-04-03,1,,,,,ククラ,0
1497,7140001138091,新規,0,2025-04-03,2025-04-03,株式会社ニッシン理美容,,株式会社,兵庫県,神戸市兵庫区,下沢通４丁目９番５号,,28,105,6520047,,,,,,,2025-04-03,1,,,,,ニッシンリビヨウ,0
1504,7180001166097,新規,0,2025-04-03,2025-04-03,株式会社Ｉｎｎｅｒ　Ｖｏｉｃｅ　Ｌａｂ,,株式会社,愛知県,名古屋市中村区,名駅３丁目４－１０アルティメイト名駅１ｓｔ２階,,23,105,4500002,,,,,,,2025-04-03,1,,,,,インナーボイスラボ,0
1505,7180001166130,新規,0,2025-04-03,2025-04-03,株式会社ＭＤカンパニー,,株式会社,愛知県,名古屋市天白区,高島１丁目１２１９番地,,23,116,4680022,,,,,,,2025-04-03,1,,,,,エムディーカンパニー,0
1506,7180001166139,新規,0,2025-04-03,2025-04-03,株式会社２３５,,株式会社,愛知県,瀬戸市,窯町４４６番地の５,,23,204,4801219,,,,,,,2025-04-03,1,,,,,フミコ,0
1507,7180001166188,新規,0,2025-04-03,2025-04-03,株式会社ＦＤＥ,,株式会社,愛知県,名古屋市中区,千代田１丁目１６番１号,,23,106,4600012,,,,,,,2025-04-03,1,,,,,エフディーイー,0
1508,7180001166246,新規,0,2025-04-03,2025-04-03,株式会社ナガノデンキ,,株式会社,愛知県,名古屋市守山区,小幡北２１０４番地,,23,113,4630008,,,,,,,2025-04-03,1,,,,,ナガノデンキ,0
1514,7210001020127,新規,0,2025-04-03,2025-04-03,株式会社ユトリホーム,,株式会社,福井県,福井市,板垣３丁目１５１６番地,,18,201,9188104,,,,,,,2025-04-03,1,,,,,ユトリホーム,0
1515,7210003001901,新規,0,2025-04-03,2025-04-03,ＳＯＬＡＧＯＩ合同会社,,合同会社,福井県,福井市,中央１丁目２番１号シンフォニアタワーコート福井１７０５,,18,201,9100006,,,,,,,2025-04-03,1,,,,,ソラゴイ,0
1516,7220001026585,新規,0,2025-04-03,2025-04-03,株式会社Ｗａｒｉｓｅ,,株式会社,石川県,金沢市,増泉２丁目２０番４号,,17,201,9218025,,,,,,,2025-04-03,1,,,,,ワライズ,0
1517,7220003003987,新規,0,2025-04-03,2025-04-03,合同会社真誠,,合同会社,石川県,金沢市,西金沢３丁目６５７番地,,17,201,9218054,,,,,,,2025-04-03,1,,,,,シンセイ,0
1519,7230001020810,新規,0,2025-04-03,2025-04-03,株式会社ことぶき不動産,,株式会社,富山県,高岡市,野村１５３６番地１７アーバンビル１階Ｂ号室,,16,202,9330014,,,,,,,2025-04-03,1,,,,,コトブキフドウサン,0
1524,7240001064724,新規,0,2025-04-03,2025-04-03,株式会社翔栄屋,,株式会社,広島県,廿日市市,沖塩屋２丁目６－５,,34,213,7390443,,,,,,,2025-04-03,1,,,,,ショウエイヤ,0
1525,7240001064732,新規,0,2025-04-03,2025-04-03,株式会社ＫＯＹＯプラス,,株式会社,広島県,広島市中区,大手町３丁目１番３号,,34,101,7300051,,,,,,,2025-04-03,1,,,,,コーヨープラス,0
1534,7290001109490,新規,0,2025-04-03,2025-04-03,株式会社Ｉ＆Ｋカンパニー,,株式会社,福岡県,福岡市中央区,薬院４丁目３番１２号薬院ホワイトビル６０１,,40,133,8100022,,,,,,,2025-04-03,1,,,,,,0
1536,7290801031398,新規,0,2025-04-03,2025-04-03,Ｍ’ｓフューチャー株式会社,,株式会社,福岡県,北九州市小倉北区,下到津２丁目６番１２号,,40,106,8030846,,,,,,,2025-04-03,1,,,,,エムズフューチャー,0
1538,7290803005012,新規,0,2025-04-03,2025-04-03,合同会社ＰＹＫ,,合同会社,福岡県,田川市,大字弓削田１７０２番地１２,,40,206,8260041,,,,,,,2025-04-03,1,,,,,ピーワイケー,0
1539,7310001019522,新規,0,2025-04-03,2025-04-03,株式会社ＣＡＮＤＹ長崎,,株式会社,長崎県,長崎市,船大工町２番３号,,42,201,8500904,,,,,,,2025-04-03,1,,,,,キャンディナガサキ,0
1544,7330001033026,新規,0,2025-04-03,2025-04-03,株式会社地方総研,,株式会社,熊本県,熊本市中央区,紺屋今町１番２３号,,43,101,8600012,,,,,,,2025-04-03,1,,,,,チホウソウケン,0
1545,7340001027233,新規,0,2025-04-03,2025-04-03,株式会社宇都自動車整備工場,,株式会社,鹿児島県,南九州市,川辺町平山６６８９番地１,,46,223,8970215,,,,,,,2025-04-03,1,,,,,ウトジドウシャセイビコウジョウ,0
1547,7340003004791,新規,0,2025-04-03,2025-04-03,リテラスペース合同会社,,合同会社,鹿児島県,鹿児島市,田上５丁目４１番２４号,,46,201,8900034,,,,,,,2025-04-03,1,,,,,リテラスペース,0
1549,7360001035003,新規,0,2025-04-03,2025-04-03,株式会社水輝,,株式会社,沖縄県,浦添市,城間３丁目３番１７－３０５号フリーベル浦添,,47,208,9012133,,,,,,,2025-04-03,1,,,,,スイキ,0
1556,7380005012946,新規,0,2025-04-03,2025-04-03,特定非営利活動法人福島県消化管疾患診療研究会,,その他の設立登記法人,福島県,福島市,光が丘１番地福島県立医科大学消化管外科学講座内,,07,201,9601247,,,,,,,2025-04-03,1,,,,,フクシマケンショウカカンシッカンシンリョウケンキュウカイ,0
1559,7430001094074,新規,0,2025-04-03,2025-04-03,サカモト設備株式会社,,株式会社,北海道,千歳市,花園３丁目３番１号,,01,224,0660028,,,,,,,2025-04-03,1,,,,,サカモトセツビ,0
1561,7430003017462,新規,0,2025-04-03,2025-04-03,合同会社ナカジマ,,合同会社,北海道,札幌市中央区,南八条西１３丁目４－７－４０５,,01,101,0640808,,,,,,,2025-04-03,1,,,,,ナカジマ,0
1562,7430003017470,新規,0,2025-04-03,2025-04-03,合同会社Ｍａｒｕｋｏ,,合同会社,北海道,札幌市厚別区,大谷地東３丁目４番６－９０９号,,01,108,0040041,,,,,,,2025-04-03,1,,,,,マルコ,0
1563,7430003017495,新規,0,2025-04-03,2025-04-03,合同会社アフタージェイ,,合同会社,北海道,札幌市東区,北二十七条東１７丁目２番７号セレクト２７－７号,,01,103,0650027,,,,,,,2025-04-03,1,,,,,アフタージェイ,0
1564,7460001005994,新規,0,2025-04-03,2025-04-03,株式会社Ｔ．Ｓ．Ｅ,,株式会社,北海道,釧路市,昭和南６丁目２７番７号,,01,206,0840909,,,,,,,2025-04-03,1,,,,,ティーエスイー,0
1566,7460303000859,新規,0,2025-04-03,2025-04-03,合同会社ｕｍｉ,,合同会社,北海道,北見市,北進町３丁目１４番３９号,,01,208,0900052,,,,,,,2025-04-03,1,,,,,ウミ,0
1567,7470001020654,新規,0,2025-04-03,2025-04-03,株式会社Ｓ．Ｑ,,株式会社,香川県,丸亀市,飯山町東坂元４１０７番地１４５,,37,202,7620081,,,,,,,2025-04-03,1,,,,,エスキュー,0
1568,7470003002857,新規,0,2025-04-03,2025-04-03,合同会社サトまちアグリ,,合同会社,香川県,高松市,木太町４２８４番地８,,37,201,7600080,,,,,,,2025-04-03,1,,,,,サトマチアグリ,0
1570,7490001011008,新規,0,2025-04-03,2025-04-03,株式会社Ｌｉｎｋ,,株式会社,高知県,高知市,西塚ノ原８０番地８,00138547,39,201,7800000,,,,,,,2025-04-03,1,,,,,リンク,0
1574,7700150129792,新規,0,2025-04-03,2025-04-03,広東格蘭仕集団有限公司,,外国会社等,,,,,,,,中華人民共和国広東省仏山市順徳区容桂街道容桂大道南２５号,,,,,,2025-04-03,1,,,,,カントンカクランシシユウダンユウゲンコウシユウゲンコウシ,0
1575,7700150129801,新規,0,2025-04-03,2025-04-03,ＳＨＡＤＨＡ　ＡＵＴＯ　ＭＯＴＯＲＳ　ＰＶＴ　ＬＴＤ,,外国会社等,神奈川県,厚木市,妻田東３丁目２３－５ガヴァナーズアームスＡ－２０５号室,,14,212,2430813,スリランカ民主社会主義共和国、マタレ、ワリヤポラロード、７８／Ａ,,,,,,2025-04-03,1,,,,,シヤダオートモーターズプライベートリミテツド,0
1576,7700150129818,新規,0,2025-04-03,2025-04-03,Ａ．Ｋ．ＴＲＡＤＩＮＧ,,外国会社等,茨城県,日立市,金沢町４丁目６０オフィス３Ａ,,08,202,3160015,スリランカ民主社会主義共和国、、キャンディ、アクラナ、クルゴダロード、Ｎｏ．３３／７,,,,,,2025-04-03,1,,,,,エーケートレーデイング,0
1582,8010001253605,新規,0,2025-04-03,2025-04-03,ＴＫ株式会社,,株式会社,東京都,千代田区,丸の内２丁目１番１号明治安田生命ビル１１階,,13,101,1000005,,,,,,,2025-04-03,1,,,,,ティーケー,0
1583,8010001253613,新規,0,2025-04-03,2025-04-03,株式会社シングルドロップアンドカンパニー,,株式会社,東京都,文京区,小石川５丁目３番４号ラ・ヴェリエール文京７０２,,13,105,1120002,,,,,,,2025-04-03,1,,,,,シングルドロップアンドカンパニー,0
1584,8010001253670,新規,0,2025-04-03,2025-04-03,ＨＤ　ＪＡＰＡＮ株式会社,,株式会社,東京都,千代田区,神田須田町２丁目１５番地３・２１５ビル２０８号室,,13,101,1010041,,,,,,,2025-04-03,1,,,,,エイチディジャパン,0
1585,8010001253720,新規,0,2025-04-03,2025-04-03,株式会社ＮｅｘＥｘｐｌｏｒｅ,,株式会社,東京都,中央区,日本橋茅場町２丁目８－１ＢＲＩＣＫＧＡＴＥ茅場町Ｂ１,,13,102,1030025,,,,,,,2025-04-03,1,,,,,ネックスプロア,0
1586,8010001253737,新規,0,2025-04-03,2025-04-03,インフロニアストラテジーアンドイノベーション株式会社,,株式会社,東京都,千代田区,富士見２丁目１０番２号,,13,101,1020071,,,,,,,2025-04-03,1,,,,,インフロニアストラテジーアンドイノベーション,0
1587,8010001253745,新規,0,2025-04-03,2025-04-03,株式会社ＳＨＩＭＡＳＯ,,株式会社,東京都,中央区,日本橋人形町２丁目２０番９号,,13,102,1030013,,,,,,,2025-04-03,1,,,,,シマソウ,0
1588,8010001253803,新規,0,2025-04-03,2025-04-03,株式会社Ｄ．Ｓ．Ｐ．ｕｎｉｖｅｒｓａｌ,,株式会社,東京都,中央区,築地２丁目１０番１号オープンレジデンシア１０２,,13,102,1040045,,,,,,,2025-04-03,1,,,,,ディーエスピーユニバーサル,0
1590,8010003046924,新規,0,2025-04-03,2025-04-03,合同会社ＢＵＲＳＴ,,合同会社,東京都,中央区,日本橋兜町１７番２号兜町第６葉山ビル４階,,13,102,1030026,,,,,,,2025-04-03,1,,,,,バースト,0
1591,8010003046932,新規,0,2025-04-03,2025-04-03,合同会社ＭＡＴＳＵＲＩ,,合同会社,東京都,中央区,京橋２丁目１２番６号ＡＯＪ税理士法人内,,13,102,1040031,,,,,,,2025-04-03,1,,,,,マツリ,0
1592,8010101016589,新規,0,2025-04-03,2025-04-03,ビークラフト株式会社,,株式会社,東京都,八王子市,下恩方町３０８番地３０,,13,201,1920154,,,,,,,2025-04-03,1,,,,,ビークラフト,0
1607,8010401189143,新規,0,2025-04-03,2025-04-03,株式会社ＰＲＥＭＩＵＭ,,株式会社,東京都,港区,赤坂４丁目８番１９号赤坂フロントタウン３階,,13,103,1070052,,,,,,,2025-04-03,1,,,,,プレミアム,0
1608,8010401189283,新規,0,2025-04-03,2025-04-03,三日月株式会社,,株式会社,東京都,港区,西新橋１丁目２番９号,,13,103,1050003,,,,,,,2025-04-03,1,,,,,ミカヅキ,0
1609,8010401189300,新規,0,2025-04-03,2025-04-03,アンフィニ株式会社,,株式会社,東京都,港区,高輪２丁目１番１５－３１０号,,13,103,1080074,,,,,,,2025-04-03,1,,,,,アンフィニ,0
1611,8010405024263,新規,0,2025-04-03,2025-04-03,一般社団法人日本リテンション・マネジメント普及協会,,その他の設立登記法人,東京都,港区,浜松町２丁目２番１５号浜松町ダイヤビル２Ｆ,,13,103,1050013,,,,,,,2025-04-03,1,,,,,ニホンリテンションマネジメントフキュウキョウカイ,0
1613,8010501053884,新規,0,2025-04-03,2025-04-03,ＡＱＵＡ株式会社,,株式会社,東京都,台東区,東上野６丁目１番１７号東上野中央ビル３０１号室,,13,106,1100015,,,,,,,2025-04-03,1,,,,,アクア,0
1614,8010505003596,新規,0,2025-04-03,2025-04-03,一般社団法人帝王経済研究所,,その他の設立登記法人,東京都,台東区,上野７丁目１０番１２号安達ビル３階,,13,106,1100005,,,,,,,2025-04-03,1,,,,,テイオウケイザイケンキュウジョ,0
1620,8010901057106,新規,0,2025-04-03,2025-04-03,株式会社行政戦略研究所,,株式会社,東京都,世田谷区,弦巻５丁目７番３０－２１５号,,13,112,1540016,,,,,,,2025-04-03,1,,,,,ギョウセイセンリャクケンキュウジョ,0
1628,8011001168586,新規,0,2025-04-03,2025-04-03,株式会社インサイト・シェアーズ,,株式会社,東京都,渋谷区,渋谷２丁目１９番１９号ワコー宮益坂ビル５階,,13,113,1500002,,,,,,,2025-04-03,1,,,,,インサイトシェアーズ,0
1629,8011001168644,新規,0,2025-04-03,2025-04-03,株式会社ＫＵＢＯＸ,,株式会社,東京都,渋谷区,道玄坂１丁目１０－８渋谷道玄坂東急ビル２階－Ｃ,,13,113,1500043,,,,,,,2025-04-03,1,,,,,クボックス,0
1630,8011001168768,新規,0,2025-04-03,2025-04-03,ＳＤ　Ａｕｔｅｃ　Ｓｙｓｔｅｍ株式会社,,株式会社,東京都,渋谷区,道玄坂１丁目１０番８号渋谷道玄坂東急ビル２Ｆ－Ｃ,,13,113,1500043,,,,,,,2025-04-03,1,,,,,エスディーオウテックシステム,0
1631,8011001168792,新規,0,2025-04-03,2025-04-03,株式会社ｓｕｍｉ．,,株式会社,東京都,渋谷区,千駄ヶ谷３丁目４０－１３Ｍ＆Ｎ１０２,,13,113,1510051,,,,,,,2025-04-03,1,,,,,スミ,0
1633,8011003021339,新規,0,2025-04-03,2025-04-03,ＡｉｒＴｒｕｎｋ　Ｊａｐａｎ　ＡＥ合同会社,,合同会社,東京都,渋谷区,円山町３番６号Ｅ・スペースタワー,,13,113,1500044,,,,,,,2025-04-03,1,,,,,エアトランクジャパンエーイー,0
1634,8011003021388,新規,0,2025-04-03,2025-04-03,ＡＬＣＭＳＴ合同会社,,合同会社,東京都,目黒区,中目黒１丁目６－１３－３０２,,13,110,1530061,,,,,,,2025-04-03,1,,,,,アルケミスト,0
1637,8011101111108,新規,0,2025-04-03,2025-04-03,株式会社ＯＮＥ　ＨＵＮＤＲＥＤ　ＬＡＢＥＬ　ＪＡＰＡＮ,,株式会社,東京都,新宿区,富久町１番５号５階,,13,104,1620067,,,,,,,2025-04-03,1,,,,,ワンハンドレッドラベルジャパン,0
1640,8011203004655,新規,0,2025-04-03,2025-04-03,合同会社Ｗｏｒｋｓ　Ｋ,,合同会社,東京都,中野区,東中野１丁目２８番７号,,13,114,1640003,,,,,,,2025-04-03,1,,,,,ワークスケー,0
1644,8011603004651,新規,0,2025-04-03,2025-04-03,Ｃ．Ｅ．Ｆ．クラブ・ソンリーサ合同会社,,合同会社,東京都,練馬区,高松３丁目２２番２６号,,13,120,1790075,,,,,,,2025-04-03,1,,,,,シーイーエフクラブソンリーサ,0
1645,8011701028206,新規,0,2025-04-03,2025-04-03,発酵フード株式会社,,株式会社,東京都,江戸川区,大杉５丁目１５番１８号,,13,123,1320022,,,,,,,2025-04-03,1,,,,,ハッコウフード,0
1648,8012401042934,新規,0,2025-04-03,2025-04-03,Ｃｕｌｉｎａｒｙ　Ｄｅｓｉｇｎ株式会社,,株式会社,東京都,稲城市,東長沼１３４２番地の７,,13,225,2060802,,,,,,,2025-04-03,1,,,,,カリナリーデザイン,0
1652,8013301054045,新規,0,2025-04-03,2025-04-03,コアプラス・プライムオフィス株式会社,,株式会社,東京都,豊島区,西池袋３丁目７番６号,,13,116,1710021,,,,,,,2025-04-03,1,,,,,コアプラスプライムオフィス,0
1666,8021003015810,新規,0,2025-04-03,2025-04-03,ＨＡＩＺＡＭ　ＳＨＯＫＡＩ合同会社,,合同会社,神奈川県,茅ヶ崎市,芹沢２４１４番地１－Ｂ,,14,207,2530008,,,,,,,2025-04-03,1,,,,,ハイザムショウカイ,0
1667,8021003015835,新規,0,2025-04-03,2025-04-03,合同会社ＳＨＩＳＡＫＵ,,合同会社,神奈川県,相模原市南区,上鶴間本町６丁目２番１９―２０４号,,14,153,2520318,,,,,,,2025-04-03,1,,,,,シサク,0
1669,8030001165534,新規,0,2025-04-03,2025-04-03,ｒｅｓｌｏｇ株式会社,,株式会社,埼玉県,さいたま市南区,曲本３丁目７番１４号シティパル３０７,,11,108,3360033,,,,,,,2025-04-03,1,,,,,リスログ,0
1670,8030001165666,新規,0,2025-04-03,2025-04-03,Ａｏ‐ａｋｕａ株式会社,,株式会社,埼玉県,越谷市,大字南荻島３４７－１－１０１,,11,222,3430804,,,,,,,2025-04-03,1,,,,,アオアクア,0
1671,8030001165674,新規,0,2025-04-03,2025-04-03,株式会社ＫＯＫＯＩＣＨＩ,,株式会社,埼玉県,久喜市,栗橋東５丁目１６番２３－５号,,11,232,3491103,,,,,,,2025-04-03,1,,,,,ココイチ,0
1672,8030001165716,新規,0,2025-04-03,2025-04-03,株式会社松田工業,,株式会社,埼玉県,上尾市,大字上野本郷５１７番地２,,11,219,3620056,,,,,,,2025-04-03,1,,,,,マツダコウギョウ,0
1673,8030001165732,新規,0,2025-04-03,2025-04-03,株式会社ＭＡＮＯＷＡ,,株式会社,埼玉県,鴻巣市,生出塚１丁目１６番２０号,,11,217,3650033,,,,,,,2025-04-03,1,,,,,マノワ,0
1674,8030001165807,新規,0,2025-04-03,2025-04-03,株式会社いろは,,株式会社,埼玉県,越谷市,大字下間久里９９８―１．１０２,,11,222,3430045,,,,,,,2025-04-03,1,,,,,イロハ,0
1676,8030003026437,新規,0,2025-04-03,2025-04-03,合同会社Ｋ＆Ｌ,,合同会社,埼玉県,蕨市,塚越２丁目１番１８号ＳＫビル６階Ｂ号,,11,223,3350002,,,,,,,2025-04-03,1,,,,,ケーアンドエル,0
1681,8040003027252,新規,0,2025-04-03,2025-04-03,合同会社ＧＩＦＴ,,合同会社,千葉県,習志野市,屋敷４丁目１番１１－３０５,,12,216,2750004,,,,,,,2025-04-03,1,,,,,ギフト,0
1684,8040005022706,新規,0,2025-04-03,2025-04-03,特定非営利活動法人日本アジア臨床整形外科研究会,,その他の設立登記法人,千葉県,市川市,菅野５丁目１１番１３号東京歯科大学市川総合病院整形外科内,,12,203,2720824,,,,,,,2025-04-03,1,,,,,ニホンアジアリンショウセイケイゲカケンキュウカイ,0
1687,8070001042787,新規,0,2025-04-03,2025-04-03,株式会社秀栄工業,,株式会社,群馬県,北群馬郡吉岡町,大字大久保２３４９番地１２,,10,345,3703602,,,,,,,2025-04-03,1,,,,,シュウエイコウギョウ,0
1688,8080001026855,新規,0,2025-04-03,2025-04-03,株式会社中央防犯アクトサービス,,株式会社,静岡県,藤枝市,稲川１丁目１１番３６号,,22,214,4260022,,,,,,,2025-04-03,1,,,,,チュウオウボウハンアクトサービス,0
1689,8080101025419,新規,0,2025-04-03,2025-04-03,株式会社ネオプラス,,株式会社,静岡県,富士市,松岡７２番地の１５,,22,210,4160909,,,,,,,2025-04-03,1,,,,,ネオプラス,0
1691,8080401027825,新規,0,2025-04-03,2025-04-03,株式会社リリー,,株式会社,静岡県,浜松市中央区,高塚町５６１番地の３,,22,138,4328065,,,,,,,2025-04-03,1,,,,,リリー,0
1692,8080401027833,新規,0,2025-04-03,2025-04-03,丸創工業株式会社,,株式会社,静岡県,浜松市浜名区,寺島１２３１番地の２,,22,139,4340035,,,,,,,2025-04-03,1,,,,,マルソウコウギョウ,0
1703,8110001039151,新規,0,2025-04-03,2025-04-03,株式会社市川染工,,株式会社,新潟県,五泉市,村松乙３６４番地,,15,218,9591705,,,,,,,2025-04-03,1,,,,,イチカワセンコウ,0
1705,8110003005721,新規,0,2025-04-03,2025-04-03,合同会社オフィス亀田,,合同会社,新潟県,新潟市江南区,亀田中島２丁目７番１４号,,15,104,9500161,,,,,,,2025-04-03,1,,,,,オフィスカメダ,0
1709,8120001274128,新規,0,2025-04-03,2025-04-03,株式会社ＹＭｃｏｍｐａｎｙ,,株式会社,大阪府,大阪市平野区,西脇３丁目１番２０－４１２号,,27,126,5470035,,,,,,,2025-04-03,1,,,,,ワイエムカンパニー,0
1710,8120001274152,新規,0,2025-04-03,2025-04-03,浩瀚域株式会社,,株式会社,大阪府,大阪市天王寺区,四天王寺１丁目２番１４－４０４号,,27,109,5430051,,,,,,,2025-04-03,1,,,,,コウカンイキ,0
1711,8120001274169,新規,0,2025-04-03,2025-04-03,ＯＮＧ阿吽株式会社,,株式会社,大阪府,大阪市西成区,聖天下１丁目４番２９号１０６号室,,27,122,5570012,,,,,,,2025-04-03,1,,,,,オーエヌジーアウン,0
1712,8120001274185,新規,0,2025-04-03,2025-04-03,株式会社ＲＳＦエージェンシー,,株式会社,大阪府,大阪市生野区,勝山南４丁目１０番１３号,,27,116,5440021,,,,,,,2025-04-03,1,,,,,アールエスエフエージェンシー,0
1713,8120001274193,新規,0,2025-04-03,2025-04-03,ＳＨＩＮＩＮＧ株式会社,,株式会社,大阪府,大阪市生野区,新今里５丁目１５－１７ブランシュＩＩ３Ａ号,00138539,27,116,5440001,,,,,,,2025-04-03,1,,,,,シャイニング,0
1714,8120001274268,新規,0,2025-04-03,2025-04-03,ＴＯＲＮＡＤＯ株式会社,,株式会社,大阪府,大阪市東住吉区,照ケ丘矢田３丁目１１番９－１０２号,,27,121,5460021,,,,,,,2025-04-03,1,,,,,トルネード,0
1720,8120901050660,新規,0,2025-04-03,2025-04-03,Ｊａｐａｎ　Ａｎｉｍａｔｅ　Ｌｉｎｋ株式会社,,株式会社,大阪府,摂津市,正雀本町１丁目２０－２０－９０４,,27,224,5660024,,,,,,,2025-04-03,1,,,,,ジャパンアニメイトリンク,0
1721,8120901050685,新規,0,2025-04-03,2025-04-03,ＬＤＰホールディングス株式会社,,株式会社,大阪府,吹田市,樫切山４番１４号,,27,205,5650806,,,,,,,2025-04-03,1,,,,,エルディーピーホールディングス,0
1729,8130001079311,新規,0,2025-04-03,2025-04-03,株式会社ＨＡＫＵＧＩＮ,,株式会社,京都府,京都市右京区,御室小松野町２５番地１８,,26,108,6168094,,,,,,,2025-04-03,1,,,,,ハクギン,0
1730,8130001079336,新規,0,2025-04-03,2025-04-03,株式会社かね秀,,株式会社,京都府,京都市東山区,三条通大橋東５丁目西海子町３０番地ベルステージ東山１０１号,,26,105,6050012,,,,,,,2025-04-03,1,,,,,カネヒデ,0
1731,8130001079352,新規,0,2025-04-03,2025-04-03,株式会社農都,,株式会社,京都府,船井郡京丹波町,橋爪桧山４０番地桧山ハイツ２０３号室,,26,407,6220321,,,,,,,2025-04-03,1,,,,,ノウト,0
1732,8130003010323,新規,0,2025-04-03,2025-04-03,合同会社プライム,,合同会社,京都府,京都市伏見区,淀際目町２１４番地２３,,26,109,6130915,,,,,,,2025-04-03,1,,,,,プライム,0
1733,8130003010331,新規,0,2025-04-03,2025-04-03,合同会社ｍａｄｅｂｙａｓａｍｉ,,合同会社,京都府,京都市東山区,三条通白川橋東入４丁目中之町２０３番地Ｓｃｈｉｌｆ神宮道３０７号,,26,105,6050034,,,,,,,2025-04-03,1,,,,,メイドバイアサミ,0
1734,8130005017325,新規,0,2025-04-03,2025-04-03,医療法人桔梗会,,その他の設立登記法人,京都府,木津川市,兜台３丁目１０番地１,,26,214,6190224,,,,,,,2025-04-03,1,,,,,キキョウカイ,0
1739,8140001137943,新規,0,2025-04-03,2025-04-03,Ｌｕｃｋｙ　Ｓｈｅｅｐ株式会社,,株式会社,兵庫県,姫路市,塩町９９番地英ビル,,28,201,6700904,,,,,,,2025-04-03,1,,,,,ラッキーシープ,0
1745,8150005009683,新規,0,2025-04-03,2025-04-03,一般社団法人日本ボランティア協会,,その他の設立登記法人,奈良県,奈良市,東登美ヶ丘１丁目１番３号,,29,201,6310002,,,,,,,2025-04-03,1,,,,,ニホンボランティアキョウカイ,0
1751,8180001166212,新規,0,2025-04-03,2025-04-03,株式会社ぐっとくるマネジメント,,株式会社,愛知県,名古屋市中区,金山２丁目１３番１２号廣目屋ビル２Ｆ,,23,106,4600022,,,,,,,2025-04-03,1,,,,,グットクルマネジメント,0
1752,8180001166245,新規,0,2025-04-03,2025-04-03,株式会社ＳＥＮＮＡＲＩ,,株式会社,愛知県,小牧市,大字本庄字下モ畑７０５番地１,,23,219,4850821,,,,,,,2025-04-03,1,,,,,センナリ,0
1755,8180003028204,新規,0,2025-04-03,2025-04-03,合同会社ＲｅｖＮｅｘｕｓ,,合同会社,愛知県,名古屋市中村区,名駅３丁目４－１０アルティメイト名駅１ｓｔ２階,,23,105,4500002,,,,,,,2025-04-03,1,,,,,レヴネクサス,0
1756,8180003028237,新規,0,2025-04-03,2025-04-03,合同会社夢色らいふ,,合同会社,愛知県,名古屋市守山区,大屋敷１３番３５号,,23,113,4630016,,,,,,,2025-04-03,1,,,,,ユメイロライフ,0
1757,8180003028245,新規,0,2025-04-03,2025-04-03,オフィスドリーム合同会社,,合同会社,愛知県,名古屋市名東区,亀の井１丁目１９１番地シティハウス星ケ丘３０５号,,23,115,4650094,,,,,,,2025-04-03,1,,,,,オフィスドリーム,0
1758,8180005021009,新規,0,2025-04-03,2025-04-03,カネスエ労働組合,,その他の設立登記法人,愛知県,一宮市,森本１丁目１０－２５メゾン真和１０２号,,23,203,4910831,,,,,,,2025-04-03,1,,,,,カネスエ,0
1766,8210001020126,新規,0,2025-04-03,2025-04-03,株式会社ＳＨＩＭＩＺＵ,,株式会社,福井県,福井市,江守中１丁目９０１番地の１１,,18,201,9188025,,,,,,,2025-04-03,1,,,,,シミズ,0
1778,8240001064764,新規,0,2025-04-03,2025-04-03,株式会社Ｓｃａｌｅ　Ｔｅｃｈｎｏｌｏｇｙ,,株式会社,広島県,広島市南区,仁保１丁目３１番７－４号,,34,103,7340026,,,,,,,2025-04-03,1,,,,,スケールテクノロジー,0
1782,8260001040053,新規,0,2025-04-03,2025-04-03,株式会社リーフケア,,株式会社,岡山県,岡山市東区,金岡西町３３３番地６,,33,103,7048193,,,,,,,2025-04-03,1,,,,,リーフケア,0
1783,8260001040078,新規,0,2025-04-03,2025-04-03,株式会社ＭＩＹＡＢＩＸ,,株式会社,岡山県,倉敷市,東塚６丁目２番１０号,,33,202,7128044,,,,,,,2025-04-03,1,,,,,ミヤビックス,0
1787,8290003016635,新規,0,2025-04-03,2025-04-03,合同会社マッシュリンク,,合同会社,福岡県,福岡市博多区,博多駅前１丁目２３－２パークフロント博多駅前１－５Ｆ－Ｂ,,40,132,8120011,,,,,,,2025-04-03,1,,,,,マッシュリンク,0
1788,8290005019693,新規,0,2025-04-03,2025-04-03,医療法人善導寺こどもクリニック,,その他の設立登記法人,福岡県,久留米市,善導寺町飯田２７２番地７,,40,203,8390824,,,,,,,2025-04-03,1,,,,,ゼンドウジコドモクリニック,0
1789,8290801031406,新規,0,2025-04-03,2025-04-03,株式会社豊澤,,株式会社,福岡県,北九州市八幡西区,割子川１丁目２番３６号,,40,109,8060064,,,,,,,2025-04-03,1,,,,,トヨザワ,0
1802,8330001033025,新規,0,2025-04-03,2025-04-03,株式会社ジョイントフードプロダクト,,株式会社,熊本県,熊本市西区,八島町１００２番地,,43,103,8600057,,,,,,,2025-04-03,1,,,,,ジョイントフードプロダクト,0
1804,8330003010922,新規,0,2025-04-03,2025-04-03,合同会社吉川ＥＴセンター,00138555,合同会社,熊本県,熊本市北区,四方寄町７５３番地１,,43,105,8615515,,,,,,,2025-04-03,1,,,,,ヨシカワイーティセンター,0
1806,8360001035002,新規,0,2025-04-03,2025-04-03,株式会社まてつグループ,,株式会社,沖縄県,那覇市,久茂地３丁目９番６号森家ビル１Ｆ,,47,201,9000015,,,,,,,2025-04-03,1,,,,,マテツグループ,0
1807,8360005007195,新規,0,2025-04-03,2025-04-03,一般社団法人日本意識セラピー協会,,その他の設立登記法人,沖縄県,那覇市,繁多川３丁目１３番１５号,,47,201,9020071,,,,,,,2025-04-03,1,,,,,ニホンイシキセラピーキョウカイ,0
1819,8430001094049,新規,0,2025-04-03,2025-04-03,株式会社Ｍ・ＴＥＣ,,株式会社,北海道,江別市,元江別本町３７番地の２０,,01,217,0670041,,,,,,,2025-04-03,1,,,,,エムテック,0
1820,8430001094107,新規,0,2025-04-03,2025-04-03,ＡＩＳＵ国際株式会社,,株式会社,北海道,札幌市東区,伏古十二条２丁目２番２３－２０３号,,01,103,0070872,,,,,,,2025-04-03,1,,,,,アイスコクサイ,0
1821,8430003017478,新規,0,2025-04-03,2025-04-03,ＡｄａｐｔＳｙｓ合同会社,,合同会社,北海道,札幌市西区,西町北１１丁目４番５－１０１号,,01,107,0630061,,,,,,,2025-04-03,1,,,,,アダプトシス,0
1823,8470001020653,新規,0,2025-04-03,2025-04-03,株式会社魚幸,,株式会社,香川県,高松市,元山町７１５番地３,,37,201,7610311,,,,,,,2025-04-03,1,,,,,ウオサチ,0
1827,8470003002856,新規,0,2025-04-03,2025-04-03,合同会社Ｈａｂｉｔ,,合同会社,香川県,高松市,藤塚町３丁目５－２４アビテ藤塚１０１,,37,201,7600071,,,,,,,2025-04-03,1,,,,,ハビット,0
1830,8500001026218,新規,0,2025-04-03,2025-04-03,株式会社マルキ,,株式会社,愛媛県,宇和島市,恵美須町２丁目３番３６号,,38,203,7980032,,,,,,,2025-04-03,1,,,,,マルキ,0
1831,8500001026226,新規,0,2025-04-03,2025-04-03,ＧｒｏｗＵｐＳｕｐｐｏｒｔ株式会社,,株式会社,愛媛県,西条市,大町１７６５－４－９０２,,38,206,7930030,,,,,,,2025-04-03,1,,,,,グロウアップサポート,0
1834,8700150129800,新規,0,2025-04-03,2025-04-03,Ａｖｏｎ　Ｍｏｔｏｒｓ,,外国会社等,千葉県,山武市,小松１６９番地５Ｂ,,12,237,2891302,スリランカ民主社会主義共和国、キャンディ、アンバテナ、ムルレガマ、ＮＯ．１１２,,,,,,2025-04-03,1,,,,,アボンモータース,0
1835,8700150129809,新規,0,2025-04-03,2025-04-03,ＳＯＬＩＤ,,外国会社等,神奈川県,愛甲郡愛川町,中津１９９－１山田ビル３０３号室,,14,401,2430303,スリランカ民主社会主義共和国、クルネガラロード、バンダーワ、ポルガハウェラ,,,,,,2025-04-03,1,,,,,ソリツド,0
1836,8700150129817,新規,0,2025-04-03,2025-04-03,Ｍ．Ｇ．Ｒ．ＴＲＡＤＩＮＧ,,外国会社等,茨城県,日立市,金沢町４丁目６０オフィス２Ａ,,08,202,3160015,スリランカ民主社会主義共和国、クルネガラ、パラナガハデニヤロード、Ｎｏ．９８／４,,,,,,2025-04-03,1,,,,,エムジーアールトレーデイング,0
1841,9010001253711,新規,0,2025-04-03,2025-04-03,株式会社バード・キャピタル,,株式会社,東京都,文京区,西片１丁目１５番１９－８０３号,,13,105,1130024,,,,,,,2025-04-03,1,,,,,バードキャピタル,0
1842,9010001253744,新規,0,2025-04-03,2025-04-03,株式会社Ｓ＆Ｙ　Ｉｎｖｅｓｔｍｅｎｔ,,株式会社,東京都,千代田区,平河町２丁目１１番１０号パークウエストひらかわ２０２,,13,101,1020093,,,,,,,2025-04-03,1,,,,,エスアンドワイインベストメント,0
1847,9010401189282,新規,0,2025-04-03,2025-04-03,株式会社ＢＵＺＺＣｏｎｓｕｌｔｉｎｇ,,株式会社,東京都,港区,六本木３丁目３番１５号麻布台Ｔｓタワー４０１号室,,13,103,1060032,,,,,,,2025-04-03,1,,,,,バズコンサルティング,0
1848,9010401189349,新規,0,2025-04-03,2025-04-03,ＩＴＯ株式会社,,株式会社,東京都,港区,北青山２丁目５番１号,,13,103,1070061,,,,,,,2025-04-03,1,,,,,アイティーオー,0
1849,9010403034750,新規,0,2025-04-03,2025-04-03,ホワイトパレス合同会社,,合同会社,東京都,港区,赤坂７丁目５番３４－５２５号,,13,103,1070052,,,,,,,2025-04-03,1,,,,,ホワイトパレス,0
1850,9010403034767,新規,0,2025-04-03,2025-04-03,ＪａｐａｎＭｅｒｃｕｒｙ合同会社,,合同会社,東京都,港区,北青山１丁目３番１号アールキューブ青山３階,,13,103,1070061,,,,,,,2025-04-03,1,,,,,ジャパンマーキュリー,0
1851,9010403034775,新規,0,2025-04-03,2025-04-03,合同会社アフィネス,,合同会社,東京都,港区,北青山１丁目３―３三橋ビル３階,,13,103,1070061,,,,,,,2025-04-03,1,,,,,アフィネス,0
1854,9010601067049,新規,0,2025-04-03,2025-04-03,勝喜洲株式会社,,株式会社,東京都,墨田区,横川３丁目６番７号３－Ｊ室,,13,107,1300003,,,,,,,2025-04-03,1,,,,,ショウキシュウ,0
1856,9010701047520,新規,0,2025-04-03,2025-04-03,株式会社ｇｉｖｅ＆ｐｅａｃｅ,,株式会社,東京都,品川区,中延６丁目１０番２１号,,13,109,1420053,,,,,,,2025-04-03,1,,,,,ギブアンドピース,0
1864,9011001168767,新規,0,2025-04-03,2025-04-03,株式会社トラストハート,,株式会社,東京都,渋谷区,神南１丁目２３番１４号,,13,113,1500041,,,,,,,2025-04-03,1,,,,,トラストハート,0
1865,9011003021288,新規,0,2025-04-03,2025-04-03,たあぶる館合同会社,,合同会社,東京都,目黒区,下目黒２丁目１３番１２号,,13,110,1530064,,,,,,,2025-04-03,1,,,,,タアブルカン,0
1866,9011003021305,新規,0,2025-04-03,2025-04-03,合同会社ＴＲＩ,,合同会社,東京都,渋谷区,道玄坂１丁目１６番６号,,13,113,1500043,,,,,,,2025-04-03,1,,,,,トライ,0
1867,9011003021313,新規,0,2025-04-03,2025-04-03,合同会社グリーンボックス,,合同会社,東京都,渋谷区,円山町５番５号Ｎａｖｉ渋谷Ｖ３階,,13,113,1500044,,,,,,,2025-04-03,1,,,,,グリーンボックス,0
1868,9011003021338,新規,0,2025-04-03,2025-04-03,ＡｉｒＴｒｕｎｋ　Ｊａｐａｎ　Ｆ合同会社,,合同会社,東京都,渋谷区,円山町３番６号Ｅ・スペースタワー,,13,113,1500044,,,,,,,2025-04-03,1,,,,,エアトランクジャパンエフ,0
1869,9011003021395,新規,0,2025-04-03,2025-04-03,合同会社ブルーサンライズ・コンサルティング,,合同会社,東京都,渋谷区,代々木２丁目３０―４,,13,113,1510053,,,,,,,2025-04-03,1,,,,,ブルーサンライズコンサルティング,0
1874,9011105011402,新規,0,2025-04-03,2025-04-03,司法書士法人ナカムラリーガル,,その他の設立登記法人,東京都,新宿区,新宿１丁目９番４号中公ビル３０５号,,13,104,1600022,,,,,,,2025-04-03,1,,,,,ナカムラリーガル,0
1883,9011803006769,新規,0,2025-04-03,2025-04-03,マーチナイン合同会社,,合同会社,東京都,葛飾区,西新小岩３丁目３２－７,,13,122,1240025,,,,,,,2025-04-03,1,,,,,マーチナイン,0
1889,9013301054044,新規,0,2025-04-03,2025-04-03,株式会社メディカルコネクト,,株式会社,東京都,豊島区,池袋２丁目４３番１号,,13,116,1710014,,,,,,,2025-04-03,1,,,,,メディカルコネクト,0
1893,9020003028219,新規,0,2025-04-03,2025-04-03,合同会社Ｔｐｌｕｓ,,合同会社,神奈川県,横浜市西区,北幸２丁目１０番４８号むつみビル３階,,14,103,2200004,,,,,,,2025-04-03,1,,,,,ティープラス,0
1899,9021003015826,新規,0,2025-04-03,2025-04-03,合同会社リトルフラワー,,合同会社,神奈川県,藤沢市,湘南台２丁目１０番５号アンドウビル５Ｆ,,14,205,2520804,,,,,,,2025-04-03,1,,,,,リトルフラワー,0
1922,9050005013595,新規,0,2025-04-03,2025-04-03,医療法人桜裕会,,その他の設立登記法人,茨城県,ひたちなか市,大字三反田４５５１番地１,,08,221,3120021,,,,,,,2025-04-03,1,,,,,オウユウカイ,0
1923,9070001042803,新規,0,2025-04-03,2025-04-03,株式会社ｏｕｕｎ,,株式会社,群馬県,藤岡市,森１０８番地１ＨＡＮＡ,,10,209,3750004,,,,,,,2025-04-03,1,,,,,オウン,0
1926,9080401027824,新規,0,2025-04-03,2025-04-03,株式会社ＮＥ‐３,,株式会社,静岡県,浜松市浜名区,三ヶ日町鵺代９０２番地の１,,22,139,4311423,,,,,,,2025-04-03,1,,,,,エヌイースリー,0
1927,9080401027832,新規,0,2025-04-03,2025-04-03,葵倉庫株式会社,,株式会社,静岡県,浜松市中央区,倉松町２２７７番地,,22,138,4328064,,,,,,,2025-04-03,1,,,,,アオイソウコ,0
1928,9080401027840,新規,0,2025-04-03,2025-04-03,株式会社幸心設備,,株式会社,静岡県,掛川市,上西郷１５１１番地の２平野貸家１,,22,213,4360342,,,,,,,2025-04-03,1,,,,,コウシンセツビ,0
1935,9110001039150,新規,0,2025-04-03,2025-04-03,株式会社ぱすたみすた,,株式会社,新潟県,加茂市,穀町２番８号,,15,209,9591371,,,,,,,2025-04-03,1,,,,,パスタミスタ,0
1936,9110001039159,新規,0,2025-04-03,2025-04-03,株式会社ＫＩＮＯＫＯＫＯ,,株式会社,新潟県,新潟市西区,槇尾２８９番地,,15,107,9502121,,,,,,,2025-04-03,1,,,,,キノココ,0
1943,9120001274151,新規,0,2025-04-03,2025-04-03,株式会社ネクサスクラス,,株式会社,大阪府,大阪市北区,西天満６丁目３番１９号フヨウビル７階,,27,127,5300047,,,,,,,2025-04-03,1,,,,,ネクサスクラス,0
1944,9120001274168,新規,0,2025-04-03,2025-04-03,星海株式会社,,株式会社,大阪府,大阪市西成区,萩之茶屋１丁目１２－７万葉ビル２０号室,,27,122,5570004,,,,,,,2025-04-03,1,,,,,セイカイ,0
1945,9120001274176,新規,0,2025-04-03,2025-04-03,日本中潤株式会社,,株式会社,大阪府,大阪市淀川区,新北野３丁目１１番１８号サンプラザ新北野Ｃ棟５０１号室,,27,123,5320025,,,,,,,2025-04-03,1,,,,,ニホンチュウジュン,0
1954,9130003010330,新規,0,2025-04-03,2025-04-03,合同会社ＡｉＮＡ　ｃｏｒｐｏｒａｔｉｏｎ,,合同会社,京都府,京都市左京区,鞍馬本町１１０番地,,26,103,6011111,,,,,,,2025-04-03,1,,,,,アイナコーポレーション,0
1956,9140001137967,新規,0,2025-04-03,2025-04-03,株式会社Ｉ．ｂ．ｇａｒａｇｅ,,株式会社,兵庫県,神戸市東灘区,青木５丁目７番１３号,,28,101,6580027,,,,,,,2025-04-03,1,,,,,アイビーガレージ,0
1960,9150003003547,新規,0,2025-04-03,2025-04-03,合同会社日本近自然学研究所,,合同会社,奈良県,吉野郡十津川村,大字上野地２６６―４,,29,449,6371103,,,,,,,2025-04-03,1,,,,,ニホンキンシゼンガクケンキュウジョ,0
1967,9180001166112,新規,0,2025-04-03,2025-04-03,株式会社ＧａｒｄＥＮ,,株式会社,愛知県,名古屋市東区,出来町３丁目６番３３号,,23,102,4610032,,,,,,,2025-04-03,1,,,,,ガーデン,0
1968,9180001166178,新規,0,2025-04-03,2025-04-03,株式会社城北,,株式会社,愛知県,名古屋市西区,大野木１丁目１３７番地の１,,23,104,4520803,,,,,,,2025-04-03,1,,,,,ジョウホク,0
1969,9180001166244,新規,0,2025-04-03,2025-04-03,株式会社ＤＲＥＡＭ,,株式会社,愛知県,名古屋市緑区,鳥澄２丁目６１４番地,,23,114,4580025,,,,,,,2025-04-03,1,,,,,ドリーム,0
1971,9180003028236,新規,0,2025-04-03,2025-04-03,ＺＥＲＯＩＴ合同会社,,合同会社,愛知県,名古屋市中村区,名駅４丁目２４番５号第２森ビル４０１,,23,105,4500002,,,,,,,2025-04-03,1,,,,,ゼロイト,0
1972,9180003028252,新規,0,2025-04-03,2025-04-03,合同会社オフィスあさひや,,合同会社,愛知県,名古屋市千種区,春岡１丁目３３番１２号,,23,101,4640848,,,,,,,2025-04-03,1,,,,,オフィスアサヒヤ,0
1977,9190001032123,新規,0,2025-04-03,2025-04-03,株式会社学童保育サポートセンターＳＡＭ,,株式会社,三重県,津市,八町３丁目１１番８号,,24,201,5140041,,,,,,,2025-04-03,1,,,,,ガクドウホイクサポートセンターサム,0
1978,9210001020125,新規,0,2025-04-03,2025-04-03,でじすたねっと株式会社,,株式会社,福井県,福井市,順化１丁目１５番２９号２階,,18,201,9100023,,,,,,,2025-04-03,1,,,,,デジスタネット,0
1985,9220001026583,新規,0,2025-04-03,2025-04-03,株式会社ＨＡＳＨ　ｆｏｏｄ,,株式会社,石川県,金沢市,八日市出町８６２番地,,17,201,9218063,,,,,,,2025-04-03,1,,,,,ハッシュフード,0
1994,9240001064739,新規,0,2025-04-03,2025-04-03,株式会社ＴＫＣ,,株式会社,広島県,広島市佐伯区,三宅４丁目３番１３－５号梅田ハイツ２０２,,34,108,7315143,,,,,,,2025-04-03,1,,,,,ティケイシィ,0
1997,9240003007134,新規,0,2025-04-03,2025-04-03,合同会社Ｎａｔｕｒａｌ,,合同会社,広島県,福山市,駅家町大字倉光５９９番地７,,34,207,7201132,,,,,,,2025-04-03,1,,,,,ナチュラル,0
2002,9270001009179,新規,0,2025-04-03,2025-04-03,川口グループホールディングス株式会社,,株式会社,鳥取県,鳥取市,賀露町４１１２番地,,31,201,6800905,,,,,,,2025-04-03,1,,,,,カワグチグループホールディングス,0
2011,9290801031388,新規,0,2025-04-03,2025-04-03,株式会社宮本,,株式会社,福岡県,遠賀郡遠賀町,大字鬼津９６１－６,,40,384,8114341,,,,,,,2025-04-03,1,,,,,ミヤモト,0
2012,9290801031396,新規,0,2025-04-03,2025-04-03,株式会社アイズ空調サービス,,株式会社,福岡県,中間市,通谷４丁目１番７号,,40,215,8090018,,,,,,,2025-04-03,1,,,,,アイズクウチョウサービス,0
2013,9290805009819,新規,0,2025-04-03,2025-04-03,医療法人克起会,,その他の設立登記法人,福岡県,行橋市,西宮市２丁目２番３０号,,40,213,8240031,,,,,,,2025-04-03,1,,,,,コッキカイ,0
2016,9310001019529,新規,0,2025-04-03,2025-04-03,株式会社崎辺海運,,株式会社,長崎県,大村市,上諏訪町１０００番地１,,42,205,8560023,,,,,,,2025-04-03,1,,,,,,0
2018,9330001033016,新規,0,2025-04-03,2025-04-03,株式会社ｔｏｔｏｎｏｅ　ｌａｂ,,株式会社,熊本県,熊本市東区,尾ノ上４丁目１番２２号－２Ｆ,,43,102,8620913,,,,,,,2025-04-03,1,,,,,トトノエラボ,0
2019,9330001033057,新規,0,2025-04-03,2025-04-03,クレアホーム株式会社,,株式会社,熊本県,熊本市北区,龍田弓削１丁目２９番１３号,,43,105,8618007,,,,,,,2025-04-03,1,,,,,クレアホーム,0
2021,9330003010921,新規,0,2025-04-03,2025-04-03,合同会社ＲＩＣＯＮＡ,,合同会社,熊本県,熊本市中央区,東子飼町８番５２－７１４号,,43,101,8600854,,,,,,,2025-04-03,1,,,,,リコナ,0
2023,9340001027248,新規,0,2025-04-03,2025-04-03,株式会社安藤左官,,株式会社,鹿児島県,鹿児島市,吉野町６０６７番地４９,,46,201,8920871,,,,,,,2025-04-03,1,,,,,アンドウサカン,0
2032,9430001094089,新規,0,2025-04-03,2025-04-03,株式会社Ｆｅｌｉｚ＆ＣＯ．,,株式会社,北海道,苫小牧市,元中野町２丁目２２番９号,,01,213,0530005,,,,,,,2025-04-03,1,,,,,フェリースアンドコー,0
2034,9430003017485,新規,0,2025-04-03,2025-04-03,合同会社オーエス,,合同会社,北海道,札幌市東区,北二十二条東２３丁目７番５－２０１号,,01,103,0650022,,,,,,,2025-04-03,1,,,,,オーエス,0
2037,9450005004447,新規,0,2025-04-03,2025-04-03,特定非営利活動法人みらいと,,その他の設立登記法人,北海道,富良野市,若松町２番１号,,01,229,0760032,,,,,,,2025-04-03,1,,,,,ミライト,0
2040,9480001012797,新規,0,2025-04-03,2025-04-03,株式会社Ｒｉａｎｎｅ,,株式会社,徳島県,徳島市,川内町下別宮西１３８番地,,36,201,7710105,,,,,,,2025-04-03,1,,,,,リアンヌ,0
2041,9490001011006,新規,0,2025-04-03,2025-04-03,マイト建築株式会社,,株式会社,高知県,高岡郡中土佐町,久礼６７５５番地１６,,39,401,7891301,,,,,,,2025-04-03,1,,,,,マイトケンチク,0
2042,9490005006984,新規,0,2025-04-03,2025-04-03,医療法人竹葉堂,,その他の設立登記法人,高知県,四万十市,中村京町１丁目２番地,,39,210,7870021,,,,,,,2025-04-03,1,,,,,チクヨウドウ,0
2048,9700150129799,新規,0,2025-04-03,2025-04-03,ＧＯＬＤ　ＷＩＮＧＳ　ＥＮＴＥＲＰＲＩＳＥＳ　ＰＶＴ　ＬＴＤ,,外国会社等,神奈川県,厚木市,小野２２７６－１－Ｂ,,14,212,2430125,スリランカ民主社会主義共和国、キャンディ市、アクラナ、クルゴダ、Ｎｏ．３５２／２／Ｂ,,,,,,2025-04-03,1,,,,,ゴールドウイングスエンタープライセスプライベツトリミテツド,0
2049,9700150129808,新規,0,2025-04-03,2025-04-03,ＡＵＴＯ　ＥＭＰＯＲＩＵＭ　ＥＮＴＥＲＰＲＩＳＥＳ,,外国会社等,千葉県,山武市,埴谷２４０６－３３Ａオフィス,,12,237,2891223,スリランカ民主社会主義共和国、マウントラビニア、マリーズロードストリート、Ｎｏ．１５,,,,,,2025-04-03,1,,,,,オートエンポリアムエンタープライセズ,0
2050,9700150129816,新規,0,2025-04-03,2025-04-03,Ｎ　Ｍ　ＴＲＡＤＥＲＳ,,外国会社等,神奈川県,藤沢市,葛原１４０－２７Ｂ,,14,205,2520822,スリランカ民主社会主義共和国、ボラレスガムワ、カトゥワウェラ１５２－Ａ,,,,,,2025-04-03,1,,,,,エヌエムトレーダーズ,0
