sequenceNumber,corporateNumber,process,correct,updateDate,changeDate,name,nameImageId,kind,prefectureName,cityName,streetNumber,addressImageId,prefectureCode,cityCode,postCode,addressOutside,addressOutsideImageId,closeDate,closeCause,successorCorporateNumber,changeCause,assignmentDate,latest,enName,enPrefectureName,enCityName,enAddressOutside,furigana,hihyoji
10,1010001239040,新規,0,2023-10-13,2023-10-13,カンザン株式会社,,株式会社,東京都,文京区,本郷４丁目１６番６号,,13,105,1130033,,,,,,,2023-10-13,1,,,,,カンザン,0
11,1010001239189,新規,0,2023-10-13,2023-10-13,福紀資産管理株式会社,,株式会社,東京都,千代田区,永田町２丁目９番６－８０５号,,13,101,1000014,,,,,,,2023-10-13,1,,,,,フクキシサンカンリ,0
14,1010003041915,新規,0,2023-10-13,2023-10-13,Ｅａｓｔ　Ｅｎｄ　Ｂｅａｖｅｒ合同会社,,合同会社,東京都,中央区,日本橋室町１丁目１１番１２号日本橋水野ビル７階,,13,102,1030022,,,,,,,2023-10-13,1,,,,,イーストエンドビーバー,0
22,1010401177690,新規,0,2023-10-13,2023-10-13,株式会社ＥＳＰＯＩＲ　ＦＲＯＮＴＩＥＲ,,株式会社,東京都,港区,南青山２丁目２６番３７号ＶＯＲＴ外苑前Ｉ－７Ｆ,00132236,13,103,1070062,,,,,,,2023-10-13,1,,,,,エスポワールフロンティア,0
23,1010401177773,新規,0,2023-10-13,2023-10-13,プレシャスメディカル株式会社,,株式会社,東京都,港区,高輪１丁目４番１０－２３０５号,,13,103,1080074,,,,,,,2023-10-13,1,,,,,プレスシャスメディカル,0
26,1010405022546,新規,0,2023-10-13,2023-10-13,一般社団法人環境と医療のＬａｂ．,,その他の設立登記法人,東京都,港区,元麻布３丁目５番１１号Ｃ３０３,,13,103,1060046,,,,,,,2023-10-13,1,,,,,カンキョウトイリョウノラボ,0
28,1010501051184,新規,0,2023-10-13,2023-10-13,久泰商事株式会社,,株式会社,東京都,台東区,千束２丁目３０番７号マンションＫ２,,13,106,1110031,,,,,,,2023-10-13,1,,,,,キュウタイショウジ,0
29,1010501051192,新規,0,2023-10-13,2023-10-13,東京沢連建物開発管理株式会社,,株式会社,東京都,台東区,元浅草２丁目７番５号モダンビルディング６階,,13,106,1110041,,,,,,,2023-10-13,1,,,,,トウキョウタクレンタテモノカイハツカンリ,0
38,1010801034418,新規,0,2023-10-13,2023-10-13,ナカハラｔｅｅ株式会社,,株式会社,東京都,大田区,田園調布１丁目２１番２号,,13,111,1450071,,,,,,,2023-10-13,1,,,,,ナカハラティー,0
39,1010901053986,新規,0,2023-10-13,2023-10-13,株式会社Ｓｕｐｐｌｅ,,株式会社,東京都,世田谷区,成城１丁目７番６号,,13,112,1570066,,,,,,,2023-10-13,1,,,,,サップル,0
46,1011001157406,新規,0,2023-10-13,2023-10-13,ＤＤ　Ｓｏｌｕｔｉｏｎｓ株式会社,,株式会社,東京都,渋谷区,渋谷２丁目１９番１５号,,13,113,1500002,,,,,,,2023-10-13,1,,,,,ディーディーソリューションズ,0
47,1011001157570,新規,0,2023-10-13,2023-10-13,株式会社石垣企画開発,,株式会社,東京都,渋谷区,神宮前４丁目１３番２号ＨＡＰ表参道ビル,,13,113,1500001,,,,,,,2023-10-13,1,,,,,イシガキキカクカイハツ,0
48,1011003017715,新規,0,2023-10-13,2023-10-13,合同会社ＬＣＧシステム,,合同会社,東京都,渋谷区,道玄坂１丁目１０番８号渋谷道玄坂東急ビル２Ｆ－Ｃ,,13,113,1500043,,,,,,,2023-10-13,1,,,,,エルシージーシステム,0
51,1011101104704,新規,0,2023-10-13,2023-10-13,株式会社ミライカＬａｂ,,株式会社,東京都,新宿区,西新宿１丁目２５番１号新宿センタービル４９階,,13,104,1600023,,,,,,,2023-10-13,1,,,,,ミライカラボ,0
52,1011101104720,新規,0,2023-10-13,2023-10-13,株式会社Ｏｎ　Ｔｈｅ　Ｌｉｎｋ,,株式会社,東京都,新宿区,市谷田町２丁目１１－１－１３０１,,13,104,1620843,,,,,,,2023-10-13,1,,,,,オンザリンク,0
53,1011101104729,新規,0,2023-10-13,2023-10-13,株式会社Ｐｒａｇｍａｔｉｃ,,株式会社,東京都,新宿区,神楽坂５丁目２０－５神楽坂アインスタワー１８０４号室,,13,104,1620825,,,,,,,2023-10-13,1,,,,,プラグマティック,0
54,1011101104745,新規,0,2023-10-13,2023-10-13,株式会社Ａ＆Ｋ,,株式会社,東京都,新宿区,新宿１丁目７－２藤和新宿御苑コープ２０３号,,13,104,1600022,,,,,,,2023-10-13,1,,,,,エーアンドケー,0
58,1011201024983,新規,0,2023-10-13,2023-10-13,株式会社Ａｃｔｅ,,株式会社,東京都,中野区,中野５丁目６７番７号プラザ中野８０１,,13,114,1640001,,,,,,,2023-10-13,1,,,,,アクティ,0
61,1011301029073,新規,0,2023-10-13,2023-10-13,株式会社Ｆｏｏｄｉｓｈ　Ｃｏ．,,株式会社,東京都,杉並区,上井草２丁目３７番１３号,,13,115,1670023,,,,,,,2023-10-13,1,,,,,フーディッシュカンパニー,0
62,1011301029081,新規,0,2023-10-13,2023-10-13,ＲＥＬｉＡＳ株式会社,,株式会社,東京都,杉並区,桃井２丁目１０番８号,,13,115,1670034,,,,,,,2023-10-13,1,,,,,リリアス,0
70,1011701026661,新規,0,2023-10-13,2023-10-13,株式会社明水設備,,株式会社,東京都,江戸川区,中央２丁目２３番５号富井テナント１号,,13,123,1320021,,,,,,,2023-10-13,1,,,,,メイスイセツビ,0
73,1012401041117,新規,0,2023-10-13,2023-10-13,株式会社Ｍｉｔｓｕｂａ,,株式会社,東京都,三鷹市,牟礼４丁目２２－１８ハイツムサシノＷ２０１,,13,204,1810002,,,,,,,2023-10-13,1,,,,,ミツバ,0
77,1012705002368,新規,0,2023-10-13,2023-10-13,一般社団法人演奏コーディネーター協会,,その他の設立登記法人,東京都,西東京市,東町３丁目１３番２１－４０３号,,13,229,2020012,,,,,,,2023-10-13,1,,,,,エンソウコーディネーターキョウカイ,0
86,1020001153892,新規,0,2023-10-13,2023-10-13,Ｆｕｔｕｒｅ　Ｏｎｅ株式会社,,株式会社,神奈川県,横浜市神奈川区,入江２丁目６番２５号ボヌール横浜４０１号,,14,102,2210014,,,,,,,2023-10-13,1,,,,,フユーチャーワン,0
87,1020001153918,新規,0,2023-10-13,2023-10-13,株式会社ラボテックサポート,,株式会社,神奈川県,川崎市宮前区,犬蔵３丁目１１番１０－６０３号,,14,136,2160011,,,,,,,2023-10-13,1,,,,,ラボテックサポート,0
88,1020001153926,新規,0,2023-10-13,2023-10-13,あろは薬局株式会社,,株式会社,神奈川県,川崎市宮前区,梶ケ谷１４８６番地,,14,136,2160034,,,,,,,2023-10-13,1,,,,,アロハヤッキョク,0
90,1020003024745,新規,0,2023-10-13,2023-10-13,合同会社マーズプランニング,,合同会社,神奈川県,横浜市神奈川区,栗田谷９番１号,,14,102,2210804,,,,,,,2023-10-13,1,,,,,マーズプランニング,0
91,1020003024761,新規,0,2023-10-13,2023-10-13,ＡＺコンサルティング合同会社,,合同会社,神奈川県,横浜市戸塚区,吉田町１４７クラフトリー３０２,,14,110,2440817,,,,,,,2023-10-13,1,,,,,エーゼットコンサルティング,0
92,1021001080458,新規,0,2023-10-13,2023-10-13,株式会社ＤａｙｂｒｅａｋＴｒａｄｅｒｓ,,株式会社,神奈川県,秦野市,南矢名５０８番地の２,,14,211,2570003,,,,,,,2023-10-13,1,,,,,デイブレイクトレーダーズ,0
93,1021003013647,新規,0,2023-10-13,2023-10-13,ヒラガナ合同会社,,合同会社,神奈川県,相模原市中央区,小山３丁目３０番１２号,,14,152,2520205,,,,,,,2023-10-13,1,,,,,ヒラガナ,0
98,1030001156548,新規,0,2023-10-13,2023-10-13,株式会社ＭＩＳソリューション,,株式会社,埼玉県,狭山市,広瀬東３丁目２６番２１号,,11,215,3501320,,,,,,,2023-10-13,1,,,,,エムアイエスソリューション,0
99,1030001156572,新規,0,2023-10-13,2023-10-13,株式会社トラッカー,,株式会社,埼玉県,三郷市,早稲田２丁目１０番地２号グランソフィア早稲田１号棟,,11,237,3410018,,,,,,,2023-10-13,1,,,,,トラッカー,0
100,1030001156580,新規,0,2023-10-13,2023-10-13,株式会社晃稜,,株式会社,埼玉県,鴻巣市,箕田３８５１番地６,,11,217,3650062,,,,,,,2023-10-13,1,,,,,コウリョウ,0
101,1030001156589,新規,0,2023-10-13,2023-10-13,株式会社ＰＲＡＥＭ,,株式会社,埼玉県,さいたま市見沼区,大字中川５３２番地１４,,11,104,3370043,,,,,,,2023-10-13,1,,,,,プライム,0
102,1030001156614,新規,0,2023-10-13,2023-10-13,エトワール株式会社,,株式会社,埼玉県,富士見市,ふじみ野東１丁目１２－１グロリー凰３０６号,,11,235,3540036,,,,,,,2023-10-13,1,,,,,エトワール,0
103,1030001156655,新規,0,2023-10-13,2023-10-13,株式会社藤原商事,,株式会社,埼玉県,さいたま市南区,大字太田窪２１５４－１４,,11,108,3360015,,,,,,,2023-10-13,1,,,,,フジワラショウジ,0
104,1030001156663,新規,0,2023-10-13,2023-10-13,株式会社ＡｄＣＯＭＹＹ,,株式会社,埼玉県,児玉郡神川町,大字元阿保１３９４番地４,,11,383,3670247,,,,,,,2023-10-13,1,,,,,アドコミー,0
111,1030003022748,新規,0,2023-10-13,2023-10-13,合同会社沖田インベストメント１１,,合同会社,埼玉県,川口市,本町４丁目１番６号第一ビル４階,,11,203,3320012,,,,,,,2023-10-13,1,,,,,オキタインベストメントイレブン,0
112,1030003022764,新規,0,2023-10-13,2023-10-13,いぬとわたし合同会社,,合同会社,埼玉県,草加市,青柳４丁目２９番２８号,,11,221,3400002,,,,,,,2023-10-13,1,,,,,イヌトワタシ,0
113,1030003022780,新規,0,2023-10-13,2023-10-13,ライフモダニータ合同会社,,合同会社,埼玉県,川口市,南町１丁目１番３８－２０５号ヒルズ川口南町,,11,203,3320026,,,,,,,2023-10-13,1,,,,,ライフモダニータ,0
116,1040001130485,新規,0,2023-10-13,2023-10-13,株式会社コネクト,,株式会社,千葉県,習志野市,本大久保２丁目４－９－４０７,,12,216,2750012,,,,,,,2023-10-13,1,,,,,コネクト,0
117,1040001130493,新規,0,2023-10-13,2023-10-13,天道農園株式会社,,株式会社,千葉県,いすみ市,大野３４２９番地,,12,238,2980113,,,,,,,2023-10-13,1,,,,,テンドウノウエン,0
126,1050003007846,新規,0,2023-10-13,2023-10-13,ＭＳ　ＩＮＴＥＲＮＡＴＩＯＮＡＬ　ＴＲＡＤＩＮＧ合同会社,,合同会社,茨城県,猿島郡境町,１００７番地永塚コーポＩ、Ｂ２０１,00132242,08,546,3060433,,,,,,,2023-10-13,1,,,,,エムエスインターナショナルトレーディング,0
136,1080103002901,新規,0,2023-10-13,2023-10-13,合同会社グロース,,合同会社,静岡県,御殿場市,川島田９４４番地の１,,22,215,4120045,,,,,,,2023-10-13,1,,,,,グロース,0
139,1100005013069,新規,0,2023-10-13,2023-10-13,ＮＰＯ法人ＦＵＬＬ里ＰＯＷＥＲ,,その他の設立登記法人,長野県,飯田市,羽場町３丁目１０番地１,,20,205,3950063,,,,,,,2023-10-13,1,,,,,フルサトパワー,0
158,1120001258789,新規,0,2023-10-13,2023-10-13,Ａｓｉａ　Ｃａｐｉｔａｌ　Ｓｔｒａｔｅｇｉｅｓ株式会社,,株式会社,大阪府,大阪市北区,梅田１丁目１－３大阪駅前第３ビル２９階１－１－１,,27,127,5300001,,,,,,,2023-10-13,1,,,,,アジアキャピタルストラテジーズ,0
159,1120001258797,新規,0,2023-10-13,2023-10-13,デスメタル株式会社,,株式会社,大阪府,門真市,月出町１４番１５号,,27,223,5710052,,,,,,,2023-10-13,1,,,,,デスメタル,0
163,1120003025072,新規,0,2023-10-13,2023-10-13,ＫＩＴＡＨＡＭＡ合同会社,,合同会社,大阪府,大阪市北区,天満１丁目５番７－１４０６号,,27,127,5300043,,,,,,,2023-10-13,1,,,,,キタハマ,0
170,1120901048158,新規,0,2023-10-13,2023-10-13,株式会社うるおい生活,,株式会社,大阪府,吹田市,春日１丁目５番３５－４１５号,,27,205,5650853,,,,,,,2023-10-13,1,,,,,ウルオイセイカツ,0
171,1120901048190,新規,0,2023-10-13,2023-10-13,山田電設工業株式会社,,株式会社,大阪府,摂津市,千里丘２丁目４番１５号,,27,224,5660001,,,,,,,2023-10-13,1,,,,,ヤマダデンセツコウギョウ,0
172,1120905006525,新規,0,2023-10-13,2023-10-13,一般財団法人鳥居芸術文化財団,,その他の設立登記法人,大阪府,豊中市,北桜塚２丁目１４番７号２Ｆ,,27,203,5600022,,,,,,,2023-10-13,1,,,,,トリイゲイジュツブンカザイダン,0
174,1130001075416,新規,0,2023-10-13,2023-10-13,株式会社南商事,,株式会社,京都府,京都市伏見区,羽束師鴨川町１７４番地１－２０３,,26,109,6128484,,,,,,,2023-10-13,1,,,,,ミナミショウジ,0
175,1130001075424,新規,0,2023-10-13,2023-10-13,株式会社Ｏ・Ｄ・Ｐ,,株式会社,京都府,京都市南区,久世築山町２３９－３,,26,107,6018203,,,,,,,2023-10-13,1,,,,,オディピ,0
176,1130001075481,新規,0,2023-10-13,2023-10-13,株式会社Ｉｎｏｉｃｈｉ,,株式会社,京都府,京都市北区,大宮北ノ岸町２０番地,,26,101,6038831,,,,,,,2023-10-13,1,,,,,イノイチ,0
178,1130003009066,新規,0,2023-10-13,2023-10-13,合同会社いっさい,,合同会社,京都府,京都市上京区,今出川通寺町東入大宮町３１２番地アルモード御所東１００４,,26,102,6020847,,,,,,,2023-10-13,1,,,,,イッサイ,0
182,1140001131944,新規,0,2023-10-13,2023-10-13,株式会社ろろろ,,株式会社,兵庫県,神戸市中央区,南本町通１丁目１番１号,,28,110,6510074,,,,,,,2023-10-13,1,,,,,ロロロ,0
183,1140001131960,新規,0,2023-10-13,2023-10-13,株式会社アンドビー,,株式会社,兵庫県,芦屋市,茶屋之町７番１３－２０３号,,28,206,6590067,,,,,,,2023-10-13,1,,,,,アンドビー,0
187,1140003019667,新規,0,2023-10-13,2023-10-13,合同会社ＴＲＵＳＴ,,合同会社,兵庫県,姫路市,保城５７９番地５,,28,201,6700804,,,,,,,2023-10-13,1,,,,,トラスト,0
190,1160001025418,新規,0,2023-10-13,2023-10-13,株式会社ぷろてくとさぽーと,,株式会社,滋賀県,東近江市,山路町２５０－９,,25,213,5211225,,,,,,,2023-10-13,1,,,,,プロテクトサポート,0
195,1180001158414,新規,0,2023-10-13,2023-10-13,株式会社石井設計,,株式会社,愛知県,名古屋市中区,錦１丁目２０番１２号,,23,106,4600003,,,,,,,2023-10-13,1,,,,,イシイセッケイ,0
196,1180001158447,新規,0,2023-10-13,2023-10-13,ハニーホルダー株式会社,,株式会社,愛知県,海部郡蟹江町,城１丁目４８３番地２,,23,425,4970040,,,,,,,2023-10-13,1,,,,,ハニーホルダー,0
197,1180001158463,新規,0,2023-10-13,2023-10-13,株式会社ＭＡＬＯ,,株式会社,愛知県,名古屋市中区,金山１丁目１５番１４号トーカンマンション金山４０１号,,23,106,4600022,,,,,,,2023-10-13,1,,,,,マロ,0
206,1190003004458,新規,0,2023-10-13,2023-10-13,合同会社合志保険事務所,,合同会社,三重県,四日市市,羽津中１丁目２番２１号,,24,202,5100002,,,,,,,2023-10-13,1,,,,,ゴウシホケンジムショ,0
208,1210001019505,新規,0,2023-10-13,2023-10-13,株式会社ｓｈｉｍａ　ｏｐｔｉｃｓ,,株式会社,福井県,鯖江市,杉本町第３５号９９番地,,18,207,9160005,,,,,,,2023-10-13,1,,,,,シマオプティクス,0
216,1240001062262,新規,0,2023-10-13,2023-10-13,Ａｓｃｅｎｄ株式会社,,株式会社,広島県,広島市安佐北区,可部５丁目９番５号,,34,106,7310221,,,,,,,2023-10-13,1,,,,,アセンド,0
223,1250001020335,新規,0,2023-10-13,2023-10-13,株式会社鋼和,,株式会社,山口県,下関市,大坪本町１５番５号,,35,201,7500051,,,,,,,2023-10-13,1,,,,,コウワ,0
228,1260001038401,新規,0,2023-10-13,2023-10-13,株式会社ウィール,,株式会社,岡山県,岡山市東区,益野町４３５番地１０,,33,103,7048175,,,,,,,2023-10-13,1,,,,,ウィール,0
229,1260003004467,新規,0,2023-10-13,2023-10-13,合同会社アンビシャス,,合同会社,岡山県,倉敷市,川西町１５番３号スターライトプラザ１Ｆ,,33,202,7100821,,,,,,,2023-10-13,1,,,,,アンビシャス,0
232,1280003001776,新規,0,2023-10-13,2023-10-13,ＶｉｓｕａｒｔＦｉｌｍｓ合同会社,,合同会社,島根県,松江市,雑賀町１３２６番地,,32,201,6900056,,,,,,,2023-10-13,1,,,,,ビジュアートフィルムス,0
236,1290001103375,新規,0,2023-10-13,2023-10-13,悠功建設株式会社,,株式会社,福岡県,筑後市,大字若菜１５５６番地,,40,211,8330047,,,,,,,2023-10-13,1,,,,,ユウコウケンセツ,0
239,1290801029943,新規,0,2023-10-13,2023-10-13,株式会社ユーズプロパティ,,株式会社,福岡県,北九州市八幡西区,香月西１丁目１０番２７－３０３号,,40,109,8071103,,,,,,,2023-10-13,1,,,,,ユーズプロパティ,0
240,1300001013498,新規,0,2023-10-13,2023-10-13,株式会社リアンメディカル,,株式会社,佐賀県,鳥栖市,秋葉町１丁目１０３７番地１,,41,203,8410036,,,,,,,2023-10-13,1,,,,,リアンメディカル,0
244,1330003010012,新規,0,2023-10-13,2023-10-13,合同会社ねこのて,,合同会社,熊本県,荒尾市,西原町１丁目３－１荒尾市起業家支援センターオフィスＡ,,43,204,8640053,,,,,,,2023-10-13,1,,,,,ネコノテ,0
246,1340001025985,新規,0,2023-10-13,2023-10-13,フルーツの里・広瀬株式会社,,株式会社,鹿児島県,薩摩郡さつま町,広瀬３００６番地２３,,46,392,8951801,,,,,,,2023-10-13,1,,,,,フルーツノサトヒロセ,0
249,1360001032674,新規,0,2023-10-13,2023-10-13,ミライビルド株式会社,,株式会社,沖縄県,那覇市,辻１丁目１６番９号サングリーンビル１階,,47,201,9000037,,,,,,,2023-10-13,1,,,,,ミライビルド,0
255,1370001050502,新規,0,2023-10-13,2023-10-13,プールブ株式会社,,株式会社,宮城県,仙台市青葉区,本町１丁目５番２８号カーニープレイス仙台駅前通内,,04,101,9800014,,,,,,,2023-10-13,1,,,,,プールブ,0
256,1370001050510,新規,0,2023-10-13,2023-10-13,株式会社ＮＦＦＴ　Ｓｅｒｖｉｃｅ,,株式会社,宮城県,仙台市青葉区,中江２丁目１８番６号,,04,101,9800001,,,,,,,2023-10-13,1,,,,,エヌエフエフティーサービス,0
258,1380001034058,新規,0,2023-10-13,2023-10-13,美則株式会社,,株式会社,福島県,福島市,岡部字当木前９７番地の２,,07,201,9608204,,,,,,,2023-10-13,1,,,,,ミノリ,0
261,1400001016409,新規,0,2023-10-13,2023-10-13,株式会社桐生,,株式会社,岩手県,一関市,狐禅寺字舞台１３５番地６,,03,209,0290131,,,,,,,2023-10-13,1,,,,,キリュウ,0
269,1430001090186,新規,0,2023-10-13,2023-10-13,ＫＭＨコノエ株式会社,,株式会社,北海道,札幌市北区,北十八条西３丁目２番２６号,,01,102,0010018,,,,,,,2023-10-13,1,,,,,ケーエムエイチコノエ,0
270,1430001090194,新規,0,2023-10-13,2023-10-13,Ｅｑｕａｌ　ｏｆｆｉｃｅ株式会社,,株式会社,北海道,札幌市東区,北二十三条東１５丁目２番１号,,01,103,0650023,,,,,,,2023-10-13,1,,,,,イコールオフィス,0
271,1430001090211,新規,0,2023-10-13,2023-10-13,コンフォータブル株式会社,,株式会社,北海道,札幌市白石区,菊水元町九条２丁目３番１２号,,01,104,0030829,,,,,,,2023-10-13,1,,,,,コンフォータブル,0
272,1430003015513,新規,0,2023-10-13,2023-10-13,合同会社ＨＡＩＲ　ＣＵＢＩＣ,,合同会社,北海道,滝川市,東町３丁目９２番地７,,01,225,0730024,,,,,,,2023-10-13,1,,,,,ヘアキュービック,0
276,1500001025242,新規,0,2023-10-13,2023-10-13,株式会社アスターエイム,,株式会社,愛媛県,松山市,高岡町７４５番地５,,38,201,7918036,,,,,,,2023-10-13,1,,,,,アスターエイム,0
279,1700150114890,新規,0,2023-10-13,2023-03-23,埼玉県舞踊協会,,その他,埼玉県,さいたま市浦和区,東仲町１－１６鳥昇ビル３階,,11,107,3300056,,,,,,,2023-03-23,1,,,,,サイタマケンブヨウキヨウカイ,0
280,1700150114932,新規,0,2023-10-13,2023-10-13,深セン市杰諾威科技　有限公司,,外国会社等,,,,,,,,深セン市龍崗区南湾街道丹竹頭社区宝丹路８号Ｄ棟３０１ーＣ,,,,,,2023-10-13,1,,,,,シンセンシケツダクイカギユウゲンコウシ,0
281,1700150117877,新規,0,2023-10-13,2023-10-13,深セン市云漢智活科技　有限公司,,外国会社等,,,,,,,,深セン市龍崗区坂田街道五和大道南坑村麒麟路９号１１棟幾何電商園３１４,,,,,,2023-10-13,1,,,,,シンセンシウンカンチカツカギユウゲンコウシ,0
288,2010001239007,新規,0,2023-10-13,2023-10-13,コアホールディングス株式会社,,株式会社,東京都,中央区,晴海１丁目８番１２号,,13,102,1040053,,,,,,,2023-10-13,1,,,,,コアホールディングス,0
289,2010001239196,新規,0,2023-10-13,2023-10-13,株式会社めぐみアドバイザーズ,,株式会社,東京都,中央区,月島３丁目１２番４－７０１号,,13,102,1040052,,,,,,,2023-10-13,1,,,,,メグミアドバイザーズ,0
290,2010001239221,新規,0,2023-10-13,2023-10-13,マイミッション株式会社,,株式会社,東京都,千代田区,富士見１丁目３－１１富士見デュープレックスＢ’ｓ４Ｆ,,13,101,1020071,,,,,,,2023-10-13,1,,,,,マイミッション,0
292,2010003041889,新規,0,2023-10-13,2023-10-13,合同会社Ａｄｏｎｅｌｌ,,合同会社,東京都,千代田区,神田松永町１３番地ＶＯＲＴ秋葉原ＩＩ,00132235,13,101,1010023,,,,,,,2023-10-13,1,,,,,アドネル,0
293,2010003041914,新規,0,2023-10-13,2023-10-13,合同会社くーねる,,合同会社,東京都,文京区,千駄木２丁目１０番１６号,,13,105,1130022,,,,,,,2023-10-13,1,,,,,クーネル,0
294,2010003041922,新規,0,2023-10-13,2023-10-13,Ｎａｌｏ　Ｈｏｕｓｅ合同会社,,合同会社,東京都,中央区,日本橋室町４丁目３番９号,,13,102,1030022,,,,,,,2023-10-13,1,,,,,ナロハウス,0
295,2010003041930,新規,0,2023-10-13,2023-10-13,パライバ合同会社,,合同会社,東京都,千代田区,丸の内３丁目１番１号東京共同会計事務所内,,13,101,1000005,,,,,,,2023-10-13,1,,,,,パライバ,0
302,2010401177772,新規,0,2023-10-13,2023-10-13,株式会社Ｓｐｅｒｉａ,,株式会社,東京都,港区,芝３丁目２９番６号,,13,103,1050014,,,,,,,2023-10-13,1,,,,,スペリア,0
304,2010403031135,新規,0,2023-10-13,2023-10-13,ＭＩＣ合同会社,,合同会社,東京都,港区,白金２丁目６番１３号,,13,103,1080072,,,,,,,2023-10-13,1,,,,,エムアイシー,0
305,2010403031143,新規,0,2023-10-13,2023-10-13,ＷＲ１合同会社,,合同会社,東京都,港区,赤坂１丁目１２番３２号アーク森ビル２２階,,13,103,1070052,,,,,,,2023-10-13,1,,,,,ダブルアールワン,0
306,2010403031176,新規,0,2023-10-13,2023-10-13,合同会社ＹＣＨ１３,,合同会社,東京都,港区,南青山２丁目２番１５－８２５号,,13,103,1070062,,,,,,,2023-10-13,1,,,,,ワイシーエイチサーティーン,0
307,2010405022545,新規,0,2023-10-13,2023-10-13,一般社団法人リカレ協会,,その他の設立登記法人,東京都,港区,六本木２丁目３番７号セントラルクリブ六本木３－３０１号室,,13,103,1060032,,,,,,,2023-10-13,1,,,,,リカレキョウカイ,0
308,2010501051191,新規,0,2023-10-13,2023-10-13,株式会社ニゼロ,,株式会社,東京都,台東区,浅草４丁目２８番１３－５０５号ミトモビル岳洋マンション,,13,106,1110032,,,,,,,2023-10-13,1,,,,,ニゼロ,0
309,2010503007191,新規,0,2023-10-13,2023-10-13,ＴＥＣＨＭＩＺＥ合同会社,,合同会社,東京都,台東区,台東１丁目２７－１１佐藤第二ビル３０４号室,,13,106,1100016,,,,,,,2023-10-13,1,,,,,テックマイズ,0
311,2010601063946,新規,0,2023-10-13,2023-10-13,株式会社ＹＯＵＹＯＵライフ,,株式会社,東京都,江東区,東砂４丁目１８－６,,13,108,1360074,,,,,,,2023-10-13,1,,,,,ユウユウライフ,0
328,2011101104703,新規,0,2023-10-13,2023-10-13,株式会社コラソン,,株式会社,東京都,新宿区,歌舞伎町１丁目２番７号,,13,104,1600021,,,,,,,2023-10-13,1,,,,,コラソン,0
329,2011201024982,新規,0,2023-10-13,2023-10-13,株式会社茂助,,株式会社,東京都,中野区,中野５丁目５５番１５号,,13,114,1640001,,,,,,,2023-10-13,1,,,,,モスケ,0
333,2011301029089,新規,0,2023-10-13,2023-10-13,名取不動産鑑定株式会社,,株式会社,東京都,杉並区,浜田山１丁目２１番８号ベルミー浜田山３０６,,13,115,1680065,,,,,,,2023-10-13,1,,,,,ナトリフドウサンカンテイ,0
335,2011401025525,新規,0,2023-10-13,2023-10-13,株式会社ＫＮＯＡ,,株式会社,東京都,板橋区,赤塚新町１丁目２５番６号ＣｌｅａｒＳｅａｓｏｎ４Ｆ,,13,119,1750093,,,,,,,2023-10-13,1,,,,,ノア,0
336,2011503005796,新規,0,2023-10-13,2023-10-13,Ｖａｎｙａｒｄ　Ｊａｐａｎ　Ｃｏｓｍｅｔｉｃ合同会社,,合同会社,東京都,北区,浮間１丁目７－２３兆豊浮間ビル５０２号室,,13,117,1150051,,,,,,,2023-10-13,1,,,,,バンヤードジャパンコスメティック,0
343,2011801043168,新規,0,2023-10-13,2023-10-13,ドーラ株式会社,,株式会社,東京都,葛飾区,新小岩２丁目１６番７号,,13,122,1240024,,,,,,,2023-10-13,1,,,,,ドーラ,0
344,2011803005884,新規,0,2023-10-13,2023-10-13,合同会社ＬＩＧＳ　ＣＡＰ,,合同会社,東京都,足立区,神明３丁目１０番４号,,13,121,1210051,,,,,,,2023-10-13,1,,,,,リグスキャップ,0
349,2012801022681,新規,0,2023-10-13,2023-10-13,株式会社Ｓｃｒｅｗ,,株式会社,東京都,武蔵村山市,学園５丁目１５番地の８,,13,223,2080011,,,,,,,2023-10-13,1,,,,,エスクルー,0
361,2013303006834,新規,0,2023-10-13,2023-10-13,Ｔｒｕｎｇ　Ｍｏｂｉｌｅ合同会社,,合同会社,東京都,豊島区,駒込１丁目４２番２号,,13,116,1700003,,,,,,,2023-10-13,1,,,,,チュンモバイル,0
367,2020001153842,新規,0,2023-10-13,2023-10-13,株式会社ディー・ワン・フレーム,,株式会社,神奈川県,川崎市宮前区,宮崎２丁目１２番地２０ベルグレイス宮崎台２０１,,14,136,2160033,,,,,,,2023-10-13,1,,,,,ディーワンフレーム,0
368,2020001153917,新規,0,2023-10-13,2023-10-13,エイム株式会社,,株式会社,神奈川県,横浜市泉区,中田南３丁目７番５号りんどう中田３Ｆ,,14,116,2450014,,,,,,,2023-10-13,1,,,,,エイム,0
390,2030001156571,新規,0,2023-10-13,2023-10-13,株式会社ＳＥＣＧＩＮ興業,,株式会社,埼玉県,さいたま市見沼区,大字膝子３２５番地２,,11,104,3370021,,,,,,,2023-10-13,1,,,,,セチキンコウギョウ,0
391,2030001156588,新規,0,2023-10-13,2023-10-13,株式会社Ｌｉｅｎ,,株式会社,埼玉県,川口市,本町３丁目３番１３－１２０２号,,11,203,3320012,,,,,,,2023-10-13,1,,,,,リアン,0
392,2030001156596,新規,0,2023-10-13,2023-10-13,株式会社サインアップ,,株式会社,埼玉県,所沢市,東所沢２丁目４１番地の２３,,11,208,3590021,,,,,,,2023-10-13,1,,,,,サインアップ,0
393,2030001156638,新規,0,2023-10-13,2023-10-13,株式会社寺元商事,,株式会社,埼玉県,狭山市,広瀬台１丁目４４番５号,,11,215,3501328,,,,,,,2023-10-13,1,,,,,テラモトショウジ,0
394,2030001156646,新規,0,2023-10-13,2023-10-13,株式会社Ｒｏｏｍ　Ｈｉｒｏ,,株式会社,埼玉県,越谷市,大字弥十郎６６６番地３,,11,222,3430047,,,,,,,2023-10-13,1,,,,,ルームヒロ,0
395,2030001156654,新規,0,2023-10-13,2023-10-13,株式会社ほんだすたいる,,株式会社,埼玉県,所沢市,小手指元町２丁目２９番地１１７,,11,208,3591147,,,,,,,2023-10-13,1,,,,,ホンダスタイル,0
396,2030001156662,新規,0,2023-10-13,2023-10-13,Ｗｉｚ．Ｄ株式会社,,株式会社,埼玉県,さいたま市緑区,美園６丁目５番地２５,,11,109,3360967,,,,,,,2023-10-13,1,,,,,ウィズディー,0
402,2030003022581,新規,0,2023-10-13,2023-10-13,合同会社桜,,合同会社,埼玉県,ふじみ野市,桜ケ丘２丁目４１番１５号,,11,245,3560059,,,,,,,2023-10-13,1,,,,,サクラ,0
403,2030003022747,新規,0,2023-10-13,2023-10-13,こんにちばん合同会社,,合同会社,埼玉県,川口市,西川口２丁目２－８青和ビル４０３,,11,203,3320021,,,,,,,2023-10-13,1,,,,,コンニチバン,0
404,2030003022771,新規,0,2023-10-13,2023-10-13,合同会社Ｌｅｔ　ｍｅ　ｋｎｏｗ,,合同会社,埼玉県,富士見市,針ケ谷２丁目１２番地３２,,11,235,3540017,,,,,,,2023-10-13,1,,,,,レットミーノウ,0
411,2050001053619,新規,0,2023-10-13,2023-10-13,アライ自動車販売株式会社,,株式会社,茨城県,牛久市,桂町１０６番地１,,08,219,3001281,,,,,,,2023-10-13,1,,,,,アライジドウシャハンバイ,0
412,2050001053643,新規,0,2023-10-13,2023-10-13,株式会社アジュガ,,株式会社,茨城県,桜川市,真壁町白井５０番地１,,08,231,3004404,,,,,,,2023-10-13,1,,,,,アジュガ,0
419,2060003004767,新規,0,2023-10-13,2023-10-13,合同会社新世工業,,合同会社,栃木県,宇都宮市,駒生町１２９６番地３５シャインクレストＦ棟２０１号,,09,201,3200065,,,,,,,2023-10-13,1,,,,,シンセイコウギョウ,0
421,2060005010144,新規,0,2023-10-13,2023-10-13,一般社団法人聡友,,その他の設立登記法人,栃木県,足利市,五十部町１０１７番地１５,,09,202,3260843,,,,,,,2023-10-13,1,,,,,ソウユウ,0
427,2080101024269,新規,0,2023-10-13,2023-10-13,株式会社ＳＴＯＲＹ,,株式会社,静岡県,富士市,国久保３丁目２番３２号３Ｆ,,22,210,4170071,,,,,,,2023-10-13,1,,,,,ストーリー,0
428,2080105006370,新規,0,2023-10-13,2023-10-13,医療法人社団山幸会,,その他の設立登記法人,静岡県,富士市,石坂４５１番５,,22,210,4170862,,,,,,,2023-10-13,1,,,,,サンコウカイ,0
432,2100001036865,新規,0,2023-10-13,2023-10-13,株式会社Ｆｉｄｕｃｉａ,,株式会社,長野県,長野市,篠ノ井岡田２９３番地１２,,20,201,3812225,,,,,,,2023-10-13,1,,,,,フィドゥーチャ,0
437,2110001037904,新規,0,2023-10-13,2023-10-13,株式会社ケーネクスト,,株式会社,新潟県,妙高市,上百々１丁目４番３１号オフィス１９９１、２階,,15,217,9440001,,,,,,,2023-10-13,1,,,,,ケーネクスト,0
442,2110005017010,新規,0,2023-10-13,2023-10-13,ＮＰＯ法人ひかりホーム,,その他の設立登記法人,新潟県,新潟市東区,藤見町２丁目１７番１０号,,15,102,9500025,,,,,,,2023-10-13,1,,,,,ヒカリホーム,0
454,2120001258714,新規,0,2023-10-13,2023-10-13,株式会社フィグ,,株式会社,大阪府,大阪市北区,梅田１丁目１番３号大阪駅前第３ビル２９階１－１－１号室,,27,127,5300001,,,,,,,2023-10-13,1,,,,,フィグ,0
455,2120001258722,新規,0,2023-10-13,2023-10-13,株式会社Ａ‐ＨＥＡＤ,,株式会社,大阪府,大阪市中央区,博労町３丁目２番１５,,27,128,5410059,,,,,,,2023-10-13,1,,,,,エーヘッド,0
461,2120005023940,新規,0,2023-10-13,2023-10-13,一般社団法人Ｊａｐａｎ　Ｌｉｖｅ　Ｓｅｌｌｅｒ’ｓ　Ａｓｓｏｃｉａｔｉｏｎ,,その他の設立登記法人,大阪府,大阪市中央区,松屋町７番１７号,,27,128,5420067,,,,,,,2023-10-13,1,,,,,ジャパンライブセラーズアソシエーション,0
468,2120101068377,新規,0,2023-10-13,2023-10-13,株式会社ハピリエ,,株式会社,大阪府,羽曳野市,南恵我之荘５３８番地７３,,27,222,5830000,,,,,,,2023-10-13,1,,,,,ハピリエ,0
470,2120103005477,新規,0,2023-10-13,2023-10-13,ＫＫフォーム合同会社,,合同会社,大阪府,岸和田市,春木中町２番１８号,,27,202,5960033,,,,,,,2023-10-13,1,,,,,ケイケイフォーム,0
471,2120103005485,新規,0,2023-10-13,2023-10-13,合同会社Ｕｅｄａ，ｉｎｃ．,,合同会社,大阪府,堺市西区,浜寺昭和町４丁５２８－５,,27,144,5928345,,,,,,,2023-10-13,1,,,,,ウエダインク,0
473,2120901048173,新規,0,2023-10-13,2023-10-13,株式会社キーテイル,,株式会社,大阪府,吹田市,岸部中４丁目７番４－２号,,27,205,5640002,,,,,,,2023-10-13,1,,,,,キーテイル,0
474,2122005003708,新規,0,2023-10-13,2023-10-13,一般社団法人Ｍ＆Ｂ　Ｐａｒｔｎｅｒｓ,,その他の設立登記法人,大阪府,東大阪市,長堂１丁目２番１号Ａ＋ＦＵＳＥビル５階,,27,227,5770056,,,,,,,2023-10-13,1,,,,,エムアンドビーパートナーズ,0
479,2130001075398,新規,0,2023-10-13,2023-10-13,株式会社ＴＥＮ,,株式会社,京都府,京都市山科区,川田中畑町２５番地の２,,26,110,6078336,,,,,,,2023-10-13,1,,,,,テン,0
481,2130003009032,新規,0,2023-10-13,2023-10-13,合同会社京都しもがも相続承継サポート,,合同会社,京都府,京都市左京区,下鴨北園町５番地の１,,26,103,6060831,,,,,,,2023-10-13,1,,,,,キョウトシモガモソウゾクショウケイサポート,0
482,2130003009040,新規,0,2023-10-13,2023-10-13,合同会社リバーサイド５１,,合同会社,京都府,京都市中京区,御池通東洞院東入笹屋町４３６番地永和御池ビル６０６号,,26,104,6048187,,,,,,,2023-10-13,1,,,,,リバーサイドゴジュウイチ,0
483,2130005016902,新規,0,2023-10-13,2023-10-13,医療法人真明会,,その他の設立登記法人,京都府,京都市右京区,西院高山寺町１０,,26,108,6160000,,,,,,,2023-10-13,1,,,,,シンメイカイ,0
492,2140001131935,新規,0,2023-10-13,2023-10-13,株式会社Ｎ・Ｍ・Ａ,,株式会社,兵庫県,神戸市西区,学園東町７丁目３０番地の２,,28,111,6512102,,,,,,,2023-10-13,1,,,,,エヌエムエー,0
493,2140001131951,新規,0,2023-10-13,2023-10-13,ｃｏｃｏ　Ｒ株式会社,,株式会社,兵庫県,加古川市,平岡町新在家８１５番地の２,,28,210,6750101,,,,,,,2023-10-13,1,,,,,ココアール,0
494,2140001131976,新規,0,2023-10-13,2023-10-13,株式会社エィシック,,株式会社,兵庫県,姫路市,安田３丁目１１８番地３,,28,201,6700955,,,,,,,2023-10-13,1,,,,,エィシック,0
497,2140003019666,新規,0,2023-10-13,2023-10-13,合同会社マラガ,,合同会社,兵庫県,神戸市灘区,日尾町２丁目２－７,,28,102,6570029,,,,,,,2023-10-13,1,,,,,マラガ,0
498,2140005026768,新規,0,2023-10-13,2023-10-13,一般社団法人むすび,,その他の設立登記法人,兵庫県,神戸市須磨区,北町１丁目３の６センティワン１０２,,28,107,6540064,,,,,,,2023-10-13,1,,,,,,0
501,2150001026795,新規,0,2023-10-13,2023-10-13,株式会社善能舎,,株式会社,奈良県,奈良市,三条本町１１番２２号ピアッツァコート奈良駅前２０５号,,29,201,6308122,,,,,,,2023-10-13,1,,,,,ゼンノウシャ,0
504,2180001158413,新規,0,2023-10-13,2023-10-13,株式会社ＶＰ,,株式会社,愛知県,瀬戸市,陶原町４丁目７番地バンベール瀬戸８０４,,23,204,4890805,,,,,,,2023-10-13,1,,,,,ブイピー,0
505,2180001158446,新規,0,2023-10-13,2023-10-13,株式会社ミノリアライズ,,株式会社,愛知県,名古屋市中区,丸の内２丁目１４番４号エグゼ丸の内８０４,,23,106,4600002,,,,,,,2023-10-13,1,,,,,ミノリアライズ,0
507,2180003025842,新規,0,2023-10-13,2023-10-13,合同会社Ｆｉｅｌｄ＆Ｒｉｖｅｒ　Ｍｅｄｉｃａｌ,,合同会社,愛知県,常滑市,本郷町３丁目２５０番地,,23,216,4790853,,,,,,,2023-10-13,1,,,,,フィールドアンドリバーメディカル,0
508,2180003025850,新規,0,2023-10-13,2023-10-13,ＫＡＫＡ　ＩＮＶＥＳＴＭＥＮＴＳ合同会社,,合同会社,愛知県,清須市,西枇杷島町問屋２１番地２ネオハイツびわじま２０３,,23,233,4520035,,,,,,,2023-10-13,1,,,,,カカインベストメンツ,0
510,2180301037911,新規,0,2023-10-13,2023-10-13,株式会社ピース・ビギン・ジャパン,,株式会社,愛知県,豊田市,前山町３丁目２番地３,,23,211,4710828,,,,,,,2023-10-13,1,,,,,ピースビギンジャパン,0
517,2200001041814,新規,0,2023-10-13,2023-10-13,株式会社ＢＦＢプランニング,,株式会社,岐阜県,関市,川間町５番地７,,21,205,5013235,,,,,,,2023-10-13,1,,,,,ビーエフビープランニング,0
519,2200003006105,新規,0,2023-10-13,2023-10-13,合同会社ＧＯＥＮ,,合同会社,岐阜県,美濃市,上河和２５０番地,,21,207,5013702,,,,,,,2023-10-13,1,,,,,ゴエン,0
520,2200005013529,新規,0,2023-10-13,2023-10-13,一般社団法人マリーコーポレーション,,その他の設立登記法人,岐阜県,多治見市,平野町４丁目８１番地の６１,,21,204,5070823,,,,,,,2023-10-13,1,,,,,マリーコーポレーション,0
521,2210001019504,新規,0,2023-10-13,2023-10-13,株式会社アトリエペルシュ,,株式会社,福井県,鯖江市,神中町２丁目４番３３号,,18,207,9160016,,,,,,,2023-10-13,1,,,,,アトリエペルシュ,0
526,2240001062253,新規,0,2023-10-13,2023-10-13,株式会社ライズ,,株式会社,広島県,福山市,加茂町字中野５９１番地,,34,207,7202418,,,,,,,2023-10-13,1,,,,,ライズ,0
527,2240001062261,新規,0,2023-10-13,2023-10-13,株式会社Ｂｅ　Ｃｌｉｍｂ,,株式会社,広島県,広島市中区,猫屋町４番２１号,,34,101,7300852,,,,,,,2023-10-13,1,,,,,ビークライム,0
532,2240003006373,新規,0,2023-10-13,2023-10-13,合同会社Ｆｒａｓｃ,,合同会社,広島県,広島市西区,南観音町２３番１８－３０２号,,34,104,7330034,,,,,,,2023-10-13,1,,,,,フラスコ,0
537,2270001008856,新規,0,2023-10-13,2023-10-13,株式会社レベルソ,,株式会社,鳥取県,鳥取市,秋里７３８番地１,,31,201,6800902,,,,,,,2023-10-13,1,,,,,レベルソ,0
541,2290001103325,新規,0,2023-10-13,2023-10-13,株式会社ＢｅｓｔＱｕａｌｉｔｙ,,株式会社,福岡県,福岡市早良区,大字椎原１１０５,,40,137,8111114,,,,,,,2023-10-13,1,,,,,ベストクオリティ,0
542,2290001103366,新規,0,2023-10-13,2023-10-13,ベジフルファーム株式会社,,株式会社,福岡県,古賀市,筵内８１３番地１,,40,223,8113121,,,,,,,2023-10-13,1,,,,,ベジフルファーム,0
543,2290001103382,新規,0,2023-10-13,2023-10-13,信業株式会社,,株式会社,福岡県,福岡市東区,多の津１丁目１０番１号４３１号室,,40,131,8130034,,,,,,,2023-10-13,1,,,,,シンギョウ,0
548,2300001013497,新規,0,2023-10-13,2023-10-13,株式会社ＥＰＴ,,株式会社,佐賀県,唐津市,二タ子３丁目１番１号,,41,202,8470861,,,,,,,2023-10-13,1,,,,,イーピーティー,0
552,2330001031348,新規,0,2023-10-13,2023-10-13,株式会社ＬｉａＬｉｆｅ,,株式会社,熊本県,熊本市南区,城南町舞原２７２番地３９,,43,104,8614214,,,,,,,2023-10-13,1,,,,,リアライフ,0
553,2330001031356,新規,0,2023-10-13,2023-10-13,株式会社プレストケア九州,,株式会社,熊本県,八代市,古閑中町１３８６番地１,,43,202,8660898,,,,,,,2023-10-13,1,,,,,プレストケアキュウシュウ,0
560,2360001032657,新規,0,2023-10-13,2023-10-13,株式会社ハッピー水産,,株式会社,沖縄県,沖縄市,諸見里１丁目２－２３,,47,211,9040032,,,,,,,2023-10-13,1,,,,,ハッピースイサン,0
561,2360001032673,新規,0,2023-10-13,2023-10-13,株式会社おきなわＣ＆Ｃホールディングス,,株式会社,沖縄県,那覇市,西１丁目１９番７号,,47,201,9000036,,,,,,,2023-10-13,1,,,,,オキナワシーアンドシーホールディングス,0
562,2360001032681,新規,0,2023-10-13,2023-10-13,株式会社沖創生,,株式会社,沖縄県,那覇市,樋川１丁目１８番８３号,,47,201,9000022,,,,,,,2023-10-13,1,,,,,オキソウセイ,0
565,2370001050501,新規,0,2023-10-13,2023-10-13,株式会社デンタリンク,,株式会社,宮城県,仙台市青葉区,大町２丁目９番８－１３０３号,,04,101,9800804,,,,,,,2023-10-13,1,,,,,デンタリンク,0
566,2370001050518,新規,0,2023-10-13,2023-10-13,株式会社北四五ベース,,株式会社,宮城県,仙台市青葉区,宮町３丁目８－１６,,04,101,9800004,,,,,,,2023-10-13,1,,,,,キタシゴベース,0
568,2390001017399,新規,0,2023-10-13,2023-10-13,株式会社和のしずく,,株式会社,山形県,天童市,南町２丁目１３番２１号クリスタルビル２号,,06,210,9940049,,,,,,,2023-10-13,1,,,,,ワノシズク,0
570,2430001090169,新規,0,2023-10-13,2023-10-13,株式会社輝咲通商,,株式会社,北海道,札幌市白石区,北郷三条３丁目１３番１７号,,01,104,0030833,,,,,,,2023-10-13,1,,,,,キサキツウショウ,0
571,2430001090177,新規,0,2023-10-13,2023-10-13,株式会社Ｌ．Ｖｉｌｌａｇｅ,,株式会社,北海道,北広島市,西の里北３丁目１番地１３,,01,234,0611104,,,,,,,2023-10-13,1,,,,,エルビレッジ,0
575,2430003015520,新規,0,2023-10-13,2023-10-13,合同会社Ｑ,,合同会社,北海道,札幌市中央区,南二十二条西１５丁目２番２０－２０５号,,01,101,0640922,,,,,,,2023-10-13,1,,,,,キュー,0
576,2430003015529,新規,0,2023-10-13,2023-10-13,バーリーハウジング合同会社,,合同会社,北海道,札幌市北区,北七条西４丁目１番１号トーカン札幌第一キャステール６０７,,01,102,0600807,,,,,,,2023-10-13,1,,,,,バーリーハウジング,0
581,2490001010609,新規,0,2023-10-13,2023-10-13,株式会社Ｒｉｖｅｒ＆Ｖｉｌｌａｇｅ,,株式会社,高知県,高知市,久礼野２３２－４２,,39,201,7800001,,,,,,,2023-10-13,1,,,,,リヴァーアンドヴィレッジ,0
585,2500003003121,新規,0,2023-10-13,2023-10-13,合同会社グループモリヤ,,合同会社,愛媛県,四国中央市,土居町野田乙２４４番地１,,38,213,7990705,,,,,,,2023-10-13,1,,,,,グループモリヤ,0
588,2700150114931,新規,0,2023-10-13,2023-10-13,成都啓龍商貿　有限公司,,外国会社等,,,,,,,,四川省成都市天府新区万安街道＿安東路１９８号,00132247,,,,,2023-10-13,1,,,,,セイトケイリユウシヨウボウユウゲンコウシ,0
589,2700150117430,新規,0,2023-10-13,2023-06-14,うつのみや表参道スクエア管理組合,,その他,栃木県,宇都宮市,馬場通り４丁目１番１,,09,201,3200026,,,,,,,2023-06-14,1,,,,,ウツノミヤオモテサンドウスクエアカンリクミアイ,0
598,3010001239204,新規,0,2023-10-13,2023-10-13,株式会社Ｉ．Ｙ．Ｐ　Ｃｏｎｓｕｌｔｉｎｇ,,株式会社,東京都,中央区,銀座７丁目２番２２号２Ｆ,,13,102,1040061,,,,,,,2023-10-13,1,,,,,アイワイピーコンサルティング,0
599,3010001239212,新規,0,2023-10-13,2023-10-13,株式会社オフィス雪乃,,株式会社,東京都,中央区,月島１丁目１８番９号,,13,102,1040052,,,,,,,2023-10-13,1,,,,,オフィスユキノ,0
604,3010401177730,新規,0,2023-10-13,2023-10-13,ヒノキ株式会社,,株式会社,東京都,港区,北青山１丁目３番１号アールキューブ青山３階,,13,103,1070061,,,,,,,2023-10-13,1,,,,,ヒノキ,0
605,3010401177739,新規,0,2023-10-13,2023-10-13,株式会社ヨネヤマ,,株式会社,東京都,港区,高輪３丁目２５番２３号京急第２ビル５Ｆ,,13,103,1080074,,,,,,,2023-10-13,1,,,,,ヨネヤマ,0
606,3010401177788,新規,0,2023-10-13,2023-10-13,株式会社ｌｉｔｔｌｅ　ｂｅａｒ,,株式会社,東京都,港区,北青山１丁目３番１号アールキューブ青山３階,,13,103,1070061,,,,,,,2023-10-13,1,,,,,リトルベア,0
607,3010401177796,新規,0,2023-10-13,2023-10-13,Ｍｅｔａ　ＤＩ株式会社,,株式会社,東京都,港区,赤坂４丁目８番１９号赤坂フロントタウン３階,,13,103,1070052,,,,,,,2023-10-13,1,,,,,メタディーアイ,0
609,3010403031134,新規,0,2023-10-13,2023-10-13,合同会社コハク,,合同会社,東京都,港区,南青山３丁目１番３６号青山丸竹ビル６Ｆ,,13,103,1070062,,,,,,,2023-10-13,1,,,,,コハク,0
610,3010403031159,新規,0,2023-10-13,2023-10-13,合同会社ウエスト,,合同会社,東京都,港区,南麻布４丁目１０番１０－３０４号,,13,103,1060047,,,,,,,2023-10-13,1,,,,,ウエスト,0
611,3010405022544,新規,0,2023-10-13,2023-10-13,一般社団法人つむぎすと,,その他の設立登記法人,東京都,港区,虎ノ門２丁目５－２虎ノ門窪田園ビル４Ｆ,,13,103,1050001,,,,,,,2023-10-13,1,,,,,ツムギスト,0
613,3010701044969,新規,0,2023-10-13,2023-10-13,株式会社リバイブ,,株式会社,東京都,品川区,西大井３丁目３番１号,,13,109,1400015,,,,,,,2023-10-13,1,,,,,リバイブ,0
617,3010901053976,新規,0,2023-10-13,2023-10-13,株式会社Ｎｏｂｉｌｅ,,株式会社,東京都,世田谷区,祖師谷３丁目８番１１号１階,,13,112,1570072,,,,,,,2023-10-13,1,,,,,ノビル,0
620,3011001157528,新規,0,2023-10-13,2023-10-13,Ｔｅｂａｓａｋｉ　Ｇｒｏｕｐ株式会社,,株式会社,東京都,渋谷区,桜丘町２６番１号セルリアンタワー１５階,,13,113,1500031,,,,,,,2023-10-13,1,,,,,テバサキグループ,0
621,3011001157544,新規,0,2023-10-13,2023-10-13,Ｇｌａｎｚ　Ａｇｅｎｃｙ株式会社,,株式会社,東京都,渋谷区,千駄ヶ谷５丁目１７番１４号ＭＳＤ２０ビル７階,,13,113,1510051,,,,,,,2023-10-13,1,,,,,グランツエージェンシー,0
622,3011001157552,新規,0,2023-10-13,2023-10-13,株式会社カントス,,株式会社,東京都,渋谷区,恵比寿４丁目２０番３号恵比寿ガーデンプレイスタワー,,13,113,1500013,,,,,,,2023-10-13,1,,,,,カントス,0
623,3011003017713,新規,0,2023-10-13,2023-10-13,合同会社Ｍｏｎｏｌｉｔｏ,,合同会社,東京都,渋谷区,道玄坂１丁目１０番８号渋谷道玄坂東急ビル２Ｆ－Ｃ,,13,113,1500043,,,,,,,2023-10-13,1,,,,,モノリート,0
624,3011003017721,新規,0,2023-10-13,2023-10-13,合同会社ライエ,,合同会社,東京都,目黒区,大橋１丁目５－１クロスエアタワー１８２１,,13,110,1530044,,,,,,,2023-10-13,1,,,,,ライエ,0
629,3011101104702,新規,0,2023-10-13,2023-10-13,陸港商事株式会社,,株式会社,東京都,新宿区,高田馬場４丁目４番１０号コーポラス徳光,,13,104,1690075,,,,,,,2023-10-13,1,,,,,リクコウショウジ,0
630,3011103013595,新規,0,2023-10-13,2023-10-13,合同会社ｏｎｅ,,合同会社,東京都,新宿区,西新宿３丁目３番１３号西新宿水間ビル６階,,13,104,1600023,,,,,,,2023-10-13,1,,,,,ワン,0
633,3011301029071,新規,0,2023-10-13,2023-10-13,株式会社ｒａｂｂｉｔ　ｆｏｏｔ,,株式会社,東京都,杉並区,高円寺南４丁目２５番７号五明堂駅前ビル２階ｂｃ号室,,13,115,1660003,,,,,,,2023-10-13,1,,,,,ラビットフット,0
636,3011501029870,新規,0,2023-10-13,2023-10-13,株式会社歩波,,株式会社,東京都,北区,滝野川３丁目４８番１－８０７号サニーコート滝野川,,13,117,1140023,,,,,,,2023-10-13,1,,,,,ホナミ,0
638,3011503005795,新規,0,2023-10-13,2023-10-13,同立合同会社,,合同会社,東京都,北区,田端新町１丁目７－１４ビズフィールド西日暮里１０３,,13,117,1140012,,,,,,,2023-10-13,1,,,,,ドウリツ,0
640,3011701026643,新規,0,2023-10-13,2023-10-13,株式会社Ｇｅｎｏｓ,,株式会社,東京都,江戸川区,西瑞江３丁目６－９,,13,123,1320015,,,,,,,2023-10-13,1,,,,,ジェノス,0
644,3011801043175,新規,0,2023-10-13,2023-10-13,株式会社ＡＴＴ,,株式会社,東京都,足立区,西伊興１丁目４番１２号,,13,121,1210824,,,,,,,2023-10-13,1,,,,,エーティーティー,0
646,3012401041107,新規,0,2023-10-13,2023-10-13,株式会社ソレイユ,,株式会社,東京都,調布市,柴崎２丁目１３番地１,,13,208,1820014,,,,,,,2023-10-13,1,,,,,ソレイユ,0
650,3013305003531,新規,0,2023-10-13,2023-10-13,一般社団法人日中幼児教育国際文化交流協会,,その他の設立登記法人,東京都,豊島区,東池袋１丁目３６－７アルテール池袋７０４号室,,13,116,1700013,,,,,,,2023-10-13,1,,,,,ニッチュウヨウジキョウイクコクサイブンカコウリュウキョウカイ,0
659,3020001153882,新規,0,2023-10-13,2023-10-13,株式会社ＬＣＬ,,株式会社,神奈川県,横浜市西区,浅間町１丁目４番３号ウィザードビル４０２,,14,103,2200072,,,,,,,2023-10-13,1,,,,,エルシーエル,0
660,3020001153890,新規,0,2023-10-13,2023-10-13,株式会社ＭＩＹＡ,,株式会社,神奈川県,横浜市西区,浅間町１丁目４番３号ウィザードビル４０２,,14,103,2200072,,,,,,,2023-10-13,1,,,,,ミヤ,0
661,3020001153908,新規,0,2023-10-13,2023-10-13,株式会社Ｂｅａｃｈ,,株式会社,神奈川県,横浜市南区,永田南１丁目５番１－４０１号,,14,105,2320073,,,,,,,2023-10-13,1,,,,,ビーチ,0
662,3020001153924,新規,0,2023-10-13,2023-10-13,株式会社齋藤建設,,株式会社,神奈川県,横浜市泉区,岡津町２８９９番地４,,14,116,2450003,,,,,,,2023-10-13,1,,,,,サイトウケンセツ,0
663,3020001153932,新規,0,2023-10-13,2023-10-13,株式会社ＯＡ,,株式会社,神奈川県,川崎市中原区,上新城２丁目７番５号,,14,133,2110045,,,,,,,2023-10-13,1,,,,,オア,0
670,3020003024702,新規,0,2023-10-13,2023-10-13,東神合同会社,,合同会社,神奈川県,横浜市港南区,日限山２丁目５番５号,,14,111,2330015,,,,,,,2023-10-13,1,,,,,トウジン,0
674,3021001080456,新規,0,2023-10-13,2023-10-13,株式会社ＴＫサンスター,,株式会社,神奈川県,平塚市,めぐみが丘１丁目１８番６号,,14,203,2591220,,,,,,,2023-10-13,1,,,,,ティケーサンスター,0
675,3021003013637,新規,0,2023-10-13,2023-10-13,スミス貿易合同会社,,合同会社,神奈川県,相模原市中央区,矢部２丁目１６番２４号ベルハイツ相模原１０１,,14,152,2520232,,,,,,,2023-10-13,1,,,,,スミスボウエキ,0
684,3030001156612,新規,0,2023-10-13,2023-10-13,キャンベル・サイエンティフィック・ジャパン株式会社,,株式会社,埼玉県,戸田市,川岸３丁目２番５号ＮＫビル戸田公園,,11,224,3350015,,,,,,,2023-10-13,1,,,,,キャンベルサイエンティフィックジャパン,0
685,3030001156653,新規,0,2023-10-13,2023-10-13,株式会社ＡＴＮ　Ｃｏｒｐｏｒａｔｉｏｎ,,株式会社,埼玉県,朝霞市,本町２丁目１０番地４０号グランリーヴ３０３号室,,11,227,3510011,,,,,,,2023-10-13,1,,,,,エイティーエヌコーポレーション,0
690,3030003022738,新規,0,2023-10-13,2023-10-13,合同会社Ｂダッシュ,,合同会社,埼玉県,さいたま市西区,三橋５丁目１８５６番１１号ビーライン三橋Ａ１０２,,11,101,3310052,,,,,,,2023-10-13,1,,,,,ビーダッシュ,0
691,3030003022746,新規,0,2023-10-13,2023-10-13,ＰＴ合同会社,,合同会社,埼玉県,川越市,新富町２丁目１－１新富町伊勢原ビル３ＦＣ,,11,201,3500043,,,,,,,2023-10-13,1,,,,,ピーティー,0
692,3030003022754,新規,0,2023-10-13,2023-10-13,合同会社フェイス,,合同会社,埼玉県,北足立郡伊奈町,栄４丁目２４８番地,,11,301,3620805,,,,,,,2023-10-13,1,,,,,フェイス,0
704,3040001130483,新規,0,2023-10-13,2023-10-13,株式会社Ａｌｅｓｌｉｎｘ,,株式会社,千葉県,千葉市中央区,問屋町３－１,,12,101,2600025,,,,,,,2023-10-13,1,,,,,アレスリンクス,0
708,3050001053626,新規,0,2023-10-13,2023-10-13,千城商事株式会社,,株式会社,茨城県,坂東市,みむら字二ノ谷６６９－１１,,08,228,3060655,,,,,,,2023-10-13,1,,,,,チシロショウジ,0
724,3070001040969,新規,0,2023-10-13,2023-10-13,株式会社エイチシー,,株式会社,群馬県,太田市,飯田町１０２９番地２森田ビル３階,,10,205,3730851,,,,,,,2023-10-13,1,,,,,エイチシー,0
729,3080103002899,新規,0,2023-10-13,2023-10-13,鼎安合同会社,,合同会社,静岡県,三島市,大宮町３丁目１６番２４号遠藤コーポ２０８,,22,206,4110035,,,,,,,2023-10-13,1,,,,,テイアン,0
733,3080403004892,新規,0,2023-10-13,2023-10-13,ＴＣ合同会社,,合同会社,静岡県,浜松市中区,住吉１丁目２４番７号,,22,131,4300906,,,,,,,2023-10-13,1,,,,,ティーシー,0
751,3120001258630,新規,0,2023-10-13,2023-10-13,株式会社慶音,,株式会社,大阪府,大阪市北区,本庄西３丁目５番１号グレース北梅田４０１号室,,27,127,5310073,,,,,,,2023-10-13,1,,,,,ケイオン,0
752,3120001258779,新規,0,2023-10-13,2023-10-13,株式会社ＡｎｇｅＹｏｕ,,株式会社,大阪府,大阪市天王寺区,国分町２番８号グレース国分町１階,,27,109,5430044,,,,,,,2023-10-13,1,,,,,アンジューユ,0
753,3120001258787,新規,0,2023-10-13,2023-10-13,株式会社モーリーズ,,株式会社,大阪府,大阪市中央区,西心斎橋２丁目８番２９号４０５,,27,128,5420086,,,,,,,2023-10-13,1,,,,,モーリーズ,0
754,3120001258804,新規,0,2023-10-13,2023-10-13,株式会社バンクシア,,株式会社,大阪府,大阪市城東区,東中浜３丁目６－９,,27,118,5360023,,,,,,,2023-10-13,1,,,,,バンクシア,0
760,3120101068376,新規,0,2023-10-13,2023-10-13,Ｌ．Ｅ．Ａ．Ｄ．株式会社,,株式会社,大阪府,岸和田市,磯上町３丁目１６番１７号,,27,202,5960001,,,,,,,2023-10-13,1,,,,,リード,0
761,3120101068384,新規,0,2023-10-13,2023-10-13,株式会社スパークル,,株式会社,大阪府,和泉市,寺田町１丁目３番４８号,,27,219,5940062,,,,,,,2023-10-13,1,,,,,スパークル,0
763,3120901048172,新規,0,2023-10-13,2023-10-13,株式会社サンシステムサービス,,株式会社,大阪府,豊中市,走井１丁目１３番１号,,27,203,5610891,,,,,,,2023-10-13,1,,,,,サンシステムサービス,0
766,3122001037469,新規,0,2023-10-13,2023-10-13,ｂｔｎｓ株式会社,,株式会社,大阪府,八尾市,萱振町３丁目２番地の１,,27,212,5810834,,,,,,,2023-10-13,1,,,,,ビーティーエヌエス,0
771,3130001075430,新規,0,2023-10-13,2023-10-13,株式会社チャイルドライクイノセンス,,株式会社,京都府,亀岡市,北町５７番地４,,26,206,6210861,,,,,,,2023-10-13,1,,,,,チャイルドライクイノセンス,0
772,3130001075488,新規,0,2023-10-13,2023-10-13,アプリ株式会社,,株式会社,京都府,京都市右京区,西京極畔勝町２３－Ｉ－７０２,00132253,26,108,6150806,,,,,,,2023-10-13,1,,,,,アプリ,0
774,3130003009031,新規,0,2023-10-13,2023-10-13,合同会社海老名駐車場,,合同会社,京都府,京都市右京区,嵯峨野宮ノ元４５,,26,108,6160000,,,,,,,2023-10-13,1,,,,,エビナチュウシャジョウ,0
776,3140001131942,新規,0,2023-10-13,2023-10-13,株式会社Ｈｉ‐ｓｔａｎｄａｒｄ,,株式会社,兵庫県,明石市,魚住町住吉４丁目４番２５号,,28,203,6740083,,,,,,,2023-10-13,1,,,,,ハイスタンダード,0
777,3140001131991,新規,0,2023-10-13,2023-10-13,株式会社福田,,株式会社,兵庫県,神戸市兵庫区,菊水町２丁目１番１０－１０４号,,28,105,6520058,,,,,,,2023-10-13,1,,,,,,0
779,3140003019657,新規,0,2023-10-13,2023-10-13,合同会社ひまわり,,合同会社,兵庫県,加古川市,平岡町新在家１３５９－１０２,,28,210,6750101,,,,,,,2023-10-13,1,,,,,ヒマワリ,0
784,3150001026794,新規,0,2023-10-13,2023-10-13,ライフサポートＯｈａｎａ株式会社,,株式会社,奈良県,大和高田市,大字勝目２６,,29,202,6350042,,,,,,,2023-10-13,1,,,,,ライフサポートオハナ,0
787,3170005007046,新規,0,2023-10-13,2023-10-13,特定非営利活動法人熊野の森ネットワークいちいがしの会,,その他の設立登記法人,和歌山県,西牟婁郡上富田町,岩田１７３４番地の２,,30,404,6492102,,,,,,,2023-10-13,1,,,,,クマノノモリネットワークイチイガシノカイ,0
790,3180001158420,新規,0,2023-10-13,2023-10-13,株式会社Ｘ　Ｅｘｐｅｒｔ,,株式会社,愛知県,名古屋市東区,東桜２丁目１３番１ｅａｓｔｇａｔｈｅｒ東桜５Ｆ,,23,102,4610005,,,,,,,2023-10-13,1,,,,,エックスエキスパート,0
791,3180001158429,新規,0,2023-10-13,2023-10-13,株式会社Ｏｆｆｉｃｅ　ＳＴＯＫ,,株式会社,愛知県,名古屋市名東区,藤が丘８番地,,23,115,4650032,,,,,,,2023-10-13,1,,,,,,0
799,3200003006104,新規,0,2023-10-13,2023-10-13,合同会社ＨＡＲＵＭＩ,,合同会社,岐阜県,瑞穂市,本田９１１番地１メゾン交告北棟３０３号,,21,216,5010236,,,,,,,2023-10-13,1,,,,,ハルミ,0
800,3220001025632,新規,0,2023-10-13,2023-10-13,アンビズ株式会社,,株式会社,石川県,珠洲市,飯田町１５部６１番地１,,17,205,9271214,,,,,,,2023-10-13,1,,,,,アンビズ,0
801,3230001020054,新規,0,2023-10-13,2023-10-13,株式会社本川商事,,株式会社,富山県,高岡市,東上関３０６番地２信開ドムス駅南７０６,,16,202,9330878,,,,,,,2023-10-13,1,,,,,モトカワショウジ,0
806,3240001062260,新規,0,2023-10-13,2023-10-13,株式会社ｙｕｕモータース,,株式会社,広島県,廿日市市,永原６０２番地３,,34,213,7380201,,,,,,,2023-10-13,1,,,,,ユーモータース,0
808,3240003006372,新規,0,2023-10-13,2023-10-13,合同会社コスモス,,合同会社,広島県,広島市中区,上幟町４番７－２０１号,,34,101,7300014,,,,,,,2023-10-13,1,,,,,コスモス,0
822,3290001103365,新規,0,2023-10-13,2023-10-13,ＴＨＥＳＵＮ株式会社,,株式会社,福岡県,大野城市,上大利３丁目６番５号,,40,219,8160955,,,,,,,2023-10-13,1,,,,,ザサン,0
825,3290801029933,新規,0,2023-10-13,2023-10-13,株式会社アイテックス,,株式会社,福岡県,北九州市戸畑区,福柳木１丁目１４番７号,,40,105,8040025,,,,,,,2023-10-13,1,,,,,アイテックス,0
826,3290801029941,新規,0,2023-10-13,2023-10-13,株式会社橘屋,,株式会社,福岡県,北九州市小倉北区,魚町４丁目１番１５号,,40,106,8020006,,,,,,,2023-10-13,1,,,,,タチバナヤ,0
831,3330003010010,新規,0,2023-10-13,2023-10-13,ハウスサポーターズ合同会社,,合同会社,熊本県,熊本市北区,楠８丁目１８番１２号,,43,105,8618003,,,,,,,2023-10-13,1,,,,,ハウスサポーターズ,0
833,3340003004283,新規,0,2023-10-13,2023-10-13,合同会社スペースマーク,,合同会社,鹿児島県,鹿児島市,岡之原町１３５―１,,46,201,8911201,,,,,,,2023-10-13,1,,,,,スペースマーク,0
838,3360001032672,新規,0,2023-10-13,2023-10-13,株式会社エンジェルハート,,株式会社,沖縄県,南城市,佐敷字兼久６４番地３,,47,215,9011411,,,,,,,2023-10-13,1,,,,,エンジェルハート,0
839,3360001032680,新規,0,2023-10-13,2023-10-13,株式会社Ｃ＆Ｆ,,株式会社,沖縄県,中頭郡北谷町,北谷２丁目１６番地７、１Ｆ,,47,326,9040116,,,,,,,2023-10-13,1,,,,,シーアンドエフ,0
842,3370001050509,新規,0,2023-10-13,2023-10-13,株式会社エイト,,株式会社,宮城県,白石市,福岡深谷字地蔵堂１１６番地６,,04,206,9890731,,,,,,,2023-10-13,1,,,,,エイト,0
843,3370001050517,新規,0,2023-10-13,2023-10-13,株式会社Ｓｔａｒ　Ｐｌａｔｉｎｕｍ,,株式会社,宮城県,仙台市青葉区,一番町２丁目１１番１２－８０２号,,04,101,9800811,,,,,,,2023-10-13,1,,,,,スタープラチナム,0
851,3390001017398,新規,0,2023-10-13,2023-10-13,心陽株式会社,,株式会社,山形県,西村山郡河北町,西里５１０５番地の１,,06,321,9993533,,,,,,,2023-10-13,1,,,,,シンヨウ,0
861,3700150117875,新規,0,2023-10-13,2023-10-13,広州天港皮具　有限公司,,外国会社等,,,,,,,,広州市白云区永平街道永泰聚賢街１８号之五５０２,,,,,,2023-10-13,1,,,,,コウシユウテンコウヒグユウゲンコウシ,0
862,3700150121209,新規,0,2023-10-13,2023-10-13,藤枝駅前一丁目９街区市街地再開発組合,,その他,静岡県,藤枝市,駅前２丁目７番２６号,,22,214,4260034,,,,,,,2023-10-13,1,,,,,フジエダエキマエイツチヨウメキユウガイクシガイチサイカイハツクミアイ,0
871,4010001239186,新規,0,2023-10-13,2023-10-13,株式会社Ｊ　ＳＯＬＵＴＩＯＮ　ＪＡＰＡＮ,,株式会社,東京都,千代田区,内神田１丁目８番１１号,,13,101,1010047,,,,,,,2023-10-13,1,,,,,ジェイソリューションジャパン,0
872,4010001239211,新規,0,2023-10-13,2023-10-13,スイッチアンドレバー株式会社,,株式会社,東京都,中央区,銀座１丁目１２番４号Ｎ＆ＥＢＬＤ．６Ｆ,,13,102,1040061,,,,,,,2023-10-13,1,,,,,スイッチアンドレバー,0
876,4010003041904,新規,0,2023-10-13,2023-10-13,鹿児島大浦ソーラー合同会社,,合同会社,東京都,千代田区,丸の内３丁目１番１号東京共同会計事務所内,,13,101,1000005,,,,,,,2023-10-13,1,,,,,カゴシマオオウラソーラー,0
877,4010003041912,新規,0,2023-10-13,2023-10-13,再エネレンディングファンド１号合同会社,,合同会社,東京都,中央区,八丁堀４丁目２番１０号ＡＯＪ税理士法人内,,13,102,1040032,,,,,,,2023-10-13,1,,,,,サイエネレンディングファンドイチゴウ,0
878,4010003041929,新規,0,2023-10-13,2023-10-13,合同会社ＫＯＦ２,,合同会社,東京都,千代田区,丸の内３丁目１番１号東京共同会計事務所内,,13,101,1000005,,,,,,,2023-10-13,1,,,,,ケイオーエフツー,0
887,4010401177762,新規,0,2023-10-13,2023-10-13,株式会社Ｃｏｌｏｒｆｕｌ　Ｌｉｆｅ,,株式会社,東京都,港区,南青山７丁目１－１４南青山テラス常盤松フォレスト２２０,,13,103,1070062,,,,,,,2023-10-13,1,,,,,カラフルライフ,0
888,4010401177779,新規,0,2023-10-13,2023-10-13,株式会社インタートワイン・ケーエム,,株式会社,東京都,港区,麻布台１丁目２番地４号,,13,103,1060041,,,,,,,2023-10-13,1,,,,,インタートワインケーエム,0
889,4010401177795,新規,0,2023-10-13,2023-10-13,株式会社テミクス・グリーン,,株式会社,東京都,港区,六本木１丁目６番１号,,13,103,1060032,,,,,,,2023-10-13,1,,,,,テミクスグリーン,0
915,4011001157469,新規,0,2023-10-13,2023-10-13,インプルーブメント株式会社,,株式会社,東京都,目黒区,三田２丁目５番１５号,,13,110,1530062,,,,,,,2023-10-13,1,,,,,インプルーブメント,0
916,4011001157543,新規,0,2023-10-13,2023-10-13,株式会社Ｂｌｕｅ　Ｂｅａｃｈ,,株式会社,東京都,渋谷区,道玄坂１丁目１５番３号プリメーラ道玄坂３Ｆ,,13,113,1500043,,,,,,,2023-10-13,1,,,,,ブルービーチ,0
917,4011001157576,新規,0,2023-10-13,2023-10-13,株式会社ギフトジャパン,,株式会社,東京都,渋谷区,道玄坂１丁目１０番８号渋谷道玄坂東急ビル２Ｆ－Ｃ,,13,113,1500043,,,,,,,2023-10-13,1,,,,,ギフトジャパン,0
918,4011001157584,新規,0,2023-10-13,2023-10-13,株式会社ＧＲＡＹ,,株式会社,東京都,渋谷区,桜丘町４番１４号ＶＯＲＴ渋谷桜丘ビル５Ｆ,,13,113,1500031,,,,,,,2023-10-13,1,,,,,グレイ,0
919,4011003017704,新規,0,2023-10-13,2023-10-13,合同会社ＭＸプランニング,,合同会社,東京都,渋谷区,東１丁目２７番７号渋谷東ＫＭビル３階,,13,113,1500011,,,,,,,2023-10-13,1,,,,,エムエックスプランニング,0
920,4011003017712,新規,0,2023-10-13,2023-10-13,ＷＡＮＯＫＵＮＩ　ＪＡＰＡＮ合同会社,,合同会社,東京都,渋谷区,渋谷２丁目１９－１５宮益坂ビルディング６０９,,13,113,1500002,,,,,,,2023-10-13,1,,,,,ワノクニジャパン,0
926,4011101104742,新規,0,2023-10-13,2023-10-13,株式会社Ｃｌｏｕｄ　Ｉｎｓｉｇｈｔ,,株式会社,東京都,新宿区,西新宿３丁目３番１３号西新宿水間ビル２Ｆ,,13,104,1600023,,,,,,,2023-10-13,1,,,,,クラウドインサイト,0
927,4011301029095,新規,0,2023-10-13,2023-10-13,株式会社オープナーＦ,,株式会社,東京都,杉並区,上荻３丁目７番１７号,,13,115,1670043,,,,,,,2023-10-13,1,,,,,オープナーエフ,0
930,4011505002583,新規,0,2023-10-13,2023-10-13,一般社団法人未来環境,,その他の設立登記法人,東京都,荒川区,荒川６丁目１９番１０号,,13,118,1160002,,,,,,,2023-10-13,1,,,,,ミライカンキョウ,0
932,4011601027179,新規,0,2023-10-13,2023-10-13,株式会社プロップリード,,株式会社,東京都,練馬区,旭町３丁目１４番１７－５０７号,,13,120,1790071,,,,,,,2023-10-13,1,,,,,プロップリード,0
938,4011801043166,新規,0,2023-10-13,2023-10-13,株式会社寺井商事,,株式会社,東京都,葛飾区,高砂８丁目１５番５号,,13,122,1250054,,,,,,,2023-10-13,1,,,,,テライショウジ,0
939,4011801043174,新規,0,2023-10-13,2023-10-13,株式会社Ｕｔｅｃｋ,,株式会社,東京都,足立区,梅島３丁目３８番１０号フローリット梅島９０３,,13,121,1210816,,,,,,,2023-10-13,1,,,,,ユーテック,0
944,4012401041097,新規,0,2023-10-13,2023-10-13,株式会社乙幡電設,,株式会社,東京都,調布市,深大寺元町４丁目２７番地１９,,13,208,1820017,,,,,,,2023-10-13,1,,,,,オツハタデンセツ,0
945,4012401041106,新規,0,2023-10-13,2023-10-13,北多摩不動産株式会社,,株式会社,東京都,三鷹市,新川４丁目１９番１号,,13,204,1810004,,,,,,,2023-10-13,1,,,,,キタタマフドウサン,0
947,4012403006230,新規,0,2023-10-13,2023-10-13,合同会社Ｃｅｌｅｓｔｉａｌ　Ｆｕｔｕｒｅ,,合同会社,東京都,武蔵野市,中町３丁目２６番１０号,,13,203,1800006,,,,,,,2023-10-13,1,,,,,セレスティアルフューチャー,0
952,4013301051459,新規,0,2023-10-13,2023-10-13,株式会社ＫＵＪＩＲＡ　Ｇｒｏｕｐ,,株式会社,東京都,豊島区,南池袋１丁目９番１８号,,13,116,1710022,,,,,,,2023-10-13,1,,,,,クジラグループ,0
953,4013301051467,新規,0,2023-10-13,2023-10-13,株式会社ＣＢＦ,,株式会社,東京都,豊島区,要町３丁目２９番６号３階,,13,116,1710043,,,,,,,2023-10-13,1,,,,,シービーエフ,0
955,4013305003530,新規,0,2023-10-13,2023-10-13,一般社団法人就労支援ＧＯＮ,,その他の設立登記法人,東京都,豊島区,東池袋２丁目１４番７－８０３号,,13,116,1700013,,,,,,,2023-10-13,1,,,,,シュウロウシエンジーオーエヌ,0
962,4020001153873,新規,0,2023-10-13,2023-10-13,盛世商事株式会社,,株式会社,神奈川県,横浜市南区,南吉田町１丁目１６番地１,,14,105,2320012,,,,,,,2023-10-13,1,,,,,モリヨショウジ,0
963,4020001153881,新規,0,2023-10-13,2023-10-13,株式会社ＴＲＩＡＮＧＬＥ,,株式会社,神奈川県,横浜市保土ケ谷区,上菅田町１４４番地４４,,14,106,2400051,,,,,,,2023-10-13,1,,,,,トライアングル,0
964,4020001153923,新規,0,2023-10-13,2023-10-13,株式会社ＭＮＴｐｌａｎｎｉｎｇ,,株式会社,神奈川県,横浜市港北区,日吉７丁目２番３０号ドリーム日吉２０５,,14,109,2230061,,,,,,,2023-10-13,1,,,,,エムエヌティプランニング,0
965,4020001153948,新規,0,2023-10-13,2023-10-13,株式会社吉原合同事務所,,株式会社,神奈川県,横浜市戸塚区,上倉田町２５９番地５棟４０６号,,14,110,2440816,,,,,,,2023-10-13,1,,,,,ヨシワラ,0
972,4020003024742,新規,0,2023-10-13,2023-10-13,合同会社加藤,,合同会社,神奈川県,川崎市多摩区,生田８丁目２０－１４,,14,135,2140038,,,,,,,2023-10-13,1,,,,,カトウ,0
973,4020003024750,新規,0,2023-10-13,2023-10-13,Ｌｕｘｘｉｏ合同会社,,合同会社,神奈川県,横浜市南区,別所中里台１１番１０号,,14,105,2320065,,,,,,,2023-10-13,1,,,,,ラキシオ,0
995,4030001156529,新規,0,2023-10-13,2023-10-13,ＢＳ　ＴＲＡＤＥ株式会社,,株式会社,埼玉県,越谷市,神明町３丁目２３７,,11,222,3430805,,,,,,,2023-10-13,1,,,,,ビーエストレイド,0
996,4030001156586,新規,0,2023-10-13,2023-10-13,株式会社ＳＫＹＳＵＮＳ,,株式会社,埼玉県,狭山市,広瀬東２丁目４４番８号,,11,215,3501320,,,,,,,2023-10-13,1,,,,,スカイサンズ,0
997,4030001156594,新規,0,2023-10-13,2023-10-13,株式会社Ｋ‐ＥＸ,,株式会社,埼玉県,幸手市,大字幸手２１１５番地３,,11,240,3400113,,,,,,,2023-10-13,1,,,,,ケイエクス,0
998,4030001156603,新規,0,2023-10-13,2023-10-13,株式会社ＳＭＩＬＥＳ　ＧＲＯＵＰ,,株式会社,埼玉県,川口市,芝４丁目６番２２号,,11,203,3330866,,,,,,,2023-10-13,1,,,,,スマイルスグループ,0
1000,4030003022729,新規,0,2023-10-13,2023-10-13,ＷＩＬＤ　ＰＯＣＫＥＴＳ合同会社,,合同会社,埼玉県,川口市,北原台２丁目１３－６－６０２,,11,203,3330815,,,,,,,2023-10-13,1,,,,,ワイルドポケッツ,0
1001,4030003022737,新規,0,2023-10-13,2023-10-13,Ｔ＆Ｔ合同会社,,合同会社,埼玉県,久喜市,西１８８番地１５パレスマンション,,11,232,3460015,,,,,,,2023-10-13,1,,,,,ティアンドティ,0
1002,4030003022745,新規,0,2023-10-13,2023-10-13,合同会社ブレイブハート,,合同会社,埼玉県,上尾市,谷津１丁目８番３２号,,11,219,3620042,,,,,,,2023-10-13,1,,,,,ブレイブハート,0
1003,4030003022753,新規,0,2023-10-13,2023-10-13,吉川合同会社,,合同会社,埼玉県,さいたま市大宮区,吉敷町４丁目２６２番地４すずらん館８０２,,11,103,3300843,,,,,,,2023-10-13,1,,,,,ヨシカワ,0
1008,4040001130458,新規,0,2023-10-13,2023-10-13,コモダホーム株式会社,,株式会社,千葉県,船橋市,咲が丘４丁目２１番３０号,,12,204,2740807,,,,,,,2023-10-13,1,,,,,コモダホーム,0
1009,4040001130474,新規,0,2023-10-13,2023-10-13,ＤＯＲＡ商事株式会社,,株式会社,千葉県,千葉市中央区,今井２丁目１２番１３号蘇我第２マンション３１０号,,12,101,2600834,,,,,,,2023-10-13,1,,,,,ドラショウジ,0
1014,4050001053625,新規,0,2023-10-13,2023-10-13,株式会社ふくみみ,,株式会社,茨城県,つくば市,さくらの森１２－１レユシール２０２,,08,220,3050019,,,,,,,2023-10-13,1,,,,,フクミミ,0
1016,4050003007851,新規,0,2023-10-13,2023-10-13,合同会社つくばライフサポート,,合同会社,茨城県,守谷市,ひがし野４丁目５番地８－３０９,,08,224,3020131,,,,,,,2023-10-13,1,,,,,ツクバライフサポート,0
1017,4060001036414,新規,0,2023-10-13,2023-10-13,株式会社ソワーズ,,株式会社,栃木県,栃木市,神田町２番８号,,09,203,3280032,,,,,,,2023-10-13,1,,,,,ソワーズ,0
1018,4060001036430,新規,0,2023-10-13,2023-10-13,株式会社心和興業,,株式会社,栃木県,宇都宮市,北若松原１丁目６番６号ラ・スリーゼ３０３,,09,201,3210153,,,,,,,2023-10-13,1,,,,,シンワコウギョウ,0
1019,4060003004765,新規,0,2023-10-13,2023-10-13,幸平テック合同会社,,合同会社,栃木県,矢板市,幸岡１０６８番地２,,09,211,3292151,,,,,,,2023-10-13,1,,,,,ユキヒラテック,0
1021,4070001040968,新規,0,2023-10-13,2023-10-13,株式会社ＭＦＤ,,株式会社,群馬県,伊勢崎市,堀下町４４番地１４,,10,204,3792212,,,,,,,2023-10-13,1,,,,,エムエフディー,0
1023,4080003003071,新規,0,2023-10-13,2023-10-13,まきたオレンジファーム合同会社,,合同会社,静岡県,静岡市清水区,山切１５番地の１,,22,103,4240105,,,,,,,2023-10-13,1,,,,,マキタオレンジファーム,0
1027,4080101024267,新規,0,2023-10-13,2023-10-13,株式会社ｔａｎｅ,,株式会社,静岡県,三島市,富田町１３番３７号,,22,206,4110836,,,,,,,2023-10-13,1,,,,,タネ,0
1044,4120001258695,新規,0,2023-10-13,2023-10-13,株式会社米良,,株式会社,大阪府,交野市,妙見東３丁目１５番２６号,,27,230,5760012,,,,,,,2023-10-13,1,,,,,メラ,0
1045,4120001258704,新規,0,2023-10-13,2023-10-13,株式会社Ｒｅｓｔａｒｔ,,株式会社,大阪府,大阪市都島区,都島中通３丁目８番４号寿住宅１０２,,27,102,5340022,,,,,,,2023-10-13,1,,,,,リスタート,0
1046,4120001258712,新規,0,2023-10-13,2023-10-13,ｌａｂｏ６２３株式会社,,株式会社,大阪府,大阪市中央区,森ノ宮中央２丁目１０－２,,27,128,5400003,,,,,,,2023-10-13,1,,,,,ラボムツミ,0
1047,4120001258753,新規,0,2023-10-13,2023-10-13,株式会社ＳＹＮ,,株式会社,大阪府,大阪市生野区,鶴橋２丁目１５番１４号,,27,116,5440031,,,,,,,2023-10-13,1,,,,,シイン,0
1049,4120003025094,新規,0,2023-10-13,2023-10-13,合同会社ＣＴ,,合同会社,大阪府,大阪市中央区,南船場１丁目１０番１２号,,27,128,5420081,,,,,,,2023-10-13,1,,,,,シーティー,0
1050,4120005023939,新規,0,2023-10-13,2023-10-13,一般社団法人日本オートディテイリング協会,,その他の設立登記法人,大阪府,大阪市北区,樋之口町１－２０－３６１０,,27,127,5300032,,,,,,,2023-10-13,1,,,,,ニホンオートディテイリングキョウカイ,0
1055,4120101068367,新規,0,2023-10-13,2023-10-13,ＡＫマテリアル株式会社,,株式会社,大阪府,堺市堺区,大町東２丁２番４号,,27,141,5900954,,,,,,,2023-10-13,1,,,,,エーケーマテリアル,0
1056,4120103005483,新規,0,2023-10-13,2023-10-13,合同会社Ｏｎｅ　Ｈｏｐｅ,,合同会社,大阪府,泉北郡忠岡町,高月北２丁目１３番９号,,27,341,5950801,,,,,,,2023-10-13,1,,,,,ワンホープ,0
1058,4120901048188,新規,0,2023-10-13,2023-10-13,一名不動産株式会社,,株式会社,大阪府,豊中市,寺内１丁目１０－７－４０２号,,27,203,5610872,,,,,,,2023-10-13,1,,,,,イチメイフドウサン,0
1061,4130001075396,新規,0,2023-10-13,2023-10-13,徳村工業株式会社,,株式会社,京都府,京都市山科区,小野弓田町２４番地２ｆｕｇａＢ号室,,26,110,6078253,,,,,,,2023-10-13,1,,,,,,0
1062,4130001075413,新規,0,2023-10-13,2023-10-13,株式会社Ｃ．Ｃ．ｃｏｍｐａｎｙ,,株式会社,京都府,京都市伏見区,向島津田町１８２－２,,26,109,6128154,,,,,,,2023-10-13,1,,,,,シーシーカンパニー,0
1065,4130003009039,新規,0,2023-10-13,2023-10-13,合同会社ＵｒＢＡＮＧＵＩＬＤ,,合同会社,京都府,京都市中京区,材木町１８１－２ニュー京都ビル３階,,26,104,6048017,,,,,,,2023-10-13,1,,,,,アバンギルド,0
1066,4130003009047,新規,0,2023-10-13,2023-10-13,合同会社谷口コンサルティング,,合同会社,京都府,京都市伏見区,深草北蓮池町９０８番地,,26,109,6120035,,,,,,,2023-10-13,1,,,,,タニグチコンサルティング,0
1070,4140001131891,新規,0,2023-10-13,2023-10-13,金泉株式会社,,株式会社,兵庫県,神戸市東灘区,向洋町中１丁目１７番,,28,101,6580032,,,,,,,2023-10-13,1,,,,,キンセン,0
1071,4140001131933,新規,0,2023-10-13,2023-10-13,株式会社１０６,,株式会社,兵庫県,神戸市中央区,北長狭通４丁目２番１９号,,28,110,6500012,,,,,,,2023-10-13,1,,,,,イチマルロク,0
1072,4140001131958,新規,0,2023-10-13,2023-10-13,Ｂｅ　ａ　Ｇｉｖｅｒ株式会社,,株式会社,兵庫県,尼崎市,常松２丁目８番７号,,28,202,6610046,,,,,,,2023-10-13,1,,,,,ビーアギバー,0
1074,4140003019656,新規,0,2023-10-13,2023-10-13,合同会社ごんねこら,,合同会社,兵庫県,神戸市中央区,籠池通４丁目１番６１号,,28,110,6510053,,,,,,,2023-10-13,1,,,,,ゴンネコラ,0
1075,4140003019672,新規,0,2023-10-13,2023-10-13,合同会社ＭＡＴＵＮＡ,,合同会社,兵庫県,川西市,向陽台２丁目３－７イワオビル３番館１０１号室,,28,217,6660115,,,,,,,2023-10-13,1,,,,,マツナ,0
1076,4140003019680,新規,0,2023-10-13,2023-10-13,合同会社ｋｉｃｏｎｎｅｃｔ,,合同会社,兵庫県,宝塚市,ふじガ丘２１番４号,,28,214,6650806,,,,,,,2023-10-13,1,,,,,キコネクト,0
1077,4140005026766,新規,0,2023-10-13,2023-10-13,一般社団法人Ｔ＆Ａコンストラクション,,その他の設立登記法人,兵庫県,西宮市,平木町１２番１２号,,28,204,6620835,,,,,,,2023-10-13,1,,,,,ティーアンドエーコンストラクション,0
1081,4180001158403,新規,0,2023-10-13,2023-10-13,株式会社東山グループ,,株式会社,愛知県,あま市,森２丁目４－５,,23,237,4901107,,,,,,,2023-10-13,1,,,,,ヒガシヤマグループ,0
1082,4180001158436,新規,0,2023-10-13,2023-10-13,奕東電子日本株式会社,,株式会社,愛知県,名古屋市名東区,若葉台１５０９番地,,23,115,4650015,,,,,,,2023-10-13,1,,,,,エキトウデンシニホン,0
1083,4180001158452,新規,0,2023-10-13,2023-10-13,株式会社Ａ　Ｍａｉｓｏｎ,,株式会社,愛知県,名古屋市名東区,よもぎ台１丁目２０４－１,,23,115,4650091,,,,,,,2023-10-13,1,,,,,エーメゾン,0
1085,4180003025840,新規,0,2023-10-13,2023-10-13,合同会社エーワイ,,合同会社,愛知県,半田市,有楽町５丁目１０２番地,,23,205,4750837,,,,,,,2023-10-13,1,,,,,エーワイ,0
1091,4190001030791,新規,0,2023-10-13,2023-10-13,豊富不動産株式会社,,株式会社,三重県,津市,久居新町３００６番地ポルタひさい南館１０３１,,24,201,5141118,,,,,,,2023-10-13,1,,,,,トヨトミフドウサン,0
1092,4190001030800,新規,0,2023-10-13,2023-10-13,株式会社Ｓ‐ＱＲＥＳＴ,,株式会社,三重県,度会郡玉城町,蚊野２２５９番地,,24,461,5190431,,,,,,,2023-10-13,1,,,,,エスクレスト,0
1098,4200001041804,新規,0,2023-10-13,2023-10-13,Ｊｉｍｍｙ株式会社,,株式会社,岐阜県,加茂郡富加町,高畑２９１番地,,21,502,5013304,,,,,,,2023-10-13,1,,,,,ジミー,0
1105,4230001020053,新規,0,2023-10-13,2023-10-13,ＦＣＬ株式会社,,株式会社,富山県,富山市,桜町２丁目１番１号,,16,201,9300003,,,,,,,2023-10-13,1,,,,,エフシーエル,0
1109,4240001062268,新規,0,2023-10-13,2023-10-13,ＳＳｂｕｌｌ株式会社,,株式会社,広島県,広島市中区,東平塚町８番７－５０３号,,34,101,7300025,,,,,,,2023-10-13,1,,,,,エスエスブル,0
1122,4290001103372,新規,0,2023-10-13,2023-10-13,株式会社１１０,,株式会社,福岡県,福岡市中央区,御所ヶ谷２番３６号,,40,133,8100027,,,,,,,2023-10-13,1,,,,,ワンワンオー,0
1125,4290003014477,新規,0,2023-10-13,2023-10-13,合同会社ＦＩＶＥ‐ＢＲＯ,,合同会社,福岡県,福岡市中央区,平和３丁目１３－６－２０３,,40,133,8100016,,,,,,,2023-10-13,1,,,,,ファイブブロ,0
1130,4320001020069,新規,0,2023-10-13,2023-10-13,株式会社誠昇工業,,株式会社,大分県,大分市,北鶴崎１丁目１番８号ハピネス１０１号,,44,201,8700102,,,,,,,2023-10-13,1,,,,,セイショウコウギョウ,0
1139,4360003013372,新規,0,2023-10-13,2023-10-13,ｅｉｓｅｉｔｅｃｈ合同会社,,合同会社,沖縄県,糸満市,字小波蔵７８番地の１号,,47,210,9010341,,,,,,,2023-10-13,1,,,,,エイセイテック,0
1142,4370001050508,新規,0,2023-10-13,2023-10-13,株式会社壱代建設,,株式会社,宮城県,仙台市泉区,将監１丁目１５番１２号,,04,105,9813132,,,,,,,2023-10-13,1,,,,,イチダイケンセツ,0
1143,4370003006318,新規,0,2023-10-13,2023-10-13,ＳＡＮＳＥＩ　ＢＡＳＥ合同会社,,合同会社,宮城県,塩竈市,舟入２丁目１番１０号,,04,203,9850014,,,,,,,2023-10-13,1,,,,,サンセイベース,0
1152,4430001090183,新規,0,2023-10-13,2023-10-13,株式会社Ｃａｒｅｅｒ　Ｗａｙｓ,,株式会社,北海道,札幌市北区,太平三条１丁目２番２２号,,01,102,0028003,,,,,,,2023-10-13,1,,,,,キャリアウェイズ,0
1153,4430001090200,新規,0,2023-10-13,2023-10-13,株式会社Ｌｕｃｋ,,株式会社,北海道,札幌市豊平区,月寒東四条１０丁目１４番１０号,,01,105,0620054,,,,,,,2023-10-13,1,,,,,ラック,0
1154,4430001090217,新規,0,2023-10-13,2023-10-13,株式会社Ｄｉｖａ．ｃｏｒ,,株式会社,北海道,小樽市,花園１丁目１１番２１号Ｇ４ビル１階,,01,203,0470024,,,,,,,2023-10-13,1,,,,,ディーバコル,0
1157,4470001019848,新規,0,2023-10-13,2023-10-13,株式会社ロックガーデン,,株式会社,香川県,高松市,木太町２４１９番地６６ＢＯＸＫ．Ｔ３０５号室,,37,201,7600080,,,,,,,2023-10-13,1,,,,,ロックガーデン,0
1161,4490001010607,新規,0,2023-10-13,2023-10-13,株式会社参慶,,株式会社,高知県,香南市,夜須町西山４４６番地,,39,211,7815603,,,,,,,2023-10-13,1,,,,,サンケイ,0
1164,4500005008645,新規,0,2023-10-13,2023-10-13,一般社団法人井川雄治奨学会,,その他の設立登記法人,愛媛県,四国中央市,三島宮川２丁目５番８号,,38,213,7990404,,,,,,,2023-10-13,1,,,,,イカワユウジショウガクカイ,0
1165,4700150115143,新規,0,2023-10-13,2023-10-13,楽清超ハン商貿　有限公司,,外国会社等,,,,,,,,浙江省温州市楽清市柳市鎮柳江路１８号Ａ棟２３層２３１５室,,,,,,2023-10-13,1,,,,,ラクシンチヨウハンシヨウボウユウゲンコウシ,0
1182,5010001238996,新規,0,2023-10-13,2023-10-13,株式会社ＬＩＱ,,株式会社,東京都,中央区,日本橋室町１丁目１１番１２号日本橋水野ビル７階,,13,102,1030022,,,,,,,2023-10-13,1,,,,,エルアイキュー,0
1183,5010001239202,新規,0,2023-10-13,2023-10-13,株式会社原本産業,,株式会社,東京都,文京区,湯島３丁目１６番１２号モーリオン湯島６階,,13,105,1130034,,,,,,,2023-10-13,1,,,,,ハラモトサンギョウ,0
1184,5010001239219,新規,0,2023-10-13,2023-10-13,株式会社ＫＯジャパン,,株式会社,東京都,中央区,日本橋２丁目３番２１号八重洲セントラルビル９階,,13,102,1030027,,,,,,,2023-10-13,1,,,,,ケーオージャパン,0
1185,5010001239227,新規,0,2023-10-13,2023-10-13,株式会社ＧＥＭＩＮＩ　ＧＲＯＵＰ,,株式会社,東京都,千代田区,平河町２丁目５番３号,,13,101,1020093,,,,,,,2023-10-13,1,,,,,ジェミナイグループ,0
1186,5010003041928,新規,0,2023-10-13,2023-10-13,４Ｐ　ｆｏｒ　Ｃ合同会社,,合同会社,東京都,千代田区,有楽町１丁目２－２東宝塚日比谷ビル９Ｆ,00132234,13,101,1000006,,,,,,,2023-10-13,1,,,,,フォーピーフォーシー,0
1188,5010005037354,新規,0,2023-10-13,2023-10-13,一般社団法人ウェルネスライフ,,その他の設立登記法人,東京都,中央区,日本橋小網町１２番７号日本橋小網ビル４階,,13,102,1030016,,,,,,,2023-10-13,1,,,,,ウェルネスライフ,0
1193,5010401177729,新規,0,2023-10-13,2023-10-13,株式会社ＭＫ,,株式会社,東京都,港区,麻布十番４丁目６番８号麻布十番アクティブビル７階,,13,103,1060045,,,,,,,2023-10-13,1,,,,,エムケー,0
1194,5010401177786,新規,0,2023-10-13,2023-10-13,株式会社サステナブルライフデザイン,,株式会社,東京都,港区,赤坂４丁目１３－５赤坂オフィスハイツ,,13,103,1070052,,,,,,,2023-10-13,1,,,,,サステナブルライフデザイン,0
1195,5010401177794,新規,0,2023-10-13,2023-10-13,株式会社フルラックジャパン,,株式会社,東京都,港区,芝５丁目１９番７－２０２号,,13,103,1080014,,,,,,,2023-10-13,1,,,,,フルラックジャパン,0
1197,5010403031132,新規,0,2023-10-13,2023-10-13,合同会社Ｗｅｌｌ‐ｄｏｉｎｇ,,合同会社,東京都,港区,虎ノ門１丁目１７番１号虎ノ門ヒルズビジネスタワー１５階,,13,103,1050001,,,,,,,2023-10-13,1,,,,,ウェルドゥーイング,0
1199,5010405022550,新規,0,2023-10-13,2023-10-13,一般社団法人ＳＯＲＡＴＯＴＯＭＯＮＩ,,その他の設立登記法人,東京都,港区,南青山２丁目２番１５号,,13,103,1070062,,,,,,,2023-10-13,1,,,,,ソラトトモニ,0
1205,5010703006908,新規,0,2023-10-13,2023-10-13,合同会社齋藤設備,,合同会社,東京都,品川区,八潮５丁目１０－５７－３０１,,13,109,1400003,,,,,,,2023-10-13,1,,,,,サイトウセツビ,0
1220,5011001157550,新規,0,2023-10-13,2023-10-13,株式会社ＥＧＶ,,株式会社,東京都,渋谷区,道玄坂１丁目１０番８号渋谷道玄坂東急ビル２Ｆ－Ｃ,,13,113,1500043,,,,,,,2023-10-13,1,,,,,イージーブイ,0
1221,5011001157575,新規,0,2023-10-13,2023-10-13,株式会社Ｌｉｂａｙｚ,,株式会社,東京都,渋谷区,神宮前３丁目１番３０号Ｄａｉｗａ青山ビル２Ｆ,,13,113,1500001,,,,,,,2023-10-13,1,,,,,リベイズ,0
1223,5011003017645,新規,0,2023-10-13,2023-10-13,合同会社デザイン思考日本,,合同会社,東京都,目黒区,中町２丁目５０番地１３号ザ・ピーク４Ｄ,,13,110,1530065,,,,,,,2023-10-13,1,,,,,デザインシコウニッポン,0
1224,5011003017694,新規,0,2023-10-13,2023-10-13,合同会社ＲＩＶＥＲ,,合同会社,東京都,目黒区,下目黒２丁目８－２ハイネス目黒６１３,,13,110,1530064,,,,,,,2023-10-13,1,,,,,リバー,0
1230,5011101104709,新規,0,2023-10-13,2023-10-13,株式会社０１,,株式会社,東京都,新宿区,新宿１丁目３６番２号新宿第七葉山ビル３Ｆ,,13,104,1600022,,,,,,,2023-10-13,1,,,,,ゼロイチ,0
1231,5011101104725,新規,0,2023-10-13,2023-10-13,株式会社ナケア,,株式会社,東京都,新宿区,西新宿３丁目３番１３号西新宿水間ビル６階,,13,104,1600023,,,,,,,2023-10-13,1,,,,,ナケア,0
1232,5011101104741,新規,0,2023-10-13,2023-10-13,株式会社Ｆａｉｒ　Ｌｅａｄｅｒ,,株式会社,東京都,新宿区,西新宿３丁目３－１３西新宿水間ビル２Ｆ,,13,104,1600023,,,,,,,2023-10-13,1,,,,,フェアリーダー,0
1233,5011101104758,新規,0,2023-10-13,2023-10-13,是空株式会社,,株式会社,東京都,新宿区,早稲田鶴巻町５６８,,13,104,1620041,,,,,,,2023-10-13,1,,,,,ゼクウ,0
1243,5011301029078,新規,0,2023-10-13,2023-10-13,株式会社スターアーチザン,,株式会社,東京都,杉並区,高円寺南５丁目１２番５号,,13,115,1660003,,,,,,,2023-10-13,1,,,,,スターアーチザン,0
1250,5011601027186,新規,0,2023-10-13,2023-10-13,栄龍建設株式会社,,株式会社,東京都,練馬区,高野台４丁目５番１号,,13,120,1770033,,,,,,,2023-10-13,1,,,,,エイリュウケンセツ,0
1259,5011701026658,新規,0,2023-10-13,2023-10-13,株式会社Ｗｈｉｔｅ　ｓｔａｆｆ　ｓｅｒｖｉｃｅ,,株式会社,東京都,江戸川区,平井２丁目３番１０号,,13,123,1320035,,,,,,,2023-10-13,1,,,,,ホワイトスタッフサービス,0
1261,5011801043165,新規,0,2023-10-13,2023-10-13,株式会社みらい,,株式会社,東京都,足立区,大谷田１丁目１番２－１２０３号,,13,121,1200001,,,,,,,2023-10-13,1,,,,,ミライ,0
1262,5011801043173,新規,0,2023-10-13,2023-10-13,Ｆａｎａ　Ｍａｉｓｏｎ　Ｇｒｏｕｐ株式会社,,株式会社,東京都,葛飾区,亀有５丁目２８－２昌本ビル２０１,,13,122,1250061,,,,,,,2023-10-13,1,,,,,ファナメゾングループ,0
1267,5011805003306,新規,0,2023-10-13,2023-10-13,一般社団法人にほん支援推進機構,,その他の設立登記法人,東京都,葛飾区,東金町３丁目１８番１０号１０１,,13,122,1250041,,,,,,,2023-10-13,1,,,,,ニホンシエンスイシンキコウ,0
1272,5012803003207,新規,0,2023-10-13,2023-10-13,合同会社宇田ＳＹＯ‐ＴＥＮ,,合同会社,東京都,国立市,富士見台１丁目３７番地の１,,13,215,1860003,,,,,,,2023-10-13,1,,,,,ウダショーテン,0
1275,5013303006831,新規,0,2023-10-13,2023-10-13,合同会社ならや,,合同会社,東京都,豊島区,東池袋１丁目１７番１１号パークハイツ池袋１Ｆ,,13,116,1700013,,,,,,,2023-10-13,1,,,,,ナラヤ,0
1281,5020001153823,新規,0,2023-10-13,2023-10-13,株式会社ｓｉｎｃｅｒｅ,,株式会社,神奈川県,川崎市中原区,市ノ坪２６番地１コウトビル３Ｆ,,14,133,2110016,,,,,,,2023-10-13,1,,,,,シンシア,0
1282,5020001153889,新規,0,2023-10-13,2023-10-13,ドットカラー株式会社,,株式会社,神奈川県,横浜市西区,北幸１丁目１１番１号水信ビル７階,,14,103,2200004,,,,,,,2023-10-13,1,,,,,ドットカラー,0
1283,5020001153939,新規,0,2023-10-13,2023-10-13,カルシウム株式会社,,株式会社,神奈川県,横浜市神奈川区,金港町８番地８,,14,102,2210056,,,,,,,2023-10-13,1,,,,,カルシウム,0
1290,5021005012908,新規,0,2023-10-13,2023-10-13,ＮＰＯ法人江の島・フィッシャーマンズ・プロジェクト,,その他の設立登記法人,神奈川県,藤沢市,江の島１丁目３番１２号,,14,205,2510036,,,,,,,2023-10-13,1,,,,,エノシマフィッシャーマンズプロジェクト,0
1294,5030001156577,新規,0,2023-10-13,2023-10-13,シンク・フリーク株式会社,,株式会社,埼玉県,上尾市,上町２丁目５番３０号レーベン上尾ＧＲＡＮ・ＭＡＪＥＳＴＡ１０２,,11,219,3620037,,,,,,,2023-10-13,1,,,,,シンクフリーク,0
1295,5030001156643,新規,0,2023-10-13,2023-10-13,株式会社トライ,,株式会社,埼玉県,戸田市,大字新曽１５７番地,,11,224,3350021,,,,,,,2023-10-13,1,,,,,トライ,0
1296,5030001156651,新規,0,2023-10-13,2023-10-13,フレート株式会社,,株式会社,埼玉県,新座市,東北２丁目３９番１０号ドゥーセット弐番館６Ｆ,,11,230,3520001,,,,,,,2023-10-13,1,,,,,フレート,0
1304,5040001130358,新規,0,2023-10-13,2023-10-13,株式会社Ｃｏｚｙ　ｊｏｙ,,株式会社,千葉県,浦安市,北栄３丁目３－１４－３０１,,12,227,2790002,,,,,,,2023-10-13,1,,,,,コージージョイ,0
1305,5040001130457,新規,0,2023-10-13,2023-10-13,カッティングエッジ株式会社,,株式会社,千葉県,松戸市,根本１４番地の２パークスカイタワー松戸１３１２号,,12,207,2710077,,,,,,,2023-10-13,1,,,,,カッティングエッジ,0
1306,5040001130481,新規,0,2023-10-13,2023-10-13,ＭＵＳＨＡＲＡＦ　ＴＲＡＤＩＮＧ株式会社,,株式会社,千葉県,千葉市中央区,大巌寺町３０５番地２４,,12,101,2600812,,,,,,,2023-10-13,1,,,,,ムシャラフトレーディング,0
1308,5040003023527,新規,0,2023-10-13,2023-10-13,Ｒ＆Ｍビジネスサービス合同会社,,合同会社,千葉県,市川市,八幡２丁目６番１８－９０２号（第三本八幡ダイヤモンドマンション）,,12,203,2720021,,,,,,,2023-10-13,1,,,,,アールアンドエムビジネスサービス,0
1309,5040003023535,新規,0,2023-10-13,2023-10-13,合同会社ＨＥＭＴ,,合同会社,千葉県,習志野市,大久保３丁目１２－１１－５０３,,12,216,2750011,,,,,,,2023-10-13,1,,,,,ヘムト,0
1314,5050001053624,新規,0,2023-10-13,2023-10-13,ＭＢ．ＴＲＡＤＩＮＧ株式会社,,株式会社,茨城県,坂東市,辺田３１２－８ハイツ栄井Ｂ号室,,08,228,3060632,,,,,,,2023-10-13,1,,,,,エムビートレーディング,0
1315,5050003007850,新規,0,2023-10-13,2023-10-13,合同会社Ｔ＆Ｓ,,合同会社,茨城県,那珂市,菅谷２１５８番地５,,08,226,3110105,,,,,,,2023-10-13,1,,,,,ティーアンドエス,0
1320,5060001036413,新規,0,2023-10-13,2023-10-13,株式会社アトラス,,株式会社,栃木県,小山市,扶桑２丁目１０番１７号,,09,208,3230016,,,,,,,2023-10-13,1,,,,,アトラス,0
1325,5060005010141,新規,0,2023-10-13,2023-10-13,医療法人一葉,,その他の設立登記法人,栃木県,宇都宮市,屋板町１３２番地７,,09,201,3210112,,,,,,,2023-10-13,1,,,,,イチヨウ,0
1326,5070001040975,新規,0,2023-10-13,2023-10-13,九十九株式会社,,株式会社,群馬県,前橋市,東金丸町６４番地２,,10,201,3710234,,,,,,,2023-10-13,1,,,,,ツクモ,0
1328,5080101024266,新規,0,2023-10-13,2023-10-13,Ｂｕｚｚ　Ｂｒａｉｎ株式会社,,株式会社,静岡県,熱海市,紅葉ガ丘町６－１３－１Ａ,,22,205,4130027,,,,,,,2023-10-13,1,,,,,バズブレイン,0
1332,5090001018375,新規,0,2023-10-13,2023-10-13,株式会社ウォーミングハート,,株式会社,山梨県,甲府市,大里町４１３３番地ハイツ三神１０１,,19,201,4000053,,,,,,,2023-10-13,1,,,,,ウォーミングハート,0
1334,5090003002402,新規,0,2023-10-13,2023-10-13,合同会社いきものオフィス風,,合同会社,山梨県,甲府市,千塚５丁目４番７号,,19,201,4000074,,,,,,,2023-10-13,1,,,,,イキモノオフィスカゼ,0
1348,5110003005179,新規,0,2023-10-13,2023-10-13,合同会社Ｒｅｆｉｎｅ,,合同会社,新潟県,南魚沼市,大倉２９４－１,,15,226,9497243,,,,,,,2023-10-13,1,,,,,リファイン,0
1363,5120001258562,新規,0,2023-10-13,2023-10-13,株式会社ＪＨ　ｃｏｍｐａｎｙ,,株式会社,大阪府,大阪市中央区,本町橋６番１９号,,27,128,5400029,,,,,,,2023-10-13,1,,,,,ジェイエイチカンパニー,0
1364,5120001258686,新規,0,2023-10-13,2023-10-13,トラスト株式会社,,株式会社,大阪府,大阪市北区,堂島浜２丁目２番２８号,,27,127,5300004,,,,,,,2023-10-13,1,,,,,トラスト,0
1365,5120001258777,新規,0,2023-10-13,2023-10-13,株式会社大野屋,,株式会社,大阪府,大阪市城東区,鴫野東１丁目５番１８号,,27,118,5360013,,,,,,,2023-10-13,1,,,,,,0
1366,5120001258793,新規,0,2023-10-13,2023-10-13,株式会社Ｔｈｒｅａｄ　Ｃｌｏｔｈ,,株式会社,大阪府,大阪市鶴見区,徳庵１丁目１番４号－２０１号,,27,124,5380034,,,,,,,2023-10-13,1,,,,,スレッドクロス,0
1367,5120001258827,新規,0,2023-10-13,2023-10-13,ＫＮＯＯＯＴ株式会社,,株式会社,大阪府,大阪市東成区,東中本３丁目３番２３号,,27,115,5370021,,,,,,,2023-10-13,1,,,,,ノット,0
1372,5120003025085,新規,0,2023-10-13,2023-10-13,ＪＣグローバルビジネスオフィス合同会社,,合同会社,大阪府,大阪市平野区,長吉長原東３丁目７－２３,,27,126,5470013,,,,,,,2023-10-13,1,,,,,,0
1373,5120005023938,新規,0,2023-10-13,2023-10-13,一般社団法人日本口腔医療美容協会,,その他の設立登記法人,大阪府,大阪市東淀川区,東中島１丁目１９番９号ウキスマイルビル７階,,27,114,5330033,,,,,,,2023-10-13,1,,,,,ニホンコウクウイリョウビヨウキョウカイ,0
1375,5120101068374,新規,0,2023-10-13,2023-10-13,株式会社ウサホーム,,株式会社,大阪府,岸和田市,上野町東１番２９－４０４号,,27,202,5960047,,,,,,,2023-10-13,1,,,,,ウサホーム,0
1376,5120103005482,新規,0,2023-10-13,2023-10-13,合同会社楽笑,,合同会社,大阪府,大阪狭山市,茱萸木４丁目８８番地の３４５,,27,231,5890013,,,,,,,2023-10-13,1,,,,,ラクショウ,0
1379,5122001037467,新規,0,2023-10-13,2023-10-13,ＲＥＦＯＣＵＳ株式会社,,株式会社,大阪府,東大阪市,花園本町２丁目１４番２９号シャーメゾンブランシュ２０５号,,27,227,5780937,,,,,,,2023-10-13,1,,,,,リフォーカス,0
1387,5130001075395,新規,0,2023-10-13,2023-10-13,株式会社ＡＭＡＢＯＸ,,株式会社,京都府,京都市下京区,朱雀宝蔵町４４番地協栄ビル２階京都朱雀スタジオ,,26,106,6008846,,,,,,,2023-10-13,1,,,,,アマボックス,0
1388,5130001075420,新規,0,2023-10-13,2023-10-13,株式会社ＸＥＤ,,株式会社,京都府,京都市下京区,仏光寺通烏丸東入上柳町３３１番地タカノハスクエア３３３号室,,26,106,6008099,,,,,,,2023-10-13,1,,,,,エクシード,0
1391,5130005016908,新規,0,2023-10-13,2023-10-13,特定非営利活動法人ＪａｐａｎＣｒａｆｔ２１,,その他の設立登記法人,京都府,京都市左京区,静市市原町１６３番地７,,26,103,6011123,,,,,,,2023-10-13,1,,,,,ジャパンクラフトニジュウイチ,0
1393,5140001131957,新規,0,2023-10-13,2023-10-13,株式会社グランレグレス,,株式会社,兵庫県,尼崎市,崇徳院２丁目１６４番地６号,,28,202,6600071,,,,,,,2023-10-13,1,,,,,グランレグレス,0
1394,5140001131973,新規,0,2023-10-13,2023-10-13,株式会社ひゃくたろう,,株式会社,兵庫県,西宮市,名塩さくら台２丁目２番地２,,28,204,6691146,,,,,,,2023-10-13,1,,,,,ヒャクタロウ,0
1395,5140001131981,新規,0,2023-10-13,2023-10-13,株式会社ＧＲＯＯＶＥ　Ｐｌｕｓ,,株式会社,兵庫県,神戸市中央区,磯辺通３丁目２番１１号三宮ファーストビル６階,,28,110,6510084,,,,,,,2023-10-13,1,,,,,グルーヴプラス,0
1396,5140001131998,新規,0,2023-10-13,2023-10-13,株式会社アビフォード,,株式会社,兵庫県,西宮市,南郷町６番２７号,,28,204,6620038,,,,,,,2023-10-13,1,,,,,アビフォード,0
1398,5140003019655,新規,0,2023-10-13,2023-10-13,合同会社誠和商会,,合同会社,兵庫県,神戸市東灘区,御影郡家２丁目６番１４号,,28,101,6580048,,,,,,,2023-10-13,1,,,,,セイワショウカイ,0
1399,5140005026765,新規,0,2023-10-13,2023-10-13,一般社団法人小児歯科実践会,,その他の設立登記法人,兵庫県,明石市,大久保町ゆりのき通１丁目２番地の３、６－２０１号,,28,203,6740068,,,,,,,2023-10-13,1,,,,,ショウニシカジッセンカイ,0
1400,5150001026792,新規,0,2023-10-13,2023-10-13,株式会社ｍｉｃａ,,株式会社,奈良県,生駒市,高山町８９１６－５・６－２１０,,29,209,6300101,,,,,,,2023-10-13,1,,,,,ミカ,0
1401,5160001025414,新規,0,2023-10-13,2023-10-13,株式会社Ａｉｒ　Ｂｕｓｉｎｅｓｓ　Ｒ＆Ｄ,,株式会社,滋賀県,草津市,野路東１丁目１－１立命館大学ＢＫＣインキュベータ,,25,206,5250058,,,,,,,2023-10-13,1,,,,,エアビジネスリサーチアンドデベロップメント,0
1402,5170003001932,新規,0,2023-10-13,2023-10-13,合同会社未来サポート,,合同会社,和歌山県,和歌山市,中之島３２５番地５４,,30,201,6408392,,,,,,,2023-10-13,1,,,,,ミライサポート,0
1406,5180001158427,新規,0,2023-10-13,2023-10-13,ジェイイーシステム株式会社,,株式会社,愛知県,名古屋市中川区,元中野町４丁目６番地の６,,23,110,4540048,,,,,,,2023-10-13,1,,,,,ジェイイーシステム,0
1407,5180003025848,新規,0,2023-10-13,2023-10-13,ＳＡＮＪＵ合同会社,,合同会社,愛知県,名古屋市西区,那古野１丁目２５番４号中村アパートＡ号,00132238,23,104,4510042,,,,,,,2023-10-13,1,,,,,サンズ,0
1408,5180005020392,新規,0,2023-10-13,2023-10-13,税理士法人リーガルフロンティア,,その他の設立登記法人,愛知県,名古屋市中区,丸の内１丁目１７番１９号キリックス丸の内ビル７Ｆ,,23,106,4600002,,,,,,,2023-10-13,1,,,,,リーガルフロンティア,0
1410,5180305009524,新規,0,2023-10-13,2023-10-13,一般社団法人ＪＵＮＴＯＳ,,その他の設立登記法人,愛知県,豊田市,東保見町柵口六丁目２番地,,23,211,4700345,,,,,,,2023-10-13,1,,,,,ジュントス,0
1413,5200001041811,新規,0,2023-10-13,2023-10-13,ハピネス株式会社,,株式会社,岐阜県,土岐市,土岐津町高山３７３番地１,,21,212,5095121,,,,,,,2023-10-13,1,,,,,ハピネス,0
1419,5230001020052,新規,0,2023-10-13,2023-10-13,Ｋ２デザイン株式会社,,株式会社,富山県,黒部市,荻生２４４９番地,,16,207,9380801,,,,,,,2023-10-13,1,,,,,ケーツーデザイン,0
1432,5240003006370,新規,0,2023-10-13,2023-10-13,合同会社いろどり,,合同会社,広島県,東広島市,西条町田口３５８１,,34,212,7390036,,,,,,,2023-10-13,1,,,,,イロドリ,0
1441,5260001038406,新規,0,2023-10-13,2023-10-13,ありがとう株式会社,,株式会社,岡山県,玉野市,玉原２丁目１６番７号,,33,204,7060014,,,,,,,2023-10-13,1,,,,,アリガトウ,0
1445,5280003001780,新規,0,2023-10-13,2023-10-13,合同会社関西たのや商事,,合同会社,島根県,松江市,古志原２丁目１９－３１－１,,32,201,6900012,,,,,,,2023-10-13,1,,,,,カンサイタノヤショウジ,0
1448,5290001103363,新規,0,2023-10-13,2023-10-13,株式会社福岡ＩＴコンサルティング,,株式会社,福岡県,福岡市博多区,月隈１丁目２０番１２号３０１,,40,132,8120858,,,,,,,2023-10-13,1,,,,,フクオカアイティーコンサルティング,0
1452,5290801029948,新規,0,2023-10-13,2023-10-13,株式会社Ｂｏｘ,,株式会社,福岡県,遠賀郡水巻町,下二東３丁目１３番８号,,40,382,8070053,,,,,,,2023-10-13,1,,,,,ボックス,0
1454,5310001018658,新規,0,2023-10-13,2023-10-13,株式会社西海いちごファーム,,株式会社,長崎県,西海市,西彼町鳥加郷２３２２番地,,42,212,8513406,,,,,,,2023-10-13,1,,,,,サイカイイチゴファーム,0
1458,5320001020068,新規,0,2023-10-13,2023-10-13,株式会社ウィル・サーマウント,,株式会社,大分県,大分市,大字田原１５９番地の１,,44,201,8701154,,,,,,,2023-10-13,1,,,,,ウィルサーマウント,0
1463,5330001031345,新規,0,2023-10-13,2023-10-13,株式会社Ｃｌｅａｒｌｙ　ｓｋｙ,,株式会社,熊本県,熊本市中央区,新市街３番１２号,,43,101,8600803,,,,,,,2023-10-13,1,,,,,クレアリィスカイ,0
1464,5330003010017,新規,0,2023-10-13,2023-10-13,合同会社Ｆｏｕｒ　Ｌｅａｆ,,合同会社,熊本県,天草市,牛深町１２１９番地７,,43,215,8631901,,,,,,,2023-10-13,1,,,,,フォーリーフ,0
1466,5330005010709,新規,0,2023-10-13,2023-10-13,一般社団法人熊本県アーバンスポーツ協会,,その他の設立登記法人,熊本県,熊本市南区,川尻１丁目３番２８号,,43,104,8614115,,,,,,,2023-10-13,1,,,,,クマモトケンアーバンスポーツキョウカイ,0
1468,5340001025932,新規,0,2023-10-13,2023-10-13,株式会社ＨｏｍｅＢｕｔｔｏｎ,,株式会社,鹿児島県,鹿児島市,加治屋町１－９－柿本寺ビル２０２,,46,201,8920846,,,,,,,2023-10-13,1,,,,,ホームボタン,0
1470,5350001018613,新規,0,2023-10-13,2023-10-13,株式会社ＬｉｎｏＰｌｕｓ,,株式会社,宮崎県,西都市,大字岡富８１６番地,,45,208,8810001,,,,,,,2023-10-13,1,,,,,リノプラス,0
1473,5350003004446,新規,0,2023-10-13,2023-10-13,合同会社ＴＹＰＥ,,合同会社,宮崎県,都城市,梅北町６３２５－１,,45,202,8850063,,,,,,,2023-10-13,1,,,,,タイプ,0
1476,5360001032638,新規,0,2023-10-13,2023-10-13,Ｉ’ｌｌ　ｂｅ株式会社,,株式会社,沖縄県,沖縄市,泡瀬１丁目２３番１３号,,47,211,9042172,,,,,,,2023-10-13,1,,,,,アイルビー,0
1478,5360003013371,新規,0,2023-10-13,2023-10-13,合同会社スマイルラボ,,合同会社,沖縄県,糸満市,字糸満１６４２番地２Ａ,,47,210,9010361,,,,,,,2023-10-13,1,,,,,スマイルラボ,0
1484,5370001050515,新規,0,2023-10-13,2023-10-13,Ｏｃｔｏｂｅｒ９株式会社,,株式会社,宮城県,名取市,ゆりが丘１丁目１０－５,,04,207,9811245,,,,,,,2023-10-13,1,,,,,オクトーバーナイン,0
1488,5380001034046,新規,0,2023-10-13,2023-10-13,株式会社Ｉ’ＮＡＳ　Ｐｌａｎｎｉｎｇ,,株式会社,福島県,いわき市,平字白銀町４番地の１３不二屋第二ビル２０２号室,,07,204,9708026,,,,,,,2023-10-13,1,,,,,アイナスプランニング,0
1491,5400001016421,新規,0,2023-10-13,2023-10-13,株式会社Ｒｏｕｔｅ,,株式会社,岩手県,奥州市,江刺杉ノ町８番８号,,03,215,0231105,,,,,,,2023-10-13,1,,,,,ルート,0
1494,5430001090109,新規,0,2023-10-13,2023-10-13,株式会社Ｂｒｉｌｌａｎｔｅ　Ｓｔｅｌｌａ,,株式会社,北海道,札幌市北区,屯田七条１２丁目９番１１号,,01,102,0020857,,,,,,,2023-10-13,1,,,,,ブリランテステラ,0
1495,5430001090199,新規,0,2023-10-13,2023-10-13,ＫＫホールディングス株式会社,,株式会社,北海道,苫小牧市,豊川町２丁目５番５号,,01,213,0530831,,,,,,,2023-10-13,1,,,,,ケーケーホールディングス,0
1496,5430003015501,新規,0,2023-10-13,2023-10-13,合同会社リンク,,合同会社,北海道,苫小牧市,北光町１丁目２２番１１号,,01,213,0530852,,,,,,,2023-10-13,1,,,,,リンク,0
1499,5490001010606,新規,0,2023-10-13,2023-10-13,株式会社岡田農園,,株式会社,高知県,南国市,里改田２１番地３,,39,204,7830082,,,,,,,2023-10-13,1,,,,,オカダノウエン,0
1505,5700150115027,新規,0,2023-10-13,2023-10-13,深セン市欣涛貿易　有限責任公司,,外国会社等,,,,,,,,深セン市龍崗区平湖街道禾花社区平吉大道北１５９号恒路Ｅ時代大厦１７１２Ａ７,,,,,,2023-10-13,1,,,,,シンセンシキントウボウエキユウゲンセキニンコウシ,0
1506,5700150115142,新規,0,2023-10-13,2023-10-13,寧波阿塔克曼国際貿易　有限公司,,外国会社等,,,,,,,,浙江省寧波市ギン州区中山東路１０８３号００３幢（４－１）（４－２）Ｃ００４室,,,,,,2023-10-13,1,,,,,ネイハアタクマンコクサイボウエキユウゲンコウシ,0
1507,5700150115992,新規,0,2023-10-13,2023-10-13,深セン市広億源商務　有限公司,,外国会社等,,,,,,,,深セン市龍崗区坂田街道大発路２７号龍壁工業区６棟３楼３号,,,,,,2023-10-13,1,,,,,シンセンシコウオクゲンシヨウムユウゲンコウシ,0
1508,5700150121173,新規,0,2023-10-13,2023-10-10,労働保険事務組合　中小企業助成会,,その他,山形県,酒田市,日の出町２丁目３８－１０,,06,204,9980863,,,,,,,2023-10-10,1,,,,,ロウドウホケンジムクミアイチユウシヨウキギヨウジヨセイカイ,0
1513,6010001238905,新規,0,2023-10-13,2023-10-13,Ｘｅｎａホールディングス株式会社,,株式会社,東京都,中央区,八丁堀４丁目１２番２０号,,13,102,1040032,,,,,,,2023-10-13,1,,,,,ジーナホールディングス,0
1514,6010001239143,新規,0,2023-10-13,2023-10-13,株式会社ＧＩＮＺＡ,,株式会社,東京都,中央区,銀座１丁目３番６号銀座べラメンテ８０２,,13,102,1040061,,,,,,,2023-10-13,1,,,,,ギンザ,0
1515,6010001239184,新規,0,2023-10-13,2023-10-13,株式会社ピーアイグループ,,株式会社,東京都,千代田区,富士見２丁目３番１０号飯田ビル３階,,13,101,1020071,,,,,,,2023-10-13,1,,,,,ピーアイグループ,0
1516,6010001239201,新規,0,2023-10-13,2023-10-13,いっとくＴＯＫＹＯ株式会社,,株式会社,東京都,千代田区,神田司町２丁目１０番１５号第１ビル４階,,13,101,1010048,,,,,,,2023-10-13,1,,,,,イットクトウキョウ,0
1517,6010001239226,新規,0,2023-10-13,2023-10-13,株式会社ＡｓｈｉＴｏｍｏ,,株式会社,東京都,中央区,銀座１丁目２２番１１号銀座大竹ビジデンス２Ｆ,,13,102,1040061,,,,,,,2023-10-13,1,,,,,アシトモ,0
1519,6010003041935,新規,0,2023-10-13,2023-10-13,スカイ・インベストメント・マネジメント合同会社,,合同会社,東京都,千代田区,大手町２丁目６番４号常盤橋タワー２５階,,13,101,1000004,,,,,,,2023-10-13,1,,,,,スカイインベストメントマネジメント,0
1528,6010401177769,新規,0,2023-10-13,2023-10-13,株式会社Ｌｏｇｏｓ,,株式会社,東京都,港区,港南４丁目６番７号,,13,103,1080075,,,,,,,2023-10-13,1,,,,,ロゴス,0
1529,6010401177793,新規,0,2023-10-13,2023-10-13,アララ分割準備株式会社,,株式会社,東京都,港区,南青山２丁目２４番１５号,,13,103,1070062,,,,,,,2023-10-13,1,,,,,アララブンカツジュンビ,0
1530,6010401177802,新規,0,2023-10-13,2023-10-13,株式会社アローイノベーション,,株式会社,東京都,港区,新橋２丁目１６番１号,,13,103,1050004,,,,,,,2023-10-13,1,,,,,アローイノベーション,0
1531,6010403031098,新規,0,2023-10-13,2023-10-13,合同会社３０６０,,合同会社,東京都,港区,北青山１丁目６－５－９０４,,13,103,1070061,,,,,,,2023-10-13,1,,,,,サーティーシックスティー,0
1533,6010405022582,新規,0,2023-10-13,2023-10-13,六甲ホールディングス一般社団法人,,その他の設立登記法人,東京都,港区,虎ノ門３丁目２２番１０－２０１号,,13,103,1050001,,,,,,,2023-10-13,1,,,,,ロッコウホールディングス,0
1546,6010801034421,新規,0,2023-10-13,2023-10-13,株式会社佐藤工業,,株式会社,東京都,大田区,南久が原２丁目２３番９号Ｇｉｎｏｓ南久が原２０１,,13,111,1460084,,,,,,,2023-10-13,1,,,,,サトウコウギョウ,0
1550,6010903008513,新規,0,2023-10-13,2023-10-13,合同会社ヴィクトリガー,,合同会社,東京都,世田谷区,代沢１丁目１８番１４号,,13,112,1550032,,,,,,,2023-10-13,1,,,,,ヴィクトリガー,0
1557,6011001157590,新規,0,2023-10-13,2023-10-13,Ｋ２株式会社,,株式会社,東京都,渋谷区,神南１丁目１１番５－６０２号ダイネス壱番館,,13,113,1500041,,,,,,,2023-10-13,1,,,,,ケーツー,0
1558,6011001157599,新規,0,2023-10-13,2023-10-13,株式会社Ｐｒｏ３Ｌａｂ,,株式会社,東京都,渋谷区,恵比寿４丁目２０番３号恵比寿ガーデンプレイスタワー８階,,13,113,1500013,,,,,,,2023-10-13,1,,,,,プロサードラボ,0
1560,6011101104757,新規,0,2023-10-13,2023-10-13,株式会社ＫＡＲＵＭＡ,,株式会社,東京都,新宿区,西新宿３丁目３番１３号西新宿水間ビル６階,,13,104,1600023,,,,,,,2023-10-13,1,,,,,カルマ,0
1562,6011103013568,新規,0,2023-10-13,2023-10-13,合同会社Ｓｕｎｂｕｒｓｔ,,合同会社,東京都,新宿区,百人町２丁目２６番８号加瀬ビル１７８－３階,,13,104,1690073,,,,,,,2023-10-13,1,,,,,サンバースト,0
1568,6011501029827,新規,0,2023-10-13,2023-10-13,株式会社森田標準,,株式会社,東京都,荒川区,東日暮里２丁目３０－６－１０２,,13,118,1160014,,,,,,,2023-10-13,1,,,,,モリタヒョウジュン,0
1570,6011603004091,新規,0,2023-10-13,2023-10-13,合同会社高星,00132237,合同会社,東京都,練馬区,東大泉１丁目２８番２－２００４号,,13,120,1780063,,,,,,,2023-10-13,1,,,,,タカホシ,0
1583,6012401041112,新規,0,2023-10-13,2023-10-13,Ａ・Ｔプロパティ株式会社,,株式会社,東京都,府中市,緑町２丁目１６番地の１－６０３,,13,206,1830006,,,,,,,2023-10-13,1,,,,,エーティープロパティ,0
1588,6012801022686,新規,0,2023-10-13,2023-10-13,株式会社万幸,,株式会社,東京都,昭島市,福島町１丁目１８番６号ベルリオ２０５号,,13,207,1960031,,,,,,,2023-10-13,1,,,,,マユキ,0
1593,6020001153855,新規,0,2023-10-13,2023-10-13,株式会社ジェニュイン,,株式会社,神奈川県,横浜市青葉区,美しが丘５丁目３番地９－３０３,,14,117,2250002,,,,,,,2023-10-13,1,,,,,ジェニュイン,0
1594,6020001153896,新規,0,2023-10-13,2023-10-13,ＭＩＲＡＩファーム株式会社,,株式会社,神奈川県,横浜市港北区,新横浜１丁目１４番地２０光正第２ビル８Ｆ,,14,109,2220033,,,,,,,2023-10-13,1,,,,,ミライファーム,0
1595,6020001153905,新規,0,2023-10-13,2023-10-13,リアンド株式会社,,株式会社,神奈川県,横浜市中区,羽衣町２丁目４番４号‐３‐Ａ,,14,104,2310047,,,,,,,2023-10-13,1,,,,,リアンド,0
1596,6020001153921,新規,0,2023-10-13,2023-10-13,株式会社ｚｅｄ,,株式会社,神奈川県,横浜市鶴見区,下末吉５丁目２０－１－４１５,,14,101,2300012,,,,,,,2023-10-13,1,,,,,ゼッド,0
1603,6020003024708,新規,0,2023-10-13,2023-10-13,Ｑｕｌｉｏ合同会社,,合同会社,神奈川県,横浜市西区,北幸１丁目１１－１,,14,103,2200004,,,,,,,2023-10-13,1,,,,,クリオ,0
1604,6020003024757,新規,0,2023-10-13,2023-10-13,合同会社オーキド,,合同会社,神奈川県,川崎市川崎区,大島３丁目２番１６号ディアコート川崎４０１,,14,131,2100834,,,,,,,2023-10-13,1,,,,,オーキド,0
1605,6020003024765,新規,0,2023-10-13,2023-10-13,合同会社北天,,合同会社,神奈川県,川崎市多摩区,菅５丁目７番３６号,,14,135,2140001,,,,,,,2023-10-13,1,,,,,ホクテン,0
1609,6021005012907,新規,0,2023-10-13,2023-10-13,社会保険労務士法人ナーシングケア,,その他の設立登記法人,神奈川県,横須賀市,日の出町１丁目２番地２第３明香ビル２階,,14,201,2380006,,,,,,,2023-10-13,1,,,,,ナーシングケア,0
1620,6030001156337,新規,0,2023-10-13,2023-10-13,株式会社マルナオ,,株式会社,埼玉県,さいたま市見沼区,春野１丁目９番４号,,11,104,3370002,,,,,,,2023-10-13,1,,,,,マルナオ,0
1621,6030001156527,新規,0,2023-10-13,2023-10-13,株式会社ＭＡＴＴＡＲＩ,,株式会社,埼玉県,和光市,丸山台２丁目２０－２７,,11,229,3510112,,,,,,,2023-10-13,1,,,,,マッタリ,0
1622,6030001156568,新規,0,2023-10-13,2023-10-13,株式会社オートネットワークジャパン,,株式会社,埼玉県,所沢市,東所沢和田２丁目４番地の６ピュア・メゾン２０５,,11,208,3590023,,,,,,,2023-10-13,1,,,,,オートネットワークジャパン,0
1623,6030001156601,新規,0,2023-10-13,2023-10-13,株式会社Ｍｕｓａｋａ,,株式会社,埼玉県,さいたま市見沼区,大字東新井４９８番地７,,11,104,3370032,,,,,,,2023-10-13,1,,,,,ムサカ,0
1624,6030001156618,新規,0,2023-10-13,2023-10-13,株式会社天栄インターナショナル,,株式会社,埼玉県,川口市,原町６番１－８１４号コスモ川口シティアベニュー,,11,203,3320025,,,,,,,2023-10-13,1,,,,,テンエイインターナショナル,0
1640,6040003023518,新規,0,2023-10-13,2023-10-13,合同会社Ｇｅｔ物流,,合同会社,千葉県,千葉市中央区,葛城３丁目６番８号,,12,101,2600853,,,,,,,2023-10-13,1,,,,,ゲットブツリュウ,0
1641,6040003023526,新規,0,2023-10-13,2023-10-13,合同会社Ｂｅｌｉｅｆ,,合同会社,千葉県,八千代市,八千代台北６丁目２番地６２,,12,221,2760031,,,,,,,2023-10-13,1,,,,,ビーリーフ,0
1642,6040003023534,新規,0,2023-10-13,2023-10-13,合同会社ＤＥＲＡ,,合同会社,千葉県,船橋市,湊町２丁目１２番２４号湊町日本橋ビル６階,,12,204,2730011,,,,,,,2023-10-13,1,,,,,デラ,0
1643,6040005022146,新規,0,2023-10-13,2023-10-13,医療法人社団幸心会,,その他の設立登記法人,千葉県,松戸市,新松戸２丁目１１５番地１松本ビル３階,,12,207,2700034,,,,,,,2023-10-13,1,,,,,コウシンカイ,0
1644,6040005022154,新規,0,2023-10-13,2023-10-13,医療法人社団俊仁会,,その他の設立登記法人,千葉県,浦安市,当代島１丁目１番地１１号フォーレストビル３階,,12,227,2790001,,,,,,,2023-10-13,1,,,,,シュンジンカイ,0
1647,6050001053631,新規,0,2023-10-13,2023-10-13,株式会社檜山工業,,株式会社,茨城県,日立市,中成沢町２丁目１９番１９号,,08,202,3160033,,,,,,,2023-10-13,1,,,,,ヒヤマコウギョウ,0
1654,6060003004763,新規,0,2023-10-13,2023-10-13,なまけもの合同会社,,合同会社,栃木県,那須郡那須町,大字高久丙字海道下２７９番地１０,,09,407,3250302,,,,,,,2023-10-13,1,,,,,ナマケモノ,0
1658,6080001025917,新規,0,2023-10-13,2023-10-13,株式会社ＴＫＨ,,株式会社,静岡県,静岡市葵区,常磐町１丁目２番地の２一番館２階,,22,101,4200034,,,,,,,2023-10-13,1,,,,,ティーケーエイチ,0
1666,6090001018374,新規,0,2023-10-13,2023-10-13,ＩＮＮＦＲＡ株式会社,,株式会社,山梨県,甲府市,丸の内２丁目２番１号,,19,201,4000031,,,,,,,2023-10-13,1,,,,,インフラ,0
1667,6090003002401,新規,0,2023-10-13,2023-10-13,合同会社Ｍａｒｃｈ,,合同会社,山梨県,甲斐市,大下条１１５７番地,,19,210,4000126,,,,,,,2023-10-13,1,,,,,マーチ,0
1688,6120001258660,新規,0,2023-10-13,2023-10-13,株式会社エルリバティ,,株式会社,大阪府,大阪市北区,兎我野町２番５号フォンテーヌ東梅田１００２号室,,27,127,5300056,,,,,,,2023-10-13,1,,,,,エルリバティ,0
1689,6120001258801,新規,0,2023-10-13,2023-10-13,１ｓｔ　ＷＩＮＴＯＰ　ＪＡＰＡＮ株式会社,,株式会社,大阪府,大阪市住吉区,帝塚山東４丁目１０番１１号,,27,120,5580054,,,,,,,2023-10-13,1,,,,,ファーストウィントップジャパン,0
1693,6120003025084,新規,0,2023-10-13,2023-10-13,合同会社ノルン,,合同会社,大阪府,大阪市北区,梅田１丁目２番２号大阪駅前第２ビル１２－１２,,27,127,5300001,,,,,,,2023-10-13,1,,,,,ノルン,0
1698,6120901048186,新規,0,2023-10-13,2023-10-13,ＭＹ株式会社,,株式会社,大阪府,豊中市,服部本町２丁目１番８号,,27,203,5610852,,,,,,,2023-10-13,1,,,,,マイ,0
1699,6122001037466,新規,0,2023-10-13,2023-10-13,株式会社クルール,,株式会社,大阪府,東大阪市,俊徳町５丁目１番２７号グランドアベニュー２番館１０２号,,27,227,5770831,,,,,,,2023-10-13,1,,,,,クルール,0
1706,6130001075394,新規,0,2023-10-13,2023-10-13,株式会社叶屋,,株式会社,京都府,京都市中京区,夷川通富小路東入木屋町４８３番地岡田ビル１階,,26,104,6040961,,,,,,,2023-10-13,1,,,,,カノウヤ,0
1707,6130001075493,新規,0,2023-10-13,2023-10-13,株式会社自立支援介護ＤＸ,,株式会社,京都府,京都市中京区,壬生檜町６番地ＳＴハウス２Ｆ,,26,104,6048844,,,,,,,2023-10-13,1,,,,,ジリツシエンカイゴディーエックス,0
1710,6130005016907,新規,0,2023-10-13,2023-10-13,一般社団法人製造業ＡＩ普及協会,,その他の設立登記法人,京都府,京都市下京区,七条通油小路東入大黒町２２７番地第２キョートビル４０２,,26,106,6008223,,,,,,,2023-10-13,1,,,,,セイゾウギョウエーアイフキュウキョウカイ,0
1714,6140001131931,新規,0,2023-10-13,2023-10-13,エイト恒産株式会社,,株式会社,兵庫県,芦屋市,翠ケ丘町７番１４－５０１号,,28,206,6590014,,,,,,,2023-10-13,1,,,,,エイトコウサン,0
1715,6140001131956,新規,0,2023-10-13,2023-10-13,ＩＳＢ財産コンサルタンツ株式会社,,株式会社,兵庫県,西宮市,北名次町９番２５号,,28,204,6620025,,,,,,,2023-10-13,1,,,,,アイエスビーザイサンコンサルタンツ,0
1716,6140001131980,新規,0,2023-10-13,2023-10-13,株式会社ＴＲ,,株式会社,兵庫県,神戸市兵庫区,吉田町２丁目７番２号,,28,105,6520872,,,,,,,2023-10-13,1,,,,,ティーアール,0
1718,6150003003095,新規,0,2023-10-13,2023-10-13,合同会社ごきげんさん,,合同会社,奈良県,生駒郡斑鳩町,龍田西３丁目１１番１７号,00132240,29,344,6360154,,,,,,,2023-10-13,1,,,,,ゴキゲンサン,0
1721,6160005011236,新規,0,2023-10-13,2023-10-13,農事組合法人マキノ高原里山ファーム,,その他の設立登記法人,滋賀県,高島市,マキノ町牧野２３４番地１,,25,212,5201836,,,,,,,2023-10-13,1,,,,,マキノコウゲンサトヤマファーム,0
1727,6180001158434,新規,0,2023-10-13,2023-10-13,株式会社Ｂｅｓｔｗａｙ,,株式会社,愛知県,名古屋市中区,丸の内２丁目１９番３２号,,23,106,4600002,,,,,,,2023-10-13,1,,,,,ベストウェイ,0
1728,6180001158442,新規,0,2023-10-13,2023-10-13,ジョイレックス株式会社,,株式会社,愛知県,名古屋市中村区,井深町８番２０号,,23,105,4530012,,,,,,,2023-10-13,1,,,,,ジョイレックス,0
1729,6180001158459,新規,0,2023-10-13,2023-10-13,株式会社ななかまど,,株式会社,愛知県,名古屋市天白区,池見１丁目１６番地の５,,23,116,4680067,,,,,,,2023-10-13,1,,,,,ナナカマド,0
1730,6180001158475,新規,0,2023-10-13,2023-10-13,株式会社リライフ,,株式会社,愛知県,名古屋市中区,錦２丁目５番５号八木兵伝馬町ビル３階,,23,106,4600003,,,,,,,2023-10-13,1,,,,,リライフ,0
1733,6180005020391,新規,0,2023-10-13,2023-10-13,医療法人霜月之会,,その他の設立登記法人,愛知県,名古屋市天白区,塩釜口２丁目１４０３番地（アーバンドエル塩釜口６０２号）,,23,116,4680073,,,,,,,2023-10-13,1,,,,,シモツキノカイ,0
1736,6190001030798,新規,0,2023-10-13,2023-10-13,南里工業株式会社,,株式会社,三重県,四日市市,大字東阿倉川７０７番地１,,24,202,5100805,,,,,,,2023-10-13,1,,,,,ナンリコウギョウ,0
1743,6230003002089,新規,0,2023-10-13,2023-10-13,合同会社タイガーテック,,合同会社,富山県,射水市,沖塚原２１５－１,,16,211,9340055,,,,,,,2023-10-13,1,,,,,タイガーテック,0
1750,6240001062266,新規,0,2023-10-13,2023-10-13,株式会社Ｒｅｋｉ,,株式会社,広島県,広島市中区,八丁堀１４－４ＪＥＩ広島八丁堀ビル２階,,34,101,7300013,,,,,,,2023-10-13,1,,,,,レキ,0
1756,6250001020347,新規,0,2023-10-13,2023-10-13,株式会社Ｉ．Ｓ,,株式会社,山口県,山口市,神田町１１番３８号,,35,203,7530064,,,,,,,2023-10-13,1,,,,,アイエス,0
1757,6250005008867,新規,0,2023-10-13,2023-10-13,一般社団法人日本やきとり文化振興協会,,その他の設立登記法人,山口県,長門市,東深川１０３３２番地７９,,35,211,7594101,,,,,,,2023-10-13,1,,,,,ニホンヤキトリブンカシンコウキョウカイ,0
1762,6260003004470,新規,0,2023-10-13,2023-10-13,高畠設計合同会社,00132252,合同会社,岡山県,倉敷市,茶屋町５５０番地,,33,202,7101101,,,,,,,2023-10-13,1,,,,,タカハタセッケイ,0
1767,6290003014467,新規,0,2023-10-13,2023-10-13,合同会社ｍａｋｅ　ｖｉｓｉｏｎ,,合同会社,福岡県,福岡市中央区,天神３丁目５番２２号ＯＡＫＶＩＬＬＡ天神プラストロワ７Ｆ,,40,133,8100001,,,,,,,2023-10-13,1,,,,,メイクビジョン,0
1769,6290801029930,新規,0,2023-10-13,2023-10-13,株式会社和電設,,株式会社,福岡県,北九州市小倉南区,大字新道寺１２０５番地,,40,107,8030186,,,,,,,2023-10-13,1,,,,,ナゴミデンセツ,0
1771,6290803004519,新規,0,2023-10-13,2023-10-13,合同会社Ｓｕｎｎｙ,,合同会社,福岡県,北九州市八幡西区,船越２丁目３番１号,,40,109,8071111,,,,,,,2023-10-13,1,,,,,サニー,0
1774,6300003002032,新規,0,2023-10-13,2023-10-13,合同会社Ｍ＆Ｋミライ,,合同会社,佐賀県,嬉野市,嬉野町大字下野乙２７６３番地２,,41,209,8430302,,,,,,,2023-10-13,1,,,,,エムアンドケーミライ,0
1779,6310005008720,新規,0,2023-10-13,2023-10-13,医療法人秋櫻,,その他の設立登記法人,長崎県,大村市,諏訪２丁目５２３－１,,42,205,8560024,,,,,,,2023-10-13,1,,,,,コスモス,0
1783,6330001031369,新規,0,2023-10-13,2023-10-13,株式会社サカイ技建,,株式会社,熊本県,菊池郡大津町,大字杉水３０８６番地７,,43,403,8691236,,,,,,,2023-10-13,1,,,,,サカイギケン,0
1784,6330003010016,新規,0,2023-10-13,2023-10-13,合同会社ひなた経営コンサルタント,,合同会社,熊本県,熊本市東区,健軍２丁目２４番１８－６０５号,,43,102,8620911,,,,,,,2023-10-13,1,,,,,ヒナタケイエイコンサルタント,0
1787,6350001018612,新規,0,2023-10-13,2023-10-13,株式会社ケイズ,,株式会社,宮崎県,宮崎市,大塚町窪田３２４４番地２,,45,201,8800951,,,,,,,2023-10-13,1,,,,,ケイズ,0
1794,6370001050464,新規,0,2023-10-13,2023-10-13,仙興運輸株式会社,,株式会社,宮城県,仙台市若林区,卸町東５丁目４番６号,,04,103,9840002,,,,,,,2023-10-13,1,,,,,センコウウンユ,0
1799,6380001034037,新規,0,2023-10-13,2023-10-13,株式会社アクルー,,株式会社,福島県,福島市,大町１－１３ワークビル１Ｆ,,07,201,9608041,,,,,,,2023-10-13,1,,,,,アクルー,0
1811,6430001090165,新規,0,2023-10-13,2023-10-13,株式会社ハピネス・ワン,,株式会社,北海道,札幌市西区,二十四軒三条６丁目１番８号ラポート二十四軒５０２,,01,107,0630803,,,,,,,2023-10-13,1,,,,,ハピネスワン,0
1813,6430003015509,新規,0,2023-10-13,2023-10-13,合同会社ＳＫＹ　ＤＯＧ　ＳＥＲＶＩＣＥ,,合同会社,北海道,石狩市,花川南七条２丁目２番地,,01,235,0613207,,,,,,,2023-10-13,1,,,,,スカイドッグサービス,0
1816,6460001005839,新規,0,2023-10-13,2023-10-13,株式会社ＴＷＯＳＯＩＬＳ,,株式会社,北海道,釧路市,春採３丁目１番２０号,,01,206,0850813,,,,,,,2023-10-13,1,,,,,ツーソイルズ,0
1817,6460401001041,新規,0,2023-10-13,2023-10-13,太平洋水産株式会社,,株式会社,北海道,根室市,落石東３２５番地,,01,223,0881782,,,,,,,2023-10-13,1,,,,,,0
1820,6490003001825,新規,0,2023-10-13,2023-10-13,合同会社ＳＨＩＢＡＴＡ,,合同会社,高知県,高知市,横浜西町１１番１号,,39,201,7810242,,,,,,,2023-10-13,1,,,,,シバタ,0
1823,6700150063968,新規,0,2023-10-13,2015-10-09,宇佐市農業再生協議会,,その他,大分県,宇佐市,大字別府６１１,,44,211,8790462,,,,,,,2015-10-09,1,,,,,ウサシノウギヨウサイセイキヨウギカイ,0
1824,6700150114928,新規,0,2023-10-13,2023-10-13,深セン市好億貿易　有限公司,,外国会社等,,,,,,,,深セン市羅湖区桂園街道桂木園社区宝安南路２０７８号深港豪苑２０３,,,,,,2023-10-13,1,,,,,シンセンシコウオクボウエキユウゲンコウシ,0
1825,6700150115026,新規,0,2023-10-13,2023-10-13,東莞市楽創優貿易　有限公司,,外国会社等,,,,,,,,広東省東莞市東坑鎮東坑大道南２号万科金域広場１号楼３０２室,,,,,,2023-10-13,1,,,,,トウカンシラクソウユウボウエキユウゲンコウシ,0
1832,7010001239134,新規,0,2023-10-13,2023-10-13,株式会社ＴＴメンタルラボ,,株式会社,東京都,文京区,本郷１丁目３３番２５号,,13,105,1130033,,,,,,,2023-10-13,1,,,,,ティーティーメンタルラボ,0
1833,7010001239200,新規,0,2023-10-13,2023-10-13,株式会社ユニワイズ,,株式会社,東京都,中央区,新川２丁目２７番４号,,13,102,1040033,,,,,,,2023-10-13,1,,,,,ユニワイズ,0
1835,7010003041876,新規,0,2023-10-13,2023-10-13,合同会社１０４６,,合同会社,東京都,千代田区,内神田１丁目１２－６,,13,101,1010047,,,,,,,2023-10-13,1,,,,,テンフォーティーシックス,0
1836,7010003041926,新規,0,2023-10-13,2023-10-13,Ｋｅｌｌｙ＆Ｃｏ’ｓ　Ｊａｐａｎ合同会社,,合同会社,東京都,千代田区,大手町１丁目７－２東京サンケイビル２７階,,13,101,1000004,,,,,,,2023-10-13,1,,,,,ケリーアンドコンパニオンジャパン,0
1843,7010401177545,新規,0,2023-10-13,2023-10-13,株式会社らいふぃず,,株式会社,東京都,港区,南青山２丁目２番１５号,,13,103,1070062,,,,,,,2023-10-13,1,,,,,ライフィズ,0
1853,7010701044973,新規,0,2023-10-13,2023-10-13,戸沼インベスト株式会社,,株式会社,東京都,品川区,大崎２丁目９番２－３８０２号,,13,109,1410032,,,,,,,2023-10-13,1,,,,,トヌマインベスト,0
1854,7010801034420,新規,0,2023-10-13,2023-10-13,道信重量株式会社,,株式会社,東京都,大田区,中馬込１丁目１４番１３号,,13,111,1430027,,,,,,,2023-10-13,1,,,,,ドウシンジュウリョウ,0
1856,7010803004719,新規,0,2023-10-13,2023-10-13,合同会社松島事務所,,合同会社,東京都,大田区,石川町１丁目１５番９号,,13,111,1450061,,,,,,,2023-10-13,1,,,,,マツシマジムショ,0
1857,7010901053989,新規,0,2023-10-13,2023-10-13,株式会社ＷＹＤ,,株式会社,東京都,世田谷区,若林５丁目２番５号,,13,112,1540023,,,,,,,2023-10-13,1,,,,,ワイド,0
1864,7011001157474,新規,0,2023-10-13,2023-10-13,株式会社ＭＭＫＲ,,株式会社,東京都,渋谷区,神宮前６丁目２３番４号桑野ビル２階,,13,113,1500001,,,,,,,2023-10-13,1,,,,,エムエムケイアール,0
1865,7011001157549,新規,0,2023-10-13,2023-10-13,株式会社ＬＴホールディングス・セカンド,,株式会社,東京都,渋谷区,恵比寿西２丁目１３番７号,,13,113,1500021,,,,,,,2023-10-13,1,,,,,,0
1866,7011001157573,新規,0,2023-10-13,2023-10-13,Ｖｉｄａ株式会社,,株式会社,東京都,目黒区,中目黒３丁目１番８－２０３号セザール中目黒,,13,110,1530061,,,,,,,2023-10-13,1,,,,,ヴィーダ,0
1876,7011301029068,新規,0,2023-10-13,2023-10-13,株式会社ＩＢＩ,,株式会社,東京都,杉並区,和田２丁目３１番３４号,,13,115,1660012,,,,,,,2023-10-13,1,,,,,アイビーアイ,0
1877,7011301029092,新規,0,2023-10-13,2023-10-13,株式会社ＥＬＴＲＵＴ,,株式会社,東京都,杉並区,井草２丁目３５番１２－６－２１０号,,13,115,1670021,,,,,,,2023-10-13,1,,,,,エルタート,0
1879,7011401025529,新規,0,2023-10-13,2023-10-13,株式会社セブンフードアーリープロ,,株式会社,東京都,板橋区,常盤台１丁目４１番８号,,13,119,1740071,,,,,,,2023-10-13,1,,,,,セブンフードアーリープロ,0
1881,7011501029826,新規,0,2023-10-13,2023-10-13,東京瀚福株式会社,,株式会社,東京都,荒川区,東日暮里２丁目３０番６－１０１号,,13,118,1160014,,,,,,,2023-10-13,1,,,,,トウキョウカンフク,0
1882,7011501029867,新規,0,2023-10-13,2023-10-13,株式会社ＣＯＭＴＥＮ,,株式会社,東京都,北区,中里２丁目６番１４－１０２号ＮＡＣビル,,13,117,1140015,,,,,,,2023-10-13,1,,,,,コムテン,0
1883,7011503005800,新規,0,2023-10-13,2023-10-13,Ｃａｐｔａｉｎ　Ｉｎｔｅｒｎａｔｉｏｎａｌ合同会社,,合同会社,東京都,北区,中十条１丁目１８番５号プラザボヌール１０１号,,13,117,1140032,,,,,,,2023-10-13,1,,,,,キャプテンインターナショナル,0
1884,7011601027176,新規,0,2023-10-13,2023-10-13,株式会社ディーモス,,株式会社,東京都,練馬区,田柄１丁目２９番５号,,13,120,1790073,,,,,,,2023-10-13,1,,,,,ディーモス,0
1889,7011701026656,新規,0,2023-10-13,2023-10-13,株式会社八起グループ,,株式会社,東京都,江戸川区,中葛西１丁目２７番６－３０１号,,13,123,1340083,,,,,,,2023-10-13,1,,,,,ヤオキグループ,0
1891,7011703003620,新規,0,2023-10-13,2023-10-13,ワールドネットワーク合同会社,,合同会社,東京都,江戸川区,瑞江１丁目５０番６号,,13,123,1320011,,,,,,,2023-10-13,1,,,,,ワールドネットワーク,0
1894,7011801043171,新規,0,2023-10-13,2023-10-13,愛建株式会社,,株式会社,東京都,葛飾区,東新小岩７丁目２０番４－３０３号コスモ新小岩２,,13,122,1240023,,,,,,,2023-10-13,1,,,,,アイケン,0
1899,7012701017884,新規,0,2023-10-13,2023-10-13,株式会社フルストップ,,株式会社,東京都,西東京市,柳沢３丁目２番１８号,,13,229,2020022,,,,,,,2023-10-13,1,,,,,フルストップ,0
1902,7013301051464,新規,0,2023-10-13,2023-10-13,株式会社Ｓｕｐａｇｏ,,株式会社,東京都,豊島区,高松２丁目１１番１２号,,13,116,1710042,,,,,,,2023-10-13,1,,,,,スパゴ,0
1903,7013305003528,新規,0,2023-10-13,2023-10-13,行政書士法人松野下グループ,,その他の設立登記法人,東京都,豊島区,池袋２丁目４８番１号,,13,116,1710014,,,,,,,2023-10-13,1,,,,,マツノシタグループ,0
1908,7020001153854,新規,0,2023-10-13,2023-10-13,株式会社ＨＯＯＰ,,株式会社,神奈川県,横浜市戸塚区,汲沢町３０５番地９,,14,110,2450062,,,,,,,2023-10-13,1,,,,,フープ,0
1909,7020001153920,新規,0,2023-10-13,2023-10-13,株式会社フィレルクール,,株式会社,神奈川県,横浜市青葉区,奈良町２８９８番地４,,14,117,2270036,,,,,,,2023-10-13,1,,,,,フィレルクール,0
1912,7021001080460,新規,0,2023-10-13,2023-10-13,株式会社ラインクロス,,株式会社,神奈川県,平塚市,平塚３丁目１２番１８号３０２室,,14,203,2540052,,,,,,,2023-10-13,1,,,,,ラインクロス,0
1922,7030001156484,新規,0,2023-10-13,2023-10-13,株式会社Ｒｅｃｌｅａｎ,,株式会社,埼玉県,川口市,大字芝４８７４番地の１メゾン・ド・フラン１０１号室,,11,203,3330866,,,,,,,2023-10-13,1,,,,,リクリーン,0
1923,7030001156534,新規,0,2023-10-13,2023-10-13,株式会社Ｚａｃ,,株式会社,埼玉県,加須市,久下４丁目３９番地７,,11,210,3470063,,,,,,,2023-10-13,1,,,,,ザック,0
1924,7030001156550,新規,0,2023-10-13,2023-10-13,株式会社惑星,,株式会社,埼玉県,戸田市,本町３丁目１５番２６号グレートリヴァー２０４室,,11,224,3350023,,,,,,,2023-10-13,1,,,,,ワクセイ,0
1925,7030001156591,新規,0,2023-10-13,2023-10-13,株式会社アートルーム,,株式会社,埼玉県,川口市,大字里５４２番地８,,11,203,3340005,,,,,,,2023-10-13,1,,,,,アートルーム,0
1926,7030001156600,新規,0,2023-10-13,2023-10-13,株式会社ケアリーフィール,,株式会社,埼玉県,越谷市,宮本町３丁目１２５番地５,,11,222,3430806,,,,,,,2023-10-13,1,,,,,ケアリーフィール,0
1927,7030001156609,新規,0,2023-10-13,2023-10-13,株式会社ホープ,,株式会社,埼玉県,蓮田市,西城３丁目１８９番地,,11,238,3490145,,,,,,,2023-10-13,1,,,,,ホープ,0
1928,7030001156617,新規,0,2023-10-13,2023-10-13,株式会社グリーンブレイブ,,株式会社,埼玉県,久喜市,西大輪１丁目２番地２,,11,232,3400206,,,,,,,2023-10-13,1,,,,,グリーンブレイブ,0
1935,7030003022750,新規,0,2023-10-13,2023-10-13,合同会社沖田インベストメント１２,,合同会社,埼玉県,川口市,本町４丁目１番６号第一ビル４階,,11,203,3320012,,,,,,,2023-10-13,1,,,,,オキタインベストメントトゥエルブ,0
1936,7030003022775,新規,0,2023-10-13,2023-10-13,レショーモン合同会社,,合同会社,埼玉県,北葛飾郡松伏町,大字上赤岩９５３番地,,11,465,3430115,,,,,,,2023-10-13,1,,,,,レショーモン,0
1950,7040003023517,新規,0,2023-10-13,2023-10-13,ＣＨＩＫＡＤＥＮ合同会社,,合同会社,千葉県,八千代市,勝田台３丁目３６番地１０,,12,221,2760023,,,,,,,2023-10-13,1,,,,,チカデン,0
1951,7040003023525,新規,0,2023-10-13,2023-10-13,エスプラス合同会社,,合同会社,千葉県,木更津市,東太田３丁目７－１２,,12,206,2920043,,,,,,,2023-10-13,1,,,,,エスプラス,0
1953,7040005022145,新規,0,2023-10-13,2023-10-13,医療法人社団ＣＦＣ,,その他の設立登記法人,千葉県,千葉市花見川区,幕張町６丁目９０番地１メディカルスクエア１階,,12,102,2620032,,,,,,,2023-10-13,1,,,,,シーエフシー,0
1956,7050001053606,新規,0,2023-10-13,2023-10-13,株式会社ユウキ美装,,株式会社,茨城県,稲敷市,佐倉３２７８番地,,08,229,3000508,,,,,,,2023-10-13,1,,,,,ユウキビソウ,0
1958,7050003007849,新規,0,2023-10-13,2023-10-13,合同会社ＮＤＢ　ＩＮＴＥＲＮＡＴＩＯＮＡＬ,,合同会社,茨城県,鹿嶋市,大字津賀８０４番地１,,08,222,3112205,,,,,,,2023-10-13,1,,,,,エヌディービーインターナショナル,0
1960,7060001036428,新規,0,2023-10-13,2023-10-13,株式会社ラフテル,,株式会社,栃木県,小山市,駅東通り２丁目４０番３１号山中ビル２Ｆ,,09,208,3230022,,,,,,,2023-10-13,1,,,,,ラフテル,0
1967,7080001025908,新規,0,2023-10-13,2023-10-13,株式会社ネクステア,,株式会社,静岡県,静岡市葵区,吉野町４番７号,,22,101,4200046,,,,,,,2023-10-13,1,,,,,ネクステア,0
1968,7080001025916,新規,0,2023-10-13,2023-10-13,株式会社エスライズ,,株式会社,静岡県,静岡市駿河区,中田本町１８番２１号,,22,102,4228043,,,,,,,2023-10-13,1,,,,,エスライズ,0
1969,7080101024272,新規,0,2023-10-13,2023-10-13,株式会社寿屋ファーム,,株式会社,静岡県,沼津市,今沢４６３番地の１９,,22,203,4100875,,,,,,,2023-10-13,1,,,,,スヤファーム,0
1971,7080103002904,新規,0,2023-10-13,2023-10-13,合同会社たよるば,,合同会社,静岡県,駿東郡長泉町,下土狩１０５７番地の２１,,22,342,4110943,,,,,,,2023-10-13,1,,,,,タヨルバ,0
1973,7090001018373,新規,0,2023-10-13,2023-10-13,株式会社石田興業,,株式会社,山梨県,甲府市,美咲２丁目１６番２０号,,19,201,4000007,,,,,,,2023-10-13,1,,,,,イシダコウギョウ,0
1978,7100001036885,新規,0,2023-10-13,2023-10-13,株式会社アテンド,,株式会社,長野県,上田市,神畑３３７番地１,,20,203,3861103,,,,,,,2023-10-13,1,,,,,アテンド,0
1994,7120001258593,新規,0,2023-10-13,2023-10-13,淞澤堂株式会社,,株式会社,大阪府,大阪市大正区,三軒家西３丁目４番１６号中山ビル１０１５,,27,108,5510001,,,,,,,2023-10-13,1,,,,,シュサワドウ,0
1995,7120001258800,新規,0,2023-10-13,2023-10-13,株式会社岸本浩太,,株式会社,大阪府,寝屋川市,池田３丁目１番４号,,27,215,5720039,,,,,,,2023-10-13,1,,,,,,0
1996,7120001258809,新規,0,2023-10-13,2023-10-13,楽達貿易株式会社,,株式会社,大阪府,大阪市北区,梅田１丁目１２番１２号東京建物梅田ビル１２階,,27,127,5300001,,,,,,,2023-10-13,1,,,,,ラクタツボウエキ,0
1999,7120003024969,新規,0,2023-10-13,2023-10-13,ｂｕｙｅｒ．ｃｏｍ合同会社,,合同会社,大阪府,大阪市淀川区,新高６丁目１６番１６－２２１号,,27,123,5320033,,,,,,,2023-10-13,1,,,,,バイヤードットコム,0
2000,7120003025091,新規,0,2023-10-13,2023-10-13,合同会社ｃｏｒｅ,,合同会社,大阪府,大阪市鶴見区,今津北２丁目３番３５号,,27,124,5380041,,,,,,,2023-10-13,1,,,,,コア,0
2004,7120101068380,新規,0,2023-10-13,2023-10-13,株式会社浅野設備,,株式会社,大阪府,堺市東区,北野田９７５番地２４,,27,143,5998123,,,,,,,2023-10-13,1,,,,,アサノセツビ,0
2009,7122001037457,新規,0,2023-10-13,2023-10-13,株式会社ＰＲＯＵＤ,,株式会社,大阪府,東大阪市,川俣２丁目６番６３－４０５号,,27,227,5770063,,,,,,,2023-10-13,1,,,,,プラウド,0
2010,7122001037465,新規,0,2023-10-13,2023-10-13,川源株式会社,,株式会社,大阪府,八尾市,萱振町６丁目１０９番地の２,,27,212,5810834,,,,,,,2023-10-13,1,,,,,カワゲン,0
2016,7140001131947,新規,0,2023-10-13,2023-10-13,株式会社瑞穂,,株式会社,兵庫県,伊丹市,荒牧５丁目４番７号,,28,207,6640001,,,,,,,2023-10-13,1,,,,,ミズホ,0
2019,7140003019653,新規,0,2023-10-13,2023-10-13,合同会社縁,,合同会社,兵庫県,三木市,緑が丘町西５丁目３番地の５パークハイム弐番館Ｂ－２,,28,215,6730531,,,,,,,2023-10-13,1,,,,,エニシ,0
2027,7160001025412,新規,0,2023-10-13,2023-10-13,株式会社Ｓ＆Ｋたかしま,,株式会社,滋賀県,高島市,今津町今津２４４７番地９,,25,212,5201621,,,,,,,2023-10-13,1,,,,,エスアンドケータカシマ,0
2028,7160001025420,新規,0,2023-10-13,2023-10-13,株式会社ＳＯＲＡ,,株式会社,滋賀県,高島市,安曇川町下古賀１５１３番地,,25,212,5201202,,,,,,,2023-10-13,1,,,,,ソラ,0
2035,7180001158391,新規,0,2023-10-13,2023-10-13,株式会社リブホーム,,株式会社,愛知県,名古屋市南区,元柴田東町４丁目７４番地の３,,23,112,4570816,,,,,,,2023-10-13,1,,,,,リブホーム,0
2036,7180001158409,新規,0,2023-10-13,2023-10-13,株式会社１ｓｔ,,株式会社,愛知県,名古屋市中川区,江松１丁目９１２番地アーバンＨＩＲＯ２０３号,,23,110,4540954,,,,,,,2023-10-13,1,,,,,ファースト,0
2037,7180001158417,新規,0,2023-10-13,2023-10-13,株式会社レオンハート,,株式会社,愛知県,春日井市,六軒屋町西２丁目２番地８,,23,206,4860839,,,,,,,2023-10-13,1,,,,,レオンハート,0
2038,7180001158425,新規,0,2023-10-13,2023-10-13,株式会社ラフィストン,,株式会社,愛知県,名古屋市守山区,向台１丁目１８１０番地,,23,113,4630036,,,,,,,2023-10-13,1,,,,,ラフィストン,0
2039,7180001158458,新規,0,2023-10-13,2023-10-13,株式会社ジーエルトレーディング,,株式会社,愛知県,名古屋市西区,花の木１丁目９番１３号プレジデント浄心５０４号,,23,104,4510062,,,,,,,2023-10-13,1,,,,,ジーエルトレーディング,0
2049,7190003004477,新規,0,2023-10-13,2023-10-13,Ｒｏｓｅ　Ｂｅａｕｔｙ合同会社,,合同会社,三重県,津市,河芸町千里ヶ丘５９番地１１,,24,201,5100302,,,,,,,2023-10-13,1,,,,,ローズビューティー,0
2053,7210001019508,新規,0,2023-10-13,2023-10-13,グローウィズ株式会社,,株式会社,福井県,坂井市,三国町黒目第１８号６１番地１,,18,210,9130037,,,,,,,2023-10-13,1,,,,,グローウィズ,0
2059,7220002016395,新規,0,2023-10-13,2023-10-13,宮本レース有限会社,,有限会社,石川県,河北郡内灘町,字西荒屋ハ７７番地４２,,17,365,9200262,,,,,,,2023-10-13,1,,,,,ミヤモトレース,0
2065,7260001038404,新規,0,2023-10-13,2023-10-13,ＳＨＩＮＥ株式会社,,株式会社,岡山県,岡山市南区,大福４６９番地９,,33,104,7010204,,,,,,,2023-10-13,1,,,,,シャイン,0
2075,7290001103378,新規,0,2023-10-13,2023-10-13,株式会社ＭＳ’ｇａｒｌａｎＤ,,株式会社,福岡県,春日市,小倉２丁目２番地１階Ｃ号室,,40,218,8160824,,,,,,,2023-10-13,1,,,,,エムズガーランド,0
2077,7290003014474,新規,0,2023-10-13,2023-10-13,合同会社Ｎｐｒｏ,,合同会社,福岡県,福岡市南区,寺塚２丁目１０番２－２１６号,,40,134,8150074,,,,,,,2023-10-13,1,,,,,エヌプロ,0
2089,7330003010023,新規,0,2023-10-13,2023-10-13,合同会社ディライト,,合同会社,熊本県,八代市,鏡町宝出１０８４番地５,,43,202,8694221,,,,,,,2023-10-13,1,,,,,ディライト,0
2090,7340001025971,新規,0,2023-10-13,2023-10-13,株式会社コジマ熔材,,株式会社,鹿児島県,伊佐市,大口大田２７１番地,,46,224,8952507,,,,,,,2023-10-13,1,,,,,コジマヨウザイ,0
2093,7350001018611,新規,0,2023-10-13,2023-10-13,株式会社フジムセン,,株式会社,宮崎県,都城市,上町１２街区２６号,,45,202,8850072,,,,,,,2023-10-13,1,,,,,フジムセン,0
2096,7350003004460,新規,0,2023-10-13,2023-10-13,ＭａｎｉａＭａｒｋｅｔ合同会社,,合同会社,宮崎県,都城市,一万城町７４号１番地７ステラＩＩ２０２,00132241,45,202,8850041,,,,,,,2023-10-13,1,,,,,マニアマーケット,0
2098,7360001032677,新規,0,2023-10-13,2023-10-13,株式会社八坂機神,00132239,株式会社,沖縄県,島尻郡八重瀬町,字伊覇３７番地,,47,362,9010405,,,,,,,2023-10-13,1,,,,,ヤサカキコウ,0
2101,7370003006323,新規,0,2023-10-13,2023-10-13,合同会社リアークス,,合同会社,宮城県,仙台市太白区,八木山弥生町４－２９,,04,104,9820833,,,,,,,2023-10-13,1,,,,,リアークス,0
2105,7380003005588,新規,0,2023-10-13,2023-10-13,会津再生可能エネルギーサービス合同会社,,合同会社,福島県,会津若松市,東栄町１番７７号スマートシティＡｉＣＴ,,07,202,9650872,,,,,,,2023-10-13,1,,,,,アイヅサイセイカノウエネルギーサービス,0
2106,7380005012756,新規,0,2023-10-13,2023-10-13,医療法人Ｃｏｎｆｉａｎｃｅ,,その他の設立登記法人,福島県,西白河郡中島村,大字二子塚字前田１７番地の１０,,07,465,9610106,,,,,,,2023-10-13,1,,,,,コンフィアンス,0
2110,7410003003852,新規,0,2023-10-13,2023-10-13,合同会社ｆｉｒｅｆｌｙ,,合同会社,秋田県,能代市,河戸川字大須賀３７番地１,,05,202,0160171,,,,,,,2023-10-13,1,,,,,ファイアフライ,0
2114,7430001090115,新規,0,2023-10-13,2023-10-13,ＣＡＬＤＥＲＡ株式会社,,株式会社,北海道,虻田郡倶知安町,字樺山４８番地３７,,01,400,0440078,,,,,,,2023-10-13,1,,,,,カルデラ,0
2115,7430001090180,新規,0,2023-10-13,2023-10-13,株式会社Ｕｃｏｎｆｏｒｔ,,株式会社,北海道,札幌市中央区,北四条西４丁目１－７,,01,101,0600004,,,,,,,2023-10-13,1,,,,,ユーコンフォルト,0
2117,7430003015490,新規,0,2023-10-13,2023-10-13,合同会社中川ヘッドホン,,合同会社,北海道,札幌市東区,北三十二条東７丁目１番２５－１０１号,,01,103,0650032,,,,,,,2023-10-13,1,,,,,ナカガワヘッドホン,0
2118,7430003015516,新規,0,2023-10-13,2023-10-13,合同会社ファイブフォース,,合同会社,北海道,札幌市西区,琴似一条７丁目１番１４－３０３号,,01,107,0630811,,,,,,,2023-10-13,1,,,,,ファイブフォース,0
2123,7460305002003,新規,0,2023-10-13,2023-10-13,一般社団法人ＰＬＡＣＥ２．７,,その他の設立登記法人,北海道,北見市,本町５丁目９番１５号,,01,208,0900818,,,,,,,2023-10-13,1,,,,,,0
2124,7470001019845,新規,0,2023-10-13,2023-10-13,株式会社蒼幡,,株式会社,香川県,観音寺市,港町１丁目５番５号,,37,205,7680076,,,,,,,2023-10-13,1,,,,,アオハタ,0
2127,7700150059239,新規,0,2023-10-13,2015-10-09,ニシム電子工業労働組合,,その他,福岡県,福岡市博多区,美野島１丁目２－１,,40,132,8120017,,,,,,,2015-10-09,1,,,,,ニシムデンシコウギヨウロウドウクミアイ,0
2128,7700150114927,新規,0,2023-10-13,2023-10-13,輕宅居　有限公司,,外国会社等,,,,,,,,新北市新店區民圏路９５號１６樓,,,,,,2023-10-13,1,,,,,ケイタクキヨユウゲンコウシ,0
2129,7700150115025,新規,0,2023-10-13,2023-10-13,香港高速互聯　有限公司,,外国会社等,,,,,,,,新界屯門震寰路９號好收成工業大業厦４棲９室,00132249,,,,,2023-10-13,1,,,,,ホンコンコウソクゴレンユウゲンコウシ,0
2141,8010001238985,新規,0,2023-10-13,2023-10-13,栄光トレーディング株式会社,,株式会社,東京都,千代田区,内神田２丁目９番１４号,,13,101,1010047,,,,,,,2023-10-13,1,,,,,エイコウトレーディング,0
2142,8010001238993,新規,0,2023-10-13,2023-10-13,株式会社Ｓｈｉｚｅｎ　Ｃｏｎｎｅｃｔ,,株式会社,東京都,文京区,本郷５丁目３３番１０号,,13,105,1130033,,,,,,,2023-10-13,1,,,,,シゼンコネクト,0
2143,8010001239174,新規,0,2023-10-13,2023-10-13,株式会社Ｚｏｔｏ,,株式会社,東京都,文京区,本駒込５丁目３５番４号,,13,105,1130021,,,,,,,2023-10-13,1,,,,,ゾートー,0
2153,8010401177734,新規,0,2023-10-13,2023-10-13,株式会社アート・アンサンブル,,株式会社,東京都,港区,赤坂４丁目３番３０号,,13,103,1070052,,,,,,,2023-10-13,1,,,,,アートアンサンブル,0
2158,8010405022564,新規,0,2023-10-13,2023-10-13,東京レジデンシャル３特定目的会社,,その他の設立登記法人,東京都,港区,赤坂２丁目１０番５号税理士法人赤坂国際会計事務所内,,13,103,1070052,,,,,,,2023-10-13,1,,,,,トウキョウレジデンシャルスリー,0
2160,8010503007178,新規,0,2023-10-13,2023-10-13,アドロジ合同会社,,合同会社,東京都,台東区,上野６丁目８番１９号小野田ビル３Ｆ,,13,106,1100005,,,,,,,2023-10-13,1,,,,,,0
2171,8010901053996,新規,0,2023-10-13,2023-10-13,株式会社ＢｉＢ,,株式会社,東京都,世田谷区,粕谷２丁目１－４ロジェ芦花３０６,,13,112,1570063,,,,,,,2023-10-13,1,,,,,ビーアイビー,0
2176,8011001157507,新規,0,2023-10-13,2023-10-13,株式会社ＣＹホリディ,,株式会社,東京都,渋谷区,千駄ヶ谷５丁目１６番１６号,,13,113,1510051,,,,,,,2023-10-13,1,,,,,シーワイホリディ,0
2177,8011001157515,新規,0,2023-10-13,2023-10-13,株式会社タロウ,,株式会社,東京都,渋谷区,広尾５丁目９番１３号,,13,113,1500012,,,,,,,2023-10-13,1,,,,,タロウ,0
2178,8011001157531,新規,0,2023-10-13,2023-10-13,ミックスシンクス株式会社,,株式会社,東京都,渋谷区,渋谷２丁目１２番１９号,,13,113,1500002,,,,,,,2023-10-13,1,,,,,ミックスシンクス,0
2179,8011001157580,新規,0,2023-10-13,2023-10-13,サンクレスト株式会社,,株式会社,東京都,渋谷区,広尾１丁目７番２１－１１０４号,,13,113,1500012,,,,,,,2023-10-13,1,,,,,サンクレスト,0
2180,8011101104680,新規,0,2023-10-13,2023-10-13,リレーショナル株式会社,,株式会社,東京都,新宿区,西新宿８丁目４番１１号アーバンクレスト西新宿２０２,,13,104,1600023,,,,,,,2023-10-13,1,,,,,リレーショナル,0
2181,8011101104714,新規,0,2023-10-13,2023-10-13,株式会社ＳｕｒｇｅＬｅａｆ,,株式会社,東京都,新宿区,新宿２丁目１２番１３号新宿アントレサロンビル２階,,13,104,1600022,,,,,,,2023-10-13,1,,,,,サージリーフ,0
2186,8011301029091,新規,0,2023-10-13,2023-10-13,株式会社Ｇ＆Ｆコーポレーション,,株式会社,東京都,杉並区,久我山５丁目２８番２号パークホームズ久我山五丁目３０５,,13,115,1680082,,,,,,,2023-10-13,1,,,,,ジーアンドエフコーポレーション,0
2195,8011701026647,新規,0,2023-10-13,2023-10-13,株式会社オーウィック,,株式会社,東京都,江戸川区,江戸川４丁目１番２号,,13,123,1340013,,,,,,,2023-10-13,1,,,,,オーウィック,0
2197,8011803005887,新規,0,2023-10-13,2023-10-13,合同会社アキタ国際運輸,,合同会社,東京都,葛飾区,東新小岩７丁目２７番４号ハイツナミキ３０３,,13,122,1240023,,,,,,,2023-10-13,1,,,,,アキタコクサイウンユ,0
2200,8012401041110,新規,0,2023-10-13,2023-10-13,株式会社清建社,,株式会社,東京都,府中市,天神町１丁目１４番地の４３,,13,206,1830053,,,,,,,2023-10-13,1,,,,,セイケンシャ,0
2201,8012701017883,新規,0,2023-10-13,2023-10-13,株式会社イマイ,,株式会社,東京都,東村山市,野口町２丁目１１番地の９,,13,213,1890022,,,,,,,2023-10-13,1,,,,,イマイ,0
2202,8012703002818,新規,0,2023-10-13,2023-10-13,合同会社ありがとうのカタチ,,合同会社,東京都,小平市,花小金井南町３丁目５番１３号,,13,211,1870003,,,,,,,2023-10-13,1,,,,,アリガトウノカタチ,0
2203,8012703002826,新規,0,2023-10-13,2023-10-13,ＮｅｕｒａｌＣｏｒｅ合同会社,,合同会社,東京都,西東京市,保谷町６丁目１０番３０号グラン・シェソワ３０２号,,13,229,2020015,,,,,,,2023-10-13,1,,,,,ニューラルコア,0
2205,8012801022692,新規,0,2023-10-13,2023-10-13,株式会社ＳＫＤ,,株式会社,東京都,昭島市,玉川町１丁目１番９号タクミビル４Ｂ,,13,207,1960034,,,,,,,2023-10-13,1,,,,,エスケーディー,0
2206,8012805003235,新規,0,2023-10-13,2023-10-13,一般社団法人レナータ,,その他の設立登記法人,東京都,立川市,曙町１丁目２９番７号キングストンパレス立川１階,,13,202,1900012,,,,,,,2023-10-13,1,,,,,レナータ,0
2210,8013301051471,新規,0,2023-10-13,2023-10-13,ＡＵＢＯロボティクス株式会社,,株式会社,東京都,豊島区,雑司が谷２丁目５－１７,,13,116,1710032,,,,,,,2023-10-13,1,,,,,オーボーロボティクス,0
2217,8020001153911,新規,0,2023-10-13,2023-10-13,ＡＴＣ株式会社,,株式会社,神奈川県,川崎市高津区,千年新町９番地１５,,14,134,2130021,,,,,,,2023-10-13,1,,,,,エーティシー,0
2218,8020001153944,新規,0,2023-10-13,2023-10-13,西村商事株式会社,,株式会社,神奈川県,川崎市中原区,新城３丁目８番１号,,14,133,2110044,,,,,,,2023-10-13,1,,,,,ニシムラショウジ,0
2224,8020003024747,新規,0,2023-10-13,2023-10-13,アーティキュレーション合同会社,,合同会社,神奈川県,川崎市麻生区,王禅寺西８丁目１３‐４０,,14,137,2150017,,,,,,,2023-10-13,1,,,,,アーティキュレーション,0
2225,8020003024755,新規,0,2023-10-13,2023-10-13,佳潤バイオテック合同会社,,合同会社,神奈川県,横浜市中区,羽衣町２丁目５番地３ウエルカーサ横浜関内９０１号,,14,104,2310047,,,,,,,2023-10-13,1,,,,,カジュンバイオテック,0
2226,8020003024763,新規,0,2023-10-13,2023-10-13,雨月合同会社,,合同会社,神奈川県,川崎市宮前区,平４丁目１０‐２４‐２,,14,136,2160022,,,,,,,2023-10-13,1,,,,,ウゲツ,0
2227,8020005016148,新規,0,2023-10-13,2023-10-13,一般社団法人学びプロジェクト,,その他の設立登記法人,神奈川県,横浜市青葉区,あざみ野１丁目１１番１号あざみ野センタービル３階,,14,117,2250011,,,,,,,2023-10-13,1,,,,,マナビプロジェクト,0
2237,8030001156558,新規,0,2023-10-13,2023-10-13,株式会社ＤＡＩＤＥＮ,,株式会社,埼玉県,さいたま市緑区,大字大間木７３０番地１,,11,109,3360923,,,,,,,2023-10-13,1,,,,,ダイデン,0
2238,8030001156590,新規,0,2023-10-13,2023-10-13,アドバンス建物管理株式会社,,株式会社,埼玉県,東松山市,大字西本宿５９１番地１,,11,212,3550062,,,,,,,2023-10-13,1,,,,,アドバンスタテモノカンリ,0
2239,8030001156649,新規,0,2023-10-13,2023-10-13,株式会社ｈｏｌｏｍｕａ,,株式会社,埼玉県,幸手市,大字内国府間１３４番地７,,11,240,3400103,,,,,,,2023-10-13,1,,,,,ホロムア,0
2240,8030001156681,新規,0,2023-10-13,2023-10-13,株式会社ＲＩＺＥ,,株式会社,埼玉県,狭山市,大字水野４６７番地の９９－３０３,,11,215,3501317,,,,,,,2023-10-13,1,,,,,ライズ,0
2247,8030003022758,新規,0,2023-10-13,2023-10-13,合同会社れもん,,合同会社,埼玉県,川越市,霞ケ関東１丁目１７番地９,,11,201,3501103,,,,,,,2023-10-13,1,,,,,レモン,0
2252,8040001130462,新規,0,2023-10-13,2023-10-13,株式会社大和,,株式会社,千葉県,市原市,飯沼７６番地３,,12,219,2900037,,,,,,,2023-10-13,1,,,,,ダイワ,0
2253,8040001130479,新規,0,2023-10-13,2023-10-13,株式会社ＣＯＭＰＡＳＳ,,株式会社,千葉県,松戸市,新松戸７丁目２２０番地の２０,,12,207,2700034,,,,,,,2023-10-13,1,,,,,コンパス,0
2254,8040001130487,新規,0,2023-10-13,2023-10-13,株式会社１０Ｆｉｎｇｅｒ,,株式会社,千葉県,船橋市,高根台６丁目１４番６号,,12,204,2740065,,,,,,,2023-10-13,1,,,,,テンフィンガー,0
2257,8040003023532,新規,0,2023-10-13,2023-10-13,ムッラーインターナショナル合同会社,,合同会社,千葉県,松戸市,五香南１丁目１３－４元山ビル２０２号室,,12,207,2702212,,,,,,,2023-10-13,1,,,,,ムッラーインターナショナル,0
2260,8050001053613,新規,0,2023-10-13,2023-10-13,株式会社谷上自動車,,株式会社,茨城県,坂東市,弓田１６２３番地１,,08,228,3060607,,,,,,,2023-10-13,1,,,,,ヤガミジドウシャ,0
2261,8050003007848,新規,0,2023-10-13,2023-10-13,ＡＨＳ　ＴＲＡＤＥＲＳ合同会社,,合同会社,茨城県,結城市,大字小田林２２６２番地１,,08,207,3070007,,,,,,,2023-10-13,1,,,,,エーエイチエストレーダース,0
2267,8070001040972,新規,0,2023-10-13,2023-10-13,株式会社ビヨンド社,,株式会社,群馬県,高崎市,大八木町９１０番地１８,,10,202,3700072,,,,,,,2023-10-13,1,,,,,ビヨンドシャ,0
2274,8080001025907,新規,0,2023-10-13,2023-10-13,株式会社Ｂｅａｒ’ｓ,,株式会社,静岡県,藤枝市,大洲４丁目６番地の１８,,22,214,4260051,,,,,,,2023-10-13,1,,,,,ベアーズ,0
2275,8080001025915,新規,0,2023-10-13,2023-10-13,株式会社天翔,,株式会社,静岡県,静岡市駿河区,池田４５３番地の１,,22,102,4228005,,,,,,,2023-10-13,1,,,,,テンショウ,0
2281,8080101024247,新規,0,2023-10-13,2023-10-13,株式会社大福電業,,株式会社,静岡県,伊東市,赤沢３６７番地の５３,,22,208,4130233,,,,,,,2023-10-13,1,,,,,ダイフクデンギョウ,0
2282,8080101024263,新規,0,2023-10-13,2023-10-13,東静テック株式会社,,株式会社,静岡県,沼津市,大岡２４５０番地の４エストメール大岡駅前町４０５号,,22,203,4100022,,,,,,,2023-10-13,1,,,,,トウセイテック,0
2283,8080101024271,新規,0,2023-10-13,2023-10-13,株式会社Ｌ＆Ｒ,,株式会社,静岡県,田方郡函南町,柏谷７９番地の１,,22,325,4190112,,,,,,,2023-10-13,1,,,,,エルアンドアール,0
2286,8090001018372,新規,0,2023-10-13,2023-10-13,株式会社ＳＥＲＩ,,株式会社,山梨県,甲府市,国母１丁目１２番４２号,,19,201,4000043,,,,,,,2023-10-13,1,,,,,セリ,0
2287,8100001036868,新規,0,2023-10-13,2023-10-13,株式会社アルファ,,株式会社,長野県,東御市,本海野１４５５番地３,,20,219,3890518,,,,,,,2023-10-13,1,,,,,アルファ,0
2291,8110001037915,新規,0,2023-10-13,2023-10-13,株式会社ａｍｂｉｅｎｃｅ,,株式会社,新潟県,新潟市中央区,万代１丁目２番１３号万代コスモビル１Ｆ,,15,103,9500088,,,,,,,2023-10-13,1,,,,,アンビエンス,0
2304,8120001258709,新規,0,2023-10-13,2023-10-13,株式会社ｋｙｗｅｅ,,株式会社,大阪府,大阪市浪速区,幸町２丁目１番１０号Ｂｅｌｌハイム幸町３０２号,,27,111,5560021,,,,,,,2023-10-13,1,,,,,キーウィー,0
2305,8120001258733,新規,0,2023-10-13,2023-10-13,株式会社ＦＩＲＳＴ,,株式会社,大阪府,大阪市阿倍野区,文の里２丁目５番１０－１６号,,27,119,5450004,,,,,,,2023-10-13,1,,,,,ファースト,0
2306,8120001258758,新規,0,2023-10-13,2023-10-13,森海株式会社,,株式会社,大阪府,大阪市生野区,田島５丁目１８番４号１０１号室,,27,116,5440011,,,,,,,2023-10-13,1,,,,,シンカイ,0
2307,8120001258774,新規,0,2023-10-13,2023-10-13,株式会社ブリッジスターキャピタル,,株式会社,大阪府,大阪市中央区,南船場１丁目８番１３－４０４号,,27,128,5420081,,,,,,,2023-10-13,1,,,,,ブリッジスターキャピタル,0
2308,8120001258816,新規,0,2023-10-13,2023-10-13,株式会社Ｅ‐ｆａｎ,,株式会社,大阪府,大阪市西区,西本町１丁目４番１号オリックス本町ビル４階,,27,106,5500005,,,,,,,2023-10-13,1,,,,,イーファン,0
2309,8120001258824,新規,0,2023-10-13,2023-10-13,株式会社ビアンココン,,株式会社,大阪府,大阪市中央区,備後町１丁目２番６号,,27,128,5410051,,,,,,,2023-10-13,1,,,,,ビアンココン,0
2310,8120001258931,新規,0,2023-10-13,2023-10-13,株式会社パシフィックツーリスト,,株式会社,大阪府,大阪市北区,堂島１丁目地下街１０号,,27,127,5300003,,,,,,,2023-10-13,1,,,,,パシフィックツーリスト,0
2313,8120003025090,新規,0,2023-10-13,2023-10-13,合同会社すばる,,合同会社,大阪府,枚方市,村野東町５１－２０,,27,210,5730015,,,,,,,2023-10-13,1,,,,,スバル,0
2314,8120003025099,新規,0,2023-10-13,2023-10-13,合同会社Ｋｕｒｏｍｏｎ　Ａｓｓｅｔ　Ｊａｐａｎ,,合同会社,大阪府,大阪市西淀川区,野里１丁目６番９号,,27,113,5550024,,,,,,,2023-10-13,1,,,,,クロモンアセットジャパン,0
2322,8120901048176,新規,0,2023-10-13,2023-10-13,株式会社Ｌａ　ｍｉｃｏ,,株式会社,大阪府,吹田市,片山町３丁目２１番１５－１０１号,,27,205,5640082,,,,,,,2023-10-13,1,,,,,ラミコ,0
2323,8122001037456,新規,0,2023-10-13,2023-10-13,株式会社３ＷＳ,,株式会社,大阪府,東大阪市,柏田東町１０番３９号,,27,227,5770833,,,,,,,2023-10-13,1,,,,,スリーダブリューエス,0
2324,8122001037464,新規,0,2023-10-13,2023-10-13,株式会社ＨＹ,,株式会社,大阪府,東大阪市,大蓮北３丁目１２番１８号,,27,227,5770826,,,,,,,2023-10-13,1,,,,,エイチワイ,0
2329,8130001075392,新規,0,2023-10-13,2023-10-13,株式会社ワールドコーヒー,,株式会社,京都府,京都市左京区,北白川久保田町１番地,,26,103,6068266,,,,,,,2023-10-13,1,,,,,ワールドコーヒー,0
2330,8130001075426,新規,0,2023-10-13,2023-10-13,奏株式会社,,株式会社,京都府,京都市西京区,大枝中山町３－１００ノーベルユイ２－１０１,,26,111,6101104,,,,,,,2023-10-13,1,,,,,カナデ,0
2332,8130003009035,新規,0,2023-10-13,2023-10-13,一石合同会社,,合同会社,京都府,京都市伏見区,深草西浦町８丁目１１５－２０７号,,26,109,6120029,,,,,,,2023-10-13,1,,,,,イッセキ,0
2333,8130003009043,新規,0,2023-10-13,2023-10-13,京都動画制作合同会社,,合同会社,京都府,京都市下京区,朱雀宝蔵町４４番地協栄ビル２階京都朱雀スタジオ,,26,106,6008846,,,,,,,2023-10-13,1,,,,,キョウトドウガセイサク,0
2334,8130005016896,新規,0,2023-10-13,2023-10-13,特定非営利活動法人京都まちづくり技術研究会,,その他の設立登記法人,京都府,京都市左京区,岩倉花園町２２０番地の６,,26,103,6060024,,,,,,,2023-10-13,1,,,,,キョウトマチヅクリギジュツケンキュウカイ,0
2336,8140001131938,新規,0,2023-10-13,2023-10-13,株式会社ａ‐ＰＲＯＤＵＣＴ,,株式会社,兵庫県,加古川市,東神吉町西井ノ口１１７番地の６,,28,210,6750055,,,,,,,2023-10-13,1,,,,,エープロダクト,0
2337,8140001131946,新規,0,2023-10-13,2023-10-13,株式会社エイコウカンパニー,,株式会社,兵庫県,西宮市,柏堂西町４番１号,,28,204,6620098,,,,,,,2023-10-13,1,,,,,エイコウカンパニー,0
2338,8140001131962,新規,0,2023-10-13,2023-10-13,株式会社もりせつ,,株式会社,兵庫県,西宮市,東鳴尾町２丁目１３番６－２号,,28,204,6638132,,,,,,,2023-10-13,1,,,,,モリセツ,0
2346,8180001158382,新規,0,2023-10-13,2023-10-13,株式会社わたかべ塗工店,,株式会社,愛知県,弥富市,五之三川平２丁目２７番地,,23,235,4980018,,,,,,,2023-10-13,1,,,,,ワタカベトコウテン,0
2347,8180001158424,新規,0,2023-10-13,2023-10-13,株式会社ＳＹＮ建設,,株式会社,愛知県,名古屋市南区,松池町１丁目１番地,,23,112,4570046,,,,,,,2023-10-13,1,,,,,シンケンセツ,0
2348,8180001158432,新規,0,2023-10-13,2023-10-13,株式会社福元工業,,株式会社,愛知県,豊明市,栄町梶田７番地１２,,23,229,4701161,,,,,,,2023-10-13,1,,,,,フクモトコウギョウ,0
2349,8180001158457,新規,0,2023-10-13,2023-10-13,株式会社ＦＩ,,株式会社,愛知県,名古屋市中川区,山王２丁目３番山王住宅Ｎ棟１４０１号,,23,110,4540011,,,,,,,2023-10-13,1,,,,,ファイ,0
2353,8190003004476,新規,0,2023-10-13,2023-10-13,合同会社ＳＥＣＯＮＤ,,合同会社,三重県,松阪市,東町２７４番２４,,24,204,5150012,,,,,,,2023-10-13,1,,,,,セカンド,0
2356,8200001041817,新規,0,2023-10-13,2023-10-13,株式会社ＩＤＥ,,株式会社,岐阜県,各務原市,鵜沼西町２丁目８０番地１,,21,213,5090132,,,,,,,2023-10-13,1,,,,,アイディイー,0
2360,8210001019507,新規,0,2023-10-13,2023-10-13,株式会社Ｗａｒｉｏｕｓ,,株式会社,福井県,福井市,栂野町第１５号１番地２,,18,201,9102178,,,,,,,2023-10-13,1,,,,,ワリアス,0
2366,8240001062264,新規,0,2023-10-13,2023-10-13,聖達株式会社,,株式会社,広島県,三次市,四拾貫町８７番地１,,34,209,7280016,,,,,,,2023-10-13,1,,,,,セイタツ,0
2369,8240005015672,新規,0,2023-10-13,2023-10-13,司法書士法人ＺＯＯ,,その他の設立登記法人,広島県,広島市中区,上八丁堀４番２８号,,34,101,7300012,,,,,,,2023-10-13,1,,,,,ズー,0
2370,8250001020329,新規,0,2023-10-13,2023-10-13,株式会社鶴亀,,株式会社,山口県,岩国市,由宇町９８８番地,,35,208,7401488,,,,,,,2023-10-13,1,,,,,ツルカメ,0
2375,8260001038403,新規,0,2023-10-13,2023-10-13,株式会社ｍｉｃ,,株式会社,岡山県,岡山市北区,奥田２丁目２番２号１階,,33,101,7000933,,,,,,,2023-10-13,1,,,,,ミック,0
2376,8260003004469,新規,0,2023-10-13,2023-10-13,合同会社イチタスゼロ,,合同会社,岡山県,岡山市東区,東幸西９６５番地,,33,103,7048135,,,,,,,2023-10-13,1,,,,,イチタスゼロ,0
2390,8320001020073,新規,0,2023-10-13,2023-10-13,株式会社ＲＤ,,株式会社,大分県,杵築市,大字狩宿１８０７番地１,,44,210,8730031,,,,,,,2023-10-13,1,,,,,アールディ,0
2391,8320003004198,新規,0,2023-10-13,2023-10-13,農山漁村応援隊合同会社,,合同会社,大分県,杵築市,大字本庄１４４１番地１,,44,210,8730014,,,,,,,2023-10-13,1,,,,,ノウサンギョソンオウエンタイ,0
2392,8330001031342,新規,0,2023-10-13,2023-10-13,株式会社ＷｉｎＧｏｏｄ,,株式会社,熊本県,熊本市中央区,大江６丁目１番６０－５１０号,,43,101,8620971,,,,,,,2023-10-13,1,,,,,ウィングッド,0
2393,8330001031350,新規,0,2023-10-13,2023-10-13,株式会社オオサジイッパイ,,株式会社,熊本県,熊本市西区,谷尾崎町１０９３番地２１,,43,103,8600044,,,,,,,2023-10-13,1,,,,,オオサジイッパイ,0
2404,8370001050504,新規,0,2023-10-13,2023-10-13,株式会社ＳＪエンタープライズ,,株式会社,宮城県,塩竈市,桜ケ丘９番５号,,04,203,9850033,,,,,,,2023-10-13,1,,,,,エスジェイエンタープライズ,0
2405,8370003006322,新規,0,2023-10-13,2023-10-13,合同会社ミニレス,,合同会社,宮城県,仙台市太白区,八木山弥生町９番２１号,,04,104,9820833,,,,,,,2023-10-13,1,,,,,ミニレス,0
2412,8420001018446,新規,0,2023-10-13,2023-10-13,株式会社八戸防災設備,,株式会社,青森県,八戸市,大字中居林字雷１番地４古里アパート１号,,02,203,0310002,,,,,,,2023-10-13,1,,,,,ハチノヘボウサイセツビ,0
2413,8430001090122,新規,0,2023-10-13,2023-10-13,株式会社オギテック,,株式会社,北海道,札幌市東区,北九条東１０丁目２番２１号,,01,103,0650009,,,,,,,2023-10-13,1,,,,,オギテック,0
2414,8430001090155,新規,0,2023-10-13,2023-10-13,株式会社ＳＫ　ＴＥＣ,,株式会社,北海道,札幌市白石区,菊水五条１丁目７番２３－９０２号,,01,104,0030805,,,,,,,2023-10-13,1,,,,,エスケーテック,0
2415,8430001090196,新規,0,2023-10-13,2023-10-13,株式会社Ｍａｉｎ　Ｔｒｅｅ,,株式会社,北海道,札幌市中央区,南二条西６丁目１７番地５,,01,101,0600062,,,,,,,2023-10-13,1,,,,,メインツリー,0
2418,8430003015523,新規,0,2023-10-13,2023-10-13,合同会社ＭＳｗｏｒｋｓ,,合同会社,北海道,札幌市東区,北三十九条東２１丁目５番８号,,01,103,0070839,,,,,,,2023-10-13,1,,,,,エムエスワークス,0
2422,8480001012253,新規,0,2023-10-13,2023-10-13,株式会社サムライマーケット,,株式会社,徳島県,名西郡石井町,高川原字加茂野２７５番地２,,36,341,7793224,,,,,,,2023-10-13,1,,,,,サムライマーケット,0
2423,8490001010611,新規,0,2023-10-13,2023-10-13,株式会社高豊丸,,株式会社,高知県,室戸市,浮津三番町１５８番地,,39,202,7817106,,,,,,,2023-10-13,1,,,,,タカトヨマル,0
2424,8490003001823,新規,0,2023-10-13,2023-10-13,ＨＢＧ合同会社,,合同会社,高知県,高知市,南河ノ瀬町１８９番地,,39,201,7808034,,,,,,,2023-10-13,1,,,,,エイチビージー,0
2426,8700150115024,新規,0,2023-10-13,2023-10-13,広州億品汽車用品　有限公司,,外国会社等,,,,,,,,広東省広州市白云区大源南路４２号５０１房,,,,,,2023-10-13,1,,,,,コウシユウオクヒンキシヤヨウヒンユウゲンコウシ,0
2427,8700150115148,新規,0,2023-10-13,2023-10-13,広州起点互聯網科技　有限公司,,外国会社等,,,,,,,,広州市増城区寧西街香山大道５１号１号楼７層７２２,00132248,,,,,2023-10-13,1,,,,,コウシユウキテンゴレンモウカギユウゲンコウシ,0
2434,9010001239256,新規,0,2023-10-13,2023-10-13,グローバルエージェンシー株式会社,,株式会社,東京都,千代田区,神田佐久間町１丁目８番４号アルテール秋葉原７０８,,13,101,1010025,,,,,,,2023-10-13,1,,,,,グローバルエージェンシー,0
2435,9010003041916,新規,0,2023-10-13,2023-10-13,Ｉｎｄｕｓｔｒｉａｌ　Ｐｏｗｅｒ　ａｎｄ　Ｍａｒｉｎｅ合同会社,,合同会社,東京都,千代田区,内幸町２丁目２番２号富国生命ビルＡ＆Ｓフィナンシャルアドバイザリー株式会社内,,13,101,1000011,,,,,,,2023-10-13,1,,,,,インダストリアルパワーアンドマリン,0
2442,9010401177782,新規,0,2023-10-13,2023-10-13,株式会社シー・シー・エム・シー,,株式会社,東京都,港区,三田３丁目５番１９号住友不動産東京三田ガーデンタワー,,13,103,1080073,,,,,,,2023-10-13,1,,,,,シーシーエムシー,0
2443,9010401177790,新規,0,2023-10-13,2023-10-13,株式会社サクラ,,株式会社,東京都,港区,白金台２丁目２６番９号,,13,103,1080071,,,,,,,2023-10-13,1,,,,,サクラ,0
2449,9010501051185,新規,0,2023-10-13,2023-10-13,久大商事株式会社,,株式会社,東京都,台東区,千束２丁目３０番７号マンションＫ２,,13,106,1110031,,,,,,,2023-10-13,1,,,,,キュウダイショウジ,0
2450,9010505003463,新規,0,2023-10-13,2023-10-13,一般社団法人ふくろう会,,その他の設立登記法人,東京都,台東区,浅草橋１丁目３４番３号,,13,106,1110053,,,,,,,2023-10-13,1,,,,,フクロウカイ,0
2457,9010801034419,新規,0,2023-10-13,2023-10-13,株式会社ｇｉｖｉｎｇ,,株式会社,東京都,大田区,東蒲田１丁目８番１２号ＭＳハイツＩＩ１０２,00132251,13,111,1440031,,,,,,,2023-10-13,1,,,,,ギビング,0
2459,9010901053987,新規,0,2023-10-13,2023-10-13,吉祥株式会社,,株式会社,東京都,世田谷区,上北沢４丁目２１番１３号,,13,112,1560057,,,,,,,2023-10-13,1,,,,,キッショウ,0
2461,9011001157456,新規,0,2023-10-13,2023-10-13,ｘｘｘ株式会社,,株式会社,東京都,渋谷区,渋谷２丁目１９番１５号宮益坂ビルディング６０９,,13,113,1500002,,,,,,,2023-10-13,1,,,,,スリーエックス,0
2462,9011001157480,新規,0,2023-10-13,2023-10-13,株式会社Ｎｉｃａ　ｐｌｕｓ,,株式会社,東京都,渋谷区,代官山町８番７号Ｄａｉｗａ代官山ビル２０６号室,,13,113,1500034,,,,,,,2023-10-13,1,,,,,ニカプラス,0
2463,9011001157506,新規,0,2023-10-13,2023-10-13,株式会社ＰＡＲＫ,,株式会社,東京都,渋谷区,猿楽町９番８号,,13,113,1500033,,,,,,,2023-10-13,1,,,,,パーク,0
2464,9011001157547,新規,0,2023-10-13,2023-10-13,株式会社ＵｒｂａｎＮｅｓｔ,,株式会社,東京都,渋谷区,道玄坂１丁目１０番８号渋谷道玄坂東急ビル２Ｆ－Ｃ,,13,113,1500043,,,,,,,2023-10-13,1,,,,,アーバンネスト,0
2465,9011001157555,新規,0,2023-10-13,2023-10-13,株式会社徳汐,,株式会社,東京都,渋谷区,円山町２８番８号第１８宮廷マンション６０１室,,13,113,1500044,,,,,,,2023-10-13,1,,,,,デオト,0
2479,9011101104705,新規,0,2023-10-13,2023-10-13,株式会社イトヒメ,,株式会社,東京都,新宿区,新宿７丁目２６－２８ユーレジデンス東新宿１０６号,,13,104,1600022,,,,,,,2023-10-13,1,,,,,イトヒメ,0
2480,9011301029090,新規,0,2023-10-13,2023-10-13,株式会社あっというまりん,,株式会社,東京都,杉並区,下井草５丁目１１番２号Ｓｏｕｊｕ下井草１０３,,13,115,1670022,,,,,,,2023-10-13,1,,,,,アットイウマリン,0
2482,9011401025527,新規,0,2023-10-13,2023-10-13,株式会社ＬＩＸ,,株式会社,東京都,板橋区,赤塚６丁目３６番９号ファミリーＭ１Ｆ,00132231,13,119,1750092,,,,,,,2023-10-13,1,,,,,リックス,0
2484,9011501029857,新規,0,2023-10-13,2023-10-13,ＡＳＫ株式会社,,株式会社,東京都,北区,王子２丁目２１番７号,,13,117,1140002,,,,,,,2023-10-13,1,,,,,エーエスケー,0
2488,9011603004089,新規,0,2023-10-13,2023-10-13,合同会社サトー,,合同会社,東京都,練馬区,高松５丁目２０番１号プラウド光が丘２０５,,13,120,1790075,,,,,,,2023-10-13,1,,,,,サトー,0
2496,9012303001888,新規,0,2023-10-13,2023-10-13,合同会社アミカル,,合同会社,東京都,町田市,原町田６丁目９－８ＡＥＴＡ町田４Ｆ,,13,209,1940013,,,,,,,2023-10-13,1,,,,,アミカル,0
2497,9012703002825,新規,0,2023-10-13,2023-10-13,合同会社Ｐｅｅｒ　Ｍｅｓｓｉａｈ,,合同会社,東京都,西東京市,南町４丁目１１番９号アドバンス田無１０３号,,13,229,1880012,,,,,,,2023-10-13,1,,,,,ピアメシア,0
2498,9012705002369,新規,0,2023-10-13,2023-10-13,一般社団法人ＫＩＺＵＮＡ　ＴＯＫＹＯ,,その他の設立登記法人,東京都,東久留米市,本町３丁目６番１０号,,13,222,2030053,,,,,,,2023-10-13,1,,,,,キズナトウキョウ,0
2499,9012801022683,新規,0,2023-10-13,2023-10-13,株式会社丸章工業,,株式会社,東京都,日野市,大字日野１２３４番地の３シャンボール１０５,,13,212,1910012,,,,,,,2023-10-13,1,,,,,マルショウコウギョウ,0
2514,9020001153860,新規,0,2023-10-13,2023-10-13,彩雲商事株式会社,,株式会社,神奈川県,横浜市中区,野毛町３丁目１３３番地６高文堂ビル４０３号,,14,104,2310064,,,,,,,2023-10-13,1,,,,,サイウンショウジ,0
2515,9020001153910,新規,0,2023-10-13,2023-10-13,株式会社魁道組,,株式会社,神奈川県,横浜市磯子区,洋光台４丁目３６番１３号コート・ドゥ・ベール１０２号,,14,107,2350045,,,,,,,2023-10-13,1,,,,,カイドウグミ,0
2516,9020001153919,新規,0,2023-10-13,2023-10-13,株式会社住みらい,,株式会社,神奈川県,横浜市神奈川区,星野町８－３－８０２,,14,102,2210035,,,,,,,2023-10-13,1,,,,,,0
2517,9020001153943,新規,0,2023-10-13,2023-10-13,Ｓｔ．Ｂｌｕｅｂｏｔｔｌｅ株式会社,,株式会社,神奈川県,横浜市緑区,寺山町７１３番地５,,14,113,2260013,,,,,,,2023-10-13,1,,,,,サンタブルーボトル,0
2522,9020003024721,新規,0,2023-10-13,2023-10-13,合同会社辰晟工業,,合同会社,神奈川県,横浜市磯子区,磯子２丁目５番２－４号,,14,107,2350016,,,,,,,2023-10-13,1,,,,,タツセイコウギョウ,0
2523,9020003024738,新規,0,2023-10-13,2023-10-13,合同会社Ｋ＆Ｙ,,合同会社,神奈川県,横浜市戸塚区,川上町４１５－２－５３８,,14,110,2440805,,,,,,,2023-10-13,1,,,,,ケーアンドワイ,0
2524,9020005016147,新規,0,2023-10-13,2023-10-13,社会保険労務士法人みなと横浜社会保険労務士事務所,,その他の設立登記法人,神奈川県,横浜市中区,尾上町４丁目５７番地横浜尾上町ビルディング８Ｆ,,14,104,2310015,,,,,,,2023-10-13,1,,,,,ミナトヨコハマシャカイホケンロウムシジムショ,0
2526,9021001080459,新規,0,2023-10-13,2023-10-13,吉田造園株式会社,,株式会社,神奈川県,逗子市,桜山８丁目１番７号,,14,208,2490005,,,,,,,2023-10-13,1,,,,,ヨシダゾウエン,0
2531,9030001156532,新規,0,2023-10-13,2023-10-13,システムサービス株式会社,,株式会社,埼玉県,児玉郡美里町,大字関８２番地１４,,11,381,3670102,,,,,,,2023-10-13,1,,,,,システムサービス,0
2532,9030001156540,新規,0,2023-10-13,2023-10-13,株式会社リサイクルプロ,,株式会社,埼玉県,鴻巣市,荊原３番地,,11,217,3690124,,,,,,,2023-10-13,1,,,,,リサイクルプロ,0
2533,9030001156573,新規,0,2023-10-13,2023-10-13,株式会社ＣｏＣｏハウス,,株式会社,埼玉県,さいたま市浦和区,高砂２丁目１３番２１号,,11,107,3300063,,,,,,,2023-10-13,1,,,,,ココハウス,0
2534,9030001156581,新規,0,2023-10-13,2023-10-13,株式会社Ｙｏｕｒ　ＬＩＦＥ,,株式会社,埼玉県,草加市,北谷３丁目１２番２８号,,11,221,3400046,,,,,,,2023-10-13,1,,,,,ユアライフ,0
2549,9040001130453,新規,0,2023-10-13,2023-10-13,株式会社グリーンスペース,,株式会社,千葉県,柏市,南増尾７丁目９番２１号,,12,217,2770054,,,,,,,2023-10-13,1,,,,,グリーンスペース,0
2550,9040001130494,新規,0,2023-10-13,2023-10-13,株式会社アドミ,,株式会社,千葉県,流山市,おおたかの森北１丁目８番地の３Ｌａｕ１１０３,,12,220,2700119,,,,,,,2023-10-13,1,,,,,アドミ,0
2554,9040003023515,新規,0,2023-10-13,2023-10-13,合同会社はたらくしあわせ,,合同会社,千葉県,木更津市,潮浜２丁目１番４１号,,12,206,2920838,,,,,,,2023-10-13,1,,,,,ハタラクシアワセ,0
2555,9040003023531,新規,0,2023-10-13,2023-10-13,合同会社ｌｉｖｅ,,合同会社,千葉県,柏市,弥生町８－６７,,12,217,2770015,,,,,,,2023-10-13,1,,,,,ライブ,0
2561,9050001053645,新規,0,2023-10-13,2023-10-13,株式会社チックストン,,株式会社,茨城県,古河市,上大野８５０番地,,08,204,3060201,,,,,,,2023-10-13,1,,,,,チックストン,0
2563,9050003007847,新規,0,2023-10-13,2023-10-13,ＹＡＺＤＡＮ　ＥＸＰＯＲＴＳ合同会社,,合同会社,茨城県,坂東市,寺久１２５３－９,,08,228,3060656,,,,,,,2023-10-13,1,,,,,ヤズダンエクスポーツ,0
2567,9060003004760,新規,0,2023-10-13,2023-10-13,合同会社ＴＡＳＫＡ,,合同会社,栃木県,宇都宮市,幕田町３８３番地１,,09,201,3210157,,,,,,,2023-10-13,1,,,,,タスカ,0
2574,9080001025914,新規,0,2023-10-13,2023-10-13,株式会社サポートすず,,株式会社,静岡県,静岡市葵区,瀬名川１丁目１０番２０号,,22,101,4200913,,,,,,,2023-10-13,1,,,,,サポートスズ,0
2580,9080101024270,新規,0,2023-10-13,2023-10-13,株式会社ＦＷＪ,,株式会社,静岡県,下田市,柿崎１０８７番地の５,,22,219,4150013,,,,,,,2023-10-13,1,,,,,エフダブリュージェー,0
2584,9090001018371,新規,0,2023-10-13,2023-10-13,株式会社トレジャーツーリズム,,株式会社,山梨県,甲府市,丸の内２丁目１番１号,,19,201,4000031,,,,,,,2023-10-13,1,,,,,トレジャーツーリズム,0
2589,9100001036867,新規,0,2023-10-13,2023-10-13,株式会社ＳＡＫＵ　ＲＥＳＯＲＴ,,株式会社,長野県,佐久市,中込２８２６番地３,,20,217,3850051,,,,,,,2023-10-13,1,,,,,サクリゾート,0
2604,9120001258682,新規,0,2023-10-13,2023-10-13,株式会社Ｆｏｒｔｕｎｅ．,,株式会社,大阪府,大阪市北区,西天満５丁目９番３号アールビル本館,,27,127,5300047,,,,,,,2023-10-13,1,,,,,フォーチュンドット,0
2606,9120003025098,新規,0,2023-10-13,2023-10-13,合同会社Ａｐｅｉｒｏｓ　Ａｓｓｅｔ　Ｊａｐａｎ,,合同会社,大阪府,大阪市西淀川区,野里１丁目６番９号,,27,113,5550024,,,,,,,2023-10-13,1,,,,,アプロスアセットジャパン,0
2609,9120101068379,新規,0,2023-10-13,2023-10-13,株式会社ＴＡＫＥＤＡ,,株式会社,大阪府,岸和田市,沼町２７番３４号,,27,202,5960053,,,,,,,2023-10-13,1,,,,,タケダ,0
2615,9120901048183,新規,0,2023-10-13,2023-10-13,株式会社正匠,,株式会社,大阪府,高槻市,松が丘１丁目６番１号,,27,207,5691031,,,,,,,2023-10-13,1,,,,,セイショウ,0
2620,9130001075409,新規,0,2023-10-13,2023-10-13,株式会社ＡＤＣＮ,,株式会社,京都府,福知山市,夜久野町千原５８７番地,,26,201,6291305,,,,,,,2023-10-13,1,,,,,エーディーシーエヌ,0
2623,9130003009067,新規,0,2023-10-13,2023-10-13,ＳＴＡＹ合同会社,,合同会社,京都府,京都市右京区,西院西田町４８番地アクシス葛野２０１,,26,108,6150055,,,,,,,2023-10-13,1,,,,,ステイ,0
2626,9130005016904,新規,0,2023-10-13,2023-10-13,一般社団法人京和技術センター,,その他の設立登記法人,京都府,京都市下京区,朱雀宝蔵町４４番地協栄ビル２階京都朱雀スタジオＫ－３０２,,26,106,6008846,,,,,,,2023-10-13,1,,,,,キョウワギジュツセンター,0
2629,9140001131929,新規,0,2023-10-13,2023-10-13,株式会社防災クルー,,株式会社,兵庫県,伊丹市,中野西２丁目１５５,,28,207,6640023,,,,,,,2023-10-13,1,,,,,ボウサイクルー,0
2630,9140001131937,新規,0,2023-10-13,2023-10-13,株式会社ｎｉｃａ,,株式会社,兵庫県,豊岡市,泉町６番３１号,,28,209,6680021,,,,,,,2023-10-13,1,,,,,ニカ,0
2631,9140001131945,新規,0,2023-10-13,2023-10-13,株式会社ＨＧＫ,,株式会社,兵庫県,芦屋市,涼風町１２番１１号,,28,206,6590036,,,,,,,2023-10-13,1,,,,,エイチジーケー,0
2632,9140001131953,新規,0,2023-10-13,2023-10-13,株式会社ａｆｆｅｃｔｉｏｎ,,株式会社,兵庫県,姫路市,南新在家２０番１号,,28,201,6700093,,,,,,,2023-10-13,1,,,,,アフェクション,0
2634,9140003019668,新規,0,2023-10-13,2023-10-13,合同会社チャック,,合同会社,兵庫県,姫路市,保城５７９番地５,,28,201,6700804,,,,,,,2023-10-13,1,,,,,チャック,0
2641,9180001158407,新規,0,2023-10-13,2023-10-13,漢成株式会社,,株式会社,愛知県,名古屋市中区,錦２丁目１６－４,,23,106,4600003,,,,,,,2023-10-13,1,,,,,カンセイ,0
2642,9180001158431,新規,0,2023-10-13,2023-10-13,Ｉ．Ｗ．Ｅ株式会社,,株式会社,愛知県,名古屋市中区,正木１丁目１１番１２号,,23,106,4600024,,,,,,,2023-10-13,1,,,,,アイダブリューイー,0
2643,9180001158448,新規,0,2023-10-13,2023-10-13,株式会社鼎,,株式会社,愛知県,名古屋市千種区,法王町２丁目五番地グランドヒルズ覚王山法王町６１０号,,23,101,4640057,,,,,,,2023-10-13,1,,,,,カナエ,0
2651,9190001030804,新規,0,2023-10-13,2023-10-13,八禄商会株式会社,,株式会社,三重県,三重郡菰野町,大字田口８１４番地２９,,24,341,5101321,,,,,,,2023-10-13,1,,,,,ハチロクショウカイ,0
2652,9190003004475,新規,0,2023-10-13,2023-10-13,ゼロワンファイブスメイカーズ合同会社,,合同会社,三重県,名張市,桔梗が丘西３番町一街区６２番地,,24,208,5180643,,,,,,,2023-10-13,1,,,,,ゼロワンファイブスメイカーズ,0
2654,9200001041808,新規,0,2023-10-13,2023-10-13,株式会社ミドルオブノーウェア,,株式会社,岐阜県,加茂郡八百津町,潮見４１１番地,,21,505,5050531,,,,,,,2023-10-13,1,,,,,ミドルオブノーウェア,0
2655,9200001041816,新規,0,2023-10-13,2023-10-13,株式会社ＭＩＤＬＥＤ,,株式会社,岐阜県,関市,津保川台２丁目８番９号,,21,205,5013946,,,,,,,2023-10-13,1,,,,,ミドルド,0
2657,9200003006107,新規,0,2023-10-13,2023-10-13,合同会社フレアカスタムサポート,,合同会社,岐阜県,関市,下有知６７４４番地２,,21,205,5013217,,,,,,,2023-10-13,1,,,,,フレアカスタムサポート,0
2660,9210001019506,新規,0,2023-10-13,2023-10-13,株式会社ＴＡＫＥＮＯＫＯ,,株式会社,福井県,三方上中郡若狭町,三方第３１号２７番地,,18,501,9191303,,,,,,,2023-10-13,1,,,,,タケノコ,0
2662,9220001025635,新規,0,2023-10-13,2023-10-13,株式会社ワークマスター,,株式会社,石川県,加賀市,山代温泉北部２丁目７０番地,,17,206,9220243,,,,,,,2023-10-13,1,,,,,ワークマスター,0
2673,9240001062247,新規,0,2023-10-13,2023-10-13,ＳＴマネジメント株式会社,,株式会社,広島県,福山市,本町１番１５号,,34,207,7200056,,,,,,,2023-10-13,1,,,,,エスティーマネジメント,0
2676,9240003006367,新規,0,2023-10-13,2023-10-13,千代田商店合同会社,,合同会社,広島県,山県郡北広島町,古保利３１３番地５,,34,369,7311532,,,,,,,2023-10-13,1,,,,,チヨダショウテン,0
2677,9250001020352,新規,0,2023-10-13,2023-10-13,株式会社たけふぁむ,,株式会社,山口県,岩国市,川西１丁目２１－１９,,35,208,7410082,,,,,,,2023-10-13,1,,,,,タケファム,0
2680,9260003004468,新規,0,2023-10-13,2023-10-13,合同会社ｐｏｎｙ’ｓ,,合同会社,岡山県,津山市,野村５５０番地１,,33,203,7081116,,,,,,,2023-10-13,1,,,,,ポニーズ,0
2682,9270001008858,新規,0,2023-10-13,2023-10-13,株式会社エミリンクジャパン,,株式会社,鳥取県,米子市,米原７丁目１１番３号,,31,202,6830804,,,,,,,2023-10-13,1,,,,,エミリンクジャパン,0
2685,9290001103368,新規,0,2023-10-13,2023-10-13,株式会社紫雲堂,,株式会社,福岡県,久留米市,城島町芦塚９２番地,00132233,40,203,8300201,,,,,,,2023-10-13,1,,,,,シウンドウ,0
2694,9290801029952,新規,0,2023-10-13,2023-10-13,株式会社ＤＬＰ１４,,株式会社,福岡県,北九州市小倉北区,井堀３丁目１６番３号,,40,106,8030835,,,,,,,2023-10-13,1,,,,,ディーエルピーフォーティーン,0
2702,9330005010705,新規,0,2023-10-13,2023-10-13,ＮＰＯ法人守ろう・巨石文化と森と水,,その他の設立登記法人,熊本県,熊本市東区,花立５丁目７番２６号,,43,102,8620918,,,,,,,2023-10-13,1,,,,,マモロウキョセキブンカトモリトミズ,0
2709,9350005006180,新規,0,2023-10-13,2023-10-13,特定非営利活動法人全国興行事業振興協会,,その他の設立登記法人,宮崎県,宮崎市,中村東３丁目３－２,,45,201,8800904,,,,,,,2023-10-13,1,,,,,ゼンコクコウギョウジギョウシンコウキョウカイ,0
2714,9360003013368,新規,0,2023-10-13,2023-10-13,合同会社蒼建,,合同会社,沖縄県,那覇市,赤嶺２丁目３番地１－９１１,,47,201,9010154,,,,,,,2023-10-13,1,,,,,ソウケン,0
2716,9370001050511,新規,0,2023-10-13,2023-10-13,株式会社ディッタシーズ,,株式会社,宮城県,仙台市青葉区,国分町１丁目４番９号ｅｎｓｐａｃｅ,,04,101,9800803,,,,,,,2023-10-13,1,,,,,ディッタシーズ,0
2723,9380005012762,新規,0,2023-10-13,2023-10-13,医療法人翠蔭会,,その他の設立登記法人,福島県,須賀川市,前川５２番１,,07,207,9620853,,,,,,,2023-10-13,1,,,,,スイインカイ,0
2728,9400003003158,新規,0,2023-10-13,2023-10-13,合同会社Ｍ．Ｓ．Ｐ,,合同会社,岩手県,盛岡市,門２丁目１９番５号リバーサイド門Ａ１０２号,,03,201,0200823,,,,,,,2023-10-13,1,,,,,エムエスピー,0
2729,9400005008361,新規,0,2023-10-13,2023-10-13,協同組合マルチワークいわいずみ,,その他の設立登記法人,岩手県,下閉伊郡岩泉町,二升石字大根１３番地,,03,483,0270507,,,,,,,2023-10-13,1,,,,,マルチワークイワイズミ,0
2732,9410001013620,新規,0,2023-10-13,2023-10-13,高橋工業株式会社,,株式会社,秋田県,大館市,比内町片貝字伊勢堂東１７番地１,,05,204,0185745,,,,,,,2023-10-13,1,,,,,タカハシコウギョウ,0
2735,9430001090154,新規,0,2023-10-13,2023-10-13,長谷川建設株式会社,,株式会社,北海道,札幌市中央区,伏見３丁目１８番１号,,01,101,0640942,,,,,,,2023-10-13,1,,,,,ハセガワケンセツ,0
2736,9430001090179,新規,0,2023-10-13,2023-10-13,株式会社クレバー,,株式会社,北海道,札幌市東区,北十二条東１丁目４番３－６０２号,,01,103,0650012,,,,,,,2023-10-13,1,,,,,クレバー,0
2740,9490001010610,新規,0,2023-10-13,2023-10-13,株式会社オートサービス市川,,株式会社,高知県,高知市,萩町１丁目２番３７号,,39,201,7818006,,,,,,,2023-10-13,1,,,,,オートサービスイチカワ,0
2742,9500001025243,新規,0,2023-10-13,2023-10-13,株式会社ＡＭＩ,,株式会社,愛媛県,松山市,紅葉町８番２９号,,38,201,7900861,,,,,,,2023-10-13,1,,,,,アミ,0
2745,9700150114933,新規,0,2023-10-13,2023-10-13,深セン市逸禾佳實業　有限公司,,外国会社等,,,,,,,,深セン市龍崗区南湾街道丹竹頭社区龍崗大道布吉段３０２６号８Ｆ１,,,,,,2023-10-13,1,,,,,シンセンシイーカカジツギヨウユウゲンコウシ,0
2746,9700150115147,新規,0,2023-10-13,2023-10-13,深セン市愛光纖科技　有限公司,,外国会社等,,,,,,,,深セン市宝安区新安街道興東社区６７区中粮創智宿舎（４）１１０２,,,,,,2023-10-13,1,,,,,シンセンシアイコウセンカギユウゲンコウシ,0
