sequenceNumber,corporateNumber,process,correct,updateDate,changeDate,name,nameImageId,kind,prefectureName,cityName,streetNumber,addressImageId,prefectureCode,cityCode,postCode,addressOutside,addressOutsideImageId,closeDate,closeCause,successorCorporateNumber,changeCause,assignmentDate,latest,enName,enPrefectureName,enCityName,enAddressOutside,furigana,hihyoji
6,1010001221254,新規,0,2021-09-24,2021-09-24,株式会社Ｒｅｌａｃｅ,,株式会社,東京都,千代田区,東神田３丁目４－１２,,13,101,1010031,,,,,,,2021-09-24,1,,,,,リレイス,0
7,1010001221304,新規,0,2021-09-24,2021-09-24,株式会社ＲａｙｏｆＥｎｐｌｏｙ,,株式会社,東京都,中央区,晴海５丁目１－１７－６０７,,13,102,1040053,,,,,,,2021-09-24,1,,,,,レイオブエンプロイ,0
8,1010001221312,新規,0,2021-09-24,2021-09-24,株式会社ＳＥＬＦＴＥＣＨ,,株式会社,東京都,中央区,日本橋３丁目２－１４新槇町ビル別館第一１Ｆ,,13,102,1030027,,,,,,,2021-09-24,1,,,,,セルフテック,0
14,1010005034000,新規,0,2021-09-24,2021-09-24,税理士法人ＦＯＡＣ,,その他の設立登記法人,東京都,中央区,新川２丁目８番８号,,13,102,1040033,,,,,,,2021-09-24,1,,,,,エフオーエーシー,0
23,1010403026169,新規,0,2021-09-24,2021-09-24,ＳｉｍｐｌｅＳｈｉｆｔ合同会社,,合同会社,東京都,港区,南青山２丁目２－１５ＷＩＮ青山５３１,,13,103,1070062,,,,,,,2021-09-24,1,,,,,シンプルシフト,0
29,1010701041547,新規,0,2021-09-24,2021-09-24,株式会社フィリアクリエイト,,株式会社,東京都,品川区,東五反田１丁目６番３号いちご東五反田ビル３Ｆプレミアムオフィス五反田３１７,,13,109,1410022,,,,,,,2021-09-24,1,,,,,フィリアクリエイト,0
37,1010903006819,新規,0,2021-09-24,2021-09-24,Ｍ＆Ｍ合同会社,,合同会社,東京都,世田谷区,上馬１丁目３２番地５９０１,,13,112,1540011,,,,,,,2021-09-24,1,,,,,エムアンドエム,0
48,1011005009223,新規,0,2021-09-24,2021-09-24,医療法人社団中崇会,,その他の設立登記法人,東京都,目黒区,東山１丁目６番５号シティハウス中目黒ステーションコート店舗２号室,,13,110,1530043,,,,,,,2021-09-24,1,,,,,チュウスウカイ,0
73,1012803002600,新規,0,2021-09-24,2021-09-24,合同会社ＴＫメディカルサービス,,合同会社,東京都,国立市,中１丁目２０番地２６号,,13,215,1860004,,,,,,,2021-09-24,1,,,,,ティーケイメディカルサービス,0
78,1020001143118,新規,0,2021-09-24,2021-09-24,株式会社ＰａＰａＰａ,,株式会社,神奈川県,横浜市青葉区,美しが丘５丁目２番地５２ドレッセ美しが丘ヒルズ２１０,,14,117,2250002,,,,,,,2021-09-24,1,,,,,パパパ,0
79,1020001143126,新規,0,2021-09-24,2021-09-24,株式会社スマイル,,株式会社,神奈川県,川崎市高津区,諏訪１丁目２４番１６号,,14,134,2130004,,,,,,,2021-09-24,1,,,,,スマイル,0
80,1020001143150,新規,0,2021-09-24,2021-09-24,株式会社ルメス,,株式会社,神奈川県,川崎市中原区,小杉町２丁目２７６番地１Ｅ４５１２,,14,133,2110063,,,,,,,2021-09-24,1,,,,,ルメス,0
83,1020003020521,新規,0,2021-09-24,2021-09-24,合同会社せいじんトコ,,合同会社,神奈川県,川崎市幸区,古川町１２２番地１８,,14,132,2120025,,,,,,,2021-09-24,1,,,,,セイジントコ,0
86,1021001074014,新規,0,2021-09-24,2021-09-24,株式会社ＰＣＲ検査センター,,株式会社,神奈川県,平塚市,宝町２－２Ｔ＆Ｔ・ＮＡＫＡＮＯビルＢ１Ｆ,,14,203,2540034,,,,,,,2021-09-24,1,,,,,ピーシーアールケンサセンター,0
89,1021003010925,新規,0,2021-09-24,2021-09-24,あいだの合同会社,,合同会社,神奈川県,小田原市,鴨宮４２２番地の２,,14,206,2500874,,,,,,,2021-09-24,1,,,,,アイダノ,0
96,1030001144437,新規,0,2021-09-24,2021-09-24,株式会社ゴエスヤ,,株式会社,埼玉県,志木市,下宗岡４丁目１５番２０号,,11,228,3530003,,,,,,,2021-09-24,1,,,,,ゴエスヤ,0
108,1040001120239,新規,0,2021-09-24,2021-09-24,Ｎｅｘｔリフォーム株式会社,,株式会社,千葉県,船橋市,宮本２丁目１番４号,,12,204,2730003,,,,,,,2021-09-24,1,,,,,ネクストリフォーム,0
109,1040001120255,新規,0,2021-09-24,2021-09-24,株式会社Ｐｈａｒｍａｐ,,株式会社,千葉県,松戸市,東松戸１丁目８番地の７レジーナレジデンス１００３号,,12,207,2702225,,,,,,,2021-09-24,1,,,,,ファーマップ,0
110,1040003018571,新規,0,2021-09-24,2021-09-24,合同会社昇栄運輸,,合同会社,千葉県,船橋市,本中山７丁目１１番１６号Ⅰ－２０１号,00124310,12,204,2730035,,,,,,,2021-09-24,1,,,,,ショウエイウンユ,0
124,1070001038461,新規,0,2021-09-24,2021-09-24,株式会社チェリーテラス,,株式会社,群馬県,太田市,尾島町５０４番地１,,10,205,3700401,,,,,,,2021-09-24,1,,,,,チェリーテラス,0
125,1070003004239,新規,0,2021-09-24,2021-09-24,合同会社ＩＰ創権,,合同会社,群馬県,太田市,飯塚町１０５０－１パティオＣ２０１号室,,10,205,3730817,,,,,,,2021-09-24,1,,,,,アイピーソウケン,0
126,1080101022785,新規,0,2021-09-24,2021-09-24,株式会社フジミ,,株式会社,静岡県,富士市,厚原４３番地の１,,22,210,4190201,,,,,,,2021-09-24,1,,,,,フジミ,0
131,1100001034630,新規,0,2021-09-24,2021-09-24,ソーシャルＣＩＣ株式会社,,株式会社,長野県,松本市,大字里山辺１１８０番地１１,,20,202,3900221,,,,,,,2021-09-24,1,,,,,ソーシャルシーアイシー,0
136,1110001036056,新規,0,2021-09-24,2021-09-24,株式会社阿部ブラスト,,株式会社,新潟県,西蒲原郡弥彦村,大字弥彦３４８０番地１,,15,342,9590323,,,,,,,2021-09-24,1,,,,,アベブラスト,0
138,1110003004580,新規,0,2021-09-24,2021-09-24,合同会社クロウェル,,合同会社,新潟県,新発田市,豊町４丁目１番２８号フラッツ本田２－１,,15,206,9570016,,,,,,,2021-09-24,1,,,,,クロウェル,0
150,1120001240532,新規,0,2021-09-24,2021-09-24,株式会社ライト,,株式会社,大阪府,大阪市住之江区,新北島５丁目３番２９号,,27,125,5590024,,,,,,,2021-09-24,1,,,,,ライト,0
151,1120001240623,新規,0,2021-09-24,2021-09-24,幸田アセットマネジメント株式会社,,株式会社,大阪府,大阪市東成区,深江南３丁目１０番１１号,,27,115,5370002,,,,,,,2021-09-24,1,,,,,コウダアセットマネジメント,0
154,1120003020239,新規,0,2021-09-24,2021-09-24,合同会社Ｄｉｇｎｉｆｉｅｄ,,合同会社,大阪府,大阪市中央区,南船場２丁目６－２１－７０３,,27,128,5420081,,,,,,,2021-09-24,1,,,,,ディグニファイド,0
159,1120101064311,新規,0,2021-09-24,2021-09-24,株式会社ｃｏｓａＬ,,株式会社,大阪府,岸和田市,沼町３０番８号,,27,202,5960053,,,,,,,2021-09-24,1,,,,,コサエル,0
176,1140001057504,新規,0,2021-09-24,2021-09-24,株式会社アイワ工業,,株式会社,兵庫県,姫路市,広畑区長町２丁目１１４番地の１,,28,201,6711125,,,,,,,2021-09-24,1,,,,,アイワコウギョウ,0
179,1140001123099,新規,0,2021-09-24,2021-09-24,Ｋ・Ｙ警備株式会社,,株式会社,兵庫県,明石市,硯町３丁目３番１４－４０４号,,28,203,6730028,,,,,,,2021-09-24,1,,,,,ケーワイケイビケイビ,0
180,1140001123108,新規,0,2021-09-24,2021-09-24,株式会社乾坤一擲,,株式会社,兵庫県,揖保郡太子町,黒岡１０番地４,,28,464,6711504,,,,,,,2021-09-24,1,,,,,ケンコンイッテキ,0
181,1140001123116,新規,0,2021-09-24,2021-09-24,岡本電気株式会社,,株式会社,兵庫県,洲本市,上物部２丁目５番１１号,,28,205,6560053,,,,,,,2021-09-24,1,,,,,オカモトデンキ,0
182,1140003016763,新規,0,2021-09-24,2021-09-24,合同会社ブライトアップ,,合同会社,兵庫県,西宮市,甲子園口北町１番１号,,28,204,6638112,,,,,,,2021-09-24,1,,,,,ブライトアップ,0
184,1150001024940,新規,0,2021-09-24,2021-09-24,株式会社オリオン,,株式会社,奈良県,天理市,田井庄町７０９番地１ロイヤルアーク天理８０５,,29,204,6320071,,,,,,,2021-09-24,1,,,,,オリオン,0
192,1180001147895,新規,0,2021-09-24,2021-09-24,株式会社むすび,,株式会社,愛知県,名古屋市天白区,植田１丁目１３０６番地,,23,116,4680051,,,,,,,2021-09-24,1,,,,,ムスビ,0
193,1180001147929,新規,0,2021-09-24,2021-09-24,株式会社Ｌｕｘｅ　ＳｗＳ,,株式会社,愛知県,名古屋市熱田区,花町４番１４号－１金山レントハウスⅡ,00124307,23,109,4560011,,,,,,,2021-09-24,1,,,,,リュクスエスダブルエス,0
198,1180003022980,新規,0,2021-09-24,2021-09-24,合同会社アクアマリン,,合同会社,愛知県,稲沢市,稲沢町北山２丁目７４,,23,220,4928211,,,,,,,2021-09-24,1,,,,,アクアマリン,0
200,1180301035395,新規,0,2021-09-24,2021-09-24,株式会社ＴＲＵＥ,,株式会社,愛知県,岡崎市,柱町字東荒子２２２番地,,23,202,4440834,,,,,,,2021-09-24,1,,,,,トゥルー,0
216,1260001035984,新規,0,2021-09-24,2021-09-24,リノデザイン株式会社,,株式会社,岡山県,岡山市南区,若葉町８番２１号,,33,104,7028047,,,,,,,2021-09-24,1,,,,,リノデザイン,0
221,1270003001348,新規,0,2021-09-24,2021-09-24,合同会社ＳＰＥＡ,,合同会社,鳥取県,日野郡江府町,大字御机笠良原１１５４,,31,403,6894424,,,,,,,2021-09-24,1,,,,,エスピーイーエー,0
227,1290001094755,新規,0,2021-09-24,2021-09-24,株式会社ＡＪ,,株式会社,福岡県,福岡市中央区,赤坂１丁目７番２３号赤坂弁護士ビル３０６号,,40,133,8100042,,,,,,,2021-09-24,1,,,,,エイジェイ,0
233,1310001017481,新規,0,2021-09-24,2021-09-24,株式会社本村工務店,,株式会社,長崎県,長崎市,横尾５丁目４番２号,,42,201,8528065,,,,,,,2021-09-24,1,,,,,モトムラコウムテン,0
242,1360003011453,新規,0,2021-09-24,2021-09-24,合同会社オキナワクラフト,,合同会社,沖縄県,那覇市,三原１丁目１２番１０号内間住宅１階,,47,201,9020063,,,,,,,2021-09-24,1,,,,,オキナワクラフト,0
244,1370003005396,新規,0,2021-09-24,2021-09-24,合同会社Ｗｉｔｈ,,合同会社,宮城県,仙台市青葉区,小松島新堤５番２９号コーポ泉１０２,,04,101,9810906,,,,,,,2021-09-24,1,,,,,ウィズ,0
263,1450001013483,新規,0,2021-09-24,2021-09-24,りしり株式会社,,株式会社,北海道,上川郡東川町,東町１丁目６番１４号,,01,458,0711423,,,,,,,2021-09-24,1,,,,,リシリ,0
270,1700150104339,新規,0,2021-09-24,2021-08-13,乙丸温泉館,,その他,大分県,由布市,湯布院町川上３５７１,,44,213,8795102,,,,,,,2021-08-13,1,,,,,オトマルオンセンカン,0
274,2010001221253,新規,0,2021-09-24,2021-09-24,株式会社かたくら,,株式会社,東京都,中央区,明石町６番４号,,13,102,1040044,,,,,,,2021-09-24,1,,,,,カタクラ,0
275,2010001221294,新規,0,2021-09-24,2021-09-24,株式会社ＧＯ　ＱＵＥＳＴ,,株式会社,東京都,千代田区,丸の内１丁目１番３号,,13,101,1000005,,,,,,,2021-09-24,1,,,,,ゴークエスト,0
276,2010001221303,新規,0,2021-09-24,2021-09-24,Ｌｕｃｋｙ　Ｏｃｅａｎ株式会社,,株式会社,東京都,千代田区,霞が関３丁目２番５号,,13,101,1000013,,,,,,,2021-09-24,1,,,,,ラッキーオーシャン,0
279,2010003035858,新規,0,2021-09-24,2021-09-24,東京レジＥａｓｔ６合同会社,,合同会社,東京都,千代田区,丸の内３丁目１番１号東京共同会計事務所内,,13,101,1000005,,,,,,,2021-09-24,1,,,,,トウキョウレジイーストシックス,0
280,2010003035890,新規,0,2021-09-24,2021-09-24,合同会社Ａｃｃｏｍｐａｎｙ,,合同会社,東京都,文京区,小石川５丁目３５－１１、１０１,,13,105,1120002,,,,,,,2021-09-24,1,,,,,アカンパニー,0
285,2010403026143,新規,0,2021-09-24,2021-09-24,合同会社ＳＤＬ,,合同会社,東京都,港区,元赤坂１丁目１番７号,,13,103,1070051,,,,,,,2021-09-24,1,,,,,エスディーエル,0
286,2010403026151,新規,0,2021-09-24,2021-09-24,合同会社ＹＮ,,合同会社,東京都,港区,南青山２丁目２７番２８号グラン青山１１０１,,13,103,1070062,,,,,,,2021-09-24,1,,,,,ワイエヌ,0
288,2010501047859,新規,0,2021-09-24,2021-09-24,ＫｉｃｋＯｆｆ株式会社,,株式会社,東京都,台東区,台東２丁目２７番３号,,13,106,1100016,,,,,,,2021-09-24,1,,,,,キックオフ,0
289,2010503006391,新規,0,2021-09-24,2021-09-24,天佑商事合同会社,,合同会社,東京都,台東区,鳥越１丁目２５番６－４０５号ライオンズマンション御徒町,,13,106,1110054,,,,,,,2021-09-24,1,,,,,テンユウショウジ,0
290,2010603009170,新規,0,2021-09-24,2021-09-24,ＡＳＫ合同会社,,合同会社,東京都,墨田区,亀沢１丁目３番１８号レイビル１Ｆ,,13,107,1300014,,,,,,,2021-09-24,1,,,,,アスク,0
296,2010901049496,新規,0,2021-09-24,2021-09-24,株式会社ブルーゲリー,,株式会社,東京都,世田谷区,東玉川２丁目２４番１７号レジデンス玉川２０１,,13,112,1580084,,,,,,,2021-09-24,1,,,,,ブルーゲリー,0
303,2011001142885,新規,0,2021-09-24,2021-09-24,株式会社青の音々,,株式会社,東京都,渋谷区,鉢山町１１－１,,13,113,1500035,,,,,,,2021-09-24,1,,,,,アオノネネ,0
304,2011001142902,新規,0,2021-09-24,2021-09-24,カタチウム株式会社,,株式会社,東京都,渋谷区,恵比寿１丁目８番１８号Ｋ－１ビル３Ｆ,,13,113,1500013,,,,,,,2021-09-24,1,,,,,カタチウム,0
318,2011501027322,新規,0,2021-09-24,2021-09-24,株式会社トゥーアール,,株式会社,東京都,北区,堀船１丁目１番２－８０８号,,13,117,1140004,,,,,,,2021-09-24,1,,,,,トゥーアール,0
323,2011803004787,新規,0,2021-09-24,2021-09-24,合同会社ユーパス,,合同会社,東京都,葛飾区,東堀切３丁目９番２４号,,13,122,1240004,,,,,,,2021-09-24,1,,,,,ユーパス,0
324,2012803002599,新規,0,2021-09-24,2021-09-24,ＡＵＴＯＹ’Ｓ　ＥＮＴＥＲＰＲＩＳＥ合同会社,,合同会社,東京都,日野市,百草５３８番地の３３,,13,212,1910033,,,,,,,2021-09-24,1,,,,,アトイズエンタープライズ,0
334,2020001143109,新規,0,2021-09-24,2021-09-24,株式会社ファインテック,,株式会社,神奈川県,横浜市保土ケ谷区,岩井町２６８番地３,,14,106,2400023,,,,,,,2021-09-24,1,,,,,ファインテック,0
335,2020001143133,新規,0,2021-09-24,2021-09-24,株式会社篠田創建,,株式会社,神奈川県,横浜市戸塚区,深谷町１４１７番地レジエ戸塚深谷１－２０１号,,14,110,2450067,,,,,,,2021-09-24,1,,,,,シノダソウケン,0
340,2021001074005,新規,0,2021-09-24,2021-09-24,株式会社ＴＹＭ,,株式会社,神奈川県,横須賀市,粟田２丁目４９番１５号,,14,201,2390845,,,,,,,2021-09-24,1,,,,,ティーワイエム,0
341,2021001074046,新規,0,2021-09-24,2021-09-24,株式会社ソライロ,,株式会社,神奈川県,厚木市,中町２丁目８番６号中町ビル４０３号室,,14,212,2430018,,,,,,,2021-09-24,1,,,,,ソライロ,0
349,2030001144436,新規,0,2021-09-24,2021-09-24,株式会社千幸,,株式会社,埼玉県,越谷市,北越谷３丁目７番２９号,,11,222,3430026,,,,,,,2021-09-24,1,,,,,センコウ,0
350,2030001144460,新規,0,2021-09-24,2021-09-24,株式会社ｓｎａｐｃａｓｔ,,株式会社,埼玉県,川口市,上青木西５丁目２５番４号,,11,203,3330845,,,,,,,2021-09-24,1,,,,,スナップキャスト,0
351,2030001144469,新規,0,2021-09-24,2021-09-24,ｄｏｔ２株式会社,,株式会社,埼玉県,川口市,戸塚東３丁目２８番１３号,,11,203,3330802,,,,,,,2021-09-24,1,,,,,ドットツー,0
354,2030003017994,新規,0,2021-09-24,2021-09-24,合同会社ソトヅケ,,合同会社,埼玉県,さいたま市大宮区,桜木町２丁目３番地,,11,103,3300854,,,,,,,2021-09-24,1,,,,,ソトヅケ,0
357,2040001120254,新規,0,2021-09-24,2021-09-24,株式会社アンク,,株式会社,千葉県,いすみ市,小池９１７番地２,,12,238,2980013,,,,,,,2021-09-24,1,,,,,アンク,0
358,2040001120262,新規,0,2021-09-24,2021-09-24,平野設備工業株式会社,,株式会社,千葉県,旭市,イの２０１４番地,,12,215,2892511,,,,,,,2021-09-24,1,,,,,ヒラノセツビコウギョウ,0
365,2050001049872,新規,0,2021-09-24,2021-09-24,株式会社クレオ,,株式会社,茨城県,古河市,女沼３１８番地１,,08,204,3060226,,,,,,,2021-09-24,1,,,,,クレオ,0
367,2050005012942,新規,0,2021-09-24,2021-09-24,特定非営利活動法人セカンドスポーツクラブ,,その他の設立登記法人,茨城県,土浦市,藤沢１４６８番地１グリーンハイツ藤沢２０１,,08,203,3004115,,,,,,,2021-09-24,1,,,,,セカンドスポーツクラブ,0
370,2060001034114,新規,0,2021-09-24,2021-09-24,株式会社Ｌｅｍｍａ,,株式会社,栃木県,栃木市,平柳町２丁目１番５号,,09,203,3280012,,,,,,,2021-09-24,1,,,,,レンマ,0
372,2060003003810,新規,0,2021-09-24,2021-09-24,関電工合同会社,,合同会社,栃木県,真岡市,熊倉町３４４１番地１,,09,209,3214362,,,,,,,2021-09-24,1,,,,,セキデンコウ,0
376,2070001038460,新規,0,2021-09-24,2021-09-24,Ｍｐ３ｉｎｔｅｒｎａｔｉｏｎａｌ株式会社,,株式会社,群馬県,太田市,東長岡町５３１番地９,,10,205,3730812,,,,,,,2021-09-24,1,,,,,エムピースリーインターナショナル,0
382,2080401025355,新規,0,2021-09-24,2021-09-24,株式会社好し智,,株式会社,静岡県,浜松市中区,砂山町３４７番地の１３トキワビル１階,,22,131,4300926,,,,,,,2021-09-24,1,,,,,ヨシトモ,0
383,2090001017198,新規,0,2021-09-24,2021-09-24,Ｃ２Ｃ　Ｇｌｏｂａｌ　Ｌａｎｇｕａｇｅ　Ａｃａｄｅｍｙ株式会社,,株式会社,山梨県,甲府市,酒折２丁目４番５号,,19,201,4000805,,,,,,,2021-09-24,1,,,,,シートゥーシーグローバルランゲージアカデミー,0
384,2090002014780,新規,0,2021-09-24,2021-09-24,有限会社江本林業,,有限会社,山梨県,南巨摩郡早川町,雨畑２０１０番地,,19,364,4092734,,,,,,,2021-09-24,1,,,,,エモトリンギョウ,0
386,2100003006239,新規,0,2021-09-24,2021-09-24,Ｇｕｅｓｔｈｏｕｓｅ　Ｔｏｇａｒｉ合同会社,,合同会社,長野県,飯山市,大字豊田６７９０番地２,,20,213,3892411,,,,,,,2021-09-24,1,,,,,ゲストハウストガリ,0
405,2120001240408,新規,0,2021-09-24,2021-09-24,株式会社ＭｉＮ,,株式会社,大阪府,大阪市北区,堂山町１番５号三共梅田ビル７階,,27,127,5300027,,,,,,,2021-09-24,1,,,,,エムアイエヌ,0
406,2120001240531,新規,0,2021-09-24,2021-09-24,株式会社薫化舎ネットシステムズ,,株式会社,大阪府,大阪市北区,西天満５丁目９－３アールビル本館９階,,27,127,5300047,,,,,,,2021-09-24,1,,,,,クンカシャネットシステムズ,0
407,2120001240597,新規,0,2021-09-24,2021-09-24,株式会社協栄,,株式会社,大阪府,大阪市淀川区,塚本４丁目１１番６号,,27,123,5320026,,,,,,,2021-09-24,1,,,,,キョウエイ,0
413,2120101064335,新規,0,2021-09-24,2021-09-24,株式会社Ａｋｉ,,株式会社,大阪府,松原市,新堂２丁目９番３１号,,27,217,5800015,,,,,,,2021-09-24,1,,,,,アキ,0
419,2120103004355,新規,0,2021-09-24,2021-09-24,合同会社ＥＴＯＲＵＡ２７,,合同会社,大阪府,堺市北区,長曽根町６０９番地７,,27,146,5918025,,,,,,,2021-09-24,1,,,,,エトルアニジュウナナ,0
433,2140001123115,新規,0,2021-09-24,2021-09-24,シェアリングバンカー株式会社,,株式会社,兵庫県,姫路市,青山１丁目１－６,,28,201,6712222,,,,,,,2021-09-24,1,,,,,シェアリングバンカー,0
434,2140001123123,新規,0,2021-09-24,2021-09-24,株式会社アサヒガレージ,,株式会社,兵庫県,伊丹市,西野１丁目１０番地,,28,207,6640028,,,,,,,2021-09-24,1,,,,,アサヒガレージ,0
435,2140001123131,新規,0,2021-09-24,2021-09-24,アランアンドコー株式会社,,株式会社,兵庫県,神戸市東灘区,魚崎南町４丁目１２番６号,,28,101,6580025,,,,,,,2021-09-24,1,,,,,アランアンドコー,0
439,2150001024931,新規,0,2021-09-24,2021-09-24,株式会社エレクォフィール,,株式会社,奈良県,大和高田市,神楽３丁目９－３，２Ｆ,,29,202,6350025,,,,,,,2021-09-24,1,,,,,エレクォフィール,0
441,2160001023643,新規,0,2021-09-24,2021-09-24,株式会社ＭＫＳ,,株式会社,滋賀県,彦根市,原町６６０番地５４,,25,202,5220023,,,,,,,2021-09-24,1,,,,,エムケイエス,0
442,2170001016786,新規,0,2021-09-24,2021-09-24,株式会社ガイア・ヴァジュラ,,株式会社,和歌山県,和歌山市,狐島４１４番地２３,,30,201,6408412,,,,,,,2021-09-24,1,,,,,ガイアヴァジュラ,0
452,2180001147894,新規,0,2021-09-24,2021-09-24,株式会社ＭＥＨＬＵ　ＴＲＡＤＩＮＧ,,株式会社,愛知県,名古屋市港区,藤高２丁目２番地,,23,111,4550854,,,,,,,2021-09-24,1,,,,,メウルトレーディング,0
461,2180003022988,新規,0,2021-09-24,2021-09-24,ＭＩＥＲＵ合同会社,,合同会社,愛知県,名古屋市中区,松原１丁目３番５号ユーハウス松原１０１,,23,106,4600017,,,,,,,2021-09-24,1,,,,,ミエル,0
464,2180005019446,新規,0,2021-09-24,2021-09-24,行政書士法人寿限無,,その他の設立登記法人,愛知県,名古屋市千種区,大久手町６丁目１３番地の４,,23,101,4640854,,,,,,,2021-09-24,1,,,,,ジュゲム,0
469,2180303005115,新規,0,2021-09-24,2021-09-24,合同会社ＨＡＬＵ,,合同会社,愛知県,岡崎市,美合町字入込８８番地７,,23,202,4440803,,,,,,,2021-09-24,1,,,,,ハル,0
481,2200001039172,新規,0,2021-09-24,2021-09-24,株式会社ＵＭＥＤＡ,,株式会社,岐阜県,岐阜市,北鶉２丁目４８番地,,21,201,5008287,,,,,,,2021-09-24,1,,,,,ウメダ,0
496,2240003005284,新規,0,2021-09-24,2021-09-24,合同会社スタンダードコース,,合同会社,広島県,広島市中区,江波南２丁目１２番１０－１１１２号,,34,101,7300835,,,,,,,2021-09-24,1,,,,,スタンダードコース,0
497,2260001035983,新規,0,2021-09-24,2021-09-24,株式会社双建,,株式会社,岡山県,岡山市南区,築港緑町１丁目１３番２３号,,33,104,7028055,,,,,,,2021-09-24,1,,,,,ソウケン,0
507,2290001094754,新規,0,2021-09-24,2021-09-24,株式会社Ｆ．Ｗ．Ｊ,,株式会社,福岡県,福岡市中央区,赤坂１丁目７番２３号赤坂弁護士ビル３０６号,,40,133,8100042,,,,,,,2021-09-24,1,,,,,エフダブリュージェイ,0
518,2300003001723,新規,0,2021-09-24,2021-09-24,合同会社ハドソン＆ジョセフ,,合同会社,佐賀県,神埼市,神埼町城原１６１４番地１,,41,210,8420122,,,,,,,2021-09-24,1,,,,,ハドソンアンドジョセフ,0
520,2330001029004,新規,0,2021-09-24,2021-09-24,株式会社ｏｆｆｉｃｅ　ＢＩＳ,,株式会社,熊本県,菊池市,市野瀬２５番地,,43,210,8611686,,,,,,,2021-09-24,1,,,,,オフィスビス,0
523,2340001024103,新規,0,2021-09-24,2021-09-24,株式会社ティー・エム製作所,,株式会社,鹿児島県,薩摩川内市,水引町２０３４番地,,46,215,8991921,,,,,,,2021-09-24,1,,,,,ティーエムセイサクショ,0
524,2340001024111,新規,0,2021-09-24,2021-09-24,株式会社右田図工,,株式会社,鹿児島県,鹿児島市,鴨池２丁目１番１０号３Ｆ,,46,201,8900063,,,,,,,2021-09-24,1,,,,,ミギタズコウ,0
542,2400003002835,新規,0,2021-09-24,2021-09-24,合同会社ピーウェーブ,,合同会社,岩手県,紫波郡紫波町,上平沢字作岡４５番地１,,03,321,0283441,,,,,,,2021-09-24,1,,,,,ピーウェーブ,0
548,2410005006429,新規,0,2021-09-24,2021-09-24,農事組合法人アグリ山本,,その他の設立登記法人,秋田県,仙北郡美郷町,飯詰字南西法寺６０番地,,05,434,0191234,,,,,,,2021-09-24,1,,,,,アグリヤマモト,0
559,2430005014289,新規,0,2021-09-24,2021-09-24,一般社団法人壮楽推進協会,,その他の設立登記法人,北海道,札幌市中央区,南一条西５丁目１４番地１,,01,101,0600061,,,,,,,2021-09-24,1,,,,,ソウラクスイシンキョウカイ,0
562,2460101007061,新規,0,2021-09-24,2021-09-24,株式会社根本牧場,,株式会社,北海道,中川郡豊頃町,二宮２６０１番地１,,01,645,0895309,,,,,,,2021-09-24,1,,,,,ネモトボクジョウ,0
564,2500001023690,新規,0,2021-09-24,2021-09-24,株式会社ツヅミ,,株式会社,愛媛県,松山市,本町６丁目９番地１,,38,201,7900811,,,,,,,2021-09-24,1,,,,,ツヅミ,0
574,3010001221252,新規,0,2021-09-24,2021-09-24,株式会社オーク貿易商事,,株式会社,東京都,千代田区,神田駿河台２丁目１番地３４,,13,101,1010062,,,,,,,2021-09-24,1,,,,,オークボウエキショウジ,0
575,3010001221310,新規,0,2021-09-24,2021-09-24,株式会社キューズワン,,株式会社,東京都,千代田区,九段南１丁目５番６号りそな九段ビル５Ｆ・ＫＳフロア,,13,101,1020074,,,,,,,2021-09-24,1,,,,,キューズワン,0
576,3010003035881,新規,0,2021-09-24,2021-09-24,合同会社Ｋ・Ｔ,,合同会社,東京都,千代田区,神田神保町２丁目２１番地２パレステュディオ神田神保町１１０１号,,13,101,1010051,,,,,,,2021-09-24,1,,,,,ケイティー,0
578,3010005033999,新規,0,2021-09-24,2021-09-24,一般社団法人療術業認証機構,,その他の設立登記法人,東京都,中央区,銀座１丁目２２番１１号銀座大竹ビジデンス２階,,13,102,1040061,,,,,,,2021-09-24,1,,,,,リョウジュツギョウニンショウキコウ,0
592,3010601059976,新規,0,2021-09-24,2021-09-24,株式会社Ｄ－Ｗｏｒｌｄ,,株式会社,東京都,江東区,有明３丁目７番２６号有明フロンティアビルＢ棟９階,,13,108,1350063,,,,,,,2021-09-24,1,,,,,ディーワールド,0
599,3010901049495,新規,0,2021-09-24,2021-09-24,株式会社ノーリミット,,株式会社,東京都,世田谷区,池尻４丁目１０番１－Ｗ６０５号,,13,112,1540001,,,,,,,2021-09-24,1,,,,,ノーリミット,0
603,3011001142868,新規,0,2021-09-24,2021-09-24,株式会社ＷＥＬＬ　ＢＥ　ＩＮＤＵＳＴＲＹ,,株式会社,東京都,渋谷区,渋谷３丁目６番２号エクラート渋谷５Ｆ,,13,113,1500002,,,,,,,2021-09-24,1,,,,,ウェルビーインダストリー,0
608,3011101096320,新規,0,2021-09-24,2021-09-24,イリス株式会社,,株式会社,東京都,新宿区,西新宿２丁目４番１号新宿ＮＳビル１４Ｆ東京ＭＥＧＡオフィス,,13,104,1600023,,,,,,,2021-09-24,1,,,,,イリス,0
613,3011301027190,新規,0,2021-09-24,2021-09-24,株式会社ｋｅｎｎｙ’ｓＢｅｎｃｈ,,株式会社,東京都,杉並区,宮前２丁目１７番１８号,,13,115,1680081,,,,,,,2021-09-24,1,,,,,ケニーズペンチ,0
616,3011501027321,新規,0,2021-09-24,2021-09-24,Ａｎａｌｏｇ　Ｇｒｉｄ株式会社,,株式会社,東京都,荒川区,荒川５丁目５１番６号,,13,118,1160002,,,,,,,2021-09-24,1,,,,,アナロググリッド,0
624,3012801021105,新規,0,2021-09-24,2021-09-24,株式会社ＭＰＳ,,株式会社,東京都,国分寺市,本町３丁目１０－１６,,13,214,1850012,,,,,,,2021-09-24,1,,,,,エムピーエス,0
632,3020001143149,新規,0,2021-09-24,2021-09-24,株式会社ミライ・プランニング,,株式会社,神奈川県,横浜市中区,相生町４丁目６９番地の１トーカン馬車道６０５号,,14,104,2310012,,,,,,,2021-09-24,1,,,,,ミライプランニング,0
637,3021001073988,新規,0,2021-09-24,2021-09-24,れいわ不動産株式会社,,株式会社,神奈川県,横須賀市,根岸町３丁目３番９号鳴瀬ビル２階,,14,201,2390807,,,,,,,2021-09-24,1,,,,,レイワフドウサン,0
638,3021001074020,新規,0,2021-09-24,2021-09-24,株式会社Ｌｏｔｕｓ,,株式会社,神奈川県,藤沢市,遠藤３２２３番地の１,,14,205,2520816,,,,,,,2021-09-24,1,,,,,ロータス,0
642,3030001144328,新規,0,2021-09-24,2021-09-24,株式会社将和工業,,株式会社,埼玉県,川口市,末広２丁目１０番１６号,,11,203,3320006,,,,,,,2021-09-24,1,,,,,ショウワコウギョウ,0
643,3030001144476,新規,0,2021-09-24,2021-09-24,株式会社内藤,,株式会社,埼玉県,さいたま市中央区,上峰３丁目２番３号,,11,105,3380014,,,,,,,2021-09-24,1,,,,,ナイトウ,0
649,3040001120253,新規,0,2021-09-24,2021-09-24,ＭＩＲＺＡＥＥ株式会社,,株式会社,千葉県,四街道市,物井１４０５－１－１０２,,12,228,2840012,,,,,,,2021-09-24,1,,,,,ミルザイー,0
650,3040001120261,新規,0,2021-09-24,2021-09-24,株式会社ＫＩＹＡグループホールディングス,,株式会社,千葉県,流山市,前ケ崎４１１番地１,,12,220,2700144,,,,,,,2021-09-24,1,,,,,キヤグループホールディングス,0
667,3080003002644,新規,0,2021-09-24,2021-09-24,ＺＯＵ　ＳＵＮ合同会社,,合同会社,静岡県,静岡市清水区,北脇４９３番地の３,,22,103,4240052,,,,,,,2021-09-24,1,,,,,ゾウサン,0
691,3120001240563,新規,0,2021-09-24,2021-09-24,九源株式会社,,株式会社,大阪府,大阪市淀川区,西三国１丁目１１番２号３０２号室,,27,123,5320006,,,,,,,2021-09-24,1,,,,,キュウゲン,0
692,3120001240588,新規,0,2021-09-24,2021-09-24,東友安泰株式会社,,株式会社,大阪府,大阪市港区,市岡元町２丁目６番１１－３０１号,,27,107,5520002,,,,,,,2021-09-24,1,,,,,トウユウアンタイ,0
693,3120001240638,新規,0,2021-09-24,2021-09-24,株式会社Ｈａｔｃｈ　Ｏｕｔ,,株式会社,大阪府,大阪市福島区,福島７丁目１３番１９号グレイスロワ福島９０４号,,27,103,5530003,,,,,,,2021-09-24,1,,,,,ハッチアウト,0
706,3130001070134,新規,0,2021-09-24,2021-09-24,ＮＯＭＯＡＨ株式会社,,株式会社,京都府,与謝郡伊根町,字六万部４６５,,26,463,6260414,,,,,,,2021-09-24,1,,,,,ノモア,0
708,3140001123106,新規,0,2021-09-24,2021-09-24,株式会社ヒロ,,株式会社,兵庫県,姫路市,塩町７番地,,28,201,6700904,,,,,,,2021-09-24,1,,,,,ヒロ,0
710,3140005025827,新規,0,2021-09-24,2021-09-24,ＬＩＢＥＣＣＩＯ一般社団法人,,その他の設立登記法人,兵庫県,神戸市中央区,北野町３丁目６番２号１階,,28,110,6500002,,,,,,,2021-09-24,1,,,,,リベッチョ,0
712,3150005009333,新規,0,2021-09-24,2021-09-24,一般社団法人敬愛会,,その他の設立登記法人,奈良県,奈良市,西木辻町９１番地の４,00124311,29,201,6308325,,,,,,,2021-09-24,1,,,,,ケイアイカイ,0
715,3170001016785,新規,0,2021-09-24,2021-09-24,株式会社寿商事,,株式会社,和歌山県,新宮市,横町１丁目１番地の９,,30,207,6470017,,,,,,,2021-09-24,1,,,,,コトブキショウジ,0
721,3180001147885,新規,0,2021-09-24,2021-09-24,株式会社Ｇｒａｔｉａ,,株式会社,愛知県,名古屋市中区,錦２丁目１３番３１号ＶＩＶＡＣＥ・Ｂ０１,,23,106,4600003,,,,,,,2021-09-24,1,,,,,グラティア,0
722,3180001147919,新規,0,2021-09-24,2021-09-24,株式会社ＩＰＰＩＮＹＡ,,株式会社,愛知県,春日井市,藤山台６丁目４番地７,,23,206,4870035,,,,,,,2021-09-24,1,,,,,イッピンヤ,0
729,3180003022987,新規,0,2021-09-24,2021-09-24,ＰＳコンサル合同会社,,合同会社,愛知県,岩倉市,鈴井町立切８３,,23,228,4820035,,,,,,,2021-09-24,1,,,,,ピーエスコンサル,0
730,3180003022995,新規,0,2021-09-24,2021-09-24,合同会社鈴生,,合同会社,愛知県,名古屋市千種区,汁谷町１１５番地,,23,101,4640013,,,,,,,2021-09-24,1,,,,,スズナリ,0
734,3180303005114,新規,0,2021-09-24,2021-09-24,ミートホープ合同会社,,合同会社,愛知県,西尾市,桜町溜池２９番地３,,23,213,4450803,,,,,,,2021-09-24,1,,,,,ミートホープ,0
742,3200001039171,新規,0,2021-09-24,2021-09-24,株式会社ミヨシ屋,,株式会社,岐阜県,各務原市,那加柄山町６５番地,,21,213,5040005,,,,,,,2021-09-24,1,,,,,ミヨシヤ,0
755,3260001035982,新規,0,2021-09-24,2021-09-24,株式会社Ｔ５,,株式会社,岡山県,倉敷市,玉島阿賀崎２２７７番地６,,33,202,7138121,,,,,,,2021-09-24,1,,,,,ティーファイブ,0
760,3280003001535,新規,0,2021-09-24,2021-09-24,合同会社神楽,,合同会社,島根県,浜田市,熱田町１６６７,,32,202,6970062,,,,,,,2021-09-24,1,,,,,カグラ,0
775,3350003003929,新規,0,2021-09-24,2021-09-24,合同会社ソラカラ,,合同会社,宮崎県,日向市,東郷町山陰辛７５３番地１,,45,206,8830106,,,,,,,2021-09-24,1,,,,,ソラカラ,0
780,3360003011451,新規,0,2021-09-24,2021-09-24,合同会社ＳＨＡＲＥ,,合同会社,沖縄県,那覇市,字小禄８４７番地,,47,201,9010152,,,,,,,2021-09-24,1,,,,,シェア,0
784,3420003002386,新規,0,2021-09-24,2021-09-24,合同会社グランフィールド,,合同会社,青森県,弘前市,大字堅田４丁目１２番地２,,02,202,0368052,,,,,,,2021-09-24,1,,,,,グランフィールド,0
812,4010001221243,新規,0,2021-09-24,2021-09-24,株式会社杜光興産,,株式会社,東京都,千代田区,外神田２丁目１番８号道伝ビルＢ１－２号室,,13,101,1010021,,,,,,,2021-09-24,1,,,,,モリミツコウサン,0
813,4010001221334,新規,0,2021-09-24,2021-09-24,株式会社環境ナノエナジー,,株式会社,東京都,中央区,京橋２丁目１１番３－７０１号,,13,102,1040031,,,,,,,2021-09-24,1,,,,,カンキョウナノエナジー,0
815,4010003035872,新規,0,2021-09-24,2021-09-24,ＬＡＩＺＡ合同会社,,合同会社,東京都,千代田区,内神田２丁目１４番１３号高芳ビル３Ｆ,,13,101,1010047,,,,,,,2021-09-24,1,,,,,ライザ,0
816,4010003035880,新規,0,2021-09-24,2021-09-24,Ｍｅｌｏｃｏｔｏｎ合同会社,,合同会社,東京都,中央区,銀座１丁目２２番１１号銀座大竹ビジデンス２階,,13,102,1040061,,,,,,,2021-09-24,1,,,,,メロコトン,0
830,4010401162780,新規,0,2021-09-24,2021-09-24,株式会社Ｒ－ｅａｔｓ,,株式会社,東京都,港区,港南２丁目１５番３号,,13,103,1080075,,,,,,,2021-09-24,1,,,,,アールイーツ,0
831,4010401162830,新規,0,2021-09-24,2021-09-24,株式会社リベラル,,株式会社,東京都,港区,高輪２丁目１４番１７号グレイス高輪ビル８階,,13,103,1080074,,,,,,,2021-09-24,1,,,,,リベラル,0
837,4010405020225,新規,0,2021-09-24,2021-09-24,一般社団法人ＳａＣＲＡ,,その他の設立登記法人,東京都,港区,赤坂９丁目１番７号４２２,,13,103,1070052,,,,,,,2021-09-24,1,,,,,サクラ,0
838,4010501047857,新規,0,2021-09-24,2021-09-24,株式会社サイクルラボ,,株式会社,東京都,台東区,台東１丁目２７番６号,,13,106,1100016,,,,,,,2021-09-24,1,,,,,サイクルラボ,0
841,4010601059942,新規,0,2021-09-24,2021-09-24,株式会社ミライテック,,株式会社,東京都,江東区,東陽２丁目５番１８号ジャパンハイツ東陽３０２,,13,108,1350016,,,,,,,2021-09-24,1,,,,,ミライテック,0
842,4010601059975,新規,0,2021-09-24,2021-09-24,株式会社Ｋａｐｉｌｉｎａ,,株式会社,東京都,江東区,毛利１丁目１９－１７クラウンマンション５０１号室,,13,108,1350001,,,,,,,2021-09-24,1,,,,,カピリナ,0
866,4011001142859,新規,0,2021-09-24,2021-09-24,ＺｅＮ株式会社,,株式会社,東京都,目黒区,下目黒２丁目２１－２８セントヒルズ目黒２０４,,13,110,1530064,,,,,,,2021-09-24,1,,,,,ゼン,0
867,4011001142867,新規,0,2021-09-24,2021-09-24,株式会社Ｎｏｖａｔｈ,,株式会社,東京都,渋谷区,神南１丁目５－４ロイヤルパレス原宿４０７号室,,13,113,1500041,,,,,,,2021-09-24,1,,,,,ノバス,0
869,4011005009237,新規,0,2021-09-24,2021-09-24,一般社団法人ＣＡＴＴＩ日本実施委員会,,その他の設立登記法人,東京都,渋谷区,神宮前３丁目３５番１９号バティマン・イケダ４Ｆ,,13,113,1500001,,,,,,,2021-09-24,1,,,,,シーエーティーティーアイニホンジッシイインカイ,0
874,4011701024720,新規,0,2021-09-24,2021-09-24,株式会社鳳凰,,株式会社,東京都,江戸川区,中葛西７丁目２３番１３号ＦＵＪＩコーポ３階,,13,123,1340083,,,,,,,2021-09-24,1,,,,,ホウオウ,0
881,4012801021104,新規,0,2021-09-24,2021-09-24,株式会社ＥＭＩＪＯＹ,,株式会社,東京都,立川市,曙町２丁目１４番１６号,,13,202,1900012,,,,,,,2021-09-24,1,,,,,エミジョイ,0
882,4013101008733,新規,0,2021-09-24,2021-09-24,株式会社Ｃｈｒｉｓｔｍａｓ　ｐｌａｎｅｔ,,株式会社,東京都,青梅市,沢井１丁目３３８番地１,,13,205,1980172,,,,,,,2021-09-24,1,,,,,クリスマスプラネット,0
892,4020001143115,新規,0,2021-09-24,2021-09-24,株式会社エスワイエム,,株式会社,神奈川県,横浜市港北区,新羽町９７９番地,,14,109,2230057,,,,,,,2021-09-24,1,,,,,エスワイエム,0
893,4020001143148,新規,0,2021-09-24,2021-09-24,株式会社Ｄｏｕｂｌｅ　Ｍｏｏｎ　Ｌｉｇｈｔ　Ｊａｐａｎ,,株式会社,神奈川県,横浜市港北区,綱島東５丁目５番１号,,14,109,2230052,,,,,,,2021-09-24,1,,,,,ダブルムーンライトジャパン,0
899,4020003020519,新規,0,2021-09-24,2021-09-24,９ＡＰ．Ｐｌａｎ合同会社,,合同会社,神奈川県,横浜市中区,桜木町１丁目１－７,,14,104,2310062,,,,,,,2021-09-24,1,,,,,ナインエーピープラン,0
900,4020003020527,新規,0,2021-09-24,2021-09-24,合同会社オルエリ,,合同会社,神奈川県,横浜市中区,山下町７５番地２ＢＡＹＣＯＵＲＴ山下公園４０２,,14,104,2310023,,,,,,,2021-09-24,1,,,,,オルエリ,0
906,4021003010922,新規,0,2021-09-24,2021-09-24,合同会社ＳＴＹＬＩＳＨ,,合同会社,神奈川県,大和市,大和南１丁目５－１７中村ビル３Ｆ,,14,213,2420016,,,,,,,2021-09-24,1,,,,,スタイリッシュ,0
913,4030001144434,新規,0,2021-09-24,2021-09-24,株式会社福路,,株式会社,埼玉県,さいたま市緑区,大字大門１４２,,11,109,3360963,,,,,,,2021-09-24,1,,,,,フクロウ,0
923,4030003017992,新規,0,2021-09-24,2021-09-24,合同会社ＨＳＲサポートセンター,,合同会社,埼玉県,さいたま市緑区,原山２丁目３３番８号浦和パークハイツ７－５０４,,11,109,3360931,,,,,,,2021-09-24,1,,,,,エイチエスアールサポートセンター,0
926,4040001120203,新規,0,2021-09-24,2021-09-24,株式会社オオツボ,,株式会社,千葉県,市川市,南八幡１丁目４番２号パークハウス本八幡ソラティオ７０６,,12,203,2720023,,,,,,,2021-09-24,1,,,,,オオツボ,0
927,4040001120252,新規,0,2021-09-24,2021-09-24,株式会社ａｂｅ‐ａｓｓｅｔ,,株式会社,千葉県,船橋市,習志野台３丁目８番３号,,12,204,2740063,,,,,,,2021-09-24,1,,,,,アベアセット,0
944,4070001038459,新規,0,2021-09-24,2021-09-24,Ｔｕｒｂｏ＆Ｓｈｏｗ株式会社,,株式会社,群馬県,高崎市,大橋町３６番地９,,10,202,3700803,,,,,,,2021-09-24,1,,,,,ターボアンドショー,0
950,4100001034628,新規,0,2021-09-24,2021-09-24,株式会社ククリテ,,株式会社,長野県,長野市,大字南長野字幅下６４４番地８,,20,201,3800837,,,,,,,2021-09-24,1,,,,,ククリテ,0
963,4120001240513,新規,0,2021-09-24,2021-09-24,ＪＳＤ株式会社,,株式会社,大阪府,大阪市平野区,長吉川辺３丁目２０番５号,,27,126,5470014,,,,,,,2021-09-24,1,,,,,ジェイエスディー,0
964,4120001240554,新規,0,2021-09-24,2021-09-24,株式会社盛泰,,株式会社,大阪府,大阪市城東区,新喜多東１丁目５番１４－９０３号,,27,118,5360017,,,,,,,2021-09-24,1,,,,,セイタイ,0
965,4120001240587,新規,0,2021-09-24,2021-09-24,株式会社ｐａｏ福,,株式会社,大阪府,大阪市福島区,福島７丁目７番７号,,27,103,5530003,,,,,,,2021-09-24,1,,,,,パオフク,0
971,4120003020302,新規,0,2021-09-24,2021-09-24,合同会社ハリー,,合同会社,大阪府,大阪市中央区,南船場１丁目１６番１２－８０２号,,27,128,5420081,,,,,,,2021-09-24,1,,,,,ハリー,0
976,4120103004353,新規,0,2021-09-24,2021-09-24,合同会社梅木商店,,合同会社,大阪府,松原市,南新町６丁目１番５号,,27,217,5800023,,,,,,,2021-09-24,1,,,,,ウメキショウテン,0
989,4130005016272,新規,0,2021-09-24,2021-09-24,一般社団法人獣医光免疫治療研究会,,その他の設立登記法人,京都府,京田辺市,興戸地蔵谷１番地同志社大学連携型起業家育成施設２階,,26,211,6100332,,,,,,,2021-09-24,1,,,,,ジュウイヒカリメンエキチリョウケンキュウカイ,0
996,4140001123113,新規,0,2021-09-24,2021-09-24,哲建装株式会社,,株式会社,兵庫県,姫路市,飾西７４１番地１０９,,28,201,6712216,,,,,,,2021-09-24,1,,,,,テツケンソウ,0
997,4140001123170,新規,0,2021-09-24,2021-09-24,ＫＳ分割準備株式会社,,株式会社,兵庫県,伊丹市,中央５丁目３番３８号,,28,207,6640851,,,,,,,2021-09-24,1,,,,,ケイエスブンカツジュンビ,0
1000,4140003016760,新規,0,2021-09-24,2021-09-24,ＡＦ合同会社,,合同会社,兵庫県,養父市,広谷１８８番地１,,28,222,6670101,,,,,,,2021-09-24,1,,,,,エーエフ,0
1002,4150001024938,新規,0,2021-09-24,2021-09-24,株式会社ｈａｉｒ　ｓａｌｏｎ　ｎａｇｏｍｉ,,株式会社,奈良県,奈良市,富雄北３丁目１－２５,,29,201,6310076,,,,,,,2021-09-24,1,,,,,ヘアサロンナゴミ,0
1012,4180001147901,新規,0,2021-09-24,2021-09-24,株式会社カムラッドソリューションズ,,株式会社,愛知県,名古屋市中川区,一色新町１丁目９０４番地オーシャンＵＯ１０１号,,23,110,4540946,,,,,,,2021-09-24,1,,,,,カムラッドソリューションズ,0
1013,4180001147918,新規,0,2021-09-24,2021-09-24,株式会社ｍａｌｉｅ,,株式会社,愛知県,名古屋市中区,丸の内２丁目１５番２０号リゾナーレ丸の内７０３,,23,106,4600002,,,,,,,2021-09-24,1,,,,,マリエ,0
1014,4180001147942,新規,0,2021-09-24,2021-09-24,株式会社さくら,,株式会社,愛知県,名古屋市南区,道全町３丁目２番地の１,,23,112,4570076,,,,,,,2021-09-24,1,,,,,サクラ,0
1017,4180003022994,新規,0,2021-09-24,2021-09-24,セノーテ合同会社,,合同会社,愛知県,稲沢市,下津小井戸１丁目３番６号シェアワークラウンジ稲沢,,23,220,4928093,,,,,,,2021-09-24,1,,,,,セノーテ,0
1045,4250001019143,新規,0,2021-09-24,2021-09-24,株式会社ソレイユファーム,,株式会社,山口県,防府市,高倉２丁目１９番２５号,,35,206,7470045,,,,,,,2021-09-24,1,,,,,ソレイユファーム,0
1057,4290001094744,新規,0,2021-09-24,2021-09-24,株式会社通販支援サービス,,株式会社,福岡県,福岡市中央区,天神２丁目３番１０号天神パインクレスト７１９号,,40,133,8100001,,,,,,,2021-09-24,1,,,,,ツウハンシエンサービス,0
1062,4290005018369,新規,0,2021-09-24,2021-09-24,一般社団法人あおぞら,,その他の設立登記法人,福岡県,福岡市中央区,御所ヶ谷１番２２号,,40,133,8100027,,,,,,,2021-09-24,1,,,,,アオゾラ,0
1069,4320001018617,新規,0,2021-09-24,2021-09-24,株式会社いちわか,,株式会社,大分県,日田市,大字日高２４９２番地３,,44,204,8770000,,,,,,,2021-09-24,1,,,,,イチワカ,0
1074,4340003003557,新規,0,2021-09-24,2021-09-24,合同会社ＭＭＫ,,合同会社,鹿児島県,薩摩川内市,宮崎町３０６４番地,,46,215,8950013,,,,,,,2021-09-24,1,,,,,エムエムケイ,0
1076,4350001017319,新規,0,2021-09-24,2021-09-24,株式会社エス・サンク,,株式会社,宮崎県,宮崎市,花山手東３丁目２３番地２,,45,201,8800930,,,,,,,2021-09-24,1,,,,,エスサンク,0
1079,4360001029404,新規,0,2021-09-24,2021-09-24,株式会社ＷＯＮＤＥＲ　ＢＡＬＬ,,株式会社,沖縄県,沖縄市,高原２丁目２番６１号,,47,211,9042171,,,,,,,2021-09-24,1,,,,,ワンダーボール,0
1080,4360003011459,新規,0,2021-09-24,2021-09-24,合同会社会計センター,,合同会社,沖縄県,中頭郡嘉手納町,字嘉手納４９３番地３、４階,,47,325,9040203,,,,,,,2021-09-24,1,,,,,カイケイセンター,0
1084,4370003005393,新規,0,2021-09-24,2021-09-24,ショッピングカート合同会社,,合同会社,宮城県,仙台市青葉区,北根１丁目１３番１－１６０９号,,04,101,9810902,,,,,,,2021-09-24,1,,,,,ショッピングカート,0
1089,4390005008913,新規,0,2021-09-24,2021-09-24,行政書士法人山形自動車登録事務所,,その他の設立登記法人,山形県,山形市,大字漆山字行段１４２２番地,,06,201,9902161,,,,,,,2021-09-24,1,,,,,ヤマガタジドウシャトウロクジムショ,0
1091,4400001015606,新規,0,2021-09-24,2021-09-24,ビッグセンター株式会社,,株式会社,岩手県,紫波郡矢巾町,流通センター南１丁目７番５号,,03,322,0200891,,,,,,,2021-09-24,1,,,,,ビッグセンター,0
1095,4420001017600,新規,0,2021-09-24,2021-09-24,株式会社ＳＥＮ‐ＢＵ,,株式会社,青森県,弘前市,大字外崎４丁目２番地５,,02,202,0368094,,,,,,,2021-09-24,1,,,,,センブ,0
1103,4470001018718,新規,0,2021-09-24,2021-09-24,金良株式会社,,株式会社,香川県,仲多度郡多度津町,大字南鴨２４番地４,,37,404,7640026,,,,,,,2021-09-24,1,,,,,カネヨシ,0
1119,5010005033997,新規,0,2021-09-24,2021-09-24,ＫＩＣあきる野特定目的会社,,その他の設立登記法人,東京都,千代田区,神田錦町３丁目１９番楠本第３ビル８階,,13,101,1010054,,,,,,,2021-09-24,1,,,,,ケイアイシーアキルノ,0
1127,5010401162821,新規,0,2021-09-24,2021-09-24,株式会社ＲＩＭＭ　Ｊａｐａｎ,,株式会社,東京都,港区,赤坂１丁目９番１３号,,13,103,1070052,,,,,,,2021-09-24,1,,,,,リムジャパン,0
1129,5010501047856,新規,0,2021-09-24,2021-09-24,株式会社Ｂｒｏａｄｅｎ　ｔｉｅｓ,,株式会社,東京都,台東区,下谷３丁目１番２４号,,13,106,1100004,,,,,,,2021-09-24,1,,,,,ブローデンタイズ,0
1143,5010901049477,新規,0,2021-09-24,2021-09-24,株式会社ＨＲＩ企画,,株式会社,東京都,世田谷区,代沢２丁目４１番１０号,,13,112,1550032,,,,,,,2021-09-24,1,,,,,エイチアールアイキカク,0
1146,5010905004206,新規,0,2021-09-24,2021-09-24,ＮＰＯ法人学校の話をしよう,,その他の設立登記法人,東京都,世田谷区,池尻２丁目４番５号,,13,112,1540001,,,,,,,2021-09-24,1,,,,,ガッコウノハナシヲシヨウ,0
1151,5011103011036,新規,0,2021-09-24,2021-09-24,ＳＴＲＡＴＥＧＹ　ＳＸ合同会社,,合同会社,東京都,新宿区,中井１丁目５番１５号,,13,104,1610035,,,,,,,2021-09-24,1,,,,,ストラテジーエスエックス,0
1156,5011501027328,新規,0,2021-09-24,2021-09-24,株式会社鈴賀,,株式会社,東京都,荒川区,東日暮里３丁目１６番１０号,,13,118,1160014,,,,,,,2021-09-24,1,,,,,リンカ,0
1163,5011805003108,新規,0,2021-09-24,2021-09-24,医療法人社団心秀会,,その他の設立登記法人,東京都,葛飾区,高砂２丁目４０番５号高砂駅前クリニックモール１０１号室,,13,122,1250054,,,,,,,2021-09-24,1,,,,,シンシュウカイ,0
1174,5020001143114,新規,0,2021-09-24,2021-09-24,株式会社ワン・プラス,,株式会社,神奈川県,横浜市都筑区,茅ケ崎中央７番１３－３０３号,,14,118,2240032,,,,,,,2021-09-24,1,,,,,ワンプラス,0
1175,5020001143130,新規,0,2021-09-24,2021-09-24,オフィス・エムシー・アイ株式会社,,株式会社,神奈川県,横浜市港北区,鳥山町６５２番地デボネール鳥山３０５,,14,109,2220035,,,,,,,2021-09-24,1,,,,,オフィスエムシーアイ,0
1201,5030003017926,新規,0,2021-09-24,2021-09-24,合同会社ＥＭ＆Ａ,,合同会社,埼玉県,本庄市,東台１丁目５－３ダイアパレス本庄７０４,,11,211,3670021,,,,,,,2021-09-24,1,,,,,イーエムアンドエー,0
1202,5030003017983,新規,0,2021-09-24,2021-09-24,合同会社積み希,,合同会社,埼玉県,日高市,大字田波目９０２番地３,,11,242,3501201,,,,,,,2021-09-24,1,,,,,ツミキ,0
1203,5030005020531,新規,0,2021-09-24,2021-09-24,一般社団法人社長のおなやみ相談所,,その他の設立登記法人,埼玉県,川越市,今成４丁目６番地４１,,11,201,3501105,,,,,,,2021-09-24,1,,,,,シャチョウノオナヤミソウダンジョ,0
1211,5040003018576,新規,0,2021-09-24,2021-09-24,ＭＩＲＡ合同会社,,合同会社,千葉県,船橋市,三山７丁目１４番１０－２０６号,,12,204,2740072,,,,,,,2021-09-24,1,,,,,ミラ,0
1214,5060003003816,新規,0,2021-09-24,2021-09-24,合同会社ＡＲＴＭＡＮ,,合同会社,栃木県,矢板市,木幡６７６番地１,,09,211,3292142,,,,,,,2021-09-24,1,,,,,アートマン,0
1216,5060005009902,新規,0,2021-09-24,2021-09-24,医療法人轟会,,その他の設立登記法人,栃木県,栃木市,平柳町２丁目１２番３９号,,09,203,3280012,,,,,,,2021-09-24,1,,,,,トドロキカイ,0
1230,5100005012769,新規,0,2021-09-24,2021-09-24,和合国際協同組合,,その他の設立登記法人,長野県,上田市,上田１４９３番地９,,20,203,3860001,,,,,,,2021-09-24,1,,,,,ワゴウコクサイ,0
1232,5110001036060,新規,0,2021-09-24,2021-09-24,株式会社新潟特技,,株式会社,新潟県,新潟市西区,中権寺２５２０番地,,15,107,9502251,,,,,,,2021-09-24,1,,,,,ニイガタトクギ,0
1240,5120001240644,新規,0,2021-09-24,2021-09-24,ＴＨＡＮＫ株式会社,,株式会社,大阪府,大阪市北区,堂山町１７番３号イーグルビル４０１,,27,127,5300027,,,,,,,2021-09-24,1,,,,,サンク,0
1247,5120101064324,新規,0,2021-09-24,2021-09-24,株式会社ＫＹＵ,,株式会社,大阪府,堺市西区,鳳西町３丁９番地１,,27,144,5938326,,,,,,,2021-09-24,1,,,,,キュー,0
1251,5120103004352,新規,0,2021-09-24,2021-09-24,Ａｉｗｔ合同会社,,合同会社,大阪府,堺市北区,長曽根町１８５番地１６,,27,146,5918025,,,,,,,2021-09-24,1,,,,,アイウォット,0
1259,5130005016271,新規,0,2021-09-24,2021-09-24,一般財団法人山内財団,,その他の設立登記法人,京都府,京都市東山区,今小路町８６番地１京洛舎東山三条１０１,,26,105,6050023,,,,,,,2021-09-24,1,,,,,ヤマウチザイダン,0
1266,5140001123079,新規,0,2021-09-24,2021-09-24,株式会社吉田機工,,株式会社,兵庫県,西宮市,西宮浜４丁目１４番３－２０４号,,28,204,6620934,,,,,,,2021-09-24,1,,,,,ヨシダキコウ,0
1269,5140003016776,新規,0,2021-09-24,2021-09-24,合同会社あんじゅ,,合同会社,兵庫県,神戸市西区,南別府１丁目７番地の４ヴィップハイツ２０７号,,28,111,6512116,,,,,,,2021-09-24,1,,,,,アンジュ,0
1270,5150001024945,新規,0,2021-09-24,2021-09-24,株式会社ポイントワン,,株式会社,奈良県,北葛城郡河合町,広瀬台３丁目１２番地８０,,29,427,6360073,,,,,,,2021-09-24,1,,,,,ポイントワン,0
1272,5160001023640,新規,0,2021-09-24,2021-09-24,株式会社クラフト,,株式会社,滋賀県,大津市,瀬田４丁目６番２号,,25,201,5202134,,,,,,,2021-09-24,1,,,,,クラフト,0
1282,5180001147891,新規,0,2021-09-24,2021-09-24,株式会社ｅｌａｎｖｉｔａｌ,,株式会社,愛知県,名古屋市東区,葵２丁目１４番５号（Ｓ－ＦＯＲＴ葵１３０１号）,,23,102,4610004,,,,,,,2021-09-24,1,,,,,エランヴィタール,0
1283,5180001147925,新規,0,2021-09-24,2021-09-24,Ｆｏｒｅｓｔ　Ｒｉｎｇ株式会社,,株式会社,愛知県,名古屋市南区,西又兵ヱ町１丁目２６番地,,23,112,4570835,,,,,,,2021-09-24,1,,,,,フォレストリング,0
1287,5180003022993,新規,0,2021-09-24,2021-09-24,インクルーシブ・インベストメント合同会社,,合同会社,愛知県,名古屋市南区,平子１丁目２番１０号ライオンズ新瑞橋グランゲート３０８号,,23,112,4570001,,,,,,,2021-09-24,1,,,,,インクルーシブインベストメント,0
1292,5180305009243,新規,0,2021-09-24,2021-09-24,一般社団法人フレンドシップアカデミー,,その他の設立登記法人,愛知県,豊田市,篠原町山訳３５番地６,,23,211,4700352,,,,,,,2021-09-24,1,,,,,フレンドシップアカデミー,0
1298,5200002028527,新規,0,2021-09-24,2021-09-24,有限会社押手製材所,,有限会社,岐阜県,高山市,漆垣内町１６１番地の８,,21,203,5060812,,,,,,,2021-09-24,1,,,,,オシデセイザイショ,0
1299,5200003005319,新規,0,2021-09-24,2021-09-24,合同会社Ｒ．Ｋ．Ｆ,,合同会社,岐阜県,岐阜市,正木１４８９番地６,,21,201,5020857,,,,,,,2021-09-24,1,,,,,アールケーエフ,0
1301,5230001018996,新規,0,2021-09-24,2021-09-24,株式会社ｌｅ　ｌｉｅｎ,,株式会社,富山県,高岡市,佐野８４５番地１,,16,202,9330826,,,,,,,2021-09-24,1,,,,,ルリアン,0
1310,5260001035980,新規,0,2021-09-24,2021-09-24,株式会社Ｒ＆Ｋカンパニー,,株式会社,岡山県,岡山市南区,藤田５３５番地３,,33,104,7010221,,,,,,,2021-09-24,1,,,,,アールアンドケーカンパニー,0
1323,5290001094719,新規,0,2021-09-24,2021-09-24,クラフトリビングホーム株式会社,,株式会社,福岡県,糟屋郡志免町,別府２丁目１１－２７－１Ｆ,,40,343,8112205,,,,,,,2021-09-24,1,,,,,クラフトリビングホーム,0
1331,5310001017486,新規,0,2021-09-24,2021-09-24,株式会社オフィスベル,,株式会社,長崎県,長崎市,万才町３番２９号,,42,201,8500033,,,,,,,2021-09-24,1,,,,,オフィスベル,0
1335,5340001024109,新規,0,2021-09-24,2021-09-24,株式会社ＮＥＸＴ　ＩＮＮＯＶＡＴＩＯＮ,,株式会社,鹿児島県,霧島市,隼人町見次１３００番地２ドラゴンポート８８－１０Ｂ－１,,46,218,8995117,,,,,,,2021-09-24,1,,,,,ネクストイノベーション,0
1339,5360001029403,新規,0,2021-09-24,2021-09-24,極実業株式会社,,株式会社,沖縄県,中頭郡読谷村,字楚辺２１６０番地２,,47,324,9040304,,,,,,,2021-09-24,1,,,,,キワミジツギョウ,0
1342,5370001047610,新規,0,2021-09-24,2021-09-24,株式会社中鉢工業,,株式会社,宮城県,宮城郡七ヶ浜町,遠山２丁目４番３８号,,04,404,9850823,,,,,,,2021-09-24,1,,,,,チュウバチコウギョウ,0
1352,5380005012477,新規,0,2021-09-24,2021-09-24,一般社団法人クリスチャン・マリッジサポート・ジャパン,,その他の設立登記法人,福島県,いわき市,好間町中好間字照田６番地,,07,204,9701152,,,,,,,2021-09-24,1,,,,,クリスチャンマリッジサポートジャパン,0
1354,5390001016596,新規,0,2021-09-24,2021-09-24,出羽住販株式会社,,株式会社,山形県,鶴岡市,若葉町２３番４号,,06,203,9970037,,,,,,,2021-09-24,1,,,,,,0
1360,5420001017599,新規,0,2021-09-24,2021-09-24,株式会社ノースファーム,,株式会社,青森県,上北郡おいらせ町,中下田５０７番地１２,,02,412,0392136,,,,,,,2021-09-24,1,,,,,ノースファーム,0
1361,5420003002384,新規,0,2021-09-24,2021-09-24,合同会社オフィスＢＡＮ,,合同会社,青森県,むつ市,緑ヶ丘１０番１４号,,02,208,0350066,,,,,,,2021-09-24,1,,,,,オフィスバン,0
1375,5500001023688,新規,0,2021-09-24,2021-09-24,みい建株式会社,,株式会社,愛媛県,伊予郡砥部町,北川毛６５２番地４,,38,402,7912131,,,,,,,2021-09-24,1,,,,,ミイケン,0
1376,5700150104673,新規,0,2021-09-24,2021-09-10,ＭＩグループ,,その他,東京都,練馬区,下石神井１丁目１５－７,,13,120,1770042,,,,,,,2021-09-10,1,,,,,エムアイグループ,0
1377,5700150104847,新規,0,2021-09-24,2021-09-24,三井物産連合企業年金基金,,その他,東京都,中央区,日本橋本町１丁目９番１３号日本橋本町１丁目ビル５階,,13,102,1030023,,,,,,,2021-09-24,1,,,,,ミツイブツサンレンゴウキギヨウネンキンキキン,0
1381,6010001220920,新規,0,2021-09-24,2021-09-24,コレクトコム株式会社,,株式会社,東京都,千代田区,九段南１丁目５番６号りそな九段ビル５階ＫＳフロア,,13,101,1020074,,,,,,,2021-09-24,1,,,,,コレクトコム,0
1382,6010001221274,新規,0,2021-09-24,2021-09-24,ＥＮＩＡＣ株式会社,,株式会社,東京都,中央区,銀座１丁目２２番１１号,,13,102,1040061,,,,,,,2021-09-24,1,,,,,エニアック,0
1383,6010001221282,新規,0,2021-09-24,2021-09-24,サニーサーフアンドターフ株式会社,,株式会社,東京都,中央区,日本橋茅場町２丁目１３－８第一大倉ビル１Ｆ,,13,102,1030025,,,,,,,2021-09-24,1,,,,,サニーサーフアンドターフ,0
1384,6010001221308,新規,0,2021-09-24,2021-09-24,株式会社恒友会,,株式会社,東京都,中央区,月島１丁目２６番４号長正社ビル３Ｆ,,13,102,1040052,,,,,,,2021-09-24,1,,,,,,0
1387,6010005033996,新規,0,2021-09-24,2021-09-24,社会保険労務士法人東京労務財務支援,,その他の設立登記法人,東京都,千代田区,岩本町１丁目４番２号Ｈ・Ｉビル４階,,13,101,1010032,,,,,,,2021-09-24,1,,,,,トウキョウロウムザイムシエン,0
1391,6010401162829,新規,0,2021-09-24,2021-09-24,株式会社フェアーウェイファシリティーズ,,株式会社,東京都,港区,六本木５丁目１８番１８号,,13,103,1060032,,,,,,,2021-09-24,1,,,,,フェアーウェイファシリティーズ,0
1394,6010405020231,新規,0,2021-09-24,2021-09-24,一般社団法人ＳＤＬ,,その他の設立登記法人,東京都,港区,元赤坂１丁目１番７号,,13,103,1070051,,,,,,,2021-09-24,1,,,,,エスディーエル,0
1395,6010501047855,新規,0,2021-09-24,2021-09-24,株式会社ジャスミン,,株式会社,東京都,台東区,根岸１丁目２番１７号,,13,106,1100003,,,,,,,2021-09-24,1,,,,,ジャスミン,0
1398,6010601013220,新規,0,2021-09-24,2021-09-24,関根興業株式会社,,株式会社,東京都,墨田区,菊川２丁目２３番２号,,13,107,1300024,,,,,,,2021-09-24,1,,,,,セキネコウギョウ,0
1401,6010603009167,新規,0,2021-09-24,2021-09-24,合同会社クリクロ,,合同会社,東京都,墨田区,太平１丁目１０－１２－７０６,,13,107,1300012,,,,,,,2021-09-24,1,,,,,クリクロ,0
1407,6010901049476,新規,0,2021-09-24,2021-09-24,株式会社トリプルスリー,,株式会社,東京都,世田谷区,三軒茶屋２丁目９番１５号ＴＣＫビル３Ｆ,,13,112,1540024,,,,,,,2021-09-24,1,,,,,トリプルスリー,0
1417,6011001142923,新規,0,2021-09-24,2021-09-24,ＭＲ株式会社,,株式会社,東京都,渋谷区,恵比寿１丁目３１番１１－５０１号,,13,113,1500013,,,,,,,2021-09-24,1,,,,,エムアール,0
1432,6011503004902,新規,0,2021-09-24,2021-09-24,合同会社ラピット,,合同会社,東京都,北区,浮間３丁目１３番１３－３０２号カーサ十全堂,,13,117,1150051,,,,,,,2021-09-24,1,,,,,ラピット,0
1443,6012801021102,新規,0,2021-09-24,2021-09-24,株式会社ナチュラル,,株式会社,東京都,日野市,西平山２丁目１－５,,13,212,1910055,,,,,,,2021-09-24,1,,,,,,0
1444,6013301048040,新規,0,2021-09-24,2021-09-24,株式会社ＧＬＡＮＤ＆ＮＡＧＯ,,株式会社,東京都,豊島区,高田１丁目２番１５号,,13,116,1710033,,,,,,,2021-09-24,1,,,,,グランドアンドナゴ,0
1447,6013303005832,新規,0,2021-09-24,2021-09-24,合同会社ＫＧＭ,,合同会社,東京都,豊島区,東池袋４丁目３２番１５号ボヌール東池袋,,13,116,1700013,,,,,,,2021-09-24,1,,,,,ケージーエム,0
1452,6020001143113,新規,0,2021-09-24,2021-09-24,ＡＲＣＨＩ株式会社,,株式会社,神奈川県,横浜市泉区,岡津町１５５番地２ネオステージ弥生台４０３,,14,116,2450003,,,,,,,2021-09-24,1,,,,,アーキ,0
1454,6020003020525,新規,0,2021-09-24,2021-09-24,合同会社オフィス宮前,,合同会社,神奈川県,川崎市宮前区,東有馬２丁目９番１６－２号,,14,136,2160002,,,,,,,2021-09-24,1,,,,,オフィスミヤマエ,0
1457,6021001074001,新規,0,2021-09-24,2021-09-24,株式会社Ｃｏｒｅ　Ｄｒｉｖｅｎ,,株式会社,神奈川県,相模原市南区,新磯野１丁目５２番９号,,14,153,2520325,,,,,,,2021-09-24,1,,,,,コアドリブン,0
1462,6021003010920,新規,0,2021-09-24,2021-09-24,合同会社ＳＯＷ,,合同会社,神奈川県,秦野市,曲松１丁目５番５号,,14,211,2591321,,,,,,,2021-09-24,1,,,,,ソウ,0
1464,6030001144275,新規,0,2021-09-24,2021-09-24,株式会社ネオ・キャリア,,株式会社,埼玉県,越谷市,相模町６丁目４５３番地１１,,11,222,3430823,,,,,,,2021-09-24,1,,,,,ネオキャリア,0
1465,6030001144399,新規,0,2021-09-24,2021-09-24,株式会社スフィア,,株式会社,埼玉県,加須市,南篠崎１４５１番地１５,,11,210,3470017,,,,,,,2021-09-24,1,,,,,スフィア,0
1466,6030001144473,新規,0,2021-09-24,2021-09-24,埼玉総合物流株式会社,,株式会社,埼玉県,さいたま市大宮区,大成町３丁目５４８－２,,11,103,3300852,,,,,,,2021-09-24,1,,,,,サイタマソウゴウブツリュウ,0
1467,6030005020530,新規,0,2021-09-24,2021-09-24,一般社団法人シロフクロウ,,その他の設立登記法人,埼玉県,北葛飾郡松伏町,ゆめみ野東１丁目２番地４１,,11,465,3430114,,,,,,,2021-09-24,1,,,,,シロフクロウ,0
1474,6040001120267,新規,0,2021-09-24,2021-09-24,株式会社ＶＧ,,株式会社,千葉県,市原市,五井５１２２番地,,12,219,2900056,,,,,,,2021-09-24,1,,,,,ブイジー,0
1475,6040001120291,新規,0,2021-09-24,2021-09-24,株式会社ＺＥＮＫ,,株式会社,千葉県,柏市,新逆井１丁目１８番７号,,12,217,2770044,,,,,,,2021-09-24,1,,,,,ゼンク,0
1495,6100005012768,新規,0,2021-09-24,2021-09-24,おたり地域づくり協同組合,,その他の設立登記法人,長野県,北安曇郡小谷村,大字中小谷丙２５０４番地９,,20,486,3999421,,,,,,,2021-09-24,1,,,,,オタリチイキヅクリ,0
1512,6120001240544,新規,0,2021-09-24,2021-09-24,株式会社ＫＴ．ＣＯ,,株式会社,大阪府,大阪市浪速区,日本橋３丁目１番１９号ビーウェルビル４Ｆ,,27,111,5560005,,,,,,,2021-09-24,1,,,,,ケーティーコーポレーション,0
1513,6120001240552,新規,0,2021-09-24,2021-09-24,一心商事株式会社,,株式会社,大阪府,大阪市西成区,花園北２丁目１１番１８－９０６号,,27,122,5570016,,,,,,,2021-09-24,1,,,,,イッシンショウジ,0
1518,6120003020267,新規,0,2021-09-24,2021-09-24,魁良合同会社,,合同会社,大阪府,大阪市平野区,加美北１丁目２３番２７号３０１号室,,27,126,5470001,,,,,,,2021-09-24,1,,,,,カイラ,0
1529,6130001070148,新規,0,2021-09-24,2021-09-24,株式会社Ｋ・Ｆ,,株式会社,京都府,京都市東山区,清閑寺池田町２番地１１,,26,105,6050923,,,,,,,2021-09-24,1,,,,,ケーエフ,0
1540,6140001123103,新規,0,2021-09-24,2021-09-24,株式会社双実メディカル,,株式会社,兵庫県,西宮市,里中町３丁目１０番１２号,,28,204,6638183,,,,,,,2021-09-24,1,,,,,ソウジツメディカル,0
1541,6140001123111,新規,0,2021-09-24,2021-09-24,株式会社ＤＩＯｈｏｍｅｓ,,株式会社,兵庫県,神戸市中央区,中山手通３丁目７番２８－６０３号,,28,110,6500004,,,,,,,2021-09-24,1,,,,,ディオホームズ,0
1545,6140003016759,新規,0,2021-09-24,2021-09-24,合同会社華浄,,合同会社,兵庫県,西宮市,鳴尾町４丁目１３番２２号２Ｆ,,28,204,6638184,,,,,,,2021-09-24,1,,,,,カジョウ,0
1554,6180001147924,新規,0,2021-09-24,2021-09-24,株式会社木﨑建築,00124306,株式会社,愛知県,名古屋市東区,葵２丁目１１番２２号,,23,102,4610004,,,,,,,2021-09-24,1,,,,,キザキケンチク,0
1565,6180301035399,新規,0,2021-09-24,2021-09-24,株式会社ａｎｐ,,株式会社,愛知県,蒲郡市,形原町下川原３３番地５,,23,214,4430104,,,,,,,2021-09-24,1,,,,,エーエヌピー,0
1567,6180303005111,新規,0,2021-09-24,2021-09-24,合同会社オール,,合同会社,愛知県,蒲郡市,宝町１１番３号,,23,214,4430044,,,,,,,2021-09-24,1,,,,,オール,0
1568,6180305009242,新規,0,2021-09-24,2021-09-24,特定非営利活動法人コドモミライ,,その他の設立登記法人,愛知県,岡崎市,大門３丁目１４番地６,,23,202,4442135,,,,,,,2021-09-24,1,,,,,コドモミライ,0
1571,6200001039169,新規,0,2021-09-24,2021-09-24,株式会社ジバング,,株式会社,岐阜県,岐阜市,島田２丁目３番１５－５０２号,,21,201,5020917,,,,,,,2021-09-24,1,,,,,ジバング,0
1572,6200001039177,新規,0,2021-09-24,2021-09-24,株式会社花井屋酒店,,株式会社,岐阜県,岐阜市,西野町１丁目１７番地,,21,201,5008882,,,,,,,2021-09-24,1,,,,,ハナイヤサケテン,0
1584,6260003003679,新規,0,2021-09-24,2021-09-24,合同会社ａｍｉｔｙ,,合同会社,岡山県,岡山市中区,国富２丁目５‐４３クレオ国富２３号室,,33,102,7038236,,,,,,,2021-09-24,1,,,,,アミティー,0
1590,6290001094734,新規,0,2021-09-24,2021-09-24,株式会社愛光グループ,,株式会社,福岡県,福岡市博多区,博多駅東１丁目１６番８号,,40,132,8120013,,,,,,,2021-09-24,1,,,,,アイコウグループ,0
1597,6290801027819,新規,0,2021-09-24,2021-09-24,株式会社栄信工業,,株式会社,福岡県,北九州市小倉南区,徳吉西２丁目１３番１０号,,40,107,8030278,,,,,,,2021-09-24,1,,,,,エイシンコウギョウ,0
1602,6300001012636,新規,0,2021-09-24,2021-09-24,株式会社丸福,,株式会社,佐賀県,三養基郡上峰町,大字前牟田１５５０番地１０,,41,345,8490122,,,,,,,2021-09-24,1,,,,,マルフク,0
1612,6340003003563,新規,0,2021-09-24,2021-09-24,ＫＭＯＫＳ合同会社,,合同会社,鹿児島県,日置市,伊集院町下谷口１９８０番９号家村ビル２０３号室,,46,216,8992501,,,,,,,2021-09-24,1,,,,,カモックス,0
1621,6380001032214,新規,0,2021-09-24,2021-09-24,株式会社飛鳥,,株式会社,福島県,いわき市,小名浜相子島字迎田１２番地の１ロイヤルベイス１０１,,07,204,9718123,,,,,,,2021-09-24,1,,,,,アスカ,0
1635,6420001017598,新規,0,2021-09-24,2021-09-24,株式会社八戸駅前専売所,,株式会社,青森県,八戸市,大字尻内町字八百刈４９番地１,,02,203,0391101,,,,,,,2021-09-24,1,,,,,ハチノヘエキマエセンバイショ,0
1644,6430003013181,新規,0,2021-09-24,2021-09-24,合同会社インクフィッシュ,,合同会社,北海道,札幌市中央区,南六条西１丁目５番地　６・１ビル,,01,101,0640806,,,,,,,2021-09-24,1,,,,,インクフィッシュ,0
1649,6500001023695,新規,0,2021-09-24,2021-09-24,株式会社コヤマカンパニー,,株式会社,愛媛県,八幡浜市,向灘２５３８番地１,,38,204,7960001,,,,,,,2021-09-24,1,,,,,コヤマカンパニー,0
1654,6500003002697,新規,0,2021-09-24,2021-09-24,合同会社紡,,合同会社,愛媛県,松山市,萱町６丁目６３番地５,,38,201,7900813,,,,,,,2021-09-24,1,,,,,ツムグ,0
1657,6700150093916,新規,0,2021-09-24,2019-04-18,ゆふいん児童クラブ,,その他,大分県,由布市,湯布院町川上３７５７－１,,44,213,8795102,,,,,,,2019-04-18,1,,,,,ユフインジドウクラブ,0
1658,6700150104846,新規,0,2021-09-24,2021-09-24,倉庫業企業年金基金,,その他,東京都,中央区,日本橋小伝馬町２番８号,,13,102,1030001,,,,,,,2021-09-24,1,,,,,ソウコギヨウキギヨウネンキンキキン,0
1662,7010001221298,新規,0,2021-09-24,2021-09-24,向日葵商事株式会社,,株式会社,東京都,中央区,銀座３丁目１２－１９－４Ｆ,,13,102,1040061,,,,,,,2021-09-24,1,,,,,ヒマワリショウジ,0
1666,7010005033995,新規,0,2021-09-24,2021-09-24,一般社団法人ヒャオ,,その他の設立登記法人,東京都,千代田区,神田和泉町１番地７の２,,13,101,1010024,,,,,,,2021-09-24,1,,,,,ヒャオ,0
1672,7010401162811,新規,0,2021-09-24,2021-09-24,ビオール株式会社,,株式会社,東京都,港区,南青山６丁目８番１１号岩井レースビル２Ｆ,,13,103,1070062,,,,,,,2021-09-24,1,,,,,ビオール,0
1673,7010403026171,新規,0,2021-09-24,2021-09-24,合同会社スダラボ,,合同会社,東京都,港区,南麻布５丁目３－２３有栖川ヒルズ１０１,,13,103,1060047,,,,,,,2021-09-24,1,,,,,スダラボ,0
1676,7010501047854,新規,0,2021-09-24,2021-09-24,株式会社ＡＫ－ｕｓ,,株式会社,東京都,台東区,上野２丁目１０番４号池之端会館ビルディング地下１階,,13,106,1100005,,,,,,,2021-09-24,1,,,,,エーケーアス,0
1677,7010501047862,新規,0,2021-09-24,2021-09-24,東宝商事株式会社,,株式会社,東京都,台東区,浅草橋５丁目２９番８号,,13,106,1110053,,,,,,,2021-09-24,1,,,,,トウホウショウジ,0
1694,7010901049491,新規,0,2021-09-24,2021-09-24,株式会社ＺｅＬｏ,,株式会社,東京都,世田谷区,駒沢公園１番１号トート駒沢公園４０２,,13,112,1540013,,,,,,,2021-09-24,1,,,,,ゼロ,0
1701,7011001142922,新規,0,2021-09-24,2021-09-24,ＭＫ株式会社,,株式会社,東京都,渋谷区,恵比寿１丁目３１番１１－５０１号,,13,113,1500013,,,,,,,2021-09-24,1,,,,,エムケイ,0
1702,7011001142971,新規,0,2021-09-24,2021-09-24,ＵＪ株式会社,,株式会社,東京都,渋谷区,広尾１丁目９番１６号広尾宮田ビル９階,,13,113,1500012,,,,,,,2021-09-24,1,,,,,ユージェイ,0
1707,7011101096317,新規,0,2021-09-24,2021-09-24,株式会社ＣＬＥ．ｃｃ,,株式会社,東京都,新宿区,新宿３丁目１２番４号新宿Ｎタウンプラザ３０９号,,13,104,1600022,,,,,,,2021-09-24,1,,,,,コンファタブルリビングエンバイアメントクリエイションエンドコーチング,0
1708,7011101096366,新規,0,2021-09-24,2021-09-24,株式会社Ｍｅｄｉｃｏｓ－ＪＡＰＡＮ,,株式会社,東京都,新宿区,新宿６丁目２７番５０ビラ吉川４０２号,,13,104,1600022,,,,,,,2021-09-24,1,,,,,メディコスジャパン,0
1713,7011703002944,新規,0,2021-09-24,2021-09-24,合同会社ＮＳＭ,,合同会社,東京都,江戸川区,西葛西４丁目３番２３－７０３号,,13,123,1340088,,,,,,,2021-09-24,1,,,,,エヌエスエム,0
1714,7011801039707,新規,0,2021-09-24,2021-09-24,株式会社相続コンサル,,株式会社,東京都,足立区,花畑３丁目５番３－１０１号,,13,121,1210061,,,,,,,2021-09-24,1,,,,,ソウゾクコンサル,0
1716,7012401038314,新規,0,2021-09-24,2021-09-24,株式会社星和ビルサービス,,株式会社,東京都,多摩市,連光寺２丁目３３番地１,,13,224,2060021,,,,,,,2021-09-24,1,,,,,セイワビルサービス,0
1718,7012703002315,新規,0,2021-09-24,2021-09-24,Ｔ４Ｕ合同会社,,合同会社,東京都,東久留米市,大門町１丁目２番２２号,,13,222,2030011,,,,,,,2021-09-24,1,,,,,ティーフォーユー,0
1719,7012801021101,新規,0,2021-09-24,2021-09-24,株式会社ショーテック,,株式会社,東京都,東大和市,高木３丁目２２７番地の１５,,13,220,2070005,,,,,,,2021-09-24,1,,,,,ショーテック,0
1724,7013303005831,新規,0,2021-09-24,2021-09-24,合同会社オーク,,合同会社,東京都,豊島区,高田１丁目３６番１３－７０３号,,13,116,1710033,,,,,,,2021-09-24,1,,,,,オーク,0
1733,7020001143129,新規,0,2021-09-24,2021-09-24,株式会社リライズ,,株式会社,神奈川県,横浜市神奈川区,金港町７番地３金港ビル７Ｆ,,14,102,2210056,,,,,,,2021-09-24,1,,,,,リライズ,0
1734,7020001143137,新規,0,2021-09-24,2021-09-24,株式会社スモールワールド,,株式会社,神奈川県,横浜市鶴見区,鶴見中央３丁目２１番７号リエス鶴見２０１,,14,101,2300051,,,,,,,2021-09-24,1,,,,,スモールワールド,0
1735,7020001143145,新規,0,2021-09-24,2021-09-24,株式会社和,,株式会社,神奈川県,川崎市川崎区,砂子１丁目５番地８第一諏訪ビル４０１号室,,14,131,2100006,,,,,,,2021-09-24,1,,,,,ナゴミ,0
1741,7020003020499,新規,0,2021-09-24,2021-09-24,龍晏合同会社,,合同会社,神奈川県,横浜市南区,大岡２丁目１５－２メゾンド・ポエート３０９号室,,14,105,2320061,,,,,,,2021-09-24,1,,,,,リュウアン,0
1742,7020003020508,新規,0,2021-09-24,2021-09-24,Ｙ＆Ｙ合同会社,,合同会社,神奈川県,横浜市港南区,日限山１丁目５８番１６号,,14,111,2330015,,,,,,,2021-09-24,1,,,,,ワイアンドワイ,0
1743,7020003020516,新規,0,2021-09-24,2021-09-24,合同会社Ｔｒｕｓｔ　Ａｉｄ,,合同会社,神奈川県,川崎市川崎区,港町５番１リヴァリエＡ－２５０４,,14,131,2100807,,,,,,,2021-09-24,1,,,,,トラストエイド,0
1744,7020003020532,新規,0,2021-09-24,2021-09-24,合同会社ｕｎｉｓｏｎ,,合同会社,神奈川県,川崎市川崎区,堀之内町１０番地１６ラ・メゾン川崎参番館６０２,,14,131,2100003,,,,,,,2021-09-24,1,,,,,ユニゾン,0
1757,7030001144464,新規,0,2021-09-24,2021-09-24,株式会社ＬＧ　ｃｏｒｐｏｒａｔｉｏｎ,,株式会社,埼玉県,川越市,大字上戸２９３－２－１０１,,11,201,3500816,,,,,,,2021-09-24,1,,,,,エルジーコーポレーション,0
1763,7040001120258,新規,0,2021-09-24,2021-09-24,ＡＳ　Ａｃｃｏｕｎｔｉｎｇ　Ｐａｒｔｎｅｒｓ株式会社,,株式会社,千葉県,松戸市,新松戸３丁目１番地の１,,12,207,2700034,,,,,,,2021-09-24,1,,,,,エーエスアカウンティングパートナーズ,0
1764,7040001120266,新規,0,2021-09-24,2021-09-24,ＩＦＣ株式会社,,株式会社,千葉県,習志野市,谷津３丁目１７番１９号,,12,216,2750026,,,,,,,2021-09-24,1,,,,,アイエフシ,0
1765,7040001120290,新規,0,2021-09-24,2021-09-24,アイサアセットマネジメント株式会社,,株式会社,千葉県,千葉市中央区,新千葉２丁目１３番３号,,12,101,2600031,,,,,,,2021-09-24,1,,,,,アイサアセットマネジメント,0
1772,7040003018574,新規,0,2021-09-24,2021-09-24,ｍａ’ａｍ合同会社,,合同会社,千葉県,船橋市,本町５丁目４－５プラウドタワー船橋２６０４号室,,12,204,2730005,,,,,,,2021-09-24,1,,,,,マム,0
1785,7080001024455,新規,0,2021-09-24,2021-09-24,株式会社文田,,株式会社,静岡県,静岡市駿河区,登呂２丁目１８番１３号,,22,102,4228033,,,,,,,2021-09-24,1,,,,,フミタ,0
1803,7120001240601,新規,0,2021-09-24,2021-09-24,株式会社チャペルクラブ,,株式会社,大阪府,大阪市天王寺区,上本町８丁目６番２６号,,27,109,5430001,,,,,,,2021-09-24,1,,,,,チャペルクラブ,0
1814,7120901044936,新規,0,2021-09-24,2021-09-24,株式会社モンジュノーク,,株式会社,大阪府,吹田市,津雲台７丁目５番Ｄ１３１号三国タイルビル３０２,,27,205,5650862,,,,,,,2021-09-24,1,,,,,モンジュノーク,0
1825,7140001123110,新規,0,2021-09-24,2021-09-24,株式会社Ｋ－Ｇｕ,,株式会社,兵庫県,姫路市,飾磨区今在家３丁目３００番地１,,28,201,6728079,,,,,,,2021-09-24,1,,,,,ケーグ,0
1826,7140001123119,新規,0,2021-09-24,2021-09-24,株式会社ワイズグローバル,,株式会社,兵庫県,姫路市,安富町皆河１０９５番地,,28,201,6712415,,,,,,,2021-09-24,1,,,,,ワイズグローバル,0
1829,7160003002384,新規,0,2021-09-24,2021-09-24,Ｉｎｔｅｒ　Ｇｌｏｗ合同会社,,合同会社,滋賀県,近江八幡市,鷹飼町北３丁目７－８,,25,204,5230896,,,,,,,2021-09-24,1,,,,,インターグロウ,0
1831,7170003001633,新規,0,2021-09-24,2021-09-24,Ｋｅｎｔａ’ｓＧａｒｄｅｎ合同会社,,合同会社,和歌山県,和歌山市,上野４１７番地３５,,30,201,6496316,,,,,,,2021-09-24,1,,,,,ケンタズガーデン,0
1839,7180001147923,新規,0,2021-09-24,2021-09-24,ハセキョー株式会社,,株式会社,愛知県,犬山市,大字犬山字末友３５番地,,23,215,4840081,,,,,,,2021-09-24,1,,,,,ハセキョー,0
1845,7180003022991,新規,0,2021-09-24,2021-09-24,合同会社松風サービス,,合同会社,愛知県,名古屋市昭和区,松風町２丁目１７番地の１,,23,107,4660035,,,,,,,2021-09-24,1,,,,,マツカゼサービス,0
1881,7270003001350,新規,0,2021-09-24,2021-09-24,合同会社あき山,,合同会社,鳥取県,倉吉市,余戸谷町３０３０番地２,,31,203,6820853,,,,,,,2021-09-24,1,,,,,アキヤマ,0
1882,7280001008512,新規,0,2021-09-24,2021-09-24,株式会社Ｓｈａｒｅｄ　Ｄｉｇｉｔａｌ　Ｃｅｎｔｅｒ,,株式会社,島根県,浜田市,熱田町１６６７番地,,32,202,6970062,,,,,,,2021-09-24,1,,,,,シェアードデジタルセンター,0
1890,7290001094717,新規,0,2021-09-24,2021-09-24,株式会社ノキデザイン,,株式会社,福岡県,春日市,白水ヶ丘６丁目３１,,40,218,8160845,,,,,,,2021-09-24,1,,,,,ノキデザイン,0
1894,7290801027826,新規,0,2021-09-24,2021-09-24,Ｎ－ＯＶＥＳＴ株式会社,,株式会社,福岡県,遠賀郡遠賀町,大字今古賀５９８番地１,,40,384,8114303,,,,,,,2021-09-24,1,,,,,エヌオーヴェスト,0
1907,7360001029392,新規,0,2021-09-24,2021-09-24,株式会社ＣｉｔｒｕｓＭｅｄｉａ,,株式会社,沖縄県,豊見城市,字豊崎３番地８４,,47,212,9010225,,,,,,,2021-09-24,1,,,,,シトラスメディア,0
1910,7370003005399,新規,0,2021-09-24,2021-09-24,Ｔｈｒｅｅ　ｐｉｌｌａｒｓ合同会社,,合同会社,宮城県,気仙沼市,波路上後原１３０,,04,205,9880252,,,,,,,2021-09-24,1,,,,,,0
1915,7420001017597,新規,0,2021-09-24,2021-09-24,株式会社ビレッジ,,株式会社,青森県,下北郡東通村,大字小田野沢字南通１５番地,,02,424,0394223,,,,,,,2021-09-24,1,,,,,ビレッジ,0
1922,7450003002124,新規,0,2021-09-24,2021-09-24,合同会社ＡＤＮ,,合同会社,北海道,旭川市,豊岡六条６丁目１番６号,,01,204,0788236,,,,,,,2021-09-24,1,,,,,エーディーエヌ,0
1923,7470001018723,新規,0,2021-09-24,2021-09-24,株式会社プラス,,株式会社,香川県,高松市,福岡町２丁目２６番地１８リッチモンド福岡町２－１０５号,,37,201,7600066,,,,,,,2021-09-24,1,,,,,プラス,0
1926,7500001023694,新規,0,2021-09-24,2021-09-24,株式会社興栄,,株式会社,愛媛県,伊予郡砥部町,宮内１３９９番地,,38,402,7912120,,,,,,,2021-09-24,1,,,,,コウエイ,0
1927,7700150093915,新規,0,2021-09-24,2019-04-18,第三ゆふいん児童クラブ,,その他,大分県,由布市,湯布院町川上３７５７－１,,44,213,8795102,,,,,,,2019-04-18,1,,,,,ダイサンユフインジドウクラブ,0
1937,8010001221256,新規,0,2021-09-24,2021-09-24,株式会社ＳＮＥＴ東京ビジネスコンサルティング,,株式会社,東京都,中央区,銀座１丁目３番３号Ｇ１ビル７階,,13,102,1040061,,,,,,,2021-09-24,1,,,,,エスエヌイーティートウキョウビジネスコンサルティング,0
1938,8010001221272,新規,0,2021-09-24,2021-09-24,株式会社ＵＮＩＴＥＤ　ＳＴＹＬＥ,,株式会社,東京都,中央区,新富２丁目４番３－５０１号,,13,102,1040041,,,,,,,2021-09-24,1,,,,,ユナイテッドスタイル,0
1939,8010001221297,新規,0,2021-09-24,2021-09-24,株式会社Ｄｕａｌ　ｓｉｄｅｓ,,株式会社,東京都,中央区,銀座１丁目２２番１１号,,13,102,1040061,,,,,,,2021-09-24,1,,,,,デゥアルサイズ,0
1940,8010001221314,新規,0,2021-09-24,2021-09-24,株式会社スリークロストラベル,,株式会社,東京都,千代田区,岩本町１丁目２番１３号シェアル岩本町内,,13,101,1010032,,,,,,,2021-09-24,1,,,,,スリークロストラベル,0
1942,8010003035869,新規,0,2021-09-24,2021-09-24,合同会社渡邉企画,,合同会社,東京都,千代田区,神田佐久間町２丁目８番地,,13,101,1010025,,,,,,,2021-09-24,1,,,,,ワタナベキカク,0
1961,8010903006820,新規,0,2021-09-24,2021-09-24,フォルトゥナ合同会社,,合同会社,東京都,世田谷区,中町２丁目１５番１号,,13,112,1580091,,,,,,,2021-09-24,1,,,,,フォルトゥナ,0
1963,8011001142839,新規,0,2021-09-24,2021-09-24,株式会社ミトゥラ,,株式会社,東京都,渋谷区,松濤２丁目７番６号,,13,113,1500046,,,,,,,2021-09-24,1,,,,,ミトゥラ,0
1967,8011101096316,新規,0,2021-09-24,2021-09-24,株式会社雅国際,,株式会社,東京都,新宿区,下落合４丁目２３番１９号,,13,104,1610033,,,,,,,2021-09-24,1,,,,,ミヤビコクサイ,0
1972,8011501027325,新規,0,2021-09-24,2021-09-24,株式会社大和,,株式会社,東京都,荒川区,南千住１丁目１番１０号プリマヴェーラ三ノ輪３０１,,13,118,1160003,,,,,,,2021-09-24,1,,,,,ヤマト,0
1973,8011503004909,新規,0,2021-09-24,2021-09-24,ＮＥＨＡ　ＩＮＴＥＲＮＡＴＩＯＮＡＬ合同会社,,合同会社,東京都,荒川区,東尾久１丁目２９番４－２０３号,,13,118,1160012,,,,,,,2021-09-24,1,,,,,ネハインターナショナル,0
1976,8011801039730,新規,0,2021-09-24,2021-09-24,ノア商事株式会社,,株式会社,東京都,足立区,竹の塚２丁目２９番１３－２０３号,,13,121,1210813,,,,,,,2021-09-24,1,,,,,ノアショウジ,0
1980,8012401038321,新規,0,2021-09-24,2021-09-24,ＳＩＮＯ　ＶＥＨＩＣＬＥ　ＰＡＲＴＳ株式会社,,株式会社,東京都,多摩市,一ノ宮１丁目２４番地１メゾンドノア聖蹟桜ヶ丘３３７号室,,13,224,2060002,,,,,,,2021-09-24,1,,,,,シノビークルパーツ,0
1997,8020001143094,新規,0,2021-09-24,2021-09-24,株式会社リードマン,,株式会社,神奈川県,川崎市高津区,上作延８３３番地ヌーサパレード２７,,14,134,2130034,,,,,,,2021-09-24,1,,,,,リードマン,0
1998,8020001143136,新規,0,2021-09-24,2021-09-24,株式会社ＭＩＵ,,株式会社,神奈川県,横浜市港北区,綱島台１４番９号,,14,109,2230054,,,,,,,2021-09-24,1,,,,,ミウ,0
2003,8020003020515,新規,0,2021-09-24,2021-09-24,合同会社クラフトマンブラザーズ,,合同会社,神奈川県,横浜市旭区,本宿町５５番地１ロイヤル内田３０７号,,14,112,2410023,,,,,,,2021-09-24,1,,,,,クラフトマンブラザーズ,0
2004,8020003020531,新規,0,2021-09-24,2021-09-24,合同会社ＬｉｂｅＲｅｅｌ,,合同会社,神奈川県,横浜市磯子区,洋光台２丁目１６番２８号,,14,107,2350045,,,,,,,2021-09-24,1,,,,,ライブリール,0
2008,8021003010919,新規,0,2021-09-24,2021-09-24,合同会社開成総業,,合同会社,神奈川県,小田原市,曽比２２１２番地の１グランドソレーユ１０２,,14,206,2500851,,,,,,,2021-09-24,1,,,,,カイセイソウギョウ,0
2012,8030001144455,新規,0,2021-09-24,2021-09-24,株式会社Ａｓｈｌｅｙ　Ｇｌｏｂａｌ,,株式会社,埼玉県,さいたま市岩槻区,西町４丁目４番１４号,,11,110,3390067,,,,,,,2021-09-24,1,,,,,アシュリーグローバル,0
2016,8030003017989,新規,0,2021-09-24,2021-09-24,合同会社エーリンク,,合同会社,埼玉県,さいたま市北区,奈良町４４番地２７ハイツツカサ２０２,,11,102,3310822,,,,,,,2021-09-24,1,,,,,エーリンク,0
2018,8030005020529,新規,0,2021-09-24,2021-09-24,一般社団法人いきいきライフ協会越谷,,その他の設立登記法人,埼玉県,越谷市,大字南荻島４３０１番地２,,11,222,3430804,,,,,,,2021-09-24,1,,,,,イキイキライフキョウカイコシガヤ,0
2021,8040001120257,新規,0,2021-09-24,2021-09-24,株式会社財光,,株式会社,千葉県,大網白里市,大網３２番地８,,12,239,2993251,,,,,,,2021-09-24,1,,,,,ザイコウ,0
2026,8040003018573,新規,0,2021-09-24,2021-09-24,合同会社丸商,,合同会社,千葉県,松戸市,日暮２丁目２番地の６,,12,207,2702253,,,,,,,2021-09-24,1,,,,,マルショウ,0
2069,8120001240492,新規,0,2021-09-24,2021-09-24,メルティーコネクト株式会社,,株式会社,大阪府,大阪市北区,梅田１丁目２番２号大阪駅前第２ビル２階５－６号室,,27,127,5300001,,,,,,,2021-09-24,1,,,,,メルティーコネクト,0
2070,8120001240518,新規,0,2021-09-24,2021-09-24,ＫＳ　ＨＯＭＥ株式会社,,株式会社,大阪府,交野市,私部１丁目１９番２号,,27,230,5760052,,,,,,,2021-09-24,1,,,,,ケイエスホーム,0
2071,8120001240583,新規,0,2021-09-24,2021-09-24,株式会社三谷家,,株式会社,大阪府,大阪市阿倍野区,阪南町１丁目５０番２５号,,27,119,5450021,,,,,,,2021-09-24,1,,,,,ミタニヤ,0
2072,8120001240609,新規,0,2021-09-24,2021-09-24,ランドア株式会社,,株式会社,大阪府,枚方市,楠葉並木１丁目３８番１０号１０６号室,,27,210,5731118,,,,,,,2021-09-24,1,,,,,ランドア,0
2084,8120901044927,新規,0,2021-09-24,2021-09-24,株式会社ＴＫ　Ｈｏｌｄｉｎｇｓ,,株式会社,大阪府,茨木市,宮島１丁目１－１大阪府中央卸売市場内,,27,211,5670853,,,,,,,2021-09-24,1,,,,,ティーケーホールディングス,0
2094,8140001123101,新規,0,2021-09-24,2021-09-24,株式会社ＲＩＴＨｅｓｔ,,株式会社,兵庫県,神戸市灘区,灘北通４丁目８番１－４０１号,,28,102,6570835,,,,,,,2021-09-24,1,,,,,リースエスト,0
2095,8140001123118,新規,0,2021-09-24,2021-09-24,株式会社ラポール,,株式会社,兵庫県,淡路市,志筑１１１番地７オルガノ３－Ｄ,,28,226,6562131,,,,,,,2021-09-24,1,,,,,ラポール,0
2099,8150001024942,新規,0,2021-09-24,2021-09-24,株式会社テトラ,,株式会社,奈良県,北葛城郡河合町,大字佐味田５８０番地,,29,427,6360062,,,,,,,2021-09-24,1,,,,,テトラ,0
2108,8180001147922,新規,0,2021-09-24,2021-09-24,株式会社ＣＩＦＲＡ,,株式会社,愛知県,名古屋市中川区,中島新町３丁目２５１３番地２Ｆ,,23,110,4540932,,,,,,,2021-09-24,1,,,,,チフラ,0
2109,8180001147930,新規,0,2021-09-24,2021-09-24,株式会社ＭＪ,,株式会社,愛知県,名古屋市守山区,永森町３４２番地の１－３０２,,23,113,4630086,,,,,,,2021-09-24,1,,,,,エムジェー,0
2113,8180003022982,新規,0,2021-09-24,2021-09-24,合同会社財務バンク,,合同会社,愛知県,尾張旭市,西大道町前田３７２７番地２,,23,226,4880814,,,,,,,2021-09-24,1,,,,,ザイムバンク,0
2114,8180005019449,新規,0,2021-09-24,2021-09-24,特定非営利活動法人東海つばめ学習会,,その他の設立登記法人,愛知県,春日井市,岩成台９丁目１６番地１２,,23,206,4870033,,,,,,,2021-09-24,1,,,,,トウカイツバメガクシュウカイ,0
2120,8190001028700,新規,0,2021-09-24,2021-09-24,株式会社アップルクス,,株式会社,三重県,亀山市,菅内町８１３,,24,210,5190132,,,,,,,2021-09-24,1,,,,,アップルクス,0
2121,8190003003767,新規,0,2021-09-24,2021-09-24,合同会社ひばり,,合同会社,三重県,松阪市,上川町３７３２番地１０８サンハイツイトウＡ２０２,,24,204,5150041,,,,,,,2021-09-24,1,,,,,ヒバリ,0
2137,8240001058642,新規,0,2021-09-24,2021-09-24,株式会社ＮＥＵＴＲＡＬ,,株式会社,広島県,広島市西区,井口台１丁目１４番２１号,,34,104,7330844,,,,,,,2021-09-24,1,,,,,ニュートラル,0
2140,8240003005287,新規,0,2021-09-24,2021-09-24,Ｗｅｌｌｓｔｏｎｅ　ｔｒａｄｉｎｇ合同会社,,合同会社,広島県,福山市,新市町大字戸手７２９番地１サンフローラ２０３,,34,207,7293101,,,,,,,2021-09-24,1,,,,,ウェルストントレーディング,0
2141,8250002013414,新規,0,2021-09-24,2021-09-24,有限会社萩国際観光ホテル楽天池,,有限会社,山口県,萩市,大字椿東６５０９番地,,35,204,7580011,,,,,,,2021-09-24,1,,,,,ハギコクサイカンコウホテルラクテンチ,0
2144,8260001035978,新規,0,2021-09-24,2021-09-24,株式会社かんでん,,株式会社,岡山県,岡山市南区,浜野４丁目１１番１６－１号,,33,104,7000845,,,,,,,2021-09-24,1,,,,,カンデン,0
2147,8270001008363,新規,0,2021-09-24,2021-09-24,Ｐｅｎｔａｄａｙ株式会社,,株式会社,鳥取県,鳥取市,新８３－１９,,31,201,6800861,,,,,,,2021-09-24,1,,,,,ペンタデイ,0
2153,8290001094708,新規,0,2021-09-24,2021-09-24,株式会社イーグル,,株式会社,福岡県,福岡市博多区,祗園町３番６号,,40,132,8120000,,,,,,,2021-09-24,1,,,,,イーグル,0
2154,8290001094740,新規,0,2021-09-24,2021-09-24,株式会社峯ホールディングス,,株式会社,福岡県,福岡市中央区,薬院２丁目１番４号アルモニ薬院４Ｆ,,40,133,8100022,,,,,,,2021-09-24,1,,,,,ミネホールディングス,0
2159,8290801027825,新規,0,2021-09-24,2021-09-24,株式会社プラスリファイン,,株式会社,福岡県,北九州市小倉北区,竪林町３番１２号,,40,106,8030855,,,,,,,2021-09-24,1,,,,,プラスリファイン,0
2173,8340001024114,新規,0,2021-09-24,2021-09-24,株式会社悠ＬＩＦＥ,,株式会社,鹿児島県,鹿屋市,西原１丁目３３番４－２号,,46,203,8930064,,,,,,,2021-09-24,1,,,,,ユウライフ,0
2179,8360001029400,新規,0,2021-09-24,2021-09-24,株式会社大高設備,,株式会社,沖縄県,中頭郡読谷村,字大湾４６８番地１・Ｎｏ．６１１,,47,324,9040313,,,,,,,2021-09-24,1,,,,,オオタカセツビ,0
2183,8370003005398,新規,0,2021-09-24,2021-09-24,合同会社ＦＳＰＳ,,合同会社,宮城県,遠田郡美里町,平針字中川前二番１５番地,,04,505,9870021,,,,,,,2021-09-24,1,,,,,エフエスピーエス,0
2193,8420001017596,新規,0,2021-09-24,2021-09-24,Ｉｒｉａ株式会社,,株式会社,青森県,青森市,大字新城字山田６８１番地１,,02,201,0380042,,,,,,,2021-09-24,1,,,,,イリア,0
2206,8470005006384,新規,0,2021-09-24,2021-09-24,ＡＣＥ　ＪＡＰＡＮ協同組合,,その他の設立登記法人,香川県,三豊市,豊中町本山甲１２５８番地１,,37,208,7691506,,,,,,,2021-09-24,1,,,,,エースジャパン,0
2207,8480001011503,新規,0,2021-09-24,2021-09-24,株式会社前建,,株式会社,徳島県,小松島市,日開野町字行地１番地１８,,36,203,7730010,,,,,,,2021-09-24,1,,,,,マエケン,0
2216,8700150093914,新規,0,2021-09-24,2019-04-18,第二ゆふいん児童クラブ,,その他,大分県,由布市,湯布院町川上３７５７－１,,44,213,8795102,,,,,,,2019-04-18,1,,,,,ダイニユフインジドウクラブ,0
2232,9010401162784,新規,0,2021-09-24,2021-09-24,株式会社日本酒キャピタル,,株式会社,東京都,港区,南青山２丁目２番１５号ウィン青山１２０７,,13,103,1070062,,,,,,,2021-09-24,1,,,,,ニホンシュキャピタル,0
2235,9010403026153,新規,0,2021-09-24,2021-09-24,ＴＲ　ＭＩＮＡＭＩＡＯＹＡＭＡ合同会社,,合同会社,東京都,港区,南青山７丁目１番２１号,,13,103,1070062,,,,,,,2021-09-24,1,,,,,ティーアールミナミアオヤマ,0
2236,9010405020245,新規,0,2021-09-24,2021-09-24,一般社団法人ＭＭＬいわぬまソーラー,,その他の設立登記法人,東京都,港区,元赤坂１丁目１番７号,,13,103,1070051,,,,,,,2021-09-24,1,,,,,エムエムエルイワヌマソーラー,0
2237,9010501047860,新規,0,2021-09-24,2021-09-24,ＳＯＭ　ＳＴＹＬＥ株式会社,,株式会社,東京都,台東区,根岸２丁目２番１号６０１Ｌ－Ｆｌａｔ鶯谷,,13,106,1100003,,,,,,,2021-09-24,1,,,,,ソムスタイル,0
2244,9011001142862,新規,0,2021-09-24,2021-09-24,株式会社ＡＥＲＪ,,株式会社,東京都,渋谷区,上原２丁目１０番７号,,13,113,1510064,,,,,,,2021-09-24,1,,,,,エーイーアールジェイ,0
2252,9011105009982,新規,0,2021-09-24,2021-09-24,労働組合ＡＵＲＡ,,その他の設立登記法人,東京都,新宿区,西新宿７丁目２番１１号新宿ＷＥＳＴＣＯＵＲＴ５階,,13,104,1600023,,,,,,,2021-09-24,1,,,,,アウラ,0
2256,9011303004174,新規,0,2021-09-24,2021-09-24,合同会社アールデ,,合同会社,東京都,杉並区,方南２丁目２１番１５号セラハイムオーミ４０２,,13,115,1680062,,,,,,,2021-09-24,1,,,,,アールデ,0
2257,9011303004182,新規,0,2021-09-24,2021-09-24,合同会社ＲＯＶＥ,,合同会社,東京都,杉並区,宮前５丁目２５番３１号,,13,115,1680081,,,,,,,2021-09-24,1,,,,,ローブ,0
2268,9012703002313,新規,0,2021-09-24,2021-09-24,合同会社Ａ＆Ｈ,,合同会社,東京都,東久留米市,学園町１丁目８番２９号,,13,222,2030021,,,,,,,2021-09-24,1,,,,,エーアンドエイチ,0
2269,9012801021099,新規,0,2021-09-24,2021-09-24,株式会社ｅｎ人,,株式会社,東京都,昭島市,中神町２丁目２２番１１号,,13,207,1960022,,,,,,,2021-09-24,1,,,,,エンジン,0
2280,9020001143102,新規,0,2021-09-24,2021-09-24,株式会社ＣｌｏｕｄＭａｔｒｉｘ,,株式会社,神奈川県,横浜市栄区,本郷台１丁目８番２３－２号,,14,115,2470008,,,,,,,2021-09-24,1,,,,,クラウドマトリックス,0
2281,9020001143119,新規,0,2021-09-24,2021-09-24,株式会社ｓｔｙｌｅ　ｅＭｕ,,株式会社,神奈川県,川崎市川崎区,大師駅前２丁目１番７－３２９号,,14,131,2100802,,,,,,,2021-09-24,1,,,,,スタイルエム,0
2282,9020001143151,新規,0,2021-09-24,2021-09-24,株式会社リフォーム賢,,株式会社,神奈川県,川崎市中原区,下小田中３丁目２７番２８号３０２,,14,133,2110041,,,,,,,2021-09-24,1,,,,,リフォームケン,0
2285,9021001074023,新規,0,2021-09-24,2021-09-24,株式会社２ａｎｙ１,,株式会社,神奈川県,藤沢市,用田１２６番地１５,,14,205,2520821,,,,,,,2021-09-24,1,,,,,トゥエニィワン,0
2295,9030001144413,新規,0,2021-09-24,2021-09-24,株式会社クリーンアップ,,株式会社,埼玉県,加須市,北辻１８２番地１ルミエール１０２号室,00124303,11,210,3470023,,,,,,,2021-09-24,1,,,,,クリーンアップ,0
2296,9030001144454,新規,0,2021-09-24,2021-09-24,株式会社総命社,,株式会社,埼玉県,越谷市,千間台西１丁目１２番地１ダイアパレスルネッサせんげん台３３１０号,,11,222,3430041,,,,,,,2021-09-24,1,,,,,ソウメイシャ,0
2298,9030005020528,新規,0,2021-09-24,2021-09-24,特定非営利活動法人テソロス・デ・ディオス,,その他の設立登記法人,埼玉県,飯能市,大字下赤工５７０番地１,,11,209,3570126,,,,,,,2021-09-24,1,,,,,テソロスデディオス,0
2301,9040001120256,新規,0,2021-09-24,2021-09-24,株式会社イワサワホールディングス,,株式会社,千葉県,成田市,本三里塚２３０番地５０,,12,211,2860118,,,,,,,2021-09-24,1,,,,,イワサワホールディングス,0
2303,9050001049858,新規,0,2021-09-24,2021-09-24,株式会社ＮＥＸＴ　ＨＯＬＤＩＮＧＳ,,株式会社,茨城県,つくば市,東平塚６４７番地１,,08,220,3050812,,,,,,,2021-09-24,1,,,,,ネクストホールディングス,0
2306,9050005012928,新規,0,2021-09-24,2021-09-24,一般社団法人サンブリッジ,,その他の設立登記法人,茨城県,水戸市,見川４丁目３９３番地の８,,08,201,3100912,,,,,,,2021-09-24,1,,,,,サンブリッジ,0
2308,9060001034108,新規,0,2021-09-24,2021-09-24,株式会社ＳＭＫ・Ｒエステート,,株式会社,栃木県,小山市,大字喜沢１４７５番地,,09,208,3230014,,,,,,,2021-09-24,1,,,,,エスエムケイアールエステート,0
2316,9080101022786,新規,0,2021-09-24,2021-09-24,Ｍ２Ｒ株式会社,,株式会社,静岡県,賀茂郡西伊豆町,田子１１１７番地の２５,,22,306,4103515,,,,,,,2021-09-24,1,,,,,マツリ,0
2319,9080401025357,新規,0,2021-09-24,2021-09-24,株式会社ｉｎｓｔ．,,株式会社,静岡県,浜松市浜北区,善地２７１,,22,136,4340025,,,,,,,2021-09-24,1,,,,,インスト,0
2334,9110003004581,新規,0,2021-09-24,2021-09-24,合同会社ゼノ,,合同会社,新潟県,新潟市中央区,東大通１丁目７－１０,,15,103,9500087,,,,,,,2021-09-24,1,,,,,ゼノ,0
2347,9120001240608,新規,0,2021-09-24,2021-09-24,株式会社ワークステーションホールディングス,,株式会社,大阪府,大阪市西区,阿波座１丁目４番４号,,27,106,5500011,,,,,,,2021-09-24,1,,,,,ワークステーションホールディングス,0
2350,9120003020280,新規,0,2021-09-24,2021-09-24,Ｃａｌｉｎ合同会社,,合同会社,大阪府,大阪市旭区,中宮４丁目８－９－２０２,,27,117,5350003,,,,,,,2021-09-24,1,,,,,カラン,0
2352,9120105009453,新規,0,2021-09-24,2021-09-24,特定非営利活動法人高石クラブ,,その他の設立登記法人,大阪府,高石市,高師浜丁８番地,,27,225,5920006,,,,,,,2021-09-24,1,,,,,タカイシクラブ,0
2358,9130001070145,新規,0,2021-09-24,2021-09-24,株式会社オリジンエステート,,株式会社,京都府,京都市西京区,桂南巽町２７番地の５,,26,111,6158074,,,,,,,2021-09-24,1,,,,,オリジンエステート,0
2362,9140001123100,新規,0,2021-09-24,2021-09-24,株式会社Ｒｅｌａｘ　Ｎａｔｉｏｎ,,株式会社,兵庫県,尼崎市,猪名寺２丁目６番５号,,28,202,6610981,,,,,,,2021-09-24,1,,,,,リラックスネーション,0
2363,9140001123109,新規,0,2021-09-24,2021-09-24,神戸食研株式会社,,株式会社,兵庫県,神戸市兵庫区,駅南通５丁目２番１３－１３０７号,,28,105,6520897,,,,,,,2021-09-24,1,,,,,コウベショッケン,0
2364,9140001123117,新規,0,2021-09-24,2021-09-24,株式会社Ｗｏｒｌｄ　Ｉｒｏｈａ　Ｊａｐａｎ,,株式会社,兵庫県,伊丹市,伊丹３丁目２番１０－９０２号,,28,207,6640846,,,,,,,2021-09-24,1,,,,,ワールドイロハジャパン,0
2365,9140001123125,新規,0,2021-09-24,2021-09-24,株式会社トライブコーポレーション,,株式会社,兵庫県,加古郡播磨町,西野添５丁目２３番４号,,28,382,6750160,,,,,,,2021-09-24,1,,,,,トライブコーポレーション,0
2376,9180001147905,新規,0,2021-09-24,2021-09-24,ＲＡＮＩＹ株式会社,,株式会社,愛知県,名古屋市東区,泉２丁目１１番４号,,23,102,4610001,,,,,,,2021-09-24,1,,,,,ラニー,0
2377,9180001147921,新規,0,2021-09-24,2021-09-24,株式会社Ｄａｙ　ｕｐ,,株式会社,愛知県,名古屋市中区,栄３丁目９番３１号Ｓ・ＡＬＬＥＹ５０３号,,23,106,4600008,,,,,,,2021-09-24,1,,,,,ディッアップ,0
2384,9190001028699,新規,0,2021-09-24,2021-09-24,株式会社パートナーズ,,株式会社,三重県,津市,河芸町中別保１５９７番地１,,24,201,5100305,,,,,,,2021-09-24,1,,,,,パートナーズ,0
2389,9230005009170,新規,0,2021-09-24,2021-09-24,特定非営利活動法人シーアンドシー,,その他の設立登記法人,富山県,富山市,日方江１２２７番地,,16,201,9318416,,,,,,,2021-09-24,1,,,,,,0
2394,9240003005286,新規,0,2021-09-24,2021-09-24,劇的開運合同会社,,合同会社,広島県,広島市西区,井口明神１丁目１４番３０－１５０１号,,34,104,7330841,,,,,,,2021-09-24,1,,,,,ゲキテキカイウン,0
2396,9250002014254,新規,0,2021-09-24,2021-09-24,有限会社天鵬山,,有限会社,山口県,萩市,大字椿東６５０９番地,,35,204,7580011,,,,,,,2021-09-24,1,,,,,テンポウザン,0
2398,9260001035977,新規,0,2021-09-24,2021-09-24,株式会社ガレージ・ネオ,,株式会社,岡山県,倉敷市,真備町辻田１１３３番地１,00124305,33,202,7101312,,,,,,,2021-09-24,1,,,,,ガレージネオ,0
2399,9260001035985,新規,0,2021-09-24,2021-09-24,株式会社高月塗装店,,株式会社,岡山県,岡山市南区,西畦３３３‐３,,33,104,7010215,,,,,,,2021-09-24,1,,,,,タカツキトソウテン,0
2410,9290001094731,新規,0,2021-09-24,2021-09-24,株式会社コンストレイントマネジメント,,株式会社,福岡県,春日市,紅葉ヶ丘西２丁目８２,,40,218,8160832,,,,,,,2021-09-24,1,,,,,コンストレイントマネジメント,0
2415,9290003011643,新規,0,2021-09-24,2021-09-24,合同会社ＳＡＮＧＬＡＮＤＯ,,合同会社,福岡県,春日市,上白水２丁目８３番地,,40,218,8160844,,,,,,,2021-09-24,1,,,,,サングランド,0
2416,9290801027824,新規,0,2021-09-24,2021-09-24,株式会社ワイズアセット,,株式会社,福岡県,田川市,平松町１５番３０号エバーライフ後藤寺駅前１５０４号室,,40,206,8260032,,,,,,,2021-09-24,1,,,,,ワイズアセット,0
2425,9360001029374,新規,0,2021-09-24,2021-09-24,株式会社アジマァ,,株式会社,沖縄県,中頭郡北谷町,字美浜８番地の１１,,47,326,9040115,,,,,,,2021-09-24,1,,,,,アジマァ,0
2426,9360001029382,新規,0,2021-09-24,2021-09-24,株式会社當山建装,,株式会社,沖縄県,沖縄市,嘉間良１丁目１６番５号,,47,211,9040005,,,,,,,2021-09-24,1,,,,,トウヤマケンソウ,0
2427,9360001029390,新規,0,2021-09-24,2021-09-24,株式会社Ｊアシスト沖縄,,株式会社,沖縄県,うるま市,勝連南風原１９４４番地３,,47,213,9042311,,,,,,,2021-09-24,1,,,,,ジェイアシストオキナワ,0
2428,9360001029399,新規,0,2021-09-24,2021-09-24,株式会社新垣建装,,株式会社,沖縄県,中頭郡嘉手納町,字嘉手納１６３番地５,,47,325,9040203,,,,,,,2021-09-24,1,,,,,アラカキケンソウ,0
2430,9370003005397,新規,0,2021-09-24,2021-09-24,エコーズ合同会社,,合同会社,宮城県,仙台市泉区,泉中央２丁目２３－１６,,04,105,9813133,,,,,,,2021-09-24,1,,,,,エコーズ,0
2434,9380001032211,新規,0,2021-09-24,2021-09-24,株式会社ライラック,,株式会社,福島県,いわき市,内郷高坂町八反田５２番地内郷テナントビル２階,,07,204,9738408,,,,,,,2021-09-24,1,,,,,ライラック,0
2437,9410001012969,新規,0,2021-09-24,2021-09-24,株式会社ｈａｒｕｋｕｒｅ,,株式会社,秋田県,秋田市,大町４丁目４番１１－１２０３号,,05,201,0100921,,,,,,,2021-09-24,1,,,,,ハルクレ,0
2438,9420001017595,新規,0,2021-09-24,2021-09-24,株式会社日本園芸授粉研究所,,株式会社,青森県,弘前市,大字福村字福富４８番地,,02,202,0368082,,,,,,,2021-09-24,1,,,,,,0
2442,9430001085030,新規,0,2021-09-24,2021-09-24,北海道無垢株式会社,,株式会社,北海道,札幌市南区,藤野三条２丁目１番５７号ＣｏＣｏビル３階,,01,106,0612283,,,,,,,2021-09-24,1,,,,,ホッカイドウムク,0
2445,9450001013484,新規,0,2021-09-24,2021-09-24,株式会社車工房ＢＡＮＪＩ,,株式会社,北海道,留萌市,潮静２丁目７番地の４,,01,212,0770013,,,,,,,2021-09-24,1,,,,,クルマコウボウバンジ,0
2452,9700150093913,新規,0,2021-09-24,2019-04-18,第一ゆふいん児童クラブ,,その他,大分県,由布市,湯布院町川上３７５７－１,,44,213,8795102,,,,,,,2019-04-18,1,,,,,ダイイチユフインジドウクラブ,0
