sequenceNumber,corporateNumber,process,correct,updateDate,changeDate,name,nameImageId,kind,prefectureName,cityName,streetNumber,addressImageId,prefectureCode,cityCode,postCode,addressOutside,addressOutsideImageId,closeDate,closeCause,successorCorporateNumber,changeCause,assignmentDate,latest,enName,enPrefectureName,enCityName,enAddressOutside,furigana,hihyoji
8,1010001239552,新規,0,2023-11-06,2023-11-06,Ｈｅｉｔａｎ　Ｃａｐｉｔａｌ　Ｍａｎａｇｅｍｅｎｔ株式会社,,株式会社,東京都,千代田区,丸の内１丁目１番３号日本生命丸の内ガーデンタワー３階,,13,101,1000005,,,,,,,2023-11-06,1,,,,,ヘイタンキャピタルマネジメント,0
9,1010001239668,新規,0,2023-11-06,2023-11-06,株式会社ラプラスルナ,,株式会社,東京都,中央区,日本橋大伝馬町１３番７号日本橋大富ビル２Ｆ０１３,,13,102,1030011,,,,,,,2023-11-06,1,,,,,ラプラスルナ,0
10,1010001239767,新規,0,2023-11-06,2023-11-06,株式会社時事グローカルサービシーズ,,株式会社,東京都,中央区,銀座５丁目１５番８号,,13,102,1040061,,,,,,,2023-11-06,1,,,,,ジジグローカルサービシーズ,0
20,1010401178350,新規,0,2023-11-06,2023-11-06,株式会社広済堂エンジニアリング,,株式会社,東京都,港区,芝浦１丁目２番３号シーバンスＳ館１３階,,13,103,1050023,,,,,,,2023-11-06,1,,,,,コウサイドウエンジニアリング,0
22,1010403031276,新規,0,2023-11-06,2023-11-06,ＲａｐｉｄＡＩ　Ｊａｐａｎ合同会社,,合同会社,東京都,港区,元麻布３丁目１番６号,,13,103,1060046,,,,,,,2023-11-06,1,,,,,ラピッドエーアイジャパン,0
26,1010501051300,新規,0,2023-11-06,2023-11-06,株式会社ブリスコラ,,株式会社,東京都,台東区,上野３丁目１８－１３パークリーガル上野５Ｆ,,13,106,1100005,,,,,,,2023-11-06,1,,,,,ブリスコラ,0
31,1010701045085,新規,0,2023-11-06,2023-11-06,株式会社アールエム,,株式会社,東京都,品川区,西五反田５丁目３番９－７０２号,,13,109,1410031,,,,,,,2023-11-06,1,,,,,アールエム,0
34,1010901054126,新規,0,2023-11-06,2023-11-06,株式会社トルソシア,,株式会社,東京都,世田谷区,奥沢６丁目２１－１,,13,112,1580083,,,,,,,2023-11-06,1,,,,,トルソシア,0
35,1010901054150,新規,0,2023-11-06,2023-11-06,株式会社ＨＩＫＵＮＩ,,株式会社,東京都,世田谷区,深沢６丁目１４番８号,,13,112,1580081,,,,,,,2023-11-06,1,,,,,ヒクニ,0
46,1011101105017,新規,0,2023-11-06,2023-11-06,株式会社ＴＮＩ,,株式会社,東京都,新宿区,西新宿５丁目１７番１０－４０２号,,13,104,1600023,,,,,,,2023-11-06,1,,,,,ティーエヌアイ,0
50,1011103013597,新規,0,2023-11-06,2023-11-06,合同会社ユーパス,,合同会社,東京都,新宿区,歌舞伎町２丁目３１－３トーコープラザ５０６号,,13,104,1600021,,,,,,,2023-11-06,1,,,,,ユーパス,0
51,1011103013688,新規,0,2023-11-06,2023-11-06,合同会社ＴＵ２９,,合同会社,東京都,新宿区,四谷２丁目９番地１５東京ユナイテッド綜合事務所内,,13,104,1600004,,,,,,,2023-11-06,1,,,,,ティーユーニジュウキュウ,0
52,1011103013696,新規,0,2023-11-06,2023-11-06,合同会社ＡＱＵＡ,,合同会社,東京都,新宿区,西新宿３丁目３番１３号,,13,104,1600023,,,,,,,2023-11-06,1,,,,,アクア,0
53,1011105010832,新規,0,2023-11-06,2023-11-06,一般社団法人ＴＵ２１,,その他の設立登記法人,東京都,新宿区,四谷２丁目９番地１５東京ユナイテッド綜合事務所内,,13,104,1600004,,,,,,,2023-11-06,1,,,,,ティーユーニジュウイチ,0
54,1011105010840,新規,0,2023-11-06,2023-11-06,一般社団法人ＴＵ２９,,その他の設立登記法人,東京都,新宿区,四谷２丁目９番地１５東京ユナイテッド綜合事務所内,,13,104,1600004,,,,,,,2023-11-06,1,,,,,ティーユーニジュウキュウ,0
55,1011105010849,新規,0,2023-11-06,2023-11-06,一般社団法人ＯＸＦＯＲＤ　ＢＵＤＤＨＡ　ＶＩＨＡＲＡ　Ｊａｐａｎ,,その他の設立登記法人,東京都,新宿区,富久町８－２０,,13,104,1620067,,,,,,,2023-11-06,1,,,,,オックスフォードブッダヴィハラジャパン,0
64,1011801043276,新規,0,2023-11-06,2023-11-06,株式会社Ｅａｓｅ,,株式会社,東京都,足立区,千住１丁目２４－６ミルアール北千住ビル３Ｆ,,13,121,1200034,,,,,,,2023-11-06,1,,,,,,0
66,1011803005919,新規,0,2023-11-06,2023-11-06,合同会社Ｕ．Ｎ．Ｉ,,合同会社,東京都,葛飾区,柴又５丁目１４番２１号ラ・ポール五番館２０１号,,13,122,1250052,,,,,,,2023-11-06,1,,,,,ユーエヌアイ,0
68,1012401041174,新規,0,2023-11-06,2023-11-06,はらクッキングスタジオ株式会社,,株式会社,東京都,小金井市,貫井南町１丁目１４番１８号,,13,210,1840014,,,,,,,2023-11-06,1,,,,,ハラクッキングスタジオ,0
69,1012401041199,新規,0,2023-11-06,2023-11-06,株式会社トール,,株式会社,東京都,府中市,小柳町３丁目２５－２３,,13,206,1830013,,,,,,,2023-11-06,1,,,,,トール,0
71,1012703002849,新規,0,2023-11-06,2023-11-06,ｈｔｏｌｓホトル合同会社,,合同会社,東京都,西東京市,新町２丁目５番４号クロスロードサカイ３Ａ号,,13,229,2020023,,,,,,,2023-11-06,1,,,,,ホトル,0
72,1012801022740,新規,0,2023-11-06,2023-11-06,ＳＡＦＩ　Ｉｎｔｅｒｎａｔｉｏｎａｌ株式会社,,株式会社,東京都,国分寺市,西恋ヶ窪１丁目４９番地２６,,13,214,1850013,,,,,,,2023-11-06,1,,,,,サフィインターナショナル,0
75,1013301051560,新規,0,2023-11-06,2023-11-06,株式会社朝日商事,,株式会社,東京都,豊島区,北大塚２丁目２番７号ドルメン大塚５階,,13,116,1700004,,,,,,,2023-11-06,1,,,,,アサヒショウジ,0
79,1020001154131,新規,0,2023-11-06,2023-11-06,株式会社ｕｍ．,,株式会社,神奈川県,横浜市神奈川区,松見町４丁目５４１－１バロン妙蓮寺３０１,,14,102,2210005,,,,,,,2023-11-06,1,,,,,ウム,0
87,1020003024910,新規,0,2023-11-06,2023-11-06,合同会社オフィスヒューマニティー,,合同会社,神奈川県,横浜市青葉区,みたけ台３３番地１２０,,14,117,2270047,,,,,,,2023-11-06,1,,,,,オフィスヒューマニティー,0
91,1021005012928,新規,0,2023-11-06,2023-11-06,ＮＰＯ法人Ｈａｐｐｉｎｅｓｓ　Ｄｅｌｉｖｅｒｙ,,その他の設立登記法人,神奈川県,横須賀市,芦名１丁目１３番２２号,,14,201,2400104,,,,,,,2023-11-06,1,,,,,ハピネスデリバリー,0
102,1030001156647,新規,0,2023-11-06,2023-11-06,ＫＡＩＥＮＤＡＮ株式会社,,株式会社,埼玉県,春日部市,梅田本町２丁目１７－１,,11,214,3440053,,,,,,,2023-11-06,1,,,,,カイエンダン,0
111,1030003022921,新規,0,2023-11-06,2023-11-06,合同会社絆工業,,合同会社,埼玉県,さいたま市桜区,町谷３丁目１４－２,,11,106,3380836,,,,,,,2023-11-06,1,,,,,キズナコウギョウ,0
114,1030005021467,新規,0,2023-11-06,2023-11-06,医療法人社団葵月泰和,,その他の設立登記法人,埼玉県,新座市,野火止７丁目４番３０号,,11,230,3520011,,,,,,,2023-11-06,1,,,,,キゲツタイワ,0
124,1040001130774,新規,0,2023-11-06,2023-11-06,Ｍａｉ　Ｇｒｏｕｐ株式会社,,株式会社,千葉県,松戸市,西馬橋広手町１番地マンション第三松戸２１０,,12,207,2710048,,,,,,,2023-11-06,1,,,,,マイグループ,0
125,1040001130790,新規,0,2023-11-06,2023-11-06,ＢＥＡＵＴＩＦＵＬ　ＩＮＴＥＲＡＣＴＩＯＮ　ＩＮＴＥＲＮＡＴＩＯＮＡＬ株式会社,,株式会社,千葉県,市川市,曽谷７丁目１０番２号,,12,203,2720832,,,,,,,2023-11-06,1,,,,,ビューティフルインタラクションインターナショナル,0
130,1040003023679,新規,0,2023-11-06,2023-11-06,合同会社佐々木,,合同会社,千葉県,佐倉市,鏑木町９４０番地２０,,12,212,2850025,,,,,,,2023-11-06,1,,,,,ササキ,0
137,1050001053743,新規,0,2023-11-06,2023-11-06,東日本通運株式会社,,株式会社,茨城県,坂東市,岩井４２９４－１４,,08,228,3060631,,,,,,,2023-11-06,1,,,,,ヒガシニホンツウウン,0
142,1070001041036,新規,0,2023-11-06,2023-11-06,高悦株式会社,,株式会社,群馬県,前橋市,関根町１丁目３番地１５,,10,201,3710047,,,,,,,2023-11-06,1,,,,,コウエツ,0
143,1070001041052,新規,0,2023-11-06,2023-11-06,株式会社プラスＫ,,株式会社,群馬県,太田市,大原町１８８９番地１１,,10,205,3792304,,,,,,,2023-11-06,1,,,,,プラスケー,0
146,1080001025954,新規,0,2023-11-06,2023-11-06,株式会社ＵＺＵ　ｃｏｍｐａｎｙ,,株式会社,静岡県,静岡市葵区,千代田２丁目２番４４号,,22,101,4200803,,,,,,,2023-11-06,1,,,,,ウズカンパニー,0
147,1080003003090,新規,0,2023-11-06,2023-11-06,合同会社ソラボ,,合同会社,静岡県,榛原郡吉田町,片岡１０７９番地の４,,22,424,4210303,,,,,,,2023-11-06,1,,,,,ソラボ,0
153,1090001018404,新規,0,2023-11-06,2023-11-06,株式会社福寿,,株式会社,山梨県,甲府市,桜井町１０２６番地１,,19,201,4000803,,,,,,,2023-11-06,1,,,,,フクジュ,0
169,1120001259498,新規,0,2023-11-06,2023-11-06,株式会社スライブ,,株式会社,大阪府,大阪市西成区,天下茶屋３丁目２６番１２－３０１号,,27,122,5570014,,,,,,,2023-11-06,1,,,,,スライブ,0
170,1120001259507,新規,0,2023-11-06,2023-11-06,株式会社勝,,株式会社,大阪府,大阪市生野区,巽北４丁目１４番１９号ＮＣマンション巽１階,00132517,27,116,5440004,,,,,,,2023-11-06,1,,,,,カツ,0
171,1120001259515,新規,0,2023-11-06,2023-11-06,彩星株式会社,,株式会社,大阪府,大阪市中央区,淡路町１丁目６－９－８Ｆ,,27,128,5410047,,,,,,,2023-11-06,1,,,,,サイセイ,0
172,1120001259564,新規,0,2023-11-06,2023-11-06,株式会社Ｋ’ｓ不動産,,株式会社,大阪府,大阪市西区,靱本町１丁目５番１８号,,27,106,5500004,,,,,,,2023-11-06,1,,,,,ケイズフドウサン,0
173,1120001259572,新規,0,2023-11-06,2023-11-06,株式会社アートラボ新大阪,,株式会社,大阪府,大阪市淀川区,西中島６丁目２番３－３１８号,,27,123,5320011,,,,,,,2023-11-06,1,,,,,アートラボシンオオサカ,0
174,1120001259597,新規,0,2023-11-06,2023-11-06,株式会社海輝工業,,株式会社,大阪府,大阪市北区,梅田１丁目１－３大阪駅前第３ビル２９階１－１－１号室,,27,127,5300001,,,,,,,2023-11-06,1,,,,,カイキコウギョウ,0
175,1120001259639,新規,0,2023-11-06,2023-11-06,株式会社シスラボ,,株式会社,大阪府,大阪市旭区,中宮４丁目３番１８－２０７号,,27,117,5350003,,,,,,,2023-11-06,1,,,,,シスラボ,0
183,1120101068485,新規,0,2023-11-06,2023-11-06,株式会社ＦＥＮＥＳＴ,,株式会社,大阪府,岸和田市,春木泉町１３番３１号,,27,202,5960035,,,,,,,2023-11-06,1,,,,,フェネス,0
184,1120901048315,新規,0,2023-11-06,2023-11-06,株式会社リビテック,,株式会社,大阪府,吹田市,朝日が丘町４９番７号,,27,205,5640083,,,,,,,2023-11-06,1,,,,,リビテック,0
185,1120903004902,新規,0,2023-11-06,2023-11-06,ビバーチェ合同会社,,合同会社,大阪府,吹田市,春日１丁目１１番１７－３０３号,,27,205,5650853,,,,,,,2023-11-06,1,,,,,ビバーチェ,0
187,1122001037537,新規,0,2023-11-06,2023-11-06,巧ＧＣ工業株式会社,,株式会社,大阪府,東大阪市,大連北二丁目４－２,,27,227,5770000,,,,,,,2023-11-06,1,,,,,タクミジーシーコウギョウ,0
188,1122001037545,新規,0,2023-11-06,2023-11-06,株式会社ワダチプロダクツ,,株式会社,大阪府,四條畷市,中野新町１１番１５号,,27,229,5750054,,,,,,,2023-11-06,1,,,,,ワダチプロダクツ,0
189,1122003002720,新規,0,2023-11-06,2023-11-06,合同会社ワイオー・ツー,,合同会社,大阪府,東大阪市,菱屋東２丁目１６－１３,,27,227,5780948,,,,,,,2023-11-06,1,,,,,ワイオーツー,0
195,1130001075597,新規,0,2023-11-06,2023-11-06,株式会社ＯＮＥＰＡＩＮＴ,,株式会社,京都府,亀岡市,千代川町小川２丁目１７番１７号,,26,206,6210041,,,,,,,2023-11-06,1,,,,,ワンペイント,0
196,1130001075614,新規,0,2023-11-06,2023-11-06,株式会社ラフィーレ,,株式会社,京都府,京都市中京区,壬生辻町１２番地,00132525,26,104,6048822,,,,,,,2023-11-06,1,,,,,ラフィーレ,0
197,1130001075622,新規,0,2023-11-06,2023-11-06,株式会社Ｓｔａｒｔｕｐ　Ｌａｂｏｒａｔｏｒｉｅｓ,,株式会社,京都府,京都市左京区,田中門前町４６番地京美華ビル３Ｆ,,26,103,6068225,,,,,,,2023-11-06,1,,,,,スタートアップラボラトリーズ,0
199,1130003009099,新規,0,2023-11-06,2023-11-06,合同会社ＵＮＩＴＹ,,合同会社,京都府,京田辺市,興戸南鉾立９０番地８,,26,211,6100332,,,,,,,2023-11-06,1,,,,,ユニティー,0
214,1140003019766,新規,0,2023-11-06,2023-11-06,合同会社ＮＩＰＰＯＮ　ＳＵＰＰＳ,,合同会社,兵庫県,神戸市東灘区,向洋町中６丁目９番地神戸ファッションマート５階ＮＳ－０４,,28,101,6580032,,,,,,,2023-11-06,1,,,,,ニッポンサップス,0
215,1140003019774,新規,0,2023-11-06,2023-11-06,合同会社アップライド,,合同会社,兵庫県,神戸市中央区,海岸通３丁目１－１ＫＣＣビル４Ｆ,,28,110,6500024,,,,,,,2023-11-06,1,,,,,アップライド,0
217,1150001026854,新規,0,2023-11-06,2023-11-06,株式会社ＦＲＥＥ　ＳＴＹＬＥ,,株式会社,奈良県,北葛城郡王寺町,本町３丁目２番１０号,,29,425,6360012,,,,,,,2023-11-06,1,,,,,フリースタイル,0
219,1170001017868,新規,0,2023-11-06,2023-11-06,株式会社田村,,株式会社,和歌山県,有田郡湯浅町,大字田３４２番地,,30,361,6430006,,,,,,,2023-11-06,1,,,,,タムラ,0
221,1180001158728,新規,0,2023-11-06,2023-11-06,株式会社デラファクトリー,,株式会社,愛知県,名古屋市東区,葵２丁目６番１５号－３リブリ・グランド葵１０１号,,23,102,4610004,,,,,,,2023-11-06,1,,,,,デラファクトリー,0
222,1180001158793,新規,0,2023-11-06,2023-11-06,モトメイク株式会社,,株式会社,愛知県,一宮市,大赤見字大山西３０番地３,,23,203,4910015,,,,,,,2023-11-06,1,,,,,モトメイク,0
223,1180001158810,新規,0,2023-11-06,2023-11-06,株式会社カスタムプロジェクト,,株式会社,愛知県,名古屋市港区,入場２丁目２１１番地の１,,23,111,4550803,,,,,,,2023-11-06,1,,,,,カスタムプロジェクト,0
224,1180001158819,新規,0,2023-11-06,2023-11-06,株式会社ｍｔ　ｐｒｏ,,株式会社,愛知県,名古屋市北区,大曽根４丁目１８番２５号,,23,103,4620825,,,,,,,2023-11-06,1,,,,,エムティープロ,0
225,1180001158827,新規,0,2023-11-06,2023-11-06,株式会社テッパン,,株式会社,愛知県,名古屋市西区,浅間２丁目１４番２９号,,23,104,4510035,,,,,,,2023-11-06,1,,,,,テッパン,0
228,1180003025942,新規,0,2023-11-06,2023-11-06,合同会社ｗａｔｅｒ＆ｃｒａｆｔ,,合同会社,愛知県,春日井市,松河戸町６丁目２番地１３アクシス３０１号,,23,206,4860932,,,,,,,2023-11-06,1,,,,,ウォーターアンドクラフト,0
229,1180003025959,新規,0,2023-11-06,2023-11-06,合同会社兜本町,,合同会社,愛知県,名古屋市熱田区,切戸町１丁目７３番地,,23,109,4560076,,,,,,,2023-11-06,1,,,,,カブトホンマチ,0
233,1190001030852,新規,0,2023-11-06,2023-11-06,ホリウチホールディングス株式会社,,株式会社,三重県,名張市,朝日町１３６１番地の２５,,24,208,5180721,,,,,,,2023-11-06,1,,,,,ホリウチホールディングス,0
234,1190001030869,新規,0,2023-11-06,2023-11-06,株式会社ｔｏｄａｙ,,株式会社,三重県,鈴鹿市,道伯町２１３９番地の１１１,,24,207,5130824,,,,,,,2023-11-06,1,,,,,トゥデイ,0
240,1200001041872,新規,0,2023-11-06,2023-11-06,株式会社絶幸挑,,株式会社,岐阜県,大垣市,墨俣町墨俣字寺町２５５番地１,,21,202,5030102,,,,,,,2023-11-06,1,,,,,ゼッコウチョウ,0
244,1200003006139,新規,0,2023-11-06,2023-11-06,ＡＳ　Ｔｒａｄｉｎｇ合同会社,,合同会社,岐阜県,岐阜市,折立２８４番地１－２０１,,21,201,5011132,,,,,,,2023-11-06,1,,,,,エーエストレーディング,0
252,1220005008791,新規,0,2023-11-06,2023-11-06,税理士法人トータル・ブレーン,,その他の設立登記法人,石川県,小松市,福乃宮町２丁目５番地,,17,203,9230865,,,,,,,2023-11-06,1,,,,,トータルブレーン,0
253,1230001020097,新規,0,2023-11-06,2023-11-06,株式会社ＬＩＮＫ　ＰｈｏｔｏＷｏｒｋｓ,,株式会社,富山県,富山市,高屋敷３０番地２,,16,201,9398036,,,,,,,2023-11-06,1,,,,,リンクフォトワークス,0
257,1240001062353,新規,0,2023-11-06,2023-11-06,株式会社ＡＲＣ,,株式会社,広島県,広島市佐伯区,五日市駅前１丁目１０－１－４０２,,34,108,7315125,,,,,,,2023-11-06,1,,,,,,0
258,1240001062361,新規,0,2023-11-06,2023-11-06,株式会社ＲＵＲ,,株式会社,広島県,広島市中区,立町２番６号松尾ビル２Ｆ,,34,101,7300032,,,,,,,2023-11-06,1,,,,,ルー,0
259,1240001062386,新規,0,2023-11-06,2023-11-06,株式会社ライフプラス,,株式会社,広島県,広島市佐伯区,薬師が丘３丁目３番２０号,,34,108,7315154,,,,,,,2023-11-06,1,,,,,ライフプラス,0
261,1250001020376,新規,0,2023-11-06,2023-11-06,株式会社イーエムアイ,,株式会社,山口県,下関市,東大和町１丁目４番２７号,,35,201,7500066,,,,,,,2023-11-06,1,,,,,イーエムアイ,0
264,1260001038475,新規,0,2023-11-06,2023-11-06,株式会社フジナミ,,株式会社,岡山県,玉野市,槌ケ原２０９３番地,,33,204,7060141,,,,,,,2023-11-06,1,,,,,フジナミ,0
265,1270001008865,新規,0,2023-11-06,2023-11-06,フットライズ株式会社,,株式会社,鳥取県,米子市,富益町１４９８番地４,,31,202,6830103,,,,,,,2023-11-06,1,,,,,フットライズ,0
269,1290001103598,新規,0,2023-11-06,2023-11-06,株式会社Ｒｅｖｏ＆Ｌ,,株式会社,福岡県,福岡市東区,美和台１丁目４３番５号,,40,131,8110212,,,,,,,2023-11-06,1,,,,,レボル,0
270,1290001103664,新規,0,2023-11-06,2023-11-06,株式会社Ａｃｅ　ｓｔｕｄｉｏ,,株式会社,福岡県,福岡市中央区,今泉２丁目５－２４権藤ビル３０３,,40,133,8100021,,,,,,,2023-11-06,1,,,,,エーススタジオ,0
271,1290001103672,新規,0,2023-11-06,2023-11-06,株式会社Ｍ’ｓ　Ｆｕｔｕｒｅ　Ｃｒｅａｔｅ,,株式会社,福岡県,福岡市東区,松島１丁目１５番１－６０３号,,40,131,8120062,,,,,,,2023-11-06,1,,,,,エムズフューチャークリエイト,0
281,1310003004676,新規,0,2023-11-06,2023-11-06,合同会社ｅｒａｒエリア,,合同会社,長崎県,諫早市,福田町２７７９番地８,,42,204,8540001,,,,,,,2023-11-06,1,,,,,エリア,0
282,1310005008725,新規,0,2023-11-06,2023-11-06,行政書士法人ＡＺ,,その他の設立登記法人,長崎県,平戸市,浦の町７４８番地１タウンコートイセリ１０３号,,42,207,8595111,,,,,,,2023-11-06,1,,,,,エーゼット,0
287,1330001031423,新規,0,2023-11-06,2023-11-06,株式会社熊本都市ＪＯＨＯ,,株式会社,熊本県,熊本市北区,楠２丁目１番４０号,,43,105,8618003,,,,,,,2023-11-06,1,,,,,クマモトトシジョーホー,0
288,1330003010061,新規,0,2023-11-06,2023-11-06,合同会社プレジール,,合同会社,熊本県,八代市,鏡町鏡村９１５番地,,43,202,8694201,,,,,,,2023-11-06,1,,,,,プレジール,0
291,1340003004302,新規,0,2023-11-06,2023-11-06,ＡｑｕａＢａｓｅＤｅｓｉｇｎ合同会社,,合同会社,鹿児島県,鹿児島市,南林寺町７－１３－２Ｆ,,46,201,8920834,,,,,,,2023-11-06,1,,,,,アクアベースデザイン,0
292,1360001032765,新規,0,2023-11-06,2023-11-06,金秀物流株式会社,,株式会社,沖縄県,中頭郡西原町,字小那覇４９４番地１,,47,329,9030103,,,,,,,2023-11-06,1,,,,,カネヒデブツリュウ,0
293,1360003013441,新規,0,2023-11-06,2023-11-06,合同会社シアノス,,合同会社,沖縄県,うるま市,勝連平安名２６７３番地ナントカマンション１０２,,47,213,9042312,,,,,,,2023-11-06,1,,,,,シアノス,0
295,1360005006930,新規,0,2023-11-06,2023-11-06,一般社団法人あおぞら,,その他の設立登記法人,沖縄県,那覇市,松川１丁目４番１２号,,47,201,9020062,,,,,,,2023-11-06,1,,,,,アオゾラ,0
298,1370001050601,新規,0,2023-11-06,2023-11-06,株式会社エムケー,,株式会社,宮城県,仙台市宮城野区,田子３丁目２０－４０,,04,102,9830021,,,,,,,2023-11-06,1,,,,,エムケー,0
299,1370003006345,新規,0,2023-11-06,2023-11-06,合同会社ＭＥＴ,,合同会社,宮城県,仙台市青葉区,柏木１丁目７番３８号パークテラス柏木１０１,,04,101,9810933,,,,,,,2023-11-06,1,,,,,メット,0
300,1370003006353,新規,0,2023-11-06,2023-11-06,Ａｍｕｌｅｔ合同会社,,合同会社,宮城県,仙台市青葉区,中山７丁目１３番１１号,,04,101,9810952,,,,,,,2023-11-06,1,,,,,アミュレット,0
306,1390005009039,新規,0,2023-11-06,2023-11-06,一般社団法人Ｇｌｏｃａｌ．Ｙ．,,その他の設立登記法人,山形県,米沢市,太田町４丁目１番１４４－１号太田町四丁目貸家１号室,,06,202,9920035,,,,,,,2023-11-06,1,,,,,グローカルドットワイ,0
307,1400003003173,新規,0,2023-11-06,2023-11-06,合同会社オボ,,合同会社,岩手県,盛岡市,菜園２丁目２番２３号石川ビル３Ｆ西,,03,201,0200024,,,,,,,2023-11-06,1,,,,,オボ,0
310,1420001018469,新規,0,2023-11-06,2023-11-06,株式会社岩木温泉,,株式会社,青森県,黒石市,袋井２丁目３３番地１,,02,204,0360355,,,,,,,2023-11-06,1,,,,,イワキオンセン,0
317,1430001090285,新規,0,2023-11-06,2023-11-06,株式会社ＦＰＳ,,株式会社,北海道,札幌市中央区,南九条西３丁目１番２８号レジデンスセゾン９０８号,,01,101,0640809,,,,,,,2023-11-06,1,,,,,エフピーエス,0
318,1430001090327,新規,0,2023-11-06,2023-11-06,株式会社Ｔ’ｓ　Ｍｉｎｄ,,株式会社,北海道,恵庭市,相生町２丁目８番１６号,,01,231,0611448,,,,,,,2023-11-06,1,,,,,ティーズマインド,0
319,1430001090343,新規,0,2023-11-06,2023-11-06,株式会社Ｇｒｅｅｎ　Ｌｉｆｅ,,株式会社,北海道,札幌市中央区,南二条西９丁目１番地１,,01,101,0600062,,,,,,,2023-11-06,1,,,,,グリーンライフ,0
322,1430003015538,新規,0,2023-11-06,2023-11-06,イクシー合同会社,,合同会社,北海道,札幌市中央区,北二条西２丁目３２番地,,01,101,0600002,,,,,,,2023-11-06,1,,,,,イクシー,0
325,1450001014135,新規,0,2023-11-06,2023-11-06,株式会社Ｋ‐ｓｅｌｅｃｔ,,株式会社,北海道,旭川市,旭岡６丁目６番地の４,,01,204,0700822,,,,,,,2023-11-06,1,,,,,ケーセレクト,0
328,1470001019875,新規,0,2023-11-06,2023-11-06,株式会社クリプト,,株式会社,香川県,高松市,西町６番４－７０１号,,37,201,7600003,,,,,,,2023-11-06,1,,,,,クリプト,0
339,1500001025291,新規,0,2023-11-06,2023-11-06,株式会社ＹＴ,,株式会社,愛媛県,松山市,祝谷２丁目１０番７号,,38,201,7900833,,,,,,,2023-11-06,1,,,,,ワイティー,0
343,1700150121383,新規,0,2023-11-06,2023-10-25,事務組合　Ｅ－Ｕｎｉｏｎ,,その他,大阪府,枚方市,池之宮１丁目２－８,,27,210,5730005,,,,,,,2023-10-25,1,,,,,ジムクミアイイーユニオン,0
349,2010001239733,新規,0,2023-11-06,2023-11-06,趣味勉強株式会社,,株式会社,東京都,中央区,銀座１丁目１２番４号Ｎ＆ＥＢＬＤ．６Ｆ,,13,102,1040061,,,,,,,2023-11-06,1,,,,,シュミベンキョウ,0
353,2010003042136,新規,0,2023-11-06,2023-11-06,ヒミツラボ合同会社,,合同会社,東京都,中央区,日本橋室町１丁目１１番１２号日本橋水野ビル７階,,13,102,1030022,,,,,,,2023-11-06,1,,,,,ヒミツラボ,0
356,2010005037472,新規,0,2023-11-06,2023-11-06,一般社団法人にっぽん文化応援団,,その他の設立登記法人,東京都,中央区,佃１丁目２番１０号,,13,102,1040051,,,,,,,2023-11-06,1,,,,,ニッポンブンカオウエンダン,0
363,2010501051299,新規,0,2023-11-06,2023-11-06,株式会社ＮＥＷＡＶＥ　ＬＯＧＩ,,株式会社,東京都,台東区,上野３丁目１６－２、３１２号,,13,106,1100005,,,,,,,2023-11-06,1,,,,,ニューウェーブロジ,0
370,2010701045076,新規,0,2023-11-06,2023-11-06,株式会社ｉＫＵＲＡ　Ｄｅｓｉｇｎ＆Ｓｏｌｕｔｉｏｎｓ,,株式会社,東京都,品川区,西五反田２丁目１３番５号,,13,109,1410031,,,,,,,2023-11-06,1,,,,,イクラデザインアンドソリューションズ,0
371,2010701045084,新規,0,2023-11-06,2023-11-06,株式会社ノワール,,株式会社,東京都,品川区,北品川５丁目５－１５大崎ブライトコア４階ＳＨＩＰ,,13,109,1410001,,,,,,,2023-11-06,1,,,,,ノワール,0
375,2010901054133,新規,0,2023-11-06,2023-11-06,セカンドセイバーＹＫ株式会社,,株式会社,東京都,世田谷区,宇奈根１丁目８番８号,,13,112,1570068,,,,,,,2023-11-06,1,,,,,セカンドセイバーワイケー,0
384,2011001157917,新規,0,2023-11-06,2023-11-06,株式会社ＴＯＫＹＯＴＡＮＧＴＡＮＧ,,株式会社,東京都,目黒区,上目黒３丁目１４番２３号,,13,110,1530051,,,,,,,2023-11-06,1,,,,,,0
385,2011001157974,新規,0,2023-11-06,2023-11-06,株式会社ＪＬ　Ｃｏｒｐｏｒａｔｉｏｎ,,株式会社,東京都,渋谷区,道玄坂１丁目１０番８号渋谷道玄坂東急ビル２Ｆ－Ｃ,,13,113,1500043,,,,,,,2023-11-06,1,,,,,ジェイエルコーポレーション,0
386,2011001158007,新規,0,2023-11-06,2023-11-06,Ｌｉｃｏｒｅ株式会社,,株式会社,東京都,渋谷区,広尾１丁目１４番１５号,,13,113,1500012,,,,,,,2023-11-06,1,,,,,リコレ,0
387,2011001158015,新規,0,2023-11-06,2023-11-06,株式会社ノウコ,,株式会社,東京都,目黒区,中目黒１丁目８番１号２Ｆ,,13,110,1530061,,,,,,,2023-11-06,1,,,,,ノウコ,0
388,2011001158122,新規,0,2023-11-06,2023-11-06,株式会社テックリードエージェント,,株式会社,東京都,渋谷区,神泉町２０－２１クロスシー渋谷神泉ビル,,13,113,1500045,,,,,,,2023-11-06,1,,,,,テックリードエージェント,0
400,2011101105008,新規,0,2023-11-06,2023-11-06,中央電設株式会社,,株式会社,東京都,新宿区,東五軒町４番１４号,,13,104,1620813,,,,,,,2023-11-06,1,,,,,チュウオウデンセツ,0
401,2011101105040,新規,0,2023-11-06,2023-11-06,株式会社Ｙ,,株式会社,東京都,新宿区,西新宿７丁目２２番２７号,,13,104,1600023,,,,,,,2023-11-06,1,,,,,ワイ,0
405,2011103013679,新規,0,2023-11-06,2023-11-06,合同会社ＴＵ２０,,合同会社,東京都,新宿区,四谷２丁目９番地１５東京ユナイテッド綜合事務所内,,13,104,1600004,,,,,,,2023-11-06,1,,,,,ティーユーニジュウ,0
406,2011103013687,新規,0,2023-11-06,2023-11-06,合同会社ＴＵ２８,,合同会社,東京都,新宿区,四谷２丁目９番地１５東京ユナイテッド綜合事務所内,,13,104,1600004,,,,,,,2023-11-06,1,,,,,ティーユーニジュウハチ,0
407,2011103013695,新規,0,2023-11-06,2023-11-06,合同会社Ｏｃｅａｎ,,合同会社,東京都,新宿区,西新宿３丁目３番１３号,,13,104,1600023,,,,,,,2023-11-06,1,,,,,オーシャン,0
409,2011105010831,新規,0,2023-11-06,2023-11-06,一般社団法人ＴＵ２０,,その他の設立登記法人,東京都,新宿区,四谷２丁目９番地１５東京ユナイテッド綜合事務所内,,13,104,1600004,,,,,,,2023-11-06,1,,,,,ティーユーニジュウ,0
410,2011105010848,新規,0,2023-11-06,2023-11-06,一般社団法人民俗文化興隆協会,,その他の設立登記法人,東京都,新宿区,西新宿３丁目３番１３号西新宿水間ビル２階,,13,104,1600023,,,,,,,2023-11-06,1,,,,,ミンゾクブンカコウリュウキョウカイ,0
413,2011201025023,新規,0,2023-11-06,2023-11-06,株式会社ＨＩＬＯ　ＥＮＴＥＲＰＲＩＺＥ,,株式会社,東京都,中野区,弥生町３丁目３４番８号,,13,114,1640013,,,,,,,2023-11-06,1,,,,,ヒロエンタープライズ,0
414,2011301029147,新規,0,2023-11-06,2023-11-06,エスイーコンサルティング株式会社,,株式会社,東京都,杉並区,今川２丁目２４－１,,13,115,1670035,,,,,,,2023-11-06,1,,,,,エスイーコンサルティング,0
420,2011601027239,新規,0,2023-11-06,2023-11-06,株式会社Ｍ２ＬＩＶＥ,,株式会社,東京都,練馬区,石神井台７丁目７番１１号シャロン武蔵関３０１,,13,120,1770045,,,,,,,2023-11-06,1,,,,,エムツーライブ,0
421,2011601027247,新規,0,2023-11-06,2023-11-06,株式会社エーワークス,,株式会社,東京都,練馬区,西大泉５丁目２７番１０号ＪＵＬＩＥＴ４０１,,13,120,1780065,,,,,,,2023-11-06,1,,,,,エーワークス,0
422,2011603004120,新規,0,2023-11-06,2023-11-06,合同会社ＴＦベータ,,合同会社,東京都,練馬区,氷川台４丁目４７番１８号,,13,120,1790084,,,,,,,2023-11-06,1,,,,,ティーエフベータ,0
427,2012401041181,新規,0,2023-11-06,2023-11-06,株式会社ＦＵＫＵＴＡＭＡ　Ｈ＆Ｂ　Ｌａｂ．,,株式会社,東京都,武蔵野市,吉祥寺北町１丁目１８番１－６０２号雅マンション,,13,203,1800001,,,,,,,2023-11-06,1,,,,,フクタマエイチアンドビーラボ,0
439,2020001154262,新規,0,2023-11-06,2023-11-06,株式会社ＤＡＩＹＡ,,株式会社,神奈川県,川崎市川崎区,池上新町２丁目６番５‐２号,,14,131,2100832,,,,,,,2023-11-06,1,,,,,ダイヤ,0
440,2020003024901,新規,0,2023-11-06,2023-11-06,合同会社Ｓｕｚｕ,,合同会社,神奈川県,横浜市西区,平沼１丁目３０番７－５Ｃ号,,14,103,2200023,,,,,,,2023-11-06,1,,,,,スズ,0
441,2020003024950,新規,0,2023-11-06,2023-11-06,合同会社スタジオ景虎,,合同会社,神奈川県,川崎市宮前区,菅生２丁目３１番２０号,,14,136,2160015,,,,,,,2023-11-06,1,,,,,スタジオカゲトラ,0
460,2030001157009,新規,0,2023-11-06,2023-11-06,株式会社ＡＴＲＡＳＳ,,株式会社,埼玉県,さいたま市南区,白幡３丁目１０番６号,,11,108,3360022,,,,,,,2023-11-06,1,,,,,アトラス,0
463,2030003022937,新規,0,2023-11-06,2023-11-06,合同会社ホワイト,,合同会社,埼玉県,さいたま市南区,松本１丁目１０番５－４０５号,,11,108,3360035,,,,,,,2023-11-06,1,,,,,ホワイト,0
473,2040001130798,新規,0,2023-11-06,2023-11-06,株式会社Ｉ＆Ｂ,,株式会社,千葉県,柏市,高柳１９２５番地１１,,12,217,2770941,,,,,,,2023-11-06,1,,,,,アイアンドビー,0
486,2070001041051,新規,0,2023-11-06,2023-11-06,株式会社明治デリカ東部,,株式会社,群馬県,伊勢崎市,富塚町２３３番地１７,,10,204,3720833,,,,,,,2023-11-06,1,,,,,メイジデリカトウブ,0
490,2080401026816,新規,0,2023-11-06,2023-11-06,アイロジ株式会社,,株式会社,静岡県,袋井市,鷲巣１５番地の２０,,22,216,4370017,,,,,,,2023-11-06,1,,,,,アイロジ,0
498,2100005013092,新規,0,2023-11-06,2023-11-06,医療法人社団ＴａａＫ,,その他の設立登記法人,長野県,北安曇郡白馬村,大字北城字新田３０２０番１３９３,,20,485,3999301,,,,,,,2023-11-06,1,,,,,ターク,0
506,2120001259274,新規,0,2023-11-06,2023-11-06,株式会社ボナトロワ,,株式会社,大阪府,大阪市西区,西本町１丁目８番２号,,27,106,5500005,,,,,,,2023-11-06,1,,,,,ボナトロワ,0
507,2120001259431,新規,0,2023-11-06,2023-11-06,株式会社ＥＮ‐ＳＴＥＰ,,株式会社,大阪府,守口市,八雲東町１丁目２２－１,,27,209,5700021,,,,,,,2023-11-06,1,,,,,エンステップ,0
508,2120001259489,新規,0,2023-11-06,2023-11-06,早稻田博学教育株式会社,,株式会社,大阪府,大阪市北区,天満橋１丁目４－１４天満橋ビル２０１室,,27,127,5300042,,,,,,,2023-11-06,1,,,,,ワセダハクガクキョウイク,0
509,2120001259506,新規,0,2023-11-06,2023-11-06,株式会社関西ロケーションサービス,,株式会社,大阪府,大阪市北区,天神橋４丁目８番２５号長田ビル３０６号,,27,127,5300041,,,,,,,2023-11-06,1,,,,,カンサイロケーションサービス,0
510,2120001259563,新規,0,2023-11-06,2023-11-06,次世代株式会社,,株式会社,大阪府,大阪市旭区,高殿３丁目４番９号,,27,117,5350031,,,,,,,2023-11-06,1,,,,,ジセダイ,0
511,2120001259596,新規,0,2023-11-06,2023-11-06,株式会社ワークボックス,,株式会社,大阪府,大阪市生野区,中川東２丁目２０番２号,,27,116,5440006,,,,,,,2023-11-06,1,,,,,ワークボックス,0
512,2120001259662,新規,0,2023-11-06,2023-11-06,ＦＲキャピタル株式会社,,株式会社,大阪府,大阪市中央区,北久宝寺町２丁目１番１０号,,27,128,5410057,,,,,,,2023-11-06,1,,,,,エフアールキャピタル,0
519,2120003025179,新規,0,2023-11-06,2023-11-06,アマテラス合同会社,,合同会社,大阪府,大阪市住吉区,山之内３丁目５－２７－４０５,,27,120,5580023,,,,,,,2023-11-06,1,,,,,アマテラス,0
520,2120003025278,新規,0,2023-11-06,2023-11-06,合同会社新栄商事,,合同会社,大阪府,大阪市住吉区,帝塚山中４丁目４番８号,,27,120,5580053,,,,,,,2023-11-06,1,,,,,シンエイショウジ,0
521,2120005023973,新規,0,2023-11-06,2023-11-06,一般社団法人日本愛犬家エキスパート検定協会,,その他の設立登記法人,大阪府,大阪市西区,江戸堀１丁目２３番１１号,,27,106,5500002,,,,,,,2023-11-06,1,,,,,ニホンアイケンカエキスパートケンテイキョウカイ,0
523,2120101068492,新規,0,2023-11-06,2023-11-06,スマイルモア株式会社,,株式会社,大阪府,岸和田市,小松里町２１１０番地２０３号,,27,202,5960821,,,,,,,2023-11-06,1,,,,,スマイルモア,0
524,2120103005519,新規,0,2023-11-06,2023-11-06,合同会社清平,,合同会社,大阪府,和泉市,池田下町１７０６番地,,27,219,5940032,,,,,,,2023-11-06,1,,,,,セイベイ,0
526,2120901048306,新規,0,2023-11-06,2023-11-06,株式会社山本電工舎,,株式会社,大阪府,吹田市,佐井寺１丁目２６番１２号,,27,205,5650836,,,,,,,2023-11-06,1,,,,,ヤマモトデンコウシャ,0
528,2122001037536,新規,0,2023-11-06,2023-11-06,Ｃ‐ｓｐａｃｅ株式会社,,株式会社,大阪府,八尾市,田井中１丁目１０４番地,,27,212,5810095,,,,,,,2023-11-06,1,,,,,シースペース,0
529,2122005003716,新規,0,2023-11-06,2023-11-06,一般社団法人こども未来プロジェクト,,その他の設立登記法人,大阪府,東大阪市,六万寺町１丁目２２番１２号,,27,227,5798061,,,,,,,2023-11-06,1,,,,,コドモミライプロジェクト,0
547,2140001132207,新規,0,2023-11-06,2023-11-06,株式会社ＪＯＧ,,株式会社,兵庫県,宝塚市,光明町３０番７号,,28,214,6650045,,,,,,,2023-11-06,1,,,,,ジェイオージー,0
548,2140001132223,新規,0,2023-11-06,2023-11-06,株式会社岩鼻商店,,株式会社,兵庫県,淡路市,大谷１１９４番地６,,28,226,6562224,,,,,,,2023-11-06,1,,,,,イワハナショウテン,0
549,2140001132248,新規,0,2023-11-06,2023-11-06,株式会社Ｔ’ｓ　Ｆａｃｔｏｒｙ,,株式会社,兵庫県,尼崎市,久々知西町２丁目１番１５号,,28,202,6610978,,,,,,,2023-11-06,1,,,,,ティーズファクトリー,0
564,2170001017867,新規,0,2023-11-06,2023-11-06,株式会社リアルターオフィス,,株式会社,和歌山県,田辺市,朝日ヶ丘９番１５号,,30,206,6460027,,,,,,,2023-11-06,1,,,,,リアルターオフィス,0
565,2170003001943,新規,0,2023-11-06,2023-11-06,合同会社龍豊,,合同会社,和歌山県,岩出市,吉田９２番地の１４,00132518,30,209,6496246,,,,,,,2023-11-06,1,,,,,タツトヨ,0
576,2180001158660,新規,0,2023-11-06,2023-11-06,株式会社ＨＥＲＥＳＴ,,株式会社,愛知県,名古屋市西区,城西４丁目２７－２０ＳＫビル城西３０２号,,23,104,4510031,,,,,,,2023-11-06,1,,,,,ハレスト,0
577,2180001158792,新規,0,2023-11-06,2023-11-06,ケイプラス不動産株式会社,,株式会社,愛知県,瀬戸市,東赤重町２丁目９０番地の１,,23,204,4890877,,,,,,,2023-11-06,1,,,,,ケイプラスフドウサン,0
578,2180001158842,新規,0,2023-11-06,2023-11-06,株式会社ノーリツモビリティ,,株式会社,愛知県,名古屋市中区,金山５丁目１８番３０号,,23,106,4600022,,,,,,,2023-11-06,1,,,,,ノーリツモビリティ,0
579,2180001158850,新規,0,2023-11-06,2023-11-06,株式会社総建サービス,,株式会社,愛知県,名古屋市千種区,下方町７丁目３４番地の３（リムロックハウス覚王山２Ａ号）,,23,101,4640096,,,,,,,2023-11-06,1,,,,,ソウケンサービス,0
587,2180003025958,新規,0,2023-11-06,2023-11-06,合同会社リッチライフ,,合同会社,愛知県,名古屋市中区,錦３丁目１５番１１号セントヒサヤビル１２Ｆ,,23,106,4600003,,,,,,,2023-11-06,1,,,,,リッチライフ,0
594,2200001041871,新規,0,2023-11-06,2023-11-06,株式会社絆,,株式会社,岐阜県,高山市,下岡本町１３５７番地１,,21,203,5060052,,,,,,,2023-11-06,1,,,,,キズナ,0
597,2210001019537,新規,0,2023-11-06,2023-11-06,株式会社ＫＯＵＧＡ,,株式会社,福井県,福井市,江端町第１１号１５番地シャンパーニュ江端ＩＩＩ３０１号室,00132519,18,201,9188016,,,,,,,2023-11-06,1,,,,,コウガ,0
600,2230001020088,新規,0,2023-11-06,2023-11-06,株式会社タカダ,,株式会社,富山県,射水市,桜町１０番２５号,,16,211,9340015,,,,,,,2023-11-06,1,,,,,タカダ,0
606,2240001062377,新規,0,2023-11-06,2023-11-06,ＥＣＯミサワボーリング株式会社,,株式会社,広島県,三次市,向江田町２９６番地１,,34,209,7296202,,,,,,,2023-11-06,1,,,,,エコミサワボーリング,0
607,2240003006398,新規,0,2023-11-06,2023-11-06,Ａｄｅｌａｎｔｅ　ＦＰ合同会社,,合同会社,広島県,広島市安佐南区,八木９丁目９番５５号,,34,105,7310101,,,,,,,2023-11-06,1,,,,,アデランテエフピー,0
610,2260001038474,新規,0,2023-11-06,2023-11-06,株式会社ストレール,,株式会社,岡山県,倉敷市,川入６１７番地１－４－１０３,,33,202,7100811,,,,,,,2023-11-06,1,,,,,ストレール,0
613,2280001009060,新規,0,2023-11-06,2023-11-06,株式会社サトウ建塗,,株式会社,島根県,大田市,三瓶町小屋原８１４番地２,,32,205,6940224,,,,,,,2023-11-06,1,,,,,サトウケント,0
616,2290001103589,新規,0,2023-11-06,2023-11-06,株式会社スリーアール,,株式会社,福岡県,福岡市中央区,平尾浄水町１０番１７－４０５号,,40,133,8100029,,,,,,,2023-11-06,1,,,,,スリーアール,0
619,2290003014578,新規,0,2023-11-06,2023-11-06,シュタットマインツ合同会社,,合同会社,福岡県,福岡市中央区,赤坂２丁目２番１０－５０５号,,40,133,8100042,,,,,,,2023-11-06,1,,,,,シュタットマインツ,0
621,2290005019187,新規,0,2023-11-06,2023-11-06,一般社団法人ペガサス会,,その他の設立登記法人,福岡県,福岡市中央区,赤坂１丁目１４番２２号センチュリー赤坂門ビル７ＦＡｌｖｉｓ税理士法人事務所内,,40,133,8100042,,,,,,,2023-11-06,1,,,,,ペガサスカイ,0
623,2290801030009,新規,0,2023-11-06,2023-11-06,株式会社ゼロワン建装,,株式会社,福岡県,北九州市戸畑区,浅生３丁目２番２６号,,40,105,8040062,,,,,,,2023-11-06,1,,,,,ゼロワンケンソウ,0
625,2310001018693,新規,0,2023-11-06,2023-11-06,株式会社ＲＣワークス,,株式会社,長崎県,西彼杵郡長与町,平木場郷１６７４番地１,,42,307,8512123,,,,,,,2023-11-06,1,,,,,アールシーワークス,0
628,2330001031422,新規,0,2023-11-06,2023-11-06,株式会社ＳＨＥＥＰ　ＨＯＲＵＳ,,株式会社,熊本県,熊本市中央区,新市街１番２８号ＴＨＥＰＬＡＣＥ花畑ビル６階,,43,101,8600803,,,,,,,2023-11-06,1,,,,,シープホルス,0
629,2330003010060,新規,0,2023-11-06,2023-11-06,合同会社みと丸,,合同会社,熊本県,天草市,倉岳町宮田１２１４番地,,43,215,8616403,,,,,,,2023-11-06,1,,,,,ミトマル,0
632,2340003004301,新規,0,2023-11-06,2023-11-06,合同会社カチアガル,,合同会社,鹿児島県,薩摩川内市,中郷町５８８１番地３,,46,215,8950072,,,,,,,2023-11-06,1,,,,,カチアガル,0
637,2360001032780,新規,0,2023-11-06,2023-11-06,株式会社ＫＭＫ,,株式会社,沖縄県,那覇市,上之屋１丁目３番地２５－１００２号コンフォート新都心,,47,201,9000011,,,,,,,2023-11-06,1,,,,,ケーエムケー,0
641,2370001050583,新規,0,2023-11-06,2023-11-06,奥洲ホールディングス株式会社,,株式会社,宮城県,東松島市,小松字上二間堀１７６番地,,04,214,9810504,,,,,,,2023-11-06,1,,,,,オウシュウホールディングス,0
642,2370001050600,新規,0,2023-11-06,2023-11-06,株式会社Ａ‐クリエイト,,株式会社,宮城県,宮城郡七ヶ浜町,花渕浜字天神堂６－９,,04,404,9850803,,,,,,,2023-11-06,1,,,,,エークリエイト,0
646,2370003006352,新規,0,2023-11-06,2023-11-06,合同会社１７,,合同会社,宮城県,仙台市青葉区,本町１丁目５番２８号カーニープレイス仙台駅前通６０３号,,04,101,9800014,,,,,,,2023-11-06,1,,,,,イチナナ,0
654,2390001017416,新規,0,2023-11-06,2023-11-06,株式会社自然満喫屋,,株式会社,山形県,山形市,江俣４丁目１８番４３号,,06,201,9900861,,,,,,,2023-11-06,1,,,,,シゼンマンキツヤ,0
656,2400001016449,新規,0,2023-11-06,2023-11-06,株式会社樹空,,株式会社,岩手県,盛岡市,西仙北２丁目２番１号,,03,201,0200864,,,,,,,2023-11-06,1,,,,,キソラ,0
659,2400003003172,新規,0,2023-11-06,2023-11-06,合同会社いわてグリーンエナジー,,合同会社,岩手県,盛岡市,みたけ５丁目１５－１２,,03,201,0200122,,,,,,,2023-11-06,1,,,,,イワテグリーンエナジー,0
669,2430001090334,新規,0,2023-11-06,2023-11-06,株式会社ＭＩＴＡＳＵ,,株式会社,北海道,札幌市中央区,南二十一条西１２丁目１番１６号,,01,101,0640921,,,,,,,2023-11-06,1,,,,,ミタス,0
675,2440001009341,新規,0,2023-11-06,2023-11-06,株式会社ソダツクル,,株式会社,北海道,茅部郡森町,字森川町２７８－１０２－１,,01,345,0492313,,,,,,,2023-11-06,1,,,,,ソダツクル,0
678,2450001014134,新規,0,2023-11-06,2023-11-06,株式会社Ｍｏｒｖ　Ｃｉｔｙ,,株式会社,北海道,旭川市,末広二条１４丁目５番８号,,01,204,0718132,,,,,,,2023-11-06,1,,,,,モーヴシティー,0
686,2480001012283,新規,0,2023-11-06,2023-11-06,株式会社ニッケン,,株式会社,徳島県,鳴門市,撫養町小桑島字日向谷１６４番地３,,36,202,7720012,,,,,,,2023-11-06,1,,,,,ニッケン,0
690,2500001025299,新規,0,2023-11-06,2023-11-06,株式会社オーベルジュ藤本,,株式会社,愛媛県,今治市,伯方町木浦甲３８７－１,,38,202,7942305,,,,,,,2023-11-06,1,,,,,オーベルジュフジモト,0
699,3010003042119,新規,0,2023-11-06,2023-11-06,合同会社クローバー２０２４,,合同会社,東京都,千代田区,丸の内３丁目１番１号東京共同会計事務所内,,13,101,1000005,,,,,,,2023-11-06,1,,,,,クローバーニセンニジュウヨン,0
721,3011001158014,新規,0,2023-11-06,2023-11-06,ときめきスタジオ株式会社,,株式会社,東京都,渋谷区,円山町５番５号Ｎａｖｉ渋谷Ｖ３階,,13,113,1500044,,,,,,,2023-11-06,1,,,,,トキメキスタジオ,0
722,3011001158039,新規,0,2023-11-06,2023-11-06,株式会社３６６日の食卓,,株式会社,東京都,目黒区,自由が丘１丁目３番１５号ＢＩＳビル４階,,13,110,1520035,,,,,,,2023-11-06,1,,,,,サンビャクロクジュウロクニチノショクタク,0
728,3011103013678,新規,0,2023-11-06,2023-11-06,合同会社ＴＵ１９,,合同会社,東京都,新宿区,四谷２丁目９番地１５東京ユナイテッド綜合事務所内,,13,104,1600004,,,,,,,2023-11-06,1,,,,,ティーユージュウキュウ,0
729,3011103013686,新規,0,2023-11-06,2023-11-06,合同会社ＴＵ２７,,合同会社,東京都,新宿区,四谷２丁目９番地１５東京ユナイテッド綜合事務所内,,13,104,1600004,,,,,,,2023-11-06,1,,,,,ティーユーニジュウナナ,0
730,3011103013711,新規,0,2023-11-06,2023-11-06,合同会社ドラゴン,,合同会社,東京都,新宿区,下落合１丁目１番１号トキワパレス５０９号室,,13,104,1610033,,,,,,,2023-11-06,1,,,,,ドラゴン,0
732,3011105010830,新規,0,2023-11-06,2023-11-06,一般社団法人ＴＵ１９,,その他の設立登記法人,東京都,新宿区,四谷２丁目９番地１５東京ユナイテッド綜合事務所内,,13,104,1600004,,,,,,,2023-11-06,1,,,,,ティーユージュウキュウ,0
733,3011105010839,新規,0,2023-11-06,2023-11-06,一般社団法人ＴＵ２８,,その他の設立登記法人,東京都,新宿区,四谷２丁目９番地１５東京ユナイテッド綜合事務所内,,13,104,1600004,,,,,,,2023-11-06,1,,,,,ティーユーニジュウハチ,0
734,3011301029146,新規,0,2023-11-06,2023-11-06,株式会社ＣＲＡＣＫ　ＷＯＲＫＳ,,株式会社,東京都,杉並区,和泉３丁目６－８－３０７,,13,115,1680063,,,,,,,2023-11-06,1,,,,,クラックワークス,0
736,3011601027246,新規,0,2023-11-06,2023-11-06,株式会社Ｓ．Ｐ．Ｏ,,株式会社,東京都,練馬区,関町北４丁目２番１３号コスモスビル２０６号室,,13,120,1770051,,,,,,,2023-11-06,1,,,,,エスピーオー,0
738,3011801043233,新規,0,2023-11-06,2023-11-06,株式会社ＴＲＩＬＬＩＯＮ　ＧＡＭＩＮＧ,,株式会社,東京都,葛飾区,西新小岩４丁目１４番３号メゾン・ド・メイ１０１号室,,13,122,1240025,,,,,,,2023-11-06,1,,,,,トリリオンゲーミング,0
739,3011801043241,新規,0,2023-11-06,2023-11-06,ＴＳソフトウェア株式会社,,株式会社,東京都,足立区,本木東町１５番１４号,,13,121,1230854,,,,,,,2023-11-06,1,,,,,ティーエスソフトウェア,0
740,3011803005917,新規,0,2023-11-06,2023-11-06,マーベリッククリエイト合同会社,,合同会社,東京都,葛飾区,亀有１丁目２８番地８,,13,122,1250061,,,,,,,2023-11-06,1,,,,,マーベリッククリエイト,0
755,3020001154278,新規,0,2023-11-06,2023-11-06,株式会社ＣＲＡＦＴＥＤ　ＪＡＰＡＮ,,株式会社,神奈川県,横浜市青葉区,あざみ野４丁目１８番地３２,,14,117,2250011,,,,,,,2023-11-06,1,,,,,クラフテッドジャパン,0
756,3020001154294,新規,0,2023-11-06,2023-11-06,株式会社クレイス,,株式会社,神奈川県,横浜市旭区,本宿町６９番地１リベレンス二俣川１０５,,14,112,2410023,,,,,,,2023-11-06,1,,,,,クレイス,0
757,3020001154311,新規,0,2023-11-06,2023-11-06,株式会社コウタク工業,,株式会社,神奈川県,川崎市川崎区,桜本２丁目２６番２号,,14,131,2100833,,,,,,,2023-11-06,1,,,,,コウタクコウギョウ,0
758,3020001154360,新規,0,2023-11-06,2023-11-06,株式会社上建,,株式会社,神奈川県,横浜市緑区,白山２丁目４番１９号マイキャッスル横浜白山６０４,,14,113,2260006,,,,,,,2023-11-06,1,,,,,ウエケン,0
762,3020003024909,新規,0,2023-11-06,2023-11-06,合同会社トールグランデ,,合同会社,神奈川県,川崎市麻生区,白山４丁目１－１－３２０,,14,137,2150014,,,,,,,2023-11-06,1,,,,,トールグランデ,0
764,3020005016169,新規,0,2023-11-06,2023-11-06,一般社団法人日本リメディアルマッサージ・セラピー協会,,その他の設立登記法人,神奈川県,川崎市幸区,中幸町３丁目１２番地,,14,132,2120012,,,,,,,2023-11-06,1,,,,,ニッポンリメディアルマッサージセラピーキョウカイ,0
784,3030001157057,新規,0,2023-11-06,2023-11-06,株式会社小林鉄工所,,株式会社,埼玉県,深谷市,岡３８１５番地２,,11,218,3690201,,,,,,,2023-11-06,1,,,,,コバヤシテッコウジョ,0
794,3040001130789,新規,0,2023-11-06,2023-11-06,株式会社Ｅｐｉｃ　Ｍａｒｋｅｔｉｎｇ,,株式会社,千葉県,浦安市,高州六丁目２番３－２０３号,,12,227,2790000,,,,,,,2023-11-06,1,,,,,エピックマーケティング,0
795,3040001130814,新規,0,2023-11-06,2023-11-06,株式会社ＥＴ．ＤＡＹ,,株式会社,千葉県,市川市,大和田１丁目１番１号イオンタウン市川大和田,,12,203,2720025,,,,,,,2023-11-06,1,,,,,イーティーデイ,0
801,3050001053691,新規,0,2023-11-06,2023-11-06,株式会社サンカンパニー,,株式会社,茨城県,筑西市,直井４８０番地１,,08,227,3080803,,,,,,,2023-11-06,1,,,,,サンカンパニー,0
805,3060001036530,新規,0,2023-11-06,2023-11-06,株式会社ＧＡＲＡＧＥ　ＭＴ,,株式会社,栃木県,宇都宮市,宝木本町１６３２番地３,,09,201,3200075,,,,,,,2023-11-06,1,,,,,ガレージエムティ,0
812,3080401026823,新規,0,2023-11-06,2023-11-06,株式会社プラススリー,,株式会社,静岡県,掛川市,下垂木１２２７番地の６,,22,213,4360222,,,,,,,2023-11-06,1,,,,,プラススリー,0
816,3100001036922,新規,0,2023-11-06,2023-11-06,清亜ファシリティ・エンヂニアリング株式会社,,株式会社,長野県,松本市,大字笹賀６５３１番地１８,,20,202,3990033,,,,,,,2023-11-06,1,,,,,セイアファシリティエンヂニアリング,0
817,3100001036939,新規,0,2023-11-06,2023-11-06,株式会社ＣＡＴＯＲＣＥ,,株式会社,長野県,上田市,上野３９７－１,,20,203,3860003,,,,,,,2023-11-06,1,,,,,カトルセ,0
820,3100005013075,新規,0,2023-11-06,2023-11-06,一般社団法人安曇野食品総合研究所,,その他の設立登記法人,長野県,安曇野市,穂高北穂高２８３３番地１,,20,220,3998302,,,,,,,2023-11-06,1,,,,,アズミノショクヒンソウゴウケンキュウジョ,0
822,3100005013091,新規,0,2023-11-06,2023-11-06,医療法人榮知会,,その他の設立登記法人,長野県,上田市,本郷６０４番地２,,20,203,3861323,,,,,,,2023-11-06,1,,,,,エイチカイ,0
824,3110001037944,新規,0,2023-11-06,2023-11-06,株式会社Ｊホールディングス,,株式会社,新潟県,新潟市中央区,万代１丁目３番１０号万代Ｊビルディング７階,,15,103,9500088,,,,,,,2023-11-06,1,,,,,ジェイホールディングス,0
827,3110005017018,新規,0,2023-11-06,2023-11-06,一般社団法人新潟県アウトドア協会,,その他の設立登記法人,新潟県,新潟市中央区,神道寺南２丁目３番２６号,,15,103,9500986,,,,,,,2023-11-06,1,,,,,ニイガタケンアウトドアキョウカイ,0
836,3120001259331,新規,0,2023-11-06,2023-11-06,株式会社ステラピス,,株式会社,大阪府,枚方市,香里園町１１番５号,,27,210,5730086,,,,,,,2023-11-06,1,,,,,ステラピス,0
837,3120001259430,新規,0,2023-11-06,2023-11-06,株式会社ＮＹＳ,,株式会社,大阪府,大阪市北区,曾根崎２丁目８番５号,,27,127,5300057,,,,,,,2023-11-06,1,,,,,エヌワイエス,0
838,3120001259488,新規,0,2023-11-06,2023-11-06,カレブ株式会社,,株式会社,大阪府,大阪市西区,新町２丁目１７番２１号,,27,106,5500013,,,,,,,2023-11-06,1,,,,,カレブ,0
839,3120001259496,新規,0,2023-11-06,2023-11-06,株式会社ＡＧＬＡＩ,,株式会社,大阪府,大阪市中央区,南久宝寺町３丁目２－６－１２０７,,27,128,5410058,,,,,,,2023-11-06,1,,,,,アグライ,0
840,3120001259587,新規,0,2023-11-06,2023-11-06,ＫＩＣＥＫＩ株式会社,,株式会社,大阪府,大阪市阿倍野区,阿倍野筋１丁目１番４３号あべのハルカス３１階,,27,119,5450052,,,,,,,2023-11-06,1,,,,,キセキ,0
841,3120001259637,新規,0,2023-11-06,2023-11-06,株式会社Ｍｕｇｉ　Ｂａｃｈ,,株式会社,大阪府,大阪市北区,中崎１丁目６番１４－１２１０号,,27,127,5300016,,,,,,,2023-11-06,1,,,,,ムギバック,0
844,3120003025285,新規,0,2023-11-06,2023-11-06,合同会社ｓｅｎｔｅｎｃｅ,,合同会社,大阪府,大阪市淀川区,西中島４丁目３－４－９０３,,27,123,5320011,,,,,,,2023-11-06,1,,,,,センテンス,0
846,3120005023972,新規,0,2023-11-06,2023-11-06,一般社団法人サード・プレイス,,その他の設立登記法人,大阪府,寝屋川市,高宮あさひ丘２３番２３号,,27,215,5720867,,,,,,,2023-11-06,1,,,,,サードプレイス,0
850,3120103005518,新規,0,2023-11-06,2023-11-06,ＨＯＮＴＡＫＥ合同会社,,合同会社,大阪府,泉南郡熊取町,小谷南２丁目１８番１７号,,27,361,5900435,,,,,,,2023-11-06,1,,,,,ホンタケ,0
851,3120901048296,新規,0,2023-11-06,2023-11-06,株式会社春伸,,株式会社,大阪府,豊能郡能勢町,下田８７番地の１７,,27,322,5630355,,,,,,,2023-11-06,1,,,,,ハルノブ,0
859,3130001075604,新規,0,2023-11-06,2023-11-06,株式会社山洋,,株式会社,京都府,京田辺市,大住岡村５６番地,,26,211,6100343,,,,,,,2023-11-06,1,,,,,サンヨウ,0
860,3130001075620,新規,0,2023-11-06,2023-11-06,株式会社ナカヤマ,,株式会社,京都府,京都市左京区,北白川久保田町５１番地,,26,103,6068266,,,,,,,2023-11-06,1,,,,,ナカヤマ,0
863,3130003009106,新規,0,2023-11-06,2023-11-06,合同会社クリスタル,,合同会社,京都府,向日市,上植野町伴田１２番地の１１,,26,208,6170006,,,,,,,2023-11-06,1,,,,,クリスタル,0
869,3140001132206,新規,0,2023-11-06,2023-11-06,株式会社コージーハウス,,株式会社,兵庫県,川西市,萩原台西１丁目２６７番地,,28,217,6660006,,,,,,,2023-11-06,1,,,,,コージーハウス,0
870,3140001132239,新規,0,2023-11-06,2023-11-06,株式会社Ｖ．Ｃ　ｍａｎａｇｅｍｅｎｔ,,株式会社,兵庫県,洲本市,山手３丁目２番２４号３階,,28,205,6560024,,,,,,,2023-11-06,1,,,,,ブイシーマネジメント,0
871,3140003019764,新規,0,2023-11-06,2023-11-06,合同会社タカツキ・パートナーズ,,合同会社,兵庫県,明石市,本町２丁目６番３０ー１５０２号,,28,203,6730892,,,,,,,2023-11-06,1,,,,,タカツキパートナーズ,0
872,3140005026791,新規,0,2023-11-06,2023-11-06,一般社団法人スニーカーエンジェル,,その他の設立登記法人,兵庫県,宝塚市,光明町２６番４５号,,28,214,6650045,,,,,,,2023-11-06,1,,,,,スニーカーエンジェル,0
873,3150001026860,新規,0,2023-11-06,2023-11-06,株式会社倭Ｌａｂ,,株式会社,奈良県,奈良市,二条町１丁目１番２０－３０７号,,29,201,6308002,,,,,,,2023-11-06,1,,,,,ヤマトラボ,0
881,3180001158767,新規,0,2023-11-06,2023-11-06,株式会社不動産バンク,,株式会社,愛知県,名古屋市東区,葵３丁目１８番１７号サンプレー名古屋ビル８Ｆ－Ｃ号室,,23,102,4610004,,,,,,,2023-11-06,1,,,,,フドウサンバンク,0
882,3180001158817,新規,0,2023-11-06,2023-11-06,ＳＡＮＭＩホールディングス株式会社,,株式会社,愛知県,名古屋市昭和区,山花町１９３番地,,23,107,4660807,,,,,,,2023-11-06,1,,,,,サンミホールディングス,0
883,3180001158825,新規,0,2023-11-06,2023-11-06,株式会社ＡＳＴＯＭ,,株式会社,愛知県,名古屋市北区,柳原４丁目５番１号２階,,23,103,4620845,,,,,,,2023-11-06,1,,,,,アストム,0
884,3180001158833,新規,0,2023-11-06,2023-11-06,株式会社エーステック,,株式会社,愛知県,名古屋市東区,泉２丁目２１番３号司ビル２１３,,23,102,4610001,,,,,,,2023-11-06,1,,,,,エーステック,0
887,3180003025949,新規,0,2023-11-06,2023-11-06,合同会社ベジフル博,,合同会社,愛知県,名古屋市西区,浮野町９７番地の７０,,23,104,4520846,,,,,,,2023-11-06,1,,,,,ベジフルヒロ,0
888,3180003025957,新規,0,2023-11-06,2023-11-06,ＩＣＨＩＤＡ合同会社,,合同会社,愛知県,名古屋市南区,大堀町１６番８号－１,,23,112,4570002,,,,,,,2023-11-06,1,,,,,イチダ,0
893,3190001030867,新規,0,2023-11-06,2023-11-06,株式会社Ｎ,,株式会社,三重県,松阪市,井村町３０８,,24,204,5150817,,,,,,,2023-11-06,1,,,,,エヌ,0
894,3200001041870,新規,0,2023-11-06,2023-11-06,株式会社ＬＡＳ,,株式会社,岐阜県,各務原市,蘇原東栄町２丁目１０３番地１,,21,213,5040815,,,,,,,2023-11-06,1,,,,,エルエーエス,0
896,3210001019536,新規,0,2023-11-06,2023-11-06,株式会社あ,,株式会社,福井県,鯖江市,別司町第２５号６番地４,,18,207,9161225,,,,,,,2023-11-06,1,,,,,ア,0
905,3250001020382,新規,0,2023-11-06,2023-11-06,株式会社ＳＰＲＩＮＧ,,株式会社,山口県,周南市,銀座１丁目１２番地徳山セマディオビル５階,,35,215,7450032,,,,,,,2023-11-06,1,,,,,スプリング,0
908,3260001038457,新規,0,2023-11-06,2023-11-06,ＩＭＥ株式会社,,株式会社,岡山県,岡山市北区,東花尻３１４番地７,,33,101,7010135,,,,,,,2023-11-06,1,,,,,アイエムイー,0
909,3260001038473,新規,0,2023-11-06,2023-11-06,ナカデンクリエイティブサービス株式会社,,株式会社,岡山県,岡山市東区,可知４丁目３番２２号,,33,103,7048173,,,,,,,2023-11-06,1,,,,,ナカデンクリエイティブサービス,0
917,3290001103588,新規,0,2023-11-06,2023-11-06,株式会社ＳＡＳＨＩＹＯＲＩ,,株式会社,福岡県,福岡市中央区,天神２丁目２番１２号Ｔ＆Ｊビルディング７Ｆ,,40,133,8100001,,,,,,,2023-11-06,1,,,,,サシヨリ,0
918,3290001103596,新規,0,2023-11-06,2023-11-06,株式会社九州国際教育交流中心,,株式会社,福岡県,福岡市中央区,大手門３丁目１２番２１号２０１号室,,40,133,8100074,,,,,,,2023-11-06,1,,,,,キュウシュウコクサイコウリュウチュウシン,0
919,3290001103646,新規,0,2023-11-06,2023-11-06,株式会社木子,,株式会社,福岡県,福岡市東区,香住ヶ丘５丁目１３番３５－２号,,40,131,8130003,,,,,,,2023-11-06,1,,,,,キノコ,0
920,3290001103654,新規,0,2023-11-06,2023-11-06,ＯＮＥ‐リンク株式会社,,株式会社,福岡県,久留米市,城島町下青木１０８３番地１,,40,203,8300225,,,,,,,2023-11-06,1,,,,,ワンリンク,0
922,3290003014585,新規,0,2023-11-06,2023-11-06,ＪＱＳ合同会社,,合同会社,福岡県,福岡市中央区,天神４丁目６－２８天神ファーストビル７Ｆ,,40,133,8100001,,,,,,,2023-11-06,1,,,,,ジェーキューエス,0
929,3310001018701,新規,0,2023-11-06,2023-11-06,株式会社トップギア,,株式会社,長崎県,佐世保市,吉岡町１８５０番地１５,,42,202,8570143,,,,,,,2023-11-06,1,,,,,トップギア,0
932,3320001020128,新規,0,2023-11-06,2023-11-06,株式会社ＬＩＶＥ　ＰＬＵＳ,,株式会社,大分県,中津市,大字上宮永９５９番地５,,44,203,8710027,,,,,,,2023-11-06,1,,,,,リブプラス,0
933,3330001031421,新規,0,2023-11-06,2023-11-06,株式会社リブライネクサス,,株式会社,熊本県,熊本市東区,戸島西５丁目４番１１号,,43,102,8618043,,,,,,,2023-11-06,1,,,,,リブライネクサス,0
935,3330003010068,新規,0,2023-11-06,2023-11-06,合同会社ＦＦＯ,,合同会社,熊本県,熊本市南区,流通団地２丁目９番地,,43,104,8620967,,,,,,,2023-11-06,1,,,,,エフエフオー,0
937,3340001026049,新規,0,2023-11-06,2023-11-06,株式会社ＰＯＳＴ,,株式会社,鹿児島県,鹿児島市,西田２丁目２１番１９号Ｐｒｏｓｐｅｒｏｕｓビル４Ｆ,,46,201,8900046,,,,,,,2023-11-06,1,,,,,ポスト,0
938,3340003004300,新規,0,2023-11-06,2023-11-06,合同会社Ｐｉｃｋ　Ｕｐ,,合同会社,鹿児島県,薩摩川内市,中郷１丁目３０番９号ラフィネ１０３号,,46,215,8950072,,,,,,,2023-11-06,1,,,,,ピックアップ,0
943,3360003013456,新規,0,2023-11-06,2023-11-06,合同会社なないろ,,合同会社,沖縄県,沖縄市,照屋５丁目１７番３号,,47,211,9040011,,,,,,,2023-11-06,1,,,,,ナナイロ,0
949,3390001017415,新規,0,2023-11-06,2023-11-06,テクノ食研株式会社,,株式会社,山形県,山形市,大字沼木４３３番地の６４,,06,201,9902474,,,,,,,2023-11-06,1,,,,,テクノショクケン,0
952,3400001016456,新規,0,2023-11-06,2023-11-06,株式会社ＰＲＡＶＤＡ,,株式会社,岩手県,盛岡市,菜園２丁目２番２３号石川ビル１階,,03,201,0200024,,,,,,,2023-11-06,1,,,,,プラウダ,0
955,3410001013634,新規,0,2023-11-06,2023-11-06,アイティーフロント株式会社,,株式会社,秋田県,秋田市,中通５丁目１－５１北都ビルディング７階,,05,201,0100001,,,,,,,2023-11-06,1,,,,,アイティーフロント,0
957,3410005006551,新規,0,2023-11-06,2023-11-06,一般社団法人らくと,,その他の設立登記法人,秋田県,由利本荘市,石脇字中浜２３番地３６,,05,210,0150011,,,,,,,2023-11-06,1,,,,,ラクト,0
961,3430001090325,新規,0,2023-11-06,2023-11-06,株式会社リピートケア,,株式会社,北海道,札幌市東区,東苗穂四条１丁目９番１１号,,01,103,0070804,,,,,,,2023-11-06,1,,,,,リピートケア,0
962,3430001090341,新規,0,2023-11-06,2023-11-06,株式会社Ｋコンサルティング,,株式会社,北海道,札幌市中央区,南九条西６丁目１番１号,,01,101,0640809,,,,,,,2023-11-06,1,,,,,ケイコンサルティング,0
968,3460101007457,新規,0,2023-11-06,2023-11-06,株式会社Ｌｉｆｅ’ｓ,,株式会社,北海道,帯広市,西九条南１４丁目６番地,,01,207,0800019,,,,,,,2023-11-06,1,,,,,ライフズ,0
971,3470001019881,新規,0,2023-11-06,2023-11-06,株式会社カヤノファーム,,株式会社,香川県,木田郡三木町,大字田中４２７番地,,37,341,7610611,,,,,,,2023-11-06,1,,,,,カヤノファーム,0
974,3480003002042,新規,0,2023-11-06,2023-11-06,合同会社ＧａｎｄＴ,,合同会社,徳島県,阿南市,那賀川町赤池３５８番地２１,,36,204,7791242,,,,,,,2023-11-06,1,,,,,ジーアンドティー,0
988,4010001239806,新規,0,2023-11-06,2023-11-06,想創設計株式会社,,株式会社,東京都,千代田区,九段南１丁目５番６号りそな九段ビル５ＦＫＳフロア,,13,101,1020074,,,,,,,2023-11-06,1,,,,,ソウゾウセッケイ,0
989,4010001239814,新規,0,2023-11-06,2023-11-06,リビンＤＸ株式会社,,株式会社,東京都,中央区,日本橋堀留町１丁目８番１２号,,13,102,1030012,,,,,,,2023-11-06,1,,,,,リビンディーエックス,0
993,4010003042076,新規,0,2023-11-06,2023-11-06,Ｖｉｃｕｇｎａ　Ｔｅｃｈｎｏｌｏｇｉｅｓ合同会社,,合同会社,東京都,千代田区,東神田１丁目１７－４ヤマックス東神田３０１,,13,101,1010031,,,,,,,2023-11-06,1,,,,,ビクーニャテクノロジーズ,0
1007,4010401178323,新規,0,2023-11-06,2023-11-06,ブリッジコンサルティング株式会社,,株式会社,東京都,港区,高輪２丁目１２番６３－６０７号,,13,103,1080074,,,,,,,2023-11-06,1,,,,,ブリッジコンサルティング,0
1009,4010403031273,新規,0,2023-11-06,2023-11-06,合同会社ｋｕｒａｓｕｋｅ,,合同会社,東京都,港区,浜松町２丁目２番１５号浜松町ダイヤビル２Ｆ,,13,103,1050013,,,,,,,2023-11-06,1,,,,,クラスケ,0
1010,4010405022634,新規,0,2023-11-06,2023-11-06,一般社団法人日本味噌ラーメン協会,,その他の設立登記法人,東京都,港区,白金５丁目４－１２－１０１,,13,103,1080072,,,,,,,2023-11-06,1,,,,,ニホンミソラーメンキョウカイ,0
1015,4010501051289,新規,0,2023-11-06,2023-11-06,Ａｇｅｎｔ　Ｍａｔｃｈ株式会社,,株式会社,東京都,台東区,台東２丁目３１番３号アサヒビル２階,,13,106,1100016,,,,,,,2023-11-06,1,,,,,エージェントマッチ,0
1016,4010503007207,新規,0,2023-11-06,2023-11-06,Ｓｔｒａｄ‐ｅｙ合同会社,,合同会社,東京都,台東区,東上野５丁目６番１―９０１号ブリリア上野ガーデン,,13,106,1100015,,,,,,,2023-11-06,1,,,,,ストラーディ,0
1018,4010601064083,新規,0,2023-11-06,2023-11-06,株式会社Ｓｕｇａｒｓ,,株式会社,東京都,江東区,門前仲町１丁目６番４号,,13,108,1350048,,,,,,,2023-11-06,1,,,,,シュガーズ,0
1020,4010803004738,新規,0,2023-11-06,2023-11-06,合同会社ＮＥＯ　ＣＲＥＡＴＩＯＮＳ　ＴＯＫＹＯ,,合同会社,東京都,大田区,北嶺町９番６号,,13,111,1450073,,,,,,,2023-11-06,1,,,,,ネオクリエーションズトーキョー,0
1021,4010901054107,新規,0,2023-11-06,2023-11-06,株式会社ＡＴＥＮＥ　ＬＡＢ,,株式会社,東京都,世田谷区,松原３丁目３０番１０号２階,,13,112,1560043,,,,,,,2023-11-06,1,,,,,アテネラボ,0
1022,4010901054148,新規,0,2023-11-06,2023-11-06,株式会社イレブン・プラス,,株式会社,東京都,世田谷区,池尻２丁目７番６号ピアース三宿１０６,,13,112,1540001,,,,,,,2023-11-06,1,,,,,イレブンプラス,0
1024,4010903008564,新規,0,2023-11-06,2023-11-06,シルバー・ビューティー合同会社,,合同会社,東京都,世田谷区,経堂１丁目１６番１３－１０３号,,13,112,1560052,,,,,,,2023-11-06,1,,,,,シルバービューティー,0
1026,4011001157849,新規,0,2023-11-06,2023-11-06,インターネットソリューションズ株式会社,,株式会社,東京都,渋谷区,富ヶ谷１丁目１４番１４号スタンフォードアネックスビル３Ｆ,,13,113,1510063,,,,,,,2023-11-06,1,,,,,インターネットソリューションズ,0
1027,4011001158005,新規,0,2023-11-06,2023-11-06,株式会社ｎｅｗａ,,株式会社,東京都,渋谷区,道玄坂１丁目１０番８号渋谷道玄坂東急ビル２Ｆ－Ｃ,,13,113,1500043,,,,,,,2023-11-06,1,,,,,ネワ,0
1028,4011001158013,新規,0,2023-11-06,2023-11-06,株式会社ＭＴ　ＡＳＣＥＮＴＳ,,株式会社,東京都,渋谷区,神宮前６丁目２３番４号桑野ビル２階,,13,113,1500001,,,,,,,2023-11-06,1,,,,,エムティーアセンツ,0
1030,4011101104957,新規,0,2023-11-06,2023-11-06,昌軒株式会社,,株式会社,東京都,新宿区,西五軒町７番１２プラティーク神楽坂１０１号,,13,104,1620812,,,,,,,2023-11-06,1,,,,,ショウケン,0
1031,4011101105006,新規,0,2023-11-06,2023-11-06,株式会社ウィリッチ,,株式会社,東京都,新宿区,西新宿１丁目２６番２号新宿野村ビル３２階,,13,104,1600023,,,,,,,2023-11-06,1,,,,,ウィリッチ,0
1034,4011103013685,新規,0,2023-11-06,2023-11-06,合同会社ＴＵ２６,,合同会社,東京都,新宿区,四谷２丁目９番地１５東京ユナイテッド綜合事務所内,,13,104,1600004,,,,,,,2023-11-06,1,,,,,ティーユーニジュウロク,0
1035,4011103013702,新規,0,2023-11-06,2023-11-06,合同会社ｃｏｎｆｉｄｅｎｃｅ,,合同会社,東京都,新宿区,西新宿６丁目１１番３－２８１２号,,13,104,1600023,,,,,,,2023-11-06,1,,,,,コンフィデンス,0
1036,4011103013710,新規,0,2023-11-06,2023-11-06,合同会社ＣＯＯＫ　ＫＯＲＥＡ,,合同会社,東京都,新宿区,北新宿１丁目１３番２６－２０１号,,13,104,1690074,,,,,,,2023-11-06,1,,,,,クックコリア,0
1037,4011105010838,新規,0,2023-11-06,2023-11-06,一般社団法人ＴＵ２７,,その他の設立登記法人,東京都,新宿区,四谷２丁目９番地１５東京ユナイテッド綜合事務所内,,13,104,1600004,,,,,,,2023-11-06,1,,,,,ティーユーニジュウナナ,0
1039,4011501029944,新規,0,2023-11-06,2023-11-06,富世株式会社,,株式会社,東京都,北区,田端新町１丁目７－１４ビズフィールド西日暮里２１０,,13,117,1140012,,,,,,,2023-11-06,1,,,,,トミヨ,0
1042,4011603004119,新規,0,2023-11-06,2023-11-06,合同会社ＴＦアルファ,,合同会社,東京都,練馬区,氷川台４丁目４７番１８号,,13,120,1790084,,,,,,,2023-11-06,1,,,,,ティーエフアルファ,0
1049,4012403006255,新規,0,2023-11-06,2023-11-06,合同会社ＩＴＳＵＫＩ,,合同会社,東京都,武蔵野市,中町１丁目１９番１１号アーバン武蔵野１階,,13,203,1800006,,,,,,,2023-11-06,1,,,,,イツキ,0
1055,4013303006832,新規,0,2023-11-06,2023-11-06,ＴＨＲＥＥ　Ｈ合同会社,,合同会社,東京都,豊島区,南大塚２丁目１７－８新大塚第３シカゴマンション５０２,,13,116,1700005,,,,,,,2023-11-06,1,,,,,スリーエイチ,0
1060,4020001154277,新規,0,2023-11-06,2023-11-06,株式会社水野塗装,,株式会社,神奈川県,川崎市川崎区,渡田向町１８番１６号,,14,131,2100841,,,,,,,2023-11-06,1,,,,,,0
1064,4020003024890,新規,0,2023-11-06,2023-11-06,合同会社音夢,,合同会社,神奈川県,横浜市西区,浅間町１丁目４番３号ウィザードビル４０２,,14,103,2200072,,,,,,,2023-11-06,1,,,,,ネム,0
1065,4020003024899,新規,0,2023-11-06,2023-11-06,合同会社ＷＩＴＨ‐Ｊ,,合同会社,神奈川県,横浜市神奈川区,三ツ沢西町７番３７号ベルシェ三ツ沢５０３号,,14,102,2210855,,,,,,,2023-11-06,1,,,,,ウィズジェイ,0
1071,4021001080678,新規,0,2023-11-06,2023-11-06,株式会社清造,,株式会社,神奈川県,厚木市,戸田１４５２番地８レピュートオオクラ１０２,,14,212,2430023,,,,,,,2023-11-06,1,,,,,セイゾウ,0
1079,4030001157048,新規,0,2023-11-06,2023-11-06,株式会社ＨＩＭＡＷＡＲＩ,,株式会社,埼玉県,久喜市,河原井町１９番地,,11,232,3460028,,,,,,,2023-11-06,1,,,,,ヒマワリ,0
1094,4070001041041,新規,0,2023-11-06,2023-11-06,株式会社ＫＥＩ,,株式会社,群馬県,太田市,新田大根町１３４番地１２,,10,205,3700347,,,,,,,2023-11-06,1,,,,,,0
1097,4080001025951,新規,0,2023-11-06,2023-11-06,株式会社カタリバ,,株式会社,静岡県,藤枝市,高洲５９番地の７,,22,214,4260046,,,,,,,2023-11-06,1,,,,,カタリバ,0
1100,4080101024309,新規,0,2023-11-06,2023-11-06,石井商事株式会社,,株式会社,静岡県,富士市,今泉７丁目３番２６号,,22,210,4170001,,,,,,,2023-11-06,1,,,,,イシイショウジ,0
1102,4080103002915,新規,0,2023-11-06,2023-11-06,合同会社ＤＴＦ,,合同会社,静岡県,沼津市,沼北町１丁目１３番１７号ベルティール沼北２０２,,22,203,4100058,,,,,,,2023-11-06,1,,,,,ディーティーエフ,0
1103,4080401026806,新規,0,2023-11-06,2023-11-06,三慶不動産株式会社,,株式会社,静岡県,浜松市北区,三方原町６４番地の３,,22,135,4338105,,,,,,,2023-11-06,1,,,,,サンケイフドウサン,0
1108,4100005013090,新規,0,2023-11-06,2023-11-06,医療法人ｅｎｔｃ,,その他の設立登記法人,長野県,長野市,大字栗田２０８１,,20,201,3800921,,,,,,,2023-11-06,1,,,,,イーエヌティーシー,0
1123,4120001259504,新規,0,2023-11-06,2023-11-06,株式会社ＡＣＥ,,株式会社,大阪府,大阪市中央区,難波４丁目１番１５号近鉄難波ビル１階１０４,,27,128,5420076,,,,,,,2023-11-06,1,,,,,エース,0
1124,4120001259537,新規,0,2023-11-06,2023-11-06,株式会社ＮＣ・ＣＲＥＡＴＥ,,株式会社,大阪府,大阪市北区,梅田１丁目３番１号大阪駅前第１ビル４階,,27,127,5300001,,,,,,,2023-11-06,1,,,,,エヌシークリエイト,0
1125,4120001259545,新規,0,2023-11-06,2023-11-06,株式会社Ｍｉｚｕ‐ｓｈｏｒｉ,,株式会社,大阪府,大阪市北区,菅原町８番１４号,,27,127,5300046,,,,,,,2023-11-06,1,,,,,ミズショリ,0
1126,4120001259586,新規,0,2023-11-06,2023-11-06,株式会社クライムコ,,株式会社,大阪府,大阪市中央区,南船場２丁目８番１１号,,27,128,5420081,,,,,,,2023-11-06,1,,,,,クライムコ,0
1127,4120001259603,新規,0,2023-11-06,2023-11-06,株式会社延田カンパニー,,株式会社,大阪府,大阪市中央区,心斎橋筋２丁目１番６号,,27,128,5420085,,,,,,,2023-11-06,1,,,,,ノブタカンパニー,0
1139,4120901048295,新規,0,2023-11-06,2023-11-06,守破離コンサルティング株式会社,,株式会社,大阪府,豊中市,新千里西町１丁目１番１０－１６３３号,,27,203,5600083,,,,,,,2023-11-06,1,,,,,シュハリコンサルティング,0
1140,4120901048312,新規,0,2023-11-06,2023-11-06,ひみこ株式会社,,株式会社,大阪府,茨木市,西駅前町５番３０号佐々木ビル４０２号,,27,211,5670032,,,,,,,2023-11-06,1,,,,,ヒミコ,0
1141,4120903004908,新規,0,2023-11-06,2023-11-06,合同会社ＡＧＲＩプラス,,合同会社,大阪府,茨木市,西駅前町４番８１３号,,27,211,5670032,,,,,,,2023-11-06,1,,,,,アグリプラス,0
1143,4122001037534,新規,0,2023-11-06,2023-11-06,ファインサポート株式会社,,株式会社,大阪府,大東市,三箇３丁目３番３号,,27,218,5740077,,,,,,,2023-11-06,1,,,,,ファインサポート,0
1148,4130001075636,新規,0,2023-11-06,2023-11-06,株式会社周商事,,株式会社,京都府,京都市伏見区,小栗栖小阪町５４番地１,,26,109,6011455,,,,,,,2023-11-06,1,,,,,シュウショウジ,0
1149,4130001075652,新規,0,2023-11-06,2023-11-06,明成開発株式会社,,株式会社,京都府,京都市南区,西九条御幸田町１０６番地の１０,,26,107,6018442,,,,,,,2023-11-06,1,,,,,メイセイカイハツ,0
1150,4130001075677,新規,0,2023-11-06,2023-11-06,株式会社航盛,,株式会社,京都府,京都市下京区,七条通油小路東入大黒町２２７番地第２キョートビル４０２,,26,106,6008223,,,,,,,2023-11-06,1,,,,,コウセイ,0
1153,4130003009105,新規,0,2023-11-06,2023-11-06,合同会社レントアンドセル,,合同会社,京都府,京都市南区,吉祥院石原長田町１番地９桂川ハイツ５号館５１０号室,,26,107,6018383,,,,,,,2023-11-06,1,,,,,レントアンドセル,0
1154,4130003009113,新規,0,2023-11-06,2023-11-06,合同会社Ｄｒ．Ｃｏｆｆｅｅ,,合同会社,京都府,城陽市,寺田宮ノ谷２－１０４,,26,207,6100121,,,,,,,2023-11-06,1,,,,,ドクターコーヒー,0
1158,4140001132196,新規,0,2023-11-06,2023-11-06,豊通ソーテック株式会社,,株式会社,兵庫県,赤穂市,加里屋１１２０番地６,,28,212,6780239,,,,,,,2023-11-06,1,,,,,トヨツウソーテック,0
1159,4140001132205,新規,0,2023-11-06,2023-11-06,株式会社もっち,,株式会社,兵庫県,姫路市,勝原区山戸３５６番地３,,28,201,6711214,,,,,,,2023-11-06,1,,,,,モッチ,0
1160,4140001132254,新規,0,2023-11-06,2023-11-06,ＶＴＥＣジャパン株式会社,,株式会社,兵庫県,尼崎市,西難波町４丁目６番２６号ＺＥＲＯビル,,28,202,6600893,,,,,,,2023-11-06,1,,,,,ブイテックジャパン,0
1161,4140001132270,新規,0,2023-11-06,2023-11-06,サザンクロス株式会社,,株式会社,兵庫県,神戸市中央区,旭通４丁目１番３－４００２号,,28,110,6510095,,,,,,,2023-11-06,1,,,,,サザンクロス,0
1173,4180001158758,新規,0,2023-11-06,2023-11-06,株式会社ｔｒｕｓｔ　ｙｏｕｒ　ｇｕｔ,,株式会社,愛知県,半田市,住吉町３丁目９６番地の２,,23,205,4750862,,,,,,,2023-11-06,1,,,,,トラストユアガット,0
1174,4180001158766,新規,0,2023-11-06,2023-11-06,株式会社ツチハシホールディングス,,株式会社,愛知県,春日井市,鳥居松町３丁目１０７番地,,23,206,4860844,,,,,,,2023-11-06,1,,,,,ツチハシホールディングス,0
1175,4180001158799,新規,0,2023-11-06,2023-11-06,株式会社シルピ,,株式会社,愛知県,一宮市,大赤見字大山西３０番地３,,23,203,4910015,,,,,,,2023-11-06,1,,,,,シルピ,0
1176,4180001158824,新規,0,2023-11-06,2023-11-06,株式会社Ａｖｅｃ‐ｔｏＩ,,株式会社,愛知県,知多市,南粕谷新海４丁目２５９番地セルサス中央マンション４０Ｂ,,23,224,4780026,,,,,,,2023-11-06,1,,,,,アヴェクトワ,0
1182,4180301037967,新規,0,2023-11-06,2023-11-06,株式会社Ｔｈｒｏｕｇｈ　Ｔｉｍｅ　Ａｍａｍｉ,,株式会社,愛知県,岡崎市,上地３丁目５１番地９,,23,202,4440823,,,,,,,2023-11-06,1,,,,,スルータイムアマミ,0
1183,4190001030866,新規,0,2023-11-06,2023-11-06,ＬＩＢＡＬ伊勢株式会社,,株式会社,三重県,伊勢市,小俣町元町１１０３番地,,24,203,5190503,,,,,,,2023-11-06,1,,,,,リバルイセ,0
1185,4200001041878,新規,0,2023-11-06,2023-11-06,株式会社Ｋｉｒｅｉプラス,,株式会社,岐阜県,大垣市,本今４丁目３３番地,,21,202,5030931,,,,,,,2023-11-06,1,,,,,キレイプラス,0
1188,4200005013535,新規,0,2023-11-06,2023-11-06,一般社団法人高等教育ネットワーク岐阜,,その他の設立登記法人,岐阜県,岐阜市,柳戸１番地１,,21,201,5011112,,,,,,,2023-11-06,1,,,,,コウトウキョウイクネットワークギフ,0
1189,4230001020086,新規,0,2023-11-06,2023-11-06,株式会社いっこまっこ,,株式会社,富山県,富山市,桜町１丁目７番７号梅原ビル１階,,16,201,9300003,,,,,,,2023-11-06,1,,,,,イッコマッコ,0
1190,4240001062359,新規,0,2023-11-06,2023-11-06,グッドフェロー株式会社,,株式会社,広島県,広島市中区,舟入町６番２３号,,34,101,7300841,,,,,,,2023-11-06,1,,,,,グッドフェロー,0
1191,4240001062375,新規,0,2023-11-06,2023-11-06,株式会社エヌループ,,株式会社,広島県,広島市中区,流川町８番１２号２Ｆ,,34,101,7300028,,,,,,,2023-11-06,1,,,,,エヌループ,0
1197,4260005011293,新規,0,2023-11-06,2023-11-06,一般社団法人Ｓｍｉｌｅ　Ｙｏｕ,,その他の設立登記法人,岡山県,岡山市中区,平井１丁目１２－２８,,33,102,7038282,,,,,,,2023-11-06,1,,,,,スマイルユー,0
1199,4280001009059,新規,0,2023-11-06,2023-11-06,株式会社ショウフク,,株式会社,島根県,浜田市,長浜町１４４８番地,,32,202,6970063,,,,,,,2023-11-06,1,,,,,ショウフク,0
1202,4290001103595,新規,0,2023-11-06,2023-11-06,株式会社プラチナムパートナーズ,,株式会社,福岡県,福岡市中央区,薬院３丁目１６番２６号,,40,133,8100022,,,,,,,2023-11-06,1,,,,,プラチナムパートナーズ,0
1203,4290001103637,新規,0,2023-11-06,2023-11-06,株式会社Ｂ．Ｏ．Ｇ,,株式会社,福岡県,福岡市中央区,天神４丁目６番２８号天神ファーストビル７階,,40,133,8100001,,,,,,,2023-11-06,1,,,,,ビーオージー,0
1204,4290001103645,新規,0,2023-11-06,2023-11-06,キャリーオンテック株式会社,,株式会社,福岡県,福岡市中央区,舞鶴３丁目９－３９福岡舞鶴スクエア,,40,133,8100073,,,,,,,2023-11-06,1,,,,,キャリーオンテック,0
1215,4330001031420,新規,0,2023-11-06,2023-11-06,株式会社ｉＮＩＴＡＬＹ,,株式会社,熊本県,合志市,御代志１６６１番地１,,43,216,8611104,,,,,,,2023-11-06,1,,,,,イニタリー,0
1216,4330001031437,新規,0,2023-11-06,2023-11-06,株式会社クリエイトコア,,株式会社,熊本県,熊本市南区,富合町廻江７９９番地３,,43,104,8614147,,,,,,,2023-11-06,1,,,,,クリエイトコア,0
1219,4330003010059,新規,0,2023-11-06,2023-11-06,合同会社ＤＡＢＥＲＩＣＯ,,合同会社,熊本県,阿蘇郡産山村,大字田尻５８１－２,,43,425,8692704,,,,,,,2023-11-06,1,,,,,ダベリコ,0
1222,4340001026056,新規,0,2023-11-06,2023-11-06,株式会社中尾,,株式会社,鹿児島県,曽於市,大隅町岩川６２０９番地３,,46,217,8998102,,,,,,,2023-11-06,1,,,,,ナカオ,0
1224,4360001032754,新規,0,2023-11-06,2023-11-06,農地所有適格法人株式会社屋宜ふぁーむ,,株式会社,沖縄県,中頭郡読谷村,字渡具知４３７－３,,47,324,9040315,,,,,,,2023-11-06,1,,,,,ノウチショユウテキカクホウジンヤギファーム,0
1225,4360001032770,新規,0,2023-11-06,2023-11-06,株式会社光設備,,株式会社,沖縄県,豊見城市,字高安３８２番地１,,47,212,9010242,,,,,,,2023-11-06,1,,,,,ヒカリセツビ,0
1226,4360001032787,新規,0,2023-11-06,2023-11-06,株式会社丸高リフォーム,00132523,株式会社,沖縄県,南城市,大里字大城６１６番地３－１０３号,,47,215,9011203,,,,,,,2023-11-06,1,,,,,マルタカリフォーム,0
1227,4360003013463,新規,0,2023-11-06,2023-11-06,合同会社０３ＷＯＲＬＤ,,合同会社,沖縄県,豊見城市,字座安２８８番地３,,47,212,9010221,,,,,,,2023-11-06,1,,,,,ゼロサンワールド,0
1228,4370001050598,新規,0,2023-11-06,2023-11-06,株式会社ロクマルコネクト,,株式会社,宮城県,仙台市青葉区,川平５丁目４番１６号,,04,101,9810954,,,,,,,2023-11-06,1,,,,,ロクマルコネクト,0
1231,4380001034105,新規,0,2023-11-06,2023-11-06,株式会社Ｗａｋｏ,,株式会社,福島県,郡山市,字燧田１９５番地,,07,203,9638003,,,,,,,2023-11-06,1,,,,,ワコー,0
1235,4390003002158,新規,0,2023-11-06,2023-11-06,合同会社Ｐｅｔｒａ,,合同会社,山形県,新庄市,中道町２番地の１,,06,205,9960081,,,,,,,2023-11-06,1,,,,,ペトラ,0
1237,4400001016447,新規,0,2023-11-06,2023-11-06,株式会社ｋａｔａｃｈｉ．,,株式会社,岩手県,盛岡市,開運橋通１番２号,,03,201,0200026,,,,,,,2023-11-06,1,,,,,カタチ,0
1239,4410003003863,新規,0,2023-11-06,2023-11-06,合同会社佐々木園芸,,合同会社,秋田県,雄勝郡羽後町,杉宮字積寒開１２６番地,,05,463,0121126,,,,,,,2023-11-06,1,,,,,ササキエンゲイ,0
1249,4460103001572,新規,0,2023-11-06,2023-11-06,合同会社ＦＵＦ,,合同会社,北海道,河東郡上士幌町,字上士幌東２線２４４番地,,01,633,0801408,,,,,,,2023-11-06,1,,,,,エフユーエフ,0
1251,4470001019880,新規,0,2023-11-06,2023-11-06,株式会社スカイ・クリエイティブ,,株式会社,香川県,綾歌郡宇多津町,浜一番丁３－１,,37,386,7690201,,,,,,,2023-11-06,1,,,,,スカイクリエイティブ,0
1252,4470003002513,新規,0,2023-11-06,2023-11-06,合同会社フライヴェルト,,合同会社,香川県,高松市,西山崎町２３１番地５,,37,201,7618045,,,,,,,2023-11-06,1,,,,,フライヴェルト,0
1253,4480001012281,新規,0,2023-11-06,2023-11-06,株式会社米崎組,00132513,株式会社,徳島県,阿南市,羽ノ浦町春日野１－１１０－７４５,,36,204,7791103,,,,,,,2023-11-06,1,,,,,ヨネザキグミ,0
1256,4500001025297,新規,0,2023-11-06,2023-11-06,らいえいファーム株式会社,,株式会社,愛媛県,西条市,壬生川１０４番地１,,38,206,7991341,,,,,,,2023-11-06,1,,,,,ライエイファーム,0
1257,4700150121240,新規,0,2023-11-06,2023-10-16,ディア　フィルム　プロジェクト,,その他,東京都,渋谷区,神宮前３丁目２５－１２－６Ｆ,,13,113,1500001,,,,,,,2023-10-16,1,,,,,デイアフイルムプロジエクト,0
1267,5010003042100,新規,0,2023-11-06,2023-11-06,スリーエス合同会社,,合同会社,東京都,中央区,東日本橋２丁目２８番４号日本橋ＣＥＴビル２階,,13,102,1030004,,,,,,,2023-11-06,1,,,,,スリーエス,0
1268,5010003042117,新規,0,2023-11-06,2023-11-06,合同会社Ｒ,,合同会社,東京都,文京区,湯島１丁目２番７－２０５号,,13,105,1130034,,,,,,,2023-11-06,1,,,,,アール,0
1269,5010005037478,新規,0,2023-11-06,2023-11-06,一般社団法人全日本調査業協会,,その他の設立登記法人,東京都,千代田区,神田三崎町２丁目１２番９号,,13,101,1010061,,,,,,,2023-11-06,1,,,,,ゼンニホンチョウサギョウキョウカイ,0
1278,5010501051288,新規,0,2023-11-06,2023-11-06,観光浅草株式会社,,株式会社,東京都,台東区,松が谷１丁目４番４号中央スカイビル８階,,13,106,1110036,,,,,,,2023-11-06,1,,,,,カンコウアサクサ,0
1279,5010501051296,新規,0,2023-11-06,2023-11-06,株式会社ヤマモト,,株式会社,東京都,台東区,台東３丁目４４番６号スカイノブレ御徒町５０４号,,13,106,1100016,,,,,,,2023-11-06,1,,,,,ヤマモト,0
1282,5010601064082,新規,0,2023-11-06,2023-11-06,鹿屋機械株式会社,,株式会社,東京都,墨田区,八広３丁目１９番７号,,13,107,1310041,,,,,,,2023-11-06,1,,,,,カノヤキカイ,0
1287,5010801034488,新規,0,2023-11-06,2023-11-06,ＡＳＡ株式会社,,株式会社,東京都,大田区,田園調布南１９番３－３０２号,,13,111,1450076,,,,,,,2023-11-06,1,,,,,エイエスエイ,0
1293,5011001158012,新規,0,2023-11-06,2023-11-06,株式会社Ｓａｎｔｕｒｉｏｎ,,株式会社,東京都,渋谷区,渋谷２丁目５番１２－６０４号アトラス青山レジデンシャル,,13,113,1500002,,,,,,,2023-11-06,1,,,,,サンチュリオン,0
1300,5011101105005,新規,0,2023-11-06,2023-11-06,株式会社ネレウス,,株式会社,東京都,新宿区,高田馬場４丁目９番１４号ふみビル４階,,13,104,1690075,,,,,,,2023-11-06,1,,,,,ネレウス,0
1301,5011103013684,新規,0,2023-11-06,2023-11-06,合同会社ＴＵ２５,,合同会社,東京都,新宿区,四谷２丁目９番地１５東京ユナイテッド綜合事務所内,,13,104,1600004,,,,,,,2023-11-06,1,,,,,ティーユーニジュウゴ,0
1302,5011105010837,新規,0,2023-11-06,2023-11-06,一般社団法人ＴＵ２６,,その他の設立登記法人,東京都,新宿区,四谷２丁目９番地１５東京ユナイテッド綜合事務所内,,13,104,1600004,,,,,,,2023-11-06,1,,,,,ティーユーニジュウロク,0
1303,5011301029144,新規,0,2023-11-06,2023-11-06,株式会社ｔｅｎ．,,株式会社,東京都,杉並区,成田東１丁目６－１１,,13,115,1660015,,,,,,,2023-11-06,1,,,,,テンドット,0
1305,5011401025588,新規,0,2023-11-06,2023-11-06,株式会社アンドランド,,株式会社,東京都,板橋区,板橋１丁目５３番１２－３１２号,,13,119,1730004,,,,,,,2023-11-06,1,,,,,,0
1306,5011501029943,新規,0,2023-11-06,2023-11-06,株式会社ステップウィズ,,株式会社,東京都,荒川区,西日暮里１丁目３８番１３－５０２号,,13,118,1160013,,,,,,,2023-11-06,1,,,,,ステップウィズ,0
1307,5011503005827,新規,0,2023-11-06,2023-11-06,佳盛合同会社,,合同会社,東京都,荒川区,西日暮里１丁目６１番２３－１００２号リレント西日暮里,,13,118,1160013,,,,,,,2023-11-06,1,,,,,カイセイ,0
1309,5011603004101,新規,0,2023-11-06,2023-11-06,合同会社リボーン,,合同会社,東京都,練馬区,大泉町５丁目３３番２２号,,13,120,1780062,,,,,,,2023-11-06,1,,,,,リボーン,0
1315,5012401041179,新規,0,2023-11-06,2023-11-06,株式会社ＢｒａｎＱ,,株式会社,東京都,府中市,是政４丁目８番地の１ルイシャトレ府中是政３１１,,13,206,1830014,,,,,,,2023-11-06,1,,,,,ブランク,0
1334,5020001154276,新規,0,2023-11-06,2023-11-06,株式会社ココゲノム,,株式会社,神奈川県,横浜市西区,北幸２丁目１０番地４８むつみビル３Ｆ,,14,103,2200004,,,,,,,2023-11-06,1,,,,,ココゲノム,0
1335,5020001154292,新規,0,2023-11-06,2023-11-06,株式会社Ｂ＆ＩＴ,,株式会社,神奈川県,川崎市幸区,戸手本町２丁目２４３番地１,,14,132,2120023,,,,,,,2023-11-06,1,,,,,ビーアンドアイティー,0
1336,5020001154334,新規,0,2023-11-06,2023-11-06,株式会社丸仙,,株式会社,神奈川県,川崎市中原区,小杉町３丁目６６番地,,14,133,2110063,,,,,,,2023-11-06,1,,,,,マルセン,0
1341,5020003024840,新規,0,2023-11-06,2023-11-06,合同会社エンジョイント,,合同会社,神奈川県,横浜市港北区,箕輪町２丁目１１番２５号フロイデ日吉１０２,,14,109,2230051,,,,,,,2023-11-06,1,,,,,エンジョイント,0
1342,5020003024881,新規,0,2023-11-06,2023-11-06,合同会社トライアード,,合同会社,神奈川県,川崎市麻生区,古沢４３番地コザワビル３０３,,14,137,2150026,,,,,,,2023-11-06,1,,,,,トライアード,0
1343,5020003024907,新規,0,2023-11-06,2023-11-06,合同会社島屋,,合同会社,神奈川県,川崎市宮前区,初山２丁目６番１号リバーフォレストシマヤ１０２,,14,136,2160026,,,,,,,2023-11-06,1,,,,,シマヤ,0
1347,5021001080628,新規,0,2023-11-06,2023-11-06,湘和地所レジデンス株式会社,,株式会社,神奈川県,藤沢市,辻堂東海岸１丁目１９番１７～２号,,14,205,2510045,,,,,,,2023-11-06,1,,,,,ショウワジショレジデンス,0
1356,5030001156957,新規,0,2023-11-06,2023-11-06,株式会社Ｇｏ　Ｏｎｅ,,株式会社,埼玉県,三郷市,彦川戸１丁目６２番地,,11,237,3410005,,,,,,,2023-11-06,1,,,,,ゴーワン,0
1357,5030001157047,新規,0,2023-11-06,2023-11-06,株式会社ＷＡＳＨＣＯＲＥ,,株式会社,埼玉県,さいたま市見沼区,大字東門前３３０番地５,,11,104,3370016,,,,,,,2023-11-06,1,,,,,ウォッシュコア,0
1371,5040001130779,新規,0,2023-11-06,2023-11-06,アガサ溶接株式会社,,株式会社,千葉県,木更津市,高柳３丁目３番１５号エスブライト木更津１棟,,12,206,2920014,,,,,,,2023-11-06,1,,,,,アガサヨウセツ,0
1376,5040003023683,新規,0,2023-11-06,2023-11-06,合同会社メディケアパートナー,,合同会社,千葉県,船橋市,大穴北４丁目２番２８号,,12,204,2740068,,,,,,,2023-11-06,1,,,,,メディケアパートナー,0
1379,5050001053756,新規,0,2023-11-06,2023-11-06,サトウ工業株式会社,,株式会社,茨城県,結城郡八千代町,大字菅谷５１５番地５２,,08,521,3003572,,,,,,,2023-11-06,1,,,,,サトウコウギョウ,0
1387,5070001041049,新規,0,2023-11-06,2023-11-06,ＫＯＨ建築設計株式会社,,株式会社,群馬県,富岡市,七日市５１７番地１,,10,210,3702343,,,,,,,2023-11-06,1,,,,,コウケンチクセッケイ,0
1388,5070001041057,新規,0,2023-11-06,2023-11-06,株式会社ＩＴＷｏｒｋｓ,,株式会社,群馬県,前橋市,粕川町込皆戸５１８番地９ミドルヴィレッジＡ,,10,201,3710216,,,,,,,2023-11-06,1,,,,,アイティーワークス,0
1389,5070003005159,新規,0,2023-11-06,2023-11-06,緑造合同会社,,合同会社,群馬県,前橋市,本町２丁目９番１３号,,10,201,3710023,,,,,,,2023-11-06,1,,,,,リョクゾウ,0
1391,5080005007581,新規,0,2023-11-06,2023-11-06,ＮＰＯ法人安全点検と防災,,その他の設立登記法人,静岡県,藤枝市,堀之内１丁目１４番地の３,,22,214,4260088,,,,,,,2023-11-06,1,,,,,アンゼンテンケントボウサイ,0
1392,5080101024299,新規,0,2023-11-06,2023-11-06,株式会社Ｃｕｒｉｏｓｉｔｙ,,株式会社,静岡県,富士宮市,山本７２４番地の６,,22,207,4180023,,,,,,,2023-11-06,1,,,,,クリオシティー,0
1393,5080101024308,新規,0,2023-11-06,2023-11-06,株式会社エコール静岡,,株式会社,静岡県,御殿場市,二の岡１丁目１５番２２号,,22,215,4120025,,,,,,,2023-11-06,1,,,,,エコールシズオカ,0
1394,5080101024316,新規,0,2023-11-06,2023-11-06,株式会社ＩＮＦＩＮＩＴＹ,,株式会社,静岡県,沼津市,西間門１１５番地の１,,22,203,4100871,,,,,,,2023-11-06,1,,,,,インフィニティ,0
1397,5090003002419,新規,0,2023-11-06,2023-11-06,合同会社トパーズ,,合同会社,山梨県,南都留郡忍野村,忍草１３０８番地２,,19,424,4010511,,,,,,,2023-11-06,1,,,,,トパーズ,0
1400,5100003007259,新規,0,2023-11-06,2023-11-06,合同会社ｉａ．ｐｌｕｓ,,合同会社,長野県,下伊那郡豊丘村,大字神稲８９１４,,20,416,3993202,,,,,,,2023-11-06,1,,,,,アイエープラス,0
1402,5110001037959,新規,0,2023-11-06,2023-11-06,株式会社ハチトラ,,株式会社,新潟県,新潟市江南区,横越川根町３丁目４番２１号,,15,104,9500211,,,,,,,2023-11-06,1,,,,,ハチトラ,0
1422,5120001259437,新規,0,2023-11-06,2023-11-06,清水株式会社,,株式会社,大阪府,大阪市北区,本庄東２丁目３－２３テイワビル１０２号室,,27,127,5310074,,,,,,,2023-11-06,1,,,,,シミズ,0
1423,5120001259478,新規,0,2023-11-06,2023-11-06,欧旺徳株式会社,00132510,株式会社,大阪府,大阪市大正区,三軒家西３丁目４番１６号中山ビル１０４２,,27,108,5510001,,,,,,,2023-11-06,1,,,,,オウオウトク,0
1424,5120001259528,新規,0,2023-11-06,2023-11-06,陽光株式会社,,株式会社,大阪府,大阪市阿倍野区,阿倍野元町１４－５パシフィックアベノ９０３号室,,27,119,5450034,,,,,,,2023-11-06,1,,,,,ヨウコウ,0
1425,5120001259569,新規,0,2023-11-06,2023-11-06,株式会社ベイシステム,,株式会社,大阪府,大阪市淀川区,西中島７丁目１番３号,,27,123,5320011,,,,,,,2023-11-06,1,,,,,ベイシステム,0
1426,5120001259593,新規,0,2023-11-06,2023-11-06,ユーセイ株式会社,,株式会社,大阪府,門真市,脇田町２番３号,,27,223,5710011,,,,,,,2023-11-06,1,,,,,ユーセイ,0
1427,5120001259602,新規,0,2023-11-06,2023-11-06,株式会社ＴＳＵＭＵＧＩ,,株式会社,大阪府,大阪市阿倍野区,阿倍野筋４丁目５番１３号,,27,119,5450052,,,,,,,2023-11-06,1,,,,,ツムギ,0
1428,5120001259610,新規,0,2023-11-06,2023-11-06,ａｙテクノサービス株式会社,,株式会社,大阪府,大阪市西淀川区,御幣島６丁目４番１６号ライゼホビー９号室,,27,113,5550012,,,,,,,2023-11-06,1,,,,,エーワイテクノサービス,0
1429,5120001259619,新規,0,2023-11-06,2023-11-06,日翔薬品株式会社,,株式会社,大阪府,大阪市中央区,道修町１丁目４番２号,,27,128,5410045,,,,,,,2023-11-06,1,,,,,ニッショウヤクヒン,0
1430,5120001259627,新規,0,2023-11-06,2023-11-06,株式会社エムイノベーション,,株式会社,大阪府,大阪市北区,西天満４丁目３番４号御影ビル６階,,27,127,5300047,,,,,,,2023-11-06,1,,,,,エムイノベーション,0
1436,5120003025259,新規,0,2023-11-06,2023-11-06,インディー合同会社,,合同会社,大阪府,大阪市東淀川区,東中島１丁目１７番５－８１２号,,27,114,5330033,,,,,,,2023-11-06,1,,,,,インディー,0
1438,5120901048311,新規,0,2023-11-06,2023-11-06,株式会社ベストアメニティ,,株式会社,大阪府,池田市,石橋１丁目２３－１４－３０１,,27,204,5630032,,,,,,,2023-11-06,1,,,,,ベストアメニティ,0
1442,5122003002725,新規,0,2023-11-06,2023-11-06,合同会社陽海堂,,合同会社,大阪府,八尾市,本町４丁目４番８号,,27,212,5810003,,,,,,,2023-11-06,1,,,,,ヒウミドウ,0
1448,5130003009079,新規,0,2023-11-06,2023-11-06,合同会社ながら,,合同会社,京都府,京都市下京区,柿本町５９３－２グレーシァス堀川１００３,,26,106,6008357,,,,,,,2023-11-06,1,,,,,ナガラ,0
1452,5140001132187,新規,0,2023-11-06,2023-11-06,株式会社ＳＦミート,,株式会社,兵庫県,三田市,南が丘１丁目５１番２号,,28,219,6691535,,,,,,,2023-11-06,1,,,,,エスエフミート,0
1453,5140001132195,新規,0,2023-11-06,2023-11-06,株式会社ＦＪＴ,,株式会社,兵庫県,丹波篠山市,東岡屋３３番地３,,28,221,6692345,,,,,,,2023-11-06,1,,,,,エフジェイティー,0
1454,5140001132204,新規,0,2023-11-06,2023-11-06,株式会社セルフ,,株式会社,兵庫県,明石市,朝霧南町２丁目８番７－２０８号,,28,203,6730870,,,,,,,2023-11-06,1,,,,,セルフ,0
1455,5140001132229,新規,0,2023-11-06,2023-11-06,株式会社Ｒｕｔｅｎ,,株式会社,兵庫県,神戸市中央区,海岸通５番地商船三井ビル５１２Ｆ号室,,28,110,6500024,,,,,,,2023-11-06,1,,,,,ルテン,0
1456,5140001132237,新規,0,2023-11-06,2023-11-06,株式会社スリー,,株式会社,兵庫県,尼崎市,南清水１７番８号,,28,202,6610985,,,,,,,2023-11-06,1,,,,,スリー,0
1457,5140001132253,新規,0,2023-11-06,2023-11-06,株式会社ＹＯＬＩＳＯＷ,,株式会社,兵庫県,西宮市,西田町１番２７－２０７号,,28,204,6620034,,,,,,,2023-11-06,1,,,,,ヨリソウ,0
1465,5140003019779,新規,0,2023-11-06,2023-11-06,ＯＧ．ｙｏｕ合同会社,,合同会社,兵庫県,加古郡播磨町,古田３丁目２－１８－３,,28,382,6750146,,,,,,,2023-11-06,1,,,,,オージーユー,0
1467,5150001026859,新規,0,2023-11-06,2023-11-06,株式会社アイアール,,株式会社,奈良県,北葛城郡広陵町,大字疋相２１３番地２,,29,426,6350824,,,,,,,2023-11-06,1,,,,,アイアール,0
1468,5150003003113,新規,0,2023-11-06,2023-11-06,合同会社玉吉,,合同会社,奈良県,北葛城郡広陵町,大字南８０番地１０,,29,426,6350818,,,,,,,2023-11-06,1,,,,,タマキチ,0
1472,5170001017872,新規,0,2023-11-06,2023-11-06,株式会社匠・太平,,株式会社,和歌山県,岩出市,中島６３９番地４,,30,209,6496245,,,,,,,2023-11-06,1,,,,,タクミタイヘイ,0
1474,5180001158781,新規,0,2023-11-06,2023-11-06,株式会社ｉＰｒｏ,,株式会社,愛知県,清須市,清洲２１７８番地セッラ・アマーレＡ５,,23,233,4520942,,,,,,,2023-11-06,1,,,,,アイプロ,0
1475,5180001158831,新規,0,2023-11-06,2023-11-06,株式会社キリンジ,,株式会社,愛知県,名古屋市中区,錦３丁目５番２８,,23,106,4600003,,,,,,,2023-11-06,1,,,,,キリンジ,0
1476,5180001158848,新規,0,2023-11-06,2023-11-06,株式会社泰成,,株式会社,愛知県,名古屋市天白区,池場２丁目１５０２番地,,23,116,4680055,,,,,,,2023-11-06,1,,,,,タイセイ,0
1479,5180003025955,新規,0,2023-11-06,2023-11-06,ＬＢＲ合同会社,,合同会社,愛知県,名古屋市中区,丸の内３丁目２３－２３リエトコート丸の内４０１号,,23,106,4600002,,,,,,,2023-11-06,1,,,,,エルビーアール,0
1484,5200001041877,新規,0,2023-11-06,2023-11-06,株式会社風花建築設計事務所,,株式会社,岐阜県,飛騨市,河合町上ケ島６５番地１,,21,217,5094317,,,,,,,2023-11-06,1,,,,,カザハナケンチクセッケイジムショ,0
1489,5200003006143,新規,0,2023-11-06,2023-11-06,合同会社ループ,,合同会社,岐阜県,高山市,天満町５丁目５番地,,21,203,5060025,,,,,,,2023-11-06,1,,,,,ループ,0
1490,5210001019534,新規,0,2023-11-06,2023-11-06,株式会社ブリリアントメディカル,,株式会社,福井県,福井市,二の宮２丁目２８番３８号,,18,201,9100015,,,,,,,2023-11-06,1,,,,,ブリリアントメディカル,0
1494,5220003003618,新規,0,2023-11-06,2023-11-06,合同会社ＳＨＩＥＬＤＳ,,合同会社,石川県,金沢市,堅田町丁４４番地１,,17,201,9200164,,,,,,,2023-11-06,1,,,,,シールズ,0
1497,5230001020093,新規,0,2023-11-06,2023-11-06,ＰＲＥＳＴＯ株式会社,,株式会社,富山県,富山市,上大久保６２５番地１,,16,201,9392252,,,,,,,2023-11-06,1,,,,,プレスト,0
1503,5240001062366,新規,0,2023-11-06,2023-11-06,株式会社中田工業,,株式会社,広島県,呉市,倉橋町７４８０番地１,,34,202,7371377,,,,,,,2023-11-06,1,,,,,ナカタコウギョウナカタコウギョウ,0
1504,5240001062374,新規,0,2023-11-06,2023-11-06,株式会社Ｓｉコンサルティング,,株式会社,広島県,広島市西区,中広町３丁目９番２４号,,34,104,7330012,,,,,,,2023-11-06,1,,,,,エスアイコンサルティング,0
1505,5240001062382,新規,0,2023-11-06,2023-11-06,株式会社ＨＩＦ‐Ｈ,,株式会社,広島県,広島市中区,中町７番１６号ポレスター広島２階,,34,101,7300037,,,,,,,2023-11-06,1,,,,,エイチアイエフエイチ,0
1509,5240005015675,新規,0,2023-11-06,2023-11-06,一般社団法人ＴＥＥＪＡＰＡＮ,,その他の設立登記法人,広島県,広島市安佐北区,可部６丁目２５番２３号,,34,106,7310221,,,,,,,2023-11-06,1,,,,,ティーイーイージャパン,0
1510,5250001020380,新規,0,2023-11-06,2023-11-06,ＪＡＲ株式会社,,株式会社,山口県,防府市,今市町２０番１１号,,35,206,7470042,,,,,,,2023-11-06,1,,,,,ジェイエイアール,0
1511,5250003003375,新規,0,2023-11-06,2023-11-06,合同会社ＳＥＴＴＥＮ,,合同会社,山口県,周南市,有楽町２６楽器ビル１階,,35,215,7450035,,,,,,,2023-11-06,1,,,,,セッテン,0
1512,5250005008876,新規,0,2023-11-06,2023-11-06,医療法人おざさ皮ふ科クリニック,,その他の設立登記法人,山口県,山口市,大内千坊４丁目１６番３号,,35,203,7530251,,,,,,,2023-11-06,1,,,,,オザサヒフカクリニック,0
1515,5260001038471,新規,0,2023-11-06,2023-11-06,株式会社鍋谷,,株式会社,岡山県,浅口市,金光町下竹３６５番地１,,33,216,7190102,,,,,,,2023-11-06,1,,,,,ナベヤ,0
1519,5260003004488,新規,0,2023-11-06,2023-11-06,合同会社山金,,合同会社,岡山県,新見市,高尾２４６９番地７,,33,210,7180003,,,,,,,2023-11-06,1,,,,,ヤマキン,0
1520,5270005005566,新規,0,2023-11-06,2023-11-06,医療法人松下歯科医院,,その他の設立登記法人,鳥取県,鳥取市,栄町７６３番地メルヘンビル２Ｆ,,31,201,6800831,,,,,,,2023-11-06,1,,,,,マツシタシカイイン,0
1525,5290001103586,新規,0,2023-11-06,2023-11-06,瀧城株式会社,,株式会社,福岡県,福岡市東区,香椎照葉７丁目２番４０号,,40,131,8130017,,,,,,,2023-11-06,1,,,,,タキシロ,0
1526,5290001103628,新規,0,2023-11-06,2023-11-06,香彩商事株式会社,,株式会社,福岡県,春日市,上白水６丁目１７７番地１０１号,,40,218,8160844,,,,,,,2023-11-06,1,,,,,キョウサイショウジ,0
1527,5290003014575,新規,0,2023-11-06,2023-11-06,合同会社ミヤビ総建,,合同会社,福岡県,福岡市早良区,原３丁目９番３０号豊荘２０８,,40,137,8140022,,,,,,,2023-11-06,1,,,,,ミヤビソウケン,0
1534,5290801030014,新規,0,2023-11-06,2023-11-06,株式会社タイアップ福岡,,株式会社,福岡県,宮若市,倉久１９０８番地３,,40,226,8230017,,,,,,,2023-11-06,1,,,,,タイアップフクオカ,0
1535,5290801030022,新規,0,2023-11-06,2023-11-06,株式会社ＤＳカンパニー,,株式会社,福岡県,北九州市小倉北区,城内７番１７－７０５号,,40,106,8030813,,,,,,,2023-11-06,1,,,,,ディーエスカンパニー,0
1539,5310001018690,新規,0,2023-11-06,2023-11-06,株式会社一真会,,株式会社,長崎県,平戸市,浦の町７５６番地１,,42,207,8595111,,,,,,,2023-11-06,1,,,,,イッシンカイ,0
1546,5320005010107,新規,0,2023-11-06,2023-11-06,一般社団法人ＪＡＰＡＮ　ＢＡＳＥＢＡＬＬ　ＳＰＩＲＩＴＳ‐Ａｕｒｏｒａ,,その他の設立登記法人,大分県,大分市,大字八幡３９番地１大分スパハイツ２０１号,,44,201,8700100,,,,,,,2023-11-06,1,,,,,ジャパンベースボールスピリッツアウローラ,0
1548,5330001031436,新規,0,2023-11-06,2023-11-06,株式会社善幸,,株式会社,熊本県,熊本市中央区,島崎１丁目１７番５０号（７０１）,,43,101,8600073,,,,,,,2023-11-06,1,,,,,ゼンコウ,0
1559,5370001050606,新規,0,2023-11-06,2023-11-06,株式会社山水,,株式会社,宮城県,仙台市青葉区,中山６丁目２１番２号,,04,101,9810952,,,,,,,2023-11-06,1,,,,,サンスイ,0
1560,5370005010705,新規,0,2023-11-06,2023-11-06,一般社団法人東北ジャーナル刊行会,,その他の設立登記法人,宮城県,仙台市青葉区,星陵町２番１号,,04,101,9800872,,,,,,,2023-11-06,1,,,,,トウホクジャーナルカンコウカイ,0
1580,5470003002512,新規,0,2023-11-06,2023-11-06,合同会社那須,,合同会社,香川県,高松市,牟礼町大町１４１５番地７０,,37,201,7610122,,,,,,,2023-11-06,1,,,,,ナス,0
1581,5490001010630,新規,0,2023-11-06,2023-11-06,株式会社ウチダ,,株式会社,高知県,高知市,上町２丁目１２番６号,,39,201,7800901,,,,,,,2023-11-06,1,,,,,ウチダ,0
1584,5700150121834,新規,0,2023-11-06,2023-11-06,茶屋町Ｂ－２・Ｂ－３地区市街地再開発組合,,その他,大阪府,大阪市中央区,南船場４丁目４番３号,,27,128,5420081,,,,,,,2023-11-06,1,,,,,チヤヤマチビーニビーサンチクシガイチサイカイハツクミアイ,0
1595,6010001239647,新規,0,2023-11-06,2023-11-06,株式会社マギクリエイト,,株式会社,東京都,千代田区,永田町２丁目１７番５号,,13,101,1000014,,,,,,,2023-11-06,1,,,,,マギクリエイト,0
1596,6010001239837,新規,0,2023-11-06,2023-11-06,株式会社アニマルセラピー,,株式会社,東京都,千代田区,大手町１丁目１番１号,,13,101,1000004,,,,,,,2023-11-06,1,,,,,アニマルセラピー,0
1598,6010003042124,新規,0,2023-11-06,2023-11-06,合同会社ＴＯＫＹＯ　ＷＨＩＴＥ,,合同会社,東京都,中央区,銀座７丁目１３番２１号銀座ｓｉｎｒｏｋｕｓｙｕビル２階,,13,102,1040061,,,,,,,2023-11-06,1,,,,,トキョウホワイト,0
1602,6010401178346,新規,0,2023-11-06,2023-11-06,株式会社Ｈａｋｕｔｏｕ,,株式会社,東京都,港区,南青山２丁目２－１５ＷｉｎＡｏｙａｍａビルＵＣＦ６３５,,13,103,1070062,,,,,,,2023-11-06,1,,,,,ハクトウ,0
1604,6010403031288,新規,0,2023-11-06,2023-11-06,エムエスシー日本合同会社,,合同会社,東京都,港区,赤坂１丁目１２番３２号,,13,103,1070052,,,,,,,2023-11-06,1,,,,,エムエスシーニッポン,0
1605,6010403031296,新規,0,2023-11-06,2023-11-06,合同会社トレック・ウラヌス,,合同会社,東京都,港区,赤坂７丁目６番１５号,,13,103,1070052,,,,,,,2023-11-06,1,,,,,トレックウラヌス,0
1606,6010403031305,新規,0,2023-11-06,2023-11-06,Ｌｉｓｔｍａｎ合同会社,,合同会社,東京都,港区,南青山２丁目２番１５号,,13,103,1070062,,,,,,,2023-11-06,1,,,,,リストマン,0
1608,6010405022616,新規,0,2023-11-06,2023-11-06,一般社団法人ポートランド日本庭園およびジャパン・インスティテュート,,その他の設立登記法人,東京都,港区,六本木５丁目１１－１６国際文化会館西館１０７号,,13,103,1060032,,,,,,,2023-11-06,1,,,,,ポートランドニホンテイエンオヨビジャパンインスティテュート,0
1611,6010501051279,新規,0,2023-11-06,2023-11-06,ヘルスケアアジア株式会社,,株式会社,東京都,台東区,上野３丁目１６番２号,,13,106,1100005,,,,,,,2023-11-06,1,,,,,ヘルスケアアジア,0
1612,6010501051304,新規,0,2023-11-06,2023-11-06,株式会社水道修理の専門店,,株式会社,東京都,台東区,上野６丁目８－１９－３０１,,13,106,1100005,,,,,,,2023-11-06,1,,,,,スイドウシュウリノセンモンテン,0
1614,6010603010447,新規,0,2023-11-06,2023-11-06,合同会社陸勝,,合同会社,東京都,江東区,新大橋３丁目１７番１－３０９号,,13,108,1350007,,,,,,,2023-11-06,1,,,,,ロクショウ,0
1615,6010603010463,新規,0,2023-11-06,2023-11-06,合同会社澁澤,,合同会社,東京都,江東区,富岡２丁目６番４号矢野第３ビル６０３,,13,108,1350047,,,,,,,2023-11-06,1,,,,,シブサワ,0
1618,6010701045080,新規,0,2023-11-06,2023-11-06,株式会社ロイジャパン,,株式会社,東京都,品川区,東五反田１丁目２３－９カージェ五反田５０１,,13,109,1410022,,,,,,,2023-11-06,1,,,,,ロイジャパン,0
1619,6010703006931,新規,0,2023-11-06,2023-11-06,合同会社Ｅｔｅｒｎａｌ,,合同会社,東京都,品川区,小山５丁目２２番８号,,13,109,1420062,,,,,,,2023-11-06,1,,,,,エターナル,0
1627,6010901054154,新規,0,2023-11-06,2023-11-06,株式会社ＨＯＮＥＤ,,株式会社,東京都,世田谷区,北沢３丁目３１番１５号ＮＨ下北沢ビル２Ｆ,,13,112,1550031,,,,,,,2023-11-06,1,,,,,ホーンド,0
1628,6010903008554,新規,0,2023-11-06,2023-11-06,ポケットビースクール合同会社,,合同会社,東京都,世田谷区,桜上水１丁目１番４－４０４号,,13,112,1560045,,,,,,,2023-11-06,1,,,,,ポケットビースクール,0
1629,6010903008570,新規,0,2023-11-06,2023-11-06,４６３合同会社,,合同会社,東京都,世田谷区,野沢１丁目１５－５ルピニヨン野沢２０４,,13,112,1540003,,,,,,,2023-11-06,1,,,,,ヨンロクサン,0
1634,6011001157970,新規,0,2023-11-06,2023-11-06,Ｊ＆Ｒ　Ｗｉｌｔｏｎ　Ａｓｓｅｔ　Ｍａｎａｇｅｍｅｎｔ株式会社,,株式会社,東京都,渋谷区,神山町２８番７号,,13,113,1500047,,,,,,,2023-11-06,1,,,,,ジェイアンドアールウィルトンアセットマネジメント,0
1635,6011001158085,新規,0,2023-11-06,2023-11-06,株式会社Ｂｌｏｏｍｉｎ’ｐｒｏｄｕｃｅ,,株式会社,東京都,渋谷区,幡ヶ谷１丁目２番２号京王幡ヶ谷ビル４階Ｍｉｄｐｏｉｎｔ幡ヶ谷４－４０,,13,113,1510072,,,,,,,2023-11-06,1,,,,,ブルーミンプロデュース,0
1644,6011101105004,新規,0,2023-11-06,2023-11-06,株式会社ソニックス,,株式会社,東京都,新宿区,西新宿５丁目２３番２号,,13,104,1600023,,,,,,,2023-11-06,1,,,,,ソニックス,0
1645,6011101105029,新規,0,2023-11-06,2023-11-06,株式会社エンカウンター東京,,株式会社,東京都,新宿区,喜久井町２番地アパ早稲田ビル６Ｆ,,13,104,1620044,,,,,,,2023-11-06,1,,,,,エンカウンタートウキョウ,0
1646,6011101105045,新規,0,2023-11-06,2023-11-06,株式会社Ｆａｆｕｒｉ,,株式会社,東京都,新宿区,高田馬場１丁目３２番１０号,,13,104,1690075,,,,,,,2023-11-06,1,,,,,ファフリ,0
1647,6011103013683,新規,0,2023-11-06,2023-11-06,合同会社ＴＵ２４,,合同会社,東京都,新宿区,四谷２丁目９番地１５東京ユナイテッド綜合事務所内,,13,104,1600004,,,,,,,2023-11-06,1,,,,,ティーユーニジュウヨン,0
1648,6011105010836,新規,0,2023-11-06,2023-11-06,一般社団法人ＴＵ２５,,その他の設立登記法人,東京都,新宿区,四谷２丁目９番地１５東京ユナイテッド綜合事務所内,,13,104,1600004,,,,,,,2023-11-06,1,,,,,ティーユーニジュウゴ,0
1649,6011105010844,新規,0,2023-11-06,2023-11-06,一般社団法人ＨＩＮＡＴＡ,,その他の設立登記法人,東京都,新宿区,新宿３丁目２７－１新宿第一ビル４Ｆ,,13,104,1600022,,,,,,,2023-11-06,1,,,,,ヒナタ,0
1656,6011603004117,新規,0,2023-11-06,2023-11-06,リベントフットボールクラブ合同会社,,合同会社,東京都,練馬区,平和台２丁目１３番６号,,13,120,1790083,,,,,,,2023-11-06,1,,,,,,0
1657,6011701026723,新規,0,2023-11-06,2023-11-06,株式会社ファイズ・プラネット,,株式会社,東京都,江戸川区,船堀４丁目１３番１５,,13,123,1340091,,,,,,,2023-11-06,1,,,,,ファイズプラネット,0
1659,6011801043271,新規,0,2023-11-06,2023-11-06,俵屋フーズ株式会社,,株式会社,東京都,足立区,花畑１丁目１４番１１号,,13,121,1210061,,,,,,,2023-11-06,1,,,,,タワラヤフーズ,0
1661,6012301013649,新規,0,2023-11-06,2023-11-06,株式会社ｋａｎｏａ,,株式会社,東京都,町田市,森野１丁目３４番１３－２０２号,,13,209,1940022,,,,,,,2023-11-06,1,,,,,カノア,0
1669,6012401041194,新規,0,2023-11-06,2023-11-06,株式会社近藤工業,,株式会社,東京都,狛江市,西野川２丁目２９番８号フロレスタレシデンシアＡ１０４,,13,219,2010001,,,,,,,2023-11-06,1,,,,,コンドウコウギョウ,0
1675,6013301051572,新規,0,2023-11-06,2023-11-06,株式会社ネコ企画,,株式会社,東京都,豊島区,東池袋３丁目１５－２－１００１,,13,116,1700013,,,,,,,2023-11-06,1,,,,,ネコキカク,0
1683,6020001154250,新規,0,2023-11-06,2023-11-06,ｎｅｃｏｔｅ株式会社,,株式会社,神奈川県,横浜市港北区,高田町１９７５,,14,109,2230063,,,,,,,2023-11-06,1,,,,,ネコテ,0
1684,6020001154267,新規,0,2023-11-06,2023-11-06,株式会社ＬＫｄａｎｃｅ,,株式会社,神奈川県,横浜市保土ケ谷区,岩井町１番地７アーバン保土ヶ谷駅ビル５Ｆ,,14,106,2400023,,,,,,,2023-11-06,1,,,,,エルケーダンス,0
1685,6020001154283,新規,0,2023-11-06,2023-11-06,Ｓ．Ｃ．ｂｕｓ株式会社,,株式会社,神奈川県,横浜市南区,通町２丁目２０番地２レーヴ横浜蒔田フェルクルール９０１,,14,105,2320056,,,,,,,2023-11-06,1,,,,,エスシーバス,0
1686,6020001154341,新規,0,2023-11-06,2023-11-06,ソルベスト株式会社,,株式会社,神奈川県,横浜市港北区,新横浜３丁目７番地１８,,14,109,2220033,,,,,,,2023-11-06,1,,,,,ソルベスト,0
1690,6020003024906,新規,0,2023-11-06,2023-11-06,合同会社Ｏｆｆｉｃｅ　Ｋ,,合同会社,神奈川県,横浜市青葉区,すすき野１丁目６番地８０,,14,117,2250021,,,,,,,2023-11-06,1,,,,,オフィスケー,0
1695,6021003013782,新規,0,2023-11-06,2023-11-06,合同会社みちしるべ,,合同会社,神奈川県,鎌倉市,台３丁目９―１９―１,,14,204,2470061,,,,,,,2023-11-06,1,,,,,ミチシルベ,0
1703,6030001156980,新規,0,2023-11-06,2023-11-06,株式会社Ａｚ,,株式会社,埼玉県,所沢市,東住吉１５番３２号Ｓｔｏｒｋｐｏｎｄ所沢１０１号室,,11,208,3591124,,,,,,,2023-11-06,1,,,,,アズ,0
1704,6030001157054,新規,0,2023-11-06,2023-11-06,ＨＩＬＬＳ　ＴＯＰ株式会社,,株式会社,埼玉県,さいたま市大宮区,北袋町２丁目４４８番地１パークフロント新都心２０１,,11,103,3300835,,,,,,,2023-11-06,1,,,,,ヒルズトップ,0
1714,6040001130778,新規,0,2023-11-06,2023-11-06,株式会社カスケード,,株式会社,千葉県,流山市,江戸川台西３丁目１２番地の１,,12,220,2700115,,,,,,,2023-11-06,1,,,,,カスケード,0
1715,6040001130786,新規,0,2023-11-06,2023-11-06,１ｗ４株式会社,,株式会社,千葉県,柏市,逆井４丁目２５－３５,,12,217,2770042,,,,,,,2023-11-06,1,,,,,ワンダブリューフォー,0
1716,6040001130803,新規,0,2023-11-06,2023-11-06,株式会社スポーツネットデオキ,,株式会社,千葉県,船橋市,三咲７丁目２２番１９号,,12,204,2740812,,,,,,,2023-11-06,1,,,,,スポーツネットデオキ,0
1724,6060001036511,新規,0,2023-11-06,2023-11-06,株式会社ＲＹＯＷＡホールディングス,,株式会社,栃木県,宇都宮市,兵庫塚３丁目４８番２３号,,09,201,3210138,,,,,,,2023-11-06,1,,,,,リョウワホールディングス,0
1726,6070001041056,新規,0,2023-11-06,2023-11-06,株式会社ベイギリサイクル,,株式会社,群馬県,伊勢崎市,堀口町８９８番地,,10,204,3720834,,,,,,,2023-11-06,1,,,,,ベイギリサイクル,0
1727,6070003005158,新規,0,2023-11-06,2023-11-06,センス・フュージョン合同会社,,合同会社,群馬県,伊勢崎市,山王町３３３番地３,,10,204,3720831,,,,,,,2023-11-06,1,,,,,センスフュージョン,0
1729,6080001025966,新規,0,2023-11-06,2023-11-06,クローバー株式会社,,株式会社,静岡県,静岡市葵区,伝馬町１番地の２ホテルシティオ３階,,22,101,4200858,,,,,,,2023-11-06,1,,,,,クローバー,0
1732,6080101024315,新規,0,2023-11-06,2023-11-06,株式会社ＨＡＷＫ,,株式会社,静岡県,富士市,水戸島１６８番地の１コーポイナバ１０１,,22,210,4160921,,,,,,,2023-11-06,1,,,,,ホーク,0
1738,6080401026829,新規,0,2023-11-06,2023-11-06,株式会社楽座,,株式会社,静岡県,浜松市北区,三方原町１６７３番地の１４,,22,135,4338105,,,,,,,2023-11-06,1,,,,,ラクザ,0
1741,6100001036944,新規,0,2023-11-06,2023-11-06,株式会社７０３,,株式会社,長野県,長野市,川中島町上氷鉋１３６３番地１エポック川中島駅前３０１,,20,201,3812233,,,,,,,2023-11-06,1,,,,,ナオミ,0
1743,6100003007241,新規,0,2023-11-06,2023-11-06,合同会社アメのちハレ,,合同会社,長野県,千曲市,大字小島２７８９番地,,20,218,3870013,,,,,,,2023-11-06,1,,,,,アメノチハレ,0
1744,6110001037958,新規,0,2023-11-06,2023-11-06,株式会社京蟻,,株式会社,新潟県,新潟市西区,坂井１丁目３番４号,,15,107,9502042,,,,,,,2023-11-06,1,,,,,ケイギ,0
1761,6120001259163,新規,0,2023-11-06,2023-11-06,株式会社みろく,,株式会社,大阪府,大阪市淀川区,十三元今里１丁目７番３２号,,27,123,5320028,,,,,,,2023-11-06,1,,,,,ミロク,0
1762,6120001259279,新規,0,2023-11-06,2023-11-06,＿丹株式会社,00132516,株式会社,大阪府,大阪市西淀川区,野里１丁目３１－７－１０６,,27,113,5550024,,,,,,,2023-11-06,1,,,,,ハクタン,0
1763,6120001259411,新規,0,2023-11-06,2023-11-06,株式会社かがやきｗｉｔｈすまいる,,株式会社,大阪府,枚方市,走谷２丁目３６番４号,,27,210,5730063,,,,,,,2023-11-06,1,,,,,カガヤキウィズスマイル,0
1764,6120001259428,新規,0,2023-11-06,2023-11-06,株式会社ＯＵ,,株式会社,大阪府,大阪市港区,弁天１丁目６－３２－２０１,,27,107,5520007,,,,,,,2023-11-06,1,,,,,オーユー,0
1765,6120001259477,新規,0,2023-11-06,2023-11-06,日通株式会社,,株式会社,大阪府,大阪市中央区,松屋町９番２０号ローレルステート松屋町１３０６Ａ,,27,128,5420067,,,,,,,2023-11-06,1,,,,,ヒツウ,0
1766,6120001259551,新規,0,2023-11-06,2023-11-06,株式会社オーガスト,,株式会社,大阪府,寝屋川市,大利町３８番３号,,27,215,5720048,,,,,,,2023-11-06,1,,,,,オーガスト,0
1767,6120001259634,新規,0,2023-11-06,2023-11-06,株式会社リベ大中古車センター,,株式会社,大阪府,大阪市中央区,南久宝寺町３丁目４番１５号３階,,27,128,5410058,,,,,,,2023-11-06,1,,,,,リベダイチュウコシャセンター,0
1768,6120001259650,新規,0,2023-11-06,2023-11-06,株式会社ＫＭＲ,,株式会社,大阪府,大阪市天王寺区,上本町８丁目４番１１号,,27,109,5430001,,,,,,,2023-11-06,1,,,,,ケーエムアール,0
1771,6120003025258,新規,0,2023-11-06,2023-11-06,エムエイチワン合同会社,,合同会社,大阪府,大阪市住吉区,万代３丁目１１－１メロディハイム東帝塚山４０２,,27,120,5580055,,,,,,,2023-11-06,1,,,,,エムエイチワン,0
1772,6120005023978,新規,0,2023-11-06,2023-11-06,税理士法人エナジー,,その他の設立登記法人,大阪府,大阪市中央区,久太郎町３丁目６番８号,,27,128,5410056,,,,,,,2023-11-06,1,,,,,エナジー,0
1773,6120101068472,新規,0,2023-11-06,2023-11-06,株式会社ＦＨＩ,,株式会社,大阪府,堺市中区,深井清水町３２８２番地尾崎ビル２階,,27,142,5998273,,,,,,,2023-11-06,1,,,,,エフエイチアイ,0
1774,6120101068489,新規,0,2023-11-06,2023-11-06,株式会社優良建設,,株式会社,大阪府,泉佐野市,上瓦屋３０３番地の１フローラヴィレッジ１０３,,27,213,5980001,,,,,,,2023-11-06,1,,,,,ユラケンセツ,0
1777,6120901048310,新規,0,2023-11-06,2023-11-06,株式会社落合工務店,,株式会社,大阪府,箕面市,如意谷１丁目３番２３号,,27,220,5620011,,,,,,,2023-11-06,1,,,,,オチアイコウムテン,0
1778,6122001037532,新規,0,2023-11-06,2023-11-06,株式会社畷製作所,,株式会社,大阪府,大東市,新田北町５番３９号,,27,218,5740052,,,,,,,2023-11-06,1,,,,,ナワテセイサクショ,0
1782,6130001075584,新規,0,2023-11-06,2023-11-06,株式会社レゴリス近畿,,株式会社,京都府,京都市山科区,東野南井ノ上町８－１６,,26,110,6078143,,,,,,,2023-11-06,1,,,,,レゴリスキンキ,0
1783,6130001075618,新規,0,2023-11-06,2023-11-06,株式会社福家,,株式会社,京都府,京都市中京区,西ノ京船塚町９番地２,00132524,26,104,6048426,,,,,,,2023-11-06,1,,,,,フクヤ,0
1784,6130001075683,新規,0,2023-11-06,2023-11-06,鶴錦株式会社,,株式会社,京都府,京都市下京区,黒門通仏光寺下る今大黒町１９９番地１階,,26,106,6008384,,,,,,,2023-11-06,1,,,,,ツルニシキ,0
1799,6140001132203,新規,0,2023-11-06,2023-11-06,株式会社Ｂ　ｌｅｇｉｔ,,株式会社,兵庫県,神戸市中央区,中町通２丁目３番２号,,28,110,6500027,,,,,,,2023-11-06,1,,,,,ビーレジット,0
1800,6140001132252,新規,0,2023-11-06,2023-11-06,ヴィリオン株式会社,,株式会社,兵庫県,姫路市,大塩町１９７７番地１４ラフェスタ大塩１００１,,28,201,6710101,,,,,,,2023-11-06,1,,,,,ヴィリオン,0
1801,6140001132260,新規,0,2023-11-06,2023-11-06,株式会社ＹＣトレーディング,,株式会社,兵庫県,尼崎市,神崎町３０番６号,,28,202,6610964,,,,,,,2023-11-06,1,,,,,ワイシートレーディング,0
1802,6140001132269,新規,0,2023-11-06,2023-11-06,株式会社Ｈ＆Ｅ,,株式会社,兵庫県,洲本市,栄町２丁目３－３０栄町サンプラザ２０２号室,,28,205,6560026,,,,,,,2023-11-06,1,,,,,エイチアンドイー,0
1805,6140003019761,新規,0,2023-11-06,2023-11-06,Ｔｈｉｓｅｎｉ　Ｇｅｍｓ　Ｊａｐａｎ合同会社,,合同会社,兵庫県,神戸市中央区,北長狭通３丁目３１番５５号,,28,110,6500012,,,,,,,2023-11-06,1,,,,,ティセニジェムズジャパン,0
1807,6140005026789,新規,0,2023-11-06,2023-11-06,アーク社会保険労務士法人,,その他の設立登記法人,兵庫県,神戸市垂水区,舞子台６丁目１９番１４号,,28,108,6550046,,,,,,,2023-11-06,1,,,,,アーク,0
1809,6170001017871,新規,0,2023-11-06,2023-11-06,株式会社ＴｉｅｒＭｉｎｄ,,株式会社,和歌山県,日高郡印南町,大字印南原４９５番地,,30,390,6491532,,,,,,,2023-11-06,1,,,,,ティアマインド,0
1812,6180001158789,新規,0,2023-11-06,2023-11-06,株式会社ＩＶＥ,,株式会社,愛知県,一宮市,大赤見字大山西３０番地３,,23,203,4910015,,,,,,,2023-11-06,1,,,,,アイヴ,0
1813,6180001158806,新規,0,2023-11-06,2023-11-06,株式会社ＡＣＥ　Ｐｌｕｓ,,株式会社,愛知県,小牧市,大字三ツ渕１６３２番地１アイシンビル３階,,23,219,4850075,,,,,,,2023-11-06,1,,,,,エースプラス,0
1814,6180001158814,新規,0,2023-11-06,2023-11-06,株式会社オフィスＣ,,株式会社,愛知県,江南市,村久野町藤里９１番地９,,23,217,4838317,,,,,,,2023-11-06,1,,,,,オフィスシー,0
1815,6180001158822,新規,0,2023-11-06,2023-11-06,株式会社ファニチャーデコール,,株式会社,愛知県,海部郡大治町,大字西條字壱町田２５番地の２,,23,424,4901144,,,,,,,2023-11-06,1,,,,,ファニチャーデコール,0
1816,6180001158830,新規,0,2023-11-06,2023-11-06,株式会社ＩＲＯＲＩ,,株式会社,愛知県,名古屋市瑞穂区,片坂町３丁目３４番地の２メゾン片坂Ｂ１号,,23,108,4670052,,,,,,,2023-11-06,1,,,,,イロリ,0
1817,6180001158839,新規,0,2023-11-06,2023-11-06,株式会社ＢｅｌｘｉＡ,,株式会社,愛知県,名古屋市東区,泉１丁目１７番２８号フローラルコート泉６０１,,23,102,4610001,,,,,,,2023-11-06,1,,,,,ベルシア,0
1818,6180001158855,新規,0,2023-11-06,2023-11-06,株式会社ＯＮＥ　ｍｉｌｅ,,株式会社,愛知県,名古屋市西区,山木２丁目１番地の１ライオンズ上小田井オアシスプレイス７１１号,,23,104,4520833,,,,,,,2023-11-06,1,,,,,ワンマイル,0
1822,6180003025954,新規,0,2023-11-06,2023-11-06,ツイン・テック合同会社,,合同会社,愛知県,一宮市,時之島字川向４４番地,,23,203,4910002,,,,,,,2023-11-06,1,,,,,ツインテック,0
1830,6190005011877,新規,0,2023-11-06,2023-11-06,一般社団法人水谷建設厚生会,,その他の設立登記法人,三重県,桑名市,大字蛎塚新田３２８番地,,24,205,5110861,,,,,,,2023-11-06,1,,,,,ミズタニケンセツコウセイカイ,0
1834,6200003006142,新規,0,2023-11-06,2023-11-06,合同会社まりん,,合同会社,岐阜県,安八郡神戸町,大字柳瀬４３番地,,21,381,5032317,,,,,,,2023-11-06,1,,,,,マリン,0
1836,6210003001720,新規,0,2023-11-06,2023-11-06,合同会社ＹＯＫＡＩ．ＣＯＭ,,合同会社,福井県,越前市,広瀬町７８－１６,,18,209,9150872,,,,,,,2023-11-06,1,,,,,ヨウカイドットコム,0
1838,6220001025662,新規,0,2023-11-06,2023-11-06,株式会社ＬＩＫＯ,,株式会社,石川県,金沢市,額新町１丁目１７７‐１,,17,201,9218149,,,,,,,2023-11-06,1,,,,,リコ,0
1839,6220001025670,新規,0,2023-11-06,2023-11-06,ＬＩＭＳ　ＷＯＲＫ株式会社,,株式会社,石川県,金沢市,笠市町４番２１号,,17,201,9200851,,,,,,,2023-11-06,1,,,,,リムズワーク,0
1843,6230001020084,新規,0,2023-11-06,2023-11-06,株式会社ナノエステート,,株式会社,富山県,高岡市,東中川町１番１５号,,16,202,9330047,,,,,,,2023-11-06,1,,,,,ナノエステート,0
1846,6240001062365,新規,0,2023-11-06,2023-11-06,株式会社ｃｏｎｎｅｃｔ,,株式会社,広島県,広島市安佐南区,緑井３丁目２０番１号,,34,105,7310103,,,,,,,2023-11-06,1,,,,,コネクト,0
1847,6240001062381,新規,0,2023-11-06,2023-11-06,株式会社ｃｒｏｓｓ,,株式会社,広島県,広島市南区,的場町１丁目３番４号,,34,103,7320824,,,,,,,2023-11-06,1,,,,,クロス,0
1849,6250005008875,新規,0,2023-11-06,2023-11-06,税理士法人ひびき,,その他の設立登記法人,山口県,下関市,武久町２丁目３番１号,,35,201,7510833,,,,,,,2023-11-06,1,,,,,ヒビキ,0
1850,6260001038454,新規,0,2023-11-06,2023-11-06,株式会社ＡＲＥＡ‐Ｂ,,株式会社,岡山県,倉敷市,安江４７７番地２（２Ｆ）,,33,202,7100825,,,,,,,2023-11-06,1,,,,,エリアビー,0
1851,6260001038462,新規,0,2023-11-06,2023-11-06,株式会社カツウラ開発,,株式会社,岡山県,岡山市東区,西大寺浜１３７番地５９,,33,103,7048126,,,,,,,2023-11-06,1,,,,,カツウラカイハツ,0
1857,6290001103602,新規,0,2023-11-06,2023-11-06,株式会社凪レイアウト,,株式会社,福岡県,福岡市西区,姪の浜５丁目１０番３６号,,40,135,8190002,,,,,,,2023-11-06,1,,,,,ナギレイアウト,0
1858,6290001103627,新規,0,2023-11-06,2023-11-06,株式会社こまつばら,,株式会社,福岡県,那珂川市,大字南面里７８１番地１,,40,231,8111236,,,,,,,2023-11-06,1,,,,,コマツバラ,0
1859,6290001103635,新規,0,2023-11-06,2023-11-06,九州観光開発株式会社,,株式会社,福岡県,福岡市中央区,春吉２丁目５番１号,,40,133,8100003,,,,,,,2023-11-06,1,,,,,キュウシュウカンコウカイハツ,0
1877,6300003002040,新規,0,2023-11-06,2023-11-06,合同会社Ｎｏａｈ,,合同会社,佐賀県,佐賀市,赤松町３番１４－１号,,41,201,8400042,,,,,,,2023-11-06,1,,,,,ノア,0
1878,6310003004671,新規,0,2023-11-06,2023-11-06,合同会社Ｃａｒエナジー,,合同会社,長崎県,北松浦郡佐々町,小浦免１５６４－９,,42,391,8570361,,,,,,,2023-11-06,1,,,,,カーエナジー,0
1887,6330001031443,新規,0,2023-11-06,2023-11-06,株式会社Ｔｏｍｏｓｈｉｂｉ,,株式会社,熊本県,八代市,鏡町内田６９８番地１,,43,202,8694202,,,,,,,2023-11-06,1,,,,,トモシビ,0
1890,6330003010073,新規,0,2023-11-06,2023-11-06,合同会社宮園建設工業,,合同会社,熊本県,菊池郡菊陽町,大字久保田２４８９番地１,,43,404,8691103,,,,,,,2023-11-06,1,,,,,ミヤゾノケンセツコウギョウ,0
1892,6340001026046,新規,0,2023-11-06,2023-11-06,株式会社共栄,,株式会社,鹿児島県,奄美市,名瀬大字仲勝２９９番地２３（サザンハイツＢ棟１０３号）,,46,222,8940003,,,,,,,2023-11-06,1,,,,,キョウエイ,0
1897,6340005009674,新規,0,2023-11-06,2023-11-06,一般社団法人かごんま人生笑顔が一番の会,,その他の設立登記法人,鹿児島県,姶良市,東餅田１３２６番地２,,46,225,8995421,,,,,,,2023-11-06,1,,,,,カゴンマジンセイエガオガイチバンノカイ,0
1900,6360001032777,新規,0,2023-11-06,2023-11-06,株式会社拓陽住宅,,株式会社,沖縄県,南城市,大里字高平１３１番地３６,,47,215,9011205,,,,,,,2023-11-06,1,,,,,タクヨウジュウタク,0
1902,6360003013445,新規,0,2023-11-06,2023-11-06,ブリッジビジネスサポート合同会社,,合同会社,沖縄県,豊見城市,字豊崎３番地の５９－３１０,,47,212,9010225,,,,,,,2023-11-06,1,,,,,ブリッジビジネスサポート,0
1903,6360003013453,新規,0,2023-11-06,2023-11-06,エントテン合同会社,,合同会社,沖縄県,中頭郡北中城村,字島袋１３３５,,47,327,9012301,,,,,,,2023-11-06,1,,,,,エントテン,0
1904,6370001050596,新規,0,2023-11-06,2023-11-06,株式会社ＳＱＵＡＲＥ,,株式会社,宮城県,仙台市宮城野区,原町１丁目１－１９、１０１,,04,102,9830841,,,,,,,2023-11-06,1,,,,,スクエア,0
1905,6370003006340,新規,0,2023-11-06,2023-11-06,伊達紋合同会社,,合同会社,宮城県,亘理郡亘理町,逢隈鹿島字町東南１６番地４号,,04,361,9892371,,,,,,,2023-11-06,1,,,,,ダテモン,0
1908,6390003002156,新規,0,2023-11-06,2023-11-06,ｐｔスタイル合同会社,,合同会社,山形県,東村山郡中山町,大字長崎２７４－２,,06,302,9900401,,,,,,,2023-11-06,1,,,,,ピーティースタイル,0
1909,6400001016453,新規,0,2023-11-06,2023-11-06,株式会社Ｃａｍｐａｎｅｌｌａ,,株式会社,岩手県,紫波郡紫波町,上平沢字川原田２３番地３６,,03,321,0283441,,,,,,,2023-11-06,1,,,,,カムパネラ,0
1916,6430003015599,新規,0,2023-11-06,2023-11-06,合同会社Ｓｐｉｃａ,,合同会社,北海道,札幌市中央区,北七条西２５丁目３－６アルファ北円山４０２,,01,101,0600007,,,,,,,2023-11-06,1,,,,,スピカ,0
1918,6460103001570,新規,0,2023-11-06,2023-11-06,合同会社ローグ,,合同会社,北海道,帯広市,西十六条北１丁目１５番地１４,,01,207,0800046,,,,,,,2023-11-06,1,,,,,ローグ,0
1920,6470001019879,新規,0,2023-11-06,2023-11-06,株式会社ＭＡＰＬＥ　ＧＲＯＷ,,株式会社,香川県,東かがわ市,松原１５３３番地２,,37,207,7692702,,,,,,,2023-11-06,1,,,,,メイプルグロウ,0
1921,6470001019887,新規,0,2023-11-06,2023-11-06,株式会社ＫＡＷＡＳＯＭＥファーム,,株式会社,香川県,綾歌郡綾川町,羽床下２４８５番地１,,37,387,7612308,,,,,,,2023-11-06,1,,,,,カワソメファーム,0
1924,6500001025279,新規,0,2023-11-06,2023-11-06,和田外装株式会社,,株式会社,愛媛県,西条市,周布７３５番地１,,38,206,7991371,,,,,,,2023-11-06,1,,,,,ワダガイソウ,0
1925,6500001025287,新規,0,2023-11-06,2023-11-06,友道商事株式会社,,株式会社,愛媛県,今治市,南高下町１丁目８２５番地１,,38,202,7940811,,,,,,,2023-11-06,1,,,,,ユウドウショウジ,0
1926,6500005008651,新規,0,2023-11-06,2023-11-06,一般社団法人きっくおふ,,その他の設立登記法人,愛媛県,四国中央市,妻鳥町２８７７番地１４,,38,213,7990113,,,,,,,2023-11-06,1,,,,,キックオフ,0
1940,7010401178312,新規,0,2023-11-06,2023-11-06,ＭＣ株式会社,,株式会社,東京都,港区,六本木５丁目１３番６－６０７号,,13,103,1060032,,,,,,,2023-11-06,1,,,,,エムシー,0
1941,7010401178353,新規,0,2023-11-06,2023-11-06,和昇株式会社,,株式会社,東京都,港区,三田１丁目３－４０－８０３号室,,13,103,1080073,,,,,,,2023-11-06,1,,,,,ワショウ,0
1946,7010501051294,新規,0,2023-11-06,2023-11-06,株式会社アドバンスビルド,,株式会社,東京都,台東区,松が谷４丁目２１番７号グレイス松ケ谷２０１,,13,106,1110036,,,,,,,2023-11-06,1,,,,,アドバンスビルド,0
1949,7010601064072,新規,0,2023-11-06,2023-11-06,株式会社郡司都市開発研究所,,株式会社,東京都,墨田区,亀沢１丁目２２番１０－１０２号,,13,107,1300014,,,,,,,2023-11-06,1,,,,,グンジトシカイハツケンキュウジョ,0
1950,7010601064080,新規,0,2023-11-06,2023-11-06,株式会社ＴＯＲＩＴＯＭＩ,,株式会社,東京都,江東区,豊洲６丁目２番３１－３００１号,,13,108,1350061,,,,,,,2023-11-06,1,,,,,トリトミ,0
1961,7011003017767,新規,0,2023-11-06,2023-11-06,Ｔａｋｏ　Ｓｔｕｄｉｏ合同会社,,合同会社,東京都,渋谷区,幡ヶ谷１丁目１５－２,,13,113,1510072,,,,,,,2023-11-06,1,,,,,タコスタジオ,0
1965,7011103013682,新規,0,2023-11-06,2023-11-06,合同会社ＴＵ２３,,合同会社,東京都,新宿区,四谷２丁目９番地１５東京ユナイテッド綜合事務所内,,13,104,1600004,,,,,,,2023-11-06,1,,,,,ティーユーニジュウサン,0
1968,7011105010835,新規,0,2023-11-06,2023-11-06,一般社団法人ＴＵ２４,,その他の設立登記法人,東京都,新宿区,四谷２丁目９番地１５東京ユナイテッド綜合事務所内,,13,104,1600004,,,,,,,2023-11-06,1,,,,,ティーユーニジュウヨン,0
1972,7011401025578,新規,0,2023-11-06,2023-11-06,高野建設株式会社,,株式会社,東京都,板橋区,成増１丁目１６番１６号,,13,119,1750094,,,,,,,2023-11-06,1,,,,,タカノケンセツ,0
1973,7011403004167,新規,0,2023-11-06,2023-11-06,合同会社ＨＳホームケア,,合同会社,東京都,板橋区,大山金井町１１番１０号,,13,119,1730024,,,,,,,2023-11-06,1,,,,,エッチエスホームケア,0
1975,7011601027226,新規,0,2023-11-06,2023-11-06,東京衛生管工株式会社,,株式会社,東京都,練馬区,富士見台３丁目７番２４号,,13,120,1770034,,,,,,,2023-11-06,1,,,,,トウキョウエイセイカンコウ,0
1976,7011601027242,新規,0,2023-11-06,2023-11-06,株式会社ＦＯＲＥＡＳ,,株式会社,東京都,練馬区,大泉学園町８丁目９番８号,,13,120,1780061,,,,,,,2023-11-06,1,,,,,フォレアス,0
1977,7011601027250,新規,0,2023-11-06,2023-11-06,株式会社コウシン,,株式会社,東京都,練馬区,石神井台５丁目２５番２７号－４０１,,13,120,1770045,,,,,,,2023-11-06,1,,,,,コウシン,0
1979,7011701017960,新規,0,2023-11-06,2023-11-06,東都開発株式会社,,株式会社,東京都,江戸川区,平井３丁目１１８４番地,,13,123,1320035,,,,,,,2023-11-06,1,,,,,トウトカイハツ,0
1984,7011803005913,新規,0,2023-11-06,2023-11-06,合同会社盛興順,,合同会社,東京都,足立区,谷在家３丁目１１－２,,13,121,1230863,,,,,,,2023-11-06,1,,,,,セイコウジュン,0
1985,7012301013648,新規,0,2023-11-06,2023-11-06,株式会社ＦＲＥＳＨＮＥＳＳ,,株式会社,東京都,町田市,小野路町１０２２番地１４,,13,209,1950064,,,,,,,2023-11-06,1,,,,,フレッシュネス,0
1986,7012303001898,新規,0,2023-11-06,2023-11-06,合同会社Ｍｉｒｕｕ,,合同会社,東京都,町田市,高ヶ坂７丁目１３番１４号,,13,209,1940014,,,,,,,2023-11-06,1,,,,,ミルー,0
1990,7012405004915,新規,0,2023-11-06,2023-11-06,特定非営利活動法人あゆみ,,その他の設立登記法人,東京都,多摩市,一ノ宮４丁目２１番地の６コーポ・コーアイ１０１,,13,224,2060002,,,,,,,2023-11-06,1,,,,,,0
2003,7020001154316,新規,0,2023-11-06,2023-11-06,株式会社カラーズパートナー,,株式会社,神奈川県,横浜市瀬谷区,下瀬谷３丁目１３－１５,,14,114,2460035,,,,,,,2023-11-06,1,,,,,カラーズパートナー,0
2004,7020001154349,新規,0,2023-11-06,2023-11-06,千禾株式会社,,株式会社,神奈川県,横浜市南区,真金町２丁目１８番地２,,14,105,2320021,,,,,,,2023-11-06,1,,,,,センカ,0
2009,7020003024847,新規,0,2023-11-06,2023-11-06,ｆｏｒｓｏｕｒｃｅ合同会社,,合同会社,神奈川県,川崎市幸区,大宮町３番地７トースト川崎４０２,,14,132,2120014,,,,,,,2023-11-06,1,,,,,フォーソース,0
2012,7021001080634,新規,0,2023-11-06,2023-11-06,株式会社ＳｃｒｅｗＷｏｒｋｓ,,株式会社,神奈川県,座間市,栗原中央１丁目９番５号,,14,216,2520014,,,,,,,2023-11-06,1,,,,,スクリューワークス,0
2020,7021003013765,新規,0,2023-11-06,2023-11-06,合同会社湘南労務経営管理,,合同会社,神奈川県,藤沢市,辻堂１丁目４番１９号ＳＵＲＦ４０７号室,,14,205,2510047,,,,,,,2023-11-06,1,,,,,ショウナンロウムケイエイカンリ,0
2032,7030001157045,新規,0,2023-11-06,2023-11-06,華海株式会社,,株式会社,埼玉県,さいたま市大宮区,大成町１丁目４３１番地１－３０４,,11,103,3300852,,,,,,,2023-11-06,1,,,,,カカイ,0
2039,7030003022932,新規,0,2023-11-06,2023-11-06,合同会社ＳＨＩＭＡ,,合同会社,埼玉県,行田市,大字前谷５０６番地１,,11,206,3610038,,,,,,,2023-11-06,1,,,,,,0
2047,7040001130769,新規,0,2023-11-06,2023-11-06,株式会社ＫＡＳＨＩＷＡ研究所,,株式会社,千葉県,印西市,大塚３丁目２２番地２３,,12,231,2701352,,,,,,,2023-11-06,1,,,,,カシワケンキュウジョ,0
2048,7040001130777,新規,0,2023-11-06,2023-11-06,株式会社Ｔｒｕｓｔ,,株式会社,千葉県,船橋市,二和西６丁目１番６号,,12,204,2740806,,,,,,,2023-11-06,1,,,,,トラスト,0
2049,7040001130785,新規,0,2023-11-06,2023-11-06,アイアジア国際株式会社,,株式会社,千葉県,印西市,牧の原３丁目５番地１４２,,12,231,2701331,,,,,,,2023-11-06,1,,,,,アイアジアコクサイ,0
2050,7040001130802,新規,0,2023-11-06,2023-11-06,株式会社崇先導,,株式会社,千葉県,市原市,五所１７０６－１,,12,219,2900066,,,,,,,2023-11-06,1,,,,,シュウセンドウ,0
2051,7040001130827,新規,0,2023-11-06,2023-11-06,株式会社ミーズ,,株式会社,千葉県,千葉市中央区,新宿２丁目１３番８号アーバンライフ愛宕４０２号,,12,101,2600021,,,,,,,2023-11-06,1,,,,,ミーズ,0
2058,7040003023657,新規,0,2023-11-06,2023-11-06,合同会社マリアス,,合同会社,千葉県,千葉市中央区,今井３丁目１番９号メルヴェーユ蘇我１０１号,,12,101,2600834,,,,,,,2023-11-06,1,,,,,マリアス,0
2059,7040003023673,新規,0,2023-11-06,2023-11-06,合同会社ＴＳコーポレーション,,合同会社,千葉県,千葉市稲毛区,小仲台３丁目１４番２棟５０１号,,12,103,2630043,,,,,,,2023-11-06,1,,,,,ティーエスコーポレーション,0
2066,7050001053779,新規,0,2023-11-06,2023-11-06,株式会社ジオ,,株式会社,茨城県,つくばみらい市,伊奈東２８番地１０,,08,235,3002308,,,,,,,2023-11-06,1,,,,,ジオ,0
2074,7070003005157,新規,0,2023-11-06,2023-11-06,Ｇｌｏｂａｌ　Ｗｏｒｌｄ　Ｔｒａｄｉｎｇ　Ｊａｐａｎ合同会社,,合同会社,群馬県,館林市,緑町２丁目１８番３号沢浦マンション２０２号室,,10,207,3740025,,,,,,,2023-11-06,1,,,,,グローバルワールドトレーディングジャパン,0
2077,7080003003085,新規,0,2023-11-06,2023-11-06,ＡＳＴ合同会社,,合同会社,静岡県,静岡市駿河区,下島６１５番地の７４,,22,102,4228037,,,,,,,2023-11-06,1,,,,,エーエスティ,0
2079,7080401026828,新規,0,2023-11-06,2023-11-06,最適運営株式会社,,株式会社,静岡県,袋井市,延久６４２番地の５,,22,216,4370053,,,,,,,2023-11-06,1,,,,,サイテキウンエイ,0
2081,7090003002417,新規,0,2023-11-06,2023-11-06,ホワイトボードホールディングス合同会社,,合同会社,山梨県,中巨摩郡昭和町,西条５１４５番地,,19,384,4093866,,,,,,,2023-11-06,1,,,,,ホワイトボードホールディングス,0
2084,7100001036943,新規,0,2023-11-06,2023-11-06,コアキャピタル株式会社,,株式会社,長野県,諏訪郡下諏訪町,社７４７５番地１,,20,361,3930000,,,,,,,2023-11-06,1,,,,,コアキャピタル,0
2087,7110001037949,新規,0,2023-11-06,2023-11-06,株式会社高頭家,00132526,株式会社,新潟県,長岡市,千歳１丁目３番２５号,,15,202,9400082,,,,,,,2023-11-06,1,,,,,タカトウケ,0
2089,7110003005202,新規,0,2023-11-06,2023-11-06,合同会社ＦｕｎＦｕｍ,,合同会社,新潟県,新潟市中央区,南笹口１丁目９番８号,,15,103,9500912,,,,,,,2023-11-06,1,,,,,ファンファン,0
2104,7120001259419,新規,0,2023-11-06,2023-11-06,百玩株式会社,,株式会社,大阪府,大阪市天王寺区,夕陽丘町４番２号－３７号室,,27,109,5430075,,,,,,,2023-11-06,1,,,,,ヒャクガン,0
2105,7120001259476,新規,0,2023-11-06,2023-11-06,壁紙再生本舗株式会社,,株式会社,大阪府,大阪市西区,京町堀１丁目１６－２８Ｗ京町堀４０２,,27,106,5500003,,,,,,,2023-11-06,1,,,,,カベガミサイセイホンポ,0
2106,7120001259526,新規,0,2023-11-06,2023-11-06,初亜株式会社,,株式会社,大阪府,大阪市住吉区,遠里小野１丁目６－１５遠里小野マンション４０２号室,,27,120,5580032,,,,,,,2023-11-06,1,,,,,ハツア,0
2107,7120001259542,新規,0,2023-11-06,2023-11-06,株式会社Ｒｅａｌｉｚｅ　Ｆｉｅｌｄ　Ｊａｐａｎ,,株式会社,大阪府,大阪市北区,曾根崎新地１丁目１０番１号エスパシオンＹＡＭＡＤＡ３０２号,,27,127,5300002,,,,,,,2023-11-06,1,,,,,リアライズフィールドジャパン,0
2108,7120001259575,新規,0,2023-11-06,2023-11-06,株式会社ティーズコレクト,,株式会社,大阪府,大阪市天王寺区,真田山町２番１５号グリーンヒル真田山３０１号,,27,109,5430015,,,,,,,2023-11-06,1,,,,,ティーズコレクト,0
2109,7120001259583,新規,0,2023-11-06,2023-11-06,株式会社ｌｏｇｉｃａ,,株式会社,大阪府,大阪市北区,梅田１丁目２番２号大阪駅前第２ビル１２－１２,,27,127,5300001,,,,,,,2023-11-06,1,,,,,ロジカ,0
2110,7120001259641,新規,0,2023-11-06,2023-11-06,株式会社セフィーロ,,株式会社,大阪府,大阪市西淀川区,花川２丁目１８番１６号,,27,113,5550023,,,,,,,2023-11-06,1,,,,,セフィーロ,0
2114,7120003025265,新規,0,2023-11-06,2023-11-06,ＴＥＣＨ合同会社,,合同会社,大阪府,大阪市北区,梅田１丁目１－３大阪駅前第３ビル２９階１－１－１号室,,27,127,5300001,,,,,,,2023-11-06,1,,,,,テック,0
2115,7120003025273,新規,0,2023-11-06,2023-11-06,合同会社恒安信業,,合同会社,大阪府,大阪市北区,西天満５丁目９番１０号,,27,127,5300047,,,,,,,2023-11-06,1,,,,,コウアンシンギョウ,0
2116,7120003025281,新規,0,2023-11-06,2023-11-06,合同会社ＣＫエンターテインメント,,合同会社,大阪府,枚方市,高田２丁目２６－１０－６,,27,210,5730073,,,,,,,2023-11-06,1,,,,,シーケーエンターテインメント,0
2119,7120005023969,新規,0,2023-11-06,2023-11-06,一般社団法人椿寿会,,その他の設立登記法人,大阪府,大阪市北区,西天満６丁目２番１７号,,27,127,5300047,,,,,,,2023-11-06,1,,,,,チンジュカイ,0
2121,7120101068471,新規,0,2023-11-06,2023-11-06,株式会社Ｔｏ　Ｂｅ,,株式会社,大阪府,和泉市,若樫町１２番地,,27,219,5941143,,,,,,,2023-11-06,1,,,,,トゥビー,0
2122,7120105009785,新規,0,2023-11-06,2023-11-06,一般社団法人日本文化武道交流協会,,その他の設立登記法人,大阪府,堺市堺区,寺地町東１丁２番２２号,,27,141,5900962,,,,,,,2023-11-06,1,,,,,ニホンブンカブドウコウリュウキョウカイ,0
2123,7120901048326,新規,0,2023-11-06,2023-11-06,株式会社レア,,株式会社,大阪府,吹田市,南清和園町２７番１号,,27,205,5640038,,,,,,,2023-11-06,1,,,,,レア,0
2130,7130001075617,新規,0,2023-11-06,2023-11-06,羽田株式会社,,株式会社,京都府,京都市左京区,田中樋ノ口町５番地２０５,,26,103,6068222,,,,,,,2023-11-06,1,,,,,ハネダ,0
2132,7130003009060,新規,0,2023-11-06,2023-11-06,合同会社しろ,,合同会社,京都府,京都市中京区,蛸薬師町２８７ＩＤＯ２Ｆ,,26,104,6040021,,,,,,,2023-11-06,1,,,,,シロ,0
2133,7130003009127,新規,0,2023-11-06,2023-11-06,ＫＫＫ合同会社,,合同会社,京都府,京都市伏見区,久我森の宮町１４－５,,26,109,6128495,,,,,,,2023-11-06,1,,,,,ケースリー,0
2135,7130005016922,新規,0,2023-11-06,2023-11-06,一般社団法人Ａｃｃｏｍｐａｎｙ,,その他の設立登記法人,京都府,京都市中京区,西ノ京勧学院町２７番地１７,,26,104,6048413,,,,,,,2023-11-06,1,,,,,アカンパニー,0
2141,7140001132185,新規,0,2023-11-06,2023-11-06,株式会社ｈａｊｕｎａ,,株式会社,兵庫県,明石市,大久保町松陰８５７番地の１４,,28,203,6740053,,,,,,,2023-11-06,1,,,,,ハジュナ,0
2142,7140001132193,新規,0,2023-11-06,2023-11-06,株式会社縁武,,株式会社,兵庫県,神戸市垂水区,北舞子４丁目６番６５号,,28,108,6550045,,,,,,,2023-11-06,1,,,,,エンブ,0
2143,7140001132202,新規,0,2023-11-06,2023-11-06,株式会社キーエステート,,株式会社,兵庫県,川西市,清和台西２丁目７番地の３,,28,217,6660143,,,,,,,2023-11-06,1,,,,,キーエステート,0
2144,7140001132219,新規,0,2023-11-06,2023-11-06,株式会社クリート７２,,株式会社,兵庫県,西宮市,小曽根町４丁目６番２０号,,28,204,6638122,,,,,,,2023-11-06,1,,,,,クリートセブンツー,0
2145,7140001132268,新規,0,2023-11-06,2023-11-06,株式会社ＲＥＦＲＡＩＮ,,株式会社,兵庫県,宝塚市,安倉中４丁目１３番１１号中所ハイツ１０３号室,,28,214,6650822,,,,,,,2023-11-06,1,,,,,,0
2150,7140003019777,新規,0,2023-11-06,2023-11-06,合同会社Ｕｐｄａｔｅ,,合同会社,兵庫県,伊丹市,南本町５丁目２番１０－４０１号,,28,207,6640852,,,,,,,2023-11-06,1,,,,,アップデート,0
2157,7180001158813,新規,0,2023-11-06,2023-11-06,株式会社Ｌｅｅ＆Ｊａｎｇ　Ｃｏｎｓｕｌｔｉｎｇ,,株式会社,愛知県,春日井市,出川町３丁目１６番地３,,23,206,4870025,,,,,,,2023-11-06,1,,,,,リーアンドジャンコンサルティング,0
2158,7180001158838,新規,0,2023-11-06,2023-11-06,株式会社久大,,株式会社,愛知県,清須市,春日冨士塚５４番地,,23,233,4520962,,,,,,,2023-11-06,1,,,,,キュウダイ,0
2161,7180003025945,新規,0,2023-11-06,2023-11-06,合同会社常照,,合同会社,愛知県,一宮市,篭屋３丁目１７番２号,,23,203,4940002,,,,,,,2023-11-06,1,,,,,ツネテル,0
2162,7180301037972,新規,0,2023-11-06,2023-11-06,株式会社ＢＥＹＯＮＤ,,株式会社,愛知県,豊橋市,住吉町１７４番地,,23,201,4400052,,,,,,,2023-11-06,1,,,,,ビヨンド,0
2165,7190001030855,新規,0,2023-11-06,2023-11-06,株式会社フォーエーテック,,株式会社,三重県,三重郡朝日町,向陽台２丁目１４番地１７,,24,343,5108105,,,,,,,2023-11-06,1,,,,,フォーエーテック,0
2170,7200001041875,新規,0,2023-11-06,2023-11-06,ＩＭホールディングス株式会社,,株式会社,岐阜県,安八郡輪之内町,大藪２８６６番地,,21,382,5030202,,,,,,,2023-11-06,1,,,,,アイエムホールディングス,0
2173,7210001019540,新規,0,2023-11-06,2023-11-06,株式会社クラフトビズ,,株式会社,福井県,坂井市,坂井町朝日４丁目１１番地,,18,210,9190517,,,,,,,2023-11-06,1,,,,,クラフトビズ,0
2175,7240001062356,新規,0,2023-11-06,2023-11-06,株式会社セイトク,,株式会社,広島県,福山市,神辺町大字川南３６１番地１,,34,207,7202124,,,,,,,2023-11-06,1,,,,,セイトク,0
2176,7240001062364,新規,0,2023-11-06,2023-11-06,株式会社たまくら,,株式会社,広島県,安芸高田市,吉田町山手１７４９番地１,,34,214,7310523,,,,,,,2023-11-06,1,,,,,タマクラ,0
2177,7240001062372,新規,0,2023-11-06,2023-11-06,凱信商事株式会社,,株式会社,広島県,広島市安佐北区,狩留家町２８６８番地,,34,106,7391753,,,,,,,2023-11-06,1,,,,,カイシンショウジ,0
2180,7240003006402,新規,0,2023-11-06,2023-11-06,ｅｍｐｏｒｏｓ合同会社,,合同会社,広島県,広島市南区,皆実町１丁目１３番２９号,,34,103,7340007,,,,,,,2023-11-06,1,,,,,エンポロス,0
2182,7250001020379,新規,0,2023-11-06,2023-11-06,株式会社Ｒｅｇｉｎａ,,株式会社,山口県,萩市,大字江向１２８番地２５,,35,204,7580041,,,,,,,2023-11-06,1,,,,,レジーナ,0
2191,7290001103592,新規,0,2023-11-06,2023-11-06,株式会社Ｏ．Ｐアートワークス,,株式会社,福岡県,糸島市,二丈松末１４５８番地１８,,40,230,8191613,,,,,,,2023-11-06,1,,,,,オーピーアートワークス,0
2192,7290001103642,新規,0,2023-11-06,2023-11-06,西日本仮設機材株式会社,,株式会社,福岡県,福岡市博多区,石城町１２番５号ウインクス石城町３０２号,,40,132,8120032,,,,,,,2023-11-06,1,,,,,ニシニホンカセツキザイ,0
2193,7290001103659,新規,0,2023-11-06,2023-11-06,株式会社シーアイ,,株式会社,福岡県,福岡市中央区,舞鶴２丁目４番１３号,,40,133,8100073,,,,,,,2023-11-06,1,,,,,シーアイ,0
2195,7290003014549,新規,0,2023-11-06,2023-11-06,王氏合同会社,,合同会社,福岡県,福岡市早良区,曙１丁目６番１６号メゾンドール２０６号室,,40,137,8140004,,,,,,,2023-11-06,1,,,,,オウシ,0
2196,7290003014565,新規,0,2023-11-06,2023-11-06,合同会社ＲｅｆｉｌｌＵｓ,,合同会社,福岡県,福岡市中央区,大名２丁目１番３０号２０２,,40,133,8100041,,,,,,,2023-11-06,1,,,,,リフィルス,0
2197,7290003014581,新規,0,2023-11-06,2023-11-06,合同会社しあわせ,,合同会社,福岡県,福岡市博多区,浦田１丁目１１番１１号第３元木ビル６０３,,40,132,8120861,,,,,,,2023-11-06,1,,,,,シアワセ,0
2204,7310001018697,新規,0,2023-11-06,2023-11-06,株式会社ユーキ．ディープラント,,株式会社,長崎県,佐世保市,藤原町２番４３号テック藤原２０２,,42,202,8570832,,,,,,,2023-11-06,1,,,,,ユーキディープラント,0
2213,7320001020132,新規,0,2023-11-06,2023-11-06,株式会社ＨＳ企画,,株式会社,大分県,大分市,かたしま台１丁目１７番地の２１８,,44,201,8700949,,,,,,,2023-11-06,1,,,,,エイチエスキカク,0
2217,7330003010064,新規,0,2023-11-06,2023-11-06,大橋Ｗｅｌｄｉｎｇ合同会社,,合同会社,熊本県,宇城市,松橋町松橋７５３番地１レオパレスＮａｋａｎｏｈａｒａ２０２,,43,213,8690502,,,,,,,2023-11-06,1,,,,,オオハシウェルディング,0
2220,7350001018652,新規,0,2023-11-06,2023-11-06,福八建設株式会社,00132527,株式会社,宮崎県,宮崎市,江南２丁目２０番３号,,45,201,8800944,,,,,,,2023-11-06,1,,,,,フクヤケンセツ,0
2221,7360001032784,新規,0,2023-11-06,2023-11-06,株式会社日光工業,,株式会社,沖縄県,国頭郡宜野座村,字漢那１６４２番地１,,47,313,9041304,,,,,,,2023-11-06,1,,,,,ニッコウコウギョウ,0
2222,7370003006348,新規,0,2023-11-06,2023-11-06,合同会社Ｍａｔｕｓｈｉｍａ　Ｋｉｋｏ,,合同会社,宮城県,宮城郡松島町,根廻字自田沢４番地の２,,04,401,9810203,,,,,,,2023-11-06,1,,,,,マツシマキコー,0
2239,7470001019878,新規,0,2023-11-06,2023-11-06,株式会社ＳＴＯＲＹ,,株式会社,香川県,高松市,古馬場町８番地６３大久ビル１Ｆ,,37,201,7600045,,,,,,,2023-11-06,1,,,,,ストーリー,0
2246,7490001010629,新規,0,2023-11-06,2023-11-06,株式会社丸河電工,,株式会社,高知県,安芸市,井ノ口甲６９０番地１,,39,203,7840051,,,,,,,2023-11-06,1,,,,,マルカワデンコウ,0
2249,7490003001832,新規,0,2023-11-06,2023-11-06,合同会社ニヨウッド,,合同会社,高知県,吾川郡仁淀川町,崎ノ山１０８番地２崎ノ山団地９号,,39,387,7811743,,,,,,,2023-11-06,1,,,,,ニヨウッド,0
2251,7500003003133,新規,0,2023-11-06,2023-11-06,合同会社三条,,合同会社,愛媛県,伊予郡砥部町,重光２３５番地６,,38,402,7912112,,,,,,,2023-11-06,1,,,,,サンジョウ,0
2253,7700150121808,新規,0,2023-11-06,2023-11-06,ＪＡＭＳＨＡＤ　ＡＴＯＳ,,外国会社等,栃木県,小山市,大字南半田２０５３－１４スカイピーク２０５号室,,09,208,3230011,パキスタン、カラチ、カヤバンエセヘルコマーシャルＤＨＡフェーズ７、レーン２、ビル２－Ｃ、メザニン４番,,,,,,2023-11-06,1,,,,,ジヤムシエドアトス,0
2262,8010001239744,新規,0,2023-11-06,2023-11-06,株式会社Ａｑｕａｒｅｔｅ,,株式会社,東京都,中央区,銀座１丁目１２－４Ｎ＆ＥＢＬＤ．７階,,13,102,1040061,,,,,,,2023-11-06,1,,,,,アクアリート,0
2263,8010001239827,新規,0,2023-11-06,2023-11-06,株式会社スリーラッシュ,,株式会社,東京都,千代田区,岩本町１丁目４番１号リビオレゾン千代田岩本町ザ・レジデンス４０１号,,13,101,1010032,,,,,,,2023-11-06,1,,,,,スリーラッシュ,0
2265,8010005037467,新規,0,2023-11-06,2023-11-06,一般社団法人日本アジア人材交流協会,,その他の設立登記法人,東京都,千代田区,外神田４丁目７番１１号クロスシー秋葉原ビル３階,,13,101,1010021,,,,,,,2023-11-06,1,,,,,ニホンアジアジンザイコウリュウキョウカイ,0
2276,8010401178352,新規,0,2023-11-06,2023-11-06,Ｉ＆Ｆ株式会社,,株式会社,東京都,港区,芝浦３丁目１７－１１－５１１号室,,13,103,1080023,,,,,,,2023-11-06,1,,,,,アイアンドエフ,0
2279,8010503007211,新規,0,2023-11-06,2023-11-06,合同会社ＲＯＮ,,合同会社,東京都,台東区,西浅草２丁目１２番１号,,13,106,1110035,,,,,,,2023-11-06,1,,,,,アールオーエヌ,0
2284,8010701045079,新規,0,2023-11-06,2023-11-06,株式会社飯多事務所,,株式会社,東京都,品川区,大井６丁目２１番１－６１０号,,13,109,1400014,,,,,,,2023-11-06,1,,,,,イイダジムショ,0
2285,8010705003561,新規,0,2023-11-06,2023-11-06,税理士法人久保会計・税務事務所,,その他の設立登記法人,東京都,品川区,東五反田１丁目１１番８号大阪屋ビル９階,,13,109,1410022,,,,,,,2023-11-06,1,,,,,クボカイケイゼイムジムショ,0
2293,8010901054136,新規,0,2023-11-06,2023-11-06,ｃａｌｍ株式会社,,株式会社,東京都,世田谷区,下馬３丁目３９番５号,,13,112,1540002,,,,,,,2023-11-06,1,,,,,カーム,0
2296,8011001158018,新規,0,2023-11-06,2023-11-06,株式会社ＴＳ,,株式会社,東京都,渋谷区,渋谷１丁目２３番２６号網野ビル２Ｆ,,13,113,1500002,,,,,,,2023-11-06,1,,,,,ティーエス,0
2297,8011003017840,新規,0,2023-11-06,2023-11-06,Ｄｒ．Ｆｒｙ　Ｐａｒｔｎｅｒ’ｓ　Ｏｎｏｚｕｋａ合同会社,,合同会社,東京都,渋谷区,桜丘町２６－１セルリアンタワー１５階,,13,113,1500031,,,,,,,2023-11-06,1,,,,,ドクターフライパートナーズオノヅカ,0
2309,8011101105019,新規,0,2023-11-06,2023-11-06,株式会社ピノ・ルージュ,,株式会社,東京都,新宿区,南山伏町３番３－７０１号,,13,104,1620854,,,,,,,2023-11-06,1,,,,,ピノルージュ,0
2310,8011101105035,新規,0,2023-11-06,2023-11-06,日新商事株式会社,,株式会社,東京都,新宿区,市谷田町３丁目８市ヶ谷科学技術イノベーションセンタービル５階,,13,104,1620843,,,,,,,2023-11-06,1,,,,,ニッシンショウジ,0
2311,8011103013681,新規,0,2023-11-06,2023-11-06,合同会社ＴＵ２２,,合同会社,東京都,新宿区,四谷２丁目９番地１５東京ユナイテッド綜合事務所内,,13,104,1600004,,,,,,,2023-11-06,1,,,,,ティーユーニジュウニ,0
2312,8011105010834,新規,0,2023-11-06,2023-11-06,一般社団法人ＴＵ２３,,その他の設立登記法人,東京都,新宿区,四谷２丁目９番地１５東京ユナイテッド綜合事務所内,,13,104,1600004,,,,,,,2023-11-06,1,,,,,ティーユーニジュウサン,0
2316,8011401025585,新規,0,2023-11-06,2023-11-06,株式会社エステック,,株式会社,東京都,板橋区,赤塚７丁目７番１２号,,13,119,1750092,,,,,,,2023-11-06,1,,,,,エステック,0
2321,8011601027241,新規,0,2023-11-06,2023-11-06,株式会社ワイ・ナーチャー,,株式会社,東京都,練馬区,羽沢２丁目１番５号パークウェル新桜台駅前６０４,,13,120,1760003,,,,,,,2023-11-06,1,,,,,ワイナーチャー,0
2322,8011603004115,新規,0,2023-11-06,2023-11-06,合同会社スカイビーチステーブル,,合同会社,東京都,練馬区,北町２丁目３６番３号,,13,120,1790081,,,,,,,2023-11-06,1,,,,,スカイビーチステーブル,0
2327,8011803005920,新規,0,2023-11-06,2023-11-06,リテルパルス合同会社,,合同会社,東京都,葛飾区,四つ木２丁目２０番４号２０１号室,,13,122,1240011,,,,,,,2023-11-06,1,,,,,リテルパルス,0
2330,8012303001897,新規,0,2023-11-06,2023-11-06,合同会社金星,,合同会社,東京都,町田市,原町田４丁目６番４号１階,,13,209,1940013,,,,,,,2023-11-06,1,,,,,キンボシ,0
2333,8012401041176,新規,0,2023-11-06,2023-11-06,株式会社ツイレン,,株式会社,東京都,三鷹市,牟礼７丁目３番２４－１０３号,,13,204,1810002,,,,,,,2023-11-06,1,,,,,ツイレン,0
2334,8012401041184,新規,0,2023-11-06,2023-11-06,株式会社登岳院コンサルタント,,株式会社,東京都,府中市,緑町３丁目３１番地の１０ショウサンハイツ１０３号室,,13,206,1830006,,,,,,,2023-11-06,1,,,,,トウガクインコンサルタント,0
2336,8012703002850,新規,0,2023-11-06,2023-11-06,合同会社クラリス,,合同会社,東京都,小平市,仲町６１５番地の３９,,13,211,1870042,,,,,,,2023-11-06,1,,,,,クラリス,0
2337,8012801022742,新規,0,2023-11-06,2023-11-06,株式会社八丁,,株式会社,東京都,日野市,多摩平２丁目１４番地の２９レ・ジェイド豊田マスターヒルズ５０１,,13,212,1910062,,,,,,,2023-11-06,1,,,,,ハッチョウ,0
2339,8013101009281,新規,0,2023-11-06,2023-11-06,株式会社Ｅ・Ｌ・Ａ・Ｗ,,株式会社,東京都,青梅市,新町９丁目２０１６番地の１０ヴェレーナ青梅新町１２８号,,13,205,1980024,,,,,,,2023-11-06,1,,,,,,0
2343,8020001154232,新規,0,2023-11-06,2023-11-06,株式会社はち,,株式会社,神奈川県,川崎市宮前区,犬蔵２丁目３４番４－３号,,14,136,2160011,,,,,,,2023-11-06,1,,,,,ハチ,0
2344,8020001154265,新規,0,2023-11-06,2023-11-06,株式会社ＢｒｉＴｒａｉｌ,,株式会社,神奈川県,横浜市西区,浅間町１丁目９－２０ＴＨＥ・ＢＴ・ＢＬＤＧ・１Ｃ,,14,103,2200072,,,,,,,2023-11-06,1,,,,,ブライトレイル,0
2348,8020003024904,新規,0,2023-11-06,2023-11-06,合同会社かりゆしモーター,,合同会社,神奈川県,川崎市宮前区,菅生２丁目２１番５号,,14,136,2160015,,,,,,,2023-11-06,1,,,,,カリユシモーター,0
2349,8020003024953,新規,0,2023-11-06,2023-11-06,アンタレス・テン合同会社,,合同会社,神奈川県,横浜市都筑区,荏田南５丁目２３―４０フィスナコートセンター南Ｂ,,14,118,2240007,,,,,,,2023-11-06,1,,,,,アンタレステン,0
2362,8021003013764,新規,0,2023-11-06,2023-11-06,桜美建装合同会社,,合同会社,神奈川県,秦野市,堀西１１７８番地の２,,14,211,2591331,,,,,,,2023-11-06,1,,,,,オウミケンソウ,0
2367,8030001157044,新規,0,2023-11-06,2023-11-06,星月株式会社,,株式会社,埼玉県,さいたま市大宮区,大成町１丁目４３１番地１－３０４,,11,103,3300852,,,,,,,2023-11-06,1,,,,,セイゲツ,0
2371,8030005021460,新規,0,2023-11-06,2023-11-06,一般財団法人埼玉・地域つなぐ財団,,その他の設立登記法人,埼玉県,さいたま市北区,吉野町２丁目２８２番地３,,11,102,3310811,,,,,,,2023-11-06,1,,,,,サイタマチイキツナグザイダン,0
2382,8040001130792,新規,0,2023-11-06,2023-11-06,株式会社ｍａｋｅ　ＵＨ,,株式会社,千葉県,柏市,柏３丁目９番２０号エクセラ・モン・ピエース０４０３号室,,12,217,2770005,,,,,,,2023-11-06,1,,,,,メイクユーエイチ,0
2388,8050001053737,新規,0,2023-11-06,2023-11-06,株式会社ｌｉｆｅ　ｃｏｎｎｅｃｔｉｏｎ,,株式会社,茨城県,神栖市,神栖２丁目４－４３パレスＡ棟５号,,08,232,3140143,,,,,,,2023-11-06,1,,,,,ライフコネクション,0
2391,8060001036526,新規,0,2023-11-06,2023-11-06,株式会社ＣＲＬＯＷＮ,,株式会社,栃木県,宇都宮市,御幸ケ原町１２６－５,,09,201,3210982,,,,,,,2023-11-06,1,,,,,クラウン,0
2395,8070001041046,新規,0,2023-11-06,2023-11-06,株式会社ＥＲＩＫＥＮ,,株式会社,群馬県,伊勢崎市,馬見塚町２３３５番地２９,,10,204,3720842,,,,,,,2023-11-06,1,,,,,エリケン,0
2396,8070001041054,新規,0,2023-11-06,2023-11-06,株式会社Ｃｒｏｓｓパートナー,,株式会社,群馬県,高崎市,飯塚町３４７番地２高商アパート３０２号,,10,202,3700069,,,,,,,2023-11-06,1,,,,,,0
2397,8070001041062,新規,0,2023-11-06,2023-11-06,株式会社ＫＲＭ,,株式会社,群馬県,伊勢崎市,上蓮町６７５番地８,,10,204,3720851,,,,,,,2023-11-06,1,,,,,,0
2399,8070003005156,新規,0,2023-11-06,2023-11-06,合同会社ＡＭグローバルアセット,,合同会社,群馬県,太田市,大原町３４２番地２,,10,205,3792304,,,,,,,2023-11-06,1,,,,,エイエムグローバルアセット,0
2400,8080101024305,新規,0,2023-11-06,2023-11-06,Ｖａｄｅｒｆｏｒａｌｌ株式会社,,株式会社,静岡県,沼津市,下香貫馬場５２１番地ポプラーレ１０３,,22,203,4100822,,,,,,,2023-11-06,1,,,,,ヴァデルフォール,0
2401,8080101024313,新規,0,2023-11-06,2023-11-06,株式会社優和,,株式会社,静岡県,富士市,三ツ沢３７７番地の７,,22,210,4170855,,,,,,,2023-11-06,1,,,,,ユウワ,0
2403,8100001036942,新規,0,2023-11-06,2023-11-06,パレスコーポレーション株式会社,,株式会社,長野県,諏訪郡富士見町,落合９６５６番地６２,,20,362,3990214,,,,,,,2023-11-06,1,,,,,パレスコーポレーション,0
2404,8100001036950,新規,0,2023-11-06,2023-11-06,株式会社ＳｅｒｅｎｉｔｙＬｉｖｅｓ,,株式会社,長野県,千曲市,大字羽尾６６８番地３,,20,218,3890812,,,,,,,2023-11-06,1,,,,,セレニティライブズ,0
2410,8110001037948,新規,0,2023-11-06,2023-11-06,株式会社近藤設備,,株式会社,新潟県,上越市,清里区みらい３２２番地７,,15,222,9430510,,,,,,,2023-11-06,1,,,,,コンドウセツビ,0
2411,8110001037956,新規,0,2023-11-06,2023-11-06,北日本アセット株式会社,,株式会社,新潟県,新潟市中央区,米山４丁目１２番１３号グランブルー米山Ａ１０１,,15,103,9500916,,,,,,,2023-11-06,1,,,,,キタニホンアセット,0
2419,8120001259475,新規,0,2023-11-06,2023-11-06,株式会社ａｌｏ,,株式会社,大阪府,大阪市北区,堂山町１２－３イノセント堂山１０１,,27,127,5300027,,,,,,,2023-11-06,1,,,,,アロ,0
2420,8120001259483,新規,0,2023-11-06,2023-11-06,株式会社ＴＡＫＡＲＡ,,株式会社,大阪府,大阪市北区,天満橋３丁目３番５号ＴｉＬ４０１,,27,127,5300042,,,,,,,2023-11-06,1,,,,,タカラ,0
2421,8120001259541,新規,0,2023-11-06,2023-11-06,株式会社セイレーン,,株式会社,大阪府,大阪市西区,北堀江３丁目１１番１０号５０１,,27,106,5500014,,,,,,,2023-11-06,1,,,,,セイレーン,0
2422,8120001259558,新規,0,2023-11-06,2023-11-06,Ａｔｓｕｍｉ　Ｉｎｓｕｒａｎｃｅ　Ｇｅｎｅｒａｌ株式会社,,株式会社,大阪府,大阪市北区,大深町３番１号グランフロント大阪タワーＢ３５階,,27,127,5300011,,,,,,,2023-11-06,1,,,,,アツミインシュアランスジェネラル,0
2423,8120002026742,新規,0,2023-11-06,2023-11-06,北畑凍氷販売有限会社,,有限会社,大阪府,大阪市淀川区,十三元今里２丁目８番９号,,27,123,5320028,,,,,,,2023-11-06,1,,,,,キタハタトウヒョウハンバイ,0
2425,8120003025207,新規,0,2023-11-06,2023-11-06,合同会社ＲｅＩＮＧ,,合同会社,大阪府,大阪市東淀川区,小松１丁目７番７－４０６号,,27,114,5330004,,,,,,,2023-11-06,1,,,,,リング,0
2427,8120005023976,新規,0,2023-11-06,2023-11-06,ＮＰＯ法人環境技術研究所,,その他の設立登記法人,大阪府,大阪市西区,阿波座１丁目３番１５号,,27,106,5500011,,,,,,,2023-11-06,1,,,,,カンキョウジギュツケンキュウショ,0
2429,8120101068470,新規,0,2023-11-06,2023-11-06,株式会社アイアイ設備,,株式会社,大阪府,藤井寺市,岡２丁目１１番５２号,,27,226,5830027,,,,,,,2023-11-06,1,,,,,アイアイセツビ,0
2430,8120101068479,新規,0,2023-11-06,2023-11-06,株式会社ケーツー,,株式会社,大阪府,堺市中区,大野芝町２３番地４１,,27,142,5998233,,,,,,,2023-11-06,1,,,,,ケーツー,0
2431,8120101068495,新規,0,2023-11-06,2023-11-06,株式会社勝道,,株式会社,大阪府,堺市堺区,新町２番２１号,,27,141,5900079,,,,,,,2023-11-06,1,,,,,ショウドウ,0
2434,8120901048325,新規,0,2023-11-06,2023-11-06,株式会社レベコン,,株式会社,大阪府,高槻市,天神町１丁目８番２号,,27,207,5691117,,,,,,,2023-11-06,1,,,,,レベコン,0
2437,8130001075616,新規,0,2023-11-06,2023-11-06,株式会社飛鳥,,株式会社,京都府,京都市上京区,六町目２１３番地,,26,102,6028035,,,,,,,2023-11-06,1,,,,,アスカ,0
2438,8130001075624,新規,0,2023-11-06,2023-11-06,株式会社アテナリー,,株式会社,京都府,京都市右京区,太秦下刑部町１８番地の１,,26,108,6168104,,,,,,,2023-11-06,1,,,,,アテナリー,0
2442,8130003009101,新規,0,2023-11-06,2023-11-06,合同会社にじいろファクトリー,,合同会社,京都府,向日市,寺戸町岸ノ下２５－３４,,26,208,6170002,,,,,,,2023-11-06,1,,,,,ニジイロファクトリー,0
2450,8140001132176,新規,0,2023-11-06,2023-11-06,コンサルｙ株式会社,,株式会社,兵庫県,多可郡多可町,中区天田２７２番地１,,28,365,6791115,,,,,,,2023-11-06,1,,,,,コンサルワイ,0
2451,8140001132192,新規,0,2023-11-06,2023-11-06,株式会社Ｋｅｎｓｙｏ,,株式会社,兵庫県,加東市,上滝野３１２番地１,,28,228,6790211,,,,,,,2023-11-06,1,,,,,ケンショウ,0
2452,8140001132226,新規,0,2023-11-06,2023-11-06,株式会社サンシャイン,,株式会社,兵庫県,神戸市中央区,再度筋町２３番３号,,28,110,6500005,,,,,,,2023-11-06,1,,,,,サンシャイン,0
2453,8140001132267,新規,0,2023-11-06,2023-11-06,ＮＵＭＢＥＲ９’Ｓ株式会社,,株式会社,兵庫県,明石市,東野町２２０９番地の６,,28,203,6730844,,,,,,,2023-11-06,1,,,,,ナンバーナインズ,0
2457,8150001026856,新規,0,2023-11-06,2023-11-06,株式会社ＵＥＤＡ,,株式会社,奈良県,磯城郡田原本町,大字大木２８１番地,,29,363,6360242,,,,,,,2023-11-06,1,,,,,ウエダ,0
2473,8190001030862,新規,0,2023-11-06,2023-11-06,株式会社伊賀コントラクター,,株式会社,三重県,伊賀市,川東１５９７番地,,24,216,5191424,,,,,,,2023-11-06,1,,,,,イガコントラクター,0
2475,8200001041874,新規,0,2023-11-06,2023-11-06,株式会社興源商事,,株式会社,岐阜県,岐阜市,大字折立字屋敷１３２番地,,21,201,5000000,,,,,,,2023-11-06,1,,,,,コウゲンショウジ,0
2478,8220001025660,新規,0,2023-11-06,2023-11-06,株式会社アイム,,株式会社,石川県,金沢市,清川町３‐７吉田ビル３階３０２号室,,17,201,9218032,,,,,,,2023-11-06,1,,,,,アイム,0
2479,8220001025669,新規,0,2023-11-06,2023-11-06,株式会社タカミ運送,,株式会社,石川県,白山市,北安田町２０２０番地,,17,210,9240024,,,,,,,2023-11-06,1,,,,,タカミウンソウ,0
2480,8220003003615,新規,0,2023-11-06,2023-11-06,ヘリオスパワージャパン合同会社,,合同会社,石川県,小松市,大領町ね５番地１,,17,203,9230854,,,,,,,2023-11-06,1,,,,,ヘリオスパワージャパン,0
2485,8230001020082,新規,0,2023-11-06,2023-11-06,株式会社ｙｕｕｍｉｎ,,株式会社,富山県,黒部市,吉田９４４７番地３,,16,207,9380005,,,,,,,2023-11-06,1,,,,,ユウミン,0
2493,8250001020378,新規,0,2023-11-06,2023-11-06,株式会社ＡＵＲＡ,,株式会社,山口県,周南市,若宮町２丁目２２番地２,,35,215,7450016,,,,,,,2023-11-06,1,,,,,アウラ,0
2496,8250005008873,新規,0,2023-11-06,2023-11-06,医療法人維玉会,,その他の設立登記法人,山口県,山口市,小郡明治２丁目１番５号,,35,203,7540043,,,,,,,2023-11-06,1,,,,,イタマカイ,0
2497,8260001038460,新規,0,2023-11-06,2023-11-06,株式会社細川工業,,株式会社,岡山県,倉敷市,中畝４丁目１２番１５号,,33,202,7128051,,,,,,,2023-11-06,1,,,,,ホソカワコウギョウ,0
2502,8290001103609,新規,0,2023-11-06,2023-11-06,株式会社彩坂,,株式会社,福岡県,福岡市早良区,重留６丁目６番２７号,,40,137,8111101,,,,,,,2023-11-06,1,,,,,アヤサカ,0
2503,8290001103617,新規,0,2023-11-06,2023-11-06,株式会社ブレイブシャイン,,株式会社,福岡県,福岡市中央区,天神１丁目９番地１７号福岡天神フコク生命ビル１５階,,40,133,8100001,,,,,,,2023-11-06,1,,,,,ブレイブシャイン,0
2504,8290001103658,新規,0,2023-11-06,2023-11-06,株式会社ＰＡＬＵＮＥ,,株式会社,福岡県,福岡市博多区,中洲２丁目３番１号中洲Ｆビル３階３０５・３０６号室,,40,132,8100801,,,,,,,2023-11-06,1,,,,,パルネ,0
2505,8290001103666,新規,0,2023-11-06,2023-11-06,スマイルプロダクション株式会社,,株式会社,福岡県,福岡市南区,高宮３丁目１－１６セリエ高宮９０３号,,40,134,8150083,,,,,,,2023-11-06,1,,,,,スマイルプロダクション,0
2507,8290003014564,新規,0,2023-11-06,2023-11-06,合同会社ＰＲＹＭＥ,,合同会社,福岡県,福岡市博多区,博多駅前２丁目１０番１２－７０８号ハイラーク博多駅前,,40,132,8120011,,,,,,,2023-11-06,1,,,,,プライム,0
2508,8290003014572,新規,0,2023-11-06,2023-11-06,ＰＡＲＡＩＢＡ合同会社,,合同会社,福岡県,福岡市中央区,大名１丁目１３－２３ＬＥＸ２１ビル５階,,40,133,8100041,,,,,,,2023-11-06,1,,,,,パライバ,0
2509,8290003014580,新規,0,2023-11-06,2023-11-06,合同会社ＳＤＳ,,合同会社,福岡県,福岡市中央区,港３丁目１１番５－５０３号,,40,133,8100075,,,,,,,2023-11-06,1,,,,,エスディーエス,0
2511,8300001013517,新規,0,2023-11-06,2023-11-06,大森総業株式会社,,株式会社,佐賀県,唐津市,鏡新開９７番地ベラッジオＳＡＩ２０２号,,41,202,8470028,,,,,,,2023-11-06,1,,,,,オオモリソウギョウ,0
2517,8310001018696,新規,0,2023-11-06,2023-11-06,株式会社なみてらす,,株式会社,長崎県,長崎市,恵美須町３番４－１３０１号,,42,201,8500056,,,,,,,2023-11-06,1,,,,,ナミテラス,0
2524,8320001020123,新規,0,2023-11-06,2023-11-06,株式会社幸招,,株式会社,大分県,宇佐市,大字森山６１０番地の２,,44,211,8790311,,,,,,,2023-11-06,1,,,,,コウショウ,0
2527,8320003004223,新規,0,2023-11-06,2023-11-06,ＨＵＥ合同会社,,合同会社,大分県,大分市,希望が丘２丁目１４６６番地の１１,,44,201,8700959,,,,,,,2023-11-06,1,,,,,ヒュー,0
2529,8340003004304,新規,0,2023-11-06,2023-11-06,合同会社アップルくらら,,合同会社,鹿児島県,鹿児島市,下荒田４丁目２１番３号オレンジビル３０３号,,46,201,8900056,,,,,,,2023-11-06,1,,,,,アップルクララ,0
2533,8360001032775,新規,0,2023-11-06,2023-11-06,おきなわ建物サービス株式会社,,株式会社,沖縄県,那覇市,字寄宮１４２番地１新垣ビル１Ｆ,,47,201,9020064,,,,,,,2023-11-06,1,,,,,オキナワタテモノサービス,0
2534,8360001032783,新規,0,2023-11-06,2023-11-06,株式会社琉康クリエイト,,株式会社,沖縄県,豊見城市,字伊良波５５２番地１,,47,212,9010232,,,,,,,2023-11-06,1,,,,,リュウコウクリエイト,0
2536,8370001050594,新規,0,2023-11-06,2023-11-06,株式会社吉田電機,,株式会社,宮城県,仙台市太白区,中田３丁目７番４２号,,04,104,9811104,,,,,,,2023-11-06,1,,,,,ヨシダデンキ,0
2540,8380001034118,新規,0,2023-11-06,2023-11-06,株式会社ＹＯＮＯＭＯＲＩ　ＤＥＮＩＭ,,株式会社,福島県,双葉郡富岡町,大字本岡字清水前１２２番１７,,07,543,9791151,,,,,,,2023-11-06,1,,,,,ヨノモリデニム,0
2548,8400001016443,新規,0,2023-11-06,2023-11-06,株式会社宮古金属,,株式会社,岩手県,宮古市,金浜第６地割２番地１,,03,202,0270033,,,,,,,2023-11-06,1,,,,,ミヤコキンゾク,0
2561,8470001019885,新規,0,2023-11-06,2023-11-06,株式会社合田土木,,株式会社,香川県,綾歌郡宇多津町,浜六番丁８４番地３,,37,386,7690206,,,,,,,2023-11-06,1,,,,,ゴウダドボク,0
2569,8500001025293,新規,0,2023-11-06,2023-11-06,小田リハビリステーション株式会社,,株式会社,愛媛県,伊予郡松前町,大字神崎２９９番地６,,38,401,7913161,,,,,,,2023-11-06,1,,,,,オダリハビリステーション,0
2570,8500003003132,新規,0,2023-11-06,2023-11-06,北久米文珠苑管理事務所合同会社,,合同会社,愛媛県,松山市,北久米町乙１２番地８４,,38,201,7900923,,,,,,,2023-11-06,1,,,,,キタクメモンジュエンカンリジムショ,0
2577,9010001239751,新規,0,2023-11-06,2023-11-06,株式会社わい,,株式会社,東京都,千代田区,外神田２丁目３番１１号,,13,101,1010021,,,,,,,2023-11-06,1,,,,,ワイ,0
2580,9010003042138,新規,0,2023-11-06,2023-11-06,ＨＵＧＥＭ合同会社,,合同会社,東京都,中央区,日本橋茅場町１丁目２番１８号日本ビルディング別館９階,,13,102,1030025,,,,,,,2023-11-06,1,,,,,ヒュージェム,0
2587,9010401178327,新規,0,2023-11-06,2023-11-06,株式会社ＹＶＳレコード,,株式会社,東京都,港区,芝３丁目２１番１４号,,13,103,1050014,,,,,,,2023-11-06,1,,,,,ワイブイエスレコード,0
2593,9010501051251,新規,0,2023-11-06,2023-11-06,株式会社ＳＨＯＳＨＡ,,株式会社,東京都,台東区,浅草橋３丁目３３－３－４０２,,13,106,1110053,,,,,,,2023-11-06,1,,,,,ショウシャ,0
2594,9010503007210,新規,0,2023-11-06,2023-11-06,合同会社らむね,,合同会社,東京都,台東区,上野７丁目１３番地１５号パレステージ上野９０４号,,13,106,1100005,,,,,,,2023-11-06,1,,,,,ラムネ,0
2596,9010601064079,新規,0,2023-11-06,2023-11-06,株式会社ＦＯＸＯＮ,,株式会社,東京都,江東区,豊洲２丁目５番１号,,13,108,1350061,,,,,,,2023-11-06,1,,,,,フォクソン,0
2597,9010701045078,新規,0,2023-11-06,2023-11-06,株式会社クロスネクト,,株式会社,東京都,品川区,上大崎３丁目１２番８－５０３号,,13,109,1410021,,,,,,,2023-11-06,1,,,,,クロスネクト,0
2598,9010703006929,新規,0,2023-11-06,2023-11-06,合同会社ＬｉｖｅＩｎｎ,,合同会社,東京都,品川区,東品川２丁目２番２５－１２０５号,,13,109,1400002,,,,,,,2023-11-06,1,,,,,リブイン,0
2599,9010705003560,新規,0,2023-11-06,2023-11-06,一般財団法人井門奨学財団,,その他の設立登記法人,東京都,品川区,東大井５丁目１５番３号,,13,109,1400011,,,,,,,2023-11-06,1,,,,,イモンショウガクザイダン,0
2604,9010901054135,新規,0,2023-11-06,2023-11-06,株式会社インパルジョン,,株式会社,東京都,世田谷区,深沢５丁目１８番１１号,,13,112,1580081,,,,,,,2023-11-06,1,,,,,インパルジョン,0
2614,9011101105042,新規,0,2023-11-06,2023-11-06,株式会社ＫＥＫ,,株式会社,東京都,新宿区,西新宿１丁目１２番９号,,13,104,1600023,,,,,,,2023-11-06,1,,,,,ケイイーケイ,0
2620,9011103013680,新規,0,2023-11-06,2023-11-06,合同会社ＴＵ２１,,合同会社,東京都,新宿区,四谷２丁目９番地１５東京ユナイテッド綜合事務所内,,13,104,1600004,,,,,,,2023-11-06,1,,,,,ティーユーニジュウイチ,0
2621,9011103013689,新規,0,2023-11-06,2023-11-06,合同会社ＴＵ３０,,合同会社,東京都,新宿区,四谷２丁目９番地１５東京ユナイテッド綜合事務所内,,13,104,1600004,,,,,,,2023-11-06,1,,,,,ティーユーサンジュウ,0
2622,9011105010833,新規,0,2023-11-06,2023-11-06,一般社団法人ＴＵ２２,,その他の設立登記法人,東京都,新宿区,四谷２丁目９番地１５東京ユナイテッド綜合事務所内,,13,104,1600004,,,,,,,2023-11-06,1,,,,,ティーユーニジュウニ,0
2623,9011105010841,新規,0,2023-11-06,2023-11-06,一般社団法人ＴＵ３０,,その他の設立登記法人,東京都,新宿区,四谷２丁目９番地１５東京ユナイテッド綜合事務所内,,13,104,1600004,,,,,,,2023-11-06,1,,,,,ティーユーサンジュウ,0
2624,9011201025025,新規,0,2023-11-06,2023-11-06,株式会社ＩＫＡＲＡＳＨＩ,,株式会社,東京都,中野区,中央４丁目６番９号,,13,114,1640011,,,,,,,2023-11-06,1,,,,,イカラシ,0
2625,9011203004217,新規,0,2023-11-06,2023-11-06,合同会社アイリア,,合同会社,東京都,中野区,弥生町２丁目７－１４原ビル１０１,,13,114,1640013,,,,,,,2023-11-06,1,,,,,アイリア,0
2626,9011301029140,新規,0,2023-11-06,2023-11-06,株式会社ピックス,,株式会社,東京都,杉並区,和泉１丁目３０番２３号アムール笹塚１０１,00132512,13,115,1680063,,,,,,,2023-11-06,1,,,,,ピックス,0
2632,9011601027249,新規,0,2023-11-06,2023-11-06,株式会社サクラキャンプ,,株式会社,東京都,練馬区,春日町５丁目１６番７号,,13,120,1790074,,,,,,,2023-11-06,1,,,,,サクラキャンプ,0
2633,9011603004114,新規,0,2023-11-06,2023-11-06,合同会社ケルン・アンド・カンパニー,,合同会社,東京都,練馬区,土支田３丁目１－１３,,13,120,1790076,,,,,,,2023-11-06,1,,,,,ケルンアンドカンパニー,0
2634,9012301013654,新規,0,2023-11-06,2023-11-06,イーユーホーム株式会社,,株式会社,東京都,町田市,山崎町３５００番地１４,,13,209,1950074,,,,,,,2023-11-06,1,,,,,イーユーホーム,0
2637,9012401041200,新規,0,2023-11-06,2023-11-06,株式会社ＹＵＤＯＮＯ,,株式会社,東京都,稲城市,大丸１１５番地の５第一末広マンション３０１,,13,225,2060801,,,,,,,2023-11-06,1,,,,,ユドノ,0
2638,9012801022741,新規,0,2023-11-06,2023-11-06,株式会社キミパス,,株式会社,東京都,日野市,多摩平２丁目５－１,,13,212,1910062,,,,,,,2023-11-06,1,,,,,キミパス,0
2651,9020001154215,新規,0,2023-11-06,2023-11-06,株式会社ショウワセラミック,,株式会社,神奈川県,川崎市高津区,千年６６８－２フォルターナ千年２－Ａ,,14,134,2130022,,,,,,,2023-11-06,1,,,,,ショウワセラミック,0
2652,9020001154264,新規,0,2023-11-06,2023-11-06,株式会社ＫｕｏＫｏａ．,,株式会社,神奈川県,横浜市鶴見区,尻手１丁目１番１６－１４２５号,,14,101,2300003,,,,,,,2023-11-06,1,,,,,クオコア,0
2653,9020001154355,新規,0,2023-11-06,2023-11-06,Ｓｂｒａｉｎ株式会社,,株式会社,神奈川県,横浜市港北区,新横浜１丁目２５番地５プラーズ新横浜７Ｆ,,14,109,2220033,,,,,,,2023-11-06,1,,,,,エスブレイン,0
2654,9020003024903,新規,0,2023-11-06,2023-11-06,合同会社ＬＡＵＮＡ,,合同会社,神奈川県,川崎市中原区,上小田中２丁目３３番２０－１０２号エンゼルハイム武蔵新城第２,,14,133,2110053,,,,,,,2023-11-06,1,,,,,ラウナ,0
2656,9021003013763,新規,0,2023-11-06,2023-11-06,日向合同会社,,合同会社,神奈川県,小田原市,永塚２３３番地の４,,14,206,2500214,,,,,,,2023-11-06,1,,,,,ヒムカ,0
2664,9030001157027,新規,0,2023-11-06,2023-11-06,株式会社岩本工業,,株式会社,埼玉県,さいたま市岩槻区,宮町２丁目１６番１０号,,11,110,3390065,,,,,,,2023-11-06,1,,,,,イワモトコウギョウ,0
2671,9040001130767,新規,0,2023-11-06,2023-11-06,株式会社晴丸,,株式会社,千葉県,市川市,南行徳１丁目１８番２３号クリスタルステーション１０１,,12,203,2720138,,,,,,,2023-11-06,1,,,,,ハレマル,0
2672,9040001130783,新規,0,2023-11-06,2023-11-06,株式会社小森工業,,株式会社,千葉県,白井市,西白井４丁目２０番地３２,,12,232,2701408,,,,,,,2023-11-06,1,,,,,コモリコウギョウ,0
2673,9040001130791,新規,0,2023-11-06,2023-11-06,株式会社Ｃｒｙｓｔａｌ,,株式会社,千葉県,船橋市,本町６丁目３番８号グランド・ルー２０２,,12,204,2730005,,,,,,,2023-11-06,1,,,,,クリスタル,0
2678,9040003023663,新規,0,2023-11-06,2023-11-06,ＳｉＣ　Ｊａｐａｎ合同会社,,合同会社,千葉県,千葉市美浜区,中瀬２丁目６番地１ＷＢＧイースト棟２６階,,12,106,2610023,,,,,,,2023-11-06,1,,,,,エスアイシージャパン,0
2679,9040003023671,新規,0,2023-11-06,2023-11-06,合同会社サニーデイズ,,合同会社,千葉県,市川市,大和田３丁目７番３号,,12,203,2720025,,,,,,,2023-11-06,1,,,,,サニーデイズ,0
2683,9050001053769,新規,0,2023-11-06,2023-11-06,株式会社オーツ,,株式会社,茨城県,水戸市,飯富町１４８９番地の１,,08,201,3114206,,,,,,,2023-11-06,1,,,,,オーツ,0
2689,9060003004785,新規,0,2023-11-06,2023-11-06,日源商事合同会社,,合同会社,栃木県,栃木市,片柳町４丁目１０番４号ローザマンション２０２号室,,09,203,3280053,,,,,,,2023-11-06,1,,,,,ニチゲンショウジ,0
2695,9070001041045,新規,0,2023-11-06,2023-11-06,株式会社Ｕ＆Ａコーポレーション,,株式会社,群馬県,伊勢崎市,豊城町２０７３番地３４,,10,204,3720012,,,,,,,2023-11-06,1,,,,,ユーアンドエーコーポレーション,0
2696,9070001041053,新規,0,2023-11-06,2023-11-06,ＧＯＬＤ　ＧＯＶＥＲＮ株式会社,,株式会社,群馬県,高崎市,上並榎町７３番地３,,10,202,3700801,,,,,,,2023-11-06,1,,,,,ゴールドガヴァン,0
2703,9080101024312,新規,0,2023-11-06,2023-11-06,株式会社萬里,,株式会社,静岡県,賀茂郡西伊豆町,仁科１２９２番地の１,,22,306,4103514,,,,,,,2023-11-06,1,,,,,マリ,0
2709,9100001036941,新規,0,2023-11-06,2023-11-06,株式会社金子土建,,株式会社,長野県,諏訪市,大字湖南４３１９番地,,20,206,3920131,,,,,,,2023-11-06,1,,,,,カネコドケン,0
2712,9100003007255,新規,0,2023-11-06,2023-11-06,合同会社プレイルジャパン,,合同会社,長野県,長野市,大字栗田５８番地４,,20,201,3800921,,,,,,,2023-11-06,1,,,,,プレイルジャパン,0
2713,9110001037955,新規,0,2023-11-06,2023-11-06,株式会社文子不動産,,株式会社,新潟県,新潟市中央区,古町通１１番町１７０１番地,,15,103,9518063,,,,,,,2023-11-06,1,,,,,フミコフドウサン,0
2714,9110003005200,新規,0,2023-11-06,2023-11-06,合同会社八咫烏,,合同会社,新潟県,新潟市西蒲区,真木１０７５番地,,15,108,9501346,,,,,,,2023-11-06,1,,,,,ヤタガラス,0
2718,9120001259482,新規,0,2023-11-06,2023-11-06,ヒライ商事株式会社,,株式会社,大阪府,大阪市中央区,島之内２丁目６番５号,,27,128,5420082,,,,,,,2023-11-06,1,,,,,ヒライショウジ,0
2719,9120001259508,新規,0,2023-11-06,2023-11-06,泰輝株式会社,,株式会社,大阪府,大阪市住吉区,長居西２丁目２番１５号,,27,120,5580002,,,,,,,2023-11-06,1,,,,,タイキ,0
2720,9120001259557,新規,0,2023-11-06,2023-11-06,株式会社明和,,株式会社,大阪府,大阪市住吉区,遠里小野７丁目３番１４号,,27,120,5580032,,,,,,,2023-11-06,1,,,,,メイワ,0
2721,9120001259573,新規,0,2023-11-06,2023-11-06,株式会社ＨＡＨＡ　Ｊａｐｏｎ,,株式会社,大阪府,大阪市西区,立売堀１丁目９－１３,,27,106,5500012,,,,,,,2023-11-06,1,,,,,ハハジャポン,0
2722,9120001259581,新規,0,2023-11-06,2023-11-06,株式会社Ｃｒｅａｔｉｖｅ　Ｇｕａｒｄ,,株式会社,大阪府,大阪市北区,梅田１丁目２番２号大阪駅前第２ビル１２－１２,,27,127,5300001,,,,,,,2023-11-06,1,,,,,クリエイティブガード,0
2723,9120001259598,新規,0,2023-11-06,2023-11-06,株式会社ＡＪＳ,,株式会社,大阪府,大阪市中央区,伏見町４丁目４番９号,,27,128,5410044,,,,,,,2023-11-06,1,,,,,エイジェイエス,0
2724,9120001259607,新規,0,2023-11-06,2023-11-06,株式会社Ｅｎｄｅａｖｏｕｒ,,株式会社,大阪府,大阪市北区,中之島６丁目１番２１号,,27,127,5300005,,,,,,,2023-11-06,1,,,,,エンデバー,0
2725,9120001259615,新規,0,2023-11-06,2023-11-06,高翔ＰＬＧ株式会社,,株式会社,大阪府,大阪市中央区,南船場３丁目５－２５ロワール南船場３Ｄ,,27,128,5420081,,,,,,,2023-11-06,1,,,,,タカショウピーエルジー,0
2729,9120003025180,新規,0,2023-11-06,2023-11-06,合同会社ＲＩＳＵＳ,,合同会社,大阪府,大阪市浪速区,元町２丁目１３番１３－３０５号,,27,111,5560016,,,,,,,2023-11-06,1,,,,,リーズス,0
2730,9120003025255,新規,0,2023-11-06,2023-11-06,フロンティアコンサルティング合同会社,,合同会社,大阪府,大阪市北区,梅田１丁目２番２号大阪駅前第２ビル１２－１２,,27,127,5300001,,,,,,,2023-11-06,1,,,,,フロンティアコンサルティング,0
2731,9120003025263,新規,0,2023-11-06,2023-11-06,ＧＥＮＥＳＩＳ合同会社,,合同会社,大阪府,大阪市西成区,山王１丁目１５番１５号,,27,122,5570001,,,,,,,2023-11-06,1,,,,,ジェネシス,0
2732,9120003025271,新規,0,2023-11-06,2023-11-06,デジタル歯科学校合同会社,,合同会社,大阪府,大阪市阿倍野区,帝塚山１丁目２番４号,,27,119,5450037,,,,,,,2023-11-06,1,,,,,デジタルシカガッコウ,0
2733,9120005023975,新規,0,2023-11-06,2023-11-06,ＮＰＯ法人らうらうみっどわいふりい,,その他の設立登記法人,大阪府,大阪市都島区,都島北通２丁目７番２６号,,27,102,5340014,,,,,,,2023-11-06,1,,,,,ラウラウミッドワイフリイ,0
2737,9120901048316,新規,0,2023-11-06,2023-11-06,株式会社田村興商,,株式会社,大阪府,高槻市,登美の里町２１番２２号,,27,207,5690812,,,,,,,2023-11-06,1,,,,,タムラコウショウ,0
2745,9130001075598,新規,0,2023-11-06,2023-11-06,株式会社仁,,株式会社,京都府,亀岡市,東別院町大野薮ノ下１２番地,,26,206,6210104,,,,,,,2023-11-06,1,,,,,ジン,0
2746,9130001075607,新規,0,2023-11-06,2023-11-06,沢株式会社,,株式会社,京都府,京都市左京区,田中大堰町２０７番地Ｓｃｈｉｌｆ百万遍ＢＡＳＥ０２号地,,26,103,6068202,,,,,,,2023-11-06,1,,,,,タク,0
2747,9130001075615,新規,0,2023-11-06,2023-11-06,マッハ塗装株式会社,,株式会社,京都府,京都市下京区,玉津島町２９４番地,,26,106,6008427,,,,,,,2023-11-06,1,,,,,マッハトソウ,0
2749,9130003009083,新規,0,2023-11-06,2023-11-06,合同会社ＡＬＯＨＡ,,合同会社,京都府,京都市左京区,北白川追分町１６５番地１,,26,103,6068224,,,,,,,2023-11-06,1,,,,,アロハ,0
2750,9140001132225,新規,0,2023-11-06,2023-11-06,ケージョウ精工株式会社,,株式会社,兵庫県,神戸市北区,東大池１丁目１２番１６号,,28,109,6511333,,,,,,,2023-11-06,1,,,,,ケージョウセイコウ,0
2751,9140001132233,新規,0,2023-11-06,2023-11-06,株式会社サイ,,株式会社,兵庫県,明石市,旭が丘１４番１４号,,28,203,6730002,,,,,,,2023-11-06,1,,,,,サイ,0
2752,9140001132266,新規,0,2023-11-06,2023-11-06,株式会社西岡工業,,株式会社,兵庫県,尼崎市,東園田町４丁目１５４番地の１８,,28,202,6610953,,,,,,,2023-11-06,1,,,,,ニシオカコウギョウ,0
2753,9140003019767,新規,0,2023-11-06,2023-11-06,ＴＬ合同会社,,合同会社,兵庫県,神戸市兵庫区,西柳原町４番１号Ｋコート兵庫１階,,28,105,6520806,,,,,,,2023-11-06,1,,,,,ティール,0
2754,9140003019775,新規,0,2023-11-06,2023-11-06,合同会社ハザードゼロ,,合同会社,兵庫県,芦屋市,西山町１４－３－１０１,,28,206,6590083,,,,,,,2023-11-06,1,,,,,ハザードゼロ,0
2756,9140005026786,新規,0,2023-11-06,2023-11-06,一般社団法人ＫＩＭＯＮＯ文化普及協会,,その他の設立登記法人,兵庫県,神戸市垂水区,城が山１丁目１０番２９号,,28,108,6550884,,,,,,,2023-11-06,1,,,,,キモノブンカフキュウキョウカイ,0
2758,9150001026847,新規,0,2023-11-06,2023-11-06,ＮｕＭＢｅｒＳ株式会社,,株式会社,奈良県,奈良市,南京終町１丁目９０番地の１エスペランス奈良４０９号,,29,201,6308141,,,,,,,2023-11-06,1,,,,,ナンバーズ,0
2764,9170001017869,新規,0,2023-11-06,2023-11-06,株式会社サンダイ,,株式会社,和歌山県,田辺市,下三栖１１９６番地の４,,30,206,6460216,,,,,,,2023-11-06,1,,,,,サンダイ,0
2767,9180001158786,新規,0,2023-11-06,2023-11-06,株式会社ＡＣＥ　ＬＩＮＥ,,株式会社,愛知県,小牧市,大字三ツ渕１６３２番地１アイシンビル３階,,23,219,4850075,,,,,,,2023-11-06,1,,,,,エースライン,0
2768,9180001158828,新規,0,2023-11-06,2023-11-06,ジョヴィクリエイト株式会社,,株式会社,愛知県,名古屋市中区,新栄１丁目１２番３号,,23,106,4600007,,,,,,,2023-11-06,1,,,,,ジョヴィクリエイト,0
2770,9180003025943,新規,0,2023-11-06,2023-11-06,合同会社ミライ,,合同会社,愛知県,清須市,西枇杷島町地領１丁目１３－１９,,23,233,4520008,,,,,,,2023-11-06,1,,,,,ミライ,0
2771,9180003025951,新規,0,2023-11-06,2023-11-06,Ｂａｄａｓｓ合同会社,,合同会社,愛知県,名古屋市港区,港陽３丁目１１－１６グレイス築地６０７,,23,111,4550013,,,,,,,2023-11-06,1,,,,,バッデス,0
2774,9190001030853,新規,0,2023-11-06,2023-11-06,株式会社かんえい,,株式会社,三重県,鳥羽市,相差町３８２番地,,24,211,5170032,,,,,,,2023-11-06,1,,,,,カンエイ,0
2776,9200001041873,新規,0,2023-11-06,2023-11-06,株式会社Ｍｅｂａｅｒｕ,,株式会社,岐阜県,不破郡垂井町,宮代２２１８番地の１,,21,361,5032124,,,,,,,2023-11-06,1,,,,,メバエル,0
2777,9210001019539,新規,0,2023-11-06,2023-11-06,株式会社ＰＲＩＤＥ,,株式会社,福井県,敦賀市,清水町１丁目２１－１４ＦＵＧＥＮビル２Ｆ,,18,202,9140052,,,,,,,2023-11-06,1,,,,,プライド,0
2784,9240001062370,新規,0,2023-11-06,2023-11-06,株式会社さざき,,株式会社,広島県,広島市中区,流川町１番１６号ＷＥＳＴ　ＷＯＯＤビル１Ｆ,,34,101,7300028,,,,,,,2023-11-06,1,,,,,サザキ,0
2785,9240001062387,新規,0,2023-11-06,2023-11-06,株式会社リリーリー,,株式会社,広島県,広島市中区,舟入南４丁目１６番８号,,34,101,7300847,,,,,,,2023-11-06,1,,,,,リリーリー,0
2786,9240003006400,新規,0,2023-11-06,2023-11-06,合同会社輪,,合同会社,広島県,広島市佐伯区,薬師が丘２丁目１５番１９号,,34,108,7315154,,,,,,,2023-11-06,1,,,,,リン,0
2802,9290001103599,新規,0,2023-11-06,2023-11-06,株式会社ＴＲＩＰＬＥ　Ｃ,,株式会社,福岡県,福岡市中央区,大名１丁目９番５号フロンティア大名２Ｆ,,40,133,8100041,,,,,,,2023-11-06,1,,,,,トリプルシー,0
2803,9290001103665,新規,0,2023-11-06,2023-11-06,株式会社ラックアール,,株式会社,福岡県,福岡市南区,和田２丁目３番１号,,40,134,8111343,,,,,,,2023-11-06,1,,,,,,0
2804,9290003014571,新規,0,2023-11-06,2023-11-06,合同会社岩井設計,,合同会社,福岡県,福岡市博多区,春町３丁目７番１０－５０２号,,40,132,8120872,,,,,,,2023-11-06,1,,,,,イワイセッケイ,0
2808,9310001018695,新規,0,2023-11-06,2023-11-06,文化工業株式会社,,株式会社,長崎県,長崎市,片淵３丁目１４番２０号,,42,201,8500003,,,,,,,2023-11-06,1,,,,,ブンカコウギョウ,0
2811,9320003004222,新規,0,2023-11-06,2023-11-06,合同会社ＡＴＳＳ　Ｃｏ．Ｌｔｄ．,,合同会社,大分県,大分市,大字荏隈１６９９番地の３ロイヤル・グリーンハイツ１０２,,44,201,8700889,,,,,,,2023-11-06,1,,,,,アットエスエスコーリミテッド,0
2814,9340001026043,新規,0,2023-11-06,2023-11-06,株式会社ＳＴＲＵＭ　ＷＯＲＫＳ,,株式会社,鹿児島県,薩摩川内市,宮内町２１６３番地１,,46,215,8950065,,,,,,,2023-11-06,1,,,,,ストラムワークス,0
2815,9340001026051,新規,0,2023-11-06,2023-11-06,城江株式会社,,株式会社,鹿児島県,鹿屋市,輝北町上百引１９２５番地２,,46,203,8930201,,,,,,,2023-11-06,1,,,,,ジョウコウ,0
2822,9340003004303,新規,0,2023-11-06,2023-11-06,合同会社竹中記念牧場,,合同会社,鹿児島県,姶良郡湧水町,川添２４３９番地６,,46,452,8996103,,,,,,,2023-11-06,1,,,,,タケナカキネンボクジョウ,0
2824,9360003013401,新規,0,2023-11-06,2023-11-06,合同会社パンドン,,合同会社,沖縄県,那覇市,字安里３６７－５我謝ビル２階,,47,201,9020067,,,,,,,2023-11-06,1,,,,,パンドン,0
2825,9360003013442,新規,0,2023-11-06,2023-11-06,合同会社ＩＳ企画,,合同会社,沖縄県,名護市,字三原５８１番地２,,47,209,9052264,,,,,,,2023-11-06,1,,,,,アイエスキカク,0
2826,9370003006354,新規,0,2023-11-06,2023-11-06,合同会社ＳＫＭ　ＪＡＰＡＮ,,合同会社,宮城県,仙台市青葉区,大町１丁目３番７号,,04,101,9800804,,,,,,,2023-11-06,1,,,,,エスケイエムジャパン,0
2829,9380001034117,新規,0,2023-11-06,2023-11-06,株式会社加藤組,,株式会社,福島県,東白川郡鮫川村,大字青生野字世々麦１７３番地,,07,484,9638404,,,,,,,2023-11-06,1,,,,,カトウグミ,0
2832,9390001017418,新規,0,2023-11-06,2023-11-06,株式会社Ｓ‐１,,株式会社,山形県,鶴岡市,桜新町６番５号,,06,203,9970861,,,,,,,2023-11-06,1,,,,,エスワン,0
2835,9400001016450,新規,0,2023-11-06,2023-11-06,株式会社ヒラメ商会,,株式会社,岩手県,盛岡市,向中野２丁目２７番１５号,,03,201,0200851,,,,,,,2023-11-06,1,,,,,ヒラメショウカイ,0
2837,9410001013637,新規,0,2023-11-06,2023-11-06,株式会社Ｒプランニング,,株式会社,秋田県,大仙市,大曲栄町３番５号,,05,212,0140061,,,,,,,2023-11-06,1,,,,,アールプランニング,0
2839,9420003002827,新規,0,2023-11-06,2023-11-06,合同会社東栄防災,,合同会社,青森県,青森市,北金沢２丁目１５番７号,,02,201,0300855,,,,,,,2023-11-06,1,,,,,トウエイボウサイ,0
2846,9450001014136,新規,0,2023-11-06,2023-11-06,ＳｅａＴｅｃｈ株式会社,,株式会社,北海道,利尻郡利尻町,沓形字新湊１４４番地１,,01,518,0970401,,,,,,,2023-11-06,1,,,,,,0
2851,9470001019876,新規,0,2023-11-06,2023-11-06,株式会社ＭＡＮＡＴＯ,,株式会社,香川県,仲多度郡多度津町,大字葛原４７番地１１,,37,404,7640028,,,,,,,2023-11-06,1,,,,,マナト,0
2852,9470001019884,新規,0,2023-11-06,2023-11-06,株式会社Ｔ．Ｇ．Ｍ,,株式会社,香川県,高松市,木太町１１３７番地１,,37,201,7600080,,,,,,,2023-11-06,1,,,,,ティージーエム,0
2854,9470005006532,新規,0,2023-11-06,2023-11-06,一般社団法人いきいきライフ協会高松,,その他の設立登記法人,香川県,高松市,観光通１丁目５番地７,,37,201,7600055,,,,,,,2023-11-06,1,,,,,イキイキライフキョウカイタカマツ,0
2856,9480001012277,新規,0,2023-11-06,2023-11-06,株式会社プレミアムバッチ,,株式会社,徳島県,板野郡北島町,中村字田処２番地１９,,36,402,7710203,,,,,,,2023-11-06,1,,,,,プレミアムバッチ,0
2861,9500001025292,新規,0,2023-11-06,2023-11-06,株式会社Ｉ＆Ｉ,,株式会社,愛媛県,松山市,南高井町１８００番地７,,38,201,7911112,,,,,,,2023-11-06,1,,,,,アイアンドアイ,0
2863,9700150121830,新規,0,2023-11-06,2023-11-06,木津土地改良区,,その他,京都府,木津川市,木津白口６－１,,26,214,6190214,,,,,,,2023-11-06,1,,,,,キヅトチカイリヨウク,0
