sequenceNumber,corporateNumber,process,correct,updateDate,changeDate,name,nameImageId,kind,prefectureName,cityName,streetNumber,addressImageId,prefectureCode,cityCode,postCode,addressOutside,addressOutsideImageId,closeDate,closeCause,successorCorporateNumber,changeCause,assignmentDate,latest,enName,enPrefectureName,enCityName,enAddressOutside,furigana,hihyoji
11,1010001262991,新規,0,2026-02-19,2026-02-19,フェニックス商事株式会社,,株式会社,東京都,中央区,銀座７丁目１４番１５号ＳＫビル４階,,13,102,1040061,,,,,,,2026-02-19,1,,,,,フェニックスショウジ,0
12,1010001263040,新規,0,2026-02-19,2026-02-19,株式会社Ｊ・ＷＯＲＫＳ,,株式会社,東京都,千代田区,五番町２番１４号２０２号室,,13,101,1020076,,,,,,,2026-02-19,1,,,,,ジェイワークス,0
13,1010001263057,新規,0,2026-02-19,2026-02-19,株式会社源和テクノロジーズ,,株式会社,東京都,中央区,日本橋兜町１７－２兜町第６葉山ビル４Ｆ,,13,102,1030026,,,,,,,2026-02-19,1,,,,,ゲンワテクノロジーズ,0
17,1010003050379,新規,0,2026-02-19,2026-02-19,合同会社上野ＰＧ,,合同会社,東京都,中央区,日本橋箱崎町１６－１東益ビル６階,,13,102,1030015,,,,,,,2026-02-19,1,,,,,ウエノピージー,0
18,1010005041418,新規,0,2026-02-19,2026-02-19,一般社団法人２２,,その他の設立登記法人,東京都,千代田区,丸の内１丁目４番１号東京共同会計事務所内,,13,101,1000005,,,,,,,2026-02-19,1,,,,,ニジュウニ,0
34,1010401196633,新規,0,2026-02-19,2026-02-19,株式会社ＬＫＣ,,株式会社,東京都,港区,南青山５丁目６番２４号,,13,103,1070062,,,,,,,2026-02-19,1,,,,,エルケーシー,0
35,1010401196674,新規,0,2026-02-19,2026-02-19,株式会社オフィス・コバリ,,株式会社,東京都,港区,北青山１丁目３番１号アールキューブ青山３階,,13,103,1070061,,,,,,,2026-02-19,1,,,,,オフィスコバリ,0
36,1010401196690,新規,0,2026-02-19,2026-02-19,株式会社あゆみ,,株式会社,東京都,港区,南麻布１丁目４番８－７０２号,,13,103,1060047,,,,,,,2026-02-19,1,,,,,アユミ,0
37,1010401196699,新規,0,2026-02-19,2026-02-19,株式会社ＹＧＲ,,株式会社,東京都,港区,芝５丁目３２番１２号シャーメゾンステージ田町３Ｆ,,13,103,1080014,,,,,,,2026-02-19,1,,,,,ワイジーアール,0
48,1010403037364,新規,0,2026-02-19,2026-02-19,合同会社プレヴェスタ,,合同会社,東京都,港区,北青山１丁目３番１号アールキューブ青山３階,,13,103,1070061,,,,,,,2026-02-19,1,,,,,プレヴェスタ,0
49,1010503008190,新規,0,2026-02-19,2026-02-19,合同会社達,,合同会社,東京都,台東区,上野５丁目１８番２号１階,,13,106,1100005,,,,,,,2026-02-19,1,,,,,タツ,0
50,1010505003685,新規,0,2026-02-19,2026-02-19,ＮＰＯ法人フェニックス,,その他の設立登記法人,東京都,台東区,浅草橋１丁目９番１３Ｂｉｚ－ａｒｋ浅草橋駅前ビル３階,,13,106,1110053,,,,,,,2026-02-19,1,,,,,フェニックス,0
64,1011001175473,新規,0,2026-02-19,2026-02-19,株式会社タイニーエフォート,,株式会社,東京都,渋谷区,神南１丁目１１－４ＦＰＧリンクス神南５階,,13,113,1500041,,,,,,,2026-02-19,1,,,,,タイニーエフォート,0
65,1011001175507,新規,0,2026-02-19,2026-02-19,株式会社９９,,株式会社,東京都,渋谷区,恵比寿西２丁目４番８号ウィンド恵比寿ビル８階,,13,113,1500021,,,,,,,2026-02-19,1,,,,,ナインティナイン,0
67,1011003023671,新規,0,2026-02-19,2026-02-19,合同会社ＣＨソーラー,,合同会社,東京都,渋谷区,千駄ヶ谷３丁目１１番８号,,13,113,1510051,,,,,,,2026-02-19,1,,,,,シーエイチソーラー,0
69,1011101115016,新規,0,2026-02-19,2026-02-19,株式会社継承,,株式会社,東京都,新宿区,西新宿３丁目３番１３号西新宿水間ビル６階,,13,104,1600023,,,,,,,2026-02-19,1,,,,,ケイショウ,0
71,1011203004950,新規,0,2026-02-19,2026-02-19,合同会社ＭＫ,,合同会社,東京都,中野区,中央４丁目４０番７号メゾンカレン７０２,,13,114,1640011,,,,,,,2026-02-19,1,,,,,エムケイ,0
74,1011301031277,新規,0,2026-02-19,2026-02-19,株式会社ＰＲＯＤＩＧＹ,,株式会社,東京都,杉並区,和泉２丁目１７－４３第三プラムハイツ１０１,,13,115,1680063,,,,,,,2026-02-19,1,,,,,プロディジー,0
75,1011303005873,新規,0,2026-02-19,2026-02-19,合同会社パレーシアマネジメント,,合同会社,東京都,杉並区,高円寺南３丁目４３－６クレッセン高円寺２０３,,13,115,1660003,,,,,,,2026-02-19,1,,,,,パレーシアマネジメント,0
80,1011601029376,新規,0,2026-02-19,2026-02-19,株式会社オンリースタイルエナジー,,株式会社,東京都,練馬区,豊玉中２丁目１８番９号第２オーエスビル,,13,120,1760013,,,,,,,2026-02-19,1,,,,,オンリースタイルエナジー,0
84,1011701029193,新規,0,2026-02-19,2026-02-19,株式会社佐藤商事,,株式会社,東京都,江戸川区,西小岩１丁目２９番１２－１０１号,,13,123,1330057,,,,,,,2026-02-19,1,,,,,サトウショウジ,0
85,1012301014726,新規,0,2026-02-19,2026-02-19,株式会社ＫＮＡ,,株式会社,東京都,町田市,原町田６丁目１７番１号藤ビル４０５号室,,13,209,1940013,,,,,,,2026-02-19,1,,,,,ケーエヌエー,0
90,1020001167232,新規,0,2026-02-19,2026-02-19,株式会社Ｍｏｔｏｒｉｎｏ,,株式会社,神奈川県,横浜市緑区,長津田町４２５９番地３Ｗ３０２号室,,14,113,2260026,,,,,,,2026-02-19,1,,,,,モトリノ,0
91,1020003030371,新規,0,2026-02-19,2026-02-19,合同会社スマイル,,合同会社,神奈川県,横浜市港南区,大久保３丁目１０－７,,14,111,2330007,,,,,,,2026-02-19,1,,,,,スマイル,0
94,1020005017152,新規,0,2026-02-19,2026-02-19,特定非営利活動法人在日南アフリカ文化外交センター,,その他の設立登記法人,神奈川県,横浜市中区,長者町２丁目５番地５長者町ビジネスマンション２０４号室,,14,104,2310033,,,,,,,2026-02-19,1,,,,,ザイニチミナミアフリカブンカガイコウセンター,0
95,1021001087560,新規,0,2026-02-19,2026-02-19,株式会社ＦＡＲＭ　ＨＡＶＥＮ,,株式会社,神奈川県,茅ヶ崎市,松が丘２丁目４番４０号ＭＥＬＤＩＡ茅ヶ崎１０２,,14,207,2530025,,,,,,,2026-02-19,1,,,,,ファームヘイブン,0
96,1021001087593,新規,0,2026-02-19,2026-02-19,株式会社大空カンパニー,,株式会社,神奈川県,海老名市,国分北１丁目２番９号,,14,215,2430406,,,,,,,2026-02-19,1,,,,,オオゾラカンパニー,0
111,1030003028679,新規,0,2026-02-19,2026-02-19,合同会社ｔｕｔｏｒｉａｌ,,合同会社,埼玉県,川口市,上青木６丁目３８番８号,,11,203,3330844,,,,,,,2026-02-19,1,,,,,,0
115,1040001142506,新規,0,2026-02-19,2026-02-19,株式会社ＭＥホールディングス,,株式会社,千葉県,千葉市美浜区,若葉３丁目１－１９－２０４,,12,106,2610014,,,,,,,2026-02-19,1,,,,,エムイーホールディングス,0
116,1040001142530,新規,0,2026-02-19,2026-02-19,褌株式会社,,株式会社,千葉県,富津市,大堀２丁目２４－３,,12,226,2930001,,,,,,,2026-02-19,1,,,,,フンドシ,0
117,1040001142547,新規,0,2026-02-19,2026-02-19,ＳＴＡＩＲ株式会社,,株式会社,千葉県,千葉市花見川区,幕張町４丁目６４６番地６６,,12,102,2620032,,,,,,,2026-02-19,1,,,,,ステア,0
119,1050001057983,新規,0,2026-02-19,2026-02-19,株式会社エスケイ,,株式会社,茨城県,土浦市,東中貫町２番３号,,08,203,3000006,,,,,,,2026-02-19,1,,,,,,0
120,1050001057991,新規,0,2026-02-19,2026-02-19,株式会社ＳｏＬＡＴＥＣ,,株式会社,茨城県,常総市,坂手町９３７番地６,,08,211,3030042,,,,,,,2026-02-19,1,,,,,ソラテック,0
121,1050003009941,新規,0,2026-02-19,2026-02-19,合同会社関東宅配事業,,合同会社,茨城県,神栖市,知手１３５－２,,08,232,3140115,,,,,,,2026-02-19,1,,,,,カントウタクハイジギヨウ,0
129,1080001027430,新規,0,2026-02-19,2026-02-19,株式会社みどりの森,,株式会社,静岡県,静岡市葵区,北３丁目２９番３７号,,22,101,4200961,,,,,,,2026-02-19,1,,,,,ミドリノモリ,0
133,1090001019749,新規,0,2026-02-19,2026-02-19,株式会社Ｋ‐ＷＯＲＫＳ,,株式会社,山梨県,南巨摩郡南部町,楮根２４０２番地１,,19,366,4092101,,,,,,,2026-02-19,1,,,,,ケーワークス,0
135,1100001039349,新規,0,2026-02-19,2026-02-19,株式会社ＴＫＤ,,株式会社,長野県,長野市,大字稲葉２４６７番地７アネックス南俣２０３,,20,201,3800911,,,,,,,2026-02-19,1,,,,,ティーケーディー,0
136,1100003008624,新規,0,2026-02-19,2026-02-19,合同会社クイックラン,,合同会社,長野県,須坂市,大字須坂４４７番地フレグランス高橋Ａ棟２０２,,20,207,3820911,,,,,,,2026-02-19,1,,,,,クイックラン,0
160,1120001284249,新規,0,2026-02-19,2026-02-19,チアーズフレイ株式会社,,株式会社,大阪府,大阪市城東区,関目３丁目１２番２７号サンライズツイン関目２－２０５,,27,118,5360008,,,,,,,2026-02-19,1,,,,,チアーズフレイ,0
167,1120901052242,新規,0,2026-02-19,2026-02-19,株式会社ＷＭＣコーポレート,,株式会社,大阪府,豊中市,上新田１丁目２５番Ｊ３０５号室,,27,203,5600085,,,,,,,2026-02-19,1,,,,,ダブルエムシーコーポレート,0
168,1120903006089,新規,0,2026-02-19,2026-02-19,Ｒｕｓｈ　Ｒｅｓｃｕｅ合同会社,,合同会社,大阪府,豊能郡豊能町,光風台６丁目２０番地の１４,,27,321,5630104,,,,,,,2026-02-19,1,,,,,ラッシュレスキュー,0
170,1130001081637,新規,0,2026-02-19,2026-02-19,株式会社平元文筆,,株式会社,京都府,京都市左京区,岩倉北池田町５９番地コムサイト宝ヶ池Ａ号室,,26,103,6060004,,,,,,,2026-02-19,1,,,,,ヒラモトブンピツ,0
171,1130001081653,新規,0,2026-02-19,2026-02-19,株式会社ヘリテージマネージメント,,株式会社,京都府,京都市山科区,西野岸ノ下町６０番地西野マンション３５号室,,26,110,6078352,,,,,,,2026-02-19,1,,,,,ヘリテージマネージメント,0
172,1130001081661,新規,0,2026-02-19,2026-02-19,京都洛東秀岳株式会社,,株式会社,京都府,京都市山科区,竹鼻木ノ本町２番地７０５号室,,26,110,6078083,,,,,,,2026-02-19,1,,,,,キョウトラクトウシュウガク,0
177,1140001141778,新規,0,2026-02-19,2026-02-19,ミユキ工業株式会社,,株式会社,兵庫県,高砂市,米田町米田４９８番地の３,,28,216,6760805,,,,,,,2026-02-19,1,,,,,ミユキコウギョウ,0
180,1140003023198,新規,0,2026-02-19,2026-02-19,合同会社侑リンクス,,合同会社,兵庫県,神戸市中央区,磯辺通２丁目２－１０ｏｎｅｋｎｏｔｔｒａｄｅｓ神戸ビル１００６,,28,110,6510084,,,,,,,2026-02-19,1,,,,,ユウリンクス,0
181,1140003023223,新規,0,2026-02-19,2026-02-19,１０．３１合同会社,,合同会社,兵庫県,神戸市兵庫区,三川口町３丁目３－１０－３０３,,28,105,6520815,,,,,,,2026-02-19,1,,,,,イチゼロテンサンイチ,0
183,1150001028751,新規,0,2026-02-19,2026-02-19,株式会社ＶＯＣＯ　ＦＩＬＭ,,株式会社,奈良県,生駒市,さつき台１丁目６８０－３６,,29,209,6300221,,,,,,,2026-02-19,1,,,,,ヴォコフィルム,0
184,1160003003719,新規,0,2026-02-19,2026-02-19,合同会社グロワール,,合同会社,滋賀県,近江八幡市,田中江町６１４番地３ラブリータウン近江Ｃ棟２０７号,,25,204,5230057,,,,,,,2026-02-19,1,,,,,グロワール,0
196,1180001170690,新規,0,2026-02-19,2026-02-19,株式会社ＮＥＸＡ,,株式会社,愛知県,一宮市,今伊勢町本神戸字筋替８番地２,,23,203,4910053,,,,,,,2026-02-19,1,,,,,ネクサ,0
197,1180001170699,新規,0,2026-02-19,2026-02-19,株式会社ＮＩＳＨＩＫＩ,,株式会社,愛知県,名古屋市天白区,八事山４２１番地プラザフェニックス八事苑Ｃ棟５０２号,,23,116,4680077,,,,,,,2026-02-19,1,,,,,ニシキ,0
198,1180001170757,新規,0,2026-02-19,2026-02-19,株式会社鵬程商事,,株式会社,愛知県,名古屋市緑区,曽根１丁目１１５番地の３,,23,114,4580035,,,,,,,2026-02-19,1,,,,,ホウテイショウジ,0
207,1220001027176,新規,0,2026-02-19,2026-02-19,株式会社Ｖａｌｉｎｋ,,株式会社,石川県,かほく市,高松オ９２番地,,17,209,9291215,,,,,,,2026-02-19,1,,,,,バリンク,0
214,1240001066180,新規,0,2026-02-19,2026-02-19,株式会社ＥＶＡ,,株式会社,広島県,広島市中区,弥生町２番６－３０６号,,34,101,7300023,,,,,,,2026-02-19,1,,,,,エヴァ,0
217,1250003003908,新規,0,2026-02-19,2026-02-19,合同会社しおかぜ,,合同会社,山口県,宇部市,明神町２丁目９番２７号,,35,202,7550008,,,,,,,2026-02-19,1,,,,,シオカゼ,0
222,1270001009392,新規,0,2026-02-19,2026-02-19,株式会社アぺゼ,,株式会社,鳥取県,日野郡江府町,大字小江尾３８番地１,,31,403,6894402,,,,,,,2026-02-19,1,,,,,アペゼ,0
230,1290003018076,新規,0,2026-02-19,2026-02-19,豊ＦＵ合同会社,,合同会社,福岡県,福岡市中央区,天神２丁目２－１２Ｔ＆Ｊビルディング７Ｆ,,40,133,8100001,,,,,,,2026-02-19,1,,,,,,0
245,1430001096290,新規,0,2026-02-19,2026-02-19,株式会社まこみ豆商店,,株式会社,北海道,江別市,元町２８番地の３,,01,217,0670031,,,,,,,2026-02-19,1,,,,,マコミマメショウテン,0
248,1450003002773,新規,0,2026-02-19,2026-02-19,未来やる合同会社,,合同会社,北海道,富良野市,本町３番１号１階、２階,,01,229,0760031,,,,,,,2026-02-19,1,,,,,ミクヤル,0
264,2010001262900,新規,0,2026-02-19,2026-02-19,ＫＪ００５ＨＤ株式会社,,株式会社,東京都,千代田区,丸の内２丁目１番１号明治安田生命ビル１１階,,13,101,1000005,,,,,,,2026-02-19,1,,,,,ケージェーゼロゼロゴホールディングス,0
265,2010001262966,新規,0,2026-02-19,2026-02-19,株式会社スターボルトホールディングス,,株式会社,東京都,中央区,銀座１丁目１２－４Ｎ＆Ｅ・ＢＬＤ．７階,,13,102,1040061,,,,,,,2026-02-19,1,,,,,スターボルトホールディングス,0
266,2010001263023,新規,0,2026-02-19,2026-02-19,株式会社ハウディ・クリプト,,株式会社,東京都,中央区,日本橋堀留町１丁目４番２号,,13,102,1030012,,,,,,,2026-02-19,1,,,,,ハウディクリプト,0
269,2010005041417,新規,0,2026-02-19,2026-02-19,一般社団法人石ノ上倶楽部,,その他の設立登記法人,東京都,千代田区,丸の内１丁目４番１号東京共同会計事務所内,,13,101,1000005,,,,,,,2026-02-19,1,,,,,イシノウエクラブ,0
293,2010403037371,新規,0,2026-02-19,2026-02-19,合同会社ＣａｒｄＳｐｉｒｉｔ,,合同会社,東京都,港区,東麻布２丁目２８番１号ＵＰＢＡＳＥ４０３,,13,103,1060044,,,,,,,2026-02-19,1,,,,,カードスピリット,0
294,2010405025374,新規,0,2026-02-19,2026-02-19,一般社団法人エーシーワン,,その他の設立登記法人,東京都,港区,虎ノ門５丁目１番４号,,13,103,1050001,,,,,,,2026-02-19,1,,,,,エーシーワン,0
295,2010405025390,新規,0,2026-02-19,2026-02-19,一般社団法人みなと０１１,,その他の設立登記法人,東京都,港区,虎ノ門３丁目２２番１０－２０１号,,13,103,1050001,,,,,,,2026-02-19,1,,,,,ミナトゼロワンワン,0
301,2010501055481,新規,0,2026-02-19,2026-02-19,株式会社オールドニュー,,株式会社,東京都,台東区,根岸３丁目７番２号中やビル１０１号室,,13,106,1100003,,,,,,,2026-02-19,1,,,,,オールドニュー,0
305,2010601068730,新規,0,2026-02-19,2026-02-19,グローバルリンク株式会社,,株式会社,東京都,墨田区,向島４丁目１－１－２１６,,13,107,1310033,,,,,,,2026-02-19,1,,,,,グローバルリンク,0
306,2010601068771,新規,0,2026-02-19,2026-02-19,株式会社Ｃｈｉｎａ　Ｄｒｉｎｋｓ,,株式会社,東京都,江東区,永代１丁目１３番８号坂崎ビル４０１,,13,108,1350034,,,,,,,2026-02-19,1,,,,,チャイナドリンクス,0
311,2010901058992,新規,0,2026-02-19,2026-02-19,株式会社フィジセラ,,株式会社,東京都,世田谷区,奥沢５丁目４０番１１号ウエストハウス自由が丘１０２号室,,13,112,1580083,,,,,,,2026-02-19,1,,,,,フィジセラ,0
312,2010901059009,新規,0,2026-02-19,2026-02-19,株式会社ワイズプライム,,株式会社,東京都,世田谷区,南烏山４丁目１０番３号ＫＳビル３０１,,13,112,1570062,,,,,,,2026-02-19,1,,,,,ワイズプライム,0
313,2010901059017,新規,0,2026-02-19,2026-02-19,株式会社ベルビア,,株式会社,東京都,世田谷区,梅丘１丁目２２番４号,,13,112,1540022,,,,,,,2026-02-19,1,,,,,ベルビア,0
317,2011201026970,新規,0,2026-02-19,2026-02-19,石川商事株式会社,,株式会社,東京都,中野区,東中野１丁目５９－４コリンズ４９ビル６０２号室,,13,114,1640003,,,,,,,2026-02-19,1,,,,,イシカワショウジ,0
319,2011301031268,新規,0,2026-02-19,2026-02-19,セイワ株式会社,,株式会社,東京都,杉並区,和田１丁目１０番１５号メゾンボア杉並５０２,,13,115,1660012,,,,,,,2026-02-19,1,,,,,セイワ,0
332,2013303008095,新規,0,2026-02-19,2026-02-19,合同会社ＡＫＩＴＯグループ,,合同会社,東京都,豊島区,東池袋２丁目６２番８号ＢＩＧオフィスプラザ池袋１２０６,,13,116,1700013,,,,,,,2026-02-19,1,,,,,アキトグループ,0
336,2020003030429,新規,0,2026-02-19,2026-02-19,合同会社ｒａｋｋｏ,,合同会社,神奈川県,横浜市西区,浅間町１丁目４番３号ウィザードビル４０２,,14,103,2200072,,,,,,,2026-02-19,1,,,,,ラッコ,0
345,2030001170928,新規,0,2026-02-19,2026-02-19,株式会社そら,,株式会社,埼玉県,川越市,郭町２丁目５番地１４,,11,201,3500053,,,,,,,2026-02-19,1,,,,,ソラ,0
347,2030003028678,新規,0,2026-02-19,2026-02-19,ＡＬＩ　ＴＲＡＤＩＮＧ合同会社,,合同会社,埼玉県,鴻巣市,下忍３４４５番地１２,,11,217,3690113,,,,,,,2026-02-19,1,,,,,アリトレーディング,0
351,2040001142546,新規,0,2026-02-19,2026-02-19,Ａｃｅ　Ｂｒｉｇｈｔ　Ｗｏｒｋｓ株式会社,,株式会社,千葉県,八街市,沖１４８３番地３,,12,230,2891126,,,,,,,2026-02-19,1,,,,,エースブライトワークス,0
352,2040001142612,新規,0,2026-02-19,2026-02-19,株式会社わゆい住まいる,,株式会社,千葉県,船橋市,海神２丁目１４番２号,,12,204,2730021,,,,,,,2026-02-19,1,,,,,ワユイスマイル,0
356,2040005023049,新規,0,2026-02-19,2026-02-19,医療法人社団翠湖会,,その他の設立登記法人,千葉県,木更津市,請西東４丁目６番地１２,,12,206,2920806,,,,,,,2026-02-19,1,,,,,スイコカイ,0
359,2050001057966,新規,0,2026-02-19,2026-02-19,株式会社オーバービッグ,,株式会社,茨城県,取手市,新町１丁目９ー１リボンとりで３０７,,08,217,3020024,,,,,,,2026-02-19,1,,,,,オーバービッグ,0
366,2100003008623,新規,0,2026-02-19,2026-02-19,合同会社ＺＥＮＳＩＮ,,合同会社,長野県,松本市,清水２丁目１－４５,,20,202,3900805,,,,,,,2026-02-19,1,,,,,ゼンシン,0
383,2120001284264,新規,0,2026-02-19,2026-02-19,ＡＪ・Ａｎｒｉ株式会社,,株式会社,大阪府,大阪市阿倍野区,阿倍野筋３丁目３番１８号,,27,119,5450052,,,,,,,2026-02-19,1,,,,,エイジェイアンリ,0
384,2120001284272,新規,0,2026-02-19,2026-02-19,株式会社肉よし,,株式会社,大阪府,大阪市東淀川区,北江口４丁目２番３１号,,27,114,5330002,,,,,,,2026-02-19,1,,,,,ニクヨシ,0
385,2120001284355,新規,0,2026-02-19,2026-02-19,未来会計パッション株式会社,,株式会社,大阪府,大阪市阿倍野区,阿倍野筋１丁目１‐４３あべのハルカス３１階,,27,119,5450052,,,,,,,2026-02-19,1,,,,,ミライカイケイパッション,0
391,2120003031953,新規,0,2026-02-19,2026-02-19,合同会社パキラ,,合同会社,大阪府,大阪市天王寺区,四天王寺１丁目５番２２－１４０２号,,27,109,5430051,,,,,,,2026-02-19,1,,,,,パキラ,0
393,2120901052233,新規,0,2026-02-19,2026-02-19,株式会社シンムサシ,,株式会社,大阪府,箕面市,船場西２丁目２番１号７Ｆ,,27,220,5620036,,,,,,,2026-02-19,1,,,,,シンムサシ,0
399,2130001081652,新規,0,2026-02-19,2026-02-19,株式会社Ｐｒｅｍａ,,株式会社,京都府,京都市下京区,大黒町２２７番地第２キョートビル４０２,,26,106,6008043,,,,,,,2026-02-19,1,,,,,プレマ,0
401,2130003011161,新規,0,2026-02-19,2026-02-19,ＴｏＤｏマネジメント合同会社,,合同会社,京都府,京都市下京区,七条通油小路東入大黒町２２７番地第２キョートビル４０２,,26,106,6008223,,,,,,,2026-02-19,1,,,,,トゥードゥーマネジメント,0
402,2130005017594,新規,0,2026-02-19,2026-02-19,一般社団法人Ｋｉｒｅｉ＆Ｈｅａｌｔｈ,,その他の設立登記法人,京都府,八幡市,西山和気４番地４,,26,210,6148352,,,,,,,2026-02-19,1,,,,,キレイアンドヘルス,0
410,2140003023230,新規,0,2026-02-19,2026-02-19,合同会社カレント,,合同会社,兵庫県,加古川市,平岡町一色４９６番地の３,,28,210,6750115,,,,,,,2026-02-19,1,,,,,カレント,0
431,2200001044742,新規,0,2026-02-19,2026-02-19,株式会社ソニック,,株式会社,岐阜県,養老郡養老町,岩道４７０番地３８,,21,341,5031321,,,,,,,2026-02-19,1,,,,,ソニック,0
432,2210003002012,新規,0,2026-02-19,2026-02-19,ＬｕＬｕ合同会社,,合同会社,福井県,越前市,北町第４２号３番地,,18,209,9150004,,,,,,,2026-02-19,1,,,,,ルル,0
436,2240001066188,新規,0,2026-02-19,2026-02-19,株式会社川村建設,,株式会社,広島県,福山市,東深津町２丁目１７番２９－１号,,34,207,7210974,,,,,,,2026-02-19,1,,,,,カワムラケンセツ,0
439,2250003003907,新規,0,2026-02-19,2026-02-19,まるりぶ合同会社,,合同会社,山口県,熊毛郡平生町,大字佐賀１１７番地,,35,344,7421111,,,,,,,2026-02-19,1,,,,,マルリブ,0
458,2290003018083,新規,0,2026-02-19,2026-02-19,エアレス合同会社,,合同会社,福岡県,糟屋郡須惠町,大字旅石１７０番地１１,,40,344,8112221,,,,,,,2026-02-19,1,,,,,エアレス,0
460,2290801032260,新規,0,2026-02-19,2026-02-19,株式会社フクショウ,,株式会社,福岡県,北九州市小倉北区,宇佐町１丁目１２番１８号,,40,106,8020016,,,,,,,2026-02-19,1,,,,,フクショウ,0
464,2310001019972,新規,0,2026-02-19,2026-02-19,株式会社リーフプラス,,株式会社,長崎県,長崎市,伊勢町４番５－１４０１号,,42,201,8500018,,,,,,,2026-02-19,1,,,,,リーフプラス,0
479,2430001096273,新規,0,2026-02-19,2026-02-19,株式会社ブライトスカイ,,株式会社,北海道,苫小牧市,東開町２丁目９番７号,,01,213,0591301,,,,,,,2026-02-19,1,,,,,ブライトスカイ,0
481,2430003018606,新規,0,2026-02-19,2026-02-19,エムティオフィス合同会社,,合同会社,北海道,札幌市中央区,北十五条西１５丁目４番１－２０２号,,01,101,0600015,,,,,,,2026-02-19,1,,,,,エムティオフィス,0
483,2500003003674,新規,0,2026-02-19,2026-02-19,ＹＭ企画合同会社,,合同会社,愛媛県,松山市,石手５丁目１－７サントノーレ石手１００１,,38,201,7900852,,,,,,,2026-02-19,1,,,,,ワイエムキカク,0
491,3010001262899,新規,0,2026-02-19,2026-02-19,ＫＪ００５株式会社,,株式会社,東京都,千代田区,丸の内２丁目１番１号明治安田生命ビル１１階,,13,101,1000005,,,,,,,2026-02-19,1,,,,,ケージェーゼロゼロゴ,0
501,3010003050427,新規,0,2026-02-19,2026-02-19,合同会社ＨＫ　Ａｓｓｅｔ　Ｍａｎａｇｅｍｅｎｔ,,合同会社,東京都,千代田区,丸の内３丁目３番１号新東京ビル１階,,13,101,1000005,,,,,,,2026-02-19,1,,,,,エイチケイアセットマネジメント,0
502,3010003050443,新規,0,2026-02-19,2026-02-19,Ｓｐｒｉｎｔ　ＴＲ　Ｈｏｌｄｉｎｇｓ合同会社,,合同会社,東京都,千代田区,区霞が関三丁目２番５号,,13,101,1000000,,,,,,,2026-02-19,1,,,,,スプリントティーアールホールディングス,0
503,3010003050451,新規,0,2026-02-19,2026-02-19,アクティベートジャパン合同会社,,合同会社,東京都,千代田区,六番町４番地１１,,13,101,1020085,,,,,,,2026-02-19,1,,,,,アクティベートジャパン,0
504,3010005041416,新規,0,2026-02-19,2026-02-19,一般社団法人本町三丁目ホテル,,その他の設立登記法人,東京都,千代田区,丸の内１丁目４番１号東京共同会計事務所内,,13,101,1000005,,,,,,,2026-02-19,1,,,,,ホンマチサンチョウメホテル,0
516,3010401196631,新規,0,2026-02-19,2026-02-19,株式会社Ｓａｋ,,株式会社,東京都,港区,白金３丁目１９番９号,,13,103,1080072,,,,,,,2026-02-19,1,,,,,エスエーケー,0
517,3010401196656,新規,0,2026-02-19,2026-02-19,株式会社Ｃｅｎｔｒｏ　Ｔｏｋｙｏ,,株式会社,東京都,港区,白金４丁目６番６－２０９号,,13,103,1080072,,,,,,,2026-02-19,1,,,,,チェントロトウキョウ,0
518,3010401196672,新規,0,2026-02-19,2026-02-19,株式会社ＡＣＥ,,株式会社,東京都,港区,東麻布１丁目５番９号イチボシ東麻布テラス３０１,,13,103,1060044,,,,,,,2026-02-19,1,,,,,エース,0
519,3010401196689,新規,0,2026-02-19,2026-02-19,Ｌｅａｒｎ　Ｃｒａｆｔ株式会社,,株式会社,東京都,港区,北青山１丁目３－３三橋ビル３階,,13,103,1070061,,,,,,,2026-02-19,1,,,,,ラーンクラフト,0
520,3010401196714,新規,0,2026-02-19,2026-02-19,株式会社ＴＮＳ　Ｊａｐａｎ,,株式会社,東京都,港区,北青山１丁目３番１号アールキューブ青山３階,,13,103,1070061,,,,,,,2026-02-19,1,,,,,ティーエヌエスジャパン,0
521,3010401196730,新規,0,2026-02-19,2026-02-19,株式会社ＴＥＫＩＮＯ　ＪＡＰＡＮ,,株式会社,東京都,港区,海岸１丁目２－２０－３Ｆ,,13,103,1050022,,,,,,,2026-02-19,1,,,,,テキノジャパン,0
545,3010905004901,新規,0,2026-02-19,2026-02-19,一般社団法人まなびっくす,,その他の設立登記法人,東京都,世田谷区,赤堤１丁目２９番４号,,13,112,1560044,,,,,,,2026-02-19,1,,,,,マナビックス,0
550,3011001175389,新規,0,2026-02-19,2026-02-19,株式会社Ｒｉｔｏ,,株式会社,東京都,渋谷区,恵比寿西２丁目４番８号ウィンド恵比寿ビル８Ｆ,,13,113,1500021,,,,,,,2026-02-19,1,,,,,リト,0
551,3011001175488,新規,0,2026-02-19,2026-02-19,株式会社ＦＬＥＵＶＥ　ＩＮＴＥＲＮＡＴＩＯＮＡＬ,,株式会社,東京都,渋谷区,神宮前２丁目３０番２６－３０７号,,13,113,1500001,,,,,,,2026-02-19,1,,,,,フルーヴインターナショナル,0
552,3011001175505,新規,0,2026-02-19,2026-02-19,株式会社タオライズ,,株式会社,東京都,渋谷区,広尾２丁目２番２０号ヴェラハイツ広尾５０２号,,13,113,1500012,,,,,,,2026-02-19,1,,,,,タオライズ,0
555,3011101115030,新規,0,2026-02-19,2026-02-19,株式会社ジェイ・ケイ・アール,,株式会社,東京都,新宿区,下宮比町１番４号,,13,104,1620822,,,,,,,2026-02-19,1,,,,,ジェイケイアール,0
558,3011103017019,新規,0,2026-02-19,2026-02-19,Ａｉｃｅｎｔｉａ合同会社,,合同会社,東京都,新宿区,西新宿３丁目３番１３号西新宿水間ビル２Ｆ,,13,104,1600023,,,,,,,2026-02-19,1,,,,,アイセンティア,0
599,3030001171074,新規,0,2026-02-19,2026-02-19,株式会社ＴＥＭ,,株式会社,埼玉県,川越市,久保町１０番地１２,,11,201,3500055,,,,,,,2026-02-19,1,,,,,テム,0
603,3030003028660,新規,0,2026-02-19,2026-02-19,スラクアラボ合同会社,,合同会社,埼玉県,狭山市,大字下広瀬７８１番地の９,,11,215,3501322,,,,,,,2026-02-19,1,,,,,スラクアラボ,0
608,3040001142504,新規,0,2026-02-19,2026-02-19,株式会社心ノ和,,株式会社,千葉県,流山市,宮園１丁目８番地の６,,12,220,2700155,,,,,,,2026-02-19,1,,,,,ココノワ,0
609,3040001142578,新規,0,2026-02-19,2026-02-19,株式会社ＯＷＬ,,株式会社,千葉県,我孫子市,台田３丁目８番１１号,,12,222,2701167,,,,,,,2026-02-19,1,,,,,アウル,0
611,3040003029501,新規,0,2026-02-19,2026-02-19,美来開発合同会社,,合同会社,千葉県,柏市,明原１丁目５－５明原マンション１０２号,,12,217,2770843,,,,,,,2026-02-19,1,,,,,ミライカイハツ,0
622,3050003009956,新規,0,2026-02-19,2026-02-19,合同会社ミュゼ・ド・ヒジリ,,合同会社,茨城県,筑西市,西方１５３２番地３,,08,227,3080845,,,,,,,2026-02-19,1,,,,,ミュゼドヒジリ,0
626,3070001043848,新規,0,2026-02-19,2026-02-19,株式会社グランボレ,,株式会社,群馬県,利根郡みなかみ町,師２１５１,,10,449,3791306,,,,,,,2026-02-19,1,,,,,グランボレ,0
627,3070003006308,新規,0,2026-02-19,2026-02-19,合同会社ＯｐｅｎＭＯＳＥ,,合同会社,群馬県,桐生市,宮本町２丁目２－２３,,10,203,3760056,,,,,,,2026-02-19,1,,,,,オープンモセ,0
628,3080001027429,新規,0,2026-02-19,2026-02-19,株式会社ＳＥＩＲＩＮ　ＡｃｕＬｉｎｋ,,株式会社,静岡県,静岡市葵区,七間町９番地の５,,22,101,4200035,,,,,,,2026-02-19,1,,,,,セイリンアキュリンク,0
630,3080003003659,新規,0,2026-02-19,2026-02-19,合同会社ＴＫリヴリー,,合同会社,静岡県,静岡市葵区,横内町５５番地の１,,22,101,4200832,,,,,,,2026-02-19,1,,,,,ティーケーリヴリー,0
631,3080101026099,新規,0,2026-02-19,2026-02-19,株式会社森田建築,,株式会社,静岡県,田方郡函南町,仁田２２４番地の２２,,22,325,4190114,,,,,,,2026-02-19,1,,,,,モリタケンチク,0
634,3080405007803,新規,0,2026-02-19,2026-02-19,ＮＰＯ法人ミューレ,,その他の設立登記法人,静岡県,浜松市中央区,根洗町４２８番地の１,,22,138,4338108,,,,,,,2026-02-19,1,,,,,ミューレ,0
654,3120001284255,新規,0,2026-02-19,2026-02-19,株式会社松葉マネージメント,,株式会社,大阪府,大阪市此花区,春日出中２丁目１４番８号徳屋ハイツ１０１,,27,104,5540022,,,,,,,2026-02-19,1,,,,,マツバマネージメント,0
655,3120001284263,新規,0,2026-02-19,2026-02-19,株式会社Ｂｕｄｄｉｗｅｌｄ,,株式会社,大阪府,大阪市大正区,小林西２丁目１５番２８号,,27,108,5510013,,,,,,,2026-02-19,1,,,,,バディウェルド,0
656,3120001284346,新規,0,2026-02-19,2026-02-19,コナガ建設株式会社,,株式会社,大阪府,大阪市此花区,梅香３丁目２４番１４号,,27,104,5540013,,,,,,,2026-02-19,1,,,,,コナガケンセツ,0
660,3120003031969,新規,0,2026-02-19,2026-02-19,拓新旅宿合同会社,,合同会社,大阪府,大阪市西成区,長橋１丁目１３番３号,,27,122,5570025,,,,,,,2026-02-19,1,,,,,タクシンタビヤド,0
666,3130001081643,新規,0,2026-02-19,2026-02-19,ＤＩＧ株式会社,,株式会社,京都府,京都市南区,吉祥院観音堂南町１番地２１,,26,107,6018347,,,,,,,2026-02-19,1,,,,,ディーアイジー,0
667,3130001081651,新規,0,2026-02-19,2026-02-19,株式会社ＰＬＵＳ,,株式会社,京都府,京都市下京区,綾小路通柳馬場西入綾材木町１９９番地４,,26,106,6008072,,,,,,,2026-02-19,1,,,,,プラス,0
678,3140005027807,新規,0,2026-02-19,2026-02-19,一般社団法人ＣＳＩコンソーシアム,,その他の設立登記法人,兵庫県,神戸市灘区,六甲台町１番１号,,28,102,6570013,,,,,,,2026-02-19,1,,,,,シーエスアイコンソーシアム,0
679,3150001028741,新規,0,2026-02-19,2026-02-19,株式会社Ｄｅｔｏｕｒ,,株式会社,奈良県,奈良市,藤ノ木台２丁目１２番９号,,29,201,6310044,,,,,,,2026-02-19,1,,,,,ディトア,0
687,3180001170706,新規,0,2026-02-19,2026-02-19,株式会社ＷＩＮＳＨＡＲＥ,,株式会社,愛知県,名古屋市名東区,藤里町２２番地,,23,115,4650036,,,,,,,2026-02-19,1,,,,,ウィンシェア,0
688,3180001170763,新規,0,2026-02-19,2026-02-19,株式会社アンバー・エンターテインメント,,株式会社,愛知県,名古屋市千種区,青柳町６丁目１６番５号ＡｍｂｅｒＢｌｄｇ．２Ｆ,,23,101,4640852,,,,,,,2026-02-19,1,,,,,アンバーエンターテインメント,0
693,3180005021434,新規,0,2026-02-19,2026-02-19,一般社団法人パハテノ,,その他の設立登記法人,愛知県,名古屋市南区,元塩町１丁目３６番地の３ホワイトキャッスル南ヶ丘Ａ棟８０５号,,23,112,4570823,,,,,,,2026-02-19,1,,,,,パハテノ,0
697,3200001044717,新規,0,2026-02-19,2026-02-19,株式会社中仙道カントリー倶楽部,,株式会社,岐阜県,瑞浪市,大湫町６２１番地の１,,21,208,5096471,,,,,,,2026-02-19,1,,,,,ナカセンドウカントリークラブ,0
699,3210001020502,新規,0,2026-02-19,2026-02-19,株式会社トラックメンテナンスＬＡＢ,,株式会社,福井県,福井市,引目町第３号１番地５,,18,201,9188156,,,,,,,2026-02-19,1,,,,,トラックメンテナンスラボ,0
700,3210003002011,新規,0,2026-02-19,2026-02-19,フジノ企画合同会社,,合同会社,福井県,福井市,高木１丁目３２０,,18,201,9100805,,,,,,,2026-02-19,1,,,,,フジノキカク,0
703,3230005009523,新規,0,2026-02-19,2026-02-19,行政書士法人つむぐ,,その他の設立登記法人,富山県,富山市,田中町１丁目１４番１２号,,16,201,9300985,,,,,,,2026-02-19,1,,,,,ツムグ,0
706,3240001066187,新規,0,2026-02-19,2026-02-19,株式会社ＡＯＺＯＲＡ０１,,株式会社,広島県,広島市中区,上幟町１番１６号,,34,101,7300014,,,,,,,2026-02-19,1,,,,,アオゾラゼロワン,0
711,3250001021546,新規,0,2026-02-19,2026-02-19,株式会社ｂｌａｎｋ,,株式会社,山口県,下松市,藤光町１丁目２番８号,,35,207,7440028,,,,,,,2026-02-19,1,,,,,ブランク,0
718,3280001009588,新規,0,2026-02-19,2026-02-19,矢田技工株式会社,,株式会社,島根県,出雲市,所原町３８２番地２,,32,203,6930214,,,,,,,2026-02-19,1,,,,,ヤタギコウ,0
723,3290003018099,新規,0,2026-02-19,2026-02-19,Ｋａｍｉｌｙ合同会社,,合同会社,福岡県,福岡市早良区,室見１丁目１６－５－３,,40,137,8140015,,,,,,,2026-02-19,1,,,,,カミリー,0
726,3310001019971,新規,0,2026-02-19,2026-02-19,株式会社おおむらＥサービス,,株式会社,長崎県,大村市,森園町１４７０番地,,42,205,8560815,,,,,,,2026-02-19,1,,,,,オオムライーサビス,0
728,3310003005185,新規,0,2026-02-19,2026-02-19,合同会社Ｓｍｉｌｅ　Ａｌｗａｙｓ,,合同会社,長崎県,長崎市,葉山２丁目５２番２７号,,42,201,8528053,,,,,,,2026-02-19,1,,,,,スマイルアウェイ,0
730,3340001007783,新規,0,2026-02-19,2026-02-19,霧島リゾートランド株式会社,,株式会社,鹿児島県,霧島市,霧島大窪７３１番地２,,46,218,8994203,,,,,,,2026-02-19,1,,,,,,0
735,3400001017330,新規,0,2026-02-19,2026-02-19,ＨＳＳ株式会社,,株式会社,岩手県,盛岡市,大沢川原３丁目６番３１－１４０９号,,03,201,0200025,,,,,,,2026-02-19,1,,,,,エイチエスエス,0
738,3400005008549,新規,0,2026-02-19,2026-02-19,医療法人ＫＯＭＣ,,その他の設立登記法人,岩手県,久慈市,二十八日町１丁目４番地,,03,207,0280062,,,,,,,2026-02-19,1,,,,,ケーオーエムシー,0
740,3430001096289,新規,0,2026-02-19,2026-02-19,株式会社ＳＪシステム,,株式会社,北海道,札幌市白石区,東札幌一条１丁目４番２２号,,01,104,0030001,,,,,,,2026-02-19,1,,,,,エスジェイシステム,0
747,3500003003673,新規,0,2026-02-19,2026-02-19,合同会社Ａｃａｒａｔ,,合同会社,愛媛県,四国中央市,妻鳥町２７６８番地５,,38,213,7990113,,,,,,,2026-02-19,1,,,,,エーカラット,0
756,4010001262667,新規,0,2026-02-19,2026-02-19,株式会社Ｃｕｒｉｆｕｒｕ,,株式会社,東京都,中央区,銀座１丁目１２番４号Ｎ＆ＥＢＬＤ．６Ｆ,,13,102,1040061,,,,,,,2026-02-19,1,,,,,キュリフル,0
757,4010001262980,新規,0,2026-02-19,2026-02-19,株式会社ＡｉＦｅｓＬｉｖｅ,,株式会社,東京都,千代田区,富士見２丁目６番９号雄山閣ビル４階,,13,101,1020071,,,,,,,2026-02-19,1,,,,,アイフェスライブ,0
758,4010001262997,新規,0,2026-02-19,2026-02-19,株式会社Ｅｎｊｉｎ　Ｐａｙｍｅｎｔ　Ｓｅｒｖｉｃｅ,,株式会社,東京都,中央区,銀座５丁目１３番１６号,,13,102,1040061,,,,,,,2026-02-19,1,,,,,エンジンペイメントサービス,0
759,4010001263005,新規,0,2026-02-19,2026-02-19,テスコホールディングス株式会社,,株式会社,東京都,千代田区,西神田１丁目４番５号,,13,101,1010065,,,,,,,2026-02-19,1,,,,,テスコホールディングス,0
760,4010001263021,新規,0,2026-02-19,2026-02-19,リズミックスメディカル株式会社,,株式会社,東京都,文京区,本郷１丁目２８番１０号,,13,105,1130033,,,,,,,2026-02-19,1,,,,,リズミックスメディカル,0
766,4010003050442,新規,0,2026-02-19,2026-02-19,Ｓｐｒｉｎｔ　ＴＲ　ＭＬ合同会社,,合同会社,東京都,千代田区,霞が関３丁目２番５号,,13,101,1000013,,,,,,,2026-02-19,1,,,,,スプリントティーアールエムエル,0
773,4010401196647,新規,0,2026-02-19,2026-02-19,株式会社Ｂｉｚ‐Ｗｅａｖｅ,,株式会社,東京都,港区,浜松町２丁目２番１５号浜松町ダイヤビル２Ｆ,,13,103,1050013,,,,,,,2026-02-19,1,,,,,ビズウィーヴ,0
774,4010401196663,新規,0,2026-02-19,2026-02-19,Ａｕｔｈｅｎｓｅ　Ｍｅｄｉａ株式会社,,株式会社,東京都,港区,赤坂９丁目７番１号ミッドタウン・タワー２２階,,13,103,1070052,,,,,,,2026-02-19,1,,,,,オーセンスメディア,0
775,4010401196688,新規,0,2026-02-19,2026-02-19,ＳＫＥＰＳＩＳ株式会社,,株式会社,東京都,港区,南青山５丁目１７番２号,,13,103,1070062,,,,,,,2026-02-19,1,,,,,スケプシス,0
776,4010401196713,新規,0,2026-02-19,2026-02-19,株式会社ＶＩＭＯＳＯＦＴ,,株式会社,東京都,港区,虎ノ門２丁目２番３号アルセアタワー３階,,13,103,1050001,,,,,,,2026-02-19,1,,,,,ヴィモソフト,0
791,4010403037361,新規,0,2026-02-19,2026-02-19,合同会社スタジオたんたん,,合同会社,東京都,港区,高輪２丁目２１番２号ＴｈｅＬｉｎｋＰｉｌｌａｒ１Ｓｏｕｔｈ９Ｆ,,13,103,1080074,,,,,,,2026-02-19,1,,,,,スタジオタンタン,0
792,4010405025397,新規,0,2026-02-19,2026-02-19,ＣＡＬＶ一般社団法人,,その他の設立登記法人,東京都,港区,六本木１丁目９番１０号アークヒルズ仙石山森タワー４０階,,13,103,1060032,,,,,,,2026-02-19,1,,,,,シーエーエルヴィー,0
801,4010503008188,新規,0,2026-02-19,2026-02-19,二本松コンサルティング合同会社,,合同会社,東京都,台東区,東上野５丁目１８番１ー３０４号,,13,106,1100015,,,,,,,2026-02-19,1,,,,,ニホンマツコンサルティング,0
811,4010901058999,新規,0,2026-02-19,2026-02-19,株式会社イデア,,株式会社,東京都,世田谷区,松原３丁目３０番１０号２階,,13,112,1560043,,,,,,,2026-02-19,1,,,,,イデア,0
816,4011001175512,新規,0,2026-02-19,2026-02-19,Ｒｉ‐Ｎｎ株式会社,,株式会社,東京都,渋谷区,道玄坂１丁目１０番８号渋谷道玄坂東急ビル２Ｆ－Ｃ,,13,113,1500043,,,,,,,2026-02-19,1,,,,,リン,0
818,4011005011382,新規,0,2026-02-19,2026-02-19,一般社団法人ＣＨソーラー,,その他の設立登記法人,東京都,渋谷区,千駄ヶ谷３丁目１１番８号,,13,113,1510051,,,,,,,2026-02-19,1,,,,,シーエイチソーラー,0
827,4011103017001,新規,0,2026-02-19,2026-02-19,スパークル合同会社,,合同会社,東京都,新宿区,新宿６丁目２４－２２リレント新宿７０３号,,13,104,1600022,,,,,,,2026-02-19,1,,,,,スパークル,0
831,4011303005870,新規,0,2026-02-19,2026-02-19,ブルーポイント合同会社,,合同会社,東京都,杉並区,下高井戸１丁目３番２号ＧｒａｎＦａｍｉｌｉａｗｅｓｔ３０１,,13,115,1680073,,,,,,,2026-02-19,1,,,,,ブルーポイント,0
838,4011701029182,新規,0,2026-02-19,2026-02-19,株式会社アクトリエ,,株式会社,東京都,江戸川区,一之江４丁目１０番１５号,,13,123,1320024,,,,,,,2026-02-19,1,,,,,アクトリエ,0
849,4020001167238,新規,0,2026-02-19,2026-02-19,株式会社椿,,株式会社,神奈川県,横浜市戸塚区,汲沢３丁目３１－５－１０１,,14,110,2450061,,,,,,,2026-02-19,1,,,,,ツバキ,0
850,4020001167246,新規,0,2026-02-19,2026-02-19,相原グループ株式会社,,株式会社,神奈川県,横浜市都筑区,茅ケ崎中央２３番１６号メイフェアミュゼ２Ｆ,,14,118,2240032,,,,,,,2026-02-19,1,,,,,アイハラグループ,0
867,4030001171081,新規,0,2026-02-19,2026-02-19,鐵三角科技管理株式会社,,株式会社,埼玉県,さいたま市南区,大字広ヶ谷戸５７番地７,,11,108,3360041,,,,,,,2026-02-19,1,,,,,テツサンカクカギカンリ,0
879,4040001142511,新規,0,2026-02-19,2026-02-19,大有ホールディングス株式会社,,株式会社,千葉県,千葉市美浜区,新港１３,,12,106,2610002,,,,,,,2026-02-19,1,,,,,タイユウホールディングス,0
880,4040001142528,新規,0,2026-02-19,2026-02-19,株式会社エリシュオン,,株式会社,千葉県,柏市,柏１２７７番地２７,,12,217,2770005,,,,,,,2026-02-19,1,,,,,エリシュオン,0
881,4040001142536,新規,0,2026-02-19,2026-02-19,株式会社加藤溶工,,株式会社,千葉県,市原市,山木１２９番地２,,12,219,2900005,,,,,,,2026-02-19,1,,,,,カトウヨウコウ,0
886,4040003029500,新規,0,2026-02-19,2026-02-19,合同会社ＮＩＣＯ．ＰＬＡＣＥ,,合同会社,千葉県,茂原市,墨田４８２番地７,,12,210,2970053,,,,,,,2026-02-19,1,,,,,ニコプレイス,0
892,4060001039020,新規,0,2026-02-19,2026-02-19,株式会社ＷＷＳ栃木,,株式会社,栃木県,日光市,猪倉６９２番地,,09,206,3212344,,,,,,,2026-02-19,1,,,,,ダブリューダブリューエストチギ,0
894,4060005010415,新規,0,2026-02-19,2026-02-19,農事組合法人芳賀の大地,,その他の設立登記法人,栃木県,芳賀郡茂木町,大字茂木６６８番地１,,09,343,3213531,,,,,,,2026-02-19,1,,,,,ハガノダイチ,0
897,4080003003658,新規,0,2026-02-19,2026-02-19,合同会社ＬＡＭＰ,,合同会社,静岡県,焼津市,西焼津２番地の６,,22,212,4250075,,,,,,,2026-02-19,1,,,,,ランプ,0
899,4080401028455,新規,0,2026-02-19,2026-02-19,リンクホールディングス株式会社,,株式会社,静岡県,浜松市中央区,東三方町２２８番地の１,,22,138,4338104,,,,,,,2026-02-19,1,,,,,リンクホールディングス,0
903,4080405007802,新規,0,2026-02-19,2026-02-19,特定非営利活動法人ユース・アスリート１０１,,その他の設立登記法人,静岡県,浜松市中央区,有玉西町２１３５番地の１９,,22,138,4313123,,,,,,,2026-02-19,1,,,,,ユースアスリートワンオーワン,0
906,4110001039907,新規,0,2026-02-19,2026-02-19,株式会社ＩＳ,,株式会社,新潟県,新潟市中央区,上大川前通１０番町１９１０番地ハイツプランタン１０１号室,,15,103,9518068,,,,,,,2026-02-19,1,,,,,アイエス,0
916,4120001284262,新規,0,2026-02-19,2026-02-19,株式会社ＫＩＪ　Ｇｒｏｕｐ,,株式会社,大阪府,大阪市中央区,南船場３丁目２番２２号おおきに南船場ビル２０５,,27,128,5420081,,,,,,,2026-02-19,1,,,,,ケーアイジェイグループ,0
921,4120101073219,新規,0,2026-02-19,2026-02-19,株式会社Ｌｉｆｅ　Ｓｔｙｌｅ,,株式会社,大阪府,泉南郡熊取町,希望が丘２丁目４番２４号,,27,361,5900422,,,,,,,2026-02-19,1,,,,,ライフスタイル,0
926,4120901052248,新規,0,2026-02-19,2026-02-19,株式会社Ｓ　ＬＩＮＫ,,株式会社,大阪府,豊中市,三和町３丁目１０番２３号,,27,203,5610828,,,,,,,2026-02-19,1,,,,,エスリンク,0
927,4120905006852,新規,0,2026-02-19,2026-02-19,一般社団法人Ｌｉｆ,,その他の設立登記法人,大阪府,高槻市,大塚町３丁目１５番６号,,27,207,5690034,,,,,,,2026-02-19,1,,,,,リフ,0
930,4130001081650,新規,0,2026-02-19,2026-02-19,ＯＮＥ株式会社,,株式会社,京都府,京都市伏見区,深草瓦町５０レトア藤森１０２,,26,109,6120873,,,,,,,2026-02-19,1,,,,,ワン,0
936,4140001141783,新規,0,2026-02-19,2026-02-19,株式会社リリーティエラ,,株式会社,兵庫県,西宮市,和上町８番１７－１００１号,,28,204,6620971,,,,,,,2026-02-19,1,,,,,リリーティエラ,0
937,4140001141791,新規,0,2026-02-19,2026-02-19,株式会社ミライ,,株式会社,兵庫県,神戸市東灘区,魚崎西町３丁目４番２７号,,28,101,6580026,,,,,,,2026-02-19,1,,,,,ミライ,0
938,4140001141800,新規,0,2026-02-19,2026-02-19,株式会社こたっくす,,株式会社,兵庫県,芦屋市,伊勢町３番１９－３号,,28,206,6590052,,,,,,,2026-02-19,1,,,,,コタックス,0
942,4140003023220,新規,0,2026-02-19,2026-02-19,合同会社ＹＯＬＯ　Ｓｍｉｌｅ,,合同会社,兵庫県,神戸市兵庫区,下沢通７丁目２番２６－３０３号,,28,105,6520047,,,,,,,2026-02-19,1,,,,,ヨロスマイル,0
943,4150001028740,新規,0,2026-02-19,2026-02-19,株式会社北野工作所,,株式会社,奈良県,香芝市,五位堂２丁目５８０番地１,,29,210,6390226,,,,,,,2026-02-19,1,,,,,キタノコウサクショ,0
951,4180001170696,新規,0,2026-02-19,2026-02-19,株式会社ＲＹクリエイト,,株式会社,愛知県,豊明市,沓掛町陣田３８番１,,23,229,4701101,,,,,,,2026-02-19,1,,,,,アールワイクリエイト,0
968,4240003007601,新規,0,2026-02-19,2026-02-19,合同会社ｆｕｊｉ＆ｍｏｒｅ,,合同会社,広島県,広島市中区,大手町１丁目１番２０号相生橋ビル７階Ａ号室,,34,101,7300051,,,,,,,2026-02-19,1,,,,,フジアンドモア,0
982,4290001113066,新規,0,2026-02-19,2026-02-19,株式会社Ｐｌａｙｆｕｌ　Ｗｏｒｋ　Ｓｔｕｄｉｏ,,株式会社,福岡県,福岡市中央区,天神１丁目１１番１号７階,,40,133,8100001,,,,,,,2026-02-19,1,,,,,プレイフルワークスタジオ,0
996,4350001019950,新規,0,2026-02-19,2026-02-19,株式会社ＮＡＮＧＯＫＵ,,株式会社,宮崎県,都城市,志比田町５１７７番地１３,,45,202,8850093,,,,,,,2026-02-19,1,,,,,ナンゴク,0
998,4360001036391,新規,0,2026-02-19,2026-02-19,株式会社ひだまりサポート,,株式会社,沖縄県,那覇市,牧志２丁目１７－２７－４０１,,47,201,9000013,,,,,,,2026-02-19,1,,,,,ヒダマリサポート,0
999,4360001036400,新規,0,2026-02-19,2026-02-19,株式会社はるのリゾート観光開発,,株式会社,沖縄県,うるま市,みどり町５丁目１１番２０号,,47,213,9042215,,,,,,,2026-02-19,1,,,,,ハルノリゾートカンコウカイハツ,0
1000,4360003015625,新規,0,2026-02-19,2026-02-19,ＡＷＡＭＯＲＩ　ＷＡＹ合同会社,,合同会社,沖縄県,中頭郡西原町,上原１丁目２５番地の５,,47,329,9030125,,,,,,,2026-02-19,1,,,,,アワモリウェイ,0
1001,4360005007372,新規,0,2026-02-19,2026-02-19,一般社団法人ライフサイエンスボックス,,その他の設立登記法人,沖縄県,豊見城市,字与根５０番地２１３ルーツ・メディカルビル１３,,47,212,9010224,,,,,,,2026-02-19,1,,,,,ライフサイエンスボックス,0
1005,4370001053485,新規,0,2026-02-19,2026-02-19,株式会社蔵王川崎牧場,,株式会社,宮城県,柴田郡川崎町,大字支倉字沼ノ橇８番地１,,04,324,9891507,,,,,,,2026-02-19,1,,,,,ザオウカワサキボクジョウ,0
1006,4380001035887,新規,0,2026-02-19,2026-02-19,株式会社五常ホールディングス,,株式会社,福島県,いわき市,内郷御厩町下宿１２３番地の１０,00142635,07,204,9738402,,,,,,,2026-02-19,1,,,,,ゴジョウホールディングス,0
1008,4400005008548,新規,0,2026-02-19,2026-02-19,医療法人社団優心会,,その他の設立登記法人,岩手県,滝沢市,土沢３１０番地１０２号,,03,216,0200638,,,,,,,2026-02-19,1,,,,,ユウシンカイ,0
1012,4440001009760,新規,0,2026-02-19,2026-02-19,株式会社テイクチャージ,,株式会社,北海道,函館市,柏木町２５番３０号,,01,202,0420942,,,,,,,2026-02-19,1,,,,,テイクチャージ,0
1013,4470001021102,新規,0,2026-02-19,2026-02-19,株式会社電気のチカラ,,株式会社,香川県,高松市,香川町大野２４８５－１,,37,201,7611701,,,,,,,2026-02-19,1,,,,,,0
1029,5010001262807,新規,0,2026-02-19,2026-02-19,株式会社ＩＫＩＺＡＭＡエンターテイメント,,株式会社,東京都,中央区,勝どき５丁目５番１４－１０２８号,,13,102,1040054,,,,,,,2026-02-19,1,,,,,イキザマエンターテイメント,0
1030,5010001262922,新規,0,2026-02-19,2026-02-19,株式会社スラッシュ,,株式会社,東京都,千代田区,平河町２丁目３番１９号５階,,13,101,1020093,,,,,,,2026-02-19,1,,,,,スラッシュ,0
1031,5010001262930,新規,0,2026-02-19,2026-02-19,株式会社ＯＣＥＡＮＺＥＲＯ,,株式会社,東京都,中央区,日本橋兜町１７－２兜町第６葉山ビル４Ｆ,,13,102,1030026,,,,,,,2026-02-19,1,,,,,オーシャンゼロ,0
1032,5010001262939,新規,0,2026-02-19,2026-02-19,株式会社Ｒｅｚｉｎ,,株式会社,東京都,中央区,銀座１丁目２２番１１号銀座大竹ビジデンス２階,,13,102,1040061,,,,,,,2026-02-19,1,,,,,リジン,0
1033,5010001262963,新規,0,2026-02-19,2026-02-19,ＩＣＴサポートパートナー株式会社,,株式会社,東京都,千代田区,神田神保町１丁目９番地ＫＯＡＬＡＢＬＤＧ６階,,13,101,1010051,,,,,,,2026-02-19,1,,,,,アイティシーサポートパートナー,0
1034,5010001263045,新規,0,2026-02-19,2026-02-19,株式会社ワインディングパートナーズ,,株式会社,東京都,中央区,勝どき３丁目７－５シティハウス勝どきステーションコート７０５,,13,102,1040054,,,,,,,2026-02-19,1,,,,,ワインディングパートナーズ,0
1036,5010003050400,新規,0,2026-02-19,2026-02-19,グローブ１合同会社,,合同会社,東京都,中央区,銀座１丁目６番１１号アースタックス税理士法人内,,13,102,1040061,,,,,,,2026-02-19,1,,,,,グローブワン,0
1045,5010401196480,新規,0,2026-02-19,2026-02-19,株式会社大納屋,,株式会社,東京都,港区,芝浦４丁目１０番１－４７０１号,,13,103,1080023,,,,,,,2026-02-19,1,,,,,オオナヤ,0
1046,5010401196547,新規,0,2026-02-19,2026-02-19,Ｍａｒｓｈａｌｌ　Ｅｎｔｅｒｐｒｉｓｅ株式会社,,株式会社,東京都,港区,赤坂２丁目２１番４号天翔赤坂ＡＮＮＥＸビル４階４０７－Ｉ号室,,13,103,1070052,,,,,,,2026-02-19,1,,,,,マーシャルエンタープライズ,0
1047,5010401196638,新規,0,2026-02-19,2026-02-19,株式会社Ｌｕｎａｒｉａ　Ｌｕｘｅ,,株式会社,東京都,港区,麻布永坂町１番地８９フォレセーヌ麻布永坂５０１,,13,103,1060043,,,,,,,2026-02-19,1,,,,,ルナリアリュクス,0
1048,5010401196670,新規,0,2026-02-19,2026-02-19,タケレーシング株式会社,,株式会社,東京都,港区,東麻布１丁目８番４－１７０３号,,13,103,1060044,,,,,,,2026-02-19,1,,,,,タケレーシング,0
1049,5010401196679,新規,0,2026-02-19,2026-02-19,株式会社六本木管理１５号,,株式会社,東京都,港区,六本木３丁目２番１号,,13,103,1060032,,,,,,,2026-02-19,1,,,,,ロッポンギカンリジュウゴゴウ,0
1050,5010401196729,新規,0,2026-02-19,2026-02-19,株式会社Ｄ‐ｓｉｄｅ,,株式会社,東京都,港区,芝大門１丁目１番３５号サンセルモ大門ビル,,13,103,1050012,,,,,,,2026-02-19,1,,,,,ディーサイド,0
1075,5010603012080,新規,0,2026-02-19,2026-02-19,青喜運輸合同会社,,合同会社,東京都,墨田区,立花１丁目２－１５,,13,107,1310043,,,,,,,2026-02-19,1,,,,,アオキウンユ,0
1082,5010901059022,新規,0,2026-02-19,2026-02-19,塩澤商会株式会社,,株式会社,東京都,世田谷区,上北沢４丁目１６番７号上北沢グリーンコーポ９０１,,13,112,1560057,,,,,,,2026-02-19,1,,,,,シオザワショウカイ,0
1095,5011101114815,新規,0,2026-02-19,2026-02-19,ＴＡＩ　ＴＡＩ株式会社,,株式会社,東京都,新宿区,西新宿６丁目５番１号新宿アイランドタワー２階アントレサロン西新宿,,13,104,1600023,,,,,,,2026-02-19,1,,,,,タイタイ,0
1102,5011301031273,新規,0,2026-02-19,2026-02-19,ＭｏｉＢｏｉ株式会社,,株式会社,東京都,杉並区,荻窪４丁目２番１５号サンハイム,,13,115,1670051,,,,,,,2026-02-19,1,,,,,モイボイ,0
1109,5011803007341,新規,0,2026-02-19,2026-02-19,合同会社忍者ＫＩＤＳ,,合同会社,東京都,足立区,西新井本町５丁目８番１５号,,13,121,1230845,,,,,,,2026-02-19,1,,,,,ニンジャキッズ,0
1114,5012803003999,新規,0,2026-02-19,2026-02-19,合同会社Ａ‐ＲＩＳ,,合同会社,東京都,立川市,錦町１丁目３番２１号ライオンビル立川館２階２０１号室,,13,202,1900022,,,,,,,2026-02-19,1,,,,,アーリズ,0
1116,5013301055764,新規,0,2026-02-19,2026-02-19,株式会社ＩＣＭジャパン,,株式会社,東京都,豊島区,池袋２丁目１７－８天翔オフィス池袋西口ＡＮＮＥＸビル２Ｆ,,13,116,1710014,,,,,,,2026-02-19,1,,,,,アイシーエムジャパン,0
1123,5020001167220,新規,0,2026-02-19,2026-02-19,裕隆株式会社,,株式会社,神奈川県,川崎市麻生区,万福寺２丁目１０番１号エンゼルハイデンス新百合ヶ丘３０１,,14,137,2150004,,,,,,,2026-02-19,1,,,,,ユタカ,0
1124,5020001167278,新規,0,2026-02-19,2026-02-19,株式会社ＣＯＳＭＯＳ,,株式会社,神奈川県,横浜市神奈川区,金港町７―３金港ビル７階,,14,102,2210056,,,,,,,2026-02-19,1,,,,,コスモス,0
1142,5030001171106,新規,0,2026-02-19,2026-02-19,株式会社直鋼,,株式会社,埼玉県,川口市,東川口６丁目２４番１４－４０２号オハナ東川口,,11,203,3330801,,,,,,,2026-02-19,1,,,,,ナオコウ,0
1149,5040001142493,新規,0,2026-02-19,2026-02-19,株式会社エムワン,,株式会社,千葉県,習志野市,秋津１丁目１番６－１０１号,,12,216,2750025,,,,,,,2026-02-19,1,,,,,エムワン,0
1150,5040001142519,新規,0,2026-02-19,2026-02-19,株式会社典樹,,株式会社,千葉県,船橋市,八木が谷２丁目３５番１１号,,12,204,2740802,,,,,,,2026-02-19,1,,,,,テンジュ,0
1153,5040002105508,新規,0,2026-02-19,2026-02-19,有限会社マツモト,,有限会社,千葉県,銚子市,新生町１丁目５４番地１０,,12,202,2880056,,,,,,,2026-02-19,1,,,,,マツモト,0
1156,5050001057996,新規,0,2026-02-19,2026-02-19,株式会社Ｒａｓｈｉｋｕ,,株式会社,茨城県,那珂市,後台２８９５番地１,,08,226,3110111,,,,,,,2026-02-19,1,,,,,ラシク,0
1158,5050003009954,新規,0,2026-02-19,2026-02-19,合同会社ＥＲＺ,,合同会社,茨城県,筑西市,下中山１１３９‐１,,08,227,3080825,,,,,,,2026-02-19,1,,,,,イーアールゼット,0
1165,5080103003532,新規,0,2026-02-19,2026-02-19,ＭｅｃｈａＣｒｅａｔｅｓ合同会社,,合同会社,静岡県,富士市,宮下９４―１４,,22,210,4160947,,,,,,,2026-02-19,1,,,,,メカクリエイツ,0
1166,5080403005451,新規,0,2026-02-19,2026-02-19,エス・エヌ企画合同会社,,合同会社,静岡県,浜松市中央区,北島町１１番地の４,,22,138,4350041,,,,,,,2026-02-19,1,,,,,エスエヌキカク,0
1168,5090001019745,新規,0,2026-02-19,2026-02-19,株式会社リンクス,,株式会社,山梨県,笛吹市,石和町市部７８９番地２５,,19,211,4060031,,,,,,,2026-02-19,1,,,,,リンクス,0
1169,5100001039353,新規,0,2026-02-19,2026-02-19,株式会社はぴさぽ,,株式会社,長野県,長野市,篠ノ井塩崎５７４１番地３,,20,201,3888014,,,,,,,2026-02-19,1,,,,,ハピサポ,0
1190,5120003031950,新規,0,2026-02-19,2026-02-19,合同会社アトリエＮａｇｏｍｉ,,合同会社,大阪府,枚方市,長尾西町２丁目５１番５号Ａ室,,27,210,5730162,,,,,,,2026-02-19,1,,,,,アトリエナゴミ,0
1192,5120901052247,新規,0,2026-02-19,2026-02-19,株式会社しょうない,,株式会社,大阪府,豊中市,庄内栄町１丁目９番１４号,,27,203,5610834,,,,,,,2026-02-19,1,,,,,ショウナイ,0
1194,5122003003467,新規,0,2026-02-19,2026-02-19,合同会社ＮＯＵＶＡＴＩＯＮ,,合同会社,大阪府,八尾市,福万寺町２丁目４３番地,,27,212,5810842,,,,,,,2026-02-19,1,,,,,ノーベーション,0
1197,5130003011167,新規,0,2026-02-19,2026-02-19,合同会社グレートクー,,合同会社,京都府,京都市左京区,一乗寺釈迦堂町１１番地,,26,103,6068141,,,,,,,2026-02-19,1,,,,,グレートクー,0
1202,5140003023194,新規,0,2026-02-19,2026-02-19,Ｋｉｎｄ合同会社,,合同会社,兵庫県,加古川市,平岡町新在家９４４番地の１エステイトＥ東加古川３０２号,,28,210,6750101,,,,,,,2026-02-19,1,,,,,カインド,0
1203,5140003023211,新規,0,2026-02-19,2026-02-19,合同会社ＹｕｉＴｅｃｈ,,合同会社,兵庫県,尼崎市,西昆陽３丁目３１番地１９号,,28,202,6610047,,,,,,,2026-02-19,1,,,,,ユイテック,0
1213,5180001170621,新規,0,2026-02-19,2026-02-19,ＡＤＶＡＮＣＥ　ＣＯＦＦＥＥ株式会社,,株式会社,愛知県,名古屋市中村区,向島町４丁目１６番地の１９,,23,105,4530838,,,,,,,2026-02-19,1,,,,,アドバンスコーヒー,0
1214,5180001170695,新規,0,2026-02-19,2026-02-19,ＮＥＸＴＧＡＭＥ株式会社,,株式会社,愛知県,名古屋市東区,泉２丁目１９－１１－１－９０３,,23,102,4610001,,,,,,,2026-02-19,1,,,,,ネクストゲーム,0
1215,5180001170720,新規,0,2026-02-19,2026-02-19,優ＡＩファクトリー株式会社,,株式会社,愛知県,名古屋市守山区,高島町２２番地ヴィヴレ高島Ａ,,23,113,4630095,,,,,,,2026-02-19,1,,,,,ユウアイファクトリー,0
1216,5180001170745,新規,0,2026-02-19,2026-02-19,株式会社緑々,,株式会社,愛知県,名古屋市千種区,宮根台１丁目３番３号香流橋ハイツ１０７号,,23,101,4640008,,,,,,,2026-02-19,1,,,,,グリーングリーン,0
1217,5180001170753,新規,0,2026-02-19,2026-02-19,ＯＪＫ株式会社,,株式会社,愛知県,名古屋市中川区,花塚町１丁目３１番地（ジュネスＹ１０１号）,00142634,23,110,4540052,,,,,,,2026-02-19,1,,,,,オージェーケー,0
1218,5180001170761,新規,0,2026-02-19,2026-02-19,株式会社ＳＧ　ＣＯＮＮＥＣＴ,,株式会社,愛知県,名古屋市千種区,今池３丁目３８番１号,,23,101,4640850,,,,,,,2026-02-19,1,,,,,エスジーコネクト,0
1223,5180003029808,新規,0,2026-02-19,2026-02-19,合同会社オークデンタルパートナーズ,,合同会社,愛知県,知多市,巽が丘２丁目２０４番地,00142640,23,224,4780012,,,,,,,2026-02-19,1,,,,,オークデンタルパートナーズ,0
1224,5180005021432,新規,0,2026-02-19,2026-02-19,一般社団法人ＳＴＡＲＲＹ,,その他の設立登記法人,愛知県,東海市,富木島町伏見１丁目１１番地の５,,23,222,4760012,,,,,,,2026-02-19,1,,,,,スターリー,0
1226,5180301040706,新規,0,2026-02-19,2026-02-19,株式会社Ｇｒａｃｅ　ａｌｐｈａ,,株式会社,愛知県,岡崎市,戸崎町字牛転２番地１１７ドミール光ケ丘２０２,,23,202,4440840,,,,,,,2026-02-19,1,,,,,グレイスアルファ,0
1228,5180303006894,新規,0,2026-02-19,2026-02-19,合同会社オオパワ,,合同会社,愛知県,額田郡幸田町,大字大草字松山５８番地１（１０６号室）,,23,501,4440103,,,,,,,2026-02-19,1,,,,,オオパワ,0
1235,5200003007232,新規,0,2026-02-19,2026-02-19,ＫＯＭアセットマネジメント合同会社,,合同会社,岐阜県,飛騨市,古川町金森町１３‐１６,,21,217,5094225,,,,,,,2026-02-19,1,,,,,コムアセットマネジメント,0
1236,5210001020500,新規,0,2026-02-19,2026-02-19,株式会社ＳＣＦ技研,,株式会社,福井県,福井市,文京３丁目９番１号,,18,201,9100017,,,,,,,2026-02-19,1,,,,,エスシーエフギケン,0
1245,5240003007609,新規,0,2026-02-19,2026-02-19,Ｊ‐ＭｅｄＮｅｘｕｓ合同会社,,合同会社,広島県,広島市南区,皆実町１丁目１３番１８号,,34,103,7340007,,,,,,,2026-02-19,1,,,,,ジェイメッドネクサス,0
1255,5260001040997,新規,0,2026-02-19,2026-02-19,株式会社ｔｅｎｔｅｎテラス,,株式会社,岡山県,総社市,総社１丁目８‐１４,,33,208,7191126,,,,,,,2026-02-19,1,,,,,テンテンテラス,0
1269,5290001113189,新規,0,2026-02-19,2026-02-19,株式会社Ｙ’ｓ　Ｐｒｏｍｏｔｉｏｎ,,株式会社,福岡県,久留米市,高良内町６１－５,,40,203,8390852,,,,,,,2026-02-19,1,,,,,ワイズプロモーション,0
1270,5290001113197,新規,0,2026-02-19,2026-02-19,ＩｔｏＳｔａｒ株式会社,,株式会社,福岡県,糸島市,泊７６５番地２階,,40,230,8191111,,,,,,,2026-02-19,1,,,,,イトスター,0
1272,5290801032258,新規,0,2026-02-19,2026-02-19,１０ＦＬＯＷ株式会社,,株式会社,福岡県,北九州市小倉北区,重住３丁目８－１ＡＩＭビル６階,,40,106,8020011,,,,,,,2026-02-19,1,,,,,テンフロー,0
1274,5300005007294,新規,0,2026-02-19,2026-02-19,一般社団法人エテルナリノ,,その他の設立登記法人,佐賀県,佐賀市,大和町大字尼寺６６９番地１２,,41,201,8400201,,,,,,,2026-02-19,1,,,,,エテルナリノ,0
1279,5340001027986,新規,0,2026-02-19,2026-02-19,株式会社樹,,株式会社,鹿児島県,鹿児島市,中央町３３番１号ＴＭｃｏｒｔ白陽１階,,46,201,8900053,,,,,,,2026-02-19,1,,,,,イツキ,0
1288,5370001053492,新規,0,2026-02-19,2026-02-19,株式会社ＮＳＯ,,株式会社,宮城県,仙台市青葉区,中央２丁目１１‐１９仙南ビル４階‐Ａ,,04,101,9800021,,,,,,,2026-02-19,1,,,,,エヌエスオー,0
1291,5400001017329,新規,0,2026-02-19,2026-02-19,株式会社ここまる,,株式会社,岩手県,花巻市,石鳥谷町八幡第４地割１０６番地１,,03,205,0283163,,,,,,,2026-02-19,1,,,,,ココマル,0
1294,5430001096295,新規,0,2026-02-19,2026-02-19,Ｋｎｏｔ　Ｂｒｉｄｇｅ株式会社,,株式会社,北海道,札幌市中央区,大通東７丁目１２番地４８,,01,101,0600041,,,,,,,2026-02-19,1,,,,,ノットブリッジ,0
1295,5430001096304,新規,0,2026-02-19,2026-02-19,株式会社ファン不動産,,株式会社,北海道,札幌市中央区,南一条西１３丁目３１７番地２三誠ビル３Ｆ‐Ｅ,,01,101,0600061,,,,,,,2026-02-19,1,,,,,ファンフドウサン,0
1300,5450001014858,新規,0,2026-02-19,2026-02-19,株式会社ヨシダ酒場,,株式会社,北海道,雨竜郡北竜町,字西川３３番地５２,,01,437,0782516,,,,,,,2026-02-19,1,,,,,ヨシダサカバ,0
1301,5470001021101,新規,0,2026-02-19,2026-02-19,株式会社ＳＯＳＵ,,株式会社,香川県,高松市,古馬場町８番地３１光宗ビル２階,,37,201,7600045,,,,,,,2026-02-19,1,,,,,ソスウ,0
1303,5470005006684,新規,0,2026-02-19,2026-02-19,一般社団法人グリーンフィールド・ラボ,,その他の設立登記法人,香川県,高松市,松縄町４６番地１５,,37,201,7600079,,,,,,,2026-02-19,1,,,,,グリーンフィールドラボ,0
1308,5700150134563,新規,0,2026-02-19,2026-02-19,ＪＰ　ｂａｓｅ　Ｌｔｄ,,外国会社等,,,,,,,,イギリス領ヴァージン諸島、ＶＧ１１１０、トルトラ、ロードタウンウィッカムズケイＩＩ、ビストラコーポレートサービスセンタージェーピーベースリミテッド（ＪＰ　ｂａｓｅ　Ｌｔｄ，）,00142639,,,,,2026-02-19,1,,,,,ジエーピーベースリミテツド,0
1318,6010001263052,新規,0,2026-02-19,2026-02-19,株式会社ＰＯＹＰ,,株式会社,東京都,千代田区,六番町２－１９ＰＭＯ市ヶ谷５Ｆ,,13,101,1020085,,,,,,,2026-02-19,1,,,,,ポイプ,0
1320,6010003050291,新規,0,2026-02-19,2026-02-19,ＰｏＣｈｕ合同会社,,合同会社,東京都,中央区,銀座１丁目１２番４号Ｎ＆ＥＢＬＤ．６Ｆ,,13,102,1040061,,,,,,,2026-02-19,1,,,,,ポチュ,0
1321,6010003050382,新規,0,2026-02-19,2026-02-19,合同会社日暮里ＰＧ,,合同会社,東京都,中央区,日本橋箱崎町１６－１東益ビル６階,,13,102,1030015,,,,,,,2026-02-19,1,,,,,ニッポリピージー,0
1322,6010003050440,新規,0,2026-02-19,2026-02-19,共立コンサルティング合同会社,,合同会社,東京都,中央区,銀座１丁目１２番４号Ｎ＆ＥＢＬＤ．６Ｆ,,13,102,1040061,,,,,,,2026-02-19,1,,,,,キョウリツコンサルティング,0
1323,6010003050449,新規,0,2026-02-19,2026-02-19,クレドソルプロジェクト合同会社,,合同会社,東京都,中央区,勝どき１丁目８番１－１９０８号,,13,102,1040054,,,,,,,2026-02-19,1,,,,,クレドソルプロジェクト,0
1324,6010003050457,新規,0,2026-02-19,2026-02-19,合同会社日本橋会計,,合同会社,東京都,中央区,日本橋兜町１７番１号日本橋ロイヤルプラザ７０６,,13,102,1030026,,,,,,,2026-02-19,1,,,,,ニホンバシカイケイ,0
1325,6010003050473,新規,0,2026-02-19,2026-02-19,エスティ２２合同会社,,合同会社,東京都,千代田区,丸の内１丁目４番１号東京共同会計事務所内,,13,101,1000005,,,,,,,2026-02-19,1,,,,,エスティニジュウニ,0
1336,6010401196356,新規,0,2026-02-19,2026-02-19,ＭＣＰ５０株式会社,,株式会社,東京都,港区,元赤坂１丁目１番７－１２０９号株式会社赤坂国際会計内,,13,103,1070051,,,,,,,2026-02-19,1,,,,,エムシーピーファイブゼロ,0
1337,6010401196637,新規,0,2026-02-19,2026-02-19,ＡＷＡＲＥＸ株式会社,,株式会社,東京都,港区,新橋４丁目２６番４号愛場新橋タワー４階,,13,103,1050004,,,,,,,2026-02-19,1,,,,,アウエレックス,0
1338,6010401196678,新規,0,2026-02-19,2026-02-19,株式会社ドルフィン・バリュー・アップ１９号,,株式会社,東京都,港区,赤坂２丁目４番６号赤坂グリーンクロス２１階,,13,103,1070052,,,,,,,2026-02-19,1,,,,,ドルフィンバリューアップジュウキュウゴウ,0
1339,6010401196769,新規,0,2026-02-19,2026-02-19,株式会社ＬＵＭＯＳ,,株式会社,東京都,港区,北青山１丁目３番１号アルキューブ青山３階,,13,103,1070061,,,,,,,2026-02-19,1,,,,,ルーモス,0
1351,6010403037384,新規,0,2026-02-19,2026-02-19,レジデンシャル６合同会社,,合同会社,東京都,港区,六本木１丁目９番１０号アークヒルズ仙石山森タワー４０階,,13,103,1060032,,,,,,,2026-02-19,1,,,,,レジデンシャルシックス,0
1352,6010405025321,新規,0,2026-02-19,2026-02-19,一般社団法人ＮＭＷＡ日本委員会,,その他の設立登記法人,東京都,港区,浜松町２丁目２番１５号２Ｆ,,13,103,1050013,,,,,,,2026-02-19,1,,,,,ニムワニホンイインカイ,0
1354,6010503008186,新規,0,2026-02-19,2026-02-19,合同会社ｏＺ‐ｇｒｏｕｐ,,合同会社,東京都,台東区,東上野５丁目４番１５－７０３号,,13,106,1100015,,,,,,,2026-02-19,1,,,,,オズグループ,0
1359,6010703008135,新規,0,2026-02-19,2026-02-19,ｆ３合同会社,,合同会社,東京都,品川区,西五反田５丁目３２－７ジニア不動前１０６,,13,109,1410031,,,,,,,2026-02-19,1,,,,,エフスリー,0
1361,6010801037052,新規,0,2026-02-19,2026-02-19,ＣＲＯＳＳ　ＴＥＣ株式会社,,株式会社,東京都,大田区,大森本町１丁目６番２号大森パーク・ホームズベイサイドコート１１０３,,13,111,1430011,,,,,,,2026-02-19,1,,,,,クロステック,0
1366,6010901058997,新規,0,2026-02-19,2026-02-19,株式会社Ｓｕｎ　Ｂｕｄｄｉｅｓ,,株式会社,東京都,世田谷区,玉川３丁目２０番２号マノア玉川第３ビル５０１号室,,13,112,1580094,,,,,,,2026-02-19,1,,,,,サンバディーズ,0
1377,6011001175535,新規,0,2026-02-19,2026-02-19,ａｎｉｍａ　ｃａｐｉｔａｌ株式会社,,株式会社,東京都,渋谷区,初台１丁目９番３号,,13,113,1510061,,,,,,,2026-02-19,1,,,,,アニマキャピタル,0
1384,6011101114814,新規,0,2026-02-19,2026-02-19,株式会社トライサット・コンステレーション,,株式会社,東京都,新宿区,市谷田町３丁目８番地市ヶ谷科学技術イノベーションセンタービル５階,,13,104,1620843,,,,,,,2026-02-19,1,,,,,トライサットコンステレーション,0
1385,6011103017016,新規,0,2026-02-19,2026-02-19,合同会社ＲｉＮ,,合同会社,東京都,新宿区,新宿１丁目３６－２新宿第七葉山ビル３Ｆ,,13,104,1600022,,,,,,,2026-02-19,1,,,,,リン,0
1387,6011501033102,新規,0,2026-02-19,2026-02-19,株式会社Ｗｏｎｄｅｒｗａｌｌ,,株式会社,東京都,荒川区,荒川５丁目１－１１－１４０３,,13,118,1160002,,,,,,,2026-02-19,1,,,,,ワンダーウォール,0
1392,6011801047454,新規,0,2026-02-19,2026-02-19,ファインベスト株式会社,,株式会社,東京都,足立区,竹の塚６丁目１８番１号,,13,121,1210813,,,,,,,2026-02-19,1,,,,,ファインベスト,0
1415,6030003028674,新規,0,2026-02-19,2026-02-19,合同会社久遠,,合同会社,埼玉県,川口市,大字赤山９１３番地の２,,11,203,3330825,,,,,,,2026-02-19,1,,,,,クオン,0
1418,6040001142484,新規,0,2026-02-19,2026-02-19,ｐｉｎｏ＆ｃｏ株式会社,,株式会社,千葉県,浦安市,富士見４丁目１６－２８パセオ舞浜イースト１０４,,12,227,2790043,,,,,,,2026-02-19,1,,,,,ピノアンドコー,0
1439,6080405007800,新規,0,2026-02-19,2026-02-19,一般社団法人城下社中,,その他の設立登記法人,静岡県,周智郡森町,城下３６９番地２,,22,461,4370211,,,,,,,2026-02-19,1,,,,,シロシタシャチュウ,0
1443,6110001039905,新規,0,2026-02-19,2026-02-19,ｘｔａｌ株式会社,,株式会社,新潟県,長岡市,大手通２丁目２－６,,15,202,9400062,,,,,,,2026-02-19,1,,,,,クリスタル,0
1453,6120001284211,新規,0,2026-02-19,2026-02-19,株式会社ＯＨＯＴＯＲＯ,,株式会社,大阪府,大阪市西区,南堀江１丁目２２番２０号,,27,106,5500015,,,,,,,2026-02-19,1,,,,,オオトロ,0
1454,6120001284343,新規,0,2026-02-19,2026-02-19,株式会社Ａｓａｎｔｅ　Ｈｏｍｅ,,株式会社,大阪府,枚方市,山之上西町２７番４０号,,27,210,5730048,,,,,,,2026-02-19,1,,,,,アサンテホーム,0
1462,6120005025421,新規,0,2026-02-19,2026-02-19,一般社団法人南條会,,その他の設立登記法人,大阪府,大阪市城東区,中央２丁目１０番１９号プライブ城東中央６階６０６,,27,118,5360005,,,,,,,2026-02-19,1,,,,,ナンジョウカイ,0
1466,6120901052246,新規,0,2026-02-19,2026-02-19,株式会社なかのビジネスサポート,,株式会社,大阪府,豊中市,玉井町２丁目１－１４,,27,203,5600026,,,,,,,2026-02-19,1,,,,,ナカノビジネスサポート,0
1473,6130003011166,新規,0,2026-02-19,2026-02-19,合同会社ｕｉｌ,,合同会社,京都府,京都市上京区,河原町通東入る宮垣町９１番地１０２,,26,102,6020000,,,,,,,2026-02-19,1,,,,,アウル,0
1481,6160003003722,新規,0,2026-02-19,2026-02-19,合同会社西蓮庵,,合同会社,滋賀県,大津市,大萱５丁目３４－９,,25,201,5202144,,,,,,,2026-02-19,1,,,,,サイレンアン,0
1482,6160005011483,新規,0,2026-02-19,2026-02-19,一般社団法人Ｓｈｉｆｔｙ,,その他の設立登記法人,滋賀県,大津市,松本１丁目８番１４号,,25,201,5200807,,,,,,,2026-02-19,1,,,,,シフティ,0
1490,6180001170711,新規,0,2026-02-19,2026-02-19,株式会社ＱＯＬ　ＳＴＯＮＥ,,株式会社,愛知県,あま市,西今宿平割一２２番地,,23,237,4901104,,,,,,,2026-02-19,1,,,,,クオールストーン,0
1491,6180001170728,新規,0,2026-02-19,2026-02-19,ＴＭＩ株式会社,,株式会社,愛知県,名古屋市千種区,丘上町１丁目２９番地の２,,23,101,4640837,,,,,,,2026-02-19,1,,,,,ティーエムアイ,0
1495,6180003029781,新規,0,2026-02-19,2026-02-19,合同会社ＭＩＡＹ,,合同会社,愛知県,一宮市,奥町字大切前７２番地２０,,23,203,4910201,,,,,,,2026-02-19,1,,,,,ミアイ,0
1497,6190001032919,新規,0,2026-02-19,2026-02-19,株式会社リアル,,株式会社,三重県,松阪市,殿町１３５０番地２１,,24,204,5150073,,,,,,,2026-02-19,1,,,,,リアル,0
1506,6210003002009,新規,0,2026-02-19,2026-02-19,合同会社立生,,合同会社,福井県,福井市,松本１丁目８番１１号,,18,201,9100003,,,,,,,2026-02-19,1,,,,,タツセイ,0
1510,6240001066184,新規,0,2026-02-19,2026-02-19,株式会社オカイン,,株式会社,広島県,広島市佐伯区,城山１丁目１３番６０号,,34,108,7315155,,,,,,,2026-02-19,1,,,,,オカイン,0
1519,6250003003911,新規,0,2026-02-19,2026-02-19,合同会社幸福,,合同会社,山口県,宇部市,明神町２丁目９番２７号,,35,202,7550008,,,,,,,2026-02-19,1,,,,,コウフク,0
1521,6260001040996,新規,0,2026-02-19,2026-02-19,株式会社ＭＹＭ,,株式会社,岡山県,岡山市北区,平和町６－８平和町クラスＡ号室,,33,101,7000827,,,,,,,2026-02-19,1,,,,,エムワイエム,0
1535,6290003018014,新規,0,2026-02-19,2026-02-19,合同会社七生,,合同会社,福岡県,糟屋郡須惠町,大字旅石２５３－１９９,,40,344,8112221,,,,,,,2026-02-19,1,,,,,ナナオ,0
1536,6290801032257,新規,0,2026-02-19,2026-02-19,株式会社好機,,株式会社,福岡県,北九州市八幡西区,永犬丸２丁目２２番８号,,40,109,8070851,,,,,,,2026-02-19,1,,,,,コウキ,0
1538,6320003004910,新規,0,2026-02-19,2026-02-19,合同会社ＳＨＡＲＥ,,合同会社,大分県,大分市,中央町３丁目５番１６号,,44,201,8700035,,,,,,,2026-02-19,1,,,,,シェア,0
1541,6330003011443,新規,0,2026-02-19,2026-02-19,合同会社マリアム・トレーディング,,合同会社,熊本県,熊本市中央区,黒髪６丁目１３番２３－２３銀星荘１０３号,,43,101,8600862,,,,,,,2026-02-19,1,,,,,マリアムトレーディング,0
1544,6360001036398,新規,0,2026-02-19,2026-02-19,株式会社３８ｓｏｉｌ,,株式会社,沖縄県,那覇市,首里平良町１丁目２３－９,,47,201,9030803,,,,,,,2026-02-19,1,,,,,サンパチソイル,0
1556,6470005006683,新規,0,2026-02-19,2026-02-19,医療法人社団池尻歯科医院,,その他の設立登記法人,香川県,高松市,檀紙町紙漉２２８８番地３,,37,201,7618041,,,,,,,2026-02-19,1,,,,,,0
1558,6700150134562,新規,0,2026-02-19,2026-02-19,ＤＯＵＢＬＥ　ＨＥＬＩＸ　ＣＡＴＡＬＹＳＴ　ＩＮＶＥＳＴＭＥＮＴＳ　ＬＬＣ,,外国会社等,,,,,,,,アメリカ合衆国テキサス州コンロー、リバーポイントドライブ６００，スイート２００,,,,,,2026-02-19,1,,,,,ダブルヘリツクスカタリストインベストメンツエルエルシー,0
1572,7010001262425,新規,0,2026-02-19,2026-02-19,株式会社ＨＣＮ　Ｔｅｃｈ,,株式会社,東京都,中央区,銀座１丁目２２番１１号銀座大竹ビジデンス２Ｆ,,13,102,1040061,,,,,,,2026-02-19,1,,,,,エイチシーエヌテック,0
1573,7010001262788,新規,0,2026-02-19,2026-02-19,株式会社ｅｘｏｄｕｓ,,株式会社,東京都,千代田区,神田佐久間町１丁目１６－１大橋ビル５０３,,13,101,1010025,,,,,,,2026-02-19,1,,,,,エクソダス,0
1574,7010001262895,新規,0,2026-02-19,2026-02-19,株式会社大山会計,,株式会社,東京都,文京区,関口３丁目５－２－２０１,,13,105,1120014,,,,,,,2026-02-19,1,,,,,オオヤマカイケイ,0
1575,7010001262978,新規,0,2026-02-19,2026-02-19,高測日本株式会社,,株式会社,東京都,千代田区,丸の内２丁目２番１号,,13,101,1000005,,,,,,,2026-02-19,1,,,,,コウソクニホン,0
1576,7010001263010,新規,0,2026-02-19,2026-02-19,ハラール物産株式会社,,株式会社,東京都,中央区,銀座３丁目９番１９号吉澤ビル７Ｆ,,13,102,1040061,,,,,,,2026-02-19,1,,,,,ハラールブッサン,0
1580,7010003050381,新規,0,2026-02-19,2026-02-19,合同会社鶯谷ＰＧ,,合同会社,東京都,中央区,日本橋箱崎町１６－１東益ビル６階,,13,102,1030015,,,,,,,2026-02-19,1,,,,,ウグイスダニピージー,0
1581,7010003050472,新規,0,2026-02-19,2026-02-19,本町三丁目ホテル合同会社,,合同会社,東京都,千代田区,丸の内１丁目４番１号東京共同会計事務所内,,13,101,1000005,,,,,,,2026-02-19,1,,,,,ホンマチサンチョウメホテル,0
1590,7010401196355,新規,0,2026-02-19,2026-02-19,ＭＣＰ４９株式会社,,株式会社,東京都,港区,元赤坂１丁目１番７－１２０９号株式会社赤坂国際会計内,,13,103,1070051,,,,,,,2026-02-19,1,,,,,エムシーピーフォーナイン,0
1591,7010401196636,新規,0,2026-02-19,2026-02-19,ＣＶＲホールディングス株式会社,,株式会社,東京都,港区,西新橋１丁目１番１号,,13,103,1050003,,,,,,,2026-02-19,1,,,,,シイブイアールホールディングス,0
1592,7010401196669,新規,0,2026-02-19,2026-02-19,株式会社ザイマックスリンクス,,株式会社,東京都,港区,赤坂１丁目１番１号,,13,103,1070052,,,,,,,2026-02-19,1,,,,,ザイマックスリンクス,0
1606,7010403037334,新規,0,2026-02-19,2026-02-19,エーシーロジ幸手合同会社,,合同会社,東京都,港区,虎ノ門５丁目１番４号,,13,103,1050001,,,,,,,2026-02-19,1,,,,,エーシーロジサッテ,0
1607,7010403037359,新規,0,2026-02-19,2026-02-19,合同会社ヘヴィー・メンタル・アーティスツ,,合同会社,東京都,港区,赤坂６丁目１０番３９号,,13,103,1070052,,,,,,,2026-02-19,1,,,,,ヘヴィーメンタルアーティスツ,0
1608,7010403037367,新規,0,2026-02-19,2026-02-19,合同会社エネドムス,,合同会社,東京都,港区,西麻布３丁目４番１－３０５号,,13,103,1060031,,,,,,,2026-02-19,1,,,,,エネドムス,0
1610,7010405025312,新規,0,2026-02-19,2026-02-19,一般社団法人東方アート,,その他の設立登記法人,東京都,港区,赤坂９丁目１番７－５８０号,,13,103,1070052,,,,,,,2026-02-19,1,,,,,トウホウ,0
1612,7010501055477,新規,0,2026-02-19,2026-02-19,ボライトテック株式会社,,株式会社,東京都,台東区,松が谷１丁目４番６－５０２号ライオンズマンション上野松が谷５０２９,,13,106,1110036,,,,,,,2026-02-19,1,,,,,ボライトテック,0
1614,7010503008185,新規,0,2026-02-19,2026-02-19,Ｍｙ　Ｊａｐａｎ　Ｐｌａｎｎｅｒ合同会社,,合同会社,東京都,台東区,浅草１丁目１３番５号Ｃ４７,,13,106,1110032,,,,,,,2026-02-19,1,,,,,マイジャパンプランナー,0
1621,7010603012087,新規,0,2026-02-19,2026-02-19,東陽観光合同会社,,合同会社,東京都,江東区,東陽３丁目２２番５号渡辺ビル３０２,,13,108,1350016,,,,,,,2026-02-19,1,,,,,トウヨウカンコウ,0
1624,7010605004553,新規,0,2026-02-19,2026-02-19,一般社団法人ＴａｂｉＧａｋｕ,,その他の設立登記法人,東京都,墨田区,両国３丁目９番６－５０３号,,13,107,1300026,,,,,,,2026-02-19,1,,,,,タビガク,0
1625,7010801037068,新規,0,2026-02-19,2026-02-19,東邦地所株式会社,,株式会社,東京都,大田区,南蒲田２丁目４番１５号,,13,111,1440035,,,,,,,2026-02-19,1,,,,,トウホウジショ,0
1626,7010901058996,新規,0,2026-02-19,2026-02-19,株式会社ＢＲＩＬＬＡＮＴＥ,,株式会社,東京都,世田谷区,砧６丁目２６－１,,13,112,1570073,,,,,,,2026-02-19,1,,,,,ブリランテ,0
1629,7011001175492,新規,0,2026-02-19,2026-02-19,ラダーフロー株式会社,,株式会社,東京都,渋谷区,円山町５番３号ＭＩＥＵＸ渋谷ビル８階,,13,113,1500044,,,,,,,2026-02-19,1,,,,,ラダーフロー,0
1630,7011001175708,新規,0,2026-02-19,2026-02-19,株式会社ＡＩ　Ｆｉｌｍ　Ｊａｐａｎ,,株式会社,東京都,目黒区,下目黒４丁目２０番３３号北浜Ｂ１０２,,13,110,1530064,,,,,,,2026-02-19,1,,,,,エーアイフィルムジャパン,0
1633,7011003023666,新規,0,2026-02-19,2026-02-19,合同会社ライズ,,合同会社,東京都,渋谷区,道玄坂１丁目１０番８号渋谷道玄坂東急ビル２Ｆ－Ｃ,,13,113,1500043,,,,,,,2026-02-19,1,,,,,ライズ,0
1634,7011003023708,新規,0,2026-02-19,2026-02-19,ＨＫ合同会社,,合同会社,東京都,渋谷区,円山町５番３号ＭＩＥＵＸ渋谷ビル８階,,13,113,1500044,,,,,,,2026-02-19,1,,,,,エイチケイ,0
1639,7011103017007,新規,0,2026-02-19,2026-02-19,Ｔａｌｅｎｔｅｄ　Ｃｏｍｐａｎｙ　Ｌｉｍｉｔｅｄ合同会社,,合同会社,東京都,新宿区,新宿７丁目１２番１号,,13,104,1600022,,,,,,,2026-02-19,1,,,,,タレンティッドカンパニーリミテッド,0
1640,7011201026974,新規,0,2026-02-19,2026-02-19,株式会社ハートミー,,株式会社,東京都,中野区,若宮１丁目５８番１０号,,13,114,1650033,,,,,,,2026-02-19,1,,,,,ハートミー,0
1643,7011303005868,新規,0,2026-02-19,2026-02-19,合同会社Ｔｗｏ　Ｍｏｎｏｌｏｇｕｅ,,合同会社,東京都,杉並区,方南１丁目３１番２号,,13,115,1680062,,,,,,,2026-02-19,1,,,,,トゥーモノローグ,0
1650,7011603005015,新規,0,2026-02-19,2026-02-19,合同会社ＥＲＲＡ,,合同会社,東京都,練馬区,富士見台１丁目２２－３２,,13,120,1770034,,,,,,,2026-02-19,1,,,,,エラ,0
1655,7011701029188,新規,0,2026-02-19,2026-02-19,株式会社Ｉ．Ｇ,,株式会社,東京都,江戸川区,小松川３丁目４－１－５０２,,13,123,1320034,,,,,,,2026-02-19,1,,,,,アイジー,0
1657,7012301014720,新規,0,2026-02-19,2026-02-19,株式会社ハーモニー・ラボ,,株式会社,東京都,町田市,能ヶ谷５丁目３８番５号,,13,209,1950053,,,,,,,2026-02-19,1,,,,,ハーモニーラボ,0
1658,7012401044147,新規,0,2026-02-19,2026-02-19,株式会社サークルアイ,,株式会社,東京都,三鷹市,下連雀３丁目３６番１－２４０１号,,13,204,1810013,,,,,,,2026-02-19,1,,,,,サークルアイ,0
1660,7012403007630,新規,0,2026-02-19,2026-02-19,合同会社ケアセンターいとう,,合同会社,東京都,小金井市,前原町５丁目１６番１１号,,13,210,1840013,,,,,,,2026-02-19,1,,,,,ケアセンターイトウ,0
1662,7012801024541,新規,0,2026-02-19,2026-02-19,高橋左官株式会社,00142633,株式会社,東京都,昭島市,福島町２丁目７番１７号ベルク玉川Ｃ棟,,13,207,1960031,,,,,,,2026-02-19,1,,,,,タカハシサカン,0
1663,7012803004005,新規,0,2026-02-19,2026-02-19,合同会社Ｔｕｔｔｏ　ｂｅｎｅ　Ｊａｐａｎ,,合同会社,東京都,国立市,東２丁目１２番地の２０,,13,215,1860002,,,,,,,2026-02-19,1,,,,,トゥットベーネジャパン,0
1667,7020001167251,新規,0,2026-02-19,2026-02-19,株式会社安東商事,,株式会社,神奈川県,横浜市中区,石川町５丁目２０９番地１１,,14,104,2310868,,,,,,,2026-02-19,1,,,,,アンドンショウジ,0
1668,7020003030432,新規,0,2026-02-19,2026-02-19,治商事合同会社,,合同会社,神奈川県,横浜市神奈川区,大口通１２７番地２１－１０１,,14,102,2210002,,,,,,,2026-02-19,1,,,,,オサムショウジ,0
1676,7030001171087,新規,0,2026-02-19,2026-02-19,ｕｌｕ株式会社,,株式会社,埼玉県,川口市,上青木４丁目３番７号,,11,203,3330844,,,,,,,2026-02-19,1,,,,,ウル,0
1681,7030003028673,新規,0,2026-02-19,2026-02-19,合同会社アンドリーニャ,,合同会社,埼玉県,鶴ヶ島市,脚折町５丁目１１番２３号,,11,241,3502211,,,,,,,2026-02-19,1,,,,,アンドリーニャ,0
1687,7040001142533,新規,0,2026-02-19,2026-02-19,株式会社ローチェジャパン,,株式会社,千葉県,八千代市,緑が丘３丁目１番地６,,12,221,2760049,,,,,,,2026-02-19,1,,,,,ローチェジャパン,0
1688,7040001142558,新規,0,2026-02-19,2026-02-19,株式会社Ａｍｉｌｉａ,,株式会社,千葉県,市原市,五井中央西１丁目３－１１ウイング五井１０２,,12,219,2900081,,,,,,,2026-02-19,1,,,,,アミリア,0
1690,7040003029472,新規,0,2026-02-19,2026-02-19,合同会社マクＢｅ,,合同会社,千葉県,千葉市花見川区,花園町１５７０－５,,12,102,2620021,,,,,,,2026-02-19,1,,,,,マクビー,0
1691,7040005023044,新規,0,2026-02-19,2026-02-19,一般社団法人究美会,,その他の設立登記法人,千葉県,千葉市美浜区,ひび野２丁目３番地アパホテルアンドリゾート東京ベイ幕張２階,,12,106,2610021,,,,,,,2026-02-19,1,,,,,キュウビカイ,0
1692,7040005023052,新規,0,2026-02-19,2026-02-19,特定非営利活動法人東京湾トレイル研究会,,その他の設立登記法人,千葉県,松戸市,小金原２丁目２番地の１２,,12,207,2700021,,,,,,,2026-02-19,1,,,,,トウキョウワントレイルケンキュウカイ,0
1697,7050001057986,新規,0,2026-02-19,2026-02-19,三栄株式会社,,株式会社,茨城県,龍ケ崎市,川原代町９５６番地７,,08,208,3010005,,,,,,,2026-02-19,1,,,,,サンエイ,0
1699,7050003009936,新規,0,2026-02-19,2026-02-19,ＺＡＨＩＤ　ＴＲＡＤＩＮＧ合同会社,,合同会社,茨城県,古河市,尾崎字寺野２０８９番９,,08,204,3060101,,,,,,,2026-02-19,1,,,,,ザヒドトレーディング,0
1700,7050003009960,新規,0,2026-02-19,2026-02-19,ＦＡＲＯＯＱＩ　ＴＲＡＤＩＮＧ合同会社,,合同会社,茨城県,結城市,大字結城１１３９７番地１,,08,207,3070001,,,,,,,2026-02-19,1,,,,,ファローキトレーディング,0
1701,7050005013770,新規,0,2026-02-19,2026-02-19,一般社団法人スペースステーションオーエスアソシエーション,,その他の設立登記法人,茨城県,つくば市,竹園１丁目３番地８,,08,220,3050032,,,,,,,2026-02-19,1,,,,,スペースステーションオーエスアソシエーション,0
1703,7060001039018,新規,0,2026-02-19,2026-02-19,株式会社オオミヤ,,株式会社,栃木県,宇都宮市,下田原町２８７６番地１２３,,09,201,3291115,,,,,,,2026-02-19,1,,,,,オオミヤ,0
1704,7070003006304,新規,0,2026-02-19,2026-02-19,Ｒｅｌｉｇｈｔ合同会社,,合同会社,群馬県,前橋市,岩神町３丁目４―６,,10,201,3710035,,,,,,,2026-02-19,1,,,,,リライト,0
1710,7100001039327,新規,0,2026-02-19,2026-02-19,尚穂金禾株式会社,,株式会社,長野県,北佐久郡軽井沢町,大字発地２４７３番地４,,20,321,3890113,,,,,,,2026-02-19,1,,,,,ショウズイキンカ,0
1714,7100003008619,新規,0,2026-02-19,2026-02-19,合同会社Ｎｏｖａｓｔ,,合同会社,長野県,小諸市,田町１丁目７番９号,,20,208,3840028,,,,,,,2026-02-19,1,,,,,ノヴァスト,0
1721,7110003006076,新規,0,2026-02-19,2026-02-19,合同会社タイファイ,,合同会社,新潟県,新潟市中央区,関屋大川前２丁目３番１０号冨楽荘１－Ａ,,15,103,9518142,,,,,,,2026-02-19,1,,,,,タイファイ,0
1738,7120901052245,新規,0,2026-02-19,2026-02-19,株式会社千翔建設,,株式会社,大阪府,吹田市,千里山西６丁目２８番７号,,27,205,5650851,,,,,,,2026-02-19,1,,,,,セントケンセツ,0
1739,7120903006083,新規,0,2026-02-19,2026-02-19,合同会社ハーネス,,合同会社,大阪府,箕面市,箕面７丁目２番１４－１０３号,,27,220,5620001,,,,,,,2026-02-19,1,,,,,ハーネス,0
1740,7120903006091,新規,0,2026-02-19,2026-02-19,ＬＣ　Ａｓｓｅｔ　Ｄｅｓｉｇｎ合同会社,,合同会社,大阪府,高槻市,奈佐原２丁目６番７－３０１号,,27,207,5691041,,,,,,,2026-02-19,1,,,,,エルシーアセットデザイン,0
1744,7130001081631,新規,0,2026-02-19,2026-02-19,株式会社森野製作所,,株式会社,京都府,京都市伏見区,紺屋町１６７番地,,26,109,6128064,,,,,,,2026-02-19,1,,,,,モリノセイサクショ,0
1745,7130001081648,新規,0,2026-02-19,2026-02-19,Ｙ‐ＳＭＩＬＥ株式会社,,株式会社,京都府,宇治市,槇島町五才田９番地１－２Ｆ,,26,204,6110041,,,,,,,2026-02-19,1,,,,,ワイスマイル,0
1760,7140003023226,新規,0,2026-02-19,2026-02-19,合同会社ＮＣＫ,,合同会社,兵庫県,加古川市,加古川町中津１５５－１１,,28,210,6750068,,,,,,,2026-02-19,1,,,,,エヌシーケー,0
1763,7150001028746,新規,0,2026-02-19,2026-02-19,株式会社みちしるべ,,株式会社,奈良県,天理市,西長柄町１６２番地３,,29,204,6320063,,,,,,,2026-02-19,1,,,,,ミチシルベ,0
1765,7160005011482,新規,0,2026-02-19,2026-02-19,一般社団法人未来つなぐ一隅プロジェクト,,その他の設立登記法人,滋賀県,大津市,坂本１丁目２,,25,201,5200113,,,,,,,2026-02-19,1,,,,,ミライツナグイチグウプロジェクト,0
1776,7180005021430,新規,0,2026-02-19,2026-02-19,社会保険労務士法人サンライズプロ・ＨＲコンサルティング,,その他の設立登記法人,愛知県,名古屋市中区,錦３丁目４番１５号ヒグチビルディング２Ｆ,,23,106,4600003,,,,,,,2026-02-19,1,,,,,サンライズプロエイチアールコンサルティング,0
1787,7240001066191,新規,0,2026-02-19,2026-02-19,株式会社ＦＯＲＥＳＴ,,株式会社,広島県,広島市佐伯区,美鈴が丘西１丁目１番７－５１０１号,,34,108,7315114,,,,,,,2026-02-19,1,,,,,フォレスト,0
1790,7250003003910,新規,0,2026-02-19,2026-02-19,合同会社ブルー,,合同会社,山口県,宇部市,明神町２丁目９番２７号,,35,202,7550008,,,,,,,2026-02-19,1,,,,,,0
1803,7300001014516,新規,0,2026-02-19,2026-02-19,株式会社プロジェクトワン,,株式会社,佐賀県,佐賀市,若宮３丁目１番８３号,,41,201,8490926,,,,,,,2026-02-19,1,,,,,プロジェクトワン,0
1806,7310003005181,新規,0,2026-02-19,2026-02-19,合同会社ＯＬＤＷＡＹＳ,,合同会社,長崎県,対馬市,上対馬町唐舟志５６２番地２,,42,209,8171712,,,,,,,2026-02-19,1,,,,,オールドウェイズ,0
1807,7320001021584,新規,0,2026-02-19,2026-02-19,株式会社ａ・ＴＨＥＳＵ,,株式会社,大分県,中津市,大字大貞字中ノ林３８３番地７４,,44,203,8710153,,,,,,,2026-02-19,1,,,,,アザス,0
1810,7330001034008,新規,0,2026-02-19,2026-02-19,ウエルリーフ株式会社,,株式会社,熊本県,熊本市中央区,山崎町６６番７号,,43,101,8600016,,,,,,,2026-02-19,1,,,,,ウエルリーフ,0
1813,7340001027984,新規,0,2026-02-19,2026-02-19,株式会社ＫｙｏＧｏＫｕｕ,,株式会社,鹿児島県,霧島市,隼人町神宮５丁目１０番３６号,,46,218,8995121,,,,,,,2026-02-19,1,,,,,キョーゴクー,0
1817,7360001036389,新規,0,2026-02-19,2026-02-19,株式会社ＧＯ‐農,,株式会社,沖縄県,宮古島市,上野字新里７７番地１‐１Ｆ,,47,214,9060202,,,,,,,2026-02-19,1,,,,,ゴーノウ,0
1823,7400003003647,新規,0,2026-02-19,2026-02-19,合同会社ぷりんとココア,,合同会社,岩手県,盛岡市,三本柳７地割１５番地１５,,03,201,0200831,,,,,,,2026-02-19,1,,,,,プリントココア,0
1826,7430001096285,新規,0,2026-02-19,2026-02-19,株式会社ナカイ,,株式会社,北海道,札幌市中央区,南十条西１８丁目１番５３号,,01,101,0640810,,,,,,,2026-02-19,1,,,,,ナカイ,0
1830,7430003018576,新規,0,2026-02-19,2026-02-19,合同会社ＩＳＭＡ,,合同会社,北海道,札幌市南区,澄川四条７丁目３番３７号,,01,106,0050004,,,,,,,2026-02-19,1,,,,,アイエスエムエー,0
1839,7500001026788,新規,0,2026-02-19,2026-02-19,株式会社眞鍋巧業,,株式会社,愛媛県,新居浜市,高津町２番１８号,,38,205,7920867,,,,,,,2026-02-19,1,,,,,マナベコウギョウ,0
1849,8010001262985,新規,0,2026-02-19,2026-02-19,株式会社ＥＭＰＡＲＴＮＥＲＳ,,株式会社,東京都,中央区,日本橋２丁目１６－４ｒｅｍｉｘ日本橋６階,,13,102,1030027,,,,,,,2026-02-19,1,,,,,イーエムパートナーズ,0
1850,8010001263001,新規,0,2026-02-19,2026-02-19,株式会社ＭＯＲＩＣＯ,,株式会社,東京都,中央区,銀座１丁目２２番１１号銀座大竹ビジデンス２Ｆ,,13,102,1040061,,,,,,,2026-02-19,1,,,,,モリコ,0
1852,8010003050380,新規,0,2026-02-19,2026-02-19,合同会社田端ＰＧ,,合同会社,東京都,中央区,日本橋箱崎町１６－１東益ビル６階,,13,102,1030015,,,,,,,2026-02-19,1,,,,,タバタピージー,0
1853,8010003050471,新規,0,2026-02-19,2026-02-19,Ｏｎ　ｔｈｅ　Ｓｔｏｎｅ合同会社,,合同会社,東京都,千代田区,丸の内１丁目４番１号東京共同会計事務所内,,13,101,1000005,,,,,,,2026-02-19,1,,,,,オンザストーン,0
1859,8010401196486,新規,0,2026-02-19,2026-02-19,株式会社ＳＶＣコンサルティング,,株式会社,東京都,港区,新橋１丁目１８番１９号キムラヤ大塚ビル６階,,13,103,1050004,,,,,,,2026-02-19,1,,,,,エスブイシーコンサルティング,0
1860,8010401196635,新規,0,2026-02-19,2026-02-19,ＰＲＩＳＭ　ＴＥＬＥＣＯＭ株式会社,,株式会社,東京都,港区,新橋２丁目１６番１号ニュー新橋ビル９階,,13,103,1050004,,,,,,,2026-02-19,1,,,,,プリズムテレコム,0
1861,8010401196651,新規,0,2026-02-19,2026-02-19,デルタトラスト株式会社,,株式会社,東京都,港区,麻布十番３丁目３番８号麻布共和ビル３階,,13,103,1060045,,,,,,,2026-02-19,1,,,,,デルタトラスト,0
1862,8010401196684,新規,0,2026-02-19,2026-02-19,株式会社ＭＩＲ,,株式会社,東京都,港区,南青山４丁目８番２２号,,13,103,1070062,,,,,,,2026-02-19,1,,,,,エムアイアール,0
1863,8010401196701,新規,0,2026-02-19,2026-02-19,株式会社ＤＡＫＥ２,,株式会社,東京都,港区,六本木５丁目２番１号ほうらいやビル８階,,13,103,1060032,,,,,,,2026-02-19,1,,,,,ダケツー,0
1878,8010403037358,新規,0,2026-02-19,2026-02-19,ＫＧ　ＢＥＳＳ合同会社,,合同会社,東京都,港区,西新橋１丁目１８番１７号明産西新橋ビル３階,,13,103,1050003,,,,,,,2026-02-19,1,,,,,ケージーベス,0
1879,8010403037366,新規,0,2026-02-19,2026-02-19,ＯｃｅａｎＳｃｏｒｅ合同会社,,合同会社,東京都,港区,芝大門２丁目１２番１０号Ｔ＆Ｇ浜松町ビル６階,,13,103,1050012,,,,,,,2026-02-19,1,,,,,オーシャンスコア,0
1886,8010601068717,新規,0,2026-02-19,2026-02-19,株式会社ＥｖｅＣｅｎｔ,,株式会社,東京都,江東区,豊洲５丁目１－１３－３６１２,,13,108,1350061,,,,,,,2026-02-19,1,,,,,イブセント,0
1887,8010601068774,新規,0,2026-02-19,2026-02-19,アークス株式会社,,株式会社,東京都,江東区,古石場２丁目１５番１４号,,13,108,1350045,,,,,,,2026-02-19,1,,,,,アークス,0
1888,8010601068782,新規,0,2026-02-19,2026-02-19,株式会社フローティア,,株式会社,東京都,江東区,豊洲３丁目４－１,,13,108,1350061,,,,,,,2026-02-19,1,,,,,フローティア,0
1891,8010901058995,新規,0,2026-02-19,2026-02-19,株式会社Ｌｉｆｅ　Ｌｉｇｈｔ　Ｌｏｖｅ,,株式会社,東京都,世田谷区,太子堂４丁目３０番２２号Ｋ’ｓアパートメント４０２号室,,13,112,1540004,,,,,,,2026-02-19,1,,,,,ライフライトラブ,0
1892,8010901059003,新規,0,2026-02-19,2026-02-19,チャイカ株式会社,,株式会社,東京都,世田谷区,上用賀４丁目２５番２号クラヴィエ馬事公苑１０１,,13,112,1580098,,,,,,,2026-02-19,1,,,,,チャイカ,0
1900,8011001175277,新規,0,2026-02-19,2026-02-19,Ｎａｇｉ株式会社,,株式会社,東京都,渋谷区,神泉町７－１７,,13,113,1500045,,,,,,,2026-02-19,1,,,,,ナギ,0
1901,8011001175582,新規,0,2026-02-19,2026-02-19,株式会社健康情報研究所,,株式会社,東京都,目黒区,自由が丘１丁目２２番８号,,13,110,1520035,,,,,,,2026-02-19,1,,,,,ケンコウジョウホウケンキュウジョ,0
1906,8011005011354,新規,0,2026-02-19,2026-02-19,一般社団法人日本ベンチャー支援協会,,その他の設立登記法人,東京都,渋谷区,神宮前５丁目５２番２号青山オーバルビル２階,,13,113,1500001,,,,,,,2026-02-19,1,,,,,,0
1924,8011503006871,新規,0,2026-02-19,2026-02-19,ベトランド合同会社,,合同会社,東京都,北区,王子５丁目３０－１－７１８号,,13,117,1140002,,,,,,,2026-02-19,1,,,,,ベトランド,0
1926,8011801047460,新規,0,2026-02-19,2026-02-19,株式会社リベルテ,,株式会社,東京都,足立区,西新井栄町３丁目４番１２号,,13,121,1230843,,,,,,,2026-02-19,1,,,,,リベルテ,0
1932,8012801024540,新規,0,2026-02-19,2026-02-19,株式会社日翔,,株式会社,東京都,立川市,錦町１丁目２番１３号,,13,202,1900022,,,,,,,2026-02-19,1,,,,,ニッショウ,0
1950,8030001171053,新規,0,2026-02-19,2026-02-19,株式会社ＣＲＯＳＳＰＯＩＮＴ,,株式会社,埼玉県,春日部市,下柳１４３６番地４,,11,214,3440122,,,,,,,2026-02-19,1,,,,,クロスポイント,0
1953,8030003028680,新規,0,2026-02-19,2026-02-19,合同会社ＣＲＥＲＡＬ,,合同会社,埼玉県,さいたま市大宮区,仲町１丁目９１,,11,103,3300845,,,,,,,2026-02-19,1,,,,,クレアル,0
1956,8040001142499,新規,0,2026-02-19,2026-02-19,株式会社Ｔ・Ｓ　ＳＹＳＴＥＭ,,株式会社,千葉県,鎌ケ谷市,道野辺中央１丁目３番２１号,,12,224,2730113,,,,,,,2026-02-19,1,,,,,ティーエスシステム,0
1957,8040001142549,新規,0,2026-02-19,2026-02-19,株式会社ＡＯＩＲＯ,,株式会社,千葉県,千葉市中央区,登戸１丁目１５番３２号キャピタル登戸５階７号室,,12,101,2600032,,,,,,,2026-02-19,1,,,,,アオイロ,0
1958,8040003029430,新規,0,2026-02-19,2026-02-19,ｄｅｔｏｅｌｉｔｅ合同会社,,合同会社,千葉県,市川市,南八幡１丁目４－１０,,12,203,2720023,,,,,,,2026-02-19,1,,,,,デトエリート,0
1959,8040003029471,新規,0,2026-02-19,2026-02-19,合同会社イエロウズ,,合同会社,千葉県,茂原市,高師６０番地１－１０３,,12,210,2970029,,,,,,,2026-02-19,1,,,,,イエロウズ,0
1960,8040003029496,新規,0,2026-02-19,2026-02-19,合同会社ＢＥＮＥ,,合同会社,千葉県,野田市,山崎１６５１番地の１９ブルック２０１,,12,208,2780022,,,,,,,2026-02-19,1,,,,,ベネ,0
1961,8040005023027,新規,0,2026-02-19,2026-02-19,一般社団法人長南町地域づくり推進機構,,その他の設立登記法人,千葉県,長生郡長南町,須田６４番地４,,12,427,2970111,,,,,,,2026-02-19,1,,,,,チョウナンマチチイキヅクリスイシンキコウ,0
1962,8040005023051,新規,0,2026-02-19,2026-02-19,特定非営利活動法人ちばそで音Ｌｉｎｋ,,その他の設立登記法人,千葉県,袖ケ浦市,のぞみ野４１番地３,,12,229,2990251,,,,,,,2026-02-19,1,,,,,チバソデオトリンク,0
1967,8050003009951,新規,0,2026-02-19,2026-02-19,合同会社水戸なごみ福祉サービス,,合同会社,茨城県,水戸市,城南３丁目６番地４栗田コーポ２０３号室,,08,201,3100803,,,,,,,2026-02-19,1,,,,,ミトナゴミフクシサービス,0
1968,8060001039017,新規,0,2026-02-19,2026-02-19,株式会社ＭＴビル,,株式会社,栃木県,小山市,城東２丁目６番８号,,09,208,3230807,,,,,,,2026-02-19,1,,,,,エムティービル,0
1973,8080101026094,新規,0,2026-02-19,2026-02-19,株式会社ネクサス,,株式会社,静岡県,沼津市,下香貫宮脇３３６番地の９タウニィ楊原１０３号室,,22,203,4100822,,,,,,,2026-02-19,1,,,,,,0
1974,8080103003521,新規,0,2026-02-19,2026-02-19,ＲＭＳオート合同会社,,合同会社,静岡県,富士宮市,黒田２７０番地の１１,,22,207,4180034,,,,,,,2026-02-19,1,,,,,アールエムエスオート,0
1978,8080401028443,新規,0,2026-02-19,2026-02-19,美峰クリーン株式会社,,株式会社,静岡県,御前崎市,池新田３１０２番地の８,,22,223,4371612,,,,,,,2026-02-19,1,,,,,ミホクリーン,0
1985,8100005013450,新規,0,2026-02-19,2026-02-19,一般社団法人水と柏の会,,その他の設立登記法人,長野県,大町市,大町３８８７,,20,212,3980002,,,,,,,2026-02-19,1,,,,,ミズトカシワノカイ,0
2004,8120003031923,新規,0,2026-02-19,2026-02-19,合同会社ＴＵＳＧ,,合同会社,大阪府,大阪市中央区,南船場３丁目２番２２号おおきに南船場ビル２０５,,27,128,5420081,,,,,,,2026-02-19,1,,,,,タス,0
2005,8120003031948,新規,0,2026-02-19,2026-02-19,合同会社リヴィア,,合同会社,大阪府,大阪市中央区,淡路町１丁目３番２号７階,,27,128,5410047,,,,,,,2026-02-19,1,,,,,リヴィア,0
2008,8120901052244,新規,0,2026-02-19,2026-02-19,株式会社Ｍｏｎｅｙ　Ｃｒａｆｔ,,株式会社,大阪府,豊中市,新千里北町２丁目４０－Ｂ－１１０６,,27,203,5600081,,,,,,,2026-02-19,1,,,,,マネークラフト,0
2011,8130001081655,新規,0,2026-02-19,2026-02-19,株式会社デイトラスト,,株式会社,京都府,京都市上京区,西洞院通丸太町上る夷川町３８８番地３ＧＣビル１Ｆ,,26,102,6028032,,,,,,,2026-02-19,1,,,,,デイトラスト,0
2023,8140003023209,新規,0,2026-02-19,2026-02-19,合同会社Ｍ．Ａ．Ｏ,,合同会社,兵庫県,西宮市,里中町３丁目９－２２－１０５,,28,204,6638183,,,,,,,2026-02-19,1,,,,,エムエーオー,0
2025,8150001028737,新規,0,2026-02-19,2026-02-19,株式会社Ｌｉｅｎ．Ｄｏｕｘ,,株式会社,奈良県,五條市,野原西４丁目４番３号,,29,207,6370036,,,,,,,2026-02-19,1,,,,,リアンドゥー,0
2042,8180003029788,新規,0,2026-02-19,2026-02-19,シーエルネット合同会社,,合同会社,愛知県,一宮市,大和町戸塚字西郷９９５番地４,,23,203,4910927,,,,,,,2026-02-19,1,,,,,シーエルネット,0
2043,8180003029796,新規,0,2026-02-19,2026-02-19,合同会社成澤不動産,,合同会社,愛知県,名古屋市緑区,篠の風１丁目９１７番地,,23,114,4580015,,,,,,,2026-02-19,1,,,,,ナリサワフドウサン,0
2050,8190005012122,新規,0,2026-02-19,2026-02-19,特定非営利活動法人安心生活サポートうみがめ,,その他の設立登記法人,三重県,鈴鹿市,算所５丁目１９番３０号,,24,207,5130806,,,,,,,2026-02-19,1,,,,,アンシンセイカツサポートウミガメ,0
2063,8240001066109,新規,0,2026-02-19,2026-02-19,株式会社加賀美工業,,株式会社,広島県,三原市,大和町大草１２０３番地１,,34,204,7291211,,,,,,,2026-02-19,1,,,,,カガミコウギョウ,0
2064,8240001066166,新規,0,2026-02-19,2026-02-19,オリオンゲート株式会社,,株式会社,広島県,広島市佐伯区,五日市中央１丁目２－４２,,34,108,7315128,,,,,,,2026-02-19,1,,,,,オリオンゲート,0
2065,8240001066182,新規,0,2026-02-19,2026-02-19,株式会社アイルブック,,株式会社,広島県,広島市安佐北区,口田５丁目３６番２６号,,34,106,7391734,,,,,,,2026-02-19,1,,,,,アイルブック,0
2066,8240005016043,新規,0,2026-02-19,2026-02-19,一般社団法人学び場研究所,,その他の設立登記法人,広島県,広島市中区,銀山町１番１６－７０５号,,34,101,7300022,,,,,,,2026-02-19,1,,,,,マナビバケンキュウジョ,0
2079,8290001113194,新規,0,2026-02-19,2026-02-19,株式会社カンリブベース,,株式会社,福岡県,福岡市中央区,大名２丁目６番１１号ＦｕｋｕｏｋａＧｒｏｗｔｈＮｅｘｔ,,40,133,8100041,,,,,,,2026-02-19,1,,,,,,0
2081,8290003018078,新規,0,2026-02-19,2026-02-19,守破新合同会社,,合同会社,福岡県,福岡市博多区,博多駅前１丁目２３番２号ＰａｒｋＦｒｏｎｔ博多駅前一丁目５Ｆ－Ｂ,,40,132,8120011,,,,,,,2026-02-19,1,,,,,シュハシン,0
2082,8290003018086,新規,0,2026-02-19,2026-02-19,Ｌａｂｅｌ　ＰＩＴＯ合同会社,,合同会社,福岡県,福岡市城南区,友丘５丁目１３番１号,,40,136,8140112,,,,,,,2026-02-19,1,,,,,レーベルピト,0
2087,8350003005144,新規,0,2026-02-19,2026-02-19,シャイン合同会社,,合同会社,宮崎県,都城市,上川東４丁目５９７５番地１ＣＯＮＮＥＣＴ２Ｆ,,45,202,8850012,,,,,,,2026-02-19,1,,,,,シャイン,0
2089,8390001018268,新規,0,2026-02-19,2026-02-19,株式会社ＳｔｕｄｉｏＢｉａｎｃａＦａｒｍ,,株式会社,山形県,西置賜郡白鷹町,大字鮎貝３３８６番地,,06,402,9920771,,,,,,,2026-02-19,1,,,,,スタジオビアンカファーム,0
2094,8430001096292,新規,0,2026-02-19,2026-02-19,株式会社ＭＩＮＴＲＡ,,株式会社,北海道,札幌市東区,北十九条東１０丁目５番１０号,,01,103,0650019,,,,,,,2026-02-19,1,,,,,ミントラ,0
2097,8450003002775,新規,0,2026-02-19,2026-02-19,合同会社あおき農場,,合同会社,北海道,雨竜郡沼田町,字東予１０８０番地,,01,438,0782212,,,,,,,2026-02-19,1,,,,,アオキノウジョウ,0
2098,8470005006681,新規,0,2026-02-19,2026-02-19,医療法人社団いない皮ふ科形成外科クリニック,,その他の設立登記法人,香川県,高松市,木太町５０３４番地１０号,,37,201,7600080,,,,,,,2026-02-19,1,,,,,イナイヒフカケイセイゲカクリニック,0
2100,8480001013086,新規,0,2026-02-19,2026-02-19,株式会社ソルガイア,,株式会社,徳島県,徳島市,南仲之町２丁目２５番地,,36,201,7700933,,,,,,,2026-02-19,1,,,,,ソルガイア,0
2107,9010001262910,新規,0,2026-02-19,2026-02-19,株式会社ＶＯＹＡＧＥＲ,,株式会社,東京都,中央区,日本橋室町１丁目１１番１２号日本橋水野ビル７階,,13,102,1030022,,,,,,,2026-02-19,1,,,,,ボイジャー,0
2108,9010001262935,新規,0,2026-02-19,2026-02-19,株式会社ＬＡＭＣＡ,,株式会社,東京都,千代田区,神田神保町３丁目１１番６号神保町ビル１０階,,13,101,1010051,,,,,,,2026-02-19,1,,,,,ラムカ,0
2111,9010003050446,新規,0,2026-02-19,2026-02-19,合同会社ＧｌｏｃａｌＳｈｉｆｔ,,合同会社,東京都,中央区,銀座１丁目２２－１１銀座大竹ビジデンス２Ｆ,,13,102,1040061,,,,,,,2026-02-19,1,,,,,グローカルシフト,0
2124,9010401196320,新規,0,2026-02-19,2026-02-19,株式会社ＺｅＮｏ　Ｃｏｎｓｕｌｔｉｎｇ,,株式会社,東京都,港区,北青山１丁目３－３三橋ビル３階,,13,103,1070061,,,,,,,2026-02-19,1,,,,,ゼノコンサルティング,0
2125,9010401196353,新規,0,2026-02-19,2026-02-19,ＭＣＰ４８株式会社,,株式会社,東京都,港区,元赤坂１丁目１番７－１２０９号株式会社赤坂国際会計内,,13,103,1070051,,,,,,,2026-02-19,1,,,,,エムシーピーフォーエイト,0
2126,9010401196618,新規,0,2026-02-19,2026-02-19,マエムキ株式会社,,株式会社,東京都,港区,六本木４丁目５番１１号ＳＩＸ,,13,103,1060032,,,,,,,2026-02-19,1,,,,,マエムキ,0
2127,9010401196634,新規,0,2026-02-19,2026-02-19,株式会社Ｎｅｘｕｓ　Ｍａｒｋｅｔｓ,,株式会社,東京都,港区,六本木３丁目１６番１２号六本木ＫＳビル５Ｆ,,13,103,1060032,,,,,,,2026-02-19,1,,,,,ネクサスマーケッツ,0
2128,9010401196675,新規,0,2026-02-19,2026-02-19,株式会社健裕,,株式会社,東京都,港区,六本木４丁目２番４１－５０１号,,13,103,1060032,,,,,,,2026-02-19,1,,,,,ケンユウ,0
2129,9010401196683,新規,0,2026-02-19,2026-02-19,株式会社ＭＩＫ,,株式会社,東京都,港区,南青山４丁目８番２２号,,13,103,1070062,,,,,,,2026-02-19,1,,,,,エムアイケイ,0
2130,9010401196725,新規,0,2026-02-19,2026-02-19,Ａｕｔｈｅｎｓｅ　Ｈｏｌｄｉｎｇｓ２株式会社,,株式会社,東京都,港区,赤坂９丁目７番１号ミッドタウン・タワー２２階,,13,103,1070052,,,,,,,2026-02-19,1,,,,,オーセンスホールディングスツー,0
2131,9010401196774,新規,0,2026-02-19,2026-02-19,株式会社ＨＲＧｒｉｄ,,株式会社,東京都,港区,白金１丁目２－１－Ｅ９１６,,13,103,1080072,,,,,,,2026-02-19,1,,,,,エイチアールグリッド,0
2145,9010501055475,新規,0,2026-02-19,2026-02-19,株式会社ＭＹＲ,,株式会社,東京都,台東区,入谷２丁目１４－７アイディ上野三１０２,,13,106,1100013,,,,,,,2026-02-19,1,,,,,エムワイアール,0
2147,9010503008175,新規,0,2026-02-19,2026-02-19,合同会社Ｒｉｒｅ,,合同会社,東京都,台東区,東上野１丁目６－１２ルクレ東上野レジデンス２０３,,13,106,1100015,,,,,,,2026-02-19,1,,,,,リル,0
2148,9010503008191,新規,0,2026-02-19,2026-02-19,合同会社Ｓｉｄｅ‐Ｋｎｏｔ,,合同会社,東京都,台東区,上野１丁目１７番６号広小路ビル８Ｆ－Ｂ,,13,106,1100005,,,,,,,2026-02-19,1,,,,,サイドノット,0
2157,9010703008140,新規,0,2026-02-19,2026-02-19,合同会社ＨＩＭ,,合同会社,東京都,品川区,荏原４丁目１８－３ｋｉｉｒｏ武蔵小山２０２号室,,13,109,1420063,,,,,,,2026-02-19,1,,,,,エイチアイエム,0
2166,9011001175689,新規,0,2026-02-19,2026-02-19,株式会社ＺＥＮＥＤＧＥ,,株式会社,東京都,目黒区,下目黒２丁目１６番１１号目黒ポイント１０１,,13,110,1530064,,,,,,,2026-02-19,1,,,,,ゼネッジ,0
2171,9011101114844,新規,0,2026-02-19,2026-02-19,株式会社グッドワン７１３東京,,株式会社,東京都,新宿区,西新宿７丁目２２番４１号,,13,104,1600023,,,,,,,2026-02-19,1,,,,,グッドワンナナイチサントウキョウ,0
2172,9011101114951,新規,0,2026-02-19,2026-02-19,株式会社ＳＯＲＡＱ,,株式会社,東京都,新宿区,西新宿３丁目３番１３号西新宿水間ビル６階,,13,104,1600023,,,,,,,2026-02-19,1,,,,,ソラク,0
2174,9011105011732,新規,0,2026-02-19,2026-02-19,一般社団法人調布六中サッカー部後援会,,その他の設立登記法人,東京都,新宿区,四谷３丁目１３番地ＳＥＡＢＩＲＤビル２階,,13,104,1600004,,,,,,,2026-02-19,1,,,,,チョウフロクチュウサッカーブコウエンカイ,0
2184,9011803007338,新規,0,2026-02-19,2026-02-19,ＭＡＣ合同会社,,合同会社,東京都,足立区,梅田５丁目２２－１１,,13,121,1230851,,,,,,,2026-02-19,1,,,,,マック,0
2185,9012303002291,新規,0,2026-02-19,2026-02-19,合同会社右田創建,,合同会社,東京都,町田市,金井ヶ丘１丁目１６番１５号,,13,209,1950076,,,,,,,2026-02-19,1,,,,,ミギタソウケン,0
2195,9013301055769,新規,0,2026-02-19,2026-02-19,株式会社ＣＡＭＯＳ　Ｖｉｓｉｏｎ　Ｓｏｌｕｔｉｏｎｓ,,株式会社,東京都,豊島区,東池袋５丁目７番３号アゼリア東池袋４０１,,13,116,1700013,,,,,,,2026-02-19,1,,,,,カモスビジョンソリューションズ,0
2201,9020001167258,新規,0,2026-02-19,2026-02-19,株式会社Ｈ．Ｃ,,株式会社,神奈川県,川崎市中原区,新城１丁目１４番５号,,14,133,2110044,,,,,,,2026-02-19,1,,,,,エイチシー,0
2216,9030001171044,新規,0,2026-02-19,2026-02-19,宝源商事株式会社,,株式会社,埼玉県,三郷市,笹塚５５番地,,11,237,3410027,,,,,,,2026-02-19,1,,,,,ホウゲンショウジ,0
2217,9030001171069,新規,0,2026-02-19,2026-02-19,株式会社ＡＸＩＳ,,株式会社,埼玉県,吉川市,美南２丁目２３番２号吉川美南駅前ソリューションビル２階２Ｂ区画,,11,243,3420038,,,,,,,2026-02-19,1,,,,,アクシス,0
2218,9030001171085,新規,0,2026-02-19,2026-02-19,株式会社ひばり,,株式会社,埼玉県,さいたま市桜区,町谷３丁目２番５号,,11,106,3380836,,,,,,,2026-02-19,1,,,,,ヒバリ,0
2222,9030003028671,新規,0,2026-02-19,2026-02-19,合同会社ＤＤ,,合同会社,埼玉県,越谷市,千間台東２丁目１９－７,,11,222,3430042,,,,,,,2026-02-19,1,,,,,ディーディー,0
2225,9040001142498,新規,0,2026-02-19,2026-02-19,いえちく株式会社,,株式会社,千葉県,船橋市,日の出２丁目９番６号コーポサンライズ西田３０４,,12,204,2730015,,,,,,,2026-02-19,1,,,,,イエチク,0
2229,9060001039016,新規,0,2026-02-19,2026-02-19,株式会社あじさい商会,,株式会社,栃木県,鹿沼市,富岡１３８３番地２,,09,205,3220006,,,,,,,2026-02-19,1,,,,,アジサイショウカイ,0
2236,9080001027431,新規,0,2026-02-19,2026-02-19,ＬＤＭ株式会社,,株式会社,静岡県,静岡市葵区,両替町２丁目６番４号ジェードビル．１，３階,,22,101,4200032,,,,,,,2026-02-19,1,,,,,エルディーエム,0
2241,9080101026093,新規,0,2026-02-19,2026-02-19,株式会社Ｊ　ＬＡＣＴ　ＳＵＰＰＯＲＴ,,株式会社,静岡県,三島市,川原ケ谷５６９番地の１,,22,206,4110022,,,,,,,2026-02-19,1,,,,,ジェイラクトサポート,0
2247,9090003002992,新規,0,2026-02-19,2026-02-19,合同会社かたすみ,,合同会社,山梨県,甲府市,幸町１３番２０号ラブリハイツ幸町６０４号,,19,201,4000857,,,,,,,2026-02-19,1,,,,,カタスミ,0
2248,9100001039341,新規,0,2026-02-19,2026-02-19,山田建興株式会社,,株式会社,長野県,諏訪市,大字豊田３９０番地４,,20,206,3920016,,,,,,,2026-02-19,1,,,,,ヤマダケンコウ,0
2265,9120001284118,新規,0,2026-02-19,2026-02-19,株式会社ネオンとよはく,,株式会社,大阪府,守口市,金田町６丁目２－７－１Ｆ,,27,209,5700011,,,,,,,2026-02-19,1,,,,,ネオントヨハク,0
2266,9120001284134,新規,0,2026-02-19,2026-02-19,株式会社ＳＡＫＵＹＡ,,株式会社,大阪府,大阪市西区,北堀江３丁目１０番１７号,,27,106,5500014,,,,,,,2026-02-19,1,,,,,サクヤ,0
2267,9120001284282,新規,0,2026-02-19,2026-02-19,株式会社ファイブローズ,,株式会社,大阪府,大阪市中央区,本町４丁目４番１２号ラッキービル３０２,,27,128,5410053,,,,,,,2026-02-19,1,,,,,ファイブローズ,0
2268,9120001284290,新規,0,2026-02-19,2026-02-19,株式会社トンガリ,,株式会社,大阪府,大阪市西区,西本町１丁目１１番７号西本町エイトビル７０２号室,,27,106,5500005,,,,,,,2026-02-19,1,,,,,トンガリ,0
2269,9120001284365,新規,0,2026-02-19,2026-02-19,株式会社桜咲く,,株式会社,大阪府,大阪市平野区,瓜破２丁目１番７４号藤井ビル３０１号,,27,126,5470024,,,,,,,2026-02-19,1,,,,,サクラサク,0
2276,9120003031906,新規,0,2026-02-19,2026-02-19,合同会社おゆぷろ,,合同会社,大阪府,大阪市北区,梅田１丁目１１番４号大阪駅前第４ビル９階９２３－１７４４号,,27,127,5300001,,,,,,,2026-02-19,1,,,,,オユプロ,0
2277,9120901052227,新規,0,2026-02-19,2026-02-19,株式会社Ｅ‐ＮＡ,,株式会社,大阪府,高槻市,芝生町２丁目１０番３４号,,27,207,5690823,,,,,,,2026-02-19,1,,,,,イーナ,0
2278,9120901052251,新規,0,2026-02-19,2026-02-19,株式会社Ｃｒａｆｔ,,株式会社,大阪府,豊中市,上野坂２丁目９番２１号,,27,203,5600012,,,,,,,2026-02-19,1,,,,,クラフト,0
2282,9130001081646,新規,0,2026-02-19,2026-02-19,株式会社Ｉ．Ｔ　Ｂｒｉｇｈｔ,,株式会社,京都府,木津川市,加茂町高田大木屋７７番地１,,26,214,6191144,,,,,,,2026-02-19,1,,,,,アイティーブライト,0
2304,9180001170667,新規,0,2026-02-19,2026-02-19,株式会社Ｌｕｖ　Ｌｉｎｋｓ,,株式会社,愛知県,名古屋市中村区,名駅南４丁目４番２６号オープンレジデンシア名駅南グランアート１３０８号,,23,105,4500003,,,,,,,2026-02-19,1,,,,,ラブリンクス,0
2318,9240001066181,新規,0,2026-02-19,2026-02-19,株式会社ＤＡＶＡＮＣＥ,,株式会社,広島県,東広島市,西条町助実１０２８３―１０,,34,212,7390021,,,,,,,2026-02-19,1,,,,,ダバンス,0
2321,9240003007605,新規,0,2026-02-19,2026-02-19,合同会社ＧＲＡＣＥ,,合同会社,広島県,広島市東区,光町１丁目７番７－１００１号,,34,102,7320052,,,,,,,2026-02-19,1,,,,,グレース,0
2327,9250003003909,新規,0,2026-02-19,2026-02-19,合同会社こころ,,合同会社,山口県,宇部市,明神町２丁目９番２７号,,35,202,7550008,,,,,,,2026-02-19,1,,,,,ココロ,0
2341,9310003005188,新規,0,2026-02-19,2026-02-19,合同会社ｉｎｓｔｅｐ,,合同会社,長崎県,諫早市,福田町４６番６０号,,42,204,8540001,,,,,,,2026-02-19,1,,,,,インステップ,0
2342,9320003004908,新規,0,2026-02-19,2026-02-19,合同会社ダオさんちの健康農園,,合同会社,大分県,日田市,天瀬町赤岩４３７番地１,,44,204,8794202,,,,,,,2026-02-19,1,,,,,ダオサンチノケンコウノウエン,0
2343,9330001034006,新規,0,2026-02-19,2026-02-19,みどりファーム甲佐株式会社,,株式会社,熊本県,上益城郡甲佐町,大字下横田７５３番１,,43,444,8614621,,,,,,,2026-02-19,1,,,,,ミドリファームコウサ,0
2347,9340003005103,新規,0,2026-02-19,2026-02-19,合同会社グラッド・カーズ,,合同会社,鹿児島県,鹿児島市,田上１丁目１番１８号平原アパート１０２号,,46,201,8900034,,,,,,,2026-02-19,1,,,,,グラッドカーズ,0
2348,9340005009944,新規,0,2026-02-19,2026-02-19,一般社団法人ハルウララ,,その他の設立登記法人,鹿児島県,鹿児島市,中央町９番地１鹿児島中央第一生命ビルディング,,46,201,8900053,,,,,,,2026-02-19,1,,,,,ハルウララ,0
2364,9430001096267,新規,0,2026-02-19,2026-02-19,株式会社ますたーけあ,,株式会社,北海道,札幌市清田区,里塚緑ケ丘５丁目２番２０号シェーンヒルズ四季の杜Ａ棟１０５号,,01,110,0040805,,,,,,,2026-02-19,1,,,,,マスターケア,0
2366,9450003002774,新規,0,2026-02-19,2026-02-19,ノーザンクロス合同会社,,合同会社,北海道,旭川市,末広一条３丁目２番２２号,,01,204,0718131,,,,,,,2026-02-19,1,,,,,ノーザンクロス,0
2370,9500001026786,新規,0,2026-02-19,2026-02-19,株式会社エールＮ,,株式会社,愛媛県,四国中央市,土居町蕪崎１５２５番地５,,38,213,7990724,,,,,,,2026-02-19,1,,,,,エールエヌ,0
2371,9500003003676,新規,0,2026-02-19,2026-02-19,合同会社ありがとうホーム,,合同会社,愛媛県,宇和島市,柿原１３３９番４,,38,203,7980027,,,,,,,2026-02-19,1,,,,,アリガトウホーム,0
2372,9500005008855,新規,0,2026-02-19,2026-02-19,一般社団法人エシカルテロワールジャパン,,その他の設立登記法人,愛媛県,今治市,常盤町１丁目６番地７,,38,202,7940015,,,,,,,2026-02-19,1,,,,,エシカルテロワールジャパン,0
