sequenceNumber,corporateNumber,process,correct,updateDate,changeDate,name,nameImageId,kind,prefectureName,cityName,streetNumber,addressImageId,prefectureCode,cityCode,postCode,addressOutside,addressOutsideImageId,closeDate,closeCause,successorCorporateNumber,changeCause,assignmentDate,latest,enName,enPrefectureName,enCityName,enAddressOutside,furigana,hihyoji
1,1010001111579,登記記録の閉鎖等,0,2023-04-13,2023-04-03,イースタン千代田株式会社,,株式会社,東京都,千代田区,鍛冶町１丁目４番３号,,13,101,1010044,,,2023-04-03,合併による解散等,5010001123661,令和５年４月１日東京都千代田区鍛冶町一丁目４番３号日東リース株式会社（5010001123661）に合併し解散,2015-10-05,1,,,,,イースタンチヨダ,0
3,1010001113501,登記記録の閉鎖等,0,2023-04-13,2023-04-03,ショックジャパン株式会社,,株式会社,東京都,中央区,日本橋本町４丁目７番１０号,,13,102,1030023,,,2023-04-03,合併による解散等,3010001049495,令和５年４月１日東京都中央区日本橋本町四丁目７番１０号宝通商株式会社（3010001049495）に合併し解散,2015-10-05,1,,,,,ショックジャパン,0
16,1010401008243,登記記録の閉鎖等,0,2023-04-13,2023-04-03,協栄電気株式会社,,株式会社,東京都,千代田区,一番町２１番地,,13,101,1020082,,,2023-04-03,合併による解散等,1011001042970,令和５年４月１日東京都千代田区一番町２１番地伊藤忠プラスチックス株式会社（1011001042970）に合併し解散,2015-10-05,1,,,,,キョウエイデンキ,0
29,1010601006542,登記記録の閉鎖等,0,2023-04-13,2023-04-05,吉香寝装株式会社,,株式会社,東京都,江東区,越中島２丁目３番８号,,13,108,1350044,,,2023-04-05,清算の結了等,,,2015-10-05,1,,,,,ヨシコウシンソウ,0
36,1010701012093,登記記録の閉鎖等,0,2023-04-13,2023-04-10,大明テクノ株式会社,,株式会社,東京都,品川区,南大井６丁目１６番１６号,,13,109,1400013,,,2023-04-10,合併による解散等,4010601025655,令和５年４月１日東京都江東区豊洲一丁目３番１号インフライズ株式会社（4010601025655）に合併し解散,2015-10-05,1,,,,,ダイメイテクノ,0
39,1010901027552,登記記録の閉鎖等,0,2023-04-13,2023-04-07,株式会社イワキデザイン室,,株式会社,東京都,渋谷区,神宮前４丁目２６番２８号２階,,13,113,1500001,,,2023-04-07,清算の結了等,,,2015-10-05,1,,,,,イワキデザインシツ,0
45,1011001035462,登記記録の閉鎖等,0,2023-04-13,2023-04-11,株式会社ティー・エス・オー,,株式会社,東京都,渋谷区,道玄坂１丁目１０番８号,,13,113,1500043,,,2023-04-11,合併による解散等,7011001016580,令和５年４月１日東京都渋谷区道玄坂一丁目２１番１号東急不動産株式会社（7011001016580）に合併し解散,2015-10-05,1,,,,,ティーエスオー,0
59,1011401022176,登記記録の閉鎖等,0,2023-04-13,2023-04-10,株式会社ウィング・ヘルスケア,,株式会社,東京都,板橋区,幸町１７番３号,,13,119,1730034,,,2023-04-10,清算の結了等,,,2019-11-14,1,,,,,ウィングヘルスケア,0
75,1020002063950,登記記録の閉鎖等,0,2023-04-13,2023-04-04,有限会社ティー・エイチ・エス,,有限会社,神奈川県,横浜市青葉区,新石川１丁目３１番地４,,14,117,2250003,,,2023-04-04,清算の結了等,,,2015-10-05,1,,,,,ティーエイチエス,0
83,1030001127177,登記記録の閉鎖等,0,2023-04-13,2023-04-04,株式会社Ｃｌｅｍａｔｉｓ,,株式会社,埼玉県,さいたま市見沼区,大字東門前１９８番地２９,,11,104,3370016,,,2023-04-04,清算の結了等,,,2018-08-28,1,,,,,クレマティス,0
87,1030005018926,登記記録の閉鎖等,0,2023-04-13,2023-04-04,一般社団法人Ｋｉｓｓｏ,,その他の設立登記法人,埼玉県,春日部市,大枝９６２番地１２,,11,214,3440023,,,2023-04-04,清算の結了等,,,2018-03-30,1,,,,,キッソ,0
96,1060001031640,登記記録の閉鎖等,0,2023-04-13,2023-04-04,株式会社陽なた不動産,,株式会社,栃木県,小山市,犬塚５丁目４番地５,,09,208,3230811,,,2023-04-04,清算の結了等,,,2019-06-05,1,,,,,ヒナタフドウサン,0
99,1060003003497,登記記録の閉鎖等,0,2023-04-13,2023-04-03,株式会社三岩輸送,,株式会社,栃木県,小山市,駅東通り１丁目２番１７号ＴＳビル４０１号室,,09,208,3230022,,,2023-04-03,清算の結了等,,,2020-10-15,1,,,,,ミツイワユソウ,0
128,1120901005266,登記記録の閉鎖等,0,2023-04-13,2023-04-11,株式会社Ｎ．アイ・エス・アイ,,株式会社,大阪府,守口市,大庭町１丁目６番２６号,,27,209,5700009,,,2023-04-11,合併による解散等,9010601014579,令和５年４月１日東京都墨田区緑一丁目２７番８号ナイガイ株式会社（9010601014579）に合併し解散,2015-10-05,1,,,,,エヌアイエスアイ,0
134,1122002003884,登記記録の閉鎖等,0,2023-04-13,2023-04-03,有限会社ひまわり,,有限会社,大阪府,東大阪市,岩田町３丁目１１番１号,,27,227,5780941,,,2023-04-03,合併による解散等,8122001014703,令和５年４月１日大阪府東大阪市岩田町三丁目１１番１号株式会社メディウエル（8122001014703）に合併し解散,2015-10-05,1,,,,,ヒマワリ,0
136,1130001041649,登記記録の閉鎖等,0,2023-04-13,2023-03-29,北都クレーンサービス株式会社,,株式会社,京都府,綾部市,青野町舘ノ後４２番地,,26,203,6230011,,,2023-03-29,清算の結了等,,,2015-10-05,1,,,,,ホクトクレーンサービス,0
141,1130005007200,登記記録の閉鎖等,0,2023-04-13,2023-04-04,萱野生産森林組合,,その他の設立登記法人,京都府,南丹市,美山町萱野堂ノ元２３番地の１,,26,213,6010771,,,2023-04-04,清算の結了等,,,2015-10-05,1,,,,,カヤノ,0
168,1180301026642,登記記録の閉鎖等,0,2023-04-13,2023-03-31,株式会社テクノセーブ,,株式会社,愛知県,豊田市,曙町３丁目４０番地,,23,211,4710835,,,2023-03-31,清算の結了等,,,2015-10-05,1,,,,,テクノセーブ,0
185,1210001001149,登記記録の閉鎖等,0,2023-04-13,2023-04-03,京福商事株式会社,,株式会社,福井県,福井市,日之出３丁目９番３号,,18,201,9100859,,,2023-04-03,合併による解散等,2210001001148,令和５年４月１日福井市日之出一丁目６番１４号株式会社京福コミュニティサービス（2210001001148）に合併し解散,2015-10-05,1,,,,,ケイフクショウジ,0
197,1260002005367,登記記録の閉鎖等,0,2023-04-13,2023-03-24,有限会社ステップニジュウイチ,,有限会社,岡山県,岡山市南区,築港元町１３番２３号,,33,104,7028051,,,2023-03-24,清算の結了等,,,2015-10-05,1,,,,,ステップニジュウイチ,0
198,1270002001654,登記記録の閉鎖等,0,2023-04-13,2023-04-04,有限会社西村電裝,,有限会社,鳥取県,鳥取市,扇町１４１番地,,31,201,6800846,,,2023-04-04,清算の結了等,,,2015-10-05,1,,,,,ニシムラデンソウ,0
220,1360001008947,登記記録の閉鎖等,0,2023-04-13,2023-04-03,株式会社大琉商事,,株式会社,沖縄県,宜野湾市,喜友名１丁目３０番３１号,,47,205,9012222,,,2023-04-03,合併による解散等,1360001012321,令和５年４月１日沖縄県宜野湾市喜友名一丁目３０番３１号株式会社大琉商事（1360001012321）に合併し解散,2015-10-05,1,,,,,ダイリュウショウジ,0
261,2010001206898,登記記録の閉鎖等,0,2023-04-13,2023-04-03,サニー・ホールディングス株式会社,,株式会社,東京都,千代田区,内神田２丁目３番６号,,13,101,1010047,,,2023-04-03,合併による解散等,2010001231112,令和５年４月１日東京都千代田区内神田二丁目３番６号サニー・リミテッド株式会社（2010001231112）に合併し解散,2020-01-22,1,,,,,サニーホールディングス,0
273,2010401009249,登記記録の閉鎖等,0,2023-04-13,2023-04-03,株式会社ケイ・ピー・アイ,,株式会社,東京都,中央区,日本橋堀留町１丁目１０番９号ログズ日本橋堀留ビル３階,,13,102,1030012,,,2023-04-03,合併による解散等,5010401009312,令和５年４月１日東京都中央区日本橋堀留町一丁目１０番９号ログズ日本橋堀留ビル３階株式会社ケイプロモーション（5010401009312）に合併し解散,2015-10-05,1,,,,,ケイピーアイ,0
294,2010901004567,登記記録の閉鎖等,0,2023-04-13,2023-04-07,サンケイ不動産株式会社,,株式会社,東京都,府中市,分梅町４丁目２番地の４,,13,206,1830033,,,2023-04-07,合併による解散等,4010901003930,令和５年３月３１日東京都世田谷区松原一丁目５７番１２号小泉機器工業株式会社（4010901003930）に合併し解散,2015-10-05,1,,,,,サンケイフドウサン,0
297,2011001006173,登記記録の閉鎖等,0,2023-04-13,2023-04-03,株式会社木村ビル,,株式会社,東京都,渋谷区,代々木２丁目１１番１２号,,13,113,1510053,,,2023-04-03,合併による解散等,8011001060181,令和５年４月１日東京都渋谷区代々木二丁目１１番１２号南新宿商事株式会社（8011001060181）に合併し解散,2015-10-05,1,,,,,キムラビル,0
304,2011001101726,登記記録の閉鎖等,0,2023-04-13,2023-04-05,株式会社ＧＲＥＥＮ　ＤＯＧ　ＳＴＯＲＥＳ,,株式会社,東京都,渋谷区,恵比寿西２丁目１９番９号,,13,113,1500021,,,2023-04-05,合併による解散等,6120001151205,令和５年３月３１日大阪府枚方市桜町９番１号株式会社ソウ・ツー（6120001151205）に合併し解散,2015-10-05,1,,,,,グリーンドッグストアーズ,0
323,2011602008188,登記記録の閉鎖等,0,2023-04-13,2023-04-07,株式会社ピーアンドピー,,株式会社,東京都,練馬区,貫井１丁目１番２号,,13,120,1760021,,,2023-04-07,合併による解散等,1410001002804,令和５年４月１日秋田市保戸野通町３番３１号株式会社サノ・ファーマシー（1410001002804）に合併し解散,2015-10-05,1,,,,,ピーアンドピー,0
325,2011801016462,登記記録の閉鎖等,0,2023-04-13,2023-04-07,株式会社協和メディカル,,株式会社,東京都,足立区,堀之内２丁目２番１０号,,13,121,1230874,,,2023-04-07,清算の結了等,,,2015-10-05,1,,,,,,0
331,2013401001679,登記記録の閉鎖等,0,2023-04-13,2023-04-03,株式会社和光,,株式会社,東京都,多摩市,落合１丁目９番地３,,13,224,2060033,,,2023-04-03,合併による解散等,7012401009240,令和５年４月１日東京都狛江市東和泉二丁目４番８号株式会社東都（7012401009240）に合併し解散,2015-10-05,1,,,,,ワコウ,0
338,2020002007477,登記記録の閉鎖等,0,2023-04-13,2023-04-04,旭食品有限会社,,有限会社,神奈川県,横浜市金沢区,六浦東３丁目２０番１１号,,14,108,2360037,,,2023-04-04,清算の結了等,,,2015-10-05,1,,,,,アサヒショクヒン,0
339,2020002026618,登記記録の閉鎖等,0,2023-04-13,2023-04-04,有限会社サニーハウジング,,有限会社,神奈川県,横浜市神奈川区,白幡向町２８番９号,,14,102,2210077,,,2023-04-04,清算の結了等,,,2015-10-05,1,,,,,サニーハウジング,0
348,2021001059468,登記記録の閉鎖等,0,2023-04-13,2023-04-03,株式会社ＧＲＯＷ,,株式会社,神奈川県,鎌倉市,由比ガ浜２丁目２番８号,,14,204,2480014,,,2023-04-03,合併による解散等,2021002014125,令和５年４月１日神奈川県厚木市中町三丁目５番１５号株式会社ＰＬＵＳ（2021002014125）に合併し解散,2016-06-06,1,,,,,グロウ,0
381,2050001018621,登記記録の閉鎖等,0,2023-04-13,2023-04-03,京三テックス株式会社,,株式会社,茨城県,古河市,西牛谷３９６番地の１,,08,204,3060233,,,2023-04-03,合併による解散等,9050001018648,令和５年４月１日茨城県古河市丘里１１番地３京三電機株式会社（9050001018648）に合併し解散,2015-10-05,1,,,,,キョウサンテックス,0
386,2060001006534,登記記録の閉鎖等,0,2023-04-13,2023-04-03,アルファ交通株式会社,,株式会社,栃木県,宇都宮市,大通り５丁目３番９号,,09,201,3200811,,,2023-04-03,清算の結了等,,,2015-10-05,1,,,,,アルファコウツウ,0
387,2060001027027,登記記録の閉鎖等,0,2023-04-13,2023-04-06,ＭＯＯＮＬＩＧＨＴ　ＴＲＡＤＥＲＳ株式会社,,株式会社,群馬県,邑楽郡邑楽町,大字中野字中川原３６５０－１,,10,525,3700603,,,2023-04-06,清算の結了等,,,2015-10-05,1,,,,,ムーンライトトレーダーズ,0
392,2070002011945,登記記録の閉鎖等,0,2023-04-13,2023-03-30,有限会社芳和,,有限会社,群馬県,高崎市,中豊岡町１８６番地２,,10,202,3700874,,,2023-03-30,清算の結了等,,,2015-10-05,1,,,,,ホウワ,0
395,2080401004895,登記記録の閉鎖等,0,2023-04-13,2023-04-10,株式会社ホンダカーズ静岡西,,株式会社,静岡県,浜松市東区,下石田町１７７８番地,,22,132,4350006,,,2023-04-10,合併による解散等,3180001068099,令和５年４月１日名古屋市中区千代田一丁目７番２号株式会社ホンダモビリティ中部（3180001068099）に合併し解散,2015-10-05,1,,,,,ホンダカーズシズオカニシ,0
408,2120001252634,登記記録の閉鎖等,0,2023-04-13,2023-04-05,株式会社柳不動産,,株式会社,大阪府,大阪市鶴見区,諸口３丁目１番１２号,,27,124,5380051,,,2023-04-05,清算の結了等,,,2023-02-22,1,,,,,ヤナギフドウサン,0
430,2140002005485,登記記録の閉鎖等,0,2023-04-13,2023-04-05,有限会社ロツキー,,有限会社,兵庫県,神戸市西区,平野町西戸田６７１番地の２,,28,111,6512267,,,2023-04-05,清算の結了等,,,2015-10-05,1,,,,,ロッキー,0
434,2160001009114,登記記録の閉鎖等,0,2023-04-13,2023-04-07,株式会社コーエイ建設,,株式会社,滋賀県,大津市,大門通３番１０号,,25,201,5200033,,,2023-04-07,清算の結了等,,,2015-10-05,1,,,,,コーエイケンセツ,0
448,2190001021719,登記記録の閉鎖等,0,2023-04-13,2023-04-03,株式会社マーク・ビジョン,,株式会社,三重県,鈴鹿市,南江島町１７番３２号,,24,207,5100235,,,2023-04-03,合併による解散等,6190001005255,令和５年４月１日三重県鈴鹿市南江島町１７番３２号株式会社カーゾック（6190001005255）に合併し解散,2015-10-05,1,,,,,マークビジョン,0
449,2200001040519,登記記録の閉鎖等,0,2023-04-13,2023-04-04,躍進企画株式会社,,株式会社,岐阜県,郡上市,高鷲町ひるがの４６７０番地の２８５１,,21,219,5015301,,,2023-04-04,清算の結了等,,,2022-11-07,1,,,,,ヤクシンキカク,0
453,2230002005930,登記記録の閉鎖等,0,2023-04-13,2023-04-11,有限会社渡辺オルソーシス,,有限会社,富山県,中新川郡上市町,上法音寺１２番地,,16,322,9300352,,,2023-04-11,清算の結了等,,,2015-10-05,1,,,,,ワタナベオルソーシス,0
471,2290801022476,登記記録の閉鎖等,0,2023-04-13,2023-04-10,株式会社ＫＬＣ九州,,株式会社,福岡県,北九州市門司区,新門司北２丁目５番地６,,40,101,8000113,,,2023-04-10,合併による解散等,7010601060600,令和５年４月１日東京都江東区木場一丁目５番６５号株式会社葛飾冷機センター（7010601060600）に合併し解散,2016-04-28,1,,,,,ケーエルシーキュウシュウ,0
492,2380001029932,登記記録の閉鎖等,0,2023-04-13,2023-04-07,株式会社ＥＰ,,株式会社,福島県,石川郡古殿町,大字松川字大作５０番地,,07,505,9638304,,,2023-04-07,清算の結了等,,,2019-04-15,1,,,,,イーピー,0
494,2380002000859,登記記録の閉鎖等,0,2023-04-13,2023-04-10,有限会社カトウ薬局,,有限会社,福島県,福島市,浜田町９番１４号,,07,201,9608107,,,2023-04-10,清算の結了等,,,2015-10-05,1,,,,,カトウヤッキョク,0
501,2420001016562,登記記録の閉鎖等,0,2023-04-13,2023-04-05,株式会社東研ブラスト,,株式会社,青森県,弘前市,大字末広１丁目５番地１,,02,202,0368085,,,2023-04-05,清算の結了等,,,2019-04-15,1,,,,,トウケンブラスト,0
534,3010001081829,登記記録の閉鎖等,0,2023-04-13,2023-04-03,ジンクエクセル株式会社,,株式会社,東京都,千代田区,外神田４丁目１４番１号,,13,101,1010021,,,2023-04-03,合併による解散等,6010001099182,令和５年４月１日東京都千代田区外神田四丁目１４番１号ＤＯＷＡメタルマイン株式会社（6010001099182）に合併し解散,2015-10-05,1,,,,,ジンクエクセル,0
538,3010001162257,登記記録の閉鎖等,0,2023-04-13,2023-04-03,Ｅｓｓｅｎｃｅ　Ｇｌｏｂａｌ　Ｊａｐａｎ株式会社,,株式会社,東京都,渋谷区,恵比寿４丁目２０番３号恵比寿ガーデンプレイスタワー３０階,,13,113,1500013,,,2023-04-03,合併による解散等,7011001032280,令和５年４月１日東京都渋谷区恵比寿四丁目２０番３号恵比寿ガーデンプレイスタワーグループエム・ジャパン株式会社（7011001032280）に合併し解散,2015-10-05,1,,,,,エッセンスグローバルジャパン,0
542,3010001214198,登記記録の閉鎖等,0,2023-04-13,2023-04-03,ＪＣ化工株式会社,,株式会社,東京都,中央区,日本橋本町３丁目２番１３号,,13,102,1030023,,,2023-04-03,合併による解散等,3010001076358,令和５年４月１日東京都中央区日本橋室町二丁目３番１号ジャパンコンポジット株式会社（3010001076358）に合併し解散,2020-12-04,1,,,,,ジェイシカコウ,0
559,3010405005400,登記記録の閉鎖等,0,2023-04-13,2023-03-31,特定非営利活動法人セルフメディケーション推進協議会,,その他の設立登記法人,東京都,港区,西新橋２丁目８番１１号,,13,103,1050003,,,2023-03-31,清算の結了等,,,2015-10-05,1,,,,,セルフメディケーションスイシンキョウギカイ,0
582,3011101046952,登記記録の閉鎖等,0,2023-04-13,2023-04-06,株式会社ＧＯＩＳ,,株式会社,東京都,練馬区,東大泉５丁目４１番１３－３０２号,,13,120,1780063,,,2023-04-06,清算の結了等,,,2015-10-05,1,,,,,ゴイス,0
597,3011701004748,登記記録の閉鎖等,0,2023-04-13,2023-04-05,大宝興産株式会社,,株式会社,東京都,江戸川区,東小岩１丁目１２番１１－１０３号,,13,123,1330052,,,2023-04-05,清算の結了等,,,2015-10-05,1,,,,,タイホウコウサン,0
599,3012401024425,登記記録の閉鎖等,0,2023-04-13,2023-04-03,株式会社東都不動産,,株式会社,東京都,狛江市,東和泉２丁目４番８号,,13,219,2010014,,,2023-04-03,合併による解散等,7012401009240,令和５年４月１日東京都狛江市東和泉二丁目４番８号株式会社東都（7012401009240）に合併し解散,2015-10-05,1,,,,,トウトフドウサン,0
601,3013301047177,登記記録の閉鎖等,0,2023-04-13,2023-04-04,株式会社ＰＡＬＳ,,株式会社,東京都,豊島区,南池袋２丁目９番１７号日神パレステージ南池袋第二３０３,,13,116,1710022,,,2023-04-04,清算の結了等,,,2021-03-24,1,,,,,パルス,0
604,3020001021701,登記記録の閉鎖等,0,2023-04-13,2023-04-04,細川精機株式会社,,株式会社,神奈川県,横浜市港北区,大豆戸町１１４６番地の３,,14,109,2220032,,,2023-04-04,清算の結了等,,,2015-10-05,1,,,,,ホソカワセイキ,0
606,3020001049577,登記記録の閉鎖等,0,2023-04-13,2023-04-04,株式会社忠英,,株式会社,神奈川県,横浜市港南区,東芹が谷１１番１６号,,14,111,2330005,,,2023-04-04,清算の結了等,,,2015-10-05,1,,,,,タダヒデ,0
609,3020001088658,登記記録の閉鎖等,0,2023-04-13,2023-04-04,株式会社三英,,株式会社,神奈川県,横浜市港南区,東芹が谷１１番１６号,,14,111,2330005,,,2023-04-04,清算の結了等,,,2015-10-05,1,,,,,,0
615,3021001056836,登記記録の閉鎖等,0,2023-04-13,2023-04-03,株式会社ｓｗｅｅｐ,,株式会社,神奈川県,相模原市南区,相模大野８丁目２番２号,,14,153,2520303,,,2023-04-03,合併による解散等,2021002014125,令和５年４月１日神奈川県厚木市中町三丁目５番１５号株式会社ＰＬＵＳ（2021002014125）に合併し解散,2015-10-05,1,,,,,スウィープ,0
653,3100001001117,登記記録の閉鎖等,0,2023-04-13,2023-04-03,株式会社法令ブックバインディング,,株式会社,長野県,長野市,中御所３丁目６番３０号,,20,201,3800935,,,2023-04-03,合併による解散等,7100001001798,令和５年４月１日長野市中御所三丁目６番２５号大日本法令印刷株式会社（7100001001798）に合併し解散,2015-10-05,1,,,,,ホウレイブックバインディング,0
658,3110005002119,登記記録の閉鎖等,0,2023-04-13,2023-04-03,味方商工会,,その他の設立登記法人,新潟県,新潟市南区,味方６８５番地１,,15,106,9501261,,,2023-04-03,合併による解散等,8110005002114,令和５年４月３日新潟県新潟市南区白根１２４０番地３新潟みなみ商工会（8110005002114）に合併し解散,2015-10-05,1,,,,,アジカタ,0
663,3120001058080,登記記録の閉鎖等,0,2023-04-13,2023-04-07,株式会社フジモト,,株式会社,大阪府,大阪市中央区,船場中央３丁目２番８号,,27,128,5410055,,,2023-04-07,清算の結了等,,,2015-10-05,1,,,,,フジモト,0
675,3120005014922,登記記録の閉鎖等,0,2023-04-13,2023-04-04,特定非営利活動法人稀少腫瘍研究会,,その他の設立登記法人,大阪府,大阪市中央区,谷町７丁目３番４号,,27,128,5420012,,,2023-04-04,清算の結了等,,,2015-10-05,1,,,,,キショウシュヨウケンキュウカイ,0
677,3120902001072,登記記録の閉鎖等,0,2023-04-13,2023-04-07,有限会社中部設計,,有限会社,大阪府,茨木市,白川２丁目４番５１号,,27,211,5670832,,,2023-04-07,清算の結了等,,,2015-10-05,1,,,,,チュウブセッケイ,0
691,3140001110104,登記記録の閉鎖等,0,2023-04-13,2023-04-07,タンバファーム株式会社,,株式会社,兵庫県,丹波市,柏原町北山３４２番地２,,28,223,6693313,,,2023-04-07,清算の結了等,,,2018-05-18,1,,,,,タンバファーム,0
717,3190001005407,登記記録の閉鎖等,0,2023-04-13,2023-04-03,株式会社三鈴緑化サービス,,株式会社,三重県,鈴鹿市,小社町字畔田８８５番地,,24,207,5190324,,,2023-04-03,合併による解散等,7190001027868,令和５年４月１日三重県鈴鹿市小社町７６７番地三鈴カントリー株式会社（7190001027868）に合併し解散,2015-10-05,1,,,,,ミスズリョッカサービス,0
720,3190002006890,登記記録の閉鎖等,0,2023-04-13,2023-04-04,有限会社初ひゞ起,,有限会社,三重県,鈴鹿市,神戸１丁目１１番２５号,,24,207,5130801,,,2023-04-04,清算の結了等,,,2015-10-05,1,,,,,ハツヒビキ,0
723,3210005005598,登記記録の閉鎖等,0,2023-04-13,2023-04-06,大野市木材協同組合,,その他の設立登記法人,福井県,大野市,中野第３号８番地１,,18,205,9120021,,,2023-04-06,清算の結了等,,,2015-10-05,1,,,,,オオノシモクザイ,0
724,3220001012036,登記記録の閉鎖等,0,2023-04-13,2023-04-10,株式会社三湖測量,,株式会社,石川県,小松市,波佐谷町ヲ２１９番地,,17,203,9230182,,,2023-04-10,清算の結了等,,,2015-10-05,1,,,,,サンコソクリョウ,0
725,3220001014668,登記記録の閉鎖等,0,2023-04-13,2023-04-12,株式会社トープロケミカル,,株式会社,石川県,小松市,国府台５丁目１８番地,,17,203,9230061,,,2023-04-12,合併による解散等,9011001016513,令和５年４月１日神奈川県藤沢市遠藤字北原２０１２番地４竹田東京プロセスサービス株式会社（9011001016513）に合併し解散,2015-10-05,1,,,,,トープロケミカル,0
740,3240002007017,登記記録の閉鎖等,0,2023-04-13,2023-04-07,有限会社サン電子,,有限会社,広島県,広島市西区,庚午北２丁目１１番２５号,,34,104,7330821,,,2023-04-07,清算の結了等,,,2015-10-05,1,,,,,サンデンシ,0
772,3350005001930,登記記録の閉鎖等,0,2023-04-13,2023-04-04,医療法人齊藤耳鼻咽喉科,,その他の設立登記法人,宮崎県,西都市,大字右松２２２１番地１,,45,208,8810003,,,2023-04-04,清算の結了等,,,2015-10-05,1,,,,,サイトウジビインコウカイイン,0
793,3460102001780,登記記録の閉鎖等,0,2023-04-13,2023-04-07,有限会社泰信企画,,有限会社,北海道,帯広市,東五条南１６丁目３番地,,01,207,0800805,,,2023-04-07,清算の結了等,,,2015-10-05,1,,,,,タイシンキカク,0
794,3460301000815,登記記録の閉鎖等,0,2023-04-13,2023-04-07,株式会社長谷川建材,,株式会社,北海道,北見市,大通東８丁目１４番地,,01,208,0900020,,,2023-04-07,合併による解散等,6370001019658,令和５年４月１日仙台市宮城野区仙台港北一丁目６番地の１８株式会社ブルケン東日本（6370001019658）に合併し解散,2015-10-05,1,,,,,ハセガワケンザイ,0
797,3480001000411,登記記録の閉鎖等,0,2023-04-13,2023-04-12,偕楽園観光株式会社,,株式会社,徳島県,徳島市,伊賀町１丁目８番地,,36,201,7700926,,,2023-04-12,清算の結了等,,,2015-10-05,1,,,,,カイラクエンカンコウ,0
798,3480001005856,登記記録の閉鎖等,0,2023-04-13,2023-04-11,天恵牧場株式会社,,株式会社,徳島県,板野郡藍住町,勝瑞字西勝地２６２番地５,,36,403,7711270,,,2023-04-11,清算の結了等,,,2015-10-05,1,,,,,アマエボクジョウ,0
809,4010001132911,登記記録の閉鎖等,0,2023-04-13,2023-04-03,株式会社ザイマックスウィズ,,株式会社,東京都,港区,赤坂１丁目１番１号,,13,103,1070052,,,2023-04-03,合併による解散等,2010401072742,令和５年４月１日東京都港区赤坂一丁目１番１号株式会社ザイマックス（2010401072742）に合併し解散,2015-10-05,1,,,,,ザイマックスウィズ,0
831,4010401130548,登記記録の閉鎖等,0,2023-04-13,2023-04-10,株式会社ワイラボジャパン,,株式会社,東京都,新宿区,四谷１丁目６番１号２１Ｆ２１０１区,,13,104,1600004,,,2023-04-10,清算の結了等,,,2017-03-31,1,,,,,ワイラボジャパン,0
832,4010401131265,登記記録の閉鎖等,0,2023-04-13,2023-04-10,株式会社サトミホースカンパニー,,株式会社,東京都,品川区,西品川１丁目１番１号住友不動産大崎ガーデンタワー８階,,13,109,1410033,,,2023-04-10,合併による解散等,1011403002564,令和５年４月１日東京都板橋区双葉町３１番７号合同会社サトノエステート神谷町（1011403002564）に合併し解散,2017-05-11,1,,,,,サトミホースカンパニー,0
858,4011101095255,登記記録の閉鎖等,0,2023-04-13,2023-04-10,サマルカンドグローバル日本株式会社,,株式会社,東京都,新宿区,新宿２丁目２－１０－６０５,,13,104,1600022,,,2023-04-10,清算の結了等,,,2021-05-31,1,,,,,サマルカンドグローバルニッポン,0
873,4011602002536,登記記録の閉鎖等,0,2023-04-13,2023-04-05,有限会社笠利商会,,有限会社,東京都,練馬区,平和台３丁目１番１６号,,13,120,1790083,,,2023-04-05,清算の結了等,,,2015-10-05,1,,,,,カサリショウカイ,0
881,4011801006924,登記記録の閉鎖等,0,2023-04-13,2023-04-10,株式会社葛飾冷機センター,,株式会社,東京都,足立区,東六月町１番６号,,13,121,1210071,,,2023-04-10,合併による解散等,7010601060600,令和５年４月１日東京都江東区木場一丁目５番６５号株式会社葛飾冷機センター（7010601060600）に合併し解散,2015-10-05,1,,,,,カツシカレイキセンター,0
912,4021001039245,登記記録の閉鎖等,0,2023-04-13,2023-04-05,株式会社ケーエム企画,,株式会社,神奈川県,平塚市,代官町３５－１８平塚ダイカンプラザ５０１号,,14,203,2540807,,,2023-04-05,合併による解散等,4021001056892,令和５年４月１日神奈川県平塚市岡崎３１６８番１株式会社ケーティー企画（4021001056892）に合併し解散,2015-10-05,1,,,,,ケーエムキカク,0
925,4030002045846,登記記録の閉鎖等,0,2023-04-13,2023-04-10,有限会社丸高ストアー,,有限会社,東京都,葛飾区,お花茶屋２丁目３番２号,,13,122,1240003,,,2023-04-10,清算の結了等,,,2015-10-05,1,,,,,マルタカストアー,0
928,4040001003440,登記記録の閉鎖等,0,2023-04-13,2023-04-04,株式会社白井製麺工場,00018777,株式会社,千葉県,千葉市中央区,今井１丁目１番１０号,,12,101,2600834,,,2023-04-04,清算の結了等,,,2015-10-05,1,,,,,シライセイメンコウジョウ,0
930,4040002061990,登記記録の閉鎖等,0,2023-04-13,2023-04-04,有限会社大鷹,,有限会社,千葉県,四街道市,吉岡３１７番地,,12,228,2840032,,,2023-04-04,清算の結了等,,,2015-10-05,1,,,,,オオタカ,0
933,4050002016548,登記記録の閉鎖等,0,2023-04-13,2023-04-05,有限会社メイホウ,,有限会社,茨城県,石岡市,柏原１番地５,,08,205,3150002,,,2023-04-05,清算の結了等,,,2015-10-05,1,,,,,メイホウ,0
936,4060002004279,登記記録の閉鎖等,0,2023-04-13,2023-03-31,有限会社栄屋,,有限会社,栃木県,宇都宮市,上戸祭４丁目９番６号,,09,201,3200058,,,2023-03-31,清算の結了等,,,2015-10-05,1,,,,,サカエヤ,0
942,4070005002394,登記記録の閉鎖等,0,2023-04-13,2023-03-31,学校法人中央総合学園,,その他の設立登記法人,群馬県,高崎市,栄町１３番地１,,10,202,3700841,,,2023-03-31,合併による解散等,7070005000800,令和５年３月３１日群馬県前橋市古市町一丁目４９番地４学校法人有坂中央学園（7070005000800）に合併し解散,2015-10-05,1,,,,,チュウオウソウゴウガクエン,0
946,4080402013670,登記記録の閉鎖等,0,2023-04-13,2023-04-10,有限会社イープレス,,有限会社,静岡県,浜松市東区,小池町１５番地,,22,132,4350056,,,2023-04-10,清算の結了等,,,2015-10-05,1,,,,,イープレス,0
950,4100001005323,登記記録の閉鎖等,0,2023-04-13,2023-04-03,株式会社ロゴスデザイン,,株式会社,長野県,長野市,新田町１４６４番地,,20,201,3810000,,,2023-04-03,合併による解散等,6100001002137,令和５年４月１日長野市新田町１４６４番地東邦建工株式会社（6100001002137）に合併し解散,2015-10-05,1,,,,,ロゴスデザイン,0
957,4110005002118,登記記録の閉鎖等,0,2023-04-13,2023-04-03,月潟商工会,,その他の設立登記法人,新潟県,新潟市南区,大別當２６６８番地,,15,106,9501305,,,2023-04-03,合併による解散等,8110005002114,令和５年４月３日新潟県新潟市南区白根１２４０番地３新潟みなみ商工会（8110005002114）に合併し解散,2015-10-05,1,,,,,ツキガタ,0
958,4110005014014,登記記録の閉鎖等,0,2023-04-13,2023-04-03,赤泊商工会,,その他の設立登記法人,新潟県,佐渡市,赤泊１８９番地,,15,224,9520711,,,2023-04-03,合併による解散等,3110005014015,令和５年４月３日新潟県佐渡市羽茂本郷６７３番地１羽茂商工会（3110005014015）に合併し解散,2015-10-05,1,,,,,アカドマリ,0
986,4130002029467,登記記録の閉鎖等,0,2023-04-13,2023-04-03,有限会社吉左右,,有限会社,京都府,亀岡市,＿田野町柿花宮ノ奥１番地,00037892,26,206,6210036,,,2023-04-03,合併による解散等,4130001035623,令和５年４月１日京都府亀岡市＿田野町芦ノ山流田１番地の４株式会社松園莊（4130001035623）に合併し解散,2015-10-05,1,,,,,キッソウ,0
990,4140001028551,登記記録の閉鎖等,0,2023-04-13,2023-04-11,株式会社ダイヘンテクノサポート,,株式会社,兵庫県,神戸市東灘区,向洋町西４丁目１番地,,28,101,6580033,,,2023-04-11,合併による解散等,6120001056461,令和５年４月１日大阪市淀川区田川二丁目１番１１号株式会社ダイヘン（6120001056461）に合併し解散,2015-10-05,1,,,,,ダイヘンテクノサポート,0
1004,4180001093773,登記記録の閉鎖等,0,2023-04-13,2023-04-03,株式会社トップ教育センター,,株式会社,愛知県,半田市,一ノ草町２１０番地の４,,23,205,4750061,,,2023-04-03,合併による解散等,9180001135389,令和５年４月１日愛知県半田市一ノ草町２１０番地の４株式会社トップ教育センター（9180001135389）に合併し解散,2015-10-05,1,,,,,トップキョウイクセンター,0
1005,4180001097196,登記記録の閉鎖等,0,2023-04-13,2023-04-10,ナゴヤウエル株式会社,,株式会社,愛知県,愛西市,善太新田町大前１１８番地,,23,232,4960924,,,2023-04-10,合併による解散等,8122001020065,令和５年４月１日大阪府八尾市老原四丁目１５３番地マツモト機械株式会社（8122001020065）に合併し解散,2015-10-05,1,,,,,ナゴヤウエル,0
1012,4180002086974,登記記録の閉鎖等,0,2023-04-13,2023-04-03,有限会社ヒカリドリーム,,有限会社,愛知県,知多郡東浦町,大字森岡字前田１５番地の１１,,23,442,4702101,,,2023-04-03,合併による解散等,4180001100513,令和５年４月１日愛知県半田市大池町一丁目３６番地株式会社Ｐ＆Ｋホールディングス（4180001100513）に合併し解散,2015-10-05,1,,,,,ヒカリドリーム,0
1019,4180302018438,登記記録の閉鎖等,0,2023-04-13,2023-03-31,有限会社すずや,,有限会社,愛知県,刈谷市,銀座６丁目３７番地,,23,210,4480845,,,2023-03-31,清算の結了等,,,2015-10-05,1,,,,,スズヤ,0
1021,4190001000051,登記記録の閉鎖等,0,2023-04-13,2023-04-12,株式会社村田工務店,,株式会社,三重県,津市,修成町１１番１２号,,24,201,5140837,,,2023-04-12,清算の結了等,,,2015-10-05,1,,,,,ムラタコウムテン,0
1029,4230001007133,登記記録の閉鎖等,0,2023-04-13,2023-04-11,株式会社東装,,株式会社,富山県,魚津市,本江１４６２番地の１５,,16,204,9370805,,,2023-04-11,清算の結了等,,,2015-10-05,1,,,,,トウソウ,0
1032,4240002011612,登記記録の閉鎖等,0,2023-04-13,2023-04-10,有限会社中尾商店,,有限会社,広島県,広島市中区,袋町７番１８号,,34,101,7300036,,,2023-04-10,清算の結了等,,,2015-10-05,1,,,,,ナカオショウテン,0
1033,4240002031726,登記記録の閉鎖等,0,2023-04-13,2023-04-10,有限会社十甲瓦商会,,有限会社,広島県,庄原市,東城町川西７６０番地の２,,34,210,7295125,,,2023-04-10,清算の結了等,,,2015-10-05,1,,,,,トウコウカワラショウカイ,0
1037,4270005000106,登記記録の閉鎖等,0,2023-04-13,2023-04-10,医療法人水本クリニック,,その他の設立登記法人,鳥取県,鳥取市,徳尾４０５番地１１,,31,201,6800934,,,2023-04-10,清算の結了等,,,2015-10-05,1,,,,,,0
1041,4290001091964,登記記録の閉鎖等,0,2023-04-13,2023-04-06,株式会社ランプロ,,株式会社,福岡県,福岡市南区,野多目１丁目１０番２１－１０５号,,40,134,8111347,,,2023-04-06,清算の結了等,,,2021-02-12,1,,,,,ランプロ,0
1043,4290003013462,登記記録の閉鎖等,0,2023-04-13,2023-04-04,合同会社Ｓｅｒｅｎｄｉｐｉｔｏｕｓ,,合同会社,福岡県,久留米市,中央町３５－１－１０５,,40,203,8300023,,,2023-04-04,清算の結了等,,,2023-01-27,1,,,,,セレンデピタス,0
1063,4370001013456,登記記録の閉鎖等,0,2023-04-13,2023-04-10,株式会社ＫＬＣ仙台,,株式会社,宮城県,仙台市若林区,卸町東１丁目１番１７号,,04,103,9840002,,,2023-04-10,合併による解散等,7010601060600,令和５年４月１日東京都江東区木場一丁目５番６５号株式会社葛飾冷機センター（7010601060600）に合併し解散,2015-10-05,1,,,,,ケーエルシーセンダイ,0
1071,4370301000055,登記記録の閉鎖等,0,2023-04-13,2023-04-04,株式会社アイメイト,,株式会社,宮城県,石巻市,南光町２丁目２番１号,,04,202,9860836,,,2023-04-04,合併による解散等,1370301000124,令和５年４月１日宮城県石巻市南光町二丁目２番１号石巻エヌピーサポート株式会社（1370301000124）に合併し解散,2015-10-05,1,,,,,ニホンセイシイシノマキサポート,0
1083,4430001019843,登記記録の閉鎖等,0,2023-04-13,2023-04-03,エスケーフーズ株式会社,,株式会社,東京都,品川区,大崎１丁目１番１－２２０４号,,13,109,1410032,,,2023-04-03,清算の結了等,,,2015-10-05,1,,,,,エスケーフーズ,0
1101,5010001095901,登記記録の閉鎖等,0,2023-04-13,2023-04-03,モントレックス株式会社,,株式会社,東京都,中央区,日本橋茅場町２丁目８番１号,,13,102,1030025,,,2023-04-03,合併による解散等,9010001126801,令和５年４月１日東京都中央区日本橋茅場町二丁目８番１号株式会社アイフロー（9010001126801）に合併し解散,2015-10-05,1,,,,,モントレックス,0
1105,5010001136705,登記記録の閉鎖等,0,2023-04-13,2023-04-03,キャピタルソリューション株式会社,,株式会社,東京都,千代田区,丸の内１丁目８番１号丸の内トラストタワーＮ館,,13,101,1000005,,,2023-04-03,合併による解散等,1011302012177,令和５年４月１日東京都千代田区丸の内一丁目８番１号丸の内トラストタワーＮ館山田インベストメント株式会社（1011302012177）に合併し解散,2015-10-05,1,,,,,キャピタルソリューション,0
1108,5010001167386,登記記録の閉鎖等,0,2023-04-13,2023-04-10,株式会社５１コラボレーションズ,,株式会社,東京都,港区,芝４丁目５番１０号８階,,13,103,1080014,,,2023-04-10,合併による解散等,3080101012990,令和５年４月１日静岡県熱海市西山町１９番６号株式会社本物研究所（3080101012990）に合併し解散,2015-10-05,1,,,,,フィフティーワンコラボレーションズ,0
1109,5010001186849,登記記録の閉鎖等,0,2023-04-13,2023-04-10,株式会社スタック,,株式会社,神奈川県,横浜市港北区,新横浜３丁目２３番地３,,14,109,2220033,,,2023-04-10,合併による解散等,5010901049295,令和５年４月１日東京都世田谷区駒沢１－２－３３駒沢ガーデンハウスＡ３０４株式会社スタック（5010901049295）に合併し解散,2017-10-13,1,,,,,スタック,0
1110,5010001203125,登記記録の閉鎖等,0,2023-04-13,2023-04-03,日本未来創造サポート株式会社,,株式会社,埼玉県,さいたま市浦和区,前地３丁目１４番３－１３０３号,,11,107,3300053,,,2023-04-03,清算の結了等,,,2019-08-13,1,,,,,ニホンミライソウゾウサポート,0
1120,5010401067302,登記記録の閉鎖等,0,2023-04-13,2023-03-30,ＭＰＬＣジャパン株式会社,,株式会社,東京都,港区,虎ノ門４丁目３番１号城山トラストタワー東京赤坂法律事務所内,,13,103,1050001,,,2023-03-30,清算の結了等,,,2015-10-05,1,,,,,エムピーエルシージャパン,0
1131,5010503004789,登記記録の閉鎖等,0,2023-04-13,2023-04-07,合同会社Ｂｅｇｉｎｎｉｎｇ,,合同会社,東京都,葛飾区,新宿３丁目３１－９ラピーヌ高砂１０２,,13,122,1250051,,,2023-04-07,清算の結了等,,,2016-10-06,1,,,,,ビギニング,0
1141,5010801030099,登記記録の閉鎖等,0,2023-04-13,2023-04-03,株式会社プレコヒューマ,,株式会社,東京都,大田区,北千束１丁目３番５号,,13,111,1450062,,,2023-04-03,合併による解散等,5010801013582,令和５年４月１日東京都大田区北千束一丁目３番５号株式会社プレコフーズ（5010801013582）に合併し解散,2019-08-08,1,,,,,プレコヒューマ,0
1151,5011001035681,登記記録の閉鎖等,0,2023-04-13,2023-04-07,株式会社ミエ・エファップ・ジャポン,,株式会社,東京都,渋谷区,恵比寿２丁目３６番１３号,,13,113,1500013,,,2023-04-07,清算の結了等,,,2015-10-05,1,,,,,ミエエファップジャポン,0
1164,5011301001862,登記記録の閉鎖等,0,2023-04-13,2023-04-05,九管エンジニアリング株式会社,,株式会社,東京都,杉並区,和泉４丁目３７番９号,,13,115,1680063,,,2023-04-05,清算の結了等,,,2015-10-05,1,,,,,キュウカンエンジニアリング,0
1191,5020001119618,登記記録の閉鎖等,0,2023-04-13,2023-04-04,株式会社横浜デザイン,,株式会社,神奈川県,横浜市西区,北幸１丁目１１番地１号水信ビル７階,,14,103,2200004,,,2023-04-04,清算の結了等,,,2017-01-24,1,,,,,,0
1210,5030001050573,登記記録の閉鎖等,0,2023-04-13,2023-04-03,株式会社アドバンス・マザー・ファクトリー,,株式会社,埼玉県,新座市,大和田２丁目１番３９号,,11,230,3520004,,,2023-04-03,合併による解散等,3030001045195,令和５年４月１日埼玉県新座市大和田二丁目１番３９号株式会社アドバンス（3030001045195）に合併し解散,2015-10-05,1,,,,,アドバンスマザーファクトリー,0
1221,5060001034086,登記記録の閉鎖等,0,2023-04-13,2023-04-03,株式会社エスアールコーポレーション,,株式会社,栃木県,小山市,中央町３丁目３番１０号ロブレ６３２・１階Ｂ－１１２Ｗ,,09,208,3230023,,,2023-04-03,清算の結了等,,,2021-09-13,1,,,,,エスアールコーポレーション,0
1229,5100001002501,登記記録の閉鎖等,0,2023-04-13,2023-04-03,株式会社長野バスターミナル,,株式会社,長野県,長野市,大字中御所字岡田１７８番地２,,20,201,3800935,,,2023-04-03,合併による解散等,7100001001955,令和５年４月１日長野市岡田町１７８番地２株式会社長栄（7100001001955）に合併し解散,2015-10-05,1,,,,,ナガノバスターミナル,0
1230,5100001017879,登記記録の閉鎖等,0,2023-04-13,2023-04-03,株式会社ウッドアール・オークワ,,株式会社,長野県,木曽郡大桑村,大字須原１２２９番地１,,20,430,3995502,,,2023-04-03,合併による解散等,7100001017497,令和５年４月３日長野県北安曇郡池田町大字会染６１２４番地３７株式会社フォレスト（7100001017497）に合併し解散,2015-10-05,1,,,,,ウッドアールオークワ,0
1232,5110002002227,登記記録の閉鎖等,0,2023-04-13,2023-04-06,有限会社小林青果,,有限会社,新潟県,新潟市中央区,白山浦１丁目３６４番地,,15,103,9518131,,,2023-04-06,清算の結了等,,,2015-10-05,1,,,,,コバヤシセイカ,0
1245,5120002022455,登記記録の閉鎖等,0,2023-04-13,2023-04-07,有限会社寺正ネジ,,有限会社,大阪府,大阪市西区,九条南４丁目２１番１０号,,27,106,5500025,,,2023-04-07,清算の結了等,,,2015-10-05,1,,,,,テラショウネジ,0
1258,5140001092217,登記記録の閉鎖等,0,2023-04-13,2023-04-10,株式会社アシャイン,,株式会社,兵庫県,神戸市東灘区,甲南町１丁目１番４１－５１２号,,28,101,6580084,,,2023-04-10,清算の結了等,,,2015-10-05,1,,,,,アシャイン,0
1269,5140003011067,登記記録の閉鎖等,0,2023-04-13,2023-04-07,堀井空調合同会社,,合同会社,兵庫県,姫路市,下手野１丁目２番１０号,,28,201,6700063,,,2023-04-07,清算の結了等,,,2015-11-30,1,,,,,ホリイクウチョウ,0
1273,5140005017293,登記記録の閉鎖等,0,2023-04-13,2023-04-10,医療法人社団久枝歯科医院,,その他の設立登記法人,兵庫県,加西市,北条町古坂２丁目１６０番地,,28,220,6752303,,,2023-04-10,清算の結了等,,,2015-10-05,1,,,,,ヒサエダシカイイン,0
1277,5180001121962,登記記録の閉鎖等,0,2023-04-13,2023-04-07,株式会社海光,,株式会社,愛知県,名古屋市千種区,振甫町１丁目５７番地の２,,23,101,4640072,,,2023-04-07,清算の結了等,,,2016-02-01,1,,,,,カイコウ,0
1281,5180301007952,登記記録の閉鎖等,0,2023-04-13,2023-03-31,豊橋加周木材株式会社,,株式会社,愛知県,豊橋市,高洲町字大江４３番地,,23,201,4418006,,,2023-03-31,清算の結了等,,,2015-10-05,1,,,,,トヨハシカシュウモクザイ,0
1282,5180301018248,登記記録の閉鎖等,0,2023-04-13,2023-03-31,株式会社近藤合金鋳造所,,株式会社,愛知県,豊田市,和会町石亀５１番地,,23,211,4701216,,,2023-03-31,清算の結了等,,,2015-10-05,1,,,,,コンドウゴウキンチュウゾウジョ,0
1316,5330002019513,登記記録の閉鎖等,0,2023-04-13,2023-04-04,有限会社信総業,,有限会社,熊本県,熊本市北区,植木町岩野２６６番地２２,,43,105,8610136,,,2023-04-04,清算の結了等,,,2015-10-05,1,,,,,マコトソウギョウ,0
1317,5330005009197,登記記録の閉鎖等,0,2023-04-13,2023-04-04,農事組合法人みらい,,その他の設立登記法人,熊本県,球磨郡あさぎり町,上西３０９５番地７,,43,514,8680424,,,2023-04-04,清算の結了等,,,2015-10-05,1,,,,,ミライ,0
1328,5360002014552,登記記録の閉鎖等,0,2023-04-13,2023-04-10,イースト・ウエスト・エンタープライズ有限会社,,有限会社,沖縄県,中頭郡北中城村,字屋宜原８８４番地,,47,327,9012304,,,2023-04-10,合併による解散等,1360002015819,令和５年４月１０日沖縄県南城市玉城字百名７０７番地サザン・リーフ・ディベロップメント株式会社（1360002015819）に合併し解散,2015-10-05,1,,,,,イーストウエストエンタープライズ,0
1338,5400001015308,登記記録の閉鎖等,0,2023-04-13,2023-04-03,株式会社リンケージ,,株式会社,岩手県,盛岡市,安倍館町１６番２７号,,03,201,0200126,,,2023-04-03,清算の結了等,,,2021-02-03,1,,,,,リンケージ,0
1339,5400005008258,登記記録の閉鎖等,0,2023-04-13,2023-04-03,一般社団法人信成会,,その他の設立登記法人,岩手県,紫波郡矢巾町,大字煙山第２地割１３１番地,,03,322,0283623,,,2023-04-03,清算の結了等,,,2022-08-02,1,,,,,シンセイカイ,0
1374,6010001192359,登記記録の閉鎖等,0,2023-04-13,2023-04-03,中央シェル石油販売株式会社,,株式会社,東京都,文京区,本郷２丁目１５番１３号,,13,105,1130033,,,2023-04-03,合併による解散等,2010001126403,令和５年４月１日東京都中央区新富一丁目１８番８号出光リテール販売株式会社（2010001126403）に合併し解散,2018-06-07,1,,,,,チュオウシェルセキユハンバイ,0
1398,6010601057135,登記記録の閉鎖等,0,2023-04-13,2023-04-10,株式会社Ｄ‐Ｆｒｉｅｎｄｓ,,株式会社,東京都,台東区,松が谷３丁目２０－１４－３０１号,,13,106,1110036,,,2023-04-10,清算の結了等,,,2020-04-03,1,,,,,ディーフレンズ,0
1400,6010701007428,登記記録の閉鎖等,0,2023-04-13,2023-04-03,日比貿易株式会社,,株式会社,東京都,品川区,西五反田３丁目９番２３号,,13,109,1410031,,,2023-04-03,合併による解散等,4010701008469,令和５年４月１日東京都品川区西五反田三丁目９番２３号富士フルーツ株式会社（4010701008469）に合併し解散,2015-10-05,1,,,,,ニッピボウエキ,0
1404,6010801030701,登記記録の閉鎖等,0,2023-04-13,2023-04-03,株式会社ソアリン,,株式会社,東京都,大田区,田園調布３丁目２２番１３号,,13,111,1450071,,,2023-04-03,合併による解散等,3010801021067,令和５年４月１日東京都大田区田園調布三丁目２２番１３号株式会社アプリシエ（3010801021067）に合併し解散,2020-03-10,1,,,,,ソアリン,0
1410,6011001133427,登記記録の閉鎖等,0,2023-04-13,2023-04-04,ベンチャートナー株式会社,,株式会社,東京都,目黒区,目黒１丁目４番１６号目黒Ｇビル７階,,13,110,1530063,,,2023-04-04,清算の結了等,,,2020-04-28,1,,,,,ベンチャートナー,0
1411,6011001136611,登記記録の閉鎖等,0,2023-04-13,2023-04-04,株式会社西岡商事,,株式会社,東京都,渋谷区,道玄坂１丁目１６番１５号,,13,113,1500043,,,2023-04-04,清算の結了等,,,2020-10-28,1,,,,,ニシオカショウジ,0
1428,6011301021133,登記記録の閉鎖等,0,2023-04-13,2023-04-05,株式会社安藝,,株式会社,東京都,杉並区,下高井戸４丁目９番８号,,13,115,1680073,,,2023-04-05,清算の結了等,,,2015-10-05,1,,,,,アキ,0
1440,6011703002912,登記記録の閉鎖等,0,2023-04-13,2023-04-05,信頼デジ合同会社,,合同会社,東京都,江戸川区,東小松川４丁目５４番８－３０７号,,13,123,1320033,,,2023-04-05,清算の結了等,,,2021-08-05,1,,,,,シンライデジ,0
1445,6013301019231,登記記録の閉鎖等,0,2023-04-13,2023-04-11,ビジネスエキスパート株式会社,,株式会社,東京都,豊島区,東池袋３丁目１６番３号,,13,116,1700013,,,2023-04-11,合併による解散等,3010401019619,令和５年４月１日東京都港区赤坂一丁目８番１号株式会社ドコモＣＳ（3010401019619）に合併し解散,2015-10-05,1,,,,,ビジネスエキスパート,0
1447,6013303005106,登記記録の閉鎖等,0,2023-04-13,2023-04-04,ｎｉｎｅ　ｓｔａｔｅｓ合同会社,,合同会社,東京都,豊島区,長崎１丁目２４番１２号,,13,116,1710051,,,2023-04-04,清算の結了等,,,2020-05-08,1,,,,,ナインステイツ,0
1467,6030005018104,登記記録の閉鎖等,0,2023-04-13,2023-04-03,農事組合法人大豆戸,,その他の設立登記法人,埼玉県,比企郡鳩山町,大字大豆戸４６番地,,11,348,3500324,,,2023-04-03,清算の結了等,,,2016-08-25,1,,,,,マメド,0
1473,6050001029227,登記記録の閉鎖等,0,2023-04-13,2023-04-04,株式会社都ホーム,,株式会社,茨城県,取手市,長兵衛新田２２１番地,,08,217,3020002,,,2023-04-04,清算の結了等,,,2015-10-05,1,,,,,ミヤコホーム,0
1476,6050002027519,登記記録の閉鎖等,0,2023-04-13,2023-04-03,有限会社都路,,有限会社,茨城県,神栖市,大野原３丁目１１番１５号,,08,232,3140144,,,2023-04-03,合併による解散等,9050001020414,令和５年４月１日茨城県神栖市大野原三丁目１１番１５号株式会社安達組（9050001020414）に合併し解散,2015-10-05,1,,,,,ミヤジ,0
1483,6070001027807,登記記録の閉鎖等,0,2023-04-13,2023-04-05,株式会社Ｆ．Ａ．Ｃ．,,株式会社,群馬県,桐生市,川内町２丁目５番地の２,,10,203,3760041,,,2023-04-05,清算の結了等,,,2015-10-05,1,,,,,エフエーシー,0
1491,6080401012250,登記記録の閉鎖等,0,2023-04-13,2023-04-12,株式会社パッション．Ｍ,,株式会社,静岡県,浜松市中区,葵東１丁目４番１８号,,22,131,4338114,,,2023-04-12,清算の結了等,,,2015-10-05,1,,,,,,0
1499,6120001121216,登記記録の閉鎖等,0,2023-04-13,2023-04-06,株式会社ライティング,,株式会社,大阪府,大阪市天王寺区,小橋町２番２４号,,27,109,5430028,,,2023-04-06,清算の結了等,,,2015-10-05,1,,,,,ライティング,0
1514,6120005000127,登記記録の閉鎖等,0,2023-04-13,2023-04-10,天理教郷寶分教会,,その他の設立登記法人,大阪府,大阪市福島区,大開１丁目１２番１５号,,27,103,5530007,,,2023-04-10,合併による解散等,4120005000104,令和５年４月１０日大阪市都島区都島北通二丁目１０番３１号天理教上庄分教会（4120005000104）に合併し解散,2015-10-05,1,,,,,テンリキョウサトタカラブンキョウカイ,0
1526,6122001015422,登記記録の閉鎖等,0,2023-04-13,2023-04-03,株式会社三黄機械製作所,,株式会社,大阪府,大東市,諸福５丁目１番７号,,27,218,5740044,,,2023-04-03,合併による解散等,6122001008351,令和５年４月１日大阪府東大阪市高井田中三丁目６番２号株式会社大阪空気機械製作所（6122001008351）に合併し解散,2015-10-05,1,,,,,サンコウキカイセイサクショ,0
1534,6140001076978,登記記録の閉鎖等,0,2023-04-13,2023-04-11,関西ヘキサケミカル株式会社,,株式会社,兵庫県,西脇市,中畑町字東山１４７９番地４５,,28,213,6770032,,,2023-04-11,合併による解散等,7122001006511,令和５年４月１日大阪府東大阪市横枕西１０番３０号株式会社ヘキサケミカル（7122001006511）に合併し解散,2015-10-05,1,,,,,カンサイヘキサケミカル,0
1539,6160005009957,登記記録の閉鎖等,0,2023-04-13,2023-04-10,一般社団法人滋賀県任意売却再生支援センター,,その他の設立登記法人,滋賀県,大津市,松本１丁目４番２０号,,25,201,5200807,,,2023-04-10,清算の結了等,,,2015-10-05,1,,,,,シガケンニンイバイキャクサイセイシエンセンター,0
1559,6200002011234,登記記録の閉鎖等,0,2023-04-13,2023-04-06,有限会社松尾商会,,有限会社,岐阜県,羽島郡岐南町,八剣北７丁目６１番地,,21,302,5016011,,,2023-04-06,清算の結了等,,,2015-10-05,1,,,,,マツオショウカイ,0
1566,6220002002223,登記記録の閉鎖等,0,2023-04-13,2023-04-11,有限会社木村合金,,有限会社,石川県,金沢市,湊２丁目３８番地,,17,201,9200211,,,2023-04-11,清算の結了等,,,2015-10-05,1,,,,,キムラゴウキン,0
1572,6240002030239,登記記録の閉鎖等,0,2023-04-13,2023-04-10,中廣鉄工有限会社,00001072,有限会社,広島県,三次市,畠敷町２１３番地の１,,34,209,7280006,,,2023-04-10,清算の結了等,,,2015-10-05,1,,,,,ナカヒロテッコウ,0
1587,6290802003249,登記記録の閉鎖等,0,2023-04-13,2023-04-07,有限会社しのはら電化,,有限会社,福岡県,北九州市戸畑区,千防２丁目６番２９号,,40,105,8040081,,,2023-04-07,清算の結了等,,,2015-10-05,1,,,,,シノハラデンカ,0
1594,6340002023125,登記記録の閉鎖等,0,2023-04-13,2023-04-11,有限会社三陽建設,,有限会社,鹿児島県,出水市,武本３１４２番地２５,,46,208,8990215,,,2023-04-11,清算の結了等,,,2015-10-05,1,,,,,サンヨウケンセツ,0
1613,6430001059160,登記記録の閉鎖等,0,2023-04-13,2023-04-04,株式会社グライコテクニカ,,株式会社,神奈川県,横浜市青葉区,美しが丘５丁目２８番地６平野ビル３－１０１,,14,117,2250002,,,2023-04-04,清算の結了等,,,2015-10-05,1,,,,,グライコテクニカ,0
1632,7010001065670,登記記録の閉鎖等,0,2023-04-13,2023-04-06,株式会社エヌ・エヌ・ティ,,株式会社,東京都,千代田区,神田司町２丁目３番地,,13,101,1010048,,,2023-04-06,合併による解散等,9020001066798,令和５年４月１日川崎市高津区北見方二丁目６番１号ＮＥＣプラットフォームズ株式会社（9020001066798）に合併し解散,2015-10-05,1,,,,,エヌエヌティ,0
1634,7010001157732,登記記録の閉鎖等,0,2023-04-13,2023-04-03,株式会社ウェブマテリア,,株式会社,東京都,中央区,日本橋室町１丁目１３番１号ＤＫノア４階,,13,102,1030022,,,2023-04-03,清算の結了等,,,2015-10-05,1,,,,,ウェブマテリア,0
1635,7010001166915,登記記録の閉鎖等,0,2023-04-13,2023-04-03,株式会社アイ・イー・エー,,株式会社,東京都,千代田区,丸の内２丁目２番３号,,13,101,1000005,,,2023-04-03,合併による解散等,3010001080517,令和５年４月１日東京都中央区日本橋室町四丁目３番１６号株式会社フージャースリビングサービス（3010001080517）に合併し解散,2015-10-05,1,,,,,アイイーエー,0
1636,7010001169323,登記記録の閉鎖等,0,2023-04-13,2023-04-03,株式会社アティカス,,株式会社,東京都,中央区,築地１丁目１３番１号,,13,102,1040045,,,2023-04-03,合併による解散等,7010001057809,令和５年４月１日東京都中央区築地一丁目１３番１号株式会社マンハッタンピープル（7010001057809）に合併し解散,2015-10-05,1,,,,,アティカス,0
1640,7010001208865,登記記録の閉鎖等,0,2023-04-13,2023-04-03,株式会社世界文化ライフケア,,株式会社,東京都,千代田区,九段北４丁目２番２９号,,13,101,1020073,,,2023-04-03,合併による解散等,9010001208863,令和５年４月１日東京都千代田区九段北四丁目２番２９号株式会社ワンダーウェルネス（9010001208863）に合併し解散,2020-04-08,1,,,,,セカイブンカライフケア,0
1658,7010401055214,登記記録の閉鎖等,0,2023-04-13,2023-04-07,エームサービスジャパン株式会社,,株式会社,東京都,港区,赤坂２丁目２３番１号,,13,103,1070052,,,2023-04-07,合併による解散等,2010401004266,令和５年４月１日東京都港区赤坂二丁目２３番１号エームサービス株式会社（2010401004266）に合併し解散,2015-10-05,1,,,,,エームサービスジャパン,0
1668,7010703004546,登記記録の閉鎖等,0,2023-04-13,2023-03-31,ＯＮＥ合同会社,,合同会社,栃木県,宇都宮市,東峰町３０８０－４２ナオイハイツ２０７,,09,201,3210944,,,2023-03-31,清算の結了等,,,2018-11-20,1,,,,,ワン,0
1671,7010901025600,登記記録の閉鎖等,0,2023-04-13,2023-04-06,イーストワンエンリッチ株式会社,,株式会社,東京都,世田谷区,瀬田４丁目９番５号,,13,112,1580095,,,2023-04-06,清算の結了等,,,2015-10-05,1,,,,,イーストワンエンリッチ,0
1672,7010901039468,登記記録の閉鎖等,0,2023-04-13,2023-04-07,ＳＢＩコネクト株式会社,,株式会社,東京都,港区,六本木１丁目６番１号,,13,103,1060032,,,2023-04-07,合併による解散等,3011101041227,令和５年４月１日東京都新宿区西新宿八丁目１７番１号ＳＢＩビジネス・イノベーター株式会社（3011101041227）に合併し解散,2017-02-02,1,,,,,エスビーアイコネクト,0
1708,7020001061917,登記記録の閉鎖等,0,2023-04-13,2023-04-04,株式会社ＹＭコンサルタント,,株式会社,神奈川県,横浜市旭区,中希望が丘１２番地,,14,112,2410825,,,2023-04-04,清算の結了等,,,2015-10-05,1,,,,,ワイエムコンサルタント,0
1710,7020001093010,登記記録の閉鎖等,0,2023-04-13,2023-04-04,株式会社シンバ,,株式会社,神奈川県,横浜市港南区,日野５丁目３０番８号ＵＳテラスハウス－１０１,,14,111,2340051,,,2023-04-04,清算の結了等,,,2015-10-05,1,,,,,シンバ,0
1713,7020001105384,登記記録の閉鎖等,0,2023-04-13,2023-04-05,株式会社金昌商事,,株式会社,神奈川県,横浜市中区,山下町１５１番地,,14,104,2310023,,,2023-04-05,清算の結了等,,,2015-10-05,1,,,,,キンショウショウジ,0
1741,7040002075311,登記記録の閉鎖等,0,2023-04-13,2023-04-04,有限会社三森工業所,,有限会社,千葉県,市原市,五井６５１２番地,,12,219,2900056,,,2023-04-04,清算の結了等,,,2015-10-05,1,,,,,ミツモリコウギョウショ,0
1744,7050001024004,登記記録の閉鎖等,0,2023-04-13,2023-04-04,株式会社サンウッド,,株式会社,茨城県,高萩市,高浜町３丁目７番地の２,,08,214,3180013,,,2023-04-04,清算の結了等,,,2015-10-05,1,,,,,サンウッド,0
1745,7050001024895,登記記録の閉鎖等,0,2023-04-13,2023-03-31,株式会社プレビスポーツ,,株式会社,茨城県,日立市,弁天町３丁目１番１６号,,08,202,3170072,,,2023-03-31,合併による解散等,8050001023541,令和５年３月３１日茨城県日立市弁天町三丁目１番１６号プレビ株式会社（8050001023541）に合併し解散,2015-10-05,1,,,,,プレビスポーツ,0
1750,7060002032772,登記記録の閉鎖等,0,2023-04-13,2023-04-03,有限会社山崎電気,,有限会社,栃木県,栃木市,今泉町１丁目９番１９号,,09,203,3280027,,,2023-04-03,清算の結了等,,,2015-10-05,1,,,,,ヤマザキデンキ,0
1767,7090001003433,登記記録の閉鎖等,0,2023-04-13,2023-04-11,株式会社オートバックス山梨,,株式会社,山梨県,甲府市,国母８丁目１４番地５３号,,19,201,4000043,,,2023-04-11,合併による解散等,9060001004390,令和５年４月１日栃木県宇都宮市宮の内二丁目１３００番地株式会社オートバックス東日本販売（9060001004390）に合併し解散,2015-10-05,1,,,,,オートバックスヤマナシ,0
1770,7100001015154,登記記録の閉鎖等,0,2023-04-13,2023-04-03,株式会社三協,,株式会社,長野県,安曇野市,明科光５８２番地,,20,220,3997103,,,2023-04-03,合併による解散等,1100001015382,令和５年４月１日長野県安曇野市明科光５８２番地三協精密株式会社（1100001015382）に合併し解散,2015-10-05,1,,,,,サンキョウ,0
1781,7120101052780,登記記録の閉鎖等,0,2023-04-13,2023-04-10,株式会社播磨,,株式会社,大阪府,堺市南区,三原台４丁２４番７号,,27,145,5900111,,,2023-04-10,清算の結了等,,,2015-10-05,1,,,,,ハリマ,0
1790,7122003001551,登記記録の閉鎖等,0,2023-04-13,2023-04-03,ＥＶＡＮ合同会社,,合同会社,大阪府,枚方市,田口山１丁目３５番５－５０７号,,27,210,5730001,,,2023-04-03,清算の結了等,,,2018-09-04,1,,,,,エヴァン,0
1793,7140001062110,登記記録の閉鎖等,0,2023-04-13,2023-04-10,大和メンテナンス株式会社,,株式会社,兵庫県,姫路市,飾磨区中野田２丁目６９番地,,28,201,6728045,,,2023-04-10,合併による解散等,8200001003544,令和５年４月１日岐阜市若宮町九丁目１６番地株式会社トーカイ（8200001003544）に合併し解散,2015-10-05,1,,,,,ヤマトメンテナンス,0
1809,7170002011088,登記記録の閉鎖等,0,2023-04-13,2023-04-10,有限会社上村駐車場,,有限会社,和歌山県,新宮市,浮島２番１２号,,30,207,6470014,,,2023-04-10,清算の結了等,,,2015-10-05,1,,,,,ウエムラチュウシャジョウ,0
1815,7180301018816,登記記録の閉鎖等,0,2023-04-13,2023-03-30,株式会社豊中製作所,,株式会社,愛知県,豊田市,若林東町木ノ前７８番地２７,,23,211,4730914,,,2023-03-30,清算の結了等,,,2015-10-05,1,,,,,トヨナカセイサクショ,0
1825,7190002005220,登記記録の閉鎖等,0,2023-04-13,2023-04-03,有限会社三和サッシ店,,有限会社,三重県,南牟婁郡御浜町,大字阿田和３７２９番地１,,24,561,5195204,,,2023-04-03,合併による解散等,3190001004276,令和５年４月１日三重県南牟婁郡御浜町大字志原１８３１番地１０三和建材株式会社（3190001004276）に合併し解散,2015-10-05,1,,,,,ミワサッシテン,0
1831,7200002016975,登記記録の閉鎖等,0,2023-04-13,2023-04-03,有限会社霧島工務店,,有限会社,岐阜県,可児市,広眺ケ丘４丁目８７番地,,21,214,5090221,,,2023-04-03,清算の結了等,,,2015-10-05,1,,,,,キリシマコウムテン,0
1835,7240001050303,登記記録の閉鎖等,0,2023-04-13,2023-04-05,株式会社ナオテック,,株式会社,広島県,尾道市,向島町５５５７番地１７,,34,205,7220073,,,2023-04-05,清算の結了等,,,2016-12-08,1,,,,,ナオテック,0
1836,7240002023571,登記記録の閉鎖等,0,2023-04-13,2023-04-12,株式会社サロン・ド・フェイス,,株式会社,広島県,広島市中区,幟町５番１４号,,34,101,7300016,,,2023-04-12,清算の結了等,,,2015-10-05,1,,,,,,0
1850,7310002018812,登記記録の閉鎖等,0,2023-04-13,2023-04-06,蛭子海運有限会社,,有限会社,長崎県,壱岐市,石田町久喜触２９２番地,,42,210,8115223,,,2023-04-06,清算の結了等,,,2015-10-05,1,,,,,エビスカイウン,0
1892,7440001005906,登記記録の閉鎖等,0,2023-04-13,2023-04-06,八木橋会計センター株式会社,,株式会社,北海道,函館市,千歳町２０番１６号,,01,202,0400033,,,2023-04-06,清算の結了等,,,2015-10-05,1,,,,,ヤギハシカイケイセンター,0
1903,8010001021045,登記記録の閉鎖等,0,2023-04-13,2023-04-10,ゼネラルソフトウェア株式会社,,株式会社,東京都,千代田区,神田猿楽町２丁目１番１４号,,13,101,1010064,,,2023-04-10,合併による解散等,8180001030616,令和５年４月１日名古屋市中村区岩塚本通二丁目１２番株式会社システムリサーチ（8180001030616）に合併し解散,2015-10-05,1,,,,,ゼネラルソフトウェア,0
1928,8010401099524,登記記録の閉鎖等,0,2023-04-13,2023-04-03,株式会社ザイマックスアセットコンサルティング,,株式会社,東京都,港区,赤坂１丁目１番１号,,13,103,1070052,,,2023-04-03,合併による解散等,5010001140054,令和５年４月１日東京都港区赤坂一丁目１番１号株式会社ザイマックストラスト（5010001140054）に合併し解散,2015-10-05,1,,,,,ザイマックスアセットコンサルティング,0
1935,8010402019076,登記記録の閉鎖等,0,2023-04-13,2023-04-03,有限会社クリエイト・ユー,,有限会社,千葉県,千葉市花見川区,幕張町１丁目７６９３番地６８,,12,102,2620032,,,2023-04-03,清算の結了等,,,2015-10-05,1,,,,,クリエイトユー,0
1941,8010602010339,登記記録の閉鎖等,0,2023-04-13,2023-04-05,有限会社青木漢薬店,,有限会社,東京都,墨田区,業平１丁目２１番７号,,13,107,1300002,,,2023-04-05,清算の結了等,,,2015-10-05,1,,,,,アオキカンヤクテン,0
1960,8011002005053,登記記録の閉鎖等,0,2023-04-13,2023-04-04,有限会社佐藤セッテング,,有限会社,東京都,渋谷区,恵比寿１丁目９番１０号,,13,113,1500013,,,2023-04-04,清算の結了等,,,2015-10-05,1,,,,,サトウセッテング,0
1969,8011301012163,登記記録の閉鎖等,0,2023-04-13,2023-04-04,ジョイファー株式会社,,株式会社,東京都,杉並区,善福寺２丁目３０番１９号,,13,115,1670041,,,2023-04-04,清算の結了等,,,2015-10-05,1,,,,,ジョイファー,0
2005,8021001052178,登記記録の閉鎖等,0,2023-04-13,2023-04-03,株式会社ＦＴＫ,,株式会社,神奈川県,厚木市,中町３丁目５番１５号,,14,212,2430018,,,2023-04-03,合併による解散等,2021002014125,令和５年４月１日神奈川県厚木市中町三丁目５番１５号株式会社ＰＬＵＳ（2021002014125）に合併し解散,2015-10-05,1,,,,,エフティーケイ,0
2018,8050001009961,登記記録の閉鎖等,0,2023-04-13,2023-04-05,株式会社新成,,株式会社,茨城県,稲敷郡阿見町,大字大室１０７１番地１,,08,443,3000303,,,2023-04-05,清算の結了等,,,2015-10-05,1,,,,,,0
2024,8060001026329,登記記録の閉鎖等,0,2023-04-13,2023-04-03,株式会社タカモト,,株式会社,栃木県,小山市,東城南１丁目１番地３シャトレ海老沼５０５号室,,09,208,3230829,,,2023-04-03,清算の結了等,,,2015-10-05,1,,,,,タカモト,0
2037,8080402004617,登記記録の閉鎖等,0,2023-04-13,2023-04-10,有限会社大東園,,有限会社,静岡県,浜松市東区,半田山６丁目７番１号,,22,132,4313125,,,2023-04-10,清算の結了等,,,2015-10-05,1,,,,,ダイトウエン,0
2042,8100001031431,登記記録の閉鎖等,0,2023-04-13,2023-04-03,株式会社茶色,,株式会社,長野県,上田市,常磐城３丁目７番３７号,,20,203,3860027,,,2023-04-03,合併による解散等,7011301013889,令和５年４月１日長野県上田市上田原６８０番地１７株式会社バリューブックス（7011301013889）に合併し解散,2018-07-10,1,,,,,チャイロ,0
2063,8120002024820,登記記録の閉鎖等,0,2023-04-13,2023-04-05,有限会社カレン,,有限会社,大阪府,大阪市東淀川区,西淡路１丁目１６番７号,,27,114,5330031,,,2023-04-05,清算の結了等,,,2015-10-05,1,,,,,カレン,0
2074,8122001012095,登記記録の閉鎖等,0,2023-04-13,2023-04-03,株式会社はまゆう,,株式会社,大阪府,東大阪市,岩田町３丁目１１番１号,,27,227,5780941,,,2023-04-03,合併による解散等,8122001014703,令和５年４月２日大阪府東大阪市岩田町三丁目１１番１号株式会社メディウエル（8122001014703）に合併し解散,2015-10-05,1,,,,,ハマユウ,0
2077,8130001028631,登記記録の閉鎖等,0,2023-04-13,2023-04-06,株式会社フロラシオン・ベック,,株式会社,京都府,京都市下京区,五条通り油小路東入る金東横町２３９番地,,26,106,6000000,,,2023-04-06,清算の結了等,,,2015-10-05,1,,,,,フロラシオンベック,0
2117,8180002035036,登記記録の閉鎖等,0,2023-04-13,2023-04-04,有限会社かなれ製帽,,有限会社,愛知県,名古屋市名東区,香流１丁目８１２番地,,23,115,4650005,,,2023-04-04,清算の結了等,,,2015-10-05,1,,,,,カナレセイボウ,0
2122,8180301010292,登記記録の閉鎖等,0,2023-04-13,2023-04-04,株式会社むらた電気店,,株式会社,愛知県,豊川市,御津町赤根宮前２番地の２,,23,207,4410316,,,2023-04-04,清算の結了等,,,2015-10-05,1,,,,,ムラタデンキテン,0
2126,8180301034696,登記記録の閉鎖等,0,2023-04-13,2023-03-31,株式会社エスポワール,,株式会社,愛知県,岡崎市,藤川町字小坂３７番地１,,23,202,4443523,,,2023-03-31,清算の結了等,,,2021-03-09,1,,,,,エスポワール,0
2158,8340001016929,登記記録の閉鎖等,0,2023-04-13,2023-04-03,霧島木質燃料株式会社,,株式会社,鹿児島県,霧島市,霧島永水４７５５番地４,,46,218,8994202,,,2023-04-03,合併による解散等,4340001016577,令和５年４月１日鹿児島県霧島市霧島永水４７５５番地４霧島木質発電株式会社（4340001016577）に合併し解散,2015-10-05,1,,,,,キリシマモクシツネンリョウ,0
2164,8380002018821,登記記録の閉鎖等,0,2023-04-13,2023-03-30,有限会社小峰,,有限会社,福島県,白河市,新白河１丁目１０８番地の２,,07,205,9610856,,,2023-03-30,合併による解散等,5380001010492,令和５年３月１日福島県白河市新白河一丁目１０８番地の２株式会社昇栄（5380001010492）に合併し解散,2015-10-05,1,,,,,コミネ,0
2178,8480003000883,登記記録の閉鎖等,0,2023-04-13,2023-04-07,合同会社彩雲,,合同会社,徳島県,美馬市,穴吹町穴吹字畑中１０番地２,,36,207,7770005,,,2023-04-07,清算の結了等,,,2015-10-05,1,,,,,サイウン,0
2193,9010001102686,登記記録の閉鎖等,0,2023-04-13,2023-04-07,エクセルエイド少額短期保険株式会社,,株式会社,東京都,新宿区,早稲田鶴巻町５３４番地,,13,104,1620041,,,2023-04-07,合併による解散等,4030001015214,令和５年４月１日埼玉県さいたま市大宮区桜木町四丁目２６１番地あんしん少額短期保険株式会社（4030001015214）に合併し解散,2015-10-05,1,,,,,エクセルエイドショウガクタンキホケン,0
2206,9010005025990,登記記録の閉鎖等,0,2023-04-13,2023-04-06,一般社団法人ハウス１,,その他の設立登記法人,東京都,千代田区,丸の内３丁目１番１号東京共同会計事務所内,,13,101,1000005,,,2023-04-06,清算の結了等,,,2016-11-08,1,,,,,ハウスワン,0
2231,9010701038676,登記記録の閉鎖等,0,2023-04-13,2023-04-03,株式会社クリエイトリング,,株式会社,東京都,文京区,千石４丁目４６番１３号,,13,105,1120011,,,2023-04-03,合併による解散等,6010001221588,令和５年４月１日東京都千代田区神田練塀町３００番地株式会社ｖｉｖｉＯＮ（6010001221588）に合併し解散,2020-01-06,1,,,,,クリエイトリング,0
2262,9011501021194,登記記録の閉鎖等,0,2023-04-13,2023-04-06,ヴィクトリー株式会社,,株式会社,東京都,北区,赤羽１丁目３９番５号,,13,117,1150045,,,2023-04-06,清算の結了等,,,2015-12-24,1,,,,,ヴィクトリー,0
2264,9011601018090,登記記録の閉鎖等,0,2023-04-13,2023-04-05,株式会社田村設備,,株式会社,東京都,練馬区,高松２丁目１６番４号,,13,120,1790075,,,2023-04-05,清算の結了等,,,2015-10-05,1,,,,,タムラセツビ,0
2271,9011802014698,登記記録の閉鎖等,0,2023-04-13,2023-04-10,有限会社関商,,有限会社,東京都,足立区,花畑４丁目２６番１２号,,13,121,1210061,,,2023-04-10,清算の結了等,,,2015-10-05,1,,,,,セキショウ,0
2284,9013301010880,登記記録の閉鎖等,0,2023-04-13,2023-04-04,株式会社富洋リーガルリサーチ,,株式会社,東京都,豊島区,雑司が谷３丁目１１番２号明治通りコバヤシビル４階,,13,116,1710032,,,2023-04-04,清算の結了等,,,2015-10-05,1,,,,,フヨウリーガルリサーチ,0
2290,9020001100094,登記記録の閉鎖等,0,2023-04-13,2023-04-07,ルモニクス株式会社,,株式会社,東京都,品川区,東品川２丁目３番１４号,,13,109,1400002,,,2023-04-07,合併による解散等,3020001021429,令和５年４月１日横浜市港北区新羽町９２５番地兼松ＰＷＳ株式会社（3020001021429）に合併し解散,2015-10-05,1,,,,,ルモニクス,0
2293,9020002001903,登記記録の閉鎖等,0,2023-04-13,2023-04-04,有限会社平林商亊,,有限会社,神奈川県,横浜市瀬谷区,中屋敷１丁目２９番地１３,,14,114,2460004,,,2023-04-04,清算の結了等,,,2015-10-05,1,,,,,ヒラバヤシショウジ,0
2294,9020002022346,登記記録の閉鎖等,0,2023-04-13,2023-04-04,有限会社ブリイヨコーポレイション,,有限会社,神奈川県,横浜市旭区,鶴ケ峰２丁目１０番３６号,,14,112,2410022,,,2023-04-04,清算の結了等,,,2015-10-05,1,,,,,ブリイヨコーポレイション,0
2313,9050001044231,登記記録の閉鎖等,0,2023-04-13,2023-04-03,株式会社桑の実,,株式会社,茨城県,土浦市,滝田１丁目６番地３,,08,203,3000839,,,2023-04-03,合併による解散等,2050001008903,令和５年４月１日茨城県土浦市港町一丁目７番５号株式会社中内（2050001008903）に合併し解散,2018-04-04,1,,,,,クワノミ,0
2325,9070005003710,登記記録の閉鎖等,0,2023-04-13,2023-03-31,北野神社,,その他の設立登記法人,群馬県,甘楽郡下仁田町,大字風口７８６番地,,10,382,3702614,,,2023-03-31,合併による解散等,6070005003721,令和５年３月３１日群馬県甘楽郡下仁田町大字下仁田３１９番地諏訪神社（6070005003721）に合併し解散,2015-10-05,1,,,,,キタノジンジャ,0
2328,9080005006885,登記記録の閉鎖等,0,2023-04-13,2023-04-10,一般社団法人俊和会,,その他の設立登記法人,静岡県,静岡市駿河区,馬渕３丁目１９番３－２号,,22,102,4228063,,,2023-04-10,清算の結了等,,,2016-05-13,1,,,,,シュンワカイ,0
2335,9100001021745,登記記録の閉鎖等,0,2023-04-13,2023-04-03,株式会社伊那楽器,,株式会社,長野県,上伊那郡南箕輪村,６１０２番地１,,20,385,3994511,,,2023-04-03,合併による解散等,8100003002703,令和５年３月３１日長野県伊那市荒井３３９６番地合資会社伊那楽器店（8100003002703）に合併し解散,2015-10-05,1,,,,,イナガッキ,0
2369,9170001012787,登記記録の閉鎖等,0,2023-04-13,2023-04-10,きずな株式会社,,株式会社,和歌山県,和歌山市,南牛町１０番地,,30,201,6408295,,,2023-04-10,清算の結了等,,,2015-10-05,1,,,,,キズナ,0
2380,9180301031932,登記記録の閉鎖等,0,2023-04-13,2023-03-31,株式会社ダルマ,,株式会社,愛知県,西尾市,新渡場２丁目６番地４,,23,213,4450076,,,2023-03-31,清算の結了等,,,2018-10-17,1,,,,,ダルマ,0
2381,9180302017451,登記記録の閉鎖等,0,2023-04-13,2023-04-03,有限会社ミズホ工業,,有限会社,愛知県,安城市,箕輪町六畝６９番地１２,,23,212,4460051,,,2023-04-03,清算の結了等,,,2015-10-05,1,,,,,ミズホコウギョウ,0
2438,9380002023820,登記記録の閉鎖等,0,2023-04-13,2023-04-10,有限会社佐藤建築設計事務所,,有限会社,福島県,いわき市,平字仲間町６１番地,,07,204,9708026,,,2023-04-10,清算の結了等,,,2015-10-05,1,,,,,サトウケンチクセッケイジムショ,0
