sequenceNumber,corporateNumber,process,correct,updateDate,changeDate,name,nameImageId,kind,prefectureName,cityName,streetNumber,addressImageId,prefectureCode,cityCode,postCode,addressOutside,addressOutsideImageId,closeDate,closeCause,successorCorporateNumber,changeCause,assignmentDate,latest,enName,enPrefectureName,enCityName,enAddressOutside,furigana,hihyoji
7,1010001253537,新規,0,2025-04-02,2025-04-02,ＤＤＩ　Ｒｅａｌ　Ｅｓｔａｔｅ株式会社,,株式会社,東京都,中央区,入船１丁目９番８号ピエノアーク入船,,13,102,1040042,,,,,,,2025-04-02,1,,,,,ディーディーアイリアルエステート,0
8,1010001253660,新規,0,2025-04-02,2025-04-02,株式会社Ｔｈｉｒｄ　Ｉｎｔｅｌｌｉｇｅｎｃｅ,,株式会社,東京都,文京区,本郷６丁目２５番１４号２Ｆ,,13,105,1130033,,,,,,,2025-04-02,1,,,,,サードインテリジェンス,0
10,1010003046848,新規,0,2025-04-02,2025-04-02,合同会社ＢＵ,,合同会社,東京都,文京区,本駒込６丁目８番２２号,,13,105,1130021,,,,,,,2025-04-02,1,,,,,ビーユー,0
15,1010401189240,新規,0,2025-04-02,2025-04-02,株式会社メディカルＡＩソリューションズ,,株式会社,東京都,港区,芝浦１丁目２番３号,,13,103,1050023,,,,,,,2025-04-02,1,,,,,メディカルエーアイソリューションズ,0
19,1010501053866,新規,0,2025-04-02,2025-04-02,株式会社フューチャーナビ,,株式会社,東京都,台東区,東上野１丁目１１番４号,,13,106,1100015,,,,,,,2025-04-02,1,,,,,フューチャーナビ,0
23,1010705003741,新規,0,2025-04-02,2025-04-02,一般社団法人アイダーケア,,その他の設立登記法人,東京都,品川区,東品川１丁目２９－８上林ビル１階,,13,109,1400002,,,,,,,2025-04-02,1,,,,,アイダーケア,0
31,1011001168601,新規,0,2025-04-02,2025-04-02,グリーンロード株式会社,,株式会社,東京都,渋谷区,西原１丁目２８番６号第８岩田ビルＡ－５０１号室,,13,113,1510066,,,,,,,2025-04-02,1,,,,,グリーンロード,0
32,1011001168626,新規,0,2025-04-02,2025-04-02,株式会社Ｖｅｌｉｓｓｅ,,株式会社,東京都,渋谷区,代々木３丁目３２番３－３０８号,,13,113,1510053,,,,,,,2025-04-02,1,,,,,ヴェリス,0
33,1011001168634,新規,0,2025-04-02,2025-04-02,株式会社ｉｔｏ,,株式会社,東京都,渋谷区,鶯谷町１４番１－３０３号,,13,113,1500032,,,,,,,2025-04-02,1,,,,,イト,0
34,1011001168650,新規,0,2025-04-02,2025-04-02,株式会社ニューブリッジ,,株式会社,東京都,目黒区,下目黒２丁目２０番５号ＢＯＴ７３３－Ｚ２号室,,13,110,1530064,,,,,,,2025-04-02,1,,,,,ニューブリッジ,0
35,1011001168683,新規,0,2025-04-02,2025-04-02,株式会社エイセンド,,株式会社,東京都,渋谷区,恵比寿西２丁目８番４号ＥＸ恵比寿西ビル５階,,13,113,1500021,,,,,,,2025-04-02,1,,,,,エイセンド,0
36,1011001168700,新規,0,2025-04-02,2025-04-02,株式会社ＭＥＧＲＩ,,株式会社,東京都,目黒区,下目黒１丁目１番１４号コノトラビル７Ｆ,,13,110,1530064,,,,,,,2025-04-02,1,,,,,メグリ,0
37,1011001168832,新規,0,2025-04-02,2025-04-02,株式会社Ｈｕｍａｎｉａ,,株式会社,東京都,渋谷区,桜丘町１３－１０－５０３,,13,113,1500031,,,,,,,2025-04-02,1,,,,,ヒューマニア,0
39,1011003021270,新規,0,2025-04-02,2025-04-02,合同会社Ｆｕｔｕｒｅ,,合同会社,東京都,渋谷区,恵比寿西２丁目４番８号ウィンド恵比寿ビル８Ｆ,,13,113,1500021,,,,,,,2025-04-02,1,,,,,フューチャー,0
40,1011003021312,新規,0,2025-04-02,2025-04-02,合同会社Ｎｏｒｔｈ　ｂｕｌｌ,,合同会社,東京都,渋谷区,幡ヶ谷１丁目１０番４号,,13,113,1510072,,,,,,,2025-04-02,1,,,,,ノースブル,0
43,1011101111171,新規,0,2025-04-02,2025-04-02,株式会社ＴＩＥ　ＢＲＥＡＫ,,株式会社,東京都,新宿区,新宿１丁目３６－２,,13,104,1600022,,,,,,,2025-04-02,1,,,,,タイブレイク,0
44,1011101111188,新規,0,2025-04-02,2025-04-02,銘鴻株式会社,,株式会社,東京都,新宿区,西新宿８丁目１２番１号サンパレス新宿４０３,,13,104,1600023,,,,,,,2025-04-02,1,,,,,メイコウ,0
46,1011105011401,新規,0,2025-04-02,2025-04-02,国立健康危機管理研究機構,,その他の設立登記法人,東京都,新宿区,戸山１丁目２１番１号,,13,104,1620052,,,,,,,2025-04-02,1,,,,,コクリツケンコウキキカンリケンキュウキコウ,0
54,1012401042932,新規,0,2025-04-02,2025-04-02,株式会社ＫｉｚｕｎａＢｒｉｄｇｅ,,株式会社,東京都,小金井市,梶野町１丁目２－３６,,13,210,1840002,,,,,,,2025-04-02,1,,,,,キズナブリッジ,0
58,1012803003680,新規,0,2025-04-02,2025-04-02,合同会社ニオヴィー,,合同会社,東京都,東大和市,清水２丁目８１５番地,,13,220,2070004,,,,,,,2025-04-02,1,,,,,ニオヴィー,0
66,1020001162010,新規,0,2025-04-02,2025-04-02,株式会社リベルタ,,株式会社,神奈川県,横浜市青葉区,美しが丘１丁目１３番地１０吉村ビル１０７号,,14,117,2250002,,,,,,,2025-04-02,1,,,,,リベルタ,0
67,1020001162043,新規,0,2025-04-02,2025-04-02,株式会社ＮＫＴ,,株式会社,神奈川県,横浜市旭区,若葉台１丁目３－１２０３,,14,112,2410801,,,,,,,2025-04-02,1,,,,,エヌケーティー,0
68,1020001162118,新規,0,2025-04-02,2025-04-02,優聯商貿株式会社,,株式会社,神奈川県,横浜市中区,吉浜町２－３６ＢＣＣビル２０３号室,,14,104,2310024,,,,,,,2025-04-02,1,,,,,ユウレンショウボウ,0
69,1020001162126,新規,0,2025-04-02,2025-04-02,株式会社Ｓ’ｆｒｅｅ,,株式会社,神奈川県,横浜市南区,高砂町２丁目２７番地１０コーポＧ１０２,,14,105,2320025,,,,,,,2025-04-02,1,,,,,エスフリー,0
70,1020001162191,新規,0,2025-04-02,2025-04-02,株式会社グロースパス,,株式会社,神奈川県,横浜市西区,みなとみらい４丁目４―２横浜ブルーアベニュー１２Ｆ,,14,103,2200012,,,,,,,2025-04-02,1,,,,,グロースパス,0
73,1020003028151,新規,0,2025-04-02,2025-04-02,合同会社セイバー,,合同会社,神奈川県,川崎市多摩区,東生田２丁目１番２３号リチェモンテ向ヶ丘Ｂ－２,,14,135,2140031,,,,,,,2025-04-02,1,,,,,セイバー,0
74,1020003028184,新規,0,2025-04-02,2025-04-02,合同会社オーディーエス,,合同会社,神奈川県,横浜市中区,長者町４丁目１０－１パルム長者町７０４,,14,104,2310033,,,,,,,2025-04-02,1,,,,,オーディーエス,0
80,1030001165656,新規,0,2025-04-02,2025-04-02,旅人学堂株式会社,,株式会社,埼玉県,川口市,朝日１丁目１７番１号１Ｆ,,11,203,3320001,,,,,,,2025-04-02,1,,,,,タビビトガクドウ,0
81,1030001165672,新規,0,2025-04-02,2025-04-02,株式会社加登ヤード,,株式会社,埼玉県,久喜市,菖蒲町小林３６７４番地,,11,232,3460115,,,,,,,2025-04-02,1,,,,,カトヤード,0
84,1030003026451,新規,0,2025-04-02,2025-04-02,合同会社ｐｏｇｕ,,合同会社,埼玉県,上尾市,愛宕１丁目１０番７号,,11,219,3620034,,,,,,,2025-04-02,1,,,,,ポグ,0
91,1040003027168,新規,0,2025-04-02,2025-04-02,合同会社Ａｕｔｏ　ｃｏｌｏｍｂｏ,,合同会社,千葉県,松戸市,中根長津町１２２番地,,12,207,2710054,,,,,,,2025-04-02,1,,,,,オートコロンボ,0
92,1040005022704,新規,0,2025-04-02,2025-04-02,社会福祉法人Ｓｙｎｅｒｇｙ,,その他の設立登記法人,千葉県,千葉市若葉区,若松町２３５７番地１,,12,104,2640021,,,,,,,2025-04-02,1,,,,,シナジー,0
96,1050001056432,新規,0,2025-04-02,2025-04-02,ＲＯＢＯ　ＦＡＲＭ株式会社,,株式会社,茨城県,土浦市,神立町２５１１－１ＳＫＥ神立２０２号室,,08,203,3000013,,,,,,,2025-04-02,1,,,,,ロボファーム,0
99,1060003005493,新規,0,2025-04-02,2025-04-02,Ｍａｎｉ　Ｔｒａｄｉｎｇ合同会社,,合同会社,栃木県,栃木市,大平町富田２４２４番地３光ハイツ１号室,,09,203,3294404,,,,,,,2025-04-02,1,,,,,マニトレーディング,0
100,1060005010319,新規,0,2025-04-02,2025-04-02,社会保険労務士法人スマートワークスタイル,,その他の設立登記法人,栃木県,栃木市,柳橋町８番３５－４号,,09,203,3280051,,,,,,,2025-04-02,1,,,,,スマートワークスタイル,0
104,1080001026837,新規,0,2025-04-02,2025-04-02,日本教育アカデミー株式会社,,株式会社,静岡県,藤枝市,下青島５７番地の５,,22,214,4260035,,,,,,,2025-04-02,1,,,,,ニホンキョウイクアカデミー,0
105,1080001026845,新規,0,2025-04-02,2025-04-02,株式会社協和設備,,株式会社,静岡県,静岡市駿河区,馬渕３丁目１４番３９－３９－２０２号,,22,102,4228063,,,,,,,2025-04-02,1,,,,,キョウワセツビ,0
116,1120001274126,新規,0,2025-04-02,2025-04-02,株式会社ネオデックス,,株式会社,大阪府,大阪市中央区,南本町２丁目４番１１号,,27,128,5410054,,,,,,,2025-04-02,1,,,,,ネオデックス,0
117,1120001274134,新規,0,2025-04-02,2025-04-02,株式会社古物査定の窓口,,株式会社,大阪府,大阪市北区,梅田１丁目１番３号大阪駅前第３ビル２９階１－１－１号室,,27,127,5300001,,,,,,,2025-04-02,1,,,,,コブツサテイノマドグチ,0
118,1120001274183,新規,0,2025-04-02,2025-04-02,５ＤＡＹＳ株式会社,,株式会社,大阪府,大阪市大正区,三軒家西１丁目２５－２５－２階,,27,108,5510001,,,,,,,2025-04-02,1,,,,,ファイブデイズ,0
119,1120001274191,新規,0,2025-04-02,2025-04-02,株式会社Ｈｙｓｙ,,株式会社,大阪府,大阪市北区,大淀中３丁目５－２１サンビクトリービル３Ｆ,,27,127,5310076,,,,,,,2025-04-02,1,,,,,ハイシィー,0
120,1120001274299,新規,0,2025-04-02,2025-04-02,トータルプランニング株式会社,,株式会社,大阪府,大阪市中央区,南船場３丁目８番１５号,,27,128,5420081,,,,,,,2025-04-02,1,,,,,トータルプランニング,0
122,1120003029081,新規,0,2025-04-02,2025-04-02,合同会社デジタルネクサス,,合同会社,大阪府,大阪市西淀川区,姫里３丁目２番３‐９０２号,,27,113,5550025,,,,,,,2025-04-02,1,,,,,デジタルネクサス,0
124,1120101071340,新規,0,2025-04-02,2025-04-02,株式会社衆興,,株式会社,大阪府,堺市西区,堀上緑町３丁１番１３０号,,27,144,5938305,,,,,,,2025-04-02,1,,,,,シュウコウ,0
125,1120101071365,新規,0,2025-04-02,2025-04-02,株式会社Ｔｉｅ,,株式会社,大阪府,泉南郡熊取町,五門東３丁目３３番３６号,,27,361,5900414,,,,,,,2025-04-02,1,,,,,ティーアイイー,0
134,1122003003157,新規,0,2025-04-02,2025-04-02,合同会社スリーピース,,合同会社,大阪府,八尾市,福万寺町南２丁目６５番地の１０,,27,212,5810843,,,,,,,2025-04-02,1,,,,,スリーピース,0
136,1130001079301,新規,0,2025-04-02,2025-04-02,株式会社東悦,,株式会社,京都府,京都市下京区,中堂寺前町４９３番地,,26,106,6008362,,,,,,,2025-04-02,1,,,,,トウエツ,0
140,1140001137933,新規,0,2025-04-02,2025-04-02,アラティ株式会社,,株式会社,兵庫県,神戸市兵庫区,西仲町１－６西棟４０３,,28,105,6520835,,,,,,,2025-04-02,1,,,,,アラティ,0
152,1170003002182,新規,0,2025-04-02,2025-04-02,合同会社マメはな,,合同会社,和歌山県,日高郡みなべ町,山内１４３０番地,,30,391,6450012,,,,,,,2025-04-02,1,,,,,マメハナ,0
154,1180001166103,新規,0,2025-04-02,2025-04-02,株式会社ＺＥＮ,,株式会社,愛知県,名古屋市中区,大須４丁目１番４３号,,23,106,4600011,,,,,,,2025-04-02,1,,,,,ゼン,0
155,1180001166169,新規,0,2025-04-02,2025-04-02,株式会社Ｎｅｘｔ　Ｌａｎｄｍａｒｋ,,株式会社,愛知県,あま市,方領屋敷１８０番地１１,,23,237,4901101,,,,,,,2025-04-02,1,,,,,ネクストランドマーク,0
156,1180001166177,新規,0,2025-04-02,2025-04-02,株式会社ハラトラ,,株式会社,愛知県,西春日井郡豊山町,大字豊場字西之町１２９番地５,,23,342,4800202,,,,,,,2025-04-02,1,,,,,ハラトラ,0
157,1190001032114,新規,0,2025-04-02,2025-04-02,ＡＩブリッジ株式会社,,株式会社,三重県,津市,豊が丘４丁目４０‐４,,24,201,5142222,,,,,,,2025-04-02,1,,,,,エーアイブリッジ,0
166,1240003007133,新規,0,2025-04-02,2025-04-02,合同会社ハル,,合同会社,広島県,広島市中区,舟入中町５番１７－１３０１号,,34,101,7300842,,,,,,,2025-04-02,1,,,,,ハル,0
170,1270003001728,新規,0,2025-04-02,2025-04-02,合同会社エールトワール,,合同会社,鳥取県,鳥取市,田園町２丁目２０３番地１,,31,201,6800803,,,,,,,2025-04-02,1,,,,,エールトワール,0
174,1290801031395,新規,0,2025-04-02,2025-04-02,株式会社魚虎,,株式会社,福岡県,北九州市八幡西区,熊手１丁目２番５号,,40,109,8060028,,,,,,,2025-04-02,1,,,,,ウオトラ,0
175,1290801031412,新規,0,2025-04-02,2025-04-02,株式会社Ｃｌｉｃｋ,,株式会社,福岡県,北九州市小倉北区,船場町７番２１号２Ｆ,,40,106,8020007,,,,,,,2025-04-02,1,,,,,クリック,0
176,1290805009818,新規,0,2025-04-02,2025-04-02,医療法人歯丈会,,その他の設立登記法人,福岡県,北九州市戸畑区,菅原３丁目２番３１号,,40,105,8040044,,,,,,,2025-04-02,1,,,,,シジョウカイ,0
181,1340001027230,新規,0,2025-04-02,2025-04-02,株式会社アルバトロス,,株式会社,鹿児島県,鹿児島市,平川町４７６０番地,,46,201,8910133,,,,,,,2025-04-02,1,,,,,アルバトロス,0
182,1340003004789,新規,0,2025-04-02,2025-04-02,栄光合同会社,,合同会社,鹿児島県,鹿児島市,山之口町６番１１号第一上野ビル６階,,46,201,8920844,,,,,,,2025-04-02,1,,,,,エイコウ,0
187,1400001016986,新規,0,2025-04-02,2025-04-02,株式会社ＴＲＹ　ＣＯＬＯＲ,,株式会社,岩手県,盛岡市,菜園２丁目８番１８－３０６号,,03,201,0200024,,,,,,,2025-04-02,1,,,,,トライカラー,0
193,1430001094047,新規,0,2025-04-02,2025-04-02,株式会社Ｒｅｌｉｇｈｔエンジニアリング,,株式会社,北海道,札幌市南区,南沢二条１丁目３番２４号,,01,106,0050822,,,,,,,2025-04-02,1,,,,,リライトエンジニアリング,0
194,1430001094071,新規,0,2025-04-02,2025-04-02,渡辺資産運用株式会社,,株式会社,北海道,札幌市清田区,北野三条４丁目１９番１１号,,01,110,0040863,,,,,,,2025-04-02,1,,,,,ワタナベシサンウンヨウ,0
200,1480001012796,新規,0,2025-04-02,2025-04-02,日宣水産株式会社,,株式会社,徳島県,小松島市,和田島町字西林１１８番地,,36,203,7730025,,,,,,,2025-04-02,1,,,,,ニッセンスイサン,0
202,1490002013421,新規,0,2025-04-02,2025-04-02,有限会社幡多観光自動車,,有限会社,高知県,四万十市,駅前町１０５番地,,39,210,7870014,,,,,,,2025-04-02,1,,,,,,0
205,2010003046896,新規,0,2025-04-02,2025-04-02,合同会社ローリングストーン,,合同会社,東京都,中央区,銀座１丁目１２番４号Ｎ＆ＥＢＬＤ．６Ｆ,,13,102,1040061,,,,,,,2025-04-02,1,,,,,ローリングストーン,0
206,2010003046938,新規,0,2025-04-02,2025-04-02,合同会社エムズ,,合同会社,東京都,千代田区,一番町４番地８９カーサスプレンディッド一番町９０１号,,13,101,1020082,,,,,,,2025-04-02,1,,,,,エムズ,0
207,2010003046946,新規,0,2025-04-02,2025-04-02,プラチナクラウド合同会社,,合同会社,東京都,千代田区,外神田４丁目１４－１秋葉原ＵＤＸ４Ｆ・ＬＩＦＯＲＫ秋葉原,,13,101,1010021,,,,,,,2025-04-02,1,,,,,プラチナクラウド,0
224,2010401189280,新規,0,2025-04-02,2025-04-02,株式会社ＫｏｕＫｅｎ,,株式会社,東京都,港区,北青山１丁目３－３三橋ビル３階,,13,103,1070061,,,,,,,2025-04-02,1,,,,,コウケン,0
227,2010405024194,新規,0,2025-04-02,2025-04-02,一般社団法人介護予防心理美容協会,,その他の設立登記法人,東京都,港区,六本木７丁目３番２号,,13,103,1060032,,,,,,,2025-04-02,1,,,,,カイゴヨボウシンリビヨウキョウカイ,0
228,2010501053865,新規,0,2025-04-02,2025-04-02,株式会社繁華,,株式会社,東京都,台東区,浅草１丁目３４番４号１階,,13,106,1110032,,,,,,,2025-04-02,1,,,,,ハンカ,0
231,2010703007636,新規,0,2025-04-02,2025-04-02,合同会社Ｍ＆Ｙ,,合同会社,東京都,品川区,大井１丁目３１番１－１６０７号,,13,109,1400014,,,,,,,2025-04-02,1,,,,,エムアンドワイ,0
240,2010901057103,新規,0,2025-04-02,2025-04-02,株式会社オネストワン,,株式会社,東京都,世田谷区,用賀４丁目９－１２Ａｓｔａｇｅ用賀Ｂ１,,13,112,1580097,,,,,,,2025-04-02,1,,,,,オネストワン,0
245,2010903009804,新規,0,2025-04-02,2025-04-02,合同会社ｆｅｌｉｚ,,合同会社,東京都,世田谷区,代田１丁目３４番１５号,,13,112,1550033,,,,,,,2025-04-02,1,,,,,フェリース,0
249,2011001168583,新規,0,2025-04-02,2025-04-02,ＳｉｇｍａＢｒａｉｎ株式会社,,株式会社,東京都,渋谷区,千駄ヶ谷４丁目１９－１５アポセント千駄ヶ谷４０１,,13,113,1510051,,,,,,,2025-04-02,1,,,,,シグマブレイン,0
250,2011001168641,新規,0,2025-04-02,2025-04-02,株式会社マウンテンブック,,株式会社,東京都,渋谷区,恵比寿西２丁目８番４号,,13,113,1500021,,,,,,,2025-04-02,1,,,,,マウンテンブック,0
251,2011001168658,新規,0,2025-04-02,2025-04-02,株式会社ＨＰＭＳ,,株式会社,東京都,渋谷区,道玄坂１丁目１９番２号,,13,113,1500043,,,,,,,2025-04-02,1,,,,,エイチピーエムエス,0
252,2011001168724,新規,0,2025-04-02,2025-04-02,株式会社Ｗｉｔａｇｏｒａｓ,,株式会社,東京都,渋谷区,神南１丁目１１番４号,,13,113,1500041,,,,,,,2025-04-02,1,,,,,ウィタゴラス,0
253,2011001168732,新規,0,2025-04-02,2025-04-02,グランド保証株式会社,,株式会社,東京都,渋谷区,恵比寿４丁目２０番３号,,13,113,1500013,,,,,,,2025-04-02,1,,,,,グランドホショウ,0
255,2011003021336,新規,0,2025-04-02,2025-04-02,合同会社ピーアンドワイ,,合同会社,東京都,渋谷区,恵比寿西２丁目８番４号ＥＸ恵比寿西ビル５階,,13,113,1500021,,,,,,,2025-04-02,1,,,,,ピーアンドワイ,0
256,2011005010948,新規,0,2025-04-02,2025-04-02,一般社団法人ＴＩＮ,,その他の設立登記法人,東京都,渋谷区,神宮前１丁目５番８号,,13,113,1500001,,,,,,,2025-04-02,1,,,,,ティーアイエヌ,0
258,2011103015709,新規,0,2025-04-02,2025-04-02,合同会社宇宙,,合同会社,東京都,新宿区,大久保１丁目２－１天翔東新宿ビル３０６号室,,13,104,1690072,,,,,,,2025-04-02,1,,,,,ウチュウ,0
261,2011401026960,新規,0,2025-04-02,2025-04-02,株式会社ＰＩＣＫＹ,,株式会社,東京都,板橋区,前野町３丁目２９番９号,,13,119,1740063,,,,,,,2025-04-02,1,,,,,ピッキー,0
262,2011401026977,新規,0,2025-04-02,2025-04-02,なつめ株式会社,,株式会社,東京都,板橋区,赤塚４丁目１９番２６号,,13,119,1750092,,,,,,,2025-04-02,1,,,,,ナツメ,0
275,2011801045899,新規,0,2025-04-02,2025-04-02,Ｇロジスティクス株式会社,,株式会社,東京都,足立区,竹の塚３丁目１０番１号竹の塚ビル４Ｆ,,13,121,1210813,,,,,,,2025-04-02,1,,,,,ジーロジスティクス,0
281,2020001162042,新規,0,2025-04-02,2025-04-02,株式会社ＣＡＭＰ,,株式会社,神奈川県,横浜市中区,桜木町１丁目１０１番地１クロスゲート７階,,14,104,2310062,,,,,,,2025-04-02,1,,,,,キャンプ,0
282,2020001162133,新規,0,2025-04-02,2025-04-02,株式会社エムストリーム,,株式会社,神奈川県,横浜市港北区,新横浜３丁目９－５新横浜第３東昇ビル,,14,109,2220033,,,,,,,2025-04-02,1,,,,,エムストリーム,0
286,2020003028126,新規,0,2025-04-02,2025-04-02,ａｄｌｉｂ　ｂｉｒｄ合同会社,,合同会社,神奈川県,横浜市西区,平沼２丁目１－９コーポ平沼２０３三宅美紀宛,,14,103,2200023,,,,,,,2025-04-02,1,,,,,アドリブバード,0
287,2020003028167,新規,0,2025-04-02,2025-04-02,合同会社Ｗｅ　ｍａｔｅ,,合同会社,神奈川県,横浜市神奈川区,金港町５番地１４クアドリフォリオ８階,,14,102,2210056,,,,,,,2025-04-02,1,,,,,ウィーメイト,0
288,2020003028175,新規,0,2025-04-02,2025-04-02,合同会社ノード,,合同会社,神奈川県,横浜市西区,浅間町１丁目４番３号ウィザードビル４０２,,14,103,2200072,,,,,,,2025-04-02,1,,,,,ノード,0
296,2030001165663,新規,0,2025-04-02,2025-04-02,株式会社ナカノリフォーム,,株式会社,埼玉県,熊谷市,太井１９３６番地３,,11,202,3600025,,,,,,,2025-04-02,1,,,,,ナカノリフォーム,0
297,2030001165671,新規,0,2025-04-02,2025-04-02,株式会社Ｐｌｕｓ,,株式会社,埼玉県,新座市,馬場３丁目１１番１４号,,11,230,3520016,,,,,,,2025-04-02,1,,,,,プラス,0
301,2040001138016,新規,0,2025-04-02,2025-04-02,株式会社不二不動産,,株式会社,千葉県,市川市,大洲３丁目１６番１３－２０１号（エステート市川大洲）,,12,203,2720032,,,,,,,2025-04-02,1,,,,,フジフドウサン,0
302,2040001138107,新規,0,2025-04-02,2025-04-02,ＩＮＤＥＲＹ株式会社,,株式会社,千葉県,千葉市若葉区,貝塚町１３１９－７２,,12,104,2640023,,,,,,,2025-04-02,1,,,,,インデリー,0
305,2040003027191,新規,0,2025-04-02,2025-04-02,Ｓ．Ｋ．Ｅｎｔｅｒｐｒｉｓｅｓ合同会社,,合同会社,千葉県,富里市,中沢３２０－２４－Ｂ,,12,233,2860222,,,,,,,2025-04-02,1,,,,,エスケイエンタープライズ,0
306,2040003027241,新規,0,2025-04-02,2025-04-02,大丸合同会社,,合同会社,千葉県,市川市,相之川１丁目２１番２３－３０８号（プライムリバディ南行徳）,,12,203,2720143,,,,,,,2025-04-02,1,,,,,ダイマル,0
307,2040005022703,新規,0,2025-04-02,2025-04-02,農事組合法人大浦営農組合,,その他の設立登記法人,千葉県,匝瑳市,大浦９９８番地,,12,235,2892151,,,,,,,2025-04-02,1,,,,,オオウラエイノウクミアイ,0
309,2050001056423,新規,0,2025-04-02,2025-04-02,株式会社拓,,株式会社,茨城県,ひたちなか市,海門町１丁目１７番１４号,,08,221,3111222,,,,,,,2025-04-02,1,,,,,タク,0
315,2070001042768,新規,0,2025-04-02,2025-04-02,ＫＰＴホールディングス株式会社,,株式会社,群馬県,伊勢崎市,五目牛町１３６番地１,,10,204,3792213,,,,,,,2025-04-02,1,,,,,ケーピーティーホールディングス,0
317,2080001026844,新規,0,2025-04-02,2025-04-02,株式会社手瑞舎,,株式会社,静岡県,静岡市清水区,辻１丁目１番１８号,00138536,22,103,4240806,,,,,,,2025-04-02,1,,,,,テミズヤ,0
318,2080101025408,新規,0,2025-04-02,2025-04-02,株式会社パームリゾート,,株式会社,静岡県,伊東市,八幡野１１６７番地の７－１Ｆ,,22,208,4130232,,,,,,,2025-04-02,1,,,,,パームリゾート,0
319,2080105006494,新規,0,2025-04-02,2025-04-02,ＦＰサポート協同組合,,その他の設立登記法人,静岡県,伊豆市,上白岩２２９９番地の３,,22,222,4102502,,,,,,,2025-04-02,1,,,,,エフピーサポート,0
323,2100001038449,新規,0,2025-04-02,2025-04-02,イーキュアホールディングス株式会社,,株式会社,長野県,松本市,大字島立８３０番地１１,,20,202,3900852,,,,,,,2025-04-02,1,,,,,イーキュアホールディングス,0
333,2120001274100,新規,0,2025-04-02,2025-04-02,株式会社ＰＥＡＣＥエステート,,株式会社,大阪府,大阪市生野区,小路東２丁目１１番１４－６０１号,,27,116,5440003,,,,,,,2025-04-02,1,,,,,ピースエステート,0
334,2120001274109,新規,0,2025-04-02,2025-04-02,Ｓａｌｏｎ　ｄｅ　Ｒ株式会社,,株式会社,大阪府,大阪市淀川区,十三東５丁目１３－２４－９０１,,27,123,5320023,,,,,,,2025-04-02,1,,,,,サロンドアール,0
335,2120001274133,新規,0,2025-04-02,2025-04-02,株式会社Ｓ‐Ｄｉｖａ,,株式会社,大阪府,大阪市中央区,淡路町１丁目３番１号ＧＯＧＩビル２階東側,,27,128,5410047,,,,,,,2025-04-02,1,,,,,エスディーバ,0
337,2120003028999,新規,0,2025-04-02,2025-04-02,合同会社寿,,合同会社,大阪府,枚方市,小倉東町１６番８号,,27,210,5731174,,,,,,,2025-04-02,1,,,,,コトブキ,0
338,2120101071356,新規,0,2025-04-02,2025-04-02,株式会社アルミナティホーム,,株式会社,大阪府,富田林市,北大伴町１丁目６番２８号,,27,214,5840042,,,,,,,2025-04-02,1,,,,,アルミナティホーム,0
339,2120101071372,新規,0,2025-04-02,2025-04-02,株式会社ＭＵＧＵＥＴ,,株式会社,大阪府,堺市中区,深阪６丁７番２３号中井事務所２階南号室,,27,142,5998253,,,,,,,2025-04-02,1,,,,,ミュゲ,0
345,2130001079300,新規,0,2025-04-02,2025-04-02,株式会社景程,,株式会社,京都府,京都市中京区,壬生森町６４－２０,,26,104,6048862,,,,,,,2025-04-02,1,,,,,ケイテイ,0
349,2140001137908,新規,0,2025-04-02,2025-04-02,株式会社電建,,株式会社,兵庫県,姫路市,大津区天神町２丁目４５－２,,28,201,6711131,,,,,,,2025-04-02,1,,,,,デンケン,0
352,2140003021886,新規,0,2025-04-02,2025-04-02,合同会社暇人,,合同会社,兵庫県,姫路市,豊富町御蔭２５０番地２２,,28,201,6792122,,,,,,,2025-04-02,1,,,,,ヒマジン,0
361,2180001166151,新規,0,2025-04-02,2025-04-02,株式会社ＢＵＤＤＩＥＳ,,株式会社,愛知県,春日井市,篠木町１丁目４０番地,,23,206,4860851,,,,,,,2025-04-02,1,,,,,バディーズ,0
362,2180001166201,新規,0,2025-04-02,2025-04-02,株式会社エルピーアセット,,株式会社,愛知県,長久手市,城屋敷８０１番地,,23,238,4801122,,,,,,,2025-04-02,1,,,,,エルピーアセット,0
365,2190001032105,新規,0,2025-04-02,2025-04-02,株式会社ペック,,株式会社,三重県,四日市市,小杉新町１３２番地,,24,202,5120903,,,,,,,2025-04-02,1,,,,,ペック,0
367,2210001020123,新規,0,2025-04-02,2025-04-02,クリエイティブメタルワークス株式会社,,株式会社,福井県,福井市,文京５丁目６番２号,,18,201,9100017,,,,,,,2025-04-02,1,,,,,クリエイティブメタルワークス,0
377,2260001040067,新規,0,2025-04-02,2025-04-02,株式会社ＡＺＵＮＡＬ,,株式会社,岡山県,総社市,中央２丁目１０番１７号,,33,208,7191131,,,,,,,2025-04-02,1,,,,,アズナル,0
383,2290801031394,新規,0,2025-04-02,2025-04-02,ロナフチュール株式会社,,株式会社,福岡県,中間市,大字垣生６８６番地２,,40,215,8090001,,,,,,,2025-04-02,1,,,,,ロナフチュール,0
384,2290801031403,新規,0,2025-04-02,2025-04-02,株式会社つる米,,株式会社,福岡県,行橋市,大字津留７８８番地,,40,213,8240016,,,,,,,2025-04-02,1,,,,,ツルマイ,0
385,2290803005009,新規,0,2025-04-02,2025-04-02,合同会社イケポンド,,合同会社,福岡県,北九州市八幡西区,町上津役東１丁目１５－９,,40,109,8070073,,,,,,,2025-04-02,1,,,,,イケポンド,0
393,2350001019457,新規,0,2025-04-02,2025-04-02,株式会社吉良設備,,株式会社,宮崎県,宮崎市,大字田吉１０１９番地３,,45,201,8800911,,,,,,,2025-04-02,1,,,,,キラセツビ,0
395,2370001052398,新規,0,2025-04-02,2025-04-02,ＦＵＪＩＷＡＲＡＹＡホールディングス株式会社,,株式会社,宮城県,仙台市宮城野区,苦竹３丁目４番５号,,04,102,9830036,,,,,,,2025-04-02,1,,,,,フジワラヤホールディングス,0
404,2430001094070,新規,0,2025-04-02,2025-04-02,株式会社ＳＯＬＮＩＸ,,株式会社,北海道,札幌市手稲区,新発寒七条３丁目１番２５号,,01,109,0060807,,,,,,,2025-04-02,1,,,,,ソルニクス,0
407,2470003002853,新規,0,2025-04-02,2025-04-02,合同会社ＰＬＯＧ,,合同会社,香川県,高松市,松島町３丁目７番３３号,,37,201,7600068,,,,,,,2025-04-02,1,,,,,プログ,0
416,3010001253709,新規,0,2025-04-02,2025-04-02,Ｌｏｈｕｓ株式会社,,株式会社,東京都,中央区,日本橋兜町１７番２号兜町第６葉山ビル４Ｆ,,13,102,1030026,,,,,,,2025-04-02,1,,,,,ロハス,0
417,3010001253799,新規,0,2025-04-02,2025-04-02,株式会社松江洋行,,株式会社,東京都,中央区,晴海３丁目１３番２－２３０７号,,13,102,1040053,,,,,,,2025-04-02,1,,,,,マツエヨウコウ,0
419,3010003046945,新規,0,2025-04-02,2025-04-02,Ｃｒｙｐｔｙ合同会社,,合同会社,東京都,中央区,日本橋室町１丁目１１番１２号日本橋水野ビル７階,,13,102,1030022,,,,,,,2025-04-02,1,,,,,クリプティ,0
433,3010401189239,新規,0,2025-04-02,2025-04-02,株式会社サウンドアーツ,,株式会社,東京都,港区,虎ノ門４丁目１番１３号プライムテラス神谷町８階,,13,103,1050001,,,,,,,2025-04-02,1,,,,,サウンドアーツ,0
434,3010401189296,新規,0,2025-04-02,2025-04-02,ヒロネクス・パートナーズ株式会社,,株式会社,東京都,港区,北青山１丁目３番１号アールキューブ青山３階,,13,103,1070061,,,,,,,2025-04-02,1,,,,,ヒロネクスパートナーズ,0
435,3010501053856,新規,0,2025-04-02,2025-04-02,株式会社Ｗ．Ｆ．,,株式会社,東京都,台東区,浅草橋１丁目７番６号,,13,106,1110053,,,,,,,2025-04-02,1,,,,,ダブリューエフ,0
436,3010501053864,新規,0,2025-04-02,2025-04-02,株式会社東京ビクトリー,,株式会社,東京都,台東区,下谷２丁目２４番１１号,,13,106,1100004,,,,,,,2025-04-02,1,,,,,トウキョウビクトリー,0
439,3010801035983,新規,0,2025-04-02,2025-04-02,株式会社ガダイ,,株式会社,東京都,大田区,南馬込６丁目１番１８号,,13,111,1430025,,,,,,,2025-04-02,1,,,,,ガダイ,0
443,3010901057093,新規,0,2025-04-02,2025-04-02,株式会社ｓｏｒｒｉｓｏｄｉｇａｔｔｏ,,株式会社,東京都,世田谷区,桜上水５丁目９番４号,,13,112,1560045,,,,,,,2025-04-02,1,,,,,ソリッソディガット,0
447,3011001168649,新規,0,2025-04-02,2025-04-02,株式会社Ｍａｒ５ａｕｘ,,株式会社,東京都,渋谷区,松濤２丁目７番１２－４０８号,,13,113,1500046,,,,,,,2025-04-02,1,,,,,マルゴー,0
448,3011001168657,新規,0,2025-04-02,2025-04-02,株式会社ＡＡＶＥ　ＯＮＥ,,株式会社,東京都,渋谷区,神南１丁目１１番４号ＦＰＧリンクス神南５階,,13,113,1500041,,,,,,,2025-04-02,1,,,,,アーヴェワン,0
449,3011001168673,新規,0,2025-04-02,2025-04-02,株式会社スタジオクロッキー,,株式会社,東京都,渋谷区,神宮前２丁目３０番２２号,,13,113,1500001,,,,,,,2025-04-02,1,,,,,スタジオクロッキー,0
450,3011001168698,新規,0,2025-04-02,2025-04-02,株式会社ＮＥＷ　ＥＶＩＤＥＮＣＥ　ＭＵＳＩＣ　ＰＵＢＬＩＳＨＩＮＧ,,株式会社,東京都,目黒区,青葉台４丁目４番１－９０４号ＬＭ目黒青葉台,,13,110,1530042,,,,,,,2025-04-02,1,,,,,ニューエビデンスミュージックパブリッシング,0
452,3011003021269,新規,0,2025-04-02,2025-04-02,合同会社Ｗｉｓｔｅｒｉａ,,合同会社,東京都,目黒区,目黒３丁目１－２,,13,110,1530063,,,,,,,2025-04-02,1,,,,,ウィステリア,0
453,3011003021277,新規,0,2025-04-02,2025-04-02,合同会社ＫＥ,,合同会社,東京都,渋谷区,円山町２４番５号２Ｆ,,13,113,1500044,,,,,,,2025-04-02,1,,,,,ケーイー,0
454,3011003021293,新規,0,2025-04-02,2025-04-02,合同会社インサイト,,合同会社,東京都,渋谷区,恵比寿西２丁目４番８号ウィンド恵比寿ビル８Ｆ,,13,113,1500021,,,,,,,2025-04-02,1,,,,,インサイト,0
455,3011003021343,新規,0,2025-04-02,2025-04-02,Ｓｃａｒｒ’ｓ　Ｐｉｚｚａ合同会社,,合同会社,東京都,渋谷区,富ヶ谷１丁目２０番１４－２０４号,,13,113,1510063,,,,,,,2025-04-02,1,,,,,スカーズピザ,0
460,3011101111194,新規,0,2025-04-02,2025-04-02,株式会社よねかね,,株式会社,東京都,新宿区,南山伏町３番５－１００１号,,13,104,1620854,,,,,,,2025-04-02,1,,,,,ヨネカネ,0
461,3011101111211,新規,0,2025-04-02,2025-04-02,ＹＳインターナショナル株式会社,,株式会社,東京都,新宿区,西新宿３丁目３番１３号西新宿水間ビル６階,,13,104,1600023,,,,,,,2025-04-02,1,,,,,ワイエスインターナショナル,0
467,3011401026951,新規,0,2025-04-02,2025-04-02,株式会社ＦＴＮ,,株式会社,東京都,板橋区,小豆沢３丁目９－２Ｂ棟７０８号,,13,119,1740051,,,,,,,2025-04-02,1,,,,,エフティーエヌ,0
469,3011601028533,新規,0,2025-04-02,2025-04-02,Ｒｅｖａｎｃｈｅ株式会社,,株式会社,東京都,練馬区,大泉町６丁目２９番２０号学園スカイマンション２０５号室,,13,120,1780062,,,,,,,2025-04-02,1,,,,,ルヴァンシュ,0
472,3012701018779,新規,0,2025-04-02,2025-04-02,株式会社ＤＣ,,株式会社,東京都,東久留米市,八幡町２丁目１３番２９号,,13,222,2030042,,,,,,,2025-04-02,1,,,,,ディーシー,0
477,3020001161992,新規,0,2025-04-02,2025-04-02,ＮＡＳＣ　ＡＩ株式会社,,株式会社,神奈川県,横浜市中区,元浜町３丁目２１番地２,,14,104,2310004,,,,,,,2025-04-02,1,,,,,ナスクエーアイ,0
478,3020001162017,新規,0,2025-04-02,2025-04-02,ＲｅｖｏＸ株式会社,,株式会社,神奈川県,横浜市都筑区,仲町台５丁目５番１－４１８号,,14,118,2240041,,,,,,,2025-04-02,1,,,,,レボックス,0
479,3020001162033,新規,0,2025-04-02,2025-04-02,株式会社デコレラ,,株式会社,神奈川県,川崎市宮前区,犬蔵２丁目３７番１２－２１０号,,14,136,2160011,,,,,,,2025-04-02,1,,,,,デコレラ,0
480,3020001162074,新規,0,2025-04-02,2025-04-02,株式会社ミナデインプロジェクト,,株式会社,神奈川県,川崎市多摩区,東生田２丁目１番６号,,14,135,2140031,,,,,,,2025-04-02,1,,,,,ミナデインプロジェクト,0
481,3020001162108,新規,0,2025-04-02,2025-04-02,株式会社げに,,株式会社,神奈川県,横浜市緑区,中山４丁目３１番２３号ル・チードビル５０３,,14,113,2260019,,,,,,,2025-04-02,1,,,,,ゲニ,0
487,3020005016755,新規,0,2025-04-02,2025-04-02,ＮＰＯ法人子どもの輪‐起立性調節障害を当事者から広める会,,その他の設立登記法人,神奈川県,横浜市港北区,篠原東２丁目８番１５号,,14,109,2220022,,,,,,,2025-04-02,1,,,,,コドモノワキリツセイチョウセツショウガイヲトウジシャカラヒロメルカイ,0
488,3021001084837,新規,0,2025-04-02,2025-04-02,株式会社響電気,,株式会社,神奈川県,大和市,福田１２６３番地１１,,14,213,2420024,,,,,,,2025-04-02,1,,,,,ヒビキデンキ,0
494,3030001165670,新規,0,2025-04-02,2025-04-02,ＴｒｉｅＮ株式会社,,株式会社,埼玉県,さいたま市西区,西大宮２丁目１０番地１４,,11,101,3310078,,,,,,,2025-04-02,1,,,,,トライエン,0
496,3030003026482,新規,0,2025-04-02,2025-04-02,マイスム合同会社,,合同会社,埼玉県,所沢市,大字上安松１５５－９,,11,208,3590025,,,,,,,2025-04-02,1,,,,,マイスム,0
503,3040003027141,新規,0,2025-04-02,2025-04-02,合同会社Ｎｅｘｔ　Ｐｏｒｔ,,合同会社,千葉県,成田市,西三里塚１番地１５９オプティミスタ六番館１０２,,12,211,2860115,,,,,,,2025-04-02,1,,,,,ネクストポート,0
504,3040003027240,新規,0,2025-04-02,2025-04-02,ＭＭＲ合同会社,,合同会社,千葉県,八千代市,八千代台北１６丁目１－４,,12,221,2760031,,,,,,,2025-04-02,1,,,,,,0
505,3040003027281,新規,0,2025-04-02,2025-04-02,ローカルバリューデザイン合同会社,,合同会社,千葉県,船橋市,二宮２丁目２５番７号,,12,204,2740823,,,,,,,2025-04-02,1,,,,,ローカルバリューデザイン,0
506,3050001056397,新規,0,2025-04-02,2025-04-02,やましたグループ株式会社,,株式会社,茨城県,水戸市,赤塚１丁目１番地ミオス１Ｆ（やましたクリニック内）,,08,201,3114141,,,,,,,2025-04-02,1,,,,,ヤマシタグループ,0
507,3050001056422,新規,0,2025-04-02,2025-04-02,株式会社ｃｕｄｄｌｅ,,株式会社,茨城県,笠間市,住吉１５２２番地１１,,08,216,3091716,,,,,,,2025-04-02,1,,,,,カロー,0
509,3050003009163,新規,0,2025-04-02,2025-04-02,合同会社ｏｎｅ,,合同会社,茨城県,鹿嶋市,大字長栖１８７９番地１５９ヒルズ長栖１０６,,08,222,3140022,,,,,,,2025-04-02,1,,,,,ワン,0
513,3080001026835,新規,0,2025-04-02,2025-04-02,株式会社ＴＰ,,株式会社,静岡県,静岡市清水区,由比北田１１４番地の１,,22,103,4213104,,,,,,,2025-04-02,1,,,,,ティーピー,0
514,3080003003428,新規,0,2025-04-02,2025-04-02,合同会社クサナギ総合サービス,,合同会社,静岡県,静岡市清水区,草薙杉道１丁目９番７６号,,22,103,4240885,,,,,,,2025-04-02,1,,,,,クサナギソウゴウサービス,0
518,3080101025415,新規,0,2025-04-02,2025-04-02,本信株式会社,,株式会社,静岡県,富士市,松岡１０００番地の２２,,22,210,4160909,,,,,,,2025-04-02,1,,,,,ホンシン,0
521,3100003008060,新規,0,2025-04-02,2025-04-02,ＪＡＭ　ｃｏｎｓｔｒｕｃｔｉｏｎｓ合同会社,,合同会社,長野県,北安曇郡白馬村,大字北城６０９４番地シャレー白馬１０１,,20,485,3999301,,,,,,,2025-04-02,1,,,,,ジェーエーエムコンストラクションズ,0
522,3100005013315,新規,0,2025-04-02,2025-04-02,有限責任篠ノ井町第十七住宅組合,,その他の設立登記法人,長野県,長野市,篠ノ井布施高田９５６番地,,20,201,3888007,,,,,,,2025-04-02,1,,,,,ユウゲンセキニンシノノイチョウダイジュウナナ,0
523,3110001039148,新規,0,2025-04-02,2025-04-02,株式会社ＨＵＢ　ＢＡＳＥ,,株式会社,新潟県,新潟市西区,山田４７１番地３２,,15,107,9501101,,,,,,,2025-04-02,1,,,,,ハブベース,0
528,3120001274116,新規,0,2025-04-02,2025-04-02,株式会社ノボ,,株式会社,大阪府,大阪市中央区,久太郎町４丁目１－３大阪センタービル６Ｆ－３２２,,27,128,5410056,,,,,,,2025-04-02,1,,,,,ノボ,0
529,3120001274124,新規,0,2025-04-02,2025-04-02,株式会社ＦＲｅｅｔｙ,,株式会社,大阪府,大阪市都島区,東野田町４丁目１８番１１号,,27,102,5340024,,,,,,,2025-04-02,1,,,,,フリーティ,0
530,3120001274132,新規,0,2025-04-02,2025-04-02,株式会社ビアンアージュ,,株式会社,大阪府,大阪市西区,北堀江１丁目１番４号長堀新興産ビル３Ｆ,,27,106,5500014,,,,,,,2025-04-02,1,,,,,ビアンアージュ,0
531,3120001274149,新規,0,2025-04-02,2025-04-02,株式会社晟輝,,株式会社,大阪府,大阪市東成区,玉津２丁目４１番３号１０１室,,27,115,5370023,,,,,,,2025-04-02,1,,,,,セイキ,0
533,3120003029006,新規,0,2025-04-02,2025-04-02,合同会社ＮＲ　Ｌｉｖｉｎｇ,,合同会社,大阪府,大阪市天王寺区,舟橋町１１番２中島ビル２０３号,,27,109,5430024,,,,,,,2025-04-02,1,,,,,エヌアールリビング,0
534,3120003029014,新規,0,2025-04-02,2025-04-02,合同会社ＲｉｓｅＦｉｒｓｔ＆Ｃｏ．,,合同会社,大阪府,大阪市西成区,千本北１丁目１６－１７,,27,122,5570053,,,,,,,2025-04-02,1,,,,,ライズファーストアンドコー,0
537,3120103006359,新規,0,2025-04-02,2025-04-02,Ｋ＆Ｏ　ｅ‐Ｃｒｅａｔｉｎｇ合同会社,,合同会社,大阪府,羽曳野市,南古市１丁目１５番１１号,,27,222,5830858,,,,,,,2025-04-02,1,,,,,ケイアンドオーイークリエイティング,0
538,3120103006367,新規,0,2025-04-02,2025-04-02,合同会社翡翠,,合同会社,大阪府,堺市中区,深阪４―１６―２,,27,142,5998253,,,,,,,2025-04-02,1,,,,,ヒスイ,0
551,3140001137907,新規,0,2025-04-02,2025-04-02,メンテナンス株式会社,,株式会社,兵庫県,洲本市,五色町都志９０８番地,,28,205,6561301,,,,,,,2025-04-02,1,,,,,メンテナンス,0
555,3140003021852,新規,0,2025-04-02,2025-04-02,３１３Ｇｌｏｂａｌ　Ｇｒｏｕｐ合同会社,,合同会社,兵庫県,神戸市西区,今寺１７－３メゾン春ＩＩ番館１０１号,00138527,28,111,6512114,,,,,,,2025-04-02,1,,,,,サンイチサングローバルグループ,0
556,3140003021869,新規,0,2025-04-02,2025-04-02,合同会社みろく,,合同会社,兵庫県,神戸市須磨区,須磨本町２丁目１番４１号,,28,107,6540054,,,,,,,2025-04-02,1,,,,,ミロク,0
557,3160003003436,新規,0,2025-04-02,2025-04-02,合同会社加留多,,合同会社,滋賀県,大津市,下阪本６丁目４番５１号,,25,201,5200105,,,,,,,2025-04-02,1,,,,,カルタ,0
562,3180001166092,新規,0,2025-04-02,2025-04-02,株式会社Ｙ．Ｋ．Ｓ,,株式会社,愛知県,名古屋市南区,内田橋２丁目４番２１号,,23,112,4570862,,,,,,,2025-04-02,1,,,,,ワイケーエス,0
563,3180001166183,新規,0,2025-04-02,2025-04-02,株式会社メディカルアトラクト,,株式会社,愛知県,名古屋市熱田区,波寄町１０番１９号,,23,109,4560003,,,,,,,2025-04-02,1,,,,,メディカルアトラクト,0
569,3190001032112,新規,0,2025-04-02,2025-04-02,ＤＡＲＩＭＡＳＳＥ　ＡＵＴＯ　ＪＡＰＡＮ株式会社,,株式会社,三重県,三重郡川越町,大字南福崎９０６番地１ティアモＡ２０１,,24,344,5108124,,,,,,,2025-04-02,1,,,,,ダリマセオートジャパン,0
581,3240001064736,新規,0,2025-04-02,2025-04-02,株式会社ＥＮＥＰＬＵＳ,,株式会社,広島県,廿日市市,津田３３８５番地２,,34,213,7380222,,,,,,,2025-04-02,1,,,,,エナプラス,0
584,3240005015925,新規,0,2025-04-02,2025-04-02,地方独立行政法人広島県立病院機構,,その他の設立登記法人,広島県,広島市中区,基町１０番５２号,,34,101,7300011,,,,,,,2025-04-02,1,,,,,ヒロシマケンリツビョウインキコウ,0
587,3290001109445,新規,0,2025-04-02,2025-04-02,つながるモバイル株式会社,,株式会社,福岡県,福岡市西区,大字元岡３６９番地１,,40,135,8190385,,,,,,,2025-04-02,1,,,,,ツナガルモバイル,0
588,3290005019698,新規,0,2025-04-02,2025-04-02,一般財団法人ＮＣＢホール財団,,その他の設立登記法人,福岡県,福岡市博多区,博多駅前３丁目１番１号,,40,132,8120011,,,,,,,2025-04-02,1,,,,,エヌシービーホールザイダン,0
590,3290801031402,新規,0,2025-04-02,2025-04-02,北九州ラヂエーター株式会社,,株式会社,福岡県,北九州市小倉北区,篠崎５丁目２７番４号,,40,106,8030861,,,,,,,2025-04-02,1,,,,,キタキュウシュウラヂエーター,0
592,3310005008839,新規,0,2025-04-02,2025-04-02,ＮＰＯ法人長与ジュニアベースボール,,その他の設立登記法人,長崎県,西彼杵郡長与町,北陽台２丁目１番地５,,42,307,8512131,,,,,,,2025-04-02,1,,,,,ナガヨジュニアベースボール,0
595,3330001033013,新規,0,2025-04-02,2025-04-02,株式会社横島ハピナス生産組合,,株式会社,熊本県,玉名市,横島町横島３４６３番地２,,43,206,8650072,,,,,,,2025-04-02,1,,,,,ヨコシマハピナスセイサンクミアイ,0
597,3330003010919,新規,0,2025-04-02,2025-04-02,森泉合同会社,,合同会社,熊本県,熊本市中央区,萩原町１‐１５‐２０２号,,43,101,8600832,,,,,,,2025-04-02,1,,,,,モリイズミ,0
598,3340001027220,新規,0,2025-04-02,2025-04-02,株式会社城山スーパー,,株式会社,鹿児島県,鹿児島市,下荒田４丁目６番１号２階,,46,201,8900056,,,,,,,2025-04-02,1,,,,,シロヤマスーパー,0
599,3340001027229,新規,0,2025-04-02,2025-04-02,吉田タノ工業株式会社,,株式会社,鹿児島県,鹿児島市,東佐多町２３２７番地,,46,201,8911302,,,,,,,2025-04-02,1,,,,,ヨシダタノコウギョウ,0
602,3350001019456,新規,0,2025-04-02,2025-04-02,ブルーインフラテクノロジーズ株式会社,,株式会社,宮崎県,宮崎市,学園木花台西１丁目１宮崎大学教育学部講義棟３Ｆ,,45,201,8892155,,,,,,,2025-04-02,1,,,,,ブルーインフラテクノロジーズ,0
604,3370001052414,新規,0,2025-04-02,2025-04-02,ジャパンセキュリティ株式会社,,株式会社,宮城県,仙台市宮城野区,苦竹１丁目８番８－６０１号,,04,102,9830036,,,,,,,2025-04-02,1,,,,,ジャパンセキュリティ,0
605,3370003007011,新規,0,2025-04-02,2025-04-02,Ｖａｌｋｙｒｉｅ　Ｓｔｒａｔｅｇｉｅｓ合同会社,,合同会社,宮城県,仙台市青葉区,宮町３丁目８番３８号,,04,101,9800004,,,,,,,2025-04-02,1,,,,,ヴァルキリーストラテジーズ,0
615,3430001094053,新規,0,2025-04-02,2025-04-02,株式会社アーキフ,,株式会社,北海道,札幌市南区,真駒内上町２丁目７番１号,,01,106,0050012,,,,,,,2025-04-02,1,,,,,アーキフ,0
617,3430003017458,新規,0,2025-04-02,2025-04-02,合同会社ウヌカリナガヌマ,,合同会社,北海道,夕張郡長沼町,栄町２丁目１番１９号,,01,428,0691336,,,,,,,2025-04-02,1,,,,,ウヌカリナガヌマ,0
638,4010001253633,新規,0,2025-04-02,2025-04-02,ＴＫホールディングス株式会社,,株式会社,東京都,千代田区,丸の内２丁目１番１号明治安田生命ビル１１階,,13,101,1000005,,,,,,,2025-04-02,1,,,,,ティーケーホールディングス,0
639,4010001253740,新規,0,2025-04-02,2025-04-02,株式会社パケメイト,,株式会社,東京都,千代田区,大手町１丁目４番２号,,13,101,1000004,,,,,,,2025-04-02,1,,,,,パケメイト,0
640,4010001253765,新規,0,2025-04-02,2025-04-02,トラストＩＴコンサルティング株式会社,,株式会社,東京都,千代田区,大手町２丁目２番１号,,13,101,1000004,,,,,,,2025-04-02,1,,,,,トラストアイティコンサルティング,0
645,4010005039830,新規,0,2025-04-02,2025-04-02,東北旋網漁業協同組合,,その他の設立登記法人,東京都,千代田区,霞が関３丁目５番１号近鉄霞が関ビル,,13,101,1000013,,,,,,,2025-04-02,1,,,,,トウホクマキアミ,0
649,4010405024184,新規,0,2025-04-02,2025-04-02,一般財団法人佐藤こども財団,,その他の設立登記法人,東京都,港区,新橋４丁目１４番１新橋ＡＵＮＢＬＤＧ４階,,13,103,1050004,,,,,,,2025-04-02,1,,,,,サトウコドモザイダン,0
651,4010501053855,新規,0,2025-04-02,2025-04-02,謙介株式会社,,株式会社,東京都,台東区,蔵前４丁目１６－６ストーク蔵前Ｍ＆Ｋ４階４０４,,13,106,1110051,,,,,,,2025-04-02,1,,,,,ケンスケ,0
654,4010801035958,新規,0,2025-04-02,2025-04-02,株式会社ｃｏｎｎｅｃｔ　Ｊ＆Ｔ,,株式会社,東京都,大田区,仲六郷１丁目１０番１１号ＡｌｔｅＬｉｅｂｅ・ＫＡＭＡＴＡ１Ａ,,13,111,1440055,,,,,,,2025-04-02,1,,,,,コネクトジェーアンドティー,0
655,4010801035982,新規,0,2025-04-02,2025-04-02,株式会社秀宝,,株式会社,東京都,大田区,蒲田５丁目１９番１５号蒲田東口中央ビル３階,,13,111,1440052,,,,,,,2025-04-02,1,,,,,シュウホウ,0
662,4010903009819,新規,0,2025-04-02,2025-04-02,合同会社ＴＫＳＮ,,合同会社,東京都,世田谷区,駒沢４丁目２５番２４号,,13,112,1540012,,,,,,,2025-04-02,1,,,,,ティーケイエスエヌ,0
667,4011001168623,新規,0,2025-04-02,2025-04-02,Ｓｏｎａｌｙｓ株式会社,,株式会社,東京都,渋谷区,渋谷２丁目１９－１５宮益坂ビルディング６０９,,13,113,1500002,,,,,,,2025-04-02,1,,,,,ソナリス,0
668,4011001168689,新規,0,2025-04-02,2025-04-02,株式会社ＩＭＩ事務局,,株式会社,東京都,渋谷区,道玄坂１丁目１６－６二葉ビル８ｂ,,13,113,1500043,,,,,,,2025-04-02,1,,,,,アイエムアイジムキョク,0
669,4011001168697,新規,0,2025-04-02,2025-04-02,株式会社ＥＮＤ　ＰＯＩＮＴ,,株式会社,東京都,渋谷区,渋谷２丁目１９番１５－６０９号宮益坂ビルディング,,13,113,1500002,,,,,,,2025-04-02,1,,,,,エンドポイント,0
670,4011003021268,新規,0,2025-04-02,2025-04-02,Ｙｏｃａｔｏ合同会社,,合同会社,東京都,渋谷区,渋谷２丁目１９－１５宮益坂ビルディング６０９,,13,113,1500002,,,,,,,2025-04-02,1,,,,,ヨカト,0
671,4011003021276,新規,0,2025-04-02,2025-04-02,合同会社やまじろう,,合同会社,東京都,渋谷区,神泉町１０番１５号アネックス神泉３０１,,13,113,1500045,,,,,,,2025-04-02,1,,,,,ヤマジロウ,0
672,4011003021284,新規,0,2025-04-02,2025-04-02,合同会社ローカルＡＩラボ,,合同会社,東京都,渋谷区,神南１丁目１１番４号ＦＰＧリンクス神南５階,,13,113,1500041,,,,,,,2025-04-02,1,,,,,ローカルエーアイラボ,0
673,4011003021292,新規,0,2025-04-02,2025-04-02,合同会社ＺＺＺ　Ｌａｂ．,,合同会社,東京都,渋谷区,恵比寿西２丁目４番８号ウィンド恵比寿ビル８Ｆ,,13,113,1500021,,,,,,,2025-04-02,1,,,,,ズズズラボ,0
680,4011101111169,新規,0,2025-04-02,2025-04-02,株式会社ＩＮＳＩＧＮ,,株式会社,東京都,新宿区,西新宿３丁目３番１３号西新宿水間ビル２Ｆ,,13,104,1600023,,,,,,,2025-04-02,1,,,,,インサイン,0
681,4011101111177,新規,0,2025-04-02,2025-04-02,株式会社ライズ,,株式会社,東京都,新宿区,新宿７丁目１２番１号新宿平和ビル１階,,13,104,1600022,,,,,,,2025-04-02,1,,,,,ライズ,0
682,4011101111185,新規,0,2025-04-02,2025-04-02,争輝株式会社,,株式会社,東京都,新宿区,百人町３丁目１５番８号２階,,13,104,1690073,,,,,,,2025-04-02,1,,,,,ソウキ,0
683,4011103015715,新規,0,2025-04-02,2025-04-02,ＧＣＣＯＭＰＡＮＹ合同会社,,合同会社,東京都,新宿区,西新宿３丁目３番１３号西新宿水間ビル６階,,13,104,1600023,,,,,,,2025-04-02,1,,,,,ジーシーカンパニー,0
686,4011401026950,新規,0,2025-04-02,2025-04-02,ＯＨＭＩ株式会社,,株式会社,東京都,板橋区,赤塚新町３丁目３２－４－５０７,,13,119,1750093,,,,,,,2025-04-02,1,,,,,オーミ,0
688,4011701028218,新規,0,2025-04-02,2025-04-02,株式会社みらいシード,,株式会社,東京都,江戸川区,北葛西４丁目２番３４－７０１号日商岩井マンション,,13,123,1340081,,,,,,,2025-04-02,1,,,,,ミライシード,0
696,4012405005098,新規,0,2025-04-02,2025-04-02,一般社団法人Ｍｏｔｉｏｎ,,その他の設立登記法人,東京都,狛江市,岩戸南１丁目６－２３ＫｏｍａｅＨｏｕｓｅ３０５号室,,13,219,2010005,,,,,,,2025-04-02,1,,,,,モーション,0
702,4020001162081,新規,0,2025-04-02,2025-04-02,株式会社ＴａｇＡｓｓｅｔ,,株式会社,神奈川県,横浜市鶴見区,駒岡３丁目７番４号,,14,101,2300071,,,,,,,2025-04-02,1,,,,,タッグアセット,0
703,4020001162107,新規,0,2025-04-02,2025-04-02,株式会社ｗｅｌｌ,,株式会社,神奈川県,横浜市中区,本牧三之谷２０番９号,,14,104,2310824,,,,,,,2025-04-02,1,,,,,ウェル,0
709,4020003028165,新規,0,2025-04-02,2025-04-02,合同会社モルテックソリューション,,合同会社,神奈川県,川崎市川崎区,浅田２丁目１８番３号,,14,131,2100847,,,,,,,2025-04-02,1,,,,,モルテックソリューション,0
713,4030001165653,新規,0,2025-04-02,2025-04-02,株式会社ミネル,,株式会社,埼玉県,さいたま市大宮区,桜木町２丁目３番地大宮マルイ７階,,11,103,3300854,,,,,,,2025-04-02,1,,,,,ミネル,0
714,4030001165703,新規,0,2025-04-02,2025-04-02,株式会社ＳｈｉｋａＮｏｐｓ,,株式会社,埼玉県,秩父郡皆野町,大字三沢５４０,,11,362,3691411,,,,,,,2025-04-02,1,,,,,シカノプス,0
720,4040001138014,新規,0,2025-04-02,2025-04-02,株式会社ソヨテック,,株式会社,千葉県,君津市,宮下２丁目８番６号,,12,225,2991117,,,,,,,2025-04-02,1,,,,,ソヨテック,0
721,4040001138146,新規,0,2025-04-02,2025-04-02,株式会社ＨＡＳマネジメント,,株式会社,千葉県,千葉市花見川区,瑞穂１丁目１１番地１７,,12,102,2620026,,,,,,,2025-04-02,1,,,,,エイチアイエスマネジメント,0
723,4040003027231,新規,0,2025-04-02,2025-04-02,賢美合同会社,,合同会社,千葉県,松戸市,紙敷１４７１－５,,12,207,2702221,,,,,,,2025-04-02,1,,,,,ケンビ,0
724,4050001056413,新規,0,2025-04-02,2025-04-02,株式会社ＹＫ,,株式会社,茨城県,土浦市,桜町２丁目５番２号,,08,203,3000037,,,,,,,2025-04-02,1,,,,,ワイケー,0
726,4050005013591,新規,0,2025-04-02,2025-04-02,医療法人社団再光会,,その他の設立登記法人,茨城県,牛久市,ひたち野東４丁目７番地２,,08,219,3001207,,,,,,,2025-04-02,1,,,,,サイコウカイ,0
730,4080001026842,新規,0,2025-04-02,2025-04-02,株式会社Ｎ．Ｙ．Ｐｌｕｓ,,株式会社,静岡県,静岡市葵区,安東３丁目１７番３１号,,22,101,4200882,,,,,,,2025-04-02,1,,,,,エヌワイプラス,0
732,4080401027820,新規,0,2025-04-02,2025-04-02,株式会社浜名湖のほとり農園,,株式会社,静岡県,浜松市中央区,舞阪町舞阪２７０１番地の９,,22,138,4310211,,,,,,,2025-04-02,1,,,,,ハマナコノホトリノウエン,0
734,4100001038455,新規,0,2025-04-02,2025-04-02,フェーズコンプレメンタリー株式会社,,株式会社,長野県,飯田市,上郷飯沼３５４５番地大さじ小さじ内２６号室,,20,205,3950002,,,,,,,2025-04-02,1,,,,,フェーズコンプレメンタリー,0
735,4110001039147,新規,0,2025-04-02,2025-04-02,ＱＴＳエンジニアリング株式会社,,株式会社,新潟県,柏崎市,西本町３丁目１２番３０－１０２号レダン柏崎,,15,205,9450066,,,,,,,2025-04-02,1,,,,,キューティーエスエンジニアリング,0
742,4120001274107,新規,0,2025-04-02,2025-04-02,株式会社ｆｏｒｇｅｔ‐ｍｅ‐ｎｏｔ,,株式会社,大阪府,大阪市中央区,高津１丁目１０番１８号栄光ビル７０５,,27,128,5420072,,,,,,,2025-04-02,1,,,,,フォーゲットミーノット,0
743,4120001274115,新規,0,2025-04-02,2025-04-02,株式会社ＦＲＥＥＤＯＭ,,株式会社,大阪府,大阪市北区,本庄東２丁目５番１１号メゾンドゥレイナＩＩ４０２,00138528,27,127,5310074,,,,,,,2025-04-02,1,,,,,フリーダム,0
744,4120001274131,新規,0,2025-04-02,2025-04-02,株式会社ｍｙｎ,,株式会社,大阪府,大阪市西区,北堀江２丁目６番１８号,,27,106,5500014,,,,,,,2025-04-02,1,,,,,エムワイエヌ,0
745,4120001274156,新規,0,2025-04-02,2025-04-02,一誠国際株式会社,,株式会社,大阪府,大阪市中央区,南船場１丁目３番５号リプロ南船場ビル１３階,,27,128,5420081,,,,,,,2025-04-02,1,,,,,イッセイコクサイ,0
746,4120001274189,新規,0,2025-04-02,2025-04-02,三友株式会社,,株式会社,大阪府,大阪市西成区,鶴見橋１丁目１０番１４号３０３室,,27,122,5570031,,,,,,,2025-04-02,1,,,,,サンユウ,0
747,4120101071379,新規,0,2025-04-02,2025-04-02,株式会社クレイコンサルティング,,株式会社,大阪府,和泉市,はつが野１丁目３番４４号,,27,219,5941106,,,,,,,2025-04-02,1,,,,,クレイコンサルティング,0
748,4120103006358,新規,0,2025-04-02,2025-04-02,Ａｗａｎ　Ｔｒａｄｉｎｇ合同会社,,合同会社,大阪府,和泉市,福瀬町５１１番地１,,27,219,5941123,,,,,,,2025-04-02,1,,,,,アワントレーディング,0
754,4130001079298,新規,0,2025-04-02,2025-04-02,株式会社３Ｒ,,株式会社,京都府,京都市下京区,中堂寺前町４９３番地,,26,106,6008362,,,,,,,2025-04-02,1,,,,,サンアール,0
755,4130001079348,新規,0,2025-04-02,2025-04-02,株式会社ＭＡＨＡＲＯ建築積算,,株式会社,京都府,京都市左京区,下鴨東半木町７１番地２０,,26,103,6060824,,,,,,,2025-04-02,1,,,,,マハロケンチクセキサン,0
762,4140003021851,新規,0,2025-04-02,2025-04-02,合同会社ファブリック,,合同会社,兵庫県,尼崎市,杭瀬北新町４丁目９番１号４０２,,28,202,6600815,,,,,,,2025-04-02,1,,,,,ファブリック,0
772,4180001166083,新規,0,2025-04-02,2025-04-02,株式会社ＴＲターコイズリサイクル,,株式会社,愛知県,名古屋市中村区,名駅１丁目１番１号ＪＰタワー名古屋２１階,,23,105,4500002,,,,,,,2025-04-02,1,,,,,ティーアールターコイズリサイクル,0
773,4180001166109,新規,0,2025-04-02,2025-04-02,株式会社ＨＥＡＬＥＳＴ,,株式会社,愛知県,名古屋市中村区,名駅南１丁目２３番２８号笹安ビル４０１号室,,23,105,4500003,,,,,,,2025-04-02,1,,,,,ヒーレスト,0
774,4180001166125,新規,0,2025-04-02,2025-04-02,株式会社えびの塗装工業,,株式会社,愛知県,名古屋市東区,泉３丁目４番１号,,23,102,4610001,,,,,,,2025-04-02,1,,,,,エビノトソウコウギョウ,0
785,4240001064735,新規,0,2025-04-02,2025-04-02,株式会社ローカルパートナー,,株式会社,広島県,広島市中区,十日市町１丁目２番１１－１２０２号,,34,101,7300805,,,,,,,2025-04-02,1,,,,,ローカルパートナー,0
786,4240001064743,新規,0,2025-04-02,2025-04-02,株式会社たっとび,,株式会社,広島県,廿日市市,津田２７３７－１,,34,213,7380222,,,,,,,2025-04-02,1,,,,,タットビ,0
790,4280001009389,新規,0,2025-04-02,2025-04-02,スミガワ総合開発株式会社,,株式会社,島根県,鹿足郡吉賀町,有飯５５０番地,,32,505,6995506,,,,,,,2025-04-02,1,,,,,,0
795,4340001027228,新規,0,2025-04-02,2025-04-02,株式会社サニープレイス,,株式会社,鹿児島県,霧島市,隼人町東郷４３５番地５,,46,218,8995115,,,,,,,2025-04-02,1,,,,,サニープレイス,0
799,4340003004794,新規,0,2025-04-02,2025-04-02,合同会社Ｖｒｉｊｈｅｉｄ,,合同会社,鹿児島県,鹿児島市,宇宿７丁目１３番２２号ラポールＫ１０１号,,46,201,8900073,,,,,,,2025-04-02,1,,,,,フライハイ,0
801,4350003004892,新規,0,2025-04-02,2025-04-02,合同会社ＨＯＰＥ,,合同会社,宮崎県,宮崎市,佐土原町下田島１９９０６番地１,,45,201,8800211,,,,,,,2025-04-02,1,,,,,ホープ,0
803,4360001034981,新規,0,2025-04-02,2025-04-02,株式会社しゅんぶん,,株式会社,沖縄県,国頭郡恩納村,字仲泊９２９番地１グランブルーＯＮＮＡＩ５０６号,00138537,47,311,9040415,,,,,,,2025-04-02,1,,,,,シュンブン,0
806,4370001052413,新規,0,2025-04-02,2025-04-02,株式会社ｏｎ　ｙｏｕｒ　ｍａｒｋｓ,,株式会社,宮城県,仙台市青葉区,堤町３丁目２５番２８号,,04,101,9810912,,,,,,,2025-04-02,1,,,,,オンユアマークス,0
811,4400003003419,新規,0,2025-04-02,2025-04-02,合同会社あけび橋研究所,,合同会社,岩手県,盛岡市,津志田町１丁目６番２５－２０１号,,03,201,0200837,,,,,,,2025-04-02,1,,,,,アケビバシケンキュウショ,0
813,4430001094044,新規,0,2025-04-02,2025-04-02,株式会社サイドエス,,株式会社,北海道,札幌市東区,北三十六条東２９丁目１０－１８,,01,103,0070836,,,,,,,2025-04-02,1,,,,,サイドエス,0
814,4430001094052,新規,0,2025-04-02,2025-04-02,ライフハンディ株式会社,,株式会社,北海道,札幌市白石区,本郷通８丁目北７番１号山口ビル２０３号,,01,104,0030025,,,,,,,2025-04-02,1,,,,,ライフハンディ,0
815,4430001094060,新規,0,2025-04-02,2025-04-02,マイラシークライフサポート株式会社,,株式会社,北海道,札幌市中央区,北二条東２丁目１番地１６,,01,101,0600032,,,,,,,2025-04-02,1,,,,,マイラシークライフサポート,0
820,4470001020649,新規,0,2025-04-02,2025-04-02,株式会社Ｔ,,株式会社,香川県,坂出市,川津町６４１２番地,,37,203,7620025,,,,,,,2025-04-02,1,,,,,ティー,0
826,4500001026221,新規,0,2025-04-02,2025-04-02,株式会社大永警備,,株式会社,愛媛県,松山市,鴨川１丁目５番３４号２Ｆ,,38,201,7918004,,,,,,,2025-04-02,1,,,,,ダイエイケイビ,0
841,5010001253665,新規,0,2025-04-02,2025-04-02,株式会社ＤＥＣＯＳ,,株式会社,東京都,千代田区,九段南２丁目５番９－９０３号,,13,101,1020074,,,,,,,2025-04-02,1,,,,,デコーズ,0
842,5010001253673,新規,0,2025-04-02,2025-04-02,株式会社ＢＥＣＯＭＥ　ＲＩＣＨ,,株式会社,東京都,中央区,銀座１丁目１２番４号Ｎ＆ＥＢＬＤ．６Ｆ,,13,102,1040061,,,,,,,2025-04-02,1,,,,,ビカムリッチ,0
843,5010001253707,新規,0,2025-04-02,2025-04-02,株式会社ＣＤ　Ｅｎｔｅｒｔａｉｎｍｅｎｔ,,株式会社,東京都,中央区,銀座１丁目１２－Ｎ＆ＥＢＬＤ．７階,,13,102,1040061,,,,,,,2025-04-02,1,,,,,ジーディーエンターテイメント,0
846,5010003046935,新規,0,2025-04-02,2025-04-02,トキノリレイ合同会社,,合同会社,東京都,中央区,日本橋室町１丁目１１番１２号日本橋水野ビル７階,,13,102,1030022,,,,,,,2025-04-02,1,,,,,トキノリレイ,0
847,5010101016591,新規,0,2025-04-02,2025-04-02,株式会社ＥＮＬＩＧＨＴ,,株式会社,東京都,八王子市,大和田町６丁目１３－９第一梅沢ビル２０１,,13,201,1920045,,,,,,,2025-04-02,1,,,,,エンライト,0
854,5010401189245,新規,0,2025-04-02,2025-04-02,株式会社ＭＧＢ,,株式会社,東京都,港区,虎ノ門３丁目２２番１０－２０５号,,13,103,1050001,,,,,,,2025-04-02,1,,,,,エムジービー,0
855,5010401189278,新規,0,2025-04-02,2025-04-02,ＡＩＳｅｅ株式会社,,株式会社,東京都,港区,南青山２丁目２番１５号,,13,103,1070062,,,,,,,2025-04-02,1,,,,,エイアイシー,0
857,5010403034696,新規,0,2025-04-02,2025-04-02,合同会社Ｍ,,合同会社,東京都,港区,白金１丁目２番１－２７１６号,,13,103,1080072,,,,,,,2025-04-02,1,,,,,エム,0
860,5010501053870,新規,0,2025-04-02,2025-04-02,株式会社ＧＬＯＲＹ,,株式会社,東京都,台東区,蔵前１丁目８番６号リバーサイドタワー蔵前,,13,106,1110051,,,,,,,2025-04-02,1,,,,,グローリー,0
861,5010503007783,新規,0,2025-04-02,2025-04-02,Ｔｅｌａｎ　Ｅｎｔｅｒｐｒｉｓｅｓ合同会社,,合同会社,東京都,台東区,元浅草１丁目６番１２号７０６号室,,13,106,1110041,,,,,,,2025-04-02,1,,,,,テランエンタープライズ,0
863,5010601067036,新規,0,2025-04-02,2025-04-02,株式会社まるごと,,株式会社,東京都,墨田区,押上３丁目２５番１１号,,13,107,1310045,,,,,,,2025-04-02,1,,,,,マルゴト,0
868,5010801035981,新規,0,2025-04-02,2025-04-02,株式会社ＴＲＹ,,株式会社,東京都,大田区,南馬込４丁目２９番１４号,,13,111,1430025,,,,,,,2025-04-02,1,,,,,トライ,0
871,5010901057100,新規,0,2025-04-02,2025-04-02,株式会社良選フーズ,,株式会社,東京都,世田谷区,松原２丁目４２番９号美鈴Ｎビル５０１,,13,112,1560043,,,,,,,2025-04-02,1,,,,,リョウセンフーズ,0
872,5011001168606,新規,0,2025-04-02,2025-04-02,株式会社Ｒａｐｔｏｒ,,株式会社,東京都,渋谷区,道玄坂１丁目１０番８号渋谷道玄坂東急ビル２Ｆ－Ｃ,,13,113,1500043,,,,,,,2025-04-02,1,,,,,ラプトル,0
873,5011001168622,新規,0,2025-04-02,2025-04-02,ｙｏｈａＱ株式会社,,株式会社,東京都,渋谷区,神南１丁目１１－４ＦＰＧリンクス神南５階,,13,113,1500041,,,,,,,2025-04-02,1,,,,,ヨハク,0
874,5011001168688,新規,0,2025-04-02,2025-04-02,株式会社あなたのＡＩ,,株式会社,東京都,渋谷区,道玄坂１丁目１０番８号渋谷道玄坂東急ビル２Ｆ―Ｃ,,13,113,1500043,,,,,,,2025-04-02,1,,,,,アナタノエーアイ,0
875,5011001168721,新規,0,2025-04-02,2025-04-02,株式会社猿厨ｄｉｎｉｎｇ,,株式会社,東京都,渋谷区,南平台町９番１８号,,13,113,1500036,,,,,,,2025-04-02,1,,,,,サルズダイニング,0
876,5011001168812,新規,0,2025-04-02,2025-04-02,株式会社アテンタ,,株式会社,東京都,渋谷区,広尾４丁目１番３２－７０４号,,13,113,1500012,,,,,,,2025-04-02,1,,,,,アテンタ,0
878,5011003021283,新規,0,2025-04-02,2025-04-02,相畑電業合同会社,,合同会社,東京都,渋谷区,道玄坂１丁目１０番８号渋谷道玄坂東急ビル２Ｆ－Ｃ,,13,113,1500043,,,,,,,2025-04-02,1,,,,,アイハタデンギョウ,0
879,5011003021309,新規,0,2025-04-02,2025-04-02,合同会社ＵＮＳＴＡＮＤＡＲＤ,,合同会社,東京都,渋谷区,道玄坂１丁目１０番８号渋谷道玄坂東急ビル２Ｆ－Ｃ,,13,113,1500043,,,,,,,2025-04-02,1,,,,,アンスタンダード,0
881,5011101111127,新規,0,2025-04-02,2025-04-02,株式会社オフィス雅,,株式会社,東京都,新宿区,中落合４丁目１３番１６号神田コーポ１０１,,13,104,1610032,,,,,,,2025-04-02,1,,,,,オフィスミヤビ,0
882,5011101111184,新規,0,2025-04-02,2025-04-02,株式会社青色設計,,株式会社,東京都,新宿区,西新宿３丁目９番７号フロンティア新宿タワー３階,,13,104,1600023,,,,,,,2025-04-02,1,,,,,アオイロセッケイ,0
884,5011401026958,新規,0,2025-04-02,2025-04-02,株式会社ＲＭホールディングス,,株式会社,東京都,板橋区,宮本町２番１２－７０１号,,13,119,1740054,,,,,,,2025-04-02,1,,,,,アールエムホールディングス,0
885,5011701028225,新規,0,2025-04-02,2025-04-02,株式会社ＷＥＶＩＭＡ,,株式会社,東京都,江戸川区,中葛西６丁目２０番２３号,,13,123,1340083,,,,,,,2025-04-02,1,,,,,ウェビマ,0
887,5012301014318,新規,0,2025-04-02,2025-04-02,株式会社ＷＩＴ,,株式会社,東京都,町田市,原町田２丁目２１番２４号－２０５号,,13,209,1940013,,,,,,,2025-04-02,1,,,,,ウィット,0
889,5012805003329,新規,0,2025-04-02,2025-04-02,東京障害者福祉事業協同組合,,その他の設立登記法人,東京都,国立市,東１丁目１番地の３,,13,215,1860002,,,,,,,2025-04-02,1,,,,,トウキョウショウガイシャフクシ,0
895,5020001161842,新規,0,2025-04-02,2025-04-02,株式会社ＡＺ,,株式会社,神奈川県,横浜市鶴見区,江ケ崎町８番６３ー２４４号,,14,101,2300002,,,,,,,2025-04-02,1,,,,,アズ,0
896,5020001162007,新規,0,2025-04-02,2025-04-02,株式会社財務成長ラボ,,株式会社,神奈川県,横浜市鶴見区,鶴見中央２丁目２－４鶴見ダイカンプラザ３０７,,14,101,2300051,,,,,,,2025-04-02,1,,,,,ザイムセイチョウラボ,0
897,5020001162048,新規,0,2025-04-02,2025-04-02,株式会社Ｔｅｔｎａ　Ｊａｐａｎ,,株式会社,神奈川県,川崎市中原区,今井上町２番１号タクミビル２階,,14,133,2110067,,,,,,,2025-04-02,1,,,,,テトナジャパン,0
898,5020001162072,新規,0,2025-04-02,2025-04-02,上棟人類株式会社,,株式会社,神奈川県,横浜市旭区,上白根１丁目２番１号菱興白根第１マンション１０６,,14,112,2410002,,,,,,,2025-04-02,1,,,,,ジョウトウジンルイ,0
899,5020001162080,新規,0,2025-04-02,2025-04-02,エコロジーブルーコンサルティング株式会社,,株式会社,神奈川県,横浜市中区,寺久保１４１番地７,,14,104,2310855,,,,,,,2025-04-02,1,,,,,エコロジーブルーコンサルティング,0
900,5020001162089,新規,0,2025-04-02,2025-04-02,祥英株式会社,,株式会社,神奈川県,横浜市磯子区,森４丁目１０番２２号,,14,107,2350023,,,,,,,2025-04-02,1,,,,,ソウエ,0
901,5020001162097,新規,0,2025-04-02,2025-04-02,株式会社サクウェイ,,株式会社,神奈川県,横浜市中区,桜木町１丁目１０１番地１クロスゲート７階,,14,104,2310062,,,,,,,2025-04-02,1,,,,,サクウェイ,0
902,5020001162130,新規,0,2025-04-02,2025-04-02,Ｚｉｌｌｉｏｎ　ｃｏｎｓｕｌｔｉｎｇ株式会社,,株式会社,神奈川県,川崎市高津区,久本１丁目６番８号,,14,134,2130011,,,,,,,2025-04-02,1,,,,,,0
909,5030001165636,新規,0,2025-04-02,2025-04-02,株式会社ユイワンシステムズ,,株式会社,埼玉県,所沢市,若狭４丁目２３８６番地１５,,11,208,3591151,,,,,,,2025-04-02,1,,,,,ユイワンシステムズ,0
910,5030001165677,新規,0,2025-04-02,2025-04-02,株式会社ＣＰＡエンジニアリング,,株式会社,埼玉県,草加市,稲荷６丁目１０番９号,,11,221,3400003,,,,,,,2025-04-02,1,,,,,,0
913,5030003026456,新規,0,2025-04-02,2025-04-02,ワコン総研合同会社,,合同会社,埼玉県,所沢市,大字上安松４９３番地１７,,11,208,3590025,,,,,,,2025-04-02,1,,,,,ワコンソウケン,0
920,5040001138079,新規,0,2025-04-02,2025-04-02,株式会社エイチサーベイオフィス,,株式会社,千葉県,佐倉市,西志津４丁目２１番１号,,12,212,2850845,,,,,,,2025-04-02,1,,,,,エイチサーベイオフィス,0
921,5040001138095,新規,0,2025-04-02,2025-04-02,株式会社リーシスプランニング,,株式会社,千葉県,千葉市美浜区,中瀬１丁目９番地１スターツ幕張ビル１５Ｆ,,12,106,2610023,,,,,,,2025-04-02,1,,,,,リーシスプランニング,0
923,5040003027247,新規,0,2025-04-02,2025-04-02,合同会社Ａｏｈａ　Ｗｅｌｌｎｅｓｓ　Ｓｕｐｐｏｒｔ,,合同会社,千葉県,市川市,南八幡４丁目４番２６号グランデヒロ本八幡２Ｆ,,12,203,2720023,,,,,,,2025-04-02,1,,,,,アオハウェルネスサポート,0
924,5050003009161,新規,0,2025-04-02,2025-04-02,合同会社エンタイトル,,合同会社,茨城県,土浦市,乙戸南３丁目８番５号,,08,203,3000845,,,,,,,2025-04-02,1,,,,,エンタイトル,0
928,5080003003426,新規,0,2025-04-02,2025-04-02,テクノリーフ合同会社,,合同会社,静岡県,静岡市葵区,駒形通２丁目５番１０－５０４号,,22,101,4200042,,,,,,,2025-04-02,1,,,,,テクノリーフ,0
929,5080005007680,新規,0,2025-04-02,2025-04-02,司法書士法人けやき,,その他の設立登記法人,静岡県,静岡市葵区,竜南３丁目１２番３号,,22,101,4200804,,,,,,,2025-04-02,1,,,,,ケヤキ,0
931,5080401027828,新規,0,2025-04-02,2025-04-02,ａｌ　ｆｒａｎｃ株式会社,,株式会社,静岡県,浜松市中央区,田町３２５番地の１４、２Ｆ,,22,138,4300944,,,,,,,2025-04-02,1,,,,,アルフラン,0
934,5110003005716,新規,0,2025-04-02,2025-04-02,合同会社にじの木,,合同会社,新潟県,新潟市北区,松浜本町２丁目１６番１０号,,15,101,9503125,,,,,,,2025-04-02,1,,,,,ニジノキ,0
943,5120001274106,新規,0,2025-04-02,2025-04-02,株式会社ロケットボーイズ,,株式会社,大阪府,大阪市西区,北堀江３丁目４番６号Ｃａｎａｌｄｏ北堀江２０２,,27,106,5500014,,,,,,,2025-04-02,1,,,,,ロケットボーイズ,0
944,5120001274139,新規,0,2025-04-02,2025-04-02,株式会社ＥｎＲｉｃｈ,,株式会社,大阪府,大阪市北区,梅田１丁目２番２号大阪駅前第２ビル１２－１２,,27,127,5300001,,,,,,,2025-04-02,1,,,,,エンリッチ,0
945,5120001274147,新規,0,2025-04-02,2025-04-02,株式会社もものすけ,,株式会社,大阪府,大阪市生野区,巽西１丁目３番１７－８０２号,00138526,27,116,5440012,,,,,,,2025-04-02,1,,,,,モモノスケ,0
946,5120001274171,新規,0,2025-04-02,2025-04-02,宏坤株式会社,,株式会社,大阪府,大阪市住吉区,大領５丁目２番２４号サンフラワー大領５０２号室,,27,120,5580001,,,,,,,2025-04-02,1,,,,,コウコン,0
947,5120001274312,新規,0,2025-04-02,2025-04-02,株式会社ニウス,,株式会社,大阪府,大阪市天王寺区,茶臼山町２－３７,,27,109,5430063,,,,,,,2025-04-02,1,,,,,ニウス,0
948,5120001274436,新規,0,2025-04-02,2025-04-02,株式会社ＧｒｉｔＨｕｂ,,株式会社,大阪府,大阪市中央区,南久宝寺町３丁目４‐１５,,27,128,5410058,,,,,,,2025-04-02,1,,,,,グリットハブ,0
949,5120003028749,新規,0,2025-04-02,2025-04-02,Ｍａｘｉｍｕｓ合同会社,,合同会社,大阪府,大阪市中央区,高麗橋１丁目７‐７‐２５１１,,27,128,5410043,,,,,,,2025-04-02,1,,,,,マキシマス,0
951,5120103006349,新規,0,2025-04-02,2025-04-02,合同会社Ｌｏｏｐ,,合同会社,大阪府,堺市南区,竹城台１丁１２竹城台コーポ１７,,27,145,5900105,,,,,,,2025-04-02,1,,,,,ループ,0
952,5120905006711,新規,0,2025-04-02,2025-04-02,一般社団法人サポーターズサポート,,その他の設立登記法人,大阪府,豊中市,蛍池東町二丁目１番３号武岡ビル東室,,27,203,5600000,,,,,,,2025-04-02,1,,,,,サポーターズサポート,0
955,5130001079306,新規,0,2025-04-02,2025-04-02,和多志陸送株式会社,,株式会社,京都府,京田辺市,興戸御垣内６５－３,,26,211,6100332,,,,,,,2025-04-02,1,,,,,ワタシリクソウ,0
970,5160001026635,新規,0,2025-04-02,2025-04-02,株式会社Ｋ２アセンション,,株式会社,滋賀県,大津市,和邇今宿１７７番地,,25,201,5200524,,,,,,,2025-04-02,1,,,,,ケーツーアセンション,0
972,5170001018540,新規,0,2025-04-02,2025-04-02,株式会社Ｓｔｒｅａｍ　Ｓｔａｒｓ,,株式会社,和歌山県,和歌山市,梅原７９５番地８,,30,201,6408452,,,,,,,2025-04-02,1,,,,,ストリームスターズ,0
974,5180001166215,新規,0,2025-04-02,2025-04-02,株式会社つだ,,株式会社,愛知県,名古屋市東区,泉２丁目８番２号ＡＬＡ泉ビル１階,,23,102,4610001,,,,,,,2025-04-02,1,,,,,ツダ,0
980,5200001043584,新規,0,2025-04-02,2025-04-02,株式会社ＯＲＩＯＮ,,株式会社,岐阜県,多治見市,音羽町４丁目１４番地１,,21,204,5070037,,,,,,,2025-04-02,1,,,,,オリオン,0
982,5240005015923,新規,0,2025-04-02,2025-04-02,一般社団法人ＬＩＢＥＲＴＡＳ,,その他の設立登記法人,広島県,広島市西区,井口１丁目３番５４－２０１号,,34,104,7330842,,,,,,,2025-04-02,1,,,,,リベルタス,0
984,5250001021065,新規,0,2025-04-02,2025-04-02,株式会社ｓｏｒｐｒｅｓａ,,株式会社,山口県,宇部市,開４丁目７番１４号３,,35,202,7550096,,,,,,,2025-04-02,1,,,,,ソルプレーサ,0
987,5260003005115,新規,0,2025-04-02,2025-04-02,合同会社ｔｒｅｅ,,合同会社,岡山県,倉敷市,東富井８６３ｇｅｍｏ２０１,,33,202,7100847,,,,,,,2025-04-02,1,,,,,ツリー,0
988,5270001009174,新規,0,2025-04-02,2025-04-02,株式会社やわらね,,株式会社,鳥取県,米子市,河崎１７４１番地１１,,31,202,6830852,,,,,,,2025-04-02,1,,,,,ヤワラネ,0
990,5280001009388,新規,0,2025-04-02,2025-04-02,奥出雲和牛株式会社,,株式会社,島根県,雲南市,木次町里方１０８８番地６,,32,209,6991311,,,,,,,2025-04-02,1,,,,,オクイズモワギュウ,0
1000,5330003010933,新規,0,2025-04-02,2025-04-02,Ｋｅｎｉｋ合同会社,,合同会社,熊本県,熊本市東区,保田窪４丁目１４番４３―３号,,43,102,8620926,,,,,,,2025-04-02,1,,,,,ケニック,0
1003,5340001027219,新規,0,2025-04-02,2025-04-02,株式会社きれいハウジング,,株式会社,鹿児島県,薩摩川内市,中郷３丁目１番地１,,46,215,8950072,,,,,,,2025-04-02,1,,,,,キレイハウジング,0
1006,5370001052412,新規,0,2025-04-02,2025-04-02,株式会社ｅｎｓｅｍｂｌｅ,,株式会社,宮城県,仙台市宮城野区,苦竹３丁目４番５号,,04,102,9830036,,,,,,,2025-04-02,1,,,,,アンサンブル,0
1010,5400001016990,新規,0,2025-04-02,2025-04-02,結建設株式会社,,株式会社,岩手県,盛岡市,三ツ割４丁目７番３７号,,03,201,0200011,,,,,,,2025-04-02,1,,,,,ムスビケンセツ,0
1014,5400003003426,新規,0,2025-04-02,2025-04-02,ファインテクノ合同会社,,合同会社,岩手県,宮古市,津軽石第６地割４５番地４,,03,202,0270203,,,,,,,2025-04-02,1,,,,,ファインテクノ,0
1015,5410001014102,新規,0,2025-04-02,2025-04-02,株式会社あけのファーム,,株式会社,秋田県,大仙市,角間川町字元道巻１０４番地２,,05,212,0141413,,,,,,,2025-04-02,1,,,,,アケノファーム,0
1034,6010001253499,新規,0,2025-04-02,2025-04-02,株式会社タスクコミット,,株式会社,東京都,中央区,銀座１丁目１２番４号Ｎ＆ＥＢＬＤ．６Ｆ,,13,102,1040061,,,,,,,2025-04-02,1,,,,,タスクコミット,0
1035,6010001253648,新規,0,2025-04-02,2025-04-02,株式会社センヒロエステート,,株式会社,東京都,千代田区,岩本町１丁目３番１号神田ビジネスセンター４Ｇ,,13,101,1010032,,,,,,,2025-04-02,1,,,,,センヒロエステート,0
1036,6010001253680,新規,0,2025-04-02,2025-04-02,株式会社ｎｏｄｏｍａｒｕ　ｈｕｍａｎ　ｃａｐｉｔａｌ,,株式会社,東京都,中央区,新川２丁目１８番１－１１０１号,,13,102,1040033,,,,,,,2025-04-02,1,,,,,ノドマルヒューマンキャピタル,0
1037,6010001253706,新規,0,2025-04-02,2025-04-02,江野投資株式会社,,株式会社,東京都,中央区,銀座１丁目１２番４号Ｎ＆Ｅ・ＢＬＤ．６Ｆ,,13,102,1040061,,,,,,,2025-04-02,1,,,,,コウノトウシ,0
1038,6010003046629,新規,0,2025-04-02,2025-04-02,合同会社Ｔｒｉｐｌｅ　Ｗｉｎ,,合同会社,東京都,千代田区,神田須田町１丁目７番８号ＯＲＴ秋葉原ＩＶ２Ｆ,00138535,13,101,1010041,,,,,,,2025-04-02,1,,,,,トリプルウィン,0
1051,6010405024190,新規,0,2025-04-02,2025-04-02,一般社団法人ＴＴ　Ａｒｔ　Ｃｕｌｔｕｒｅ,,その他の設立登記法人,東京都,港区,北青山１丁目３番１号アールキューブ青山３階,,13,103,1070061,,,,,,,2025-04-02,1,,,,,ティーティーアートカルチャー,0
1055,6010503007782,新規,0,2025-04-02,2025-04-02,ＭＡＨＯＴＡ　ＴＲＡＤＥＲＳ合同会社,,合同会社,東京都,台東区,雷門２丁目１９番１７号浅草雷一ビル４１２号,,13,106,1110034,,,,,,,2025-04-02,1,,,,,マホタトレーダーズ,0
1064,6010703007640,新規,0,2025-04-02,2025-04-02,合同会社倖継舎,,合同会社,東京都,品川区,大井２丁目２番８号,,13,109,1400014,,,,,,,2025-04-02,1,,,,,コウケイシャ,0
1076,6011001168605,新規,0,2025-04-02,2025-04-02,株式会社ＬＡ　ＳＴＥＬＬＡ,,株式会社,東京都,渋谷区,東２丁目１７番３号,,13,113,1500011,,,,,,,2025-04-02,1,,,,,ラステラ,0
1077,6011001168613,新規,0,2025-04-02,2025-04-02,株式会社ＧＡＴＥ,,株式会社,東京都,渋谷区,富ヶ谷２丁目２０番８号プラウドフラット渋谷富ヶ谷７０６号室,,13,113,1510063,,,,,,,2025-04-02,1,,,,,ゲート,0
1078,6011001168662,新規,0,2025-04-02,2025-04-02,ＳＩＸ株式会社,,株式会社,東京都,渋谷区,恵比寿南１丁目７番８号恵比寿サウスワン１０階,,13,113,1500022,,,,,,,2025-04-02,1,,,,,シックス,0
1079,6011001168679,新規,0,2025-04-02,2025-04-02,株式会社ＮＥＸＵＳ　ＡＲＣ,,株式会社,東京都,渋谷区,渋谷２丁目１９番１９号ワコー宮益坂ビル５階,,13,113,1500002,,,,,,,2025-04-02,1,,,,,ネクサスアーク,0
1080,6011001168687,新規,0,2025-04-02,2025-04-02,株式会社クラウス,,株式会社,東京都,渋谷区,大山町４３番１４号ＫＬＡＵＳ００１,,13,113,1510065,,,,,,,2025-04-02,1,,,,,クラウス,0
1081,6011001168695,新規,0,2025-04-02,2025-04-02,株式会社ＹＢＣ,,株式会社,東京都,目黒区,東が丘２丁目１４番１１号駒沢ｂａｓｅ２Ｆ,,13,110,1520021,,,,,,,2025-04-02,1,,,,,ワイビーシー,0
1082,6011001168704,新規,0,2025-04-02,2025-04-02,株式会社夏の花,,株式会社,東京都,渋谷区,西原３丁目４４番１２号西原パークマンション１０２,,13,113,1510066,,,,,,,2025-04-02,1,,,,,ナツノハナ,0
1083,6011003021266,新規,0,2025-04-02,2025-04-02,オット合同会社,,合同会社,東京都,渋谷区,恵比寿１丁目３０番１２－１００４号,,13,113,1500013,,,,,,,2025-04-02,1,,,,,オット,0
1084,6011003021282,新規,0,2025-04-02,2025-04-02,ｌａｕｂｅ合同会社,,合同会社,東京都,目黒区,中目黒１丁目７番１１－１０１号,,13,110,1530061,,,,,,,2025-04-02,1,,,,,ローブ,0
1086,6011103015713,新規,0,2025-04-02,2025-04-02,合同会社ＳＰＶ０９,,合同会社,東京都,新宿区,四谷２丁目９番地１５東京ユナイテッド綜合事務所内,,13,104,1600004,,,,,,,2025-04-02,1,,,,,エスピーブイゼロキュウ,0
1087,6011201026249,新規,0,2025-04-02,2025-04-02,株式会社ＬＧＤＪ,,株式会社,東京都,中野区,中野５丁目６８番８号ライオンズマンション中野第三２Ｆ－２Ａ,,13,114,1640001,,,,,,,2025-04-02,1,,,,,エルジーディージェイ,0
1091,6011501031881,新規,0,2025-04-02,2025-04-02,ＧＹＣ株式会社,,株式会社,東京都,荒川区,町屋３丁目２３番１８号東和ビル５０３号（５－Ｃ）,,13,118,1160001,,,,,,,2025-04-02,1,,,,,ジーワイシー,0
1094,6011703004181,新規,0,2025-04-02,2025-04-02,佳安国際合同会社,,合同会社,東京都,江戸川区,西小岩５丁目１３－１３,,13,123,1330057,,,,,,,2025-04-02,1,,,,,カアンコクサイ,0
1097,6011801045895,新規,0,2025-04-02,2025-04-02,ｕｎｉ株式会社,,株式会社,東京都,足立区,西新井本町３丁目１０番９号,,13,121,1230845,,,,,,,2025-04-02,1,,,,,ウニ,0
1103,6013301054014,新規,0,2025-04-02,2025-04-02,ＳＵＩＭＯＴＯ株式会社,,株式会社,東京都,豊島区,東池袋１丁目３１番１３号４０３室,,13,116,1700013,,,,,,,2025-04-02,1,,,,,スイモト,0
1108,6020001161874,新規,0,2025-04-02,2025-04-02,ＫＥＹｓ株式会社,,株式会社,神奈川県,横浜市青葉区,美しが丘３丁目５９番地８アリエッタＣ号,,14,117,2250002,,,,,,,2025-04-02,1,,,,,キーズ,0
1109,6020001162014,新規,0,2025-04-02,2025-04-02,株式会社ＡＺＡＭＩ,,株式会社,神奈川県,横浜市港北区,日吉本町１丁目３７番２８号,,14,109,2230062,,,,,,,2025-04-02,1,,,,,アザミ,0
1112,6020003028130,新規,0,2025-04-02,2025-04-02,合同会社ＴＲＯ,,合同会社,神奈川県,川崎市多摩区,中野島１丁目１５番１０号,,14,135,2140012,,,,,,,2025-04-02,1,,,,,ティーアールオー,0
1113,6020003028163,新規,0,2025-04-02,2025-04-02,ｓｐｉｒｉｔｏｐｉａ合同会社,,合同会社,神奈川県,川崎市麻生区,千代ケ丘８丁目５－８,,14,137,2150005,,,,,,,2025-04-02,1,,,,,,0
1119,6021003015820,新規,0,2025-04-02,2025-04-02,合同会社ＧＡ,,合同会社,神奈川県,足柄上郡山北町,山北８２６番地,,14,364,2580113,,,,,,,2025-04-02,1,,,,,ジーエー,0
1123,6030001165676,新規,0,2025-04-02,2025-04-02,株式会社彩,,株式会社,埼玉県,川越市,大字並木８３０－１０,,11,201,3500023,,,,,,,2025-04-02,1,,,,,イロ,0
1128,6030003026364,新規,0,2025-04-02,2025-04-02,合同会社ＢｌｏｏｍＮｅｓｔ,,合同会社,埼玉県,川口市,西川口６丁目４－６第二荻島ビル２階２１４,,11,203,3320021,,,,,,,2025-04-02,1,,,,,ブルームネスト,0
1129,6030003026430,新規,0,2025-04-02,2025-04-02,合同会社エンジェルケア,,合同会社,埼玉県,坂戸市,緑町７番１６号ラフィーネ３０３号室,,11,239,3500234,,,,,,,2025-04-02,1,,,,,エンジェルケア,0
1132,6040001138094,新規,0,2025-04-02,2025-04-02,株式会社パブリオソーシャル,,株式会社,千葉県,我孫子市,天王台６丁目１７番２７号,,12,222,2701143,,,,,,,2025-04-02,1,,,,,パブリオソーシャル,0
1135,6050003009160,新規,0,2025-04-02,2025-04-02,ＡＫＥＮＯ　ＡＵＴＯ合同会社,,合同会社,茨城県,筑西市,宮後字駒込４９－４５,,08,227,3004503,,,,,,,2025-04-02,1,,,,,アケノオート,0
1143,6070001042772,新規,0,2025-04-02,2025-04-02,喜楽株式会社,,株式会社,群馬県,高崎市,島野町７７１番地１,,10,202,3700015,,,,,,,2025-04-02,1,,,,,キラク,0
1144,6070003005851,新規,0,2025-04-02,2025-04-02,合同会社ＯＬＯ,,合同会社,群馬県,高崎市,井野町１２２６番地３,,10,202,3700004,,,,,,,2025-04-02,1,,,,,オロ,0
1148,6080401027827,新規,0,2025-04-02,2025-04-02,株式会社らくらく,,株式会社,静岡県,浜松市浜名区,引佐町奥山１５９４―７７,,22,139,4312224,,,,,,,2025-04-02,1,,,,,ラクラク,0
1151,6110001039153,新規,0,2025-04-02,2025-04-02,株式会社ＢｉｚＲｅａｌ,,株式会社,新潟県,三条市,島田２丁目６番２号,,15,204,9550842,,,,,,,2025-04-02,1,,,,,ビズレアル,0
1152,6110003005715,新規,0,2025-04-02,2025-04-02,合同会社ノワール,,合同会社,新潟県,新潟市東区,太平３丁目２２番地９,,15,102,9500005,,,,,,,2025-04-02,1,,,,,ノワール,0
1157,6120001274105,新規,0,2025-04-02,2025-04-02,株式会社イチエル,,株式会社,大阪府,大阪市中央区,船越町１丁目６－２－３０３,,27,128,5400036,,,,,,,2025-04-02,1,,,,,イチエル,0
1158,6120001274113,新規,0,2025-04-02,2025-04-02,株式会社ｆｉｎ,,株式会社,大阪府,大阪市天王寺区,小橋町３番６号幸伸ビル４１号室,,27,109,5430028,,,,,,,2025-04-02,1,,,,,フィン,0
1160,6120003028970,新規,0,2025-04-02,2025-04-02,君悦貿易合同会社,,合同会社,大阪府,大阪市西成区,太子２丁目３番１１号金井ハイツ２０１号室,,27,122,5570002,,,,,,,2025-04-02,1,,,,,クンエツボウエキ,0
1161,6120003029003,新規,0,2025-04-02,2025-04-02,合同会社ＮａｍＳｏｎ,,合同会社,大阪府,大阪市西成区,長橋３丁目７－２４アワーハウス１０２,,27,122,5570025,,,,,,,2025-04-02,1,,,,,ナムソン,0
1162,6120003029011,新規,0,2025-04-02,2025-04-02,合同会社Ｒ＆Ｍ,,合同会社,大阪府,大阪市天王寺区,上汐５丁目７番２８号,,27,109,5430002,,,,,,,2025-04-02,1,,,,,アールアンドエム,0
1166,6120101071369,新規,0,2025-04-02,2025-04-02,パークアセットマネジメント株式会社,,株式会社,大阪府,松原市,南新町５丁目１１番２号,,27,217,5800023,,,,,,,2025-04-02,1,,,,,パークアセットマネジメント,0
1167,6122001039033,新規,0,2025-04-02,2025-04-02,株式会社Ｋ’ｓカンパニー,,株式会社,大阪府,東大阪市,近江堂２丁目２番１７号,,27,227,5770817,,,,,,,2025-04-02,1,,,,,ケーズカンパニー,0
1170,6130001079321,新規,0,2025-04-02,2025-04-02,株式会社ｍｅ　ｃａｒｅｅｒ,,株式会社,京都府,木津川市,州見台７丁目１６番地２,,26,214,6190216,,,,,,,2025-04-02,1,,,,,ミーキャリア,0
1175,6140001137953,新規,0,2025-04-02,2025-04-02,株式会社あゆみ,,株式会社,兵庫県,神戸市兵庫区,水木通８丁目３番７号ー２Ｆ,,28,105,6520802,,,,,,,2025-04-02,1,,,,,アユミ,0
1177,6140005027424,新規,0,2025-04-02,2025-04-02,医療法人社団慧昌会,,その他の設立登記法人,兵庫県,神戸市中央区,加納町３丁目１番２０号１Ｆ,,28,110,6500001,,,,,,,2025-04-02,1,,,,,ケイショウカイ,0
1178,6150001027996,新規,0,2025-04-02,2025-04-02,株式会社学びの旅,,株式会社,奈良県,奈良市,東紀寺町２丁目１０番１号,,29,201,6308305,,,,,,,2025-04-02,1,,,,,マナビノタビ,0
1185,6180001166115,新規,0,2025-04-02,2025-04-02,株式会社知多イノベーション,,株式会社,愛知県,知多郡東浦町,大字森岡字前田１５番地の１サンハウス尾張森岡１Ｃ,,23,442,4702101,,,,,,,2025-04-02,1,,,,,チタイノベーション,0
1188,6200001043583,新規,0,2025-04-02,2025-04-02,ＮＲトレーディング株式会社,,株式会社,岐阜県,海津市,南濃町山崎１１３１－１,,21,221,5030415,,,,,,,2025-04-02,1,,,,,エヌアールトレーディング,0
1191,6210003001902,新規,0,2025-04-02,2025-04-02,合同会社香友コンサル,,合同会社,福井県,三方上中郡若狭町,麻生野第３６号８番地,,18,501,9191502,,,,,,,2025-04-02,1,,,,,コウユウコンサル,0
1204,6240001064733,新規,0,2025-04-02,2025-04-02,株式会社ＳＥＣユーティリティーズ,,株式会社,広島県,広島市中区,大手町２丁目８番５号,,34,101,7300051,,,,,,,2025-04-02,1,,,,,エスイーシーユーティリティーズ,0
1205,6240005015922,新規,0,2025-04-02,2025-04-02,医療法人桜和会,,その他の設立登記法人,広島県,安芸郡海田町,窪町１番２３号ＪＲ海田市駅ＮＫビル１Ｆ,,34,304,7360046,,,,,,,2025-04-02,1,,,,,オウワカイ,0
1210,6280001009387,新規,0,2025-04-02,2025-04-02,株式会社板倉庸介一級建築士事務所,,株式会社,島根県,出雲市,小山町２３４番地１８,,32,203,6930051,,,,,,,2025-04-02,1,,,,,イタクラヨウスケイッキュウケンチクシジムショ,0
1213,6290801031416,新規,0,2025-04-02,2025-04-02,株式会社森山,,株式会社,福岡県,北九州市小倉北区,今町２丁目２４番１５号（１０１）,,40,106,8030862,,,,,,,2025-04-02,1,,,,,モリヤマ,0
1216,6330003010916,新規,0,2025-04-02,2025-04-02,合同会社児藤商店,,合同会社,熊本県,熊本市西区,島崎４丁目７番７５号,,43,103,8600073,,,,,,,2025-04-02,1,,,,,コトウショウテン,0
1224,6370001052403,新規,0,2025-04-02,2025-04-02,株式会社高舘ファーム,,株式会社,宮城県,名取市,高舘熊野堂字棟沢７５番地,,04,207,9811241,,,,,,,2025-04-02,1,,,,,タカダテファーム,0
1226,6370003007009,新規,0,2025-04-02,2025-04-02,合同会社Ｇｅｎｅｒａｌ　Ｌｏｕｎｇｅ,,合同会社,宮城県,仙台市青葉区,国分町２丁目１－１第１９フジビル５Ｆ,,04,101,9800803,,,,,,,2025-04-02,1,,,,,ジェネラルラウンジ,0
1241,6430001094075,新規,0,2025-04-02,2025-04-02,株式会社Ｔ＆Ａカンパニー,,株式会社,北海道,札幌市西区,宮の沢四条３丁目９番４号,,01,107,0630054,,,,,,,2025-04-02,1,,,,,テーアンドエーカンパニー,0
1242,6430001094083,新規,0,2025-04-02,2025-04-02,弥株式会社,,株式会社,北海道,札幌市北区,北三十二条西３丁目３番２５号,,01,102,0010032,,,,,,,2025-04-02,1,,,,,ケイ,0
1243,6430003017455,新規,0,2025-04-02,2025-04-02,合同会社六福,,合同会社,北海道,札幌市中央区,南八条西１７丁目２番１８号,,01,101,0640808,,,,,,,2025-04-02,1,,,,,ロップク,0
1244,6430003017471,新規,0,2025-04-02,2025-04-02,合同会社雅,,合同会社,北海道,石狩市,花川南九条２丁目２０番地,,01,235,0613209,,,,,,,2025-04-02,1,,,,,ミヤビ,0
1247,6450003002629,新規,0,2025-04-02,2025-04-02,きたむら合同会社,,合同会社,北海道,旭川市,永山九条７丁目５番１号,,01,204,0798419,,,,,,,2025-04-02,1,,,,,キタムラ,0
1253,6490003001998,新規,0,2025-04-02,2025-04-02,合同会社ハルノ打刃物,,合同会社,高知県,吾川郡いの町,駅前町１２番地１,,39,386,7812107,,,,,,,2025-04-02,1,,,,,,0
1258,7010001253655,新規,0,2025-04-02,2025-04-02,株式会社カーサー,,株式会社,東京都,千代田区,外神田３丁目１６番１３号日進ビル５Ｆ,,13,101,1010021,,,,,,,2025-04-02,1,,,,,カーサー,0
1259,7010001253663,新規,0,2025-04-02,2025-04-02,株式会社ちらん,,株式会社,東京都,中央区,京橋２丁目７－８ＦＰＧｌｉｎｋｓＫＹＯＢＡＳＨＩ５Ｆ,,13,102,1040031,,,,,,,2025-04-02,1,,,,,チラン,0
1260,7010001253671,新規,0,2025-04-02,2025-04-02,株式会社ＫＭＳ,,株式会社,東京都,中央区,銀座１丁目１２番４号Ｎ＆ＥＢＬＤ．６Ｆ,,13,102,1040061,,,,,,,2025-04-02,1,,,,,ケーエムエス,0
1266,7010005039844,新規,0,2025-04-02,2025-04-02,一般社団法人ＭＡＴＳＵＲＩ,,その他の設立登記法人,東京都,中央区,京橋２丁目１２番６号ＡＯＪ税理士法人内,,13,102,1040031,,,,,,,2025-04-02,1,,,,,マツリ,0
1269,7010401189235,新規,0,2025-04-02,2025-04-02,トミー・トッチ株式会社,,株式会社,東京都,港区,海岸１丁目２番３号汐留芝離宮ビルディング２１階,,13,103,1050022,,,,,,,2025-04-02,1,,,,,トミートッチ,0
1270,7010401189243,新規,0,2025-04-02,2025-04-02,株式会社ＮＰＳ,,株式会社,東京都,港区,南青山３丁目１番３６号青山丸竹ビル６Ｆ,,13,103,1070062,,,,,,,2025-04-02,1,,,,,エヌピーエス,0
1272,7010405024198,新規,0,2025-04-02,2025-04-02,特定目的会社ＴＳＭＺ１０,,その他の設立登記法人,東京都,港区,元赤坂１丁目１番７号,,13,103,1070051,,,,,,,2025-04-02,1,,,,,ティーエスエムゼットテン,0
1275,7010501053869,新規,0,2025-04-02,2025-04-02,Ｓｃｅｎｔ　Ｓｙｍｐｈｏｎｙ株式会社,,株式会社,東京都,台東区,千束３丁目２７番１２－５０６号ジェノヴィア浅草ＩＩスカイガーデン,00138525,13,106,1110031,,,,,,,2025-04-02,1,,,,,セントシンフォニー,0
1278,7010601067034,新規,0,2025-04-02,2025-04-02,大嘉物流サポート株式会社,,株式会社,東京都,江東区,新砂１丁目９番１号,,13,108,1360075,,,,,,,2025-04-02,1,,,,,タイカブツリュウサポート,0
1279,7010801035971,新規,0,2025-04-02,2025-04-02,大進電設株式会社,,株式会社,東京都,大田区,新蒲田１丁目１３番２号アヴェニール新蒲田２階,,13,111,1440054,,,,,,,2025-04-02,1,,,,,ダイシンデンセツ,0
1282,7010903009808,新規,0,2025-04-02,2025-04-02,ＴＡＭＡＲＡＣＫ合同会社,,合同会社,東京都,世田谷区,上野毛４丁目１９番１２号アメニティガーデン世田谷上野毛３０２,,13,112,1580093,,,,,,,2025-04-02,1,,,,,タマラック,0
1284,7011001168604,新規,0,2025-04-02,2025-04-02,エデュニア株式会社,,株式会社,東京都,渋谷区,円山町５番５号Ｎａｖｉ渋谷Ｖ３階,,13,113,1500044,,,,,,,2025-04-02,1,,,,,エデュニア,0
1285,7011001168678,新規,0,2025-04-02,2025-04-02,オールアウトチャレンジ株式会社,,株式会社,東京都,目黒区,東山２丁目４番１６号１Ｆ,,13,110,1530043,,,,,,,2025-04-02,1,,,,,オールアウトチャレンジ,0
1286,7011001168686,新規,0,2025-04-02,2025-04-02,株式会社プリオリンク,,株式会社,東京都,渋谷区,恵比寿西１丁目３３番６号ＪＰｎｏｉｅ恵比寿西１Ｆ,,13,113,1500021,,,,,,,2025-04-02,1,,,,,プリオリンク,0
1287,7011001168694,新規,0,2025-04-02,2025-04-02,株式会社ＤｘＭｏｔｏｒｓ,,株式会社,東京都,渋谷区,上原２丁目１４番２号,,13,113,1510064,,,,,,,2025-04-02,1,,,,,ディーエックスモータース,0
1288,7011003021257,新規,0,2025-04-02,2025-04-02,合同会社Ｂｒｉｄｇｅ　Ｅｄｕｃａｔｉｏｎ,,合同会社,東京都,渋谷区,渋谷２丁目１９－１５宮益坂ビルディング６０９,,13,113,1500002,,,,,,,2025-04-02,1,,,,,ブリッジエデュケーション,0
1289,7011003021265,新規,0,2025-04-02,2025-04-02,合同会社ＴＩＮ,,合同会社,東京都,渋谷区,神宮前１丁目５番８号,,13,113,1500001,,,,,,,2025-04-02,1,,,,,ティーアイエヌ,0
1297,7011103015704,新規,0,2025-04-02,2025-04-02,合同会社史,,合同会社,東京都,新宿区,新宿１丁目３６－２,,13,104,1600022,,,,,,,2025-04-02,1,,,,,フミ,0
1298,7011103015712,新規,0,2025-04-02,2025-04-02,合同会社ＳＰＶ０８,,合同会社,東京都,新宿区,四谷２丁目９番地１５東京ユナイテッド綜合事務所内,,13,104,1600004,,,,,,,2025-04-02,1,,,,,エスピーブイゼロハチ,0
1299,7011105011387,新規,0,2025-04-02,2025-04-02,一般社団法人オラクル,,その他の設立登記法人,東京都,新宿区,新宿３丁目１９番４号,,13,104,1600022,,,,,,,2025-04-02,1,,,,,オラクル,0
1300,7011105011395,新規,0,2025-04-02,2025-04-02,一般社団法人ＳＰＶ０９,,その他の設立登記法人,東京都,新宿区,四谷２丁目９番地１５東京ユナイテッド綜合事務所内,,13,104,1600004,,,,,,,2025-04-02,1,,,,,エスピーブイゼロハキュウ,0
1301,7011201026248,新規,0,2025-04-02,2025-04-02,ＬＧＤ株式会社,,株式会社,東京都,中野区,中野５丁目６８番８号ライオンズマンション中野第三２Ｆ－２Ｂ,,13,114,1640001,,,,,,,2025-04-02,1,,,,,エルジーディー,0
1305,7011401026956,新規,0,2025-04-02,2025-04-02,株式会社フュージョン,,株式会社,東京都,板橋区,大谷口２丁目６５番３１号,,13,119,1730035,,,,,,,2025-04-02,1,,,,,フュージョン,0
1306,7011401026980,新規,0,2025-04-02,2025-04-02,株式会社Ｌａｍｌｉｎ,,株式会社,東京都,板橋区,小茂根３丁目９番８－５１２号,,13,119,1730037,,,,,,,2025-04-02,1,,,,,ラムリン,0
1313,7011705001886,新規,0,2025-04-02,2025-04-02,インターアシスト協同組合,,その他の設立登記法人,東京都,江戸川区,東葛西６丁目８番１４号,,13,123,1340084,,,,,,,2025-04-02,1,,,,,インターアシスト,0
1317,7011801045894,新規,0,2025-04-02,2025-04-02,株式会社総和塗装,,株式会社,東京都,足立区,西新井７丁目５番２０号エクメーネ西新井西公園弐番館６０１号,,13,121,1230841,,,,,,,2025-04-02,1,,,,,ソウワトソウ,0
1320,7012803003675,新規,0,2025-04-02,2025-04-02,合同会社ゆゆなま,,合同会社,東京都,立川市,幸町４丁目３６－４６,,13,202,1900002,,,,,,,2025-04-02,1,,,,,ユユナマ,0
1325,7020001161997,新規,0,2025-04-02,2025-04-02,株式会社健道,,株式会社,神奈川県,横浜市都筑区,北山田６丁目４０番３号,,14,118,2240021,,,,,,,2025-04-02,1,,,,,ケンドウ,0
1326,7020001162046,新規,0,2025-04-02,2025-04-02,センター・オブ・ザ・ハート株式会社,,株式会社,神奈川県,横浜市中区,桜木町１丁目１番７号ヒューリックみなとみらい１０階,,14,104,2310062,,,,,,,2025-04-02,1,,,,,センターオブザハート,0
1327,7020001162062,新規,0,2025-04-02,2025-04-02,株式会社アクアコーポレーション,,株式会社,神奈川県,横浜市青葉区,青葉台１丁目５－４青葉台サンクスビル,,14,117,2270062,,,,,,,2025-04-02,1,,,,,アクアコーポレーション,0
1328,7020001162079,新規,0,2025-04-02,2025-04-02,株式会社マチバリ,,株式会社,神奈川県,川崎市宮前区,平５丁目２番３２号プレセゾン宮前Ａ棟１０１,,14,136,2160022,,,,,,,2025-04-02,1,,,,,マチバリ,0
1329,7020001162095,新規,0,2025-04-02,2025-04-02,株式会社クリンネス,,株式会社,神奈川県,横浜市南区,六ツ川３丁目６２番地９２,,14,105,2320066,,,,,,,2025-04-02,1,,,,,クリンネス,0
1333,7020003028138,新規,0,2025-04-02,2025-04-02,絆アミティエ合同会社,,合同会社,神奈川県,横浜市緑区,長津田みなみ台２丁目１２番地８６,,14,113,2260018,,,,,,,2025-04-02,1,,,,,キズナアミティエ,0
1334,7020003028187,新規,0,2025-04-02,2025-04-02,合同会社横綱,,合同会社,神奈川県,川崎市宮前区,野川本町１丁目１８番３５号,,14,136,2160041,,,,,,,2025-04-02,1,,,,,ヨコヅナ,0
1339,7021001084809,新規,0,2025-04-02,2025-04-02,株式会社熊沢自動車,,株式会社,神奈川県,平塚市,明石町２０番２号３Ｆ,,14,203,2540042,,,,,,,2025-04-02,1,,,,,クマザワジドウシャ,0
1349,7030001165700,新規,0,2025-04-02,2025-04-02,株式会社ＫａｎｐｏＮｏｗ,,株式会社,埼玉県,さいたま市西区,大字高木５７５番１,,11,101,3310071,,,,,,,2025-04-02,1,,,,,カンポウナウ,0
1358,7050001056419,新規,0,2025-04-02,2025-04-02,株式会社ＫＮコーポレーション,,株式会社,茨城県,稲敷郡阿見町,大字青宿７６５番地３ホープＥＹＥ・Ａ棟,,08,443,3000301,,,,,,,2025-04-02,1,,,,,ケーエヌコーポレーション,0
1360,7060001038060,新規,0,2025-04-02,2025-04-02,常芳那須農産株式会社,,株式会社,栃木県,那須塩原市,四区町６７７番地１１,,09,213,3292746,,,,,,,2025-04-02,1,,,,,ジョウホウナスノウサン,0
1361,7070001042788,新規,0,2025-04-02,2025-04-02,株式会社ノーリセスクラブ,,株式会社,群馬県,邑楽郡邑楽町,大字狸塚１０５０番地１,,10,525,3700613,,,,,,,2025-04-02,1,,,,,ノーリセスクラブ,0
1362,7070003005850,新規,0,2025-04-02,2025-04-02,合同会社玄龍,,合同会社,群馬県,北群馬郡榛東村,大字新井３５１１番地１０,,10,344,3703503,,,,,,,2025-04-02,1,,,,,コウリュウ,0
1363,7080101025411,新規,0,2025-04-02,2025-04-02,大興株式会社,,株式会社,静岡県,三島市,大社町８番３６号,,22,206,4110853,,,,,,,2025-04-02,1,,,,,ダイコウ,0
1374,7120001274112,新規,0,2025-04-02,2025-04-02,株式会社ＭＵ８,,株式会社,大阪府,大阪市西区,江之子島１丁目７番２－Ａ１００号,,27,106,5500006,,,,,,,2025-04-02,1,,,,,エムユーエイト,0
1375,7120001274129,新規,0,2025-04-02,2025-04-02,淘聯株式会社,,株式会社,大阪府,大阪市住之江区,東加賀屋２丁目７番１６号２０４号室,,27,125,5590012,,,,,,,2025-04-02,1,,,,,トウレン,0
1376,7120001274145,新規,0,2025-04-02,2025-04-02,株式会社ＯＩＤＥ　ＧＬＯＢＡＬ,,株式会社,大阪府,大阪市住吉区,長居東３丁目１４番２６－１２０１号,,27,120,5580004,,,,,,,2025-04-02,1,,,,,オイデグローバル,0
1377,7120001274186,新規,0,2025-04-02,2025-04-02,中港国際株式会社,,株式会社,大阪府,大阪市西成区,鶴見橋１丁目１０番１４号３０１室,,27,122,5570031,,,,,,,2025-04-02,1,,,,,チュウコウコクサイ,0
1378,7120003029010,新規,0,2025-04-02,2025-04-02,Ｒ＆Ｋ合同会社,,合同会社,大阪府,大阪市港区,築港３丁目４番１－１４３号,,27,107,5520021,,,,,,,2025-04-02,1,,,,,アールアンドケー,0
1385,7120901050653,新規,0,2025-04-02,2025-04-02,ＣＯＬＯＲ株式会社,,株式会社,大阪府,茨木市,三島丘２丁目９－１７－Ａ２,,27,211,5670021,,,,,,,2025-04-02,1,,,,,カラー,0
1389,7122001039032,新規,0,2025-04-02,2025-04-02,ＢｉｚＧｒｏｗ株式会社,,株式会社,大阪府,東大阪市,長田東３丁目３番４５号,,27,227,5770012,,,,,,,2025-04-02,1,,,,,ビズグロウ,0
1393,7130001079337,新規,0,2025-04-02,2025-04-02,株式会社森本製菓,,株式会社,京都府,京都市右京区,嵯峨野芝野町３番地の１８,,26,108,6168322,,,,,,,2025-04-02,1,,,,,モリモトセイカ,0
1394,7130003010332,新規,0,2025-04-02,2025-04-02,合同会社ＧＯＴＯ,,合同会社,京都府,長岡京市,友岡西山１４番地１,,26,209,6170843,,,,,,,2025-04-02,1,,,,,ゴーツゥ,0
1399,7140003021849,新規,0,2025-04-02,2025-04-02,合同会社ＡＷＡＩＳＭ,,合同会社,兵庫県,神戸市長田区,雲雀ヶ丘３丁目８－１０－３０２,,28,106,6530879,,,,,,,2025-04-02,1,,,,,アワイズム,0
1400,7140003021857,新規,0,2025-04-02,2025-04-02,アイビーデザイン合同会社,,合同会社,兵庫県,尼崎市,上坂部３丁目５番５－４０３号,,28,202,6610979,,,,,,,2025-04-02,1,,,,,アイビーデザイン,0
1402,7150003003540,新規,0,2025-04-02,2025-04-02,ウエムラ合同会社,,合同会社,奈良県,吉野郡十津川村,大字平谷２１１番地の２,,29,449,6371554,,,,,,,2025-04-02,1,,,,,ウエムラ,0
1403,7170001018547,新規,0,2025-04-02,2025-04-02,株式会社ＥＮＯＷＡ,,株式会社,和歌山県,田辺市,上秋津２４１９番地,,30,206,6460001,,,,,,,2025-04-02,1,,,,,エノワ,0
1415,7190001032109,新規,0,2025-04-02,2025-04-02,株式会社ＰＨＯＮＯＮ,,株式会社,三重県,鈴鹿市,江島町３７４２番地,,24,207,5100237,,,,,,,2025-04-02,1,,,,,フォノン,0
1416,7190001032125,新規,0,2025-04-02,2025-04-02,株式会社ななおと,,株式会社,三重県,伊賀市,柘植町２１９１番地,,24,216,5191402,,,,,,,2025-04-02,1,,,,,ナナオト,0
1417,7200003006752,新規,0,2025-04-02,2025-04-02,合同会社ＬＵＸ,,合同会社,岐阜県,安八郡安八町,北今ケ渕５６２番地１,,21,383,5030113,,,,,,,2025-04-02,1,,,,,ルークス,0
1418,7210001020119,新規,0,2025-04-02,2025-04-02,株式会社ＳＨＯＵＫＥＩ　ＳＰＯＲＴＳ５,,株式会社,福井県,福井市,米松１丁目１１番１９号,,18,201,9100851,,,,,,,2025-04-02,1,,,,,ショウケイスポーツファイブ,0
1423,7240001064740,新規,0,2025-04-02,2025-04-02,株式会社フロント,,株式会社,広島県,広島市西区,庚午中１丁目６番１６－１０２号,,34,104,7330822,,,,,,,2025-04-02,1,,,,,フロント,0
1424,7240003007136,新規,0,2025-04-02,2025-04-02,合同会社ＥＮＴＡＫＵ,,合同会社,広島県,広島市西区,己斐本町２丁目１４番２－２０４号,,34,104,7330812,,,,,,,2025-04-02,1,,,,,エンタク,0
1425,7240005015921,新規,0,2025-04-02,2025-04-02,一般社団法人広島県環境保全事業連合会,,その他の設立登記法人,広島県,広島市中区,大手町３丁目１番３号,,34,101,7300051,,,,,,,2025-04-02,1,,,,,ヒロシマケンカンキョウホゼンジギョウレンゴウカイ,0
1438,7290801031407,新規,0,2025-04-02,2025-04-02,株式会社ＴａｋｅＡＩ,,株式会社,福岡県,直方市,大字山部１４０２－１,,40,204,8220034,,,,,,,2025-04-02,1,,,,,テイクエーアイ,0
1439,7290805009820,新規,0,2025-04-02,2025-04-02,一般社団法人ＡＳＡＰ,,その他の設立登記法人,福岡県,行橋市,大字天生田４７３番地,,40,213,8240044,,,,,,,2025-04-02,1,,,,,アサップ,0
1445,7330003010915,新規,0,2025-04-02,2025-04-02,ケイエムエデュケーション合同会社,,合同会社,熊本県,熊本市東区,小山６丁目１２番１８号,,43,102,8618045,,,,,,,2025-04-02,1,,,,,ケイエムエデュケーション,0
1446,7340005009839,新規,0,2025-04-02,2025-04-02,特定非営利活動法人フードバンクそお,,その他の設立登記法人,鹿児島県,曽於市,財部町南俣４６０－１,,46,217,8994101,,,,,,,2025-04-02,1,,,,,フードバンクソオ,0
1449,7370003007008,新規,0,2025-04-02,2025-04-02,合同会社未来ステップ,,合同会社,宮城県,仙台市泉区,泉中央１丁目４７番地１－５０６,,04,105,9813133,,,,,,,2025-04-02,1,,,,,ミライステップ,0
1454,7430001094041,新規,0,2025-04-02,2025-04-02,株式会社ブライトホーム,,株式会社,北海道,札幌市白石区,東札幌二条５丁目８－２６,,01,104,0030002,,,,,,,2025-04-02,1,,,,,ブライトホーム,0
1464,7700150129784,新規,0,2025-04-02,2025-04-02,Ｙ．Ｋ．ＴＲＡＤＩＮＧ,,外国会社等,千葉県,山武市,木原１４００番地オフィス１Ａ,,12,237,2891212,スリランカ民主社会主義共和国、キャンディ、アクラナ、メインロード、Ｎｏ．２２３／８,,,,,,2025-04-02,1,,,,,ワイケートレーデイング,0
1466,8010001253497,新規,0,2025-04-02,2025-04-02,株式会社Ｆｉｎａｒｋｅｎｃｅｒ,,株式会社,東京都,中央区,銀座１丁目１２番４号Ｎ＆ＥＢＬＤ．６Ｆ,,13,102,1040061,,,,,,,2025-04-02,1,,,,,フィナークエンサー,0
1467,8010001253679,新規,0,2025-04-02,2025-04-02,株式会社イーグルハンタージャパン,,株式会社,東京都,千代田区,一ツ橋２丁目６番６号,,13,101,1010003,,,,,,,2025-04-02,1,,,,,イーグルハンタージャパン,0
1468,8010001253761,新規,0,2025-04-02,2025-04-02,Ｐｌｕｍｉｎｏ精密発酵日本株式会社,,株式会社,東京都,中央区,晴海１丁目７５番地,,13,102,1040053,,,,,,,2025-04-02,1,,,,,プラミノセイミツハッコウニホン,0
1470,8010003046916,新規,0,2025-04-02,2025-04-02,合同会社アムール・ワン,,合同会社,東京都,千代田区,内幸町２丁目１番６号,,13,101,1000011,,,,,,,2025-04-02,1,,,,,アムールワン,0
1485,8010601067041,新規,0,2025-04-02,2025-04-02,株式会社ソウギョ,,株式会社,東京都,墨田区,業平３丁目４番５号岡本第３ビル４０１号室,,13,107,1300002,,,,,,,2025-04-02,1,,,,,,0
1490,8010903009807,新規,0,2025-04-02,2025-04-02,吉田組アスリート合同会社,,合同会社,東京都,世田谷区,奥沢５丁目２９番８号カーサマキ２０１,,13,112,1580083,,,,,,,2025-04-02,1,,,,,ヨシダグミアスリート,0
1494,8011001168628,新規,0,2025-04-02,2025-04-02,株式会社ハクテク,,株式会社,東京都,渋谷区,神泉町２０番２１号クロスシー渋谷神泉ビル,,13,113,1500045,,,,,,,2025-04-02,1,,,,,ハクテク,0
1495,8011001168636,新規,0,2025-04-02,2025-04-02,株式会社ケイズ,,株式会社,東京都,渋谷区,鶯谷町１４番１－３０３号,,13,113,1500032,,,,,,,2025-04-02,1,,,,,ケイズ,0
1496,8011001168652,新規,0,2025-04-02,2025-04-02,株式会社ＣＲＯＳＳ　ＰＬＡＹ,,株式会社,東京都,渋谷区,道玄坂１丁目１０番８号渋谷道玄坂東急ビル２Ｆ－Ｃ,,13,113,1500043,,,,,,,2025-04-02,1,,,,,クロスプレー,0
1497,8011001168677,新規,0,2025-04-02,2025-04-02,株式会社さくら,,株式会社,東京都,目黒区,下目黒１丁目１番１４号コノトラビル７Ｆ,,13,110,1530064,,,,,,,2025-04-02,1,,,,,サクラ,0
1498,8011001168685,新規,0,2025-04-02,2025-04-02,株式会社インサイトキッチンＣ．ｈ．ｅ．ｆ,,株式会社,東京都,渋谷区,恵比寿西２丁目４番８号ウィンド恵比寿ビル８Ｆ,,13,113,1500021,,,,,,,2025-04-02,1,,,,,インサイトキッチンシェフ,0
1499,8011001168693,新規,0,2025-04-02,2025-04-02,ＳＫＭ株式会社,,株式会社,東京都,渋谷区,神南１丁目１１番４号ＦＰＧリンクス神南５階,,13,113,1500041,,,,,,,2025-04-02,1,,,,,エスケーエム,0
1500,8011001168702,新規,0,2025-04-02,2025-04-02,株式会社ＴＩＤＥ,,株式会社,東京都,渋谷区,神南１丁目１１番４号ＦＰＧリンクス神南５階,,13,113,1500041,,,,,,,2025-04-02,1,,,,,タイド,0
1501,8011001168710,新規,0,2025-04-02,2025-04-02,株式会社ＨＸ３Ｐａｒｔｎｅｒｓ,,株式会社,東京都,渋谷区,広尾２丁目６番２７－２０１号,,13,113,1500012,,,,,,,2025-04-02,1,,,,,エイチバイスリーパートナーズ,0
1502,8011001168719,新規,0,2025-04-02,2025-04-02,株式会社仁人,,株式会社,東京都,渋谷区,神南１丁目１１番４号ＦＰＧリンクス神南５階,,13,113,1500041,,,,,,,2025-04-02,1,,,,,ジンジン,0
1503,8011001168735,新規,0,2025-04-02,2025-04-02,Ｐｒａｔａｎａ　Ｌａｂ株式会社,,株式会社,東京都,渋谷区,広尾１丁目９番１８号雨宮ビル２Ｆ,,13,113,1500012,,,,,,,2025-04-02,1,,,,,プラタナラボ,0
1504,8011001168743,新規,0,2025-04-02,2025-04-02,株式会社オーラムテック,,株式会社,東京都,目黒区,上目黒２丁目１番１号中目黒ＧＴタワー２１階,,13,110,1530051,,,,,,,2025-04-02,1,,,,,オーラムテック,0
1509,8011103015711,新規,0,2025-04-02,2025-04-02,合同会社ＳＰＶ０７,,合同会社,東京都,新宿区,四谷２丁目９番地１５東京ユナイテッド綜合事務所内,,13,104,1600004,,,,,,,2025-04-02,1,,,,,エスピーブイゼロナナ,0
1512,8011105011394,新規,0,2025-04-02,2025-04-02,一般社団法人ＳＰＶ０８,,その他の設立登記法人,東京都,新宿区,四谷２丁目９番地１５東京ユナイテッド綜合事務所内,,13,104,1600004,,,,,,,2025-04-02,1,,,,,エスピーブイゼロハチ,0
1520,8012803003633,新規,0,2025-04-02,2025-04-02,合同会社ＢｉｇＦｒａｍｅ,,合同会社,東京都,日野市,東平山２丁目１６番地,,13,212,1910054,,,,,,,2025-04-02,1,,,,,ビッグフレーム,0
1531,8020001162037,新規,0,2025-04-02,2025-04-02,ユーリカブルー株式会社,,株式会社,神奈川県,横浜市都筑区,茅ケ崎中央２１－７,,14,118,2240032,,,,,,,2025-04-02,1,,,,,ユーリカブルー,0
1532,8020001162053,新規,0,2025-04-02,2025-04-02,株式会社アミアミ,,株式会社,神奈川県,横浜市中区,不老町１丁目４－１１ガレリア不老町５Ｆ,,14,104,2310032,,,,,,,2025-04-02,1,,,,,アミアミ,0
1533,8020001162061,新規,0,2025-04-02,2025-04-02,瑞思株式会社,,株式会社,神奈川県,横浜市西区,浜松町１１－２８－５０９,,14,103,2200055,,,,,,,2025-04-02,1,,,,,ミズシ,0
1534,8020001162078,新規,0,2025-04-02,2025-04-02,株式会社Ｓｗｉｎｇ　Ｔｅｃｈ,,株式会社,神奈川県,横浜市金沢区,西柴２丁目２６番１９号,,14,108,2360017,,,,,,,2025-04-02,1,,,,,スイングテック,0
1535,8020001162094,新規,0,2025-04-02,2025-04-02,株式会社ＳＨＩＦＴＥＲＳ,,株式会社,神奈川県,横浜市都筑区,折本町１１７０番地２７,,14,118,2240043,,,,,,,2025-04-02,1,,,,,シフターズ,0
1536,8020001162111,新規,0,2025-04-02,2025-04-02,株式会社ディネクト,,株式会社,神奈川県,川崎市多摩区,登戸１９１９エムアンドアールビル３階,,14,135,2140014,,,,,,,2025-04-02,1,,,,,ディネクト,0
1537,8020001162128,新規,0,2025-04-02,2025-04-02,株式会社ルーメン,,株式会社,神奈川県,横浜市旭区,今宿西町３８５番地,,14,112,2410031,,,,,,,2025-04-02,1,,,,,ルーメン,0
1541,8020003028186,新規,0,2025-04-02,2025-04-02,合同会社ＭＫサービス,,合同会社,神奈川県,横浜市西区,北幸２丁目１０番４８号むつみビル３階,,14,103,2200004,,,,,,,2025-04-02,1,,,,,エムケーサービス,0
1545,8021001084849,新規,0,2025-04-02,2025-04-02,Ｆｅｓｓ株式会社,,株式会社,神奈川県,相模原市中央区,上溝４丁目１２番１５号メゾンソフィア１０１,,14,152,2520243,,,,,,,2025-04-02,1,,,,,フェス,0
1551,8030003026445,新規,0,2025-04-02,2025-04-02,合同会社ｆｏｒ　Ｍｅ,,合同会社,埼玉県,さいたま市見沼区,東大宮１丁目２３番地５,,11,104,3370051,,,,,,,2025-04-02,1,,,,,フォーミー,0
1555,8040001138092,新規,0,2025-04-02,2025-04-02,株式会社榮建設興業,,株式会社,千葉県,千葉市緑区,おゆみ野南４丁目２８番地１３,,12,105,2660033,,,,,,,2025-04-02,1,,,,,サカエケンセツコウギョウ,0
1558,8040003027269,新規,0,2025-04-02,2025-04-02,１１０ＦＡＣＴＯＲＹ合同会社,,合同会社,千葉県,南房総市,珠師ケ谷字大庭５６７番１,,12,234,2992501,,,,,,,2025-04-02,1,,,,,イチイチマルファクトリー,0
1560,8040005022689,新規,0,2025-04-02,2025-04-02,一般社団法人ウィメンズエンパワーメント美健協会,,その他の設立登記法人,千葉県,木更津市,大久保４丁目４番１号,,12,206,2920815,,,,,,,2025-04-02,1,,,,,ウィメンズエンパワーメントビケンキョウカイ,0
1562,8050001056418,新規,0,2025-04-02,2025-04-02,株式会社樹樹,,株式会社,茨城県,取手市,双葉３丁目３１番８号,,08,217,3001501,,,,,,,2025-04-02,1,,,,,タツキ,0
1567,8060005010320,新規,0,2025-04-02,2025-04-02,特定非営利活動法人水辺環境保全研究所,,その他の設立登記法人,栃木県,さくら市,きぬの里２丁目１１番地８,,09,214,3291317,,,,,,,2025-04-02,1,,,,,ミズベカンキョウホゼンケンキュウジョ,0
1568,8080001026839,新規,0,2025-04-02,2025-04-02,ＤＣ　ｓｔａｒｒｒｒｒ株式会社,,株式会社,静岡県,島田市,大井町４番の５,,22,209,4270025,,,,,,,2025-04-02,1,,,,,ディーシースター,0
1569,8080001026847,新規,0,2025-04-02,2025-04-02,株式会社ＡＤＴ,,株式会社,静岡県,榛原郡吉田町,住吉２６７０番地の１,,22,424,4210301,,,,,,,2025-04-02,1,,,,,エーディティ,0
1570,8080003003423,新規,0,2025-04-02,2025-04-02,合同会社不動産カルテ,,合同会社,静岡県,静岡市葵区,東静岡１丁目１番３９－６０３号,,22,101,4200817,,,,,,,2025-04-02,1,,,,,フドウサンカルテ,0
1571,8080403005234,新規,0,2025-04-02,2025-04-02,合同会社Ｘ,,合同会社,静岡県,浜松市中央区,板屋町１０２番１５,,22,138,4300928,,,,,,,2025-04-02,1,,,,,エックス,0
1583,8120001273955,新規,0,2025-04-02,2025-04-02,株式会社リレント,,株式会社,大阪府,大阪市中央区,北浜東４番３３号,,27,128,5400031,,,,,,,2025-04-02,1,,,,,リレント,0
1584,8120001274103,新規,0,2025-04-02,2025-04-02,株式会社Ｔ＆ＰＲ,,株式会社,大阪府,大阪市北区,堂島１丁目１番２５号,,27,127,5300003,,,,,,,2025-04-02,1,,,,,ティーアンドピーアール,0
1585,8120001274160,新規,0,2025-04-02,2025-04-02,株式会社ＡＯＺＯＲＡ,,株式会社,大阪府,大阪市生野区,鶴橋５丁目１７番１９号,,27,116,5440031,,,,,,,2025-04-02,1,,,,,アオゾラ,0
1586,8120001274177,新規,0,2025-04-02,2025-04-02,養潔堂株式会社,,株式会社,大阪府,大阪市生野区,生野西２丁目１番３３－３０７号,,27,116,5440024,,,,,,,2025-04-02,1,,,,,ヨウケツドウ,0
1590,8120005024867,新規,0,2025-04-02,2025-04-02,一般社団法人民泊不動産鑑定士協会,,その他の設立登記法人,大阪府,大阪市西成区,玉出西２丁目１３番２７号,,27,122,5570045,,,,,,,2025-04-02,1,,,,,ミンパクフドウサンカンテイシキョウカイ,0
1591,8120103006346,新規,0,2025-04-02,2025-04-02,合同会社Ｙ,,合同会社,大阪府,和泉市,いぶき野３丁目６番１－７１９号,,27,219,5940041,,,,,,,2025-04-02,1,,,,,ワイ,0
1595,8122001039031,新規,0,2025-04-02,2025-04-02,株式会社ＬＥＡＤ　Ｗｏｒｋｓ,,株式会社,大阪府,東大阪市,長田東３丁目３番４５号,,27,227,5770012,,,,,,,2025-04-02,1,,,,,リードワークス,0
1599,8130001079303,新規,0,2025-04-02,2025-04-02,株式会社つじむら,,株式会社,京都府,京都市下京区,四条堀川町２６４番地４ハイネス堀川４階,,26,106,6008481,,,,,,,2025-04-02,1,,,,,ツジムラ,0
1602,8140001137968,新規,0,2025-04-02,2025-04-02,ＥＩＴＯ　ＣＲＥＡＴＥ株式会社,,株式会社,兵庫県,神戸市東灘区,岡本３丁目１３番８－６０７号,,28,101,6580072,,,,,,,2025-04-02,1,,,,,エイトクリエイト,0
1603,8140003021848,新規,0,2025-04-02,2025-04-02,合同会社カモメール,,合同会社,兵庫県,西宮市,南昭和町１－２３パールハイツ１Ｆ,,28,204,6620834,,,,,,,2025-04-02,1,,,,,カモメール,0
1604,8140003021872,新規,0,2025-04-02,2025-04-02,季生商事合同会社,,合同会社,兵庫県,高砂市,高砂町北本町１１７１番地,,28,216,6760064,,,,,,,2025-04-02,1,,,,,キキショウジ,0
1612,8180001166187,新規,0,2025-04-02,2025-04-02,株式会社ＧＮＳ,,株式会社,愛知県,名古屋市中村区,名駅３丁目４番１０号アルティメイト名駅１ｓｔ２階,,23,105,4500002,,,,,,,2025-04-02,1,,,,,ジーエヌエス,0
1613,8180001166253,新規,0,2025-04-02,2025-04-02,株式会社コアテックサービス,,株式会社,愛知県,岩倉市,新柳町２丁目７０番地１,,23,228,4820021,,,,,,,2025-04-02,1,,,,,コアテックサービス,0
1617,8190001032108,新規,0,2025-04-02,2025-04-02,株式会社ホムコン,,株式会社,三重県,名張市,桔梗が丘南１番町二街区４６番地,,24,208,5180631,,,,,,,2025-04-02,1,,,,,ホムコン,0
1618,8190005012031,新規,0,2025-04-02,2025-04-02,一般社団法人誠真会,,その他の設立登記法人,三重県,志摩市,阿児町国府１０６１番地４５,,24,215,5170506,,,,,,,2025-04-02,1,,,,,セイシンカイ,0
1621,8240001064731,新規,0,2025-04-02,2025-04-02,株式会社出口工務店,,株式会社,広島県,広島市佐伯区,隅の浜１丁目１番１６号,,34,108,7315145,,,,,,,2025-04-02,1,,,,,デグチコウムテン,0
1622,8240003007135,新規,0,2025-04-02,2025-04-02,合同会社白梅の花,,合同会社,広島県,広島市西区,古江新町４番９－４０１号,,34,104,7330873,,,,,,,2025-04-02,1,,,,,シラウメノハナ,0
1625,8290001109481,新規,0,2025-04-02,2025-04-02,ツクヨミ株式会社,,株式会社,福岡県,福岡市博多区,金の隈１丁目２９番４６－１号,,40,132,8120863,,,,,,,2025-04-02,1,,,,,ツクヨミ,0
1628,8290801031397,新規,0,2025-04-02,2025-04-02,株式会社ＣＡＮＡＥＬ,,株式会社,福岡県,北九州市小倉南区,葛原３丁目２２番１８号,,40,107,8000251,,,,,,,2025-04-02,1,,,,,カナエル,0
1631,8330001033017,新規,0,2025-04-02,2025-04-02,ＢＡＹＡＮ株式会社,,株式会社,熊本県,阿蘇郡南阿蘇村,大字河陰５番地２７９,,43,433,8691411,,,,,,,2025-04-02,1,,,,,バヤン,0
1633,8340003004799,新規,0,2025-04-02,2025-04-02,合同会社マサテクノカンパニー,,合同会社,鹿児島県,鹿児島市,清和３丁目３０番７２号,,46,201,8910109,,,,,,,2025-04-02,1,,,,,マサテクノカンパニー,0
1635,8370001052401,新規,0,2025-04-02,2025-04-02,株式会社ヒラク,,株式会社,宮城県,仙台市若林区,土樋８８番地の５ＡＴＧビル,,04,103,9840065,,,,,,,2025-04-02,1,,,,,ヒラク,0
1636,8370005010933,新規,0,2025-04-02,2025-04-02,弁護士法人青葉ゆかり法律事務所,,その他の設立登記法人,宮城県,仙台市青葉区,本町１丁目３番９号第六広瀬ビル５階,,04,101,9800014,,,,,,,2025-04-02,1,,,,,アオバユカリホウリツジムショ,0
1643,8430001094073,新規,0,2025-04-02,2025-04-02,株式会社オフィスほっかいどうＭ,,株式会社,北海道,札幌市東区,北四十四条東１４丁目４番３２号,,01,103,0070844,,,,,,,2025-04-02,1,,,,,オフィスホッカイドウエム,0
1645,8430003017461,新規,0,2025-04-02,2025-04-02,合同会社ワルキューレ,,合同会社,北海道,札幌市西区,二十四軒四条５丁目８番２号シャトレ２４Ｂ－２０２号,,01,107,0630804,,,,,,,2025-04-02,1,,,,,ワルキューレ,0
1647,8450001014574,新規,0,2025-04-02,2025-04-02,株式会社スノーフレーク,,株式会社,北海道,富良野市,北の峰町２１番３０号,,01,229,0760034,,,,,,,2025-04-02,1,,,,,スノーフレーク,0
1648,8450001014582,新規,0,2025-04-02,2025-04-02,株式会社永楽屋,,株式会社,北海道,中川郡美深町,字大通北４丁目１２番地,,01,469,0982220,,,,,,,2025-04-02,1,,,,,エイラクヤ,0
1654,8500003003470,新規,0,2025-04-02,2025-04-02,Ｄｏ‐ｇｏ果園合同会社,,合同会社,愛媛県,松山市,祝谷５丁目４番５号,,38,201,7900833,,,,,,,2025-04-02,1,,,,,ドウゴカエン,0
1657,8700150129783,新規,0,2025-04-02,2025-04-02,Ｕ．Ｃ．ＴＲＡＤＩＮＧ,,外国会社等,千葉県,東金市,二又３３６番地２オフィス６Ａ,,12,213,2830004,スリランカ民主社会主義共和国、キャンディ、アクラナ、マタレロード、Ｎｏ．２２０／６,,,,,,2025-04-02,1,,,,,ユーシートレーデイング,0
1663,9010001253463,新規,0,2025-04-02,2025-04-02,株式会社Ｍａｒｕｎａｇｅ　Ａｇｅｎｔ,,株式会社,東京都,中央区,銀座１丁目１２番４号Ｎ＆ＥＢＬＤ，６Ｆ,,13,102,1040061,,,,,,,2025-04-02,1,,,,,マルナゲエージェント,0
1664,9010001253612,新規,0,2025-04-02,2025-04-02,ＪＰ　ＳＵＮＮＹ　ＩＮＶＥＳＴＭＥＮＴ株式会社,,株式会社,東京都,千代田区,神田多町２丁目２－６善進ビル５ｆ,,13,101,1010046,,,,,,,2025-04-02,1,,,,,ジェイピーサニーインベストメント,0
1665,9010001253678,新規,0,2025-04-02,2025-04-02,株式会社ＤＯ,,株式会社,東京都,中央区,築地３丁目１２番１１号ナカシゲビル４階,,13,102,1040045,,,,,,,2025-04-02,1,,,,,ドゥ,0
1667,9010003046923,新規,0,2025-04-02,2025-04-02,保来合同会社,,合同会社,東京都,文京区,音羽１丁目２３番１２号第一晃和堂ビル４１９号室,,13,105,1120013,,,,,,,2025-04-02,1,,,,,ホライ,0
1668,9010003046972,新規,0,2025-04-02,2025-04-02,ＭＡＮＡＢ合同会社,,合同会社,東京都,中央区,日本橋室町１丁目１１番１２号日本橋水野ビル７階,,13,102,1030022,,,,,,,2025-04-02,1,,,,,マナビ,0
1683,9010501053867,新規,0,2025-04-02,2025-04-02,ＢＢエステート株式会社,,株式会社,東京都,台東区,浅草１丁目５番１号,,13,106,1110032,,,,,,,2025-04-02,1,,,,,ビービーエステート,0
1685,9010601067032,新規,0,2025-04-02,2025-04-02,エイトビズ株式会社,,株式会社,東京都,墨田区,両国３丁目１３―１１シーズンフラッツ２０２,,13,107,1300026,,,,,,,2025-04-02,1,,,,,エイトビズ,0
1686,9010601067040,新規,0,2025-04-02,2025-04-02,ＡＺＬＥＡＤ株式会社,,株式会社,東京都,江東区,有明１丁目４番２０－３００２号,,13,108,1350063,,,,,,,2025-04-02,1,,,,,アズリード,0
1687,9010601067057,新規,0,2025-04-02,2025-04-02,株式会社ソレイユ,,株式会社,東京都,江東区,東陽３丁目２３番６号大陽ビル,,13,108,1350016,,,,,,,2025-04-02,1,,,,,ソレイユ,0
1688,9010705003742,新規,0,2025-04-02,2025-04-02,一般社団法人日本医療協会,,その他の設立登記法人,東京都,品川区,西五反田８丁目８－１６,,13,109,1410031,,,,,,,2025-04-02,1,,,,,ニホンイリョウキョウカイ,0
1689,9010801035978,新規,0,2025-04-02,2025-04-02,ＨＡＰＰＹ株式会社,,株式会社,東京都,大田区,大森北４丁目１７番２大越第二ビル２０１号,,13,111,1430016,,,,,,,2025-04-02,1,,,,,ハッピー,0
1690,9010803005335,新規,0,2025-04-02,2025-04-02,合同会社ＴＲＩＸ,,合同会社,東京都,大田区,中馬込２丁目２４－１０馬込マンションＢ１０１,,13,111,1430027,,,,,,,2025-04-02,1,,,,,トリックス,0
1693,9010903009797,新規,0,2025-04-02,2025-04-02,合同会社展,,合同会社,東京都,世田谷区,北沢１丁目４３－１アーバン北沢１０１,,13,112,1550031,,,,,,,2025-04-02,1,,,,,ノブ,0
1694,9011001001903,新規,0,2025-04-02,2025-04-02,株式会社旭エステート,,株式会社,東京都,渋谷区,宇田川町３３番７号,,13,113,1500042,,,,,,,2025-04-02,1,,,,,アサヒエステート,0
1698,9011001168610,新規,0,2025-04-02,2025-04-02,Ｍａｋｅｎｄｏ株式会社,,株式会社,東京都,渋谷区,道玄坂１丁目１０番８号渋谷道玄坂東急ビル２Ｆ－Ｃ,,13,113,1500043,,,,,,,2025-04-02,1,,,,,マケンドゥ,0
1699,9011001168627,新規,0,2025-04-02,2025-04-02,株式会社ライト,,株式会社,東京都,渋谷区,千駄ヶ谷３丁目１７番３号,,13,113,1510051,,,,,,,2025-04-02,1,,,,,ライト,0
1700,9011001168684,新規,0,2025-04-02,2025-04-02,株式会社Ｗｈａｎａｕ,,株式会社,東京都,渋谷区,道玄坂１丁目１０番８号渋谷道玄坂東急ビル２Ｆ－Ｃ,,13,113,1500043,,,,,,,2025-04-02,1,,,,,ファナウ,0
1701,9011001168692,新規,0,2025-04-02,2025-04-02,株式会社Ｏｎｅ　Ｈｕｎｄｒｅｄ　Ｓｔｒａｔｅｇｉｅｓ,,株式会社,東京都,渋谷区,渋谷２丁目１９－１５宮益坂ビルディング６０９,,13,113,1500002,,,,,,,2025-04-02,1,,,,,ワンハンドレッドストラテジーズ,0
1702,9011001168701,新規,0,2025-04-02,2025-04-02,株式会社ＤＩＳＣＯ　ｒｏｏｔ,,株式会社,東京都,渋谷区,神宮前６丁目１９番１号ＣＳビル６階,,13,113,1500001,,,,,,,2025-04-02,1,,,,,ディスコルート,0
1708,9011101111180,新規,0,2025-04-02,2025-04-02,Ｃｏｃｏｏｎｅｓｔ株式会社,,株式会社,東京都,新宿区,高田馬場３丁目１６－２第二コーポ安本１０２,,13,104,1690075,,,,,,,2025-04-02,1,,,,,ココネスト,0
1709,9011101111189,新規,0,2025-04-02,2025-04-02,株式会社Ｍａｖｅｒｉｃｋ　Ｅｎｔｅｒｔａｉｎｍｅｎｔ,,株式会社,東京都,新宿区,百人町１丁目２２番１９号筒井ビル２－Ｂ１Ｆ,,13,104,1690073,,,,,,,2025-04-02,1,,,,,マーベリックエンターテイメント,0
1711,9011103015719,新規,0,2025-04-02,2025-04-02,チョケイカインウー合同会社,,合同会社,東京都,新宿区,上落合１丁目１－１５落合パークファミリア１Ｆ－４,,13,104,1610034,,,,,,,2025-04-02,1,,,,,チョケイカインウー,0
1712,9011105011385,新規,0,2025-04-02,2025-04-02,フロンタスパートナーズ税理士法人,,その他の設立登記法人,東京都,新宿区,中落合３丁目１７番４号,,13,104,1610032,,,,,,,2025-04-02,1,,,,,フロンタスパートナーズ,0
1713,9011105011393,新規,0,2025-04-02,2025-04-02,一般社団法人ＳＰＶ０７,,その他の設立登記法人,東京都,新宿区,四谷２丁目９番地１５東京ユナイテッド綜合事務所内,,13,104,1600004,,,,,,,2025-04-02,1,,,,,エスピーブイゼロナナ,0
1718,9011401026970,新規,0,2025-04-02,2025-04-02,Ｂ．Ｖ．Ｉｎｖｅｓｔｍｅｎｔ　Ｃｏｍｐａｎｙ株式会社,,株式会社,東京都,板橋区,前野町２丁目１５番４号リバティパレス常盤台３０３,,13,119,1740063,,,,,,,2025-04-02,1,,,,,ビーブイインベストメントカンパニー,0
1724,9011601028528,新規,0,2025-04-02,2025-04-02,株式会社ＲｅＣｏｌｏｕｒ,,株式会社,東京都,練馬区,東大泉５丁目４１番１８－６０３号,,13,120,1780063,,,,,,,2025-04-02,1,,,,,リカラー,0
1726,9012405005093,新規,0,2025-04-02,2025-04-02,特定非営利活動法人ゆずさび,,その他の設立登記法人,東京都,調布市,多摩川６丁目１２番地４,,13,208,1820025,,,,,,,2025-04-02,1,,,,,ユズサビ,0
1730,9013303007594,新規,0,2025-04-02,2025-04-02,合同会社Ｋ＆Ｉコンサルティング,,合同会社,東京都,豊島区,南池袋２丁目３６番１０号ＳＯＨＯ南池袋３０１,,13,116,1710022,,,,,,,2025-04-02,1,,,,,ケイアンドアイコンサルティング,0
1731,9020001162077,新規,0,2025-04-02,2025-04-02,株式会社ＬＩＴＡ,,株式会社,神奈川県,横浜市中区,花咲町１丁目４８－３ロゼ桜木町４０６号,,14,104,2310063,,,,,,,2025-04-02,1,,,,,リタ,0
1732,9020001162093,新規,0,2025-04-02,2025-04-02,澤乙設計株式会社,,株式会社,神奈川県,横浜市神奈川区,金港町７－３金港ビル７階,,14,102,2210056,,,,,,,2025-04-02,1,,,,,タクオツセッケイ,0
1734,9020003028160,新規,0,2025-04-02,2025-04-02,ＫＡＦ合同会社,,合同会社,神奈川県,横浜市港北区,新吉田東６丁目２５番３号,,14,109,2230058,,,,,,,2025-04-02,1,,,,,ケイエイエフ,0
1735,9020003028193,新規,0,2025-04-02,2025-04-02,合同会社ミライツクル,,合同会社,神奈川県,横浜市都筑区,茅ケ崎中央２３―１６メイフェアミュゼ２Ｆ,,14,118,2240032,,,,,,,2025-04-02,1,,,,,ミライツクル,0
1736,9020003028202,新規,0,2025-04-02,2025-04-02,合同会社ＮＥＸＴ,,合同会社,神奈川県,横浜市青葉区,荏子田２丁目２番地１４－３０５,,14,117,2250005,,,,,,,2025-04-02,1,,,,,ネクスト,0
1740,9021001084848,新規,0,2025-04-02,2025-04-02,コヲロ株式会社,,株式会社,神奈川県,鎌倉市,由比ガ浜４丁目３番３５号地下１階,,14,204,2480014,,,,,,,2025-04-02,1,,,,,コヲロ,0
1745,9030001165582,新規,0,2025-04-02,2025-04-02,株式会社光政,,株式会社,埼玉県,さいたま市西区,大字植田谷本４５６番地１メヌエット大宮２０２,,11,101,3310053,,,,,,,2025-04-02,1,,,,,ミツマサ,0
1746,9030001165665,新規,0,2025-04-02,2025-04-02,永創株式会社,,株式会社,埼玉県,川口市,西川口６丁目１４番５－１号,,11,203,3320021,,,,,,,2025-04-02,1,,,,,エイソウ,0
1747,9030005022103,新規,0,2025-04-02,2025-04-02,医療法人社団すずらん会,,その他の設立登記法人,埼玉県,さいたま市南区,根岸５丁目１８番３号ヴィラ白幡１０４,,11,108,3360024,,,,,,,2025-04-02,1,,,,,スズランカイ,0
1750,9040003027061,新規,0,2025-04-02,2025-04-02,めんこい大家合同会社,,合同会社,千葉県,松戸市,松戸１２９２番地の１シティハイツ松戸５１０号,,12,207,2710092,,,,,,,2025-04-02,1,,,,,メンコイオオヤ,0
1751,9040003027193,新規,0,2025-04-02,2025-04-02,合同会社フードロス,,合同会社,千葉県,八街市,八街ほ２１１－７０,,12,230,2891115,,,,,,,2025-04-02,1,,,,,フードロス,0
1752,9040003027251,新規,0,2025-04-02,2025-04-02,合同会社楽走,,合同会社,千葉県,鎌ケ谷市,富岡１丁目７番１７号,,12,224,2730101,,,,,,,2025-04-02,1,,,,,ラクソウ,0
1758,9070001042778,新規,0,2025-04-02,2025-04-02,株式会社ｆｏｒ　ｅｖｅｒｙｏｎｅ,,株式会社,群馬県,前橋市,千代田町４丁目１４番２号新昇田中ビル１Ｆ,,10,201,3710022,,,,,,,2025-04-02,1,,,,,フォーエブリワン,0
1761,9080001026838,新規,0,2025-04-02,2025-04-02,株式会社ツナクラフトワークス,,株式会社,静岡県,焼津市,田尻２３６７番地の１,,22,212,4250052,,,,,,,2025-04-02,1,,,,,ツナクラフトワークス,0
1762,9080001026846,新規,0,2025-04-02,2025-04-02,株式会社ＤＮＹ‐Ｌｉｆｅ,,株式会社,静岡県,焼津市,駅北１丁目２４クリオ焼津壱番館７０２号,,22,212,4250028,,,,,,,2025-04-02,1,,,,,ディエヌワイーライフ,0
1764,9080005007677,新規,0,2025-04-02,2025-04-02,特定非営利活動法人いちのせ村,,その他の設立登記法人,静岡県,藤枝市,瀬戸ノ谷７５０９番地の３,,22,214,4260131,,,,,,,2025-04-02,1,,,,,イチノセムラ,0
1773,9120001274127,新規,0,2025-04-02,2025-04-02,資益株式会社,,株式会社,大阪府,大阪市東淀川区,豊新５丁目６番３－３０１号,,27,114,5330014,,,,,,,2025-04-02,1,,,,,シエキ,0
1774,9120001274184,新規,0,2025-04-02,2025-04-02,願景国際株式会社,,株式会社,大阪府,大阪市浪速区,桜川４丁目３－２２－９Ｆ,,27,111,5560022,,,,,,,2025-04-02,1,,,,,ガンケイコクサイ,0
1775,9120001274192,新規,0,2025-04-02,2025-04-02,Ｎｏｖａ　Ｉｎｔｅｒｎａｔｉｏｎａｌ株式会社,,株式会社,大阪府,大阪市西成区,鶴見橋１丁目１０番１４号３０２室,,27,122,5570031,,,,,,,2025-04-02,1,,,,,ノヴァインターナショナル,0
1776,9120001274201,新規,0,2025-04-02,2025-04-02,株式会社Ｎａｍ,,株式会社,大阪府,大阪市北区,梅田１丁目２番２号大阪駅前第２ビル１２－１２,,27,127,5300001,,,,,,,2025-04-02,1,,,,,ナム,0
1778,9120005024866,新規,0,2025-04-02,2025-04-02,一般社団法人Ｎｏｖｉｎｅ,,その他の設立登記法人,大阪府,大阪市天王寺区,真保院町１１番１号,,27,109,5430000,,,,,,,2025-04-02,1,,,,,ノヴァイン,0
1781,9120901050668,新規,0,2025-04-02,2025-04-02,株式会社フナケン,,株式会社,大阪府,吹田市,南金田１丁目１番７号,,27,205,5640044,,,,,,,2025-04-02,1,,,,,フナケン,0
1788,9122001039030,新規,0,2025-04-02,2025-04-02,株式会社アメテン,,株式会社,大阪府,大東市,御供田４丁目７番１２号３０１,,27,218,5740025,,,,,,,2025-04-02,1,,,,,アメテン,0
1790,9130001079293,新規,0,2025-04-02,2025-04-02,株式会社ＴＫＲ,,株式会社,京都府,宇治市,伊勢田町中山７０番地,,26,204,6110043,,,,,,,2025-04-02,1,,,,,ティーケーアール,0
1791,9130001079319,新規,0,2025-04-02,2025-04-02,株式会社ヒロワークス,,株式会社,京都府,京都市下京区,四条大宮町２番地,,26,106,6008389,,,,,,,2025-04-02,1,,,,,ヒロワークス,0
1792,9130001079343,新規,0,2025-04-02,2025-04-02,株式会社明行,,株式会社,京都府,京都市山科区,厨子奥苗代元町３１番地４,,26,110,6078454,,,,,,,2025-04-02,1,,,,,メイコウ,0
1795,9130003010322,新規,0,2025-04-02,2025-04-02,合同会社Ｗｉｓｄｏｍ　Ｔｒｅｅ　Ｅｎｇｌｉｓｈ,,合同会社,京都府,京田辺市,草内法福寺１２－２,,26,211,6100311,,,,,,,2025-04-02,1,,,,,ウィズダムツリーイングリッシュ,0
1796,9130003010339,新規,0,2025-04-02,2025-04-02,合同会社フロワイズ,,合同会社,京都府,京都市右京区,嵯峨天龍寺造路町６番地１５,,26,108,6168384,,,,,,,2025-04-02,1,,,,,フロワイズ,0
1797,9130005017324,新規,0,2025-04-02,2025-04-02,一般社団法人きらりんクリエイション,,その他の設立登記法人,京都府,亀岡市,篠町広田１丁目９番１２号,,26,206,6210834,,,,,,,2025-04-02,1,,,,,キラリンクリエイション,0
1801,9140001137926,新規,0,2025-04-02,2025-04-02,グリーンハーベスト・ベルジュ株式会社,,株式会社,兵庫県,淡路市,江井１５２９番地２,,28,226,6561531,,,,,,,2025-04-02,1,,,,,グリーンハーベストベルジュ,0
1802,9140001137934,新規,0,2025-04-02,2025-04-02,ＳＵＰＥＲ　ＹＡＣＨＴ　ＳＡＬＥＳ‐ＪＡＰＡＮ株式会社,,株式会社,兵庫県,神戸市中央区,新港町１１番１号,,28,110,6500041,,,,,,,2025-04-02,1,,,,,スーパーヨットセールスジャパン,0
1803,9140001137942,新規,0,2025-04-02,2025-04-02,株式会社フォルス,,株式会社,兵庫県,神戸市東灘区,魚崎南町７丁目１２番７号,,28,101,6580025,,,,,,,2025-04-02,1,,,,,フォルス,0
1807,9140003021888,新規,0,2025-04-02,2025-04-02,ＮＴＷｏｒｋｓ合同会社,,合同会社,兵庫県,神戸市中央区,山本通２丁目１３番７－１０４号,,28,110,6500003,,,,,,,2025-04-02,1,,,,,エヌティワークス,0
1809,9150001027993,新規,0,2025-04-02,2025-04-02,株式会社カシワギクリーニング,,株式会社,奈良県,生駒市,桜ケ丘７番４号,,29,209,6300211,,,,,,,2025-04-02,1,,,,,カシワギクリーニング,0
1810,9160003003422,新規,0,2025-04-02,2025-04-02,コネクトネットジャパン合同会社,,合同会社,滋賀県,大津市,一里山３丁目３６番１０号,,25,201,5202153,,,,,,,2025-04-02,1,,,,,コネクトネットジャパン,0
1812,9170003002183,新規,0,2025-04-02,2025-04-02,合同会社紀伊國農業,,合同会社,和歌山県,岩出市,新田広芝４４４－１,,30,209,6496212,,,,,,,2025-04-02,1,,,,,キノクニノウギョウ,0
1820,9180001166186,新規,0,2025-04-02,2025-04-02,株式会社讃岐,,株式会社,愛知県,清須市,春日酉３３番地６,,23,233,4520961,,,,,,,2025-04-02,1,,,,,サヌキ,0
1827,9190005012030,新規,0,2025-04-02,2025-04-02,一般社団法人三重支援チーム楽笑,,その他の設立登記法人,三重県,志摩市,阿児町鵜方１１７５番地１伊勢志摩ゼロ磁場内,,24,215,5170501,,,,,,,2025-04-02,1,,,,,ミエシエンチームラクショウ,0
1830,9220005008941,新規,0,2025-04-02,2025-04-02,特定非営利活動法人ありんこの家,,その他の設立登記法人,石川県,輪島市,門前町道下２２－９－丙－１,,17,204,9272164,,,,,,,2025-04-02,1,,,,,アリンコノイエ,0
1833,9240001064730,新規,0,2025-04-02,2025-04-02,株式会社Ｍｏｒｒｙ　Ｄｅｎｔａｌ　Ｌａｂ．,,株式会社,広島県,広島市中区,舟入町６－３－２０２,,34,101,7300841,,,,,,,2025-04-02,1,,,,,モリイデンタルラボドット,0
1834,9240001064747,新規,0,2025-04-02,2025-04-02,ライフアップ株式会社,,株式会社,広島県,広島市安佐北区,亀山６丁目１６番１３号,,34,106,7310231,,,,,,,2025-04-02,1,,,,,ライフアップ,0
1835,9240001064755,新規,0,2025-04-02,2025-04-02,株式会社Ｄ．Ｙ．Ｄ,,株式会社,広島県,広島市西区,横川町３丁目５番２２号あすなろビル２－２Ｆ,,34,104,7330011,,,,,,,2025-04-02,1,,,,,ディーワイディー,0
1838,9260001040060,新規,0,2025-04-02,2025-04-02,Ｓｔｕｄｉｏ６０６株式会社,,株式会社,岡山県,岡山市東区,中川町５０２番地１,,33,103,7048176,,,,,,,2025-04-02,1,,,,,スタジオロクマルロク,0
1845,9290003016568,新規,0,2025-04-02,2025-04-02,パラダイス中洲合同会社,,合同会社,福岡県,福岡市博多区,中洲２丁目６－１２中洲セントラル第５ラインビル６Ｆ,,40,132,8100801,,,,,,,2025-04-02,1,,,,,パラダイスナカス,0
1846,9290005019692,新規,0,2025-04-02,2025-04-02,一般社団法人ワンチーム,,その他の設立登記法人,福岡県,福岡市中央区,警固２丁目１３－１７－２００６,,40,133,8100023,,,,,,,2025-04-02,1,,,,,ワンチーム,0
1848,9290801031405,新規,0,2025-04-02,2025-04-02,トゥルーウェルス株式会社,,株式会社,福岡県,北九州市小倉北区,上富野２丁目１３番２４－２０３号,,40,106,8020022,,,,,,,2025-04-02,1,,,,,トゥルーウェルス,0
1849,9300003002260,新規,0,2025-04-02,2025-04-02,ＹＭＳ合同会社,,合同会社,佐賀県,佐賀市,南佐賀１丁目２１番１１号,,41,201,8400016,,,,,,,2025-04-02,1,,,,,ワイエムエス,0
1858,9340001027215,新規,0,2025-04-02,2025-04-02,株式会社Ｓｕｎｒｉｓｅ,,株式会社,鹿児島県,日置市,吹上町中原１１５１番地１,,46,216,8993301,,,,,,,2025-04-02,1,,,,,サンライズ,0
1859,9340003004798,新規,0,2025-04-02,2025-04-02,合同会社美素,,合同会社,鹿児島県,鹿児島市,大黒町３番２７号,,46,201,8920825,,,,,,,2025-04-02,1,,,,,ビソー,0
1865,9370001052391,新規,0,2025-04-02,2025-04-02,株式会社みなと通運,,株式会社,宮城県,気仙沼市,岩月宝ヶ沢３３０番地６ウィステリア１０３,,04,205,9880207,,,,,,,2025-04-02,1,,,,,ミナトツウウン,0
1866,9370001052409,新規,0,2025-04-02,2025-04-02,株式会社コンシェルジュスタッフィング,,株式会社,宮城県,仙台市泉区,住吉台東５丁目５番地の８,,04,105,9813222,,,,,,,2025-04-02,1,,,,,コンシェルジュスタッフィング,0
1869,9400001016995,新規,0,2025-04-02,2025-04-02,株式会社ＢＬＡＺＥ,,株式会社,岩手県,盛岡市,中央通２丁目１番７号岩手開連ビル１階,,03,201,0200021,,,,,,,2025-04-02,1,,,,,ブレイズ,0
1871,9430001094048,新規,0,2025-04-02,2025-04-02,株式会社マルイチ,,株式会社,北海道,札幌市白石区,東札幌二条６丁目５番１号,,01,104,0030002,,,,,,,2025-04-02,1,,,,,マルイチ,0
1872,9430001094072,新規,0,2025-04-02,2025-04-02,株式会社慶喜,,株式会社,北海道,札幌市中央区,南九条西４丁目１番１０号,,01,101,0640809,,,,,,,2025-04-02,1,,,,,ケイキ,0
1873,9430001094106,新規,0,2025-04-02,2025-04-02,株式会社１２ＤＥＳＩＧＮ,,株式会社,北海道,札幌市北区,新琴似五条１６丁目７番１号,,01,102,0010905,,,,,,,2025-04-02,1,,,,,トゥエルブデザイン,0
1875,9430003017460,新規,0,2025-04-02,2025-04-02,合同会社井村農園,,合同会社,北海道,余市郡赤井川村,字池田５１４番地２,,01,409,0460521,,,,,,,2025-04-02,1,,,,,イムラノウエン,0
1876,9430003017469,新規,0,2025-04-02,2025-04-02,合同会社ＨＯＯＰＥ,,合同会社,北海道,札幌市豊平区,平岸四条１６丁目３番２６号,,01,105,0620934,,,,,,,2025-04-02,1,,,,,ホープ,0
1880,9700150129782,新規,0,2025-04-02,2025-04-02,ハナマテリアルズ株式会社,,外国会社等,宮城県,仙台市青葉区,二日町１２番２５号グランディプレステージ７０１号,,04,101,9800802,大韓民国忠清南道天安市西北区３公団３路４２（白石洞）,,,,,,2025-04-02,1,,,,,ハナマテリアルズカブシキガイシヤ,0
