sequenceNumber,corporateNumber,process,correct,updateDate,changeDate,name,nameImageId,kind,prefectureName,cityName,streetNumber,addressImageId,prefectureCode,cityCode,postCode,addressOutside,addressOutsideImageId,closeDate,closeCause,successorCorporateNumber,changeCause,assignmentDate,latest,enName,enPrefectureName,enCityName,enAddressOutside,furigana,hihyoji
12,1010001229719,登記記録の閉鎖等,0,2023-05-19,2023-05-16,Ｔｒｕｔｈ　Ｂｒｏｔｈｅｒｓ株式会社,,株式会社,東京都,千代田区,丸の内２丁目５番１号,,13,101,1000005,,,2023-05-16,合併による解散等,5010401155809,令和５年５月９日東京都港区六本木六丁目３番１号ＭＳレコード株式会社（5010401155809）に合併し解散,2022-09-27,1,,,,,トゥルースブラザーズ,0
26,1010401139996,登記記録の閉鎖等,0,2023-05-19,2023-05-12,Ｐａｔｔｏｎａｉｒ　Ｊａｐａｎ株式会社,,株式会社,愛知県,名古屋市中区,栄３丁目１４番７号ＲＩＣＣＯ栄８階,,23,106,4600008,,,2023-05-12,清算の結了等,,,2018-08-03,1,,,,,パットンエアジャパン,0
27,1010401152743,登記記録の閉鎖等,0,2023-05-19,2023-05-15,株式会社３ＰＡＣ,,株式会社,東京都,渋谷区,上原１丁目８番２号,,13,113,1510064,,,2023-05-15,清算の結了等,,,2020-05-15,1,,,,,スリーパック,0
39,1010701024832,登記記録の閉鎖等,0,2023-05-19,2023-05-12,株式会社アッシュ,,株式会社,東京都,品川区,西五反田７丁目２２番１７号ＴＯＣビル１２階５０号,,13,109,1410031,,,2023-05-12,清算の結了等,,,2015-10-05,1,,,,,アッシュ,0
85,1011602004832,登記記録の閉鎖等,0,2023-05-19,2023-05-16,有限会社シティ保谷,,有限会社,東京都,練馬区,南大泉５丁目３５番７号レジェンド南大泉モトハシ１０２,,13,120,1780064,,,2023-05-16,清算の結了等,,,2015-10-05,1,,,,,,0
116,1030001076523,登記記録の閉鎖等,0,2023-05-19,2023-04-28,株式会社日本花卉,,株式会社,埼玉県,川口市,大字石神１９０番地１,,11,203,3330823,,,2023-04-28,清算の結了等,,,2015-10-05,1,,,,,ニホンカキ,0
132,1040002023399,登記記録の閉鎖等,0,2023-05-19,2023-05-18,有限会社高雄,00019898,有限会社,千葉県,船橋市,習志野台２丁目９番９－２０３号,,12,204,2740063,,,2023-05-18,清算の結了等,,,2015-10-05,1,,,,,タカオ,0
134,1040003005149,登記記録の閉鎖等,0,2023-05-19,2023-04-27,ＢＳプランニング合同会社,,合同会社,千葉県,千葉市花見川区,長作台１丁目６番２号,,12,102,2620047,,,2023-04-27,清算の結了等,,,2015-10-05,1,,,,,ビーエスプランニング,0
142,1050005002052,登記記録の閉鎖等,0,2023-05-19,2023-05-15,特定非営利活動法人水戸に精神障害者のくらしを作る会おらい水戸,,その他の設立登記法人,茨城県,水戸市,柵町１丁目３番１２号駅南第一ハイツ２０３号,,08,201,3100802,,,2023-05-15,清算の結了等,,,2015-10-05,1,,,,,ミトニセイシンショウガイシャノクラシヲツクルカイオライミト,0
145,1060002038429,登記記録の閉鎖等,0,2023-05-19,2023-04-26,有限会社カレーズ,,有限会社,栃木県,足利市,葉鹿町１丁目３５番地６,,09,202,3260143,,,2023-04-26,清算の結了等,,,2015-10-05,1,,,,,カレーズ,0
160,1100002022345,登記記録の閉鎖等,0,2023-05-19,2023-05-15,有限会社丸八種苗園,,有限会社,長野県,東筑摩郡山形村,２６２９番地,,20,450,3901301,,,2023-05-15,清算の結了等,,,2015-10-05,1,,,,,マルハチシュビョウエン,0
179,1120103002129,登記記録の閉鎖等,0,2023-05-19,2023-05-16,合同会社メガソーラー３号,,合同会社,東京都,千代田区,内神田２丁目２番６号５階あすな会計事務所内,,13,101,1010047,,,2023-05-16,清算の結了等,,,2015-10-05,1,,,,,メガソーラーサンゴウ,0
189,1130002006931,登記記録の閉鎖等,0,2023-05-19,2023-05-16,有限会社北尾晴富堂,,有限会社,京都府,京都市下京区,新町通花屋町上る艮町８５５番地,,26,106,6008304,,,2023-05-16,清算の結了等,,,2015-10-05,1,,,,,キタオセイフドウ,0
206,1180003014235,登記記録の閉鎖等,0,2023-05-19,2023-05-16,合同会社サザン・クロス,,合同会社,愛知県,春日井市,角崎町６４番地２,,23,206,4860943,,,2023-05-16,清算の結了等,,,2015-10-05,1,,,,,サザンクロス,0
208,1180005016898,登記記録の閉鎖等,0,2023-05-19,2023-05-12,特定非営利活動法人東海ものづくり研究会,,その他の設立登記法人,愛知県,名古屋市千種区,千種１丁目２６番９号ヴィラすみれ３０３,,23,101,4640858,,,2023-05-12,清算の結了等,,,2016-09-27,1,,,,,トウカイモノヅクリケンキュウカイ,0
210,1180301020661,登記記録の閉鎖等,0,2023-05-19,2023-05-16,株式会社エフアルティモ,,株式会社,愛知県,豊田市,渡刈町２丁目２７７番地,,23,211,4701202,,,2023-05-16,清算の結了等,,,2015-10-05,1,,,,,エフアルティモ,0
216,1220002000982,登記記録の閉鎖等,0,2023-05-19,2023-05-15,有限会社アプリホーム,,有限会社,石川県,金沢市,諸江町２６番７号,,17,201,9200014,,,2023-05-15,清算の結了等,,,2015-10-05,1,,,,,アプリホーム,0
219,1240001043849,登記記録の閉鎖等,0,2023-05-19,2023-05-18,株式会社Ｄｏ,,株式会社,広島県,広島市南区,皆実町１丁目１番４１－１００５号,,34,103,7340007,,,2023-05-18,清算の結了等,,,2015-10-05,1,,,,,ディーオ,0
231,1260002030266,登記記録の閉鎖等,0,2023-05-19,2023-05-17,有限会社英田産業,,有限会社,岡山県,美作市,奥７６９番地,,33,215,7012605,,,2023-05-17,清算の結了等,,,2015-10-05,1,,,,,アイダサンギョウ,0
244,1310005001382,登記記録の閉鎖等,0,2023-05-19,2023-05-17,医療法人龍天堂,,その他の設立登記法人,長崎県,長崎市,矢上町３１番５号,,42,201,8510133,,,2023-05-17,清算の結了等,,,2015-10-05,1,,,,,リュウテンドウ,0
296,2010001228513,登記記録の閉鎖等,0,2023-05-19,2023-05-15,株式会社えんじゃ,,株式会社,東京都,千代田区,神田小川町２丁目１２番１４号,,13,101,1010052,,,2023-05-15,合併による解散等,3011401022190,令和５年５月１日東京都板橋区常盤台一丁目６５－７いし本ビル３階株式会社ランステック（3011401022190）に合併し解散,2022-08-12,1,,,,,エンジャ,0
311,2010402004397,登記記録の閉鎖等,0,2023-05-19,2023-04-27,有限会社グレイ,,有限会社,東京都,港区,東新橋２丁目１０番７－３０３号,,13,103,1050021,,,2023-04-27,清算の結了等,,,2015-10-05,1,,,,,グレイ,0
366,2011802004763,登記記録の閉鎖等,0,2023-05-19,2023-05-15,有限会社武田商店,,有限会社,東京都,葛飾区,新小岩１丁目５２番１号,,13,122,1240024,,,2023-05-15,清算の結了等,,,2015-10-05,1,,,,,タケダショウテン,0
370,2012703002311,登記記録の閉鎖等,0,2023-05-19,2023-05-01,合同会社リショールハウス,,合同会社,東京都,東村山市,秋津町４丁目１０番地６２,,13,213,1890001,,,2023-05-01,清算の結了等,,,2021-09-13,1,,,,,リショールハウス,0
375,2013301008881,登記記録の閉鎖等,0,2023-05-19,2023-05-15,株式会社豊田,,株式会社,東京都,豊島区,北大塚２丁目６番１０号寿司常会館内,,13,116,1700004,,,2023-05-15,清算の結了等,,,2015-10-05,1,,,,,トヨダ,0
401,2030003004299,登記記録の閉鎖等,0,2023-05-19,2023-05-02,佐藤システム合同会社,,合同会社,埼玉県,川口市,南町１丁目１１番６－１０３号ルイシャトレ川口プレイズ,,11,203,3320026,,,2023-05-02,清算の結了等,,,2015-10-05,1,,,,,サトウシステム,0
428,2060001000966,登記記録の閉鎖等,0,2023-05-19,2023-05-10,株式会社大塚商店,00023945,株式会社,栃木県,宇都宮市,材木町１番１０号,,09,201,3200042,,,2023-05-10,清算の結了等,,,2015-10-05,1,,,,,オオツカショウテン,0
450,2120103002128,登記記録の閉鎖等,0,2023-05-19,2023-05-16,合同会社メガソーラー２号,,合同会社,東京都,千代田区,内神田２丁目２番６号５階あすな会計事務所内,,13,101,1010047,,,2023-05-16,清算の結了等,,,2015-10-05,1,,,,,メガソーラーニゴウ,0
493,2240001000130,登記記録の閉鎖等,0,2023-05-19,2023-05-17,青木建材工業株式会社,,株式会社,広島県,広島市佐伯区,薬師が丘４丁目１０番１８号,,34,108,7315154,,,2023-05-17,清算の結了等,,,2015-10-05,1,,,,,,0
498,2240002021662,登記記録の閉鎖等,0,2023-05-19,2023-05-18,有限会社　エムウェーブ,,有限会社,広島県,広島市東区,温品６丁目３番１４号,,34,102,7320033,,,2023-05-18,清算の結了等,,,2015-10-05,1,,,,,エムウェーブ,0
519,2350005005866,登記記録の閉鎖等,0,2023-05-19,2023-05-12,一般社団法人のーま・らぼ,,その他の設立登記法人,宮崎県,日向市,大字塩見字硴崎１０５０番１,,45,206,8830033,,,2023-05-12,清算の結了等,,,2019-08-07,1,,,,,ノーマラボ,0
529,2380002003085,登記記録の閉鎖等,0,2023-05-19,2023-05-17,有限会社舟山設備工業所,,有限会社,福島県,福島市,鎌田字橋本２２番地の３,,07,201,9600102,,,2023-05-17,清算の結了等,,,2015-10-05,1,,,,,フナヤマセツビコウギョウショ,0
533,2400001008966,登記記録の閉鎖等,0,2023-05-19,2023-05-15,株式会社明日華,,株式会社,岩手県,釜石市,上中島町４丁目６番５号,,03,211,0260041,,,2023-05-15,清算の結了等,,,2015-10-05,1,,,,,アスカ,0
586,3010002038043,登記記録の閉鎖等,0,2023-05-19,2023-05-15,有限会社田辺コンピュータシステム,,有限会社,東京都,千代田区,九段北４丁目１番３１号,,13,101,1020073,,,2023-05-15,清算の結了等,,,2015-10-05,1,,,,,タナベコンピュータシステム,0
601,3010401146000,登記記録の閉鎖等,0,2023-05-19,2023-04-05,株式会社Ｍｏｌｓｋｉｎ,,株式会社,東京都,港区,芝浦１丁目６番４１号,,13,103,1050023,,,2023-04-05,清算の結了等,,,2019-06-05,1,,,,,モルスキン,0
609,3010501033354,登記記録の閉鎖等,0,2023-05-19,2023-05-18,株式会社リベルタス,,株式会社,東京都,台東区,上野５丁目２６番１４号,,13,106,1100005,,,2023-05-18,清算の結了等,,,2015-10-05,1,,,,,リベルタス,0
622,3010902020406,登記記録の閉鎖等,0,2023-05-19,2023-05-15,ハイデア投資有限会社,,有限会社,東京都,世田谷区,松原２丁目３８番９号,,13,112,1560043,,,2023-05-15,清算の結了等,,,2015-10-05,1,,,,,ハイデアトウシ,0
629,3011002009744,登記記録の閉鎖等,0,2023-05-19,2023-05-09,有限会社ハイフォン,,有限会社,東京都,渋谷区,桜丘町２１番１２号,,13,113,1500031,,,2023-05-09,清算の結了等,,,2015-10-05,1,,,,,ハイフォン,0
682,3030002058403,登記記録の閉鎖等,0,2023-05-19,2023-04-28,有限会社亀井工務店,,有限会社,埼玉県,朝霞市,膝折町４丁目５番１３号,,11,227,3510014,,,2023-04-28,清算の結了等,,,2015-10-05,1,,,,,カメイコウムテン,0
705,3070003003404,登記記録の閉鎖等,0,2023-05-19,2023-05-16,エスエス３合同会社,,合同会社,群馬県,藤岡市,中８９４番地４,,10,209,3750005,,,2023-05-16,清算の結了等,,,2019-03-18,1,,,,,エスエススリー,0
710,3100001027310,登記記録の閉鎖等,0,2023-05-19,2023-05-15,株式会社公差設計研究所,,株式会社,長野県,諏訪郡下諏訪町,９３８３番地１,,20,361,3930000,,,2023-05-15,清算の結了等,,,2015-10-05,1,,,,,コウサセッケイケンキュウジョ,0
717,3120001039403,登記記録の閉鎖等,0,2023-05-19,2023-05-17,株式会社にしやま,,株式会社,大阪府,大阪市浪速区,敷津西２丁目１４番１０号,,27,111,5560015,,,2023-05-17,清算の結了等,,,2015-10-05,1,,,,,ニシヤマ,0
728,3120101045318,登記記録の閉鎖等,0,2023-05-19,2023-05-15,株式会社みなみかわ,,株式会社,大阪府,泉南郡熊取町,小谷北２丁目１番２６号,,27,361,5900434,,,2023-05-15,清算の結了等,,,2015-10-05,1,,,,,ミナミカワ,0
730,3120103001715,登記記録の閉鎖等,0,2023-05-19,2023-05-17,合同会社シンフォニー,,合同会社,大阪府,堺市西区,浜寺公園町２丁１３７－２－１３０５,,27,144,5928346,,,2023-05-17,清算の結了等,,,2015-10-05,1,,,,,シンフォニー,0
731,3120103002127,登記記録の閉鎖等,0,2023-05-19,2023-05-16,合同会社メガソーラー１号,,合同会社,東京都,千代田区,内神田２丁目２番６号５階あすな会計事務所内,,13,101,1010047,,,2023-05-16,清算の結了等,,,2015-10-05,1,,,,,メガソーラーイチゴウ,0
747,3140001102340,登記記録の閉鎖等,0,2023-05-19,2023-05-15,株式会社ドルチェ,,株式会社,兵庫県,西宮市,仁川町５丁目２番３７号,,28,204,6620811,,,2023-05-15,清算の結了等,,,2016-06-09,1,,,,,ドルチェ,0
751,3140002062922,登記記録の閉鎖等,0,2023-05-19,2023-05-16,有限会社ペインティック吉川,00041416,有限会社,兵庫県,小野市,万勝寺町２９５番地の３１,,28,218,6751311,,,2023-05-16,清算の結了等,,,2015-10-05,1,,,,,ペインティックヨシカワ,0
764,3180001108648,登記記録の閉鎖等,0,2023-05-19,2023-05-16,株式会社プライテクト,,株式会社,愛知県,名古屋市守山区,菱池町２０番５０号,,23,113,4630045,,,2023-05-16,清算の結了等,,,2015-10-05,1,,,,,プライテクト,0
787,3250002001555,登記記録の閉鎖等,0,2023-05-19,2023-05-09,有限会社三戸本店,,有限会社,山口県,山口市,阿東地福上２７５５番地,,35,203,7591421,,,2023-05-09,清算の結了等,,,2015-10-05,1,,,,,ミトホンテン,0
801,3290002055226,登記記録の閉鎖等,0,2023-05-19,2023-05-10,有限会社小堀銘板製作所,,有限会社,福岡県,大牟田市,西浜田町１４番地の９,,40,202,8360027,,,2023-05-10,清算の結了等,,,2015-10-05,1,,,,,コボリメイバンセイサクショ,0
803,3290003009065,登記記録の閉鎖等,0,2023-05-19,2023-05-11,合同会社カラーズ,,合同会社,福岡県,福岡市博多区,博多駅前２丁目１９番１７号トーカン博多第５ビル内,,40,132,8120011,,,2023-05-11,清算の結了等,,,2019-06-05,1,,,,,カラーズ,0
809,3310002008858,登記記録の閉鎖等,0,2023-05-19,2023-05-18,有限会社北部商事,,有限会社,長崎県,長崎市,畦町１１８９番地１,,42,201,8512201,,,2023-05-18,清算の結了等,,,2015-10-05,1,,,,,ホクブショウジ,0
827,3370001022623,登記記録の閉鎖等,0,2023-05-19,2023-05-18,株式会社Ｎｅｏ　Ｕｎｉｖｅｒｓｅ,,株式会社,宮城県,仙台市青葉区,錦町１丁目４番５号,,04,101,9800012,,,2023-05-18,清算の結了等,,,2015-10-05,1,,,,,,0
828,3370001045640,登記記録の閉鎖等,0,2023-05-19,2023-05-18,千杜プランニング株式会社,,株式会社,宮城県,仙台市青葉区,国分町３丁目３番３０号定禅寺ヒルズＩＩ６階,00121314,04,101,9800803,,,2023-05-18,清算の結了等,,,2020-04-17,1,,,,,,0
831,3370003001815,登記記録の閉鎖等,0,2023-05-19,2023-05-17,合同会社ＺＡＳＳ,,合同会社,宮城県,仙台市青葉区,台原７丁目１番１８号プティ東照宮２０８,,04,101,9810911,,,2023-05-17,清算の結了等,,,2015-10-05,1,,,,,ザッス,0
859,4010001176603,登記記録の閉鎖等,0,2023-05-19,2023-05-12,株式会社ディーシーエス,,株式会社,東京都,中央区,銀座１丁目２７番１１号,,13,102,1040061,,,2023-05-12,清算の結了等,,,2016-07-11,1,,,,,ディーシーエス,0
885,4010405007858,登記記録の閉鎖等,0,2023-05-19,2023-04-28,特許業務法人ＳＡＮＳＵＩ国際特許事務所,,その他の設立登記法人,東京都,港区,赤坂６丁目６番１５号,,13,103,1070052,,,2023-04-28,清算の結了等,,,2015-10-05,1,,,,,サンスイ,0
918,4011603003748,登記記録の閉鎖等,0,2023-05-19,2023-05-08,合同会社ｅｎｂｅ,,合同会社,東京都,練馬区,石神井台５丁目１９番９号,,13,120,1770045,,,2023-05-08,清算の結了等,,,2022-11-30,1,,,,,エンビー,0
948,4020005015104,登記記録の閉鎖等,0,2023-05-19,2023-05-16,一般社団法人不動産実務交流ラボ,,その他の設立登記法人,神奈川県,横浜市中区,桜木町１丁目１番地７ヒューリックみなとみらい１０階,,14,104,2310062,,,2023-05-16,清算の結了等,,,2021-06-15,1,,,,,フドウサンジツムコウリュウラボ,0
968,4030005001862,登記記録の閉鎖等,0,2023-05-19,2023-04-28,特定非営利活動法人ラナップ,,その他の設立登記法人,埼玉県,さいたま市中央区,上落合８丁目１０番２２－７０５号,,11,105,3380001,,,2023-04-28,清算の結了等,,,2015-10-05,1,,,,,ラナップ,0
971,4040001102341,登記記録の閉鎖等,0,2023-05-19,2023-04-28,株式会社未来商事,,株式会社,千葉県,船橋市,二和西５丁目１１番１７号,,12,204,2740806,,,2023-04-28,清算の結了等,,,2017-10-30,1,,,,,ミライショウジ,0
979,4040002080842,登記記録の閉鎖等,0,2023-05-19,2023-04-28,有限会社エムエイチピー,,有限会社,千葉県,茂原市,六ツ野３７９８番地３,,12,210,2970012,,,2023-04-28,清算の結了等,,,2015-10-05,1,,,,,エムエイチピー,0
989,4060002023114,登記記録の閉鎖等,0,2023-05-19,2023-05-11,有限会社高西総合事業,00024590,有限会社,栃木県,那須郡那須町,大字高久丙３１５１番地,,09,407,3250302,,,2023-05-11,清算の結了等,,,2015-10-05,1,,,,,タカニシソウゴウジギョウ,0
990,4060002029152,登記記録の閉鎖等,0,2023-05-19,2023-05-11,有限会社日向野園芸,,有限会社,栃木県,小山市,大字東黒田１２８番地３,,09,208,3290204,,,2023-05-11,清算の結了等,,,2015-10-05,1,,,,,ヒガノエンゲイ,0
999,4080402002038,登記記録の閉鎖等,0,2023-05-19,2023-05-17,有限会社加藤糸店,,有限会社,静岡県,浜松市中区,中央３丁目２番３０号,,22,131,4300929,,,2023-05-17,清算の結了等,,,2015-10-05,1,,,,,カトウイトテン,0
1003,4110001007418,登記記録の閉鎖等,0,2023-05-19,2023-05-15,株式会社出雲屋仏檀店,,株式会社,新潟県,新潟市南区,白根３０７２番地,,15,106,9501217,,,2023-05-15,清算の結了等,,,2015-10-05,1,,,,,イズモヤブツダンテン,0
1072,4220002015342,登記記録の閉鎖等,0,2023-05-19,2023-04-28,有限会社エイチエス企画,,有限会社,石川県,鹿島郡中能登町,末坂ツ部６２番甲地,,17,407,9291704,,,2023-04-28,清算の結了等,,,2015-10-05,1,,,,,エイチエスキカク,0
1087,4290002036910,登記記録の閉鎖等,0,2023-05-19,2023-05-10,有限会社ヒダカパッケージ,,有限会社,福岡県,糟屋郡宇美町,大字宇美２４４７番地の１２,,40,341,8112101,,,2023-05-10,清算の結了等,,,2015-10-05,1,,,,,ヒダカパッケージ,0
1096,4320003000861,登記記録の閉鎖等,0,2023-05-19,2023-05-15,合同会社ケアプランセンターたしま,,合同会社,大分県,大分市,梅が丘１丁目２３番２号,,44,201,8797885,,,2023-05-15,清算の結了等,,,2015-10-05,1,,,,,ケアプランセンタータシマ,0
1101,4330002013293,登記記録の閉鎖等,0,2023-05-19,2023-05-16,有限会社ブロード,,有限会社,熊本県,熊本市中央区,出水６丁目３７番１０号,,43,101,8620941,,,2023-05-16,清算の結了等,,,2015-10-05,1,,,,,ブロード,0
1112,4370801001346,登記記録の閉鎖等,0,2023-05-19,2023-05-16,株式会社ＲＤコンサルタント,,株式会社,宮城県,仙台市太白区,郡山６丁目６番２－６０３号,,04,104,9820003,,,2023-05-16,清算の結了等,,,2015-10-05,1,,,,,アールデーコンサルタント,0
1124,4450005000327,登記記録の閉鎖等,0,2023-05-19,2023-05-17,医療法人社団板谷整形外科医院,,その他の設立登記法人,北海道,旭川市,神楽岡十四条３丁目５番２号,,01,204,0788324,,,2023-05-17,清算の結了等,,,2015-10-05,1,,,,,イタヤセイケイゲカイイン,0
1192,5011501021149,登記記録の閉鎖等,0,2023-05-19,2023-05-17,ＧＡＬ株式会社,,株式会社,東京都,北区,東十条２丁目４番９号,,13,117,1140001,,,2023-05-17,清算の結了等,,,2015-12-04,1,,,,,,0
1202,5012703001517,登記記録の閉鎖等,0,2023-05-19,2023-05-16,合同会社うさぎ塾,,合同会社,東京都,西東京市,北町４丁目８番１７号,,13,229,2020003,,,2023-05-16,清算の結了等,,,2017-10-03,1,,,,,ウサギジュク,0
1208,5013302013770,登記記録の閉鎖等,0,2023-05-19,2023-05-10,有限会社ケイ・アール,,有限会社,東京都,豊島区,西池袋５丁目２７番１３－１０２号,,13,116,1710021,,,2023-05-10,清算の結了等,,,2015-10-05,1,,,,,ケイアール,0
1209,5013302015123,登記記録の閉鎖等,0,2023-05-19,2023-05-15,有限会社ディーポイント,,有限会社,東京都,豊島区,上池袋３丁目３４番１１号６０３,,13,116,1700012,,,2023-05-15,清算の結了等,,,2015-10-05,1,,,,,ディーポイント,0
1210,5020001032457,登記記録の閉鎖等,0,2023-05-19,2023-04-03,日祐メーリングサービス株式会社,,株式会社,神奈川県,横浜市港北区,新羽町１２０４番,,14,109,2230057,,,2023-04-03,合併による解散等,6020001002203,令和５年４月１日神奈川県横浜市港北区新羽町１２０４番日祐株式会社（6020001002203）に合併し解散,2015-10-05,1,,,,,ニチユウメーリングサービス,0
1217,5020002083086,登記記録の閉鎖等,0,2023-05-19,2023-05-12,有限会社ケイアンドケイ,,有限会社,神奈川県,川崎市中原区,丸子通２丁目６８２番地,,14,133,2110006,,,2023-05-12,清算の結了等,,,2015-10-05,1,,,,,ケイアンドケイ,0
1229,5030001039682,登記記録の閉鎖等,0,2023-05-19,2023-05-16,小滝金属工業株式会社,,株式会社,東京都,足立区,千住龍田町２番９号,,13,121,1200042,,,2023-05-16,清算の結了等,,,2015-10-05,1,,,,,コタキキンゾクコウギョウ,0
1232,5030001119815,登記記録の閉鎖等,0,2023-05-19,2023-05-01,大友設備株式会社,,株式会社,埼玉県,さいたま市南区,鹿手袋４丁目２３番３０号,,11,108,3360031,,,2023-05-01,清算の結了等,,,2017-04-19,1,,,,,オオトモセツビ,0
1306,5140001001920,登記記録の閉鎖等,0,2023-05-19,2023-05-12,大和フーズ株式会社,,株式会社,東京都,中央区,銀座１丁目４番８号銀座ビックウエストビル５号館８階,,13,102,1040061,,,2023-05-12,清算の結了等,,,2015-10-05,1,,,,,ダイワフーズ,0
1308,5140001085666,登記記録の閉鎖等,0,2023-05-19,2023-05-18,辰美運輸株式会社,,株式会社,兵庫県,南あわじ市,津井１２４８番地,,28,224,6560341,,,2023-05-18,清算の結了等,,,2015-10-05,1,,,,,,0
1337,5190003002755,登記記録の閉鎖等,0,2023-05-19,2023-05-17,つつみぷらん合同会社,,合同会社,三重県,津市,南が丘４丁目２番地３,,24,201,5140822,,,2023-05-17,清算の結了等,,,2017-07-28,1,,,,,ツツミプラン,0
1346,5240002048562,登記記録の閉鎖等,0,2023-05-19,2023-05-15,有限会社マザーランド,,有限会社,広島県,安芸郡海田町,西浜４番２号メゾン・ド１０１号,,34,304,7360024,,,2023-05-15,清算の結了等,,,2015-10-05,1,,,,,マザーランド,0
1351,5250002019224,登記記録の閉鎖等,0,2023-05-19,2023-05-01,有限会社ケイ・エス・カンパニー,,有限会社,山口県,岩国市,麻里布町２丁目５番１７号,,35,208,7400018,,,2023-05-01,清算の結了等,,,2015-10-05,1,,,,,ケイエスカンパニー,0
1359,5290005014359,登記記録の閉鎖等,0,2023-05-19,2023-05-15,一般社団法人福岡繁盛支援協会,,その他の設立登記法人,福岡県,福岡市南区,高宮３丁目１１番８号１Ｆ,,40,134,8150083,,,2023-05-15,清算の結了等,,,2015-10-05,1,,,,,フクオカハンジョウシエンキョウカイ,0
1369,5330002018291,登記記録の閉鎖等,0,2023-05-19,2023-05-01,株式会社オフィスさくら,,株式会社,宮崎県,宮崎市,橘通東３丁目８番２１号,,45,201,8800805,,,2023-05-01,合併による解散等,5350001002187,令和５年５月１日宮崎市橘通東三丁目８番２１号株式会社レジャークリエイトホールディングス（5350001002187）に合併し解散,2015-10-05,1,,,,,オフィスサクラ,0
1370,5330002028010,登記記録の閉鎖等,0,2023-05-19,2023-05-16,有限会社千企画,,有限会社,熊本県,水俣市,陣内２丁目１番１６号,,43,205,8670011,,,2023-05-16,清算の結了等,,,2015-10-05,1,,,,,センキカク,0
1378,5360001025600,登記記録の閉鎖等,0,2023-05-19,2023-05-15,株式会社スパオブライト,,株式会社,沖縄県,宜野湾市,伊佐２丁目７番１２号ＧＮビル３Ｆ,,47,205,9012221,,,2023-05-15,清算の結了等,,,2019-05-09,1,,,,,スパオブライト,0
1383,5370005002867,登記記録の閉鎖等,0,2023-05-19,2023-05-11,医療法人昭仁会明石台レディースクリニック,,その他の設立登記法人,宮城県,富谷市,明石台２丁目１３番１号,,04,216,9813332,,,2023-05-11,清算の結了等,,,2015-10-05,1,,,,,ショウジンカイアカイシダイレディースクリニック,0
1404,5500002004605,登記記録の閉鎖等,0,2023-05-19,2023-05-18,有限会社テックタカハシ,,有限会社,愛媛県,松山市,石手５丁目１番３４号,,38,201,7900852,,,2023-05-18,清算の結了等,,,2015-10-05,1,,,,,テックタカハシ,0
1424,6010401132146,登記記録の閉鎖等,0,2023-05-19,2023-04-28,株式会社Ｎ－ｖｉｌｌａｇｅ,,株式会社,東京都,港区,六本木７丁目８番５号,,13,103,1060032,,,2023-04-28,清算の結了等,,,2017-06-22,1,,,,,エヌビレッジ,0
1437,6010701030066,登記記録の閉鎖等,0,2023-05-19,2023-05-15,ＴＤ　Ｒｅｐｕｂｌｉｃ株式会社,,株式会社,東京都,品川区,東品川２丁目６番１０号,,13,109,1400002,,,2023-05-15,清算の結了等,,,2015-10-05,1,,,,,ティーディーリパブリック,0
1439,6010703003417,登記記録の閉鎖等,0,2023-05-19,2023-05-01,株式会社ｂｙｄｅｓｉｇｎ,,株式会社,東京都,目黒区,中目黒１丁目９番３号,,13,110,1530061,,,2023-05-01,合併による解散等,7010001143666,令和５年５月１日東京都渋谷区千駄ヶ谷一丁目２８番１号ルームクリップ株式会社（7010001143666）に合併し解散,2017-01-06,1,,,,,バイデザイン,0
1444,6010901019116,登記記録の閉鎖等,0,2023-05-19,2023-05-15,株式会社アリシア,,株式会社,東京都,世田谷区,上北沢５丁目１３－６第２山谷ビル２Ｆ,,13,112,1560057,,,2023-05-15,清算の結了等,,,2015-10-05,1,,,,,アリシア,0
1445,6010902012499,登記記録の閉鎖等,0,2023-05-19,2023-05-15,有限会社ビデオ・パートナー・ウチダ,,有限会社,東京都,世田谷区,用賀４丁目３６番６号,,13,112,1580097,,,2023-05-15,清算の結了等,,,2015-10-05,1,,,,,ビデオパートナーウチダ,0
1447,6011001003340,登記記録の閉鎖等,0,2023-05-19,2023-05-17,株式会社エー・シー・バング・東京,,株式会社,東京都,狛江市,東野川４丁目６番１号,,13,219,2010002,,,2023-05-17,清算の結了等,,,2015-10-05,1,,,,,エーシーバングトウキョウ,0
1484,6013301042159,登記記録の閉鎖等,0,2023-05-19,2023-05-15,ＦＩＲＳＴ　ＰＬＡＮ株式会社,,株式会社,東京都,渋谷区,代々木２丁目３３－１ライフロックスアイル２０４号室,,13,113,1510053,,,2023-05-15,清算の結了等,,,2018-04-19,1,,,,,ファーストプラン,0
1493,6020002077756,登記記録の閉鎖等,0,2023-05-19,2023-05-12,有限会社ミケス・テスティングパートナーズジャパン,,有限会社,神奈川県,横浜市鶴見区,生麦１丁目１番２２号１０４号室,,14,101,2300052,,,2023-05-12,清算の結了等,,,2015-10-05,1,,,,,ミケステスティングパートナーズジャパン,0
1501,6021002009237,登記記録の閉鎖等,0,2023-05-19,2023-05-16,有限会社ティー・アンド・ジー商会,,有限会社,神奈川県,藤沢市,天神町１丁目１０番１９号,,14,205,2520814,,,2023-05-16,清算の結了等,,,2015-10-05,1,,,,,ティーアンドジーショウカイ,0
1507,6030001105871,登記記録の閉鎖等,0,2023-05-19,2023-04-26,イオ企画株式会社,,株式会社,埼玉県,桶川市,大字上日出谷３０８番地の３,,11,231,3630026,,,2023-04-26,清算の結了等,,,2015-10-05,1,,,,,イオキカク,0
1513,6030003001029,登記記録の閉鎖等,0,2023-05-19,2023-05-01,ＪＡＰＡＮＳＥＥＫＥＲＳ合同会社,,合同会社,埼玉県,さいたま市岩槻区,南平野４丁目４番地３,,11,110,3390051,,,2023-05-01,清算の結了等,,,2015-10-05,1,,,,,ジャパンシーカース,0
1525,6040002076285,登記記録の閉鎖等,0,2023-05-19,2023-04-27,有限会社宮原ストアー,,有限会社,千葉県,市原市,惣社２丁目８番地５,,12,219,2900023,,,2023-04-27,清算の結了等,,,2015-10-05,1,,,,,ミヤハラストアー,0
1526,6040003002348,登記記録の閉鎖等,0,2023-05-19,2023-04-26,合同会社印西農産物直売所,,合同会社,千葉県,印西市,草深１０８８番地２,,12,231,2701337,,,2023-04-26,清算の結了等,,,2015-10-05,1,,,,,インザイノウサンブツチョクバイジョ,0
1542,6080401024758,登記記録の閉鎖等,0,2023-05-19,2023-05-17,株式会社ＴＭソリューション,,株式会社,静岡県,浜松市中区,佐鳴台２丁目１２番１８号,,22,131,4328021,,,2023-05-17,清算の結了等,,,2020-12-21,1,,,,,ティーエムソリューション,0
1550,6110002032652,登記記録の閉鎖等,0,2023-05-19,2023-05-16,有限会社石打刃物,,有限会社,新潟県,南魚沼市,上一日市２２４番地１,,15,226,9496364,,,2023-05-16,清算の結了等,,,2015-10-05,1,,,,,イシウチハモノ,0
1566,6120902000501,登記記録の閉鎖等,0,2023-05-19,2023-05-16,有限会社関西ビジネスコンサルティング,,有限会社,大阪府,茨木市,白川２丁目１０番２０号,,27,211,5670832,,,2023-05-16,清算の結了等,,,2015-10-05,1,,,,,カンサイビジネスコンサルティング,0
1572,6122002016576,登記記録の閉鎖等,0,2023-05-19,2023-05-18,アドアレックス有限会社,,有限会社,大阪府,大阪狭山市,茱萸木５丁目１９３４番地の３４,00105207,27,231,5890013,,,2023-05-18,清算の結了等,,,2015-10-05,1,,,,,アドアレックス,0
1583,6140002032006,登記記録の閉鎖等,0,2023-05-19,2023-05-17,富士化成工業有限会社,,有限会社,兵庫県,たつの市,誉田町福田４９５番地,,28,229,6794132,,,2023-05-17,清算の結了等,,,2015-10-05,1,,,,,,0
1586,6140005023910,登記記録の閉鎖等,0,2023-05-19,2023-05-17,特定非営利活動法人国際知識交流協会,,その他の設立登記法人,兵庫県,西宮市,上甲子園５丁目１０－２３,,28,204,6638114,,,2023-05-17,清算の結了等,,,2018-01-11,1,,,,,コクサイチシキコウリュウキョウカイ,0
1597,6180001085075,登記記録の閉鎖等,0,2023-05-19,2023-05-18,株式会社安喜,,株式会社,愛知県,安城市,日の出町７番１号,,23,212,4460033,,,2023-05-18,清算の結了等,,,2015-10-05,1,,,,,アンキ,0
1633,6290001010220,登記記録の閉鎖等,0,2023-05-19,2023-05-10,株式会社渕上,,株式会社,福岡県,福岡市中央区,小笹５丁目１１番３号,,40,133,8100033,,,2023-05-10,清算の結了等,,,2015-10-05,1,,,,,フチガミ,0
1641,6290802019278,登記記録の閉鎖等,0,2023-05-19,2023-05-18,有限会社虹,,有限会社,福岡県,北九州市若松区,本町３丁目５番２５号,,40,103,8080034,,,2023-05-18,清算の結了等,,,2015-10-05,1,,,,,ニジ,0
1644,6320001016453,登記記録の閉鎖等,0,2023-05-19,2023-05-15,株式会社雪月,,株式会社,大分県,別府市,田の湯町３番７号アライアンスタワーＺ４階,,44,202,8740909,,,2023-05-15,清算の結了等,,,2018-06-22,1,,,,,ユヅキ,0
1645,6320002022863,登記記録の閉鎖等,0,2023-05-19,2023-05-15,有限会社吉野ガーデン,,有限会社,大分県,大分市,三佐３丁目１１番２１号,,44,201,8700108,,,2023-05-15,清算の結了等,,,2023-01-31,1,,,,,ヨシノガーデン,0
1691,7010005035190,登記記録の閉鎖等,0,2023-05-19,2023-05-17,一般社団法人パールホールディングス,,その他の設立登記法人,東京都,千代田区,丸の内３丁目１番１号東京共同会計事務所内,,13,101,1000005,,,2023-05-17,清算の結了等,,,2022-06-30,1,,,,,パールホールディングス,0
1706,7010405019974,登記記録の閉鎖等,0,2023-05-19,2023-04-28,Ｆｕｅｌ特定目的会社,,その他の設立登記法人,東京都,港区,虎ノ門５丁目１番４号,,13,103,1050001,,,2023-04-28,清算の結了等,,,2021-07-12,1,,,,,フューエル,0
1716,7010703002509,登記記録の閉鎖等,0,2023-05-19,2023-05-15,合同会社プランムント,,合同会社,東京都,品川区,北品川１丁目９番７号トップルーム品川１０１５号,,13,109,1400001,,,2023-05-15,清算の結了等,,,2015-10-05,1,,,,,プランムント,0
1720,7010901030336,登記記録の閉鎖等,0,2023-05-19,2023-05-15,株式会社熊木盛光堂,,株式会社,東京都,世田谷区,岡本３丁目３番４号,,13,112,1570076,,,2023-05-15,清算の結了等,,,2015-10-05,1,,,,,クマキセイコウドウ,0
1730,7011003009797,登記記録の閉鎖等,0,2023-05-19,2023-05-15,Ｉｒｙファシリティーズ合同会社,,合同会社,東京都,渋谷区,恵比寿南３丁目１１番１号パインコート恵比寿２０７,,13,113,1500022,,,2023-05-15,清算の結了等,,,2019-03-28,1,,,,,アイアールワイファシリティーズ,0
1754,7012703001457,登記記録の閉鎖等,0,2023-05-19,2023-05-09,合同会社フラワー,,合同会社,東京都,西東京市,谷戸町１丁目２２番１－１１０７号,,13,229,1880001,,,2023-05-09,合併による解散等,7012703001234,令和５年５月１日東京都西東京市谷戸町一丁目２２番１－１１０７号合同会社ロータス（7012703001234）に合併し解散,2017-05-29,1,,,,,フラワー,0
1756,7013102007302,登記記録の閉鎖等,0,2023-05-19,2023-05-17,有限会社デサナ,,有限会社,東京都,青梅市,東青梅６丁目１６番地の４,,13,205,1980042,,,2023-05-17,清算の結了等,,,2015-10-05,1,,,,,デサナ,0
1757,7013202013472,登記記録の閉鎖等,0,2023-05-19,2023-05-12,有限会社ジェイ・シー・アイ,,有限会社,東京都,目黒区,平町２丁目１２番２号,,13,110,1520032,,,2023-05-12,清算の結了等,,,2015-10-05,1,,,,,ジェイシーアイ,0
1763,7013301037265,登記記録の閉鎖等,0,2023-05-19,2023-05-15,株式会社Ｎ－ｕｎｉｔ,,株式会社,東京都,豊島区,西池袋５丁目２６番１６号,,13,116,1710021,,,2023-05-15,清算の結了等,,,2015-10-05,1,,,,,エヌユニット,0
1784,7030001074199,登記記録の閉鎖等,0,2023-05-19,2023-05-01,株式会社織人,,株式会社,埼玉県,川口市,朝日１丁目１番１－７０２号,,11,203,3320001,,,2023-05-01,清算の結了等,,,2015-10-05,1,,,,,,0
1787,7030001118897,登記記録の閉鎖等,0,2023-05-19,2023-05-01,Ｓｈｉｐ’ｓ　Ｃａｔ株式会社,,株式会社,埼玉県,さいたま市北区,植竹町１丁目１４２番地１－Ｂ１０２,,11,102,3310813,,,2023-05-01,清算の結了等,,,2017-03-01,1,,,,,,0
1792,7030002094452,登記記録の閉鎖等,0,2023-05-19,2023-05-01,有限会社三喜製作所,,有限会社,埼玉県,比企郡鳩山町,大字今宿１番地の６,,11,348,3500322,,,2023-05-01,清算の結了等,,,2015-10-05,1,,,,,サンキセイサクショ,0
1794,7030003005697,登記記録の閉鎖等,0,2023-05-19,2023-04-27,合同会社Ｍａｃｏｔｏ　Ｏｎｏｚｕｋａ,,合同会社,埼玉県,川越市,南台３丁目１３番地１,,11,201,3501165,,,2023-04-27,清算の結了等,,,2015-10-05,1,,,,,マコトオノズカ,0
1813,7080001022814,登記記録の閉鎖等,0,2023-05-19,2023-05-18,株式会社デンタル・サービスセンター,,株式会社,静岡県,静岡市駿河区,南町１番１３号,,22,102,4228067,,,2023-05-18,清算の結了等,,,2019-04-09,1,,,,,デンタルサービスセンター,0
1846,7120005021337,登記記録の閉鎖等,0,2023-05-19,2023-05-17,ＴＯＭＡ社会保険労務士法人,,その他の設立登記法人,大阪府,大阪市中央区,本町３丁目５番５号セントピア御堂筋本町ビル９階,,27,128,5410053,,,2023-05-17,清算の結了等,,,2020-01-17,1,,,,,ティーオーエムエー,0
1851,7120102013476,登記記録の閉鎖等,0,2023-05-19,2023-05-17,有限会社ＩＫＥＢＥ,,有限会社,大阪府,堺市堺区,大仙中町６番１３号,,27,141,5900801,,,2023-05-17,清算の結了等,,,2015-10-05,1,,,,,イケベ,0
1867,7140001032757,登記記録の閉鎖等,0,2023-05-19,2023-05-16,Ｂｉｚコミュニケーションズ株式会社,,株式会社,兵庫県,神戸市須磨区,高倉台２丁目１８番７号,,28,107,6540081,,,2023-05-16,清算の結了等,,,2015-10-05,1,,,,,ビズコミュニケーションズ,0
1876,7140005023447,登記記録の閉鎖等,0,2023-05-19,2023-05-18,一般社団法人わだつみ,,その他の設立登記法人,兵庫県,西宮市,甲子園口２丁目１番２３号,,28,204,6638113,,,2023-05-18,清算の結了等,,,2017-03-24,1,,,,,,0
1880,7180001092269,登記記録の閉鎖等,0,2023-05-19,2023-05-12,株式会社福屋,,株式会社,愛知県,知多郡武豊町,字南中根３２番地,,23,447,4702351,,,2023-05-12,清算の結了等,,,2015-10-05,1,,,,,フクヤ,0
1894,7220002006693,登記記録の閉鎖等,0,2023-05-19,2023-05-16,有限会社ティーロード,,有限会社,石川県,白山市,鶴来桑島町７０番地,,17,210,9202166,,,2023-05-16,清算の結了等,,,2015-10-05,1,,,,,ティーロード,0
1916,7290002013270,登記記録の閉鎖等,0,2023-05-19,2023-05-12,有限会社みき助,,有限会社,福岡県,福岡市中央区,舞鶴２丁目８番３１－１００４号,,40,133,8100073,,,2023-05-12,清算の結了等,,,2015-10-05,1,,,,,,0
1930,7350002001203,登記記録の閉鎖等,0,2023-05-19,2023-05-12,有限会社川西商会不動産部,,有限会社,宮崎県,宮崎市,大塚台西２丁目９番地９,,45,201,8802105,,,2023-05-12,清算の結了等,,,2015-10-05,1,,,,,カワニシショウカイフドウサンブ,0
1931,7360001017166,登記記録の閉鎖等,0,2023-05-19,2023-05-15,株式会社夢,,株式会社,沖縄県,沖縄市,宮里２丁目２３番１０号,,47,211,9042165,,,2023-05-15,清算の結了等,,,2015-10-05,1,,,,,ユメ,0
1946,7380002006174,登記記録の閉鎖等,0,2023-05-19,2023-05-16,有限会社加藤ニッティング,,有限会社,福島県,伊達市,保原町大泉字平地内９１番地,,07,213,9600634,,,2023-05-16,清算の結了等,,,2015-10-05,1,,,,,カトウニッティング,0
1952,7420002015939,登記記録の閉鎖等,0,2023-05-19,2023-05-11,有限会社木村商店,,有限会社,青森県,平川市,猿賀南田１８番地,,02,210,0360242,,,2023-05-11,清算の結了等,,,2015-10-05,1,,,,,キムラショウテン,0
1964,7500002010799,登記記録の閉鎖等,0,2023-05-19,2023-05-18,有限会社サン軽金属工業,,有限会社,愛媛県,伊予郡砥部町,重光１９０番地２,,38,402,7912112,,,2023-05-18,清算の結了等,,,2015-10-05,1,,,,,サンケイキンゾクコウギョウ,0
1991,8010101010443,登記記録の閉鎖等,0,2023-05-19,2023-05-16,株式会社エヌ・マーケット,,株式会社,東京都,豊島区,池袋２丁目５４番１２号日宝池袋第一ビル３Ｆ,,13,116,1710014,,,2023-05-16,合併による解散等,8013301042727,令和５年４月２８日沖縄県那覇市久茂地３－９－２１ＡＲＴコンサルティング株式会社（8013301042727）に合併し解散,2015-10-05,1,,,,,エヌマーケット,0
1992,8010401016009,登記記録の閉鎖等,0,2023-05-19,2023-04-28,株式会社セレクトゴルフ,,株式会社,東京都,港区,赤坂４丁目５番２１号バルミー赤坂３０９号,,13,103,1070052,,,2023-04-28,清算の結了等,,,2015-10-05,1,,,,,セレクトゴルフ,0
1993,8010401019630,登記記録の閉鎖等,0,2023-05-19,2023-04-24,株式会社徳鄰堂,,株式会社,東京都,港区,虎ノ門３丁目１８－６－２０３,,13,103,1050001,,,2023-04-24,清算の結了等,,,2015-10-05,1,,,,,,0
1998,8010401132441,登記記録の閉鎖等,0,2023-05-19,2023-04-28,ＧｌｏｂａｌＴｒｅｅｈｏｕｓｅ株式会社,,株式会社,東京都,港区,北青山１丁目２番３号,,13,103,1070061,,,2023-04-28,清算の結了等,,,2017-07-14,1,,,,,グローバルツリーハウス,0
2005,8010403009324,登記記録の閉鎖等,0,2023-05-19,2023-05-12,合同会社エムシーアセット・エイト,,合同会社,東京都,千代田区,内神田１丁目１３番７号,,13,101,1010047,,,2023-05-12,清算の結了等,,,2015-10-05,1,,,,,エムシーアセットエイト,0
2037,8011501005933,登記記録の閉鎖等,0,2023-05-19,2023-05-11,賀川印刷株式会社,,株式会社,東京都,荒川区,東尾久３丁目１５番９号,,13,118,1160012,,,2023-05-11,清算の結了等,,,2015-10-05,1,,,,,カガワインサツ,0
2053,8013202003613,登記記録の閉鎖等,0,2023-05-19,2023-05-11,有限会社スドウ企画,,有限会社,東京都,目黒区,自由が丘３丁目２番１０号,,13,110,1520035,,,2023-05-11,清算の結了等,,,2015-10-05,1,,,,,スドウキカク,0
2064,8020001071774,登記記録の閉鎖等,0,2023-05-19,2023-05-15,株式会社あそか,,株式会社,神奈川県,川崎市川崎区,東田町１０番地３０,,14,131,2100005,,,2023-05-15,清算の結了等,,,2015-10-05,1,,,,,アソカ,0
2074,8021001032254,登記記録の閉鎖等,0,2023-05-19,2023-05-16,暁車輌工業株式会社,,株式会社,神奈川県,小田原市,蓮正寺７４９番地,00012490,14,206,2500865,,,2023-05-16,清算の結了等,,,2015-10-05,1,,,,,アカツキシャリョウ,0
2075,8021001069560,登記記録の閉鎖等,0,2023-05-19,2023-05-16,大成建築株式会社,,株式会社,神奈川県,相模原市南区,上鶴間本町９丁目１９－１ボヌール・コリーヌ１０１号,,14,153,2520318,,,2023-05-16,清算の結了等,,,2020-03-23,1,,,,,タイセイケンチク,0
2093,8030002023022,登記記録の閉鎖等,0,2023-05-19,2023-04-27,有限会社コーケンリフォーム,,有限会社,埼玉県,さいたま市岩槻区,大字掛５５４番地の２,,11,110,3390078,,,2023-04-27,清算の結了等,,,2015-10-05,1,,,,,コーケンリフォーム,0
2126,8110002013329,登記記録の閉鎖等,0,2023-05-19,2023-05-11,有限会社ダイシン,,有限会社,新潟県,阿賀野市,福永１８３７番地,,15,223,9592204,,,2023-05-11,清算の結了等,,,2015-10-05,1,,,,,ダイシン,0
2127,8110002018369,登記記録の閉鎖等,0,2023-05-19,2023-05-12,有限会社Ｔ＆Ｏテック,,有限会社,新潟県,加茂市,柳町２丁目６番１号,,15,209,9591386,,,2023-05-12,清算の結了等,,,2015-10-05,1,,,,,ティアンドオーテック,0
2132,8120001130966,登記記録の閉鎖等,0,2023-05-19,2023-05-16,株式会社ＫＡＷＡＳＨＯＷ,,株式会社,大阪府,大阪市北区,中津１丁目２番２１号中津明大ビル,,27,127,5310071,,,2023-05-16,合併による解散等,9120001129495,令和５年５月１日大阪市北区中津一丁目２番２１号中津明大ビル株式会社ＢＡＮＺＡＩ（9120001129495）に合併し解散,2015-10-05,1,,,,,カワショウ,0
2133,8120001153959,登記記録の閉鎖等,0,2023-05-19,2023-05-16,株式会社エコ・Ｊ,,株式会社,大阪府,枚方市,大字穂谷２５８１番地の１,,27,210,5730114,,,2023-05-16,清算の結了等,,,2015-10-05,1,,,,,エコジェイ,0
2152,8120901008881,登記記録の閉鎖等,0,2023-05-19,2023-05-10,わあく不動産株式会社,,株式会社,大阪府,吹田市,千里山竹園１丁目２３番８号,,27,205,5650852,,,2023-05-10,合併による解散等,3120901006353,令和５年５月１０日大阪府吹田市千里山竹園一丁目２３番８号株式会社こすもらいふ（3120901006353）に合併し解散,2015-10-05,1,,,,,,0
2155,8120902019639,登記記録の閉鎖等,0,2023-05-19,2023-05-16,有限会社プチボナール,,有限会社,大阪府,豊中市,新千里東町２丁目５番２０－１４１５号,,27,203,5600082,,,2023-05-16,清算の結了等,,,2015-10-05,1,,,,,プチボナール,0
2169,8140001038051,登記記録の閉鎖等,0,2023-05-19,2023-05-18,株式会社トキワ,,株式会社,兵庫県,神戸市西区,小山３丁目１０番１１号,,28,111,6512144,,,2023-05-18,清算の結了等,,,2015-10-05,1,,,,,トキワ,0
2170,8140001064709,登記記録の閉鎖等,0,2023-05-19,2023-05-17,株式会社美布乃,,株式会社,兵庫県,姫路市,綿町１００番地,,28,201,6700921,,,2023-05-17,清算の結了等,,,2015-10-05,1,,,,,ミブノ,0
2172,8140002053495,登記記録の閉鎖等,0,2023-05-19,2023-05-15,株式会社アートオブウォー,,株式会社,兵庫県,姫路市,飾磨区清水５１番地８０３,,28,201,6728051,,,2023-05-15,合併による解散等,1010001230073,令和５年５月１日兵庫県姫路市飾磨区清水５１番地８０３株式会社バサラダイニング（1010001230073）に合併し解散,2015-10-05,1,,,,,アートオブウォー,0
2179,8160003002648,登記記録の閉鎖等,0,2023-05-19,2023-05-16,合同会社ＴＩＧ,,合同会社,滋賀県,甲賀市,水口町新城５８５番地８,,25,209,5280007,,,2023-05-16,清算の結了等,,,2022-08-15,1,,,,,ティーアイジー,0
2192,8180303002619,登記記録の閉鎖等,0,2023-05-19,2023-05-16,ライナックス合資会社,,合資会社,愛知県,豊田市,渡刈町２丁目２７７番地,,23,211,4701202,,,2023-05-16,清算の結了等,,,2015-10-05,1,,,,,ライナックス,0
2194,8190002014625,登記記録の閉鎖等,0,2023-05-19,2023-05-12,有限会社八百大,,有限会社,三重県,志摩市,阿児町国府２８８７番地２２,,24,215,5170506,,,2023-05-12,清算の結了等,,,2015-10-05,1,,,,,ヤオダイ,0
2216,8290002005762,登記記録の閉鎖等,0,2023-05-19,2023-05-09,有限会社平野ビル,,有限会社,福岡県,福岡市東区,千早５丁目１２番１１号,,40,131,8130044,,,2023-05-09,清算の結了等,,,2015-10-05,1,,,,,ヒラノビル,0
2223,8290005015338,登記記録の閉鎖等,0,2023-05-19,2023-05-12,一般社団法人上内校区まちづくり協議会,,その他の設立登記法人,福岡県,大牟田市,大字上内１０５番地１,,40,202,8370902,,,2023-05-12,清算の結了等,,,2015-10-05,1,,,,,カミウチコウクマチヅクリキョウギカイ,0
2226,8330001007689,登記記録の閉鎖等,0,2023-05-19,2023-05-16,株式会社ＳＩＮ,,株式会社,熊本県,熊本市西区,城山大塘１丁目２０番１６号,,43,103,8600067,,,2023-05-16,清算の結了等,,,2015-10-05,1,,,,,シン,0
2232,8330005004253,登記記録の閉鎖等,0,2023-05-19,2023-05-16,医療法人社団淡河会,,その他の設立登記法人,熊本県,玉名郡長洲町,大字梅田６９６番地１,,43,368,8690122,,,2023-05-16,清算の結了等,,,2015-10-05,1,,,,,オゴウカイ,0
2247,8370002003766,登記記録の閉鎖等,0,2023-05-19,2023-05-16,有限会社フレツシュストアなんじよう,,有限会社,宮城県,仙台市若林区,荒井５丁目１８番地の１,,04,103,9840032,,,2023-05-16,清算の結了等,,,2015-10-05,1,,,,,フレツシュストアナンジョウ,0
2296,9010005035577,登記記録の閉鎖等,0,2023-05-19,2023-05-17,ジェイコアレジ７一般社団法人,,その他の設立登記法人,東京都,千代田区,丸の内３丁目１番１号東京共同会計事務所内,,13,101,1000005,,,2023-05-17,清算の結了等,,,2022-09-20,1,,,,,ジェイコアレジセブン,0
2350,9011801008180,登記記録の閉鎖等,0,2023-05-19,2023-05-16,株式会社サトウビジネス,,株式会社,東京都,足立区,東伊興３丁目１４番８号,,13,121,1210801,,,2023-05-16,清算の結了等,,,2015-10-05,1,,,,,サトウビジネス,0
2354,9013201017225,登記記録の閉鎖等,0,2023-05-19,2023-05-11,株式会社ＪＥＴ・ＡＭＳ,,株式会社,東京都,目黒区,目黒１丁目５番４号,,13,110,1530063,,,2023-05-11,清算の結了等,,,2015-10-05,1,,,,,ジェットエイムス,0
2366,9020002047401,登記記録の閉鎖等,0,2023-05-19,2023-05-15,有限会社千代田商事,,有限会社,神奈川県,横浜市中区,常盤町５丁目６０番地,,14,104,2310014,,,2023-05-15,清算の結了等,,,2015-10-05,1,,,,,チヨダショウジ,0
2372,9020005015504,登記記録の閉鎖等,0,2023-05-19,2023-05-12,一般社団法人ウェルネスデザイン協会,,その他の設立登記法人,神奈川県,横浜市中区,桜木町１丁目１０１番地１クロスゲート７階,,14,104,2310062,,,2023-05-12,清算の結了等,,,2022-04-25,1,,,,,ウェルネスデザインキョウカイ,0
2373,9021001060196,登記記録の閉鎖等,0,2023-05-19,2023-05-17,株式会社加藤,,株式会社,神奈川県,愛甲郡愛川町,田代１９４８番地,,14,401,2430306,,,2023-05-17,清算の結了等,,,2016-09-07,1,,,,,カトウ,0
2393,9040001094418,登記記録の閉鎖等,0,2023-05-19,2023-04-27,株式会社大栄ＭＳ,,株式会社,千葉県,佐倉市,太田２０５６番地４,,12,212,2850808,,,2023-04-27,清算の結了等,,,2016-03-14,1,,,,,ダイエイエムエス,0
2397,9040002046772,登記記録の閉鎖等,0,2023-05-19,2023-04-26,有限会社セントラルリース,,有限会社,千葉県,松戸市,金ケ作４２０番地の１０,,12,207,2702251,,,2023-04-26,清算の結了等,,,2015-10-05,1,,,,,セントラルリース,0
2404,9040005009850,登記記録の閉鎖等,0,2023-05-19,2023-04-28,特定非営利活動法人なごみの郷京葉,,その他の設立登記法人,千葉県,市原市,五井２５３６番地３,,12,219,2900056,,,2023-04-28,清算の結了等,,,2015-10-05,1,,,,,ナゴミノサトケイヨウ,0
2413,9060003003639,登記記録の閉鎖等,0,2023-05-19,2023-05-08,みうらーや合同会社,,合同会社,栃木県,那須郡那須町,大字漆塚９８６番地３,,09,407,3293221,,,2023-05-08,清算の結了等,,,2021-03-23,1,,,,,ミウラーヤ,0
2421,9080105004112,登記記録の閉鎖等,0,2023-05-19,2023-05-16,特定非営利活動法人シンプルライフ普及センター,,その他の設立登記法人,静岡県,伊東市,宇佐美８４５番地,,22,208,4140001,,,2023-05-16,清算の結了等,,,2015-10-05,1,,,,,シンプルライフフキュウセンター,0
2443,9120102006478,登記記録の閉鎖等,0,2023-05-19,2023-05-18,有限会社カズプランニング,,有限会社,大阪府,堺市堺区,熊野町東５丁１番２６号,,27,141,5900946,,,2023-05-18,清算の結了等,,,2015-10-05,1,,,,,カズプランニング,0
2453,9140001065367,登記記録の閉鎖等,0,2023-05-19,2023-05-15,株式会社バサラダイニング,,株式会社,兵庫県,姫路市,飾磨区清水５１番地８０３,,28,201,6728051,,,2023-05-15,合併による解散等,1010001230073,令和５年５月１日兵庫県姫路市飾磨区清水５１番地８０３株式会社バサラダイニング（1010001230073）に合併し解散,2015-10-05,1,,,,,バサラダイニング,0
2459,9140005001962,登記記録の閉鎖等,0,2023-05-19,2023-05-18,医療法人社団島田クリニック,,その他の設立登記法人,兵庫県,神戸市中央区,琴ノ緒町５丁目３番５号５０１,,28,110,6510094,,,2023-05-18,清算の結了等,,,2015-10-05,1,,,,,シマダクリニック,0
2469,9180301024416,登記記録の閉鎖等,0,2023-05-19,2023-05-15,エキスパートジャパン　株式会社,,株式会社,愛知県,豊橋市,雲谷町字外ノ谷２７４番地の１,,23,201,4413104,,,2023-05-15,清算の結了等,,,2015-10-05,1,,,,,エキスパートジャパン,0
2477,9200001004533,登記記録の閉鎖等,0,2023-05-19,2023-05-17,伏貴株式会社,,株式会社,岐阜県,岐阜市,東中島２丁目３番８号,,21,201,5008235,,,2023-05-17,清算の結了等,,,2015-10-05,1,,,,,フシキ,0
2496,9290001092982,登記記録の閉鎖等,0,2023-05-19,2023-05-12,坂本電気株式会社,,株式会社,福岡県,福岡市西区,野方２丁目３３番２号,,40,135,8190043,,,2023-05-12,清算の結了等,,,2021-04-27,1,,,,,,0
2537,9420001017075,登記記録の閉鎖等,0,2023-05-19,2023-05-12,グレンカル・シナリー株式会社,,株式会社,青森県,弘前市,大字外瀬２丁目２番地１,,02,202,0368317,,,2023-05-12,合併による解散等,1010801024162,令和５年５月１日東京都大田区西蒲田八丁目２４番１号グレンカル・テクノロジー株式会社（1010801024162）に合併し解散,2020-07-22,1,,,,,,0
