sequenceNumber,corporateNumber,process,correct,updateDate,changeDate,name,nameImageId,kind,prefectureName,cityName,streetNumber,addressImageId,prefectureCode,cityCode,postCode,addressOutside,addressOutsideImageId,closeDate,closeCause,successorCorporateNumber,changeCause,assignmentDate,latest,enName,enPrefectureName,enCityName,enAddressOutside,furigana,hihyoji
17,1010001244899,新規,0,2024-05-21,2024-05-21,株式会社Ｋ,,株式会社,東京都,中央区,日本橋兜町８番１号,,13,102,1030026,,,,,,,2024-05-21,1,,,,,ケイ,0
18,1010001244908,新規,0,2024-05-21,2024-05-21,株式会社Ｖｉｖｉｅｎｎｅ,,株式会社,東京都,中央区,銀座５丁目９番１７号あづまビル１０３,,13,102,1040061,,,,,,,2024-05-21,1,,,,,ヴィヴィエンヌ,0
19,1010001244916,新規,0,2024-05-21,2024-05-21,株式会社ギアチェンジ,,株式会社,東京都,中央区,月島３丁目８番９号,,13,102,1040052,,,,,,,2024-05-21,1,,,,,ギアチェンジ,0
20,1010001244949,新規,0,2024-05-21,2024-05-21,株式会社Ｂｒｉｄｇｅ,,株式会社,東京都,中央区,銀座７丁目２番２０号銀座コスモビルＩＩ２Ｆ,00134837,13,102,1040061,,,,,,,2024-05-21,1,,,,,ブリッヂ,0
21,1010001244957,新規,0,2024-05-21,2024-05-21,株式会社Ｓｕｐｅｒｍａｇジャパン,,株式会社,東京都,千代田区,丸の内２丁目２番１号岸本ビルディング７階,,13,101,1000005,,,,,,,2024-05-21,1,,,,,スーパーマグジャパン,0
22,1010001244981,新規,0,2024-05-21,2024-05-21,ＡＳＳＥＴ・ＰＡＲＴＮＥＲＳ株式会社,,株式会社,東京都,千代田区,麹町２丁目１０番３号,,13,101,1020083,,,,,,,2024-05-21,1,,,,,アセットパートナーズ,0
23,1010001245055,新規,0,2024-05-21,2024-05-21,株式会社杉山建物,,株式会社,東京都,中央区,月島１丁目２１番８号杉山ビル１階,,13,102,1040052,,,,,,,2024-05-21,1,,,,,スギヤマタテモノ,0
25,1010003043762,新規,0,2024-05-21,2024-05-21,合同会社ツタンカーメン展実行委員会,,合同会社,東京都,中央区,日本橋浜町３丁目３番１－２３０１号,,13,102,1030007,,,,,,,2024-05-21,1,,,,,ツタンカーメンテンジッコウイインカイ,0
26,1010005038323,新規,0,2024-05-21,2024-05-21,一般社団法人ＣＡＲＥ　ＰＬＵＳ,,その他の設立登記法人,東京都,千代田区,神田淡路町２丁目３番１２号安和淡路町ビル２階,,13,101,1010063,,,,,,,2024-05-21,1,,,,,ケアプラス,0
36,1010401182542,新規,0,2024-05-21,2024-05-21,株式会社シャインコンサルティング,,株式会社,東京都,港区,港南２丁目１６番２号太陽生命品川ビル２８Ｆ,,13,103,1080075,,,,,,,2024-05-21,1,,,,,シャインコンサルティング,0
37,1010401182583,新規,0,2024-05-21,2024-05-21,株式会社Ｐｒｅｃｉｏｕｓ　Ｌｉｆｅ,,株式会社,東京都,港区,元赤坂１丁目２番１７号２９０２,,13,103,1070051,,,,,,,2024-05-21,1,,,,,プレシャスライフ,0
38,1010401182641,新規,0,2024-05-21,2024-05-21,株式会社ｃｏｍｅｃｏ,,株式会社,東京都,港区,北青山１丁目３番１号アールキューブ青山３階,,13,103,1070061,,,,,,,2024-05-21,1,,,,,コメコ,0
39,1010403032638,新規,0,2024-05-21,2024-05-21,欣＿合同会社,00134843,合同会社,東京都,港区,六本木３丁目１６番１９－２０１号,,13,103,1060032,,,,,,,2024-05-21,1,,,,,キンゲン,0
42,1010601065217,新規,0,2024-05-21,2024-05-21,ＳＨグループ株式会社,,株式会社,東京都,江東区,東雲１丁目９番４１－３９１３号,,13,108,1350062,,,,,,,2024-05-21,1,,,,,エスエイチグループ,0
43,1010601065233,新規,0,2024-05-21,2024-05-21,株式会社ＫＭＧ,,株式会社,東京都,江東区,新砂３丁目４番４３号,,13,108,1360075,,,,,,,2024-05-21,1,,,,,ケーエムジー,0
44,1010601065241,新規,0,2024-05-21,2024-05-21,Ｓ＆Ｒ株式会社,,株式会社,東京都,墨田区,緑４丁目８－４ヤマシロハイム４０３号,,13,107,1300021,,,,,,,2024-05-21,1,,,,,エスアンドアール,0
46,1010603010856,新規,0,2024-05-21,2024-05-21,ｓｕｚｕｍｅＦ合同会社,,合同会社,東京都,江東区,白河１丁目２番１０号藤和シティホームズ清澄庭園１１０６,,13,108,1350021,,,,,,,2024-05-21,1,,,,,スズメエフ,0
48,1010701046018,新規,0,2024-05-21,2024-05-21,株式会社ＫＡＭＵ３３,,株式会社,東京都,品川区,南品川６丁目２番３号,,13,109,1400004,,,,,,,2024-05-21,1,,,,,カムサンサン,0
56,1010901055314,新規,0,2024-05-21,2024-05-21,ドットハニカム株式会社,,株式会社,東京都,世田谷区,中町２丁目１番１８号,,13,112,1580091,,,,,,,2024-05-21,1,,,,,ドットハニカム,0
57,1010901055322,新規,0,2024-05-21,2024-05-21,株式会社ＲＡＨＵ,,株式会社,東京都,世田谷区,若林４丁目１番９号,,13,112,1540023,,,,,,,2024-05-21,1,,,,,ラーフ,0
58,1011001161936,新規,0,2024-05-21,2024-05-21,ＦＩＲＳＴ　ＳＴＥＰ　ＪＡＰＡＮ株式会社,,株式会社,東京都,渋谷区,道玄坂１丁目１８番３号,,13,113,1500043,,,,,,,2024-05-21,1,,,,,ファーストステップジャパン,0
59,1011001162067,新規,0,2024-05-21,2024-05-21,株式会社ＷＥＬＣＯＭＥ,,株式会社,東京都,目黒区,上目黒５丁目１１番１１号クロフト中目黒２Ｆ,,13,110,1530051,,,,,,,2024-05-21,1,,,,,ウェルカム,0
60,1011001162083,新規,0,2024-05-21,2024-05-21,ココサンク株式会社,,株式会社,東京都,渋谷区,道玄坂１丁目１０番８号,,13,113,1500043,,,,,,,2024-05-21,1,,,,,ココサンク,0
61,1011001162117,新規,0,2024-05-21,2024-05-21,ＫＢＹＳ株式会社,,株式会社,東京都,渋谷区,千駄ヶ谷５丁目３２番４号,,13,113,1510051,,,,,,,2024-05-21,1,,,,,ケービーワイエス,0
62,1011001162141,新規,0,2024-05-21,2024-05-21,株式会社Ａｌｏｕｅｔｔｅ,,株式会社,東京都,目黒区,五本木２丁目４番７号ミチワハウス１Ｆ,,13,110,1530053,,,,,,,2024-05-21,1,,,,,アルエット,0
63,1011003019182,新規,0,2024-05-21,2024-05-21,かどるあ合同会社,,合同会社,東京都,目黒区,下目黒１丁目１番１４号コノトラビル７Ｆ,,13,110,1530064,,,,,,,2024-05-21,1,,,,,カドルア,0
64,1011003019190,新規,0,2024-05-21,2024-05-21,合同会社ＲＡＳＳＩＸ,,合同会社,東京都,渋谷区,恵比寿西２丁目８番４号ＥＸ恵比寿西ビル５階,,13,113,1500021,,,,,,,2024-05-21,1,,,,,,0
66,1011005010511,新規,0,2024-05-21,2024-05-21,一般社団法人鯨食復興研究所,,その他の設立登記法人,東京都,渋谷区,桜丘町２３番１７号シティコート桜丘４０４,,13,113,1500031,,,,,,,2024-05-21,1,,,,,ゲイショクフッコウケンキュウジョ,0
68,1011101107368,新規,0,2024-05-21,2024-05-21,レナトス株式会社,,株式会社,東京都,新宿区,西新宿３丁目５号１２番,,13,104,1600023,,,,,,,2024-05-21,1,,,,,レナトス,0
74,1011301029676,新規,0,2024-05-21,2024-05-21,株式会社ＧＡＫＵＡＲＴ,,株式会社,東京都,杉並区,荻窪１丁目５７番３２号,,13,115,1670051,,,,,,,2024-05-21,1,,,,,ガクアート,0
75,1011303005163,新規,0,2024-05-21,2024-05-21,ＡＩ’ｓエステート合同会社,,合同会社,東京都,杉並区,阿佐谷南１丁目１２番５－４０６号クリオレミントンハウス阿佐ヶ谷,,13,115,1660004,,,,,,,2024-05-21,1,,,,,アイズエステート,0
76,1011401026103,新規,0,2024-05-21,2024-05-21,アニマルワークス株式会社,,株式会社,東京都,板橋区,成増３丁目６番１６号,,13,119,1750094,,,,,,,2024-05-21,1,,,,,アニマルワークス,0
77,1011501030681,新規,0,2024-05-21,2024-05-21,株式会社美空建総,,株式会社,東京都,北区,赤羽南２丁目１１番１号小林ビル２号室,,13,117,1150044,,,,,,,2024-05-21,1,,,,,ミソラケンソウ,0
78,1011501030698,新規,0,2024-05-21,2024-05-21,ＮＯＡＨ株式会社,,株式会社,東京都,荒川区,南千住３丁目２７－２浅草ビルＤ号室,,13,118,1160003,,,,,,,2024-05-21,1,,,,,ノア,0
83,1012301013918,新規,0,2024-05-21,2024-05-21,株式会社恵比寿基礎工業,,株式会社,東京都,町田市,鶴川３丁目１５番５号,,13,209,1950061,,,,,,,2024-05-21,1,,,,,エビスキソコウギョウ,0
85,1012403006571,新規,0,2024-05-21,2024-05-21,Ｍｅｒｃｕｒｙ　Ｅｓｔａｔｅ合同会社,,合同会社,東京都,狛江市,中和泉５丁目２１番１７号,,13,219,2010012,,,,,,,2024-05-21,1,,,,,マーキュリーエステート,0
89,1013101009420,新規,0,2024-05-21,2024-05-21,Ｌａｎｄｂｅｌｌ株式会社,,株式会社,東京都,あきる野市,草花３２６８番地３,,13,228,1970802,,,,,,,2024-05-21,1,,,,,ランベル,0
97,1020001157316,新規,0,2024-05-21,2024-05-21,株式会社アイ・テック,,株式会社,神奈川県,横浜市保土ケ谷区,川島町７６３番地１,,14,106,2400045,,,,,,,2024-05-21,1,,,,,アイテック,0
98,1020001157357,新規,0,2024-05-21,2024-05-21,住マ居ル建装株式会社,,株式会社,神奈川県,横浜市都筑区,荏田南３丁目１番４号グランデホームズＢ１Ｆ,,14,118,2240007,,,,,,,2024-05-21,1,,,,,スマイルケンソウ,0
101,1020003026155,新規,0,2024-05-21,2024-05-21,Ｃａｌｍ＆Ｓｃｅｎｔｓ合同会社,,合同会社,神奈川県,横浜市神奈川区,金港町５－１４クアドリフォリオ８階,,14,102,2210056,,,,,,,2024-05-21,1,,,,,カームアンドセンツ,0
102,1020005016435,新規,0,2024-05-21,2024-05-21,医療法人社団日本厚生団,,その他の設立登記法人,神奈川県,横浜市緑区,長津田４丁目２３番１号,,14,113,2260027,,,,,,,2024-05-21,1,,,,,ニホンコウセイダン,0
108,1021005013117,新規,0,2024-05-21,2024-05-21,特定非営利活動法人ママブリッジ協会,,その他の設立登記法人,神奈川県,平塚市,豊原町３番４号シャープ＆フラッシュＢ－２号,,14,203,2540051,,,,,,,2024-05-21,1,,,,,ママブリッジキョウカイ,0
118,1030001160483,新規,0,2024-05-21,2024-05-21,株式会社ジョブズ,,株式会社,埼玉県,狭山市,大字南入曽２０３番地の３２,,11,215,3501316,,,,,,,2024-05-21,1,,,,,ジョブズ,0
132,1040001133629,新規,0,2024-05-21,2024-05-21,株式会社ＳＰＩＣＡ,,株式会社,千葉県,千葉市花見川区,幕張町２丁目１２３４番地,,12,102,2620032,,,,,,,2024-05-21,1,,,,,スピカ,0
133,1040001133653,新規,0,2024-05-21,2024-05-21,株式会社ココプラ,,株式会社,千葉県,習志野市,香澄５丁目３番１５号,,12,216,2750022,,,,,,,2024-05-21,1,,,,,ココプラ,0
134,1040001133686,新規,0,2024-05-21,2024-05-21,株式会社ウェルインバース,,株式会社,千葉県,柏市,逆井３丁目２２番１２号２階,,12,217,2770042,,,,,,,2024-05-21,1,,,,,ウィルインバース,0
135,1040001133703,新規,0,2024-05-21,2024-05-21,Ｌｕｃｋｙ＆Ｊｏｙ株式会社,,株式会社,千葉県,千葉市中央区,祐光２丁目７番１棟１１１６号,,12,101,2600007,,,,,,,2024-05-21,1,,,,,ラッキーアンドジョイ,0
136,1040001133728,新規,0,2024-05-21,2024-05-21,株式会社クローバーリズム,,株式会社,千葉県,佐倉市,上志津１６５９番地７,,12,212,2850846,,,,,,,2024-05-21,1,,,,,クローバーリズム,0
140,1040003025015,新規,0,2024-05-21,2024-05-21,合同会社なないろ,,合同会社,千葉県,市原市,姉崎１７８９番地１,,12,219,2990111,,,,,,,2024-05-21,1,,,,,ナナイロ,0
141,1040003025031,新規,0,2024-05-21,2024-05-21,合同会社ＬＯＣＴＥＲ,,合同会社,千葉県,八千代市,大和田新田４７４番地９,,12,221,2760046,,,,,,,2024-05-21,1,,,,,ロクター,0
143,1050001054799,新規,0,2024-05-21,2024-05-21,株式会社ｓｐｉｃａ,,株式会社,茨城県,つくばみらい市,小絹１２４８－２２,,08,235,3002445,,,,,,,2024-05-21,1,,,,,スピカ,0
147,1060001037118,新規,0,2024-05-21,2024-05-21,株式会社ｃｏｕｋｉ,,株式会社,栃木県,宇都宮市,西刑部町１６８９－５,,09,201,3210917,,,,,,,2024-05-21,1,,,,,コウキ,0
148,1060005010203,新規,0,2024-05-21,2024-05-21,一般社団法人優愛,,その他の設立登記法人,栃木県,大田原市,浅香４丁目３５７８番地４１３,,09,210,3240043,,,,,,,2024-05-21,1,,,,,ユウアイ,0
153,1070001041762,新規,0,2024-05-21,2024-05-21,株式会社ＩＣセレソン,,株式会社,群馬県,太田市,西新町１２６番地３,,10,205,3730847,,,,,,,2024-05-21,1,,,,,アイシーセレソン,0
154,1070001041770,新規,0,2024-05-21,2024-05-21,ハウスマイ株式会社,,株式会社,群馬県,高崎市,竜見町２１５番地１１,,10,202,3700835,,,,,,,2024-05-21,1,,,,,ハウスマイ,0
155,1070003005427,新規,0,2024-05-21,2024-05-21,ＪＳ　ＪＡＰＡＮ合同会社,,合同会社,群馬県,館林市,足次町２６２番地１,,10,207,3740073,,,,,,,2024-05-21,1,,,,,ジェイエスジャパン,0
160,1080401027187,新規,0,2024-05-21,2024-05-21,Ｌｕｋｅ株式会社,,株式会社,静岡県,浜松市中央区,入野町２００３４番地の１３マンションはなきＩＩＩ２０３,00134839,22,138,4328061,,,,,,,2024-05-21,1,,,,,ルーク,0
164,1090001018718,新規,0,2024-05-21,2024-05-21,株式会社ツクル,,株式会社,山梨県,甲府市,新田町１８番２号,,19,201,4000066,,,,,,,2024-05-21,1,,,,,ツクル,0
165,1090003002570,新規,0,2024-05-21,2024-05-21,ウィズワークス合同会社,,合同会社,山梨県,甲府市,長松寺町７－１３－２０５,,19,201,4000067,,,,,,,2024-05-21,1,,,,,ウィズワークス,0
166,1100001037451,新規,0,2024-05-21,2024-05-21,株式会社潮見坂ブリーフィング,,株式会社,長野県,上高井郡小布施町,大字中松２４７番地,,20,541,3810209,,,,,,,2024-05-21,1,,,,,シオミザカブリーフィング,0
169,1100003007551,新規,0,2024-05-21,2024-05-21,合同会社ｓｏｌａｒｉｓ,,合同会社,長野県,北佐久郡軽井沢町,大字追分１４９９番地１０,,20,321,3890115,,,,,,,2024-05-21,1,,,,,ソラリス,0
191,1120001265067,新規,0,2024-05-21,2024-05-21,株式会社ＭＩＲＩＸＪＡＰＡＮ,,株式会社,大阪府,大阪市阿倍野区,阪南町４丁目９番２７号,,27,119,5450021,,,,,,,2024-05-21,1,,,,,ミリックスジャパン,0
192,1120001265075,新規,0,2024-05-21,2024-05-21,株式会社ｓｔｕｄｉｏ　ｓｐｅｓ,,株式会社,大阪府,大阪市中央区,平野町１丁目６－１０サンケン北浜ビル４階,,27,128,5410046,,,,,,,2024-05-21,1,,,,,スタジオスペース,0
193,1120001265083,新規,0,2024-05-21,2024-05-21,株式会社Ｌｉｅｎ,,株式会社,大阪府,大阪市生野区,巽西２丁目１４番１３号,00134834,27,116,5440012,,,,,,,2024-05-21,1,,,,,リアン,0
194,1120001265091,新規,0,2024-05-21,2024-05-21,株式会社ニック電設,,株式会社,大阪府,大阪市住之江区,安立４丁目１６番１５号,,27,125,5590003,,,,,,,2024-05-21,1,,,,,ニックデンセツ,0
195,1120001265100,新規,0,2024-05-21,2024-05-21,株式会社ウラガミ,,株式会社,大阪府,大阪市港区,市岡元町１丁目９番１７号,,27,107,5520002,,,,,,,2024-05-21,1,,,,,ウラガミ,0
196,1120001265109,新規,0,2024-05-21,2024-05-21,株式会社ユース,,株式会社,大阪府,大阪市福島区,福島５丁目１３番１８号,,27,103,5530003,,,,,,,2024-05-21,1,,,,,ユース,0
197,1120001265117,新規,0,2024-05-21,2024-05-21,株式会社タイズラボ,,株式会社,大阪府,大阪市生野区,勝山北４丁目１４番２３号,,27,116,5440033,,,,,,,2024-05-21,1,,,,,タイズラボ,0
198,1120001265125,新規,0,2024-05-21,2024-05-21,株式会社２Ｇ,,株式会社,大阪府,大阪市淀川区,東三国２丁目２２番６－３０４号,,27,123,5320002,,,,,,,2024-05-21,1,,,,,ツージー,0
199,1120001265133,新規,0,2024-05-21,2024-05-21,株式会社ＢＬＥＮＤ,,株式会社,大阪府,大阪市中央区,瓦町４丁目３番２号本町ＵＭビル３階,,27,128,5410048,,,,,,,2024-05-21,1,,,,,ブレンド,0
200,1120001265141,新規,0,2024-05-21,2024-05-21,株式会社アポロ,,株式会社,大阪府,大阪市浪速区,幸町１丁目３番１１－６０７号,,27,111,5560021,,,,,,,2024-05-21,1,,,,,アポロ,0
201,1120001265158,新規,0,2024-05-21,2024-05-21,吉水不動産株式会社,,株式会社,大阪府,大阪市中央区,久太郎町２丁目１番４号,,27,128,5410056,,,,,,,2024-05-21,1,,,,,ヨシミズフドウサン,0
202,1120001265166,新規,0,2024-05-21,2024-05-21,株式会社ドッキーム,,株式会社,大阪府,大阪市西成区,梅南３丁目１番４号,,27,122,5570033,,,,,,,2024-05-21,1,,,,,ドッキーム,0
203,1120001265182,新規,0,2024-05-21,2024-05-21,ＦＩＶＥＳＴＡＲ　ＤＩＡＭＯＮＤ株式会社,,株式会社,大阪府,大阪市北区,中津２丁目８番Ｃ－１３１号,,27,127,5310071,,,,,,,2024-05-21,1,,,,,ファイブスターダイアモンド,0
204,1120001265190,新規,0,2024-05-21,2024-05-21,インパックトレーディング株式会社,,株式会社,大阪府,大阪市西区,京町堀３丁目９番７号６Ｆ,,27,106,5500003,,,,,,,2024-05-21,1,,,,,インパックトレーディング,0
213,1120101069574,新規,0,2024-05-21,2024-05-21,翰莉詩株式会社,,株式会社,大阪府,泉南市,信達市場８９３－３サンハイツ和泉砂川４２９,,27,228,5900504,,,,,,,2024-05-21,1,,,,,カンリシ,0
214,1120101069599,新規,0,2024-05-21,2024-05-21,クローバー株式会社,,株式会社,大阪府,堺市南区,宮山台１丁３番３６－１号,,27,145,5900101,,,,,,,2024-05-21,1,,,,,クローバー,0
215,1120101069616,新規,0,2024-05-21,2024-05-21,株式会社アプトトプア,,株式会社,大阪府,富田林市,高辺台１丁目７番５号,,27,214,5840072,,,,,,,2024-05-21,1,,,,,アプトトプア,0
216,1120101069624,新規,0,2024-05-21,2024-05-21,株式会社緑英,,株式会社,大阪府,河内長野市,下里町１１６４－１,,27,216,5860087,,,,,,,2024-05-21,1,,,,,リョクエイ,0
218,1120105009857,新規,0,2024-05-21,2024-05-21,一般社団法人旭馬会,,その他の設立登記法人,大阪府,堺市堺区,京町通１番３２号,,27,141,5900054,,,,,,,2024-05-21,1,,,,,アサヒウマカイ,0
224,1120901049197,新規,0,2024-05-21,2024-05-21,株式会社ｆｅｒｔｉｌｉｚｅｒ,,株式会社,大阪府,豊中市,西泉丘３丁目３番２３－９１７号,,27,203,5610862,,,,,,,2024-05-21,1,,,,,ファーティライザー,0
225,1120901049206,新規,0,2024-05-21,2024-05-21,株式会社風林,,株式会社,大阪府,茨木市,目垣３丁目１番９号,,27,211,5670836,,,,,,,2024-05-21,1,,,,,フウリン,0
227,1120903005181,新規,0,2024-05-21,2024-05-21,合同会社ＵＮＪ,,合同会社,大阪府,豊中市,本町５丁目１１番２６－１０７号,,27,203,5600021,,,,,,,2024-05-21,1,,,,,ユーエヌジェイ,0
237,1140003020583,新規,0,2024-05-21,2024-05-21,合同会社リュウノボリ,,合同会社,兵庫県,神戸市中央区,磯辺通１丁目１番１８号カサベラ国際プラザビル７０７号室,,28,110,6510084,,,,,,,2024-05-21,1,,,,,リュウノボリ,0
238,1140003020591,新規,0,2024-05-21,2024-05-21,ＪＡＦＲＩＭ合同会社,,合同会社,兵庫県,神戸市中央区,磯辺通１丁目１番１８号カサベラ国際プラザビル７０７,,28,110,6510084,,,,,,,2024-05-21,1,,,,,ジャフリム,0
251,1180001161640,新規,0,2024-05-21,2024-05-21,株式会社ｉｎｉｆｅ,,株式会社,愛知県,大府市,柊山町８丁目８４,,23,223,4740053,,,,,,,2024-05-21,1,,,,,イニフ,0
261,1180301038662,新規,0,2024-05-21,2024-05-21,株式会社東京ワイルズ,,株式会社,愛知県,刈谷市,日高町４丁目５１０番地,,23,210,4480046,,,,,,,2024-05-21,1,,,,,トウキョウワイルズ,0
263,1200001042524,新規,0,2024-05-21,2024-05-21,株式会社匠家,,株式会社,岐阜県,多治見市,宝町１０丁目８２番地,,21,204,5070054,,,,,,,2024-05-21,1,,,,,タクミヤ,0
294,1290001105792,新規,0,2024-05-21,2024-05-21,株式会社みらい産業医事務所,,株式会社,福岡県,福岡市博多区,店屋町２番２９号,,40,132,8120025,,,,,,,2024-05-21,1,,,,,ミライサンギョウイジムショ,0
300,1290003015305,新規,0,2024-05-21,2024-05-21,合同会社創芽ｔｏ言葉,,合同会社,福岡県,大川市,大字向島２１１７番地２５,,40,212,8310005,,,,,,,2024-05-21,1,,,,,ハジメトコトバ,0
301,1290005019411,新規,0,2024-05-21,2024-05-21,司法書士法人リーガル・テラスたけもと,,その他の設立登記法人,福岡県,大牟田市,正山町２６番地,,40,202,8360845,,,,,,,2024-05-21,1,,,,,リーガルテラスタケモト,0
304,1300001013738,新規,0,2024-05-21,2024-05-21,ディアチャイルド株式会社,,株式会社,佐賀県,鳥栖市,土井町２４０番地２２,,41,203,8410039,,,,,,,2024-05-21,1,,,,,ディアチャイルド,0
309,1310005008766,新規,0,2024-05-21,2024-05-21,一般社団法人Ｌｉｔｅｒａｔｕｒｅ　Ｊａｐａｎ　Ａｓｓｏｃｉａｔｉｏｎ,,その他の設立登記法人,長崎県,東彼杵郡波佐見町,川内郷１５１４番地３,,42,323,8593721,,,,,,,2024-05-21,1,,,,,リタラチャージャパンアソシエーション,0
323,1380005012836,新規,0,2024-05-21,2024-05-21,特定非営利活動法人はまどおりサポートちるどれん,,その他の設立登記法人,福島県,いわき市,常磐湯本町吹谷８０番地の８８,,07,204,9728321,,,,,,,2024-05-21,1,,,,,ハマドオリサポートチルドレン,0
324,1390001017615,新規,0,2024-05-21,2024-05-21,株式会社Ｄａｙｓ,,株式会社,山形県,東置賜郡川西町,大字黒川１８５５番地,,06,382,9990131,,,,,,,2024-05-21,1,,,,,デイズ,0
327,1400001016664,新規,0,2024-05-21,2024-05-21,株式会社Ｔ‐Ｍｅｎｔｏｒｓ,,株式会社,岩手県,盛岡市,北飯岡２丁目４番２３号,,03,201,0200857,,,,,,,2024-05-21,1,,,,,ティーメンターズ,0
328,1400003003272,新規,0,2024-05-21,2024-05-21,合同会社現代,,合同会社,岩手県,盛岡市,茶畑２丁目２４番１８号,,03,201,0200822,,,,,,,2024-05-21,1,,,,,ゲンダイ,0
336,1430001091820,新規,0,2024-05-21,2024-05-21,株式会社Ｓｅｎｓｙｏｕ　Ｔｒａｎｓｐｏｒｔ,,株式会社,北海道,千歳市,信濃４丁目８番１５号,,01,224,0660038,,,,,,,2024-05-21,1,,,,,センショウトランスポート,0
337,1430001091845,新規,0,2024-05-21,2024-05-21,ＴＷＯ　ＨＥＡＲＴＳ株式会社,,株式会社,北海道,札幌市中央区,南一条西５丁目１６番地プレジデント松井ビル１００－３階,,01,101,0600061,,,,,,,2024-05-21,1,,,,,トゥーハート,0
338,1430001091861,新規,0,2024-05-21,2024-05-21,株式会社丸英,,株式会社,北海道,札幌市豊平区,福住三条７丁目１１番５号,,01,105,0620043,,,,,,,2024-05-21,1,,,,,マルエイ,0
341,1440003001594,新規,0,2024-05-21,2024-05-21,合同会社ｃａｒａｔ,,合同会社,北海道,函館市,弥生町１８番１２号,,01,202,0400056,,,,,,,2024-05-21,1,,,,,カラット,0
352,1700150125475,新規,0,2024-05-21,2024-05-21,Ｒｅｆｉｎｅ　Ｂｅｉｎｇ　ＬＬＣ,,外国会社等,東京都,品川区,西五反田２丁目１７－４,,13,109,1410031,１３０１　Ｎｏｒｔｏｎ　Ｓｔｒｅｅｔ　Ｓａｎ　Ｍａｔｅｏ，ＣＡ　９４４０１　ＵＳＡ,,,,,,2024-05-21,1,,,,,リファインビーイングエルエルシー,0
360,2010001244881,新規,0,2024-05-21,2024-05-21,株式会社エンジェルバンク,,株式会社,東京都,千代田区,神田錦町３丁目１５番地三星舎ビル４階,,13,101,1010054,,,,,,,2024-05-21,1,,,,,エンジェルバンク,0
361,2010001244915,新規,0,2024-05-21,2024-05-21,タニガワフォーレスト株式会社,,株式会社,東京都,千代田区,飯田橋１丁目７番１０号山京別館５０１,,13,101,1020072,,,,,,,2024-05-21,1,,,,,タニガワフォーレスト,0
362,2010001244923,新規,0,2024-05-21,2024-05-21,株式会社サードドア,,株式会社,東京都,千代田区,有楽町１丁目１３番２号第一生命日比谷ファースト１２階,,13,101,1000006,,,,,,,2024-05-21,1,,,,,サードドア,0
363,2010001244931,新規,0,2024-05-21,2024-05-21,ＣＥＮＳＥ株式会社,,株式会社,東京都,千代田区,丸の内１丁目１番３号日本生命丸の内ガーデンタワー３Ｆ,,13,101,1000005,,,,,,,2024-05-21,1,,,,,センス,0
364,2010001244956,新規,0,2024-05-21,2024-05-21,株式会社Ｌａ　Ｂｒｉｌｌｅｒ銀座セルサイエンスラボ,,株式会社,東京都,中央区,銀座３丁目１１番１９号エスティメゾン銀座７０６号室,,13,102,1040061,,,,,,,2024-05-21,1,,,,,ラブリエギンザセルサイエンスラボ,0
367,2010003043761,新規,0,2024-05-21,2024-05-21,合同会社ｚｅｒｏ　ｂａｓｅ,,合同会社,東京都,中央区,銀座１丁目２２番１１号銀座大竹ビジデンス２Ｆ,,13,102,1040061,,,,,,,2024-05-21,1,,,,,ゼロベース,0
368,2010005038322,新規,0,2024-05-21,2024-05-21,一般社団法人国際金融研究センター,,その他の設立登記法人,東京都,文京区,小日向２丁目２番２０－３１７号,,13,105,1120006,,,,,,,2024-05-21,1,,,,,コクサイキンユウケンキュウセンター,0
374,2010401182483,新規,0,2024-05-21,2024-05-21,ｆｒｅｅ株式会社,,株式会社,東京都,港区,六本木７丁目４番８号ＴＫＧビルＢ１,,13,103,1060032,,,,,,,2024-05-21,1,,,,,フリー,0
375,2010401182574,新規,0,2024-05-21,2024-05-21,のいく株式会社,,株式会社,東京都,港区,虎ノ門１丁目１番２０号,,13,103,1050001,,,,,,,2024-05-21,1,,,,,ノイク,0
377,2010403032653,新規,0,2024-05-21,2024-05-21,なんば南ホテルＯｐＣｏ合同会社,,合同会社,東京都,港区,六本木１丁目６番１号泉ガーデンタワー１２階,,13,103,1060032,,,,,,,2024-05-21,1,,,,,ナンバミナミホテルオプコ,0
384,2010603010855,新規,0,2024-05-21,2024-05-21,合同会社ハイファ・ワークス,,合同会社,東京都,江東区,有明１丁目４番１１－１２２１号,,13,108,1350063,,,,,,,2024-05-21,1,,,,,ハイファワークス,0
385,2010605004327,新規,0,2024-05-21,2024-05-21,一般社団法人レジェンドレーシングドライバーズクラブ,,その他の設立登記法人,東京都,江東区,枝川２丁目１５番８号,,13,108,1350051,,,,,,,2024-05-21,1,,,,,レジェンドレーシングドライバーズクラブ,0
386,2010701046009,新規,0,2024-05-21,2024-05-21,株式会社ＩＬＭ,,株式会社,東京都,品川区,荏原３丁目１番３号プリンス３－２０１,,13,109,1420063,,,,,,,2024-05-21,1,,,,,アイエルエム,0
390,2010901055313,新規,0,2024-05-21,2024-05-21,ＭＯＮＡＫＯ　ＭＡＮＡＧＥＭＥＮＴ株式会社,,株式会社,東京都,世田谷区,用賀２丁目３３番１３号,,13,112,1580097,,,,,,,2024-05-21,1,,,,,モナコマネジメント,0
393,2011001162066,新規,0,2024-05-21,2024-05-21,株式会社ＰＮＣＡ,,株式会社,東京都,渋谷区,道玄坂１丁目１０番８号渋谷道玄坂東急ビル２Ｆ－Ｃ,,13,113,1500043,,,,,,,2024-05-21,1,,,,,ピーエヌシーエー,0
394,2011001162099,新規,0,2024-05-21,2024-05-21,Ｂｅｓｔ　Ｍホールディングス株式会社,,株式会社,東京都,渋谷区,代々木５丁目３２番５－３０１号,,13,113,1510053,,,,,,,2024-05-21,1,,,,,ベストエムホールディングス,0
395,2011001162173,新規,0,2024-05-21,2024-05-21,株式会社Ａ．Ｓ．Ｙ．Ｓ,,株式会社,東京都,渋谷区,富ヶ谷１丁目３２番２７－６０７号,,13,113,1510063,,,,,,,2024-05-21,1,,,,,エーエスワイエス,0
396,2011003019165,新規,0,2024-05-21,2024-05-21,合同会社Ｋｕｓｈｉ　Ｂａｓｅ,,合同会社,東京都,渋谷区,道玄坂１丁目１０番８号渋谷道玄坂東急ビル２Ｆ－Ｃ,,13,113,1500043,,,,,,,2024-05-21,1,,,,,クシベイス,0
398,2011101107391,新規,0,2024-05-21,2024-05-21,株式会社ＧＲＩＺＺ,,株式会社,東京都,新宿区,西新宿５丁目２－１－３１０２号,,13,104,1600023,,,,,,,2024-05-21,1,,,,,グリッツ,0
399,2011103014421,新規,0,2024-05-21,2024-05-21,日本睦家合同会社,,合同会社,東京都,新宿区,北新宿２丁目３－１６,,13,104,1690074,,,,,,,2024-05-21,1,,,,,ニホンムツヤ,0
400,2011103014438,新規,0,2024-05-21,2024-05-21,ＴＭ　ＪＡＰＡＮ合同会社,,合同会社,東京都,新宿区,須賀町９－３琴富貴荘２Ｈ,,13,104,1600018,,,,,,,2024-05-21,1,,,,,テエムジャパン,0
401,2011103014446,新規,0,2024-05-21,2024-05-21,合同会社ＣＡＭＰＵＳ,,合同会社,東京都,新宿区,西新宿５丁目１番１号,,13,104,1600023,,,,,,,2024-05-21,1,,,,,キャンパス,0
405,2011301029675,新規,0,2024-05-21,2024-05-21,株式会社ＰＥＲＳＰＥＣＴＩＶＥ,,株式会社,東京都,杉並区,和泉４丁目４５番２１－３１３号和泉ハイツ,,13,115,1680063,,,,,,,2024-05-21,1,,,,,パースペクティブ,0
406,2011401026102,新規,0,2024-05-21,2024-05-21,ＳＩＮ‐ＤＡＩホールディングス株式会社,,株式会社,東京都,板橋区,板橋２丁目４１番１２号大森ビル,,13,119,1730004,,,,,,,2024-05-21,1,,,,,シンダイホールディングス,0
407,2011403004386,新規,0,2024-05-21,2024-05-21,合同会社ひつじＤＥ,,合同会社,東京都,板橋区,徳丸６丁目２番７号,,13,119,1750083,,,,,,,2024-05-21,1,,,,,ヒツジデ,0
408,2011501030697,新規,0,2024-05-21,2024-05-21,ＫＡＴＳＵ株式会社,,株式会社,東京都,荒川区,南千住３丁目２７－２浅草ビル５０８,,13,118,1160003,,,,,,,2024-05-21,1,,,,,カツ,0
413,2011801044257,新規,0,2024-05-21,2024-05-21,炎柱株式会社,,株式会社,東京都,足立区,舎人２丁目２０番２８号ＢｅｌｌａＬｕｃｅ２０２号,,13,121,1210831,,,,,,,2024-05-21,1,,,,,エンバシラ,0
418,2012703002996,新規,0,2024-05-21,2024-05-21,フィナンシェライフ合同会社,,合同会社,東京都,東村山市,青葉町３丁目３８－１０,,13,213,1890002,,,,,,,2024-05-21,1,,,,,フィナンシェライフ,0
419,2012801023176,新規,0,2024-05-21,2024-05-21,株式会社ラックテック,,株式会社,東京都,国分寺市,東元町１丁目１９番２号,,13,214,1850022,,,,,,,2024-05-21,1,,,,,ラックテック,0
425,2013301052541,新規,0,2024-05-21,2024-05-21,株式会社ＡＩＭＡ,,株式会社,東京都,豊島区,西池袋３丁目３０番３号,,13,116,1710021,,,,,,,2024-05-21,1,,,,,アイマ,0
432,2020001157298,新規,0,2024-05-21,2024-05-21,株式会社ｅＭｐａｔｈｙ,,株式会社,神奈川県,川崎市高津区,久本３丁目２番１８号エムビルコーポ２０５,,14,134,2130011,,,,,,,2024-05-21,1,,,,,エムパシー,0
433,2020001157323,新規,0,2024-05-21,2024-05-21,株式会社キレイト,,株式会社,神奈川県,川崎市宮前区,宮崎２丁目６番１１号バーズビレッジＢ１１２,,14,136,2160033,,,,,,,2024-05-21,1,,,,,キレイト,0
436,2020003026022,新規,0,2024-05-21,2024-05-21,ＪＲＳ合同会社,,合同会社,神奈川県,川崎市中原区,上小田中１丁目１３番４８号ヴィラサンタ１０３号,,14,133,2110053,,,,,,,2024-05-21,1,,,,,ジェイアールエス,0
437,2020003026154,新規,0,2024-05-21,2024-05-21,合同会社綾友会,,合同会社,神奈川県,横浜市金沢区,六浦３丁目３８番２号,,14,108,2360031,,,,,,,2024-05-21,1,,,,,リョウユウカイ,0
442,2021003014537,新規,0,2024-05-21,2024-05-21,合同会社Ｐｒｏｖｉｎｃｉａ,,合同会社,神奈川県,小田原市,栄町２丁目１２－１０ＳｑｕａｒｅＯ２－１階,,14,206,2500011,,,,,,,2024-05-21,1,,,,,プロヴィンチャ,0
450,2030001160391,新規,0,2024-05-21,2024-05-21,株式会社ＳＫＹ,,株式会社,埼玉県,川口市,西青木３丁目１４番２７号セントルーガ西青木１０５号,,11,203,3320035,,,,,,,2024-05-21,1,,,,,スカイ,0
451,2030001160508,新規,0,2024-05-21,2024-05-21,株式会社善進工業,,株式会社,埼玉県,北足立郡伊奈町,中央３丁目１２３番地,,11,301,3620809,,,,,,,2024-05-21,1,,,,,ゼンシンコウギョウ,0
454,2040001133669,新規,0,2024-05-21,2024-05-21,株式会社バーニングＷ,,株式会社,千葉県,千葉市花見川区,内山町２８番地２,,12,102,2620002,,,,,,,2024-05-21,1,,,,,バーニングダブル,0
456,2040003025022,新規,0,2024-05-21,2024-05-21,ＴｅｃｈＯｎｅ合同会社,,合同会社,千葉県,鎌ケ谷市,西佐津間２丁目１０－２６,,12,224,2730134,,,,,,,2024-05-21,1,,,,,テックワン,0
460,2050001054757,新規,0,2024-05-21,2024-05-21,ＭＩＲＺＡ　ＴＲＡＤＩＮＧ株式会社,,株式会社,茨城県,猿島郡境町,大字内門６２５,,08,546,3060414,,,,,,,2024-05-21,1,,,,,ミルザトレーディング,0
463,2060001037117,新規,0,2024-05-21,2024-05-21,株式会社Ｓ‐Ｔａｋｅ,,株式会社,栃木県,宇都宮市,本町４番２０号Ｅ－ＲＡビル２階２０２,,09,201,3200033,,,,,,,2024-05-21,1,,,,,エステイク,0
472,2080001026316,新規,0,2024-05-21,2024-05-21,株式会社ラピス企画静岡,,株式会社,静岡県,静岡市葵区,相生町１４番２７号相生スカイビル４０１,,22,101,4200838,,,,,,,2024-05-21,1,,,,,ラピスキカクシズオカ,0
474,2090001018717,新規,0,2024-05-21,2024-05-21,株式会社宗建備,,株式会社,山梨県,甲府市,大里町３６７２番地１１,,19,201,4000053,,,,,,,2024-05-21,1,,,,,ソウケンビ,0
499,2120001265082,新規,0,2024-05-21,2024-05-21,株式会社ＫＩＺＵＮＡＭＩ,,株式会社,大阪府,大阪市北区,梅田１丁目２番２号大阪駅前第２ビル１２－１２,,27,127,5300001,,,,,,,2024-05-21,1,,,,,キズナミ,0
500,2120001265132,新規,0,2024-05-21,2024-05-21,株式会社ＴＪＵ,,株式会社,大阪府,大阪市浪速区,敷津東２丁目４番１７,,27,111,5560012,,,,,,,2024-05-21,1,,,,,ティージェイユー,0
501,2120001265157,新規,0,2024-05-21,2024-05-21,株式会社三益工業所,,株式会社,大阪府,大阪市平野区,加美西１丁目８番５号,,27,126,5470005,,,,,,,2024-05-21,1,,,,,ミマスコウギョウショ,0
508,2120003026631,新規,0,2024-05-21,2024-05-21,大将合同会社,,合同会社,大阪府,大阪市西区,新町１丁目２９番１０号平和相互ビル４０２号室,,27,106,5500013,,,,,,,2024-05-21,1,,,,,タイショウ,0
512,2120101069607,新規,0,2024-05-21,2024-05-21,株式会社美典フーズ,,株式会社,大阪府,泉南郡田尻町,吉見１０１２番地６２,,27,362,5980092,,,,,,,2024-05-21,1,,,,,ミノリフーズ,0
513,2120101069615,新規,0,2024-05-21,2024-05-21,ＮＥＳＡ株式会社,,株式会社,大阪府,泉南市,馬場２丁目２４番１２号,,27,228,5900525,,,,,,,2024-05-21,1,,,,,ネエサ,0
514,2120101069631,新規,0,2024-05-21,2024-05-21,ｇｒｅｅｎ　ｆｏｒｅｓｔ株式会社,,株式会社,大阪府,堺市北区,北花田町２丁１２番地１（４０４号）,,27,146,5918002,,,,,,,2024-05-21,1,,,,,グリーンフォレスト,0
522,2130001077064,新規,0,2024-05-21,2024-05-21,株式会社ＡＩエステート,,株式会社,京都府,京都市中京区,西ノ京南聖町１２,,26,104,6048412,,,,,,,2024-05-21,1,,,,,エーアイエステート,0
525,2130005017099,新規,0,2024-05-21,2024-05-21,一般社団法人京都ヒストリカ,,その他の設立登記法人,京都府,京都市中京区,河原町通三条上る下丸屋町４０４－２タケウチビル４Ｆ,,26,104,6048006,,,,,,,2024-05-21,1,,,,,キョウトヒストリカ,0
539,2180003026766,新規,0,2024-05-21,2024-05-21,合同会社Ｌｏｔｕｓ,,合同会社,愛知県,名古屋市名東区,藤森２丁目５０番地,,23,115,4650026,,,,,,,2024-05-21,1,,,,,ロータス,0
540,2180003026808,新規,0,2024-05-21,2024-05-21,ｆｌｅｘｉｅ合同会社,,合同会社,愛知県,名古屋市中村区,名駅３丁目４番１０号アルティメイト名駅１ｓｔ２階,,23,105,4500002,,,,,,,2024-05-21,1,,,,,フレキシイ,0
551,2220001026012,新規,0,2024-05-21,2024-05-21,株式会社ＳＡｉ,,株式会社,石川県,金沢市,玉鉾１丁目７２ＮＯＯＫ・Ｍ‐７・３０１号,,17,201,9218002,,,,,,,2024-05-21,1,,,,,サイ,0
552,2220001026020,新規,0,2024-05-21,2024-05-21,株式会社Ｃｏｒｅ　Ｇｒｏｗ,,株式会社,石川県,金沢市,野町２丁目１８番９号,,17,201,9218031,,,,,,,2024-05-21,1,,,,,コアグロー,0
574,2290001105759,新規,0,2024-05-21,2024-05-21,ＴＳＵＭＵＧＵ株式会社,,株式会社,福岡県,福岡市早良区,祖原２５番２号,,40,137,8140005,,,,,,,2024-05-21,1,,,,,ツムグ,0
575,2290001105767,新規,0,2024-05-21,2024-05-21,株式会社Ｇａｓｔｒｏｄｕｃｅ　Ｇｌｏｂａｌ,,株式会社,福岡県,福岡市博多区,博多駅前４丁目１０番１３号奥村第三ビル６階,,40,132,8120011,,,,,,,2024-05-21,1,,,,,ガストロデュースグローバル,0
576,2290001105775,新規,0,2024-05-21,2024-05-21,株式会社龍華堂,,株式会社,福岡県,福岡市早良区,重留７丁目７番１６号,,40,137,8111101,,,,,,,2024-05-21,1,,,,,リュウカドウ,0
577,2290001105809,新規,0,2024-05-21,2024-05-21,株式会社アキア,,株式会社,福岡県,福岡市城南区,西片江２丁目１６番８号,,40,136,8140141,,,,,,,2024-05-21,1,,,,,アキア,0
579,2290003015295,新規,0,2024-05-21,2024-05-21,ＪＭＢＰ合同会社,,合同会社,福岡県,福岡市博多区,博多駅前１丁目２３番２号ＰａｒｋＦｒｏｎｔ博多駅前１丁目５Ｆ－Ｂ,,40,132,8120011,,,,,,,2024-05-21,1,,,,,ジェーエムビーピー,0
580,2290003015320,新規,0,2024-05-21,2024-05-21,合同会社ビッグウェーブ,,合同会社,福岡県,福岡市中央区,六本松３丁目５－３５－５０２,,40,133,8100044,,,,,,,2024-05-21,1,,,,,ビッグウェーブ,0
587,2290005019410,新規,0,2024-05-21,2024-05-21,アクロス箱崎駅前特定目的会社,,その他の設立登記法人,福岡県,福岡市中央区,天神１丁目１３番２号,,40,133,8100001,,,,,,,2024-05-21,1,,,,,アクロスハコザキエキマエ,0
592,2300001013737,新規,0,2024-05-21,2024-05-21,株式会社ていば,,株式会社,佐賀県,佐賀市,蓮池町大字蓮池１０５番地,,41,201,8400005,,,,,,,2024-05-21,1,,,,,テイバ,0
597,2320005010159,新規,0,2024-05-21,2024-05-21,ニューパワークリエーション協同組合,,その他の設立登記法人,大分県,大分市,中春日町１６番２３号翼ビル３０６号室,,44,201,8700039,,,,,,,2024-05-21,1,,,,,ニューパワークリエーション,0
610,2350003004647,新規,0,2024-05-21,2024-05-21,合同会社Ｈａｐｐｙｒｅｖｅ,,合同会社,宮崎県,都城市,北原町４街区９号,,45,202,8850024,,,,,,,2024-05-21,1,,,,,ハッピーレーヴ,0
612,2360001033705,新規,0,2024-05-21,2024-05-21,株式会社与那原園芸,,株式会社,沖縄県,島尻郡与那原町,字与那原２４１６番地１,,47,348,9011303,,,,,,,2024-05-21,1,,,,,ヨナバルエンゲイ,0
613,2360003013960,新規,0,2024-05-21,2024-05-21,合同会社Ｒｅｓｃｕｅ　Ｓｈｉｓａ,,合同会社,沖縄県,那覇市,樋川１丁目１８番６４－２０２号サザンパレス樋川プラシード,,47,201,9000022,,,,,,,2024-05-21,1,,,,,レスキューシーサー,0
623,2420001018732,新規,0,2024-05-21,2024-05-21,株式会社青森ソイルリサーチ,,株式会社,青森県,青森市,浪岡大字女鹿沢字西種本７番地１,,02,201,0381331,,,,,,,2024-05-21,1,,,,,アオモリソイルリサーチ,0
627,2430001091852,新規,0,2024-05-21,2024-05-21,株式会社Ｓプロ,,株式会社,北海道,苫小牧市,一本松町７番地３,,01,213,0530001,,,,,,,2024-05-21,1,,,,,エスプロ,0
628,2430001091860,新規,0,2024-05-21,2024-05-21,株式会社ディノテック,,株式会社,北海道,札幌市東区,北三十三条東１６丁目２－２,,01,103,0650033,,,,,,,2024-05-21,1,,,,,ディノテック,0
634,2430003016337,新規,0,2024-05-21,2024-05-21,合同会社八面六臂,,合同会社,北海道,空知郡南幌町,中央４丁目５－９,,01,423,0690235,,,,,,,2024-05-21,1,,,,,ハチメンロッピ,0
635,2430003016361,新規,0,2024-05-21,2024-05-21,合同会社キナ・インターナショナル,,合同会社,北海道,余市郡余市町,入舟町１１２－２,,01,408,0460011,,,,,,,2024-05-21,1,,,,,キナインターナショナル,0
638,2450001014324,新規,0,2024-05-21,2024-05-21,株式会社ワークアンドブレイン,,株式会社,北海道,旭川市,大町一条１丁目３０番地７,,01,204,0700841,,,,,,,2024-05-21,1,,,,,ワークアンドブレイン,0
648,2700150031227,新規,0,2024-05-21,2015-10-09,浄土宗滋賀教区教務所,,その他,滋賀県,草津市,草津３丁目９－７常善寺内,,25,206,5250034,,,,,,,2015-10-09,1,,,,,ジヨウドシユウシガキヨウクキヨウムシヨ,0
649,2700150119410,新規,0,2024-05-21,2024-05-21,Ｆｒｅｓｓｔｏ　ＨｏｎｇＫｏｎｇ　Ｌｉｍｉｔｅｄ,,外国会社等,,,,,,,,Ｒｏｏｍ　１６０７，Ｔｒｅｎｄ　Ｃｅｎｔｒｅ，２９－３１　Ｃｈｅｕｎｇ　Ｌｅｅ　Ｓｔｒｅｅｔ，Ｃｈａｉ　Ｗａｎ，ＨｏｎｇＫｏｎｇ,,,,,,2024-05-21,1,,,,,ホゥオンジシアンガンヨウシエンゴンス,0
650,2700150122414,新規,0,2024-05-21,2024-05-21,ＳＨＥＮＺＨＥＮ　ＱＩＡＮ　ＨＡＩ　ＳＩ　ＭＥＩ　ＴＵ　ＫＥ　ＪＩ　ＹＯＵ　ＸＩＡＮ　ＧＯＮＧ　ＳＩ,,外国会社等,,,,,,,,ｑｉａｎ　ｈａｉ　ｓｈｅｎ　ｇａｎｇ　ｈｅ　ｚｕｏ　ｑｕ　ｑｉａｎ　ｗａｎ　ｙｉ　ｌｕ　１　ｈａｏ　Ａ　ｄｏｎｇ　２０１，ＳＨＥＮＺＨＥＮ　ＧＵＡＮＧＤＯＮＧ,,,,,,2024-05-21,1,,,,,シンセンキタハイスメツギジュツユウゲンガイシャ,0
658,3010001244880,新規,0,2024-05-21,2024-05-21,Ｐｒｏｇｅｎｅ株式会社,,株式会社,東京都,千代田区,岩本町３丁目４番３号,,13,101,1010032,,,,,,,2024-05-21,1,,,,,プロジーン,0
659,3010001244914,新規,0,2024-05-21,2024-05-21,株式会社ＣＢホールディングス,,株式会社,東京都,千代田区,丸の内１丁目６番１号,,13,101,1000005,,,,,,,2024-05-21,1,,,,,シービーホールディングス,0
660,3010001244922,新規,0,2024-05-21,2024-05-21,株式会社京橋建物,,株式会社,東京都,中央区,京橋２丁目８番３号ＡＣＮ京橋八重洲ビル７階,,13,102,1040031,,,,,,,2024-05-21,1,,,,,キョウバシタテモノ,0
661,3010001244955,新規,0,2024-05-21,2024-05-21,株式会社Ｂｕｔｔｅｒｆｌｙ　Ｄｒｅａｍ　Ｌａｂ,,株式会社,東京都,千代田区,神田佐久間町１丁目８番４号アルテール秋葉原７０８,,13,101,1010025,,,,,,,2024-05-21,1,,,,,バタフライドリームラボ,0
664,3010003043769,新規,0,2024-05-21,2024-05-21,合同会社ネリマ設備,,合同会社,東京都,中央区,銀座１丁目１２番４号Ｎ＆ＥＢＬＤ．６Ｆ,,13,102,1040061,,,,,,,2024-05-21,1,,,,,ネリマセツビ,0
669,3010101016148,新規,0,2024-05-21,2024-05-21,株式会社グリーンランドホームズ,,株式会社,東京都,八王子市,みなみ野４丁目１２番５号,,13,201,1920916,,,,,,,2024-05-21,1,,,,,グリーンランドホームズ,0
677,3010401182565,新規,0,2024-05-21,2024-05-21,ａｎｇｌｅ　ｒｅｓｅｒｖｅ株式会社,,株式会社,東京都,港区,虎ノ門１丁目１７番１号虎ノ門ヒルズビジネスタワー１５階,,13,103,1050001,,,,,,,2024-05-21,1,,,,,アングルリザーブ,0
678,3010401182573,新規,0,2024-05-21,2024-05-21,Ｃ７ＥＶＥＮ株式会社,,株式会社,東京都,港区,虎ノ門１丁目１７番１号虎ノ門ヒルズビジネスタワー１５階,,13,103,1050001,,,,,,,2024-05-21,1,,,,,シーセブン,0
683,3010601065207,新規,0,2024-05-21,2024-05-21,ＣＦＹ株式会社,,株式会社,東京都,江東区,南砂２丁目３番２－４１５号,,13,108,1360076,,,,,,,2024-05-21,1,,,,,シーエフワイ,0
684,3010601065223,新規,0,2024-05-21,2024-05-21,ＲＹＭ‐Ｃ株式会社,,株式会社,東京都,江東区,豊洲６丁目２番２９号,,13,108,1350061,,,,,,,2024-05-21,1,,,,,リムシー,0
686,3010603010854,新規,0,2024-05-21,2024-05-21,合同会社ＣＣエナジー,,合同会社,東京都,江東区,常盤２丁目４番３号,,13,108,1350006,,,,,,,2024-05-21,1,,,,,シーシーエナジー,0
687,3010701046016,新規,0,2024-05-21,2024-05-21,株式会社ヘラルド,,株式会社,東京都,品川区,西五反田１丁目２６番２号五反田サンハイツ９１１,,13,109,1410031,,,,,,,2024-05-21,1,,,,,ヘラルド,0
688,3010703007189,新規,0,2024-05-21,2024-05-21,合同会社ｄｅａｒ　ｆａｃｔｏｒｙ,,合同会社,東京都,品川区,西五反田１丁目２６番２号五反田サンハイツビル２Ｆ,,13,109,1410031,,,,,,,2024-05-21,1,,,,,ディアファクトリー,0
691,3010803004961,新規,0,2024-05-21,2024-05-21,合同会社ＮＡＯ,,合同会社,東京都,大田区,下丸子１丁目５番９号ウェルスクエア下丸子１０３,,13,111,1460092,,,,,,,2024-05-21,1,,,,,ナオ,0
692,3010901055312,新規,0,2024-05-21,2024-05-21,株式会社禅キャピタル,,株式会社,東京都,世田谷区,下馬６丁目２４番１２号,,13,112,1540002,,,,,,,2024-05-21,1,,,,,ゼンキャピタル,0
696,3011001161876,新規,0,2024-05-21,2024-05-21,株式会社ＰＥＲＭＡＮＥＮＴ,,株式会社,東京都,渋谷区,神宮前６丁目３５－３コープオリンピア５１６号室,,13,113,1500001,,,,,,,2024-05-21,1,,,,,パーマネント,0
697,3011001162057,新規,0,2024-05-21,2024-05-21,株式会社ＰｕｂｌｉｃＢｅｙｏｎｄ,,株式会社,東京都,渋谷区,千駄ヶ谷５丁目２８－１０ドルミ第二御苑３０６,,13,113,1510051,,,,,,,2024-05-21,1,,,,,パブリックビヨンド,0
698,3011001162065,新規,0,2024-05-21,2024-05-21,Ｂｉｚ　Ｆｅｌｌｏｗ株式会社,,株式会社,東京都,目黒区,平町１丁目２０番３号目黒都立大レジデンス３０３,,13,110,1520032,,,,,,,2024-05-21,1,,,,,,0
699,3011001162073,新規,0,2024-05-21,2024-05-21,株式会社Ｓ＆Ｅ　Ｓｐｏｒｔｓ　Ｍａｎａｇｅｍｅｎｔ,,株式会社,東京都,渋谷区,道玄坂１丁目１０番８号渋谷道玄坂東急ビル２Ｆ－Ｃ,,13,113,1500043,,,,,,,2024-05-21,1,,,,,エスアンドイースポーツマネジメント,0
700,3011001162081,新規,0,2024-05-21,2024-05-21,Ａｓｋａｌｌ株式会社,,株式会社,東京都,渋谷区,渋谷２丁目１９－１５宮益坂ビルディング６０９,,13,113,1500002,,,,,,,2024-05-21,1,,,,,,0
701,3011001162107,新規,0,2024-05-21,2024-05-21,ミカタスタートアップサポート株式会社,,株式会社,東京都,渋谷区,渋谷２丁目２４番１２号,,13,113,1500002,,,,,,,2024-05-21,1,,,,,ミカタスタートアップサポート,0
702,3011001162148,新規,0,2024-05-21,2024-05-21,趙氏株式会社,,株式会社,東京都,渋谷区,本町３丁目４９番１５号トップ・ルーム新宿公園第二５０３号室,,13,113,1510071,,,,,,,2024-05-21,1,,,,,チョウシ,0
710,3011201025484,新規,0,2024-05-21,2024-05-21,株式会社天王,,株式会社,東京都,中野区,中央４丁目２５番１４号,,13,114,1640011,,,,,,,2024-05-21,1,,,,,テンオウ,0
711,3011301029674,新規,0,2024-05-21,2024-05-21,株式会社ＴＡＰ,,株式会社,東京都,杉並区,高井戸東３丁目９番３２号プレミアコンフォート高井戸２０９,,13,115,1680072,,,,,,,2024-05-21,1,,,,,タップ,0
712,3011301029682,新規,0,2024-05-21,2024-05-21,株式会社八九十,,株式会社,東京都,杉並区,和泉３丁目６番８号第１０プラムハイツ２１０,,13,115,1680063,,,,,,,2024-05-21,1,,,,,ハクジュ,0
713,3011301029690,新規,0,2024-05-21,2024-05-21,株式会社智秀館,,株式会社,東京都,杉並区,西荻北２丁目３－９コメットビル６階,,13,115,1670042,,,,,,,2024-05-21,1,,,,,チシュウカン,0
714,3011303005161,新規,0,2024-05-21,2024-05-21,ＵＧＬ１９３３合同会社,,合同会社,東京都,杉並区,高円寺南１丁目７番２１－１０７号,,13,115,1660003,,,,,,,2024-05-21,1,,,,,ユージーエル,0
715,3011401026101,新規,0,2024-05-21,2024-05-21,セントラルサン株式会社,,株式会社,東京都,板橋区,大谷口北町７３番３号,,13,119,1730031,,,,,,,2024-05-21,1,,,,,セントラルサン,0
717,3011701027278,新規,0,2024-05-21,2024-05-21,ＦＭＣ株式会社,,株式会社,東京都,江戸川区,平井１丁目３番１５号シャーメゾンヴァンベール店舗,,13,123,1320035,,,,,,,2024-05-21,1,,,,,エフエムシー,0
722,3012401041882,新規,0,2024-05-21,2024-05-21,Ｓｕｎａｏ　Ｅｎｔｅｒ株式会社,,株式会社,東京都,調布市,深大寺元町４丁目３４番地３７セルリアンハウス２０２,,13,208,1820017,,,,,,,2024-05-21,1,,,,,スナオエンター,0
723,3012801023175,新規,0,2024-05-21,2024-05-21,株式会社ネクサス,,株式会社,東京都,昭島市,福島町３丁目９番１６号ハイツＴ＆Ｙ１０２号室,,13,207,1960031,,,,,,,2024-05-21,1,,,,,ネクサス,0
724,3012801023183,新規,0,2024-05-21,2024-05-21,ＥＳ‐ＰＬＡＮ株式会社,,株式会社,東京都,立川市,柴崎町４丁目８番５号ヨウケンハイツ２０３号,,13,202,1900023,,,,,,,2024-05-21,1,,,,,エスプラン,0
726,3012803003407,新規,0,2024-05-21,2024-05-21,Ｗｅｌｌｎｅｓｓ　Ｐａｒｔｎｅｒｓ合同会社,,合同会社,東京都,国立市,西２丁目３１番地の６５,,13,215,1860005,,,,,,,2024-05-21,1,,,,,ウェルネスパートナーズ,0
728,3013301052540,新規,0,2024-05-21,2024-05-21,株式会社ＭＩＴＣＯＭ,,株式会社,東京都,豊島区,西池袋５丁目２６－１６ＣＨＩＢＡビル５１０室,,13,116,1710021,,,,,,,2024-05-21,1,,,,,ミトコム,0
729,3013301052549,新規,0,2024-05-21,2024-05-21,株式会社ルーマスジャパン,,株式会社,東京都,豊島区,南長崎６丁目３４番１０－４０１号,,13,116,1710052,,,,,,,2024-05-21,1,,,,,ルーマスジャパン,0
736,3020001157297,新規,0,2024-05-21,2024-05-21,株式会社皇海,,株式会社,神奈川県,横浜市神奈川区,二ツ谷町１１－２０,,14,102,2210823,,,,,,,2024-05-21,1,,,,,スカイ,0
737,3020001157306,新規,0,2024-05-21,2024-05-21,リバーテクノ株式会社,,株式会社,神奈川県,川崎市麻生区,上麻生７丁目２３番１６号,,14,137,2150021,,,,,,,2024-05-21,1,,,,,リバーテクノ,0
738,3020001157322,新規,0,2024-05-21,2024-05-21,株式会社Ｖ‐ＴＨＲＥＥ,,株式会社,神奈川県,横浜市青葉区,荏田町１１５０番地４０白亜館ビル４０１,,14,117,2250013,,,,,,,2024-05-21,1,,,,,ブイスリー,0
739,3020001157339,新規,0,2024-05-21,2024-05-21,株式会社ｅＲＲｅｚ,,株式会社,神奈川県,川崎市川崎区,大島２丁目１１番８号,,14,131,2100834,,,,,,,2024-05-21,1,,,,,エレス,0
740,3020001157371,新規,0,2024-05-21,2024-05-21,株式会社スタンダードデザイン,,株式会社,神奈川県,横浜市西区,戸部町７丁目２１８番地５,,14,103,2200042,,,,,,,2024-05-21,1,,,,,スタンダードデザイン,0
743,3021001082262,新規,0,2024-05-21,2024-05-21,株式会社さんわい企画,,株式会社,神奈川県,小田原市,南鴨宮３丁目１１番１０号,,14,206,2500875,,,,,,,2024-05-21,1,,,,,サンワイキカク,0
744,3021001082287,新規,0,2024-05-21,2024-05-21,株式会社ＯｎＷｈｉｔｅ,,株式会社,神奈川県,相模原市中央区,淵野辺３丁目３－６第５ＳＫビル１１０６,,14,152,2520206,,,,,,,2024-05-21,1,,,,,オンホワイト,0
747,3021003014536,新規,0,2024-05-21,2024-05-21,合同会社Ｅｘｃｅｌｌｅｎｔ,,合同会社,神奈川県,座間市,相模が丘５丁目３番１７‐９０３号,,14,216,2520001,,,,,,,2024-05-21,1,,,,,エクセレント,0
749,3021005013115,新規,0,2024-05-21,2024-05-21,一般社団法人ゆがわらアクアパーク,,その他の設立登記法人,神奈川県,足柄下郡湯河原町,土肥１丁目１２番地の９,,14,384,2590303,,,,,,,2024-05-21,1,,,,,ユガワラアクアパーク,0
761,3040001133668,新規,0,2024-05-21,2024-05-21,株式会社ＡＧＲＯ　ＦＯＣＵＳ,,株式会社,千葉県,柏市,若柴１７８番地４柏の葉キャンパス１４８街区２ショップ＆オフィス棟６Ｆ,,12,217,2770871,,,,,,,2024-05-21,1,,,,,アグロフォーカス,0
762,3040001133692,新規,0,2024-05-21,2024-05-21,株式会社マッスルガーデン,,株式会社,千葉県,柏市,篠籠田１２９４番地３９,,12,217,2770862,,,,,,,2024-05-21,1,,,,,マッスルガーデン,0
763,3040001133701,新規,0,2024-05-21,2024-05-21,株式会社Ｔレンタカー,,株式会社,千葉県,柏市,十余二３３７番地４５８,,12,217,2770872,,,,,,,2024-05-21,1,,,,,ティーレンタカー,0
769,3050001054780,新規,0,2024-05-21,2024-05-21,高野ブロック株式会社,00134838,株式会社,茨城県,龍ケ崎市,塗戸町１６２６番地,,08,208,3010803,,,,,,,2024-05-21,1,,,,,タカノブロック,0
775,3060001037108,新規,0,2024-05-21,2024-05-21,ＧＥＮＩＵＳ株式会社,,株式会社,栃木県,宇都宮市,越戸２丁目１４番３号,,09,201,3210951,,,,,,,2024-05-21,1,,,,,ジーニアス,0
776,3060001037124,新規,0,2024-05-21,2024-05-21,株式会社アップルチケット,,株式会社,栃木県,宇都宮市,駅前通り３丁目１－１薄井ビル１階,,09,201,3210964,,,,,,,2024-05-21,1,,,,,アップルチケット,0
780,3070001041769,新規,0,2024-05-21,2024-05-21,スリーラック株式会社,,株式会社,群馬県,高崎市,上並榎町１１０２番地１,,10,202,3700801,,,,,,,2024-05-21,1,,,,,スリーラック,0
784,3090001018716,新規,0,2024-05-21,2024-05-21,株式会社とんがり,,株式会社,山梨県,都留市,下谷２４５０番地１,,19,204,4020051,,,,,,,2024-05-21,1,,,,,トンガリ,0
785,3100001037474,新規,0,2024-05-21,2024-05-21,株式会社寺島建築,,株式会社,長野県,北安曇郡松川村,１７０３番地,,20,482,3998501,,,,,,,2024-05-21,1,,,,,テラシマケンチク,0
787,3100003007558,新規,0,2024-05-21,2024-05-21,合同会社Ｄ．ｓｆｉｄａ,,合同会社,長野県,松本市,大字神林４３０５番地の１,,20,202,3901243,,,,,,,2024-05-21,1,,,,,ディースフィーダ,0
799,3120001265049,新規,0,2024-05-21,2024-05-21,株式会社ＹＭｆａｍｉｌｙ,,株式会社,大阪府,門真市,江端町１１番１－９０３号,,27,223,5710012,,,,,,,2024-05-21,1,,,,,ワイエムファミリー,0
800,3120001265057,新規,0,2024-05-21,2024-05-21,株式会社ＵＫＥ,,株式会社,大阪府,大阪市鶴見区,横堤３丁目４－１９,,27,124,5380052,,,,,,,2024-05-21,1,,,,,ユーケーイー,0
801,3120001265073,新規,0,2024-05-21,2024-05-21,株式会社大剛,,株式会社,大阪府,大阪市西成区,萩之茶屋２丁目５－１５,,27,122,5570004,,,,,,,2024-05-21,1,,,,,ダイゴウ,0
802,3120001265081,新規,0,2024-05-21,2024-05-21,エガワ重量株式会社,,株式会社,大阪府,大阪市生野区,新今里１丁目９番１９号,,27,116,5440001,,,,,,,2024-05-21,1,,,,,エガワジュウリョウ,0
803,3120001265098,新規,0,2024-05-21,2024-05-21,株式会社はちわれ,,株式会社,大阪府,大阪市淀川区,十三本町１丁目１９－１２マルービル,,27,123,5320024,,,,,,,2024-05-21,1,,,,,ハチワレ,0
804,3120001265107,新規,0,2024-05-21,2024-05-21,株式会社森和不動産,,株式会社,大阪府,大阪市東住吉区,照ケ丘矢田２丁目１０番９号,,27,121,5460021,,,,,,,2024-05-21,1,,,,,シンワフドウサン,0
805,3120001265164,新規,0,2024-05-21,2024-05-21,株式会社ＣＯＺＹ,,株式会社,大阪府,大阪市中央区,南船場１丁目１６番１０号,,27,128,5420081,,,,,,,2024-05-21,1,,,,,コージー,0
813,3120101069597,新規,0,2024-05-21,2024-05-21,株式会社ＫＫ,,株式会社,大阪府,堺市堺区,御陵通４番７号,,27,141,5900057,,,,,,,2024-05-21,1,,,,,ケーケー,0
816,3120901049204,新規,0,2024-05-21,2024-05-21,株式会社Ｓ＆Ｃ,,株式会社,大阪府,高槻市,古曽部町４丁目１０番８号パンテーラ古曽部１０１,,27,207,5691115,,,,,,,2024-05-21,1,,,,,エスアンドシー,0
827,3140001134482,新規,0,2024-05-21,2024-05-21,大華国際株式会社,,株式会社,兵庫県,神戸市東灘区,御影本町６丁目３－４－１Ｆ,,28,101,6580046,,,,,,,2024-05-21,1,,,,,タイカコクサイ,0
828,3140001134508,新規,0,2024-05-21,2024-05-21,株式会社Ａｒｃｓ　Ｍｕｓｉｃ,,株式会社,兵庫県,丹波篠山市,真南条下３２９,,28,221,6692464,,,,,,,2024-05-21,1,,,,,アークスミュージック,0
830,3140003020581,新規,0,2024-05-21,2024-05-21,合同会社こんぺいとう,,合同会社,兵庫県,加古川市,神野町日岡苑３８番地の１１,,28,210,6750006,,,,,,,2024-05-21,1,,,,,コンペイトウ,0
833,3160003003196,新規,0,2024-05-21,2024-05-21,合同会社ＮＩＳＨＩ,,合同会社,滋賀県,草津市,片岡町１８０番地５,,25,206,5250011,,,,,,,2024-05-21,1,,,,,ニシ,0
839,3180001161580,新規,0,2024-05-21,2024-05-21,ＰＬＵＳ　ＩＭＰＡＣＴ株式会社,,株式会社,愛知県,名古屋市中村区,郷前町１丁目６番地,,23,105,4530808,,,,,,,2024-05-21,1,,,,,プラスインパクト,0
841,3180003026781,新規,0,2024-05-21,2024-05-21,合同会社ミライト,,合同会社,愛知県,名古屋市昭和区,広路町字石坂２８番地の１ライオンズマンション八事石坂５０９号,,23,107,4660834,,,,,,,2024-05-21,1,,,,,ミライト,0
842,3180003026798,新規,0,2024-05-21,2024-05-21,合同会社メディカル・シナジー,,合同会社,愛知県,弥富市,鯏浦町下本田６２番地,,23,235,4980021,,,,,,,2024-05-21,1,,,,,メディカルシナジー,0
843,3180003026815,新規,0,2024-05-21,2024-05-21,合同会社ＳＯＬ,,合同会社,愛知県,名古屋市千種区,新池町１丁目２１―２ザ・パークハウス東山公園５０５,,23,101,4640027,,,,,,,2024-05-21,1,,,,,ソル,0
848,3190001031361,新規,0,2024-05-21,2024-05-21,株式会社ＳＲ企画,,株式会社,三重県,松阪市,曽原町６４４番地１,,24,204,5152112,,,,,,,2024-05-21,1,,,,,エスアールキカク,0
849,3190003004687,新規,0,2024-05-21,2024-05-21,福田合同会社,,合同会社,三重県,亀山市,関町会下１２９２番地１,,24,210,5191106,,,,,,,2024-05-21,1,,,,,フクダ,0
850,3220001026011,新規,0,2024-05-21,2024-05-21,株式会社漆の郷大藤,,株式会社,石川県,輪島市,惣領町五部５２番地１,,17,204,9280006,,,,,,,2024-05-21,1,,,,,ウルシノサトオオフジ,0
854,3240001063226,新規,0,2024-05-21,2024-05-21,株式会社バズハウス,,株式会社,広島県,福山市,曙町５丁目１９番３８号,00134836,34,207,7210952,,,,,,,2024-05-21,1,,,,,バズハウス,0
856,3240003006678,新規,0,2024-05-21,2024-05-21,合同会社田中フード,,合同会社,広島県,広島市安佐北区,可部東２丁目２８番８号,,34,106,7310222,,,,,,,2024-05-21,1,,,,,タナカフード,0
858,3260001039091,新規,0,2024-05-21,2024-05-21,株式会社ＴＫＣワークス,,株式会社,岡山県,岡山市中区,森下町２－２８,,33,102,7038237,,,,,,,2024-05-21,1,,,,,ティーケーシーワークス,0
866,3290003015328,新規,0,2024-05-21,2024-05-21,合同会社傍流堂,,合同会社,福岡県,福岡市西区,愛宕浜２丁目２番７－１４０２号,,40,135,8190013,,,,,,,2024-05-21,1,,,,,ボウリュウドウ,0
871,3290801030585,新規,0,2024-05-21,2024-05-21,アークライト株式会社,,株式会社,福岡県,京都郡苅田町,富久町１丁目２０番地４,,40,621,8000352,,,,,,,2024-05-21,1,,,,,アークライト,0
873,3300001013736,新規,0,2024-05-21,2024-05-21,株式会社日本クリーン,,株式会社,佐賀県,武雄市,橘町大字片白３３１番地３,,41,206,8430012,,,,,,,2024-05-21,1,,,,,ニホンクリーン,0
878,3360001033679,新規,0,2024-05-21,2024-05-21,みやら牧場株式会社,,株式会社,沖縄県,石垣市,字白保７２８番地５９,,47,207,9070242,,,,,,,2024-05-21,1,,,,,ミヤラボクジョウ,0
880,3360003013976,新規,0,2024-05-21,2024-05-21,合同会社はや吉,,合同会社,沖縄県,島尻郡久米島町,字真我里７５,,47,361,9013112,,,,,,,2024-05-21,1,,,,,ハヤキチ,0
881,3360003013992,新規,0,2024-05-21,2024-05-21,合同会社Ｙ’ｓ,,合同会社,沖縄県,糸満市,字座波７６５番地,,47,210,9010314,,,,,,,2024-05-21,1,,,,,ワイズ,0
890,3430001091851,新規,0,2024-05-21,2024-05-21,株式会社ショクリエ,,株式会社,北海道,札幌市白石区,本通３丁目南２－１８ベルヴィコート本通３　２階,,01,104,0030026,,,,,,,2024-05-21,1,,,,,ショクリエ,0
894,3430003016360,新規,0,2024-05-21,2024-05-21,アルファライフ合同会社,,合同会社,北海道,札幌市東区,北三十八条東２丁目１－１０－１０１,,01,103,0070838,,,,,,,2024-05-21,1,,,,,アルファライフ,0
895,3440003001592,新規,0,2024-05-21,2024-05-21,合同会社山口企画室,,合同会社,北海道,亀田郡七飯町,鳴川３丁目１４番３号,,01,337,0411112,,,,,,,2024-05-21,1,,,,,,0
896,3450001014323,新規,0,2024-05-21,2024-05-21,株式会社ゆずり葉,,株式会社,北海道,旭川市,東光七条４丁目３５３番１６,,01,204,0788347,,,,,,,2024-05-21,1,,,,,ユズリハ,0
898,3470001020212,新規,0,2024-05-21,2024-05-21,株式会社山頂車商社,,株式会社,香川県,観音寺市,流岡町１３４７番地１７鹿隈リゾートタウン１１号地２０１号室,,37,205,7680014,,,,,,,2024-05-21,1,,,,,サンチョウシャショウシャ,0
902,3500001025637,新規,0,2024-05-21,2024-05-21,株式会社Ｍ＆ＳＭＡＲＴ松山,,株式会社,愛媛県,松山市,正円寺３丁目１１番１１号ニュークリアス１０２号,,38,201,7900904,,,,,,,2024-05-21,1,,,,,エムアンドスマートマツヤマ,0
903,3700150118270,新規,0,2024-05-21,2024-05-21,ＩＵＫＩ　Ｌｉｍｉｔｅｄ,,外国会社等,,,,,,,,９Ｆ－５，Ｎｏ．７６６，Ｄｏｎｇｙｉｎｇ　Ｒｄ．，Ｅａｓｔ　Ｄｉｓｔ．，Ｔａｉｃｈｕｎｇ　Ｃｉｔｙ　４０１０２１，Ｔａｉｗａｎ,,,,,,2024-05-21,1,,,,,アイヨウチイヨウシエンゴンス,0
904,3700150119137,新規,0,2024-05-21,2024-05-21,Ｈａｎｇｚｈｏｕ　ＭａｉＷｅｉ　Ｆｕｓｈｉ　Ｙｏｕｘｉａｎ　Ｇｏｎｇｓｉ,,外国会社等,,,,,,,,６　Ｚｈｕａｎｇ　３１１　Ｓｈｉ，ＪｉｕＨｕａ　Ｌｕ　２　Ｈａｏ　Ｊｉａｎｇｇａｎ　Ｑｕ，ＨａｎｇＺｈｏｕ　Ｓｈｉ，ＺｈｅＪｉａｎｇ　ｓｈｅｎｇ,,,,,,2024-05-21,1,,,,,コウシュウブイフクシユウゲンゴウシ,0
905,3700150119418,新規,0,2024-05-21,2024-05-21,ＺｈｕｈａｉｓｈｉＨｕａｐｕＲｕｉｑｉｄｉａｎｚｉｓｈａｎｇｗｕｙｏｕｘｉａｎｇｏｎｇｓｉ,,外国会社等,,,,,,,,Ｒｏｏｍ　３０１－７，Ｂｕｉｌｄｉｎｇ　４，Ｎｏ．１０１，Ｄａｘｕｅ　Ｒｏａｄ，Ｔａｎｇｊｉａｗａｎ　Ｔｏｗｎ　Ｚｈｕｈａｉ　Ｈｉｇｈ－ｔｅｃｈ　Ｚｏｎｅ,,,,,,2024-05-21,1,,,,,ジュウハイシホワプゥゥルイチディエンズシャンウヨウシエンゴンス,0
906,3700150125192,新規,0,2024-05-21,2024-05-09,ガイオン,,その他,京都府,京都市右京区,西京極南衣手町２５－２,,26,108,6150872,,,,,,,2024-05-09,1,,,,,ガイオン,0
913,4010001244888,新規,0,2024-05-21,2024-05-21,ＳＫ　Ｃｏｎｓｕｌｔｉｎｇ株式会社,,株式会社,東京都,千代田区,九段北１丁目７番８号,,13,101,1020073,,,,,,,2024-05-21,1,,,,,エスケイコンサルティング,0
914,4010001244913,新規,0,2024-05-21,2024-05-21,株式会社日本企業成長投資ホールディングス,,株式会社,東京都,千代田区,大手町１丁目６番１号,,13,101,1000004,,,,,,,2024-05-21,1,,,,,ニッポンキギョウセイチョウトウシホールディングス,0
915,4010001244962,新規,0,2024-05-21,2024-05-21,株式会社フェニックス,,株式会社,東京都,中央区,銀座３丁目１４番８号銀座片桐ビルＶ３０１号,,13,102,1040061,,,,,,,2024-05-21,1,,,,,フェニックス,0
916,4010001245028,新規,0,2024-05-21,2024-05-21,基礎技建株式会社,,株式会社,東京都,中央区,日本橋茅場町２丁目１７番３号,,13,102,1030025,,,,,,,2024-05-21,1,,,,,キソギケン,0
921,4010005038320,新規,0,2024-05-21,2024-05-21,一般社団法人ｗｉｔｈ　ＡＩ研究所,,その他の設立登記法人,東京都,中央区,銀座７丁目１１番３号矢島ビル４Ｆ,,13,102,1040061,,,,,,,2024-05-21,1,,,,,ウィズエーアイケンキュウジョ,0
923,4010401182481,新規,0,2024-05-21,2024-05-21,株式会社ＭＵＫＵ,,株式会社,東京都,港区,南青山６丁目１４番１１号ＲＯＪＵＭＩＮＡＭＩＡＯＹＡＭＡ３Ａ,,13,103,1070062,,,,,,,2024-05-21,1,,,,,ムク,0
924,4010401182556,新規,0,2024-05-21,2024-05-21,ＳＹＮＣＳ株式会社,,株式会社,東京都,港区,北青山３丁目５番２５号Ｋ′ｓＢＬＤＧ３Ｆ,,13,103,1070061,,,,,,,2024-05-21,1,,,,,シンクス,0
925,4010401182564,新規,0,2024-05-21,2024-05-21,ＫＪ株式会社,,株式会社,東京都,港区,赤坂６丁目１３番１６号Ｂ１Ｆ,,13,103,1070052,,,,,,,2024-05-21,1,,,,,ケージェイ,0
929,4010405023203,新規,0,2024-05-21,2024-05-21,一般社団法人生成ＡＩ資格認定協会,,その他の設立登記法人,東京都,港区,六本木４丁目８番７号六本木嶋田ビル５階,,13,103,1060032,,,,,,,2024-05-21,1,,,,,セイセイエーアイシカクニンテイキョウカイ,0
930,4010405023228,新規,0,2024-05-21,2024-05-21,一般社団法人ＡＩＲＢＲＵＳＨ　ＭＡＫＥＵＰ　ＪＡＰＡＮ,,その他の設立登記法人,東京都,港区,浜松町１丁目１８番１３号高桑ビル３階,,13,103,1050013,,,,,,,2024-05-21,1,,,,,エアブラシメイクアップジャパン,0
935,4010503007446,新規,0,2024-05-21,2024-05-21,合同会社ＨＯＬＯＨＯＬＯ,,合同会社,東京都,台東区,上野１丁目５－３市川ビル２階,,13,106,1100005,,,,,,,2024-05-21,1,,,,,ホロホロ,0
939,4010601065206,新規,0,2024-05-21,2024-05-21,株式会社大和電設,,株式会社,東京都,墨田区,文花３丁目１７番１６－５１３号,,13,107,1310044,,,,,,,2024-05-21,1,,,,,ヤマトデンセツ,0
940,4010601065214,新規,0,2024-05-21,2024-05-21,株式会社中好,,株式会社,東京都,江東区,千石３丁目１番２４－４０４号,,13,108,1350015,,,,,,,2024-05-21,1,,,,,ナカヨシ,0
941,4010601065222,新規,0,2024-05-21,2024-05-21,シンオン株式会社,,株式会社,東京都,江東区,豊洲６丁目２番３１－１４１６号,,13,108,1350061,,,,,,,2024-05-21,1,,,,,シンオン,0
944,4010701046023,新規,0,2024-05-21,2024-05-21,株式会社Ｉｎｖｉｓｉｂｌｅ　Ｂｒａｉｎｓ,,株式会社,東京都,品川区,西五反田１丁目１１番１号,,13,109,1410031,,,,,,,2024-05-21,1,,,,,インビジブルブレインズ,0
946,4010703007147,新規,0,2024-05-21,2024-05-21,合同会社Ｓｔａｒｒｙ　Ｃａｎｖａｓ,,合同会社,東京都,品川区,西五反田２丁目９番７号ドルミ五反田アンメゾン４０７号,,13,109,1410031,,,,,,,2024-05-21,1,,,,,スターリーキャンバス,0
949,4010901055311,新規,0,2024-05-21,2024-05-21,株式会社７２キャピタル,,株式会社,東京都,世田谷区,下馬６丁目２４番１２号,,13,112,1540002,,,,,,,2024-05-21,1,,,,,セブンツーキャピタル,0
951,4010903009075,新規,0,2024-05-21,2024-05-21,合同会社ａｌｉｐａ,,合同会社,東京都,世田谷区,上野毛２丁目６番６－２０４号,,13,112,1580093,,,,,,,2024-05-21,1,,,,,アリパ,0
958,4011001162023,新規,0,2024-05-21,2024-05-21,株式会社ＭＥＴＣＨＡ　ＳＴＵＤＩＯ,,株式会社,東京都,渋谷区,円山町５番５号Ｎａｖｉ渋谷Ｖ３階,,13,113,1500044,,,,,,,2024-05-21,1,,,,,メッチャスタジオ,0
959,4011001162056,新規,0,2024-05-21,2024-05-21,パペガ株式会社,,株式会社,東京都,渋谷区,恵比寿西１丁目９番６号アストゥルビル４階,,13,113,1500021,,,,,,,2024-05-21,1,,,,,パペガ,0
960,4011001162080,新規,0,2024-05-21,2024-05-21,株式会社ＣＨＬＯＥ　ｓａｌｏｎ,,株式会社,東京都,渋谷区,恵比寿３丁目９－２９シェビア恵比寿２Ｆ,,13,113,1500013,,,,,,,2024-05-21,1,,,,,,0
961,4011001162097,新規,0,2024-05-21,2024-05-21,株式会社Ｗｉｓｄｏｍｌｙ,,株式会社,東京都,渋谷区,渋谷１丁目８－５－１０２,,13,113,1500002,,,,,,,2024-05-21,1,,,,,ウィズダムリー,0
962,4011001162106,新規,0,2024-05-21,2024-05-21,株式会社忘我,,株式会社,東京都,渋谷区,恵比寿西２丁目４番８号ウィンド恵比寿ビル８Ｆ,,13,113,1500021,,,,,,,2024-05-21,1,,,,,ボウガ,0
963,4011001162122,新規,0,2024-05-21,2024-05-21,株式会社ＪＩＮＢＥＩ,,株式会社,東京都,目黒区,平町２丁目７番１７－１０１号エスティメゾン都立大学,,13,110,1520032,,,,,,,2024-05-21,1,,,,,ジンベエ,0
964,4011001162130,新規,0,2024-05-21,2024-05-21,株式会社ドリームミーツ,,株式会社,東京都,渋谷区,神宮前６丁目２３番４号桑野ビル２階,,13,113,1500001,,,,,,,2024-05-21,1,,,,,ドリームミーツ,0
965,4011001162147,新規,0,2024-05-21,2024-05-21,株式会社ＭｅｔａＳｅｒｖｅ,,株式会社,東京都,渋谷区,渋谷２丁目１９番１５号宮益坂ビルディング６０９,,13,113,1500002,,,,,,,2024-05-21,1,,,,,メタサーブ,0
971,4011203004394,新規,0,2024-05-21,2024-05-21,合同会社Ｐｉｇｇｙ　ｃｏｍｐａｎｙ,,合同会社,東京都,中野区,本町４丁目２２－１４－３０１号,,13,114,1640012,,,,,,,2024-05-21,1,,,,,ピギーカンパニー,0
972,4011301029673,新規,0,2024-05-21,2024-05-21,株式会社ＬｕｘＡｕｔｏＣａｒｅ,,株式会社,東京都,杉並区,和泉２丁目３６番２４号,,13,115,1680063,,,,,,,2024-05-21,1,,,,,ラックスオートケア,0
977,4011501030695,新規,0,2024-05-21,2024-05-21,Ｇａｉａ株式会社,,株式会社,東京都,北区,東田端２丁目９番１７号三協マンション２０３号室,,13,117,1140013,,,,,,,2024-05-21,1,,,,,ガイア,0
985,4012703002994,新規,0,2024-05-21,2024-05-21,合同会社７ｔｈ　ＦＩＥＬＤ,,合同会社,東京都,西東京市,南町５丁目７番８号サンスクエアオオヤマ１Ｆ,,13,229,1880012,,,,,,,2024-05-21,1,,,,,セブンスフィールド,0
986,4012801023182,新規,0,2024-05-21,2024-05-21,株式会社ＴＫＭ２,,株式会社,東京都,国分寺市,並木町２丁目２５番地２,,13,214,1850005,,,,,,,2024-05-21,1,,,,,ティーケーエムツー,0
991,4013303007145,新規,0,2024-05-21,2024-05-21,合同会社スマイルサポート,,合同会社,東京都,豊島区,北大塚１丁目２０番１１プロフ大塚４０３号,,13,116,1700004,,,,,,,2024-05-21,1,,,,,スマイルサポート,0
996,4020001157338,新規,0,2024-05-21,2024-05-21,コネクティア株式会社,,株式会社,神奈川県,横浜市旭区,中尾１丁目３８番２２号,,14,112,2410815,,,,,,,2024-05-21,1,,,,,コネクティア,0
997,4020001157362,新規,0,2024-05-21,2024-05-21,株式会社ＳａｋｅＳｏｕｌ,,株式会社,神奈川県,川崎市川崎区,駅前本町１１番地２川崎フロンティアビル４階,,14,131,2100007,,,,,,,2024-05-21,1,,,,,サケソウル,0
998,4020001157370,新規,0,2024-05-21,2024-05-21,株式会社クラシスタイル,,株式会社,神奈川県,横浜市西区,戸部町７丁目２１８番地５,,14,103,2200042,,,,,,,2024-05-21,1,,,,,クラシスタイル,0
1010,4020003026152,新規,0,2024-05-21,2024-05-21,ｃａｍｅｌｌｉａ合同会社,,合同会社,神奈川県,横浜市西区,浅間町１丁目４番３号ウィザードビル４０２,,14,103,2200072,,,,,,,2024-05-21,1,,,,,カメリア,0
1012,4021001082286,新規,0,2024-05-21,2024-05-21,食品企業再編支援機構株式会社,,株式会社,神奈川県,藤沢市,遠藤２０２２番地１,,14,205,2520816,,,,,,,2024-05-21,1,,,,,ショクヒンキギョウサイヘンシエンキコウ,0
1013,4021003014535,新規,0,2024-05-21,2024-05-21,合同会社ｎｏｇｉ,,合同会社,神奈川県,藤沢市,南藤沢１５－１２－３０３,,14,205,2510055,,,,,,,2024-05-21,1,,,,,ノギ,0
1020,4030001160497,新規,0,2024-05-21,2024-05-21,株式会社ＭＪソリューション,,株式会社,埼玉県,新座市,石神２丁目１１番１２号,,11,230,3520033,,,,,,,2024-05-21,1,,,,,エムジェイソリューション,0
1023,4030003024320,新規,0,2024-05-21,2024-05-21,ＡＳＢＭ　ＧＬＯＢＡＬ　ＥＮＴＥＲＰＲＩＳＥ合同会社,,合同会社,埼玉県,川口市,芝樋ノ爪１丁目６－６３小川ハイツ２０３,,11,203,3330852,,,,,,,2024-05-21,1,,,,,エーエスビーエムグローバルエンタープライズ,0
1028,4040001133634,新規,0,2024-05-21,2024-05-21,株式会社永進商事,,株式会社,千葉県,香取市,多田２５１９番地１,,12,236,2870014,,,,,,,2024-05-21,1,,,,,エイシンショウジ,0
1029,4040001133659,新規,0,2024-05-21,2024-05-21,ＲＳホールディングス株式会社,,株式会社,千葉県,市原市,五井西２丁目１６番地１７,,12,219,2900038,,,,,,,2024-05-21,1,,,,,アールエスホールディングス,0
1030,4040001133667,新規,0,2024-05-21,2024-05-21,株式会社エイトアップ,,株式会社,千葉県,松戸市,小金原４丁目３３番地の５ヒルズさくら通り２０１号,,12,207,2700021,,,,,,,2024-05-21,1,,,,,エイトアップ,0
1031,4040001133709,新規,0,2024-05-21,2024-05-21,境逸園株式会社,,株式会社,千葉県,船橋市,二宮１丁目６４－１１,,12,204,2740823,,,,,,,2024-05-21,1,,,,,キョウイツエン,0
1040,4040003024996,新規,0,2024-05-21,2024-05-21,清紅合同会社,,合同会社,千葉県,市川市,南行徳１丁目４番２２号グレイスビル,,12,203,2720138,,,,,,,2024-05-21,1,,,,,セイコウ,0
1042,4050001054788,新規,0,2024-05-21,2024-05-21,株式会社ユウラク,,株式会社,茨城県,つくばみらい市,絹の台３丁目１７番地２,,08,235,3002436,,,,,,,2024-05-21,1,,,,,ユウラク,0
1044,4060001037107,新規,0,2024-05-21,2024-05-21,株式会社グランヴェール,,株式会社,栃木県,宇都宮市,二番町１番３８号,,09,201,3200813,,,,,,,2024-05-21,1,,,,,グランヴェール,0
1045,4060001037123,新規,0,2024-05-21,2024-05-21,株式会社ＭＯＮＳＴＥＲ　ＴＲＥＥ,,株式会社,栃木県,那須郡那須町,大字高久丙４５３１番地４,,09,407,3250302,,,,,,,2024-05-21,1,,,,,モンスターツリー,0
1050,4080401027192,新規,0,2024-05-21,2024-05-21,株式会社ちんぷい,,株式会社,静岡県,浜松市天竜区,二俣町二俣１５１８番地,,22,140,4313314,,,,,,,2024-05-21,1,,,,,チンプイ,0
1053,4080403005015,新規,0,2024-05-21,2024-05-21,合同会社ＶＡＺＴＥＣＴ,,合同会社,静岡県,浜松市中央区,高丘北３丁目３２番２６号,,22,138,4338119,,,,,,,2024-05-21,1,,,,,バズテクト,0
1054,4090001018707,新規,0,2024-05-21,2024-05-21,株式会社ＴＡＳＨＶＩ　ＪＥＷＥＬＳ,,株式会社,山梨県,甲府市,宝２丁目２０番２号,,19,201,4000034,,,,,,,2024-05-21,1,,,,,タシュウィジュエルズ,0
1055,4090001018723,新規,0,2024-05-21,2024-05-21,虹の彩株式会社,,株式会社,山梨県,甲府市,酒折２丁目９－２３ＲＣコード１０３室,,19,201,4000805,,,,,,,2024-05-21,1,,,,,ニジノアヤ,0
1058,4100001037440,新規,0,2024-05-21,2024-05-21,株式会社桐建工,,株式会社,長野県,下伊那郡高森町,上市田２４４番地６,,20,403,3993104,,,,,,,2024-05-21,1,,,,,キリケンコウ,0
1059,4100001037457,新規,0,2024-05-21,2024-05-21,ホームリーチ株式会社,,株式会社,長野県,上高井郡小布施町,大字押羽６９２番地,,20,541,3810207,,,,,,,2024-05-21,1,,,,,ホームリーチ,0
1062,4100003007549,新規,0,2024-05-21,2024-05-21,合同会社ＷＩＬＬＩＮＧ,,合同会社,長野県,長野市,大字中御所６３番地６岡田町ビル２階,,20,201,3800935,,,,,,,2024-05-21,1,,,,,ウィリング,0
1073,4120001265080,新規,0,2024-05-21,2024-05-21,株式会社ウィルブルーム,,株式会社,大阪府,大阪市住吉区,沢之町２丁目５番２５号,,27,120,5580031,,,,,,,2024-05-21,1,,,,,ウィルブルーム,0
1074,4120001265089,新規,0,2024-05-21,2024-05-21,株式会社リアーズアセットマネジメント,,株式会社,大阪府,大阪市北区,梅田１丁目１１番４－４００号,,27,127,5300001,,,,,,,2024-05-21,1,,,,,リアーズアセットマネジメント,0
1075,4120001265106,新規,0,2024-05-21,2024-05-21,株式会社ひふみ,,株式会社,大阪府,大阪市北区,梅田１丁目１－３大阪駅前第３ビル２９階１－１－１号室,,27,127,5300001,,,,,,,2024-05-21,1,,,,,ヒフミ,0
1076,4120001265130,新規,0,2024-05-21,2024-05-21,株式会社Ｒｉｓｋ　Ｐｏｃｋｅｔ,,株式会社,大阪府,大阪市北区,中津５丁目５番１号,,27,127,5310071,,,,,,,2024-05-21,1,,,,,リスクポケット,0
1077,4120001265155,新規,0,2024-05-21,2024-05-21,Ｓｕｎｎｙ　ｇａｒｄｅｎ株式会社,,株式会社,大阪府,大阪市西成区,太子町二丁目３番１６号,,27,122,5570000,,,,,,,2024-05-21,1,,,,,サニーガーデン,0
1078,4120001265163,新規,0,2024-05-21,2024-05-21,株式会社ビジネスストーリー,,株式会社,大阪府,大阪市北区,曾根崎２丁目１６－１９メッセージ梅田ビル１Ｆ,,27,127,5300057,,,,,,,2024-05-21,1,,,,,ビジネスストーリー,0
1079,4120001265171,新規,0,2024-05-21,2024-05-21,沐風開拓株式会社,,株式会社,大阪府,大阪市城東区,関目５丁目１９番９号関目花博公館５０６Ｂ,,27,118,5360008,,,,,,,2024-05-21,1,,,,,ボクフウカイタク,0
1080,4120003026638,新規,0,2024-05-21,2024-05-21,ワイズカンパニュラ合同会社,,合同会社,大阪府,枚方市,出口４丁目３９番１１号塚本マンション１０１号室,00134841,27,210,5730065,,,,,,,2024-05-21,1,,,,,ワイズカンパニュラ,0
1081,4120003026646,新規,0,2024-05-21,2024-05-21,合同会社ＥＭ,,合同会社,大阪府,大阪市港区,南市岡２丁目１番２７号,,27,107,5520011,,,,,,,2024-05-21,1,,,,,イーエム,0
1084,4120101069605,新規,0,2024-05-21,2024-05-21,株式会社翔建,,株式会社,大阪府,和泉市,上代町１１９番地,,27,219,5940011,,,,,,,2024-05-21,1,,,,,ショウケン,0
1085,4120101069613,新規,0,2024-05-21,2024-05-21,株式会社タクミ,,株式会社,大阪府,岸和田市,沼町２５番１－２０９号,,27,202,5960053,,,,,,,2024-05-21,1,,,,,タクミ,0
1086,4120101069621,新規,0,2024-05-21,2024-05-21,株式会社ＢＡＵＭ,,株式会社,大阪府,堺市北区,中百舌鳥町２丁７５プライズビル４階,,27,146,5918023,,,,,,,2024-05-21,1,,,,,バウム,0
1087,4120103005839,新規,0,2024-05-21,2024-05-21,合同会社Ｓｐｈｅｒｅ,,合同会社,大阪府,和泉市,和気町４丁目１６番４号,,27,219,5940073,,,,,,,2024-05-21,1,,,,,スフィア,0
1090,4120901049194,新規,0,2024-05-21,2024-05-21,株式会社シゼント,,株式会社,大阪府,豊中市,小曽根４丁目２７番１号,,27,203,5610813,,,,,,,2024-05-21,1,,,,,シゼント,0
1091,4120901049203,新規,0,2024-05-21,2024-05-21,株式会社ＫＩＮＰＯＮ,,株式会社,大阪府,吹田市,千里山月が丘７番１－３０１号,,27,205,5650847,,,,,,,2024-05-21,1,,,,,キンポン,0
1098,4130001077046,新規,0,2024-05-21,2024-05-21,株式会社下鴨西麗江,,株式会社,京都府,京都市中京区,八百屋町１０７－３０４号,,26,104,6048072,,,,,,,2024-05-21,1,,,,,シモガモニシレイエ,0
1099,4130001077104,新規,0,2024-05-21,2024-05-21,株式会社アールイズム,,株式会社,京都府,京都市伏見区,淀木津町６０３番地４－４０２,,26,109,6130911,,,,,,,2024-05-21,1,,,,,アールイズム,0
1103,4130003009575,新規,0,2024-05-21,2024-05-21,合同会社ＨｉｄＢ,,合同会社,京都府,京都市東山区,祇園町北側２８１－１祇園ファーストビルＡ－４０１,,26,105,6050073,,,,,,,2024-05-21,1,,,,,ハイデシベル,0
1104,4130005017097,新規,0,2024-05-21,2024-05-21,一般財団法人洛和まちづくり財団,,その他の設立登記法人,京都府,京都市山科区,音羽八ノ坪５１番地４,,26,110,6078064,,,,,,,2024-05-21,1,,,,,ラクワマチヅクリザイダン,0
1113,4140001134457,新規,0,2024-05-21,2024-05-21,株式会社グラッチェ・プレーゴ,,株式会社,兵庫県,西宮市,甲陽園目神山町２８番１６号,,28,204,6620011,,,,,,,2024-05-21,1,,,,,グラッチェプレーゴ,0
1120,4140003020606,新規,0,2024-05-21,2024-05-21,合同会社Ｌａｃｒａ,,合同会社,兵庫県,川辺郡猪名川町,若葉２丁目１７３－１４３,,28,301,6660251,,,,,,,2024-05-21,1,,,,,ラクラ,0
1131,4180001161547,新規,0,2024-05-21,2024-05-21,株式会社ｃｉｅｌｏ,,株式会社,愛知県,名古屋市東区,東桜１丁目９番３２号,,23,102,4610005,,,,,,,2024-05-21,1,,,,,シエロ,0
1135,4180003026822,新規,0,2024-05-21,2024-05-21,合同会社ＰｒＣ,,合同会社,愛知県,名古屋市中村区,名駅４丁目２４番５号第２森ビル４０１,,23,105,4500002,,,,,,,2024-05-21,1,,,,,ピーアールシー,0
1136,4190003004686,新規,0,2024-05-21,2024-05-21,ＫＡＺＵＫＩオークション合同会社,,合同会社,三重県,松阪市,外五曲町１１８番地３,,24,204,5150821,,,,,,,2024-05-21,1,,,,,カズキオークション,0
1138,4200001042513,新規,0,2024-05-21,2024-05-21,株式会社言霊屋,,株式会社,岐阜県,安八郡安八町,南條６５５番地,,21,383,5030123,,,,,,,2024-05-21,1,,,,,コトダマヤ,0
1142,4220001026010,新規,0,2024-05-21,2024-05-21,株式会社ワークコミュそうごう,,株式会社,石川県,金沢市,神野町東７番地,,17,201,9200365,,,,,,,2024-05-21,1,,,,,ワークコミュソウゴウ,0
1146,4240001063258,新規,0,2024-05-21,2024-05-21,株式会社Ｒｏｓｅ　Ｂｒｉｄｇｅ,,株式会社,広島県,東広島市,西条朝日町７番４５号,,34,212,7390012,,,,,,,2024-05-21,1,,,,,ローズブリッジ,0
1149,4260001039090,新規,0,2024-05-21,2024-05-21,株式会社幸好,,株式会社,岡山県,岡山市北区,津島東２丁目９番２１号津島サンコーポ３０９,,33,101,7000081,,,,,,,2024-05-21,1,,,,,コウコウ,0
1151,4280005007612,新規,0,2024-05-21,2024-05-21,一般社団法人島根県華僑華人連合総会,,その他の設立登記法人,島根県,江津市,二宮町神主２２１４番地１３,,32,207,6950024,,,,,,,2024-05-21,1,,,,,シマネケンカキョウカジンレンゴウソウカイ,0
1154,4290001105807,新規,0,2024-05-21,2024-05-21,雪猫物流株式会社,,株式会社,福岡県,福岡市早良区,梅林７丁目７－１３－３０５,,40,137,8140172,,,,,,,2024-05-21,1,,,,,,0
1155,4290001105831,新規,0,2024-05-21,2024-05-21,株式会社ｉｎ　ｏｒｄｅｒ　ｔｏ,,株式会社,福岡県,福岡市中央区,清川３丁目９番２０号３Ｆ,,40,133,8100005,,,,,,,2024-05-21,1,,,,,インオーダートゥー,0
1158,4290005019417,新規,0,2024-05-21,2024-05-21,一般社団法人理士会,,その他の設立登記法人,福岡県,福岡市南区,向野２丁目４番８－３０７号,,40,134,8150035,,,,,,,2024-05-21,1,,,,,リシカイ,0
1159,4290801030584,新規,0,2024-05-21,2024-05-21,株式会社夢創塾,,株式会社,福岡県,北九州市門司区,稲積２丁目４番１７号,,40,101,8000048,,,,,,,2024-05-21,1,,,,,ムソウジュク,0
1161,4300003002125,新規,0,2024-05-21,2024-05-21,合同会社開成コンサルタント,,合同会社,佐賀県,武雄市,山内町大字宮野１０５５番地２,,41,206,8492305,,,,,,,2024-05-21,1,,,,,カイセイコンサルタント,0
1172,4330003010380,新規,0,2024-05-21,2024-05-21,合同会社電化サービス,,合同会社,熊本県,人吉市,大工町２４番地,,43,203,8680002,,,,,,,2024-05-21,1,,,,,デンカサービス,0
1175,4360001033653,新規,0,2024-05-21,2024-05-21,株式会社ライフ企画石垣島,,株式会社,沖縄県,石垣市,字新川２２５２番４,,47,207,9070024,,,,,,,2024-05-21,1,,,,,ライフキカクイシガキジマ,0
1176,4360001033694,新規,0,2024-05-21,2024-05-21,株式会社ＮＬＹ,,株式会社,沖縄県,宮古島市,平良字西里１４０－１－６Ｆ－Ａ,,47,214,9060012,,,,,,,2024-05-21,1,,,,,エヌエルワイ,0
1178,4360003013967,新規,0,2024-05-21,2024-05-21,合同会社宮新,,合同会社,沖縄県,宮古島市,伊良部字池間添２３７０番地１２,,47,214,9060502,,,,,,,2024-05-21,1,,,,,ミヤシン,0
1184,4380005012833,新規,0,2024-05-21,2024-05-21,一般社団法人日本感謝ノート協会,,その他の設立登記法人,福島県,白河市,泉田池ノ上１３１番地１,,07,205,9610003,,,,,,,2024-05-21,1,,,,,ニホンカンシャノートキョウカイ,0
1196,4430001091818,新規,0,2024-05-21,2024-05-21,株式会社フュージョン,,株式会社,北海道,札幌市中央区,南二条西１０丁目１０００番地２４,,01,101,0600062,,,,,,,2024-05-21,1,,,,,フュージョン,0
1208,4480002016281,新規,0,2024-05-21,2024-05-21,有限会社祖川時計店,,有限会社,徳島県,海部郡海陽町,奥浦字町内１８２番地,,36,388,7750302,,,,,,,2024-05-21,1,,,,,,0
1210,4500003003251,新規,0,2024-05-21,2024-05-21,合同会社ＴＤＴＰｌｕｓ,,合同会社,愛媛県,松山市,大橋町３７番地２,,38,201,7911126,,,,,,,2024-05-21,1,,,,,ティーディティープラス,0
1212,4700150119409,新規,0,2024-05-21,2024-05-21,ＹｕｅＱｉｎｇＨｕａＸｉｎｄｉａｎｚｉｓｈａｎｇｗｕｙｏｕｘｉａｎｇｏｎｇｓｉ,,外国会社等,,,,,,,,ＹｕｅＱｉｎｇＳｈｉ　ｌｉｕｓｈｉｚｈｅｎ　ｃｈａｎｇｈｏｎｇｓｈｅｑｕ　ＷｅｎＺｈｏｕ　ＺｈｅＪｉａｎｇ,,,,,,2024-05-21,1,,,,,ロァチンホワシンディエンズシャンウヨウシエンゴンス,0
1213,4700150120705,新規,0,2024-05-21,2024-05-21,Ｇｒａｎｄ　Ｇｉａｎｔ　Ｈｏｌｄｉｎｇｓ　Ｌｉｍｉｔｅｄ,,外国会社等,,,,,,,,Ｔｈｅ　Ｈａｌｌｍａｒｋ　Ｂｕｉｌｄｉｎｇ，Ｓｕｉｔｅ　２２７，Ｏｌｄ　Ａｉｒｐｏｒｔ　Ｒｏａｄ，Ｔｈｅ　Ｖａｌｌｅｙ，Ａｎｇｕｉｌｌａ，Ｂｒｉｔｉｓｈ　Ｗｅｓｔ　Ｉｎｄｉｅｓ,,,,,,2024-05-21,1,,,,,グランドジヤイアントホールデイングスリミテツド,0
1214,4700150124887,新規,0,2024-05-21,2024-04-17,清流の里立谷沢,,その他,山形県,東田川郡庄内町,肝煎字福地山本５３－１,,06,428,9996607,,,,,,,2024-04-17,1,,,,,セイリユウノサトタチヤザワ,0
1227,5010001244879,新規,0,2024-05-21,2024-05-21,ＳＫ　Ｃｒｅａｔｉｖｅ　Ａｇｅｎｃｙ株式会社,,株式会社,東京都,中央区,晴海５丁目６番３－９１３号,,13,102,1040053,,,,,,,2024-05-21,1,,,,,エスケイクリエイティブエージェンシー,0
1228,5010001244912,新規,0,2024-05-21,2024-05-21,株式会社Ｌｉｌａ,,株式会社,東京都,中央区,日本橋兜町１７番１号日本橋ロイヤルプラザ７０６,,13,102,1030026,,,,,,,2024-05-21,1,,,,,リーラ,0
1229,5010001244929,新規,0,2024-05-21,2024-05-21,株式会社Ｃｅｒｉｓｉｅｒ,,株式会社,東京都,中央区,銀座７丁目１５番８号タウンハイツ銀座,,13,102,1040061,,,,,,,2024-05-21,1,,,,,セリシール,0
1230,5010001244953,新規,0,2024-05-21,2024-05-21,株式会社Ａ‐ＯＮＥジャパン,,株式会社,東京都,文京区,本郷４丁目１６番６－８０２号,,13,105,1130033,,,,,,,2024-05-21,1,,,,,エーワンジャパン,0
1231,5010001244986,新規,0,2024-05-21,2024-05-21,Ｉｎｔｅｒｎａｔｉｏｎａｌ　Ｇｒｅｅｎ　Ｔｅｃｈｎｏｌｏｇｙ　Ｊａｐａｎ株式会社,,株式会社,東京都,中央区,八重洲２丁目１－１ＹＡＮＭＡＲ　ＴＯＫＹＯ１２階,,13,102,1040028,,,,,,,2024-05-21,1,,,,,インターナショナルグリーンテクノロジージャパン,0
1234,5010003043775,新規,0,2024-05-21,2024-05-21,合同会社Ｗｉｎｇｓ,,合同会社,東京都,中央区,築地１丁目１０番１１－５０１号,,13,102,1040045,,,,,,,2024-05-21,1,,,,,ウィングス,0
1246,5010401182480,新規,0,2024-05-21,2024-05-21,ブロッサムゲート株式会社,,株式会社,東京都,港区,六本木４丁目３番１１号,,13,103,1060032,,,,,,,2024-05-21,1,,,,,ブロッサムゲート,0
1249,5010405023227,新規,0,2024-05-21,2024-05-21,一般社団法人日本宅配協,,その他の設立登記法人,東京都,港区,新橋５丁目１２番１１号,,13,103,1050004,,,,,,,2024-05-21,1,,,,,ニホンタクハイキョウ,0
1251,5010505003525,新規,0,2024-05-21,2024-05-21,一般社団法人日本緊急駆けつけ協会,,その他の設立登記法人,東京都,台東区,東上野４丁目２０番２号,,13,106,1100015,,,,,,,2024-05-21,1,,,,,ニホンキンキュウカケツケキョウカイ,0
1260,5010703007154,新規,0,2024-05-21,2024-05-21,合同会社ＴＫ,,合同会社,東京都,品川区,小山６丁目２５－１４プティコリーヌ１０３,,13,109,1420062,,,,,,,2024-05-21,1,,,,,ティーケー,0
1263,5010801035065,新規,0,2024-05-21,2024-05-21,株式会社ＵＰ　ＳＴＡＧＥ‐１３０,,株式会社,東京都,大田区,東糀谷２丁目４番４－２０７号　クレッセント糀谷,,13,111,1440033,,,,,,,2024-05-21,1,,,,,アップステージーイチサンゼロ,0
1264,5010903009074,新規,0,2024-05-21,2024-05-21,合同会社土本,,合同会社,東京都,世田谷区,赤堤２丁目２３番１７号,,13,112,1560044,,,,,,,2024-05-21,1,,,,,ツチモト,0
1265,5010903009082,新規,0,2024-05-21,2024-05-21,合同会社ＲｏＳ,,合同会社,東京都,世田谷区,鎌田２丁目１１番２号ＮＤハイム８－３０６,,13,112,1570077,,,,,,,2024-05-21,1,,,,,ロズ,0
1267,5011001161899,新規,0,2024-05-21,2024-05-21,ＬｉｎｏＰｏｄ株式会社,,株式会社,東京都,渋谷区,渋谷２丁目１９番１５号宮益坂ビルディング６０９,,13,113,1500002,,,,,,,2024-05-21,1,,,,,リノポッド,0
1268,5011001162006,新規,0,2024-05-21,2024-05-21,株式会社Ｔｅｃｈ　Ｖａｎｔａｇｅ,,株式会社,東京都,目黒区,中町２丁目４０番３号メゾンボヌール１０１,,13,110,1530065,,,,,,,2024-05-21,1,,,,,テックヴァンテージ,0
1269,5011001162071,新規,0,2024-05-21,2024-05-21,株式会社ＦＡＲＯＳ,,株式会社,東京都,渋谷区,桜丘町１８－４二宮ビル１Ｆ－５８,,13,113,1500031,,,,,,,2024-05-21,1,,,,,ファーロス,0
1270,5011001162105,新規,0,2024-05-21,2024-05-21,株式会社ＣＵＢＥ・ＯＮＥ,,株式会社,東京都,渋谷区,神宮前６丁目２９番４号原宿Ｋｏｍｉｙａビル６階,,13,113,1500001,,,,,,,2024-05-21,1,,,,,キューブワン,0
1271,5011001162121,新規,0,2024-05-21,2024-05-21,パレードホールディングス株式会社,,株式会社,東京都,渋谷区,代官山町４番１－５０２号,,13,113,1500034,,,,,,,2024-05-21,1,,,,,パレードホールディングス,0
1272,5011001162162,新規,0,2024-05-21,2024-05-21,株式会社Ｓｐａｒｅｓ　ＳＳ,,株式会社,東京都,渋谷区,恵比寿南１丁目２０番６号プレファス恵比寿南４階,,13,113,1500022,,,,,,,2024-05-21,1,,,,,スペアーズエスエス,0
1273,5011001162195,新規,0,2024-05-21,2024-05-21,ＪＯＢＬＡＹＳ　Ｅｎｔｅｒｔａｉｎｍｅｎｔ株式会社,,株式会社,東京都,渋谷区,恵比寿４丁目２０番３号恵比寿ガーデンプレイスタワー１８階,,13,113,1500013,,,,,,,2024-05-21,1,,,,,,0
1274,5011003019170,新規,0,2024-05-21,2024-05-21,ＩＮＮＯＶＩＤＥＡ合同会社,,合同会社,東京都,渋谷区,神宮前６丁目２３番４号桑野ビル２階,,13,113,1500001,,,,,,,2024-05-21,1,,,,,イノビディア,0
1275,5011003019187,新規,0,2024-05-21,2024-05-21,Ｐａｔｈｏｓ　Ｃｒｅａｔ１ｖｅ合同会社,,合同会社,東京都,渋谷区,渋谷２丁目１９－１５宮益坂ビルディング６０９,,13,113,1500002,,,,,,,2024-05-21,1,,,,,,0
1276,5011003019204,新規,0,2024-05-21,2024-05-21,合同会社Ｓｉｕ　Ｃｒｅａｔｉｖｅ,,合同会社,東京都,渋谷区,本町６丁目６番１１号,,13,113,1510071,,,,,,,2024-05-21,1,,,,,シウクリエイティブ,0
1277,5011003019212,新規,0,2024-05-21,2024-05-21,合同会社出版の窓口,,合同会社,東京都,渋谷区,神泉町１０番１５号,,13,113,1500045,,,,,,,2024-05-21,1,,,,,シュッパンノマドグチ,0
1281,5011101107406,新規,0,2024-05-21,2024-05-21,ＫＡＮＡＩ＆ＣＯ株式会社,,株式会社,東京都,新宿区,西新宿６丁目５番１号新宿アイランドタワー２階,,13,104,1600023,,,,,,,2024-05-21,1,,,,,カナイアンドカンパニー,0
1282,5011103014435,新規,0,2024-05-21,2024-05-21,合同会社ふたつ,,合同会社,東京都,新宿区,西新宿３丁目３番１３号西新宿水間ビル２Ｆ,,13,104,1600023,,,,,,,2024-05-21,1,,,,,フタツ,0
1286,5011203004393,新規,0,2024-05-21,2024-05-21,合同会社ＬＯＶＥ＆ＰＥＡＣＥ,,合同会社,東京都,中野区,東中野１丁目５９番２号,,13,114,1640003,,,,,,,2024-05-21,1,,,,,ラブアンドピース,0
1299,5012801023181,新規,0,2024-05-21,2024-05-21,株式会社ＳｕｚｕＫｅｎ,,株式会社,東京都,武蔵村山市,本町２丁目４８番地の１０,,13,223,2080004,,,,,,,2024-05-21,1,,,,,スズケン,0
1304,5013301052464,新規,0,2024-05-21,2024-05-21,Ｒｏｏｆ　Ｔｅｃｈｎｉｃａ株式会社,,株式会社,東京都,豊島区,東池袋１丁目１７－１１パークハイツ池袋内,,13,116,1700013,,,,,,,2024-05-21,1,,,,,ルーフテクニカ,0
1305,5013301052555,新規,0,2024-05-21,2024-05-21,株式会社ＳｙｎｃＡＩ,,株式会社,東京都,豊島区,東池袋１丁目３４番５号いちご東池袋ビル６階,,13,116,1700013,,,,,,,2024-05-21,1,,,,,シンクエーアイ,0
1311,5020001157304,新規,0,2024-05-21,2024-05-21,リフィックスソリューションズ株式会社,,株式会社,神奈川県,横浜市中区,野毛町３丁目１３１番地１コスモ桜木町グランポール６０３,,14,104,2310064,,,,,,,2024-05-21,1,,,,,リフィックスソリューションズ,0
1324,5021003014534,新規,0,2024-05-21,2024-05-21,合同会社ワラビーコーポレーション,,合同会社,神奈川県,藤沢市,鵠沼石上１丁目８－９,,14,205,2510025,,,,,,,2024-05-21,1,,,,,ワラビーコーポレーション,0
1325,5021003014542,新規,0,2024-05-21,2024-05-21,ＴＥＮＳＡＩ商会合同会社,,合同会社,神奈川県,綾瀬市,寺尾釜田２丁目７－４ハイツ鈴木２０１,,14,218,2521135,,,,,,,2024-05-21,1,,,,,テンサイショウカイ,0
1330,5030001160389,新規,0,2024-05-21,2024-05-21,タクストラ株式会社,,株式会社,埼玉県,戸田市,本町４丁目３番６－４０２号,,11,224,3350023,,,,,,,2024-05-21,1,,,,,タクストラ,0
1331,5030001160463,新規,0,2024-05-21,2024-05-21,株式会社南田圧送,,株式会社,埼玉県,八潮市,大字二丁目２６０番地１４,,11,234,3400811,,,,,,,2024-05-21,1,,,,,ミナミダアッソウ,0
1332,5030001160471,新規,0,2024-05-21,2024-05-21,株式会社ＫＵＬＡＮ　ＥＮＴＥＲＰＲＩＳＥＳ,,株式会社,埼玉県,羽生市,大字神戸１３１１番地７,,11,216,3480024,,,,,,,2024-05-21,1,,,,,クランエンタープライセス,0
1335,5030003024336,新規,0,2024-05-21,2024-05-21,合同会社Ｃａｎａａｎ’ｓ　Ｌａｎｄ,,合同会社,埼玉県,日高市,武蔵台７丁目５番地１６,,11,242,3501255,,,,,,,2024-05-21,1,,,,,カナンズランド,0
1343,5040001133666,新規,0,2024-05-21,2024-05-21,株式会社ライブロ,,株式会社,千葉県,成田市,中台３丁目２番地４３,,12,211,2860015,,,,,,,2024-05-21,1,,,,,ライブロ,0
1344,5040001133708,新規,0,2024-05-21,2024-05-21,株式会社新栄創建,,株式会社,千葉県,千葉市稲毛区,長沼町１６７－５０,,12,103,2630005,,,,,,,2024-05-21,1,,,,,シンエイソウケン,0
1350,5050001054787,新規,0,2024-05-21,2024-05-21,株式会社頂,,株式会社,茨城県,水戸市,住吉町２４９番地の３,,08,201,3100844,,,,,,,2024-05-21,1,,,,,イタダキ,0
1352,5060001037114,新規,0,2024-05-21,2024-05-21,株式会社ＪＳ工業,,株式会社,栃木県,那須塩原市,北二つ室３４８番地２０８,,09,213,3292734,,,,,,,2024-05-21,1,,,,,ジェイエスコウギョウ,0
1353,5060001037122,新規,0,2024-05-21,2024-05-21,Ｎｅｐｔｕｎｅ株式会社,,株式会社,栃木県,足利市,常見町３丁目１７番地１３,,09,202,3260022,,,,,,,2024-05-21,1,,,,,ネプチューン,0
1356,5070001041767,新規,0,2024-05-21,2024-05-21,ビバライズ株式会社,,株式会社,群馬県,館林市,美園町２１番６１号,,10,207,3740039,,,,,,,2024-05-21,1,,,,,ビバライズ,0
1361,5080403005006,新規,0,2024-05-21,2024-05-21,Ｉｍｐｅｒｉｏ　Ｍｏｔｏｒｓ合同会社,,合同会社,静岡県,浜松市中央区,河輪町６２５番地の１,,22,138,4300823,,,,,,,2024-05-21,1,,,,,インペリオモータース,0
1362,5080403005014,新規,0,2024-05-21,2024-05-21,合同会社ＺＥＲＯ　ＷＡＮＧ　ＫＲＥＡＴＩＯＮ,,合同会社,静岡県,掛川市,長谷２丁目２１番地の８－２０１,,22,213,4360047,,,,,,,2024-05-21,1,,,,,ゼロワンクリエーション,0
1365,5100001037464,新規,0,2024-05-21,2024-05-21,株式会社ＵＳＭＡＮ　ＴＲＡＤＩＮＧ,,株式会社,長野県,小県郡長和町,長久保２０４３番地５,,20,350,3860602,,,,,,,2024-05-21,1,,,,,ウスマントレーティング,0
1382,5120001265047,新規,0,2024-05-21,2024-05-21,株式会社奥野建設,,株式会社,大阪府,大阪市中央区,東心斎橋１丁目１９番１８号シンサイドビル３０２号,,27,128,5420083,,,,,,,2024-05-21,1,,,,,オクノケンセツ,0
1383,5120001265055,新規,0,2024-05-21,2024-05-21,株式会社ＩＣＨＩＪＯＹ,,株式会社,大阪府,大阪市北区,堂島２丁目２番２８号堂島アクシスビル４階ＳＹＮＴＨ,,27,127,5300003,,,,,,,2024-05-21,1,,,,,イチジョイ,0
1384,5120001265088,新規,0,2024-05-21,2024-05-21,株式会社Ｌｉｂｅｒｔｙ　ｃｉｒｃｌｅ,,株式会社,大阪府,大阪市中央区,南船場４丁目１０－１８ナサ・プライムハウス別館４階,,27,128,5420081,,,,,,,2024-05-21,1,,,,,リバティサークル,0
1385,5120001265096,新規,0,2024-05-21,2024-05-21,株式会社ＫＳＫ‐Ｋｎｏｔ,,株式会社,大阪府,大阪市西区,江戸堀１丁目１８番３５号,,27,106,5500002,,,,,,,2024-05-21,1,,,,,ケーエスケーノット,0
1386,5120001265121,新規,0,2024-05-21,2024-05-21,Ｌｕｍｉｅｒｅ株式会社,,株式会社,大阪府,大阪市城東区,今福東２丁目７番２６号泰平第１ビル２０７号,,27,118,5360002,,,,,,,2024-05-21,1,,,,,ルミエール,0
1387,5120001265146,新規,0,2024-05-21,2024-05-21,株式会社ＣＯＮＮＥＣＴ,,株式会社,大阪府,大阪市北区,堂山町１３番１号フレアコート梅田６１０号室,,27,127,5300027,,,,,,,2024-05-21,1,,,,,コネクト,0
1388,5120001265154,新規,0,2024-05-21,2024-05-21,衆誠金属株式会社,,株式会社,大阪府,大阪市生野区,林寺４丁目３番１５号２０１号室,,27,116,5440023,,,,,,,2024-05-21,1,,,,,シュウセイキンゾク,0
1389,5120001265162,新規,0,2024-05-21,2024-05-21,株式会社リベルテ,,株式会社,大阪府,門真市,舟田町２５－１２,,27,223,5710021,,,,,,,2024-05-21,1,,,,,リベルテ,0
1396,5120003026637,新規,0,2024-05-21,2024-05-21,湯川商事合同会社,,合同会社,大阪府,大阪市生野区,巽中３丁目８－２７,00134840,27,116,5440013,,,,,,,2024-05-21,1,,,,,ユカワショウジ,0
1397,5120003026645,新規,0,2024-05-21,2024-05-21,合同会社ＵＲＡＲＩ,,合同会社,大阪府,大阪市中央区,安土町１丁目４番９－２０２号,,27,128,5410052,,,,,,,2024-05-21,1,,,,,ウラリ,0
1400,5120101069595,新規,0,2024-05-21,2024-05-21,株式会社むらや,,株式会社,大阪府,羽曳野市,野２７６番地の１８,,27,222,5830884,,,,,,,2024-05-21,1,,,,,ムラヤ,0
1401,5120101069612,新規,0,2024-05-21,2024-05-21,株式会社大雅総建,,株式会社,大阪府,堺市北区,百舌鳥梅町１丁４１１番地,,27,146,5918032,,,,,,,2024-05-21,1,,,,,タイガソウケン,0
1402,5120101069620,新規,0,2024-05-21,2024-05-21,株式会社Ａｄａｐｔ,,株式会社,大阪府,堺市東区,日置荘原寺町７５番地３３,,27,143,5998112,,,,,,,2024-05-21,1,,,,,アダプト,0
1403,5120103005846,新規,0,2024-05-21,2024-05-21,合同会社Ｃｈｅｅｒｆｕｌ,,合同会社,大阪府,堺市東区,白鷺町３丁１１番１４号,,27,143,5998107,,,,,,,2024-05-21,1,,,,,チアフル,0
1405,5120901049202,新規,0,2024-05-21,2024-05-21,株式会社Ｈ＆Ｃ,,株式会社,大阪府,豊中市,東豊中町２丁目６番８５の１,,27,203,5600003,,,,,,,2024-05-21,1,,,,,エイチアンドシー,0
1408,5130001077094,新規,0,2024-05-21,2024-05-21,株式会社ＩＭＵ,,株式会社,京都府,京都市中京区,西洞院通六角下る池須町４２３番地２西洞院食彩ろぉじ六角の道ヨンの間,,26,104,6048216,,,,,,,2024-05-21,1,,,,,アイエムユー,0
1417,5140001134415,新規,0,2024-05-21,2024-05-21,株式会社ＡＩＨＡＴ,,株式会社,兵庫県,神戸市中央区,浪花町５６ＫｉＰ内,,28,110,6500035,,,,,,,2024-05-21,1,,,,,エーアイハット,0
1418,5140001134431,新規,0,2024-05-21,2024-05-21,ＫｉＤＵＫｉ株式会社,,株式会社,兵庫県,丹波篠山市,瀬利５９４番地１,,28,221,6692303,,,,,,,2024-05-21,1,,,,,キヅキ,0
1420,5140003020596,新規,0,2024-05-21,2024-05-21,クリニックよしだ虹色合同会社,,合同会社,兵庫県,朝来市,和田山町枚田岡１３９番地２,,28,225,6695215,,,,,,,2024-05-21,1,,,,,クリニックヨシダニジイロ,0
1425,5150001027295,新規,0,2024-05-21,2024-05-21,株式会社ｉＦｏｌｋ,,株式会社,奈良県,奈良市,北袋町３２番地の１－１０２号,,29,201,6308262,,,,,,,2024-05-21,1,,,,,アイフォーク,0
1428,5160001025934,新規,0,2024-05-21,2024-05-21,Ａｃｃｅｓｓ株式会社,,株式会社,滋賀県,大津市,玉野浦４番６９号,,25,201,5202142,,,,,,,2024-05-21,1,,,,,アクセス,0
1435,5180001161595,新規,0,2024-05-21,2024-05-21,株式会社Ｍ＆Ｒ,,株式会社,愛知県,小牧市,新町２丁目１番地,,23,219,4850013,,,,,,,2024-05-21,1,,,,,エムアンドアール,0
1444,5220001026018,新規,0,2024-05-21,2024-05-21,株式会社湊,,株式会社,石川県,輪島市,門前町黒島町ロの８１番地,,17,204,9272165,,,,,,,2024-05-21,1,,,,,ミナト,0
1461,5290001105822,新規,0,2024-05-21,2024-05-21,株式会社ＬＩＦＩＸ,,株式会社,福岡県,福岡市南区,清水１丁目３番８－９１０号,,40,134,8150031,,,,,,,2024-05-21,1,,,,,リフィックス,0
1462,5290001105839,新規,0,2024-05-21,2024-05-21,株式会社ＣＯＮＮＩＥ’Ｓ　ＧＡＲＤＥＮ,,株式会社,福岡県,福岡市中央区,天神４丁目６－２８天神ファーストビル７階,,40,133,8100001,,,,,,,2024-05-21,1,,,,,コニーズガーデン,0
1466,5290005019408,新規,0,2024-05-21,2024-05-21,ディーシー外国法事務弁護士法人,,その他の設立登記法人,福岡県,福岡市中央区,大名２丁目４－３８－１１０２チサンマンション天神ＩＩＩ,00134842,40,133,8100041,,,,,,,2024-05-21,1,,,,,ディーシー,0
1467,5300003002124,新規,0,2024-05-21,2024-05-21,鴻森合同会社,,合同会社,佐賀県,佐賀市,諸富町大字諸富津１０１番地１,,41,201,8402105,,,,,,,2024-05-21,1,,,,,ホンセン,0
1473,5330001031980,新規,0,2024-05-21,2024-05-21,株式会社サクラノート,,株式会社,熊本県,熊本市中央区,萩原町８―３７,,43,101,8600832,,,,,,,2024-05-21,1,,,,,サクラノート,0
1478,5380001034541,新規,0,2024-05-21,2024-05-21,株式会社ＹＷＥ,,株式会社,福島県,須賀川市,森宿字将監田１８６番地,,07,207,9620001,,,,,,,2024-05-21,1,,,,,ワイダブリューイー,0
1484,5410003003929,新規,0,2024-05-21,2024-05-21,サポートマックス合同会社,,合同会社,秋田県,秋田市,山王１丁目２番８号,,05,201,0100951,,,,,,,2024-05-21,1,,,,,サポートマックス,0
1492,5430003016350,新規,0,2024-05-21,2024-05-21,合同会社ｎｏｒｔｈＡｉｒ,,合同会社,北海道,札幌市北区,麻生町７丁目５番１０号アルファグレイシャス麻生３０４,,01,102,0010045,,,,,,,2024-05-21,1,,,,,ノースエアー,0
1493,5430003016359,新規,0,2024-05-21,2024-05-21,合同会社皎之島,,合同会社,北海道,札幌市西区,宮の沢三条３丁目９番７号エクセルＡハイツ２０３号,,01,107,0630053,,,,,,,2024-05-21,1,,,,,コウノトウ,0
1495,5450003002489,新規,0,2024-05-21,2024-05-21,地球を愛でる合同会社,,合同会社,北海道,上川郡美瑛町,寿町３丁目３番３４号セーフティ２０１号室,,01,459,0710209,,,,,,,2024-05-21,1,,,,,チキュウヲメデル,0
1497,5470001020202,新規,0,2024-05-21,2024-05-21,株式会社宮原工業,,株式会社,香川県,高松市,木太町４０１２番地１,,37,201,7600080,,,,,,,2024-05-21,1,,,,,ミヤハラコウギョウ,0
1499,5480001012470,新規,0,2024-05-21,2024-05-21,株式会社風土創研,,株式会社,徳島県,名西郡神山町,神領字北８８番４,,36,342,7713311,,,,,,,2024-05-21,1,,,,,フウドソウケン,0
1504,5700150122097,新規,0,2024-05-21,2023-11-14,千葉国際芸術祭実行委員会,,その他,千葉県,千葉市中央区,千葉港１－１,,12,101,2600026,,,,,,,2023-11-14,1,,,,,チバコクサイゲイジユツサイジツコウイインカイ,0
1505,5700150125240,新規,0,2024-05-21,2024-05-13,東京都電気工事工業組合町田地区本部,,その他,東京都,町田市,原町田２丁目９番２２号,,13,209,1940013,,,,,,,2024-05-13,1,,,,,トウキヨウトデンキコウジコウギヨウクミアイマチダチクホンブ,0
1517,6010001244837,新規,0,2024-05-21,2024-05-21,株式会社ＢＯＯＭ,,株式会社,東京都,中央区,銀座１丁目１２－４Ｎ＆ＥＢＬＤ６Ｆ,,13,102,1040061,,,,,,,2024-05-21,1,,,,,ブーム,0
1523,6010005038319,新規,0,2024-05-21,2024-05-21,厚木ＩＩＩデベロップメント特定目的会社,,その他の設立登記法人,東京都,千代田区,霞が関３丁目２番５号,,13,101,1000013,,,,,,,2024-05-21,1,,,,,アツギスリーデベロップメント,0
1524,6010005038327,新規,0,2024-05-21,2024-05-21,山佐産業ＢＡＷ３一般社団法人,,その他の設立登記法人,東京都,千代田区,丸の内３丁目１番１号東京共同会計事務所内,,13,101,1000005,,,,,,,2024-05-21,1,,,,,ヤマササンギョウビーエーダブリュースリー,0
1530,6010401182546,新規,0,2024-05-21,2024-05-21,株式会社ＧＭ　Ｓｏｐｈｉａ　Ｊａｐａｎ,,株式会社,東京都,港区,白金台３丁目１８番４号パークサイド白金ヒルズ３Ｆ,,13,103,1080071,,,,,,,2024-05-21,1,,,,,ジーエムソフィアジャパン,0
1531,6010401182579,新規,0,2024-05-21,2024-05-21,アシノ株式会社,,株式会社,東京都,港区,六本木１丁目６番１号泉ガーデンタワー,,13,103,1060032,,,,,,,2024-05-21,1,,,,,アシノ,0
1535,6010403032625,新規,0,2024-05-21,2024-05-21,アンバー国際投資合同会社,,合同会社,東京都,港区,赤坂２丁目１４－５ダイワ赤坂ビル７Ｆ,,13,103,1070052,,,,,,,2024-05-21,1,,,,,アンバーコクサイトウシ,0
1536,6010405023226,新規,0,2024-05-21,2024-05-21,一般社団法人ＧＥＮＣＯＵＲＡＧＥ,,その他の設立登記法人,東京都,港区,芝公園２丁目６番８号日本女子会館ビル５階,,13,103,1050011,,,,,,,2024-05-21,1,,,,,ジェンカウレッジ,0
1539,6010601065204,新規,0,2024-05-21,2024-05-21,株式会社Ｗｅ　Ｃａｒ　Ｊａｐａｎ,,株式会社,東京都,墨田区,千歳３丁目３番２０－２０２号岡田ビル,,13,107,1300025,,,,,,,2024-05-21,1,,,,,ウィーカージャパン,0
1540,6010601065212,新規,0,2024-05-21,2024-05-21,零和塾株式会社,,株式会社,東京都,江東区,大島３丁目１３－２０ＡＲＫＭＡＲＫ西大島６０６号室,,13,108,1360072,,,,,,,2024-05-21,1,,,,,レイワジュク,0
1541,6010601065229,新規,0,2024-05-21,2024-05-21,特斯拉株式会社,,株式会社,東京都,江東区,青海２丁目７番４号ＴＨＥＳＯＨＯ１２２５号室,,13,108,1350064,,,,,,,2024-05-21,1,,,,,テスラ,0
1546,6010701046021,新規,0,2024-05-21,2024-05-21,株式会社ＵＧＡ,,株式会社,東京都,品川区,北品川５丁目１４番８号,,13,109,1410001,,,,,,,2024-05-21,1,,,,,ユーガ,0
1547,6010703007186,新規,0,2024-05-21,2024-05-21,合同会社Ａｒｆｉｏｎ,,合同会社,東京都,品川区,南大井３丁目７番２－７０３号,,13,109,1400013,,,,,,,2024-05-21,1,,,,,アルフィオン,0
1548,6010801035056,新規,0,2024-05-21,2024-05-21,株式会社一益,,株式会社,東京都,大田区,田園調布２丁目５６番３号,,13,111,1450071,,,,,,,2024-05-21,1,,,,,ヒトマス,0
1549,6010801035064,新規,0,2024-05-21,2024-05-21,株式会社ａｉｍｅｅ,,株式会社,東京都,大田区,蒲田５丁目４６番１０号金親ビル２０１,,13,111,1440052,,,,,,,2024-05-21,1,,,,,エイミー,0
1555,6010901055318,新規,0,2024-05-21,2024-05-21,株式会社プルメリア,,株式会社,東京都,世田谷区,瀬田１丁目１６番７号フォルマ瀬田Ｂ－２,,13,112,1580095,,,,,,,2024-05-21,1,,,,,プルメリア,0
1561,6011001162021,新規,0,2024-05-21,2024-05-21,株式会社ＭＫドラゴンレインボー,,株式会社,東京都,渋谷区,恵比寿西２丁目８番４号ＥＸ恵比寿西ビル５階,,13,113,1500021,,,,,,,2024-05-21,1,,,,,エムケイドラゴンレインボー,0
1562,6011001162070,新規,0,2024-05-21,2024-05-21,株式会社ほほこれ,,株式会社,東京都,渋谷区,渋谷２丁目１９－１５宮益坂ビルディング６０９,,13,113,1500002,,,,,,,2024-05-21,1,,,,,,0
1563,6011001162079,新規,0,2024-05-21,2024-05-21,ＡＩＦｏｒｇｅ株式会社,,株式会社,東京都,渋谷区,松濤１丁目２９番２１号サンビューハイツ松濤３０２,,13,113,1500046,,,,,,,2024-05-21,1,,,,,エーアイフォージ,0
1564,6011001162104,新規,0,2024-05-21,2024-05-21,株式会社ＨＡＣＨＩＤＯＲＩ,,株式会社,東京都,目黒区,中目黒２丁目８－５,,13,110,1530061,,,,,,,2024-05-21,1,,,,,ハチドリ,0
1565,6011001162112,新規,0,2024-05-21,2024-05-21,株式会社薫,,株式会社,東京都,目黒区,下目黒１丁目１番１４号コノトラビル７Ｆ,,13,110,1530064,,,,,,,2024-05-21,1,,,,,カオル,0
1566,6011001162153,新規,0,2024-05-21,2024-05-21,株式会社晩餐会,,株式会社,東京都,渋谷区,神宮前６丁目２３－４桑野ビル２階,,13,113,1500001,,,,,,,2024-05-21,1,,,,,バンサンカイ,0
1569,6011005010507,新規,0,2024-05-21,2024-05-21,特定非営利活動法人ｍｉｏ　ｆｅｌｉｃｅ,,その他の設立登記法人,東京都,渋谷区,道玄坂１丁目１０番８号渋谷道玄坂東急ビル２Ｆ－Ｃ,,13,113,1500043,,,,,,,2024-05-21,1,,,,,ミオフェリーチェ,0
1582,6011105011041,新規,0,2024-05-21,2024-05-21,一般社団法人防衛施設強靱化推進協会,,その他の設立登記法人,東京都,新宿区,西新宿３丁目３番１３号西新宿水間ビル６階,,13,104,1600023,,,,,,,2024-05-21,1,,,,,ボウエイシセツキョウジンカスイシンキョウカイ,0
1583,6011203004384,新規,0,2024-05-21,2024-05-21,合同会社ＸＲ　Ｓｏｌｕｔｉｏｎｓ,,合同会社,東京都,中野区,東中野１丁目１２番２０号東中野コーポラス４０５号,,13,114,1640003,,,,,,,2024-05-21,1,,,,,エックスアールソリューションズ,0
1584,6011301029671,新規,0,2024-05-21,2024-05-21,株式会社ネオクラフト,,株式会社,東京都,杉並区,方南２丁目８番５号メゾン方南２０７,,13,115,1680062,,,,,,,2024-05-21,1,,,,,ネオクラフト,0
1589,6011801044253,新規,0,2024-05-21,2024-05-21,株式会社Ａｃｅ,,株式会社,東京都,足立区,谷在家３丁目２番１５－５０２号,,13,121,1230863,,,,,,,2024-05-21,1,,,,,エース,0
1596,6012401041888,新規,0,2024-05-21,2024-05-21,フタバマークＨＤ株式会社,,株式会社,東京都,調布市,佐須町１丁目６番地４,,13,208,1820016,,,,,,,2024-05-21,1,,,,,フタバマークエイチディー,0
1603,6013301052546,新規,0,2024-05-21,2024-05-21,ＳＥ‐ＮＥＴ．ｃｏ．ｊｐ株式会社,,株式会社,東京都,豊島区,要町１丁目２番２－３０２号,,13,116,1710043,,,,,,,2024-05-21,1,,,,,セネットドットシーオージェーピー,0
1610,6020001157352,新規,0,2024-05-21,2024-05-21,株式会社親明建設,,株式会社,神奈川県,横浜市西区,境之谷６７番地４－７０１,,14,103,2200054,,,,,,,2024-05-21,1,,,,,シンメイケンセツ,0
1613,6020003026159,新規,0,2024-05-21,2024-05-21,合同会社ＶＯＬＫ,,合同会社,神奈川県,川崎市川崎区,日進町２６番地３ＭＡＸＩＶ川崎ＤＵＥ４０２,,14,131,2100024,,,,,,,2024-05-21,1,,,,,フォルク,0
1616,6020005016422,新規,0,2024-05-21,2024-05-21,一般社団法人日本シュタイナー学校協会,,その他の設立登記法人,神奈川県,横浜市緑区,霧が丘３丁目１番２０号,,14,113,2260016,,,,,,,2024-05-21,1,,,,,ニホンシュタイナーガッコウキョウカイ,0
1627,6030001160405,新規,0,2024-05-21,2024-05-21,ＨＡＧＲＵＭＡ株式会社,,株式会社,埼玉県,和光市,南１丁目１番２５号,,11,229,3510104,,,,,,,2024-05-21,1,,,,,ハグルマ,0
1629,6030003024335,新規,0,2024-05-21,2024-05-21,合同会社エンデュランスビューティー,,合同会社,埼玉県,深谷市,畠山４３４－１,,11,218,3691107,,,,,,,2024-05-21,1,,,,,エンデュランスビューティー,0
1644,6060001037121,新規,0,2024-05-21,2024-05-21,株式会社エイチアールエス,,株式会社,栃木県,栃木市,都賀町家中４５１２,,09,203,3280111,,,,,,,2024-05-21,1,,,,,エイチアールエス,0
1646,6070003005422,新規,0,2024-05-21,2024-05-21,合同会社Ｓ．Ｄ．リネン,,合同会社,群馬県,前橋市,総社町３丁目１２番地５,,10,201,3710853,,,,,,,2024-05-21,1,,,,,エスディーリネン,0
1657,6080403005013,新規,0,2024-05-21,2024-05-21,ＫＣ　ＡＲＴ　ＤＥＳＩＧＮ合同会社,,合同会社,静岡県,浜松市中央区,大工町５３番地の３,,22,138,4300936,,,,,,,2024-05-21,1,,,,,ケーシーアートデザイン,0
1658,6090001018721,新規,0,2024-05-21,2024-05-21,芙蓉福祉サービス株式会社,,株式会社,山梨県,富士吉田市,下吉田５丁目１５番２９号,,19,202,4030004,,,,,,,2024-05-21,1,,,,,フヨウフクシサービス,0
1679,6120001264650,新規,0,2024-05-21,2024-05-21,東齊株式会社,,株式会社,大阪府,大阪市西区,靱本町３丁目１０－２４兆豊阿波座ビル４０１号室,,27,106,5500004,,,,,,,2024-05-21,1,,,,,トウセイ,0
1680,6120001265038,新規,0,2024-05-21,2024-05-21,株式会社スプリングス,,株式会社,大阪府,大阪市住吉区,山之内元町１８番１０号,,27,120,5580024,,,,,,,2024-05-21,1,,,,,スプリングス,0
1681,6120001265079,新規,0,2024-05-21,2024-05-21,Ｃ’ｅｓｔ　Ｌａ　Ｖｉｅ株式会社,,株式会社,大阪府,大阪市浪速区,恵美須西１丁目５番５－７０７号,,27,111,5560003,,,,,,,2024-05-21,1,,,,,セラヴィ,0
1682,6120001265087,新規,0,2024-05-21,2024-05-21,株式会社ＰＯＲＴＡＲ,,株式会社,大阪府,大阪市東住吉区,杭全７丁目２番６－９０１号,,27,121,5460002,,,,,,,2024-05-21,1,,,,,ポーター,0
1683,6120001265095,新規,0,2024-05-21,2024-05-21,Ｔｒｉｓｔｙ株式会社,,株式会社,大阪府,大阪市住吉区,帝塚山中３丁目３－１,,27,120,5580053,,,,,,,2024-05-21,1,,,,,トリスティ,0
1684,6120001265112,新規,0,2024-05-21,2024-05-21,株式会社ジオムアレンジメント,,株式会社,大阪府,大阪市中央区,南船場２丁目１１番２０号ＧＡＴＯ三休橋ビル３階東,,27,128,5420081,,,,,,,2024-05-21,1,,,,,ジオムアレンジメント,0
1685,6120001265120,新規,0,2024-05-21,2024-05-21,株式会社ＴｉａＬｙ,,株式会社,大阪府,大阪市中央区,南船場３丁目２番２２号おおきに南船場ビル２０５,,27,128,5420081,,,,,,,2024-05-21,1,,,,,ティアリー,0
1686,6120001265129,新規,0,2024-05-21,2024-05-21,株式会社Ｍ’ｓ　ｐｒｏｄｕｃｔ,,株式会社,大阪府,大阪市北区,与力町１番１８－５０２号,,27,127,5300036,,,,,,,2024-05-21,1,,,,,エムズプロダクト,0
1687,6120001265145,新規,0,2024-05-21,2024-05-21,株式会社無界,,株式会社,大阪府,大阪市西成区,松２丁目３番２０号,,27,122,5570034,,,,,,,2024-05-21,1,,,,,ムカイ,0
1688,6120001265186,新規,0,2024-05-21,2024-05-21,株式会社ＴＭＧ‐Ｐｌｕｓ,,株式会社,大阪府,大阪市中央区,谷町３丁目１番１１号,,27,128,5400012,,,,,,,2024-05-21,1,,,,,ティーエムジープラス,0
1689,6120003026628,新規,0,2024-05-21,2024-05-21,合同会社こころと福祉の相談室,,合同会社,大阪府,大阪市平野区,瓜破東８丁目３番２４－７０３号,,27,126,5470022,,,,,,,2024-05-21,1,,,,,ココロトフクシノソウダンシツ,0
1692,6120101069603,新規,0,2024-05-21,2024-05-21,すまいるランド株式会社,,株式会社,大阪府,堺市北区,長曽根町１３０番地２３堺商工会議所,,27,146,5918025,,,,,,,2024-05-21,1,,,,,スマイルランド,0
1697,6120105009860,新規,0,2024-05-21,2024-05-21,一般社団法人はねやすめ,,その他の設立登記法人,大阪府,羽曳野市,伊賀１丁目５番１６号,,27,222,5830876,,,,,,,2024-05-21,1,,,,,ハネヤスメ,0
1699,6120901049143,新規,0,2024-05-21,2024-05-21,株式会社ＭＩＺｏ,,株式会社,大阪府,豊中市,上新田４丁目８Ｂ―１０９,,27,203,5600085,,,,,,,2024-05-21,1,,,,,ミゾ,0
1700,6120903005185,新規,0,2024-05-21,2024-05-21,合同会社ＰＲＡＸ,,合同会社,大阪府,吹田市,佐竹台１丁目５番１０－３１３号,,27,205,5650855,,,,,,,2024-05-21,1,,,,,プラクス,0
1706,6130001077069,新規,0,2024-05-21,2024-05-21,福元株式会社,,株式会社,京都府,京都市右京区,西院清水町１４３番地１６,,26,108,6150052,,,,,,,2024-05-21,1,,,,,フクモト,0
1707,6130003009581,新規,0,2024-05-21,2024-05-21,合同会社ピカトニオ,,合同会社,京都府,京都市下京区,七条通油小路東入大黒町２２７番地第２キョートビル４０２,,26,106,6008223,,,,,,,2024-05-21,1,,,,,ピカトニオ,0
1708,6140001134364,新規,0,2024-05-21,2024-05-21,株式会社文光,,株式会社,兵庫県,神戸市中央区,二宮町１丁目１３番２１号宮西アパート２０１号室,,28,110,6510093,,,,,,,2024-05-21,1,,,,,ブンコウ,0
1709,6140001134430,新規,0,2024-05-21,2024-05-21,株式会社Ｌａｎｄｏｏｒ,,株式会社,兵庫県,丹波市,柏原町南多田１３７番地１,,28,223,6693301,,,,,,,2024-05-21,1,,,,,ランドア,0
1710,6140001134439,新規,0,2024-05-21,2024-05-21,株式会社丈和商店,,株式会社,兵庫県,朝来市,山東町新堂３５１番地,,28,225,6695111,,,,,,,2024-05-21,1,,,,,ジョウワショウテン,0
1711,6140001134447,新規,0,2024-05-21,2024-05-21,株式会社聡志電設,,株式会社,兵庫県,姫路市,仁豊野９４３番地２３５,,28,201,6700801,,,,,,,2024-05-21,1,,,,,ソウシデンセツ,0
1715,6150001027286,新規,0,2024-05-21,2024-05-21,株式会社ＰＲＯＳＴＥＲＮＩＴＹ　Ｈｏｌｄｉｎｇｓ,,株式会社,奈良県,北葛城郡王寺町,久度１丁目１３番６号,,29,425,6360003,,,,,,,2024-05-21,1,,,,,プロスタニティホールディングス,0
1716,6150001027294,新規,0,2024-05-21,2024-05-21,ＤＵＣ株式会社,,株式会社,奈良県,橿原市,中町２００番地の１０７,,29,205,6340009,,,,,,,2024-05-21,1,,,,,ディーユーシー,0
1717,6150003003252,新規,0,2024-05-21,2024-05-21,フライ合同会社,,合同会社,奈良県,吉野郡吉野町,大字平尾１３,,29,441,6393103,,,,,,,2024-05-21,1,,,,,フライ,0
1718,6160005011310,新規,0,2024-05-21,2024-05-21,一般社団法人Ｃｏｍｍｕｎｉｔｙ　Ｂｏｏｓｔ　Ｃｏｎｓｕｌｔｉｎｇ,,その他の設立登記法人,滋賀県,大津市,瀬田２丁目１１番３０号,,25,201,5202134,,,,,,,2024-05-21,1,,,,,コミュニティブーストコンサルティング,0
1733,6180001161561,新規,0,2024-05-21,2024-05-21,株式会社ブルースターチス,,株式会社,愛知県,名古屋市緑区,大高台３丁目１２０３番地,,23,114,4598003,,,,,,,2024-05-21,1,,,,,ブルースターチス,0
1744,6220001026017,新規,0,2024-05-21,2024-05-21,株式会社ＦＵＪＩＴＡ,,株式会社,石川県,小松市,大領中町２丁目３０２番地,,17,203,9230962,,,,,,,2024-05-21,1,,,,,フジタ,0
1746,6230003002205,新規,0,2024-05-21,2024-05-21,栢商事合同会社,,合同会社,富山県,高岡市,城東１丁目２番１４－５０２号アパガーデンシティ城東,,16,202,9330041,,,,,,,2024-05-21,1,,,,,カシワショウジ,0
1747,6230003002213,新規,0,2024-05-21,2024-05-21,合同会社イノベイション,,合同会社,富山県,小矢部市,岡５０番地２,,16,209,9320031,,,,,,,2024-05-21,1,,,,,イノベイション,0
1749,6240001063248,新規,0,2024-05-21,2024-05-21,株式会社勝和,,株式会社,広島県,福山市,山手町６丁目１５番１２号,,34,207,7200092,,,,,,,2024-05-21,1,,,,,ショウワ,0
1750,6240001063256,新規,0,2024-05-21,2024-05-21,株式会社大賀商事,,株式会社,広島県,広島市安佐北区,口田南１丁目２３番４号,,34,106,7391733,,,,,,,2024-05-21,1,,,,,ダイカショウジ,0
1759,6290001105458,新規,0,2024-05-21,2024-05-21,株式会社Ｓｕｎ　Ｈｉｇｈ　Ｈｏｌｄｉｎｇｓ,,株式会社,福岡県,大野城市,上大利４丁目１１－１－２０７,,40,219,8160955,,,,,,,2024-05-21,1,,,,,サンハイホールディングス,0
1760,6290001105805,新規,0,2024-05-21,2024-05-21,株式会社明成設備工業,,株式会社,福岡県,福岡市早良区,内野２丁目６番２６－２号,,40,137,8111123,,,,,,,2024-05-21,1,,,,,メイセイセツビコウギョウ,0
1761,6290001105821,新規,0,2024-05-21,2024-05-21,株式会社ＳＫＹＲＯＯＭ,,株式会社,福岡県,糟屋郡宇美町,宇美３丁目８番４２号,,40,341,8112101,,,,,,,2024-05-21,1,,,,,スカイルーム,0
1763,6290003015300,新規,0,2024-05-21,2024-05-21,合同会社Ｆｒｅｅ　ｌａｂｏ,,合同会社,福岡県,筑後市,大字熊野８２７番地４,,40,211,8330055,,,,,,,2024-05-21,1,,,,,フリーラボ,0
1768,6300003002123,新規,0,2024-05-21,2024-05-21,ＬＰｉ合同会社,,合同会社,佐賀県,佐賀市,川副町大字鹿江９５３,,41,201,8402213,,,,,,,2024-05-21,1,,,,,エルピーアイ,0
1772,6330001032078,新規,0,2024-05-21,2024-05-21,株式会社希龍興業,,株式会社,熊本県,八代郡氷川町,宮原栄久９番地２,,43,468,8694608,,,,,,,2024-05-21,1,,,,,キリュウコウギョウ,0
1775,6340001026509,新規,0,2024-05-21,2024-05-21,株式会社永真,,株式会社,鹿児島県,鹿児島市,中央町１番地１１三州ビル３Ｆ,,46,201,8900053,,,,,,,2024-05-21,1,,,,,エイシン,0
1776,6340001026517,新規,0,2024-05-21,2024-05-21,トラストレジャー株式会社,,株式会社,鹿児島県,鹿児島市,照国町１番１５号,,46,201,8920841,,,,,,,2024-05-21,1,,,,,トラストレジャー,0
1782,6360001033692,新規,0,2024-05-21,2024-05-21,株式会社眞住,,株式会社,沖縄県,那覇市,曙２丁目９番１３号４０６号室,,47,201,9000002,,,,,,,2024-05-21,1,,,,,マスミ,0
1784,6360003013940,新規,0,2024-05-21,2024-05-21,合同会社ＱＵＹＮＨ　ＡＮ,,合同会社,沖縄県,那覇市,辻１丁目６番２６号・１Ｆ,00134833,47,201,9000037,,,,,,,2024-05-21,1,,,,,クインアン,0
1795,6410001013838,新規,0,2024-05-21,2024-05-21,株式会社よつばと雅,,株式会社,秋田県,秋田市,飯島緑丘町１２番４９号,,05,201,0110915,,,,,,,2024-05-21,1,,,,,ヨツバトミヤビ,0
1796,6410003003928,新規,0,2024-05-21,2024-05-21,合同会社アステリ,,合同会社,秋田県,仙北郡美郷町,六郷字南矢口１１２番地２,,05,434,0191404,,,,,,,2024-05-21,1,,,,,アステリ,0
1802,6430001091824,新規,0,2024-05-21,2024-05-21,株式会社Ａ．Ｋ．Ｋ,,株式会社,北海道,札幌市厚別区,もみじ台西７丁目４番１１号,,01,108,0040013,,,,,,,2024-05-21,1,,,,,エーケーケー,0
1803,6430001091849,新規,0,2024-05-21,2024-05-21,株式会社大明越,,株式会社,北海道,札幌市北区,北十八条西５丁目１番７号,,01,102,0010018,,,,,,,2024-05-21,1,,,,,ダイメイエツ,0
1804,6430001091857,新規,0,2024-05-21,2024-05-21,株式会社ｙ’ｓエンター,,株式会社,北海道,札幌市中央区,北五条西１１丁目１４番地湯浅第２ビル２階,,01,101,0600005,,,,,,,2024-05-21,1,,,,,ワイズエンター,0
1816,6500001025642,新規,0,2024-05-21,2024-05-21,株式会社Ｙ’ｎ’Ｏ,,株式会社,愛媛県,西条市,朔日市７１番地３,,38,206,7930027,,,,,,,2024-05-21,1,,,,,ワイアンドオー,0
1819,6700150119118,新規,0,2024-05-21,2024-05-21,Ｚｈｏｎｇｓｈａｎｓｈｉｔｕｏｇｕｍａｏｙｉｙｏｕｘｉａｎｇｏｎｇｓｉ,,外国会社等,,,,,,,,ｄｏｎｇｑｕｚｈｏｎｇｓｈａｎｗｕｌｕｎａｎｈｏｎｇｙｅｄａｓｈａ１４０６ｚｈｉｓｉ　Ｚｈｏｎｇｓｈａｎｓｈｉ　Ｇｕａｎｇｄｏｎｇｓｈｅｎｇ,,,,,,2024-05-21,1,,,,,ジョンシャンシトゥオグゥマオイヨウシエンゴンス,0
1820,6700150119415,新規,0,2024-05-21,2024-05-21,ｓｈｅｎｚｈｅｎ　ＤＥＳＵＮＹＵＡＮ　Ｏｐｔｏｅｌｅｃｔｒｏｎｉｃｓ　Ｔｅｃｈｎｏｌｏｇｙ　ｃｏ．，,,外国会社等,,,,,,,,ｇｕａｎｇｄｏｎｇｓｈｅｎｇ　ｓｈｅｎｚｈｅｎｓｈｉ　ｂａｏａｎｑｕ　ｓｈｉｙａｎｊｉｅｄａｏ　ｌａｎｇｘｉｎｓｈｅｑｕｓｈｉｙａｎｊｉｅｄａｏｚｈｏｕｓｈｉｌｕ　ｗａｎｄａｇｏｎｇｙｅｑｕ　Ｇｄｏｎｇ　ｅｒ　ｃｅｎｇ,,,,,,2024-05-21,1,,,,,シェンジェンシドァシュヨンユエングワンディエンコァジヨウシエンゴンス,0
1827,7010001244836,新規,0,2024-05-21,2024-05-21,株式会社５１２,,株式会社,東京都,千代田区,東神田３丁目１番８号,,13,101,1010031,,,,,,,2024-05-21,1,,,,,ゴーイチニ,0
1828,7010001244927,新規,0,2024-05-21,2024-05-21,２４５株式会社,,株式会社,東京都,中央区,銀座３丁目１４番１７号５０１号室,,13,102,1040061,,,,,,,2024-05-21,1,,,,,ニヨンゴ,0
1829,7010001244984,新規,0,2024-05-21,2024-05-21,株式会社ＲＸ,,株式会社,東京都,千代田区,大手町１丁目３番１号,,13,101,1000004,,,,,,,2024-05-21,1,,,,,アールエックス,0
1844,7010401182520,新規,0,2024-05-21,2024-05-21,株式会社ＩＳＳＥＨＳ　Ｊａｐａｎ,,株式会社,東京都,港区,西新橋３丁目２４番８号山内ビル３Ｆ,,13,103,1050003,,,,,,,2024-05-21,1,,,,,アイエスエスイーエイチエスジャパン,0
1846,7010403032566,新規,0,2024-05-21,2024-05-21,合同会社ＡＰＤ,,合同会社,東京都,港区,南青山４丁目８番１５号,,13,103,1070062,,,,,,,2024-05-21,1,,,,,エーピーディー,0
1847,7010403032649,新規,0,2024-05-21,2024-05-21,合同会社ホヌ,,合同会社,東京都,港区,海岸１丁目６番１号ブリリアタワー浜離宮３０７号室,,13,103,1050022,,,,,,,2024-05-21,1,,,,,ホヌ,0
1848,7010403032665,新規,0,2024-05-21,2024-05-21,合同会社Ｔｙｐｈｏｏｎ,,合同会社,東京都,港区,虎ノ門３丁目２２番１０－２０１号,,13,103,1050001,,,,,,,2024-05-21,1,,,,,タイフーン,0
1852,7010503007451,新規,0,2024-05-21,2024-05-21,北村建設合同会社,,合同会社,東京都,台東区,浅草１丁目１５－３,,13,106,1110032,,,,,,,2024-05-21,1,,,,,キタムラケンセツ,0
1861,7010601065211,新規,0,2024-05-21,2024-05-21,株式会社ヒタムキ．,,株式会社,東京都,墨田区,江東橋４丁目２９－１３第２鈴勘ビル７０４,,13,107,1300022,,,,,,,2024-05-21,1,,,,,ヒタムキ,0
1862,7010601065228,新規,0,2024-05-21,2024-05-21,Ｍａｔｅｎｒｏ＆Ｃｏ．株式会社,,株式会社,東京都,墨田区,緑２丁目１５番１１－１３０２号ジェイパーク両国デュアルフォルム,,13,107,1300021,,,,,,,2024-05-21,1,,,,,マテンロウアンドカンパニー,0
1863,7010601065236,新規,0,2024-05-21,2024-05-21,盛栄株式会社,,株式会社,東京都,墨田区,立花６丁目１１－２１－２０４,,13,107,1310043,,,,,,,2024-05-21,1,,,,,セイエイ,0
1865,7010701046004,新規,0,2024-05-21,2024-05-21,株式会社Ｃａｔｎａｐｐｌｅ,,株式会社,東京都,品川区,北品川３丁目６番４８号,,13,109,1400001,,,,,,,2024-05-21,1,,,,,キャットナップル,0
1871,7010903009072,新規,0,2024-05-21,2024-05-21,合同会社にじいろのはし,,合同会社,東京都,世田谷区,瀬田１丁目１６番７号フォルマ瀬田Ｂ－２,,13,112,1580095,,,,,,,2024-05-21,1,,,,,ニジイロノハシ,0
1877,7011001161798,新規,0,2024-05-21,2024-05-21,株式会社ＨＡ‐ＬＵ,,株式会社,東京都,目黒区,青葉台３丁目１３－１１,,13,110,1530042,,,,,,,2024-05-21,1,,,,,ハル,0
1878,7011001161971,新規,0,2024-05-21,2024-05-21,株式会社Ｃｕｅ,,株式会社,東京都,渋谷区,千駄ヶ谷３丁目８番６号ＬＡＰｉＳ原宿Ｉ４０５,00134835,13,113,1510051,,,,,,,2024-05-21,1,,,,,キュウ,0
1879,7011001162144,新規,0,2024-05-21,2024-05-21,株式会社ＢＬＩＳＳ,,株式会社,東京都,渋谷区,神宮前６丁目２３番４号桑野ビル２階,,13,113,1500001,,,,,,,2024-05-21,1,,,,,ブリス,0
1880,7011001162169,新規,0,2024-05-21,2024-05-21,株式会社ｙｅｙ,,株式会社,東京都,目黒区,中町１丁目３６番３号,,13,110,1530065,,,,,,,2024-05-21,1,,,,,イエイ,0
1881,7011001162177,新規,0,2024-05-21,2024-05-21,株式会社ハミングアップ,,株式会社,東京都,渋谷区,南平台町９番１８－２０５号,,13,113,1500036,,,,,,,2024-05-21,1,,,,,ハミングアップ,0
1882,7011001162202,新規,0,2024-05-21,2024-05-21,スカンク株式会社,,株式会社,東京都,目黒区,目黒２丁目１１番３号,,13,110,1530063,,,,,,,2024-05-21,1,,,,,スカンク,0
1883,7011003019177,新規,0,2024-05-21,2024-05-21,キャピタル・インベストメント合同会社,,合同会社,東京都,目黒区,下目黒１丁目１番１４号コノトラビル７Ｆ,,13,110,1530064,,,,,,,2024-05-21,1,,,,,キャピタルインベストメント,0
1891,7011303005166,新規,0,2024-05-21,2024-05-21,ＳＰＩＮＳ合同会社,,合同会社,東京都,杉並区,成田西１丁目１４－８,,13,115,1660016,,,,,,,2024-05-21,1,,,,,スピンズ,0
1892,7011501030643,新規,0,2024-05-21,2024-05-21,株式会社和芸韻,,株式会社,東京都,荒川区,南千住６丁目３７－７－１４０５,,13,118,1160003,,,,,,,2024-05-21,1,,,,,アゲイン,0
1895,7011801044244,新規,0,2024-05-21,2024-05-21,株式会社織戸興業,,株式会社,東京都,足立区,千住元町３５番１－８０６号,,13,121,1200041,,,,,,,2024-05-21,1,,,,,オリトコウギョウ,0
1897,7012401041879,新規,0,2024-05-21,2024-05-21,株式会社Ｂｏｎｄ,,株式会社,東京都,武蔵野市,西久保３丁目１３番２４号,,13,203,1800013,,,,,,,2024-05-21,1,,,,,ボンド,0
1899,7012405004997,新規,0,2024-05-21,2024-05-21,一般社団法人そらにすむ,,その他の設立登記法人,東京都,三鷹市,新川３丁目１５番１１号,,13,204,1810004,,,,,,,2024-05-21,1,,,,,ソラニスム,0
1900,7012701018263,新規,0,2024-05-21,2024-05-21,株式会社ＦＭＭＫ,,株式会社,東京都,西東京市,柳沢５丁目１０番２号,,13,229,2020022,,,,,,,2024-05-21,1,,,,,エフエムエムケー,0
1904,7013301052553,新規,0,2024-05-21,2024-05-21,株式会社新興商事,,株式会社,東京都,豊島区,池袋３丁目１番１号,,13,116,1710014,,,,,,,2024-05-21,1,,,,,シンコウショウジ,0
1913,7020001157302,新規,0,2024-05-21,2024-05-21,株式会社ＴＨＥ　ＴＡＫＩＺＡＷＡ,,株式会社,神奈川県,川崎市川崎区,京町２丁目２０番４号,,14,131,2100848,,,,,,,2024-05-21,1,,,,,ザタキザワ,0
1914,7020001157319,新規,0,2024-05-21,2024-05-21,株式会社花のみおくり,,株式会社,神奈川県,川崎市多摩区,桝形四丁目６番３号,,14,135,2140000,,,,,,,2024-05-21,1,,,,,ハナノミオクリ,0
1915,7020001157351,新規,0,2024-05-21,2024-05-21,株式会社ＴＵＲＴＬＥ　ＲＩＳＥ,,株式会社,神奈川県,横浜市都筑区,北山田４丁目１番２７号ノール・グロワール１０４,,14,118,2240021,,,,,,,2024-05-21,1,,,,,タートルライズ,0
1917,7020003026133,新規,0,2024-05-21,2024-05-21,合同会社桜咲６５,,合同会社,神奈川県,横浜市西区,花咲町４丁目１０８番地ベイハイツ桜木町４０１号,,14,103,2200022,,,,,,,2024-05-21,1,,,,,サクラサクロクジュウゴ,0
1918,7020003026158,新規,0,2024-05-21,2024-05-21,大空合同会社,,合同会社,神奈川県,横浜市泉区,弥生台３３番地１グレーシアガーデン弥生台１１６号,,14,116,2450008,,,,,,,2024-05-21,1,,,,,オオゾラ,0
1919,7020003026166,新規,0,2024-05-21,2024-05-21,慶合同会社,,合同会社,神奈川県,横浜市西区,北幸２丁目１０番４８号むつみビル３階,,14,103,2200004,,,,,,,2024-05-21,1,,,,,ケイ,0
1922,7021001082283,新規,0,2024-05-21,2024-05-21,株式会社鯨島商事,,株式会社,神奈川県,横須賀市,汐入町５丁目５０番地,,14,201,2380042,,,,,,,2024-05-21,1,,,,,ゲイトウショウジ,0
1926,7021003014540,新規,0,2024-05-21,2024-05-21,合同会社ＳＪプランニング,,合同会社,神奈川県,相模原市中央区,清新８丁目１１番３号,,14,152,2520216,,,,,,,2024-05-21,1,,,,,エスジェイプランニング,0
1931,7030001160478,新規,0,2024-05-21,2024-05-21,株式会社いちろく,,株式会社,埼玉県,八潮市,大字二丁目１００７番地,,11,234,3400811,,,,,,,2024-05-21,1,,,,,イチロク,0
1932,7030001160494,新規,0,2024-05-21,2024-05-21,株式会社ＧＯＲＡＴＯＡメディアパートナーズ,,株式会社,埼玉県,本庄市,小島２丁目１６－３５,,11,211,3670061,,,,,,,2024-05-21,1,,,,,ゴラトアメディアパートナーズ,0
1939,7040001133689,新規,0,2024-05-21,2024-05-21,株式会社ＤＯＫ,,株式会社,千葉県,船橋市,中野木１丁目１０番１２号,,12,204,2740826,,,,,,,2024-05-21,1,,,,,ディーオーケー,0
1940,7040001133706,新規,0,2024-05-21,2024-05-21,カトー興産株式会社,,株式会社,千葉県,柏市,明原４丁目４－１１,,12,217,2770843,,,,,,,2024-05-21,1,,,,,カトーコウサン,0
1951,7050001054785,新規,0,2024-05-21,2024-05-21,株式会社パワーウエスト,,株式会社,茨城県,土浦市,小松１丁目７番１６号,,08,203,3000823,,,,,,,2024-05-21,1,,,,,パワーウエスト,0
1969,7100005013179,新規,0,2024-05-21,2024-05-21,土地家屋調査士法人久保事務所,,その他の設立登記法人,長野県,上田市,中央西２丁目３番１７号,,20,203,3860023,,,,,,,2024-05-21,1,,,,,クボジムショ,0
1978,7120001265045,新規,0,2024-05-21,2024-05-21,株式会社Ｒｅ．ｂｉｒｔｈ,,株式会社,大阪府,大阪市浪速区,塩草３丁目１２番１７－３０４号,,27,111,5560024,,,,,,,2024-05-21,1,,,,,リバース,0
1979,7120001265078,新規,0,2024-05-21,2024-05-21,株式会社ＬＯＴＵＳ,,株式会社,大阪府,枚方市,宮之阪４丁目２０番４号,,27,210,5730022,,,,,,,2024-05-21,1,,,,,ロータス,0
1980,7120001265103,新規,0,2024-05-21,2024-05-21,株式会社Ｉａｍ,,株式会社,大阪府,大阪市北区,梅田１丁目２番２号大阪駅前第２ビル１２－１２,,27,127,5300001,,,,,,,2024-05-21,1,,,,,アイアム,0
1981,7120001265136,新規,0,2024-05-21,2024-05-21,大栄商事株式会社,,株式会社,大阪府,大阪市西成区,花園北２丁目１８番２１号,,27,122,5570016,,,,,,,2024-05-21,1,,,,,ダイエイショウジ,0
1982,7120001265169,新規,0,2024-05-21,2024-05-21,露豊堂健康株式会社,,株式会社,大阪府,大阪市西成区,長橋３丁目６番１９号,,27,122,5570025,,,,,,,2024-05-21,1,,,,,ロホウドウケンコウ,0
1983,7120001265185,新規,0,2024-05-21,2024-05-21,株式会社情報発信センター,,株式会社,大阪府,大阪市大正区,三軒家東１丁目１７番９号５０１号室,,27,108,5510002,,,,,,,2024-05-21,1,,,,,ジョウホウハッシンセンター,0
1989,7120005024331,新規,0,2024-05-21,2024-05-21,一般社団法人ハッピートライアングル,,その他の設立登記法人,大阪府,大阪市淀川区,西中島１丁目９番２７号,,27,123,5320011,,,,,,,2024-05-21,1,,,,,ハッピートライアングル,0
1990,7120101069602,新規,0,2024-05-21,2024-05-21,株式会社甘佐造園・土木,,株式会社,大阪府,泉大津市,西港町６番１７号,,27,206,5950052,,,,,,,2024-05-21,1,,,,,アマサゾウエンドボク,0
1991,7120101069610,新規,0,2024-05-21,2024-05-21,株式会社Ｎ‐ＧＬＯＷ,,株式会社,大阪府,堺市中区,深井水池町３７４番地１パディーガーデン１０６号,,27,142,5998237,,,,,,,2024-05-21,1,,,,,エヌグロー,0
1992,7120103005836,新規,0,2024-05-21,2024-05-21,大溪商工合同会社,,合同会社,大阪府,岸和田市,天神山町２丁目９－６－２０４室,,27,202,5960834,,,,,,,2024-05-21,1,,,,,オオタニショウコウ,0
2000,7130003009580,新規,0,2024-05-21,2024-05-21,合同会社ＪａｍＪａｍ　Ｋｉｔｃｈｅｎ,,合同会社,京都府,京都市西京区,松尾東ノ口町２１－１６,,26,111,6158217,,,,,,,2024-05-21,1,,,,,ジャムジャムキッチン,0
2008,7140001134454,新規,0,2024-05-21,2024-05-21,株式会社宏佳,,株式会社,兵庫県,神戸市中央区,元町通１丁目１４番１８号,,28,110,6500022,,,,,,,2024-05-21,1,,,,,ヒロヨシ,0
2009,7140001134487,新規,0,2024-05-21,2024-05-21,Ｄエアシス株式会社,,株式会社,兵庫県,伊丹市,北伊丹６丁目３６番１号,,28,207,6640831,,,,,,,2024-05-21,1,,,,,ディエアシス,0
2010,7140001134495,新規,0,2024-05-21,2024-05-21,株式会社デイドリーム,,株式会社,兵庫県,神戸市垂水区,西舞子６丁目３番７０－５０４号,,28,108,6550048,,,,,,,2024-05-21,1,,,,,デイドリーム,0
2011,7140003020586,新規,0,2024-05-21,2024-05-21,ＳＩＳ合同会社,,合同会社,兵庫県,神戸市中央区,三宮町３丁目９番２０号,,28,110,6500021,,,,,,,2024-05-21,1,,,,,エスアイエス,0
2012,7150001027293,新規,0,2024-05-21,2024-05-21,飛鳥設備株式会社,,株式会社,奈良県,葛城市,當麻４９番地５,,29,211,6390276,,,,,,,2024-05-21,1,,,,,アスカセツビ,0
2013,7160003003192,新規,0,2024-05-21,2024-05-21,ｍａｖｉｅ合同会社,,合同会社,滋賀県,大津市,におの浜２丁目１番２８－１３０２号,,25,201,5200801,,,,,,,2024-05-21,1,,,,,マヴィ,0
2019,7180001161511,新規,0,2024-05-21,2024-05-21,株式会社かなえたる屋,,株式会社,愛知県,春日井市,牛山町２３９０番地７,,23,206,4860901,,,,,,,2024-05-21,1,,,,,カネエタルヤ,0
2020,7180001161560,新規,0,2024-05-21,2024-05-21,株式会社ガトーレオン,,株式会社,愛知県,知多郡阿久比町,大字萩字凸清水２８番地,,23,441,4702205,,,,,,,2024-05-21,1,,,,,ガトーレオン,0
2021,7180001161651,新規,0,2024-05-21,2024-05-21,株式会社Ｌ‐ｓｔａｇｅ,,株式会社,愛知県,名古屋市緑区,鳴海町字長田６１番地の１,,23,114,4580801,,,,,,,2024-05-21,1,,,,,エルステージ,0
2025,7180301038665,新規,0,2024-05-21,2024-05-21,株式会社ＳｔＳ,,株式会社,愛知県,知立市,長田１丁目３４番地,,23,225,4720035,,,,,,,2024-05-21,1,,,,,エスティーエス,0
2027,7190005011950,新規,0,2024-05-21,2024-05-21,一般社団法人恵那会,00134849,その他の設立登記法人,三重県,いなべ市,員弁町大泉新田４０番地１２,,24,214,5110217,,,,,,,2024-05-21,1,,,,,エナカイ,0
2031,7220001026016,新規,0,2024-05-21,2024-05-21,株式会社イチ・タス,,株式会社,石川県,能美市,大長野町１１４‐１,,17,211,9231115,,,,,,,2024-05-21,1,,,,,イチタス,0
2033,7220003003748,新規,0,2024-05-21,2024-05-21,合同会社ＴＫコーポレーション,,合同会社,石川県,加賀市,清水町イ４２番地,,17,206,9220315,,,,,,,2024-05-21,1,,,,,ティーケーコーポレーション,0
2035,7230003002212,新規,0,2024-05-21,2024-05-21,合同会社スプリング,,合同会社,富山県,富山市,太郎丸本町４丁目８番地５,,16,201,9398272,,,,,,,2024-05-21,1,,,,,スプリング,0
2036,7240001063255,新規,0,2024-05-21,2024-05-21,マイクロンメモリジャパンファシリティーズ株式会社,,株式会社,広島県,東広島市,吉川工業団地７番１０号,,34,212,7390153,,,,,,,2024-05-21,1,,,,,マイクロンメモリジャパンファシリティーズ,0
2048,7290005019406,新規,0,2024-05-21,2024-05-21,弁護士法人染矢修孝法律事務所,,その他の設立登記法人,福岡県,福岡市中央区,六本松４丁目１１－２５クロッシング２１００六本松Ｎｏ．４１－３０１,,40,133,8100044,,,,,,,2024-05-21,1,,,,,ソメヤノブタカホウリツジムショ,0
2057,7330001032077,新規,0,2024-05-21,2024-05-21,ＫＫＳ株式会社,,株式会社,熊本県,熊本市東区,榎町２４番地６１,,43,102,8620917,,,,,,,2024-05-21,1,,,,,ケイケイエス,0
2058,7330001032085,新規,0,2024-05-21,2024-05-21,Ｋ＆Ｎ株式会社,,株式会社,熊本県,熊本市南区,出仲間４丁目１０番３３号,,43,104,8620963,,,,,,,2024-05-21,1,,,,,ケイアンドエヌ,0
2066,7360001033700,新規,0,2024-05-21,2024-05-21,株式会社スタートアップ,,株式会社,沖縄県,糸満市,字阿波根１４０６番地１６１,,47,210,9010301,,,,,,,2024-05-21,1,,,,,スタートアップ,0
2067,7360001033709,新規,0,2024-05-21,2024-05-21,日本健歩株式会社,,株式会社,沖縄県,那覇市,松尾２丁目１０番２０号,,47,201,9000014,,,,,,,2024-05-21,1,,,,,ニホンケンポ,0
2069,7360003013997,新規,0,2024-05-21,2024-05-21,合同会社ＳＵＮエンジニア,,合同会社,沖縄県,那覇市,字宇栄原９７９番地４－５０１号,,47,201,9010153,,,,,,,2024-05-21,1,,,,,サンエンジニア,0
2072,7410001013837,新規,0,2024-05-21,2024-05-21,株式会社ＲＨプロデュース,,株式会社,秋田県,秋田市,飯島字平右衛門田尻２４７番地２,,05,201,0110911,,,,,,,2024-05-21,1,,,,,アールエイチプロデュース,0
2073,7420001018736,新規,0,2024-05-21,2024-05-21,株式会社仁蹄運輸,,株式会社,青森県,青森市,大字羽白字沢田５５７番地３,,02,201,0380058,,,,,,,2024-05-21,1,,,,,ジンテイウンユ,0
2080,7430001091864,新規,0,2024-05-21,2024-05-21,株式会社ＴｈｒｅｅＭ．,,株式会社,北海道,札幌市豊平区,西岡四条８丁目４番１０号,,01,105,0620034,,,,,,,2024-05-21,1,,,,,スリーエム,0
2083,7430003016332,新規,0,2024-05-21,2024-05-21,合同会社丸野屋,,合同会社,北海道,札幌市豊平区,美園八条２丁目４番６号,,01,105,0620008,,,,,,,2024-05-21,1,,,,,マルノヤ,0
2084,7430003016340,新規,0,2024-05-21,2024-05-21,合同会社サンライズ,,合同会社,北海道,札幌市北区,北十八条西４丁目２番２４－６０１号,,01,102,0010018,,,,,,,2024-05-21,1,,,,,サンライズ,0
2085,7430003016357,新規,0,2024-05-21,2024-05-21,Ｅａｇｌｅ　ｄｅｓｉｇｎ合同会社,,合同会社,北海道,恵庭市,駒場町５丁目３番７号,,01,231,0611417,,,,,,,2024-05-21,1,,,,,イーグルデザイン,0
2090,7470001020217,新規,0,2024-05-21,2024-05-21,小豆島リトリーツ株式会社,,株式会社,香川県,小豆郡小豆島町,堀越甲３６２番地,,37,324,7614423,,,,,,,2024-05-21,1,,,,,ショウドシマリトリーツ,0
2092,7500001025641,新規,0,2024-05-21,2024-05-21,株式会社プリムローズハウス,,株式会社,愛媛県,西条市,大町５７９番地９,,38,206,7930030,,,,,,,2024-05-21,1,,,,,プリムローズハウス,0
2094,7700150119100,新規,0,2024-05-21,2024-05-21,ＺＨＵＨＡＩＳＨＩＨＵＡＰＵＪＩＵＣＨＡＮＧＤＩＡＮＺＩＳＨＡＮＧＷＵＹＯＵＸＩＡＮＧＯＮＧＳＩ,,外国会社等,,,,,,,,ｇｕａｎｇ　ｄｏｎｇ　ｓｈｅｎｇ，ｚｈｕ　ｈａｉ　ｓｈｉ，ｇａｏ　ｘｉｎ　ｑｕ，ｔａｎｇ　ｊｉａ　ｗａｎ　ｚｈｅｎ　ｄａ　ｘｕｅ　ｌｕ　１０１　ｈａｏ　４　ｄｏｎｇ　３０１－５　ｓｈｉ,,,,,,2024-05-21,1,,,,,ジュウハイシホワプゥジウチャンディエンズシャンウヨウシエンゴンス,0
2095,7700150119133,新規,0,2024-05-21,2024-05-21,ｓｈｅｎｚｈｅｎｓｈｉｌｉｎｇｊｉａｎｋｅｊｉｙｏｕｘｉａｎｇｏｎｇｓｉ,,外国会社等,,,,,,,,ｇｕａｎｇｄｏｎｇｓｈｅｎｇｓｈｅｎｚｈｅｎｓｈｉｌｏｎｇｈｕａｑｕｌｏｎｇｈｕａｊｉｅｄａｏ　ｙｕｃｕｉｓｈｅｑｕｈｕａｙｕｎｌｕ１ｈａｏ　ｊｉｎｂｏｌｏｎｇｇｏｎｇｙｅｑｕｃｈａｎｇｆａｎｇＡ２ｃｅｎｇ２１０Ｅ,,,,,,2024-05-21,1,,,,,シンセンリードエッジテクノロジーユウゲンゴウシ,0
2096,7700150119414,新規,0,2024-05-21,2024-05-21,ｓｈｅｎ　ｚｈｅｎ　ｓｈｉ　ａｎ　ｔｉａｎ　ｍａｏ　ｙｉ　ｙｏｕ　ｘｉａｎ　ｇｏｎｇ　ｓｉ,,外国会社等,,,,,,,,Ｂａｏａｎ　ｘｉｎａｎｊｉｅ　ａｎｌｅｓｈｅｑｕ　３８ｑｕ　ａｎｌｅｈｕａｙｕａｎ　４７ｈａｏ４０３　ｓｈｅｎｚｈｅｎ　ｇｕａｎｇｄｏｎｇ,,,,,,2024-05-21,1,,,,,シェンジェンシアンティエンマオイヨウシエンゴンス,0
2097,7700150125197,新規,0,2024-05-21,2024-05-09,ひょうご地域活性化雇用創造プロジェクト推進協議会,,その他,兵庫県,神戸市中央区,下山手通５丁目１０－１兵庫県地域経済課内,,28,110,6500011,,,,,,,2024-05-09,1,,,,,ヒヨウゴチイキカツセイカコヨウソウゾウプロジエクトスイシンキヨウギカイ,0
2098,7700150125478,新規,0,2024-05-21,2024-05-21,Ｇｒｅａｔ　Ｖｉｅｗ　Ｌｉｍｉｔｅｄ,,外国会社等,,,,,,,,Ｒｏｏｍ　６０４－７，Ｄｏｍｉｎｉｏｎ　Ｃｅｎｔｅｒ，４３－５９　Ｑｕｅｅｎｓ　Ｒｏａｄ　Ｅａｓｔ，Ｈｏｎｇ　Ｋｏｎｇ,,,,,,2024-05-21,1,,,,,グレートビユーリミテツド,0
2108,8010001244538,新規,0,2024-05-21,2024-05-21,株式会社ＡＶＡＩＬ,,株式会社,東京都,中央区,晴海５丁目６番２号,,13,102,1040053,,,,,,,2024-05-21,1,,,,,アヴァイル,0
2109,8010001244901,新規,0,2024-05-21,2024-05-21,株式会社ＳＳＲメディカルサービス,,株式会社,東京都,千代田区,外神田４丁目１２番１１,,13,101,1010021,,,,,,,2024-05-21,1,,,,,エスエスアールメディカルサービス,0
2110,8010001244918,新規,0,2024-05-21,2024-05-21,株式会社ＳＳｂｏｏｋｉｎｇ,,株式会社,東京都,中央区,日本橋小舟町９－３,,13,102,1030024,,,,,,,2024-05-21,1,,,,,エスエスブッキング,0
2111,8010001244942,新規,0,2024-05-21,2024-05-21,株式会社リュー,,株式会社,東京都,中央区,入船２丁目２番１０－２０２号,,13,102,1040042,,,,,,,2024-05-21,1,,,,,リュー,0
2112,8010001245008,新規,0,2024-05-21,2024-05-21,株式会社ＪＯＹ,,株式会社,東京都,中央区,銀座８丁目３番１１号,,13,102,1040061,,,,,,,2024-05-21,1,,,,,ジョイ,0
2115,8010101016151,新規,0,2024-05-21,2024-05-21,株式会社長久,,株式会社,東京都,八王子市,川口町２５３４番地２９,,13,201,1930801,,,,,,,2024-05-21,1,,,,,チョウキュウ,0
2116,8010401182544,新規,0,2024-05-21,2024-05-21,株式会社翌桧地所,,株式会社,東京都,港区,南青山２丁目２番１５号,,13,103,1070062,,,,,,,2024-05-21,1,,,,,アスナロジショ,0
2117,8010401182560,新規,0,2024-05-21,2024-05-21,株式会社クリーンヒット,,株式会社,東京都,港区,六本木３丁目７番１号,,13,103,1060032,,,,,,,2024-05-21,1,,,,,クリーンヒット,0
2118,8010403032623,新規,0,2024-05-21,2024-05-21,ＲＣ合同会社,,合同会社,東京都,港区,六本木７丁目４番８号ＴＫＧビルＢ１,,13,103,1060032,,,,,,,2024-05-21,1,,,,,アールシー,0
2119,8010403032648,新規,0,2024-05-21,2024-05-21,合同会社ＮＥＸＴ　ＵＰ,,合同会社,東京都,港区,南青山２丁目２番１５号,,13,103,1070062,,,,,,,2024-05-21,1,,,,,ネクストアップ,0
2120,8010403032664,新規,0,2024-05-21,2024-05-21,合同会社Ｂｅｎ　Ｂｒｕｓｈ,,合同会社,東京都,港区,虎ノ門３丁目２２番１０－２０１号,,13,103,1050001,,,,,,,2024-05-21,1,,,,,ベンブラッシュ,0
2121,8010501052300,新規,0,2024-05-21,2024-05-21,ＮＥＢＵＬＡ　ＴＯＹＳ株式会社,,株式会社,東京都,台東区,下谷３丁目１番２４号（８１７号室）,,13,106,1100004,,,,,,,2024-05-21,1,,,,,ネブラトイズ,0
2122,8010503007450,新規,0,2024-05-21,2024-05-21,合同会社アートメディア,,合同会社,東京都,台東区,台東１丁目２０－１０－５０２,,13,106,1100016,,,,,,,2024-05-21,1,,,,,アートメディア,0
2125,8010701045979,新規,0,2024-05-21,2024-05-21,コエウリ株式会社,,株式会社,東京都,品川区,西五反田８丁目８－１５カーニープレイス五反田６Ｆ,,13,109,1410031,,,,,,,2024-05-21,1,,,,,コエウリ,0
2126,8010701046011,新規,0,2024-05-21,2024-05-21,Ｌｉｂｅｒｔｅ株式会社,,株式会社,東京都,品川区,西五反田８丁目１０番１４－２０３号,,13,109,1410031,,,,,,,2024-05-21,1,,,,,リベルテ,0
2128,8010801035070,新規,0,2024-05-21,2024-05-21,Ｐ．ａ．Ｔ株式会社,,株式会社,東京都,大田区,東矢口２丁目１５番１９号小嶋ビル２Ｆ,,13,111,1460094,,,,,,,2024-05-21,1,,,,,ピーエーティー,0
2133,8010901055299,新規,0,2024-05-21,2024-05-21,ＯｄｙｓｓｅｙＡＩ株式会社,,株式会社,東京都,世田谷区,等々力７丁目２３番１８号,,13,112,1580082,,,,,,,2024-05-21,1,,,,,オデッセイエーアイ,0
2134,8010901055316,新規,0,2024-05-21,2024-05-21,株式会社ＣＨＵ,,株式会社,東京都,世田谷区,用賀３丁目８番２０－３０９号,,13,112,1580097,,,,,,,2024-05-21,1,,,,,シーエイチユー,0
2139,8011001161847,新規,0,2024-05-21,2024-05-21,株式会社ナショナル・フオート,,株式会社,東京都,渋谷区,神宮前６丁目１３番２号,,13,113,1500001,,,,,,,2024-05-21,1,,,,,ナショナルフオート,0
2140,8011001161905,新規,0,2024-05-21,2024-05-21,株式会社Ｗａａｌｓｆｏｒｃｅ,,株式会社,東京都,渋谷区,道玄坂１丁目１０番８号渋谷道玄坂東急ビル２Ｆ－Ｃ,,13,113,1500043,,,,,,,2024-05-21,1,,,,,ワールスフォース,0
2141,8011001161995,新規,0,2024-05-21,2024-05-21,ＳＩＹＡ　ＰＬＵＳ株式会社,,株式会社,東京都,渋谷区,渋谷２丁目１９－１５宮益坂ビルディング６０９,,13,113,1500002,,,,,,,2024-05-21,1,,,,,シヤプラス,0
2142,8011001162003,新規,0,2024-05-21,2024-05-21,株式会社Ｏｎｅ　ｆａｍｉｌｙ,,株式会社,東京都,渋谷区,円山町５番５号Ｎａｖｉ渋谷Ｖ３階,,13,113,1500044,,,,,,,2024-05-21,1,,,,,ワンファミリー,0
2143,8011001162028,新規,0,2024-05-21,2024-05-21,ＣＨＯＣＫＹ株式会社,,株式会社,東京都,渋谷区,恵比寿西２丁目４番８号ウィンド恵比寿ビル８Ｆ,,13,113,1500021,,,,,,,2024-05-21,1,,,,,チョッキー,0
2144,8011001162110,新規,0,2024-05-21,2024-05-21,株式会社Ｆｅｕｘ,,株式会社,東京都,渋谷区,富ヶ谷２丁目８番２号,,13,113,1510063,,,,,,,2024-05-21,1,,,,,フィウ,0
2145,8011001162184,新規,0,2024-05-21,2024-05-21,株式会社レーヴェ・ミュース,,株式会社,東京都,渋谷区,広尾１丁目１０番６号,,13,113,1500012,,,,,,,2024-05-21,1,,,,,レーヴェミュース,0
2146,8011003019176,新規,0,2024-05-21,2024-05-21,合同会社ＬＣ,,合同会社,東京都,渋谷区,幡ヶ谷２丁目７番９号酒井ビル２階Ａ号室,,13,113,1510072,,,,,,,2024-05-21,1,,,,,エルシー,0
2147,8011003019192,新規,0,2024-05-21,2024-05-21,合同会社ＫＭＤ,,合同会社,東京都,渋谷区,恵比寿南２丁目１７番３号,,13,113,1500022,,,,,,,2024-05-21,1,,,,,ケイエムディー,0
2154,8011301029653,新規,0,2024-05-21,2024-05-21,株式会社フリーダ,,株式会社,東京都,杉並区,松庵２丁目１４番１５号星和西荻窪ハイツ２０１号,,13,115,1670054,,,,,,,2024-05-21,1,,,,,フリーダ,0
2162,8012403006573,新規,0,2024-05-21,2024-05-21,合同会社Ｓｏｌｅ,,合同会社,東京都,狛江市,中和泉５丁目１０番６号,,13,219,2010012,,,,,,,2024-05-21,1,,,,,ソーレ,0
2164,8012801023187,新規,0,2024-05-21,2024-05-21,Ｏ‐Ｔｅｃｈ株式会社,,株式会社,東京都,東大和市,奈良橋４丁目６４８,,13,220,2070031,,,,,,,2024-05-21,1,,,,,オーテック,0
2170,8013301052528,新規,0,2024-05-21,2024-05-21,晨希株式会社,,株式会社,東京都,豊島区,北大塚２丁目２９番１号,,13,116,1700004,,,,,,,2024-05-21,1,,,,,シンキ,0
2171,8013301052544,新規,0,2024-05-21,2024-05-21,株式会社ＡＺＡＬＥＡ＆ＣＯＳＭＯ,,株式会社,東京都,豊島区,南池袋３丁目２４番１５号Ｗｉｓｅビル４階,,13,116,1710022,,,,,,,2024-05-21,1,,,,,アザリアコスモ,0
2182,8020001157235,新規,0,2024-05-21,2024-05-21,株式会社ＬＹグループ,,株式会社,神奈川県,川崎市宮前区,菅生６丁目１９番２４－１号,,14,136,2160015,,,,,,,2024-05-21,1,,,,,エルワイグループ,0
2183,8020001157301,新規,0,2024-05-21,2024-05-21,株式会社Ａｌｍｏｎｄａｙｓ,,株式会社,神奈川県,横浜市西区,浅間町１丁目４番３号ウィザードビル４０２,,14,103,2200072,,,,,,,2024-05-21,1,,,,,アーモンデイズ,0
2184,8020001157318,新規,0,2024-05-21,2024-05-21,株式会社ＬＡＫＩ,,株式会社,神奈川県,横浜市磯子区,汐見台２丁目９番地５レーベンハイム横浜汐見台ザ・テラス５０８号,,14,107,2350022,,,,,,,2024-05-21,1,,,,,ラキ,0
2185,8020001157342,新規,0,2024-05-21,2024-05-21,株式会社ＹＭウェルネス,,株式会社,神奈川県,横浜市西区,浅間町１丁目４番地３ウィザードビル４０２,,14,103,2200072,,,,,,,2024-05-21,1,,,,,ワイエムウェルネス,0
2187,8020003026132,新規,0,2024-05-21,2024-05-21,希合同会社,,合同会社,神奈川県,横浜市青葉区,大場町３８６番地７,,14,117,2250023,,,,,,,2024-05-21,1,,,,,ノゾミ,0
2197,8030001160295,新規,0,2024-05-21,2024-05-21,株式会社ＬＥＦＡ,,株式会社,埼玉県,日高市,大字原宿１１１番地２,,11,242,3501205,,,,,,,2024-05-21,1,,,,,リファ,0
2198,8030001160444,新規,0,2024-05-21,2024-05-21,石也株式会社,,株式会社,埼玉県,本庄市,児玉町小平１２１７番地５,,11,211,3670214,,,,,,,2024-05-21,1,,,,,イシナリ,0
2211,8040001133647,新規,0,2024-05-21,2024-05-21,株式会社久五郎,,株式会社,千葉県,習志野市,谷津２丁目２０番２８号,,12,216,2750026,,,,,,,2024-05-21,1,,,,,キュウゴロウ,0
2212,8040001133671,新規,0,2024-05-21,2024-05-21,株式会社花建工業,,株式会社,千葉県,長生郡白子町,古所５４２１番地４,,12,424,2994212,,,,,,,2024-05-21,1,,,,,ハナケンコウギョウ,0
2213,8040001133688,新規,0,2024-05-21,2024-05-21,株式会社マウミッタ,,株式会社,千葉県,成田市,御所の内８番地１１,,12,211,2860137,,,,,,,2024-05-21,1,,,,,マウミッタ,0
2214,8040003025017,新規,0,2024-05-21,2024-05-21,合同会社かなえる,,合同会社,千葉県,千葉市花見川区,長作町２０５１番地,,12,102,2620044,,,,,,,2024-05-21,1,,,,,カナエル,0
2215,8050001054784,新規,0,2024-05-21,2024-05-21,株式会社ＫＧＳ,,株式会社,茨城県,東茨城郡茨城町,大字野曽９８９番地１,,08,302,3113103,,,,,,,2024-05-21,1,,,,,ケージーエス,0
2218,8060001037111,新規,0,2024-05-21,2024-05-21,あいる電業株式会社,,株式会社,栃木県,小山市,大字土塔２５０番地２７,,09,208,3230812,,,,,,,2024-05-21,1,,,,,アイルデンギョウ,0
2226,8080003003209,新規,0,2024-05-21,2024-05-21,合同会社テトテ,,合同会社,静岡県,静岡市清水区,月見町６－１８コーポウチコシＡ１０１,,22,103,4240853,,,,,,,2024-05-21,1,,,,,テトテ,0
2232,8090001018728,新規,0,2024-05-21,2024-05-21,ハイボルテージジャーニー株式会社,,株式会社,山梨県,北杜市,明野町上手７０７９番地,,19,209,4080204,,,,,,,2024-05-21,1,,,,,ハイボルテージジャーニー,0
2233,8100001037461,新規,0,2024-05-21,2024-05-21,株式会社若林電工,,株式会社,長野県,茅野市,ちの３０７５番地,,20,214,3910001,,,,,,,2024-05-21,1,,,,,ワカバヤシデンコウ,0
2236,8100003007553,新規,0,2024-05-21,2024-05-21,合同会社酒井,,合同会社,長野県,中野市,大字草間１６４９番地４,,20,211,3830053,,,,,,,2024-05-21,1,,,,,サカイ,0
2255,8120001265044,新規,0,2024-05-21,2024-05-21,江戸堀建設株式会社,,株式会社,大阪府,大阪市西区,江戸堀１丁目１７番１４号,,27,106,5500002,,,,,,,2024-05-21,1,,,,,エドボリケンセツ,0
2256,8120001265119,新規,0,2024-05-21,2024-05-21,株式会社リラベーション,,株式会社,大阪府,枚方市,東中振１丁目２０番１５－４１０号,,27,210,5730093,,,,,,,2024-05-21,1,,,,,リラベーション,0
2266,8120003026634,新規,0,2024-05-21,2024-05-21,合同会社リ・スタート,,合同会社,大阪府,大阪市東淀川区,大道南３丁目１４番１８号セントラルヴィレッジＩＩ３０１号,00134852,27,114,5330012,,,,,,,2024-05-21,1,,,,,リスタート,0
2267,8120003026642,新規,0,2024-05-21,2024-05-21,合同会社ＭＴＭ,,合同会社,大阪府,大阪市北区,大淀南２丁目２－９－３０９,,27,127,5310075,,,,,,,2024-05-21,1,,,,,エムティーエム,0
2270,8120101069601,新規,0,2024-05-21,2024-05-21,Ｋ‐ファクトリー株式会社,,株式会社,大阪府,堺市堺区,九間町西２丁２番２７号ＧＥトワ１Ｆ－Ａ,,27,141,5900939,,,,,,,2024-05-21,1,,,,,ケーファクトリー,0
2271,8120103005843,新規,0,2024-05-21,2024-05-21,泉州つながりネット合同会社,,合同会社,大阪府,阪南市,鳥取中１２６番地の１,,27,232,5990211,,,,,,,2024-05-21,1,,,,,センシュウツナガリネット,0
2272,8120103005851,新規,0,2024-05-21,2024-05-21,合同会社Ａ．Ｃ．Ｅ．,,合同会社,大阪府,岸和田市,下池田町１丁目７番７－１０１号,,27,202,5960811,,,,,,,2024-05-21,1,,,,,エース,0
2285,8140001134478,新規,0,2024-05-21,2024-05-21,株式会社ＳＢＤリサーチ＆コンサルティング,,株式会社,兵庫県,伊丹市,平松５丁目２－２４－１０５,,28,207,6640853,,,,,,,2024-05-21,1,,,,,エスビーディーリサーチアンドコンサルティング,0
2286,8140001134511,新規,0,2024-05-21,2024-05-21,株式会社ライアン,,株式会社,兵庫県,宝塚市,月見山１丁目１３番２５号,,28,214,6650002,,,,,,,2024-05-21,1,,,,,ライアン,0
2297,8180001161527,新規,0,2024-05-21,2024-05-21,ＧＲＥｅＮ　ＴＥＣＨ株式会社,,株式会社,愛知県,愛西市,早尾町新田３０番地２,,23,232,4960931,,,,,,,2024-05-21,1,,,,,グリーンテック,0
2298,8180001161592,新規,0,2024-05-21,2024-05-21,株式会社弘心設備,,株式会社,愛知県,尾張旭市,長坂町南山２８７４番地１５１,,23,226,4880821,,,,,,,2024-05-21,1,,,,,コウシンセツビ,0
2305,8180003026793,新規,0,2024-05-21,2024-05-21,ＳＴＰ合同会社,,合同会社,愛知県,名古屋市中村区,椿町１３番地１６号サン・オフィス名駅新幹線口９０２号,,23,105,4530015,,,,,,,2024-05-21,1,,,,,エスティーピー,0
2312,8220001026007,新規,0,2024-05-21,2024-05-21,丸頭製作所株式会社,,株式会社,石川県,金沢市,此花町５番６号ライフ金沢第１ビル６０１Ａ,,17,201,9200852,,,,,,,2024-05-21,1,,,,,マルアタマセイサクジョ,0
2313,8220001026015,新規,0,2024-05-21,2024-05-21,スマート不動産株式会社,,株式会社,石川県,金沢市,泉野町３丁目１４番３０号,,17,201,9218034,,,,,,,2024-05-21,1,,,,,スマートフドウサン,0
2314,8220003003755,新規,0,2024-05-21,2024-05-21,合同会社Ｂｒｅａｋ　ｔｈｒｏｕｇｈ,,合同会社,石川県,輪島市,深見町９６字３番地,,17,204,9280007,,,,,,,2024-05-21,1,,,,,ブレイクスルー,0
2319,8240001063254,新規,0,2024-05-21,2024-05-21,株式会社ＳＹＵＲＥＩ,,株式会社,広島県,福山市,新涯町２丁目９番１８号,,34,207,7210955,,,,,,,2024-05-21,1,,,,,シュウレイ,0
2328,8290001105786,新規,0,2024-05-21,2024-05-21,株式会社エムシー,,株式会社,福岡県,福岡市早良区,東入部３丁目２－１２熊本ビル２階,,40,137,8111102,,,,,,,2024-05-21,1,,,,,エムシー,0
2329,8290001105828,新規,0,2024-05-21,2024-05-21,株式会社アールライド,,株式会社,福岡県,福岡市博多区,東平尾２丁目１３番３１号,,40,132,8120853,,,,,,,2024-05-21,1,,,,,アールライド,0
2335,8290005019413,新規,0,2024-05-21,2024-05-21,志礎社会保険労務士法人,,その他の設立登記法人,福岡県,久留米市,天神町１番地６,,40,203,8300033,,,,,,,2024-05-21,1,,,,,シソ,0
2348,8340003004452,新規,0,2024-05-21,2024-05-21,ＴＲＡＳ合同会社,,合同会社,鹿児島県,鹿児島市,吉野町６０７７－７９,,46,201,8920871,,,,,,,2024-05-21,1,,,,,トラス,0
2355,8360001033682,新規,0,2024-05-21,2024-05-21,株式会社ＮＩＰＰＯＮ５感育協会,,株式会社,沖縄県,宜野湾市,神山１丁目１８番２号,,47,205,9012207,,,,,,,2024-05-21,1,,,,,ニッポンゴカンイクキョウカイ,0
2357,8360003013996,新規,0,2024-05-21,2024-05-21,合同会社ｌｕｃｋ,,合同会社,沖縄県,浦添市,牧港２丁目５０番３－１３０４号プレサンスロジェ牧港レーヴタワー,,47,208,9012131,,,,,,,2024-05-21,1,,,,,ラック,0
2358,8360005007039,新規,0,2024-05-21,2024-05-21,一般社団法人沖縄ＳＤＧｓ社会実装協会,,その他の設立登記法人,沖縄県,豊見城市,字豊崎３－５９トヨプラ内,,47,212,9010225,,,,,,,2024-05-21,1,,,,,オキナワエスディージーズシャカイジッソウキョウカイ,0
2359,8370001051304,新規,0,2024-05-21,2024-05-21,株式会社ネクスフェイズテック,,株式会社,宮城県,宮城郡利府町,青葉台３丁目１‐１７４,,04,406,9810133,,,,,,,2024-05-21,1,,,,,ネクスフェイズテック,0
2360,8370001051312,新規,0,2024-05-21,2024-05-21,ＧＲＧ　ＡＩＲ株式会社,,株式会社,宮城県,仙台市青葉区,国分町２丁目８番１４号,,04,101,9800803,,,,,,,2024-05-21,1,,,,,ジーアールジーエァー,0
2370,8390003002245,新規,0,2024-05-21,2024-05-21,ママキッチン合同会社,,合同会社,山形県,米沢市,城北２丁目１番５２号,,06,202,9920051,,,,,,,2024-05-21,1,,,,,ママキッチン,0
2371,8400003003274,新規,0,2024-05-21,2024-05-21,合同会社ＳＥＶＥＮ,,合同会社,岩手県,盛岡市,緑が丘３丁目２３番３６号アップルハウス陽光１０１号,,03,201,0200117,,,,,,,2024-05-21,1,,,,,セブン,0
2381,8430003016356,新規,0,2024-05-21,2024-05-21,合同会社プラチナ,,合同会社,北海道,札幌市中央区,南九条西５丁目１番５－２０２号,,01,101,0640809,,,,,,,2024-05-21,1,,,,,プラチナ,0
2386,8480003002129,新規,0,2024-05-21,2024-05-21,おひさまぽかぽか合同会社,,合同会社,徳島県,徳島市,沖浜東３丁目６０番地アルファステイツ沖浜１３０１,,36,201,7708053,,,,,,,2024-05-21,1,,,,,オヒサマポカポカ,0
2390,8700150119124,新規,0,2024-05-21,2024-05-21,ＪｉａｎＧｅ　ＨａｎｇＺｈｏｕ　Ｈｕａ　Ｚｈｕａｎｇ　Ｐｉｎ　Ｙｏｕ　Ｘｉａｎ　Ｇｏｎｇ　Ｓｉ,,外国会社等,,,,,,,,ｊｉａｎｇ　ｇａｎ　ｑｕ　ｘｉｎ　ｙｕｎ　ｓｈｉ　ｄａｉ，ｊｉｎ　ｚｕｏ　６　ｚｈｕａｎｇ　５２１　ｓｈｉ，ＨａｎｇＺｈｏｕ，ＺｈｅＪｉａｎｇ,,,,,,2024-05-21,1,,,,,シャンシャンカショウヒンユウゲンコウシ,0
2391,8700150119405,新規,0,2024-05-21,2024-05-21,Ｓｈｅｎ　Ｚｈｅｎ　Ｓｈｉ　Ｆｕ　Ｓｈｉ　Ｄａ　Ｋｅ　Ｊｉ　Ｙｏｕ　Ｘｉａｎ　Ｇｏｎｇ　Ｓｉ,,外国会社等,,,,,,,,ｂａｏａｎｑｕ，ｓｈａｊｉｎｇｊｉｅｄａｏ，ｈｅｙｉｓｈｅｑｕ，ｈｅｙｉｘｉｂｕｇｏｎｇｙｅｑｕ，ｘｉｎｓａｎｙａｎｇｃｈａｎｇｃｈａｎｇｆａｎｇＢｄｏｎｇｙｉｃｅｎｇ，Ｓｈｅｎｚｈｅｎｓｈｉ,,,,,,2024-05-21,1,,,,,シェンジェンシフゥシダコァジヨウシエンゴンス,0
2406,9010001244917,新規,0,2024-05-21,2024-05-21,株式会社オーガナイズ１０,,株式会社,東京都,中央区,勝どき６丁目３番２－１２３３号,,13,102,1040054,,,,,,,2024-05-21,1,,,,,オーガナイズテン,0
2407,9010001244958,新規,0,2024-05-21,2024-05-21,株式会社ａｎｄ　ＣＯＲＥ．,,株式会社,東京都,千代田区,有楽町２丁目１０番１号東京交通会館６階,,13,101,1000006,,,,,,,2024-05-21,1,,,,,アンドコア,0
2408,9010003043813,新規,0,2024-05-21,2024-05-21,アイオライトワン合同会社,,合同会社,東京都,中央区,日本橋１丁目４番１号日本橋一丁目ビルディング,,13,102,1030027,,,,,,,2024-05-21,1,,,,,アイオライトワン,0
2410,9010005038324,新規,0,2024-05-21,2024-05-21,一般社団法人日本危機管理医学会,,その他の設立登記法人,東京都,千代田区,飯田橋４丁目４番９号,,13,101,1020072,,,,,,,2024-05-21,1,,,,,ニホンキキカンリイガッカイ,0
2418,9010401182551,新規,0,2024-05-21,2024-05-21,Ａｎ　Ｌｉｆａ株式会社,,株式会社,東京都,港区,北青山１丁目３番１号,,13,103,1070061,,,,,,,2024-05-21,1,,,,,アンリファ,0
2420,9010403032622,新規,0,2024-05-21,2024-05-21,合同会社ＳＴＵＲＢＲＩＤＧＥ,,合同会社,東京都,港区,芝浦２丁目３番２７－２０２号,,13,103,1080023,,,,,,,2024-05-21,1,,,,,スターブリッジ,0
2427,9010601065242,新規,0,2024-05-21,2024-05-21,ティーアイ管理株式会社,,株式会社,東京都,江東区,北砂１丁目４番３０号,,13,108,1360073,,,,,,,2024-05-21,1,,,,,ティーアイカンリ,0
2431,9010701046010,新規,0,2024-05-21,2024-05-21,株式会社ＧＬＤ‐Ｔ,,株式会社,東京都,品川区,大井１丁目３１番１号,,13,109,1400014,,,,,,,2024-05-21,1,,,,,ジーエルディーティー,0
2433,9010801035061,新規,0,2024-05-21,2024-05-21,株式会社ＥＮＱ　ＹＯＵ,,株式会社,東京都,大田区,中央７丁目２番１０号,,13,111,1430024,,,,,,,2024-05-21,1,,,,,エンキュー,0
2434,9010801035078,新規,0,2024-05-21,2024-05-21,株式会社スマイルサービス,,株式会社,東京都,大田区,東糀谷１丁目８番１７号メゾン鈴木２０２,,13,111,1440033,,,,,,,2024-05-21,1,,,,,スマイルサービス,0
2438,9010903009038,新規,0,2024-05-21,2024-05-21,合同会社ＧＯ,,合同会社,東京都,世田谷区,上野毛２丁目７－１８山旺ビル２０２,,13,112,1580093,,,,,,,2024-05-21,1,,,,,ゴウ,0
2443,9011001161961,新規,0,2024-05-21,2024-05-21,株式会社春田テック,,株式会社,東京都,渋谷区,円山町５番５号Ｎａｖｉ渋谷Ｖ３階,,13,113,1500044,,,,,,,2024-05-21,1,,,,,ハルタテック,0
2444,9011001161986,新規,0,2024-05-21,2024-05-21,株式会社ｈｉｔｏｔｏｋｉ,,株式会社,東京都,渋谷区,円山町５番５号Ｎａｖｉ渋谷Ｖ３階,,13,113,1500044,,,,,,,2024-05-21,1,,,,,ヒトトキ,0
2445,9011001161994,新規,0,2024-05-21,2024-05-21,Ｔｈｏｕｇｈｔｌａｋｅ株式会社,,株式会社,東京都,渋谷区,笹塚１丁目６２番１６－６０５号,,13,113,1510073,,,,,,,2024-05-21,1,,,,,ソートレイク,0
2446,9011001162002,新規,0,2024-05-21,2024-05-21,株式会社キョーミ,,株式会社,東京都,渋谷区,渋谷２丁目１９－１５宮益坂ビルディング６０９,,13,113,1500002,,,,,,,2024-05-21,1,,,,,キョーミ,0
2447,9011001162068,新規,0,2024-05-21,2024-05-21,株式会社マインペット,,株式会社,東京都,渋谷区,渋谷３丁目６番２号,,13,113,1500002,,,,,,,2024-05-21,1,,,,,マインペット,0
2448,9011001162084,新規,0,2024-05-21,2024-05-21,株式会社ＭＴＵＳ,,株式会社,東京都,渋谷区,神宮前２丁目６番６号,,13,113,1500001,,,,,,,2024-05-21,1,,,,,ミタス,0
2449,9011001162159,新規,0,2024-05-21,2024-05-21,株式会社２ＸＥ７,,株式会社,東京都,渋谷区,恵比寿２丁目２８番１６号,,13,113,1500013,,,,,,,2024-05-21,1,,,,,ツーエックスイーセブン,0
2451,9011003019175,新規,0,2024-05-21,2024-05-21,サンフォレスト合同会社,,合同会社,東京都,渋谷区,笹塚１丁目４２番６号,,13,113,1510073,,,,,,,2024-05-21,1,,,,,サンフォレスト,0
2452,9011003019191,新規,0,2024-05-21,2024-05-21,ＢＤＸ合同会社,,合同会社,東京都,目黒区,五本木２丁目１４番地１号畝方１階店舗,,13,110,1530053,,,,,,,2024-05-21,1,,,,,ビーディーエックス,0
2453,9011005010520,新規,0,2024-05-21,2024-05-21,一般社団法人Ｎｅｘｔｒａ,,その他の設立登記法人,東京都,渋谷区,道玄坂１丁目１６番６号二葉ビル２階Ｓ０１,,13,113,1500043,,,,,,,2024-05-21,1,,,,,ネクストラ,0
2458,9011201025487,新規,0,2024-05-21,2024-05-21,株式会社纏,,株式会社,東京都,中野区,大和町１丁目２－４,,13,114,1650034,,,,,,,2024-05-21,1,,,,,テン,0
2461,9011301029677,新規,0,2024-05-21,2024-05-21,株式会社フローラベル,,株式会社,東京都,杉並区,阿佐谷南３丁目５０番５―１１０３号,,13,115,1660004,,,,,,,2024-05-21,1,,,,,フローラベル,0
2463,9011303005164,新規,0,2024-05-21,2024-05-21,合同会社Ａ　ＴＯ　Ｚ,,合同会社,東京都,杉並区,高円寺南４丁目２７番１７号恒陽サンクレスト高円寺６０２,,13,115,1660003,,,,,,,2024-05-21,1,,,,,エートゥージー,0
2467,9011501030682,新規,0,2024-05-21,2024-05-21,株式会社ミモザ,,株式会社,東京都,荒川区,西尾久７丁目１２番２号成加パラシオン５０６,,13,118,1160011,,,,,,,2024-05-21,1,,,,,ミモザ,0
2468,9011501030690,新規,0,2024-05-21,2024-05-21,リリーコーポレーション株式会社,,株式会社,東京都,北区,王子本町１丁目２２番１号３０１号,,13,117,1140022,,,,,,,2024-05-21,1,,,,,リリーコーポレーション,0
2469,9011501030699,新規,0,2024-05-21,2024-05-21,明選株式会社,,株式会社,東京都,荒川区,南千住３丁目２７－２浅草ビル５０８,,13,118,1160003,,,,,,,2024-05-21,1,,,,,メイセン,0
2485,9020001157358,新規,0,2024-05-21,2024-05-21,八十八商店株式会社,,株式会社,神奈川県,横浜市港北区,大曽根３丁目６番１５号,,14,109,2220003,,,,,,,2024-05-21,1,,,,,ハチジュウハチショウテン,0
2487,9020003026164,新規,0,2024-05-21,2024-05-21,合同会社Ｇａｒｅ,,合同会社,神奈川県,横浜市青葉区,松風台２５番地６,,14,117,2270067,,,,,,,2024-05-21,1,,,,,ガレ,0
2488,9020003026172,新規,0,2024-05-21,2024-05-21,合同会社シャイニング,,合同会社,神奈川県,横浜市旭区,今宿東町１４９０番地６今井ビル１階,,14,112,2410032,,,,,,,2024-05-21,1,,,,,シャイニング,0
2495,9021003014514,新規,0,2024-05-21,2024-05-21,合同会社ＤｒｅａｍＢｉｇＣｏｍｐａｎｙ,,合同会社,神奈川県,逗子市,小坪６丁目１５－３０,,14,208,2490008,,,,,,,2024-05-21,1,,,,,ドリームビッグカンパニー,0
2507,9040001133687,新規,0,2024-05-21,2024-05-21,株式会社ＡＤＥＰＴＥＣＨ　ＬＡＢ,,株式会社,千葉県,印西市,木下７２５番地１５６,,12,231,2701326,,,,,,,2024-05-21,1,,,,,アデプテックラボ,0
2510,9040003025024,新規,0,2024-05-21,2024-05-21,合同会社オオトモ,,合同会社,千葉県,浦安市,明海６丁目１番１２－１６０８号パークシティグランデ新浦安リバーパレス,,12,227,2790014,,,,,,,2024-05-21,1,,,,,オオトモ,0
2511,9040003025032,新規,0,2024-05-21,2024-05-21,フライハイト合同会社,,合同会社,千葉県,長生郡白子町,古所５１２９番地７,,12,424,2994212,,,,,,,2024-05-21,1,,,,,フライハイト,0
2519,9050001054783,新規,0,2024-05-21,2024-05-21,ＬＵＲＥ．ＪＰ株式会社,,株式会社,茨城県,潮来市,日の出１丁目１２番地５９,,08,223,3112423,,,,,,,2024-05-21,1,,,,,ルアドットジェイピー,0
2531,9100001037460,新規,0,2024-05-21,2024-05-21,丸昭建設株式会社,,株式会社,長野県,安曇野市,明科七貴７２２２番地５,,20,220,3997104,,,,,,,2024-05-21,1,,,,,マルショウケンセツ,0
2540,9110001038417,新規,0,2024-05-21,2024-05-21,株式会社蔵田屋,,株式会社,新潟県,長岡市,花園南１丁目１１５番地,,15,202,9400841,,,,,,,2024-05-21,1,,,,,クラタヤ,0
2563,9120001264961,新規,0,2024-05-21,2024-05-21,基立株式会社,,株式会社,大阪府,大阪市西区,江戸堀１丁目２３－１３肥後橋ビル３号館１２０１－Ｂ,,27,106,5500002,,,,,,,2024-05-21,1,,,,,キリツ,0
2564,9120001265051,新規,0,2024-05-21,2024-05-21,株式会社ＴＫホールディングス,,株式会社,大阪府,大阪市北区,豊崎５丁目７番地の１２,,27,127,5310072,,,,,,,2024-05-21,1,,,,,ティーケーホールディングス,0
2565,9120001265101,新規,0,2024-05-21,2024-05-21,株式会社エニビル,,株式会社,大阪府,大阪市中央区,内平野町２丁目１番２号アイエスビル４Ｃ,,27,128,5400037,,,,,,,2024-05-21,1,,,,,エニビル,0
2566,9120001265118,新規,0,2024-05-21,2024-05-21,馥麗雅株式会社,,株式会社,大阪府,大阪市東住吉区,矢田１丁目２０番１７号ハイツワールド３－Ｄ,,27,121,5460023,,,,,,,2024-05-21,1,,,,,フクレイガ,0
2567,9120001265126,新規,0,2024-05-21,2024-05-21,Ｐｒｏｄｒｏｍｅ　Ｊａｐａｎ株式会社,,株式会社,大阪府,大阪市中央区,安土町２丁目３番１３号,,27,128,5410052,,,,,,,2024-05-21,1,,,,,プロドロームジャパン,0
2568,9120001265159,新規,0,2024-05-21,2024-05-21,株式会社ヴェルテクス,,株式会社,大阪府,大阪市北区,西天満５丁目１４－２ＮＣＣビル４Ｆ,,27,127,5300047,,,,,,,2024-05-21,1,,,,,ヴェルテクス,0
2572,9120003026633,新規,0,2024-05-21,2024-05-21,合同会社小龍,,合同会社,大阪府,大阪市中央区,内久宝寺町２丁目２番２２－１５０１号,,27,128,5400013,,,,,,,2024-05-21,1,,,,,コタツ,0
2575,9120101069625,新規,0,2024-05-21,2024-05-21,家屋漏水調査株式会社,,株式会社,大阪府,岸和田市,吉井町３丁目１７番１１号,,27,202,5960002,,,,,,,2024-05-21,1,,,,,カオクロウスイチョウサ,0
2579,9120103005842,新規,0,2024-05-21,2024-05-21,ＫＡＮｒｉ合同会社,,合同会社,大阪府,堺市美原区,さつき野西１丁目１８番地２５,,27,147,5870031,,,,,,,2024-05-21,1,,,,,カンリ,0
2580,9120103005850,新規,0,2024-05-21,2024-05-21,合同会社アットナイスデイ,,合同会社,大阪府,岸和田市,土生町４丁目４－３０,,27,202,5960825,,,,,,,2024-05-21,1,,,,,アットナイスデイ,0
2581,9120105009858,新規,0,2024-05-21,2024-05-21,一般社団法人勝伸青果会,,その他の設立登記法人,大阪府,羽曳野市,東阪田９５番地の４,,27,222,5830846,,,,,,,2024-05-21,1,,,,,カツシンセイカカイ,0
2582,9122003002886,新規,0,2024-05-21,2024-05-21,合同会社Ｊｅｌｌｙ　Ｐｌａｎｅｔ,,合同会社,大阪府,東大阪市,六万寺町１丁目１６番２１号,,27,227,5798061,,,,,,,2024-05-21,1,,,,,ジェリープラネット,0
2593,9140001134452,新規,0,2024-05-21,2024-05-21,ＫＯＢＥ‐ＯＬＩＶＥ株式会社,,株式会社,兵庫県,神戸市垂水区,神和台３丁目２１－４３,,28,108,6550851,,,,,,,2024-05-21,1,,,,,コウベオリーブ,0
2597,9140003020584,新規,0,2024-05-21,2024-05-21,合同会社ＭＹＣＭ,,合同会社,兵庫県,神戸市東灘区,向洋町中５丁目１１番地５０２号棟１００４号室,,28,101,6580032,,,,,,,2024-05-21,1,,,,,エムワイシーエム,0
2600,9150001027283,新規,0,2024-05-21,2024-05-21,株式会社Ｋ．Ｆ工業,,株式会社,奈良県,生駒郡三郷町,城山台３丁目３番１４号,,29,343,6360824,,,,,,,2024-05-21,1,,,,,ケーエフコウギョウ,0
2602,9170001018149,新規,0,2024-05-21,2024-05-21,株式会社ＤｏｒＶｉｓｉｏｎ,,株式会社,和歌山県,和歌山市,五番丁３１番地の１ヴィラ五番丁５０１,,30,201,6408141,,,,,,,2024-05-21,1,,,,,ドアビジョン,0
2616,9180301038663,新規,0,2024-05-21,2024-05-21,ＲＡＨＭＡＮ株式会社,,株式会社,愛知県,安城市,今池町３丁目５番２号,,23,212,4460071,,,,,,,2024-05-21,1,,,,,ラフマン,0
2617,9190001031364,新規,0,2024-05-21,2024-05-21,株式会社辰工業,,株式会社,三重県,鈴鹿市,東磯山２丁目１４番１７号,,24,207,5100257,,,,,,,2024-05-21,1,,,,,タツコウギョウ,0
2618,9190003004681,新規,0,2024-05-21,2024-05-21,合同会社Ｚｅｎｉｔｈ２４,,合同会社,三重県,鈴鹿市,南長太町７２２番地３,,24,207,5130048,,,,,,,2024-05-21,1,,,,,ゼニスニジュウヨン,0
2627,9220001026014,新規,0,2024-05-21,2024-05-21,株式会社ＮＫＢＩＧ,,株式会社,石川県,加賀市,山中温泉上原町ワ５５９番地,,17,206,9220106,,,,,,,2024-05-21,1,,,,,エヌケービッグ,0
2629,9230001020346,新規,0,2024-05-21,2024-05-21,株式会社ＵＰ・ＣＲＡＦＴ,,株式会社,富山県,富山市,婦中町板倉８９９番地１,,16,201,9392721,,,,,,,2024-05-21,1,,,,,アップクラフト,0
2636,9240001063253,新規,0,2024-05-21,2024-05-21,株式会社宏誠,,株式会社,広島県,福山市,神辺町新徳田５１８番地１,,34,207,7210000,,,,,,,2024-05-21,1,,,,,コウセイ,0
2641,9260001039086,新規,0,2024-05-21,2024-05-21,株式会社ＴＳグループ,,株式会社,岡山県,倉敷市,五日市９８０－３２,,33,202,7100041,,,,,,,2024-05-21,1,,,,,ティーエスグループ,0
2653,9290001105744,新規,0,2024-05-21,2024-05-21,株式会社Ｙ‐ＴＥＣＨ福岡,,株式会社,福岡県,福岡市南区,曰佐２丁目１７番１８号,,40,134,8111313,,,,,,,2024-05-21,1,,,,,ワイテックフクオカ,0
2654,9290001105777,新規,0,2024-05-21,2024-05-21,株式会社パイオニア・サービス九州＆沖縄,,株式会社,福岡県,福岡市博多区,博多駅前１丁目１５番２０号ＮＦＭ博多駅前ビル２階,,40,132,8120011,,,,,,,2024-05-21,1,,,,,パイオニアサービスキュウシュウアンドオキナワ,0
2655,9290001105793,新規,0,2024-05-21,2024-05-21,株式会社ＨＲＫ,,株式会社,福岡県,福岡市早良区,有田４丁目１番３７号１階,,40,137,8140033,,,,,,,2024-05-21,1,,,,,エイチアールケー,0
2658,9290003015339,新規,0,2024-05-21,2024-05-21,合同会社ＲＥサービス,,合同会社,福岡県,福岡市博多区,博多駅南５丁目２３番７号,,40,132,8120016,,,,,,,2024-05-21,1,,,,,アールイーサービス,0
2675,9350003004640,新規,0,2024-05-21,2024-05-21,ゴエラボ合同会社,,合同会社,宮崎県,宮崎市,鶴島２丁目２－２１,,45,201,8800014,,,,,,,2024-05-21,1,,,,,ゴエラボ,0
2685,9370005010791,新規,0,2024-05-21,2024-05-21,一般社団法人まほろ,,その他の設立登記法人,宮城県,柴田郡川崎町,大字前川字松葉森山７番地１０,,04,324,9891501,,,,,,,2024-05-21,1,,,,,マホロ,0
2690,9400003003273,新規,0,2024-05-21,2024-05-21,合同会社ライトワークス,,合同会社,岩手県,盛岡市,西見前１９地割４７番地６,,03,201,0200833,,,,,,,2024-05-21,1,,,,,ライトワークス,0
2694,9410003003933,新規,0,2024-05-21,2024-05-21,ＳＴＡＲＲＹ合同会社,,合同会社,秋田県,大館市,小館花字萩台６－１,,05,204,0170835,,,,,,,2024-05-21,1,,,,,,0
2696,9410005006587,新規,0,2024-05-21,2024-05-21,農事組合法人ＧＴ　ＰＬｕＳ,,その他の設立登記法人,秋田県,大仙市,太田町太田字三嶽２２２番地２,,05,212,0191613,,,,,,,2024-05-21,1,,,,,,0
2700,9470001020207,新規,0,2024-05-21,2024-05-21,株式会社Ｔ’ｓ　Ｌａｎｄ,,株式会社,香川県,小豆郡小豆島町,蒲生甲１１１８番地１,,37,324,7614302,,,,,,,2024-05-21,1,,,,,テイーズランド,0
2707,9700150119404,新規,0,2024-05-21,2024-05-21,ｙｉｗｕｓｈｉｚｈａｏｘｉｊｉａｆａｙｏｕｘｉａｎｇｏｎｇｓｉ,,外国会社等,,,,,,,,ｊｉａｎｇｄｏｎｇｊｉｅｄａｏ　ｊｉａｎｇｎａｎｙｉｑｕ　４－２－３０３　ｙｉｗｕｓｈｉ　ｚｈｅｊｉａｎｇｓｈｅｎｇ,,,,,,2024-05-21,1,,,,,イウシチャオシイジアファヨウシエンゴンス,0
2708,9700150119412,新規,0,2024-05-21,2024-05-21,ＺＨＵ　ＨＡＩ　ＳＨＩ　ＹＩＮＧ　ＦＵ　ＲＵＩ　ＤＥ　ＥＬＥＣＴＲＯＮＩＣ　ＢＵＳＩＮＥＳＳ,,外国会社等,,,,,,,,ＮＯ．１０１　ｏｆ　ＤａＸｕｅ　Ｒｏａｄ，ＴａｎｇＪｉａＷａｎｇ　Ｚｈｅｎ　ＮＯ．３０１－１，３Ｆ，Ｂｕｉｌｄｉｎｇ　４　ＺＨＵＨＡＩ　ＧＡＯＸＩＮ　ＤＩＳＴ,,,,,,2024-05-21,1,,,,,ジュウハイシインフゥゥルイドァディエンズシャンウ,0
2709,9700150125476,新規,0,2024-05-21,2024-05-21,ＧＵＰＴＡ　ＲＥＡＬＴＹ　ＬＬＣ,,外国会社等,東京都,渋谷区,神宮前１丁目１０－１１パークアクシス明治神宮前４０５,,13,113,1500001,６８２８　ＲＵＮＮＩＮＧ　ＳＰＲＩＮＧＳ　ＣＴ，ＦＲＥＤＥＲＩＣＫ，ＭＤ，２１７０３,,,,,,2024-05-21,1,,,,,グプタリアルティエルエルシー,0
