sequenceNumber,corporateNumber,process,correct,updateDate,changeDate,name,nameImageId,kind,prefectureName,cityName,streetNumber,addressImageId,prefectureCode,cityCode,postCode,addressOutside,addressOutsideImageId,closeDate,closeCause,successorCorporateNumber,changeCause,assignmentDate,latest,enName,enPrefectureName,enCityName,enAddressOutside,furigana,hihyoji
13,1010001222046,新規,0,2021-10-27,2021-10-27,株式会社ＧＵＲＩ　Ａｒｔ,,株式会社,東京都,千代田区,富士見１丁目５番１－４０４号,,13,101,1020071,,,,,,,2021-10-27,1,,,,,グリアート,0
14,1010001222087,新規,0,2021-10-27,2021-10-27,株式会社ａｔＳｉｇｎ,,株式会社,東京都,千代田区,神田岩本町１番地２０窪田ビル４Ｆ,,13,101,1010033,,,,,,,2021-10-27,1,,,,,アットサイン,0
15,1010001222104,新規,0,2021-10-27,2021-10-27,グリーン・キング奄美株式会社,,株式会社,東京都,千代田区,紀尾井町４番１号,,13,101,1020094,,,,,,,2021-10-27,1,,,,,グリーンキングアマミ,0
20,1010003036097,新規,0,2021-10-27,2021-10-27,Ｈｅｒｉｔａｇｅ　Ｉｎｖｅｓｔｍｅｎｔｓ合同会社,,合同会社,東京都,中央区,八丁堀４丁目２番１０号ＡＯＪ税理士法人内,,13,102,1040032,,,,,,,2021-10-27,1,,,,,ヘリテイジインベストメンツ,0
26,1010401163427,新規,0,2021-10-27,2021-10-27,株式会社グラン・ノワール・コーポレーション,,株式会社,東京都,港区,新橋５丁目１４番１６号,,13,103,1050004,,,,,,,2021-10-27,1,,,,,グランノワールコーポレーション,0
29,1010503006418,新規,0,2021-10-27,2021-10-27,ＭＵＬＥ合同会社,,合同会社,東京都,台東区,上野３丁目１４番２号,,13,106,1100005,,,,,,,2021-10-27,1,,,,,ミュール,0
48,1011003013615,新規,0,2021-10-27,2021-10-27,オフィス榊原合同会社,,合同会社,東京都,渋谷区,広尾２丁目１６番１１－１０１号,,13,113,1500012,,,,,,,2021-10-27,1,,,,,オフィスサカキバラ,0
60,1011301027300,新規,0,2021-10-27,2021-10-27,株式会社西山有里子事務所,,株式会社,東京都,杉並区,上井草２丁目３４番１５号,,13,115,1670023,,,,,,,2021-10-27,1,,,,,ニシヤマユリコジムショ,0
62,1011401023785,新規,0,2021-10-27,2021-10-27,株式会社ＳＴＡＲＭＩＲＩＳＥ,,株式会社,東京都,板橋区,徳丸７丁目２７番１号ファミール高島平３０３,,13,119,1750083,,,,,,,2021-10-27,1,,,,,スターミライズ,0
66,1011501027406,新規,0,2021-10-27,2021-10-27,株式会社Ｓｙｉｋｓ,,株式会社,東京都,荒川区,西日暮里６丁目３７番１号,,13,118,1160013,,,,,,,2021-10-27,1,,,,,シークス,0
67,1011503004948,新規,0,2021-10-27,2021-10-27,合同会社愛海トレーディング,,合同会社,東京都,荒川区,西日暮里１丁目３８番１８－６０１号,,13,118,1160013,,,,,,,2021-10-27,1,,,,,アミトレーディング,0
69,1011601025499,新規,0,2021-10-27,2021-10-27,株式会社ＤＯＫＯＤＥＭＯ,,株式会社,東京都,練馬区,豊玉北３丁目１５－３チェーリー豊玉コーポ,,13,120,1760012,,,,,,,2021-10-27,1,,,,,ドコデモ,0
83,1013301048193,新規,0,2021-10-27,2021-10-27,株式会社ＧＳ,,株式会社,東京都,豊島区,西池袋１丁目４２番８号秋福ビル４Ａ,,13,116,1710021,,,,,,,2021-10-27,1,,,,,ジーエス,0
84,1013301048202,新規,0,2021-10-27,2021-10-27,川辺商会株式会社,,株式会社,東京都,豊島区,上池袋２丁目２０番６号,,13,116,1700012,,,,,,,2021-10-27,1,,,,,カワベショウカイ,0
92,1020001143638,新規,0,2021-10-27,2021-10-27,株式会社ｍ＆ｍ,,株式会社,神奈川県,横浜市磯子区,杉田２丁目２番１４号Ｋパレスベガ,,14,107,2350033,,,,,,,2021-10-27,1,,,,,エムアンドエム,0
98,1021001074311,新規,0,2021-10-27,2021-10-27,株式会社ＭＭスマイル,,株式会社,神奈川県,三浦郡葉山町,一色１２１６番地の９,,14,301,2400111,,,,,,,2021-10-27,1,,,,,エムエムスマイル,0
107,1030001144965,新規,0,2021-10-27,2021-10-27,株式会社ＭＨＣ,,株式会社,埼玉県,富士見市,諏訪２丁目１２－１７,,11,235,3540023,,,,,,,2021-10-27,1,,,,,エムエイチシー,0
108,1030001144981,新規,0,2021-10-27,2021-10-27,さくらパーク株式会社,,株式会社,埼玉県,所沢市,大字松郷２２６番地,,11,208,3590027,,,,,,,2021-10-27,1,,,,,サクラパーク,0
109,1030001145014,新規,0,2021-10-27,2021-10-27,オーウェン株式会社,,株式会社,埼玉県,さいたま市大宮区,吉敷町１丁目７０番地１ドゥーエ大宮５０１,,11,103,3300843,,,,,,,2021-10-27,1,,,,,オーウェン,0
120,1040001120726,新規,0,2021-10-27,2021-10-27,Ｍ＆Ｍエクステリア株式会社,,株式会社,千葉県,山武市,蓮沼ロの２１４２番地１,,12,237,2891802,,,,,,,2021-10-27,1,,,,,エムアンドエムエクステリア,0
121,1040001120750,新規,0,2021-10-27,2021-10-27,ブルースターマーケティング株式会社,,株式会社,千葉県,千葉市中央区,富士見２丁目７番９号富士見ビル６階,,12,101,2600015,,,,,,,2021-10-27,1,,,,,ブルースターマーケティング,0
122,1040001120759,新規,0,2021-10-27,2021-10-27,株式会社ナーランマラ・オート・モータース,,株式会社,千葉県,印旛郡酒々井町,馬橋６７０番地１７,,12,322,2850914,,,,,,,2021-10-27,1,,,,,ナーランマラオートモータース,0
123,1040001120767,新規,0,2021-10-27,2021-10-27,株式会社コンディショングリーン,,株式会社,千葉県,千葉市中央区,神明町２６番地の３市街地住宅３０５号,,12,101,2600022,,,,,,,2021-10-27,1,,,,,コンディショングリーン,0
133,1040005021400,新規,0,2021-10-27,2021-10-27,一般社団法人シニアライフサポート協会関東支部,,その他の設立登記法人,千葉県,千葉市中央区,本町１丁目１番１４号,,12,101,2600012,,,,,,,2021-10-27,1,,,,,シニアライフサポートキョウカイカントウシブ,0
137,1050001050047,新規,0,2021-10-27,2021-10-27,ＭＯＮＯＫＵＲＯ株式会社,,株式会社,茨城県,坂東市,岩井１４２４番２０,,08,228,3060631,,,,,,,2021-10-27,1,,,,,モノクロ,0
149,1090003001977,新規,0,2021-10-27,2021-10-27,合同会社Ｈ．Ｒ．Ｋ,,合同会社,山梨県,甲府市,朝日２丁目１７－１３,,19,201,4000025,,,,,,,2021-10-27,1,,,,,エイチアールケイ,0
151,1090005007444,新規,0,2021-10-27,2021-10-27,一般社団法人こまねこ,,その他の設立登記法人,山梨県,甲府市,国母８丁目１１番３２号,,19,201,4000043,,,,,,,2021-10-27,1,,,,,コマネコ,0
163,1120001241398,新規,0,2021-10-27,2021-10-27,株式会社鳳林,,株式会社,大阪府,大阪市北区,天満３丁目１０番１３号三栄ビル４０１室,,27,127,5300043,,,,,,,2021-10-27,1,,,,,ホウリン,0
164,1120003020478,新規,0,2021-10-27,2021-10-27,合同会社珈琲園,,合同会社,大阪府,守口市,八雲東町１丁目７番１６号,,27,209,5700021,,,,,,,2021-10-27,1,,,,,コーヒーエン,0
172,1120103004414,新規,0,2021-10-27,2021-10-27,ＨＹＭ合同会社,,合同会社,大阪府,南河内郡河南町,大宝２丁目５－１３,,27,382,5850005,,,,,,,2021-10-27,1,,,,,エイチワイエム,0
180,1130001070417,新規,0,2021-10-27,2021-10-27,ＴＬＭＪ株式会社,,株式会社,京都府,京都市東山区,泉涌寺東林町３９番地,,26,105,6050976,,,,,,,2021-10-27,1,,,,,ティーエルエムジェイ,0
198,1180001148431,新規,0,2021-10-27,2021-10-27,株式会社Ｍａｒｉｎ,,株式会社,愛知県,知多郡南知多町,大字日間賀島字西浜１５番地,,23,445,4703504,,,,,,,2021-10-27,1,,,,,マリン,0
207,1200001039330,新規,0,2021-10-27,2021-10-27,株式会社田島組,,株式会社,岐阜県,岐阜市,本荘西４丁目５８番地,,21,201,5008361,,,,,,,2021-10-27,1,,,,,タジマグミ,0
208,1200003005363,新規,0,2021-10-27,2021-10-27,合同会社ココン,,合同会社,岐阜県,岐阜市,鶴舞町１丁目１９番地１８,,21,201,5008163,,,,,,,2021-10-27,1,,,,,ココン,0
215,1240001058822,新規,0,2021-10-27,2021-10-27,Ａｕｔｏ　Ｒｅｂｏｒｎ株式会社,,株式会社,広島県,安芸郡府中町,千代８番１０号,,34,302,7350027,,,,,,,2021-10-27,1,,,,,オートリボーン,0
228,1260001036124,新規,0,2021-10-27,2021-10-27,株式会社万＿金属,00124682,株式会社,岡山県,倉敷市,二子１３２２－１,,33,202,7010115,,,,,,,2021-10-27,1,,,,,マンシンキンゾク,0
236,1290001095142,新規,0,2021-10-27,2021-10-27,株式会社ＯＮＥ　ＬＩＦＥ,,株式会社,福岡県,筑紫野市,石崎１丁目８－５グランドステーシア１Ｆ,,40,217,8180068,,,,,,,2021-10-27,1,,,,,ワンライフ,0
237,1290001095159,新規,0,2021-10-27,2021-10-27,株式会社ａｍｂｅｒ,,株式会社,福岡県,八女市,黒木町湯辺田４３番地１,,40,210,8341215,,,,,,,2021-10-27,1,,,,,アンバー,0
243,1290803003962,新規,0,2021-10-27,2021-10-27,Ｌ・Ｈ合同会社,,合同会社,福岡県,北九州市小倉北区,宇佐町２丁目１１番２２,,40,106,8020016,,,,,,,2021-10-27,1,,,,,エルエイチ,0
248,1330003009104,新規,0,2021-10-27,2021-10-27,７７１６合同会社,,合同会社,熊本県,熊本市中央区,水前寺３丁目３３番１１号,,43,101,8620950,,,,,,,2021-10-27,1,,,,,ナナイロ,0
249,1350001017379,新規,0,2021-10-27,2021-10-27,株式会社ＫＴＭ’Ｓ,,株式会社,宮崎県,都城市,庄内町８０６０番地４,,45,202,8850114,,,,,,,2021-10-27,1,,,,,ケイティエムズ,0
285,2010001222012,新規,0,2021-10-27,2021-10-27,株式会社ＡＴＬＡＮＴＩＣ　ＤＥＰＡＲＴＭＥＮＴ,,株式会社,東京都,中央区,京橋１丁目１４番９号,,13,102,1040031,,,,,,,2021-10-27,1,,,,,アトランティックデパートメント,0
296,2010401163450,新規,0,2021-10-27,2021-10-27,株式会社ｉｎｃｒｉ,,株式会社,東京都,港区,港南２丁目１６番８－１５０６号,,13,103,1080075,,,,,,,2021-10-27,1,,,,,インクリ,0
297,2010401163483,新規,0,2021-10-27,2021-10-27,株式会社Ｄｏｔｓ　ｆｏｒ,,株式会社,東京都,港区,南青山２丁目２番１５号,,13,103,1070062,,,,,,,2021-10-27,1,,,,,ドッツフォー,0
300,2010403026399,新規,0,2021-10-27,2021-10-27,インサイトパートナーズ合同会社,,合同会社,東京都,港区,南青山２丁目２番１５号,,13,103,1070062,,,,,,,2021-10-27,1,,,,,インサイトパートナーズ,0
303,2010501048023,新規,0,2021-10-27,2021-10-27,株式会社シトロン,,株式会社,東京都,台東区,柳橋１丁目１２番１０－１００３号,,13,106,1110052,,,,,,,2021-10-27,1,,,,,シトロン,0
304,2010601060126,新規,0,2021-10-27,2021-10-27,ハイテンション株式会社,,株式会社,東京都,江東区,白河３丁目４番３号,,13,108,1350021,,,,,,,2021-10-27,1,,,,,ハイテンション,0
314,2011003013614,新規,0,2021-10-27,2021-10-27,カーサ下田合同会社,,合同会社,東京都,渋谷区,恵比寿西１丁目１９番６号ＵＮパークビル５階日本プロパティーズツゥー株式会社内,,13,113,1500021,,,,,,,2021-10-27,1,,,,,カーサシモダ,0
328,2011601025498,新規,0,2021-10-27,2021-10-27,キャディング株式会社,,株式会社,東京都,練馬区,石神井町３丁目９番８号,,13,120,1770041,,,,,,,2021-10-27,1,,,,,キャディング,0
331,2011801039892,新規,0,2021-10-27,2021-10-27,株式会社ＡＳＫ,,株式会社,東京都,葛飾区,東新小岩５丁目１４番３０,,13,122,1240023,,,,,,,2021-10-27,1,,,,,アスク,0
334,2012401038459,新規,0,2021-10-27,2021-10-27,株式会社ブライトン総合研究所,,株式会社,東京都,府中市,小柳町２丁目４３番地の１トゥウィンクルアーク壱番館０２０５,,13,206,1830013,,,,,,,2021-10-27,1,,,,,ブライトンソウゴウケンキュウショ,0
341,2012801021188,新規,0,2021-10-27,2021-10-27,株式会社ＶＡＭ,,株式会社,東京都,立川市,錦町１丁目１９番４号,,13,202,1900022,,,,,,,2021-10-27,1,,,,,バン,0
353,2020001143637,新規,0,2021-10-27,2021-10-27,株式会社ホリーホック,,株式会社,神奈川県,横浜市磯子区,森４丁目１１番１４号,,14,107,2350023,,,,,,,2021-10-27,1,,,,,ホリーホック,0
361,2021001074310,新規,0,2021-10-27,2021-10-27,株式会社グロリアス,,株式会社,神奈川県,南足柄市,塚原４０４８番地,,14,217,2500117,,,,,,,2021-10-27,1,,,,,グロリアス,0
368,2030001144989,新規,0,2021-10-27,2021-10-27,株式会社拓叶,,株式会社,埼玉県,狭山市,入間川１４６９番地の６２,,11,215,3501305,,,,,,,2021-10-27,1,,,,,タクト,0
369,2030001145005,新規,0,2021-10-27,2021-10-27,株式会社ＳＩ－Ｓｏｌｕｔｉｏｎｓ,,株式会社,埼玉県,所沢市,松葉町２番２号洪栄ビル５Ｆ,,11,208,3590044,,,,,,,2021-10-27,1,,,,,エスアイソリューションズ,0
370,2030001145013,新規,0,2021-10-27,2021-10-27,株式会社テイクストーン,,株式会社,埼玉県,入間市,下藤沢１丁目４番地１７,,11,225,3580011,,,,,,,2021-10-27,1,,,,,テイクストーン,0
384,2040003018819,新規,0,2021-10-27,2021-10-27,ＡＩＳＨＡ　ＴＲＡＤＩＮＧ合同会社,,合同会社,千葉県,千葉市美浜区,高浜１丁目７番５棟５０３号,,12,106,2610003,,,,,,,2021-10-27,1,,,,,アイシャトレーディング,0
393,2060003003843,新規,0,2021-10-27,2021-10-27,合同会社ｍｔｓ,,合同会社,栃木県,宇都宮市,南大通り１丁目１番１６－５０６号,,09,201,3210963,,,,,,,2021-10-27,1,,,,,,0
401,2080101022867,新規,0,2021-10-27,2021-10-27,ＡＣＡＯ　ＢＬＯＯＭ株式会社,,株式会社,静岡県,熱海市,上多賀１０２７番地の８,,22,205,4130101,,,,,,,2021-10-27,1,,,,,アカオブルーム,0
402,2080101022875,新規,0,2021-10-27,2021-10-27,株式会社愛誠電気,,株式会社,静岡県,沼津市,大諏訪３８番地の８,,22,203,4100873,,,,,,,2021-10-27,1,,,,,アイセイデンキ,0
405,2080401025446,新規,0,2021-10-27,2021-10-27,株式会社Ｇｏ　ｆｏｒｗａｒｄ,,株式会社,静岡県,浜松市西区,入野町２００２０番地の５,,22,133,4328061,,,,,,,2021-10-27,1,,,,,ゴーフォワード,0
407,2080405007399,新規,0,2021-10-27,2021-10-27,土地家屋調査士法人袴田工務所,,その他の設立登記法人,静岡県,浜松市東区,大瀬町２６５６番地,,22,132,4313113,,,,,,,2021-10-27,1,,,,,ハカマタコウムショ,0
418,2120001241364,新規,0,2021-10-27,2021-10-27,株式会社エス,,株式会社,大阪府,大阪市西成区,松２丁目６番３号,,27,122,5570034,,,,,,,2021-10-27,1,,,,,エス,0
419,2120001241389,新規,0,2021-10-27,2021-10-27,Ｊｏｔｏホールディングス株式会社,,株式会社,大阪府,枚方市,招提田近３丁目１４番地の１,,27,210,5731132,,,,,,,2021-10-27,1,,,,,ジョウトウホールディングス,0
420,2120001241397,新規,0,2021-10-27,2021-10-27,株式会社エバーラスト,,株式会社,大阪府,大阪市中央区,南船場２丁目７番１６号,,27,128,5420081,,,,,,,2021-10-27,1,,,,,エバーラスト,0
421,2120001241406,新規,0,2021-10-27,2021-10-27,ウィズブライズ株式会社,,株式会社,大阪府,大阪市北区,梅田１丁目２番２号大阪駅前第２ビル２階５－６号室,,27,127,5300001,,,,,,,2021-10-27,1,,,,,ウィズブライズ,0
422,2120001241430,新規,0,2021-10-27,2021-10-27,株式会社フィールズ,,株式会社,大阪府,大阪市福島区,福島３丁目７－３９－６１１,,27,103,5530003,,,,,,,2021-10-27,1,,,,,フィールズ,0
425,2120003020469,新規,0,2021-10-27,2021-10-27,合同会社Ｂｒｉｇｈｔ　Ｗｏｒｋｓ,,合同会社,大阪府,寝屋川市,河北中町３０番５号,,27,215,5720816,,,,,,,2021-10-27,1,,,,,ブライトワークス,0
439,2140001123627,新規,0,2021-10-27,2021-10-27,ここちいい株式会社,,株式会社,兵庫県,芦屋市,奥池町３３番８号,,28,206,6590003,,,,,,,2021-10-27,1,,,,,ココチイイ,0
445,2140005025869,新規,0,2021-10-27,2021-10-27,一般社団法人あこう魅力発信基地,,その他の設立登記法人,兵庫県,赤穂市,加里屋８１番地,,28,212,6780239,,,,,,,2021-10-27,1,,,,,アコウミリョクハッシンキチ,0
447,2160001023750,新規,0,2021-10-27,2021-10-27,ＴＳＵＮＡＧＵテクノロジー株式会社,,株式会社,滋賀県,大津市,中央３丁目４番２８号,,25,201,5200043,,,,,,,2021-10-27,1,,,,,ツナグテクノロジー,0
458,2180301035551,新規,0,2021-10-27,2021-10-27,株式会社愛知ドローン,,株式会社,愛知県,岡崎市,大門５丁目６番地１２ＲＣＣ,,23,202,4442135,,,,,,,2021-10-27,1,,,,,アイチドローン,0
461,2190003003806,新規,0,2021-10-27,2021-10-27,ＤＥ　ＴＯＤＯ　ＵＮ　ＰＯＣＯ２合同会社,,合同会社,三重県,鈴鹿市,中旭が丘２丁目１－１三洋ビル,,24,207,5100212,,,,,,,2021-10-27,1,,,,,デトドウンポコツー,0
469,2240001058821,新規,0,2021-10-27,2021-10-27,株式会社Ｓ・Ｔ・Ｈ,,株式会社,広島県,広島市東区,若草町１８番４１号,,34,102,7320053,,,,,,,2021-10-27,1,,,,,エスティエイチ,0
486,2290001095141,新規,0,2021-10-27,2021-10-27,株式会社あのん,,株式会社,福岡県,大川市,大字酒見１６０番地４,,40,212,8310016,,,,,,,2021-10-27,1,,,,,アノン,0
491,2290003011749,新規,0,2021-10-27,2021-10-27,合同会社Ｒ　Ｂｉｚａｒｒｅ,,合同会社,福岡県,福岡市博多区,中洲１丁目５番４号,,40,132,8100801,,,,,,,2021-10-27,1,,,,,アールビザール,0
493,2290801027938,新規,0,2021-10-27,2021-10-27,株式会社Ｕ－ＢＡＳＥ,,株式会社,福岡県,北九州市八幡西区,茶屋の原４丁目１３番７号,,40,109,8071134,,,,,,,2021-10-27,1,,,,,ユーベース,0
496,2300005007041,新規,0,2021-10-27,2021-10-27,特定非営利活動法人七山むらづくり協議会,,その他の設立登記法人,佐賀県,唐津市,七山滝川１０４８番地３,,41,202,8471106,,,,,,,2021-10-27,1,,,,,ナナヤマムラヅクリキョウギカイ,0
498,2320003003643,新規,0,2021-10-27,2021-10-27,合同会社ミルキーウェイリブラ,,合同会社,大分県,大分市,大字佐野４０２４番地,,44,201,8700315,,,,,,,2021-10-27,1,,,,,ミルキーウェイリブラ,0
499,2330003009103,新規,0,2021-10-27,2021-10-27,ＵＥＫＩ太陽光発電所合同会社,,合同会社,熊本県,熊本市中央区,中央街４番１０,,43,101,8600802,,,,,,,2021-10-27,1,,,,,ウエキタイヨウコウハツデンショ,0
502,2340001024202,新規,0,2021-10-27,2021-10-27,Ｋｅｙ　ｗｉｌｌ株式会社,,株式会社,鹿児島県,鹿児島市,中山町５２５３番地１,,46,201,8910105,,,,,,,2021-10-27,1,,,,,キーウィル,0
507,2340003003609,新規,0,2021-10-27,2021-10-27,合同会社奏,,合同会社,鹿児島県,鹿児島市,和田３丁目３４番７号,,46,201,8910143,,,,,,,2021-10-27,1,,,,,ソウ,0
510,2370001047745,新規,0,2021-10-27,2021-10-27,株式会社ランド,,株式会社,宮城県,仙台市青葉区,中山４丁目２５番２８号,,04,101,9810952,,,,,,,2021-10-27,1,,,,,ランド,0
511,2370003005461,新規,0,2021-10-27,2021-10-27,ｅｓｔ８合同会社,,合同会社,宮城県,仙台市若林区,東八番丁１９７番地,,04,103,9840072,,,,,,,2021-10-27,1,,,,,エストエイト,0
515,2380001032291,新規,0,2021-10-27,2021-10-27,共栄株式会社,,株式会社,福島県,南相馬市,原町区小川町４９番地の３,,07,212,9750011,,,,,,,2021-10-27,1,,,,,,0
517,2400001015649,新規,0,2021-10-27,2021-10-27,株式会社ファクトリー奥州,,株式会社,岩手県,奥州市,胆沢南都田字午房谷地１４６番地１,,03,215,0230401,,,,,,,2021-10-27,1,,,,,ファクトリーオウシュウ,0
521,2420001017635,新規,0,2021-10-27,2021-10-27,株式会社テルメディ,,株式会社,青森県,八戸市,城下１丁目２８番１６号,,02,203,0310072,,,,,,,2021-10-27,1,,,,,テルメディ,0
526,2440003001420,新規,0,2021-10-27,2021-10-27,合同会社ＨＡＢＡＴＡＫＥ,,合同会社,北海道,函館市,日吉町３丁目４２－８,,01,202,0410841,,,,,,,2021-10-27,1,,,,,ハバタケ,0
542,3010001222085,新規,0,2021-10-27,2021-10-27,チームジーニアス株式会社,,株式会社,東京都,中央区,銀座１丁目２２番１１号銀座大竹ビジデンス２階,,13,102,1040061,,,,,,,2021-10-27,1,,,,,チームジーニアス,0
546,3010003036087,新規,0,2021-10-27,2021-10-27,合同会社ＣＴＦ１号,,合同会社,東京都,中央区,八丁堀４丁目２番１０号ＡＯＪ税理士法人内,,13,102,1040032,,,,,,,2021-10-27,1,,,,,シーティーエフイチゴウ,0
549,3010005034139,新規,0,2021-10-27,2021-10-27,一般社団法人日本美容総合協会,,その他の設立登記法人,東京都,千代田区,内幸町１丁目１番１号帝国ホテルタワー,,13,101,1000011,,,,,,,2021-10-27,1,,,,,ニホンビヨウソウゴウキョウカイ,0
556,3010401163516,新規,0,2021-10-27,2021-10-27,宇高株式会社,,株式会社,東京都,港区,芝浦１丁目２番１号シーバンスＮ館,,13,103,1050023,,,,,,,2021-10-27,1,,,,,ウコウ,0
563,3010403026398,新規,0,2021-10-27,2021-10-27,合同会社ＴＭ　Ｇｌｏｂａｌ,,合同会社,東京都,港区,南青山２丁目２番１５号,,13,103,1070062,,,,,,,2021-10-27,1,,,,,ティーエムグローバル,0
564,3010405020317,新規,0,2021-10-27,2021-10-27,一般社団法人ＨＲ１,,その他の設立登記法人,東京都,港区,赤坂９丁目６番２８－１００２号麻布総合会計事務所内,,13,103,1070052,,,,,,,2021-10-27,1,,,,,エイチアールワン,0
565,3010405020333,新規,0,2021-10-27,2021-10-27,一般社団法人日本グリーンＬＰガス推進協議会,,その他の設立登記法人,東京都,港区,虎ノ門１丁目１４番１号,,13,103,1050001,,,,,,,2021-10-27,1,,,,,ニホングリーンエルピーガススイシンキョウギカイ,0
570,3010601060133,新規,0,2021-10-27,2021-10-27,ＣＡＲＷＡＶＥ株式会社,,株式会社,東京都,江東区,海辺６番２号,,13,108,1350012,,,,,,,2021-10-27,1,,,,,カーウェイブ,0
577,3010901049685,新規,0,2021-10-27,2021-10-27,耘時株式会社,,株式会社,東京都,世田谷区,世田谷１丁目４１番２号,,13,112,1540017,,,,,,,2021-10-27,1,,,,,ウンジ,0
578,3010901049693,新規,0,2021-10-27,2021-10-27,株式会社ＳＩマネジメント,,株式会社,東京都,世田谷区,千歳台５丁目３番２４号,,13,112,1570071,,,,,,,2021-10-27,1,,,,,エスアイマネジメント,0
579,3010903006899,新規,0,2021-10-27,2021-10-27,合同会社キャンプホーミー,,合同会社,東京都,世田谷区,池尻２丁目３７番１２号スカイビュー２４６－６０１,,13,112,1540001,,,,,,,2021-10-27,1,,,,,,0
584,3011001143544,新規,0,2021-10-27,2021-10-27,株式会社代官山コレクション,,株式会社,東京都,渋谷区,東３丁目２４番９号サンイーストビル,,13,113,1500011,,,,,,,2021-10-27,1,,,,,ダイカンヤマコレクション,0
590,3011101096667,新規,0,2021-10-27,2021-10-27,株式会社ＵＮＬＥＡＳＨ,,株式会社,東京都,新宿区,新宿１丁目３６番２号新宿第七葉山ビル３階,,13,104,1600022,,,,,,,2021-10-27,1,,,,,アンリーシュ,0
597,3011401023783,新規,0,2021-10-27,2021-10-27,株式会社黒澤設計,,株式会社,東京都,板橋区,高島平８丁目７番５－４０４号,,13,119,1750082,,,,,,,2021-10-27,1,,,,,クロサワセッケイ,0
598,3011403003486,新規,0,2021-10-27,2021-10-27,合同会社ＡＢ　ｔｒｙ,,合同会社,東京都,板橋区,板橋１丁目４９－３ライオンズマンション板橋６１２,,13,119,1730004,,,,,,,2021-10-27,1,,,,,エービートライ,0
599,3011501027420,新規,0,2021-10-27,2021-10-27,株式会社アスラボ,,株式会社,東京都,北区,東十条５丁目１７番２号,,13,117,1140001,,,,,,,2021-10-27,1,,,,,アスラボ,0
602,3011803004844,新規,0,2021-10-27,2021-10-27,Ｂｈａｎｕｂｈａｋｔａ合同会社,,合同会社,東京都,葛飾区,お花茶屋１丁目１２番１０号,,13,122,1240003,,,,,,,2021-10-27,1,,,,,バヌバクタ,0
603,3012401038466,新規,0,2021-10-27,2021-10-27,株式会社リプロ,,株式会社,東京都,多摩市,永山６丁目５番地の１０－２Ｆ,,13,224,2060025,,,,,,,2021-10-27,1,,,,,リプロ,0
609,3012803002631,新規,0,2021-10-27,2021-10-27,ＧＦＩ合同会社,,合同会社,東京都,国分寺市,南町３丁目２３番１３号ハウスアメニティ１００－３０１,,13,214,1850021,,,,,,,2021-10-27,1,,,,,ジーエフアイ,0
616,3013301048183,新規,0,2021-10-27,2021-10-27,潮盛商事株式会社,,株式会社,東京都,豊島区,南池袋３丁目８番３－７０６号,,13,116,1710022,,,,,,,2021-10-27,1,,,,,シオモリショウジ,0
617,3013301048200,新規,0,2021-10-27,2021-10-27,株式会社ＳＰＥＥＤ,,株式会社,東京都,豊島区,東池袋１丁目３４番５号いちご東池袋ビル６階,,13,116,1700013,,,,,,,2021-10-27,1,,,,,スピード,0
618,3013303005876,新規,0,2021-10-27,2021-10-27,合同会社ビリオン,,合同会社,東京都,豊島区,巣鴨４丁目１３番９ー５０２号,,13,116,1700002,,,,,,,2021-10-27,1,,,,,ビリオン,0
619,3013305003275,新規,0,2021-10-27,2021-10-27,司法書士法人松野下事務所,,その他の設立登記法人,東京都,豊島区,池袋２丁目４８番１号,,13,116,1710014,,,,,,,2021-10-27,1,,,,,マツノシタジムショ,0
631,3021001074128,新規,0,2021-10-27,2021-10-27,株式会社富士テクノホールディングス,,株式会社,神奈川県,厚木市,中町４丁目１０番８号,,14,212,2430018,,,,,,,2021-10-27,1,,,,,フジテクノホールディングス,0
632,3021003011021,新規,0,2021-10-27,2021-10-27,ＳＨＡＭＡＭＡ　ＭＯＴＯＲＳ合同会社,,合同会社,神奈川県,厚木市,下川入２７２番地３－１０２号室,,14,212,2430206,,,,,,,2021-10-27,1,,,,,シャママモーターズ,0
639,3030001144988,新規,0,2021-10-27,2021-10-27,株式会社タカラＲＵ,,株式会社,埼玉県,朝霞市,大字溝沼５３１番地,,11,227,3510023,,,,,,,2021-10-27,1,,,,,タカラアールユー,0
640,3030001145020,新規,0,2021-10-27,2021-10-27,株式会社ＤＳＩ　ａｎｄ　Ｒ・Ｃｏｎｓｕｌｔｉｎｇ,,株式会社,埼玉県,川口市,戸塚１丁目３－１９スカイハイツ２０２,,11,203,3330811,,,,,,,2021-10-27,1,,,,,ディエスアイアンドアールコンサルティング,0
655,3050001050037,新規,0,2021-10-27,2021-10-27,株式会社ユーエーエイチ,,株式会社,茨城県,つくば市,梅園２丁目１番地６,,08,220,3050045,,,,,,,2021-10-27,1,,,,,ユーエーエイチ,0
658,3060001034229,新規,0,2021-10-27,2021-10-27,株式会社ＷＯＲＫＥＲ’Ｓ,,株式会社,栃木県,大田原市,若松町４８４番地,,09,210,3240054,,,,,,,2021-10-27,1,,,,,ワーカーズ,0
664,3080101022874,新規,0,2021-10-27,2021-10-27,株式会社ＡＵプロ２４,,株式会社,静岡県,御殿場市,竃５７４番地の３,,22,215,4120000,,,,,,,2021-10-27,1,,,,,エーユープロニジューヨン,0
667,3080105006188,新規,0,2021-10-27,2021-10-27,医療法人社団愛健優会,,その他の設立登記法人,静岡県,富士市,五貫島６９,,22,210,4160946,,,,,,,2021-10-27,1,,,,,アイケンユウカイ,0
679,3110003004612,新規,0,2021-10-27,2021-10-27,合同会社はなはな,,合同会社,新潟県,新潟市西蒲区,前田１５２番地３,,15,108,9530036,,,,,,,2021-10-27,1,,,,,ハナハナ,0
694,3120001241363,新規,0,2021-10-27,2021-10-27,ＮｅｋｏＴｏｍｏ株式会社,,株式会社,大阪府,大阪市城東区,野江３丁目２３番９号４Ｆ,,27,118,5360006,,,,,,,2021-10-27,1,,,,,ネコトモ,0
695,3120001241413,新規,0,2021-10-27,2021-10-27,株式会社Ｌｉｆｅ　Ｒｅｂｏｒｎ,,株式会社,大阪府,大阪市東住吉区,西今川４丁目３－７,,27,121,5460042,,,,,,,2021-10-27,1,,,,,ライフリボーン,0
699,3120003020468,新規,0,2021-10-27,2021-10-27,合同会社ＭＳＵＰ,,合同会社,大阪府,大阪市北区,鶴野町３番９号,,27,127,5300014,,,,,,,2021-10-27,1,,,,,エムエスユーピー,0
700,3120003020476,新規,0,2021-10-27,2021-10-27,合同会社ＧｅｅｘＣｏｌｌｅｃｔｉｏｎ,,合同会社,大阪府,大阪市生野区,中川東１丁目１０番２０号,,27,116,5440006,,,,,,,2021-10-27,1,,,,,ジークコレクション,0
710,3130001070415,新規,0,2021-10-27,2021-10-27,株式会社種嘉商店,,株式会社,京都府,京都市中京区,車屋町通二条下る仁王門突抜町３１７番地,,26,104,6040841,,,,,,,2021-10-27,1,,,,,タネカショウテン,0
718,3140001123626,新規,0,2021-10-27,2021-10-27,株式会社ＳＪＡＭＢＰインターナショナル,,株式会社,兵庫県,伊丹市,瑞穂町５丁目８番地・日光園ヒカリコーポ４０２号,,28,207,6640013,,,,,,,2021-10-27,1,,,,,エスジェイエーエムビーピーインターナショナル,0
721,3140003016910,新規,0,2021-10-27,2021-10-27,合同会社ケアプランセンター明石,,合同会社,兵庫県,明石市,西明石北町３丁目６－３ホワイトハウス１Ｂ,,28,203,6730018,,,,,,,2021-10-27,1,,,,,ケアプランセンターアカシ,0
723,3150001025053,新規,0,2021-10-27,2021-10-27,株式会社プラットホーム,,株式会社,奈良県,奈良市,柏木町９１番地の１,,29,201,6308031,,,,,,,2021-10-27,1,,,,,プラットホーム,0
728,3180001148454,新規,0,2021-10-27,2021-10-27,株式会社ＩＮＮＯＶＡＴＩＯＮ　ＧＲＯＵＰ,,株式会社,愛知県,名古屋市緑区,鳴海町字有松裏２８番地の８,,23,114,4580824,,,,,,,2021-10-27,1,,,,,イノベーショングループ,0
737,3180305009253,新規,0,2021-10-27,2021-10-27,特定非営利活動法人ファブ８,,その他の設立登記法人,愛知県,刈谷市,東境町大池１３１番地１,,23,210,4480007,,,,,,,2021-10-27,1,,,,,ファブエイト,0
744,3200001039329,新規,0,2021-10-27,2021-10-27,岐京株式会社,,株式会社,岐阜県,岐阜市,京町３丁目４番地,,21,201,5008804,,,,,,,2021-10-27,1,,,,,ギキョウ,0
745,3200003005361,新規,0,2021-10-27,2021-10-27,合同会社ＯＦＦＩＣＥ　ＤＩＲＥＣＴＩＯＮ名和,,合同会社,岐阜県,岐阜市,茜部野瀬３丁目７９番地１,,21,201,5008283,,,,,,,2021-10-27,1,,,,,オフィスディレクションナワ,0
747,3220001024493,新規,0,2021-10-27,2021-10-27,日本流通サービス株式会社,,株式会社,石川県,かほく市,横山ル１１２番地,,17,209,9291105,,,,,,,2021-10-27,1,,,,,ニホンリュウツウサービス,0
752,3240001058820,新規,0,2021-10-27,2021-10-27,株式会社日昇商事,,株式会社,広島県,東広島市,西条町下見４４３３－２－１０３号,,34,212,7390044,,,,,,,2021-10-27,1,,,,,ニッショウショウジ,0
753,3240005015289,新規,0,2021-10-27,2021-10-27,一般社団法人食の駅,,その他の設立登記法人,広島県,福山市,霞町１丁目４－３２,,34,207,7200812,,,,,,,2021-10-27,1,,,,,ショクノエキ,0
756,3260001036130,新規,0,2021-10-27,2021-10-27,株式会社アールエムコーポレーション,,株式会社,岡山県,岡山市南区,中畦２５番地２４,,33,104,7010213,,,,,,,2021-10-27,1,,,,,アールエムコーポレーション,0
762,3290001095149,新規,0,2021-10-27,2021-10-27,株式会社スペシャルハピネス,,株式会社,福岡県,福岡市中央区,平尾３丁目１番３号ロイヤル薬院ビル４階,,40,133,8100014,,,,,,,2021-10-27,1,,,,,スペシャルハピネス,0
776,3310003004195,新規,0,2021-10-27,2021-10-27,合同会社アヅサ,,合同会社,長崎県,長崎市,かき道２丁目１４番２５号,,42,201,8510115,,,,,,,2021-10-27,1,,,,,アヅサ,0
780,3320001018691,新規,0,2021-10-27,2021-10-27,株式会社ＡＴ　Ｇｒｏｕｐ,,株式会社,大分県,竹田市,大字玉来６５９番地１７,,44,208,8780024,,,,,,,2021-10-27,1,,,,,エーティーグループ,0
783,3340001024192,新規,0,2021-10-27,2021-10-27,株式会社ＢＲＯＴＨＯＯＤ,,株式会社,鹿児島県,霧島市,溝辺町有川１４８２番地,,46,218,8996401,,,,,,,2021-10-27,1,,,,,ブロスフッド,0
784,3340001024201,新規,0,2021-10-27,2021-10-27,一水株式会社,,株式会社,鹿児島県,薩摩川内市,西開聞町４番３号コーポ的場１Ｆ,,46,215,8950055,,,,,,,2021-10-27,1,,,,,イッスイ,0
787,3340005009363,新規,0,2021-10-27,2021-10-27,特定非営利活動法人ながしま地域活性化推進機構,,その他の設立登記法人,鹿児島県,出水郡長島町,浦底８８８番地２７,,46,404,8991402,,,,,,,2021-10-27,1,,,,,ナガシマチイキカッセイカスイシンキコウ,0
804,3380001032290,新規,0,2021-10-27,2021-10-27,株式会社火種,,株式会社,福島県,田村市,船引町石森字舘１０８番地テラス石森,,07,211,9634313,,,,,,,2021-10-27,1,,,,,,0
831,3500003002709,新規,0,2021-10-27,2021-10-27,ＪＡＰＡＮＮＥＳＩＡ合同会社,,合同会社,愛媛県,伊予市,宮下１１９１－６,,38,210,7993102,,,,,,,2021-10-27,1,,,,,ジャパンネシア,0
836,4010001221887,新規,0,2021-10-27,2021-10-27,株式会社ＡＲＫ,,株式会社,東京都,千代田区,一番町１５番９号,,13,101,1020082,,,,,,,2021-10-27,1,,,,,エーアールケイ,0
837,4010001222101,新規,0,2021-10-27,2021-10-27,アイハン株式会社,,株式会社,東京都,中央区,新川２丁目１４番２－１２０１号,,13,102,1040033,,,,,,,2021-10-27,1,,,,,アイハン,0
839,4010003036128,新規,0,2021-10-27,2021-10-27,合同会社ＡＺｕＲｕ,,合同会社,東京都,中央区,銀座６丁目９番８号銀座ＵＫビル８階,,13,102,1040061,,,,,,,2021-10-27,1,,,,,アズール,0
841,4010005034121,新規,0,2021-10-27,2021-10-27,巨群行政書士法人,,その他の設立登記法人,東京都,千代田区,丸の内３丁目４－１新国際ビル８階８２２,,13,101,1000005,,,,,,,2021-10-27,1,,,,,キョグン,0
849,4010401163416,新規,0,2021-10-27,2021-10-27,株式会社Ｔ・Ｋカンパニー,,株式会社,東京都,港区,虎ノ門５丁目１３番１号虎ノ門４０ＭＴビル７階,,13,103,1050001,,,,,,,2021-10-27,1,,,,,ティーケーカンパニー,0
850,4010401163424,新規,0,2021-10-27,2021-10-27,株式会社メディカル・エスコート,,株式会社,東京都,港区,赤坂２丁目２１番５号赤坂・溜池山王ビジネスセンター,,13,103,1070052,,,,,,,2021-10-27,1,,,,,メディカルエスコート,0
851,4010401163449,新規,0,2021-10-27,2021-10-27,ＢＣＳ株式会社,,株式会社,東京都,港区,白金台２丁目２６番１８号,,13,103,1080071,,,,,,,2021-10-27,1,,,,,ビーシーエス,0
854,4010403026406,新規,0,2021-10-27,2021-10-27,合同会社Ｈａｓｈ,,合同会社,東京都,港区,南青山２丁目２９番６号青山ザ・タワー９０３,,13,103,1070062,,,,,,,2021-10-27,1,,,,,ハッシュ,0
856,4010405020324,新規,0,2021-10-27,2021-10-27,一般社団法人日本のきくらげ普及推進協議会,,その他の設立登記法人,東京都,港区,高輪４丁目２３番６－９０６号,,13,103,1080074,,,,,,,2021-10-27,1,,,,,ニホンノキクラゲフキュウスイシンキョウギカイ,0
858,4010501048021,新規,0,2021-10-27,2021-10-27,株式会社Ｊａｐａｎ　Ｍｅｄｉａ　Ｃｒｅａｔｉｏｎ,,株式会社,東京都,台東区,今戸１丁目４番３号,,13,106,1110024,,,,,,,2021-10-27,1,,,,,ジャパンメディアクリエーション,0
859,4010503006415,新規,0,2021-10-27,2021-10-27,合栄合同会社,,合同会社,東京都,台東区,台東１丁目１４番３号３０３室,,13,106,1100016,,,,,,,2021-10-27,1,,,,,ゴウエイ,0
864,4010601060124,新規,0,2021-10-27,2021-10-27,エムイ株式会社,,株式会社,東京都,江東区,深川２丁目５番１１－９０７号,,13,108,1350033,,,,,,,2021-10-27,1,,,,,エムイ,0
865,4010601060132,新規,0,2021-10-27,2021-10-27,株式会社Ｈｅｙ和,,株式会社,東京都,墨田区,江東橋３丁目２－２ドルミ錦糸町大興ビル４０１号室,,13,107,1300022,,,,,,,2021-10-27,1,,,,,ヘイワ,0
881,4010903006898,新規,0,2021-10-27,2021-10-27,合同会社ＷＩＮｇｓ,,合同会社,東京都,世田谷区,駒沢２丁目１６番４号,,13,112,1540012,,,,,,,2021-10-27,1,,,,,ウイングス,0
893,4011001143626,新規,0,2021-10-27,2021-10-27,株式会社ＬＥＲＥＮ,,株式会社,東京都,渋谷区,本町３丁目４９番１６号アイコービル７Ｆ,,13,113,1510071,,,,,,,2021-10-27,1,,,,,リリン,0
898,4011101096716,新規,0,2021-10-27,2021-10-27,マンション管理サポート株式会社,,株式会社,東京都,新宿区,歌舞伎町２丁目９番１５号,,13,104,1600021,,,,,,,2021-10-27,1,,,,,マンションカンリサポート,0
899,4011101096724,新規,0,2021-10-27,2021-10-27,株式会社ＡＩＷ,,株式会社,東京都,新宿区,西新宿３丁目１－３ＭＩＴＳＵＷＡビル７階,,13,104,1600023,,,,,,,2021-10-27,1,,,,,エーアイダブリュ,0
903,4011203003677,新規,0,2021-10-27,2021-10-27,合同会社ユース,,合同会社,東京都,中野区,新井４丁目１７番４－１０４号,,13,114,1650026,,,,,,,2021-10-27,1,,,,,ユース,0
909,4011501027428,新規,0,2021-10-27,2021-10-27,もみじ株式会社,,株式会社,東京都,荒川区,東日暮里２丁目５番５－３０７号,,13,118,1160014,,,,,,,2021-10-27,1,,,,,モミジ,0
910,4011503004953,新規,0,2021-10-27,2021-10-27,合同会社Ｆｉｒｓｔ,,合同会社,東京都,荒川区,町屋５丁目１６番１８号コスモ町屋リバーシティー１０７号室,,13,118,1160001,,,,,,,2021-10-27,1,,,,,ファースト,0
914,4011801039882,新規,0,2021-10-27,2021-10-27,株式会社グランデ,,株式会社,東京都,足立区,綾瀬３丁目１８番１９号３０２,,13,121,1200005,,,,,,,2021-10-27,1,,,,,グランデ,0
916,4012401038457,新規,0,2021-10-27,2021-10-27,株式会社ｙｏｔｔｏ,,株式会社,東京都,三鷹市,牟礼３丁目９番６－２３７号,,13,204,1810002,,,,,,,2021-10-27,1,,,,,ヨット,0
917,4012401038465,新規,0,2021-10-27,2021-10-27,株式会社ＣＬＯＶＥＲ,,株式会社,東京都,稲城市,矢野口８７４－４,,13,225,2060812,,,,,,,2021-10-27,1,,,,,クローバー,0
919,4013103001083,新規,0,2021-10-27,2021-10-27,合同会社エデン,,合同会社,東京都,西多摩郡檜原村,４２９１番地１,,13,307,1900200,,,,,,,2021-10-27,1,,,,,エデン,0
924,4013301048199,新規,0,2021-10-27,2021-10-27,株式会社恩継商事,,株式会社,東京都,豊島区,西池袋１丁目２９番５号,,13,116,1710021,,,,,,,2021-10-27,1,,,,,オンケイショウジ,0
928,4020001143635,新規,0,2021-10-27,2021-10-27,株式会社千手住設,,株式会社,神奈川県,横浜市神奈川区,六角橋５丁目２６番地１１－１０１,,14,102,2210802,,,,,,,2021-10-27,1,,,,,センジュジュウセツ,0
935,4021003011029,新規,0,2021-10-27,2021-10-27,合同会社５５,,合同会社,神奈川県,三浦郡葉山町,堀内１０３９Ａ,,14,301,2400112,,,,,,,2021-10-27,1,,,,,ゴジュウゴ,0
948,4030003018207,新規,0,2021-10-27,2021-10-27,ＬＵＣＫＹ合同会社,,合同会社,埼玉県,草加市,弁天２丁目２７－４５スカイハイツ３Ｂ,,11,221,3400004,,,,,,,2021-10-27,1,,,,,ラッキー,0
959,4040001120748,新規,0,2021-10-27,2021-10-27,株式会社東海三喜,,株式会社,千葉県,柏市,中央町４番２０号,,12,217,2770021,,,,,,,2021-10-27,1,,,,,トウカイサンキ,0
960,4040001120772,新規,0,2021-10-27,2021-10-27,株式会社ＭＧＬ１,,株式会社,千葉県,千葉市若葉区,都賀５丁目２４－２１フローテラス都賀２０９号,,12,104,2640025,,,,,,,2021-10-27,1,,,,,エムジーエルワン,0
961,4040003018577,新規,0,2021-10-27,2021-10-27,合同会社ルウブルツウ,,合同会社,千葉県,成田市,囲護台２丁目９番地２（１０５）,,12,211,2860035,,,,,,,2021-10-27,1,,,,,ルウブルツウ,0
962,4050001050044,新規,0,2021-10-27,2021-10-27,株式会社Ｅｍｐｅｒｉａｌ,,株式会社,茨城県,桜川市,真壁町白井６２７番地３,,08,231,3004404,,,,,,,2021-10-27,1,,,,,インペリアル,0
963,4050003006151,新規,0,2021-10-27,2021-10-27,Ｃｏｍｏ合同会社,,合同会社,茨城県,土浦市,下高津１丁目２０番７号,,08,203,3000812,,,,,,,2021-10-27,1,,,,,コモ,0
973,4080401025444,新規,0,2021-10-27,2021-10-27,株式会社グリーン＆アクティヴ,,株式会社,静岡県,浜松市西区,湖東町６３３９番地の３,,22,133,4311103,,,,,,,2021-10-27,1,,,,,グリーンアンドアクティヴ,0
980,4090001017254,新規,0,2021-10-27,2021-10-27,ハウスビルダーアマノ株式会社,,株式会社,山梨県,南都留郡忍野村,忍草３３３８番地７,,19,424,4010511,,,,,,,2021-10-27,1,,,,,ハウスビルダーアマノ,0
991,4120001241404,新規,0,2021-10-27,2021-10-27,株式会社吉金商事,,株式会社,大阪府,大阪市中央区,島之内１丁目１６番３号おおきに長堀橋鰻谷南サニーアパートメント２０２号室,,27,128,5420082,,,,,,,2021-10-27,1,,,,,ヨシカネショウジ,0
995,4120005022569,新規,0,2021-10-27,2021-10-27,ＳＪ協同組合,,その他の設立登記法人,大阪府,寝屋川市,上神田１丁目９番１号,,27,215,5720052,,,,,,,2021-10-27,1,,,,,エスジェイ,0
1000,4120101064548,新規,0,2021-10-27,2021-10-27,株式会社ＶＩＣＴＯＲＹ,,株式会社,大阪府,堺市西区,山田１丁１２７２番地１,,27,144,5938316,,,,,,,2021-10-27,1,,,,,ビクトリー,0
1006,4130001070364,新規,0,2021-10-27,2021-10-27,株式会社エディックス,,株式会社,京都府,京都市下京区,中堂寺南町１３４番地ＡＳＴＥＭビル８階,,26,106,6008813,,,,,,,2021-10-27,1,,,,,エディックス,0
1007,4130001070414,新規,0,2021-10-27,2021-10-27,株式会社あさひ,,株式会社,京都府,京都市伏見区,醍醐落保町３５番地,,26,109,6011338,,,,,,,2021-10-27,1,,,,,アサヒ,0
1017,4140001123625,新規,0,2021-10-27,2021-10-27,株式会社ヒロック,,株式会社,兵庫県,神戸市垂水区,西舞子９丁目１０番１４号,,28,108,6550048,,,,,,,2021-10-27,1,,,,,ヒロック,0
1020,4150003002529,新規,0,2021-10-27,2021-10-27,天理ラグビーネット合同会社,,合同会社,奈良県,天理市,田井庄町５２９番地,,29,204,6320071,,,,,,,2021-10-27,1,,,,,テンリラグビーネット,0
1025,4170001016842,新規,0,2021-10-27,2021-10-27,ＡＲＵＭＯ株式会社,,株式会社,和歌山県,和歌山市,土入２２８－５,,30,201,6408432,,,,,,,2021-10-27,1,,,,,アルモ,0
1032,4180001148453,新規,0,2021-10-27,2021-10-27,株式会社ワイズサポート,,株式会社,愛知県,名古屋市東区,相生町２４番地Ｐ－ｓｑｕａｒｅ　ｓｈｕｍｏｋｕＩＩ２０２号,00124687,23,102,4610012,,,,,,,2021-10-27,1,,,,,ワイズサポート,0
1044,4200003005360,新規,0,2021-10-27,2021-10-27,合同会社アルテイシア,,合同会社,岐阜県,岐阜市,薮田西１丁目６番１４号ヴィラフローレンス１０５号室,,21,201,5008386,,,,,,,2021-10-27,1,,,,,アルテイシア,0
1047,4220001024492,新規,0,2021-10-27,2021-10-27,ｉｓｈｉｎｏｃｏ株式会社,,株式会社,石川県,小松市,滝ケ原町タ４番地,,17,203,9230335,,,,,,,2021-10-27,1,,,,,イシノコ,0
1052,4230001019054,新規,0,2021-10-27,2021-10-27,株式会社エーエムレンタリース,,株式会社,富山県,滑川市,上島１２４１番地,,16,206,9360852,,,,,,,2021-10-27,1,,,,,エーエムレンタリース,0
1061,4260003003706,新規,0,2021-10-27,2021-10-27,プレジール合同会社,,合同会社,岡山県,岡山市北区,延友４２５番地１,,33,101,7010152,,,,,,,2021-10-27,1,,,,,プレジール,0
1064,4270005005484,新規,0,2021-10-27,2021-10-27,一般社団法人つなぐプロジェクト,,その他の設立登記法人,鳥取県,米子市,角盤町１丁目６０番地７,,31,202,6830812,,,,,,,2021-10-27,1,,,,,ツナグプロジェクト,0
1071,4290001095131,新規,0,2021-10-27,2021-10-27,株式会社ＥＮＦＥＥＬ,,株式会社,福岡県,福岡市中央区,赤坂２丁目２番２６号パサージュ赤坂１０３号,,40,133,8100042,,,,,,,2021-10-27,1,,,,,エンフィール,0
1072,4290001095148,新規,0,2021-10-27,2021-10-27,株式会社ＯＮＥ・ＳＬＥＥＰ,,株式会社,福岡県,福岡市中央区,清川３丁目１４番７号ファーストビル６Ｆ,,40,133,8100005,,,,,,,2021-10-27,1,,,,,ワンスリープ,0
1077,4290005018402,新規,0,2021-10-27,2021-10-27,企業組合大牟田市雇用福祉事業団,,その他の設立登記法人,福岡県,大牟田市,笹林町１丁目２－７,,40,202,8360851,,,,,,,2021-10-27,1,,,,,オオムタシコヨウフクシジギョウダン,0
1107,4400001015647,新規,0,2021-10-27,2021-10-27,株式会社ＬＵＣＹ,,株式会社,岩手県,盛岡市,大通１丁目９－７,,03,201,0200022,,,,,,,2021-10-27,1,,,,,ルーシー,0
1116,4430001085258,新規,0,2021-10-27,2021-10-27,株式会社ツーウェイ,,株式会社,北海道,札幌市中央区,北一条西１５丁目１番地３大通ハイム,,01,101,0600001,,,,,,,2021-10-27,1,,,,,ツーウェイ,0
1118,4430003013290,新規,0,2021-10-27,2021-10-27,合同会社ＮｅｘｔＧｒａｖｉｔｙ,,合同会社,北海道,札幌市中央区,北一条西７丁目４番地タキモトビル２Ｆ,,01,101,0600001,,,,,,,2021-10-27,1,,,,,ネクストグラビティー,0
1125,4700150105524,新規,0,2021-10-27,2021-10-27,野田区,,その他,佐賀県,唐津市,浜玉町東山田７８４番地,,41,202,8495123,,,,,,,2021-10-27,1,,,,,ノダク,0
1130,5010001222083,新規,0,2021-10-27,2021-10-27,株式会社Ｒｅｂｅｒｔｙ,,株式会社,東京都,文京区,関口２丁目５番３－４０２号,,13,105,1120014,,,,,,,2021-10-27,1,,,,,リバティ,0
1131,5010001222100,新規,0,2021-10-27,2021-10-27,株式会社ＤＳエンタープライズ,,株式会社,東京都,千代田区,外神田５丁目２番１１号,,13,101,1010021,,,,,,,2021-10-27,1,,,,,ディーエスエンタープライズ,0
1134,5010101014926,新規,0,2021-10-27,2021-10-27,株式会社アッシュフィールド,,株式会社,東京都,八王子市,鑓水２丁目８３番地２－３０３,,13,201,1920375,,,,,,,2021-10-27,1,,,,,アッシュフィールド,0
1144,5010601060123,新規,0,2021-10-27,2021-10-27,株式会社Ｍｅｉｓｔｅｒ,,株式会社,東京都,墨田区,向島５丁目２８番９号,,13,107,1310033,,,,,,,2021-10-27,1,,,,,マイスター,0
1145,5010603009218,新規,0,2021-10-27,2021-10-27,合同会社までに,,合同会社,東京都,墨田区,八広１丁目４３番６号,,13,107,1310041,,,,,,,2021-10-27,1,,,,,マデニ,0
1157,5010903006897,新規,0,2021-10-27,2021-10-27,合同会社Ｓ．Ｏ．Ｎ．Ｉ,,合同会社,東京都,世田谷区,三軒茶屋２丁目４３－４,,13,112,1540024,,,,,,,2021-10-27,1,,,,,,0
1162,5011001143666,新規,0,2021-10-27,2021-10-27,株式会社すきま,,株式会社,東京都,渋谷区,恵比寿２丁目２８番１０号ＳｈｕＢＬＤＧ２９５４,,13,113,1500013,,,,,,,2021-10-27,1,,,,,スキマ,0
1166,5011003013561,新規,0,2021-10-27,2021-10-27,合同会社チルプラス,,合同会社,東京都,目黒区,上目黒４丁目１‐２９,,13,110,1530051,,,,,,,2021-10-27,1,,,,,チルプラス,0
1167,5011005009277,新規,0,2021-10-27,2021-10-27,一般社団法人ＡＨＩソーシャルイノベーション,,その他の設立登記法人,東京都,渋谷区,代々木２丁目２３番１号ＮＳＭ,,13,113,1510053,,,,,,,2021-10-27,1,,,,,エーエイチアイソーシャルイノベーション,0
1169,5011101096673,新規,0,2021-10-27,2021-10-27,ＳＧ株式会社,,株式会社,東京都,新宿区,四谷１丁目４番２号,,13,104,1600004,,,,,,,2021-10-27,1,,,,,エスジー,0
1170,5011101096681,新規,0,2021-10-27,2021-10-27,ソーシャルメイト株式会社,,株式会社,東京都,新宿区,新宿１丁目３６－２新宿第七葉山ビル３階,,13,104,1600022,,,,,,,2021-10-27,1,,,,,ソーシャルメイト,0
1176,5011105010028,新規,0,2021-10-27,2021-10-27,一般社団法人ユニタウン,,その他の設立登記法人,東京都,新宿区,新宿１丁目１２番１５号サンサーラ第四御苑５０４,,13,104,1600022,,,,,,,2021-10-27,1,,,,,ユニタウン,0
1188,5012401038464,新規,0,2021-10-27,2021-10-27,株式会社パイオン,,株式会社,東京都,小金井市,本町６丁目２番１０－２６０６号プラウドタワー武蔵小金井クロス,,13,210,1840004,,,,,,,2021-10-27,1,,,,,パイオン,0
1189,5012403005082,新規,0,2021-10-27,2021-10-27,Ｂｌｕｅ　Ｐａｃｉｆｉｃ合同会社,,合同会社,東京都,三鷹市,下連雀４丁目２２－１４プレミスト三鷹３０１,,13,204,1810013,,,,,,,2021-10-27,1,,,,,ブルーパシフィック,0
1194,5012801021185,新規,0,2021-10-27,2021-10-27,株式会社ＭｕｌｔｉＰｒｉｄｅ,,株式会社,東京都,昭島市,緑町４丁目４番３３号グリーンヒルズ２０１号,,13,207,1960004,,,,,,,2021-10-27,1,,,,,マルチプライド,0
1225,5040001120755,新規,0,2021-10-27,2021-10-27,株式会社幸家不動産,,株式会社,千葉県,柏市,旭町３丁目１番４号ユーネスハイツＩＩＩ－１０２号,00124683,12,217,2770852,,,,,,,2021-10-27,1,,,,,サチカフドウサン,0
1230,5040003018816,新規,0,2021-10-27,2021-10-27,合同会社Ｒｅｂｉｒｔｈ,,合同会社,千葉県,流山市,おおたかの森北３丁目１９番地の１１,,12,220,2700119,,,,,,,2021-10-27,1,,,,,リバース,0
1233,5050001050043,新規,0,2021-10-27,2021-10-27,海寳株式会社,,株式会社,茨城県,つくば市,玉取２００６番地２,,08,220,3003255,,,,,,,2021-10-27,1,,,,,カイホウ,0
1235,5050003006159,新規,0,2021-10-27,2021-10-27,合同会社Ｔ．アシスト,,合同会社,茨城県,水戸市,酒門町５０３９番地２,,08,201,3100841,,,,,,,2021-10-27,1,,,,,ティーアシスト,0
1236,5060001034227,新規,0,2021-10-27,2021-10-27,株式会社ランドセレクト,,株式会社,栃木県,宇都宮市,富士見が丘２丁目１１－２７モナリザＢ,,09,201,3200011,,,,,,,2021-10-27,1,,,,,ランドセレクト,0
1239,5070001038573,新規,0,2021-10-27,2021-10-27,ＦＬＡＴ株式会社,,株式会社,群馬県,太田市,大原町２５１０番地５,,10,205,3792304,,,,,,,2021-10-27,1,,,,,フラット,0
1244,5090001017253,新規,0,2021-10-27,2021-10-27,株式会社ＡＵＸ,,株式会社,山梨県,甲府市,国母４丁目１７番２号,,19,201,4000043,,,,,,,2021-10-27,1,,,,,アクス,0
1245,5100001034759,新規,0,2021-10-27,2021-10-27,エア・ウォーター・スマイル株式会社,,株式会社,長野県,松本市,梓川倭３８７８番地１,,20,202,3901701,,,,,,,2021-10-27,1,,,,,エアウォータースマイル,0
1253,5120001241403,新規,0,2021-10-27,2021-10-27,株式会社ＧＯ５,,株式会社,大阪府,大阪市中央区,材木町３番８号ベルドムール東横堀４０１号室,,27,128,5400010,,,,,,,2021-10-27,1,,,,,ゴゴゴゴゴ,0
1254,5120001241436,新規,0,2021-10-27,2021-10-27,株式会社タツミカセイ,,株式会社,大阪府,大阪市生野区,巽北２丁目１１番１０号,00124685,27,116,5440004,,,,,,,2021-10-27,1,,,,,タツミカセイ,0
1265,5130001070396,新規,0,2021-10-27,2021-10-27,株式会社リブ・ヤマグチ京都,,株式会社,京都府,京都市伏見区,深草善導寺町３番地４５ポインセチア１階５号,,26,109,6128433,,,,,,,2021-10-27,1,,,,,リブヤマグチキョウト,0
1266,5130001070413,新規,0,2021-10-27,2021-10-27,株式会社ＦＤＯＭＯ,,株式会社,京都府,京都市南区,東九条北松ノ木町４０－１６,,26,107,6018022,,,,,,,2021-10-27,1,,,,,フドモ,0
1275,5140001123640,新規,0,2021-10-27,2021-10-27,株式会社はりまぴあ,,株式会社,兵庫県,姫路市,大津区天満４６７－９,,28,201,6711143,,,,,,,2021-10-27,1,,,,,ハリマピア,0
1280,5140003016900,新規,0,2021-10-27,2021-10-27,ＴＲリユース合同会社,,合同会社,兵庫県,神戸市西区,伊川谷町有瀬５８５番地の１、１０８号,,28,111,6512113,,,,,,,2021-10-27,1,,,,,ティーアールリユース,0
1285,5170001016841,新規,0,2021-10-27,2021-10-27,株式会社Ｐ．Ｗ．Ｏ,,株式会社,和歌山県,海南市,藤白７９番地１３,,30,202,6420034,,,,,,,2021-10-27,1,,,,,ピーダブリューオー,0
1288,5180001148196,新規,0,2021-10-27,2021-10-27,株式会社ウィル,,株式会社,愛知県,名古屋市北区,東味鋺１丁目７２２番地,,23,103,4620013,,,,,,,2021-10-27,1,,,,,ウィル,0
1289,5180001148477,新規,0,2021-10-27,2021-10-27,株式会社リークス,,株式会社,愛知県,名古屋市緑区,平手南１丁目６０２番地,,23,114,4580009,,,,,,,2021-10-27,1,,,,,リークス,0
1292,5180303005145,新規,0,2021-10-27,2021-10-27,Ｄｉｌｉｇｅｎｔ合同会社,,合同会社,愛知県,岡崎市,竜美北２丁目８番地１６,,23,202,4440876,,,,,,,2021-10-27,1,,,,,デリジェント,0
1296,5190001028802,新規,0,2021-10-27,2021-10-27,株式会社コネクション,,株式会社,三重県,松阪市,嬉野滝之川町１１６番地４,,24,204,5152409,,,,,,,2021-10-27,1,,,,,コネクション,0
1305,5210001018668,新規,0,2021-10-27,2021-10-27,株式会社ＭＳ,,株式会社,福井県,福井市,南四ツ居１丁目２３番１号,,18,201,9188204,,,,,,,2021-10-27,1,,,,,エムエス,0
1308,5210003001416,新規,0,2021-10-27,2021-10-27,合同会社ミレッジ,,合同会社,福井県,福井市,燈豊町第３９号６番地７５,,18,201,9103252,,,,,,,2021-10-27,1,,,,,ミレッジ,0
1315,5240001058810,新規,0,2021-10-27,2021-10-27,株式会社Ｓ‐ｌｉｎｋ,,株式会社,広島県,広島市東区,矢賀６丁目２番１７号,,34,102,7320042,,,,,,,2021-10-27,1,,,,,エスリンク,0
1319,5260001036129,新規,0,2021-10-27,2021-10-27,株式会社Ｍ建ホーム,,株式会社,岡山県,岡山市東区,東平島４６７番地,,33,103,7090631,,,,,,,2021-10-27,1,,,,,エムケンホーム,0
1320,5260003003705,新規,0,2021-10-27,2021-10-27,Ｓｐｅｌｌ　Ｌｉｎｋｓ合同会社,,合同会社,岡山県,倉敷市,老松町５丁目１番２０－７１１号老松レジデンス,,33,202,7100826,,,,,,,2021-10-27,1,,,,,スペルリンクス,0
1321,5270005005483,新規,0,2021-10-27,2021-10-27,特定非営利活動法人サステナブル大山,,その他の設立登記法人,鳥取県,西伯郡大山町,御来屋１０２３番地,,31,386,6893211,,,,,,,2021-10-27,1,,,,,サステナブルダイセン,0
1325,5290001095114,新規,0,2021-10-27,2021-10-27,株式会社ワンステップ,,株式会社,福岡県,福岡市中央区,天神２丁目３番１０－７１９号,,40,133,8100001,,,,,,,2021-10-27,1,,,,,ワンステップ,0
1328,5290003011754,新規,0,2021-10-27,2021-10-27,合同会社Ｕ‐ＰＯＷＥＲＳ,,合同会社,福岡県,福岡市博多区,博多駅南３丁目３－３,,40,132,8120016,,,,,,,2021-10-27,1,,,,,ユーパワーズ,0
1349,5370003005459,新規,0,2021-10-27,2021-10-27,合同会社ＫＯＴＯ,,合同会社,宮城県,仙台市青葉区,中山１丁目２０番２７号,,04,101,9810952,,,,,,,2021-10-27,1,,,,,コト,0
1357,5400005008191,新規,0,2021-10-27,2021-10-27,特定非営利活動法人三陸政経フォーラム,,その他の設立登記法人,岩手県,下閉伊郡田野畑村,和野２４０番地４,,03,484,0288407,,,,,,,2021-10-27,1,,,,,サンリクセイケイフォーラム,0
1358,5410005006434,新規,0,2021-10-27,2021-10-27,農事組合法人前川ファーム,,その他の設立登記法人,秋田県,にかほ市,前川字久根添３８番地,,05,214,0180321,,,,,,,2021-10-27,1,,,,,,0
1360,5420003002401,新規,0,2021-10-27,2021-10-27,合同会社Ｙｅｗ　Ｖｉｌｌａｇｅ,,合同会社,青森県,三戸郡五戸町,大字倉石中市字幸神６番地１,,02,442,0391702,,,,,,,2021-10-27,1,,,,,ユウビレッジ,0
1363,5430001085257,新規,0,2021-10-27,2021-10-27,株式会社マンクス・ロフタン,,株式会社,北海道,札幌市中央区,南二条西１丁目７番地１,,01,101,0600062,,,,,,,2021-10-27,1,,,,,マンクスロフタン,0
1369,5700150105523,新規,0,2021-10-27,2021-10-27,港豐百強股斌有限公司,00124666,外国会社等,東京都,中央区,日本橋横山町３番１２号,,13,102,1030003,台湾台北市大同区南京西路６２号１７楼之７,,,,,,2021-10-27,1,,,,,コウホウヒャッキョウコフンユウゲンコウシ,0
1377,6010001221869,新規,0,2021-10-27,2021-10-27,ククレブ・マーケティング株式会社,,株式会社,東京都,千代田区,内神田１丁目１４番８号ＫＡＮＤＡＳＱＵＡＲＥＧＡＴＥ,,13,101,1010047,,,,,,,2021-10-27,1,,,,,ククレブマーケティング,0
1385,6010403026395,新規,0,2021-10-27,2021-10-27,グローバルグロースホールディングス合同会社,,合同会社,東京都,港区,六本木６丁目１０番１号六本木ヒルズ森タワー,,13,103,1060032,,,,,,,2021-10-27,1,,,,,グローバルグロースホールディングス,0
1386,6010403026404,新規,0,2021-10-27,2021-10-27,王子管理合同会社,,合同会社,東京都,港区,芝浦４丁目２１番１－３３０９号,,13,103,1080023,,,,,,,2021-10-27,1,,,,,オウジカンリ,0
1387,6010405020314,新規,0,2021-10-27,2021-10-27,ＵＩ　Ｋｏｔｏ特定目的会社,,その他の設立登記法人,東京都,港区,元赤坂１丁目１番７号,,13,103,1070051,,,,,,,2021-10-27,1,,,,,ユーアイコートー,0
1390,6010603009217,新規,0,2021-10-27,2021-10-27,マルイチ総業合同会社,,合同会社,東京都,墨田区,両国４丁目２５番１１号パークサイド両国１階,,13,107,1300026,,,,,,,2021-10-27,1,,,,,マルイチソウギョウ,0
1412,6011001143500,新規,0,2021-10-27,2021-10-27,株式会社ピースフリーライフ,,株式会社,東京都,渋谷区,恵比寿南１丁目１６番７号エビスツイン仁平５０１,,13,113,1500022,,,,,,,2021-10-27,1,,,,,ピースフリーライフ,0
1413,6011001143673,新規,0,2021-10-27,2021-10-27,株式会社Ｂ‐ＡＲＴ,,株式会社,東京都,目黒区,下目黒１丁目５番２１,,13,110,1530064,,,,,,,2021-10-27,1,,,,,ビーアート,0
1418,6011303004202,新規,0,2021-10-27,2021-10-27,合同会社三日坊主,,合同会社,東京都,杉並区,永福１丁目３９番９号ニュープライム永福マンション２０２,,13,115,1680064,,,,,,,2021-10-27,1,,,,,,0
1421,6011403003483,新規,0,2021-10-27,2021-10-27,大盛合同会社,,合同会社,東京都,板橋区,中丸町３３－１５,,13,119,1730026,,,,,,,2021-10-27,1,,,,,オオモリ,0
1425,6011703002978,新規,0,2021-10-27,2021-10-27,合同会社ジェネシス,,合同会社,東京都,江戸川区,鹿骨町４０２番地ジョリ・キャッスル１０２,,13,123,1330072,,,,,,,2021-10-27,1,,,,,ジェネシス,0
1427,6011801039889,新規,0,2021-10-27,2021-10-27,株式会社サスケハナ,,株式会社,東京都,葛飾区,西新小岩３丁目２８番６号,,13,122,1240025,,,,,,,2021-10-27,1,,,,,サスケハナ,0
1430,6012401038455,新規,0,2021-10-27,2021-10-27,ＣＲＹＰＴＯＧＲＡＭ株式会社,,株式会社,東京都,府中市,矢崎町１丁目６番地の８－１０１,,13,206,1830025,,,,,,,2021-10-27,1,,,,,クリプトグラム,0
1431,6012401038463,新規,0,2021-10-27,2021-10-27,株式会社Ｆｏｒｇｅｔ　ｔｈｅ　Ｔｉｍｅ,,株式会社,東京都,武蔵野市,吉祥寺本町２丁目２２－８アルバヤハギ３０３,,13,203,1800004,,,,,,,2021-10-27,1,,,,,フォゲットザタイム,0
1434,6013301048197,新規,0,2021-10-27,2021-10-27,株式会社フィットワン,,株式会社,東京都,豊島区,駒込４丁目１０番１８号ウェルプレイス桜３０２号,,13,116,1700003,,,,,,,2021-10-27,1,,,,,フィットワン,0
1435,6013303005873,新規,0,2021-10-27,2021-10-27,合同会社ライカム,,合同会社,東京都,豊島区,池袋２丁目１４番１１－１０２号,,13,116,1710014,,,,,,,2021-10-27,1,,,,,ライカム,0
1443,6020001143633,新規,0,2021-10-27,2021-10-27,株式会社テール,,株式会社,神奈川県,川崎市高津区,久本３丁目２番１号,,14,134,2130011,,,,,,,2021-10-27,1,,,,,テール,0
1444,6020001143641,新規,0,2021-10-27,2021-10-27,ジーアイ東日本株式会社,,株式会社,神奈川県,横浜市港南区,芹が谷４丁目１番３号,,14,111,2330006,,,,,,,2021-10-27,1,,,,,ジーアイヒガシニホン,0
1447,6020003020707,新規,0,2021-10-27,2021-10-27,ＢＩＺ－Ｍ　ＡＳＩＡ合同会社,,合同会社,神奈川県,川崎市中原区,小杉三丁目６００番地サードアベニューミッドポイント１－１７,,14,133,2110061,,,,,,,2021-10-27,1,,,,,ビズエムアジア,0
1448,6020003020715,新規,0,2021-10-27,2021-10-27,ＯＷＣ合同会社,,合同会社,神奈川県,横浜市南区,永田山王台１７番４０号,,14,105,2320074,,,,,,,2021-10-27,1,,,,,オーダブリューシー,0
1449,6021001074273,新規,0,2021-10-27,2021-10-27,株式会社ライフティブネクスト,,株式会社,神奈川県,相模原市南区,相模大野３丁目１２－１０,,14,153,2520303,,,,,,,2021-10-27,1,,,,,ライフティブネクスト,0
1450,6021001074331,新規,0,2021-10-27,2021-10-27,株式会社ルース,,株式会社,神奈川県,平塚市,長持４５３番地,,14,203,2591217,,,,,,,2021-10-27,1,,,,,ルース,0
1462,6030001144952,新規,0,2021-10-27,2021-10-27,株式会社リ・ライフ,,株式会社,埼玉県,狭山市,大字上赤坂６０８番地３,,11,215,3501313,,,,,,,2021-10-27,1,,,,,リライフ,0
1463,6030001145018,新規,0,2021-10-27,2021-10-27,石井商事株式会社,,株式会社,埼玉県,川口市,大字芝中町１－２３－１３－１０１,,11,203,3330866,,,,,,,2021-10-27,1,,,,,イシイショウジ,0
1471,6040001120630,新規,0,2021-10-27,2021-10-27,株式会社クレイン,,株式会社,千葉県,旭市,倉橋１９３８番地,,12,215,2892611,,,,,,,2021-10-27,1,,,,,クレイン,0
1472,6040001120746,新規,0,2021-10-27,2021-10-27,株式会社Ｓ,,株式会社,千葉県,千葉市中央区,院内１丁目２番２１号フラッツ１００－５１３号室,,12,101,2600018,,,,,,,2021-10-27,1,,,,,エス,0
1482,6080005007408,新規,0,2021-10-27,2021-10-27,特定非営利活動法人Ｃｅｎ,,その他の設立登記法人,静岡県,藤枝市,田沼１丁目２４番地の８、２Ｆ,,22,214,4260061,,,,,,,2021-10-27,1,,,,,セン,0
1488,6080401025442,新規,0,2021-10-27,2021-10-27,株式会社秀彩,,株式会社,静岡県,浜松市西区,舞阪町弁天島３２８５番地の８８ライオンズリゾート浜名湖１２０６号室,,22,133,4310214,,,,,,,2021-10-27,1,,,,,シュウサイ,0
1490,6090001017252,新規,0,2021-10-27,2021-10-27,株式会社ｃｏｃｏｏｎ,,株式会社,山梨県,甲府市,中央２丁目１３番２０号,,19,201,4000032,,,,,,,2021-10-27,1,,,,,コクーン,0
1492,6100003006276,新規,0,2021-10-27,2021-10-27,合同会社カワモインターナショナルＧ,,合同会社,長野県,長野市,松代町豊栄３０９５番地５２,,20,201,3811222,,,,,,,2021-10-27,1,,,,,カワモインターナショナルジー,0
1493,6100005012784,新規,0,2021-10-27,2021-10-27,一般社団法人未走メソド,,その他の設立登記法人,長野県,松本市,大字島内３７１０番地４,,20,202,3900851,,,,,,,2021-10-27,1,,,,,ミランメソド,0
1498,6110001036142,新規,0,2021-10-27,2021-10-27,株式会社第一コンサルティング,,株式会社,新潟県,新潟市中央区,天神１丁目１２番地７シティタワー新潟１６０１号,,15,103,9500917,,,,,,,2021-10-27,1,,,,,ダイイチコンサルティング,0
1508,6120001241402,新規,0,2021-10-27,2021-10-27,株式会社みずき,,株式会社,大阪府,大阪市此花区,島屋４丁目３番２４号,,27,104,5540024,,,,,,,2021-10-27,1,,,,,ミズキ,0
1509,6120001241427,新規,0,2021-10-27,2021-10-27,株式会社ＴＷＳ,,株式会社,大阪府,大阪市旭区,清水４丁目４番１１号,,27,117,5350021,,,,,,,2021-10-27,1,,,,,ティーダブリューエス,0
1513,6120003020449,新規,0,2021-10-27,2021-10-27,Ｋ９２８合同会社,,合同会社,大阪府,寝屋川市,太秦中町３５－５リバーサイド太秦２０１,,27,215,5720843,,,,,,,2021-10-27,1,,,,,ケイキュウニイハチ,0
1523,6120901045101,新規,0,2021-10-27,2021-10-27,株式会社Ｏｗｌｙ,,株式会社,大阪府,吹田市,高野台１丁目２番５－８１８号,,27,205,5650861,,,,,,,2021-10-27,1,,,,,アウリ,0
1531,6130001070370,新規,0,2021-10-27,2021-10-27,株式会社ＳＧ,,株式会社,京都府,京都市南区,西九条島町２６－１京都ロジュマン島町Ｂ棟３１０,,26,107,6018431,,,,,,,2021-10-27,1,,,,,エスジー,0
1532,6130001070404,新規,0,2021-10-27,2021-10-27,株式会社Ｃｌｅｗ,,株式会社,京都府,京都市下京区,烏丸通仏光寺下る大政所町６８０番地１,,26,106,6008413,,,,,,,2021-10-27,1,,,,,クルー,0
1533,6130001070412,新規,0,2021-10-27,2021-10-27,株式会社ベレスタイル,,株式会社,京都府,京都市中京区,御池通東洞院東入笹屋町４３６永和御池ビル６０６号,,26,104,6048187,,,,,,,2021-10-27,1,,,,,ベレスタイル,0
1535,6130003007552,新規,0,2021-10-27,2021-10-27,合同会社Ｆｅｌｉｚ　Ｃｒｅａｔｉｏｎ,,合同会社,京都府,京都市山科区,椥辻草海道町２３－７４,,26,110,6078162,,,,,,,2021-10-27,1,,,,,フェリスクリエーション,0
1552,6180005019491,新規,0,2021-10-27,2021-10-27,特定非営利活動法人愛知県ベトナム人協会,,その他の設立登記法人,愛知県,名古屋市名東区,香流３丁目７０７番地,,23,115,4650005,,,,,,,2021-10-27,1,,,,,アイチケンベトナムジンキョウカイ,0
1555,6180301035556,新規,0,2021-10-27,2021-10-27,クラスホーム株式会社,,株式会社,愛知県,刈谷市,新栄町６丁目１９番地,,23,210,4480843,,,,,,,2021-10-27,1,,,,,クラスホーム,0
1558,6180303005144,新規,0,2021-10-27,2021-10-27,Ｍｏｏｉ合同会社,,合同会社,愛知県,豊田市,西町４丁目２５番地１３ユニーブル小坂本町２階Ｆ号室,,23,211,4710025,,,,,,,2021-10-27,1,,,,,モーアイ,0
1566,6200001039334,新規,0,2021-10-27,2021-10-27,株式会社ホリ溶接,,株式会社,岐阜県,関市,池田町４０番地１,,21,205,5013247,,,,,,,2021-10-27,1,,,,,ホリヨウセツ,0
1568,6200003005359,新規,0,2021-10-27,2021-10-27,合同会社ひらくのトビラ,,合同会社,岐阜県,恵那市,串原３２９６番地１,,21,210,5097831,,,,,,,2021-10-27,1,,,,,ヒラクノトビラ,0
1572,6220005008606,新規,0,2021-10-27,2021-10-27,特定非営利活動法人北潟湖の不法掘削を復旧する会,,その他の設立登記法人,石川県,金沢市,古府１丁目１８５番修和ビル,,17,201,9200362,,,,,,,2021-10-27,1,,,,,キタガタコノフホウクッサクヲフッキュウスルカイ,0
1575,6240001058818,新規,0,2021-10-27,2021-10-27,株式会社ミキテック,,株式会社,広島県,広島市東区,中山新町３丁目９番３５号,,34,102,7320021,,,,,,,2021-10-27,1,,,,,ミキテック,0
1579,6260001036128,新規,0,2021-10-27,2021-10-27,株式会社の才,,株式会社,岡山県,岡山市北区,表町１丁目３番９号,,33,101,7000822,,,,,,,2021-10-27,1,,,,,ノサイ,0
1580,6260001036136,新規,0,2021-10-27,2021-10-27,株式会社ＢＩＧ　ＭＡＭＡ,,株式会社,岡山県,岡山市北区,春日町６番５号５０２,,33,101,7000905,,,,,,,2021-10-27,1,,,,,ビッグママ,0
1584,6280001008546,新規,0,2021-10-27,2021-10-27,株式会社Ｄｅｗ建築設計事務所,,株式会社,島根県,出雲市,中野町５４２番地７,,32,203,6930062,,,,,,,2021-10-27,1,,,,,デューケンチクセッケイジムショ,0
1593,6290001095162,新規,0,2021-10-27,2021-10-27,コントロール株式会社,,株式会社,福岡県,福岡市中央区,赤坂１丁目１４番２２号センチュリー赤坂門ビル２階,,40,133,8100042,,,,,,,2021-10-27,1,,,,,コントロール,0
1598,6290801027926,新規,0,2021-10-27,2021-10-27,株式会社ＹＫＣ,,株式会社,福岡県,北九州市小倉北区,竪町１丁目２番２９号,,40,106,8030818,,,,,,,2021-10-27,1,,,,,ワイケーシー,0
1600,6290805009482,新規,0,2021-10-27,2021-10-27,特定非営利活動法人北九州グランフィルハーモニー管弦楽団,,その他の設立登記法人,福岡県,北九州市八幡西区,則松１丁目６番２５号,,40,109,8070831,,,,,,,2021-10-27,1,,,,,キタキュウシュウグランフィルハーモニーカンゲンガクダン,0
1601,6310003004192,新規,0,2021-10-27,2021-10-27,合同会社オフィス北野,,合同会社,長崎県,佐世保市,木風町６９５番地,,42,202,8571166,,,,,,,2021-10-27,1,,,,,オフィスキタノ,0
1603,6320001018689,新規,0,2021-10-27,2021-10-27,株式会社想季,,株式会社,大分県,佐伯市,弥生大字細田２１８番地の１,,44,205,8760124,,,,,,,2021-10-27,1,,,,,ソウキ,0
1636,6420003002400,新規,0,2021-10-27,2021-10-27,合同会社天心ノ縁,,合同会社,青森県,平川市,苗生松下東田４１番地２市営住宅４棟４０２号,,02,210,0360163,,,,,,,2021-10-27,1,,,,,テンシンノエン,0
1637,6420005007777,新規,0,2021-10-27,2021-10-27,特定非営利活動法人クララス,,その他の設立登記法人,青森県,八戸市,大字市川町字尻引前山３１番地１２１５,,02,203,0392241,,,,,,,2021-10-27,1,,,,,クララス,0
1638,6430001085256,新規,0,2021-10-27,2021-10-27,株式会社へるっくぶーる,,株式会社,北海道,札幌市手稲区,富丘三条７丁目２番３７号,,01,109,0060013,,,,,,,2021-10-27,1,,,,,ヘルックブール,0
1644,6480003001743,新規,0,2021-10-27,2021-10-27,ビオラ合同会社,,合同会社,徳島県,徳島市,かちどき橋１丁目３７番地の１アルファステイツかちどき橋８０３号室,,36,201,7700939,,,,,,,2021-10-27,1,,,,,ビオラ,0
1655,7010003036075,新規,0,2021-10-27,2021-10-27,合同会社Ｓ’Ｐｒｏｐｅｒｔｙ,,合同会社,東京都,千代田区,九段北１丁目１３番９－１９１２号,,13,101,1020073,,,,,,,2021-10-27,1,,,,,エスプロパティー,0
1660,7010401163421,新規,0,2021-10-27,2021-10-27,Ｔｕｂｅｌｅｓｓ　Ｊａｐａｎ株式会社,,株式会社,東京都,港区,虎ノ門１丁目１７番１号虎ノ門ヒルズビジネスタワー１５階,,13,103,1050001,,,,,,,2021-10-27,1,,,,,チューブレスジャパン,0
1662,7010403026394,新規,0,2021-10-27,2021-10-27,合同会社Ｈｏｏｇａ,,合同会社,東京都,港区,東麻布１丁目１２番６－１１０２号,,13,103,1060044,,,,,,,2021-10-27,1,,,,,フッガ,0
1663,7010403026411,新規,0,2021-10-27,2021-10-27,ＭＭ１合同会社,,合同会社,東京都,港区,西新橋２丁目３９番３号,,13,103,1050003,,,,,,,2021-10-27,1,,,,,エムエムワン,0
1664,7010405020313,新規,0,2021-10-27,2021-10-27,一般社団法人株主権行使推進機構,,その他の設立登記法人,東京都,港区,浜松町２丁目２番１５号浜松町ダイヤビル２Ｆ,,13,103,1050013,,,,,,,2021-10-27,1,,,,,カブヌシケンコウシスイシンキコウ,0
1668,7010601060121,新規,0,2021-10-27,2021-10-27,株式会社心和,,株式会社,東京都,江東区,豊洲６丁目２番３１－３７２０号,,13,108,1350061,,,,,,,2021-10-27,1,,,,,シンワ,0
1677,7011003013634,新規,0,2021-10-27,2021-10-27,合同会社ヨノナカ,,合同会社,東京都,渋谷区,渋谷２丁目１９番１５号宮益坂ビルディング６０９,,13,113,1500002,,,,,,,2021-10-27,1,,,,,ヨノナカ,0
1678,7011101096713,新規,0,2021-10-27,2021-10-27,株式会社インフルエンサーインベストメントホールディングス,,株式会社,東京都,新宿区,西新宿８丁目１７番１号,,13,104,1600023,,,,,,,2021-10-27,1,,,,,インフルエンサーインベストメントホールディングス,0
1679,7011103011109,新規,0,2021-10-27,2021-10-27,合同会社きてれつ,,合同会社,東京都,新宿区,大久保１丁目２番１９－５０６号,,13,104,1690072,,,,,,,2021-10-27,1,,,,,キテレツ,0
1685,7011301027294,新規,0,2021-10-27,2021-10-27,株式会社ｎｅｃｏｎｏｔｅ,,株式会社,東京都,杉並区,高円寺北４丁目９－９,,13,115,1660002,,,,,,,2021-10-27,1,,,,,,0
1694,7011801039888,新規,0,2021-10-27,2021-10-27,株式会社廣宇,,株式会社,東京都,葛飾区,鎌倉１丁目９番１６号,,13,122,1250053,,,,,,,2021-10-27,1,,,,,コウウ,0
1698,7012401038462,新規,0,2021-10-27,2021-10-27,株式会社ｋａｃｈｉｄｏｋｉ,,株式会社,東京都,府中市,小柳町２丁目４７番地の１３,,13,206,1830013,,,,,,,2021-10-27,1,,,,,カチドキ,0
1717,7021001074306,新規,0,2021-10-27,2021-10-27,株式会社デンタルマダムマリ,,株式会社,神奈川県,鎌倉市,由比ガ浜４丁目４番３７号,,14,204,2480014,,,,,,,2021-10-27,1,,,,,デンタルマダムマリ,0
1725,7030001144811,新規,0,2021-10-27,2021-10-27,株式会社ｃｌａｉｒｅ,,株式会社,埼玉県,新座市,石神２丁目２番３６号シャトーリーフＤ１０５号室,,11,230,3520033,,,,,,,2021-10-27,1,,,,,クレール,0
1726,7030001144992,新規,0,2021-10-27,2021-10-27,ＨＡＤＯ株式会社,,株式会社,埼玉県,越谷市,蒲生茜町１４番地５ベルドゥムール越谷茜町１０３,,11,222,3430843,,,,,,,2021-10-27,1,,,,,ハド,0
1727,7030001145009,新規,0,2021-10-27,2021-10-27,Ｓｕｇａｒ　Ｆａｃｔｏｒｙ株式会社,,株式会社,埼玉県,三郷市,さつき平１丁目３番１－２１１号,,11,237,3410021,,,,,,,2021-10-27,1,,,,,シュガーファクトリー,0
1736,7030003018187,新規,0,2021-10-27,2021-10-27,合同会社ＬＩＦＥマネジメント,,合同会社,埼玉県,草加市,青柳６丁目６２番２号,,11,221,3400002,,,,,,,2021-10-27,1,,,,,ライフマネジメント,0
1737,7030003018212,新規,0,2021-10-27,2021-10-27,合同会社ＡＴＯＫ,,合同会社,埼玉県,所沢市,松葉町１３番１７号,,11,208,3590044,,,,,,,2021-10-27,1,,,,,エーティーオーケー,0
1738,7030005020612,新規,0,2021-10-27,2021-10-27,国際中央人材育成協同組合,,その他の設立登記法人,埼玉県,川越市,脇田本町１１番地１０,,11,201,3501123,,,,,,,2021-10-27,1,,,,,,0
1746,7050001050041,新規,0,2021-10-27,2021-10-27,株式会社ＶＩＣＴＯＲＹ,,株式会社,茨城県,水戸市,岩根町９７７番地,,08,201,3114202,,,,,,,2021-10-27,1,,,,,ビィクトリー,0
1756,7080401025433,新規,0,2021-10-27,2021-10-27,株式会社八伊勢,,株式会社,静岡県,袋井市,広岡３２６２,,22,216,4370021,,,,,,,2021-10-27,1,,,,,ハチイセ,0
1757,7080401025441,新規,0,2021-10-27,2021-10-27,株式会社双和ホールディングス,,株式会社,静岡県,浜松市南区,新橋町４２８番地の１,,22,134,4328058,,,,,,,2021-10-27,1,,,,,ソウワホールディングス,0
1758,7100001034757,新規,0,2021-10-27,2021-10-27,株式会社ハタケホットケ,,株式会社,長野県,塩尻市,大門八番町１番２８号スナバ,,20,215,3990737,,,,,,,2021-10-27,1,,,,,ハタケホットケ,0
1774,7120001241401,新規,0,2021-10-27,2021-10-27,株式会社ｄｅｌｉｇｈｔ,,株式会社,大阪府,大阪市中央区,本町４丁目４番１７号ＲＥ－０１２,,27,128,5410053,,,,,,,2021-10-27,1,,,,,ディライト,0
1776,7120003020456,新規,0,2021-10-27,2021-10-27,リバー合同会社,,合同会社,大阪府,門真市,島頭４丁目１番６号,,27,223,5710016,,,,,,,2021-10-27,1,,,,,リバー,0
1780,7120101064545,新規,0,2021-10-27,2021-10-27,株式会社坂田技巧,,株式会社,大阪府,貝塚市,三ツ松２２０２番地１サージュヴィラ２０３,,27,208,5970105,,,,,,,2021-10-27,1,,,,,サカタギコウ,0
1789,7140001123614,新規,0,2021-10-27,2021-10-27,株式会社神戸大学イノベーションプラットフォーム,,株式会社,兵庫県,神戸市灘区,六甲台町１番１号,,28,102,6570013,,,,,,,2021-10-27,1,,,,,コウベダイガクイノベーションプラットフォーム,0
1790,7140001123622,新規,0,2021-10-27,2021-10-27,株式会社ＭＥＧＡＭＡＸ,,株式会社,兵庫県,神戸市中央区,三宮町１丁目７番９号,,28,110,6500021,,,,,,,2021-10-27,1,,,,,メガマックス,0
1791,7140001123630,新規,0,2021-10-27,2021-10-27,Ｂｕｇ　Ｃｏｒｅ株式会社,,株式会社,兵庫県,西宮市,苦楽園三番町１６－８,,28,204,6620081,,,,,,,2021-10-27,1,,,,,バグコア,0
1792,7140001123639,新規,0,2021-10-27,2021-10-27,株式会社匡陣,,株式会社,兵庫県,神戸市西区,前開南町１丁目１３番３０－１０２号,,28,111,6512109,,,,,,,2021-10-27,1,,,,,マサジン,0
1807,7180303005143,新規,0,2021-10-27,2021-10-27,合同会社ＳＴサービス,,合同会社,愛知県,新城市,富永字広見１２８番地１,,23,221,4411302,,,,,,,2021-10-27,1,,,,,エスティーサービス,0
1811,7190001028800,新規,0,2021-10-27,2021-10-27,株式会社テクノ東海,,株式会社,三重県,三重郡菰野町,大字菰野４６６６－６,,24,341,5101233,,,,,,,2021-10-27,1,,,,,テクノトウカイ,0
1828,7240001058817,新規,0,2021-10-27,2021-10-27,株式会社Ｍ．ｌｉｇａｒｅ,,株式会社,広島県,広島市中区,平野町６番１１号エトワール門前１０１,,34,101,7300047,,,,,,,2021-10-27,1,,,,,エムリガーレ,0
1838,7260001036127,新規,0,2021-10-27,2021-10-27,株式会社コバシマリン,,株式会社,岡山県,玉野市,築港５丁目１４番６号,,33,204,7060002,,,,,,,2021-10-27,1,,,,,コバシマリン,0
1839,7260005010986,新規,0,2021-10-27,2021-10-27,一般社団法人玉野駆除会,,その他の設立登記法人,岡山県,玉野市,後閑７７番地７,,33,204,7060315,,,,,,,2021-10-27,1,,,,,タマノクジョカイ,0
1840,7280001008545,新規,0,2021-10-27,2021-10-27,株式会社アンファング,,株式会社,島根県,松江市,嫁島町３番３３号,,32,201,6900047,,,,,,,2021-10-27,1,,,,,アンファング,0
1849,7290001095120,新規,0,2021-10-27,2021-10-27,ＣＲＡＴＥ　ＣＯＭＰＡＮＹ株式会社,,株式会社,福岡県,福岡市中央区,大名１丁目３番１９号,,40,133,8100041,,,,,,,2021-10-27,1,,,,,クレイトカンパニー,0
1854,7290003011744,新規,0,2021-10-27,2021-10-27,合同会社ティー・アール・ピー,,合同会社,福岡県,福岡市南区,和田３丁目７番２６号,,40,134,8111343,,,,,,,2021-10-27,1,,,,,ティーアールピー,0
1867,7340001024197,新規,0,2021-10-27,2021-10-27,株式会社外薗電機,,株式会社,鹿児島県,指宿市,山川入船町５１番地,,46,210,8910507,,,,,,,2021-10-27,1,,,,,ホカゾノデンキ,0
1888,7500001023760,新規,0,2021-10-27,2021-10-27,株式会社キド舎,,株式会社,愛媛県,松山市,平井町甲２３３８番地２,,38,201,7910243,,,,,,,2021-10-27,1,,,,,キドシャ,0
1895,8010001221883,新規,0,2021-10-27,2021-10-27,株式会社ＡＮＤＳＴＵＤＹ,,株式会社,東京都,千代田区,神田駿河台２丁目６番地１１第８７東京ビル３Ｆ,,13,101,1010062,,,,,,,2021-10-27,1,,,,,アンドスタディー,0
1902,8010401163420,新規,0,2021-10-27,2021-10-27,株式会社ＫＭＳ,,株式会社,東京都,港区,南青山２丁目２番１５号ＷｉｎＡｏｙａｍａビルＵＣＦ６階,,13,103,1070062,,,,,,,2021-10-27,1,,,,,ケーエムエス,0
1903,8010401163453,新規,0,2021-10-27,2021-10-27,株式会社ＣｒｏｓｓｐｏＪＡＰＡＮ,,株式会社,東京都,港区,浜松町２丁目２番１５号浜松町ダイヤビル２Ｆ,,13,103,1050013,,,,,,,2021-10-27,1,,,,,クロスポジャパン,0
1904,8010401163528,新規,0,2021-10-27,2021-10-27,株式会社タスキプロス,,株式会社,東京都,港区,北青山２丁目７番９号,,13,103,1070061,,,,,,,2021-10-27,1,,,,,タスキプロス,0
1910,8010803003934,新規,0,2021-10-27,2021-10-27,合同会社ＨＩＴタスケル,,合同会社,東京都,大田区,仲六郷２丁目２８－５,,13,111,1440055,,,,,,,2021-10-27,1,,,,,ヒットタスケル,0
1921,8011001143671,新規,0,2021-10-27,2021-10-27,株式会社ＤＥＬＴＡ,,株式会社,東京都,渋谷区,渋谷２丁目１９番１５－６０９号宮益坂ビルディング,,13,113,1500002,,,,,,,2021-10-27,1,,,,,デルタ,0
1929,8011103011116,新規,0,2021-10-27,2021-10-27,合同会社ｂａｌｎｅｕｍ,,合同会社,東京都,新宿区,西新宿７丁目１８番３号メゾン静峰２０１,,13,104,1600023,,,,,,,2021-10-27,1,,,,,バルネウム,0
1937,8011603003422,新規,0,2021-10-27,2021-10-27,合同会社みぎうで,,合同会社,東京都,練馬区,中村南１丁目１３－２,,13,120,1760025,,,,,,,2021-10-27,1,,,,,ミギウデ,0
1976,8030001145016,新規,0,2021-10-27,2021-10-27,株式会社ティーネクスト,,株式会社,埼玉県,川越市,大字寺尾１１７８番地１０,,11,201,3501141,,,,,,,2021-10-27,1,,,,,ティーネクスト,0
1983,8030003018194,新規,0,2021-10-27,2021-10-27,新清合同会社,,合同会社,埼玉県,さいたま市北区,植竹町１丁目６２３,,11,102,3310813,,,,,,,2021-10-27,1,,,,,シンセイ,0
1993,8040003018648,新規,0,2021-10-27,2021-10-27,合同会社テクノアジア,,合同会社,千葉県,鎌ケ谷市,道野辺１０５１番地２,,12,224,2730114,,,,,,,2021-10-27,1,,,,,テクノアジア,0
1995,8040005021402,新規,0,2021-10-27,2021-10-27,医療法人社団にんじん会,,その他の設立登記法人,千葉県,佐倉市,寺崎北１丁目６番５号,,12,212,2850819,,,,,,,2021-10-27,1,,,,,ニンジンカイ,0
1999,8050001050024,新規,0,2021-10-27,2021-10-27,株式会社シーバル,,株式会社,茨城県,北茨城市,磯原町磯原字双島東側２５４７番地３,,08,215,3191541,,,,,,,2021-10-27,1,,,,,シーバル,0
2022,8120001241391,新規,0,2021-10-27,2021-10-27,株式会社アラタ,,株式会社,大阪府,大阪市中央区,北浜２丁目２番２１－４１０６号,,27,128,5410041,,,,,,,2021-10-27,1,,,,,アラタ,0
2023,8120001241417,新規,0,2021-10-27,2021-10-27,ツクリエ株式会社,,株式会社,大阪府,大阪市住吉区,南住吉１丁目６番６号,,27,120,5580041,,,,,,,2021-10-27,1,,,,,ツクリエ,0
2024,8120001241425,新規,0,2021-10-27,2021-10-27,勝つ森国際株式会社,,株式会社,大阪府,大阪市此花区,西九条１丁目１番８１西九条アーバンコンフォート１１０９号,,27,104,5540012,,,,,,,2021-10-27,1,,,,,カツモリコクサイ,0
2031,8120103004416,新規,0,2021-10-27,2021-10-27,三喜合同会社,,合同会社,大阪府,堺市東区,菩提町５丁２４番地,,27,143,5998103,,,,,,,2021-10-27,1,,,,,サンキ,0
2035,8122001035294,新規,0,2021-10-27,2021-10-27,ｋａｗａｄｅｎ株式会社,,株式会社,大阪府,八尾市,高砂町３丁目５５番１号,,27,212,5810822,,,,,,,2021-10-27,1,,,,,カワデン,0
2041,8130001070410,新規,0,2021-10-27,2021-10-27,株式会社匠カンパニー,,株式会社,京都府,京都市下京区,松原通堺町東入杉屋町２８３番地,,26,106,6008078,,,,,,,2021-10-27,1,,,,,タクミカンパニー,0
2048,8160003002417,新規,0,2021-10-27,2021-10-27,合同会社莉誠,,合同会社,滋賀県,大津市,中央２丁目５番１８号,,25,201,5200043,,,,,,,2021-10-27,1,,,,,リサト,0
2050,8170001016839,新規,0,2021-10-27,2021-10-27,株式会社キャンバス,,株式会社,和歌山県,岩出市,西野１８１番地２,,30,209,6496235,,,,,,,2021-10-27,1,,,,,キャンバス,0
2057,8180001148441,新規,0,2021-10-27,2021-10-27,ＯＫＡＤＡ株式会社,,株式会社,愛知県,名古屋市天白区,土原４丁目２３８番地,,23,116,4680026,,,,,,,2021-10-27,1,,,,,オカダ,0
2058,8180001148466,新規,0,2021-10-27,2021-10-27,株式会社ＦＬＹ　ＨＩＧＨ,,株式会社,愛知県,名古屋市天白区,天白町大字野並字境根２００６番地の４６０ＳｅｒｅｎｏＢ１０１号,,23,116,4680037,,,,,,,2021-10-27,1,,,,,フライハイ,0
2064,8180305009257,新規,0,2021-10-27,2021-10-27,一般財団法人時習館同窓会教育基金,,その他の設立登記法人,愛知県,豊橋市,富本町字国隠２０番地２,,23,201,4418064,,,,,,,2021-10-27,1,,,,,ジシュウカンドウソウカイキョウイクキキン,0
2066,8190003003809,新規,0,2021-10-27,2021-10-27,合同会社ＢＵ,,合同会社,三重県,伊賀市,上野万町２３３４番地の１,,24,216,5180855,,,,,,,2021-10-27,1,,,,,ビーユー,0
2073,8210003001413,新規,0,2021-10-27,2021-10-27,合同会社ＰＩＧＥＯＮ,,合同会社,福井県,福井市,順化２丁目２０番１号片町ランドマークビル３階３－Ｆ,,18,201,9100023,,,,,,,2021-10-27,1,,,,,ピージャン,0
2084,8260001036134,新規,0,2021-10-27,2021-10-27,株式会社キーファー,,株式会社,岡山県,岡山市北区,表町３丁目７番２９号,,33,101,7000822,,,,,,,2021-10-27,1,,,,,,0
2092,8290003011751,新規,0,2021-10-27,2021-10-27,ｋｏｋｋｏ合同会社,,合同会社,福岡県,福岡市東区,雁の巣２丁目３－６－２,,40,131,8110206,,,,,,,2021-10-27,1,,,,,コッコ,0
2094,8290005018407,新規,0,2021-10-27,2021-10-27,一般社団法人Ｌｉｎｋ＆ｃｏ．,,その他の設立登記法人,福岡県,福岡市中央区,舞鶴１丁目８－３３長谷工天神ビル５１２,,40,133,8100073,,,,,,,2021-10-27,1,,,,,リンクアンドカンパニー,0
2099,8330001029114,新規,0,2021-10-27,2021-10-27,株式会社エアーエンジニア,,株式会社,熊本県,熊本市西区,春日８丁目２番３０号,,43,103,8600047,,,,,,,2021-10-27,1,,,,,エアーエンジニア,0
2100,8330005010417,新規,0,2021-10-27,2021-10-27,一般社団法人ウィメンズ・フォーラムくまもと,,その他の設立登記法人,熊本県,上益城郡益城町,大字惣領１５１３番地１,,43,443,8612233,,,,,,,2021-10-27,1,,,,,ウィメンズフォーラムクマモト,0
2101,8340001024205,新規,0,2021-10-27,2021-10-27,株式会社Ｊｉｎ　Ｃｏｒｐｏｒａｔｉｏｎ,,株式会社,鹿児島県,鹿児島市,西田２丁目１７番３５号,,46,201,8900046,,,,,,,2021-10-27,1,,,,,ジンコーポレーション,0
2102,8350001017380,新規,0,2021-10-27,2021-10-27,マッシュ株式会社,,株式会社,宮崎県,宮崎市,大工２丁目１３８番地１,,45,201,8800015,,,,,,,2021-10-27,1,,,,,マッシュ,0
2121,8460103001404,新規,0,2021-10-27,2021-10-27,合同会社ＫＴ産業,,合同会社,北海道,中川郡幕別町,字明野１０７番地,,01,643,0890612,,,,,,,2021-10-27,1,,,,,ケーティーサンギョウ,0
2131,8700150035593,新規,0,2021-10-27,2015-10-09,仙台市中央卸売市場運営協力会,,その他,宮城県,仙台市若林区,卸町４丁目３－１,,04,103,9840015,,,,,,,2015-10-09,1,,,,,センダイシチユウオウオロシウリシジヨウウンエイキヨウリヨクカイ,0
2132,8700150104860,新規,0,2021-10-27,2021-09-27,ブルーハウス,,その他,静岡県,掛川市,上西郷１１００－１,,22,213,4360342,,,,,,,2021-09-27,1,,,,,ブルーハウス,0
2133,8700150105149,新規,0,2021-10-27,2021-10-07,Ｔｏｋｙｏ　ｍｏｄａｌ　ｍｕｓｉｃ　ｌａｂ,,その他,東京都,武蔵野市,吉祥寺北町１丁目８－６,,13,203,1800001,,,,,,,2021-10-07,1,,,,,トウキヨウモーダルミユージツクラボ,0
2139,9010001222096,新規,0,2021-10-27,2021-10-27,株式会社エニコム,,株式会社,東京都,千代田区,九段南１丁目５番６号りそな九段ビル５Ｆ．ＫＳフロア,,13,101,1020074,,,,,,,2021-10-27,1,,,,,エニコム,0
2142,9010005034133,新規,0,2021-10-27,2021-10-27,税理士法人オフィスネクスト,,その他の設立登記法人,東京都,千代田区,神田富山町７番４０９号,,13,101,1010043,,,,,,,2021-10-27,1,,,,,オフィスネクスト,0
2143,9010005034141,新規,0,2021-10-27,2021-10-27,一般社団法人ＰＳレジファンドＡ号ホールディングス,,その他の設立登記法人,東京都,千代田区,丸の内３丁目１番１号東京共同会計事務所内,,13,101,1000005,,,,,,,2021-10-27,1,,,,,ピーエスレジファンドエーゴウホールディングス,0
2154,9010401163477,新規,0,2021-10-27,2021-10-27,高井信朗医療コンサルティング株式会社,,株式会社,東京都,港区,六本木１丁目７番１０号パークコート六本木ヒルトップ１８０８,,13,103,1060032,,,,,,,2021-10-27,1,,,,,タカイシンロウイリョウコンサルティング,0
2159,9010603009222,新規,0,2021-10-27,2021-10-27,合同会社１２０度,,合同会社,東京都,墨田区,錦糸２丁目６番３号,,13,107,1300013,,,,,,,2021-10-27,1,,,,,ヒャクニジュウド,0
2165,9010703005988,新規,0,2021-10-27,2021-10-27,Ｘｅｍ２５合同会社,,合同会社,東京都,品川区,旗の台２丁目１番２５－３０３号,,13,109,1420064,,,,,,,2021-10-27,1,,,,,セムニーゴー,0
2166,9010801032430,新規,0,2021-10-27,2021-10-27,株式会社コーポ青山,,株式会社,東京都,大田区,大森東１丁目１０番６号,,13,111,1430012,,,,,,,2021-10-27,1,,,,,コーポアオヤマ,0
2167,9010803003933,新規,0,2021-10-27,2021-10-27,合同会社ナカヒロ,,合同会社,東京都,大田区,東矢口１丁目８番３号,,13,111,1460094,,,,,,,2021-10-27,1,,,,,ナカヒロ,0
2178,9011001143571,新規,0,2021-10-27,2021-10-27,株式会社セキトー・コーポレーション,,株式会社,東京都,目黒区,自由が丘１丁目３番１９号,,13,110,1520035,,,,,,,2021-10-27,1,,,,,セキトーコーポレーション,0
2179,9011001143670,新規,0,2021-10-27,2021-10-27,株式会社Ｌｏｇｉｃ＆Ｃｏ．,,株式会社,東京都,渋谷区,東３丁目６番３号,,13,113,1500011,,,,,,,2021-10-27,1,,,,,ロジックアンドコウ,0
2197,9012401038460,新規,0,2021-10-27,2021-10-27,株式会社ｍｏｏｄ,,株式会社,東京都,三鷹市,新川１丁目１３番２０号１０１,,13,204,1810004,,,,,,,2021-10-27,1,,,,,,0
2202,9013301048194,新規,0,2021-10-27,2021-10-27,株式会社ピュアストリーム２ｎｄ,,株式会社,東京都,豊島区,西池袋３丁目６番１８号,,13,116,1710021,,,,,,,2021-10-27,1,,,,,ピュアストリームセカンド,0
2208,9020001143647,新規,0,2021-10-27,2021-10-27,株式会社Ｚ,,株式会社,神奈川県,横浜市中区,真砂町４丁目４３番地木下商事ビル地下１階,,14,104,2310016,,,,,,,2021-10-27,1,,,,,ゼット,0
2221,9021001074254,新規,0,2021-10-27,2021-10-27,株式会社むすぶ,,株式会社,神奈川県,藤沢市,川名８３１番地１－７０１号,,14,205,2510015,,,,,,,2021-10-27,1,,,,,ムスブ,0
2233,9030001145007,新規,0,2021-10-27,2021-10-27,ジェイエスシー株式会社,,株式会社,埼玉県,越谷市,大字西新井７００番地１,,11,222,3430855,,,,,,,2021-10-27,1,,,,,ジェイエスシー,0
2234,9030001145015,新規,0,2021-10-27,2021-10-27,株式会社トラスト・ジャパン,,株式会社,埼玉県,川口市,朝日６丁目４－２０第３コーポサンキョー１０７室,,11,203,3320001,,,,,,,2021-10-27,1,,,,,トラストジャパン,0
2248,9040005021401,新規,0,2021-10-27,2021-10-27,ＮＰＯ法人Ａｃｃｅｓｓｉｂｉｌｉｔｙ　ｉｎｎｏｖａｔｉｏｎｓ,,その他の設立登記法人,千葉県,千葉市中央区,要町１０番地４,,12,101,2600017,,,,,,,2021-10-27,1,,,,,アクセシビリティイノベーションズ,0
2262,9060003003845,新規,0,2021-10-27,2021-10-27,合同会社Ｈａｐｐｉｎｅｓｓ３３,,合同会社,栃木県,小山市,大字間々田１５０５番地１０,,09,208,3290205,,,,,,,2021-10-27,1,,,,,ハピネスサンジュウサン,0
2270,9080401025448,新規,0,2021-10-27,2021-10-27,株式会社ティーエレック,,株式会社,静岡県,浜松市東区,丸塚町５２０番地の２４,,22,132,4350046,,,,,,,2021-10-27,1,,,,,ティーエレック,0
2274,9090003001978,新規,0,2021-10-27,2021-10-27,十楽ソフトウェア開発合同会社,,合同会社,山梨県,南アルプス市,飯野２８９３番地キャセロセントロ２０５号,,19,208,4000222,,,,,,,2021-10-27,1,,,,,ジュウラクソフトウェアカイハツ,0
2299,9120001241333,新規,0,2021-10-27,2021-10-27,株式会社ａｂｕｎｒｅｅｌ,,株式会社,大阪府,大阪市淀川区,木川西４丁目１番３１号,,27,123,5320013,,,,,,,2021-10-27,1,,,,,アバンリール,0
2300,9120001241408,新規,0,2021-10-27,2021-10-27,株式会社スマルト,,株式会社,大阪府,大阪市西区,新町１丁目２８番１１号,,27,106,5500013,,,,,,,2021-10-27,1,,,,,スマルト,0
2301,9120001241432,新規,0,2021-10-27,2021-10-27,ツクヰプロセス株式会社,,株式会社,大阪府,大阪市北区,梅田３丁目４番５号,,27,127,5300001,,,,,,,2021-10-27,1,,,,,ツクイプロセス,0
2302,9120001241440,新規,0,2021-10-27,2021-10-27,株式会社ディーアールイー,,株式会社,大阪府,大阪市中央区,島町２丁目１番１５号ＩＴビル４Ｆ,,27,128,5400034,,,,,,,2021-10-27,1,,,,,ディーアールイー,0
2306,9120003020462,新規,0,2021-10-27,2021-10-27,合同会社ＹＵＺＵ,,合同会社,大阪府,大阪市平野区,瓜破１丁目１番１１－１５０４号,,27,126,5470024,,,,,,,2021-10-27,1,,,,,ユズ,0
2312,9120103004415,新規,0,2021-10-27,2021-10-27,ＷｈｉｔｅＮｏｉｓｅ合同会社,,合同会社,大阪府,堺市西区,鳳北町２丁８１番地７,,27,144,5938328,,,,,,,2021-10-27,1,,,,,ホワイトノイズ,0
2314,9120905006237,新規,0,2021-10-27,2021-10-27,一般社団法人虎呀,,その他の設立登記法人,大阪府,豊中市,若竹町２丁目１５番６号,,27,203,5610811,,,,,,,2021-10-27,1,,,,,コア,0
2316,9130001070401,新規,0,2021-10-27,2021-10-27,株式会社Ｊ．Ｄ．Ｉ．,,株式会社,京都府,京都市下京区,堺町通綾小路下る永原町１５３番地１４,,26,106,6008073,,,,,,,2021-10-27,1,,,,,ジェイディーアイ,0
2323,9140001123570,新規,0,2021-10-27,2021-10-27,株式会社らくわ,,株式会社,兵庫県,神戸市中央区,相生町４丁目１番３７号,,28,110,6500025,,,,,,,2021-10-27,1,,,,,ラクワ,0
2324,9140001123620,新規,0,2021-10-27,2021-10-27,上條商事株式会社,,株式会社,兵庫県,尼崎市,額田町２番１０号,,28,202,6610962,,,,,,,2021-10-27,1,,,,,カミジョウショウジ,0
2325,9140001123629,新規,0,2021-10-27,2021-10-27,３２ｗｏｒｋｅｒｓ株式会社,,株式会社,兵庫県,西宮市,山口町上山口１４６５番地５,,28,204,6511421,,,,,,,2021-10-27,1,,,,,ミッツワーカーズ,0
2329,9140003016913,新規,0,2021-10-27,2021-10-27,ハートの輝き合同会社,,合同会社,兵庫県,神戸市北区,筑紫が丘９丁目２番地の１５,,28,109,6511212,,,,,,,2021-10-27,1,,,,,,0
2332,9150001025056,新規,0,2021-10-27,2021-10-27,坊井工業株式会社,,株式会社,奈良県,吉野郡東吉野村,大字鷲家１０９３番地の２,,29,453,6332422,,,,,,,2021-10-27,1,,,,,ボウイコウギョウ,0
2336,9170001016838,新規,0,2021-10-27,2021-10-27,株式会社エトレ,,株式会社,和歌山県,紀の川市,中井阪２０９番地５,,30,208,6496425,,,,,,,2021-10-27,1,,,,,エトレ,0
2342,9180001148449,新規,0,2021-10-27,2021-10-27,株式会社サワ,,株式会社,愛知県,名古屋市東区,橦木町３丁目２９番地,,23,102,4610014,,,,,,,2021-10-27,1,,,,,サワ,0
2345,9180301035553,新規,0,2021-10-27,2021-10-27,株式会社井部設計企画,,株式会社,愛知県,岡崎市,中町字東丸根１２１番地,,23,202,4440015,,,,,,,2021-10-27,1,,,,,イベセッケイキカク,0
2349,9190003003808,新規,0,2021-10-27,2021-10-27,ＹＹメタル合同会社,,合同会社,三重県,四日市市,大治田２丁目７３０番地１,,24,202,5100875,,,,,,,2021-10-27,1,,,,,ワイワイメタル,0
2353,9240001058815,新規,0,2021-10-27,2021-10-27,金達貿易株式会社,,株式会社,広島県,広島市安佐北区,亀崎１丁目２０番２２号,,34,106,7391742,,,,,,,2021-10-27,1,,,,,カネタツボウエキ,0
2364,9290001095135,新規,0,2021-10-27,2021-10-27,オハヨー株式会社,,株式会社,福岡県,福岡市博多区,博多駅前４丁目３５番７－１０１号,,40,132,8120011,,,,,,,2021-10-27,1,,,,,オハヨー,0
2365,9290001095151,新規,0,2021-10-27,2021-10-27,株式会社ＡＸＥＳ,,株式会社,福岡県,福岡市中央区,大名１丁目７番３号,,40,133,8100041,,,,,,,2021-10-27,1,,,,,アクセス,0
2370,9290801027931,新規,0,2021-10-27,2021-10-27,日本エムプランニング株式会社,,株式会社,福岡県,築上郡吉富町,大字幸子９６２番地１,,40,642,8710821,,,,,,,2021-10-27,1,,,,,ニホンエムプランニング,0
2375,9310003004198,新規,0,2021-10-27,2021-10-27,合同会社チーズたちのｔｅａ　ｔｉｍｅ,,合同会社,長崎県,長崎市,畝刈町７７４番地,,42,201,8512212,,,,,,,2021-10-27,1,,,,,チーズタチノティータイム,0
2376,9320003003645,新規,0,2021-10-27,2021-10-27,合同会社ｐａｓｓｅｒｅｌｌｅ,,合同会社,大分県,別府市,大字野田６５８番地の６,,44,202,8740016,,,,,,,2021-10-27,1,,,,,,0
2378,9330001029113,新規,0,2021-10-27,2021-10-27,濱崎鉄建株式会社,00124684,株式会社,熊本県,熊本市南区,南高江２丁目６番１３号,,43,104,8614106,,,,,,,2021-10-27,1,,,,,ハマザキテッケン,0
2385,9350003003956,新規,0,2021-10-27,2021-10-27,Ｄ＆Ｈ合同会社,,合同会社,宮崎県,都城市,小松原町１０－９,,45,202,8850022,,,,,,,2021-10-27,1,,,,,ディーアンドエイチ,0
2386,9360001029548,新規,0,2021-10-27,2021-10-27,株式会社シャルム,,株式会社,沖縄県,那覇市,古島１丁目７－３３,,47,201,9020061,,,,,,,2021-10-27,1,,,,,シャルム,0
2387,9360003011520,新規,0,2021-10-27,2021-10-27,Ｍａｒｌｕ合同会社,,合同会社,沖縄県,浦添市,伊祖２丁目２２番１０号比嘉企画ビル１０１,,47,208,9012132,,,,,,,2021-10-27,1,,,,,マール,0
