sequenceNumber,corporateNumber,process,correct,updateDate,changeDate,name,nameImageId,kind,prefectureName,cityName,streetNumber,addressImageId,prefectureCode,cityCode,postCode,addressOutside,addressOutsideImageId,closeDate,closeCause,successorCorporateNumber,changeCause,assignmentDate,latest,enName,enPrefectureName,enCityName,enAddressOutside,furigana,hihyoji
7,1010002046502,登記記録の閉鎖等,0,2021-08-02,2021-07-13,有限会社マッターホルン,,有限会社,東京都,千代田区,三番町９番地１,,13,101,1020075,,,2021-07-13,清算の結了等,,,2015-10-05,1,,,,,マッターホルン,0
8,1010003017725,登記記録の閉鎖等,0,2021-08-02,2021-07-19,ＨＧ銀座合同会社,,合同会社,東京都,港区,元赤坂１丁目１番８号,,13,103,1070051,,,2021-07-19,清算の結了等,,,2015-10-05,1,,,,,エイチジーギンザ,0
47,1011002029307,登記記録の閉鎖等,0,2021-08-02,2021-07-29,有限会社ヴィジョンネアー,,有限会社,東京都,渋谷区,元代々木町１０番９号,,13,113,1510062,,,2021-07-29,清算の結了等,,,2015-10-05,1,,,,,ヴィジョンネアー,0
62,1011403002374,登記記録の閉鎖等,0,2021-08-02,2021-07-26,柯皓合同会社,,合同会社,東京都,荒川区,町屋３丁目２－１Ｂ１０３３号室,,13,118,1160001,,,2021-07-26,清算の結了等,,,2018-04-19,1,,,,,カコウ,0
117,1030002063628,登記記録の閉鎖等,0,2021-08-02,2021-07-19,有限会社物流トフジ,,有限会社,埼玉県,ふじみ野市,市沢３丁目４番３号,,11,245,3560057,,,2021-07-19,清算の結了等,,,2015-10-05,1,,,,,ブツリュウトフジ,0
124,1040001062299,登記記録の閉鎖等,0,2021-08-02,2021-07-19,株式会社銚子波崎葬祭センター,,株式会社,千葉県,銚子市,長塚町１丁目１番地の２３,,12,202,2880837,,,2021-07-19,清算の結了等,,,2015-10-05,1,,,,,チョウシハサキソウサイセンター,0
129,1040002060491,登記記録の閉鎖等,0,2021-08-02,2021-07-19,有限会社川京,,有限会社,千葉県,佐倉市,上志津１６５６番地,,12,212,2850846,,,2021-07-19,清算の結了等,,,2015-10-05,1,,,,,カワキョウ,0
137,1060001000835,登記記録の閉鎖等,0,2021-08-02,2021-07-20,株式会社エスアイエー,,株式会社,栃木県,宇都宮市,宝木本町１１９２番地５５,,09,201,3200075,,,2021-07-20,清算の結了等,,,2015-10-05,1,,,,,エスアイエー,0
141,1060001024586,登記記録の閉鎖等,0,2021-08-02,2021-07-20,株式会社楽らく,,株式会社,栃木県,小山市,大字横倉字中林４８２番地１３,,09,208,3230813,,,2021-07-20,清算の結了等,,,2015-10-05,1,,,,,ラクラク,0
147,1080101000873,登記記録の閉鎖等,0,2021-08-02,2021-07-27,株式会社杉山工業,,株式会社,静岡県,沼津市,本字下河原町３３番地,,22,203,4100841,,,2021-07-27,清算の結了等,,,2015-10-05,1,,,,,スギヤマコウギョウ,0
148,1080101003488,登記記録の閉鎖等,0,2021-08-02,2021-07-30,株式会社ＢＥＡＮ　ＣＵＲＤ,,株式会社,静岡県,駿東郡清水町,卸団地３００番地,,22,341,4110912,,,2021-07-30,清算の結了等,,,2015-10-05,1,,,,,ビーンカード,0
156,1100002021958,登記記録の閉鎖等,0,2021-08-02,2021-07-29,有限会社矢花,,有限会社,長野県,松本市,巾上５番３号,,20,202,3900817,,,2021-07-29,清算の結了等,,,2015-10-05,1,,,,,ヤバナ,0
157,1110001013600,登記記録の閉鎖等,0,2021-08-02,2021-07-26,伊藤工業株式会社,,株式会社,新潟県,新発田市,佐々木１７６６番地４,,15,206,9570082,,,2021-07-26,合併による解散等,2110001012469,令和３年７月２１日新潟県新潟市北区太田甲１０４番地１タンレイ工業株式会社（2110001012469）に合併し解散,2015-10-05,1,,,,,イトウコウギョウ,0
159,1110001031321,登記記録の閉鎖等,0,2021-08-02,2021-07-27,ＯＮＥ　ＬＩＦＥ株式会社,,株式会社,新潟県,長岡市,山田３丁目１番３４号,,15,202,9400097,,,2021-07-27,清算の結了等,,,2016-03-04,1,,,,,,0
161,1120001000663,登記記録の閉鎖等,0,2021-08-02,2021-07-20,ダイデンキ工業株式会社,,株式会社,大阪府,大阪市都島区,内代町２丁目１番２０号,,27,102,5340013,,,2021-07-20,清算の結了等,,,2015-10-05,1,,,,,ダイデンキコウギョウ,0
169,1120001115602,登記記録の閉鎖等,0,2021-08-02,2021-07-19,株式会社未上場株式マーケットコンサルティング,,株式会社,大阪府,大阪市中央区,本町４丁目１番７号第二有楽ビル,,27,128,5410053,,,2021-07-19,清算の結了等,,,2015-10-05,1,,,,,ミジョウジョウカブシキマーケットコンサルティング,0
176,1120001218487,登記記録の閉鎖等,0,2021-08-02,2021-07-21,株式会社飯田地産,,株式会社,大阪府,大阪市住吉区,殿辻１丁目２番２６号,00118072,27,120,5580042,,,2021-07-21,清算の結了等,,,2019-01-23,1,,,,,イイダチサン,0
183,1120105004437,登記記録の閉鎖等,0,2021-08-02,2021-07-20,特定非営利活動法人日本肝がん臨床研究機構,,その他の設立登記法人,大阪府,大阪狭山市,大野東３７７－２近畿大学医学部内科学講座消化器内科部門,,27,231,5890014,,,2021-07-20,清算の結了等,,,2015-10-05,1,,,,,ニホンカンガンリンショウケンキュウキコウ,0
190,1130005011474,登記記録の閉鎖等,0,2021-08-02,2021-07-27,公益財団法人舞鶴市文化事業団,,その他の設立登記法人,京都府,舞鶴市,字浜２０２１番地,,26,202,6250036,,,2021-07-27,清算の結了等,,,2015-10-05,1,,,,,マイヅルシブンカジギョウダン,0
191,1140001039683,登記記録の閉鎖等,0,2021-08-02,2021-07-27,株式会社井川材木店,,株式会社,兵庫県,相生市,双葉２丁目１２番４号,,28,208,6780024,,,2021-07-27,清算の結了等,,,2015-10-05,1,,,,,イカワザイモクテン,0
214,1180001007918,登記記録の閉鎖等,0,2021-08-02,2021-07-15,岩田住設機器株式会社,,株式会社,愛知県,名古屋市昭和区,鶴舞２丁目９番６号,,23,107,4660064,,,2021-07-15,清算の結了等,,,2015-10-05,1,,,,,イワタジュウセツキキ,0
248,1230001010718,登記記録の閉鎖等,0,2021-08-02,2021-07-14,原野木材株式会社,,株式会社,富山県,高岡市,戸出光明寺３６１番地,,16,202,9391121,,,2021-07-14,清算の結了等,,,2015-10-05,1,,,,,ハラノモクザイ,0
249,1230001011369,登記記録の閉鎖等,0,2021-08-02,2021-07-15,株式会社ローズウッドコーポレイション,,株式会社,富山県,高岡市,城東２丁目１番１５号,,16,202,9330041,,,2021-07-15,清算の結了等,,,2015-10-05,1,,,,,ローズウッドコーポレイション,0
276,1320002016671,登記記録の閉鎖等,0,2021-08-02,2021-07-28,有限会社公伸林業,,有限会社,大分県,佐伯市,弥生大字門田２６９番地,,44,205,8760122,,,2021-07-28,清算の結了等,,,2015-10-05,1,,,,,コウシンリンギョウ,0
288,1360003007212,登記記録の閉鎖等,0,2021-08-02,2021-07-28,合同会社ジョイ,,合同会社,沖縄県,沖縄市,上地３丁目３番２号,,47,211,9040031,,,2021-07-28,清算の結了等,,,2015-10-05,1,,,,,ジョイ,0
301,1400002001153,登記記録の閉鎖等,0,2021-08-02,2021-07-26,有限会社ケ企画,,有限会社,岩手県,盛岡市,仙北３丁目１７番１１号,,03,201,0200861,,,2021-07-26,清算の結了等,,,2015-10-05,1,,,,,ケキカク,0
309,1430002065823,登記記録の閉鎖等,0,2021-08-02,2021-07-19,有限会社森田工業,,有限会社,北海道,室蘭市,東町５丁目１５番７号,,01,205,0500083,,,2021-07-19,清算の結了等,,,2015-10-05,1,,,,,モリタコウギョウ,0
324,2010001165517,登記記録の閉鎖等,0,2021-08-02,2021-07-15,株式会社ＧｒａｆｆＡｒｔ,,株式会社,埼玉県,川口市,末広１丁目３番８号,,11,203,3320006,,,2021-07-15,清算の結了等,,,2015-10-05,1,,,,,グラフアート,0
327,2010001202006,登記記録の閉鎖等,0,2021-08-02,2021-07-12,株式会社エコイスト,,株式会社,東京都,渋谷区,代々木１丁目５９－１オーハシビル６階１号室,,13,113,1510053,,,2021-07-12,清算の結了等,,,2019-06-28,1,,,,,エコイスト,0
341,2010005013226,登記記録の閉鎖等,0,2021-08-02,2021-07-16,特定非営利活動法人エルダーシステム,,その他の設立登記法人,東京都,千代田区,九段南１丁目５番６号りそな九段ビル５Ｆ,,13,101,1020074,,,2021-07-16,清算の結了等,,,2015-10-05,1,,,,,エルダーシステム,0
360,2010701032859,登記記録の閉鎖等,0,2021-08-02,2021-07-29,ＪＡＰＡＮ　ＦＯＯＤ＆ＣＵＬＴＵＲＥ株式会社,,株式会社,東京都,品川区,西五反田２丁目９番７号,,13,109,1410031,,,2021-07-29,清算の結了等,,,2016-08-12,1,,,,,ジャパンフードアンドカルチャー,0
364,2010801017669,登記記録の閉鎖等,0,2021-08-02,2021-07-21,ＴＳＤ株式会社,,株式会社,東京都,大田区,大森北６丁目２番１４号,,13,111,1430016,,,2021-07-21,清算の結了等,,,2015-10-05,1,,,,,ティエスディ,0
366,2010802008989,登記記録の閉鎖等,0,2021-08-02,2021-07-20,有限会社橘商店,,有限会社,東京都,大田区,仲六郷１丁目５３番７号,,13,111,1440055,,,2021-07-20,清算の結了等,,,2015-10-05,1,,,,,タチバナショウテン,0
387,2011701022858,登記記録の閉鎖等,0,2021-08-02,2021-07-20,ＲａｎｄＦ株式会社,,株式会社,千葉県,柏市,柏４丁目４番１４号太陽ビル３階,,12,217,2770005,,,2021-07-20,清算の結了等,,,2019-08-07,1,,,,,ランドエフ,0
388,2011702004442,登記記録の閉鎖等,0,2021-08-02,2021-07-29,有限会社小宮山商店,,有限会社,東京都,江戸川区,北小岩２丁目１番３号,,13,123,1330051,,,2021-07-29,清算の結了等,,,2015-10-05,1,,,,,コミヤマショウテン,0
396,2013301034077,登記記録の閉鎖等,0,2021-08-02,2021-07-27,株式会社ブリスベン,,株式会社,東京都,豊島区,東池袋４丁目１５番６号敷島ハイツ３０１号,,13,116,1700013,,,2021-07-27,清算の結了等,,,2015-10-05,1,,,,,ブリスベン,0
402,2020001060337,登記記録の閉鎖等,0,2021-08-02,2021-07-21,株式会社宝夢,,株式会社,神奈川県,川崎市幸区,柳町３０番地４,,14,132,2120015,,,2021-07-21,清算の結了等,,,2015-10-05,1,,,,,ホウム,0
415,2020002098418,登記記録の閉鎖等,0,2021-08-02,2021-07-20,仲座運送有限会社,,有限会社,神奈川県,川崎市川崎区,小田栄１丁目９番１６号,,14,131,2100843,,,2021-07-20,清算の結了等,,,2015-10-05,1,,,,,ナカザウンソウ,0
420,2020005011559,登記記録の閉鎖等,0,2021-08-02,2021-07-27,一般社団法人ＳＤプロモーション,,その他の設立登記法人,新潟県,佐渡市,四日町５８７－２,,15,224,9520306,,,2021-07-27,清算の結了等,,,2015-10-05,1,,,,,エスディプロモーション,0
423,2021002052447,登記記録の閉鎖等,0,2021-08-02,2021-07-21,有限会社多田洋蘭園,,有限会社,神奈川県,小田原市,中村原８００番地,,14,206,2560803,,,2021-07-21,清算の結了等,,,2015-10-05,1,,,,,,0
449,2040002020206,登記記録の閉鎖等,0,2021-08-02,2021-07-19,有限会社浅利寝装店,,有限会社,千葉県,船橋市,本中山４丁目２５番１６号,,12,204,2730035,,,2021-07-19,清算の結了等,,,2015-10-05,1,,,,,アサリシンソウテン,0
477,2110002024075,登記記録の閉鎖等,0,2021-08-02,2021-07-26,龍野ヘドバン有限会社,,有限会社,新潟県,上越市,大潟区渋柿浜字砂原５３５－２,,15,222,9493115,,,2021-07-26,清算の結了等,,,2015-10-05,1,,,,,タツノヘドバン,0
485,2120001092725,登記記録の閉鎖等,0,2021-08-02,2021-07-19,株式会社ワールドネットワーク,,株式会社,大阪府,大阪市中央区,北久宝寺町４丁目３番８－６０７号,,27,128,5410057,,,2021-07-19,清算の結了等,,,2015-10-05,1,,,,,ワールドネットワーク,0
493,2120001182930,登記記録の閉鎖等,0,2021-08-02,2021-07-21,株式会社エイチ・ツー・オースタイルネット,,株式会社,大阪府,大阪市北区,角田町８番７号,,27,127,5300017,,,2021-07-21,合併による解散等,6120001126727,令和３年７月１日大阪市北区角田町８番７号株式会社阪急阪神百貨店（6120001126727）に合併し解散,2015-10-05,1,,,,,エイチツーオースタイルネット,0
518,2130001036441,登記記録の閉鎖等,0,2021-08-02,2021-07-27,株式会社蕪村菴ファーム,,株式会社,京都府,亀岡市,大井町並河３丁目２８番６号,,26,206,6210013,,,2021-07-27,合併による解散等,1130001036194,令和３年７月２７日京都府亀岡市大井町並河三丁目２８番６号株式会社小倉山荘ファーム（1130001036194）に合併し解散,2015-10-05,1,,,,,ブソンアンファーム,0
524,2130001065011,登記記録の閉鎖等,0,2021-08-02,2021-07-28,株式会社珠,,株式会社,京都府,亀岡市,篠町篠中北裏４２番地２,,26,206,6210826,,,2021-07-28,清算の結了等,,,2019-08-05,1,,,,,タマ,0
526,2130002024156,登記記録の閉鎖等,0,2021-08-02,2021-07-28,有限会社京都スパシアム,,有限会社,京都府,京都市山科区,西野山桜ノ馬場町５２番地の１４,,26,110,6078308,,,2021-07-28,清算の結了等,,,2015-10-05,1,,,,,キョウトスパシアム,0
550,2180001040793,登記記録の閉鎖等,0,2021-08-02,2021-07-21,丸利株式会社,,株式会社,愛知県,名古屋市守山区,西島町２２番９号イカイコーポ２０１,,23,113,4630015,,,2021-07-21,清算の結了等,,,2015-10-05,1,,,,,マルリ,0
551,2180001118532,登記記録の閉鎖等,0,2021-08-02,2021-07-21,株式会社オフィスクリエイション,,株式会社,愛知県,春日井市,西尾町６番地２５,,23,206,4800302,,,2021-07-21,清算の結了等,,,2015-10-05,1,,,,,オフィスクリエイション,0
553,2180001126782,登記記録の閉鎖等,0,2021-08-02,2021-07-21,株式会社美秀,,株式会社,愛知県,一宮市,千秋町佐野字農中８６番地９,,23,203,4910804,,,2021-07-21,清算の結了等,,,2017-03-07,1,,,,,ビシュウ,0
560,2180002044050,登記記録の閉鎖等,0,2021-08-02,2021-07-26,有限会社エイチアンドダブリュホビーズ,,有限会社,愛知県,名古屋市中区,伊勢山１丁目９番１３号,,23,106,4600026,,,2021-07-26,清算の結了等,,,2015-10-05,1,,,,,エイチアンドダブリュホビーズ,0
571,2200001027342,登記記録の閉鎖等,0,2021-08-02,2021-07-28,株式会社ケアリング,,株式会社,岐阜県,土岐市,駄知町８６３番地,,21,212,5095401,,,2021-07-28,清算の結了等,,,2015-10-05,1,,,,,ケアリング,0
572,2200001029149,登記記録の閉鎖等,0,2021-08-02,2021-07-30,株式会社ＭＩＣ－Ｊ,,株式会社,岐阜県,各務原市,鵜沼朝日町４丁目１１１番地２Ｆ,,21,213,5090145,,,2021-07-30,清算の結了等,,,2015-10-05,1,,,,,エムアイシージェイ,0
590,2240002017685,登記記録の閉鎖等,0,2021-08-02,2021-07-12,有限会社吉岡板金工業,,有限会社,広島県,広島市南区,出島２丁目１９番１５号,,34,103,7340013,,,2021-07-12,清算の結了等,,,2015-10-05,1,,,,,ヨシオカバンキンコウギョウ,0
614,2330002000335,登記記録の閉鎖等,0,2021-08-02,2021-07-16,有限会社アサヒカメラ,,有限会社,熊本県,熊本市西区,上代１丁目２番２７号,,43,103,8600068,,,2021-07-16,清算の結了等,,,2015-10-05,1,,,,,アサヒカメラ,0
615,2330002006729,登記記録の閉鎖等,0,2021-08-02,2021-07-20,有限会社田原通信工業,,有限会社,熊本県,熊本市西区,花園５丁目４０番１９号,,43,103,8600072,,,2021-07-20,清算の結了等,,,2015-10-05,1,,,,,タハラツウシンコウギョウ,0
636,2380005005483,登記記録の閉鎖等,0,2021-08-02,2021-07-20,須賀川たばこ販売協同組合,,その他の設立登記法人,福島県,須賀川市,長禄町５０番地５,,07,207,9620857,,,2021-07-20,清算の結了等,,,2015-10-05,1,,,,,,0
643,2390005005053,登記記録の閉鎖等,0,2021-08-02,2021-07-19,特定非営利活動法人いなほ作業所,,その他の設立登記法人,山形県,鶴岡市,美咲町２６番１号,,06,203,9970857,,,2021-07-19,清算の結了等,,,2015-10-05,1,,,,,イナホサギョウショ,0
651,2460302003082,登記記録の閉鎖等,0,2021-08-02,2021-07-29,有限会社白田組,,有限会社,北海道,紋別郡遠軽町,寿町１５番地の１７,,01,555,0990413,,,2021-07-29,清算の結了等,,,2015-10-05,1,,,,,シラタグミ,0
678,3010401099132,登記記録の閉鎖等,0,2021-08-02,2021-07-16,日本ビルマン株式会社,,株式会社,東京都,港区,元赤坂１丁目１番７号,,13,103,1070051,,,2021-07-16,清算の結了等,,,2015-10-05,1,,,,,ニホンビルマン,0
699,3010601041827,登記記録の閉鎖等,0,2021-08-02,2021-07-13,株式会社ナンバラ,,株式会社,東京都,江東区,豊洲２丁目５番１号,,13,108,1350061,,,2021-07-13,清算の結了等,,,2015-10-05,1,,,,,ナンバラ,0
736,3011701022361,登記記録の閉鎖等,0,2021-08-02,2021-07-28,日本アイスクリームネットテクノロジー株式会社,,株式会社,東京都,江戸川区,平井５丁目２３番５－７０１号,,13,123,1320035,,,2021-07-28,清算の結了等,,,2019-01-15,1,,,,,ニホンアイスクリームネットテクノロジー,0
744,3012802011121,登記記録の閉鎖等,0,2021-08-02,2021-07-15,有限会社安西設計,,有限会社,東京都,東大和市,向原３丁目１０番地,,13,220,2070013,,,2021-07-15,清算の結了等,,,2015-10-05,1,,,,,,0
790,3040001045946,登記記録の閉鎖等,0,2021-08-02,2021-07-21,株式会社ＣＲＯＳＳ　ＤＯＭＩＮＡＮＣＥ,,株式会社,千葉県,成田市,中台１丁目１番地１（３棟２０１号）,,12,211,2860015,,,2021-07-21,清算の結了等,,,2015-10-05,1,,,,,クロスドミナンス,0
794,3040001109271,登記記録の閉鎖等,0,2021-08-02,2021-07-20,令和東株式会社,,株式会社,千葉県,千葉市花見川区,検見川町２丁目５５５番地,,12,102,2620023,,,2021-07-20,清算の結了等,,,2019-05-24,1,,,,,レイワヒガシ,0
797,3040002047545,登記記録の閉鎖等,0,2021-08-02,2021-07-20,有限会社飛松建設,,有限会社,千葉県,松戸市,日暮２丁目２番６号,,12,207,2702253,,,2021-07-20,清算の結了等,,,2021-04-28,1,,,,,ヒショウケンセツ,0
804,3050002025070,登記記録の閉鎖等,0,2021-08-02,2021-07-19,有限会社ヨッシー設備サービス,,有限会社,茨城県,古河市,上辺見２８７１番地,,08,204,3060234,,,2021-07-19,清算の結了等,,,2015-10-05,1,,,,,ヨッシーセツビサービス,0
813,3080102021826,登記記録の閉鎖等,0,2021-08-02,2021-07-27,有限会社双葉青果,,有限会社,静岡県,賀茂郡西伊豆町,仁科８１４番地の１２８,,22,306,4103514,,,2021-07-27,清算の結了等,,,2015-10-05,1,,,,,,0
817,3100002021279,登記記録の閉鎖等,0,2021-08-02,2021-07-28,有限会社フォトスタジオカナモリ,,有限会社,長野県,松本市,県１丁目２番２０号,,20,202,3900812,,,2021-07-28,清算の結了等,,,2015-10-05,1,,,,,フォトスタジオカナモリ,0
835,3120002035483,登記記録の閉鎖等,0,2021-08-02,2021-07-19,有限会社ケーケーアカウンティング,,有限会社,大阪府,大阪市中央区,本町４丁目１番７号第二有楽ビル,,27,128,5410053,,,2021-07-19,清算の結了等,,,2015-10-05,1,,,,,ケーケーアカウンティング,0
848,3130002018727,登記記録の閉鎖等,0,2021-08-02,2021-07-28,有限会社キット,,有限会社,京都府,京都市南区,東九条河辺町２１番地,,26,107,6018031,,,2021-07-28,清算の結了等,,,2015-10-05,1,,,,,キット,0
861,3180001007619,登記記録の閉鎖等,0,2021-08-02,2021-07-26,山信機工株式会社,,株式会社,愛知県,名古屋市緑区,曽根２丁目２６５番地,,23,114,4580035,,,2021-07-26,清算の結了等,,,2015-10-05,1,,,,,ヤマシンキコウ,0
867,3180001083742,登記記録の閉鎖等,0,2021-08-02,2021-07-26,丸松産業株式会社,,株式会社,愛知県,一宮市,真清田２丁目１番４号,,23,203,4910043,,,2021-07-26,清算の結了等,,,2015-10-05,1,,,,,マルマツサンギョウ,0
882,3240002024706,登記記録の閉鎖等,0,2021-08-02,2021-07-13,有限会社ひよこ,,有限会社,広島県,広島市西区,古田台２丁目１３番１８号,,34,104,7330877,,,2021-07-13,清算の結了等,,,2015-10-05,1,,,,,ヒヨコ,0
885,3280002008325,登記記録の閉鎖等,0,2021-08-02,2021-07-29,有限会社三角屋,,有限会社,島根県,浜田市,真光町４７番地，４８番地,,32,202,6970046,,,2021-07-29,清算の結了等,,,2015-10-05,1,,,,,サンカクヤ,0
886,3290001013390,登記記録の閉鎖等,0,2021-08-02,2021-07-14,株式会社サン設計室,,株式会社,埼玉県,さいたま市浦和区,針ヶ谷３丁目１３番１５－３０５号,,11,107,3300075,,,2021-07-14,清算の結了等,,,2015-10-05,1,,,,,サンセッケイシツ,0
911,3370001039493,登記記録の閉鎖等,0,2021-08-02,2021-07-09,株式会社充申建設,,株式会社,宮城県,仙台市青葉区,落合５丁目２６番１８号プラザ広瀬２０２号,,04,101,9893126,,,2021-07-09,清算の結了等,,,2016-04-15,1,,,,,ジュウシンケンセツ,0
914,3370302000261,登記記録の閉鎖等,0,2021-08-02,2021-07-09,有限会社石陸運輸,,有限会社,宮城県,石巻市,大森字大土１７８－１,,04,202,9860121,,,2021-07-09,清算の結了等,,,2015-10-05,1,,,,,,0
915,3380001030039,登記記録の閉鎖等,0,2021-08-02,2021-07-20,株式会社ＩＮＴＥＲＮＡＴＩＯＮＡＬ　ＫＲＩＳＰＡ　ＭＡＨＡＬ,,株式会社,福島県,郡山市,八山田西４丁目１３,,07,203,9638053,,,2021-07-20,清算の結了等,,,2019-05-23,1,,,,,インターナショナルクリスパマハル,0
920,3400005003599,登記記録の閉鎖等,0,2021-08-02,2021-07-27,岩手中央砂利業協同組合,,その他の設立登記法人,岩手県,北上市,下鬼柳４地割１５８番地１,,03,206,0240058,,,2021-07-27,清算の結了等,,,2015-10-05,1,,,,,イワテチュウオウジャリギョウ,0
921,3402701000185,登記記録の閉鎖等,0,2021-08-02,2021-07-27,株式会社ウッティけせん,,株式会社,岩手県,気仙郡住田町,世田米字城内８５番地２３,,03,441,0292311,,,2021-07-27,清算の結了等,,,2015-10-05,1,,,,,ウッティケセン,0
936,4010001128950,登記記録の閉鎖等,0,2021-08-02,2021-07-20,エイパス株式会社,,株式会社,東京都,千代田区,麹町３丁目４番１号,,13,101,1020083,,,2021-07-20,合併による解散等,7011001106035,令和３年６月１５日東京都渋谷区神宮前六丁目１９番１６号Ｕ－ｎａｔｕｒａ３０１株式会社ファンオブライフ（7011001106035）に合併し解散,2015-10-05,1,,,,,エイパス,0
948,4010005029930,登記記録の閉鎖等,0,2021-08-02,2021-07-14,一般社団法人和歌山御坊バイオマスエナジー,,その他の設立登記法人,東京都,中央区,日本橋１丁目４番１号,,13,102,1030027,,,2021-07-14,清算の結了等,,,2019-03-28,1,,,,,ワカヤマゴボウバイオマスエナジー,0
951,4010101002675,登記記録の閉鎖等,0,2021-08-02,2021-07-27,東都技研株式会社,,株式会社,東京都,八王子市,川口町１３５６番地,,13,201,1930801,,,2021-07-27,清算の結了等,,,2015-10-05,1,,,,,トウトギケン,0
952,4010101004259,登記記録の閉鎖等,0,2021-08-02,2021-07-27,株式会社肥後電子,,株式会社,東京都,八王子市,中野上町１丁目２３番１３号,,13,201,1920041,,,2021-07-27,清算の結了等,,,2015-10-05,1,,,,,ヒゴデンシ,0
957,4010401077938,登記記録の閉鎖等,0,2021-08-02,2021-07-12,株式会社ミュージックグリッド,,株式会社,東京都,渋谷区,恵比寿２丁目１６番１２号,,13,113,1500013,,,2021-07-12,清算の結了等,,,2015-10-05,1,,,,,ミュージックグリッド,0
977,4011001118140,登記記録の閉鎖等,0,2021-08-02,2021-07-09,株式会社ＯＫＭ,,株式会社,東京都,目黒区,東山２丁目３番５号,,13,110,1530043,,,2021-07-09,清算の結了等,,,2017-09-05,1,,,,,オーケーエム,0
992,4011201018090,登記記録の閉鎖等,0,2021-08-02,2021-07-12,アクセルゲームエンターテインメント株式会社,,株式会社,東京都,中野区,中央４丁目１番３号,,13,114,1640011,,,2021-07-12,清算の結了等,,,2015-10-05,1,,,,,アクセルゲームエンターテインメント,0
1012,4013301032087,登記記録の閉鎖等,0,2021-08-02,2021-06-30,株式会社ＮＥＸＥＲ,,株式会社,東京都,豊島区,池袋２丁目４３番１号,,13,116,1710014,,,2021-06-30,合併による解散等,9013301047155,令和３年６月３０日東京都豊島区池袋二丁目４３番１号株式会社ＮＥＸＥＲ（9013301047155）に合併し解散,2015-10-05,1,,,,,ネクサ,0
1023,4020001132200,登記記録の閉鎖等,0,2021-08-02,2021-07-20,ペリドート株式会社,,株式会社,神奈川県,横浜市港北区,綱島西５丁目４番５－６３０号,,14,109,2230053,,,2021-07-20,清算の結了等,,,2019-07-30,1,,,,,ペリドート,0
1047,4030005002183,登記記録の閉鎖等,0,2021-08-02,2021-07-13,医療法人社団久紀会,,その他の設立登記法人,埼玉県,さいたま市緑区,東浦和２丁目５１番２６号サミットストア東浦和店２階,,11,109,3360926,,,2021-07-13,清算の結了等,,,2015-10-05,1,,,,,キュウキカイ,0
1052,4040001100238,登記記録の閉鎖等,0,2021-08-02,2021-07-21,株式会社リーリス,,株式会社,千葉県,柏市,西町９番４号セナリオフォルム柏Ⅸ－Ｄ号,00110231,12,217,2770844,,,2021-07-21,清算の結了等,,,2017-05-18,1,,,,,リーリス,0
1062,4050001031705,登記記録の閉鎖等,0,2021-08-02,2021-07-20,石堀石材工業株式会社,,株式会社,茨城県,桜川市,真壁町真壁１１７番地の１,,08,231,3004408,,,2021-07-20,清算の結了等,,,2015-10-05,1,,,,,イシボリセキザイコウギョウ,0
1070,4060001026968,登記記録の閉鎖等,0,2021-08-02,2021-07-16,農業生産法人株式会社Ｃｌｉｏ　Ｆａｒｍまがのしま,,株式会社,栃木県,栃木市,岩舟町曲ケ島１８３番地１,,09,203,3294306,,,2021-07-16,清算の結了等,,,2015-10-05,1,,,,,クリオファームマガノシマ,0
1079,4080101007916,登記記録の閉鎖等,0,2021-08-02,2021-07-29,株式会社フィールグッド,,株式会社,静岡県,沼津市,三枚橋町７番５号ハイホーム２０２,,22,203,4100037,,,2021-07-29,清算の結了等,,,2015-10-05,1,,,,,フィールグッド,0
1110,4130001006112,登記記録の閉鎖等,0,2021-08-02,2021-07-27,株式会社オフィスオオニシ,,株式会社,京都府,京都市左京区,上高野北田町７番地,,26,103,6060036,,,2021-07-27,清算の結了等,,,2015-10-05,1,,,,,オフィスオオニシ,0
1115,4130003006705,登記記録の閉鎖等,0,2021-08-02,2021-07-28,キラキラたんご合同会社,,合同会社,京都府,京丹後市,峰山町荒山１２２８番地１２サンシャイン荒山,,26,212,6270004,,,2021-07-28,清算の結了等,,,2020-08-12,1,,,,,キラキラタンゴ,0
1136,4150005000571,登記記録の閉鎖等,0,2021-08-02,2021-07-26,医療法人新大宮整形外科,,その他の設立登記法人,奈良県,奈良市,芝辻町４丁目２番地の４田村ビル１Ｆ,00043751,29,201,6308114,,,2021-07-26,清算の結了等,,,2015-10-05,1,,,,,シンオオミヤセイケイゲカ,0
1150,4200001007623,登記記録の閉鎖等,0,2021-08-02,2021-07-30,株式会社ユタカテクト,,株式会社,岐阜県,各務原市,尾崎南町１丁目７１番地,,21,213,5040003,,,2021-07-30,清算の結了等,,,2015-10-05,1,,,,,ユタカテクト,0
1151,4200001031334,登記記録の閉鎖等,0,2021-08-02,2021-07-29,株式会社ＭＹＢ　ｐａｒｔｎｅｒｓ,,株式会社,岐阜県,美濃加茂市,蜂屋町中蜂屋２７３５番地３５０,,21,211,5050005,,,2021-07-29,清算の結了等,,,2015-10-05,1,,,,,エムワイビーパートナーズ,0
1153,4220005005101,登記記録の閉鎖等,0,2021-08-02,2021-07-21,農事組合法人ディムリー田鶴浜,,その他の設立登記法人,石川県,七尾市,田鶴浜町ヘ部２番地２,,17,202,9292121,,,2021-07-21,清算の結了等,,,2015-10-05,1,,,,,ディムリータツルハマ,0
1158,4230001009039,登記記録の閉鎖等,0,2021-08-02,2021-07-13,株式会社ツザワ精工,,株式会社,富山県,小矢部市,蓑輪１５８番地の１,,16,209,9320124,,,2021-07-13,清算の結了等,,,2015-10-05,1,,,,,ツザワセイコウ,0
1162,4230002008155,登記記録の閉鎖等,0,2021-08-02,2021-07-14,有限会社パースペクティブ,,有限会社,富山県,黒部市,金屋７７番地の２,,16,207,9380022,,,2021-07-14,清算の結了等,,,2015-10-05,1,,,,,パースペクティブ,0
1189,4340002014803,登記記録の閉鎖等,0,2021-08-02,2021-07-16,有限会社吉村建材店,,有限会社,鹿児島県,伊佐市,大口里３１０８番地,,46,224,8952511,,,2021-07-16,清算の結了等,,,2015-10-05,1,,,,,ヨシムラケンザイテン,0
1190,4340002016997,登記記録の閉鎖等,0,2021-08-02,2021-07-19,有限会社平島コンタクトレンズ,,有限会社,鹿児島県,薩摩川内市,向田本町１７番１４号,,46,215,8950021,,,2021-07-19,清算の結了等,,,2015-10-05,1,,,,,ヒラシマコンタクトレンズ,0
1196,4360001024611,登記記録の閉鎖等,0,2021-08-02,2021-07-26,株式会社ＩＥＴソリューションズ,,株式会社,沖縄県,石垣市,字真栄里２９９番地１Ｃａｓａみむり２０６,,47,207,9070002,,,2021-07-26,合併による解散等,6200001012687,令和３年７月１３日岐阜市柳津町北塚五丁目１０２番地３株式会社ＩＥＴソリューションズ（6200001012687）に合併し解散,2018-09-26,1,,,,,アイイーティソリューションズ,0
1203,4370301002761,登記記録の閉鎖等,0,2021-08-02,2021-07-12,株式会社北都観光旅行社,,株式会社,宮城県,遠田郡美里町,駅東３丁目２番地１２,,04,505,9870038,,,2021-07-12,清算の結了等,,,2015-10-05,1,,,,,ホクトカンコウリョコウシャ,0
1209,4390002002761,登記記録の閉鎖等,0,2021-08-02,2021-07-16,有限会社山形工機,,有限会社,山形県,山形市,あけぼの１丁目２番地の２,,06,201,9902162,,,2021-07-16,清算の結了等,,,2015-10-05,1,,,,,ヤマガタコウキ,0
1215,4400002009268,登記記録の閉鎖等,0,2021-08-02,2021-07-28,有限会社北上看護婦家政婦紹介所,,有限会社,岩手県,北上市,中野町１丁目１０番６号,,03,206,0240024,,,2021-07-28,清算の結了等,,,2015-10-05,1,,,,,キタカミカンゴフカセイフショウカイジョ,0
1218,4430001010694,登記記録の閉鎖等,0,2021-08-02,2021-07-30,株式会社ティーイーワカマツ,,株式会社,北海道,札幌市南区,澄川四条６丁目２番３０号,,01,106,0050004,,,2021-07-30,清算の結了等,,,2015-10-05,1,,,,,ティーイーワカマツ,0
1223,4430005013520,登記記録の閉鎖等,0,2021-08-02,2021-07-19,一般社団法人ＳＳ　ＰＲＯＤＵＣＴＳ,,その他の設立登記法人,北海道,札幌市北区,新川二条４丁目１番１２号,,01,102,0010922,,,2021-07-19,清算の結了等,,,2018-10-04,1,,,,,エスエスプロダクツ,0
1224,4440001005594,登記記録の閉鎖等,0,2021-08-02,2021-07-27,株式会社光新建設,,株式会社,北海道,函館市,高岱町７８番地３,,01,202,0410526,,,2021-07-27,清算の結了等,,,2015-10-05,1,,,,,コウシンケンセツ,0
1229,4500002018465,登記記録の閉鎖等,0,2021-08-02,2021-07-28,首藤醸造有限会社,,有限会社,愛媛県,今治市,常盤町７丁目１番３１号,,38,202,7940015,,,2021-07-28,清算の結了等,,,2015-10-05,1,,,,,スドウジョウゾウ,0
1239,5010001195536,登記記録の閉鎖等,0,2021-08-02,2021-07-12,ジェイテックグローバル株式会社,,株式会社,東京都,千代田区,丸の内１丁目１１番１号パシフィックセンチュリープレイス８階,,13,101,1000005,,,2021-07-12,合併による解散等,7011101069314,令和３年７月１２日東京都千代田区二番町９－３株式会社ジェイティー（7011101069314）に合併し解散,2018-10-15,1,,,,,ジェイテックグローバル,0
1280,5011003007456,登記記録の閉鎖等,0,2021-08-02,2021-07-12,ターンオーバー合同会社,,合同会社,東京都,目黒区,東山３丁目４－１１サンライズ東山４０３,,13,110,1530043,,,2021-07-12,清算の結了等,,,2017-02-22,1,,,,,ターンオーバー,0
1297,5011701019595,登記記録の閉鎖等,0,2021-08-02,2021-07-27,株式会社アストラスト,,株式会社,東京都,江戸川区,瑞江２丁目１番２２号ビルド３４五階,,13,123,1320011,,,2021-07-27,清算の結了等,,,2016-02-04,1,,,,,アストラスト,0
1309,5020001054922,登記記録の閉鎖等,0,2021-08-02,2021-07-20,株式会社ベガリ,,株式会社,神奈川県,横浜市中区,小港町１丁目１番地２号ビューコート小港４号棟６０５室,,14,104,2310802,,,2021-07-20,清算の結了等,,,2015-10-05,1,,,,,ベガリ,0
1316,5020001122621,登記記録の閉鎖等,0,2021-08-02,2021-07-21,株式会社伝わるラボ,,株式会社,神奈川県,川崎市川崎区,駅前本町１１番地２川崎フロンティアビル４階,,14,131,2100007,,,2021-07-21,清算の結了等,,,2017-08-18,1,,,,,ツタワルラボ,0
1345,5050002011878,登記記録の閉鎖等,0,2021-08-02,2021-07-20,有限会社中央敷物,,有限会社,茨城県,土浦市,宍塚３４４番地の１７,,08,203,3000805,,,2021-07-20,清算の結了等,,,2015-10-05,1,,,,,チュウオウシキモノ,0
1353,5080101014696,登記記録の閉鎖等,0,2021-08-02,2021-07-27,株式会社ホテルやまだ荘,,株式会社,静岡県,賀茂郡東伊豆町,稲取３４７番地の１,,22,301,4130411,,,2021-07-27,清算の結了等,,,2015-10-05,1,,,,,,0
1366,5120001081337,登記記録の閉鎖等,0,2021-08-02,2021-07-19,上海フェリー株式会社,,株式会社,大阪府,大阪市西区,江戸堀１丁目１０番８号,,27,106,5500002,,,2021-07-19,清算の結了等,,,2015-10-05,1,,,,,シャンハイフェリー,0
1368,5120001092078,登記記録の閉鎖等,0,2021-08-02,2021-07-19,株式会社リーガルプロパティ,,株式会社,大阪府,大阪市中央区,本町４丁目１番７号第二有楽ビル,,27,128,5410053,,,2021-07-19,清算の結了等,,,2015-10-05,1,,,,,リーガルプロパティ,0
1369,5120001163036,登記記録の閉鎖等,0,2021-08-02,2021-07-26,株式会社グリーン・グッド・アース,,株式会社,大阪府,大阪市中央区,安土町１丁目７番２０号,,27,128,5410052,,,2021-07-26,清算の結了等,,,2015-10-05,1,,,,,グリーングッドアース,0
1378,5120001223608,登記記録の閉鎖等,0,2021-08-02,2021-07-19,株式会社レイテック,,株式会社,大阪府,大阪市淀川区,西中島３丁目１８番２１号ＮＬＣ新大阪１８号館,,27,123,5320011,,,2021-07-19,清算の結了等,,,2019-09-09,1,,,,,レイテック,0
1383,5120003013461,登記記録の閉鎖等,0,2021-08-02,2021-07-20,合同会社はじまり,,合同会社,大阪府,大阪市北区,堂山町１５番４－４０３号,,27,127,5300027,,,2021-07-20,清算の結了等,,,2017-10-23,1,,,,,ハジマリ,0
1407,5130002019194,登記記録の閉鎖等,0,2021-08-02,2021-07-28,有限会社サウス・トゥエンティワン,,有限会社,京都府,京都市伏見区,深草大亀谷東久宝寺町８番地３８,,26,109,6120841,,,2021-07-28,清算の結了等,,,2015-10-05,1,,,,,サウストゥエンティワン,0
1422,5140002001226,登記記録の閉鎖等,0,2021-08-02,2021-07-26,有限会社エフ・ビー・シー,,有限会社,兵庫県,神戸市東灘区,向洋町中５丁目１５番地ＲＩＣセントラルタワー３階インターセンター,,28,101,6580032,,,2021-07-26,清算の結了等,,,2015-10-05,1,,,,,エフビーシー,0
1424,5140002019219,登記記録の閉鎖等,0,2021-08-02,2021-07-20,有限会社小林意匠設計事務所,,有限会社,兵庫県,神戸市兵庫区,矢部町２１番５号,,28,105,6520005,,,2021-07-20,清算の結了等,,,2015-10-05,1,,,,,コバヤシイショウセッケイジムショ,0
1425,5140002025753,登記記録の閉鎖等,0,2021-08-02,2021-07-26,有限会社ギフトプラス,,有限会社,兵庫県,神戸市北区,日の峰５丁目１４番地,,28,109,6511233,,,2021-07-26,清算の結了等,,,2015-10-05,1,,,,,,0
1426,5140002034119,登記記録の閉鎖等,0,2021-08-02,2021-07-26,有限会社南精機,,有限会社,兵庫県,赤穂市,折方１４９５番地の２８,,28,212,6780254,,,2021-07-26,清算の結了等,,,2015-10-05,1,,,,,ミナミセイキ,0
1427,5140002046122,登記記録の閉鎖等,0,2021-08-02,2021-07-26,有限会社幹,,有限会社,兵庫県,豊岡市,今森４６１番地,,28,209,6680851,,,2021-07-26,清算の結了等,,,2015-10-05,1,,,,,ミキ,0
1437,5150001008790,登記記録の閉鎖等,0,2021-08-02,2021-07-26,株式会社キース企画,,株式会社,奈良県,奈良市,佐保台２丁目８４０番地の１１,,29,201,6308105,,,2021-07-26,清算の結了等,,,2015-10-05,1,,,,,キースキカク,0
1451,5180002048503,登記記録の閉鎖等,0,2021-08-02,2021-07-26,有限会社谷新聞店,,有限会社,愛知県,名古屋市中区,正木４丁目１０番２３号,,23,106,4600024,,,2021-07-26,清算の結了等,,,2015-10-05,1,,,,,タニシンブンテン,0
1461,5200005012156,登記記録の閉鎖等,0,2021-08-02,2021-07-29,特定非営利活動法人学童クラブキッズハウスぎふ,,その他の設立登記法人,岐阜県,岐阜市,長良３０８９番地４８,,21,201,5020071,,,2021-07-29,清算の結了等,,,2015-10-05,1,,,,,ガクドウクラブキッズハウスギフ,0
1473,5240005013274,登記記録の閉鎖等,0,2021-08-02,2021-07-13,一般社団法人孫育て検定協会,,その他の設立登記法人,広島県,広島市安佐北区,倉掛２丁目４９番３号,,34,106,7391743,,,2021-07-13,清算の結了等,,,2015-10-05,1,,,,,マゴソダテケンテイキョウカイ,0
1487,5290801020106,登記記録の閉鎖等,0,2021-08-02,2021-07-13,株式会社水巻楽舎,,株式会社,福岡県,遠賀郡水巻町,頃末北１丁目１２番１２号,,40,382,8070022,,,2021-07-13,清算の結了等,,,2015-10-05,1,,,,,ミズマキガクシャ,0
1490,5310001002298,登記記録の閉鎖等,0,2021-08-02,2021-07-27,ユニエーター工業株式会社,,株式会社,長崎県,長崎市,宿町５８２番地３１,,42,201,8510121,,,2021-07-27,清算の結了等,,,2015-10-05,1,,,,,ユニエーターコウギョウ,0
1511,5390001014451,登記記録の閉鎖等,0,2021-08-02,2021-07-20,株式会社菅井デンタル・ラボ,,株式会社,山形県,山形市,十日町１丁目２番３０－２０１号,,06,201,9900031,,,2021-07-20,清算の結了等,,,2016-04-06,1,,,,,スガイデンタルラボ,0
1518,5430001029478,登記記録の閉鎖等,0,2021-08-02,2021-07-30,株式会社ユーキ・プランニング,,株式会社,北海道,札幌市中央区,北九条西２４丁目３番１４号,,01,101,0600009,,,2021-07-30,清算の結了等,,,2015-10-05,1,,,,,ユーキプランニング,0
1523,5430002063716,登記記録の閉鎖等,0,2021-08-02,2021-07-19,有限会社東洋土木設計,,有限会社,北海道,虻田郡洞爺湖町,入江８８番地,,01,584,0495603,,,2021-07-19,清算の結了等,,,2015-10-05,1,,,,,トウヨウドボクセッケイ,0
1526,5440001006402,登記記録の閉鎖等,0,2021-08-02,2021-07-27,江差青果卸売市場株式会社,,株式会社,北海道,檜山郡江差町,字姥神町１３８番地の１,,01,361,0430041,,,2021-07-27,清算の結了等,,,2015-10-05,1,,,,,エサシセイカオロシウリイチバ,0
1532,6010001059599,登記記録の閉鎖等,0,2021-08-02,2021-07-14,株式会社薬粧流通タイムズ社,,株式会社,東京都,中央区,日本橋本町４丁目１４番７号,,13,102,1030023,,,2021-07-14,清算の結了等,,,2015-10-05,1,,,,,ヤクショウリュウツウタイムズシャ,0
1534,6010001104132,登記記録の閉鎖等,0,2021-08-02,2021-07-12,ビーエム・マネジメント株式会社,,株式会社,東京都,渋谷区,神南１丁目１５番３号,,13,113,1500041,,,2021-07-12,清算の結了等,,,2015-10-05,1,,,,,ビーエムマネジメント,0
1545,6010005024129,登記記録の閉鎖等,0,2021-08-02,2021-07-16,一般社団法人レオーネ,,その他の設立登記法人,東京都,千代田区,丸の内３丁目１番１号東京共同会計事務所内,,13,101,1000005,,,2021-07-16,清算の結了等,,,2015-10-05,1,,,,,レオーネ,0
1569,6011001128393,登記記録の閉鎖等,0,2021-08-02,2021-07-13,株式会社ピクセルシード,,株式会社,東京都,渋谷区,恵比寿１丁目２１番８号セラ５１ビル４Ｆ,,13,113,1500013,,,2021-07-13,清算の結了等,,,2019-06-07,1,,,,,ピクセルシード,0
1591,6011801009157,登記記録の閉鎖等,0,2021-08-02,2021-07-29,総合建設サービス株式会社,,株式会社,東京都,足立区,梅島３丁目３番２４－７０７号,,13,121,1210816,,,2021-07-29,清算の結了等,,,2015-10-05,1,,,,,ソウゴウケンセツサービス,0
1604,6013305000501,登記記録の閉鎖等,0,2021-08-02,2021-07-14,東京松月庵麺類協同組合,,その他の設立登記法人,東京都,千代田区,神田須田町２丁目３番地９,,13,101,1010041,,,2021-07-14,清算の結了等,,,2015-10-05,1,,,,,トウキョウショウゲツアン,0
1614,6021002040448,登記記録の閉鎖等,0,2021-08-02,2021-07-21,有限会社オレンジ薬局,,有限会社,神奈川県,大和市,南林間２丁目１８番２２号,,14,213,2420006,,,2021-07-21,清算の結了等,,,2015-10-05,1,,,,,オレンジヤッキョク,0
1626,6030002066287,登記記録の閉鎖等,0,2021-08-02,2021-07-15,有限会社成瀬コーポレーション,,有限会社,埼玉県,新座市,石神３丁目６番９号,,11,230,3520033,,,2021-07-15,清算の結了等,,,2015-10-05,1,,,,,,0
1648,6050002030919,登記記録の閉鎖等,0,2021-08-02,2021-07-27,有限会社多田工務店,,有限会社,茨城県,日立市,十王町友部２００６番地の１７,,08,202,3191304,,,2021-07-27,清算の結了等,,,2015-10-05,1,,,,,タダコウムテン,0
1659,6070002014952,登記記録の閉鎖等,0,2021-08-02,2021-07-30,有限会社ドラッグ・タイガー,,有限会社,群馬県,安中市,中宿１３０番地１,,10,211,3790115,,,2021-07-30,清算の結了等,,,2015-10-05,1,,,,,ドラッグタイガー,0
1660,6070002018986,登記記録の閉鎖等,0,2021-08-02,2021-07-29,三化工業有限会社,,有限会社,群馬県,伊勢崎市,東本町１９番地,,10,204,3720025,,,2021-07-29,清算の結了等,,,2015-10-05,1,,,,,サンカコウギョウ,0
1668,6100001012136,登記記録の閉鎖等,0,2021-08-02,2021-07-28,平林商事株式会社,,株式会社,長野県,中野市,大字江部１２１７番地１,,20,211,3830045,,,2021-07-28,清算の結了等,,,2015-10-05,1,,,,,ヒラバヤシショウジ,0
1669,6100001014289,登記記録の閉鎖等,0,2021-08-02,2021-07-27,株式会社メロス,,株式会社,長野県,松本市,元町２丁目３番１号,,20,202,3900803,,,2021-07-27,清算の結了等,,,2015-10-05,1,,,,,メロス,0
1675,6100002021714,登記記録の閉鎖等,0,2021-08-02,2021-07-29,有限会社丸ワ渡辺製材所,,有限会社,長野県,松本市,大字大村１９０１番地,,20,202,3900304,,,2021-07-29,清算の結了等,,,2015-10-05,1,,,,,マルワワタナベセイザイショ,0
1695,6120003015556,登記記録の閉鎖等,0,2021-08-02,2021-07-21,合同会社ＦＮＴ,,合同会社,大阪府,大阪市淀川区,宮原１丁目１９番２３号,,27,123,5320003,,,2021-07-21,清算の結了等,,,2019-04-10,1,,,,,エフエヌティ,0
1702,6122002005579,登記記録の閉鎖等,0,2021-08-02,2021-07-26,有限会社大阪ヘルスケアープラン,,有限会社,大阪府,東大阪市,玉串町西１丁目３番３２号,,27,227,5780934,,,2021-07-26,清算の結了等,,,2015-10-05,1,,,,,オオサカヘルスケアープラン,0
1714,6130005015198,登記記録の閉鎖等,0,2021-08-02,2021-07-28,京都生コンクリート協同組合連合会,,その他の設立登記法人,京都府,京都市下京区,材木町４９９－２第一キョートビル７０１号,,26,106,6008146,,,2021-07-28,清算の結了等,,,2018-01-15,1,,,,,キョウトナマコンクリート,0
1718,6140001070923,登記記録の閉鎖等,0,2021-08-02,2021-07-21,株式会社金政,,株式会社,兵庫県,西宮市,瓦林町１５番７号,,28,204,6638107,,,2021-07-21,清算の結了等,,,2015-10-05,1,,,,,カネマサ,0
1762,6200002025787,登記記録の閉鎖等,0,2021-08-02,2021-07-29,有限会社ビビッドハウス,,有限会社,岐阜県,高山市,森下町１丁目４０１番地の２,,21,203,5060823,,,2021-07-29,清算の結了等,,,2015-10-05,1,,,,,,0
1764,6220001016810,登記記録の閉鎖等,0,2021-08-02,2021-07-20,船場商事株式会社,,株式会社,石川県,鳳珠郡穴水町,字大町ほの２０番地,,17,461,9270026,,,2021-07-20,清算の結了等,,,2015-10-05,1,,,,,センバショウジ,0
1773,6230002007956,登記記録の閉鎖等,0,2021-08-02,2021-07-13,有限会社池田工作所,,有限会社,富山県,黒部市,山田８４８番地,,16,207,9380049,,,2021-07-13,清算の結了等,,,2015-10-05,1,,,,,イケダコウサクショ,0
1801,6320005007746,登記記録の閉鎖等,0,2021-08-02,2021-07-27,中津工業団地協同組合,,その他の設立登記法人,大分県,中津市,大字田尻崎８番地の２,,44,203,8790124,,,2021-07-27,清算の結了等,,,2015-10-05,1,,,,,,0
1824,6390001011423,登記記録の閉鎖等,0,2021-08-02,2021-07-20,株式会社白川金型製作所,,株式会社,山形県,長井市,時庭１１７９番地３,,06,209,9930035,,,2021-07-20,清算の結了等,,,2015-10-05,1,,,,,,0
1827,6390005005058,登記記録の閉鎖等,0,2021-08-02,2021-07-19,特定非営利活動法人工房せい,,その他の設立登記法人,山形県,鶴岡市,大山３丁目３６番３５号,,06,203,9971124,,,2021-07-19,清算の結了等,,,2015-10-05,1,,,,,コウボウセイ,0
1843,6500001015313,登記記録の閉鎖等,0,2021-08-02,2021-07-29,宇和島水産餌料株式会社,00007555,株式会社,愛媛県,宇和島市,坂下津甲３８１番地,,38,203,7980087,,,2021-07-29,清算の結了等,,,2015-10-05,1,,,,,ウワジマスイサンジリョウ,0
1894,7011001119499,登記記録の閉鎖等,0,2021-08-02,2021-07-09,Ｓｈｉｆｔ　Ｇａｍｅｓ株式会社,,株式会社,東京都,渋谷区,道玄坂１丁目１２番１号,,13,113,1500043,,,2021-07-09,清算の結了等,,,2017-12-01,1,,,,,シフトゲームズ,0
1896,7011001126017,登記記録の閉鎖等,0,2021-08-02,2021-07-09,株式会社ウレル,,株式会社,東京都,渋谷区,宇田川町４２－１２,,13,113,1500042,,,2021-07-09,清算の結了等,,,2019-01-09,1,,,,,ウレル,0
1926,7012705000498,登記記録の閉鎖等,0,2021-08-02,2021-07-29,特定非営利活動法人情報労連東京福祉センター,,その他の設立登記法人,東京都,清瀬市,下清戸１丁目２１２番地４コミュニティープラザ２階,,13,221,2040011,,,2021-07-29,清算の結了等,,,2015-10-05,1,,,,,ジョウホウロウレントウキョウフクシセンター,0
1942,7020003016092,登記記録の閉鎖等,0,2021-08-02,2021-07-19,ｆｌａｔ合同会社,,合同会社,神奈川県,川崎市多摩区,南生田２丁目７番４号,,14,135,2140036,,,2021-07-19,清算の結了等,,,2019-05-24,1,,,,,フラット,0
1949,7021003008732,登記記録の閉鎖等,0,2021-08-02,2021-07-01,合同会社ＷＫ,,合同会社,神奈川県,藤沢市,鵠沼橘１丁目２番９号イーズ湘南１０２,,14,205,2510024,,,2021-07-01,合併による解散等,2021001051565,令和３年７月１日神奈川県藤沢市鵠沼橘一丁目２番１０号株式会社ｒｅｌｍｅ（2021001051565）に合併し解散,2019-10-09,1,,,,,ダブルケー,0
1973,7050001038243,登記記録の閉鎖等,0,2021-08-02,2021-07-21,海底資源開発株式会社,,株式会社,茨城県,土浦市,神立町１７２９番地,,08,203,3000013,,,2021-07-21,清算の結了等,,,2015-10-05,1,,,,,カイテイシゲンカイハツ,0
1974,7050002023979,登記記録の閉鎖等,0,2021-08-02,2021-07-20,有限会社清水,,有限会社,茨城県,猿島郡境町,１３３番地１０,,08,546,3060433,,,2021-07-20,清算の結了等,,,2015-10-05,1,,,,,シミズ,0
1976,7050003005299,登記記録の閉鎖等,0,2021-08-02,2021-07-21,合同会社イーケイアセットマネジメント,,合同会社,茨城県,守谷市,松並青葉１丁目８番地１３,,08,224,3020132,,,2021-07-21,清算の結了等,,,2020-07-28,1,,,,,イーケイアセットマネジメント,0
1989,7080101005512,登記記録の閉鎖等,0,2021-08-02,2021-07-27,協和ハウヂング株式会社,,株式会社,静岡県,三島市,西若町４番３１号,,22,206,4110038,,,2021-07-27,清算の結了等,,,2015-10-05,1,,,,,キョウワハウヂング,0
1990,7080102006212,登記記録の閉鎖等,0,2021-08-02,2021-07-30,有限会社食彩フーズ,,有限会社,静岡県,伊豆の国市,長岡４６０番地の１,,22,225,4102211,,,2021-07-30,清算の結了等,,,2015-10-05,1,,,,,ショクサイフーズ,0
1998,7100002017884,登記記録の閉鎖等,0,2021-08-02,2021-07-29,有限会社クラウト,,有限会社,長野県,中野市,大字竹原２９５番地,,20,211,3830007,,,2021-07-29,清算の結了等,,,2015-10-05,1,,,,,クラウト,0
1999,7100002018916,登記記録の閉鎖等,0,2021-08-02,2021-07-27,有限会社千曲電気工事,,有限会社,長野県,中野市,大字穴田１４４０番地１,,20,211,3892103,,,2021-07-27,清算の結了等,,,2015-10-05,1,,,,,チクマデンキコウジ,0
2029,7120902009475,登記記録の閉鎖等,0,2021-08-02,2021-07-29,有限会社アークシステム,,有限会社,大阪府,高槻市,奈佐原２丁目９番４－２０１号,,27,207,5691041,,,2021-07-29,清算の結了等,,,2015-10-05,1,,,,,アークシステム,0
2039,7130005003805,登記記録の閉鎖等,0,2021-08-02,2021-07-26,医療法人小野耳鼻咽喉科医院,,その他の設立登記法人,京都府,京都市北区,北野上白梅町６７番地,,26,101,6038325,,,2021-07-26,清算の結了等,,,2015-10-05,1,,,,,オノジビインコウカイイン,0
2046,7140001093543,登記記録の閉鎖等,0,2021-08-02,2021-07-27,株式会社クリアコンタクト,,株式会社,兵庫県,相生市,那波南本町５－１９,,28,208,6780053,,,2021-07-27,清算の結了等,,,2015-10-05,1,,,,,クリアコンタクト,0
2072,7180002012738,登記記録の閉鎖等,0,2021-08-02,2021-07-28,有限会社ミツヤ興産,,有限会社,愛知県,名古屋市北区,水草町２丁目４７番地の２,,23,103,4620042,,,2021-07-28,清算の結了等,,,2015-10-05,1,,,,,ミツヤコウサン,0
2075,7180302018682,登記記録の閉鎖等,0,2021-08-02,2021-07-28,有限会社ナカムラ自動車,,有限会社,愛知県,刈谷市,築地町３丁目４番地２,,23,210,4480011,,,2021-07-28,合併による解散等,1180301014300,令和３年７月１日愛知県刈谷市築地町三丁目４番地２トップワールド株式会社（1180301014300）に合併し解散,2015-10-05,1,,,,,ナカムラジドウシャ,0
2082,7220001010993,登記記録の閉鎖等,0,2021-08-02,2021-07-19,株式会社初武,,株式会社,石川県,金沢市,黒田２丁目７８番地,,17,201,9218051,,,2021-07-19,清算の結了等,,,2015-10-05,1,,,,,ハツタケ,0
2109,7320001007402,登記記録の閉鎖等,0,2021-08-02,2021-07-28,株式会社秀栄,,株式会社,大分県,大分市,牧１丁目２４番５号,,44,201,8700924,,,2021-07-28,清算の結了等,,,2015-10-05,1,,,,,シュウエイ,0
2135,7410001002022,登記記録の閉鎖等,0,2021-08-02,2021-07-28,株式会社日生電機商会,,株式会社,秋田県,秋田市,八橋本町３丁目１４番１１号,,05,201,0100973,,,2021-07-28,清算の結了等,,,2015-10-05,1,,,,,ニッセイデンキショウカイ,0
2140,7430002065735,登記記録の閉鎖等,0,2021-08-02,2021-07-19,有限会社ワショウ,,有限会社,北海道,登別市,中央町１丁目３番地５,,01,230,0590012,,,2021-07-19,清算の結了等,,,2015-10-05,1,,,,,ワショウ,0
2161,8010401026123,登記記録の閉鎖等,0,2021-08-02,2021-07-19,株式会社そうりん,,株式会社,東京都,港区,麻布台１丁目９番１３号,,13,103,1060041,,,2021-07-19,清算の結了等,,,2015-10-05,1,,,,,ソウリン,0
2166,8010401131261,登記記録の閉鎖等,0,2021-08-02,2021-07-08,株式会社ＡＳＲＵＮ,,株式会社,福岡県,福岡市南区,野間１丁目１番１９号,,40,134,8150041,,,2021-07-08,清算の結了等,,,2017-05-17,1,,,,,アスラン,0
2172,8010405006897,登記記録の閉鎖等,0,2021-08-02,2021-07-15,特定非営利活動法人トータルヒューマンネット２１,,その他の設立登記法人,東京都,港区,白金３丁目１１番１２号小宮荘２階,,13,103,1080072,,,2021-07-15,清算の結了等,,,2015-10-05,1,,,,,トータルヒューマンネットニジュウイチ,0
2173,8010405013489,登記記録の閉鎖等,0,2021-08-02,2021-07-14,一般社団法人耐震サポートネット,,その他の設立登記法人,東京都,港区,新橋１丁目１３番１２号,,13,103,1050004,,,2021-07-14,清算の結了等,,,2015-10-05,1,,,,,タイシンサポートネット,0
2198,8011101014228,登記記録の閉鎖等,0,2021-08-02,2021-07-09,東邦建設流通サービス株式会社,,株式会社,東京都,新宿区,歌舞伎町１丁目１番５号,,13,104,1600021,,,2021-07-09,清算の結了等,,,2015-10-05,1,,,,,トウホウケンセツリュウツウサービス,0
2219,8011802003157,登記記録の閉鎖等,0,2021-08-02,2021-07-30,有限会社三光鋳造,,有限会社,東京都,葛飾区,奥戸２丁目３７番１４号,,13,122,1240022,,,2021-07-30,清算の結了等,,,2015-10-05,1,,,,,サンコウチュウゾウ,0
2221,8012401003416,登記記録の閉鎖等,0,2021-08-02,2021-07-29,株式会社メルチェ,,株式会社,東京都,渋谷区,元代々木町１０番９号,,13,113,1510062,,,2021-07-29,清算の結了等,,,2015-10-05,1,,,,,メルチェ,0
2226,8013301043452,登記記録の閉鎖等,0,2021-08-02,2021-07-26,株式会社ＥＪコーポレーション,,株式会社,東京都,豊島区,南池袋２丁目４９番７号池袋パークビル１Ｆ,,13,116,1710022,,,2021-07-26,清算の結了等,,,2019-02-18,1,,,,,イージェイコーポレーション,0
2240,8020002072268,登記記録の閉鎖等,0,2021-08-02,2021-07-20,有限会社Ｍ・Ｋカンパニー,,有限会社,神奈川県,横浜市中区,福富町仲通１番９号,,14,104,2310043,,,2021-07-20,清算の結了等,,,2015-10-05,1,,,,,エムケーカンパニー,0
2241,8020002083224,登記記録の閉鎖等,0,2021-08-02,2021-07-20,川崎帆布工業有限会社,,有限会社,神奈川県,川崎市中原区,新丸子町７３５番地,,14,133,2110005,,,2021-07-20,清算の結了等,,,2015-10-05,1,,,,,カワサキハンプコウギョウ,0
2242,8020002085121,登記記録の閉鎖等,0,2021-08-02,2021-07-21,有限会社美好屋米店,,有限会社,神奈川県,川崎市中原区,新丸子東１丁目７８８番地,,14,133,2110004,,,2021-07-21,清算の結了等,,,2015-10-05,1,,,,,ミヨシヤコメテン,0
2280,8040001062301,登記記録の閉鎖等,0,2021-08-02,2021-07-19,株式会社銚子霊柩,,株式会社,千葉県,銚子市,長塚町１丁目１番地２３,,12,202,2880837,,,2021-07-19,清算の結了等,,,2015-10-05,1,,,,,チョウシレイキュウ,0
2281,8040001069107,登記記録の閉鎖等,0,2021-08-02,2021-07-21,株式会社オルソプラス,,株式会社,千葉県,柏市,南柏２丁目６番１４号,,12,217,2770855,,,2021-07-21,清算の結了等,,,2015-10-05,1,,,,,オルソプラス,0
2285,8040002006050,登記記録の閉鎖等,0,2021-08-02,2021-07-21,有限会社鈴信工業,,有限会社,千葉県,千葉市若葉区,千城台東２丁目４０番地７号,,12,104,2640002,,,2021-07-21,清算の結了等,,,2015-10-05,1,,,,,,0
2291,8050002002255,登記記録の閉鎖等,0,2021-08-02,2021-07-21,有限会社東関圧接工業,,有限会社,茨城県,水戸市,大塚町字大塚１２６５番地の４,,08,201,3114143,,,2021-07-21,清算の結了等,,,2015-10-05,1,,,,,トウカンアッセツコウギョウ,0
2293,8060002012402,登記記録の閉鎖等,0,2021-08-02,2021-07-16,有限会社岩本商事,,有限会社,栃木県,塩谷郡高根沢町,大字上高根沢４０００番地,,09,386,3291224,,,2021-07-16,清算の結了等,,,2015-10-05,1,,,,,イワモトショウジ,0
2312,8120001042815,登記記録の閉鎖等,0,2021-08-02,2021-07-20,株式会社Ｋプランニング,,株式会社,大阪府,大阪市北区,西天満４丁目１０番３号,,27,127,5300047,,,2021-07-20,清算の結了等,,,2015-10-05,1,,,,,ケイプランニング,0
2315,8120001084428,登記記録の閉鎖等,0,2021-08-02,2021-07-19,株式会社中央管財,,株式会社,大阪府,大阪市中央区,本町４丁目１番７号第二有楽ビル,,27,128,5410053,,,2021-07-19,清算の結了等,,,2015-10-05,1,,,,,チュウオウカンザイ,0
2327,8120102015760,登記記録の閉鎖等,0,2021-08-02,2021-07-29,有限会社ワークス近畿,,有限会社,大阪府,松原市,一津屋３丁目４番２１－３１７号,,27,217,5800003,,,2021-07-29,清算の結了等,,,2015-10-05,1,,,,,ワークスキンキ,0
2339,8130001058224,登記記録の閉鎖等,0,2021-08-02,2021-07-26,グロウリンク株式会社,,株式会社,京都府,京都市中京区,三条通室町西入衣棚町６１サンムロビル１階,,26,104,6048203,,,2021-07-26,清算の結了等,,,2016-09-08,1,,,,,グロウリンク,0
2345,8140001032590,登記記録の閉鎖等,0,2021-08-02,2021-07-27,ヘンリー・トラスト株式会社,,株式会社,兵庫県,神戸市中央区,北長狭通２丁目６番２号,,28,110,6500012,,,2021-07-27,清算の結了等,,,2015-10-05,1,,,,,ヘンリートラスト,0
2356,8140002002312,登記記録の閉鎖等,0,2021-08-02,2021-07-27,有限会社豊和,,有限会社,兵庫県,芦屋市,岩園町３番６－４０６号,,28,206,6590013,,,2021-07-27,清算の結了等,,,2015-10-05,1,,,,,ホウワ,0
2357,8140002023936,登記記録の閉鎖等,0,2021-08-02,2021-07-27,有限会社ヒューマン・テクノロジー,,有限会社,兵庫県,神戸市中央区,小野柄通３丁目１番１１号,,28,110,6510088,,,2021-07-27,清算の結了等,,,2015-10-05,1,,,,,ヒューマンテクノロジー,0
2367,8150001008037,登記記録の閉鎖等,0,2021-08-02,2021-07-26,株式会社Ｍｙｓ　Ｌａｂ,,株式会社,奈良県,奈良市,学園大和町６丁目７０８番地の１－４０６号,,29,201,6310041,,,2021-07-26,清算の結了等,,,2015-10-05,1,,,,,エムワイエスラボ,0
2375,8180001013942,登記記録の閉鎖等,0,2021-08-02,2021-07-26,愛知化工株式会社,,株式会社,愛知県,名古屋市南区,明円町８７番地,,23,112,4570022,,,2021-07-26,清算の結了等,,,2015-10-05,1,,,,,アイチカコウ,0
2381,8180001065488,登記記録の閉鎖等,0,2021-08-02,2021-07-20,株式会社フォーライフ,,株式会社,愛知県,名古屋市中区,栄５丁目２６番３９号ＧＳ栄ビル３Ｆ,,23,106,4600008,,,2021-07-20,清算の結了等,,,2015-10-05,1,,,,,フォーライフ,0
2389,8180003017082,登記記録の閉鎖等,0,2021-08-02,2021-07-27,合同会社猫福,,合同会社,愛知県,名古屋市中川区,露橋２丁目２７番５号マンション露橋Ａ棟３０１号,,23,110,4540022,,,2021-07-27,清算の結了等,,,2016-05-11,1,,,,,ネコフク,0
2397,8180302001761,登記記録の閉鎖等,0,2021-08-02,2021-07-30,有限会社ダイワエンジニアリング,,有限会社,愛知県,岡崎市,大和町字川原６４番地２,,23,202,4440931,,,2021-07-30,清算の結了等,,,2015-10-05,1,,,,,ダイワエンジニアリング,0
2413,8240002039848,登記記録の閉鎖等,0,2021-08-02,2021-07-13,有限会社ダブルウッド販売,,有限会社,広島県,福山市,三吉町３丁目２番８号,,34,207,7200031,,,2021-07-13,清算の結了等,,,2015-10-05,1,,,,,ダブルウッドハンバイ,0
2426,8290802009780,登記記録の閉鎖等,0,2021-08-02,2021-07-14,濵田海事工業有限会社,00094439,有限会社,福岡県,北九州市門司区,鳴竹２丁目８番２３号,,40,101,8010881,,,2021-07-14,清算の結了等,,,2015-10-05,1,,,,,ハマダカイジコウギョウ,0
2445,8360002016686,登記記録の閉鎖等,0,2021-08-02,2021-07-27,有限会社ばいさん,,有限会社,沖縄県,浦添市,伊奈武瀬１丁目１１番１号,,47,208,9012128,,,2021-07-27,清算の結了等,,,2015-10-05,1,,,,,バイサン,0
2454,8380002019183,登記記録の閉鎖等,0,2021-08-02,2021-07-20,有限会社トラシスト,,有限会社,福島県,東白川郡塙町,大字上石井字薬師堂３８番地１,,07,483,9635411,,,2021-07-20,清算の結了等,,,2015-10-05,1,,,,,トラシスト,0
2462,8390005005056,登記記録の閉鎖等,0,2021-08-02,2021-07-19,特定非営利活動法人じゃがいも畑,,その他の設立登記法人,山形県,鶴岡市,泉町５番７０号,,06,203,9970033,,,2021-07-19,清算の結了等,,,2015-10-05,1,,,,,ジャガイモバタケ,0
2475,8470002008350,登記記録の閉鎖等,0,2021-08-02,2021-07-27,有限会社フサコーポレーション,,有限会社,香川県,高松市,田町４番地１８,,37,201,7600053,,,2021-07-27,清算の結了等,,,2015-10-05,1,,,,,,0
2490,9010005022352,登記記録の閉鎖等,0,2021-08-02,2021-07-14,一般社団法人高知太陽光研究所,,その他の設立登記法人,東京都,千代田区,九段北３丁目２番４号,,13,101,1020073,,,2021-07-14,清算の結了等,,,2015-10-05,1,,,,,コウチタイヨウコウケンキュウショ,0
2501,9010401130493,登記記録の閉鎖等,0,2021-08-02,2021-07-16,グローバルエアーパートナーズジャパン株式会社,,株式会社,東京都,港区,新橋５丁目２２－６・６Ｆ,,13,103,1050004,,,2021-07-16,清算の結了等,,,2017-03-28,1,,,,,グローバルエアーパートナーズジャパン,0
2516,9010601058312,登記記録の閉鎖等,0,2021-08-02,2021-07-12,ＮＦＳ株式会社,,株式会社,東京都,江東区,亀戸６丁目２５番１号,,13,108,1360071,,,2021-07-12,合併による解散等,1011701006077,令和３年６月３０日東京都江東区亀戸四丁目３６番１４号日本フォームサービス株式会社（1011701006077）に合併し解散,2020-11-16,1,,,,,エヌエフエス,0
2518,9010602028280,登記記録の閉鎖等,0,2021-08-02,2021-07-13,有限会社アーキ,,有限会社,東京都,墨田区,錦糸１丁目２番６－２０２号,,13,107,1300013,,,2021-07-13,清算の結了等,,,2015-10-05,1,,,,,アーキ,0
2531,9011002029308,登記記録の閉鎖等,0,2021-08-02,2021-07-29,有限会社フューズプランニング,,有限会社,東京都,渋谷区,元代々木町１０番９号,,13,113,1510062,,,2021-07-29,清算の結了等,,,2015-10-05,1,,,,,フューズプランニング,0
2538,9011101080442,登記記録の閉鎖等,0,2021-08-02,2021-07-19,株式会社ＦＵＳＩＯＮ,,株式会社,東京都,新宿区,新宿５丁目１０番１０号海老沢ビル２０２,,13,104,1600022,,,2021-07-19,清算の結了等,,,2017-05-08,1,,,,,フュージョン,0
2546,9011701013727,登記記録の閉鎖等,0,2021-08-02,2021-07-27,株式会社小山内工業,,株式会社,東京都,江戸川区,東小松川３丁目３３番７号,,13,123,1320033,,,2021-07-27,清算の結了等,,,2015-10-05,1,,,,,コヤマナイコウギョウ,0
2550,9012301010461,登記記録の閉鎖等,0,2021-08-02,2021-07-16,株式会社Ｔｒｕｓｔ１,,株式会社,東京都,町田市,小川６丁目２３番１－９１９号,,13,209,1940003,,,2021-07-16,清算の結了等,,,2016-03-16,1,,,,,,0
2566,9020001121272,登記記録の閉鎖等,0,2021-08-02,2021-07-20,株式会社ルミオン,,株式会社,神奈川県,横浜市港北区,北新横浜２丁目５番地６アルビオ北新横浜４０３,,14,109,2230059,,,2021-07-20,清算の結了等,,,2017-05-15,1,,,,,ルミオン,0
2574,9021001033251,登記記録の閉鎖等,0,2021-08-02,2021-07-20,株式会社三喜屋,,株式会社,神奈川県,小田原市,成田４８０番地の１４,,14,206,2500862,,,2021-07-20,清算の結了等,,,2015-10-05,1,,,,,ミキヤ,0
2577,9021002034141,登記記録の閉鎖等,0,2021-08-02,2021-07-20,有限会社関根牧場,,有限会社,神奈川県,愛甲郡愛川町,角田８２番地,,14,401,2430301,,,2021-07-20,清算の結了等,,,2015-10-05,1,,,,,セキネボクジョウ,0
2578,9021003009051,登記記録の閉鎖等,0,2021-08-02,2021-07-01,合同会社ｈｏｍｅ,,合同会社,神奈川県,藤沢市,鵠沼橘１丁目２番９号イーズ湘南１０２,,14,205,2510024,,,2021-07-01,合併による解散等,2021001051565,令和３年７月１日神奈川県藤沢市鵠沼橘一丁目２番１０号株式会社ｒｅｌｍｅ（2021001051565）に合併し解散,2020-01-21,1,,,,,ホーム,0
2588,9030002015431,登記記録の閉鎖等,0,2021-08-02,2021-07-19,有限会社けやき舎,,有限会社,埼玉県,さいたま市緑区,大字三室７２０番地１２,,11,109,3360911,,,2021-07-19,清算の結了等,,,2015-10-05,1,,,,,ケヤキシャ,0
2591,9030003012568,登記記録の閉鎖等,0,2021-08-02,2021-07-19,宜佳商事合同会社,,合同会社,埼玉県,さいたま市大宮区,土手町１丁目６６番１号,,11,103,3300801,,,2021-07-19,清算の結了等,,,2018-10-16,1,,,,,ギカショウジ,0
2601,9040002044702,登記記録の閉鎖等,0,2021-08-02,2021-07-19,有限会社エム・シー・アイ,,有限会社,千葉県,松戸市,大橋４６７番地の１１,,12,207,2702224,,,2021-07-19,清算の結了等,,,2015-10-05,1,,,,,エムシーアイ,0
2604,9040002085770,登記記録の閉鎖等,0,2021-08-02,2021-07-19,有限会社天金本店,,有限会社,千葉県,銚子市,東町１４番地の７,,12,202,2880053,,,2021-07-19,清算の結了等,,,2015-10-05,1,,,,,テンキンホンテン,0
2631,9120001041799,登記記録の閉鎖等,0,2021-08-02,2021-07-20,エヌ・ピ株式会社,,株式会社,大阪府,大阪市浪速区,日本橋西１丁目７番２８号,,27,111,5560004,,,2021-07-20,清算の結了等,,,2015-10-05,1,,,,,エヌピ,0
2642,9120001140907,登記記録の閉鎖等,0,2021-08-02,2021-07-19,株式会社クラウド,,株式会社,東京都,新宿区,市谷薬王寺町７０番５－６０３号,,13,104,1620063,,,2021-07-19,清算の結了等,,,2015-10-05,1,,,,,クラウド,0
2644,9120001156754,登記記録の閉鎖等,0,2021-08-02,2021-07-20,岬印刷株式会社,,株式会社,大阪府,守口市,南寺方東通６丁目１１番１８号,,27,209,5700043,,,2021-07-20,清算の結了等,,,2015-10-05,1,,,,,ミサキインサツ,0
2665,9120901010424,登記記録の閉鎖等,0,2021-08-02,2021-07-29,株式会社イシス総合研究所,,株式会社,大阪府,高槻市,芥川町１丁目１０番２号,,27,207,5691123,,,2021-07-29,清算の結了等,,,2015-10-05,1,,,,,イシスソウゴウケンキュウショ,0
2674,9130001045642,登記記録の閉鎖等,0,2021-08-02,2021-07-28,株式会社キーストーン,,株式会社,京都府,亀岡市,大井町小金岐１丁目９番３８号,,26,206,6210018,,,2021-07-28,清算の結了等,,,2015-10-05,1,,,,,キーストーン,0
2703,9180001057022,登記記録の閉鎖等,0,2021-08-02,2021-07-21,株式会社美楽,,株式会社,愛知県,名古屋市瑞穂区,彌富通１丁目３８番地の２,,23,108,4670064,,,2021-07-21,清算の結了等,,,2015-10-05,1,,,,,ビラク,0
2710,9180002026422,登記記録の閉鎖等,0,2021-08-02,2021-07-26,有限会社風来坊,,有限会社,愛知県,名古屋市天白区,野並４丁目２７１番地,,23,116,4680045,,,2021-07-26,清算の結了等,,,2015-10-05,1,,,,,フウライボウ,0
2711,9180002028617,登記記録の閉鎖等,0,2021-08-02,2021-07-21,有限会社ニイミ業務店,,有限会社,愛知県,名古屋市中村区,五反城町８丁目２１番地,,23,105,4530836,,,2021-07-21,清算の結了等,,,2015-10-05,1,,,,,ニイミギョウムテン,0
2712,9180002049992,登記記録の閉鎖等,0,2021-08-02,2021-07-20,有限会社シーアイ・プロックス,,有限会社,愛知県,名古屋市西区,名西１丁目９番９号,,23,104,4510064,,,2021-07-20,清算の結了等,,,2015-10-05,1,,,,,,0
2723,9200002000069,登記記録の閉鎖等,0,2021-08-02,2021-07-29,有限会社アイテック,,有限会社,岐阜県,岐阜市,岩井５丁目１番１６号,,21,201,5013101,,,2021-07-29,清算の結了等,,,2015-10-05,1,,,,,アイテック,0
2744,9290802019754,登記記録の閉鎖等,0,2021-08-02,2021-07-21,有限会社ロード＆スカイ,,有限会社,福岡県,遠賀郡遠賀町,松の本３丁目１番１２号,,40,384,8114305,,,2021-07-21,清算の結了等,,,2015-10-05,1,,,,,,0
2746,9300005002936,登記記録の閉鎖等,0,2021-08-02,2021-07-05,特定非営利活動法人長楽苑,,その他の設立登記法人,佐賀県,佐賀市,材木１丁目２番２８号,,41,201,8400055,,,2021-07-05,清算の結了等,,,2015-10-05,1,,,,,チョウラクエン,0
2780,9450002005415,登記記録の閉鎖等,0,2021-08-02,2021-07-30,有限会社丸大大西ストアー,,有限会社,北海道,旭川市,神楽岡六条６丁目３番５号,,01,204,0788316,,,2021-07-30,清算の結了等,,,2015-10-05,1,,,,,マルダイオオニシストアー,0
2781,9460101005595,登記記録の閉鎖等,0,2021-08-02,2021-07-29,株式会社十夢ハウス,,株式会社,北海道,帯広市,西二十条南５丁目２番６号,,01,207,0802470,,,2021-07-29,清算の結了等,,,2015-10-05,1,,,,,トムハウス,0
