sequenceNumber,corporateNumber,process,correct,updateDate,changeDate,name,nameImageId,kind,prefectureName,cityName,streetNumber,addressImageId,prefectureCode,cityCode,postCode,addressOutside,addressOutsideImageId,closeDate,closeCause,successorCorporateNumber,changeCause,assignmentDate,latest,enName,enPrefectureName,enCityName,enAddressOutside,furigana,hihyoji
12,1010401120403,登記記録の閉鎖等,0,2024-10-08,2024-09-27,Ｒｕｋｉ株式会社,,株式会社,東京都,新宿区,新宿４丁目３番地１７号ＦＯＲＥＣＡＳＴ新宿ＳＯＵＴＨ６階,,13,104,1600022,,,2024-09-27,清算の結了等,,,2015-10-05,1,,,,,ルキ,0
21,1010405017083,登記記録の閉鎖等,0,2024-10-08,2024-09-06,一般社団法人ＪＺ・アナスタシアガーデン,,その他の設立登記法人,東京都,港区,海岸１丁目１番１号ラトゥール汐留４７０８号室,,13,103,1050022,,,2024-09-06,清算の結了等,,,2018-10-02,1,,,,,ジェーズィーアナスタシアガーデン,0
22,1010501049105,登記記録の閉鎖等,0,2024-10-08,2024-10-01,銘通株式会社,,株式会社,東京都,板橋区,大山金井町３０－１０－３Ｆ,,13,119,1730024,,,2024-10-01,清算の結了等,,,2022-07-12,1,,,,,メイツウ,0
26,1010603002135,登記記録の閉鎖等,0,2024-10-08,2024-10-01,合名会社小林工業社,,合名会社,東京都,墨田区,立川４丁目１７番１１号,,13,107,1300023,,,2024-10-01,合併による解散等,7010601011966,令和６年１０月１日東京都墨田区立川四丁目１７番１１号株式会社コバゼン（7010601011966）に合併し解散,2015-10-05,1,,,,,コバヤシコウギョウシャ,0
36,1010802017826,登記記録の閉鎖等,0,2024-10-08,2024-10-01,有限会社栗島秀行事務所,,有限会社,栃木県,那須塩原市,住吉町３番２５号サンクレイドル黒磯４０１号,,09,213,3250062,,,2024-10-01,清算の結了等,,,2015-10-05,1,,,,,クリシマヒデユキジムショ,0
40,1010901020747,登記記録の閉鎖等,0,2024-10-08,2024-10-07,株式会社ダブルエム,,株式会社,神奈川県,平塚市,明石町１６番１８－７０１号,,14,203,2540042,,,2024-10-07,清算の結了等,,,2015-10-05,1,,,,,,0
72,1011501026688,登記記録の閉鎖等,0,2024-10-08,2024-09-27,株式会社益希,,株式会社,東京都,台東区,東上野１丁目２４－５杉野ビル４階,,13,106,1100015,,,2024-09-27,清算の結了等,,,2021-03-05,1,,,,,ミキ,0
73,1011601002432,登記記録の閉鎖等,0,2024-10-08,2024-10-01,サンアイ企画装飾株式会社,,株式会社,東京都,練馬区,関町南２丁目８番２７号,,13,120,1770053,,,2024-10-01,清算の結了等,,,2015-10-05,1,,,,,サンアイキカクソウショク,0
74,1011603003684,登記記録の閉鎖等,0,2024-10-08,2024-10-02,合同会社ｍａｓｈｕｐ,,合同会社,東京都,練馬区,羽沢２丁目６番２号,,13,120,1760003,,,2024-10-02,清算の結了等,,,2022-08-22,1,,,,,マッシュアップ,0
76,1011702001250,登記記録の閉鎖等,0,2024-10-08,2024-10-02,有限会社イナセヤ設計室,,有限会社,東京都,江戸川区,大杉１丁目３番１５号,,13,123,1320022,,,2024-10-02,清算の結了等,,,2015-10-05,1,,,,,イナセヤセッケイシツ,0
80,1011802024366,登記記録の閉鎖等,0,2024-10-08,2024-09-30,有限会社ユーテック,,有限会社,東京都,足立区,南花畑１丁目１３番２３号,,13,121,1210062,,,2024-09-30,清算の結了等,,,2015-10-05,1,,,,,ユーテック,0
82,1012401032891,登記記録の閉鎖等,0,2024-10-08,2024-10-03,株式会社星空,,株式会社,東京都,三鷹市,新川３丁目１９番９号,,13,204,1810004,,,2024-10-03,清算の結了等,,,2017-06-21,1,,,,,ホシゾラ,0
85,1012402022628,登記記録の閉鎖等,0,2024-10-08,2024-10-04,有限会社ブルームーン・スタジオ,,有限会社,東京都,調布市,調布ケ丘３丁目５３番２号オークガーデン１０１,,13,208,1820021,,,2024-10-04,清算の結了等,,,2015-10-05,1,,,,,ブルームーンスタジオ,0
89,1013302006043,登記記録の閉鎖等,0,2024-10-08,2024-10-03,有限会社高松会館,,有限会社,兵庫県,神戸市東灘区,御影２丁目１５番２７号,,28,101,6580047,,,2024-10-03,清算の結了等,,,2015-10-05,1,,,,,タカマツカイカン,0
100,1020002034290,登記記録の閉鎖等,0,2024-10-08,2024-09-20,有限会社菅波工務店,,有限会社,神奈川県,横浜市港北区,小机町１１９番地,,14,109,2220036,,,2024-09-20,清算の結了等,,,2015-10-05,1,,,,,,0
101,1020002092917,登記記録の閉鎖等,0,2024-10-08,2024-09-20,有限会社中野島藤屋,,有限会社,神奈川県,川崎市多摩区,中野島３丁目１４番１号,,14,135,2140012,,,2024-09-20,清算の結了等,,,2015-10-05,1,,,,,ナカノシマフジヤ,0
102,1020003024745,登記記録の閉鎖等,0,2024-10-08,2024-09-20,合同会社マーズプランニング,,合同会社,神奈川県,横浜市神奈川区,栗田谷９番１号,,14,102,2210804,,,2024-09-20,清算の結了等,,,2023-10-13,1,,,,,マーズプランニング,0
113,1021002066514,登記記録の閉鎖等,0,2024-10-08,2024-10-04,有限会社福本電設,,有限会社,神奈川県,横須賀市,佐島１丁目７番５号,,14,201,2400103,,,2024-10-04,清算の結了等,,,2015-10-05,1,,,,,フクモトデンセツ,0
116,1030001052549,登記記録の閉鎖等,0,2024-10-08,2024-09-30,株式会社リストホーム,,株式会社,埼玉県,春日部市,豊町５丁目４番地２７,,11,214,3440066,,,2024-09-30,清算の結了等,,,2015-10-05,1,,,,,リストホーム,0
139,1030002116682,登記記録の閉鎖等,0,2024-10-08,2024-10-01,有限会社コトブキ電気,,有限会社,埼玉県,深谷市,寿町２３３番地,,11,218,3660025,,,2024-10-01,清算の結了等,,,2015-10-05,1,,,,,コトブキデンキ,0
164,1070001012409,登記記録の閉鎖等,0,2024-10-08,2024-10-03,株式会社コスモ,,株式会社,群馬県,藤岡市,藤岡２７９３番地５,,10,209,3750024,,,2024-10-03,清算の結了等,,,2015-10-05,1,,,,,コスモ,0
175,1090002006127,登記記録の閉鎖等,0,2024-10-08,2024-10-02,有限会社遠藤薬品,,有限会社,山梨県,甲府市,北口３丁目８番９号,,19,201,4000024,,,2024-10-02,清算の結了等,,,2015-10-05,1,,,,,エンドウヤクヒン,0
184,1120001073949,登記記録の閉鎖等,0,2024-10-08,2024-09-30,株式会社アーバン・プランニング研究所,,株式会社,大阪府,大阪市中央区,材木町１番６号,,27,128,5400010,,,2024-09-30,清算の結了等,,,2015-10-05,1,,,,,アーバンプランニングケンキュウショ,0
214,1122001032744,登記記録の閉鎖等,0,2024-10-08,2024-09-30,株式会社ＴＫ．ＯＣＥＡＮ,,株式会社,大阪府,八尾市,志紀町２丁目４６－５０４号,,27,212,5810031,,,2024-09-30,清算の結了等,,,2019-07-05,1,,,,,ティーケーオーシャン,0
220,1140001041697,登記記録の閉鎖等,0,2024-10-08,2024-10-01,株式会社近又,,株式会社,兵庫県,丹波篠山市,二階町８１番地,,28,221,6692331,,,2024-10-01,合併による解散等,4140001041703,令和６年１０月１日兵庫県丹波篠山市東吹３３６番地１株式会社クインオート（4140001041703）に合併し解散,2015-10-05,1,,,,,キンマタ,0
225,1140002012219,登記記録の閉鎖等,0,2024-10-08,2024-10-03,丸喜商事有限会社,,有限会社,兵庫県,神戸市兵庫区,上沢通１丁目１番２１号,,28,105,6520046,,,2024-10-03,清算の結了等,,,2015-10-05,1,,,,,マルキショウジ,0
228,1160001019238,登記記録の閉鎖等,0,2024-10-08,2024-10-04,株式会社西村グループ,,株式会社,滋賀県,大津市,下阪本５丁目７番１７号,,25,201,5200105,,,2024-10-04,清算の結了等,,,2016-01-06,1,,,,,ニシムラグループ,0
229,1180001003025,登記記録の閉鎖等,0,2024-10-08,2024-10-03,株式会社武藤電気,,株式会社,愛知県,名古屋市名東区,高針４丁目１１０２番地,,23,115,4650061,,,2024-10-03,清算の結了等,,,2015-10-05,1,,,,,ムトウデンキ,0
231,1180001085947,登記記録の閉鎖等,0,2024-10-08,2024-10-01,株式会社ＩＬエンジニアリングマネジメント,,株式会社,愛知県,一宮市,千秋町佐野字清水１０番,,23,203,4910804,,,2024-10-01,合併による解散等,3180001082190,令和６年１０月１日愛知県一宮市千秋町佐野字清水１０番株式会社ＩＬファーマパッケージング（3180001082190）に合併し解散,2015-10-05,1,,,,,アイエルエンジニアリングマネジメント,0
240,1190001005342,登記記録の閉鎖等,0,2024-10-08,2024-10-01,株式会社プライムフーズ,,株式会社,三重県,鈴鹿市,江島本町３９番８号,,24,207,5100234,,,2024-10-01,合併による解散等,3190001004821,令和６年１０月１日三重県鈴鹿市江島本町３９番８号株式会社伊坂屋（3190001004821）に合併し解散,2015-10-05,1,,,,,プライムフーズ,0
248,1220001011915,登記記録の閉鎖等,0,2024-10-08,2024-10-01,株式会社クロダレース,,株式会社,石川県,小松市,国府台５丁目３０番地,,17,203,9230061,,,2024-10-01,合併による解散等,3220001013711,令和６年１０月１日石川県小松市国府台五丁目３０番地株式会社ＹＯＳＨＩＴＡ　ＴＥＸ（3220001013711）に合併し解散,2015-10-05,1,,,,,,0
263,1310001014099,登記記録の閉鎖等,0,2024-10-08,2024-10-01,永代ホールディングス株式会社,,株式会社,長崎県,佐世保市,松浦町４番１７号,,42,202,8570052,,,2024-10-01,合併による解散等,1310001005172,令和６年１０月１日長崎県佐世保市松浦町４番１７号永代ハウス株式会社（1310001005172）に合併し解散,2016-03-03,1,,,,,エイダイホールディングス,0
273,1350005005727,登記記録の閉鎖等,0,2024-10-08,2024-09-24,特定非営利活動法人ホームホスピス日南子,,その他の設立登記法人,宮崎県,日南市,飫肥６丁目７番５１号,,45,204,8892535,,,2024-09-24,清算の結了等,,,2017-12-18,1,,,,,ホームホスピスヒナコ,0
280,1380001010050,登記記録の閉鎖等,0,2024-10-08,2024-10-01,さがみ典礼福島株式会社,,株式会社,福島県,郡山市,方八町２丁目５番８号,,07,203,9638811,,,2024-10-01,合併による解散等,8380001004517,令和６年１０月１日福島県郡山市鶴見坦二丁目４番５号アルファクラブ株式会社（8380001004517）に合併し解散,2015-10-05,1,,,,,サガミテンレイフクシマ,0
285,1390002012020,登記記録の閉鎖等,0,2024-10-08,2024-09-30,有限会社石川製靴,,有限会社,山形県,尾花沢市,大字延沢２０４９番地１,,06,212,9994441,,,2024-09-30,清算の結了等,,,2015-10-05,1,,,,,イシカワセイカ,0
292,1430005010041,登記記録の閉鎖等,0,2024-10-08,2024-10-03,東室蘭商店街振興組合,,その他の設立登記法人,北海道,室蘭市,東町２丁目２１番１０号,,01,205,0500083,,,2024-10-03,清算の結了等,,,2015-10-05,1,,,,,ヒガシムロラン,0
299,1500001000856,登記記録の閉鎖等,0,2024-10-08,2024-10-03,愛媛ヨーク株式会社,,株式会社,愛媛県,松山市,姫原３丁目５番地６,,38,201,7918012,,,2024-10-03,清算の結了等,,,2015-10-05,1,,,,,エヒメヨーク,0
322,2010005031839,登記記録の閉鎖等,0,2024-10-08,2024-10-02,一般社団法人エステック青森,,その他の設立登記法人,東京都,中央区,京橋２丁目７番１９号,,13,102,1040031,,,2024-10-02,清算の結了等,,,2020-05-19,1,,,,,エステックアオモリ,0
334,2010403026110,登記記録の閉鎖等,0,2024-10-08,2024-10-01,新御堂筋インベストメンツ２合同会社,,合同会社,東京都,港区,六本木１丁目６番１号泉ガーデンタワー,,13,103,1060032,,,2024-10-01,清算の結了等,,,2021-09-14,1,,,,,シンミドウスジインベストメンツツー,0
336,2010405017578,登記記録の閉鎖等,0,2024-10-08,2024-09-10,一般社団法人特定興行入場券流通監視連絡会,,その他の設立登記法人,東京都,港区,赤坂２丁目１７番６５号,,13,103,1070052,,,2024-09-10,清算の結了等,,,2019-03-27,1,,,,,トクテイコウギョウニュウジョウケンリュウツウカンシレンラクカイ,0
337,2010405019731,登記記録の閉鎖等,0,2024-10-08,2024-09-11,一般社団法人ＡＰＨ１,,その他の設立登記法人,東京都,港区,虎ノ門５丁目１番４号,,13,103,1050001,,,2024-09-11,清算の結了等,,,2021-04-22,1,,,,,エーピーエイチワン,0
346,2010902008864,登記記録の閉鎖等,0,2024-10-08,2024-10-01,有限会社染谷商店,,有限会社,東京都,世田谷区,上馬２丁目２７番１８号,,13,112,1540011,,,2024-10-01,清算の結了等,,,2015-10-05,1,,,,,ソメヤショウテン,0
379,2012403004384,登記記録の閉鎖等,0,2024-10-08,2024-10-04,ＤＨＡコンサルティング合同会社,,合同会社,東京都,小金井市,貫井北町３丁目１９－６,,13,210,1840015,,,2024-10-04,清算の結了等,,,2020-06-08,1,,,,,ディーエイチエーコンサルティング,0
387,2013401006546,登記記録の閉鎖等,0,2024-10-08,2024-09-24,株式会社Ｇ・アシスト,,株式会社,東京都,日野市,南平２丁目１３番地の１７,,13,212,1910041,,,2024-09-24,清算の結了等,,,2015-10-05,1,,,,,ジーアシスト,0
389,2020001124554,登記記録の閉鎖等,0,2024-10-08,2024-09-11,株式会社ＳＳＣ,,株式会社,東京都,渋谷区,神宮前６丁目２３番４号桑野ビル２階,,13,113,1500001,,,2024-09-11,清算の結了等,,,2018-01-16,1,,,,,エスエスシー,0
412,2021002027259,登記記録の閉鎖等,0,2024-10-08,2024-10-03,有限会社エム・ケイ商会,,有限会社,神奈川県,相模原市南区,上鶴間本町８丁目２０番４５号,,14,153,2520318,,,2024-10-03,清算の結了等,,,2015-10-05,1,,,,,エムケイショウカイ,0
415,2030001054486,登記記録の閉鎖等,0,2024-10-08,2024-09-30,株式会社川越スポーツ,,株式会社,埼玉県,川越市,新富町２丁目９番地１４,,11,201,3500043,,,2024-09-30,清算の結了等,,,2015-10-05,1,,,,,カワゴエスポーツ,0
429,2030002023119,登記記録の閉鎖等,0,2024-10-08,2024-10-01,有限会社トータル・ボディ・サポート,,有限会社,埼玉県,さいたま市岩槻区,大字南辻５３番地１,00016345,11,110,3390062,,,2024-10-01,清算の結了等,,,2015-10-05,1,,,,,トータルボディサポート,0
431,2030003017532,登記記録の閉鎖等,0,2024-10-08,2024-09-19,和の輪合同会社,,合同会社,東京都,杉並区,荻窪５丁目３０－１２グローリア荻窪７１３,,13,115,1670051,,,2024-09-19,清算の結了等,,,2021-07-01,1,,,,,ワノワ,0
442,2040002045244,登記記録の閉鎖等,0,2024-10-08,2024-09-30,有限会社きくや,,有限会社,千葉県,松戸市,本町１番地の１３,,12,207,2710091,,,2024-09-30,清算の結了等,,,2015-10-05,1,,,,,キクヤ,0
452,2070001008348,登記記録の閉鎖等,0,2024-10-08,2024-10-01,ホンダ群馬販売株式会社,,株式会社,群馬県,高崎市,飯塚町１２５９番地の２,,10,202,3700069,,,2024-10-01,合併による解散等,9070001002930,令和６年１０月１日群馬県前橋市問屋町一丁目１０番地８株式会社ホンダカーズ群馬（9070001002930）に合併し解散,2015-10-05,1,,,,,ホンダグンマハンバイ,0
454,2080101005822,登記記録の閉鎖等,0,2024-10-08,2024-10-04,大一工業株式会社,,株式会社,静岡県,駿東郡清水町,卸団地３４７番地,,22,341,4110912,,,2024-10-04,合併による解散等,7080001000720,令和６年１０月１日静岡市駿河区有東二丁目２番２０号株式会社エヌ・ビー中根屋（7080001000720）に合併し解散,2015-10-05,1,,,,,ダイイチコウギョウ,0
490,2140001045672,登記記録の閉鎖等,0,2024-10-08,2024-10-01,株式会社ハリマパッケージ,,株式会社,兵庫県,加古郡稲美町,中一色８００番地,,28,381,6751127,,,2024-10-01,合併による解散等,7140001003007,令和６年１０月１日神戸市中央区小野浜町１５番４号イゲタ産業株式会社（7140001003007）に合併し解散,2015-10-05,1,,,,,ハリマパッケージ,0
505,2180001108608,登記記録の閉鎖等,0,2024-10-08,2024-10-03,株式会社リアルトラスト,,株式会社,岐阜県,可児市,塩河９６０番地の１,,21,214,5090247,,,2024-10-03,清算の結了等,,,2015-10-05,1,,,,,リアルトラスト,0
512,2190001029225,登記記録の閉鎖等,0,2024-10-08,2024-10-04,株式会社アルシエ,,株式会社,三重県,四日市市,諏訪栄町４‐１０アピカビル３Ｆ,,24,202,5100086,,,2024-10-04,清算の結了等,,,2022-03-16,1,,,,,アルシエ,0
514,2200001037036,登記記録の閉鎖等,0,2024-10-08,2024-10-04,ＣＩＴＲＡ雇用サービス株式会社,,株式会社,岐阜県,岐阜市,加納青藤町２丁目１６番地１,,21,201,5008457,,,2024-10-04,清算の結了等,,,2020-01-09,1,,,,,シトラコヨウサービス,0
519,2210003001303,登記記録の閉鎖等,0,2024-10-08,2024-10-03,ｉＲｏｎ・ｆｅｆｅ合同会社,,合同会社,福井県,勝山市,旭毛屋町４００７番地,,18,206,9110817,,,2024-10-03,清算の結了等,,,2020-12-11,1,,,,,アイアンフィフィ,0
528,2250001014047,登記記録の閉鎖等,0,2024-10-08,2024-10-01,アロウ株式会社,,株式会社,山口県,周南市,今宿町３丁目１４番地,,35,215,7450074,,,2024-10-01,合併による解散等,3250001010755,令和６年１０月１日山口県周南市今宿町三丁目１４番地株式会社エフテック（3250001010755）に合併し解散,2015-10-05,1,,,,,アロウ,0
536,2290001061382,登記記録の閉鎖等,0,2024-10-08,2024-10-01,株式会社Ｃ＆Ｇ　Ｖａｌｕｅ　Ｄｅｓｉｇｎ福岡,,株式会社,福岡県,福岡市中央区,輝国１丁目１番３３号,,40,133,8100032,,,2024-10-01,合併による解散等,5290001056322,令和６年１０月１日福岡市中央区輝国一丁目１番３３号株式会社Ｃ＆Ｇ　Ｖａｌｕｅ　Ｄｅｓｉｇｎ（5290001056322）に合併し解散,2015-10-05,1,,,,,シーアンドジーバリューデザインフクオカ,0
541,2290801029793,登記記録の閉鎖等,0,2024-10-08,2024-09-26,株式会社環境保全協会,,株式会社,福岡県,北九州市小倉北区,三萩野１丁目９番１３号木下鉱産ビル３０１号室,,40,106,8020065,,,2024-09-26,清算の結了等,,,2023-08-14,1,,,,,カンキョウホゼンキョウカイ,0
553,2330001001227,登記記録の閉鎖等,0,2024-10-08,2024-10-01,株式会社アール・エフ・リアルエステート,,株式会社,熊本県,熊本市西区,上熊本１丁目２番６号,,43,103,8600079,,,2024-10-01,合併による解散等,7330001004951,令和６年１０月１日熊本市西区上熊本一丁目２番６号株式会社レイメイ藤井（7330001004951）に合併し解散,2015-10-05,1,,,,,アールエフリアルエステート,0
556,2340002018112,登記記録の閉鎖等,0,2024-10-08,2024-10-03,有限会社吉木商店,,有限会社,鹿児島県,いちき串木野市,浦和町４番地,,46,219,8960036,,,2024-10-03,清算の結了等,,,2015-10-05,1,,,,,ヨシキショウテン,0
558,2340005001833,登記記録の閉鎖等,0,2024-10-08,2024-10-04,特定非営利活動法人支援ネットワーク支え逢い,00100052,その他の設立登記法人,鹿児島県,鹿児島市,小山田町３８１６－８中西ビル３号室,,46,201,8911231,,,2024-10-04,清算の結了等,,,2015-10-05,1,,,,,シエンネットワークササエアイ,0
569,2380001023596,登記記録の閉鎖等,0,2024-10-08,2024-09-24,豊松コーポレーション株式会社,,株式会社,福島県,いわき市,小名浜諏訪町１３番地の９,,07,204,9718161,,,2024-09-24,清算の結了等,,,2015-10-05,1,,,,,トヨマツコーポレーション,0
570,2380002006195,登記記録の閉鎖等,0,2024-10-08,2024-09-24,有限会社クロスステンレス,,有限会社,福島県,伊達市,保原町字野崎１０番地２,,07,213,9600673,,,2024-09-24,合併による解散等,9380001000341,令和６年９月２４日福島市新町６番３３号菅野建設株式会社（9380001000341）に合併し解散,2015-10-05,1,,,,,クロスステンレス,0
575,2400002011614,登記記録の閉鎖等,0,2024-10-08,2024-09-26,有限会社佐藤電機工業所,,有限会社,岩手県,釜石市,大渡町１丁目６番１０号,,03,211,0260025,,,2024-09-26,清算の結了等,,,2015-10-05,1,,,,,,0
609,3010502011615,登記記録の閉鎖等,0,2024-10-08,2024-09-26,有限会社山本抜型製作所,,有限会社,東京都,台東区,台東４丁目１８番１１号,,13,106,1100016,,,2024-09-26,清算の結了等,,,2015-10-05,1,,,,,ヤマモトヌキガタセイサクショ,0
612,3010601006862,登記記録の閉鎖等,0,2024-10-08,2024-09-30,株式会社ヤマザキ,,株式会社,東京都,江戸川区,篠崎町３丁目３３番８号,,13,123,1330061,,,2024-09-30,清算の結了等,,,2015-10-05,1,,,,,ヤマザキ,0
628,3010802004161,登記記録の閉鎖等,0,2024-10-08,2024-10-01,有限会社亀晃商事,,有限会社,東京都,大田区,西蒲田７丁目６６番１号,,13,111,1440051,,,2024-10-01,合併による解散等,7010801002773,令和６年１０月１日東京都大田区西蒲田七丁目６６番１号株式会社亀屋百貨店（7010801002773）に合併し解散,2015-10-05,1,,,,,キコウショウジ,0
641,3011001092361,登記記録の閉鎖等,0,2024-10-08,2024-09-12,株式会社エボルエステート,,株式会社,東京都,渋谷区,広尾１丁目１１番２号,,13,113,1500012,,,2024-09-12,清算の結了等,,,2015-10-05,1,,,,,エボルエステート,0
646,3011101094209,登記記録の閉鎖等,0,2024-10-08,2024-09-27,ＡＬＩＭコンサルサービス株式会社,,株式会社,東京都,新宿区,市谷山伏町２番３号,,13,104,1620857,,,2024-09-27,清算の結了等,,,2021-02-25,1,,,,,アリムコンサルサービス,0
651,3011301028404,登記記録の閉鎖等,0,2024-10-08,2024-10-01,株式会社ＳＨＯＷ,,株式会社,東京都,杉並区,高円寺南１丁目２４番１４－６０３号,,13,115,1660003,,,2024-10-01,清算の結了等,,,2023-01-24,1,,,,,ショウ,0
659,3012402015407,登記記録の閉鎖等,0,2024-10-08,2024-09-26,有限会社ミナミ原光堂,,有限会社,東京都,国立市,中２丁目４番地の１５,,13,215,1860004,,,2024-09-26,清算の結了等,,,2015-10-05,1,,,,,,0
660,3012801008829,登記記録の閉鎖等,0,2024-10-08,2024-09-30,介護タクシービットストン株式会社,,株式会社,東京都,東大和市,芋窪２丁目１９３３番地の６,,13,220,2070033,,,2024-09-30,清算の結了等,,,2015-10-05,1,,,,,カイゴタクシービットストン,0
664,3020001015447,登記記録の閉鎖等,0,2024-10-08,2024-09-24,株式会社東京ユーキ,,株式会社,神奈川県,横浜市神奈川区,鶴屋町３丁目２９番地１,,14,102,2210835,,,2024-09-24,清算の結了等,,,2015-10-05,1,,,,,,0
665,3020001039041,登記記録の閉鎖等,0,2024-10-08,2024-09-20,永代産業株式会社,,株式会社,神奈川県,横浜市戸塚区,汲沢７丁目２３番１５号,00009478,14,110,2450061,,,2024-09-20,清算の結了等,,,2015-10-05,1,,,,,エイタイサンギョウ,0
669,3020001101981,登記記録の閉鎖等,0,2024-10-08,2024-09-24,株式会社レ・リードデザイン,,株式会社,神奈川県,横浜市神奈川区,三ツ沢上町２番８号,,14,102,2210856,,,2024-09-24,清算の結了等,,,2015-10-05,1,,,,,レリードデザイン,0
704,3030005019360,登記記録の閉鎖等,0,2024-10-08,2024-10-01,一般社団法人皆登会,,その他の設立登記法人,埼玉県,久喜市,北青柳７０５番地１（２Ｆ）,,11,232,3460024,,,2024-10-01,合併による解散等,4030005017272,令和６年１０月１日埼玉県さいたま市浦和区高砂二丁目５番１号ＫＯＭＯＮ７Ｆ一般社団法人コンパスナビ（4030005017272）に合併し解散,2019-03-06,1,,,,,カイトウカイ,0
721,3070001009700,登記記録の閉鎖等,0,2024-10-08,2024-10-01,株式会社ワールドワイン,,株式会社,群馬県,高崎市,上小塙町５７２番地２,,10,202,3700077,,,2024-10-01,合併による解散等,7070001007213,令和６年１０月１日群馬県高崎市上小塙町５７７番地４株式会社清水（7070001007213）に合併し解散,2015-10-05,1,,,,,ワールドワイン,0
722,3070001010410,登記記録の閉鎖等,0,2024-10-08,2024-10-01,株式会社大恵,,株式会社,群馬県,高崎市,大沢町２２７番地１,,10,202,3700012,,,2024-10-01,合併による解散等,3070001034979,令和６年１０月１日群馬県前橋市下新田町４４７番地３株式会社三光ホールディングス（3070001034979）に合併し解散,2015-10-05,1,,,,,ダイケイ,0
725,3080001003974,登記記録の閉鎖等,0,2024-10-08,2024-09-30,株式会社二興産業,,株式会社,静岡県,静岡市葵区,唐瀬３丁目４番２１号,,22,101,4200937,,,2024-09-30,清算の結了等,,,2015-10-05,1,,,,,ニコウサンギョウ,0
727,3080103001934,登記記録の閉鎖等,0,2024-10-08,2024-10-01,株式会社プラウドリース,,株式会社,静岡県,三島市,八反畑１０７番地の１,,22,206,4110817,,,2024-10-01,合併による解散等,2080101006928,令和６年１０月１日静岡県三島市八反畑１０７番地の１株式会社プラウド（2080101006928）に合併し解散,2019-01-11,1,,,,,プラウドリース,0
737,3110001014035,登記記録の閉鎖等,0,2024-10-08,2024-10-01,共和企業株式会社,,株式会社,新潟県,三条市,上須頃２３番地１,,15,204,9550091,,,2024-10-01,合併による解散等,1110002017798,令和６年１０月１日新潟県三条市上須頃２５番地１和親実業株式会社（1110002017798）に合併し解散,2015-10-05,1,,,,,キョウワキギョウ,0
742,3120001046944,登記記録の閉鎖等,0,2024-10-08,2024-10-04,株式会社福井機工商会,,株式会社,大阪府,大阪市西区,南堀江４丁目１７番１８号,,27,106,5500015,,,2024-10-04,清算の結了等,,,2015-10-05,1,,,,,フクイキコウショウカイ,0
748,3120001195849,登記記録の閉鎖等,0,2024-10-08,2024-10-03,株式会社Ｃｈａｒｉｓ　Ｃｏｌｏｒ,,株式会社,大阪府,大阪市西成区,旭３丁目１４番５号,,27,122,5570032,,,2024-10-03,清算の結了等,,,2016-01-25,1,,,,,カリスカラー,0
751,3120001251866,登記記録の閉鎖等,0,2024-10-08,2024-09-13,斉魯株式会社,,株式会社,大阪府,大阪市阿倍野区,阿倍野元町１４－５パシフィックアベノ４０４号,,27,119,5450034,,,2024-09-13,清算の結了等,,,2023-01-24,1,,,,,サイロ,0
770,3122001021860,登記記録の閉鎖等,0,2024-10-08,2024-10-01,八光殿ホールディングス株式会社,,株式会社,大阪府,八尾市,本町２丁目１２番４号,,27,212,5810003,,,2024-10-01,合併による解散等,1122001025459,令和６年１０月１日大阪府八尾市東本町四丁目２番１１号株式会社八光殿（1122001025459）に合併し解散,2015-10-05,1,,,,,ハッコウデンホールディングス,0
774,3130001044880,登記記録の閉鎖等,0,2024-10-08,2024-10-07,株式会社アザス,,株式会社,島根県,出雲市,渡橋町６８飯島ビル２階,,32,203,6930004,,,2024-10-07,清算の結了等,,,2015-10-05,1,,,,,アザス,0
787,3140002031209,登記記録の閉鎖等,0,2024-10-08,2024-10-02,有限会社メデイカルコンタクトレンズ緑が丘,,有限会社,兵庫県,三木市,緑が丘町東１丁目８番地の１,,28,215,6730533,,,2024-10-02,清算の結了等,,,2015-10-05,1,,,,,メデイカルコンタクトレンズミドリガオカ,0
788,3140005007404,登記記録の閉鎖等,0,2024-10-08,2024-10-04,農事組合法人横坂共栄農場,,その他の設立登記法人,兵庫県,佐用郡佐用町,横坂井口２３２番地,,28,501,6795341,,,2024-10-04,清算の結了等,,,2015-10-05,1,,,,,ヨコサカキョウエイノウジョウ,0
790,3150005009110,登記記録の閉鎖等,0,2024-10-08,2024-10-03,一般社団法人エーステックグループ,,その他の設立登記法人,奈良県,生駒郡三郷町,城山台５丁目１０番１１号,,29,343,6360824,,,2024-10-03,清算の結了等,,,2019-08-19,1,,,,,エーステックグループ,0
792,3170001000112,登記記録の閉鎖等,0,2024-10-08,2024-10-08,飛鳥被服株式会社,,株式会社,和歌山県,和歌山市,松江中３丁目２番３号,,30,201,6408423,,,2024-10-08,清算の結了等,,,2015-10-05,1,,,,,アスカヒフク,0
802,3180301010751,登記記録の閉鎖等,0,2024-10-08,2024-09-30,荒島織物株式会社,,株式会社,愛知県,蒲郡市,松原町３番１号,,23,214,4430033,,,2024-09-30,清算の結了等,,,2015-10-05,1,,,,,アラシマオリモノ,0
806,3180301034412,登記記録の閉鎖等,0,2024-10-08,2024-09-30,ＳＨＵＲＩＨＡ株式会社,,株式会社,愛知県,新城市,下吉田字紺屋平２１番地,,23,221,4411621,,,2024-09-30,清算の結了等,,,2020-12-14,1,,,,,シュリハ,0
810,3190001011875,登記記録の閉鎖等,0,2024-10-08,2024-10-03,株式会社レディースヒロミ伊勢,,株式会社,三重県,松阪市,鎌田町６８２番地２,,24,204,5150005,,,2024-10-03,清算の結了等,,,2015-10-05,1,,,,,レディースヒロミイセ,0
813,3200001007475,登記記録の閉鎖等,0,2024-10-08,2024-10-04,株式会社福井木工,,株式会社,岐阜県,各務原市,須衛町７丁目２８２番地,,21,213,5090108,,,2024-10-04,清算の結了等,,,2015-10-05,1,,,,,フクイモッコウ,0
832,3270002000811,登記記録の閉鎖等,0,2024-10-08,2024-10-07,有限会社サカタモデル,,有限会社,鳥取県,鳥取市,浜坂１丁目３番２８号,,31,201,6800001,,,2024-10-07,清算の結了等,,,2015-10-05,1,,,,,サカタモデル,0
833,3290001022656,登記記録の閉鎖等,0,2024-10-08,2024-09-25,株式会社ヒロコーポレーション,,株式会社,福岡県,田川市,中央町３番２６号,,40,206,8250013,,,2024-09-25,清算の結了等,,,2015-10-05,1,,,,,ヒロコーポレーション,0
842,3300002000691,登記記録の閉鎖等,0,2024-10-08,2024-10-02,有限会社シキマチ,,有限会社,佐賀県,佐賀市,巨勢町大字牛島５７６番地２８,,41,201,8400008,,,2024-10-02,清算の結了等,,,2015-10-05,1,,,,,シキマチ,0
848,3340001013162,登記記録の閉鎖等,0,2024-10-08,2024-10-04,ＨＭ株式会社,,株式会社,鹿児島県,鹿児島市,吉野１丁目１８番１号,,46,201,8920877,,,2024-10-04,清算の結了等,,,2015-10-05,1,,,,,エイチエム,0
880,3500002006090,登記記録の閉鎖等,0,2024-10-08,2024-10-03,有限会社亀岡事務所,,有限会社,愛媛県,松山市,味酒町３丁目４番地３,,38,201,7900814,,,2024-10-03,清算の結了等,,,2015-10-05,1,,,,,カメオカジムイショ,0
925,4010701002174,登記記録の閉鎖等,0,2024-10-08,2024-09-30,株式会社オフィス・カワイ,,株式会社,東京都,品川区,豊町４丁目１９番１８号,,13,109,1420042,,,2024-09-30,清算の結了等,,,2015-10-05,1,,,,,オフィスカワイ,0
932,4010801017329,登記記録の閉鎖等,0,2024-10-08,2024-10-01,株式会社アーバンリーフ,,株式会社,東京都,大田区,久が原３丁目１５番２号,,13,111,1460085,,,2024-10-01,合併による解散等,4010801021231,令和６年１０月１日東京都大田区久が原三丁目１５番２号株式会社アリエル（4010801021231）に合併し解散,2015-10-05,1,,,,,アーバンリーフ,0
957,4011402003957,登記記録の閉鎖等,0,2024-10-08,2024-10-01,有限会社佐藤牛乳店,,有限会社,東京都,板橋区,徳丸７丁目２１番１４号,,13,119,1750083,,,2024-10-01,清算の結了等,,,2015-10-05,1,,,,,サトウギュウニュウテン,0
972,4012302007305,登記記録の閉鎖等,0,2024-10-08,2024-10-01,有限会社すばる,,有限会社,東京都,町田市,金森６丁目７番２１号,,13,209,1940012,,,2024-10-01,清算の結了等,,,2015-10-05,1,,,,,,0
1015,4030002099784,登記記録の閉鎖等,0,2024-10-08,2024-10-01,有限会社アイ電業,,有限会社,埼玉県,川口市,大字安行慈林８２９番地の１１,,11,203,3340071,,,2024-10-01,清算の結了等,,,2015-10-05,1,,,,,アイデンギョウ,0
1049,4120001026012,登記記録の閉鎖等,0,2024-10-08,2024-10-01,株式会社日本精砥商会,,株式会社,大阪府,大阪市天王寺区,大道４丁目２番３号,,27,109,5430052,,,2024-10-01,合併による解散等,9120001044117,令和６年１０月１日大阪市西区立売堀一丁目２番１２号本町平成ビル株式会社三和精密（9120001044117）に合併し解散,2015-10-05,1,,,,,ニホンセイトショウカイ,0
1052,4120001180635,登記記録の閉鎖等,0,2024-10-08,2024-09-30,株式会社フィジカルイノベーション,,株式会社,東京都,品川区,東品川２丁目２番８号スフィアタワー天王洲２７階,,13,109,1400002,,,2024-09-30,清算の結了等,,,2015-10-05,1,,,,,フィジカルイノベーション,0
1064,4120002000585,登記記録の閉鎖等,0,2024-10-08,2024-10-07,有限会社ニシザワ通信,,有限会社,大阪府,大阪市城東区,古市３丁目６番２７号,,27,118,5360001,,,2024-10-07,清算の結了等,,,2015-10-05,1,,,,,ニシザワツウシン,0
1088,4140001129696,登記記録の閉鎖等,0,2024-10-08,2024-10-03,ホライズンインダストリー株式会社,,株式会社,兵庫県,神戸市東灘区,岡本１丁目６番１４号,,28,101,6580072,,,2024-10-03,清算の結了等,,,2023-04-06,1,,,,,ホライズンインダストリー,0
1097,4140002057120,登記記録の閉鎖等,0,2024-10-08,2024-09-30,有限会社シーワイディ,,有限会社,兵庫県,西宮市,仁川町６丁目１１番３１号,,28,204,6620811,,,2024-09-30,清算の結了等,,,2015-10-05,1,,,,,シーワイディー,0
1098,4140005023004,登記記録の閉鎖等,0,2024-10-08,2024-09-11,一般社団法人国際会計税務投資研究協会,,その他の設立登記法人,東京都,港区,虎ノ門５丁目１３番１号虎ノ門４０ＭＴビル９階,,13,103,1050001,,,2024-09-11,清算の結了等,,,2016-06-03,1,,,,,コクサイカイケイゼイムトウシケンキュウキョウカイ,0
1102,4180001145302,登記記録の閉鎖等,0,2024-10-08,2024-09-26,陽明国際株式会社,,株式会社,愛知県,名古屋市中川区,中郷４丁目１２７番地の１,,23,110,4540921,,,2024-09-26,清算の結了等,,,2021-03-26,1,,,,,ヨウメイコクサイ,0
1105,4180002089102,登記記録の閉鎖等,0,2024-10-08,2024-09-30,有限会社アキラ建築設計事務所,,有限会社,愛知県,津島市,唐臼町四反田２０番地１,,23,208,4960026,,,2024-09-30,清算の結了等,,,2015-10-05,1,,,,,アキラケンチクセッケイジムショ,0
1107,4180301012029,登記記録の閉鎖等,0,2024-10-08,2024-09-30,株式会社エー・エム・ピー,,株式会社,愛知県,豊川市,御油町一重薮２０番地,,23,207,4410211,,,2024-09-30,清算の結了等,,,2015-10-05,1,,,,,エーエムピー,0
1108,4180301023843,登記記録の閉鎖等,0,2024-10-08,2024-09-30,森林ホーム株式会社,,株式会社,愛知県,西尾市,今川町仲屋敷５０番地１,,23,213,4450063,,,2024-09-30,合併による解散等,2180301022475,令和６年９月３０日愛知県西尾市今川町仲屋敷５０番地株式会社ムシカ（2180301022475）に合併し解散,2015-10-05,1,,,,,シンリンホーム,0
1110,4180302020377,登記記録の閉鎖等,0,2024-10-08,2024-10-01,有限会社岩月,,有限会社,愛知県,高浜市,青木町５丁目８番地６,,23,227,4441325,,,2024-10-01,清算の結了等,,,2015-10-05,1,,,,,イワツキ,0
1112,4180305009343,登記記録の閉鎖等,0,2024-10-08,2024-10-01,一般社団法人アスミオン,,その他の設立登記法人,愛知県,西尾市,新在家１丁目４６番地７,,23,213,4450878,,,2024-10-01,清算の結了等,,,2022-05-24,1,,,,,アスミオン,0
1115,4200001033710,登記記録の閉鎖等,0,2024-10-08,2024-10-01,株式会社メイホーエクステック,,株式会社,岐阜県,岐阜市,吹上町６丁目２１番,,21,201,5008326,,,2024-10-01,合併による解散等,6200001033709,令和６年１０月１日岐阜市吹上町六丁目２１番株式会社メイホーホールディングス（6200001033709）に合併し解散,2017-02-03,1,,,,,メイホーエクステック,0
1140,4310003004772,登記記録の閉鎖等,0,2024-10-08,2024-10-01,合同会社ジーファイブ,,合同会社,長崎県,長崎市,鍛冶屋町３番３号,,42,201,8500831,,,2024-10-01,合併による解散等,9310002006740,令和６年１０月１日長崎市鍛冶屋町３番３号株式会社ミデック（9310002006740）に合併し解散,2024-04-10,1,,,,,ジーファイブ,0
1151,4360001013242,登記記録の閉鎖等,0,2024-10-08,2024-10-01,山城鉱業株式会社,,株式会社,沖縄県,石垣市,字真栄里２０３番地４０,,47,207,9070002,,,2024-10-01,清算の結了等,,,2015-10-05,1,,,,,ヤマシロコウギョウ,0
1155,4370302000723,登記記録の閉鎖等,0,2024-10-08,2024-09-24,有限会社かほく衛生,,有限会社,宮城県,石巻市,相野谷字川前１４番地の１５,,04,202,9860101,,,2024-09-24,清算の結了等,,,2015-10-05,1,,,,,カホクエイセイ,0
1163,4430001012419,登記記録の閉鎖等,0,2024-10-08,2024-10-01,富世警備保障株式会社,,株式会社,北海道,札幌市豊平区,美園五条６丁目１番１号,,01,105,0620005,,,2024-10-01,合併による解散等,7430001022506,令和６年１０月１日札幌市豊平区美園五条六丁目１番１号北海道ビルメンテナンス株式会社（7430001022506）に合併し解散,2015-10-05,1,,,,,トミヨケイビホショウ,0
1173,4460405000090,登記記録の閉鎖等,0,2024-10-08,2024-08-26,天理教根室分教会,,その他の設立登記法人,北海道,根室市,大正町１丁目１０番地,,01,223,0870028,,,2024-08-26,合併による解散等,4180005008983,令和６年８月２０日愛知県尾張旭市霞ケ丘町南２９２番地天理教名古屋大教会（4180005008983）に合併し解散,2015-10-05,1,,,,,,0
1187,5010401104229,登記記録の閉鎖等,0,2024-10-08,2024-10-04,株式会社トリプルＡ,,株式会社,徳島県,三好郡東みよし町,昼間３８６７番地９,,36,489,7712501,,,2024-10-04,清算の結了等,,,2015-10-05,1,,,,,トリプルエー,0
1200,5010901009340,登記記録の閉鎖等,0,2024-10-08,2024-10-01,日東通信機株式会社,,株式会社,東京都,世田谷区,池尻３丁目１１番６号,,13,112,1540001,,,2024-10-01,合併による解散等,8011601003630,令和６年１０月１日東京都世田谷区池尻三丁目１番３号株式会社セコニック（8011601003630）に合併し解散,2015-10-05,1,,,,,ニットウツウシンキ,0
1212,5011301026199,登記記録の閉鎖等,0,2024-10-08,2024-09-11,株式会社ハッチホールディングス,,株式会社,東京都,目黒区,中目黒１丁目３番８号渡辺ビル６階,,13,110,1530061,,,2024-09-11,合併による解散等,8010401107848,令和６年９月１日東京都目黒区中目黒一丁目３番８号渡辺ビル６階株式会社ハッチ（8010401107848）に合併し解散,2020-09-03,1,,,,,ハッチホールディングス,0
1250,5030001003705,登記記録の閉鎖等,0,2024-10-08,2024-10-01,株式会社さとぴタクシー,,株式会社,埼玉県,さいたま市見沼区,深作２丁目８番９号,,11,104,3370003,,,2024-10-01,合併による解散等,8030001013973,令和６年１０月１日埼玉県さいたま市見沼区深作二丁目８番９号株式会社見沼交通（8030001013973）に合併し解散,2015-10-05,1,,,,,サトピタクシー,0
1273,5050002031389,登記記録の閉鎖等,0,2024-10-08,2024-09-30,有限会社星野板金工業,,有限会社,茨城県,日立市,金沢町４丁目８番４号,,08,202,3160015,,,2024-09-30,清算の結了等,,,2015-10-05,1,,,,,ホシノバンキンコウギョウ,0
1277,5070001028434,登記記録の閉鎖等,0,2024-10-08,2024-10-01,株式会社サンアプリ,,株式会社,群馬県,前橋市,下新田町４４７番地３,,10,201,3710822,,,2024-10-01,合併による解散等,3070001034979,令和６年１０月１日群馬県前橋市下新田町４４７番地３株式会社三光ホールディングス（3070001034979）に合併し解散,2015-10-05,1,,,,,サンアプリ,0
1278,5070001037006,登記記録の閉鎖等,0,2024-10-08,2024-09-30,株式会社せきね薬局,,株式会社,群馬県,前橋市,関根町２丁目９番地１５,,10,201,3710047,,,2024-09-30,合併による解散等,6070002007989,令和６年９月３０日群馬県前橋市下小出町一丁目１９番地４３株式会社ツカサ薬局（6070002007989）に合併し解散,2020-07-09,1,,,,,セキネヤッキョク,0
1340,5140001118707,登記記録の閉鎖等,0,2024-10-08,2024-09-24,株式会社ＬＩＢＲＡ,,株式会社,兵庫県,神戸市中央区,多聞通２丁目２番１６号,,28,110,6500015,,,2024-09-24,清算の結了等,,,2020-09-10,1,,,,,リブラ,0
1342,5140005022995,登記記録の閉鎖等,0,2024-10-08,2024-09-30,一般社団法人エントラストマネージメント協会,,その他の設立登記法人,兵庫県,宍粟市,一宮町安積１０２４番地,,28,227,6714131,,,2024-09-30,清算の結了等,,,2016-05-26,1,,,,,エントラストマネージメントキョウカイ,0
1351,5160005008737,登記記録の閉鎖等,0,2024-10-08,2024-10-04,一般社団法人健康・福祉総研,,その他の設立登記法人,滋賀県,大津市,瀬田大江町横谷１番５,,25,201,5202123,,,2024-10-04,清算の結了等,,,2015-10-05,1,,,,,ケンコウフクシソウケン,0
1357,5180301018917,登記記録の閉鎖等,0,2024-10-08,2024-10-01,株式会社豊田書店,,株式会社,愛知県,豊田市,丸山町１０丁目７５番地,,23,211,4710832,,,2024-10-01,合併による解散等,1180301018904,令和６年１０月１日愛知県豊田市日之出町一丁目９番地１豊田石油株式会社（1180301018904）に合併し解散,2015-10-05,1,,,,,トヨタショテン,0
1364,5200001031572,登記記録の閉鎖等,0,2024-10-08,2024-10-04,ネクストステージ株式会社,,株式会社,岐阜県,岐阜市,鶴田町３丁目７番地１,,21,201,5008164,,,2024-10-04,清算の結了等,,,2015-10-05,1,,,,,ネクストステージ,0
1369,5220002003065,登記記録の閉鎖等,0,2024-10-08,2024-09-30,有限会社新谷開発,,有限会社,石川県,金沢市,粟崎町４丁目８番地２９,,17,201,9200226,,,2024-09-30,清算の結了等,,,2015-10-05,1,,,,,シンタニカイハツ,0
1377,5240001059742,登記記録の閉鎖等,0,2024-10-08,2024-10-02,株式会社Ｅａｇｌｅ,,株式会社,広島県,広島市南区,向洋新町１丁目１１番１６－２０２号,,34,103,7340055,,,2024-10-02,清算の結了等,,,2022-05-09,1,,,,,イーグル,0
1383,5270001007013,登記記録の閉鎖等,0,2024-10-08,2024-10-07,ＰｏｒｔｍｏｒｅＥｍｐｉｒｅ株式会社,,株式会社,鳥取県,東伯郡琴浦町,大字出上３６５番地４,,31,371,6892511,,,2024-10-07,清算の結了等,,,2016-07-19,1,,,,,,0
1419,5380001011359,登記記録の閉鎖等,0,2024-10-08,2024-09-20,株式会社藤田総業,,株式会社,福島県,須賀川市,大久保字徳ノ内１１番地,,07,207,9620312,,,2024-09-20,清算の結了等,,,2015-10-05,1,,,,,フジタソウギョウ,0
1426,5430002000413,登記記録の閉鎖等,0,2024-10-08,2024-09-30,有限会社アール・オーエイ,,有限会社,北海道,札幌市白石区,北郷七条８丁目８番２８号,,01,104,0030837,,,2024-09-30,清算の結了等,,,2015-10-05,1,,,,,アールオーエイ,0
1427,5430002008126,登記記録の閉鎖等,0,2024-10-08,2024-10-01,有限会社サンプラン,,有限会社,北海道,札幌市豊平区,豊平一条７丁目２番１８号,,01,105,0620901,,,2024-10-01,清算の結了等,,,2015-10-05,1,,,,,サンプラン,0
1447,6010001169423,登記記録の閉鎖等,0,2024-10-08,2024-09-25,ルミネット株式会社,,株式会社,東京都,中央区,日本橋３丁目２番９号,,13,102,1030027,,,2024-09-25,清算の結了等,,,2015-10-05,1,,,,,ルミネット,0
1450,6010001222347,登記記録の閉鎖等,0,2024-10-08,2024-09-25,株式会社ａｎｄ－ｓｍｉｌｅ,,株式会社,東京都,千代田区,鍛冶町２丁目７番４号,,13,101,1010044,,,2024-09-25,清算の結了等,,,2021-11-09,1,,,,,アンドスマイル,0
1460,6010002015378,登記記録の閉鎖等,0,2024-10-08,2024-09-24,有限会社ユピカサービス,,有限会社,東京都,千代田区,紀尾井町４番１３号,,13,101,1020094,,,2024-09-24,清算の結了等,,,2015-10-05,1,,,,,ユピカサービス,0
1463,6010105000806,登記記録の閉鎖等,0,2024-10-08,2024-09-24,特定非営利活動法人シルバーサポートなじみ屋,,その他の設立登記法人,東京都,八王子市,長房町４０５番１,,13,201,1930824,,,2024-09-24,清算の結了等,,,2015-10-05,1,,,,,,0
1467,6010401160857,登記記録の閉鎖等,0,2024-10-08,2024-09-12,株式会社ＯＮＥ　ＭＥＥＴ,,株式会社,東京都,港区,港南２丁目１５番１号,,13,103,1080075,,,2024-09-12,合併による解散等,2180001105159,令和６年９月１２日東京都港区港南二丁目１５番１号ＳＨＯ－ＢＩ　Ｌａｂｏ株式会社（2180001105159）に合併し解散,2021-06-16,1,,,,,ワンミート,0
1471,6010405016997,登記記録の閉鎖等,0,2024-10-08,2024-09-10,一般社団法人日本スポーツインテグリティ機構,,その他の設立登記法人,東京都,港区,赤坂２丁目１７番６５号,,13,103,1070052,,,2024-09-10,清算の結了等,,,2018-08-21,1,,,,,ニホンスポーツインテグリティキコウ,0
1488,6010802009380,登記記録の閉鎖等,0,2024-10-08,2024-10-01,有限会社司商事,,有限会社,東京都,大田区,西蒲田７丁目６６番１号,,13,111,1440051,,,2024-10-01,合併による解散等,7010801002773,令和６年１０月１日東京都大田区西蒲田七丁目６６番１号株式会社亀屋百貨店（7010801002773）に合併し解散,2015-10-05,1,,,,,ツカサショウジ,0
1491,6011001062857,登記記録の閉鎖等,0,2024-10-08,2024-10-02,株式会社ＮＯＢ,,株式会社,広島県,広島市西区,井口鈴が台１丁目１１番７号,,34,104,7330843,,,2024-10-02,清算の結了等,,,2015-10-05,1,,,,,エヌオービー,0
1496,6011101089412,登記記録の閉鎖等,0,2024-10-08,2024-09-30,株式会社エムティーアイＱＣＣ,,株式会社,東京都,新宿区,西新宿３丁目２０番２号,,13,104,1600023,,,2024-09-30,清算の結了等,,,2019-11-01,1,,,,,エムティーアイキューシーシー,0
1499,6011102017710,登記記録の閉鎖等,0,2024-10-08,2024-09-27,有限会社スズキ・アーツプラン,,有限会社,東京都,新宿区,弁天町９５番地１３,,13,104,1620851,,,2024-09-27,清算の結了等,,,2015-10-05,1,,,,,スズキアーツプラン,0
1532,6020001123214,登記記録の閉鎖等,0,2024-10-08,2024-09-20,大連コスモテック株式会社,,株式会社,神奈川県,横浜市西区,北幸２丁目１０番地４８むつみビル３Ｆ,,14,103,2200004,,,2024-09-20,清算の結了等,,,2017-10-02,1,,,,,ダイレンコスモテック,0
1537,6020003011945,登記記録の閉鎖等,0,2024-10-08,2024-09-24,合同会社ＭＯＸＩＥ,,合同会社,神奈川県,横浜市青葉区,藤が丘２丁目１２番地７ボナールヒル２０３,,14,117,2270043,,,2024-09-24,清算の結了等,,,2016-10-21,1,,,,,モキシー,0
1541,6021002053301,登記記録の閉鎖等,0,2024-10-08,2024-10-04,有限会社モノダスプライズ,,有限会社,神奈川県,小田原市,久野１０２３番地の６,,14,206,2500055,,,2024-10-04,清算の結了等,,,2015-10-05,1,,,,,モノダスプライズ,0
1543,6030001001559,登記記録の閉鎖等,0,2024-10-08,2024-10-01,大宮産業株式会社,,株式会社,埼玉県,さいたま市大宮区,桜木町４丁目２５６番地,,11,103,3300854,,,2024-10-01,合併による解散等,5030001007912,令和６年１０月１日埼玉県さいたま市大宮区桜木町四丁目２５２番地ユニオントレーディング株式会社（5030001007912）に合併し解散,2015-10-05,1,,,,,オオミヤサンギョウ,0
1586,6080401016235,登記記録の閉鎖等,0,2024-10-08,2024-10-01,イトウ株式会社,,株式会社,静岡県,磐田市,福田６５０番地の１,,22,211,4371203,,,2024-10-01,清算の結了等,,,2015-10-05,1,,,,,イトウ,0
1593,6090001011420,登記記録の閉鎖等,0,2024-10-08,2024-10-02,株式会社清里丘の公園,,株式会社,山梨県,北杜市,高根町清里３５４５番地４５５９,,19,209,4070301,,,2024-10-02,清算の結了等,,,2015-10-05,1,,,,,キヨサトオカノコウエン,0
1600,6120001211132,登記記録の閉鎖等,0,2024-10-08,2024-09-30,株式会社ＳＰＩＡ,,株式会社,大阪府,大阪市中央区,南船場４丁目１０番１３号,,27,128,5420081,,,2024-09-30,合併による解散等,2120001216457,令和６年９月３０日大阪市中央区南船場四丁目１０番１３号株式会社ＧＵＲＵＧＵＲＵ（2120001216457）に合併し解散,2018-02-06,1,,,,,スピア,0
1602,6120001235222,登記記録の閉鎖等,0,2024-10-08,2024-10-04,株式会社ｓｐｅｃｔａｃｕｌａｒ,,株式会社,大阪府,大阪市旭区,大宮４丁目２１番１３号すてっぷ・ほーむ１号館１０２号室,,27,117,5350002,,,2024-10-04,清算の結了等,,,2021-02-15,1,,,,,スペキュタキュラー,0
1604,6120001243448,登記記録の閉鎖等,0,2024-10-08,2024-10-02,株式会社ＳＤＳ,,株式会社,大阪府,池田市,五月丘１丁目１番１５号,,27,204,5630029,,,2024-10-02,清算の結了等,,,2022-01-27,1,,,,,エスディエス,0
1618,6120901013743,登記記録の閉鎖等,0,2024-10-08,2024-10-02,株式会社コダマ,,株式会社,大阪府,吹田市,清水４番７－１２０７号,,27,205,5650805,,,2024-10-02,清算の結了等,,,2015-10-05,1,,,,,コダマ,0
1625,6120902022339,登記記録の閉鎖等,0,2024-10-08,2024-10-02,有限会社吹田ビルメンテナンス,,有限会社,大阪府,豊中市,新千里東町２丁目５番２０－１３０７号,,27,203,5600082,,,2024-10-02,清算の結了等,,,2015-10-05,1,,,,,スイタビルメンテナンス,0
1630,6122002014522,登記記録の閉鎖等,0,2024-10-08,2024-09-30,有限会社八大,,有限会社,大阪府,八尾市,太田１丁目４番地の１,,27,212,5810037,,,2024-09-30,清算の結了等,,,2015-10-05,1,,,,,ハチダイ,0
1640,6140001014252,登記記録の閉鎖等,0,2024-10-08,2024-10-03,丸文産業株式会社,,株式会社,兵庫県,神戸市兵庫区,上沢通１丁目１番８－８０１号,,28,105,6520046,,,2024-10-03,清算の結了等,,,2015-10-05,1,,,,,マルブンサンギョウ,0
1648,6140001085310,登記記録の閉鎖等,0,2024-10-08,2024-10-04,株式会社片山葬祭,,株式会社,兵庫県,淡路市,育波５２０番地,,28,226,6561602,,,2024-10-04,合併による解散等,2170001006853,令和６年１０月１日和歌山市和歌浦西一丁目１番１９号ラポール株式会社（2170001006853）に合併し解散,2015-10-05,1,,,,,カタヤマソウサイ,0
1650,6140001093098,登記記録の閉鎖等,0,2024-10-08,2024-10-01,関西メタルルーフ株式会社,,株式会社,兵庫県,尼崎市,丸島町２２番地,,28,202,6600086,,,2024-10-01,清算の結了等,,,2015-10-05,1,,,,,カンサイメタルルーフ,0
1660,6170003001254,登記記録の閉鎖等,0,2024-10-08,2024-10-04,アッセンブル・ア・ドリーム合同会社,,合同会社,和歌山県,岩出市,安上４４３番地の７,,30,209,6496252,,,2024-10-04,清算の結了等,,,2018-08-10,1,,,,,アッセンブルアドリーム,0
1667,6180002087293,登記記録の閉鎖等,0,2024-10-08,2024-09-24,松原鈑金有限会社,,有限会社,愛知県,大府市,長草町亀池１番地の１７８,,23,223,4740052,,,2024-09-24,清算の結了等,,,2015-10-05,1,,,,,マツバラバンキン,0
1674,6190001021161,登記記録の閉鎖等,0,2024-10-08,2024-10-02,株式会社タスカル,,株式会社,三重県,鈴鹿市,国府町７６７８番地７,,24,207,5130836,,,2024-10-02,合併による解散等,5190001005116,令和６年１０月１日三重県鈴鹿市国府町７６７８番地７株式会社スズカ未来（5190001005116）に合併し解散,2015-10-05,1,,,,,タスカル,0
1677,6200001025516,登記記録の閉鎖等,0,2024-10-08,2024-10-02,神岡マインサービス株式会社,,株式会社,岐阜県,飛騨市,神岡町鹿間１番地１,,21,217,5061114,,,2024-10-02,合併による解散等,7200001025515,令和６年１０月１日岐阜県飛騨市神岡町鹿間１番地１神岡鉱業株式会社（7200001025515）に合併し解散,2015-10-05,1,,,,,カミオカマインサービス,0
1679,6200002009245,登記記録の閉鎖等,0,2024-10-08,2024-10-07,有限会社福徳,,有限会社,岐阜県,安八郡安八町,東結３４１番地の２,,21,383,5030112,,,2024-10-07,清算の結了等,,,2015-10-05,1,,,,,フクトク,0
1683,6230001003584,登記記録の閉鎖等,0,2024-10-08,2024-10-07,株式会社マスタック・メディカルサービス,,株式会社,富山県,富山市,奥井町２２番６号,,16,201,9300846,,,2024-10-07,清算の結了等,,,2015-10-05,1,,,,,マスタックメディカルサービス,0
1689,6280002009717,登記記録の閉鎖等,0,2024-10-08,2024-10-07,株式会社ＭＫコーポレーション,,株式会社,島根県,邑智郡邑南町,矢上３５３１番地７,,32,449,6960103,,,2024-10-07,清算の結了等,,,2015-10-05,1,,,,,エムケイコーポレーション,0
1695,6290801022621,登記記録の閉鎖等,0,2024-10-08,2024-09-24,株式会社ティイーディ,,株式会社,福岡県,北九州市小倉南区,曽根新田南２丁目３番２５号,,40,107,8000220,,,2024-09-24,合併による解散等,6290801007291,令和６年９月２４日北九州市小倉南区曽根新田南二丁目３番２５号ビービーエンジニアリング株式会社（6290801007291）に合併し解散,2016-06-08,1,,,,,ティイーディ,0
1710,6340002010338,登記記録の閉鎖等,0,2024-10-08,2024-10-01,有限会社ライフ自動車,,有限会社,鹿児島県,鹿児島市,中山町５２６６番地４,,46,201,8910105,,,2024-10-01,清算の結了等,,,2015-10-05,1,,,,,ライフジドウシャ,0
1764,7010401134125,登記記録の閉鎖等,0,2024-10-08,2024-10-03,ＳＯＭＰＯオークス株式会社,,株式会社,東京都,新宿区,西新宿１丁目２６番１号,,13,104,1600023,,,2024-10-03,合併による解散等,1010001243496,令和６年１０月１日東京都千代田区丸の内二丁目４番１号ＳＯＭＰＯオークス株式会社（1010001243496）に合併し解散,2017-10-06,1,,,,,ソンポオークス,0
1804,7011101024450,登記記録の閉鎖等,0,2024-10-08,2024-09-27,株式会社ティディプランナーズ,,株式会社,東京都,新宿区,四谷４丁目３４番２号,,13,104,1600004,,,2024-09-27,清算の結了等,,,2015-10-05,1,,,,,ティディプランナーズ,0
1807,7011101085369,登記記録の閉鎖等,0,2024-10-08,2024-09-24,株式会社Ｃｏｍｍａｎｄ　Ｒ,,株式会社,神奈川県,横浜市西区,みなとみらい５丁目３番１－Ｐ－９０４号,,14,103,2200012,,,2024-09-24,清算の結了等,,,2018-09-11,1,,,,,コマンドアール,0
1811,7011201021604,登記記録の閉鎖等,0,2024-10-08,2024-10-03,株式会社Ｔｈｉｒｄ　Ｐｌａｃｅ,,株式会社,東京都,中野区,江原町３丁目２８番３号,,13,114,1650023,,,2024-10-03,合併による解散等,3011601005061,令和６年９月２７日東京都練馬区豊玉北四丁目５番２号株式会社中野商店（3011601005061）に合併し解散,2019-08-23,1,,,,,サードプレイス,0
1821,7011602002649,登記記録の閉鎖等,0,2024-10-08,2024-10-03,有限会社桂エンタープライズ,,有限会社,東京都,練馬区,早宮４丁目２３番１号,,13,120,1790085,,,2024-10-03,清算の結了等,,,2021-07-07,1,,,,,カツラエンタープライズ,0
1824,7011701014454,登記記録の閉鎖等,0,2024-10-08,2024-10-02,株式会社佐藤工務店,,株式会社,東京都,江戸川区,東葛西２丁目３２番９号,,13,123,1340084,,,2024-10-02,清算の結了等,,,2015-10-05,1,,,,,,0
1849,7020002030689,登記記録の閉鎖等,0,2024-10-08,2024-09-20,有限会社チトセ電業,,有限会社,神奈川県,横浜市南区,別所２丁目２６番１号,,14,105,2320064,,,2024-09-20,清算の結了等,,,2015-10-05,1,,,,,チトセデンギョウ,0
1873,7030002008362,登記記録の閉鎖等,0,2024-10-08,2024-10-01,有限会社田中晃,,有限会社,埼玉県,さいたま市南区,根岸１丁目１５番５号,,11,108,3360024,,,2024-10-01,清算の結了等,,,2015-10-05,1,,,,,タナカアキラ,0
1908,7080401010575,登記記録の閉鎖等,0,2024-10-08,2024-10-01,引佐加工株式会社,,株式会社,静岡県,浜松市浜名区,細江町中川１６６２番地の２,,22,139,4311304,,,2024-10-01,合併による解散等,8080401014451,令和６年１０月１日静岡県掛川市細田２９５番地の１晃企工株式会社（8080401014451）に合併し解散,2015-10-05,1,,,,,イナサカコウ,0
1925,7120001220116,登記記録の閉鎖等,0,2024-10-08,2024-09-30,株式会社ＢＳ経営研究所,,株式会社,大阪府,大阪市旭区,大宮４丁目１９番３号,,27,117,5350002,,,2024-09-30,合併による解散等,4120001140234,令和６年９月３０日大阪市旭区大宮四丁目１９番３号株式会社ＧＤ経営研究所（4120001140234）に合併し解散,2019-04-05,1,,,,,ビーエスケイエイケンキュウショ,0
1927,7120001224892,登記記録の閉鎖等,0,2024-10-08,2024-09-30,株式会社Ｈａｒｍ　Ｂｕｓｔｅｒ,,株式会社,大阪府,大阪市中央区,南船場４丁目１０番１３号,,27,128,5420081,,,2024-09-30,合併による解散等,2120001216457,令和６年９月３０日大阪市中央区南船場四丁目１０番１３号株式会社ＧＵＲＵＧＵＲＵ（2120001216457）に合併し解散,2019-11-06,1,,,,,ハームバスター,0
1933,7120003012494,登記記録の閉鎖等,0,2024-10-08,2024-09-30,合同会社ハートトレイン,,合同会社,大阪府,大阪市西区,西本町３丁目１番７号日宝アワザ駅前ビル５０４号室,,27,106,5500005,,,2024-09-30,清算の結了等,,,2017-02-21,1,,,,,ハートトレイン,0
1934,7120101069701,登記記録の閉鎖等,0,2024-10-08,2024-10-03,山口敷物株式会社,00135060,株式会社,大阪府,堺市中区,見野山２２２番地,,27,142,5998243,,,2024-10-03,清算の結了等,,,2024-06-12,1,,,,,ヤマグチシキモノ,0
1961,7160001011924,登記記録の閉鎖等,0,2024-10-08,2024-10-03,株式会社シガメンテナンスリサーチ,,株式会社,滋賀県,高島市,今津町桜町２丁目１番地の３,,25,212,5201632,,,2024-10-03,清算の結了等,,,2015-10-05,1,,,,,シガメンテナンスリサーチ,0
1962,7160001012261,登記記録の閉鎖等,0,2024-10-08,2024-10-04,株式会社キックス,,株式会社,滋賀県,高島市,新旭町熊野本２丁目１１番地４,,25,212,5201532,,,2024-10-04,清算の結了等,,,2015-10-05,1,,,,,キックス,0
1973,7190001019898,登記記録の閉鎖等,0,2024-10-08,2024-10-03,株式会社ローアンバー,,株式会社,三重県,伊勢市,宮後１丁目７番３２号,,24,203,5160072,,,2024-10-03,清算の結了等,,,2015-10-05,1,,,,,ローアンバー,0
1982,7210001003040,登記記録の閉鎖等,0,2024-10-08,2024-10-01,株式会社福井新聞折りこみセンター,,株式会社,福井県,福井市,文京１丁目１８番３５号,,18,201,9100017,,,2024-10-01,合併による解散等,4210001003043,令和６年１０月１日福井市大和田二丁目８０１番地株式会社福井新聞社（4210001003043）に合併し解散,2015-10-05,1,,,,,フクイシンブンオリコミセンター,0
1995,7260001020972,登記記録の閉鎖等,0,2024-10-08,2024-10-02,株式会社エフ・アイ・エステクノ,,株式会社,岡山県,美作市,太田４６９番地１,,33,215,7070404,,,2024-10-02,清算の結了等,,,2015-10-05,1,,,,,エフアイエステクノ,0
2011,7300001012726,登記記録の閉鎖等,0,2024-10-08,2024-10-01,株式会社サラノキ,,株式会社,佐賀県,佐賀市,若宮１丁目１７番６５号,,41,201,8490926,,,2024-10-01,合併による解散等,9300002004893,令和６年１０月１日佐賀市若宮一丁目１７番６５号株式会社ケアバンク（9300002004893）に合併し解散,2021-11-26,1,,,,,サラノキ,0
2013,7310001009218,登記記録の閉鎖等,0,2024-10-08,2024-09-30,メタルリサイクル株式会社,,株式会社,長崎県,諫早市,西里町１７番５,,42,204,8590312,,,2024-09-30,清算の結了等,,,2015-10-05,1,,,,,メタルリサイクル,0
2015,7320002014273,登記記録の閉鎖等,0,2024-10-08,2024-10-03,有限会社西日本道路,,有限会社,大分県,宇佐市,安心院町木裳３８２番地の２,,44,211,8720507,,,2024-10-03,清算の結了等,,,2015-10-05,1,,,,,,0
2020,7330002025419,登記記録の閉鎖等,0,2024-10-08,2024-09-30,有限会社ＡＢ冷熱サービス,,有限会社,熊本県,宇城市,不知火町高良２１０３番地,,43,213,8690552,,,2024-09-30,清算の結了等,,,2015-10-05,1,,,,,エービーレイネツサービス,0
2034,7380001028954,登記記録の閉鎖等,0,2024-10-08,2024-09-24,株式会社Ｎｅｏ－Ｃｌａｓｓｉｃ,,株式会社,福島県,いわき市,平字四町目１１番地の２,,07,204,9708026,,,2024-09-24,清算の結了等,,,2018-03-30,1,,,,,ネオクラシック,0
2054,7500002009726,登記記録の閉鎖等,0,2024-10-08,2024-10-01,有限会社キューブデザイン事務所,,有限会社,愛媛県,松山市,山越４丁目５番３５号,,38,201,7918013,,,2024-10-01,合併による解散等,7500001005156,令和６年１０月１日愛媛県松山市山越四丁目５番３５号株式会社キュービック（7500001005156）に合併し解散,2015-10-05,1,,,,,キューブデザインジムショ,0
2057,8010001028825,登記記録の閉鎖等,0,2024-10-08,2024-10-02,株式会社ペップ,,株式会社,東京都,練馬区,豊玉北５丁目２５番１２号,,13,120,1760012,,,2024-10-02,清算の結了等,,,2015-10-05,1,,,,,ペップ,0
2058,8010001175634,登記記録の閉鎖等,0,2024-10-08,2024-09-25,ＭＯＶＥホールディングス株式会社,,株式会社,東京都,中央区,日本橋３丁目２番９号,,13,102,1030027,,,2024-09-25,清算の結了等,,,2016-05-16,1,,,,,ムーブホールディングス,0
2060,8010001175873,登記記録の閉鎖等,0,2024-10-08,2024-09-25,ＴＮモーターズ株式会社,,株式会社,東京都,中央区,日本橋３丁目２番９号,,13,102,1030027,,,2024-09-25,清算の結了等,,,2016-05-24,1,,,,,ティーエヌモーターズ,0
2147,8020002082597,登記記録の閉鎖等,0,2024-10-08,2024-09-24,有限会社上野製作所,,有限会社,神奈川県,川崎市中原区,中丸子１１８７番地,,14,133,2110012,,,2024-09-24,清算の結了等,,,2015-10-05,1,,,,,ウエノセイサクジョ,0
2151,8021001039563,登記記録の閉鎖等,0,2024-10-08,2024-10-04,株式会社バイオダイナミックス,,株式会社,神奈川県,藤沢市,鵠沼藤が谷１丁目１１番２９号,,14,205,2510031,,,2024-10-04,清算の結了等,,,2015-10-05,1,,,,,バイオダイナミックス,0
2164,8030001025036,登記記録の閉鎖等,0,2024-10-08,2024-10-01,丸政製茶株式会社,,株式会社,埼玉県,所沢市,東町１０番１８号,,11,208,3591116,,,2024-10-01,合併による解散等,3030002029032,令和６年１０月１日埼玉県所沢市東町１０番１８号株式会社グリーンビル（3030002029032）に合併し解散,2015-10-05,1,,,,,マルマサセイチャ,0
2166,8030001038351,登記記録の閉鎖等,0,2024-10-08,2024-10-01,株式会社サポートＧ,,株式会社,埼玉県,三郷市,高州２丁目５３番地４,,11,237,3410037,,,2024-10-01,清算の結了等,,,2015-10-05,1,,,,,サポートジー,0
2180,8030002101447,登記記録の閉鎖等,0,2024-10-08,2024-10-01,有限会社オリアサ,,有限会社,埼玉県,川口市,青木２丁目２番３８号,,11,203,3320031,,,2024-10-01,清算の結了等,,,2015-10-05,1,,,,,オリアサ,0
2212,8060002030791,登記記録の閉鎖等,0,2024-10-08,2024-10-02,有限会社石田鉄工,,有限会社,栃木県,下野市,川中子３３２８番地５２,,09,216,3290415,,,2024-10-02,清算の結了等,,,2015-10-05,1,,,,,イシダテッコウ,0
2213,8060002036657,登記記録の閉鎖等,0,2024-10-08,2024-10-01,有限会社高橋米穀店,,有限会社,栃木県,足利市,柳原町８５７番地３,,09,202,3260806,,,2024-10-01,清算の結了等,,,2015-10-05,1,,,,,タカハシベイコクテン,0
2220,8090001000677,登記記録の閉鎖等,0,2024-10-08,2024-10-04,甲府文化瓦斯株式会社,,株式会社,山梨県,甲府市,城東１丁目１０番１７号,,19,201,4000861,,,2024-10-04,合併による解散等,3011801044339,令和６年１０月１日東京都葛飾区奥戸四丁目１８番１８号株式会社ガスワン南関東（3011801044339）に合併し解散,2015-10-05,1,,,,,コウフブンカガス,0
2235,8120001220115,登記記録の閉鎖等,0,2024-10-08,2024-09-30,株式会社ＴＦＴ　ＬＡＢＯＲＡＴＯＲＹ,,株式会社,大阪府,大阪市旭区,大宮４丁目１９番３号,,27,117,5350002,,,2024-09-30,合併による解散等,4120001140234,令和６年９月３０日大阪市旭区大宮四丁目１９番３号株式会社ＧＤ経営研究所（4120001140234）に合併し解散,2019-04-05,1,,,,,ティーエフティーラボラトリィー,0
2237,8120001238677,登記記録の閉鎖等,0,2024-10-08,2024-09-30,Ｄａｌｉ株式会社,,株式会社,大阪府,大阪市中央区,南船場４丁目１０番１３号,,27,128,5420081,,,2024-09-30,合併による解散等,2120001216457,令和６年９月３０日大阪市中央区南船場四丁目１０番１３号株式会社ＧＵＲＵＧＵＲＵ（2120001216457）に合併し解散,2021-06-30,1,,,,,ダリ,0
2239,8120001258139,登記記録の閉鎖等,0,2024-10-08,2024-09-17,淮北株式会社,,株式会社,大阪府,大阪市阿倍野区,阿倍野元町１４－５－５１３号室,,27,119,5450034,,,2024-09-17,清算の結了等,,,2023-10-11,1,,,,,ワイホク,0
2263,8140001063454,登記記録の閉鎖等,0,2024-10-08,2024-10-01,株式会社サンライズテクノ,,株式会社,兵庫県,神崎郡福崎町,福田１９１番地,,28,443,6792212,,,2024-10-01,合併による解散等,8140001063446,令和６年１０月１日兵庫県神崎郡福崎町福田１１８番地サンライズ工業株式会社（8140001063446）に合併し解散,2015-10-05,1,,,,,サンライズテクノ,0
2266,8140002067553,登記記録の閉鎖等,0,2024-10-08,2024-09-30,吉田空調サービス有限会社,,有限会社,兵庫県,宝塚市,中野町１８番３号,,28,214,6650056,,,2024-09-30,清算の結了等,,,2015-10-05,1,,,,,ヨシダクウチョウサービス,0
2267,8140005021508,登記記録の閉鎖等,0,2024-10-08,2024-10-03,特定非営利活動法人教育協会,,その他の設立登記法人,兵庫県,丹波篠山市,真南条中６７番地,,28,221,6692463,,,2024-10-03,清算の結了等,,,2015-10-05,1,,,,,キョウイクキョウカイ,0
2270,8180001058260,登記記録の閉鎖等,0,2024-10-08,2024-10-07,株式会社Ｄａｙｓ,,株式会社,愛知県,名古屋市守山区,元郷１丁目５０２番地,,23,113,4630025,,,2024-10-07,清算の結了等,,,2015-10-05,1,,,,,デイズ,0
2272,8180301018567,登記記録の閉鎖等,0,2024-10-08,2024-09-30,大新電機株式会社,,株式会社,愛知県,豊田市,八草町三本木１３１１番地の３,,23,211,4700356,,,2024-09-30,清算の結了等,,,2015-10-05,1,,,,,ダイシンデンキ,0
2275,8190001015203,登記記録の閉鎖等,0,2024-10-08,2024-10-04,帥治堂製薬株式会社,,株式会社,三重県,四日市市,八田２丁目５番６号,,24,202,5100001,,,2024-10-04,清算の結了等,,,2015-10-05,1,,,,,スイジドウセイヤク,0
2279,8200001035430,登記記録の閉鎖等,0,2024-10-08,2024-10-04,株式会社飛笑朗,,株式会社,岐阜県,岐阜市,高田５丁目２５－１ホワイトリリー１０３,,21,201,5008224,,,2024-10-04,清算の結了等,,,2018-08-03,1,,,,,ピエロ,0
2288,8230001017203,登記記録の閉鎖等,0,2024-10-08,2024-10-07,Ｃａｒｅｆｕｌｌｙ株式会社,,株式会社,富山県,富山市,西金屋１５０番地,,16,201,9300143,,,2024-10-07,清算の結了等,,,2017-11-22,1,,,,,ケアフリー,0
2304,8260002025128,登記記録の閉鎖等,0,2024-10-08,2024-09-30,有限会社鈴木歯科商店,,有限会社,岡山県,笠岡市,四番町３番地の２４,,33,205,7140085,,,2024-09-30,清算の結了等,,,2015-10-05,1,,,,,スズキシカショウテン,0
2314,8310001001231,登記記録の閉鎖等,0,2024-10-08,2024-10-04,東洋装設株式会社,,株式会社,長崎県,長崎市,馬町３１番地,,42,201,8500022,,,2024-10-04,合併による解散等,7010701005166,令和６年１０月１日東京都品川区上大崎三丁目１０番４７号西菱地所株式会社（7010701005166）に合併し解散,2015-10-05,1,,,,,トウヨウソウセツ,0
2327,8360001028204,登記記録の閉鎖等,0,2024-10-08,2024-10-03,またきちファミｗｏｒｋｓ株式会社,,株式会社,沖縄県,浦添市,牧港１丁目２９番７号,,47,208,9012131,,,2024-10-03,清算の結了等,,,2021-01-14,1,,,,,マタキチファミワークス,0
2341,8430002014583,登記記録の閉鎖等,0,2024-10-08,2024-10-01,有限会社中村電工,,有限会社,北海道,札幌市北区,屯田七条１２丁目９番７号,,01,102,0020857,,,2024-10-01,清算の結了等,,,2015-10-05,1,,,,,ナカムラデンコウ,0
2345,8460002000548,登記記録の閉鎖等,0,2024-10-08,2024-10-03,有限会社片野鉄工所,,有限会社,北海道,釧路市,星が浦北４丁目２番３７号,,01,206,0840911,,,2024-10-03,清算の結了等,,,2015-10-05,1,,,,,カタノテッコウジョ,0
2362,9010001218598,登記記録の閉鎖等,0,2024-10-08,2024-09-25,株式会社ＰＫＢ　Ｌａｂ,,株式会社,東京都,千代田区,神田錦町１丁目１６番地１いちご神田錦町ビル９階,,13,101,1010054,,,2024-09-25,清算の結了等,,,2021-06-07,1,,,,,ピーケイビーラボ,0
2366,9010003026454,登記記録の閉鎖等,0,2024-10-08,2024-09-17,ＣＲ京町家５号合同会社,,合同会社,東京都,渋谷区,恵比寿１丁目２０番１８号,,13,113,1500013,,,2024-09-17,清算の結了等,,,2017-11-15,1,,,,,シーアールキョウマチヤゴゴウ,0
2370,9010005021164,登記記録の閉鎖等,0,2024-10-08,2024-10-02,あやめ税理士法人,,その他の設立登記法人,東京都,千代田区,神田錦町１丁目２３番８号,,13,101,1010054,,,2024-10-02,清算の結了等,,,2015-10-05,1,,,,,アヤメ,0
2388,9010501001314,登記記録の閉鎖等,0,2024-10-08,2024-09-27,栄和企業株式会社,,株式会社,東京都,台東区,雷門２丁目６番１１号,,13,106,1110034,,,2024-09-27,清算の結了等,,,2015-10-05,1,,,,,エイワキギョウ,0
2389,9010501002824,登記記録の閉鎖等,0,2024-10-08,2024-09-27,株式会社和エンタープライズ,,株式会社,東京都,台東区,竜泉１丁目２７番６－２０１号,,13,106,1100012,,,2024-09-27,清算の結了等,,,2015-10-05,1,,,,,カズエンタープライズ,0
2397,9010901005534,登記記録の閉鎖等,0,2024-10-08,2024-09-27,株式会社ジマーズ,,株式会社,東京都,世田谷区,下馬６丁目５番１０号,,13,112,1540002,,,2024-09-27,清算の結了等,,,2015-10-05,1,,,,,ジマーズ,0
2398,9010901005591,登記記録の閉鎖等,0,2024-10-08,2024-10-01,株式会社周,,株式会社,東京都,世田谷区,経堂５丁目１２番６号,,13,112,1560052,,,2024-10-01,清算の結了等,,,2015-10-05,1,,,,,シュウ,0
2399,9010901035481,登記記録の閉鎖等,0,2024-10-08,2024-10-03,スイス家具販売株式会社,,株式会社,東京都,世田谷区,上祖師谷３丁目１３番６号,,13,112,1570065,,,2024-10-03,清算の結了等,,,2015-10-05,1,,,,,スイスカグハンバイ,0
2400,9010901037032,登記記録の閉鎖等,0,2024-10-08,2024-10-01,株式会社イージス,,株式会社,東京都,世田谷区,南烏山５丁目１７番１１号,,13,112,1570062,,,2024-10-01,清算の結了等,,,2015-11-05,1,,,,,,0
2426,9011602024014,登記記録の閉鎖等,0,2024-10-08,2024-09-30,有限会社ソールド・アウト,,有限会社,東京都,練馬区,氷川台３丁目２１番２号ドムスＩＺ４０１,,13,120,1790084,,,2024-09-30,清算の結了等,,,2015-10-05,1,,,,,ソールドアウト,0
2427,9011701007563,登記記録の閉鎖等,0,2024-10-08,2024-09-30,株式会社美貴,,株式会社,東京都,江戸川区,平井２丁目１５番１５号,,13,123,1320035,,,2024-09-30,清算の結了等,,,2015-10-05,1,,,,,ミキ,0
2437,9012302000098,登記記録の閉鎖等,0,2024-10-08,2024-10-02,有限会社アセック,,有限会社,東京都,町田市,山崎町４５７番地５－１０７,,13,209,1950074,,,2024-10-02,清算の結了等,,,2015-10-05,1,,,,,,0
2442,9013301045225,登記記録の閉鎖等,0,2024-10-08,2024-09-30,株式会社ＯｎｅＳｐｏｒｔｓ,,株式会社,東京都,豊島区,東池袋３丁目１番１号,,13,116,1700013,,,2024-09-30,合併による解散等,2013301047970,令和６年９月３０日東京都豊島区東池袋三丁目１番１号株式会社ＳＴＡＮＤ（2013301047970）に合併し解散,2020-02-17,1,OneSports Inc.,Tokyo,"3-1-1, Higashi-Ikebukuro, Toshima ku",,ワンスポーツ,0
2454,9021001011463,登記記録の閉鎖等,0,2024-10-08,2024-10-03,エフエーシステム株式会社,,株式会社,神奈川県,相模原市緑区,橋本４丁目９番２３号,,14,151,2520143,,,2024-10-03,清算の結了等,,,2015-10-05,1,,,,,エフエーシステム,0
2486,9030005015750,登記記録の閉鎖等,0,2024-10-08,2024-10-01,一般社団法人自律神経足つぼ研究所,,その他の設立登記法人,埼玉県,朝霞市,溝沼３丁目１番９号,,11,227,3510023,,,2024-10-01,清算の結了等,,,2015-10-05,1,,,,,ジリツシンケイアシツボケンキュウショ,0
2514,9110002005663,登記記録の閉鎖等,0,2024-10-08,2024-09-30,有限会社ファンテックス,,有限会社,新潟県,新潟市西区,坂井砂山１丁目７番５号,,15,107,9502044,,,2024-09-30,清算の結了等,,,2015-10-05,1,,,,,ファンテックス,0
2515,9120001001828,登記記録の閉鎖等,0,2024-10-08,2024-10-04,株式会社壽通信システム,,株式会社,大阪府,大阪市鶴見区,今津南４丁目４番１号,,27,124,5380043,,,2024-10-04,清算の結了等,,,2015-10-05,1,,,,,コトブキツウシンシステム,0
2522,9120001197328,登記記録の閉鎖等,0,2024-10-08,2024-09-30,株式会社ＳＥＲＩＯ,,株式会社,大阪府,大阪市旭区,大宮４丁目１９番３号,,27,117,5350002,,,2024-09-30,合併による解散等,4120001140234,令和６年９月３０日大阪市旭区大宮四丁目１９番３号株式会社ＧＤ経営研究所（4120001140234）に合併し解散,2016-04-06,1,,,,,セリオ,0
2540,9120901007486,登記記録の閉鎖等,0,2024-10-08,2024-10-02,株式会社デイハウス,,株式会社,大阪府,吹田市,垂水町３丁目９番１０７号,,27,205,5640062,,,2024-10-02,清算の結了等,,,2015-10-05,1,,,,,デイハウス,0
2551,9140001110528,登記記録の閉鎖等,0,2024-10-08,2024-10-03,株式会社アスティ,,株式会社,兵庫県,宝塚市,宝梅３丁目３番３０号,,28,214,6650013,,,2024-10-03,清算の結了等,,,2018-06-28,1,,,,,アスティ,0
2555,9140002023852,登記記録の閉鎖等,0,2024-10-08,2024-10-01,有限会社神戸アーバンリンク,,有限会社,兵庫県,神戸市東灘区,住吉宮町７丁目２番９号,,28,101,6580053,,,2024-10-01,合併による解散等,1140001024512,令和６年９月３０日神戸市東灘区御影郡家一丁目１８番１０号株式会社神戸アーバンリンク（1140001024512）に合併し解散,2015-10-05,1,,,,,コウベアーバンリンク,0
2559,9140002056373,登記記録の閉鎖等,0,2024-10-08,2024-09-30,有限会社興栄,,有限会社,兵庫県,西宮市,甲子園口１丁目１４番２０号,,28,204,6638113,,,2024-09-30,清算の結了等,,,2015-10-05,1,,,,,コウエイ,0
2563,9150002010453,登記記録の閉鎖等,0,2024-10-08,2024-10-04,有限会社葛タクシー,00043592,有限会社,奈良県,御所市,大字戸毛９８３番地の１,,29,208,6392251,,,2024-10-04,清算の結了等,,,2015-10-05,1,,,,,クズタクシー,0
2564,9160001011922,登記記録の閉鎖等,0,2024-10-08,2024-10-03,株式会社シガ・ガードリサーチ,,株式会社,滋賀県,高島市,今津町桜町２丁目１番地の３,,25,212,5201632,,,2024-10-03,清算の結了等,,,2015-10-05,1,,,,,シガガードリサーチ,0
2566,9180001056858,登記記録の閉鎖等,0,2024-10-08,2024-09-26,株式会社ルーセントコミュニケーションズ,,株式会社,愛知県,名古屋市中区,新栄２丁目４番５号,,23,106,4600007,,,2024-09-26,清算の結了等,,,2015-10-05,1,,,,,ルーセントコミュニケーションズ,0
2567,9180001116777,登記記録の閉鎖等,0,2024-10-08,2024-09-30,シューマン株式会社,,株式会社,愛知県,名古屋市中川区,中郷３丁目３７５番地キャトルセゾンＩＩ２０２号,00126583,23,110,4540921,,,2024-09-30,清算の結了等,,,2015-10-05,1,,,,,シューマン,0
2576,9180301005812,登記記録の閉鎖等,0,2024-10-08,2024-09-30,株式会社ジャパン・ホスピタル・サプライ,,株式会社,愛知県,豊橋市,白河町９０番地,,23,201,4418021,,,2024-09-30,清算の結了等,,,2015-10-05,1,,,,,ジャパンホスピタルサプライ,0
2577,9180301028854,登記記録の閉鎖等,0,2024-10-08,2024-10-04,レシゲルジャパン株式会社,,株式会社,愛知県,豊田市,永覚新町３丁目１７番地２０３号室,,23,211,4701206,,,2024-10-04,清算の結了等,,,2016-02-01,1,,,,,レシゲルジャパン,0
2579,9180305005263,登記記録の閉鎖等,0,2024-10-08,2024-10-01,協同組合アイガ技術交流センター,,その他の設立登記法人,愛知県,西尾市,一色町前野東浦１５番地１,,23,213,4440407,,,2024-10-01,清算の結了等,,,2015-10-05,1,,,,,アイガギジュツコウリュウセンター,0
2591,9240002033164,登記記録の閉鎖等,0,2024-10-08,2024-10-01,有限会社青龍軒,,有限会社,広島県,呉市,中通２丁目２番２１号,,34,202,7370046,,,2024-10-01,清算の結了等,,,2015-10-05,1,,,,,セイリュウケン,0
2602,9260002021209,登記記録の閉鎖等,0,2024-10-08,2024-10-01,有限会社松葉工業,,有限会社,岡山県,倉敷市,中島８６８番地の１５,,33,202,7100803,,,2024-10-01,清算の結了等,,,2015-10-05,1,,,,,マツバコウギョウ,0
2610,9290005015956,登記記録の閉鎖等,0,2024-10-08,2024-08-26,ＮＰＯ法人ＳＰＩＣＥ,,その他の設立登記法人,福岡県,福岡市城南区,樋井川２丁目３番２号,,40,136,8140153,,,2024-08-26,清算の結了等,,,2016-06-08,1,,,,,スパイス,0
2614,9310001013531,登記記録の閉鎖等,0,2024-10-08,2024-10-01,株式会社みらい,,株式会社,長崎県,佐世保市,卸本町２０番１７号,,42,202,8571162,,,2024-10-01,合併による解散等,1310001005172,令和６年１０月１日長崎県佐世保市松浦町４番１７号永代ハウス株式会社（1310001005172）に合併し解散,2015-10-05,1,,,,,ミライ,0
2625,9370001050767,登記記録の閉鎖等,0,2024-10-08,2024-09-25,株式会社Ａｅｒｕ,,株式会社,宮城県,仙台市若林区,卸町４丁目３番１号中央棟１階,,04,103,9840015,,,2024-09-25,清算の結了等,,,2023-12-22,1,,,,,アエル,0
2629,9380001001653,登記記録の閉鎖等,0,2024-10-08,2024-09-26,株式会社丸共家具店,,株式会社,福島県,福島市,飯坂町字梍町４０番地の４,00082968,07,201,9600201,,,2024-09-26,清算の結了等,,,2015-10-05,1,,,,,マルキョウカグテン,0
2642,9410002004981,登記記録の閉鎖等,0,2024-10-08,2024-10-02,有限会社優介護,,有限会社,秋田県,秋田市,横森１丁目２０番２０号,,05,201,0100044,,,2024-10-02,清算の結了等,,,2015-10-05,1,,,,,,0
2646,9410003001540,登記記録の閉鎖等,0,2024-10-08,2024-10-01,関直右衛門合名会社,,合名会社,秋田県,仙北市,田沢湖玉川字渋黒沢国有林３０１４林班ロ小班,,05,215,0141205,,,2024-10-01,合併による解散等,3410001006687,令和６年１０月１日秋田県仙北市田沢湖玉川字渋黒沢国有林３０１４林班ロ小班株式会社玉川温泉（3410001006687）に合併し解散,2015-10-05,1,,,,,セキナオウエモン,0
2648,9420001006672,登記記録の閉鎖等,0,2024-10-08,2024-10-01,株式会社みなとや,,株式会社,青森県,八戸市,売市４丁目６番１０号,,02,203,0310073,,,2024-10-01,合併による解散等,8420001012481,令和６年１０月１日青森県むつ市小川町二丁目４番８号株式会社マエダ（8420001012481）に合併し解散,2015-10-05,1,,,,,ミナトヤ,0
2650,9430001062153,登記記録の閉鎖等,0,2024-10-08,2024-10-01,合同会社ミレー,,合同会社,北海道,札幌市中央区,大通西２１丁目１番１２号,,01,101,0640820,,,2024-10-01,合併による解散等,1430003004771,令和６年９月３０日札幌市中央区大通西二十一丁目１番１２号合同会社ＬＩＢＲＡ（1430003004771）に合併し解散,2015-10-05,1,,,,,ミレー,0
2653,9440002004054,登記記録の閉鎖等,0,2024-10-08,2024-10-02,北栄工機有限会社,,有限会社,北海道,函館市,港町３丁目１７番３６号,,01,202,0410821,,,2024-10-02,清算の結了等,,,2015-10-05,1,,,,,ホクエイコウキ,0
2658,9480001002212,登記記録の閉鎖等,0,2024-10-08,2024-10-01,株式会社ワイエス企画,,株式会社,徳島県,徳島市,川内町大松２３６番地１,,36,201,7710131,,,2024-10-01,合併による解散等,1480001006864,令和６年１０月１日徳島県阿南市学原町中西１５番地２八重川海運株式会社（1480001006864）に合併し解散,2015-10-05,1,,,,,,0
