sequenceNumber,corporateNumber,process,correct,updateDate,changeDate,name,nameImageId,kind,prefectureName,cityName,streetNumber,addressImageId,prefectureCode,cityCode,postCode,addressOutside,addressOutsideImageId,closeDate,closeCause,successorCorporateNumber,changeCause,assignmentDate,latest,enName,enPrefectureName,enCityName,enAddressOutside,furigana,hihyoji
30,1010403028462,登記記録の閉鎖等,0,2024-11-20,2024-11-01,合同会社Ｃｏｒｒｉｄａ,,合同会社,東京都,港区,六本木１丁目６番１号泉ガーデンタワーＫＰＭＧ税理士法人内,,13,103,1060032,,,2024-11-01,清算の結了等,,,2022-09-15,1,,,,,コリーダ,0
54,1011001038903,登記記録の閉鎖等,0,2024-11-20,2024-10-24,株式会社ネロリ,,株式会社,東京都,渋谷区,神宮前５丁目１６番１５号,,13,113,1500001,,,2024-10-24,清算の結了等,,,2015-10-05,1,,,,,ネロリ,0
93,1012402007579,登記記録の閉鎖等,0,2024-11-20,2024-11-07,有限会社バグース,,有限会社,東京都,国分寺市,西元町３丁目７番８号,,13,214,1850023,,,2024-11-07,清算の結了等,,,2015-10-05,1,,,,,バグース,0
97,1020001017370,登記記録の閉鎖等,0,2024-11-20,2024-11-05,株式会社佐伯組,,株式会社,神奈川県,横浜市鶴見区,下野谷町２丁目７２番地の６,,14,101,2300047,,,2024-11-05,清算の結了等,,,2015-10-05,1,,,,,,0
99,1020001131997,登記記録の閉鎖等,0,2024-11-20,2024-11-06,Ｆｌｏｗｅｒ　Ｒｏｏｍ株式会社,,株式会社,神奈川県,川崎市高津区,末長２丁目２２番１６号,,14,134,2130013,,,2024-11-06,清算の結了等,,,2019-07-11,1,,,,,フラワールーム,0
102,1020002052879,登記記録の閉鎖等,0,2024-11-20,2024-11-08,有限会社赤ひげ,,有限会社,神奈川県,横浜市磯子区,中原２丁目３番３３号,,14,107,2350036,,,2024-11-08,清算の結了等,,,2015-10-05,1,,,,,アカヒゲ,0
113,1030001078230,登記記録の閉鎖等,0,2024-11-20,2024-11-15,株式会社エヌケー,,株式会社,埼玉県,川口市,並木４丁目２４番４号,,11,203,3320034,,,2024-11-15,清算の結了等,,,2015-10-05,1,,,,,エヌケー,0
120,1030002046599,登記記録の閉鎖等,0,2024-11-20,2024-11-14,有限会社遠藤商店,,有限会社,埼玉県,八潮市,八潮３丁目８番地５,,11,234,3400815,,,2024-11-14,清算の結了等,,,2015-10-05,1,,,,,エンドウショウテン,0
122,1030003013549,登記記録の閉鎖等,0,2024-11-20,2024-11-15,Ｙ・プランニング合同会社,,合同会社,埼玉県,草加市,北谷３丁目３０番１号,,11,221,3400046,,,2024-11-15,清算の結了等,,,2019-05-17,1,,,,,ワイプランニング,0
138,1060002000883,登記記録の閉鎖等,0,2024-11-20,2024-11-15,有限会社安中重機建設,,有限会社,栃木県,宇都宮市,細谷町２５６５番地２４,,09,201,3200074,,,2024-11-15,清算の結了等,,,2015-10-05,1,,,,,アンナカジュウキケンセツ,0
148,1120001055261,登記記録の閉鎖等,0,2024-11-20,2024-11-15,株式会社コトブキ薬局,,株式会社,大阪府,大阪市淀川区,加島４丁目２番５１号,,27,123,5320031,,,2024-11-15,清算の結了等,,,2015-10-05,1,,,,,コトブキヤッキョク,0
155,1120001234229,登記記録の閉鎖等,0,2024-11-20,2024-11-15,レッサー株式会社,,株式会社,大阪府,大阪市天王寺区,上本町６丁目２番２２号山崎製煉ビル５階,,27,109,5430001,,,2024-11-15,清算の結了等,,,2021-01-05,1,,,,,レッサー,0
162,1120002019983,登記記録の閉鎖等,0,2024-11-20,2024-11-18,昭和ケース音響有限会社,,有限会社,大阪府,大阪市浪速区,日本橋４丁目８番１１号,,27,111,5560005,,,2024-11-18,清算の結了等,,,2015-10-05,1,,,,,ショウワケースオンキョウ,0
171,1120901030529,登記記録の閉鎖等,0,2024-11-20,2024-11-14,Ｓ，Ｔエンジニアリング株式会社,,株式会社,大阪府,摂津市,鳥飼中２丁目５番１１号,,27,224,5660064,,,2024-11-14,清算の結了等,,,2015-10-05,1,,,,,,0
179,1122002014089,登記記録の閉鎖等,0,2024-11-20,2024-11-18,有限会社ダイケー,,有限会社,大阪府,八尾市,本町４丁目８番７号,,27,212,5810003,,,2024-11-18,清算の結了等,,,2015-10-05,1,,,,,ダイケー,0
181,1140001011312,登記記録の閉鎖等,0,2024-11-20,2024-11-08,株式会社メノガイア,,株式会社,兵庫県,神戸市中央区,港島中町６丁目３番地６,,28,110,6500046,,,2024-11-08,合併による解散等,9140001028506,令和６年１１月１日神戸市中央区港島中町六丁目３番地６号株式会社スリーピース（9140001028506）に合併し解散,2015-10-05,1,,,,,メノガイア,0
183,1140001017490,登記記録の閉鎖等,0,2024-11-20,2024-11-14,株式会社参幸,,株式会社,兵庫県,神戸市須磨区,一ノ谷町３丁目３番８号須磨浦病院内,,28,107,6540076,,,2024-11-14,合併による解散等,5140001017603,令和６年１０月３１日神戸市須磨区一ノ谷町三丁目３番４号株式会社須磨浦メデイカル（5140001017603）に合併し解散,2015-10-05,1,,,,,サンコウ,0
184,1140001043735,登記記録の閉鎖等,0,2024-11-20,2024-11-18,株式会社ローヤルタクシー,,株式会社,兵庫県,加古川市,尾上町長田２４６番地の１,,28,210,6750024,,,2024-11-18,清算の結了等,,,2015-10-05,1,,,,,ローヤルタクシー,0
193,1180001015573,登記記録の閉鎖等,0,2024-11-20,2024-11-11,株式会社水谷嘉助商店,,株式会社,愛知県,名古屋市南区,明円町１３３番地,,23,112,4570022,,,2024-11-11,清算の結了等,,,2015-10-05,1,,,,,ミズタニカスケショウテン,0
196,1180001140074,登記記録の閉鎖等,0,2024-11-20,2024-11-11,株式会社エヌ・シー・コンサルティング社,,株式会社,愛知県,名古屋市瑞穂区,密柑山町２丁目３番地の３,,23,108,4670041,,,2024-11-11,清算の結了等,,,2020-02-17,1,,,,,エヌシーコンサルティングシャ,0
207,1200001003055,登記記録の閉鎖等,0,2024-11-20,2024-11-18,株式会社大丸貸衣装店,,株式会社,岐阜県,岐阜市,神田町８丁目９番地の１,,21,201,5008833,,,2024-11-18,清算の結了等,,,2015-10-05,1,,,,,ダイマルカシイショウテン,0
231,1290001057539,登記記録の閉鎖等,0,2024-11-20,2024-10-16,株式会社Ｌ．Ｆ．Ｓ,,株式会社,福岡県,福岡市中央区,大名２丁目１番１１号,,40,133,8100041,,,2024-10-16,清算の結了等,,,2015-10-05,1,,,,,,0
252,1370402001442,登記記録の閉鎖等,0,2024-11-20,2024-11-11,有限会社阿部設備,,有限会社,宮城県,登米市,石越町東郷字大根澤６４番地の１,,04,212,9894702,,,2024-11-11,清算の結了等,,,2015-10-05,1,,,,,アベセツビ,0
261,1430001077670,登記記録の閉鎖等,0,2024-11-20,2024-11-14,北海道流通サービス株式会社,,株式会社,北海道,札幌市中央区,大通東３丁目１番地３６－１５１０号,,01,101,0600041,,,2024-11-14,清算の結了等,,,2018-11-06,1,,,,,ホッカイドウリュウツウサービス,0
280,2010001148967,登記記録の閉鎖等,0,2024-11-20,2024-11-06,株式会社エム・エステート,,株式会社,東京都,文京区,本郷３丁目３２番３号巴屋ビル２階,,13,105,1130033,,,2024-11-06,清算の結了等,,,2015-10-05,1,,,,,エムエステート,0
309,2010101016140,登記記録の閉鎖等,0,2024-11-20,2024-11-18,竹鶴商事株式会社,,株式会社,東京都,八王子市,片倉町１５６１番地４,,13,201,1920914,,,2024-11-18,清算の結了等,,,2024-05-16,1,,,,,タケツルショウジ,0
321,2010402032282,登記記録の閉鎖等,0,2024-11-20,2024-11-05,麻布スタジオ有限会社,,有限会社,東京都,港区,南麻布１丁目１１番８号,,13,103,1060047,,,2024-11-05,清算の結了等,,,2015-10-05,1,,,,,,0
329,2010501032324,登記記録の閉鎖等,0,2024-11-20,2024-11-06,出光アグリ株式会社,,株式会社,東京都,千代田区,神田練塀町３番地ＡＫＳビル,,13,101,1010022,,,2024-11-06,清算の結了等,,,2015-10-05,1,,,,,イデミツアグリ,0
334,2010701028171,登記記録の閉鎖等,0,2024-11-20,2024-11-01,ジャマルスタジオ株式会社,,株式会社,東京都,港区,南麻布４丁目１３番９号鈴木ビル４階,,13,103,1060047,,,2024-11-01,清算の結了等,,,2015-10-05,1,,,,,ジャマルスタジオ,0
363,2011105007480,登記記録の閉鎖等,0,2024-11-20,2024-10-03,弁護士法人ＭＩＡ法律事務所,,その他の設立登記法人,東京都,港区,東新橋２丁目１０番７－４０２号,,13,103,1050021,,,2024-10-03,清算の結了等,,,2016-11-04,1,,,,,エムアイエーホウリツジムショ,0
373,2012701010506,登記記録の閉鎖等,0,2024-11-20,2024-11-05,株式会社菅家工務店,,株式会社,東京都,小平市,学園東町３丁目９番２２号,,13,211,1870043,,,2024-11-05,清算の結了等,,,2015-10-05,1,,,,,カンケコウムテン,0
376,2013101005253,登記記録の閉鎖等,0,2024-11-20,2024-11-08,株式会社Ｒ＆Ｋコーポレーション,,株式会社,東京都,東大和市,南街５丁目４３－３－１０２,,13,220,2070014,,,2024-11-08,清算の結了等,,,2015-10-05,1,,,,,,0
385,2020001036948,登記記録の閉鎖等,0,2024-11-20,2024-11-15,横浜メルテック株式会社,,株式会社,神奈川県,横浜市戸塚区,矢部町２９番地,,14,110,2440002,,,2024-11-15,合併による解散等,6011101062468,令和６年１０月１日東京都中央区日本橋室町四丁目１番５号東日本ビルテクノサービス株式会社（6011101062468）に合併し解散,2015-10-05,1,,,,,ヨコハマメルテック,0
397,2020002008062,登記記録の閉鎖等,0,2024-11-20,2024-10-31,有限会社サイホク工業,,有限会社,神奈川県,横浜市金沢区,並木２丁目７番２－１０７号,,14,108,2360005,,,2024-10-31,清算の結了等,,,2015-10-05,1,,,,,サイホクコウギョウ,0
408,2030001010844,登記記録の閉鎖等,0,2024-11-20,2024-11-15,関越メルテック株式会社,,株式会社,埼玉県,さいたま市大宮区,大門町３丁目３７番地花見ビル５階,,11,103,3300846,,,2024-11-15,合併による解散等,6011101062468,令和６年１０月１日東京都中央区日本橋室町四丁目１番５号東日本ビルテクノサービス株式会社（6011101062468）に合併し解散,2015-10-05,1,,,,,カンエツメルテック,0
409,2030001051228,登記記録の閉鎖等,0,2024-11-20,2024-11-18,株式会社チクマ,,株式会社,埼玉県,春日部市,豊野町２丁目１６番地５,,11,214,3440014,,,2024-11-18,清算の結了等,,,2015-10-05,1,,,,,チクマ,0
431,2060001004513,登記記録の閉鎖等,0,2024-11-20,2024-11-15,株式会社山王フーズ,,株式会社,栃木県,宇都宮市,細谷１丁目２番４号,,09,201,3200073,,,2024-11-15,清算の結了等,,,2015-10-05,1,,,,,サンノウフーズ,0
438,2090001017735,登記記録の閉鎖等,0,2024-11-20,2024-11-14,株式会社ＪＰ　Ｂｕｙｅｒｓ,,株式会社,山梨県,甲府市,古上条町５番地２,,19,201,4000051,,,2024-11-14,清算の結了等,,,2022-08-15,1,,,,,ジェピバイヤーズ,0
439,2100001017403,登記記録の閉鎖等,0,2024-11-20,2024-11-07,株式会社藤美商会,,株式会社,長野県,北安曇郡白馬村,大字北城２２１１番地,,20,485,3999301,,,2024-11-07,清算の結了等,,,2015-10-05,1,,,,,フジミショウカイ,0
453,2120001254845,登記記録の閉鎖等,0,2024-11-20,2024-11-14,株式会社ＬＹＮＸ　ＴＩＰＳ,,株式会社,大阪府,寝屋川市,池田本町１９番９号,,27,215,5720030,,,2024-11-14,清算の結了等,,,2023-05-15,1,,,,,リンクスティップ,0
479,2140001030749,登記記録の閉鎖等,0,2024-11-20,2024-11-08,株式会社ネオガイアホールディングス,,株式会社,兵庫県,神戸市中央区,港島中町６丁目３番地６,,28,110,6500046,,,2024-11-08,合併による解散等,9140001028506,令和６年１１月１日神戸市中央区港島中町六丁目３番地６号株式会社スリーピース（9140001028506）に合併し解散,2015-10-05,1,,,,,ネオガイアホールディングス,0
480,2140001031359,登記記録の閉鎖等,0,2024-11-20,2024-11-08,株式会社さくらメンテナンス工房,,株式会社,兵庫県,神戸市中央区,港島中町６丁目３番地６号,,28,110,6500046,,,2024-11-08,合併による解散等,9140001028506,令和６年１１月１日神戸市中央区港島中町六丁目３番地６号株式会社スリーピース（9140001028506）に合併し解散,2015-10-05,1,,,,,サクラメンテナンスコウボウ,0
485,2140002057023,登記記録の閉鎖等,0,2024-11-20,2024-11-15,有限会社タカイシ,,有限会社,兵庫県,西宮市,松並町１番３－２０９号,,28,204,6638102,,,2024-11-15,清算の結了等,,,2015-10-05,1,,,,,タカイシ,0
486,2160001004255,登記記録の閉鎖等,0,2024-11-20,2024-11-19,株式会社ツールバンク,,株式会社,滋賀県,大津市,朝日２丁目１番地８,,25,201,5200533,,,2024-11-19,清算の結了等,,,2015-10-05,1,,,,,ツールバンク,0
491,2180001064108,登記記録の閉鎖等,0,2024-11-20,2024-11-11,株式会社シンセラティ,,株式会社,愛知県,名古屋市天白区,元八事２丁目８３番地,,23,116,4680066,,,2024-11-11,清算の結了等,,,2015-10-05,1,,,,,シンセラティ,0
494,2180001105992,登記記録の閉鎖等,0,2024-11-20,2024-11-11,株式会社３ＭＥＣ,,株式会社,愛知県,名古屋市名東区,上社３丁目９０６番地,,23,115,4650025,,,2024-11-11,清算の結了等,,,2015-10-05,1,,,,,スリーメック,0
498,2180002034745,登記記録の閉鎖等,0,2024-11-20,2024-11-08,アプライドオプト有限会社,,有限会社,愛知県,名古屋市守山区,廿軒家１番２１号,,23,113,4630065,,,2024-11-08,清算の結了等,,,2015-10-05,1,,,,,アプライドオプト,0
499,2180003002008,登記記録の閉鎖等,0,2024-11-20,2024-11-07,合資会社新美商店,,合資会社,愛知県,名古屋市南区,呼続５丁目１２番１５号,,23,112,4570014,,,2024-11-07,清算の結了等,,,2015-10-05,1,,,,,ニイミショウテン,0
504,2190001015472,登記記録の閉鎖等,0,2024-11-20,2024-11-15,多津美印刷株式会社,,株式会社,三重県,四日市市,朝日町８番７号,,24,202,5100061,,,2024-11-15,清算の結了等,,,2015-10-05,1,,,,,タツミインサツ,0
506,2190002020769,登記記録の閉鎖等,0,2024-11-20,2024-11-15,有限会社大栄機工,,有限会社,三重県,四日市市,北浜田町５番１９号,,24,202,5100062,,,2024-11-15,清算の結了等,,,2015-10-05,1,,,,,ダイエイキコウ,0
509,2200002002559,登記記録の閉鎖等,0,2024-11-20,2024-11-14,有限会社セシリア,,有限会社,岐阜県,岐阜市,月丘町２丁目１番地の２,,21,201,5008141,,,2024-11-14,清算の結了等,,,2015-10-05,1,,,,,セシリア,0
513,2210002009132,登記記録の閉鎖等,0,2024-11-20,2024-11-14,有限会社ＳＭＳ　ＦＰ事務所,,有限会社,福井県,福井市,宝永２丁目４番３号,,18,201,9100004,,,2024-11-14,清算の結了等,,,2015-10-05,1,,,,,エスエムエスエフピージムショ,0
527,2260002033994,登記記録の閉鎖等,0,2024-11-20,2024-11-15,有限会社福田工業所,,有限会社,岡山県,真庭郡新庄村,２００６番地ノ１５,,33,586,7170201,,,2024-11-15,清算の結了等,,,2015-10-05,1,,,,,フクダコウギョウショ,0
533,2290001096437,登記記録の閉鎖等,0,2024-11-20,2024-10-17,株式会社キュリオレ,,株式会社,福岡県,福岡市中央区,天神４丁目６‐２８天神ファーストビル７階,,40,133,8100001,,,2024-10-17,清算の結了等,,,2022-02-15,1,,,,,キュリオレ,0
543,2290803004712,登記記録の閉鎖等,0,2024-11-20,2024-11-15,ｉｓｈｔｏｒｉ合同会社,,合同会社,福岡県,北九州市小倉北区,熊谷１丁目７番５号,,40,106,8030864,,,2024-11-15,清算の結了等,,,2024-05-07,1,,,,,イシュトリ,0
623,3010005031061,登記記録の閉鎖等,0,2024-11-20,2024-11-14,一般社団法人蘭石文化研究会,,その他の設立登記法人,東京都,中央区,銀座６丁目６番１号,,13,102,1040061,,,2024-11-14,清算の結了等,,,2019-11-14,1,,,,,ランセキブンカケンキュウカイ,0
641,3010403025697,登記記録の閉鎖等,0,2024-11-20,2024-10-22,合同会社Ｐｅｇ,,合同会社,東京都,目黒区,下目黒５丁目１番１３号みかん館６０２号室,,13,110,1530064,,,2024-10-22,清算の結了等,,,2021-07-12,1,,,,,ペッグ,0
645,3010405020218,登記記録の閉鎖等,0,2024-11-20,2024-10-30,新御堂筋キャピタル一般社団法人,,その他の設立登記法人,東京都,港区,六本木１丁目６番１号泉ガーデンタワー,,13,103,1060032,,,2024-10-30,清算の結了等,,,2021-09-15,1,,,,,シンミドウスジキャピタル,0
662,3011002028884,登記記録の閉鎖等,0,2024-11-20,2024-10-23,有限会社エスアイデータ,,有限会社,東京都,渋谷区,富ヶ谷１丁目９番１６号,,13,113,1510063,,,2024-10-23,清算の結了等,,,2015-10-05,1,,,,,エスアイデータ,0
666,3011102029948,登記記録の閉鎖等,0,2024-11-20,2024-11-07,有限会社三賢商事,,有限会社,東京都,新宿区,上落合３丁目３４番２０号,,13,104,1610034,,,2024-11-07,清算の結了等,,,2015-10-05,1,,,,,サンケンショウジ,0
672,3011402004592,登記記録の閉鎖等,0,2024-11-20,2024-11-18,有限会社城西スポーツ,,有限会社,埼玉県,川越市,上野田町５８番地３,,11,201,3501112,,,2024-11-18,清算の結了等,,,2015-10-05,1,,,,,ジョウサイスポーツ,0
678,3011603002107,登記記録の閉鎖等,0,2024-11-20,2024-11-15,合同会社あかね訪問看護ステーション,,合同会社,東京都,練馬区,下石神井３丁目１－９,,13,120,1770042,,,2024-11-15,合併による解散等,3011201024957,令和６年１１月１日東京都中野区野方三丁目２５番８号ヤマシロビル２階株式会社ティーオン（3011201024957）に合併し解散,2017-06-08,1,,,,,アカネホウモンカンゴステーション,0
690,3012701009877,登記記録の閉鎖等,0,2024-11-20,2024-11-01,株式会社ジャパンライフエイト,,株式会社,東京都,東村山市,青葉町２丁目２５番地１９,,13,213,1890002,,,2024-11-01,清算の結了等,,,2015-10-05,1,,,,,ジャパンライフエイト,0
694,3012703002087,登記記録の閉鎖等,0,2024-11-20,2024-11-06,Ｄｉｖｅｒｄｉｄｏ合同会社,,合同会社,東京都,東久留米市,八幡町３丁目１３－４５,,13,222,2030042,,,2024-11-06,清算の結了等,,,2020-10-23,1,,,,,ディヴェルディード,0
709,3020003007120,登記記録の閉鎖等,0,2024-11-20,2024-11-05,合同会社ティエス興産,,合同会社,神奈川県,川崎市高津区,北見方２丁目６番２２－７４４号,,14,134,2130005,,,2024-11-05,清算の結了等,,,2015-10-05,1,,,,,ティエスコウサン,0
717,3021002040673,登記記録の閉鎖等,0,2024-11-20,2024-11-19,有限会社久保田商店,,有限会社,神奈川県,大和市,大和南１丁目７番３号,,14,213,2420016,,,2024-11-19,清算の結了等,,,2015-10-05,1,,,,,クボタショウテン,0
722,3030001141787,登記記録の閉鎖等,0,2024-11-20,2024-11-15,株式会社ＨＯＰＥ,,株式会社,埼玉県,吉川市,中曽根１丁目１６番６号,,11,243,3420033,,,2024-11-15,清算の結了等,,,2021-04-15,1,,,,,ホープ,0
728,3030005006854,登記記録の閉鎖等,0,2024-11-20,2024-11-11,医療法人輝友会,,その他の設立登記法人,埼玉県,朝霞市,本町２丁目１番１０号,,11,227,3510011,,,2024-11-11,清算の結了等,,,2015-10-05,1,,,,,キユウカイ,0
741,3040002061785,登記記録の閉鎖等,0,2024-11-20,2024-11-14,有限会社ロード佐倉,,有限会社,千葉県,佐倉市,鏑木町８５６番地１,,12,212,2850025,,,2024-11-14,清算の結了等,,,2015-10-05,1,,,,,ロードサクラ,0
752,3060002036422,登記記録の閉鎖等,0,2024-11-20,2024-11-18,有限会社霜田天狗堂,,有限会社,栃木県,足利市,雪輪町２４８４番地,,09,202,3260804,,,2024-11-18,清算の結了等,,,2015-10-05,1,,,,,シモダテングドウ,0
775,3120902008431,登記記録の閉鎖等,0,2024-11-20,2024-11-14,有限会社大阪自動販売機サービス,,有限会社,大阪府,高槻市,芝生町１丁目５９番１号,,27,207,5690823,,,2024-11-14,清算の結了等,,,2015-10-05,1,,,,,,0
777,3122001020615,登記記録の閉鎖等,0,2024-11-20,2024-11-19,龍華土建工業株式会社,,株式会社,大阪府,八尾市,太子堂４丁目３番１５号,,27,212,5810063,,,2024-11-19,清算の結了等,,,2015-10-05,1,,,,,リュウゲドケンコウギョウ,0
787,3140001041679,登記記録の閉鎖等,0,2024-11-20,2024-11-15,株式会社大江鈑金,,株式会社,兵庫県,丹波篠山市,小原５０４番地,,28,221,6692604,,,2024-11-15,清算の結了等,,,2015-10-05,1,,,,,オオエバンキン,0
805,3180002026626,登記記録の閉鎖等,0,2024-11-20,2024-11-11,有限会社瑞穂石油,,有限会社,愛知県,名古屋市天白区,向が丘２丁目６０９番地,,23,116,4680012,,,2024-11-11,清算の結了等,,,2015-10-05,1,,,,,ミズホセキユ,0
812,3190001005786,登記記録の閉鎖等,0,2024-11-20,2024-11-15,株式会社水野ガス,,株式会社,三重県,鈴鹿市,高塚町１８０２番地の２,,24,207,5130011,,,2024-11-15,合併による解散等,3200001004885,令和６年１１月１日岐阜市入舟町四丁目８番地の１株式会社マルエイ（3200001004885）に合併し解散,2015-10-05,1,,,,,ミズノガス,0
820,3220002006053,登記記録の閉鎖等,0,2024-11-20,2024-11-18,有限会社山下工業,,有限会社,石川県,金沢市,月浦町ハ１４０番地,,17,201,9200178,,,2024-11-18,清算の結了等,,,2015-10-05,1,,,,,ヤマシタコウギョウ,0
825,3240002050009,登記記録の閉鎖等,0,2024-11-20,2024-11-18,有限会社井上畳材,,有限会社,広島県,尾道市,高須町３８１４番地の８,,34,205,7290141,,,2024-11-18,清算の結了等,,,2015-10-05,1,,,,,イノウエジョウザイ,0
829,3270001006248,登記記録の閉鎖等,0,2024-11-20,2024-11-19,日本デベロップ株式会社,,株式会社,鳥取県,鳥取市,古海３０１－８,,31,201,6800921,,,2024-11-19,清算の結了等,,,2015-10-05,1,,,,,ニホンデベロップ,0
840,3290802010157,登記記録の閉鎖等,0,2024-11-20,2024-10-29,有限会社門司地所,,有限会社,福岡県,北九州市門司区,柳町３丁目４番１８号,,40,101,8000025,,,2024-10-29,清算の結了等,,,2015-10-05,1,,,,,モジヂショ,0
851,3340002003352,登記記録の閉鎖等,0,2024-11-20,2024-11-18,有限会社南日本総合保険事務所,,有限会社,鹿児島県,鹿児島市,西陵５丁目１０番１３号,,46,201,8900032,,,2024-11-18,清算の結了等,,,2015-10-05,1,,,,,ミナミニホンソウゴウホケンジムショ,0
852,3340002014829,登記記録の閉鎖等,0,2024-11-20,2024-10-30,有限会社貴島測量設計,,有限会社,鹿児島県,伊佐市,菱刈川北２０５番地,,46,224,8952708,,,2024-10-30,清算の結了等,,,2015-10-05,1,,,,,キジマソクリョウセッケイ,0
859,3370001045896,登記記録の閉鎖等,0,2024-11-20,2024-11-08,株式会社鈴木清掃社,,株式会社,宮城県,富谷市,日吉台１丁目１９番地７,,04,216,9813362,,,2024-11-08,清算の結了等,,,2020-07-03,1,,,,,スズキセイソウシャ,0
861,3370002011690,登記記録の閉鎖等,0,2024-11-20,2024-11-12,有限会社杉本屋,,有限会社,宮城県,仙台市青葉区,一番町４丁目３番３０号,,04,101,9800811,,,2024-11-12,清算の結了等,,,2015-10-05,1,,,,,スギモトヤ,0
871,3410002003015,登記記録の閉鎖等,0,2024-11-20,2024-11-15,有限会社八田工務店,,有限会社,秋田県,秋田市,太平八田字藤ノ崎１７１番地,,05,201,0101101,,,2024-11-15,清算の結了等,,,2015-10-05,1,,,,,ハッタコウムテン,0
873,3430001016899,登記記録の閉鎖等,0,2024-11-20,2024-11-14,株式会社メディア・サポート,,株式会社,北海道,札幌市北区,北三十二条西９丁目１番６号,,01,102,0010032,,,2024-11-14,清算の結了等,,,2015-10-05,1,,,,,メディアサポート,0
924,4010101007724,登記記録の閉鎖等,0,2024-11-20,2024-11-15,株式会社フッキーミュージック,,株式会社,東京都,八王子市,元八王子町３丁目２７５０番地６９４,,13,201,1930826,,,2024-11-15,清算の結了等,,,2015-10-05,1,,,,,フッキーミュージック,0
929,4010401169132,登記記録の閉鎖等,0,2024-11-20,2024-11-05,株式会社ＫＮＣ　Ｐｌａｎｎｉｎｇ,,株式会社,東京都,港区,芝５丁目２６番２４号田町スクエア２Ｆ,,13,103,1080014,,,2024-11-05,清算の結了等,,,2022-08-19,1,,,,,ケーエヌシープランニング,0
966,4011001139129,登記記録の閉鎖等,0,2024-11-20,2024-11-05,株式会社クラン,,株式会社,東京都,千代田区,平河町１丁目９番６号,,13,101,1020093,,,2024-11-05,清算の結了等,,,2021-03-16,1,,,,,クラン,0
978,4011401015945,登記記録の閉鎖等,0,2024-11-20,2024-11-12,株式会社コーポレートデザインリンケージ,,株式会社,東京都,板橋区,中丸町８番１－９０２号,,13,119,1730026,,,2024-11-12,清算の結了等,,,2015-10-05,1,,,,,コーポレートデザインリンケージ,0
979,4011401018816,登記記録の閉鎖等,0,2024-11-20,2024-11-12,株式会社オーシャンフロンティア,,株式会社,東京都,板橋区,弥生町７８番３号,,13,119,1730021,,,2024-11-12,清算の結了等,,,2015-10-05,1,,,,,オーシャンフロンティア,0
988,4012302007734,登記記録の閉鎖等,0,2024-11-20,2024-11-07,有限会社成章堂,,有限会社,東京都,町田市,玉川学園４丁目４番１４号,,13,209,1940041,,,2024-11-07,清算の結了等,,,2015-10-05,1,,,,,,0
995,4020001004135,登記記録の閉鎖等,0,2024-11-20,2024-11-06,株式会社ダイソー,,株式会社,神奈川県,横浜市港南区,港南５丁目１０番１１号,,14,111,2330003,,,2024-11-06,清算の結了等,,,2015-10-05,1,,,,,ダイソー,0
1005,4020002019537,登記記録の閉鎖等,0,2024-11-20,2024-11-07,有限会社英工業,,有限会社,神奈川県,横浜市港南区,笹下５丁目２６番２号,,14,111,2340052,,,2024-11-07,清算の結了等,,,2015-10-05,1,,,,,ハナブサコウギョウ,0
1018,4021001008134,登記記録の閉鎖等,0,2024-11-20,2024-11-18,株式会社プルーフ・ジャパン,,株式会社,神奈川県,茅ヶ崎市,東海岸南６丁目４番７５号,,14,207,2530054,,,2024-11-18,清算の結了等,,,2015-10-05,1,,,,,プルーフジャパン,0
1031,4030002065068,登記記録の閉鎖等,0,2024-11-20,2024-11-07,有限会社オー・ディ・エー,,有限会社,東京都,西東京市,下保谷３丁目１９番１０号フラッツフォーレスト２０１号,,13,229,2020004,,,2024-11-07,清算の結了等,,,2015-10-05,1,,,,,オーディエー,0
1048,4040002061215,登記記録の閉鎖等,0,2024-11-20,2024-11-15,寺田建工有限会社,,有限会社,千葉県,佐倉市,山王１丁目２８番地６,,12,212,2850807,,,2024-11-15,清算の結了等,,,2015-10-05,1,,,,,テラダケンコウ,0
1090,4120001222957,登記記録の閉鎖等,0,2024-11-20,2024-11-19,株式会社グローバルマネージメント,,株式会社,奈良県,奈良市,疋田町４丁目１３４番地の１０,,29,201,6310843,,,2024-11-19,清算の結了等,,,2019-08-22,1,,,,,グローバルマネージメント,0
1091,4120001238854,登記記録の閉鎖等,0,2024-11-20,2024-11-18,株式会社シェリ,,株式会社,大阪府,大阪市中央区,安土町２丁目３－１３大阪国際ビルディング３１Ｆ,,27,128,5410052,,,2024-11-18,清算の結了等,,,2021-07-09,1,,,,,シェリ,0
1121,4140002029053,登記記録の閉鎖等,0,2024-11-20,2024-11-15,有限会社鈴木部品商会,,有限会社,兵庫県,明石市,魚住町清水２３９５番地の１５０,,28,203,6740074,,,2024-11-15,清算の結了等,,,2015-10-05,1,,,,,スズキブヒンショウカイ,0
1124,4140002062269,登記記録の閉鎖等,0,2024-11-20,2024-11-18,有限会社カネコメガネ,,有限会社,兵庫県,加西市,北条町古坂１丁目１１２番地,,28,220,6752303,,,2024-11-18,清算の結了等,,,2015-10-05,1,,,,,カネコメガネ,0
1131,4180001153610,登記記録の閉鎖等,0,2024-11-20,2024-11-11,株式会社ＳＡＮＡＧＩ,,株式会社,愛知県,名古屋市中川区,下之一色町字波花１１１,,23,110,4540945,,,2024-11-11,清算の結了等,,,2022-11-02,1,,,,,サナギ,0
1139,4180002031344,登記記録の閉鎖等,0,2024-11-20,2024-11-11,有限会社鈴木商会,,有限会社,愛知県,名古屋市中区,千代田３丁目６番１５号,,23,106,4600012,,,2024-11-11,清算の結了等,,,2015-10-05,1,,,,,スズキショウカイ,0
1152,4220001021218,登記記録の閉鎖等,0,2024-11-20,2024-11-11,株式会社ビクトリア・ギルド,,株式会社,石川県,金沢市,長田本町チ２０番地１,,17,201,9200041,,,2024-11-11,清算の結了等,,,2016-09-08,1,,,,,,0
1155,4240001002018,登記記録の閉鎖等,0,2024-11-20,2024-11-18,株式会社オプテック,,株式会社,広島県,広島市安佐南区,伴南１丁目９番１４号,,34,105,7313168,,,2024-11-18,清算の結了等,,,2015-10-05,1,,,,,オプテック,0
1157,4250002015331,登記記録の閉鎖等,0,2024-11-20,2024-11-14,有限会社松葉屋,,有限会社,山口県,周南市,毛利町３丁目３９番地,,35,215,7450004,,,2024-11-14,清算の結了等,,,2015-10-05,1,,,,,,0
1162,4260002024380,登記記録の閉鎖等,0,2024-11-20,2024-11-13,有限会社えるざの家,,有限会社,岡山県,倉敷市,水島相生町１６番６号,,33,202,7128039,,,2024-11-13,清算の結了等,,,2015-10-05,1,,,,,エルザノイエ,0
1170,4290001103323,登記記録の閉鎖等,0,2024-11-20,2024-10-16,株式会社ビットコマース,,株式会社,福岡県,福岡市博多区,博多駅前２丁目１９番１７号トーカン博多第５ビル３１２号室,,40,132,8120011,,,2024-10-16,清算の結了等,,,2023-10-10,1,,,,,ビットコマース,0
1177,4290801009802,登記記録の閉鎖等,0,2024-11-20,2024-11-18,九州プラント機工株式会社,,株式会社,福岡県,北九州市八幡西区,医生ケ丘１０番３０－５号,,40,109,8070804,,,2024-11-18,清算の結了等,,,2015-10-05,1,,,,,キュウシュウプラントキコウ,0
1183,4320202000497,登記記録の閉鎖等,0,2024-11-20,2024-11-18,有限会社渡辺製作所,,有限会社,大分県,臼杵市,大字臼杵字洲崎７２番地１７,,44,206,8750041,,,2024-11-18,清算の結了等,,,2015-10-05,1,,,,,,0
1196,4370501000623,登記記録の閉鎖等,0,2024-11-20,2024-11-12,株式会社三浦石油,,株式会社,宮城県,本吉郡南三陸町,歌津字田の浦１８０番地３,,04,606,9880415,,,2024-11-12,清算の結了等,,,2015-10-05,1,,,,,ミウラセキユ,0
1197,4380001032298,登記記録の閉鎖等,0,2024-11-20,2024-11-01,株式会社ブリス,,株式会社,福島県,郡山市,朝日２丁目２３番１０号,,07,203,9638024,,,2024-11-01,合併による解散等,1380001008136,令和６年１１月１日福島県郡山市朝日二丁目２３番１０号株式会社クリア・ライフ（1380001008136）に合併し解散,2021-11-08,1,,,,,ブリス,0
1202,4410003003764,登記記録の閉鎖等,0,2024-11-20,2024-11-15,合同会社旬,,合同会社,秋田県,仙北市,西木町西荒井字中野１２３番地１,,05,215,0140514,,,2024-11-15,清算の結了等,,,2023-03-09,1,,,,,シュン,0
1203,4430001070887,登記記録の閉鎖等,0,2024-11-20,2024-11-18,株式会社一鐵,,株式会社,北海道,小樽市,錦町１６番７号,,01,203,0470039,,,2024-11-18,清算の結了等,,,2016-02-16,1,,,,,イッテツ,0
1249,5010003029469,登記記録の閉鎖等,0,2024-11-20,2024-11-06,ＫＲＦ８５インベストメント合同会社,,合同会社,東京都,千代田区,飯田橋４丁目７番１号結和税理士法人内,,13,101,1020072,,,2024-11-06,清算の結了等,,,2019-03-13,1,,,,,ケイアールエフエイティファイブインベストメント,0
1254,5010003033529,登記記録の閉鎖等,0,2024-11-20,2024-11-14,合同会社ひと空間,,合同会社,東京都,品川区,南品川４丁目４番６号,,13,109,1400004,,,2024-11-14,清算の結了等,,,2020-11-13,1,,,,,ヒトクウカン,0
1267,5010403028665,登記記録の閉鎖等,0,2024-11-20,2024-11-05,ｒｅｎｇａ第０号合同会社,,合同会社,東京都,港区,赤坂４丁目１５番１号赤坂ガーデンシティ３階,,13,103,1070052,,,2024-11-05,清算の結了等,,,2022-10-11,1,,,,,レンガダイゼロゴウ,0
1286,5011001148244,登記記録の閉鎖等,0,2024-11-20,2024-10-18,Ｇｒｅｅｎ　ａｎｄ　Ｂｌａｃｋ株式会社,,株式会社,東京都,渋谷区,広尾１丁目１５－３クオリア恵比寿パークフロント１３０５,,13,113,1500012,,,2024-10-18,清算の結了等,,,2022-06-24,1,,,,,グリーンアンドブラック,0
1293,5011101053625,登記記録の閉鎖等,0,2024-11-20,2024-11-08,株式会社ムーバイル,,株式会社,東京都,新宿区,西新宿３丁目２０番２号,,13,104,1600023,,,2024-11-08,清算の結了等,,,2015-10-05,1,,,,,ムーバイル,0
1303,5011402009144,登記記録の閉鎖等,0,2024-11-20,2024-11-12,有限会社山崎紙器,,有限会社,東京都,板橋区,赤塚７丁目２３番８号,00066328,13,119,1750092,,,2024-11-12,清算の結了等,,,2015-10-05,1,,,,,ヤマザキシキ,0
1308,5012401010076,登記記録の閉鎖等,0,2024-11-20,2024-11-06,株式会社オートコア,,株式会社,東京都,小平市,上水本町２丁目１４番１号,,13,211,1870022,,,2024-11-06,清算の結了等,,,2015-10-05,1,,,,,オートコア,0
1337,5030001104346,登記記録の閉鎖等,0,2024-11-20,2024-11-15,株式会社ワイ・エス・ティー,,株式会社,埼玉県,越谷市,東越谷６丁目２０５番地８,,11,222,3430023,,,2024-11-15,清算の結了等,,,2015-10-05,1,,,,,ワイエスティー,0
1342,5030001141629,登記記録の閉鎖等,0,2024-11-20,2024-11-12,富昌金融貿易株式会社,,株式会社,東京都,豊島区,巣鴨１丁目１１－２巣鴨陽光ハイツ３１０号室,,13,116,1700002,,,2024-11-12,清算の結了等,,,2021-04-07,1,,,,,フショウキンユウボウエキ,0
1351,5030002103792,登記記録の閉鎖等,0,2024-11-20,2024-11-15,正和鉄工有限会社,,有限会社,埼玉県,川口市,飯原町５番２９号,,11,203,3320024,,,2024-11-15,清算の結了等,,,2015-10-05,1,,,,,ショウワテッコウ,0
1354,5040001013315,登記記録の閉鎖等,0,2024-11-20,2024-11-15,株式会社ジュエリー・ブティックロジェ・ルカ,,株式会社,千葉県,千葉市美浜区,ひび野２丁目１０番地１,,12,106,2610021,,,2024-11-15,清算の結了等,,,2015-10-05,1,,,,,ジュエリーブティックロジェルカ,0
1355,5040001045515,登記記録の閉鎖等,0,2024-11-20,2024-11-15,株式会社和音,,株式会社,千葉県,成田市,飯仲３２７番地１,,12,211,2860046,,,2024-11-15,清算の結了等,,,2015-10-05,1,,,,,ワオン,0
1369,5050002041322,登記記録の閉鎖等,0,2024-11-20,2024-11-12,有限会社菅谷工業,,有限会社,茨城県,常総市,古間木１６１１番地,,08,211,3002724,,,2024-11-12,清算の結了等,,,2015-10-05,1,,,,,スガヤコウギョウ,0
1384,5110001031680,登記記録の閉鎖等,0,2024-11-20,2024-11-13,日栄建機株式会社,,株式会社,新潟県,新潟市西区,小針６丁目６番６号,,15,107,9502022,,,2024-11-13,清算の結了等,,,2016-07-20,1,,,,,ニチエイケンキ,0
1389,5120001095139,登記記録の閉鎖等,0,2024-11-20,2024-11-14,滋賀積水樹脂株式会社,,株式会社,大阪府,大阪市北区,西天満２丁目４番４号,,27,127,5300047,,,2024-11-14,合併による解散等,9120001059651,令和６年１１月１日大阪市北区西天満二丁目４番４号積水樹脂株式会社（9120001059651）に合併し解散,2015-10-05,1,,,,,シガセキスイジュシ,0
1422,5140005021485,登記記録の閉鎖等,0,2024-11-20,2024-11-19,特定非営利活動法人輝きクラブ,,その他の設立登記法人,兵庫県,小野市,市場町２５５番地,,28,218,6751327,,,2024-11-19,清算の結了等,,,2015-10-05,1,,,,,カガヤキクラブ,0
1425,5150001009236,登記記録の閉鎖等,0,2024-11-20,2024-11-19,ウエソー株式会社,,株式会社,奈良県,桜井市,大字大豆越１５５番地の５,,29,206,6330087,,,2024-11-19,清算の結了等,,,2015-10-05,1,,,,,ウエソー,0
1428,5160001018797,登記記録の閉鎖等,0,2024-11-20,2024-11-15,株式会社ＢＡＩＦＵＮ,,株式会社,大阪府,寝屋川市,点野５丁目２２番２２号,,27,215,5720077,,,2024-11-15,清算の結了等,,,2015-10-05,1,,,,,バイファン,0
1453,5180302022645,登記記録の閉鎖等,0,2024-11-20,2024-11-11,有限会社ダック,,有限会社,愛知県,豊田市,高岡町流川３５番地１,,23,211,4730933,,,2024-11-11,清算の結了等,,,2015-10-05,1,,,,,ダック,0
1454,5180302024542,登記記録の閉鎖等,0,2024-11-20,2024-11-13,有限会社深見栄晃社,,有限会社,愛知県,豊田市,近岡町藤ノ木５５番地,,23,211,4442355,,,2024-11-13,清算の結了等,,,2015-10-05,1,,,,,フカミエイコウシャ,0
1456,5190001003961,登記記録の閉鎖等,0,2024-11-20,2024-11-15,株式会社日章,,株式会社,三重県,津市,渋見町５５４番地３０,,24,201,5140063,,,2024-11-15,清算の結了等,,,2015-10-05,1,,,,,ニッショウ,0
1464,5220002012181,登記記録の閉鎖等,0,2024-11-20,2024-11-11,有限会社鳳,,有限会社,石川県,加賀市,山代温泉桔梗丘１丁目１６番地,,17,206,9220257,,,2024-11-11,清算の結了等,,,2015-10-05,1,,,,,,0
1477,5290001082888,登記記録の閉鎖等,0,2024-11-20,2024-10-17,株式会社Ｄ－ｐａｒｔｎｅｒｓ,,株式会社,福岡県,福岡市南区,長住２丁目２２－５,,40,134,8111362,,,2024-10-17,清算の結了等,,,2018-10-05,1,,,,,ディーパートナーズ,0
1485,5290005017774,登記記録の閉鎖等,0,2024-11-20,2024-11-15,一般社団法人民泊コミュニティ協会,,その他の設立登記法人,福岡県,福岡市南区,平和２丁目２４番２７号,,40,134,8150071,,,2024-11-15,清算の結了等,,,2020-05-22,1,,,,,ミンパクコミュニティキョウカイ,0
1486,5290801018389,登記記録の閉鎖等,0,2024-11-20,2024-11-15,株式会社アクセス・リサーチ,,株式会社,福岡県,北九州市小倉北区,霧ケ丘２丁目８番３４号,,40,106,8020052,,,2024-11-15,清算の結了等,,,2015-10-05,1,,,,,アクセスリサーチ,0
1487,5290802015014,登記記録の閉鎖等,0,2024-11-20,2024-11-18,有限会社ハッピー理美容,,有限会社,福岡県,北九州市八幡西区,折尾１丁目９番６号,,40,109,8070825,,,2024-11-18,清算の結了等,,,2015-10-05,1,,,,,ハッピーリビヨウ,0
1491,5330001019010,登記記録の閉鎖等,0,2024-11-20,2024-11-11,株式会社なごみ屋,,株式会社,熊本県,天草市,栖本町打田３６３番地１,,43,215,8616301,,,2024-11-11,清算の結了等,,,2015-10-05,1,,,,,ナゴミヤ,0
1493,5330002000282,登記記録の閉鎖等,0,2024-11-20,2024-11-08,有限会社アスカ商事,,有限会社,熊本県,熊本市北区,麻生田３丁目１５番３号,,43,105,8618081,,,2024-11-08,清算の結了等,,,2015-10-05,1,,,,,アスカショウジ,0
1497,5350001009562,登記記録の閉鎖等,0,2024-11-20,2024-11-15,宮崎総合開発株式会社,,株式会社,宮崎県,日南市,北郷町北河内字月之輪６５１６番地,,45,204,8892403,,,2024-11-15,清算の結了等,,,2015-10-05,1,,,,,ミヤザキソウゴウカイハツ,0
1500,5350002014479,登記記録の閉鎖等,0,2024-11-20,2024-11-15,有限会社つか野,,有限会社,宮崎県,都城市,上町７街区２１号,,45,202,8850072,,,2024-11-15,清算の結了等,,,2015-10-05,1,,,,,ツカノ,0
1511,5390002007883,登記記録の閉鎖等,0,2024-11-20,2024-11-12,有限会社藤波園茶舗,,有限会社,山形県,酒田市,中町１丁目７番７号,,06,204,9980044,,,2024-11-12,清算の結了等,,,2015-10-05,1,,,,,フジナミエンチャホ,0
1512,5390005005595,登記記録の閉鎖等,0,2024-11-20,2024-11-12,特定非営利活動法人ネイチャーアカデミーもがみ,,その他の設立登記法人,山形県,最上郡鮭川村,大字川口２８３４番地,,06,366,9995203,,,2024-11-12,清算の結了等,,,2015-10-05,1,,,,,ネイチャーアカデミーモガミ,0
1517,5430001040906,登記記録の閉鎖等,0,2024-11-20,2024-11-15,株式会社早瀬建築事務所,,株式会社,北海道,札幌市東区,東雁来七条１丁目４番２号,,01,103,0070827,,,2024-11-15,清算の結了等,,,2015-10-05,1,,,,,ハヤセケンチクジムショ,0
1518,5430001042893,登記記録の閉鎖等,0,2024-11-20,2024-11-15,株式会社インフォシーズ,,株式会社,北海道,江別市,元江別８３１番地の６７,,01,217,0670032,,,2024-11-15,清算の結了等,,,2015-10-05,1,,,,,インフォシーズ,0
1519,5430001084333,登記記録の閉鎖等,0,2024-11-20,2024-11-18,株式会社Ｓｅｉｋｅｎ　Ｗｏｒｋｓ,,株式会社,北海道,札幌市白石区,東米里２０８１番４２、７１,,01,104,0030876,,,2024-11-18,清算の結了等,,,2021-06-18,1,,,,,セイケンワークス,0
1525,5430002021376,登記記録の閉鎖等,0,2024-11-20,2024-11-06,有限会社四谷構造設計,,有限会社,北海道,札幌市豊平区,美園九条３丁目１番２７－３０１号,,01,105,0620009,,,2024-11-06,清算の結了等,,,2015-10-05,1,,,,,ヨツヤコウゾウセッケイ,0
1544,6010002012383,登記記録の閉鎖等,0,2024-11-20,2024-11-06,有限会社ツカモト,,有限会社,東京都,千代田区,紀尾井町４番１号,,13,101,1020094,,,2024-11-06,清算の結了等,,,2015-10-05,1,,,,,ツカモト,0
1568,6010003029063,登記記録の閉鎖等,0,2024-11-20,2024-11-06,ＫＲＦ７８インベストメント合同会社,,合同会社,東京都,千代田区,飯田橋４丁目７番１号結和税理士法人内,,13,101,1020072,,,2024-11-06,清算の結了等,,,2019-01-16,1,,,,,ケイアールエフセブンティエイトインベストメント,0
1583,6010403018797,登記記録の閉鎖等,0,2024-11-20,2024-11-18,スカーレットジャパン合同会社,,合同会社,東京都,新宿区,神楽坂３丁目６番地近藤ビル３０１,,13,104,1620825,,,2024-11-18,合併による解散等,9010403018745,令和６年１１月１日東京都中央区銀座八丁目１１番１３号ＩＳ銀座レジデンス４０１スクレジャパン合同会社（9010403018745）に合併し解散,2018-06-20,1,,,,,スカーレットジャパン,0
1586,6010403026404,登記記録の閉鎖等,0,2024-11-20,2024-11-18,王子管理合同会社,,合同会社,東京都,北区,王子４丁目１６番２号,,13,117,1140002,,,2024-11-18,合併による解散等,9010403018745,令和６年１１月１日東京都中央区銀座八丁目１１番１３号ＩＳ銀座レジデンス４０１スクレジャパン合同会社（9010403018745）に合併し解散,2021-10-27,1,,,,,オウジカンリ,0
1610,6011001158449,登記記録の閉鎖等,0,2024-11-20,2024-10-24,株式会社ＧＩＦＴＯ,,株式会社,東京都,渋谷区,恵比寿西１丁目３３番６号１Ｆ,,13,113,1500021,,,2024-10-24,清算の結了等,,,2023-11-27,1,,,,,ギフト,0
1618,6011201005104,登記記録の閉鎖等,0,2024-11-20,2024-11-15,株式会社増峰,,株式会社,東京都,中野区,弥生町１丁目７番５号,,13,114,1640013,,,2024-11-15,清算の結了等,,,2015-10-05,1,,,,,,0
1625,6011501026576,登記記録の閉鎖等,0,2024-11-20,2024-11-11,彦株式会社,,株式会社,大阪府,大阪市東淀川区,瑞光２丁目１２番３３号ヴィラ瑞光４０３号室,,27,114,5330005,,,2024-11-11,清算の結了等,,,2021-01-29,1,,,,,ヒコ,0
1637,6020001063798,登記記録の閉鎖等,0,2024-11-20,2024-11-19,株式会社インテリアタマ・百合ケ丘店,,株式会社,東京都,多摩市,落合５丁目８番地２０,,13,224,2060033,,,2024-11-19,清算の結了等,,,2015-10-05,1,,,,,インテリアタマユリガオカテン,0
1638,6020001067774,登記記録の閉鎖等,0,2024-11-20,2024-11-08,三和緑化株式会社,,株式会社,神奈川県,川崎市宮前区,潮見台６番５号,,14,136,2160013,,,2024-11-08,清算の結了等,,,2015-10-05,1,,,,,サンワリョクカ,0
1639,6020001094307,登記記録の閉鎖等,0,2024-11-20,2024-11-06,ビジョンソリューションズ・ジャパン株式会社,,株式会社,東京都,中央区,日本橋３丁目９番１号日本橋三丁目スクエア１１階,,13,102,1030027,,,2024-11-06,清算の結了等,,,2015-10-05,1,,,,,ビジョンソリューションズジャパン,0
1645,6020002027001,登記記録の閉鎖等,0,2024-11-20,2024-11-06,有限会社タイコー製作所,,有限会社,東京都,大田区,萩中２丁目６番５号,,13,111,1440047,,,2024-11-06,清算の結了等,,,2015-10-05,1,,,,,タイコーセイサクショ,0
1648,6020002064886,登記記録の閉鎖等,0,2024-11-20,2024-11-05,有限会社コット,,有限会社,神奈川県,横浜市保土ケ谷区,新桜ケ丘２丁目１３番９号,,14,106,2400036,,,2024-11-05,清算の結了等,,,2015-10-05,1,,,,,コット,0
1655,6021002011564,登記記録の閉鎖等,0,2024-11-20,2024-11-06,有限会社デンサンサービス,,有限会社,神奈川県,横浜市港北区,新羽町１７６７番地,,14,109,2230057,,,2024-11-06,清算の結了等,,,2015-10-05,1,,,,,デンサンサービス,0
1667,6030002010154,登記記録の閉鎖等,0,2024-11-20,2024-11-15,有限会社和工房,,有限会社,埼玉県,さいたま市北区,宮原町１丁目３４４番地の２,,11,102,3310812,,,2024-11-15,合併による解散等,6050001009303,令和６年１０月３１日茨城県土浦市富士崎一丁目１６番２号株式会社ジョイフル本田（6050001009303）に合併し解散,2015-10-05,1,,,,,ナゴミコウボウ,0
1672,6040001033551,登記記録の閉鎖等,0,2024-11-20,2024-11-15,株式会社丸一製作所,,株式会社,千葉県,市川市,北国分３丁目１４番２号,,12,203,2720836,,,2024-11-15,清算の結了等,,,2015-10-05,1,,,,,,0
1673,6040001059786,登記記録の閉鎖等,0,2024-11-20,2024-11-18,株式会社神代工業,,株式会社,千葉県,長生郡一宮町,宮原６９３番地,,12,421,2994312,,,2024-11-18,清算の結了等,,,2015-10-05,1,,,,,カジロコウギョウ,0
1674,6040001061107,登記記録の閉鎖等,0,2024-11-20,2024-11-14,昭和通信株式会社,,株式会社,千葉県,匝瑳市,八日市場ハの８７３番地,,12,235,2892141,,,2024-11-14,清算の結了等,,,2015-10-05,1,,,,,,0
1689,6080102001759,登記記録の閉鎖等,0,2024-11-20,2024-11-18,有限会社伸和工業,,有限会社,静岡県,沼津市,大岡４９５番地の６,,22,203,4100022,,,2024-11-18,清算の結了等,,,2015-10-05,1,,,,,シンワコウギョウ,0
1695,6080405006208,登記記録の閉鎖等,0,2024-11-20,2024-11-14,アレックスロード土地家屋調査士法人,,その他の設立登記法人,静岡県,浜松市中央区,船越町５４番１７号,,22,138,4300913,,,2024-11-14,清算の結了等,,,2015-10-05,1,,,,,アレックスロード,0
1711,6120001258033,登記記録の閉鎖等,0,2024-11-20,2024-11-15,株式会社湊,,株式会社,大阪府,大阪市北区,東天満１丁目１１－１３,,27,127,5300044,,,2024-11-15,清算の結了等,,,2023-09-08,1,,,,,ミナト,0
1739,6140001013956,登記記録の閉鎖等,0,2024-11-20,2024-11-18,ぴいえいと株式会社,,株式会社,兵庫県,神戸市兵庫区,御崎本町１丁目１番６号,,28,105,6520852,,,2024-11-18,清算の結了等,,,2015-10-05,1,,,,,ピイエイト,0
1744,6140002060444,登記記録の閉鎖等,0,2024-11-20,2024-11-15,有限会社プライム薬局,,有限会社,兵庫県,西宮市,大谷町１１番３５－ＤＢ２０２号,,28,204,6620054,,,2024-11-15,清算の結了等,,,2015-10-05,1,,,,,プライムヤッキョク,0
1754,6180001054501,登記記録の閉鎖等,0,2024-11-20,2024-11-08,株式会社ウィズダムウェブ,,株式会社,愛知県,名古屋市千種区,千種２丁目２４番１８号ライオンズガーデン千種アーススクエア６０６号室,,23,101,4640858,,,2024-11-08,清算の結了等,,,2015-10-05,1,,,,,ウィズダムウェブ,0
1762,6180003015534,登記記録の閉鎖等,0,2024-11-20,2024-11-07,合同会社ＪＩＮ　ＴＲＡＮＳＰＯＲＴ,,合同会社,愛知県,一宮市,西大海道字新田前２２－１リンピアＩＮＯＵＥ３０５号,,23,203,4910005,,,2024-11-07,清算の結了等,,,2015-10-05,1,,,,,ジントランスポート,0
1783,6260002027984,登記記録の閉鎖等,0,2024-11-20,2024-11-14,有限会社鶴山印刷,,有限会社,岡山県,津山市,高尾６７１番地,,33,203,7080876,,,2024-11-14,清算の結了等,,,2015-10-05,1,,,,,カクザンインサツ,0
1786,6280002000568,登記記録の閉鎖等,0,2024-11-20,2024-11-19,有限会社勝田商店,,有限会社,島根県,松江市,白潟本町３７番地,,32,201,6900000,,,2024-11-19,清算の結了等,,,2015-10-05,1,,,,,カッタショウテン,0
1812,6410001007609,登記記録の閉鎖等,0,2024-11-20,2024-11-15,株式会社あいあん,,株式会社,秋田県,能代市,住吉町９番２９号,,05,202,0160824,,,2024-11-15,清算の結了等,,,2015-10-05,1,,,,,アイアン,0
1832,7010001153921,登記記録の閉鎖等,0,2024-11-20,2024-11-06,シュガームーンシティ株式会社,,株式会社,東京都,中央区,日本橋２丁目２番３号リッシュビルＵＣＦ４階,,13,102,1030027,,,2024-11-06,清算の結了等,,,2015-10-05,1,,,,,シュガームーンシティ,0
1833,7010001181121,登記記録の閉鎖等,0,2024-11-20,2024-11-01,オリーブ株式会社,,株式会社,東京都,千代田区,内神田２丁目５番２号,,13,101,1010047,,,2024-11-01,合併による解散等,7010001150010,令和６年１１月１日東京都中央区銀座八丁目３番１０号俺の株式会社（7010001150010）に合併し解散,2017-01-30,1,,,,,オリーブ,0
1881,7010403023375,登記記録の閉鎖等,0,2024-11-20,2024-11-18,ＴＢｌｕｅ合同会社,,合同会社,東京都,江東区,亀戸３丁目６０番１４号,,13,108,1360071,,,2024-11-18,合併による解散等,9010403018745,令和６年１１月１日東京都中央区銀座八丁目１１番１３号ＩＳ銀座レジデンス４０１スクレジャパン合同会社（9010403018745）に合併し解散,2020-07-29,1,,,,,ティーブルー,0
1885,7010405020998,登記記録の閉鎖等,0,2024-11-20,2024-10-29,一般社団法人ＨＯＰＥ医療福祉支援協会,,その他の設立登記法人,東京都,港区,赤坂４丁目８番１９号赤坂フロントタウン３階,,13,103,1070052,,,2024-10-29,清算の結了等,,,2022-05-24,1,,,,,ホープイリョウフクシシエンキョウカイ,0
1905,7011001124202,登記記録の閉鎖等,0,2024-11-20,2024-11-18,株式会社ＧＲＩＰ,,株式会社,埼玉県,さいたま市南区,内谷４丁目９番３号,,11,108,3360034,,,2024-11-18,清算の結了等,,,2018-09-12,1,,,,,グリップ,0
1923,7012302007525,登記記録の閉鎖等,0,2024-11-20,2024-11-11,有限会社タウ総研,,有限会社,東京都,町田市,相原町１８００番地７６,,13,209,1940211,,,2024-11-11,清算の結了等,,,2015-10-05,1,,,,,タウソウケン,0
1924,7012401023357,登記記録の閉鎖等,0,2024-11-20,2024-11-19,株式会社橘,,株式会社,東京都,三鷹市,井の頭５丁目４番１８号,,13,204,1810001,,,2024-11-19,清算の結了等,,,2015-10-05,1,,,,,タチバナ,0
1927,7013201005594,登記記録の閉鎖等,0,2024-11-20,2024-10-24,丸宏建設株式会社,,株式会社,東京都,目黒区,五本木１丁目３３番１１号,,13,110,1530053,,,2024-10-24,清算の結了等,,,2015-10-05,1,,,,,マルヒロケンセツ,0
1932,7020001010650,登記記録の閉鎖等,0,2024-11-20,2024-11-05,南関東リース株式会社,,株式会社,神奈川県,横浜市保土ケ谷区,仏向町２０５番地エビナビル１階,,14,106,2400044,,,2024-11-05,清算の結了等,,,2015-10-05,1,,,,,ミナミカントウリース,0
1934,7020001087870,登記記録の閉鎖等,0,2024-11-20,2024-11-11,株式会社ＡＮＧＥＬ,,株式会社,東京都,中央区,銀座６丁目６番１号銀座風月堂ビル５階,,13,102,1040061,,,2024-11-11,清算の結了等,,,2015-10-05,1,,,,,エンジェル,0
1943,7020005008526,登記記録の閉鎖等,0,2024-11-20,2024-11-06,特定非営利活動法人地域福祉研究室ｐｉｐｉ,,その他の設立登記法人,神奈川県,川崎市宮前区,菅生２丁目２１番１２号,,14,136,2160015,,,2024-11-06,清算の結了等,,,2015-10-05,1,,,,,チイキフクシケンキュウシツピピ,0
1950,7021002012339,登記記録の閉鎖等,0,2024-11-20,2024-11-18,有限会社山田総業,,有限会社,神奈川県,茅ヶ崎市,東海岸南６丁目４番７５号,,14,207,2530054,,,2024-11-18,清算の結了等,,,2015-10-05,1,,,,,ヤマダソウギョウ,0
1960,7030002087893,登記記録の閉鎖等,0,2024-11-20,2024-11-15,有限会社朋亜,,有限会社,埼玉県,越谷市,大字大竹８５２番地４,,11,222,3430034,,,2024-11-15,清算の結了等,,,2015-10-05,1,,,,,ホウア,0
1963,7040001042345,登記記録の閉鎖等,0,2024-11-20,2024-11-15,株式会社久慈工業,,株式会社,千葉県,船橋市,高根町６１９番地１３,,12,204,2740817,,,2024-11-15,清算の結了等,,,2015-10-05,1,,,,,クジコウギョウ,0
1979,7060002030017,登記記録の閉鎖等,0,2024-11-20,2024-11-15,株式会社海正解体興業,,株式会社,栃木県,小山市,大字白鳥１２５４番地,,09,208,3290224,,,2024-11-15,清算の結了等,,,2015-10-05,1,,,,,カイセイカイタイコウギョウ,0
1983,7080102011559,登記記録の閉鎖等,0,2024-11-20,2024-11-18,有限会社箱根ｓｗｉｎｅ,,有限会社,静岡県,三島市,佐野５２番地の１,,22,206,4110047,,,2024-11-18,清算の結了等,,,2015-10-05,1,,,,,ハコネスワイン,0
1988,7080403003370,登記記録の閉鎖等,0,2024-11-20,2024-11-14,アイテサイン合同会社,,合同会社,静岡県,浜松市中央区,国吉町４９８番地の１２,,22,138,4350011,,,2024-11-14,清算の結了等,,,2016-11-29,1,,,,,アイテサイン,0
1997,7110002026728,登記記録の閉鎖等,0,2024-11-20,2024-11-12,有限会社アレンジメント・フラワーマミ,,有限会社,新潟県,長岡市,南町１丁目８番１１号,,15,202,9400081,,,2024-11-12,清算の結了等,,,2015-10-05,1,,,,,アレンジメントフラワーマミ,0
2000,7120001031884,登記記録の閉鎖等,0,2024-11-20,2024-11-18,株式会社ヨシオカ,,株式会社,大阪府,大阪市住之江区,御崎３丁目３番１６号,,27,125,5590013,,,2024-11-18,清算の結了等,,,2015-10-05,1,,,,,ヨシオカ,0
2018,7130002025967,登記記録の閉鎖等,0,2024-11-20,2024-11-15,有限会社ジグ・スポーツ・プロジェクト,,有限会社,大阪府,大阪市浪速区,敷津西１丁目１１番２号,,27,111,5560015,,,2024-11-15,清算の結了等,,,2015-10-05,1,,,,,ジグスポーツプロジェクト,0
2033,7180001049046,登記記録の閉鎖等,0,2024-11-20,2024-11-07,フード・エキスプレス東海株式会社,,株式会社,愛知県,名古屋市東区,泉１丁目２１番２７号,,23,102,4610001,,,2024-11-07,清算の結了等,,,2015-10-05,1,,,,,フードエキスプレストウカイ,0
2035,7180001103554,登記記録の閉鎖等,0,2024-11-20,2024-11-11,株式会社三鈴製作所,,株式会社,愛知県,小牧市,大字舟津字白山３０４番地１,,23,219,4850073,,,2024-11-11,清算の結了等,,,2015-10-05,1,,,,,ミスズセイサクショ,0
2038,7180001125433,登記記録の閉鎖等,0,2024-11-20,2024-11-08,株式会社ブルームラボ,,株式会社,愛知県,名古屋市西区,上小田井１丁目４３番地の２,,23,104,4520821,,,2024-11-08,清算の結了等,,,2016-11-09,1,,,,,ブルームラボ,0
2046,7180302015011,登記記録の閉鎖等,0,2024-11-20,2024-11-18,有限会社エフプランニング,,有限会社,愛知県,豊川市,御津町御馬長床１２９番地６,,23,207,4410311,,,2024-11-18,清算の結了等,,,2015-10-05,1,,,,,,0
2060,7240001054015,登記記録の閉鎖等,0,2024-11-20,2024-11-18,株式会社ディーアンドディー,,株式会社,広島県,広島市安芸区,中野５丁目１２番１号,,34,107,7390321,,,2024-11-18,清算の結了等,,,2019-03-05,1,,,,,ディーアンドディー,0
2067,7280003001498,登記記録の閉鎖等,0,2024-11-20,2024-11-18,合同会社ねこじゃらし,,合同会社,島根県,出雲市,天神町８８６番地１,,32,203,6930005,,,2024-11-18,合併による解散等,7280003001382,令和６年１１月１日島根県出雲市天神町６７番地１合同会社ネコマネキ（7280003001382）に合併し解散,2021-06-11,1,,,,,ネコジャラシ,0
2068,7290001068324,登記記録の閉鎖等,0,2024-11-20,2024-10-16,株式会社パズルコーポレーション,,株式会社,福岡県,福岡市西区,徳永北１９番９号ベルデュールヒル１０１号,,40,135,8190378,,,2024-10-16,清算の結了等,,,2015-10-05,1,,,,,パズルコーポレーション,0
2079,7320001018812,登記記録の閉鎖等,0,2024-11-20,2024-11-07,株式会社ＫＡＺＥ,,株式会社,大分県,大分市,高松１丁目７番３６号,,44,201,8700917,,,2024-11-07,合併による解散等,7320001015479,令和６年１１月７日大分市高松一丁目７番３６号株式会社ＡＥトランスポート（7320001015479）に合併し解散,2022-01-05,1,,,,,カゼ,0
2088,7360002012397,登記記録の閉鎖等,0,2024-11-20,2024-11-18,有限会社丸幸,,有限会社,沖縄県,うるま市,字兼箇段１５５８番地の１,,47,213,9042241,,,2024-11-18,清算の結了等,,,2015-10-05,1,,,,,マルコウ,0
2095,7380001017503,登記記録の閉鎖等,0,2024-11-20,2024-11-06,親交産業株式会社,,株式会社,福島県,会津若松市,東山町大字湯本字滝湯１０９番地,,07,202,9650814,,,2024-11-06,清算の結了等,,,2015-10-05,1,,,,,,0
2114,7500001023331,登記記録の閉鎖等,0,2024-11-20,2024-11-18,株式会社伊予鈴水産,,株式会社,愛媛県,南宇和郡愛南町,御荘平城２８番地３,,38,506,7984110,,,2024-11-18,清算の結了等,,,2021-04-06,1,,,,,,0
2184,8011001132030,登記記録の閉鎖等,0,2024-11-20,2024-10-23,株式会社リトルクリエイティブ,,株式会社,東京都,渋谷区,桜丘町２３番１７号シティコート桜丘４０８,,13,113,1500031,,,2024-10-23,清算の結了等,,,2020-01-27,1,,,,,リトルクリエイティブ,0
2215,8020001090535,登記記録の閉鎖等,0,2024-11-20,2024-11-05,ジーピーテクノ株式会社,,株式会社,神奈川県,横浜市神奈川区,鶴屋町２丁目９番地２２日興パレス横浜５０６号室,,14,102,2210835,,,2024-11-05,清算の結了等,,,2015-10-05,1,,,,,ジーピーテクノ,0
2220,8020001141627,登記記録の閉鎖等,0,2024-11-20,2024-11-08,株式会社サステナブルアセット,,株式会社,神奈川県,横浜市磯子区,磯子３丁目１３番Ｋ－８１１号,,14,107,2350016,,,2024-11-08,清算の結了等,,,2021-06-08,1,,,,,サステナブルアセット,0
2265,8080402015424,登記記録の閉鎖等,0,2024-11-20,2024-11-14,有限会社浜松コーポレーション,,有限会社,静岡県,浜松市浜名区,新原４４１０番地,,22,139,4340003,,,2024-11-14,合併による解散等,7080401010303,令和６年１１月１日静岡県浜松市浜名区新原４４１０番地株式会社鈴木工業（7080401010303）に合併し解散,2015-10-05,1,,,,,ハママツコーポレーション,0
2286,8120101021314,登記記録の閉鎖等,0,2024-11-20,2024-11-18,株式会社八起,,株式会社,大阪府,堺市堺区,三宝町２丁１３０番５,,27,141,5900906,,,2024-11-18,清算の結了等,,,2015-10-05,1,,,,,ヤオキ,0
2297,8140001032302,登記記録の閉鎖等,0,2024-11-20,2024-11-18,株式会社四季菜,,株式会社,兵庫県,芦屋市,伊勢町１番２１－３０３号,,28,206,6590052,,,2024-11-18,清算の結了等,,,2015-10-05,1,,,,,,0
2298,8140001048711,登記記録の閉鎖等,0,2024-11-20,2024-11-18,甲武建設株式会社,,株式会社,兵庫県,尼崎市,塚口町１丁目８番２号,,28,202,6610002,,,2024-11-18,清算の結了等,,,2015-10-05,1,,,,,コウブケンセツ,0
2311,8180001060712,登記記録の閉鎖等,0,2024-11-20,2024-11-11,株式会社アンシンプラン,,株式会社,愛知県,名古屋市中川区,野田１丁目３３４番地,,23,110,4540912,,,2024-11-11,清算の結了等,,,2015-10-05,1,,,,,アンシンプラン,0
2314,8180001094405,登記記録の閉鎖等,0,2024-11-20,2024-11-11,東久工業株式会社,,株式会社,愛知県,東海市,中央町７丁目３番地,,23,222,4760013,,,2024-11-11,清算の結了等,,,2015-10-05,1,,,,,トウキュウコウギョウ,0
2326,8180301009590,登記記録の閉鎖等,0,2024-11-20,2024-11-18,株式会社マハロ,,株式会社,愛知県,豊橋市,杉山町字知原１２番地の１３５９,,23,201,4413302,,,2024-11-18,清算の結了等,,,2015-10-05,1,,,,,マハロ,0
2337,8250001013431,登記記録の閉鎖等,0,2024-11-20,2024-11-06,株式会社福祉リフォームＮＡＮＡ,,株式会社,山口県,光市,虹ケ丘６丁目１番８号,,35,210,7430031,,,2024-11-06,清算の結了等,,,2015-10-05,1,,,,,フクシリフォームナナ,0
2338,8250003002928,登記記録の閉鎖等,0,2024-11-20,2024-11-13,瀬戸内ビーファーム合同会社,,合同会社,山口県,下関市,東大和町１丁目１番３－３０１号丸福ビル,,35,201,7500066,,,2024-11-13,清算の結了等,,,2021-10-29,1,,,,,セトウチビーファーム,0
2341,8280002011357,登記記録の閉鎖等,0,2024-11-20,2024-11-18,有限会社坂田電工,,有限会社,島根県,雲南市,三刀屋町下熊谷１４００番地１,,32,209,6902403,,,2024-11-18,清算の結了等,,,2015-10-05,1,,,,,サカタデンコウ,0
2358,8290802019821,登記記録の閉鎖等,0,2024-11-20,2024-11-15,有限会社下瀬労務経営コンサルティング,,有限会社,福岡県,北九州市八幡西区,楠木２丁目８番１号,,40,109,8070827,,,2024-11-15,清算の結了等,,,2015-10-05,1,,,,,,0
2362,8330001014223,登記記録の閉鎖等,0,2024-11-20,2024-11-13,株式会社マルフク,,株式会社,熊本県,葦北郡芦北町,大字計石９７番地１３,,43,482,8695453,,,2024-11-13,清算の結了等,,,2015-10-05,1,,,,,,0
2379,8400005005021,登記記録の閉鎖等,0,2024-11-20,2024-11-12,医療法人藤田皮膚科医院,,その他の設立登記法人,岩手県,久慈市,川崎町１２番１８号,,03,207,0280051,,,2024-11-12,清算の結了等,,,2015-10-05,1,,,,,フジタヒフカイイン,0
2383,8430001062014,登記記録の閉鎖等,0,2024-11-20,2024-11-18,株式会社Ｇファクトリー,,株式会社,北海道,札幌市北区,北二十八条西５丁目１番２８号,,01,102,0010028,,,2024-11-18,清算の結了等,,,2015-10-05,1,,,,,ジーファクトリー,0
2387,8440002009054,登記記録の閉鎖等,0,2024-11-20,2024-11-12,有限会社ヤマト電気工業所,,有限会社,北海道,久遠郡せたな町,北檜山区豊岡３３４番地４０,,01,371,0494514,,,2024-11-12,清算の結了等,,,2015-10-05,1,,,,,,0
2389,8460302000685,登記記録の閉鎖等,0,2024-11-20,2024-11-14,有限会社三建興業,,有限会社,北海道,北見市,豊地８４５番地,,01,208,0991587,,,2024-11-14,合併による解散等,7460301000134,令和６年１１月１４日北海道北見市豊地８３６番地岡嶋建設工業株式会社（7460301000134）に合併し解散,2015-10-05,1,,,,,サンケンコウギョウ,0
2390,8470001009762,登記記録の閉鎖等,0,2024-11-20,2024-11-15,秋ダイヤサービス株式会社,,株式会社,香川県,丸亀市,飯野町東二甲３３７番地８,,37,202,7630084,,,2024-11-15,清算の結了等,,,2015-10-05,1,,,,,アキダイヤサービス,0
2394,8480005006664,登記記録の閉鎖等,0,2024-11-20,2024-11-14,特定非営利活動法人古宮ユートピア,,その他の設立登記法人,徳島県,美馬市,穴吹町古宮字半平７４４番地,,36,207,7770007,,,2024-11-14,清算の結了等,,,2018-08-27,1,,,,,フルミヤユートピア,0
2463,9010701021905,登記記録の閉鎖等,0,2024-11-20,2024-11-14,株式会社ＨＡＴＡＹＡ　ＣＯＲＰＯＲＡＴＩＯＮ,,株式会社,東京都,品川区,勝島１丁目２番１号,,13,109,1400012,,,2024-11-14,清算の結了等,,,2015-10-05,1,,,,,ハタヤコーポレーション,0
2473,9010902014690,登記記録の閉鎖等,0,2024-11-20,2024-11-13,有限会社水野薬局,,有限会社,東京都,世田谷区,経堂２丁目３番１号,,13,112,1560052,,,2024-11-13,清算の結了等,,,2015-10-05,1,,,,,,0
2489,9012301001907,登記記録の閉鎖等,0,2024-11-20,2024-11-06,日本宗教用具株式会社,,株式会社,東京都,町田市,金森１丁目３番３号,,13,209,1940012,,,2024-11-06,合併による解散等,7012301001933,令和６年１０月３１日東京都町田市金森一丁目３番３号日本堂株式会社（7012301001933）に合併し解散,2015-10-05,1,,,,,ニホンシュウキョウヨウグ,0
2492,9012302005650,登記記録の閉鎖等,0,2024-11-20,2024-11-12,有限会社オキプランニング,,有限会社,東京都,町田市,玉川学園２丁目３番２０号,,13,209,1940041,,,2024-11-12,清算の結了等,,,2015-10-05,1,,,,,オキプランニング,0
2495,9013201017737,登記記録の閉鎖等,0,2024-11-20,2024-11-05,株式会社ＩＮＮＯＶＡＧＬＯＢＡＬ,,株式会社,東京都,港区,赤坂６丁目４番１１号３０２,,13,103,1070052,,,2024-11-05,清算の結了等,,,2015-10-05,1,,,,,イノーヴァグローバル,0
2496,9013201018165,登記記録の閉鎖等,0,2024-11-20,2024-10-22,株式会社プログレス,,株式会社,東京都,目黒区,中根２丁目２０番３号,,13,110,1520031,,,2024-10-22,清算の結了等,,,2015-10-05,1,,,,,プログレス,0
2510,9020002008444,登記記録の閉鎖等,0,2024-11-20,2024-11-06,通信技術システム有限会社,,有限会社,神奈川県,横浜市金沢区,野島町１１番４号,,14,108,2360025,,,2024-11-06,清算の結了等,,,2015-10-05,1,,,,,ツウシンギジュツシステム,0
2512,9020002088271,登記記録の閉鎖等,0,2024-11-20,2024-11-07,有限会社亜秀インターナショナル,,有限会社,神奈川県,横浜市港北区,綱島西２丁目８番１号,,14,109,2230053,,,2024-11-07,清算の結了等,,,2015-10-05,1,,,,,アシュウインターナショナル,0
2519,9021001023590,登記記録の閉鎖等,0,2024-11-20,2024-11-18,株式会社ティシーカンパニー,,株式会社,神奈川県,厚木市,旭町２丁目８番５メゾンドポアゾン１０３号,,14,212,2430014,,,2024-11-18,清算の結了等,,,2015-10-05,1,,,,,,0
2528,9030001136410,登記記録の閉鎖等,0,2024-11-20,2024-11-14,株式会社菅原重機,,株式会社,埼玉県,川越市,大字的場５６５番地２８,,11,201,3501101,,,2024-11-14,清算の結了等,,,2020-05-11,1,,,,,スガワラジュウキ,0
2529,9030001138266,登記記録の閉鎖等,0,2024-11-20,2024-11-15,Ａｌｌ－ｐｉｕｓ株式会社,,株式会社,埼玉県,北足立郡伊奈町,内宿台４丁目１１２,,11,301,3620812,,,2024-11-15,清算の結了等,,,2020-09-10,1,,,,,オールプラス,0
2541,9040001097668,登記記録の閉鎖等,0,2024-11-20,2024-11-12,株式会社まるも,,株式会社,千葉県,夷隅郡大多喜町,中野字鍛冶屋臺２８３番地,,12,441,2980271,,,2024-11-12,合併による解散等,3040001117662,令和６年１１月１２日千葉県夷隅郡大多喜町中野２８３番地株式会社ウルマ（3040001117662）に合併し解散,2016-11-18,1,,,,,マルモ,0
2552,9050005011731,登記記録の閉鎖等,0,2024-11-20,2024-11-13,特定非営利活動法人訪問介護ステーション・ムラヤマ,,その他の設立登記法人,茨城県,結城市,大字江川新宿１９６９番地５８,,08,207,3070042,,,2024-11-13,清算の結了等,,,2015-10-05,1,,,,,ホウモンカイゴステーションムラヤマ,0
2561,9110001015432,登記記録の閉鎖等,0,2024-11-20,2024-11-13,コデラカプロン株式会社,,株式会社,新潟県,三条市,鶴田１丁目６番９号,,15,204,9550051,,,2024-11-13,清算の結了等,,,2015-10-05,1,,,,,コデラカプロン,0
2567,9120003015339,登記記録の閉鎖等,0,2024-11-20,2024-11-15,レッサーエデュケーショナル合同会社,,合同会社,大阪府,大阪市東住吉区,今川４丁目１０番２１号,,27,121,5460003,,,2024-11-15,清算の結了等,,,2019-02-20,1,,,,,レッサーエデュケーショナル,0
2586,9140001086586,登記記録の閉鎖等,0,2024-11-20,2024-11-08,株式会社明治建築,,株式会社,兵庫県,神戸市中央区,港島中町６丁目３番地６,,28,110,6500046,,,2024-11-08,合併による解散等,9140001028506,令和６年１１月１日神戸市中央区港島中町六丁目３番地６号株式会社スリーピース（9140001028506）に合併し解散,2015-10-05,1,,,,,メイジケンチク,0
2598,9180001008438,登記記録の閉鎖等,0,2024-11-20,2024-11-12,新栄電業株式会社,,株式会社,愛知県,名古屋市昭和区,長池町５丁目２９番地,,23,107,4660847,,,2024-11-12,清算の結了等,,,2015-10-05,1,,,,,シンエイデンギョウ,0
2613,9180002061873,登記記録の閉鎖等,0,2024-11-20,2024-11-11,有限会社タチバナ金型製作所,,有限会社,愛知県,愛知郡東郷町,春木台１丁目１０番地の８,,23,302,4700161,,,2024-11-11,清算の結了等,,,2015-10-05,1,,,,,タチバナカナガタセイサクショ,0
2620,9200001003188,登記記録の閉鎖等,0,2024-11-20,2024-11-18,株式会社高森釦工業所,,株式会社,滋賀県,米原市,菅江２００番地１,,25,214,5210216,,,2024-11-18,清算の結了等,,,2015-10-05,1,,,,,タカモリボタンコウギョウショ,0
2639,9290002000597,登記記録の閉鎖等,0,2024-11-20,2024-10-16,株式会社ＢＬＵＥＣＩＥＬ,,株式会社,福岡県,糟屋郡粕屋町,原町３丁目１０番２８号,,40,349,8112307,,,2024-10-16,清算の結了等,,,2015-10-05,1,,,,,ブルーシエル,0
2640,9310002005420,登記記録の閉鎖等,0,2024-11-20,2024-11-14,有限会社三浦屋染工場,,有限会社,長崎県,長崎市,茂木町１９８番地,,42,201,8510241,,,2024-11-14,清算の結了等,,,2015-10-05,1,,,,,ミウラヤソメコウジョウ,0
2642,9330001021598,登記記録の閉鎖等,0,2024-11-20,2024-10-01,株式会社レイメイ藤井ホールディングス,,株式会社,熊本県,熊本市西区,上熊本１丁目２番６号,,43,103,8600079,,,2024-10-01,合併による解散等,7330001004951,令和６年１０月１日熊本市西区上熊本一丁目２番６号株式会社レイメイ藤井（7330001004951）に合併し解散,2015-10-05,1,,,,,レイメイフジイホールディングス,0
2644,9330002030565,登記記録の閉鎖等,0,2024-11-20,2024-11-12,有限会社味楽苑,,有限会社,熊本県,人吉市,下原田町字久木原２１１１番地の５,,43,203,8680086,,,2024-11-12,清算の結了等,,,2015-10-05,1,,,,,,0
2652,9370002020562,登記記録の閉鎖等,0,2024-11-20,2024-11-13,有限会社萩原植木鉢製造所,,有限会社,宮城県,富谷市,富ケ丘２丁目３４番１１号,,04,216,9813352,,,2024-11-13,清算の結了等,,,2015-10-05,1,,,,,ハギワラウエキバチセイゾウショ,0
2664,9430001041784,登記記録の閉鎖等,0,2024-11-20,2024-11-12,エフジー化工株式会社,,株式会社,北海道,札幌市東区,東雁来六条２丁目５番２５号,,01,103,0070826,,,2024-11-12,清算の結了等,,,2015-10-05,1,,,,,エフジーカコウ,0
2674,9470001017764,登記記録の閉鎖等,0,2024-11-20,2024-11-14,株式会社高栄建設,,株式会社,香川県,丸亀市,郡家町２６３１番地４,,37,202,7630093,,,2024-11-14,清算の結了等,,,2019-12-04,1,,,,,コウエイケンセツ,0
2679,9500001018809,登記記録の閉鎖等,0,2024-11-20,2024-11-18,株式会社魚一家,,株式会社,愛媛県,南宇和郡愛南町,御荘平城２８番地３,,38,506,7984110,,,2024-11-18,清算の結了等,,,2015-10-05,1,,,,,,0
