sequenceNumber,corporateNumber,process,correct,updateDate,changeDate,name,nameImageId,kind,prefectureName,cityName,streetNumber,addressImageId,prefectureCode,cityCode,postCode,addressOutside,addressOutsideImageId,closeDate,closeCause,successorCorporateNumber,changeCause,assignmentDate,latest,enName,enPrefectureName,enCityName,enAddressOutside,furigana,hihyoji
9,1010001199417,登記記録の閉鎖等,0,2025-04-15,2025-04-02,ｉｍｐｅｒｆｅｃｔ株式会社,,株式会社,東京都,千代田区,丸の内２丁目６番１号,,13,101,1000005,,,2025-04-02,清算の結了等,,,2019-03-22,1,,,,,インパーフェクト,0
15,1010003030521,登記記録の閉鎖等,0,2025-04-15,2025-04-02,晴海合同会社,,合同会社,東京都,千代田区,平河町１丁目６番１５号シルスフィア会計事務所内,,13,101,1020093,,,2025-04-02,清算の結了等,,,2019-09-04,1,,,,,ハルミ,0
26,1010403025278,登記記録の閉鎖等,0,2025-04-15,2025-03-05,合同会社グリーンパワー住田遠野ホールディングス,,合同会社,東京都,港区,赤坂１丁目１１番４４号赤坂インターシティ,,13,103,1070052,,,2025-03-05,合併による解散等,3010403017686,令和７年３月５日東京都港区赤坂一丁目１１番４４号赤坂インターシティ合同会社グリーンパワー住田遠野（3010403017686）に合併し解散,2021-05-14,1,,,,,グリーンパワースミタトオノホールディングス,0
29,1010601027506,登記記録の閉鎖等,0,2025-04-15,2025-04-02,エルミタージュ株式会社,,株式会社,東京都,墨田区,亀沢２丁目１２番１号,,13,107,1300014,,,2025-04-02,合併による解散等,8010601011172,令和７年４月１日東京都墨田区亀沢二丁目１２番１号株式会社サガミヤ（8010601011172）に合併し解散,2015-10-05,1,,,,,エルミタージュ,0
32,1010602024188,登記記録の閉鎖等,0,2025-04-15,2025-04-03,有限会社オクノ工業,,有限会社,東京都,江東区,北砂５丁目２０番１８－１１０９号,,13,108,1360073,,,2025-04-03,清算の結了等,,,2015-10-05,1,,,,,,0
36,1010702009254,登記記録の閉鎖等,0,2025-04-15,2025-03-28,有限会社オフィス・サカ,,有限会社,東京都,品川区,西五反田２丁目１５番１３号,,13,109,1410031,,,2025-03-28,清算の結了等,,,2015-10-05,1,,,,,オフィスサカ,0
67,1011801017742,登記記録の閉鎖等,0,2025-04-15,2025-04-04,株式会社パルメイト,,株式会社,東京都,足立区,西綾瀬２丁目４番１号,,13,121,1200014,,,2025-04-04,清算の結了等,,,2015-10-05,1,,,,,パルメイト,0
73,1012302005930,登記記録の閉鎖等,0,2025-04-15,2025-04-07,有限会社シンカデザイン,,有限会社,東京都,町田市,南成瀬４丁目１７番地７,,13,209,1940045,,,2025-04-07,清算の結了等,,,2015-10-05,1,,,,,シンカデザイン,0
78,1013201018494,登記記録の閉鎖等,0,2025-04-15,2025-04-01,株式会社サトー,,株式会社,東京都,港区,芝浦３丁目１番１号,,13,103,1080023,,,2025-04-01,合併による解散等,7013201017276,令和７年４月１日東京都港区芝浦三丁目１番１号株式会社サトー（7013201017276）に合併し解散,2015-10-05,1,,,,,サトー,0
81,1020001101736,登記記録の閉鎖等,0,2025-04-15,2025-04-07,匠住宅設備株式会社,,株式会社,神奈川県,横浜市緑区,青砥町２５３番地１野田ビル１０１号,,14,113,2260022,,,2025-04-07,清算の結了等,,,2015-10-05,1,,,,,タクミジュウタクセツビ,0
86,1020002085532,登記記録の閉鎖等,0,2025-04-15,2025-04-04,有限会社レック工房,,有限会社,神奈川県,川崎市中原区,上小田中２丁目４２番１－２０１号ベルテ・プルメリア,,14,133,2110053,,,2025-04-04,清算の結了等,,,2015-10-05,1,,,,,レックコウボウ,0
93,1021002001553,登記記録の閉鎖等,0,2025-04-15,2025-04-09,株式会社グッド・フェローズ,,株式会社,神奈川県,藤沢市,鵠沼橘１丁目５番１号,,14,205,2510024,,,2025-04-09,合併による解散等,8120001099475,令和７年４月１日大阪市淀川区東三国四丁目３番１号株式会社ジャパンクリエイト（8120001099475）に合併し解散,2015-10-05,1,,,,,グッドフェローズ,0
95,1021003012211,登記記録の閉鎖等,0,2025-04-15,2025-04-11,ＧＦＥ合同会社,,合同会社,神奈川県,平塚市,紅谷町１６番７号Ｙｏ－ｎｉｎｅ８階８０１号室,,14,203,2540043,,,2025-04-11,清算の結了等,,,2022-10-06,1,,,,,ジーエフイー,0
96,1030001085210,登記記録の閉鎖等,0,2025-04-15,2025-04-08,株式会社プランニング・アイ,,株式会社,埼玉県,熊谷市,問屋町４丁目２番７号,,11,202,3600024,,,2025-04-08,清算の結了等,,,2015-10-05,1,,,,,プランニングアイ,0
100,1030002118101,登記記録の閉鎖等,0,2025-04-15,2025-04-08,半田被服有限会社,,有限会社,埼玉県,行田市,忍２丁目１６番５号,,11,206,3610077,,,2025-04-08,清算の結了等,,,2015-10-05,1,,,,,ハンダヒフク,0
115,1060001020742,登記記録の閉鎖等,0,2025-04-15,2025-04-01,株式会社おくざわ,,株式会社,栃木県,佐野市,田島町４９番地１,,09,204,3270031,,,2025-04-01,合併による解散等,9060001004077,令和７年４月１日栃木県宇都宮市台新田一丁目１番３７号株式会社ホンダカーズ栃木県央（9060001004077）に合併し解散,2015-10-05,1,,,,,オクザワ,0
118,1060002040269,登記記録の閉鎖等,0,2025-04-15,2025-04-02,有限会社エフエフアイ,,有限会社,栃木県,佐野市,植上町１４７９番地４,,09,204,3270832,,,2025-04-02,合併による解散等,4060001020252,令和７年４月１日栃木県佐野市植上町１４７９番地４株式会社エフアンドエフ（4060001020252）に合併し解散,2015-10-05,1,,,,,エフエフアイ,0
123,1080001021326,登記記録の閉鎖等,0,2025-04-15,2025-04-09,株式会社森竹,,株式会社,静岡県,静岡市駿河区,中吉田３９番１３号,,22,102,4228001,,,2025-04-09,清算の結了等,,,2016-12-28,1,,,,,モリタケ,0
125,1080101015525,登記記録の閉鎖等,0,2025-04-15,2025-04-10,株式会社インターフェイスラボ,,株式会社,神奈川県,小田原市,前川４７４番地の１・９１４,,14,206,2560813,,,2025-04-10,清算の結了等,,,2015-10-05,1,,,,,インターフェイスラボ,0
129,1090001011870,登記記録の閉鎖等,0,2025-04-15,2025-04-02,株式会社とば整骨院,,株式会社,山梨県,韮崎市,龍岡町下條東割７３１番地１,,19,207,4070032,,,2025-04-02,清算の結了等,,,2015-10-05,1,,,,,トバセイコツイン,0
133,1100002012313,登記記録の閉鎖等,0,2025-04-15,2025-04-10,有限会社エスポワール,,有限会社,長野県,小諸市,大字御影新田２７４４番地３,,20,208,3840808,,,2025-04-10,合併による解散等,4011101056331,令和７年４月１日埼玉県さいたま市大宮区桜木町一丁目７番地５株式会社アイン中央（4011101056331）に合併し解散,2015-10-05,1,,,,,エスポワール,0
153,1120003014249,登記記録の閉鎖等,0,2025-04-15,2025-03-31,合同会社ボヌール,,合同会社,大阪府,大阪市北区,天満１丁目１７－２－１２０２,,27,127,5300043,,,2025-03-31,清算の結了等,,,2018-05-11,1,,,,,ボヌール,0
160,1120102025056,登記記録の閉鎖等,0,2025-04-15,2025-04-07,有限会社大田環境設備,,有限会社,大阪府,和泉市,平井町７２１番地の３,,27,219,5941115,,,2025-04-07,清算の結了等,,,2015-10-05,1,,,,,オオタカンキョウセツビ,0
176,1140001003978,登記記録の閉鎖等,0,2025-04-15,2025-04-08,株式会社冨士田商店,,株式会社,兵庫県,神戸市灘区,浜田町３丁目１番の１８号,,28,102,6570862,,,2025-04-08,清算の結了等,,,2015-10-05,1,,,,,フジタショウテン,0
177,1140001089506,登記記録の閉鎖等,0,2025-04-15,2025-04-10,株式会社プランサ,,株式会社,兵庫県,尼崎市,南塚口町１丁目２６番２８号南塚口ビル本館３０１,,28,202,6610012,,,2025-04-10,清算の結了等,,,2015-10-05,1,,,,,プランサ,0
190,1150002007903,登記記録の閉鎖等,0,2025-04-15,2025-04-11,ゴルフクラブモクイ有限会社,,有限会社,奈良県,磯城郡田原本町,大字平田５８番地,,29,363,6360241,,,2025-04-11,清算の結了等,,,2015-10-05,1,,,,,ゴルフクラブモクイ,0
203,1180002064074,登記記録の閉鎖等,0,2025-04-15,2025-04-03,有限会社翠保造園,,有限会社,愛知県,豊明市,沓掛町下高根３８番地,,23,229,4701106,,,2025-04-03,清算の結了等,,,2015-10-05,1,,,,,スイホゾウエン,0
224,1240001045861,登記記録の閉鎖等,0,2025-04-15,2025-04-08,株式会社清角エンジニアリング,,株式会社,広島県,安芸郡府中町,宮の町４丁目１０番２１号,,34,302,7350005,,,2025-04-08,清算の結了等,,,2015-10-05,1,,,,,セイカクエンジニアリング,0
231,1290001051756,登記記録の閉鎖等,0,2025-04-15,2025-04-01,株式会社アイ・ソリューション,,株式会社,福岡県,久留米市,東合川３丁目１２番４０号,,40,203,8390809,,,2025-04-01,合併による解散等,5290001024015,令和７年４月１日福岡市東区多の津四丁目１２番１１号ＩＮＧ株式会社（5290001024015）に合併し解散,2015-10-05,1,,,,,アイソリューション,0
241,1300005002679,登記記録の閉鎖等,0,2025-04-15,2025-03-27,天理教城陽道分教会,,その他の設立登記法人,佐賀県,多久市,北多久町大字小侍５４番地３３,,41,204,8460002,,,2025-03-27,合併による解散等,8490005004428,令和７年３月２４日高知県香美市土佐山田町平山字岡田丸１７４８番ロ地天理教繁藤大教会（8490005004428）に合併し解散,2015-10-05,1,,,,,テンリキョウジョウヨウドウブンキョウカイ,0
246,1330001021606,登記記録の閉鎖等,0,2025-04-15,2025-04-01,株式会社杉養蜂園テレマーケティングセンター久留米,,株式会社,熊本県,熊本市北区,貢町５７１番地１５,,43,105,8615535,,,2025-04-01,合併による解散等,5330001002478,令和７年４月１日熊本市北区貢町５７１番地１５株式会社杉養蜂園（5330001002478）に合併し解散,2015-10-05,1,,,,,スギヨウホウエンテレマーケティングセンタークルメ,0
264,1380001005728,登記記録の閉鎖等,0,2025-04-15,2025-03-27,株式会社拓新,,株式会社,福島県,郡山市,開成６丁目１５７番地の１,,07,203,9638851,,,2025-03-27,清算の結了等,,,2024-04-18,1,,,,,,0
285,1470005005087,登記記録の閉鎖等,0,2025-04-15,2025-04-04,あかり税理士法人,,その他の設立登記法人,香川県,高松市,木太町５０５０番地１７,,37,201,7600080,,,2025-04-04,清算の結了等,,,2015-10-05,1,,,,,アカリ,0
300,2010001182883,登記記録の閉鎖等,0,2025-04-15,2025-04-01,株式会社遊空間研究所,,株式会社,東京都,千代田区,四番町４番地９,,13,101,1020081,,,2025-04-01,合併による解散等,7010401127426,令和７年４月１日東京都千代田区四番町４番地９株式会社ハルモニアラボ（7010401127426）に合併し解散,2017-04-21,1,,,,,ユウクウカンケンキュウジョ,0
301,2010001192180,登記記録の閉鎖等,0,2025-04-15,2025-04-02,ミエクル株式会社,,株式会社,東京都,中央区,築地４丁目１番１号,,13,102,1040045,,,2025-04-02,清算の結了等,,,2018-05-31,1,,,,,ミエクル,0
346,2011201001429,登記記録の閉鎖等,0,2025-04-15,2025-04-02,株式会社群,,株式会社,東京都,練馬区,大泉町１丁目２２番３号,,13,120,1780062,,,2025-04-02,清算の結了等,,,2015-10-05,1,,,,,グン,0
351,2011601005806,登記記録の閉鎖等,0,2025-04-15,2025-03-28,株式会社日之出商事,,株式会社,東京都,練馬区,東大泉１丁目３０番１号,,13,120,1780063,,,2025-03-28,合併による解散等,8011601000768,令和７年３月１日東京都練馬区東大泉一丁目３０番１号株式会社岩本商事（8011601000768）に合併し解散,2015-10-05,1,,,,,ヒノデショウジ,0
356,2012402021406,登記記録の閉鎖等,0,2025-04-15,2025-04-01,有限会社モンテローザファーム,,有限会社,東京都,杉並区,梅里１丁目２１番１５号,,13,115,1660011,,,2025-04-01,合併による解散等,3012401013378,令和７年４月１日東京都杉並区梅里一丁目２１番１５号株式会社人材バンク（3012401013378）に合併し解散,2015-10-05,1,,,,,モンテローザファーム,0
366,2020001095176,登記記録の閉鎖等,0,2025-04-15,2025-04-02,ネフット総研株式会社,,株式会社,山口県,大島郡周防大島町,大字久賀５８２２番１号,,35,305,7422301,,,2025-04-02,清算の結了等,,,2015-10-05,1,,,,,ネフットソウケン,0
406,2040001098821,登記記録の閉鎖等,0,2025-04-15,2025-03-28,株式会社Ｈ・Ｒ・Ｂ,,株式会社,千葉県,千葉市若葉区,源町５８４番地１,,12,104,2640037,,,2025-03-28,合併による解散等,9040002073577,令和７年３月１日千葉県成田市津富浦７６６番地株式会社伸幸興業（9040002073577）に合併し解散,2017-02-10,1,,,,,エイチアールビー,0
411,2040002049294,登記記録の閉鎖等,0,2025-04-15,2025-04-02,有限会社山力工芸,,有限会社,千葉県,松戸市,八ケ崎６丁目３３番地の１３,,12,207,2700023,,,2025-04-02,清算の結了等,,,2015-10-05,1,,,,,ヤマカコウゲイ,0
414,2050002011575,登記記録の閉鎖等,0,2025-04-15,2025-04-02,有限会社島田電気,,有限会社,茨城県,土浦市,常名１８９７番地,,08,203,3000065,,,2025-04-02,清算の結了等,,,2015-10-05,1,,,,,シマダデンキ,0
418,2060001029931,登記記録の閉鎖等,0,2025-04-15,2025-04-04,株式会社エミフル,,株式会社,栃木県,河内郡上三川町,大字石田１２３１番地３,,09,301,3290521,,,2025-04-04,清算の結了等,,,2017-10-30,1,,,,,エミフル,0
423,2080002002200,登記記録の閉鎖等,0,2025-04-15,2025-04-09,有限会社サカエ商会,,有限会社,静岡県,静岡市葵区,上足洗２丁目４番１号,,22,101,4200841,,,2025-04-09,清算の結了等,,,2015-10-05,1,,,,,サカエショウカイ,0
438,2120001095983,登記記録の閉鎖等,0,2025-04-15,2025-03-31,サンセイ株式会社,,株式会社,大阪府,大阪市都島区,毛馬町４丁目３番２６号,,27,102,5340001,,,2025-03-31,清算の結了等,,,2015-10-05,1,,,,,サンセイ,0
445,2120002064392,登記記録の閉鎖等,0,2025-04-15,2025-03-31,株式会社ワイエス,,株式会社,大阪府,大阪市北区,西天満６丁目２番１４号マッセ梅田ビル２号館６０６号室,,27,127,5300047,,,2025-03-31,清算の結了等,,,2015-10-05,1,,,,,ワイエス,0
452,2120102000652,登記記録の閉鎖等,0,2025-04-15,2025-04-03,有限会社エアロサーヴェイ,,有限会社,大阪府,泉南市,樽井２丁目３１番１０号,,27,228,5900521,,,2025-04-03,清算の結了等,,,2015-10-05,1,,,,,エアロサーヴェイ,0
459,2122001029616,登記記録の閉鎖等,0,2025-04-15,2025-04-07,株式会社プラスワン,,株式会社,大阪府,東大阪市,若江南町４丁目２番２５号,,27,227,5780943,,,2025-04-07,清算の結了等,,,2016-05-20,1,,,,,,0
470,2140002051439,登記記録の閉鎖等,0,2025-04-15,2025-04-07,山本ブロック有限会社,,有限会社,兵庫県,姫路市,砥堀字下谷田３８２番地８,,28,201,6700802,,,2025-04-07,清算の結了等,,,2015-10-05,1,,,,,ヤマモトブロック,0
480,2180003015414,登記記録の閉鎖等,0,2025-04-15,2025-04-03,合名会社東海,,合名会社,愛知県,名古屋市昭和区,藤成通２丁目７番地の２,,23,107,4660845,,,2025-04-03,清算の結了等,,,2015-10-05,1,,,,,トウカイ,0
500,2220002015617,登記記録の閉鎖等,0,2025-04-15,2025-04-07,有限会社宮脇薬店,,有限会社,石川県,輪島市,河井町１部４番地の１,,17,204,9280001,,,2025-04-07,清算の結了等,,,2015-10-05,1,,,,,ミヤワキヤクテン,0
504,2230002002325,登記記録の閉鎖等,0,2025-04-15,2025-04-09,有限会社常盤本店,,有限会社,富山県,富山市,高屋敷一区８５７番地,,16,201,9398036,,,2025-04-09,清算の結了等,,,2015-10-05,1,,,,,トキワホンテン,0
515,2280001005555,登記記録の閉鎖等,0,2025-04-15,2025-04-09,株式会社ベルクレスト,,株式会社,島根県,松江市,美保関町森山４１番地１,,32,201,6901312,,,2025-04-09,清算の結了等,,,2015-10-05,1,,,,,ベルクレスト,0
524,2290801008351,登記記録の閉鎖等,0,2025-04-15,2025-04-10,株式会社マーガレット調剤薬局,,株式会社,福岡県,北九州市小倉南区,葛原本町１丁目６番１６号,,40,107,8000253,,,2025-04-10,合併による解散等,6010901003581,令和７年４月１日東京都世田谷区成城七丁目８番１８号株式会社グラム（6010901003581）に合併し解散,2015-10-05,1,,,,,マーガレットチョウザイヤッキョク,0
525,2290805001170,登記記録の閉鎖等,0,2025-04-15,2025-04-07,医療法人伊藤クリニック,,その他の設立登記法人,福岡県,北九州市小倉北区,馬借１丁目６番１７号－２０１号,,40,106,8020077,,,2025-04-07,清算の結了等,,,2015-10-05,1,,,,,イトウクリニック,0
531,2310003001755,登記記録の閉鎖等,0,2025-04-15,2025-04-07,合資会社吉田酒屋,,合資会社,長崎県,雲仙市,瑞穂町西郷甲７６５番地,,42,213,8591202,,,2025-04-07,清算の結了等,,,2015-10-05,1,,,,,ヨシダサカヤ,0
542,2350003001784,登記記録の閉鎖等,0,2025-04-15,2025-04-04,協和澱粉合資会社,,合資会社,宮崎県,小林市,南西方３５５０番地２,,45,205,8860005,,,2025-04-04,清算の結了等,,,2015-10-05,1,,,,,キョウワデンプン,0
547,2370001010488,登記記録の閉鎖等,0,2025-04-15,2025-04-10,ミナクチ株式会社,,株式会社,宮城県,仙台市宮城野区,鶴巻２丁目３番３３号,,04,102,9830024,,,2025-04-10,合併による解散等,5021001040086,令和７年４月１日神奈川県横須賀市内川一丁目６番４号荻野化成株式会社（5021001040086）に合併し解散,2015-10-05,1,,,,,ミナクチ,0
551,2380002001931,登記記録の閉鎖等,0,2025-04-15,2025-03-31,有限会社清野建築設計事務所,,有限会社,福島県,福島市,南沢又字清水端１０４番地,,07,201,9608254,,,2025-03-31,清算の結了等,,,2015-10-05,1,,,,,セイノケンチクセッケイジムショ,0
552,2380002011022,登記記録の閉鎖等,0,2025-04-15,2025-03-28,有限会社東洋堂,,有限会社,福島県,郡山市,昭和２丁目２２番２６号,,07,203,9638822,,,2025-03-28,清算の結了等,,,2015-10-05,1,,,,,トウヨウドウ,0
557,2390005006489,登記記録の閉鎖等,0,2025-04-15,2025-04-03,エヌエスシステム開発協同組合,,その他の設立登記法人,山形県,東置賜郡高畠町,大字糠野目１６６４番地,,06,381,9992176,,,2025-04-03,清算の結了等,,,2015-10-05,1,,,,,エヌエスシステムカイハツ,0
575,2430005006740,登記記録の閉鎖等,0,2025-04-15,2025-04-07,財団法人空知理容師美容師会,,その他の設立登記法人,北海道,美唄市,字美唄１２６３番地,,01,215,0720000,,,2025-04-07,清算の結了等,,,2015-10-05,1,,,,,ソラチリョウシリヨウシビヨウシカイ,0
578,2470002005634,登記記録の閉鎖等,0,2025-04-15,2025-04-07,有限会社久松,,有限会社,香川県,高松市,福岡町３丁目３番１１号,,37,201,7600066,,,2025-04-07,清算の結了等,,,2015-10-05,1,,,,,,0
580,2500001002315,登記記録の閉鎖等,0,2025-04-15,2025-04-14,誠正産業株式会社,,株式会社,愛媛県,松山市,谷町甲１８６番地５,,38,201,7918002,,,2025-04-14,清算の結了等,,,2015-10-05,1,,,,,セイショウサンギョウ,0
605,3010405021645,登記記録の閉鎖等,0,2025-04-15,2025-03-04,一般社団法人日本調剤コスメ協会,,その他の設立登記法人,東京都,港区,南青山２丁目１０－１１Ａ青山ビル４階,,13,103,1070062,,,2025-03-04,清算の結了等,,,2022-12-08,1,,,,,ニホンチョウザイコスメキョウカイ,0
609,3010701002150,登記記録の閉鎖等,0,2025-04-15,2025-03-28,オバタ建設株式会社,,株式会社,東京都,品川区,荏原４丁目１１番１１号コスモハウス１０３,,13,109,1420063,,,2025-03-28,清算の結了等,,,2015-10-05,1,,,,,オバタケンセツ,0
610,3010702013782,登記記録の閉鎖等,0,2025-04-15,2025-03-21,有限会社キャリア開発実践研究所,,有限会社,東京都,港区,白金台３丁目１４－３－１００４号,,13,103,1080071,,,2025-03-21,清算の結了等,,,2015-10-05,1,,,,,,0
618,3010902001991,登記記録の閉鎖等,0,2025-04-15,2025-04-04,有限会社ヴァニタ,,有限会社,東京都,世田谷区,若林４丁目２５番６号,,13,112,1540023,,,2025-04-04,清算の結了等,,,2015-10-05,1,,,,,ヴァニタ,0
636,3011403001754,登記記録の閉鎖等,0,2025-04-15,2025-04-09,東信リノズ合同会社,,合同会社,東京都,板橋区,東新町１丁目４３番７号,,13,119,1740074,,,2025-04-09,清算の結了等,,,2016-01-12,1,,,,,トウシンリノズ,0
648,3013301011769,登記記録の閉鎖等,0,2025-04-15,2025-04-11,室町商事株式会社,,株式会社,東京都,豊島区,巣鴨２丁目１１番１号,,13,116,1700002,,,2025-04-11,合併による解散等,9120001044703,令和７年４月１日大阪市西区立売堀四丁目１番２０号ライジングサポート株式会社（9120001044703）に合併し解散,2015-10-05,1,,,,,ムロマチショウジ,0
655,3020001065839,登記記録の閉鎖等,0,2025-04-15,2025-04-04,株式会社伊吹電子,,株式会社,神奈川県,川崎市高津区,下作延２丁目２４－８,,14,134,2130033,,,2025-04-04,清算の結了等,,,2015-10-05,1,,,,,イブキデンシ,0
663,3020002085349,登記記録の閉鎖等,0,2025-04-15,2025-04-04,有限会社吉田精密工業,,有限会社,神奈川県,川崎市中原区,北谷町２７番地,,14,133,2110015,,,2025-04-04,清算の結了等,,,2015-10-05,1,,,,,ヨシダセイミツコウギョウ,0
668,3021002054343,登記記録の閉鎖等,0,2025-04-15,2025-04-14,有限会社アディーホーム,,有限会社,神奈川県,小田原市,中曽根１２１番地,,14,206,2500866,,,2025-04-14,清算の結了等,,,2015-10-05,1,,,,,,0
694,3040002033330,登記記録の閉鎖等,0,2025-04-15,2025-04-01,有限会社加藤製作所,,有限会社,千葉県,市川市,曽谷７丁目７番５号,,12,203,2720832,,,2025-04-01,清算の結了等,,,2015-10-05,1,,,,,カトウセイサクショ,0
709,3080402016559,登記記録の閉鎖等,0,2025-04-15,2025-04-07,有限会社大原屋商店,,有限会社,静岡県,浜松市天竜区,春野町気田８１６番地の１,,22,140,4370605,,,2025-04-07,清算の結了等,,,2015-10-05,1,,,,,オオハラヤショウテン,0
714,3100002009695,登記記録の閉鎖等,0,2025-04-15,2025-04-08,有限会社高和鉄工,,有限会社,長野県,千曲市,大字須坂１３３番地,,20,218,3890811,,,2025-04-08,清算の結了等,,,2015-10-05,1,,,,,コウワテッコウ,0
716,3100003004209,登記記録の閉鎖等,0,2025-04-15,2025-04-08,合同会社自立の森,,合同会社,長野県,千曲市,大字森２１７８番地１,,20,218,3870005,,,2025-04-08,清算の結了等,,,2015-10-05,1,,,,,ジリツノモリ,0
726,3120001173103,登記記録の閉鎖等,0,2025-04-15,2025-04-10,株式会社調剤．ｃｏｍ,,株式会社,京都府,木津川市,木津池田３０番地９,,26,214,6190214,,,2025-04-10,合併による解散等,6010901003581,令和７年４月１日東京都世田谷区成城七丁目８番１８号株式会社グラム（6010901003581）に合併し解散,2015-10-05,1,,,,,チョウザイドットコム,0
727,3120001179703,登記記録の閉鎖等,0,2025-04-15,2025-04-10,株式会社ＭＳテクノ,,株式会社,大阪府,枚方市,東中振１丁目１５番６－１０３号,,27,210,5730093,,,2025-04-10,清算の結了等,,,2015-10-05,1,,,,,エムエステクノ,0
728,3120001209105,登記記録の閉鎖等,0,2025-04-15,2025-03-31,株式会社ｙｅｓ　ａｎｄ　ｎｏ,,株式会社,大阪府,大阪市中央区,北久宝寺町１丁目９番６号,,27,128,5410057,,,2025-03-31,清算の結了等,,,2017-10-24,1,,,,,,0
729,3120001213569,登記記録の閉鎖等,0,2025-04-15,2025-03-25,盈享株式会社,,株式会社,大阪府,大阪市東成区,中本４丁目９番２３号,,27,115,5370022,,,2025-03-25,清算の結了等,,,2018-05-23,1,,,,,エイキョウ,0
743,3120101051051,登記記録の閉鎖等,0,2025-04-15,2025-04-11,株式会社クールポートサービス,,株式会社,大阪府,堺市西区,菱木３丁２０３４,,27,144,5938315,,,2025-04-11,合併による解散等,2122002006829,令和７年４月１日大阪府東大阪市箕輪一丁目１６５番１株式会社クールポート関西（2122002006829）に合併し解散,2015-10-05,1,,,,,クールポートサービス,0
756,3130003005047,登記記録の閉鎖等,0,2025-04-15,2025-03-21,株式会社ディティエスジャパン,,株式会社,東京都,港区,新橋２丁目２０番１５号新橋駅前ビル１号館７０６,,13,103,1050004,,,2025-03-21,清算の結了等,,,2017-05-15,1,,,,,ディティエスジャパン,0
767,3170002011694,登記記録の閉鎖等,0,2025-04-15,2025-04-09,有限会社笹井屋,,有限会社,和歌山県,東牟婁郡串本町,串本１５４７番地の３,,30,428,6493503,,,2025-04-09,清算の結了等,,,2015-10-05,1,,,,,ササイヤ,0
770,3180001158222,登記記録の閉鎖等,0,2025-04-15,2025-04-04,アウトドアマスタージャパン株式会社,,株式会社,愛知県,名古屋市中区,新栄１丁目３８番２１号、荘苑ひがし栄８Ｂ号,,23,106,4600007,,,2025-04-04,清算の結了等,,,2023-09-29,1,,,,,アウトドアマスタージャパン,0
773,3180002008459,登記記録の閉鎖等,0,2025-04-15,2025-04-03,有限会社東松電器,,有限会社,愛知県,名古屋市昭和区,長戸町５丁目４７番地の５,,23,107,4660848,,,2025-04-03,清算の結了等,,,2015-10-05,1,,,,,トウマツデンキ,0
787,3190002002048,登記記録の閉鎖等,0,2025-04-15,2025-04-03,有限会社和幸,,有限会社,三重県,津市,久居明神町２６１４番地５,,24,201,5141101,,,2025-04-03,清算の結了等,,,2015-10-05,1,,,,,ワコウ,0
798,3210001018372,登記記録の閉鎖等,0,2025-04-15,2025-04-08,株式会社ＦＵＮＫ,,株式会社,福井県,鯖江市,平井町第１８号１０番地３８,,18,207,9160061,,,2025-04-08,清算の結了等,,,2021-04-07,1,,,,,ファンク,0
822,3310001015715,登記記録の閉鎖等,0,2025-04-15,2025-04-08,小野工業株式会社,,株式会社,長崎県,西彼杵郡時津町,浜田郷８３１番地８,,42,308,8512102,,,2025-04-08,清算の結了等,,,2018-08-28,1,,,,,オノコウギョウ,0
823,3310001015855,登記記録の閉鎖等,0,2025-04-15,2025-04-04,株式会社ＧＳＵＮ,,株式会社,長崎県,長崎市,音無町１４番１６号,,42,201,8528044,,,2025-04-04,清算の結了等,,,2018-12-06,1,,,,,ジーサン,0
826,3330001018889,登記記録の閉鎖等,0,2025-04-15,2025-04-01,株式会社杉コミュニケーションズ,,株式会社,熊本県,熊本市北区,貢町５７１番地１５,,43,105,8615535,,,2025-04-01,合併による解散等,5330001002478,令和７年４月１日熊本市北区貢町５７１番地１５株式会社杉養蜂園（5330001002478）に合併し解散,2015-10-05,1,,,,,スギコミュニケーションズ,0
846,3410002009466,登記記録の閉鎖等,0,2025-04-15,2025-04-07,戸澤板金工業有限会社,,有限会社,秋田県,北秋田市,元町１番７号,,05,213,0183325,,,2025-04-07,清算の結了等,,,2015-10-05,1,,,,,トザワバンキンコウギョウ,0
868,3500002007056,登記記録の閉鎖等,0,2025-04-15,2025-04-11,有限会社山下通信建設,,有限会社,愛媛県,松山市,中野町甲１０２１番地,,38,201,7911121,,,2025-04-11,清算の結了等,,,2015-10-05,1,,,,,,0
874,4010001073131,登記記録の閉鎖等,0,2025-04-15,2025-04-08,ＳＤＰグローバル株式会社,,株式会社,東京都,港区,西新橋１丁目１番１号,,13,103,1050003,,,2025-04-08,合併による解散等,3130001009314,令和７年４月１日京都市東山区一橋野本町１１番地の１三洋化成工業株式会社（3130001009314）に合併し解散,2015-10-05,1,,,,,エスディーピーグローバル,0
881,4010401152815,登記記録の閉鎖等,0,2025-04-15,2025-03-26,Ｄｏｄｄｌｅ株式会社,,株式会社,東京都,港区,元麻布３丁目１番６号,,13,103,1060046,,,2025-03-26,清算の結了等,,,2020-05-19,1,,,,,ドドル,0
889,4010502016357,登記記録の閉鎖等,0,2025-04-15,2025-04-02,有限会社きくやホーム,,有限会社,東京都,台東区,北上野２丁目２０番１０号,,13,106,1100014,,,2025-04-02,清算の結了等,,,2015-10-05,1,,,,,キクヤホーム,0
892,4010701038771,登記記録の閉鎖等,0,2025-04-15,2025-03-27,ｋｉｓｓｙ株式会社,,株式会社,東京都,品川区,豊町１丁目７番２１号,,13,109,1420042,,,2025-03-27,清算の結了等,,,2020-01-27,1,,,,,キッシー,0
897,4010903001684,登記記録の閉鎖等,0,2025-04-15,2025-03-21,クレール株式会社,,株式会社,東京都,港区,南青山４丁目２５番２号,,13,103,1070062,,,2025-03-21,清算の結了等,,,2015-10-05,1,,,,,クレール,0
920,4011301026316,登記記録の閉鎖等,0,2025-04-15,2025-04-01,アマテラスジャパン株式会社,,株式会社,東京都,杉並区,永福２丁目４番１３号,,13,115,1680064,,,2025-04-01,清算の結了等,,,2020-10-20,1,,,,,アマテラスジャパン,0
942,4013201005614,登記記録の閉鎖等,0,2025-04-15,2025-03-28,マルチプルアートプロデュース株式会社,,株式会社,東京都,品川区,小山５丁目８番２０号,,13,109,1420062,,,2025-03-28,清算の結了等,,,2015-10-05,1,,,,,マルチプルアートプロデュース,0
943,4013301015918,登記記録の閉鎖等,0,2025-04-15,2025-04-10,株式会社ヨシダ,,株式会社,東京都,港区,南青山２丁目２番１５－２２１号,,13,103,1070062,,,2025-04-10,合併による解散等,9010901009320,令和７年４月１日東京都世田谷区世田谷一丁目１番１号アシザワセメント株式会社（9010901009320）に合併し解散,2015-10-05,1,,,,,ヨシダ,0
959,4021001043981,登記記録の閉鎖等,0,2025-04-15,2025-04-07,株式会社望洋広告,,株式会社,神奈川県,横須賀市,望洋台８番３号,,14,201,2380053,,,2025-04-07,清算の結了等,,,2015-10-05,1,,,,,ボウヨウコウコク,0
965,4030002008927,登記記録の閉鎖等,0,2025-04-15,2025-04-09,有限会社チューラ,,有限会社,埼玉県,さいたま市中央区,下落合６丁目１５番２号,,11,105,3380002,,,2025-04-09,清算の結了等,,,2015-10-05,1,,,,,チューラ,0
966,4030002018711,登記記録の閉鎖等,0,2025-04-15,2025-04-07,有限会社やおかつ,,有限会社,埼玉県,さいたま市西区,大字宝来１３７８番地４０,,11,101,3310074,,,2025-04-07,合併による解散等,9012401011830,令和７年４月１日埼玉県さいたま市桜区山久保一丁目１１番１号北辰商事株式会社（9012401011830）に合併し解散,2015-10-05,1,,,,,ヤオカツ,0
976,4040002066305,登記記録の閉鎖等,0,2025-04-15,2025-04-01,有限会社鹿嶋瓦店,,有限会社,千葉県,木更津市,真里７２２番地,,12,206,2920212,,,2025-04-01,清算の結了等,,,2015-10-05,1,,,,,カジマカワラテン,0
986,4070001002035,登記記録の閉鎖等,0,2025-04-15,2025-04-09,株式会社田島屋商店,,株式会社,群馬県,前橋市,若宮町２丁目３番５号,,10,201,3710032,,,2025-04-09,合併による解散等,4060001037172,令和７年４月１日栃木県宇都宮市宮の内四丁目１８９番地株式会社ガスワン北関東（4060001037172）に合併し解散,2015-10-05,1,,,,,タジマヤショウテン,0
989,4080001024053,登記記録の閉鎖等,0,2025-04-15,2025-04-07,株式会社プレジールベル,,株式会社,静岡県,静岡市葵区,紺屋町８番地１３,,22,101,4200852,,,2025-04-07,合併による解散等,7080001015297,令和７年３月２３日静岡県焼津市三ヶ名１８０２番地の１４明宝電設株式会社（7080001015297）に合併し解散,2021-03-19,1,,,,,プレジールベル,0
993,4080102017204,登記記録の閉鎖等,0,2025-04-15,2025-04-02,有限会社フジ・プロダクト,,有限会社,静岡県,富士宮市,淀師４４５番地の１,,22,207,4180051,,,2025-04-02,清算の結了等,,,2015-10-05,1,,,,,フジプロダクト,0
997,4080401001899,登記記録の閉鎖等,0,2025-04-15,2025-04-09,サン化学工業株式会社,,株式会社,静岡県,浜松市浜名区,新都田４丁目４番６号,,22,139,4312103,,,2025-04-09,合併による解散等,5030001072717,令和７年４月１日埼玉県加須市志多見８３番地３テイ・エスパーツアンドサービス株式会社（5030001072717）に合併し解散,2015-10-05,1,,,,,サンカガクコウギョウ,0
999,4100001009803,登記記録の閉鎖等,0,2025-04-15,2025-04-08,信越フッコール販売株式会社,,株式会社,長野県,上田市,下塩尻３８２番地４,,20,203,3860043,,,2025-04-08,清算の結了等,,,2015-10-05,1,,,,,シンエツフッコールハンバイ,0
1000,4100002013127,登記記録の閉鎖等,0,2025-04-15,2025-04-10,有限会社コテッヂデザイン,,有限会社,長野県,北佐久郡軽井沢町,大字長倉４４６８番地３,,20,321,3890111,,,2025-04-10,清算の結了等,,,2015-10-05,1,,,,,コテッヂデザイン,0
1008,4120001265898,登記記録の閉鎖等,0,2025-04-15,2025-03-28,新希望株式会社,,株式会社,大阪府,大阪市淀川区,西三国１丁目１１－２グロースハイツ東三国３０２号室,,27,123,5320006,,,2025-03-28,清算の結了等,,,2024-06-21,1,,,,,シンキボウ,0
1021,4120101035680,登記記録の閉鎖等,0,2025-04-15,2025-04-08,株式会社コスモ,,株式会社,大阪府,富田林市,寺池台１丁目９－２０６,,27,214,5840073,,,2025-04-08,清算の結了等,,,2015-10-05,1,,,,,コスモ,0
1040,4140003004534,登記記録の閉鎖等,0,2025-04-15,2025-04-08,ヨシダインターナショナルトレード合同会社,,合同会社,兵庫県,神戸市東灘区,向洋町中３丁目１番地,,28,101,6580032,,,2025-04-08,清算の結了等,,,2015-10-05,1,,,,,ヨシダインターナショナルトレード,0
1051,4170003001660,登記記録の閉鎖等,0,2025-04-15,2025-04-10,わたがしリサーチ合同会社,,合同会社,和歌山県,和歌山市,福島６４０－１－１－１０１,,30,201,6408401,,,2025-04-10,清算の結了等,,,2021-11-12,1,,,,,ワタガシリサーチ,0
1066,4180002086966,登記記録の閉鎖等,0,2025-04-15,2025-04-04,有限会社ソーシン設備,,有限会社,愛知県,常滑市,多屋町４丁目２３番地,,23,216,4790839,,,2025-04-04,清算の結了等,,,2015-10-05,1,,,,,ソーシンセツビ,0
1074,4200003005831,登記記録の閉鎖等,0,2025-04-15,2025-04-04,合同会社大鳥羽,,合同会社,岐阜県,岐阜市,岩田坂４丁目１２番８号２階,,21,201,5013155,,,2025-04-04,清算の結了等,,,2023-02-06,1,,,,,オオトバ,0
1075,4210001015047,登記記録の閉鎖等,0,2025-04-15,2025-04-10,株式会社Ｌ・Ｒ・Ｃ,,株式会社,福井県,吉田郡永平寺町,松岡松ケ原４丁目４１３番地,,18,322,9101138,,,2025-04-10,清算の結了等,,,2015-10-05,1,,,,,エルアールシー,0
1086,4240001045173,登記記録の閉鎖等,0,2025-04-15,2025-04-07,株式会社ｃｌｏｓｅ,,株式会社,広島県,広島市中区,幟町２番１０－１５０２号,,34,101,7300016,,,2025-04-07,清算の結了等,,,2015-10-05,1,,,,,クローズ,0
1091,4250001016066,登記記録の閉鎖等,0,2025-04-15,2025-04-07,株式会社アクト,,株式会社,神奈川県,横浜市鶴見区,鶴見中央２丁目２番２３－４０５号,,14,101,2300051,,,2025-04-07,清算の結了等,,,2016-07-20,1,,,,,アクト,0
1099,4290001059227,登記記録の閉鎖等,0,2025-04-15,2025-04-01,株式会社ふく福サービス,,株式会社,福岡県,福岡市東区,土井１丁目２５番７号,,40,131,8130032,,,2025-04-01,合併による解散等,3290001022441,令和７年４月１日福岡市東区土井一丁目２５番７号株式会社ホームケアサービス（3290001022441）に合併し解散,2015-10-05,1,,,,,フクフクサービス,0
1108,4290801012970,登記記録の閉鎖等,0,2025-04-15,2025-04-03,株式会社クローバーフーズ,,株式会社,福岡県,北九州市八幡西区,京良城町１０番２２－３０３号,,40,109,8060061,,,2025-04-03,清算の結了等,,,2015-10-05,1,,,,,グローバーフーズ,0
1120,4340002026369,登記記録の閉鎖等,0,2025-04-15,2025-04-07,有限会社福元養豚,,有限会社,鹿児島県,肝属郡肝付町,宮下１２５１番地１,,46,492,8931205,,,2025-04-07,清算の結了等,,,2015-10-05,1,,,,,,0
1124,4360001016600,登記記録の閉鎖等,0,2025-04-15,2025-04-08,ＮＴＩ株式会社,,株式会社,沖縄県,うるま市,勝連南風原５１９２番地１０,,47,213,9042311,,,2025-04-08,合併による解散等,1110001012362,令和７年４月１日新潟県阿賀野市山倉１９１２番地２共栄エンジニアリング株式会社（1110001012362）に合併し解散,2015-10-05,1,,,,,エヌティアイ,0
1137,4390001000114,登記記録の閉鎖等,0,2025-04-15,2025-04-03,株式会社岩渕茶舖,,株式会社,山形県,山形市,七日町２丁目７番６号,,06,201,9900042,,,2025-04-03,清算の結了等,,,2015-10-05,1,,,,,イワブチチャホ,0
1151,4480001005987,登記記録の閉鎖等,0,2025-04-15,2025-04-07,株式会社アライソ,,株式会社,徳島県,板野郡藍住町,富吉字須崎５４番地,,36,403,7711231,,,2025-04-07,清算の結了等,,,2015-10-05,1,,,,,アライソ,0
1171,5010005034129,登記記録の閉鎖等,0,2025-04-15,2025-04-04,丸の内ソーラーホールディングス一般社団法人,,その他の設立登記法人,東京都,千代田区,麹町２丁目８番地ＭＬＣ麹町ビル４階フィンポート税理士法人内,,13,101,1020083,,,2025-04-04,清算の結了等,,,2021-10-22,1,,,,,マルノウチソーラーホールディングス,0
1193,5010901028679,登記記録の閉鎖等,0,2025-04-15,2025-04-10,株式会社ＭＦ　Ｐｒｏｊｅｃｔ,,株式会社,東京都,世田谷区,成城３丁目９番１１号,,13,112,1570066,,,2025-04-10,清算の結了等,,,2015-10-05,1,,,,,エムエフプロジェクト,0
1205,5011202012257,登記記録の閉鎖等,0,2025-04-15,2025-03-27,有限会社セイア,,有限会社,東京都,中野区,中野１丁目５４番２号,,13,114,1640001,,,2025-03-27,合併による解散等,7011101046890,令和７年３月１日東京都港区六本木五丁目２番３号株式会社モナミビル（7011101046890）に合併し解散,2015-10-05,1,,,,,,0
1218,5020001027259,登記記録の閉鎖等,0,2025-04-15,2025-04-01,株式会社セレスプランニング,,株式会社,神奈川県,横浜市中区,吉田町１０番地,,14,104,2310041,,,2025-04-01,合併による解散等,6020001030658,令和７年４月１日横浜市中区吉田町１０番地株式会社イシス（6020001030658）に合併し解散,2015-10-05,1,,,,,セレスプランニング,0
1227,5020003017943,登記記録の閉鎖等,0,2025-04-15,2025-04-02,合同会社アイル,,合同会社,神奈川県,横浜市保土ケ谷区,権太坂２丁目１８番１３号高橋マンション２０１号,,14,106,2400026,,,2025-04-02,清算の結了等,,,2020-06-03,1,,,,,アイル,0
1236,5021005008674,登記記録の閉鎖等,0,2025-04-15,2025-04-14,特定非営利活動法人エコ・ケアネットワーク,,その他の設立登記法人,神奈川県,横須賀市,ハイランド１丁目５番１号,,14,201,2390833,,,2025-04-14,清算の結了等,,,2015-10-05,1,,,,,エコケアネットワーク,0
1242,5030001122083,登記記録の閉鎖等,0,2025-04-15,2025-04-08,藤吉郎運輸株式会社,,株式会社,埼玉県,戸田市,笹目４丁目２７番地５５,,11,224,3350034,,,2025-04-08,清算の結了等,,,2017-09-07,1,,,,,トウキチロウウンユ,0
1246,5030002047404,登記記録の閉鎖等,0,2025-04-15,2025-04-07,有限会社たくみ,,有限会社,埼玉県,八潮市,大字二丁目上２０６番地１,,11,234,3400811,,,2025-04-07,清算の結了等,,,2015-10-05,1,,,,,タクミ,0
1275,5050002025845,登記記録の閉鎖等,0,2025-04-15,2025-04-02,有限会社春喜商店,,有限会社,茨城県,古河市,東山田３７４４番地,,08,204,3060112,,,2025-04-02,清算の結了等,,,2015-10-05,1,,,,,ハルヨシショウテン,0
1280,5060001014253,登記記録の閉鎖等,0,2025-04-15,2025-04-02,株式会社シマホ,,株式会社,栃木県,小山市,城東１丁目１２番２５号,,09,208,3230807,,,2025-04-02,清算の結了等,,,2015-10-05,1,,,,,シマホ,0
1281,5070001025456,登記記録の閉鎖等,0,2025-04-15,2025-04-07,株式会社関東デイリー,,株式会社,群馬県,太田市,東新町８３７番地７,,10,205,3730015,,,2025-04-07,合併による解散等,8011201006653,令和７年４月１日東京都中野区中野四丁目４番１１号株式会社ウインズ・コーポレーション（8011201006653）に合併し解散,2015-10-05,1,,,,,カントウデイリー,0
1313,5120002056791,登記記録の閉鎖等,0,2025-04-15,2025-04-01,有限会社ケア悠明,,有限会社,大阪府,大阪市東淀川区,大道南３丁目１１番３０号,,27,114,5330012,,,2025-04-01,清算の結了等,,,2015-10-05,1,,,,,ケアユウメイ,0
1317,5120101023800,登記記録の閉鎖等,0,2025-04-15,2025-04-11,株式会社シーピー・エス,,株式会社,大阪府,堺市美原区,大饗３５０番地５,00032279,27,147,5870063,,,2025-04-11,合併による解散等,2122002006829,令和７年４月１日大阪府東大阪市箕輪一丁目１６５番１株式会社クールポート関西（2122002006829）に合併し解散,2015-10-05,1,,,,,シーピーエス,0
1327,5122002002478,登記記録の閉鎖等,0,2025-04-15,2025-04-07,有限会社上伸ゴム工業所,,有限会社,大阪府,東大阪市,宝町１５番１０号,,27,227,5798025,,,2025-04-07,清算の結了等,,,2015-10-05,1,,,,,ジョウシンゴムコウギョウショ,0
1329,5130001044920,登記記録の閉鎖等,0,2025-04-15,2025-04-09,株式会社ＫＭＴ,,株式会社,京都府,木津川市,木津奈良道３８番地の１,,26,214,6190214,,,2025-04-09,清算の結了等,,,2015-10-05,1,,,,,ケイエムティ,0
1334,5140001061287,登記記録の閉鎖等,0,2025-04-15,2025-04-07,株式会社福井商店,,株式会社,兵庫県,姫路市,飾磨区栄町８番地の１,,28,201,6728053,,,2025-04-07,清算の結了等,,,2015-10-05,1,,,,,フクイショウテン,0
1336,5140001101753,登記記録の閉鎖等,0,2025-04-15,2025-04-10,ａｎｄ　ｍｉｒａｉｗｏ株式会社,,株式会社,兵庫県,西宮市,南甲子園１丁目９番２グリーンラグーナ甲子園Ｂ棟３２２号,,28,204,6638153,,,2025-04-10,清算の結了等,,,2016-04-20,1,,,,,,0
1354,5180001062001,登記記録の閉鎖等,0,2025-04-15,2025-04-04,東海インプラント株式会社,,株式会社,愛知県,名古屋市中区,栄３丁目１５番２７号,,23,106,4600008,,,2025-04-04,清算の結了等,,,2015-10-05,1,,,,,トウカイインプラント,0
1358,5180001108729,登記記録の閉鎖等,0,2025-04-15,2025-04-11,ＫＤＤＩまとめてオフィス中部株式会社,,株式会社,愛知県,名古屋市西区,名駅２丁目２７番８号,,23,104,4510045,,,2025-04-11,合併による解散等,3011101059021,令和７年４月１日東京都渋谷区代々木三丁目２２番７号ＫＤＤＩまとめてオフィス株式会社（3011101059021）に合併し解散,2015-10-05,1,,,,,ケイディーディーアイマトメテオフィスチュウブ,0
1364,5180301021383,登記記録の閉鎖等,0,2025-04-15,2025-04-03,株式会社コーディアルフーズ,,株式会社,愛知県,豊田市,柿本町４丁目４５番地３,,23,211,4710855,,,2025-04-03,清算の結了等,,,2015-10-05,1,,,,,コーディアルフーズ,0
1380,5240002039917,登記記録の閉鎖等,0,2025-04-15,2025-04-10,有限会社オフィスタカスギ,,有限会社,広島県,福山市,曙町６丁目１２番１８号,00001255,34,207,7210952,,,2025-04-10,清算の結了等,,,2015-10-05,1,,,,,オフィスタカスギ,0
1385,5250001016511,登記記録の閉鎖等,0,2025-04-15,2025-04-04,ＡＳＴ株式会社,,株式会社,山口県,下関市,菊川町大字下岡枝１６８番地３,,35,201,7500317,,,2025-04-04,清算の結了等,,,2017-04-04,1,,,,,,0
1388,5250005003679,登記記録の閉鎖等,0,2025-04-15,2025-03-27,天理教彦島分教会,,その他の設立登記法人,山口県,下関市,彦島老町２丁目１５番２４号,,35,201,7500072,,,2025-03-27,合併による解散等,8490005004428,令和７年３月２４日高知県香美市土佐山田町平山字岡田丸１７４８番ロ地天理教繁藤大教会（8490005004428）に合併し解散,2015-10-05,1,,,,,,0
1435,5380001009386,登記記録の閉鎖等,0,2025-04-15,2025-03-27,株式会社佐藤旅館,,株式会社,福島県,二本松市,岳温泉１丁目１番地,,07,210,9640074,,,2025-03-27,清算の結了等,,,2016-05-12,1,,,,,,0
1458,5440005002637,登記記録の閉鎖等,0,2025-04-15,2025-04-09,一般社団法人函館鍼灸マッサージ師会,,その他の設立登記法人,北海道,函館市,堀川町８番１号,,01,202,0400025,,,2025-04-09,清算の結了等,,,2018-08-06,1,,,,,ハコダテシンキュウマッサージシカイ,0
1496,6010401076434,登記記録の閉鎖等,0,2025-04-15,2025-03-25,虎ノ門パートナーズ株式会社,,株式会社,東京都,港区,西新橋１丁目２１番８号弁護士ビル８０１号室,,13,103,1050003,,,2025-03-25,清算の結了等,,,2015-10-05,1,,,,,,0
1500,6010401157787,登記記録の閉鎖等,0,2025-04-15,2025-04-10,株式会社ＯＮＥ　ＤＡＹ　ＤＥＳＩＧＮ,,株式会社,東京都,港区,麻布十番２丁目２０番７号麻布十番高木ビル,00136713,13,103,1060045,,,2025-04-10,合併による解散等,9120001061806,令和７年４月１日大阪市福島区福島二丁目４番３号株式会社ＡＢＣファンライフ（9120001061806）に合併し解散,2021-01-28,1,,,,,ワンデイデザイン,0
1501,6010403025439,登記記録の閉鎖等,0,2025-04-15,2025-03-27,合同会社ＣＲＥインベストメント２,,合同会社,東京都,港区,虎ノ門２丁目１０番１号株式会社シーアールイー内,,13,103,1050001,,,2025-03-27,清算の結了等,,,2021-06-02,1,,,,,シーアールイーインベストメントツー,0
1502,6010405010240,登記記録の閉鎖等,0,2025-04-15,2025-03-18,特定非営利活動法人東日本大震災復興対策等貢献協議会,,その他の設立登記法人,東京都,港区,新橋３丁目５番１０号新三ビル３階,,13,103,1050004,,,2025-03-18,清算の結了等,,,2015-10-05,1,,,,,ヒガシニホンダイシンサイフッコウタイサクトウコウケンキョウギカイ,0
1523,6011003013437,登記記録の閉鎖等,0,2025-04-15,2025-03-17,ＥＳＴＥＬ合同会社,,合同会社,東京都,渋谷区,神宮前６丁目２３番４号桑野ビル２階,,13,113,1500001,,,2025-03-17,清算の結了等,,,2021-09-28,1,,,,,エステル,0
1526,6011101073003,登記記録の閉鎖等,0,2025-04-15,2025-04-04,ＴＮＥ株式会社,,株式会社,東京都,新宿区,歌舞伎町２丁目３番２２号,,13,104,1600021,,,2025-04-04,清算の結了等,,,2015-10-05,1,,,,,ティーエヌイー,0
1533,6011401016751,登記記録の閉鎖等,0,2025-04-15,2025-04-04,株式会社スカイリミットファイブ,,株式会社,東京都,板橋区,氷川町４６番３号,,13,119,1730013,,,2025-04-04,清算の結了等,,,2015-10-05,1,,,,,スカイリミットファイブ,0
1542,6012301013525,登記記録の閉鎖等,0,2025-04-15,2025-04-07,株式会社Ｌｅｇａｍｅ,,株式会社,東京都,町田市,金森東４丁目２４番１２号,,13,209,1940015,,,2025-04-07,清算の結了等,,,2023-07-27,1,,,,,レガーメ,0
1557,6020001035310,登記記録の閉鎖等,0,2025-04-15,2025-04-01,株式会社セレス,,株式会社,神奈川県,横浜市中区,吉田町１０番地,,14,104,2310041,,,2025-04-01,合併による解散等,6020001030658,令和７年４月１日横浜市中区吉田町１０番地株式会社イシス（6020001030658）に合併し解散,2015-10-05,1,,,,,セレス,0
1567,6020003020442,登記記録の閉鎖等,0,2025-04-15,2025-04-04,合同会社やまいち,,合同会社,神奈川県,横浜市瀬谷区,竹村町１３－３６,,14,114,2460005,,,2025-04-04,清算の結了等,,,2021-09-07,1,,,,,ヤマイチ,0
1569,6021001033213,登記記録の閉鎖等,0,2025-04-15,2025-04-14,株式会社メディカルテック,,株式会社,神奈川県,小田原市,酒匂１丁目２３番１５－１０５号,,14,206,2560816,,,2025-04-14,清算の結了等,,,2015-10-05,1,,,,,メディカルテック,0
1573,6030001014742,登記記録の閉鎖等,0,2025-04-15,2025-04-10,株式会社ヤマモト,,株式会社,埼玉県,さいたま市西区,大字佐知川１２７２番地１２,,11,101,3310064,,,2025-04-10,清算の結了等,,,2015-10-05,1,,,,,ヤマモト,0
1588,6040001028758,登記記録の閉鎖等,0,2025-04-15,2025-04-01,松戸新京成バス株式会社,,株式会社,千葉県,鎌ケ谷市,くぬぎ山４丁目１番１２号,,12,224,2730128,,,2025-04-01,合併による解散等,4040001028454,令和７年４月１日千葉県浦安市千鳥１２番５京成バス千葉ウエスト株式会社（4040001028454）に合併し解散,2015-10-05,1,,,,,マツドシンケイセイバス,0
1589,6040001030334,登記記録の閉鎖等,0,2025-04-15,2025-04-01,東京ベイシティ交通株式会社,,株式会社,千葉県,浦安市,千鳥１２番５,,12,227,2790032,,,2025-04-01,合併による解散等,4040001028454,令和７年４月１日千葉県浦安市千鳥１２番５京成バス千葉ウエスト株式会社（4040001028454）に合併し解散,2015-10-05,1,,,,,トウキョウベイシティコウツウ,0
1599,6040002080618,登記記録の閉鎖等,0,2025-04-15,2025-04-01,有限会社ＧＬＯＢＡＬ　ＰＥＡＫ　ＣＯＲＰ　ＬＩＭＩＴＥＤ,,有限会社,千葉県,長生郡長柄町,長富４１番地５,,12,426,2970214,,,2025-04-01,清算の結了等,,,2015-10-05,1,,,,,グローバルピークコープリミテッド,0
1603,6070001016363,登記記録の閉鎖等,0,2025-04-15,2025-04-04,株式会社ナガシマ,,株式会社,群馬県,桐生市,相生町５丁目７４１番地の９,,10,203,3760011,,,2025-04-04,清算の結了等,,,2015-10-05,1,,,,,ナガシマ,0
1616,6110001019774,登記記録の閉鎖等,0,2025-04-15,2025-04-10,株式会社ＯＫＩトラステック,,株式会社,新潟県,上越市,福田町１番地,,15,222,9430000,,,2025-04-10,合併による解散等,7390001012916,令和７年４月１日山形県鶴岡市宝田一丁目１５番６８号ＯＫＩサーキットテクノロジー株式会社（7390001012916）に合併し解散,2015-10-05,1,,,,,オキトラステック,0
1621,6120001105334,登記記録の閉鎖等,0,2025-04-15,2025-03-31,株式会社シーズコーポレーション,,株式会社,大阪府,大阪市中央区,谷町３丁目１番１７号,,27,128,5400012,,,2025-03-31,清算の結了等,,,2015-10-05,1,,,,,シーズコーポレーション,0
1622,6120001117775,登記記録の閉鎖等,0,2025-04-15,2025-04-02,株式会社セブンシーズ,,株式会社,大阪府,大阪市西区,京町堀１丁目６番２３号,,27,106,5500003,,,2025-04-02,合併による解散等,5120002022232,令和７年４月１日大阪市西区京町堀一丁目６番２３号株式会社ＳＥＩＫＥＮ企画（5120002022232）に合併し解散,2015-10-05,1,,,,,セブンシーズ,0
1640,6120101037584,登記記録の閉鎖等,0,2025-04-15,2025-04-03,平和開発株式会社,,株式会社,大阪府,岸和田市,土生町１丁目４番１７－３０３号,,27,202,5960825,,,2025-04-03,清算の結了等,,,2015-10-05,1,,,,,ヘイワカイハツ,0
1649,6130003004112,登記記録の閉鎖等,0,2025-04-15,2025-04-01,合同会社みな和会,,合同会社,大阪府,大阪市城東区,蒲生４丁目１７－１３,,27,118,5360016,,,2025-04-01,清算の結了等,,,2015-10-05,1,,,,,ミナワカイ,0
1654,6140001065865,登記記録の閉鎖等,0,2025-04-15,2025-04-07,株式会社コスモコンパス,,株式会社,兵庫県,姫路市,北今宿３丁目６番３号山名ビル１Ｆ,,28,201,6700057,,,2025-04-07,清算の結了等,,,2015-10-05,1,,,,,コスモコンパス,0
1678,6180001007913,登記記録の閉鎖等,0,2025-04-15,2025-04-07,株式会社イワヰ,,株式会社,三重県,津市,芸濃町椋本２３６０番地,,24,201,5142211,,,2025-04-07,合併による解散等,4180001030462,令和７年４月１日愛知県あま市上萱津深見４８番地ユニクレア株式会社（4180001030462）に合併し解散,2015-10-05,1,,,,,イワイ,0
1685,6180001074012,登記記録の閉鎖等,0,2025-04-15,2025-04-04,共同機工株式会社,,株式会社,愛知県,春日井市,高山町１丁目２０番地の５,,23,206,4860912,,,2025-04-04,清算の結了等,,,2015-10-05,1,,,,,キョウドウキコウ,0
1686,6180001102937,登記記録の閉鎖等,0,2025-04-15,2025-04-02,株式会社珠光,,株式会社,愛知県,名古屋市瑞穂区,汐路町１丁目４番地,,23,108,4670003,,,2025-04-02,清算の結了等,,,2015-10-05,1,,,,,シュコウ,0
1687,6180001129278,登記記録の閉鎖等,0,2025-04-15,2025-04-04,株式会社金城工業所,,株式会社,愛知県,常滑市,字菅場２４番地の３,,23,216,4790075,,,2025-04-04,清算の結了等,,,2017-09-06,1,,,,,キンジョウコウギョウショ,0
1703,6200002006309,登記記録の閉鎖等,0,2025-04-15,2025-04-09,快適工房株式会社,,株式会社,岐阜県,岐阜市,大福町８丁目２２番１号,,21,201,5020934,,,2025-04-09,清算の結了等,,,2015-10-05,1,,,,,,0
1705,6220001001390,登記記録の閉鎖等,0,2025-04-15,2025-04-08,株式会社駅前シネマ,,株式会社,石川県,金沢市,笠市町１６番１０号,,17,201,9200851,,,2025-04-08,清算の結了等,,,2015-10-05,1,,,,,エキマエシネマ,0
1706,6220001010854,登記記録の閉鎖等,0,2025-04-15,2025-04-07,株式会社近江町じもの亭,,株式会社,石川県,金沢市,上近江町２７番地１,,17,201,9200905,,,2025-04-07,清算の結了等,,,2015-10-05,1,,,,,オウミチョウジモノテイ,0
1715,6260001031013,登記記録の閉鎖等,0,2025-04-15,2025-04-07,株式会社黒瀬工業,,株式会社,東京都,中野区,東中野５丁目１１番８号Ｂ１,,13,114,1640003,,,2025-04-07,清算の結了等,,,2017-07-11,1,,,,,クロセコウギョウ,0
1720,6290001043328,登記記録の閉鎖等,0,2025-04-15,2025-04-01,株式会社ＭＶＣ,,株式会社,福岡県,福岡市東区,香椎浜ふ頭２丁目５番１号,,40,131,8130018,,,2025-04-01,合併による解散等,8290001012719,令和７年４月１日福岡市東区香椎浜ふ頭二丁目５番１号株式会社アトル（8290001012719）に合併し解散,2015-10-05,1,,,,,エムブイシー,0
1751,6350002008604,登記記録の閉鎖等,0,2025-04-15,2025-04-11,プレイン株式会社,,株式会社,宮崎県,宮崎市,吉村町北原甲１４０５番地３,,45,201,8800841,,,2025-04-11,合併による解散等,7330001008481,令和７年４月１日熊本市南区流通団地一丁目５６番地株式会社ファーマダイワ（7330001008481）に合併し解散,2015-10-05,1,,,,,プレイン,0
1754,6370001022876,登記記録の閉鎖等,0,2025-04-15,2025-04-11,ＫＤＤＩまとめてオフィス東日本株式会社,,株式会社,宮城県,仙台市青葉区,一番町４丁目１番２５号,,04,101,9800811,,,2025-04-11,合併による解散等,3011101059021,令和７年４月１日東京都渋谷区代々木三丁目２２番７号ＫＤＤＩまとめてオフィス株式会社（3011101059021）に合併し解散,2015-10-05,1,,,,,ケイディーディーアイマトメテオフィスヒガシニホン,0
1760,6400502000179,登記記録の閉鎖等,0,2025-04-15,2025-03-31,有限会社アサヒ,,有限会社,岩手県,一関市,関が丘１３番地８,,03,209,0210851,,,2025-03-31,清算の結了等,,,2015-10-05,1,,,,,アサヒ,0
1789,7010001111474,登記記録の閉鎖等,0,2025-04-15,2025-04-04,株式会社ビューティースリー,,株式会社,東京都,江東区,富岡１丁目１３番６号ビューティースリービル,,13,108,1350047,,,2025-04-04,清算の結了等,,,2015-10-05,1,,,,,ビューティースリー,0
1796,7010001205730,登記記録の閉鎖等,0,2025-04-15,2025-04-07,株式会社アクセンディ,,株式会社,福井県,福井市,みのり４丁目１４番１７号,,18,201,9188005,,,2025-04-07,合併による解散等,3120001085158,令和７年４月１日大阪市中央区道修町四丁目１番１号株式会社ブレイン（3120001085158）に合併し解散,2019-12-02,1,,,,,アクセンディ,0
1806,7010401085938,登記記録の閉鎖等,0,2025-04-15,2025-03-25,天野デンタル株式会社,,株式会社,東京都,港区,南麻布５丁目１１番１号南麻布ハウス２０１号室,,13,103,1060047,,,2025-03-25,清算の結了等,,,2015-10-05,1,,,,,アマノデンタル,0
1814,7010505000058,登記記録の閉鎖等,0,2025-04-15,2025-04-08,一般社団法人全日本ギフト用品協会,,その他の設立登記法人,東京都,台東区,寿３丁目１５番１０号ペンギンビル３階,,13,106,1110042,,,2025-04-08,清算の結了等,,,2015-10-05,1,,,,,ゼンニンホンギフトヨウヒンキョウカイ,0
1817,7010701012559,登記記録の閉鎖等,0,2025-04-15,2025-04-01,ミクロファイン株式会社,,株式会社,東京都,大田区,田園調布３丁目２０番１２号,,13,111,1450071,,,2025-04-01,合併による解散等,3010801030869,令和７年４月１日東京都大田区田園調布三丁目２０番１２号株式会社メイワ（3010801030869）に合併し解散,2015-10-05,1,,,,,ミクロファイン,0
1836,7011002024954,登記記録の閉鎖等,0,2025-04-15,2025-03-14,有限会社代々木ロックサービス,,有限会社,東京都,渋谷区,代々木１丁目２３番７号,,13,113,1510053,,,2025-03-14,清算の結了等,,,2015-10-05,1,,,,,ヨヨギロックサービス,0
1843,7011101090170,登記記録の閉鎖等,0,2025-04-15,2025-03-18,株式会社Ｓｕｒｆｓ　Ｍｅｄ,,株式会社,東京都,港区,浜松町２丁目２番１５号浜松町ダイヤビル２Ｆ,,13,103,1050013,,,2025-03-18,清算の結了等,,,2020-01-22,1,,,,,サーフスメッド,0
1846,7011301025026,登記記録の閉鎖等,0,2025-04-15,2025-03-31,株式会社ＦＯＯＤ　ＧＡＲＡＧＥ,,株式会社,東京都,杉並区,阿佐谷北１丁目２７番５号,,13,115,1660001,,,2025-03-31,清算の結了等,,,2019-05-10,1,,,,,フードガレージ,0
1848,7011405002045,登記記録の閉鎖等,0,2025-04-15,2025-04-09,一般社団法人中小企業総合経営支援協会,,その他の設立登記法人,東京都,板橋区,赤塚４丁目３１番６号,,13,119,1750092,,,2025-04-09,清算の結了等,,,2019-07-29,1,,,,,チュウショウキギョウソウゴウケイエイシエンキョウカイ,0
1853,7012301008400,登記記録の閉鎖等,0,2025-04-15,2025-04-07,株式会社ＴＫエンジニア,,株式会社,東京都,町田市,金森６丁目３６番２号,,13,209,1940012,,,2025-04-07,清算の結了等,,,2015-10-05,1,,,,,ティーケーエンジニア,0
1862,7020001053518,登記記録の閉鎖等,0,2025-04-15,2025-04-02,ヒカレ株式会社,,株式会社,神奈川県,横浜市旭区,今宿東町７６９－７,,14,112,2410032,,,2025-04-02,清算の結了等,,,2015-10-05,1,,,,,ヒカレ,0
1863,7020001088869,登記記録の閉鎖等,0,2025-04-15,2025-04-04,株式会社黒田工業,,株式会社,神奈川県,横浜市鶴見区,市場富士見町６番３－４０４号,,14,101,2300026,,,2025-04-04,清算の結了等,,,2015-10-05,1,,,,,クロダコウギョウ,0
1864,7020001090767,登記記録の閉鎖等,0,2025-04-15,2025-04-02,株式会社ユーディー,,株式会社,神奈川県,川崎市高津区,坂戸３丁目２番１号,,14,134,2130012,,,2025-04-02,清算の結了等,,,2015-10-05,1,,,,,ユーディー,0
1874,7021002062813,登記記録の閉鎖等,0,2025-04-15,2025-04-07,有限会社一商工,,有限会社,神奈川県,横須賀市,ハイランド１丁目１２番６号,,14,201,2390833,,,2025-04-07,清算の結了等,,,2015-10-05,1,,,,,イチショウコウ,0
1891,7040001028757,登記記録の閉鎖等,0,2025-04-15,2025-04-01,船橋新京成バス株式会社,,株式会社,千葉県,鎌ケ谷市,くぬぎ山４丁目１番１２号,,12,224,2730128,,,2025-04-01,合併による解散等,4040001028454,令和７年４月１日千葉県浦安市千鳥１２番５京成バス千葉ウエスト株式会社（4040001028454）に合併し解散,2015-10-05,1,,,,,フナバシシンケイセイバス,0
1900,7040005018779,登記記録の閉鎖等,0,2025-04-15,2025-04-01,一般社団法人蓮黄院龍護苑,,その他の設立登記法人,千葉県,木更津市,中央２丁目５番１７号,,12,206,2920067,,,2025-04-01,清算の結了等,,,2015-10-21,1,,,,,レンコウインリュウゴエン,0
1906,7060001009219,登記記録の閉鎖等,0,2025-04-15,2025-04-03,株式会社恭新工業,,株式会社,栃木県,宇都宮市,雀の宮４丁目２６番５２号,,09,201,3210132,,,2025-04-03,清算の結了等,,,2015-10-05,1,,,,,キョウシンコウギョウ,0
1921,7080001002329,登記記録の閉鎖等,0,2025-04-15,2025-04-08,キラン住宅販売株式会社,,株式会社,静岡県,静岡市駿河区,宮竹１丁目９番２４－１号,,22,102,4228035,,,2025-04-08,清算の結了等,,,2015-10-05,1,,,,,キランジュウタクハンバイ,0
1928,7100002011219,登記記録の閉鎖等,0,2025-04-15,2025-04-09,有限会社ホクシン,,有限会社,長野県,佐久市,中込２丁目８番地２,,20,217,3850051,,,2025-04-09,清算の結了等,,,2015-10-05,1,,,,,ホクシン,0
1929,7100002016440,登記記録の閉鎖等,0,2025-04-15,2025-04-09,丸子日通プロパン販賣有限会社,,有限会社,長野県,上田市,上丸子２６８番地３,,20,203,3860404,,,2025-04-09,清算の結了等,,,2015-10-05,1,,,,,マルコニッツウプロパンハンバイ,0
1931,7120001003520,登記記録の閉鎖等,0,2025-04-15,2025-03-31,株式会社シノヅカ,,株式会社,大阪府,大阪市西成区,玉出西１丁目１９番１５号,,27,122,5570045,,,2025-03-31,清算の結了等,,,2015-10-05,1,,,,,シノヅカ,0
1956,7130005009364,登記記録の閉鎖等,0,2025-04-15,2025-04-08,特定非営利活動法人京都古布保存会,,その他の設立登記法人,京都府,宇治市,広野町西裏５７番地の３,,26,204,6110031,,,2025-04-08,清算の結了等,,,2015-10-05,1,,,,,キョウトコフホゾンカイ,0
1967,7140005001163,登記記録の閉鎖等,0,2025-04-15,2025-03-31,天理教鐘ヶ渕分教會,00041962,その他の設立登記法人,兵庫県,神戸市垂水区,北舞子４丁目９番１６号,,28,108,6550045,,,2025-03-31,合併による解散等,2140005001242,令和７年３月３１日神戸市兵庫区駅南通二丁目２番７号天理教扇港分教会（2140005001242）に合併し解散,2015-10-05,1,,,,,テンリキョウカネガフチブンキョウカイ,0
1969,7160001010389,登記記録の閉鎖等,0,2025-04-15,2025-04-07,株式会社ティエムコーポレーション,,株式会社,滋賀県,東近江市,野村町４１７番地,,25,213,5270047,,,2025-04-07,清算の結了等,,,2015-10-05,1,,,,,ティエムコーポレーション,0
1975,7170002009553,登記記録の閉鎖等,0,2025-04-15,2025-04-10,龍神小又川温泉開発有限会社,,有限会社,和歌山県,田辺市,龍神村小又川２３０番地,,30,206,6450521,,,2025-04-10,清算の結了等,,,2015-10-05,1,,,,,リュウジンコマタガワオンセンカイハツ,0
1980,7180001079357,登記記録の閉鎖等,0,2025-04-15,2025-04-04,株式会社山精,,株式会社,愛知県,瀬戸市,水無瀬町８８番地,,23,204,4890872,,,2025-04-04,清算の結了等,,,2015-10-05,1,,,,,ヤマセイ,0
1995,7180301009625,登記記録の閉鎖等,0,2025-04-15,2025-04-04,株式会社島口鉄筋,,株式会社,愛知県,豊橋市,天伯町字三和９５番地の３,,23,201,4418122,,,2025-04-04,清算の結了等,,,2015-10-05,1,,,,,シマグチテッキン,0
1997,7180302003346,登記記録の閉鎖等,0,2025-04-15,2025-04-07,有限会社足立鉄工所,,有限会社,愛知県,額田郡幸田町,大字菱池字行連１５番地１,,23,501,4440113,,,2025-04-07,清算の結了等,,,2015-10-05,1,,,,,アダチテッコウショ,0
1999,7190001016433,登記記録の閉鎖等,0,2025-04-15,2025-04-08,株式会社三重日立,,株式会社,三重県,四日市市,日永東２丁目２番６号,,24,202,5100886,,,2025-04-08,合併による解散等,4120001027010,令和７年４月１日大阪市西区土佐堀一丁目３番７号関西日立株式会社（4120001027010）に合併し解散,2015-10-05,1,,,,,ミエヒタチ,0
2000,7190005006240,登記記録の閉鎖等,0,2025-04-15,2025-04-03,医療法人上久保整形外科クリニック,,その他の設立登記法人,三重県,名張市,松崎町１４４３番地,,24,208,5180722,,,2025-04-03,清算の結了等,,,2015-10-05,1,,,,,カミクボセイケイゲカクリニック,0
2002,7200002021216,登記記録の閉鎖等,0,2025-04-15,2025-04-07,有限会社三和鉄工所,,有限会社,岐阜県,土岐市,土岐口中町３丁目１２番地,,21,212,5095124,,,2025-04-07,清算の結了等,,,2015-10-05,1,,,,,サンワテッコウジョ,0
2012,7230001007527,登記記録の閉鎖等,0,2025-04-15,2025-04-01,西川自販株式会社,,株式会社,富山県,下新川郡入善町,入膳３２１３番地の７,,16,342,9390626,,,2025-04-01,合併による解散等,8230001002881,令和７年４月１日富山市新庄本町二丁目９番７９号株式会社ホンダ自販タナカ（8230001002881）に合併し解散,2015-10-05,1,,,,,ニシカワジハン,0
2045,7320002021427,登記記録の閉鎖等,0,2025-04-15,2025-04-02,有限会社植山酒店,,有限会社,大分県,宇佐市,大字四日市１４７３番地の１,,44,211,8790471,,,2025-04-02,合併による解散等,4320001011002,令和７年４月１日大分県中津市大字万田５７２番地の１株式会社横山酒販（4320001011002）に合併し解散,2015-10-05,1,,,,,,0
2049,7330001022490,登記記録の閉鎖等,0,2025-04-15,2025-04-01,株式会社杉養蜂園マーケティング,,株式会社,熊本県,熊本市北区,貢町５７１番地１５,,43,105,8615535,,,2025-04-01,合併による解散等,5330001002478,令和７年４月１日熊本市北区貢町５７１番地１５株式会社杉養蜂園（5330001002478）に合併し解散,2016-02-04,1,,,,,スギヨウホウエンマーケティング,0
2070,7390001007965,登記記録の閉鎖等,0,2025-04-15,2025-04-09,ＢＸ東北鐵矢株式会社,,株式会社,山形県,鶴岡市,田代字広瀬１６番地,,06,203,9970302,,,2025-04-09,合併による解散等,3030001042606,令和７年４月１日埼玉県上尾市大字平塚字西原７５３番地ＢＸティアール株式会社（3030001042606）に合併し解散,2015-10-05,1,,,,,ビーエックストウホクテツヤ,0
2084,7430001041126,登記記録の閉鎖等,0,2025-04-15,2025-04-04,株式会社美宣,,株式会社,北海道,札幌市白石区,北郷二条２丁目２番２３号松下ビル,,01,104,0030832,,,2025-04-04,清算の結了等,,,2015-10-05,1,,,,,ビセン,0
2093,7450005002304,登記記録の閉鎖等,0,2025-04-15,2025-04-04,特定非営利活動法人美瑛エコスポーツ実践会,,その他の設立登記法人,北海道,上川郡美瑛町,寿町２丁目３番１３号,,01,459,0710209,,,2025-04-04,清算の結了等,,,2015-10-05,1,,,,,ビエイエコスポーツジッセンカイ,0
2095,7460302003326,登記記録の閉鎖等,0,2025-04-15,2025-04-11,有限会社佐呂間スクラツプセンター,,有限会社,北海道,常呂郡佐呂間町,字北３２２番地５,,01,552,0930505,,,2025-04-11,清算の結了等,,,2015-10-05,1,,,,,サロマスクラツプセンター,0
2104,7500003002829,登記記録の閉鎖等,0,2025-04-15,2025-04-10,合同会社あら波,,合同会社,愛媛県,松山市,千舟町５丁目３－１７,,38,201,7900011,,,2025-04-10,清算の結了等,,,2022-05-11,1,,,,,アラナミ,0
2107,8010001057238,登記記録の閉鎖等,0,2025-04-15,2025-04-01,丸三フアイナンス株式会社,,株式会社,東京都,千代田区,麹町３丁目３番６,,13,101,1020083,,,2025-04-01,合併による解散等,1010001057236,令和７年４月１日東京都千代田区麹町三丁目３番６丸三証券株式会社（1010001057236）に合併し解散,2015-10-05,1,,,,,マルサンファイナンス,0
2109,8010001213162,登記記録の閉鎖等,0,2025-04-15,2025-04-01,ＤＭ三井製糖株式会社,,株式会社,東京都,港区,芝５丁目２６番１６号,,13,103,1080014,,,2025-04-01,合併による解散等,1010001034929,令和７年４月１日東京都港区芝五丁目２６番１６号ＤＭ三井製糖株式会社（1010001034929）に合併し解散,2020-10-20,1,,,,,ディーエムミツイセイトウ,0
2122,8010005014490,登記記録の閉鎖等,0,2025-04-15,2025-04-07,特定非営利活動法人廃棄物教育センター,,その他の設立登記法人,東京都,中央区,銀座５丁目１０－６御幸ビル８Ｆ,,13,102,1040061,,,2025-04-07,清算の結了等,,,2015-10-05,1,,,,,ハイキブツキョウイクセンター,0
2123,8010401025199,登記記録の閉鎖等,0,2025-04-15,2025-03-21,株式会社ピノキオプロモーション,,株式会社,東京都,港区,南青山５丁目４番３５号,,13,103,1070062,,,2025-03-21,清算の結了等,,,2015-10-05,1,,,,,ピノキオプロモーション,0
2128,8010401153702,登記記録の閉鎖等,0,2025-04-15,2025-02-27,株式会社スタンダード・イノベーション,,株式会社,東京都,港区,西新橋３丁目５番９号ＨＯＹＯ新虎ビル８階,,13,103,1050003,,,2025-02-27,清算の結了等,,,2020-07-02,1,,,,,スタンダードイノベーション,0
2144,8010805001738,登記記録の閉鎖等,0,2025-04-15,2025-04-01,特定非営利活動法人日本ＥＬＦシステム協会,,その他の設立登記法人,東京都,大田区,東海２丁目２番１号東京都中央卸売市場大田市場花き部株式会社フラワーオークションジャパン内４階,,13,111,1430001,,,2025-04-01,清算の結了等,,,2015-10-05,1,,,,,ニホンエルフシステムキョウカイ,0
2158,8011001145635,登記記録の閉鎖等,0,2025-04-15,2025-04-10,株式会社ＧＯＴＯＨイノベーション,,株式会社,東京都,新宿区,西新宿３丁目７番３０号フロンティアグラン西新宿４０１,,13,104,1600023,,,2025-04-10,清算の結了等,,,2022-02-15,1,,,,,ゴトウイノベーション,0
2172,8011303003788,登記記録の閉鎖等,0,2025-04-15,2025-03-31,合同会社ＯＴＹＡ,,合同会社,東京都,杉並区,和田１丁目６１番７号,,13,115,1660012,,,2025-03-31,清算の結了等,,,2020-10-14,1,,,,,オーティーワイエー,0
2192,8020001076864,登記記録の閉鎖等,0,2025-04-15,2025-04-04,株式会社ミクラ,,株式会社,栃木県,那須郡那須町,大字伊王野２８８番地４,,09,407,3293436,,,2025-04-04,清算の結了等,,,2015-10-05,1,,,,,ミクラ,0
2193,8020001093323,登記記録の閉鎖等,0,2025-04-15,2025-04-07,株式会社キュータス,,株式会社,神奈川県,横浜市保土ケ谷区,川辺町５番地２サーパス横浜星川３０９号,,14,106,2400001,,,2025-04-07,清算の結了等,,,2015-10-05,1,,,,,キュータス,0
2213,8021001064529,登記記録の閉鎖等,0,2025-04-15,2025-04-10,飛鳥圧送株式会社,,株式会社,神奈川県,横須賀市,阿部倉３０番６号,,14,201,2380033,,,2025-04-10,清算の結了等,,,2018-04-10,1,,,,,アスカアッソウ,0
2220,8030001033063,登記記録の閉鎖等,0,2025-04-15,2025-04-10,アイワイフーズ株式会社,,株式会社,埼玉県,加須市,豊野台２丁目７１７番８,,11,210,3491148,,,2025-04-10,合併による解散等,3010001083908,令和７年３月１日東京都千代田区二番町８番地８株式会社Ｐｅａｃｅ　Ｄｅｌｉ（3010001083908）に合併し解散,2015-10-05,1,,,,,アイワイフーズ,0
2221,8030001068605,登記記録の閉鎖等,0,2025-04-15,2025-04-08,株式会社タチバナロジテム,,株式会社,埼玉県,越谷市,蒲生３丁目１３番３５号,,11,222,3430838,,,2025-04-08,清算の結了等,,,2015-10-05,1,,,,,タチバナロジテム,0
2245,8080001015313,登記記録の閉鎖等,0,2025-04-15,2025-04-09,株式会社山政,,株式会社,静岡県,焼津市,東小川２丁目４番１４号,,22,212,4250035,,,2025-04-09,清算の結了等,,,2015-10-05,1,,,,,ヤママサ,0
2248,8080002016211,登記記録の閉鎖等,0,2025-04-15,2025-04-08,有限会社豊和,,有限会社,静岡県,焼津市,柳新屋９３７番地,,22,212,4250074,,,2025-04-08,清算の結了等,,,2015-10-05,1,,,,,ホウワ,0
2254,8100002005252,登記記録の閉鎖等,0,2025-04-15,2025-04-08,有限会社本井歯科技工所,,有限会社,長野県,長野市,若穂川田２７４３番地,,20,201,3810103,,,2025-04-08,清算の結了等,,,2015-10-05,1,,,,,モトイシカギコウショ,0
2266,8120001042187,登記記録の閉鎖等,0,2025-04-15,2025-04-10,株式会社ＣＡＣオルビス,,株式会社,大阪府,大阪市西区,江戸堀１丁目２５番７号,,27,106,5500002,,,2025-04-10,合併による解散等,1010001159627,令和７年４月１日東京都中央区日本橋箱崎町２４番１号株式会社シーエーシー（1010001159627）に合併し解散,2015-10-05,1,,,,,シーエーシーオルビス,0
2313,8130002012080,登記記録の閉鎖等,0,2025-04-15,2025-04-11,有限会社岸上彫刻所,,有限会社,京都府,京都市山科区,四ノ宮柳山町６番地の１８,,26,110,6078025,,,2025-04-11,清算の結了等,,,2015-10-05,1,,,,,キシガミチョウコクショ,0
2328,8170001007004,登記記録の閉鎖等,0,2025-04-15,2025-04-09,エヌシー環境株式会社,,株式会社,和歌山県,和歌山市,湊１３４２番地,,30,201,6408404,,,2025-04-09,合併による解散等,1120001046120,令和７年４月１日大阪市西区南堀江一丁目１２番１９号南海化学株式会社（1120001046120）に合併し解散,2015-10-05,1,,,,,エヌシーカンキョウ,0
2331,8180001033643,登記記録の閉鎖等,0,2025-04-15,2025-04-08,株式会社アイ・シー・アール,,株式会社,愛知県,名古屋市東区,東桜２丁目１０番１号,,23,102,4610005,,,2025-04-08,合併による解散等,7010001243714,令和７年４月１日東京都千代田区一番町２１番地株式会社アイティフォー・ベックス（7010001243714）に合併し解散,2015-10-05,1,,,,,アイシーアール,0
2337,8180001150629,登記記録の閉鎖等,0,2025-04-15,2025-04-04,株式会社ライク,,株式会社,愛知県,名古屋市千種区,内山３丁目１番１５号,,23,101,4640075,,,2025-04-04,清算の結了等,,,2022-04-01,1,,,,,ライク,0
2341,8180003003594,登記記録の閉鎖等,0,2025-04-15,2025-04-07,合資会社今飯田商店,,合資会社,愛知県,名古屋市西区,浄心１丁目１番３８号,,23,104,4510061,,,2025-04-07,清算の結了等,,,2015-10-05,1,,,,,イマイイダショウテン,0
2344,8180302003709,登記記録の閉鎖等,0,2025-04-15,2025-04-04,有限会社スルー工業,,有限会社,愛知県,岡崎市,中之郷町字元山甲２番地,,23,202,4440242,,,2025-04-04,清算の結了等,,,2015-10-05,1,,,,,スルーコウギョウ,0
2348,8200002002677,登記記録の閉鎖等,0,2025-04-15,2025-04-09,大誠印刷有限会社,,有限会社,岐阜県,岐阜市,岩田東３丁目１２番地,,21,201,5013154,,,2025-04-09,清算の結了等,,,2015-10-05,1,,,,,タイセイインサツ,0
2352,8220001020091,登記記録の閉鎖等,0,2025-04-15,2025-04-08,株式会社野村昌弘の研究所,,株式会社,石川県,金沢市,久安６丁目１１３番地,,17,201,9218164,,,2025-04-08,清算の結了等,,,2015-10-05,1,,,,,ノムラマサヒロノケンキュウショ,0
2378,8290001051931,登記記録の閉鎖等,0,2025-04-15,2025-04-02,ワウハウス九州株式会社,,株式会社,福岡県,久留米市,中央町３２番地４,,40,203,8300023,,,2025-04-02,合併による解散等,5290001016425,令和７年４月１日福岡市博多区博多駅南五丁目１５番９号株式会社オーリック建設（5290001016425）に合併し解散,2015-10-05,1,,,,,ワウハウスキュウシュウ,0
2398,8340001012110,登記記録の閉鎖等,0,2025-04-15,2025-04-04,株式会社ＴＡＭＯＮＴ,,株式会社,鹿児島県,霧島市,国分野口町２１番５号,,46,218,8994342,,,2025-04-04,清算の結了等,,,2015-10-05,1,,,,,タモント,0
2405,8370202003426,登記記録の閉鎖等,0,2025-04-15,2025-04-01,有限会社邑綺,,有限会社,宮城県,遠田郡涌谷町,小里字長根北６８番地,,04,501,9870281,,,2025-04-01,清算の結了等,,,2015-10-05,1,,,,,ユウキ,0
2428,8500002008586,登記記録の閉鎖等,0,2025-04-15,2025-04-10,有限会社中田電気工事,,有限会社,愛媛県,伊予郡松前町,大字上高柳５８３番地２０,,38,401,7913142,,,2025-04-10,清算の結了等,,,2015-10-05,1,,,,,ナカタデンキコウジ,0
2452,9010403018431,登記記録の閉鎖等,0,2025-04-15,2025-03-26,合同会社Ｇｏｌｄ　Ｒｕｓｈ,,合同会社,東京都,港区,虎ノ門５丁目１番４号,,13,103,1050001,,,2025-03-26,清算の結了等,,,2018-04-10,1,,,,,ゴールドラッシュ,0
2456,9010601019652,登記記録の閉鎖等,0,2025-04-15,2025-04-09,株式会社材料検査センター,,株式会社,埼玉県,川口市,南鳩ヶ谷２丁目１７番２号,,11,203,3340013,,,2025-04-09,清算の結了等,,,2015-10-05,1,,,,,ザイリョウケンサセンター,0
2476,9011001014343,登記記録の閉鎖等,0,2025-04-15,2025-04-02,株式会社鶴亀社中,,株式会社,山梨県,山梨市,東１９３７番地の２,,19,205,4050002,,,2025-04-02,清算の結了等,,,2015-10-05,1,,,,,ツルカメシャチュウ,0
2478,9011001150428,登記記録の閉鎖等,0,2025-04-15,2025-03-31,ＫＷｍｅｄｉｃａｌ株式会社,,株式会社,東京都,新宿区,西新宿３丁目３番１３号西新宿水間ビル６階,,13,104,1600023,,,2025-03-31,清算の結了等,,,2022-10-20,1,,,,,ケイダブリューメディカル,0
2504,9013101003804,登記記録の閉鎖等,0,2025-04-15,2025-04-11,株式会社瀧澤,00059684,株式会社,東京都,青梅市,河辺町５丁目３番地９,,13,205,1980036,,,2025-04-11,清算の結了等,,,2015-10-05,1,,,,,タキザワ,0
2510,9020001027908,登記記録の閉鎖等,0,2025-04-15,2025-04-04,株式会社桃玄,,株式会社,神奈川県,横浜市中区,末吉町１丁目１３番地,,14,104,2310055,,,2025-04-04,清算の結了等,,,2015-10-05,1,,,,,トウゲン,0
2516,9020002027485,登記記録の閉鎖等,0,2025-04-15,2025-04-01,有限会社富賀田,,有限会社,神奈川県,横浜市神奈川区,西神奈川１丁目５番地の７,,14,102,2210822,,,2025-04-01,合併による解散等,4020001120394,令和７年４月１日横浜市神奈川区西神奈川一丁目５番地７Ｅ１ＷｅＳＴ９０１号株式会社ＦＫＤホールディングス（4020001120394）に合併し解散,2015-10-05,1,,,,,フカダ,0
2532,9030001157530,登記記録の閉鎖等,0,2025-04-15,2025-04-08,株式会社ＩＮＧ,,株式会社,埼玉県,坂戸市,大字青木８８９番地１１,,11,239,3500207,,,2025-04-08,清算の結了等,,,2023-12-07,1,,,,,アイエヌジー,0
2543,9040001123044,登記記録の閉鎖等,0,2025-04-15,2025-04-01,株式会社ＴＲＥＥ,,株式会社,千葉県,鴨川市,宮５２番地１,,12,223,2992853,,,2025-04-01,清算の結了等,,,2022-04-14,1,,,,,ツリー,0
2562,9070005003339,登記記録の閉鎖等,0,2025-04-15,2025-04-04,医療法人ふじえ内科医院,,その他の設立登記法人,群馬県,高崎市,上滝町３２１番地,,10,202,3700027,,,2025-04-04,清算の結了等,,,2015-10-05,1,,,,,フジエナイカイイン,0
2584,9120001175696,登記記録の閉鎖等,0,2025-04-15,2025-04-11,ＫＤＤＩまとめてオフィス関西株式会社,,株式会社,大阪府,大阪市中央区,城見２丁目２番７２号,,27,128,5400001,,,2025-04-11,合併による解散等,3011101059021,令和７年４月１日東京都渋谷区代々木三丁目２２番７号ＫＤＤＩまとめてオフィス株式会社（3011101059021）に合併し解散,2015-10-05,1,,,,,ケイディーディーアイマトメテオフィスカンサイ,0
2600,9120002010258,登記記録の閉鎖等,0,2025-04-15,2025-04-11,有限会社ポック,,有限会社,大阪府,大阪市生野区,桃谷２丁目２３番３２号,,27,116,5440034,,,2025-04-11,清算の結了等,,,2015-10-05,1,,,,,ポック,0
2610,9122001022515,登記記録の閉鎖等,0,2025-04-15,2025-04-08,株式会社ストック,,株式会社,大阪府,八尾市,安中町８丁目５番１５号,,27,212,5810085,,,2025-04-08,清算の結了等,,,2015-10-05,1,,,,,ストック,0
2622,9140001051895,登記記録の閉鎖等,0,2025-04-15,2025-04-01,株式会社和弘,,株式会社,兵庫県,尼崎市,常吉２丁目５番１号,,28,202,6610042,,,2025-04-01,合併による解散等,4140001104963,令和７年４月１日兵庫県尼崎市常吉二丁目５番１号株式会社弘香（4140001104963）に合併し解散,2015-10-05,1,,,,,ワコウ,0
2627,9140001109834,登記記録の閉鎖等,0,2025-04-15,2025-04-10,株式会社ＲＡＧＡＺＺＩ,,株式会社,兵庫県,尼崎市,東難波町５丁目１２番２号ＯＰＳ２号室,,28,202,6600892,,,2025-04-10,清算の結了等,,,2018-04-23,1,,,,,,0
2641,9160002014750,登記記録の閉鎖等,0,2025-04-15,2025-04-07,有限会社介護サービスうさぎ,,有限会社,滋賀県,守山市,矢島町１３４９番地,,25,207,5240015,,,2025-04-07,清算の結了等,,,2015-10-05,1,,,,,カイゴサービスウサギ,0
2644,9170002005609,登記記録の閉鎖等,0,2025-04-15,2025-04-10,有限会社オフィスビバリー,,有限会社,和歌山県,和歌山市,井辺２４番地７トゥインクル寛２０５号,,30,201,6408302,,,2025-04-10,清算の結了等,,,2015-10-05,1,,,,,オフィスビバリー,0
2678,9250001013736,登記記録の閉鎖等,0,2025-04-15,2025-04-07,チャリ株式会社,,株式会社,山口県,下関市,山の田中央町２番８号,,35,201,7510837,,,2025-04-07,清算の結了等,,,2015-10-05,1,,,,,,0
2680,9250005000210,登記記録の閉鎖等,0,2025-04-15,2025-04-07,華光寺,,その他の設立登記法人,山口県,山口市,秋穂二島字千見崎壱ノ切６番地の１,,35,203,7540893,,,2025-04-07,清算の結了等,,,2015-10-05,1,,,,,ケコウジ,0
2684,9280002008963,登記記録の閉鎖等,0,2025-04-15,2025-04-01,有限会社デイ・シイ・デイ,,有限会社,島根県,浜田市,下府町３８８番地４７,,32,202,6970006,,,2025-04-01,合併による解散等,9280001004344,令和７年４月１日島根県浜田市下府町３８８番地４０中国保安警備株式会社（9280001004344）に合併し解散,2015-10-05,1,,,,,デイシイデイ,0
2685,9280003000886,登記記録の閉鎖等,0,2025-04-15,2025-04-10,合同会社ＡｒｔＢｒａｉｎ,,合同会社,島根県,松江市,乃白町７１５番地,,32,201,6900045,,,2025-04-10,清算の結了等,,,2015-10-05,1,,,,,アートブレーン,0
2696,9320002021136,登記記録の閉鎖等,0,2025-04-15,2025-04-02,有限会社松掛酒店,,有限会社,大分県,中津市,１１３２番地,,44,203,8710099,,,2025-04-02,合併による解散等,4320001011002,令和７年４月１日大分県中津市大字万田５７２番地の１株式会社横山酒販（4320001011002）に合併し解散,2015-10-05,1,,,,,,0
2705,9340002021423,登記記録の閉鎖等,0,2025-04-15,2025-04-04,森山絹織物有限会社,,有限会社,鹿児島県,奄美市,名瀬柳町１２番１１号,,46,222,8940032,,,2025-04-04,清算の結了等,,,2024-08-06,1,,,,,モリヤマキヌオリモノ,0
2717,9370002009052,登記記録の閉鎖等,0,2025-04-15,2025-04-03,有限会社渡正商会,,有限会社,宮城県,仙台市若林区,中倉３丁目１２番１０号,,04,103,9840821,,,2025-04-03,清算の結了等,,,2015-10-05,1,,,,,ワタショウショウカイ,0
2724,9380002007187,登記記録の閉鎖等,0,2025-04-15,2025-03-31,有限会社ナムクス,,有限会社,福島県,福島市,黒岩字弥生３７番地の１９,,07,201,9608153,,,2025-03-31,清算の結了等,,,2015-10-05,1,,,,,ナムクス,0
2725,9390001010620,登記記録の閉鎖等,0,2025-04-15,2025-04-03,株式会社すずや,,株式会社,山形県,南陽市,宮内２４０８番地の２０,,06,213,9920472,,,2025-04-03,清算の結了等,,,2015-10-05,1,,,,,スズヤ,0
2734,9430001022314,登記記録の閉鎖等,0,2025-04-15,2025-04-14,北海道鶴亀温水器工業株式会社,,株式会社,北海道,札幌市清田区,清田一条４丁目４番９号,,01,110,0040841,,,2025-04-14,清算の結了等,,,2015-10-05,1,,,,,ホッカイドウツルカメオンスイキコウギョウ,0
2737,9430001053466,登記記録の閉鎖等,0,2025-04-15,2025-04-11,苫小牧飼料株式会社,,株式会社,北海道,苫小牧市,晴海町４３番４５,,01,213,0591374,,,2025-04-11,合併による解散等,7020001107810,令和７年４月１日横浜市西区みなとみらい五丁目１番２号フィード・ワン株式会社（7020001107810）に合併し解散,2015-10-05,1,,,,,トマコマイシリョウ,0
2738,9430001065172,登記記録の閉鎖等,0,2025-04-15,2025-04-03,株式会社オルタ北海道,,株式会社,北海道,札幌市白石区,川北２２９３番地３４,,01,104,0030859,,,2025-04-03,清算の結了等,,,2015-10-05,1,,,,,オルタホッカイドウ,0
2748,9450001006257,登記記録の閉鎖等,0,2025-04-15,2025-04-01,株式会社斎藤組,,株式会社,北海道,上川郡美瑛町,字美沢美瑛共和,,01,459,0710236,,,2025-04-01,清算の結了等,,,2015-10-05,1,,,,,サイトウグミ,0
2750,9460101001933,登記記録の閉鎖等,0,2025-04-15,2025-04-10,株式会社ランドハウス,,株式会社,北海道,帯広市,西十四条南３６丁目６番９号,,01,207,0800024,,,2025-04-10,清算の結了等,,,2015-10-05,1,,,,,ランドハウス,0
