sequenceNumber,corporateNumber,process,correct,updateDate,changeDate,name,nameImageId,kind,prefectureName,cityName,streetNumber,addressImageId,prefectureCode,cityCode,postCode,addressOutside,addressOutsideImageId,closeDate,closeCause,successorCorporateNumber,changeCause,assignmentDate,latest,enName,enPrefectureName,enCityName,enAddressOutside,furigana,hihyoji
16,1010401068353,登記記録の閉鎖等,0,2024-10-29,2024-10-24,ＳＣＳＫプレッシェンド株式会社,,株式会社,東京都,江東区,豊洲３丁目２番２４号,,13,108,1350061,,,2024-10-24,合併による解散等,9010401068908,令和６年１０月１日札幌市中央区北一条西一丁目６番地さっぽろ創世スクエア１４階ダイアモンドヘッド株式会社（9010401068908）に合併し解散,2015-10-05,1,,,,,エスシーエスケイプレッシェンド,0
22,1010401169036,登記記録の閉鎖等,0,2024-10-29,2024-10-08,株式会社Ｇｌｏｂａｌ　Ｆｒａｎｃｈｉｓｅ,,株式会社,東京都,港区,南麻布１丁目１番３－１０５号,,13,103,1060047,,,2024-10-08,清算の結了等,,,2022-08-12,1,,,,,グローバルフランチャイズ,0
29,1010601013324,登記記録の閉鎖等,0,2024-10-29,2024-10-24,高橋不動産株式会社,,株式会社,東京都,墨田区,太平４丁目８番１３号,,13,107,1300012,,,2024-10-24,清算の結了等,,,2015-10-05,1,,,,,タカハシフドウサン,0
39,1010903007255,登記記録の閉鎖等,0,2024-10-29,2024-10-24,ｉｎｃｕｂｅ合同会社,,合同会社,東京都,北区,滝野川６丁目１１－１７日神パレステージ板橋滝野川２０２,,13,117,1140023,,,2024-10-24,清算の結了等,,,2022-04-07,1,,,,,インキューブ,0
41,1011001030406,登記記録の閉鎖等,0,2024-10-29,2024-10-04,株式会社朋栄システムサービスカンパニー,,株式会社,東京都,渋谷区,恵比寿３丁目１番７号,,13,113,1500013,,,2024-10-04,合併による解散等,3011001030263,令和６年１０月１日東京都渋谷区恵比寿三丁目８番１号株式会社朋栄（3011001030263）に合併し解散,2015-10-05,1,,,,,ホウエイシステムサービスカンパニー,0
47,1011002027021,登記記録の閉鎖等,0,2024-10-29,2024-10-22,有限会社ドライブ,,有限会社,埼玉県,さいたま市浦和区,北浦和５丁目３番３号,,11,107,3300074,,,2024-10-22,清算の結了等,,,2015-10-05,1,,,,,ドライブ,0
58,1011702014319,登記記録の閉鎖等,0,2024-10-29,2024-10-24,有限会社エフ・エス,,有限会社,東京都,江戸川区,西葛西７丁目２０番２号,,13,123,1340088,,,2024-10-24,合併による解散等,4010001055872,令和６年１０月１日東京都千代田区神田錦町一丁目１番地株式会社アイリスファーマ（4010001055872）に合併し解散,2015-10-05,1,,,,,,0
76,1020001102890,登記記録の閉鎖等,0,2024-10-29,2024-10-25,株式会社Ｆｉｘｘ,,株式会社,神奈川県,足柄上郡中井町,井ノ口１８１３番地８,,14,361,2590151,,,2024-10-25,清算の結了等,,,2015-10-05,1,,,,,フィックス,0
84,1021001059642,登記記録の閉鎖等,0,2024-10-29,2024-10-25,株式会社ジェイビーイー,,株式会社,神奈川県,南足柄市,壗下１０１７番地９,,14,217,2500103,,,2024-10-25,清算の結了等,,,2016-07-01,1,,,,,ジェイビーイー,0
105,1040003016427,登記記録の閉鎖等,0,2024-10-29,2024-10-23,合同会社サクラファミリー,,合同会社,千葉県,市川市,新田２丁目１番２０号,,12,203,2720035,,,2024-10-23,清算の結了等,,,2020-11-10,1,,,,,サクラファミリー,0
113,1070002016524,登記記録の閉鎖等,0,2024-10-29,2024-10-25,有限会社野口研磨工業所,,有限会社,群馬県,富岡市,上黒岩２０１８番地の１,,10,210,3702345,,,2024-10-25,清算の結了等,,,2015-10-05,1,,,,,ノグチケンマコウギョウショ,0
114,1080001025756,登記記録の閉鎖等,0,2024-10-29,2024-10-23,株式会社ＭＯＡＮＡ,,株式会社,静岡県,静岡市葵区,川越町１番１３号,,22,101,4200052,,,2024-10-23,清算の結了等,,,2023-07-28,1,,,,,モアナ,0
116,1080403003054,登記記録の閉鎖等,0,2024-10-29,2024-10-25,合同会社シーアイ,,合同会社,静岡県,浜松市中央区,初生町５７６番地の１,,22,138,4338112,,,2024-10-25,清算の結了等,,,2015-10-05,1,,,,,シーアイ,0
151,1120905001393,登記記録の閉鎖等,0,2024-10-29,2024-10-18,協同組合エースインテリアチェーン,,その他の設立登記法人,大阪府,吹田市,円山町３４番１０号,,27,205,5640061,,,2024-10-18,清算の結了等,,,2015-10-05,1,,,,,エースインテリアチェーン,0
154,1130001004721,登記記録の閉鎖等,0,2024-10-29,2024-10-25,光翔株式会社,,株式会社,京都府,京都市北区,紫野東泉堂町３番地,,26,101,6038241,,,2024-10-25,清算の結了等,,,2015-10-05,1,,,,,コウショウ,0
155,1130001005595,登記記録の閉鎖等,0,2024-10-29,2024-10-24,安永不動産株式会社,,株式会社,京都府,京都市西京区,大枝北沓掛町１丁目５番地の２サンシティ桂坂ロイヤル弐番館２１２号,,26,111,6101101,,,2024-10-24,清算の結了等,,,2015-10-05,1,,,,,ヤスナガフドウサン,0
159,1130001074319,登記記録の閉鎖等,0,2024-10-29,2024-10-28,株式会社オルカ,,株式会社,京都府,京都市東山区,大和大路通七条下る２丁目辰巳町６０３番地４－４０２号室,,26,105,6050945,,,2024-10-28,清算の結了等,,,2023-05-12,1,,,,,オルカ,0
166,1140001098358,登記記録の閉鎖等,0,2024-10-29,2024-10-23,株式会社八紘興産,,株式会社,兵庫県,尼崎市,南塚口町７丁目５番１９号,,28,202,6610012,,,2024-10-23,清算の結了等,,,2015-10-05,1,,,,,ハッコウコウサン,0
175,1150002011120,登記記録の閉鎖等,0,2024-10-29,2024-10-25,有限会社扇屋,,有限会社,奈良県,五條市,五條１丁目１０番６号,,29,207,6370042,,,2024-10-25,清算の結了等,,,2015-10-05,1,,,,,オウギヤ,0
179,1170002008651,登記記録の閉鎖等,0,2024-10-29,2024-10-25,有限会社樫山本店,,有限会社,和歌山県,田辺市,下屋敷町８１番地,,30,206,6460032,,,2024-10-25,清算の結了等,,,2015-10-05,1,,,,,カシヤマホンテン,0
197,1180302001636,登記記録の閉鎖等,0,2024-10-29,2024-10-24,有限会社心美,,有限会社,愛知県,岡崎市,土井町字池端３７－１,,23,202,4440204,,,2024-10-24,清算の結了等,,,2015-10-05,1,,,,,シンビ,0
201,1200001022047,登記記録の閉鎖等,0,2024-10-29,2024-10-28,株式会社長江商店,,株式会社,岐阜県,多治見市,笠原町２６９０番地の１,,21,204,5070901,,,2024-10-28,清算の結了等,,,2015-10-05,1,,,,,ナガエショウテン,0
205,1200002021080,登記記録の閉鎖等,0,2024-10-29,2024-10-23,有限会社門田金属工業所,,有限会社,岐阜県,土岐市,妻木町１８１８番地,,21,212,5095301,,,2024-10-23,清算の結了等,,,2015-10-05,1,,,,,カドタキンゾクコウギョウショ,0
206,1220001000892,登記記録の閉鎖等,0,2024-10-29,2024-10-25,株式会社アルフア建築事務所,,株式会社,石川県,金沢市,元町１丁目５番２３号,,17,201,9200842,,,2024-10-25,清算の結了等,,,2015-10-05,1,,,,,アルフアケンチクジムショ,0
209,1230001005503,登記記録の閉鎖等,0,2024-10-29,2024-10-28,株式会社ＫＯフードテック,,株式会社,富山県,富山市,稲荷元町２丁目１２番１８号,,16,201,9300010,,,2024-10-28,清算の結了等,,,2015-10-05,1,,,,,ケイオーフードテック,0
213,1240005008014,登記記録の閉鎖等,0,2024-10-29,2024-10-28,協業組合浜だんな製菓,,その他の設立登記法人,広島県,福山市,瀬戸町山北２８８番地,,34,207,7210000,,,2024-10-28,清算の結了等,,,2015-10-05,1,,,,,ハマダンナセイカ,0
215,1250003001993,登記記録の閉鎖等,0,2024-10-29,2024-10-25,合同会社トータルプラン山口,,合同会社,山口県,宇部市,開４丁目１４番３７号,,35,202,7550096,,,2024-10-25,清算の結了等,,,2016-12-02,1,,,,,トータルプランヤマグチ,0
220,1260002014277,登記記録の閉鎖等,0,2024-10-29,2024-10-23,有限会社スカイ,,有限会社,岡山県,岡山市中区,江並２９７番地５,,33,102,7028004,,,2024-10-23,清算の結了等,,,2015-10-05,1,,,,,スカイ,0
237,1340005009101,登記記録の閉鎖等,0,2024-10-29,2024-10-25,特定非営利活動法人ＢＡＳＫＥＴＢＡＬＬ　ＩＮＮＯＶＡＴＩＯＮ奄美大島,,その他の設立登記法人,鹿児島県,奄美市,名瀬入舟町１１番１号,,46,222,8940034,,,2024-10-25,清算の結了等,,,2019-12-24,1,,,,,バスケットボールイノベーションアマミオオシマ,0
250,1390002007796,登記記録の閉鎖等,0,2024-10-29,2024-10-17,有限会社ハジメ豆腐食品,,有限会社,山形県,酒田市,ゆたか１丁目１６番地の６,,06,204,9980006,,,2024-10-17,清算の結了等,,,2015-10-05,1,,,,,ハジメトウフショクヒン,0
263,1430002065204,登記記録の閉鎖等,0,2024-10-29,2024-10-23,有限会社越後板金,,有限会社,北海道,登別市,若草町５丁目２４番地１,,01,230,0590035,,,2024-10-23,清算の結了等,,,2015-10-05,1,,,,,エチゴバンキン,0
282,2010001221773,登記記録の閉鎖等,0,2024-10-29,2024-10-16,ＤＰ　Ｃｌｅａｎｔｅｃｈジャパン株式会社,,株式会社,東京都,千代田区,麹町３丁目１番地８根岸ビル３階,,13,101,1020083,,,2024-10-16,清算の結了等,,,2021-10-15,1,,,,,ディーピークリンテックジャパン,0
284,2010002034547,登記記録の閉鎖等,0,2024-10-29,2024-10-21,有限会社ベルアベニュー,,有限会社,東京都,品川区,旗の台２丁目２番２１号,,13,109,1420064,,,2024-10-21,清算の結了等,,,2015-10-05,1,,,,,ベルアベニュー,0
296,2010403028783,登記記録の閉鎖等,0,2024-10-29,2024-10-11,ヴァイパー２合同会社,,合同会社,東京都,港区,浜松町１丁目２０番１０号ライオネス浜松町５０６号室,,13,103,1050013,,,2024-10-11,清算の結了等,,,2022-10-27,1,,,,,ヴァイパーニ,0
306,2010901025266,登記記録の閉鎖等,0,2024-10-29,2024-10-01,株式会社ロウタスファクトリー,,株式会社,東京都,港区,六本木７丁目２１番２２号,,13,103,1060032,,,2024-10-01,合併による解散等,2010401064863,令和６年１０月１日東京都港区六本木７－２１－２２セイコー六本木ビル４Ｆ株式会社ロウタスファクトリー（2010401064863）に合併し解散,2015-10-05,1,,,,,ロウタスファクトリー,0
323,2011101069442,登記記録の閉鎖等,0,2024-10-29,2024-10-21,株式会社ライズねっと,,株式会社,東京都,新宿区,四谷４丁目２５番地マンション新宿御苑２０５,,13,104,1600004,,,2024-10-21,清算の結了等,,,2015-10-05,1,,,,,ライズネット,0
324,2011101102426,登記記録の閉鎖等,0,2024-10-29,2024-10-18,株式会社アイナチュール,,株式会社,東京都,新宿区,西新宿７丁目１６番１３号末廣ビル２０２号室,,13,104,1600023,,,2024-10-18,合併による解散等,1010001206214,令和６年９月３日東京都新宿区西新宿七丁目１６番１３号末廣ビル２０２号室株式会社ＧＲＯＷＢＩＮＧ（1010001206214）に合併し解散,2023-04-07,1,,,,,アイナチュール,0
344,2013103001060,登記記録の閉鎖等,0,2024-10-29,2024-10-25,合同会社ＬＥＴ企画,,合同会社,東京都,羽村市,栄町２丁目２番地の２メインプレイス１０３号,,13,227,2050002,,,2024-10-25,清算の結了等,,,2021-06-28,1,,,,,,0
361,2020005003663,登記記録の閉鎖等,0,2024-10-29,2024-10-10,神奈川県紙器段ボール箱工業組合,,その他の設立登記法人,神奈川県,横浜市磯子区,岡村７丁目３５番４号,,14,107,2350021,,,2024-10-10,清算の結了等,,,2015-10-05,1,,,,,カナガワケンシキダンボールバコ,0
364,2021001056969,登記記録の閉鎖等,0,2024-10-29,2024-10-21,株式会社非常電源メンテナンスサービス,,株式会社,東京都,品川区,西大井６丁目１５番８号,,13,109,1400015,,,2024-10-21,清算の結了等,,,2015-10-05,1,,,,,ヒジョウデンゲンメンテナンスサービス,0
371,2030002024694,登記記録の閉鎖等,0,2024-10-29,2024-10-23,有限会社高美鉄工所,00016365,有限会社,埼玉県,戸田市,大字新曽１７７７番地,,11,224,3350021,,,2024-10-23,清算の結了等,,,2015-10-05,1,,,,,タカミテッコウジョ,0
373,2030003023794,登記記録の閉鎖等,0,2024-10-29,2024-10-04,合同会社ＦＩＲＳＴＣＲＡＺＹ,,合同会社,埼玉県,さいたま市見沼区,春岡３丁目６番地１,,11,104,3370008,,,2024-10-04,清算の結了等,,,2024-03-12,1,,,,,ファーストクレイジー,0
374,2030005021045,登記記録の閉鎖等,0,2024-10-29,2024-10-23,特定非営利活動法人Ｈｕｍａｔｃｈ,,その他の設立登記法人,埼玉県,さいたま市大宮区,桜木町１丁目３７８番地ＢＩＺｃｏｍｆｏｒｔ大宮６Ｆ－３０,,11,103,3300854,,,2024-10-23,清算の結了等,,,2022-10-28,1,,,,,ヒューマッチ,0
392,2080102004542,登記記録の閉鎖等,0,2024-10-29,2024-10-25,有限会社溝口製作所,,有限会社,静岡県,裾野市,深良１８８１番地の８,,22,220,4101102,,,2024-10-25,清算の結了等,,,2015-10-05,1,,,,,ミゾグチセイサクショ,0
398,2100003003599,登記記録の閉鎖等,0,2024-10-29,2024-10-21,合同会社秀榮土建興業,,合同会社,長野県,長野市,青木島町大塚１２２４番地１０,,20,201,3812205,,,2024-10-21,清算の結了等,,,2015-10-05,1,,,,,シュウエイドケンコウギョウ,0
401,2120001066613,登記記録の閉鎖等,0,2024-10-29,2024-10-23,大同ケミカルエンジニアリング株式会社,,株式会社,大阪府,大阪市北区,末広町３番３号,,27,127,5300053,,,2024-10-23,合併による解散等,2010001105209,令和６年１０月１日東京都中央区晴海三丁目５番１号月島環境エンジニアリング株式会社（2010001105209）に合併し解散,2015-10-05,1,,,,,ダイドウケミカルエンジニアリング,0
407,2120001223131,登記記録の閉鎖等,0,2024-10-29,2024-10-25,Ｍ－ｍｏｔｉｏｎ株式会社,,株式会社,大阪府,大阪市浪速区,大国３丁目１１番１５号,,27,111,5560014,,,2024-10-25,清算の結了等,,,2019-08-16,1,,,,,エムモーション,0
421,2122001033816,登記記録の閉鎖等,0,2024-10-29,2024-10-25,株式会社尾込電気,,株式会社,大阪府,東大阪市,三島３丁目８番１９号,,27,227,5780966,,,2024-10-25,清算の結了等,,,2020-07-13,1,,,,,オゴメデンキ,0
448,2210002009792,登記記録の閉鎖等,0,2024-10-29,2024-10-28,有限会社島田工務店,,有限会社,福井県,勝山市,荒土町布市第２２号１番地２,,18,206,9110041,,,2024-10-28,清算の結了等,,,2015-10-05,1,,,,,シマダコウムテン,0
451,2230001003555,登記記録の閉鎖等,0,2024-10-29,2024-10-24,ロラン電子工業株式会社,,株式会社,富山県,富山市,針原中町２８７の７番地,,16,201,9318431,,,2024-10-24,清算の結了等,,,2015-10-05,1,,,,,ロランデンシコウギョウ,0
452,2230002001764,登記記録の閉鎖等,0,2024-10-29,2024-10-28,有限会社スマックコーポレーション,,有限会社,富山県,富山市,安野屋町２丁目１番１６号,,16,201,9300087,,,2024-10-28,清算の結了等,,,2015-10-05,1,,,,,スマックコーポレーション,0
453,2240001024039,登記記録の閉鎖等,0,2024-10-29,2024-10-25,株式会社栗岡組,,株式会社,広島県,山県郡安芸太田町,大字津浪１７４９番地の１,,34,368,7313502,,,2024-10-25,清算の結了等,,,2015-10-05,1,,,,,クリオカグミ,0
458,2250002004393,登記記録の閉鎖等,0,2024-10-29,2024-10-23,有限会社オレンジハイツ,,有限会社,山口県,宇部市,常盤台１丁目５番１６号,,35,202,7550097,,,2024-10-23,清算の結了等,,,2015-10-05,1,,,,,オレンジハイツ,0
479,2330002013056,登記記録の閉鎖等,0,2024-10-29,2024-10-23,有限会社エム・イー・ディ,,有限会社,熊本県,熊本市北区,室園町２０番５８－８号,,43,105,8618072,,,2024-10-23,清算の結了等,,,2015-10-05,1,,,,,エムイーディ,0
481,2350001014409,登記記録の閉鎖等,0,2024-10-29,2024-10-23,株式会社利高,,株式会社,宮崎県,日向市,大字富高３７６６番地１,,45,206,8830034,,,2024-10-23,清算の結了等,,,2016-12-19,1,,,,,トシタカ,0
490,2380002032258,登記記録の閉鎖等,0,2024-10-29,2024-10-15,有限会社創研技術,,有限会社,福島県,会津若松市,亀賀１丁目１１番地の５,,07,202,9650028,,,2024-10-15,清算の結了等,,,2015-10-05,1,,,,,ソウケンギジュツ,0
500,2430002057159,登記記録の閉鎖等,0,2024-10-29,2024-10-28,有限会社富士バス,,有限会社,北海道,虻田郡喜茂別町,字喜茂別１番地６１,,01,398,0440201,,,2024-10-28,清算の結了等,,,2015-10-05,1,,,,,フジバス,0
502,2460101001683,登記記録の閉鎖等,0,2024-10-29,2024-10-24,丸岡株式会社,,株式会社,北海道,河東郡音更町,南鈴蘭南３丁目１番地,,01,631,0800312,,,2024-10-24,清算の結了等,,,2015-10-05,1,,,,,マルオカ,0
529,3010003034578,登記記録の閉鎖等,0,2024-10-29,2024-10-16,ｆｒｅｓｈ　ｌｅａｆ合同会社,,合同会社,東京都,千代田区,九段南１丁目５番６号りそな九段ビル５Ｆ、ＫＳフロア,,13,101,1020074,,,2024-10-16,清算の結了等,,,2021-04-08,1,,,,,フレッシュリーフ,0
536,3010101010761,登記記録の閉鎖等,0,2024-10-29,2024-10-25,株式会社サム・アローズ,,株式会社,東京都,八王子市,西片倉２丁目６番１６号,,13,201,1920917,,,2024-10-25,清算の結了等,,,2015-10-05,1,,,,,,0
547,3010403011409,登記記録の閉鎖等,0,2024-10-29,2024-10-04,株式会社ヴァリアント,,株式会社,東京都,港区,浜松町２丁目２番１５号,,13,103,1050013,,,2024-10-04,合併による解散等,5010403011084,令和６年１０月１日東京都港区浜松町二丁目２番１５号株式会社リベルタス（5010403011084）に合併し解散,2015-10-05,1,,,,,ヴァリアント,0
549,3010403027462,登記記録の閉鎖等,0,2024-10-29,2024-10-11,Ｄｉｓｃｏｖｅｒｙ６合同会社,,合同会社,東京都,港区,赤坂２丁目１０番５号税理士法人赤坂国際会計事務所内,,13,103,1070052,,,2024-10-11,清算の結了等,,,2022-04-08,1,,,,,ディスカバリーシックス,0
558,3010601030986,登記記録の閉鎖等,0,2024-10-29,2024-10-25,コスモマリンアンドトレード株式会社,,株式会社,東京都,江東区,東雲１丁目９番２２－１０２８号,,13,108,1350062,,,2024-10-25,清算の結了等,,,2015-10-05,1,,,,,,0
563,3010702009376,登記記録の閉鎖等,0,2024-10-29,2024-10-23,有限会社協和プロジェクト,,有限会社,東京都,品川区,南大井３丁目１３番１２号,,13,109,1400013,,,2024-10-23,清算の結了等,,,2015-10-05,1,,,,,キョウワプロジェクト,0
577,3011201005858,登記記録の閉鎖等,0,2024-10-29,2024-10-28,株式会社理晃設備,,株式会社,東京都,中野区,本町１丁目３２番２４号,,13,114,1640012,,,2024-10-28,清算の結了等,,,2015-10-05,1,,,,,リコウセツビ,0
592,3020001009655,登記記録の閉鎖等,0,2024-10-29,2024-10-15,株式会社漆原商店,,株式会社,神奈川県,横浜市保土ケ谷区,帷子町２丁目９９番地,,14,106,2400013,,,2024-10-15,清算の結了等,,,2015-10-05,1,,,,,ウルシバラショウテン,0
595,3020001114851,登記記録の閉鎖等,0,2024-10-29,2024-10-10,株式会社ファミリア横浜,,株式会社,神奈川県,横浜市金沢区,瀬戸６－１１エムステージ金沢八景１０３,,14,108,2360027,,,2024-10-10,清算の結了等,,,2016-02-17,1,,,,,ファミリアヨコハマ,0
604,3020005003720,登記記録の閉鎖等,0,2024-10-29,2024-10-09,医療法人社団一色こどもクリニック,,その他の設立登記法人,神奈川県,横浜市緑区,白山１丁目１番３号,,14,113,2260006,,,2024-10-09,清算の結了等,,,2015-10-05,1,,,,,イッシキコドモクリニック,0
619,3030002115617,登記記録の閉鎖等,0,2024-10-29,2024-10-18,有限会社清水商事,,有限会社,埼玉県,行田市,藤原町２丁目２１番地４,,11,206,3610016,,,2024-10-18,清算の結了等,,,2015-10-05,1,,,,,シミズショウジ,0
624,3040001086032,登記記録の閉鎖等,0,2024-10-29,2024-10-24,株式会社山田鋼業,,株式会社,千葉県,市原市,五井３４０６番地,,12,219,2900056,,,2024-10-24,清算の結了等,,,2015-10-05,1,,,,,ヤマダコウギョウ,0
626,3040001125913,登記記録の閉鎖等,0,2024-10-29,2024-10-23,株式会社Ｔｈｒｅｅ　Ｉｒｏｎ,,株式会社,千葉県,八千代市,村上８３５番地４,,12,221,2760028,,,2024-10-23,清算の結了等,,,2022-11-22,1,,,,,スリーアイアン,0
630,3040002063187,登記記録の閉鎖等,0,2024-10-29,2024-10-15,有限会社川村土地建物,,有限会社,千葉県,八街市,八街に４４９番地１４１,,12,230,2891103,,,2024-10-15,清算の結了等,,,2015-10-05,1,,,,,カワムラトチタテモノ,0
632,3050001006609,登記記録の閉鎖等,0,2024-10-29,2024-10-18,株式会社エーエフ,,株式会社,茨城県,ひたちなか市,笹野町２丁目１番１－８０１号,,08,221,3120018,,,2024-10-18,清算の結了等,,,2015-10-05,1,,,,,エーエフ,0
639,3080002002182,登記記録の閉鎖等,0,2024-10-29,2024-10-17,三興工業有限会社,,有限会社,静岡県,静岡市葵区,追手町１０番１０５号,,22,101,4200853,,,2024-10-17,清算の結了等,,,2015-10-05,1,,,,,サンコウコウギョウ,0
654,3120001061266,登記記録の閉鎖等,0,2024-10-29,2024-10-24,栄光企業株式会社,,株式会社,大阪府,堺市南区,原山台４丁１６番１１号,,27,145,5900132,,,2024-10-24,清算の結了等,,,2015-10-05,1,,,,,エイコウキギョウ,0
665,3120003009239,登記記録の閉鎖等,0,2024-10-29,2024-10-22,田川太陽光発電合同会社,,合同会社,大阪府,大阪市中央区,淡路町２丁目６番１１号４階,,27,128,5410047,,,2024-10-22,清算の結了等,,,2015-10-05,1,,,,,タガワタイヨウコウハツデン,0
679,3130001009545,登記記録の閉鎖等,0,2024-10-29,2024-10-24,株式会社日昇館,,株式会社,京都府,京都市東山区,三条通大橋東入二丁目５７．６２番合地,,26,105,6050000,,,2024-10-24,合併による解散等,9010401090515,令和６年１０月１日東京都港区新橋二丁目６番２号株式会社ＣＮＣエンタープライズ（9010401090515）に合併し解散,2015-10-05,1,,,,,ニッショウカン,0
683,3130001072667,登記記録の閉鎖等,0,2024-10-29,2024-10-25,承世藝術株式会社,,株式会社,京都府,京都市東山区,本町６丁目１４コーポセブン１０２号,,26,105,6050981,,,2024-10-25,清算の結了等,,,2022-09-28,1,,,,,ショウセイゲイジュツ,0
686,3130002029187,登記記録の閉鎖等,0,2024-10-29,2024-10-28,有限会社湯浅楽器,,有限会社,京都府,亀岡市,追分町馬場通２０－１３,,26,206,6210804,,,2024-10-28,清算の結了等,,,2015-10-05,1,,,,,ユアサガッキ,0
695,3160003001381,登記記録の閉鎖等,0,2024-10-29,2024-10-25,合同会社ＫＩＣ,,合同会社,奈良県,大和郡山市,高田町７８番地１ローレルコートエスタ郡山５０６号黒川方,,29,203,6391132,,,2024-10-25,清算の結了等,,,2016-05-24,1,,,,,ケイアイシー,0
709,3180301037019,登記記録の閉鎖等,0,2024-10-29,2024-10-21,株式会社藍,,株式会社,愛知県,豊田市,上丘町八ツ田３１番地１,,23,211,4730931,,,2024-10-21,清算の結了等,,,2023-01-24,1,,,,,アイ,0
710,3180302007813,登記記録の閉鎖等,0,2024-10-29,2024-10-21,有限会社ハナブサ,,有限会社,愛知県,豊橋市,船渡町字平松２８番地の２,,23,201,4418072,,,2024-10-21,清算の結了等,,,2015-10-05,1,,,,,ハナブサ,0
713,3220001000701,登記記録の閉鎖等,0,2024-10-29,2024-10-25,株式会社浅井商店,,株式会社,石川県,金沢市,上近江町３２番地５,,17,201,9200905,,,2024-10-25,清算の結了等,,,2015-10-05,1,,,,,アサイショウテン,0
716,3230002011110,登記記録の閉鎖等,0,2024-10-29,2024-10-28,有限会社栄寿し,,有限会社,富山県,高岡市,六家２５番地の２,,16,202,9330321,,,2024-10-28,清算の結了等,,,2015-10-05,1,,,,,サカエスシ,0
722,3250002015316,登記記録の閉鎖等,0,2024-10-29,2024-10-28,有限会社星浦建築板金,,有限会社,山口県,周南市,大字湯野４６２０番地の４,,35,215,7451132,,,2024-10-28,清算の結了等,,,2015-10-05,1,,,,,ホシウラケンチクバンキン,0
726,3280002010611,登記記録の閉鎖等,0,2024-10-29,2024-10-28,有限会社中田自動車整備センター,,有限会社,島根県,益田市,匹見町匹見イ２４５番地,,32,204,6981211,,,2024-10-28,清算の結了等,,,2015-10-05,1,,,,,ナカタジドウシャセイビセンター,0
734,3330003005423,登記記録の閉鎖等,0,2024-10-29,2024-10-23,合同会社ミツル創建,,合同会社,熊本県,熊本市東区,上南部２丁目８番８号,,43,102,8618010,,,2024-10-23,清算の結了等,,,2015-10-05,1,,,,,,0
746,3380002032034,登記記録の閉鎖等,0,2024-10-29,2024-10-15,有限会社志野陶房,,有限会社,福島県,会津若松市,日吉町７番５－７号,,07,202,9650852,,,2024-10-15,清算の結了等,,,2015-10-05,1,,,,,シノトウボウ,0
761,4010001213810,登記記録の閉鎖等,0,2024-10-29,2024-10-16,株式会社ブルーリング,,株式会社,東京都,中央区,銀座１丁目２２番１１号銀座大竹ビジデンス２Ｆ,,13,102,1040061,,,2024-10-16,清算の結了等,,,2020-11-19,1,,,,,ブルーリング,0
768,4010002015413,登記記録の閉鎖等,0,2024-10-29,2024-10-15,有限会社友成産業,,有限会社,東京都,千代田区,内神田３丁目１３番９号,,13,101,1010047,,,2024-10-15,清算の結了等,,,2015-10-05,1,,,,,トモナリサンギョウ,0
771,4010005019717,登記記録の閉鎖等,0,2024-10-29,2024-10-08,特定非営利活動法人戦没者遺骨早期収容促進協議会,,その他の設立登記法人,東京都,港区,新橋５丁目２６－８新橋加藤ビル５階,,13,103,1050004,,,2024-10-08,清算の結了等,,,2015-10-05,1,,,,,センボツシャイコツソウキシュウヨウソクシンキョウギカイ,0
772,4010401003621,登記記録の閉鎖等,0,2024-10-29,2024-10-15,株式会社ヴァンベール,,株式会社,東京都,港区,赤坂５丁目４番８号,,13,103,1070052,,,2024-10-15,清算の結了等,,,2015-10-05,1,,,,,ヴァンベール,0
775,4010401139151,登記記録の閉鎖等,0,2024-10-29,2024-10-25,Ｂｒａｎｄ　Ｌｅｇａｃｙ　Ｐａｒｔｎｅｒｓ　Ｊａｐａｎ株式会社,,株式会社,東京都,荒川区,南千住７丁目６番１２号,,13,118,1160003,,,2024-10-25,清算の結了等,,,2018-06-21,1,,,,,ブランドレガシーパートナーズジャパン,0
779,4010403027461,登記記録の閉鎖等,0,2024-10-29,2024-10-11,Ｄｉｓｃｏｖｅｒｙ５合同会社,,合同会社,東京都,港区,赤坂２丁目１０番５号税理士法人赤坂国際会計事務所内,,13,103,1070052,,,2024-10-11,清算の結了等,,,2022-04-08,1,,,,,ディスカバリーファイブ,0
782,4010405021529,登記記録の閉鎖等,0,2024-10-29,2024-10-11,ヴァイパー２一般社団法人,,その他の設立登記法人,東京都,港区,浜松町１丁目２０番１０号ライオネス浜松町５０６号室,,13,103,1050013,,,2024-10-11,清算の結了等,,,2022-10-27,1,,,,,ヴァイパーニ,0
811,4011503004391,登記記録の閉鎖等,0,2024-10-29,2024-10-28,Ｐｒｏｘｉｍａｇｅ合同会社,,合同会社,東京都,荒川区,荒川６丁目３８番１２号,,13,118,1160002,,,2024-10-28,清算の結了等,,,2020-05-22,1,,,,,プロキシマージュ,0
814,4011802024108,登記記録の閉鎖等,0,2024-10-29,2024-10-15,有限会社ゆたか,,有限会社,東京都,中央区,銀座６丁目４番１０号,,13,102,1040061,,,2024-10-15,清算の結了等,,,2015-10-05,1,,,,,ユタカ,0
817,4012701008168,登記記録の閉鎖等,0,2024-10-29,2024-10-10,株式会社西京技建,,株式会社,東京都,西東京市,泉町５丁目４番１２号,,13,229,2020011,,,2024-10-10,清算の結了等,,,2015-10-05,1,,,,,サイキョウギケン,0
820,4013202012097,登記記録の閉鎖等,0,2024-10-29,2024-10-02,フガープ・キャピタル・パートナーズ有限会社,,有限会社,東京都,目黒区,緑が丘１丁目１８番１７号,,13,110,1520034,,,2024-10-02,清算の結了等,,,2015-10-05,1,,,,,,0
823,4013402000447,登記記録の閉鎖等,0,2024-10-29,2024-10-16,有限会社キット舞台美術工芸,,有限会社,東京都,日野市,高幡１００６番地の８ステイツ高幡不動４１０,,13,212,1910031,,,2024-10-16,清算の結了等,,,2015-10-05,1,,,,,キットブタイビジュツコウゲイ,0
840,4021001060077,登記記録の閉鎖等,0,2024-10-29,2024-10-28,株式会社Ｓ．Ａ．Ｓｐｏｒｔｓ,,株式会社,神奈川県,相模原市緑区,橋本台１丁目２１番１６号,,14,151,2520132,,,2024-10-28,清算の結了等,,,2016-08-17,1,,,,,,0
852,4030002093804,登記記録の閉鎖等,0,2024-10-29,2024-10-21,有限会社エム不動産販売,,有限会社,埼玉県,入間郡越生町,大字越生４２３番地５,,11,327,3500416,,,2024-10-21,清算の結了等,,,2015-10-05,1,,,,,エムフドウサンハンバイ,0
853,4040001019305,登記記録の閉鎖等,0,2024-10-29,2024-10-23,株式会社東京サン・コスモ,,株式会社,千葉県,船橋市,高根町１３００番地１６,,12,204,2740817,,,2024-10-23,清算の結了等,,,2015-10-05,1,,,,,トウキョウサンコスモ,0
855,4040001060317,登記記録の閉鎖等,0,2024-10-29,2024-10-23,株式会社長生ＳＵＮ,,株式会社,千葉県,茂原市,長尾２６９０番地６,,12,210,2970073,,,2024-10-23,清算の結了等,,,2015-10-05,1,,,,,チョウセイサン,0
857,4040001102894,登記記録の閉鎖等,0,2024-10-29,2024-10-24,株式会社ノースライナー,,株式会社,千葉県,市原市,八幡北町１丁目１１番地２,,12,219,2900069,,,2024-10-24,合併による解散等,4240001044027,令和６年１０月１日広島県福山市沼隈町大字常石１０８３番地ツネイシカムテックス陸運株式会社（4240001044027）に合併し解散,2017-12-20,1,,,,,ノースライナー,0
862,4040002076361,登記記録の閉鎖等,0,2024-10-29,2024-10-15,有限会社宮将,,有限会社,福島県,南相馬市,鹿島区小池字原畑３６６番６,,07,212,9792453,,,2024-10-15,清算の結了等,,,2015-10-05,1,,,,,ミヤショウ,0
866,4040003009642,登記記録の閉鎖等,0,2024-10-29,2024-10-23,ＨＯＰＥ合同会社,,合同会社,千葉県,船橋市,藤原１丁目５番１５号,,12,204,2730047,,,2024-10-23,清算の結了等,,,2017-02-08,1,,,,,,0
879,4090002006743,登記記録の閉鎖等,0,2024-10-29,2024-10-17,有限会社パン工房李音,,有限会社,山梨県,中央市,井之口１０９２番地４,,19,214,4093804,,,2024-10-17,清算の結了等,,,2015-10-05,1,,,,,パンコウボウリノン,0
887,4120001187408,登記記録の閉鎖等,0,2024-10-29,2024-10-21,株式会社シェアプラス,,株式会社,大阪府,大阪市東住吉区,南田辺２丁目３番１０号,,27,121,5460033,,,2024-10-21,清算の結了等,,,2015-10-05,1,,,,,シェアプラス,0
900,4120102018528,登記記録の閉鎖等,0,2024-10-29,2024-10-24,有限会社永壽堂,,有限会社,大阪府,藤井寺市,岡２丁目１２番１０号,,27,226,5830027,,,2024-10-24,清算の結了等,,,2015-10-05,1,,,,,エイジュドウ,0
907,4130002034302,登記記録の閉鎖等,0,2024-10-29,2024-10-23,有限会社公建,,有限会社,京都府,舞鶴市,字福来８７２－１,,26,202,6240905,,,2024-10-23,清算の結了等,,,2015-10-05,1,,,,,,0
922,4170001016314,登記記録の閉鎖等,0,2024-10-29,2024-10-11,株式会社エネルジスタ,,株式会社,和歌山県,海南市,下津町下津１３９６－３,,30,202,6490101,,,2024-10-11,合併による解散等,1170003001110,令和６年１０月１日和歌山県海南市下津町下津１３９６番地３合同会社ＢｕｅｎａＶｉｓｔａ（1170003001110）に合併し解散,2020-10-28,1,,,,,エネルジスタ,0
925,4180001045411,登記記録の閉鎖等,0,2024-10-29,2024-10-21,株式会社山内,,株式会社,愛知県,清須市,清洲田中町１３８番地,,23,233,4520942,,,2024-10-21,清算の結了等,,,2015-10-05,1,,,,,ヤマウチ,0
964,4290801018159,登記記録の閉鎖等,0,2024-10-29,2024-10-15,株式会社ケーズ企画,,株式会社,福岡県,宮若市,鶴田１５７９番地１６,,40,226,8230002,,,2024-10-15,清算の結了等,,,2015-10-05,1,,,,,ケーズキカク,0
967,4310002009137,登記記録の閉鎖等,0,2024-10-29,2024-10-18,有限会社イシックス,,有限会社,長崎県,佐世保市,卸本町３０番４２号,,42,202,8571162,,,2024-10-18,清算の結了等,,,2015-10-05,1,,,,,イシックス,0
991,4370202005186,登記記録の閉鎖等,0,2024-10-29,2024-10-10,有限会社ＳＳメディカルサービス,,有限会社,宮城県,栗原市,築館高田２丁目４番１８号,,04,213,9872215,,,2024-10-10,清算の結了等,,,2015-10-05,1,,,,,エスエスメディカルサービス,0
1000,4440002004133,登記記録の閉鎖等,0,2024-10-29,2024-10-25,有限会社ボディショップイトウ,,有限会社,北海道,函館市,亀田中野町１４１番地,,01,202,0410803,,,2024-10-25,清算の結了等,,,2015-10-05,1,,,,,,0
1006,4470002013536,登記記録の閉鎖等,0,2024-10-29,2024-10-24,有限会社南商事,,有限会社,香川県,仲多度郡まんのう町,買田４９４番地,,37,406,7690311,,,2024-10-24,清算の結了等,,,2015-10-05,1,,,,,,0
1016,5010001152652,登記記録の閉鎖等,0,2024-10-29,2024-10-16,株式会社アイソリューション,,株式会社,東京都,中央区,晴海３丁目３番３号江間忠晴海ビル９階,,13,102,1040053,,,2024-10-16,清算の結了等,,,2015-10-05,1,,,,,アイソリューション,0
1018,5010001184159,登記記録の閉鎖等,0,2024-10-29,2024-10-28,株式会社ＭＤ＆パートナーズ,,株式会社,東京都,稲城市,若葉台１丁目３３番地の２、２－３０８,,13,225,2060824,,,2024-10-28,清算の結了等,,,2017-06-09,1,,,,,エムディーアンドパートナーズ,0
1024,5010005035069,登記記録の閉鎖等,0,2024-10-29,2024-10-24,一般社団法人メタクリニック,,その他の設立登記法人,東京都,中央区,佃２丁目５－１６プラティーク月島３０１号,,13,102,1040051,,,2024-10-24,清算の結了等,,,2022-06-01,1,,,,,メタクリック,0
1051,5010702001554,登記記録の閉鎖等,0,2024-10-29,2024-10-22,有限会社大糸電機製作所,,有限会社,東京都,品川区,戸越６丁目５番２０号,,13,109,1420041,,,2024-10-22,清算の結了等,,,2015-10-05,1,,,,,オオイトデンキセイサクショ,0
1058,5011001125276,登記記録の閉鎖等,0,2024-10-29,2024-10-03,株式会社ＢＬＡＣＫＬＩＳＴ,,株式会社,東京都,渋谷区,宇田川町４番１０号ヒルサイドフジ１Ｆ,,13,113,1500042,,,2024-10-03,清算の結了等,,,2018-11-21,1,,,,,ブラックリスト,0
1125,5050001022158,登記記録の閉鎖等,0,2024-10-29,2024-10-21,株式会社光テクノサービス,,株式会社,茨城県,行方市,藤井７６番地２,,08,233,3113517,,,2024-10-21,清算の結了等,,,2015-10-05,1,,,,,ヒカリテクノサービス,0
1131,5060001023873,登記記録の閉鎖等,0,2024-10-29,2024-10-23,株式会社山岸興業,,株式会社,栃木県,佐野市,高萩町４０５番地４,,09,204,3270821,,,2024-10-23,清算の結了等,,,2015-10-05,1,,,,,ヤマギシコウギョウ,0
1141,5100002014181,登記記録の閉鎖等,0,2024-10-29,2024-10-17,有限会社しゃんぷう,,有限会社,長野県,上田市,常田２丁目２１番２５号,,20,203,3860018,,,2024-10-17,清算の結了等,,,2015-10-05,1,,,,,シャンプウ,0
1170,5150002006315,登記記録の閉鎖等,0,2024-10-29,2024-10-25,有限会社スマイル社,,有限会社,奈良県,生駒郡斑鳩町,龍田西８丁目１番２８号,00043467,29,344,6360154,,,2024-10-25,清算の結了等,,,2015-10-05,1,,,,,スマイルシャ,0
1195,5260001014027,登記記録の閉鎖等,0,2024-10-29,2024-10-22,株式会社谷本組,,株式会社,岡山県,都窪郡早島町,前潟２番地,,33,423,7010303,,,2024-10-22,清算の結了等,,,2024-10-03,1,,,,,タニモトグミ,0
1209,5340005001888,登記記録の閉鎖等,0,2024-10-29,2024-10-24,特定非営利活動法人かごしまＮＰＯ支援センター,,その他の設立登記法人,鹿児島県,鹿児島市,新屋敷町１６番公社ビル２１５号,,46,201,8920838,,,2024-10-24,清算の結了等,,,2015-10-05,1,,,,,カゴシマエヌピーオーシエンセンター,0
1210,5350003003290,登記記録の閉鎖等,0,2024-10-29,2024-10-15,合同会社のぞみ,,合同会社,宮崎県,都城市,蔵原町４街区２１号サンパーク蔵原タワー８０２,,45,202,8850051,,,2024-10-15,清算の結了等,,,2019-02-20,1,,,,,ノゾミ,0
1231,5460001003042,登記記録の閉鎖等,0,2024-10-29,2024-10-28,株式会社さかの,,株式会社,北海道,厚岸郡厚岸町,奔渡５丁目２０２番地,,01,662,0881111,,,2024-10-28,清算の結了等,,,2015-10-05,1,,,,,サカノ,0
1233,5460101000807,登記記録の閉鎖等,0,2024-10-29,2024-10-23,株式会社総合防災,,株式会社,北海道,帯広市,西十一条南２丁目３番地,,01,207,0800021,,,2024-10-23,合併による解散等,4430001022310,令和６年１０月１日札幌市白石区東札幌二条一丁目５番５号北海道ドライケミカル株式会社（4430001022310）に合併し解散,2015-10-05,1,,,,,ソウゴウボウサイ,0
1248,6010401139703,登記記録の閉鎖等,0,2024-10-29,2024-10-03,Ｔ．Ｉ．Ｃ．株式会社,,株式会社,東京都,渋谷区,恵比寿南２丁目１番２号,,13,113,1500022,,,2024-10-03,清算の結了等,,,2018-07-17,1,,,,,ティーアイシー,0
1254,6010405013219,登記記録の閉鎖等,0,2024-10-29,2024-10-08,特定非営利活動法人ウェル,,その他の設立登記法人,東京都,港区,新橋１丁目１６番４号りそな新橋ビル６階,,13,103,1050004,,,2024-10-08,清算の結了等,,,2015-10-05,1,,,,,ウェル,0
1303,6030001091988,登記記録の閉鎖等,0,2024-10-29,2024-10-24,株式会社北沢キープサービス,,株式会社,埼玉県,日高市,大字下大谷沢字五反田３番地１,,11,242,3501221,,,2024-10-24,合併による解散等,3011001006107,令和６年１０月１日東京都渋谷区東二丁目２３番１０号北沢産業株式会社（3011001006107）に合併し解散,2015-10-05,1,,,,,キタザワキープサービス,0
1305,6030001115045,登記記録の閉鎖等,0,2024-10-29,2024-10-22,株式会社サイリス,,株式会社,埼玉県,飯能市,茜台２丁目２番地２,,11,209,3570069,,,2024-10-22,清算の結了等,,,2016-06-24,1,,,,,サイリス,0
1310,6030002075817,登記記録の閉鎖等,0,2024-10-29,2024-10-23,有限会社小野寺電工,,有限会社,埼玉県,ふじみ野市,西２丁目１番８号,,11,245,3560005,,,2024-10-23,清算の結了等,,,2015-10-05,1,,,,,オノデラデンコウ,0
1312,6030002111027,登記記録の閉鎖等,0,2024-10-29,2024-10-29,有限会社フードマイスター,,有限会社,東京都,中野区,中央２丁目４２番１２－１０１号,,13,114,1640011,,,2024-10-29,清算の結了等,,,2015-10-05,1,,,,,フードマイスター,0
1319,6040002076772,登記記録の閉鎖等,0,2024-10-29,2024-10-23,サンプライド工業有限会社,,有限会社,千葉県,市原市,八幡北町２丁目１番地１１,,12,219,2900069,,,2024-10-23,清算の結了等,,,2015-10-05,1,,,,,サンプライドコウギョウ,0
1323,6050001023320,登記記録の閉鎖等,0,2024-10-29,2024-10-16,株式会社高橋宗四郎商店,,株式会社,茨城県,日立市,助川町２丁目４番１５号,,08,202,3170065,,,2024-10-16,清算の結了等,,,2015-10-05,1,,,,,タカハシムネシロウショウテン,0
1327,6080002011585,登記記録の閉鎖等,0,2024-10-29,2024-10-24,有限会社洋光電気,,有限会社,静岡県,静岡市清水区,楠２２９番地の３,,22,103,4240881,,,2024-10-24,清算の結了等,,,2015-10-05,1,,,,,ヨウコウデンキ,0
1333,6110002025136,登記記録の閉鎖等,0,2024-10-29,2024-10-22,有限会社宮前商店,,有限会社,新潟県,妙高市,大字杉野沢２５１８番地,,15,217,9492113,,,2024-10-22,清算の結了等,,,2015-10-05,1,,,,,ミヤマエショウテン,0
1336,6120001089197,登記記録の閉鎖等,0,2024-10-29,2024-10-22,株式会社ボイジャー,,株式会社,大阪府,大阪市中央区,船場中央１丁目３番２－１０９号,,27,128,5410055,,,2024-10-22,清算の結了等,,,2015-10-05,1,,,,,ボイジャー,0
1338,6120001152987,登記記録の閉鎖等,0,2024-10-29,2024-10-22,ベル・ウッド株式会社,,株式会社,大阪府,枚方市,上島町２２番１４号,,27,210,5731127,,,2024-10-22,清算の結了等,,,2015-10-05,1,,,,,ベルウッド,0
1342,6120003014938,登記記録の閉鎖等,0,2024-10-29,2024-10-25,合同会社ＫＡＷＡＢＡＴＡ,,合同会社,大阪府,大阪市住之江区,住之江３丁目２番６号,,27,125,5590004,,,2024-10-25,清算の結了等,,,2018-11-06,1,,,,,カワバタ,0
1388,6180005018287,登記記録の閉鎖等,0,2024-10-29,2024-10-09,ＮＰＯ法人ＣＯＣＯＬＯ,,その他の設立登記法人,愛知県,大府市,北山町１丁目２２１番地の１３,,23,223,4740072,,,2024-10-09,清算の結了等,,,2019-06-12,1,,,,,ココロ,0
1389,6180301012365,登記記録の閉鎖等,0,2024-10-29,2024-10-21,株式会社一,,株式会社,愛知県,岡崎市,渡町字大棚１番地４,,23,202,4440933,,,2024-10-21,清算の結了等,,,2015-10-05,1,,,,,カズ,0
1394,6180305004128,登記記録の閉鎖等,0,2024-10-29,2024-10-22,中部繊維資材工業組合,,その他の設立登記法人,愛知県,蒲郡市,三谷町若宮９９番地７,,23,214,4430021,,,2024-10-22,清算の結了等,,,2015-10-05,1,,,,,チュウブセンイシザイ,0
1395,6190001025658,登記記録の閉鎖等,0,2024-10-29,2024-10-25,株式会社寿,,株式会社,三重県,伊勢市,八日市場町７番１７号,,24,203,5160076,,,2024-10-25,清算の結了等,,,2018-07-09,1,,,,,コトブキ,0
1402,6240001061292,登記記録の閉鎖等,0,2024-10-29,2024-10-23,株式会社Ｒ’ｓ,,株式会社,広島県,広島市中区,胡町３番４号第２津田ビル１０２号室,,34,101,7300021,,,2024-10-23,清算の結了等,,,2023-04-06,1,,,,,アールズ,0
1406,6250002001206,登記記録の閉鎖等,0,2024-10-29,2024-10-25,有限会社ハンズもとなが,,有限会社,山口県,山口市,大内長野４７４番地６,,35,203,7530211,,,2024-10-25,清算の結了等,,,2015-10-05,1,,,,,ハンズモトナガ,0
1412,6280002005583,登記記録の閉鎖等,0,2024-10-29,2024-10-28,新宮採石有限会社,,有限会社,島根県,出雲市,大津町１１１５番地５,,32,203,6930011,,,2024-10-28,清算の結了等,,,2015-10-05,1,,,,,シングウサイセキ,0
1444,6420002014438,登記記録の閉鎖等,0,2024-10-29,2024-10-25,株式会社大和家,,株式会社,青森県,弘前市,大字百石町５６番地２,,02,202,0368035,,,2024-10-25,清算の結了等,,,2015-10-05,1,,,,,ヤマトヤ,0
1455,7010001010577,登記記録の閉鎖等,0,2024-10-29,2024-10-16,株式会社一粒舎,,株式会社,東京都,千代田区,外神田３丁目６番１号,,13,101,1010021,,,2024-10-16,清算の結了等,,,2015-10-05,1,,,,,イチリュウシャ,0
1456,7010001088317,登記記録の閉鎖等,0,2024-10-29,2024-10-16,株式会社トーギク,,株式会社,東京都,中央区,築地１丁目４番８号,,13,102,1040045,,,2024-10-16,清算の結了等,,,2015-10-05,1,,,,,トーギク,0
1460,7010001198719,登記記録の閉鎖等,0,2024-10-29,2024-10-15,株式会社ＫＧＨ,,株式会社,東京都,中央区,日本橋本町３丁目３番６号ワカ末ビル７階,,13,102,1030023,,,2024-10-15,清算の結了等,,,2019-02-27,1,,,,,ケージーエイチ,0
1465,7010002022621,登記記録の閉鎖等,0,2024-10-29,2024-10-24,有限会社佃多喜,,有限会社,東京都,江東区,豊洲６丁目５番１号,,13,108,1350061,,,2024-10-24,清算の結了等,,,2015-10-05,1,,,,,ツクタキ,0
1476,7010501032047,登記記録の閉鎖等,0,2024-10-29,2024-10-21,株式会社セルーザコーポレーション,,株式会社,東京都,豊島区,池袋２丁目１６番１２号,,13,116,1710014,,,2024-10-21,清算の結了等,,,2015-10-05,1,,,,,セルーザコーポレーション,0
1507,7011401015570,登記記録の閉鎖等,0,2024-10-29,2024-10-24,株式会社パピエ企画,,株式会社,東京都,板橋区,坂下３丁目５番１７－３０８号,,13,119,1740043,,,2024-10-24,清算の結了等,,,2015-10-05,1,,,,,パピエキカク,0
1509,7011501013722,登記記録の閉鎖等,0,2024-10-29,2024-10-28,株式会社零カスタム,,株式会社,東京都,北区,上中里３丁目１８番５号,,13,117,1140016,,,2024-10-28,清算の結了等,,,2015-10-05,1,,,,,ゼロカスタム,0
1552,7030002060215,登記記録の閉鎖等,0,2024-10-29,2024-10-22,浜松運輸有限会社,,有限会社,埼玉県,志木市,上宗岡３丁目１番３９号,,11,228,3530001,,,2024-10-22,清算の結了等,,,2015-10-05,1,,,,,ハママツウンユ,0
1554,7030002112932,登記記録の閉鎖等,0,2024-10-29,2024-10-18,大野梱包有限会社,,有限会社,埼玉県,熊谷市,銀座１丁目１２２番地,,11,202,3600032,,,2024-10-18,清算の結了等,,,2015-10-05,1,,,,,オオノコンポウ,0
1557,7040001022462,登記記録の閉鎖等,0,2024-10-29,2024-10-23,株式会社エムケイコーポレーション,,株式会社,千葉県,船橋市,高根町１３００番地１６,,12,204,2740817,,,2024-10-23,清算の結了等,,,2015-10-05,1,,,,,エムケイコーポレーション,0
1565,7040002057813,登記記録の閉鎖等,0,2024-10-29,2024-10-23,有限会社フジヤマ,,有限会社,千葉県,印西市,平賀１１９９番地１,,12,231,2701605,,,2024-10-23,清算の結了等,,,2015-10-05,1,,,,,フジヤマ,0
1573,7080402020409,登記記録の閉鎖等,0,2024-10-29,2024-10-24,有限会社すみや洋品店,,有限会社,静岡県,磐田市,福田１９３４番地の３,,22,211,4371203,,,2024-10-24,清算の結了等,,,2015-10-05,1,,,,,スミヤヨウヒンテン,0
1574,7080402021638,登記記録の閉鎖等,0,2024-10-29,2024-10-25,有限会社竹,,有限会社,静岡県,掛川市,高御所１２６０番地の４,,22,213,4360031,,,2024-10-25,清算の結了等,,,2015-10-05,1,,,,,タケ,0
1584,7120001076252,登記記録の閉鎖等,0,2024-10-29,2024-10-23,大広不動産株式会社,,株式会社,大阪府,大阪市中央区,本町２丁目１番６号,,27,128,5410053,,,2024-10-23,合併による解散等,1010401051540,令和６年１０月１日東京都港区虎ノ門一丁目１番２８号東洋不動産株式会社（1010401051540）に合併し解散,2015-10-05,1,,,,,ダイコウフドウサン,0
1595,7120002063381,登記記録の閉鎖等,0,2024-10-29,2024-10-25,有限会社ＴＨＲコーポレーション,,有限会社,大阪府,大阪市都島区,友渕町１丁目５番１０－１０５号,,27,102,5340016,,,2024-10-25,清算の結了等,,,2015-10-05,1,,,,,ティーエイチアールコーポレーション,0
1598,7120101003379,登記記録の閉鎖等,0,2024-10-29,2024-10-24,株式会社伸明,,株式会社,大阪府,堺市中区,深井清水町３６１７番３,,27,142,5998273,,,2024-10-24,清算の結了等,,,2015-10-05,1,,,,,シンメイ,0
1604,7130001043383,登記記録の閉鎖等,0,2024-10-29,2024-10-24,株式会社小谷,,株式会社,京都府,舞鶴市,字浜６４０番地,,26,202,6250036,,,2024-10-24,清算の結了等,,,2015-10-05,1,,,,,コタニ,0
1636,7180303005060,登記記録の閉鎖等,0,2024-10-29,2024-10-24,合同会社ＩＳＴ,,合同会社,愛知県,豊橋市,上伝馬町９８番地朝日プラザ豊橋アーバンスクエア６０９号室,,23,201,4400074,,,2024-10-24,清算の結了等,,,2021-07-20,1,,,,,アイエスティー,0
1654,7260002020443,登記記録の閉鎖等,0,2024-10-29,2024-10-23,有限会社長谷川産業,,有限会社,岡山県,倉敷市,二日市３６７－４番地,,33,202,7100042,,,2024-10-23,清算の結了等,,,2015-10-05,1,,,,,ハセガワサンギョウ,0
1656,7260005007181,登記記録の閉鎖等,0,2024-10-29,2024-10-24,特定非営利活動法人風まくら,,その他の設立登記法人,岡山県,勝田郡奈義町,小坂３０８番地２,,33,623,7081302,,,2024-10-24,清算の結了等,,,2015-10-05,1,,,,,カザマクラ,0
1660,7290002001985,登記記録の閉鎖等,0,2024-10-29,2024-10-22,有限会社グラッド,,有限会社,宮崎県,えびの市,大字原田３６６９番地,,45,209,8894301,,,2024-10-22,清算の結了等,,,2015-10-05,1,,,,,グラッド,0
1665,7290003006843,登記記録の閉鎖等,0,2024-10-29,2024-09-13,合同会社ラブ,,合同会社,福岡県,福岡市博多区,住吉３丁目８番１７－１００５号,,40,132,8120018,,,2024-09-13,清算の結了等,,,2016-11-30,1,,,,,,0
1674,7340001011006,登記記録の閉鎖等,0,2024-10-29,2024-10-23,株式会社馬龍,,株式会社,鹿児島県,奄美市,名瀬幸町６番３号,,46,222,8940025,,,2024-10-23,清算の結了等,,,2015-10-05,1,,,,,バリュウ,0
1680,7350001013810,登記記録の閉鎖等,0,2024-10-29,2024-10-24,株式会社岩田工業,,株式会社,宮崎県,東臼杵郡門川町,宮ケ原１丁目７６番地２,,45,421,8890623,,,2024-10-24,清算の結了等,,,2016-01-05,1,,,,,イワタコウギョウ,0
1686,7370001046346,登記記録の閉鎖等,0,2024-10-29,2024-10-25,株式会社ＮＡＣＳ,,株式会社,宮城県,仙台市宮城野区,鶴巻１丁目７番１０号,,04,102,9830024,,,2024-10-25,合併による解散等,9011001007396,令和６年１０月１日東京都渋谷区笹塚一丁目６２番９号株式会社ケービーエル（9011001007396）に合併し解散,2020-11-09,1,,,,,ナックス,0
1693,7390002014829,登記記録の閉鎖等,0,2024-10-29,2024-10-17,有限会社いちまた,,有限会社,山形県,長井市,あら町７番３２号,,06,209,9930006,,,2024-10-17,清算の結了等,,,2015-10-05,1,,,,,イチマタ,0
1696,7400502000054,登記記録の閉鎖等,0,2024-10-29,2024-10-17,有限会社金田工務店,,有限会社,岩手県,一関市,字沢２９７番地１７４,,03,209,0210852,,,2024-10-17,清算の結了等,,,2015-10-05,1,,,,,カネダコウムテン,0
1728,8010002029351,登記記録の閉鎖等,0,2024-10-29,2024-10-16,有限会社サルヴィ東京事務所,,有限会社,東京都,千代田区,有楽町１丁目５番１号,,13,101,1000006,,,2024-10-16,清算の結了等,,,2015-10-05,1,,,,,サルビィトウキョウジムショ,0
1734,8010401154576,登記記録の閉鎖等,0,2024-10-29,2024-10-25,株式会社ｍｏｄｏｋｏ,,株式会社,神奈川県,鎌倉市,御成町４番３３号１０１,,14,204,2480012,,,2024-10-25,清算の結了等,,,2020-08-14,1,,,,,モドコ,0
1742,8010402017154,登記記録の閉鎖等,0,2024-10-29,2024-10-10,有限会社ケイズ・セッタ,,有限会社,長野県,松本市,大字島立３９０４番地６,,20,202,3900852,,,2024-10-10,清算の結了等,,,2015-10-05,1,,,,,ケイズセッタ,0
1749,8010605001343,登記記録の閉鎖等,0,2024-10-29,2024-10-24,シャンボール南砂管理組合法人,,その他の設立登記法人,東京都,江東区,南砂１丁目５番８号,,13,108,1360076,,,2024-10-24,清算の結了等,,,2015-10-05,1,,,,,シャンボールミナミスナ,0
1767,8011002021810,登記記録の閉鎖等,0,2024-10-29,2024-10-11,株式会社リゼラアンドコー,,株式会社,東京都,渋谷区,富ヶ谷１丁目３５番２３号,,13,113,1510063,,,2024-10-11,合併による解散等,8011001157688,令和６年１０月１日東京都渋谷区神宮前四丁目７番１号株式会社ディビュース（8011001157688）に合併し解散,2015-10-05,1,,,,,リゼラアンドコー,0
1783,8012401007581,登記記録の閉鎖等,0,2024-10-29,2024-10-28,株式会社クリエイションベンダーズ,,株式会社,東京都,調布市,入間町３丁目７番地４,,13,208,1820004,,,2024-10-28,清算の結了等,,,2015-10-05,1,,,,,カブシキガイシャクリエイションベンダーズ,0
1803,8020003020077,登記記録の閉鎖等,0,2024-10-29,2024-10-09,クローバー合同会社,,合同会社,神奈川県,横浜市保土ケ谷区,岩崎町３６番１７号,,14,106,2400015,,,2024-10-09,清算の結了等,,,2021-07-01,1,,,,,クローバー,0
1818,8030002031173,登記記録の閉鎖等,0,2024-10-29,2024-10-23,有限会社マイアート,,有限会社,埼玉県,所沢市,大字下新井１２７８番地の３０,,11,208,3590031,,,2024-10-23,清算の結了等,,,2015-10-05,1,,,,,マイアート,0
1826,8050001022849,登記記録の閉鎖等,0,2024-10-29,2024-10-21,株式会社野原企業,,株式会社,茨城県,行方市,手賀１５２７番地１,,08,233,3113513,,,2024-10-21,清算の結了等,,,2015-10-05,1,,,,,ノハラキギョウ,0
1830,8070001008359,登記記録の閉鎖等,0,2024-10-29,2024-10-23,株式会社ほんやら堂,,株式会社,群馬県,高崎市,岩押町１４番地１２,,10,202,3700044,,,2024-10-23,合併による解散等,4010401177119,令和６年１０月１日東京都港区南青山三丁目１０番４３号株式会社ほんやら堂（4010401177119）に合併し解散,2015-10-05,1,,,,,ホンヤラドウ,0
1833,8080002013836,登記記録の閉鎖等,0,2024-10-29,2024-10-22,有限会社ニツコー,,有限会社,静岡県,島田市,落合８２０番地の２,,22,209,4270008,,,2024-10-22,清算の結了等,,,2015-10-05,1,,,,,,0
1840,8100001030466,登記記録の閉鎖等,0,2024-10-29,2024-10-17,株式会社スキルプロモーション,,株式会社,長野県,長野市,若宮１丁目４番地４セジュール塚田Ａ１０１,,20,201,3810032,,,2024-10-17,清算の結了等,,,2017-07-19,1,,,,,スキルプロモーション,0
1872,8130001067357,登記記録の閉鎖等,0,2024-10-29,2024-10-25,株式会社ちょっカイ,,株式会社,京都府,京都市西京区,松室地家町１５－１５,,26,111,6158294,,,2024-10-25,清算の結了等,,,2020-07-30,1,,,,,チョッカイ,0
1890,8170002008059,登記記録の閉鎖等,0,2024-10-29,2024-10-28,有限会社栄和商会,,有限会社,和歌山県,岩出市,紀泉台４２２番地,,30,209,6496253,,,2024-10-28,清算の結了等,,,2015-10-05,1,,,,,エイワショウカイ,0
1915,8230001010496,登記記録の閉鎖等,0,2024-10-29,2024-10-25,帝国金属株式会社,,株式会社,富山県,高岡市,昭和町１丁目１番１６号,,16,202,9330946,,,2024-10-25,清算の結了等,,,2015-10-05,1,,,,,テイコクキンゾク,0
1922,8260001020939,登記記録の閉鎖等,0,2024-10-29,2024-10-23,湯郷まちづくり株式会社,,株式会社,岡山県,美作市,湯郷３１９番地,,33,215,7070062,,,2024-10-23,清算の結了等,,,2015-10-05,1,,,,,ユノゴウマチヅクリ,0
1937,8310002018778,登記記録の閉鎖等,0,2024-10-29,2024-10-22,有限会社雲仙森の野菜村,,有限会社,長崎県,南島原市,布津町丙４６３０番地,,42,214,8592113,,,2024-10-22,清算の結了等,,,2015-10-05,1,,,,,ウンゼンモリノヤサイムラ,0
1938,8320003002219,登記記録の閉鎖等,0,2024-10-29,2024-10-28,合同会社かれん,,合同会社,大分県,速見郡日出町,２３０６番地の１エクセル日出２０１号,,44,341,8791506,,,2024-10-28,清算の結了等,,,2015-10-05,1,,,,,,0
1963,8400002003795,登記記録の閉鎖等,0,2024-10-29,2024-10-18,有限会社一戸新聞店,,有限会社,岩手県,滝沢市,野沢７６番地２,,03,216,0200622,,,2024-10-18,清算の結了等,,,2015-10-05,1,,,,,,0
1982,9010001213616,登記記録の閉鎖等,0,2024-10-29,2024-10-16,株式会社ソーダン,,株式会社,東京都,千代田区,内神田１丁目１４番８号ＫＡＮＤＡＳＱＵＡＲＥＧＡＴＥ３階,,13,101,1010047,,,2024-10-16,清算の結了等,,,2020-11-12,1,,,,,ソーダン,0
1989,9010003020531,登記記録の閉鎖等,0,2024-10-29,2024-09-20,合同会社Ｈ．Ｎ．Ｙ．,,合同会社,福岡県,福岡市中央区,天神１丁目１番１号アクロス福岡西棟９階,,40,133,8100001,,,2024-09-20,清算の結了等,,,2015-10-05,1,,,,,エイチエヌワイ,0
1993,9010005036484,登記記録の閉鎖等,0,2024-10-29,2024-10-23,一般社団法人クリーンエナジー推進協会,,その他の設立登記法人,東京都,千代田区,大手町１丁目１番１号大手町パークビルディング７階,,13,101,1000004,,,2024-10-23,清算の結了等,,,2023-04-14,1,,,,,クリーンエナジースイシンキョウカイ,0
2023,9011101069361,登記記録の閉鎖等,0,2024-10-29,2024-10-24,株式会社悠華朋華,,株式会社,千葉県,野田市,中野台４４０番地８,,12,208,2780035,,,2024-10-24,合併による解散等,3040001071182,令和６年１０月１日東京都渋谷区道玄坂二丁目２５番１２号道玄坂通４階株式会社金宝堂（3040001071182）に合併し解散,2015-10-05,1,,,,,ユウカトモカ,0
2048,9020001093669,登記記録の閉鎖等,0,2024-10-29,2024-10-10,ＰｉｘＷｏｒｋｓ株式会社,,株式会社,神奈川県,横浜市旭区,善部町１１９番地１６,,14,112,2410823,,,2024-10-10,清算の結了等,,,2015-10-05,1,,,,,ピックスワークス,0
2053,9020002013361,登記記録の閉鎖等,0,2024-10-29,2024-10-15,有限会社アール・エス商会,,有限会社,神奈川県,横浜市青葉区,鴨志田町５６９番地１,,14,117,2270033,,,2024-10-15,清算の結了等,,,2015-10-05,1,,,,,アールエスショウカイ,0
2065,9030001003552,登記記録の閉鎖等,0,2024-10-29,2024-10-24,サイシン塗装株式会社,,株式会社,埼玉県,さいたま市大宮区,吉敷町３丁目１２０番地,,11,103,3300843,,,2024-10-24,清算の結了等,,,2015-10-05,1,,,,,サイシントソウ,0
2073,9040001090276,登記記録の閉鎖等,0,2024-10-29,2024-10-23,株式会社グッド・カンパニー,,株式会社,千葉県,白井市,根７７２番地の５５,,12,232,2701431,,,2024-10-23,清算の結了等,,,2015-10-05,1,,,,,グッドカンパニー,0
2091,9100001000039,登記記録の閉鎖等,0,2024-10-29,2024-10-18,株式会社あうん,,株式会社,長野県,須坂市,大字須坂１３００番地,,20,207,3820000,,,2024-10-18,清算の結了等,,,2015-10-05,1,,,,,アウン,0
2094,9110002028706,登記記録の閉鎖等,0,2024-10-29,2024-10-23,有限会社西村冷凍工業所,,有限会社,新潟県,長岡市,呉服町２丁目２番地１０,,15,202,9400056,,,2024-10-23,清算の結了等,,,2015-10-05,1,,,,,ニシムラレイトウコウギョウショ,0
2100,9120001243916,登記記録の閉鎖等,0,2024-10-29,2024-10-25,株式会社パーソナルレコードアナリティクス,,株式会社,大阪府,大阪市中央区,谷町２丁目７番４号,,27,128,5400012,,,2024-10-25,清算の結了等,,,2022-02-22,1,,,,,パーソナルレコードアナリティクス,0
2124,9122002011186,登記記録の閉鎖等,0,2024-10-29,2024-10-28,有限会社光洋物流,,有限会社,大阪府,大東市,三箇６丁目１７番２２号,,27,218,5740077,,,2024-10-28,清算の結了等,,,2015-10-05,1,,,,,コウヨウブツリュウ,0
2126,9130001072950,登記記録の閉鎖等,0,2024-10-29,2024-10-24,ナオハルコーポレーション株式会社,,株式会社,京都府,八幡市,八幡山田８番地２１,,26,210,6148051,,,2024-10-24,清算の結了等,,,2022-11-02,1,,,,,ナオハルコーポレーション,0
2136,9140005024996,登記記録の閉鎖等,0,2024-10-29,2024-10-28,一般社団法人浮世絵アカデミー協会,,その他の設立登記法人,兵庫県,神戸市東灘区,住吉本町２丁目１６番１８号２０３号室,,28,101,6580051,,,2024-10-28,清算の結了等,,,2020-01-31,1,,,,,ウキヨエアカデミーキョウカイ,0
2148,9180001108205,登記記録の閉鎖等,0,2024-10-29,2024-10-11,株式会社ＧＲＡＮＤ輪華,,株式会社,愛知県,名古屋市中村区,東宿町１丁目５４番地,,23,105,4530063,,,2024-10-11,合併による解散等,8180001066437,令和６年１０月１日名古屋市中村区東宿町一丁目５４番地株式会社寿々（8180001066437）に合併し解散,2015-10-05,1,,,,,グランドワカ,0
2150,9180001115754,登記記録の閉鎖等,0,2024-10-29,2024-10-17,株式会社キュービット,,株式会社,愛知県,名古屋市中区,栄２丁目１１番３０号,,23,106,4600008,,,2024-10-17,清算の結了等,,,2015-10-05,1,,,,,キュービット,0
2153,9180001153077,登記記録の閉鎖等,0,2024-10-29,2024-10-17,株式会社Ａｋｉｇｉｒｉ不動産,,株式会社,愛知県,名古屋市東区,白壁２丁目１番２０号,,23,102,4610011,,,2024-10-17,清算の結了等,,,2022-09-22,1,,,,,アキギリフドウサン,0
2160,9180002084825,登記記録の閉鎖等,0,2024-10-29,2024-10-18,有限会社信明金型,,有限会社,愛知県,大府市,柊山町４丁目１７３番地,,23,223,4740053,,,2024-10-18,清算の結了等,,,2015-10-05,1,,,,,シンメイカナガタ,0
2161,9180003024813,登記記録の閉鎖等,0,2024-10-29,2024-10-11,ＵＧＯソリューションズ合同会社,,合同会社,愛知県,名古屋市中川区,かの里１丁目７０１番地ライオンズガーデン戸田８０５号,,23,110,4540957,,,2024-10-11,清算の結了等,,,2023-02-06,1,,,,,ユージーオーソリューションズ,0
2188,9320005005292,登記記録の閉鎖等,0,2024-10-29,2024-10-24,田之浦農業協同組合,,その他の設立登記法人,大分県,佐伯市,鶴見大字大島７９６番地,,44,205,8761313,,,2024-10-24,清算の結了等,,,2015-10-05,1,,,,,タノウラノウギョウ,0
2189,9330001004256,登記記録の閉鎖等,0,2024-10-29,2024-10-23,アイビーアイ株式会社,,株式会社,熊本県,熊本市中央区,南熊本４丁目４番２８号,,43,101,8600812,,,2024-10-23,清算の結了等,,,2015-10-05,1,,,,,,0
2208,9380002026484,登記記録の閉鎖等,0,2024-10-29,2024-10-15,有限会社やない,,有限会社,福島県,いわき市,平字作町二丁目８番地の１１,,07,204,9708026,,,2024-10-15,清算の結了等,,,2015-10-05,1,,,,,ヤナイ,0
2211,9400003002465,登記記録の閉鎖等,0,2024-10-29,2024-10-17,合同会社ヨシダ製作所,,合同会社,岩手県,北上市,和賀町横川目１３地割４０番地１,,03,206,0240331,,,2024-10-17,清算の結了等,,,2019-05-09,1,,,,,ヨシダセイサクショ,0
2224,9490002012762,登記記録の閉鎖等,0,2024-10-29,2024-10-25,有限会社小川製材所,,有限会社,高知県,安芸市,栃ノ木２８６番地２,,39,203,7840054,,,2024-10-25,清算の結了等,,,2015-10-05,1,,,,,,0
