sequenceNumber,corporateNumber,process,correct,updateDate,changeDate,name,nameImageId,kind,prefectureName,cityName,streetNumber,addressImageId,prefectureCode,cityCode,postCode,addressOutside,addressOutsideImageId,closeDate,closeCause,successorCorporateNumber,changeCause,assignmentDate,latest,enName,enPrefectureName,enCityName,enAddressOutside,furigana,hihyoji
11,1010005021023,登記記録の閉鎖等,0,2023-03-14,2023-03-03,一般社団法人医療基盤支援機構,,その他の設立登記法人,東京都,千代田区,麹町４丁目７番２号Ｄａｉｗａ麹町４丁目ビル８階,,13,101,1020083,,,2023-03-03,清算の結了等,,,2015-10-05,1,,,,,イリョウキバンシエンキコウ,0
24,1010601008539,登記記録の閉鎖等,0,2023-03-14,2023-03-06,株式会社アポロ工芸社,,株式会社,東京都,墨田区,向島４丁目２４番４号,,13,107,1310033,,,2023-03-06,清算の結了等,,,2015-10-05,1,,,,,アポロコウゲイシャ,0
28,1010601056166,登記記録の閉鎖等,0,2023-03-14,2023-03-08,アロハ株式会社,,株式会社,東京都,台東区,浅草４丁目２７番８－２０７号ノバ浅草,,13,106,1110032,,,2023-03-08,清算の結了等,,,2019-09-27,1,,,,,アロハ,0
56,1011101020694,登記記録の閉鎖等,0,2023-03-14,2023-03-09,ミュージックシーン株式会社,,株式会社,東京都,新宿区,上落合１丁目２９番１３号,,13,104,1610034,,,2023-03-09,清算の結了等,,,2015-10-05,1,,,,,ミュージックシーン,0
98,1040001107500,登記記録の閉鎖等,0,2023-03-14,2023-03-06,株式会社すぐる,,株式会社,千葉県,市原市,辰巳台西２丁目９番地１１,,12,219,2900004,,,2023-03-06,清算の結了等,,,2019-01-04,1,,,,,スグル,0
102,1040002052241,登記記録の閉鎖等,0,2023-03-14,2023-03-08,富士紙業有限会社,,有限会社,千葉県,流山市,古間木２８０番地の４６,,12,220,2700136,,,2023-03-08,清算の結了等,,,2015-10-05,1,,,,,フジシギョウ,0
111,1070002020906,登記記録の閉鎖等,0,2023-03-14,2023-03-10,有限会社聖工芸,,有限会社,群馬県,佐波郡玉村町,大字上新田４２７番地,,10,464,3701133,,,2023-03-10,清算の結了等,,,2015-10-05,1,,,,,ヒジリコウゲイ,0
118,1090001008099,登記記録の閉鎖等,0,2023-03-14,2023-03-13,木村商事株式会社,,株式会社,山梨県,上野原市,松留３１番地,,19,212,4090115,,,2023-03-13,清算の結了等,,,2015-10-05,1,,,,,キムラショウジ,0
126,1110002005092,登記記録の閉鎖等,0,2023-03-14,2023-03-10,日商フーズサプライ有限会社,,有限会社,新潟県,新潟市中央区,神道寺１丁目１４番８号,,15,103,9500983,,,2023-03-10,清算の結了等,,,2015-10-05,1,,,,,ニッショウフーズサプライ,0
128,1120001047309,登記記録の閉鎖等,0,2023-03-14,2023-03-10,北菱建材株式会社,,株式会社,大阪府,大阪市西区,靱本町１丁目９番１５号近畿富山会館,,27,106,5500004,,,2023-03-10,清算の結了等,,,2015-10-05,1,,,,,ホクリョウケンザイ,0
157,1180001073290,登記記録の閉鎖等,0,2023-03-14,2023-03-10,株式会社プラス,,株式会社,愛知県,名古屋市中村区,菊水町２丁目３番１１号,,23,105,4530068,,,2023-03-10,清算の結了等,,,2015-10-05,1,,,,,プラス,0
159,1180001114202,登記記録の閉鎖等,0,2023-03-14,2023-03-09,徳織株式会社,,株式会社,愛知県,稲沢市,中野元町２３３番地１,,23,220,4928392,,,2023-03-09,清算の結了等,,,2015-10-05,1,,,,,トクオ,0
165,1180002068018,登記記録の閉鎖等,0,2023-03-14,2023-03-10,有限会社レックス,,有限会社,愛知県,春日井市,西高山町１丁目７番地の２４,,23,206,4860911,,,2023-03-10,清算の結了等,,,2015-10-05,1,,,,,レックス,0
216,1430001077308,登記記録の閉鎖等,0,2023-03-14,2023-02-17,株式会社ＢＡＲＣ,,株式会社,北海道,札幌市中央区,南三条西３丁目１４番２号ＦＡ－Ｓ３ビル３階,,01,101,0600063,,,2023-02-17,合併による解散等,3430001076274,令和５年１月５日札幌市中央区南三条西三丁目１４番２号ＦＡ－Ｓ３ビル３階株式会社ＡＲＵＫＩ（3430001076274）に合併し解散,2018-09-05,1,,,,,バーク,0
218,1430002010416,登記記録の閉鎖等,0,2023-03-14,2023-03-08,有限会社杉山興業,,有限会社,北海道,札幌市東区,北四十八条東１５丁目１番２０号,,01,103,0070848,,,2023-03-08,清算の結了等,,,2015-10-05,1,,,,,スギヤマコウギョウ,0
222,1480002007960,登記記録の閉鎖等,0,2023-03-14,2023-03-13,有限会社徳島チルドサービス,,有限会社,徳島県,徳島市,昭和町８丁目１番地,,36,201,7700942,,,2023-03-13,清算の結了等,,,2015-10-05,1,,,,,,0
223,1490005000895,登記記録の閉鎖等,0,2023-03-14,2023-03-09,高知中部建具襖企業組合,00006914,その他の設立登記法人,高知県,高知市,はりまや町１丁目１２番７号,,39,201,7800822,,,2023-03-09,清算の結了等,,,2015-10-05,1,,,,,コウチチュウブタテグフスマ,0
226,1700150005883,登記記録の閉鎖等,0,2023-03-14,2017-09-01,文教関係団体厚生年金基金,,その他,東京都,新宿区,市谷本村町１０－７,,13,104,1620845,,,2017-09-01,その他の清算の結了等,,,2015-10-09,1,,,,,ブンキヨウカンケイダンタイコウセイネンキンキキン,0
227,1700150099703,登記記録の閉鎖等,0,2023-03-14,2022-10-27,ＳＯＲＡＣＯＭ　ＩＮＴＥＲＮＡＴＩＯＮＡＬ，ＰＴＥ．ＬＴＤ．,,外国会社等,,,,,,,,８０　Ｒｏｂｉｎｓｏｎ　Ｒｏａｄ　＃１０－０１Ａ　Ｓｉｎｇａｐｏｒｅ　０６８８９８,,2022-10-27,その他の清算の結了等,,,2020-07-08,1,,,,,ソラコムインターナシヨナルピイーテイーイーエルテイーデイー,0
255,2010405014492,登記記録の閉鎖等,0,2023-03-14,2023-03-01,森トラスト・ホテルリート投資法人,,その他の設立登記法人,東京都,港区,虎ノ門４丁目３番１号,,13,103,1050001,,,2023-03-01,合併による解散等,7010405002922,令和５年３月１日東京都港区虎ノ門四丁目３番１号森トラストリート投資法人（7010405002922）に合併し解散,2016-01-20,1,,,,,モリトラストホテルリート,0
258,2010605001720,登記記録の閉鎖等,0,2023-03-14,2023-03-06,協同組合トップテーラー会,,その他の設立登記法人,東京都,墨田区,吾妻橋２丁目２番４号,,13,107,1300001,,,2023-03-06,清算の結了等,,,2015-10-05,1,,,,,トップテーラーカイ,0
282,2011301011600,登記記録の閉鎖等,0,2023-03-14,2023-02-27,株式会社イデアゼット,,株式会社,東京都,杉並区,今川３丁目２０番５号,,13,115,1670035,,,2023-02-27,合併による解散等,4011301001590,令和５年２月２７日東京都杉並区今川三丁目２０番５号神崎建設株式会社（4011301001590）に合併し解散,2015-10-05,1,,,,,イデアゼット,0
283,2011302007671,登記記録の閉鎖等,0,2023-03-14,2023-02-27,有限会社ヒノックス,,有限会社,東京都,杉並区,今川３丁目２０番５号,,13,115,1670035,,,2023-02-27,合併による解散等,4011301001590,令和５年２月２７日東京都杉並区今川三丁目２０番５号神崎建設株式会社（4011301001590）に合併し解散,2015-10-05,1,,,,,ヒノックス,0
300,2012802005891,登記記録の閉鎖等,0,2023-03-14,2023-03-07,有限会社高田設計,00059360,有限会社,東京都,東大和市,中央４丁目１０３９番地３４,,13,220,2070015,,,2023-03-07,清算の結了等,,,2015-10-05,1,,,,,タカダセッケイ,0
304,2013402007097,登記記録の閉鎖等,0,2023-03-14,2023-03-09,有限会社スルガヤ,,有限会社,東京都,多摩市,一ノ宮１丁目２３番地１０,,13,224,2060002,,,2023-03-09,清算の結了等,,,2015-10-05,1,,,,,スルガヤ,0
307,2020001057614,登記記録の閉鎖等,0,2023-03-14,2023-03-09,株式会社ポートサイド薬局,,株式会社,神奈川県,横浜市神奈川区,栄町６番地１ヨコハマポートサイドロア参番館１０６号,,14,102,2210052,,,2023-03-09,合併による解散等,2010001012074,令和５年３月１日東京都文京区西片一丁目１５番１５号株式会社トモズ（2010001012074）に合併し解散,2015-10-05,1,,,,,ポートサイドヤッキョク,0
326,2040002026780,登記記録の閉鎖等,0,2023-03-14,2023-03-07,イークロイツ有限会社,,有限会社,千葉県,船橋市,前原西２丁目２６番５号,,12,204,2740825,,,2023-03-07,清算の結了等,,,2015-10-05,1,,,,,イークロイツ,0
332,2050001002567,登記記録の閉鎖等,0,2023-03-14,2023-03-09,水戸冨士機材株式会社,,株式会社,茨城県,水戸市,浜田２丁目１５番６号,,08,201,3100812,,,2023-03-09,合併による解散等,9010001055397,令和５年３月１日東京都千代田区一番町１２冨士機材株式会社（9010001055397）に合併し解散,2015-10-05,1,,,,,ミトフジキザイ,0
356,2120001037143,登記記録の閉鎖等,0,2023-03-14,2023-03-13,株式会社あづま,,株式会社,大阪府,大阪市浪速区,敷津東２丁目２番８号,,27,111,5560012,,,2023-03-13,清算の結了等,,,2015-10-05,1,,,,,アズマ,0
382,2130001010108,登記記録の閉鎖等,0,2023-03-14,2023-03-09,株式会社エスエヌピー,,株式会社,京都府,京都市南区,吉祥院石原上川原町２１番地,,26,107,6018382,,,2023-03-09,清算の結了等,,,2015-10-05,1,,,,,エスエヌピー,0
395,2140002010444,登記記録の閉鎖等,0,2023-03-14,2023-03-10,有限会社マキデンキ,,有限会社,兵庫県,神戸市北区,青葉台３番８号,,28,109,6511231,,,2023-03-10,清算の結了等,,,2015-10-05,1,,,,,マキデンキ,0
402,2160001015293,登記記録の閉鎖等,0,2023-03-14,2023-03-13,小林建設株式会社,,株式会社,滋賀県,守山市,勝部３丁目１３番２７号,,25,207,5240041,,,2023-03-13,清算の結了等,,,2015-10-05,1,,,,,コバヤシケンセツ,0
421,2200002025543,登記記録の閉鎖等,0,2023-03-14,2023-03-10,高山ビデオシステム有限会社,,有限会社,岐阜県,高山市,大新町３丁目１８２番地,,21,203,5060851,,,2023-03-10,清算の結了等,,,2015-10-05,1,,,,,タカヤマビデオシステム,0
422,2200003002748,登記記録の閉鎖等,0,2023-03-14,2023-03-10,合資会社藤村自動車,,合資会社,岐阜県,下呂市,萩原町花池２０３番地の１,,21,220,5092515,,,2023-03-10,清算の結了等,,,2015-10-05,1,,,,,フジムラジドウシャ,0
437,2260001020300,登記記録の閉鎖等,0,2023-03-14,2023-03-10,森脇建設株式会社,,株式会社,岡山県,苫田郡鏡野町,塚谷６０１番地１,,33,606,7080365,,,2023-03-10,清算の結了等,,,2015-10-05,1,,,,,モリワキケンセツ,0
459,2370001006008,登記記録の閉鎖等,0,2023-03-14,2023-03-13,フルヤ自動車部品販売株式会社,,株式会社,宮城県,仙台市宮城野区,扇町６丁目１番２号,,04,102,9830034,,,2023-03-13,清算の結了等,,,2015-10-05,1,,,,,,0
463,2380001005231,登記記録の閉鎖等,0,2023-03-14,2023-03-09,郡山冨士機材株式会社,,株式会社,福島県,郡山市,朝日３丁目６番２２号,,07,203,9638024,,,2023-03-09,合併による解散等,9010001055397,令和５年３月１日東京都千代田区一番町１２冨士機材株式会社（9010001055397）に合併し解散,2015-10-05,1,,,,,,0
490,2700150103736,登記記録の閉鎖等,0,2023-03-14,2022-12-13,亡田中清一相続財産,,その他,和歌山県,日高郡みなべ町,山内１４２３番地,,30,391,6450012,,,2022-12-13,その他の清算の結了等,,,2021-06-16,1,,,,,ボウタナカセイイチソウゾクザイサン,0
491,3010001110538,登記記録の閉鎖等,0,2023-03-14,2023-03-06,日宏フォーサイト株式会社,,株式会社,東京都,中央区,八丁堀３丁目１２番２号,,13,102,1040032,,,2023-03-06,清算の結了等,,,2015-10-05,1,,,,,ニッコウフォーサイト,0
492,3010001144809,登記記録の閉鎖等,0,2023-03-14,2023-03-08,ＳＭＴエステート株式会社,,株式会社,東京都,中央区,月島４丁目１８番３号,,13,102,1040052,,,2023-03-08,清算の結了等,,,2015-10-05,1,,,,,エスエムティエステート,0
502,3010101000473,登記記録の閉鎖等,0,2023-03-14,2023-03-02,株式会社内田工業所,,株式会社,東京都,八王子市,楢原町３８７番地,00128338,13,201,1930803,,,2023-03-02,清算の結了等,,,2022-11-08,1,,,,,ウチダコウギョウショ,0
515,3010403027719,登記記録の閉鎖等,0,2023-03-14,2023-03-01,合同会社浅井綜合,,合同会社,東京都,港区,赤坂２丁目１７番４４号,,13,103,1070052,,,2023-03-01,清算の結了等,,,2022-05-24,1,,,,,アサイソウゴウ,0
519,3010502022364,登記記録の閉鎖等,0,2023-03-14,2023-03-13,有限会社グリーンレーン,,有限会社,東京都,台東区,浅草橋４丁目１５番５号,,13,106,1110053,,,2023-03-13,清算の結了等,,,2015-10-05,1,,,,,,0
537,3011003014462,登記記録の閉鎖等,0,2023-03-14,2023-03-06,ｄａｒｗｉｎｚｆｉｎｃｈ合同会社,,合同会社,東京都,渋谷区,神宮前６丁目２３番４号桑野ビル２階,,13,113,1500001,,,2023-03-06,清算の結了等,,,2022-04-07,1,,,,,ダーウィンズフィンチ,0
577,3021002015147,登記記録の閉鎖等,0,2023-03-14,2023-03-10,有限会社田園印刷所,,有限会社,神奈川県,鎌倉市,大船１丁目１２番２０号,,14,204,2470056,,,2023-03-10,清算の結了等,,,2015-10-05,1,,,,,デンエンインサツショ,0
588,3030002103209,登記記録の閉鎖等,0,2023-03-14,2023-03-09,有限会社佐藤樹脂機械,,有限会社,埼玉県,川口市,大字安行慈林７９８番地の１０,,11,203,3340071,,,2023-03-09,清算の結了等,,,2015-10-05,1,,,,,サトウジュシキカイ,0
599,3050005011588,登記記録の閉鎖等,0,2023-03-14,2023-03-02,一般社団法人オレンジの屋根教育サポート,,その他の設立登記法人,茨城県,土浦市,湖北２丁目４番６号,,08,203,3000032,,,2023-03-02,清算の結了等,,,2015-10-05,1,,,,,オレンジノヤネキョウイクサポート,0
613,3090001008106,登記記録の閉鎖等,0,2023-03-14,2023-03-13,江南物産株式会社,,株式会社,山梨県,上野原市,松留３１番地,,19,212,4090115,,,2023-03-13,清算の結了等,,,2015-10-05,1,,,,,コウナンブッサン,0
620,3100002038736,登記記録の閉鎖等,0,2023-03-14,2023-03-10,有限会社エアーリメイクス,,有限会社,長野県,飯田市,鼎切石５１２１番地３５,,20,205,3950807,,,2023-03-10,清算の結了等,,,2015-10-05,1,,,,,エアーリメイクス,0
621,3100003006262,登記記録の閉鎖等,0,2023-03-14,2023-03-01,合同会社常念社,,合同会社,長野県,松本市,並柳３丁目１９－１１,,20,202,3900825,,,2023-03-01,清算の結了等,,,2021-10-21,1,,,,,ジョウネンシャ,0
670,3180001079682,登記記録の閉鎖等,0,2023-03-14,2023-03-10,松村建材株式会社,,株式会社,愛知県,尾張旭市,井田町３丁目７２番地,,23,226,4880024,,,2023-03-10,清算の結了等,,,2015-10-05,1,,,,,マツムラケンザイ,0
671,3180001093642,登記記録の閉鎖等,0,2023-03-14,2023-03-08,新量株式会社,,株式会社,愛知県,半田市,柊町５丁目９番地の１０,,23,205,4750916,,,2023-03-08,清算の結了等,,,2015-10-05,1,,,,,シンリョウ,0
672,3180001136327,登記記録の閉鎖等,0,2023-03-14,2023-03-08,株式会社杉野商会,,株式会社,愛知県,愛西市,大野山町中之割８２番地１,,23,232,4968017,,,2023-03-08,清算の結了等,,,2019-05-07,1,,,,,スギノショウカイ,0
683,3180002090630,登記記録の閉鎖等,0,2023-03-14,2023-03-09,有限会社エイチ・カワサキ,,有限会社,愛知県,愛西市,石田町南郷１１番地の２,,23,232,4960938,,,2023-03-09,清算の結了等,,,2015-10-05,1,,,,,エイチカワサキ,0
684,3180003013433,登記記録の閉鎖等,0,2023-03-14,2023-03-07,合資会社中根商店,,合資会社,愛知県,津島市,神守町字一丁田１０３番地,,23,208,4960005,,,2023-03-07,清算の結了等,,,2015-10-05,1,,,,,ナカネショウテン,0
696,3190005008637,登記記録の閉鎖等,0,2023-03-14,2023-03-09,医療法人真鈴川整形外科,,その他の設立登記法人,三重県,四日市市,楠町南五味塚１６０番地の４,,24,202,5100104,,,2023-03-09,清算の結了等,,,2015-10-05,1,,,,,マスズガワセイケイゲカ,0
698,3200001018051,登記記録の閉鎖等,0,2023-03-14,2023-03-13,明峯産業株式会社,,株式会社,岐阜県,可児郡御嵩町,比衣５６０番地の８,,21,521,5050124,,,2023-03-13,清算の結了等,,,2015-10-05,1,,,,,メイホウサンギョウ,0
705,3200003001600,登記記録の閉鎖等,0,2023-03-14,2023-03-13,合資会社荒尾屋,,合資会社,岐阜県,大垣市,牧野町４丁目１２０番地の１５,,21,202,5030031,,,2023-03-13,清算の結了等,,,2015-10-05,1,,,,,アラオヤ,0
711,3240001001870,登記記録の閉鎖等,0,2023-03-14,2023-03-13,岡田商事株式会社,,株式会社,広島県,広島市西区,己斐本町１丁目１３番６号,,34,104,7330812,,,2023-03-13,清算の結了等,,,2015-10-05,1,,,,,オカダショウジ,0
723,3280002007707,登記記録の閉鎖等,0,2023-03-14,2023-03-10,ツーアンドフォー有限会社,,有限会社,島根県,大田市,久手町刺鹿４９５番地３,,32,205,6940052,,,2023-03-10,合併による解散等,9280002007833,令和５年３月１０日島根県大田市久手町刺鹿４９５番地３株式会社山本自動車（9280002007833）に合併し解散,2015-10-05,1,,,,,ツーアンドフォー,0
732,3290801023408,登記記録の閉鎖等,0,2023-03-14,2023-03-10,株式会社トレード北九州,,株式会社,福岡県,北九州市小倉南区,中曽根新町１４７２番地２,,40,107,8000216,,,2023-03-10,清算の結了等,,,2017-03-24,1,,,,,トレードキタキュウシュウ,0
755,3390001012341,登記記録の閉鎖等,0,2023-03-14,2023-03-08,田宮食肉株式会社,,株式会社,山形県,西村山郡河北町,大字吉田６０２番地２,,06,321,9993502,,,2023-03-08,清算の結了等,,,2015-10-05,1,,,,,タミヤショクニク,0
762,3450005003776,登記記録の閉鎖等,0,2023-03-14,2023-03-10,一般社団法人旭川銀行協会,,その他の設立登記法人,北海道,旭川市,四条通９丁目１７０３番地旭川北洋ビル４階,,01,204,0700034,,,2023-03-10,清算の結了等,,,2015-10-05,1,,,,,アサヒカワギンコウキョウカイ,0
773,3700150048897,登記記録の閉鎖等,0,2023-03-14,2022-12-05,大郷産業振興組合,,その他,岐阜県,大野郡白川村,大字飯島字上横谷１８５４番地,,21,604,5015625,,,2022-12-05,その他の清算の結了等,,,2015-10-09,1,,,,,ダイゴウサンギヨウシンコウクミアイ,0
774,4010001137729,登記記録の閉鎖等,0,2023-03-14,2023-03-06,株式会社ケアオフィス,,株式会社,沖縄県,那覇市,松尾２丁目１２番１６号プレサンスロジェ松尾レーヴタワー１１０３号室,,47,201,9000014,,,2023-03-06,清算の結了等,,,2015-10-05,1,,,,,ケアオフィス,0
786,4010401043072,登記記録の閉鎖等,0,2023-03-14,2023-03-02,株式会社リュクス,,株式会社,東京都,港区,赤坂４丁目３番２号バル赤坂ビル２階,,13,103,1070052,,,2023-03-02,清算の結了等,,,2015-10-05,1,,,,,リュクス,0
791,4010405011496,登記記録の閉鎖等,0,2023-03-14,2023-03-08,一般社団法人ＣＳＲレビューフォーラム,,その他の設立登記法人,東京都,新宿区,西早稲田２丁目３－１８アバコビル５階,,13,104,1690051,,,2023-03-08,清算の結了等,,,2015-10-05,1,,,,,シーエスアールレビューフォーラム,0
795,4010601047971,登記記録の閉鎖等,0,2023-03-14,2023-03-07,株式会社アルベリ,,株式会社,東京都,江東区,福住２丁目４番１４－２０５号,,13,108,1350032,,,2023-03-07,清算の結了等,,,2015-10-05,1,,,,,アルベリ,0
831,4020001019876,登記記録の閉鎖等,0,2023-03-14,2023-03-09,桂川工業株式会社,,株式会社,神奈川県,横浜市港北区,樽町１丁目２０番１７号,,14,109,2220001,,,2023-03-09,清算の結了等,,,2015-10-05,1,,,,,カツラガワコウギョウ,0
872,4120001109618,登記記録の閉鎖等,0,2023-03-14,2023-03-13,株式会社シークェンス,,株式会社,大阪府,大阪市西区,靱本町１丁目６番６号,,27,106,5500004,,,2023-03-13,清算の結了等,,,2015-10-05,1,,,,,シークェンス,0
873,4120001120946,登記記録の閉鎖等,0,2023-03-14,2023-03-10,株式会社ヘルスウェル・ジャパン,,株式会社,大阪府,大阪市北区,芝田２丁目２番１７号,,27,127,5300012,,,2023-03-10,清算の結了等,,,2015-10-05,1,,,,,,0
895,4140001083687,登記記録の閉鎖等,0,2023-03-14,2023-03-01,ＬＩＧＨＴ　ＵＰ　ＰＥＯＰＬＥ株式会社,,株式会社,兵庫県,宝塚市,山本野里２丁目４番９号,,28,214,6650814,,,2023-03-01,合併による解散等,2140001053337,令和５年３月１日兵庫県尼崎市西昆陽一丁目３０番１１号株式会社基住（2140001053337）に合併し解散,2015-10-05,1,,,,,ライトアップピープル,0
913,4180002085084,登記記録の閉鎖等,0,2023-03-14,2023-03-10,有限会社深山,,有限会社,愛知県,大府市,桃山町１丁目８番地の６,,23,223,4740026,,,2023-03-10,清算の結了等,,,2015-10-05,1,,,,,フカヤマ,0
965,4380001017968,登記記録の閉鎖等,0,2023-03-14,2023-03-09,株式会社料理旅館田事,,株式会社,福島県,会津若松市,城北町５番１５号,,07,202,9650043,,,2023-03-09,清算の結了等,,,2015-10-05,1,,,,,,0
981,4440002003969,登記記録の閉鎖等,0,2023-03-14,2023-03-07,有限会社ヘアーサロンはやせ,,有限会社,北海道,函館市,花園町３７番２号,,01,202,0410843,,,2023-03-07,清算の結了等,,,2015-10-05,1,,,,,ヘアーサロンハヤセ,0
987,5010001146191,登記記録の閉鎖等,0,2023-03-14,2023-03-02,ＵＣＣＡ　ＳＴＹＬＥ株式会社,,株式会社,東京都,港区,東麻布１丁目２８番１２号,,13,103,1060044,,,2023-03-02,清算の結了等,,,2015-10-05,1,,,,,ユッカスタイル,0
1005,5010501021010,登記記録の閉鎖等,0,2023-03-14,2023-03-13,リョーマ株式会社,,株式会社,東京都,台東区,東上野４丁目１８番２号,,13,106,1100015,,,2023-03-13,清算の結了等,,,2015-10-05,1,,,,,,0
1045,5011801006320,登記記録の閉鎖等,0,2023-03-14,2023-03-09,株式会社エクセラン,,株式会社,東京都,足立区,東伊興３丁目１７番６号,,13,121,1210801,,,2023-03-09,清算の結了等,,,2015-10-05,1,,,,,エクセラン,0
1062,5020001009843,登記記録の閉鎖等,0,2023-03-14,2023-03-10,グッディ株式会社,,株式会社,神奈川県,横浜市保土ケ谷区,権太坂３丁目２９番１５号,,14,106,2400026,,,2023-03-10,清算の結了等,,,2015-10-05,1,,,,,グッディ,0
1071,5021001035549,登記記録の閉鎖等,0,2023-03-14,2023-03-09,株式会社アジャスト,,株式会社,神奈川県,平塚市,虹ケ浜２３番１７号,,14,203,2540823,,,2023-03-09,清算の結了等,,,2015-10-05,1,,,,,アジャスト,0
1101,5060001000690,登記記録の閉鎖等,0,2023-03-14,2023-03-09,宇都宮冨士機材株式会社,,株式会社,栃木県,宇都宮市,平出工業団地４６番１４,,09,201,3210905,,,2023-03-09,合併による解散等,9010001055397,令和５年３月１日東京都千代田区一番町１２冨士機材株式会社（9010001055397）に合併し解散,2015-10-05,1,,,,,ウツノミヤフジキザイ,0
1108,5080002007584,登記記録の閉鎖等,0,2023-03-14,2023-03-13,有限会社静南印刷,,有限会社,静岡県,静岡市駿河区,中島８５２番地の１,,22,102,4228046,,,2023-03-13,清算の結了等,,,2015-10-05,1,,,,,,0
1113,5090001009523,登記記録の閉鎖等,0,2023-03-14,2023-03-10,株式会社アルファー,,株式会社,山梨県,富士吉田市,竜ケ丘１丁目９番３０号,,19,202,4030014,,,2023-03-10,清算の結了等,,,2015-10-05,1,,,,,アルファー,0
1116,5110001001618,登記記録の閉鎖等,0,2023-03-14,2023-03-10,株式会社北,,株式会社,新潟県,新潟市中央区,上近江２丁目１５番３３号,,15,103,9500973,,,2023-03-10,清算の結了等,,,2015-10-05,1,,,,,キタ,0
1119,5120001012696,登記記録の閉鎖等,0,2023-03-14,2023-03-10,株式会社総合コピー研究所,,株式会社,大阪府,大阪市東成区,東中本３丁目２１番５号,,27,115,5370021,,,2023-03-10,清算の結了等,,,2015-10-05,1,,,,,ソウゴウコピーケンキュウジョ,0
1125,5120003017149,登記記録の閉鎖等,0,2023-03-14,2023-03-09,合同会社ジャパン・カートリッジ・リマニュファクチャリング・コンソーシアム,,合同会社,大阪府,大阪市北区,西天満４丁目３番２５号梅田プラザビル弁護士法人梅ヶ枝中央法律事務所内,,27,127,5300047,,,2023-03-09,清算の結了等,,,2020-03-13,1,,,,,ジャパンカートリッジリマニュファクチャリングコンソーシアム,0
1171,5200002003777,登記記録の閉鎖等,0,2023-03-14,2023-03-14,有限会社ヒールフリップ,,有限会社,岐阜県,大垣市,荒尾町１８４４番地,,21,202,5030034,,,2023-03-14,清算の結了等,,,2015-10-05,1,,,,,ヒールフリップ,0
1184,5230001013907,登記記録の閉鎖等,0,2023-03-14,2023-03-13,株式会社穂明コーポレーション,,株式会社,富山県,高岡市,下島町３３番地,,16,202,9330821,,,2023-03-13,清算の結了等,,,2015-10-05,1,,,,,,0
1194,5290001034897,登記記録の閉鎖等,0,2023-03-14,2023-03-10,ウォーターエナジー株式会社,,株式会社,大分県,日田市,大字庄手６４７番地,,44,204,8770000,,,2023-03-10,清算の結了等,,,2015-10-05,1,,,,,ウォーターエナジー,0
1195,5290001060316,登記記録の閉鎖等,0,2023-03-14,2023-03-08,平居オフィス株式会社,,株式会社,福岡県,久留米市,高良内町２６０９番地８,,40,203,8390852,,,2023-03-08,清算の結了等,,,2015-10-05,1,,,,,ヒライオフィス,0
1228,5430001037167,登記記録の閉鎖等,0,2023-03-14,2023-03-10,株式会社アオイダイニング,,株式会社,北海道,札幌市中央区,南一条西２０丁目１番６号,,01,101,0640801,,,2023-03-10,合併による解散等,4440001002575,令和５年２月２８日北海道函館市中道二丁目５２番１号株式会社エイチケイアール（4440001002575）に合併し解散,2015-10-05,1,,,,,アオイダイニング,0
1229,5430001037349,登記記録の閉鎖等,0,2023-03-14,2023-03-02,ＧＭＯカーズ株式会社,,株式会社,東京都,渋谷区,桜丘町２６番１号セルリアンタワー,,13,113,1500031,,,2023-03-02,合併による解散等,9011001072341,令和５年３月１日東京都渋谷区桜丘町２６番１号セルリアンタワー株式会社ＤＩＸ（9011001072341）に合併し解散,2015-10-05,1,,,,,ジーエムオーカーズ,0
1243,5470002018088,登記記録の閉鎖等,0,2023-03-14,2023-03-09,有限会社岡電機商会,,有限会社,香川県,さぬき市,津田町鶴羽７８９番地,,37,206,7692402,,,2023-03-09,清算の結了等,,,2015-10-05,1,,,,,オカデンキショウカイ,0
1250,6010001010355,登記記録の閉鎖等,0,2023-03-14,2023-03-07,株式会社アール・ジー・ビー,,株式会社,東京都,千代田区,外神田２丁目９番１０号,,13,101,1010021,,,2023-03-07,清算の結了等,,,2015-10-05,1,,,,,アールジービー,0
1254,6010001166032,登記記録の閉鎖等,0,2023-03-14,2023-03-08,株式会社豪一,,株式会社,東京都,千代田区,神田駿河台２丁目１０番地６御茶ノ水Ｓビル２ＦＡ,,13,101,1010062,,,2023-03-08,清算の結了等,,,2015-10-05,1,,,,,ゴウイチ,0
1264,6010401038087,登記記録の閉鎖等,0,2023-03-14,2023-03-02,株式会社オンワードグローバルファッション,,株式会社,東京都,港区,海岸３丁目９番３２号,,13,103,1080022,,,2023-03-02,清算の結了等,,,2015-10-05,1,,,,,オンワードグローバルファッション,0
1270,6010501044200,登記記録の閉鎖等,0,2023-03-14,2023-03-08,オーライト国際株式会社,,株式会社,東京都,渋谷区,笹塚２丁目１９番２号ＴＳＫ笹塚ビル２階,00118348,13,113,1510073,,,2023-03-08,清算の結了等,,,2019-06-03,1,,,,,オーライトコクサイ,0
1301,6011103010895,登記記録の閉鎖等,0,2023-03-14,2023-03-09,合同会社朝霞内装設備,,合同会社,埼玉県,朝霞市,本町１丁目１９番２６号,,11,227,3510011,,,2023-03-09,清算の結了等,,,2021-08-02,1,,,,,アサカナイソウセツビ,0
1326,6013301011948,登記記録の閉鎖等,0,2023-03-14,2023-03-02,株式会社美濃屋文右衛門,,株式会社,東京都,豊島区,東池袋１丁目３４番５号いちご東池袋ビル６階,,13,116,1700013,,,2023-03-02,清算の結了等,,,2015-10-05,1,,,,,ミノヤブンエモン,0
1330,6020001004133,登記記録の閉鎖等,0,2023-03-14,2023-03-06,株式会社ダイシン,,株式会社,東京都,葛飾区,奥戸５丁目２０番２号,,13,122,1240022,,,2023-03-06,清算の結了等,,,2015-10-05,1,,,,,ダイシン,0
1337,6021001053450,登記記録の閉鎖等,0,2023-03-14,2023-03-09,ティーライド株式会社,,株式会社,神奈川県,横須賀市,久里浜８丁目１９番９号,,14,201,2390831,,,2023-03-09,清算の結了等,,,2015-10-05,1,,,,,ティーライド,0
1362,6050001009492,登記記録の閉鎖等,0,2023-03-14,2023-03-09,土浦冨士機材株式会社,,株式会社,茨城県,土浦市,生田町８番３１号,,08,203,3000047,,,2023-03-09,合併による解散等,9010001055397,令和５年３月１日東京都千代田区一番町１２冨士機材株式会社（9010001055397）に合併し解散,2015-10-05,1,,,,,ツチウラフジキザイ,0
1390,6120002046404,登記記録の閉鎖等,0,2023-03-14,2023-03-10,エス・ビー・エル・パートナーズ有限会社,,有限会社,大阪府,大阪市中央区,南船場３丁目１０番１９号,,27,128,5420081,,,2023-03-10,清算の結了等,,,2015-10-05,1,,,,,エスビーエルパートナーズ,0
1406,6180001028901,登記記録の閉鎖等,0,2023-03-14,2023-03-13,丸野建築株式会社,,株式会社,愛知県,名古屋市緑区,倉坂１０３番地,,23,114,4598006,,,2023-03-13,清算の結了等,,,2015-10-05,1,,,,,マルノケンチク,0
1417,6220003003138,登記記録の閉鎖等,0,2023-03-14,2023-03-09,海源商事合同会社,,合同会社,石川県,金沢市,神田１丁目１０－２３,,17,201,9218027,,,2023-03-09,清算の結了等,,,2021-10-18,1,,,,,カイゲンショウジ,0
1423,6290001004156,登記記録の閉鎖等,0,2023-03-14,2023-03-07,株式会社三宅不動産商事,,株式会社,福岡県,福岡市東区,松島２丁目５番１号,,40,131,8120062,,,2023-03-07,清算の結了等,,,2015-10-05,1,,,,,ミヤケフドウサンショウジ,0
1457,6430002055365,登記記録の閉鎖等,0,2023-03-14,2023-03-07,有限会社まるみ金子,,有限会社,北海道,小樽市,入船２丁目７番１４号,,01,203,0470021,,,2023-03-07,清算の結了等,,,2015-10-05,1,,,,,マルミカネコ,0
1458,6430003009246,登記記録の閉鎖等,0,2023-03-14,2023-03-08,パブリック・ファースト合同会社,,合同会社,北海道,札幌市南区,川沿十二条５丁目３番７号,,01,106,0050812,,,2023-03-08,清算の結了等,,,2018-04-06,1,,,,,パブリックファースト,0
1470,6500002011443,登記記録の閉鎖等,0,2023-03-14,2023-03-13,有限会社シコク流通システム,,有限会社,愛媛県,東温市,松瀬川甲５９２番地１２,,38,215,7910314,,,2023-03-13,清算の結了等,,,2015-10-05,1,,,,,,0
1471,7010001007276,登記記録の閉鎖等,0,2023-03-14,2023-03-08,株式会社マクビイ,,株式会社,東京都,文京区,関口１丁目３６番１号,,13,105,1120014,,,2023-03-08,清算の結了等,,,2015-10-05,1,,,,,マクビイ,0
1472,7010001062313,登記記録の閉鎖等,0,2023-03-14,2023-03-01,株式会社日本テクノサービス,,株式会社,東京都,文京区,千駄木３丁目４７番１号,,13,105,1130022,,,2023-03-01,清算の結了等,,,2015-10-05,1,,,,,ニホンテクノサービス,0
1482,7010401062433,登記記録の閉鎖等,0,2023-03-14,2023-03-02,安西商事株式会社,,株式会社,東京都,港区,新橋４丁目２２番１号,,13,103,1050004,,,2023-03-02,清算の結了等,,,2015-10-05,1,,,,,アンザイショウジ,0
1496,7010601008822,登記記録の閉鎖等,0,2023-03-14,2023-03-06,株式会社荒川莫大小製造所,,株式会社,東京都,墨田区,東向島２丁目４４番３号,,13,107,1310032,,,2023-03-06,清算の結了等,,,2015-10-05,1,,,,,アラカワメリヤスセイゾウショ,0
1500,7010701013466,登記記録の閉鎖等,0,2023-03-14,2023-03-08,アドバンス・エヌ・ケイ興産株式会社,,株式会社,東京都,品川区,西五反田２丁目１０番３－５０１号,,13,109,1410031,,,2023-03-08,清算の結了等,,,2015-10-05,1,,,,,アドバンスエヌケイコウサン,0
1549,7020002045547,登記記録の閉鎖等,0,2023-03-14,2023-03-08,有限会社森寝装,,有限会社,神奈川県,横浜市中区,初音町１丁目３番地,,14,104,2310053,,,2023-03-08,清算の結了等,,,2015-10-05,1,,,,,モリシンソウ,0
1551,7020002074240,登記記録の閉鎖等,0,2023-03-14,2023-03-10,有限会社３３度Ｃプラス,,有限会社,神奈川県,横浜市青葉区,美しが丘２丁目３７番地１１,,14,117,2250002,,,2023-03-10,清算の結了等,,,2015-10-05,1,,,,,サンジュウサンドシープラス,0
1580,7060001020885,登記記録の閉鎖等,0,2023-03-14,2023-03-10,関野建材工業株式会社,,株式会社,栃木県,佐野市,葛生西２丁目１番２５号,,09,204,3270507,,,2023-03-10,清算の結了等,,,2015-10-05,1,,,,,,0
1608,7120005010067,登記記録の閉鎖等,0,2023-03-14,2023-03-10,ティーエムエスキャピタル一般社団法人,,その他の設立登記法人,大阪府,大阪市中央区,南船場３丁目１０番１９号,,27,128,5420081,,,2023-03-10,清算の結了等,,,2015-10-05,1,,,,,ティーエムエスキャピタル,0
1614,7122001024752,登記記録の閉鎖等,0,2023-03-14,2023-03-13,株式会社ＫＩＺＵＮＡ－ＣＯＡＴ,,株式会社,大阪府,東大阪市,寿町２丁目３番３０号,,27,227,5770837,,,2023-03-13,清算の結了等,,,2015-10-05,1,,,,,キズナコート,0
1630,7170005006614,登記記録の閉鎖等,0,2023-03-14,2023-03-13,一般社団法人合燕掌,,その他の設立登記法人,和歌山県,伊都郡高野町,大字細川８２６番地八坂神社内,,30,344,6480262,,,2023-03-13,清算の結了等,,,2017-09-25,1,,,,,ゴエンテ,0
1636,7180002071511,登記記録の閉鎖等,0,2023-03-14,2023-03-08,有限会社伊藤新聞店,,有限会社,愛知県,瀬戸市,川西町１丁目６８番地,,23,204,4890926,,,2023-03-08,清算の結了等,,,2015-10-05,1,,,,,イトウシンブンテン,0
1637,7180002089545,登記記録の閉鎖等,0,2023-03-14,2023-03-07,有限会社葵塗裝工業所,,有限会社,愛知県,海部郡蟹江町,大字西之森字海山２９３番地,,23,425,4970052,,,2023-03-07,清算の結了等,,,2015-10-05,1,,,,,アオイトソウコウギョウショ,0
1642,7180302006761,登記記録の閉鎖等,0,2023-03-14,2023-03-02,有限会社大孝設備工業,,有限会社,愛知県,豊橋市,西幸町字笠松１７７番地の２,,23,201,4418113,,,2023-03-02,清算の結了等,,,2015-10-05,1,,,,,オオタカセツビコウギョウ,0
1681,7290802022108,登記記録の閉鎖等,0,2023-03-14,2023-03-10,有限会社井田電機工業,,有限会社,福岡県,行橋市,大字稲童２３９３番地,,40,213,8240022,,,2023-03-10,清算の結了等,,,2015-10-05,1,,,,,イタデンキコウギョウ,0
1705,7390002005398,登記記録の閉鎖等,0,2023-03-14,2023-03-08,有限會社後藤糸店,,有限会社,山形県,天童市,三日町１丁目５番２８号,,06,210,9940033,,,2023-03-08,清算の結了等,,,2015-10-05,1,,,,,ゴトウイトテン,0
1710,7410001008449,登記記録の閉鎖等,0,2023-03-14,2023-03-08,秋田大賀クロージング株式会社,,株式会社,秋田県,仙北市,角館町小勝田小倉前３４番地の１,,05,215,0140347,,,2023-03-08,合併による解散等,8120001153703,令和５年３月１日大阪府枚方市長尾谷町一丁目６７番１号大賀株式会社（8120001153703）に合併し解散,2015-10-05,1,,,,,アキタオオガクロージング,0
1719,7430002053954,登記記録の閉鎖等,0,2023-03-14,2023-03-07,有限会社小樽トーヨー住設,,有限会社,北海道,小樽市,新光５丁目８番３号,,01,203,0470152,,,2023-03-07,清算の結了等,,,2015-10-05,1,,,,,オタルトーヨージュウセツ,0
1720,7430002066915,登記記録の閉鎖等,0,2023-03-14,2023-03-07,第一自動車工業有限会社,,有限会社,北海道,滝川市,朝日町西３丁目２番６号,,01,225,0730018,,,2023-03-07,清算の結了等,,,2022-07-06,1,,,,,ダイイチジドウシャコウギョウ,0
1729,7700150070518,登記記録の閉鎖等,0,2023-03-14,2022-10-26,メゾンシャングリラ管理組合,,その他,神奈川県,横浜市神奈川区,松本町３丁目２１番地７,,14,102,2210841,,,2022-10-26,その他の清算の結了等,,,2016-02-03,1,,,,,メゾンシヤングリラカンリクミアイ,0
1732,8010001176095,登記記録の閉鎖等,0,2023-03-14,2023-03-10,ＹＫコーポレーション株式会社,,株式会社,東京都,中央区,日本橋茅場町３丁目１０番２号ＳＫＫビル５階,,13,102,1030025,,,2023-03-10,合併による解散等,8011101083710,令和５年３月１日東京都新宿区西新宿一丁目２５番１号新宿センタービルＪＲＪホールディングス株式会社（8011101083710）に合併し解散,2016-06-09,1,,,,,ワイケーコーポレーション,0
1733,8010001178810,登記記録の閉鎖等,0,2023-03-14,2023-03-08,株式会社ＷＴパートナーズ,,株式会社,東京都,千代田区,麹町４丁目７番２号,,13,101,1020083,,,2023-03-08,清算の結了等,,,2016-10-06,1,,,,,ダブリューティーパートナーズ,0
1756,8010502008929,登記記録の閉鎖等,0,2023-03-14,2023-03-10,有限会社花眼鏡店,,有限会社,東京都,台東区,三筋２丁目２１番１１号,,13,106,1110055,,,2023-03-10,清算の結了等,,,2015-10-05,1,,,,,,0
1757,8010502009340,登記記録の閉鎖等,0,2023-03-14,2023-03-13,有限会社日の丸屋靴店,,有限会社,東京都,台東区,台東４丁目２番１２号,,13,106,1100016,,,2023-03-13,清算の結了等,,,2015-10-05,1,,,,,ヒノマルヤクツテン,0
1760,8010601055649,登記記録の閉鎖等,0,2023-03-14,2023-03-06,株式会社オフィス・ワイケイ,,株式会社,東京都,墨田区,菊川３丁目９番１－１００３号菊川ガーデンハウス,,13,107,1300024,,,2023-03-06,清算の結了等,,,2019-06-13,1,,,,,オフィスワイケイ,0
1804,8020001083274,登記記録の閉鎖等,0,2023-03-14,2023-03-10,株式会社ＴＳＴ不動産,,株式会社,神奈川県,横浜市港南区,日野１丁目７番８号,,14,111,2340051,,,2023-03-10,清算の結了等,,,2015-10-05,1,,,,,ティエスティフドウサン,0
1805,8020001090725,登記記録の閉鎖等,0,2023-03-14,2023-03-10,株式会社ＲＡＢ－Ｊａｐａｎ,,株式会社,神奈川県,横浜市中区,諏訪町１６番地,,14,104,2310863,,,2023-03-10,清算の結了等,,,2015-10-05,1,,,,,ラブジャパン,0
1829,8040002037806,登記記録の閉鎖等,0,2023-03-14,2023-03-07,有限会社グレープ,,有限会社,千葉県,船橋市,高根台１丁目１番２０ダイヤパレス高根台１０５号,,12,204,2740065,,,2023-03-07,清算の結了等,,,2015-10-05,1,,,,,グレープ,0
1843,8110001030812,登記記録の閉鎖等,0,2023-03-14,2023-03-09,株式会社セブンファーム新潟市,,株式会社,新潟県,新潟市江南区,嘉木２０８番地,,15,104,9501133,,,2023-03-09,合併による解散等,1010001133796,令和５年３月１日東京都千代田区二番町８番地８株式会社セブンファーム（1010001133796）に合併し解散,2015-10-05,1,,,,,セブンファームニイガタシ,0
1850,8120001162654,登記記録の閉鎖等,0,2023-03-14,2023-03-09,株式会社ビッグムーン,,株式会社,大阪府,大阪市北区,西天満５丁目１０番１２号セイブビル６階,,27,127,5300047,,,2023-03-09,清算の結了等,,,2015-10-05,1,,,,,ビッグムーン,0
1862,8120102027970,登記記録の閉鎖等,0,2023-03-14,2023-03-13,竹中石油商事有限会社,,有限会社,大阪府,阪南市,鳥取４６１番地,,27,232,5990204,,,2023-03-13,清算の結了等,,,2015-10-05,1,,,,,,0
1899,8200001013733,登記記録の閉鎖等,0,2023-03-14,2023-03-13,新和建設株式会社,,株式会社,岐阜県,大垣市,長松町７５８番地の２,,21,202,5030997,,,2023-03-13,清算の結了等,,,2015-10-05,1,,,,,,0
1937,8380001012998,登記記録の閉鎖等,0,2023-03-14,2023-03-09,常磐冨士機材株式会社,,株式会社,福島県,いわき市,小名浜住吉字飯塚７３番地１,,07,204,9718124,,,2023-03-09,合併による解散等,9010001055397,令和５年３月１日東京都千代田区一番町１２冨士機材株式会社（9010001055397）に合併し解散,2015-10-05,1,,,,,ジョウバンフジキザイ,0
1946,8440001000550,登記記録の閉鎖等,0,2023-03-14,2023-03-08,株式会社キムラ,,株式会社,北海道,函館市,深堀町８番１４号,,01,202,0420941,,,2023-03-08,清算の結了等,,,2015-10-05,1,,,,,キムラ,0
1955,8700150003336,登記記録の閉鎖等,0,2023-03-14,2022-10-02,日本機械工具工業会,,その他,東京都,千代田区,神田須田町２丁目２５　ＧＹＢ秋葉原１２階,,13,101,1010041,,,2022-10-02,その他の清算の結了等,,,2015-10-09,1,,,,,ニホンキカイコウグコウギヨウカイ,0
1972,9010003039209,登記記録の閉鎖等,0,2023-03-14,2023-03-10,合同会社バイオメディカルラボ,,合同会社,東京都,千代田区,麹町２丁目１０番地３,,13,101,1020083,,,2023-03-10,清算の結了等,,,2022-11-30,1,,,,,バイオメディカルラボ,0
1991,9010601062438,登記記録の閉鎖等,0,2023-03-14,2023-03-07,ときわ花王株式会社,,株式会社,東京都,墨田区,立花２丁目３３番５号,,13,107,1310043,,,2023-03-07,清算の結了等,,,2023-01-19,1,,,,,トキワカオウ,0
2027,9011703002785,登記記録の閉鎖等,0,2023-03-14,2023-03-09,マイルストーン合同会社,,合同会社,東京都,江戸川区,西葛西７丁目２３番２－１０１号,,13,123,1340088,,,2023-03-09,清算の結了等,,,2021-02-24,1,,,,,マイルストーン,0
2051,9020005002279,登記記録の閉鎖等,0,2023-03-14,2023-03-08,京浜海運協同組合,,その他の設立登記法人,神奈川県,横浜市鶴見区,鶴見中央１丁目８番９号,,14,101,2300051,,,2023-03-08,清算の結了等,,,2015-10-05,1,,,,,ケイヒンカイウン,0
2056,9021003000803,登記記録の閉鎖等,0,2023-03-14,2023-03-10,株式会社トップス,,株式会社,神奈川県,高座郡寒川町,倉見３５５番地１,,14,321,2530101,,,2023-03-10,清算の結了等,,,2015-10-05,1,,,,,トップス,0
2062,9030002051591,登記記録の閉鎖等,0,2023-03-14,2023-03-09,有限会社あすなろ企画,,有限会社,埼玉県,草加市,草加３丁目５番３５号,,11,221,3400043,,,2023-03-09,合併による解散等,7430001069398,令和５年３月１日札幌市白石区東札幌五条二丁目４番３０号株式会社アインファーマシーズ（7430001069398）に合併し解散,2015-10-05,1,,,,,アスナロキカク,0
2072,9060001010166,登記記録の閉鎖等,0,2023-03-14,2023-03-09,北関東建設株式会社,,株式会社,栃木県,真岡市,久下田西２丁目７５番地,,09,209,3214522,,,2023-03-09,清算の結了等,,,2015-10-05,1,,,,,キタカントウケンセツ,0
2092,9120001104861,登記記録の閉鎖等,0,2023-03-14,2023-03-13,株式会社アールダッシュ,,株式会社,大阪府,大阪市中央区,北久宝寺町２丁目１番１０号,,27,128,5410057,,,2023-03-13,清算の結了等,,,2015-10-05,1,,,,,,0
2122,9140001042192,登記記録の閉鎖等,0,2023-03-14,2023-03-09,株式会社ニューポート,,株式会社,兵庫県,神戸市垂水区,本多聞１丁目８番３０号,,28,108,6550006,,,2023-03-09,清算の結了等,,,2015-10-05,1,,,,,ニューポート,0
2123,9140001049857,登記記録の閉鎖等,0,2023-03-14,2023-03-09,竹村工業株式会社,,株式会社,兵庫県,尼崎市,西難波町１丁目５番１４号オール西難波２０１号,,28,202,6600893,,,2023-03-09,清算の結了等,,,2015-10-05,1,,,,,タケムラコウギョウ,0
2142,9180002073258,登記記録の閉鎖等,0,2023-03-14,2023-03-07,有限会社キッチンモーア,,有限会社,愛知県,瀬戸市,西寺山町２番地２,,23,204,4890925,,,2023-03-07,清算の結了等,,,2015-10-05,1,,,,,キッチンモーア,0
2170,9290001067349,登記記録の閉鎖等,0,2023-03-14,2023-03-08,株式会社ミスター・グリーン,,株式会社,福岡県,大野城市,乙金東３丁目１０番１２号,,40,219,8160901,,,2023-03-08,清算の結了等,,,2015-10-05,1,,,,,ミスターグリーン,0
2184,9370001015828,登記記録の閉鎖等,0,2023-03-14,2023-03-10,株式会社イースト薬品,,株式会社,宮城県,仙台市宮城野区,幸町２丁目１７番７－７１２号,,04,102,9830836,,,2023-03-10,清算の結了等,,,2015-10-05,1,,,,,イーストヤクヒン,0
2194,9400002008422,登記記録の閉鎖等,0,2023-03-14,2023-03-10,有限会社フォーナイン,,有限会社,岩手県,花巻市,不動町１丁目８番地３,,03,205,0250038,,,2023-03-10,清算の結了等,,,2015-10-05,1,,,,,フォーナイン,0
2195,9400002011797,登記記録の閉鎖等,0,2023-03-14,2023-03-08,有限会社ベイシティ商事,,有限会社,岩手県,釜石市,大町１丁目８番１号,,03,211,0260024,,,2023-03-08,清算の結了等,,,2015-10-05,1,,,,,ベイシティショウジ,0
2210,9450002010043,登記記録の閉鎖等,0,2023-03-14,2023-03-10,有限会社田代重機建設,,有限会社,北海道,上川郡下川町,西町３００番地,,01,468,0981205,,,2023-03-10,清算の結了等,,,2015-10-05,1,,,,,タシロジュウキケンセツ,0
2217,9490002001765,登記記録の閉鎖等,0,2023-03-14,2023-03-10,有限会社小松建工,,有限会社,高知県,高知市,南川添１６番２４号,,39,201,7800082,,,2023-03-10,清算の結了等,,,2015-10-05,1,,,,,コマツケンコウ,0
