sequenceNumber,corporateNumber,process,correct,updateDate,changeDate,name,nameImageId,kind,prefectureName,cityName,streetNumber,addressImageId,prefectureCode,cityCode,postCode,addressOutside,addressOutsideImageId,closeDate,closeCause,successorCorporateNumber,changeCause,assignmentDate,latest,enName,enPrefectureName,enCityName,enAddressOutside,furigana,hihyoji
4,1010001238380,新規,0,2023-09-13,2023-09-13,株式会社サルメイト,,株式会社,東京都,中央区,銀座１丁目２２番１１号銀座大竹ビジデンス２Ｆ,,13,102,1040061,,,,,,,2023-09-13,1,,,,,サルメイト,0
5,1010001238430,新規,0,2023-09-13,2023-09-13,ｉＦｕｔｕｒｅ技術株式会社,,株式会社,東京都,千代田区,神田佐久間町３丁目２１番地インターアクトビル３Ｆ,,13,101,1010025,,,,,,,2023-09-13,1,,,,,アイフューチャーギジュツ,0
6,1010001238447,新規,0,2023-09-13,2023-09-13,株式会社リブレオス,,株式会社,東京都,中央区,銀座１丁目２２番１１号銀座大竹ビジデンス２階,,13,102,1040061,,,,,,,2023-09-13,1,,,,,リブレオス,0
7,1010001238471,新規,0,2023-09-13,2023-09-13,全共連第３回劣後ローン流動化株式会社,,株式会社,東京都,千代田区,丸の内３丁目１番１号東京共同会計事務所内,,13,101,1000005,,,,,,,2023-09-13,1,,,,,ゼンキョウレンダイサンカイレツゴローンリュウドウカ,0
9,1010003041650,新規,0,2023-09-13,2023-09-13,合同会社エイト,,合同会社,東京都,中央区,銀座１丁目１２番４号Ｎ＆ＥＢＬＤ６Ｆ,,13,102,1040061,,,,,,,2023-09-13,1,,,,,エイト,0
10,1010003041659,新規,0,2023-09-13,2023-09-13,合同会社上二,,合同会社,東京都,新島村,本村６丁目４－１６,,13,363,1000402,,,,,,,2023-09-13,1,,,,,ジョウニ,0
16,1010401176998,新規,0,2023-09-13,2023-09-13,株式会社Ｓ．Ｓ　ＣＯＮＣＥＰＴ,,株式会社,東京都,港区,南青山３丁目１番３６号青山丸竹ビル６Ｆ,,13,103,1070062,,,,,,,2023-09-13,1,,,,,エスエスコンセプト,0
17,1010401177146,新規,0,2023-09-13,2023-09-13,株式会社Ｃｃａｔ,,株式会社,東京都,港区,北青山１丁目３番１号アールキューブ青山３階,,13,103,1070061,,,,,,,2023-09-13,1,,,,,シーキャット,0
18,1010401177154,新規,0,2023-09-13,2023-09-13,株式会社是道,,株式会社,東京都,港区,南青山２丁目２２番１７号センテニアル青山ビルＢ１Ｆ,,13,103,1070062,,,,,,,2023-09-13,1,,,,,コレドウ,0
19,1010401177162,新規,0,2023-09-13,2023-09-13,株式会社ＳＬＥＥＶＥ　ＳＴＵＤＩＯＳ,,株式会社,東京都,港区,新橋６丁目１３番１０号ＰＭＯ新橋５階,,13,103,1050004,,,,,,,2023-09-13,1,,,,,スリーブスタジオ,0
28,1010801034285,新規,0,2023-09-13,2023-09-13,株式会社Ｓａｌｅｓ　Ｄｏ,,株式会社,東京都,大田区,大森北４丁目７番１２号２Ｆ,,13,111,1430016,,,,,,,2023-09-13,1,,,,,セールスドゥ,0
29,1010801034327,新規,0,2023-09-13,2023-09-13,株式会社富澤商事,,株式会社,東京都,大田区,池上３丁目４１番１１号成安ビル４階,,13,111,1460082,,,,,,,2023-09-13,1,,,,,トミザワショウジ,0
32,1010803004674,新規,0,2023-09-13,2023-09-13,合同会社ＦＫ,,合同会社,東京都,大田区,東糀谷４丁目１１番１８号,,13,111,1440033,,,,,,,2023-09-13,1,,,,,エフケー,0
41,1011001156886,新規,0,2023-09-13,2023-09-13,株式会社ＪｉｉｉＭａ,,株式会社,東京都,目黒区,三田１丁目１１号２４番地ブライズ恵比寿１０６号室,,13,110,1530062,,,,,,,2023-09-13,1,,,,,ジーマ,0
42,1011001156911,新規,0,2023-09-13,2023-09-13,株式会社グロースピリット,,株式会社,東京都,渋谷区,道玄坂１丁目１６－６二葉ビル８Ｂ,,13,113,1500043,,,,,,,2023-09-13,1,,,,,グロースピリット,0
43,1011001156952,新規,0,2023-09-13,2023-09-13,株式会社ＣＯＣＩＡ,,株式会社,東京都,渋谷区,神宮前５丁目２０番１号モデリアブリュット表参道３０２号,,13,113,1500001,,,,,,,2023-09-13,1,,,,,コキア,0
45,1011003017500,新規,0,2023-09-13,2023-09-13,合同会社１ｔｏ３,,合同会社,東京都,渋谷区,道玄坂１丁目１０番８号渋谷道玄坂東急ビル２Ｆ－Ｃ,,13,113,1500043,,,,,,,2023-09-13,1,,,,,ワントゥスリー,0
46,1011003017517,新規,0,2023-09-13,2023-09-13,ＣＨＮ合同会社,,合同会社,東京都,渋谷区,代々木２丁目３７番１５－１１３号,,13,113,1510053,,,,,,,2023-09-13,1,,,,,シーエイチエヌ,0
49,1011103013449,新規,0,2023-09-13,2023-09-13,ＩＳｏｌａ合同会社,,合同会社,東京都,新宿区,西新宿３丁目３番１３号西新宿水間ビル２Ｆ,,13,104,1600023,,,,,,,2023-09-13,1,,,,,アイソラ,0
55,1011701026587,新規,0,2023-09-13,2023-09-13,アドサービス株式会社,,株式会社,東京都,江戸川区,松島４丁目４６番４号メゾンクレール１０１,,13,123,1320031,,,,,,,2023-09-13,1,,,,,アドサービス,0
63,1012801022625,新規,0,2023-09-13,2023-09-13,株式会社デリバリーサービス,,株式会社,東京都,立川市,羽衣町２丁目４４番２０号,,13,202,1900021,,,,,,,2023-09-13,1,,,,,デリバリーサービス,0
67,1013303006793,新規,0,2023-09-13,2023-09-13,合同会社ＯＳＤ,,合同会社,東京都,豊島区,池袋２丁目５６番１号トップ４０３号室,,13,116,1710014,,,,,,,2023-09-13,1,,,,,オーエスディ,0
74,1020001153109,新規,0,2023-09-13,2023-09-13,株式会社セカンドライフ,,株式会社,神奈川県,川崎市多摩区,菅６丁目４番－１２－２０３,,14,135,2140001,,,,,,,2023-09-13,1,,,,,セカンドライフ,0
75,1020001153471,新規,0,2023-09-13,2023-09-13,株式会社Ｋ‐ｔｒｕｓｔ,,株式会社,神奈川県,川崎市中原区,小杉町３丁目１３０１番地エクラスタワー武蔵小杉３００６,,14,133,2110063,,,,,,,2023-09-13,1,,,,,ケートラスト,0
76,1020001153488,新規,0,2023-09-13,2023-09-13,株式会社亮富,,株式会社,神奈川県,横浜市中区,本郷町３丁目１５３番地１６,,14,104,2310843,,,,,,,2023-09-13,1,,,,,アキト,0
80,1021001080111,新規,0,2023-09-13,2023-09-13,株式会社コ・トランスレーション,,株式会社,神奈川県,逗子市,沼間３丁目２３番３１号,,14,208,2490004,,,,,,,2023-09-13,1,,,,,コトランスレーション,0
81,1021001080202,新規,0,2023-09-13,2023-09-13,Ｂｌａｃｋ　Ｍａｍｂａ株式会社,,株式会社,神奈川県,相模原市南区,東林間３丁目１４番１９－１号,,14,153,2520311,,,,,,,2023-09-13,1,,,,,ブラックマンバ,0
99,1040001130048,新規,0,2023-09-13,2023-09-13,株式会社吉原メンテナンス,,株式会社,千葉県,市川市,南大野２丁目４番Ａ棟１１０５号,,12,203,2720804,,,,,,,2023-09-13,1,,,,,ヨシハラメンテナンス,0
100,1040001130089,新規,0,2023-09-13,2023-09-13,泰栄重機株式会社,,株式会社,千葉県,袖ケ浦市,川原井５９３,,12,229,2990201,,,,,,,2023-09-13,1,,,,,タイエイジュウキ,0
104,1040003023324,新規,0,2023-09-13,2023-09-13,ＳＡＮＤＡＬＩ　ＴＲＡＤＩＮＧ合同会社,,合同会社,千葉県,野田市,次木１５９番地リバーサイドコーポ相澤Ｂ－１０６,,12,208,2700228,,,,,,,2023-09-13,1,,,,,サンダリトレーディング,0
107,1050001053462,新規,0,2023-09-13,2023-09-13,株式会社工藤工業,,株式会社,茨城県,日立市,大みか町６丁目１２番４６号,,08,202,3191221,,,,,,,2023-09-13,1,,,,,クドウコウギョウ,0
112,1070001040830,新規,0,2023-09-13,2023-09-13,株式会社ウィンクル,,株式会社,群馬県,高崎市,白銀町９番地白銀ビル３階,,10,202,3700825,,,,,,,2023-09-13,1,,,,,ウィンクル,0
113,1070001040871,新規,0,2023-09-13,2023-09-13,株式会社喜市会,,株式会社,群馬県,邑楽郡千代田町,大字上中森５３７番地１,,10,523,3700725,,,,,,,2023-09-13,1,,,,,キイチカイ,0
120,1090001018321,新規,0,2023-09-13,2023-09-13,ＣＬＵＭ株式会社,,株式会社,山梨県,甲府市,中央２丁目９番２０号,,19,201,4000032,,,,,,,2023-09-13,1,,,,,クルム,0
121,1100001036767,新規,0,2023-09-13,2023-09-13,株式会社ｄｅｎ,,株式会社,長野県,松本市,井川城２丁目１６番１０－７号,,20,202,3900831,,,,,,,2023-09-13,1,,,,,デン,0
123,1110001037839,新規,0,2023-09-13,2023-09-13,株式会社ｂｅ,,株式会社,新潟県,新潟市中央区,下所島２丁目６番８号,,15,103,9500991,,,,,,,2023-09-13,1,,,,,ビー,0
127,1120001257857,新規,0,2023-09-13,2023-09-13,株式会社ローズエレメント,,株式会社,大阪府,大阪市北区,中津１丁目１１番１号,,27,127,5310071,,,,,,,2023-09-13,1,,,,,ローズエレメント,0
132,1120101068188,新規,0,2023-09-13,2023-09-13,明海コンサルティング株式会社,,株式会社,大阪府,岸和田市,小松里町１０６６番地の５,,27,202,5960821,,,,,,,2023-09-13,1,,,,,メイカイコンサルティング,0
133,1120101068196,新規,0,2023-09-13,2023-09-13,株式会社ＣＬＯＶＥＲ,,株式会社,大阪府,堺市東区,菩提町１丁２３０番地１,,27,143,5998103,,,,,,,2023-09-13,1,,,,,クローバー,0
150,1130001075242,新規,0,2023-09-13,2023-09-13,株式会社角右衛門,,株式会社,京都府,木津川市,相楽台９丁目１３番地１０,,26,214,6190223,,,,,,,2023-09-13,1,,,,,カクエモン,0
156,1140001131523,新規,0,2023-09-13,2023-09-13,株式会社フジデン,,株式会社,兵庫県,加古川市,平岡町土山４１４番地の２,,28,210,6750104,,,,,,,2023-09-13,1,,,,,フジデン,0
157,1140001131589,新規,0,2023-09-13,2023-09-13,株式会社ＫＭ,,株式会社,兵庫県,加古川市,平岡町土山６８７番地の５,,28,210,6750104,,,,,,,2023-09-13,1,,,,,ケーエム,0
169,1180003025736,新規,0,2023-09-13,2023-09-13,合同会社Ｓｅｃｒｅｔａｒｙ,,合同会社,愛知県,名古屋市東区,泉１丁目２０番２３号プレサンス桜通アベニュー２０６号,,23,102,4610001,,,,,,,2023-09-13,1,,,,,セクレタリー,0
177,1190001030729,新規,0,2023-09-13,2023-09-13,株式会社声臨,,株式会社,三重県,津市,牧町２６９番地４９,,24,201,5141123,,,,,,,2023-09-13,1,,,,,セイリン,0
179,1190003004433,新規,0,2023-09-13,2023-09-13,合同会社凪,,合同会社,三重県,熊野市,新鹿町１７５番地,,24,212,5194206,,,,,,,2023-09-13,1,,,,,ナギ,0
180,1190003004441,新規,0,2023-09-13,2023-09-13,合同会社小串デザイン企画,,合同会社,三重県,津市,半田２４００番地,,24,201,5140823,,,,,,,2023-09-13,1,,,,,オグシデザインキカク,0
183,1210001019463,新規,0,2023-09-13,2023-09-13,平林印刷株式会社,,株式会社,福井県,吉田郡永平寺町,松岡平成１５８番地,,18,322,9101144,,,,,,,2023-09-13,1,,,,,ヒラバヤシインサツ,0
186,1240003006309,新規,0,2023-09-13,2023-09-13,合同会社９１０,,合同会社,広島県,福山市,城興ケ丘３番２４号,,34,207,7210929,,,,,,,2023-09-13,1,,,,,キュウイチマル,0
187,1240005015646,新規,0,2023-09-13,2023-09-13,医療法人そらのデンタルクリニック,,その他の設立登記法人,広島県,広島市佐伯区,石内東１丁目４番２号,,34,108,7315162,,,,,,,2023-09-13,1,,,,,ソラノデンタルクリニック,0
188,1250005008855,新規,0,2023-09-13,2023-09-13,ＮＰＯ法人山口インドネシア協会,,その他の設立登記法人,山口県,宇部市,大小路３丁目８－３６,,35,202,7550076,,,,,,,2023-09-13,1,,,,,ヤマグチインドネシアキョウカイ,0
191,1260003004426,新規,0,2023-09-13,2023-09-13,合同会社みやび屋,,合同会社,岡山県,岡山市北区,津島本町１番１６－５号,,33,101,7000089,,,,,,,2023-09-13,1,,,,,ミヤビヤ,0
195,1290001103004,新規,0,2023-09-13,2023-09-13,サタマ株式会社,,株式会社,福岡県,福岡市中央区,渡辺通５丁目１４番１２号南天神ビル３階,,40,133,8100004,,,,,,,2023-09-13,1,,,,,サタマ,0
204,1330001031258,新規,0,2023-09-13,2023-09-13,株式会社スマイルデンタルサポート,,株式会社,熊本県,熊本市西区,池田１丁目６番４号,,43,103,8600082,,,,,,,2023-09-13,1,,,,,スマイルデンタルサポート,0
206,1340003004252,新規,0,2023-09-13,2023-09-13,合同会社ｍｏｒｅ　ｆｕｎ,,合同会社,鹿児島県,鹿児島市,原良２丁目１２番１号クロスロード城西２０３号,,46,201,8900026,,,,,,,2023-09-13,1,,,,,モアーファン,0
210,1360001032550,新規,0,2023-09-13,2023-09-13,株式会社Ｏｎｅ　Ｌｉｆｅ　Ｐｌｕｓ,,株式会社,沖縄県,宜野湾市,普天間１丁目１７番５号,,47,205,9012202,,,,,,,2023-09-13,1,,,,,ワンライフプラス,0
212,1370001050403,新規,0,2023-09-13,2023-09-13,株式会社エス・ティエフ,,株式会社,宮城県,登米市,豊里町久寿田１２８番地,,04,212,9870351,,,,,,,2023-09-13,1,,,,,エスティエフ,0
213,1370001050411,新規,0,2023-09-13,2023-09-13,株式会社グラーティア,,株式会社,宮城県,仙台市青葉区,錦町１丁目８－２８ルアーナエールレジデンス錦町５０２,,04,101,9800012,,,,,,,2023-09-13,1,,,,,グラーティア,0
217,1380001033976,新規,0,2023-09-13,2023-09-13,株式会社Ｋ‐ＧＲＯＷＴＨ,,株式会社,福島県,会津若松市,大町１丁目７番１２号キャッスルマンション会津若松９０７,,07,202,9650042,,,,,,,2023-09-13,1,,,,,ケーグロース,0
218,1380001033984,新規,0,2023-09-13,2023-09-13,株式会社Ｎａｔ　Ｂａｓｅ,,株式会社,福島県,郡山市,片平町字下舘２０番地の１３,,07,203,9630211,,,,,,,2023-09-13,1,,,,,ナットベース,0
220,1410001013594,新規,0,2023-09-13,2023-09-13,キカワペイントサービス株式会社,,株式会社,秋田県,大仙市,戸地谷字川前２３３番地２２,,05,212,0140801,,,,,,,2023-09-13,1,,,,,キカワペイントサービス,0
228,1430001089955,新規,0,2023-09-13,2023-09-13,株式会社ｆａｕｌｔ,,株式会社,北海道,札幌市白石区,東札幌二条６丁目４番１５号東札幌藤井ビル,,01,104,0030002,,,,,,,2023-09-13,1,,,,,フォルト,0
229,1430001089963,新規,0,2023-09-13,2023-09-13,ＨＳ　ＴＲＡＤＩＮＧ株式会社,,株式会社,北海道,石狩市,新港中央２丁目７５６番地２０,,01,235,0613242,,,,,,,2023-09-13,1,,,,,エイチエストレーディング,0
230,1430001089971,新規,0,2023-09-13,2023-09-13,株式会社ヒューマンイノベーションラボ,,株式会社,北海道,札幌市中央区,北二条西２丁目３２,,01,101,0600002,,,,,,,2023-09-13,1,,,,,ヒューマンイノベーションラボ,0
236,1700150120195,新規,0,2023-09-13,2023-09-13,ｄｏｎｇｇｕａｎｓｈｉｔａｏｈｕｉｍａｏｙｉ　ｙｏｕｘｉａｎｇｏｎｇｓｉ,,外国会社等,,,,,,,,Ｒｏｏｍ３０１，Ｂｕｉｌｄｉｎｇ２，Ｎｏ．３７，ＭｕｌｕｎＣｈｕａｎｇｙｅ１ｓｔＲｏａｄ，ＣｈａｎｇｐｉｎｇＴｏｗｎ，ＤｏｎｇｇｕａｎＣｉｔｙ，Ｇｕａｎｇｄｏｎｇ　５２３０００　ＣＮ,,,,,,2023-09-13,1,,,,,トウカンシタオホウイマオイユヨウシェンゴンスー,0
237,1700150120204,新規,0,2023-09-13,2023-09-13,ＨｅＦｅｉ　ＳｏｕＭｉｎｇ　Ｅ－Ｃｏｍｍｅｒｃｅ　Ｃｏ．，Ｌｔｄ．,,外国会社等,,,,,,,,Ｓｈｕｓｈａｎ　Ｄｉｓｔｒｉｃｔ，Ｓａｎｌｉａｎ　Ｓｔｒｅｅｔ，Ｃｈａｎｇｊｉａｎｇｘｉ　Ｒｏａｄ　ＮＯ．１８９，ＺｈｉＸｉｎＣｈｅｎｇ　Ｂ　Ｂｕｉｌｄｉｎｇ　１９０３－１，Ｈｅｆｅｉ　Ｃｉｔｙ，Ａｎｈｕｉ　Ｐｒｏｖｉｎｃｅ,,,,,,2023-09-13,1,,,,,ゴウヒソウメイデンシショウムユウゲンセキニンコウシ,0
243,2010001238396,新規,0,2023-09-13,2023-09-13,ハングリィジョーズホットチキンジャパン株式会社,,株式会社,東京都,中央区,銀座６丁目１０－１ＧＩＮＺＡ・ＳＩＸ１３階,,13,102,1040061,,,,,,,2023-09-13,1,,,,,ハングリィジョーズホットチキンジャパン,0
244,2010001238462,新規,0,2023-09-13,2023-09-13,コーナン産業株式会社,,株式会社,東京都,中央区,東日本橋３丁目３番８号,,13,102,1030004,,,,,,,2023-09-13,1,,,,,コーナンサンギョウ,0
251,2010003041609,新規,0,2023-09-13,2023-09-13,クラシック・テクノロジーズ合同会社,,合同会社,東京都,千代田区,丸の内２丁目１番１号明治安田生命ビル２１階,,13,101,1000005,,,,,,,2023-09-13,1,,,,,クラシックテクノロジーズ,0
252,2010003041658,新規,0,2023-09-13,2023-09-13,表参道合同会社,,合同会社,東京都,千代田区,神田小川町３丁目２６番８号神田小川町三丁目ビル６階,,13,101,1010052,,,,,,,2023-09-13,1,,,,,オモテサンドウ,0
255,2010005037266,新規,0,2023-09-13,2023-09-13,Ｕｒａｓｈｉｍａ特定目的会社,,その他の設立登記法人,東京都,千代田区,丸の内３丁目１番１号東京共同会計事務所内,,13,101,1000005,,,,,,,2023-09-13,1,,,,,ウラシマ,0
263,2010401177112,新規,0,2023-09-13,2023-09-13,株式会社富士エーアイプレシジョン,,株式会社,東京都,港区,西新橋１丁目２番９号日比谷セントラルビル１４階,,13,103,1050003,,,,,,,2023-09-13,1,,,,,フジエーアイプレシジョン,0
264,2010401177129,新規,0,2023-09-13,2023-09-13,株式会社脳トレ総合研究所,,株式会社,東京都,港区,芝浦４丁目１２番３１号ＶＯＲＴ芝浦ＷａｔｅｒＦｒｏｎｔ４階,,13,103,1080023,,,,,,,2023-09-13,1,,,,,ノウトレソウゴウケンキュウジョ,0
265,2010401177161,新規,0,2023-09-13,2023-09-13,株式会社エアリー・ミュージック,,株式会社,東京都,港区,芝大門２丁目１２番６号ボーン芝パーク７０３,,13,103,1050012,,,,,,,2023-09-13,1,,,,,エアリーミュージック,0
273,2010601063772,新規,0,2023-09-13,2023-09-13,株式会社八光,,株式会社,東京都,墨田区,八広４丁目１０番７号,,13,107,1310041,,,,,,,2023-09-13,1,,,,,ハッコウ,0
277,2010605004244,新規,0,2023-09-13,2023-09-13,医療法人社団七和会,,その他の設立登記法人,東京都,江東区,富岡１丁目２５番５号サンピア門前仲町ビル３階,,13,108,1350047,,,,,,,2023-09-13,1,,,,,ナナワカイ,0
282,2010803004673,新規,0,2023-09-13,2023-09-13,ＲＳＴＡＲＳ合同会社,,合同会社,東京都,大田区,上池台４丁目２１番２９－２０１号,,13,111,1450064,,,,,,,2023-09-13,1,,,,,アールスターズ,0
290,2011001156885,新規,0,2023-09-13,2023-09-13,株式会社ＢｅＢｏｒｎ　ｅｎｔｅｒｔａｉｎｍｅｎｔ,,株式会社,東京都,目黒区,中町２丁目３７番２５－２０２号,,13,110,1530065,,,,,,,2023-09-13,1,,,,,ビーボーンエンターテインメント,0
294,2011003017508,新規,0,2023-09-13,2023-09-13,マルコー合同会社,,合同会社,東京都,渋谷区,恵比寿４丁目１６－６－１１４,,13,113,1500013,,,,,,,2023-09-13,1,,,,,マルコー,0
300,2011101104348,新規,0,2023-09-13,2023-09-13,株式会社ＢＵＲＩＺＵＭＵ,,株式会社,東京都,新宿区,西新宿７丁目５番８号ＧＯＷＡ西新宿ビル２Ｆ,,13,104,1600023,,,,,,,2023-09-13,1,,,,,ブリズム,0
301,2011101104364,新規,0,2023-09-13,2023-09-13,株式会社日本ＦＰ不動産,,株式会社,東京都,新宿区,下落合２丁目１－８三栄ビル３０２号室,,13,104,1610033,,,,,,,2023-09-13,1,,,,,ニホンエフピーフドウサン,0
302,2011201024909,新規,0,2023-09-13,2023-09-13,株式会社明邦ハウス,,株式会社,東京都,中野区,野方４丁目４１番２５号,,13,114,1650027,,,,,,,2023-09-13,1,,,,,メイホウハウス,0
306,2011301028999,新規,0,2023-09-13,2023-09-13,株式会社ナパオフィスＵＳ,,株式会社,東京都,杉並区,浜田山４丁目２７番４号,,13,115,1680065,,,,,,,2023-09-13,1,,,,,ナパオフィスユウエス,0
307,2011401025450,新規,0,2023-09-13,2023-09-13,株式会社世戸,,株式会社,東京都,板橋区,大和町４０番６号,,13,119,1730012,,,,,,,2023-09-13,1,,,,,セト,0
313,2011803005827,新規,0,2023-09-13,2023-09-13,ＳＸ　Ｄｅｓｉｇｎ合同会社,,合同会社,東京都,葛飾区,柴又１丁目３２番１号ストークハイツ川合２０１号,,13,122,1250052,,,,,,,2023-09-13,1,,,,,エスエックスデザイン,0
314,2012403006174,新規,0,2023-09-13,2023-09-13,Ｆａｎｔａｓｙ　Ｅｘｐｒｅｓｓ　Ｇｌｏｂａｌ合同会社,,合同会社,東京都,狛江市,岩戸南１丁目６番２３－２０３号,,13,219,2010005,,,,,,,2023-09-13,1,,,,,ファンタジーエクスプレスグローバル,0
321,2013301051329,新規,0,2023-09-13,2023-09-13,株式会社ラーゴム・エーベスト,,株式会社,東京都,豊島区,駒込１丁目１６番８号渡辺ビル４０２号,,13,116,1700003,,,,,,,2023-09-13,1,,,,,ラーゴムエーベスト,0
322,2013301051337,新規,0,2023-09-13,2023-09-13,株式会社ビギニング,,株式会社,東京都,豊島区,池袋３丁目３４番７号ビジネスパーク池袋２階,,13,116,1710014,,,,,,,2023-09-13,1,,,,,ビギニング,0
325,2020001153454,新規,0,2023-09-13,2023-09-13,株式会社パティオム,,株式会社,神奈川県,横浜市都筑区,茅ケ崎東３丁目１７－３５港北ニュータウンパレス１０４号室,,14,118,2240033,,,,,,,2023-09-13,1,,,,,パティオム,0
328,2020003024570,新規,0,2023-09-13,2023-09-13,ベグライトサービス合同会社,,合同会社,神奈川県,横浜市港南区,上大岡東２丁目４３番１３号,,14,111,2330001,,,,,,,2023-09-13,1,,,,,ベグライトサービス,0
330,2021001080151,新規,0,2023-09-13,2023-09-13,株式会社ＰＲＩＭＥ　ＣＡＲ　ＴＲＡＤＥ,,株式会社,神奈川県,藤沢市,亀井野８６０番地ハイツユニバースＢ１０５号室,,14,205,2520813,,,,,,,2023-09-13,1,,,,,プライムカートレード,0
331,2021001080168,新規,0,2023-09-13,2023-09-13,ｕｎｆｏｌｄ　ｖｉｓｉｏｎ株式会社,,株式会社,神奈川県,相模原市緑区,中野１３０２番地２・Ｃ号室,,14,151,2520157,,,,,,,2023-09-13,1,,,,,アンフォールドビジョン,0
342,2030001155953,新規,0,2023-09-13,2023-09-13,福隆株式会社,,株式会社,埼玉県,本庄市,千代田２丁目３番３５号シティハイツ福島ＩＩＩ１０１号室,00131905,11,211,3670054,,,,,,,2023-09-13,1,,,,,フクリュウ,0
355,2040001130055,新規,0,2023-09-13,2023-09-13,株式会社明正ホールディングス,,株式会社,千葉県,印西市,草深１４２１番地９３,,12,231,2701337,,,,,,,2023-09-13,1,,,,,メイセイホールディングス,0
359,2040003023240,新規,0,2023-09-13,2023-09-13,合同会社ラビット,,合同会社,千葉県,船橋市,本町１丁目３２番２６号,,12,204,2730005,,,,,,,2023-09-13,1,,,,,ラビット,0
364,2050001053420,新規,0,2023-09-13,2023-09-13,株式会社フレンズ,,株式会社,茨城県,守谷市,百合ケ丘１丁目２３５４番地の１６５,,08,224,3020110,,,,,,,2023-09-13,1,,,,,フレンズ,0
365,2050001053478,新規,0,2023-09-13,2023-09-13,株式会社与四兵衛,,株式会社,茨城県,稲敷郡阿見町,中央８丁目１番１号,,08,443,3000332,,,,,,,2023-09-13,1,,,,,ヨシベイ,0
370,2060001036333,新規,0,2023-09-13,2023-09-13,株式会社中村建装,,株式会社,栃木県,足利市,大沼田町８９４番地２,,09,202,3260011,,,,,,,2023-09-13,1,,,,,ナカムラケンソウ,0
378,2090001018312,新規,0,2023-09-13,2023-09-13,株式会社イマイ,,株式会社,山梨県,甲府市,若松町５番５号,,19,201,4000866,,,,,,,2023-09-13,1,,,,,イマイ,0
379,2100003007179,新規,0,2023-09-13,2023-09-13,合同会社ＡＮＴ,,合同会社,長野県,上田市,上田原１３４９番地１,,20,203,3861102,,,,,,,2023-09-13,1,,,,,アント,0
380,2110001037763,新規,0,2023-09-13,2023-09-13,株式会社ｗｅｅｋｅｎｄ　Ｉ,,株式会社,新潟県,新潟市中央区,寄居町３４３番地２ヨリーナフロー５０２号,,15,103,9518113,,,,,,,2023-09-13,1,,,,,ウィークエンドアイ,0
390,2120101068187,新規,0,2023-09-13,2023-09-13,九洋洲Ｊｏｙｃｈｏｕ株式会社,,株式会社,大阪府,和泉市,池上町４丁目９番４号,,27,219,5940083,,,,,,,2023-09-13,1,,,,,キュウヨウシュウジョイチョウ,0
391,2120103005436,新規,0,2023-09-13,2023-09-13,合同会社Ｋｎｏｃｃｓ,,合同会社,大阪府,松原市,天美東１丁目８番２５号,,27,217,5800032,,,,,,,2023-09-13,1,,,,,ノックス,0
395,2120903004827,新規,0,2023-09-13,2023-09-13,合同会社あのね,,合同会社,大阪府,茨木市,新中条町８番１９－１０４号,,27,211,5670872,,,,,,,2023-09-13,1,,,,,アノネ,0
402,2130001075142,新規,0,2023-09-13,2023-09-13,メディカルパートナーズ株式会社,,株式会社,京都府,京都市下京区,中堂寺坊城町２番地ＢＥＡＵＴＹ・ＢＵＩＬＤＩＮＧ・ＴＡＭＢＡＧＵＣＨＩ・１－Ａ,,26,106,6008811,,,,,,,2023-09-13,1,,,,,メディカルパートナーズ,0
411,2140001131588,新規,0,2023-09-13,2023-09-13,株式会社ＡＯＩ　ＭＯＲＩ　ＣＯＭＰＡＮＹ,,株式会社,兵庫県,小野市,中町２２４番地の３,,28,218,6751332,,,,,,,2023-09-13,1,,,,,アオイモリカンパニー,0
412,2140001131596,新規,0,2023-09-13,2023-09-13,Ｇｏｏｏｄ株式会社,,株式会社,兵庫県,神戸市中央区,磯辺通１丁目１番１８号カサベラ国際プラザビル７０７号室,,28,110,6510084,,,,,,,2023-09-13,1,,,,,グード,0
415,2140003019542,新規,0,2023-09-13,2023-09-13,ジョーテック合同会社,,合同会社,兵庫県,神戸市須磨区,高倉台６丁目１７番１号,,28,107,6540081,,,,,,,2023-09-13,1,,,,,ジョーテック,0
420,2160003002991,新規,0,2023-09-13,2023-09-13,合同会社愛和マネジメント,,合同会社,滋賀県,大津市,唐崎３丁目２０番２０号,,25,201,5200106,,,,,,,2023-09-13,1,,,,,アイワマネジメント,0
421,2160005011223,新規,0,2023-09-13,2023-09-13,一般社団法人国際サポートプロジェクト,,その他の設立登記法人,滋賀県,草津市,平井５丁目１０番２０－２０９号,,25,206,5250023,,,,,,,2023-09-13,1,,,,,コクサイサポートプロジェクト,0
429,2180001157992,新規,0,2023-09-13,2023-09-13,株式会社Ｖａｒｉａｒ,,株式会社,愛知県,名古屋市中村区,名楽町１丁目２３番地の３１,,23,105,4530024,,,,,,,2023-09-13,1,,,,,ヴァリアール,0
433,2180005020346,新規,0,2023-09-13,2023-09-13,特定非営利活動法人覚明福祉会,,その他の設立登記法人,愛知県,名古屋市北区,柳原１丁目１番５号,,23,103,4620845,,,,,,,2023-09-13,1,,,,,カクメイフクシカイ,0
434,2180303005833,新規,0,2023-09-13,2023-09-13,補永通商合同会社,,合同会社,愛知県,豊橋市,新栄町字南小向１２４番地Ａ１０１,,23,201,4418016,,,,,,,2023-09-13,1,,,,,ホナガツウショウ,0
436,2190003004440,新規,0,2023-09-13,2023-09-13,合同会社ファンタジア,,合同会社,三重県,津市,芸濃町椋本４３８９番地１１,,24,201,5142211,,,,,,,2023-09-13,1,,,,,ファンタジア,0
440,2230005009334,新規,0,2023-09-13,2023-09-13,一般社団法人里山広場,,その他の設立登記法人,富山県,富山市,下伏４７６番地２,,16,201,9392235,,,,,,,2023-09-13,1,,,,,サトヤマヒロバ,0
443,2240001062105,新規,0,2023-09-13,2023-09-13,株式会社メディニック,,株式会社,広島県,広島市中区,吉島西２丁目１３番３４号,,34,101,7300823,,,,,,,2023-09-13,1,,,,,メディニック,0
444,2240001062113,新規,0,2023-09-13,2023-09-13,株式会社エムズテック,,株式会社,広島県,三原市,深町９２３番地１,,34,204,7230001,,,,,,,2023-09-13,1,,,,,エムズテック,0
445,2240003006308,新規,0,2023-09-13,2023-09-13,はぶ庵合同会社,,合同会社,広島県,広島市中区,十日市町２丁目１－２５－５０１,,34,101,7300805,,,,,,,2023-09-13,1,,,,,ハブアン,0
446,2240005015645,新規,0,2023-09-13,2023-09-13,医療法人貴佐会,,その他の設立登記法人,広島県,広島市東区,牛田新町３丁目５番６号,,34,102,7320068,,,,,,,2023-09-13,1,,,,,キサカイ,0
459,2290001103036,新規,0,2023-09-13,2023-09-13,株式会社ライカード,,株式会社,福岡県,福岡市中央区,渡辺通２丁目２番１号５階,,40,133,8100004,,,,,,,2023-09-13,1,,,,,ライカード,0
476,2340001025893,新規,0,2023-09-13,2023-09-13,鹿児島小水力株式会社,,株式会社,鹿児島県,鹿児島市,西千石町１１番２１号,,46,201,8920847,,,,,,,2023-09-13,1,,,,,カゴシマショウスイリョク,0
479,2360001032541,新規,0,2023-09-13,2023-09-13,ＫＵＵ　Ｍａｎａｇｅｍｅｎｔ株式会社,,株式会社,沖縄県,中頭郡北谷町,伊平１丁目２番３１号,,47,326,9040102,,,,,,,2023-09-13,1,,,,,クーマネージメント,0
484,2380001033975,新規,0,2023-09-13,2023-09-13,株式会社誠和システム,,株式会社,福島県,いわき市,勿来町白米林ノ中３０番地の９６,,07,204,9790143,,,,,,,2023-09-13,1,,,,,セイワシステム,0
485,2380001033983,新規,0,2023-09-13,2023-09-13,株式会社ヴァリオスセンター海,,株式会社,福島県,いわき市,好間工業団地２２番地の２の２・２Ｆ,,07,204,9701144,,,,,,,2023-09-13,1,,,,,ヴァリオスセンターカイ,0
488,2380003005568,新規,0,2023-09-13,2023-09-13,シーアンドアイ合同会社,,合同会社,福島県,郡山市,安積荒井本町３４２番地,,07,203,9630116,,,,,,,2023-09-13,1,,,,,シーアンドアイ,0
496,2430001089962,新規,0,2023-09-13,2023-09-13,Ｃａｒａｍｅｌ株式会社,,株式会社,北海道,虻田郡倶知安町,ニセコひらふ一条３丁目４番１７号１Ｆ,,01,400,0440080,,,,,,,2023-09-13,1,,,,,キャラメル,0
497,2430001089979,新規,0,2023-09-13,2023-09-13,オーロラ水産株式会社,,株式会社,北海道,小樽市,銭函３丁目５１４番地１１,,01,203,0470261,,,,,,,2023-09-13,1,,,,,オーロラスイサン,0
504,2490001010591,新規,0,2023-09-13,2023-09-13,株式会社ＣＩＲＣＬＥ８,,株式会社,高知県,高知市,はりまや町２丁目３－３一やはりまやビル３階,,39,201,7800822,,,,,,,2023-09-13,1,,,,,サークルエイト,0
507,2700150120194,新規,0,2023-09-13,2023-09-13,ｇｕａｎｇｚｈｏｕｓｈｉｋａｉｓｅｎｋｅｊｉｙｏｕｘｉａｎｇｏｎｇｓｉ,,外国会社等,,,,,,,,Ｒｏｏｍ　２０８，Ｂｕｉｌｄｉｎｇ　Ａ，Ｎｏ．３，Ｅｒｈｅｎｇ　Ｒｏａｄ，Ｓｈｉｊｉｎｇ　Ｉｎｄｕｓｔｒｉａｌ　Ｚｏｎｅ，Ｓｈｉｍｅｎ　Ｒｏａｄ，Ｓｈｉｍｅｎ　Ｓｔｒｅｅｔ，Ｂａｉｙｕｎ　Ｄｉｓｔｒｉｃｔ，Ｇｕａｎｇｚｈｏｕ,,,,,,2023-09-13,1,,,,,コウシュウシガイシンカギユウゲンコウシ,0
508,2700150120203,新規,0,2023-09-13,2023-09-13,ｓｈｅｎｚｈｅｎｓｈｉｊｉａｂｉｂｅｉｗｅｉｙｕｊｉｅｊｕｋａｉｆａ　ｙｏｕｘｉａｎｇｏｎｇｓｉ,,外国会社等,,,,,,,,ｌｕｏｈｕｑｕｓｈｕｎｇａｎｇｊｉｅｄａｏｔｉａｎｂｅｉｓｈｅｑｕｗｅｎｊｉｎｇｂｅｉｌｕ１１５５ｈａｏ　ｍｅｉｊｉｎｇｈｕａｙｕａｎｄａｓｈａｎａｎｚｕｏ１３Ｇ　ｓｈｅｎｚｈｅｎ　５１８０２０　ＣＮ,,,,,,2023-09-13,1,,,,,シンセンシジャビベイウェイユジエジュカイハツヨウシェンゴンスー,0
516,3010001238420,新規,0,2023-09-13,2023-09-13,株式会社ＭｉｒａｋｕＬ,,株式会社,東京都,中央区,晴海２丁目２番４２－３７１８号,,13,102,1040053,,,,,,,2023-09-13,1,,,,,ミラクル,0
517,3010001238478,新規,0,2023-09-13,2023-09-13,ジェイ・キャピタル・パートナーズ株式会社,,株式会社,東京都,千代田区,大手町１丁目７番２号,,13,101,1000004,,,,,,,2023-09-13,1,,,,,ジェイキャピタルパートナーズ,0
518,3010001238494,新規,0,2023-09-13,2023-09-13,株式会社メタソリューション,,株式会社,東京都,中央区,銀座６丁目１３番１６号銀座ＷａｌｌビルＵＣＦ５０１,,13,102,1040061,,,,,,,2023-09-13,1,,,,,メタソリューション,0
521,3010003041624,新規,0,2023-09-13,2023-09-13,ＪＭＭソーラー合同会社,,合同会社,東京都,千代田区,丸の内３丁目１番１号東京共同会計事務所内,,13,101,1000005,,,,,,,2023-09-13,1,,,,,ジェイエムエムソーラー,0
522,3010003041657,新規,0,2023-09-13,2023-09-13,エイト・リンクス合同会社,,合同会社,東京都,文京区,春日２丁目２２番５号,,13,105,1120003,,,,,,,2023-09-13,1,,,,,エイトリンクス,0
525,3010401177128,新規,0,2023-09-13,2023-09-13,神原Ａｒｔ株式会社,,株式会社,東京都,港区,赤坂８丁目１２番４８号,,13,103,1070052,,,,,,,2023-09-13,1,,,,,カンバラアート,0
526,3010401177160,新規,0,2023-09-13,2023-09-13,ラピスラズリ株式会社,,株式会社,東京都,港区,三田４丁目１７番２５‐５０２号,,13,103,1080073,,,,,,,2023-09-13,1,,,,,ラピスラズリ,0
528,3010403030887,新規,0,2023-09-13,2023-09-13,合同会社ａｕｒａ,,合同会社,東京都,港区,芝２丁目３－１２ｃｉｔｙｓｐｉｒｅ芝公園６０４号,,13,103,1050014,,,,,,,2023-09-13,1,,,,,アウラ,0
529,3010403030904,新規,0,2023-09-13,2023-09-13,Ａｒｃ　Ｓｔａｇｅ合同会社,,合同会社,東京都,港区,麻布十番２丁目２０番７号麻布十番高木ビル１Ｆ,,13,103,1060045,,,,,,,2023-09-13,1,,,,,アークステージ,0
530,3010403030912,新規,0,2023-09-13,2023-09-13,ＳＡＴＯ　Ｐｒｉｖａｔｅ合同会社,,合同会社,東京都,港区,北青山１丁目３番１号アールキューブ青山３階,,13,103,1070061,,,,,,,2023-09-13,1,,,,,サトウプライベート,0
534,3010601063763,新規,0,2023-09-13,2023-09-13,株式会社Ｂｉｇ　Ｔｈｉｃｋ,,株式会社,東京都,江東区,豊洲３丁目４番１－４５１２号,,13,108,1350061,,,,,,,2023-09-13,1,,,,,ビッグスィック,0
535,3010605004243,新規,0,2023-09-13,2023-09-13,医療法人社団はぐくみ,,その他の設立登記法人,東京都,江東区,東陽４丁目１０番８号杉船ビル東陽町６階,,13,108,1350016,,,,,,,2023-09-13,1,,,,,ハグクミ,0
540,3010803004672,新規,0,2023-09-13,2023-09-13,リードアウトソリューション合同会社,,合同会社,東京都,大田区,鵜の木２丁目１１番８号,,13,111,1460091,,,,,,,2023-09-13,1,,,,,リードアウトソリューション,0
542,3010901053778,新規,0,2023-09-13,2023-09-13,株式会社ルータスワークス,,株式会社,東京都,世田谷区,代沢４丁目４０番１０号－Ｅ,,13,112,1550032,,,,,,,2023-09-13,1,,,,,ルータスワークス,0
543,3010901053836,新規,0,2023-09-13,2023-09-13,株式会社Ａｌｉｅｎ,,株式会社,東京都,世田谷区,玉川４丁目２１番１号ＢＯＮＨＥＵＲ二子玉川１０３,,13,112,1580094,,,,,,,2023-09-13,1,,,,,エイリアン,0
547,3011001156851,新規,0,2023-09-13,2023-09-13,株式会社ノラノニジ,,株式会社,東京都,目黒区,祐天寺２丁目１３番４号ＰｏｉｎｔｌｉｎｅＹｕｔｅｎｊｉ４０４,,13,110,1530052,,,,,,,2023-09-13,1,,,,,ノラノニジ,0
548,3011001156901,新規,0,2023-09-13,2023-09-13,株式会社Ｅｌｐｉｓ　Ｏｎｅ,,株式会社,東京都,渋谷区,神泉町１０番１５号アネックス神泉３０１,,13,113,1500045,,,,,,,2023-09-13,1,,,,,エルピスワン,0
549,3011001156934,新規,0,2023-09-13,2023-09-13,株式会社アクセス,,株式会社,東京都,渋谷区,渋谷３丁目７番６号５階,,13,113,1500002,,,,,,,2023-09-13,1,,,,,アクセス,0
557,3011101104330,新規,0,2023-09-13,2023-09-13,株式会社日本インプローブ,,株式会社,東京都,新宿区,上落合３丁目８番２５－４０１号,,13,104,1610034,,,,,,,2023-09-13,1,,,,,ニホンインプローブ,0
558,3011101104347,新規,0,2023-09-13,2023-09-13,株式会社みそこうじ,,株式会社,東京都,新宿区,新宿１丁目２４番１２号ＴＨＥＧＡＴＥ新宿御苑３Ｆ,,13,104,1600022,,,,,,,2023-09-13,1,,,,,ミソコウジ,0
559,3011201024908,新規,0,2023-09-13,2023-09-13,オフィスキッチン株式会社,,株式会社,東京都,中野区,本町３丁目３０番１４号２Ｆ,,13,114,1640012,,,,,,,2023-09-13,1,,,,,オフィスキッチン,0
560,3011203004172,新規,0,2023-09-13,2023-09-13,合同会社エスエムティー,,合同会社,東京都,中野区,新井４丁目１７番７号,,13,114,1650026,,,,,,,2023-09-13,1,,,,,エスエムティー,0
565,3011603004053,新規,0,2023-09-13,2023-09-13,合同会社きなこ,,合同会社,東京都,練馬区,西大泉６丁目１２番３号,,13,120,1780065,,,,,,,2023-09-13,1,,,,,キナコ,0
570,3011801043035,新規,0,2023-09-13,2023-09-13,株式会社東盛,,株式会社,東京都,足立区,綾瀬１丁目３４番４号,,13,121,1200005,,,,,,,2023-09-13,1,,,,,トウセイ,0
573,3012701017839,新規,0,2023-09-13,2023-09-13,アリエルホーム株式会社,,株式会社,東京都,西東京市,向台町３丁目１番３８号,,13,229,1880013,,,,,,,2023-09-13,1,,,,,アリエルホーム,0
575,3012801022623,新規,0,2023-09-13,2023-09-13,株式会社コネクト,,株式会社,東京都,日野市,多摩平６丁目４３番地の３,,13,212,1910062,,,,,,,2023-09-13,1,,,,,コネクト,0
576,3012803003183,新規,0,2023-09-13,2023-09-13,合同会社ＫＭ,,合同会社,東京都,立川市,曙町２丁目２１番１０号ニュー立川ビル３０２,,13,202,1900012,,,,,,,2023-09-13,1,,,,,ケイエム,0
579,3013301051336,新規,0,2023-09-13,2023-09-13,株式会社センチネル・スペース・アライアンス,,株式会社,東京都,豊島区,巣鴨３丁目２３番９号,,13,116,1700002,,,,,,,2023-09-13,1,,,,,センチネルスペースアライアンス,0
587,3020001153461,新規,0,2023-09-13,2023-09-13,株式会社ｎｅｏテック,,株式会社,神奈川県,横浜市泉区,上飯田町１０３５番地エクセレント横浜いずみ中央１０７,,14,116,2450018,,,,,,,2023-09-13,1,,,,,ネオテック,0
588,3020001153478,新規,0,2023-09-13,2023-09-13,セレスト株式会社,,株式会社,神奈川県,横浜市瀬谷区,三ツ境８７番地３４クールヴェールＢ－２０３,,14,114,2460022,,,,,,,2023-09-13,1,,,,,セレスト,0
591,3020003024586,新規,0,2023-09-13,2023-09-13,オフィスぐぅ合同会社,,合同会社,神奈川県,横浜市中区,山下町２９山下公園ハイツ５０９,,14,104,2310023,,,,,,,2023-09-13,1,,,,,オフィスグゥ,0
592,3021001080134,新規,0,2023-09-13,2023-09-13,株式会社Ｃｏｃｏ建装,,株式会社,神奈川県,相模原市中央区,光が丘３丁目２２番１５号,,14,152,2520227,,,,,,,2023-09-13,1,,,,,ココケンソウ,0
605,3040001130054,新規,0,2023-09-13,2023-09-13,株式会社白洋ホールディングス,,株式会社,千葉県,千葉市中央区,中央２丁目９番１号アプレ千葉センターコート１１０２号,,12,101,2600013,,,,,,,2023-09-13,1,,,,,ハクヨウホールディングス,0
608,3040003023272,新規,0,2023-09-13,2023-09-13,ＬＡＨＩＲＵ　ＴＲＡＤＥＲＳ合同会社,,合同会社,千葉県,市川市,幸１丁目２３番９号（メゾンウイング３０２号室）,,12,203,2720123,,,,,,,2023-09-13,1,,,,,ラヒルトレーダーズ,0
612,3050005013329,新規,0,2023-09-13,2023-09-13,医療法人晴仁会,,その他の設立登記法人,茨城県,つくばみらい市,富士見ヶ丘１丁目８番地１,,08,235,3002417,,,,,,,2023-09-13,1,,,,,セイジンカイ,0
620,3060001036332,新規,0,2023-09-13,2023-09-13,エコグリーンランド株式会社,,株式会社,栃木県,塩谷郡塩谷町,大字熊ノ木１１８９番地４３,,09,384,3292213,,,,,,,2023-09-13,1,,,,,エコグリーンランド,0
621,3070001040861,新規,0,2023-09-13,2023-09-13,株式会社相馬電設,,株式会社,群馬県,太田市,由良町１５８６番地３グリナージュ１０８号,,10,205,3730036,,,,,,,2023-09-13,1,,,,,ソウマデンセツ,0
626,3100001036773,新規,0,2023-09-13,2023-09-13,株式会社トゥモロー,,株式会社,長野県,長野市,大字栗田２１２５番地長栄長野東口ビル１階・２階,,20,201,3800921,,,,,,,2023-09-13,1,,,,,トゥモロー,0
629,3110001037837,新規,0,2023-09-13,2023-09-13,株式会社ころころ,,株式会社,新潟県,長岡市,大手通２丁目２番地６号,,15,202,9400062,,,,,,,2023-09-13,1,,,,,コロコロ,0
631,3110005016993,新規,0,2023-09-13,2023-09-13,一般社団法人国造りむすび,,その他の設立登記法人,新潟県,三条市,帯織８７６１番地４,,15,204,9591117,,,,,,,2023-09-13,1,,,,,クニツクリムスビ,0
639,3120001257962,新規,0,2023-09-13,2023-09-13,ユーキ不動産管理株式会社,,株式会社,大阪府,大阪市東成区,中本３丁目１５番３３号グリーンブリッジＡ２０３,,27,115,5370022,,,,,,,2023-09-13,1,,,,,ユーキフドウサンカンリ,0
643,3120003024865,新規,0,2023-09-13,2023-09-13,ｓｍａｒｔ　ｗｏｒｋ　ｊａｐａｎ合同会社,,合同会社,大阪府,大阪市浪速区,恵美須西２丁目２番１－８０４号,,27,111,5560003,,,,,,,2023-09-13,1,,,,,スマートワークジャパン,0
645,3120101068194,新規,0,2023-09-13,2023-09-13,ＰＨＡＴ　ＤＡＴ株式会社,,株式会社,大阪府,堺市中区,大野芝町２３８６番地１,,27,142,5998233,,,,,,,2023-09-13,1,,,,,ファットダット,0
648,3120901048049,新規,0,2023-09-13,2023-09-13,ＬＯＮＧ　ＲＡＣＥ株式会社,,株式会社,大阪府,豊能郡能勢町,片山１４１番地の１２,,27,322,5630354,,,,,,,2023-09-13,1,,,,,ロングレース,0
650,3122001037337,新規,0,2023-09-13,2023-09-13,株式会社ＫＳ　Ｌａｂ,,株式会社,大阪府,東大阪市,角田３丁目２番３２号,,27,227,5780912,,,,,,,2023-09-13,1,,,,,ケーエスラボ,0
652,3130001075174,新規,0,2023-09-13,2023-09-13,ＩＢＰホールディングス株式会社,,株式会社,京都府,京都市左京区,田中西浦町７番地２,,26,103,6068217,,,,,,,2023-09-13,1,,,,,アイビーピーホールディングス,0
653,3130001075190,新規,0,2023-09-13,2023-09-13,株式会社ＳＥＮＴＯ,,株式会社,京都府,京都市下京区,仏光寺通烏丸東入上柳町３３１番地タカノハスクエア４階,,26,106,6008099,,,,,,,2023-09-13,1,,,,,セント,0
654,3130001075199,新規,0,2023-09-13,2023-09-13,株式会社千珠,,株式会社,京都府,京都市中京区,天神山町２８１番地,,26,104,6048221,,,,,,,2023-09-13,1,,,,,センジュ,0
655,3130003008900,新規,0,2023-09-13,2023-09-13,合同会社ビーナス,,合同会社,京都府,京都市山科区,竹鼻サイカシ町１３番地２１ハイツ山科５０８,,26,110,6078087,,,,,,,2023-09-13,1,,,,,ビーナス,0
656,3130003008958,新規,0,2023-09-13,2023-09-13,合同会社すすす,,合同会社,京都府,与謝郡伊根町,字平田１４９番地１,,26,463,6260423,,,,,,,2023-09-13,1,,,,,ススス,0
662,3140001131521,新規,0,2023-09-13,2023-09-13,凱世株式会社,,株式会社,兵庫県,神戸市東灘区,本庄町２丁目１３番２４号－５０２号,,28,101,6580012,,,,,,,2023-09-13,1,,,,,カイセイ,0
663,3140001131595,新規,0,2023-09-13,2023-09-13,グロースアライブ株式会社,,株式会社,兵庫県,宝塚市,中山桜台５丁目１５番１号ツウィング宝塚中山１番館６０１号,00131895,28,214,6650877,,,,,,,2023-09-13,1,,,,,グロースアライブ,0
664,3140001131604,新規,0,2023-09-13,2023-09-13,株式会社エヌアールケイ,,株式会社,兵庫県,三木市,吉川町大沢２５９番地,,28,215,6731115,,,,,,,2023-09-13,1,,,,,エヌアールケイ,0
669,3140003019483,新規,0,2023-09-13,2023-09-13,合同会社ＯＣＴ‐８,,合同会社,兵庫県,神戸市長田区,大塚町四丁目１番２７号,00131904,28,106,6530000,,,,,,,2023-09-13,1,,,,,オクト,0
670,3140005026726,新規,0,2023-09-13,2023-09-13,農事組合法人薬草ファーム,,その他の設立登記法人,兵庫県,丹波市,市島町戸坂２７４番地１,,28,223,6694333,,,,,,,2023-09-13,1,,,,,,0
671,3160001025341,新規,0,2023-09-13,2023-09-13,株式会社なんでもエネルギー,,株式会社,滋賀県,長浜市,西浅井町庄９７９番地１,,25,203,5290722,,,,,,,2023-09-13,1,,,,,ナンデモエネルギー,0
679,3180001158008,新規,0,2023-09-13,2023-09-13,株式会社ヤマセイホールディングス,,株式会社,愛知県,弥富市,鍋田町八穂１５５番地１,,23,235,4980068,,,,,,,2023-09-13,1,,,,,ヤマセイホールディングス,0
680,3180001158016,新規,0,2023-09-13,2023-09-13,株式会社トモエ,,株式会社,愛知県,大府市,高丘町３丁目３７２番地の１,,23,223,4740042,,,,,,,2023-09-13,1,,,,,トモエ,0
681,3180001158032,新規,0,2023-09-13,2023-09-13,株式会社野村鈑金,,株式会社,愛知県,名古屋市守山区,翠松園２丁目４０９番地の１,,23,113,4630010,,,,,,,2023-09-13,1,,,,,ノムラバンキン,0
684,3180005020329,新規,0,2023-09-13,2023-09-13,一般社団法人虹の会,,その他の設立登記法人,愛知県,名古屋市中区,栄１丁目２２番１９号,,23,106,4600008,,,,,,,2023-09-13,1,,,,,ニジノカイ,0
685,3180303005832,新規,0,2023-09-13,2023-09-13,合同会社ＤＤＭ,,合同会社,愛知県,豊田市,志賀町神上り３１番地１３９,,23,211,4710802,,,,,,,2023-09-13,1,,,,,ディーディーエム,0
692,3210003001698,新規,0,2023-09-13,2023-09-13,合同会社アーキプロ,,合同会社,福井県,福井市,下江守町１０８番地ＶＩＬＬＡＴＯＮＡＩ１０１,,18,201,9188037,,,,,,,2023-09-13,1,,,,,アーキプロ,0
699,3240001062120,新規,0,2023-09-13,2023-09-13,株式会社Ｍ・ＳＴＡＮＣＥ,,株式会社,広島県,東広島市,西条町寺家７８９１番地１,,34,212,7390041,,,,,,,2023-09-13,1,,,,,エムスタンス,0
705,3290001102994,新規,0,2023-09-13,2023-09-13,株式会社フロンティア,,株式会社,福岡県,飯塚市,枝国６０１番地２４,,40,205,8200081,,,,,,,2023-09-13,1,,,,,フロンティア,0
706,3290001103035,新規,0,2023-09-13,2023-09-13,株式会社ＧＡＬＡＸＹ,,株式会社,福岡県,久留米市,東町３７－１０,,40,203,8300032,,,,,,,2023-09-13,1,,,,,ギャラクシー,0
712,3310001018602,新規,0,2023-09-13,2023-09-13,福久電機株式会社,,株式会社,長崎県,長崎市,三景台町３０番１１号,,42,201,8500824,,,,,,,2023-09-13,1,,,,,フクデンキ,0
717,3330003009960,新規,0,2023-09-13,2023-09-13,クリエイト合同会社,,合同会社,熊本県,熊本市南区,日吉１丁目４番１０号,,43,104,8614109,,,,,,,2023-09-13,1,,,,,クリエイト,0
722,3340003004250,新規,0,2023-09-13,2023-09-13,ＥＣＯＢＯＸ合同会社,,合同会社,鹿児島県,鹿児島市,宇宿１丁目３５番２２号,,46,201,8900073,,,,,,,2023-09-13,1,,,,,エコボックス,0
732,3370001050401,新規,0,2023-09-13,2023-09-13,株式会社Ｎｅｘｕｓ＆Ｇｒｏｗｔｈ,,株式会社,宮城県,名取市,名取が丘５丁目３番１２－１号,,04,207,9811235,,,,,,,2023-09-13,1,,,,,ネクサスアンドグロウス,0
737,3430001089945,新規,0,2023-09-13,2023-09-13,株式会社Ｏｍｏｒｉｎ,,株式会社,北海道,余市郡余市町,入舟町４７５番地１,,01,408,0460011,,,,,,,2023-09-13,1,,,,,オモリン,0
740,3430005014775,新規,0,2023-09-13,2023-09-13,一般社団法人日本危機管理支援機構,,その他の設立登記法人,北海道,札幌市南区,南沢六条４丁目１１番１号,,01,106,0050826,,,,,,,2023-09-13,1,,,,,ニホンキキカンリシエンキコウ,0
743,3500001025190,新規,0,2023-09-13,2023-09-13,株式会社ＡＳＩＡ　ＦＯＯＤ,,株式会社,愛媛県,西条市,朔日市７８５番地３,,38,206,7930027,,,,,,,2023-09-13,1,,,,,アジアフード,0
745,3700150119203,新規,0,2023-09-13,2023-08-23,島根県表具内装組合連合会,,その他,島根県,松江市,雑賀町２８８サワダ表具店内,,32,201,6900056,,,,,,,2023-08-23,1,,,,,シマネケンヒヨウグナイソウクミアイレンゴウカイ,0
746,3700150120193,新規,0,2023-09-13,2023-09-13,ｙｉｃｈａｎｇｓｈｉｈｕｙｉｓｈａｎｇｍａｏｙｏｕｘｉａｎｇｏｎｇｓｉ,,外国会社等,,,,,,,,１－１０２，Ｂｕｉｌｄｉｎｇ　Ｃ，Ｎｏ．２００　Ｄｅｖｅｌｏｐｍｅｎｔ　Ａｖｅｎｕｅ，Ｄｏｎｇｃｈｅｎｇ　Ｐｉｌｏｔ　Ｚｏｎｅ，Ｙｉｌｉｎｇ　Ｄｉｓｔｒｉｃｔ，Ｙｉｃｈａｎｇ　Ｃｉｔｙ,,,,,,2023-09-13,1,,,,,ギショウシコクイチショウボウユウゲンコウシ,0
747,3700150120202,新規,0,2023-09-13,2023-09-13,Ｓｈａｎｇｈａｉｘｉａｏｆｅｎｇｄｉａｎｚｉｋｅｊｉ　ｙｏｕｘｉａｎｇｏｎｇｓｉ,,外国会社等,,,,,,,,Ｓｈａｎｇｈａｉｓｈｉ　Ｂａｏｓｈａｎｑｕ　ｈｅｑｕｌｕ１１８ｈａｏ６８９１ｓｈｉ　２０１９００　ＣＮ,,,,,,2023-09-13,1,,,,,シャンハイシャオフェンデンシカギヨウシェンゴンスー,0
752,4010001238270,新規,0,2023-09-13,2023-09-13,株式会社Ｍ＆Ａ,,株式会社,東京都,千代田区,丸の内１丁目１１－１パシフィックセンチュリープレイス丸の内１３階,,13,101,1000005,,,,,,,2023-09-13,1,,,,,エムアンドエー,0
753,4010001238411,新規,0,2023-09-13,2023-09-13,株式会社グルス,,株式会社,東京都,中央区,東日本橋１丁目６番１２－４０４号,,13,102,1030004,,,,,,,2023-09-13,1,,,,,グルス,0
754,4010001238469,新規,0,2023-09-13,2023-09-13,株式会社泰春,,株式会社,東京都,中央区,日本橋室町２丁目５番８号パンテオン三越前５０１,,13,102,1030022,,,,,,,2023-09-13,1,,,,,ヤスハル,0
755,4010001238477,新規,0,2023-09-13,2023-09-13,アカデミー・ハブ株式会社,,株式会社,東京都,中央区,銀座１丁目１２－４Ｎ＆ＥＢＬＤ．７階,,13,102,1040061,,,,,,,2023-09-13,1,,,,,アカデミーハブ,0
757,4010003041656,新規,0,2023-09-13,2023-09-13,ＫｎｉｔＣａｆｅ合同会社,,合同会社,東京都,中央区,日本橋小伝馬町６―１,,13,102,1030001,,,,,,,2023-09-13,1,,,,,ニットカフェ,0
762,4010401176748,新規,0,2023-09-13,2023-09-13,株式会社をむすび,,株式会社,東京都,港区,虎ノ門３丁目１８番６号朝日虎ノ門マンション６１４号室,,13,103,1050001,,,,,,,2023-09-13,1,,,,,ヲムスビ,0
763,4010401177102,新規,0,2023-09-13,2023-09-13,ＣＬＩＰＰＲＯＶＥ株式会社,,株式会社,東京都,港区,南青山４丁目８番１９号,,13,103,1070062,,,,,,,2023-09-13,1,,,,,クリッププルーブ,0
764,4010401177110,新規,0,2023-09-13,2023-09-13,Ｒａｂｂｉｔ　Ｈｏｌｅ　Ｓｏｌｕｔｉｏｎｓ株式会社,,株式会社,東京都,港区,赤坂２丁目５番８号ヒューリックＪＰビル６Ｆ,,13,103,1070052,,,,,,,2023-09-13,1,,,,,ラビットホールソリューションズ,0
765,4010401177143,新規,0,2023-09-13,2023-09-13,株式会社かがやき商事,,株式会社,東京都,港区,港南２丁目１６番４号品川グランドセントラルタワー８階,,13,103,1080075,,,,,,,2023-09-13,1,,,,,カガヤキショウジ,0
766,4010403030911,新規,0,2023-09-13,2023-09-13,プラスエックス・コンサルティング合同会社,,合同会社,東京都,港区,高輪２丁目１３番１号,,13,103,1080074,,,,,,,2023-09-13,1,,,,,プラスエックスコンサルティング,0
768,4010501051025,新規,0,2023-09-13,2023-09-13,Ｐｉｅｒ　Ｅ　Ｍｅｄｉａ‐ＪＰ株式会社,,株式会社,東京都,台東区,東浅草１丁目８－１０サンクレイドル浅草レジデンス１１０２,,13,106,1110025,,,,,,,2023-09-13,1,,,,,ピアイメディアジャパン,0
769,4010503007157,新規,0,2023-09-13,2023-09-13,合同会社ＳＤＧ,,合同会社,東京都,台東区,日本堤１丁目２４－７－３１２,,13,106,1110021,,,,,,,2023-09-13,1,,,,,エスディージー,0
774,4010801034324,新規,0,2023-09-13,2023-09-13,富国商事株式会社,,株式会社,東京都,大田区,下丸子２丁目２５番４号,,13,111,1460092,,,,,,,2023-09-13,1,,,,,フコクショウジ,0
780,4010903008449,新規,0,2023-09-13,2023-09-13,合同会社ｎａ,,合同会社,東京都,世田谷区,世田谷２丁目１４番３号エクセル世田谷１Ｆ,,13,112,1540017,,,,,,,2023-09-13,1,,,,,エヌエー,0
784,4011001156660,新規,0,2023-09-13,2023-09-13,株式会社ＭｅＩＸ,,株式会社,東京都,渋谷区,神宮前２丁目１８番１９号ｔｈｅ・Ｆｏｌｋｓ・ＢＹ・ＩＯＱ４Ｂ,,13,113,1500001,,,,,,,2023-09-13,1,,,,,ミックス,0
785,4011001156850,新規,0,2023-09-13,2023-09-13,株式会社ガルバンゾ,,株式会社,東京都,渋谷区,桜丘町２３番１７号シティコート桜丘４０８,,13,113,1500031,,,,,,,2023-09-13,1,,,,,ガルバンゾ,0
786,4011001156859,新規,0,2023-09-13,2023-09-13,株式会社Ｔｏｋｙｏ　Ｃｏｎｓｕｌｔｉｎｇ＆Ｉｎｔｅｌｌｉｇｅｎｃｅ,,株式会社,東京都,目黒区,下目黒５丁目１０番２４号ルクラス目黒２０４,,13,110,1530064,,,,,,,2023-09-13,1,,,,,トウキョウコンサルティングアンドインテリジェンス,0
787,4011001156933,新規,0,2023-09-13,2023-09-13,セカンドギアホールディングス株式会社,,株式会社,東京都,目黒区,青葉台３丁目１５番９号カーザ青葉台２０２,,13,110,1530042,,,,,,,2023-09-13,1,,,,,セカンドギアホールディングス,0
789,4011003017506,新規,0,2023-09-13,2023-09-13,合同会社ＳＭＡＲＴキャピタル,,合同会社,東京都,渋谷区,円山町５番５号Ｎａｖｉ渋谷Ｖ３階,,13,113,1500044,,,,,,,2023-09-13,1,,,,,スマートキャピタル,0
793,4011103013470,新規,0,2023-09-13,2023-09-13,Ａｗｅｓｏｍｅ‐Ｏｎｄｉｎｅ合同会社,,合同会社,東京都,新宿区,新宿２丁目１２番１３号２Ｆ,,13,104,1600022,,,,,,,2023-09-13,1,,,,,オーサムオンディーヌ,0
794,4011301028997,新規,0,2023-09-13,2023-09-13,株式会社ＴＩＭＥＲＳ　ＨＲ　Ｔｅｃｈｎｏｌｏｇｉｅｓ,,株式会社,東京都,杉並区,上井草１丁目１－１０井草レジデンス３Ｆ,,13,115,1670023,,,,,,,2023-09-13,1,,,,,タイマーズエイチアールテクノロジーズ,0
795,4011303004906,新規,0,2023-09-13,2023-09-13,ばびょーん合同会社,,合同会社,東京都,杉並区,高井戸東１丁目３１－６パークシティ浜田山Ｅ棟５０１,,13,115,1680072,,,,,,,2023-09-13,1,,,,,バビョーン,0
797,4011403004112,新規,0,2023-09-13,2023-09-13,合同会社らふてる,,合同会社,東京都,板橋区,赤塚１丁目５番１１－３３号,,13,119,1750092,,,,,,,2023-09-13,1,,,,,ラフテル,0
802,4011503005761,新規,0,2023-09-13,2023-09-13,ミズ橋合同会社,,合同会社,東京都,荒川区,東尾久２丁目２番９号三祥ビル２１０,,13,118,1160012,,,,,,,2023-09-13,1,,,,,ミズハシ,0
806,4012701017838,新規,0,2023-09-13,2023-09-13,株式会社アズールワン,,株式会社,東京都,清瀬市,中里４丁目７０１番地９９,,13,221,2040003,,,,,,,2023-09-13,1,,,,,アズールワン,0
807,4012803003182,新規,0,2023-09-13,2023-09-13,合同会社Ａｕｔｈｅｎｔｉｃ１,,合同会社,東京都,立川市,富士見町１丁目１８－１５アテナビル５０２号,,13,202,1900013,,,,,,,2023-09-13,1,,,,,オーセンティックワン,0
811,4013301051310,新規,0,2023-09-13,2023-09-13,大丸株式会社,,株式会社,東京都,豊島区,池袋２丁目１７番８－３１２号,,13,116,1710014,,,,,,,2023-09-13,1,,,,,ダイマル,0
817,4020001153502,新規,0,2023-09-13,2023-09-13,株式会社咲縁,,株式会社,神奈川県,川崎市宮前区,西野川２丁目５番２０号,,14,136,2160044,,,,,,,2023-09-13,1,,,,,ショウエン,0
819,4020003024569,新規,0,2023-09-13,2023-09-13,門脇ボーカルスタジオ合同会社,,合同会社,神奈川県,横浜市中区,長者町１丁目３番地５リヴシティ横浜関内弐番館１００７号室,,14,104,2310033,,,,,,,2023-09-13,1,,,,,カドワキボーカルスタジオ,0
820,4020003024577,新規,0,2023-09-13,2023-09-13,合同会社Ｚｏｎｅ‐Ｂ,,合同会社,神奈川県,横浜市中区,山手町３５番地１山手町コーポラスＢ棟６０７号室,,14,104,2310862,,,,,,,2023-09-13,1,,,,,ゾーンビー,0
825,4021001080166,新規,0,2023-09-13,2023-09-13,株式会社ｚｅｏｎ　ｂｕｉｌｄｉｎｇ　ｃｏｎｔｒａｃｔｏｒ,,株式会社,神奈川県,厚木市,中依知５番地５,,14,212,2430805,,,,,,,2023-09-13,1,,,,,ジオンビルディングコントラクター,0
830,4030001156000,新規,0,2023-09-13,2023-09-13,株式会社ＳＩＲＣＬＥ,,株式会社,埼玉県,川口市,柳崎３丁目１０番４号,,11,203,3330861,,,,,,,2023-09-13,1,,,,,サークル,0
837,4040001130045,新規,0,2023-09-13,2023-09-13,株式会社安部設備,,株式会社,千葉県,鎌ケ谷市,北中沢１丁目１４番３号,,12,224,2730111,,,,,,,2023-09-13,1,,,,,アベセツビ,0
838,4040001130061,新規,0,2023-09-13,2023-09-13,株式会社ネクスガーデン,,株式会社,千葉県,千葉市若葉区,加曽利町１３８２番地１,,12,104,2640017,,,,,,,2023-09-13,1,,,,,ネクスガーデン,0
843,4040003023239,新規,0,2023-09-13,2023-09-13,合同会社ワイド,,合同会社,千葉県,船橋市,本町４丁目５番２８号,,12,204,2730005,,,,,,,2023-09-13,1,,,,,ワイド,0
845,4050001053385,新規,0,2023-09-13,2023-09-13,株式会社Ｍｅｓｏ,,株式会社,茨城県,取手市,駒場１丁目２３－１９,,08,217,3020027,,,,,,,2023-09-13,1,,,,,メソ,0
846,4050001053468,新規,0,2023-09-13,2023-09-13,株式会社オフィスＫ,,株式会社,茨城県,筑西市,下岡崎２丁目２２番地１,,08,227,3080826,,,,,,,2023-09-13,1,,,,,オフィスケー,0
850,4060005010126,新規,0,2023-09-13,2023-09-13,一般社団法人人と人,,その他の設立登記法人,栃木県,真岡市,熊倉町３４４９番地６,,09,209,3214362,,,,,,,2023-09-13,1,,,,,ヒトトヒト,0
851,4070001040860,新規,0,2023-09-13,2023-09-13,ＷＡＭＵ株式会社,,株式会社,群馬県,邑楽郡大泉町,富士２丁目１７番１１号,,10,524,3700522,,,,,,,2023-09-13,1,,,,,ワム,0
852,4070001040877,新規,0,2023-09-13,2023-09-13,株式会社ウィルコ,,株式会社,群馬県,伊勢崎市,三和町１９３７－７,,10,204,3720011,,,,,,,2023-09-13,1,,,,,ウィルコ,0
855,4080003003055,新規,0,2023-09-13,2023-09-13,ＦｒｅＲｕｌｅ合同会社,,合同会社,静岡県,牧之原市,大江１６０５番地８,,22,226,4210512,,,,,,,2023-09-13,1,,,,,フリルール,0
857,4080005007566,新規,0,2023-09-13,2023-09-13,司法書士法人さくらリーガルパートナー,,その他の設立登記法人,静岡県,静岡市駿河区,南八幡町５番１５号,,22,102,4228074,,,,,,,2023-09-13,1,,,,,サクラリーガルパートナー,0
866,4110003005163,新規,0,2023-09-13,2023-09-13,ＴＥＮＤＡ・ＰＯＰＯ　Ｖｉｓｉｔｉｎｇ　Ｃａｒｅ　Ｏｆｆｉｃｅ合同会社,,合同会社,新潟県,三条市,笹岡３６２２番地１,,15,204,9550152,,,,,,,2023-09-13,1,,,,,テンダーポポリスリングケアオフィス,0
867,4110005016992,新規,0,2023-09-13,2023-09-13,税理士法人ＳＨＵＮ,,その他の設立登記法人,新潟県,新発田市,御幸町４丁目６番５号,,15,206,9570057,,,,,,,2023-09-13,1,,,,,シュン,0
875,4120001257937,新規,0,2023-09-13,2023-09-13,株式会社ＲｅＦｕｔｕｒｅ　Ｉｎｖｅｓｔ　Ｆｕｎｄ,,株式会社,大阪府,大阪市中央区,安土町２丁目５番５号本町明大ビル４階,,27,128,5410052,,,,,,,2023-09-13,1,,,,,リフューチャーインベストファンド,0
876,4120001257978,新規,0,2023-09-13,2023-09-13,株式会社ＫＡＭＩ,,株式会社,大阪府,大阪市中央区,瓦屋町３丁目７番２０－９０５号,,27,128,5420066,,,,,,,2023-09-13,1,,,,,カミ,0
877,4120001258010,新規,0,2023-09-13,2023-09-13,株式会社ことえ,,株式会社,大阪府,大阪市住吉区,大領２丁目４番２１号メゾンホレスト３０３号,,27,120,5580001,,,,,,,2023-09-13,1,,,,,コトエ,0
882,4120003024889,新規,0,2023-09-13,2023-09-13,合同会社ｋｎｏｗｌｅｄｇｅ‐ｍｏｄｅ,,合同会社,大阪府,枚方市,岡本町７番１号枚方ビオルネ５階ビィーゴ小柳惟夫紀,,27,210,5730031,,,,,,,2023-09-13,1,,,,,ナレッジモード,0
883,4120101068185,新規,0,2023-09-13,2023-09-13,丸路株式会社,,株式会社,大阪府,堺市堺区,出島海岸通２丁６番１８号,,27,141,5900833,,,,,,,2023-09-13,1,,,,,マルミチ,0
884,4120103005434,新規,0,2023-09-13,2023-09-13,ＩＷＩ合同会社,,合同会社,大阪府,堺市堺区,三国ヶ丘御幸通１５４番地１１０５号,,27,141,5900028,,,,,,,2023-09-13,1,,,,,イウイ,0
887,4120901048048,新規,0,2023-09-13,2023-09-13,ナナイロホーム株式会社,,株式会社,大阪府,豊中市,中桜塚５丁目８番３号,,27,203,5610881,,,,,,,2023-09-13,1,,,,,ナナイロホーム,0
889,4130001075116,新規,0,2023-09-13,2023-09-13,株式会社Ｆｕｓｉｏｎ　Ｆｉｓｓｉｏｎ　Ｐｏｗｅｒｓ,,株式会社,京都府,京都市下京区,函谷鉾町１０１ラージャス四条烏丸センター６Ｆ,,26,106,6008009,,,,,,,2023-09-13,1,,,,,フュージョンフィッションパワーズ,0
890,4130001075149,新規,0,2023-09-13,2023-09-13,株式会社走研究所,,株式会社,京都府,京都市右京区,嵯峨広沢西裏町３０番地１１,,26,108,6168306,,,,,,,2023-09-13,1,,,,,ソウケンキュウジョ,0
891,4130001075181,新規,0,2023-09-13,2023-09-13,株式会社クリエジ,,株式会社,京都府,宇治市,木幡中村３７番地の１パデシオン宇治木幡ＩＩＩ番館４０８号,00131906,26,204,6110002,,,,,,,2023-09-13,1,,,,,クリエジ,0
892,4130001075198,新規,0,2023-09-13,2023-09-13,エーシーエス株式会社,,株式会社,京都府,京都市下京区,中堂寺粟田町９３番地ＫＲＰ４号館３階ＫＲＰ・ＢＩＺ・ＮＥＸＴ,,26,106,6008815,,,,,,,2023-09-13,1,,,,,エーシーエス,0
893,4130001075248,新規,0,2023-09-13,2023-09-13,株式会社滝本設計一級建築士事務所,,株式会社,京都府,京都市左京区,山端川端町３４番地,,26,103,6068004,,,,,,,2023-09-13,1,,,,,タキモトセッケイイッキュウケンチクシジムショ,0
894,4130003008965,新規,0,2023-09-13,2023-09-13,のあ’Ｓ合同会社,,合同会社,京都府,京丹後市,網野町浅茂川１９４４番地の１６,,26,212,6293104,,,,,,,2023-09-13,1,,,,,ノアズ,0
899,4140001131545,新規,0,2023-09-13,2023-09-13,株式会社ａｆｆｅｃｔｉｏｎ,,株式会社,兵庫県,西宮市,天道町７番１０－４０４号,,28,204,6638104,,,,,,,2023-09-13,1,,,,,アフェクション,0
900,4140001131603,新規,0,2023-09-13,2023-09-13,株式会社テラスエステート神戸,,株式会社,兵庫県,三木市,志染町青山５丁目２２番地の４,,28,215,6730521,,,,,,,2023-09-13,1,,,,,テラスエステートコウベ,0
907,4180001157974,新規,0,2023-09-13,2023-09-13,ＧＨＤＬＣ株式会社,,株式会社,愛知県,名古屋市守山区,大森八龍２丁目２－９１４,,23,113,4630028,,,,,,,2023-09-13,1,,,,,ジーエイチディーエルシー,0
908,4180001157982,新規,0,2023-09-13,2023-09-13,株式会社Ｆ．Ｒ．Ｏ．サービス,,株式会社,愛知県,名古屋市千種区,鹿子殿１８番２２号－３,,23,101,4640021,,,,,,,2023-09-13,1,,,,,エフアールオーサービス,0
909,4180001157999,新規,0,2023-09-13,2023-09-13,株式会社アートテックス,,株式会社,愛知県,あま市,甚目寺松山５９番地第二松本ビル１０４,,23,237,4901111,,,,,,,2023-09-13,1,,,,,アートテックス,0
915,4190001030726,新規,0,2023-09-13,2023-09-13,株式会社すぎもとファクトリージャパン,,株式会社,三重県,南牟婁郡御浜町,大字神木３９４番地,,24,561,5195201,,,,,,,2023-09-13,1,,,,,スギモトファクトリージャパン,0
916,4190003004439,新規,0,2023-09-13,2023-09-13,合同会社ＨＡＳＥＧＡＷＡ,,合同会社,三重県,松阪市,京町１４２番地,,24,204,5150017,,,,,,,2023-09-13,1,,,,,ハセガワ,0
923,4250001020282,新規,0,2023-09-13,2023-09-13,株式会社Ａｒａｔａｎａ,,株式会社,山口県,周南市,大字久米３０３４番地の１,,35,215,7450801,,,,,,,2023-09-13,1,,,,,アラタナ,0
927,4260001038316,新規,0,2023-09-13,2023-09-13,おかやま住設株式会社,,株式会社,岡山県,岡山市中区,平井４丁目５番６１号,,33,102,7038282,,,,,,,2023-09-13,1,,,,,オカヤマジュウセツ,0
929,4270001008838,新規,0,2023-09-13,2023-09-13,株式会社フォーカス,,株式会社,鳥取県,米子市,淀江町西原１１４２番地３,,31,202,6893403,,,,,,,2023-09-13,1,,,,,フォーカス,0
933,4290001103001,新規,0,2023-09-13,2023-09-13,株式会社マーガレット,,株式会社,福岡県,福岡市東区,唐原１丁目２番１６号,,40,131,8130001,,,,,,,2023-09-13,1,,,,,マーガレット,0
945,4310001018601,新規,0,2023-09-13,2023-09-13,シンテック株式会社,,株式会社,長崎県,佐世保市,針尾東町１４５－８－１０２,,42,202,8593451,,,,,,,2023-09-13,1,,,,,シンテック,0
947,4330003009968,新規,0,2023-09-13,2023-09-13,合同会社湯徳章,00131897,合同会社,熊本県,宇土市,本町４丁目４２番地,,43,211,8690431,,,,,,,2023-09-13,1,,,,,ユトクショウ,0
957,4360003013281,新規,0,2023-09-13,2023-09-13,合同会社アイリスエステート,,合同会社,沖縄県,宮古島市,平良字荷川取２１４番地１,,47,214,9060008,,,,,,,2023-09-13,1,,,,,アイリスエステート,0
958,4370001050400,新規,0,2023-09-13,2023-09-13,アソ・プラン株式会社,,株式会社,宮城県,仙台市泉区,西中山２丁目１１番１４号,,04,105,9813218,,,,,,,2023-09-13,1,,,,,アソプラン,0
959,4370001050417,新規,0,2023-09-13,2023-09-13,株式会社マルダイ武蔵商店,,株式会社,宮城県,亘理郡亘理町,荒浜字御狩屋１５９番地２５６,,04,361,9892311,,,,,,,2023-09-13,1,,,,,マルダイムサシショウテン,0
970,4430001089911,新規,0,2023-09-13,2023-09-13,ＭＳ建設株式会社,,株式会社,北海道,苫小牧市,澄川町３丁目１５番６号,,01,213,0591271,,,,,,,2023-09-13,1,,,,,エムエスケンセツ,0
971,4430001089969,新規,0,2023-09-13,2023-09-13,株式会社縁ｅｎｉｓｈｉ,,株式会社,北海道,札幌市北区,新琴似八条１４丁目３番１号,,01,102,0010908,,,,,,,2023-09-13,1,,,,,ユカリエニシ,0
979,4700150119524,新規,0,2023-09-13,2023-08-29,車庫証明寒河江センター,,その他,山形県,寒河江市,西根２丁目１番１号,,06,206,9910003,,,,,,,2023-08-29,1,,,,,シヤコシヨウメイサガエセンター,0
980,4700150120192,新規,0,2023-09-13,2023-09-13,ｓｈｅｎｚｈｅｎｓｈｉｄａｏｓｈａｎｇｋｕａｊｉｎｇｍａｏｙｉｙｏｕｘｉａｎｇｏｎｇｓｉ,,外国会社等,,,,,,,,ｓｈｅｎｚｈｅｎｓｈｉｆｕｔｉａｎｑｕｌｉａｎｈｕａｊｉｅｄａｏｋａｎｇｘｉｎｓｈｅｑｕ，ｂｅｉｈｕａｎｄａｄａｏ７０４３ｈａｏｑｉｎｇｈａｉｄａｓｈａ１２０５,,,,,,2023-09-13,1,,,,,シンセンシトウジョウコキョウボウエキユウゲンコウシ,0
981,4700150120201,新規,0,2023-09-13,2023-09-13,ｎｉｎｇｂｏｆｅｎｇｈｕａｙｕａｎｆａｎｄｉａｎｓｈｉｚｈｉｊｉａ　ｙｏｕｘｉａｎｇｏｎｇｓｉ,,外国会社等,,,,,,,,ｆｅｎｇｈｕａｑｕｓｈａｎｇｔｉａｎｊｉｅｄａｏｇｏｎｇｙｅｋａｉｆａｑｕ　Ｎｉｎｇｂｏ　Ｚｈｅｊｉａｎｇ　３１５５９９　ＣＮ,,,,,,2023-09-13,1,,,,,ニンポウフェンホゥアユェンファンデンシジジャヨウシェンゴンスー,0
986,5010001238435,新規,0,2023-09-13,2023-09-13,ＪＡＰＡＮＴＡＧ　ＮＥＰＡＬ株式会社,,株式会社,東京都,文京区,本駒込２丁目１２番１３号,,13,105,1130021,,,,,,,2023-09-13,1,,,,,ジャパンタッグネパール,0
987,5010001238468,新規,0,2023-09-13,2023-09-13,株式会社Ｉｖｅｌ,,株式会社,東京都,千代田区,神田須田町２丁目２３番地１,,13,101,1010041,,,,,,,2023-09-13,1,,,,,アイヴェル,0
989,5010003041647,新規,0,2023-09-13,2023-09-13,合同会社那覇旭橋城ホテルマネジメント,,合同会社,東京都,千代田区,九段南３丁目７番７号成和綜合会計事務所内,,13,101,1020074,,,,,,,2023-09-13,1,,,,,ナハアサヒバシジョウホテルマネジメント,0
995,5010401177118,新規,0,2023-09-13,2023-09-13,株式会社ｏｆｆｉｃｅ‐ＪＡＦＫ,,株式会社,東京都,港区,赤坂４丁目８番１９号赤坂フロントタウン３階,,13,103,1070052,,,,,,,2023-09-13,1,,,,,オフィスジェイエーエフケー,0
997,5010403030935,新規,0,2023-09-13,2023-09-13,ＡＭＡＧ　Ａｓｉａ　Ｐａｃｉｆｉｃ合同会社,,合同会社,東京都,港区,港南２丁目１６番１号品川イーストワンタワー７階ＳＰＡＣＥＳ品川,,13,103,1080075,,,,,,,2023-09-13,1,,,,,アマッグアジアパシフィック,0
998,5010403030943,新規,0,2023-09-13,2023-09-13,ジャパンパーソナルセキュリティサービス合同会社,,合同会社,東京都,港区,芝浦４丁目１６番３１－１８０４号,,13,103,1080023,,,,,,,2023-09-13,1,,,,,ジャパンパーソナルセキュリティサービス,0
1000,5010405022501,新規,0,2023-09-13,2023-09-13,一般社団法人ＴＳＭ１６１,,その他の設立登記法人,東京都,港区,元赤坂１丁目１番７号,,13,103,1070051,,,,,,,2023-09-13,1,,,,,ティーエスエムヒャクロクジュウイチ,0
1007,5010501051032,新規,0,2023-09-13,2023-09-13,株式会社ラヴィエラ,,株式会社,東京都,台東区,入谷２丁目２４番６号ライオンズフォーシア入谷イースト１３０１号室,,13,106,1100013,,,,,,,2023-09-13,1,,,,,ラヴィエラ,0
1010,5010603010349,新規,0,2023-09-13,2023-09-13,合同会社ＴＥＬＬＡ,,合同会社,東京都,墨田区,東駒形４丁目１４番５－３０５号,,13,107,1300005,,,,,,,2023-09-13,1,,,,,テラ,0
1015,5010903008448,新規,0,2023-09-13,2023-09-13,冒険合同会社,,合同会社,東京都,世田谷区,桜丘４丁目１０番１７号エステージ桜丘３０１,,13,112,1560054,,,,,,,2023-09-13,1,,,,,ボウケン,0
1023,5011001156874,新規,0,2023-09-13,2023-09-13,株式会社ティーケープラン,,株式会社,東京都,目黒区,中目黒５丁目２６－７,,13,110,1530061,,,,,,,2023-09-13,1,,,,,ティーケープラン,0
1024,5011001156882,新規,0,2023-09-13,2023-09-13,株式会社Ｃ＆Ｄ　Ｃｒｏｓｓｂｏｒｄｅｒ,,株式会社,東京都,渋谷区,猿楽町７－１－１１２,,13,113,1500033,,,,,,,2023-09-13,1,,,,,シーアンドディークロスボーダー,0
1026,5011003017505,新規,0,2023-09-13,2023-09-13,合同会社ＳＭＡＲＴパートナーズ,,合同会社,東京都,渋谷区,円山町５番５号Ｎａｖｉ渋谷Ｖ３階,,13,113,1500044,,,,,,,2023-09-13,1,,,,,スマートパートナーズ,0
1030,5011203004170,新規,0,2023-09-13,2023-09-13,ｂｉｊｏｕ’ｓエンターテイメント合同会社,,合同会社,東京都,中野区,中央３丁目５番３号,,13,114,1640011,,,,,,,2023-09-13,1,,,,,,0
1032,5011303004905,新規,0,2023-09-13,2023-09-13,合同会社ＳＨＩＢＡ,,合同会社,東京都,杉並区,方南１丁目８番４－３０１号メゾン代田橋,,13,115,1680062,,,,,,,2023-09-13,1,,,,,シバ,0
1037,5011601027095,新規,0,2023-09-13,2023-09-13,株式会社ＨＩＫＡＲＩ　ＨＯＬＤＩＮＧＳ,,株式会社,東京都,練馬区,栄町２８－３,,13,120,1760006,,,,,,,2023-09-13,1,,,,,ヒカリホールディングス,0
1042,5011801043041,新規,0,2023-09-13,2023-09-13,株式会社リシェスバンク,,株式会社,東京都,足立区,入谷１丁目２７番１９号,,13,121,1210836,,,,,,,2023-09-13,1,,,,,リシェスバンク,0
1046,5012301013591,新規,0,2023-09-13,2023-09-13,株式会社マックス・シーエア・ロジスティクス,,株式会社,東京都,町田市,三輪緑山３丁目１８番地４,,13,209,1950055,,,,,,,2023-09-13,1,,,,,マックスシーエアロジスティクス,0
1060,5020001153484,新規,0,2023-09-13,2023-09-13,Ｔｈｅ　Ｗｅｌｌ　Ｓｏｌｕｔｉｏｎ　Ｊａｐａｎ株式会社,,株式会社,神奈川県,横浜市南区,南吉田町２丁目２８番地１ホーユーパレス６０９号,,14,105,2320012,,,,,,,2023-09-13,1,,,,,ザウェルソリューションジャパン,0
1061,5020001153518,新規,0,2023-09-13,2023-09-13,株式会社アットバット,,株式会社,神奈川県,横浜市中区,矢口台４６－４２,,14,104,2310831,,,,,,,2023-09-13,1,,,,,アットバット,0
1069,5020003024584,新規,0,2023-09-13,2023-09-13,メーカーズ合同会社,,合同会社,神奈川県,横浜市港北区,大豆戸町４１４番地１,,14,109,2220032,,,,,,,2023-09-13,1,,,,,メーカーズ,0
1074,5021001080149,新規,0,2023-09-13,2023-09-13,ｌｏｗ　ａｎｇｌｅ株式会社,,株式会社,神奈川県,伊勢原市,高森１１３２－２エスポワール２０１,,14,214,2591114,,,,,,,2023-09-13,1,,,,,ローアングル,0
1075,5021001080165,新規,0,2023-09-13,2023-09-13,ＧＲＥＥＮ　ＪＵＭＢＯ株式会社,,株式会社,神奈川県,平塚市,黒部丘６番４８－１１０号オリビアシティ,,14,203,2540821,,,,,,,2023-09-13,1,,,,,グリーンジャンボ,0
1085,5040001130036,新規,0,2023-09-13,2023-09-13,日本久裕株式会社,,株式会社,千葉県,市川市,相之川２丁目１５番１６号,,12,203,2720143,,,,,,,2023-09-13,1,,,,,ニホンキュウユウ,0
1086,5040001130044,新規,0,2023-09-13,2023-09-13,株式会社丸庄ホールディングス,,株式会社,千葉県,銚子市,三崎町２丁目２６１６番地４,,12,202,2880815,,,,,,,2023-09-13,1,,,,,マルショウホールディングス,0
1087,5040001130052,新規,0,2023-09-13,2023-09-13,グローリーコンティニュー株式会社,,株式会社,千葉県,山武市,成東２９３５番地２８,,12,237,2891326,,,,,,,2023-09-13,1,,,,,グローリーコンティニュー,0
1088,5040001130060,新規,0,2023-09-13,2023-09-13,株式会社ウィンテック,,株式会社,千葉県,香取市,油田８２６番地,,12,236,2890346,,,,,,,2023-09-13,1,,,,,ウィンテック,0
1089,5040001130069,新規,0,2023-09-13,2023-09-13,株式会社シーエステック,,株式会社,千葉県,市原市,辰巳台西４丁目１３番地の１－９－１,,12,219,2900004,,,,,,,2023-09-13,1,,,,,シーエステック,0
1099,5060001036330,新規,0,2023-09-13,2023-09-13,ＧＬＯＢＡＬ　ＬＯＧＩＳＴＩＣＳ株式会社,,株式会社,栃木県,下野市,下坪山字相給新田１９１０番地２８,,09,216,3230115,,,,,,,2023-09-13,1,,,,,グローバルロジスティックス,0
1103,5070001040876,新規,0,2023-09-13,2023-09-13,ユニバーサルアシスト株式会社,,株式会社,群馬県,伊勢崎市,喜多町４７番地２Ｆ,,10,204,3720056,,,,,,,2023-09-13,1,,,,,,0
1111,5110001037835,新規,0,2023-09-13,2023-09-13,株式会社ＦＪ　Ｔｒａｄｉｎｇ,,株式会社,新潟県,新潟市北区,太田字松影甲７０１９番地,,15,101,9503313,,,,,,,2023-09-13,1,,,,,エフジェイトレーディング,0
1123,5120001257911,新規,0,2023-09-13,2023-09-13,株式会社ドライブ,,株式会社,大阪府,大阪市中央区,玉造２丁目２２番１７号カーサ雅城台３０２,,27,128,5400004,,,,,,,2023-09-13,1,,,,,ドライブ,0
1124,5120001257969,新規,0,2023-09-13,2023-09-13,瑞博貿易株式会社,,株式会社,大阪府,大阪市生野区,新今里５丁目７－６新今里サクセスビル３０１号室,,27,116,5440001,,,,,,,2023-09-13,1,,,,,ミズヒロボウエキ,0
1125,5120001258026,新規,0,2023-09-13,2023-09-13,株式会社シンシン,,株式会社,大阪府,大阪市西成区,南開２丁目１番２５号,,27,122,5570023,,,,,,,2023-09-13,1,,,,,シンシン,0
1132,5122003002667,新規,0,2023-09-13,2023-09-13,ジェットフーセン合同会社,,合同会社,大阪府,東大阪市,角田２丁目４番４０タテツコーポ１０２号,,27,227,5780912,,,,,,,2023-09-13,1,,,,,ジェットフーセン,0
1133,5130001075164,新規,0,2023-09-13,2023-09-13,株式会社ＭＡＵＭ．Ｓ,,株式会社,京都府,京都市中京区,御池通間之町東入高宮町２０６番地御池ビル６Ａ,,26,104,6040835,,,,,,,2023-09-13,1,,,,,マウムエス,0
1134,5130001075172,新規,0,2023-09-13,2023-09-13,株式会社早川,,株式会社,京都府,城陽市,久世南垣内５９番地の３,,26,207,6100102,,,,,,,2023-09-13,1,,,,,ハヤカワ,0
1135,5130001075180,新規,0,2023-09-13,2023-09-13,株式会社タッチ＆ムーブ,,株式会社,京都府,京都市伏見区,西大黒町１０３９番地２,,26,109,6128337,,,,,,,2023-09-13,1,,,,,タッチアンドムーブ,0
1136,5130001075197,新規,0,2023-09-13,2023-09-13,株式会社ＭｉＡＨ,,株式会社,京都府,京都市伏見区,久我森の宮町９番地３７,,26,109,6128495,,,,,,,2023-09-13,1,,,,,エムアイエイエイチ,0
1137,5130001075239,新規,0,2023-09-13,2023-09-13,株式会社陽葵,,株式会社,京都府,京都市右京区,西院西寿町２７番地リッツハウスＫ３号室,,26,108,6150034,,,,,,,2023-09-13,1,,,,,ヒナタ,0
1138,5130003008972,新規,0,2023-09-13,2023-09-13,ＰＯＲＴ合同会社,,合同会社,京都府,宇治市,小倉町南堀池７３番地の７,,26,204,6110042,,,,,,,2023-09-13,1,,,,,ポート,0
1143,5140001131536,新規,0,2023-09-13,2023-09-13,株式会社Ｃａｍｉｎｏ,,株式会社,兵庫県,揖保郡太子町,東南１９０番地６,,28,464,6711523,,,,,,,2023-09-13,1,,,,,カミーノ,0
1150,5160001025331,新規,0,2023-09-13,2023-09-13,株式会社シーモ,,株式会社,滋賀県,大津市,唐崎１丁目１番３２号,,25,201,5200106,,,,,,,2023-09-13,1,,,,,シーモ,0
1160,5180001158030,新規,0,2023-09-13,2023-09-13,潤正株式会社,,株式会社,愛知県,名古屋市昭和区,萩原町３丁目２６番１号,,23,107,4660852,,,,,,,2023-09-13,1,,,,,ジュンセイ,0
1165,5180003025740,新規,0,2023-09-13,2023-09-13,ＮＩＬＬＥＳ合同会社,,合同会社,愛知県,名古屋市中村区,名駅４丁目２４‐５第２森ビル４０１,,23,105,4500002,,,,,,,2023-09-13,1,,,,,ニルス,0
1171,5200001041720,新規,0,2023-09-13,2023-09-13,株式会社ワンダフルパピー,,株式会社,岐阜県,養老郡養老町,西岩道６６番地,,21,341,5031322,,,,,,,2023-09-13,1,,,,,ワンダフルパピー,0
1178,5240001062110,新規,0,2023-09-13,2023-09-13,株式会社ＬＩＮＫＳ,,株式会社,広島県,福山市,山手町１丁目８番４３－７号,,34,207,7200092,,,,,,,2023-09-13,1,,,,,リンクス,0
1183,5250001020281,新規,0,2023-09-13,2023-09-13,株式会社高井福祉,,株式会社,山口県,宇部市,大字西岐波５１５番地,,35,202,7550151,,,,,,,2023-09-13,1,,,,,タカイフクシ,0
1195,5330001031254,新規,0,2023-09-13,2023-09-13,株式会社Ｌｉｌｙ,,株式会社,熊本県,菊池市,泗水町亀尾２７２６番地１,,43,210,8611211,,,,,,,2023-09-13,1,,,,,リリィ,0
1197,5330003009967,新規,0,2023-09-13,2023-09-13,合同会社ＴＫコーポレーション,,合同会社,熊本県,熊本市中央区,九品寺５丁目９番２６号,,43,101,8620976,,,,,,,2023-09-13,1,,,,,ティーケイコーポレーション,0
1203,5350001018563,新規,0,2023-09-13,2023-09-13,株式会社ＬＩＦＥ　ＳＵＰＰＯＲＴ　Ｋ,,株式会社,宮崎県,宮崎市,橘通東４丁目５番１３号イーストタチバナ１００号室,,45,201,8800805,,,,,,,2023-09-13,1,,,,,ライフサポートケー,0
1212,5390005009027,新規,0,2023-09-13,2023-09-13,特定非営利活動法人ＹＬＴクラブ,,その他の設立登記法人,山形県,山形市,若宮２丁目７－１,,06,201,9902453,,,,,,,2023-09-13,1,,,,,ワイエルティクラブ,0
1214,5400003003145,新規,0,2023-09-13,2023-09-13,合同会社Ｏｗｌ,,合同会社,岩手県,滝沢市,鵜飼細谷地１０１－１,,03,216,0200651,,,,,,,2023-09-13,1,,,,,アウル,0
1218,5430003015427,新規,0,2023-09-13,2023-09-13,合同会社ライズ,,合同会社,北海道,札幌市手稲区,前田十条１１丁目１１番１号,,01,109,0060820,,,,,,,2023-09-13,1,,,,,ライズ,0
1227,5470003002487,新規,0,2023-09-13,2023-09-13,合同会社ａｌｌｙ,,合同会社,香川県,高松市,東山崎町１４０７番地１,,37,201,7610312,,,,,,,2023-09-13,1,,,,,アライ,0
1232,5700150120191,新規,0,2023-09-13,2023-09-13,ｓｈｅｎｚｈｅｎｓｈｉｙａｂｕｅｒｋｅｊｉｙｏｕｘｉａｎｇｏｎｇｓｉ,,外国会社等,,,,,,,,ｇｕａｎｇｄｏｎｇｓｈｅｎｚｈｅｎｌｏｎｇｇａｎｇｑｕｂａｎｔｉａｎｊｉｅｄａｏｗｕｈｅｓｈｅｑｕｇｕａｎｇｙａｙｕａｎｓｈａｎｇｚｈｕｑｕ８ｈａｏｐａｎｇｅｎｇｄａｓｈａ５０５,,,,,,2023-09-13,1,,,,,シンセンシガフジカギユウゲンコウシ,0
1233,5700150120200,新規,0,2023-09-13,2023-09-13,ＢｅｉＪｉｎｇＫｅＥｒＭｅｉＴｉＹｕＹｏｎｇＰｉｎ　ＹｏｕＸｉａｎＧｏｎｇＳｉ,,外国会社等,,,,,,,,Ｒｏｏｍ　１０５　Ｕｎｉｔ　１　Ｆｌｏｏｒ　１　Ｂｕｉｌｄｉｎｇ　１　Ｙａｒｄ　１１　Ｓｈｕａｎｇｙｉｎｇ　Ｒｏａｄ　Ｂｅｉｊｉｎｇ　Ｃｈａｏｙａｎｇ　Ｄｉｓｔｒｉｃｔ　Ｂｅｉｊｉｎｇ　１０００２０　ＣＮ,,,,,,2023-09-13,1,,,,,ペキンカルメイタイイクヨウヒンヨウシェンゴンスー,0
1234,5700150120209,新規,0,2023-09-13,2023-09-13,ｓｈｅｎｚｈｅｎｓｈｉｙａｎｇｊｉｎｇｋｅｊｉｙｏｕｘｉａｎｇｏｎｇｓｉ,,外国会社等,,,,,,,,ｌｏｎｇｈｕａｑｕ　ｍｉｎｚｈｉｊｉｅｄａｏ　ｚｈａｎｇｋｅｎｇｙｉｑｕ　５３ｄｏｎｇ２０５　ｓｈｅｎｚｈｅｎｓｈｉ　ｇｕａｎｇｄｏｎｇｓｈｅｎ　９９９００１　ＣＮ,,,,,,2023-09-13,1,,,,,シェンジェンシーヤンジンコージーヨウシエンゴンスー,0
1244,6010001238384,新規,0,2023-09-13,2023-09-13,株式会社Ｓｈｉｇｅｔａ,,株式会社,東京都,文京区,本郷３丁目３８番１０号さかえビル２Ｆ,,13,105,1130033,,,,,,,2023-09-13,1,,,,,シゲタ,0
1245,6010001238459,新規,0,2023-09-13,2023-09-13,Ｃマイスター株式会社,,株式会社,東京都,中央区,築地２丁目１４番６－４０２号ＣＡＭＥＬ築地Ｉ,00131908,13,102,1040045,,,,,,,2023-09-13,1,,,,,シーマイスター,0
1246,6010001238475,新規,0,2023-09-13,2023-09-13,ＳＣ京都株式会社,,株式会社,東京都,中央区,八重洲１丁目１番８号八重洲ＫＴビル５階,,13,102,1030028,,,,,,,2023-09-13,1,,,,,エスシーキョウト,0
1249,6010003041662,新規,0,2023-09-13,2023-09-13,ＡＧアセット合同会社,,合同会社,東京都,文京区,根津２丁目１４番５号,,13,105,1130031,,,,,,,2023-09-13,1,,,,,エージーアセット,0
1251,6010005037270,新規,0,2023-09-13,2023-09-13,一般社団法人ＭＡＲＵＮＩ,,その他の設立登記法人,東京都,中央区,八丁堀２丁目１６番８号,,13,102,1040032,,,,,,,2023-09-13,1,,,,,マルニ,0
1262,6010501051023,新規,0,2023-09-13,2023-09-13,Ｒ＆Ｌ株式会社,,株式会社,東京都,台東区,上野６丁目７－１６川久保ビル４０３号,,13,106,1100005,,,,,,,2023-09-13,1,,,,,アールアンドエル,0
1264,6010601063769,新規,0,2023-09-13,2023-09-13,株式会社ペスカコーポレーション,,株式会社,東京都,墨田区,向島２丁目１０番４号,,13,107,1310033,,,,,,,2023-09-13,1,,,,,ペスカコーポレーション,0
1266,6010701044850,新規,0,2023-09-13,2023-09-13,岸田屋商店株式会社,,株式会社,東京都,品川区,西五反田３丁目９番１－８０４号,,13,109,1410031,,,,,,,2023-09-13,1,,,,,キシダヤショウテン,0
1270,6010801034330,新規,0,2023-09-13,2023-09-13,株式会社澁澤,,株式会社,東京都,大田区,大森中３丁目３番５号,,13,111,1430014,,,,,,,2023-09-13,1,,,,,シブサワ,0
1272,6010805003059,新規,0,2023-09-13,2023-09-13,医療法人社団藍真会,,その他の設立登記法人,東京都,大田区,池上７丁目６番５号池上メディカルブリッジ２階,,13,111,1460082,,,,,,,2023-09-13,1,,,,,アイシンカイ,0
1277,6010901053817,新規,0,2023-09-13,2023-09-13,株式会社中山設備,,株式会社,東京都,世田谷区,奥沢３丁目４５番４号,,13,112,1580083,,,,,,,2023-09-13,1,,,,,ナカヤマセツビ,0
1284,6011001156840,新規,0,2023-09-13,2023-09-13,株式会社Ｎｙａｎｇ　Ｎｙａｎｇ,,株式会社,東京都,渋谷区,松濤２丁目１８－９－１０１,,13,113,1500046,,,,,,,2023-09-13,1,,,,,ニャンニャン,0
1285,6011001156915,新規,0,2023-09-13,2023-09-13,株式会社Ｍａｒｓ　Ｇｒｏｗｔｈ　Ｃａｐｉｔａｌ　Ｊａｐａｎ,,株式会社,東京都,渋谷区,幡ヶ谷３丁目３７番１８号,,13,113,1510072,,,,,,,2023-09-13,1,,,,,マーズグロースキャピタルジャパン,0
1286,6011001156948,新規,0,2023-09-13,2023-09-13,Ｒｅｔｕｒｎ株式会社,,株式会社,東京都,渋谷区,宇田川町１番１２－１１０４号,,13,113,1500042,,,,,,,2023-09-13,1,,,,,リターン,0
1287,6011003017363,新規,0,2023-09-13,2023-09-13,８８８合同会社,,合同会社,東京都,渋谷区,神宮前６丁目２３番４号桑野ビル２階,,13,113,1500001,,,,,,,2023-09-13,1,,,,,バババ,0
1288,6011003017512,新規,0,2023-09-13,2023-09-13,ライエ合同会社,,合同会社,東京都,目黒区,中根１丁目１４番９号,,13,110,1520031,,,,,,,2023-09-13,1,,,,,ライエ,0
1291,6011101104286,新規,0,2023-09-13,2023-09-13,株式会社ＯＴＯ,,株式会社,東京都,新宿区,下落合３丁目２２番１９号ＭＥＪＩＲＯＨＯＵＳＥ９０１,,13,104,1610033,,,,,,,2023-09-13,1,,,,,オト,0
1294,6011103013460,新規,0,2023-09-13,2023-09-13,合同会社ＺＥＲＯ,,合同会社,東京都,新宿区,西新宿３丁目３番１３号西新宿水間ビル６階,,13,104,1600023,,,,,,,2023-09-13,1,,,,,ゼロ,0
1295,6011401025447,新規,0,2023-09-13,2023-09-13,ＫＴシステムズ株式会社,,株式会社,東京都,板橋区,蓮根２丁目２番１－３０４号,,13,119,1740046,,,,,,,2023-09-13,1,,,,,ケイティシステムズ,0
1305,6011801043040,新規,0,2023-09-13,2023-09-13,株式会社ｓｋｉｐ,,株式会社,東京都,足立区,北加平町２１番３０号,,13,121,1210056,,,,,,,2023-09-13,1,,,,,スキップ,0
1311,6012401040997,新規,0,2023-09-13,2023-09-13,株式会社コンストラクションオーナーズサポート,,株式会社,東京都,多摩市,中沢１丁目１７番地の２４,,13,224,2060036,,,,,,,2023-09-13,1,,,,,コンストラクションオーナーズサポート,0
1312,6012403006170,新規,0,2023-09-13,2023-09-13,イエローガイ合同会社,,合同会社,東京都,小金井市,緑町１丁目３番２９－３０２号,,13,210,1840003,,,,,,,2023-09-13,1,,,,,イエローガイ,0
1313,6012405004899,新規,0,2023-09-13,2023-09-13,一般社団法人ニホンＧＨＣＤコーチング協会,,その他の設立登記法人,東京都,三鷹市,井の頭２丁目１４－２,,13,204,1810001,,,,,,,2023-09-13,1,,,,,ニホンジーエイチシーディーコーチングキョウカイ,0
1316,6013101009242,新規,0,2023-09-13,2023-09-13,株式会社菊水美巧,,株式会社,東京都,羽村市,羽加美１丁目２１番地２０,,13,227,2050016,,,,,,,2023-09-13,1,,,,,,0
1326,6020001153434,新規,0,2023-09-13,2023-09-13,マミヤジャパン株式会社,,株式会社,神奈川県,横浜市青葉区,大場町１７４番地１７９,,14,117,2250023,,,,,,,2023-09-13,1,,,,,マミヤジャパン,0
1327,6020001153459,新規,0,2023-09-13,2023-09-13,株式会社大誠,,株式会社,神奈川県,横浜市都筑区,勝田町１２９０番地１,,14,118,2240034,,,,,,,2023-09-13,1,,,,,ダイセイ,0
1328,6020001153475,新規,0,2023-09-13,2023-09-13,株式会社エヌステート,,株式会社,神奈川県,横浜市都筑区,牛久保東１丁目２３番２０号,,14,118,2240014,,,,,,,2023-09-13,1,,,,,エヌステート,0
1329,6020001153483,新規,0,2023-09-13,2023-09-13,株式会社サンエスリノベーション,,株式会社,神奈川県,横浜市緑区,三保町１３３４番地７,,14,113,2260015,,,,,,,2023-09-13,1,,,,,サンエスリノベーション,0
1330,6020001153500,新規,0,2023-09-13,2023-09-13,株式会社楠,,株式会社,神奈川県,横浜市西区,北幸１丁目１１番１号水信ビル７階,,14,103,2200004,,,,,,,2023-09-13,1,,,,,クスノキ,0
1331,6020001153509,新規,0,2023-09-13,2023-09-13,ＭＭ　Ｍｉｒａｉ株式会社,,株式会社,神奈川県,川崎市川崎区,東門前２丁目５－２９－３,,14,131,2100812,,,,,,,2023-09-13,1,,,,,エムエムミライ,0
1334,6020005016117,新規,0,2023-09-13,2023-09-13,社会保険労務士法人ＯＦＦＩＣＥ　ＢＡＭＢＩＮＯ,,その他の設立登記法人,神奈川県,横浜市磯子区,杉田５丁目２１－３７横濱シーサイドスクエア３階,,14,107,2350033,,,,,,,2023-09-13,1,,,,,オフィスバンビーノ,0
1337,6021001080148,新規,0,2023-09-13,2023-09-13,株式会社フタバ,,株式会社,神奈川県,大和市,中央林間６丁目１０番４－１０１号,,14,213,2420007,,,,,,,2023-09-13,1,,,,,フタバ,0
1353,6040001130043,新規,0,2023-09-13,2023-09-13,株式会社Ｒ２ホールディングス,,株式会社,千葉県,習志野市,津田沼７丁目１６番１５号アールズ１０２号,,12,216,2750016,,,,,,,2023-09-13,1,,,,,アールツーホールディングス,0
1357,6050001053474,新規,0,2023-09-13,2023-09-13,株式会社ぽかぽか薬局,,株式会社,茨城県,水戸市,東台２丁目９番１０号,,08,201,3100818,,,,,,,2023-09-13,1,,,,,ポカポカヤッキョク,0
1360,6060001036338,新規,0,2023-09-13,2023-09-13,株式会社メアリー,,株式会社,栃木県,矢板市,玉田４０４番地６８,,09,211,3291577,,,,,,,2023-09-13,1,,,,,メアリー,0
1370,6070001040859,新規,0,2023-09-13,2023-09-13,株式会社東和ホールディングス,,株式会社,群馬県,桐生市,境野町７丁目５０番地１,,10,203,3760002,,,,,,,2023-09-13,1,,,,,トウワホールディングス,0
1378,6080105006359,新規,0,2023-09-13,2023-09-13,沼津我入道漁業生産組合,,その他の設立登記法人,静岡県,沼津市,我入道林町４７８番地,,22,203,4100823,,,,,,,2023-09-13,1,,,,,ヌマヅガニュウドウ,0
1385,6100001036779,新規,0,2023-09-13,2023-09-13,株式会社鴻利興業,,株式会社,長野県,上伊那郡箕輪町,大字中箕輪３７４５番地,,20,383,3994601,,,,,,,2023-09-13,1,,,,,コウリコウギョウ,0
1389,6110001037834,新規,0,2023-09-13,2023-09-13,株式会社Ｇ・Ｉ　Ａｄｖａｎｃｅ,,株式会社,新潟県,見附市,柳橋町２５９番地２６,,15,211,9540082,,,,,,,2023-09-13,1,,,,,ジーアイアドヴァンス,0
1396,6120101068191,新規,0,2023-09-13,2023-09-13,株式会社ベックシュクレ,,株式会社,大阪府,堺市南区,原山台１丁２番４号,,27,145,5900132,,,,,,,2023-09-13,1,,,,,ベックシュクレ,0
1406,6130001075147,新規,0,2023-09-13,2023-09-13,株式会社２Ｋ,,株式会社,京都府,京都市山科区,小山一石畑５０番地４,,26,110,6078103,,,,,,,2023-09-13,1,,,,,ニケ,0
1407,6130001075171,新規,0,2023-09-13,2023-09-13,株式会社竹内製箱,,株式会社,京都府,京都市山科区,西野山桜ノ馬場町５６番地６,,26,110,6078308,,,,,,,2023-09-13,1,,,,,タケウチセイハコ,0
1408,6130001075188,新規,0,2023-09-13,2023-09-13,デベロップ株式会社,,株式会社,京都府,京都市下京区,仏光寺通烏丸東入上柳町３３１番地タカノハスクエア４階,,26,106,6008099,,,,,,,2023-09-13,1,,,,,デベロップ,0
1409,6130001075196,新規,0,2023-09-13,2023-09-13,株式会社そらかみ,,株式会社,京都府,久世郡久御山町,佐山双置４９番地,,26,322,6130034,,,,,,,2023-09-13,1,,,,,ソラカミ,0
1415,6130003008963,新規,0,2023-09-13,2023-09-13,合同会社Ｓｔｅｌｌａ　Ｐｏｌａｒｉｓ,,合同会社,京都府,京都市中京区,西ノ京永本町１４番地７レオパレス御池２０３号,,26,104,6048421,,,,,,,2023-09-13,1,,,,,ステラポラリス,0
1416,6130005016873,新規,0,2023-09-13,2023-09-13,一般社団法人建築文化,,その他の設立登記法人,京都府,京都市左京区,下鴨北園町７２,,26,103,6060831,,,,,,,2023-09-13,1,,,,,ケンチクブンカ,0
1423,6140001131592,新規,0,2023-09-13,2023-09-13,株式会社Ｖａｊｒａ,,株式会社,兵庫県,赤穂郡上郡町,高山１２２８番地１５１９,,28,481,6781254,,,,,,,2023-09-13,1,,,,,バザラ,0
1424,6140001131601,新規,0,2023-09-13,2023-09-13,株式会社村上商店,,株式会社,兵庫県,西宮市,室川町１１番２－２０３号,,28,204,6620863,,,,,,,2023-09-13,1,,,,,ムラカミショウテン,0
1429,6140003019539,新規,0,2023-09-13,2023-09-13,合同会社ｎｉ‐ｉｌｌｕｓｔ,,合同会社,兵庫県,姫路市,別所町北宿１３６８番地グレイス別所２０１,,28,201,6710223,,,,,,,2023-09-13,1,,,,,エヌアイイラスト,0
1430,6160001025339,新規,0,2023-09-13,2023-09-13,株式会社マルケン,,株式会社,滋賀県,長浜市,八幡中山町９５３番地,,25,203,5260021,,,,,,,2023-09-13,1,,,,,マルケン,0
1438,6180001157824,新規,0,2023-09-13,2023-09-13,日本華力科技株式会社,,株式会社,愛知県,名古屋市中区,錦２丁目１６番地４,,23,106,4600003,,,,,,,2023-09-13,1,,,,,ニホンカリキカギ,0
1441,6180003025731,新規,0,2023-09-13,2023-09-13,合同会社ＲＨＴＴ,,合同会社,愛知県,名古屋市西区,新道２丁目１３－３２ファステート名古屋駅前ドリーム１００６号,,23,104,4510043,,,,,,,2023-09-13,1,,,,,アールエイチティーティー,0
1451,6210001019459,新規,0,2023-09-13,2023-09-13,株式会社竹通,,株式会社,福井県,福井市,丸山２丁目２４０１番地１２,,18,201,9100834,,,,,,,2023-09-13,1,,,,,タケツウ,0
1459,6240001062118,新規,0,2023-09-13,2023-09-13,株式会社ピュアライフ,,株式会社,広島県,広島市安芸区,矢野東６丁目２３番１８号,,34,107,7360083,,,,,,,2023-09-13,1,,,,,ピュアライフ,0
1466,6270001008836,新規,0,2023-09-13,2023-09-13,因伯コーポレーション株式会社,,株式会社,鳥取県,鳥取市,南栄町１１番地,,31,201,6891121,,,,,,,2023-09-13,1,,,,,インパクコーポレーション,0
1474,6290001103008,新規,0,2023-09-13,2023-09-13,旬株式会社,,株式会社,福岡県,福岡市城南区,樋井川６丁目２番１４号１,,40,136,8140153,,,,,,,2023-09-13,1,,,,,シュン,0
1477,6290003014351,新規,0,2023-09-13,2023-09-13,合同会社センター,,合同会社,福岡県,福岡市博多区,対馬小路１２番１３－１１０１号ルイズアクア,,40,132,8120020,,,,,,,2023-09-13,1,,,,,,0
1482,6300003002024,新規,0,2023-09-13,2023-09-13,ＧＡＵＲＡＢ　ＭＡＲＴ合同会社,,合同会社,佐賀県,鳥栖市,大正町７７９番３号,,41,203,8410032,,,,,,,2023-09-13,1,,,,,ガウラブマート,0
1487,6330001031204,新規,0,2023-09-13,2023-09-13,トランスギア株式会社,,株式会社,熊本県,上益城郡御船町,大字辺田見１２６３－１,,43,441,8613206,,,,,,,2023-09-13,1,,,,,トランスギア,0
1488,6330001031212,新規,0,2023-09-13,2023-09-13,株式会社菓乃音,,株式会社,熊本県,熊本市東区,東野１丁目５番５号,,43,102,8612106,,,,,,,2023-09-13,1,,,,,カノン,0
1489,6330001031245,新規,0,2023-09-13,2023-09-13,株式会社アルファ,,株式会社,熊本県,荒尾市,西原町１丁目２番６号２０５クレタコート荒尾,,43,204,8640053,,,,,,,2023-09-13,1,,,,,アルファ,0
1494,6340001025898,新規,0,2023-09-13,2023-09-13,日本ライフケアサイエンス株式会社,,株式会社,鹿児島県,鹿児島市,西千石町１１番２１号鹿児島ＭＳビル５階,,46,201,8920847,,,,,,,2023-09-13,1,,,,,ニホンライフケアサイエンス,0
1497,6350001018562,新規,0,2023-09-13,2023-09-13,株式会社華粧,,株式会社,宮崎県,宮崎市,田野町甲２９６２番地９,,45,201,8891701,,,,,,,2023-09-13,1,,,,,ハナショウ,0
1500,6370001050407,新規,0,2023-09-13,2023-09-13,株式会社中嶋アグリ未来,,株式会社,宮城県,加美郡加美町,字中嶋大下一番１番地,,04,445,9814315,,,,,,,2023-09-13,1,,,,,ナカジマアグリミライ,0
1501,6370003006282,新規,0,2023-09-13,2023-09-13,合同会社ＬＩＢＥＴＥ,,合同会社,宮城県,仙台市青葉区,昭和町３番３３－１７０５号,,04,101,9810913,,,,,,,2023-09-13,1,,,,,リベテ,0
1511,6400003003144,新規,0,2023-09-13,2023-09-13,タテサワ合同会社,,合同会社,岩手県,盛岡市,本宮６丁目３５番８号,,03,201,0200866,,,,,,,2023-09-13,1,,,,,タテサワ,0
1512,6410005006540,新規,0,2023-09-13,2023-09-13,特定非営利活動法人ａｅｒｕ　ｓａｔｏｙａｍａ,,その他の設立登記法人,秋田県,南秋田郡五城目町,馬場目字町村４９,,05,361,0181713,,,,,,,2023-09-13,1,,,,,アエルサトヤマ,0
1513,6420001018407,新規,0,2023-09-13,2023-09-13,株式会社プロスペル,,株式会社,青森県,十和田市,大字八斗沢字八斗沢５９番地１５,,02,206,0340105,,,,,,,2023-09-13,1,,,,,プロスペル,0
1515,6430001089967,新規,0,2023-09-13,2023-09-13,株式会社エスポワール,,株式会社,北海道,札幌市北区,北八条西３丁目３２－３４０２,,01,102,0600808,,,,,,,2023-09-13,1,,,,,エスポワール,0
1517,6430003015418,新規,0,2023-09-13,2023-09-13,合同会社ルークス,,合同会社,北海道,札幌市南区,真駒内南町１丁目１番１３－３０５号,,01,106,0050016,,,,,,,2023-09-13,1,,,,,ルークス,0
1521,6700150120199,新規,0,2023-09-13,2023-09-13,ｎｉｎｇｄｅｐｕｓｈｉｄａｂｅｎｇｙｅｋｅｊｉ　ｙｏｕｘｉａｎｇｏｎｇｓｉ,,外国会社等,,,,,,,,ｚｈｅｒｏｎｇｘｉａｎｃｈｅｎｇｊｉａｏｘｉａｎｇｄａｏｊｉａｎｙｕａｎｑｕ１７－１ｈａｏ　ｎｉｎｇｄｅｓｈｉ　ｆｕｊｉａｎｓｈｅｎｇ　３５５３００　ＣＮ,,,,,,2023-09-13,1,,,,,ニンデプシダポンイエカギヨウシェンゴンスー,0
1522,6700150120208,新規,0,2023-09-13,2023-09-13,ｓｈｅｎｚｈｅｎｓｈｉｓｈｅｎｇｔｉａｎｗｅｉｙｉｎｓｈｕａｂａｏｚｈｕａｎｇｙｏｕｘｉａｎｇｏｎｇｓｉ,,外国会社等,,,,,,,,ｇｏｎｇｍｉｎｇｊｉｅｄａｏｍｉｎｓｈｅｎｇｇｏｎｇｙｅｃｈｅｎｇ１１１ｄｏｎｇ　ｓｈｅｎｚｈｅｎ　ｇｕａｎｇｍｉｎｇｘｉｎｑｕ　ｇｕａｎｇｄｏｎｇ　５１８０００　ＣＮ,,,,,,2023-09-13,1,,,,,シェンジェンシーションティエンウェイインシュワーバオジュワンヨウシエンゴンスー,0
1530,7010001238433,新規,0,2023-09-13,2023-09-13,スマイルジャパンコンサルティング株式会社,,株式会社,東京都,千代田区,丸の内１丁目１番３号日本生命丸の内ガーデンタワー３Ｆ,,13,101,1000005,,,,,,,2023-09-13,1,,,,,スマイルジャパンコンサルティング,0
1531,7010001238458,新規,0,2023-09-13,2023-09-13,龍潤実業株式会社,,株式会社,東京都,千代田区,神田佐久間町１丁目８－４アルテール秋葉原８０３,,13,101,1010025,,,,,,,2023-09-13,1,,,,,リュウジュンジツギョウ,0
1532,7010001238474,新規,0,2023-09-13,2023-09-13,イスモ株式会社,,株式会社,東京都,中央区,銀座１丁目２２番１１号銀座大竹ビジデンス２Ｆ,,13,102,1040061,,,,,,,2023-09-13,1,,,,,イスモ,0
1543,7010003041637,新規,0,2023-09-13,2023-09-13,マツリカゲームズ合同会社,,合同会社,東京都,中央区,日本橋室町１丁目１１番１２号日本橋水野ビル７階,,13,102,1030022,,,,,,,2023-09-13,1,,,,,マツリカゲームズ,0
1544,7010003041645,新規,0,2023-09-13,2023-09-13,合同会社スタジオこわね,,合同会社,東京都,千代田区,九段南１丁目５番６号りそな九段ビル５ＦＫＳフロア,,13,101,1020074,,,,,,,2023-09-13,1,,,,,スタジオコワネ,0
1545,7010003041653,新規,0,2023-09-13,2023-09-13,合同会社松澤不動産研究所,,合同会社,東京都,中央区,銀座３丁目５番７号マツザワビル６階,,13,102,1040061,,,,,,,2023-09-13,1,,,,,マツザワフドウサンケンキュウジョ,0
1550,7010401177025,新規,0,2023-09-13,2023-09-13,株式会社ｃｏｓｐａｌ,,株式会社,東京都,港区,浜松町２丁目２番１５号浜松町ダイヤビル２Ｆ,,13,103,1050013,,,,,,,2023-09-13,1,,,,,コスパル,0
1551,7010401177157,新規,0,2023-09-13,2023-09-13,株式会社オズホールディングス,,株式会社,東京都,港区,浜松町１丁目２９番１０号,,13,103,1050013,,,,,,,2023-09-13,1,,,,,オズホールディングス,0
1552,7010401177207,新規,0,2023-09-13,2023-09-13,株式会社Ｌｉａｐｐｒｏａｃｈ,,株式会社,東京都,港区,北青山１丁目３番１号アールキューブ青山３階,,13,103,1070061,,,,,,,2023-09-13,1,,,,,リアプローチ,0
1554,7010403030941,新規,0,2023-09-13,2023-09-13,合同会社Ｌｉｔｔｌｅ　Ｓｔａｒ,,合同会社,東京都,港区,元赤坂１丁目１番７号,,13,103,1070051,,,,,,,2023-09-13,1,,,,,リトルスター,0
1555,7010501051022,新規,0,2023-09-13,2023-09-13,株式会社のはこ,,株式会社,東京都,台東区,寿１丁目１番９号,,13,106,1110042,,,,,,,2023-09-13,1,,,,,ノハコ,0
1561,7010601063784,新規,0,2023-09-13,2023-09-13,久和電子株式会社,,株式会社,東京都,墨田区,文花１丁目３４番１１－３０７号室,,13,107,1310044,,,,,,,2023-09-13,1,,,,,キュウワデンシ,0
1567,7010803004669,新規,0,2023-09-13,2023-09-13,ｎｏｎ‐ｇｅｎｉｕｓ合同会社,,合同会社,東京都,大田区,久が原４丁目１５番１０号,,13,111,1460085,,,,,,,2023-09-13,1,,,,,ノンジーニアス,0
1569,7010901053816,新規,0,2023-09-13,2023-09-13,シンワ株式会社,,株式会社,東京都,世田谷区,成城６丁目６番１号,,13,112,1570066,,,,,,,2023-09-13,1,,,,,シンワ,0
1578,7011001156864,新規,0,2023-09-13,2023-09-13,株式会社トリガーネット,,株式会社,東京都,渋谷区,道玄坂１丁目１０番８号渋谷道玄坂東急ビル２Ｆ－Ｃ,,13,113,1500043,,,,,,,2023-09-13,1,,,,,トリガーネット,0
1579,7011001156930,新規,0,2023-09-13,2023-09-13,株式会社リペアワーク,,株式会社,東京都,渋谷区,東３丁目１５番５号ＡＹビル３Ｆ,,13,113,1500011,,,,,,,2023-09-13,1,,,,,リペアワーク,0
1580,7011001156963,新規,0,2023-09-13,2023-09-13,株式会社ＴＫＴＲＵＳＴ,,株式会社,東京都,目黒区,中目黒４丁目６－６－１２０２,,13,110,1530061,,,,,,,2023-09-13,1,,,,,ティーケートラスト,0
1582,7011003017511,新規,0,2023-09-13,2023-09-13,合同会社気軽なソフト屋,,合同会社,東京都,渋谷区,渋谷２丁目１９－１５宮益坂ビルディング６０９,,13,113,1500002,,,,,,,2023-09-13,1,,,,,キガルナソフトヤ,0
1586,7011203004169,新規,0,2023-09-13,2023-09-13,ＧＡＩＡ合同会社,,合同会社,東京都,中野区,新井１丁目３番１５号,,13,114,1650026,,,,,,,2023-09-13,1,,,,,ガイア,0
1589,7011401025438,新規,0,2023-09-13,2023-09-13,株式会社アルファ・コーポレーション,,株式会社,東京都,板橋区,前野町３丁目１２番４号,,13,119,1740063,,,,,,,2023-09-13,1,,,,,アルファコーポレーション,0
1590,7011501029768,新規,0,2023-09-13,2023-09-13,株式会社テーブルライフ,,株式会社,東京都,荒川区,荒川３丁目３０番９号,,13,118,1160002,,,,,,,2023-09-13,1,,,,,テーブルライフ,0
1591,7011503005759,新規,0,2023-09-13,2023-09-13,ＭＩＴＨＵ　ＩＮＴＥＲＮＡＴＩＯＮＡＬ合同会社,,合同会社,東京都,北区,中十条２丁目９番１５号清武興業第一ビル２０２,,13,117,1140032,,,,,,,2023-09-13,1,,,,,ミトゥインターナショナル,0
1596,7011801043031,新規,0,2023-09-13,2023-09-13,株式会社ＤＴＭソリューション,,株式会社,東京都,足立区,加賀１丁目２１番９号ダイワ第２ビル１０１号,,13,121,1230861,,,,,,,2023-09-13,1,,,,,ディティエムソリューション,0
1607,7013301051332,新規,0,2023-09-13,2023-09-13,株式会社オフィス１１１０,,株式会社,東京都,豊島区,池袋４丁目１５番７号３０２号室,,13,116,1710014,,,,,,,2023-09-13,1,,,,,オフィスイチイチイチゼロ,0
1613,7020001153508,新規,0,2023-09-13,2023-09-13,株式会社ｍａｋｏｃｈａｎ,,株式会社,神奈川県,横浜市鶴見区,豊岡町３５－２パールコート鶴見３０３,,14,101,2300062,,,,,,,2023-09-13,1,,,,,マコチャン,0
1615,7020003024574,新規,0,2023-09-13,2023-09-13,佳通合同会社,,合同会社,神奈川県,横浜市鶴見区,生麦５丁目１６番５号Ｂ１,,14,101,2300052,,,,,,,2023-09-13,1,,,,,ヨシミチ,0
1616,7021001080163,新規,0,2023-09-13,2023-09-13,株式会社ＫＳ工業,,株式会社,神奈川県,横須賀市,太田和１丁目４３番１６号,,14,201,2380311,,,,,,,2023-09-13,1,,,,,ケーエスコウギョウ,0
1627,7030001155940,新規,0,2023-09-13,2023-09-13,株式会社森商事,,株式会社,埼玉県,川口市,大字安行慈林６１６番地の２,,11,203,3340071,,,,,,,2023-09-13,1,,,,,モリショウジ,0
1637,7040001130042,新規,0,2023-09-13,2023-09-13,ＮＥＷ　ＨＯＲＩＺＯＮ株式会社,,株式会社,千葉県,千葉市美浜区,幕張西１丁目９番２４号,,12,106,2610026,,,,,,,2023-09-13,1,,,,,ニューホライズン,0
1642,7040003023236,新規,0,2023-09-13,2023-09-13,合同会社ガヒコ,,合同会社,千葉県,佐倉市,表町３丁目８番地１９,,12,212,2850811,,,,,,,2023-09-13,1,,,,,ガヒコ,0
1643,7040003023319,新規,0,2023-09-13,2023-09-13,合同会社ヒマワリ商事,,合同会社,千葉県,千葉市花見川区,幕張本郷１丁目３１－１３インターホームズ幕張４０２号,,12,102,2620033,,,,,,,2023-09-13,1,,,,,ヒマワリショウジ,0
1645,7050001053449,新規,0,2023-09-13,2023-09-13,日本農産株式会社,,株式会社,茨城県,常総市,内守谷町２９５８－４,,08,211,3030043,,,,,,,2023-09-13,1,,,,,ニホンノウサン,0
1646,7050001053465,新規,0,2023-09-13,2023-09-13,株式会社なかむら,,株式会社,茨城県,水戸市,鯉淵町５６６３番地の１,,08,201,3190323,,,,,,,2023-09-13,1,,,,,ナカムラ,0
1647,7050001053481,新規,0,2023-09-13,2023-09-13,株式会社３Ｋ,,株式会社,茨城県,日立市,大みか町２丁目２５番４号宝ビル１Ｆ,,08,202,3191221,,,,,,,2023-09-13,1,,,,,スリーケー,0
1651,7060001036329,新規,0,2023-09-13,2023-09-13,ＫＭ　ＴＲＡＤＩＮＧ株式会社,,株式会社,栃木県,小山市,駅南町４丁目１３番１７号,,09,208,3230822,,,,,,,2023-09-13,1,,,,,ケーエムトレーディング,0
1652,7060001036337,新規,0,2023-09-13,2023-09-13,エフジェイ警備株式会社,,株式会社,栃木県,小山市,本郷町１丁目４番２３号前田ビル１階,,09,208,3230026,,,,,,,2023-09-13,1,,,,,エフジェイケイビ,0
1653,7060001036345,新規,0,2023-09-13,2023-09-13,株式会社小川工業,,株式会社,栃木県,宇都宮市,幕田町１０５６番地８,,09,201,3210157,,,,,,,2023-09-13,1,,,,,オガワコウギョウ,0
1660,7070003005099,新規,0,2023-09-13,2023-09-13,Ｄｒ．ｓｔｙｌｅ合同会社,,合同会社,群馬県,太田市,小舞木町５５１番地１ＯＫビルＶＩＩ１０２,00131898,10,205,3730818,,,,,,,2023-09-13,1,,,,,ドクタースタイル,0
1661,7070005010171,新規,0,2023-09-13,2023-09-13,社会保険労務士法人松本事務所,,その他の設立登記法人,群馬県,安中市,松井田町人見１６１番地７,,10,211,3790224,,,,,,,2023-09-13,1,,,,,シャカイホケンロウムシマツモトジムショ,0
1662,7100001036778,新規,0,2023-09-13,2023-09-13,エムズプラン株式会社,,株式会社,長野県,塩尻市,大字広丘高出１５６３番地２２,,20,215,3990703,,,,,,,2023-09-13,1,,,,,エムズプラン,0
1676,7120001257967,新規,0,2023-09-13,2023-09-13,元興株式会社,,株式会社,大阪府,大阪市東淀川区,東中島４丁目１－１１シャンボール第３新大阪８０７号室,,27,114,5330033,,,,,,,2023-09-13,1,,,,,ゲンコウ,0
1677,7120001258024,新規,0,2023-09-13,2023-09-13,協和デンタル株式会社,,株式会社,大阪府,枚方市,北中振１丁目２２番８－１０５号,,27,210,5730064,,,,,,,2023-09-13,1,,,,,キョウワデンタル,0
1689,7120101068199,新規,0,2023-09-13,2023-09-13,株式会社ＳＡＹＡＭＡ,,株式会社,大阪府,大阪狭山市,半田３丁目３６１番地の１（２１４号）,,27,231,5890011,,,,,,,2023-09-13,1,,,,,サヤマ,0
1692,7120103005431,新規,0,2023-09-13,2023-09-13,ＢＲＩＮＧ合同会社,,合同会社,大阪府,堺市東区,大美野５１番地３１,,27,143,5998126,,,,,,,2023-09-13,1,,,,,ブリング,0
1693,7120901048045,新規,0,2023-09-13,2023-09-13,ＴＫ株式会社,,株式会社,大阪府,茨木市,中穂積１丁目５番レックスマンションＢ棟２０３号,,27,211,5670034,,,,,,,2023-09-13,1,,,,,ティーケー,0
1698,7120903004830,新規,0,2023-09-13,2023-09-13,合同会社りずむ,,合同会社,大阪府,箕面市,箕面４丁目１１番２１‐１０１号,,27,220,5620001,,,,,,,2023-09-13,1,,,,,リズム,0
1700,7130001075138,新規,0,2023-09-13,2023-09-13,株式会社松下製作所,,株式会社,京都府,京都市南区,久世築山町３５９－１,,26,107,6018203,,,,,,,2023-09-13,1,,,,,マツシタセイサクショ,0
1701,7130001075154,新規,0,2023-09-13,2023-09-13,株式会社ＳＵＮＦＩＥＬＤ,,株式会社,京都府,京都市伏見区,竹田藁屋町４５番地ＳＯＵＢＩ．ＢＬＤ２Ａ,,26,109,6128443,,,,,,,2023-09-13,1,,,,,サンフィールド,0
1702,7130001075162,新規,0,2023-09-13,2023-09-13,ハプキタス株式会社,,株式会社,京都府,京都市伏見区,桃山町西尾３７番地プレサンスレジェンド六地蔵４０２,,26,109,6128003,,,,,,,2023-09-13,1,,,,,ハプキタス,0
1703,7130001075170,新規,0,2023-09-13,2023-09-13,京都キャピタルパートナーズ株式会社,,株式会社,京都府,京都市下京区,烏丸通松原上る薬師前町７００番地,,26,106,6008416,,,,,,,2023-09-13,1,,,,,キョウトキャピタルパートナーズ,0
1704,7130001075187,新規,0,2023-09-13,2023-09-13,株式会社スマートサポーターシス・テム,,株式会社,京都府,京都市南区,吉祥院東砂ノ町５３番地３０３号,,26,107,6018334,,,,,,,2023-09-13,1,,,,,スマートサポーターシステム,0
1705,7130001075245,新規,0,2023-09-13,2023-09-13,株式会社ＣＯＲＡＬ,,株式会社,京都府,京都市左京区,高野東開町１１－２光ビル１Ｆ,,26,103,6068107,,,,,,,2023-09-13,1,,,,,コーラル,0
1707,7130003008954,新規,0,2023-09-13,2023-09-13,合同会社明創,,合同会社,京都府,京都市上京区,中御門横町５７６サンローズ２０５号,,26,102,6028136,,,,,,,2023-09-13,1,,,,,メイソウ,0
1708,7130003008970,新規,0,2023-09-13,2023-09-13,合同会社Ｒｙｕｈｏ,,合同会社,京都府,京都市下京区,梅小路西中町３９番地４,,26,106,6008854,,,,,,,2023-09-13,1,,,,,リュウホウ,0
1709,7130005016872,新規,0,2023-09-13,2023-09-13,一般社団法人ＣＯＳＭＯ,,その他の設立登記法人,京都府,京都市西京区,上桂森下町１番地１２１,,26,111,6158225,,,,,,,2023-09-13,1,,,,,コスモ,0
1727,7180001158004,新規,0,2023-09-13,2023-09-13,株式会社アセットアプレイザル名古屋,,株式会社,愛知県,名古屋市東区,東桜１丁目３番７号,,23,102,4610005,,,,,,,2023-09-13,1,,,,,アセットアプレイザルナゴヤ,0
1730,7180003025739,新規,0,2023-09-13,2023-09-13,合同会社Ｙ’ｓ　ｃｏｎｎｅｃｔｉｏｎ,,合同会社,愛知県,名古屋市守山区,西城１丁目１１番２６号,,23,113,4630084,,,,,,,2023-09-13,1,,,,,ワイズコネクション,0
1738,7200001041719,新規,0,2023-09-13,2023-09-13,株式会社ＩＢＣ．,,株式会社,岐阜県,岐阜市,都通３丁目１番地アップルビル６－Ｄ,,21,201,5008309,,,,,,,2023-09-13,1,,,,,アイビーシー,0
1740,7200003006083,新規,0,2023-09-13,2023-09-13,ＲＥＳＩＳＴＡＮＴ合同会社,,合同会社,岐阜県,揖斐郡大野町,大字中之元５３０－６,,21,403,5010565,,,,,,,2023-09-13,1,,,,,レジスタント,0
1741,7240001062117,新規,0,2023-09-13,2023-09-13,株式会社マイペンライ,,株式会社,広島県,福山市,瀬戸町地頭分２５０９番地,,34,207,7210000,,,,,,,2023-09-13,1,,,,,マイペンライ,0
1742,7240001062125,新規,0,2023-09-13,2023-09-13,株式会社香林工業,,株式会社,広島県,呉市,音戸町波多見６丁目５番２３号,,34,202,7371207,,,,,,,2023-09-13,1,,,,,コウリンコウギョウ,0
1746,7250003003349,新規,0,2023-09-13,2023-09-13,合同会社デジタルボーイ,,合同会社,山口県,山口市,大内長野１９１９番地１,,35,203,7530211,,,,,,,2023-09-13,1,,,,,デジタルボーイ,0
1755,7290001103007,新規,0,2023-09-13,2023-09-13,株式会社ＵＣＯＣＯ,,株式会社,福岡県,福岡市中央区,今泉１丁目１２番８号,,40,133,8100021,,,,,,,2023-09-13,1,,,,,ウココ,0
1763,7340001025897,新規,0,2023-09-13,2023-09-13,株式会社Ｎｅｗｔｒａｌ,,株式会社,鹿児島県,曽於郡大崎町,假宿３３７１番地２,,46,468,8997305,,,,,,,2023-09-13,1,,,,,ニュートラル,0
1767,7340005009657,新規,0,2023-09-13,2023-09-13,医療法人ＯＫＣ,,その他の設立登記法人,鹿児島県,鹿屋市,旭原町３５９２－１４,,46,203,8930022,,,,,,,2023-09-13,1,,,,,オーケーシー,0
1771,7370001050414,新規,0,2023-09-13,2023-09-13,株式会社ｉ３ＰＲＩＮＴＩＮＧＨＯＵＳＥ,,株式会社,宮城県,仙台市青葉区,花京院１丁目２－１５ソララプラザ３階ＳＰＡＣＥＳ．,,04,101,9800013,,,,,,,2023-09-13,1,,,,,アイスリープリンティングハウス,0
1773,7370003006265,新規,0,2023-09-13,2023-09-13,アベワークス合同会社,,合同会社,宮城県,大崎市,鹿島台平渡字銭神１７８番地１０,,04,215,9894103,,,,,,,2023-09-13,1,,,,,アベワークス,0
1774,7370003006281,新規,0,2023-09-13,2023-09-13,合同会社シュール,,合同会社,宮城県,仙台市泉区,松森字明神３０番地の５０ＭＳＫコートＩＩ３０２号,00131896,04,105,9813111,,,,,,,2023-09-13,1,,,,,シュール,0
1776,7380001033979,新規,0,2023-09-13,2023-09-13,開良建設株式会社,,株式会社,福島県,郡山市,台新２丁目１８番６号,,07,203,9638852,,,,,,,2023-09-13,1,,,,,カイリョウケンセツ,0
1782,7430001089974,新規,0,2023-09-13,2023-09-13,Ｋｎａｃｌａｍｐ株式会社,,株式会社,北海道,江別市,文京台６６番地の７－１０７,,01,217,0690833,,,,,,,2023-09-13,1,,,,,ナックランプ,0
1783,7430001089982,新規,0,2023-09-13,2023-09-13,株式会社みよしのホールディングス,,株式会社,北海道,札幌市中央区,宮の森二条１６丁目６番５号,,01,101,0640952,,,,,,,2023-09-13,1,,,,,ミヨシノホールディングス,0
1785,7450001014088,新規,0,2023-09-13,2023-09-13,株式会社ランマーケット,,株式会社,北海道,旭川市,物流団地二条１丁目３番４号,,01,204,0718139,,,,,,,2023-09-13,1,,,,,ランマーケット,0
1789,7480001012205,新規,0,2023-09-13,2023-09-13,株式会社ナレッジマネジメント,,株式会社,徳島県,名西郡石井町,高原字平島３６６番地の１,,36,341,7793203,,,,,,,2023-09-13,1,,,,,ナレッジマネジメント,0
1790,7480003002022,新規,0,2023-09-13,2023-09-13,合同会社ＳＥＩ,,合同会社,徳島県,徳島市,新内町１丁目６番地,,36,201,7700845,,,,,,,2023-09-13,1,,,,,エスイーアイ,0
1794,7700150119141,新規,0,2023-09-13,2023-08-21,中目黒ＧＴ　管理組合,,その他,東京都,目黒区,上目黒２丁目１－１,,13,110,1530051,,,,,,,2023-08-21,1,,,,,ナカメグロジーテイーカンリクミアイ,0
1795,7700150119521,新規,0,2023-09-13,2023-08-29,国包船町簡易水道組合,,その他,兵庫県,加古川市,上荘町国包１７７,,28,210,6751213,,,,,,,2023-08-29,1,,,,,クニカネフナマチカンイスイドウクミアイ,0
1796,7700150120198,新規,0,2023-09-13,2023-09-13,Ｓｈａｎｇｈａｉ　Ｙｕａｎｘｉ　Ｔｒａｄｉｎｇ　Ｃｏ．，Ｌｔｄ．,,外国会社等,,,,,,,,Ｆｅｎｇｃｈｅｎｇ　Ｔｏｗｎ，Ｆｅｎｇｘｉａｎ　Ｄｉｓｔｒｉｃｔ　Ｂｕｉｌｄｉｎｇ　４，Ｎｏ．６８４，Ｎａｎｆｅｎｇ　Ｈｉｇｈｗａｙ　Ｓｈａｎｇｈａｉ　２０１４００　ＣＮ,,,,,,2023-09-13,1,,,,,シャンハイユェンシトレーディングカンパニーリミテッド,0
1797,7700150120207,新規,0,2023-09-13,2023-09-13,ＸｉＹａＨａｉ（ＱｉｎｇＤａｏ）ＭａｏＹｉＹｏｕＸｉａｎＧｏｎｇＳｉ,,外国会社等,,,,,,,,ＬｉＣａｎｇＱｕＪｉｕＳｈｕｉＤｏｎｇＬｕ１９１Ｈａｏ　６ＨａｏＬｏｕ２ＤａｎＹｕａｎ２１０４Ｈｕ　ＱｉｎｇＤａｏ　ＳｈａｎＤｏｎｇ　２６６１９９　ＣＮ,,,,,,2023-09-13,1,,,,,シーヤーハイチンダオマオイーヨウシエンゴンスー,0
1804,8010001238382,新規,0,2023-09-13,2023-09-13,株式会社ＫＰＩホールディングス,,株式会社,東京都,中央区,銀座８丁目１５番２号,,13,102,1040061,,,,,,,2023-09-13,1,,,,,ケイピイアイホールディングス,0
1805,8010001238408,新規,0,2023-09-13,2023-09-13,セブンファーム株式会社,,株式会社,東京都,中央区,銀座８丁目５番６号中島ビル４Ｆ,,13,102,1040061,,,,,,,2023-09-13,1,,,,,セブンファーム,0
1806,8010001238432,新規,0,2023-09-13,2023-09-13,久運株式会社,,株式会社,東京都,千代田区,神田三崎町２丁目１０番１１号ＰＥＧビル５Ａ－３,,13,101,1010061,,,,,,,2023-09-13,1,,,,,ジューユゥン,0
1807,8010001238440,新規,0,2023-09-13,2023-09-13,ＣＣＨ７ｃ株式会社,,株式会社,東京都,千代田区,一番町２番地,,13,101,1020082,,,,,,,2023-09-13,1,,,,,シーシーエイチセブンシー,0
1808,8010001238465,新規,0,2023-09-13,2023-09-13,株式会社ケーナイン,,株式会社,東京都,中央区,銀座１丁目１２－４Ｎ＆ＥＢＬＤ．７階,,13,102,1040061,,,,,,,2023-09-13,1,,,,,ケーナイン,0
1809,8010001238473,新規,0,2023-09-13,2023-09-13,株式会社ＥＬ　ｆｉｒｓｔ,,株式会社,東京都,千代田区,外神田３丁目１１番１１号,,13,101,1010021,,,,,,,2023-09-13,1,,,,,エルファースト,0
1810,8010001238481,新規,0,2023-09-13,2023-09-13,平内風力開発株式会社,,株式会社,東京都,千代田区,霞が関３丁目２番５号,,13,101,1000013,,,,,,,2023-09-13,1,,,,,ヒラナイフウリョクカイハツ,0
1811,8010001238498,新規,0,2023-09-13,2023-09-13,株式会社ＳＡＲ,,株式会社,東京都,中央区,銀座１丁目２２番１１号銀座大竹ビジデンス２Ｆ,,13,102,1040061,,,,,,,2023-09-13,1,,,,,エスエーアール,0
1813,8010003041660,新規,0,2023-09-13,2023-09-13,合同会社ネクスト,,合同会社,東京都,千代田区,東神田２丁目９番１２－６０４号,,13,101,1010031,,,,,,,2023-09-13,1,,,,,ネクスト,0
1821,8010401176983,新規,0,2023-09-13,2023-09-13,株式会社Ｓｔｅｌｌａｒ,,株式会社,東京都,港区,南青山２丁目２番１５号ウィン青山９４２,,13,103,1070062,,,,,,,2023-09-13,1,,,,,ステラ,0
1822,8010401177081,新規,0,2023-09-13,2023-09-13,ＲＩＣＨＣＥＲＡ　Ｐ＆Ｈ株式会社,,株式会社,東京都,港区,六本木６丁目２番３１号ＲｏｐｐｏｎｇｉＨｉｌｌｓＮｏｒｔｈＴｏｗｅｒ１７Ｆ,,13,103,1060032,,,,,,,2023-09-13,1,,,,,リッチセラピーアンドエイチ,0
1823,8010401177115,新規,0,2023-09-13,2023-09-13,株式会社エムティエム,,株式会社,東京都,港区,浜松町２丁目２番１５号浜松町ダイヤビル２Ｆ,,13,103,1050013,,,,,,,2023-09-13,1,,,,,エムティエム,0
1824,8010401177131,新規,0,2023-09-13,2023-09-13,ＶＯＬＵＭＥＮＵＴＳ株式会社,,株式会社,東京都,港区,南青山３丁目１－３６青山丸竹ビル６階,,13,103,1070062,,,,,,,2023-09-13,1,,,,,ヴォリュームナッツ,0
1825,8010401177156,新規,0,2023-09-13,2023-09-13,株式会社ＫＤＰ,,株式会社,東京都,港区,六本木４丁目３番１１号六本木ユニハウス２２３,,13,103,1060032,,,,,,,2023-09-13,1,,,,,ケーディーピー,0
1826,8010401177189,新規,0,2023-09-13,2023-09-13,株式会社アタッチ,,株式会社,東京都,港区,虎ノ門４丁目１番２８号虎ノ門タワーズオフィス１９Ｆ,,13,103,1050001,,,,,,,2023-09-13,1,,,,,アタッチ,0
1827,8010403030908,新規,0,2023-09-13,2023-09-13,ＰＭＰ合同会社,,合同会社,東京都,港区,北青山２丁目７－１３プラセオ青山ビル３階,,13,103,1070061,,,,,,,2023-09-13,1,,,,,ピーエムピー,0
1828,8010403030932,新規,0,2023-09-13,2023-09-13,合同会社ＳＨＩＮＧ,,合同会社,東京都,港区,北青山１丁目３番１号アールキューブ青山３階,,13,103,1070061,,,,,,,2023-09-13,1,,,,,シング,0
1829,8010403030940,新規,0,2023-09-13,2023-09-13,合同会社トライブベース,,合同会社,東京都,港区,浜松町２丁目２－１５－２Ｆ,,13,103,1050013,,,,,,,2023-09-13,1,,,,,トライブベース,0
1830,8010501050980,新規,0,2023-09-13,2023-09-13,ワークフォース株式会社,,株式会社,東京都,台東区,浅草橋１丁目９番１３号,,13,106,1110053,,,,,,,2023-09-13,1,,,,,ワークフォース,0
1831,8010501051038,新規,0,2023-09-13,2023-09-13,株式会社デジタルアミューズメント,,株式会社,東京都,台東区,元浅草３丁目１３－１２Ｕビル４階,,13,106,1110041,,,,,,,2023-09-13,1,,,,,デジタルアミューズメント,0
1837,8010601063767,新規,0,2023-09-13,2023-09-13,株式会社キューブ,,株式会社,東京都,墨田区,本所２丁目１１番１３号,,13,107,1300004,,,,,,,2023-09-13,1,,,,,キューブ,0
1839,8011001156822,新規,0,2023-09-13,2023-09-13,Ｔｏｋｙｏ　Ｔｒａｄｉｎｇ　ａｎｄ　Ｓｅｒｖｉｃｉｎｇ株式会社,,株式会社,東京都,渋谷区,富ヶ谷１丁目１４－１４スタンフォードアネックスビル３階,,13,113,1510063,,,,,,,2023-09-13,1,,,,,トウキョウトレーディングアンドサービシング,0
1841,8011003017543,新規,0,2023-09-13,2023-09-13,合同会社イトシス,,合同会社,東京都,渋谷区,道玄坂１丁目１０番８号渋谷道玄坂東急ビル２Ｆ－Ｃ,,13,113,1500043,,,,,,,2023-09-13,1,,,,,イトシス,0
1845,8011101104326,新規,0,2023-09-13,2023-09-13,株式会社伶和,,株式会社,東京都,新宿区,袋町３番地,,13,104,1620828,,,,,,,2023-09-13,1,,,,,レイワ,0
1849,8011601027118,新規,0,2023-09-13,2023-09-13,株式会社７０１０,,株式会社,東京都,練馬区,南大泉２丁目１４番６号,,13,120,1780064,,,,,,,2023-09-13,1,,,,,ナナマルヒトマル,0
1850,8011603004024,新規,0,2023-09-13,2023-09-13,合同会社古賀悠斗,,合同会社,東京都,練馬区,春日町１丁目３－２０プライマル練馬豊島園６０９,,13,120,1790074,,,,,,,2023-09-13,1,,,,,コガユウト,0
1855,8012403006177,新規,0,2023-09-13,2023-09-13,合同会社ＨＩＤｅｓｉｇｎ,,合同会社,東京都,三鷹市,牟礼４丁目１３番３－２１０５号,,13,204,1810002,,,,,,,2023-09-13,1,,,,,エイチアイデザイン,0
1858,8012703002792,新規,0,2023-09-13,2023-09-13,合同会社ファースト,,合同会社,東京都,小平市,鈴木町２丁目８４４番地の２,,13,211,1870011,,,,,,,2023-09-13,1,,,,,ファースト,0
1859,8012803003179,新規,0,2023-09-13,2023-09-13,合同会社３ｅ,,合同会社,東京都,立川市,錦町１丁目１番４号サニービル２ＦＣＳ‐１８２,,13,202,1900022,,,,,,,2023-09-13,1,,,,,スリーイー,0
1870,8021001080162,新規,0,2023-09-13,2023-09-13,株式会社ｉＤｅａｌ,,株式会社,神奈川県,藤沢市,鵠沼神明４丁目２－１サンフラット湘南ＩＩ２０１,00131899,14,205,2510021,,,,,,,2023-09-13,1,,,,,アイディール,0
1886,8040001130058,新規,0,2023-09-13,2023-09-13,株式会社ＧＡＤ,,株式会社,千葉県,大網白里市,みどりが丘３丁目２１番地３８,,12,239,2993255,,,,,,,2023-09-13,1,,,,,ジーエーディー,0
1887,8040001130066,新規,0,2023-09-13,2023-09-13,株式会社イコール,,株式会社,千葉県,船橋市,夏見３丁目２９番１２号,,12,204,2730865,,,,,,,2023-09-13,1,,,,,イコール,0
1892,8060001036336,新規,0,2023-09-13,2023-09-13,株式会社Ｗｉｎｇ,,株式会社,栃木県,芳賀郡益子町,大字長堤１０番地,,09,342,3214225,,,,,,,2023-09-13,1,,,,,ウイング,0
1897,8070001040873,新規,0,2023-09-13,2023-09-13,株式会社ダイスフル,,株式会社,群馬県,高崎市,本町４８,,10,202,3700813,,,,,,,2023-09-13,1,,,,,ダイスフル,0
1902,8080103002886,新規,0,2023-09-13,2023-09-13,Ｅｖｅｒｌａｓｔｉｎｇ　Ｊｏｕｒｎｅｙ合同会社,,合同会社,静岡県,三島市,東大場１丁目１８－１３,,22,206,4110802,,,,,,,2023-09-13,1,,,,,エバーラスティングジャーニー,0
1904,8080401026728,新規,0,2023-09-13,2023-09-13,株式会社スクーデリアヴェロチッタ,,株式会社,静岡県,浜松市西区,深萩町３０４番地の１８２,,22,133,4311201,,,,,,,2023-09-13,1,,,,,スクーデリアヴェロチッタ,0
1909,8100001036777,新規,0,2023-09-13,2023-09-13,株式会社Ｌｉｂｅｒｔａ,,株式会社,長野県,諏訪市,大字中洲３１０５番地５,,20,206,3920015,,,,,,,2023-09-13,1,,,,,リベルタ,0
1911,8100003007181,新規,0,2023-09-13,2023-09-13,合同会社クロヤナギ商会,,合同会社,長野県,長野市,南石堂町１３２３番地５第五滝沢無線駅前ビル１Ｆ,,20,201,3810000,,,,,,,2023-09-13,1,,,,,クロヤナギショウカイ,0
1921,8120001257850,新規,0,2023-09-13,2023-09-13,株式会社ノースデザイン,,株式会社,大阪府,大阪市東淀川区,豊里１丁目２番３６号,,27,114,5330013,,,,,,,2023-09-13,1,,,,,ノースデザイン,0
1922,8120001257966,新規,0,2023-09-13,2023-09-13,修斎株式会社,,株式会社,大阪府,大阪市平野区,平野市町１丁目１－１３申野オフィス２０２号室,,27,126,5470042,,,,,,,2023-09-13,1,,,,,シュウサイ,0
1934,8130001074576,新規,0,2023-09-13,2023-09-13,株式会社ＤＩＮＩＮＧＣＩＴＹ　ＪＡＰＡＮ,,株式会社,京都府,京都市中京区,壬生相合町５４－１０エスリード四条大宮４０５室,,26,104,6048812,,,,,,,2023-09-13,1,,,,,ダイニングシティジャパン,0
1935,8130001075137,新規,0,2023-09-13,2023-09-13,株式会社ベトカム,,株式会社,京都府,京都市北区,紫竹西野山町５６番地クレセント三宝１階南,,26,101,6038443,,,,,,,2023-09-13,1,,,,,ベトカム,0
1936,8130001075153,新規,0,2023-09-13,2023-09-13,株式会社礎ホールディングス,,株式会社,京都府,京都市中京区,堺町通御池下る丸木材木町６７０番地１,,26,104,6048106,,,,,,,2023-09-13,1,,,,,イシズエホールディングス,0
1942,8140001131599,新規,0,2023-09-13,2023-09-13,株式会社Ｒｕｎｉｔ,,株式会社,兵庫県,加古川市,東神吉町神吉１４９８－１,,28,210,6750057,,,,,,,2023-09-13,1,,,,,ルニット,0
1943,8140001131608,新規,0,2023-09-13,2023-09-13,株式会社ＺＥＲＯ,,株式会社,兵庫県,姫路市,栗山町９０番地パレ・ロワイヤル栗山８０３,,28,201,6700954,,,,,,,2023-09-13,1,,,,,ゼロ,0
1949,8140003019537,新規,0,2023-09-13,2023-09-13,Ｄａｖｋａ’ｓ　Ｃｏｎｓｕｌｔｉｎｇ合同会社,,合同会社,兵庫県,神戸市北区,鳴子２丁目１４番地の７,,28,109,6511133,,,,,,,2023-09-13,1,,,,,ダバカズコンサルティング,0
1950,8150001026708,新規,0,2023-09-13,2023-09-13,株式会社マティエール,,株式会社,奈良県,奈良市,中町４８４０－１,,29,201,6310052,,,,,,,2023-09-13,1,,,,,マティエール,0
1951,8150001026716,新規,0,2023-09-13,2023-09-13,株式会社ＫＨＤ,,株式会社,奈良県,奈良市,橋本町１６番地,,29,201,6308217,,,,,,,2023-09-13,1,,,,,ケイエイチディー,0
1958,8180001158011,新規,0,2023-09-13,2023-09-13,ＣＮホールディングス株式会社,,株式会社,愛知県,名古屋市中区,錦３丁目１９番１７号,,23,106,4600003,,,,,,,2023-09-13,1,,,,,シーエヌホールディングス,0
1959,8180001158036,新規,0,2023-09-13,2023-09-13,株式会社ＨＡＲＥＭ,,株式会社,愛知県,名古屋市中区,栄４丁目５番５号セントラル栄ビル７階,,23,106,4600008,,,,,,,2023-09-13,1,,,,,ハーレム,0
1962,8180003025688,新規,0,2023-09-13,2023-09-13,Ｊｉｎ合同会社,,合同会社,愛知県,尾張旭市,東大道町原田２６７２－７－Ｋ１０３,,23,226,4880801,,,,,,,2023-09-13,1,,,,,ジン,0
1964,8190001030730,新規,0,2023-09-13,2023-09-13,株式会社Ｄｏ　ＩＴ,,株式会社,三重県,鈴鹿市,岸岡町２６２６番地の１４４,,24,207,5100226,,,,,,,2023-09-13,1,,,,,ドゥーイット,0
1965,8190003004443,新規,0,2023-09-13,2023-09-13,合同会社ういずえがお,,合同会社,三重県,鈴鹿市,椿一宮町１６０６番地の３１,,24,207,5190312,,,,,,,2023-09-13,1,,,,,ウイズエガオ,0
1970,8200001041718,新規,0,2023-09-13,2023-09-13,株式会社ＭＡＣＨ,,株式会社,岐阜県,安八郡輪之内町,大藪２８１番地,,21,382,5030202,,,,,,,2023-09-13,1,,,,,マッハ,0
1972,8200003006082,新規,0,2023-09-13,2023-09-13,合同会社ファクト,,合同会社,岐阜県,岐阜市,矢島町１丁目４番１,,21,201,5008082,,,,,,,2023-09-13,1,,,,,ファクト,0
1976,8240001062108,新規,0,2023-09-13,2023-09-13,株式会社ＨＡＢＢＹ,,株式会社,広島県,広島市安芸区,上瀬野１丁目１７番１２号,,34,107,7390301,,,,,,,2023-09-13,1,,,,,ハービー,0
1977,8240001062116,新規,0,2023-09-13,2023-09-13,株式会社ＹＴＫ,,株式会社,広島県,広島市中区,中町９番９‐１７０２号,,34,101,7300037,,,,,,,2023-09-13,1,,,,,ワイティケイ,0
1978,8240001062124,新規,0,2023-09-13,2023-09-13,株式会社ＧＨＮＳ,,株式会社,広島県,広島市南区,京橋町１－７アスティ広島京橋ビルディング,,34,103,7320828,,,,,,,2023-09-13,1,,,,,,0
1979,8260001038295,新規,0,2023-09-13,2023-09-13,Ｋａｎａｍｅ　Ｃａｐｉｔａｌ　Ｊａｐａｎ株式会社,,株式会社,岡山県,岡山市北区,本町６番３６号第一セントラルビル４階,,33,101,7000901,,,,,,,2023-09-13,1,,,,,カナメキャピタルジャパン,0
1992,8290001102965,新規,0,2023-09-13,2023-09-13,株式会社龍野興業,,株式会社,福岡県,朝倉市,杷木星丸４３０番地,,40,228,8381504,,,,,,,2023-09-13,1,,,,,リュウノコウギョウ,0
1993,8290001102998,新規,0,2023-09-13,2023-09-13,株式会社らいふわーく,,株式会社,福岡県,八女郡広川町,大字新代１８７０番地１Ｋビル１０２号,,40,544,8340115,,,,,,,2023-09-13,1,,,,,ライフワーク,0
1994,8290001103006,新規,0,2023-09-13,2023-09-13,株式会社Ｃｙｇｎｕｓ,,株式会社,福岡県,福岡市中央区,赤坂３丁目１番１６号,,40,133,8100042,,,,,,,2023-09-13,1,,,,,シグナス,0
1997,8290003014325,新規,0,2023-09-13,2023-09-13,イムラアカウンティング・オフィス合同会社,,合同会社,福岡県,福岡市早良区,原１丁目１４－１２,,40,137,8140022,,,,,,,2023-09-13,1,,,,,イムラアカウンティングオフィス,0
1999,8300001013467,新規,0,2023-09-13,2023-09-13,株式会社ミネルバ,,株式会社,佐賀県,伊万里市,立花町２７０６番地１,,41,205,8480027,,,,,,,2023-09-13,1,,,,,ミネルバ,0
2002,8330003009964,新規,0,2023-09-13,2023-09-13,合同会社長沼計量士事務所,,合同会社,熊本県,熊本市中央区,帯山７丁目９番４８号,,43,101,8620924,,,,,,,2023-09-13,1,,,,,ナガヌマケイリョウシジムショ,0
2010,8350001018560,新規,0,2023-09-13,2023-09-13,株式会社三海,,株式会社,宮崎県,延岡市,岡富町７９８番地２１,,45,203,8820056,,,,,,,2023-09-13,1,,,,,サンカイ,0
2015,8350005006173,新規,0,2023-09-13,2023-09-13,特定非営利活動法人フェリーチェ,,その他の設立登記法人,宮崎県,日向市,亀崎２丁目３２番地,,45,206,8830066,,,,,,,2023-09-13,1,,,,,フェリーチェ,0
2018,8360001032528,新規,0,2023-09-13,2023-09-13,株式会社沖南,,株式会社,沖縄県,うるま市,字具志川２４５６番地１,,47,213,9042223,,,,,,,2023-09-13,1,,,,,オキナン,0
2019,8360001032544,新規,0,2023-09-13,2023-09-13,株式会社コイケ,,株式会社,沖縄県,糸満市,字糸満２２７７番地９,,47,210,9010361,,,,,,,2023-09-13,1,,,,,コイケ,0
2020,8370001050396,新規,0,2023-09-13,2023-09-13,ＷＡＧＹＵ　ＬＩＦＥ株式会社,,株式会社,宮城県,仙台市青葉区,国分町２丁目５－１３,,04,101,9800803,,,,,,,2023-09-13,1,,,,,ワギュウライフ,0
2021,8370001050405,新規,0,2023-09-13,2023-09-13,株式会社ＭＵＴ,,株式会社,宮城県,名取市,那智が丘１丁目１５番地の７,,04,207,9811244,,,,,,,2023-09-13,1,,,,,エムユーティー,0
2025,8380001033978,新規,0,2023-09-13,2023-09-13,株式会社エムケーアセット,,株式会社,福島県,いわき市,平字上川原９０番地２０７号室,,07,204,9708026,,,,,,,2023-09-13,1,,,,,エムケーアセット,0
2032,8430001089965,新規,0,2023-09-13,2023-09-13,株式会社スタームーン,,株式会社,北海道,札幌市東区,北五条東１０丁目１６番地４－１２０３号,,01,103,0650005,,,,,,,2023-09-13,1,,,,,スタームーン,0
2033,8430003015408,新規,0,2023-09-13,2023-09-13,合同会社理煌,,合同会社,北海道,札幌市中央区,南九条西１１丁目２番３－２０１号,,01,101,0640809,,,,,,,2023-09-13,1,,,,,リコウ,0
2034,8430003015424,新規,0,2023-09-13,2023-09-13,合同会社ＬＥＧＡＲＥＡ,,合同会社,北海道,札幌市中央区,南六条東１丁目９番地３,,01,101,0600056,,,,,,,2023-09-13,1,,,,,レガリア,0
2036,8450003002387,新規,0,2023-09-13,2023-09-13,合同会社ＥＰＩＫ,,合同会社,北海道,上川郡東神楽町,北一条西２丁目１０番１号,,01,453,0711511,,,,,,,2023-09-13,1,,,,,エピック,0
2041,8700150120197,新規,0,2023-09-13,2023-09-13,Ｆｏｓｈａｎ　Ｄａｏｋａｉ　Ｌｉｇｈｔｉｎｇ　Ｔｅｃｈｎｏｌｏｇｙ　Ｃｏ．，Ｌｔｄ．,,外国会社等,,,,,,,,Ｆａｃｔｏｒｙ　Ｗｏｒｋｓｈｏｐ　ｏｎ　７ｔｈ　Ｆｌｏｏｒ，Ｎｏ．１，８　Ａｌｌｅｙ，Ｅａｓｔ　Ｓｔｒｅｅｔ，Ｙｕａｎｗｕｂｉａｎ　Ｖｉｌｌａｇｅ，Ｈｅｓｈｕｎ，Ｌｉｓｈｕｉ　Ｔｏｗｎ，Ｎａｎｈａｉ　Ｄｉｓｔｒｉｃｔ，Ｆｏｓｈａｎ　Ｃｉｔｙ，Ｇｕａｎｇｄｏｎｇ　Ｐｒｏｖｉｎｃｅ（Ｒｅｓｉｄｅｎｃｅ　ｄｅｃｌａｒａｔｉｏｎ）　５２８２４１　ＣＮ,,,,,,2023-09-13,1,,,,,ブツザンダオカオライティングテクノロジーカンパニーリミテッド,0
2042,8700150120206,新規,0,2023-09-13,2023-09-13,ＣｈａｎｇＳｈａＳｈｉＮｉｎｇＸｉａｎｇＳｈｉＪｉｎＤｅＳａｎＣｉＦａｎｇＳｈａｎｇＭａｏＹｏｕＸｉａｎＧｏｎｇＳｉ,,外国会社等,,,,,,,,ｈｕｎａｎｓｈｅｎｇｃｈａｎｇｓｈａｓｈｉｎｉｎｇｘｉａｎｇｓｈｉｙｕｔａｎｊｉｅｄａｏｒｅｎｍｉｎｎａｎｌｕ２５ｈａｏ１ｄｏｎｇ２０５　４１０６００ＣＮ,,,,,,2023-09-13,1,,,,,ジャンシャーシーニンシャンシージンダーサンツーファンシャンマオヨウシエンゴンスー,0
2043,8700150120222,新規,0,2023-09-13,2023-09-13,下平間第三住宅団地マンション建替組合,,その他,東京都,港区,赤坂１丁目８番１号,,13,103,1070052,,,,,,,2023-09-13,1,,,,,シモヒラマダイサンジユウタクダンチマンシヨンタテカエクミアイ,0
2052,9010001238398,新規,0,2023-09-13,2023-09-13,株式会社ヒト・クリエイト,,株式会社,東京都,中央区,銀座１丁目２０－１６岡安ビル,,13,102,1040061,,,,,,,2023-09-13,1,,,,,ヒトクリエイト,0
2053,9010001238423,新規,0,2023-09-13,2023-09-13,ＭＢＤ　Ｐａｒｔｎｅｒｓ株式会社,,株式会社,東京都,千代田区,大手町１丁目４番２号,,13,101,1000004,,,,,,,2023-09-13,1,,,,,エムビーディーパートナーズ,0
2054,9010001238431,新規,0,2023-09-13,2023-09-13,株式会社Ｇｒｏｖｅ　Ｐａｒｔｎｅｒｓ,,株式会社,東京都,千代田区,麹町６丁目６番地２,,13,101,1020083,,,,,,,2023-09-13,1,,,,,グローブパートナーズ,0
2055,9010001238456,新規,0,2023-09-13,2023-09-13,株式会社アニュウインク,,株式会社,東京都,中央区,日本橋小舟町１４番７号,,13,102,1030024,,,,,,,2023-09-13,1,,,,,アニュウインク,0
2060,9010401177031,新規,0,2023-09-13,2023-09-13,株式会社ｃａｎａｐ’ｏｒａｎｇｅ,,株式会社,東京都,港区,北青山２丁目７番２０号猪瀬ビル２Ｆ,,13,103,1070061,,,,,,,2023-09-13,1,,,,,カナポランジェ,0
2061,9010401177114,新規,0,2023-09-13,2023-09-13,株式会社ＭＹＤＲＩＶＥ,,株式会社,東京都,港区,芝４丁目７番６号芝ビルディング７０４,,13,103,1080014,,,,,,,2023-09-13,1,,,,,マイドライブ,0
2062,9010401177163,新規,0,2023-09-13,2023-09-13,株式会社ＹＧホールディングス,,株式会社,東京都,港区,元麻布１丁目７番１２号,,13,103,1060046,,,,,,,2023-09-13,1,,,,,ワイジーホールディングス,0
2065,9010403030915,新規,0,2023-09-13,2023-09-13,合同会社ＴＳＭ１６１,,合同会社,東京都,港区,元赤坂１丁目１番７号,,13,103,1070051,,,,,,,2023-09-13,1,,,,,ティーエスエムヒャクロクジュウイチ,0
2066,9010503007136,新規,0,2023-09-13,2023-09-13,オリエンタルレジェンド合同会社,,合同会社,東京都,台東区,東浅草２丁目１０番８号,,13,106,1110025,,,,,,,2023-09-13,1,,,,,オリエンタルレジェンド,0
2067,9010601063782,新規,0,2023-09-13,2023-09-13,京原実業株式会社,,株式会社,東京都,江東区,北砂３丁目２８－１－４０３,,13,108,1360073,,,,,,,2023-09-13,1,,,,,キョウゲンジツギョウ,0
2071,9010803004675,新規,0,2023-09-13,2023-09-13,合同会社ｍｊｓ,,合同会社,東京都,大田区,田園調布１丁目３１番２４号,,13,111,1450071,,,,,,,2023-09-13,1,,,,,エムジェイエス,0
2073,9010901053806,新規,0,2023-09-13,2023-09-13,株式会社ジャングルクリエイションズ,,株式会社,東京都,世田谷区,代田１丁目２番１２号,,13,112,1550033,,,,,,,2023-09-13,1,,,,,ジャングルクリエイションズ,0
2076,9011001156879,新規,0,2023-09-13,2023-09-13,株式会社ユビッジャ・ポーポレーション,,株式会社,東京都,目黒区,碑文谷５丁目９－３トップ学芸大学第四５０７号室,,13,110,1520003,,,,,,,2023-09-13,1,,,,,ユビッジャポーポレーション,0
2077,9011001156887,新規,0,2023-09-13,2023-09-13,株式会社Ｌｉｋｅ　Ｌｉｆｅ,,株式会社,東京都,渋谷区,神宮前６丁目２３番４号桑野ビル２階,,13,113,1500001,,,,,,,2023-09-13,1,,,,,ライクライフ,0
2078,9011001156920,新規,0,2023-09-13,2023-09-13,株式会社ウェルメイド,,株式会社,東京都,目黒区,下目黒１丁目８番１号,,13,110,1530064,,,,,,,2023-09-13,1,,,,,ウェルメイド,0
2079,9011001156937,新規,0,2023-09-13,2023-09-13,株式会社ユラナス,,株式会社,東京都,渋谷区,桜丘町２３番１７号シティコート桜丘４０８,,13,113,1500031,,,,,,,2023-09-13,1,,,,,ユラナス,0
2081,9011005010181,新規,0,2023-09-13,2023-09-13,一般社団法人学生ｗｅｂ３連合,,その他の設立登記法人,東京都,渋谷区,宇田川町１－１２－２８０４,,13,113,1500042,,,,,,,2023-09-13,1,,,,,ガクセイウェブスリーレンゴウ,0
2089,9011101104259,新規,0,2023-09-13,2023-09-13,株式会社カシェイ,,株式会社,東京都,新宿区,高田馬場１丁目３２番１０号高田馬場創業支援センター,,13,104,1690075,,,,,,,2023-09-13,1,,,,,カシェイ,0
2090,9011101104333,新規,0,2023-09-13,2023-09-13,株式会社ＮＥＸＴ　ＴＨＩＲＤ　ＰＬＡＣＥ,,株式会社,東京都,新宿区,高田馬場１丁目３２番１０,,13,104,1690075,,,,,,,2023-09-13,1,,,,,,0
2091,9011101104366,新規,0,2023-09-13,2023-09-13,株式会社ワンアイ,,株式会社,東京都,新宿区,新宿１丁目３１－７－４０２,,13,104,1600022,,,,,,,2023-09-13,1,,,,,ワンアイ,0
2093,9011201024910,新規,0,2023-09-13,2023-09-13,株式会社リンク,,株式会社,東京都,中野区,本町２丁目３３番１号,,13,114,1640012,,,,,,,2023-09-13,1,,,,,リンク,0
2099,9011503005757,新規,0,2023-09-13,2023-09-13,合同会社ｆｒｏｍｆｅｅｔ,,合同会社,東京都,北区,志茂２丁目２１－６－１０５,,13,117,1150042,,,,,,,2023-09-13,1,,,,,フロムフィート,0
2100,9011601027117,新規,0,2023-09-13,2023-09-13,ＪＢＥ株式会社,,株式会社,東京都,練馬区,関町北５丁目６番７号関町マンション４０２Ｄ,,13,120,1770051,,,,,,,2023-09-13,1,,,,,ジェービーイー,0
2101,9011701026588,新規,0,2023-09-13,2023-09-13,イタキナ株式会社,,株式会社,東京都,江戸川区,北葛西２丁目３番１８号,,13,123,1340081,,,,,,,2023-09-13,1,,,,,イタキナ,0
2104,9012301013588,新規,0,2023-09-13,2023-09-13,株式会社オフィス緑山,,株式会社,東京都,町田市,三輪緑山３丁目２番地２,,13,209,1950055,,,,,,,2023-09-13,1,,,,,オフィスミドリヤマ,0
2107,9012701017841,新規,0,2023-09-13,2023-09-13,ＨＥＧ株式会社,,株式会社,東京都,西東京市,田無町４丁目７番１４号,,13,229,1880011,,,,,,,2023-09-13,1,,,,,ヘッグ,0
2108,9012805003218,新規,0,2023-09-13,2023-09-13,一般社団法人あたえあい,,その他の設立登記法人,東京都,立川市,富士見町１丁目２８番４号,,13,202,1900013,,,,,,,2023-09-13,1,,,,,アタエアイ,0
2110,9013301051330,新規,0,2023-09-13,2023-09-13,株式会社質実剛健,,株式会社,東京都,豊島区,池袋２丁目２３番１７号,,13,116,1710014,,,,,,,2023-09-13,1,,,,,シツジツゴウケン,0
2111,9013301051339,新規,0,2023-09-13,2023-09-13,フロムファースト株式会社,,株式会社,東京都,豊島区,西池袋４丁目２７番６号,,13,116,1710021,,,,,,,2023-09-13,1,,,,,フロムファースト,0
2119,9020001153464,新規,0,2023-09-13,2023-09-13,株式会社たんぽぽ四季の森,,株式会社,神奈川県,横浜市旭区,上白根町７７４番地１８１,,14,112,2410001,,,,,,,2023-09-13,1,,,,,タンポポシキノモリ,0
2120,9020001153480,新規,0,2023-09-13,2023-09-13,Ｃｕｒｅ＆Ｃａｒｅ　Ｌａｂ．株式会社,,株式会社,神奈川県,横浜市青葉区,みたけ台４５番地１,,14,117,2270047,,,,,,,2023-09-13,1,,,,,キュアケアラボ,0
2121,9020001153489,新規,0,2023-09-13,2023-09-13,株式会社ＳＹ,,株式会社,神奈川県,横浜市磯子区,洋光台５丁目８番１５号,,14,107,2350045,,,,,,,2023-09-13,1,,,,,エスワイ,0
2124,9020003024507,新規,0,2023-09-13,2023-09-13,ｍｉｉｍｏ合同会社,,合同会社,神奈川県,横浜市西区,北幸２丁目１０番地２８むつみビル３Ｆ,,14,103,2200004,,,,,,,2023-09-13,1,,,,,ミーモ,0
2136,9030001155781,新規,0,2023-09-13,2023-09-13,株式会社ルアナテック,,株式会社,埼玉県,さいたま市見沼区,大字中川１３５番地,,11,104,3370043,,,,,,,2023-09-13,1,,,,,ルアナテック,0
2137,9030001156020,新規,0,2023-09-13,2023-09-13,株式会社ＬＡＣ,,株式会社,埼玉県,さいたま市南区,根岸３丁目２５番１号,,11,108,3360024,,,,,,,2023-09-13,1,,,,,ラック,0
2151,9040001130049,新規,0,2023-09-13,2023-09-13,株式会社ウォータープルーフ,,株式会社,千葉県,流山市,向小金３丁目１３７番地２８,,12,220,2700143,,,,,,,2023-09-13,1,,,,,ウォータープルーフ,0
2152,9040001130081,新規,0,2023-09-13,2023-09-13,株式会社ＣＲＥＳＴ,,株式会社,千葉県,千葉市中央区,市場町６番地８クリスタルスクエアＩＮＯＨＡＮＡ０６２,,12,101,2600855,,,,,,,2023-09-13,1,,,,,クレスト,0
2155,9040003023309,新規,0,2023-09-13,2023-09-13,合同会社エイム,,合同会社,千葉県,松戸市,東松戸１丁目９番地の１３,,12,207,2702225,,,,,,,2023-09-13,1,,,,,エイム,0
2156,9040003023325,新規,0,2023-09-13,2023-09-13,平安合同会社,,合同会社,千葉県,習志野市,実籾３丁目２番７号ガーデンナカタ１０１,,12,216,2750002,,,,,,,2023-09-13,1,,,,,ヘイアン,0
2159,9050001053471,新規,0,2023-09-13,2023-09-13,株式会社タバ,,株式会社,茨城県,稲敷市,中山１３０７番地,,08,229,3001415,,,,,,,2023-09-13,1,,,,,タバ,0
2162,9060001036335,新規,0,2023-09-13,2023-09-13,株式会社アドバンス,,株式会社,栃木県,宇都宮市,城南２丁目１０番２号,,09,201,3210117,,,,,,,2023-09-13,1,,,,,アドバンス,0
2163,9060003004711,新規,0,2023-09-13,2023-09-13,ＰＲＩＴＡＭ　ＴＲＡＤＥＲＳ合同会社,,合同会社,栃木県,小山市,城北６丁目２７番地１キャッスル小山３０７号室,,09,208,3230029,,,,,,,2023-09-13,1,,,,,プリタムトレダス,0
2165,9070001040872,新規,0,2023-09-13,2023-09-13,株式会社スリーエイト,,株式会社,群馬県,高崎市,上佐野町９９番地１,,10,202,3700857,,,,,,,2023-09-13,1,,,,,スリーエイト,0
2171,9090001018306,新規,0,2023-09-13,2023-09-13,のっぷいフードラボ株式会社,,株式会社,山梨県,甲府市,青沼１丁目９番１５号,,19,201,4000867,,,,,,,2023-09-13,1,,,,,ノップイフードラボ,0
2183,9120001257965,新規,0,2023-09-13,2023-09-13,株式会社ＲＨアセット,,株式会社,大阪府,大阪市東住吉区,矢田１丁目９番２３号,,27,121,5460023,,,,,,,2023-09-13,1,,,,,アールエイチアセット,0
2184,9120001258014,新規,0,2023-09-13,2023-09-13,アットウィル株式会社,,株式会社,大阪府,大阪市西区,新町１丁目６番２３号,,27,106,5500013,,,,,,,2023-09-13,1,,,,,アットウィル,0
2186,9120101068189,新規,0,2023-09-13,2023-09-13,株式会社Ｍｅａ,,株式会社,大阪府,高石市,羽衣１丁目１７番１４号,,27,225,5920002,,,,,,,2023-09-13,1,,,,,メア,0
2188,9120901048043,新規,0,2023-09-13,2023-09-13,株式会社エルポート,,株式会社,大阪府,池田市,井口堂３丁目８番１１号,,27,204,5630023,,,,,,,2023-09-13,1,,,,,エルポート,0
2190,9120903004820,新規,0,2023-09-13,2023-09-13,合同会社ピースコミュニケーションズ,,合同会社,大阪府,吹田市,青山台３丁目１８－４,,27,205,5650875,,,,,,,2023-09-13,1,,,,,ピースコミュニケーションズ,0
2193,9130001075136,新規,0,2023-09-13,2023-09-13,株式会社プランユード,,株式会社,京都府,京都市伏見区,深草西川原町３６番地の１コトーハイツ伏見稲荷Ａ棟４２９号,,26,109,6120009,,,,,,,2023-09-13,1,,,,,プランユード,0
2194,9130001075160,新規,0,2023-09-13,2023-09-13,京都竹繊維株式会社,,株式会社,京都府,京都市中京区,御池通猪熊西入俵屋町２０５番地１,,26,104,6048311,,,,,,,2023-09-13,1,,,,,キョウトタケセンイ,0
2196,9130003008952,新規,0,2023-09-13,2023-09-13,合同会社皐月,,合同会社,京都府,京都市上京区,俵屋町４３０－１,,26,102,6020871,,,,,,,2023-09-13,1,,,,,サツキ,0
2197,9130003008977,新規,0,2023-09-13,2023-09-13,合同会社ＫＡＭＡＣＨＩ　ａｒｃｈｉｔｅｃｔ,,合同会社,京都府,京都市下京区,七条通油小路東入大黒町２２７番地第２キョートビル４０２,,26,106,6008223,,,,,,,2023-09-13,1,,,,,カマチアーキテクト,0
2202,9140001131598,新規,0,2023-09-13,2023-09-13,株式会社悠,,株式会社,兵庫県,姫路市,飾磨区加茂北１８番地３,,28,201,6728073,,,,,,,2023-09-13,1,,,,,,0
2203,9140001131607,新規,0,2023-09-13,2023-09-13,株式会社大嘉レザーグラインド,,株式会社,兵庫県,たつの市,龍野町堂本１３６番地１０,,28,229,6794129,,,,,,,2023-09-13,1,,,,,オオカレザーグラインド,0
2215,9180001157978,新規,0,2023-09-13,2023-09-13,浅井貿易株式会社,,株式会社,愛知県,清須市,新清洲４丁目１２番地１１,,23,233,4520943,,,,,,,2023-09-13,1,,,,,アサイボウエキ,0
2219,9180003025555,新規,0,2023-09-13,2023-09-13,日照商事合同会社,,合同会社,愛知県,名古屋市守山区,村前町９５番地,,23,113,4630082,,,,,,,2023-09-13,1,,,,,ニッショウショウジ,0
2220,9180301037806,新規,0,2023-09-13,2023-09-13,株式会社Ａｌｌ‐Ｔｅｒｒａｉｎ,,株式会社,愛知県,岡崎市,上和田町字城前２８番地,,23,202,4440201,,,,,,,2023-09-13,1,,,,,オールテレーン,0
2225,9200001041717,新規,0,2023-09-13,2023-09-13,株式会社Ｆｕｎ　ｂａｓｅ,,株式会社,岐阜県,岐阜市,旦島４丁目５番１１号,,21,201,5020926,,,,,,,2023-09-13,1,,,,,ファンベース,0
2226,9200001041725,新規,0,2023-09-13,2023-09-13,株式会社ＲＩＺＥ３０８,,株式会社,岐阜県,安八郡輪之内町,本戸村下２２９－１,,21,382,5030232,,,,,,,2023-09-13,1,,,,,ライズサンマルハチ,0
2227,9200003006081,新規,0,2023-09-13,2023-09-13,不二物流合同会社,,合同会社,岐阜県,羽島市,福寿町平方１３丁目６０番地,,21,209,5016257,,,,,,,2023-09-13,1,,,,,フジブツリュウ,0
2229,9210001019464,新規,0,2023-09-13,2023-09-13,つなぐ株式会社,,株式会社,福井県,越前市,五分市町第１２号３番地,,18,209,9150026,,,,,,,2023-09-13,1,,,,,ツナグ,0
2234,9240001062123,新規,0,2023-09-13,2023-09-13,八千代ホールディングス株式会社,,株式会社,広島県,広島市安佐北区,可部１丁目１番４号,,34,106,7310221,,,,,,,2023-09-13,1,,,,,ヤチヨホールディングス,0
2236,9240003006301,新規,0,2023-09-13,2023-09-13,合同会社ＫＯＮＪＩＫＩ,,合同会社,広島県,広島市安芸区,中野５丁目５－１８,,34,107,7390321,,,,,,,2023-09-13,1,,,,,コンジキ,0
2237,9240005015647,新規,0,2023-09-13,2023-09-13,医療法人緑康会,,その他の設立登記法人,広島県,廿日市市,宮内１５２８番地１０,,34,213,7380034,,,,,,,2023-09-13,1,,,,,リョクコウカイ,0
2246,9290001103005,新規,0,2023-09-13,2023-09-13,株式会社ＴＭクリエイト,,株式会社,福岡県,福岡市中央区,天神３丁目６－２０サクセスビル２階,,40,133,8100001,,,,,,,2023-09-13,1,,,,,ティーエムクリエイト,0
2255,9330001031242,新規,0,2023-09-13,2023-09-13,株式会社テラス会計,,株式会社,熊本県,熊本市東区,東野３丁目２１－８,,43,102,8612106,,,,,,,2023-09-13,1,,,,,テラスカイケイ,0
2263,9350001018535,新規,0,2023-09-13,2023-09-13,株式会社セイバーカンパニー,,株式会社,宮崎県,都城市,高城町桜木１４４３－５,,45,202,8851204,,,,,,,2023-09-13,1,,,,,セイバーカンパニー,0
2268,9360001032535,新規,0,2023-09-13,2023-09-13,株式会社Ｕ　ＰＡＤＲＩＮＯ,,株式会社,沖縄県,宮古島市,平良字下里３１０７番地４５２,,47,214,9060013,,,,,,,2023-09-13,1,,,,,ウパドリーノ,0
2269,9360001032543,新規,0,2023-09-13,2023-09-13,Ｔｈａｔ’ｓ　Ｖａｌｕｅｍｅｎ　ｉｎ　Ｒｙｕｋｙｕ株式会社,,株式会社,沖縄県,糸満市,字名城８４番,,47,210,9010351,,,,,,,2023-09-13,1,,,,,ザッツバリューメンインリュウキュウ,0
2271,9360003013285,新規,0,2023-09-13,2023-09-13,合同会社Ｌｅ　Ｍｏｎｄｅ,,合同会社,沖縄県,沖縄市,照屋１丁目１４－１５,,47,211,9040011,,,,,,,2023-09-13,1,,,,,ルモンド,0
2272,9370001050412,新規,0,2023-09-13,2023-09-13,株式会社クリエイトファーム栗原,,株式会社,宮城県,栗原市,栗駒芋埣倉沢７０番地,,04,213,9895332,,,,,,,2023-09-13,1,,,,,クリエイトファームクリハラ,0
2280,9400003003141,新規,0,2023-09-13,2023-09-13,いわてＢＩＺサポート合同会社,,合同会社,岩手県,一関市,大東町摺沢字但馬崎８０番地１,00131907,03,209,0290523,,,,,,,2023-09-13,1,,,,,イワテビズサポート,0
2285,9430001089972,新規,0,2023-09-13,2023-09-13,株式会社リペコ,,株式会社,北海道,札幌市豊平区,美園四条７丁目４－２２,,01,105,0620004,,,,,,,2023-09-13,1,,,,,リペコ,0
2286,9430003015431,新規,0,2023-09-13,2023-09-13,合同会社ＴＯＹＺ,,合同会社,北海道,小樽市,新光町３２４番地２５８,,01,203,0470153,,,,,,,2023-09-13,1,,,,,トイズ,0
2293,9500005008640,新規,0,2023-09-13,2023-09-13,てんやわんや市協同組合,,その他の設立登記法人,愛媛県,宇和島市,津島町高田甲８０８番地１,,38,203,7983302,,,,,,,2023-09-13,1,,,,,,0
2295,9700150059179,新規,0,2023-09-13,2015-10-09,福岡県乳用牛群改良検定組合連絡協議会,,その他,福岡県,福岡市博多区,博多駅前４丁目３２－１８,,40,132,8120011,,,,,,,2015-10-09,1,,,,,フクオカケンニユウヨウギユウグンカイリヨウケンテイクミアイレンラクキヨウギカイ,0
2296,9700150120196,新規,0,2023-09-13,2023-09-13,ｓｈｅｎｚｈｅｎｑｉａｎｈａｉｓｈｉｑｉｋｅｊｉ　ｙｏｕｘｉａｎｇｏｎｇｓｉ,,外国会社等,,,,,,,,Ｒｏｏｍ　２０１，Ｂｕｉｌｄｉｎｇ　Ａ，Ｎｏ．１　Ｑｉａｎｗａｎ　１ｓｔ　Ｒｏａｄ，Ｑｉａｎｈａｉ　Ｓｈｅｎｚｈｅｎ　Ｈｏｎｇ　Ｋｏｎｇ　Ｃｏｏｐｅｒａｔｉｏｎ　Ｚｏｎｅ，Ｓｈｅｎｚｈｅｎ（ｓｅｔｔｌｅｄ　ｉｎ　Ｓｈｅｎｚｈｅｎ　Ｑｉａｎｈａｉ　Ｂｕｓｉｎｅｓｓ　Ｓｅｃｒｅｔａｒｙ　Ｃｏ．，Ｌｔｄ．）　５１８１００　ＣＮ,,,,,,2023-09-13,1,,,,,シンセンチャンハイシチカギユウヨウシェンゴンスー,0
2297,9700150120205,新規,0,2023-09-13,2023-09-13,ｘｉａｍｅｎｊｉｕｑｉａｎｍｅｎｇｄｉａｎｚｉｓｈａｎｇｗｕｙｏｕｘｉａｎｇｏｎｇｓｉ,,外国会社等,,,,,,,,Ｘｉａｍｅｎｓｈｉ　ｊｉｍｅｉｑｕ　ｈｏｕｘｉｚｈｅｎ　ｄｕｉｙｉｎｇｙｉｌｉ１６ｈａｏ　２４０２ｄａｎｙｕａｎ,,,,,,2023-09-13,1,,,,,シャモンキュウセンムデンシショウムユウゲンコウシ,0
