sequenceNumber,corporateNumber,process,correct,updateDate,changeDate,name,nameImageId,kind,prefectureName,cityName,streetNumber,addressImageId,prefectureCode,cityCode,postCode,addressOutside,addressOutsideImageId,closeDate,closeCause,successorCorporateNumber,changeCause,assignmentDate,latest,enName,enPrefectureName,enCityName,enAddressOutside,furigana,hihyoji
9,1010401031988,登記記録の閉鎖等,0,2022-09-02,2022-08-31,ローマン美術印刷株式会社,,株式会社,神奈川県,茅ヶ崎市,幸町６番１６－１０８号キャロルマンション,,14,207,2530052,,,2022-08-31,清算の結了等,,,2015-10-05,1,,,,,,0
15,1010402029370,登記記録の閉鎖等,0,2022-09-02,2022-08-09,ムーアゲート・キャピタルアドバイザー有限会社,,有限会社,東京都,港区,南青山４丁目２１番３３号南青山ハウス７０４号,,13,103,1070062,,,2022-08-09,清算の結了等,,,2015-10-05,1,,,,,ムーアゲートキャピタルアドバイザー,0
21,1010701037826,登記記録の閉鎖等,0,2022-09-02,2022-08-31,株式会社ＲＩＮＫＡ,,株式会社,東京都,品川区,北品川１丁目９番７号トップルーム品川１０１５号,,13,109,1400001,,,2022-08-31,清算の結了等,,,2019-07-01,1,,,,,リンカ,0
33,1011002004425,登記記録の閉鎖等,0,2022-09-02,2022-08-18,有限会社国富商事,,有限会社,東京都,目黒区,大橋１丁目５番１号,,13,110,1530044,,,2022-08-18,清算の結了等,,,2015-10-05,1,,,,,クニトミショウジ,0
48,1011702010607,登記記録の閉鎖等,0,2022-09-02,2022-08-31,有限会社牧野商店,,有限会社,東京都,江戸川区,篠崎町８丁目１３番１１号,,13,123,1330061,,,2022-08-31,清算の結了等,,,2015-10-05,1,,,,,マキノショウテン,0
58,1013301044985,登記記録の閉鎖等,0,2022-09-02,2022-08-30,摩周湖ビール株式会社,,株式会社,東京都,豊島区,目白３丁目５番１３号,,13,116,1710031,,,2022-08-30,合併による解散等,6470001017742,令和４年８月１６日香川県高松市三条町６６１番地２株式会社ドローンロジスティクス＆ソリューションズ（6470001017742）に合併し解散,2020-01-07,1,,,,,マシュウコビール,0
60,1020001052426,登記記録の閉鎖等,0,2022-09-02,2022-08-31,株式会社三協テクノス,,株式会社,神奈川県,横浜市都筑区,中川中央１丁目２８番１９号,,14,118,2240003,,,2022-08-31,清算の結了等,,,2015-10-05,1,,,,,サンキョウテクノス,0
72,1021002039305,登記記録の閉鎖等,0,2022-09-02,2022-08-31,有限会社街創社,,有限会社,神奈川県,秦野市,本町３丁目３番１７号,,14,211,2570035,,,2022-08-31,清算の結了等,,,2015-10-05,1,,,,,ガイソウシャ,0
92,1070001000173,登記記録の閉鎖等,0,2022-09-02,2022-08-30,アトム塗料サービス株式会社,,株式会社,群馬県,前橋市,朝日町４丁目８番１号,,10,201,3710014,,,2022-08-30,清算の結了等,,,2015-10-05,1,,,,,アトムトリョウサービス,0
101,1100001031090,登記記録の閉鎖等,0,2022-09-02,2022-08-24,アスニナ株式会社,,株式会社,長野県,佐久市,塚原２３８５番２号,,20,217,3850025,,,2022-08-24,清算の結了等,,,2018-03-28,1,,,,,アスニナ,0
124,1130001021650,登記記録の閉鎖等,0,2022-09-02,2022-08-26,株式会社中央損害保険センター,,株式会社,京都府,京都市西京区,上桂前川町１１５番地ノーブルハウス１０１,,26,111,6158211,,,2022-08-26,清算の結了等,,,2015-10-05,1,,,,,チュウオウソンガイホケンセンター,0
134,1140005017768,登記記録の閉鎖等,0,2022-09-02,2022-08-17,天理教明五十九分教会,,その他の設立登記法人,兵庫県,小野市,池田町２１番地１９４,,28,218,6751303,,,2022-08-17,合併による解散等,6120005000523,令和４年８月１２日大阪市中央区龍造寺町８番１１号天理教明城大教会（6120005000523）に合併し解散,2015-10-05,1,,,,,テンリキョウメイゴジュウクブンキョウカイ,0
173,1240001006698,登記記録の閉鎖等,0,2022-09-02,2022-08-31,中國食品株式会社,,株式会社,広島県,広島市南区,的場町２丁目６番４－１１０１号,,34,103,7320824,,,2022-08-31,清算の結了等,,,2015-10-05,1,,,,,チュウゴクショクヒン,0
181,1250001001954,登記記録の閉鎖等,0,2022-09-02,2022-08-30,株式会社栗林商店,,株式会社,山口県,防府市,迫戸町２２番３１号,,35,206,7470031,,,2022-08-30,清算の結了等,,,2015-10-05,1,,,,,クリバヤシショウテン,0
182,1260001003000,登記記録の閉鎖等,0,2022-09-02,2022-08-31,株式会社さのや,,株式会社,岡山県,岡山市中区,高屋３５７番地１,,33,102,7038233,,,2022-08-31,清算の結了等,,,2015-10-05,1,,,,,サノヤ,0
184,1260001016233,登記記録の閉鎖等,0,2022-09-02,2022-08-29,株式会社エスケイ,,株式会社,岡山県,総社市,西坂台２１７番地,,33,208,7191165,,,2022-08-29,清算の結了等,,,2015-10-05,1,,,,,エスケイ,0
197,1290005007812,登記記録の閉鎖等,0,2022-09-02,2022-08-24,嘉穂旅客自動車協同組合,,その他の設立登記法人,福岡県,嘉麻市,鴨生２２７番地の１,,40,227,8200206,,,2022-08-24,清算の結了等,,,2015-10-05,1,,,,,カホリョカクジドウシャ,0
223,1370301003176,登記記録の閉鎖等,0,2022-09-02,2022-08-29,株式会社イムコ,,株式会社,宮城県,東松島市,川下字内響１３１番地１０７,,04,214,9810304,,,2022-08-29,清算の結了等,,,2015-10-05,1,,,,,,0
230,1400601001082,登記記録の閉鎖等,0,2022-09-02,2022-08-31,株式会社保険の絆,,株式会社,岩手県,奥州市,江刺稲瀬字天竺老婆２８番地,,03,215,0231132,,,2022-08-31,清算の結了等,,,2015-10-05,1,,,,,ホケンノキズナ,0
233,1410002001482,登記記録の閉鎖等,0,2022-09-02,2022-08-30,有限会社光陽ステンレス工業,,有限会社,秋田県,秋田市,新屋松美ガ丘南町６番２７号,,05,201,0101616,,,2022-08-30,清算の結了等,,,2015-10-05,1,,,,,コウヨウステンレスコウギョウ,0
258,2010002002941,登記記録の閉鎖等,0,2022-09-02,2022-08-29,有限会社シンセイリフォーム,,有限会社,東京都,文京区,水道１丁目５番１９号,,13,105,1120005,,,2022-08-29,清算の結了等,,,2015-10-05,1,,,,,シンセイリフォーム,0
259,2010003022633,登記記録の閉鎖等,0,2022-09-02,2022-08-30,毛利アクティヴァ合同会社,,合同会社,愛知県,名古屋市千種区,揚羽町１丁目５８番地の１－３２１号,,23,101,4640019,,,2022-08-30,清算の結了等,,,2015-11-09,1,,,,,モウリアクティヴァ,0
260,2010003028779,登記記録の閉鎖等,0,2022-09-02,2022-08-30,ＥＳＲ戸田合同会社,,合同会社,東京都,中央区,日本橋１丁目４番１号日本橋一丁目ビルディング,,13,102,1030027,,,2022-08-30,清算の結了等,,,2018-11-27,1,,,,,イーエスアールトダ,0
270,2010401156405,登記記録の閉鎖等,0,2022-09-02,2022-08-09,Ｈａｌｏ　Ｔｏｐ　Ｊａｐａｎ株式会社,,株式会社,東京都,港区,元麻布３丁目１番６号,,13,103,1060046,,,2022-08-09,清算の結了等,,,2020-11-11,1,,,,,ヘイロートップジャパン,0
299,2011101095034,登記記録の閉鎖等,0,2022-09-02,2022-08-31,株式会社ＡＲＴ　ＤＩＮＩＮＧ,,株式会社,東京都,新宿区,西新宿７丁目１６番６号森正ビル地下１階,,13,104,1600023,,,2022-08-31,合併による解散等,2011101087221,令和４年８月３１日東京都新宿区西新宿七丁目１６番６号森正ビル地下１階株式会社杉本フーズ（2011101087221）に合併し解散,2021-05-14,1,,,,,アートダイニング,0
303,2011601016514,登記記録の閉鎖等,0,2022-09-02,2022-08-31,株式会社エスケイシステム,,株式会社,東京都,豊島区,南池袋２丁目４９番７号,,13,116,1710022,,,2022-08-31,清算の結了等,,,2015-10-05,1,,,,,エスケイシステム,0
313,2013101001789,登記記録の閉鎖等,0,2022-09-02,2022-08-31,株式会社フジックス,,株式会社,東京都,福生市,大字福生９６５番地,,13,218,1970011,,,2022-08-31,清算の結了等,,,2015-10-05,1,,,,,フジックス,0
319,2020001088493,登記記録の閉鎖等,0,2022-09-02,2022-08-30,株式会社ＷＯＯＤコンサルティング,,株式会社,神奈川県,横浜市泉区,和泉中央北１丁目４０番５号,,14,116,2450024,,,2022-08-30,清算の結了等,,,2015-10-05,1,,,,,ウッドコンサルティング,0
321,2020003012534,登記記録の閉鎖等,0,2022-09-02,2022-08-30,合同会社雄希興業,,合同会社,神奈川県,横浜市鶴見区,東寺尾３丁目１２番８号ハイツエコー２０５,,14,101,2300077,,,2022-08-30,清算の結了等,,,2017-03-21,1,,,,,ユウキコウギョウ,0
326,2021002008705,登記記録の閉鎖等,0,2022-09-02,2022-08-29,東亜貿易有限会社,,有限会社,沖縄県,中頭郡北谷町,字宮城１番地１－１８２１号,,47,326,9040113,,,2022-08-29,清算の結了等,,,2015-10-05,1,,,,,,0
328,2030001063818,登記記録の閉鎖等,0,2022-09-02,2022-08-22,株式会社木村工芸,,株式会社,埼玉県,越谷市,大間野町４丁目３３３番地,,11,222,3430844,,,2022-08-22,清算の結了等,,,2015-10-05,1,,,,,キムラコウゲイ,0
361,2120001231935,登記記録の閉鎖等,0,2022-09-02,2022-08-31,株式会社勇,,株式会社,大阪府,大阪市阿倍野区,天王寺町南２丁目１３番２－１０２号,,27,119,5450002,,,2022-08-31,清算の結了等,,,2020-09-24,1,,,,,ユウ,0
365,2120002077849,登記記録の閉鎖等,0,2022-09-02,2022-08-31,有限会社ノエル,,有限会社,大阪府,大阪市生野区,生野西４丁目１０番１０号,,27,116,5440024,,,2022-08-31,清算の結了等,,,2015-10-05,1,,,,,ノエル,0
371,2120101025196,登記記録の閉鎖等,0,2022-09-02,2022-08-30,小森興業株式会社,,株式会社,大阪府,松原市,西大塚１丁目１５番２１号,,27,217,5800011,,,2022-08-30,清算の結了等,,,2015-10-05,1,,,,,コモリコウギョウコウギョウ,0
382,2130001036474,登記記録の閉鎖等,0,2022-09-02,2022-09-01,株式会社くろちく倭美坐,,株式会社,京都府,京都市中京区,新町通錦小路上る百足屋町３８０番地,,26,104,6048214,,,2022-09-01,合併による解散等,9130001020637,令和４年９月１日京都市中京区新町通錦小路上ル百足屋町３８０番地株式会社くろちく（9130001020637）に合併し解散,2015-10-05,1,,,,,クロチクワビザ,0
384,2130001054121,登記記録の閉鎖等,0,2022-09-02,2022-09-01,株式会社くろちく百足屋,,株式会社,京都府,京都市中京区,新町通錦小路上る百足屋町３８０番地,,26,104,6048214,,,2022-09-01,合併による解散等,9130001020637,令和４年９月１日京都市中京区新町通錦小路上ル百足屋町３８０番地株式会社くろちく（9130001020637）に合併し解散,2015-10-05,1,,,,,クロチクムカデヤ,0
389,2140001028529,登記記録の閉鎖等,0,2022-09-02,2022-08-31,株式会社池田姫吏,,株式会社,兵庫県,芦屋市,業平町５番１８－３０３号村上様方,,28,206,6590068,,,2022-08-31,清算の結了等,,,2015-10-05,1,,,,,イケダメイリ,0
396,2150002002060,登記記録の閉鎖等,0,2022-09-02,2022-08-30,有限会社トモミコンピューター,,有限会社,奈良県,奈良市,西登美ヶ丘２丁目１番１４号,,29,201,6310006,,,2022-08-30,清算の結了等,,,2015-10-05,1,,,,,,0
434,2260002023566,登記記録の閉鎖等,0,2022-09-02,2022-08-31,有限会社風早商店,,有限会社,岡山県,総社市,西郡４７８番地の１,,33,208,7191164,,,2022-08-31,清算の結了等,,,2015-10-05,1,,,,,カザハヤショウテン,0
486,2430002028580,登記記録の閉鎖等,0,2022-09-02,2022-08-26,有限会社札幌ビジネスエージェント,,有限会社,北海道,札幌市中央区,南四条東３丁目１９番地,,01,101,0600054,,,2022-08-26,清算の結了等,,,2015-10-05,1,,,,,ビジネスエージェント,0
508,3010001156465,登記記録の閉鎖等,0,2022-09-02,2022-08-29,株式会社エッグワークス,,株式会社,東京都,中央区,京橋３丁目９番７号,,13,102,1040031,,,2022-08-29,清算の結了等,,,2015-10-05,1,,,,,エッグワークス,0
524,3010602033427,登記記録の閉鎖等,0,2022-09-02,2022-08-30,有限会社テクノ・スクエア,,有限会社,東京都,江東区,北砂２丁目１８番２－６２５号,,13,108,1360073,,,2022-08-30,清算の結了等,,,2015-10-05,1,,,,,テクノスクエア,0
525,3010801023625,登記記録の閉鎖等,0,2022-09-02,2022-08-30,株式会社ワイズメディカル,,株式会社,大阪府,茨木市,上泉町１番１６号,,27,211,5670811,,,2022-08-30,清算の結了等,,,2015-10-05,1,,,,,ワイズメディカル,0
532,3011001016262,登記記録の閉鎖等,0,2022-09-02,2022-08-31,東京勧業株式会社,,株式会社,東京都,品川区,北品川１丁目２０番６号,,13,109,1400001,,,2022-08-31,清算の結了等,,,2015-10-05,1,,,,,トウキョウカンギョウ,0
548,3011103008983,登記記録の閉鎖等,0,2022-09-02,2022-08-30,合同会社ジェイ・ヴイ・イー,,合同会社,東京都,新宿区,下宮比町１番４号,,13,104,1620822,,,2022-08-30,清算の結了等,,,2019-08-01,1,,,,,ジェイヴイイー,0
557,3012402012809,登記記録の閉鎖等,0,2022-09-02,2022-08-23,有限会社リオカ,,有限会社,東京都,調布市,染地２丁目３２番地５０,,13,208,1820023,,,2022-08-23,清算の結了等,,,2015-10-05,1,,,,,リオカ,0
560,3012802005115,登記記録の閉鎖等,0,2022-09-02,2022-08-30,村山スレート有限会社,,有限会社,東京都,武蔵村山市,本町１丁目２２番地の５,,13,223,2080004,,,2022-08-30,清算の結了等,,,2015-10-05,1,,,,,ムラヤマスレート,0
562,3013301023459,登記記録の閉鎖等,0,2022-09-02,2022-08-31,アークイースト株式会社,,株式会社,東京都,豊島区,南大塚２丁目４６番１号,,13,116,1700005,,,2022-08-31,清算の結了等,,,2015-10-05,1,,,,,アークイースト,0
592,3040003011748,登記記録の閉鎖等,0,2022-09-02,2022-08-30,合同会社ＨＷＣ,,合同会社,千葉県,市原市,西五所２９番地３０,,12,219,2900065,,,2022-08-30,清算の結了等,,,2018-06-07,1,,,,,エイチダブリューシー,0
607,3110005002077,登記記録の閉鎖等,0,2022-09-02,2022-08-26,特定非営利活動法人お茶の間,,その他の設立登記法人,新潟県,新潟市秋葉区,金沢町３丁目８番８号,,15,105,9560851,,,2022-08-26,清算の結了等,,,2015-10-05,1,,,,,オチャノマ,0
610,3120001071125,登記記録の閉鎖等,0,2022-09-02,2022-09-01,株式会社村井事務所,,株式会社,大阪府,大阪市福島区,福島５丁目１番２６号,,27,103,5530003,,,2022-09-01,清算の結了等,,,2015-10-05,1,,,,,ムライジムショ,0
615,3120001113075,登記記録の閉鎖等,0,2022-09-02,2022-08-31,栗原テクノサポート株式会社,,株式会社,大阪府,大阪市北区,南森町１丁目４番２４号,,27,127,5300054,,,2022-08-31,清算の結了等,,,2015-10-05,1,,,,,クリハラテクノサポート,0
636,3130001044550,登記記録の閉鎖等,0,2022-09-02,2022-08-26,株式会社京都寺内,,株式会社,京都府,京都市下京区,猪熊通高辻下る高辻猪熊町３７１番地山下ビル,00124753,26,106,6008353,,,2022-08-26,清算の結了等,,,2015-10-05,1,,,,,キョウトテラウチ,0
652,3140002039846,登記記録の閉鎖等,0,2022-09-02,2022-08-31,有限会社アライバル,,有限会社,兵庫県,尼崎市,昭和通２丁目３番３号,,28,202,6600881,,,2022-08-31,清算の結了等,,,2015-10-05,1,,,,,アライバル,0
658,3180001081127,登記記録の閉鎖等,0,2022-09-02,2022-08-30,和波工作株式会社,,株式会社,愛知県,犬山市,大字羽黒新田字阿弥陀池廻り３３番地の１８,,23,215,4840888,,,2022-08-30,清算の結了等,,,2015-10-05,1,,,,,ワナミコウサク,0
662,3180001142795,登記記録の閉鎖等,0,2022-09-02,2022-08-29,株式会社ＫＩＭＡＧＵＲＥ,,株式会社,愛知県,名古屋市西区,名駅２丁目２９番２号,,23,104,4510045,,,2022-08-29,清算の結了等,,,2020-09-10,1,,,,,キマグレ,0
668,3180003019216,登記記録の閉鎖等,0,2022-09-02,2022-08-30,合同会社萬楽,,合同会社,愛知県,一宮市,末広１丁目１４番１４号,,23,203,4910918,,,2022-08-30,清算の結了等,,,2018-08-23,1,,,,,マンラク,0
671,3180302004166,登記記録の閉鎖等,0,2022-09-02,2022-08-30,有限会社岡将,,有限会社,愛知県,岡崎市,羽根町字鰻池１２８番地,,23,202,4440813,,,2022-08-30,清算の結了等,,,2015-10-05,1,,,,,オカショウ,0
672,3180302014719,登記記録の閉鎖等,0,2022-09-02,2022-08-30,有限会社緑谷建材店,,有限会社,愛知県,豊川市,御油町堺畑２３番地,,23,207,4410211,,,2022-08-30,清算の結了等,,,2015-10-05,1,,,,,ミドリタニケンザイテン,0
674,3190002019059,登記記録の閉鎖等,0,2022-09-02,2022-08-31,有限会社朝日ラツク産業,,有限会社,三重県,四日市市,楠町南五味塚８２６番地の２,,24,202,5100104,,,2022-08-31,清算の結了等,,,2015-10-05,1,,,,,アサヒラツクサンギョウ,0
682,3240001027767,登記記録の閉鎖等,0,2022-09-02,2022-08-31,株式会社山広,,株式会社,広島県,呉市,焼山泉ヶ丘２丁目３番１１号,,34,202,7370913,,,2022-08-31,清算の結了等,,,2015-10-05,1,,,,,ヤマヒロ,0
688,3240005004151,登記記録の閉鎖等,0,2022-09-02,2022-09-01,特定非営利活動法人法務総合情報センター,,その他の設立登記法人,広島県,東広島市,西条中央７丁目２３番３５号東広島商工会議所会館３階,,34,212,7390025,,,2022-09-01,清算の結了等,,,2015-10-05,1,,,,,ホウムソウゴウジョウホウセンター,0
703,3330001018113,登記記録の閉鎖等,0,2022-09-02,2022-08-31,株式会社バターフィールド,,株式会社,熊本県,熊本市東区,下江津１丁目１９番６号,,43,102,8620960,,,2022-08-31,清算の結了等,,,2015-10-05,1,,,,,,0
734,3430001050576,登記記録の閉鎖等,0,2022-09-02,2022-08-29,株式会社村田商店,,株式会社,北海道,小樽市,花園３丁目８番１７号,,01,203,0470024,,,2022-08-29,清算の結了等,,,2015-10-05,1,,,,,ムラタショウテン,0
739,3430005004108,登記記録の閉鎖等,0,2022-09-02,2022-08-18,特定非営利活動法人コンベンション札幌ネットワーク,,その他の設立登記法人,北海道,札幌市中央区,南二条西６丁目１４番地５大友ビル７階Ｎｅｔｗｏｒｋ－Ｌａｂ,,01,101,0600062,,,2022-08-18,清算の結了等,,,2015-10-05,1,,,,,コンベンションサッポロネットワーク,0
759,3500002018565,登記記録の閉鎖等,0,2022-09-02,2022-08-31,有限会社大正商事,,有限会社,愛媛県,今治市,南高下町１丁目２番５１号,,38,202,7940811,,,2022-08-31,清算の結了等,,,2015-10-05,1,,,,,タイショウショウジ,0
768,4010001093195,登記記録の閉鎖等,0,2022-09-02,2022-08-29,エムアンドアイ株式会社,,株式会社,東京都,千代田区,隼町２番１７号パレスサイド千代田７階,,13,101,1020092,,,2022-08-29,清算の結了等,,,2015-10-05,1,,,,,エムアンドアイ,0
776,4010401058640,登記記録の閉鎖等,0,2022-09-02,2022-09-01,ＡＴＫファミリーオフィス株式会社,,株式会社,東京都,新宿区,新宿１丁目１１番１７号,,13,104,1600022,,,2022-09-01,合併による解散等,7013201016294,令和４年９月１日東京都新宿区新宿一丁目１１番１７号株式会社バランスエンタテインメント（7013201016294）に合併し解散,2015-10-05,1,,,,,エーティーケイファミリーオフィス,0
777,4010401076510,登記記録の閉鎖等,0,2022-09-02,2022-08-19,カールバイヤージャパン株式会社,,株式会社,東京都,渋谷区,代々木２丁目１番１号新宿マインズタワー,,13,113,1510053,,,2022-08-19,清算の結了等,,,2015-10-05,1,Carl Byoir Japan Ltd.,Tokyo,"SHINJUKU MAYNDS TOWER, 1-1, Yoyogi 2-chome, Shibuya ku",,カールバイヤージャパン,0
795,4010903002906,登記記録の閉鎖等,0,2022-09-02,2022-08-22,合同会社愛宕開発,,合同会社,東京都,新宿区,袋町２５番地２５,,13,104,1620828,,,2022-08-22,清算の結了等,,,2015-10-20,1,,,,,アタゴカイハツ,0
819,4011802019041,登記記録の閉鎖等,0,2022-09-02,2022-08-30,有限会社ミウラ,,有限会社,東京都,足立区,南花畑２丁目４０番１１号,,13,121,1210062,,,2022-08-30,清算の結了等,,,2015-10-05,1,,,,,ミウラ,0
822,4012402005233,登記記録の閉鎖等,0,2022-09-02,2022-08-31,有限会社つちや,,有限会社,東京都,小金井市,本町５丁目１２番１４号,,13,210,1840004,,,2022-08-31,清算の結了等,,,2015-10-05,1,,,,,ツチヤ,0
827,4013101005029,登記記録の閉鎖等,0,2022-09-02,2022-08-31,中興設備工業株式会社,,株式会社,東京都,西多摩郡瑞穂町,大字箱根ケ崎２５番地１,,13,303,1901221,,,2022-08-31,清算の結了等,,,2015-10-05,1,,,,,チュウコウセツビコウギョウ,0
859,4040002008835,登記記録の閉鎖等,0,2022-09-02,2022-08-30,有限会社ニシキミ興業,,有限会社,千葉県,千葉市中央区,東千葉１丁目１３番１号,,12,101,2600041,,,2022-08-30,清算の結了等,,,2015-10-05,1,,,,,ニシキミコウギョウ,0
885,4110005001722,登記記録の閉鎖等,0,2022-09-02,2022-08-30,新潟新エネルギー開発協同組合,,その他の設立登記法人,新潟県,新潟市東区,錦町１番１８号,,15,102,9500062,,,2022-08-30,清算の結了等,,,2015-10-05,1,,,,,ニイガタシンエネルギーカイハツ,0
886,4120001019032,登記記録の閉鎖等,0,2022-09-02,2022-08-31,明成鉄工株式会社,,株式会社,大阪府,大阪市生野区,巽西２丁目５番２２号,00027657,27,116,5440012,,,2022-08-31,清算の結了等,,,2015-10-05,1,,,,,メイセイテッコウ,0
912,4130001009230,登記記録の閉鎖等,0,2022-09-02,2022-09-01,株式会社くろちく総合研究所,,株式会社,京都府,京都市中京区,新町通錦小路上る百足屋町３８０番地,,26,104,6048214,,,2022-09-01,合併による解散等,9130001020637,令和４年９月１日京都市中京区新町通錦小路上ル百足屋町３８０番地株式会社くろちく（9130001020637）に合併し解散,2015-10-05,1,,,,,クロチクソウゴウケンキュウショ,0
924,4140002030655,登記記録の閉鎖等,0,2022-09-02,2022-08-31,メカニカルサービス有限会社,,有限会社,兵庫県,三木市,府内１５番地,,28,215,6730415,,,2022-08-31,清算の結了等,,,2015-10-05,1,,,,,メカニカルサービス,0
941,4180302009924,登記記録の閉鎖等,0,2022-09-02,2022-08-30,有限会社マルト,,有限会社,愛知県,豊橋市,西羽田町２６０番地,,23,201,4418081,,,2022-08-30,清算の結了等,,,2015-10-05,1,,,,,マルト,0
943,4180303002127,登記記録の閉鎖等,0,2022-09-02,2022-08-30,合資会社愛知木工,,合資会社,愛知県,知立市,中山町中山２４番地,,23,225,4720032,,,2022-08-30,清算の結了等,,,2015-10-05,1,,,,,アイチモッコウ,0
962,4240002027179,登記記録の閉鎖等,0,2022-09-02,2022-08-31,有限会社杏薬局,,有限会社,広島県,東広島市,黒瀬町乃美尾１１６７番地,,34,212,7392622,,,2022-08-31,清算の結了等,,,2015-10-05,1,,,,,,0
964,4240002046526,登記記録の閉鎖等,0,2022-09-02,2022-08-31,昭和舗装有限会社,,有限会社,広島県,福山市,新市町大字新市２２８番地３,,34,207,7293103,,,2022-08-31,清算の結了等,,,2015-10-05,1,,,,,ショウワホソウ,0
967,4260001010035,登記記録の閉鎖等,0,2022-09-02,2022-09-01,改革株式会社,,株式会社,岡山県,岡山市北区,駅前町１丁目８番１号５Ｆ,,33,101,7000023,,,2022-09-01,清算の結了等,,,2015-10-05,1,,,,,カイカク,0
969,4290001016442,登記記録の閉鎖等,0,2022-09-02,2022-08-25,株式会社双美,,株式会社,福岡県,福岡市博多区,麦野２丁目１６番１８号,,40,132,8120882,,,2022-08-25,清算の結了等,,,2022-05-16,1,,,,,,0
974,4290001087228,登記記録の閉鎖等,0,2022-09-02,2022-08-29,ＬＯＲＨＥＩ株式会社,,株式会社,東京都,中央区,銀座１丁目１２－４Ｎ＆ＥＢＬＤ．７階,,13,102,1040061,,,2022-08-29,清算の結了等,,,2019-11-25,1,,,,,ロヘイ,0
980,4290003006466,登記記録の閉鎖等,0,2022-09-02,2022-08-31,合同会社ＳＯＲＡ,,合同会社,福岡県,福岡市博多区,石城町５番１１－７０２号,,40,132,8120032,,,2022-08-31,清算の結了等,,,2016-05-09,1,,,,,ソラ,0
1011,4370502000713,登記記録の閉鎖等,0,2022-09-02,2022-08-30,有限会社中山商事,,有限会社,宮城県,気仙沼市,仲町２丁目２番１１号,,04,205,9880024,,,2022-08-30,清算の結了等,,,2015-10-05,1,,,,,ナカヤマショウジ,0
1057,5010401112504,登記記録の閉鎖等,0,2022-09-02,2022-08-31,ＮＦ株式会社,,株式会社,東京都,八王子市,並木町２４番８号コスモ八王子並木町１０２号,,13,201,1930831,,,2022-08-31,清算の結了等,,,2015-10-05,1,,,,,エヌエフ,0
1086,5011501022452,登記記録の閉鎖等,0,2022-09-02,2022-08-31,旨満美都株式会社,,株式会社,東京都,板橋区,中丸町１６番１３－５０３号,,13,119,1730026,,,2022-08-31,清算の結了等,,,2017-03-21,1,,,,,ミマンビト,0
1092,5011801008762,登記記録の閉鎖等,0,2022-09-02,2022-08-31,株式会社磯商,,株式会社,東京都,足立区,六木３丁目１３番７号,,13,121,1210052,,,2022-08-31,清算の結了等,,,2015-10-05,1,,,,,イソショウ,0
1093,5011801014414,登記記録の閉鎖等,0,2022-09-02,2022-08-30,株式会社ワイズファクトリー,,株式会社,東京都,足立区,島根１丁目１２番３号,,13,121,1210815,,,2022-08-30,清算の結了等,,,2015-10-05,1,,,,,ワイズファクトリー,0
1112,5021005011991,登記記録の閉鎖等,0,2022-09-02,2022-08-30,一般社団法人新たな旅立ちの会,,その他の設立登記法人,神奈川県,逗子市,小坪５丁目２３番９号,,14,208,2490008,,,2022-08-30,清算の結了等,,,2020-07-20,1,,,,,アラタナタビダチノカイ,0
1114,5030001059961,登記記録の閉鎖等,0,2022-09-02,2022-08-22,株式会社ＭＣＡ,,株式会社,埼玉県,川越市,大字鯨井１６３５番地,,11,201,3500815,,,2022-08-22,清算の結了等,,,2015-10-05,1,,,,,エムシーエー,0
1115,5030001090611,登記記録の閉鎖等,0,2022-09-02,2022-08-22,株式会社彩や,,株式会社,埼玉県,日高市,大字森戸新田８４番地１,,11,242,3501211,,,2022-08-22,合併による解散等,4030001132224,令和４年８月２１日埼玉県川口市安行原１９３番地５株式会社一朶や（4030001132224）に合併し解散,2015-10-05,1,,,,,イロドリヤ,0
1131,5040002069554,登記記録の閉鎖等,0,2022-09-02,2022-08-31,有限会社綾部商店,,有限会社,千葉県,君津市,中富１０５３番地６,,12,225,2991132,,,2022-08-31,清算の結了等,,,2015-10-05,1,,,,,,0
1133,5040005021124,登記記録の閉鎖等,0,2022-09-02,2022-08-29,一般社団法人健康・医療データアナリスト協会,,その他の設立登記法人,千葉県,千葉市若葉区,西都賀３丁目５－１０リブポート西都賀三丁目２０９,,12,104,2640026,,,2022-08-29,清算の結了等,,,2021-03-17,1,,,,,ケンコウイリョウデータアナリストキョウカイ,0
1136,5050002010087,登記記録の閉鎖等,0,2022-09-02,2022-08-30,有限会社角田工業,,有限会社,茨城県,笠間市,南小泉８８１番地の２,,08,216,3091725,,,2022-08-30,清算の結了等,,,2015-10-05,1,,,,,カクタコウギョウ,0
1151,5100005011622,登記記録の閉鎖等,0,2022-09-02,2022-08-29,社会保険労務士法人コア・ステラ,,その他の設立登記法人,長野県,上田市,古里１９７５番地６,,20,203,3860005,,,2022-08-29,清算の結了等,,,2015-10-05,1,,,,,コアステラ,0
1163,5120001149472,登記記録の閉鎖等,0,2022-09-02,2022-08-31,株式会社クロダ技工,,株式会社,大阪府,枚方市,伊加賀緑町６番２２号,,27,210,5730067,,,2022-08-31,清算の結了等,,,2015-10-05,1,,,,,クロダギコウ,0
1193,5140001046544,登記記録の閉鎖等,0,2022-09-02,2022-08-30,株式会社タジマヤ,,株式会社,兵庫県,養父市,八鹿町八鹿５６３番地,,28,222,6670021,,,2022-08-30,清算の結了等,,,2015-10-05,1,,,,,タジマヤ,0
1196,5140001106091,登記記録の閉鎖等,0,2022-09-02,2022-08-30,ユニバーサル・フーズ株式会社,,株式会社,兵庫県,神戸市中央区,布引町１丁目１番８号,,28,110,6510097,,,2022-08-30,清算の結了等,,,2017-05-10,1,,,,,ユニバーサルフーズ,0
1199,5140002067333,登記記録の閉鎖等,0,2022-09-02,2022-08-26,有限会社福祉輸送サービス,,有限会社,兵庫県,宝塚市,安倉中１丁目１４番１８号,,28,214,6650822,,,2022-08-26,清算の結了等,,,2015-10-05,1,,,,,フクシユソウサービス,0
1208,5180001060013,登記記録の閉鎖等,0,2022-09-02,2022-08-31,ファースト不動産株式会社,,株式会社,愛知県,名古屋市西区,城西４丁目８番２２号,,23,104,4510031,,,2022-08-31,清算の結了等,,,2015-10-05,1,,,,,ファーストフドウサン,0
1225,5180003023455,登記記録の閉鎖等,0,2022-09-02,2022-08-30,守田合同会社,,合同会社,愛知県,春日井市,八田町８丁目１４番地１,,23,206,4860849,,,2022-08-30,清算の結了等,,,2022-02-04,1,,,,,モリタ,0
1231,5190002008745,登記記録の閉鎖等,0,2022-09-02,2022-08-31,有限会社近藤商会,,有限会社,三重県,伊勢市,神社港３１１番地の１,,24,203,5160004,,,2022-08-31,清算の結了等,,,2015-10-05,1,,,,,コンドウショウカイ,0
1240,5220002007875,登記記録の閉鎖等,0,2022-09-02,2022-09-01,有限会社リンクスコミュニケーションズ,,有限会社,石川県,金沢市,高畠３丁目１番地,,17,201,9218001,,,2022-09-01,清算の結了等,,,2015-10-05,1,,,,,リンクスコミュニケーションズ,0
1244,5240001040826,登記記録の閉鎖等,0,2022-09-02,2022-08-31,木下コンサルタント株式会社,,株式会社,広島県,広島市佐伯区,五日市町大字石内５９９８番地１,,34,108,7315102,,,2022-08-31,合併による解散等,3240002004583,令和４年８月３１日広島市佐伯区五日市町大字石内５９９８番地１株式会社木下組（3240002004583）に合併し解散,2015-10-05,1,,,,,キノシタコンサルタント,0
1255,5260002008580,登記記録の閉鎖等,0,2022-09-02,2022-09-01,有限会社ふくしま,,有限会社,岡山県,岡山市南区,大福１７８番地の９,,33,104,7010204,,,2022-09-01,清算の結了等,,,2015-10-05,1,,,,,フクシマ,0
1268,5290002050126,登記記録の閉鎖等,0,2022-09-02,2022-08-31,耳納薬品有限会社,,有限会社,福岡県,久留米市,山本町耳納６８番地の３,,40,203,8390826,,,2022-08-31,清算の結了等,,,2015-10-05,1,,,,,ミノウヤクヒン,0
1273,5330002008367,登記記録の閉鎖等,0,2022-09-02,2022-08-31,有限会社馬場測量設計事務所,,有限会社,熊本県,熊本市中央区,出水６丁目２６番７号,,43,101,8620941,,,2022-08-31,清算の結了等,,,2015-10-05,1,,,,,ババソクリョウセッケイジムショ,0
1286,5360002014247,登記記録の閉鎖等,0,2022-09-02,2022-08-30,有限会社大山建設,,有限会社,沖縄県,うるま市,勝連南風原４０５５番地,,47,213,9042311,,,2022-08-30,清算の結了等,,,2015-10-05,1,,,,,オオヤマケンセツ,0
1290,5370002006771,登記記録の閉鎖等,0,2022-09-02,2022-08-23,有限会社上田畳店,,有限会社,宮城県,仙台市宮城野区,小田原１丁目８番１４号,,04,102,9830803,,,2022-08-23,清算の結了等,,,2015-10-05,1,,,,,ウエダタタミテン,0
1331,6010003032199,登記記録の閉鎖等,0,2022-09-02,2022-08-23,ソーラーアイリス合同会社,,合同会社,東京都,千代田区,麹町２丁目８番地ＭＬＣ麹町ビル４階松本会計事務所内,,13,101,1020083,,,2022-08-23,清算の結了等,,,2020-05-08,1,,,,,ソーラーアイリス,0
1335,6010005025548,登記記録の閉鎖等,0,2022-09-02,2022-08-30,一般社団法人ＫＳＤ,,その他の設立登記法人,東京都,千代田区,内幸町２丁目１番６号,,13,101,1000011,,,2022-08-30,清算の結了等,,,2016-07-13,1,,,,,ケイエスディ,0
1340,6010403012585,登記記録の閉鎖等,0,2022-09-02,2022-08-08,合同会社ハイフォンゴルフプロジェクト,,合同会社,東京都,港区,虎ノ門５丁目３番２０号仙石山アネックス２１４川田法律事務所内,,13,103,1050001,,,2022-08-08,清算の結了等,,,2015-10-05,1,,,,,ハイフォンゴルフプロジェクト,0
1346,6010405014381,登記記録の閉鎖等,0,2022-09-02,2022-08-30,一般社団法人認定介護福祉士認証・認定機構,,その他の設立登記法人,東京都,文京区,後楽１丁目１番１３号,,13,105,1120004,,,2022-08-30,清算の結了等,,,2015-12-04,1,,,,,ニンテイカイゴフクシシニンショウニンテイキコウ,0
1363,6011101082367,登記記録の閉鎖等,0,2022-09-02,2022-08-31,株式会社フィル,,株式会社,東京都,練馬区,桜台１丁目４番１４号,,13,120,1760002,,,2022-08-31,清算の結了等,,,2017-11-21,1,,,,,フィル,0
1366,6011203002009,登記記録の閉鎖等,0,2022-09-02,2022-08-29,合同会社Ｌａ　ＰＯＣＨＥ,,合同会社,東京都,文京区,音羽２丁目５番３－１３０３号,,13,105,1120013,,,2022-08-29,清算の結了等,,,2015-10-05,1,,,,,ラポシェ,0
1389,6020003019179,登記記録の閉鎖等,0,2022-09-02,2022-08-17,合同会社ＬＡＴＥＳＴ,,合同会社,神奈川県,横浜市西区,楠町１番地３ＢＬＡ横浜西口２０４,,14,103,2200003,,,2022-08-17,清算の結了等,,,2021-02-04,1,,,,,レイテスト,0
1407,6040001000741,登記記録の閉鎖等,0,2022-09-02,2022-08-30,株式会社ウインド・ファクトリー,,株式会社,千葉県,千葉市美浜区,真砂２丁目１番７号６０７号室,,12,106,2610011,,,2022-08-30,清算の結了等,,,2015-10-05,1,,,,,ウインドファクトリー,0
1434,6120001002432,登記記録の閉鎖等,0,2022-09-02,2022-08-31,株式会社パックステルミー,,株式会社,大阪府,大阪市鶴見区,安田３丁目１１番２２号,,27,124,5380032,,,2022-08-31,清算の結了等,,,2015-10-05,1,,,,,パックステルミー,0
1446,6120002016472,登記記録の閉鎖等,0,2022-09-02,2022-08-31,有限会社新谷商会,,有限会社,大阪府,大阪市住之江区,西住之江２丁目９番１４号,,27,125,5590005,,,2022-08-31,清算の結了等,,,2015-10-05,1,,,,,シンタニショウカイ,0
1452,6120101061923,登記記録の閉鎖等,0,2022-09-02,2022-08-30,ＶＯＳＴＥＣ株式会社,,株式会社,大阪府,堺市堺区,石津北町９番１号,,27,141,5900823,,,2022-08-30,合併による解散等,3120101005362,令和４年８月１日神奈川県横浜市港北区新横浜二丁目４番地１７シリウスビジョン株式会社（3120101005362）に合併し解散,2020-07-09,1,,,,,ボステック,0
1465,6140001035331,登記記録の閉鎖等,0,2022-09-02,2022-08-31,長谷川醫療器株式会社,,株式会社,兵庫県,明石市,大蔵本町１３番１０号,,28,203,6730874,,,2022-08-31,清算の結了等,,,2015-10-05,1,,,,,,0
1474,6150002001505,登記記録の閉鎖等,0,2022-09-02,2022-08-30,日之出産業有限会社,,有限会社,奈良県,奈良市,帝塚山南１丁目６番２１号,,29,201,6310064,,,2022-08-30,清算の結了等,,,2015-10-05,1,,,,,ヒノデサンギョウ,0
1488,6180001138923,登記記録の閉鎖等,0,2022-09-02,2022-08-02,山弥コーポレーション株式会社,,株式会社,愛知県,名古屋市中区,上前津２丁目１３番１９号,,23,106,4600013,,,2022-08-02,合併による解散等,5180301015583,令和４年８月２日名古屋市中区上前津二丁目１３番１９号山弥産業株式会社（5180301015583）に合併し解散,2019-11-18,1,,,,,ヤマヤコーポレーション,0
1492,6180002066396,登記記録の閉鎖等,0,2022-09-02,2022-08-31,有限会社青龍,,有限会社,愛知県,春日井市,高山町１丁目２番地の９,,23,206,4860912,,,2022-08-31,清算の結了等,,,2015-10-05,1,,,,,セイリュウ,0
1494,6180002089067,登記記録の閉鎖等,0,2022-09-02,2022-08-29,有限会社二宮鉄工,,有限会社,愛知県,知多郡東浦町,大字緒川字南石根１１番地４,,23,442,4702102,,,2022-08-29,清算の結了等,,,2015-10-05,1,,,,,ニノミヤテッコウ,0
1505,6210001014996,登記記録の閉鎖等,0,2022-09-02,2022-08-31,フードイノベーション株式会社,,株式会社,福井県,福井市,高木中央２丁目４００７番地,,18,201,9100804,,,2022-08-31,合併による解散等,2210002009289,令和４年８月３１日福井市高木中央二丁目４００７番地株式会社ＭＡＣＲＯ（2210002009289）に合併し解散,2015-10-05,1,,,,,フードイノベーション,0
1517,6260005004188,登記記録の閉鎖等,0,2022-09-02,2022-08-17,天理教薗分教会,,その他の設立登記法人,岡山県,倉敷市,真備町市場２９４５番地,,33,202,7101305,,,2022-08-17,合併による解散等,6260005004592,令和４年８月１７日岡山県総社市刑部１０３番地天理教菅山分教会（6260005004592）に合併し解散,2015-10-05,1,,,,,テンリキョウソノブンキョウカイ,0
1522,6290001052733,登記記録の閉鎖等,0,2022-09-02,2022-08-31,大川観光株式会社,,株式会社,福岡県,大川市,大字酒見５４７番地の２,,40,212,8310016,,,2022-08-31,清算の結了等,,,2015-10-05,1,,,,,オオカワカンコウ,0
1547,6320202000396,登記記録の閉鎖等,0,2022-09-02,2022-09-01,有限会社はなや,,有限会社,大分県,臼杵市,大字臼杵２の７５番地の１１９,,44,206,8750041,,,2022-09-01,清算の結了等,,,2015-10-05,1,,,,,,0
1559,6350002016771,登記記録の閉鎖等,0,2022-09-02,2022-08-31,有限会社ハウス工芸,,有限会社,宮崎県,日南市,大字伊比井２０９４番地,,45,204,8892311,,,2022-08-31,清算の結了等,,,2015-10-05,1,,,,,ハウスコウゲイ,0
1602,6490002004085,登記記録の閉鎖等,0,2022-09-02,2022-08-30,有限会社ハウジングプラザ,,有限会社,高知県,高知市,前里３１番地１,,39,201,7800024,,,2022-08-30,清算の結了等,,,2015-10-05,1,,,,,ハウジングプラザ,0
1627,7010405003961,登記記録の閉鎖等,0,2022-09-02,2022-08-30,一般社団法人ベリンダ,,その他の設立登記法人,東京都,千代田区,内幸町２丁目１番６号,,13,101,1000011,,,2022-08-30,清算の結了等,,,2015-10-05,1,,,,,ベリンダ,0
1628,7010601000201,登記記録の閉鎖等,0,2022-09-02,2022-08-31,株式会社エムアールピー,,株式会社,神奈川県,秦野市,三屋１２１番地１,,14,211,2591303,,,2022-08-31,清算の結了等,,,2015-10-05,1,,,,,エムアールピー,0
1644,7010802009248,登記記録の閉鎖等,0,2022-09-02,2022-08-31,有限会社千曲製作所,,有限会社,東京都,品川区,西大井２丁目１８番３号,,13,109,1400015,,,2022-08-31,清算の結了等,,,2015-10-05,1,,,,,チクマセイサクショ,0
1647,7010905002125,登記記録の閉鎖等,0,2022-09-02,2022-08-29,一般財団法人佐々木宏子財団,,その他の設立登記法人,東京都,世田谷区,奥沢３丁目１６番２２号,,13,112,1580083,,,2022-08-29,清算の結了等,,,2015-10-05,1,,,,,ササキヒロコザイダン,0
1662,7011001135356,登記記録の閉鎖等,0,2022-09-02,2022-08-16,株式会社ＳＫＹ　ＦＬＡＧ,,株式会社,東京都,渋谷区,東１丁目２７番１号,,13,113,1500011,,,2022-08-16,清算の結了等,,,2020-08-20,1,,,,,スカイフラッグ,0
1667,7011005003162,登記記録の閉鎖等,0,2022-09-02,2022-08-16,特定非営利活動法人Ｓｍｉｒｈｙｔｈｍ,,その他の設立登記法人,東京都,渋谷区,代々木１丁目３番７号,,13,113,1510053,,,2022-08-16,清算の結了等,,,2015-10-05,1,,,,,スマイリズム,0
1711,7020002027529,登記記録の閉鎖等,0,2022-09-02,2022-08-31,有限会社ナカダビル,,有限会社,神奈川県,横浜市港北区,篠原西町７番１１号,,14,109,2220025,,,2022-08-31,清算の結了等,,,2015-10-05,1,,,,,ナカダビル,0
1713,7020003011408,登記記録の閉鎖等,0,2022-09-02,2022-08-30,ＮＫＬオフィス合同会社,,合同会社,神奈川県,川崎市多摩区,南生田７丁目７番１－１８３号,,14,135,2140036,,,2022-08-30,清算の結了等,,,2016-06-08,1,,,,,エヌケーエルオフィス,0
1716,7021005010777,登記記録の閉鎖等,0,2022-09-02,2022-08-30,一般社団法人湘南エコロジー研究会,,その他の設立登記法人,神奈川県,逗子市,小坪５丁目２３番９号,,14,208,2490008,,,2022-08-30,清算の結了等,,,2016-11-07,1,,,,,ショウナンエコロジーケンキュウカイ,0
1729,7030002107858,登記記録の閉鎖等,0,2022-09-02,2022-08-23,有限会社矢那瀬木工製作所,00017827,有限会社,埼玉県,川口市,栄町１丁目１１番４号,,11,203,3320017,,,2022-08-23,清算の結了等,,,2015-10-05,1,,,,,ヤナセモッコウセイサクジョ,0
1741,7050001044407,登記記録の閉鎖等,0,2022-09-02,2022-08-29,東部電力株式会社,,株式会社,茨城県,神栖市,柳川２６９２番地１,,08,232,3140252,,,2022-08-29,清算の結了等,,,2018-05-17,1,,,,,トウブデンリョク,0
1743,7050002004500,登記記録の閉鎖等,0,2022-09-02,2022-08-31,有限会社たもん,,有限会社,茨城県,水戸市,元吉田町１４４７番地の１３,,08,201,3100836,,,2022-08-31,清算の結了等,,,2015-10-05,1,,,,,タモン,0
1744,7050003003690,登記記録の閉鎖等,0,2022-09-02,2022-08-30,網代合名会社,,合名会社,茨城県,那珂郡東海村,舟石川駅西３丁目１４番２号,,08,341,3191116,,,2022-08-30,清算の結了等,,,2017-04-24,1,,,,,アジロ,0
1750,7080101014372,登記記録の閉鎖等,0,2022-09-02,2022-08-29,株式会社モバイルシステム,,株式会社,愛知県,名古屋市東区,東桜２丁目９－３４成田ビル１Ｆ,,23,102,4610005,,,2022-08-29,清算の結了等,,,2015-10-05,1,,,,,モバイルシステム,0
1751,7080101018357,登記記録の閉鎖等,0,2022-09-02,2022-08-31,株式会社エリアネットワーク東海,,株式会社,静岡県,富士市,平垣本町１５－１シャトルフジビル４階,,22,210,4160913,,,2022-08-31,清算の結了等,,,2015-10-05,1,,,,,エリアネットワークトウカイ,0
1754,7110002021687,登記記録の閉鎖等,0,2022-09-02,2022-08-29,有限会社日成工業,,有限会社,新潟県,村上市,仲間町６２４番地１１,,15,212,9580823,,,2022-08-29,清算の結了等,,,2015-10-05,1,,,,,ニッセイコウギョウ,0
1758,7120001090294,登記記録の閉鎖等,0,2022-09-02,2022-08-31,美貴宝飾株式会社,,株式会社,大阪府,大阪市中央区,日本橋２丁目７番１３号,,27,128,5420073,,,2022-08-31,清算の結了等,,,2015-10-05,1,,,,,ミキホウショク,0
1769,7120005000530,登記記録の閉鎖等,0,2022-09-02,2022-08-15,天理教明四十二分教会,,その他の設立登記法人,大阪府,大阪市西成区,千本中２丁目３番１０号,,27,122,5570054,,,2022-08-15,合併による解散等,3120105005136,令和４年８月１０日大阪府羽曳野市南恵我之荘三丁目９番２１号天理教明二分教会（3120105005136）に合併し解散,2015-10-05,1,,,,,テンリキョウメイシジュウニブンキョウカイ,0
1784,7140001078040,登記記録の閉鎖等,0,2022-09-02,2022-08-30,株式会社石崎工務店,,株式会社,兵庫県,伊丹市,荻野３丁目２３番地の１,,28,207,6640002,,,2022-08-30,清算の結了等,,,2015-10-05,1,,,,,イシザキコウムテン,0
1825,7200002024193,登記記録の閉鎖等,0,2022-09-02,2022-09-01,有限会社小林商店,,有限会社,岐阜県,中津川市,福岡１６９６番地の１,,21,206,5080203,,,2022-09-01,清算の結了等,,,2015-10-05,1,,,,,コバヤシショウテン,0
1828,7220001017700,登記記録の閉鎖等,0,2022-09-02,2022-08-30,株式会社ミヤノ,,株式会社,石川県,河北郡津幡町,字津幡ハ９６番地１,,17,361,9290323,,,2022-08-30,清算の結了等,,,2015-10-05,1,,,,,ミヤノ,0
1834,7250002018034,登記記録の閉鎖等,0,2022-09-02,2022-08-29,有限会社サンシード,,有限会社,山口県,岩国市,尾津町１丁目１２番２号,,35,208,7400032,,,2022-08-29,清算の結了等,,,2015-10-05,1,,,,,サンシード,0
1838,7260002022357,登記記録の閉鎖等,0,2022-09-02,2022-09-01,有限会社ワークハウス,,有限会社,岡山県,倉敷市,児島下の町８丁目１番１１号,,33,202,7110906,,,2022-09-01,合併による解散等,9260001014089,令和４年９月１日岡山県倉敷市児島下の町八丁目１番１１号ＣＵＣ株式会社（9260001014089）に合併し解散,2015-10-05,1,,,,,ワークハウス,0
1856,7300002007840,登記記録の閉鎖等,0,2022-09-02,2022-08-29,有限会社墨谷塗装店,,有限会社,佐賀県,伊万里市,立花町３９４９番地８,,41,205,8480027,,,2022-08-29,清算の結了等,,,2015-10-05,1,,,,,スミタニトソウテン,0
1858,7310002008540,登記記録の閉鎖等,0,2022-09-02,2022-09-01,マルチフロートシステム有限会社,,有限会社,長崎県,長崎市,元船町７番３号松永ビル２Ｆ,,42,201,8500035,,,2022-09-01,清算の結了等,,,2015-10-05,1,,,,,マルチフロートシステム,0
1883,7370502000818,登記記録の閉鎖等,0,2022-09-02,2022-08-26,丸一食品有限会社,,有限会社,宮城県,気仙沼市,三日町２丁目２番８号,,04,205,9880085,,,2022-08-26,清算の結了等,,,2015-10-05,1,,,,,マルイチショクヒン,0
1892,7420001016665,登記記録の閉鎖等,0,2022-09-02,2022-08-31,株式会社アゴラ,,株式会社,青森県,青森市,青柳１丁目６番地３,,02,201,0300811,,,2022-08-31,清算の結了等,,,2019-07-12,1,,,,,,0
1903,7450002011563,登記記録の閉鎖等,0,2022-09-02,2022-08-31,有限会社夢食館北市場,,有限会社,北海道,稚内市,港１丁目６番２８号,,01,214,0970021,,,2022-08-31,清算の結了等,,,2015-10-05,1,,,,,ユメクウカンキタイチバ,0
1904,7460305001954,登記記録の閉鎖等,0,2022-09-02,2022-08-31,一般社団法人美幌町観光まちづくり協議会,,その他の設立登記法人,北海道,網走郡美幌町,字仲町１丁目４４番地１,,01,543,0920004,,,2022-08-31,清算の結了等,,,2020-10-13,1,,,,,ビホロチョウカンコウマチヅクリキョウギカイ,0
1926,8010405018249,登記記録の閉鎖等,0,2022-09-02,2022-08-16,特定非営利活動法人葬祭儀々,,その他の設立登記法人,東京都,港区,西麻布１丁目４番３６号,,13,103,1060031,,,2022-08-16,清算の結了等,,,2019-11-15,1,,,,,ソウサイギギ,0
1939,8011003011190,登記記録の閉鎖等,0,2022-09-02,2022-08-15,合同会社ＴｒｙＰｏｄｓ,,合同会社,東京都,渋谷区,神宮前６丁目５番６－４０４号,,13,113,1500001,,,2022-08-15,清算の結了等,,,2020-05-18,1,,,,,トライポッズ,0
1946,8011301006132,登記記録の閉鎖等,0,2022-09-02,2022-08-30,株式会社福商,00054416,株式会社,東京都,杉並区,高円寺北２丁目８番１３号,,13,115,1660002,,,2022-08-30,清算の結了等,,,2015-10-05,1,,,,,フクショウ,0
1959,8020001096771,登記記録の閉鎖等,0,2022-09-02,2022-08-31,株式会社シンクプラス,,株式会社,神奈川県,川崎市川崎区,渡田１丁目１６番地４号重田ビル１Ｆ,,14,131,2100837,,,2022-08-31,清算の結了等,,,2015-10-05,1,,,,,シンクプラス,0
1960,8020001136008,登記記録の閉鎖等,0,2022-09-02,2022-08-30,株式会社Ｄｙｎａ,,株式会社,神奈川県,横浜市西区,南幸２丁目１２番６－７０１号,,14,103,2200005,,,2022-08-30,清算の結了等,,,2020-05-08,1,,,,,ダイナ,0
1965,8021005010776,登記記録の閉鎖等,0,2022-09-02,2022-08-30,一般社団法人湘南シーシャトル研究会,,その他の設立登記法人,神奈川県,逗子市,小坪５丁目２３番９号,,14,208,2490008,,,2022-08-30,清算の結了等,,,2016-11-07,1,,,,,ショウナンシーシャトルケンキュウカイ,0
1978,8040001115232,登記記録の閉鎖等,0,2022-09-02,2022-08-30,株式会社ワンステップ,,株式会社,千葉県,船橋市,海神３丁目３番１９号第七板橋荘１０２号室,,12,204,2730021,,,2022-08-30,清算の結了等,,,2020-09-29,1,,,,,ワンステップ,0
1983,8040005012814,登記記録の閉鎖等,0,2022-09-02,2022-08-26,医療法人財団銚子市立病院再生機構,,その他の設立登記法人,千葉県,銚子市,若宮町４番地の８,,12,202,2880047,,,2022-08-26,清算の結了等,,,2015-10-05,1,,,,,チョウシイチリツビョウインサイセイキコウ,0
1994,8060005002598,登記記録の閉鎖等,0,2022-09-02,2022-08-29,特定非営利活動法人ほっとみるく,,その他の設立登記法人,栃木県,日光市,足尾町１８１８番地４,,09,206,3211511,,,2022-08-29,清算の結了等,,,2015-10-05,1,,,,,ホットミルク,0
2055,8180002061016,登記記録の閉鎖等,0,2022-09-02,2022-08-30,有限会社Ｃ＆Ｙ,,有限会社,愛知県,名古屋市中川区,新家１丁目２９０３番地ダイアパレス花水木通り東館３０９号,,23,110,4540972,,,2022-08-30,清算の結了等,,,2015-10-05,1,,,,,シーアンドワイ,0
2061,8180302027294,登記記録の閉鎖等,0,2022-09-02,2022-08-30,有限会社エコトップサービス,,有限会社,愛知県,西尾市,天竹町地蔵前２番地２,,23,213,4450051,,,2022-08-30,清算の結了等,,,2015-10-05,1,,,,,エコトッフサーヒス,0
2072,8230002002591,登記記録の閉鎖等,0,2022-09-02,2022-08-31,有限会社仲善,,有限会社,富山県,富山市,大泉東町１丁目１０番１１号,,16,201,9398093,,,2022-08-31,清算の結了等,,,2015-10-05,1,,,,,ナカヨシ,0
2073,8240001037332,登記記録の閉鎖等,0,2022-09-02,2022-08-31,株式会社濱家製作所,,株式会社,広島県,竹原市,忠海東町１丁目２番２６号,,34,203,7292317,,,2022-08-31,清算の結了等,,,2015-10-05,1,,,,,ハマイエセイサクショ,0
2082,8260002019443,登記記録の閉鎖等,0,2022-09-02,2022-08-31,有限会社高橋又兵衛商店,,有限会社,岡山県,倉敷市,老松町４丁目４番３号,,33,202,7100826,,,2022-08-31,清算の結了等,,,2015-10-05,1,,,,,タカハシマタベエショウテン,0
2096,8320001007681,登記記録の閉鎖等,0,2022-09-02,2022-08-31,戸畑屋商事株式会社,,株式会社,大分県,宇佐市,大字長洲３６７７番地の８,,44,211,8720001,,,2022-08-31,清算の結了等,,,2015-10-05,1,,,,,トバタヤショウジ,0
2106,8340001005519,登記記録の閉鎖等,0,2022-09-02,2022-09-01,株式会社マツオ電設,,株式会社,鹿児島県,日置市,東市来町長里１４１９番地の２,,46,216,8992202,,,2022-09-01,合併による解散等,6340001018076,令和４年９月１日鹿児島県日置市東市来町長里１０７６番地の１株式会社マツオ電設（6340001018076）に合併し解散,2015-10-05,1,,,,,マツオデンセツ,0
2114,8350002010517,登記記録の閉鎖等,0,2022-09-02,2022-08-31,有限会社トシキ,,有限会社,宮崎県,日向市,亀崎東２丁目８６番地,,45,206,8830067,,,2022-08-31,清算の結了等,,,2015-10-05,1,,,,,トシキ,0
2167,9010401155350,登記記録の閉鎖等,0,2022-09-02,2022-08-09,株式会社プラットフォーム,,株式会社,東京都,港区,赤坂４丁目１５番１号,,13,103,1070052,,,2022-08-09,清算の結了等,,,2020-09-24,1,,,,,プラットフォーム,0
2186,9011003004730,登記記録の閉鎖等,0,2022-09-02,2022-08-12,ニューフェーズ合同会社,,合同会社,東京都,渋谷区,代官山町２０番９号,,13,113,1500034,,,2022-08-12,清算の結了等,,,2015-10-05,1,,,,,ニューフェーズ,0
2217,9013301045786,登記記録の閉鎖等,0,2022-09-02,2022-08-31,株式会社ＳＥＬＥＣＴ　ＶＩＳＩＯＮ,,株式会社,東京都,豊島区,池袋３丁目３４番７号ビジネスパーク池袋２階,,13,116,1710014,,,2022-08-31,清算の結了等,,,2020-06-17,1,,,,,セレクトビジョン,0
2223,9020002042501,登記記録の閉鎖等,0,2022-09-02,2022-08-31,有限会社光洋海運,,有限会社,長崎県,佐世保市,宇久町寺島９１０番地,,42,202,8574816,,,2022-08-31,清算の結了等,,,2015-10-05,1,,,,,コウヨウカイウン,0
2232,9021002003071,登記記録の閉鎖等,0,2022-09-02,2022-08-31,有限会社ソニツク,,有限会社,神奈川県,藤沢市,西俣野３０９番地５,,14,205,2520812,,,2022-08-31,清算の結了等,,,2015-10-05,1,,,,,,0
2249,9040005015428,登記記録の閉鎖等,0,2022-09-02,2022-08-05,天理教岩之枝分教会,,その他の設立登記法人,千葉県,南房総市,久枝７７７番地,,12,234,2992216,,,2022-08-05,合併による解散等,4040005015432,令和４年８月５日千葉県南房総市高崎１１６５番地の１天理教岩崎分教会（4040005015432）に合併し解散,2015-10-05,1,,,,,,0
2292,9140001016849,登記記録の閉鎖等,0,2022-09-02,2022-08-31,株式会社正木工作所,,株式会社,兵庫県,神戸市須磨区,神の谷２丁目１９番８号,,28,107,6540162,,,2022-08-31,清算の結了等,,,2015-10-05,1,,,,,マサキコウサクショ,0
2306,9180001105391,登記記録の閉鎖等,0,2022-09-02,2022-08-29,株式会社ｃｏｎｎｅｃｔｉｏｎ,,株式会社,愛知県,名古屋市西区,山木１丁目１２１,,23,104,4520833,,,2022-08-29,清算の結了等,,,2015-10-05,1,,,,,コネクション,0
2324,9210001002759,登記記録の閉鎖等,0,2022-09-02,2022-08-31,東野産業株式会社,,株式会社,福井県,坂井市,春江町為国中区３番地１６,,18,210,9190436,,,2022-08-31,清算の結了等,,,2015-10-05,1,,,,,ヒガシノサンギョウ,0
2328,9220001008607,登記記録の閉鎖等,0,2022-09-02,2022-09-01,株式会社コネクト,,株式会社,石川県,金沢市,古府１丁目１３３番地,,17,201,9200362,,,2022-09-01,清算の結了等,,,2015-10-05,1,,,,,コネクト,0
2337,9240005007306,登記記録の閉鎖等,0,2022-09-02,2022-08-31,農事組合法人神勝寺農園,,その他の設立登記法人,広島県,福山市,沼隈町大字中山南甲２５番地,,34,207,7200402,,,2022-08-31,清算の結了等,,,2015-10-05,1,,,,,,0
2353,9290005001097,登記記録の閉鎖等,0,2022-09-02,2022-09-01,一般財団法人福岡県筑前海沿岸漁業振興協会,,その他の設立登記法人,福岡県,福岡市中央区,舞鶴２丁目４番１９号,,40,133,8100073,,,2022-09-01,清算の結了等,,,2015-10-05,1,,,,,フクオカケンチクゼンカイエンガンギョギョウシンコウキョウカイ,0
2372,9370002005753,登記記録の閉鎖等,0,2022-09-02,2022-08-29,有限会社日東写真,,有限会社,宮城県,仙台市若林区,荒町１２９番地,,04,103,9840073,,,2022-08-29,清算の結了等,,,2015-10-05,1,,,,,,0
2374,9370005010148,登記記録の閉鎖等,0,2022-09-02,2022-08-19,一般社団法人健美コーディネート協会,,その他の設立登記法人,宮城県,仙台市青葉区,一番町１丁目６－９ＩＢＩＺＡビル４階,,04,101,9800811,,,2022-08-19,清算の結了等,,,2020-07-28,1,,,,,ケンビコーディネートキョウカイ,0
2377,9380002012229,登記記録の閉鎖等,0,2022-09-02,2022-08-30,有限会社牧野瓦店,,有限会社,福島県,郡山市,小原田５丁目１５番１号,,07,203,9638835,,,2022-08-30,清算の結了等,,,2015-10-05,1,,,,,マキノカワラテン,0
2379,9390005002597,登記記録の閉鎖等,0,2022-09-02,2022-08-30,医療法人社団設楽整形外科,,その他の設立登記法人,山形県,山形市,桧町２丁目６番２７号,,06,201,9900813,,,2022-08-30,清算の結了等,,,2015-10-05,1,,,,,シタラセイケイゲカ,0
2384,9430002027048,登記記録の閉鎖等,0,2022-09-02,2022-08-29,有限会社ジェーシステム,,有限会社,北海道,札幌市西区,山の手五条３丁目１番３－１０７号,,01,107,0630005,,,2022-08-29,清算の結了等,,,2015-10-05,1,,,,,ジェーシステム,0
2386,9440002008352,登記記録の閉鎖等,0,2022-09-02,2022-08-31,有限会社ハコモク,,有限会社,北海道,函館市,美原１丁目３６番１４号,,01,202,0410806,,,2022-08-31,清算の結了等,,,2015-10-05,1,,,,,ハコモク,0
