sequenceNumber,corporateNumber,process,correct,updateDate,changeDate,name,nameImageId,kind,prefectureName,cityName,streetNumber,addressImageId,prefectureCode,cityCode,postCode,addressOutside,addressOutsideImageId,closeDate,closeCause,successorCorporateNumber,changeCause,assignmentDate,latest,enName,enPrefectureName,enCityName,enAddressOutside,furigana,hihyoji
7,1010001254683,新規,0,2025-05-02,2025-05-02,株式会社Ｍｙ　ＳＴＥＬＬＡ,,株式会社,東京都,千代田区,丸の内１丁目８－３丸の内トラストタワー本館２０階,,13,101,1000005,,,,,,,2025-05-02,1,,,,,マイステラ,0
8,1010001254709,新規,0,2025-05-02,2025-05-02,株式会社Ｈａｒｕｎｅ,,株式会社,東京都,中央区,日本橋蛎殻町２丁目１１番３号,,13,102,1030014,,,,,,,2025-05-02,1,,,,,ハルネ,0
10,1010003047251,新規,0,2025-05-02,2025-05-02,ＳＥＧ合同会社,,合同会社,東京都,千代田区,岩本町３丁目４番３号リードシー秋葉原ビル４０２,,13,101,1010032,,,,,,,2025-05-02,1,,,,,エスイージー,0
14,1010005039998,新規,0,2025-05-02,2025-05-02,一般社団法人Ｓａｎｃｔｕａｉｒｅ　ｄｕ　Ｓｏｌｅｉｌ,,その他の設立登記法人,東京都,中央区,銀座５丁目９番１３号銀座菊正ビル３Ｆ,,13,102,1040061,,,,,,,2025-05-02,1,,,,,サンクチュエアドソレイユ,0
19,1010401190116,新規,0,2025-05-02,2025-05-02,ヴィーナ・ネクサス・ジャパン株式会社,,株式会社,東京都,港区,虎ノ門２丁目１０番４号オークラプレステージタワー,,13,103,1050001,,,,,,,2025-05-02,1,,,,,ヴィーナネクサスジャパン,0
22,1010601067238,新規,0,2025-05-02,2025-05-02,グロビュー・テクノロジー・ジャパン株式会社,,株式会社,東京都,江東区,有明３丁目７番２６号有明フロンティアビルＢ棟９階,,13,108,1350063,,,,,,,2025-05-02,1,,,,,グロビューテクノロジージャパン,0
26,1010701047668,新規,0,2025-05-02,2025-05-02,株式会社プロエフィカ,,株式会社,東京都,品川区,西五反田３丁目１５－６リードシー目黒不動前ビル１－０４,,13,109,1410031,,,,,,,2025-05-02,1,,,,,プロエフィカ,0
28,1010901057285,新規,0,2025-05-02,2025-05-02,株式会社ＴｅｎｄＡＩプロモーション,,株式会社,東京都,世田谷区,若林１丁目２６番４号,,13,112,1540023,,,,,,,2025-05-02,1,,,,,テンダイプロモーション,0
33,1011001169252,新規,0,2025-05-02,2025-05-02,株式会社ＥＯＧパートナーズ,,株式会社,東京都,渋谷区,幡ヶ谷１丁目２番２号,,13,113,1510072,,,,,,,2025-05-02,1,,,,,イーオージーパートナーズ,0
38,1011101111618,新規,0,2025-05-02,2025-05-02,青峰・インベストメンツ株式会社,,株式会社,東京都,新宿区,西新宿７丁目１９番５号ＫＹＳ西新宿ビル１階,,13,104,1600023,,,,,,,2025-05-02,1,,,,,セイホウインベストメンツ,0
42,1011103015668,新規,0,2025-05-02,2025-05-02,合同会社カメレオン,,合同会社,東京都,新宿区,新宿２丁目１２番１３号新宿アントレサロンビル２階,,13,104,1600022,,,,,,,2025-05-02,1,,,,,カメレオン,0
46,1011105011418,新規,0,2025-05-02,2025-05-02,一般社団法人ＬＲＥ,,その他の設立登記法人,東京都,新宿区,四谷２丁目９番地１５東京ユナイテッド綜合事務所内,,13,104,1600004,,,,,,,2025-05-02,1,,,,,エルアールイー,0
50,1011301030551,新規,0,2025-05-02,2025-05-02,株式会社フォープル,,株式会社,東京都,杉並区,阿佐谷北１丁目２１番２号,,13,115,1660001,,,,,,,2025-05-02,1,,,,,フォープル,0
52,1011501032018,新規,0,2025-05-02,2025-05-02,Ｚａｏｒｉｋ　ＰＲ株式会社,,株式会社,東京都,荒川区,南千住３丁目３４番８－２０２号,,13,118,1160003,,,,,,,2025-05-02,1,,,,,ザオリクピーアール,0
54,1011601028626,新規,0,2025-05-02,2025-05-02,株式会社盛和,,株式会社,東京都,練馬区,大泉町６丁目１０番２号,,13,120,1780062,,,,,,,2025-05-02,1,,,,,セイワ,0
61,1011803006826,新規,0,2025-05-02,2025-05-02,合同会社ＣＫ　ＣｒｅＫｅｒｓ,,合同会社,東京都,葛飾区,四ツ木二丁目６番２６号ＹｏｔｓｕｇｉＰｒｉｍｅ,,13,122,1240000,,,,,,,2025-05-02,1,,,,,シーケークリカース,0
64,1012303002150,新規,0,2025-05-02,2025-05-02,合同会社スマイルフル,,合同会社,東京都,町田市,忠生４丁目１０番地４,,13,209,1940035,,,,,,,2025-05-02,1,,,,,スマイルフル,0
71,1012403007108,新規,0,2025-05-02,2025-05-02,Ｄ‐Ｖｉｌｌａｇｅ合同会社,,合同会社,東京都,武蔵野市,御殿山１丁目１１番１２－４１０号吉祥寺御殿山ＨＯＵＳＥ,,13,203,1800005,,,,,,,2025-05-02,1,,,,,ディービリッジ,0
73,1012701018839,新規,0,2025-05-02,2025-05-02,株式会社ＢＬＵＳＴＬＩＮＫ,,株式会社,東京都,小平市,たかの台４６番地１２号ＯＰＴたかの台２０１号室,,13,211,1870024,,,,,,,2025-05-02,1,,,,,ブラストリンク,0
88,1020003028432,新規,0,2025-05-02,2025-05-02,合同会社横浜知財総研,,合同会社,神奈川県,横浜市都筑区,川和町１６４３番地３,,14,118,2240057,,,,,,,2025-05-02,1,,,,,ヨコハマチザイソウケン,0
96,1021003015924,新規,0,2025-05-02,2025-05-02,合同会社ＹＡＭＡＭＩ　ＡＵＴＯ,,合同会社,神奈川県,愛甲郡愛川町,三増字下馬込２８６番１－１,,14,401,2430308,,,,,,,2025-05-02,1,,,,,ヤマミ,0
97,1021005013356,新規,0,2025-05-02,2025-05-02,一般社団法人ＳＡＧＡＭＩＨＡＲＡ　ＩＳＬＡＭＩＣ　ＣＵＬＴＵＲＡＬ　ＡＣＡＤＥＭＹ,,その他の設立登記法人,神奈川県,相模原市中央区,田名６９４８番地１,,14,152,2520244,,,,,,,2025-05-02,1,,,,,サガミハライスラミックカルチュアルアカデミー,0
106,1030001166308,新規,0,2025-05-02,2025-05-02,株式会社ＮＡＴＳＵＫＥＮ解体,,株式会社,埼玉県,八潮市,大字鶴ケ曽根２０７２番地８,,11,234,3400802,,,,,,,2025-05-02,1,,,,,ナツケンカイタイ,0
109,1030003026682,新規,0,2025-05-02,2025-05-02,ＹＡＶＡＳ合同会社,,合同会社,埼玉県,川口市,柳崎３丁目４番１号リブラン２０２号,,11,203,3330861,,,,,,,2025-05-02,1,,,,,ヤワシ,0
116,1040001138520,新規,0,2025-05-02,2025-05-02,株式会社ＷＩＬＬ＆ＷＩＬＬＯＷ,,株式会社,千葉県,流山市,おおたかの森東３丁目３３番地の１リセブロー１階,,12,220,2700138,,,,,,,2025-05-02,1,,,,,ウィルアンドウィロー,0
117,1040001138545,新規,0,2025-05-02,2025-05-02,バリューラボ株式会社,,株式会社,千葉県,市川市,平田３丁目１１番１５号,,12,203,2720031,,,,,,,2025-05-02,1,,,,,バリューラボ,0
118,1040001138578,新規,0,2025-05-02,2025-05-02,株式会社ｕｎｏ,,株式会社,千葉県,船橋市,本中山３丁目２４番１５号,,12,204,2730035,,,,,,,2025-05-02,1,,,,,ウノ,0
122,1040003027465,新規,0,2025-05-02,2025-05-02,合同会社手のぬくみ,,合同会社,千葉県,千葉市稲毛区,長沼町２５９番地６０,,12,103,2630005,,,,,,,2025-05-02,1,,,,,テノヌクミ,0
124,1040005022753,新規,0,2025-05-02,2025-05-02,シーエイト協同組合,,その他の設立登記法人,千葉県,印旛郡酒々井町,尾上１番地５,,12,322,2850911,,,,,,,2025-05-02,1,,,,,シーエイト,0
126,1060001038157,新規,0,2025-05-02,2025-05-02,株式会社大窪商事,,株式会社,栃木県,小山市,大字雨ケ谷２１３番地９,,09,208,3230826,,,,,,,2025-05-02,1,,,,,オオクボショウジ,0
128,1070001042901,新規,0,2025-05-02,2025-05-02,ＮＥＸＴ　ＩＮＮＯＶＡＴＩＯＮ株式会社,,株式会社,群馬県,藤岡市,浄法寺７７１番地,,10,209,3701406,,,,,,,2025-05-02,1,,,,,ネクストイノベーション,0
129,1070003005897,新規,0,2025-05-02,2025-05-02,合同会社ＡＹＣＴＲＡＤＩＮＧ,,合同会社,群馬県,邑楽郡大泉町,坂田３丁目９－１６,,10,524,3700532,,,,,,,2025-05-02,1,,,,,エイワイシートレーディング,0
130,1070003005906,新規,0,2025-05-02,2025-05-02,Ｄｉａｍｏｎｄ合同会社,,合同会社,群馬県,高崎市,江木町１１４２番地１ロイヤル８８－３－Ｄ,,10,202,3700046,,,,,,,2025-05-02,1,,,,,ダイアモンド,0
131,1080005007692,新規,0,2025-05-02,2025-05-02,医療法人社団Ｋ＆Ｄ,,その他の設立登記法人,静岡県,静岡市葵区,北安東３丁目２３番４号,,22,101,4200881,,,,,,,2025-05-02,1,,,,,ケイアンドディ,0
133,1080401027880,新規,0,2025-05-02,2025-05-02,サン巧塗株式会社,,株式会社,静岡県,御前崎市,池新田２５８５番地,,22,223,4371612,,,,,,,2025-05-02,1,,,,,サンコート,0
134,1080401027889,新規,0,2025-05-02,2025-05-02,縁結び福良株式会社,00139012,株式会社,静岡県,浜松市中央区,初生町３４０番地の６ダイアパレス初生南８０１,,22,138,4338112,,,,,,,2025-05-02,1,,,,,エンムスビフクラ,0
141,1110001039224,新規,0,2025-05-02,2025-05-02,株式会社夢工房アグリドリーム２１,,株式会社,新潟県,五泉市,下阿弥陀瀬４６３番地,,15,218,9591718,,,,,,,2025-05-02,1,,,,,ユメコウボウアグリドリームニジュウイチ,0
155,1120001275025,新規,0,2025-05-02,2025-05-02,未来科技株式会社,,株式会社,大阪府,大阪市浪速区,塩草３丁目６番１１号ティーズ桜川マンション３０１号,,27,111,5560024,,,,,,,2025-05-02,1,,,,,ミライカギ,0
156,1120001275082,新規,0,2025-05-02,2025-05-02,新盛株式会社,,株式会社,大阪府,大阪市住吉区,杉本１丁目９番１６号グランビルドアビコＩＩ１０３号室,00139015,27,120,5580022,,,,,,,2025-05-02,1,,,,,シンセイ,0
157,1120001275090,新規,0,2025-05-02,2025-05-02,天易ホールディングス株式会社,,株式会社,大阪府,大阪市浪速区,幸町２丁目２番１０号セイレイビル３階,,27,111,5560021,,,,,,,2025-05-02,1,,,,,テンイホールディングス,0
158,1120001275124,新規,0,2025-05-02,2025-05-02,株式会社アーガスｎｅｔ,,株式会社,大阪府,大阪市中央区,玉造１丁目６番１３号ロイヤル和光ビル４Ｆ,,27,128,5400004,,,,,,,2025-05-02,1,,,,,アーガスネット,0
159,1120001275165,新規,0,2025-05-02,2025-05-02,株式会社セイカ,,株式会社,大阪府,大阪市東住吉区,今林１丁目２番６８号大阪市中央卸売市場東部市場内,,27,121,5460001,,,,,,,2025-05-02,1,,,,,セイカ,0
165,1120003029288,新規,0,2025-05-02,2025-05-02,方維合同会社,,合同会社,大阪府,大阪市淀川区,加島４丁目２－２１－３０３号,,27,123,5320031,,,,,,,2025-05-02,1,,,,,ホウイ,0
173,1120901050790,新規,0,2025-05-02,2025-05-02,株式会社ｋｏｚｙ,,株式会社,大阪府,高槻市,大畑町２１番１－３１６号,,27,207,5691144,,,,,,,2025-05-02,1,,,,,コージー,0
174,1122003003173,新規,0,2025-05-02,2025-05-02,ＨＫ　ＴＲＡＤＩＮＧ　ＣＯ．合同会社,,合同会社,大阪府,大東市,野崎３丁目１０－２７,,27,218,5740015,,,,,,,2025-05-02,1,,,,,エイチケートレーディングカンパニー,0
176,1130001079557,新規,0,2025-05-02,2025-05-02,株式会社ＳＢＹ,,株式会社,京都府,京都市山科区,西野山百々町２５０番地２６,,26,110,6078301,,,,,,,2025-05-02,1,,,,,エスビーワイ,0
177,1130001079573,新規,0,2025-05-02,2025-05-02,株式会社福ＤＥＮ,00139004,株式会社,京都府,京都市左京区,岩倉中町２２１番地４－３０１,,26,103,6060025,,,,,,,2025-05-02,1,,,,,フクデン,0
179,1130005017356,新規,0,2025-05-02,2025-05-02,一般社団法人オルファクトリーフレイル学会,,その他の設立登記法人,京都府,京田辺市,興戸南鉾立９７番地１,,26,211,6100332,,,,,,,2025-05-02,1,,,,,オルファクトリーフレイルガッカイ,0
182,1140001138279,新規,0,2025-05-02,2025-05-02,株式会社Ｇｏｌｄｅｎ　Ｅｌｅｐｈａｎｔ,,株式会社,兵庫県,西宮市,北名次町１１番１０－２０４号,,28,204,6620025,,,,,,,2025-05-02,1,,,,,ゴールデンエレファント,0
183,1140001138386,新規,0,2025-05-02,2025-05-02,航誠株式会社,,株式会社,兵庫県,神戸市中央区,下山手通３丁目３番１－４０２号,,28,110,6500011,,,,,,,2025-05-02,1,,,,,コウセイ,0
186,1150001028090,新規,0,2025-05-02,2025-05-02,株式会社ＮＥＯ　ＷＡＬＬ,,株式会社,奈良県,北葛城郡広陵町,大字疋相３３番地７,,29,426,6350824,,,,,,,2025-05-02,1,,,,,ネオウォール,0
187,1150001028099,新規,0,2025-05-02,2025-05-02,株式会社ふくろう,,株式会社,奈良県,奈良市,神功２丁目４番地の１８,,29,201,6310804,,,,,,,2025-05-02,1,,,,,フクロウ,0
188,1150003003595,新規,0,2025-05-02,2025-05-02,合同会社ＧＩＧ,,合同会社,奈良県,大和郡山市,丹後庄町１３８番地３,,29,203,6391122,,,,,,,2025-05-02,1,,,,,ジーアイジー,0
192,1180001166598,新規,0,2025-05-02,2025-05-02,株式会社清友興業,,株式会社,愛知県,名古屋市中川区,応仁町１丁目８３番地応仁コーポ３Ａ号,,23,110,4540042,,,,,,,2025-05-02,1,,,,,セイユウコウギョウ,0
202,1200001043720,新規,0,2025-05-02,2025-05-02,株式会社ＤｅｌｉｇｈｔＯｎｅ,,株式会社,岐阜県,多治見市,赤坂町８丁目３番地の３,,21,204,5070057,,,,,,,2025-05-02,1,,,,,ディライトワン,0
203,1200003006808,新規,0,2025-05-02,2025-05-02,ＳＡＤＩＱ　ＴＲＡＤＩＮＧ合同会社,,合同会社,岐阜県,岐阜市,黒野南３丁目５長屋マンション３０３号室,,21,201,5011136,,,,,,,2025-05-02,1,,,,,サディクトレーディング,0
204,1200005013760,新規,0,2025-05-02,2025-05-02,農事組合法人こしはら稲穂会,,その他の設立登記法人,岐阜県,加茂郡東白川村,越原２１４０番地８,,21,507,5091301,,,,,,,2025-05-02,1,,,,,コシハライナホカイ,0
207,1210001020149,新規,0,2025-05-02,2025-05-02,株式会社水将,,株式会社,福井県,鯖江市,上野田町第１号５番地１７,,18,207,9160074,,,,,,,2025-05-02,1,,,,,スイショウ,0
210,1220001026657,新規,0,2025-05-02,2025-05-02,株式会社カッサン,,株式会社,石川県,金沢市,泉が丘２丁目１５番１号（プレミア金沢泉が丘・２０１号）,,17,201,9218035,,,,,,,2025-05-02,1,,,,,カッサン,0
215,1230003002416,新規,0,2025-05-02,2025-05-02,合同会社Ｃｏｍｐ,,合同会社,富山県,富山市,大塚１８７８‐１,,16,201,9300107,,,,,,,2025-05-02,1,,,,,コンプ,0
217,1240001064886,新規,0,2025-05-02,2025-05-02,ＪＨＡＭ　ＷＯＲＫＳ株式会社,,株式会社,広島県,広島市南区,東本浦町７番３号－１Ｆ,,34,103,7340025,,,,,,,2025-05-02,1,,,,,ジャムワークス,0
219,1240003007174,新規,0,2025-05-02,2025-05-02,合同会社Ｄｅｌｔａ３,,合同会社,広島県,広島市東区,上温品２丁目６－７,,34,102,7320032,,,,,,,2025-05-02,1,,,,,デルタスリー,0
220,1240003007182,新規,0,2025-05-02,2025-05-02,ＧａｔｏＵ合同会社,,合同会社,広島県,広島市中区,八丁堀１２番１５号,,34,101,7300013,,,,,,,2025-05-02,1,,,,,ガトウ,0
222,1250001021127,新規,0,2025-05-02,2025-05-02,オーシェル株式会社,,株式会社,山口県,宇部市,南小串２丁目１０番１１号,,35,202,7550046,,,,,,,2025-05-02,1,,,,,オーシェル,0
243,1290803005042,新規,0,2025-05-02,2025-05-02,ＡＫ　ＴＲＡＤＩＮＧ合同会社,,合同会社,福岡県,北九州市門司区,大字柄杓田５１３番地,,40,101,8010813,,,,,,,2025-05-02,1,,,,,エーケートレーディング,0
244,1310001019585,新規,0,2025-05-02,2025-05-02,ＭＲＫエンジニアリング株式会社,,株式会社,長崎県,西彼杵郡長与町,岡郷１７５０番地１０,,42,307,8512121,,,,,,,2025-05-02,1,,,,,エムアールケーエンジニアリング,0
254,1330001033163,新規,0,2025-05-02,2025-05-02,ＧＵＩＪＩ　Ｋｕｍａｍｏｔｏ株式会社,,株式会社,熊本県,菊池郡菊陽町,光の森７丁目１番５号,,43,404,8691108,,,,,,,2025-05-02,1,,,,,グェジクマモト,0
266,1350003004920,新規,0,2025-05-02,2025-05-02,合同会社ライフ・プロテクト,,合同会社,宮崎県,延岡市,川原崎町１４９９番地４吉田貸家,,45,203,8820033,,,,,,,2025-05-02,1,,,,,ライフプロテクト,0
267,1370001052531,新規,0,2025-05-02,2025-05-02,ＰＡＬＪＵ株式会社,,株式会社,宮城県,黒川郡大郷町,中村字屋鋪７５番６,,04,422,9813521,,,,,,,2025-05-02,1,,,,,パルジュ,0
276,1390003002383,新規,0,2025-05-02,2025-05-02,合同会社米匠,,合同会社,山形県,山形市,七日町１丁目２－３６－２１４,,06,201,9900042,,,,,,,2025-05-02,1,,,,,コメショウ,0
278,1400001017027,新規,0,2025-05-02,2025-05-02,株式会社小山田移送機器,,株式会社,岩手県,花巻市,田力第４地割３８番地１,,03,205,0250005,,,,,,,2025-05-02,1,,,,,オヤマダイソウキキ,0
282,1430001094344,新規,0,2025-05-02,2025-05-02,株式会社ＢＩＧ　ＤＡＩＧＯ　Ｍｔ．,,株式会社,北海道,小樽市,桃内２丁目６７番地１,,01,203,0482673,,,,,,,2025-05-02,1,,,,,ビッグダイゴマウンテン,0
283,1430003017591,新規,0,2025-05-02,2025-05-02,合同会社ＢＥＥ,,合同会社,北海道,札幌市白石区,菊水七条２丁目１番３１号,,01,104,0030807,,,,,,,2025-05-02,1,,,,,ビー,0
284,1430003017609,新規,0,2025-05-02,2025-05-02,合同会社リーティー,,合同会社,北海道,札幌市中央区,宮の森三条８丁目３番８号,,01,101,0640953,,,,,,,2025-05-02,1,,,,,リーティー,0
290,1490005006991,新規,0,2025-05-02,2025-05-02,農事組合法人大野台地,,その他の設立登記法人,高知県,安芸郡田野町,５０３４番地,,39,303,7816410,,,,,,,2025-05-02,1,,,,,オオノダイチ,0
292,1700150130302,新規,0,2025-05-02,2025-05-02,Ａｒｍａｃｕｐ　Ｍａｒｉｔｉｍｅ　Ｓｅｒｖｉｃｅｓ　Ｌｔｄ,,外国会社等,,,,,,,,ｌｅｖｅｌ５，１５２ＱｕａｙＳｔｒｅｅｔ　Ａｕｃｋｌａｎｄ１４３　Ｎｅｗ　Ｚｅａｌａｎｄ,,,,,,2025-05-02,1,,,,,アマカツプマリタイムサービシスリミテツド,0
295,2010001254204,新規,0,2025-05-02,2025-05-02,株式会社ａｍｕｒａｎｔ,,株式会社,東京都,中央区,銀座１丁目１２番４号Ｎ＆Ｅ．ＢＬＤ７階,,13,102,1040061,,,,,,,2025-05-02,1,,,,,アミュラント,0
296,2010001254559,新規,0,2025-05-02,2025-05-02,Ａｏｋｉ株式会社,,株式会社,東京都,文京区,白山１丁目６番４号文京ＶｅｎｔｕｒｅＶａｓｅＡ３０室,,13,105,1130001,,,,,,,2025-05-02,1,,,,,アオキ,0
297,2010001254609,新規,0,2025-05-02,2025-05-02,株式会社ナチュラルナイン,,株式会社,東京都,中央区,晴海３丁目１３番２号ドゥトゥールウエストタワー３０２,,13,102,1040053,,,,,,,2025-05-02,1,,,,,ナチュラルナイン,0
298,2010001254690,新規,0,2025-05-02,2025-05-02,株式会社ＳＥＺＯ,,株式会社,東京都,千代田区,神田神保町３丁目２１番７号ＭＩＲＡＩ－ＳＴＵＤＩＯ,,13,101,1010051,,,,,,,2025-05-02,1,,,,,セゾ,0
299,2010001254716,新規,0,2025-05-02,2025-05-02,株式会社ＴＴＫホールディングス,,株式会社,東京都,千代田区,紀尾井町４番１号ニューオータニガーデンコート９階,,13,101,1020094,,,,,,,2025-05-02,1,,,,,ティーティーケーホールディングス,0
310,2010403034988,新規,0,2025-05-02,2025-05-02,クリーンエッジ合同会社,,合同会社,東京都,港区,三田３丁目７番１３号,,13,103,1080073,,,,,,,2025-05-02,1,,,,,クリーンエッジ,0
312,2010503007811,新規,0,2025-05-02,2025-05-02,未央合同会社,,合同会社,東京都,台東区,雷門２丁目１９番１７号浅草雷一ビルハローオフィス浅草３０２号,,13,106,1110034,,,,,,,2025-05-02,1,,,,,ミヨウ,0
319,2010701047642,新規,0,2025-05-02,2025-05-02,株式会社バイテック,,株式会社,東京都,品川区,西五反田２丁目９番７号ドルミ五反田アンメゾン４０７号,,13,109,1410031,,,,,,,2025-05-02,1,,,,,バイテック,0
320,2010703007693,新規,0,2025-05-02,2025-05-02,合同会社アルトコプラス,,合同会社,東京都,品川区,豊町６丁目６番９号,,13,109,1420042,,,,,,,2025-05-02,1,,,,,アルトコプラス,0
331,2011001169284,新規,0,2025-05-02,2025-05-02,株式会社ＭＤＭＪ,,株式会社,東京都,渋谷区,恵比寿南３丁目７番７号アピス代官山１階,,13,113,1500022,,,,,,,2025-05-02,1,,,,,エムディーエムジェイ,0
332,2011001169490,新規,0,2025-05-02,2025-05-02,株式会社Ｍｏｓａｉｃａ,,株式会社,東京都,渋谷区,円山町５番３号ＭＩＥＵＸ渋谷ビル８階,,13,113,1500044,,,,,,,2025-05-02,1,,,,,モザイカ,0
336,2011005010964,新規,0,2025-05-02,2025-05-02,一般社団法人Ｐａｒｋ　Ｄｅｓｉｇｎ　Ｃｅｎｔｅｒ,,その他の設立登記法人,東京都,渋谷区,東１丁目２２番２号,,13,113,1500011,,,,,,,2025-05-02,1,,,,,パークデザインセンター,0
337,2011005010972,新規,0,2025-05-02,2025-05-02,一般社団法人月面産業ビジョン協議会,,その他の設立登記法人,東京都,渋谷区,道玄坂１丁目１６番６号二葉ビル８Ｂ,,13,113,1500043,,,,,,,2025-05-02,1,,,,,ゲツメンサンギョウビジョンキョウギカイ,0
338,2011101111600,新規,0,2025-05-02,2025-05-02,森旭株式会社,,株式会社,東京都,新宿区,四谷三栄町１１番１６号,,13,104,1600008,,,,,,,2025-05-02,1,,,,,モリアサヒ,0
339,2011101111609,新規,0,2025-05-02,2025-05-02,株式会社ファビュラス,,株式会社,東京都,新宿区,二十騎町２番２号,,13,104,1620855,,,,,,,2025-05-02,1,,,,,ファビュラス,0
340,2011101111617,新規,0,2025-05-02,2025-05-02,株式会社東栄ホールディングス,,株式会社,東京都,新宿区,西落合３丁目１５番５号,,13,104,1610031,,,,,,,2025-05-02,1,,,,,トウエイホールディングス,0
341,2011101111682,新規,0,2025-05-02,2025-05-02,株式会社Ｗａｖｅ　ｏｎ,,株式会社,東京都,新宿区,西新宿７丁目２２－１６ＫＩＨビル３階,,13,104,1600023,,,,,,,2025-05-02,1,,,,,ウェーブオン,0
343,2011103015824,新規,0,2025-05-02,2025-05-02,エックスジーピー合同会社,,合同会社,東京都,新宿区,西新宿３丁目３番１３号西新宿水間ビル２Ｆ,,13,104,1600023,,,,,,,2025-05-02,1,,,,,エックスジーピー,0
346,2011401027059,新規,0,2025-05-02,2025-05-02,マルタク株式会社,,株式会社,東京都,板橋区,舟渡１丁目７番２９号パークハイム浮間舟渡２０５号,,13,119,1740041,,,,,,,2025-05-02,1,,,,,マルタク,0
350,2011601028625,新規,0,2025-05-02,2025-05-02,株式会社トレグリ,,株式会社,東京都,練馬区,谷原２丁目７番１１号カーサ・プラシード２０１,,13,120,1770032,,,,,,,2025-05-02,1,,,,,トレグリ,0
354,2011701028310,新規,0,2025-05-02,2025-05-02,株式会社ＣＲＥＳＴ,,株式会社,東京都,江戸川区,東葛西９丁目１番７－３０５号,,13,123,1340084,,,,,,,2025-05-02,1,,,,,クレスト,0
356,2012401043054,新規,0,2025-05-02,2025-05-02,株式会社田中準也事務所,,株式会社,東京都,三鷹市,中原２丁目４番２５号,,13,204,1810005,,,,,,,2025-05-02,1,,,,,タナカジュンヤジムショ,0
363,2012801023936,新規,0,2025-05-02,2025-05-02,株式会社アンドコー,,株式会社,東京都,立川市,錦町１丁目５番１４号メゾンＮ１０２,,13,202,1900022,,,,,,,2025-05-02,1,,,,,アンドコー,0
371,2020001162570,新規,0,2025-05-02,2025-05-02,日海国際貿易株式会社,,株式会社,神奈川県,横浜市港北区,鳥山町１１０２番地３－１Ｆ,,14,109,2220035,,,,,,,2025-05-02,1,,,,,ニッカイコクサイボウエキ,0
372,2020001162579,新規,0,2025-05-02,2025-05-02,株式会社ＳＩフーズ,,株式会社,神奈川県,川崎市高津区,子母口９４３番地２,,14,134,2130023,,,,,,,2025-05-02,1,,,,,エスアイフーズ,0
373,2020001162703,新規,0,2025-05-02,2025-05-02,株式会社Ｋｅｎｚｏ　Ｗｏｒｋｓ,,株式会社,神奈川県,横浜市都筑区,中川６丁目１番９－１１３号,,14,118,2240001,,,,,,,2025-05-02,1,,,,,ケンゾウワークス,0
380,2021001085092,新規,0,2025-05-02,2025-05-02,株式会社ニコモア,,株式会社,神奈川県,秦野市,南矢名１１９４－１,,14,211,2570003,,,,,,,2025-05-02,1,,,,,ニコモア,0
381,2021003015931,新規,0,2025-05-02,2025-05-02,Ｏｎｅ　ｋｅｂａｂ合同会社,,合同会社,神奈川県,座間市,入谷西４丁目１－２４松屋ビル１階,,14,216,2520029,,,,,,,2025-05-02,1,,,,,ワンケバブ,0
398,2030005022142,新規,0,2025-05-02,2025-05-02,一般社団法人身元保証利他心協会,,その他の設立登記法人,埼玉県,さいたま市岩槻区,南平野２丁目４番１５,,11,110,3390051,,,,,,,2025-05-02,1,,,,,ミモトホショウリタシンキョウカイ,0
403,2040005022752,新規,0,2025-05-02,2025-05-02,医療法人社団恵明会,,その他の設立登記法人,千葉県,四街道市,鹿渡９３３番地８２,,12,228,2840003,,,,,,,2025-05-02,1,,,,,ケイメイカイ,0
407,2050003009214,新規,0,2025-05-02,2025-05-02,ｅｔｃ．ｅｔｃ合同会社,,合同会社,茨城県,つくば市,北条１０１,,08,220,3004231,,,,,,,2025-05-02,1,,,,,ナドナド,0
408,2060005010334,新規,0,2025-05-02,2025-05-02,一般社団法人ワカモノのミライ,,その他の設立登記法人,栃木県,足利市,毛野新町１丁目１７０番地,,09,202,3260016,,,,,,,2025-05-02,1,,,,,ワカモノノミライ,0
411,2080001026910,新規,0,2025-05-02,2025-05-02,株式会社構木築志,,株式会社,静岡県,静岡市駿河区,石部４０番７号,,22,102,4210123,,,,,,,2025-05-02,1,,,,,コウボクチクシ,0
412,2090001019244,新規,0,2025-05-02,2025-05-02,ＡＲＥＡ株式会社,,株式会社,山梨県,甲斐市,大下条１２１７番地２,,19,210,4000126,,,,,,,2025-05-02,1,,,,,アレア,0
414,2100003008128,新規,0,2025-05-02,2025-05-02,合同会社ファイブ,,合同会社,長野県,長野市,川中島町御厨１９７７番地６,,20,201,3812221,,,,,,,2025-05-02,1,,,,,ファイブ,0
416,2110001039223,新規,0,2025-05-02,2025-05-02,株式会社ＹＴトラスティックシステムズ,,株式会社,新潟県,上越市,子安新田５番５号,,15,222,9430148,,,,,,,2025-05-02,1,,,,,ワイティトラスティックシステムズ,0
423,2120001275032,新規,0,2025-05-02,2025-05-02,佳禾株式会社,,株式会社,大阪府,大阪市都島区,中野町４丁目３番６号Ｈ２Ｈ大阪桜之宮邸３Ｃ－１,,27,102,5340027,,,,,,,2025-05-02,1,,,,,カカ,0
424,2120001275040,新規,0,2025-05-02,2025-05-02,株式会社ＳＯＲＡ,,株式会社,大阪府,守口市,京阪本通１丁目４－８,,27,209,5700083,,,,,,,2025-05-02,1,,,,,ソラ,0
425,2120001275081,新規,0,2025-05-02,2025-05-02,川野国際株式会社,,株式会社,大阪府,大阪市住吉区,杉本１丁目９番１６号グランビルドアビコＩ５０５号室,00139013,27,120,5580022,,,,,,,2025-05-02,1,,,,,カワノコクサイ,0
426,2120001275115,新規,0,2025-05-02,2025-05-02,株式会社ＹＵＫＩＹＡ,,株式会社,大阪府,大阪市中央区,南船場３丁目２番２２号おおきに南船場ビル２０５号,,27,128,5420081,,,,,,,2025-05-02,1,,,,,ユキヤ,0
427,2120001275131,新規,0,2025-05-02,2025-05-02,株式会社ｆｕｌｆｉｌｌ,,株式会社,大阪府,大阪市淀川区,西中島５丁目６番３－９０５号,,27,123,5320011,,,,,,,2025-05-02,1,,,,,フルフィル,0
428,2120001275189,新規,0,2025-05-02,2025-05-02,株式会社ＬＩＦ,,株式会社,大阪府,大阪市東住吉区,湯里６丁目６番２２号,,27,121,5460013,,,,,,,2025-05-02,1,,,,,リフ,0
433,2120003029287,新規,0,2025-05-02,2025-05-02,デルフィニウム合同会社,,合同会社,大阪府,寝屋川市,緑町６番１３号,,27,215,5720022,,,,,,,2025-05-02,1,,,,,デルフィニウム,0
435,2120005024922,新規,0,2025-05-02,2025-05-02,なごみ税理士法人,,その他の設立登記法人,大阪府,大阪市天王寺区,上本町５丁目４番１７－３０５号,,27,109,5430001,,,,,,,2025-05-02,1,,,,,ナゴミ,0
436,2120101071587,新規,0,2025-05-02,2025-05-02,株式会社ＥｎＬｉｎｋ,,株式会社,大阪府,堺市美原区,南余部８番地１－１０１号,,27,147,5870052,,,,,,,2025-05-02,1,,,,,エンリンク,0
439,2122001039128,新規,0,2025-05-02,2025-05-02,株式会社ＮＡＧＡＯ,,株式会社,大阪府,八尾市,西弓削２丁目２５２番地,,27,212,5810035,,,,,,,2025-05-02,1,,,,,ナガオ,0
448,2140001138328,新規,0,2025-05-02,2025-05-02,株式会社ＨＬＨＤ,,株式会社,兵庫県,神戸市東灘区,御影３丁目２番１１－８６号,,28,101,6580047,,,,,,,2025-05-02,1,,,,,エイチエルエイチディー,0
449,2140001138352,新規,0,2025-05-02,2025-05-02,株式会社ビオラス,,株式会社,兵庫県,姫路市,飾東町佐良和１９２番地３,,28,201,6710217,,,,,,,2025-05-02,1,,,,,ビオラス,0
450,2140001138360,新規,0,2025-05-02,2025-05-02,株式会社ＡＬＬ‐ｍａｉｎ,,株式会社,兵庫県,姫路市,呉服町２２番地,,28,201,6700923,,,,,,,2025-05-02,1,,,,,オールメイン,0
451,2140001138377,新規,0,2025-05-02,2025-05-02,株式会社幸田良品,,株式会社,兵庫県,神戸市兵庫区,永沢町３丁目８番７－９０３号,,28,105,6520816,,,,,,,2025-05-02,1,,,,,コウダリョウヒン,0
453,2150001028098,新規,0,2025-05-02,2025-05-02,株式会社ワイズワン,,株式会社,奈良県,奈良市,藤ノ木台３丁目９番２０号,,29,201,6310044,,,,,,,2025-05-02,1,,,,,ワイズワン,0
455,2170001018601,新規,0,2025-05-02,2025-05-02,株式会社ＭＩＬＩＭＩＬＩ,,株式会社,和歌山県,橋本市,三石台１丁目５番地の２－４－３０７,,30,203,6480094,,,,,,,2025-05-02,1,,,,,ミリミリ,0
456,2170003002207,新規,0,2025-05-02,2025-05-02,合同会社６月のアマリリス,,合同会社,和歌山県,和歌山市,広道２０番地・第２田中ビル,,30,201,6408268,,,,,,,2025-05-02,1,,,,,ロクガツノアマリリス,0
462,2180001166606,新規,0,2025-05-02,2025-05-02,株式会社Ｋｅｙｆｏｒｔｈ,,株式会社,愛知県,名古屋市北区,大杉町６丁目９７番２号,,23,103,4620836,,,,,,,2025-05-02,1,,,,,キーフォース,0
467,2180003028424,新規,0,2025-05-02,2025-05-02,合同会社Ｂｌｕｅ　Ｄｏｏｒ,,合同会社,愛知県,名古屋市中村区,名駅４丁目２４番５号第２森ビル４０１,,23,105,4500002,,,,,,,2025-05-02,1,,,,,ブルードア,0
483,2240001064885,新規,0,2025-05-02,2025-05-02,細島工業株式会社,,株式会社,広島県,広島市東区,牛田新町３丁目３０番３２号,,34,102,7320068,,,,,,,2025-05-02,1,,,,,ホソシマコウギョウ,0
484,2240001064893,新規,0,2025-05-02,2025-05-02,株式会社泰,,株式会社,広島県,広島市安芸区,矢野南１丁目５番１２－１０１号,,34,107,7360086,,,,,,,2025-05-02,1,,,,,ヒロ,0
485,2240003007181,新規,0,2025-05-02,2025-05-02,合同会社安芸事務所,,合同会社,広島県,広島市安芸区,船越南２丁目１９番２６－４１１号,,34,107,7360082,,,,,,,2025-05-02,1,,,,,アキジムショ,0
487,2250003003683,新規,0,2025-05-02,2025-05-02,合同会社糸吉,,合同会社,山口県,下松市,大字末武上５０９番地２６,,35,207,7440024,,,,,,,2025-05-02,1,,,,,イトヨシ,0
493,2270003001743,新規,0,2025-05-02,2025-05-02,合同会社サンフィッシュＳＳ,,合同会社,鳥取県,鳥取市,田園町４丁目３３７番地１,,31,201,6800803,,,,,,,2025-05-02,1,,,,,サンフィッシュエスエス,0
502,2290801031502,新規,0,2025-05-02,2025-05-02,ＢＬＩＳＳ株式会社,,株式会社,福岡県,北九州市小倉南区,企救丘２丁目４番２０－１０２号,,40,107,8020981,,,,,,,2025-05-02,1,,,,,ブリス,0
503,2290801031510,新規,0,2025-05-02,2025-05-02,株式会社吉田電設,,株式会社,福岡県,北九州市八幡西区,竹末１丁目４番１２－２０４号,,40,109,8060045,,,,,,,2025-05-02,1,,,,,ヨシダデンセツ,0
504,2290801031519,新規,0,2025-05-02,2025-05-02,株式会社ＯＭＯＲＯ８９ｎ,,株式会社,福岡県,北九州市小倉南区,横代東町３丁目８番２０号,,40,107,8020822,,,,,,,2025-05-02,1,,,,,オモロハックン,0
505,2300001014173,新規,0,2025-05-02,2025-05-02,株式会社クラフトワークス,,株式会社,佐賀県,唐津市,神田３２８５番地１５,,41,202,8470824,,,,,,,2025-05-02,1,,,,,クラフトワークス,0
506,2300003002275,新規,0,2025-05-02,2025-05-02,合同会社ＰｏｎｏＷｏｒｌｄ,,合同会社,佐賀県,伊万里市,新天町７２０番地１０,,41,205,8480041,,,,,,,2025-05-02,1,,,,,ポノワールド,0
507,2310003005005,新規,0,2025-05-02,2025-05-02,合同会社灯花,,合同会社,長崎県,大村市,富の原１丁目１０８５番地３　１０２,,42,205,8560806,,,,,,,2025-05-02,1,,,,,トウカ,0
515,2340003004846,新規,0,2025-05-02,2025-05-02,合同会社ＪＵＮ,,合同会社,鹿児島県,鹿児島市,清和１丁目２６番１４号,,46,201,8910109,,,,,,,2025-05-02,1,,,,,ジュン,0
516,2350001019507,新規,0,2025-05-02,2025-05-02,さくら観光開発株式会社,,株式会社,宮崎県,東臼杵郡門川町,加草４丁目５９番地,,45,421,8890603,,,,,,,2025-05-02,1,,,,,サクラカンコウカイハツ,0
522,2400003003445,新規,0,2025-05-02,2025-05-02,舟寿杏合同会社,,合同会社,岩手県,大船渡市,日頃市町字中小通２２,,03,203,0220005,,,,,,,2025-05-02,1,,,,,センジュアン,0
528,2430001094368,新規,0,2025-05-02,2025-05-02,株式会社寛光不動産,,株式会社,北海道,札幌市白石区,本郷通４丁目北７番１５号,,01,104,0030025,,,,,,,2025-05-02,1,,,,,カンコウフドウサン,0
530,2430003017590,新規,0,2025-05-02,2025-05-02,匠合同会社,,合同会社,北海道,石狩市,花川南十条２丁目１４８番地,,01,235,0613210,,,,,,,2025-05-02,1,,,,,タクミ,0
531,2430003017608,新規,0,2025-05-02,2025-05-02,ヴォルテクスワークス合同会社,,合同会社,北海道,苫小牧市,澄川町８丁目７番１８号,,01,213,0591271,,,,,,,2025-05-02,1,,,,,ヴォルテクスワークス,0
534,2460301005294,新規,0,2025-05-02,2025-05-02,株式会社阿部建設ＭＡ,,株式会社,北海道,北見市,端野町三区３４７番地１５,,01,208,0992103,,,,,,,2025-05-02,1,,,,,アベケンセツエムエイ,0
543,2500001026272,新規,0,2025-05-02,2025-05-02,ウィ株式会社,,株式会社,愛媛県,今治市,東村１丁目４番２５号,,38,202,7991506,,,,,,,2025-05-02,1,,,,,ウィ,0
544,2700150130301,新規,0,2025-05-02,2025-05-02,ＩＮＴＥＲＰＬＡＣＥ，ＩＮＣ．,,外国会社等,,,,,,,,アメリカ合衆国カリフォルニア州トーランス市アンドラス通り５６３３番地,,,,,,2025-05-02,1,,,,,インタープレイスインク,0
553,3010001254715,新規,0,2025-05-02,2025-05-02,株式会社Ｎｉｈｏｎ　Ｓｃｉｅｎｃｅ　Ｉｎｎｏｖａｔｉｏｎ　ａｎｄ　Ｓｏｌｕｔｉｏｎｓ,,株式会社,東京都,中央区,八重洲２丁目２－１東京ミッドタウン八重洲・八重洲セントラルタワー７階,,13,102,1040028,,,,,,,2025-05-02,1,,,,,ニホンサイエンスイノベーションアンドソリューションズ,0
557,3010003047233,新規,0,2025-05-02,2025-05-02,オーゼットエンジニア合同会社,,合同会社,東京都,中央区,日本橋箱崎町１７－１箱崎リージェントビル３Ｆ,,13,102,1030015,,,,,,,2025-05-02,1,,,,,オーゼットエンジニア,0
569,3010401190106,新規,0,2025-05-02,2025-05-02,株式会社ＥＬＰ　Ｌｉｆｅ　Ｄｅｓｉｇｎ,,株式会社,東京都,港区,北青山１丁目３番１号アールキューブ青山３階,,13,103,1070061,,,,,,,2025-05-02,1,,,,,イーエルピーライフデザイン,0
572,3010501053955,新規,0,2025-05-02,2025-05-02,三秀株式会社,,株式会社,東京都,台東区,浅草橋１丁目２５－７,,13,106,1110053,,,,,,,2025-05-02,1,,,,,サンシャイン,0
573,3010503007810,新規,0,2025-05-02,2025-05-02,合同会社プチラボミルフィーユ,,合同会社,東京都,台東区,駒形１丁目８－４,,13,106,1110043,,,,,,,2025-05-02,1,,,,,プチラボミルフィーユ,0
577,3010701047609,新規,0,2025-05-02,2025-05-02,株式会社バードコア,,株式会社,東京都,品川区,大崎１丁目２番３－２３１１号,,13,109,1410032,,,,,,,2025-05-02,1,,,,,バードコア,0
578,3010701047633,新規,0,2025-05-02,2025-05-02,株式会社聡楽企画,,株式会社,東京都,品川区,西五反田８丁目２番１２－７Ａ,,13,109,1410031,,,,,,,2025-05-02,1,,,,,ソウラクキカク,0
580,3010703007627,新規,0,2025-05-02,2025-05-02,合同会社ｗｅｌｌｂｅｉｎｇ,,合同会社,東京都,品川区,東五反田５丁目２－４アクサスレジデンス目黒東３０３,,13,109,1410022,,,,,,,2025-05-02,1,,,,,ウェルビーイング,0
581,3010703007692,新規,0,2025-05-02,2025-05-02,合同会社Ｗｅａｌｔｈ　Ａｒｔ,,合同会社,東京都,品川区,中延１丁目３－７－２０１,,13,109,1420053,,,,,,,2025-05-02,1,,,,,ウェルスアート,0
591,3011001169259,新規,0,2025-05-02,2025-05-02,株式会社シュリーラトゥナ,,株式会社,東京都,渋谷区,道玄坂１丁目１０番８号渋谷道玄坂東急ビル２Ｆ－Ｃ,,13,113,1500043,,,,,,,2025-05-02,1,,,,,シュリーラトゥナ,0
592,3011001169291,新規,0,2025-05-02,2025-05-02,株式会社Ｄｒｅｘ,,株式会社,東京都,目黒区,三田２丁目１３番１９号セザール第二目黒三田２０２,,13,110,1530062,,,,,,,2025-05-02,1,,,,,ドリックス,0
593,3011001169325,新規,0,2025-05-02,2025-05-02,株式会社Ａｄｉｓｈｉｏｎ,,株式会社,東京都,渋谷区,上原１丁目３５番９号２Ａ・２Ｃ号室ＹＹビル代々木上原第一,,13,113,1510064,,,,,,,2025-05-02,1,,,,,アディション,0
594,3011001169465,新規,0,2025-05-02,2025-05-02,株式会社ｔｅｔｏｔｅ,,株式会社,東京都,渋谷区,渋谷１丁目１０番３－３０２号,,13,113,1500002,,,,,,,2025-05-02,1,,,,,テトテ,0
595,3011003021616,新規,0,2025-05-02,2025-05-02,合同会社ＬｅｆｔＲｉｇｈｔ,,合同会社,東京都,渋谷区,円山町５番３号ＭＩＥＵＸ渋谷ビル８階,,13,113,1500044,,,,,,,2025-05-02,1,,,,,レフトライト,0
596,3011005010971,新規,0,2025-05-02,2025-05-02,一般社団法人国際インターンシップ推進協会,,その他の設立登記法人,東京都,渋谷区,千駄ヶ谷４丁目５番１５号ストークメイジュ２０３,,13,113,1510051,,,,,,,2025-05-02,1,,,,,コクサイインターンシップスイシンキョウカイ,0
598,3011101111599,新規,0,2025-05-02,2025-05-02,森旨株式会社,,株式会社,東京都,新宿区,四谷三栄町１１番１６号,,13,104,1600008,,,,,,,2025-05-02,1,,,,,モリムネ,0
599,3011101111608,新規,0,2025-05-02,2025-05-02,株式会社ＭＭＳ,,株式会社,東京都,新宿区,歌舞伎町２丁目２０番５号,,13,104,1600021,,,,,,,2025-05-02,1,,,,,エムエムエス,0
600,3011101111624,新規,0,2025-05-02,2025-05-02,株式会社デイライト,,株式会社,東京都,新宿区,西新宿３丁目３番１３号西新宿水間ビル６階,,13,104,1600023,,,,,,,2025-05-02,1,,,,,デイライト,0
613,3011801046062,新規,0,2025-05-02,2025-05-02,ＮＥＳＴ株式会社,,株式会社,東京都,足立区,西保木間４丁目１３番８－１１１２号,,13,121,1210812,,,,,,,2025-05-02,1,,,,,ネスト,0
615,3011803006832,新規,0,2025-05-02,2025-05-02,ＨＵＯＮＧ　ＶＩＥＴ合同会社,,合同会社,東京都,葛飾区,小菅４丁目１２番３号第二鳥塚ビル２０２,,13,122,1240001,,,,,,,2025-05-02,1,,,,,フオンベト,0
618,3012401043053,新規,0,2025-05-02,2025-05-02,株式会社ＭＡＨ,,株式会社,東京都,多摩市,関戸４丁目９番地の３ブロッサム聖蹟７階,,13,224,2060011,,,,,,,2025-05-02,1,,,,,エムアンドエイチ,0
619,3012403007097,新規,0,2025-05-02,2025-05-02,エムアンドエヌアーク合同会社,,合同会社,東京都,多摩市,鶴牧２丁目６番地の１サンライフ　５０３,,13,224,2060034,,,,,,,2025-05-02,1,,,,,エムアンドエヌアーク,0
620,3012403007106,新規,0,2025-05-02,2025-05-02,ＡＵＲＥＵＳ合同会社,,合同会社,東京都,調布市,東つつじケ丘３丁目２６番地３０,,13,208,1820005,,,,,,,2025-05-02,1,,,,,オーリアス,0
622,3012703003259,新規,0,2025-05-02,2025-05-02,ｑｕｉｅｔｌｙ合同会社,,合同会社,東京都,小平市,花小金井南町２丁目１－１８第３金子マンション４０３号室,,13,211,1870003,,,,,,,2025-05-02,1,,,,,クワイエットリー,0
623,3012803003720,新規,0,2025-05-02,2025-05-02,合同会社まねきたぬき,,合同会社,東京都,国分寺市,日吉町３丁目２６番地２２国立ローヤルパレス４０７,,13,214,1850032,,,,,,,2025-05-02,1,,,,,マネキタヌキ,0
647,3030001166297,新規,0,2025-05-02,2025-05-02,株式会社へブンホームズ,,株式会社,埼玉県,八潮市,大字大瀬１６２８番地１,,11,234,3400822,,,,,,,2025-05-02,1,,,,,ヘブンホームズ,0
648,3030001166314,新規,0,2025-05-02,2025-05-02,株式会社ＣＭＳ　Ｃｏｒｐｏｒａｔｉｏｎ,,株式会社,埼玉県,川越市,大字上松原２９,,11,201,3501154,,,,,,,2025-05-02,1,,,,,シーエムエスコーポレーション,0
649,3030001166330,新規,0,2025-05-02,2025-05-02,株式会社ＡｍｂｉＬａｎｄ,,株式会社,埼玉県,川越市,大字的場１９１４番地５,,11,201,3501101,,,,,,,2025-05-02,1,,,,,アンビランド,0
657,3030003026557,新規,0,2025-05-02,2025-05-02,ＴＯＰ　ＦＩＥＬＤ合同会社,,合同会社,埼玉県,川口市,戸塚鋏町５－２０ドミール渡辺Ａ１０１,,11,203,3330805,,,,,,,2025-05-02,1,,,,,トップフィールド,0
658,3030003026664,新規,0,2025-05-02,2025-05-02,ＭＩＮＯＲＩ合同会社,,合同会社,埼玉県,吉川市,中央３丁目１９番地２３,,11,243,3420061,,,,,,,2025-05-02,1,,,,,ミノリ,0
662,3040001138452,新規,0,2025-05-02,2025-05-02,ＡＩＭＩ株式会社,,株式会社,千葉県,八千代市,八千代台南１丁目２番１号八千代台南一丁目ビル,,12,221,2760033,,,,,,,2025-05-02,1,,,,,アイミ,0
663,3040001138543,新規,0,2025-05-02,2025-05-02,株式会社ＴＥＲＭＹ,,株式会社,千葉県,市川市,南八幡５丁目１０番３号,,12,203,2720023,,,,,,,2025-05-02,1,,,,,ターミー,0
664,3040001138601,新規,0,2025-05-02,2025-05-02,株式会社ＫＩＫＵＹＯ,,株式会社,千葉県,千葉市中央区,富士見２丁目４番２号喜楽ビル２Ｆ,,12,101,2600015,,,,,,,2025-05-02,1,,,,,キクヨ,0
667,3050001056604,新規,0,2025-05-02,2025-05-02,ＲＭＷ株式会社,,株式会社,茨城県,古河市,松並２丁目１６番６６号,,08,204,3060021,,,,,,,2025-05-02,1,,,,,アールエムダブリュー,0
672,3070001042899,新規,0,2025-05-02,2025-05-02,株式会社ＲｅＲｅ,,株式会社,群馬県,館林市,本町２丁目３番７号木村ビル１Ｆ,,10,207,3740024,,,,,,,2025-05-02,1,,,,,リリ,0
676,3090003002809,新規,0,2025-05-02,2025-05-02,ＹＡＭＡＮＡＳＨＩ　ＣＲＯＳＳ合同会社,,合同会社,山梨県,甲府市,大里町１１５９番地１,,19,201,4000053,,,,,,,2025-05-02,1,,,,,ヤマナシクロス,0
677,3100001038547,新規,0,2025-05-02,2025-05-02,株式会社ＬｙｎＸ,,株式会社,長野県,大町市,大町５０８８－１,,20,212,3980002,,,,,,,2025-05-02,1,,,,,リンクス,0
678,3100003008127,新規,0,2025-05-02,2025-05-02,Ｒｅａｌ　Ｈａｋｕｂａ合同会社,,合同会社,長野県,北安曇郡白馬村,大字北城２５４６番地,,20,485,3999301,,,,,,,2025-05-02,1,,,,,リアルハクバ,0
681,3110001039222,新規,0,2025-05-02,2025-05-02,株式会社わーくらぼ,,株式会社,新潟県,見附市,市野坪町２－５０－１,,15,211,9540083,,,,,,,2025-05-02,1,,,,,ワークラボ,0
696,3120001275064,新規,0,2025-05-02,2025-05-02,アグホライズン株式会社,,株式会社,大阪府,大阪市中央区,南新町２丁目３番３号,,27,128,5400024,,,,,,,2025-05-02,1,,,,,アグホライズン,0
697,3120001275114,新規,0,2025-05-02,2025-05-02,株式会社ハルアケア,,株式会社,大阪府,大阪市北区,梅田１丁目２番２号大阪駅前第２ビル１２－１２,,27,127,5300001,,,,,,,2025-05-02,1,,,,,ハルアケア,0
698,3120001275122,新規,0,2025-05-02,2025-05-02,ＯＰＥＲＡ　ＭＡＳＫＳ株式会社,,株式会社,大阪府,大阪市中央区,平野町１丁目４番１－７０３号,,27,128,5410046,,,,,,,2025-05-02,1,,,,,オペラマスクス,0
699,3120001275130,新規,0,2025-05-02,2025-05-02,株式会社ＡＧ,,株式会社,大阪府,大阪市中央区,東心斎橋１丁目１６番９号第八ＫＳビル,,27,128,5420083,,,,,,,2025-05-02,1,,,,,エージー,0
702,3120003029286,新規,0,2025-05-02,2025-05-02,あおぞら合同会社,,合同会社,大阪府,大阪市東成区,大今里南５丁目１０－１１,,27,115,5370013,,,,,,,2025-05-02,1,,,,,アオゾラ,0
703,3120003029303,新規,0,2025-05-02,2025-05-02,新未来合同会社,,合同会社,大阪府,大阪市浪速区,塩草３丁目６番１１号ティーズ桜川２０３号室,,27,111,5560024,,,,,,,2025-05-02,1,,,,,シンミライ,0
704,3120101071529,新規,0,2025-05-02,2025-05-02,一丁株式会社,,株式会社,大阪府,堺市堺区,中瓦町１丁２－９－６０１,,27,141,5900077,,,,,,,2025-05-02,1,,,,,イッチョウ,0
705,3120101071586,新規,0,2025-05-02,2025-05-02,株式会社ＲＩＩＩＳＥ,,株式会社,大阪府,堺市東区,日置荘西町７丁１０番３号,,27,143,5998114,,,,,,,2025-05-02,1,,,,,ライズ,0
714,3122003003196,新規,0,2025-05-02,2025-05-02,合同会社森山鋳造,,合同会社,大阪府,東大阪市,中小阪２丁目２番３号,,27,227,5770804,,,,,,,2025-05-02,1,,,,,モリヤマチュウゾウ,0
718,3130003010419,新規,0,2025-05-02,2025-05-02,合同会社ＫＴＹＯＷＩＮＥ,,合同会社,京都府,綴喜郡宇治田原町,大字郷之口小字田中３１番地,,26,344,6100255,,,,,,,2025-05-02,1,,,,,ケーティワイオーワイン,0
727,3140001138327,新規,0,2025-05-02,2025-05-02,株式会社アクシスソリューション,,株式会社,兵庫県,神戸市中央区,磯辺通４丁目１番８号Ｉ．Ｔ．Ｃ．ビル４０３号,,28,110,6510084,,,,,,,2025-05-02,1,,,,,アクシスソリューション,0
734,3150001028097,新規,0,2025-05-02,2025-05-02,株式会社ＳＴＡＹＧＬＤ,,株式会社,奈良県,北葛城郡上牧町,桜ケ丘１丁目１番地１８,,29,424,6390202,,,,,,,2025-05-02,1,,,,,ステイゴールド,0
739,3160005011404,新規,0,2025-05-02,2025-05-02,一般社団法人Ｔｈａｎｋｓ,,その他の設立登記法人,滋賀県,彦根市,東沼波町９０３番地,,25,202,5220027,,,,,,,2025-05-02,1,,,,,サンクス,0
740,3170001018609,新規,0,2025-05-02,2025-05-02,株式会社カメリア・ジャポニカ,,株式会社,和歌山県,和歌山市,有本５１２番地７,,30,201,6408390,,,,,,,2025-05-02,1,,,,,カメリアジャポニカ,0
741,3170003002206,新規,0,2025-05-02,2025-05-02,Ｍｉ．Ｌｉｋｅ合同会社,,合同会社,和歌山県,和歌山市,美園町５丁目７番地８,,30,201,6408331,,,,,,,2025-05-02,1,,,,,ミライク,0
754,3180301039774,新規,0,2025-05-02,2025-05-02,株式会社トータルホーム,,株式会社,愛知県,安城市,東端町道城７１番地９,,23,212,4441213,,,,,,,2025-05-02,1,,,,,トータルホーム,0
757,3180303006558,新規,0,2025-05-02,2025-05-02,合同会社光ノ水,,合同会社,愛知県,豊橋市,石巻町字仲ノ坪４０番地の７,,23,201,4411112,,,,,,,2025-05-02,1,,,,,ヒカリノミズ,0
759,3200001043719,新規,0,2025-05-02,2025-05-02,株式会社ワンヴィス,,株式会社,岐阜県,多治見市,喜多町５丁目７９番地,,21,204,5070055,,,,,,,2025-05-02,1,,,,,ワンヴィス,0
761,3200003006806,新規,0,2025-05-02,2025-05-02,合同会社ゆう,,合同会社,岐阜県,瑞穂市,穂積９６８番地５,,21,216,5010223,,,,,,,2025-05-02,1,,,,,ユウ,0
762,3200005013759,新規,0,2025-05-02,2025-05-02,一般社団法人ＬＩＢＥＲＴＡスポーツクラブ,,その他の設立登記法人,岐阜県,瑞穂市,十九条４２５番地１,,21,216,5010235,,,,,,,2025-05-02,1,,,,,リベルタスポーツクラブ,0
764,3210001020147,新規,0,2025-05-02,2025-05-02,株式会社Ｒｅｌｉｅ,,株式会社,福井県,福井市,板垣２丁目２８０４番地,,18,201,9188104,,,,,,,2025-05-02,1,,,,,レリエ,0
770,3220001026655,新規,0,2025-05-02,2025-05-02,株式会社レイシン,,株式会社,石川県,野々市市,本町６丁目２３番３３号,,17,212,9218815,,,,,,,2025-05-02,1,,,,,レイシン,0
774,3220005008963,新規,0,2025-05-02,2025-05-02,一般社団法人健康へとつづくみち,,その他の設立登記法人,石川県,金沢市,片町２丁目１３－１３,,17,201,9200981,,,,,,,2025-05-02,1,,,,,ケンコウヘトツヅクミチ,0
777,3250003003716,新規,0,2025-05-02,2025-05-02,合同会社リハスタイル,,合同会社,山口県,周南市,藤ヶ台２丁目２番１５号,,35,215,7450618,,,,,,,2025-05-02,1,,,,,リハスタイル,0
787,3290801031501,新規,0,2025-05-02,2025-05-02,株式会社ＫＡＧＡ,,株式会社,福岡県,北九州市小倉北区,井堀４丁目４番１６号,,40,106,8030835,,,,,,,2025-05-02,1,,,,,カガ,0
788,3290801031518,新規,0,2025-05-02,2025-05-02,株式会社竹下塗装,,株式会社,福岡県,北九州市戸畑区,西大谷１丁目９番４３号,,40,105,8040032,,,,,,,2025-05-02,1,,,,,タケシタトソウ,0
792,3320001021076,新規,0,2025-05-02,2025-05-02,株式会社ウォークオン‐ＺＸ,,株式会社,大分県,別府市,大字鉄輪字峯本８５２番地４１,,44,202,8740000,,,,,,,2025-05-02,1,,,,,ウォークオンゼットエックス,0
794,3330001033145,新規,0,2025-05-02,2025-05-02,ギグス株式会社,,株式会社,熊本県,八代市,通町１０－５２,,43,202,8660856,,,,,,,2025-05-02,1,,,,,ギグス,0
795,3330001033153,新規,0,2025-05-02,2025-05-02,株式会社いちごいろ,,株式会社,熊本県,熊本市東区,広木町２２番４５号エントピアレークタウンＢ－１０２号室,,43,102,8620906,,,,,,,2025-05-02,1,,,,,イチゴイロ,0
805,3340001027311,新規,0,2025-05-02,2025-05-02,株式会社西元建築,,株式会社,鹿児島県,日置市,伊集院町妙円寺２丁目５９番地１４,,46,216,8992503,,,,,,,2025-05-02,1,,,,,ニシモトケンチク,0
813,3370003007077,新規,0,2025-05-02,2025-05-02,合同会社ルミナス,,合同会社,宮城県,大崎市,古川柏崎字境田１５番地,,04,215,9896216,,,,,,,2025-05-02,1,,,,,ルミナス,0
814,3370003007085,新規,0,2025-05-02,2025-05-02,合同会社こまくさ,,合同会社,宮城県,石巻市,貞山１丁目３番６－２号,,04,202,9860851,,,,,,,2025-05-02,1,,,,,コマクサ,0
820,3400001017025,新規,0,2025-05-02,2025-05-02,株式会社シスターシップ,,株式会社,岩手県,一関市,上大槻街１番１５号一ＢＡ内,,03,209,0210882,,,,,,,2025-05-02,1,,,,,シスターシップ,0
822,3420001019102,新規,0,2025-05-02,2025-05-02,株式会社ｒｅｃｅｔｔｏ　ｂｒｉｌｌｅｒ,,株式会社,青森県,八戸市,大字十三日町１ヴィアノヴァビル３Ｆ,,02,203,0310042,,,,,,,2025-05-02,1,,,,,ルセットブリエ,0
825,3430001094276,新規,0,2025-05-02,2025-05-02,株式会社ＯＮＥ　ＵＰ,,株式会社,北海道,小樽市,塩谷２丁目２５番１号,,01,203,0482672,,,,,,,2025-05-02,1,,,,,ワンナップ,0
826,3430001094292,新規,0,2025-05-02,2025-05-02,株式会社Ｏ‐ｔｈｏｄｏｘ,,株式会社,北海道,小樽市,新光４丁目２８番１７号,,01,203,0470152,,,,,,,2025-05-02,1,,,,,オーソドックス,0
827,3430001094318,新規,0,2025-05-02,2025-05-02,本木山業株式会社,,株式会社,北海道,勇払郡厚真町,字豊沢２６２番地,,01,581,0591624,,,,,,,2025-05-02,1,,,,,モトキサンギョウ,0
851,3700150130300,新規,0,2025-05-02,2025-05-02,ＢｅｎｅｓｓｅＨｏｎｇＫｏｎｇＣｏ．，Ｌｔｄ．,,外国会社等,,,,,,,,Ｕｎｉｔ１５２１，Ｔｏｗｅｒ１，ＧｒａｎｄＣｅｎｔｒａｌＰｌａｚａ，１３８ＳｈａｔｉｎＲｕｒａｌＣｏｍｍｉｔｔｅｅＲｏａｄ，Ｓｈａｔｉｎ，Ｎ．Ｔ．，ＨｏｎｇＫｏｎｇ．,,,,,,2025-05-02,1,,,,,ベネツセホンコンカンパニーリミテツド,0
860,4010001254730,新規,0,2025-05-02,2025-05-02,株式会社ペニンシュラ東京ファイナンスサービス,,株式会社,東京都,千代田区,有楽町１丁目８番１号,,13,101,1000006,,,,,,,2025-05-02,1,,,,,ペニンシュラトウキョウファイナンスサービス,0
861,4010003047158,新規,0,2025-05-02,2025-05-02,合同会社ＡＩＺＡＷＡ,,合同会社,東京都,千代田区,飯田橋３丁目７番１４号,,13,101,1020072,,,,,,,2025-05-02,1,,,,,アイザワ,0
863,4010101016659,新規,0,2025-05-02,2025-05-02,株式会社Ｎｅｘｔｏｎｅ,,株式会社,東京都,八王子市,東町３‐９鈴木ビル地下一階,,13,201,1920082,,,,,,,2025-05-02,1,,,,,ネクストワン,0
866,4010401189907,新規,0,2025-05-02,2025-05-02,Ｆｉｒｓｔ　Ｃｒｅａｔｉｏｎ株式会社,,株式会社,東京都,港区,北青山１丁目３番１号アールキューブ青山３階,,13,103,1070061,,,,,,,2025-05-02,1,,,,,ファーストクリエイション,0
869,4010403034961,新規,0,2025-05-02,2025-05-02,合同会社Ｂｌｕｅ　Ｗａｖｅ,,合同会社,東京都,港区,芝浦４丁目１９番１－３１１７号,,13,103,1080023,,,,,,,2025-05-02,1,,,,,ブルーウエイブ,0
871,4010503007818,新規,0,2025-05-02,2025-05-02,素説合同会社,,合同会社,東京都,台東区,浅草橋１丁目２５－７,,13,106,1110053,,,,,,,2025-05-02,1,,,,,ソセツ,0
875,4010701047632,新規,0,2025-05-02,2025-05-02,日本富藤机械株式会社,,株式会社,東京都,品川区,西五反田８丁目１番１３号ＧＢＳ・Ｅ－７,,13,109,1410031,,,,,,,2025-05-02,1,,,,,ニホントミフジキカイ,0
877,4010703007691,新規,0,2025-05-02,2025-05-02,合同会社宗濬,,合同会社,東京都,品川区,南品川６丁目１５番５－１０５号,,13,109,1400004,,,,,,,2025-05-02,1,,,,,ソウシュン,0
882,4010901057266,新規,0,2025-05-02,2025-05-02,株式会社ＣＯＡ,,株式会社,東京都,世田谷区,宇奈根１丁目４０番６号－Ａ,,13,112,1570068,,,,,,,2025-05-02,1,,,,,コア,0
883,4010901057282,新規,0,2025-05-02,2025-05-02,株式会社小島新聞店,,株式会社,東京都,世田谷区,太子堂１丁目１２番３１号,,13,112,1540004,,,,,,,2025-05-02,1,,,,,コジマシンブンテン,0
884,4010903009884,新規,0,2025-05-02,2025-05-02,合同会社Ｗａｎｄｅｒｐａｔｈ,,合同会社,東京都,世田谷区,上用賀１丁目１１－１２－２０５,,13,112,1580098,,,,,,,2025-05-02,1,,,,,ワンダーパス,0
889,4011001169233,新規,0,2025-05-02,2025-05-02,新電力需給調整株式会社,,株式会社,東京都,渋谷区,道玄坂１丁目１６番３号渋谷センタープレイス２階,,13,113,1500043,,,,,,,2025-05-02,1,,,,,シンデンリョクジュキュウチョウセイ,0
890,4011003021615,新規,0,2025-05-02,2025-05-02,合同会社サカサ,,合同会社,東京都,渋谷区,神南１丁目１１番４号ＦＰＧリンクス神南５階,,13,113,1500041,,,,,,,2025-05-02,1,,,,,サカサ,0
893,4011005010970,新規,0,2025-05-02,2025-05-02,特定非営利活動法人Ｙｏｕｔｈ　Ｆｏｒ　Ｆｕｔｕｒｅ,,その他の設立登記法人,東京都,渋谷区,道玄坂１丁目１０番８号渋谷道玄坂東急ビル２Ｆ－Ｃ,,13,113,1500043,,,,,,,2025-05-02,1,,,,,,0
897,4011101111607,新規,0,2025-05-02,2025-05-02,株式会社Ｏｔｔｉｅ,,株式会社,東京都,新宿区,高田馬場３丁目１番５号サンパティオ高田馬場２０９号,,13,104,1690075,,,,,,,2025-05-02,1,,,,,オッティ,0
898,4011103015863,新規,0,2025-05-02,2025-05-02,Ｐ‐Ｒｅｄｉａ合同会社,,合同会社,東京都,新宿区,高田馬場３丁目１－５,,13,104,1690075,,,,,,,2025-05-02,1,,,,,プレディア,0
899,4011105011415,新規,0,2025-05-02,2025-05-02,一般社団法人日本マダガスカル口唇口蓋裂医療協会,,その他の設立登記法人,東京都,新宿区,信濃町１１番地５－１２０１,,13,104,1600016,,,,,,,2025-05-02,1,,,,,ニホンマダガスカルコウシンコウガイレツイリョウキョウカイ,0
902,4011401027057,新規,0,2025-05-02,2025-05-02,澤震株式会社,,株式会社,東京都,板橋区,大山町１９番７,,13,119,1730023,,,,,,,2025-05-02,1,,,,,サワシン,0
903,4011503006520,新規,0,2025-05-02,2025-05-02,合同会社ＯＴＯあんどっと,,合同会社,東京都,北区,浮間１丁目３番１－５０８号,,13,117,1150051,,,,,,,2025-05-02,1,,,,,オトアンドット,0
905,4011601028631,新規,0,2025-05-02,2025-05-02,株式会社ＧＡＧＡＫＵ,,株式会社,東京都,練馬区,練馬１丁目２０番８号日建練馬ビル２Ｆ,,13,120,1760001,,,,,,,2025-05-02,1,,,,,ガガク,0
911,4011801046078,新規,0,2025-05-02,2025-05-02,株式会社スコーパー,,株式会社,東京都,葛飾区,水元１丁目２２番１４号,,13,122,1250032,,,,,,,2025-05-02,1,,,,,スコーパー,0
915,4012401042995,新規,0,2025-05-02,2025-05-02,株式会社つばめハウス,,株式会社,東京都,武蔵野市,吉祥寺北町１丁目３０番５号,,13,203,1800001,,,,,,,2025-05-02,1,,,,,ツバメハウス,0
916,4012401043052,新規,0,2025-05-02,2025-05-02,株式会社テイマース,,株式会社,東京都,府中市,紅葉丘１丁目２５番地の４,,13,206,1830004,,,,,,,2025-05-02,1,,,,,テイマース,0
938,4021003015896,新規,0,2025-05-02,2025-05-02,合同会社匠家工務店,,合同会社,神奈川県,横須賀市,追浜東町３丁目８７番地１０号,,14,201,2370063,,,,,,,2025-05-02,1,,,,,タクミヤコウムテン,0
939,4021003015905,新規,0,2025-05-02,2025-05-02,合同会社萬望,,合同会社,神奈川県,小田原市,飯田岡７０－１３,,14,206,2500854,,,,,,,2025-05-02,1,,,,,マンボウ,0
941,4021005013361,新規,0,2025-05-02,2025-05-02,一般社団法人日本福祉支援機構,,その他の設立登記法人,神奈川県,大和市,南林間６丁目２２番２０号サンプラザ南林間２０７号,,14,213,2420006,,,,,,,2025-05-02,1,,,,,ニホンフクシシエンキコウ,0
949,4030003026713,新規,0,2025-05-02,2025-05-02,合同会社ＴＧＵ,,合同会社,埼玉県,さいたま市南区,根岸１丁目１９－４リアージュ南浦和ヒルズ３０１,,11,108,3360024,,,,,,,2025-05-02,1,,,,,ティージーユー,0
951,4030005022149,新規,0,2025-05-02,2025-05-02,ＮＰＯ法人Ｉｍａｇｉｎｅ,,その他の設立登記法人,埼玉県,狭山市,大字青柳１４１番地の２３,,11,215,3501301,,,,,,,2025-05-02,1,,,,,イマジン,0
962,4040001138559,新規,0,2025-05-02,2025-05-02,市川ハイトラスト株式会社,,株式会社,千葉県,市川市,原木３００９番地,,12,203,2720004,,,,,,,2025-05-02,1,,,,,イチカワハイトラスト,0
963,4040001138591,新規,0,2025-05-02,2025-05-02,株式会社Ｌａ　Ｂｒｉｌｌｅｒ,,株式会社,千葉県,香取市,佐原イ５９４番地,,12,236,2870003,,,,,,,2025-05-02,1,,,,,ラブリエ,0
967,4050001056594,新規,0,2025-05-02,2025-05-02,ＲＡＲＡ株式会社,,株式会社,茨城県,古河市,女沼８７６番地１５パルネットＫＶＩ１０５,,08,204,3060226,,,,,,,2025-05-02,1,,,,,ララ,0
969,4060003005540,新規,0,2025-05-02,2025-05-02,合同会社ｎｅｋｋｏ,,合同会社,栃木県,日光市,小百７１３－１,,09,206,3211265,,,,,,,2025-05-02,1,,,,,ネッコ,0
973,4070001042898,新規,0,2025-05-02,2025-05-02,株式会社Ｒ．Ａ．Ｒ．Ａイノベーション,,株式会社,群馬県,伊勢崎市,除ケ町３２７番地２４,,10,204,3720832,,,,,,,2025-05-02,1,,,,,ラライノベーション,0
976,4080001026909,新規,0,2025-05-02,2025-05-02,株式会社鈴木計電,,株式会社,静岡県,静岡市葵区,与一１丁目１番８－７号,,22,101,4200949,,,,,,,2025-05-02,1,,,,,スズキケイデン,0
977,4080001026917,新規,0,2025-05-02,2025-05-02,株式会社ＢＡＲＢＥＲ　Ｅ‐ＳＴＹＬＥ,,株式会社,静岡県,焼津市,岡当目３６２番地の３,,22,212,4250013,,,,,,,2025-05-02,1,,,,,バーバーイースタイル,0
978,4080003003443,新規,0,2025-05-02,2025-05-02,合同会社帝愛,,合同会社,静岡県,静岡市清水区,蒲原５３７３番地の１４,,22,103,4213203,,,,,,,2025-05-02,1,,,,,テイアイ,0
987,4110001039221,新規,0,2025-05-02,2025-05-02,株式会社ブリッジ,,株式会社,新潟県,新潟市西区,内野町６９０－１,,15,107,9502112,,,,,,,2025-05-02,1,,,,,ブリッジ,0
1002,4120001275113,新規,0,2025-05-02,2025-05-02,万衆国際株式会社,,株式会社,大阪府,大阪市淀川区,三津屋中３丁目８番２０号,,27,123,5320036,,,,,,,2025-05-02,1,,,,,バンシュウコクサイ,0
1003,4120001275154,新規,0,2025-05-02,2025-05-02,株式会社ＢＡ　ＤＩＮＨ　ＳＮ,,株式会社,大阪府,大阪市浪速区,元町１丁目１１番８号ＳＡＫＩＭＯＴＯＢＬＤＧ５０２－１,,27,111,5560016,,,,,,,2025-05-02,1,,,,,バディンエスエヌ,0
1004,4120001275229,新規,0,2025-05-02,2025-05-02,関西セラー株式会社,,株式会社,大阪府,大阪市淀川区,塚本４丁目３番７号エスリード塚本第二７０５号室,,27,123,5320026,,,,,,,2025-05-02,1,,,,,カンサイセラー,0
1008,4120003029293,新規,0,2025-05-02,2025-05-02,合同会社Ｒｉｎｏａ,,合同会社,大阪府,大阪市平野区,長吉出戸５丁目１番４５号,,27,126,5470011,,,,,,,2025-05-02,1,,,,,リノア,0
1009,4120003029302,新規,0,2025-05-02,2025-05-02,凱宥合同会社,,合同会社,大阪府,大阪市西成区,天下茶屋１丁目６－２１,,27,122,5570014,,,,,,,2025-05-02,1,,,,,カイユウ,0
1010,4120101071569,新規,0,2025-05-02,2025-05-02,Ｙ＆Ｋ株式会社,,株式会社,大阪府,堺市堺区,一条通１３－２０中岡ビル２０３,,27,141,5900048,,,,,,,2025-05-02,1,,,,,ワイアンドケイ,0
1011,4120103006424,新規,0,2025-05-02,2025-05-02,合同会社Ｎ’ｓ,,合同会社,大阪府,堺市堺区,住吉橋町１丁５－２２サンハイツ堺,,27,141,5900973,,,,,,,2025-05-02,1,,,,,エヌズ,0
1012,4120105009986,新規,0,2025-05-02,2025-05-02,一般社団法人心の架け橋,,その他の設立登記法人,大阪府,泉南郡熊取町,五門東３丁目１５番１２号,,27,361,5900414,,,,,,,2025-05-02,1,,,,,ココロノカケハシ,0
1018,4120905006729,新規,0,2025-05-02,2025-05-02,一般社団法人ＬＳＮ　Ｐｈｏｅｎｉｘ,,その他の設立登記法人,大阪府,豊中市,長興寺南４丁目５番７－４０３号,,27,203,5610874,,,,,,,2025-05-02,1,,,,,エルエスエヌフェニックス,0
1019,4122001039167,新規,0,2025-05-02,2025-05-02,ルクライド不動産株式会社,,株式会社,大阪府,八尾市,都塚３丁目１７番地,,27,212,5810023,,,,,,,2025-05-02,1,,,,,ルクライドフドウサン,0
1025,4130001079562,新規,0,2025-05-02,2025-05-02,株式会社まほろば,,株式会社,京都府,京田辺市,大住責谷７８番地５１,,26,211,6100343,,,,,,,2025-05-02,1,,,,,マホロバ,0
1026,4130001079570,新規,0,2025-05-02,2025-05-02,株式会社のびしろ,,株式会社,京都府,京都市中京区,河原町通二条下る一之船入町５３７番地２０ＦＩＳ御池ビル,,26,104,6040924,,,,,,,2025-05-02,1,,,,,ノビシロ,0
1031,4140003022016,新規,0,2025-05-02,2025-05-02,ＡＬＬＵＲＥ合同会社,,合同会社,兵庫県,西宮市,甲陽園本庄町６番５１号バウアーハウスＹ号,,28,204,6620015,,,,,,,2025-05-02,1,,,,,アリュール,0
1036,4180001166620,新規,0,2025-05-02,2025-05-02,株式会社松永工業,,株式会社,愛知県,津島市,大字古川字汁江３４３番地－２Ｆ,,23,208,4960043,,,,,,,2025-05-02,1,,,,,マツナガコウギョウ,0
1049,4180301039765,新規,0,2025-05-02,2025-05-02,金山テクノ株式会社,,株式会社,愛知県,豊橋市,三ノ輪町字三ノ輪３９番地５,,23,201,4400837,,,,,,,2025-05-02,1,,,,,カナヤマテクノ,0
1057,4210003001920,新規,0,2025-05-02,2025-05-02,合同会社万海,,合同会社,福井県,福井市,新保２丁目８０８番地１,,18,201,9100833,,,,,,,2025-05-02,1,,,,,マンカイ,0
1062,4240001064891,新規,0,2025-05-02,2025-05-02,株式会社５０,,株式会社,広島県,広島市中区,大手町５丁目１０番１１－６０１号,,34,101,7300051,,,,,,,2025-05-02,1,,,,,ゴーマル,0
1063,4240001064900,新規,0,2025-05-02,2025-05-02,株式会社ささき経理労務代行,,株式会社,広島県,広島市中区,上八丁堀７番２７号藤岡ビル２０１号,,34,101,7300012,,,,,,,2025-05-02,1,,,,,ササキケイリロウムダイコウ,0
1066,4250003003715,新規,0,2025-05-02,2025-05-02,合同会社プラスワン,,合同会社,山口県,宇部市,松山町３丁目１０番５－２０２号,,35,202,7550026,,,,,,,2025-05-02,1,,,,,プラスワン,0
1067,4250005009009,新規,0,2025-05-02,2025-05-02,一般社団法人ｈｉｋａｒｉ　ｓｅｅｄｅｒ,,その他の設立登記法人,山口県,光市,島田２丁目５番８号,,35,210,7430063,,,,,,,2025-05-02,1,,,,,ヒカリシーダー,0
1069,4280001009422,新規,0,2025-05-02,2025-05-02,株式会社トキワホーム,,株式会社,島根県,松江市,東津田町１６１２番地１０,,32,201,6900011,,,,,,,2025-05-02,1,,,,,トキワホーム,0
1079,4290005019730,新規,0,2025-05-02,2025-05-02,医療法人展大会,,その他の設立登記法人,福岡県,福岡市中央区,六本松４丁目１１番２６号ビバーチェ・ハシモト２階１０号室,,40,133,8100044,,,,,,,2025-05-02,1,,,,,テンダイカイ,0
1080,4290801031500,新規,0,2025-05-02,2025-05-02,株式会社梶山工業,,株式会社,福岡県,中間市,岩瀬西町５１番２９号,,40,215,8090041,,,,,,,2025-05-02,1,,,,,カジヤマコウギョウ,0
1083,4300001014171,新規,0,2025-05-02,2025-05-02,株式会社笠原設計事務所,,株式会社,佐賀県,小城市,小城町自在３３１番地１,,41,208,8450001,,,,,,,2025-05-02,1,,,,,カサハラセッケイジムショ,0
1087,4330001033152,新規,0,2025-05-02,2025-05-02,株式会社カイト,,株式会社,熊本県,上益城郡嘉島町,大字鯰１５３７番地５,,43,442,8613101,,,,,,,2025-05-02,1,,,,,カイト,0
1089,4340003004844,新規,0,2025-05-02,2025-05-02,合同会社末吉会計,,合同会社,鹿児島県,姶良市,西宮島町２２番地２,,46,225,8995433,,,,,,,2025-05-02,1,,,,,スエヨシカイケイ,0
1094,4370001052529,新規,0,2025-05-02,2025-05-02,株式会社イーストハンドコンサル,,株式会社,宮城県,仙台市太白区,八本松２丁目８番１２－７０７号,,04,104,9820001,,,,,,,2025-05-02,1,,,,,イーストハンドコンサル,0
1100,4390001017975,新規,0,2025-05-02,2025-05-02,株式会社プレザント,,株式会社,山形県,飽海郡遊佐町,吉出字太田１２番地の３,,06,461,9998302,,,,,,,2025-05-02,1,,,,,,0
1114,4430001094325,新規,0,2025-05-02,2025-05-02,ＲＶＧ株式会社,,株式会社,北海道,札幌市北区,拓北七条１丁目１１番９号,,01,102,0028067,,,,,,,2025-05-02,1,,,,,アールブイジー,0
1115,4430003017589,新規,0,2025-05-02,2025-05-02,合同会社ＮｅｗＷｏｒｌｄＯｖｅｒ,,合同会社,北海道,札幌市北区,篠路七条４丁目３番５号,,01,102,0028027,,,,,,,2025-05-02,1,,,,,ニューワールドオーバー,0
1118,4470001020698,新規,0,2025-05-02,2025-05-02,株式会社盛和,,株式会社,香川県,高松市,成合町８０５番地１,,37,201,7618081,,,,,,,2025-05-02,1,,,,,セイワ,0
1124,4700150123162,新規,0,2025-05-02,2025-05-02,ＦＵＺＨＯＵＣＩＴＹ　ＧＵＬＯＵＡＲＥＡ　ＪＩＵＳＨＥＮＧ　ＴＲＡＤＥ　ＣＯ．，ＬＴＤ,,外国会社等,,,,,,,,福建省福州市鼓楼区東街街道五一北路１０６号新僑聯広場１＃楼２３層２３０２室－Ａ,00138996,,,,,2025-05-02,1,,,,,フージョウシティグロウエアリアジウシェントレーディングカンパニーリミテッド,0
1125,4700150130299,新規,0,2025-05-02,2025-05-02,ＨｏｎｇＫｏｎｇ　Ｃ４　Ｂｒｏｔｈｅｒｓ　Ｈｏｌｄｉｎｇｓ　Ｌｉｍｉｔｅｄ,,外国会社等,,,,,,,,Ｔｏｗｅｒ　２，Ｓｉｌｖｅｒｃｏｒｄ，３０　Ｃａｎｔｏｎ　Ｒｏａｄ，Ｔｓｉｍ　Ｓｈａ　Ｔｓｕｉ，Ｋｏｗｌｏｏｎ，Ｈｏｎｇ　Ｋｏｎｇ,,,,,,2025-05-02,1,,,,,ホンコンシーフオーブラザーズホールデイングスリミテツド,0
1134,5010001254663,新規,0,2025-05-02,2025-05-02,トータルケアマネジメント株式会社,,株式会社,東京都,文京区,白山１丁目３０番３号３階,,13,105,1130001,,,,,,,2025-05-02,1,,,,,トータルケアマネジメント,0
1136,5010003047124,新規,0,2025-05-02,2025-05-02,Ｃ・Ｃアシスト合同会社,,合同会社,東京都,千代田区,神田須田町１丁目７－８ＶＯＲＴ秋葉原ＩＶ２Ｆ,00139003,13,101,1010041,,,,,,,2025-05-02,1,,,,,シーシーアシスト,0
1137,5010003047256,新規,0,2025-05-02,2025-05-02,女満別ソーラー合同会社,,合同会社,東京都,千代田区,霞が関３丁目２番５号霞が関ビルディング３１階,,13,101,1000013,,,,,,,2025-05-02,1,,,,,メマンベツソーラー,0
1142,5010401190070,新規,0,2025-05-02,2025-05-02,株式会社ＨＥＲＯ’ＺＺ　ＢＩＺ,,株式会社,東京都,港区,芝２丁目２番１２号５階,,13,103,1050014,,,,,,,2025-05-02,1,,,,,ヒーローズビズ,0
1146,5010505003599,新規,0,2025-05-02,2025-05-02,弁護士法人ホウガイド,,その他の設立登記法人,東京都,台東区,上野３丁目１５－７ＵｅｎｏＹｏｕｒ３０９,,13,106,1100005,,,,,,,2025-05-02,1,,,,,ホウガイド,0
1150,5010701047549,新規,0,2025-05-02,2025-05-02,株式会社仲信,,株式会社,東京都,品川区,東大井５丁目１４番１９号,,13,109,1400011,,,,,,,2025-05-02,1,,,,,チュウシン,0
1152,5010703007690,新規,0,2025-05-02,2025-05-02,合同会社ＹＯＢＵＫＯ　ＹＡＮＯ,,合同会社,東京都,品川区,大井１丁目３１番１－１５１６号,,13,109,1400014,,,,,,,2025-05-02,1,,,,,ヨブコヤノ,0
1153,5010901057281,新規,0,2025-05-02,2025-05-02,株式会社ＳＭＦＴ,,株式会社,東京都,世田谷区,桜丘５丁目３２番３－２０３号,,13,112,1560054,,,,,,,2025-05-02,1,,,,,エスエムエフティー,0
1162,5011101111589,新規,0,2025-05-02,2025-05-02,ＴＲＥＥ　ＰＲＯＭＯＴＩＯＮ株式会社,,株式会社,東京都,新宿区,西新宿３丁目３番１３号西新宿水間ビル２Ｆ,,13,104,1600023,,,,,,,2025-05-02,1,,,,,ツリープロモーション,0
1163,5011101111597,新規,0,2025-05-02,2025-05-02,１ＳＨｉＯ株式会社,,株式会社,東京都,新宿区,榎町３４番地３榎町ビル７階－０８室,,13,104,1620806,,,,,,,2025-05-02,1,,,,,イチシオ,0
1164,5011101111622,新規,0,2025-05-02,2025-05-02,ＢＯＮＮＩＥ　ＢＲＯＷＮ株式会社,,株式会社,東京都,新宿区,西新宿３丁目３番１３号西新宿水間ビル６階,,13,104,1600023,,,,,,,2025-05-02,1,,,,,ボニーブラウン,0
1174,5011603004695,新規,0,2025-05-02,2025-05-02,合同会社ＹＭＫ　Ｃｏｎｓｕｌｔｉｎｇ,,合同会社,東京都,練馬区,光が丘６丁目１－２－１００４号,,13,120,1790072,,,,,,,2025-05-02,1,,,,,ワイエムケイコンサルティング,0
1175,5011701028299,新規,0,2025-05-02,2025-05-02,悦覧スタジオ株式会社,,株式会社,東京都,江戸川区,北小岩８丁目２６－１クレセントトモナ２階２０５号室,,13,123,1330051,,,,,,,2025-05-02,1,,,,,エツランスタジオ,0
1176,5011703004224,新規,0,2025-05-02,2025-05-02,合同会社ＭｕＯＧ,,合同会社,東京都,江戸川区,篠崎町７丁目１５番１０号Ａｉｎｏｙａ１０１,,13,123,1330061,,,,,,,2025-05-02,1,,,,,エムユーオージー,0
1180,5012401043043,新規,0,2025-05-02,2025-05-02,株式会社吉祥不動産,,株式会社,東京都,武蔵野市,吉祥寺本町３丁目８番１１号,,13,203,1800004,,,,,,,2025-05-02,1,,,,,キッショウフドウサン,0
1182,5012403007062,新規,0,2025-05-02,2025-05-02,合同会社くろーばしーど,,合同会社,東京都,調布市,下石原３丁目６番地６,,13,208,1820034,,,,,,,2025-05-02,1,,,,,クローバシード,0
1183,5012701018843,新規,0,2025-05-02,2025-05-02,株式会社冴心舎,,株式会社,東京都,西東京市,田無町４丁目２７番９号ＴＫ田無ビル１Ｆ,,13,229,1880011,,,,,,,2025-05-02,1,,,,,サシンシャ,0
1188,5012803003719,新規,0,2025-05-02,2025-05-02,博優合同会社,,合同会社,東京都,国立市,西２丁目５－７－２０１,,13,215,1860005,,,,,,,2025-05-02,1,,,,,ハクユウ,0
1189,5012803003727,新規,0,2025-05-02,2025-05-02,合同会社ＴＫサービス,,合同会社,東京都,国分寺市,日吉町４丁目７番地５リヴェール武蔵野１０２,,13,214,1850032,,,,,,,2025-05-02,1,,,,,ティケイサービス,0
1196,5020003028387,新規,0,2025-05-02,2025-05-02,合同会社ミルズ,,合同会社,神奈川県,川崎市川崎区,駅前本町１１番地２川崎フロンティアビル４階,,14,131,2100007,,,,,,,2025-05-02,1,,,,,ミルズ,0
1197,5020003028395,新規,0,2025-05-02,2025-05-02,トリニタス・パートナーズ合同会社,,合同会社,神奈川県,横浜市中区,桜木町１丁目１０１番地１,,14,104,2310062,,,,,,,2025-05-02,1,,,,,トリニタスパートナーズ,0
1204,5021001085123,新規,0,2025-05-02,2025-05-02,株式会社東横工務店,,株式会社,神奈川県,綾瀬市,蓼川２丁目１９－１５－２０１,,14,218,2521105,,,,,,,2025-05-02,1,,,,,トウヨココウムテン,0
1207,5021003015912,新規,0,2025-05-02,2025-05-02,合同会社やもり,,合同会社,神奈川県,横須賀市,久里浜３丁目１０－３－５,,14,201,2390831,,,,,,,2025-05-02,1,,,,,ヤモリ,0
1208,5021003015937,新規,0,2025-05-02,2025-05-02,ＳＲＫ合同会社,,合同会社,神奈川県,相模原市南区,相模台２丁目９－１９ＳＫセトル２０２,,14,153,2520321,,,,,,,2025-05-02,1,,,,,エスアールケー,0
1218,5030001166329,新規,0,2025-05-02,2025-05-02,株式会社プエンテ,,株式会社,埼玉県,所沢市,東狭山ケ丘２丁目２９５１番地の４４アートベースＡ－２０２,,11,208,3591106,,,,,,,2025-05-02,1,,,,,プエンテ,0
1219,5030001166337,新規,0,2025-05-02,2025-05-02,株式会社東北フード,,株式会社,埼玉県,草加市,両新田西町１１２番地８,,11,221,3400027,,,,,,,2025-05-02,1,,,,,トウホクフード,0
1230,5040001138582,新規,0,2025-05-02,2025-05-02,株式会社Ｃｌａｕｄ　ｍｉｌ,,株式会社,千葉県,浦安市,当代島１丁目２０－２０－１０５,,12,227,2790001,,,,,,,2025-05-02,1,,,,,クラウドミル,0
1231,5040001138608,新規,0,2025-05-02,2025-05-02,浩成国際株式会社,,株式会社,千葉県,市川市,福栄３丁目１番２－４１２号Ａ室,,12,203,2720137,,,,,,,2025-05-02,1,,,,,コウセイコクサイ,0
1238,5050001056602,新規,0,2025-05-02,2025-05-02,ワイエムエス株式会社,,株式会社,茨城県,坂東市,辺田１４０３番地１,,08,228,3060632,,,,,,,2025-05-02,1,,,,,ワイエムエス,0
1246,5070005010388,新規,0,2025-05-02,2025-05-02,一般社団法人つむぎやさん,,その他の設立登記法人,群馬県,藤岡市,東平井５６７番地１,,10,209,3750043,,,,,,,2025-05-02,1,,,,,ツムギヤサン,0
1247,5080001026908,新規,0,2025-05-02,2025-05-02,株式会社ミラツカ,,株式会社,静岡県,静岡市葵区,北５丁目７番７２号,,22,101,4200961,,,,,,,2025-05-02,1,,,,,ミラツカ,0
1248,5080001026916,新規,0,2025-05-02,2025-05-02,株式会社ＴＡＫＥＵＣＨＩ,,株式会社,静岡県,牧之原市,細江１４９８番地２,,22,226,4210421,,,,,,,2025-05-02,1,,,,,タケウチ,0
1255,5100001038545,新規,0,2025-05-02,2025-05-02,株式会社このみｓ．,,株式会社,長野県,上田市,中丸子字赤淵１４３０番地２ヒカリビル２階９号,,20,203,3860405,,,,,,,2025-05-02,1,,,,,コノミズ,0
1257,5110003005740,新規,0,2025-05-02,2025-05-02,合同会社丸山農耕,,合同会社,新潟県,上越市,三和区柳林２５６番地の２,,15,222,9420272,,,,,,,2025-05-02,1,,,,,マルヤマノウコウ,0
1272,5120001275120,新規,0,2025-05-02,2025-05-02,ヴィヴ・リーブル株式会社,,株式会社,大阪府,大阪市中央区,東心斎橋１丁目８－１１アルグラッドザ・タワー心斎橋１２０５,,27,128,5420083,,,,,,,2025-05-02,1,,,,,ヴィヴリーブル,0
1273,5120001275129,新規,0,2025-05-02,2025-05-02,一行株式会社,,株式会社,大阪府,大阪市生野区,鶴橋１丁目１番３３－８０２号,,27,116,5440031,,,,,,,2025-05-02,1,,,,,イキ,0
1274,5120001275145,新規,0,2025-05-02,2025-05-02,株式会社エイト,,株式会社,大阪府,大阪市西成区,萩之茶屋２丁目５番９号,,27,122,5570004,,,,,,,2025-05-02,1,,,,,エイト,0
1276,5120003029276,新規,0,2025-05-02,2025-05-02,ｋｕｒｏｓｈｉｒｏ合同会社,,合同会社,大阪府,大阪市浪速区,敷津東１丁目７番６－１００４号,,27,111,5560012,,,,,,,2025-05-02,1,,,,,クロシロ,0
1277,5120003029284,新規,0,2025-05-02,2025-05-02,合同会社鶴橋物産,,合同会社,大阪府,大阪市生野区,鶴橋１丁目２番１４号,,27,116,5440031,,,,,,,2025-05-02,1,,,,,ツルハシブッサン,0
1288,5122001039166,新規,0,2025-05-02,2025-05-02,株式会社フウシン,,株式会社,大阪府,東大阪市,日下町４丁目４番４８号,,27,227,5798003,,,,,,,2025-05-02,1,,,,,フウシン,0
1289,5122003003194,新規,0,2025-05-02,2025-05-02,Ｎａｔｕｒｅ合同会社,,合同会社,大阪府,東大阪市,柏田東町６番５号カーサアイリス２０２,,27,227,5770833,,,,,,,2025-05-02,1,,,,,ナチュレ,0
1298,5130001079561,新規,0,2025-05-02,2025-05-02,フラッツ藤井株式会社,,株式会社,京都府,長岡京市,奥海印寺東条２番地,,26,209,6170853,,,,,,,2025-05-02,1,,,,,フラッツフジイ,0
1307,5140001138325,新規,0,2025-05-02,2025-05-02,株式会社ＷＯＲＬＤ　Ｉ,,株式会社,兵庫県,三田市,西山２丁目２７番３４号,,28,219,6691537,,,,,,,2025-05-02,1,,,,,ワールドアイ,0
1308,5140001138374,新規,0,2025-05-02,2025-05-02,株式会社共栄塗装工業,,株式会社,兵庫県,神戸市長田区,檜川町１丁目９番１０号,,28,106,6530887,,,,,,,2025-05-02,1,,,,,キョウエイトソウコウギョウ,0
1313,5170001018607,新規,0,2025-05-02,2025-05-02,株式会社章重機工業,,株式会社,和歌山県,和歌山市,有本１１番地３１,,30,201,6408390,,,,,,,2025-05-02,1,,,,,ショウジュウキコウギョウ,0
1317,5180001166628,新規,0,2025-05-02,2025-05-02,まるわ総業株式会社,,株式会社,愛知県,一宮市,浅野字西大土１０２メゾンドタマキ店舗１,,23,203,4910871,,,,,,,2025-05-02,1,,,,,マルワソウギョウ,0
1322,5180301039756,新規,0,2025-05-02,2025-05-02,株式会社太田組,,株式会社,愛知県,西尾市,高畠町４丁目４５番地,,23,213,4450064,,,,,,,2025-05-02,1,,,,,オオタグミ,0
1325,5190005012050,新規,0,2025-05-02,2025-05-02,特定非営利活動法人生命の駅伝,,その他の設立登記法人,三重県,松阪市,鎌田町７３２番地,,24,204,5150005,,,,,,,2025-05-02,1,,,,,イノチノエキデン,0
1330,5210001020153,新規,0,2025-05-02,2025-05-02,株式会社ＤｏｔＬｉｎｋ,,株式会社,福井県,敦賀市,白銀町７番１３号,,18,202,9140054,,,,,,,2025-05-02,1,,,,,ドットリンク,0
1334,5230005009471,新規,0,2025-05-02,2025-05-02,医療法人社団姫野病院,,その他の設立登記法人,富山県,射水市,放生津町１５番４号,,16,211,9340022,,,,,,,2025-05-02,1,,,,,ヒメノビョウイン,0
1339,5240003007179,新規,0,2025-05-02,2025-05-02,合同会社Ｍ,,合同会社,広島県,広島市南区,的場町１丁目３番４号,,34,103,7320824,,,,,,,2025-05-02,1,,,,,エム,0
1340,5250005009008,新規,0,2025-05-02,2025-05-02,企業組合ミネジユウクリエイト,,その他の設立登記法人,山口県,美祢市,秋芳町別府１４５０番地１,,35,213,7540603,,,,,,,2025-05-02,1,,,,,ミネジユウクリエイト,0
1345,5280001009421,新規,0,2025-05-02,2025-05-02,株式会社ながた住設,,株式会社,島根県,松江市,東津田町８３１番地パドック１０２号,,32,201,6900011,,,,,,,2025-05-02,1,,,,,ナガタジュウセツ,0
1351,5290801031499,新規,0,2025-05-02,2025-05-02,株式会社Ｍｕｒｏｋｉｔａ,,株式会社,福岡県,北九州市小倉北区,竪町１丁目１番９号ＭＵＢＬＤ,,40,106,8030818,,,,,,,2025-05-02,1,,,,,ムロキタ,0
1353,5300001014179,新規,0,2025-05-02,2025-05-02,株式会社古賀宅建不動産,,株式会社,佐賀県,神埼市,神埼町鶴３３５１番地５,,41,210,8420007,,,,,,,2025-05-02,1,,,,,コガタッケンフドウサン,0
1355,5310005008853,新規,0,2025-05-02,2025-05-02,土地家屋調査士法人小川工務店,,その他の設立登記法人,長崎県,佐世保市,吉岡町１９８１番地７,,42,202,8570143,,,,,,,2025-05-02,1,,,,,オガワコウムテン,0
1356,5320003004647,新規,0,2025-05-02,2025-05-02,合同会社ｆｕｕ,,合同会社,大分県,大分市,大字小池原１５９番地の１８,,44,201,8700147,,,,,,,2025-05-02,1,,,,,フー,0
1357,5320005010239,新規,0,2025-05-02,2025-05-02,医療法人中川会,,その他の設立登記法人,大分県,大分市,高松２丁目６番１０号,,44,201,8700917,,,,,,,2025-05-02,1,,,,,ナカガワカイ,0
1360,5340001027301,新規,0,2025-05-02,2025-05-02,株式会社與那覇防水,,株式会社,鹿児島県,鹿児島市,吉野町５７４５番地１２,,46,201,8920871,,,,,,,2025-05-02,1,,,,,ヨナハボウスイ,0
1361,5340003004843,新規,0,2025-05-02,2025-05-02,合同会社ＭＩＹＵ,,合同会社,鹿児島県,霧島市,溝辺町麓１丁目８９番地,,46,218,8996404,,,,,,,2025-05-02,1,,,,,ミユ,0
1365,5370001052528,新規,0,2025-05-02,2025-05-02,株式会社ＴＭＨたまき,,株式会社,宮城県,仙台市太白区,長町１丁目７番３８－２０４号,,04,104,9820011,,,,,,,2025-05-02,1,,,,,ティーエムエイチタマキ,0
1368,5370003007075,新規,0,2025-05-02,2025-05-02,ＦＯＲＯＷ合同会社,,合同会社,宮城県,仙台市太白区,桜木町２７番８号グランディア桜木２０３,,04,104,9820835,,,,,,,2025-05-02,1,,,,,フォロウ,0
1376,5430001094282,新規,0,2025-05-02,2025-05-02,株式会社ａｎｄ＆ＧＩＶＥ,,株式会社,北海道,札幌市中央区,南二条西５丁目３１番地１ＲＭＢｌｄ．９Ｆ,,01,101,0600062,,,,,,,2025-05-02,1,,,,,アンドギブ,0
1377,5430001094316,新規,0,2025-05-02,2025-05-02,株式会社禧奈,,株式会社,北海道,札幌市中央区,南三条西１２丁目３２５番９,,01,101,0600063,,,,,,,2025-05-02,1,,,,,キナ,0
1381,5430003017588,新規,0,2025-05-02,2025-05-02,合同会社後志志学戦略研究所,,合同会社,北海道,虻田郡ニセコ町,字東山１番地,,01,395,0481521,,,,,,,2025-05-02,1,,,,,シリベシシガクセンリャクケンキュウショ,0
1382,5440001009603,新規,0,2025-05-02,2025-05-02,株式会社ハイリブラ,,株式会社,北海道,山越郡長万部町,字長万部３２８番地７,,01,347,0493521,,,,,,,2025-05-02,1,,,,,ハイリブラ,0
1393,5500001026278,新規,0,2025-05-02,2025-05-02,株式会社升岡雇用労務管理士事務所,,株式会社,愛媛県,松山市,三番町７丁目２番地１２川添ビル２Ｆ,,38,201,7900003,,,,,,,2025-05-02,1,,,,,マスオカコヨウロウムカンリシジムショ,0
1395,5500003003507,新規,0,2025-05-02,2025-05-02,Ｎ‐ｔｅｃｓ合同会社,,合同会社,愛媛県,松山市,安城寺町３１９番地１第２若宮ハイツ１０１号,,38,201,7918006,,,,,,,2025-05-02,1,,,,,エヌテックス,0
1397,5700150130298,新規,0,2025-05-02,2025-05-02,Ｆｕｔｕｒｅｋ　ＳＧ　Ｐｔｅ．Ｌｔｄ．,,外国会社等,,,,,,,,７８　Ｓｈｅｎｔｏｎ　Ｗａｙ，＃２０－０３，Ｓｉｎｇａｐｏｒｅ,,,,,,2025-05-02,1,,,,,フユーチユレツクエスジープライベートリミテツド,0
1398,5700150130307,新規,0,2025-05-02,2025-05-02,ＦＡＺ　ＴＲＡＤＩＮＧ　ＩＮＴＥＲＮＡＴＩＯＮＡＬ,,外国会社等,奈良県,大和郡山市,井戸野町３４４番地１徳本アパート１０５号,,29,203,6391104,スリランカ民主社会主義共和国、ガンポラ、カハタピティヤロード、Ｎｏ．１５４,,,,,,2025-05-02,1,,,,,フアズトレーデイングインターナシヨナル,0
1408,6010003047239,新規,0,2025-05-02,2025-05-02,合同会社浄栄,,合同会社,東京都,八丈島八丈町,三根４６３１番地１２,,13,401,1001511,,,,,,,2025-05-02,1,,,,,ジョウエイ,0
1409,6010003047263,新規,0,2025-05-02,2025-05-02,Ｓｎｏｗ　Ｒｏｓｅ合同会社,,合同会社,東京都,千代田区,神田司町２丁目１７番地あけぼのビル３階,,13,101,1010048,,,,,,,2025-05-02,1,,,,,スノーローズ,0
1413,6010401189987,新規,0,2025-05-02,2025-05-02,結ぶ未来株式会社,,株式会社,東京都,港区,浜松町２丁目２番１５号浜松町ダイヤビル２Ｆ,,13,103,1050013,,,,,,,2025-05-02,1,,,,,ムスブミライ,0
1417,6010403035017,新規,0,2025-05-02,2025-05-02,合同会社スモールウッズ,,合同会社,東京都,港区,芝浦４丁目２０番２－１４２２号,,13,103,1080023,,,,,,,2025-05-02,1,,,,,スモールウッズ,0
1419,6010503007816,新規,0,2025-05-02,2025-05-02,合同会社ＴＳＵＭＵＴＡＮ,,合同会社,東京都,台東区,下谷３丁目８番１３－１１０１号リビオメゾン入谷,,13,106,1100004,,,,,,,2025-05-02,1,,,,,ツムタン,0
1424,6010701047630,新規,0,2025-05-02,2025-05-02,株式会社Ａｉｄ　Ｌｉｎｋ,,株式会社,東京都,品川区,東大井３丁目１６番４号ＣＯＭＦＯＲＩＡ東大井ＩＩ１１０２,00139002,13,109,1400011,,,,,,,2025-05-02,1,,,,,エイドリンク,0
1432,6010801036120,新規,0,2025-05-02,2025-05-02,株式会社Ａｃｔｉｌｕｓ,,株式会社,東京都,大田区,西蒲田５丁目２７番２号,,13,111,1440051,,,,,,,2025-05-02,1,,,,,アクティラス,0
1433,6010901057264,新規,0,2025-05-02,2025-05-02,株式会社ＡＰホールディングス,,株式会社,東京都,世田谷区,等々力３丁目１０番３号,,13,112,1580082,,,,,,,2025-05-02,1,,,,,エーピーホールディングス,0
1434,6010901057280,新規,0,2025-05-02,2025-05-02,株式会社５ＡＭ,,株式会社,東京都,世田谷区,池尻２丁目４番５号,,13,112,1540001,,,,,,,2025-05-02,1,,,,,ゴエム,0
1438,6011001169280,新規,0,2025-05-02,2025-05-02,Ｍｉｓｖ株式会社,,株式会社,東京都,渋谷区,恵比寿１丁目１８番５号アルカサル３０５,,13,113,1500013,,,,,,,2025-05-02,1,,,,,ミスヴ,0
1444,6011003021514,新規,0,2025-05-02,2025-05-02,合同会社ｓｑｕａｒｅ　ｏｎｅ,,合同会社,東京都,渋谷区,神宮前６丁目２３番４号桑野ビル２Ｆ,,13,113,1500001,,,,,,,2025-05-02,1,,,,,スクエアワン,0
1445,6011005010969,新規,0,2025-05-02,2025-05-02,一般社団法人Ｉ＆Ｉ,,その他の設立登記法人,東京都,渋谷区,代々木２丁目２７番８号－４０２,,13,113,1510053,,,,,,,2025-05-02,1,,,,,アイアンドアイ,0
1447,6011101111621,新規,0,2025-05-02,2025-05-02,株式会社Ｒｕｎｏｖｅｌ,,株式会社,東京都,新宿区,西新宿３丁目３番１３号西新宿水間ビル６階,,13,104,1600023,,,,,,,2025-05-02,1,,,,,ルノベル,0
1454,6011603004694,新規,0,2025-05-02,2025-05-02,合同会社晴嵐,,合同会社,東京都,練馬区,富士見台２丁目８番２４号,,13,120,1770034,,,,,,,2025-05-02,1,,,,,セイラン,0
1458,6011803006805,新規,0,2025-05-02,2025-05-02,Ｖａｔｒａｌｅ合同会社,,合同会社,東京都,葛飾区,西新小岩４丁目２３番５号かつしか会館１Ｂ号室,,13,122,1240025,,,,,,,2025-05-02,1,,,,,ヴァトレイル,0
1467,6013101009688,新規,0,2025-05-02,2025-05-02,佳適映画株式会社,,株式会社,東京都,福生市,南田園１丁目１３番地１２号２０１号室,,13,218,1970004,,,,,,,2025-05-02,1,,,,,カテキエイガ,0
1470,6013301054179,新規,0,2025-05-02,2025-05-02,株式会社ＡＢＣ講演会アカデミー,,株式会社,東京都,豊島区,東池袋１丁目１７番１１パークハイツ池袋３０７号,,13,116,1700013,,,,,,,2025-05-02,1,,,,,エービーシーコウエンカイアカデミー,0
1473,6020001162641,新規,0,2025-05-02,2025-05-02,株式会社桃建,,株式会社,神奈川県,横浜市青葉区,奈良３丁目１４番地１あおば山の手台グラン・ジャルダン五番館６０６号室,,14,117,2270038,,,,,,,2025-05-02,1,,,,,モモケン,0
1474,6020001162682,新規,0,2025-05-02,2025-05-02,株式会社海盈,,株式会社,神奈川県,横浜市中区,山下町１４９番地１,,14,104,2310023,,,,,,,2025-05-02,1,,,,,カイエイ,0
1481,6020003028378,新規,0,2025-05-02,2025-05-02,合同会社ＦＰＣ,,合同会社,神奈川県,横浜市港南区,港南６丁目１９番３－１０６号,,14,111,2330003,,,,,,,2025-05-02,1,,,,,エフピーシー,0
1482,6020003028428,新規,0,2025-05-02,2025-05-02,合同会社ＵｍｉｔｏＴｓｕｃｈｉ,,合同会社,神奈川県,横浜市青葉区,荏田西４丁目１０番地３６,,14,117,2250014,,,,,,,2025-05-02,1,,,,,ウミトツチ,0
1496,6030001166303,新規,0,2025-05-02,2025-05-02,興栄株式会社,,株式会社,埼玉県,川口市,並木１丁目２１番１７号エステートピアＫ２０２号,,11,203,3320034,,,,,,,2025-05-02,1,,,,,コウエイ,0
1501,6030003026686,新規,0,2025-05-02,2025-05-02,合同会社ＬｉｎｋＷｅｌｌ,,合同会社,埼玉県,和光市,丸山台１丁目４－４－２Ｆ,,11,229,3510112,,,,,,,2025-05-02,1,,,,,リンクウェル,0
1503,6030005022155,新規,0,2025-05-02,2025-05-02,一般社団法人事業主適正経営支援協会,,その他の設立登記法人,埼玉県,所沢市,北所沢町２１９４－１２－１Ｆ,,11,208,3590046,,,,,,,2025-05-02,1,,,,,ジギョウヌシテキセイケイエイシエンキョウカイ,0
1510,6040001138540,新規,0,2025-05-02,2025-05-02,株式会社ＳＥＮＴＩＮＥＬ　ＮＥＸＵＳ,,株式会社,千葉県,市原市,桜台３丁目８－３,,12,219,2990127,,,,,,,2025-05-02,1,,,,,センチネルネクサス,0
1511,6040001138581,新規,0,2025-05-02,2025-05-02,株式会社フォーブズ,,株式会社,千葉県,佐倉市,稲荷台１丁目２３番地１２,,12,212,2850864,,,,,,,2025-05-02,1,,,,,フォーブズ,0
1514,6040003027469,新規,0,2025-05-02,2025-05-02,合同会社ＤＵＤＵ　ＩＮＴＥＲＮＡＴＩＯＮＡＬ,,合同会社,千葉県,富里市,立沢９３９番地２４,,12,233,2860214,,,,,,,2025-05-02,1,,,,,ドゥドゥインターナショナル,0
1515,6040003027477,新規,0,2025-05-02,2025-05-02,合同会社志浩商事,,合同会社,千葉県,千葉市中央区,亀井町１３－４０,,12,101,2600011,,,,,,,2025-05-02,1,,,,,シコウショウジ,0
1518,6050003009227,新規,0,2025-05-02,2025-05-02,合同会社エムズ,,合同会社,茨城県,土浦市,右籾４７３番地,,08,203,3000837,,,,,,,2025-05-02,1,,,,,エムズ,0
1524,6060003005530,新規,0,2025-05-02,2025-05-02,ラヒムトレーディング合同会社,,合同会社,栃木県,小山市,大字喜沢１２０１番地１ＹＮＳハイツ２０８号,,09,208,3230014,,,,,,,2025-05-02,1,,,,,ラヒムトレーディング,0
1533,6100001038560,新規,0,2025-05-02,2025-05-02,株式会社ブルーベルファーム,,株式会社,長野県,中野市,大字一本木１７１番地１,,20,211,3830012,,,,,,,2025-05-02,1,,,,,ブルーベルファーム,0
1534,6100003008124,新規,0,2025-05-02,2025-05-02,サファイアコンサルティング合同会社,,合同会社,長野県,北佐久郡軽井沢町,大字追分９６５－８,,20,321,3890115,,,,,,,2025-05-02,1,,,,,サファイアコンサルティング,0
1546,6120001274996,新規,0,2025-05-02,2025-05-02,康洋国際株式会社,,株式会社,大阪府,寝屋川市,太秦元町４番１３号,,27,215,5720849,,,,,,,2025-05-02,1,,,,,コウヨウコクサイ,0
1547,6120001275086,新規,0,2025-05-02,2025-05-02,株式会社ネオテイク,,株式会社,大阪府,大阪市西区,南堀江１丁目１４－２７－４０１,,27,106,5500015,,,,,,,2025-05-02,1,,,,,ネオテイク,0
1548,6120001275094,新規,0,2025-05-02,2025-05-02,宏茂実業株式会社,,株式会社,大阪府,大阪市港区,市岡３丁目１３－９－３０２Ａ,,27,107,5520012,,,,,,,2025-05-02,1,,,,,コウモジツギョウ,0
1549,6120001275128,新規,0,2025-05-02,2025-05-02,自在清海株式会社,,株式会社,大阪府,大阪市住之江区,御崎１丁目１１番１９－４０２号,,27,125,5590013,,,,,,,2025-05-02,1,,,,,ジザイセイカイ,0
1550,6120001275202,新規,0,2025-05-02,2025-05-02,海倫株式会社,,株式会社,大阪府,大阪市中央区,北久宝寺町１丁目５番６号,,27,128,5410057,,,,,,,2025-05-02,1,,,,,カイリン,0
1553,6120003029259,新規,0,2025-05-02,2025-05-02,ショーマンシップ合同会社,,合同会社,大阪府,大阪市平野区,長吉長原西３丁目８番１号ＣＲＥＡＴＩＶＥ・ＳＰＡＣＥ・ＨＡＶＥ１号室,,27,126,5470015,,,,,,,2025-05-02,1,,,,,ショーマンシップ,0
1554,6120003029283,新規,0,2025-05-02,2025-05-02,合同会社スリーエスコーポレーション,,合同会社,大阪府,大阪市東住吉区,杭全４丁目４番２５号,,27,121,5460002,,,,,,,2025-05-02,1,,,,,スリーエスコーポレーション,0
1555,6120003029291,新規,0,2025-05-02,2025-05-02,ＭＴＰ国際合同会社,,合同会社,大阪府,大阪市浪速区,敷津西１丁目１番１６号第二生駒ビル４０１,,27,111,5560015,,,,,,,2025-05-02,1,,,,,エムティーピーコクサイ,0
1556,6120003029341,新規,0,2025-05-02,2025-05-02,合同会社ｃａｊａ,,合同会社,大阪府,大阪市港区,弁天６丁目７‐１５加藤汽船ビル２階ｃａｊａ,,27,107,5520007,,,,,,,2025-05-02,1,,,,,カハ,0
1557,6120901050786,新規,0,2025-05-02,2025-05-02,株式会社アドパックホールディングス,,株式会社,大阪府,高槻市,津之江町１丁目４５番１号,,27,207,5690822,,,,,,,2025-05-02,1,,,,,アドパックホールディングス,0
1560,6122001039140,新規,0,2025-05-02,2025-05-02,株式会社Ａｇｅｎｔ,,株式会社,大阪府,東大阪市,荒本新町５－３１,,27,227,5770022,,,,,,,2025-05-02,1,,,,,エージェント,0
1564,6130001079536,新規,0,2025-05-02,2025-05-02,株式会社花那紗,,株式会社,京都府,京都市東山区,四条通大和大路東入祇園町北町３４０番地,,26,105,6050000,,,,,,,2025-05-02,1,,,,,カナサ,0
1567,6130003010408,新規,0,2025-05-02,2025-05-02,ＮＯＳＴＥＹＡ　ＣＯＲＰＯＲＡＴＩＯＮ合同会社,,合同会社,京都府,京都市下京区,七条通油小路東入大黒町２２７番地第２キョートビル４０２,,26,106,6008223,,,,,,,2025-05-02,1,,,,,ノステヤコーポレーション,0
1568,6130003010424,新規,0,2025-05-02,2025-05-02,合同会社セーフティー,,合同会社,京都府,八幡市,男山八望３番地１－Ｂ４８－１４０１,,26,210,6148373,,,,,,,2025-05-02,1,,,,,セーフティー,0
1579,6140001138324,新規,0,2025-05-02,2025-05-02,古美術志永堂株式会社,,株式会社,兵庫県,神戸市東灘区,御影郡家１丁目２４番１０号,,28,101,6580048,,,,,,,2025-05-02,1,,,,,コビジュツシエイドウ,0
1580,6140001138332,新規,0,2025-05-02,2025-05-02,株式会社サーマルイノベーション,,株式会社,兵庫県,神戸市中央区,相生町４丁目４番１３号ＩＳビル２０２号,,28,110,6500025,,,,,,,2025-05-02,1,,,,,サーマルイノベーション,0
1581,6140001138349,新規,0,2025-05-02,2025-05-02,金樽株式会社,,株式会社,兵庫県,西宮市,中前田町３－８－５０５室,,28,204,6620857,,,,,,,2025-05-02,1,,,,,カネタル,0
1582,6140001138373,新規,0,2025-05-02,2025-05-02,株式会社ＭＫ　Ｆｅｌｉｃｉａ,,株式会社,兵庫県,明石市,藤江８８８番地の８９,,28,203,6730044,,,,,,,2025-05-02,1,,,,,エムケーフェリシア,0
1584,6150005009693,新規,0,2025-05-02,2025-05-02,一般社団法人アンコーラ,,その他の設立登記法人,奈良県,吉野郡吉野町,大字吉野山１３７０番地の２,,29,441,6393115,,,,,,,2025-05-02,1,,,,,アンコーラ,0
1588,6170001018597,新規,0,2025-05-02,2025-05-02,紀北重起株式会社,,株式会社,和歌山県,橋本市,高野口町名倉２８４番地の２,,30,203,6497205,,,,,,,2025-05-02,1,,,,,キホクジュウキ,0
1589,6170001018606,新規,0,2025-05-02,2025-05-02,株式会社いけでん,,株式会社,和歌山県,田辺市,芳養町３８８８番地の３,,30,206,6460056,,,,,,,2025-05-02,1,,,,,イケデン,0
1596,6180001166602,新規,0,2025-05-02,2025-05-02,株式会社ヒートピース,,株式会社,愛知県,名古屋市守山区,桜坂５丁目３０１番地,,23,113,4630018,,,,,,,2025-05-02,1,,,,,ヒートピース,0
1597,6180001166627,新規,0,2025-05-02,2025-05-02,株式会社ＲｅＡｒｃｈｉ,,株式会社,愛知県,北名古屋市,沖村岡２９５番地,,23,234,4810043,,,,,,,2025-05-02,1,,,,,リアーキ,0
1598,6180001166635,新規,0,2025-05-02,2025-05-02,オールクリーンサービス株式会社,,株式会社,愛知県,稲沢市,平和町法立北瀬古３０５番地２,,23,220,4901304,,,,,,,2025-05-02,1,,,,,オールクリーンサービス,0
1601,6180003028412,新規,0,2025-05-02,2025-05-02,合同会社ＳｕｎＭｏｏｎ,,合同会社,愛知県,一宮市,大和町毛受字一本松８番地５,,23,203,4910932,,,,,,,2025-05-02,1,,,,,サンムーン,0
1607,6180303006563,新規,0,2025-05-02,2025-05-02,合同会社ＫＩＣＨＩ,,合同会社,愛知県,蒲郡市,西浦町南ケ坪８番地１,,23,214,4430105,,,,,,,2025-05-02,1,,,,,キチ,0
1617,6220003004020,新規,0,2025-05-02,2025-05-02,Ｙ＆Ｉ合同会社,,合同会社,石川県,金沢市,有松４丁目１２番２号,,17,201,9218161,,,,,,,2025-05-02,1,,,,,ワイアンドアイ,0
1620,6240005015939,新規,0,2025-05-02,2025-05-02,一般社団法人わんわんイベント,,その他の設立登記法人,広島県,広島市中区,大手町１丁目１－２０相生橋ビル７階Ａ号室,,34,101,7300051,,,,,,,2025-05-02,1,,,,,ワンワンイベント,0
1622,6250001021130,新規,0,2025-05-02,2025-05-02,橋本建設株式会社,,株式会社,山口県,山陽小野田市,大字山野井１７８５番地１,,35,216,7570003,,,,,,,2025-05-02,1,,,,,ハシモトケンセツ,0
1632,6290801031507,新規,0,2025-05-02,2025-05-02,株式会社ＭＹＫ,,株式会社,福岡県,北九州市小倉北区,金田１丁目１番６－１０６号,,40,106,8030816,,,,,,,2025-05-02,1,,,,,エムワイケー,0
1633,6290801031515,新規,0,2025-05-02,2025-05-02,株式会社ＫＳグローリー,,株式会社,福岡県,北九州市小倉南区,貫弥生が丘１丁目６番３３号,,40,107,8000234,,,,,,,2025-05-02,1,,,,,ケイエスグローリー,0
1634,6310001019589,新規,0,2025-05-02,2025-05-02,株式会社Ａｖｅｎｉｒ,,株式会社,長崎県,長崎市,花丘町１番２１号プライムステージ２－４０１号,,42,201,8528153,,,,,,,2025-05-02,1,,,,,アヴェニール,0
1637,6330001033126,新規,0,2025-05-02,2025-05-02,株式会社ｅｌｅｖｅ,,株式会社,熊本県,熊本市中央区,新市街３－６いしはらビル４階２号室,,43,101,8600803,,,,,,,2025-05-02,1,,,,,エルヴェ,0
1639,6340001027300,新規,0,2025-05-02,2025-05-02,株式会社Ｒｅｐｌｕｓ　Ｂｕｉｌｄ,,株式会社,鹿児島県,鹿児島市,南林寺町２０番５号,,46,201,8920834,,,,,,,2025-05-02,1,,,,,リプラスビルド,0
1642,6340003004842,新規,0,2025-05-02,2025-05-02,合同会社ｓｕｍａｉ,,合同会社,鹿児島県,鹿児島市,田上台２丁目２６番１２号,,46,201,8900036,,,,,,,2025-05-02,1,,,,,スマイ,0
1645,6360003014864,新規,0,2025-05-02,2025-05-02,合同会社ｉコネクト,,合同会社,沖縄県,沖縄市,美里５丁目８－１１メゾンド・ノボ３０２,,47,211,9042153,,,,,,,2025-05-02,1,,,,,アイコネクト,0
1649,6370001052519,新規,0,2025-05-02,2025-05-02,株式会社裕禅,,株式会社,宮城県,石巻市,丸井戸２丁目７番６号,,04,202,9860865,,,,,,,2025-05-02,1,,,,,ユウゼン,0
1650,6370001052535,新規,0,2025-05-02,2025-05-02,株式会社東成興業,,株式会社,宮城県,仙台市宮城野区,原町３丁目５番２４号,,04,102,9830841,,,,,,,2025-05-02,1,,,,,トウセイコウギョウ,0
1662,6430001094323,新規,0,2025-05-02,2025-05-02,株式会社ＤＡＶＥ６６,,株式会社,北海道,札幌市中央区,南七条西１丁目２番地１ディークラディアＳ７－１２０１号,,01,101,0640807,,,,,,,2025-05-02,1,,,,,デイブロクロク,0
1663,6430001094331,新規,0,2025-05-02,2025-05-02,株式会社マルス砂田商店,,株式会社,北海道,石狩市,花川南九条４丁目９２番地,,01,235,0613209,,,,,,,2025-05-02,1,,,,,マルススナダショウテン,0
1666,6470001020696,新規,0,2025-05-02,2025-05-02,株式会社Ｓ・Ｋ・Ｙｃｏｍｐａｎｙ,,株式会社,香川県,高松市,今里町２丁目４１番地７,,37,201,7600078,,,,,,,2025-05-02,1,,,,,エスケーワイカンパニー,0
1667,6470003002882,新規,0,2025-05-02,2025-05-02,合同会社ピスケスフーズ,,合同会社,香川県,高松市,屋島西町６７８番地８０－４１０,,37,201,7610113,,,,,,,2025-05-02,1,,,,,ピスケスフーズ,0
1669,6490001011033,新規,0,2025-05-02,2025-05-02,株式会社Ｔ．Ｔ．Ｔ,,株式会社,高知県,高知市,高須新町３丁目１番３号,,39,201,7818122,,,,,,,2025-05-02,1,,,,,ティーティーティー,0
1671,6500001026277,新規,0,2025-05-02,2025-05-02,白石建築株式会社,,株式会社,愛媛県,新居浜市,多喜浜１丁目１０番４０号,,38,205,7920893,,,,,,,2025-05-02,1,,,,,シライシケンチク,0
1672,6500003003506,新規,0,2025-05-02,2025-05-02,ウイズ・コネクト合同会社,,合同会社,愛媛県,松山市,立花４丁目５番３１号メゾン寿２０３,,38,201,7900966,,,,,,,2025-05-02,1,,,,,ウイズコネクト,0
1673,6700150130297,新規,0,2025-05-02,2025-05-02,ｓｈｅｎｚｈｅｎｓｈｉｌｉａｎｐｕｋｅｊｉｙｏｕｘｉａｎｇｏｎｇｓｉ,,外国会社等,,,,,,,,１２０１，Ｂｕｉｌｄｉｎｇ　Ａ４，Ｎａｎｓｈａｎ　Ｚｈｉｙｕａｎ，Ｎｏ．１００１　Ｘｕｅｙｕａｎ　Ａｖｅｎｕｅ，Ｃｈａｎｇｙｕａｎ　Ｃｏｍｍｕｎｉｔｙ，Ｔａｏｙｕａｎ　Ｓｔｒｅｅｔ，Ｎａｎｓｈａｎ　Ｄｉｓｔｒｉｃｔ，Ｓｈｅｎｚｈｅｎ，Ｇｕａｎｇｄｏｎｇ　５１８０００　ＣＮ,,,,,,2025-05-02,1,,,,,シェンジェンシリアンプケジヨウシエンゴンス,0
1674,6700150130306,新規,0,2025-05-02,2025-05-02,ＳＹＳＣＯ　ＥＮＴＥＲＰＲＩＳＥＳ,,外国会社等,奈良県,大和郡山市,井戸野町３４４番地１徳本アパート１０６号,,29,203,6391104,スリランカ民主社会主義共和国、キャンディ、ヒーラッサガラ、エラゴッラ、Ｎｏ．１９５,,,,,,2025-05-02,1,,,,,シスコエンタープライズ,0
1682,7010001254661,新規,0,2025-05-02,2025-05-02,ＭｅｄＸ株式会社,,株式会社,東京都,中央区,日本橋室町３丁目２番１号,,13,102,1030022,,,,,,,2025-05-02,1,,,,,メドエックス,0
1685,7010003047221,新規,0,2025-05-02,2025-05-02,合同会社原宿２５０,,合同会社,東京都,千代田区,霞が関３丁目２番５号,,13,101,1000013,,,,,,,2025-05-02,1,,,,,ハラジュクニーゴーマル,0
1694,7010401189978,新規,0,2025-05-02,2025-05-02,株式会社Ｓｕｐｅｒｎｏｖａ　Ｍａｒｋｅｔｉｎｇ,,株式会社,東京都,港区,六本木７丁目１４番５号,,13,103,1060032,,,,,,,2025-05-02,1,,,,,スーパーノバマーケティング,0
1700,7010503007815,新規,0,2025-05-02,2025-05-02,合同会社ＳＰＡＣＥ　ＨＯＬＤＩＮＧＳ,,合同会社,東京都,台東区,浅草１丁目１３－５井門浅草すしや通りビル,,13,106,1110032,,,,,,,2025-05-02,1,,,,,スペースホールディングス,0
1706,7010701047613,新規,0,2025-05-02,2025-05-02,株式会社Ｘ‐ｒｅｐ,,株式会社,東京都,品川区,大井４丁目１４－２２ｓｈｉｎａｇａｗａｓｏｕｔｈ２０１,,13,109,1400014,,,,,,,2025-05-02,1,,,,,クロスレップ,0
1713,7010901057263,新規,0,2025-05-02,2025-05-02,ｎｏｉｃｅ株式会社,,株式会社,東京都,世田谷区,中町４丁目２６番１１号駿河ビル４０１,,13,112,1580091,,,,,,,2025-05-02,1,,,,,ノイス,0
1715,7010903009873,新規,0,2025-05-02,2025-05-02,合同会社ＲＡＲＡ,,合同会社,東京都,世田谷区,世田谷４丁目１４番５号,,13,112,1540017,,,,,,,2025-05-02,1,,,,,ララ,0
1718,7011001169230,新規,0,2025-05-02,2025-05-02,株式会社ｅｎｅｒｇｙ　ｎｏｖａ,,株式会社,東京都,目黒区,上目黒２丁目１５番１４号ＩＲＯＮＳＩＤＥ・ＮＡＫＡＭＥＧＵＲＯ６階,,13,110,1530051,,,,,,,2025-05-02,1,,,,,エナジーノバ,0
1719,7011001169239,新規,0,2025-05-02,2025-05-02,株式会社ＬＵＭＥＲＡ,,株式会社,東京都,渋谷区,渋谷２丁目２１－１渋谷ヒカリエ１７Ｆ,,13,113,1500002,,,,,,,2025-05-02,1,,,,,ルメラ,0
1720,7011001169247,新規,0,2025-05-02,2025-05-02,言嘉株式会社,,株式会社,東京都,渋谷区,本町３丁目５２－６クリスタルコーポ京西８０３号室,,13,113,1510071,,,,,,,2025-05-02,1,,,,,コトヨイ,0
1721,7011003021216,新規,0,2025-05-02,2025-05-02,スプーン合同会社,,合同会社,東京都,渋谷区,道玄坂１丁目１０番８号渋谷道玄坂東急ビル２Ｆ－Ｃ,,13,113,1500043,,,,,,,2025-05-02,1,,,,,スプーン,0
1722,7011003021496,新規,0,2025-05-02,2025-05-02,合同会社Ｐｅｒａ,,合同会社,東京都,目黒区,上目黒５丁目１８番３号,,13,110,1530051,,,,,,,2025-05-02,1,,,,,ペラ,0
1723,7011005010968,新規,0,2025-05-02,2025-05-02,一般財団法人みてね基金,,その他の設立登記法人,東京都,渋谷区,東１丁目１番３６号キタ・ビルデンス４０２,,13,113,1500011,,,,,,,2025-05-02,1,,,,,ミテネキキン,0
1726,7011101111629,新規,0,2025-05-02,2025-05-02,株式会社ＰｅｏｐｌｅＸ,,株式会社,東京都,新宿区,新小川町９番１０－１０４号,,13,104,1620814,,,,,,,2025-05-02,1,,,,,ピープルエックス,0
1727,7011101111653,新規,0,2025-05-02,2025-05-02,株式会社ＣＥＴＡＣＥＡ,,株式会社,東京都,新宿区,新宿１丁目３６－２新宿第七葉山ビル３Ｆ,,13,104,1600022,,,,,,,2025-05-02,1,,,,,セタシア,0
1728,7011201026330,新規,0,2025-05-02,2025-05-02,株式会社Ｗｅｌｌｔｈ,,株式会社,東京都,中野区,中央５丁目４番２１号１階,,13,114,1640011,,,,,,,2025-05-02,1,,,,,ウェルス,0
1733,7011203004680,新規,0,2025-05-02,2025-05-02,合同会社Ｎｅｘｕｓ　Ｅｎｇｉｎｅｅｒ,,合同会社,東京都,中野区,中野６丁目２８番８号２Ｆ,,13,114,1640001,,,,,,,2025-05-02,1,,,,,ネクサスエンジニア,0
1734,7011301030538,新規,0,2025-05-02,2025-05-02,てまとる株式会社,,株式会社,東京都,杉並区,上井草１丁目３１番８号Ｍ＆Ｓビル２０４,,13,115,1670023,,,,,,,2025-05-02,1,,,,,テマトル,0
1742,7011501032020,新規,0,2025-05-02,2025-05-02,フェリスピクチャーズ株式会社,,株式会社,東京都,北区,豊島６丁目４番７号,,13,117,1140003,,,,,,,2025-05-02,1,,,,,フェリスピクチャーズ,0
1744,7011703004222,新規,0,2025-05-02,2025-05-02,合同会社ＧＡ企画,,合同会社,東京都,江戸川区,篠崎町２丁目７番１号,,13,123,1330061,,,,,,,2025-05-02,1,,,,,ジーエーキカク,0
1752,7012403007102,新規,0,2025-05-02,2025-05-02,合同会社ポルコロッソ,,合同会社,東京都,小金井市,中町１丁目４番１２号,,13,210,1840012,,,,,,,2025-05-02,1,,,,,ポルコロッソ,0
1755,7012703003255,新規,0,2025-05-02,2025-05-02,合同会社Ｍａｔｉｎｅｅ,,合同会社,東京都,東久留米市,南沢５丁目１７－６２イオンモール１階リアット！,,13,222,2030023,,,,,,,2025-05-02,1,,,,,マチネー,0
1756,7012801023948,新規,0,2025-05-02,2025-05-02,株式会社ＧＡＮＥＳＨ　ＩＮＴＥＲＮＡＴＩＯＮＡＬ,,株式会社,東京都,武蔵村山市,伊奈平５丁目５７番地の４コーポ和１０１号,,13,223,2080023,,,,,,,2025-05-02,1,,,,,ガネスインターナショナル,0
1767,7020001162616,新規,0,2025-05-02,2025-05-02,ＣＡＬＭ　ＣＯＲＥ株式会社,,株式会社,神奈川県,横浜市磯子区,滝頭１丁目６－５３朝日パリオ横浜蒔田壱番館１－１０２,,14,107,2350012,,,,,,,2025-05-02,1,,,,,カームコア,0
1768,7020001162673,新規,0,2025-05-02,2025-05-02,株式会社ＭＢＴ,,株式会社,神奈川県,川崎市麻生区,万福寺１丁目８番１３号リヴェール新百合丘１階,,14,137,2150004,,,,,,,2025-05-02,1,,,,,エムビーティー,0
1771,7020003028393,新規,0,2025-05-02,2025-05-02,Ｉｎｃｅｎｄｉａ火山日本合同会社,,合同会社,神奈川県,横浜市神奈川区,反町３丁目２３番地１８－５０２号室,,14,102,2210825,,,,,,,2025-05-02,1,,,,,インセンディアカザンニホン,0
1772,7020003028410,新規,0,2025-05-02,2025-05-02,合同会社Ｈａｒｍｏｎｙ,,合同会社,神奈川県,横浜市中区,山下町１５５番地２プランドール横浜２０１号室,,14,104,2310023,,,,,,,2025-05-02,1,,,,,ハーモニー,0
1773,7020005016826,新規,0,2025-05-02,2025-05-02,一般社団法人リンクシー・ジャパン,,その他の設立登記法人,神奈川県,横浜市栄区,飯島町１３１１番地１,,14,115,2440842,,,,,,,2025-05-02,1,,,,,リンクシージャパン,0
1793,7030003026727,新規,0,2025-05-02,2025-05-02,東洋プランニングオフィス合同会社,,合同会社,埼玉県,越谷市,赤山町３丁目２１５番地５秀美ハイツ２０１,,11,222,3430807,,,,,,,2025-05-02,1,,,,,トーヨープランニングオフィス,0
1795,7040001138580,新規,0,2025-05-02,2025-05-02,株式会社ＪＤＭ　ＭＯＴＯＲ,,株式会社,千葉県,佐倉市,藤治台５番地１１,,12,212,2850816,,,,,,,2025-05-02,1,,,,,ジェイディーエムモーター,0
1796,7040001138647,新規,0,2025-05-02,2025-05-02,株式会社宇宙総研,,株式会社,千葉県,浦安市,高洲７丁目１番１－７１６号,,12,227,2790023,,,,,,,2025-05-02,1,,,,,ウチュウソウケン,0
1800,7050003009234,新規,0,2025-05-02,2025-05-02,みらいエネルギー合同会社,,合同会社,茨城県,つくばみらい市,谷井田１３５３番地１３伊奈ビューハイツ２０１号室,,08,235,3002337,,,,,,,2025-05-02,1,,,,,ミライエネルギー,0
1807,7080001026906,新規,0,2025-05-02,2025-05-02,ＣＷＴ株式会社,,株式会社,静岡県,静岡市葵区,羽鳥３丁目７番２６号,,22,101,4211215,,,,,,,2025-05-02,1,,,,,シーダブリューティー,0
1808,7080001026914,新規,0,2025-05-02,2025-05-02,想建工業株式会社,,株式会社,静岡県,静岡市清水区,横砂東町３０番１号,,22,103,4240032,,,,,,,2025-05-02,1,,,,,ソウケンコウギョウ,0
1811,7080401027883,新規,0,2025-05-02,2025-05-02,ＢＡＳＥ株式会社,,株式会社,静岡県,磐田市,新開５１６番地１、２Ｆ,,22,211,4380113,,,,,,,2025-05-02,1,,,,,ベース,0
1816,7100003008131,新規,0,2025-05-02,2025-05-02,合同会社アザミノヒメ,,合同会社,長野県,長野市,信更町桜井１０８３番地,,20,201,3812343,,,,,,,2025-05-02,1,,,,,アザミノヒメ,0
1817,7110001039235,新規,0,2025-05-02,2025-05-02,株式会社ＲＡＩＮＹ　ＷＯＲＫ,,株式会社,新潟県,長岡市,大手通２丁目２番地６ながおか市民センターＢ１Ｆ,,15,202,9400062,,,,,,,2025-05-02,1,,,,,レイニーワーク,0
1830,7120001275069,新規,0,2025-05-02,2025-05-02,株式会社アクアクオリティ,,株式会社,大阪府,大阪市福島区,大開２丁目６番１号,,27,103,5530007,,,,,,,2025-05-02,1,,,,,アクアクオリティ,0
1831,7120001275077,新規,0,2025-05-02,2025-05-02,日本マコト株式会社,,株式会社,大阪府,大阪市西成区,花園北１丁目７番１４号６０３－Ｃ号室,,27,122,5570016,,,,,,,2025-05-02,1,,,,,ニホンマコト,0
1832,7120001275102,新規,0,2025-05-02,2025-05-02,明泰株式会社,,株式会社,大阪府,大阪市平野区,瓜破１丁目３番２４号,,27,126,5470024,,,,,,,2025-05-02,1,,,,,メイタイ,0
1833,7120001275110,新規,0,2025-05-02,2025-05-02,株式会社８８１,,株式会社,大阪府,大阪市中央区,東心斎橋１丁目１６－１９日宝周防町会館１Ｆ,,27,128,5420083,,,,,,,2025-05-02,1,,,,,ヤバイ,0
1834,7120001275127,新規,0,2025-05-02,2025-05-02,株式会社大宥,,株式会社,大阪府,大阪市中央区,西心斎橋２丁目１８番６号アベニュー心斎橋８０４号室,,27,128,5420086,,,,,,,2025-05-02,1,,,,,ダイユウ,0
1839,7120005024918,新規,0,2025-05-02,2025-05-02,一般社団法人近畿広島県人会,,その他の設立登記法人,大阪府,大阪市北区,梅田１丁目３番１－８００号,,27,127,5300001,,,,,,,2025-05-02,1,,,,,キンキヒロシマケンジンカイ,0
1842,7122001039115,新規,0,2025-05-02,2025-05-02,聖雪株式会社,,株式会社,大阪府,東大阪市,西堤西２－７悟徳ハイツ２０１号室,,27,227,5770048,,,,,,,2025-05-02,1,,,,,セイセツ,0
1843,7122001039164,新規,0,2025-05-02,2025-05-02,山一建設株式会社,,株式会社,大阪府,東大阪市,小阪２丁目９番２８号,,27,227,5770801,,,,,,,2025-05-02,1,,,,,ヤマイチケンセツ,0
1846,7130001079527,新規,0,2025-05-02,2025-05-02,株式会社ＯＲＩＶＡＮＴ,,株式会社,京都府,宇治市,小倉町南堀池７９－８,,26,204,6110042,,,,,,,2025-05-02,1,,,,,オリバント,0
1847,7130001079568,新規,0,2025-05-02,2025-05-02,株式会社藤原設備,,株式会社,京都府,向日市,上植野町脇田４番地の１１,,26,208,6170006,,,,,,,2025-05-02,1,,,,,フジワラセツビ,0
1850,7130005017359,新規,0,2025-05-02,2025-05-02,一般社団法人和Ｌｉｆｅ,,その他の設立登記法人,京都府,八幡市,橋本狩尾１－２５０,,26,210,6148322,,,,,,,2025-05-02,1,,,,,ワライフ,0
1853,7140003021997,新規,0,2025-05-02,2025-05-02,合同会社タケダファクトリー,,合同会社,兵庫県,加古川市,加古川町溝之口６１番地の７,,28,210,6750064,,,,,,,2025-05-02,1,,,,,タケダファクトリー,0
1854,7140003022005,新規,0,2025-05-02,2025-05-02,言美合同会社,,合同会社,兵庫県,神戸市東灘区,向洋町中５丁目１番地５２２号棟１２１２号室,,28,101,6580032,,,,,,,2025-05-02,1,,,,,ゲンビ,0
1856,7150001028102,新規,0,2025-05-02,2025-05-02,０Ａ株式会社,,株式会社,奈良県,奈良市,小川町３－１一心ビル２階,,29,201,6308233,,,,,,,2025-05-02,1,,,,,ゼロエー,0
1858,7170001018605,新規,0,2025-05-02,2025-05-02,株式会社Ｒｅａｄｙ　ｔｏ　Ｒｏｌｌ,,株式会社,和歌山県,新宮市,神倉２丁目８番１３号,,30,207,6470044,,,,,,,2025-05-02,1,,,,,レディトゥロール,0
1871,7180001166601,新規,0,2025-05-02,2025-05-02,株式会社ＴＰＤ,,株式会社,愛知県,名古屋市南区,呼続元町１０番６５号,,23,112,4570011,,,,,,,2025-05-02,1,,,,,ティーピーディー,0
1872,7180001166626,新規,0,2025-05-02,2025-05-02,株式会社ＩＲＥＢＵＮ,,株式会社,愛知県,名古屋市瑞穂区,関取町６９番地の２（オーラム瑞穂関取町４０１号）,,23,108,4670058,,,,,,,2025-05-02,1,,,,,イレブン,0
1879,7180003028411,新規,0,2025-05-02,2025-05-02,山中企画合同会社,,合同会社,愛知県,名古屋市東区,泉１丁目３番２６号（グランドメゾン久屋大通４０４号）,,23,102,4610001,,,,,,,2025-05-02,1,,,,,ヤマナカキカク,0
1882,7180301039770,新規,0,2025-05-02,2025-05-02,株式会社匠,,株式会社,愛知県,豊田市,小坂町１丁目２番地１トヨタミッドヒルズ毘森公園８０９号,,23,211,4710035,,,,,,,2025-05-02,1,,,,,タクミ,0
1883,7180301039779,新規,0,2025-05-02,2025-05-02,株式会社エイトリンク,,株式会社,愛知県,岡崎市,中島町字荒井前３２番地アンドリュース１０３,,23,202,4440226,,,,,,,2025-05-02,1,,,,,エイトリンク,0
1884,7180305009687,新規,0,2025-05-02,2025-05-02,一般社団法人インフィニット・スポーツスクエア,,その他の設立登記法人,愛知県,豊橋市,花田町字築地１３番地の７４,,23,201,4418019,,,,,,,2025-05-02,1,,,,,インフィニットスポーツスクエア,0
1886,7200001043723,新規,0,2025-05-02,2025-05-02,株式会社ｔｏｒｃｈ,,株式会社,岐阜県,郡上市,高鷲町大鷲２８２１番地,,21,219,5015303,,,,,,,2025-05-02,1,,,,,トーチ,0
1887,7200003006802,新規,0,2025-05-02,2025-05-02,合同会社プライムワーク,,合同会社,岐阜県,揖斐郡大野町,大字下方３０８番地１の１,,21,403,5010523,,,,,,,2025-05-02,1,,,,,プライムワーク,0
1889,7210001020151,新規,0,2025-05-02,2025-05-02,株式会社Ｔｒａｄｉｔｉｏｎａｌ　Ｂｒｉｄｇｅ　Ｐａｒｔｎｅｒｓ,,株式会社,福井県,福井市,中央３丁目５番１２号２Ｆ,,18,201,9100006,,,,,,,2025-05-02,1,,,,,トラディショナルブリッジパートナーズ,0
1890,7210003001918,新規,0,2025-05-02,2025-05-02,合同会社続灯,,合同会社,福井県,南条郡南越前町,西大道第３５号８番地,,18,404,9190224,,,,,,,2025-05-02,1,,,,,ゾクトウ,0
1893,7230001020884,新規,0,2025-05-02,2025-05-02,ＳｏＬｅ　Ｔｅｃｈ株式会社,,株式会社,富山県,富山市,窪新町１番２６号,,16,201,9300842,,,,,,,2025-05-02,1,,,,,ソールテック,0
1896,7240003007185,新規,0,2025-05-02,2025-05-02,合同会社ある日,,合同会社,広島県,福山市,多治米町６丁目１４－３９,,34,207,7200824,,,,,,,2025-05-02,1,,,,,アルヒ,0
1908,7290001109870,新規,0,2025-05-02,2025-05-02,株式会社トライアル九重管理,,株式会社,福岡県,福岡市東区,多の津１丁目１２番２号,,40,131,8130034,,,,,,,2025-05-02,1,,,,,トライアルココノエカンリ,0
1911,7290005019728,新規,0,2025-05-02,2025-05-02,一般社団法人航空宇宙産業推進ネットワーク,,その他の設立登記法人,福岡県,柳川市,佃町１８２８－１５,,40,207,8320051,,,,,,,2025-05-02,1,,,,,コウクウウチュウサンギョウスイシンネットワーク,0
1912,7290801031506,新規,0,2025-05-02,2025-05-02,株式会社ＡＮＴ　ＷＯＲＫＳ,,株式会社,福岡県,北九州市小倉南区,富士見２丁目６番３号（１００１号）,,40,107,8020801,,,,,,,2025-05-02,1,,,,,アントワークス,0
1913,7290801031514,新規,0,2025-05-02,2025-05-02,匠創建和葉株式会社,,株式会社,福岡県,北九州市若松区,塩屋１丁目２０番５号,,40,103,8080131,,,,,,,2025-05-02,1,,,,,タクミソウケンカズハ,0
1914,7290801031522,新規,0,2025-05-02,2025-05-02,株式会社インターユニバーシティ・ベンチャーズ,,株式会社,福岡県,北九州市戸畑区,仙水町１番１号,,40,105,8040015,,,,,,,2025-05-02,1,,,,,インターユニバーシティベンチャーズ,0
1917,7310005008851,新規,0,2025-05-02,2025-05-02,一般社団法人おかえり,,その他の設立登記法人,長崎県,佐世保市,中里町３５６,,42,202,8580904,,,,,,,2025-05-02,1,,,,,オカエリ,0
1919,7320003004645,新規,0,2025-05-02,2025-05-02,合同会社田名加,,合同会社,大分県,由布市,湯布院町川南２８６番地１,,44,213,8795103,,,,,,,2025-05-02,1,,,,,タナカ,0
1925,7330003010989,新規,0,2025-05-02,2025-05-02,合同会社アルセート,,合同会社,熊本県,熊本市中央区,段山本町２番７号ベルフォース２０２号,,43,101,8600006,,,,,,,2025-05-02,1,,,,,アルセート,0
1933,7370003007065,新規,0,2025-05-02,2025-05-02,合同会社ＥＮｖｙ,,合同会社,宮城県,仙台市青葉区,国分町２丁目１番１２号瀬戸勝ビル１Ｆ－Ｅ号室,,04,101,9800803,,,,,,,2025-05-02,1,,,,,エンヴィ,0
1941,7390003002378,新規,0,2025-05-02,2025-05-02,合同会社ＯＫＥＹＡ．,,合同会社,山形県,西置賜郡飯豊町,大字上原３８８番地,,06,403,9990427,,,,,,,2025-05-02,1,,,,,オケヤ,0
1946,7430001094289,新規,0,2025-05-02,2025-05-02,ファジイ株式会社,,株式会社,北海道,札幌市東区,北二十五条東１９丁目７－１５－５０６,,01,103,0650025,,,,,,,2025-05-02,1,,,,,ファジイ,0
1947,7430001094314,新規,0,2025-05-02,2025-05-02,株式会社いわさか,,株式会社,北海道,札幌市厚別区,青葉町２丁目１２番１５号,,01,108,0040021,,,,,,,2025-05-02,1,,,,,イワサカ,0
1949,7430003017578,新規,0,2025-05-02,2025-05-02,合同会社ＧＡＲＡ,,合同会社,北海道,札幌市白石区,菊水八条３丁目３－２２－１０１,,01,104,0030808,,,,,,,2025-05-02,1,,,,,ガーラ,0
1950,7460003001050,新規,0,2025-05-02,2025-05-02,合同会社ピュアハート,,合同会社,北海道,釧路市,錦町４丁目３番地３階,,01,206,0850016,,,,,,,2025-05-02,1,,,,,ピュアハート,0
1951,7460401001271,新規,0,2025-05-02,2025-05-02,綾夢海産株式会社,,株式会社,北海道,根室市,花咲港６８番地,,01,223,0870032,,,,,,,2025-05-02,1,,,,,アヤメカイサン,0
1962,7700150130296,新規,0,2025-05-02,2025-05-02,Ｎｏｍｕｒａ　Ｒｅｓｅａｒｃｈ　Ｉｎｓｔｉｔｕｔｅ　Ｃｏｎｓｕｌｔｉｎｇ　ａｎｄ　Ｓｏｌｕｔｉｏｎｓ　Ｉｎｄｉａ　Ｐｒｉｖａｔｅ　Ｌｉｍｉｔｅｄ,,外国会社等,,,,,,,,７ｔｈ　ＦＩ．／ＴｏｗｅｒＡ，Ｂｕｉｌｄｉｎｇ　Ｎｏ．５，ＤＬＦ　Ｃｙｂｅｒ　Ｃｉｔｙ，ＰｈａｓｅＩＩＩ　Ｇｕｒｇａｏｎ，Ｈａｒｙａｎａ，Ｉｎｄｉａ,00138995,,,,,2025-05-02,1,,,,,ノムラリサーチインステイテユートコンサルテイングアンドソリユーシヨンズインデイアプライベートリミテツド,0
1963,7700150130305,新規,0,2025-05-02,2025-05-02,ＺＡＩＮＡ　ＴＲＡＤＩＮＧ　ＣＯＭＰＡＮＹ,,外国会社等,奈良県,大和郡山市,井戸野町３４４番地１徳本アパート１０３号,,29,203,6391104,スリランカ民主社会主義共和国、ゲリオヤ、ゲリオヤワスタ、Ｎｏ．２３／８,,,,,,2025-05-02,1,,,,,ザイナトレーデイングカンパニー,0
1968,8010001254685,新規,0,2025-05-02,2025-05-02,データトラスト株式会社,,株式会社,東京都,千代田区,大手町１丁目６番１号,,13,101,1000004,,,,,,,2025-05-02,1,,,,,データトラスト,0
1971,8010003047253,新規,0,2025-05-02,2025-05-02,Ｇｌｅｎｒｉｄｇｅ　Ｃａｐｉｔａｌ合同会社,,合同会社,東京都,千代田区,神田神保町２丁目１９番地１リーガルタワー神保町９０１号,,13,101,1010051,,,,,,,2025-05-02,1,,,,,グレンリッジキャピタル,0
1981,8010501054040,新規,0,2025-05-02,2025-05-02,株式会社ａｒｔｃｏｄｅｃ,,株式会社,東京都,台東区,寿３丁目１５番４号,,13,106,1110042,,,,,,,2025-05-02,1,,,,,アートコーデック,0
1992,8010901057262,新規,0,2025-05-02,2025-05-02,キミエデザインラボ株式会社,,株式会社,東京都,世田谷区,赤堤５丁目４１番６号,,13,112,1560044,,,,,,,2025-05-02,1,,,,,キミエデザインラボ,0
1993,8010901057270,新規,0,2025-05-02,2025-05-02,株式会社サバト・インク,,株式会社,東京都,世田谷区,上北沢４丁目３３－２１ヴィラ・ロンド３０９,,13,112,1560057,,,,,,,2025-05-02,1,,,,,サバトインク,0
2004,8011001169238,新規,0,2025-05-02,2025-05-02,Ｇｒａｂｉｏｎ株式会社,,株式会社,東京都,渋谷区,渋谷２丁目１９－１５宮益坂ビルディング６０９,,13,113,1500002,,,,,,,2025-05-02,1,,,,,グラビオン,0
2005,8011001169246,新規,0,2025-05-02,2025-05-02,株式会社かみしごと,,株式会社,東京都,渋谷区,渋谷２丁目１９番１５号宮益坂ビルディング６０９,,13,113,1500002,,,,,,,2025-05-02,1,,,,,カミシゴト,0
2006,8011001169394,新規,0,2025-05-02,2025-05-02,高田土地建物株式会社,,株式会社,東京都,目黒区,五本木２丁目７番１０号,,13,110,1530053,,,,,,,2025-05-02,1,,,,,タカダトチタテモノ,0
2007,8011003021495,新規,0,2025-05-02,2025-05-02,合同会社ｒｉｚ,,合同会社,東京都,目黒区,上目黒５丁目１８番３号,,13,110,1530051,,,,,,,2025-05-02,1,,,,,リズ,0
2012,8011201026321,新規,0,2025-05-02,2025-05-02,株式会社ｅｖｅＲ　Ｇｒｅｅｎ,,株式会社,東京都,中野区,東中野３丁目１４－１グリーンビル６階,,13,114,1640003,,,,,,,2025-05-02,1,,,,,エバーグリーン,0
2015,8011501032028,新規,0,2025-05-02,2025-05-02,ＲｉｃｈＦｕｎｎｙ株式会社,,株式会社,東京都,荒川区,町屋３丁目２番１号Ｂ１Ｆ,,13,118,1160001,,,,,,,2025-05-02,1,,,,,リッチファニー,0
2017,8011503006517,新規,0,2025-05-02,2025-05-02,合同会社スピードスター,,合同会社,東京都,北区,上十条１丁目２０番１６号第２エステート竹村１０１号,,13,117,1140034,,,,,,,2025-05-02,1,,,,,スピードスター,0
2024,8012301014356,新規,0,2025-05-02,2025-05-02,株式会社ラックリバー,,株式会社,東京都,町田市,根岸２丁目２９番地１７,,13,209,1940038,,,,,,,2025-05-02,1,,,,,ラックリバー,0
2025,8012403007101,新規,0,2025-05-02,2025-05-02,ハピハートランス合同会社,,合同会社,東京都,三鷹市,中原１丁目２番３８号サンケンビル１０３,,13,204,1810005,,,,,,,2025-05-02,1,,,,,ハピハートランス,0
2029,8012701018840,新規,0,2025-05-02,2025-05-02,銀河鉄道ツアーズ株式会社,,株式会社,東京都,東村山市,青葉町２丁目２番地１,,13,213,1890002,,,,,,,2025-05-02,1,,,,,ギンガテツドウツアーズ,0
2030,8012801023947,新規,0,2025-05-02,2025-05-02,ＴＧ　Ｃｏ‐Ｄｉｇｉｔａｌ株式会社,,株式会社,東京都,国分寺市,南町１丁目１４番７号プラウド国分寺４１７,,13,214,1850021,,,,,,,2025-05-02,1,,,,,ティジーコーデジタル,0
2042,8020001162615,新規,0,2025-05-02,2025-05-02,株式会社ＪＭＰ　ＪＡＰＡＮ,,株式会社,神奈川県,横浜市神奈川区,栄町５番地１横浜クリエーションスクエア１４階,,14,102,2210052,,,,,,,2025-05-02,1,,,,,ジェイエムピージャパン,0
2046,8020003028376,新規,0,2025-05-02,2025-05-02,ＦＬＡＴ合同会社,,合同会社,神奈川県,横浜市港北区,箕輪町２丁目１７番４－４号,,14,109,2230051,,,,,,,2025-05-02,1,,,,,フラット,0
2048,8021001085137,新規,0,2025-05-02,2025-05-02,株式会社リアンプレイス,,株式会社,神奈川県,鎌倉市,山ノ内３０９番地９号,,14,204,2470062,,,,,,,2025-05-02,1,,,,,リアンプレイス,0
2056,8030003026734,新規,0,2025-05-02,2025-05-02,合同会社みんなの家なグループ,,合同会社,埼玉県,南埼玉郡宮代町,宮代台３丁目１６番１号,,11,442,3450835,,,,,,,2025-05-02,1,,,,,ミンナノイエナグループ,0
2057,8030005022153,新規,0,2025-05-02,2025-05-02,医療法人椋里会,,その他の設立登記法人,埼玉県,春日部市,大場字前野１３１５番地８,,11,214,3440021,,,,,,,2025-05-02,1,,,,,リョウリカイ,0
2062,8040003027186,新規,0,2025-05-02,2025-05-02,合同会社ファーストＴＫ,,合同会社,千葉県,千葉市中央区,中央港１丁目２６番２８‐４１３号,,12,101,2600024,,,,,,,2025-05-02,1,,,,,ファーストティーケー,0
2063,8050003009225,新規,0,2025-05-02,2025-05-02,合同会社ＭＳｏ８４,,合同会社,茨城県,土浦市,永国７５１番地１５,,08,203,3000817,,,,,,,2025-05-02,1,,,,,エムエスオーハシ,0
2064,8050003009233,新規,0,2025-05-02,2025-05-02,わせ貿易合同会社,,合同会社,茨城県,土浦市,板谷６丁目６６５番地１２０ハッピーライフ１０５,,08,203,3000007,,,,,,,2025-05-02,1,,,,,ワセボウエキ,0
2074,8070003005908,新規,0,2025-05-02,2025-05-02,合同会社ｅｎｇｉｎｅ,,合同会社,群馬県,館林市,本町２丁目３－７木村ビル１Ｆ,,10,207,3740024,,,,,,,2025-05-02,1,,,,,エンジン,0
2078,8080401027882,新規,0,2025-05-02,2025-05-02,株式会社プルートエデュケーション,,株式会社,静岡県,磐田市,中泉１２７５番地３,,22,211,4380078,,,,,,,2025-05-02,1,,,,,プルートエデュケーション,0
2083,8110001039218,新規,0,2025-05-02,2025-05-02,株式会社清水技研,,株式会社,新潟県,西蒲原郡弥彦村,峰見６０１９番地２,,15,342,9590309,,,,,,,2025-05-02,1,,,,,シミズギケン,0
2093,8120001274937,新規,0,2025-05-02,2025-05-02,享楽国際株式会社,,株式会社,大阪府,大阪市生野区,巽東２丁目３番１５号,,27,116,5440014,,,,,,,2025-05-02,1,,,,,キョウラクコクサイ,0
2094,8120001275051,新規,0,2025-05-02,2025-05-02,株式会社平松商事,,株式会社,大阪府,大阪市浪速区,恵美須西１丁目２番４号魁ビルディング４０１号,,27,111,5560003,,,,,,,2025-05-02,1,,,,,ヒラマツショウジ,0
2095,8120001275126,新規,0,2025-05-02,2025-05-02,株式会社松霖,,株式会社,大阪府,大阪市住吉区,沢之町１丁目２番２号プチベルン沢之町４０２号,,27,120,5580031,,,,,,,2025-05-02,1,,,,,ショウリン,0
2096,8120001275134,新規,0,2025-05-02,2025-05-02,株式会社真成,,株式会社,大阪府,寝屋川市,梅が丘１丁目１６番８号,,27,215,5720803,,,,,,,2025-05-02,1,,,,,シンセイ,0
2097,8120001275150,新規,0,2025-05-02,2025-05-02,株式会社リブアップ,,株式会社,大阪府,大阪市淀川区,西中島７丁目１番２６－１４０２号,,27,123,5320011,,,,,,,2025-05-02,1,,,,,リブアップ,0
2098,8120001275159,新規,0,2025-05-02,2025-05-02,株式会社ＴＮＣ,,株式会社,大阪府,大阪市東住吉区,矢田４丁目３番３３号,,27,121,5460023,,,,,,,2025-05-02,1,,,,,ティーエヌシー,0
2099,8120001275175,新規,0,2025-05-02,2025-05-02,ｓｅｌｅｃｔホールディングス株式会社,,株式会社,大阪府,大阪市中央区,玉造２丁目３番１８号フロンティアビル,,27,128,5400004,,,,,,,2025-05-02,1,,,,,セレクトホールディングス,0
2100,8120001275217,新規,0,2025-05-02,2025-05-02,株式会社Ｌｉｂｅｎ,,株式会社,大阪府,大阪市北区,中津３丁目１３番１０号,,27,127,5310071,,,,,,,2025-05-02,1,,,,,リベン,0
2102,8120003029257,新規,0,2025-05-02,2025-05-02,ＡＩナレッジワークス合同会社,,合同会社,大阪府,大阪市浪速区,湊町２丁目２番５号２１１９号室,,27,111,5560017,,,,,,,2025-05-02,1,,,,,エーアイナレッジワークス,0
2103,8120003029281,新規,0,2025-05-02,2025-05-02,合同会社ＭＹオフィス,,合同会社,大阪府,枚方市,出口１丁目６－２３,,27,210,5730065,,,,,,,2025-05-02,1,,,,,マイオフィス,0
2104,8120005024917,新規,0,2025-05-02,2025-05-02,弁護士法人バディ,,その他の設立登記法人,大阪府,大阪市北区,西天満４丁目１５番１８号プラザ梅新１５１６号室,,27,127,5300047,,,,,,,2025-05-02,1,,,,,バディ,0
2107,8120901050842,新規,0,2025-05-02,2025-05-02,株式会社ＫＡＷＯ,,株式会社,大阪府,池田市,石橋１丁目４番８号ファミーユ石橋２０３号,,27,204,5630032,,,,,,,2025-05-02,1,,,,,カヲ,0
2109,8130001079550,新規,0,2025-05-02,2025-05-02,株式会社京都発汗ラボ,,株式会社,京都府,京都市南区,久世高田町３４番地１９,,26,107,6018211,,,,,,,2025-05-02,1,,,,,キョウトハッカンラボ,0
2115,8140001138347,新規,0,2025-05-02,2025-05-02,株式会社きさきマネジメント,,株式会社,兵庫県,尼崎市,武庫豊町２丁目８番２８号,,28,202,6610045,,,,,,,2025-05-02,1,,,,,キサキマネジメント,0
2116,8140001138371,新規,0,2025-05-02,2025-05-02,株式会社ＲＤＦ,,株式会社,兵庫県,神戸市中央区,三宮町１丁目４番３号クレフィ三宮４階４０２,,28,110,6500021,,,,,,,2025-05-02,1,,,,,アールディーエフ,0
2123,8140003022004,新規,0,2025-05-02,2025-05-02,合同会社日本サル対策加速化事業所,,合同会社,兵庫県,三田市,あかしあ台５丁目３番１,,28,219,6691323,,,,,,,2025-05-02,1,,,,,ニホンサルタイサクカソクカジギョウショ,0
2124,8140003022012,新規,0,2025-05-02,2025-05-02,合同会社インフィニティー,,合同会社,兵庫県,西宮市,段上町２丁目１０－１２－４０２,,28,204,6638006,,,,,,,2025-05-02,1,,,,,インフィニティー,0
2125,8140005027463,新規,0,2025-05-02,2025-05-02,一般社団法人兵庫県モルック協会,,その他の設立登記法人,兵庫県,尼崎市,武庫之荘１丁目１４－１３,,28,202,6610035,,,,,,,2025-05-02,1,,,,,ヒョウゴケンモルックキョウカイ,0
2126,8150001028092,新規,0,2025-05-02,2025-05-02,飛鳥株式会社,,株式会社,奈良県,高市郡明日香村,大字飛鳥３８８番地の１,,29,402,6340103,,,,,,,2025-05-02,1,,,,,アスカ,0
2130,8170001018604,新規,0,2025-05-02,2025-05-02,株式会社一谷建装,,株式会社,和歌山県,岩出市,吉田３２０－２１,00138999,30,209,6496246,,,,,,,2025-05-02,1,,,,,イチタニケンソウ,0
2136,8180001166625,新規,0,2025-05-02,2025-05-02,株式会社Ａｉ　Ｊａｐａｎ　Ｇｏｌｄ,,株式会社,愛知県,名古屋市天白区,植田３丁目８１０番地ステーションビルＡＳＡＴＯＫＵ６０１,,23,116,4680051,,,,,,,2025-05-02,1,,,,,アイジャパンゴールド,0
2141,8180003028419,新規,0,2025-05-02,2025-05-02,南空合同会社,,合同会社,愛知県,名古屋市千種区,内山３丁目２１番１１号,,23,101,4640075,,,,,,,2025-05-02,1,,,,,ミナミソラ,0
2145,8180303006553,新規,0,2025-05-02,2025-05-02,合同会社ＩＸＩＡ,,合同会社,愛知県,豊田市,大平町下山４番地２,,23,211,4700555,,,,,,,2025-05-02,1,,,,,イクシア,0
2151,8210003001917,新規,0,2025-05-02,2025-05-02,合同会社谷口事務所,,合同会社,福井県,福井市,松本１丁目１７番１９号,,18,201,9100003,,,,,,,2025-05-02,1,,,,,タニグチジムショ,0
2158,8240003007168,新規,0,2025-05-02,2025-05-02,合同会社キレイモア,,合同会社,広島県,安芸高田市,甲田町上甲立１２０－１５,,34,214,7391104,,,,,,,2025-05-02,1,,,,,キレイモア,0
2159,8240003007184,新規,0,2025-05-02,2025-05-02,ａｍｉｔｏ合同会社,,合同会社,広島県,尾道市,向島町５５４７－３,,34,205,7220073,,,,,,,2025-05-02,1,,,,,アミト,0
2161,8250001021129,新規,0,2025-05-02,2025-05-02,ペプチドリップホールディング株式会社,,株式会社,山口県,山陽小野田市,大字鴨庄字大沖田６番地１４,,35,216,7570005,,,,,,,2025-05-02,1,,,,,ペプチドリップホールディング,0
2162,8250005009005,新規,0,2025-05-02,2025-05-02,一般社団法人とよた,,その他の設立登記法人,山口県,下関市,豊田町大字浮石１１４８,,35,201,7500415,,,,,,,2025-05-02,1,,,,,トヨタ,0
2180,8290005019727,新規,0,2025-05-02,2025-05-02,一般社団法人日本ＦＣ協会,,その他の設立登記法人,福岡県,福岡市中央区,赤坂１丁目６番２３－１号プロスぺリタ赤坂４Ｆ,,40,133,8100042,,,,,,,2025-05-02,1,,,,,ニホンエフシーキョウカイ,0
2181,8290801031496,新規,0,2025-05-02,2025-05-02,ＴＴＣ　ＪＡＰＡＮ株式会社,,株式会社,福岡県,北九州市若松区,下原町５番１３号,,40,103,8080005,,,,,,,2025-05-02,1,,,,,ティティシージャパン,0
2182,8290801031513,新規,0,2025-05-02,2025-05-02,株式会社Ｊ．Ａ．Ｍ．Ｅｎｇｉｎｅｅｒｉｎｇ　Ｉｎｓｔｉｔｕｔｅ,,株式会社,福岡県,北九州市小倉北区,皿山町１６番８号,,40,106,8030854,,,,,,,2025-05-02,1,,,,,ジャムエンジニアリングインスティテュート,0
2185,8290803005044,新規,0,2025-05-02,2025-05-02,合同会社エイエス工業,,合同会社,福岡県,北九州市門司区,下馬寄７番２８号,,40,101,8000051,,,,,,,2025-05-02,1,,,,,エイエスコウギョウ,0
2186,8300001014176,新規,0,2025-05-02,2025-05-02,株式会社エムエス,,株式会社,佐賀県,神埼市,神埼町永歌１２５５番地２,,41,210,8420004,,,,,,,2025-05-02,1,,,,,エムエス,0
2190,8330005010912,新規,0,2025-05-02,2025-05-02,一般社団法人山岳災害レスキュー連合会７ＤＡＹＳ,,その他の設立登記法人,熊本県,熊本市北区,鶴羽田１丁目８－４７－１ＭＣＲ３８７Ｂ－９,,43,105,8615517,,,,,,,2025-05-02,1,,,,,サンガクサイガイレスキューレンゴウカイセブンデイズ,0
2192,8340001027307,新規,0,2025-05-02,2025-05-02,株式会社スペラガーレ,,株式会社,鹿児島県,鹿児島市,平之町８番１３号５階宮川公認会計士事務所内,,46,201,8920848,,,,,,,2025-05-02,1,,,,,スペラガーレ,0
2200,8370001052525,新規,0,2025-05-02,2025-05-02,株式会社地球計画研究所,,株式会社,宮城県,仙台市太白区,八木山緑町１６番１２号,,04,104,9820832,,,,,,,2025-05-02,1,,,,,チキュウケイカクケンキュウショ,0
2202,8370003007080,新規,0,2025-05-02,2025-05-02,カドヤ合同会社,,合同会社,宮城県,仙台市青葉区,一番町４丁目５番１号,,04,101,9800811,,,,,,,2025-05-02,1,,,,,カドヤ,0
2216,8430003017593,新規,0,2025-05-02,2025-05-02,合同会社ｃｏｒｄｍａｒｋ,,合同会社,北海道,札幌市中央区,南二条東６丁目５番地朝日プラザ一条橋１００２号,,01,101,0600052,,,,,,,2025-05-02,1,,,,,コードマーク,0
2222,8480003002260,新規,0,2025-05-02,2025-05-02,合同会社田舎ライフ,,合同会社,徳島県,三好郡東みよし町,加茂１６８９番１号,,36,489,7794701,,,,,,,2025-05-02,1,,,,,イナカライフ,0
2224,8500001026275,新規,0,2025-05-02,2025-05-02,株式会社Ｂｅ．ＰＬＵＳ,,株式会社,愛媛県,松山市,土橋町８２番地メゾン梓１０５号,,38,201,7900032,,,,,,,2025-05-02,1,,,,,ビープラス,0
2226,8700150130295,新規,0,2025-05-02,2025-05-02,ＥＴＯＭＡＲＳ　ＩＮＣ．,,外国会社等,,,,,,,,８３０－８３２　Ｑｕｅｅｎ’ｓ　Ｐａｒｋ　Ｅｌｅｖｅｎ　Ａ－ｄｏｎｇ，２１２，Ｇｏｎｇｈａｎｇ－ｄａｅｒｏ，Ｇａｎｇｓｅｏ－ｇｕ，Ｓｅｏｕｌ，Ｋｏｒｅａ,,,,,,2025-05-02,1,,,,,イトマスインク,0
2227,8700150130304,新規,0,2025-05-02,2025-05-02,ＭＩＮＮＥＲＩＹＡ　ＡＵＴＯ　ＴＲＡＤＥＲＳ,,外国会社等,奈良県,大和郡山市,井戸野町３４４番地１徳本アパート１０２号,,29,203,6391104,スリランカ民主社会主義共和国、ミンネリヤ、カトゥケリヤワロード、シーピープラ、Ｎｏ．１７、１／２ポスト,,,,,,2025-05-02,1,,,,,ミンネリヤオートトレーダーズ,0
2233,9010001254271,新規,0,2025-05-02,2025-05-02,一能光源株式会社,,株式会社,東京都,中央区,銀座７丁目１７－１８,,13,102,1040061,,,,,,,2025-05-02,1,,,,,イチノコウゲン,0
2234,9010001254362,新規,0,2025-05-02,2025-05-02,株式会社ＭＡＩＶＥＲＳＥ,,株式会社,東京都,中央区,東日本橋１丁目１番２０号三幸日本橋プラザビル５０３,,13,102,1030004,,,,,,,2025-05-02,1,,,,,マイバース,0
2235,9010001254569,新規,0,2025-05-02,2025-05-02,ナカラジャパン株式会社,,株式会社,東京都,中央区,勝どき１丁目８番１－３０１１号,,13,102,1040054,,,,,,,2025-05-02,1,,,,,ナカラジャパン,0
2236,9010001254577,新規,0,2025-05-02,2025-05-02,株式会社三．,,株式会社,東京都,文京区,春日１丁目１１番１３号,,13,105,1120003,,,,,,,2025-05-02,1,,,,,サンドット,0
2237,9010001254619,新規,0,2025-05-02,2025-05-02,株式会社ＮＹＸ,,株式会社,東京都,中央区,銀座３丁目１５番１０号,,13,102,1040061,,,,,,,2025-05-02,1,,,,,ニクス,0
2238,9010001254759,新規,0,2025-05-02,2025-05-02,株式会社生活基盤プラットフォーム,,株式会社,東京都,中央区,新川１丁目２８番３８号,,13,102,1040033,,,,,,,2025-05-02,1,,,,,セイカツキバンプラットフォーム,0
2245,9010003047186,新規,0,2025-05-02,2025-05-02,Ｈｏｎｒａｄｏ　Ｉｎｔｅｒｎａｔｉｏｎａｌ合同会社,,合同会社,東京都,中央区,日本橋室町１丁目１１番１２号日本橋水野ビル７階,,13,102,1030022,,,,,,,2025-05-02,1,,,,,オンラードインターナショナル,0
2246,9010003047203,新規,0,2025-05-02,2025-05-02,和熙新能源合同会社,,合同会社,東京都,千代田区,神田小川町２丁目３番地１３,,13,101,1010052,,,,,,,2025-05-02,1,,,,,ワキシンノウゲン,0
2249,9010101016654,新規,0,2025-05-02,2025-05-02,株式会社門倉誉士希,,株式会社,東京都,八王子市,東浅川町９８６番地４,,13,201,1930834,,,,,,,2025-05-02,1,,,,,カドクラヨシキ,0
2250,9010101016670,新規,0,2025-05-02,2025-05-02,リンクス株式会社,,株式会社,東京都,八王子市,寺田町１４１１番地マルトハイツ２０７,,13,201,1930943,,,,,,,2025-05-02,1,,,,,リンクス,0
2260,9010401189976,新規,0,2025-05-02,2025-05-02,株式会社ＯＡＫ　ｍａｎａｇｅｍｅｎｔ,,株式会社,東京都,港区,六本木７丁目１４番５号,,13,103,1060032,,,,,,,2025-05-02,1,,,,,オークマネジメント,0
2261,9010401190125,新規,0,2025-05-02,2025-05-02,株式会社Ｔａｌｅｎｔｒｙ,,株式会社,東京都,港区,北青山２丁目７－１３プラセオ青山ビル３階,,13,103,1070061,,,,,,,2025-05-02,1,,,,,タレントリー,0
2266,9010701047628,新規,0,2025-05-02,2025-05-02,株式会社東京人材技研,,株式会社,東京都,品川区,西五反田４丁目１０番１３号,,13,109,1410031,,,,,,,2025-05-02,1,,,,,トウキョウジンザイギケン,0
2267,9010701047636,新規,0,2025-05-02,2025-05-02,株式会社ヘポタイヤ,,株式会社,東京都,品川区,南大井５丁目２０番１１号２０３号室,,13,109,1400013,,,,,,,2025-05-02,1,,,,,ヘポタイヤ,0
2268,9010703007679,新規,0,2025-05-02,2025-05-02,合同会社ＵＭＰ,,合同会社,東京都,品川区,西五反田８丁目１番３号,,13,109,1410031,,,,,,,2025-05-02,1,,,,,アンプ,0
2269,9010703007695,新規,0,2025-05-02,2025-05-02,合同会社あさみ,,合同会社,東京都,品川区,東品川４丁目１１番３６－１７０７号,,13,109,1400002,,,,,,,2025-05-02,1,,,,,アサミ,0
2271,9010901057286,新規,0,2025-05-02,2025-05-02,株式会社神山マーケティングラボ,,株式会社,東京都,世田谷区,駒沢５丁目５番５号,,13,112,1540012,,,,,,,2025-05-02,1,,,,,カミヤママーケティングラボ,0
2273,9010903009896,新規,0,2025-05-02,2025-05-02,合同会社ＢＯＮ　ＬＩＮＫ,,合同会社,東京都,世田谷区,等々力７丁目８番１４号,,13,112,1580082,,,,,,,2025-05-02,1,,,,,ボンリンク,0
2274,9011001169237,新規,0,2025-05-02,2025-05-02,株式会社Ａｖｙ　Ｃｏｒｐｏｒａｔｉｏｎ,,株式会社,東京都,渋谷区,円山町５番５号Ｎａｖｉ渋谷Ｖ３Ｆ,,13,113,1500044,,,,,,,2025-05-02,1,,,,,アヴィコーポレーション,0
2275,9011001169245,新規,0,2025-05-02,2025-05-02,株式会社ＴＡＫＩＭＯＲＩ,,株式会社,東京都,目黒区,上目黒４丁目１番３５号目黒第七コーポ３０５号,,13,110,1530051,,,,,,,2025-05-02,1,,,,,タキモリ,0
2276,9011001169253,新規,0,2025-05-02,2025-05-02,Ａｓｕｍｉｅ株式会社,,株式会社,東京都,渋谷区,道玄坂１丁目１０番８号渋谷道玄坂東急ビル２Ｆ－Ｃ,,13,113,1500043,,,,,,,2025-05-02,1,,,,,アスミー,0
2277,9011001169575,新規,0,2025-05-02,2025-05-02,ＭＡＨＡＳＩＭＨＡＹＡ　ＪＡＰＡＮ株式会社,,株式会社,東京都,渋谷区,富ヶ谷１丁目１４－１４スタンフォードアネックスビル３Ｆ,,13,113,1510063,,,,,,,2025-05-02,1,,,,,マハシンハヤジャパン,0
2283,9011003021494,新規,0,2025-05-02,2025-05-02,ＰＯＯＲＴ合同会社,,合同会社,東京都,渋谷区,円山町５番３号ＭＩＥＵＸ渋谷ビル８階,,13,113,1500044,,,,,,,2025-05-02,1,,,,,ポート,0
2284,9011003021511,新規,0,2025-05-02,2025-05-02,北参道キャピタルマネジメント合同会社,,合同会社,東京都,渋谷区,千駄ヶ谷４丁目９番２４－３１６号,,13,113,1510051,,,,,,,2025-05-02,1,,,,,キタサンドウキャピタルマネジメント,0
2288,9011101111602,新規,0,2025-05-02,2025-05-02,界騰株式会社,,株式会社,東京都,新宿区,四谷三栄町１１番１６号,,13,104,1600008,,,,,,,2025-05-02,1,,,,,カイトウ,0
2289,9011101111619,新規,0,2025-05-02,2025-05-02,株式会社ＤＸｉｎｎｏ,,株式会社,東京都,新宿区,西新宿３丁目３番１３号西新宿水間ビル６階,,13,104,1600023,,,,,,,2025-05-02,1,,,,,ディクシノ,0
2290,9011101111643,新規,0,2025-05-02,2025-05-02,エノバ・ジャパン株式会社,,株式会社,東京都,新宿区,北新宿４丁目１０－５ルシード北新宿３０２,,13,104,1690074,,,,,,,2025-05-02,1,,,,,エノバジャパン,0
2293,9011103015859,新規,0,2025-05-02,2025-05-02,合同会社ＣＨＡＭＯ,,合同会社,東京都,新宿区,西新宿８丁目２－２０井上ビル１０号館３０３,,13,104,1600023,,,,,,,2025-05-02,1,,,,,チャモ,0
2300,9011801046049,新規,0,2025-05-02,2025-05-02,株式会社ＧＡＭＢＩＴ,,株式会社,東京都,足立区,古千谷本町３丁目２－１７親水公園古千谷１０１,,13,121,1210832,,,,,,,2025-05-02,1,,,,,ギャンビット,0
2302,9012303002151,新規,0,2025-05-02,2025-05-02,合同会社コスコ,,合同会社,東京都,町田市,原町田４丁目１１－１３天野ビル４Ｆ,,13,209,1940013,,,,,,,2025-05-02,1,,,,,コスコ,0
2304,9012703003261,新規,0,2025-05-02,2025-05-02,ＵＭＩＵＭＩ合同会社,,合同会社,東京都,東久留米市,本町２丁目４番５号,,13,222,2030053,,,,,,,2025-05-02,1,,,,,ウミウミ,0
2306,9013101009685,新規,0,2025-05-02,2025-05-02,株式会社杜輪酒造,,株式会社,東京都,青梅市,森下町４９８番地の１,,13,205,1980089,,,,,,,2025-05-02,1,,,,,トワシュゾウ,0
2318,9020001162647,新規,0,2025-05-02,2025-05-02,株式会社久我工業,,株式会社,神奈川県,川崎市川崎区,大島４丁目１３番８－５０３号,,14,131,2100834,,,,,,,2025-05-02,1,,,,,クガコウギョウ,0
2319,9020001162663,新規,0,2025-05-02,2025-05-02,株式会社新栄総建,,株式会社,神奈川県,横浜市磯子区,滝頭２丁目１８－２－１０１,,14,107,2350012,,,,,,,2025-05-02,1,,,,,シンエイソウケン,0
2320,9020001162671,新規,0,2025-05-02,2025-05-02,株式会社シンレイコーポレーション,,株式会社,神奈川県,横浜市中区,住吉町６丁目６９番地馬車道ＳＴビル７階,,14,104,2310013,,,,,,,2025-05-02,1,,,,,シンレイコーポレーション,0
2328,9021003015958,新規,0,2025-05-02,2025-05-02,Ｍｏｎｅｔ合同会社,,合同会社,神奈川県,大和市,南林間５丁目５―１７―２０２,,14,213,2420006,,,,,,,2025-05-02,1,,,,,モネ,0
2329,9021005013357,新規,0,2025-05-02,2025-05-02,税理士法人リソースフル,,その他の設立登記法人,神奈川県,相模原市緑区,橋本３丁目４番１５号Ｍ－６・１０１,,14,151,2520143,,,,,,,2025-05-02,1,,,,,リソースフル,0
2335,9030001166317,新規,0,2025-05-02,2025-05-02,石年株式会社,,株式会社,埼玉県,川口市,西川口４丁目１６－２０セドルハイム西川口３０１,,11,203,3320021,,,,,,,2025-05-02,1,,,,,セキネン,0
2336,9030001166382,新規,0,2025-05-02,2025-05-02,株式会社Ｃｏｔｉｏｎ,,株式会社,埼玉県,川口市,大字里６３４－１カンパヌール２・３０３号,,11,203,3340005,,,,,,,2025-05-02,1,,,,,コーション,0
2343,9040001138521,新規,0,2025-05-02,2025-05-02,株式会社ＣＴＪ,,株式会社,千葉県,船橋市,海神４丁目４番２号,,12,204,2730021,,,,,,,2025-05-02,1,,,,,シーティージェイ,0
2344,9040003027466,新規,0,2025-05-02,2025-05-02,＿源商事合同会社,00139014,合同会社,千葉県,柏市,篠籠田１３９７番地２６１ドリットハイツ１０４号,,12,217,2770862,,,,,,,2025-05-02,1,,,,,キンゲンショウジ,0
2345,9040005022754,新規,0,2025-05-02,2025-05-02,一般社団法人親と子どもの心理支援ラボ,,その他の設立登記法人,千葉県,柏市,増尾台４丁目６番１３号,,12,217,2770052,,,,,,,2025-05-02,1,,,,,オヤトコドモノシンリシエンラボ,0
2347,9050001056565,新規,0,2025-05-02,2025-05-02,マハーシヴァ・ジョーティ株式会社,,株式会社,茨城県,土浦市,木田余東台５丁目９番１２号,,08,203,3000027,,,,,,,2025-05-02,1,,,,,マハーシヴァジョーティ,0
2353,9080001026912,新規,0,2025-05-02,2025-05-02,株式会社ＴＳＧ,,株式会社,静岡県,静岡市清水区,駒越中２丁目１番７１号駒越ハイツ２０１,,22,103,4240904,,,,,,,2025-05-02,1,,,,,ティーエスジー,0
2354,9080001026920,新規,0,2025-05-02,2025-05-02,株式会社ＮＥＯＶＩＮＣＨ,,株式会社,静岡県,静岡市駿河区,西脇６１３番地の１、１０３号,,22,102,4228044,,,,,,,2025-05-02,1,,,,,ネオヴィンチ,0
2358,9080105006505,新規,0,2025-05-02,2025-05-02,一般社団法人フジサンフェスタ,,その他の設立登記法人,静岡県,富士宮市,野中１０８８番地の２０,,22,207,4180039,,,,,,,2025-05-02,1,,,,,フジサンフェスタ,0
2365,9100001038558,新規,0,2025-05-02,2025-05-02,株式会社プロジェクトチームナガタ,,株式会社,長野県,上田市,常田２丁目２７－１７,,20,203,3860018,,,,,,,2025-05-02,1,,,,,プロジェクトチームナガタ,0
2368,9110003005745,新規,0,2025-05-02,2025-05-02,合同会社Ｅｍｏｔｉｏｎ　Ｓｔａｇｅ,,合同会社,新潟県,三条市,石上１丁目４番１２号,,15,204,9550084,,,,,,,2025-05-02,1,,,,,エモーションステージ,0
2384,9120001274944,新規,0,2025-05-02,2025-05-02,株式会社ＴＥＡＭ　ＹＵＧＡ,,株式会社,大阪府,大阪市淀川区,西宮原２丁目５番４６－６３２号,,27,123,5320004,,,,,,,2025-05-02,1,,,,,チームユウガ,0
2385,9120001275050,新規,0,2025-05-02,2025-05-02,株式会社キセナ,,株式会社,大阪府,大阪市住吉区,万代４丁目１番２４号,,27,120,5580055,,,,,,,2025-05-02,1,,,,,キセナ,0
2386,9120001275100,新規,0,2025-05-02,2025-05-02,慧和株式会社,,株式会社,大阪府,大阪市住之江区,東加賀屋２丁目１６番２８号１０１室,,27,125,5590012,,,,,,,2025-05-02,1,,,,,ケイワ,0
2387,9120001275109,新規,0,2025-05-02,2025-05-02,ダイキ株式会社,,株式会社,大阪府,大阪市西成区,萩之茶屋１丁目１２番７号万葉ビル１３１号室,,27,122,5570004,,,,,,,2025-05-02,1,,,,,ダイキ,0
2388,9120001275240,新規,0,2025-05-02,2025-05-02,飛象日本株式会社,,株式会社,大阪府,大阪市浪速区,敷津東２丁目１－２４－１５１０号,,27,111,5560012,,,,,,,2025-05-02,1,,,,,ヒゾウニホン,0
2393,9120005024916,新規,0,2025-05-02,2025-05-02,特定非営利活動法人ライブブルー,,その他の設立登記法人,大阪府,交野市,星田１丁目２３番９号,,27,230,5760016,,,,,,,2025-05-02,1,,,,,ライブブルー,0
2395,9120101071597,新規,0,2025-05-02,2025-05-02,奥脇ダクト株式会社,,株式会社,大阪府,堺市北区,東三国ヶ丘町１丁１番１－１０１１号,,27,146,5918046,,,,,,,2025-05-02,1,,,,,オクワキダクト,0
2399,9120901050800,新規,0,2025-05-02,2025-05-02,ＡＺサービス株式会社,,株式会社,大阪府,吹田市,千里丘上７番１－９０２号,,27,205,5650811,,,,,,,2025-05-02,1,,,,,エーゼットサービス,0
2402,9122003003182,新規,0,2025-05-02,2025-05-02,ＦａｒＳｔａｒ合同会社,,合同会社,大阪府,東大阪市,小阪２丁目１０番１０－７０７号,,27,227,5770801,,,,,,,2025-05-02,1,,,,,ファースター,0
2403,9122003003190,新規,0,2025-05-02,2025-05-02,ＮＫＤ合同会社,,合同会社,大阪府,東大阪市,東石切町４丁目８番２３号ＲＨＹＴＨＭ新石切Ａ棟２０２号室,,27,227,5798011,,,,,,,2025-05-02,1,,,,,エヌケイディー,0
2405,9130001079558,新規,0,2025-05-02,2025-05-02,株式会社Ｒａｃｃｏｏｎ,,株式会社,京都府,京都市上京区,河原町通広小路下る東桜町２５番地３ローレルコート京都御所東１１２,,26,102,6020858,,,,,,,2025-05-02,1,,,,,ラクーン,0
2408,9140001138354,新規,0,2025-05-02,2025-05-02,株式会社ルース,,株式会社,兵庫県,南あわじ市,市福永５５７番地１４,,28,224,6560478,,,,,,,2025-05-02,1,,,,,ルース,0
2409,9140001138370,新規,0,2025-05-02,2025-05-02,クレストペイント株式会社,,株式会社,兵庫県,姫路市,書写２６４８番地１コーホービル３０３,,28,201,6712201,,,,,,,2025-05-02,1,,,,,クレストペイント,0
2410,9140001138379,新規,0,2025-05-02,2025-05-02,株式会社アールズ,,株式会社,兵庫県,宝塚市,南口２丁目９番３－１０２号,,28,214,6650011,,,,,,,2025-05-02,1,,,,,アールズ,0
2415,9140003021863,新規,0,2025-05-02,2025-05-02,ＦＭＩソリューションズ合同会社,,合同会社,兵庫県,神戸市北区,有馬町１２２９ー２リッチライフ有馬２号館５０３,,28,109,6511401,,,,,,,2025-05-02,1,,,,,エフエムアイソリューションズ,0
2418,9150001028083,新規,0,2025-05-02,2025-05-02,株式会社蘭希,,株式会社,奈良県,大和高田市,礒野町１８番１２号－Ｃ,,29,202,6350093,,,,,,,2025-05-02,1,,,,,ラッキ,0
2419,9150001028091,新規,0,2025-05-02,2025-05-02,株式会社宝来エステート,,株式会社,奈良県,奈良市,西千代ヶ丘２丁目１４番６号,,29,201,6310046,,,,,,,2025-05-02,1,,,,,ホウライエステート,0
2420,9150001028100,新規,0,2025-05-02,2025-05-02,株式会社ＲＥＶＩＴＡＬＡＩＺＥ,,株式会社,奈良県,桜井市,大字戒重３４５番地の１,,29,206,6330064,,,,,,,2025-05-02,1,,,,,リバイタライズ,0
2429,9180001166574,新規,0,2025-05-02,2025-05-02,ＬｉｆｅＥａｓｅホールディングス株式会社,,株式会社,愛知県,名古屋市北区,清水５丁目５番３号,,23,103,4620844,,,,,,,2025-05-02,1,,,,,ライフイーズ,0
2430,9180001166616,新規,0,2025-05-02,2025-05-02,株式会社キーライフ,,株式会社,愛知県,名古屋市南区,要町４丁目４０‐４０ライオンズマンション要町４０１,,23,112,4570802,,,,,,,2025-05-02,1,,,,,キーライフ,0
2431,9180001166632,新規,0,2025-05-02,2025-05-02,株式会社ｒｉｕｍ,,株式会社,愛知県,一宮市,浅野字大西東１５番地１シャルマン大西１０３号,,23,203,4910871,,,,,,,2025-05-02,1,,,,,リウム,0
2433,9180003028368,新規,0,2025-05-02,2025-05-02,合同会社ＡＩＧ,,合同会社,愛知県,名古屋市中村区,名駅５丁目２２番７号,,23,105,4500002,,,,,,,2025-05-02,1,,,,,エイアイジー,0
2434,9180003028426,新規,0,2025-05-02,2025-05-02,合同会社山下電気工事,,合同会社,愛知県,春日井市,勝川町西２丁目２３番地２,,23,206,4860946,,,,,,,2025-05-02,1,,,,,ヤマシタデンキコウジ,0
2439,9180303006560,新規,0,2025-05-02,2025-05-02,合同会社フォーエバー・フィールド,,合同会社,愛知県,豊田市,高美町３丁目２６番地,,23,211,4730918,,,,,,,2025-05-02,1,,,,,フォーエバーフィールド,0
2440,9190005012047,新規,0,2025-05-02,2025-05-02,農事組合法人七保永会クラブ,,その他の設立登記法人,三重県,度会郡大紀町,永会２０７番地２,,24,471,5192734,,,,,,,2025-05-02,1,,,,,ナナホエイカイクラブ,0
2442,9200001043721,新規,0,2025-05-02,2025-05-02,株式会社バリュープロ,,株式会社,岐阜県,岐阜市,中西郷３丁目１２５番地３,,21,201,5011177,,,,,,,2025-05-02,1,,,,,バリュープロ,0
2452,9240001064895,新規,0,2025-05-02,2025-05-02,株式会社Ｈ．Ｒ．Ｃ,,株式会社,広島県,広島市西区,大宮１丁目１７番１３号,,34,104,7330007,,,,,,,2025-05-02,1,,,,,エイチアールシー,0
2454,9240003007175,新規,0,2025-05-02,2025-05-02,合同会社松室建工,,合同会社,広島県,呉市,押込２丁目９番９号,,34,202,7370915,,,,,,,2025-05-02,1,,,,,マツムロケンコウ,0
2455,9240003007183,新規,0,2025-05-02,2025-05-02,合同会社Ｔｏｙｆｕｌ　Ｗｏｒｋｓ,,合同会社,広島県,福山市,沖野上町６丁目１５番１５－１号,,34,207,7200825,,,,,,,2025-05-02,1,,,,,トイフルワークス,0
2465,9290801031512,新規,0,2025-05-02,2025-05-02,ノルトベースエンターテイメント株式会社,,株式会社,福岡県,北九州市小倉北区,砂津１丁目１１番２号,,40,106,8020014,,,,,,,2025-05-02,1,,,,,ノルトベースエンターテイメント,0
2468,9290805009827,新規,0,2025-05-02,2025-05-02,プロテリアル若松労働組合,,その他の設立登記法人,福岡県,北九州市若松区,北浜１丁目９番１号,,40,103,8080023,,,,,,,2025-05-02,1,,,,,プロテリアルワカマツ,0
2471,9320001021079,新規,0,2025-05-02,2025-05-02,ドクターミューイング株式会社,,株式会社,大分県,由布市,湯布院町塚原１２１７－４３,,44,213,8795101,,,,,,,2025-05-02,1,,,,,ドクターミューイング,0
2472,9320003004643,新規,0,2025-05-02,2025-05-02,合同会社ＫＡコンサルティングサービス,,合同会社,大分県,大分市,城崎町３丁目２－２５エグゼコート城崎６０４,,44,201,8700045,,,,,,,2025-05-02,1,,,,,ケーエーコンサルティングサービス,0
2473,9330001033148,新規,0,2025-05-02,2025-05-02,株式会社ＳＩＮＢＡ,,株式会社,熊本県,熊本市東区,小峯３丁目２番５３号,,43,102,8620933,,,,,,,2025-05-02,1,,,,,シンバ,0
2475,9340001027306,新規,0,2025-05-02,2025-05-02,株式会社Ｋ企画,,株式会社,鹿児島県,鹿児島市,唐湊１丁目２５番１２号,,46,201,8900081,,,,,,,2025-05-02,1,,,,,ケイキカク,0
2476,9340005009861,新規,0,2025-05-02,2025-05-02,一般社団法人オーグメント,,その他の設立登記法人,鹿児島県,鹿児島市,薬師１丁目５番１０号,,46,201,8900042,,,,,,,2025-05-02,1,,,,,オーグメント,0
2477,9360001035141,新規,0,2025-05-02,2025-05-02,株式会社コネクト琉球,,株式会社,沖縄県,豊見城市,字平良１０３番地３,,47,212,9010212,,,,,,,2025-05-02,1,,,,,コネクトリュウキュウ,0
2478,9360003014845,新規,0,2025-05-02,2025-05-02,合同会社縁環,,合同会社,沖縄県,那覇市,牧志２丁目１７－２７－４０１,,47,201,9000013,,,,,,,2025-05-02,1,,,,,エニシ,0
2480,9370001052532,新規,0,2025-05-02,2025-05-02,株式会社メディアゾーン,,株式会社,宮城県,仙台市若林区,卸町２丁目４番１,,04,103,9840015,,,,,,,2025-05-02,1,,,,,メディアゾーン,0
2489,9410001014148,新規,0,2025-05-02,2025-05-02,株式会社Ｈｅｌｉｅｘ,,株式会社,秋田県,秋田市,南通亀の町４－１５,,05,201,0100011,,,,,,,2025-05-02,1,,,,,ヘリエックス,0
2491,9420001019113,新規,0,2025-05-02,2025-05-02,株式会社Ｒｉｎｇ　Ｔｒｅｅ,,株式会社,青森県,青森市,西滝２丁目２７番３号,,02,201,0380014,,,,,,,2025-05-02,1,,,,,リングトゥリー,0
2495,9430001094295,新規,0,2025-05-02,2025-05-02,株式会社シオン,,株式会社,北海道,札幌市白石区,栄通３丁目４番３３号,,01,104,0030021,,,,,,,2025-05-02,1,,,,,シオン,0
2496,9430001094312,新規,0,2025-05-02,2025-05-02,一本通株式会社,,株式会社,北海道,札幌市厚別区,厚別東一条６丁目２番１０号１階Ｂ号室,,01,108,0040001,,,,,,,2025-05-02,1,,,,,イッポンツウ,0
2497,9430001094329,新規,0,2025-05-02,2025-05-02,株式会社ツインターフ,,株式会社,北海道,札幌市豊平区,月寒東二条１９丁目１２番２０号,,01,105,0620052,,,,,,,2025-05-02,1,,,,,ツインターフ,0
2498,9430003017584,新規,0,2025-05-02,2025-05-02,合同会社Ｂｕｋ,,合同会社,北海道,札幌市中央区,南二条西２３丁目１番７‐２０３号,,01,101,0640802,,,,,,,2025-05-02,1,,,,,ブック,0
2499,9440003001686,新規,0,2025-05-02,2025-05-02,合同会社オフィス・コリ,,合同会社,北海道,檜山郡厚沢部町,字滝野２２６番地１,,01,363,0431103,,,,,,,2025-05-02,1,,,,,オフィスコリ,0
2501,9470001020693,新規,0,2025-05-02,2025-05-02,株式会社ＴＥ,,株式会社,香川県,高松市,香南町西庄１４３９番地,,37,201,7611406,,,,,,,2025-05-02,1,,,,,ティーイー,0
2503,9490005006992,新規,0,2025-05-02,2025-05-02,高知広域生コンクリート協同組合,,その他の設立登記法人,高知県,高知市,城山町１８３番地５,,39,201,7808037,,,,,,,2025-05-02,1,,,,,コウチコウイキナマコンクリート,0
2505,9500001026274,新規,0,2025-05-02,2025-05-02,株式会社ｍｅｌｔｓ,,株式会社,愛媛県,松山市,山越３丁目１６番１号,,38,201,7918013,,,,,,,2025-05-02,1,,,,,メルツ,0
2507,9700150129865,新規,0,2025-05-02,2025-05-02,Ｓｙｎｃｈｒｏ　Ｐａｃｅｍ　Ｈｏｌｄｉｎｇｓ　Ｃｏ．，Ｌｔｄ．,,外国会社等,,,,,,,,ＦＨ　Ｃｏｒｐｏｒａｔｅ　Ｓｅｒｖｉｃｅｓ　Ｌｔｄ　Ｃｌａｒｅｎｃｅ　Ｔｈｏｍａｓ　Ｂｕｉｌｄｉｎｇ　Ｐ．Ｏ．Ｂｏｘ４６４９，ＲｏａｄＴｏｗｎ，Ｔｏｒｔｏｌａ　Ｂｒｉｔｉｓｈ　Ｖｉｒｇｉｎ　Ｉｓｌａｎｄｓ,,,,,,2025-05-02,1,,,,,シンクロパーチエムホールデイングス,0
