sequenceNumber,corporateNumber,process,correct,updateDate,changeDate,name,nameImageId,kind,prefectureName,cityName,streetNumber,addressImageId,prefectureCode,cityCode,postCode,addressOutside,addressOutsideImageId,closeDate,closeCause,successorCorporateNumber,changeCause,assignmentDate,latest,enName,enPrefectureName,enCityName,enAddressOutside,furigana,hihyoji
4,1010001222822,新規,0,2021-11-30,2021-11-30,ゼッタデータソリューション株式会社,,株式会社,東京都,文京区,千駄木３丁目４７番１号,,13,105,1130022,,,,,,,2021-11-30,1,,,,,ゼッタデータソリューション,0
8,1010003036403,新規,0,2021-11-30,2021-11-30,ＬＵＣＩＡＮ１１合同会社,,合同会社,東京都,千代田区,丸の内１丁目８番２号,,13,101,1000005,,,,,,,2021-11-30,1,,,,,ルシアンジュウイチ,0
9,1010003036436,新規,0,2021-11-30,2021-11-30,ＬＵＣＩＡＮ１２合同会社,,合同会社,東京都,千代田区,丸の内１丁目８番２号,,13,101,1000005,,,,,,,2021-11-30,1,,,,,ルシアンジュウニ,0
14,1010401164037,新規,0,2021-11-30,2021-11-30,株式会社オールベア,,株式会社,東京都,港区,虎ノ門４丁目３－１城山トラストタワー２１階,,13,103,1050001,,,,,,,2021-11-30,1,,,,,オールベア,0
20,1010703006011,新規,0,2021-11-30,2021-11-30,ＫＡＭＡＮＡ　ＭＡＲＴ合同会社,,合同会社,東京都,品川区,平塚１丁目８番１３号マンションピアニッシモ２０２,,13,109,1420051,,,,,,,2021-11-30,1,,,,,カマナマート,0
26,1010801032529,新規,0,2021-11-30,2021-11-30,株式会社ことせ工業,,株式会社,東京都,大田区,東六郷１丁目２２－４,,13,111,1440046,,,,,,,2021-11-30,1,,,,,コトセコウギョウ,0
38,1011003013796,新規,0,2021-11-30,2021-11-30,勝虫６９合同会社,,合同会社,東京都,渋谷区,恵比寿南２丁目３番３号第一恵比寿マンション地下１階Ｌ号室ＢＡＣＩＯ６９,,13,113,1500022,,,,,,,2021-11-30,1,,,,,トンボロック,0
40,1011005009322,新規,0,2021-11-30,2021-11-30,一般社団法人誠創会,,その他の設立登記法人,東京都,渋谷区,笹塚３丁目１７番４号２０１,,13,113,1510073,,,,,,,2021-11-30,1,,,,,セイソウカイ,0
43,1011101097023,新規,0,2021-11-30,2021-11-30,株式会社ブラザーズビレッジ,,株式会社,東京都,新宿区,大久保２丁目３２番２号林ビル９０５号,,13,104,1690072,,,,,,,2021-11-30,1,,,,,ブラザーズビレッジ,0
50,1011501027521,新規,0,2021-11-30,2021-11-30,株式会社ＳＡＲＡＶＡＨ　ｄｅｓｉｇｎ,,株式会社,東京都,北区,王子３丁目９番１５号２Ｆ,,13,117,1140002,,,,,,,2021-11-30,1,,,,,サラヴァデザイン,0
52,1011703003007,新規,0,2021-11-30,2021-11-30,合同会社ｅｎｉｓｉｓ,,合同会社,東京都,江戸川区,中葛西３丁目１５番１６号,,13,123,1340083,,,,,,,2021-11-30,1,,,,,エニシス,0
63,1012801021239,新規,0,2021-11-30,2021-11-30,株式会社統将建設,,株式会社,東京都,武蔵村山市,本町２丁目１１２番地の５,,13,223,2080004,,,,,,,2021-11-30,1,,,,,トウショウケンセツ,0
64,1013301048342,新規,0,2021-11-30,2021-11-30,株式会社ブルースカイ,,株式会社,東京都,豊島区,千川１丁目１１番１８－２１２号,,13,116,1710041,,,,,,,2021-11-30,1,,,,,ブルースカイ,0
76,1021001074609,新規,0,2021-11-30,2021-11-30,株式会社源自動車商会,,株式会社,神奈川県,中郡大磯町,国府新宿１０６番地,,14,341,2590112,,,,,,,2021-11-30,1,,,,,ミナモトジドウシャショウカイ,0
84,1030001145559,新規,0,2021-11-30,2021-11-30,株式会社Ｌａ　Ｓｔｒａｄａ,,株式会社,埼玉県,さいたま市浦和区,木崎１丁目１３番６号,,11,107,3300042,,,,,,,2021-11-30,1,,,,,ラストラーダ,0
85,1030001145609,新規,0,2021-11-30,2021-11-30,前田商社株式会社,,株式会社,埼玉県,川口市,前川１丁目１番１１号,,11,203,3330842,,,,,,,2021-11-30,1,,,,,マエダショウシャ,0
87,1030005020642,新規,0,2021-11-30,2021-11-30,医療法人利歯会,,その他の設立登記法人,埼玉県,川口市,大字安行慈林１７５番地９,,11,203,3340071,,,,,,,2021-11-30,1,,,,,リッシカイ,0
96,1040001121162,新規,0,2021-11-30,2021-11-30,株式会社Ｉ．Ｐ．Ｄ　ｉｎｔｅｒｉｏｒｐｒｅｎｄｒｅ,,株式会社,千葉県,白井市,冨士１１４番地の５１,,12,232,2701432,,,,,,,2021-11-30,1,,,,,アイピーディーインテリアプランドール,0
97,1040001121195,新規,0,2021-11-30,2021-11-30,株式会社オーセンティシティー,,株式会社,千葉県,銚子市,春日町３４２３番地ラメール春日壱番館１１２,,12,202,2880814,,,,,,,2021-11-30,1,,,,,オーセンティシティー,0
104,1040003019025,新規,0,2021-11-30,2021-11-30,Ｂ＆Ｓ　ＡＵＴＯ　ＴＲＡＤＩＮＧ合同会社,,合同会社,千葉県,富里市,立沢５６１番地８１,,12,233,2860214,,,,,,,2021-11-30,1,,,,,ビーアンドエスオートトレーディング,0
106,1050003006220,新規,0,2021-11-30,2021-11-30,合同会社一輪花,,合同会社,茨城県,桜川市,大国玉６０６番地１,,08,231,3091244,,,,,,,2021-11-30,1,,,,,,0
114,1070005009921,新規,0,2021-11-30,2021-11-30,一般社団法人海Ｋａｉ,,その他の設立登記法人,群馬県,高崎市,金古町１４５７番地１４,,10,202,3703511,,,,,,,2021-11-30,1,,,,,カイ,0
148,1120001242132,新規,0,2021-11-30,2021-11-30,フューチャープロジェクト株式会社,,株式会社,大阪府,枚方市,楠葉朝日１丁目１５番２９号,,27,210,5731111,,,,,,,2021-11-30,1,,,,,フューチャープロジェクト,0
149,1120001242149,新規,0,2021-11-30,2021-11-30,株式会社ＦｒａｍｅＢｉｒｄ,,株式会社,大阪府,大阪市北区,万歳町３－４１城野ビル４０３,,27,127,5300028,,,,,,,2021-11-30,1,,,,,フレイムバード,0
167,1122003002225,新規,0,2021-11-30,2021-11-30,メディカル・ファイヤー合同会社,,合同会社,大阪府,東大阪市,稲葉４丁目６番２５号,,27,227,5780925,,,,,,,2021-11-30,1,,,,,メディカルファイヤー,0
170,1130001070623,新規,0,2021-11-30,2021-11-30,株式会社Ｊｏｉｅ,,株式会社,京都府,京都市下京区,綾小路通東洞院東入神明町２４１番地オパス四条７０３,,26,106,6008092,,,,,,,2021-11-30,1,,,,,ジョワ,0
178,1140001123974,新規,0,2021-11-30,2021-11-30,株式会社プロラボ,,株式会社,兵庫県,神戸市西区,南別府１丁目１－１０－２Ｆ,,28,111,6512116,,,,,,,2021-11-30,1,,,,,プロラボ,0
179,1140001124015,新規,0,2021-11-30,2021-11-30,株式会社びいどろ,,株式会社,兵庫県,神戸市西区,北山台２丁目２６番５号,,28,111,6512215,,,,,,,2021-11-30,1,,,,,ビイドロ,0
212,1240005015299,新規,0,2021-11-30,2021-11-30,エホバの証人の広島県大竹市大竹会衆,,その他の設立登記法人,広島県,大竹市,黒川１丁目１１番１７号,,34,211,7390653,,,,,,,2021-11-30,1,,,,,エホバノショウニンノヒロシマケンオオタケシオオタケカイシュウ,0
233,1360001029687,新規,0,2021-11-30,2021-11-30,株式会社プラネット,,株式会社,沖縄県,中頭郡読谷村,字大木８番地２宇栄原倉庫１号,,47,324,9040316,,,,,,,2021-11-30,1,,,,,プラネット,0
237,1360003011602,新規,0,2021-11-30,2021-11-30,合同会社ＭＯＮＪａｐａｎ,,合同会社,沖縄県,那覇市,字天久８８３番地２シービューグランデＩＩ４０１,00124993,47,201,9000005,,,,,,,2021-11-30,1,,,,,モンジャパン,0
248,1380001032375,新規,0,2021-11-30,2021-11-30,株式会社Ｋ－ＤＡＳＨ,,株式会社,福島県,二本松市,茂原字石田３２７番地,,07,210,9640432,,,,,,,2021-11-30,1,,,,,ケイダッシュ,0
269,1480001007037,新規,0,2021-11-30,2021-11-30,稲垣鉱業株式会社,,株式会社,徳島県,阿南市,福井町大西３６番地の５,,36,204,7791620,,,,,,,2021-11-30,1,,,,,イナガキコウギョウ,0
273,1700150106013,新規,0,2021-11-30,2021-11-30,ＡＫＩＮ　ＷＩＮＧＳ　ＨＯＬＤＩＮＧＳ　ＰＶＴ　ＬＴＤ,,外国会社等,千葉県,旭市,清和甲字飛地１３６３－１１－Ａ,,12,215,2890507,スリランカ民主社会主義共和国、コロンボー１４、シリマヴォバンダラナヤケロードＮｏ．１５,,,,,,2021-11-30,1,,,,,アキンウイングスホルデイングスピウイテイエルテイデイ,0
284,2010001222854,新規,0,2021-11-30,2021-11-30,株式会社アクアシルクワーム,,株式会社,東京都,文京区,本郷５丁目３番１５号,,13,105,1130033,,,,,,,2021-11-30,1,,,,,アクアシルクワーム,0
285,2010001222879,新規,0,2021-11-30,2021-11-30,Ｆｏｌｋ株式会社,,株式会社,東京都,千代田区,丸の内３丁目４番１号新国際ビル６階,,13,101,1000005,,,,,,,2021-11-30,1,,,,,フォルク,0
293,2010003036443,新規,0,2021-11-30,2021-11-30,オックスブリッジパートナーズ合同会社,,合同会社,東京都,文京区,春日２丁目１１番１３－４０４号,,13,105,1120003,,,,,,,2021-11-30,1,,,,,オックスブリッジパートナーズ,0
295,2010005034263,新規,0,2021-11-30,2021-11-30,御岳４特定目的会社,,その他の設立登記法人,東京都,千代田区,丸の内２丁目２番３号丸の内仲通りビル６階,,13,101,1000005,,,,,,,2021-11-30,1,,,,,ミタケフォー,0
303,2010401164119,新規,0,2021-11-30,2021-11-30,マーケティング・エンゲージメント株式会社,,株式会社,東京都,港区,南青山２丁目６番１５－５０１号,,13,103,1070062,,,,,,,2021-11-30,1,,,,,マーケティングエンゲージメント,0
306,2010501048147,新規,0,2021-11-30,2021-11-30,株式会社Ｓ＆ＡＰ,,株式会社,東京都,台東区,上野７丁目１０番５－１３０１号スパシエ上野ステーションプラザ,,13,106,1100005,,,,,,,2021-11-30,1,,,,,エスアンドエーピー,0
312,2010701041843,新規,0,2021-11-30,2021-11-30,株式会社ａｎｄ　ｓｏ　ｏｎ,,株式会社,東京都,品川区,西五反田５丁目２１番４－５０２号,,13,109,1410031,,,,,,,2021-11-30,1,,,,,アンドソウオン,0
313,2010705003294,新規,0,2021-11-30,2021-11-30,一般社団法人ＩＦＣ協会,,その他の設立登記法人,東京都,品川区,上大崎３丁目１－３０－２５０６,,13,109,1410021,,,,,,,2021-11-30,1,,,,,アイエフシーキョウカイ,0
315,2010801032528,新規,0,2021-11-30,2021-11-30,株式会社アンパップ,,株式会社,東京都,大田区,山王２丁目１－２,,13,111,1430023,,,,,,,2021-11-30,1,,,,,,0
334,2011101097039,新規,0,2021-11-30,2021-11-30,株式会社ＶＩＬＵＺＴ,,株式会社,東京都,新宿区,信濃町１０番地１１リアルワンビル１Ｆ,,13,104,1600016,,,,,,,2021-11-30,1,,,,,ヴィルスト,0
335,2011101097055,新規,0,2021-11-30,2021-11-30,株式会社ＳＵＳエンターテイメント,,株式会社,東京都,新宿区,新宿５丁目１１番１３号富士新宿ビル４階,,13,104,1600022,,,,,,,2021-11-30,1,,,,,エスユーエスエンターテイメント,0
342,2011705001701,新規,0,2021-11-30,2021-11-30,一般社団法人日本カイラリ,,その他の設立登記法人,東京都,江戸川区,東小松川３丁目１２番１２号,,13,123,1320033,,,,,,,2021-11-30,1,,,,,ニホンカイラリ,0
361,2020001144123,新規,0,2021-11-30,2021-11-30,株式会社Ｐｒｏｂｉｔｙ,,株式会社,神奈川県,横浜市都筑区,仲町台５丁目６番１５号,,14,118,2240041,,,,,,,2021-11-30,1,,,,,プロビティ,0
367,2020003020883,新規,0,2021-11-30,2021-11-30,合同会社ＣＯＧＯ,,合同会社,神奈川県,横浜市青葉区,千草台２２番地１,,14,117,2270051,,,,,,,2021-11-30,1,,,,,コゴ,0
373,2021001074608,新規,0,2021-11-30,2021-11-30,ＹＴコーポレーション株式会社,,株式会社,神奈川県,座間市,相武台１丁目４１番５７号,,14,216,2520011,,,,,,,2021-11-30,1,,,,,ワイティーコーポレーション,0
376,2021003011138,新規,0,2021-11-30,2021-11-30,ＣＡＲ　ＭＡＸ合同会社,,合同会社,神奈川県,厚木市,温水２２２９番地１１－Ａ２０７号室,,14,212,2430033,,,,,,,2021-11-30,1,,,,,カーマックス,0
384,2030001145582,新規,0,2021-11-30,2021-11-30,株式会社Ｇａｚｏｎ,,株式会社,埼玉県,川越市,氷川町３３２番地７,,11,201,3500851,,,,,,,2021-11-30,1,,,,,ガゾン,0
393,2040001121153,新規,0,2021-11-30,2021-11-30,株式会社クリーンアンドグリーン,,株式会社,千葉県,館山市,上真倉２３９６番地の３,,12,205,2940038,,,,,,,2021-11-30,1,,,,,クリーンアンドグリーン,0
396,2040003019016,新規,0,2021-11-30,2021-11-30,極貿易合同会社,,合同会社,千葉県,松戸市,新松戸３丁目２２番地ハイホーム鈴木Ｂ－２０２号,,12,207,2700034,,,,,,,2021-11-30,1,,,,,キワミボウエキ,0
399,2060001034329,新規,0,2021-11-30,2021-11-30,株式会社日慈優,,株式会社,栃木県,栃木市,岩舟町和泉字宿北側１４１４－１,,09,203,3294303,,,,,,,2021-11-30,1,,,,,ニジュウ,0
401,2060003003876,新規,0,2021-11-30,2021-11-30,合同会社ＤＩＧＧＩＮＧ,,合同会社,栃木県,足利市,下渋垂町４７１番地１号,,09,202,3260334,,,,,,,2021-11-30,1,,,,,ディギン,0
402,2060003003884,新規,0,2021-11-30,2021-11-30,合同会社Ｃｏｎｎｅｃｔ,,合同会社,栃木県,宇都宮市,鶴田町１５３１番地３Ｙ＆ＭＬ’ｐｕｒ２０２,,09,201,3200851,,,,,,,2021-11-30,1,,,,,,0
409,2080101022941,新規,0,2021-11-30,2021-11-30,リバーシティキャピタル株式会社,,株式会社,静岡県,田方郡函南町,上沢７０１番地の１１,,22,325,4190122,,,,,,,2021-11-30,1,,,,,リバーシティキャピタル,0
410,2080103002470,新規,0,2021-11-30,2021-11-30,パキラ合同会社,,合同会社,静岡県,田方郡函南町,仁田６７４番地の１,,22,325,4190114,,,,,,,2021-11-30,1,,,,,パキラ,0
424,2120001242098,新規,0,2021-11-30,2021-11-30,株式会社ＣＯＣＯＲＯ　ｂｒａｎｄｉｎｇ,,株式会社,大阪府,大阪市西淀川区,姫島４丁目９番１２号,,27,113,5550033,,,,,,,2021-11-30,1,,,,,ココロブランディング,0
425,2120001242148,新規,0,2021-11-30,2021-11-30,ＭＪＬ株式会社,,株式会社,大阪府,大阪市浪速区,恵美須西１丁目２番５号マウンテン・ウエストビル５０６,,27,111,5560003,,,,,,,2021-11-30,1,,,,,エムジェイエル,0
432,2120003020675,新規,0,2021-11-30,2021-11-30,合同会社護光,,合同会社,大阪府,寝屋川市,石津南町１３番４３号,,27,215,5720024,,,,,,,2021-11-30,1,,,,,ゴコウ,0
443,2130001070597,新規,0,2021-11-30,2021-11-30,株式会社Ｃｉｖｉｌ　Ａｓｓｉｓｔ,,株式会社,京都府,京都市下京区,四条通室町東入函谷鉾町１０１アーバンネット四条烏丸ビル７Ｆ,,26,106,6008009,,,,,,,2021-11-30,1,,,,,シビルアシスト,0
444,2130001070614,新規,0,2021-11-30,2021-11-30,株式会社ｃｏｍｆｏｒｔａｂｌｅ．ｃｏｎｎｅｃｔｉｏｎ,,株式会社,京都府,宇治市,琵琶台３丁目１６番地５,,26,204,6110024,,,,,,,2021-11-30,1,,,,,コンフォタブルコネクション,0
445,2130001070622,新規,0,2021-11-30,2021-11-30,株式会社ＥＤＥＮ,,株式会社,京都府,京都市中京区,蛸薬師通新町西入不動町１７４番地１四条ソリテア１０１,,26,104,6048215,,,,,,,2021-11-30,1,,,,,エデン,0
450,2140001123981,新規,0,2021-11-30,2021-11-30,株式会社風のくらし,,株式会社,兵庫県,尼崎市,道意町６丁目３番地の１,,28,202,6600083,,,,,,,2021-11-30,1,,,,,カゼノクラシ,0
451,2140001124014,新規,0,2021-11-30,2021-11-30,株式会社ｒｏｏｍ,,株式会社,兵庫県,加古郡播磨町,西野添５丁目２３番６号,,28,382,6750160,,,,,,,2021-11-30,1,,,,,ルーム,0
453,2140003017042,新規,0,2021-11-30,2021-11-30,合同会社ＥＢＩＳＵ,,合同会社,兵庫県,尼崎市,尾浜町３丁目２４番１５号,,28,202,6610022,,,,,,,2021-11-30,1,,,,,エビス,0
459,2150005009350,新規,0,2021-11-30,2021-11-30,ハイツ大和郡山管理組合法人,,その他の設立登記法人,奈良県,大和郡山市,柳３丁目３３番地,,29,203,6391134,,,,,,,2021-11-30,1,,,,,ハイツヤマトコオリヤマ,0
472,2180305009270,新規,0,2021-11-30,2021-11-30,特定非営利活動法人好循環ｔｅｍｂｅａの会,,その他の設立登記法人,愛知県,岡崎市,戸崎町字牛転１０番地４朝日プラザ岡崎光ケ丘４０７,,23,202,4440840,,,,,,,2021-11-30,1,,,,,コウジュンカンテンベアノカイ,0
478,2240001058986,新規,0,2021-11-30,2021-11-30,株式会社クロスプラットフォーム,,株式会社,広島県,福山市,横尾町２丁目１２番１７号,,34,207,7200011,,,,,,,2021-11-30,1,,,,,クロスプラットフォーム,0
491,2290001095521,新規,0,2021-11-30,2021-11-30,株式会社ＭＥＴＡ,,株式会社,福岡県,福岡市博多区,那珂６丁目１番３９号エルグランド大産３０５,,40,132,8120893,,,,,,,2021-11-30,1,,,,,メタ,0
492,2290001095554,新規,0,2021-11-30,2021-11-30,株式会社ハヤシ,,株式会社,福岡県,福岡市西区,大字飯盛４１９番地の１,,40,135,8190037,,,,,,,2021-11-30,1,,,,,ハヤシ,0
497,2290801028036,新規,0,2021-11-30,2021-11-30,株式会社天装,,株式会社,福岡県,北九州市八幡西区,沖田１丁目１５番２５号,,40,109,8070077,,,,,,,2021-11-30,1,,,,,テンソウ,0
506,2330005010439,新規,0,2021-11-30,2021-11-30,特定非営利活動法人ＯＲＧＡＮＩＣ　ＳＭＩＬＥ,,その他の設立登記法人,熊本県,上益城郡山都町,北中島２８５０番地６,,43,447,8613455,,,,,,,2021-11-30,1,,,,,オーガニックスマイル,0
535,2700150106029,新規,0,2021-11-30,2021-11-30,片倉共栄会,,その他,東京都,中央区,明石町６－４,,13,102,1040044,,,,,,,2021-11-30,1,,,,,カタクラキョウエイカイ,0
545,3010003036401,新規,0,2021-11-30,2021-11-30,シェルワークス合同会社,,合同会社,東京都,中央区,日本橋浜町２丁目３４番４号桜ヒルズ日本橋浜町４０２号室,,13,102,1030007,,,,,,,2021-11-30,1,,,,,シェルワークス,0
546,3010005034262,新規,0,2021-11-30,2021-11-30,御岳３特定目的会社,,その他の設立登記法人,東京都,千代田区,丸の内２丁目２番３号丸の内仲通りビル６階,,13,101,1000005,,,,,,,2021-11-30,1,,,,,ミタケスリー,0
553,3010401164118,新規,0,2021-11-30,2021-11-30,ＰＩＮＮＡＣＬＥ　ＢＩＭ　ＴＥＣＨＮＯＬＯＧＹ株式会社,,株式会社,東京都,港区,赤坂２丁目１４番５号Ｄａｉｗａ赤坂ビル４階,,13,103,1070052,,,,,,,2021-11-30,1,,,,,ピナクルビーアイエムテクノロジー,0
558,3010801032527,新規,0,2021-11-30,2021-11-30,ｚａｓＨ株式会社,,株式会社,東京都,大田区,南雪谷２丁目８番１号,,13,111,1450066,,,,,,,2021-11-30,1,,,,,ザッシュ,0
563,3010901049891,新規,0,2021-11-30,2021-11-30,アコースタイプ株式会社,,株式会社,東京都,世田谷区,奥沢２丁目１２番１８号奥沢マンション３０１,,13,112,1580083,,,,,,,2021-11-30,1,,,,,アコースタイプ,0
570,3011001144311,新規,0,2021-11-30,2021-11-30,株式会社ＬＡＮＥ　ＦＩＶＥ　ＧＲＯＵＰ,,株式会社,東京都,渋谷区,渋谷２丁目１２番１２号,,13,113,1500002,,,,,,,2021-11-30,1,,,,,レーンファイブグループ,0
580,3011103011228,新規,0,2021-11-30,2021-11-30,ＯｒｃＡ合同会社,,合同会社,東京都,新宿区,西新宿３丁目３番１３号西新宿水間ビル６階,,13,104,1600023,,,,,,,2021-11-30,1,,,,,オルカ,0
588,3011801040008,新規,0,2021-11-30,2021-11-30,株式会社弘栄,,株式会社,東京都,足立区,加平１丁目１６番９号,,13,121,1210055,,,,,,,2021-11-30,1,,,,,コウエイ,0
607,3020001144080,新規,0,2021-11-30,2021-11-30,株式会社幸,,株式会社,神奈川県,横浜市神奈川区,浦島町５番地１６,,14,102,2210042,,,,,,,2021-11-30,1,,,,,サチ,0
608,3020001144114,新規,0,2021-11-30,2021-11-30,株式会社長田建設,,株式会社,神奈川県,横浜市旭区,今宿南町１７１５番地７,,14,112,2410034,,,,,,,2021-11-30,1,,,,,ナガタケンセツ,0
610,3020003020899,新規,0,2021-11-30,2021-11-30,合同会社Ｂｅｌｌ,,合同会社,神奈川県,川崎市川崎区,東田町３番地１１,,14,131,2100005,,,,,,,2021-11-30,1,,,,,ベル,0
611,3021001074615,新規,0,2021-11-30,2021-11-30,株式会社エコワン,,株式会社,神奈川県,厚木市,旭町１丁目３１番８－４０４号,,14,212,2430014,,,,,,,2021-11-30,1,,,,,エコワン,0
614,3021003011129,新規,0,2021-11-30,2021-11-30,合同会社ｏａｓｉｓ,,合同会社,神奈川県,藤沢市,片瀬海岸３丁目２１番地８～３０２号,,14,205,2510035,,,,,,,2021-11-30,1,,,,,オアシス,0
621,3030001145524,新規,0,2021-11-30,2021-11-30,南彩建装株式会社,,株式会社,埼玉県,草加市,谷塚１丁目１９番７ー５０３号,,11,221,3400028,,,,,,,2021-11-30,1,,,,,ナンサイケンソウ,0
622,3030001145581,新規,0,2021-11-30,2021-11-30,株式会社リバティー,,株式会社,埼玉県,八潮市,大字南後谷８番地１ベルドゥムール２０２号,,11,234,3400831,,,,,,,2021-11-30,1,,,,,リバティー,0
623,3030001145598,新規,0,2021-11-30,2021-11-30,株式会社イシイ機販,,株式会社,埼玉県,川口市,東領家３丁目２１番１４号,,11,203,3320003,,,,,,,2021-11-30,1,,,,,イシイキハン,0
624,3030001145607,新規,0,2021-11-30,2021-11-30,ＳＡＨＡ　ＳＨＯＫＡＩ株式会社,,株式会社,埼玉県,久喜市,南栗橋７丁目８番地１,,11,232,3491117,,,,,,,2021-11-30,1,,,,,サハショウカイ,0
635,3040001121177,新規,0,2021-11-30,2021-11-30,株式会社司プランニング,,株式会社,千葉県,習志野市,新栄２丁目２番５号,,12,216,2750005,,,,,,,2021-11-30,1,,,,,ツカサプランニング,0
636,3040001121185,新規,0,2021-11-30,2021-11-30,株式会社ＴＭパートナーズ,,株式会社,千葉県,市川市,八幡３丁目３番２号ＧＴＴ３６０４号,,12,203,2720021,,,,,,,2021-11-30,1,,,,,ティーエムパートナーズ,0
640,3040003018999,新規,0,2021-11-30,2021-11-30,ＣｕｒｔａｉｎＳｈｏｐ　Ｇｒｅｅｎ合同会社,,合同会社,千葉県,浦安市,入船４丁目１１番２５号,,12,227,2790012,,,,,,,2021-11-30,1,,,,,カーテンショップグリーン,0
651,3060003003883,新規,0,2021-11-30,2021-11-30,合同会社グリッド,,合同会社,栃木県,宇都宮市,平松本町３５３番地１１ドミール平松６０５,,09,201,3210932,,,,,,,2021-11-30,1,,,,,グリッド,0
679,3120001242147,新規,0,2021-11-30,2021-11-30,株式会社ＭＯＣ壱,,株式会社,大阪府,大阪市生野区,巽北３丁目２番２０号,00124992,27,116,5440004,,,,,,,2021-11-30,1,,,,,エムオーシーイチ,0
686,3120103004461,新規,0,2021-11-30,2021-11-30,合同会社２ＲＣ,,合同会社,大阪府,堺市北区,野遠町５６８番地,,27,146,5918013,,,,,,,2021-11-30,1,,,,,セカンドレンタカー,0
704,3140001124005,新規,0,2021-11-30,2021-11-30,Ｐｈａｒｍｉｒａ株式会社,,株式会社,兵庫県,尼崎市,杭瀬寺島２丁目１番３号,,28,202,6600813,,,,,,,2021-11-30,1,,,,,ファーミラ,0
705,3140001124021,新規,0,2021-11-30,2021-11-30,株式会社プロジェクトリンク,,株式会社,兵庫県,西宮市,甲子園口北町１番１－２０３号,,28,204,6638112,,,,,,,2021-11-30,1,,,,,プロジェクトリンク,0
709,3140003017041,新規,0,2021-11-30,2021-11-30,合同会社星月,,合同会社,兵庫県,三田市,けやき台５丁目２５番地１４１,,28,219,6691321,,,,,,,2021-11-30,1,,,,,セイゲツ,0
727,3180301035674,新規,0,2021-11-30,2021-11-30,株式会社ＥＭＥＴＵＡＲＩＯ,,株式会社,愛知県,岡崎市,中村町字西浦３８番地,,23,202,4440215,,,,,,,2021-11-30,1,,,,,エメチュアーリオ,0
738,3200001039460,新規,0,2021-11-30,2021-11-30,ひがくの湯株式会社,,株式会社,岐阜県,高山市,奥飛騨温泉郷中尾４４２番地７８,,21,203,5061422,,,,,,,2021-11-30,1,,,,,ヒガクノユ,0
752,3270001008401,新規,0,2021-11-30,2021-11-30,株式会社スリーブイ,,株式会社,鳥取県,米子市,新開２丁目１番７号,,31,202,6830801,,,,,,,2021-11-30,1,,,,,スリーブイ,0
765,3350003003978,新規,0,2021-11-30,2021-11-30,合同会社ｍｉｃａｔａ,,合同会社,宮崎県,延岡市,伊達町１丁目４２－２,,45,203,8820874,,,,,,,2021-11-30,1,,,,,ミカタ,0
768,3360003011600,新規,0,2021-11-30,2021-11-30,興和合同会社,,合同会社,沖縄県,島尻郡与那原町,字与那原６００－２、１Ｆ,,47,348,9011303,,,,,,,2021-11-30,1,,,,,キョウワ,0
771,3370001047884,新規,0,2021-11-30,2021-11-30,株式会社ＨｉｎａＫａｌｅ,,株式会社,宮城県,石巻市,泉町３丁目４番２９－１号,,04,202,9860832,,,,,,,2021-11-30,1,,,,,ヒナカレ,0
774,3390001016689,新規,0,2021-11-30,2021-11-30,株式会社ユアスマイルエステート,,株式会社,山形県,山形市,旅篭町３丁目５番４号,,06,201,9900047,,,,,,,2021-11-30,1,,,,,ユアスマイルエステート,0
784,3430001085465,新規,0,2021-11-30,2021-11-30,株式会社北海道リビルト,,株式会社,北海道,滝川市,西町６丁目６番３０号,,01,225,0730044,,,,,,,2021-11-30,1,,,,,ホッカイドウリビルト,0
786,3430003013408,新規,0,2021-11-30,2021-11-30,ボディリペア３３０合同会社,,合同会社,北海道,札幌市白石区,東米里２１２４－２４９,,01,104,0030876,,,,,,,2021-11-30,1,,,,,ボディリペアミサワ,0
787,3440001008986,新規,0,2021-11-30,2021-11-30,株式会社ヒダホールディングス,,株式会社,北海道,函館市,西桔梗町５８７番地の１８,,01,202,0410824,,,,,,,2021-11-30,1,,,,,ヒダホールディングス,0
793,3480003001762,新規,0,2021-11-30,2021-11-30,ＭＳ不動産合同会社,,合同会社,徳島県,徳島市,中洲町１丁目５９番地サーパス徳島中央公園南１４０３号室,,36,201,7700856,,,,,,,2021-11-30,1,,,,,エムエスフドウサン,0
807,4010001222803,新規,0,2021-11-30,2021-11-30,ＴＩＧＨＴＡＮＧＯＯＤ株式会社,,株式会社,東京都,中央区,銀座１丁目２２番１１号銀座大竹ビジデンス２階,,13,102,1040061,,,,,,,2021-11-30,1,,,,,タイタングッド,0
808,4010001222869,新規,0,2021-11-30,2021-11-30,株式会社４７０,,株式会社,東京都,千代田区,神田東松下町３７番地２,,13,101,1010042,,,,,,,2021-11-30,1,,,,,ヨンナナゼロ,0
809,4010001222885,新規,0,2021-11-30,2021-11-30,株式会社創陽社,,株式会社,東京都,中央区,東日本橋２丁目２８番４号日本橋ＣＥＴビル２階,,13,102,1030004,,,,,,,2021-11-30,1,,,,,ソウヨウシャ,0
821,4010401164075,新規,0,2021-11-30,2021-11-30,株式会社ＹＯＲＩＳＹＡ,,株式会社,東京都,港区,浜松町２丁目２番１５号浜松町ダイヤビル２階,,13,103,1050013,,,,,,,2021-11-30,1,,,,,ヨリシャ,0
822,4010403026513,新規,0,2021-11-30,2021-11-30,ファイズ合同会社,,合同会社,東京都,港区,六本木４丁目１番２号メイフラワーハウス１０６,,13,103,1060032,,,,,,,2021-11-30,1,,,,,ファイズ,0
826,4010701041858,新規,0,2021-11-30,2021-11-30,ビジョンモア株式会社,,株式会社,東京都,品川区,西五反田２丁目７－９クワハラビル２階,,13,109,1410031,,,,,,,2021-11-30,1,,,,,ビジョンモア,0
848,4011401023873,新規,0,2021-11-30,2021-11-30,株式会社コレクション,,株式会社,東京都,板橋区,常盤台３丁目２２番８号グリフィン常盤台２０６,,13,119,1740071,,,,,,,2021-11-30,1,,,,,コレクション,0
853,4011601025562,新規,0,2021-11-30,2021-11-30,鯉仲幸商事株式会社,,株式会社,東京都,練馬区,栄町８番２号１０２号室,,13,120,1760006,,,,,,,2021-11-30,1,,,,,コイナカコウショウジ,0
855,4011703003004,新規,0,2021-11-30,2021-11-30,スタッカァ合同会社,,合同会社,東京都,江戸川区,臨海町２丁目２番８－１２０９号,,13,123,1340086,,,,,,,2021-11-30,1,,,,,スタッカァ,0
868,4020001144105,新規,0,2021-11-30,2021-11-30,株式会社フレール,,株式会社,神奈川県,川崎市麻生区,多摩美１丁目２８－８,,14,137,2150002,,,,,,,2021-11-30,1,,,,,フレール,0
877,4021001074597,新規,0,2021-11-30,2021-11-30,株式会社Ｇ・ｒ,,株式会社,神奈川県,藤沢市,大庭５０６１番地の２湘南ライフタウンショッピングセンター２Ｆ,,14,205,2510861,,,,,,,2021-11-30,1,,,,,ジーアール,0
879,4021003011136,新規,0,2021-11-30,2021-11-30,合同会社クロスロード,,合同会社,神奈川県,中郡大磯町,国府新宿１４７－８,,14,341,2590112,,,,,,,2021-11-30,1,,,,,クロスワード,0
884,4030001145498,新規,0,2021-11-30,2021-11-30,株式会社ＧＡＺＩＬＬＩＯＮ,,株式会社,埼玉県,飯能市,大字中山６５４番地４,,11,209,3570006,,,,,,,2021-11-30,1,,,,,ガジリオン,0
885,4030001145564,新規,0,2021-11-30,2021-11-30,株式会社Ｗコーポレーション,,株式会社,埼玉県,さいたま市岩槻区,美幸町２番４号メゾン小林１０２,,11,110,3390063,,,,,,,2021-11-30,1,,,,,ダブルコーポレーション,0
886,4030001145597,新規,0,2021-11-30,2021-11-30,株式会社ＤＡＲＩＡ,,株式会社,埼玉県,草加市,金明町９９７番地１クイーンズハイツ金明１０２号,,11,221,3400052,,,,,,,2021-11-30,1,,,,,ダリア,0
907,4040001121184,新規,0,2021-11-30,2021-11-30,株式会社クリーン興業,,株式会社,千葉県,市原市,犬成１０４５番地３,,12,219,2900166,,,,,,,2021-11-30,1,,,,,クリーンコウギョウ,0
911,4040003018932,新規,0,2021-11-30,2021-11-30,合同会社ＭＡＮＡＭＩ　Ｉｎｔｅｒｎａｔｉｏｎａｌ,,合同会社,千葉県,野田市,山崎１７５３－１－１０３号,,12,208,2780022,,,,,,,2021-11-30,1,,,,,マナミインターナショナル,0
912,4040003019006,新規,0,2021-11-30,2021-11-30,合同会社ＢＶＲ,,合同会社,千葉県,夷隅郡御宿町,新町６０８番地,,12,443,2995103,,,,,,,2021-11-30,1,,,,,ビーブイアール,0
913,4040003019014,新規,0,2021-11-30,2021-11-30,合同会社グランディ,,合同会社,千葉県,市川市,須和田１丁目２８番１６号,,12,203,2720825,,,,,,,2021-11-30,1,,,,,グランディ,0
920,4070003004310,新規,0,2021-11-30,2021-11-30,合同会社ＨＴＨグループ,,合同会社,群馬県,高崎市,剣崎町４０２－１,,10,202,3700883,,,,,,,2021-11-30,1,,,,,エイチティーエイチグループ,0
935,4110001036227,新規,0,2021-11-30,2021-11-30,株式会社ドリームアシスト新潟,,株式会社,新潟県,燕市,井土巻２丁目２１８番地２,,15,213,9591232,,,,,,,2021-11-30,1,,,,,ドリームアシストニイガタ,0
945,4120001242162,新規,0,2021-11-30,2021-11-30,毎日タクシー株式会社,,株式会社,大阪府,大阪市淀川区,新高５丁目４番４号,,27,123,5320033,,,,,,,2021-11-30,1,,,,,マイニチタクシー,0
949,4120003020681,新規,0,2021-11-30,2021-11-30,合同会社ＡＢＣマーケット,,合同会社,大阪府,大阪市東淀川区,東中島１丁目２０－１２ユニゾーン新大阪６１７号室,,27,114,5330033,,,,,,,2021-11-30,1,,,,,エービーシーマーケット,0
951,4120101064713,新規,0,2021-11-30,2021-11-30,カルンパニ・ノンノ株式会社,,株式会社,大阪府,堺市中区,深井北町１５４４番地９、２号棟２４３号室,,27,142,5998271,,,,,,,2021-11-30,1,,,,,カルンパニノンノ,0
957,4130001070595,新規,0,2021-11-30,2021-11-30,株式会社ＫＲＴ,,株式会社,京都府,亀岡市,千代川町小林北ン田１４番地１１,,26,206,6210043,,,,,,,2021-11-30,1,,,,,ケイアールティー,0
958,4130001070620,新規,0,2021-11-30,2021-11-30,Ｅｔｈｒｅｅ株式会社,,株式会社,京都府,久世郡久御山町,森村東４０５番１,,26,322,6130024,,,,,,,2021-11-30,1,,,,,イースリー,0
959,4130003007604,新規,0,2021-11-30,2021-11-30,合同会社ＡＰＨＲＯＤＩＴＥ,,合同会社,京都府,八幡市,八幡安居塚８１番１号,00124990,26,210,6148057,,,,,,,2021-11-30,1,,,,,アフロディーテ,0
996,4240001058984,新規,0,2021-11-30,2021-11-30,志建株式会社,,株式会社,広島県,福山市,野上町２丁目１６番１７号,,34,207,7200815,,,,,,,2021-11-30,1,,,,,シケン,0
1002,4270001008400,新規,0,2021-11-30,2021-11-30,株式会社ブルーホワイト・ファーム,,株式会社,鳥取県,境港市,湊町６２番地１,,31,204,6840031,,,,,,,2021-11-30,1,,,,,ブルーホワイトファーム,0
1017,4290805009492,新規,0,2021-11-30,2021-11-30,特定非営利活動法人さんぽ,,その他の設立登記法人,福岡県,北九州市八幡東区,春の町２丁目９番３０号,,40,108,8050050,,,,,,,2021-11-30,1,,,,,サンポ,0
1021,4300003001754,新規,0,2021-11-30,2021-11-30,合同会社ニシムラ,,合同会社,佐賀県,唐津市,十人町１３４番地１,,41,202,8470067,,,,,,,2021-11-30,1,,,,,ニシムラ,0
1027,4330001029225,新規,0,2021-11-30,2021-11-30,株式会社杏建,,株式会社,熊本県,熊本市北区,麻生田３丁目５番３号,,43,105,8618081,,,,,,,2021-11-30,1,,,,,アンケン,0
1035,4360003011574,新規,0,2021-11-30,2021-11-30,Ｓｕｇａｂａｒａ合同会社,,合同会社,沖縄県,石垣市,字大川２７８番地,,47,207,9070022,,,,,,,2021-11-30,1,,,,,スガバラ,0
1037,4370001047875,新規,0,2021-11-30,2021-11-30,ＡＵＴＯ　ＭＯＴＩＶＥ　ＴＲＡＤＥＲＳ株式会社,,株式会社,宮城県,大崎市,岩出山字浦小路１６,,04,215,9896435,,,,,,,2021-11-30,1,,,,,オートモーティブトレイダーズ,0
1040,4390001016688,新規,0,2021-11-30,2021-11-30,株式会社ワンデンタル,,株式会社,山形県,山形市,旅篭町３丁目５番４号,,06,201,9900047,,,,,,,2021-11-30,1,,,,,ワンデンタル,0
1054,4440001008985,新規,0,2021-11-30,2021-11-30,株式会社ＡＮＤ　ＦＵＮ,,株式会社,北海道,函館市,宝来町８番１２－３０１号,,01,202,0400043,,,,,,,2021-11-30,1,,,,,アンドファン,0
1057,4480003001761,新規,0,2021-11-30,2021-11-30,合同会社ｏａｓｏｂｉ,,合同会社,徳島県,徳島市,新浜町２丁目３番４０号,,36,201,7708006,,,,,,,2021-11-30,1,,,,,,0
1061,4500003002724,新規,0,2021-11-30,2021-11-30,幸福合同会社,,合同会社,愛媛県,松山市,平和通２丁目３番地１,,38,201,7900807,,,,,,,2021-11-30,1,,,,,コウフク,0
1067,4700150106035,新規,0,2021-11-30,2021-11-30,ＹａｍａｓｈｉｒｏＩｎｔｅｒｎａｔｉｏｎａｌ日本駐在員事務所,,外国会社等,兵庫県,神戸市中央区,琴ノ緒町２丁目３－５－４０８,,28,110,6510094,Ｂｏｇａｈａｍｕｌｌａ　Ｗａｔｔａ，Ｎｅｇｏｍｂｏ　Ｒｏａｄ，Ｕｈｕｍｅｅｙａ,,,,,,2021-11-30,1,,,,,ヤマシロインターナシヨナルニホンチユウザイインジムシヨ,0
1072,5010003036382,新規,0,2021-11-30,2021-11-30,ＲＢソーラースペード合同会社,,合同会社,東京都,中央区,八丁堀４丁目２番１０号ＡＯＪ税理士法人内,,13,102,1040032,,,,,,,2021-11-30,1,,,,,アールビーソーラースペード,0
1084,5010403026611,新規,0,2021-11-30,2021-11-30,ＳＴＲＡＹ　ＦＯＲＣＥ合同会社,,合同会社,東京都,港区,三田２丁目１４番７号,,13,103,1080073,,,,,,,2021-11-30,1,,,,,ストレイフォース,0
1086,5010503006439,新規,0,2021-11-30,2021-11-30,Ｖｏｌａｔｅｄｇｅ合同会社,,合同会社,東京都,台東区,台東３丁目２４番８号イソエム竹町Ｒ１,,13,106,1100016,,,,,,,2021-11-30,1,,,,,ボラテッジ,0
1109,5011001144227,新規,0,2021-11-30,2021-11-30,株式会社ＳＡＫＵＲＡプラニング,,株式会社,東京都,渋谷区,渋谷１丁目１番１６号,,13,113,1500002,,,,,,,2021-11-30,1,,,,,,0
1110,5011001144243,新規,0,2021-11-30,2021-11-30,いちアート株式会社,,株式会社,東京都,渋谷区,南平台町６番４号ザ・ウエストミンスター南平台４０４,,13,113,1500036,,,,,,,2021-11-30,1,,,,,イチアート,0
1111,5011001144251,新規,0,2021-11-30,2021-11-30,Ｕｃｃｉ株式会社,,株式会社,東京都,目黒区,鷹番３丁目３－１３学芸ビル２階,,13,110,1520004,,,,,,,2021-11-30,1,,,,,ウッチ,0
1112,5011001144301,新規,0,2021-11-30,2021-11-30,株式会社ＯＺ,,株式会社,東京都,渋谷区,恵比寿１丁目２４番１６号カルチェ恵比寿３０４号室,,13,113,1500013,,,,,,,2021-11-30,1,,,,,オズ,0
1115,5011005009319,新規,0,2021-11-30,2021-11-30,一般社団法人ＳＨＣ天戸台,,その他の設立登記法人,東京都,目黒区,洗足２丁目１６番１９号,,13,110,1520012,,,,,,,2021-11-30,1,,,,,エスエイチシーアマドダイ,0
1122,5011501027518,新規,0,2021-11-30,2021-11-30,福泉株式会社,,株式会社,東京都,荒川区,南千住１丁目１５－６－１０１,,13,118,1160003,,,,,,,2021-11-30,1,,,,,フクセン,0
1140,5013301048347,新規,0,2021-11-30,2021-11-30,株式会社ＬＣＫ,,株式会社,東京都,豊島区,南大塚２丁目１１－１０ミモザビル３Ｆ,,13,116,1700005,,,,,,,2021-11-30,1,,,,,エルシーケー,0
1151,5020001144046,新規,0,2021-11-30,2021-11-30,株式会社シルメディア,,株式会社,神奈川県,横浜市西区,北幸１丁目１１番１号水信ビル７階,,14,103,2200004,,,,,,,2021-11-30,1,,,,,シルメディア,0
1152,5020001144095,新規,0,2021-11-30,2021-11-30,株式会社ペン,,株式会社,神奈川県,横浜市鶴見区,東寺尾１丁目１１番１６号,,14,101,2300077,,,,,,,2021-11-30,1,,,,,ペン,0
1154,5020003020897,新規,0,2021-11-30,2021-11-30,合同会社ＹＳアセット,,合同会社,神奈川県,横浜市港北区,日吉５丁目７番１７－２号,,14,109,2230061,,,,,,,2021-11-30,1,,,,,イースアセット,0
1173,5030001145596,新規,0,2021-11-30,2021-11-30,株式会社海音の里,,株式会社,埼玉県,川越市,脇田町２３番地５ライフシティ３１０,,11,201,3501122,,,,,,,2021-11-30,1,,,,,アマネノサト,0
1178,5030003018395,新規,0,2021-11-30,2021-11-30,合同会社ＢＩＧ＆ＭａＭＡ,,合同会社,埼玉県,越谷市,大字下間久里４９８－３０,,11,222,3430045,,,,,,,2021-11-30,1,,,,,ビックアンドママ,0
1179,5030003018404,新規,0,2021-11-30,2021-11-30,合同会社タムラ,,合同会社,埼玉県,川口市,東川口５丁目７番２１号,,11,203,3330801,,,,,,,2021-11-30,1,,,,,タムラ,0
1187,5040001121159,新規,0,2021-11-30,2021-11-30,順達株式会社,,株式会社,千葉県,八街市,八街に２４３番地５,,12,230,2891103,,,,,,,2021-11-30,1,,,,,ジュンタツ,0
1206,5080401025492,新規,0,2021-11-30,2021-11-30,株式会社ＣＥＤＡＲ　ＤＥＮＴＡＬ,,株式会社,静岡県,磐田市,福田中島１６９番地の１,,22,211,4371204,,,,,,,2021-11-30,1,,,,,シーダーデンタル,0
1209,5120001242161,新規,0,2021-11-30,2021-11-30,ＬＬ株式会社,,株式会社,大阪府,大阪市北区,扇町２丁目６番１７－１６０３号,,27,127,5300025,,,,,,,2021-11-30,1,,,,,エルエル,0
1216,5120003020680,新規,0,2021-11-30,2021-11-30,合同会社ワイズゲート,,合同会社,大阪府,大阪市中央区,東心斎橋１丁目４－１オリエンタル東心斎橋６階７０７Ａ,,27,128,5420083,,,,,,,2021-11-30,1,,,,,ワイズゲート,0
1220,5120101064712,新規,0,2021-11-30,2021-11-30,山本農園株式会社,,株式会社,大阪府,堺市北区,南花田町５２０－６,,27,146,5918011,,,,,,,2021-11-30,1,,,,,ヤマモトノウエン,0
1231,5140001124011,新規,0,2021-11-30,2021-11-30,株式会社ＲＯＵＮＤ　ＳＴＯＮＥ,,株式会社,兵庫県,神戸市西区,森友５丁目１０３番地,,28,111,6512132,,,,,,,2021-11-30,1,,,,,ラウンドストーン,0
1234,5150003002552,新規,0,2021-11-30,2021-11-30,合同会社スワン,,合同会社,奈良県,生駒郡三郷町,立野南２丁目１０番７号６０５号室,,29,343,6360822,,,,,,,2021-11-30,1,,,,,スワン,0
1246,5180005019526,新規,0,2021-11-30,2021-11-30,特定非営利活動法人あいちスポーツ障害予防協会,,その他の設立登記法人,愛知県,名古屋市瑞穂区,瑞穂町字川澄１名古屋市立大学医学部整形外科医局内,,23,108,4670001,,,,,,,2021-11-30,1,,,,,アイチスポーツショウガイヨボウキョウカイ,0
1257,5240003005389,新規,0,2021-11-30,2021-11-30,ラピスラズリ合同会社,,合同会社,広島県,広島市中区,宝町１０－８－４０２,,34,101,7300044,,,,,,,2021-11-30,1,,,,,ラピスラズリ,0
1264,5260005010996,新規,0,2021-11-30,2021-11-30,特定非営利活動法人あいきっず,,その他の設立登記法人,岡山県,岡山市南区,箕島２７６番地１フローラル箕島２０７号室,,33,104,7010206,,,,,,,2021-11-30,1,,,,,アイキッズ,0
1268,5290001095543,新規,0,2021-11-30,2021-11-30,株式会社Ｗ．Ｍ．Ｆ,,株式会社,福岡県,福岡市博多区,東月隈３丁目２２－５,,40,132,8120854,,,,,,,2021-11-30,1,,,,,ダブリューエムエフ,0
1269,5290001095576,新規,0,2021-11-30,2021-11-30,株式会社ＲＥＣ,,株式会社,福岡県,福岡市早良区,昭代２丁目９－２７,,40,137,8140012,,,,,,,2021-11-30,1,,,,,レック,0
1270,5290001095584,新規,0,2021-11-30,2021-11-30,大昌株式会社,,株式会社,福岡県,飯塚市,多田１０３番地６号,,40,205,8200116,,,,,,,2021-11-30,1,,,,,ダイショウ,0
1290,5340003003639,新規,0,2021-11-30,2021-11-30,合同会社善力,,合同会社,鹿児島県,伊佐市,大口目丸１５５番地１,,46,224,8952505,,,,,,,2021-11-30,1,,,,,ゼンリキ,0
1295,5370001047882,新規,0,2021-11-30,2021-11-30,株式会社スターライン,,株式会社,宮城県,仙台市宮城野区,枡江６－２２,,04,102,9830837,,,,,,,2021-11-30,1,,,,,スターライン,0
1306,5430003013406,新規,0,2021-11-30,2021-11-30,合同会社イッシン,,合同会社,北海道,札幌市中央区,北三条東１１丁目３３８番地プレミストタワーズ札幌苗穂アクアゲートＡ－３０７,,01,101,0600033,,,,,,,2021-11-30,1,,,,,イッシン,0
1310,5462501000915,新規,0,2021-11-30,2021-11-30,中岡ファーム株式会社,,株式会社,北海道,野付郡別海町,中西別１９７番地の２０,,01,691,0860345,,,,,,,2021-11-30,1,,,,,ナカオカファーム,0
1313,5700150106034,新規,0,2021-11-30,2021-11-30,ＣＡＰＴＡＩＮ　ＷＩＮ　ＬＩＭＩＴＥＤ,,外国会社等,東京都,港区,六本木６丁目１６番１１ザ・ウェストミンスター六本木５０７,,13,103,1060032,Ｏｆｆｓｈｏｒｅ　Ｃｈａｍｂｅｒｓ，Ｐ．Ｏ．Ｂｏｘ２１７，Ａｐｉａ，Ｓａｍｏａ,,,,,,2021-11-30,1,,,,,キヤプテンウインリミテツド,0
1319,6010001222826,新規,0,2021-11-30,2021-11-30,株式会社住宅ローンデスク,,株式会社,東京都,中央区,日本橋３丁目３番５号,,13,102,1030027,,,,,,,2021-11-30,1,,,,,ジュウタクローンデスク,0
1321,6010003036381,新規,0,2021-11-30,2021-11-30,ＲＢソーラーハート合同会社,,合同会社,東京都,中央区,八丁堀４丁目２番１０号ＡＯＪ税理士法人内,,13,102,1040032,,,,,,,2021-11-30,1,,,,,アールビーソーラーハート,0
1327,6010401164115,新規,0,2021-11-30,2021-11-30,株式会社３ＫＡＫＵ　ＴＯＫＹＯ,,株式会社,東京都,港区,南青山２丁目２番１５号ウィン青山９４２,,13,103,1070062,,,,,,,2021-11-30,1,,,,,サンカクトウキョウ,0
1336,6010701041848,新規,0,2021-11-30,2021-11-30,株式会社ＩＰＰＯ,,株式会社,東京都,品川区,東五反田１丁目１０番７号ＡＩＯＳ五反田ビル６１１,,13,109,1410022,,,,,,,2021-11-30,1,,,,,イッポ,0
1338,6010703006015,新規,0,2021-11-30,2021-11-30,合同会社エヌ・アール,,合同会社,東京都,品川区,上大崎３丁目１１番２号,,13,109,1410021,,,,,,,2021-11-30,1,,,,,エヌアール,0
1347,6011001144242,新規,0,2021-11-30,2021-11-30,株式会社ミスコチャ,,株式会社,東京都,渋谷区,代官山町１７－１－２１０９,,13,113,1500034,,,,,,,2021-11-30,1,,,,,ミスコチャ,0
1348,6011001144250,新規,0,2021-11-30,2021-11-30,株式会社アヴァンテ,,株式会社,東京都,渋谷区,渋谷２丁目１番７号３０４,,13,113,1500002,,,,,,,2021-11-30,1,,,,,アヴァンテ,0
1349,6011001144283,新規,0,2021-11-30,2021-11-30,株式会社ＤＩＧＳＴＡＲ,,株式会社,東京都,渋谷区,宇田川町３番７号,,13,113,1500042,,,,,,,2021-11-30,1,,,,,ディグスター,0
1350,6011003013783,新規,0,2021-11-30,2021-11-30,Ｇｅｍ．合同会社,,合同会社,東京都,渋谷区,恵比寿２丁目３６―７―３０６,,13,113,1500013,,,,,,,2021-11-30,1,,,,,ジェム,0
1351,6011005009318,新規,0,2021-11-30,2021-11-30,一般社団法人ＳＨＴ天戸町,,その他の設立登記法人,東京都,目黒区,洗足２丁目１６番１９号,,13,110,1520012,,,,,,,2021-11-30,1,,,,,エスエイチティーアマドチョウ,0
1358,6011201023452,新規,0,2021-11-30,2021-11-30,株式会社ＳＵＮＳＴＯＮＥ,,株式会社,東京都,中野区,東中野２丁目２２番１４号,,13,114,1640003,,,,,,,2021-11-30,1,,,,,サンストーン,0
1361,6011301027378,新規,0,2021-11-30,2021-11-30,プラチナム株式会社,,株式会社,東京都,杉並区,高円寺南３丁目５７番１０号,,13,115,1660003,,,,,,,2021-11-30,1,,,,,プラチナム,0
1362,6011303004227,新規,0,2021-11-30,2021-11-30,合同会社Ｔ’ｓ,,合同会社,東京都,杉並区,阿佐谷南１丁目１７番２３号,,13,115,1660004,,,,,,,2021-11-30,1,,,,,ティーズ,0
1368,6011503004992,新規,0,2021-11-30,2021-11-30,合同会社キャンティ,,合同会社,東京都,荒川区,南千住４丁目９番２－５１０号,,13,118,1160003,,,,,,,2021-11-30,1,,,,,キャンティ,0
1380,6012801021234,新規,0,2021-11-30,2021-11-30,株式会社ＭＣＯ,,株式会社,東京都,立川市,一番町４丁目６５番地１０大清ビル１０１,,13,202,1900033,,,,,,,2021-11-30,1,,,,,,0
1385,6013301048346,新規,0,2021-11-30,2021-11-30,株式会社Ｈａ‐ｂｅ,,株式会社,東京都,豊島区,高田３丁目４１番８－３０４号,,13,116,1710033,,,,,,,2021-11-30,1,,,,,ハーベ,0
1386,6013303005923,新規,0,2021-11-30,2021-11-30,合同会社ＹＯＵ,,合同会社,東京都,豊島区,池袋４丁目２７番７号ラクラス池袋３０２,,13,116,1710014,,,,,,,2021-11-30,1,,,,,ユウ,0
1401,6021001074562,新規,0,2021-11-30,2021-11-30,株式会社セキドモータース,,株式会社,神奈川県,相模原市緑区,長竹４３９－８,,14,151,2520154,,,,,,,2021-11-30,1,,,,,セキドモータース,0
1405,6021003011134,新規,0,2021-11-30,2021-11-30,リーハイ商事合同会社,,合同会社,神奈川県,茅ヶ崎市,南湖６丁目１３番２９号,,14,207,2530061,,,,,,,2021-11-30,1,,,,,リーハイショウジ,0
1413,6030001145554,新規,0,2021-11-30,2021-11-30,株式会社みらい,,株式会社,埼玉県,さいたま市見沼区,染谷３丁目１０４番地５,,11,104,3370026,,,,,,,2021-11-30,1,,,,,ミライ,0
1414,6030001145595,新規,0,2021-11-30,2021-11-30,楽享株式会社,,株式会社,埼玉県,川口市,中青木３丁目２１番１３－１１号,,11,203,3320032,,,,,,,2021-11-30,1,,,,,ラクキョウ,0
1415,6030001145604,新規,0,2021-11-30,2021-11-30,株式会社ＨＡＩＳＨＩＮ,,株式会社,埼玉県,さいたま市南区,内谷３丁目１７番５－１０１号,,11,108,3360034,,,,,,,2021-11-30,1,,,,,ハイシン,0
1420,6030003018403,新規,0,2021-11-30,2021-11-30,濱野サービス合同会社,,合同会社,埼玉県,越谷市,西方１丁目３３９６番地１,,11,222,3430822,,,,,,,2021-11-30,1,,,,,,0
1430,6040001121158,新規,0,2021-11-30,2021-11-30,株式会社ティーエムホールディングス,,株式会社,千葉県,八街市,榎戸４０６番地１３,,12,230,2891106,,,,,,,2021-11-30,1,,,,,ティーエムホールディングス,0
1431,6040001121190,新規,0,2021-11-30,2021-11-30,株式会社Ｆｒｅｅｆｅ,,株式会社,千葉県,市原市,五井東１丁目１８番地７パークハイツ更級２号,,12,219,2900055,,,,,,,2021-11-30,1,,,,,フリーフ,0
1432,6040003019020,新規,0,2021-11-30,2021-11-30,合同会社Ｒ＆Ｃサービス,,合同会社,千葉県,長生郡長柄町,鴇谷６６５番地７,,12,426,2970215,,,,,,,2021-11-30,1,,,,,アールアンドシーサービス,0
1436,6060001034309,新規,0,2021-11-30,2021-11-30,株式会社山根電設,,株式会社,栃木県,宇都宮市,瑞穂２丁目１４番地１２,,09,201,3210921,,,,,,,2021-11-30,1,,,,,ヤマネデンセツ,0
1487,6140003017022,新規,0,2021-11-30,2021-11-30,ｅｌｅｖｅｒ　ｌａｂｏ合同会社,,合同会社,兵庫県,姫路市,山畑新田６９２番地６,,28,201,6700036,,,,,,,2021-11-30,1,,,,,エルヴェラボ,0
1488,6140003017039,新規,0,2021-11-30,2021-11-30,合同会社田,,合同会社,兵庫県,三田市,けやき台５丁目２５番地１４０,,28,219,6691321,,,,,,,2021-11-30,1,,,,,デン,0
1490,6140005025898,新規,0,2021-11-30,2021-11-30,一般社団法人マナベＪＡＰＡＮ,,その他の設立登記法人,兵庫県,姫路市,魚町２９番地,,28,201,6700905,,,,,,,2021-11-30,1,,,,,マナベジャパン,0
1493,6160001023838,新規,0,2021-11-30,2021-11-30,株式会社リノセンス,,株式会社,滋賀県,栗東市,大橋１丁目１０番３０号,,25,208,5203046,,,,,,,2021-11-30,1,,,,,リノセンス,0
1497,6180005019533,新規,0,2021-11-30,2021-11-30,特定非営利活動法人Ｚｅｎ,,その他の設立登記法人,愛知県,小牧市,中央６丁目２７２番地,,23,219,4850029,,,,,,,2021-11-30,1,,,,,ゼン,0
1501,6190003003835,新規,0,2021-11-30,2021-11-30,Ｃｈｕｎｇｘｕａｎ合同会社,,合同会社,三重県,四日市市,富田栄町２４‐１連棟店舗Ｈ南側,,24,202,5108025,,,,,,,2021-11-30,1,,,,,チュンスン,0
1505,6200001039466,新規,0,2021-11-30,2021-11-30,株式会社スタジオｈｉｙｏｒｉ,,株式会社,岐阜県,岐阜市,湊町２９番地,,21,201,5008009,,,,,,,2021-11-30,1,,,,,スタジオヒヨリ,0
1509,6220001024565,新規,0,2021-11-30,2021-11-30,株式会社中西産業,,株式会社,石川県,小松市,大島町子９９番地,,17,203,9230001,,,,,,,2021-11-30,1,,,,,ナカニシサンギョウ,0
1510,6220003003154,新規,0,2021-11-30,2021-11-30,合同会社笑海ノ凰,,合同会社,石川県,輪島市,門前町荒屋ワの２１番地の４,,17,204,9272123,,,,,,,2021-11-30,1,,,,,エミノオウ,0
1525,6290003011869,新規,0,2021-11-30,2021-11-30,合同会社パール,,合同会社,福岡県,糟屋郡須惠町,大字佐谷５８２－１,,40,344,8112115,,,,,,,2021-11-30,1,,,,,パール,0
1537,6360001029690,新規,0,2021-11-30,2021-11-30,株式会社サポートスタッフ沖縄,,株式会社,沖縄県,中頭郡中城村,字南上原１３７番地１－１０３,,47,328,9012424,,,,,,,2021-11-30,1,,,,,サポートスタッフオキナワ,0
1539,6360005006562,新規,0,2021-11-30,2021-11-30,一般社団法人早苗宅建学院,,その他の設立登記法人,沖縄県,那覇市,安謝１丁目４番地２７号バロックモジュール２０２,,47,201,9000003,,,,,,,2021-11-30,1,,,,,サナエタッケンガクイン,0
1549,6380001032379,新規,0,2021-11-30,2021-11-30,株式会社カメテラッセ,,株式会社,福島県,西白河郡矢吹町,北町２７２－２,,07,466,9690211,,,,,,,2021-11-30,1,,,,,カメテラッセ,0
1568,6500001023836,新規,0,2021-11-30,2021-11-30,株式会社Ｓ－１,,株式会社,愛媛県,松山市,保免中１丁目３番４０号,,38,201,7900042,,,,,,,2021-11-30,1,,,,,エスワン,0
1572,6700150104929,新規,0,2021-11-30,2021-09-30,社会教育事業共済会,,その他,東京都,港区,新橋１丁目１－１３アーバンネット内幸町ビル　ＣＲＯＳＳＣＯＯＰ内　全国検定振興機構内,,13,103,1050004,,,,,,,2021-09-30,1,,,,,シヤカイキヨウイクジギヨウキヨウサイカイ,0
1573,6700150106033,新規,0,2021-11-30,2021-11-30,ＮＴＴ　ＤＡＴＡ　Ｖｉｅｔｎａｍ,,外国会社等,,,,,,,,Ｒｏｏｍ２０２，２ｎｄ　Ｆｌｏｏｒ，ＨＩＴＣ　Ｂｕｉｌｄｉｎｇ，Ｎｏ．２３９　Ｘｕａｎ　Ｔｈｕｙ　Ｓｔｒｅｅｔ，Ｃａｕ　Ｇｉａｙ　Ｄｉｓｔｒｉｃｔ，Ｈａｎｏｉ,,,,,,2021-11-30,1,,,,,エヌテイテイデータベトナム,0
1584,7010001222800,新規,0,2021-11-30,2021-11-30,株式会社ＦＵＷＡＲＩ,,株式会社,東京都,千代田区,六番町５番地５,,13,101,1020085,,,,,,,2021-11-30,1,,,,,フワリ,0
1585,7010003036414,新規,0,2021-11-30,2021-11-30,勝どきパートナーズ合同会社,,合同会社,東京都,中央区,銀座１丁目２２番１１号銀座大竹ビジデンス２階,,13,102,1040061,,,,,,,2021-11-30,1,,,,,カチドキパートナーズ,0
1592,7010401164048,新規,0,2021-11-30,2021-11-30,株式会社東京スペースマーケット,,株式会社,東京都,港区,赤坂４丁目１３番５号赤坂オフィスハイツ,,13,103,1070052,,,,,,,2021-11-30,1,,,,,トウキョウスペースマーケット,0
1593,7010401164122,新規,0,2021-11-30,2021-11-30,株式会社Ｒｏｕｔｅ　Ｌｅｓｓ,,株式会社,東京都,港区,六本木３丁目７番１－１２１９号ＴＨＥ・ＲＯＰＰＯＮＧＩ・ＴＯＫＹＯ,,13,103,1060032,,,,,,,2021-11-30,1,,,,,ルートレス,0
1594,7010405020453,新規,0,2021-11-30,2021-11-30,一般社団法人みなと繋がるネットワーク,,その他の設立登記法人,東京都,港区,高輪４丁目２４番３８号,,13,103,1080074,,,,,,,2021-11-30,1,,,,,ミナトツナガルネットワーク,0
1611,7011001144258,新規,0,2021-11-30,2021-11-30,株式会社ＣＯＮＮＥＣＴ,,株式会社,東京都,渋谷区,東３丁目９番６号ラグジュアリーアパートメント恵比寿８０１,,13,113,1500011,,,,,,,2021-11-30,1,,,,,コネクト,0
1620,7011101097059,新規,0,2021-11-30,2021-11-30,株式会社ＮＥＷ－ＤＥｌｉｇｈｔｅｄ,,株式会社,東京都,新宿区,新宿６丁目７番１号,,13,104,1600022,,,,,,,2021-11-30,1,,,,,ニューディライテッド,0
1622,7011103011224,新規,0,2021-11-30,2021-11-30,合同会社ＨＢ,,合同会社,東京都,新宿区,新宿２丁目１２番１１号,,13,104,1600022,,,,,,,2021-11-30,1,,,,,エイチビー,0
1623,7011105010059,新規,0,2021-11-30,2021-11-30,特定非営利活動法人日本客家経済文化研究所,,その他の設立登記法人,東京都,新宿区,四谷坂町１２番１８－２０１号,,13,104,1600002,,,,,,,2021-11-30,1,,,,,ニホンハッカケイザイブンカケンキュウジョ,0
1632,7011501027524,新規,0,2021-11-30,2021-11-30,章峰電装株式会社,,株式会社,東京都,北区,豊島１丁目１０番５号,,13,117,1140003,,,,,,,2021-11-30,1,,,,,ショウホウデンソウ,0
1636,7011503004991,新規,0,2021-11-30,2021-11-30,ｅｘｃｅｌｌｅｎｔｒｅｅ合同会社,,合同会社,東京都,北区,神谷２丁目２０番１２号,,13,117,1150043,,,,,,,2021-11-30,1,,,,,エクセレントゥリー,0
1640,7011601025568,新規,0,2021-11-30,2021-11-30,株式会社Ａｚｕｃａｒ,,株式会社,東京都,練馬区,中村南２丁目２１番１５号,,13,120,1760025,,,,,,,2021-11-30,1,,,,,アスーカル,0
1641,7011603003456,新規,0,2021-11-30,2021-11-30,ＬＩＢＲＥ　ＳＯＬＵＴＩＯＮＳ合同会社,,合同会社,東京都,練馬区,錦１丁目１４番１５－１０１,,13,120,1790082,,,,,,,2021-11-30,1,,,,,リブルソリューションズ,0
1645,7011801040012,新規,0,2021-11-30,2021-11-30,三豊株式会社,,株式会社,東京都,足立区,皿沼２丁目１－１９小林ビル６Ｆ,,13,121,1230862,,,,,,,2021-11-30,1,,,,,サンポウ,0
1658,7013301048345,新規,0,2021-11-30,2021-11-30,株式会社Ａｎｔｒａｃｅ,,株式会社,東京都,豊島区,南池袋１丁目１３番１号,,13,116,1710022,,,,,,,2021-11-30,1,,,,,アントレース,0
1659,7013303005922,新規,0,2021-11-30,2021-11-30,合同会社成円パートナーズ,,合同会社,東京都,豊島区,東池袋５丁目４０番７号ＧＲＡＮＶＡＮ２０１,,13,116,1700013,,,,,,,2021-11-30,1,,,,,セイエンパートナーズ,0
1673,7020001144102,新規,0,2021-11-30,2021-11-30,株式会社ホリホールディングス,,株式会社,神奈川県,横浜市都筑区,佐江戸町６４０番地,,14,118,2240054,,,,,,,2021-11-30,1,,,,,ホリホールディングス,0
1674,7020001144110,新規,0,2021-11-30,2021-11-30,株式会社エートス,,株式会社,神奈川県,川崎市多摩区,生田４丁目２番５号,,14,135,2140038,,,,,,,2021-11-30,1,,,,,エートス,0
1675,7020001144119,新規,0,2021-11-30,2021-11-30,株式会社サイクルー,,株式会社,神奈川県,横浜市港北区,樽町２丁目１２番３８号ＫＳＧマリーンオークラ２０３,,14,109,2220001,,,,,,,2021-11-30,1,,,,,サイクルー,0
1681,7021001074594,新規,0,2021-11-30,2021-11-30,株式会社Ｆｙｈ,,株式会社,神奈川県,藤沢市,石川２丁目１１番地の７ラピスリーオ４０２号室,,14,205,2520815,,,,,,,2021-11-30,1,,,,,エフワイエイチ,0
1685,7021005012360,新規,0,2021-11-30,2021-11-30,一般社団法人ゴールデンアカデミー,,その他の設立登記法人,神奈川県,藤沢市,辻堂１丁目１３番３号,,14,205,2510047,,,,,,,2021-11-30,1,,,,,ゴールデンアカデミー,0
1690,7030001145578,新規,0,2021-11-30,2021-11-30,ＭＡＳＡコンサルティング・コミュニケーションズ株式会社,,株式会社,埼玉県,川越市,大字今福１０１７番地１,,11,201,3501151,,,,,,,2021-11-30,1,,,,,マサコンサルティングコミュニケーションズ,0
1691,7030001145594,新規,0,2021-11-30,2021-11-30,株式会社チビックス,,株式会社,埼玉県,さいたま市浦和区,常盤６丁目７番１６号,,11,107,3300061,,,,,,,2021-11-30,1,,,,,チビックス,0
1694,7030003018402,新規,0,2021-11-30,2021-11-30,合同会社楽楽,,合同会社,埼玉県,川越市,元町２丁目１０番地１３,,11,201,3500062,,,,,,,2021-11-30,1,,,,,ラクラク,0
1696,7030005020637,新規,0,2021-11-30,2021-11-30,一般社団法人北秋津・上安松土地管理組合,,その他の設立登記法人,埼玉県,所沢市,大字北秋津４１８番地の５,,11,208,3590038,,,,,,,2021-11-30,1,,,,,キタアキツカミヤスマツトチカンリクミアイ,0
1702,7040001121157,新規,0,2021-11-30,2021-11-30,株式会社ＬＩＮＫ・ＢＡＮＫ,,株式会社,千葉県,柏市,南増尾６丁目１２番５号,,12,217,2770054,,,,,,,2021-11-30,1,,,,,リンクバンク,0
1703,7040001121181,新規,0,2021-11-30,2021-11-30,株式会社スライヴ,,株式会社,千葉県,市川市,河原１４番２号,,12,203,2720101,,,,,,,2021-11-30,1,,,,,スライヴ,0
1709,7040005021444,新規,0,2021-11-30,2021-11-30,特定非営利活動法人ココプロ,,その他の設立登記法人,千葉県,佐倉市,臼井１７９８番地５,,12,212,2850863,,,,,,,2021-11-30,1,,,,,ココプロ,0
1712,7050003006223,新規,0,2021-11-30,2021-11-30,合同会社波,,合同会社,茨城県,取手市,宮和田５０１番地,,08,217,3001514,,,,,,,2021-11-30,1,,,,,ナミ,0
1716,7060001034316,新規,0,2021-11-30,2021-11-30,ＲｙｏＴｉｍｅ株式会社,,株式会社,栃木県,大田原市,紫塚３丁目２６５３番地１２,,09,210,3240058,,,,,,,2021-11-30,1,,,,,リョウタイム,0
1728,7080101022937,新規,0,2021-11-30,2021-11-30,株式会社トライブ,,株式会社,静岡県,駿東郡清水町,徳倉２４６８番地の６,,22,341,4110917,,,,,,,2021-11-30,1,,,,,トライブ,0
1752,7120903003923,新規,0,2021-11-30,2021-11-30,合同会社アトリエカトー,,合同会社,大阪府,吹田市,吹東町４６番３号,,27,205,5640014,,,,,,,2021-11-30,1,,,,,アトリエカトー,0
1756,7130001070618,新規,0,2021-11-30,2021-11-30,株式会社ＣＨＵＹＯ　ＦＲＩＥＮＤＳ,,株式会社,京都府,京都市北区,小山花ノ木町２６番地,,26,101,6038122,,,,,,,2021-11-30,1,,,,,チュウヨウフレンズ,0
1760,7140001124018,新規,0,2021-11-30,2021-11-30,株式会社Ｍ,,株式会社,兵庫県,宝塚市,中筋５丁目１３－１９,,28,214,6650874,,,,,,,2021-11-30,1,,,,,エム,0
1767,7140003017013,新規,0,2021-11-30,2021-11-30,合同会社ＲＡＦＦＩＮＩＥＲＴ,,合同会社,兵庫県,神戸市須磨区,青葉町４丁目１番地１５号千鳥館８１,,28,107,6540038,,,,,,,2021-11-30,1,,,,,ラフィニート,0
1786,7180005019532,新規,0,2021-11-30,2021-11-30,一般社団法人芸術文化支援機構,,その他の設立登記法人,愛知県,名古屋市中区,栄３丁目７番４号トーシンサクラビル１０階,,23,106,4600008,,,,,,,2021-11-30,1,,,,,ゲイジュツブンカシエンキコウ,0
1795,7190003003834,新規,0,2021-11-30,2021-11-30,合同会社にじいろ,,合同会社,三重県,津市,柳山津興１５３０番地１０,,24,201,5140803,,,,,,,2021-11-30,1,,,,,ニジイロ,0
1799,7200001039457,新規,0,2021-11-30,2021-11-30,株式会社ＲＩＴＡ　ＣＯＲＰＯＲＡＴＩＯＮ,,株式会社,岐阜県,岐阜市,折立木成７０１番地４,,21,201,5011132,,,,,,,2021-11-30,1,,,,,リタコーポレーション,0
1802,7230001019118,新規,0,2021-11-30,2021-11-30,株式会社Ｇ１‐Ａｇｅｎｔ,,株式会社,富山県,富山市,本町４番１２号コーポ本町１９６,,16,201,9300029,,,,,,,2021-11-30,1,,,,,ジーワンエージェント,0
1805,7240003005387,新規,0,2021-11-30,2021-11-30,合同会社ぷろっとＫ,,合同会社,広島県,福山市,新市町宮内１７９３番地１,,34,207,7210000,,,,,,,2021-11-30,1,,,,,プロットケイ,0
1820,7290803003998,新規,0,2021-11-30,2021-11-30,合同会社あがの,,合同会社,福岡県,北九州市若松区,中畑町２０番２２号,,40,103,8080047,,,,,,,2021-11-30,1,,,,,アガノ,0
1833,7400001015685,新規,0,2021-11-30,2021-11-30,株式会社５ｙｅａｒ,,株式会社,岩手県,北上市,上野町１丁目２８番７号,,03,206,0240021,,,,,,,2021-11-30,1,,,,,ファイブイヤー,0
1837,7430001085437,新規,0,2021-11-30,2021-11-30,株式会社虎建,,株式会社,北海道,滝川市,西町４丁目３番４号,,01,225,0730044,,,,,,,2021-11-30,1,,,,,コウケン,0
1839,7430003013404,新規,0,2021-11-30,2021-11-30,合同会社豊平オーチャード,,合同会社,北海道,札幌市南区,南沢二条２丁目５番８号,,01,106,0050822,,,,,,,2021-11-30,1,,,,,トヨヒラオーチャード,0
1841,7450005004317,新規,0,2021-11-30,2021-11-30,一般社団法人花心庭,,その他の設立登記法人,北海道,上川郡東神楽町,１１号南１７番地,,01,453,0711541,,,,,,,2021-11-30,1,,,,,ハコニワ,0
1843,7460401001239,新規,0,2021-11-30,2021-11-30,最適水産株式会社,,株式会社,北海道,根室市,昆布盛１４９番地１２,,01,223,0881784,,,,,,,2021-11-30,1,,,,,サイテキスイサン,0
1848,7500001023835,新規,0,2021-11-30,2021-11-30,株式会社シンセイ,,株式会社,愛媛県,新居浜市,田の上１丁目１８番４０号,,38,205,7920888,,,,,,,2021-11-30,1,,,,,シンセイ,0
1849,7700150106032,新規,0,2021-11-30,2021-11-30,ＹＯＴＥＩ　ＫＡＫＥＩ　ＬＩＭＩＴＥＤ,,外国会社等,北海道,虻田郡倶知安町,字山田１０５－１４,,01,400,0440081,Ｒｏｏｍ１９０２，１９Ｆ　Ｌｅｅ　Ｇａｒｄｅｎ　Ｏｎｅ　３３，Ｈｙｓａｎ　Ａｖｅｎｕｅ　Ｃａｕｓｅｗａｙ　Ｂａｙ　ＨＫ,,,,,,2021-11-30,1,,,,,ヨテイカケイリミテツド,0
1858,8010001222881,新規,0,2021-11-30,2021-11-30,株式会社ＳｕｐｅｒＩＯ,,株式会社,東京都,中央区,銀座６丁目１０－１ギンザシックス１３Ｆ,,13,102,1040061,,,,,,,2021-11-30,1,,,,,スーパーイオ,0
1875,8010401164071,新規,0,2021-11-30,2021-11-30,株式会社ＭＥＬＫ,,株式会社,東京都,港区,虎ノ門５丁目１１番１号オランダヒルズ森タワーＲｏＰ１１０５,,13,103,1050001,,,,,,,2021-11-30,1,,,,,メルク,0
1876,8010401164096,新規,0,2021-11-30,2021-11-30,株式会社レグル,,株式会社,東京都,港区,南青山２丁目２番１５号ＷｉｎＡｏｙａｍａビルＵＣＦ６３５,,13,103,1070062,,,,,,,2021-11-30,1,,,,,レグル,0
1877,8010401164113,新規,0,2021-11-30,2021-11-30,ＷＩＮＡＩＤ株式会社,,株式会社,東京都,港区,南青山２丁目２番１５号,,13,103,1070062,,,,,,,2021-11-30,1,,,,,ウィンエイド,0
1880,8010403026567,新規,0,2021-11-30,2021-11-30,合同会社ＬＵＲＡ　Ｄｅｓｉｇｎ,,合同会社,東京都,港区,南青山２丁目２番１５号ウィン青山９４２,,13,103,1070062,,,,,,,2021-11-30,1,,,,,ルーラデザイン,0
1882,8010405020460,新規,0,2021-11-30,2021-11-30,一般社団法人ファクタリング業専門データバンク,,その他の設立登記法人,東京都,港区,南青山２丁目２番６号ラセーナ南青山７０２号室,,13,103,1070062,,,,,,,2021-11-30,1,,,,,ファクタリングギョウセンモンデータバンク,0
1883,8010501048141,新規,0,2021-11-30,2021-11-30,株式会社梧桐商事,,株式会社,東京都,台東区,松が谷２丁目２８－９－７階,,13,106,1110036,,,,,,,2021-11-30,1,,,,,アオギリショウジ,0
1895,8010903006969,新規,0,2021-11-30,2021-11-30,相続よりそい合同会社,,合同会社,東京都,世田谷区,等々力６丁目２９番９－６０１号,,13,112,1580082,,,,,,,2021-11-30,1,,,,,ソウゾクヨリソイ,0
1908,8011005009324,新規,0,2021-11-30,2021-11-30,一般社団法人グローバルアース東京クラブ,,その他の設立登記法人,東京都,渋谷区,松濤１丁目２８番２号,,13,113,1500046,,,,,,,2021-11-30,1,,,,,グローバルアーストウキョウクラブ,0
1910,8011103011231,新規,0,2021-11-30,2021-11-30,合同会社ＹＧＤ－Ｅ,,合同会社,東京都,新宿区,新宿７丁目２７番９－２００３号,,13,104,1600022,,,,,,,2021-11-30,1,,,,,,0
1911,8011301027376,新規,0,2021-11-30,2021-11-30,株式会社ＴＥＣＨ　ＬＵＣＫ,,株式会社,東京都,杉並区,和田１丁目７１番１６号ドムール・レザン１０３,,13,115,1660012,,,,,,,2021-11-30,1,,,,,テックラック,0
1914,8011501027523,新規,0,2021-11-30,2021-11-30,北商アプライアンス株式会社,,株式会社,東京都,北区,赤羽北２丁目２９番１２号,,13,117,1150052,,,,,,,2021-11-30,1,,,,,ホクショウアプライアンス,0
1935,8013301048344,新規,0,2021-11-30,2021-11-30,梅田通商株式会社,,株式会社,東京都,豊島区,巣鴨１丁目１７番３号子野ビル６０４号室,,13,116,1700002,,,,,,,2021-11-30,1,,,,,ウメダツウショウ,0
1942,8020001144101,新規,0,2021-11-30,2021-11-30,株式会社Ｓｏｃｉａｌ　Ｌｉｎｋｓ,,株式会社,神奈川県,横浜市西区,東ケ丘２６番地６２Ｌｏｇ桜木町ｃｌａｓｓｉｃ６０４号,,14,103,2200033,,,,,,,2021-11-30,1,,,,,ソーシャルリンクス,0
1945,8020003020878,新規,0,2021-11-30,2021-11-30,合同会社ＥｉＴＥＮＡ,,合同会社,神奈川県,横浜市港北区,新横浜３丁目１６－１０,,14,109,2220033,,,,,,,2021-11-30,1,,,,,アイティナ,0
1954,8021003011132,新規,0,2021-11-30,2021-11-30,合同会社Ｍ．Ｍ．Ｃ,,合同会社,神奈川県,茅ヶ崎市,東海岸南１丁目２３番３号パークハウス茅ヶ崎東海岸南２０６,,14,207,2530054,,,,,,,2021-11-30,1,,,,,エムエムシー,0
1963,8030001145593,新規,0,2021-11-30,2021-11-30,株式会社ＭＩＲＡＩ,,株式会社,埼玉県,熊谷市,曙町４丁目４２番地シルキーハイツ１０１号室,,11,202,3600033,,,,,,,2021-11-30,1,,,,,ミライ,0
1964,8030001145602,新規,0,2021-11-30,2021-11-30,株式会社ＳＴＩ,,株式会社,埼玉県,所沢市,けやき台１丁目４９番地の１７,,11,208,3591118,,,,,,,2021-11-30,1,,,,,エスティアイ,0
1968,8030003018401,新規,0,2021-11-30,2021-11-30,オーバーディリバー合同会社,,合同会社,埼玉県,さいたま市大宮区,大成町１丁目２４７－２,,11,103,3300852,,,,,,,2021-11-30,1,,,,,オーバーディリバー,0
1974,8040001121131,新規,0,2021-11-30,2021-11-30,株式会社鉄心工業,,株式会社,千葉県,浦安市,当代島２丁目１番１号,,12,227,2790001,,,,,,,2021-11-30,1,,,,,テッシンコウギョウ,0
1975,8040001121156,新規,0,2021-11-30,2021-11-30,ヤマキメタル株式会社,,株式会社,千葉県,千葉市稲毛区,長沼町２５番地１スマートヴィレッジ稲毛Ｅ棟１０９号,,12,103,2630005,,,,,,,2021-11-30,1,,,,,ヤマキメタル,0
1981,8050001050214,新規,0,2021-11-30,2021-11-30,株式会社ジョイフル,,株式会社,茨城県,日立市,多賀町４丁目１番９号,,08,202,3160003,,,,,,,2021-11-30,1,,,,,ジョイフル,0
1988,8070001021675,新規,0,2021-11-30,2021-11-30,栗原建設株式会社,,株式会社,群馬県,邑楽郡板倉町,大字岩田８６２番地,,10,521,3740133,,,,,,,2021-11-30,1,,,,,クリバラケンセツ,0
1990,8080101022944,新規,0,2021-11-30,2021-11-30,株式会社バイタルコミュニケーション,,株式会社,静岡県,富士市,伝法６５３‐１,,22,210,4170061,,,,,,,2021-11-30,1,,,,,バイタルコミュニケーション,0
1995,8100001034847,新規,0,2021-11-30,2021-11-30,南信ホームズ株式会社,,株式会社,長野県,伊那市,下新田３０００番地３,,20,209,3960013,,,,,,,2021-11-30,1,,,,,ナンシンホームズ,0
1997,8110003004632,新規,0,2021-11-30,2021-11-30,合同会社らふてる,,合同会社,新潟県,新潟市西区,小針６丁目１０番１５号,,15,107,9502022,,,,,,,2021-11-30,1,,,,,ラフテル,0
2019,8140001124009,新規,0,2021-11-30,2021-11-30,株式会社スタイリッシュ,,株式会社,兵庫県,明石市,魚住町清水１１４１番地の６,,28,203,6740074,,,,,,,2021-11-30,1,,,,,スタイリッシュ,0
2046,8200001039464,新規,0,2021-11-30,2021-11-30,株式会社平田和牛農場,,株式会社,岐阜県,高山市,国府町名張１１７１番地,,21,203,5094122,,,,,,,2021-11-30,1,,,,,ヒラタワギュウノウジョウ,0
2051,8230001019117,新規,0,2021-11-30,2021-11-30,ＤＡＩＫＩ　ＮＩＰＰＯＮ株式会社,,株式会社,富山県,射水市,鷲塚２５５番地１,,16,211,9390305,,,,,,,2021-11-30,1,,,,,ダイキニッポン,0
2052,8230003001766,新規,0,2021-11-30,2021-11-30,ファンライズ合同会社,,合同会社,富山県,富山市,町村８３番地１３,,16,201,9300952,,,,,,,2021-11-30,1,,,,,ファンライズ,0
2058,8250003002944,新規,0,2021-11-30,2021-11-30,ｈｉｔｏｍｉ　ｈｏｌｉｓｔｉｃ　ｐｌａｃｅ合同会社,,合同会社,山口県,防府市,開出７番３７号,,35,206,7470052,,,,,,,2021-11-30,1,,,,,ヒトミホリスティックプレイス,0
2065,8290001095391,新規,0,2021-11-30,2021-11-30,株式会社メルズ,,株式会社,福岡県,飯塚市,安恒５３３番地１６,,40,205,8200085,,,,,,,2021-11-30,1,,,,,メルズ,0
2066,8290001095573,新規,0,2021-11-30,2021-11-30,株式会社ｉＥハウス,,株式会社,福岡県,福岡市中央区,薬院３丁目１６番２７号,,40,133,8100022,,,,,,,2021-11-30,1,,,,,アイイーハウス,0
2068,8290003011875,新規,0,2021-11-30,2021-11-30,合同会社Ｔ・Ａ・Ｊソリューションズ,,合同会社,福岡県,福岡市博多区,博多駅前２丁目１９番１７号トーカン博多第５キャステール２１３号,,40,132,8120011,,,,,,,2021-11-30,1,,,,,ティーエージェイソリューションズ,0
2069,8290003011883,新規,0,2021-11-30,2021-11-30,ＡＮＬＩ合同会社,,合同会社,福岡県,福岡市中央区,大名２丁目８番６号,,40,133,8100041,,,,,,,2021-11-30,1,,,,,アンリ,0
2075,8330003009147,新規,0,2021-11-30,2021-11-30,パレジャ合同会社,,合同会社,熊本県,熊本市中央区,下通１丁目９－８銀座ビル５Ｆ,,43,101,8600807,,,,,,,2021-11-30,1,,,,,パレジャ,0
2077,8340003003636,新規,0,2021-11-30,2021-11-30,ＳＲＴプロジェクト合同会社,,合同会社,鹿児島県,鹿児島市,唐湊４丁目１８－１,,46,201,8900081,,,,,,,2021-11-30,1,,,,,エスアールティプロジェクト,0
2078,8340005009375,新規,0,2021-11-30,2021-11-30,一般財団法人さこだ国際奨学金財団,,その他の設立登記法人,鹿児島県,鹿児島市,中央町１９番地４０－６Ｆ,,46,201,8900053,,,,,,,2021-11-30,1,,,,,サコダコクサイショウガクキンザイダン,0
2090,8370003005497,新規,0,2021-11-30,2021-11-30,合同会社南部屋,,合同会社,宮城県,角田市,枝野字南小原４２番地,,04,208,9811504,,,,,,,2021-11-30,1,,,,,ナンブヤ,0
2105,8430003013411,新規,0,2021-11-30,2021-11-30,合同会社スリーアール,,合同会社,北海道,札幌市手稲区,西宮の沢三条１丁目９番１号,,01,109,0060003,,,,,,,2021-11-30,1,,,,,スリーアール,0
2107,8460401001238,新規,0,2021-11-30,2021-11-30,最適発電株式会社,,株式会社,北海道,根室市,昆布盛１４９番地１２,,01,223,0881784,,,,,,,2021-11-30,1,,,,,サイテキハツデン,0
2111,8480001011560,新規,0,2021-11-30,2021-11-30,株式会社ＣＯＮ・ＧＥＮＴＬＥ,,株式会社,徳島県,徳島市,西新浜町１丁目５番３８－１５０９号,,36,201,7708008,,,,,,,2021-11-30,1,,,,,コンジェントル,0
2126,9010001222831,新規,0,2021-11-30,2021-11-30,水川管理株式会社,,株式会社,東京都,文京区,大塚５丁目３３番５号,,13,105,1120012,,,,,,,2021-11-30,1,,,,,ミズカワカンリ,0
2127,9010003036404,新規,0,2021-11-30,2021-11-30,合同会社監査Ｄ＆Ｉコンソーシアム,,合同会社,東京都,千代田区,四番町６番地,,13,101,1020081,,,,,,,2021-11-30,1,,,,,カンサディーアンドアイコンソーシアム,0
2130,9010401164095,新規,0,2021-11-30,2021-11-30,株式会社センチュリオン合併準備１号,,株式会社,東京都,港区,芝公園２丁目１０番１号住友不動産芝園ビル４階,,13,103,1050011,,,,,,,2021-11-30,1,,,,,センチュリオンガッペイジュンビイチゴウ,0
2133,9010403026616,新規,0,2021-11-30,2021-11-30,合同会社ＶＲホールディングス,,合同会社,東京都,港区,南青山１丁目３番１－２２０４号,,13,103,1070062,,,,,,,2021-11-30,1,,,,,ブイアールホールディングス,0
2134,9010501048149,新規,0,2021-11-30,2021-11-30,株式会社グランクリエイティブ,,株式会社,東京都,台東区,上野３丁目１０番１１－８０８号ザ・パークハビオ上野レジデンス,,13,106,1100005,,,,,,,2021-11-30,1,,,,,,0
2142,9010703005996,新規,0,2021-11-30,2021-11-30,Ｙ＆Ｗコンサルティング合同会社,,合同会社,東京都,品川区,東品川５丁目９番１５－４０７号,,13,109,1400002,,,,,,,2021-11-30,1,,,,,ワイアンドダブリューコンサルティング,0
2152,9011003013723,新規,0,2021-11-30,2021-11-30,Ａｉｕｒｏｎ合同会社,,合同会社,東京都,渋谷区,神宮前６丁目２３番４号桑野ビル２階,,13,113,1500001,,,,,,,2021-11-30,1,,,,,アイウロン,0
2153,9011003013780,新規,0,2021-11-30,2021-11-30,合同会社バードマウンテン,,合同会社,東京都,渋谷区,恵比寿４丁目４番２号クレスト恵比寿３０１,,13,113,1500013,,,,,,,2021-11-30,1,,,,,バードマウンテン,0
2154,9011003013797,新規,0,2021-11-30,2021-11-30,合同会社アールユナイテッド,,合同会社,東京都,渋谷区,神宮前６丁目２３番４号桑野ビル２階,,13,113,1500001,,,,,,,2021-11-30,1,,,,,アールユナイテッド,0
2155,9011101097065,新規,0,2021-11-30,2021-11-30,株式会社ＰＩＶＯＴＥ,,株式会社,東京都,新宿区,西新宿３丁目３番１３号西新宿水間ビル６階,,13,104,1600023,,,,,,,2021-11-30,1,,,,,ピヴォーテ,0
2157,9011103011206,新規,0,2021-11-30,2021-11-30,合同会社Ｓｐａｒｋ,,合同会社,東京都,新宿区,西新宿４丁目４－１－３０２,,13,104,1600023,,,,,,,2021-11-30,1,,,,,スパーク,0
2158,9011103011230,新規,0,2021-11-30,2021-11-30,ＩＮＹＯＵ合同会社,,合同会社,東京都,新宿区,新宿１丁目３６番２号新宿第七葉山ビル３階,,13,104,1600022,,,,,,,2021-11-30,1,,,,,インユー,0
2169,9012403005129,新規,0,2021-11-30,2021-11-30,合同会社ＹＲコンサルティング,,合同会社,東京都,調布市,染地３丁目１番地１２３１,,13,208,1820023,,,,,,,2021-11-30,1,,,,,ワイアールコンサルティング,0
2173,9012701016793,新規,0,2021-11-30,2021-11-30,株式会社オハナ,,株式会社,東京都,小平市,小川西町２丁目２７番１号,,13,211,1870035,,,,,,,2021-11-30,1,,,,,オハナ,0
2191,9021001074618,新規,0,2021-11-30,2021-11-30,株式会社Ｙｏｕｒ－Ｓｉｇｎ,,株式会社,神奈川県,厚木市,旭町１丁目２５番１－１３０８号,,14,212,2430014,,,,,,,2021-11-30,1,,,,,ユアサイン,0
2199,9030001145601,新規,0,2021-11-30,2021-11-30,ＳＨ電気株式会社,,株式会社,埼玉県,戸田市,喜沢２丁目１１番地の１２,,11,224,3350013,,,,,,,2021-11-30,1,,,,,エスエイチデンキ,0
2201,9030002125065,新規,0,2021-11-30,2021-11-30,新光電子有限会社,,有限会社,埼玉県,飯能市,大字新光１１２番地,,11,209,3570022,,,,,,,2021-11-30,1,,,,,シンコウデンシ,0
2202,9030003018400,新規,0,2021-11-30,2021-11-30,合同会社バスタブ,,合同会社,埼玉県,さいたま市浦和区,岸町４丁目１１－４－３０５,,11,107,3300064,,,,,,,2021-11-30,1,,,,,バスタブ,0
2205,9040001121147,新規,0,2021-11-30,2021-11-30,チャールズ・ネコスキー株式会社,,株式会社,千葉県,千葉市中央区,富士見２丁目７番９号富士見ビル６０９号,,12,101,2600015,,,,,,,2021-11-30,1,,,,,チャールズネコスキー,0
2206,9040001121171,新規,0,2021-11-30,2021-11-30,株式会社ベンディーズ,,株式会社,千葉県,市原市,市原１４２番地３,,12,219,2900015,,,,,,,2021-11-30,1,,,,,ベンディーズ,0
2207,9040001121188,新規,0,2021-11-30,2021-11-30,株式会社スマートデザイン,,株式会社,千葉県,柏市,若柴１７８番地４,,12,217,2770871,,,,,,,2021-11-30,1,,,,,スマートデザイン,0
2208,9040003018993,新規,0,2021-11-30,2021-11-30,合同会社藤総,,合同会社,千葉県,旭市,鎌数９５７９番地１,,12,215,2892505,,,,,,,2021-11-30,1,,,,,フジソウ,0
2210,9040005021450,新規,0,2021-11-30,2021-11-30,特定非営利活動法人ＲＰＧ,,その他の設立登記法人,千葉県,長生郡長柄町,山之郷４８２番地１３８,,12,426,2970231,,,,,,,2021-11-30,1,,,,,アールピージー,0
2213,9050001050213,新規,0,2021-11-30,2021-11-30,株式会社ＢＭ　ＴＲＡＤＩＮＧ,,株式会社,茨城県,坂東市,借宿４９１番地５,,08,228,3060657,,,,,,,2021-11-30,1,,,,,ビーエムトレーディング,0
2215,9060001034330,新規,0,2021-11-30,2021-11-30,株式会社Ｇｅｎ　Ｓｔａｒｔ,,株式会社,栃木県,大田原市,浅香２丁目３３８０番地１４８,,09,210,3240043,,,,,,,2021-11-30,1,,,,,ゲンスタート,0
2216,9060003003878,新規,0,2021-11-30,2021-11-30,合同会社Ｓｈｉｓｅｉ,,合同会社,栃木県,那須烏山市,小河原３６番地１,,09,215,3210511,,,,,,,2021-11-30,1,,,,,シセイ,0
2224,9080101022935,新規,0,2021-11-30,2021-11-30,株式会社ＳＡＨ,,株式会社,静岡県,裾野市,平松３８９番地,,22,220,4101127,,,,,,,2021-11-30,1,,,,,エスエイエイチ,0
2226,9080403004417,新規,0,2021-11-30,2021-11-30,あらいまち訪問看護ステーション合同会社,,合同会社,静岡県,湖西市,新居町新居２２３－４,,22,221,4310302,,,,,,,2021-11-30,1,,,,,アライマチホウモンカンゴステーション,0
2227,9090001017299,新規,0,2021-11-30,2021-11-30,株式会社ホールディングジャパン,,株式会社,山梨県,南都留郡山中湖村,平野１７８２番地,,19,425,4010502,,,,,,,2021-11-30,1,,,,,ホールディングジャパン,0
2255,9120001242117,新規,0,2021-11-30,2021-11-30,株式会社ＭＫコンサルティング,,株式会社,大阪府,大阪市旭区,高殿２丁目１９番３５－１４０２号,,27,117,5350031,,,,,,,2021-11-30,1,,,,,エムケーコンサルティング,0
2264,9120003020685,新規,0,2021-11-30,2021-11-30,合同会社ｉＤＯＧ,,合同会社,大阪府,大阪市北区,中之島６丁目１－３８ザ・パークハウス中之島タワー１８０３,,27,127,5300005,,,,,,,2021-11-30,1,,,,,アイドッグ,0
2274,9130001070624,新規,0,2021-11-30,2021-11-30,株式会社テール,,株式会社,京都府,京都市伏見区,下鳥羽南六反長町２４番地,,26,109,6128209,,,,,,,2021-11-30,1,,,,,テール,0
2279,9140001124008,新規,0,2021-11-30,2021-11-30,株式会社ＲＹホールディングス,,株式会社,兵庫県,神戸市中央区,浜辺通６丁目１番１－１６１０号,,28,110,6510083,,,,,,,2021-11-30,1,,,,,アールワイホールディイングス,0
2280,9140001124016,新規,0,2021-11-30,2021-11-30,エイチコネクト株式会社,,株式会社,兵庫県,加古川市,加古川町木村７５４番地の１３,,28,210,6750038,,,,,,,2021-11-30,1,,,,,エイチコネクト,0
2281,9140001124024,新規,0,2021-11-30,2021-11-30,株式会社那由他,,株式会社,兵庫県,神戸市長田区,大日丘町１丁目７番２－２１１号,,28,106,6530872,,,,,,,2021-11-30,1,,,,,ナユタ,0
2286,9170003001664,新規,0,2021-11-30,2021-11-30,アリストレジデンス合同会社,,合同会社,和歌山県,有田郡有田川町,大字金屋１３－３,,30,366,6430152,,,,,,,2021-11-30,1,,,,,アリストレジデンス,0
2296,9200001039463,新規,0,2021-11-30,2021-11-30,株式会社エイト,,株式会社,岐阜県,山県市,西深瀬６６６番地２,,21,215,5012112,,,,,,,2021-11-30,1,,,,,エイト,0
2302,9230003001765,新規,0,2021-11-30,2021-11-30,シンシンティー合同会社,,合同会社,富山県,高岡市,大町１４－２８－２０２プレジール眉丈,,16,202,9330916,,,,,,,2021-11-30,1,,,,,シンシンティー,0
2304,9240001058988,新規,0,2021-11-30,2021-11-30,株式会社幸和,,株式会社,広島県,広島市南区,青崎２丁目８番２５号,,34,103,7340053,,,,,,,2021-11-30,1,,,,,コウワ,0
2317,9290001095580,新規,0,2021-11-30,2021-11-30,株式会社岩本建設,,株式会社,福岡県,糟屋郡宇美町,若草１丁目３番８号,,40,341,8112124,,,,,,,2021-11-30,1,,,,,イワモトケンセツ,0
2321,9290003011874,新規,0,2021-11-30,2021-11-30,ＴＯＨＴＯＹ合同会社,,合同会社,福岡県,福岡市中央区,西公園２－２３Ｂｌｕｅｃｒｏｓｓ９０２,,40,133,8100061,,,,,,,2021-11-30,1,,,,,トートイ,0
2325,9310005008569,新規,0,2021-11-30,2021-11-30,特定非営利活動法人Ｎ＆Ｇ,,その他の設立登記法人,長崎県,長崎市,城山町２５番６号,,42,201,8528021,,,,,,,2021-11-30,1,,,,,エヌアンドジー,0
2333,9350001017438,新規,0,2021-11-30,2021-11-30,株式会社葉胡庭,,株式会社,宮崎県,延岡市,構口町２丁目８０５番地,,45,203,8820867,,,,,,,2021-11-30,1,,,,,ハコニワ,0
2342,9370003005496,新規,0,2021-11-30,2021-11-30,合同会社ＴＩＬＡ　ＣＯＲＰＯＲＡＴＩＯＮ,,合同会社,宮城県,仙台市青葉区,五橋２丁目３番１３号,,04,101,9800022,,,,,,,2021-11-30,1,,,,,ティラコーポレーション,0
2353,9390001016691,新規,0,2021-11-30,2021-11-30,株式会社ＮＥＷ　ＷＥＬＬ,,株式会社,山形県,山形市,平清水１丁目３番２０号,,06,201,9902401,,,,,,,2021-11-30,1,,,,,ニューウェル,0
2361,9430003013410,新規,0,2021-11-30,2021-11-30,合同会社ｗａｎｍｏ,,合同会社,北海道,樺戸郡新十津川町,字中央３３４番地１１,,01,432,0731103,,,,,,,2021-11-30,1,,,,,ワンモ,0
2376,9700150106030,新規,0,2021-11-30,2021-11-30,ＮＥＷ　ＡＳＩＡＮ　ＥＮＴＥＲＰＲＩＳＥＳ　ＰＲＩＶＡＴＥ　ＬＩＭＩＴＥＤ,,外国会社等,千葉県,香取郡多古町,出沼１５６－４７－１,,12,347,2892301,スリランカ民主社会主義共和国、キャンディ、アクラナ、クルンドガハエラＮｏ．１５５／Ａ,,,,,,2021-11-30,1,,,,,ニユエシアンエンタープライセスプライベートリミテツド,0
