sequenceNumber,corporateNumber,process,correct,updateDate,changeDate,name,nameImageId,kind,prefectureName,cityName,streetNumber,addressImageId,prefectureCode,cityCode,postCode,addressOutside,addressOutsideImageId,closeDate,closeCause,successorCorporateNumber,changeCause,assignmentDate,latest,enName,enPrefectureName,enCityName,enAddressOutside,furigana,hihyoji
6,1010001220074,新規,0,2021-08-02,2021-08-02,株式会社７３７,,株式会社,東京都,中央区,八重洲１丁目７番４号,,13,102,1030028,,,,,,,2021-08-02,1,,,,,ナナサンナナ,0
10,1010003035438,新規,0,2021-08-02,2021-08-02,ＧＰＤみどり合同会社,,合同会社,東京都,千代田区,一ツ橋２丁目５番５号,,13,101,1010003,,,,,,,2021-08-02,1,,,,,ジーピーディーミドリ,0
11,1010003035454,新規,0,2021-08-02,2021-08-02,プラスＪａｐａｎ企画合同会社,,合同会社,東京都,中央区,新川２丁目２番２号八重洲第２パークビル５階,,13,102,1040033,,,,,,,2021-08-02,1,,,,,プラスジャパンキカク,0
12,1010003035462,新規,0,2021-08-02,2021-08-02,合同会社常若総合サービス,,合同会社,東京都,中央区,銀座１丁目２２番１１号銀座大竹ビジデンス２階,,13,102,1040061,,,,,,,2021-08-02,1,,,,,トコワカソウゴウサービス,0
16,1010401161785,新規,0,2021-08-02,2021-08-02,株式会社ＴＲＡＩＬホールディングス,,株式会社,東京都,港区,芝公園２丁目１１番１１号,,13,103,1050011,,,,,,,2021-08-02,1,,,,,トレイルホールディングス,0
17,1010401161802,新規,0,2021-08-02,2021-08-02,Ｌｙｎｘ株式会社,,株式会社,東京都,港区,新橋６丁目８番１－２０１号室,,13,103,1050004,,,,,,,2021-08-02,1,,,,,リンクス,0
18,1010403025807,新規,0,2021-08-02,2021-08-02,ＭＷＡＶＥエンジニアサポート合同会社,,合同会社,東京都,港区,浜松町２丁目２番１５号浜松町ダイヤビル２Ｆ,,13,103,1050013,,,,,,,2021-08-02,1,,,,,エムウェーブエンジニアサポート,0
19,1010403025815,新規,0,2021-08-02,2021-08-02,合同会社ナイン,,合同会社,東京都,港区,青山四丁目１５番１９号２０５,,13,103,1050000,,,,,,,2021-08-02,1,,,,,ナイン,0
20,1010403025823,新規,0,2021-08-02,2021-08-02,ＰＪＭＦ　Ｉｎｖｅｓｔｍｅｎｔｓ合同会社,,合同会社,東京都,港区,元赤坂１丁目１番７－１００６号,,13,103,1070051,,,,,,,2021-08-02,1,,,,,ピージェーエムエフインベストメンツ,0
21,1010405020062,新規,0,2021-08-02,2021-08-02,ＲＢソーラーエメラルドホールディングス一般社団法人,,その他の設立登記法人,東京都,港区,虎ノ門３丁目２２番１０－２０１号,,13,103,1050001,,,,,,,2021-08-02,1,,,,,アールビーソーラーエメラルドホールディングス,0
39,1010901049134,新規,0,2021-08-02,2021-08-02,株式会社ＲＡＭ,,株式会社,東京都,世田谷区,瀬田１丁目２８番１８号,,13,112,1580095,,,,,,,2021-08-02,1,,,,,ラム,0
46,1011001141962,新規,0,2021-08-02,2021-08-02,株式会社Ｌａｂｅｌ９,,株式会社,東京都,渋谷区,代官山町１１番１号,,13,113,1500034,,,,,,,2021-08-02,1,,,,,レーベルナイン,0
52,1011101095852,新規,0,2021-08-02,2021-08-02,株式会社Ｃｕｅ　Ｃｏｍｐａｎｙ,,株式会社,東京都,新宿区,赤城下町２２番地２－１階,,13,104,1620803,,,,,,,2021-08-02,1,,,,,キューカンパニー,0
53,1011101095869,新規,0,2021-08-02,2021-08-02,株式会社ＵＣＭ,,株式会社,東京都,新宿区,早稲田鶴巻町５６８番地Ｂｒａｎｃｈｅ早稲田４０２,,13,104,1620041,,,,,,,2021-08-02,1,,,,,ユーシーエム,0
54,1011101095893,新規,0,2021-08-02,2021-08-02,株式会社ＡＲ,,株式会社,東京都,新宿区,大久保２丁目１３番５号福華ビル１１０,,13,104,1690072,,,,,,,2021-08-02,1,,,,,エーアール,0
55,1011101095910,新規,0,2021-08-02,2021-08-02,株式会社スクエア,,株式会社,東京都,新宿区,中町２３－１パレ神楽坂１０３,,13,104,1620835,,,,,,,2021-08-02,1,,,,,スクエア,0
56,1011103010900,新規,0,2021-08-02,2021-08-02,ＵＢｒａｉｎ合同会社,,合同会社,東京都,新宿区,新宿１丁目３６番１２号,,13,104,1600022,,,,,,,2021-08-02,1,,,,,ユーブレイン,0
67,1011703002909,新規,0,2021-08-02,2021-08-02,合同会社Ｄｒａｋｅ,,合同会社,東京都,江戸川区,松島３丁目４３－１３シャトー松島７０４,,13,123,1320031,,,,,,,2021-08-02,1,,,,,ドゥラーケ,0
69,1012301012639,新規,0,2021-08-02,2021-08-02,株式会社アルファテクノ,,株式会社,東京都,町田市,成瀬２丁目７－６,,13,209,1940044,,,,,,,2021-08-02,1,,,,,アルファテクノ,0
70,1012301012647,新規,0,2021-08-02,2021-08-02,株式会社響エステート,,株式会社,東京都,町田市,原町田６丁目１５番１３号町田東口駅前ビル３０１,,13,209,1940013,,,,,,,2021-08-02,1,,,,,ヒビキエステート,0
80,1012803002559,新規,0,2021-08-02,2021-08-02,合同会社オレンジボックス,,合同会社,東京都,立川市,富士見町６丁目１番２０３号,,13,202,1900013,,,,,,,2021-08-02,1,,,,,オレンジボックス,0
85,1013301047798,新規,0,2021-08-02,2021-08-02,株式会社ｓｑ－ｃｌｏｕｄ,,株式会社,東京都,豊島区,南長崎５丁目９番１０号レジェンド南長崎４０６号,,13,116,1710052,,,,,,,2021-08-02,1,,,,,エスキュークラウド,0
90,1020001142409,新規,0,2021-08-02,2021-08-02,株式会社ＢＮＢ,,株式会社,神奈川県,横浜市神奈川区,子安通３丁目３３１番地２フィオーレ新子安２０２号,,14,102,2210021,,,,,,,2021-08-02,1,,,,,ビーエンビー,0
91,1020001142441,新規,0,2021-08-02,2021-08-02,株式会社ＭＩＳＨＩＭＡ,,株式会社,神奈川県,横浜市戸塚区,名瀬町１５３３番地１,,14,110,2450051,,,,,,,2021-08-02,1,,,,,ミシマ,0
97,1020003020249,新規,0,2021-08-02,2021-08-02,合同会社スノードロップ,,合同会社,神奈川県,川崎市多摩区,枡形６丁目１８番６３号,,14,135,2140032,,,,,,,2021-08-02,1,,,,,スノードロップ,0
98,1020003020257,新規,0,2021-08-02,2021-08-02,イーライフ合同会社,,合同会社,神奈川県,川崎市幸区,戸手４丁目１２番１－２１０４号,,14,132,2120005,,,,,,,2021-08-02,1,,,,,イーライフ,0
114,1030001143554,新規,0,2021-08-02,2021-08-02,株式会社フラッグオン,,株式会社,埼玉県,越谷市,大字恩間５４２番地６,,11,222,3430033,,,,,,,2021-08-02,1,,,,,フラッグオン,0
115,1030001143604,新規,0,2021-08-02,2021-08-02,Ｎデザイン株式会社,,株式会社,埼玉県,さいたま市中央区,大字下落合１０８３番地３,,11,105,3380002,,,,,,,2021-08-02,1,,,,,エヌデザイン,0
116,1030001143612,新規,0,2021-08-02,2021-08-02,株式会社セーシェル,,株式会社,埼玉県,ふじみ野市,長宮２丁目１番地３１,,11,245,3560022,,,,,,,2021-08-02,1,,,,,セーシェル,0
122,1030005020469,新規,0,2021-08-02,2021-08-02,特定非営利活動法人彩の波,,その他の設立登記法人,埼玉県,さいたま市中央区,上落合８丁目３番３２号ホームズさいたま中央店２階医療法人社団彩の風さいたま中央クリニック内,,11,105,3380001,,,,,,,2021-08-02,1,,,,,サイノナミ,0
127,1040001119537,新規,0,2021-08-02,2021-08-02,アンドリード株式会社,,株式会社,千葉県,市川市,南行徳１丁目３番３号,,12,203,2720138,,,,,,,2021-08-02,1,,,,,アンドリード,0
128,1040001119586,新規,0,2021-08-02,2021-08-02,株式会社セイシン,,株式会社,千葉県,松戸市,上本郷３９６５松戸ＪＫハイツⅠ１０５号室,00123804,12,207,2710064,,,,,,,2021-08-02,1,,,,,セイシン,0
131,1040005021301,新規,0,2021-08-02,2021-08-02,港の朝市協同組合,,その他の設立登記法人,千葉県,いすみ市,大原７４００番地８,,12,238,2980004,,,,,,,2021-08-02,1,,,,,ミナトノアサイチ,0
134,1050001049626,新規,0,2021-08-02,2021-08-02,株式会社ひまわり交通,,株式会社,茨城県,東茨城郡大洗町,五反田７２１番地,,08,309,3111306,,,,,,,2021-08-02,1,,,,,ヒマワリコウツウ,0
179,1120001239426,新規,0,2021-08-02,2021-08-02,株式会社ＳＵＢｋｉｃｋ,,株式会社,大阪府,大阪市生野区,巽北２丁目１２番５号３Ｆ,00123802,27,116,5440004,,,,,,,2021-08-02,1,,,,,サブキック,0
180,1120001239442,新規,0,2021-08-02,2021-08-02,株式会社Ｌｉｆｏｒｌｄ,,株式会社,大阪府,大阪市西淀川区,柏里１丁目４番１３号,,27,113,5550022,,,,,,,2021-08-02,1,,,,,ライフォールド,0
181,1120003019933,新規,0,2021-08-02,2021-08-02,合同会社ｃｌａｗｓ,,合同会社,大阪府,大阪市住吉区,杉本２丁目２６番３１号,,27,120,5580022,,,,,,,2021-08-02,1,,,,,クロウズ,0
182,1120005022423,新規,0,2021-08-02,2021-08-02,協同組合リンクスタッフ,,その他の設立登記法人,大阪府,大阪市東住吉区,桑津１丁目１３番２２号,,27,121,5460041,,,,,,,2021-08-02,1,,,,,リンクスタッフ,0
187,1122005003576,新規,0,2021-08-02,2021-08-02,よつば介護事業協同組合,,その他の設立登記法人,大阪府,大東市,氷野１丁目６３７番地の６,,27,218,5740062,,,,,,,2021-08-02,1,,,,,ヨツバカイゴ,0
197,1140001122497,新規,0,2021-08-02,2021-08-02,Ｒｅｃｏｒｄ株式会社,,株式会社,兵庫県,姫路市,網干区新在家５６９番地,,28,201,6711234,,,,,,,2021-08-02,1,,,,,リコード,0
198,1140001122506,新規,0,2021-08-02,2021-08-02,株式会社キクチ設備,,株式会社,兵庫県,尼崎市,尾浜町３丁目３１番３－４号,,28,202,6610022,,,,,,,2021-08-02,1,,,,,キクチセツビ,0
199,1140001122514,新規,0,2021-08-02,2021-08-02,テックスプラス株式会社,,株式会社,兵庫県,西宮市,柏堂町１２番１０号,,28,204,6620097,,,,,,,2021-08-02,1,,,,,テックスプラス,0
205,1140003016557,新規,0,2021-08-02,2021-08-02,合同会社ラーメン虎一番,,合同会社,兵庫県,尼崎市,大島１丁目２番３号,,28,202,6600076,,,,,,,2021-08-02,1,,,,,ラーメントライチバン,0
206,1140003016581,新規,0,2021-08-02,2021-08-02,合同会社濱田遠隔画像診断室,,合同会社,兵庫県,芦屋市,大原町１７番２６号,,28,206,6590092,,,,,,,2021-08-02,1,,,,,ハマダエンカクガゾウシンダンシツ,0
211,1160001023520,新規,0,2021-08-02,2021-08-02,エス・ピー・シー湖南株式会社,,株式会社,滋賀県,大津市,別保２丁目９番５０号,,25,201,5200835,,,,,,,2021-08-02,1,,,,,エスピーシーコナン,0
226,1180001147193,新規,0,2021-08-02,2021-08-02,株式会社Ｋｉｉｘ,,株式会社,愛知県,名古屋市守山区,喜多山２丁目２９番１号,,23,113,4630017,,,,,,,2021-08-02,1,,,,,キックス,0
227,1180001147210,新規,0,2021-08-02,2021-08-02,株式会社ｓｕｋｉｃｏｔｏ,,株式会社,愛知県,名古屋市瑞穂区,洲雲町４丁目６２－５シェスタ桜山４Ｄ室,,23,108,4670804,,,,,,,2021-08-02,1,,,,,スキコト,0
238,1200001038943,新規,0,2021-08-02,2021-08-02,株式会社オリヴィエ,,株式会社,岐阜県,岐阜市,山吹町４丁目８３番地,,21,201,5020905,,,,,,,2021-08-02,1,,,,,オリヴィエ,0
239,1200001038951,新規,0,2021-08-02,2021-08-02,株式会社琉創,,株式会社,岐阜県,海津市,平田町勝賀１１８６番地１,,21,221,5030302,,,,,,,2021-08-02,1,,,,,リュウソウ,0
256,1260001035803,新規,0,2021-08-02,2021-08-02,株式会社良和,,株式会社,岡山県,倉敷市,大畠２丁目１５番１５号,,33,202,7110924,,,,,,,2021-08-02,1,,,,,リョウワ,0
257,1260001035811,新規,0,2021-08-02,2021-08-02,株式会社ＤＬＣ．,,株式会社,岡山県,岡山市中区,藤崎７１４番地９,,33,102,7028006,,,,,,,2021-08-02,1,,,,,ディーエルシー,0
265,1290001094037,新規,0,2021-08-02,2021-08-02,株式会社フェリスメディカル,,株式会社,福岡県,福岡市博多区,博多駅前４丁目３７番１号,,40,132,8120011,,,,,,,2021-08-02,1,,,,,フェリスメディカル,0
266,1290001094053,新規,0,2021-08-02,2021-08-02,株式会社アンキョ,,株式会社,福岡県,福岡市博多区,月隈２丁目２－２７,,40,132,8120858,,,,,,,2021-08-02,1,,,,,アンキョ,0
267,1290005018297,新規,0,2021-08-02,2021-08-02,特定非営利活動法人地域ぐるみの子育てをすすめるひだまりの会,,その他の設立登記法人,福岡県,福岡市城南区,田島２丁目１４番２号,,40,136,8140113,,,,,,,2021-08-02,1,,,,,チイキグルミノコソダテヲススメルヒダマリノカイ,0
278,1330001028832,新規,0,2021-08-02,2021-08-02,大矢野運送株式会社,,株式会社,熊本県,上天草市,大矢野町上４２３０番地１,,43,212,8693602,,,,,,,2021-08-02,1,,,,,オオヤノウンソウ,0
279,1330001028849,新規,0,2021-08-02,2021-08-02,メロウレイク株式会社,,株式会社,熊本県,熊本市中央区,安政町６番２９号,,43,101,8600801,,,,,,,2021-08-02,1,,,,,メロウレイク,0
281,1340001023964,新規,0,2021-08-02,2021-08-02,ＰＰＢ株式会社,,株式会社,鹿児島県,鹿児島市,紫原７丁目３６番２６号－８階,,46,201,8900082,,,,,,,2021-08-02,1,,,,,ピーピービー,0
283,1350001017206,新規,0,2021-08-02,2021-08-02,大洋商事株式会社,,株式会社,宮崎県,小林市,細野３９１番地１,,45,205,8860004,,,,,,,2021-08-02,1,,,,,タイヨウショウジ,0
284,1350003003897,新規,0,2021-08-02,2021-08-02,合同会社こども工房,,合同会社,宮崎県,都城市,乙房町４８３,,45,202,8850112,,,,,,,2021-08-02,1,,,,,コドモコウボウ,0
290,1370001047399,新規,0,2021-08-02,2021-08-02,株式会社仙台マーケット,,株式会社,宮城県,仙台市宮城野区,中野字神明１４２番地,,04,102,9830013,,,,,,,2021-08-02,1,,,,,センダイマーケット,0
291,1370001047408,新規,0,2021-08-02,2021-08-02,株式会社秋茜,,株式会社,宮城県,仙台市泉区,高森３丁目４番地の１９０,,04,105,9813203,,,,,,,2021-08-02,1,,,,,アキアカネ,0
331,2010001220065,新規,0,2021-08-02,2021-08-02,株式会社高眞商事,00123806,株式会社,東京都,千代田区,麹町３丁目１２番１２号麹町Ｍビル,,13,101,1020083,,,,,,,2021-08-02,1,,,,,コウシンショウジ,0
332,2010001220081,新規,0,2021-08-02,2021-08-02,株式会社アンジェリーナジャパン,,株式会社,東京都,中央区,日本橋蛎殻町１丁目５番６号,,13,102,1030014,,,,,,,2021-08-02,1,,,,,アンジェリーナジャパン,0
339,2010003035437,新規,0,2021-08-02,2021-08-02,ＧＰＤかもめ合同会社,,合同会社,東京都,千代田区,一ツ橋２丁目５番５号,,13,101,1010003,,,,,,,2021-08-02,1,,,,,ジーピーディーカモメ,0
340,2010003035461,新規,0,2021-08-02,2021-08-02,合同会社ＤＩＫＥ,,合同会社,東京都,中央区,八丁堀２丁目２８番５－４０３号,,13,102,1040032,,,,,,,2021-08-02,1,,,,,ディケ,0
343,2010005033703,新規,0,2021-08-02,2021-08-02,一般社団法人組織開発コーチ協会,,その他の設立登記法人,東京都,中央区,銀座１丁目２０番１７号,,13,102,1040061,,,,,,,2021-08-02,1,,,,,ソシキカイハツコーチキョウカイ,0
349,2010401161801,新規,0,2021-08-02,2021-08-02,Ｉｎｓｔｉｌｌａｒｔ株式会社,,株式会社,東京都,港区,麻布十番１丁目２番７号ラフィネ麻布十番７０１号室,,13,103,1060045,,,,,,,2021-08-02,1,,,,,インスティラート,0
351,2010403025806,新規,0,2021-08-02,2021-08-02,合同会社モナドワークス,,合同会社,東京都,港区,南青山２丁目２番１５号,,13,103,1070062,,,,,,,2021-08-02,1,,,,,モナドワークス,0
352,2010403025814,新規,0,2021-08-02,2021-08-02,オレンジ・Ｏ合同会社,,合同会社,東京都,港区,浜松町２丁目２番１５号浜松町ダイヤビル２Ｆ,,13,103,1050013,,,,,,,2021-08-02,1,,,,,オレンジオー,0
353,2010405020061,新規,0,2021-08-02,2021-08-02,ＲＢソーラールビーホールディングス一般社団法人,,その他の設立登記法人,東京都,港区,虎ノ門３丁目２２番１０－２０１号,,13,103,1050001,,,,,,,2021-08-02,1,,,,,アールビーソーラールビーホールディングス,0
357,2010601059738,新規,0,2021-08-02,2021-08-02,大津百貨店株式会社,,株式会社,東京都,墨田区,菊川２丁目２３番１号,,13,107,1300024,,,,,,,2021-08-02,1,,,,,オオツヒャッカテン,0
368,2010805002865,新規,0,2021-08-02,2021-08-02,一般社団法人Ｄ－ｔａｆ,,その他の設立登記法人,東京都,大田区,北馬込２丁目５２番５号,,13,111,1430021,,,,,,,2021-08-02,1,,,,,ディターフ,0
375,2011001142019,新規,0,2021-08-02,2021-08-02,株式会社Ｊａｐａｎ　ＩＣＴ　Ｓｏｌｕｔｉｏｎｓ,,株式会社,東京都,渋谷区,神宮前６丁目２３番４号桑野ビル２階,,13,113,1500001,,,,,,,2021-08-02,1,,,,,ジャパンアイシーティーソリューションズ,0
379,2011101095851,新規,0,2021-08-02,2021-08-02,株式会社ＮＥＯ　ＬＡＮＤ,,株式会社,東京都,新宿区,歌舞伎町２丁目２３－１風林会館地下２階,,13,104,1600021,,,,,,,2021-08-02,1,,,,,ネオランド,0
384,2011603003361,新規,0,2021-08-02,2021-08-02,合同会社レベシェア１号,,合同会社,東京都,練馬区,桜台４丁目１９－１７,,13,120,1760002,,,,,,,2021-08-02,1,,,,,レベシェアイチゴウ,0
390,2011703002908,新規,0,2021-08-02,2021-08-02,ＫＡ２０合同会社,,合同会社,東京都,江戸川区,平井３丁目２３番２５号Ｆｌｅｕｒ平井５０１,,13,123,1320035,,,,,,,2021-08-02,1,,,,,ケーエーニイゼロ,0
391,2011801039513,新規,0,2021-08-02,2021-08-02,朝倉商事株式会社,,株式会社,東京都,足立区,東保木間２丁目７番１９号,,13,121,1210063,,,,,,,2021-08-02,1,,,,,アサクラショウジ,0
393,2012801020982,新規,0,2021-08-02,2021-08-02,株式会社環境配慮プランニング,,株式会社,東京都,国分寺市,富士本３丁目１７番地２９,,13,214,1850031,,,,,,,2021-08-02,1,,,,,カンキョウハイリョプランニング,0
394,2012803002558,新規,0,2021-08-02,2021-08-02,合同会社ＫＴＳ,,合同会社,東京都,立川市,富士見町１丁目２８番４号,,13,202,1900013,,,,,,,2021-08-02,1,,,,,ケーティーエス,0
399,2013301047806,新規,0,2021-08-02,2021-08-02,千尋貿易株式会社,,株式会社,東京都,豊島区,池袋１丁目１２番１５号三陽荘１０２号,,13,116,1700014,,,,,,,2021-08-02,1,,,,,チヒロボウエキ,0
408,2020001142390,新規,0,2021-08-02,2021-08-02,株式会社ＩＳ,,株式会社,神奈川県,川崎市宮前区,野川本町２丁目８番５号エクセレンス花水木Ｃ,,14,136,2160041,,,,,,,2021-08-02,1,,,,,アイエス,0
409,2020001142424,新規,0,2021-08-02,2021-08-02,住和グループ株式会社,,株式会社,神奈川県,川崎市高津区,梶ケ谷２丁目７番１７号,,14,134,2130015,,,,,,,2021-08-02,1,,,,,ジュウワグループ,0
410,2020001142432,新規,0,2021-08-02,2021-08-02,ＣＲＫ株式会社,,株式会社,神奈川県,川崎市宮前区,菅生ケ丘３８番３３号,,14,136,2160014,,,,,,,2021-08-02,1,,,,,シーアールケー,0
411,2020001142457,新規,0,2021-08-02,2021-08-02,株式会社ＹＳＴ,,株式会社,神奈川県,川崎市幸区,中幸町３丁目３番１号,,14,132,2120012,,,,,,,2021-08-02,1,,,,,ワイエスティー,0
418,2020003020256,新規,0,2021-08-02,2021-08-02,合同会社Ｇｒｏｗｉｎｇ,,合同会社,神奈川県,横浜市青葉区,あざみ野２丁目２７番地４シャトレー２０２,,14,117,2250011,,,,,,,2021-08-02,1,,,,,グローイング,0
425,2021003010726,新規,0,2021-08-02,2021-08-02,合同会社ＫＡＺＵ計装,,合同会社,神奈川県,横須賀市,坂本町３丁目１７番地,,14,201,2380043,,,,,,,2021-08-02,1,,,,,カズケイソウ,0
426,2021003010742,新規,0,2021-08-02,2021-08-02,合同会社エクステリア湘,,合同会社,神奈川県,三浦郡葉山町,一色９５９番地の３,,14,301,2400111,,,,,,,2021-08-02,1,,,,,エクステリアショウ,0
430,2030001143594,新規,0,2021-08-02,2021-08-02,株式会社ただのやまもと,,株式会社,埼玉県,さいたま市見沼区,大和田町２丁目５２０番地２山幸ハイツ２０３号,,11,104,3370053,,,,,,,2021-08-02,1,,,,,タダノヤマモト,0
445,2040001119560,新規,0,2021-08-02,2021-08-02,株式会社Ｓｕｇａｒｆｏｘ,,株式会社,千葉県,柏市,高柳１３６１番地７,,12,217,2770941,,,,,,,2021-08-02,1,,,,,シュガーフォックス,0
446,2040001119569,新規,0,2021-08-02,2021-08-02,株式会社アームプランニング,,株式会社,千葉県,柏市,名戸ケ谷７６２番地１２,,12,217,2770032,,,,,,,2021-08-02,1,,,,,アームプランニング,0
447,2040001119577,新規,0,2021-08-02,2021-08-02,株式会社ｈｒｒｒｓ,,株式会社,千葉県,我孫子市,南新木３丁目５－２クレストＭ壱番館２０３,,12,222,2701119,,,,,,,2021-08-02,1,,,,,ヒリーズ,0
448,2040001119602,新規,0,2021-08-02,2021-08-02,株式会社ＥＸ不動産,,株式会社,千葉県,四街道市,四街道１丁目４番９－１０１号,,12,228,2840005,,,,,,,2021-08-02,1,,,,,イーエックスフドウサン,0
451,2040003018257,新規,0,2021-08-02,2021-08-02,エスピーシーエンターテイメント合同会社,,合同会社,千葉県,野田市,なみき１丁目２５－３,,12,208,2700229,,,,,,,2021-08-02,1,,,,,エスピーシーエンターテイメント,0
455,2050001049617,新規,0,2021-08-02,2021-08-02,株式会社クオリア,,株式会社,茨城県,石岡市,旭台１丁目１６番２７号,,08,205,3150038,,,,,,,2021-08-02,1,,,,,クオリア,0
461,2080101022685,新規,0,2021-08-02,2021-08-02,株式会社まちづくり伊豆長岡温泉,,株式会社,静岡県,伊豆の国市,長岡１０５４番地の３,,22,225,4102211,,,,,,,2021-08-02,1,,,,,マチヅクリイズナガオカオンセン,0
471,2100001034480,新規,0,2021-08-02,2021-08-02,株式会社タマモフロンティア,,株式会社,長野県,長野市,大字鶴賀権堂町２３６９番地,,20,201,3800833,,,,,,,2021-08-02,1,,,,,タマモフロンティア,0
500,2120001239251,新規,0,2021-08-02,2021-08-02,株式会社ＥＸ－Ｆｕｓｉｏｎ,,株式会社,大阪府,大阪市中央区,北久宝寺町３丁目６－１本町南ガーデンシティ７階,,27,128,5410057,,,,,,,2021-08-02,1,,,,,エクスフュージョン,0
501,2120001239409,新規,0,2021-08-02,2021-08-02,株式会社Ｒｅｓｔａｒｔ　ｙｕ　ｃｏｍｐａｎｙ,,株式会社,大阪府,守口市,寺内町１丁目１１番５－３０３号,,27,209,5700056,,,,,,,2021-08-02,1,,,,,リスタートユーカンパニー,0
502,2120001239441,新規,0,2021-08-02,2021-08-02,株式会社Ｄａｌｓｅｏｎｇ,,株式会社,大阪府,大阪市中央区,久太郎町１丁目５番３１号,,27,128,5410056,,,,,,,2021-08-02,1,,,,,ダルソン,0
503,2120001239458,新規,0,2021-08-02,2021-08-02,那羅延株式会社,,株式会社,大阪府,大阪市西成区,旭２丁目１番２８－４０２号,,27,122,5570032,,,,,,,2021-08-02,1,,,,,ナラエン,0
511,2120005022414,新規,0,2021-08-02,2021-08-02,ＮＰＯ法人虐待どっとネット,,その他の設立登記法人,大阪府,大阪市住吉区,大領１丁目２番２１号,,27,120,5580001,,,,,,,2021-08-02,1,,,,,ギャクタイドットネット,0
512,2120005022422,新規,0,2021-08-02,2021-08-02,ファイブ行政書士法人,,その他の設立登記法人,大阪府,大阪市西区,西本町１丁目８番２号三晃ビル３階,,27,106,5500005,,,,,,,2021-08-02,1,,,,,ファイブ,0
514,2120101064062,新規,0,2021-08-02,2021-08-02,株式会社日和建設,,株式会社,大阪府,堺市東区,大美野１７１番地３６,,27,143,5998126,,,,,,,2021-08-02,1,,,,,ニチワケンセツ,0
525,2130001069821,新規,0,2021-08-02,2021-08-02,株式会社コトカタリ,,株式会社,京都府,京都市下京区,杉蛭子町２２３番地,,26,106,6008386,,,,,,,2021-08-02,1,,,,,コトカタリ,0
539,2140001122414,新規,0,2021-08-02,2021-08-02,株式会社Ｇ－ＬＩＮＫ,,株式会社,兵庫県,宝塚市,安倉南２丁目８番１４号,,28,214,6650823,,,,,,,2021-08-02,1,,,,,ジーリンク,0
541,2140003016580,新規,0,2021-08-02,2021-08-02,合同会社ｐｌａｎｔｅｒ,,合同会社,兵庫県,赤穂市,大津１８７３番地の３,,28,212,6780252,,,,,,,2021-08-02,1,,,,,プランター,0
542,2140003016589,新規,0,2021-08-02,2021-08-02,ブリル合同会社,,合同会社,兵庫県,宝塚市,山本南１丁目３０番７号３０２,,28,214,6650882,,,,,,,2021-08-02,1,,,,,ブリル,0
556,2180001147143,新規,0,2021-08-02,2021-08-02,ＴＧＳＧホールディングス株式会社,,株式会社,愛知県,名古屋市中区,千代田５丁目４番１６号,,23,106,4600012,,,,,,,2021-08-02,1,,,,,ティージーエスジーホールディングス,0
557,2180001147184,新規,0,2021-08-02,2021-08-02,株式会社ＶｉＬＬ,,株式会社,愛知県,北名古屋市,久地野牧野６番地２,,23,234,4810012,,,,,,,2021-08-02,1,,,,,ヴィエル,0
562,2180003022807,新規,0,2021-08-02,2021-08-02,合同会社Ｒ　ｉｎｎｏｖａｔｉｏｎ,,合同会社,愛知県,名古屋市中区,栄１丁目６番１５号グランドメゾン御園座タワー３５０２号,,23,106,4600008,,,,,,,2021-08-02,1,,,,,アールイノベーション,0
564,2180005019388,新規,0,2021-08-02,2021-08-02,一般社団法人相続おまかせ支援協会,,その他の設立登記法人,愛知県,名古屋市中区,栄２丁目５番１３号アイ・エスビル４階,,23,106,4600008,,,,,,,2021-08-02,1,,,,,ソウゾクオマカセシエンキョウカイ,0
573,2200001038934,新規,0,2021-08-02,2021-08-02,株式会社ＪＭＭＥ,,株式会社,岐阜県,高山市,山田町２３５番地１,,21,203,5060058,,,,,,,2021-08-02,1,,,,,ジェイエムエムイー,0
575,2200005013231,新規,0,2021-08-02,2021-08-02,一般社団法人エーツージャパン,,その他の設立登記法人,岐阜県,岐阜市,柳津町上佐波西５丁目１６,,21,201,5016121,,,,,,,2021-08-02,1,,,,,エーツージャパン,0
579,2230001018917,新規,0,2021-08-02,2021-08-02,いろは不動産株式会社,,株式会社,富山県,滑川市,横道３３４７番地,,16,206,9360873,,,,,,,2021-08-02,1,,,,,イロハフドウサン,0
588,2240001058334,新規,0,2021-08-02,2021-08-02,日豊産業株式会社,,株式会社,広島県,東広島市,豊栄町清武８６８－２,,34,212,7392313,,,,,,,2021-08-02,1,,,,,ニッポサンギョウ,0
591,2240003005219,新規,0,2021-08-02,2021-08-02,バリコーポレーション合同会社,,合同会社,広島県,広島市中区,宝町５番１１－１９０１号,,34,101,7300044,,,,,,,2021-08-02,1,,,,,バリコーポレーション,0
594,2270001008328,新規,0,2021-08-02,2021-08-02,株式会社上げ潮,,株式会社,鳥取県,米子市,西福原２丁目８番１４号,,31,202,6830805,,,,,,,2021-08-02,1,,,,,アゲシオ,0
602,2290001094060,新規,0,2021-08-02,2021-08-02,株式会社ＴＨＣ,,株式会社,福岡県,筑紫野市,二日市中央２丁目５－２５,,40,217,8180072,,,,,,,2021-08-02,1,,,,,ティエイチシー,0
603,2290001094069,新規,0,2021-08-02,2021-08-02,建物装飾株式会社,,株式会社,福岡県,福岡市中央区,荒戸１丁目１－１３－２０２,,40,133,8100062,,,,,,,2021-08-02,1,,,,,タテモノソウショク,0
604,2290001094077,新規,0,2021-08-02,2021-08-02,イネケン纉株式会社,,株式会社,福岡県,八女郡広川町,大字日吉８３２番地３,,40,544,8340111,,,,,,,2021-08-02,1,,,,,イネケンサン,0
606,2290003011476,新規,0,2021-08-02,2021-08-02,合同会社Ａ．Ｔ．Ｖ,,合同会社,福岡県,嘉穂郡桂川町,大字土師２８番地３３４,,40,421,8200607,,,,,,,2021-08-02,1,,,,,エーティーヴィ,0
628,2370001047357,新規,0,2021-08-02,2021-08-02,Ｊｕｎｅ　Ｗｏｒｌｄｗｉｄｅ株式会社,,株式会社,宮城県,石巻市,あゆみ野３丁目２番地１２,,04,202,9860850,,,,,,,2021-08-02,1,,,,,ジュンワールドワイド,0
629,2370001047398,新規,0,2021-08-02,2021-08-02,千葉産業株式会社,,株式会社,宮城県,登米市,豊里町新田町１７０番地,,04,212,9870361,,,,,,,2021-08-02,1,,,,,チバサンギョウ,0
630,2370001047407,新規,0,2021-08-02,2021-08-02,株式会社らくてんぼう,,株式会社,宮城県,石巻市,鹿又字新田町浦７９番地,,04,202,9861111,,,,,,,2021-08-02,1,,,,,ラクテンボウ,0
633,2380001032077,新規,0,2021-08-02,2021-08-02,株式会社バイオマスレジン福島,,株式会社,福島県,南相馬市,原町区青葉町２丁目３番地相馬ガスホールディングス株式会社内,,07,212,9750039,,,,,,,2021-08-02,1,,,,,バイオマスレジンフクシマ,0
640,2380005012463,新規,0,2021-08-02,2021-08-02,特定非営利活動法人あいさぽセンター,,その他の設立登記法人,福島県,会津若松市,馬場町１番２０号,,07,202,9650035,,,,,,,2021-08-02,1,,,,,,0
649,2460101007037,新規,0,2021-08-02,2021-08-02,株式会社しんじゅＬ＆Ｍ,,株式会社,北海道,中川郡幕別町,忠類朝日６９番地,,01,643,0891717,,,,,,,2021-08-02,1,,,,,シンジュエルアンドエム,0
652,2470003002003,新規,0,2021-08-02,2021-08-02,合同会社ＴＲＳ,,合同会社,香川県,さぬき市,津田町津田８２８番地２,,37,206,7692401,,,,,,,2021-08-02,1,,,,,ティーアールエス,0
653,2480003001697,新規,0,2021-08-02,2021-08-02,肉信合同会社,,合同会社,徳島県,板野郡板野町,川端字内井３０番地１,,36,404,7790102,,,,,,,2021-08-02,1,,,,,ニクシン,0
669,3010001220089,新規,0,2021-08-02,2021-08-02,タッチ株式会社,,株式会社,東京都,中央区,勝どき１丁目８番１号,,13,102,1040054,,,,,,,2021-08-02,1,,,,,タッチ,0
671,3010003035337,新規,0,2021-08-02,2021-08-02,合同会社ＦＯ,,合同会社,東京都,千代田区,丸の内３丁目１番１号東京共同会計事務所内,,13,101,1000005,,,,,,,2021-08-02,1,,,,,エフオー,0
672,3010003035436,新規,0,2021-08-02,2021-08-02,ＧＰＤつばめ合同会社,,合同会社,東京都,千代田区,一ツ橋２丁目５番５号,,13,101,1010003,,,,,,,2021-08-02,1,,,,,ジーピーディーツバメ,0
684,3010401161791,新規,0,2021-08-02,2021-08-02,株式会社ＡＲＴ　ＮＥＸＴ,,株式会社,東京都,港区,赤坂３丁目１４番２号ドルミ赤坂４０２,,13,103,1070052,,,,,,,2021-08-02,1,,,,,アートネクスト,0
685,3010401161800,新規,0,2021-08-02,2021-08-02,パレットライフサイエンスジャパン株式会社,,株式会社,東京都,港区,海岸１丁目２－３汐留芝離宮ビルディング２１階,,13,103,1050022,,,,,,,2021-08-02,1,,,,,パレットライフサイエンスジャパン,0
686,3010401161833,新規,0,2021-08-02,2021-08-02,株式会社Ｆａｒ　Ｅａｓｔ　Ｉｎｎｏｖａｔｏｒｓ,,株式会社,東京都,港区,芝浦４丁目１９番１－３９０６号,,13,103,1080023,,,,,,,2021-08-02,1,,,,,ファーイーストイノベーターズ,0
687,3010401161858,新規,0,2021-08-02,2021-08-02,株式会社ディ・エム・シーいわき,,株式会社,東京都,港区,高輪２丁目１８番１０号,,13,103,1080074,,,,,,,2021-08-02,1,,,,,ディエムシーイワキ,0
689,3010403025805,新規,0,2021-08-02,2021-08-02,合同会社Ｍａｇｎｏｌｉａ　Ｐａｒｔｎｅｒｓ,,合同会社,東京都,港区,南青山２丁目２番１５号ウィン青山９階,,13,103,1070062,,,,,,,2021-08-02,1,,,,,マグノリアパートナーズ,0
690,3010403025813,新規,0,2021-08-02,2021-08-02,ＲＢソーラーエメラルド合同会社,,合同会社,東京都,港区,虎ノ門３丁目２２番１０－２０１号,,13,103,1050001,,,,,,,2021-08-02,1,,,,,アールビーソーラーエメラルド,0
694,3010405020060,新規,0,2021-08-02,2021-08-02,ＲＢソーラーサファイアホールディングス一般社団法人,,その他の設立登記法人,東京都,港区,虎ノ門３丁目２２番１０－２０１号,,13,103,1050001,,,,,,,2021-08-02,1,,,,,アールビーソーラーサファイアホールディングス,0
697,3010501047635,新規,0,2021-08-02,2021-08-02,株式会社ＳＴＡＮＤ,,株式会社,東京都,台東区,根岸３丁目５番７号,,13,106,1100003,,,,,,,2021-08-02,1,,,,,スタンド,0
701,3010601059695,新規,0,2021-08-02,2021-08-02,洋田株式会社,,株式会社,東京都,墨田区,東駒形３丁目１８－４,,13,107,1300005,,,,,,,2021-08-02,1,,,,,ヨウダ,0
702,3010601059737,新規,0,2021-08-02,2021-08-02,株式会社Ｃ７,,株式会社,東京都,江東区,東陽２丁目３番２０－５０３号,,13,108,1350016,,,,,,,2021-08-02,1,,,,,シーセブン,0
704,3010603009070,新規,0,2021-08-02,2021-08-02,合同会社ＧＸ,,合同会社,東京都,江東区,白河４丁目９番２５－２５０４号,,13,108,1350021,,,,,,,2021-08-02,1,,,,,ジーエックス,0
705,3010701041330,新規,0,2021-08-02,2021-08-02,株式会社ＳＴＧ,,株式会社,東京都,品川区,南大井３丁目２０－１１伊藤ビルＢ１,,13,109,1400013,,,,,,,2021-08-02,1,,,,,エスティジー,0
708,3010801032163,新規,0,2021-08-02,2021-08-02,株式会社ニューチャーズ,,株式会社,東京都,大田区,南馬込６丁目２８－１３,,13,111,1430025,,,,,,,2021-08-02,1,,,,,ニューチャーズ,0
709,3010801032171,新規,0,2021-08-02,2021-08-02,株式会社アイリス,,株式会社,東京都,大田区,南久が原２丁目７番５号,,13,111,1460084,,,,,,,2021-08-02,1,,,,,アイリス,0
710,3010801032188,新規,0,2021-08-02,2021-08-02,吉田造園株式会社,,株式会社,東京都,大田区,大森西１丁目１３番７号,,13,111,1430015,,,,,,,2021-08-02,1,,,,,ヨシダゾウエン,0
718,3011001142018,新規,0,2021-08-02,2021-08-02,株式会社Ｂｅｌｌａ　Ｂｅｌｌａ,,株式会社,東京都,渋谷区,恵比寿１丁目１５番９‐４０３号日宝恵比寿ビル,,13,113,1500013,,,,,,,2021-08-02,1,,,,,ベイラベイラ,0
722,3011101095859,新規,0,2021-08-02,2021-08-02,株式会社Ｗｅｓｍａ,,株式会社,東京都,新宿区,西新宿４丁目２４番１８－３１５号,,13,104,1600023,,,,,,,2021-08-02,1,,,,,ウェスマ,0
743,3012701016601,新規,0,2021-08-02,2021-08-02,株式会社リリビラ,,株式会社,東京都,清瀬市,松山１丁目２番１６号リナージュ清瀬７０１号,,13,221,2040022,,,,,,,2021-08-02,1,,,,,リリビラ,0
745,3012803002557,新規,0,2021-08-02,2021-08-02,リリーフアドバイザリー合同会社,,合同会社,東京都,国分寺市,本町４丁目６番９号－４１２,,13,214,1850012,,,,,,,2021-08-02,1,,,,,リリーフアドバイザリー,0
748,3013305003242,新規,0,2021-08-02,2021-08-02,司法書士法人リーガルトップ,,その他の設立登記法人,東京都,豊島区,南池袋２丁目１１番１号明王ビル３Ｆ,,13,116,1710022,,,,,,,2021-08-02,1,,,,,リーガルトップ,0
762,3020001142415,新規,0,2021-08-02,2021-08-02,株式会社かなめ工房,,株式会社,神奈川県,横浜市青葉区,松風台３３番地１５青葉台ハイツ４０２号,,14,117,2270067,,,,,,,2021-08-02,1,,,,,カナメコウボウ,0
763,3020001142423,新規,0,2021-08-02,2021-08-02,京恩株式会社,,株式会社,神奈川県,横浜市鶴見区,潮田町２丁目１１４番地９,,14,101,2300041,,,,,,,2021-08-02,1,,,,,キョウオン,0
768,3020003020222,新規,0,2021-08-02,2021-08-02,合同会社ＧＯＬＤＲＡＳＨ,,合同会社,神奈川県,横浜市中区,初音町３丁目５３－１０本橋ビル４０１,,14,104,2310053,,,,,,,2021-08-02,1,,,,,ゴールドラッシュ,0
775,3021001073534,新規,0,2021-08-02,2021-08-02,株式会社ＯＮＥ　ＴＲＹ,,株式会社,神奈川県,相模原市南区,東林間５丁目１８番１３号２階,,14,153,2520311,,,,,,,2021-08-02,1,,,,,ワントライ,0
777,3021003010741,新規,0,2021-08-02,2021-08-02,ＯＭＥＣＨＥ　ＥＭＥＫＡ　ＧＯＤＳＯＮ合同会社,,合同会社,神奈川県,海老名市,東柏ケ谷１丁目１７番１４－２０２号,,14,215,2430401,,,,,,,2021-08-02,1,,,,,オメチェエメカゴッドサン,0
783,3030001143560,新規,0,2021-08-02,2021-08-02,株式会社ＣＵＯＲＥ,,株式会社,埼玉県,越谷市,南越谷４丁目１１－４,,11,222,3430845,,,,,,,2021-08-02,1,,,,,クオーレ,0
784,3030001143577,新規,0,2021-08-02,2021-08-02,株式会社Ｙ,,株式会社,埼玉県,ふじみ野市,ふじみ野１丁目１番３９号３Ｆ,,11,245,3560050,,,,,,,2021-08-02,1,,,,,ワイ,0
787,3030003017705,新規,0,2021-08-02,2021-08-02,ＳＵＰＥＲ　ＪＵＮ　ＩＮＴＥＲＮＡＴＩＯＮＡＬ合同会社,,合同会社,埼玉県,北足立郡伊奈町,学園２丁目１３９番地,,11,301,3620813,,,,,,,2021-08-02,1,,,,,スーパージュンインターナショナル,0
788,3030005020467,新規,0,2021-08-02,2021-08-02,一般社団法人ふるさと,,その他の設立登記法人,埼玉県,川越市,砂新田５丁目３６番地８,,11,201,3501137,,,,,,,2021-08-02,1,,,,,フルサト,0
795,3040001119502,新規,0,2021-08-02,2021-08-02,株式会社零樹建設,,株式会社,千葉県,千葉市中央区,長洲１丁目２９－９ラヴィベル本千葉３Ｆ,,12,101,2600854,,,,,,,2021-08-02,1,,,,,レイジュケンセツ,0
796,3040001119568,新規,0,2021-08-02,2021-08-02,豊株式会社,,株式会社,千葉県,南房総市,加茂１７１番地,,12,234,2992525,,,,,,,2021-08-02,1,,,,,ユタカ,0
803,3050001049616,新規,0,2021-08-02,2021-08-02,株式会社フォーエスエヌ,,株式会社,茨城県,土浦市,佐野子６６８番地,,08,203,3000803,,,,,,,2021-08-02,1,,,,,フォーエスエヌ,0
815,3080401025222,新規,0,2021-08-02,2021-08-02,株式会社ベストカー磐田,,株式会社,静岡県,磐田市,匂坂中１３９０番地の１,,22,211,4380004,,,,,,,2021-08-02,1,,,,,ベストカーイワタ,0
831,3120001239440,新規,0,2021-08-02,2021-08-02,株式会社ＸＬＳ　ＷＯＲＬＤ,,株式会社,大阪府,大阪市北区,長柄中１丁目３番１９－２０３号,,27,127,5310062,,,,,,,2021-08-02,1,,,,,クロスワールド,0
832,3120001239465,新規,0,2021-08-02,2021-08-02,ブルジオン株式会社,,株式会社,大阪府,大阪市西区,江戸堀２丁目７番１９号,,27,106,5500002,,,,,,,2021-08-02,1,,,,,ブルジオン,0
840,3120103004271,新規,0,2021-08-02,2021-08-02,合同会社ｈｉｐ,,合同会社,大阪府,和泉市,和気町１丁目３０－６モアフェミン１階Ｃ号室,,27,219,5940073,,,,,,,2021-08-02,1,,,,,ヒップ,0
844,3122001035043,新規,0,2021-08-02,2021-08-02,株式会社ナチュラルブリッジ,,株式会社,大阪府,東大阪市,西岩田３丁目３番１４－７０３号,,27,227,5780947,,,,,,,2021-08-02,1,,,,,ナチュラルブリッジ,0
847,3130001069829,新規,0,2021-08-02,2021-08-02,株式会社Ｂａｋａｍｏｎ,,株式会社,京都府,京都市北区,上賀茂中ノ河原町６番地８,,26,101,6038032,,,,,,,2021-08-02,1,,,,,バカモン,0
856,3140001122421,新規,0,2021-08-02,2021-08-02,株式会社Ｒｉｅ’ｓ　ｓｔｙｌｅ,,株式会社,兵庫県,尼崎市,武庫之荘３丁目１８番５号１階,,28,202,6610035,,,,,,,2021-08-02,1,,,,,リエズスタイル,0
857,3140001122504,新規,0,2021-08-02,2021-08-02,株式会社アップワードマネジメント,,株式会社,兵庫県,尼崎市,下坂部２丁目１５番１５号,,28,202,6610975,,,,,,,2021-08-02,1,,,,,アップワードマネジメント,0
869,3180001147183,新規,0,2021-08-02,2021-08-02,株式会社新東,,株式会社,愛知県,名古屋市中区,新栄３丁目１番５号エクセレンス新栄１０４号,,23,106,4600007,,,,,,,2021-08-02,1,,,,,シントウ,0
870,3180001147209,新規,0,2021-08-02,2021-08-02,株式会社ＣＨＩＴＡ美人,,株式会社,愛知県,半田市,住吉町１丁目５７番地,,23,205,4750862,,,,,,,2021-08-02,1,,,,,チタビジン,0
874,3220001024329,新規,0,2021-08-02,2021-08-02,株式会社ＯＮＥ,,株式会社,石川県,河北郡津幡町,字津幡ハ９５,,17,361,9290323,,,,,,,2021-08-02,1,,,,,ワン,0
876,3230001018916,新規,0,2021-08-02,2021-08-02,株式会社ＩＱＵＺＯ,,株式会社,富山県,富山市,東田地方町１丁目５番５２ー９２２号アパガーデンプレイス富山,,16,201,9300017,,,,,,,2021-08-02,1,,,,,イクゾ,0
890,3290001094068,新規,0,2021-08-02,2021-08-02,株式会社ＳＤＩ,,株式会社,福岡県,久留米市,御井町１６４７番地２,,40,203,8390851,,,,,,,2021-08-02,1,,,,,エスディアイ,0
891,3290001094076,新規,0,2021-08-02,2021-08-02,株式会社Ｏｆｆｉｃｅ　Ｋ,,株式会社,福岡県,福岡市博多区,博多駅南３丁目１２番５号,,40,132,8120016,,,,,,,2021-08-02,1,,,,,オフィスケー,0
894,3290003011467,新規,0,2021-08-02,2021-08-02,合同会社詩商事,,合同会社,福岡県,久留米市,櫛原町８８番地,,40,203,8300013,,,,,,,2021-08-02,1,,,,,ウタショウジ,0
909,3350001017229,新規,0,2021-08-02,2021-08-02,株式会社颯興業,,株式会社,宮崎県,日向市,大字日知屋８０９７番地２,,45,206,8830062,,,,,,,2021-08-02,1,,,,,ソウコウギョウ,0
913,3370001047389,新規,0,2021-08-02,2021-08-02,株式会社サンガ新社,,株式会社,宮城県,仙台市青葉区,錦町２丁目４番１６号８階,,04,101,9800012,,,,,,,2021-08-02,1,,,,,サンガシンシャ,0
916,3380001032068,新規,0,2021-08-02,2021-08-02,株式会社ハイタウン,,株式会社,福島県,いわき市,泉ケ丘２丁目３１番地の３,,07,204,9718171,,,,,,,2021-08-02,1,,,,,ハイタウン,0
917,3380001032076,新規,0,2021-08-02,2021-08-02,株式会社アイ・エイド,,株式会社,福島県,河沼郡会津坂下町,大字大沖字上野１１７８番地５,,07,421,9696573,,,,,,,2021-08-02,1,,,,,アイエイド,0
941,4010001220088,新規,0,2021-08-02,2021-08-02,興源株式会社,,株式会社,東京都,千代田区,岩本町２丁目１６番９号大和橋ビル１Ｆ,,13,101,1010032,,,,,,,2021-08-02,1,,,,,コウゲン,0
942,4010001220096,新規,0,2021-08-02,2021-08-02,キョウフジギョウ株式会社,,株式会社,東京都,中央区,東日本橋２丁目２８番５号５０８,,13,102,1030004,,,,,,,2021-08-02,1,,,,,キョウフジギョウ,0
944,4010003035435,新規,0,2021-08-02,2021-08-02,ＧＰＤこだま合同会社,,合同会社,東京都,千代田区,一ツ橋２丁目５番５号,,13,101,1010003,,,,,,,2021-08-02,1,,,,,ジーピーディーコダマ,0
945,4010003035443,新規,0,2021-08-02,2021-08-02,ＧＰＤ彗星合同会社,,合同会社,東京都,千代田区,一ツ橋２丁目５番５号,,13,101,1010003,,,,,,,2021-08-02,1,,,,,ジーピーディースイセイ,0
950,4010005033692,新規,0,2021-08-02,2021-08-02,弁護士法人番町総合法律事務所,,その他の設立登記法人,東京都,千代田区,五番町５番地５号ヒューリック五番町ビル５階,,13,101,1020076,,,,,,,2021-08-02,1,,,,,バンチョウソウゴウホウリツジムショ,0
958,4010401161782,新規,0,2021-08-02,2021-08-02,株式会社アトモズ,,株式会社,東京都,港区,麻布十番２丁目８番１７号斉藤ビル２０１,,13,103,1060045,,,,,,,2021-08-02,1,,,,,アトモズ,0
959,4010401161808,新規,0,2021-08-02,2021-08-02,株式会社ヒヤク,,株式会社,東京都,港区,高輪４丁目１９番１号オーキッドコート高輪３０１,,13,103,1080074,,,,,,,2021-08-02,1,,,,,ヒヤク,0
961,4010403025804,新規,0,2021-08-02,2021-08-02,合同会社燈仁舎,,合同会社,東京都,港区,芝浦４丁目４番２７－１２０８号,,13,103,1080023,,,,,,,2021-08-02,1,,,,,トウジンシャ,0
962,4010403025812,新規,0,2021-08-02,2021-08-02,ＲＢソーラールビー合同会社,,合同会社,東京都,港区,虎ノ門３丁目２２番１０－２０１号,,13,103,1050001,,,,,,,2021-08-02,1,,,,,アールビーソーラールビー,0
967,4010605003979,新規,0,2021-08-02,2021-08-02,一般社団法人匠時間,,その他の設立登記法人,東京都,墨田区,墨田４丁目４４番１０号,,13,107,1310031,,,,,,,2021-08-02,1,,,,,タクミジカン,0
974,4010901049180,新規,0,2021-08-02,2021-08-02,ＬＯＦ株式会社,,株式会社,東京都,世田谷区,鎌田２丁目２３番３号,,13,112,1570077,,,,,,,2021-08-02,1,,,,,エルオーエフ,0
975,4010901049189,新規,0,2021-08-02,2021-08-02,株式会社エスユーサービス,,株式会社,東京都,世田谷区,桜丘５丁目１３番１１－２０２号,,13,112,1560054,,,,,,,2021-08-02,1,,,,,エスユーサービス,0
976,4010903006700,新規,0,2021-08-02,2021-08-02,合同会社ＢＬＭ,,合同会社,東京都,世田谷区,若林４丁目１４番２３号,,13,112,1540023,,,,,,,2021-08-02,1,,,,,ビーエルエム,0
983,4011001142017,新規,0,2021-08-02,2021-08-02,株式会社東京シュリンプ,,株式会社,東京都,渋谷区,鶯谷町１９番１９号ソフィアハウス１階,,13,113,1500032,,,,,,,2021-08-02,1,,,,,トウキョウシュリンプ,0
984,4011001142025,新規,0,2021-08-02,2021-08-02,株式会社ｙｏｕｓｅｎ,,株式会社,東京都,渋谷区,桜丘町２６番１号セルリアンタワー１５階,,13,113,1500031,,,,,,,2021-08-02,1,,,,,ヨウセン,0
985,4011003013125,新規,0,2021-08-02,2021-08-02,２ｎｄＬＩＮＥ合同会社,,合同会社,東京都,目黒区,目黒本町６丁目５番９号,,13,110,1520002,,,,,,,2021-08-02,1,,,,,セカンドライン,0
991,4011103010906,新規,0,2021-08-02,2021-08-02,Ｅｎｕｍａ　Ｊａｐａｎ合同会社,,合同会社,東京都,新宿区,舟町１５番地４４Ｇ＆Ｐビル,,13,104,1600006,,,,,,,2021-08-02,1,,,,,エヌマジャパン,0
993,4011203003603,新規,0,2021-08-02,2021-08-02,合同会社リヒト,,合同会社,東京都,中野区,中野５丁目３２番９号ハウスポート中野１０２,,13,114,1640001,,,,,,,2021-08-02,1,,,,,,0
1025,4020001142414,新規,0,2021-08-02,2021-08-02,株式会社Ｃｉｎｅｍａｔｏｒｉｃｏ,,株式会社,神奈川県,川崎市中原区,新丸子町７６５番地新丸子ハイツ２０６,,14,133,2110005,,,,,,,2021-08-02,1,,,,,シネマトリコ,0
1026,4020001142422,新規,0,2021-08-02,2021-08-02,Ｒｉｎｇ－Ｌｉｎｋ株式会社,,株式会社,神奈川県,川崎市宮前区,宮崎２丁目９番地６ＢＬＥＳＳ宮崎台１３０６,,14,136,2160033,,,,,,,2021-08-02,1,,,,,リングリンク,0
1027,4020001142430,新規,0,2021-08-02,2021-08-02,株式会社なお新,,株式会社,神奈川県,横浜市戸塚区,上倉田町１９４１番地１,,14,110,2440816,,,,,,,2021-08-02,1,,,,,ナオアラタ,0
1030,4020003020254,新規,0,2021-08-02,2021-08-02,サカキバランド合同会社,,合同会社,神奈川県,横浜市中区,山下町２５番地ハリレラハウス７Ｆ,,14,104,2310023,,,,,,,2021-08-02,1,,,,,サカキバランド,0
1031,4020003020262,新規,0,2021-08-02,2021-08-02,合同会社オフィスおおやま,,合同会社,神奈川県,横浜市港北区,篠原東１丁目１２番１９号,,14,109,2220022,,,,,,,2021-08-02,1,,,,,オフィスオオヤマ,0
1042,4030001143592,新規,0,2021-08-02,2021-08-02,木下会計コンサルティング株式会社,,株式会社,埼玉県,川越市,新富町２丁目２２番地八十二銀行ビル４階,,11,201,3500043,,,,,,,2021-08-02,1,,,,,キノシタカイケイコンサルティング,0
1067,4050001049615,新規,0,2021-08-02,2021-08-02,株式会社Ｆ＆Ｅ,,株式会社,茨城県,水戸市,笠原町１６９５番地の１一階,,08,201,3100852,,,,,,,2021-08-02,1,,,,,エフアンドイー,0
1073,4070001038310,新規,0,2021-08-02,2021-08-02,凱高産業株式会社,,株式会社,群馬県,太田市,熊野町６－１,,10,205,3730025,,,,,,,2021-08-02,1,,,,,ガイコウサンギョウ,0
1086,4090003001917,新規,0,2021-08-02,2021-08-02,合同会社ＯＮＥ’Ｓ　ｄｅｓｉｇｎ,,合同会社,山梨県,甲斐市,西八幡１４１２,,19,210,4000117,,,,,,,2021-08-02,1,,,,,ワンズデザイン,0
1093,4110005016679,新規,0,2021-08-02,2021-08-02,特定非営利活動法人上越名家ネットワーク,,その他の設立登記法人,新潟県,上越市,頸城区百間町７８７番地１,,15,222,9420127,,,,,,,2021-08-02,1,,,,,ジョウエツメイカネットワーク,0
1105,4120003019939,新規,0,2021-08-02,2021-08-02,合同会社二本松太陽光発電所,,合同会社,大阪府,大阪市北区,堂島浜１丁目２番１号新ダイビル２３階,,27,127,5300004,,,,,,,2021-08-02,1,,,,,ニホンマツタイヨウコウハツデンショ,0
1114,4130001069828,新規,0,2021-08-02,2021-08-02,株式会社ｅｉｅｉｏ,,株式会社,京都府,京都市南区,東九条中御霊町５２番地,,26,107,6018027,,,,,,,2021-08-02,1,,,,,エイエイオウ,0
1116,4130003007397,新規,0,2021-08-02,2021-08-02,ＡｇｇｒｏＢｉｒｄ合同会社,,合同会社,京都府,京都市中京区,烏丸通三条東入ル梅忠町２４番地三条ＣＯＨＪＵビル４階,,26,104,6040000,,,,,,,2021-08-02,1,,,,,アグロバード,0
1125,4140001122404,新規,0,2021-08-02,2021-08-02,タクト通商株式会社,,株式会社,兵庫県,神戸市須磨区,天神町４丁目４番３５号アスミビル２Ｆ,,28,107,6540053,,,,,,,2021-08-02,1,,,,,タクトツウショウ,0
1126,4140001122437,新規,0,2021-08-02,2021-08-02,オー・ウェイ株式会社,,株式会社,兵庫県,川西市,緑台４丁目２番地の５９,,28,217,6660129,,,,,,,2021-08-02,1,,,,,オーウェイ,0
1127,4140001122511,新規,0,2021-08-02,2021-08-02,株式会社７８ｃｏｎｔｉｎｕｅ,,株式会社,兵庫県,神戸市東灘区,魚崎南町４丁目１４番１０－７０８号,,28,101,6580025,,,,,,,2021-08-02,1,,,,,ナナハチコンティニュー,0
1129,4140003016579,新規,0,2021-08-02,2021-08-02,ＨＫＴメンテナンス合同会社,,合同会社,兵庫県,尼崎市,上ノ島町１丁目６番１０号,,28,202,6610014,,,,,,,2021-08-02,1,,,,,エイチケーティーメンテナンス,0
1137,4160001023518,新規,0,2021-08-02,2021-08-02,株式会社コネクトスマイル,,株式会社,滋賀県,甲賀市,甲南町寺庄１６０９番地西宮２０９号室,,25,209,5203301,,,,,,,2021-08-02,1,,,,,コネクトスマイル,0
1141,4180001147208,新規,0,2021-08-02,2021-08-02,ＧＯＧＯシェア株式会社,,株式会社,愛知県,名古屋市中区,上前津２丁目１０番２８号,,23,106,4600013,,,,,,,2021-08-02,1,,,,,ゴーゴーシェア,0
1143,4180003022796,新規,0,2021-08-02,2021-08-02,合同会社ＴＯＵＪＩ　ＧＲＡＰＨＩＣＡ,,合同会社,愛知県,名古屋市中区,大須１丁目７番１４号パークＩＭビル２Ｆ,,23,106,4600011,,,,,,,2021-08-02,1,,,,,トウジグラフィカ,0
1146,4190001028555,新規,0,2021-08-02,2021-08-02,株式会社スマートプラス,,株式会社,三重県,津市,垂水１９１１番地１,,24,201,5140821,,,,,,,2021-08-02,1,,,,,スマートプラス,0
1152,4200001038949,新規,0,2021-08-02,2021-08-02,ＳＴＡＲ　ＯＦ　ＡＳＰＩＲＡＴＩＯＮ株式会社,,株式会社,岐阜県,岐阜市,茜部野瀬１丁目４３番地,,21,201,5008283,,,,,,,2021-08-02,1,,,,,スターオブアスピレーション,0
1168,4240003005217,新規,0,2021-08-02,2021-08-02,合同会社ＮＵＴＳ,,合同会社,広島県,広島市中区,幟町３－６０サムティ幟町６０２,,34,101,7300016,,,,,,,2021-08-02,1,,,,,ナッツ,0
1175,4290001094059,新規,0,2021-08-02,2021-08-02,株式会社Ｍｉｒａｉ,,株式会社,福岡県,福岡市中央区,天神２丁目３番１０号天神パインクレスト７１９号,,40,133,8100001,,,,,,,2021-08-02,1,,,,,ミライ,0
1176,4290001094075,新規,0,2021-08-02,2021-08-02,株式会社北吉設備,,株式会社,福岡県,福岡市博多区,東月隈３丁目１７番７号,,40,132,8120854,,,,,,,2021-08-02,1,,,,,キタヨシセツビ,0
1179,4290003011466,新規,0,2021-08-02,2021-08-02,合同会社菅創,,合同会社,福岡県,春日市,昇町３丁目１５５番地,,40,218,8160851,,,,,,,2021-08-02,1,,,,,カンソウ,0
1194,4350005006020,新規,0,2021-08-02,2021-08-02,一般社団法人メンタルケアＯｎｅＷｉｎ,,その他の設立登記法人,宮崎県,宮崎市,生目台東３丁目１２番地５,,45,201,8800942,,,,,,,2021-08-02,1,,,,,メンタルケアワンウィン,0
1198,4360003011335,新規,0,2021-08-02,2021-08-02,合同会社ハート,,合同会社,沖縄県,宮古島市,平良字東仲宗根８９４番地７,,47,214,9060007,,,,,,,2021-08-02,1,,,,,,0
1200,4370001047396,新規,0,2021-08-02,2021-08-02,株式会社スイーツ＆スイーツ,,株式会社,宮城県,登米市,中田町石森字加賀野３丁目８番地２０,,04,212,9870601,,,,,,,2021-08-02,1,,,,,スイーツアンドスイーツ,0
1201,4370001047413,新規,0,2021-08-02,2021-08-02,Ｋ・Ｄエネルギー株式会社,,株式会社,宮城県,角田市,毛萱字南戸ノ内２１番地,,04,208,9811517,,,,,,,2021-08-02,1,,,,,ケイディーエネルギー,0
1227,4490001009946,新規,0,2021-08-02,2021-08-02,ニチエイホーム株式会社,,株式会社,高知県,高知市,高須２丁目２番２０号,,39,201,7818104,,,,,,,2021-08-02,1,,,,,ニチエイホーム,0
1241,5010001220062,新規,0,2021-08-02,2021-08-02,ｔｓｕｚｕｋｉ　ＢＡＳＥ株式会社,,株式会社,東京都,千代田区,平河町２丁目７番２号９Ｆ,,13,101,1020093,,,,,,,2021-08-02,1,,,,,ツヅキベース,0
1242,5010001220087,新規,0,2021-08-02,2021-08-02,ＨＡＲＰ株式会社,,株式会社,東京都,千代田区,丸の内３丁目４番１号新国際ビル６階,,13,101,1000005,,,,,,,2021-08-02,1,,,,,ハープ,0
1243,5010001220104,新規,0,2021-08-02,2021-08-02,株式会社Ｍａｘｅｆｆ,,株式会社,東京都,千代田区,平河町２丁目５番３号,,13,101,1020093,,,,,,,2021-08-02,1,,,,,マクゼフ,0
1245,5010003035335,新規,0,2021-08-02,2021-08-02,合同会社トリニティ・ワン,,合同会社,東京都,千代田区,内幸町２丁目１番６号,,13,101,1000011,,,,,,,2021-08-02,1,,,,,トリニティワン,0
1246,5010003035434,新規,0,2021-08-02,2021-08-02,ＧＰＤひかり合同会社,,合同会社,東京都,千代田区,一ツ橋２丁目５番５号,,13,101,1010003,,,,,,,2021-08-02,1,,,,,ジーピーディーヒカリ,0
1247,5010003035442,新規,0,2021-08-02,2021-08-02,ＧＰＤあかつき合同会社,,合同会社,東京都,千代田区,一ツ橋２丁目５番５号,,13,101,1010003,,,,,,,2021-08-02,1,,,,,ジーピーディーアカツキ,0
1248,5010003035475,新規,0,2021-08-02,2021-08-02,翔雲合同会社,,合同会社,東京都,中央区,銀座１丁目１２番４号Ｎ＆ＥＢＬＤ７階,,13,102,1040061,,,,,,,2021-08-02,1,,,,,ショウウン,0
1257,5010401161781,新規,0,2021-08-02,2021-08-02,株式会社ｎｅｐｉ,,株式会社,東京都,港区,港南４丁目２番７シティタワー品川２００１号室,,13,103,1080075,,,,,,,2021-08-02,1,,,,,ネピ,0
1258,5010401161815,新規,0,2021-08-02,2021-08-02,株式会社Ｇ－ｕｎｉｃａｔｅ,,株式会社,東京都,港区,芝３丁目３２番１０－８０３号,,13,103,1050014,,,,,,,2021-08-02,1,,,,,ジーユニケイト,0
1259,5010403025811,新規,0,2021-08-02,2021-08-02,ＲＢソーラーサファイア合同会社,,合同会社,東京都,港区,虎ノ門３丁目２２番１０－２０１号,,13,103,1050001,,,,,,,2021-08-02,1,,,,,アールビーソーラーサファイア,0
1268,5010903006699,新規,0,2021-08-02,2021-08-02,合同会社デジタル・ビジネス・ラボ,,合同会社,東京都,世田谷区,深沢５丁目１６番２２号,,13,112,1580081,,,,,,,2021-08-02,1,,,,,デジタルビジネスラボ,0
1276,5011001141959,新規,0,2021-08-02,2021-08-02,株式会社ｅｍｉｎｅｓｓ,,株式会社,東京都,渋谷区,神宮前３丁目３２番２号,,13,113,1500001,,,,,,,2021-08-02,1,,,,,エミネス,0
1277,5011001142008,新規,0,2021-08-02,2021-08-02,株式会社Ｄｉｌｉｔｙ,,株式会社,東京都,目黒区,大橋１丁目２番１０－２０８号ライオンズプラザ池尻大橋,,13,110,1530044,,,,,,,2021-08-02,1,,,,,ディリティ,0
1281,5011003013157,新規,0,2021-08-02,2021-08-02,ＨＩＫＡＲＩ　Ｌｉｖｅｒ　Ｏｆｆｉｃｅ合同会社,,合同会社,東京都,渋谷区,神宮前６丁目２３番４号桑野ビル２階,,13,113,1500001,,,,,,,2021-08-02,1,,,,,ヒカリライバーオフィス,0
1288,5011101095849,新規,0,2021-08-02,2021-08-02,株式会社ｉファシリティーズ,,株式会社,東京都,新宿区,西新宿４丁目１５番３号住友不動産西新宿ビル３号館７階,,13,104,1600023,,,,,,,2021-08-02,1,,,,,アイファシリティーズ,0
1290,5011103010913,新規,0,2021-08-02,2021-08-02,合同会社タベタノ,,合同会社,東京都,新宿区,新宿１丁目３６番２号新宿第七葉山ビル３階,,13,104,1600022,,,,,,,2021-08-02,1,,,,,タベタノ,0
1298,5011701024587,新規,0,2021-08-02,2021-08-02,株式会社ＳＥＥＤ,,株式会社,東京都,江戸川区,西小岩１丁目２２－１小岩東総ハイツ７０３号,,13,123,1330057,,,,,,,2021-08-02,1,,,,,シード,0
1299,5011703002905,新規,0,2021-08-02,2021-08-02,５０－５０合同会社,,合同会社,東京都,江戸川区,船堀１丁目８－２２－１２０４,,13,123,1340091,,,,,,,2021-08-02,1,,,,,フィフティーフィフティー,0
1318,5020001142413,新規,0,2021-08-02,2021-08-02,株式会社ＩＴＡＤＡＫＩ,,株式会社,神奈川県,横浜市都筑区,茅ケ崎中央２１番１２号森村ビル５０１,,14,118,2240032,,,,,,,2021-08-02,1,,,,,イタダキ,0
1319,5020001142421,新規,0,2021-08-02,2021-08-02,日水テック株式会社,,株式会社,神奈川県,横浜市中区,本牧元町２７番１５号,,14,104,2310822,,,,,,,2021-08-02,1,,,,,ニッスイテック,0
1326,5021001073516,新規,0,2021-08-02,2021-08-02,ＴＦアドバンス株式会社,,株式会社,神奈川県,鎌倉市,岡本１５００－１３－５１１,,14,204,2470072,,,,,,,2021-08-02,1,,,,,ティーエフアドバンス,0
1327,5021001073549,新規,0,2021-08-02,2021-08-02,安東塗装店株式会社,,株式会社,神奈川県,高座郡寒川町,大蔵３６３番地,,14,321,2530104,,,,,,,2021-08-02,1,,,,,アンドウトソウテン,0
1332,5030001143550,新規,0,2021-08-02,2021-08-02,株式会社アドバンス住販,,株式会社,埼玉県,入間市,牛沢町３番２号,,11,225,3580051,,,,,,,2021-08-02,1,,,,,アドバンスジュウハン,0
1333,5030001143600,新規,0,2021-08-02,2021-08-02,株式会社ＳＰＫＧ,,株式会社,埼玉県,さいたま市大宮区,寿能町２丁目２１１番地３,,11,103,3300805,,,,,,,2021-08-02,1,,,,,エスピーケージー,0
1337,5030003017703,新規,0,2021-08-02,2021-08-02,合同会社侶偉,,合同会社,埼玉県,川口市,上青木６丁目３８番１０号わかばビルⅡ４０１号,00123807,11,203,3330844,,,,,,,2021-08-02,1,,,,,ロイ,0
1338,5030005020465,新規,0,2021-08-02,2021-08-02,特定非営利活動法人リビングサービス,,その他の設立登記法人,埼玉県,さいたま市大宮区,高鼻町１丁目５１－１三石ビル１Ｆ,,11,103,3300803,,,,,,,2021-08-02,1,,,,,リビングサービス,0
1339,5040001119574,新規,0,2021-08-02,2021-08-02,ＨＡＧ株式会社,,株式会社,千葉県,袖ケ浦市,のぞみ野７５番地７,,12,229,2990251,,,,,,,2021-08-02,1,,,,,エイチエージー,0
1340,5040001119582,新規,0,2021-08-02,2021-08-02,株式会社エスエイチ,,株式会社,千葉県,流山市,松ケ丘４丁目５１４番地の１２０,,12,220,2700141,,,,,,,2021-08-02,1,,,,,エスエイチ,0
1341,5040003018246,新規,0,2021-08-02,2021-08-02,ＮＫフーズサプライ合同会社,,合同会社,千葉県,鎌ケ谷市,東中沢１丁目１２番１６号,,12,224,2730112,,,,,,,2021-08-02,1,,,,,エヌケーフーズサプライ,0
1344,5050001049589,新規,0,2021-08-02,2021-08-02,株式会社古河花桃どうぶつ病院,,株式会社,茨城県,古河市,松並２丁目６番１８号,,08,204,3060021,,,,,,,2021-08-02,1,,,,,コガハナモモドウブツビョウイン,0
1361,5100001034478,新規,0,2021-08-02,2021-08-02,株式会社２４３６５,,株式会社,長野県,松本市,梓川倭５３２－１,,20,202,3901701,,,,,,,2021-08-02,1,,,,,ニーヨンサンロクゴ,0
1379,5120001239422,新規,0,2021-08-02,2021-08-02,株式会社Ｆｏｎｔａｎｉｑｕｅ,,株式会社,大阪府,大阪市西淀川区,野里２丁目２０番１２号メゾンレオ野里４０５,,27,113,5550024,,,,,,,2021-08-02,1,,,,,フォンテニーク,0
1380,5120001239439,新規,0,2021-08-02,2021-08-02,株式会社アルズ,,株式会社,大阪府,守口市,大庭町１丁目１６番５号,,27,209,5700009,,,,,,,2021-08-02,1,,,,,アルズ,0
1384,5120005022411,新規,0,2021-08-02,2021-08-02,特定非営利活動法人ＯＳＡＫＡ　ＣＲＡＺＹ　ＧＩＲＬＳ,,その他の設立登記法人,大阪府,大阪市阿倍野区,三明町１丁目７番２５号,,27,119,5450005,,,,,,,2021-08-02,1,,,,,オオサカクレイジーガールズ,0
1390,5120901044707,新規,0,2021-08-02,2021-08-02,株式会社京阪神ビジネスサービス,,株式会社,大阪府,摂津市,鳥飼本町４丁目１６番５号,,27,224,5660052,,,,,,,2021-08-02,1,,,,,ケイハンシンビジネスサービス,0
1395,5122001035041,新規,0,2021-08-02,2021-08-02,株式会社ＬＯＬ,,株式会社,大阪府,八尾市,山本町北２丁目３－７,,27,212,5810831,,,,,,,2021-08-02,1,,,,,ロウル,0
1411,5130005016239,新規,0,2021-08-02,2021-08-02,一般社団法人おこしやす京都へ,,その他の設立登記法人,京都府,京都市東山区,清閑寺霊山町５－４１,,26,105,6050861,,,,,,,2021-08-02,1,,,,,オコシヤスキョウトヘ,0
1421,5140001122535,新規,0,2021-08-02,2021-08-02,サニーガーデン株式会社,,株式会社,兵庫県,芦屋市,精道町６番１５号桑原ビル３階,,28,206,6590064,,,,,,,2021-08-02,1,,,,,サニーガーデン,0
1430,5140003016520,新規,0,2021-08-02,2021-08-02,合同会社ＭＡＲＫＥ　ＳＭＩＬＥ,,合同会社,兵庫県,加古川市,加古川町篠原町１３－３加古川まいるビル１階,,28,210,6750065,,,,,,,2021-08-02,1,,,,,マーケスマイル,0
1431,5140003016545,新規,0,2021-08-02,2021-08-02,合同会社ソキウスケアマネジメント,,合同会社,兵庫県,川西市,湯山台１丁目２８－２０,,28,217,6660137,,,,,,,2021-08-02,1,,,,,ソキウスケアマネジメント,0
1432,5140003016586,新規,0,2021-08-02,2021-08-02,合同会社Ｂｅｅ’ｓ　Ｇａｒｄｅｎ,,合同会社,兵庫県,芦屋市,海洋町３－２９,,28,206,6590035,,,,,,,2021-08-02,1,,,,,ビーズガーデン,0
1438,5150001024821,新規,0,2021-08-02,2021-08-02,株式会社東野商事,,株式会社,奈良県,桜井市,大字外山１０４０番地の１,,29,206,6330007,,,,,,,2021-08-02,1,,,,,ヒガシノショウジ,0
1439,5150003002445,新規,0,2021-08-02,2021-08-02,大学入試ドットコム合同会社,,合同会社,奈良県,橿原市,雲梯町８５９番地の１スカイレジデンス１０１号室,,29,205,6340834,,,,,,,2021-08-02,1,,,,,ダイガクニュウシドットコム,0
1440,5170003001610,新規,0,2021-08-02,2021-08-02,合同会社紀成,,合同会社,和歌山県,和歌山市,田尻１８８番地,,30,201,6410005,,,,,,,2021-08-02,1,,,,,キナリ,0
1450,5180001147181,新規,0,2021-08-02,2021-08-02,株式会社クルマ屋,,株式会社,愛知県,名古屋市守山区,八剣２丁目１５１５番地サンシティ八剣２－１Ａ,,23,113,4630022,,,,,,,2021-08-02,1,,,,,クルマヤ,0
1452,5180005019385,新規,0,2021-08-02,2021-08-02,社会福祉法人大同宏緑会,,その他の設立登記法人,愛知県,東海市,名和町長生９番,,23,222,4760002,,,,,,,2021-08-02,1,,,,,ダイドウコウリョクカイ,0
1462,5200005013229,新規,0,2021-08-02,2021-08-02,医療法人楡のもり,,その他の設立登記法人,岐阜県,各務原市,蘇原野口町５丁目１３０番地,,21,213,5040854,,,,,,,2021-08-02,1,,,,,ニレノモリ,0
1463,5210005009977,新規,0,2021-08-02,2021-08-02,一般財団法人杉本育文化財団,,その他の設立登記法人,福井県,福井市,新保１丁目１２０１番地,,18,201,9100833,,,,,,,2021-08-02,1,,,,,スギモトイクブンカザイダン,0
1471,5240003005216,新規,0,2021-08-02,2021-08-02,ＴＫＳ合同会社,,合同会社,広島県,安芸郡熊野町,城之堀６丁目７－１,,34,307,7314215,,,,,,,2021-08-02,1,,,,,ティーケイエス,0
1485,5290005018293,新規,0,2021-08-02,2021-08-02,ＮＰＯ法人子どもアドボカシーセンター福岡,,その他の設立登記法人,福岡県,福岡市中央区,警固２丁目１７番２６－８０４号秀和警固レジデンス,,40,133,8100023,,,,,,,2021-08-02,1,,,,,コドモアドボカシーセンターフクオカ,0
1489,5300003001704,新規,0,2021-08-02,2021-08-02,合同会社Ｆｅｅｌ　Ｆｒｅｅ,,合同会社,佐賀県,西松浦郡有田町,楠木原乙３７９,,41,401,8494175,,,,,,,2021-08-02,1,,,,,フィールフリー,0
1494,5320001018517,新規,0,2021-08-02,2021-08-02,株式会社ヴィントシュティレ,,株式会社,大分県,大分市,城崎町２丁目４番２８号ヴィラ城崎６０２,,44,201,8700045,,,,,,,2021-08-02,1,,,,,ヴィントシュティレ,0
1499,5330003008985,新規,0,2021-08-02,2021-08-02,合同会社ＡＳＯ　ＴＯＰ,,合同会社,熊本県,阿蘇郡高森町,大字色見１７２４番地,,43,428,8691603,,,,,,,2021-08-02,1,,,,,アソトップ,0
1500,5330003008993,新規,0,2021-08-02,2021-08-02,合同会社ＳＥＮ,,合同会社,熊本県,熊本市中央区,桜町１番２５号未来会議室,,43,101,8600805,,,,,,,2021-08-02,1,,,,,エスイーエヌ,0
1508,5370001047404,新規,0,2021-08-02,2021-08-02,株式会社ＬＯＫＡＨＩ,,株式会社,宮城県,仙台市泉区,北高森３５番地の１,,04,105,9813202,,,,,,,2021-08-02,1,,,,,ロカヒ,0
1512,5400001015522,新規,0,2021-08-02,2021-08-02,株式会社ＬＯＢＢＹ,,株式会社,岩手県,北上市,和賀町藤根１４地割１００,,03,206,0240334,,,,,,,2021-08-02,1,,,,,ロビー,0
1525,5430003012985,新規,0,2021-08-02,2021-08-02,合同会社ＦＳデンタルラボ,,合同会社,北海道,札幌市南区,澄川三条２丁目５番５号,,01,106,0050003,,,,,,,2021-08-02,1,,,,,エフエスデンタルラボ,0
1527,5460001005575,新規,0,2021-08-02,2021-08-02,株式会社イーアンドイート,,株式会社,北海道,釧路市,緑ケ岡５丁目１６番３８号,,01,206,0850814,,,,,,,2021-08-02,1,,,,,イーアンドイート,0
1539,6010001220103,新規,0,2021-08-02,2021-08-02,ＧＳホールディングス株式会社,,株式会社,東京都,千代田区,大手町１丁目７番２号,,13,101,1000004,,,,,,,2021-08-02,1,,,,,ジーエスホールディングス,0
1540,6010001220111,新規,0,2021-08-02,2021-08-02,株式会社ＮＫＧ,,株式会社,東京都,千代田区,永田町２丁目１４番３号,,13,101,1000014,,,,,,,2021-08-02,1,,,,,エヌケージー,0
1542,6010003035433,新規,0,2021-08-02,2021-08-02,ＧＰＤのぞみ合同会社,,合同会社,東京都,千代田区,一ツ橋２丁目５番５号,,13,101,1010003,,,,,,,2021-08-02,1,,,,,ジーピーディーノゾミ,0
1543,6010003035441,新規,0,2021-08-02,2021-08-02,ＧＰＤ明星合同会社,,合同会社,東京都,千代田区,一ツ橋２丁目５番５号,,13,101,1010003,,,,,,,2021-08-02,1,,,,,ジーピーディーミョウジョウ,0
1544,6010003035474,新規,0,2021-08-02,2021-08-02,合同会社カチダス,,合同会社,東京都,千代田区,二番町１番地２,,13,101,1020084,,,,,,,2021-08-02,1,,,,,カチダス,0
1548,6010401161789,新規,0,2021-08-02,2021-08-02,株式会社キープフェイス,,株式会社,東京都,港区,高輪３丁目１９番２２－９０５号,,13,103,1080074,,,,,,,2021-08-02,1,,,,,キープフェイス,0
1551,6010501047640,新規,0,2021-08-02,2021-08-02,テンルアセットマネージメント株式会社,,株式会社,東京都,台東区,台東３丁目１番４号,,13,106,1100016,,,,,,,2021-08-02,1,,,,,テンルアセットマネージメント,0
1554,6010503006339,新規,0,2021-08-02,2021-08-02,Ｌ＆Ｎ合同会社,,合同会社,東京都,台東区,東上野２丁目４番３号,,13,106,1100015,,,,,,,2021-08-02,1,,,,,エルアンドエヌ,0
1562,6010801032185,新規,0,2021-08-02,2021-08-02,ａ－ｓｔｅｐ株式会社,,株式会社,東京都,大田区,西糀谷３丁目２４番６号,,13,111,1440034,,,,,,,2021-08-02,1,,,,,アステップ,0
1564,6010901049187,新規,0,2021-08-02,2021-08-02,株式会社杏世,,株式会社,東京都,世田谷区,弦巻４丁目２０番２号,,13,112,1540016,,,,,,,2021-08-02,1,,,,,アンセイ,0
1566,6010903006698,新規,0,2021-08-02,2021-08-02,合同会社セブンラーク,,合同会社,東京都,世田谷区,代沢３丁目１７番１７号,,13,112,1550032,,,,,,,2021-08-02,1,,,,,セブンラーク,0
1582,6011101095864,新規,0,2021-08-02,2021-08-02,株式会社ＭＭＳ,,株式会社,東京都,新宿区,西新宿７丁目１番７号新宿ダイカンプラザＡ１０１８,,13,104,1600023,,,,,,,2021-08-02,1,,,,,エムエムエス,0
1583,6011101095872,新規,0,2021-08-02,2021-08-02,株式会社サビハ,,株式会社,東京都,新宿区,百人町２丁目２２番３号岡田屋ビル１－Ｄ,,13,104,1690073,,,,,,,2021-08-02,1,,,,,サビハ,0
1584,6011101095889,新規,0,2021-08-02,2021-08-02,株式会社谷口実業ホールディングス,,株式会社,東京都,新宿区,新宿５丁目９番１０号Ｇ’ｓＧＲＡＮＤ新宿,,13,104,1600022,,,,,,,2021-08-02,1,,,,,タニグチジツギョウホールディングス,0
1585,6011101095897,新規,0,2021-08-02,2021-08-02,株式会社アサセハウジング,,株式会社,東京都,新宿区,高田馬場２丁目１４番２７号花富士ビル２階,,13,104,1690075,,,,,,,2021-08-02,1,,,,,アサセハウジング,0
1587,6011103010895,新規,0,2021-08-02,2021-08-02,合同会社リードケアーサービス,,合同会社,東京都,新宿区,大久保１丁目１番４９号タキカワビル２階,,13,104,1690072,,,,,,,2021-08-02,1,,,,,リードケアーサービス,0
1588,6011103010904,新規,0,2021-08-02,2021-08-02,ＭＫマネジメント合同会社,,合同会社,東京都,新宿区,北新宿１丁目８－２２－２０１,,13,104,1690074,,,,,,,2021-08-02,1,,,,,エムケーマネジメント,0
1602,6012801020987,新規,0,2021-08-02,2021-08-02,株式会社立川建装,,株式会社,東京都,立川市,若葉町３丁目６９－３１,,13,202,1900001,,,,,,,2021-08-02,1,,,,,タチカワケンソウ,0
1608,6020001142404,新規,0,2021-08-02,2021-08-02,株式会社ウッドベル２ｎｄ,,株式会社,神奈川県,横浜市旭区,白根７丁目２－１,,14,112,2410005,,,,,,,2021-08-02,1,,,,,ウッドベルセカンド,0
1622,6030001143574,新規,0,2021-08-02,2021-08-02,株式会社ＨＯＯＤ　ＳＴＡＲ,,株式会社,埼玉県,入間市,扇台６丁目２番１号１,,11,225,3580023,,,,,,,2021-08-02,1,,,,,フッドスター,0
1623,6030001143624,新規,0,2021-08-02,2021-08-02,株式会社こうや,,株式会社,埼玉県,北葛飾郡杉戸町,倉松２丁目１１番３９号,,11,464,3450034,,,,,,,2021-08-02,1,,,,,コウヤ,0
1633,6030003017710,新規,0,2021-08-02,2021-08-02,恒生商事合同会社,,合同会社,埼玉県,越谷市,大字大林２５３番地３５メゾンドミール２０１,,11,222,3430021,,,,,,,2021-08-02,1,,,,,コウセイショウジ,0
1638,6040001119557,新規,0,2021-08-02,2021-08-02,株式会社京葉リフォーム,,株式会社,千葉県,千葉市若葉区,都賀２丁目１２番１９号,,12,104,2640025,,,,,,,2021-08-02,1,,,,,ケイヨウリフォーム,0
1639,6040001119565,新規,0,2021-08-02,2021-08-02,株式会社天温堂江口薬局,,株式会社,千葉県,八千代市,勝田台１丁目３２番地２,,12,221,2760023,,,,,,,2021-08-02,1,,,,,テンオンドウエグチヤッキョク,0
1640,6040001119573,新規,0,2021-08-02,2021-08-02,株式会社日野商事,,株式会社,千葉県,船橋市,市場２丁目１番２１－８０１号,,12,204,2730001,,,,,,,2021-08-02,1,,,,,ヒノショウジ,0
1641,6040001119581,新規,0,2021-08-02,2021-08-02,株式会社生浜エステートコンサル,,株式会社,千葉県,市原市,君塚２丁目２０番地１３,,12,219,2900051,,,,,,,2021-08-02,1,,,,,オイハマエステートコンサル,0
1658,6070001038309,新規,0,2021-08-02,2021-08-02,株式会社キングワールド,,株式会社,群馬県,みどり市,笠懸町西鹿田８６番地,,10,212,3792314,,,,,,,2021-08-02,1,,,,,キングワールド,0
1678,6110005016685,新規,0,2021-08-02,2021-08-02,椎茸工房協同組合,,その他の設立登記法人,新潟県,南魚沼市,今町１２４２番,,15,226,9497313,,,,,,,2021-08-02,1,,,,,シイタケコウボウ,0
1690,6120001239421,新規,0,2021-08-02,2021-08-02,株式会社知るラボ,,株式会社,大阪府,大阪市中央区,備後町３丁目１－１１メイソンビル３階,,27,128,5410051,,,,,,,2021-08-02,1,,,,,シルラボ,0
1691,6120001239462,新規,0,2021-08-02,2021-08-02,株式会社燈,,株式会社,大阪府,大阪市鶴見区,今津南４丁目４番３２号,,27,124,5380043,,,,,,,2021-08-02,1,,,,,アカシ,0
1699,6122001035032,新規,0,2021-08-02,2021-08-02,株式会社ＩＮＦＩＮＩＴＹ８,,株式会社,大阪府,大東市,赤井３丁目１４番５９号メゾンエクセレント２０２号,,27,218,5740046,,,,,,,2021-08-02,1,,,,,インフィニティエイト,0
1700,6122001035040,新規,0,2021-08-02,2021-08-02,伊賀環境サービス株式会社,,株式会社,大阪府,東大阪市,若江西新町３丁目１番５号,,27,227,5780944,,,,,,,2021-08-02,1,,,,,イガカンキョウサービス,0
1703,6122005003571,新規,0,2021-08-02,2021-08-02,一般社団法人トライアンフ１１０,,その他の設立登記法人,大阪府,大東市,扇町１３番９－７０１号,,27,218,5740033,,,,,,,2021-08-02,1,,,,,トライアンフ,0
1722,6140001122501,新規,0,2021-08-02,2021-08-02,株式会社Ｋ．Ｇ．Ａ,,株式会社,兵庫県,南あわじ市,松帆西路１２０７番地１,,28,224,6560314,,,,,,,2021-08-02,1,,,,,ケイジーエイ,0
1725,6140003016577,新規,0,2021-08-02,2021-08-02,合同会社ものがたり工作所,,合同会社,兵庫県,神戸市須磨区,高倉町２丁目１番２３－５０２号,,28,107,6540074,,,,,,,2021-08-02,1,,,,,モノガタリコウサクショ,0
1726,6140003016585,新規,0,2021-08-02,2021-08-02,ＪＫＲＭ合同会社,,合同会社,兵庫県,芦屋市,翠ケ丘町２０番４号１０１,,28,206,6590014,,,,,,,2021-08-02,1,,,,,ジェイケーアールエム,0
1729,6140005025766,新規,0,2021-08-02,2021-08-02,一般社団法人ビジョントレーニングサポート協会,,その他の設立登記法人,兵庫県,尼崎市,水明町１３番地の１２、水明マンション１階,,28,202,6600082,,,,,,,2021-08-02,1,,,,,ビジョントレーニングサポートキョウカイ,0
1730,6150001024829,新規,0,2021-08-02,2021-08-02,株式会社Ｔ－Ｃｒｅｗ,,株式会社,奈良県,奈良市,三条大路１丁目８番２３号・大一車両ビル１Ｆ,,29,201,6308013,,,,,,,2021-08-02,1,,,,,ティークルー,0
1731,6150003002444,新規,0,2021-08-02,2021-08-02,合同会社Ｒａｂｂｙ,,合同会社,奈良県,生駒市,辻町３９９番地４７－２８－１０２,00123812,29,209,6300212,,,,,,,2021-08-02,1,,,,,ラビー,0
1748,6180001147206,新規,0,2021-08-02,2021-08-02,株式会社ＭＲＦ,,株式会社,愛知県,春日井市,不二ガ丘３丁目１０４番地１２,,23,206,4870023,,,,,,,2021-08-02,1,,,,,エムアールエフ,0
1749,6180001147230,新規,0,2021-08-02,2021-08-02,株式会社開音,,株式会社,愛知県,知多市,日長台３３８番地,,23,224,4780043,,,,,,,2021-08-02,1,,,,,アオト,0
1755,6190001028553,新規,0,2021-08-02,2021-08-02,株式会社きらり薬局,,株式会社,三重県,三重郡朝日町,白梅の丘東１丁目１４番地１６,,24,343,5108106,,,,,,,2021-08-02,1,,,,,キラリヤッキョク,0
1795,6300003001703,新規,0,2021-08-02,2021-08-02,合同会社Ｔ－Ｓｔｙｌｅ,,合同会社,佐賀県,佐賀市,兵庫北１丁目２４番１９－１０２号,,41,201,8490919,,,,,,,2021-08-02,1,,,,,ティースタイル,0
1796,6310001017394,新規,0,2021-08-02,2021-08-02,東明商事株式会社,,株式会社,長崎県,佐世保市,高梨町１２番２５号１,,42,202,8570811,,,,,,,2021-08-02,1,,,,,トウメイショウジ,0
1802,6330001028844,新規,0,2021-08-02,2021-08-02,株式会社ＱＬＵＳ建築設計事務所,,株式会社,熊本県,熊本市東区,戸島西１丁目２５番２０号ＧＡＬＥＮＡ・Ｃ－１,,43,102,8618043,,,,,,,2021-08-02,1,,,,,クラスケンチクセッケイジムショ,0
1805,6330003008992,新規,0,2021-08-02,2021-08-02,合同会社Ｍｉｌｅ,,合同会社,熊本県,熊本市南区,城南町舞原３０８番地１－２０５号,,43,104,8614214,,,,,,,2021-08-02,1,,,,,マイル,0
1811,6360003011291,新規,0,2021-08-02,2021-08-02,合同会社チャンプル,,合同会社,沖縄県,石垣市,字新川１１４－３,,47,207,9070024,,,,,,,2021-08-02,1,,,,,チャンプル,0
1813,6370001047394,新規,0,2021-08-02,2021-08-02,株式会社デジファーム,,株式会社,宮城県,仙台市青葉区,中央１丁目２番３号仙台マークワンセンター１９階,,04,101,9800021,,,,,,,2021-08-02,1,,,,,デジファーム,0
1814,6370001047403,新規,0,2021-08-02,2021-08-02,株式会社ＲＳＪ,,株式会社,宮城県,仙台市太白区,上野山１丁目１６番６号,,04,104,9820812,,,,,,,2021-08-02,1,,,,,アールエスジェイ,0
1815,6370001047411,新規,0,2021-08-02,2021-08-02,株式会社デジタルゴリラ,,株式会社,宮城県,仙台市青葉区,中央２丁目２番３０号日興ビル４Ｆ,,04,101,9800021,,,,,,,2021-08-02,1,,,,,,0
1837,6470001018633,新規,0,2021-08-02,2021-08-02,株式会社ファーストフォロー,,株式会社,香川県,高松市,東ハゼ町８－７・２Ｆ,,37,201,7618054,,,,,,,2021-08-02,1,,,,,ファーストフォロー,0
1852,7010001220060,新規,0,2021-08-02,2021-08-02,ＭＡＵＩ株式会社,,株式会社,東京都,文京区,白山２丁目２番７号,,13,105,1120001,,,,,,,2021-08-02,1,,,,,マウイ,0
1853,7010001220077,新規,0,2021-08-02,2021-08-02,株式会社プライムパーソネル,,株式会社,東京都,中央区,銀座６丁目４番１号東海堂銀座ビル４階,,13,102,1040061,,,,,,,2021-08-02,1,,,,,プライムパーソネル,0
1854,7010001220093,新規,0,2021-08-02,2021-08-02,株式会社Ｎａｔ　Ｌｉｍｉｔ,,株式会社,東京都,中央区,勝どき５丁目３番地１号勝どきザ・タワー３７２１号室,,13,102,1040054,,,,,,,2021-08-02,1,,,,,ナッツリミット,0
1859,7010003035440,新規,0,2021-08-02,2021-08-02,ＧＰＤ月光合同会社,,合同会社,東京都,千代田区,一ツ橋２丁目５番５号,,13,101,1010003,,,,,,,2021-08-02,1,,,,,ジーピーディーゲッコウ,0
1862,7010005033731,新規,0,2021-08-02,2021-08-02,横浜大船一般社団法人,,その他の設立登記法人,東京都,中央区,日本橋２丁目７番１号,,13,102,1030027,,,,,,,2021-08-02,1,,,,,ヨコハマオオフナ,0
1865,7010401161813,新規,0,2021-08-02,2021-08-02,株式会社フォーラムアソシエイツ,,株式会社,東京都,港区,虎ノ門４丁目３番１号,,13,103,1050001,,,,,,,2021-08-02,1,,,,,フォーラムアソシエイツ,0
1866,7010401161862,新規,0,2021-08-02,2021-08-02,サウナラウンジ株式会社,,株式会社,東京都,港区,南青山６丁目７番８－１１０１号,,13,103,1070062,,,,,,,2021-08-02,1,,,,,サウナラウンジ,0
1868,7010403025801,新規,0,2021-08-02,2021-08-02,合同会社ｍｉＧｏ,,合同会社,東京都,港区,南青山２丁目２番１５号,,13,103,1070062,,,,,,,2021-08-02,1,,,,,ミゴ,0
1869,7010405020032,新規,0,2021-08-02,2021-08-02,一般社団法人Ｇｒｅｅｎ　ｉｎｎｏｖａｔｉｏｎ,,その他の設立登記法人,東京都,港区,南青山６丁目７番８－１１０１号ファーロ南青山,,13,103,1070062,,,,,,,2021-08-02,1,,,,,グリーンイノベーション,0
1870,7010501047648,新規,0,2021-08-02,2021-08-02,ＥＲＫ株式会社,,株式会社,東京都,台東区,駒形２丁目６－１０リバーレ浅草駒形３０２,,13,106,1110043,,,,,,,2021-08-02,1,,,,,アーク,0
1872,7010601059725,新規,0,2021-08-02,2021-08-02,株式会社ＣｈａｐｔｅＲ,,株式会社,東京都,江東区,清澄３丁目６－７,,13,108,1350024,,,,,,,2021-08-02,1,,,,,チャプター,0
1875,7010603009059,新規,0,2021-08-02,2021-08-02,安信合同会社,,合同会社,東京都,江東区,亀戸１丁目１９番６－３１５号,,13,108,1360071,,,,,,,2021-08-02,1,,,,,アンシン,0
1885,7010901049178,新規,0,2021-08-02,2021-08-02,株式会社ＢＬｕｎｏ,,株式会社,東京都,世田谷区,池尻１丁目７－１４アントレパルク３０４,,13,112,1540001,,,,,,,2021-08-02,1,,,,,ブルーノ,0
1886,7010901049186,新規,0,2021-08-02,2021-08-02,株式会社Ｂｅ　Ａｒｔｓ,,株式会社,東京都,世田谷区,弦巻４丁目１８－２６リポーズセイホー１０５号室,,13,112,1540016,,,,,,,2021-08-02,1,,,,,ビーアーツ,0
1899,7011003013163,新規,0,2021-08-02,2021-08-02,ユニバーサルフラート合同会社,,合同会社,東京都,目黒区,中目黒３丁目６番２号中目黒Ｆ．Ｓビル５階,,13,110,1530061,,,,,,,2021-08-02,1,,,,,ユニバーサルフラート,0
1909,7011101095871,新規,0,2021-08-02,2021-08-02,ライズネット管理株式会社,,株式会社,東京都,新宿区,大久保２丁目４番１２号新宿ラムダックスビル８Ｆ,,13,104,1690072,,,,,,,2021-08-02,1,,,,,ライズネットカンリ,0
1910,7011101095888,新規,0,2021-08-02,2021-08-02,株式会社ヘッズアップ,,株式会社,東京都,新宿区,北新宿１丁目１番３号アンベリール新宿９０３,,13,104,1690074,,,,,,,2021-08-02,1,,,,,ヘッズアップ,0
1911,7011101095905,新規,0,2021-08-02,2021-08-02,ＵｒａＢａｎａｓｈｉ株式会社,,株式会社,東京都,新宿区,西新宿３丁目２番９号,,13,104,1600023,,,,,,,2021-08-02,1,,,,,ウラバナシ,0
1912,7011103010894,新規,0,2021-08-02,2021-08-02,合同会社ＭＫケアーサービス,,合同会社,東京都,新宿区,新宿２丁目７番３号ヴェラハイツ新宿御苑４０６号室,,13,104,1600022,,,,,,,2021-08-02,1,,,,,エムケイケアーサービス,0
1913,7011103010911,新規,0,2021-08-02,2021-08-02,合同会社Ｍｅ－Ｒａｙ,,合同会社,東京都,新宿区,北新宿４丁目１１番３,,13,104,1690074,,,,,,,2021-08-02,1,,,,,ミーレイ,0
1927,7012801020986,新規,0,2021-08-02,2021-08-02,内野植木株式会社,,株式会社,東京都,立川市,上砂町２丁目３１－８,,13,202,1900032,,,,,,,2021-08-02,1,,,,,ウチノウエキ,0
1932,7013303005765,新規,0,2021-08-02,2021-08-02,合同会社Ｖａｌｈａｌｌａ　Ｐｒｏｍｏｔｉｏｎ,,合同会社,東京都,豊島区,南池袋１丁目９番地１８号２３２,,13,116,1710022,,,,,,,2021-08-02,1,,,,,ヴァルハラプロモーション,0
1935,7020001142428,新規,0,2021-08-02,2021-08-02,株式会社ＡＫＵＳ　ＨＤ,,株式会社,神奈川県,川崎市幸区,南加瀬２丁目１４番６号,,14,132,2120055,,,,,,,2021-08-02,1,,,,,アックスホールディングス,0
1936,7020001142444,新規,0,2021-08-02,2021-08-02,株式会社Ｒｉｎｇｉｎｇ,,株式会社,神奈川県,横浜市港北区,新横浜３丁目７－７新横浜アリーナ通りビル３Ｆ－４６番,,14,109,2220033,,,,,,,2021-08-02,1,,,,,リンギング,0
1947,7021001073539,新規,0,2021-08-02,2021-08-02,株式会社ＬＡＣＯＲＩＮ,,株式会社,神奈川県,鎌倉市,七里ガ浜東４丁目１８番１０号,,14,204,2480025,,,,,,,2021-08-02,1,,,,,ラコリン,0
1952,7030001143549,新規,0,2021-08-02,2021-08-02,株式会社ｐｉｃｏｌｌｅｔ,,株式会社,埼玉県,川口市,南町１丁目１１番６号ルイシャトレ川口プレイズ１０５,,11,203,3320026,,,,,,,2021-08-02,1,,,,,ピコレ,0
1960,7030003017627,新規,0,2021-08-02,2021-08-02,合同会社マーカー,,合同会社,埼玉県,鶴ヶ島市,大字下新田６４０番地１３－１０２,,11,241,3502222,,,,,,,2021-08-02,1,,,,,マーカー,0
1963,7030005020455,新規,0,2021-08-02,2021-08-02,特定非営利活動法人Ｙｉｐｓ　ｌａｂ．　Ｊａｐａｎ,,その他の設立登記法人,埼玉県,白岡市,小久喜８１０番地１,,11,246,3490217,,,,,,,2021-08-02,1,,,,,イップスラボジャパン,0
1983,7070003004191,新規,0,2021-08-02,2021-08-02,合同会社ハネトヤ,,合同会社,群馬県,前橋市,広瀬町１丁目１４番１３号,,10,201,3710812,,,,,,,2021-08-02,1,,,,,ハネトヤ,0
1996,7100001034476,新規,0,2021-08-02,2021-08-02,クリーン明科株式会社,,株式会社,長野県,安曇野市,明科中川手２８２０番地５,,20,220,3997102,,,,,,,2021-08-02,1,,,,,クリーンアカシナ,0
2008,7120001239420,新規,0,2021-08-02,2021-08-02,株式会社ＥｘｅＤｒｉｖｅ,,株式会社,大阪府,大阪市生野区,勝山北４丁目１４番２４号,,27,116,5440033,,,,,,,2021-08-02,1,,,,,エグゼドライブ,0
2009,7120001239445,新規,0,2021-08-02,2021-08-02,株式会社ＤＡＩＫＩ,,株式会社,大阪府,大阪市東成区,玉津１丁目２番１７号ＧＯＯＤＬＩＦＥＴＡＭＡＴＵＫＵＲＩ２０１,,27,115,5370023,,,,,,,2021-08-02,1,,,,,ダイキ,0
2025,7120101064066,新規,0,2021-08-02,2021-08-02,株式会社説明の分かりやすい保険屋さん,,株式会社,大阪府,岸和田市,下池田町１丁目９番２２号,,27,202,5960811,,,,,,,2021-08-02,1,,,,,セツメイノワカリヤスイホケンヤサン,0
2027,7120103004276,新規,0,2021-08-02,2021-08-02,合同会社ａｎｄＭＡ,,合同会社,大阪府,堺市堺区,櫛屋町東２丁２番７－１号,00123805,27,141,5900944,,,,,,,2021-08-02,1,,,,,アンドエムエー,0
2031,7120903003766,新規,0,2021-08-02,2021-08-02,アーク合同会社,,合同会社,大阪府,豊中市,清風荘２丁目７番２号,,27,203,5600041,,,,,,,2021-08-02,1,,,,,アーク,0
2034,7122003002145,新規,0,2021-08-02,2021-08-02,合同会社コムピット,,合同会社,大阪府,八尾市,龍華町１丁目４番１－１６０７号,,27,212,5810069,,,,,,,2021-08-02,1,,,,,コムピット,0
2048,7140001122491,新規,0,2021-08-02,2021-08-02,株式会社レイス,,株式会社,兵庫県,尼崎市,神崎町１２番３１号,,28,202,6610964,,,,,,,2021-08-02,1,,,,,レイス,0
2049,7140001122500,新規,0,2021-08-02,2021-08-02,株式会社エスアールエス,,株式会社,兵庫県,宝塚市,鹿塩２丁目５番１８号,,28,214,6650054,,,,,,,2021-08-02,1,,,,,エスアールエス,0
2052,7140003016584,新規,0,2021-08-02,2021-08-02,合同会社スタジオＹＵＫＯ,,合同会社,兵庫県,宝塚市,逆瀬台４丁目９番１０号,,28,214,6650024,,,,,,,2021-08-02,1,,,,,スタジオユウコ,0
2054,7150003002443,新規,0,2021-08-02,2021-08-02,合同会社Ｄｒｏｎｅ　Ｓｙｓｔｅｍ,,合同会社,奈良県,香芝市,五位堂６丁目２１６番地１－１０６号,,29,210,6390226,,,,,,,2021-08-02,1,,,,,ドローンシステム,0
2055,7150005009313,新規,0,2021-08-02,2021-08-02,特定非営利活動法人曽爾のあさひ,,その他の設立登記法人,奈良県,宇陀郡曽爾村,大字掛５２６番地,,29,385,6331215,,,,,,,2021-08-02,1,,,,,ソニノアサヒ,0
2068,7180001147080,新規,0,2021-08-02,2021-08-02,株式会社ＫＯコンサルティング,,株式会社,愛知県,名古屋市中村区,名駅５丁目３３番２１号アクアタウン納屋橋５０６号,,23,105,4500002,,,,,,,2021-08-02,1,,,,,ケーオーコンサルティング,0
2069,7180001147097,新規,0,2021-08-02,2021-08-02,ＰＣＫ株式会社,,株式会社,愛知県,名古屋市港区,天目町１１３番地,,23,111,4550865,,,,,,,2021-08-02,1,,,,,ピーシーケイ,0
2070,7180001147221,新規,0,2021-08-02,2021-08-02,株式会社メゾンブルー,,株式会社,愛知県,名古屋市緑区,上旭１丁目６０８番地上旭ハイツ１Ｆ,,23,114,4580016,,,,,,,2021-08-02,1,,,,,メゾンブルー,0
2073,7180003022802,新規,0,2021-08-02,2021-08-02,合同会社吉川工業,,合同会社,愛知県,名古屋市港区,善進町２丁目２８番地の１（エルフェーヌ２０２号）,,23,111,4550811,,,,,,,2021-08-02,1,,,,,ヨシカワコウギョウ,0
2076,7180305009225,新規,0,2021-08-02,2021-08-02,一般社団法人Ｓｕｎ　Ｈａｐｉ,,その他の設立登記法人,愛知県,豊橋市,向山町字伝馬４９番地２,,23,201,4400864,,,,,,,2021-08-02,1,,,,,サンハピ,0
2079,7200003005267,新規,0,2021-08-02,2021-08-02,合同会社こうのとり,,合同会社,岐阜県,中津川市,茄子川７３７番地の１,,21,206,5099132,,,,,,,2021-08-02,1,,,,,コウノトリ,0
2080,7210001018550,新規,0,2021-08-02,2021-08-02,株式会社アキテック,,株式会社,福井県,敦賀市,三島町１丁目１６番２２号,,18,202,9140058,,,,,,,2021-08-02,1,,,,,アキテック,0
2091,7260001035806,新規,0,2021-08-02,2021-08-02,株式会社かわた塾,,株式会社,岡山県,岡山市北区,北長瀬本町２０番５３号,,33,101,7000961,,,,,,,2021-08-02,1,,,,,カワタジュク,0
2092,7260001035814,新規,0,2021-08-02,2021-08-02,株式会社櫛本会計,00123814,株式会社,岡山県,岡山市中区,海吉１４４１番地１,,33,102,7038261,,,,,,,2021-08-02,1,,,,,クシモトカイケイ,0
2094,7270001008323,新規,0,2021-08-02,2021-08-02,株式会社ＦＡＲＭ　ＲＯＣＫＲＩＶＥＲ,,株式会社,鳥取県,鳥取市,叶２４４番地の６,,31,201,6800874,,,,,,,2021-08-02,1,,,,,ファームロックリバー,0
2101,7290003011422,新規,0,2021-08-02,2021-08-02,合同会社カルナフード,,合同会社,福岡県,福津市,日蒔野１丁目９番地の１０,,40,224,8113209,,,,,,,2021-08-02,1,,,,,カルナフード,0
2104,7290801027669,新規,0,2021-08-02,2021-08-02,ＳｋｙＢｌｕｅＪａｐａｎ株式会社,,株式会社,福岡県,北九州市小倉北区,米町１丁目１番１号小倉駅前ひびきビル６階,,40,106,8020003,,,,,,,2021-08-02,1,,,,,スカイブルージャパン,0
2105,7300003001702,新規,0,2021-08-02,2021-08-02,合同会社ＪＧＨ,,合同会社,佐賀県,佐賀市,中央本町１番１０号ニュー寺元ビル５階,,41,201,8400825,,,,,,,2021-08-02,1,,,,,ジェージーエイチ,0
2114,7330003008991,新規,0,2021-08-02,2021-08-02,合同会社Ｋ’ｚ,,合同会社,熊本県,熊本市中央区,河原町４－１エバーライフ熊本中央６０１号,,43,101,8600023,,,,,,,2021-08-02,1,,,,,ケーズ,0
2118,7340003003505,新規,0,2021-08-02,2021-08-02,合同会社風林堂薬局,,合同会社,鹿児島県,熊毛郡屋久島町,栗生１７５１番地５,,46,505,8914409,,,,,,,2021-08-02,1,,,,,フウリンドウヤッキョク,0
2123,7360003011332,新規,0,2021-08-02,2021-08-02,合同会社ブラッサム,,合同会社,沖縄県,宜野湾市,真栄原１丁目１５番２７号,,47,205,9012215,,,,,,,2021-08-02,1,,,,,,0
2126,7370001047402,新規,0,2021-08-02,2021-08-02,株式会社ＴＯＹＯ工業,,株式会社,宮城県,宮城郡七ヶ浜町,遠山１丁目１０番４５号,,04,404,9850823,,,,,,,2021-08-02,1,,,,,トーヨーコウギョウ,0
2138,7430001084645,新規,0,2021-08-02,2021-08-02,ＩＢ株式会社,,株式会社,北海道,札幌市中央区,北四条東２丁目８サッポロユニオンハイツ４０１,,01,101,0600034,,,,,,,2021-08-02,1,,,,,アイビー,0
2142,7430003012983,新規,0,2021-08-02,2021-08-02,合同会社ＵＴＡ,,合同会社,北海道,札幌市中央区,南八条西３丁目７茶やビル３階,,01,101,0640808,,,,,,,2021-08-02,1,,,,,ユーティーエー,0
2154,8010001220035,新規,0,2021-08-02,2021-08-02,株式会社ＰＯＳＴ,,株式会社,東京都,中央区,銀座６丁目１３番１６号銀座ＷａｌｌビルＵＣＦ５０１,,13,102,1040061,,,,,,,2021-08-02,1,,,,,ポスト,0
2155,8010001220051,新規,0,2021-08-02,2021-08-02,株式会社Ｐｒｏｔｏｓｕｒｅ　Ｊａｐａｎ,,株式会社,東京都,中央区,日本橋兜町６番５号,,13,102,1030026,,,,,,,2021-08-02,1,,,,,プロトシュアジャパン,0
2156,8010003035464,新規,0,2021-08-02,2021-08-02,マルガレーテ研究所合同会社,,合同会社,東京都,千代田区,神田小川町１丁目７番８０３号,,13,101,1010052,,,,,,,2021-08-02,1,,,,,マルガレーテ,0
2160,8010005033706,新規,0,2021-08-02,2021-08-02,いちごＥＣＯ発電所２１一般社団法人,,その他の設立登記法人,東京都,千代田区,内幸町１丁目１番１号,,13,101,1000011,,,,,,,2021-08-02,1,,,,,イチゴエコハツデンショニジュウイチ,0
2169,8010401161795,新規,0,2021-08-02,2021-08-02,株式会社ＦＲＯＧｓ,,株式会社,東京都,港区,高輪４丁目２３番６号ハイホ－ム高輪７０８,,13,103,1080074,,,,,,,2021-08-02,1,,,,,フロッグス,0
2170,8010401161861,新規,0,2021-08-02,2021-08-02,株式会社Ｒ．Ｍコーポレーション,,株式会社,東京都,港区,新橋１丁目１８番２１号第一日比谷ビル４Ｆ,,13,103,1050004,,,,,,,2021-08-02,1,,,,,アールエムコーポレーション,0
2171,8010403025809,新規,0,2021-08-02,2021-08-02,ＧＬＯＩＲＥ　ＬＩＮＫ合同会社,,合同会社,東京都,港区,北青山２丁目７－２０猪瀬ビル２Ｆ,,13,103,1070061,,,,,,,2021-08-02,1,,,,,グロワールリンク,0
2174,8010405020056,新規,0,2021-08-02,2021-08-02,一般財団法人ＡＲＩＧＡＴＯ,,その他の設立登記法人,東京都,港区,南青山１丁目２４番３号ＷｅＷｏｒｋＮｏｇｉｚａｋａ,,13,103,1070062,,,,,,,2021-08-02,1,,,,,アリガトウ,0
2176,8010503006337,新規,0,2021-08-02,2021-08-02,エアウェーブ合同会社,,合同会社,東京都,台東区,浅草橋３丁目３番４号,,13,106,1110053,,,,,,,2021-08-02,1,,,,,エアウェーブ,0
2190,8010903006705,新規,0,2021-08-02,2021-08-02,合同会社ＭＦ　ＳＱＵＡＲＥ,,合同会社,東京都,世田谷区,深沢４丁目２７－２０－２０５,,13,112,1580081,,,,,,,2021-08-02,1,,,,,エムエフスクエア,0
2194,8011001142046,新規,0,2021-08-02,2021-08-02,株式会社ＬＡＣＩＤＥＭ,,株式会社,東京都,渋谷区,本町３丁目２番９号,,13,113,1510071,,,,,,,2021-08-02,1,,,,,ラシデム,0
2200,8011101095887,新規,0,2021-08-02,2021-08-02,株式会社ｄｒｏｐ,,株式会社,東京都,新宿区,新宿１丁目３４番１１－９０２号,,13,104,1600022,,,,,,,2021-08-02,1,,,,,ドロップ,0
2202,8011103010902,新規,0,2021-08-02,2021-08-02,ＮＡＮＡＩＲＯ　ＡＲＫ合同会社,,合同会社,東京都,新宿区,歌舞伎町２丁目２１番１７号,,13,104,1600021,,,,,,,2021-08-02,1,,,,,ナナイロアーク,0
2203,8011103010910,新規,0,2021-08-02,2021-08-02,ＪＭＡ　ＣＯＲＰＯＲＡＴＩＯＮ合同会社,,合同会社,東京都,新宿区,高田馬場２丁目１９番７号タックイレブン高田馬場９階９０４号,,13,104,1690075,,,,,,,2021-08-02,1,,,,,ジェイエムエーコーポレーション,0
2215,8011501027176,新規,0,2021-08-02,2021-08-02,株式会社ＯＡＩＳＯ,,株式会社,東京都,北区,中十条３丁目３５－１桑沢ビル５Ｆ,,13,117,1140032,,,,,,,2021-08-02,1,,,,,オアイソ,0
2224,8012803002560,新規,0,2021-08-02,2021-08-02,合同会社ＥＫカンパニー,,合同会社,東京都,昭島市,松原町３丁目７番２０号,,13,207,1960003,,,,,,,2021-08-02,1,,,,,イーケーカンパニー,0
2235,8020001142410,新規,0,2021-08-02,2021-08-02,株式会社デュアル,,株式会社,神奈川県,横浜市中区,不老町２丁目８番地不二ビル６０２,,14,104,2310032,,,,,,,2021-08-02,1,,,,,デュアル,0
2236,8020001142419,新規,0,2021-08-02,2021-08-02,株式会社ＭＳ,,株式会社,神奈川県,横浜市保土ケ谷区,仏向町９５１番地サニーヒルセイ１０６号,,14,106,2400044,,,,,,,2021-08-02,1,,,,,エムエス,0
2237,8020001142435,新規,0,2021-08-02,2021-08-02,株式会社Ｋ－ＢＬＯＯＤ,,株式会社,神奈川県,横浜市青葉区,寺家町３１３番地２,,14,117,2270031,,,,,,,2021-08-02,1,,,,,,0
2247,8020003020250,新規,0,2021-08-02,2021-08-02,合同会社ＲＩＴＡＣＯＭ,,合同会社,神奈川県,横浜市港北区,大倉山４丁目２５番１２－１号,,14,109,2220037,,,,,,,2021-08-02,1,,,,,リタコム,0
2248,8020003020259,新規,0,2021-08-02,2021-08-02,合同会社ＴＣＵ,,合同会社,神奈川県,横浜市南区,別所５丁目１４番１６号,,14,105,2320064,,,,,,,2021-08-02,1,,,,,ティーシーユー,0
2252,8021003010753,新規,0,2021-08-02,2021-08-02,みやこ３５８合同会社,,合同会社,神奈川県,藤沢市,藤沢５７１番地,,14,205,2510052,,,,,,,2021-08-02,1,,,,,ミヤコサンゴーハチ,0
2267,8030001143548,新規,0,2021-08-02,2021-08-02,株式会社インディゴ,,株式会社,埼玉県,川越市,新宿町３丁目１０番地１メイツ川越６１７号室,,11,201,3501124,,,,,,,2021-08-02,1,,,,,インディゴ,0
2268,8030001143580,新規,0,2021-08-02,2021-08-02,株式会社ＬＥＧＡＬＩＳＳ,,株式会社,埼玉県,さいたま市大宮区,宮町１丁目７１番地,,11,103,3300802,,,,,,,2021-08-02,1,,,,,レガリス,0
2269,8030001143589,新規,0,2021-08-02,2021-08-02,株式会社Ｗｅｌｌｓｐｒｉｎｇ　Ｃｏｍｐａｎｙ,,株式会社,埼玉県,川口市,南鳩ヶ谷３丁目７番２号,,11,203,3340013,,,,,,,2021-08-02,1,,,,,ウェルスプリングカンパニー,0
2270,8030001143597,新規,0,2021-08-02,2021-08-02,株式会社翔,,株式会社,埼玉県,吉川市,中野２４２番地２,,11,243,3420042,,,,,,,2021-08-02,1,,,,,,0
2271,8030001143606,新規,0,2021-08-02,2021-08-02,蒼天ベース株式会社,,株式会社,埼玉県,入間市,宮寺２８０８－１,,11,225,3580014,,,,,,,2021-08-02,1,,,,,ソウテンベース,0
2277,8030005020470,新規,0,2021-08-02,2021-08-02,特定非営利活動法人輝生会,,その他の設立登記法人,埼玉県,越谷市,千間台西４丁目８番地６０ドルフ千間台２０１号,,11,222,3430041,,,,,,,2021-08-02,1,,,,,キショウカイ,0
2283,8040001119563,新規,0,2021-08-02,2021-08-02,株式会社ＮＯＱＱＬＹ,,株式会社,千葉県,流山市,大字三輪野山８１６番地の１（運Ａ７街区３）２０１,,12,220,2700175,,,,,,,2021-08-02,1,,,,,ノクリー,0
2284,8040001119588,新規,0,2021-08-02,2021-08-02,株式会社Ｎｅｘｔａｔｅ,,株式会社,千葉県,浦安市,当代島１丁目３番３号,,12,227,2790001,,,,,,,2021-08-02,1,,,,,ネクストエイト,0
2295,8070003004190,新規,0,2021-08-02,2021-08-02,合同会社Ｎｓ’Ｓｔｙｌｅ,,合同会社,群馬県,高崎市,貝沢町８２４番地,,10,202,3700042,,,,,,,2021-08-02,1,,,,,エヌズスタイル,0
2307,8110005016683,新規,0,2021-08-02,2021-08-02,テルモ税理士法人,,その他の設立登記法人,新潟県,糸魚川市,南寺町３丁目７番７号,,15,216,9410057,,,,,,,2021-08-02,1,,,,,テルモ,0
2329,8120103004267,新規,0,2021-08-02,2021-08-02,合同会社ＳｈｏｗＭＥｉ,,合同会社,大阪府,堺市北区,大豆塚町１丁２８番地８,00123813,27,146,5918042,,,,,,,2021-08-02,1,,,,,ショーメイ,0
2363,8140003016583,新規,0,2021-08-02,2021-08-02,合同会社有,,合同会社,兵庫県,神戸市灘区,六甲町３丁目１－５,,28,102,6570053,,,,,,,2021-08-02,1,,,,,アリ,0
2372,8170003001608,新規,0,2021-08-02,2021-08-02,合同会社Ｐｒｅｖｅｎｔｉｏｎ　Ｐｒｏｊｅｃｔ,,合同会社,和歌山県,和歌山市,東田中１７４番地１,,30,201,6496273,,,,,,,2021-08-02,1,,,,,プリヴェンションプロジェクト,0
2385,8180001147096,新規,0,2021-08-02,2021-08-02,ＳＳＶ株式会社,,株式会社,愛知県,名古屋市港区,新茶屋４丁目２８０３番地,,23,111,4550863,,,,,,,2021-08-02,1,,,,,エスエスブイ,0
2386,8180001147179,新規,0,2021-08-02,2021-08-02,株式会社アスリードコンサルティング,,株式会社,愛知県,名古屋市西区,則武新町２丁目２－３０サンハイツ則武２０５,,23,104,4510051,,,,,,,2021-08-02,1,,,,,アスリードコンサルティング,0
2387,8180001147195,新規,0,2021-08-02,2021-08-02,株式会社Ｒｏｂｅｒｕ　Ａｕｔｏ,,株式会社,愛知県,瀬戸市,三沢町１丁目３５６番地,,23,204,4890006,,,,,,,2021-08-02,1,,,,,ロベルオート,0
2388,8180001147229,新規,0,2021-08-02,2021-08-02,株式会社Ｒ．Ａ．Ｙ,,株式会社,愛知県,春日井市,割塚町１３８番地河合ビル１Ｆ,,23,206,4860824,,,,,,,2021-08-02,1,,,,,レイ,0
2393,8180003022801,新規,0,2021-08-02,2021-08-02,合同会社創生レオ,,合同会社,愛知県,名古屋市中村区,名駅３丁目３番８号１２０２号,,23,105,4500002,,,,,,,2021-08-02,1,,,,,ソウセイレオ,0
2394,8180005019382,新規,0,2021-08-02,2021-08-02,一般社団法人日本遊具屋外施設業協会,,その他の設立登記法人,愛知県,名古屋市西区,上橋町２６１番地,,23,104,4520844,,,,,,,2021-08-02,1,,,,,ニホンユウグオクガイシセツギョウキョウカイ,0
2400,8190001028543,新規,0,2021-08-02,2021-08-02,株式会社ＫＳＫ,,株式会社,三重県,三重郡菰野町,大字永井５０７番地１,,24,341,5101311,,,,,,,2021-08-02,1,,,,,ケーエスケー,0
2404,8220005008579,新規,0,2021-08-02,2021-08-02,一般社団法人ミラサス,,その他の設立登記法人,石川県,野々市市,末松３丁目５７０番地（ケイ・エム・スクエア合同会社内）,,17,212,9218836,,,,,,,2021-08-02,1,,,,,ミラサス,0
2424,8290001094071,新規,0,2021-08-02,2021-08-02,株式会社Ｗｏｒｌｄ　Ｓｔａｇｅ,,株式会社,福岡県,福岡市中央区,天神２丁目３番１０号天神パインクレスト７１９号,,40,133,8100001,,,,,,,2021-08-02,1,,,,,ワールドステージ,0
2439,8340003003504,新規,0,2021-08-02,2021-08-02,合同会社安心パックサービス,,合同会社,鹿児島県,鹿児島市,西伊敷１丁目２６番１号,,46,201,8900002,,,,,,,2021-08-02,1,,,,,アンシンパックサービス,0
2443,8360001029152,新規,0,2021-08-02,2021-08-02,株式会社琉球リバティソリューション,,株式会社,沖縄県,那覇市,天久１丁目２１番１０号,,47,201,9000005,,,,,,,2021-08-02,1,,,,,リュウキュウリバティソリューション,0
2444,8360001029160,新規,0,2021-08-02,2021-08-02,株式会社狩俣空調設備,,株式会社,沖縄県,宮古島市,城辺字下里添９５１番地２,,47,214,9060109,,,,,,,2021-08-02,1,,,,,カリマタクウチョウセツビ,0
2448,8370001047401,新規,0,2021-08-02,2021-08-02,株式会社大吉フーズ,,株式会社,宮城県,東松島市,赤井字新川前２３番地８,,04,214,9810501,,,,,,,2021-08-02,1,,,,,ダイキチフーズ,0
2449,8370001047418,新規,0,2021-08-02,2021-08-02,Ｋ　Ｓｅｍｉ　Ｔｅｃｈ株式会社,,株式会社,宮城県,仙台市青葉区,北根黒松２番３０－５０３号,,04,101,9810901,,,,,,,2021-08-02,1,,,,,ケーセミテック,0
2471,8430001084685,新規,0,2021-08-02,2021-08-02,株式会社アクト,,株式会社,北海道,札幌市中央区,北三条西７丁目１番地１,,01,101,0600003,,,,,,,2021-08-02,1,,,,,アクト,0
2481,9010001219976,新規,0,2021-08-02,2021-08-02,株式会社ＶＩＴＡ,,株式会社,東京都,中央区,八丁堀２丁目３０番１５号田畑ビル３階,,13,102,1040032,,,,,,,2021-08-02,1,,,,,ヴィータ,0
2482,9010001220042,新規,0,2021-08-02,2021-08-02,Ａｙｕｍｉｚｕ株式会社,,株式会社,東京都,中央区,日本橋浜町２丁目２５－２－８Ｆ,,13,102,1030007,,,,,,,2021-08-02,1,,,,,アユミズ,0
2483,9010001220050,新規,0,2021-08-02,2021-08-02,エクストラレス株式会社,,株式会社,東京都,中央区,京橋２丁目８番２１号喜久家ビルディング７階７１２号室,,13,102,1040031,,,,,,,2021-08-02,1,,,,,エクストラレス,0
2484,9010001220067,新規,0,2021-08-02,2021-08-02,株式会社ニューディ,,株式会社,東京都,千代田区,神田佐久間町１丁目８－４アルテール秋葉原ビル７０８,,13,101,1010025,,,,,,,2021-08-02,1,,,,,ニューディ,0
2485,9010001220075,新規,0,2021-08-02,2021-08-02,翠樹華光株式会社,,株式会社,東京都,千代田区,一番町１０番地８一番町ウェストビル５階,,13,101,1020082,,,,,,,2021-08-02,1,,,,,スイジュカコウ,0
2488,9010003035439,新規,0,2021-08-02,2021-08-02,ＧＰＤにちりん合同会社,,合同会社,東京都,千代田区,一ツ橋２丁目５番５号,,13,101,1010003,,,,,,,2021-08-02,1,,,,,ジーピーディーニチリン,0
2492,9010005033746,新規,0,2021-08-02,2021-08-02,一般社団法人オルパ,,その他の設立登記法人,東京都,千代田区,丸の内３丁目１番１号東京共同会計事務所内,,13,101,1000005,,,,,,,2021-08-02,1,,,,,オルパ,0
2508,9010401161786,新規,0,2021-08-02,2021-08-02,株式会社ＢＩＧ　ＴＲＥＥ,,株式会社,東京都,港区,六本木７丁目１６番５号戸田ビル３Ｆ,,13,103,1060032,,,,,,,2021-08-02,1,,,,,ビッグツリー,0
2509,9010401161803,新規,0,2021-08-02,2021-08-02,ＤＥＳＡＶＯ株式会社,,株式会社,東京都,港区,六本木６丁目１番２０号六本木電気ビル７Ｆ,,13,103,1060032,,,,,,,2021-08-02,1,,,,,デサヴォ,0
2510,9010401161836,新規,0,2021-08-02,2021-08-02,インパクトサークル株式会社,,株式会社,東京都,港区,港南２丁目１６番２号太陽生命品川ビル２８階,,13,103,1080075,,,,,,,2021-08-02,1,,,,,インパクトサークル,0
2511,9010403025816,新規,0,2021-08-02,2021-08-02,合同会社ＥｉｎｓＬｉｂｅ,,合同会社,東京都,港区,南青山２丁目２番１５号ＷＩＮ青山５３１,,13,103,1070062,,,,,,,2021-08-02,1,,,,,エインスリベ,0
2512,9010403025824,新規,0,2021-08-02,2021-08-02,ＰＪＭＦ　ＭＬ合同会社,,合同会社,東京都,港区,元赤坂１丁目１番７－１００６号,,13,103,1070051,,,,,,,2021-08-02,1,,,,,ピージェーエムエフエムエル,0
2517,9010601059723,新規,0,2021-08-02,2021-08-02,株式会社ＴＫコンサルティング,,株式会社,東京都,江東区,東雲２丁目２番１４－１０１４号,,13,108,1350062,,,,,,,2021-08-02,1,,,,,ティーケーコンサルティング,0
2519,9010603009073,新規,0,2021-08-02,2021-08-02,合同会社ポリャンカ,,合同会社,東京都,墨田区,太平１丁目１番５－２０２号,,13,107,1300012,,,,,,,2021-08-02,1,,,,,ポリャンカ,0
2530,9011001142045,新規,0,2021-08-02,2021-08-02,株式会社ノードセキュリティジェーピー,,株式会社,東京都,渋谷区,道玄坂１丁目１２番１号渋谷マークシティ２２階,,13,113,1500043,,,,,,,2021-08-02,1,,,,,ノードセキュリティジェーピー,0
2532,9011003013137,新規,0,2021-08-02,2021-08-02,ＮｅＸＢＩＴ　Ｎｅｔｗｏｒｋｓ合同会社,,合同会社,東京都,目黒区,目黒４丁目１７番１６号,,13,110,1530063,,,,,,,2021-08-02,1,,,,,ネックスビットネットワークス,0
2539,9011105009900,新規,0,2021-08-02,2021-08-02,一般社団法人日本足場会,,その他の設立登記法人,東京都,新宿区,新宿１丁目３２番１５号エムズ新宿御苑２Ｆ,,13,104,1600022,,,,,,,2021-08-02,1,,,,,ニホンアシバカイ,0
2552,9012305001960,新規,0,2021-08-02,2021-08-02,特定非営利活動法人ＴＯＳＳ東京教え方研究会,,その他の設立登記法人,東京都,町田市,相原町３７０番地２２,,13,209,1940211,,,,,,,2021-08-02,1,,,,,トストウキョウオシエカタケンキュウカイ,0
2560,9013301047799,新規,0,2021-08-02,2021-08-02,株式会社ＩＮＣＬＵＳＩＶＥ,,株式会社,東京都,豊島区,北大塚２丁目１７番２号大塚ｐｈビル３Ｆ,,13,116,1700004,,,,,,,2021-08-02,1,,,,,インクルーシブ,0
2568,9020001142392,新規,0,2021-08-02,2021-08-02,株式会社ｗｅａｒｃｏｏｒｄ,,株式会社,神奈川県,横浜市中区,元町４丁目１６８ＢＩＺｃｏｍｆｏｒｔ元町,,14,104,2310861,,,,,,,2021-08-02,1,,,,,ウェアコード,0
2569,9020001142418,新規,0,2021-08-02,2021-08-02,Ｕｃｈｉｋａｗａ　Ｃｏｒｐｏｒａｔｉｏｎ株式会社,,株式会社,神奈川県,川崎市宮前区,潮見台８番１０－４１３号,,14,136,2160013,,,,,,,2021-08-02,1,,,,,ウチカワコーポレーション,0
2570,9020001142426,新規,0,2021-08-02,2021-08-02,株式会社Ｕｎｉ　Ｃｒｕｉｓｅ　Ｉｎｎｏｖａｔｉｏｎ,,株式会社,神奈川県,横浜市都筑区,茅ケ崎南５丁目１３番２号,,14,118,2240037,,,,,,,2021-08-02,1,,,,,ユニクルーズイノベーション,0
2571,9020001142434,新規,0,2021-08-02,2021-08-02,株式会社えくぼ,,株式会社,神奈川県,川崎市麻生区,王禅寺東６丁目１１番３８号,,14,137,2150018,,,,,,,2021-08-02,1,,,,,エクボ,0
2572,9020003020258,新規,0,2021-08-02,2021-08-02,合同会社シンメイ,,合同会社,神奈川県,横浜市港北区,篠原町１１０５,,14,109,2220026,,,,,,,2021-08-02,1,,,,,シンメイ,0
2579,9021003010744,新規,0,2021-08-02,2021-08-02,中里ファミリーインベストメンツ合同会社,,合同会社,神奈川県,鎌倉市,小町２丁目５番９号,,14,204,2480006,,,,,,,2021-08-02,1,,,,,ナカザトファミリーインベストメンツ,0
2587,9030001143605,新規,0,2021-08-02,2021-08-02,株式会社リボーン,,株式会社,埼玉県,蓮田市,東６丁目１番６号,,11,238,3490111,,,,,,,2021-08-02,1,,,,,リボーン,0
2592,9030003017708,新規,0,2021-08-02,2021-08-02,合同会社Ｋ＆Ｓ,,合同会社,埼玉県,北足立郡伊奈町,大字小室１１８８番地２,,11,301,3620806,,,,,,,2021-08-02,1,,,,,ケイアンドエス,0
2599,9040001119562,新規,0,2021-08-02,2021-08-02,株式会社ふれあい神余の里,,株式会社,千葉県,館山市,上野原１０１番地の９,,12,205,2940042,,,,,,,2021-08-02,1,,,,,フレアイカナマリノサト,0
2600,9040001119579,新規,0,2021-08-02,2021-08-02,ＴＤ株式会社,,株式会社,千葉県,松戸市,小金上総町１４番地の４丸大マンション１０２号,,12,207,2700015,,,,,,,2021-08-02,1,,,,,ティーディー,0
2605,9040003018250,新規,0,2021-08-02,2021-08-02,メイアイプラス合同会社,,合同会社,千葉県,船橋市,新高根１丁目２６番８号,,12,204,2740814,,,,,,,2021-08-02,1,,,,,メイアイプラス,0
2606,9040005021302,新規,0,2021-08-02,2021-08-02,一般社団法人旭市母子寡婦福祉会,,その他の設立登記法人,千葉県,旭市,椎名内３１４７番地,,12,215,2892514,,,,,,,2021-08-02,1,,,,,アサヒシボシカフフクシカイ,0
2612,9060001033951,新規,0,2021-08-02,2021-08-02,セイショウ工業株式会社,,株式会社,栃木県,矢板市,上太田１２番地２０,,09,211,3292513,,,,,,,2021-08-02,1,,,,,セイショウコウギョウ,0
2657,9120001239427,新規,0,2021-08-02,2021-08-02,株式会社Ｎｅｗ　Ｅｃｈｏ　Ｍｉｎｄｓ,,株式会社,大阪府,大阪市東住吉区,南田辺５丁目９番９号,,27,121,5460033,,,,,,,2021-08-02,1,,,,,ニューエコーマインズ,0
2662,9120101064064,新規,0,2021-08-02,2021-08-02,藝象萬千文化教育寰宇發展株式会社,,株式会社,大阪府,河内長野市,末広町２番３７号,,27,216,5860051,,,,,,,2021-08-02,1,,,,,ゲイショウマンセンブンカキョウイクカンウハッテン,0
2668,9122001035038,新規,0,2021-08-02,2021-08-02,株式会社ＧＦアカデミア,,株式会社,大阪府,八尾市,本町５丁目１－３１,,27,212,5810003,,,,,,,2021-08-02,1,,,,,ジーエフアカデミア,0
2684,9140001122498,新規,0,2021-08-02,2021-08-02,株式会社泡沫,,株式会社,兵庫県,淡路市,久留麻２１７８番地,,28,226,6562311,,,,,,,2021-08-02,1,,,,,ウタカタ,0
2685,9140001122507,新規,0,2021-08-02,2021-08-02,Ｆ企画株式会社,,株式会社,兵庫県,神戸市東灘区,鴨子ケ原２丁目３番２９－４０４号,,28,101,6580064,,,,,,,2021-08-02,1,,,,,エフキカク,0
2686,9140001122523,新規,0,2021-08-02,2021-08-02,株式会社エムアールプランニング,,株式会社,兵庫県,尼崎市,食満６丁目１５番５－２号,,28,202,6610982,,,,,,,2021-08-02,1,,,,,エムアールプランニング,0
2692,9140005025763,新規,0,2021-08-02,2021-08-02,一般社団法人淡路島観光振興協議会,,その他の設立登記法人,兵庫県,淡路市,久留麻１８６０番地４０,,28,226,6562311,,,,,,,2021-08-02,1,,,,,アワジシマカンコウシンコウキョウギカイ,0
2694,9150001024826,新規,0,2021-08-02,2021-08-02,株式会社パデック,,株式会社,奈良県,大和郡山市,井戸野町１４番地１,,29,203,6391104,,,,,,,2021-08-02,1,,,,,パデック,0
2698,9170001016697,新規,0,2021-08-02,2021-08-02,株式会社プロセス建築工房,,株式会社,和歌山県,西牟婁郡上富田町,朝来２０７５番地の１８,,30,404,6492105,,,,,,,2021-08-02,1,,,,,プロセスケンチクコウボウ,0
2714,9180003022800,新規,0,2021-08-02,2021-08-02,クラフト合同会社,,合同会社,愛知県,名古屋市千種区,今池２丁目１４番１９号,,23,101,4640850,,,,,,,2021-08-02,1,,,,,クラフト,0
2717,9180005019381,新規,0,2021-08-02,2021-08-02,一般社団法人地域福祉活動協会,,その他の設立登記法人,愛知県,名古屋市守山区,小幡５丁目８番１３号,,23,113,4630011,,,,,,,2021-08-02,1,,,,,チイキカツドウフクシキョウカイ,0
2730,9240003005220,新規,0,2021-08-02,2021-08-02,合同会社ＲＩＣＨ　ＣＯＵＮＴＲＹ　ＬＩＦＥ,,合同会社,広島県,三次市,布野町上布野３４６番地,,34,209,7280201,,,,,,,2021-08-02,1,,,,,リッチカントリーライフ,0
2731,9260001035804,新規,0,2021-08-02,2021-08-02,株式会社リンク,,株式会社,岡山県,倉敷市,山地９８２番地２,,33,202,7010104,,,,,,,2021-08-02,1,,,,,リンク,0
2735,9290001094070,新規,0,2021-08-02,2021-08-02,エコムシステムズ株式会社,,株式会社,福岡県,久留米市,諏訪野町１８２６番地５ＥＣＯＭビル３階,,40,203,8300037,,,,,,,2021-08-02,1,,,,,エコムシステムズ,0
2743,9290801027667,新規,0,2021-08-02,2021-08-02,株式会社ジャストケミカルズ,,株式会社,福岡県,築上郡上毛町,大字垂水１７８３番地７,,40,646,8710913,,,,,,,2021-08-02,1,,,,,ジャストケミカルズ,0
2745,9300001012575,新規,0,2021-08-02,2021-08-02,株式会社アオイ警備保障,,株式会社,佐賀県,佐賀市,西田代１丁目５－１０　１０３,,41,201,8400045,,,,,,,2021-08-02,1,,,,,アオイケイビホショウ,0
2751,9330001028858,新規,0,2021-08-02,2021-08-02,株式会社アルシェ,,株式会社,熊本県,熊本市東区,長嶺東１丁目４番８２号ベルガゾン１０５号室,,43,102,8618038,,,,,,,2021-08-02,1,,,,,アルシェ,0
2753,9330005010374,新規,0,2021-08-02,2021-08-02,ＮＰＯ法人防災ＷＥＳＴ,,その他の設立登記法人,熊本県,熊本市西区,城山半田１丁目７番２３号,,43,103,8600064,,,,,,,2021-08-02,1,,,,,ボウサイウエスト,0
2760,9360001029135,新規,0,2021-08-02,2021-08-02,株式会社宮,,株式会社,沖縄県,島尻郡八重瀬町,字友寄６９６番地,,47,362,9010411,,,,,,,2021-08-02,1,,,,,ミヤ,0
2762,9360003011322,新規,0,2021-08-02,2021-08-02,合同会社ＫＳＰ,,合同会社,沖縄県,那覇市,牧志１丁目４番５３－３０９号,,47,201,9000013,,,,,,,2021-08-02,1,,,,,ケイエスピー,0
2765,9370001047409,新規,0,2021-08-02,2021-08-02,株式会社和泉建業,,株式会社,宮城県,登米市,中田町浅水字新田２１９番地１,,04,212,9870611,,,,,,,2021-08-02,1,,,,,イズミケンギョウ,0
