sequenceNumber,corporateNumber,process,correct,updateDate,changeDate,name,nameImageId,kind,prefectureName,cityName,streetNumber,addressImageId,prefectureCode,cityCode,postCode,addressOutside,addressOutsideImageId,closeDate,closeCause,successorCorporateNumber,changeCause,assignmentDate,latest,enName,enPrefectureName,enCityName,enAddressOutside,furigana,hihyoji
15,1010405018172,登記記録の閉鎖等,0,2021-10-13,2021-10-01,一般社団法人ＷＦＣクラブ,,その他の設立登記法人,東京都,港区,虎ノ門５丁目１番５号メトロシティ神谷町５階,,13,103,1050001,,,2021-10-01,清算の結了等,,,2019-10-29,1,,,,,ダブリューエフシークラブ,0
18,1010502021112,登記記録の閉鎖等,0,2021-10-13,2021-10-06,ラッセル株式会社,,株式会社,東京都,台東区,浅草６丁目２４番８号,,13,106,1110032,,,2021-10-06,清算の結了等,,,2015-10-05,1,,,,,ラッセル,0
19,1010601054806,登記記録の閉鎖等,0,2021-10-13,2021-09-30,株式会社東涛,,株式会社,東京都,江東区,亀戸４丁目４６番１２号,,13,108,1360071,,,2021-09-30,清算の結了等,,,2018-12-20,1,,,,,トウトウ,0
21,1010701015922,登記記録の閉鎖等,0,2021-10-13,2021-10-11,株式会社エムケー,,株式会社,東京都,品川区,大井３丁目１８番１５－１４０６号,,13,109,1400014,,,2021-10-11,清算の結了等,,,2015-10-05,1,,,,,エムケー,0
34,1011001108730,登記記録の閉鎖等,0,2021-10-13,2021-10-11,株式会社ＪＳＧ,,株式会社,東京都,目黒区,祐天寺２丁目９番２号中西ビル２階,,13,110,1530052,,,2021-10-11,清算の結了等,,,2015-12-21,1,,,,,ジェイエスジー,0
52,1011105009123,登記記録の閉鎖等,0,2021-10-13,2021-10-05,一般社団法人新守谷ロジスティクス,,その他の設立登記法人,東京都,新宿区,四谷２丁目９番地１５東京ユナイテッド綜合事務所内,,13,104,1600004,,,2021-10-05,清算の結了等,,,2019-10-25,1,,,,,シンモリヤロジスティクス,0
63,1011601015640,登記記録の閉鎖等,0,2021-10-13,2021-10-11,株式会社アイ・シー・ティ・フォース,,株式会社,東京都,練馬区,三原台１丁目２４番１３号,,13,120,1770031,,,2021-10-11,清算の結了等,,,2015-10-05,1,,,,,アイシーティフォース,0
72,1011702003263,登記記録の閉鎖等,0,2021-10-13,2021-10-07,有限会社キタムラ,,有限会社,東京都,江戸川区,大杉５丁目１２番１９号,,13,123,1320022,,,2021-10-07,清算の結了等,,,2015-10-05,1,,,,,キタムラ,0
76,1012401019393,登記記録の閉鎖等,0,2021-10-13,2021-10-11,日本システム株式会社,,株式会社,東京都,府中市,片町３丁目２２番地,,13,206,1830021,,,2021-10-11,合併による解散等,6320001000886,令和３年１０月１日大分市東春日町１７番１９号東芝デジタルエンジニアリング株式会社（6320001000886）に合併し解散,2015-10-05,1,,,,,ニホンシステム,0
83,1013301042304,登記記録の閉鎖等,0,2021-10-13,2021-10-05,株式会社トライデント・ライン,,株式会社,東京都,豊島区,東池袋１丁目１０番１号,,13,116,1700013,,,2021-10-05,合併による解散等,4013301038811,令和３年１０月１日東京都豊島区東池袋一丁目１０番１号株式会社トライデント・プラス（4013301038811）に合併し解散,2018-05-21,1,,,,,トライデントライン,0
87,1020001098881,登記記録の閉鎖等,0,2021-10-13,2021-10-07,株式会社フェアウインド,,株式会社,神奈川県,横浜市鶴見区,東寺尾中台２番２４号,,14,101,2300017,,,2021-10-07,清算の結了等,,,2015-10-05,1,,,,,フェアウインド,0
92,1020002046583,登記記録の閉鎖等,0,2021-10-13,2021-10-07,有限会社大昇商事,,有限会社,神奈川県,横浜市泉区,中田北１丁目１番１号,,14,116,2450012,,,2021-10-07,清算の結了等,,,2015-10-05,1,,,,,ダイショウショウジ,0
147,1070002005072,登記記録の閉鎖等,0,2021-10-13,2021-10-11,有限会社摩庭モータース,,有限会社,群馬県,前橋市,河原浜町７１６番地,,10,201,3710224,,,2021-10-11,清算の結了等,,,2015-10-05,1,,,,,マニワモータース,0
151,1080002001582,登記記録の閉鎖等,0,2021-10-13,2021-10-11,有限会社銀河,,有限会社,静岡県,焼津市,小土１２８番地の８,,22,212,4250086,,,2021-10-11,清算の結了等,,,2015-10-05,1,,,,,ギンガ,0
153,1080102003925,登記記録の閉鎖等,0,2021-10-13,2021-10-07,有限会社常盤館,,有限会社,静岡県,沼津市,戸田２８９番地の１,,22,203,4103402,,,2021-10-07,合併による解散等,3010001132219,令和３年９月２８日東京都中央区日本橋三丁目３番３号いづみやビル４階株式会社マナティー（3010001132219）に合併し解散,2015-10-05,1,,,,,トキワカン,0
188,1120902017319,登記記録の閉鎖等,0,2021-10-13,2021-10-11,有限会社豊中駅前まちづくり会社,,有限会社,大阪府,豊中市,本町９丁目１番１号,,27,203,5600021,,,2021-10-11,清算の結了等,,,2015-10-05,1,,,,,トヨナカエキマエマチヅクリ,0
190,1130001001594,登記記録の閉鎖等,0,2021-10-13,2021-09-30,株式会社二瓶帯箔店,,株式会社,京都府,京都市右京区,太秦森ケ西町１２番地,,26,108,6168106,,,2021-09-30,清算の結了等,,,2015-10-05,1,,,,,ニヘイオビハクハクテン,0
206,1140002039658,登記記録の閉鎖等,0,2021-10-13,2021-10-07,有限会社アース住販,,有限会社,兵庫県,尼崎市,武庫元町１丁目１３番１２号,,28,202,6610043,,,2021-10-07,清算の結了等,,,2015-10-05,1,,,,,アースジュウハン,0
213,1160001018776,登記記録の閉鎖等,0,2021-10-13,2021-10-12,株式会社癒しの研究所,,株式会社,滋賀県,長浜市,細江町８６４番地４,,25,203,5260105,,,2021-10-12,清算の結了等,,,2015-10-05,1,,,,,イヤシノケンキュウショ,0
219,1180001112040,登記記録の閉鎖等,0,2021-10-13,2021-10-06,株式会社ＴＳグリーン,,株式会社,愛知県,名古屋市守山区,苗代１丁目５番１０号,,23,113,4630046,,,2021-10-06,清算の結了等,,,2015-10-05,1,,,,,ティーエスグリーン,0
220,1180001119993,登記記録の閉鎖等,0,2021-10-13,2021-10-08,株式会社チャンス・インターナショナル,,株式会社,愛知県,名古屋市天白区,表山３丁目２２０番地,,23,116,4680069,,,2021-10-08,清算の結了等,,,2015-10-05,1,,,,,チャンスインターナショナル,0
221,1180001133540,登記記録の閉鎖等,0,2021-10-13,2021-10-08,株式会社愛知釜,,株式会社,愛知県,名古屋市中区,栄１丁目２２番２号ライオンズ名古屋ビル３０６号,,23,106,4600008,,,2021-10-08,清算の結了等,,,2018-08-28,1,,,,,アイチガマ,0
222,1180001141650,登記記録の閉鎖等,0,2021-10-13,2021-10-04,株式会社日輪ホールディングス,,株式会社,愛知県,春日井市,明知町１５１０番地２１,,23,206,4800303,,,2021-10-04,清算の結了等,,,2020-06-18,1,,,,,ニチリンホールディングス,0
242,1200002011791,登記記録の閉鎖等,0,2021-10-13,2021-10-08,有限会社美貴ハウジング,,有限会社,岐阜県,羽島郡岐南町,上印食１丁目１２４番地,,21,302,5016001,,,2021-10-08,清算の結了等,,,2015-10-05,1,,,,,ミキハウジング,0
252,1240002030136,登記記録の閉鎖等,0,2021-10-13,2021-10-11,有限会社スエサダ測量設計,,有限会社,広島県,三次市,畠敷町９８１番地の１２,,34,209,7280006,,,2021-10-11,清算の結了等,,,2015-10-05,1,,,,,スエサダソクリョウセッケイ,0
255,1250002018196,登記記録の閉鎖等,0,2021-10-13,2021-10-11,有限会社創美,,有限会社,山口県,岩国市,立石町４丁目１１番６号,,35,208,7400011,,,2021-10-11,清算の結了等,,,2015-10-05,1,,,,,ソウビ,0
260,1290001037243,登記記録の閉鎖等,0,2021-10-13,2021-09-27,株式会社アジアウォーカー,,株式会社,福岡県,宗像市,日の里６丁目３番地３,,40,220,8113425,,,2021-09-27,清算の結了等,,,2015-10-05,1,,,,,アジアウォーカー,0
270,1320001011830,登記記録の閉鎖等,0,2021-10-13,2021-10-11,株式会社ベターライフ,,株式会社,大分県,大分市,大字野津原字久保１５０５番の１３,,44,201,8701203,,,2021-10-11,清算の結了等,,,2015-10-05,1,,,,,ベターライフ,0
273,1320005000383,登記記録の閉鎖等,0,2021-10-13,2021-10-12,医療法人信興会,,その他の設立登記法人,大分県,大分市,上田町３丁目１番５６号,,44,201,8700886,,,2021-10-12,清算の結了等,,,2015-10-05,1,,,,,シンコウカイ,0
279,1330005001926,登記記録の閉鎖等,0,2021-10-13,2021-10-08,特定非営利活動法人環境技術協会,,その他の設立登記法人,熊本県,熊本市東区,錦ケ丘３１番１４号,,43,102,8620912,,,2021-10-08,清算の結了等,,,2015-10-05,1,,,,,カンキョウギジュツキョウカイ,0
282,1350005001412,登記記録の閉鎖等,0,2021-10-13,2021-08-31,大和神社,,その他の設立登記法人,宮崎県,宮崎市,佐土原町東上那珂６４１５番地,,45,201,8800303,,,2021-08-31,合併による解散等,6350005000780,令和３年８月３１日宮崎市山崎町四郎房９０６番地宗教法人熊野神社（6350005000780）に合併し解散,2015-10-05,1,,,,,ダイワジンジャ,0
298,1420001004411,登記記録の閉鎖等,0,2021-10-13,2021-09-01,株式会社セイヒョウ商事,,株式会社,青森県,青森市,本町３丁目４番４号,,02,201,0300802,,,2021-09-01,合併による解散等,3420001000160,令和３年９月１日青森市本町三丁目４番１７号青森製氷株式会社（3420001000160）に合併し解散,2015-10-05,1,,,,,セイヒョウショウジ,0
307,1430005009991,登記記録の閉鎖等,0,2021-10-13,2021-08-25,天理教美咲台分教会,,その他の設立登記法人,北海道,室蘭市,御崎町２丁目２０番５号,,01,205,0510001,,,2021-08-25,合併による解散等,3430005000511,令和３年８月２５日札幌市厚別区厚別西五条四丁目１番１号天理教羽幌分教会（3430005000511）に合併し解散,2015-10-05,1,,,,,テンリキョウミサキダイブンキョウカイ,0
310,1460101003912,登記記録の閉鎖等,0,2021-10-13,2021-10-07,日の丸交通株式会社,,株式会社,北海道,帯広市,西十九条南１丁目７番地３８,,01,207,0802469,,,2021-10-07,合併による解散等,2011801013963,令和３年１０月１日東京都葛飾区四つ木五丁目５番１８号東京太陽株式会社（2011801013963）に合併し解散,2015-10-05,1,,,,,ヒノマルコウツウ,0
317,2010001207211,登記記録の閉鎖等,0,2021-10-13,2021-09-29,Ｓｐａｃｅｌｉｔ株式会社,,株式会社,東京都,文京区,本郷３丁目４－３ヒルズ８８４お茶の水ビル５Ｆ,,13,105,1130033,,,2021-09-29,清算の結了等,,,2020-02-03,1,,,,,スペースリット,0
344,2010901039200,登記記録の閉鎖等,0,2021-10-13,2021-10-08,株式会社フードランド,,株式会社,東京都,台東区,根岸２丁目２１番１５号間々田ビル２０７号室,,13,106,1100003,,,2021-10-08,清算の結了等,,,2016-12-08,1,,,,,フードランド,0
364,2011101014836,登記記録の閉鎖等,0,2021-10-13,2021-10-05,東京アイワ株式会社,,株式会社,東京都,新宿区,西新宿７丁目１８番１６－８０７号,,13,104,1600023,,,2021-10-05,清算の結了等,,,2015-10-05,1,,,,,トウキョウアイワ,0
367,2011101064336,登記記録の閉鎖等,0,2021-10-13,2021-10-01,株式会社長谷工シニアホールディングス,,株式会社,東京都,港区,芝４丁目２番３号,,13,103,1080014,,,2021-10-01,合併による解散等,6011101043939,令和３年１０月１日東京都港区芝二丁目９番１０号株式会社長谷工シニアウェルデザイン（6011101043939）に合併し解散,2015-10-05,1,,,,,ハセコウシニアホールディングス,0
401,2020003009811,登記記録の閉鎖等,0,2021-10-13,2021-09-24,Ｋ＆Ｒ合同会社,,合同会社,神奈川県,横浜市金沢区,六浦東３丁目７番１５号,,14,108,2360037,,,2021-09-24,清算の結了等,,,2015-10-05,1,,,,,ケーアンドアール,0
415,2021002025824,登記記録の閉鎖等,0,2021-10-13,2021-10-08,有限会社ティーエスエー,,有限会社,神奈川県,相模原市中央区,東淵野辺１丁目２１番２号,,14,152,2520203,,,2021-10-08,清算の結了等,,,2015-10-05,1,,,,,ティーエスエー,0
430,2030002071514,登記記録の閉鎖等,0,2021-10-13,2021-09-30,有限会社屋久杉土木,,有限会社,埼玉県,春日部市,中央７丁目３番地１２,,11,214,3440067,,,2021-09-30,清算の結了等,,,2015-10-05,1,,,,,,0
431,2030002086000,登記記録の閉鎖等,0,2021-10-13,2021-10-01,有限会社コスモ,,有限会社,埼玉県,越谷市,七左町８丁目２２１番地３,,11,222,3430851,,,2021-10-01,清算の結了等,,,2015-10-05,1,,,,,コスモ,0
435,2030005006640,登記記録の閉鎖等,0,2021-10-13,2021-10-04,特定非営利活動法人エンジョイ・パートナーほっと,,その他の設立登記法人,埼玉県,桶川市,泉１丁目１番１号ギフト３－４０３号室,,11,231,3630021,,,2021-10-04,清算の結了等,,,2015-10-05,1,,,,,エンジョイパートナーホット,0
439,2040001102681,登記記録の閉鎖等,0,2021-10-13,2021-10-04,大昭ストアサービス株式会社,,株式会社,千葉県,千葉市稲毛区,作草部町１２８９番地１ライオンズガーデン西千葉２０９号,,12,103,2630014,,,2021-10-04,清算の結了等,,,2017-12-05,1,,,,,,0
442,2040002066471,登記記録の閉鎖等,0,2021-10-13,2021-10-05,有限会社北村板金,,有限会社,千葉県,木更津市,貝渕１丁目１０番２号,,12,206,2920833,,,2021-10-05,清算の結了等,,,2015-10-05,1,,,,,キタムラバンキン,0
457,2070001012192,登記記録の閉鎖等,0,2021-10-13,2021-10-11,株式会社西毛アシスト,,株式会社,群馬県,富岡市,下高瀬１５４番地７,,10,210,3702332,,,2021-10-11,清算の結了等,,,2015-10-05,1,,,,,セイモウアシスト,0
460,2080001009634,登記記録の閉鎖等,0,2021-10-13,2021-09-15,株式会社オートヴィンテージ,,株式会社,静岡県,静岡市駿河区,中島２８３６番地の１,,22,102,4228046,,,2021-09-15,合併による解散等,7080001018977,令和３年９月１５日静岡市駿河区寿町１６番２９号田中ビル１０１号室株式会社慧心産業（7080001018977）に合併して解散,2015-10-05,1,,,,,オートヴィンテージ,0
463,2090002002281,登記記録の閉鎖等,0,2021-10-13,2021-10-05,有限会社南西タクシー,,有限会社,山梨県,甲府市,上石田３丁目３番２０号,,19,201,4000041,,,2021-10-05,清算の結了等,,,2015-10-05,1,,,,,ナンセイタクシー,0
475,2120001223916,登記記録の閉鎖等,0,2021-10-13,2021-10-08,株式会社ＭＩＫ,,株式会社,大阪府,大阪市福島区,海老江２丁目１番１８号,,27,103,5530001,,,2021-10-08,清算の結了等,,,2019-09-26,1,,,,,エムアイケー,0
480,2120002069730,登記記録の閉鎖等,0,2021-10-13,2021-10-11,株式会社プリアンファ,,株式会社,大阪府,大阪市北区,茶屋町６番２３号,,27,127,5300013,,,2021-10-11,合併による解散等,2010401156248,令和３年１０月１日東京都港区赤坂九丁目７番１号株式会社プリアンファ（2010401156248）に合併し解散,2015-10-05,1,,,,,,0
491,2122005002437,登記記録の閉鎖等,0,2021-10-13,2021-10-12,法華経寺,,その他の設立登記法人,大阪府,八尾市,宮町３丁目４番７９号,,27,212,5810815,,,2021-10-12,清算の結了等,,,2015-10-05,1,,,,,ホッケキョウデラ,0
493,2130001049724,登記記録の閉鎖等,0,2021-10-13,2021-10-08,株式会社Ｋコーポレーション,,株式会社,京都府,京都市西京区,松尾木ノ曽町５１番地,,26,111,6158281,,,2021-10-08,清算の結了等,,,2015-10-05,1,,,,,ケイコーポレーション,0
500,2140005004179,登記記録の閉鎖等,0,2021-10-13,2021-10-11,一般社団法人ファウンテンフォレストホールディング,,その他の設立登記法人,兵庫県,神戸市中央区,栄町通２丁目４番１３号神栄ビル６０４号,,28,110,6500023,,,2021-10-11,清算の結了等,,,2015-10-05,1,,,,,ファウンテンフォレストホールディング,0
516,2180301022590,登記記録の閉鎖等,0,2021-10-13,2021-10-11,株式会社ベルメタル,,株式会社,愛知県,西尾市,伊藤２丁目２番地８,,23,213,4450807,,,2021-10-11,清算の結了等,,,2015-10-05,1,,,,,ベルメタル,0
530,2260001022032,登記記録の閉鎖等,0,2021-10-13,2021-10-11,株式会社山一精機製作所,,株式会社,岡山県,備前市,日生町寒河２５９４番地１,,33,211,7013202,,,2021-10-11,清算の結了等,,,2015-10-05,1,,,,,ヤマイチセイキセイサクショ,0
531,2260002000326,登記記録の閉鎖等,0,2021-10-13,2021-10-12,有限会社アシカガ,,有限会社,岡山県,岡山市北区,野田屋町１丁目５番２５号,,33,101,7000815,,,2021-10-12,清算の結了等,,,2015-10-05,1,,,,,,0
532,2260002026222,登記記録の閉鎖等,0,2021-10-13,2021-10-11,五洋興業有限会社,,有限会社,岡山県,浅口郡里庄町,大字新庄３５５２番地の７,,33,445,7190302,,,2021-10-11,清算の結了等,,,2015-10-05,1,,,,,ゴヨウコウギョウ,0
546,2290801021998,登記記録の閉鎖等,0,2021-10-13,2021-10-01,株式会社Ｔ＆Ｔエンタープライズ,,株式会社,福岡県,築上郡築上町,大字高塚１番地３,,40,647,8290331,,,2021-10-01,清算の結了等,,,2015-11-05,1,,,,,ティアンドティエンタープライズ,0
557,2320001005955,登記記録の閉鎖等,0,2021-10-13,2021-10-11,株式会社レクラン,,株式会社,大分県,大分市,高城新町６番２１号アクシス高城Ｃ,,44,201,8700156,,,2021-10-11,清算の結了等,,,2015-10-05,1,,,,,レクラン,0
558,2320001007464,登記記録の閉鎖等,0,2021-10-13,2021-10-12,岡村電設株式会社,,株式会社,大分県,大分市,下郡中央２丁目５番２７号,,44,201,8700954,,,2021-10-12,清算の結了等,,,2015-10-05,1,,,,,オカムラデンセツ,0
564,2330001009757,登記記録の閉鎖等,0,2021-10-13,2021-10-07,エコマザー株式会社,,株式会社,熊本県,阿蘇郡西原村,大字鳥子３１２番地２,,43,432,8612401,,,2021-10-07,合併による解散等,8290002055659,令和３年１０月１日福岡県大牟田市大字草木９９８番地１株式会社アースエナジー（8290002055659）に合併し解散,2015-10-05,1,,,,,エコマザー,0
593,2390002012317,登記記録の閉鎖等,0,2021-10-13,2021-10-07,有限会社フジヒロ,,有限会社,山形県,東根市,温泉町１丁目２１番１８号,,06,211,9993702,,,2021-10-07,清算の結了等,,,2015-10-05,1,,,,,フジヒロ,0
607,2440005000783,登記記録の閉鎖等,0,2021-10-13,2021-09-01,天理教北弘徳分教会,00090524,その他の設立登記法人,北海道,函館市,松陰町１７番２０号,,01,202,0400003,,,2021-09-01,合併による解散等,5420005005170,令和３年８月２４日青森県平川市柏木町東田１８番地２天理教柏木町分教会（5420005005170）に合併し解散,2015-10-05,1,,,,,テンリキョウキタコウトクブンキョウカイ,0
609,2450005002498,登記記録の閉鎖等,0,2021-10-13,2021-10-11,税理士法人なよろ税経事務所,,その他の設立登記法人,北海道,名寄市,西三条南３丁目３番地１,,01,221,0960013,,,2021-10-11,清算の結了等,,,2015-10-05,1,,,,,ナヨロゼイケイジムショ,0
610,2460302004007,登記記録の閉鎖等,0,2021-10-13,2021-10-11,有限会社三浦金物店,,有限会社,北海道,北見市,留辺蘂町旭公園９５番地５,,01,208,0910026,,,2021-10-11,清算の結了等,,,2015-10-05,1,,,,,,0
646,3010405017255,登記記録の閉鎖等,0,2021-10-13,2021-09-29,特定非営利活動法人ラゾス,,その他の設立登記法人,東京都,港区,浜松町２丁目２番１５号浜松町ダイヤビル２Ｆ,,13,103,1050013,,,2021-09-29,清算の結了等,,,2018-12-18,1,,,,,ラゾス,0
650,3010502014080,登記記録の閉鎖等,0,2021-10-13,2021-10-08,有限会社キングスフィールドコーポレーション,,有限会社,東京都,北区,中里３丁目１６番３３号,,13,117,1140015,,,2021-10-08,清算の結了等,,,2015-10-05,1,,,,,キングスフィールドコーポレーション,0
652,3010601040333,登記記録の閉鎖等,0,2021-10-13,2021-10-01,株式会社コーシン,,株式会社,東京都,墨田区,墨田３丁目１番３号,,13,107,1310031,,,2021-10-01,合併による解散等,3010601010518,令和３年１０月１日東京都墨田区墨田三丁目１番３号興伸色鉛筆芯株式会社（3010601010518）に合併し解散,2015-10-05,1,,,,,コーシン,0
659,3010801016216,登記記録の閉鎖等,0,2021-10-13,2021-10-06,株式会社クリーン商事,,株式会社,東京都,大田区,大森東５丁目３１番１３号,,13,111,1430012,,,2021-10-06,清算の結了等,,,2015-10-05,1,,,,,クリーンショウジ,0
661,3010901035371,登記記録の閉鎖等,0,2021-10-13,2021-10-07,株式会社ＳＩＭＨＡ,,株式会社,東京都,世田谷区,若林２丁目３番８号,,13,112,1540023,,,2021-10-07,清算の結了等,,,2015-10-05,1,,,,,,0
678,3011101083715,登記記録の閉鎖等,0,2021-10-13,2021-10-01,株式会社ハルメクホールディングス,,株式会社,東京都,新宿区,神楽坂４丁目１番１号,,13,104,1620825,,,2021-10-01,合併による解散等,9011101091910,令和３年１０月１日東京都新宿区神楽坂四丁目１番１号株式会社ハルメクホールディングス（9011101091910）に合併し解散,2018-04-16,1,,,,,ハルメクホールディングス,0
681,3011401021696,登記記録の閉鎖等,0,2021-10-13,2021-10-07,株式会社Ｋａｌａｎｉ　Ａｏｌａｎｉ,,株式会社,東京都,板橋区,双葉町２５番４号コートハウス双葉台１０１,,13,119,1730011,,,2021-10-07,清算の結了等,,,2019-03-14,1,,,,,,0
687,3011801016478,登記記録の閉鎖等,0,2021-10-13,2021-10-11,ロイヤル交通株式会社,,株式会社,東京都,足立区,中川４丁目４３番１号,,13,121,1200002,,,2021-10-11,合併による解散等,1011801019706,令和３年１０月１日東京都足立区中川四丁目４３番１号湘南流通サービス株式会社（1011801019706）に合併し解散,2015-10-05,1,,,,,ロイヤルコウツウ,0
688,3011801025289,登記記録の閉鎖等,0,2021-10-13,2021-10-06,ＭＯＭＯエンタープライズ株式会社,,株式会社,東京都,豊島区,上池袋１丁目３０番１７号,,13,116,1700012,,,2021-10-06,清算の結了等,,,2015-10-05,1,,,,,モモエンタープライズ,0
705,3020002011874,登記記録の閉鎖等,0,2021-10-13,2021-10-07,有限会社清水園,,有限会社,神奈川県,横浜市戸塚区,吉田町６３１番地,,14,110,2440817,,,2021-10-07,清算の結了等,,,2015-10-05,1,,,,,シミズエン,0
713,3021001055524,登記記録の閉鎖等,0,2021-10-13,2021-10-08,ＲＥＶ株式会社,,株式会社,神奈川県,平塚市,土屋３２１３番地の１,,14,203,2591205,,,2021-10-08,清算の結了等,,,2015-10-05,1,,,,,,0
741,3040001079647,登記記録の閉鎖等,0,2021-10-13,2021-10-01,株式会社ケイエフ,,株式会社,東京都,江東区,南砂２丁目３番２－１１１７号,,13,108,1360076,,,2021-10-01,清算の結了等,,,2015-10-05,1,,,,,ケイエフ,0
749,3040003018066,登記記録の閉鎖等,0,2021-10-13,2021-10-05,合同会社共立福祉会,,合同会社,千葉県,佐倉市,生谷１５１５番地１９２,,12,212,2850836,,,2021-10-05,清算の結了等,,,2021-06-30,1,,,,,キョウリツフクシカイ,0
758,3070001009799,登記記録の閉鎖等,0,2021-10-13,2021-10-11,株式会社アイデント,,株式会社,群馬県,安中市,板鼻７６９番地,,10,211,3790111,,,2021-10-11,清算の結了等,,,2015-10-05,1,,,,,アイデント,0
762,3070002030985,登記記録の閉鎖等,0,2021-10-13,2021-10-08,有限会社松崎樹脂,,有限会社,群馬県,太田市,新田小金井町１４１８番地,,10,205,3700303,,,2021-10-08,清算の結了等,,,2015-10-05,1,,,,,マツザキジュシ,0
766,3080101020341,登記記録の閉鎖等,0,2021-10-13,2021-10-07,株式会社マナティー伊豆,,株式会社,静岡県,伊豆の国市,古奈２８番地,,22,225,4102201,,,2021-10-07,合併による解散等,9010001128293,令和３年９月２８日東京都中央区日本橋三丁目３番３号いづみやビル４階株式会社クラブ・マナティー（9010001128293）に合併し解散,2018-02-26,1,,,,,マナティーイズ,0
768,3080102006083,登記記録の閉鎖等,0,2021-10-13,2021-10-04,有限会社大衆不動産,,有限会社,静岡県,裾野市,麦塚２２番地の１,,22,220,4101122,,,2021-10-04,清算の結了等,,,2015-10-05,1,,,,,タイシュウフドウサン,0
779,3110005008280,登記記録の閉鎖等,0,2021-10-13,2021-09-06,稲荷社,,その他の設立登記法人,新潟県,上越市,大字上湯谷４０５番地,,15,222,9430839,,,2021-09-06,合併による解散等,7110005008608,令和３年９月６日新潟県上越市大字滝寺１８４７番地諏訪神社（7110005008608）に合併し解散,2015-10-05,1,,,,,イナリシャ,0
781,3110005008685,登記記録の閉鎖等,0,2021-10-13,2021-09-06,諏訪社,,その他の設立登記法人,新潟県,上越市,大字儀明５５４番地,,15,222,9430848,,,2021-09-06,合併による解散等,7110005008608,令和３年９月６日新潟県上越市大字滝寺１８４７番地諏訪神社（7110005008608）に合併し解散,2015-10-05,1,,,,,スワシャ,0
788,3120001064905,登記記録の閉鎖等,0,2021-10-13,2021-10-11,ＡＳエンジニアリング株式会社,,株式会社,大阪府,大阪市北区,大淀中１丁目１番３０号,,27,127,5310076,,,2021-10-11,合併による解散等,6120001065933,令和３年１０月１日大阪市北区大淀中一丁目１番３０号積水アクアシステム株式会社（6120001065933）に合併し解散,2015-10-05,1,,,,,エーエスエンジニアリング,0
808,3120901017160,登記記録の閉鎖等,0,2021-10-13,2021-10-11,株式会社梅清,,株式会社,大阪府,茨木市,真砂３丁目１６番１５号,,27,211,5670851,,,2021-10-11,清算の結了等,,,2015-10-05,1,,,,,ウメキヨ,0
819,3130005005961,登記記録の閉鎖等,0,2021-10-13,2021-10-11,医療法人明徳会,,その他の設立登記法人,京都府,京都市伏見区,醍醐高畑町３０番地の１,,26,109,6011375,,,2021-10-11,清算の結了等,,,2015-10-05,1,,,,,メイトクカイ,0
821,3140001022423,登記記録の閉鎖等,0,2021-10-13,2021-10-06,株式会社ＨＡＡ神戸,,株式会社,兵庫県,神戸市中央区,小野浜町２１番１号,,28,110,6510082,,,2021-10-06,合併による解散等,3180001094608,令和３年１０月１日愛知県東海市新宝町５０７番地の２０株式会社ユー・エス・エス（3180001094608）に合併し解散,2015-10-05,1,,,,,エイチエーエーコウベ,0
840,3180001101405,登記記録の閉鎖等,0,2021-10-13,2021-10-08,株式会社大河コーポレーション,,株式会社,愛知県,稲沢市,祖父江町拾町野屋敷東３３４番地１,,23,220,4950037,,,2021-10-08,清算の結了等,,,2015-10-05,1,,,,,タイガコーポレーション,0
855,3180302024916,登記記録の閉鎖等,0,2021-10-13,2021-10-11,有限会社アイエス,,有限会社,愛知県,みよし市,明知町落通５８番地１,,23,236,4700214,,,2021-10-11,清算の結了等,,,2015-10-05,1,,,,,アイエス,0
861,3200001039007,登記記録の閉鎖等,0,2021-10-13,2021-10-11,株式会社サカイ技研,,株式会社,岐阜県,可児市,今渡字後路田３１４番地,,21,214,5090207,,,2021-10-11,清算の結了等,,,2021-08-19,1,,,,,サカイギケン,0
872,3280002004101,登記記録の閉鎖等,0,2021-10-13,2021-10-11,有限会社多喜家計画工房,,有限会社,島根県,松江市,浜乃木７丁目３番３号,,32,201,6900044,,,2021-10-11,清算の結了等,,,2015-10-05,1,,,,,オオキヤケイカクコウボウ,0
891,3320002007883,登記記録の閉鎖等,0,2021-10-13,2021-10-08,有限会社アークライト,,有限会社,大分県,大分市,大字皆春１６２７番地の１７,,44,201,8700131,,,2021-10-08,清算の結了等,,,2015-10-05,1,,,,,アークライト,0
897,3330001010771,登記記録の閉鎖等,0,2021-10-13,2021-09-01,フロンティアビジョン株式会社,,株式会社,熊本県,熊本市中央区,練兵町７８番１１０３号,,43,101,8600017,,,2021-09-01,合併による解散等,1011001109084,令和３年８月６日東京都渋谷区道玄坂一丁目１２番１号渋谷マークシティウエスト１５階アルサーガパートナーズ株式会社（1011001109084）に合併し解散,2015-10-05,1,,,,,フロンティアビジョン,0
924,3430001004441,登記記録の閉鎖等,0,2021-10-13,2021-10-07,株式会社北文,,株式会社,北海道,札幌市北区,北二十四条西１６丁目３番２８号,,01,102,0010024,,,2021-10-07,清算の結了等,,,2015-10-05,1,,,,,ホクモン,0
925,3430001021370,登記記録の閉鎖等,0,2021-10-13,2021-10-08,株式会社ふじみ塗装,,株式会社,北海道,札幌市西区,西野二条７丁目１番１２号,,01,107,0630032,,,2021-10-08,清算の結了等,,,2015-10-05,1,,,,,フジミトソウ,0
932,3430003012178,登記記録の閉鎖等,0,2021-10-13,2021-10-06,合同会社兎,,合同会社,北海道,千歳市,清水町３丁目１５番地５,,01,224,0660041,,,2021-10-06,清算の結了等,,,2020-11-27,1,,,,,ウサギ,0
946,4010001145599,登記記録の閉鎖等,0,2021-10-13,2021-10-04,株式会社集,,株式会社,東京都,中央区,銀座５丁目５番１１号塚本不動産ビル６階,,13,102,1040061,,,2021-10-04,清算の結了等,,,2015-10-05,1,,,,,シュウ,0
948,4010001172494,登記記録の閉鎖等,0,2021-10-13,2021-10-05,匠ワークス株式会社,,株式会社,神奈川県,横浜市泉区,中田東２丁目２２番１１号,,14,116,2450013,,,2021-10-05,清算の結了等,,,2015-12-25,1,,,,,タクミワークス,0
957,4010005027463,登記記録の閉鎖等,0,2021-10-13,2021-09-07,京浜監査法人,,その他の設立登記法人,東京都,中央区,明石町１番２９号掖済会ビル２階,,13,102,1040044,,,2021-09-07,合併による解散等,3120005014360,令和３年９月１日大阪市中央区博労町二丁目４番１１号中博ビル７階監査法人彌榮会計社（3120005014360）に合併し解散,2017-09-20,1,,,,,ケイヒン,0
967,4010401102828,登記記録の閉鎖等,0,2021-10-13,2021-09-30,株式会社ＤＥＢＯＲＡＨ,,株式会社,東京都,港区,南青山３丁目１８番５号,,13,103,1070062,,,2021-09-30,清算の結了等,,,2015-10-05,1,,,,,デボラ,0
972,4010401140209,登記記録の閉鎖等,0,2021-10-13,2021-10-01,株式会社ＳＯＵＳＥＩ　Ｔｅｃｈｎｏｌｏｇｙ,,株式会社,東京都,港区,赤坂６丁目４－１０赤坂ＺＥＮビル４Ｆ,,13,103,1070052,,,2021-10-01,清算の結了等,,,2018-08-14,1,,,,,ソウセイテクノロジー,0
990,4010901009465,登記記録の閉鎖等,0,2021-10-13,2021-10-08,根本建設株式会社,,株式会社,東京都,世田谷区,深沢５丁目８番５号,,13,112,1580081,,,2021-10-08,清算の結了等,,,2015-10-05,1,,,,,ネモトケンセツ,0
997,4011001129823,登記記録の閉鎖等,0,2021-10-13,2021-09-24,株式会社テックビズキャリア,,株式会社,東京都,渋谷区,恵比寿南１丁目１番１号,,13,113,1500022,,,2021-09-24,合併による解散等,3011001129824,令和３年９月１日東京都渋谷区恵比寿南一丁目１番１号ヒューマックス恵比寿ビル３Ｆ株式会社テックビズ（3011001129824）に合併し解散,2019-09-11,1,,,,,テックビズキャリア,0
1009,4011105009401,登記記録の閉鎖等,0,2021-10-13,2021-10-05,一般社団法人住之江ランド,,その他の設立登記法人,東京都,新宿区,四谷２丁目９番地１５東京ユナイテッド綜合事務所内,,13,104,1600004,,,2021-10-05,清算の結了等,,,2020-06-26,1,,,,,スミノエランド,0
1012,4011302016167,登記記録の閉鎖等,0,2021-10-13,2021-10-01,有限会社門元建設,,有限会社,東京都,杉並区,荻窪１丁目２８番１０号,,13,115,1670051,,,2021-10-01,清算の結了等,,,2015-10-05,1,,,,,カドモトケンセツ,0
1032,4013301039009,登記記録の閉鎖等,0,2021-10-13,2021-10-05,株式会社プレビアス,,株式会社,東京都,豊島区,東池袋１丁目１０番１号,,13,116,1700013,,,2021-10-05,合併による解散等,4013301038811,令和３年１０月１日東京都豊島区東池袋一丁目１０番１号株式会社トライデント・プラス（4013301038811）に合併し解散,2016-06-22,1,,,,,プレビアス,0
1040,4021001023521,登記記録の閉鎖等,0,2021-10-13,2021-09-28,中央測量コンサルタント株式会社,,株式会社,神奈川県,厚木市,旭町１丁目１６番４号島村ビル１０２,,14,212,2430014,,,2021-09-28,合併による解散等,3021002033529,令和３年９月２７日神奈川県厚木市旭町一丁目１６番４号島村ビル２０２株式会社エネクト（3021002033529）に合併し解散,2015-10-05,1,,,,,チュウオウソクリョウコンサルタント,0
1041,4021001029592,登記記録の閉鎖等,0,2021-10-13,2021-09-28,株式会社ビー・ユー,,株式会社,神奈川県,大和市,福田５５２０番地茜ビル１Ｆ２号,,14,213,2420024,,,2021-09-28,合併による解散等,3021002033529,令和３年９月２７日神奈川県厚木市旭町一丁目１６番４号島村ビル２０２株式会社エネクト（3021002033529）に合併し解散,2015-10-05,1,,,,,ビーユー,0
1042,4021001036218,登記記録の閉鎖等,0,2021-10-13,2021-10-11,株式会社栄林堂印刷所,,株式会社,神奈川県,平塚市,宮の前１０番４１号,,14,203,2540035,,,2021-10-11,清算の結了等,,,2015-10-05,1,,,,,エイリンドウインサツジョ,0
1061,4030002013729,登記記録の閉鎖等,0,2021-10-13,2021-10-04,有限会社森クリーニング店,,有限会社,埼玉県,さいたま市大宮区,大成町２丁目２５０番地,,11,103,3300852,,,2021-10-04,清算の結了等,,,2015-10-05,1,,,,,モリクリーニングテン,0
1063,4030002038544,登記記録の閉鎖等,0,2021-10-13,2021-09-24,有限会社大山商店,,有限会社,埼玉県,白岡市,小久喜６６８番地の６,,11,246,3490217,,,2021-09-24,清算の結了等,,,2015-10-05,1,,,,,オオヤマショウテン,0
1114,4110005014476,登記記録の閉鎖等,0,2021-10-13,2021-09-02,北野神社,,その他の設立登記法人,新潟県,佐渡市,泉甲５０３番地,,15,224,9521212,,,2021-09-02,合併による解散等,3110005014452,令和３年９月２日新潟県佐渡市泉甲３９５番地荒貴神社（3110005014452）に合併し解散,2015-10-05,1,,,,,キタノジンジャ,0
1115,4120001014586,登記記録の閉鎖等,0,2021-10-13,2021-10-11,河村電気株式会社,,株式会社,大阪府,大阪市城東区,鴫野東２丁目２番１２号,,27,118,5360013,,,2021-10-11,清算の結了等,,,2015-10-05,1,,,,,カワムラデンキ,0
1142,4120901040327,登記記録の閉鎖等,0,2021-10-13,2021-10-11,ＭＨペプタイド株式会社,,株式会社,大阪府,茨木市,彩都あさぎ７丁目７番１５号,,27,211,5670085,,,2021-10-11,合併による解散等,5120901036893,令和３年１０月１日大阪府茨木市彩都あさぎ七丁目７番１５号アンチエイジングペプタイド株式会社（5120901036893）に合併し解散,2018-08-30,1,,,,,エムエイチペプタイド,0
1157,4140001071080,登記記録の閉鎖等,0,2021-10-13,2021-10-05,株式会社プライマリー,,株式会社,兵庫県,西宮市,甲子園五番町４番１５号,,28,204,6638175,,,2021-10-05,清算の結了等,,,2015-10-05,1,,,,,プライマリー,0
1166,4140002050728,登記記録の閉鎖等,0,2021-10-13,2021-10-06,有限会社フラワーショップナガオ,,有限会社,兵庫県,姫路市,大塩町２４８番地,,28,201,6710101,,,2021-10-06,清算の結了等,,,2015-10-05,1,,,,,フラワーショップナガオ,0
1187,4180305003775,登記記録の閉鎖等,0,2021-10-13,2021-08-30,洞泉寺,,その他の設立登記法人,愛知県,豊川市,長沢町八王子７０番地,,23,207,4410203,,,2021-08-30,合併による解散等,8180305003821,令和３年８月３０日愛知県豊川市長沢町金山４８番地立信寺（8180305003821）に合併し解散,2015-10-05,1,,,,,ドウセンジ,0
1198,4230005003789,登記記録の閉鎖等,0,2021-10-13,2021-09-13,八幡社,,その他の設立登記法人,富山県,黒部市,中陣８９番地,,16,207,9380827,,,2021-09-13,合併による解散等,3230005003781,令和３年９月１３日富山県黒部市中陣５６番地東照宮（3230005003781）に合併し解散,2015-10-05,1,,,,,ヤハタシャ,0
1237,4310002003552,登記記録の閉鎖等,0,2021-10-13,2021-10-08,トッププラン有限会社,,有限会社,長崎県,長崎市,鳴見台１丁目５番８号,,42,201,8512215,,,2021-10-08,清算の結了等,,,2015-10-05,1,,,,,トッププラン,0
1250,4350002003805,登記記録の閉鎖等,0,2021-10-13,2021-10-08,有限会社ビッグトップ,,有限会社,宮崎県,宮崎市,恒久２丁目５番地７,,45,201,8800913,,,2021-10-08,清算の結了等,,,2015-10-05,1,,,,,ビッグトップ,0
1267,4370401000079,登記記録の閉鎖等,0,2021-10-13,2021-10-08,登米電子株式会社,,株式会社,宮城県,登米市,登米町日根牛小池前１５６番地,,04,212,9870500,,,2021-10-08,合併による解散等,6012401008722,令和３年１０月１日東京都調布市下石原一丁目２番地３ＴＳＯビル株式会社モリマツ（6012401008722）に合併し解散,2015-10-05,1,,,,,,0
1279,4430002015544,登記記録の閉鎖等,0,2021-10-13,2021-10-07,有限会社ハウスアンドライフ,,有限会社,北海道,札幌市手稲区,前田七条７丁目４番７号,,01,109,0060817,,,2021-10-07,清算の結了等,,,2015-10-05,1,,,,,ハウスアンドライフ,0
1282,4440002007243,登記記録の閉鎖等,0,2021-10-13,2021-10-07,有限会社スクエア,,有限会社,北海道,函館市,追分町５番３８号,,01,202,0400071,,,2021-10-07,清算の結了等,,,2015-10-05,1,,,,,スクエア,0
1286,4470002016456,登記記録の閉鎖等,0,2021-10-13,2021-10-11,有限会社ゴウダモータース,,有限会社,香川県,三豊市,高瀬町新名１０３４番地４,,37,208,7670002,,,2021-10-11,清算の結了等,,,2015-10-05,1,,,,,ゴウダモータース,0
1292,5010001084912,登記記録の閉鎖等,0,2021-10-13,2021-10-08,株式会社トロイカジャパン,,株式会社,東京都,港区,三田３丁目１１番３６号,,13,103,1080073,,,2021-10-08,合併による解散等,4010701034779,令和３年１０月１日東京都品川区南大井六丁目２０番１２号株式会社ロキテクノマーケティング（4010701034779）に合併し解散,2015-10-05,1,,,,,トロイカジャパン,0
1295,5010001175265,登記記録の閉鎖等,0,2021-10-13,2021-10-04,株式会社地域活性化計画,,株式会社,東京都,中央区,銀座５丁目６番１２号,,13,102,1040061,,,2021-10-04,清算の結了等,,,2016-04-28,1,,,,,チイキカッセイカケイカク,0
1303,5010003000784,登記記録の閉鎖等,0,2021-10-13,2021-10-04,岡副合名会社,,合名会社,東京都,中央区,銀座７丁目１８番１７号,,13,102,1040061,,,2021-10-04,合併による解散等,9010001040011,令和３年１０月１日東京都中央区銀座七丁目１８番１７号株式会社金田中（9010001040011）に合併し解散,2015-10-05,1,,,,,オカゾエ,0
1327,5010801011347,登記記録の閉鎖等,0,2021-10-13,2021-10-07,丸忠デジタル株式会社,,株式会社,静岡県,三島市,平成台４４番地,,22,206,4110042,,,2021-10-07,合併による解散等,4010701005697,令和３年１０月１日東京都品川区西五反田八丁目１１番２１号大陽工業株式会社（4010701005697）に合併し解散,2015-10-05,1,,,,,マルチュウデジタル,0
1335,5010802014877,登記記録の閉鎖等,0,2021-10-13,2021-10-06,有限会社山憲機工,,有限会社,東京都,大田区,羽田１丁目１７番１９号,,13,111,1440043,,,2021-10-06,清算の結了等,,,2015-10-05,1,,,,,ヤマケンキコウ,0
1368,5011502015109,登記記録の閉鎖等,0,2021-10-13,2021-10-08,有限会社山栄工務店,,有限会社,東京都,北区,上中里３丁目１２番６号,,13,117,1140016,,,2021-10-08,清算の結了等,,,2015-10-05,1,,,,,サンエイコウムテン,0
1379,5012401003963,登記記録の閉鎖等,0,2021-10-13,2021-10-04,株式会社ビー・エヌ・アイ,,株式会社,東京都,千代田区,九段北１丁目７番地の３昭栄ビル４階,,13,101,1020073,,,2021-10-04,清算の結了等,,,2015-10-05,1,,,,,ビーエヌアイ,0
1393,5013301039008,登記記録の閉鎖等,0,2021-10-13,2021-10-05,株式会社ドットエア,,株式会社,東京都,豊島区,東池袋１丁目１０番１号,,13,116,1700013,,,2021-10-05,合併による解散等,4013301038811,令和３年１０月１日東京都豊島区東池袋一丁目１０番１号株式会社トライデント・プラス（4013301038811）に合併し解散,2016-06-22,1,,,,,ドットエア,0
1409,5021001051422,登記記録の閉鎖等,0,2021-10-13,2021-10-08,株式会社センスネット,,株式会社,神奈川県,平塚市,中原１丁目１３番２３号,,14,203,2540075,,,2021-10-08,清算の結了等,,,2015-10-05,1,,,,,センスネット,0
1414,5021002022769,登記記録の閉鎖等,0,2021-10-13,2021-10-07,有限会社轟鉄工所,,有限会社,神奈川県,相模原市中央区,田名３３０１番地３,,14,152,2520244,,,2021-10-07,清算の結了等,,,2015-10-05,1,,,,,トドロキテッコウジョ,0
1417,5021002050191,登記記録の閉鎖等,0,2021-10-13,2021-10-11,有限会社能島商事,,有限会社,神奈川県,足柄下郡湯河原町,土肥１丁目３番地の１０,,14,384,2590303,,,2021-10-11,清算の結了等,,,2015-10-05,1,,,,,ノジマショウジ,0
1437,5030002118691,登記記録の閉鎖等,0,2021-10-13,2021-10-04,有限会社アールテイアイ,,有限会社,埼玉県,深谷市,普済寺１４１９番地１,,11,218,3690203,,,2021-10-04,清算の結了等,,,2015-10-05,1,,,,,アールテイアイ,0
1445,5040001099255,登記記録の閉鎖等,0,2021-10-13,2021-10-05,株式会社朋丸,,株式会社,千葉県,船橋市,滝台１丁目６番１－２１４号,,12,204,2740074,,,2021-10-05,清算の結了等,,,2017-03-13,1,,,,,,0
1448,5040002039400,登記記録の閉鎖等,0,2021-10-13,2021-10-04,有限会社さえもん,,有限会社,千葉県,船橋市,海神３丁目１２番１５号,,12,204,2730021,,,2021-10-04,清算の結了等,,,2015-10-05,1,,,,,サエモン,0
1455,5070001002240,登記記録の閉鎖等,0,2021-10-13,2021-10-11,株式会社イーストウッドジャパン,,株式会社,群馬県,前橋市,三俣町３丁目３１番地の１７,,10,201,3710018,,,2021-10-11,清算の結了等,,,2015-10-05,1,,,,,イーストウッドジャパン,0
1476,5120001065744,登記記録の閉鎖等,0,2021-10-13,2021-10-08,新生産業資産管理株式会社,,株式会社,大阪府,大阪市北区,西天満５丁目９番１６号ダイアパレス西天満４０１号,,27,127,5300047,,,2021-10-08,清算の結了等,,,2015-10-05,1,,,,,シンセイサンギョウシサンカンリ,0
1510,5140001044647,登記記録の閉鎖等,0,2021-10-13,2021-10-05,株式会社明和ホーム,,株式会社,兵庫県,加古郡稲美町,加古１７８９番地の１,,28,381,6751105,,,2021-10-05,清算の結了等,,,2015-10-05,1,,,,,メイワホーム,0
1522,5150002005960,登記記録の閉鎖等,0,2021-10-13,2021-10-07,有限会社森鉄工所,,有限会社,奈良県,天理市,長柄町８０８番地の１,,29,204,6320062,,,2021-10-07,清算の結了等,,,2015-10-05,1,,,,,モリテッコウショ,0
1529,5180001103192,登記記録の閉鎖等,0,2021-10-13,2021-10-08,株式会社プレイバッハ,,株式会社,愛知県,名古屋市東区,東大曽根町３０番２５号,,23,102,4610022,,,2021-10-08,清算の結了等,,,2015-10-05,1,,,,,プレイバッハ,0
1536,5180001144402,登記記録の閉鎖等,0,2021-10-13,2021-10-04,株式会社イノベーション,,株式会社,愛知県,名古屋市中区,錦３丁目１０番１４号協和錦ビル,,23,106,4600003,,,2021-10-04,清算の結了等,,,2021-01-13,1,,,,,イノベーション,0
1542,5180003010395,登記記録の閉鎖等,0,2021-10-13,2021-10-06,合同会社アンファンカンパニー,,合同会社,愛知県,春日井市,鳥居松町４丁目１０５番地,,23,206,4860844,,,2021-10-06,清算の結了等,,,2015-10-05,1,,,,,アンファンカンパニー,0
1544,5180301024650,登記記録の閉鎖等,0,2021-10-13,2021-10-08,株式会社エアル,,株式会社,愛知県,名古屋市中村区,名駅４丁目２４番１６号広小路ガーデンアベニュー４Ｆ,,23,105,4500002,,,2021-10-08,清算の結了等,,,2015-10-05,1,,,,,エアル,0
1555,5240002029637,登記記録の閉鎖等,0,2021-10-13,2021-10-11,小田陸地造園有限会社,,有限会社,広島県,山県郡北広島町,大塚３８８番地,,34,369,7312107,,,2021-10-11,清算の結了等,,,2015-10-05,1,,,,,オダリクチゾウエン,0
1560,5260001024050,登記記録の閉鎖等,0,2021-10-13,2021-09-01,日本アセットマネジメント株式会社,,株式会社,岡山県,岡山市南区,福吉町１８番１８号,,33,104,7028048,,,2021-09-01,合併による解散等,6260001000595,令和３年９月１日岡山市南区福吉町１８番１８号岩水開発株式会社（6260001000595）に合併し解散,2015-10-05,1,,,,,ニホンアセットマネジメント,0
1564,5260005001748,登記記録の閉鎖等,0,2021-10-13,2021-10-11,医療法人梶原内科医院,,その他の設立登記法人,岡山県,赤磐市,桜が丘西７丁目１５番３１号,,33,213,7090802,,,2021-10-11,清算の結了等,,,2015-10-05,1,,,,,カジワラナイカイイン,0
1589,5340002011279,登記記録の閉鎖等,0,2021-10-13,2021-10-05,有限会社高瀬石油,00099209,有限会社,鹿児島県,鹿児島市,谷山中央５丁目１７番６号,,46,201,8910141,,,2021-10-05,清算の結了等,,,2015-10-05,1,,,,,タカセセキユ,0
1618,5430003002078,登記記録の閉鎖等,0,2021-10-13,2021-10-06,合同会社複雑系工房,,合同会社,北海道,札幌市北区,北三十七条西８丁目２番３０－１１１号,,01,102,0010037,,,2021-10-06,清算の結了等,,,2015-10-05,1,,,,,フクザツケイコウボウ,0
1619,5430005000484,登記記録の閉鎖等,0,2021-10-13,2021-08-25,天理教拓邦分教会,,その他の設立登記法人,北海道,札幌市北区,北二十四条西１５丁目２番１４号,,01,102,0010024,,,2021-08-25,合併による解散等,6430005006489,令和３年８月２５日北海道岩見沢市四条西十四丁目８番地天理教志文分教会（6430005006489）に合併し解散,2015-10-05,1,,,,,テンリキョウタクホウブンキョウカイ,0
1624,5490001001209,登記記録の閉鎖等,0,2021-10-13,2021-10-12,高知百貨住宅産業株式会社,,株式会社,高知県,高知市,はりまや町２丁目３番３号,,39,201,7800822,,,2021-10-12,清算の結了等,,,2015-10-05,1,,,,,コウチヒャッカジュウタクサンギョウ,0
1628,5500002022391,登記記録の閉鎖等,0,2021-10-13,2021-09-01,有限会社コットンフェア,,有限会社,愛媛県,四国中央市,妻鳥町６３６番地,,38,213,7990113,,,2021-09-01,合併による解散等,1500001021225,令和３年９月１日愛媛県四国中央市妻鳥町４７１番地１株式会社タダオ（1500001021225）に合併し解散,2015-10-05,1,,,,,コットンフェア,0
1642,6010401019450,登記記録の閉鎖等,0,2021-10-13,2021-09-28,株式会社トータルシンク,,株式会社,東京都,目黒区,中目黒３丁目５番２４号,,13,110,1530061,,,2021-09-28,清算の結了等,,,2015-10-05,1,,,,,トータルシンク,0
1659,6010601015654,登記記録の閉鎖等,0,2021-10-13,2021-10-01,株式会社マルシン,,株式会社,東京都,墨田区,東墨田２丁目１９番１３号,,13,107,1310042,,,2021-10-01,清算の結了等,,,2015-10-05,1,,,,,マルシン,0
1664,6010901028793,登記記録の閉鎖等,0,2021-10-13,2021-09-28,株式会社ＮＹＫメディカル,,株式会社,東京都,目黒区,中根２丁目１５番１２－４０１号,,13,110,1520031,,,2021-09-28,清算の結了等,,,2015-10-05,1,,,,,エヌワイケイメディカル,0
1685,6011301002694,登記記録の閉鎖等,0,2021-10-13,2021-10-07,株式会社ザ・スタッフ,,株式会社,東京都,杉並区,堀ノ内２丁目２５番５号,,13,115,1660013,,,2021-10-07,清算の結了等,,,2015-10-05,1,,,,,ザスタッフ,0
1687,6011301020473,登記記録の閉鎖等,0,2021-10-13,2021-10-08,株式会社アッセンブル・アース,,株式会社,東京都,杉並区,荻窪１丁目２６番１２号,,13,115,1670051,,,2021-10-08,清算の結了等,,,2015-10-05,1,,,,,アッセンブルアース,0
1701,6011801029188,登記記録の閉鎖等,0,2021-10-13,2021-10-11,船木舗装株式会社,,株式会社,東京都,葛飾区,東新小岩８丁目２７番１９号,,13,122,1240023,,,2021-10-11,清算の結了等,,,2015-10-05,1,,,,,,0
1705,6012801000592,登記記録の閉鎖等,0,2021-10-13,2021-10-01,三和エフピー・ビジョン株式会社,,株式会社,東京都,立川市,曙町２丁目３４番地６号,00058614,13,202,1900012,,,2021-10-01,合併による解散等,2012801001462,令和３年１０月１日東京都立川市上砂町一丁目２番地の２株式会社プラザメディカル（2012801001462）に合併し解散,2015-10-05,1,,,,,サンワエフピービジョン,0
1709,6012803001589,登記記録の閉鎖等,0,2021-10-13,2021-10-11,合同会社英商事,,合同会社,東京都,昭島市,田中町１丁目９番９号,,13,207,1960014,,,2021-10-11,清算の結了等,,,2017-04-06,1,,,,,,0
1714,6013301039007,登記記録の閉鎖等,0,2021-10-13,2021-10-05,株式会社スペーシア,,株式会社,東京都,豊島区,東池袋１丁目１０番１号,,13,116,1700013,,,2021-10-05,合併による解散等,4013301038811,令和３年１０月１日東京都豊島区東池袋一丁目１０番１号株式会社トライデント・プラス（4013301038811）に合併し解散,2016-06-22,1,,,,,スペーシア,0
1745,6030003002175,登記記録の閉鎖等,0,2021-10-13,2021-10-04,合同会社長谷川塗装工業,,合同会社,埼玉県,北足立郡伊奈町,大字小室６８８２番地３,,11,301,3620806,,,2021-10-04,清算の結了等,,,2015-10-05,1,,,,,ハセガワトソウコウギョウ,0
1752,6040005018235,登記記録の閉鎖等,0,2021-10-13,2021-10-05,特定非営利活動法人権利擁護・市民後見センターながいきネット,,その他の設立登記法人,千葉県,長生郡長南町,千田７７１番地１,,12,427,2970115,,,2021-10-05,清算の結了等,,,2015-10-05,1,,,,,ケンリヨウゴシミンコウケンセンターナガイキネット,0
1767,6070002034983,登記記録の閉鎖等,0,2021-10-13,2021-10-08,有限会社利根沼田不動産公社,,有限会社,群馬県,沼田市,上原町１６２８番地９,,10,206,3780051,,,2021-10-08,清算の結了等,,,2015-10-05,1,,,,,トネヌマタフドウサンコウシャ,0
1774,6100002021012,登記記録の閉鎖等,0,2021-10-13,2021-10-11,有限会社中屋建設,,有限会社,長野県,松本市,並柳３丁目２１番５号,,20,202,3900825,,,2021-10-11,清算の結了等,,,2015-10-05,1,,,,,ナカヤケンセツ,0
1778,6110002024939,登記記録の閉鎖等,0,2021-10-13,2021-10-07,有限会社豊中建材,,有限会社,新潟県,妙高市,下町１２番３１号,,15,217,9440048,,,2021-10-07,清算の結了等,,,2015-10-05,1,,,,,トヨナカケンザイ,0
1784,6120001109467,登記記録の閉鎖等,0,2021-10-13,2021-10-07,株式会社近鉄・都ホテルズ,,株式会社,大阪府,大阪市天王寺区,上本町６丁目１番５５号,,27,109,5430001,,,2021-10-07,合併による解散等,6120001101143,令和３年１０月１日大阪市天王寺区上本町六丁目５番１３号近鉄不動産株式会社（6120001101143）に合併し解散,2015-10-05,1,,,,,キンテツミヤコホテルズ,0
1791,6120001157425,登記記録の閉鎖等,0,2021-10-13,2021-10-07,株式会社宏陽産業,,株式会社,大阪府,門真市,三ツ島２丁目２番２３号,,27,223,5710015,,,2021-10-07,清算の結了等,,,2015-10-05,1,,,,,コウヨウサンギョウ,0
1811,6120005012031,登記記録の閉鎖等,0,2021-10-13,2021-10-04,特定非営利活動法人日本トリートメント協会,,その他の設立登記法人,大阪府,大阪市中央区,心斎橋筋２丁目３番３１号,,27,128,5420085,,,2021-10-04,清算の結了等,,,2015-10-05,1,,,,,,0
1817,6120102002604,登記記録の閉鎖等,0,2021-10-13,2021-10-07,泉幸通商有限会社,,有限会社,大阪府,堺市南区,宮山台３丁６番１８号,,27,145,5900101,,,2021-10-07,清算の結了等,,,2015-10-05,1,,,,,センコウツウショウ,0
1846,6180001040914,登記記録の閉鎖等,0,2021-10-13,2021-10-07,株式会社松島屋,,株式会社,愛知県,名古屋市中川区,長良町１丁目９０番地,,23,110,4540815,,,2021-10-07,合併による解散等,2180001020878,令和３年９月３０日名古屋市中川区長良町一丁目９０番地松島屋建物株式会社（2180001020878）に合併し解散,2015-10-05,1,,,,,マツシマヤ,0
1851,6180001097905,登記記録の閉鎖等,0,2021-10-13,2021-10-06,株式会社昭利ブラシ,,株式会社,愛知県,あま市,新居屋小舟戸９０番地,,23,237,4901105,,,2021-10-06,清算の結了等,,,2015-10-05,1,,,,,,0
1871,6190002018347,登記記録の閉鎖等,0,2021-10-13,2021-10-11,有限会社桂水産,,有限会社,三重県,員弁郡東員町,大字南大社６４０番地,,24,324,5110256,,,2021-10-11,清算の結了等,,,2015-10-05,1,,,,,カツラスイサン,0
1883,6210002010722,登記記録の閉鎖等,0,2021-10-13,2021-10-01,有限会社ミツモリ工業,,有限会社,福井県,敦賀市,中央町２丁目１０番２２,,18,202,9140811,,,2021-10-01,合併による解散等,3210001010528,令和３年１０月１日福井県敦賀市中央町二丁目１０番２２号株式会社協立技術工業（3210001010528）に合併し解散,2015-10-05,1,,,,,ミツモリコウギョウ,0
1885,6230001008468,登記記録の閉鎖等,0,2021-10-13,2021-10-01,株式会社ジュニパー,,株式会社,富山県,砺波市,広上町９番２１号,,16,208,9391367,,,2021-10-01,合併による解散等,4230001013643,令和３年１０月１日富山県南砺市院林１９２番地５株式会社オーテクト（4230001013643）に合併し解散,2015-10-05,1,,,,,ジュニパー,0
1887,6230001009020,登記記録の閉鎖等,0,2021-10-13,2021-10-04,株式会社高田製箸工業所,00078901,株式会社,富山県,小矢部市,北一１５８５番地,,16,209,9320844,,,2021-10-04,清算の結了等,,,2015-10-05,1,,,,,,0
1889,6230002010530,登記記録の閉鎖等,0,2021-10-13,2021-10-06,有限会社アイ・エム商事,,有限会社,富山県,高岡市,金屋町４番２号,,16,202,9330841,,,2021-10-06,清算の結了等,,,2015-10-05,1,,,,,アイエムショウジ,0
1905,6280001003266,登記記録の閉鎖等,0,2021-10-13,2021-10-08,株式会社地域医療支援センター,,株式会社,島根県,出雲市,塩冶神前１丁目７番４号,,32,203,6930024,,,2021-10-08,合併による解散等,9240001031854,令和３年１０月１日広島県福山市沖野上町四丁目１３番２７号株式会社ファーマシィ（9240001031854）に合併し解散,2015-10-05,1,,,,,チイキイリョウシエンセンター,0
1931,6350002014676,登記記録の閉鎖等,0,2021-10-13,2021-09-02,有限会社ハート・コーポレーション,,有限会社,宮崎県,北諸県郡三股町,大字宮村２８２３番地１,,45,341,8891912,,,2021-09-02,合併による解散等,7350001008587,令和３年９月１日宮崎県北諸県郡三股町大字宮村２８２３番地１株式会社情報図書館（7350001008587）に合併し解散,2015-10-05,1,,,,,ハートコーポレーシヨン,0
1937,6370001017034,登記記録の閉鎖等,0,2021-10-13,2021-10-01,株式会社モマ,,株式会社,宮城県,仙台市宮城野区,榴岡２丁目４番２２号,,04,102,9830852,,,2021-10-01,清算の結了等,,,2015-10-05,1,,,,,モマ,0
1943,6400001006867,登記記録の閉鎖等,0,2021-10-13,2021-10-11,株式会社駒屋漁業部,,株式会社,岩手県,宮古市,向町２番１５号,,03,202,0270082,,,2021-10-11,清算の結了等,,,2015-10-05,1,,,,,コマヤギョギョウブ,0
1945,6410002010223,登記記録の閉鎖等,0,2021-10-13,2021-10-07,有限会社健康堂薬店,,有限会社,秋田県,能代市,通町２番９号,,05,202,0160845,,,2021-10-07,清算の結了等,,,2015-10-05,1,,,,,ケンコウドウクスリテン,0
1960,6480002013590,登記記録の閉鎖等,0,2021-10-13,2021-10-08,福原ガラス有限会社,,有限会社,徳島県,阿南市,富岡町トノ町９９番地,,36,204,7740030,,,2021-10-08,清算の結了等,,,2015-10-05,1,,,,,,0
1979,7010401015820,登記記録の閉鎖等,0,2021-10-13,2021-10-01,株式会社センチュリーライフ,,株式会社,東京都,港区,芝４丁目２番３号,,13,103,1080014,,,2021-10-01,合併による解散等,6011101043939,令和３年１０月１日東京都港区芝二丁目９番１０号株式会社長谷工シニアウェルデザイン（6011101043939）に合併し解散,2015-10-05,1,,,,,センチュリーライフ,0
2010,7010901000917,登記記録の閉鎖等,0,2021-10-13,2021-10-07,株式会社イージーライダース,,株式会社,東京都,杉並区,上高井戸１丁目２２番１４号,,13,115,1680074,,,2021-10-07,清算の結了等,,,2015-10-05,1,,,,,イージーライダース,0
2012,7010901011732,登記記録の閉鎖等,0,2021-10-13,2021-10-08,ミドリ無線株式会社,,株式会社,東京都,世田谷区,奥沢１丁目５４番１７号,,13,112,1580083,,,2021-10-08,清算の結了等,,,2015-10-05,1,,,,,ミドリムセン,0
2025,7011101039531,登記記録の閉鎖等,0,2021-10-13,2021-10-05,株式会社住かんぽ,,株式会社,東京都,世田谷区,用賀２丁目２９番２４号,,13,112,1580097,,,2021-10-05,合併による解散等,9011101045965,令和３年１０月１日東京都世田谷区用賀二丁目２９番２４号株式会社住環境ジャパン（9011101045965）に合併し解散,2015-10-05,1,,,,,ジュウカンポ,0
2030,7011302007188,登記記録の閉鎖等,0,2021-10-13,2021-10-07,有限会社バード,,有限会社,東京都,杉並区,上高井戸１丁目１８番１０号,,13,115,1680074,,,2021-10-07,清算の結了等,,,2015-10-05,1,,,,,バード,0
2031,7011305001832,登記記録の閉鎖等,0,2021-10-13,2021-10-07,ガーデン堀ノ内住宅管理組合法人,,その他の設立登記法人,東京都,杉並区,堀ノ内１丁目８番３号,,13,115,1660013,,,2021-10-07,清算の結了等,,,2015-10-05,1,,,,,ガーデンホリノウチジュウタク,0
2038,7011801003266,登記記録の閉鎖等,0,2021-10-13,2021-10-11,株式会社東亜コーポレーション,,株式会社,東京都,葛飾区,柴又３丁目３番５号,,13,122,1250052,,,2021-10-11,清算の結了等,,,2015-10-05,1,,,,,トウアコーポレーション,0
2047,7013301043040,登記記録の閉鎖等,0,2021-10-13,2021-09-30,株式会社ついすみ,,株式会社,東京都,文京区,本郷４丁目２４番５号春日ビル７階,,13,105,1130033,,,2021-09-30,清算の結了等,,,2018-11-06,1,,,,,ツイスミ,0
2078,7040001101381,登記記録の閉鎖等,0,2021-10-13,2021-10-05,株式会社Ｗｉｎｃａｒｄ,,株式会社,千葉県,千葉市中央区,富士見２丁目７番９号富士見ビル６０９号,,12,101,2600015,,,2021-10-05,清算の結了等,,,2017-08-15,1,,,,,,0
2107,7070002017830,登記記録の閉鎖等,0,2021-10-13,2021-10-12,有限会社民宿かねた,,有限会社,群馬県,藤岡市,上日野２６２９番地,,10,209,3750047,,,2021-10-12,清算の結了等,,,2015-10-05,1,,,,,ミンシュクカネタ,0
2132,7120001069479,登記記録の閉鎖等,0,2021-10-13,2021-10-08,株式会社ビーフレックス,,株式会社,大阪府,大阪市北区,南扇町２番１号,,27,127,5300052,,,2021-10-08,清算の結了等,,,2015-10-05,1,,,,,ビーフレックス,0
2149,7120101020878,登記記録の閉鎖等,0,2021-10-13,2021-09-03,昭和電工堺アルミ株式会社,,株式会社,大阪府,堺市堺区,海山町６丁２２４番地,,27,141,5900982,,,2021-09-03,合併による解散等,2010701022050,令和３年８月２日東京都品川区西五反田一丁目３０番２号昭和アルミニウム缶株式会社（2010701022050）に合併し解散,2015-10-05,1,,,,,ショウワデンコウサカイアルミ,0
2150,7120101051741,登記記録の閉鎖等,0,2021-10-13,2021-10-08,株式会社Ｄｉｆｆｕｓｉｏｎ,,株式会社,大阪府,大阪狭山市,半田１丁目６番地の１４ＭｏｖｅＧｒＢｌｄｇ．１０１,,27,231,5890011,,,2021-10-08,清算の結了等,,,2015-10-05,1,,,,,ディフュージョン,0
2151,7120901030572,登記記録の閉鎖等,0,2021-10-13,2021-10-12,株式会社ファインプリント,,株式会社,大阪府,箕面市,箕面３丁目３番２２号,,27,220,5620001,,,2021-10-12,清算の結了等,,,2015-10-05,1,,,,,,0
2154,7122002002352,登記記録の閉鎖等,0,2021-10-13,2021-10-11,有限会社サルタ,,有限会社,大阪府,東大阪市,小若江３丁目６番１６号,,27,227,5770818,,,2021-10-11,清算の結了等,,,2015-10-05,1,,,,,サルタ,0
2176,7180001002847,登記記録の閉鎖等,0,2021-10-13,2021-10-04,株式会社藤が丘ホームセンター,,株式会社,愛知県,名古屋市名東区,富が丘１２１番地,,23,115,4650031,,,2021-10-04,清算の結了等,,,2015-10-05,1,,,,,フジガオカホームセンター,0
2219,7290001069339,登記記録の閉鎖等,0,2021-10-13,2021-10-08,株式会社リブオーク,,株式会社,大阪府,堺市南区,晴美台２丁３９番１１号,,27,145,5900113,,,2021-10-08,清算の結了等,,,2015-10-05,1,,,,,リブオーク,0
2230,7290005012682,登記記録の閉鎖等,0,2021-10-13,2021-09-07,天理教治上分教会,,その他の設立登記法人,福岡県,大牟田市,真道寺町９番地の１,,40,202,8360864,,,2021-09-07,合併による解散等,8150005000510,令和３年９月１日奈良市今市町２８５番地の１天理教治道大教会（8150005000510）に合併し解散,2015-10-05,1,,,,,テンリキョウハルカミブンキョウカイ,0
2241,7320005004313,登記記録の閉鎖等,0,2021-10-13,2021-10-12,農事組合法人おとめの里,,その他の設立登記法人,大分県,宇佐市,大字上乙女６９２番地,,44,211,8790303,,,2021-10-12,清算の結了等,,,2015-10-05,1,,,,,オトメノサト,0
2262,7430002018800,登記記録の閉鎖等,0,2021-10-13,2021-10-06,有限会社益田建築デザイン室,,有限会社,北海道,札幌市清田区,平岡三条３丁目２１番１０号,,01,110,0040873,,,2021-10-06,清算の結了等,,,2015-10-05,1,,,,,マスダケンチクデザインシツ,0
2265,7430005003444,登記記録の閉鎖等,0,2021-10-13,2021-10-07,特定非営利活動法人札幌アシストセンターマザー,,その他の設立登記法人,北海道,札幌市東区,北二十七条東１８丁目４番１４号,,01,103,0650027,,,2021-10-07,清算の結了等,,,2015-10-05,1,,,,,サッポロアシストセンターマザー,0
2302,8010501035404,登記記録の閉鎖等,0,2021-10-13,2021-09-01,株式会社ＫＨＳＫ,,株式会社,東京都,港区,六本木５丁目１４－１９,,13,103,1060032,,,2021-09-01,合併による解散等,4010501035663,令和３年９月１日東京都港区六本木五丁目１４－１９株式会社モンプリュグラン（4010501035663）に合併し解散,2015-10-05,1,,,,,ケイエイチエスケイ,0
2353,8011703002266,登記記録の閉鎖等,0,2021-10-13,2021-10-06,合同会社ＫＩＷ,,合同会社,東京都,江戸川区,南小岩７丁目２６番１０号第７５東京ビル４Ｆ,,13,123,1330056,,,2021-10-06,清算の結了等,,,2019-05-20,1,,,,,ケーアイダブリュウ,0
2354,8011801010154,登記記録の閉鎖等,0,2021-10-13,2021-10-11,株式会社東京常陸屋食品,,株式会社,東京都,足立区,千住緑町１丁目２３番３２号,,13,121,1200044,,,2021-10-11,清算の結了等,,,2015-10-05,1,,,,,,0
2378,8020002040811,登記記録の閉鎖等,0,2021-10-13,2021-10-07,有限会社吉澤設計企画,,有限会社,神奈川県,横浜市鶴見区,北寺尾１丁目１２番３号,,14,101,2300074,,,2021-10-07,清算の結了等,,,2015-10-05,1,,,,,ヨシザワセッケイキカク,0
2405,8030001102165,登記記録の閉鎖等,0,2021-10-13,2021-09-29,株式会社エム・アシスト,,株式会社,埼玉県,さいたま市浦和区,岸町６丁目１０番５号,,11,107,3300064,,,2021-09-29,清算の結了等,,,2015-10-05,1,,,,,エムアシスト,0
2414,8030002006588,登記記録の閉鎖等,0,2021-10-13,2021-09-29,有限会社松喜屋,,有限会社,埼玉県,さいたま市浦和区,仲町１丁目９番１５号,,11,107,3300062,,,2021-09-29,清算の結了等,,,2015-10-05,1,,,,,マツキヤ,0
2430,8050002035362,登記記録の閉鎖等,0,2021-10-13,2021-10-04,有限会社セイ山,,有限会社,茨城県,日立市,鹿島町１丁目１２番６号,,08,202,3170071,,,2021-10-04,清算の結了等,,,2015-10-05,1,,,,,セイザン,0
2451,8090002015369,登記記録の閉鎖等,0,2021-10-13,2021-10-11,有限会社富屋商店,,有限会社,山梨県,南巨摩郡南部町,南部８５２５番地,,19,366,4092212,,,2021-10-11,清算の結了等,,,2015-10-05,1,,,,,トミヤショウテン,0
2465,8120001219586,登記記録の閉鎖等,0,2021-10-13,2021-10-08,株式会社Ａｒｃ’Ｓ,,株式会社,兵庫県,西宮市,甲子園網引町３番１８号,,28,204,6638156,,,2021-10-08,清算の結了等,,,2019-03-13,1,,,,,アークス,0
2482,8120103002469,登記記録の閉鎖等,0,2021-10-13,2021-10-06,合同会社Ｂａｍｂｕｓ,,合同会社,大阪府,富田林市,梅の里２丁目１１番１０号,,27,214,5840001,,,2021-10-06,清算の結了等,,,2016-05-13,1,,,,,バンバウス,0
2555,8260001010948,登記記録の閉鎖等,0,2021-10-13,2021-10-12,株式会社ＦＵＭＯＴＯ,,株式会社,岡山県,岡山市中区,門田屋敷１丁目３番２１号,,33,102,7038275,,,2021-10-12,清算の結了等,,,2015-10-05,1,,,,,フモト,0
2590,8390001008343,登記記録の閉鎖等,0,2021-10-13,2021-10-07,東洋ＥＸＰ株式会社,,株式会社,山形県,鶴岡市,宝田３丁目１０番３５号,,06,203,9970011,,,2021-10-07,清算の結了等,,,2015-10-05,1,,,,,トウヨウイーエックスピー,0
2595,8420005004236,登記記録の閉鎖等,0,2021-10-13,2021-10-11,特定非営利活動法人燭光,,その他の設立登記法人,青森県,五所川原市,金木町朝日山４３３番地,,02,205,0370202,,,2021-10-11,清算の結了等,,,2015-10-05,1,,,,,ショクコウ,0
2615,9010001009114,登記記録の閉鎖等,0,2021-10-13,2021-10-04,荒川建設工業株式会社,,株式会社,東京都,千代田区,平河町２丁目１１番２号,,13,101,1020093,,,2021-10-04,清算の結了等,,,2015-10-05,1,,,,,アラカワケンセツコウギョウ,0
2619,9010001041109,登記記録の閉鎖等,0,2021-10-13,2021-10-04,株式会社銀座金田中,,株式会社,東京都,中央区,銀座７丁目６番１６号,,13,102,1040061,,,2021-10-04,合併による解散等,9010001040011,令和３年１０月１日東京都中央区銀座七丁目１８番１７号株式会社金田中（9010001040011）に合併し解散,2015-10-05,1,,,,,ギンザカネタナカ,0
2626,9010002038335,登記記録の閉鎖等,0,2021-10-13,2021-10-11,有限会社サンレディ東京,,有限会社,東京都,杉並区,善福寺２丁目３４番１０号,,13,115,1670041,,,2021-10-11,清算の結了等,,,2015-10-05,1,,,,,サンレディトウキョウ,0
2651,9010701040368,登記記録の閉鎖等,0,2021-10-13,2021-09-24,北京エレクトロニクス株式会社,,株式会社,東京都,渋谷区,宇田川町１－１２－１４１３,,13,113,1500042,,,2021-09-24,清算の結了等,,,2021-01-14,1,,,,,ペキンエレクトロニクス,0
2661,9010901037767,登記記録の閉鎖等,0,2021-10-13,2021-09-01,ＹＩＩ株式会社,,株式会社,東京都,港区,六本木５丁目１４－１９,,13,103,1060032,,,2021-09-01,合併による解散等,4010501035663,令和３年９月１日東京都港区六本木五丁目１４－１９株式会社モンプリュグラン（4010501035663）に合併し解散,2016-03-15,1,,,,,ワイアイアイ,0
2667,9011001091886,登記記録の閉鎖等,0,2021-10-13,2021-09-27,株式会社ティーエムシー,,株式会社,東京都,渋谷区,恵比寿２丁目２４番４号,,13,113,1500013,,,2021-09-27,清算の結了等,,,2015-10-05,1,,,,,ティーエムシー,0
2675,9011101054033,登記記録の閉鎖等,0,2021-10-13,2021-10-06,株式会社ワールドリゾートオペレーション,,株式会社,東京都,新宿区,新宿４丁目３番２３号,,13,104,1600022,,,2021-10-06,合併による解散等,6011101038047,令和３年１０月１日東京都新宿区新宿五丁目１７番９号株式会社リロバケーションズ（6011101038047）に合併し解散,2015-10-05,1,,,,,ワールドリゾートオペレーション,0
2696,9011701007076,登記記録の閉鎖等,0,2021-10-13,2021-10-07,ファイズ株式会社,,株式会社,東京都,江戸川区,篠崎町７丁目６番１９号,,13,123,1330061,,,2021-10-07,清算の結了等,,,2015-10-05,1,,,,,,0
2706,9012801017262,登記記録の閉鎖等,0,2021-10-13,2021-10-01,株式会社ワールド・クライ・カンパニー,,株式会社,東京都,国立市,中１丁目１０番地２,,13,215,1860004,,,2021-10-01,清算の結了等,,,2016-05-25,1,,,,,ワールドクライカンパニー,0
2739,9030002094946,登記記録の閉鎖等,0,2021-10-13,2021-09-30,有限会社ＨＩＤ,,有限会社,埼玉県,坂戸市,大字石井２０５０番地１３,,11,239,3500212,,,2021-09-30,清算の結了等,,,2015-10-05,1,,,,,エイチアイディ,0
2773,9070002005313,登記記録の閉鎖等,0,2021-10-13,2021-10-11,有限会社ミヤマデリカ,,有限会社,群馬県,前橋市,下増田町８１８番地,,10,201,3792113,,,2021-10-11,清算の結了等,,,2015-10-05,1,,,,,ミヤマデリカ,0
2774,9070002020948,登記記録の閉鎖等,0,2021-10-13,2021-10-12,マニワシステム有限会社,,有限会社,群馬県,佐波郡玉村町,大字飯塚２６６番地６,,10,464,3701102,,,2021-10-12,清算の結了等,,,2015-10-05,1,,,,,マニワシステム,0
2780,9080105002421,登記記録の閉鎖等,0,2021-10-13,2021-10-04,ＵＡゼンセン東邦テナックス労働組合,,その他の設立登記法人,静岡県,駿東郡長泉町,上土狩２３４,,22,342,4110941,,,2021-10-04,清算の結了等,,,2015-10-05,1,,,,,ユーエイゼンセントウホウテナックス,0
2791,9120001042756,登記記録の閉鎖等,0,2021-10-13,2021-10-07,株式会社近商,,株式会社,大阪府,大阪市西区,九条南２丁目８番１２－１００３号,,27,106,5500025,,,2021-10-07,清算の結了等,,,2015-10-05,1,,,,,キンショウ,0
2792,9120001046377,登記記録の閉鎖等,0,2021-10-13,2021-10-11,株式会社二村商店,,株式会社,大阪府,大阪市西区,南堀江３丁目６番１号,,27,106,5500015,,,2021-10-11,清算の結了等,,,2015-10-05,1,,,,,フタムラショウテン,0
2801,9120001181315,登記記録の閉鎖等,0,2021-10-13,2021-10-06,進和ネクスト株式会社,,株式会社,宮城県,登米市,登米町寺池目子待井２０番地６,,04,212,9870702,,,2021-10-06,合併による解散等,8120001149809,令和３年１０月１日大阪府枚方市宮之阪三丁目１番２１号ＫＣＣＳコネクトエンジニアリング株式会社（8120001149809）に合併し解散,2015-10-05,1,,,,,シンワネクスト,0
2823,9140001060509,登記記録の閉鎖等,0,2021-10-13,2021-10-08,株式会社ニッケンサーキュレーション,,株式会社,兵庫県,姫路市,飾磨区阿成１番地１,,28,201,6728037,,,2021-10-08,清算の結了等,,,2015-10-05,1,,,,,,0
2866,9210001013509,登記記録の閉鎖等,0,2021-10-13,2021-10-04,株式会社トライ・アイ,,株式会社,福井県,鯖江市,神中町２丁目５０１番３０,,18,207,9160016,,,2021-10-04,清算の結了等,,,2015-10-05,1,,,,,トライアイ,0
2879,9260001001772,登記記録の閉鎖等,0,2021-10-13,2021-09-01,岩水商事株式会社,,株式会社,岡山県,岡山市南区,福吉町１８番１８号,,33,104,7028048,,,2021-09-01,合併による解散等,6260001000595,令和３年９月１日岡山市南区福吉町１８番１８号岩水開発株式会社（6260001000595）に合併し解散,2015-10-05,1,,,,,ガンスイショウジ,0
2885,9290001040157,登記記録の閉鎖等,0,2021-10-13,2021-09-27,株式会社Ｊ・Ｓ・ＴＲＡＤＩＮＧ,,株式会社,福岡県,福岡市東区,香椎照葉３丁目２番２号１０２３,,40,131,8130017,,,2021-09-27,清算の結了等,,,2015-10-05,1,,,,,ジェイエストレーディング,0
2895,9290002027707,登記記録の閉鎖等,0,2021-10-13,2021-09-13,有限会社オフィス篠崎,,有限会社,福岡県,糟屋郡宇美町,宇美中央１丁目１番１号,,40,341,8112128,,,2021-09-13,合併による解散等,4290002037545,令和３年９月１日福岡県糟屋郡宇美町宇美中央一丁目１番１号株式会社芳華商事（4290002037545）に合併し解散,2015-10-05,1,,,,,オフィスシノザキ,0
2899,9290802006018,登記記録の閉鎖等,0,2021-10-13,2021-10-04,有限会社マルスイ,,有限会社,福岡県,北九州市小倉北区,西港町９４番地の２２,,40,106,8030801,,,2021-10-04,清算の結了等,,,2015-10-05,1,,,,,マルスイ,0
2900,9290802016314,登記記録の閉鎖等,0,2021-10-13,2021-09-30,有限会社ホーリープラン,,有限会社,福岡県,北九州市八幡西区,鷹の巣３丁目４番１号,,40,109,8060047,,,2021-09-30,清算の結了等,,,2015-10-05,1,,,,,ホーリープラン,0
2909,9330002013116,登記記録の閉鎖等,0,2021-10-13,2021-10-08,有限会社城東センター,,有限会社,熊本県,熊本市中央区,上通町８番１６号,,43,101,8600845,,,2021-10-08,清算の結了等,,,2015-10-05,1,,,,,ジョウトウセンター,0
2912,9330005006397,登記記録の閉鎖等,0,2021-10-13,2021-10-05,協同組合ショッピングプラザ芦北,00098407,その他の設立登記法人,熊本県,葦北郡芦北町,大字芦北２７８１番地８,00098408,43,482,8695461,,,2021-10-05,清算の結了等,,,2015-10-05,1,,,,,ショッピングプラザアシキタ,0
2918,9360001026223,登記記録の閉鎖等,0,2021-10-13,2021-10-07,株式会社タマキ,,株式会社,沖縄県,那覇市,西１丁目２０番１３号,,47,201,9000036,,,2021-10-07,清算の結了等,,,2019-09-13,1,,,,,タマキ,0
2929,9380005010106,登記記録の閉鎖等,0,2021-10-13,2021-10-07,一般社団法人ＧＭＴアセット,,その他の設立登記法人,福島県,郡山市,本町１丁目５番１０号,,07,203,9638871,,,2021-10-07,清算の結了等,,,2015-10-05,1,,,,,ジーエムティ,0
2944,9460102002831,登記記録の閉鎖等,0,2021-10-13,2021-10-11,有限会社ファンコーポレーション,,有限会社,北海道,帯広市,西二十五条南１丁目１４番地４９,,01,207,0802475,,,2021-10-11,清算の結了等,,,2015-10-05,1,,,,,ファンコーポレーション,0
2946,9470002001255,登記記録の閉鎖等,0,2021-10-13,2021-10-11,有限会社梅新,,有限会社,香川県,高松市,花ノ宮町３丁目２番７号,,37,201,7618063,,,2021-10-11,清算の結了等,,,2015-10-05,1,,,,,ウメシン,0
