sequenceNumber,corporateNumber,process,correct,updateDate,changeDate,name,nameImageId,kind,prefectureName,cityName,streetNumber,addressImageId,prefectureCode,cityCode,postCode,addressOutside,addressOutsideImageId,closeDate,closeCause,successorCorporateNumber,changeCause,assignmentDate,latest,enName,enPrefectureName,enCityName,enAddressOutside,furigana,hihyoji
11,1010001249329,新規,0,2024-11-14,2024-11-14,株式会社アストラＢＣ,,株式会社,東京都,中央区,銀座１丁目１２－４Ｎ＆ＥＢＬＤ．７階,,13,102,1040061,,,,,,,2024-11-14,1,,,,,アストラビーシー,0
12,1010001249717,新規,0,2024-11-14,2024-11-14,株式会社ＴＭパートナーズ,,株式会社,東京都,中央区,銀座１丁目１２番４号Ｎ＆ＥＢＬＤ．６Ｆ,,13,102,1040061,,,,,,,2024-11-14,1,,,,,ティーエムパートナーズ,0
13,1010001249832,新規,0,2024-11-14,2024-11-14,株式会社アシスト,,株式会社,東京都,千代田区,神田佐久間町１丁目１６－１大橋ビル５０３,,13,101,1010025,,,,,,,2024-11-14,1,,,,,アシスト,0
14,1010001249849,新規,0,2024-11-14,2024-11-14,株式会社セレンディ,,株式会社,東京都,千代田区,大手町１丁目３番１号,,13,101,1000004,,,,,,,2024-11-14,1,,,,,セレンディ,0
44,1010005039081,新規,0,2024-11-14,2024-11-14,一般社団法人松阪飯南ウィンドファーム,,その他の設立登記法人,東京都,中央区,京橋２丁目１２番６号ＡＯＪ税理士法人内,,13,102,1040031,,,,,,,2024-11-14,1,,,,,マツサカイイナンウィンドファーム,0
54,1010401186378,新規,0,2024-11-14,2024-11-14,Ｐｌｅｘｕｓ　Ｊａｐａｎ株式会社,,株式会社,東京都,港区,虎ノ門１丁目２３－１虎ノ門ヒルズ森タワー２８Ｆ,,13,103,1050001,,,,,,,2024-11-14,1,,,,,プレクサスジャパン,0
55,1010401186411,新規,0,2024-11-14,2024-11-14,Ｍ＆Ｇ株式会社,,株式会社,東京都,港区,赤坂１丁目１番１２号,,13,103,1070052,,,,,,,2024-11-14,1,,,,,エムアンドジー,0
56,1010401186452,新規,0,2024-11-14,2024-11-14,株式会社Ｌｅａｃｈ,,株式会社,東京都,港区,浜松町２丁目２番１５号浜松町ダイヤビル２Ｆ,,13,103,1050013,,,,,,,2024-11-14,1,,,,,リーチ,0
62,1010403033768,新規,0,2024-11-14,2024-11-14,合同会社ニカトル,,合同会社,東京都,港区,赤坂５丁目１番１号,,13,103,1070052,,,,,,,2024-11-14,1,,,,,ニカトル,0
66,1010601066272,新規,0,2024-11-14,2024-11-14,株式会社Ｆｏｕｒ　Ｓｅｖｅｎ　Ａｓｔｒａ,,株式会社,東京都,墨田区,緑４丁目５番８－５０１号,,13,107,1300021,,,,,,,2024-11-14,1,,,,,フォーセブンアストラ,0
67,1010603011202,新規,0,2024-11-14,2024-11-14,小宮エステート合同会社,,合同会社,東京都,墨田区,押上３丁目４１番１１号,,13,107,1310045,,,,,,,2024-11-14,1,,,,,コミヤエステート,0
71,1010703007439,新規,0,2024-11-14,2024-11-14,合同会社Ｇｅｎｅｖｏ,,合同会社,東京都,品川区,上大崎２丁目２４番１８－８０３号,,13,109,1410021,,,,,,,2024-11-14,1,,,,,ジェネヴォ,0
72,1010801035572,新規,0,2024-11-14,2024-11-14,株式会社ＧｒａｎｔＰｌｕｓ,,株式会社,東京都,大田区,仲池上１丁目２番２４－９０４号,,13,111,1460081,,,,,,,2024-11-14,1,,,,,グラントプラス,0
73,1010901056312,新規,0,2024-11-14,2024-11-14,株式会社ＫＩＴＡＭＥ,,株式会社,東京都,世田谷区,北沢２丁目２８番１号１階Ａ号室,,13,112,1550031,,,,,,,2024-11-14,1,,,,,キタメ,0
74,1010901056329,新規,0,2024-11-14,2024-11-14,株式会社Ｎｕｍｂｅｒｓ,,株式会社,東京都,世田谷区,大原１丁目１２番１５号ウェルフォレット１０２,,13,112,1560041,,,,,,,2024-11-14,1,,,,,ナンバーズ,0
78,1011001165771,新規,0,2024-11-14,2024-11-14,株式会社りた,,株式会社,東京都,目黒区,駒場３丁目１１番１０号ハイライズこまば１０１,,13,110,1530041,,,,,,,2024-11-14,1,,,,,リタ,0
79,1011001165796,新規,0,2024-11-14,2024-11-14,株式会社ｄｉｎｅｒｏ,,株式会社,東京都,渋谷区,道玄坂１丁目１０番８号渋谷道玄坂東急ビル２Ｆ－Ｃ,,13,113,1500043,,,,,,,2024-11-14,1,,,,,,0
80,1011001165813,新規,0,2024-11-14,2024-11-14,アルト・ラボ株式会社,,株式会社,東京都,目黒区,下目黒１丁目１番１４号コノトラビル７Ｆ,,13,110,1530064,,,,,,,2024-11-14,1,,,,,アルトラボ,0
81,1011001165821,新規,0,2024-11-14,2024-11-14,ＬＹ株式会社,,株式会社,東京都,目黒区,柿の木坂１丁目２７番２５号,,13,110,1520022,,,,,,,2024-11-14,1,,,,,エルワイ,0
82,1011001165904,新規,0,2024-11-14,2024-11-14,Ｔｉｄｅ　Ｆｌｏｗ　Ｍａｎａｇｅｍｅｎｔ株式会社,,株式会社,東京都,渋谷区,恵比寿西２丁目４番８号ウィンド恵比寿ビル８Ｆ,,13,113,1500021,,,,,,,2024-11-14,1,,,,,タイドフローマネジメント,0
83,1011001165937,新規,0,2024-11-14,2024-11-14,株式会社ＰＡＰＥＲＳＫＹ,,株式会社,東京都,渋谷区,東１丁目２３番３号,,13,113,1500011,,,,,,,2024-11-14,1,,,,,ペーパースカイ,0
84,1011001165953,新規,0,2024-11-14,2024-11-14,株式会社ＴＡＬＬＭＡＮ,,株式会社,東京都,渋谷区,道玄坂１丁目１０番８号渋谷道玄坂東急ビル２Ｆ－Ｃ,,13,113,1500043,,,,,,,2024-11-14,1,,,,,トールマン,0
86,1011003020413,新規,0,2024-11-14,2024-11-14,合同会社我流ＮＥＸＴ,,合同会社,東京都,渋谷区,道玄坂１丁目１０番８号渋谷道玄坂東急ビル２Ｆ－Ｃ,,13,113,1500043,,,,,,,2024-11-14,1,,,,,ガリュウネクスト,0
102,1011603004518,新規,0,2024-11-14,2024-11-14,合同会社笑子丸商会,,合同会社,東京都,練馬区,西大泉１丁目２１番１０号ヴィラージュＩＩＤ１０１,00137000,13,120,1780065,,,,,,,2024-11-14,1,,,,,エビスマルショウカイ,0
104,1011801045149,新規,0,2024-11-14,2024-11-14,株式会社エヌ・エックス,,株式会社,東京都,葛飾区,東堀切２丁目２４番５号,,13,122,1240004,,,,,,,2024-11-14,1,,,,,エヌエックス,0
105,1011803006553,新規,0,2024-11-14,2024-11-14,ＳＮＯＷＹ　ＨＯＲＩＺＯＮ合同会社,,合同会社,東京都,葛飾区,西新小岩３丁目３－１パレス新小岩２０３号,,13,122,1240025,,,,,,,2024-11-14,1,,,,,スノウィーホリズン,0
113,1013303007387,新規,0,2024-11-14,2024-11-14,ＮＥＷ　ＢＡＳＩＣ　Ｉｎｃ．合同会社,,合同会社,東京都,豊島区,西巣鴨１丁目２番２２号ＷＡＮＤＡビル２階,,13,116,1700001,,,,,,,2024-11-14,1,,,,,ニューベーシック,0
119,1020001160146,新規,0,2024-11-14,2024-11-14,東亜海商株式会社,,株式会社,神奈川県,横浜市中区,常盤町３丁目３０番１号ＳＯＬＡＣＵＢＥ横濱関内４－Ｇ,,14,104,2310014,,,,,,,2024-11-14,1,,,,,トウアカイショウ,0
120,1020001160179,新規,0,2024-11-14,2024-11-14,ＳＬＯＷ＆ＥＡＳＹ株式会社,,株式会社,神奈川県,川崎市中原区,新丸子東３丁目１１００番地１２Ｍ９０９,,14,133,2110004,,,,,,,2024-11-14,1,,,,,スローアンドイージー,0
123,1020003027203,新規,0,2024-11-14,2024-11-14,合同会社コントリビジョン,,合同会社,神奈川県,横浜市瀬谷区,瀬谷４丁目４番地１０ライオンズ横濱瀬谷ステーションスクエア９０１,,14,114,2460031,,,,,,,2024-11-14,1,,,,,コントリビジョン,0
127,1021001011990,新規,0,2024-11-14,2024-11-14,小泉産業株式会社,,株式会社,神奈川県,相模原市中央区,千代田４丁目２番１５号,,14,152,2520237,,,,,,,2024-11-14,1,,,,,,0
134,1021003015239,新規,0,2024-11-14,2024-11-14,合同会社春夏秋冬,,合同会社,神奈川県,相模原市緑区,牧野３８５５番地１,,14,151,2520186,,,,,,,2024-11-14,1,,,,,ハルナツアキフユ,0
141,1030005021938,新規,0,2024-11-14,2024-11-14,一般社団法人ＭＩＣＨＩＳＩＴＡ,,その他の設立登記法人,埼玉県,入間市,大字仏子６－１,,11,225,3580053,,,,,,,2024-11-14,1,,,,,ミチシタ,0
143,1040001136144,新規,0,2024-11-14,2024-11-14,株式会社ＡＣＥ,,株式会社,千葉県,山武市,横田７３９番地１１,,12,237,2891226,,,,,,,2024-11-14,1,,,,,エース,0
144,1040001136152,新規,0,2024-11-14,2024-11-14,ミシマ不動産株式会社,,株式会社,千葉県,千葉市中央区,塩田町６８４番地５,,12,101,2600823,,,,,,,2024-11-14,1,,,,,ミシマフドウサン,0
147,1040003026186,新規,0,2024-11-14,2024-11-14,惠比壽屋合同会社,,合同会社,千葉県,白井市,冨士９４番地７,,12,232,2701432,,,,,,,2024-11-14,1,,,,,エビスヤ,0
148,1040003026194,新規,0,2024-11-14,2024-11-14,ＶＰ　ＪＡＰＡＮ合同会社,,合同会社,千葉県,習志野市,津田沼３丁目１７番６－２０１号,,12,216,2750016,,,,,,,2024-11-14,1,,,,,ブイピージャパン,0
151,1050001055723,新規,0,2024-11-14,2024-11-14,株式会社昇黄,,株式会社,茨城県,ひたちなか市,幸町１番地６,,08,221,3111226,,,,,,,2024-11-14,1,,,,,ショウキ,0
163,1080103003197,新規,0,2024-11-14,2024-11-14,合同会社ケセラセラ,,合同会社,静岡県,沼津市,大岡１９７２番地の６,,22,203,4100022,,,,,,,2024-11-14,1,,,,,ケセラセラ,0
165,1090001018998,新規,0,2024-11-14,2024-11-14,株式会社ヒルズ・トラスト,,株式会社,山梨県,中央市,布施２３５６番地,,19,214,4093841,,,,,,,2024-11-14,1,,,,,ヒルズトラスト,0
166,1090003002678,新規,0,2024-11-14,2024-11-14,Ｓｕｎファーム合同会社,,合同会社,山梨県,北杜市,高根町清里３５４５番地３９９７,,19,209,4070301,,,,,,,2024-11-14,1,,,,,,0
168,1100001038012,新規,0,2024-11-14,2024-11-14,ＭＡＷ株式会社,,株式会社,長野県,松本市,大手３丁目３番９号ＮＴＴ東日本大名町ビル１階,,20,202,3900874,,,,,,,2024-11-14,1,,,,,マウ,0
172,1110005017151,新規,0,2024-11-14,2024-11-14,一般社団法人ＳＢＣＣ,,その他の設立登記法人,新潟県,新潟市中央区,紫竹山３丁目７番３１号,,15,103,9500914,,,,,,,2024-11-14,1,,,,,エスビーシーシー,0
178,1120001270158,新規,0,2024-11-14,2024-11-14,株式会社スマイルラボ,,株式会社,大阪府,大阪市中央区,谷町５丁目６番５－６０３号,,27,128,5400012,,,,,,,2024-11-14,1,,,,,スマイルラボ,0
179,1120001270190,新規,0,2024-11-14,2024-11-14,株式会社マサエモン,,株式会社,大阪府,寝屋川市,石津元町５番２５号,,27,215,5720025,,,,,,,2024-11-14,1,,,,,マサエモン,0
180,1120001270298,新規,0,2024-11-14,2024-11-14,株式会社開運ハウジング,,株式会社,大阪府,大阪市北区,梅田１丁目１番３大阪駅前第３ビル２９階１－１－１号室,,27,127,5300001,,,,,,,2024-11-14,1,,,,,カイウンハウジング,0
181,1120003027969,新規,0,2024-11-14,2024-11-14,真合同会社,,合同会社,大阪府,大阪市中央区,南船場４丁目１０番５号南船場ＳＯＨＯビル７０２,,27,128,5420081,,,,,,,2024-11-14,1,,,,,シン,0
183,1120101070532,新規,0,2024-11-14,2024-11-14,ＪＯホールディングス株式会社,,株式会社,大阪府,岸和田市,下池田町２丁目７番１号,,27,202,5960811,,,,,,,2024-11-14,1,,,,,ジェイオーホールディングス,0
186,1120103006138,新規,0,2024-11-14,2024-11-14,麗全貿易合同会社,,合同会社,大阪府,岸和田市,戎町７番６号,,27,202,5960022,,,,,,,2024-11-14,1,,,,,レイゼンボウエキ,0
188,1120901050015,新規,0,2024-11-14,2024-11-14,株式会社ＪＡＧＡＲ,,株式会社,大阪府,豊中市,大島町３丁目５番１９号３０３号,,27,203,5610824,,,,,,,2024-11-14,1,,,,,ジャガー,0
190,1122001038642,新規,0,2024-11-14,2024-11-14,株式会社セカンド,,株式会社,大阪府,大東市,三箇２丁目８番９号,,27,218,5740077,,,,,,,2024-11-14,1,,,,,セカンド,0
195,1130001078360,新規,0,2024-11-14,2024-11-14,なごみ電工株式会社,,株式会社,京都府,宇治市,神明石塚８０番地の２３,,26,204,6110025,,,,,,,2024-11-14,1,,,,,ナゴミデンコウ,0
199,1140001136415,新規,0,2024-11-14,2024-11-14,株式会社善コーポレーション,,株式会社,兵庫県,姫路市,中地２０３番地,,28,201,6700976,,,,,,,2024-11-14,1,,,,,ゼンコーポレーション,0
205,1150005009640,新規,0,2024-11-14,2024-11-14,一般社団法人たすき,,その他の設立登記法人,奈良県,御所市,大字竹田２６番地の１,,29,208,6392206,,,,,,,2024-11-14,1,,,,,タスキ,0
213,1180001164107,新規,0,2024-11-14,2024-11-14,フロラ株式会社,,株式会社,愛知県,名古屋市中区,三の丸１丁目１４番７号本丸ビル３０３号室,,23,106,4600001,,,,,,,2024-11-14,1,,,,,フロラ,0
214,1180001164156,新規,0,2024-11-14,2024-11-14,ルシェロ株式会社,,株式会社,愛知県,岩倉市,西市町西市前７３番地２,,23,228,4820036,,,,,,,2024-11-14,1,,,,,ルシェロ,0
215,1180001164180,新規,0,2024-11-14,2024-11-14,株式会社Ｔｒａｅｄｕ,,株式会社,愛知県,名古屋市中区,丸の内３丁目１９－１ライオンビル９階,,23,106,4600002,,,,,,,2024-11-14,1,,,,,トレーデュ,0
217,1180003027625,新規,0,2024-11-14,2024-11-14,合同会社水野,,合同会社,愛知県,名古屋市守山区,大永寺町２４６番地,,23,113,4630087,,,,,,,2024-11-14,1,,,,,ミズノ,0
225,1220001026327,新規,0,2024-11-14,2024-11-14,ＡＤＯメンテナンス株式会社,,株式会社,石川県,金沢市,畝田東２丁目２６１番地２,,17,201,9200344,,,,,,,2024-11-14,1,,,,,アドメンテナンス,0
228,1240001064119,新規,0,2024-11-14,2024-11-14,グリード株式会社,,株式会社,広島県,広島市中区,富士見町１０番４－７０１号,,34,101,7300043,,,,,,,2024-11-14,1,,,,,グリード,0
235,1290003016047,新規,0,2024-11-14,2024-11-14,合同会社ナル,,合同会社,福岡県,太宰府市,通古賀２丁目４－１９－２０５,,40,221,8180104,,,,,,,2024-11-14,1,,,,,ナル,0
236,1290003016063,新規,0,2024-11-14,2024-11-14,ＳＡＬＬＹ　ＰＡＲＴＹ　ＤＥＳＩＧＮ合同会社,,合同会社,福岡県,福岡市博多区,博多駅前３丁目１４番１２－３０６号サヴォイブロードストリート,,40,132,8120011,,,,,,,2024-11-14,1,,,,,サリーパーティーデザイン,0
238,1290801031024,新規,0,2024-11-14,2024-11-14,一興株式会社,,株式会社,福岡県,田川市,白鳥町５－２,,40,206,8250003,,,,,,,2024-11-14,1,,,,,イッコウ,0
239,1300001013969,新規,0,2024-11-14,2024-11-14,ヨシミ精機株式会社,,株式会社,佐賀県,神埼市,神埼町田道ヶ里１８５７番地１,,41,210,8420002,,,,,,,2024-11-14,1,,,,,ヨシミセイキ,0
241,1310001019321,新規,0,2024-11-14,2024-11-14,株式会社アートレーヴ,,株式会社,長崎県,西彼杵郡長与町,丸田郷１２４４番地,,42,307,8512124,,,,,,,2024-11-14,1,,,,,アートレーヴ,0
249,1350001019292,新規,0,2024-11-14,2024-11-14,株式会社竹之内畜産,,株式会社,宮崎県,小林市,北西方２０２７番地,,45,205,8860006,,,,,,,2024-11-14,1,,,,,タケノウチチクサン,0
252,1360003014456,新規,0,2024-11-14,2024-11-14,合同会社結絆,,合同会社,沖縄県,名護市,字仲尾次３２４番地,,47,209,9051144,,,,,,,2024-11-14,1,,,,,ツナグ,0
256,1390001017796,新規,0,2024-11-14,2024-11-14,株式会社アイズ,,株式会社,山形県,酒田市,光ケ丘２丁目２５番２８号,,06,204,9980061,,,,,,,2024-11-14,1,,,,,アイズ,0
273,1470001020461,新規,0,2024-11-14,2024-11-14,株式会社泉エンジニアリング,,株式会社,香川県,善通寺市,大麻町１６８４番地,,37,204,7650052,,,,,,,2024-11-14,1,,,,,イズミエンジニアリング,0
274,1480003002176,新規,0,2024-11-14,2024-11-14,合同会社門口,,合同会社,徳島県,海部郡牟岐町,大字内妻字大畑３１,,36,383,7750007,,,,,,,2024-11-14,1,,,,,モングチ,0
276,1500001025993,新規,0,2024-11-14,2024-11-14,摂陽ホールディングス株式会社,,株式会社,愛媛県,伊予郡砥部町,八倉１０８番地１,,38,402,7912111,,,,,,,2024-11-14,1,,,,,セツヨウホールディングス,0
283,1700150127868,新規,0,2024-11-14,2024-11-14,ｙｉｎｇｋｏｕｒｉｈｅｓｈａｎｇｍａｏｙｏｕｘｉａｎｇｏｎｇｓｉ,,外国会社等,,,,,,,,ｚｈａｎｑｉａｎｑｕ　ｂｏｈａｉｄａｊｉｅｘｉ　１２－７９０ｈａｏ　ｙｉｎｇｋｏｕｓｈｉ　ｌｉａｏｎｉｎｇｓｈｅｎｇ,,,,,,2024-11-14,1,,,,,イーンコウゥリーホーァシャーンマオヨウシエンゴーンスー,0
294,2010001249807,新規,0,2024-11-14,2024-11-14,株式会社ｉｎｓｔａｎｔ　ｐｌｕｓ,,株式会社,東京都,千代田区,神田佐久間町３丁目２１番地７,,13,101,1010025,,,,,,,2024-11-14,1,,,,,インスタントプラス,0
329,2010401186385,新規,0,2024-11-14,2024-11-14,株式会社ＡｕｔｈｅｎｔｉｃＡＩ,,株式会社,東京都,港区,北青山３丁目５－１０ワールド北青山ビル１２階,,13,103,1070061,,,,,,,2024-11-14,1,,,,,オーセンティックエーアイ,0
330,2010401186393,新規,0,2024-11-14,2024-11-14,株式会社ＤＤＲ,,株式会社,東京都,港区,虎ノ門４丁目３－２城山トラストコートＥ－１２１１,,13,103,1050001,,,,,,,2024-11-14,1,,,,,ディディアール,0
331,2010401186402,新規,0,2024-11-14,2024-11-14,株式会社リモネン,,株式会社,東京都,港区,白金台３丁目１８番８－３０６号,,13,103,1080071,,,,,,,2024-11-14,1,,,,,リモネン,0
334,2010403033775,新規,0,2024-11-14,2024-11-14,合同会社誠翔会,,合同会社,東京都,港区,南青山７丁目５－４－５０１ライオンズマンショングランフォート南青山,,13,103,1070062,,,,,,,2024-11-14,1,,,,,セイショウカイ,0
337,2010503007638,新規,0,2024-11-14,2024-11-14,若一合同会社,,合同会社,東京都,台東区,小島１丁目１番２号,,13,106,1110056,,,,,,,2024-11-14,1,,,,,ワカイチ,0
339,2010601066263,新規,0,2024-11-14,2024-11-14,アヴェニール株式会社,,株式会社,東京都,墨田区,八広４丁目３２番１４号,,13,107,1310041,,,,,,,2024-11-14,1,,,,,アヴェニール,0
340,2010601066271,新規,0,2024-11-14,2024-11-14,株式会社ＩｒｏｈａＧｌｏｂａｌ,,株式会社,東京都,江東区,大島４丁目３番３－１２０３号,,13,108,1360072,,,,,,,2024-11-14,1,,,,,イロハグローバル,0
341,2010901056311,新規,0,2024-11-14,2024-11-14,株式会社ＩＴＡＲＩＹＡＮＤ,,株式会社,東京都,世田谷区,奥沢２丁目３７番１６号,,13,112,1580083,,,,,,,2024-11-14,1,,,,,イタリヤンド,0
342,2010901056328,新規,0,2024-11-14,2024-11-14,株式会社長島不動産,,株式会社,東京都,世田谷区,祖師谷３丁目１番２４号,,13,112,1570072,,,,,,,2024-11-14,1,,,,,ナガシマフドウサン,0
352,2011001165770,新規,0,2024-11-14,2024-11-14,ＴＭＳ　Ａｃｔｉｖｉｔｉｅｓ株式会社,,株式会社,東京都,渋谷区,桜丘町２３番１７号シティコート桜丘４０８,,13,113,1500031,,,,,,,2024-11-14,1,,,,,ティーエムエスアクティビティーズ,0
353,2011001165787,新規,0,2024-11-14,2024-11-14,株式会社Ａｍｂｉｔ．,,株式会社,東京都,渋谷区,円山町５番５号Ｎａｖｉ渋谷Ｖ３階,,13,113,1500044,,,,,,,2024-11-14,1,,,,,アンビット,0
354,2011001165795,新規,0,2024-11-14,2024-11-14,株式会社ＡＲＴ,,株式会社,東京都,渋谷区,恵比寿西２丁目８番４号ＥＸ恵比寿西ビル５階,,13,113,1500021,,,,,,,2024-11-14,1,,,,,アート,0
355,2011001165829,新規,0,2024-11-14,2024-11-14,株式会社ＢＥＬＡＶ,,株式会社,東京都,渋谷区,道玄坂１丁目１０番８号渋谷道玄坂東急ビル２Ｆ－Ｃ,,13,113,1500043,,,,,,,2024-11-14,1,,,,,ベラヴ,0
356,2011001165894,新規,0,2024-11-14,2024-11-14,ＫｕｒｏｔｏＰａｒｔｎｅｒ株式会社,,株式会社,東京都,渋谷区,代々木１丁目３０番１４号天翔代々木ＡＮＮＥＸビル２階２０２号室,,13,113,1510053,,,,,,,2024-11-14,1,,,,,クロトパートナー,0
357,2011001165903,新規,0,2024-11-14,2024-11-14,株式会社ＨＯＬＤＥＲ,,株式会社,東京都,目黒区,上目黒３丁目１番１４号,,13,110,1530051,,,,,,,2024-11-14,1,,,,,ホルダー,0
358,2011001165911,新規,0,2024-11-14,2024-11-14,株式会社Ｌｉｇｕｌａ　Ｐｒｏｄｕｃｔｉｏｎ,,株式会社,東京都,渋谷区,桜丘町２３番１７号シティコート桜丘４０８,,13,113,1500031,,,,,,,2024-11-14,1,,,,,リグラプロダクション,0
359,2011001165969,新規,0,2024-11-14,2024-11-14,株式会社Ｓ　Ｓｕｓｔａｉｎａｂｌｅ　ＨＯＭＥ,,株式会社,東京都,渋谷区,渋谷２丁目１９番１５－６０９号宮益坂ビルディング,,13,113,1500002,,,,,,,2024-11-14,1,,,,,エスサステナブルホームズ,0
362,2011003020379,新規,0,2024-11-14,2024-11-14,怜合同会社,,合同会社,東京都,渋谷区,道玄坂１丁目１０番８号渋谷道玄坂東急ビル２Ｆ－Ｃ,,13,113,1500043,,,,,,,2024-11-14,1,,,,,レイ,0
367,2011101109520,新規,0,2024-11-14,2024-11-14,漢宝株式会社,,株式会社,東京都,新宿区,東五軒町１番９号ＳＢＳ－Ｅ５,,13,104,1620813,,,,,,,2024-11-14,1,,,,,カンポウ,0
370,2011103015171,新規,0,2024-11-14,2024-11-14,電話番号検索データベースの専門家合同会社,,合同会社,東京都,新宿区,新宿１丁目３６番２号新宿第七葉山ビル３階,,13,104,1600022,,,,,,,2024-11-14,1,,,,,デンワバンゴウケンサクデータベースノセンモンカ,0
371,2011105011185,新規,0,2024-11-14,2024-11-14,ＳＣ行政書士法人,,その他の設立登記法人,東京都,新宿区,西新宿６丁目８番１号住友不動産新宿オークタワー,,13,104,1600023,,,,,,,2024-11-14,1,,,,,エスシー,0
378,2011503006299,新規,0,2024-11-14,2024-11-14,金運合同会社,,合同会社,東京都,荒川区,荒川３丁目７６番１アンサンブル宮地４０２号,,13,118,1160002,,,,,,,2024-11-14,1,,,,,キンウン,0
382,2011801045107,新規,0,2024-11-14,2024-11-14,ＴＯＰホールディングス株式会社,,株式会社,東京都,足立区,扇２丁目２５番１号扇橋会館６階,,13,121,1230873,,,,,,,2024-11-14,1,,,,,トップホールディングス,0
383,2011801045148,新規,0,2024-11-14,2024-11-14,Ａｓｐｒｅａｄ株式会社,,株式会社,東京都,足立区,花畑１丁目２５番１７号,,13,121,1210061,,,,,,,2024-11-14,1,,,,,アスプレイド,0
388,2012301014155,新規,0,2024-11-14,2024-11-14,Ｂｌｕｅ　Ｂｌｏｏｍ株式会社,,株式会社,東京都,町田市,原町田４丁目１１番１３号天野ビル４Ｆ,,13,209,1940013,,,,,,,2024-11-14,1,,,,,ブルーブルーム,0
397,2013301053382,新規,0,2024-11-14,2024-11-14,ＢＬＥＺＡＳＩＡ株式会社,,株式会社,東京都,豊島区,南池袋３丁目１３番８号,,13,116,1710022,,,,,,,2024-11-14,1,,,,,ブレッズアジア,0
401,2020001160013,新規,0,2024-11-14,2024-11-14,Ｄ　ＰＨＡＲＭＡ株式会社,,株式会社,神奈川県,横浜市港北区,新横浜３丁目８番地８日総第１６ビル６階,,14,109,2220033,,,,,,,2024-11-14,1,,,,,ディーファーマ,0
402,2020001160062,新規,0,2024-11-14,2024-11-14,ウェルネスサポート株式会社,,株式会社,神奈川県,横浜市西区,北幸２丁目１０番２７号,,14,103,2200004,,,,,,,2024-11-14,1,,,,,ウェルネスサポート,0
403,2020003027227,新規,0,2024-11-14,2024-11-14,合同会社ＥＧＡ,,合同会社,神奈川県,横浜市鶴見区,東寺尾５丁目９番１７号１１８,,14,101,2300077,,,,,,,2024-11-14,1,,,,,エガ,0
404,2020003027251,新規,0,2024-11-14,2024-11-14,合同会社ＴＭＴ,,合同会社,神奈川県,横浜市港北区,錦が丘１６－７ウェストヴァリー菊名３０５,,14,109,2220013,,,,,,,2024-11-14,1,,,,,ティーエムティー,0
410,2021001083773,新規,0,2024-11-14,2024-11-14,株式会社忍びの家,,株式会社,神奈川県,小田原市,扇町１丁目１３－５－２,,14,206,2500001,,,,,,,2024-11-14,1,,,,,シノビノイエ,0
414,2021003015221,新規,0,2024-11-14,2024-11-14,Ｖｅｎｅｇａｓ　Ｓｐｏｒｔｓ　Ｓｏｌｕｔｉｏｎｓ合同会社,,合同会社,神奈川県,小田原市,久野３２２０番地の１,,14,206,2500055,,,,,,,2024-11-14,1,,,,,ベネガススポーツソリューションズ,0
415,2021003015238,新規,0,2024-11-14,2024-11-14,合同会社ハイラックス,,合同会社,神奈川県,相模原市南区,麻溝台４丁目７番８号,,14,153,2520328,,,,,,,2024-11-14,1,,,,,ハイラックス,0
422,2030001163386,新規,0,2024-11-14,2024-11-14,株式会社山水,,株式会社,埼玉県,さいたま市浦和区,領家６丁目２０番８号,,11,107,3300072,,,,,,,2024-11-14,1,,,,,サンスイ,0
423,2030001163411,新規,0,2024-11-14,2024-11-14,株式会社ｗｉｎｇ,,株式会社,埼玉県,川口市,桜町１丁目１０番２７号,,11,203,3340001,,,,,,,2024-11-14,1,,,,,ウイング,0
424,2030001163510,新規,0,2024-11-14,2024-11-14,ＢＬＡＺＥ株式会社,,株式会社,埼玉県,蕨市,塚越５丁目８番４号,,11,223,3350002,,,,,,,2024-11-14,1,,,,,ブレイズ,0
435,2040001136143,新規,0,2024-11-14,2024-11-14,株式会社リペイント,,株式会社,千葉県,市原市,八幡１２４番地１コーポ保坂１０２,,12,219,2900062,,,,,,,2024-11-14,1,,,,,リペイント,0
436,2040001136151,新規,0,2024-11-14,2024-11-14,株式会社暁,,株式会社,千葉県,成田市,多良貝２４５－１２０,,12,211,2870242,,,,,,,2024-11-14,1,,,,,アカツキ,0
439,2040003026193,新規,0,2024-11-14,2024-11-14,合同会社ＨＮ企画,,合同会社,千葉県,千葉市中央区,中央３丁目１３－１１,,12,101,2600013,,,,,,,2024-11-14,1,,,,,エイチエヌキカク,0
441,2050001055680,新規,0,2024-11-14,2024-11-14,株式会社ワンオートサービス,,株式会社,茨城県,取手市,戸頭１６０４番地１,,08,217,3020034,,,,,,,2024-11-14,1,,,,,ワンオートサービス,0
442,2050001055697,新規,0,2024-11-14,2024-11-14,株式会社ＪＧＴ．ＪＡＰＡＮ,,株式会社,茨城県,筑西市,布川１０５２番地４２江連アパート南２－３,,08,227,3080846,,,,,,,2024-11-14,1,,,,,ジェイジーティージャパン,0
443,2050001055730,新規,0,2024-11-14,2024-11-14,ＡＹ‐ＪＡＰＡＮ株式会社,,株式会社,茨城県,つくば市,花畑２丁目５番地１４シャルマンつくば２０２号,,08,220,3003261,,,,,,,2024-11-14,1,,,,,エワエジャパン,0
446,2060003005328,新規,0,2024-11-14,2024-11-14,合同会社さくら,,合同会社,栃木県,さくら市,蒲須坂３８４番地１,,09,214,3291332,,,,,,,2024-11-14,1,,,,,サクラ,0
454,2080103003196,新規,0,2024-11-14,2024-11-14,合同会社Ｂｅ　ｗｉｔｈ,,合同会社,静岡県,伊東市,富戸１１４７番地の７７,,22,208,4130231,,,,,,,2024-11-14,1,,,,,ビーウィズ,0
458,2090003002677,新規,0,2024-11-14,2024-11-14,日新合同会社,,合同会社,山梨県,甲府市,中央１丁目１２番１３号ＰＬＡＺＡＣＯＲＥビルＡ室,,19,201,4000032,,,,,,,2024-11-14,1,,,,,ニッシン,0
459,2100003007848,新規,0,2024-11-14,2024-11-14,合同会社ＹｏｕＬｏｏｋ,,合同会社,長野県,諏訪市,大字四賀７１１８ハイツふじ３号,,20,206,3920012,,,,,,,2024-11-14,1,,,,,ユルク,0
470,2120001270099,新規,0,2024-11-14,2024-11-14,Ｌｉｎｏ株式会社,,株式会社,大阪府,大阪市生野区,勝山北１丁目１８番１０号,,27,116,5440033,,,,,,,2024-11-14,1,,,,,リノ,0
471,2120001270207,新規,0,2024-11-14,2024-11-14,株式会社ＬＯＮＧＦＩＸ,,株式会社,大阪府,大阪市西区,南堀江２丁目４番８号１４０１室,,27,106,5500015,,,,,,,2024-11-14,1,,,,,ロングフィックス,0
472,2120001270231,新規,0,2024-11-14,2024-11-14,明燈株式会社,,株式会社,大阪府,大阪市都島区,東野田町４丁目１－５吉升ビル３０３室,,27,102,5340024,,,,,,,2024-11-14,1,,,,,メイトウ,0
473,2120001270280,新規,0,2024-11-14,2024-11-14,株式会社メモリーホーム,,株式会社,大阪府,寝屋川市,桜木町４番５号,,27,215,5720041,,,,,,,2024-11-14,1,,,,,メモリーホーム,0
482,2130005017231,新規,0,2024-11-14,2024-11-14,一般社団法人くらしケア京都,,その他の設立登記法人,京都府,京都市山科区,北花山中道町５２番地６２,,26,110,6078481,,,,,,,2024-11-14,1,,,,,クラシケアキョウト,0
485,2140001136414,新規,0,2024-11-14,2024-11-14,株式会社Ｂｉｌｌｉｏｎ　Ｅｉｇｈｔ,,株式会社,兵庫県,伊丹市,西台４丁目６番３２号２０１号室,,28,207,6640858,,,,,,,2024-11-14,1,,,,,ビリオンエイト,0
486,2140001136447,新規,0,2024-11-14,2024-11-14,株式会社ＡＺＥＭ,,株式会社,兵庫県,神戸市中央区,八幡通４丁目１番２７－８０５号,,28,110,6510085,,,,,,,2024-11-14,1,,,,,アゼム,0
490,2140002071395,新規,0,2024-11-14,2024-11-14,有限会社ピエロ,,有限会社,兵庫県,姫路市,中呉服町８番地１,,28,201,6700000,,,,,,,2024-11-14,1,,,,,ピエロ,0
495,2140005027270,新規,0,2024-11-14,2024-11-14,ＨＯＰＥ　ＹＯＵ協同組合,,その他の設立登記法人,兵庫県,神戸市須磨区,大黒町３丁目１番３号,,28,107,6540022,,,,,,,2024-11-14,1,,,,,ホープユー,0
500,2150003003421,新規,0,2024-11-14,2024-11-14,合同会社ｃｈｅｅｒｓ,,合同会社,奈良県,宇陀市,大宇陀西山１３０番地,,29,212,6332115,,,,,,,2024-11-14,1,,,,,チアーズ,0
504,2160001026357,新規,0,2024-11-14,2024-11-14,株式会社ガチャの神殿,,株式会社,滋賀県,彦根市,平田町１１０５アールドヴィーヴル２０２,,25,202,5220041,,,,,,,2024-11-14,1,,,,,ガチャノシンデン,0
508,2180001164023,新規,0,2024-11-14,2024-11-14,株式会社東駿,,株式会社,愛知県,豊明市,二村台１丁目１７番地５,,23,229,4701131,,,,,,,2024-11-14,1,,,,,トウシュン,0
509,2180001164130,新規,0,2024-11-14,2024-11-14,株式会社Ｗｉｌｌ　Ｈｅａｒｔ,,株式会社,愛知県,春日井市,高山町２丁目２２番地２８,,23,206,4860912,,,,,,,2024-11-14,1,,,,,ウィルハート,0
510,2180001164147,新規,0,2024-11-14,2024-11-14,ハセキ不動産株式会社,,株式会社,愛知県,一宮市,千秋町加納馬場字米野７７番地,,23,203,4910811,,,,,,,2024-11-14,1,,,,,ハセキフドウサン,0
511,2180001164155,新規,0,2024-11-14,2024-11-14,株式会社大和,,株式会社,愛知県,大府市,宮内町５丁目１６１番地,,23,223,4740047,,,,,,,2024-11-14,1,,,,,ヤマト,0
513,2180003027599,新規,0,2024-11-14,2024-11-14,合同会社Ｏｒｉｏｎ,,合同会社,愛知県,北名古屋市,宇福寺神明１２５グランツＫ２０２号,,23,234,4810035,,,,,,,2024-11-14,1,,,,,オリオン,0
514,2180003027608,新規,0,2024-11-14,2024-11-14,合同会社ミステリア,,合同会社,愛知県,名古屋市中区,栄３丁目３１番７号,,23,106,4600008,,,,,,,2024-11-14,1,,,,,ミステリア,0
516,2180301039222,新規,0,2024-11-14,2024-11-14,株式会社パッション,,株式会社,愛知県,みよし市,根浦町１丁目３番地２,,23,236,4700217,,,,,,,2024-11-14,1,,,,,パッション,0
535,2260001039638,新規,0,2024-11-14,2024-11-14,株式会社ブルーム,,株式会社,岡山県,岡山市南区,福成１丁目１０１番地,,33,104,7028022,,,,,,,2024-11-14,1,,,,,ブルーム,0
536,2260001039646,新規,0,2024-11-14,2024-11-14,株式会社コジマゴルフ,,株式会社,岡山県,倉敷市,児島柳田町４５６番７８－３階,,33,202,7110936,,,,,,,2024-11-14,1,,,,,コジマゴルフ,0
544,2290001107945,新規,0,2024-11-14,2024-11-14,ポイントゼロ株式会社,,株式会社,福岡県,福津市,桜川５番９号,,40,224,8113229,,,,,,,2024-11-14,1,,,,,ポイントゼロ,0
545,2290003016038,新規,0,2024-11-14,2024-11-14,合同会社ＨＩＲＯ,,合同会社,福岡県,福岡市東区,松崎２丁目２１番１９号,,40,131,8130035,,,,,,,2024-11-14,1,,,,,ヒロ,0
550,2310003004898,新規,0,2024-11-14,2024-11-14,合同会社谷工業,,合同会社,長崎県,佐世保市,三川内本町９９番地３,,42,202,8593151,,,,,,,2024-11-14,1,,,,,タニコウギョウ,0
554,2330001032643,新規,0,2024-11-14,2024-11-14,株式会社ＲＥＸＩＡ不動産,,株式会社,熊本県,熊本市中央区,水前寺３丁目２９番４３号２Ｆ,,43,101,8620950,,,,,,,2024-11-14,1,,,,,リクシアフドウサン,0
555,2330005010843,新規,0,2024-11-14,2024-11-14,行政書士法人経営審査協会,,その他の設立登記法人,熊本県,熊本市東区,健軍１丁目１１番５号,,43,102,8620911,,,,,,,2024-11-14,1,,,,,ケイエイシンサキョウカイ,0
561,2360003014455,新規,0,2024-11-14,2024-11-14,合同会社ＡＲＡＨＡ,,合同会社,沖縄県,浦添市,宮城２丁目１７番２－２０６号パークビュー洸,,47,208,9012126,,,,,,,2024-11-14,1,,,,,アラハ,0
564,2370001051912,新規,0,2024-11-14,2024-11-14,株式会社モチアゲ,,株式会社,宮城県,仙台市宮城野区,東仙台１丁目２２番４８号コンティーレ東仙台１０１,,04,102,9830833,,,,,,,2024-11-14,1,,,,,モチアゲ,0
565,2370001051920,新規,0,2024-11-14,2024-11-14,株式会社ファーストラック,,株式会社,宮城県,仙台市宮城野区,西宮城野４番１１号,,04,102,9830046,,,,,,,2024-11-14,1,,,,,ファーストラック,0
568,2390001017795,新規,0,2024-11-14,2024-11-14,株式会社軽部さくらんぼ園,,株式会社,山形県,寒河江市,字下河原１１０番地の１０,,06,206,9910002,,,,,,,2024-11-14,1,,,,,カルベサクランボエン,0
575,2430005015114,新規,0,2024-11-14,2024-11-14,一般社団法人ソーシャルコミュニティ札幌,,その他の設立登記法人,北海道,札幌市清田区,美しが丘二条３丁目７番２０号,,01,110,0040812,,,,,,,2024-11-14,1,,,,,ソーシャルコミュニティサッポロ,0
578,2470001020460,新規,0,2024-11-14,2024-11-14,株式会社ＳＭＤ,,株式会社,香川県,坂出市,青海町９３５番地２,,37,203,7620016,,,,,,,2024-11-14,1,,,,,エスエムディー,0
582,2700150127867,新規,0,2024-11-14,2024-11-14,ＴｅｃｈＳｔｙｌｅ　Ｂ．Ｖ．,,外国会社等,,,,,,,,Ｋｒａａｉｖｅｎｓｔｒａａｔ　２５－３４，５０４８ＡＢ　Ｔｉｌｂｕｒｇ，Ｔｈｅ　Ｎｅｔｈｅｒｌａｎｄｓ,,,,,,2024-11-14,1,,,,,テックスタイルビーブイ,0
592,3010001249855,新規,0,2024-11-14,2024-11-14,得力東京研究院株式会社,,株式会社,東京都,中央区,新川１丁目２８番２５号東京ダイヤビルディング３号館別館１０階,,13,102,1040033,,,,,,,2024-11-14,1,,,,,デリトウキョウケンキュウイン,0
593,3010001249962,新規,0,2024-11-14,2024-11-14,暢予株式会社,,株式会社,東京都,千代田区,神田三崎町２丁目１０番１１号Ｐｅｇビル６Ａ－５,,13,101,1010061,,,,,,,2024-11-14,1,,,,,チョウヨ,0
613,3010003045443,新規,0,2024-11-14,2024-11-14,ピーク・エナジー・ジャパン・ランド合同会社,,合同会社,東京都,千代田区,丸の内３丁目２番２号丸の内二重橋ビル２階,,13,101,1000005,,,,,,,2024-11-14,1,,,,,ピークエナジージャパンランド,0
620,3010005039113,新規,0,2024-11-14,2024-11-14,ブルーインフラホールディングスＬ号一般社団法人,,その他の設立登記法人,東京都,千代田区,紀尾井町４番１号ニューオータニガーデンコート１９階フィンポート税理士法人内,,13,101,1020094,,,,,,,2024-11-14,1,,,,,ブルーインフラホールディングスエルゴウ,0
634,3010401186186,新規,0,2024-11-14,2024-11-14,株式会社ＡＩＤＡＯ　Ａｃａｄｅｍｙ,,株式会社,東京都,港区,赤坂１丁目１４－５アークヒルズエグゼクティブタワーＳ３０１,,13,103,1070052,,,,,,,2024-11-14,1,,,,,エーアイダオアカデミー,0
635,3010401186368,新規,0,2024-11-14,2024-11-14,株式会社ＴＯＰ　ＯＮＥ,,株式会社,東京都,港区,六本木７丁目１２－１５ＶＯＲＴ２・３階,,13,103,1060032,,,,,,,2024-11-14,1,,,,,トップワン,0
636,3010401186401,新規,0,2024-11-14,2024-11-14,株式会社まだら,,株式会社,東京都,港区,南青山３丁目１番３６号青山丸竹ビル６Ｆ,,13,103,1070062,,,,,,,2024-11-14,1,,,,,マダラ,0
638,3010403033782,新規,0,2024-11-14,2024-11-14,ＡＣＰ２合同会社,,合同会社,東京都,港区,六本木１丁目６番１号泉ガーデンタワー,,13,103,1060032,,,,,,,2024-11-14,1,,,,,エーシーピーツー,0
646,3010601066270,新規,0,2024-11-14,2024-11-14,ＭＡＳＩＥ株式会社,,株式会社,東京都,墨田区,両国１丁目４番１号ヤマトビル両国１０１号,,13,107,1300026,,,,,,,2024-11-14,1,,,,,マシー,0
647,3010601066279,新規,0,2024-11-14,2024-11-14,ＮＥＶＥＲ　ＳＥＥＮ株式会社,,株式会社,東京都,江東区,有明１丁目３番１４－６１６号,,13,108,1350063,,,,,,,2024-11-14,1,,,,,ネバーシーン,0
648,3010603011209,新規,0,2024-11-14,2024-11-14,インハウスハブ合同会社,,合同会社,東京都,江東区,有明３丁目７番１１号有明パークビル２０階２０１８号室,,13,108,1350063,,,,,,,2024-11-14,1,,,,,インハウスハブ,0
651,3010701046809,新規,0,2024-11-14,2024-11-14,株式会社かおりだ,,株式会社,東京都,品川区,二葉２丁目１４番１０号１０１号室,,13,109,1420043,,,,,,,2024-11-14,1,,,,,カオリダ,0
652,3010703007437,新規,0,2024-11-14,2024-11-14,ＭｅｄＥｌｉｔｅ　Ｗｅａｌｔｈ　Ｐａｒｔｎｅｒｓ合同会社,,合同会社,東京都,品川区,小山３丁目１５番２号,,13,109,1420062,,,,,,,2024-11-14,1,,,,,メドエリートウェルスパートナーズ,0
653,3010801009491,新規,0,2024-11-14,2024-11-14,温井工業株式会社,,株式会社,東京都,大田区,雪谷大塚町１３番２９号,,13,111,1450067,,,,,,,2024-11-14,1,,,,,,0
659,3010901056327,新規,0,2024-11-14,2024-11-14,株式会社ＨＡＵＴＥＮ,,株式会社,東京都,世田谷区,大原１丁目３番３号ピアグランド下北沢１０６,,13,112,1560041,,,,,,,2024-11-14,1,,,,,ハウテン,0
662,3011001165794,新規,0,2024-11-14,2024-11-14,Ｌ．Ｉ．Ｆ．Ｅ．＆ＭＡコンサルティング株式会社,,株式会社,東京都,渋谷区,代々木２丁目１９番１２号唐沢第２ビル２階,,13,113,1510053,,,,,,,2024-11-14,1,,,,,ライフアンドエムエーコンサルティング,0
663,3011001165885,新規,0,2024-11-14,2024-11-14,ＷＡＹ株式会社,,株式会社,東京都,渋谷区,道玄坂１丁目１０番８号渋谷道玄坂東急ビル２Ｆ－Ｃ,,13,113,1500043,,,,,,,2024-11-14,1,,,,,ウェイ,0
664,3011001165893,新規,0,2024-11-14,2024-11-14,株式会社ボンド,,株式会社,東京都,渋谷区,道玄坂２丁目２３番１３号,,13,113,1500043,,,,,,,2024-11-14,1,,,,,ボンド,0
665,3011001165935,新規,0,2024-11-14,2024-11-14,ジーロジック・パートナーズ株式会社,,株式会社,東京都,渋谷区,渋谷２丁目１４番１３号岡崎ビル７階,,13,113,1500002,,,,,,,2024-11-14,1,,,,,ジーロジックパートナーズ,0
673,3011103015170,新規,0,2024-11-14,2024-11-14,ヒコヒコホホ合同会社,,合同会社,東京都,新宿区,南榎町２番地６,,13,104,1620852,,,,,,,2024-11-14,1,,,,,ヒコヒコホホ,0
674,3011103015179,新規,0,2024-11-14,2024-11-14,合同会社十八番,,合同会社,東京都,新宿区,西新宿３丁目３番１３号西新宿水間ビル２Ｆ,,13,104,1600023,,,,,,,2024-11-14,1,,,,,オハコ,0
676,3011201025930,新規,0,2024-11-14,2024-11-14,一九株式会社,,株式会社,東京都,中野区,野方１丁目４６－６－２０５号,,13,114,1650027,,,,,,,2024-11-14,1,,,,,イチキュウ,0
679,3011503006298,新規,0,2024-11-14,2024-11-14,合同会社ＭＩＣＲＯ,,合同会社,東京都,北区,赤羽１丁目７番９号赤羽第一葉山ビル４Ｆ,,13,117,1150045,,,,,,,2024-11-14,1,,,,,ミクロ,0
687,3012401042484,新規,0,2024-11-14,2024-11-14,株式会社ＳＹＲＣ,,株式会社,東京都,調布市,多摩川３丁目５２番地１シャーメゾン・リヴィエールＩ－１０１,00137009,13,208,1820025,,,,,,,2024-11-14,1,,,,,エスワイアールシー,0
698,3013301053365,新規,0,2024-11-14,2024-11-14,株式会社注目の的,,株式会社,東京都,豊島区,南池袋４丁目１９番５号,,13,116,1710022,,,,,,,2024-11-14,1,,,,,チュウモクノマト,0
701,3020001160045,新規,0,2024-11-14,2024-11-14,テクノソリューションズ株式会社,,株式会社,神奈川県,横浜市南区,高砂町２丁目２５番地１６ＬＵＭＥＥＤ横濱南７０３,,14,105,2320025,,,,,,,2024-11-14,1,,,,,テクノソリューションズ,0
702,3020001160061,新規,0,2024-11-14,2024-11-14,株式会社おうちでＣａｒｅなび,,株式会社,神奈川県,横浜市西区,浅間町１丁目４番３号ウィザードビル４０２,,14,103,2200072,,,,,,,2024-11-14,1,,,,,オウチデケアナビ,0
703,3020001160103,新規,0,2024-11-14,2024-11-14,優選株式会社,,株式会社,神奈川県,横浜市磯子区,中原２丁目２４－５メゾン・ド・セニュール３０５号,,14,107,2350036,,,,,,,2024-11-14,1,,,,,ユウセン,0
704,3020001160202,新規,0,2024-11-14,2024-11-14,株式会社ピクシス,,株式会社,神奈川県,横浜市中区,南仲通３丁目３５番地横浜エクセレント３－８Ｆ－Ｃ１,,14,104,2310006,,,,,,,2024-11-14,1,,,,,ピクシス,0
709,3020003027226,新規,0,2024-11-14,2024-11-14,競バンライフ合同会社,,合同会社,神奈川県,川崎市幸区,塚越４丁目３２０番地３フェアロージュ・ガーデンズ川崎８１３,,14,132,2120024,,,,,,,2024-11-14,1,,,,,ケイバンライフ,0
710,3020003027250,新規,0,2024-11-14,2024-11-14,合同会社ＲＩＦＦＬＥ,,合同会社,神奈川県,横浜市西区,浅間町１丁目４番３号ウィザードビル４０２,,14,103,2200072,,,,,,,2024-11-14,1,,,,,リフル,0
715,3021001083756,新規,0,2024-11-14,2024-11-14,堀本自動車株式会社,,株式会社,神奈川県,鎌倉市,玉縄２丁目４５７－３－８０６,,14,204,2470071,,,,,,,2024-11-14,1,,,,,ホリモトジドウシャ,0
716,3021001083772,新規,0,2024-11-14,2024-11-14,株式会社廬山,,株式会社,神奈川県,藤沢市,片瀬海岸１丁目９番８－４１０号,,14,205,2510035,,,,,,,2024-11-14,1,,,,,ロザン,0
733,3030001163393,新規,0,2024-11-14,2024-11-14,ＷＥＮＳ　ＳＥＬＥＣＴＩＯＮ株式会社,,株式会社,埼玉県,八潮市,中央４丁目１１番２０号,,11,234,3400816,,,,,,,2024-11-14,1,,,,,ウェンズセレクション,0
734,3030001163402,新規,0,2024-11-14,2024-11-14,株式会社リボンエステート,,株式会社,埼玉県,草加市,吉町３丁目３番２８－１０２号,,11,221,3400017,,,,,,,2024-11-14,1,,,,,リボンエステート,0
735,3030001163410,新規,0,2024-11-14,2024-11-14,株式会社池谷商会,,株式会社,埼玉県,さいたま市西区,大字宝来１６１９番地２Ｆ,,11,101,3310074,,,,,,,2024-11-14,1,,,,,イケヤショウカイ,0
736,3030001163419,新規,0,2024-11-14,2024-11-14,株式会社リベルタ,,株式会社,埼玉県,新座市,野寺３丁目５番１４号,,11,230,3520034,,,,,,,2024-11-14,1,,,,,リベルタ,0
737,3030001163427,新規,0,2024-11-14,2024-11-14,道下空調株式会社,,株式会社,埼玉県,新座市,野火止５丁目３０番７号,,11,230,3520011,,,,,,,2024-11-14,1,,,,,ミチシタクウチョウ,0
738,3030001163443,新規,0,2024-11-14,2024-11-14,愛媛株式会社,,株式会社,埼玉県,さいたま市南区,白幡５丁目７番１－１０３号,,11,108,3360022,,,,,,,2024-11-14,1,,,,,エヒメ,0
752,3040001136019,新規,0,2024-11-14,2024-11-14,株式会社サンプロット,,株式会社,千葉県,木更津市,真舟１丁目６番１５号,,12,206,2920802,,,,,,,2024-11-14,1,,,,,サンプロット,0
756,3040003026184,新規,0,2024-11-14,2024-11-14,合同会社ＮＯＢＬＥ　ＴＲＡＤＥＲＳ,,合同会社,千葉県,松戸市,久保平賀２５６番地の２３,,12,207,2700012,,,,,,,2024-11-14,1,,,,,ノーブルトレーダーズ,0
757,3040003026192,新規,0,2024-11-14,2024-11-14,合同会社ＷＡＮＫＯ,,合同会社,千葉県,市川市,新田４丁目１５－２,,12,203,2720035,,,,,,,2024-11-14,1,,,,,ワンコ,0
758,3050001055705,新規,0,2024-11-14,2024-11-14,株式会社Ａｍｉｌｙ,,株式会社,茨城県,牛久市,ひたち野西３丁目３７番１号,,08,219,3001206,,,,,,,2024-11-14,1,,,,,アミリー,0
764,3060003005327,新規,0,2024-11-14,2024-11-14,Ａ．Ｋ．ＧＲＯＵＰ合同会社,,合同会社,栃木県,宇都宮市,京町２番２号,,09,201,3200842,,,,,,,2024-11-14,1,,,,,エーケーグループ,0
796,3120001270040,新規,0,2024-11-14,2024-11-14,Ｉ’ＭＰＲＥＳＳＩＯＮ　ＪＡＰＡＮ株式会社,,株式会社,大阪府,大阪市中央区,南船場３丁目９番１５号,,27,128,5420081,,,,,,,2024-11-14,1,,,,,インプレッションジャパン,0
797,3120001270131,新規,0,2024-11-14,2024-11-14,迪諾株式会社,,株式会社,大阪府,大阪市城東区,鴫野西５丁目１５番７－３０８号,,27,118,5360014,,,,,,,2024-11-14,1,,,,,テキダク,0
798,3120001270197,新規,0,2024-11-14,2024-11-14,株式会社ＳＩＣＫＨＡＣＫ,,株式会社,大阪府,大阪市鶴見区,緑３丁目１２番１８号,,27,124,5380054,,,,,,,2024-11-14,1,,,,,シックハック,0
799,3120001270206,新規,0,2024-11-14,2024-11-14,スマイルグロウ株式会社,,株式会社,大阪府,大阪市大正区,三軒家東５丁目５番２３号２０２号室,,27,108,5510002,,,,,,,2024-11-14,1,,,,,スマイルグロウ,0
800,3120001270222,新規,0,2024-11-14,2024-11-14,三生ユイ株式会社,,株式会社,大阪府,大阪市生野区,巽中１丁目１４－１３,00137007,27,116,5440013,,,,,,,2024-11-14,1,,,,,サンセイユイ,0
801,3120001270263,新規,0,2024-11-14,2024-11-14,株式会社ＴｅＢｅ,,株式会社,大阪府,大阪市北区,中崎西２丁目４番３６号,,27,127,5300015,,,,,,,2024-11-14,1,,,,,テベ,0
802,3120001270271,新規,0,2024-11-14,2024-11-14,マスターズプライド株式会社,,株式会社,大阪府,大阪市中央区,伏見町４丁目２番１４号,,27,128,5410044,,,,,,,2024-11-14,1,,,,,マスターズプライド,0
803,3120001270288,新規,0,2024-11-14,2024-11-14,千里法務税務株式会社,,株式会社,大阪府,大阪市淀川区,西宮原１丁目８番１０号,,27,123,5320004,,,,,,,2024-11-14,1,,,,,センリホウムゼイム,0
804,3120001270321,新規,0,2024-11-14,2024-11-14,富達株式会社,,株式会社,大阪府,大阪市大正区,泉尾３丁目１１番７号,,27,108,5510031,,,,,,,2024-11-14,1,,,,,トミタツ,0
805,3120002001551,新規,0,2024-11-14,2024-11-14,有限会社大和製鋲所,,有限会社,大阪府,大阪市鶴見区,（大阪市城東区今津北四丁目６番３１号）,,27,124,5380000,,,,,,,2024-11-14,1,,,,,,0
816,3122001038632,新規,0,2024-11-14,2024-11-14,株式会社ＭＴＭエステート,,株式会社,大阪府,八尾市,太田新町６丁目２１０,,27,212,5810039,,,,,,,2024-11-14,1,,,,,エムティエムエステート,0
821,3130001078359,新規,0,2024-11-14,2024-11-14,株式会社ソラ,,株式会社,京都府,京都市下京区,松原通西洞院東入る薮下町６番地Ｍｏｒｅ五条ＩＩ１Ｆ,00137004,26,106,6000000,,,,,,,2024-11-14,1,,,,,ソラ,0
822,3130003010006,新規,0,2024-11-14,2024-11-14,みや華合同会社,,合同会社,京都府,京都市中京区,薬師町６４４番地１,,26,104,6040062,,,,,,,2024-11-14,1,,,,,ミヤカ,0
830,3140001136413,新規,0,2024-11-14,2024-11-14,株式会社そら,,株式会社,兵庫県,神戸市灘区,永手町３丁目２番２７号,,28,102,6570027,,,,,,,2024-11-14,1,,,,,ソラ,0
831,3140001136421,新規,0,2024-11-14,2024-11-14,株式会社ＥＭＩＤ,,株式会社,兵庫県,神戸市垂水区,五色山４丁目１５番６号,,28,108,6550035,,,,,,,2024-11-14,1,,,,,イーエムアイディー,0
835,3150001027669,新規,0,2024-11-14,2024-11-14,株式会社Ｋｓ．設備,,株式会社,奈良県,葛城市,忍海２５６番地１１,,29,211,6392123,,,,,,,2024-11-14,1,,,,,ケーエスセツビ,0
836,3150005009639,新規,0,2024-11-14,2024-11-14,青雲乃志一般社団法人,,その他の設立登記法人,奈良県,桜井市,大字粟殿１０２７番地の２さくらいテナントビル１０１,,29,206,6330062,,,,,,,2024-11-14,1,,,,,セイウンノココロザシ,0
837,3160001026356,新規,0,2024-11-14,2024-11-14,クラスランド株式会社,,株式会社,滋賀県,栗東市,安養寺７丁目２番２２号,,25,208,5203015,,,,,,,2024-11-14,1,,,,,クラスランド,0
843,3180001164113,新規,0,2024-11-14,2024-11-14,株式会社ユニモ,,株式会社,愛知県,名古屋市港区,入場２丁目５０９番地,,23,111,4550803,,,,,,,2024-11-14,1,,,,,ユニモ,0
844,3180001164154,新規,0,2024-11-14,2024-11-14,ＡＩＭＩＮＧ　Ａ　ＦＲＯＮＴＩＥＲ・ＪＡＰＡＮ株式会社,,株式会社,愛知県,海部郡蟹江町,桜３丁目４４番地,,23,425,4970038,,,,,,,2024-11-14,1,,,,,エイミングアフロンティアジャパン,0
845,3180001164162,新規,0,2024-11-14,2024-11-14,株式会社ソレイユドール,,株式会社,愛知県,春日井市,西高山町３丁目１６番地６,,23,206,4860911,,,,,,,2024-11-14,1,,,,,ソレイユドール,0
846,3180001164170,新規,0,2024-11-14,2024-11-14,株式会社中部ビジネスエクスプレス,,株式会社,愛知県,名古屋市中区,千代田２丁目１番１５号ＳＴＡＲ　ＣＨＩＹＯＤＡ　ＢＬＤ３階,,23,106,4600012,,,,,,,2024-11-14,1,,,,,チュウブビジネスエクスプレス,0
847,3180001164179,新規,0,2024-11-14,2024-11-14,株式会社テトラコーン,,株式会社,愛知県,名古屋市中区,上前津１丁目１１番１６号,,23,106,4600013,,,,,,,2024-11-14,1,,,,,テトラコーン,0
849,3180003027623,新規,0,2024-11-14,2024-11-14,合同会社マイスター工業,,合同会社,愛知県,小牧市,東１丁目３２７番地,,23,219,4850831,,,,,,,2024-11-14,1,,,,,マイスターコウギョウ,0
852,3180301039238,新規,0,2024-11-14,2024-11-14,ｂｔｃ株式会社,,株式会社,愛知県,岡崎市,中島中町３丁目１番地１０,,23,202,4440224,,,,,,,2024-11-14,1,,,,,ビーティーシー,0
853,3180303006343,新規,0,2024-11-14,2024-11-14,合同会社ＮＥＯ,,合同会社,愛知県,安城市,今本町７丁目５番地１アルカディアＡ－２０７,,23,212,4460008,,,,,,,2024-11-14,1,,,,,ネオ,0
864,3240001064109,新規,0,2024-11-14,2024-11-14,株式会社ＯＬＤ　ＢＯＯＫ,,株式会社,広島県,呉市,中通４丁目１２番３号,,34,202,7370046,,,,,,,2024-11-14,1,,,,,オールドブック,0
865,3240001064117,新規,0,2024-11-14,2024-11-14,株式会社北谷工業,,株式会社,広島県,広島市西区,南観音６丁目６番１４号,,34,104,7330035,,,,,,,2024-11-14,1,,,,,キタタニコウギョウ,0
870,3250001020894,新規,0,2024-11-14,2024-11-14,三和プラント株式会社,,株式会社,山口県,下松市,潮音町２丁目８番１３号,,35,207,7440074,,,,,,,2024-11-14,1,,,,,サンワプラント,0
871,3250001020903,新規,0,2024-11-14,2024-11-14,田代株式会社,,株式会社,山口県,周南市,大字呼坂１００６番地の３９４,,35,215,7450612,,,,,,,2024-11-14,1,,,,,タシロ,0
873,3260003004969,新規,0,2024-11-14,2024-11-14,Ａｌｐｈａ　Ｇｒｏｕｐ合同会社,,合同会社,岡山県,浅口市,金光町占見新田５０９番地１,,33,216,7190104,,,,,,,2024-11-14,1,,,,,アルファグループ,0
874,3270002009935,新規,0,2024-11-14,2024-11-14,有限会社河本蘇生堂,,有限会社,鳥取県,倉吉市,東仲町２６１８番地,,31,203,6820826,,,,,,,2024-11-14,1,,,,,カワモトソセイドウ,0
882,3290003016045,新規,0,2024-11-14,2024-11-14,合同会社Ｏｍｂｒａ,,合同会社,福岡県,福岡市中央区,小笹５丁目２０番２３－２０８号ガーデンアパートメント,,40,133,8100033,,,,,,,2024-11-14,1,,,,,オンブラ,0
888,3290801031030,新規,0,2024-11-14,2024-11-14,株式会社石澤ホーム,,株式会社,福岡県,北九州市八幡西区,上上津役４丁目２３番６号,,40,109,8070072,,,,,,,2024-11-14,1,,,,,イシザワホーム,0
899,3350001019290,新規,0,2024-11-14,2024-11-14,株式会社ジオン,,株式会社,宮崎県,宮崎市,上野町７－１４エレガンス上野町２Ｆ,,45,201,8800011,,,,,,,2024-11-14,1,,,,,ジオン,0
911,3370002037273,新規,0,2024-11-14,2024-11-14,有限会社さかもと薬品,,有限会社,宮城県,登米市,迫町佐沼字錦１７０番地,,04,212,9870511,,,,,,,2024-11-14,1,,,,,サカモトヤクヒン,0
913,3370005010855,新規,0,2024-11-14,2024-11-14,みらい創研行政書士法人,,その他の設立登記法人,宮城県,仙台市青葉区,一番町２丁目８番１０号,,04,101,9800811,,,,,,,2024-11-14,1,,,,,ミライソウケン,0
914,3390001017794,新規,0,2024-11-14,2024-11-14,株式会社三丸,,株式会社,山形県,上山市,金谷字甲石４４０番地２,,06,207,9993103,,,,,,,2024-11-14,1,,,,,サンマル,0
915,3390003002308,新規,0,2024-11-14,2024-11-14,精神貿易合同会社,,合同会社,山形県,酒田市,新堀字聖の宮１０７番地－Ｂ号,,06,204,9997776,,,,,,,2024-11-14,1,,,,,セイシンボウエキ,0
916,3410001013989,新規,0,2024-11-14,2024-11-14,株式会社万景ファーム,,株式会社,秋田県,仙北市,田沢湖小松字本町１４番地,,05,215,0141115,,,,,,,2024-11-14,1,,,,,バンケイファーム,0
921,3430001093006,新規,0,2024-11-14,2024-11-14,株式会社ＪＷＳ,,株式会社,北海道,虻田郡倶知安町,北四条東４丁目３番地６４,,01,400,0440004,,,,,,,2024-11-14,1,,,,,ジェイダブリューエス,0
929,3470003002753,新規,0,2024-11-14,2024-11-14,トータル計装サービス合同会社,,合同会社,香川県,高松市,林町１１５２番地１,,37,201,7610301,,,,,,,2024-11-14,1,,,,,トータルケイソウサービス,0
939,4010001249895,新規,0,2024-11-14,2024-11-14,ＮｉＸ　ＲｉＳＥ株式会社,,株式会社,東京都,千代田区,東神田１丁目１０番７号,,13,101,1010031,,,,,,,2024-11-14,1,,,,,ニックスライズ,0
963,4010003045401,新規,0,2024-11-14,2024-11-14,Ｔｒａｎｓｄｙｎｅ合同会社,,合同会社,東京都,中央区,日本橋堀留町２丁目２番８号日本橋トウマビル２階,,13,102,1030012,,,,,,,2024-11-14,1,,,,,トランスダイン,0
964,4010003045483,新規,0,2024-11-14,2024-11-14,合同会社ｋｏｎｅｘｔ,,合同会社,東京都,中央区,銀座１丁目１２番４号Ｎ＆ＥＢＬＤ．６Ｆ,,13,102,1040061,,,,,,,2024-11-14,1,,,,,コネクト,0
977,4010005039079,新規,0,2024-11-14,2024-11-14,インテグラル税理士法人,,その他の設立登記法人,東京都,千代田区,一番町２７番地２理工図書ビル６階,,13,101,1020082,,,,,,,2024-11-14,1,,,,,インテグラル,0
981,4010401186334,新規,0,2024-11-14,2024-11-14,株式会社リンクス,,株式会社,東京都,港区,新橋２丁目２－３ル・グラシエルＢＬＤＧ．２８－４Ｆ２号室,,13,103,1050004,,,,,,,2024-11-14,1,,,,,リンクス,0
982,4010401186367,新規,0,2024-11-14,2024-11-14,株式会社ＭＲコンサルティング,,株式会社,東京都,港区,赤坂４丁目８番１９号赤坂フロントタウン３階,,13,103,1070052,,,,,,,2024-11-14,1,,,,,エムアールコンサルティング,0
983,4010401186383,新規,0,2024-11-14,2024-11-14,株式会社ヒーリングラボ,,株式会社,東京都,港区,麻布十番２丁目１２番５号コンフォート麻布８０１,,13,103,1060045,,,,,,,2024-11-14,1,,,,,ヒーリングラボ,0
985,4010403033773,新規,0,2024-11-14,2024-11-14,Ｉｚｏｒａ合同会社,,合同会社,東京都,港区,台場２丁目２番２－２０１５号,,13,103,1350091,,,,,,,2024-11-14,1,,,,,イゾラ,0
986,4010403033781,新規,0,2024-11-14,2024-11-14,Ｔｏｋｙｏ　Ｅｍｐｌｏｙｍｅｎｔ　ＳｅｒｖｉｃｅＣｅｎｔｅｒ合同会社,,合同会社,東京都,港区,台場１丁目５番７－５０６号,,13,103,1350091,,,,,,,2024-11-14,1,,,,,トウキョウエンプロイメントサービスセンター,0
987,4010405023772,新規,0,2024-11-14,2024-11-14,一般社団法人Ｔｏｋｙｏ　Ｒｅａｌ　Ｅｓｔａｔｅ　Ｐｒｏｐｅｒｔｙ　Ｉｎｖｅｓｔｍｅｎｔ,,その他の設立登記法人,東京都,港区,元赤坂１丁目１番７号,,13,103,1070051,,,,,,,2024-11-14,1,,,,,トウキョウリアルエステイトプロパティインベストメント,0
990,4010501053178,新規,0,2024-11-14,2024-11-14,コマキ木柄工房株式会社,,株式会社,東京都,台東区,橋場２丁目１３番９号,,13,106,1110023,,,,,,,2024-11-14,1,,,,,コマキモクエコウボウ,0
992,4010503007636,新規,0,2024-11-14,2024-11-14,合同会社東齋企画,,合同会社,東京都,台東区,松が谷２丁目３番７号,,13,106,1110036,,,,,,,2024-11-14,1,,,,,トウサイキカク,0
994,4010601066278,新規,0,2024-11-14,2024-11-14,ｚ．ｏ．ｅ．株式会社,,株式会社,東京都,江東区,高橋５番１号,,13,108,1350005,,,,,,,2024-11-14,1,,,,,ゾーイ,0
996,4010703007436,新規,0,2024-11-14,2024-11-14,合同会社ＶＩＤＥＯ　ＣＯＭＰＡＮＹ,,合同会社,東京都,品川区,上大崎１丁目１番１７号プライムメゾン白金台タワー１９０６,,13,109,1410021,,,,,,,2024-11-14,1,,,,,ビデオカンパニー,0
1000,4010901056334,新規,0,2024-11-14,2024-11-14,株式会社ＳＨＩＲＯ,,株式会社,東京都,世田谷区,砧１丁目４番１５号,,13,112,1570073,,,,,,,2024-11-14,1,,,,,シロー,0
1001,4010903009496,新規,0,2024-11-14,2024-11-14,合同会社ＭＩＤ,,合同会社,東京都,世田谷区,千歳台３丁目７番２号,,13,112,1570071,,,,,,,2024-11-14,1,,,,,エムアイディ,0
1004,4011001165760,新規,0,2024-11-14,2024-11-14,株式会社相続不動産研究所,,株式会社,東京都,渋谷区,神宮前２丁目１９番１２号原宿ＯＨＫＩビル２階,,13,113,1500001,,,,,,,2024-11-14,1,,,,,ソウゾクフドウサンケンキュウジョ,0
1005,4011001165802,新規,0,2024-11-14,2024-11-14,株式会社Ｅａｒｌｙ　Ｂｉｒｄ,,株式会社,東京都,渋谷区,道玄坂１丁目１６－６二葉ビル８Ｂ,,13,113,1500043,,,,,,,2024-11-14,1,,,,,アーリーバード,0
1006,4011001165835,新規,0,2024-11-14,2024-11-14,株式会社Ｗｏｌｆ,,株式会社,東京都,渋谷区,神宮前６丁目２３番４号桑野ビル２階,,13,113,1500001,,,,,,,2024-11-14,1,,,,,ウルフ,0
1007,4011001165868,新規,0,2024-11-14,2024-11-14,ダルマジット株式会社,,株式会社,東京都,渋谷区,千駄ヶ谷２丁目１０番５号,,13,113,1510051,,,,,,,2024-11-14,1,,,,,ダルマジット,0
1008,4011001165884,新規,0,2024-11-14,2024-11-14,株式会社ユアローカル,,株式会社,東京都,渋谷区,道玄坂１丁目１０番８号渋谷道玄坂東急ビル２Ｆ－Ｃ,,13,113,1500043,,,,,,,2024-11-14,1,,,,,ユアローカル,0
1009,4011001165901,新規,0,2024-11-14,2024-11-14,株式会社Ｃｈａｎｎｅｌｓ,,株式会社,東京都,渋谷区,恵比寿西２丁目４番８号ウィンド恵比寿ビル８Ｆ,,13,113,1500021,,,,,,,2024-11-14,1,,,,,チャネルズ,0
1013,4011003020146,新規,0,2024-11-14,2024-11-14,Ｃｏｍｏｒｉｓ　ＤＡＯ合同会社,,合同会社,東京都,目黒区,碑文谷５丁目２番５号Ｔ＆Ａビル５階,,13,110,1520003,,,,,,,2024-11-14,1,,,,,コモリスダオ,0
1014,4011003020344,新規,0,2024-11-14,2024-11-14,合同会社ＳＬＡＮＴ,,合同会社,東京都,渋谷区,道玄坂１丁目１０番８号,,13,113,1500043,,,,,,,2024-11-14,1,,,,,スラント,0
1015,4011003020377,新規,0,2024-11-14,2024-11-14,合同会社ＮＦプロジェクト,,合同会社,東京都,渋谷区,神南１丁目１１４ＦＰＧリンクス神南５階,,13,113,1500041,,,,,,,2024-11-14,1,,,,,エヌエフプロジェクト,0
1016,4011003020419,新規,0,2024-11-14,2024-11-14,合同会社西湖,,合同会社,東京都,目黒区,駒場１丁目２６－１０,,13,110,1530041,,,,,,,2024-11-14,1,,,,,ニシコ,0
1020,4011103015137,新規,0,2024-11-14,2024-11-14,合同会社カブーキー,,合同会社,東京都,新宿区,西早稲田１丁目２３－２アヴァンティ早稲田３０２号室,,13,104,1690051,,,,,,,2024-11-14,1,,,,,カブーキー,0
1025,4011303005342,新規,0,2024-11-14,2024-11-14,合同会社ＦＲＡＺＯ,,合同会社,東京都,杉並区,桃井２丁目２－２－２０５,,13,115,1670034,,,,,,,2024-11-14,1,,,,,,0
1030,4011401026570,新規,0,2024-11-14,2024-11-14,株式会社コトタマゴ,,株式会社,東京都,板橋区,高島平５丁目１８番７号,,13,119,1750082,,,,,,,2024-11-14,1,,,,,コトタマゴ,0
1031,4011401026579,新規,0,2024-11-14,2024-11-14,朗徳株式会社,,株式会社,東京都,板橋区,栄町１８番７－３０１号,,13,119,1730015,,,,,,,2024-11-14,1,,,,,ロウトク,0
1032,4011401026587,新規,0,2024-11-14,2024-11-14,カワムラ美装株式会社,,株式会社,東京都,板橋区,中台１丁目２９番３号,,13,119,1740064,,,,,,,2024-11-14,1,,,,,カワムラビソウ,0
1033,4011503006280,新規,0,2024-11-14,2024-11-14,合同会社ラクテッジ,,合同会社,東京都,北区,上中里３丁目１１番３号,,13,117,1140016,,,,,,,2024-11-14,1,,,,,ラクテッジ,0
1036,4011701027806,新規,0,2024-11-14,2024-11-14,株式会社ＡＲＫＳ,,株式会社,東京都,江戸川区,船堀１丁目１－２６－４３７,,13,123,1340091,,,,,,,2024-11-14,1,,,,,アークス,0
1039,4011801045146,新規,0,2024-11-14,2024-11-14,株式会社八木沢工務店,,株式会社,東京都,足立区,伊興５丁目１５番地１１号,,13,121,1210823,,,,,,,2024-11-14,1,,,,,ヤギサワコウムテン,0
1040,4011801045154,新規,0,2024-11-14,2024-11-14,株式会社フェロー,,株式会社,東京都,足立区,千住旭町２１番６号,,13,121,1200026,,,,,,,2024-11-14,1,,,,,フェロー,0
1045,4013202006710,新規,0,2024-11-14,2024-11-14,有限会社湯村照明,,有限会社,東京都,目黒区,目黒本町３丁目１９番３号,,13,110,1520002,,,,,,,2024-11-14,1,,,,,ユムラショウメイ,0
1050,4020001160011,新規,0,2024-11-14,2024-11-14,株式会社ダン,,株式会社,神奈川県,横浜市青葉区,あざみ野３丁目１４番地３８,,14,117,2250011,,,,,,,2024-11-14,1,,,,,ダン,0
1051,4020001160060,新規,0,2024-11-14,2024-11-14,株式会社Ｄ．Ａ大吉,,株式会社,神奈川県,横浜市磯子区,滝頭１丁目８番５９号,,14,107,2350012,,,,,,,2024-11-14,1,,,,,ディーエーダイキチ,0
1052,4020001160085,新規,0,2024-11-14,2024-11-14,株式会社青葉サッシ工業,,株式会社,神奈川県,横浜市青葉区,すすき野３丁目３－７－２０３,,14,117,2250021,,,,,,,2024-11-14,1,,,,,アオバサッシコウギョウ,0
1053,4020001160119,新規,0,2024-11-14,2024-11-14,株式会社中丸設備設計,,株式会社,神奈川県,横浜市泉区,岡津町１６７番地４,,14,116,2450003,,,,,,,2024-11-14,1,,,,,ナカマルセツビセッケイ,0
1054,4020001160127,新規,0,2024-11-14,2024-11-14,ＳＵＢ株式会社,,株式会社,神奈川県,横浜市港北区,新横浜１丁目１９番地１８－１１０３,,14,109,2220033,,,,,,,2024-11-14,1,,,,,エスユービー,0
1057,4020003027233,新規,0,2024-11-14,2024-11-14,Ｈ’ｈｏｍｅ合同会社,,合同会社,神奈川県,横浜市鶴見区,駒岡３丁目１４番２５－１号,,14,101,2300071,,,,,,,2024-11-14,1,,,,,エイチホーム,0
1060,4021001083747,新規,0,2024-11-14,2024-11-14,ＳＴＮＯ株式会社,,株式会社,神奈川県,相模原市中央区,緑が丘１丁目３９番７号,,14,152,2520225,,,,,,,2024-11-14,1,,,,,ストノ,0
1061,4021001083763,新規,0,2024-11-14,2024-11-14,株式会社８ｋｋｅ,,株式会社,神奈川県,鎌倉市,津西１丁目１８番１０－２号,,14,204,2480034,,,,,,,2024-11-14,1,,,,,ハッケ,0
1062,4021003015236,新規,0,2024-11-14,2024-11-14,合同会社ブライラント,,合同会社,神奈川県,相模原市南区,新磯野３丁目３４－８サンハイム相武台１０２,,14,153,2520325,,,,,,,2024-11-14,1,,,,,ブライラント,0
1070,4030001163368,新規,0,2024-11-14,2024-11-14,凡優情報株式会社,,株式会社,埼玉県,戸田市,喜沢南２丁目９番１７号,,11,224,3350014,,,,,,,2024-11-14,1,,,,,ファンヨウジョウホウ,0
1071,4030001163401,新規,0,2024-11-14,2024-11-14,株式会社寧聖,,株式会社,埼玉県,志木市,柏町６丁目１６番１１－４号,,11,228,3530007,,,,,,,2024-11-14,1,,,,,ネイセイ,0
1072,4030001163442,新規,0,2024-11-14,2024-11-14,株式会社ショウ製作所,,株式会社,埼玉県,川口市,上青木西４丁目２８番４号,,11,203,3330845,,,,,,,2024-11-14,1,,,,,ショウセイサクジョ,0
1073,4030001163459,新規,0,2024-11-14,2024-11-14,株式会社ＳＩ,,株式会社,埼玉県,所沢市,大字山口９０１番地の９,,11,208,3591145,,,,,,,2024-11-14,1,,,,,エスアイ,0
1078,4030005021935,新規,0,2024-11-14,2024-11-14,一般社団法人日本ラッファ連盟,,その他の設立登記法人,埼玉県,さいたま市大宮区,天沼町２丁目１０４９番地５,,11,103,3300834,,,,,,,2024-11-14,1,,,,,ニホンラッファレンメイ,0
1084,4040001136141,新規,0,2024-11-14,2024-11-14,株式会社大慎,,株式会社,千葉県,鎌ケ谷市,鎌ケ谷２丁目１０番４６号,,12,224,2730105,,,,,,,2024-11-14,1,,,,,ダイシン,0
1085,4040001136158,新規,0,2024-11-14,2024-11-14,株式会社Ｌｏｈａｓ＆Ｓｍｉｌｅ,,株式会社,千葉県,茂原市,上太田８１６番地１,,12,210,2994124,,,,,,,2024-11-14,1,,,,,ロハスアンドスマイル,0
1089,4040005022560,新規,0,2024-11-14,2024-11-14,一般社団法人ちば熱中創造機構,,その他の設立登記法人,千葉県,銚子市,中央町９番地の３２,,12,202,2880041,,,,,,,2024-11-14,1,,,,,チバネッチュウソウゾウキコウ,0
1097,4080001026594,新規,0,2024-11-14,2024-11-14,株式会社夏目ホールディングス,,株式会社,静岡県,静岡市清水区,鳥坂９５番地,,22,103,4240067,,,,,,,2024-11-14,1,,,,,ナツメホールディングス,0
1098,4080001026603,新規,0,2024-11-14,2024-11-14,株式会社ｍｏｌｍａ,,株式会社,静岡県,静岡市駿河区,大谷８３６,,22,102,4228017,,,,,,,2024-11-14,1,,,,,モルマ,0
1119,4120001270221,新規,0,2024-11-14,2024-11-14,永大株式会社,,株式会社,大阪府,大阪市生野区,巽北１丁目１番１号２Ｆ－Ｃ,00137008,27,116,5440004,,,,,,,2024-11-14,1,,,,,エイダイ,0
1120,4120001270262,新規,0,2024-11-14,2024-11-14,株式会社近畿リアルエステート,,株式会社,大阪府,枚方市,伊加賀栄町２２番３１号,,27,210,5730062,,,,,,,2024-11-14,1,,,,,キンキリアルエステート,0
1121,4120001270279,新規,0,2024-11-14,2024-11-14,株式会社ＧＩＥＬ,,株式会社,大阪府,大阪市中央区,南久宝寺町４丁目１番２号御堂筋ダイビル４階,,27,128,5410058,,,,,,,2024-11-14,1,,,,,ジール,0
1122,4120003027966,新規,0,2024-11-14,2024-11-14,合同会社ｓｉｅｎｎｅ,,合同会社,大阪府,大阪市北区,中津１丁目６番２９－１７０２号,,27,127,5310071,,,,,,,2024-11-14,1,,,,,ジェンヌ,0
1123,4120005024615,新規,0,2024-11-14,2024-11-14,一般社団法人アンラベル,,その他の設立登記法人,大阪府,大阪市北区,中津２丁目８番Ｂ－１３０７号,,27,127,5310071,,,,,,,2024-11-14,1,,,,,アンラベル,0
1129,4122001038631,新規,0,2024-11-14,2024-11-14,株式会社ルピナス,,株式会社,大阪府,東大阪市,足代１丁目１６番２４号ＴＳカーサテルッツオ４０１号,,27,227,5770841,,,,,,,2024-11-14,1,,,,,ルピナス,0
1130,4122001038648,新規,0,2024-11-14,2024-11-14,株式会社テックバランス,,株式会社,大阪府,八尾市,竹渕西２丁目１０７番,,27,212,5810051,,,,,,,2024-11-14,1,,,,,テックバランス,0
1132,4122003003039,新規,0,2024-11-14,2024-11-14,合同会社０６０７,,合同会社,大阪府,八尾市,南本町９丁目２２番７号,,27,212,5810081,,,,,,,2024-11-14,1,,,,,ゼロロクゼロナナ,0
1133,4130001078341,新規,0,2024-11-14,2024-11-14,ＨＯＬＵＫＹ株式会社,,株式会社,京都府,京都市中京区,釜座通夷川下る大黒町６９５庵里ＫＡＭＡＮＺＡ１０２,,26,104,6040014,,,,,,,2024-11-14,1,,,,,ホルキー,0
1143,4140001136404,新規,0,2024-11-14,2024-11-14,株式会社ＵＬ,,株式会社,兵庫県,神戸市西区,樫野台３丁目２番地、９－２０２号,,28,111,6512275,,,,,,,2024-11-14,1,,,,,ユーエル,0
1144,4140001136412,新規,0,2024-11-14,2024-11-14,株式会社ＢＡＭＢＯＯＫ,,株式会社,兵庫県,高砂市,米田町米田２０１番地の２,,28,216,6760805,,,,,,,2024-11-14,1,,,,,バンブック,0
1145,4140001136453,新規,0,2024-11-14,2024-11-14,株式会社ＡＹＭ,,株式会社,兵庫県,加西市,殿原町６２０番地,,28,220,6752445,,,,,,,2024-11-14,1,,,,,エーワイエム,0
1150,4150001027668,新規,0,2024-11-14,2024-11-14,株式会社あそびのチカラ,,株式会社,奈良県,北葛城郡広陵町,大字疋相４０番地１２,,29,426,6350824,,,,,,,2024-11-14,1,,,,,アソビノチカラ,0
1155,4160001026355,新規,0,2024-11-14,2024-11-14,クラスアセット株式会社,,株式会社,滋賀県,栗東市,安養寺７丁目２番２２号,,25,208,5203015,,,,,,,2024-11-14,1,,,,,クラスアセット,0
1157,4170001018376,新規,0,2024-11-14,2024-11-14,株式会社ｃｏｍｏｎｏｎ,,株式会社,和歌山県,和歌山市,藪ノ丁２番地２,,30,201,6408138,,,,,,,2024-11-14,1,,,,,コモノン,0
1167,4180001164038,新規,0,2024-11-14,2024-11-14,エコライフ株式会社,,株式会社,愛知県,名古屋市中区,栄２丁目２番１号,,23,106,4600008,,,,,,,2024-11-14,1,,,,,エコライフ,0
1168,4180001164112,新規,0,2024-11-14,2024-11-14,ＨＩホールディングス株式会社,,株式会社,愛知県,名古屋市緑区,細口１丁目９０４番地の２,,23,114,4580006,,,,,,,2024-11-14,1,,,,,エイチアイホールディングス,0
1169,4180001164129,新規,0,2024-11-14,2024-11-14,株式会社井手工業,,株式会社,愛知県,春日井市,稲口町４丁目２１番地６,,23,206,4860905,,,,,,,2024-11-14,1,,,,,イデコウギョウ,0
1170,4180001164137,新規,0,2024-11-14,2024-11-14,株式会社インフィニティー,,株式会社,愛知県,名古屋市東区,葵１丁目１４番２０号エスティメゾン葵７０６号,,23,102,4610004,,,,,,,2024-11-14,1,,,,,インフィニティー,0
1171,4180001164153,新規,0,2024-11-14,2024-11-14,株式会社あらいぶ,,株式会社,愛知県,一宮市,南小渕字間之田２６番地３,,23,203,4910014,,,,,,,2024-11-14,1,,,,,アライブ,0
1178,4180303006342,新規,0,2024-11-14,2024-11-14,合同会社ＭＳＹ,,合同会社,愛知県,豊田市,浄水町伊保原３０５Ｙ’ｓＧＡＲＤＥＮ９０９,,23,211,4700343,,,,,,,2024-11-14,1,,,,,エムエスワイ,0
1182,4220001026332,新規,0,2024-11-14,2024-11-14,株式会社Ｋホールディングス,,株式会社,石川県,金沢市,武蔵町１番１６号,,17,201,9200855,,,,,,,2024-11-14,1,,,,,ケーホールディングス,0
1185,4230001020615,新規,0,2024-11-14,2024-11-14,にいかわサークルパートナーズ株式会社,,株式会社,富山県,富山市,布瀬本町４番８大和ハウス富山ビル４階,,16,201,9398207,,,,,,,2024-11-14,1,,,,,ニイカワサークルパートナーズ,0
1187,4240001064090,新規,0,2024-11-14,2024-11-14,株式会社四季,,株式会社,広島県,広島市中区,基町１９番２号,,34,101,7300011,,,,,,,2024-11-14,1,,,,,シキ,0
1194,4280003001897,新規,0,2024-11-14,2024-11-14,合同会社ＳＥ４,,合同会社,島根県,松江市,東朝日町２００番地１,,32,201,6900001,,,,,,,2024-11-14,1,,,,,エスイーヨン,0
1198,4290001107984,新規,0,2024-11-14,2024-11-14,株式会社明倫不動産,,株式会社,福岡県,福岡市中央区,大名２丁目４番２２号,,40,133,8100041,,,,,,,2024-11-14,1,,,,,メイリンフドウサン,0
1200,4290003016052,新規,0,2024-11-14,2024-11-14,合同会社エム・エム,,合同会社,福岡県,福岡市東区,美和台７丁目２－１１コーポ梶原２０５,,40,131,8110212,,,,,,,2024-11-14,1,,,,,エムエム,0
1201,4300001013966,新規,0,2024-11-14,2024-11-14,株式会社松隈ファーム,,株式会社,佐賀県,鳥栖市,高田町４０番地３,,41,203,8410044,,,,,,,2024-11-14,1,,,,,マツグマファーム,0
1202,4330001032633,新規,0,2024-11-14,2024-11-14,株式会社Ｔｏｄａｙ,,株式会社,熊本県,天草市,楠浦町２５７９番地,,43,215,8630044,,,,,,,2024-11-14,1,,,,,トゥデイ,0
1203,4330001032658,新規,0,2024-11-14,2024-11-14,Ｎｅｏｗｅｌｌ　Ｔｅｃｈｎｏｌｏｇｙ株式会社,,株式会社,熊本県,菊池郡菊陽町,大字津久礼字杉ノ本３７４４番地２１,,43,404,8691101,,,,,,,2024-11-14,1,,,,,ネオウェルテクノロジー,0
1209,4350003004785,新規,0,2024-11-14,2024-11-14,合同会社ｅｙｅｌａｂ,,合同会社,宮崎県,小林市,北西方１１６３番地５,,45,205,8860006,,,,,,,2024-11-14,1,,,,,アイラボ,0
1212,4360001034429,新規,0,2024-11-14,2024-11-14,株式会社ＧＳｃａｌｅ,,株式会社,沖縄県,宜野湾市,大山２丁目３－７ミルコマンション大山シービュー１１０３,,47,205,9012223,,,,,,,2024-11-14,1,,,,,ジースケール,0
1215,4370001051910,新規,0,2024-11-14,2024-11-14,株式会社ブレイズ,,株式会社,宮城県,石巻市,蛇田字刈場３９番地１,,04,202,9860861,,,,,,,2024-11-14,1,,,,,ブレイズ,0
1220,4370005010854,新規,0,2024-11-14,2024-11-14,みらい創研税理士法人,,その他の設立登記法人,宮城県,仙台市青葉区,一番町２丁目８番１０号,,04,101,9800811,,,,,,,2024-11-14,1,,,,,ミライソウケン,0
1223,4390001017793,新規,0,2024-11-14,2024-11-14,未羽ネットサービス株式会社,,株式会社,山形県,上山市,旭町２丁目９番３１号,,06,207,9993106,,,,,,,2024-11-14,1,,,,,ミウネットサービス,0
1228,4420001018920,新規,0,2024-11-14,2024-11-14,株式会社Ｍ‐ＤＳＫ,,株式会社,青森県,青森市,本町５丁目３番１８号,,02,201,0300802,,,,,,,2024-11-14,1,,,,,エムディーエスケー,0
1233,4450001005107,新規,0,2024-11-14,2024-11-14,北海道フタバ建設株式会社,,株式会社,北海道,旭川市,三条通１６丁目左７号,,01,204,0700033,,,,,,,2024-11-14,1,,,,,,0
1259,5010001249911,新規,0,2024-11-14,2024-11-14,株式会社Ｖ,,株式会社,東京都,文京区,湯島３丁目４２番６号堀ビル１階Ａ号室,,13,105,1130034,,,,,,,2024-11-14,1,,,,,ブイ,0
1280,5010003045417,新規,0,2024-11-14,2024-11-14,合同会社創生マリンサービス,,合同会社,東京都,中央区,銀座１丁目１２番４号Ｎ＆ＥＢＬＤ．６Ｆ,,13,102,1040061,,,,,,,2024-11-14,1,,,,,ソウセイマリンサービス,0
1286,5010005039078,新規,0,2024-11-14,2024-11-14,一般社団法人マルティウス２,,その他の設立登記法人,東京都,千代田区,丸の内１丁目４番１号東京共同会計事務所内,,13,101,1000005,,,,,,,2024-11-14,1,,,,,マルティウスツー,0
1287,5010005039103,新規,0,2024-11-14,2024-11-14,一般社団法人苫小牧ＴＪＤソーラー,,その他の設立登記法人,東京都,千代田区,永田町２丁目１７番５号,,13,101,1000014,,,,,,,2024-11-14,1,,,,,トマコマイティージェイディーソーラー,0
1303,5010601066269,新規,0,2024-11-14,2024-11-14,ＭＥＩ　Ｅｎｔｅｒｐｒｉｓｅ株式会社,,株式会社,東京都,江東区,亀戸５丁目６番２１ＵＩＷ９ビル４Ｆ２３号,,13,108,1360071,,,,,,,2024-11-14,1,,,,,メイエンタープライズ,0
1304,5010601066277,新規,0,2024-11-14,2024-11-14,ＡＩＣＣＤＥＳＩＧＮ株式会社,,株式会社,東京都,江東区,青海２丁目７番４－７３７号,,13,108,1350064,,,,,,,2024-11-14,1,,,,,エーアイシーシーデザイン,0
1305,5010603011215,新規,0,2024-11-14,2024-11-14,合同会社ツリーサイド,,合同会社,東京都,墨田区,向島５丁目２３番１０号,,13,107,1310033,,,,,,,2024-11-14,1,,,,,ツリーサイド,0
1306,5010701046781,新規,0,2024-11-14,2024-11-14,フリー創業融資サポート株式会社,,株式会社,東京都,品川区,大崎１丁目２番２号,,13,109,1410032,,,,,,,2024-11-14,1,,,,,フリーソウギョウユウシサポート,0
1307,5010701046823,新規,0,2024-11-14,2024-11-14,株式会社Ｔｒｉｐｌｅ　Ｗｉｎ　Ａｓｓｅｔ,,株式会社,東京都,品川区,大崎５丁目９番９号シティタワー大崎２５０９号室,,13,109,1410032,,,,,,,2024-11-14,1,,,,,トリプルウィンアセット,0
1308,5010803005165,新規,0,2024-11-14,2024-11-14,合同会社アルファスタイル,,合同会社,東京都,大田区,田園調布２丁目４２番６号,,13,111,1450071,,,,,,,2024-11-14,1,,,,,アルファスタイル,0
1310,5010901056317,新規,0,2024-11-14,2024-11-14,株式会社マイケル,,株式会社,東京都,世田谷区,世田谷１丁目１０番２２号ポルト２０２,,13,112,1540017,,,,,,,2024-11-14,1,,,,,マイケル,0
1311,5010901056333,新規,0,2024-11-14,2024-11-14,株式会社Ｒｅｈｏｌｏ,,株式会社,東京都,世田谷区,上祖師谷１丁目１９番１４号,,13,112,1570065,,,,,,,2024-11-14,1,,,,,リホロ,0
1312,5010901056341,新規,0,2024-11-14,2024-11-14,株式会社倉本剛建築設計事務所,,株式会社,東京都,世田谷区,松原５丁目４０番１２号,,13,112,1560043,,,,,,,2024-11-14,1,,,,,クラモトゴウケンチクセッケイジムショ,0
1321,5011001165875,新規,0,2024-11-14,2024-11-14,株式会社Ｋ＆Ｋ,,株式会社,東京都,渋谷区,本町３丁目４３番３号パレステュディオ渋谷本町８０７,,13,113,1510071,,,,,,,2024-11-14,1,,,,,ケーアンドケー,0
1322,5011001165883,新規,0,2024-11-14,2024-11-14,Ｇｌｏｂａｌ　Ｓｏｃｃｅｒ　Ｄｒｅａｍｓ株式会社,,株式会社,東京都,渋谷区,渋谷２丁目１９番１５号宮益坂ビルディング６０９,,13,113,1500002,,,,,,,2024-11-14,1,,,,,グローバルサッカードリームス,0
1324,5011003020418,新規,0,2024-11-14,2024-11-14,ブルーオーシャン・パートナーズ合同会社,,合同会社,東京都,渋谷区,恵比寿西２丁目８番４号ＥＸ恵比寿西ビル５階,,13,113,1500021,,,,,,,2024-11-14,1,,,,,ブルーオーシャンパートナーズ,0
1329,5011101109550,新規,0,2024-11-14,2024-11-14,ＦＵＧＡ　Ｗｅｌｌｎｅｓｓ株式会社,,株式会社,東京都,新宿区,若葉１丁目１５番地１９,,13,104,1600011,,,,,,,2024-11-14,1,,,,,フーガウェルネス,0
1334,5011401026578,新規,0,2024-11-14,2024-11-14,株式会社ＡＤＯＶＥＮＡ,,株式会社,東京都,板橋区,常盤台２丁目５番７号峰岡ビル３０３,,13,119,1740071,,,,,,,2024-11-14,1,,,,,アドベナ,0
1335,5011403004549,新規,0,2024-11-14,2024-11-14,ＢＨＡＩＲＡＶ合同会社,,合同会社,東京都,板橋区,板橋４丁目１１番１０－１０７号イシイビル,,13,119,1730004,,,,,,,2024-11-14,1,,,,,バイラブ,0
1343,5011801045145,新規,0,2024-11-14,2024-11-14,株式会社ＲｅＳｔａｒｔ,,株式会社,東京都,葛飾区,金町６丁目２番１－２３１３号ヴィナシス金町タワーレジデンス,,13,122,1250042,,,,,,,2024-11-14,1,,,,,リスタート,0
1358,5020001160035,新規,0,2024-11-14,2024-11-14,株式会社アールエフ,,株式会社,神奈川県,横浜市港北区,新吉田東８丁目５５番１５－５０３号,,14,109,2230058,,,,,,,2024-11-14,1,,,,,アールエフ,0
1359,5020001160084,新規,0,2024-11-14,2024-11-14,株式会社松井エンタープライズ,,株式会社,神奈川県,横浜市鶴見区,梶山１丁目２番７号,,14,101,2300072,,,,,,,2024-11-14,1,,,,,マツイエンタープライズ,0
1361,5020003027240,新規,0,2024-11-14,2024-11-14,Ｏｐｔｉｖａｎｃｅ合同会社,,合同会社,神奈川県,横浜市泉区,和泉中央南１丁目５番１６号,,14,116,2450023,,,,,,,2024-11-14,1,,,,,オプティバンス,0
1362,5020003027257,新規,0,2024-11-14,2024-11-14,合同会社みらいクリエイト,,合同会社,神奈川県,横浜市旭区,さちが丘３７番地３０,,14,112,2410822,,,,,,,2024-11-14,1,,,,,ミライクリエイト,0
1372,5021001083779,新規,0,2024-11-14,2024-11-14,株式会社ＷＥＥＤ,,株式会社,神奈川県,藤沢市,遠藤２０２０番地の１,,14,205,2520816,,,,,,,2024-11-14,1,,,,,ウィード,0
1382,5030001163391,新規,0,2024-11-14,2024-11-14,株式会社ナユタ,,株式会社,埼玉県,さいたま市桜区,西堀４丁目１１番７－６１２号,,11,106,3380832,,,,,,,2024-11-14,1,,,,,ナユタ,0
1383,5030001163417,新規,0,2024-11-14,2024-11-14,株式会社ＳＥＯ,,株式会社,埼玉県,越谷市,北越谷３丁目１５番５号,,11,222,3430026,,,,,,,2024-11-14,1,,,,,セオ,0
1384,5030001163433,新規,0,2024-11-14,2024-11-14,万興産業株式会社,,株式会社,埼玉県,さいたま市西区,大字飯田新田２８９－６,,11,101,3310068,,,,,,,2024-11-14,1,,,,,バンキョウサンギョウ,0
1397,5040001136157,新規,0,2024-11-14,2024-11-14,株式会社ＬＩＣ．,,株式会社,千葉県,松戸市,中根３－１ＡＪ馬橋ＩＶ２０２,,12,207,2710053,,,,,,,2024-11-14,1,,,,,エルアイシー,0
1398,5040001136165,新規,0,2024-11-14,2024-11-14,株式会社愛があれば大丈夫,,株式会社,千葉県,木更津市,中島２３０３番地,,12,206,2920008,,,,,,,2024-11-14,1,,,,,アイガアレバダイジョウブ,0
1399,5040003026190,新規,0,2024-11-14,2024-11-14,合同会社ＮＭＣ,,合同会社,千葉県,浦安市,北栄４丁目４番１１－７０１号ローズガーデン浦安壱番館,,12,227,2790002,,,,,,,2024-11-14,1,,,,,エヌエムシー,0
1400,5040003026199,新規,0,2024-11-14,2024-11-14,合同会社ストラクスガルテン,,合同会社,千葉県,千葉市美浜区,高洲３丁目１０番１号サンフラワービレッジ４階,,12,106,2610004,,,,,,,2024-11-14,1,,,,,ストラクスガルテン,0
1416,5100001038025,新規,0,2024-11-14,2024-11-14,株式会社さくら商事,,株式会社,長野県,千曲市,大字倉科２８６番地１,,20,218,3870004,,,,,,,2024-11-14,1,,,,,サクラショウジ,0
1424,5120001270204,新規,0,2024-11-14,2024-11-14,株式会社ＳＴＥＡＤ,,株式会社,大阪府,大阪市住吉区,長居東１丁目８番３０－Ｃ号,,27,120,5580004,,,,,,,2024-11-14,1,,,,,スティード,0
1425,5120001270220,新規,0,2024-11-14,2024-11-14,橄欖枝農業株式会社,,株式会社,大阪府,大阪市浪速区,恵美須西２丁目８－１８サンピアユタカ６Ｂ号室,,27,111,5560003,,,,,,,2024-11-14,1,,,,,カンランシノウギョウ,0
1426,5120001270245,新規,0,2024-11-14,2024-11-14,株式会社ラーメン総合研究所,,株式会社,大阪府,大阪市中央区,安土町２丁目２番１５号ハウザー堺筋本町駅前ビル５階,,27,128,5410052,,,,,,,2024-11-14,1,,,,,ラーメンソウゴウケンキュウジョ,0
1427,5120001270286,新規,0,2024-11-14,2024-11-14,雨禾株式会社,,株式会社,大阪府,大阪市中央区,松屋町９番２０号ローレルステート松屋町５０２Ａ,,27,128,5420067,,,,,,,2024-11-14,1,,,,,ウカ,0
1428,5120001270303,新規,0,2024-11-14,2024-11-14,株式会社ＮＥＷ,,株式会社,大阪府,大阪市生野区,巽東２丁目１８－３１,00137011,27,116,5440014,,,,,,,2024-11-14,1,,,,,ニュー,0
1430,5120003027957,新規,0,2024-11-14,2024-11-14,春瑞合同会社,,合同会社,大阪府,大阪市東成区,東中本３丁目２０番２２号関西マンション２０２号室,,27,115,5370021,,,,,,,2024-11-14,1,,,,,シュンズイ,0
1432,5120101070495,新規,0,2024-11-14,2024-11-14,新日本バス株式会社,,株式会社,大阪府,泉佐野市,長滝１６９０番地の１コスモプラザ２、２Ａ号室,,27,213,5980034,,,,,,,2024-11-14,1,,,,,シンニホンバス,0
1436,5120901050028,新規,0,2024-11-14,2024-11-14,匠株式会社,,株式会社,大阪府,箕面市,船場西２丁目７番１１号,,27,220,5620036,,,,,,,2024-11-14,1,,,,,タクミ,0
1441,5122001038630,新規,0,2024-11-14,2024-11-14,株式会社Ｋ’ｓ　ＳＯＡＲＩＮＧ,,株式会社,大阪府,東大阪市,渋川町２丁目９番２３号,,27,227,5770836,,,,,,,2024-11-14,1,,,,,ケーズソアリング,0
1450,5140003021314,新規,0,2024-11-14,2024-11-14,合同会社ＨＩＤＥＢＯＯ,,合同会社,兵庫県,西宮市,両度町３番１－２４０７号,,28,204,6620841,,,,,,,2024-11-14,1,,,,,ハイドボー,0
1451,5140003021322,新規,0,2024-11-14,2024-11-14,中津アカウンティングサービス合同会社,,合同会社,兵庫県,神戸市中央区,東川崎町１丁目３番３号,,28,110,6500044,,,,,,,2024-11-14,1,,,,,ナカツアカウンティングサービス,0
1453,5150001027659,新規,0,2024-11-14,2024-11-14,株式会社ＲＩＣＥ　ＤＡＯ,,株式会社,奈良県,奈良市,芝辻町３丁目９番３７－８０２号,,29,201,6308114,,,,,,,2024-11-14,1,,,,,ライスダオ,0
1454,5150003003419,新規,0,2024-11-14,2024-11-14,合同会社Ｔ・Ｙ,,合同会社,奈良県,橿原市,和田町３番９号,,29,205,6340041,,,,,,,2024-11-14,1,,,,,ティーワイ,0
1464,5180001163996,新規,0,2024-11-14,2024-11-14,株式会社Ｅ‐ＳＴＹＬＥ,,株式会社,愛知県,名古屋市中区,錦３丁目１８番１２号,,23,106,4600003,,,,,,,2024-11-14,1,,,,,イースタイル,0
1465,5180001164111,新規,0,2024-11-14,2024-11-14,ＫＩホールディングス株式会社,,株式会社,愛知県,名古屋市緑区,細口１丁目９０４番地の２,,23,114,4580006,,,,,,,2024-11-14,1,,,,,ケイアイホールディングス,0
1466,5180001164128,新規,0,2024-11-14,2024-11-14,株式会社Ｂａｍｂｏｏ　Ｉｓｌａｎｄ,,株式会社,愛知県,北名古屋市,宇福寺天神３４５番地,,23,234,4810035,,,,,,,2024-11-14,1,,,,,バンブーアイランド,0
1467,5180001164144,新規,0,2024-11-14,2024-11-14,株式会社Ｕ,,株式会社,愛知県,名古屋市東区,代官町３４番２０号キャトルセゾン代官町６０１号,,23,102,4610002,,,,,,,2024-11-14,1,,,,,ユー,0
1468,5180001164160,新規,0,2024-11-14,2024-11-14,株式会社ノエル,,株式会社,愛知県,一宮市,猿海道１丁目３番９号（エバーハイムＬ１０２号）,,23,203,4910838,,,,,,,2024-11-14,1,,,,,ノエル,0
1469,5180001164169,新規,0,2024-11-14,2024-11-14,株式会社アバン,,株式会社,愛知県,一宮市,新生１丁目８番２０号ローレルコート一宮駅前９０３号,,23,203,4910912,,,,,,,2024-11-14,1,,,,,アバン,0
1470,5180001164177,新規,0,2024-11-14,2024-11-14,株式会社Ｅｎｆｉｍ,,株式会社,愛知県,名古屋市中区,栄１丁目５番１４号,,23,106,4600008,,,,,,,2024-11-14,1,,,,,エンフィー,0
1474,5180301039228,新規,0,2024-11-14,2024-11-14,リサイクルイズム株式会社,,株式会社,愛知県,豊橋市,植田町字向新切１９番地１,,23,201,4418134,,,,,,,2024-11-14,1,,,,,リサイクルイズム,0
1475,5180303006341,新規,0,2024-11-14,2024-11-14,ＭＯＫＴＡＮ合同会社,,合同会社,愛知県,岡崎市,本町通３丁目１０番地１Ｆ,,23,202,4440051,,,,,,,2024-11-14,1,,,,,モクタン,0
1476,5190001031806,新規,0,2024-11-14,2024-11-14,株式会社エボリューション,,株式会社,三重県,北牟婁郡紀北町,島原１００９番地,,24,543,5193203,,,,,,,2024-11-14,1,,,,,エボリューション,0
1496,5260001039593,新規,0,2024-11-14,2024-11-14,株式会社ＳＡＫＩＸ,,株式会社,岡山県,岡山市南区,築港新町１丁目６－５（２Ｆ－２０２）,,33,104,7028056,,,,,,,2024-11-14,1,,,,,サキガケ,0
1505,5290001107918,新規,0,2024-11-14,2024-11-14,ｉｎｄｉｇｏ．ｌａｎｇ株式会社,,株式会社,福岡県,福岡市城南区,堤１丁目３０番１－５０９号,,40,136,8140151,,,,,,,2024-11-14,1,,,,,インディゴラング,0
1506,5290003016043,新規,0,2024-11-14,2024-11-14,合同会社デンスケ,,合同会社,福岡県,福岡市西区,大字宮浦１５００番地１,,40,135,8190201,,,,,,,2024-11-14,1,,,,,デンスケ,0
1508,5290801031037,新規,0,2024-11-14,2024-11-14,株式会社Ｈａｓｈ,,株式会社,福岡県,北九州市小倉北区,浅野３丁目８番１号ＡＩＭビル６階,,40,106,8020001,,,,,,,2024-11-14,1,,,,,ハッシュ,0
1510,5290803004890,新規,0,2024-11-14,2024-11-14,合同会社ＨＯＯＱ,,合同会社,福岡県,北九州市小倉北区,中井５丁目１２－２０,,40,106,8030836,,,,,,,2024-11-14,1,,,,,フック,0
1512,5300001013965,新規,0,2024-11-14,2024-11-14,株式会社レックス,,株式会社,佐賀県,鳥栖市,古賀町２９９番地４７,,41,203,8410083,,,,,,,2024-11-14,1,,,,,レックス,0
1513,5300001013973,新規,0,2024-11-14,2024-11-14,株式会社犬居猫座衛門,,株式会社,佐賀県,佐賀市,南佐賀２丁目３－８,,41,201,8400016,,,,,,,2024-11-14,1,,,,,イヌイネコザエモン,0
1514,5320001020811,新規,0,2024-11-14,2024-11-14,株式会社清成美,,株式会社,大分県,大分市,けやき台２丁目２１３１番地の１０６,,44,201,8797762,,,,,,,2024-11-14,1,,,,,シンセイビ,0
1519,5350001019289,新規,0,2024-11-14,2024-11-14,株式会社Ｊｅｓ,,株式会社,宮崎県,宮崎市,佐土原町下那珂１９９４番地２,,45,201,8800212,,,,,,,2024-11-14,1,,,,,ジェス,0
1524,5360001034428,新規,0,2024-11-14,2024-11-14,株式会社助さんかくさん,,株式会社,沖縄県,浦添市,内間３丁目１６番１４号,,47,208,9012121,,,,,,,2024-11-14,1,,,,,スケサンカクサン,0
1526,5360005007132,新規,0,2024-11-14,2024-11-14,一般社団法人迎恩,,その他の設立登記法人,沖縄県,沖縄市,泡瀬１丁目２－２１,,47,211,9042172,,,,,,,2024-11-14,1,,,,,ゲイオン,0
1543,5470003002751,新規,0,2024-11-14,2024-11-14,Ｗｅｓｔ　Ｊａｐａｎ　ＨＤ合同会社,,合同会社,香川県,高松市,多肥上町１１１５番地２,,37,201,7618076,,,,,,,2024-11-14,1,,,,,,0
1550,5500003003366,新規,0,2024-11-14,2024-11-14,スクミンズ合同会社,,合同会社,愛媛県,松山市,御幸２丁目４番地４９号,,38,201,7900824,,,,,,,2024-11-14,1,,,,,スクミンズ,0
1552,5700150127872,新規,0,2024-11-14,2024-11-14,ＫＲＩＳＨＮＡ　ＭＡＲＵＴＩ　ＬＩＭＩＴＥＤ,,外国会社等,静岡県,浜松市中央区,増楽町１３６２－２,,22,138,4328062,インド共和国ハリヤナ州グルガオン，ビレッジナーシングプール，デリー・ジャイプールハイウェイ，ＮＨ－８，４０Ｋ．Ｍ．,,,,,,2024-11-14,1,,,,,クリシユナマルチリミテツド,0
1560,6010001249919,新規,0,2024-11-14,2024-11-14,株式会社ＮＥＸＵＳ,,株式会社,東京都,文京区,本郷４丁目１８番３号,,13,105,1130033,,,,,,,2024-11-14,1,,,,,ネクサス,0
1561,6010001249976,新規,0,2024-11-14,2024-11-14,株式会社おん,,株式会社,東京都,中央区,月島３丁目１４－９岩崎ビル２０１,,13,102,1040052,,,,,,,2024-11-14,1,,,,,オン,0
1584,6010005039077,新規,0,2024-11-14,2024-11-14,ＮＷ‐３一般社団法人,,その他の設立登記法人,東京都,千代田区,霞が関３丁目２番５号,,13,101,1000013,,,,,,,2024-11-14,1,,,,,エヌダブルスリー,0
1585,6010005039093,新規,0,2024-11-14,2024-11-14,一般社団法人ＣＢ３,,その他の設立登記法人,東京都,中央区,京橋１丁目１４番９号株式会社えいえん堂内,,13,102,1040031,,,,,,,2024-11-14,1,,,,,シービースリー,0
1590,6010401186381,新規,0,2024-11-14,2024-11-14,株式会社アミティ,,株式会社,東京都,港区,南青山１丁目２４番１号,,13,103,1070062,,,,,,,2024-11-14,1,,,,,アミティ,0
1591,6010401186398,新規,0,2024-11-14,2024-11-14,株式会社ＭｅｌｔｙＬａｐｉｎ,,株式会社,東京都,港区,北青山１丁目３番１号アールキューブ青山３階,,13,103,1070061,,,,,,,2024-11-14,1,,,,,メルティラビ,0
1592,6010401186415,新規,0,2024-11-14,2024-11-14,株式会社ブライト,,株式会社,東京都,港区,北青山１丁目３番１号アールキューブ青山３階,,13,103,1070061,,,,,,,2024-11-14,1,,,,,ブライト,0
1595,6010403033771,新規,0,2024-11-14,2024-11-14,合同会社Ｐｅｐａｒｏｎｉ,,合同会社,東京都,港区,南青山３丁目１番３６号,,13,103,1070062,,,,,,,2024-11-14,1,,,,,ペパロニ,0
1601,6010501053176,新規,0,2024-11-14,2024-11-14,株式会社創健屋,,株式会社,東京都,台東区,雷門１丁目１１番１２－２０４号,,13,106,1110034,,,,,,,2024-11-14,1,,,,,ソウケンヤ,0
1603,6010601066268,新規,0,2024-11-14,2024-11-14,株式会社Ｓｅａ’ｓ　Ｓｋｙ,,株式会社,東京都,江東区,大島５丁目１０番１０－１３０３号,,13,108,1360072,,,,,,,2024-11-14,1,,,,,シーズスカイ,0
1604,6010601066276,新規,0,2024-11-14,2024-11-14,株式会社Ｎｉｎｊｉｎ,,株式会社,東京都,江東区,塩浜２丁目４番３１号ＷＯＲＶＥ東京木場７０８,,13,108,1350043,,,,,,,2024-11-14,1,,,,,ニンジン,0
1606,6010603011206,新規,0,2024-11-14,2024-11-14,ＭＫアセット合同会社,,合同会社,東京都,江東区,扇橋２丁目１１番１１号,,13,108,1350011,,,,,,,2024-11-14,1,,,,,エムケイアセット,0
1607,6010603011214,新規,0,2024-11-14,2024-11-14,Ｓ．Ｍ．Ｒ合同会社,,合同会社,東京都,江東区,大島５丁目４５－２,,13,108,1360072,,,,,,,2024-11-14,1,,,,,エスエムアール,0
1610,6010701046830,新規,0,2024-11-14,2024-11-14,ハミングバードプロパティ株式会社,,株式会社,東京都,品川区,戸越１丁目２９番２－４０２号,,13,109,1420041,,,,,,,2024-11-14,1,,,,,ハミングバードプロパティ,0
1612,6010803005164,新規,0,2024-11-14,2024-11-14,合同会社クラウド,,合同会社,東京都,大田区,大森西３丁目２８番５号コスモリード大森西２Ｆ,,13,111,1430015,,,,,,,2024-11-14,1,,,,,クラウド,0
1613,6010901056324,新規,0,2024-11-14,2024-11-14,株式会社ｉｋｏｉ,,株式会社,東京都,世田谷区,桜新町１丁目３６－１７－１Ｆ,,13,112,1540015,,,,,,,2024-11-14,1,,,,,イコイ,0
1614,6010903009511,新規,0,2024-11-14,2024-11-14,Ｌｏｒｅ　Ｓｔｕｄｉｏ合同会社,,合同会社,東京都,世田谷区,下馬５丁目２５－１１－２０２,,13,112,1540002,,,,,,,2024-11-14,1,,,,,ロアスタジオ,0
1620,6011001165800,新規,0,2024-11-14,2024-11-14,株式会社ＨＩＢＵＲＩ,,株式会社,東京都,渋谷区,道玄坂１丁目１０番８号渋谷道玄坂東急ビル２Ｆ－Ｃ,,13,113,1500043,,,,,,,2024-11-14,1,,,,,ヒブリ,0
1621,6011001165809,新規,0,2024-11-14,2024-11-14,株式会社ＰＥＧホールディングス,,株式会社,東京都,渋谷区,渋谷２丁目７番１４号ＶＯＲＴ青山３０２,,13,113,1500002,,,,,,,2024-11-14,1,,,,,ペグホールディングス,0
1622,6011001165924,新規,0,2024-11-14,2024-11-14,株式会社ＡｕｒｕｍＷｅａｌｔｈＰａｒｔｎｅｒｓ,,株式会社,東京都,渋谷区,道玄坂１丁目１０番８号渋谷道玄坂東急ビル２Ｆ－Ｃ,,13,113,1500043,,,,,,,2024-11-14,1,,,,,オーラムウェルスパートナーズ,0
1626,6011003020417,新規,0,2024-11-14,2024-11-14,合同会社アールエムインベストメント,,合同会社,東京都,渋谷区,恵比寿１丁目１５番９号日宝恵比寿ビル４０３,,13,113,1500013,,,,,,,2024-11-14,1,,,,,アールエムインベストメント,0
1632,6011103015168,新規,0,2024-11-14,2024-11-14,合同会社ＨＹ　Ｃｏｎｓｕｌｔｉｎｇ,,合同会社,東京都,新宿区,西新宿３丁目３番１３号西新宿水間ビル６階,,13,104,1600023,,,,,,,2024-11-14,1,,,,,エイチワイコンサルティング,0
1640,6011403004556,新規,0,2024-11-14,2024-11-14,合同会社ＳＷ,,合同会社,東京都,板橋区,徳丸２丁目９番１９－６０３号,,13,119,1750083,,,,,,,2024-11-14,1,,,,,エスダブリュウ,0
1646,6011801045136,新規,0,2024-11-14,2024-11-14,株式会社ＴｒａｎｓＣｏｎ　Ｊａｐａｎ,,株式会社,東京都,足立区,千住柳町２５－１ＴＫハイム１Ｆ,,13,121,1200032,,,,,,,2024-11-14,1,,,,,トランスコンジャパン,0
1655,6012701018545,新規,0,2024-11-14,2024-11-14,海＿株式会社,00137001,株式会社,東京都,小平市,花小金井南町１丁目１１番２０レトロ館１０３号,,13,211,1870003,,,,,,,2024-11-14,1,,,,,ウミハク,0
1658,6013301053370,新規,0,2024-11-14,2024-11-14,株式会社ＤＯＯＨＯ　Ｃｏｒｐｏｒａｔｉｏｎ,,株式会社,東京都,豊島区,東池袋５丁目７番３号アゼリア東池袋４０１,,13,116,1700013,,,,,,,2024-11-14,1,,,,,ドゥホコーポレーション,0
1662,6020001160050,新規,0,2024-11-14,2024-11-14,株式会社ＡＲＴｒｉｂｅ,,株式会社,神奈川県,横浜市西区,北幸２丁目１０－４８むつみビル３階,,14,103,2200004,,,,,,,2024-11-14,1,,,,,アートライブ,0
1663,6020001160117,新規,0,2024-11-14,2024-11-14,株式会社しま,,株式会社,神奈川県,川崎市多摩区,中野島５丁目１番１－１０８号,,14,135,2140012,,,,,,,2024-11-14,1,,,,,シマ,0
1667,6021001083778,新規,0,2024-11-14,2024-11-14,株式会社ライフアップ,,株式会社,神奈川県,伊勢原市,下落合６１０番地の６０,,14,214,2591121,,,,,,,2024-11-14,1,,,,,ライフアップ,0
1671,6021003015234,新規,0,2024-11-14,2024-11-14,ウェスト合同会社,,合同会社,神奈川県,藤沢市,鵠沼海岸７丁目１１番１５～５号,00136997,14,205,2510037,,,,,,,2024-11-14,1,,,,,ウェスト,0
1680,6030001163399,新規,0,2024-11-14,2024-11-14,株式会社ＮＡＧ,,株式会社,埼玉県,吉川市,高久１丁目１６番地５,,11,243,3420035,,,,,,,2024-11-14,1,,,,,ナグ,0
1681,6030001163408,新規,0,2024-11-14,2024-11-14,株式会社シナリーテック,,株式会社,埼玉県,加須市,平永３２５番地１,,11,210,3470046,,,,,,,2024-11-14,1,,,,,シナリーテック,0
1682,6030001163449,新規,0,2024-11-14,2024-11-14,株式会社スマイーナプラス,,株式会社,埼玉県,北葛飾郡杉戸町,大字堤根４２１２番地７,,11,464,3450024,,,,,,,2024-11-14,1,,,,,スマイーナプラス,0
1685,6030003025457,新規,0,2024-11-14,2024-11-14,合同会社ＯＲＣＡ　Ｓｅｒｖｉｃｅ,,合同会社,埼玉県,さいたま市見沼区,大字風渡野６０９番地６,,11,104,3370017,,,,,,,2024-11-14,1,,,,,オルカサービス,0
1686,6030003025481,新規,0,2024-11-14,2024-11-14,合同会社ｎａｔｏｒｉ,,合同会社,埼玉県,さいたま市浦和区,駒場１丁目２３番８号,,11,107,3300051,,,,,,,2024-11-14,1,,,,,ナトリ,0
1689,6040001136148,新規,0,2024-11-14,2024-11-14,株式会社Ｍｔ．ｄｅｐｔ,,株式会社,千葉県,船橋市,宮本８丁目６番７－１号,,12,204,2730003,,,,,,,2024-11-14,1,,,,,マウントデプト,0
1690,6040001136156,新規,0,2024-11-14,2024-11-14,株式会社青木農園,,株式会社,千葉県,南房総市,千倉町瀬戸２０２９番地,,12,234,2950004,,,,,,,2024-11-14,1,,,,,アオキノウエン,0
1691,6040001136164,新規,0,2024-11-14,2024-11-14,株式会社Ａ．Ｋ企画,,株式会社,千葉県,成田市,桜田１０５２番地７,,12,211,2870217,,,,,,,2024-11-14,1,,,,,エーケーキカク,0
1697,6040003026157,新規,0,2024-11-14,2024-11-14,合同会社Ｒ２９７商会,,合同会社,千葉県,夷隅郡大多喜町,猿稲７番地１,,12,441,2980212,,,,,,,2024-11-14,1,,,,,アールニキュウナナショウカイ,0
1698,6040003026198,新規,0,2024-11-14,2024-11-14,合同会社ＶＡＬＯＲ,,合同会社,千葉県,船橋市,本町３丁目８番２７号２ｎｄステージ船橋２０１号,,12,204,2730005,,,,,,,2024-11-14,1,,,,,バラー,0
1708,6080001026601,新規,0,2024-11-14,2024-11-14,株式会社康程優創,,株式会社,静岡県,静岡市駿河区,向敷地６丁目１１番２６号,,22,102,4210101,,,,,,,2024-11-14,1,,,,,コウテイユウソウ,0
1710,6080101025115,新規,0,2024-11-14,2024-11-14,株式会社三いし,,株式会社,静岡県,熱海市,水口町１４番１８号,,22,205,4130016,,,,,,,2024-11-14,1,,,,,,0
1712,6080401027554,新規,0,2024-11-14,2024-11-14,株式会社Ｍｅｄｉｃａｌ　Ｃｒｅｓｔ,,株式会社,静岡県,浜松市中央区,有玉南町１８６７―１,,22,138,4313122,,,,,,,2024-11-14,1,,,,,メディカルクレスト,0
1713,6080401027570,新規,0,2024-11-14,2024-11-14,株式会社タイガーウッズ,,株式会社,静岡県,浜松市中央区,三島町２３０番地の４,,22,138,4300853,,,,,,,2024-11-14,1,,,,,タイガーウッズ,0
1737,6120001270211,新規,0,2024-11-14,2024-11-14,華誠安貿株式会社,,株式会社,大阪府,大阪市平野区,加美正覚寺１丁目５－３ショウエハウス３－１ｃ,,27,126,5470006,,,,,,,2024-11-14,1,,,,,カセイアンボウ,0
1738,6120001270244,新規,0,2024-11-14,2024-11-14,盤山株式会社,,株式会社,大阪府,大阪市東淀川区,瑞光４丁目２－２１・４０５号室,,27,114,5330005,,,,,,,2024-11-14,1,,,,,バンザン,0
1739,6120001270269,新規,0,2024-11-14,2024-11-14,株式会社福祉和,,株式会社,大阪府,大阪市中央区,平野町２丁目２番７号北浜コンソール９０２号,,27,128,5410046,,,,,,,2024-11-14,1,,,,,フクシワ,0
1743,6120003027964,新規,0,2024-11-14,2024-11-14,合同会社Ｂｅａｔｕｓ,,合同会社,大阪府,大阪市阿倍野区,昭和町４丁目９番１０号,,27,119,5450011,,,,,,,2024-11-14,1,,,,,ビアトス,0
1744,6120005024613,新規,0,2024-11-14,2024-11-14,一般財団法人自動書記綜合研究世界平和財団,,その他の設立登記法人,大阪府,大阪市天王寺区,生玉町１０番２３号ニューシティーアパートメンツ上町台１７０１号,,27,109,5430071,,,,,,,2024-11-14,1,,,,,ジドウショキソウゴウケンキュウセカイヘイワザイダン,0
1747,6120103006133,新規,0,2024-11-14,2024-11-14,合同会社ＬＵＣＥ,,合同会社,大阪府,堺市中区,深井中町１０８０番地１２,,27,142,5998272,,,,,,,2024-11-14,1,,,,,ルーチェ,0
1750,6122001038638,新規,0,2024-11-14,2024-11-14,株式会社カラーフロー,,株式会社,大阪府,柏原市,古町３丁目６番１号,,27,221,5820008,,,,,,,2024-11-14,1,,,,,カラーフロー,0
1754,6130001078348,新規,0,2024-11-14,2024-11-14,ＡＢＳＥＮＴ　ＭＩＮＤＥＤ株式会社,,株式会社,京都府,京都市右京区,西院平町５番地ＪＯ－ＩＮビル２Ｆ,,26,108,6150022,,,,,,,2024-11-14,1,,,,,アブセントマインディド,0
1757,6140001136369,新規,0,2024-11-14,2024-11-14,カブモト株式会社,,株式会社,兵庫県,美方郡新温泉町,芦屋３３８番地の１,00136995,28,586,6696701,,,,,,,2024-11-14,1,,,,,カブモト,0
1759,6150001027666,新規,0,2024-11-14,2024-11-14,株式会社いろすまいる,,株式会社,奈良県,葛城市,竹内４０２番地,,29,211,6392155,,,,,,,2024-11-14,1,,,,,イロスマイル,0
1761,6150003003418,新規,0,2024-11-14,2024-11-14,合同会社虹,,合同会社,奈良県,大和郡山市,本庄町２７５番地１,,29,203,6391136,,,,,,,2024-11-14,1,,,,,ニジ,0
1764,6170001018382,新規,0,2024-11-14,2024-11-14,株式会社あかりな屋,,株式会社,和歌山県,和歌山市,弘西７６９－１３,,30,201,6496339,,,,,,,2024-11-14,1,,,,,アカリナヤ,0
1769,6180001164052,新規,0,2024-11-14,2024-11-14,株式会社Ａｇｌｏｎ,,株式会社,愛知県,知多郡美浜町,大字奥田字石亀２０４番地,,23,446,4703233,,,,,,,2024-11-14,1,,,,,アグロン,0
1770,6180001164119,新規,0,2024-11-14,2024-11-14,ＴＣＦ　ＥＮＴＥＲＰＲＩＳＥ株式会社,,株式会社,愛知県,名古屋市東区,葵１丁目１９番３０号,,23,102,4610004,,,,,,,2024-11-14,1,,,,,ティーシーエフエンタープライズ,0
1771,6180001164127,新規,0,2024-11-14,2024-11-14,株式会社友美商会,,株式会社,愛知県,名古屋市守山区,翠松園２丁目９１３番地,,23,113,4630010,,,,,,,2024-11-14,1,,,,,トモミショウカイ,0
1772,6180001164143,新規,0,2024-11-14,2024-11-14,株式会社Ａａａ,,株式会社,愛知県,名古屋市瑞穂区,船原町６丁目２７番地の１,,23,108,4670878,,,,,,,2024-11-14,1,,,,,エー,0
1773,6180001164151,新規,0,2024-11-14,2024-11-14,魁雲株式会社,,株式会社,愛知県,津島市,神尾町字野中１４番地,,23,208,4960013,,,,,,,2024-11-14,1,,,,,カイウン,0
1774,6180001164168,新規,0,2024-11-14,2024-11-14,株式会社中京スパークル,,株式会社,愛知県,岩倉市,大地新町１丁目４２番地,,23,228,4820025,,,,,,,2024-11-14,1,,,,,チュウキョウスパークル,0
1779,6180003027612,新規,0,2024-11-14,2024-11-14,ＨｙｄｒａＮＴ冷却技術合同会社,,合同会社,愛知県,丹羽郡大口町,余野６丁目２９８番地,,23,361,4800146,,,,,,,2024-11-14,1,,,,,ハイドラエヌティーレイキャクギジュツ,0
1780,6180301039227,新規,0,2024-11-14,2024-11-14,株式会社Ｐ．Ｍ．Ｓ,,株式会社,愛知県,岡崎市,渡町字薬師畔５３番地１,,23,202,4440933,,,,,,,2024-11-14,1,,,,,ピーエムエス,0
1785,6200001043138,新規,0,2024-11-14,2024-11-14,株式会社ミラクルハイテンション,,株式会社,岐阜県,郡上市,八幡町島谷３４番地３,,21,219,5014222,,,,,,,2024-11-14,1,,,,,ミラクルハイテンション,0
1790,6220001026306,新規,0,2024-11-14,2024-11-14,株式会社ＯＨＡＮＡ・Ｌｅｉ,,株式会社,石川県,金沢市,舘山町ヨ５番地１,,17,201,9200956,,,,,,,2024-11-14,1,,,,,オハナレイ,0
1791,6220003003889,新規,0,2024-11-14,2024-11-14,合同会社星陽,,合同会社,石川県,白山市,美川浜町ソ４７３,,17,210,9290233,,,,,,,2024-11-14,1,,,,,セオ,0
1792,6230001020621,新規,0,2024-11-14,2024-11-14,株式会社神仲農園,,株式会社,富山県,中新川郡立山町,上中１４３番地,,16,323,9303251,,,,,,,2024-11-14,1,,,,,カミナカノウエン,0
1801,6240001064114,新規,0,2024-11-14,2024-11-14,株式会社Ｔａｍａ,,株式会社,広島県,広島市安佐南区,大塚西６丁目１４番３－７０５号,,34,105,7313167,,,,,,,2024-11-14,1,,,,,タマ,0
1805,6250001020900,新規,0,2024-11-14,2024-11-14,株式会社ｃ．ｆ．ｃ,,株式会社,山口県,防府市,天神１丁目１２番２２号２階,,35,206,7470034,,,,,,,2024-11-14,1,,,,,シーエフシー,0
1810,6290003016042,新規,0,2024-11-14,2024-11-14,ルプレ合同会社,,合同会社,福岡県,福岡市中央区,大手門３丁目１番２号スライビング大手門７Ｆ,,40,133,8100074,,,,,,,2024-11-14,1,,,,,ルプレ,0
1812,6290801031036,新規,0,2024-11-14,2024-11-14,株式会社リリーク,,株式会社,福岡県,北九州市小倉北区,魚町２丁目５番８－７０７号,,40,106,8020006,,,,,,,2024-11-14,1,,,,,リリーク,0
1819,6350001019288,新規,0,2024-11-14,2024-11-14,株式会社アーブルテック,,株式会社,宮崎県,北諸県郡三股町,大字蓼池３６９４番地２,,45,341,8891914,,,,,,,2024-11-14,1,,,,,アーブルテック,0
1820,6360001034427,新規,0,2024-11-14,2024-11-14,琉球ハナテイスト株式会社,,株式会社,沖縄県,宜野湾市,真栄原３丁目３６番５号３Ｆ,,47,205,9012215,,,,,,,2024-11-14,1,,,,,リュウキュウハナテイスト,0
1828,6380001034887,新規,0,2024-11-14,2024-11-14,株式会社四季工房,,株式会社,福島県,郡山市,南２丁目８４番地,,07,203,9630115,,,,,,,2024-11-14,1,,,,,シキコウボウ,0
1829,6380002016199,新規,0,2024-11-14,2024-11-14,有限会社カネサン善方商店,,有限会社,福島県,二本松市,小浜字鳥居町７４番地１,,07,210,9640313,,,,,,,2024-11-14,1,,,,,カネサンゼンポウショウテン,0
1831,6400005008455,新規,0,2024-11-14,2024-11-14,一般社団法人スカイファーマ,,その他の設立登記法人,岩手県,盛岡市,北飯岡３丁目１６番１０号,,03,201,0200857,,,,,,,2024-11-14,1,,,,,スカイファーマ,0
1832,6420001018919,新規,0,2024-11-14,2024-11-14,Ｈ＆Ｈ　ｍｅｄｉｃａｌ　ｉｎｆｏｒｍａｔｉｃｓ株式会社,,株式会社,青森県,弘前市,大字城東中央３丁目３番地３,,02,202,0368093,,,,,,,2024-11-14,1,,,,,エイチアンドエイチメディカルインフォマティクス,0
1837,6430003016993,新規,0,2024-11-14,2024-11-14,合同会社ｅｌｕ,,合同会社,北海道,札幌市清田区,清田二条１丁目１番７号ハナブサビル,,01,110,0040842,,,,,,,2024-11-14,1,,,,,エル,0
1838,6470001020424,新規,0,2024-11-14,2024-11-14,株式会社ストレリチア,,株式会社,香川県,高松市,屋島東町５１５番地３５２,,37,201,7610111,,,,,,,2024-11-14,1,,,,,,0
1839,6470003002750,新規,0,2024-11-14,2024-11-14,合同会社フィフティーズ,,合同会社,香川県,高松市,東山崎町８４番地６,,37,201,7610312,,,,,,,2024-11-14,1,,,,,フィフティーズ,0
1841,6480005007045,新規,0,2024-11-14,2024-11-14,一般社団法人全国０円不動産,,その他の設立登記法人,徳島県,徳島市,北佐古二番町４番４０－１階,,36,201,7700012,,,,,,,2024-11-14,1,,,,,ゼンコクゼロエンフドウサン,0
1845,6500001025997,新規,0,2024-11-14,2024-11-14,株式会社ルミネール,,株式会社,愛媛県,松山市,小坂４丁目５番２５号,,38,201,7900963,,,,,,,2024-11-14,1,,,,,ルミネール,0
1848,6700150127871,新規,0,2024-11-14,2024-11-14,株式会社　パウカンパニー,,外国会社等,東京都,文京区,千駄木１丁目２２番８号,,13,105,1130022,大韓民国ソウル特別市江南区狎鴎亭路１０４、３階（新沙洞、ボアムビル）,00136665,,,,,2024-11-14,1,,,,,カブシキガイシヤパウカンパニー,0
1853,7010001249810,新規,0,2024-11-14,2024-11-14,ＢｅｌｌｅＶｉｅ株式会社,,株式会社,東京都,中央区,銀座１丁目１２番４号Ｎ＆ＥＢＬＤ．６Ｆ,,13,102,1040061,,,,,,,2024-11-14,1,,,,,ベルビー,0
1888,7010101016400,新規,0,2024-11-14,2024-11-14,株式会社ＲＤ,,株式会社,東京都,八王子市,東浅川町４０２番地１４,,13,201,1930834,,,,,,,2024-11-14,1,,,,,アールディー,0
1893,7010403033770,新規,0,2024-11-14,2024-11-14,合同会社富士隆,,合同会社,東京都,港区,赤坂２丁目１４－１１天翔赤坂ビル６０２－Ｈ号室,,13,103,1070052,,,,,,,2024-11-14,1,,,,,フジリュウ,0
1894,7010405023786,新規,0,2024-11-14,2024-11-14,ＡＣＰ２一般社団法人,,その他の設立登記法人,東京都,港区,六本木１丁目６番１号泉ガーデンタワー,,13,103,1060032,,,,,,,2024-11-14,1,,,,,エーシーピーツー,0
1896,7010501053183,新規,0,2024-11-14,2024-11-14,株式会社ｓｏｒｐｒｅｓａ,,株式会社,東京都,台東区,浅草橋１丁目５番２号,,13,106,1110053,,,,,,,2024-11-14,1,,,,,ソルプレーザ,0
1903,7010601066176,新規,0,2024-11-14,2024-11-14,株式会社永信水産,,株式会社,東京都,江東区,亀戸５丁目６番１８－３０１号,,13,108,1360071,,,,,,,2024-11-14,1,,,,,エイシン,0
1904,7010601066259,新規,0,2024-11-14,2024-11-14,株式会社ノボクラシコ,,株式会社,東京都,墨田区,亀沢３丁目１０番５号,,13,107,1300014,,,,,,,2024-11-14,1,,,,,ノボクラシコ,0
1905,7010601066267,新規,0,2024-11-14,2024-11-14,株式会社ｅｃｈｏｃｒａｆｔｓ,,株式会社,東京都,江東区,毛利１丁目３番３－２０１,,13,108,1350001,,,,,,,2024-11-14,1,,,,,エコークラフト,0
1906,7010601066275,新規,0,2024-11-14,2024-11-14,株式会社水馬商事,,株式会社,東京都,墨田区,立花５丁目１４番１２号,,13,107,1310043,,,,,,,2024-11-14,1,,,,,アメンボショウジ,0
1907,7010601066283,新規,0,2024-11-14,2024-11-14,株式会社Ｓｈｅ,,株式会社,東京都,江東区,辰巳１丁目７番２８－７０８号,,13,108,1350053,,,,,,,2024-11-14,1,,,,,シー,0
1908,7010603011205,新規,0,2024-11-14,2024-11-14,合同会社ＢｅｎｔｉＣｙ,,合同会社,東京都,墨田区,京島３丁目９番地５号,,13,107,1310046,,,,,,,2024-11-14,1,,,,,ヴェンティシー,0
1909,7010603011213,新規,0,2024-11-14,2024-11-14,Ｊ＆Ｋ合同会社,,合同会社,東京都,江東区,亀戸７丁目１０番１８－１６０４号,,13,108,1360071,,,,,,,2024-11-14,1,,,,,ジェイアンドケー,0
1914,7010901056315,新規,0,2024-11-14,2024-11-14,ＳＬＵＳＨＡＲＫ　ＧＬＯＢＡＬ株式会社,,株式会社,東京都,世田谷区,奥沢７丁目１８番４号ポルテ自由ヶ丘１０１,,13,112,1580083,,,,,,,2024-11-14,1,,,,,スルシャークグローバル,0
1915,7010901056331,新規,0,2024-11-14,2024-11-14,ＬＡＬＯＰ株式会社,,株式会社,東京都,世田谷区,深沢６丁目３番６号,,13,112,1580081,,,,,,,2024-11-14,1,,,,,ラロップ,0
1923,7011001165766,新規,0,2024-11-14,2024-11-14,株式会社Ｇ．Ｐ．Ｅｙｅｃｅ,,株式会社,東京都,渋谷区,渋谷２丁目１９－１５宮益坂ビルディング６０９,,13,113,1500002,,,,,,,2024-11-14,1,,,,,ジーピーアイス,0
1924,7011001165782,新規,0,2024-11-14,2024-11-14,株式会社カナウレシピ,,株式会社,東京都,渋谷区,渋谷２丁目１９番１５号宮益坂ビルディング６０９,,13,113,1500002,,,,,,,2024-11-14,1,,,,,,0
1925,7011001165923,新規,0,2024-11-14,2024-11-14,株式会社紫の縁,,株式会社,東京都,渋谷区,神宮前２丁目２番２２号,,13,113,1500001,,,,,,,2024-11-14,1,,,,,ムラサキノヨスガ,0
1926,7011003020366,新規,0,2024-11-14,2024-11-14,合同会社ＭＹカンパニー,,合同会社,東京都,渋谷区,道玄坂１丁目１０番８号渋谷道玄坂東急ビル２Ｆ－Ｃ,,13,113,1500043,,,,,,,2024-11-14,1,,,,,エムワイカンパニー,0
1927,7011003020432,新規,0,2024-11-14,2024-11-14,ＢｅｌｌＴｉｇｅｒ合同会社,,合同会社,東京都,目黒区,中根１丁目６番３号グリシーナ都立大３０２,,13,110,1520031,,,,,,,2024-11-14,1,,,,,ベルタイガー,0
1933,7011201025927,新規,0,2024-11-14,2024-11-14,合道株式会社,,株式会社,東京都,中野区,本町４丁目１９番６－３０３号,,13,114,1640012,,,,,,,2024-11-14,1,,,,,ゴウドウ,0
1937,7011401026568,新規,0,2024-11-14,2024-11-14,モミジリビング株式会社,,株式会社,東京都,板橋区,仲宿６３番地７号ＯＥＯｆｆｉｃｅＢｌｄｇ４１０号,,13,119,1730005,,,,,,,2024-11-14,1,,,,,モミジリビング,0
1940,7011403004555,新規,0,2024-11-14,2024-11-14,ＦＩＺＡ合同会社,,合同会社,東京都,板橋区,成増２丁目４－２２アクトハウス成増２－１,,13,119,1750094,,,,,,,2024-11-14,1,,,,,ファイザ,0
1941,7011501031360,新規,0,2024-11-14,2024-11-14,株式会社ＧＩＧ,,株式会社,東京都,荒川区,東日暮里５丁目５０番５号,,13,118,1160014,,,,,,,2024-11-14,1,,,,,ギグ,0
1949,7011801045135,新規,0,2024-11-14,2024-11-14,日本大豊株式会社,,株式会社,東京都,葛飾区,東金町６丁目６番５号センタービル金町４階４１２室,,13,122,1250041,,,,,,,2024-11-14,1,,,,,ニホンダイホウ,0
1950,7011801045151,新規,0,2024-11-14,2024-11-14,株式会社山工,,株式会社,東京都,足立区,南花畑３丁目２番４号,,13,121,1210062,,,,,,,2024-11-14,1,,,,,ヤマコウ,0
1953,7012303002070,新規,0,2024-11-14,2024-11-14,合同会社Ｐｒｏｘｙｗａｒｓ,,合同会社,東京都,町田市,金森東４丁目４４番２号,,13,209,1940015,,,,,,,2024-11-14,1,,,,,プロキシウォーズ,0
1957,7012703003131,新規,0,2024-11-14,2024-11-14,プラザ東村山合同会社,,合同会社,東京都,東村山市,本町２丁目７番地５－２０５,,13,213,1890014,,,,,,,2024-11-14,1,,,,,プラザヒガシムラヤマ,0
1964,7020001160033,新規,0,2024-11-14,2024-11-14,株式会社Ｚｅｎｉｔｈ　Ｌａｂ,,株式会社,神奈川県,横浜市金沢区,能見台通３番１２号フラッツ能見台２０３,,14,108,2360053,,,,,,,2024-11-14,1,,,,,ゼニスラボ,0
1965,7020001160074,新規,0,2024-11-14,2024-11-14,株式会社パスガード,,株式会社,神奈川県,川崎市宮前区,神木本町１丁目２３番１３－７０１号,,14,136,2160031,,,,,,,2024-11-14,1,,,,,パスガード,0
1966,7020001160082,新規,0,2024-11-14,2024-11-14,株式会社天翔物産,,株式会社,神奈川県,横浜市神奈川区,栄町１０番地３５ザ・ヨコハマタワーズＥ４００４号,,14,102,2210052,,,,,,,2024-11-14,1,,,,,テンショウブッサン,0
1967,7020001160099,新規,0,2024-11-14,2024-11-14,株式会社ＤＩＡＸＩＡ,,株式会社,神奈川県,横浜市神奈川区,金港町５－１４クアドリフォリオ８階,,14,102,2210056,,,,,,,2024-11-14,1,,,,,ディアクシア,0
1968,7020001160181,新規,0,2024-11-14,2024-11-14,株式会社アグリエイティブ,,株式会社,神奈川県,川崎市幸区,南幸町２丁目９番地,,14,132,2120016,,,,,,,2024-11-14,1,,,,,アグリエイティブ,0
1970,7020003027239,新規,0,2024-11-14,2024-11-14,合同会社ホライズン,,合同会社,神奈川県,横浜市鶴見区,下末吉５丁目１１番４６号,,14,101,2300012,,,,,,,2024-11-14,1,,,,,ホライズン,0
1976,7021001083769,新規,0,2024-11-14,2024-11-14,株式会社Ｆｌｅｕｒ　ｐｌｕｓ,,株式会社,神奈川県,藤沢市,石川２７２７番地,,14,205,2520815,,,,,,,2024-11-14,1,,,,,フルールプリュス,0
1977,7021003015225,新規,0,2024-11-14,2024-11-14,合同会社インビュー,,合同会社,神奈川県,大和市,中央林間３丁目２５番２２号,,14,213,2420007,,,,,,,2024-11-14,1,,,,,インビュー,0
1978,7021003015233,新規,0,2024-11-14,2024-11-14,合同会社Ｙ‐ＬＩＮＥ,,合同会社,神奈川県,平塚市,平塚１丁目１番７号クロノス平塚西２０２,,14,203,2540052,,,,,,,2024-11-14,1,,,,,ワイライン,0
1979,7021003015241,新規,0,2024-11-14,2024-11-14,合同会社ハンザ,,合同会社,神奈川県,小田原市,南町３丁目１番３８号,,14,206,2500013,,,,,,,2024-11-14,1,,,,,ハンザ,0
1988,7030001163398,新規,0,2024-11-14,2024-11-14,株式会社二見創建,,株式会社,埼玉県,朝霞市,岡３丁目１９番１４号,,11,227,3510007,,,,,,,2024-11-14,1,,,,,フタミソウケン,0
1989,7030001163431,新規,0,2024-11-14,2024-11-14,株式会社Ｓ＆Ｓ,,株式会社,埼玉県,戸田市,美女木２丁目１７番地の１－２０７号室,,11,224,3350031,,,,,,,2024-11-14,1,,,,,エスアンドエス,0
1995,7040001136147,新規,0,2024-11-14,2024-11-14,株式会社ハマサポ,,株式会社,千葉県,船橋市,上山町２丁目２７６番地３,,12,204,2730046,,,,,,,2024-11-14,1,,,,,ハマサポ,0
1996,7040001136155,新規,0,2024-11-14,2024-11-14,株式会社ＭＩＲＡＲＩＡ,,株式会社,千葉県,船橋市,前原西１丁目２６番１８号ハシモトビル２０２号室,,12,204,2740825,,,,,,,2024-11-14,1,,,,,ミラリア,0
1998,7040003026189,新規,0,2024-11-14,2024-11-14,合同会社ＦＭＲ,,合同会社,千葉県,松戸市,新作１１６８番地の２松戸グリーンハイツ５０１号,,12,207,2710052,,,,,,,2024-11-14,1,,,,,エフエムアール,0
1999,7040003026197,新規,0,2024-11-14,2024-11-14,ＳＥＲＥＮＥ　ＭＯＴＯＲＳ合同会社,,合同会社,千葉県,八千代市,神野９２４番１,,12,221,2760016,,,,,,,2024-11-14,1,,,,,セレーンモータース,0
2002,7050001055701,新規,0,2024-11-14,2024-11-14,株式会社近沢工業,,株式会社,茨城県,土浦市,並木４丁目８番７－２号,,08,203,3000061,,,,,,,2024-11-14,1,,,,,チカザワコウギョウ,0
2007,7080101025130,新規,0,2024-11-14,2024-11-14,株式会社ハンショー,,株式会社,静岡県,富士宮市,小泉６０５番地の３,,22,207,4180022,,,,,,,2024-11-14,1,,,,,ハンショー,0
2013,7100005013253,新規,0,2024-11-14,2024-11-14,特定非営利活動法人クラウド,,その他の設立登記法人,長野県,飯田市,鼎下山５０２番地,,20,205,3950803,,,,,,,2024-11-14,1,,,,,クラウド,0
2023,7120001270219,新規,0,2024-11-14,2024-11-14,建新禺株式会社,,株式会社,大阪府,大阪市阿倍野区,丸山通１丁目６－１６松虫ハイツ２０３号室,,27,119,5450042,,,,,,,2024-11-14,1,,,,,ケンシングウ,0
2024,7120001270251,新規,0,2024-11-14,2024-11-14,株式会社Ｎ,,株式会社,大阪府,大阪市北区,南森町２丁目２番１０号トーコー南森町ビル２Ｂ,,27,127,5300054,,,,,,,2024-11-14,1,,,,,エヌ,0
2025,7120001270268,新規,0,2024-11-14,2024-11-14,株式会社Ｌｅｘｒａ．,,株式会社,大阪府,守口市,馬場町３丁目５番１１号,,27,209,5700062,,,,,,,2024-11-14,1,,,,,レグラ,0
2026,7120001270284,新規,0,2024-11-14,2024-11-14,株式会社ナガヤプラス,,株式会社,大阪府,大阪市東淀川区,豊新１丁目１番５－８０３号,,27,114,5330014,,,,,,,2024-11-14,1,,,,,ナガヤプラス,0
2027,7120001270292,新規,0,2024-11-14,2024-11-14,アイティ・プランニング株式会社,,株式会社,大阪府,大阪市西成区,旭３丁目３番２９号メゾン・ド・レザミ２０５,,27,122,5570032,,,,,,,2024-11-14,1,,,,,アイティプランニング,0
2028,7120001270318,新規,0,2024-11-14,2024-11-14,株式会社木村ケアサポート,,株式会社,大阪府,大阪市天王寺区,国分町８番７号,,27,109,5430044,,,,,,,2024-11-14,1,,,,,キムラケアサポート,0
2039,7122001038637,新規,0,2024-11-14,2024-11-14,トライホーム株式会社,,株式会社,大阪府,東大阪市,池島町５丁目３番,,27,227,5798064,,,,,,,2024-11-14,1,,,,,トライホーム,0
2041,7122005003793,新規,0,2024-11-14,2024-11-14,司法書士法人野山事務所,,その他の設立登記法人,大阪府,東大阪市,大蓮北３丁目３番１号,,27,227,5770826,,,,,,,2024-11-14,1,,,,,ノヤマジムショ,0
2051,7130005017235,新規,0,2024-11-14,2024-11-14,一般社団法人日本カルチュアプレナー協会,,その他の設立登記法人,京都府,京都市南区,九条比栄城町５９,,26,107,6010000,,,,,,,2024-11-14,1,,,,,ニホンカルチュアプレナーキョウカイ,0
2054,7140001136418,新規,0,2024-11-14,2024-11-14,株式会社倉谷デザイン事務所,,株式会社,兵庫県,神戸市垂水区,塩屋町字大谷６５１番地の２,,28,108,6550872,,,,,,,2024-11-14,1,,,,,クラタニデザインジムショ,0
2063,7150001027665,新規,0,2024-11-14,2024-11-14,株式会社高栄開発,00136996,株式会社,奈良県,葛城市,八川７５番地３,,29,211,6392163,,,,,,,2024-11-14,1,,,,,コウエイカイハツ,0
2068,7170001018381,新規,0,2024-11-14,2024-11-14,まだねむい株式会社,,株式会社,和歌山県,岩出市,吉田２９７－４サンライズマンション１０８号室,,30,209,6496246,,,,,,,2024-11-14,1,,,,,マダネムイ,0
2073,7180001164092,新規,0,2024-11-14,2024-11-14,こどもあっぷ株式会社,,株式会社,愛知県,一宮市,島村字辰已出６５番地７,,23,203,4910121,,,,,,,2024-11-14,1,,,,,コドモアップ,0
2074,7180001164134,新規,0,2024-11-14,2024-11-14,株式会社ケーアールツー,,株式会社,愛知県,春日井市,松河戸町４丁目２番地８,,23,206,4860932,,,,,,,2024-11-14,1,,,,,ケーアールツー,0
2075,7180001164150,新規,0,2024-11-14,2024-11-14,株式会社ＨＥＬＤＩＧ,,株式会社,愛知県,春日井市,八光町３丁目１０番地,,23,206,4860916,,,,,,,2024-11-14,1,,,,,ヘルディ,0
2076,7180001164159,新規,0,2024-11-14,2024-11-14,株式会社ＫＵ　ｍｅｄｉｃａｌ,,株式会社,愛知県,名古屋市昭和区,荒田町２丁目２１番地,,23,107,4660844,,,,,,,2024-11-14,1,,,,,ケイユーメディカル,0
2078,7180003027603,新規,0,2024-11-14,2024-11-14,東山Ｒｅｓｏｕｒｃｅ合同会社,,合同会社,愛知県,瀬戸市,東山町１丁目８２番地の１８,,23,204,4890988,,,,,,,2024-11-14,1,,,,,ヒガシヤマリソース,0
2083,7180301039226,新規,0,2024-11-14,2024-11-14,株式会社タカオカ機電サービス,,株式会社,愛知県,豊川市,東曙町２５４番地の２,00136998,23,207,4420011,,,,,,,2024-11-14,1,,,,,タカオカキデンサービス,0
2084,7180301039242,新規,0,2024-11-14,2024-11-14,株式会社Ｔ‐Ｍ・サポート,,株式会社,愛知県,岡崎市,柱１丁目２番地１ＨＡＫビル,,23,202,4440837,,,,,,,2024-11-14,1,,,,,ティーエムサポート,0
2089,7190003004857,新規,0,2024-11-14,2024-11-14,ダンプロス合同会社,,合同会社,三重県,四日市市,東茂福町１１番１８号,,24,202,5108011,,,,,,,2024-11-14,1,,,,,ダンプロス,0
2095,7200001043129,新規,0,2024-11-14,2024-11-14,ＮＩＳＨＯＮ　ＬＡＮＫＡ株式会社,,株式会社,岐阜県,岐阜市,加納梅田町２０番地塩谷ビル５０２,,21,201,5008279,,,,,,,2024-11-14,1,,,,,ニッションランカ,0
2098,7220003003888,新規,0,2024-11-14,2024-11-14,ワイルドウッド合同会社,,合同会社,石川県,金沢市,伏見新町２７８－３Ｆ４号,,17,201,9218172,,,,,,,2024-11-14,1,,,,,ワイルドウッド,0
2099,7230001020620,新規,0,2024-11-14,2024-11-14,株式会社米村水産,,株式会社,富山県,小矢部市,埴生２７７０番地２０,,16,209,9320836,,,,,,,2024-11-14,1,,,,,ヨネムラスイサン,0
2111,7290001107924,新規,0,2024-11-14,2024-11-14,株式会社ヴァンクール,,株式会社,福岡県,福岡市中央区,舞鶴１丁目１番１５号,,40,133,8100073,,,,,,,2024-11-14,1,,,,,ヴァンクール,0
2112,7290001107957,新規,0,2024-11-14,2024-11-14,ハチ観光株式会社,,株式会社,福岡県,福岡市博多区,石城町３番２０－２０２号,,40,132,8120032,,,,,,,2024-11-14,1,,,,,ハチカンコウ,0
2113,7290001107998,新規,0,2024-11-14,2024-11-14,株式会社Ｒｙｕ　Ｓｔｙｌｅ,,株式会社,福岡県,糟屋郡宇美町,宇美中央３丁目７番３１号,,40,341,8112128,,,,,,,2024-11-14,1,,,,,リュウスタイル,0
2114,7290001108014,新規,0,2024-11-14,2024-11-14,株式会社律,,株式会社,福岡県,太宰府市,宰府５丁目１６－５,,40,221,8180117,,,,,,,2024-11-14,1,,,,,リツ,0
2117,7290801031043,新規,0,2024-11-14,2024-11-14,モノリス株式会社,,株式会社,福岡県,北九州市小倉南区,沼新町１丁目１番２２－５０４号,,40,107,8000218,,,,,,,2024-11-14,1,,,,,モノリス,0
2118,7290803004889,新規,0,2024-11-14,2024-11-14,合同会社ｍａｔｓｕｍｏｔｏ,,合同会社,福岡県,直方市,大字知古７７８番地３,,40,204,8220022,,,,,,,2024-11-14,1,,,,,マツモト,0
2121,7340001026937,新規,0,2024-11-14,2024-11-14,株式会社大凌,,株式会社,鹿児島県,鹿児島市,鴨池１丁目８番２１号１階,,46,201,8900063,,,,,,,2024-11-14,1,,,,,タイリョウ,0
2123,7350001019287,新規,0,2024-11-14,2024-11-14,株式会社Ａ・Ｓ・ｍｉｌｅ,,株式会社,宮崎県,宮崎市,生目台西１丁目１４番地２,,45,201,8800943,,,,,,,2024-11-14,1,,,,,アスマイル,0
2124,7350003004782,新規,0,2024-11-14,2024-11-14,合同会社Ｈ＆Ａ,,合同会社,宮崎県,西臼杵郡高千穂町,大字向山１４２６番地,,45,441,8821103,,,,,,,2024-11-14,1,,,,,エイチアンドエー,0
2130,7370001051908,新規,0,2024-11-14,2024-11-14,霞株式会社,,株式会社,宮城県,仙台市若林区,連坊小路１０７エルミタージュ連坊１０２号室,,04,103,9840053,,,,,,,2024-11-14,1,,,,,カスミ,0
2136,7400005008454,新規,0,2024-11-14,2024-11-14,協同組合ＩＴソリューションサービス,,その他の設立登記法人,岩手県,盛岡市,八幡町４－２４,,03,201,0200872,,,,,,,2024-11-14,1,,,,,アイティーソリューションサービス,0
2144,7430001093051,新規,0,2024-11-14,2024-11-14,株式会社Ｒｅｌｉｅｒ,,株式会社,北海道,札幌市北区,新琴似一条１２丁目７番７号,,01,102,0010901,,,,,,,2024-11-14,1,,,,,ルリエ,0
2145,7430001093076,新規,0,2024-11-14,2024-11-14,株式会社皓星ファーム,,株式会社,北海道,勇払郡むかわ町,宮戸１４２８番地１,,01,586,0540016,,,,,,,2024-11-14,1,,,,,コウセイファーム,0
2147,7450001014451,新規,0,2024-11-14,2024-11-14,株式会社紋別ベジタブル＆フーズ,,株式会社,北海道,紋別市,落石町７丁目１番地,,01,219,0940007,,,,,,,2024-11-14,1,,,,,モンベツベジタブルアンドフーズ,0
2148,7470001020456,新規,0,2024-11-14,2024-11-14,暮らしの家守株式会社,,株式会社,香川県,三豊市,仁尾町仁尾己１０３３番地１,,37,208,7691401,,,,,,,2024-11-14,1,,,,,クラシノヤモリ,0
2149,7470001020464,新規,0,2024-11-14,2024-11-14,室町興産株式会社,,株式会社,香川県,高松市,新田町１１４３番地,,37,201,7600000,,,,,,,2024-11-14,1,,,,,,0
2153,7700150127870,新規,0,2024-11-14,2024-11-14,船橋市青少年相談員連絡協議会,,その他,千葉県,船橋市,湊町２丁目１０－２５（青少年課内）,,12,204,2730011,,,,,,,2024-11-14,1,,,,,フナバシシセイショウネンソウダンインレンラクキョウギカイ,0
2154,7700150127879,新規,0,2024-11-14,2024-11-14,ｓｕｉｎｉｎｇｘｕａｎｂａｏｄｅｄｉａｎｚｉｓｈａｎｇｗｕｙｏｕｘｉａｎｇｏｎｇｓｉ,,外国会社等,,,,,,,,ｃｈｕａｎｇｙｅｌｕ１７－８ｎｉｎｇｊｉａｎｇｇｏｎｇｙｅｙｕａｎｊｉａｎｇｓｕｓｕｉｎｉｎｇ２２１２１１ＣＮ,,,,,,2024-11-14,1,,,,,スイニンシュエンバオダーディエンズーシャンウーヨウシエンゴンスー,0
2160,8010001249850,新規,0,2024-11-14,2024-11-14,興亜ホールディングス株式会社,,株式会社,東京都,中央区,八丁堀１丁目９番８号,,13,102,1040032,,,,,,,2024-11-14,1,,,,,コウアホールディングス,0
2200,8010401186099,新規,0,2024-11-14,2024-11-14,ヤマグチ・スピリッツ株式会社,,株式会社,東京都,港区,赤坂９丁目２－１３,,13,103,1070052,,,,,,,2024-11-14,1,,,,,ヤマグチスピリッツ,0
2201,8010401186330,新規,0,2024-11-14,2024-11-14,株式会社神楽,,株式会社,東京都,港区,赤坂６丁目４番２０号,,13,103,1070052,,,,,,,2024-11-14,1,,,,,カグラ,0
2202,8010401186413,新規,0,2024-11-14,2024-11-14,株式会社ＧＴＧＰ１,,株式会社,東京都,港区,北青山２丁目７番１３号プラセオ青山ビル３階,,13,103,1070061,,,,,,,2024-11-14,1,,,,,ジーティージーピーワン,0
2203,8010401186421,新規,0,2024-11-14,2024-11-14,ＳＱＭ　Ｌｉｔｈｉｕｍ　Ｊａｐａｎ株式会社,,株式会社,東京都,港区,南青山５丁目３番１０号,,13,103,1070062,,,,,,,2024-11-14,1,,,,,エスキューエムリチウムジャパン,0
2204,8010403033778,新規,0,2024-11-14,2024-11-14,Ｉｇｕｃｈｉ　Ｍｅｄｉｃａｌ＆Ｃａｒｅ合同会社,,合同会社,東京都,港区,六本木５丁目１４番３１－４０１号,,13,103,1060032,,,,,,,2024-11-14,1,,,,,イグチメディカルアンドケア,0
2206,8010405023752,新規,0,2024-11-14,2024-11-14,一般社団法人外国人バス運転手協会,,その他の設立登記法人,東京都,港区,白金１丁目２７番６号白金高輪ステーションビル６Ｆ,,13,103,1080072,,,,,,,2024-11-14,1,,,,,ガイコクジンバスウンテンシュキョウカイ,0
2207,8010405023777,新規,0,2024-11-14,2024-11-14,一般社団法人政策広報ＤＸ協会,,その他の設立登記法人,東京都,港区,赤坂８丁目１０番２２号ニュー新坂ビル４Ｆ,,13,103,1070052,,,,,,,2024-11-14,1,,,,,セイサクコウホウディーエックスキョウカイ,0
2208,8010501053182,新規,0,2024-11-14,2024-11-14,株式会社ＭｃＬｅａｎ,,株式会社,東京都,台東区,駒形２丁目２番１０－１０５号,,13,106,1110043,,,,,,,2024-11-14,1,,,,,マクレーン,0
2209,8010501053190,新規,0,2024-11-14,2024-11-14,株式会社Ｊ．Ｐ．Ｃ,,株式会社,東京都,台東区,浅草２丁目２５番－４,,13,106,1110032,,,,,,,2024-11-14,1,,,,,ジェイピーシー,0
2212,8010601066266,新規,0,2024-11-14,2024-11-14,株式会社三和,,株式会社,東京都,江東区,豊洲４丁目６－２－１０１,,13,108,1350061,,,,,,,2024-11-14,1,,,,,サンワ,0
2213,8010601066299,新規,0,2024-11-14,2024-11-14,株式会社ＹＡＲ,,株式会社,東京都,墨田区,横川５丁目４－３－２０１,,13,107,1300003,,,,,,,2024-11-14,1,,,,,ワイエーアール,0
2220,8010901056322,新規,0,2024-11-14,2024-11-14,理創堂株式会社,,株式会社,東京都,世田谷区,太子堂２丁目１７番５号３Ｆ／４Ｆ,,13,112,1540004,,,,,,,2024-11-14,1,,,,,リソウドウ,0
2221,8010903009501,新規,0,2024-11-14,2024-11-14,ＬＯＴＡ　ＰＲＯＤＵＣＴ合同会社,,合同会社,東京都,世田谷区,太子堂４丁目１８番１５号マガザン三軒茶屋２－３Ｆ－３,,13,112,1540004,,,,,,,2024-11-14,1,,,,,ロタプロダクト,0
2225,8011001165716,新規,0,2024-11-14,2024-11-14,ＲＩＮＣ株式会社,,株式会社,東京都,渋谷区,宇田川町１番１２―２５１３号,,13,113,1500042,,,,,,,2024-11-14,1,,,,,アールインク,0
2226,8011001165757,新規,0,2024-11-14,2024-11-14,株式会社レタスチャーハン,,株式会社,東京都,渋谷区,神宮前３丁目３３番１３号Ｒ６,,13,113,1500001,,,,,,,2024-11-14,1,,,,,レタスチャーハン,0
2227,8011001165765,新規,0,2024-11-14,2024-11-14,株式会社ＤＯＴＦＩＮＤ,,株式会社,東京都,渋谷区,神南１丁目２３番１４号リージャス渋谷公園通りビル,,13,113,1500041,,,,,,,2024-11-14,1,,,,,ドットファインド,0
2228,8011001165848,新規,0,2024-11-14,2024-11-14,株式会社ＳＭＮ,,株式会社,東京都,目黒区,碑文谷６丁目１４番１号,,13,110,1520003,,,,,,,2024-11-14,1,,,,,エスエムエヌ,0
2229,8011001165906,新規,0,2024-11-14,2024-11-14,株式会社流郷,,株式会社,東京都,渋谷区,東１丁目２６番３０－１００３号,,13,113,1500011,,,,,,,2024-11-14,1,,,,,リュウゴウ,0
2232,8011003020365,新規,0,2024-11-14,2024-11-14,合同会社エムクリエイト,,合同会社,東京都,渋谷区,道玄坂１丁目１０番８号渋谷道玄坂東急ビル２Ｆ－Ｃ,,13,113,1500043,,,,,,,2024-11-14,1,,,,,エムクリエイト,0
2233,8011003020381,新規,0,2024-11-14,2024-11-14,合同会社ＳＲＹｃｏｌｏｒｓ,,合同会社,東京都,目黒区,自由が丘２丁目１６番１２号ＲＪ３,,13,110,1520035,,,,,,,2024-11-14,1,,,,,スリーカラーズ,0
2239,8011301030157,新規,0,2024-11-14,2024-11-14,株式会社三歩,,株式会社,東京都,杉並区,阿佐谷南２丁目３１番１５号,,13,115,1660004,,,,,,,2024-11-14,1,,,,,サンポ,0
2241,8011401026575,新規,0,2024-11-14,2024-11-14,株式会社ｊｏｌｉｅｓｓｅ,,株式会社,東京都,板橋区,前野町３丁目１番１－１０６号ときわ台メリーガーデン,,13,119,1740063,,,,,,,2024-11-14,1,,,,,ジョリエス,0
2242,8011401026591,新規,0,2024-11-14,2024-11-14,日中商事国際コンサルタント株式会社,,株式会社,東京都,板橋区,板橋１丁目４９－１４プリベーラ板橋５０２,,13,119,1730004,,,,,,,2024-11-14,1,,,,,ニッチュウショウジコクサイコンサルタント,0
2244,8011403004554,新規,0,2024-11-14,2024-11-14,宝栄合同会社,,合同会社,東京都,板橋区,中板橋２５番３号,,13,119,1730016,,,,,,,2024-11-14,1,,,,,ホウエイ,0
2246,8011503006293,新規,0,2024-11-14,2024-11-14,Ｊａｓｈｉｍ　Ｒ．Ｒ．Ｓ合同会社,,合同会社,東京都,北区,上十条３丁目２９番２３号晴美荘２０３号,,13,117,1140034,,,,,,,2024-11-14,1,,,,,ジャシムアールアールエス,0
2247,8011601028198,新規,0,2024-11-14,2024-11-14,株式会社Ｍ２グループ,,株式会社,東京都,練馬区,関町南１丁目７番９－３０１号,,13,120,1770053,,,,,,,2024-11-14,1,,,,,エムツーグループ,0
2255,8012703003130,新規,0,2024-11-14,2024-11-14,昼間東村山合同会社,,合同会社,東京都,東村山市,本町２丁目７番地５－２０５,,13,213,1890014,,,,,,,2024-11-14,1,,,,,ヒルマヒガシムラヤマ,0
2257,8013301053369,新規,0,2024-11-14,2024-11-14,Ｐａｓｔｅｌ株式会社,,株式会社,東京都,豊島区,南池袋１丁目９番１８号ＧＯＧＯオフィス池袋１６２号室,,13,116,1710022,,,,,,,2024-11-14,1,,,,,パステル,0
2261,8020001160049,新規,0,2024-11-14,2024-11-14,株式会社Ｐｅｃｃｈｉａ,,株式会社,神奈川県,横浜市中区,長者町６丁目８８番地１、１５０３号室,,14,104,2310033,,,,,,,2024-11-14,1,,,,,ペッキア,0
2262,8020001160081,新規,0,2024-11-14,2024-11-14,株式会社Ｎｙｂｙ,,株式会社,神奈川県,川崎市多摩区,宿河原４丁目２１番５－１０３号,,14,135,2140021,,,,,,,2024-11-14,1,,,,,ニュビュ,0
2263,8020001160115,新規,0,2024-11-14,2024-11-14,ＢＬＩ株式会社,,株式会社,神奈川県,横浜市都筑区,茅ケ崎中央２１番７号,,14,118,2240032,,,,,,,2024-11-14,1,,,,,ビーエルアイ,0
2264,8020001160148,新規,0,2024-11-14,2024-11-14,株式会社ＵＮＩＴＥＤ　ＲＥＳＩＤＥＮＣＥ,,株式会社,神奈川県,横浜市神奈川区,鶴屋町３丁目３３番地８アーバンセンター横浜ウエスト１１階,,14,102,2210835,,,,,,,2024-11-14,1,,,,,ユナイテッドレジデンス,0
2265,8020003027246,新規,0,2024-11-14,2024-11-14,合同会社ＴＳＭ,,合同会社,神奈川県,横浜市都筑区,北山田５丁目２番２１号,,14,118,2240021,,,,,,,2024-11-14,1,,,,,ティーエスエム,0
2266,8020003027254,新規,0,2024-11-14,2024-11-14,合同会社愛グローバル,,合同会社,神奈川県,横浜市港北区,富士塚２丁目２０番２４号１０１,,14,109,2220012,,,,,,,2024-11-14,1,,,,,アイグローバル,0
2269,8021001083768,新規,0,2024-11-14,2024-11-14,株式会社井上不動産管理,,株式会社,神奈川県,鎌倉市,津西１丁目４番１６号,,14,204,2480034,,,,,,,2024-11-14,1,,,,,イノウエフドウサンカンリ,0
2272,8021003015232,新規,0,2024-11-14,2024-11-14,合同会社ＩＲＩＥ　ＯＦＦＩＣＥ,,合同会社,神奈川県,逗子市,小坪５丁目１６―１６カーサビアンカ１０２,,14,208,2490008,,,,,,,2024-11-14,1,,,,,アイリーオフィス,0
2278,8030001163356,新規,0,2024-11-14,2024-11-14,星瑞株式会社,,株式会社,埼玉県,さいたま市緑区,大字三室字西宿１２６３番２１,,11,109,3360911,,,,,,,2024-11-14,1,,,,,シンルイ,0
2279,8030001163406,新規,0,2024-11-14,2024-11-14,三楊株式会社,,株式会社,埼玉県,蕨市,中央４丁目８番２７号,,11,223,3350004,,,,,,,2024-11-14,1,,,,,サンヨウ,0
2280,8030001163422,新規,0,2024-11-14,2024-11-14,株式会社イケダオート,,株式会社,埼玉県,三郷市,高州３丁目３５番地８,,11,237,3410037,,,,,,,2024-11-14,1,,,,,イケダオート,0
2281,8030001163430,新規,0,2024-11-14,2024-11-14,Ｅｌｉｔｅ　Ｔｏｕｒｓ株式会社,,株式会社,埼玉県,さいたま市南区,辻８丁目６番５号,00137010,11,108,3360026,,,,,,,2024-11-14,1,,,,,エリートツアーズ,0
2282,8030001163439,新規,0,2024-11-14,2024-11-14,株式会社飯田商事,,株式会社,埼玉県,所沢市,北中１丁目１９２番地２９,,11,208,3591101,,,,,,,2024-11-14,1,,,,,イイダショウジ,0
2287,8030003025471,新規,0,2024-11-14,2024-11-14,Ｒ＆Ｋアドバイザリー合同会社,,合同会社,埼玉県,川口市,朝日４丁目９番６号,,11,203,3320001,,,,,,,2024-11-14,1,,,,,アールアンドケーアドバイザリー,0
2293,8040001136146,新規,0,2024-11-14,2024-11-14,株式会社リゾーティラ,,株式会社,千葉県,長生郡一宮町,東浪見７４３３番地,,12,421,2994303,,,,,,,2024-11-14,1,,,,,リゾーティラ,0
2294,8040001136162,新規,0,2024-11-14,2024-11-14,株式会社ＭＩＷＡ,,株式会社,千葉県,富津市,亀沢２８７番地１,,12,226,2930051,,,,,,,2024-11-14,1,,,,,ミワ,0
2297,8040003026188,新規,0,2024-11-14,2024-11-14,合同会社拾六丁,,合同会社,千葉県,柏市,新柏１丁目１０番地,,12,217,2770084,,,,,,,2024-11-14,1,,,,,ジュウロクチョウ,0
2301,8060001037648,新規,0,2024-11-14,2024-11-14,株式会社Ｐｌａｍｂａｒｓ,,株式会社,栃木県,河内郡上三川町,大字多功１５１３番地１,,09,301,3290524,,,,,,,2024-11-14,1,,,,,プランバース,0
2302,8060001037656,新規,0,2024-11-14,2024-11-14,株式会社ＳＯＬ　ＨＯＵＳＥ,,株式会社,栃木県,佐野市,堀米町６１６番地７,,09,204,3270843,,,,,,,2024-11-14,1,,,,,ソルハウス,0
2308,8080001026599,新規,0,2024-11-14,2024-11-14,株式会社拓,,株式会社,静岡県,静岡市清水区,蒲原堰沢３８５番地の１,,22,103,4213214,,,,,,,2024-11-14,1,,,,,ヒラク,0
2326,8120001270176,新規,0,2024-11-14,2024-11-14,ＳＢＳ株式会社,,株式会社,大阪府,大阪市北区,梅田１丁目１２－１７ＪＲＥ梅田スクエアビル１Ｆ,,27,127,5300001,,,,,,,2024-11-14,1,,,,,エスビーエス,0
2329,8120003027970,新規,0,2024-11-14,2024-11-14,Ｈ＆Ａ合同会社,,合同会社,大阪府,大阪市西成区,玉出西２丁目４番３０号１－Ｂ,,27,122,5570045,,,,,,,2024-11-14,1,,,,,エイチアンドエイ,0
2330,8120101070575,新規,0,2024-11-14,2024-11-14,株式会社雄美塗建,,株式会社,大阪府,松原市,東新町２丁目１７０番地パークサイド東新町Ａ－２０３,,27,217,5800024,,,,,,,2024-11-14,1,,,,,ユウビトケン,0
2345,8140001136417,新規,0,2024-11-14,2024-11-14,株式会社ＡＣＴ,,株式会社,兵庫県,伊丹市,中野東２丁目３２０番地,,28,207,6640022,,,,,,,2024-11-14,1,,,,,アクト,0
2350,8150001027664,新規,0,2024-11-14,2024-11-14,株式会社ＳＲ‐ＧＲＯＷ,,株式会社,奈良県,磯城郡田原本町,大字阪手２８番地の２１,,29,363,6360247,,,,,,,2024-11-14,1,,,,,エスアールグロウ,0
2358,8180001164034,新規,0,2024-11-14,2024-11-14,株式会社イエロー,,株式会社,愛知県,一宮市,八幡２丁目７番地１,,23,203,4910903,,,,,,,2024-11-14,1,,,,,イエロー,0
2359,8180001164125,新規,0,2024-11-14,2024-11-14,株式会社ＫＡ,,株式会社,愛知県,春日井市,大手田酉町１丁目２０番地２５,,23,206,4860806,,,,,,,2024-11-14,1,,,,,ケイエー,0
2360,8180001164133,新規,0,2024-11-14,2024-11-14,株式会社アーツ,,株式会社,愛知県,名古屋市中区,栄５丁目２１番２４号（イエローハウス栄７０１号）,,23,106,4600008,,,,,,,2024-11-14,1,,,,,アーツ,0
2361,8180001164141,新規,0,2024-11-14,2024-11-14,株式会社ボンドアース,,株式会社,愛知県,名古屋市昭和区,桜山町６丁目１０４番地の３７,,23,107,4660044,,,,,,,2024-11-14,1,,,,,ボンドアース,0
2363,8180003027619,新規,0,2024-11-14,2024-11-14,合同会社中広ＫＤＢ,,合同会社,愛知県,名古屋市南区,星崎１丁目３４番地の１,,23,112,4570064,,,,,,,2024-11-14,1,,,,,ナカヒロケーディービー,0
2364,8180301039217,新規,0,2024-11-14,2024-11-14,Ｂｌａｃｋ　Ｓｗａｎ株式会社,,株式会社,愛知県,豊川市,伊奈町前山２８番地３４,,23,207,4410105,,,,,,,2024-11-14,1,,,,,ブラックスワン,0
2365,8180301039225,新規,0,2024-11-14,2024-11-14,株式会社ＫＯＢＡＹＡＳＨＩ,,株式会社,愛知県,豊橋市,東郷町５５番地の１,,23,201,4400068,,,,,,,2024-11-14,1,,,,,コバヤシ,0
2366,8180301039241,新規,0,2024-11-14,2024-11-14,株式会社愛知医療介護総合研究所,,株式会社,愛知県,西尾市,菱池町大道３９番地,,23,213,4450874,,,,,,,2024-11-14,1,,,,,アイチイリョウカイゴソウゴウケンキュウショ,0
2367,8180303006339,新規,0,2024-11-14,2024-11-14,合同会社Ｃｒａｆｔ　Ｃｏｍｐａｎｙ,,合同会社,愛知県,豊川市,三蔵子町福地荒古２８番地の１グランドガーデンカルムＩＩ４０１,00137002,23,207,4420006,,,,,,,2024-11-14,1,,,,,クラフトカンパニー,0
2371,8200001043128,新規,0,2024-11-14,2024-11-14,株式会社ＡＬＣＨＥＭＩＳＴ,,株式会社,岐阜県,美濃加茂市,新池町１丁目１９番８号,,21,211,5050031,,,,,,,2024-11-14,1,,,,,アルケミスト,0
2372,8200001043136,新規,0,2024-11-14,2024-11-14,株式会社蘭喜,,株式会社,岐阜県,岐阜市,若宮町３丁目４番地プランドールＪ＆Ｓ４－Ａ,,21,201,5008828,,,,,,,2024-11-14,1,,,,,ラッキー,0
2382,8240001064112,新規,0,2024-11-14,2024-11-14,歩夢株式会社,,株式会社,広島県,広島市南区,丹那町３０番７号,,34,103,7340034,,,,,,,2024-11-14,1,,,,,アユム,0
2386,8250001020898,新規,0,2024-11-14,2024-11-14,株式会社ケージーオー,,株式会社,山口県,下関市,豊浦町大字川棚４９１２番地の１,,35,201,7596301,,,,,,,2024-11-14,1,,,,,ケージーオー,0
2400,8290001107915,新規,0,2024-11-14,2024-11-14,株式会社Ｅ．Ｒ．Ｓ,,株式会社,福岡県,福岡市博多区,博多駅前４丁目３５番８号,,40,132,8120011,,,,,,,2024-11-14,1,,,,,イーアールエス,0
2403,8290003016049,新規,0,2024-11-14,2024-11-14,森平合同会社,,合同会社,福岡県,福岡市城南区,別府６丁目１１番１－２０１号アップルツリー,,40,136,8140104,,,,,,,2024-11-14,1,,,,,モリヒラ,0
2410,8350001019286,新規,0,2024-11-14,2024-11-14,株式会社みやざき一茶園,,株式会社,宮崎県,宮崎市,高岡町浦之名５０８４番地４,,45,201,8802323,,,,,,,2024-11-14,1,,,,,ミヤザキハジメチャエン,0
2416,8360001034433,新規,0,2024-11-14,2024-11-14,琉球コーヒービール株式会社,,株式会社,沖縄県,南城市,玉城字百名１１４７番地コーポひゃくな４０３号,,47,215,9010603,,,,,,,2024-11-14,1,,,,,リュウキュウコーヒービール,0
2417,8360003014458,新規,0,2024-11-14,2024-11-14,合同会社ゼオネック,,合同会社,沖縄県,那覇市,字安謝６５３番地,,47,201,9000003,,,,,,,2024-11-14,1,,,,,ゼオネック,0
2419,8370001051907,新規,0,2024-11-14,2024-11-14,華誼投資株式会社,,株式会社,宮城県,仙台市若林区,連坊小路１０７エルミタージュ連坊１０４号室,,04,103,9840053,,,,,,,2024-11-14,1,,,,,ファーイインベストメント,0
2423,8420001018925,新規,0,2024-11-14,2024-11-14,株式会社ＧＲＥＥＮ　ＨＥＡＲＴ,,株式会社,青森県,八戸市,大字鳥屋部町１４番地５センチュリー鳥屋部２０５号,,02,203,0310039,,,,,,,2024-11-14,1,,,,,グリーンハート,0
2426,8440001009518,新規,0,2024-11-14,2024-11-14,株式会社ヤマニ盛田漁業部,,株式会社,北海道,茅部郡鹿部町,字大岩１０５番地１１,,01,343,0411401,,,,,,,2024-11-14,1,,,,,ヤマニモリタギョギョウブ,0
2427,8470001020455,新規,0,2024-11-14,2024-11-14,ローカルアートバンク株式会社,,株式会社,香川県,三豊市,仁尾町仁尾丁８７６番地１,,37,208,7691407,,,,,,,2024-11-14,1,,,,,ローカルアートバンク,0
2435,8700150127878,新規,0,2024-11-14,2024-11-14,Ｓｕｚｈｏｕ　Ｓｈｉｈａｏ　Ｉｎｔｅｌｌｉｇｅｎｔ　Ｔｅｃｈｎｏｌｏｇｙ　Ｃｏ．，Ｌｔｄ,,外国会社等,,,,,,,,Ｎｏ．２８，Ｎａｎｔｉａｎｃｈｅｎｇ　Ｒｏａｄ，Ｈｉｇｈ－ｓｐｅｅｄ　Ｒａｉｌ　Ｎｅｗ　Ｔｏｗｎ，Ｘｉａｎｇｃｈｅｎｇ　Ｄｉｓｔｒｉｃｔ，Ｓｕｚｈｏｕ，Ｊｉａｎｇｓｕ　Ｐｒｏｖｉｎｃｅ，Ｃｈｉｎａ,,,,,,2024-11-14,1,,,,,スージョウシーハオジーノンコージーヨウシエンゴンスー,0
2451,9010001249890,新規,0,2024-11-14,2024-11-14,ＫＵＭＯＪＯ　ＬＵＧＧＡＧＥ株式会社,,株式会社,東京都,中央区,日本橋久松町９－１２－８Ｆ,,13,102,1030005,,,,,,,2024-11-14,1,,,,,クモジョウラゲージ,0
2479,9010005039124,新規,0,2024-11-14,2024-11-14,一般社団法人はくたか,,その他の設立登記法人,東京都,千代田区,丸の内１丁目４番１号東京共同会計事務所内,,13,101,1000005,,,,,,,2024-11-14,1,,,,,ハクタカ,0
2484,9010401186395,新規,0,2024-11-14,2024-11-14,株式会社Ｃ・Ｊ＆Ｃｏ．,,株式会社,東京都,港区,芝公園２丁目１１番１７号芝公園下山ビル,,13,103,1050011,,,,,,,2024-11-14,1,,,,,シージェイアンドコー,0
2485,9010401186412,新規,0,2024-11-14,2024-11-14,エコンテック株式会社,,株式会社,東京都,港区,元麻布３丁目１－３４,,13,103,1060046,,,,,,,2024-11-14,1,,,,,エコンテック,0
2486,9010403033728,新規,0,2024-11-14,2024-11-14,合同会社フィルム日和,,合同会社,東京都,港区,北青山１丁目３番１号アールキューブ青山３階,,13,103,1070061,,,,,,,2024-11-14,1,,,,,フィルムビヨリ,0
2492,9010603011203,新規,0,2024-11-14,2024-11-14,合同会社ＣＲＥＣＥＲ　Ｍｕｓｉｃ　Ｓｔｕｄｉｏ,,合同会社,東京都,江東区,大島８丁目２８番５－１１０６号,,13,108,1360072,,,,,,,2024-11-14,1,,,,,クレセールミュージックスタヂオ,0
2495,9010701046695,新規,0,2024-11-14,2024-11-14,テレテクノロジーズ株式会社,,株式会社,東京都,品川区,西品川１丁目１番１号住友不動産大崎ガーデンタワー９階トンネル東京,,13,109,1410033,,,,,,,2024-11-14,1,,,,,テレテクノロジーズ,0
2496,9010701046811,新規,0,2024-11-14,2024-11-14,株式会社ミンパクバケーション,,株式会社,東京都,品川区,豊町６丁目８番１２号,,13,109,1420042,,,,,,,2024-11-14,1,,,,,ミンパクバケーション,0
2498,9010801035573,新規,0,2024-11-14,2024-11-14,株式会社ａＬｉｖｅ,,株式会社,東京都,大田区,蒲田５丁目４３番１０号,,13,111,1440052,,,,,,,2024-11-14,1,,,,,アライヴ,0
2500,9010901056338,新規,0,2024-11-14,2024-11-14,株式会社ＩＮＦ,,株式会社,東京都,世田谷区,豪徳寺１丁目２２番５号三柴ビル２階,,13,112,1540021,,,,,,,2024-11-14,1,,,,,インフ,0
2509,9011001165756,新規,0,2024-11-14,2024-11-14,ＡＭＷ株式会社,,株式会社,東京都,渋谷区,道玄坂１丁目１２－１渋谷マークシティＷ２２階,,13,113,1500043,,,,,,,2024-11-14,1,,,,,エーエムダブリュー,0
2510,9011001165764,新規,0,2024-11-14,2024-11-14,株式会社ＢｌａｃｋＯａｋ,,株式会社,東京都,渋谷区,道玄坂１丁目１２番１号渋谷マークシティＷ２２Ｆ,,13,113,1500043,,,,,,,2024-11-14,1,,,,,ブラックオーク,0
2511,9011001165780,新規,0,2024-11-14,2024-11-14,株式会社ＦＯＭＩＥＳ,,株式会社,東京都,目黒区,青葉台３丁目１９番８号青葉台Ｍビル３Ｆ,,13,110,1530042,,,,,,,2024-11-14,1,,,,,フォーミーズ,0
2512,9011001165797,新規,0,2024-11-14,2024-11-14,株式会社Ｐｒｏｓｏｌｖｅ,,株式会社,東京都,渋谷区,広尾１丁目１４番１５号クオリア広尾６０７号室,,13,113,1500012,,,,,,,2024-11-14,1,,,,,プロソルブ,0
2513,9011001165871,新規,0,2024-11-14,2024-11-14,株式会社エンライトニング,,株式会社,東京都,渋谷区,千駄ヶ谷１丁目５番８号ジュニアー千駄ヶ谷ビル３Ｆ,,13,113,1510051,,,,,,,2024-11-14,1,,,,,エンライトニング,0
2514,9011003020380,新規,0,2024-11-14,2024-11-14,ＡＸＳ　Ｎｉｐｐｏｎ合同会社,,合同会社,東京都,渋谷区,渋谷１丁目３番３号ヒューリック青山第二ビル７階,,13,113,1500002,,,,,,,2024-11-14,1,,,,,アクセスニッポン,0
2516,9011101109497,新規,0,2024-11-14,2024-11-14,株式会社Ｍｅｄｉ５,,株式会社,東京都,新宿区,赤城下町７３番地ウェルシー神楽坂２０３,,13,104,1620803,,,,,,,2024-11-14,1,,,,,メディファイブ,0
2517,9011101109506,新規,0,2024-11-14,2024-11-14,株式会社どんちっち,,株式会社,東京都,新宿区,百人町２丁目２７番７－１００７号,,13,104,1690073,,,,,,,2024-11-14,1,,,,,ドンチッチ,0
2518,9011101109555,新規,0,2024-11-14,2024-11-14,株式会社ＭＥＳＣＨ　ＪＡＰＡＮ,,株式会社,東京都,新宿区,山吹町１３０－５ソーラ・デ・吉岡ビル３０４号,,13,104,1620801,,,,,,,2024-11-14,1,,,,,メッシュジャパン,0
2522,9011401026574,新規,0,2024-11-14,2024-11-14,株式会社コピー,,株式会社,東京都,板橋区,赤塚５丁目２６－９ヴィラコートマカベ３－３０１,,13,119,1750092,,,,,,,2024-11-14,1,,,,,コピー,0
2523,9011401026582,新規,0,2024-11-14,2024-11-14,株式会社Ｒｕｎｏｖａ,,株式会社,東京都,板橋区,舟渡３丁目２４番１５－４１０号,,13,119,1740041,,,,,,,2024-11-14,1,,,,,ラノバ,0
2524,9011401026590,新規,0,2024-11-14,2024-11-14,株式会社ＺＥＡＫ,,株式会社,東京都,板橋区,稲荷台４番２号,,13,119,1730002,,,,,,,2024-11-14,1,,,,,ジーク,0
2525,9011405002365,新規,0,2024-11-14,2024-11-14,ＮＰＯ法人アンサンブルパストラーレ,,その他の設立登記法人,東京都,板橋区,向原３丁目１０番３９－２０２号,,13,119,1730036,,,,,,,2024-11-14,1,,,,,アンサンブルパストラーレ,0
2535,9011803006554,新規,0,2024-11-14,2024-11-14,合同会社Ｂｅｌｌｅｚａ,,合同会社,東京都,足立区,柳原２丁目１２－５キマイラビル２０４号,,13,121,1200022,,,,,,,2024-11-14,1,,,,,ベレーザ,0
2537,9012701018550,新規,0,2024-11-14,2024-11-14,株式会社和志茂,,株式会社,東京都,清瀬市,下宿２丁目５５８番地１４,,13,221,2040001,,,,,,,2024-11-14,1,,,,,ワシモ,0
2539,9012801023574,新規,0,2024-11-14,2024-11-14,株式会社Ｃ‐ｓｔｙｌｅ,,株式会社,東京都,国立市,北２丁目１５番２９－１０３号,,13,215,1860001,,,,,,,2024-11-14,1,,,,,シースタイル,0
2546,9013301053368,新規,0,2024-11-14,2024-11-14,株式会社エルステ,,株式会社,東京都,豊島区,東池袋１丁目３４番５号いちご東池袋ビル６階,,13,116,1700013,,,,,,,2024-11-14,1,,,,,エルステ,0
2553,9020001159882,新規,0,2024-11-14,2024-11-14,鴻宇商事株式会社,,株式会社,神奈川県,横浜市港北区,小机町１４４４番地１セルアージュ横濱小机ルミナス１０１,,14,109,2220036,,,,,,,2024-11-14,1,,,,,コウショウジ,0
2554,9020001160023,新規,0,2024-11-14,2024-11-14,株式会社Ｈａｎａｎａ,,株式会社,神奈川県,川崎市宮前区,土橋１丁目１０番地１６ペナテス宮前平３０３,,14,136,2160005,,,,,,,2024-11-14,1,,,,,ハナナ,0
2555,9020001160122,新規,0,2024-11-14,2024-11-14,株式会社アイ・ビー・エス,,株式会社,神奈川県,川崎市多摩区,長沢４丁目２７番３号２０２号室,,14,135,2140035,,,,,,,2024-11-14,1,,,,,アイビーエス,0
2558,9020003027229,新規,0,2024-11-14,2024-11-14,合同会社ＶａｌｕｅＷｏｒｋｓ　ＰＲＯ,,合同会社,神奈川県,川崎市高津区,千年１４１－３,,14,134,2130022,,,,,,,2024-11-14,1,,,,,バリューワークスプロ,0
2559,9020003027245,新規,0,2024-11-14,2024-11-14,ＭＧ合同会社,,合同会社,神奈川県,横浜市鶴見区,平安町２丁目１９番地１,,14,101,2300031,,,,,,,2024-11-14,1,,,,,エムジー,0
2578,9030001163306,新規,0,2024-11-14,2024-11-14,ハシモト溶接株式会社,,株式会社,埼玉県,草加市,遊馬町８３１番地２,,11,221,3400032,,,,,,,2024-11-14,1,,,,,ハシモトヨウセツ,0
2579,9030001163405,新規,0,2024-11-14,2024-11-14,株式会社車之源,,株式会社,埼玉県,所沢市,大字中富１０８９番地,,11,208,3590002,,,,,,,2024-11-14,1,,,,,クルマノゲン,0
2580,9030001163413,新規,0,2024-11-14,2024-11-14,株式会社ネオエラ,,株式会社,埼玉県,春日部市,西金野井１１０８番地６,,11,214,3440112,,,,,,,2024-11-14,1,,,,,ネオエラ,0
2581,9030001163438,新規,0,2024-11-14,2024-11-14,株式会社ル・シエル,,株式会社,埼玉県,和光市,新倉１丁目１１番４５号１０１,,11,229,3510115,,,,,,,2024-11-14,1,,,,,ルシエル,0
2584,9030003025470,新規,0,2024-11-14,2024-11-14,合同会社ｂｅＲｅａｌ,,合同会社,埼玉県,川口市,朝日４丁目７番３号,,11,203,3320001,,,,,,,2024-11-14,1,,,,,ビーリアル,0
2586,9030005021939,新規,0,2024-11-14,2024-11-14,ＮＰＯ法人さいたま多胎ネット,,その他の設立登記法人,埼玉県,さいたま市中央区,上落合７丁目４番７号,,11,105,3380001,,,,,,,2024-11-14,1,,,,,サイタマタタイネット,0
2588,9040001136129,新規,0,2024-11-14,2024-11-14,株式会社サンド,,株式会社,千葉県,印西市,平賀学園台３丁目１０番５号,,12,231,2701606,,,,,,,2024-11-14,1,,,,,サンド,0
2590,9040003026187,新規,0,2024-11-14,2024-11-14,合同会社ララ介護ステーション,,合同会社,千葉県,柏市,あけぼの１丁目３番２０号,,12,217,2770841,,,,,,,2024-11-14,1,,,,,ララカイゴステーション,0
2591,9040003026195,新規,0,2024-11-14,2024-11-14,合同会社ウィタエル,,合同会社,千葉県,柏市,柏１３６５番地８クレストフォルム柏サウスウイング７１１号,,12,217,2770005,,,,,,,2024-11-14,1,,,,,ウィタエル,0
2598,9080001026573,新規,0,2024-11-14,2024-11-14,株式会社静岡双健,,株式会社,静岡県,静岡市駿河区,用宗４丁目３番８号,,22,102,4210122,,,,,,,2024-11-14,1,,,,,シズオカソウケン,0
2599,9080001026598,新規,0,2024-11-14,2024-11-14,コアリンク株式会社,,株式会社,静岡県,静岡市駿河区,みずほ３丁目８番地の７,,22,102,4210115,,,,,,,2024-11-14,1,,,,,コアリンク,0
2600,9080001026607,新規,0,2024-11-14,2024-11-14,株式会社ファンストライド,,株式会社,静岡県,静岡市駿河区,中島２０３－１第二昌栄ビル３階Ｇ,,22,102,4228046,,,,,,,2024-11-14,1,,,,,ファンストライド,0
2620,9120001270200,新規,0,2024-11-14,2024-11-14,Ｇｉｒａｓｏｌｅ株式会社,,株式会社,大阪府,大阪市西区,北堀江２丁目２番２４号,,27,106,5500014,,,,,,,2024-11-14,1,,,,,ジラソーレ,0
2621,9120001270282,新規,0,2024-11-14,2024-11-14,ブルームエステート株式会社,,株式会社,大阪府,大阪市淀川区,西中島７丁目１番２９号新大阪ＳＯＮＥビル１階,,27,123,5320011,,,,,,,2024-11-14,1,,,,,ブルームエステート,0
2622,9120001270308,新規,0,2024-11-14,2024-11-14,株式会社イノセントフーズ,,株式会社,大阪府,大阪市北区,梅田１丁目１－３大阪駅前第３ビル２９階１－１－１号室,,27,127,5300001,,,,,,,2024-11-14,1,,,,,イノセントフーズ,0
2624,9120003027895,新規,0,2024-11-14,2024-11-14,合同会社ＨＡＫＴ,,合同会社,大阪府,大阪市北区,豊崎４丁目１１番２－２４０４号,,27,127,5310072,,,,,,,2024-11-14,1,,,,,ハクト,0
2625,9120003027953,新規,0,2024-11-14,2024-11-14,合同会社ＭＫパートナーズ,,合同会社,大阪府,大阪市旭区,太子橋２丁目６番９号,,27,117,5350001,,,,,,,2024-11-14,1,,,,,エムケーパートナーズ,0
2626,9120005024619,新規,0,2024-11-14,2024-11-14,一般社団法人みらい戦略マーケット,,その他の設立登記法人,大阪府,大阪市北区,梅田１丁目２番２号大阪駅前第２ビル１２－１２,,27,127,5300001,,,,,,,2024-11-14,1,,,,,ミライセンリャクマーケット,0
2641,9140001136408,新規,0,2024-11-14,2024-11-14,株式会社ｍｉｚｕｂｉｙｏｒｉ,,株式会社,兵庫県,南あわじ市,志知口１３２番地,,28,224,6560324,,,,,,,2024-11-14,1,,,,,ミズビヨリ,0
2644,9140003021319,新規,0,2024-11-14,2024-11-14,合同会社ウェルビーライト,,合同会社,兵庫県,姫路市,飾磨区英賀東町１丁目５７,,28,201,6728087,,,,,,,2024-11-14,1,,,,,ウェルビーライト,0
2652,9180001164108,新規,0,2024-11-14,2024-11-14,株式会社伊吹,,株式会社,愛知県,半田市,乙川殿町１４番地の３,,23,205,4750045,,,,,,,2024-11-14,1,,,,,イブキ,0
2653,9180001164132,新規,0,2024-11-14,2024-11-14,株式会社ＮＭＥ,,株式会社,愛知県,名古屋市中区,栄４丁目６番４２号（ＤＯＭＵＳ２１－８０５号）,,23,106,4600008,,,,,,,2024-11-14,1,,,,,エヌエムイー,0
2654,9180001164140,新規,0,2024-11-14,2024-11-14,株式会社ウェルスクリエイト,,株式会社,愛知県,名古屋市中区,大須３丁目３０番４０号万松寺ビル１０Ｆ,,23,106,4600011,,,,,,,2024-11-14,1,,,,,ウェルスクリエイト,0
2655,9180001164157,新規,0,2024-11-14,2024-11-14,株式会社ＨＥライフ,,株式会社,愛知県,半田市,昭和町２丁目１８番地,,23,205,4750922,,,,,,,2024-11-14,1,,,,,エイチイーライフ,0
2656,9180001164165,新規,0,2024-11-14,2024-11-14,株式会社インサイト,,株式会社,愛知県,東海市,高横須賀町東屋敷４１番地の１,,23,222,4770037,,,,,,,2024-11-14,1,,,,,インサイト,0
2657,9180001164173,新規,0,2024-11-14,2024-11-14,株式会社佐藤工業,,株式会社,愛知県,犬山市,大字羽黒字西向畑９番地３６,,23,215,4840894,,,,,,,2024-11-14,1,,,,,サトウコウギョウ,0
2662,9180003027626,新規,0,2024-11-14,2024-11-14,合同会社ＤａｔａＭｉｎｄ,,合同会社,愛知県,名古屋市中村区,名駅４丁目２４－１６広小路ガーデンアベニューセンター,,23,105,4500002,,,,,,,2024-11-14,1,,,,,データマインド,0
2668,9180301039232,新規,0,2024-11-14,2024-11-14,博心建設工業株式会社,,株式会社,愛知県,刈谷市,若松町３丁目９番地ＹＦビル３Ｆ,,23,210,4480858,,,,,,,2024-11-14,1,,,,,ハクシンケンセツコウギョウ,0
2672,9190001031793,新規,0,2024-11-14,2024-11-14,ＳＴ三重株式会社,,株式会社,三重県,鈴鹿市,国府町高畔３９３３‐１,,24,207,5130836,,,,,,,2024-11-14,1,,,,,エスティミエ,0
2673,9190003004855,新規,0,2024-11-14,2024-11-14,合同会社リターナル,,合同会社,三重県,いなべ市,員弁町笠田新田４２１番地２８,,24,214,5110205,,,,,,,2024-11-14,1,,,,,リターナル,0
2681,9200001043127,新規,0,2024-11-14,2024-11-14,ティーケイテック株式会社,,株式会社,岐阜県,高山市,新宮町３４７５番地１５,,21,203,5060035,,,,,,,2024-11-14,1,,,,,ティーケイテック,0
2682,9200003006585,新規,0,2024-11-14,2024-11-14,合同会社ＶＡＲＩＩＳ,,合同会社,岐阜県,大垣市,荒尾町３９０番地３,,21,202,5030034,,,,,,,2024-11-14,1,,,,,ヴァリス,0
2683,9220001026328,新規,0,2024-11-14,2024-11-14,株式会社呑べ,,株式会社,石川県,金沢市,玉鉾町甲６番地,,17,201,9218003,,,,,,,2024-11-14,1,,,,,ノンベ,0
2691,9230001020619,新規,0,2024-11-14,2024-11-14,株式会社Ａｓｔｅｐ,,株式会社,富山県,富山市,高木３１４３番地１,,16,201,9300106,,,,,,,2024-11-14,1,,,,,エーステップ,0
2693,9230003002334,新規,0,2024-11-14,2024-11-14,ＴＯＭＯＳＡ合同会社,,合同会社,富山県,高岡市,赤祖父３２５番地,,16,202,9330806,,,,,,,2024-11-14,1,,,,,トモサ,0
2699,9250001020897,新規,0,2024-11-14,2024-11-14,株式会社ユナイトファクトリー,,株式会社,山口県,宇部市,黒石北２丁目６番５９－１１号,,35,202,7590213,,,,,,,2024-11-14,1,,,,,ユナイトファクトリー,0
2708,9290003016064,新規,0,2024-11-14,2024-11-14,福Ｍｏｃｈａ合同会社,,合同会社,福岡県,福岡市中央区,谷２丁目１２番１６号ドゥオン六本松１階,,40,133,8100031,,,,,,,2024-11-14,1,,,,,フクモカ,0
2713,9330001032653,新規,0,2024-11-14,2024-11-14,株式会社ＴＣＳ,,株式会社,熊本県,熊本市中央区,練兵町９３番地,,43,101,8600017,,,,,,,2024-11-14,1,,,,,ティーシーエス,0
2715,9330003010640,新規,0,2024-11-14,2024-11-14,合同会社清かわ,,合同会社,熊本県,熊本市南区,出仲間１丁目１番２１号,,43,104,8620963,,,,,,,2024-11-14,1,,,,,キヨカワ,0
2717,9340003004658,新規,0,2024-11-14,2024-11-14,合同会社珠月彩,,合同会社,鹿児島県,鹿児島市,真砂町２０番９号,,46,201,8900066,,,,,,,2024-11-14,1,,,,,ミヅイロ,0
2722,9360003014457,新規,0,2024-11-14,2024-11-14,合同会社ＧＣ企画,,合同会社,沖縄県,うるま市,みどり町４丁目２０番１０号１Ｆ,,47,213,9042215,,,,,,,2024-11-14,1,,,,,ジーシーキカク,0
2726,9370001051914,新規,0,2024-11-14,2024-11-14,大日ベルト株式会社,,株式会社,宮城県,岩沼市,吹上１丁目１５番１８号,,04,211,9892436,,,,,,,2024-11-14,1,,,,,ダイニチベルト,0
2727,9370001051922,新規,0,2024-11-14,2024-11-14,Ａｏｉ　ＨＯＫＯ株式会社,,株式会社,宮城県,仙台市青葉区,大町２丁目１５番２４号,,04,101,9800804,,,,,,,2024-11-14,1,,,,,アオイホーコー,0
2731,9390003002310,新規,0,2024-11-14,2024-11-14,合同会社ＴＲＡＤＥ　ＷＩＮＤ,,合同会社,山形県,酒田市,新堀字聖の宮１０７番地－Ａ号,,06,204,9997776,,,,,,,2024-11-14,1,,,,,トレードウィンド,0
2736,9430001093066,新規,0,2024-11-14,2024-11-14,大誠株式会社,,株式会社,北海道,札幌市白石区,菊水八条３丁目８番５号,,01,104,0030808,,,,,,,2024-11-14,1,,,,,ダイセイ,0
2738,9440001009517,新規,0,2024-11-14,2024-11-14,株式会社アトム,,株式会社,北海道,函館市,柏木町１４番１９号,,01,202,0420942,,,,,,,2024-11-14,1,,,,,,0
2746,9700150127877,新規,0,2024-11-14,2024-11-14,ｄｏｎｇｇｕａｎｒｏｎｇｍｅｎｇｙｉｋｅｊｉｙｏｕｘｉａｎｇｏｎｇｓｉ,,外国会社等,,,,,,,,ｇｕａｎｇ　ｄｏｎｇ　ｓｈｅｎｇ　ｄｏｎｇ　ｇｕａｎ　ｓｈｉ　ｎａｎ　ｃｈｅｎｇ　ｊｉｅ　ｄａｏ　ｃａｏ　ｔａｎｇ　ｌｕ　２０　ｈａｏ　２　ｄｏｎｇ　４０１６　ｓｈｉ,,,,,,2024-11-14,1,,,,,ドングワンロンモンイーコージーヨウシエンゴンスー,0
