sequenceNumber,corporateNumber,process,correct,updateDate,changeDate,name,nameImageId,kind,prefectureName,cityName,streetNumber,addressImageId,prefectureCode,cityCode,postCode,addressOutside,addressOutsideImageId,closeDate,closeCause,successorCorporateNumber,changeCause,assignmentDate,latest,enName,enPrefectureName,enCityName,enAddressOutside,furigana,hihyoji
5,1010001224521,新規,0,2022-02-15,2022-02-15,ログシス株式会社,,株式会社,東京都,千代田区,九段北１丁目１４番１６号,,13,101,1020073,,,,,,,2022-02-15,1,,,,,ログシス,0
6,1010001224546,新規,0,2022-02-15,2022-02-15,日本再生燃料株式会社,,株式会社,東京都,中央区,八重洲２丁目６番１６号北村ビルディング４０５号,,13,102,1040028,,,,,,,2022-02-15,1,,,,,ニッポンサイセイネンリョウ,0
7,1010001224595,新規,0,2022-02-15,2022-02-15,株式会社ステイドリーム,,株式会社,東京都,千代田区,神田小川町１丁目８番地３,,13,101,1010052,,,,,,,2022-02-15,1,,,,,ステイドリーム,0
8,1010001224604,新規,0,2022-02-15,2022-02-15,株式会社クラウドコア,,株式会社,東京都,中央区,銀座６丁目６番１号,,13,102,1040061,,,,,,,2022-02-15,1,,,,,クラウドコア,0
11,1010003037005,新規,0,2022-02-15,2022-02-15,ホライズン・ジャパン合同会社,,合同会社,東京都,千代田区,霞が関３丁目２番６号東京倶楽部ビルディング１１階,,13,101,1000013,,,,,,,2022-02-15,1,,,,,ホライズンジャパン,0
13,1010005034561,新規,0,2022-02-15,2022-02-15,一般社団法人Ｖｉｔａｎａ,,その他の設立登記法人,東京都,中央区,東日本橋３丁目１２－１１アヅマビル９階,,13,102,1030004,,,,,,,2022-02-15,1,,,,,ヴィターナ,0
21,1010401165571,新規,0,2022-02-15,2022-02-15,ＭＯＢＡ再生株式会社,,株式会社,東京都,港区,新橋６丁目１７番２１号住友不動産御成門駅前ビル１０階,,13,103,1050004,,,,,,,2022-02-15,1,,,,,モバサイセイ,0
22,1010401165605,新規,0,2022-02-15,2022-02-15,ラパン株式会社,,株式会社,東京都,港区,新橋５丁目３１－８ル・グラシエルＢＬＤＧ．３２号館９０１号室,,13,103,1050004,,,,,,,2022-02-15,1,,,,,ラパン,0
27,1010501048437,新規,0,2022-02-15,2022-02-15,株式会社傘,,株式会社,東京都,台東区,秋葉原一丁目５ヨリモトビル５Ｆ,,13,106,1100006,,,,,,,2022-02-15,1,,,,,カサ,0
31,1010701042215,新規,0,2022-02-15,2022-02-15,タイコー・アセットマネジメント株式会社,,株式会社,東京都,品川区,大崎３丁目６番１１－３１０号,,13,109,1410032,,,,,,,2022-02-15,1,,,,,タイコーアセットマネジメント,0
34,1010805002916,新規,0,2022-02-15,2022-02-15,一般社団法人Ａ　Ｍｉｌｌｉｏｎ　Ｄｒｅａｍｓ,,その他の設立登記法人,東京都,大田区,下丸子２丁目２４番１０号多摩川ハイム２－８０３,,13,111,1460092,,,,,,,2022-02-15,1,,,,,アミリオンドリームズ,0
36,1010901050348,新規,0,2022-02-15,2022-02-15,株式会社ＬＤＩ,,株式会社,東京都,世田谷区,上祖師谷４丁目２０番９号,,13,112,1570065,,,,,,,2022-02-15,1,,,,,エルディーアイ,0
40,1011001145625,新規,0,2022-02-15,2022-02-15,スーパーキャラクター株式会社,,株式会社,東京都,渋谷区,千駄ヶ谷３丁目１７番１１号,,13,113,1510051,,,,,,,2022-02-15,1,,,,,スーパーキャラクター,0
41,1011001145674,新規,0,2022-02-15,2022-02-15,ＩＩＤＡＫＯ株式会社,,株式会社,東京都,渋谷区,富ヶ谷２丁目１７番１２号２階,,13,113,1510063,,,,,,,2022-02-15,1,,,,,イイダコ,0
42,1011003014175,新規,0,2022-02-15,2022-02-15,ｍａｈｈ　ｍａｈｈ合同会社,,合同会社,東京都,渋谷区,道玄坂１丁目１０－８渋谷道玄坂東急ビル２Ｆ－Ｃ,,13,113,1500043,,,,,,,2022-02-15,1,,,,,メェメェ,0
43,1011103011477,新規,0,2022-02-15,2022-02-15,合同会社市ヶ谷スタジオ,,合同会社,東京都,新宿区,市谷柳町２１番地,,13,104,1620061,,,,,,,2022-02-15,1,,,,,イチガヤスタジオ,0
48,1011501027752,新規,0,2022-02-15,2022-02-15,株式会社Ｌｕｃｉａ,,株式会社,東京都,北区,上十条３丁目２０番１号,,13,117,1140034,,,,,,,2022-02-15,1,,,,,ルシア,0
49,1011503005070,新規,0,2022-02-15,2022-02-15,東成合同会社,,合同会社,東京都,荒川区,東日暮里５丁目４９番８－７０４号,,13,118,1160014,,,,,,,2022-02-15,1,,,,,トウセイ,0
65,1020001145221,新規,0,2022-02-15,2022-02-15,オリバーホーム株式会社,,株式会社,神奈川県,川崎市麻生区,虹ケ丘１丁目７－３３,,14,137,2150015,,,,,,,2022-02-15,1,,,,,オリバーホーム,0
70,1020003021271,新規,0,2022-02-15,2022-02-15,スカイ＆リーフ合同会社,,合同会社,神奈川県,横浜市金沢区,西柴２丁目６－１６,,14,108,2360017,,,,,,,2022-02-15,1,,,,,スカイアンドリーフ,0
73,1020005015379,新規,0,2022-02-15,2022-02-15,一般社団法人落雷抑制工業会,,その他の設立登記法人,神奈川県,横浜市西区,みなとみらい２丁目２番１号横浜ランドマークタワー４４階,,14,103,2200012,,,,,,,2022-02-15,1,,,,,ラクライヨクセイコウギョウカイ,0
74,1021001075169,新規,0,2022-02-15,2022-02-15,株式会社Ｎｅａｒ,,株式会社,神奈川県,綾瀬市,早川城山３丁目１４番２号,,14,218,2521127,,,,,,,2022-02-15,1,,,,,ニア,0
101,1040001122219,新規,0,2022-02-15,2022-02-15,株式会社片岡,,株式会社,千葉県,長生郡一宮町,一宮２５１８番地,,12,421,2994301,,,,,,,2022-02-15,1,,,,,カタオカ,0
102,1040001122227,新規,0,2022-02-15,2022-02-15,株式会社Ｌｉｎｋ　Ｂｅａｕｔｙ,,株式会社,千葉県,四街道市,もねの里６丁目２番２５号,,12,228,2840016,,,,,,,2022-02-15,1,,,,,リンクビューティー,0
103,1040001122235,新規,0,2022-02-15,2022-02-15,株式会社ＭＡｉＱ,,株式会社,千葉県,船橋市,豊富町６５４番地５３,,12,204,2740053,,,,,,,2022-02-15,1,,,,,メイク,0
104,1050001050617,新規,0,2022-02-15,2022-02-15,株式会社ブルーマウンテン,,株式会社,茨城県,結城市,下り松４丁目４番地１０,,08,207,3070008,,,,,,,2022-02-15,1,,,,,ブルーマウンテン,0
106,1050003006369,新規,0,2022-02-15,2022-02-15,合同会社Ｍ・Ｓシステム,,合同会社,茨城県,守谷市,野木崎５４０番地の１,,08,224,3020117,,,,,,,2022-02-15,1,,,,,エムエスシステム,0
109,1070001038940,新規,0,2022-02-15,2022-02-15,ＩＮＤＩＧＯ　ＰＩＥＣＥ　ＨＯＭＥ株式会社,,株式会社,群馬県,渋川市,伊香保町伊香保５０９番地４４,,10,208,3770102,,,,,,,2022-02-15,1,,,,,インディゴピースホーム,0
110,1070001038949,新規,0,2022-02-15,2022-02-15,別世界株式会社,,株式会社,群馬県,前橋市,表町２丁目２０－７－５１２リブグリーンロード,,10,201,3710024,,,,,,,2022-02-15,1,,,,,ベッセカイ,0
113,1080003002729,新規,0,2022-02-15,2022-02-15,創生・菊地設計合同会社,,合同会社,静岡県,静岡市清水区,北脇新田４１５番地,,22,103,4240051,,,,,,,2022-02-15,1,,,,,ソウセイキクチセッケイ,0
117,1090003002042,新規,0,2022-02-15,2022-02-15,合同会社堀内グループ,,合同会社,山梨県,南都留郡富士河口湖町,大石１４２２番地１,,19,430,4010305,,,,,,,2022-02-15,1,,,,,ホリウチグループ,0
119,1100001035059,新規,0,2022-02-15,2022-02-15,株式会社Ｌｉｅｎｓ,,株式会社,長野県,長野市,松代町小島田３５７８番地,,20,201,3811213,,,,,,,2022-02-15,1,,,,,リアン,0
121,1110001036436,新規,0,2022-02-15,2022-02-15,株式会社かわかみ農園,,株式会社,新潟県,長岡市,摂田屋２丁目６番２３号,,15,202,9401105,,,,,,,2022-02-15,1,,,,,カワカミノウエン,0
130,1120001243816,新規,0,2022-02-15,2022-02-15,株式会社ＫＡＮＴＥＣ３,,株式会社,大阪府,大阪市北区,東天満１丁目１１番２号,,27,127,5300044,,,,,,,2022-02-15,1,,,,,カンテックスリー,0
131,1120001243840,新規,0,2022-02-15,2022-02-15,株式会社ＰＯＷＥＲＵＰ,,株式会社,大阪府,大阪市西成区,鶴見橋１丁目９番２４号,,27,122,5570031,,,,,,,2022-02-15,1,,,,,パワーアップ,0
132,1120001243849,新規,0,2022-02-15,2022-02-15,株式会社ｃａｒｅ　ｎｕｒｓｅ　ｊａｐａｎ,,株式会社,大阪府,大阪市城東区,鴫野西５丁目１３番３４号,,27,118,5360014,,,,,,,2022-02-15,1,,,,,ケアナースジャパン,0
136,1120003021006,新規,0,2022-02-15,2022-02-15,合同会社ＸＸＸＸ　Ｍｅｎ’ｓ　ｅｙｅｂｒｏｗｌｉｓｔ,,合同会社,大阪府,大阪市北区,西天満３丁目６－２,,27,127,5300047,,,,,,,2022-02-15,1,,,,,フォーエックスメンズアイブローリスト,0
143,1120901045601,新規,0,2022-02-15,2022-02-15,株式会社ファニー,,株式会社,大阪府,豊能郡能勢町,山辺１６４１番地,,27,322,5630372,,,,,,,2022-02-15,1,,,,,ファニー,0
148,1130001071126,新規,0,2022-02-15,2022-02-15,株式会社ｗｈｉｃｋｅｒ,,株式会社,京都府,京都市左京区,聖護院蓮華蔵町５６－１１熊野道谷口マンション１０２号,,26,103,6068357,,,,,,,2022-02-15,1,,,,,ウィッカー,0
149,1130001071134,新規,0,2022-02-15,2022-02-15,株式会社ＳＭＣ,,株式会社,京都府,木津川市,山城町綺田川久保４５番地１,,26,214,6190201,,,,,,,2022-02-15,1,,,,,エスエムシー,0
152,1140001124898,新規,0,2022-02-15,2022-02-15,株式会社和希コンサルタント,,株式会社,兵庫県,加古川市,平岡町新在家３丁目２８５番地の１８,,28,210,6750101,,,,,,,2022-02-15,1,,,,,ワキコンサルタント,0
153,1140003017349,新規,0,2022-02-15,2022-02-15,合同会社ｉｒｏｄｏｒｉ,,合同会社,兵庫県,西宮市,津門西口町１２番１８号サニーウェスト１階,,28,204,6638231,,,,,,,2022-02-15,1,,,,,イロドリ,0
154,1150001025328,新規,0,2022-02-15,2022-02-15,株式会社インテュイティブ・ストラテジー,,株式会社,奈良県,桜井市,大字川合７４，７５合併番地,,29,206,6330063,,,,,,,2022-02-15,1,,,,,インテュイティブストラテジー,0
155,1150001025336,新規,0,2022-02-15,2022-02-15,株式会社ＭｈｙＬａＦｏｒｅｔ,,株式会社,奈良県,大和郡山市,本町１１番地１,,29,203,6391151,,,,,,,2022-02-15,1,,,,,ミラフォレ,0
158,1150003002622,新規,0,2022-02-15,2022-02-15,合同会社ｓｅｌｅｎｅ,,合同会社,奈良県,大和高田市,本郷町２番３８－１００８号,,29,202,6350082,,,,,,,2022-02-15,1,,,,,セレーネ,0
166,1180001149958,新規,0,2022-02-15,2022-02-15,三友商会株式会社,,株式会社,愛知県,名古屋市西区,長先町２００番地１,,23,104,4520838,,,,,,,2022-02-15,1,,,,,サンユウショウカイ,0
167,1180001149974,新規,0,2022-02-15,2022-02-15,株式会社ｃｏｆｕｃｏｍａ,,株式会社,愛知県,名古屋市東区,泉１丁目４番１６号ローレルアイ泉６０１号,,23,102,4610001,,,,,,,2022-02-15,1,,,,,コフコマ,0
170,1180301035924,新規,0,2022-02-15,2022-02-15,株式会社輝麻運輸,,株式会社,愛知県,豊橋市,駅前大通３丁目８７番地,,23,201,4400888,,,,,,,2022-02-15,1,,,,,テルマウンユ,0
174,1190001029127,新規,0,2022-02-15,2022-02-15,株式会社旭組,,株式会社,三重県,鈴鹿市,東旭が丘１丁目４番７号,,24,207,5100211,,,,,,,2022-02-15,1,,,,,アサヒグミ,0
176,1220003003217,新規,0,2022-02-15,2022-02-15,Ｔ＆Ｆ合同会社,,合同会社,石川県,野々市市,太平寺２丁目３番地,,17,212,9218845,,,,,,,2022-02-15,1,,,,,ティーアンドエフ,0
180,1240001059325,新規,0,2022-02-15,2022-02-15,株式会社ＣＯＰＡＮ,,株式会社,広島県,広島市南区,仁保新町２丁目１番２５号,,34,103,7340024,,,,,,,2022-02-15,1,,,,,コパン,0
182,1240003005500,新規,0,2022-02-15,2022-02-15,合同会社エールコーポレーション,,合同会社,広島県,福山市,南町２番２２号林ビル３０３,,34,207,7200806,,,,,,,2022-02-15,1,,,,,エールコーポレーション,0
189,1290001096446,新規,0,2022-02-15,2022-02-15,株式会社Ｍｏｔｅｎａｓ,,株式会社,福岡県,福岡市早良区,城西３丁目１８番１６号,,40,137,8140003,,,,,,,2022-02-15,1,,,,,モテナス,0
197,1290803004060,新規,0,2022-02-15,2022-02-15,コムズプランニングオフィス合同会社,,合同会社,福岡県,北九州市小倉南区,朽網西５丁目２４番２９号,,40,107,8000233,,,,,,,2022-02-15,1,,,,,コムズプランニングオフィス,0
199,1310001017713,新規,0,2022-02-15,2022-02-15,株式会社五島のこぐま,,株式会社,長崎県,五島市,岐宿町中嶽１６７４番地２,,42,211,8530312,,,,,,,2022-02-15,1,,,,,ゴトウノコグマ,0
201,1320001018891,新規,0,2022-02-15,2022-02-15,株式会社ＡＩＲＡ　ＯＦＦＩＣＥ,,株式会社,大分県,大分市,判田台南４丁目９番９号,,44,201,8701109,,,,,,,2022-02-15,1,,,,,アイラオフィース,0
205,1350001017577,新規,0,2022-02-15,2022-02-15,Ｋｎｏｔ　Ｗｏｒｋｓ株式会社,,株式会社,宮崎県,宮崎市,青島２丁目１番３３号,,45,201,8892162,,,,,,,2022-02-15,1,,,,,ノットワークス,0
207,1360003011800,新規,0,2022-02-15,2022-02-15,合同会社セイコウ,,合同会社,沖縄県,宜野湾市,真志喜２丁目５番２０－１００１号,,47,205,9012224,,,,,,,2022-02-15,1,,,,,セイコウ,0
210,1370001048208,新規,0,2022-02-15,2022-02-15,株式会社柳堀,,株式会社,宮城県,仙台市若林区,荒井５丁目１８番地の１,,04,103,9840032,,,,,,,2022-02-15,1,,,,,ヤナギホリ,0
220,1430003013624,新規,0,2022-02-15,2022-02-15,合同会社Ｂｅａｒｓ,,合同会社,北海道,石狩市,花川南六条１丁目８０番地,,01,235,0613206,,,,,,,2022-02-15,1,,,,,ベアーズ,0
238,2010001224586,新規,0,2022-02-15,2022-02-15,株式会社リリー・ライトニング,,株式会社,東京都,中央区,勝どき６丁目３番１－３９２１号,,13,102,1040054,,,,,,,2022-02-15,1,,,,,リリーライトニング,0
239,2010001224603,新規,0,2022-02-15,2022-02-15,株式会社ジョブスグ,,株式会社,東京都,千代田区,外神田３丁目６－１３清田商会ビル２０１,,13,101,1010021,,,,,,,2022-02-15,1,,,,,ジョブスグ,0
241,2010003037004,新規,0,2022-02-15,2022-02-15,合同会社ＭＦＲ,,合同会社,東京都,中央区,銀座６丁目１６番６号,,13,102,1040061,,,,,,,2022-02-15,1,,,,,エムエフアール,0
242,2010005034593,新規,0,2022-02-15,2022-02-15,一般社団法人世界洋上風力フォーラム,,その他の設立登記法人,東京都,千代田区,三番町２番４号三番町ＫＳビル５階,,13,101,1020075,,,,,,,2022-02-15,1,,,,,セカイヨウジョウフウリョクフォーラム,0
252,2010401165604,新規,0,2022-02-15,2022-02-15,株式会社ＢｌａｃｋＬｉｇｈｔ,,株式会社,東京都,港区,芝１丁目１０－１２トーシンフェニックス芝アストラーレ１２０１号,,13,103,1050014,,,,,,,2022-02-15,1,,,,,ブラックライト,0
253,2010405020689,新規,0,2022-02-15,2022-02-15,一般社団法人サスティナブルプランナー協会,,その他の設立登記法人,東京都,港区,虎ノ門１丁目１６番６号虎ノ門ＲＡＰＯ－ＴＯビルＵＣＦ７０３,,13,103,1050001,,,,,,,2022-02-15,1,,,,,サスティナブルプランナーキョウカイ,0
255,2010501048444,新規,0,2022-02-15,2022-02-15,株式会社ＪＧＫ,,株式会社,東京都,台東区,東上野１丁目１番４号,,13,106,1100015,,,,,,,2022-02-15,1,,,,,ジェイジーケー,0
262,2010801032726,新規,0,2022-02-15,2022-02-15,株式会社Ｆｏｒｃｅ　Ｌｉｎｋ,,株式会社,東京都,大田区,大森西４丁目３番１８号,,13,111,1430015,,,,,,,2022-02-15,1,,,,,フォースリンク,0
266,2010901050355,新規,0,2022-02-15,2022-02-15,大手町コンサルティング株式会社,,株式会社,東京都,世田谷区,下馬５丁目２番１４号,,13,112,1540002,,,,,,,2022-02-15,1,,,,,オオテマチコンサルティング,0
271,2011001145624,新規,0,2022-02-15,2022-02-15,株式会社Ｕｎｄｅｒｐａｒｋ,,株式会社,東京都,渋谷区,千駄ヶ谷１丁目１３番３号,,13,113,1510051,,,,,,,2022-02-15,1,,,,,アンダーパーク,0
272,2011001145657,新規,0,2022-02-15,2022-02-15,株式会社ｔｈｅ　ＢＯＹ,,株式会社,東京都,渋谷区,渋谷３丁目１０番１８－１３１０号パークハビオ渋谷,,13,113,1500002,,,,,,,2022-02-15,1,,,,,ザボーイ,0
274,2011003014174,新規,0,2022-02-15,2022-02-15,合同会社ビッグならしの,,合同会社,東京都,渋谷区,代々木２丁目１１番５－９０３号,,13,113,1510053,,,,,,,2022-02-15,1,,,,,ビッグナラシノ,0
275,2011003014182,新規,0,2022-02-15,2022-02-15,ランクインベストメント合同会社,,合同会社,東京都,渋谷区,道玄坂２丁目１５番１号,,13,113,1500043,,,,,,,2022-02-15,1,,,,,ランクインベストメント,0
278,2011201023613,新規,0,2022-02-15,2022-02-15,株式会社アルゴナビス,,株式会社,東京都,中野区,中央１丁目３８番１号,,13,114,1640011,,,,,,,2022-02-15,1,,,,,アルゴナビス,0
288,2012701016932,新規,0,2022-02-15,2022-02-15,株式会社トータルマネジメントサービス,,株式会社,東京都,東村山市,栄町２丁目３２番２３号,,13,213,1890013,,,,,,,2022-02-15,1,,,,,トータルマネジメントサービス,0
302,2020003021279,新規,0,2022-02-15,2022-02-15,ＣＴ合同会社,,合同会社,神奈川県,横浜市金沢区,西柴１丁目８－１２－１０６,,14,108,2360017,,,,,,,2022-02-15,1,,,,,シティ,0
305,2021001075168,新規,0,2022-02-15,2022-02-15,株式会社ＫＥＹ,,株式会社,神奈川県,逗子市,新宿２丁目２番１１－３０４号,,14,208,2490007,,,,,,,2022-02-15,1,,,,,ケーイーワイ,0
306,2021001075184,新規,0,2022-02-15,2022-02-15,株式会社Ｈａｒｍｏｎｙ　Ｔｒｕｓｔ,,株式会社,神奈川県,足柄下郡真鶴町,真鶴１６０４番地５レアージュ真鶴５０１号,,14,383,2590201,,,,,,,2022-02-15,1,,,,,ハーモニートラスト,0
307,2021003011402,新規,0,2022-02-15,2022-02-15,Ｏｃｅａｎ　Ｌｉｂｅｒｔａ合同会社,,合同会社,神奈川県,藤沢市,鵠沼海岸７丁目２０－２８シグナス湘南４０３,,14,205,2510037,,,,,,,2022-02-15,1,,,,,オーシャンリベルタ,0
316,2030001146606,新規,0,2022-02-15,2022-02-15,株式会社Ｋグローバル,,株式会社,埼玉県,本庄市,二丁目６番９号２Ｆ,,11,211,3670000,,,,,,,2022-02-15,1,,,,,ケイグローバル,0
317,2030001146787,新規,0,2022-02-15,2022-02-15,株式会社ＵＬＵ,,株式会社,埼玉県,越谷市,大字大竹５５０番地,,11,222,3430034,,,,,,,2022-02-15,1,,,,,ウル,0
318,2030001146804,新規,0,2022-02-15,2022-02-15,株式会社Ｐｅｔａｌｅ,,株式会社,埼玉県,日高市,大字南平沢１６０７番地３,,11,242,3501206,,,,,,,2022-02-15,1,,,,,ペタル,0
328,2040001122242,新規,0,2022-02-15,2022-02-15,創成プロジェクト株式会社,,株式会社,千葉県,木更津市,太田１丁目１２番２４号,,12,206,2920044,,,,,,,2022-02-15,1,,,,,ソウセイプロジェクト,0
335,2050001050632,新規,0,2022-02-15,2022-02-15,株式会社サワダ塗装,,株式会社,茨城県,古河市,大堤１９８３番地１６,,08,204,3060236,,,,,,,2022-02-15,1,,,,,サワダトソウ,0
339,2070001038948,新規,0,2022-02-15,2022-02-15,ＨＭＲ株式会社,,株式会社,群馬県,前橋市,駒形町８２１番地１８４ハイツリラ２０１,,10,201,3792122,,,,,,,2022-02-15,1,,,,,エイチエムアール,0
348,2100001035066,新規,0,2022-02-15,2022-02-15,株式会社ｎａｂｅ,,株式会社,長野県,松本市,元町３丁目３番１８号元町ハイツ３０２号室,,20,202,3900803,,,,,,,2022-02-15,1,,,,,ナベ,0
351,2110001036435,新規,0,2022-02-15,2022-02-15,株式会社ＩＧＣ,,株式会社,新潟県,胎内市,築地３４６０番地１,,15,227,9592712,,,,,,,2022-02-15,1,,,,,アイジーシー,0
358,2120001243815,新規,0,2022-02-15,2022-02-15,株式会社ＫＡＮ３,,株式会社,大阪府,大阪市北区,東天満１丁目１１番２号,,27,127,5300044,,,,,,,2022-02-15,1,,,,,カンスリー,0
359,2120001243848,新規,0,2022-02-15,2022-02-15,株式会社ＤＡＩ－ＩＣＨＩ　Ｅｓｔａｔｅ,,株式会社,大阪府,大阪市中央区,島之内１丁目２１番２３号大起興産長堀橋ビル６Ｆ,,27,128,5420082,,,,,,,2022-02-15,1,,,,,ダイイチエステート,0
361,2120003021137,新規,0,2022-02-15,2022-02-15,合資会社ハヤシ,,合資会社,大阪府,大阪市天王寺区,清水谷町１７番９号,,27,109,5430011,,,,,,,2022-02-15,1,,,,,ハヤシ,0
366,2120101065069,新規,0,2022-02-15,2022-02-15,株式会社テイクオーバー,,株式会社,大阪府,富田林市,須賀２丁目１２番５号,,27,214,5840062,,,,,,,2022-02-15,1,,,,,テイクオーバー,0
367,2120101065085,新規,0,2022-02-15,2022-02-15,株式会社エイチ・エヌ・シー,,株式会社,大阪府,堺市東区,野尻町１７９－３２,,27,143,5998116,,,,,,,2022-02-15,1,,,,,エイチエヌシー,0
371,2122001035580,新規,0,2022-02-15,2022-02-15,株式会社ヤサカサービス,,株式会社,大阪府,東大阪市,衣摺５丁目１番１号ＣＵＢＥ・ＳＰＡＣＥ衣摺Ｂ号,,27,227,5770827,,,,,,,2022-02-15,1,,,,,ヤサカサービス,0
372,2130003007746,新規,0,2022-02-15,2022-02-15,合同会社ＧＲＡＴＩＴＵＤＥ,,合同会社,京都府,京丹後市,丹後町間人４７０６,,26,212,6270201,,,,,,,2022-02-15,1,,,,,,0
373,2130005016381,新規,0,2022-02-15,2022-02-15,特定非営利活動法人凸凹革命,,その他の設立登記法人,京都府,京田辺市,河原御影３０番８号新田辺デパート２階サポーツ京田辺内,,26,211,6100361,,,,,,,2022-02-15,1,,,,,デコボコカクメイ,0
379,2140001124897,新規,0,2022-02-15,2022-02-15,タカラテック株式会社,,株式会社,兵庫県,尼崎市,南武庫之荘６丁目１４番１１号,,28,202,6610033,,,,,,,2022-02-15,1,,,,,タカラテック,0
381,2140003017356,新規,0,2022-02-15,2022-02-15,合同会社なおすけ,,合同会社,兵庫県,神戸市中央区,再度筋町２３番６－２０７号,,28,110,6500005,,,,,,,2022-02-15,1,,,,,ナオスケ,0
383,2160003002496,新規,0,2022-02-15,2022-02-15,合同会社セコイア,,合同会社,滋賀県,野洲市,野洲１０１２番地１,,25,210,5202342,,,,,,,2022-02-15,1,,,,,セコイア,0
399,2200001039742,新規,0,2022-02-15,2022-02-15,株式会社ＣＡＦ,,株式会社,岐阜県,可児市,中恵土２３３７番地１ファミリーエステートＡ－１,,21,214,5090202,,,,,,,2022-02-15,1,,,,,シーエーエフ,0
402,2240001059316,新規,0,2022-02-15,2022-02-15,株式会社小西企画,,株式会社,広島県,広島市安佐南区,東原１丁目１６番７－１００１号,,34,105,7310112,,,,,,,2022-02-15,1,,,,,コニシキカク,0
403,2240001059324,新規,0,2022-02-15,2022-02-15,株式会社Ｐｏｓｉ,,株式会社,広島県,廿日市市,阿品台５丁目１２番８号,,34,213,7380053,,,,,,,2022-02-15,1,,,,,ポジ,0
406,2250003003007,新規,0,2022-02-15,2022-02-15,スマイルライフ合同会社,,合同会社,山口県,宇部市,宮地町３番６６号,,35,202,7550071,,,,,,,2022-02-15,1,,,,,スマイルライフ,0
415,2290001096429,新規,0,2022-02-15,2022-02-15,株式会社ベアーテ,,株式会社,福岡県,福岡市博多区,博多駅前３丁目４－２５アクロスキューブ博多駅前,,40,132,8120011,,,,,,,2022-02-15,1,,,,,ベアーテ,0
416,2290001096437,新規,0,2022-02-15,2022-02-15,株式会社キュリオレ,,株式会社,福岡県,福岡市西区,愛宕１丁目１７番１２号ＰＬＥＡＳＴ愛宕ＩＩＩ３０２号,00125713,40,135,8190015,,,,,,,2022-02-15,1,,,,,キュリオレ,0
449,2390001016789,新規,0,2022-02-15,2022-02-15,株式会社ＲｅＢｏｏｔ,,株式会社,山形県,酒田市,みずほ２丁目１８番地の９,,06,204,9980853,,,,,,,2022-02-15,1,,,,,リブート,0
455,2430001085994,新規,0,2022-02-15,2022-02-15,株式会社アーバン・クリーク,,株式会社,北海道,札幌市中央区,北一条西２０丁目３番２６号岸本ビル３Ｆ,,01,101,0640821,,,,,,,2022-02-15,1,,,,,アーバンクリーク,0
462,2460001005652,新規,0,2022-02-15,2022-02-15,株式会社全匙プロジェクト,,株式会社,北海道,釧路市,山花十三線１２２番地,,01,206,0840928,,,,,,,2022-02-15,1,,,,,ゼンサジプロジェクト,0
476,3010001224544,新規,0,2022-02-15,2022-02-15,株式会社ＬＩＶＥＯ　ＣＯＭＭＥＲＣＥ,,株式会社,東京都,千代田区,飯田橋１丁目４番１号,,13,101,1020072,,,,,,,2022-02-15,1,,,,,リビオコマース,0
477,3010001224619,新規,0,2022-02-15,2022-02-15,株式会社ＣｏＣｏｎ,,株式会社,東京都,千代田区,神田佐久間町３丁目３８第５東ビル５階,,13,101,1010025,,,,,,,2022-02-15,1,,,,,ココン,0
488,3010403027090,新規,0,2022-02-15,2022-02-15,ＭＧＥＦ合同会社,,合同会社,東京都,港区,虎ノ門３丁目２２番１０－２０１号,,13,103,1050001,,,,,,,2022-02-15,1,,,,,エムジーイーエフ,0
489,3010405020671,新規,0,2022-02-15,2022-02-15,一般社団法人濱田レスベラトロール研究所,,その他の設立登記法人,東京都,港区,台場２丁目２－４,,13,103,1350091,,,,,,,2022-02-15,1,,,,,ハマダレスベラトロールケンキュウジョ,0
503,3010901050346,新規,0,2022-02-15,2022-02-15,株式会社ＬＵＫＳ,,株式会社,東京都,世田谷区,北烏山６丁目１１番３－３２４号,,13,112,1570061,,,,,,,2022-02-15,1,,,,,ルックス,0
504,3010901050354,新規,0,2022-02-15,2022-02-15,株式会社Ｅｆｔｒａ,,株式会社,東京都,世田谷区,玉川田園調布１丁目５番１２号アリシアガーデン１０２,,13,112,1580085,,,,,,,2022-02-15,1,,,,,エフトラ,0
508,3011001145730,新規,0,2022-02-15,2022-02-15,フォレストリート株式会社,,株式会社,東京都,渋谷区,神宮前２丁目２番３９－２００１号,,13,113,1500001,,,,,,,2022-02-15,1,,,,,フォレストリート,0
510,3011003014173,新規,0,2022-02-15,2022-02-15,合同会社スモールならしの,,合同会社,東京都,渋谷区,代々木２丁目１１番５－９０３号,,13,113,1510053,,,,,,,2022-02-15,1,,,,,スモールナラシノ,0
511,3011005009428,新規,0,2022-02-15,2022-02-15,一般社団法人Ｕｌｔｉｍａさいごのものがたり,,その他の設立登記法人,東京都,渋谷区,恵比寿２丁目２８番１０号ＳｈｕＢＬＤＧ２９１１,,13,113,1500013,,,,,,,2022-02-15,1,,,,,ウルティマサイゴノモノガタリ,0
529,3011603003526,新規,0,2022-02-15,2022-02-15,スプリットステップ合同会社,,合同会社,東京都,練馬区,富士見台２丁目４４番９号,,13,120,1770034,,,,,,,2022-02-15,1,,,,,スプリットステップ,0
537,3011801040313,新規,0,2022-02-15,2022-02-15,株式会社バーチャルオフィス１,,株式会社,東京都,足立区,千住東１丁目２５番７号,,13,121,1200025,,,,,,,2022-02-15,1,,,,,バーチャルオフィスワン,0
557,3020003021294,新規,0,2022-02-15,2022-02-15,合同会社あんどうソフト,,合同会社,神奈川県,川崎市麻生区,虹ケ丘２丁目３番４－８０１号,,14,137,2150015,,,,,,,2022-02-15,1,,,,,アンドウソフト,0
560,3021001075175,新規,0,2022-02-15,2022-02-15,株式会社賢琉サービス,,株式会社,神奈川県,相模原市南区,新戸５１９０番地５,,14,153,2520326,,,,,,,2022-02-15,1,,,,,ケンリュウサービス,0
571,3030001146786,新規,0,2022-02-15,2022-02-15,株式会社ＴＡＫＵＭＩ,,株式会社,埼玉県,幸手市,上高野１丁目１５番１２号,,11,240,3400155,,,,,,,2022-02-15,1,,,,,タクミ,0
572,3030001146803,新規,0,2022-02-15,2022-02-15,株式会社インフィニシア,,株式会社,埼玉県,川口市,芝西１丁目３－１２,,11,203,3330855,,,,,,,2022-02-15,1,,,,,インフィニシア,0
578,3030003018843,新規,0,2022-02-15,2022-02-15,合同会社資産設計,,合同会社,埼玉県,川口市,桜町４丁目４番６－２０４号,,11,203,3340001,,,,,,,2022-02-15,1,,,,,シサンセッケイ,0
584,3040001122200,新規,0,2022-02-15,2022-02-15,株式会社ＧＡＲＩＴＵＮＡ,,株式会社,千葉県,市川市,田尻９９３番１,,12,203,2720014,,,,,,,2022-02-15,1,,,,,ガリツナ,0
588,3050001050615,新規,0,2022-02-15,2022-02-15,山臣工業株式会社,,株式会社,茨城県,神栖市,知手中央６丁目７番１７号,,08,232,3140112,,,,,,,2022-02-15,1,,,,,ヤマシンコウギョウ,0
589,3050001050623,新規,0,2022-02-15,2022-02-15,株式会社うみおと,,株式会社,茨城県,坂東市,辺田９４４番地５,,08,228,3060632,,,,,,,2022-02-15,1,,,,,ウミオト,0
590,3050003006367,新規,0,2022-02-15,2022-02-15,合同会社Ｓｗｉｓｓｖｉｅｒ,,合同会社,茨城県,守谷市,松並青葉１丁目１番地５レーベン守谷ＴＨＥＢＲＩＤＧＥ４２７,,08,224,3020132,,,,,,,2022-02-15,1,,,,,スイスビア,0
591,3070001038947,新規,0,2022-02-15,2022-02-15,株式会社ソルーナ,,株式会社,群馬県,北群馬郡吉岡町,大字下野田１６１０番地６,,10,345,3703608,,,,,,,2022-02-15,1,,,,,ソルーナ,0
592,3080005007427,新規,0,2022-02-15,2022-02-15,セブン侍協同組合,,その他の設立登記法人,静岡県,静岡市葵区,人宿町１丁目４番地の６ＧＯＴＯビル３Ｂ,,22,101,4200037,,,,,,,2022-02-15,1,,,,,セブンサムライ,0
593,3080101023088,新規,0,2022-02-15,2022-02-15,株式会社セルフコミット,,株式会社,静岡県,富士市,今泉２丁目８番３３号エフグレイス４１・９０４号,,22,210,4170001,,,,,,,2022-02-15,1,,,,,セルフコミット,0
594,3080101023096,新規,0,2022-02-15,2022-02-15,株式会社クワッズ,,株式会社,静岡県,富士宮市,小泉２８８番地の１,,22,207,4180022,,,,,,,2022-02-15,1,,,,,クワッズ,0
599,3100001035065,新規,0,2022-02-15,2022-02-15,株式会社はじめのいち,,株式会社,長野県,松本市,大字神林１６７１番地２,,20,202,3901243,,,,,,,2022-02-15,1,,,,,ハジメノイチ,0
623,3120001243814,新規,0,2022-02-15,2022-02-15,株式会社ＵＭＣ,,株式会社,大阪府,大阪市中央区,平野町２丁目２－７北浜コンソール７０４号,,27,128,5410046,,,,,,,2022-02-15,1,,,,,ユーエムシー,0
624,3120001243839,新規,0,2022-02-15,2022-02-15,ＳＶ　ＣＡＰＩＴＡＬ株式会社,,株式会社,大阪府,大阪市天王寺区,四天王寺２丁目１番４４－６０４号,,27,109,5430051,,,,,,,2022-02-15,1,,,,,エスブイキャピタル,0
631,3120101065084,新規,0,2022-02-15,2022-02-15,株式会社ＡＲＩＳＥ,,株式会社,大阪府,堺市堺区,南島町１丁３６番地１３（６１１号）,,27,141,5900904,,,,,,,2022-02-15,1,,,,,アライズ,0
637,3120905006283,新規,0,2022-02-15,2022-02-15,一般社団法人トナリト,,その他の設立登記法人,大阪府,箕面市,箕面８丁目５番５９号,,27,220,5620001,,,,,,,2022-02-15,1,,,,,トナリト,0
638,3122003002248,新規,0,2022-02-15,2022-02-15,合同会社ＣＬＡＳＳＩＣＳ　ＴＵＢＥ,,合同会社,大阪府,八尾市,旭ケ丘３丁目１５－４,,27,212,5810833,,,,,,,2022-02-15,1,,,,,クラシックスチューブ,0
646,3130001071124,新規,0,2022-02-15,2022-02-15,ハリタコーポレーション株式会社,,株式会社,京都府,木津川市,城山台６丁目７番地１３,,26,214,6190218,,,,,,,2022-02-15,1,,,,,ハリタコーポレーション,0
657,3140005026040,新規,0,2022-02-15,2022-02-15,一般社団法人ＳＡＺＡＲＥ,,その他の設立登記法人,兵庫県,神戸市中央区,中山手通４丁目３－５－１３０５,,28,110,6500004,,,,,,,2022-02-15,1,,,,,サザレ,0
665,3180001149956,新規,0,2022-02-15,2022-02-15,株式会社ｋｉｉｔｏｓ,,株式会社,愛知県,名古屋市緑区,東神の倉２丁目１３１７番地（プレサージュＫ１０３号）,,23,114,4580808,,,,,,,2022-02-15,1,,,,,キートス,0
677,3190001029125,新規,0,2022-02-15,2022-02-15,海達貿易株式会社,,株式会社,三重県,津市,河芸町東千里９５５番地,,24,201,5100303,,,,,,,2022-02-15,1,,,,,カイタツボウエキ,0
688,3240001059331,新規,0,2022-02-15,2022-02-15,株式会社コアシステム,,株式会社,広島県,三次市,十日市南１丁目６番１５号,,34,209,7280014,,,,,,,2022-02-15,1,,,,,コアシステム,0
701,3290001096436,新規,0,2022-02-15,2022-02-15,ｌｉｅｎ　ｄｅｓｉｇｎ株式会社,,株式会社,福岡県,福岡市中央区,高砂２丁目１２番１３－１０２号,,40,133,8100011,,,,,,,2022-02-15,1,,,,,リアンデザイン,0
702,3290001096444,新規,0,2022-02-15,2022-02-15,株式会社創元,,株式会社,福岡県,久留米市,御井町１６９０番地４,,40,203,8390851,,,,,,,2022-02-15,1,,,,,ソウゲン,0
704,3290003012151,新規,0,2022-02-15,2022-02-15,ＹＮＴＥｎｇ合同会社,,合同会社,福岡県,宗像市,石丸２丁目７－７プレステージコオリナ１０２号,,40,220,8114147,,,,,,,2022-02-15,1,,,,,ワイエヌティエンジ,0
710,3340001024473,新規,0,2022-02-15,2022-02-15,株式会社うなぎ太郎,,株式会社,鹿児島県,曽於郡大崎町,永吉８３７１番地,,46,468,8997306,,,,,,,2022-02-15,1,,,,,ウナギタロウ,0
711,3340001024498,新規,0,2022-02-15,2022-02-15,住まいネット不動産株式会社,,株式会社,鹿児島県,鹿児島市,武３丁目７番８号,,46,201,8900045,,,,,,,2022-02-15,1,,,,,スマイネットフドウサン,0
718,3360001030008,新規,0,2022-02-15,2022-02-15,黄金環株式会社,,株式会社,沖縄県,中頭郡読谷村,字古堅４８６番地２,,47,324,9040314,,,,,,,2022-02-15,1,,,,,クガニカン,0
720,3370001048197,新規,0,2022-02-15,2022-02-15,株式会社スマイトホーム,,株式会社,宮城県,仙台市若林区,上飯田２丁目１７番５号,,04,103,9840838,,,,,,,2022-02-15,1,,,,,スマイトホーム,0
724,3380001032571,新規,0,2022-02-15,2022-02-15,丸銀株式会社,,株式会社,福島県,郡山市,大槻町字針生向１０－３金畑コーポ１－Ｃ号室,,07,203,9630201,,,,,,,2022-02-15,1,,,,,マルギン,0
726,3390001016788,新規,0,2022-02-15,2022-02-15,株式会社スズカゼファーマシー,,株式会社,山形県,米沢市,花沢町２６９５番地の１,,06,202,9920022,,,,,,,2022-02-15,1,,,,,スズカゼファーマシー,0
732,3420001017741,新規,0,2022-02-15,2022-02-15,株式会社ボディワーク,,株式会社,青森県,弘前市,大字安原２丁目９－７,,02,202,0368162,,,,,,,2022-02-15,1,,,,,ボディワーク,0
751,4010001224568,新規,0,2022-02-15,2022-02-15,株式会社Ｇａｋ,,株式会社,東京都,千代田区,東神田３丁目３－３クリオ東神田４０１,,13,101,1010031,,,,,,,2022-02-15,1,,,,,ガク,0
752,4010001224634,新規,0,2022-02-15,2022-02-15,エンバイロサイエンスジャパン株式会社,,株式会社,東京都,千代田区,丸の内１丁目６番５号,,13,101,1000005,,,,,,,2022-02-15,1,,,,,エンバイロサイエンスジャパン,0
754,4010003036994,新規,0,2022-02-15,2022-02-15,合同会社フィルインブランクス,,合同会社,東京都,千代田区,紀尾井町３－１９紀尾井町コートビル３階,,13,101,1020094,,,,,,,2022-02-15,1,,,,,フィルインブランクス,0
761,4010401165610,新規,0,2022-02-15,2022-02-15,株式会社デザインキャンプ,,株式会社,東京都,港区,北青山２丁目７番１３号青山アラマンダワークコート,,13,103,1070061,,,,,,,2022-02-15,1,,,,,デザインキャンプ,0
762,4010403027073,新規,0,2022-02-15,2022-02-15,グリーンエニシング合同会社,,合同会社,東京都,港区,南青山２丁目２番１５号ウィン青山９４２,,13,103,1070062,,,,,,,2022-02-15,1,,,,,グリーンエニシング,0
763,4010405020687,新規,0,2022-02-15,2022-02-15,一般社団法人海洋文化創造フォーラム,,その他の設立登記法人,東京都,港区,赤坂７丁目１０番９号赤坂伊藤ビル２階,,13,103,1070052,,,,,,,2022-02-15,1,,,,,カイヨウブンカソウゾウフォーラム,0
772,4010801032732,新規,0,2022-02-15,2022-02-15,ＳＯＡＲテック株式会社,,株式会社,東京都,大田区,西六郷３丁目２１番１３号,,13,111,1440056,,,,,,,2022-02-15,1,,,,,ソアーテック,0
773,4010803004060,新規,0,2022-02-15,2022-02-15,合同会社ためぞう,,合同会社,東京都,大田区,大森本町１丁目６番２－１１２０号,,13,111,1430011,,,,,,,2022-02-15,1,,,,,タメゾウ,0
776,4010901050345,新規,0,2022-02-15,2022-02-15,ｌｅ　ｂｒｏｃｏｌｉ株式会社,,株式会社,東京都,世田谷区,北沢４丁目１５番１３号,,13,112,1550031,,,,,,,2022-02-15,1,,,,,ルブロッコリ,0
777,4010901050353,新規,0,2022-02-15,2022-02-15,株式会社コバーズコンサルティング,,株式会社,東京都,世田谷区,赤堤２丁目２番地７号Ｇｒａｎｄｏｕ豪徳寺３０１,,13,112,1560044,,,,,,,2022-02-15,1,,,,,コバーズコンサルティング,0
785,4011001145498,新規,0,2022-02-15,2022-02-15,株式会社ｍｏｎｏｎｏｆｕ,,株式会社,東京都,渋谷区,恵比寿２丁目１６番６号ＦＬＥＧ恵比寿Ｗ７０１,,13,113,1500013,,,,,,,2022-02-15,1,,,,,モノノフ,0
786,4011001145572,新規,0,2022-02-15,2022-02-15,株式会社ゲームトレード,,株式会社,東京都,渋谷区,円山町３番６号Ｅ・スペースタワー６Ｆ西,,13,113,1500044,,,,,,,2022-02-15,1,,,,,ゲームトレード,0
787,4011001145688,新規,0,2022-02-15,2022-02-15,株式会社ＣｙｂｅｒＭｅｔａｖｅｒｓｅ　Ｐｒｏｄｕｃｔｉｏｎｓ,,株式会社,東京都,渋谷区,渋谷２丁目２４番１２号,,13,113,1500002,,,,,,,2022-02-15,1,,,,,サイバーメタバースプロダクションズ,0
791,4011101097805,新規,0,2022-02-15,2022-02-15,株式会社ＡＢＣ,,株式会社,東京都,新宿区,新宿２丁目２番１０号サニープラザ新宿御苑５０６,,13,104,1600022,,,,,,,2022-02-15,1,,,,,エービーシー,0
800,4011603003525,新規,0,2022-02-15,2022-02-15,アドバンストブルーイング合同会社,,合同会社,東京都,練馬区,上石神井２丁目４番９号,,13,120,1770044,,,,,,,2022-02-15,1,,,,,アドバンストブルーイング,0
802,4012301012883,新規,0,2022-02-15,2022-02-15,株式会社ａｐｄ,,株式会社,東京都,町田市,真光寺３丁目２８番地２０,,13,209,1950057,,,,,,,2022-02-15,1,,,,,エーピーディー,0
826,4020001145210,新規,0,2022-02-15,2022-02-15,株式会社ＬｉＬ,,株式会社,神奈川県,横浜市都筑区,見花山１番３０号見花山ビル３Ｆ,,14,118,2240066,,,,,,,2022-02-15,1,,,,,リル,0
827,4020001145219,新規,0,2022-02-15,2022-02-15,株式会社Ｄａｒｆｉｅｌｄ,,株式会社,神奈川県,横浜市神奈川区,泉町１５番地５,,14,102,2210842,,,,,,,2022-02-15,1,,,,,ダーフィールド,0
832,4021001075117,新規,0,2022-02-15,2022-02-15,株式会社ＡＲＴＩＳ,,株式会社,神奈川県,平塚市,豊田打間木５７６番地の６,,14,203,2540081,,,,,,,2022-02-15,1,,,,,アルティス,0
833,4021001075174,新規,0,2022-02-15,2022-02-15,ＦＴ株式会社,,株式会社,神奈川県,伊勢原市,桜台１丁目３５番１号,,14,214,2591132,,,,,,,2022-02-15,1,,,,,エフティ,0
834,4021001075182,新規,0,2022-02-15,2022-02-15,Ｒｏｌｌ’ｓ株式会社,,株式会社,神奈川県,茅ヶ崎市,赤松町１番１号,,14,207,2530013,,,,,,,2022-02-15,1,,,,,ロールズ,0
841,4030001146752,新規,0,2022-02-15,2022-02-15,株式会社ＳＯＵＳＥＩ,,株式会社,埼玉県,川口市,芝樋ノ爪２丁目１４－２,,11,203,3330852,,,,,,,2022-02-15,1,,,,,ソウセイ,0
842,4030001146802,新規,0,2022-02-15,2022-02-15,株式会社ｇｅｎｔｌｅｂｒｅｅｚｅ,,株式会社,埼玉県,所沢市,小手指町１丁目１８番地の１１,,11,208,3591141,,,,,,,2022-02-15,1,,,,,ジェントルブリーズ,0
843,4030001146810,新規,0,2022-02-15,2022-02-15,株式会社Ａｌｅｔｔａ　ｃｏｎｓｕｌｔｉｎｇ,,株式会社,埼玉県,川口市,大字大竹２３８番地の１トップヒルズ若宮１０５号,,11,203,3340067,,,,,,,2022-02-15,1,,,,,アレッタコンサルティング,0
846,4040001122216,新規,0,2022-02-15,2022-02-15,株式会社リーリエ,,株式会社,千葉県,柏市,あけぼの１丁目８番２０号エイム柏１１３号,,12,217,2770841,,,,,,,2022-02-15,1,,,,,リーリエ,0
857,4050001050614,新規,0,2022-02-15,2022-02-15,Ｎｅｏ　Ｅｎｇｌｉｓｈ株式会社,,株式会社,茨城県,龍ケ崎市,松葉３丁目５番地７,,08,208,3010043,,,,,,,2022-02-15,1,,,,,ネオイングリッシュ,0
864,4080001024755,新規,0,2022-02-15,2022-02-15,株式会社巧,,株式会社,静岡県,静岡市葵区,七間町１６番地の７ＯＭＡＣＨＩビル２階,,22,101,4200035,,,,,,,2022-02-15,1,,,,,タク,0
867,4080101023095,新規,0,2022-02-15,2022-02-15,株式会社誠章,,株式会社,静岡県,富士市,本市場新田６３番地の２１,,22,210,4160904,,,,,,,2022-02-15,1,,,,,セイショウ,0
868,4080403004470,新規,0,2022-02-15,2022-02-15,合同会社ＴｅＱ　ＫＩＤＥＲＡ,,合同会社,静岡県,浜松市中区,中央３丁目１５番３１－１５０４号,,22,131,4300929,,,,,,,2022-02-15,1,,,,,テックキデラ,0
880,4120001243813,新規,0,2022-02-15,2022-02-15,竹下産業株式会社,,株式会社,大阪府,大阪市福島区,福島６丁目１３番７号,,27,103,5530003,,,,,,,2022-02-15,1,,,,,タケシタサンギョウ,0
881,4120001243838,新規,0,2022-02-15,2022-02-15,株式会社ＬＩＢＡＮＣＥ,,株式会社,大阪府,大阪市北区,梅田１丁目１番３号２９階１－１－１号室,,27,127,5300001,,,,,,,2022-02-15,1,,,,,リバンス,0
882,4120001243846,新規,0,2022-02-15,2022-02-15,株式会社ＭＩＳＳ　ＣＬＡＹＺ,,株式会社,大阪府,大阪市西区,南堀江１丁目２０番１号ＮＸ南堀江ビル３階,,27,106,5500015,,,,,,,2022-02-15,1,,,,,ミスクレイジー,0
883,4120001243854,新規,0,2022-02-15,2022-02-15,株式会社笑話,,株式会社,大阪府,大阪市平野区,加美鞍作１丁目１番４０号,,27,126,5470004,,,,,,,2022-02-15,1,,,,,ショウワ,0
889,4120005022800,新規,0,2022-02-15,2022-02-15,一般社団法人トワイライト,,その他の設立登記法人,大阪府,大阪市北区,天神橋２丁目１番２１号,,27,127,5300041,,,,,,,2022-02-15,1,,,,,トワイライト,0
897,4120905006274,新規,0,2022-02-15,2022-02-15,医療法人光輝会,,その他の設立登記法人,大阪府,茨木市,西駅前町４番茨木駅前ビル２階,,27,211,5670032,,,,,,,2022-02-15,1,,,,,コウキカイ,0
924,4150001025333,新規,0,2022-02-15,2022-02-15,株式会社英,,株式会社,奈良県,北葛城郡広陵町,馬見北４丁目６番１８号,,29,426,6350831,,,,,,,2022-02-15,1,,,,,ハナブサ,0
928,4170001016974,新規,0,2022-02-15,2022-02-15,ＲＤＬ株式会社,,株式会社,和歌山県,和歌山市,湊北町２丁目４０シャルマンフジ湊北町弐番館３０２,,30,201,6408223,,,,,,,2022-02-15,1,,,,,アールディエル,0
932,4180001149947,新規,0,2022-02-15,2022-02-15,株式会社カラレム,,株式会社,愛知県,瀬戸市,塩草町１１３番地の１１（６－１－４）,,23,204,4890895,,,,,,,2022-02-15,1,,,,,カラレム,0
933,4180001149955,新規,0,2022-02-15,2022-02-15,株式会社弥祖蔵,,株式会社,愛知県,知多市,日長字城見坂７番地の５,,23,224,4780041,,,,,,,2022-02-15,1,,,,,ヤソクラ,0
936,4190003003903,新規,0,2022-02-15,2022-02-15,ＳＨＥＲＰＡ合同会社,,合同会社,三重県,松阪市,久保町２４９番地１,,24,204,5150044,,,,,,,2022-02-15,1,,,,,シェルパ,0
945,4230001019236,新規,0,2022-02-15,2022-02-15,株式会社ＮＯＭＵＲＡＹＡ,,株式会社,富山県,富山市,赤田７６３番地２,,16,201,9398064,,,,,,,2022-02-15,1,,,,,ノムラヤ,0
949,4240001059330,新規,0,2022-02-15,2022-02-15,株式会社新来,,株式会社,広島県,福山市,南松永町３丁目１番５２号,,34,207,7290105,,,,,,,2022-02-15,1,,,,,シンライ,0
951,4240003005497,新規,0,2022-02-15,2022-02-15,ベジタブル合同会社,,合同会社,広島県,福山市,三之丸町４番８－６０４号,,34,207,7200066,,,,,,,2022-02-15,1,,,,,ベジタブル,0
965,4290001096435,新規,0,2022-02-15,2022-02-15,株式会社ｇｏｏｄ　ｍｏｏｎ,,株式会社,福岡県,福岡市中央区,今泉１丁目１８番４７号コープ今泉３０３号,,40,133,8100021,,,,,,,2022-02-15,1,,,,,グッドムーン,0
966,4290001096443,新規,0,2022-02-15,2022-02-15,Ｔｕ　ａｎｄ　Ｍｉ株式会社,,株式会社,福岡県,那珂川市,道善１丁目１１０番地－１０３号,,40,231,8111254,,,,,,,2022-02-15,1,,,,,トゥーアンドミー,0
977,4340001024497,新規,0,2022-02-15,2022-02-15,株式会社鹿児島リサイクル,,株式会社,鹿児島県,南九州市,知覧町永里１４５３７番地,,46,223,8970303,,,,,,,2022-02-15,1,,,,,カゴシマリサイクル,0
979,4350001017582,新規,0,2022-02-15,2022-02-15,株式会社コンフリーサービス,,株式会社,宮崎県,都城市,志比田町５０２８番地１,,45,202,8850093,,,,,,,2022-02-15,1,,,,,コンフリーサービス,0
985,4370003005583,新規,0,2022-02-15,2022-02-15,合同会社Ｍ’ｓ　ｓｔｙｌｅ,,合同会社,宮城県,仙台市青葉区,昭和町５－２８ロイヤルオフィス北仙台５階,,04,101,9810913,,,,,,,2022-02-15,1,,,,,エムズスタイル,0
995,4420001017740,新規,0,2022-02-15,2022-02-15,昇和工業株式会社,,株式会社,青森県,八戸市,大字市川町字姥懐７番地１,,02,203,0392241,,,,,,,2022-02-15,1,,,,,ショウワコウギョウ,0
996,4420003002443,新規,0,2022-02-15,2022-02-15,佐々木設備合同会社,,合同会社,青森県,青森市,里見１丁目１番３３号,,02,201,0380032,,,,,,,2022-02-15,1,,,,,ササキセツビ,0
997,4430001085992,新規,0,2022-02-15,2022-02-15,株式会社ｆｕｉｍ,,株式会社,北海道,札幌市南区,澄川三条３丁目６番１－３０２号,,01,106,0050003,,,,,,,2022-02-15,1,,,,,フィーム,0
1009,5010001224567,新規,0,2022-02-15,2022-02-15,ランプハウス株式会社,,株式会社,東京都,中央区,日本橋堀留町２丁目６番２号,,13,102,1030012,,,,,,,2022-02-15,1,,,,,ランプハウス,0
1027,5010801032731,新規,0,2022-02-15,2022-02-15,真善美株式会社,,株式会社,東京都,大田区,仲池上１丁目２０番６号レジデンス西馬込６０３,,13,111,1460081,,,,,,,2022-02-15,1,,,,,シンゼンビ,0
1030,5010903007152,新規,0,2022-02-15,2022-02-15,Ｒｏｕｎｄａｂｏｕｔ合同会社,,合同会社,東京都,世田谷区,砧１丁目１７番２０－３０４号,,13,112,1570073,,,,,,,2022-02-15,1,,,,,ラウンドアバウト,0
1031,5010905004263,新規,0,2022-02-15,2022-02-15,特定非営利活動法人日本エーラス・ダンロス症候群協会,,その他の設立登記法人,東京都,世田谷区,弦巻２丁目１８番２０－１１２号,,13,112,1540016,,,,,,,2022-02-15,1,,,,,ニホンエーラスダンロスシヨウコウグンキヨウカイ,0
1038,5011003014155,新規,0,2022-02-15,2022-02-15,合同会社ｍｏｄｅ．,,合同会社,東京都,渋谷区,神宮前６丁目２３－４,,13,113,1500001,,,,,,,2022-02-15,1,,,,,モード,0
1042,5011103011465,新規,0,2022-02-15,2022-02-15,合同会社しし,,合同会社,東京都,新宿区,西新宿５丁目１７番１３号,,13,104,1600023,,,,,,,2022-02-15,1,,,,,,0
1047,5011403003567,新規,0,2022-02-15,2022-02-15,合同会社諾信コンサルティング,,合同会社,東京都,板橋区,前野町２丁目１６番１－１６０９号,,13,119,1740063,,,,,,,2022-02-15,1,,,,,ダクシンコンサルティング,0
1052,5012301012882,新規,0,2022-02-15,2022-02-15,フーン株式会社,,株式会社,東京都,町田市,南町田１丁目５番２５号サーティーフォー南町田ビル３０２号,,13,209,1940005,,,,,,,2022-02-15,1,,,,,フーン,0
1072,5021003011399,新規,0,2022-02-15,2022-02-15,合同会社Ｔ．Ｔ．Ｔ,,合同会社,神奈川県,平塚市,平塚４丁目３－１３ローズルミナス１０１号室,,14,203,2540052,,,,,,,2022-02-15,1,,,,,ティーティーティー,0
1093,5030003018718,新規,0,2022-02-15,2022-02-15,リデュライフ合同会社,,合同会社,埼玉県,上尾市,愛宕１丁目１７－１３カトレアハウスＩ３０１号室,00125709,11,219,3620034,,,,,,,2022-02-15,1,,,,,リデュライフ,0
1095,5040001122181,新規,0,2022-02-15,2022-02-15,株式会社大信,,株式会社,千葉県,千葉市若葉区,若松町２０６０番地１,,12,104,2640021,,,,,,,2022-02-15,1,,,,,ダイシン,0
1098,5040003019500,新規,0,2022-02-15,2022-02-15,合同会社ＩＮＡ,,合同会社,千葉県,船橋市,浜町２丁目３－１１－１１０８号,,12,204,2730012,,,,,,,2022-02-15,1,,,,,アイエヌエー,0
1116,5100001035063,新規,0,2022-02-15,2022-02-15,Ｃｕｒｒｅｎｔ株式会社,,株式会社,長野県,松本市,巾上五丁目４４番三河屋ビル２階,,20,202,3900817,,,,,,,2022-02-15,1,,,,,カレント,0
1118,5110001036432,新規,0,2022-02-15,2022-02-15,株式会社イマガワプロパティマネジメント,,株式会社,新潟県,上越市,大字安江１７番地５ベル・ブーケット１０３号,,15,222,9420041,,,,,,,2022-02-15,1,,,,,イマガワプロパティマネジメント,0
1119,5110001036440,新規,0,2022-02-15,2022-02-15,株式会社ミライ’Ｓ　Ｒ　Ｅｓｔａｔｅ,,株式会社,新潟県,長岡市,地蔵２丁目７番１６号,,15,202,9400031,,,,,,,2022-02-15,1,,,,,ミライズアールエステイト,0
1130,5120001243837,新規,0,2022-02-15,2022-02-15,株式会社結栄総建,,株式会社,大阪府,大阪市平野区,長吉六反３丁目６番２２号,,27,126,5470012,,,,,,,2022-02-15,1,,,,,ユウエイソウケン,0
1131,5120001243853,新規,0,2022-02-15,2022-02-15,Ｓ　ＤＩＶＩＳＩＯＮ　Ｃ５　ＭＥＤＩＣＡＬ株式会社,,株式会社,大阪府,大阪市北区,西天満４丁目５番２０号,,27,127,5300047,,,,,,,2022-02-15,1,,,,,エスディビジョンシーファイブメディカル,0
1133,5120003021134,新規,0,2022-02-15,2022-02-15,合同会社Ｃｏｍｐａｓｓｉｏｎ,,合同会社,大阪府,大阪市北区,天満橋１丁目２番３－６０６号,,27,127,5300042,,,,,,,2022-02-15,1,,,,,コンパッション,0
1150,5140001124903,新規,0,2022-02-15,2022-02-15,株式会社ｔｅｎｇｕｂｅｅ,,株式会社,兵庫県,西宮市,六湛寺町９番１０－５０２号,,28,204,6620918,,,,,,,2022-02-15,1,,,,,テングビー,0
1154,5150001025332,新規,0,2022-02-15,2022-02-15,株式会社エフアンドエフ,,株式会社,奈良県,橿原市,新賀町４０３番地,,29,205,6340006,,,,,,,2022-02-15,1,,,,,エフアンドエフ,0
1155,5160001023995,新規,0,2022-02-15,2022-02-15,株式会社ひまわり通商,,株式会社,滋賀県,大津市,西の庄１１番１５号,,25,201,5200818,,,,,,,2022-02-15,1,,,,,ヒマワリツウショウ,0
1159,5170001016973,新規,0,2022-02-15,2022-02-15,株式会社ＥＣＯ　ＴＥＣ,,株式会社,和歌山県,岩出市,中島６７５番地の２４,,30,209,6496245,,,,,,,2022-02-15,1,,,,,エコテック,0
1165,5180001149970,新規,0,2022-02-15,2022-02-15,株式会社ヒロデン,,株式会社,愛知県,一宮市,昭和２丁目１５番１号,,23,203,4910917,,,,,,,2022-02-15,1,,,,,ヒロデン,0
1168,5180003023496,新規,0,2022-02-15,2022-02-15,合同会社ＭＳＫ,,合同会社,愛知県,名古屋市東区,矢田東３番８号ラ・フォーレ矢田Ｎｏ．１、１０３号室,,23,102,4610044,,,,,,,2022-02-15,1,,,,,エムエスケー,0
1169,5180301035920,新規,0,2022-02-15,2022-02-15,株式会社ｔｏ　ＭＡ,,株式会社,愛知県,豊橋市,牟呂町字大塚５４番地ステラート大塚Ａ１０３,,23,201,4418087,,,,,,,2022-02-15,1,,,,,トゥエムエー,0
1174,5190001029123,新規,0,2022-02-15,2022-02-15,株式会社インクルーシブ,,株式会社,三重県,鈴鹿市,鈴鹿ハイツ８番３号,,24,207,5100208,,,,,,,2022-02-15,1,,,,,インクルーシブ,0
1176,5230001019235,新規,0,2022-02-15,2022-02-15,Ｂｅ　ｍｏｒｅ株式会社,,株式会社,富山県,高岡市,京田８３番地ＦＡＩＶＩＳビル１階,,16,202,9330874,,,,,,,2022-02-15,1,,,,,ビーモア,0
1196,5290001096434,新規,0,2022-02-15,2022-02-15,ＪａｐａｎＩｎｔｅｒｃｏｎｎｅｃｔｏｒ株式会社,,株式会社,福岡県,福岡市中央区,天神１丁目９番１７号福岡天神フコク生命ビル１５階,,40,133,8100001,,,,,,,2022-02-15,1,,,,,ジャパンインターコネクター,0
1197,5290001096442,新規,0,2022-02-15,2022-02-15,株式会社虹之風,,株式会社,福岡県,筑後市,大字高江７２０番地３,,40,211,8330052,,,,,,,2022-02-15,1,,,,,ニジノカゼ,0
1205,5350001017581,新規,0,2022-02-15,2022-02-15,株式会社ノボルブルーイング,,株式会社,宮崎県,宮崎市,山崎町井ノ添４７２番地３,,45,201,8800836,,,,,,,2022-02-15,1,,,,,ノボルブルーイング,0
1206,5360001029997,新規,0,2022-02-15,2022-02-15,Ｆ．Ｂ．Ｄ．Ａ．沖縄株式会社,,株式会社,沖縄県,沖縄市,比屋根２丁目１２番１０号,,47,211,9042173,,,,,,,2022-02-15,1,,,,,エフビーディーエーオキナワ,0
1208,5370003005582,新規,0,2022-02-15,2022-02-15,ｅルームジャパン合同会社,,合同会社,宮城県,仙台市若林区,卸町２丁目５番地の７,,04,103,9840015,,,,,,,2022-02-15,1,,,,,イールームジャパン,0
1211,5380003005103,新規,0,2022-02-15,2022-02-15,合同会社ＩＩＩＦ,,合同会社,福島県,郡山市,虎丸町８番１５号,,07,203,9638014,,,,,,,2022-02-15,1,,,,,スリーエフ,0
1225,5480003001793,新規,0,2022-02-15,2022-02-15,しのはらさん合同会社,,合同会社,徳島県,名西郡石井町,浦庄字諏訪１１１３番地９,,36,341,7793241,,,,,,,2022-02-15,1,,,,,シノハラサン,0
1229,5700150107040,新規,0,2022-02-15,2022-02-15,新宿区立江戸川小学校ＰＴＡ,,その他,東京都,新宿区,水道町１－２８,,13,104,1620811,,,,,,,2022-02-15,1,,,,,シンジュククリツエドガワショウガッコウピーティーエー,0
1236,6010001224500,新規,0,2022-02-15,2022-02-15,株式会社ＦＢＤホールディングス,,株式会社,東京都,中央区,銀座８丁目１０番６号,,13,102,1040061,,,,,,,2022-02-15,1,,,,,エフビーディーホールディングス,0
1250,6010405020702,新規,0,2022-02-15,2022-02-15,ＭＧＥＦ一般社団法人,,その他の設立登記法人,東京都,港区,虎ノ門３丁目２２番１０－２０１号,,13,103,1050001,,,,,,,2022-02-15,1,,,,,エムジーイーエフ,0
1254,6010801032722,新規,0,2022-02-15,2022-02-15,株式会社オーシャンスター２４,,株式会社,東京都,大田区,西蒲田７丁目９番５－９０３号,,13,111,1440051,,,,,,,2022-02-15,1,,,,,オーシャンスターニジュウヨン,0
1257,6010903007151,新規,0,2022-02-15,2022-02-15,ＢＬＵＥ　ＭＯＯＮ合同会社,,合同会社,東京都,世田谷区,千歳台３丁目２５番１２号パークアイランドＩＩ２０２,00125711,13,112,1570071,,,,,,,2022-02-15,1,,,,,ブルームーン,0
1264,6011001145595,新規,0,2022-02-15,2022-02-15,株式会社ＫＩＮＧＤＯＭ,,株式会社,東京都,渋谷区,渋谷２丁目１９－１５宮益坂ビルディング６０９,,13,113,1500002,,,,,,,2022-02-15,1,,,,,キングダム,0
1265,6011003014154,新規,0,2022-02-15,2022-02-15,合同会社夢千華,,合同会社,東京都,目黒区,中町２丁目４８番７－２１２号,,13,110,1530065,,,,,,,2022-02-15,1,,,,,ユメセンカ,0
1266,6011003014162,新規,0,2022-02-15,2022-02-15,ｈｏｌｔ合同会社,,合同会社,東京都,渋谷区,渋谷２丁目１９－１５宮益坂ビルディング６０９,,13,113,1500002,,,,,,,2022-02-15,1,,,,,ホルト,0
1274,6011103011472,新規,0,2022-02-15,2022-02-15,ＦＡＥ４合同会社,,合同会社,東京都,新宿区,西新宿１丁目２０番３号,,13,104,1600023,,,,,,,2022-02-15,1,,,,,エフエイイーフォー,0
1279,6011703003068,新規,0,2022-02-15,2022-02-15,合同会社江戸川総業,,合同会社,東京都,江戸川区,西篠崎２丁目１０番１３号,,13,123,1330055,,,,,,,2022-02-15,1,,,,,エドガワソウギョウ,0
1280,6011801040335,新規,0,2022-02-15,2022-02-15,株式会社エミネス,,株式会社,東京都,葛飾区,東金町７丁目３７番５号,,13,122,1250041,,,,,,,2022-02-15,1,,,,,エミネス,0
1283,6012401038851,新規,0,2022-02-15,2022-02-15,株式会社ジラフ,,株式会社,東京都,多摩市,関戸２丁目６４番地の６,,13,224,2060011,,,,,,,2022-02-15,1,,,,,ジラフ,0
1284,6012403005239,新規,0,2022-02-15,2022-02-15,合同会社ベレーザナチュラル,,合同会社,東京都,府中市,清水が丘１丁目３－９－７０８,,13,206,1830015,,,,,,,2022-02-15,1,,,,,ベレーザナチュラル,0
1294,6020001145217,新規,0,2022-02-15,2022-02-15,ペイラボジャパン株式会社,,株式会社,神奈川県,横浜市西区,高島２丁目１１番２号スカイメナー横浜５１９,,14,103,2200011,,,,,,,2022-02-15,1,,,,,ペイラボジャパン,0
1304,6021001075148,新規,0,2022-02-15,2022-02-15,株式会社建和,,株式会社,神奈川県,伊勢原市,桜台２丁目２５番１８号,,14,214,2591132,,,,,,,2022-02-15,1,,,,,ケンワ,0
1305,6021001075172,新規,0,2022-02-15,2022-02-15,ＭＥＺＵＲＡＳＨＩ　ＮＩＰＰＯＮ　ＡＵＴＯ株式会社,,株式会社,神奈川県,愛甲郡愛川町,三増９５９番地１,,14,401,2430308,,,,,,,2022-02-15,1,,,,,メズラシニッポンオート,0
1309,6021003011381,新規,0,2022-02-15,2022-02-15,つばさ産業医事務所合同会社,,合同会社,神奈川県,海老名市,中央１丁目１６番３１号Ａ＆ＮＩビルビズコンフォート海老名１号室,,14,215,2430432,,,,,,,2022-02-15,1,,,,,ツバササンギョウイジムショ,0
1314,6030001146775,新規,0,2022-02-15,2022-02-15,株式会社ＡＳＵＥＴ,,株式会社,埼玉県,さいたま市南区,根岸５丁目２２番１－１１０３号,,11,108,3360024,,,,,,,2022-02-15,1,,,,,アスエット,0
1315,6030001146800,新規,0,2022-02-15,2022-02-15,株式会社スカイメンテ,,株式会社,埼玉県,行田市,宮本１１－２１－２０３,,11,206,3610072,,,,,,,2022-02-15,1,,,,,スカイメンテ,0
1324,6040003019499,新規,0,2022-02-15,2022-02-15,イージーゴーイング合同会社,,合同会社,千葉県,市川市,関ケ島７番２１号,,12,203,2720105,,,,,,,2022-02-15,1,,,,,イージーゴーイング,0
1325,6050001050595,新規,0,2022-02-15,2022-02-15,株式会社華栄,,株式会社,茨城県,守谷市,松前台２丁目１番地２,,08,224,3020102,,,,,,,2022-02-15,1,,,,,カエイ,0
1326,6050001050612,新規,0,2022-02-15,2022-02-15,株式会社波崎ハイミール,,株式会社,茨城県,神栖市,波崎６０９５番地３４,,08,232,3140408,,,,,,,2022-02-15,1,,,,,ハサキハイミール,0
1327,6050001050637,新規,0,2022-02-15,2022-02-15,アイミ不動産株式会社,,株式会社,茨城県,水戸市,大塚町１５０３番地の３オフィス８２、２Ｆ－２,,08,201,3114143,,,,,,,2022-02-15,1,,,,,アイミフドウサン,0
1333,6070001038944,新規,0,2022-02-15,2022-02-15,株式会社Ｄｏ－Ｄｒｅａｍ,,株式会社,群馬県,高崎市,棟高町６１番地１,,10,202,3703521,,,,,,,2022-02-15,1,,,,,ドゥドリーム,0
1334,6080001024753,新規,0,2022-02-15,2022-02-15,株式会社Ｂｉｚ　Ｃａｒｅ,,株式会社,静岡県,静岡市葵区,西草深町３４番１８号,,22,101,4200866,,,,,,,2022-02-15,1,,,,,ビズケア,0
1337,6080003002732,新規,0,2022-02-15,2022-02-15,エヌ合同会社,,合同会社,静岡県,静岡市駿河区,中村町８９番地,,22,102,4228047,,,,,,,2022-02-15,1,,,,,エヌ,0
1338,6080103002525,新規,0,2022-02-15,2022-02-15,プリンセスメイク合同会社,,合同会社,静岡県,沼津市,白銀町２‐１６メゾングランツ白銀,,22,203,4100805,,,,,,,2022-02-15,1,,,,,プリンセスメイク,0
1347,6110003004700,新規,0,2022-02-15,2022-02-15,合同会社カードショップＸｒｏｓｓ,,合同会社,新潟県,長岡市,台町１丁目６番１２号,,15,202,9400048,,,,,,,2022-02-15,1,,,,,カードショップクロス,0
1359,6120001243844,新規,0,2022-02-15,2022-02-15,株式会社ＫｅＹ　Ｇｒｏｕｐ,,株式会社,大阪府,門真市,沖町１８番８号,,27,223,5710022,,,,,,,2022-02-15,1,,,,,キーグループ,0
1364,6120003021117,新規,0,2022-02-15,2022-02-15,合同会社クリエイトＪＶＧ,,合同会社,大阪府,大阪市中央区,大手通１丁目１－１３－５Ｆ,,27,128,5400021,,,,,,,2022-02-15,1,,,,,クリエイトジェイヴィジー,0
1365,6120003021141,新規,0,2022-02-15,2022-02-15,合同会社サンセリテ,,合同会社,大阪府,大阪市西成区,岸里２丁目１１番３－２０７号,,27,122,5570041,,,,,,,2022-02-15,1,,,,,サンセリテ,0
1370,6120103004574,新規,0,2022-02-15,2022-02-15,合同会社ＴＥＡＭ　ＴＯＢＡ,,合同会社,大阪府,富田林市,寺池台１丁目１２番１６号,,27,214,5840073,,,,,,,2022-02-15,1,,,,,チームトバ,0
1374,6122001035577,新規,0,2022-02-15,2022-02-15,Ｆ．Ａｓｓｉｓｔ株式会社,,株式会社,大阪府,大東市,新田境町７番４５号,,27,218,5740051,,,,,,,2022-02-15,1,,,,,エフアシスト,0
1384,6130003007750,新規,0,2022-02-15,2022-02-15,京都福籠パートナーズ合同会社,,合同会社,京都府,京都市西京区,大原野東竹の里町２丁目１番地１６棟４０７号,,26,111,6101144,,,,,,,2022-02-15,1,,,,,キョウトフクロウパートナーズ,0
1388,6140003017352,新規,0,2022-02-15,2022-02-15,合同会社フェリーチェ,,合同会社,兵庫県,芦屋市,南宮町５番７－１０２号,,28,206,6590024,,,,,,,2022-02-15,1,,,,,フェリーチェ,0
1391,6170001016972,新規,0,2022-02-15,2022-02-15,株式会社ＡＶＡＮＴ　ＧＡＲＤＥ,,株式会社,和歌山県,和歌山市,小松原通１丁目５番地１人形会館１０１,,30,201,6408269,,,,,,,2022-02-15,1,,,,,アヴァンガード,0
1393,6180003023495,新規,0,2022-02-15,2022-02-15,合同会社ＡｃｕｔｏＥｌｅｎｏｒａ,,合同会社,愛知県,小牧市,久保本町３３番地１３,,23,219,4850005,,,,,,,2022-02-15,1,,,,,アクートエレノア,0
1396,6190003003901,新規,0,2022-02-15,2022-02-15,ＬＡＥＤＤ合同会社,,合同会社,三重県,南牟婁郡御浜町,大字阿田和５２７２番地２,,24,561,5195204,,,,,,,2022-02-15,1,,,,,リード,0
1399,6210001018816,新規,0,2022-02-15,2022-02-15,株式会社ここいーよ,,株式会社,福井県,鯖江市,つつじケ丘町６番１号,,18,207,9160011,,,,,,,2022-02-15,1,,,,,ココイーヨ,0
1409,6270001008456,新規,0,2022-02-15,2022-02-15,株式会社鳥取みらい電力,,株式会社,鳥取県,東伯郡北栄町,田井６５１番地１,,31,372,6892103,,,,,,,2022-02-15,1,,,,,トットリミライデンリョク,0
1416,6290001096441,新規,0,2022-02-15,2022-02-15,ＳＴＡＲ株式会社,,株式会社,福岡県,福岡市東区,多の津４丁目７番２３号,,40,131,8130034,,,,,,,2022-02-15,1,,,,,スター,0
1418,6290003012149,新規,0,2022-02-15,2022-02-15,合同会社さち,,合同会社,福岡県,飯塚市,楽市２２９,,40,205,8200074,,,,,,,2022-02-15,1,,,,,サチ,0
1425,6320003003730,新規,0,2022-02-15,2022-02-15,合同会社さくら,,合同会社,大分県,由布市,庄内町五ケ瀬５０５番地の５,,44,213,8795412,,,,,,,2022-02-15,1,,,,,サクラ,0
1427,6330001029446,新規,0,2022-02-15,2022-02-15,株式会社マルジュン配送ＪＵＮ・ＧＵＲＩ,,株式会社,熊本県,人吉市,七地町１００２番地１,,43,203,8680041,,,,,,,2022-02-15,1,,,,,マルジュンハイソウジュングリ,0
1441,6370001048203,新規,0,2022-02-15,2022-02-15,株式会社仙台交通大学校,,株式会社,宮城県,仙台市泉区,松森字台９３番地３０,,04,105,9813111,,,,,,,2022-02-15,1,,,,,センダイコウツウダイガクコウ,0
1442,6370001048211,新規,0,2022-02-15,2022-02-15,ＧＬＯＲＹ株式会社,,株式会社,宮城県,仙台市青葉区,花京院２丁目１番６１号２０４号,,04,101,9800013,,,,,,,2022-02-15,1,,,,,グローリー,0
1452,6430001085990,新規,0,2022-02-15,2022-02-15,株式会社ＴＡＳＫ　ＪＡＭ,,株式会社,北海道,札幌市西区,二十四軒三条４丁目１番２５－３０３号,,01,107,0630803,,,,,,,2022-02-15,1,,,,,タスクジャム,0
1453,6430001085999,新規,0,2022-02-15,2022-02-15,ローズテニスクラブ札幌株式会社,,株式会社,北海道,札幌市豊平区,平岸七条１６丁目３番３９号,,01,105,0620937,,,,,,,2022-02-15,1,,,,,ローズテニスクラブサッポロ,0
1466,6500003002771,新規,0,2022-02-15,2022-02-15,Ｋ．Ｉ．Ｋ商事合同会社,,合同会社,愛媛県,今治市,南高下町２丁目２番５５号,,38,202,7940811,,,,,,,2022-02-15,1,,,,,ケーアイケーショウジ,0
1467,6700150107097,新規,0,2022-02-15,2022-02-15,ジェイ・サイラム・トレダー＆サプライヤー・プライベート・リミテド,,外国会社等,東京都,八王子市,子安町２丁目１３番６号プライムビル２０１号,,13,201,1920904,ネパール連邦民主共和国カトマンズ市シタパイラ第４区,,,,,,2022-02-15,1,,,,,ジエイサイラムトレダーアンドサプライヤープライベートリミテド,0
1481,7010001224581,新規,0,2022-02-15,2022-02-15,株式会社士野,,株式会社,東京都,中央区,日本橋小舟町１番１０号,,13,102,1030024,,,,,,,2022-02-15,1,,,,,シノ,0
1505,7010901050350,新規,0,2022-02-15,2022-02-15,Ｂｕｎｇｅｅ株式会社,,株式会社,東京都,世田谷区,下馬６丁目４４番２０号,,13,112,1540002,,,,,,,2022-02-15,1,,,,,バンジー,0
1506,7010903007150,新規,0,2022-02-15,2022-02-15,合同会社Ｍｏｔｏ’ｓ,,合同会社,東京都,世田谷区,深沢７丁目２番１４号シャンピアグランデ深沢３１７号室,,13,112,1580081,,,,,,,2022-02-15,1,,,,,モトズ,0
1511,7011001145611,新規,0,2022-02-15,2022-02-15,株式会社ＪＦエージェンシー,,株式会社,東京都,渋谷区,渋谷２丁目１９－１５宮益坂ビルディング６０９,,13,113,1500002,,,,,,,2022-02-15,1,,,,,ジェイエフエージェンシー,0
1512,7011001145636,新規,0,2022-02-15,2022-02-15,株式会社グローカルエージェンシー,,株式会社,東京都,渋谷区,東１丁目２４番８号常磐松７２ビル１階,,13,113,1500011,,,,,,,2022-02-15,1,,,,,グローカルエージェンシー,0
1516,7011101097810,新規,0,2022-02-15,2022-02-15,ＤＯＶＶＩＯ株式会社,,株式会社,東京都,新宿区,新宿２丁目１３番１１ライオンズマンション新宿御苑前第２棟７階７０２号室,,13,104,1600022,,,,,,,2022-02-15,1,,,,,ドッウィオ,0
1517,7011103011471,新規,0,2022-02-15,2022-02-15,ＦＡＥ３合同会社,,合同会社,東京都,新宿区,西新宿１丁目２０番３号,,13,104,1600023,,,,,,,2022-02-15,1,,,,,エフエイイースリー,0
1522,7011703003067,新規,0,2022-02-15,2022-02-15,合同会社学,,合同会社,東京都,江戸川区,松江６丁目４－１８シャトーフローラル２０２,,13,123,1320025,,,,,,,2022-02-15,1,,,,,マナブ,0
1528,7012701016928,新規,0,2022-02-15,2022-02-15,Ｅｄｉｆｉｅｒ　Ｊａｐａｎ株式会社,,株式会社,東京都,小平市,上水南町１丁目３１番４７－１１号,,13,211,1870021,,,,,,,2022-02-15,1,,,,,エディファイアジャパン,0
1529,7012803002702,新規,0,2022-02-15,2022-02-15,ＴＢＧａｔＫ合同会社,,合同会社,東京都,日野市,旭が丘５丁目１２－１５,,13,212,1910065,,,,,,,2022-02-15,1,,,,,ティービージーエーティーケー,0
1536,7020001145216,新規,0,2022-02-15,2022-02-15,株式会社Ｋフードサービス,,株式会社,神奈川県,横浜市中区,長者町９丁目１７４番地第５吉田ビル３０１,,14,104,2310033,,,,,,,2022-02-15,1,,,,,ケイフードサービス,0
1539,7020003021299,新規,0,2022-02-15,2022-02-15,合同会社青葉興産,,合同会社,神奈川県,横浜市都筑区,牛久保２丁目２２－１１,,14,118,2240012,,,,,,,2022-02-15,1,,,,,アオバコウサン,0
1545,7030001146766,新規,0,2022-02-15,2022-02-15,株式会社西野建設,,株式会社,埼玉県,吉川市,吉川団地２－２－３０３,,11,243,3420054,,,,,,,2022-02-15,1,,,,,ニシノケンセツ,0
1546,7030001146808,新規,0,2022-02-15,2022-02-15,株式会社エスエフワン,,株式会社,埼玉県,和光市,新倉１丁目１９番７号ハートフォード２０６,,11,229,3510115,,,,,,,2022-02-15,1,,,,,エスエフワン,0
1548,7030003018823,新規,0,2022-02-15,2022-02-15,合同会社ＳＥＮＳＥＩＴＩＯＮＡＬ,,合同会社,埼玉県,川越市,大字古市場７１７－１２,,11,201,3500014,,,,,,,2022-02-15,1,,,,,センセイショナル,0
1549,7030003018848,新規,0,2022-02-15,2022-02-15,合同会社Ｍ＆Ａ,,合同会社,埼玉県,川口市,前川３丁目２５番２６号スマートテラスＩ１０５号室,00125707,11,203,3330842,,,,,,,2022-02-15,1,,,,,エムアンドエー,0
1565,7080003002731,新規,0,2022-02-15,2022-02-15,Ｍｏｒｅ　Ｗａｙｓ合同会社,,合同会社,静岡県,静岡市清水区,八坂南町２番１号,,22,103,4240026,,,,,,,2022-02-15,1,,,,,モーウェィズ,0
1568,7080103002524,新規,0,2022-02-15,2022-02-15,合同会社Ｗａｒｍｔｈ,,合同会社,静岡県,賀茂郡松崎町,松崎４３７,,22,305,4103611,,,,,,,2022-02-15,1,,,,,ウォームス,0
1572,7090001017409,新規,0,2022-02-15,2022-02-15,ａｎｄ　ｍｏｕｎｔ株式会社,,株式会社,山梨県,南アルプス市,荊沢８５４－１,,19,208,4000422,,,,,,,2022-02-15,1,,,,,アンドマウント,0
1586,7120001243827,新規,0,2022-02-15,2022-02-15,株式会社ＳＰＡＣＥ,,株式会社,大阪府,枚方市,山之上北町６０番１－９２０号,,27,210,5730049,,,,,,,2022-02-15,1,,,,,スペース,0
1590,7120003021132,新規,0,2022-02-15,2022-02-15,合同会社ＴＭＲ,,合同会社,大阪府,大阪市西淀川区,出来島２丁目７番６号,,27,113,5550031,,,,,,,2022-02-15,1,,,,,ティエムアール,0
1591,7120003021140,新規,0,2022-02-15,2022-02-15,大地合同会社,,合同会社,大阪府,大阪市旭区,大宮４丁目１１番地７号コスモシティー千林大宮７０２,,27,117,5350002,,,,,,,2022-02-15,1,,,,,ダイチ,0
1595,7120101065072,新規,0,2022-02-15,2022-02-15,ＫＡＮＳＡＩ　ＴＲＡＤＩＮＧ株式会社,,株式会社,大阪府,岸和田市,土生町２丁目２６－１１・２階,,27,202,5960825,,,,,,,2022-02-15,1,,,,,カンサイトレーディング,0
1612,7140001124901,新規,0,2022-02-15,2022-02-15,株式会社しおやナーシング,,株式会社,兵庫県,神戸市垂水区,塩屋町１丁目１番１８－２０２号,,28,108,6550872,,,,,,,2022-02-15,1,,,,,シオヤナーシング,0
1616,7140003017343,新規,0,2022-02-15,2022-02-15,合同会社ライトワーク,,合同会社,兵庫県,神戸市中央区,加納町４丁目９－２２レガーロプラス４０２,,28,110,6500001,,,,,,,2022-02-15,1,,,,,ライトワーク,0
1625,7180001149969,新規,0,2022-02-15,2022-02-15,株式会社ＡＬＩＦＥ,,株式会社,愛知県,名古屋市中区,栄２丁目１６番５号（ルシェット白川公園１２０５号）,,23,106,4600008,,,,,,,2022-02-15,1,,,,,エーライフ,0
1631,7180303005250,新規,0,2022-02-15,2022-02-15,合同会社リッカイ,,合同会社,愛知県,刈谷市,池田町４丁目６２５番地１,,23,210,4480044,,,,,,,2022-02-15,1,,,,,リッカイ,0
1632,7200003005457,新規,0,2022-02-15,2022-02-15,アースエニシング合同会社,,合同会社,岐阜県,岐阜市,北一色９丁目５番１２－３０５号,,21,201,5008227,,,,,,,2022-02-15,1,,,,,アースエニシング,0
1633,7210001018815,新規,0,2022-02-15,2022-02-15,株式会社ＡＲＴ　ＡＧＥ　ｔｒａｎｓｐｏｒｔ,,株式会社,福井県,坂井市,坂井町下新庄第１６号８番地,,18,210,9190521,,,,,,,2022-02-15,1,,,,,アートエイジトランスポート,0
1639,7240001059328,新規,0,2022-02-15,2022-02-15,株式会社クリスタルジャパン,,株式会社,広島県,東広島市,西条昭和町４番２１号,,34,212,7390014,,,,,,,2022-02-15,1,,,,,クリスタルジャパン,0
1641,7240003005503,新規,0,2022-02-15,2022-02-15,合同会社ＡＧＥＫＡ,,合同会社,広島県,府中市,広谷町１０２２番地６,,34,208,7260011,,,,,,,2022-02-15,1,,,,,アゲカ,0
1649,7260003003802,新規,0,2022-02-15,2022-02-15,合同会社トビガスマル,,合同会社,岡山県,新見市,正田３０８番地,,33,210,7180013,,,,,,,2022-02-15,1,,,,,トビガスマル,0
1658,7290003012156,新規,0,2022-02-15,2022-02-15,Ｊコーポレーション合同会社,,合同会社,福岡県,福岡市博多区,堅粕１丁目１番６号（６－８）,,40,132,8120043,,,,,,,2022-02-15,1,,,,,ジェイコーポレーション,0
1664,7290803004063,新規,0,2022-02-15,2022-02-15,合同会社ｕｎｕｎｉｑｕｅ,,合同会社,福岡県,北九州市八幡西区,泉ケ浦２丁目１４番地１１号,,40,109,8070854,,,,,,,2022-02-15,1,,,,,アンユニーク,0
1670,7300001012809,新規,0,2022-02-15,2022-02-15,ネクステック株式会社,,株式会社,佐賀県,三養基郡みやき町,大字白壁２８７２番地,,41,346,8490111,,,,,,,2022-02-15,1,,,,,ネクステック,0
1673,7310003004274,新規,0,2022-02-15,2022-02-15,合同会社優美武,,合同会社,長崎県,大村市,宮小路３丁目１９４６番地６,,42,205,8560807,,,,,,,2022-02-15,1,,,,,ユミタケ,0
1675,7330001029445,新規,0,2022-02-15,2022-02-15,株式会社Ｓ－ＢＲＡＩＮ,,株式会社,熊本県,熊本市中央区,坪井１丁目２番２７号,,43,101,8600863,,,,,,,2022-02-15,1,,,,,エスブレイン,0
1680,7360001029954,新規,0,2022-02-15,2022-02-15,株式会社カカカカンパニー,,株式会社,沖縄県,中頭郡西原町,上原１丁目２６番地の６（サニーヒル１０５号）,,47,329,9030125,,,,,,,2022-02-15,1,,,,,カカカカンパニー,0
1683,7380003005101,新規,0,2022-02-15,2022-02-15,合同会社七浜開発,,合同会社,福島県,いわき市,常磐湯本町天神７番地の９,,07,204,9728321,,,,,,,2022-02-15,1,,,,,ナナハマカイハツ,0
1688,7420001017738,新規,0,2022-02-15,2022-02-15,株式会社柊,,株式会社,青森県,弘前市,大字城東中央５丁目４番地１３,,02,202,0368093,,,,,,,2022-02-15,1,,,,,ヒイラギ,0
1696,7430003013627,新規,0,2022-02-15,2022-02-15,合同会社Ｍ・Ｍ・Ｙ,,合同会社,北海道,札幌市豊平区,旭町５丁目４番１２号,,01,105,0620911,,,,,,,2022-02-15,1,,,,,エムエムワイ,0
1704,7470001018970,新規,0,2022-02-15,2022-02-15,株式会社ＮＥＸ,,株式会社,香川県,高松市,仏生山町甲１９８９番地７,,37,201,7618078,,,,,,,2022-02-15,1,,,,,ネクス,0
1705,7470003002130,新規,0,2022-02-15,2022-02-15,合同会社ととまる,,合同会社,香川県,高松市,香川町川東下６５３番地３,,37,201,7611705,,,,,,,2022-02-15,1,,,,,トトマル,0
1706,7480003001791,新規,0,2022-02-15,2022-02-15,合同会社ノーラフォックス,,合同会社,徳島県,那賀郡那賀町,百合字松の木２３２－１２別荘四季の里,,36,368,7715206,,,,,,,2022-02-15,1,,,,,ノーラフォックス,0
1709,7500003002770,新規,0,2022-02-15,2022-02-15,合同会社ＹＮＩ,,合同会社,愛媛県,松山市,湯の山東１丁目３番地２,,38,201,7910120,,,,,,,2022-02-15,1,,,,,ワイエヌアイ,0
1712,7700150107096,新規,0,2022-02-15,2022-02-15,Ｔｒｕｓｔａｒ　Ｃａｐｉｔａｌ　Ｐａｒｔｎｅｒｓ　Ｊａｐａｎ　Ｌｉｍｉｔｅｄ,,外国会社等,東京都,千代田区,平河町２丁目１６番１号平河町森タワ－１０階,,13,101,1020093,英領西インド諸島、ケイマン諸島、グランドケイマン、ジョージタウン、エルジン・アベニュー１９０、ウォーカーズ・コーポレート・リミテッド,,,,,,2022-02-15,1,,,,,トラスターキヤピタルパートナーズジヤパンリミテツド,0
1720,8010001224531,新規,0,2022-02-15,2022-02-15,ＴＡＳＫ株式会社,,株式会社,東京都,千代田区,九段南１丁目５－６りそな九段ビル５ＦＫＳフロア,,13,101,1020074,,,,,,,2022-02-15,1,,,,,タスク,0
1721,8010001224564,新規,0,2022-02-15,2022-02-15,ＥＹプロフェッショナルサポート株式会社,,株式会社,東京都,千代田区,有楽町１丁目１番２号,,13,101,1000006,,,,,,,2022-02-15,1,,,,,イーワイプロフェッショナルサポート,0
1722,8010001224597,新規,0,2022-02-15,2022-02-15,株式会社ワンズ,,株式会社,東京都,中央区,勝どき６丁目３番２－４２０７号,,13,102,1040054,,,,,,,2022-02-15,1,,,,,ワンズ,0
1723,8010003036990,新規,0,2022-02-15,2022-02-15,エンターバース合同会社,,合同会社,東京都,千代田区,二番町５番地２麹町駅プラザ９０１,,13,101,1020084,,,,,,,2022-02-15,1,,,,,エンターバース,0
1724,8010003037023,新規,0,2022-02-15,2022-02-15,合同会社スタンダードリンク,,合同会社,東京都,千代田区,外神田３丁目６－４第一勧業信用組合秋葉原ビル５Ｆ,,13,101,1010021,,,,,,,2022-02-15,1,,,,,スタンダードリンク,0
1750,8011001145610,新規,0,2022-02-15,2022-02-15,株式会社ＳＵＮＳ,,株式会社,東京都,渋谷区,円山町１０番１４号,,13,113,1500044,,,,,,,2022-02-15,1,,,,,サンズ,0
1751,8011001145627,新規,0,2022-02-15,2022-02-15,株式会社ｍｏｏｉ　ｐａｒｋ,,株式会社,東京都,渋谷区,宇田川町１９－５山手マンション６０２,,13,113,1500042,,,,,,,2022-02-15,1,,,,,モーイパーク,0
1752,8011001145635,新規,0,2022-02-15,2022-02-15,株式会社ＧＯＴＯＨイノベーション,,株式会社,東京都,渋谷区,恵比寿１丁目２３番２３号恵比寿スクエア１階,,13,113,1500013,,,,,,,2022-02-15,1,,,,,ゴトウイノベーション,0
1753,8011003014152,新規,0,2022-02-15,2022-02-15,合同会社あおこん,,合同会社,東京都,目黒区,目黒１丁目２番６－６０６号ディアナコート目黒,,13,110,1530063,,,,,,,2022-02-15,1,,,,,アオコン,0
1754,8011003014160,新規,0,2022-02-15,2022-02-15,イシワタ・アンド・パートナー合同会社,,合同会社,東京都,渋谷区,恵比寿３丁目２５番９号恵比寿テラスハウスＢ棟,,13,113,1500013,,,,,,,2022-02-15,1,,,,,イシワタアンドパートナー,0
1755,8011003014185,新規,0,2022-02-15,2022-02-15,Ｍ＆Ａ　ＧＯＬＦ合同会社,,合同会社,東京都,渋谷区,本町３丁目４２番１３号・３階,,13,113,1510071,,,,,,,2022-02-15,1,,,,,エムアンドエーゴルフ,0
1758,8011101097801,新規,0,2022-02-15,2022-02-15,株式会社ヒトカツ,,株式会社,東京都,新宿区,西新宿７丁目１－７新宿ダイカンプラザＡ１０１８,,13,104,1600023,,,,,,,2022-02-15,1,,,,,ヒトカツ,0
1759,8011101097826,新規,0,2022-02-15,2022-02-15,株式会社ランドリーｖａｎｉ,,株式会社,東京都,新宿区,神楽坂３丁目４番地神楽坂山本ビル６階,,13,104,1620825,,,,,,,2022-02-15,1,,,,,ランドリーブイエーエヌアイ,0
1761,8011103011470,新規,0,2022-02-15,2022-02-15,ＦＡＥ２合同会社,,合同会社,東京都,新宿区,西新宿１丁目２０番３号,,13,104,1600023,,,,,,,2022-02-15,1,,,,,エフエイイーツー,0
1763,8011401024026,新規,0,2022-02-15,2022-02-15,株式会社ＬＧＯ,,株式会社,東京都,板橋区,徳丸１丁目２８番５－４０５号,,13,119,1750083,,,,,,,2022-02-15,1,,,,,エルジーオー,0
1764,8011503005064,新規,0,2022-02-15,2022-02-15,旭佳合同会社,,合同会社,東京都,北区,浮間１丁目１番１４号リムジンビル４０８,,13,117,1150051,,,,,,,2022-02-15,1,,,,,ヒヨシ,0
1765,8011601025740,新規,0,2022-02-15,2022-02-15,柿子株式会社,,株式会社,東京都,練馬区,関町北５丁目６番７号関町マンション３０２Ｆ,,13,120,1770051,,,,,,,2022-02-15,1,,,,,カキコ,0
1771,8011703003066,新規,0,2022-02-15,2022-02-15,Ｋｏｕ　ｓｅｉ合同会社,,合同会社,東京都,江戸川区,西小岩５丁目１０番１０号,,13,123,1330057,,,,,,,2022-02-15,1,,,,,コウセイ,0
1801,8020001145223,新規,0,2022-02-15,2022-02-15,株式会社ＨＡＬＥＮＡＭＩ,,株式会社,神奈川県,横浜市港北区,高田東２丁目３－８,,14,109,2230065,,,,,,,2022-02-15,1,,,,,ハレナミ,0
1815,8021003011396,新規,0,2022-02-15,2022-02-15,合同会社ＬａＰａｚ,,合同会社,神奈川県,平塚市,中原２丁目１７番１７号,,14,203,2540075,,,,,,,2022-02-15,1,,,,,ラパス,0
1822,8030001146773,新規,0,2022-02-15,2022-02-15,ＳＩＢＯＮ国際株式会社,,株式会社,埼玉県,川口市,赤井４丁目２２番１号－１０２,,11,203,3340073,,,,,,,2022-02-15,1,,,,,シボンコクサイ,0
1826,8030003018822,新規,0,2022-02-15,2022-02-15,合同会社松村会計事務所,,合同会社,埼玉県,和光市,本町９番３８号セレーノＯ・Ｓ２Ｆ－Ｂ,,11,229,3510114,,,,,,,2022-02-15,1,,,,,マツムラカイケイジムショ,0
1835,8040001122229,新規,0,2022-02-15,2022-02-15,株式会社ヤヨイ,,株式会社,千葉県,野田市,木間ケ瀬７８６番地１４,,12,208,2700222,,,,,,,2022-02-15,1,,,,,ヤヨイ,0
1840,8050003006370,新規,0,2022-02-15,2022-02-15,合同会社ライズ,,合同会社,茨城県,取手市,片町２９６番地２,,08,217,3001513,,,,,,,2022-02-15,1,,,,,ライズ,0
1845,8070003004389,新規,0,2022-02-15,2022-02-15,合同会社ネクスト,,合同会社,群馬県,高崎市,石原町２０４８ベルビュー高崎Ｂ１０６,,10,202,3700864,,,,,,,2022-02-15,1,,,,,ネクスト,0
1850,8080103002507,新規,0,2022-02-15,2022-02-15,マイクロテック合同会社,,合同会社,静岡県,駿東郡長泉町,南一色２８１番地の１,,22,342,4110932,,,,,,,2022-02-15,1,,,,,マイクロテック,0
1851,8080103002523,新規,0,2022-02-15,2022-02-15,イン・サーチ・オブ・エクセレンス・アンド・エレガンス合同会社,,合同会社,静岡県,三島市,大宮町２丁目１５‐１２,,22,206,4110035,,,,,,,2022-02-15,1,,,,,インサーチオブエクセレンスアンドエレガンス,0
1853,8100001035069,新規,0,2022-02-15,2022-02-15,株式会社Ｋ－Ｂｒｅａｋ,,株式会社,長野県,長野市,豊野町豊野字沖４６８－１,,20,201,3891105,,,,,,,2022-02-15,1,,,,,ケーブレイク,0
1867,8120001243826,新規,0,2022-02-15,2022-02-15,藤原商事株式会社,,株式会社,大阪府,大阪市西淀川区,中島１丁目３５番１７２－１号,,27,113,5550041,,,,,,,2022-02-15,1,,,,,フジワラショウジ,0
1868,8120001243842,新規,0,2022-02-15,2022-02-15,株式会社中禾,,株式会社,大阪府,大阪市西区,阿波座１丁目１１番１８号４０７号室,,27,106,5500011,,,,,,,2022-02-15,1,,,,,チュウカ,0
1869,8120001243883,新規,0,2022-02-15,2022-02-15,株式会社ＶＡＲＩＯＵＳ　ＣＯＬＬＥＣＴ,,株式会社,大阪府,大阪市鶴見区,放出東１丁目４番１６号,,27,124,5380044,,,,,,,2022-02-15,1,,,,,,0
1870,8120005022680,新規,0,2022-02-15,2022-02-15,司法書士法人赤瀬事務所,,その他の設立登記法人,大阪府,大阪市北区,西天満２丁目６番８号堂島ビルヂング４１６号,,27,127,5300047,,,,,,,2022-02-15,1,,,,,アカセジムショ,0
1874,8120101065071,新規,0,2022-02-15,2022-02-15,株式会社ＦｉｎｅＤａｙｓ,,株式会社,大阪府,泉南市,新家１３１５番地の９５,,27,228,5900503,,,,,,,2022-02-15,1,,,,,ファインデイズ,0
1879,8130001071136,新規,0,2022-02-15,2022-02-15,株式会社バズスタイル,,株式会社,京都府,京都市中京区,油小路通二条下る二条油小路町２８６番地,,26,104,6040051,,,,,,,2022-02-15,1,,,,,バズスタイル,0
1885,8140001124883,新規,0,2022-02-15,2022-02-15,株式会社白猫ホーム,,株式会社,兵庫県,神戸市中央区,元町通２丁目９番１号元町プラザ５０５号,,28,110,6500022,,,,,,,2022-02-15,1,,,,,シロネコホーム,0
1890,8160001023992,新規,0,2022-02-15,2022-02-15,株式会社アクティブ工業,,株式会社,滋賀県,湖南市,柑子袋２７０番地,,25,211,5203233,,,,,,,2022-02-15,1,,,,,アクティブコウギョウ,0
1896,8180001149951,新規,0,2022-02-15,2022-02-15,株式会社ファースト,,株式会社,愛知県,名古屋市中区,錦３丁目１７番２８号,,23,106,4600003,,,,,,,2022-02-15,1,,,,,ファースト,0
1904,8200001039745,新規,0,2022-02-15,2022-02-15,株式会社えがおグループ,,株式会社,岐阜県,岐阜市,茜部新所１丁目９８番地２,,21,201,5008263,,,,,,,2022-02-15,1,,,,,エガオグループ,0
1905,8200003005456,新規,0,2022-02-15,2022-02-15,合同会社建築板金仁,,合同会社,岐阜県,郡上市,大和町剣５２番地１,,21,219,5014612,,,,,,,2022-02-15,1,,,,,ケンチクバンキンヒトシ,0
1906,8210001018814,新規,0,2022-02-15,2022-02-15,株式会社ＡＲＴ　ＡＧＥ　Ｈ．Ｒ．,,株式会社,福井県,坂井市,坂井町下新庄第１６号８番地,,18,210,9190521,,,,,,,2022-02-15,1,,,,,アートエイジヒューマンリソース,0
1910,8240003005502,新規,0,2022-02-15,2022-02-15,合同会社ビーサイド,,合同会社,広島県,広島市南区,西霞町２番３１号ＳＫビル１Ｆ,,34,103,7340044,,,,,,,2022-02-15,1,,,,,ビーサイド,0
1914,8260003003801,新規,0,2022-02-15,2022-02-15,作州クリーン合同会社,,合同会社,岡山県,美作市,豊国原１９５番地１,,33,215,7070015,,,,,,,2022-02-15,1,,,,,サクシュウクリーン,0
1933,8310001017715,新規,0,2022-02-15,2022-02-15,株式会社Ｒｅｍｅｄｙ　Ｊａｐａｎ,,株式会社,長崎県,長崎市,鍛冶屋町１番１１号ａｖｖｉａｔｏ６０６号,,42,201,8500831,,,,,,,2022-02-15,1,,,,,レメディージャパン,0
1939,8350001017579,新規,0,2022-02-15,2022-02-15,株式会社ＡＲＲＯＷＳ,,株式会社,宮崎県,西都市,大字三宅４３１９番地１,,45,208,8810005,,,,,,,2022-02-15,1,,,,,アローズ,0
1942,8360001030003,新規,0,2022-02-15,2022-02-15,Ｕプロジェクト株式会社,,株式会社,沖縄県,国頭郡金武町,字金武８１１９番地７,,47,314,9041201,,,,,,,2022-02-15,1,,,,,ユープロジェクト,0
1944,8380001032575,新規,0,2022-02-15,2022-02-15,株式会社アクロカインド,,株式会社,福島県,郡山市,駅前２丁目３－７エリート３０ビル２Ｆ,,07,203,9638002,,,,,,,2022-02-15,1,,,,,アクロカインド,0
1955,8430003013618,新規,0,2022-02-15,2022-02-15,ＳＥＡ　ＲＯＯＭ合同会社,,合同会社,北海道,札幌市西区,山の手二条６丁目６番４５号,,01,107,0630002,,,,,,,2022-02-15,1,,,,,シールーム,0
1966,8700150107062,新規,0,2022-02-15,2022-02-15,Ｎｅｗ　Ｆａｒａ　Ｔｒａｄｉｎｇ,,外国会社等,千葉県,千葉市緑区,誉田町２丁目２１番地４５８,,12,105,2660005,スリランカ民主社会主義共和国、キャンディ、カトゥガストタロード、３１２,,,,,,2022-02-15,1,,,,,ニユーフアラトレーデイング,0
1967,8700150107095,新規,0,2022-02-15,2022-02-15,ＳＵＮ　ＳＨＩＮＥ　ＫＡＮＤＹ　ＬＡＮＫＡ　ＰＲＩＶＡＴＥ　ＬＩＭＩＴＥＤ,,外国会社等,神奈川県,愛甲郡愛川町,三増３５０－８番Ｎｏ．１,,14,401,2430308,スリランカ民主社会主義共和国アクラナワラガシンナＮｏ．４２１－Ａ,,,,,,2022-02-15,1,,,,,サンシヤインキヤンデイランカプライベートリミテツド,0
1971,9010001224530,新規,0,2022-02-15,2022-02-15,株式会社ＣＮＳ,,株式会社,東京都,中央区,銀座１丁目２２番１１号銀座大竹ビジデンス２階,,13,102,1040061,,,,,,,2022-02-15,1,,,,,シーエヌエス,0
1972,9010001224563,新規,0,2022-02-15,2022-02-15,八八株式会社,,株式会社,東京都,中央区,銀座１丁目２０番１６号岡安ビル３Ｆ,,13,102,1040061,,,,,,,2022-02-15,1,,,,,ハチハチ,0
1982,9010403027077,新規,0,2022-02-15,2022-02-15,風合同会社,,合同会社,東京都,港区,南青山２丁目２番１５号,,13,103,1070062,,,,,,,2022-02-15,1,,,,,フウ,0
1983,9010403027093,新規,0,2022-02-15,2022-02-15,合同会社西村会計,,合同会社,東京都,港区,六本木３丁目２－２六本木グランドタワーレジデンス５２０号室,,13,103,1060032,,,,,,,2022-02-15,1,,,,,ニシムラカイケイ,0
1988,9010501048446,新規,0,2022-02-15,2022-02-15,木禾株式会社,,株式会社,東京都,台東区,東上野２丁目１２－９－４０３,,13,106,1100015,,,,,,,2022-02-15,1,,,,,キノギ,0
1992,9010701042216,新規,0,2022-02-15,2022-02-15,株式会社Ｂｅｅｅａｒｔｈ,,株式会社,東京都,品川区,中延３丁目７番９号白凰荘１０１,,13,109,1420053,,,,,,,2022-02-15,1,,,,,ビーアース,0
1993,9010701042240,新規,0,2022-02-15,2022-02-15,株式会社ＷＷＴ,,株式会社,東京都,品川区,東品川１丁目６番３号キャナールビル３０２号室,,13,109,1400002,,,,,,,2022-02-15,1,,,,,ダブリューダブリューティー,0
1996,9010901050349,新規,0,2022-02-15,2022-02-15,株式会社北斗星,,株式会社,東京都,世田谷区,下馬２丁目１４番３号,,13,112,1540002,,,,,,,2022-02-15,1,,,,,ホクトセイ,0
2001,9011101097825,新規,0,2022-02-15,2022-02-15,株式会社ランドリーｙｕｉｎ,,株式会社,東京都,新宿区,神楽坂３丁目４番地神楽坂山本ビル６階,,13,104,1620825,,,,,,,2022-02-15,1,,,,,ランドリーワイユーアイエヌ,0
2004,9011403003571,新規,0,2022-02-15,2022-02-15,ｏｒｉｇａｍｉ合同会社,,合同会社,東京都,板橋区,南常盤台１丁目１１－６レフア南常盤台１０１号室,,13,119,1740072,,,,,,,2022-02-15,1,,,,,オリガミ,0
2014,9012405004698,新規,0,2022-02-15,2022-02-15,一般社団法人ＳＤＧｓ普及促進機構,,その他の設立登記法人,東京都,府中市,本町３丁目５番地の５０,,13,206,1830027,,,,,,,2022-02-15,1,,,,,エスディージーズフキュウソクシンキコウ,0
2028,9020001145197,新規,0,2022-02-15,2022-02-15,株式会社Ｍ・Ｓ・Ｙ,,株式会社,神奈川県,横浜市南区,榎町２丁目６０番地１０,,14,105,2320044,,,,,,,2022-02-15,1,,,,,,0
2029,9020001145206,新規,0,2022-02-15,2022-02-15,リーン・ビルダーズ株式会社,,株式会社,神奈川県,横浜市中区,桜木町１丁目１０１番地１クロスゲート７階,,14,104,2310062,,,,,,,2022-02-15,1,,,,,リーンビルダーズ,0
2030,9020003021297,新規,0,2022-02-15,2022-02-15,鳳凰合同会社,,合同会社,神奈川県,横浜市神奈川区,平川町３－１山崎ビル２０１,,14,102,2210812,,,,,,,2022-02-15,1,,,,,ホウオウ,0
2037,9021001075178,新規,0,2022-02-15,2022-02-15,株式会社ファンファン,,株式会社,神奈川県,藤沢市,本鵠沼３丁目５番８号ビーンズ１０２,,14,205,2510028,,,,,,,2022-02-15,1,,,,,ファンファン,0
2042,9030001146797,新規,0,2022-02-15,2022-02-15,ボスコ株式会社,,株式会社,埼玉県,所沢市,緑町４丁目３９番－１フォルスコート新所沢２１７号,,11,208,3591111,,,,,,,2022-02-15,1,,,,,ボスコ,0
2043,9030001146806,新規,0,2022-02-15,2022-02-15,株式会社ＡＵＲＵＺ,,株式会社,埼玉県,越谷市,南越谷１丁目２９１７番地１グランドールＫ南越谷駅前３０２,,11,222,3430845,,,,,,,2022-02-15,1,,,,,オールズ,0
2051,9040001122236,新規,0,2022-02-15,2022-02-15,株式会社日成,,株式会社,千葉県,柏市,新富町１丁目３番１８号,,12,217,2770856,,,,,,,2022-02-15,1,,,,,ニッセイ,0
2053,9040003019496,新規,0,2022-02-15,2022-02-15,ＭＹ　ｃｏｎｓｕｌｔｉｎｇ合同会社,,合同会社,千葉県,船橋市,前貝塚町３１３番地２９,,12,204,2730042,,,,,,,2022-02-15,1,,,,,エムワイコンサルティング,0
2068,9100003006414,新規,0,2022-02-15,2022-02-15,サンライズアジア合同会社,,合同会社,長野県,長野市,青木島町青木島乙７５２番地の１,,20,201,3812241,,,,,,,2022-02-15,1,,,,,サンライズアジア,0
2088,9120001243841,新規,0,2022-02-15,2022-02-15,Ｔｏｔａｌ　Ｌｉｆｅ　Ａｇｅｎｔ株式会社,,株式会社,大阪府,大阪市淀川区,宮原１丁目３番１７号,,27,123,5320003,,,,,,,2022-02-15,1,,,,,トータルライフエージェント,0
2091,9120003021139,新規,0,2022-02-15,2022-02-15,ＶＳＳ合同会社,,合同会社,大阪府,大阪市西区,新町１丁目３４番２－１００１号,,27,106,5500013,,,,,,,2022-02-15,1,,,,,ヴイエスエス,0
2098,9122001035582,新規,0,2022-02-15,2022-02-15,株式会社アゲート,,株式会社,大阪府,東大阪市,荒本北２丁目２番３７－５０３号ハイムリップルＰａｒｔＶ,00125712,27,227,5770011,,,,,,,2022-02-15,1,,,,,アゲート,0
2107,9140001124908,新規,0,2022-02-15,2022-02-15,池田ルーフホーム株式会社,,株式会社,兵庫県,宝塚市,安倉南４丁目３７番３号,,28,214,6650823,,,,,,,2022-02-15,1,,,,,イケダルーフホーム,0
2108,9140001124916,新規,0,2022-02-15,2022-02-15,株式会社リブラサポート,,株式会社,兵庫県,神戸市西区,井吹台西町５丁目１番地の１４２,,28,111,6512243,,,,,,,2022-02-15,1,,,,,リブラサポート,0
2133,9180001149959,新規,0,2022-02-15,2022-02-15,Ｈ＆Ｙマネジメント株式会社,,株式会社,愛知県,名古屋市中区,栄５丁目８番１０号,,23,106,4600008,,,,,,,2022-02-15,1,,,,,エイチアンドワイマネジメント,0
2134,9180001149967,新規,0,2022-02-15,2022-02-15,株式会社トラ商,,株式会社,愛知県,瀬戸市,田中町８０番地の２Ｍｔ．ＢＥＬＬ・Ｂ－１０１,,23,204,4890961,,,,,,,2022-02-15,1,,,,,トラショウ,0
2135,9180001149975,新規,0,2022-02-15,2022-02-15,株式会社ホームリアライズ,,株式会社,愛知県,名古屋市名東区,大針１丁目２３７番地,,23,115,4650064,,,,,,,2022-02-15,1,,,,,ホームリアライズ,0
2147,9220005008636,新規,0,2022-02-15,2022-02-15,特定非営利活動法人みんなの畑の会,,その他の設立登記法人,石川県,金沢市,しじま台１丁目１０番地７,,17,201,9218132,,,,,,,2022-02-15,1,,,,,ミンナノハタケノカイ,0
2151,9240001059326,新規,0,2022-02-15,2022-02-15,株式会社ＷＴＢ１４,,株式会社,広島県,広島市南区,仁保新町２丁目１番２５号,,34,103,7340024,,,,,,,2022-02-15,1,,,,,ダブリューティービーフォーティーン,0
2153,9240003005501,新規,0,2022-02-15,2022-02-15,合同会社Ｃ．Ｎ．Ｖ,,合同会社,広島県,広島市中区,国泰寺町１丁目３番２９号６Ｆ,,34,101,7300042,,,,,,,2022-02-15,1,,,,,シーエヌブイ,0
2155,9260001036513,新規,0,2022-02-15,2022-02-15,株式会社上,,株式会社,岡山県,倉敷市,阿知２丁目２番１８号,,33,202,7100055,,,,,,,2022-02-15,1,,,,,ウエ,0
2156,9260005011033,新規,0,2022-02-15,2022-02-15,一般社団法人螢＿舎,00125708,その他の設立登記法人,岡山県,赤磐市,馬屋１４３４番７,,33,213,7090825,,,,,,,2022-02-15,1,,,,,ホタルガクシャ,0
2157,9270005005496,新規,0,2022-02-15,2022-02-15,特定非営利活動法人とんぼ児童クラブ,,その他の設立登記法人,鳥取県,鳥取市,古郡家７５番地１,,31,201,6891125,,,,,,,2022-02-15,1,,,,,トンボジドウクラブ,0
2165,9290003012113,新規,0,2022-02-15,2022-02-15,デジタルブリッジ合同会社,,合同会社,福岡県,福岡市博多区,博多駅前３丁目７番３５号博多ハイテックビル５０５,,40,132,8120011,,,,,,,2022-02-15,1,,,,,デジタルブリッジ,0
2166,9290003012146,新規,0,2022-02-15,2022-02-15,合同会社ａｖｅｎｉｒ,,合同会社,福岡県,福岡市早良区,西新６丁目８番２０号,,40,137,8140002,,,,,,,2022-02-15,1,,,,,アヴニール,0
2170,9300003001790,新規,0,2022-02-15,2022-02-15,合同会社ＡＩＲ　ＦＯＲＣＥ１,,合同会社,佐賀県,三養基郡みやき町,大字簑原３１４４番地１６,,41,346,8490102,,,,,,,2022-02-15,1,,,,,エアホースワン,0
2173,9310001017714,新規,0,2022-02-15,2022-02-15,株式会社ＤＯＮＣ,,株式会社,長崎県,西海市,西彼町風早郷２４８番地,,42,212,8513313,,,,,,,2022-02-15,1,,,,,ドンク,0
2177,9320001018892,新規,0,2022-02-15,2022-02-15,株式会社なごみ不動産,,株式会社,大分県,大分市,大道町４丁目１－９－１０３,,44,201,8700822,,,,,,,2022-02-15,1,,,,,ナゴミフドウサン,0
2188,9350001017578,新規,0,2022-02-15,2022-02-15,株式会社鵜島左官工業,,株式会社,宮崎県,都城市,郡元町３３１６番地１２,,45,202,8850013,,,,,,,2022-02-15,1,,,,,ウノシマサカンコウギョウ,0
2190,9360003011801,新規,0,2022-02-15,2022-02-15,合同会社イーホームＮ,,合同会社,沖縄県,那覇市,小禄２丁目３番地１テラスアンソレイユ５０１,,47,201,9010152,,,,,,,2022-02-15,1,,,,,イーホームエヌ,0
2196,9380001032574,新規,0,2022-02-15,2022-02-15,株式会社シャイニング,,株式会社,福島県,郡山市,片平町字南中町４番地,,07,203,9630211,,,,,,,2022-02-15,1,,,,,シャイニング,0
2198,9430001085988,新規,0,2022-02-15,2022-02-15,株式会社ＰＬＥＡＳＡＮＴ　ＶＡＬＬＥＹ　ＪＡＰＡＮ,,株式会社,北海道,札幌市北区,麻生町３丁目２番４－２０６号ＧＴＳ内,,01,102,0010045,,,,,,,2022-02-15,1,,,,,プリーゼントバリージャパン,0
2203,9430003013625,新規,0,2022-02-15,2022-02-15,合同会社カスタマーサポート,,合同会社,北海道,札幌市豊平区,中の島二条１丁目１番１７－４０７号,,01,105,0620922,,,,,,,2022-02-15,1,,,,,カスタマーサポート,0
2204,9450001013617,新規,0,2022-02-15,2022-02-15,みらい工房株式会社,,株式会社,北海道,稚内市,大字声問村字沼川,,01,214,0986563,,,,,,,2022-02-15,1,,,,,ミライコウボウ,0
2207,9460301005040,新規,0,2022-02-15,2022-02-15,株式会社織田産業,,株式会社,北海道,常呂郡訓子府町,西幸町９２番地,,01,549,0991423,,,,,,,2022-02-15,1,,,,,オダサンギョウ,0
2212,9700150107045,新規,0,2022-02-15,2022-02-15,ＮＦＣ　ＦＯＲＵＭ，ＩＮＣ．,,外国会社等,,,,,,,,４０１　Ｅｄｇｅｗａｔｅｒ　Ｐｌａｃｅ，ｓｕｉｔｅ６００，Ｗａｋｅｆｉｅｌｄ　ＭＡ　０１８８０　ＵＳＡ,,,,,,2022-02-15,1,,,,,エヌエフシーフオーラムインク,0
2213,9700150107061,新規,0,2022-02-15,2022-02-15,Ｒ．Ｈ．Ｓ．Ｍｏｔｏｒｓ,,外国会社等,千葉県,千葉市緑区,高田町２２９６番地２２２,,12,105,2660003,スリランカ民主社会主義共和国、キャンディ、ハサラカ、キャンディロード、２,,,,,,2022-02-15,1,,,,,アールエイチエスモータース,0
2214,9700150107094,新規,0,2022-02-15,2022-02-15,Ｔｏｋｙｏ　Ｍｏｔｏｒｓ　Ｃｏｍｐａｎｙ　Ｌａｎｋａ　Ｌｔｄ,,外国会社等,千葉県,千葉市緑区,あすみが丘東２丁目１８０９番地１２１,,12,105,2670067,スリランカ民主社会主義共和国、ラジャウェラ、ディガナ、ニュータウン、７２,,,,,,2022-02-15,1,,,,,トウキヨウモータースカンパニーランカリミテツド,0
