sequenceNumber,corporateNumber,process,correct,updateDate,changeDate,name,nameImageId,kind,prefectureName,cityName,streetNumber,addressImageId,prefectureCode,cityCode,postCode,addressOutside,addressOutsideImageId,closeDate,closeCause,successorCorporateNumber,changeCause,assignmentDate,latest,enName,enPrefectureName,enCityName,enAddressOutside,furigana,hihyoji
8,1010001257463,新規,0,2025-08-13,2025-08-13,株式会社ｃｏｄｅ８３１,,株式会社,東京都,千代田区,霞が関３丁目２番地５霞が関ビル２５２２,,13,101,1000013,,,,,,,2025-08-13,1,,,,,コードハチサンイチ,0
9,1010001257587,新規,0,2025-08-13,2025-08-13,山佐ＫＬＭ１０リース株式会社,,株式会社,東京都,千代田区,丸の内１丁目４番１号東京共同会計事務所内,,13,101,1000005,,,,,,,2025-08-13,1,,,,,ヤマサケイエルエムテンリース,0
10,1010001257604,新規,0,2025-08-13,2025-08-13,株式会社Ｂｉｚ　Ｐｒｏｇｒａｍｍｉｎｇ,,株式会社,東京都,中央区,銀座１丁目１２番４号Ｎ＆ＥＢＬＤ．７階,,13,102,1040061,,,,,,,2025-08-13,1,,,,,ビズプログラミング,0
11,1010001257629,新規,0,2025-08-13,2025-08-13,株式会社Ａｑｕｎｉａ,,株式会社,東京都,中央区,日本橋室町１丁目１１番１２号日本橋水野ビル７階,,13,102,1030022,,,,,,,2025-08-13,1,,,,,アクニア,0
12,1010001257653,新規,0,2025-08-13,2025-08-13,Ｖａｒｏｎｉｓ　Ｓｙｓｔｅｍｓ　Ｊａｐａｎ株式会社,,株式会社,東京都,千代田区,丸の内１丁目９番２号グラントウキョウサウスタワー９階,,13,101,1000005,,,,,,,2025-08-13,1,,,,,ヴァロニスシステムズジャパン,0
15,1010003048332,新規,0,2025-08-13,2025-08-13,合同会社ＴＣ２１,,合同会社,東京都,千代田区,永田町２丁目１１番１号山王パークタワー５階トラスティーズ・コンサルティングＬＬＰ内,,13,101,1000014,,,,,,,2025-08-13,1,,,,,ティーシートゥウェンティワン,0
19,1010005040411,新規,0,2025-08-13,2025-08-13,一般社団法人ＩＰＣ,,その他の設立登記法人,東京都,千代田区,丸の内１丁目１１番１号パシフィックセンチュリープレイス丸の内１３階,,13,101,1000005,,,,,,,2025-08-13,1,,,,,アイピーシー,0
27,1010503007944,新規,0,2025-08-13,2025-08-13,Ｊ‐Ｂｒｉｄｇｅ　Ｔｒａｄｉｎｇ合同会社,,合同会社,東京都,台東区,上野３丁目６－３三春ビル２０７,,13,106,1100005,,,,,,,2025-08-13,1,,,,,ジェイブリッジトレーディング,0
32,1010701048162,新規,0,2025-08-13,2025-08-13,株式会社八,,株式会社,東京都,品川区,小山３丁目１５－２－３４１５,,13,109,1420062,,,,,,,2025-08-13,1,,,,,ハチ,0
36,1010901057863,新規,0,2025-08-13,2025-08-13,株式会社アサミカレット,,株式会社,東京都,世田谷区,鎌田２丁目１４番１１号,,13,112,1570077,,,,,,,2025-08-13,1,,,,,アサミカレット,0
37,1010901057913,新規,0,2025-08-13,2025-08-13,株式会社ＦＡＭＮＥＬ,,株式会社,東京都,世田谷区,北沢１丁目２５番６号,,13,112,1550031,,,,,,,2025-08-13,1,,,,,ファムネル,0
45,1011001171316,新規,0,2025-08-13,2025-08-13,株式会社ＳＬＯＰＥＡＳＴＯＮ,,株式会社,東京都,目黒区,五本木２丁目１３番１号アーバンフェニックス,,13,110,1530053,,,,,,,2025-08-13,1,,,,,スロープイーストン,0
46,1011001171836,新規,0,2025-08-13,2025-08-13,株式会社ＳＵＮＦＥＥＴ,,株式会社,東京都,渋谷区,神宮前６丁目２３番４号桑野ビル２階,,13,113,1500001,,,,,,,2025-08-13,1,,,,,サンフィート,0
49,1011003022145,新規,0,2025-08-13,2025-08-13,合同会社渋谷ＢＡＳＥ　ＨＯＬＤＩＮＧＳ,,合同会社,東京都,渋谷区,渋谷１丁目１０番７号グローリア宮益坂ＩＩＩ北館２階２００号,00140259,13,113,1500002,,,,,,,2025-08-13,1,,,,,,0
50,1011005011146,新規,0,2025-08-13,2025-08-13,司法書士法人サンセル,,その他の設立登記法人,東京都,渋谷区,代々木１丁目５４番２号ナリオカビル２階,,13,113,1510053,,,,,,,2025-08-13,1,,,,,サンセル,0
53,1011501032414,新規,0,2025-08-13,2025-08-13,株式会社リスモア,,株式会社,東京都,荒川区,西尾久１丁目１番２号,,13,118,1160011,,,,,,,2025-08-13,1,,,,,リスモア,0
54,1011603004798,新規,0,2025-08-13,2025-08-13,合同会社ＢｉＢＢ,,合同会社,東京都,練馬区,東大泉６丁目３１番１５－４０３号,,13,120,1780063,,,,,,,2025-08-13,1,,,,,ビーアイビービー,0
56,1011701028617,新規,0,2025-08-13,2025-08-13,株式会社Ｅｃｌａｔ＆Ｃｏ．,,株式会社,東京都,江戸川区,大杉５丁目２５番１２号,,13,123,1320022,,,,,,,2025-08-13,1,,,,,エクラアンドコー,0
59,1012401043476,新規,0,2025-08-13,2025-08-13,株式会社西藤,,株式会社,東京都,府中市,是政１丁目１１番地の１４,,13,206,1830014,,,,,,,2025-08-13,1,,,,,ニシフジ,0
70,1020001164238,新規,0,2025-08-13,2025-08-13,株式会社野辺,,株式会社,神奈川県,川崎市川崎区,京町１丁目１０番７号,,14,131,2100848,,,,,,,2025-08-13,1,,,,,,0
71,1020001164386,新規,0,2025-08-13,2025-08-13,フォルシア・インテリアシステムズ・ジャパン株式会社,,株式会社,神奈川県,横浜市保土ケ谷区,神戸町１３４番地横浜ビジネスパークイーストタワー５階,,14,106,2400005,,,,,,,2025-08-13,1,,,,,フォルシアインテリアシステムズジャパン,0
78,1021003016393,新規,0,2025-08-13,2025-08-13,合同会社クラー,,合同会社,神奈川県,平塚市,四之宮１丁目８番４８号,,14,203,2540014,,,,,,,2025-08-13,1,,,,,クラー,0
81,1030001168089,新規,0,2025-08-13,2025-08-13,株式会社多賀建設,,株式会社,埼玉県,草加市,原町１丁目１６番９号多賀ビル１０１,,11,221,3400048,,,,,,,2025-08-13,1,,,,,タガケンセツ,0
82,1030001168139,新規,0,2025-08-13,2025-08-13,株式会社ジコン,,株式会社,埼玉県,春日部市,南５丁目７番２１号,,11,214,3440064,,,,,,,2025-08-13,1,,,,,ジコン,0
91,1040001139964,新規,0,2025-08-13,2025-08-13,株式会社ベルテクノ,,株式会社,千葉県,千葉市花見川区,朝日ケ丘４丁目２４番５８号,,12,102,2620019,,,,,,,2025-08-13,1,,,,,ベルテクノ,0
92,1040001139989,新規,0,2025-08-13,2025-08-13,株式会社さくらＥＸＰＲＥＳＳ,,株式会社,千葉県,松戸市,金ケ作２６６番地６,,12,207,2702251,,,,,,,2025-08-13,1,,,,,サクラエクスプレス,0
99,1040005022844,新規,0,2025-08-13,2025-08-13,一般社団法人Ｗｉｌｌ　Ｓｔｙｌｅ,,その他の設立登記法人,千葉県,浦安市,美浜１丁目１番７０８号,,12,227,2790011,,,,,,,2025-08-13,1,,,,,ウィルスタイル,0
103,1050001057125,新規,0,2025-08-13,2025-08-13,株式会社ＳＭＩＬＥ　ＧＡＴＥ,,株式会社,茨城県,つくば市,東光台２丁目１６－１４,,08,220,3002635,,,,,,,2025-08-13,1,,,,,スマイルゲート,0
107,1060001038504,新規,0,2025-08-13,2025-08-13,株式会社ＫＯＵＲＹＵ,,株式会社,栃木県,宇都宮市,石井町１４１９番地１パール石井２０５,,09,201,3210912,,,,,,,2025-08-13,1,,,,,コウリュウ,0
110,1070003006029,新規,0,2025-08-13,2025-08-13,Ｔｈｅ・Ｂｅｎｃｈｉ合同会社,,合同会社,群馬県,高崎市,上並榎町９５１番３号,,10,202,3700801,,,,,,,2025-08-13,1,,,,,ザベンチ,0
112,1080001027091,新規,0,2025-08-13,2025-08-13,株式会社ＳＫネクスト,,株式会社,静岡県,静岡市葵区,紺屋町６番地の６ミツヒサ紺屋町ビル１階,,22,101,4200852,,,,,,,2025-08-13,1,,,,,エスケイネクスト,0
117,1110001039496,新規,0,2025-08-13,2025-08-13,株式会社コアラ会計,,株式会社,新潟県,長岡市,岩田２９６４－１,,15,202,9495415,,,,,,,2025-08-13,1,,,,,コアラカイケイ,0
127,1120001278655,新規,0,2025-08-13,2025-08-13,株式会社七色鹿,,株式会社,大阪府,大阪市東住吉区,西今川４丁目１６番１０号セランハイツ４０１号,,27,121,5460042,,,,,,,2025-08-13,1,,,,,ナナイロシカ,0
128,1120001278721,新規,0,2025-08-13,2025-08-13,三生株式会社,,株式会社,大阪府,大阪市浪速区,敷津東３丁目３番２１号－９０２室,,27,111,5560012,,,,,,,2025-08-13,1,,,,,サンセイ,0
130,1120003030262,新規,0,2025-08-13,2025-08-13,ＯＨＭＹＷＯＲＫ合同会社,,合同会社,大阪府,大阪市北区,梅田１丁目２番２号大阪駅前第２ビル１２－１２,,27,127,5300001,,,,,,,2025-08-13,1,,,,,オーマイワーク,0
131,1120005025104,新規,0,2025-08-13,2025-08-13,一般社団法人Ｌｅ　Ｐｏｒｔｅ‐Ｂｏｎｈｅｕｒ,,その他の設立登記法人,大阪府,大阪市東淀川区,柴島２丁目２１番１０号ＦＩＶＥＯＮＥ６０５号,,27,114,5330024,,,,,,,2025-08-13,1,,,,,ルポルトーボヌール,0
132,1120101072256,新規,0,2025-08-13,2025-08-13,未来ぷらす株式会社,,株式会社,大阪府,堺市美原区,南余部西１丁目２番４号,,27,147,5870054,,,,,,,2025-08-13,1,,,,,ミライプラス,0
133,1120103006625,新規,0,2025-08-13,2025-08-13,合同会社クラン,,合同会社,大阪府,岸和田市,筋海町４番６号,,27,202,5960057,,,,,,,2025-08-13,1,,,,,クラン,0
134,1120103006633,新規,0,2025-08-13,2025-08-13,Ｄａ‐Ｔｒｉｘ合同会社,,合同会社,大阪府,羽曳野市,誉田３丁目２１－１９,,27,222,5830857,,,,,,,2025-08-13,1,,,,,ダトリックス,0
150,1140005027593,新規,0,2025-08-13,2025-08-13,特定非営利活動法人元気もりもり食堂,,その他の設立登記法人,兵庫県,加西市,北条町黒駒１７９番地の１,,28,220,6752313,,,,,,,2025-08-13,1,,,,,ゲンキモリモリショクドウ,0
163,1180305009718,新規,0,2025-08-13,2025-08-13,大陽事業協同組合,,その他の設立登記法人,愛知県,豊橋市,曙町字南松原１６０番地,,23,201,4418151,,,,,,,2025-08-13,1,,,,,タイヨウ,0
165,1190001032444,新規,0,2025-08-13,2025-08-13,株式会社エコノミーズ,,株式会社,三重県,松阪市,大口町２０５番地,,24,204,5150001,,,,,,,2025-08-13,1,,,,,エコノミーズ,0
166,1190001032469,新規,0,2025-08-13,2025-08-13,株式会社中勢管工,,株式会社,三重県,鈴鹿市,下箕田４丁目３１番２１号,,24,207,5130052,,,,,,,2025-08-13,1,,,,,チュウセイカンコウ,0
177,1220001026863,新規,0,2025-08-13,2025-08-13,株式会社ＮＯＭＵＲＡ＆ＣＯ．,,株式会社,石川県,金沢市,問屋町３丁目２３番地２,,17,201,9200061,,,,,,,2025-08-13,1,,,,,ノムラアンドシーオードット,0
189,1240003007364,新規,0,2025-08-13,2025-08-13,ＳＡＭＡＲＡＫＯＯＮ　ＩＮＴＥＲＮＡＴＩＯＮＡＬ合同会社,,合同会社,広島県,広島市西区,中広町３丁目２１番１７号岩元ビル４０４号室,,34,104,7330012,,,,,,,2025-08-13,1,,,,,サマラコーンインターナショナル,0
192,1260003005283,新規,0,2025-08-13,2025-08-13,イシコラテック合同会社,,合同会社,岡山県,備前市,伊部１３１１番地３,,33,211,7050001,,,,,,,2025-08-13,1,,,,,イシコラテック,0
194,1270001009269,新規,0,2025-08-13,2025-08-13,ファクトリーサポート鳥取株式会社,,株式会社,鳥取県,鳥取市,商栄町４０３番地２,,31,201,6800912,,,,,,,2025-08-13,1,,,,,ファクトリーサポートトットリ,0
198,1290001110982,新規,0,2025-08-13,2025-08-13,株式会社サクラエナジー,,株式会社,福岡県,福岡市博多区,板付５丁目１６番２４号,,40,132,8120888,,,,,,,2025-08-13,1,,,,,サクラエナジー,0
199,1290001111048,新規,0,2025-08-13,2025-08-13,株式会社ＺＥＮＡＳ,,株式会社,福岡県,福岡市博多区,中洲４丁目２番１４号グラン中洲４階,,40,132,8100801,,,,,,,2025-08-13,1,,,,,ゼナス,0
200,1290001111072,新規,0,2025-08-13,2025-08-13,株式会社ＴＲＩＷＩＮ,,株式会社,福岡県,福岡市博多区,美野島２丁目２９番２－１０８号,,40,132,8120017,,,,,,,2025-08-13,1,,,,,トリウィン,0
201,1290001111188,新規,0,2025-08-13,2025-08-13,株式会社ＡＳＡＳＵＩ,,株式会社,福岡県,朝倉市,秋月２５０番地４,,40,228,8380001,,,,,,,2025-08-13,1,,,,,アサスイ,0
203,1290003017227,新規,0,2025-08-13,2025-08-13,キュリクラ合同会社,,合同会社,福岡県,福岡市博多区,博多駅前１丁目２３番２号５Ｆ－Ｂ,,40,132,8120011,,,,,,,2025-08-13,1,,,,,キュリクラ,0
204,1300003002326,新規,0,2025-08-13,2025-08-13,合同会社悠然の宿東海,,合同会社,佐賀県,嬉野市,嬉野町大字下宿乙８７１番地５,,41,209,8430301,,,,,,,2025-08-13,1,,,,,ユウゼンノヤドトウカイ,0
205,1310001019718,新規,0,2025-08-13,2025-08-13,ダイエイリース株式会社,,株式会社,長崎県,諫早市,久山町１３６６番地４,,42,204,8540066,,,,,,,2025-08-13,1,,,,,ダイエイリース,0
208,1330003011150,新規,0,2025-08-13,2025-08-13,合同会社ＭＨＤパワーバンク６号,,合同会社,熊本県,阿蘇市,永草１９４３番地２８,,43,214,8692231,,,,,,,2025-08-13,1,,,,,エムエイチディーパワーバンクロクゴウ,0
209,1330003011167,新規,0,2025-08-13,2025-08-13,合同会社アルコバレーノ,,合同会社,熊本県,阿蘇市,乙姫２０７０－６９,,43,214,8692226,,,,,,,2025-08-13,1,,,,,アルコバレーノ,0
212,1340001027560,新規,0,2025-08-13,2025-08-13,株式会社エイチ,,株式会社,鹿児島県,鹿児島市,上之園町２０番地２３,,46,201,8900052,,,,,,,2025-08-13,1,,,,,エイチ,0
213,1340001027569,新規,0,2025-08-13,2025-08-13,ノーフィッシングノーライフ株式会社,,株式会社,鹿児島県,奄美市,笠利町大字須野３６番地,,46,222,8940624,,,,,,,2025-08-13,1,,,,,ノーフィッシングノーライフ,0
214,1340001027577,新規,0,2025-08-13,2025-08-13,株式会社ＮＩＣＯ．ｓｍｉｌｅ,,株式会社,鹿児島県,霧島市,国分中央６丁目１７番２１号,,46,218,8994332,,,,,,,2025-08-13,1,,,,,ニコスマイル,0
216,1350001019697,新規,0,2025-08-13,2025-08-13,株式会社ロストラータ,,株式会社,宮崎県,宮崎市,大字跡江１８７４番地２,,45,201,8802101,,,,,,,2025-08-13,1,,,,,ロストラータ,0
218,1350003005002,新規,0,2025-08-13,2025-08-13,日向東臼杵観光機構合同会社,,合同会社,宮崎県,日向市,鶴町１番地,,45,206,8830052,,,,,,,2025-08-13,1,,,,,ヒュウガヒガシウスキカンコウキコウ,0
221,1360001035586,新規,0,2025-08-13,2025-08-13,景航株式会社,,株式会社,沖縄県,豊見城市,字豊見城３１９番地１,,47,212,9010241,,,,,,,2025-08-13,1,,,,,ケイコウ,0
222,1360001035594,新規,0,2025-08-13,2025-08-13,株式会社登翔,,株式会社,沖縄県,うるま市,勝連平安名２９２５番地１島袋店舗１０３,,47,213,9042312,,,,,,,2025-08-13,1,,,,,トワ,0
223,1360001035603,新規,0,2025-08-13,2025-08-13,株式会社ＹＹｄｓ,,株式会社,沖縄県,浦添市,内間２丁目８番１４号,,47,208,9012121,,,,,,,2025-08-13,1,,,,,イーズ,0
227,1360003015157,新規,0,2025-08-13,2025-08-13,合同会社ＫＩＲＡＶＡ,,合同会社,沖縄県,那覇市,字仲井真５２番地３－２階,,47,201,9020074,,,,,,,2025-08-13,1,,,,,キラバ,0
228,1360003015173,新規,0,2025-08-13,2025-08-13,合同会社ＴＥＮＯＷＡ,,合同会社,沖縄県,うるま市,字西原４２５番地,,47,213,9042204,,,,,,,2025-08-13,1,,,,,テノワ,0
229,1370001052928,新規,0,2025-08-13,2025-08-13,株式会社ＥｒｅｇｕｌａＲ,,株式会社,宮城県,仙台市宮城野区,安養寺２丁目１４番１５号,,04,102,9830832,,,,,,,2025-08-13,1,,,,,イレギュラー,0
230,1370001052936,新規,0,2025-08-13,2025-08-13,株式会社ＥＢＩＳＵ,,株式会社,宮城県,仙台市宮城野区,田子１丁目７番７号,,04,102,9830021,,,,,,,2025-08-13,1,,,,,エビス,0
231,1370001052960,新規,0,2025-08-13,2025-08-13,株式会社スモモガーデン,,株式会社,宮城県,仙台市宮城野区,福室３丁目３番２０－１０３号,,04,102,9830005,,,,,,,2025-08-13,1,,,,,スモモガーデン,0
232,1370003007244,新規,0,2025-08-13,2025-08-13,合同会社華蓮,,合同会社,宮城県,仙台市青葉区,折立６丁目１５番１２号,,04,101,9893161,,,,,,,2025-08-13,1,,,,,カレン,0
235,1380001035510,新規,0,2025-08-13,2025-08-13,拓コーポレーション株式会社,,株式会社,福島県,福島市,上鳥渡字しのぶ台１９番地の８,,07,201,9601107,,,,,,,2025-08-13,1,,,,,タクコーポレーション,0
236,1380001035519,新規,0,2025-08-13,2025-08-13,ＢＫクリエイト株式会社,,株式会社,福島県,いわき市,泉町下川字大剣１番９７,,07,204,9718183,,,,,,,2025-08-13,1,,,,,ビーケークリエイト,0
238,1380003006113,新規,0,2025-08-13,2025-08-13,合同会社フェイト,,合同会社,福島県,郡山市,静町８‐１８,,07,203,9630203,,,,,,,2025-08-13,1,,,,,フェイト,0
241,1410001014254,新規,0,2025-08-13,2025-08-13,中央鋼建秋田株式会社,,株式会社,秋田県,横手市,柳田１２番地１３,,05,203,0130054,,,,,,,2025-08-13,1,,,,,チュウオウコウケンアキタ,0
243,1420003003171,新規,0,2025-08-13,2025-08-13,合同会社ＧＯＯＤＦＥＬＬＯＷＳ,,合同会社,青森県,弘前市,大字御幸町１０番地２７,,02,202,0368185,,,,,,,2025-08-13,1,,,,,グッドフェローズ,0
246,1430001094947,新規,0,2025-08-13,2025-08-13,吉田国際投資株式会社,,株式会社,北海道,札幌市中央区,大通西１丁目１４番２号桂和大通ビル５０、９階,,01,101,0600042,,,,,,,2025-08-13,1,,,,,チーティエンコクサイトウシ,0
248,1450001014705,新規,0,2025-08-13,2025-08-13,株式会社エイチ・アンド・エフ,,株式会社,北海道,旭川市,大町二条１丁目５番地１０７,,01,204,0700842,,,,,,,2025-08-13,1,,,,,エイチアンドエフ,0
253,1500001026471,新規,0,2025-08-13,2025-08-13,株式会社らいおんファーム,,株式会社,愛媛県,東温市,南方２６４４番地１,,38,215,7910301,,,,,,,2025-08-13,1,,,,,ライオンファーム,0
254,1700150131754,新規,0,2025-08-13,2025-08-13,ｓｈｅｎｚｈｅｎｓｈｉｚｅｙｕａｎｋｅｊｉｙｏｕｘｉａｎｇｏｎｇｓｉ,,外国会社等,,,,,,,,ｌｏｎｇｈｕａｊｉｅｄａｏｓａｎｌｉａｎｓｈｅｑｕ　ｓａｎｌｉａｎｃｈｕａｎｇｙｅｌｕ　１９ｈａｏ　ｇｏｎｇｃｕｎｘｉｎｃｈｅｎｇ　ｓｈａｎｇｙｅｚｈｏｎｇｘｉｎ　ｈｕｉｈａｉｇｕａｎｇｃｈａｎｇ　Ｂｚｕｏ　１３ｃｅｎｇ　１３０８　ｌｏｎｇｈｕａ　ｓｈｅｎｚｈｅｎ,,,,,,2025-08-13,1,,,,,シンセンシゼユェンカギユウゲンコウシ,0
257,2010001257537,新規,0,2025-08-13,2025-08-13,Ｎｅｐｔｗａｒｅ株式会社,,株式会社,東京都,中央区,銀座１丁目２２番１１号銀座大竹ビジデンス２Ｆ,,13,102,1040061,,,,,,,2025-08-13,1,,,,,ネプトウェア,0
258,2010001257586,新規,0,2025-08-13,2025-08-13,株式会社ＮｕＷａ,,株式会社,東京都,千代田区,神田三崎町３丁目５番９号天翔水道橋ビル２０５－Ｅ,,13,101,1010061,,,,,,,2025-08-13,1,,,,,ヌーワ,0
259,2010001257669,新規,0,2025-08-13,2025-08-13,株式会社ボーディジャパン,,株式会社,東京都,千代田区,一番町３番地７－２０２号室,,13,101,1020082,,,,,,,2025-08-13,1,,,,,ボーディジャパン,0
260,2010001257735,新規,0,2025-08-13,2025-08-13,ＦＬＡＧＳＨＩＰＳ株式会社,,株式会社,東京都,中央区,日本橋堀留町２丁目３番８号,,13,102,1030012,,,,,,,2025-08-13,1,,,,,フラッグシップス,0
261,2010003048323,新規,0,2025-08-13,2025-08-13,合同会社トータルサポート,,合同会社,東京都,千代田区,神田須田町１丁目７番８号ＶＯＲＴ秋葉原ＩＶ２Ｆ,00140271,13,101,1010041,,,,,,,2025-08-13,1,,,,,トータルサポート,0
262,2010003048331,新規,0,2025-08-13,2025-08-13,合同会社那覇メイホウ,,合同会社,東京都,中央区,日本橋１丁目４番１号,,13,102,1030027,,,,,,,2025-08-13,1,,,,,ナハメイホウ,0
264,2010005040402,新規,0,2025-08-13,2025-08-13,一般社団法人Ｗｉｌｌ　Ｖｉｓｉｏｎ　Ａｃａｄｅｍｙ,,その他の設立登記法人,東京都,中央区,銀座６丁目１３番１６号銀座ＷａｌｌビルＵＣＦ５０１,,13,102,1040061,,,,,,,2025-08-13,1,,,,,ウィルビジョンアカデミー,0
265,2010005040518,新規,0,2025-08-13,2025-08-13,フレックス社会保険労務士法人,,その他の設立登記法人,東京都,千代田区,大手町１丁目５番１号大手町ファーストスクエアイーストタワー４Ｆ,,13,101,1000004,,,,,,,2025-08-13,1,,,,,フレックス,0
274,2010701048153,新規,0,2025-08-13,2025-08-13,株式会社ＴＥＸＥＴ,,株式会社,東京都,品川区,西五反田１丁目２６番２号五反田サンハイツ９１１,,13,109,1410031,,,,,,,2025-08-13,1,,,,,ティーゼット,0
280,2010903010183,新規,0,2025-08-13,2025-08-13,Ｒｏｙｚ　ＡＩ　Ｌａｂ合同会社,,合同会社,東京都,世田谷区,等々力３丁目２５―１２等々力テラスＦ,,13,112,1580082,,,,,,,2025-08-13,1,,,,,ロイズエーアイラボ,0
285,2011001171851,新規,0,2025-08-13,2025-08-13,オールステージ株式会社,,株式会社,東京都,渋谷区,宇田川町３－７ヒューリック渋谷公園通りビル５Ｆ－１２１,,13,113,1500042,,,,,,,2025-08-13,1,,,,,オールステージ,0
287,2011005011137,新規,0,2025-08-13,2025-08-13,税理士法人海東山口事務所,,その他の設立登記法人,東京都,渋谷区,桜丘町２４番８号新南平台マンション２０３号,,13,113,1500031,,,,,,,2025-08-13,1,,,,,カイトウヤマグチジムショ,0
294,2011201026558,新規,0,2025-08-13,2025-08-13,株式会社ＴＨＤ,,株式会社,東京都,中野区,新井５丁目１４番３号,,13,114,1650026,,,,,,,2025-08-13,1,,,,,ティーエイチディー,0
295,2011201026566,新規,0,2025-08-13,2025-08-13,株式会社ユーセント,,株式会社,東京都,中野区,中野１丁目３０－１８エスポワール２０１,,13,114,1640001,,,,,,,2025-08-13,1,,,,,ユーセント,0
299,2011401027315,新規,0,2025-08-13,2025-08-13,ＪＩＡ　ＣＨＥＮＧ株式会社,,株式会社,東京都,板橋区,相生町１０－９志村三丁目フラワーホーム５０８号室,,13,119,1740044,,,,,,,2025-08-13,1,,,,,ジャチェン,0
301,2011501032405,新規,0,2025-08-13,2025-08-13,アストヤオ株式会社,,株式会社,東京都,荒川区,東日暮里５丁目４０番９号東日荘２０３号室,,13,118,1160014,,,,,,,2025-08-13,1,,,,,アストヤオ,0
302,2011501032421,新規,0,2025-08-13,2025-08-13,協成投資株式会社,,株式会社,東京都,北区,王子３丁目２２－２３協成ビル,,13,117,1140002,,,,,,,2025-08-13,1,,,,,キョウセイトウシ,0
304,2011503006638,新規,0,2025-08-13,2025-08-13,ＯＳＭｅｎｔｏｒ合同会社,,合同会社,東京都,北区,中里２丁目２６番１号メイキンビル２階,,13,117,1140015,,,,,,,2025-08-13,1,,,,,オーエスメンター,0
305,2011603004797,新規,0,2025-08-13,2025-08-13,合同会社宙城,,合同会社,東京都,練馬区,下石神井２丁目３７番１１号,,13,120,1770042,,,,,,,2025-08-13,1,,,,,チュウジョウ,0
306,2011701028624,新規,0,2025-08-13,2025-08-13,ＺＹ株式会社,,株式会社,東京都,江戸川区,本一色２丁目１８－２,,13,123,1330044,,,,,,,2025-08-13,1,,,,,ゼットワイ,0
307,2011803007014,新規,0,2025-08-13,2025-08-13,Ｋ　Ｓｏｕｎｄ合同会社,,合同会社,東京都,足立区,東綾瀬３丁目１１－３－６０２,,13,121,1200004,,,,,,,2025-08-13,1,,,,,ケーサウンド,0
313,2012405005141,新規,0,2025-08-13,2025-08-13,特定非営利活動法人コネクト,,その他の設立登記法人,東京都,多摩市,桜ヶ丘４丁目３６番地の５３ドミールサンキ１０１,,13,224,2060013,,,,,,,2025-08-13,1,,,,,コネクト,0
325,2020003029149,新規,0,2025-08-13,2025-08-13,アイシン貿易合同会社,,合同会社,神奈川県,横浜市西区,楠町１５番地１－６０１号,,14,103,2200003,,,,,,,2025-08-13,1,,,,,アイシンボウエキ,0
327,2021001086108,新規,0,2025-08-13,2025-08-13,株式会社イシンプロパティ,,株式会社,神奈川県,横須賀市,久比里２丁目１９番２号,,14,201,2390828,,,,,,,2025-08-13,1,,,,,イシンプロパティ,0
330,2030001168006,新規,0,2025-08-13,2025-08-13,株式会社モジック,,株式会社,埼玉県,川口市,前川３丁目９番１４－２０１号,,11,203,3330842,,,,,,,2025-08-13,1,,,,,モジック,0
331,2030001168096,新規,0,2025-08-13,2025-08-13,青木弘暉株式会社,,株式会社,埼玉県,蕨市,中央３丁目２２番１５号金沢ビル２Ｆ,,11,223,3350004,,,,,,,2025-08-13,1,,,,,アオキヒロキ,0
343,2050001057058,新規,0,2025-08-13,2025-08-13,株式会社ＦＬＧ,,株式会社,茨城県,つくば市,吾妻１丁目５番７号ダイワロイネットホテルつくばビル２階,,08,220,3050031,,,,,,,2025-08-13,1,,,,,エフエルジー,0
344,2050001057082,新規,0,2025-08-13,2025-08-13,いばらき就職パーク株式会社,,株式会社,茨城県,つくば市,花畑３丁目２１－８,,08,220,3003261,,,,,,,2025-08-13,1,,,,,イバラキシュウショクパーク,0
349,2080401028093,新規,0,2025-08-13,2025-08-13,ＳＥＩＷＡ　ｔｒａｄｉｎｇ株式会社,,株式会社,静岡県,浜松市中央区,下池川町６８番地の１セイワビル２Ｆ,,22,138,4300905,,,,,,,2025-08-13,1,,,,,セイワトレーディング,0
350,2080401028102,新規,0,2025-08-13,2025-08-13,株式会社ムナワルトレーディング,,株式会社,静岡県,袋井市,永楽町２５９番地,,22,216,4370014,,,,,,,2025-08-13,1,,,,,ムナワルトレーディング,0
357,2110001039504,新規,0,2025-08-13,2025-08-13,株式会社近藤組ホールディングス,,株式会社,新潟県,新潟市秋葉区,中新田５９４番地,,15,105,9560812,,,,,,,2025-08-13,1,,,,,コンドウグミホールディングス,0
370,2120001278704,新規,0,2025-08-13,2025-08-13,株式会社エンリンク,,株式会社,大阪府,大阪市都島区,都島本通３丁目１８番４号,,27,102,5340021,,,,,,,2025-08-13,1,,,,,エンリンク,0
371,2120001278720,新規,0,2025-08-13,2025-08-13,ＮＳキャピタル株式会社,,株式会社,大阪府,大阪市中央区,内久宝寺町３丁目１番１－１６０８号,,27,128,5400013,,,,,,,2025-08-13,1,,,,,エヌエスキャピタル,0
372,2120001278729,新規,0,2025-08-13,2025-08-13,株式会社ＡＳＡＰＲＯＪＥＣＴ,,株式会社,大阪府,大阪市西区,立売堀１丁目７－１２グレース大阪本町ビル３０２,,27,106,5500012,,,,,,,2025-08-13,1,,,,,アサプロジェクト,0
373,2120001278794,新規,0,2025-08-13,2025-08-13,株式会社ノースフィールド,,株式会社,大阪府,大阪市北区,曾根崎１丁目４番５－２０１号,,27,127,5300057,,,,,,,2025-08-13,1,,,,,ノースフィールド,0
374,2120001278844,新規,0,2025-08-13,2025-08-13,株式会社つながり,,株式会社,大阪府,大阪市平野区,瓜破５丁目４番２６号,,27,126,5470024,,,,,,,2025-08-13,1,,,,,ツナガリ,0
375,2120003030253,新規,0,2025-08-13,2025-08-13,合同会社３７２ｆａｃｔｏｒｙ,,合同会社,大阪府,大阪市中央区,南船場３丁目２番２２号おおきに南船場ビル２０５,,27,128,5420081,,,,,,,2025-08-13,1,,,,,ミナツファクトリー,0
378,2120101072247,新規,0,2025-08-13,2025-08-13,株式会社ＡＩＦソリューション,,株式会社,大阪府,堺市中区,東山４８６番地３,,27,142,5998247,,,,,,,2025-08-13,1,,,,,エーアイエフソリューション,0
379,2120101072263,新規,0,2025-08-13,2025-08-13,中通雲倉株式会社,,株式会社,大阪府,阪南市,尾崎町５丁目８－２１－２Ｆ,,27,232,5990201,,,,,,,2025-08-13,1,,,,,チュウツウウンソウ,0
381,2120103006624,新規,0,2025-08-13,2025-08-13,合同会社和電設,,合同会社,大阪府,泉佐野市,大西１丁目１７番４号ＣＯＭＭＵＮＥ内,,27,213,5980043,,,,,,,2025-08-13,1,,,,,ナゴミデンセツ,0
382,2120103006632,新規,0,2025-08-13,2025-08-13,合同会社ＡＢドラゴン,,合同会社,大阪府,羽曳野市,高鷲１０丁目２５番４号,,27,222,5830882,,,,,,,2025-08-13,1,,,,,エービードラゴン,0
387,2122001039532,新規,0,2025-08-13,2025-08-13,株式会社六角商店,,株式会社,大阪府,東大阪市,御厨４丁目６番１４号,,27,227,5770032,,,,,,,2025-08-13,1,,,,,ロッカクショウテン,0
390,2130001080241,新規,0,2025-08-13,2025-08-13,株式会社サイバーセキュリティアルファ,,株式会社,京都府,京都市下京区,鶏鉾町４９３番地,,26,106,6008491,,,,,,,2025-08-13,1,,,,,サイバーセキュリティアルファ,0
391,2130001080299,新規,0,2025-08-13,2025-08-13,株式会社フルメタルガード,,株式会社,京都府,京都市中京区,御池通東洞院東入笹屋町４３６永和御池ビル,,26,104,6048187,,,,,,,2025-08-13,1,,,,,フルメタルガード,0
395,2140003022430,新規,0,2025-08-13,2025-08-13,Ｏｎｅ　ｃｏｎｓｕｌｔｉｎｇ合同会社,,合同会社,兵庫県,川西市,緑台３丁目１１番地の１１,,28,217,6660129,,,,,,,2025-08-13,1,,,,,ワンコンサルティング,0
400,2160001026968,新規,0,2025-08-13,2025-08-13,株式会社ＶｉｖｉｄＣａｎｖａｓ,,株式会社,滋賀県,近江八幡市,長光寺町１３２番地１３（２０１号）,,25,204,5230013,,,,,,,2025-08-13,1,,,,,ヴィヴィッドキャンバス,0
401,2160001026976,新規,0,2025-08-13,2025-08-13,株式会社ＳＫトレードプロダクツ,,株式会社,滋賀県,東近江市,五個荘石塚町１５５番地１６,00140270,25,213,5291444,,,,,,,2025-08-13,1,,,,,エスケイトレードプロダクツ,0
409,2180001168065,新規,0,2025-08-13,2025-08-13,株式会社ＴＥＲＡｈａ　ｃｏｍｐａｎｙ,,株式会社,愛知県,西春日井郡豊山町,大字豊場字和合２１番地,,23,342,4800202,,,,,,,2025-08-13,1,,,,,テラハカンパニー,0
410,2180001168164,新規,0,2025-08-13,2025-08-13,ビジョンコア株式会社,,株式会社,愛知県,名古屋市名東区,山の手１丁目９１４番地,,23,115,4650011,,,,,,,2025-08-13,1,,,,,ビジョンコア,0
411,2180003028853,新規,0,2025-08-13,2025-08-13,Ｍｅｄｉｍｅｎｔ合同会社,,合同会社,愛知県,名古屋市中村区,名駅南２丁目７番６７号（パークアクシス名駅南７１６号）,,23,105,4500003,,,,,,,2025-08-13,1,,,,,メディメント,0
418,2180301040097,新規,0,2025-08-13,2025-08-13,株式会社たにじろうアセットマネジメント,,株式会社,愛知県,安城市,福釜町尾山１４番地,,23,212,4460052,,,,,,,2025-08-13,1,,,,,タニジロウアセットマネジメント,0
426,2200005013792,新規,0,2025-08-13,2025-08-13,医療法人鳥仁会,,その他の設立登記法人,岐阜県,瑞浪市,益見町１丁目１２５番地,,21,208,5096108,,,,,,,2025-08-13,1,,,,,チョウジンカイ,0
427,2210001020271,新規,0,2025-08-13,2025-08-13,株式会社ＨＮＳ,,株式会社,福井県,越前市,平出２丁目１０番２８号,,18,209,9150803,,,,,,,2025-08-13,1,,,,,エイチエヌエス,0
430,2230001021045,新規,0,2025-08-13,2025-08-13,株式会社Ｈ．ＳＴＡＲ,,株式会社,富山県,高岡市,羽広２丁目２‐１２,,16,202,9330844,,,,,,,2025-08-13,1,,,,,エイチスター,0
433,2230003002480,新規,0,2025-08-13,2025-08-13,合同会社トレカバース,,合同会社,富山県,高岡市,大源寺８６,,16,202,9330311,,,,,,,2025-08-13,1,,,,,トレカバース,0
445,2240003007363,新規,0,2025-08-13,2025-08-13,大日本和心合同会社,,合同会社,広島県,東広島市,黒瀬楢原北２丁目２８番１１号,,34,212,7392627,,,,,,,2025-08-13,1,,,,,ダイニホンワシン,0
450,2260003005299,新規,0,2025-08-13,2025-08-13,合同会社ＳＫサービス,,合同会社,岡山県,瀬戸内市,邑久町山田庄１０８０番５号,,33,212,7014246,,,,,,,2025-08-13,1,,,,,エスケイサービス,0
452,2270001009268,新規,0,2025-08-13,2025-08-13,株式会社クニビキノハシラ,,株式会社,鳥取県,米子市,河崎１２９６番地１,,31,202,6830852,,,,,,,2025-08-13,1,,,,,クニビキノハシラ,0
459,2290001110981,新規,0,2025-08-13,2025-08-13,株式会社コスモスエナジー,,株式会社,福岡県,福岡市博多区,板付５丁目１６番２４号,,40,132,8120888,,,,,,,2025-08-13,1,,,,,コスモスエナジー,0
465,2300001014314,新規,0,2025-08-13,2025-08-13,株式会社肥田商事,,株式会社,佐賀県,唐津市,養母田４９３番地１,,41,202,8470004,,,,,,,2025-08-13,1,,,,,ヒダショウジ,0
466,2300001014322,新規,0,2025-08-13,2025-08-13,株式会社タケダ建設,,株式会社,佐賀県,佐賀市,諸富町大字寺井津字搦１２０番,,41,201,8402103,,,,,,,2025-08-13,1,,,,,タケダケンセツ,0
470,2320001021283,新規,0,2025-08-13,2025-08-13,株式会社ＬＡＬＡ　ＬＡＢＯ,,株式会社,大分県,豊後大野市,三重町西泉５４４番地１,,44,212,8797151,,,,,,,2025-08-13,1,,,,,ラララボ,0
471,2350001019696,新規,0,2025-08-13,2025-08-13,株式会社ＬＩＮＴＯ,,株式会社,宮崎県,宮崎市,橘通西３丁目１０番３２号８階,,45,201,8800001,,,,,,,2025-08-13,1,,,,,リント,0
472,2360001035577,新規,0,2025-08-13,2025-08-13,株式会社Ｐｏｔｅｎｔｉａｌ　ｏｆ琉球,,株式会社,沖縄県,那覇市,三原２丁目２５番１５号,,47,201,9020063,,,,,,,2025-08-13,1,,,,,ポテンシャルオブリュウキュウ,0
473,2360001035585,新規,0,2025-08-13,2025-08-13,株式会社アールクリーン,,株式会社,沖縄県,中頭郡北中城村,字喜舎場１８５番地ＲＫマンション２０１,,47,327,9012311,,,,,,,2025-08-13,1,,,,,アールクリーン,0
474,2360001035610,新規,0,2025-08-13,2025-08-13,株式会社海島,,株式会社,沖縄県,那覇市,松尾２丁目１番１０号,,47,201,9000014,,,,,,,2025-08-13,1,,,,,ウミシマ,0
475,2360001035619,新規,0,2025-08-13,2025-08-13,株式会社ＣＣ＆Ｃｒａｆｔ,,株式会社,沖縄県,島尻郡与那原町,字与那原２９２５番地の２,,47,348,9011303,,,,,,,2025-08-13,1,,,,,シーシーアンドクラフト,0
476,2360001035635,新規,0,2025-08-13,2025-08-13,株式会社ＤＡＹＴＯＮＡ,,株式会社,沖縄県,国頭郡今帰仁村,字今泊１７０番地,,47,306,9050428,,,,,,,2025-08-13,1,,,,,デイトナ,0
477,2360005007267,新規,0,2025-08-13,2025-08-13,一般社団法人ｃｈａｋｋａ,,その他の設立登記法人,沖縄県,国頭郡本部町,字瀬底１５８５－１,,47,308,9050227,,,,,,,2025-08-13,1,,,,,チャッカ,0
479,2370001052943,新規,0,2025-08-13,2025-08-13,株式会社ＮＯＣ,,株式会社,宮城県,黒川郡大和町,吉岡南２丁目１２番地の２,,04,421,9813626,,,,,,,2025-08-13,1,,,,,エヌオーシー,0
481,2410001014253,新規,0,2025-08-13,2025-08-13,秋田駅前みどりや再開発事業株式会社,,株式会社,秋田県,秋田市,泉北３丁目４番２０号,,05,201,0100916,,,,,,,2025-08-13,1,,,,,アキタエキマエミドリヤサイカイハツジギョウ,0
492,2430001094946,新規,0,2025-08-13,2025-08-13,吉悦投資管理株式会社,00140256,株式会社,北海道,札幌市中央区,大通西１丁目１４番２号桂和大通ビル５０、９階,,01,101,0600042,,,,,,,2025-08-13,1,,,,,チーユエトウシカンリ,0
493,2430001094970,新規,0,2025-08-13,2025-08-13,株式会社ＡＡＡＳＴＡＲ,,株式会社,北海道,札幌市中央区,南二条西７丁目１－５－２Ｆ,,01,101,0600062,,,,,,,2025-08-13,1,,,,,エーエーエースター,0
494,2430001094987,新規,0,2025-08-13,2025-08-13,株式会社エコフィナ,,株式会社,北海道,札幌市白石区,東米里２１９９番地１５１,,01,104,0030876,,,,,,,2025-08-13,1,,,,,エコフィナ,0
502,2500001026470,新規,0,2025-08-13,2025-08-13,株式会社Ｍワン企工,,株式会社,愛媛県,松山市,宮西３丁目４番１５号シャトー宮西２０３号,,38,201,7900065,,,,,,,2025-08-13,1,,,,,エムワンキコウ,0
503,2700150131753,新規,0,2025-08-13,2025-08-13,Ｚｈｅｎｇ　Ｚｈｏｕ　Ｄｉ　Ｙｕｎ　Ｗａｎｇ　Ｌｕｏ　Ｋｅ　Ｊｉ　Ｙｏｕ　Ｘｉａｎ　Ｇｏｎｇ　Ｓｉ,,外国会社等,,,,,,,,Ｎｏ．　２６０２，　２６ｔｈ　Ｆｌｏｏｒ，　Ｂｌｏｃｋ　Ｂ，　Ｄｏｎｇｆａｎｇ　Ｂｕｉｌｄｉｎｇ，　Ｎｏ．１９８－１９　Ｓｏｎｇｓｈａｎ　Ｓｏｕｔｈ　Ｒｏａｄ，　Ｅｒｑｉ　Ｄｉｓｔｒｉｃｔ，　Ｚｈｅｎｇｚｈｏｕ　Ｈｅｎａｎ,,,,,,2025-08-13,1,,,,,ゼンゾウディユンワンロウカギユウゲンコウシ,0
507,3010001256892,新規,0,2025-08-13,2025-08-13,アムール株式会社,,株式会社,東京都,中央区,銀座１丁目１２－４Ｎ＆ＥＢＬＤ．７,,13,102,1040061,,,,,,,2025-08-13,1,,,,,アムール,0
508,3010001257239,新規,0,2025-08-13,2025-08-13,クロウゼン株式会社,,株式会社,東京都,文京区,本郷２丁目１２番９号グランディールお茶の水４０１,,13,105,1130033,,,,,,,2025-08-13,1,,,,,クロウゼン,0
509,3010001257552,新規,0,2025-08-13,2025-08-13,ＪＹＬ　Ａｄｖｉｓｏｒｙ株式会社,,株式会社,東京都,千代田区,麹町２丁目６番７号ＳｔａｒＢｕｉｌｄｉｎｇ５階,,13,101,1020083,,,,,,,2025-08-13,1,,,,,ジェイワイエルアドバイザリー,0
510,3010001257593,新規,0,2025-08-13,2025-08-13,株式会社Ｐｒｅｓｔｉｎａ,,株式会社,東京都,中央区,日本橋茅場町３丁目５－３日宝茅場町ビル５Ｆ,,13,102,1030025,,,,,,,2025-08-13,1,,,,,プレスティナ,0
511,3010001257602,新規,0,2025-08-13,2025-08-13,ワークウェル株式会社,,株式会社,東京都,中央区,銀座１丁目１２番４号Ｎ＆ＥＢＬＤ．６Ｆ,,13,102,1040061,,,,,,,2025-08-13,1,,,,,ワークウェル,0
512,3010001257619,新規,0,2025-08-13,2025-08-13,Ｔｒｉｐｏｌｏｇｙ株式会社,,株式会社,東京都,中央区,銀座１丁目２４番３号８階,,13,102,1040061,,,,,,,2025-08-13,1,,,,,トリポロジー,0
513,3010001257726,新規,0,2025-08-13,2025-08-13,株式会社Ｆｉｖｅ　ｂｏｘｅｓ,,株式会社,東京都,中央区,入船２丁目３番６号細矢ビル４階,,13,102,1040042,,,,,,,2025-08-13,1,,,,,ファイブボクシーズ,0
514,3010001257742,新規,0,2025-08-13,2025-08-13,株式会社ＯＰＲＩＯＮ,,株式会社,東京都,千代田区,神田須田町２丁目１９番２３号２階,,13,101,1010041,,,,,,,2025-08-13,1,,,,,オプリオン,0
516,3010003048280,新規,0,2025-08-13,2025-08-13,合同会社Ｂｒｅ‐Ｍｅｎ,,合同会社,東京都,千代田区,神田須田町１丁目７番８号ＶＯＲＴ秋葉原ＩＶ２Ｆ,00140269,13,101,1010041,,,,,,,2025-08-13,1,,,,,ブレーメン,0
517,3010003048322,新規,0,2025-08-13,2025-08-13,ＫｉｒａＫｕｒａ　Ｌｉｖｉｎｇ合同会社,,合同会社,東京都,文京区,千石４丁目１４番９号,,13,105,1120011,,,,,,,2025-08-13,1,,,,,キラクラリビング,0
518,3010003048355,新規,0,2025-08-13,2025-08-13,合同会社グリーンビルＰＪ４,,合同会社,東京都,中央区,日本橋１丁目４番１号,,13,102,1030027,,,,,,,2025-08-13,1,,,,,グリーンビルピージェイフォー,0
519,3010005040509,新規,0,2025-08-13,2025-08-13,松濤プロパティー特定目的会社,,その他の設立登記法人,東京都,千代田区,丸の内１丁目１１番１号,,13,101,1000005,,,,,,,2025-08-13,1,,,,,ショウトウプロパティー,0
531,3010601067780,新規,0,2025-08-13,2025-08-13,株式会社共栄工業,,株式会社,東京都,墨田区,八広２丁目５４番１５－１３０３号,,13,107,1310041,,,,,,,2025-08-13,1,,,,,キョウエイコウギョウ,0
532,3010603011712,新規,0,2025-08-13,2025-08-13,ホーリーチャーム合同会社,,合同会社,東京都,墨田区,立花５丁目５－２－１０１,,13,107,1310043,,,,,,,2025-08-13,1,,,,,ホーリーチャーム,0
544,3010903010166,新規,0,2025-08-13,2025-08-13,合同会社ＯＨＩＲＡ,,合同会社,東京都,世田谷区,千歳台１丁目１番１４－２１７号,,13,112,1570071,,,,,,,2025-08-13,1,,,,,オーヒラ,0
545,3010903010182,新規,0,2025-08-13,2025-08-13,合同会社東京労務計算センター,,合同会社,東京都,世田谷区,経堂４丁目３８番２５号カーサ経堂１０１,,13,112,1560052,,,,,,,2025-08-13,1,,,,,トウキョウロウムケイサンセンター,0
547,3011001171280,新規,0,2025-08-13,2025-08-13,株式会社ナンバーナイン・マネジメント・アドバイザリ,,株式会社,東京都,渋谷区,渋谷２丁目２４－１２渋谷スクランブルスクエア３９階,,13,113,1500002,,,,,,,2025-08-13,1,,,,,ナンバーナインマネジメントアドバイザリ,0
552,3011101112655,新規,0,2025-08-13,2025-08-13,香港製図株式会社,,株式会社,東京都,新宿区,大久保１丁目１－９,,13,104,1690072,,,,,,,2025-08-13,1,,,,,ホンコンセイズ,0
554,3011401027322,新規,0,2025-08-13,2025-08-13,株式会社Ｍａｘ　Ｍ,,株式会社,東京都,板橋区,坂下３丁目３４－８－２Ｆ,,13,119,1740043,,,,,,,2025-08-13,1,,,,,マックスエム,0
557,3011501032429,新規,0,2025-08-13,2025-08-13,株式会社かいたい,,株式会社,東京都,荒川区,南千住７丁目１７番２－８０２号,,13,118,1160003,,,,,,,2025-08-13,1,,,,,カイタイ,0
564,3012301014501,新規,0,2025-08-13,2025-08-13,株式会社花束,,株式会社,東京都,町田市,能ヶ谷７丁目４５番１８号,,13,209,1950053,,,,,,,2025-08-13,1,,,,,ハナタバ,0
565,3012801024173,新規,0,2025-08-13,2025-08-13,株式会社ユアヘルプ,,株式会社,東京都,日野市,三沢５丁目１８番地の４,,13,212,1910032,,,,,,,2025-08-13,1,,,,,ユアヘルプ,0
566,3012805003355,新規,0,2025-08-13,2025-08-13,一般社団法人野中郁次郎研究所,,その他の設立登記法人,東京都,国立市,東２丁目３番４号ブランズ国立６０５号室,,13,215,1860002,,,,,,,2025-08-13,1,,,,,ノナカイクジロウケンキュウジョ,0
574,3020001164252,新規,0,2025-08-13,2025-08-13,株式会社Ｒｅ‐Ｃｒｅａｔｅ,,株式会社,神奈川県,川崎市麻生区,虹ケ丘２丁目３番２２－２０１号,,14,137,2150015,,,,,,,2025-08-13,1,,,,,レクリエイト,0
575,3020001164260,新規,0,2025-08-13,2025-08-13,株式会社ｎｕｎ,,株式会社,神奈川県,横浜市金沢区,幸浦１丁目１５－５,,14,108,2360003,,,,,,,2025-08-13,1,,,,,エヌユーエヌ,0
576,3020003028934,新規,0,2025-08-13,2025-08-13,ＥＱｌａｔｉｏｎ　ＨＲ合同会社,,合同会社,神奈川県,横浜市泉区,西が岡１丁目１４番１号,,14,116,2450006,,,,,,,2025-08-13,1,,,,,エキュレーションエイチアール,0
578,3021003016409,新規,0,2025-08-13,2025-08-13,合同会社セカンドカーライフ,,合同会社,神奈川県,足柄下郡真鶴町,真鶴４００番地の１,,14,383,2590201,,,,,,,2025-08-13,1,,,,,セカンドカーライフ,0
581,3030001168095,新規,0,2025-08-13,2025-08-13,株式会社工藤鉄筋工業,,株式会社,埼玉県,新座市,野火止６丁目９番１３号,,11,230,3520011,,,,,,,2025-08-13,1,,,,,クドウテッキンコウギョウ,0
582,3030001168145,新規,0,2025-08-13,2025-08-13,徳愛株式会社,,株式会社,埼玉県,蕨市,中央７丁目５番８号,,11,223,3350004,,,,,,,2025-08-13,1,,,,,トクアイ,0
583,3030001168161,新規,0,2025-08-13,2025-08-13,株式会社ナカムラダクト工業,,株式会社,埼玉県,さいたま市緑区,大字三室８７１番地５,,11,109,3360911,,,,,,,2025-08-13,1,,,,,ナカムラダクトコウギョウ,0
585,3030003027373,新規,0,2025-08-13,2025-08-13,合同会社ＭａＭｏｇ,,合同会社,埼玉県,さいたま市南区,沼影１丁目１１－２Ｃ１８１１,,11,108,3360027,,,,,,,2025-08-13,1,,,,,マモグ,0
590,3040001139979,新規,0,2025-08-13,2025-08-13,株式会社絶好調,,株式会社,千葉県,木更津市,千束台２丁目４番地１９,,12,206,2920808,,,,,,,2025-08-13,1,,,,,ゼッコウチョウ,0
591,3040001139987,新規,0,2025-08-13,2025-08-13,株式会社ウィズ・フェリーク,,株式会社,千葉県,千葉市緑区,おゆみ野中央８丁目１５番地５,,12,105,2660032,,,,,,,2025-08-13,1,,,,,ウィズフェリーク,0
592,3040001140020,新規,0,2025-08-13,2025-08-13,株式会社ＨＡＫＯＢＵＮＥ,,株式会社,千葉県,市川市,大町１０２番６,,12,203,2720801,,,,,,,2025-08-13,1,,,,,ハコブネ,0
597,3040003028214,新規,0,2025-08-13,2025-08-13,ＰＲＡＩＲＩＥ合同会社,,合同会社,千葉県,我孫子市,湖北台６丁目４―８,,12,222,2701132,,,,,,,2025-08-13,1,,,,,プレイリー,0
598,3040005022842,新規,0,2025-08-13,2025-08-13,一般社団法人ＩＮＳＨＵＴＩ　ＮＺＩＺＡ,,その他の設立登記法人,千葉県,船橋市,藤原６丁目２２番２７号,,12,204,2730047,,,,,,,2025-08-13,1,,,,,インシュティンジーザ,0
601,3050001057049,新規,0,2025-08-13,2025-08-13,株式会社コンフィアンス,,株式会社,茨城県,稲敷郡阿見町,大字阿見２９５８番地マイアミショッピングセンター,,08,443,3000331,,,,,,,2025-08-13,1,,,,,コンフィアンス,0
605,3050003009436,新規,0,2025-08-13,2025-08-13,Ｍｉｄｏｒｉ　Ｈａｕｓ合同会社,,合同会社,茨城県,水戸市,泉町２丁目２番３３号,,08,201,3100026,,,,,,,2025-08-13,1,,,,,ミドリハウス,0
607,3060001038493,新規,0,2025-08-13,2025-08-13,株式会社ｒｅｖｏ,,株式会社,栃木県,宇都宮市,インターパーク３丁目７番１号ウェルシー２‐２０１号,,09,201,3210118,,,,,,,2025-08-13,1,,,,,レヴォ,0
611,3060003005681,新規,0,2025-08-13,2025-08-13,合同会社ＷＨＩＴＥ　ＰＡＬＡＣＥ,,合同会社,栃木県,小山市,大字立木１９５５番地２８,,09,208,3230062,,,,,,,2025-08-13,1,,,,,ホワイトパレス,0
616,3080103003393,新規,0,2025-08-13,2025-08-13,合同会社ＵＮＩＳＴＥＥＬ　ＪＡＰＡＮ,,合同会社,静岡県,御殿場市,東山１０５８番地の４,,22,215,4120024,,,,,,,2025-08-13,1,,,,,ユニスチールジャパン,0
621,3100001038852,新規,0,2025-08-13,2025-08-13,株式会社ｐａｒｃ,,株式会社,長野県,長野市,大字南長野字幅下６４４番地８,,20,201,3800837,,,,,,,2025-08-13,1,,,,,パーク,0
622,3100001038869,新規,0,2025-08-13,2025-08-13,株式会社ＡＮＤ　Ｗｅｌｌ,,株式会社,長野県,松本市,本庄１丁目１３番７号,,20,202,3900814,,,,,,,2025-08-13,1,,,,,アンドウェル,0
631,3120001277985,新規,0,2025-08-13,2025-08-13,株式会社ＳＵＮＲＥＣ,,株式会社,大阪府,大阪市淀川区,加島４丁目１９番２４号サンエイビル２０１,,27,123,5320031,,,,,,,2025-08-13,1,,,,,サンレック,0
632,3120001278257,新規,0,2025-08-13,2025-08-13,Ｓｉｍｅｚ株式会社,,株式会社,大阪府,大阪市都島区,都島本通３丁目１８番４号２階２０８－４号室,,27,102,5340021,,,,,,,2025-08-13,1,,,,,シメズ,0
633,3120001278686,新規,0,2025-08-13,2025-08-13,三星株式会社,,株式会社,大阪府,大阪市西成区,中開３丁目２番５－２０１号,,27,122,5570022,,,,,,,2025-08-13,1,,,,,ミツホシ,0
634,3120001278744,新規,0,2025-08-13,2025-08-13,株式会社ＥＮＩＳＨＩ,,株式会社,大阪府,大阪市北区,梅田１丁目２－２大阪駅前第２ビル１２－１２,,27,127,5300001,,,,,,,2025-08-13,1,,,,,エニシ,0
636,3120003030260,新規,0,2025-08-13,2025-08-13,ヒカリカーゴ合同会社,,合同会社,大阪府,大阪市港区,磯路１丁目１番３－５０６号,,27,107,5520003,,,,,,,2025-08-13,1,,,,,ヒカリカーゴ,0
637,3120003030269,新規,0,2025-08-13,2025-08-13,合同会社３Ｈ,,合同会社,大阪府,大阪市天王寺区,玉造元町１２－２パルコア真田山１Ｆ,,27,109,5430014,,,,,,,2025-08-13,1,,,,,スリーエイチ,0
638,3120003030285,新規,0,2025-08-13,2025-08-13,あおい合同会社,,合同会社,大阪府,大阪市住之江区,北加賀屋５丁目８－６３,,27,125,5590011,,,,,,,2025-08-13,1,,,,,アオイ,0
640,3120101072254,新規,0,2025-08-13,2025-08-13,株式会社ディライト,,株式会社,大阪府,泉佐野市,上瓦屋１００８番地１,,27,213,5980001,,,,,,,2025-08-13,1,,,,,ディライト,0
641,3120101072270,新規,0,2025-08-13,2025-08-13,株式会社ＹＥＮ,,株式会社,大阪府,河内長野市,木戸西町２丁目１番１３号２Ｆ,,27,216,5860009,,,,,,,2025-08-13,1,,,,,エン,0
644,3120901051309,新規,0,2025-08-13,2025-08-13,株式会社アスカ,,株式会社,大阪府,豊中市,上野西３丁目１８番２６号,,27,203,5600011,,,,,,,2025-08-13,1,,,,,アスカ,0
649,3130001080249,新規,0,2025-08-13,2025-08-13,ラフ・フォワード株式会社,,株式会社,京都府,京都市中京区,西ノ京西鹿垣町５３－１,,26,104,6048495,,,,,,,2025-08-13,1,,,,,ラフフォワード,0
650,3130001080257,新規,0,2025-08-13,2025-08-13,史上最強の株式会社,,株式会社,京都府,京都市中京区,三条通河原町東入中島町８４番地２京都三条１００２,,26,104,6048004,,,,,,,2025-08-13,1,,,,,シジョウサイキョウノ,0
651,3130001080273,新規,0,2025-08-13,2025-08-13,株式会社ＧＯＳＨＯＷ,,株式会社,京都府,城陽市,寺田新池１０５番地１,,26,207,6100121,,,,,,,2025-08-13,1,,,,,ゴーショウ,0
656,3140003022421,新規,0,2025-08-13,2025-08-13,合同会社ＦＪｅ,,合同会社,兵庫県,たつの市,揖保町今市２３９番地２５,,28,229,6794146,,,,,,,2025-08-13,1,,,,,エフジェーイー,0
660,3150001028329,新規,0,2025-08-13,2025-08-13,株式会社シャイン,,株式会社,奈良県,香芝市,五位堂３丁目４３４番地４,,29,210,6390226,,,,,,,2025-08-13,1,,,,,シャイン,0
663,3150003003676,新規,0,2025-08-13,2025-08-13,合同会社Ｒｅ　Ｂｏｒｎ,,合同会社,奈良県,奈良市,出屋敷町３７番地の１０,,29,201,6308423,,,,,,,2025-08-13,1,,,,,リボーン,0
665,3160001026967,新規,0,2025-08-13,2025-08-13,株式会社タナカ,,株式会社,滋賀県,守山市,今浜町２６２０番地８９,,25,207,5240101,,,,,,,2025-08-13,1,,,,,タナカ,0
671,3180001168080,新規,0,2025-08-13,2025-08-13,株式会社ハギハラデンキ,,株式会社,愛知県,江南市,村久野町寺東３３番地,,23,217,4838319,,,,,,,2025-08-13,1,,,,,ハギハラデンキ,0
672,3180001168089,新規,0,2025-08-13,2025-08-13,ＣＨＥＮＮＹ株式会社,,株式会社,愛知県,名古屋市東区,矢田１丁目２１番８号アーバンドエル大曽根東７０２号,,23,102,4610040,,,,,,,2025-08-13,1,,,,,チェニー,0
673,3180001168139,新規,0,2025-08-13,2025-08-13,株式会社Ｇｌｏｗｖａｎａ,,株式会社,愛知県,一宮市,開明字畑添１７番地１,,23,203,4940001,,,,,,,2025-08-13,1,,,,,グロウヴァーナ,0
678,3180005021178,新規,0,2025-08-13,2025-08-13,特定非営利活動法人あいち小児がんの会,,その他の設立登記法人,愛知県,名古屋市西区,庄内通４丁目１９番地フォレスト庄内通８Ａ号,,23,104,4510016,,,,,,,2025-08-13,1,,,,,アイチショウニガンノカイ,0
685,3190001032475,新規,0,2025-08-13,2025-08-13,株式会社ＦＵＪＩＸ,,株式会社,三重県,伊勢市,宮後２丁目１０番２０号フジマンション１０１,,24,203,5160072,,,,,,,2025-08-13,1,,,,,フジックス,0
696,3220003004097,新規,0,2025-08-13,2025-08-13,ＫＫアイエス合同会社,,合同会社,石川県,金沢市,太陽が丘第９工区５街区１２番地,,17,201,9200000,,,,,,,2025-08-13,1,,,,,ケーケーアイエス,0
697,3230001021044,新規,0,2025-08-13,2025-08-13,株式会社ＭＡＤＥ　ＩＮ　ＪＡＰＡＮ,,株式会社,富山県,富山市,八尾町寺家４５番地１,,16,201,9392301,,,,,,,2025-08-13,1,,,,,メイドインジャパン,0
709,3240001065354,新規,0,2025-08-13,2025-08-13,株式会社谷口製作所,,株式会社,広島県,広島市安佐北区,白木町三田下大椿３８７５番地３,,34,106,7391700,,,,,,,2025-08-13,1,,,,,タニグチセイサクショ,0
710,3240001065362,新規,0,2025-08-13,2025-08-13,ＯＮＥ　ｉｎｎｏｖａｔｉｏｎ株式会社,,株式会社,広島県,呉市,押込３丁目３番２５号,,34,202,7370915,,,,,,,2025-08-13,1,,,,,ワンイノベーション,0
711,3240001065370,新規,0,2025-08-13,2025-08-13,株式会社トカナル,,株式会社,広島県,広島市中区,江波東２丁目３番６－１０４号,,34,101,7300832,,,,,,,2025-08-13,1,,,,,トカナル,0
713,3260001040454,新規,0,2025-08-13,2025-08-13,株式会社海成,,株式会社,岡山県,倉敷市,東塚３丁目１４番２５－２号,,33,202,7128044,,,,,,,2025-08-13,1,,,,,カイセイ,0
716,3290001110980,新規,0,2025-08-13,2025-08-13,株式会社アネモネエナジー,,株式会社,福岡県,福岡市博多区,板付５丁目１６番２４号,,40,132,8120888,,,,,,,2025-08-13,1,,,,,アネモネエナジー,0
717,3290001111013,新規,0,2025-08-13,2025-08-13,株式会社ＨＡＲＩＥ,,株式会社,福岡県,福岡市中央区,警固２丁目２番４号ＫＢＣユーハイム赤坂南９０３号,,40,133,8100023,,,,,,,2025-08-13,1,,,,,ハリエ,0
718,3290001111046,新規,0,2025-08-13,2025-08-13,須恵環境ホールディングス株式会社,,株式会社,福岡県,糟屋郡須惠町,大字旅石８８７番地２０,,40,344,8112221,,,,,,,2025-08-13,1,,,,,スエカンキョウホールディングス,0
719,3290001111062,新規,0,2025-08-13,2025-08-13,株式会社ソナレア,,株式会社,福岡県,久留米市,日吉町２２番地２グランフォーレ日吉レジデンス２０５号,,40,203,8300017,,,,,,,2025-08-13,1,,,,,ソナレア,0
722,3290003017217,新規,0,2025-08-13,2025-08-13,合同会社友誠エンタープライズ,,合同会社,福岡県,糸島市,志摩野北２７０８－１４,,40,230,8191303,,,,,,,2025-08-13,1,,,,,ユウセイエンタープライズ,0
728,3320001021282,新規,0,2025-08-13,2025-08-13,株式会社外園米穀,,株式会社,大分県,宇佐市,大字四日市１３２９番地の２,,44,211,8790471,,,,,,,2025-08-13,1,,,,,ホカゾノベイコク,0
731,3330003011149,新規,0,2025-08-13,2025-08-13,合同会社ＭＨＤパワーバンク５号,,合同会社,熊本県,阿蘇市,永草１９４３番地２８,,43,214,8692231,,,,,,,2025-08-13,1,,,,,エムエイチディーパワーバンクゴゴウ,0
732,3330003011173,新規,0,2025-08-13,2025-08-13,合同会社つながりの森,,合同会社,熊本県,熊本市中央区,新大江２丁目１８番５号,,43,101,8620972,,,,,,,2025-08-13,1,,,,,ツナガリノモリ,0
733,3330005010941,新規,0,2025-08-13,2025-08-13,特定非営利活動法人緑と福祉のサポート結,,その他の設立登記法人,熊本県,熊本市南区,城南町塚原９３７番１,,43,104,8614226,,,,,,,2025-08-13,1,,,,,ミドリトフクシノサポートユイ,0
737,3350001019695,新規,0,2025-08-13,2025-08-13,セイビ機工株式会社,,株式会社,宮崎県,西都市,大字右松５６８番地７,,45,208,8810003,,,,,,,2025-08-13,1,,,,,セイビキコウ,0
739,3360001035618,新規,0,2025-08-13,2025-08-13,ベストスウィング株式会社,,株式会社,沖縄県,島尻郡八重瀬町,字東風平１２０２番地１レーヴ八重瀬シティ６０５,,47,362,9010401,,,,,,,2025-08-13,1,,,,,ベストスウィング,0
740,3360001035626,新規,0,2025-08-13,2025-08-13,株式会社ピースプランニング名護,,株式会社,沖縄県,名護市,城２丁目１１番６号,,47,209,9050013,,,,,,,2025-08-13,1,,,,,ピースプランニングナゴ,0
741,3360001035634,新規,0,2025-08-13,2025-08-13,株式会社ブラボー,,株式会社,沖縄県,豊見城市,字翁長６４７番地８,,47,212,9010223,,,,,,,2025-08-13,1,,,,,ブラボー,0
744,3360003015155,新規,0,2025-08-13,2025-08-13,合同会社Ｃｏｏｒｄｉｎａ,,合同会社,沖縄県,那覇市,古波蔵１丁目１５番２号,,47,201,9000024,,,,,,,2025-08-13,1,,,,,コーディナ,0
746,3370001052942,新規,0,2025-08-13,2025-08-13,エムティプランニング株式会社,,株式会社,宮城県,仙台市若林区,若林３丁目１番２２号,,04,103,9840826,,,,,,,2025-08-13,1,,,,,エムティプランニング,0
747,3370003007242,新規,0,2025-08-13,2025-08-13,遠藤合同会社,,合同会社,宮城県,仙台市青葉区,角五郎１丁目６番２１－１号,,04,101,9800874,,,,,,,2025-08-13,1,,,,,エンドウ,0
750,3410001014252,新規,0,2025-08-13,2025-08-13,株式会社かの自動車商会,,株式会社,秋田県,横手市,大雄字六町東２８番地２,,05,203,0130418,,,,,,,2025-08-13,1,,,,,カノジドウシャショウカイ,0
752,3420001019226,新規,0,2025-08-13,2025-08-13,株式会社跳昇,,株式会社,青森県,上北郡おいらせ町,千刈田２５番地１８,,02,412,0392235,,,,,,,2025-08-13,1,,,,,ヒショウ,0
753,3420001019234,新規,0,2025-08-13,2025-08-13,クロスフィールド株式会社,,株式会社,青森県,つがる市,木造越水稲村３３番地２,,02,209,0382806,,,,,,,2025-08-13,1,,,,,クロスフィールド,0
755,3430001094986,新規,0,2025-08-13,2025-08-13,株式会社協心堂,,株式会社,北海道,札幌市南区,南三十七条西１１丁目４番１６号,,01,106,0050037,,,,,,,2025-08-13,1,,,,,キョウシンドウ,0
760,3470001020848,新規,0,2025-08-13,2025-08-13,Ｂａｓｅ　ｗｏｒｋｓ株式会社,,株式会社,香川県,高松市,浜ノ町３７番地１９,,37,201,7600011,,,,,,,2025-08-13,1,,,,,,0
773,4010001257493,新規,0,2025-08-13,2025-08-13,株式会社本郷建設,,株式会社,東京都,文京区,本郷１丁目３４番４号,,13,105,1130033,,,,,,,2025-08-13,1,,,,,ホンゴウケンセツ,0
774,4010001257618,新規,0,2025-08-13,2025-08-13,ノム・コントラクター株式会社,,株式会社,東京都,中央区,京橋２丁目５番２号Ａ・Ｍ京橋ビル９階,,13,102,1040031,,,,,,,2025-08-13,1,,,,,ノムコントラクター,0
776,4010003047703,新規,0,2025-08-13,2025-08-13,合同会社くえすと,,合同会社,東京都,千代田区,神田須田町１丁目７番８号ＶＯＲＴ秋葉原ＩＶ２Ｆ,00140268,13,101,1010041,,,,,,,2025-08-13,1,,,,,クエスト,0
777,4010003048346,新規,0,2025-08-13,2025-08-13,百一企合同会社,,合同会社,東京都,文京区,大塚４丁目４８番５号,,13,105,1120012,,,,,,,2025-08-13,1,,,,,ヒャクイチキ,0
778,4010003048362,新規,0,2025-08-13,2025-08-13,西都上三財特高蓄電合同会社,,合同会社,東京都,千代田区,富士見２丁目１０番２号,,13,101,1020071,,,,,,,2025-08-13,1,,,,,サイトカミサンザイトッコウチクデン,0
792,4010701048093,新規,0,2025-08-13,2025-08-13,株式会社ラテリカ,,株式会社,東京都,品川区,大井４丁目２６番１０号ブランハウス２０１,,13,109,1400014,,,,,,,2025-08-13,1,,,,,ラテリカ,0
793,4010701048119,新規,0,2025-08-13,2025-08-13,ＭＵデジタルバンク設立準備株式会社,,株式会社,東京都,品川区,西五反田８丁目４番１３号,,13,109,1410031,,,,,,,2025-08-13,1,,,,,エムユーデジタルバンクセツリツジュンビ,0
794,4010701048151,新規,0,2025-08-13,2025-08-13,株式会社エキサイティングワークス,,株式会社,東京都,品川区,北品川１丁目２３番２２号平山ビル１階,,13,109,1400001,,,,,,,2025-08-13,1,,,,,エキサイティングワークス,0
810,4011001171552,新規,0,2025-08-13,2025-08-13,インペルク株式会社,,株式会社,東京都,渋谷区,恵比寿３丁目４６番２号Ｏａｋｒｅｓｔ恵比寿１０３号室,,13,113,1500013,,,,,,,2025-08-13,1,,,,,インペルク,0
812,4011003022225,新規,0,2025-08-13,2025-08-13,合同会社ｅｚ,,合同会社,東京都,渋谷区,恵比寿西２丁目８番４号ＥＸ恵比寿西ビル５階,,13,113,1500021,,,,,,,2025-08-13,1,,,,,イーズィー,0
813,4011101112596,新規,0,2025-08-13,2025-08-13,株式会社Ｔａｂｉｚｉ,,株式会社,東京都,新宿区,西新宿３丁目３番１３号西新宿水間ビル２Ｆ,,13,104,1600023,,,,,,,2025-08-13,1,,,,,タビジ,0
814,4011203004790,新規,0,2025-08-13,2025-08-13,合同会社ヒトハダ,,合同会社,東京都,中野区,大和町１丁目６７－２ザウィンベル高円寺７０３号,,13,114,1650034,,,,,,,2025-08-13,1,,,,,ヒトハダ,0
818,4011501032411,新規,0,2025-08-13,2025-08-13,東京ライスコア株式会社,,株式会社,東京都,北区,赤羽南１丁目７－３厚生堂ビルＢ１Ｆ,,13,117,1150044,,,,,,,2025-08-13,1,,,,,トウキョウライスコア,0
819,4011503006636,新規,0,2025-08-13,2025-08-13,合同会社ＧＴＳＰ,,合同会社,東京都,北区,田端新町１丁目２７番１３－７０２号,,13,117,1140012,,,,,,,2025-08-13,1,,,,,ジーティーエスピー,0
824,4011801046573,新規,0,2025-08-13,2025-08-13,株式会社利久ＪＲＣ,,株式会社,東京都,足立区,千住緑町３丁目１３番１５－９０２号,,13,121,1200044,,,,,,,2025-08-13,1,,,,,リクジェイアールシー,0
827,4012301014500,新規,0,2025-08-13,2025-08-13,バズテリア株式会社,,株式会社,東京都,町田市,小山ヶ丘５丁目７番地１グランレガーロ１１０９,,13,209,1940215,,,,,,,2025-08-13,1,,,,,バズテリア,0
837,4020001164334,新規,0,2025-08-13,2025-08-13,株式会社ソレイユ,,株式会社,神奈川県,川崎市幸区,中幸町３丁目２６番地２４クレッセント川崎タワー３８０１,,14,132,2120012,,,,,,,2025-08-13,1,,,,,ソレイユ,0
838,4020001164342,新規,0,2025-08-13,2025-08-13,株式会社ｏｆｆｉｃｅｔａｎｔ,,株式会社,神奈川県,川崎市宮前区,犬蔵１丁目６番２６－７号,,14,136,2160011,,,,,,,2025-08-13,1,,,,,オフィスタント,0
846,4030001167996,新規,0,2025-08-13,2025-08-13,株式会社ビッドインフォ,,株式会社,埼玉県,川越市,月吉町１９番地４５,,11,201,3500825,,,,,,,2025-08-13,1,,,,,ビッドインフォ,0
847,4030001168103,新規,0,2025-08-13,2025-08-13,株式会社ＳｏｌｖｅＷａｖｅ,,株式会社,埼玉県,比企郡ときがわ町,大字玉川１９２５－１,,11,349,3550342,,,,,,,2025-08-13,1,,,,,ソルブウェーブ,0
848,4030001168144,新規,0,2025-08-13,2025-08-13,株式会社ＤＡＭＳＯ,,株式会社,埼玉県,熊谷市,代１２４８番地２,,11,202,3600804,,,,,,,2025-08-13,1,,,,,ダムソ,0
852,4040001139986,新規,0,2025-08-13,2025-08-13,Ｇｏ　Ｇｌｏｂａｌ　Ｅｄｕｃａｔｉｏｎ株式会社,,株式会社,千葉県,船橋市,行田１丁目３２番２２号,,12,204,2730044,,,,,,,2025-08-13,1,,,,,ゴーグローバルエデュケーション,0
853,4040001139994,新規,0,2025-08-13,2025-08-13,株式会社Ｇｌａｎｚ,,株式会社,千葉県,市原市,姉崎１２０３番地１２,,12,219,2990111,,,,,,,2025-08-13,1,,,,,グランツ,0
854,4040001140003,新規,0,2025-08-13,2025-08-13,株式会社コンティアワークス,,株式会社,千葉県,千葉市中央区,中央港１丁目２０番２１－１２１８号,,12,101,2600024,,,,,,,2025-08-13,1,,,,,コンティアワークス,0
863,4060001038501,新規,0,2025-08-13,2025-08-13,株式会社ＳＳＣ,,株式会社,栃木県,佐野市,大橋町１１５７番地,,09,204,3270003,,,,,,,2025-08-13,1,,,,,エスエスシー,0
866,4060003005680,新規,0,2025-08-13,2025-08-13,合同会社ＲＯＹＡＬ　ＯＮＥ,,合同会社,栃木県,小山市,犬塚１丁目４番１号２Ｆ,,09,208,3230811,,,,,,,2025-08-13,1,,,,,ロイヤルワン,0
870,4080001027089,新規,0,2025-08-13,2025-08-13,株式会社Ｓ＆Ｇ,,株式会社,静岡県,藤枝市,光洋台２３番３号,,22,214,4260079,,,,,,,2025-08-13,1,,,,,エスアンドジー,0
871,4080005007715,新規,0,2025-08-13,2025-08-13,一般社団法人コンパッション＆ダイアローグ,,その他の設立登記法人,静岡県,静岡市駿河区,大谷８３６静岡大学農学部,,22,102,4228017,,,,,,,2025-08-13,1,,,,,コンパッションアンドダイアローグ,0
874,4080103003392,新規,0,2025-08-13,2025-08-13,鈴木商店合同会社,,合同会社,静岡県,富士市,蓼原７０番地の１１,,22,210,4160931,,,,,,,2025-08-13,1,,,,,スズキショウテン,0
878,4090001019457,新規,0,2025-08-13,2025-08-13,株式会社岡本建築,,株式会社,山梨県,南都留郡忍野村,忍草１４８６番地９,,19,424,4010511,,,,,,,2025-08-13,1,,,,,オカモトケンチク,0
879,4100001038868,新規,0,2025-08-13,2025-08-13,株式会社ティーエムケー,,株式会社,長野県,松本市,大字島内３４４３番地１３,,20,202,3900851,,,,,,,2025-08-13,1,,,,,ティーエムケー,0
884,4110001039477,新規,0,2025-08-13,2025-08-13,株式会社アドバコネクト,,株式会社,新潟県,新潟市中央区,上近江１丁目１番４０号ハイツロベリア２０７,,15,103,9500973,,,,,,,2025-08-13,1,,,,,アドバコネクト,0
886,4110003005832,新規,0,2025-08-13,2025-08-13,嵐島合同会社,,合同会社,新潟県,南魚沼郡湯沢町,大字湯沢字熊野２２７０－１,,15,461,9496101,,,,,,,2025-08-13,1,,,,,アラシジマ,0
898,4120001278529,新規,0,2025-08-13,2025-08-13,Ｔｓコーポレーション株式会社,,株式会社,大阪府,大阪市東淀川区,淡路５丁目１７番２－４０１号,,27,114,5330032,,,,,,,2025-08-13,1,,,,,ティーエスコーポレーション,0
899,4120001278545,新規,0,2025-08-13,2025-08-13,株式会社ＫＯＨＮＡ,,株式会社,大阪府,大阪市西区,北堀江１丁目２２－１９,,27,106,5500014,,,,,,,2025-08-13,1,,,,,コウナ,0
900,4120001278685,新規,0,2025-08-13,2025-08-13,株式会社ＪＰ,,株式会社,大阪府,大阪市浪速区,元町１丁目３番１８号難波ミツミコープ７０５号室,,27,111,5560016,,,,,,,2025-08-13,1,,,,,ジェイピー,0
901,4120001278693,新規,0,2025-08-13,2025-08-13,株式会社Ｓｄｐ,,株式会社,大阪府,大阪市西区,南堀江４丁目１７番１８号原田ビルディング３０１号,,27,106,5500015,,,,,,,2025-08-13,1,,,,,エスディピー,0
902,4120001278719,新規,0,2025-08-13,2025-08-13,株式会社ＣｏｍＴｒｉＱ,,株式会社,大阪府,大阪市中央区,高津３丁目１１番５号,,27,128,5420072,,,,,,,2025-08-13,1,,,,,コムトリック,0
903,4120001278735,新規,0,2025-08-13,2025-08-13,株式会社ＳＴＡＲＴＯ　ＬＩＮＥ,,株式会社,大阪府,大阪市北区,長柄東２丁目９番７７号アワーズ６１６,,27,127,5310063,,,,,,,2025-08-13,1,,,,,スタートライン,0
907,4120003030177,新規,0,2025-08-13,2025-08-13,合同会社Ｗｉｓｈｓｅｅｄ,,合同会社,大阪府,大阪市西区,本田４丁目８－１９,,27,106,5500022,,,,,,,2025-08-13,1,,,,,ウィッシード,0
908,4120101072245,新規,0,2025-08-13,2025-08-13,株式会社スペースグラフィカ,,株式会社,大阪府,堺市西区,鳳東町２丁１９１番地,,27,144,5938324,,,,,,,2025-08-13,1,,,,,スペースグラフィカ,0
909,4120101072253,新規,0,2025-08-13,2025-08-13,株式会社すずらん,,株式会社,大阪府,大阪狭山市,東茱萸木１丁目７７９番１ＬＵＸＥ３１０－２ＦＣ号,,27,231,5890012,,,,,,,2025-08-13,1,,,,,スズラン,0
910,4120103006630,新規,0,2025-08-13,2025-08-13,合同会社かざる,,合同会社,大阪府,岸和田市,並松町１番１号,,27,202,5960052,,,,,,,2025-08-13,1,,,,,カザル,0
916,4122003003278,新規,0,2025-08-13,2025-08-13,合同会社Ｌｅｐｕｓ,,合同会社,大阪府,東大阪市,衣摺５丁目３番２５号,,27,227,5770827,,,,,,,2025-08-13,1,,,,,リーポス,0
920,4130001080289,新規,0,2025-08-13,2025-08-13,ＣＦディベロップメント株式会社,,株式会社,京都府,京都市南区,西九条寺ノ前町２－４,,26,107,6018407,,,,,,,2025-08-13,1,,,,,シーエフディベロップメント,0
923,4140001139621,新規,0,2025-08-13,2025-08-13,株式会社クレンチ,,株式会社,兵庫県,西宮市,名塩さくら台２丁目１５番地５,,28,204,6691146,,,,,,,2025-08-13,1,,,,,クレンチ,0
925,4140003022420,新規,0,2025-08-13,2025-08-13,合同会社いこい,,合同会社,兵庫県,尼崎市,口田中１丁目７番１５－１０２号,,28,202,6610983,,,,,,,2025-08-13,1,,,,,イコイ,0
928,4150003003683,新規,0,2025-08-13,2025-08-13,合同会社ＷＡＴＥＲＡ,,合同会社,奈良県,奈良市,富雄泉ヶ丘３４６５番８０,,29,201,6310051,,,,,,,2025-08-13,1,,,,,ワテラ,0
929,4160001026974,新規,0,2025-08-13,2025-08-13,株式会社アイランドサポート,,株式会社,滋賀県,栗東市,小野１００７番地３,,25,208,5203016,,,,,,,2025-08-13,1,,,,,アイランドサポート,0
930,4170001018756,新規,0,2025-08-13,2025-08-13,株式会社ゆうベース,,株式会社,和歌山県,和歌山市,本渡３９９番地４,,30,201,6400324,,,,,,,2025-08-13,1,,,,,ユウベース,0
937,4180001168047,新規,0,2025-08-13,2025-08-13,Ｈ＆Ｙ株式会社,,株式会社,愛知県,東海市,加木屋町東島田１４番地の４,,23,222,4770032,,,,,,,2025-08-13,1,,,,,エイチアンドワイ,0
938,4180001168071,新規,0,2025-08-13,2025-08-13,株式会社想築,,株式会社,愛知県,春日井市,八田町７丁目１番１３号エイトプラット春日井,,23,206,4860849,,,,,,,2025-08-13,1,,,,,ソウチク,0
941,4180005021185,新規,0,2025-08-13,2025-08-13,税理士法人クルーズ,,その他の設立登記法人,愛知県,名古屋市昭和区,鶴舞３丁目１２番２号,,23,107,4660064,,,,,,,2025-08-13,1,,,,,クルーズ,0
944,4180301040104,新規,0,2025-08-13,2025-08-13,株式会社Ｉ．ＢＥ　ＬＡＢＯ,,株式会社,愛知県,安城市,赤松町新屋敷１４２番地１,,23,212,4460046,,,,,,,2025-08-13,1,,,,,アイビーラボ,0
945,4180301040112,新規,0,2025-08-13,2025-08-13,株式会社Ｗｅｓｔ　Ｆａｍ,,株式会社,愛知県,西尾市,鶴ケ崎町３５番地３ミカワ青果スクエア２Ｆ,,23,213,4450837,,,,,,,2025-08-13,1,,,,,ウエストファム,0
946,4180303006689,新規,0,2025-08-13,2025-08-13,合同会社ＢｒａｎＱ,,合同会社,愛知県,知立市,新林町欠藪８番地３３,,23,225,4720017,,,,,,,2025-08-13,1,,,,,ブランキュー,0
968,4240003007361,新規,0,2025-08-13,2025-08-13,合同会社箱庭,,合同会社,広島県,広島市中区,十日市町２丁目１０－３１,,34,101,7300805,,,,,,,2025-08-13,1,,,,,ハコニワ,0
976,4260001040437,新規,0,2025-08-13,2025-08-13,株式会社三矢,,株式会社,岡山県,岡山市北区,大安寺南町１丁目１番１０号２Ｆ,,33,101,7000064,,,,,,,2025-08-13,1,,,,,サンシ,0
977,4270001009266,新規,0,2025-08-13,2025-08-13,株式会社ＲＥＫＵＲＵ,,株式会社,鳥取県,鳥取市,吉成７３１番地１,,31,201,6800864,,,,,,,2025-08-13,1,,,,,レクル,0
982,4290001111037,新規,0,2025-08-13,2025-08-13,Ｔｈｅ　Ｇｒｅｅｎ　Ｈｅａｖｅｎ　Ｖｉｌｌａｓ株式会社,,株式会社,福岡県,福岡市博多区,中洲５丁目３番８号アクア博多５Ｆ１２９号室,,40,132,8100801,,,,,,,2025-08-13,1,,,,,ザグリーンヘヴンヴィラズ,0
996,4330003011172,新規,0,2025-08-13,2025-08-13,ＰＧ合同会社,,合同会社,熊本県,阿蘇郡西原村,大字布田６７９番地７,,43,432,8612403,,,,,,,2025-08-13,1,,,,,ピージー,0
1000,4360001035609,新規,0,2025-08-13,2025-08-13,株式会社Ｆｅｌｉｍｏｒｅ,,株式会社,沖縄県,沖縄市,中央１丁目１５番２号１Ｆ,,47,211,9040004,,,,,,,2025-08-13,1,,,,,フェリモア,0
1001,4360001035625,新規,0,2025-08-13,2025-08-13,株式会社ＯＫＵＭＡＮ,,株式会社,沖縄県,宮古島市,平良字下里５１７番地１Ｆ－西,,47,214,9060013,,,,,,,2025-08-13,1,,,,,オクマン,0
1003,4370001052958,新規,0,2025-08-13,2025-08-13,株式会社Ｇ，Ｇ，ＥＸＰＲＥＳＳ,,株式会社,宮城県,仙台市宮城野区,栄１丁目１番３３号,,04,102,9830011,,,,,,,2025-08-13,1,,,,,ジージーエクスプレス,0
1004,4380001035516,新規,0,2025-08-13,2025-08-13,株式会社Ｌｉｖ,,株式会社,福島県,西白河郡泉崎村,大字関和久字庭渡神社５番地４,,07,464,9690102,,,,,,,2025-08-13,1,,,,,リヴ,0
1010,4410001014251,新規,0,2025-08-13,2025-08-13,株式会社ＭＯＲＯＹＡ,,株式会社,秋田県,秋田市,広面字屋敷田３４番地４,,05,201,0100041,,,,,,,2025-08-13,1,,,,,モロヤ,0
1015,4430001095059,新規,0,2025-08-13,2025-08-13,株式会社青木総合産業,,株式会社,北海道,芦別市,上芦別町９４番地の３７０,,01,216,0791371,,,,,,,2025-08-13,1,,,,,アオキソウゴウサンギョウ,0
1017,4430003017952,新規,0,2025-08-13,2025-08-13,合同会社エル,,合同会社,北海道,札幌市南区,真駒内緑町１丁目２番３－３０２号,,01,106,0050013,,,,,,,2025-08-13,1,,,,,エル,0
1019,4470001020855,新規,0,2025-08-13,2025-08-13,株式会社Ａ２,,株式会社,香川県,高松市,木太町４５８３番地５,,37,201,7600080,,,,,,,2025-08-13,1,,,,,,0
1020,4500001026469,新規,0,2025-08-13,2025-08-13,株式会社ジョイント,,株式会社,愛媛県,松山市,東山町７番１０号パークテラス東山２０３号,,38,201,7918074,,,,,,,2025-08-13,1,,,,,ジョイント,0
1022,5010001257591,新規,0,2025-08-13,2025-08-13,株式会社エーエスケー,,株式会社,東京都,中央区,銀座６丁目６番１号銀座風月堂ビル５階,,13,102,1040061,,,,,,,2025-08-13,1,,,,,エーエスケー,0
1023,5010001257625,新規,0,2025-08-13,2025-08-13,株式会社ＺＥＮ,,株式会社,東京都,中央区,銀座１丁目２２番１１号銀座大竹ビジデンス２Ｆ,,13,102,1040061,,,,,,,2025-08-13,1,,,,,ゼン,0
1024,5010001257666,新規,0,2025-08-13,2025-08-13,タリアリース株式会社,,株式会社,東京都,中央区,銀座８丁目１３番１号,,13,102,1040061,,,,,,,2025-08-13,1,,,,,タリアリース,0
1025,5010001257682,新規,0,2025-08-13,2025-08-13,デイテック商会株式会社,,株式会社,東京都,千代田区,神田須田町１丁目１４番１号ヒューリック神田須田町ビル４階,,13,101,1010041,,,,,,,2025-08-13,1,,,,,デイテックショウカイ,0
1026,5010001257708,新規,0,2025-08-13,2025-08-13,株式会社ＶＯＲＴ,,株式会社,東京都,千代田区,大手町１丁目４番２号,,13,101,1000004,,,,,,,2025-08-13,1,,,,,ヴォルト,0
1029,5010003048270,新規,0,2025-08-13,2025-08-13,合同会社メナジーグループ,,合同会社,東京都,千代田区,丸の内２丁目７番２号ＪＰタワー２２階,,13,101,1000005,,,,,,,2025-08-13,1,,,,,メナジーグループ,0
1030,5010003048287,新規,0,2025-08-13,2025-08-13,ゴーアセットマネジメント合同会社,,合同会社,東京都,中央区,日本橋馬喰町１丁目１０番１３号１２０２号室,,13,102,1030002,,,,,,,2025-08-13,1,,,,,ゴーアセットマネジメント,0
1031,5010003048320,新規,0,2025-08-13,2025-08-13,合同会社ＳＮファンド,,合同会社,東京都,文京区,後楽２丁目６番１号,,13,105,1120004,,,,,,,2025-08-13,1,,,,,エスエヌファンド,0
1032,5010003048378,新規,0,2025-08-13,2025-08-13,合同会社うさぎと一緒,,合同会社,東京都,千代田区,神田和泉町１番地６－１６ヤマトビル４０５,,13,101,1010024,,,,,,,2025-08-13,1,,,,,ウサギトイッショ,0
1033,5010005040523,新規,0,2025-08-13,2025-08-13,日本橋１４一般社団法人,,その他の設立登記法人,東京都,千代田区,丸の内１丁目４番１号東京共同会計事務所内,,13,101,1000005,,,,,,,2025-08-13,1,,,,,ニホンバシフォーティーン,0
1034,5010101016815,新規,0,2025-08-13,2025-08-13,株式会社ハウスプランニング,,株式会社,東京都,八王子市,本町９番１０－４０１号,,13,201,1920066,,,,,,,2025-08-13,1,,,,,ハウスプランニング,0
1058,5011001171262,新規,0,2025-08-13,2025-08-13,Ｍｅｔａｂｉｔ株式会社,,株式会社,東京都,渋谷区,本町１丁目５１番１４－３０４号,,13,113,1510071,,,,,,,2025-08-13,1,,,,,メタビット,0
1059,5011001171270,新規,0,2025-08-13,2025-08-13,株式会社ＣＣＳ,,株式会社,東京都,渋谷区,円山町５番３号ＭＩＥＵＸ渋谷ビル８階,,13,113,1500044,,,,,,,2025-08-13,1,,,,,シーシーエス,0
1060,5011001171312,新規,0,2025-08-13,2025-08-13,株式会社ＩＹＡＳＡＫＡ,,株式会社,東京都,渋谷区,渋谷２丁目７番１４号,,13,113,1500002,,,,,,,2025-08-13,1,,,,,イヤサカ,0
1061,5011001171436,新規,0,2025-08-13,2025-08-13,株式会社ＳＷＥＬＬＡ,,株式会社,東京都,渋谷区,代々木２丁目２３番１号ニューステートメナー,,13,113,1510053,,,,,,,2025-08-13,1,,,,,スウェラ,0
1062,5011001171642,新規,0,2025-08-13,2025-08-13,株式会社ＳａｇａＬｅａｆ,,株式会社,東京都,渋谷区,桜丘町２３番１７号シティコート桜丘４０４,,13,113,1500031,,,,,,,2025-08-13,1,,,,,サガリーフ,0
1065,5011201026563,新規,0,2025-08-13,2025-08-13,株式会社ＰＯＴＺ,,株式会社,東京都,中野区,中央３丁目５０－９ワタナベセカンドビル５Ｆ,,13,114,1640011,,,,,,,2025-08-13,1,,,,,ポッツ,0
1066,5011303005671,新規,0,2025-08-13,2025-08-13,合同会社Ｈｉｎｔ,,合同会社,東京都,杉並区,上荻３丁目１９―１９,,13,115,1670043,,,,,,,2025-08-13,1,,,,,ヒント,0
1069,5011601028886,新規,0,2025-08-13,2025-08-13,株式会社ＬＵＭＩＮＯＵＳ,,株式会社,東京都,練馬区,石神井町７丁目６番８号,,13,120,1770041,,,,,,,2025-08-13,1,,,,,ルミナス,0
1073,5011603004794,新規,0,2025-08-13,2025-08-13,合同会社燕オフィス,,合同会社,東京都,練馬区,向山４丁目３－７シェフルール中村橋５０４,,13,120,1760022,,,,,,,2025-08-13,1,,,,,ツバメオフィス,0
1074,5011701028605,新規,0,2025-08-13,2025-08-13,株式会社Ｄｏｏｄｌｅ　ｃｌｏｓｅｔ,,株式会社,東京都,江戸川区,西小岩３丁目１４番５－１Ｆ,,13,123,1330057,,,,,,,2025-08-13,1,,,,,ドゥードゥルクローゼット,0
1075,5011803007011,新規,0,2025-08-13,2025-08-13,合同会社貴,,合同会社,東京都,足立区,千住３丁目６番ツオード千住壱番舘８０１,,13,121,1200034,,,,,,,2025-08-13,1,,,,,タカ,0
1078,5012405005139,新規,0,2025-08-13,2025-08-13,一般社団法人日本いのちの文化協会,,その他の設立登記法人,東京都,武蔵野市,吉祥寺本町２丁目２２番３号,,13,203,1800004,,,,,,,2025-08-13,1,,,,,ニホンイノチノブンカキョウカイ,0
1082,5012801024171,新規,0,2025-08-13,2025-08-13,株式会社浅見不動産,,株式会社,東京都,立川市,富士見町４丁目９番１８－１０２号室,,13,202,1900013,,,,,,,2025-08-13,1,,,,,アサミフドウサン,0
1088,5020003029096,新規,0,2025-08-13,2025-08-13,合同会社タハラ塗装,,合同会社,神奈川県,横浜市金沢区,富岡東２丁目４－６７,,14,108,2360051,,,,,,,2025-08-13,1,,,,,タハラトソウ,0
1089,5020003029105,新規,0,2025-08-13,2025-08-13,合同会社Ｓｏｌｉｎｋ,,合同会社,神奈川県,横浜市青葉区,鴨志田町４１３番地７,,14,117,2270033,,,,,,,2025-08-13,1,,,,,ソリンク,0
1092,5021001086063,新規,0,2025-08-13,2025-08-13,株式会社エクレセンスグループ,,株式会社,神奈川県,小田原市,中曽根２２６番地,,14,206,2500866,,,,,,,2025-08-13,1,,,,,エクレセンスグループ,0
1104,5030001168052,新規,0,2025-08-13,2025-08-13,風揚ハイテック株式会社,,株式会社,埼玉県,鴻巣市,天神１丁目１０番６１号,,11,217,3650036,,,,,,,2025-08-13,1,,,,,フウヨウハイテック,0
1105,5030001168168,新規,0,2025-08-13,2025-08-13,株式会社ＳＴＨｉ,,株式会社,埼玉県,さいたま市大宮区,仲町１丁目８１番地島村ビル１Ｆ,,11,103,3300845,,,,,,,2025-08-13,1,,,,,,0
1108,5030005022239,新規,0,2025-08-13,2025-08-13,社会保険労務士法人松下事務所,,その他の設立登記法人,埼玉県,朝霞市,三原４丁目７番３７号,,11,227,3510025,,,,,,,2025-08-13,1,,,,,マツシタジムショ,0
1113,5040001140019,新規,0,2025-08-13,2025-08-13,株式会社ＳＨＩＦＴ　ＤＥＳＩＧＮ,,株式会社,千葉県,柏市,若柴１７８番地４柏の葉キャンパス１４８街区２ショップ＆オフィス棟６階,,12,217,2770871,,,,,,,2025-08-13,1,,,,,シフトデザイン,0
1114,5040001140027,新規,0,2025-08-13,2025-08-13,株式会社カーズリンクス,,株式会社,千葉県,松戸市,松戸１３０７番地の１松戸ビル１３Ｆ,,12,207,2710092,,,,,,,2025-08-13,1,,,,,カーズリンクス,0
1120,5080005007714,新規,0,2025-08-13,2025-08-13,一般社団法人清水平和資料館,,その他の設立登記法人,静岡県,静岡市清水区,下清水町３５１番地の１,,22,103,4240939,,,,,,,2025-08-13,1,,,,,シミズヘイワシリョウカン,0
1126,5110001039484,新規,0,2025-08-13,2025-08-13,トライスホーム佐渡株式会社,,株式会社,新潟県,佐渡市,八幡新町８２番地６,,15,224,9521312,,,,,,,2025-08-13,1,,,,,トライスホームサド,0
1127,5110001039492,新規,0,2025-08-13,2025-08-13,ｉｍｏｔｉｏｎ株式会社,,株式会社,新潟県,糸魚川市,大字大野１７２８番地２,,15,216,9410071,,,,,,,2025-08-13,1,,,,,アイモーション,0
1138,5120001278528,新規,0,2025-08-13,2025-08-13,ウメダ広告株式会社,,株式会社,大阪府,大阪市住吉区,苅田３丁目９番１７号,,27,120,5580011,,,,,,,2025-08-13,1,,,,,ウメダコウコク,0
1139,5120001278692,新規,0,2025-08-13,2025-08-13,ポログレスホールディングス株式会社,,株式会社,大阪府,大阪市北区,天神橋２丁目１番２５号,,27,127,5300041,,,,,,,2025-08-13,1,,,,,ポログレスホールディングス,0
1141,5120003030309,新規,0,2025-08-13,2025-08-13,合同会社ＡＭＡＺＥ,,合同会社,大阪府,大阪市中央区,谷町４丁目４番１７－３０８号,,27,128,5400012,,,,,,,2025-08-13,1,,,,,アメイズ,0
1142,5120101072260,新規,0,2025-08-13,2025-08-13,誠和ナチュラル株式会社,,株式会社,大阪府,堺市北区,百舌鳥梅町３丁１７番地１５,,27,146,5918032,,,,,,,2025-08-13,1,,,,,セイワナチュラル,0
1150,5122001039496,新規,0,2025-08-13,2025-08-13,正東株式会社,,株式会社,大阪府,東大阪市,大蓮東５丁目９番１６号,,27,227,5770824,,,,,,,2025-08-13,1,,,,,セイトウ,0
1154,5130001080239,新規,0,2025-08-13,2025-08-13,株式会社Ｙｏｕ＆Ｉ,,株式会社,京都府,綴喜郡井手町,大字井手小字南猪ノ阪１４番地,,26,343,6100302,,,,,,,2025-08-13,1,,,,,ユウアンドアイ,0
1159,5130003010656,新規,0,2025-08-13,2025-08-13,合同会社ｃｏｌｏｒｅ,,合同会社,京都府,城陽市,観音堂西畑９１,,26,207,6100115,,,,,,,2025-08-13,1,,,,,コロレ,0
1163,5140001139629,新規,0,2025-08-13,2025-08-13,株式会社武田商店,,株式会社,兵庫県,豊岡市,高屋９３４番地６,,28,209,6680064,,,,,,,2025-08-13,1,,,,,タケダショウテン,0
1164,5140001139637,新規,0,2025-08-13,2025-08-13,きぼうケア株式会社,,株式会社,兵庫県,伊丹市,西台２丁目５－１４,,28,207,6640858,,,,,,,2025-08-13,1,,,,,キボウケア,0
1166,5150003003682,新規,0,2025-08-13,2025-08-13,森井商店合同会社,,合同会社,奈良県,葛城市,新庄４１８番地２,,29,211,6392147,,,,,,,2025-08-13,1,,,,,モリイショウテン,0
1185,5180001168046,新規,0,2025-08-13,2025-08-13,株式会社つなぐ,,株式会社,愛知県,名古屋市北区,安井１丁目６番１３号,,23,103,4620023,,,,,,,2025-08-13,1,,,,,ツナグ,0
1186,5180001168087,新規,0,2025-08-13,2025-08-13,株式会社リビングエイド,,株式会社,愛知県,名古屋市熱田区,三本松町１３番１９号ホワイトシャトー熱田４０１号,,23,109,4560032,,,,,,,2025-08-13,1,,,,,リビングエイド,0
1187,5180001168095,新規,0,2025-08-13,2025-08-13,株式会社Ｌｉｍｉｔ,,株式会社,愛知県,あま市,中橋宮前６０番地２,,23,237,4901226,,,,,,,2025-08-13,1,,,,,リミット,0
1192,5180003028842,新規,0,2025-08-13,2025-08-13,Ｗａｌｋ‐Ｏｎ合同会社,,合同会社,愛知県,名古屋市北区,金城町２丁目５３番地,,23,103,4620047,,,,,,,2025-08-13,1,,,,,ウォークオン,0
1193,5180003028867,新規,0,2025-08-13,2025-08-13,合同会社ゼロエージェンシー,,合同会社,愛知県,あま市,新居屋榎坪７４番地,,23,237,4901105,,,,,,,2025-08-13,1,,,,,ゼロエージェンシー,0
1196,5180005021192,新規,0,2025-08-13,2025-08-13,一般社団法人ＡＺＵＭＡ,,その他の設立登記法人,愛知県,名古屋市昭和区,広路町字石坂３６番地,,23,107,4660834,,,,,,,2025-08-13,1,,,,,アズマ,0
1197,5180301040094,新規,0,2025-08-13,2025-08-13,株式会社ＭＩＣＨＩＫＡ,,株式会社,愛知県,岡崎市,下青野町字番城１４,,23,202,4440244,,,,,,,2025-08-13,1,,,,,ミチカ,0
1198,5180301040103,新規,0,2025-08-13,2025-08-13,株式会社Ｊ‐ＳＴＹＬＥ,,株式会社,愛知県,安城市,横山町赤子９１番地,,23,212,4460045,,,,,,,2025-08-13,1,,,,,ジェイスタイル,0
1203,5190001032457,新規,0,2025-08-13,2025-08-13,ＬＥＡＤＥＲ株式会社,,株式会社,三重県,いなべ市,大安町梅戸５５０番地１,,24,214,5110284,,,,,,,2025-08-13,1,,,,,リーダー,0
1205,5200001044129,新規,0,2025-08-13,2025-08-13,かかみがはらパートナーズ株式会社,,株式会社,岐阜県,各務原市,蘇原持田町３丁目５０番地の１,,21,213,5040802,,,,,,,2025-08-13,1,,,,,カカミガハラパートナーズ,0
1212,5230003002486,新規,0,2025-08-13,2025-08-13,合同会社美音,,合同会社,富山県,魚津市,釈迦堂１丁目１３番２０号アネックスビル２階,,16,204,9370067,,,,,,,2025-08-13,1,,,,,ミオン,0
1222,5240001065360,新規,0,2025-08-13,2025-08-13,株式会社ラパンズライフ,,株式会社,広島県,広島市安佐南区,伴東１丁目４１番２号,,34,105,7313164,,,,,,,2025-08-13,1,,,,,ラパンズライフ,0
1224,5240003007360,新規,0,2025-08-13,2025-08-13,合同会社Ｒｏｙｃｅ,,合同会社,広島県,広島市中区,大手町３丁目２番２５－２－３０１号,,34,101,7300051,,,,,,,2025-08-13,1,,,,,ロイス,0
1228,5270001009265,新規,0,2025-08-13,2025-08-13,株式会社Ｒａｄｉａｎｔ,,株式会社,鳥取県,鳥取市,栄町７２３番地（２Ｆ）,,31,201,6800831,,,,,,,2025-08-13,1,,,,,ラディアント,0
1232,5290001110979,新規,0,2025-08-13,2025-08-13,株式会社アカシアエナジー,,株式会社,福岡県,福岡市博多区,板付５丁目１６番２４号,,40,132,8120888,,,,,,,2025-08-13,1,,,,,アカシアエナジー,0
1233,5290001110987,新規,0,2025-08-13,2025-08-13,株式会社ユリエナジー,,株式会社,福岡県,福岡市博多区,板付５丁目１６番２４号,,40,132,8120888,,,,,,,2025-08-13,1,,,,,ユリエナジー,0
1234,5290001111077,新規,0,2025-08-13,2025-08-13,日新株式会社,,株式会社,福岡県,福岡市博多区,美野島３丁目９番１８号,,40,132,8120017,,,,,,,2025-08-13,1,,,,,ニッシン,0
1240,5330003011155,新規,0,2025-08-13,2025-08-13,合同会社ＭＨＤパワーバンク１０号,,合同会社,熊本県,阿蘇市,永草１９４３番地２８,,43,214,8692231,,,,,,,2025-08-13,1,,,,,エムエイチディーパワーバンクジュウゴウ,0
1244,5360001035608,新規,0,2025-08-13,2025-08-13,株式会社ぬりかえ防水サービス,,株式会社,沖縄県,那覇市,首里石嶺町１丁目５９番地,,47,201,9030804,,,,,,,2025-08-13,1,,,,,ヌリカエボウスイサービス,0
1245,5360001035616,新規,0,2025-08-13,2025-08-13,株式会社ＷＨＩＴＥ,,株式会社,沖縄県,沖縄市,高原５丁目１４番６号ミルコマンション高原サンライズビュー１４０３,,47,211,9042171,,,,,,,2025-08-13,1,,,,,ホワイト,0
1255,5370001052940,新規,0,2025-08-13,2025-08-13,株式会社及原電氣商会,,株式会社,宮城県,栗原市,志波姫沼崎新田１２番地４,,04,213,9895615,,,,,,,2025-08-13,1,,,,,オイハラデンキショウカイ,0
1256,5370001052949,新規,0,2025-08-13,2025-08-13,株式会社スミショウ,,株式会社,宮城県,岩沼市,桜５丁目９番１２号,,04,211,9892433,,,,,,,2025-08-13,1,,,,,スミショウ,0
1257,5370001052957,新規,0,2025-08-13,2025-08-13,株式会社ＭＩ・ＡＺビジョン,,株式会社,宮城県,仙台市泉区,市名坂字黒木川原７６－１,,04,105,9813117,,,,,,,2025-08-13,1,,,,,エムアイエーゼットビジョン,0
1258,5370001052965,新規,0,2025-08-13,2025-08-13,株式会社佐六建築,,株式会社,宮城県,栗原市,一迫狐崎寺前６０番地,,04,213,9872305,,,,,,,2025-08-13,1,,,,,サロクケンチク,0
1259,5370003007240,新規,0,2025-08-13,2025-08-13,合同会社ＦＵＴＵＲＥ　ＳＥＬＦ,,合同会社,宮城県,仙台市青葉区,国分町３丁目１１番１３－３０１号,,04,101,9800803,,,,,,,2025-08-13,1,,,,,フューチャーセルフ,0
1269,5430001095009,新規,0,2025-08-13,2025-08-13,株式会社Ｔ‐ｏｎｅ,,株式会社,北海道,札幌市白石区,菊水八条４丁目１番１－５２８号,,01,104,0030808,,,,,,,2025-08-13,1,,,,,ティーワン,0
1273,5430003018009,新規,0,2025-08-13,2025-08-13,合同会社ハナウタ,,合同会社,北海道,石狩市,花川南五条５丁目１３４番地,,01,235,0613205,,,,,,,2025-08-13,1,,,,,ハナウタ,0
1280,5700150118707,新規,0,2025-08-13,2025-08-13,ＳＨＥＮＺＨＥＮＳＨＩＳＩＢＩＮＳＡＩＫＥＪＩＹＯＵＸＩＡＮＧＯＮＧＳＩ,,外国会社等,,,,,,,,１３０１　Ｔｉａｎｄｉ　Ｂｕｉｌｄｉｎｇ，　Ｇｕｉｙｕａｎ　Ｓｔｒｅｅｔ，　Ｌｕｏｈｕ　Ｄｉｓｔｒｉｃｔ，　Ｓｈｅｎｚｈｅｎ，　Ｃｈｉｎａ,,,,,,2025-08-13,1,,,,,シェンジェンシースービンサイコージーヨウシエンゴンスー,0
1284,6010001257434,新規,0,2025-08-13,2025-08-13,株式会社ＤＩＭＥＮＳＩＯＮＩＮＧ　ＢＯＤＹ　ＬＡＢ,,株式会社,東京都,中央区,新川１丁目２８番４４号新川Ｋ・ＴビルＢ１Ｆ,,13,102,1040033,,,,,,,2025-08-13,1,,,,,ディメンショニングボディラボ,0
1285,6010001257509,新規,0,2025-08-13,2025-08-13,上行株式会社,,株式会社,東京都,中央区,銀座７丁目１３番２０号銀座ＴＨビル９階,,13,102,1040061,,,,,,,2025-08-13,1,,,,,ジョウコウ,0
1286,6010001257566,新規,0,2025-08-13,2025-08-13,Ａｎｃｈｏｒ　Ｔｒｕｓｔ　Ｔｒａｄｉｎｇ株式会社,,株式会社,東京都,中央区,晴海３丁目１３－１ＤＵＥＸＴＯＵＲＳＣＡＮＡＬ＆ＳＰＡＥＡＳＴ４３０３,,13,102,1040053,,,,,,,2025-08-13,1,,,,,アンカートラストトレーディング,0
1287,6010001257590,新規,0,2025-08-13,2025-08-13,株式会社Ｂｅａｔｓ,,株式会社,東京都,中央区,日本橋浜町１丁目１２番６－２０３号,,13,102,1030007,,,,,,,2025-08-13,1,,,,,ビーツ,0
1288,6010001257599,新規,0,2025-08-13,2025-08-13,ムハユ株式会社,,株式会社,東京都,千代田区,丸の内３丁目２－２丸の内二重橋ビル２階,,13,101,1000005,,,,,,,2025-08-13,1,,,,,ムハユ,0
1289,6010001257715,新規,0,2025-08-13,2025-08-13,恵遠製薬株式会社,,株式会社,東京都,中央区,日本橋室町１丁目１０番５号テラサキ第１ビル３Ｆ,,13,102,1030022,,,,,,,2025-08-13,1,,,,,ケイエンセイヤク,0
1290,6010003048253,新規,0,2025-08-13,2025-08-13,合同会社ｏｆｆｉｃｅ　ｂｅｗａｔｅｒ,,合同会社,東京都,千代田区,神田須田町１丁目７番８号,,13,101,1010041,,,,,,,2025-08-13,1,,,,,オフィスビーウォーター,0
1291,6010003048344,新規,0,2025-08-13,2025-08-13,合同会社びしょっと,,合同会社,東京都,千代田区,神田和泉町１番地６‐１６ヤマトビル４０５,,13,101,1010024,,,,,,,2025-08-13,1,,,,,ビショット,0
1301,6010405024645,新規,0,2025-08-13,2025-08-13,弁護士法人ＡＴＬ法律事務所,,その他の設立登記法人,東京都,港区,南青山１丁目１番１号,,13,103,1070062,,,,,,,2025-08-13,1,,,,,エーティーエルホウリツジムショ,0
1305,6010501054546,新規,0,2025-08-13,2025-08-13,株式会社ＰＯＰＵＬＵＳ,,株式会社,東京都,台東区,柳橋２丁目１４－２－７０１,,13,106,1110052,,,,,,,2025-08-13,1,,,,,,0
1310,6010703007863,新規,0,2025-08-13,2025-08-13,合同会社水と人研究所,,合同会社,東京都,品川区,北品川５丁目５番２７－９０６号,,13,109,1410001,,,,,,,2025-08-13,1,,,,,ミズトヒトケンキュウジョ,0
1319,6010901057900,新規,0,2025-08-13,2025-08-13,華祐リビング株式会社,,株式会社,東京都,世田谷区,奥沢５丁目１番１１－２０２号,,13,112,1580083,,,,,,,2025-08-13,1,,,,,ハナユウリビング,0
1323,6011001171212,新規,0,2025-08-13,2025-08-13,スイート株式会社,,株式会社,東京都,渋谷区,神宮前１丁目７番３号百七十五番館本館３０２号室,,13,113,1500001,,,,,,,2025-08-13,1,,,,,スイート,0
1324,6011001171369,新規,0,2025-08-13,2025-08-13,朝森国際株式会社,,株式会社,東京都,渋谷区,恵比寿西２丁目２０番２号パークナード代官山５０４号,,13,113,1500021,,,,,,,2025-08-13,1,,,,,アサモリコクサイ,0
1334,6011303005670,新規,0,2025-08-13,2025-08-13,合同会社Ｄ‐ＣＯＲＰＯＲＡＴＩＯＮ,,合同会社,東京都,杉並区,高円寺南２丁目２４番１５号フォンテーヌ４０１,,13,115,1660003,,,,,,,2025-08-13,1,,,,,ディーコーポレーション,0
1335,6011403004787,新規,0,2025-08-13,2025-08-13,ＧＬＪ　Ｇｒｏｕｐ　Ｌｉｍｉｔｅｄ合同会社,,合同会社,東京都,板橋区,小茂根２丁目５番１５号,,13,119,1730037,,,,,,,2025-08-13,1,,,,,ジーエルジェーグループリミテッド,0
1340,6011701028612,新規,0,2025-08-13,2025-08-13,株式会社ＮＩＰＰＯＮ　ＭＡＸ,,株式会社,東京都,江戸川区,北小岩３丁目６－１１－１０５,,13,123,1330051,,,,,,,2025-08-13,1,,,,,ニッポンマックス,0
1341,6011701028620,新規,0,2025-08-13,2025-08-13,株式会社ミヤタ,,株式会社,東京都,江戸川区,松江３丁目１９番２１号１Ｆ,,13,123,1320025,,,,,,,2025-08-13,1,,,,,ミヤタ,0
1350,6012803003825,新規,0,2025-08-13,2025-08-13,ＭＹソリューションズ合同会社,,合同会社,東京都,国分寺市,東恋ヶ窪６丁目１９番地３５,,13,214,1850014,,,,,,,2025-08-13,1,,,,,マイソリューションズ,0
1365,6030001168084,新規,0,2025-08-13,2025-08-13,Ｐｏｌｙｔｏｐｅ株式会社,,株式会社,埼玉県,春日部市,備後東４丁目５番４０号,,11,214,3440032,,,,,,,2025-08-13,1,,,,,ポリトープ,0
1366,6030001168142,新規,0,2025-08-13,2025-08-13,株式会社ＳＡＦＲＡＮ,,株式会社,埼玉県,坂戸市,南町１８－１０２中島マンション,,11,239,3500233,,,,,,,2025-08-13,1,,,,,サフラン,0
1367,6030001168183,新規,0,2025-08-13,2025-08-13,ＤｒｅａｍＢｏｘ株式会社,,株式会社,埼玉県,川口市,西川口１丁目３０番２０－５Ｉ室,00140251,11,203,3320021,,,,,,,2025-08-13,1,,,,,ドリームボックス,0
1371,6030003027370,新規,0,2025-08-13,2025-08-13,合同会社ハッピーカンパニー,,合同会社,埼玉県,桶川市,朝日２丁目２番８号ＲｅＧａｒｄｅｎＩＩＩ－１０１号,00140255,11,231,3630023,,,,,,,2025-08-13,1,,,,,ハッピーカンパニー,0
1372,6030003027404,新規,0,2025-08-13,2025-08-13,ＡＴＡ企画合同会社,,合同会社,埼玉県,川口市,川口３丁目２番１－２２０４号,,11,203,3320015,,,,,,,2025-08-13,1,,,,,エーティーエーキカク,0
1376,6040001139984,新規,0,2025-08-13,2025-08-13,一宿一景一生縁株式会社,,株式会社,千葉県,市原市,小谷田６５１番地,,12,219,2900529,,,,,,,2025-08-13,1,,,,,イッシュクイッケイイッショウエン,0
1377,6040001140001,新規,0,2025-08-13,2025-08-13,美粧楓株式会社,,株式会社,千葉県,印旛郡酒々井町,ふじき野２丁目１９番地２５（Ａ棟）,,12,322,2850928,,,,,,,2025-08-13,1,,,,,ビショウカエデ,0
1378,6040001140034,新規,0,2025-08-13,2025-08-13,株式会社ＭｏｎｏＲｅｂｏ,,株式会社,千葉県,柏市,松ケ崎９３番地２９,,12,217,2770835,,,,,,,2025-08-13,1,,,,,モノリボ,0
1379,6040001140059,新規,0,2025-08-13,2025-08-13,株式会社Ｆｌｏｒａｉｓｏｎ,,株式会社,千葉県,市川市,行徳駅前１丁目２６番３フラッグ・ザ・ガーデン１階,,12,203,2720133,,,,,,,2025-08-13,1,,,,,フロレゾン,0
1383,6040003028252,新規,0,2025-08-13,2025-08-13,サクセシア合同会社,,合同会社,千葉県,千葉市稲毛区,小仲台４丁目３番１８－６０１号,,12,103,2630043,,,,,,,2025-08-13,1,,,,,サクセシア,0
1389,6050003009490,新規,0,2025-08-13,2025-08-13,合同会社Ａｕｔｏｆｉｎｉｘ,,合同会社,茨城県,坂東市,辺田１５１６番地３１・２Ｆ,,08,228,3060632,,,,,,,2025-08-13,1,,,,,オートフィニックス,0
1396,6080101025726,新規,0,2025-08-13,2025-08-13,株式会社ＨａｎａＥｍｕ,,株式会社,静岡県,富士市,入山瀬７７３番地の４,,22,210,4190204,,,,,,,2025-08-13,1,,,,,,0
1398,6090001019447,新規,0,2025-08-13,2025-08-13,株式会社ユズネ,,株式会社,山梨県,大月市,七保町下和田９４８番地,,19,206,4090622,,,,,,,2025-08-13,1,,,,,ユズネ,0
1403,6100003008339,新規,0,2025-08-13,2025-08-13,合同会社ＫＧＭ,,合同会社,長野県,飯田市,山本６１２番地４,,20,205,3950244,,,,,,,2025-08-13,1,,,,,ケージーエム,0
1404,6110001039491,新規,0,2025-08-13,2025-08-13,株式会社Ｌ・Ｄハウジング,,株式会社,新潟県,新潟市中央区,姥ケ山１１４番地５,,15,103,9500923,,,,,,,2025-08-13,1,,,,,エルディーハウジング,0
1418,6120003030241,新規,0,2025-08-13,2025-08-13,ＳＫ合同会社,,合同会社,大阪府,大阪市生野区,新今里３丁目２２番１９号－４０５号,,27,116,5440001,,,,,,,2025-08-13,1,,,,,エスケ,0
1419,6120005025108,新規,0,2025-08-13,2025-08-13,一般社団法人東洋足体手技協会,,その他の設立登記法人,大阪府,大阪市天王寺区,上本町６丁目９番１０号,,27,109,5430001,,,,,,,2025-08-13,1,,,,,トウヨウソクタイシュギキョウカイ,0
1420,6120101072251,新規,0,2025-08-13,2025-08-13,株式会社太田建築板金,,株式会社,大阪府,堺市東区,大美野１４５番地６４,,27,143,5998126,,,,,,,2025-08-13,1,,,,,オオタケンチクバンキン,0
1421,6120101072268,新規,0,2025-08-13,2025-08-13,株式会社永和,,株式会社,大阪府,堺市中区,東山１０１３パレドール東山４０３号室,,27,142,5998247,,,,,,,2025-08-13,1,,,,,エイワ,0
1422,6120101072276,新規,0,2025-08-13,2025-08-13,株式会社メディカルクローバー,,株式会社,大阪府,和泉市,池上町９００番地１,,27,219,5940083,,,,,,,2025-08-13,1,,,,,メディカルクローバー,0
1423,6120103006629,新規,0,2025-08-13,2025-08-13,合同会社セールス＆マーケティング,,合同会社,大阪府,松原市,三宅中５丁目５番１１号,,27,217,5800046,,,,,,,2025-08-13,1,,,,,セールスアンドマーケティング,0
1424,6120103006637,新規,0,2025-08-13,2025-08-13,合同会社ＳｏａｒＬｉｎｋ,,合同会社,大阪府,泉南市,新家１３１５－１２５,,27,228,5900503,,,,,,,2025-08-13,1,,,,,ソアリンク,0
1440,6130001080238,新規,0,2025-08-13,2025-08-13,株式会社ＡＣＥ　ＣＲＥＡＴＩＯＮ,,株式会社,京都府,京都市右京区,梅津堤上町２１番地ＫＫハウスＩＩ１０１,00140250,26,108,6150904,,,,,,,2025-08-13,1,,,,,エースクリエイション,0
1441,6130003010647,新規,0,2025-08-13,2025-08-13,合同会社コモノ,,合同会社,京都府,京都市左京区,下鴨膳部町８番地１０Ｒｉｃｈｅ葵１０２号室,,26,103,6060815,,,,,,,2025-08-13,1,,,,,コモノ,0
1444,6130005017426,新規,0,2025-08-13,2025-08-13,霧の都司法書士法人,,その他の設立登記法人,京都府,亀岡市,安町釜ケ前２番地４オフィションミューレ２階,,26,206,6210805,,,,,,,2025-08-13,1,,,,,キリノミヤコ,0
1447,6140001139636,新規,0,2025-08-13,2025-08-13,株式会社フーチャーエイト,,株式会社,兵庫県,加古川市,志方町志方町１２５８番地の２,,28,210,6750321,,,,,,,2025-08-13,1,,,,,フーチャーエイト,0
1448,6150001028326,新規,0,2025-08-13,2025-08-13,西勇機株式会社,,株式会社,奈良県,大和郡山市,美濃庄町３３４番地６,,29,203,6391103,,,,,,,2025-08-13,1,,,,,サイユウキ,0
1450,6160003003565,新規,0,2025-08-13,2025-08-13,合同会社山口企画,,合同会社,滋賀県,大津市,本丸町６番６－４０７号,,25,201,5200814,,,,,,,2025-08-13,1,,,,,ヤマグチキカク,0
1451,6160003003573,新規,0,2025-08-13,2025-08-13,合同会社ＨＩＴＯ,,合同会社,滋賀県,大津市,昭和町１番２号,,25,201,5200817,,,,,,,2025-08-13,1,,,,,ヒト,0
1452,6170003002269,新規,0,2025-08-13,2025-08-13,合同会社ＭＳｗｏｒｌｄ,,合同会社,和歌山県,御坊市,藤田町吉田３５８番地１,,30,205,6491342,,,,,,,2025-08-13,1,,,,,エムエスワールド,0
1456,6180001168020,新規,0,2025-08-13,2025-08-13,ＩＢオフィス株式会社,,株式会社,愛知県,名古屋市中区,栄５丁目２６番３６号ＧＳ栄ＩＩ７Ｆ,00140254,23,106,4600008,,,,,,,2025-08-13,1,,,,,アイビーオフィス,0
1457,6180001168053,新規,0,2025-08-13,2025-08-13,株式会社花海天堂,,株式会社,愛知県,名古屋市東区,砂田橋４丁目１番５７号メガシティテラス３棟３０３号,,23,102,4610045,,,,,,,2025-08-13,1,,,,,ハナウミテンドウ,0
1458,6180001168103,新規,0,2025-08-13,2025-08-13,株式会社Ｖａｒｉａｔｉｏｎ,,株式会社,愛知県,一宮市,浅野字上土池３３番地,,23,203,4910871,,,,,,,2025-08-13,1,,,,,バリエーション,0
1465,6180303006687,新規,0,2025-08-13,2025-08-13,合同会社Ｉｒｉｓｔｅｌｌａ,,合同会社,愛知県,豊田市,西中山町猿田７０番地８６,,23,211,4700431,,,,,,,2025-08-13,1,,,,,イリステラ,0
1466,6190001032472,新規,0,2025-08-13,2025-08-13,株式会社Ｆ．Ｌ．Ｓ,,株式会社,三重県,松阪市,横地町４４７番地,,24,204,5150215,,,,,,,2025-08-13,1,,,,,フルス,0
1467,6200005013789,新規,0,2025-08-13,2025-08-13,特定非営利活動法人ジョインハート,,その他の設立登記法人,岐阜県,大垣市,林町８丁目１２０６番地１,,21,202,5030015,,,,,,,2025-08-13,1,,,,,ジョインハート,0
1479,6240001065368,新規,0,2025-08-13,2025-08-13,株式会社Ｇ．Ｏ．Ｆ,,株式会社,広島県,安芸郡府中町,八幡１丁目１２番１６号,,34,302,7350012,,,,,,,2025-08-13,1,,,,,ジーオーエフ,0
1487,6250001021287,新規,0,2025-08-13,2025-08-13,山口トヨタホールディングス株式会社,,株式会社,山口県,山口市,小郡下郷９４５番地２,,35,203,7540002,,,,,,,2025-08-13,1,,,,,ヤマグチトヨタホールディングス,0
1489,6260005011498,新規,0,2025-08-13,2025-08-13,一般社団法人Ｔ‐ＳＰＩＲＡＬ,,その他の設立登記法人,岡山県,津山市,東一宮３０番地７,,33,203,7080814,,,,,,,2025-08-13,1,,,,,ティースパイラル,0
1490,6270001009264,新規,0,2025-08-13,2025-08-13,株式会社ＧＲＯＷ＆ＨＯＰＥ,,株式会社,鳥取県,米子市,熊党５０５番地４,,31,202,6893546,,,,,,,2025-08-13,1,,,,,グローアンドホープ,0
1491,6270003001780,新規,0,2025-08-13,2025-08-13,合同会社たかもり動物病院,,合同会社,鳥取県,境港市,上道町３７０６番地２,,31,204,6840033,,,,,,,2025-08-13,1,,,,,タカモリドウブツビョウイン,0
1495,6290001110978,新規,0,2025-08-13,2025-08-13,株式会社アイリスエナジー,,株式会社,福岡県,福岡市博多区,板付５丁目１６番２４号,,40,132,8120888,,,,,,,2025-08-13,1,,,,,アイリスエナジー,0
1496,6290001110986,新規,0,2025-08-13,2025-08-13,株式会社ヒマワリエナジー,,株式会社,福岡県,福岡市博多区,板付５丁目１６番２４号,,40,132,8120888,,,,,,,2025-08-13,1,,,,,ヒマワリエナジー,0
1501,6310001019746,新規,0,2025-08-13,2025-08-13,株式会社ＩＧクロス長崎,,株式会社,長崎県,大村市,植松１丁目９４番地３,,42,205,8560027,,,,,,,2025-08-13,1,,,,,アイジークロスナガサキ,0
1505,6330003011154,新規,0,2025-08-13,2025-08-13,合同会社ＭＨＤパワーバンク９号,,合同会社,熊本県,阿蘇市,永草１９４３番地２８,,43,214,8692231,,,,,,,2025-08-13,1,,,,,エムエイチディーパワーバンクキュウゴウ,0
1510,6340003004925,新規,0,2025-08-13,2025-08-13,美山エンジニアリング合同会社,,合同会社,鹿児島県,鹿児島市,直木町５３６７,,46,201,8992705,,,,,,,2025-08-13,1,,,,,ミヤマエンジニアリング,0
1514,6360001035598,新規,0,2025-08-13,2025-08-13,イシカワフーズ株式会社,,株式会社,沖縄県,中頭郡北中城村,字喜舎場１３２８番地３,,47,327,9012311,,,,,,,2025-08-13,1,,,,,イシカワフーズ,0
1515,6360001035607,新規,0,2025-08-13,2025-08-13,株式会社ＨＡＣＨＩＹＡ,,株式会社,沖縄県,那覇市,おもろまち１丁目１番２５－２３２３号,,47,201,9000006,,,,,,,2025-08-13,1,,,,,ハチヤ,0
1516,6360001035623,新規,0,2025-08-13,2025-08-13,株式会社ＶＩＡ,,株式会社,沖縄県,那覇市,松山１丁目２８番２レーヴグランディ松山３０４,,47,201,9000032,,,,,,,2025-08-13,1,,,,,ヴィア,0
1519,6360003015160,新規,0,2025-08-13,2025-08-13,合同会社ｓｏｒｉｓｓｏ,,合同会社,沖縄県,国頭郡今帰仁村,字今泊１７０番地,,47,306,9050428,,,,,,,2025-08-13,1,,,,,ソリッソ,0
1520,6360003015169,新規,0,2025-08-13,2025-08-13,合同会社オフィスＹＵＲＩ,,合同会社,沖縄県,沖縄市,仲宗根町１８番１７号,,47,211,9040014,,,,,,,2025-08-13,1,,,,,オフィスユリ,0
1521,6370001052948,新規,0,2025-08-13,2025-08-13,株式会社セントラル,,株式会社,宮城県,仙台市青葉区,大町２丁目９番８号,,04,101,9800804,,,,,,,2025-08-13,1,,,,,セントラル,0
1522,6370003007248,新規,0,2025-08-13,2025-08-13,エソラ・アンド・コー合同会社,,合同会社,宮城県,仙台市青葉区,中央２丁目１１－１９仙南ビル４階－Ａ,,04,101,9800021,,,,,,,2025-08-13,1,,,,,エソラアンドコー,0
1537,6430001094983,新規,0,2025-08-13,2025-08-13,株式会社Ｂｌａｋｉｓｔｏｎ,,株式会社,北海道,札幌市中央区,南一条西２丁目１－２,,01,101,0600061,,,,,,,2025-08-13,1,,,,,ブラキストン,0
1539,6430003017959,新規,0,2025-08-13,2025-08-13,合同会社ＭＫＭマネジメント,,合同会社,北海道,恵庭市,恵み野南３丁目８番２４,,01,231,0611372,,,,,,,2025-08-13,1,,,,,エムケイエムマネジメント,0
1543,6470001020853,新規,0,2025-08-13,2025-08-13,株式会社ＹＮ,,株式会社,香川県,高松市,御厩町７２７番地２,00140252,37,201,7618042,,,,,,,2025-08-13,1,,,,,ワイエヌ,0
1545,6470005006642,新規,0,2025-08-13,2025-08-13,島ワーク派遣事業協同組合,,その他の設立登記法人,香川県,小豆郡小豆島町,西村甲１８９６番地１,,37,324,7614434,,,,,,,2025-08-13,1,,,,,,0
1548,6500001026467,新規,0,2025-08-13,2025-08-13,株式会社ＣＲＵＺ工業,,株式会社,愛媛県,松山市,雄郡２丁目９番２５号第一石原ビル４０１号,,38,201,7900031,,,,,,,2025-08-13,1,,,,,クルーズコウギョウ,0
1552,7010001257508,新規,0,2025-08-13,2025-08-13,エージェニティ株式会社,,株式会社,東京都,中央区,銀座１丁目１２番４号Ｎ＆ＥＢＬＤ．６Ｆ,,13,102,1040061,,,,,,,2025-08-13,1,,,,,エージェニティ,0
1553,7010001257565,新規,0,2025-08-13,2025-08-13,株式会社ＨＩＰＯ,,株式会社,東京都,千代田区,神田佐久間町１丁目８番地４アルテール秋葉原７０８,,13,101,1010025,,,,,,,2025-08-13,1,,,,,ヒポ,0
1554,7010003048302,新規,0,2025-08-13,2025-08-13,Ｇｌａｓｓ　Ｂｅａｄ合同会社,,合同会社,東京都,中央区,銀座１丁目１２番４号Ｎ＆ＥＢＬＤ．６Ｆ,,13,102,1040061,,,,,,,2025-08-13,1,,,,,グラスビード,0
1555,7010003048327,新規,0,2025-08-13,2025-08-13,合同会社オーケーエス,,合同会社,東京都,中央区,日本橋室町１丁目１１番１２号,,13,102,1030022,,,,,,,2025-08-13,1,,,,,オーケーエス,0
1556,7010003048376,新規,0,2025-08-13,2025-08-13,カキツバタ１４合同会社,,合同会社,東京都,千代田区,丸の内１丁目４番１号東京共同会計事務所内,,13,101,1000005,,,,,,,2025-08-13,1,,,,,カキツバタフォーティーン,0
1569,7010703007862,新規,0,2025-08-13,2025-08-13,合同会社ＫＭ１０,,合同会社,東京都,品川区,大崎３丁目２０番１０号,,13,109,1410032,,,,,,,2025-08-13,1,,,,,ケイエムテン,0
1574,7010901057908,新規,0,2025-08-13,2025-08-13,株式会社夢螢,,株式会社,東京都,世田谷区,経堂１丁目１１番１３号,,13,112,1560052,,,,,,,2025-08-13,1,,,,,ユメホタル,0
1579,7011103016223,新規,0,2025-08-13,2025-08-13,Ｋｉｔｃｈｅｎ　ＨＫ合同会社,,合同会社,東京都,新宿区,払方町１－３ｋｉｔｃｈｅｎＢＡＳＥ神楽坂Ｂ１,,13,104,1620841,,,,,,,2025-08-13,1,,,,,キッチンエイチケー,0
1580,7011301030802,新規,0,2025-08-13,2025-08-13,株式会社Ｍｉ‐Ａｉ,,株式会社,東京都,杉並区,堀ノ内２丁目４－２２－６０３,,13,115,1660013,,,,,,,2025-08-13,1,,,,,,0
1581,7011403004803,新規,0,2025-08-13,2025-08-13,合同会社日本ＢＲＯＴＨＥＲ,,合同会社,東京都,板橋区,仲町２９番５－１０５,,13,119,1730022,,,,,,,2025-08-13,1,,,,,ニホンブラザー,0
1582,7011501032425,新規,0,2025-08-13,2025-08-13,ナリタイカンパニー株式会社,,株式会社,東京都,北区,赤羽１丁目５９－８ヒノデビル４Ｆ,,13,117,1150045,,,,,,,2025-08-13,1,,,,,ナリタイカンパニー,0
1584,7011701028594,新規,0,2025-08-13,2025-08-13,株式会社ＭＩＮＫ２,,株式会社,東京都,江戸川区,清新町１丁目４番１５－１０１５号,,13,123,1340087,,,,,,,2025-08-13,1,,,,,ミンクツー,0
1590,7012401043479,新規,0,2025-08-13,2025-08-13,株式会社レストアーズ,,株式会社,東京都,調布市,緑ケ丘１丁目４５番地１１１,,13,208,1820001,,,,,,,2025-08-13,1,,,,,レストアーズ,0
1591,7012403007283,新規,0,2025-08-13,2025-08-13,合同会社ディヴァレ,,合同会社,東京都,武蔵野市,西久保２丁目１５番３０号,,13,203,1800013,,,,,,,2025-08-13,1,,,,,ディヴァレ,0
1598,7020001164091,新規,0,2025-08-13,2025-08-13,トア株式会社,,株式会社,神奈川県,横浜市港北区,日吉５丁目１５番１０,,14,109,2230061,,,,,,,2025-08-13,1,,,,,トア,0
1599,7020001164331,新規,0,2025-08-13,2025-08-13,株式会社ＣＹＡＮ,,株式会社,神奈川県,横浜市神奈川区,金港町５番地１４クアドリフォリオ８階,,14,102,2210056,,,,,,,2025-08-13,1,,,,,シアン,0
1600,7020001164372,新規,0,2025-08-13,2025-08-13,イーシーアローン株式会社,,株式会社,神奈川県,横浜市中区,花咲町１丁目４８番地３ロゼ桜木町４０６号,,14,104,2310063,,,,,,,2025-08-13,1,,,,,イーシーアローン,0
1605,7021001086020,新規,0,2025-08-13,2025-08-13,株式会社紬希,,株式会社,神奈川県,茅ヶ崎市,香川５丁目４番１０号イズミ湘南３０１,,14,207,2530082,,,,,,,2025-08-13,1,,,,,ツムギ,0
1606,7021003016413,新規,0,2025-08-13,2025-08-13,ＭＪＳ合同会社,,合同会社,神奈川県,座間市,広野台１丁目４番１６－３０１号ライフレビュー小田急相模原,,14,216,2520012,,,,,,,2025-08-13,1,,,,,エムジェイエス,0
1610,7030001168034,新規,0,2025-08-13,2025-08-13,株式会社水仙,,株式会社,埼玉県,川越市,大字砂７６６番地１―１０１,,11,201,3501133,,,,,,,2025-08-13,1,,,,,スイセン,0
1611,7030001168141,新規,0,2025-08-13,2025-08-13,ＬＡＬＡ株式会社,,株式会社,埼玉県,川口市,大字里１１９０番地の９６,,11,203,3340005,,,,,,,2025-08-13,1,,,,,エルエーエルエー,0
1615,7030003027337,新規,0,2025-08-13,2025-08-13,合同会社Ｍ,,合同会社,埼玉県,富士見市,ふじみ野東４丁目８番地２ＶＩＬＬＡＶＥＲＤＥふじみ野１０５,,11,235,3540036,,,,,,,2025-08-13,1,,,,,エム,0
1619,7040001139975,新規,0,2025-08-13,2025-08-13,ＹＡＳＨＥＮ　ＩＮＴＥＲＮＡＴＩＯＮＡＬ株式会社,,株式会社,千葉県,八街市,八街は１０６番４８,,12,230,2891107,,,,,,,2025-08-13,1,,,,,ヤシェンインターナショナル,0
1620,7040001139991,新規,0,2025-08-13,2025-08-13,株式会社カカカ,,株式会社,千葉県,柏市,十余二３３７番地３５８,,12,217,2770872,,,,,,,2025-08-13,1,,,,,カカカ,0
1621,7040001140009,新規,0,2025-08-13,2025-08-13,株式会社秀栄設備工業,,株式会社,千葉県,八街市,八街ろ１６５番地３５６,,12,230,2891144,,,,,,,2025-08-13,1,,,,,シュウエイセツビコウギョウ,0
1623,7040003028235,新規,0,2025-08-13,2025-08-13,清水ソルテラ合同会社,,合同会社,千葉県,松戸市,東松戸３丁目１０番地の１１,,12,207,2702225,,,,,,,2025-08-13,1,,,,,シミズソルテラ,0
1625,7050001057103,新規,0,2025-08-13,2025-08-13,株式会社さくらのファーム,,株式会社,茨城県,石岡市,上青柳４６７番地,,08,205,3150154,,,,,,,2025-08-13,1,,,,,サクラノファーム,0
1628,7060001038498,新規,0,2025-08-13,2025-08-13,株式会社雷都,,株式会社,栃木県,宇都宮市,下岡本町１９９５番地１１Ｙ＆ＭフレンドＩＡ,00140253,09,201,3291104,,,,,,,2025-08-13,1,,,,,ライト,0
1634,7080101025709,新規,0,2025-08-13,2025-08-13,株式会社ＭＹＮＥＳＳ,,株式会社,静岡県,駿東郡清水町,堂庭２９６番地の１２,,22,341,4110903,,,,,,,2025-08-13,1,,,,,マイネス,0
1636,7080403005326,新規,0,2025-08-13,2025-08-13,Ｖｉｖａ　Ｌｉｆｅ合同会社,,合同会社,静岡県,磐田市,岩井１９０７番地４２８ソレイユ藤２０２号,,22,211,4380016,,,,,,,2025-08-13,1,,,,,ヴィヴァライフ,0
1639,7100001038865,新規,0,2025-08-13,2025-08-13,株式会社Ｙｏｕｒ　Ｓｔｅｐ,,株式会社,長野県,小諸市,大字御影新田１７８９番地７,,20,208,3840808,,,,,,,2025-08-13,1,,,,,ユアステップ,0
1640,7100001038873,新規,0,2025-08-13,2025-08-13,株式会社Ａｒｔｅｆａｃｔ　Ｌａｂｏ,,株式会社,長野県,小諸市,大字西原１４－２６,,20,208,3840044,,,,,,,2025-08-13,1,,,,,アーティファクトラボ,0
1645,7110003005854,新規,0,2025-08-13,2025-08-13,合同会社ブーランジェリーマロナ,,合同会社,新潟県,三条市,東三条２丁目１１番１８号,,15,204,9550047,,,,,,,2025-08-13,1,,,,,ブーランジェリーマロナ,0
1654,7120001278699,新規,0,2025-08-13,2025-08-13,株式会社ＭＡＲＩＲＥ,,株式会社,大阪府,守口市,京阪本通２丁目１０－６－１２０１,,27,209,5700083,,,,,,,2025-08-13,1,,,,,マリール,0
1655,7120001278708,新規,0,2025-08-13,2025-08-13,株式会社Ｇｒｏｗｔｈ　Ａｓｓｉｓｔ,,株式会社,大阪府,大阪市天王寺区,清水谷町１０番２号大阪酒販会館ビル３０３号,,27,109,5430011,,,,,,,2025-08-13,1,,,,,グロースアシスト,0
1656,7120001278724,新規,0,2025-08-13,2025-08-13,株式会社住研,,株式会社,大阪府,大阪市東淀川区,東中島２丁目８番８号ワークステーション新大阪９０５号室,,27,114,5330033,,,,,,,2025-08-13,1,,,,,ジュウケン,0
1657,7120001278740,新規,0,2025-08-13,2025-08-13,株式会社碧,,株式会社,大阪府,大阪市東淀川区,小松１丁目９番３５号ランドマークＩＩ４０６号,00140258,27,114,5330004,,,,,,,2025-08-13,1,,,,,アオイ,0
1660,7120101072250,新規,0,2025-08-13,2025-08-13,ワークスライン株式会社,,株式会社,大阪府,堺市西区,菱木２丁２２２３－１７,,27,144,5938315,,,,,,,2025-08-13,1,,,,,ワークスライン,0
1661,7120101072259,新規,0,2025-08-13,2025-08-13,Ｔｒａｎｓｐｏｗｅｒ株式会社,,株式会社,大阪府,和泉市,伏屋町４丁目１１番３２号,,27,219,5940031,,,,,,,2025-08-13,1,,,,,トランスパワー,0
1662,7120103006636,新規,0,2025-08-13,2025-08-13,合同会社りすぱる,,合同会社,大阪府,富田林市,西板持町７丁目１６－１１,,27,214,5840048,,,,,,,2025-08-13,1,,,,,リスパル,0
1665,7122003003275,新規,0,2025-08-13,2025-08-13,合同会社ダイギ,,合同会社,大阪府,大東市,北条１丁目２２番３０号,,27,218,5740011,,,,,,,2025-08-13,1,,,,,ダイギ,0
1667,7130001080278,新規,0,2025-08-13,2025-08-13,ＩＤＫメディカルサポート株式会社,,株式会社,京都府,京都市東山区,泉涌寺雀ケ森町５－５,,26,105,6050975,,,,,,,2025-08-13,1,,,,,アイディーケーメディカルサポート,0
1671,7130003010662,新規,0,2025-08-13,2025-08-13,合同会社古都リペア,,合同会社,京都府,城陽市,寺田宮ノ平３番地の１４９,,26,207,6100121,,,,,,,2025-08-13,1,,,,,コトリペア,0
1673,7140001139627,新規,0,2025-08-13,2025-08-13,ＭＸ株式会社,,株式会社,兵庫県,神戸市兵庫区,南仲町１番５号南仲ＴＯビル３１１,,28,105,6520841,,,,,,,2025-08-13,1,,,,,エムエックス,0
1675,7160001026971,新規,0,2025-08-13,2025-08-13,株式会社みはまアグリ,,株式会社,滋賀県,長浜市,八木浜町６２７番地,,25,203,5260116,,,,,,,2025-08-13,1,,,,,ミハマアグリ,0
1683,7170003002268,新規,0,2025-08-13,2025-08-13,合同会社ＳＡＢＵＲＯ,,合同会社,和歌山県,東牟婁郡串本町,鬮野川１０９１番地２,,30,428,6493511,,,,,,,2025-08-13,1,,,,,サブロ,0
1688,7180003028840,新規,0,2025-08-13,2025-08-13,エンジニアリングコミヤ合同会社,,合同会社,愛知県,名古屋市緑区,大清水東２１８番地,,23,114,4580849,,,,,,,2025-08-13,1,,,,,エンジニアリングコミヤ,0
1694,7180303006686,新規,0,2025-08-13,2025-08-13,合同会社エヌアンドケーシステムズ,,合同会社,愛知県,安城市,三河安城南町１丁目１５番地８,,23,212,4460058,,,,,,,2025-08-13,1,,,,,エヌアンドケーシステムズ,0
1695,7190001032471,新規,0,2025-08-13,2025-08-13,ＳＥＭＩＳＴＡ株式会社,,株式会社,三重県,四日市市,小古曽東１丁目２番１６号,,24,202,5100951,,,,,,,2025-08-13,1,,,,,セミスタ,0
1699,7230003002484,新規,0,2025-08-13,2025-08-13,合同会社ＤＤｒｅａｍ,,合同会社,富山県,富山市,山室荒屋新町４４８番地,,16,201,9398026,,,,,,,2025-08-13,1,,,,,ディードリーム,0
1706,7240001065359,新規,0,2025-08-13,2025-08-13,三成建設株式会社,,株式会社,広島県,広島市中区,猫屋町８番７号,,34,101,7300852,,,,,,,2025-08-13,1,,,,,サンセイケンセツ,0
1707,7240001065367,新規,0,2025-08-13,2025-08-13,株式会社ＭＩＫＵＮＯＡ,,株式会社,広島県,広島市西区,東観音町２５番１号,,34,104,7330032,,,,,,,2025-08-13,1,,,,,ミクノア,0
1709,7240003007367,新規,0,2025-08-13,2025-08-13,合同会社ＴＯＫＵＭＡＲＵ,,合同会社,広島県,東広島市,黒瀬町菅田１０３１２番地４,,34,212,7392624,,,,,,,2025-08-13,1,,,,,トクマル,0
1717,7290001110985,新規,0,2025-08-13,2025-08-13,株式会社パンジーエナジー,,株式会社,福岡県,福岡市博多区,板付５丁目１６番２４号,,40,132,8120888,,,,,,,2025-08-13,1,,,,,パンジーエナジー,0
1718,7290001111059,新規,0,2025-08-13,2025-08-13,株式会社ＦＵＫＵＯＫＡ　Ｔ＆Ｆ　ＡＣＡＤＥＭＹ,,株式会社,福岡県,福岡市南区,三宅３丁目２２番３８号－２０１ラスティング銭通,,40,134,8111344,,,,,,,2025-08-13,1,,,,,フクオカティーアンドエフアカデミー,0
1719,7290001111067,新規,0,2025-08-13,2025-08-13,株式会社ＺＥＲＯ　ＯＮＥ,,株式会社,福岡県,福岡市東区,八田２丁目１番５２－８０３号,,40,131,8130031,,,,,,,2025-08-13,1,,,,,ゼロワン,0
1720,7290001111100,新規,0,2025-08-13,2025-08-13,株式会社野田苺園,,株式会社,福岡県,久留米市,城島町六町原２８６番地２,,40,203,8300206,,,,,,,2025-08-13,1,,,,,ノダイチゴエン,0
1722,7290003017163,新規,0,2025-08-13,2025-08-13,合同会社Ｌｅ　ｒｅｐｏｓ,,合同会社,福岡県,福岡市南区,井尻１丁目１２番７号,,40,134,8111302,,,,,,,2025-08-13,1,,,,,ルルポ,0
1727,7300001014318,新規,0,2025-08-13,2025-08-13,株式会社江口畜産,,株式会社,佐賀県,杵島郡白石町,大字福富５３０３番地,,41,425,8490401,,,,,,,2025-08-13,1,,,,,エグチチクサン,0
1730,7330001033496,新規,0,2025-08-13,2025-08-13,株式会社ストフリ２４,,株式会社,熊本県,熊本市中央区,花畑町１－１４－３０１,,43,101,8600806,,,,,,,2025-08-13,1,,,,,ストフリニジュウヨン,0
1733,7330003011153,新規,0,2025-08-13,2025-08-13,合同会社ＭＨＤパワーバンク８号,,合同会社,熊本県,阿蘇市,永草１９４３番地２８,,43,214,8692231,,,,,,,2025-08-13,1,,,,,エムエイチディーパワーバンクハチゴウ,0
1734,7340001027571,新規,0,2025-08-13,2025-08-13,株式会社寿商店,,株式会社,鹿児島県,南九州市,知覧町東別府１４５８３番地１,,46,223,8970304,,,,,,,2025-08-13,1,,,,,コトブキショウテン,0
1738,7360001035580,新規,0,2025-08-13,2025-08-13,Ｕｎｂｉｒｔｈｄａｙ．ｗｅｓｔ株式会社,,株式会社,沖縄県,うるま市,安慶名２丁目２０－９新垣第一ビル１－Ｂ,,47,213,9042214,,,,,,,2025-08-13,1,,,,,アンバースデーウェスト,0
1739,7360001035614,新規,0,2025-08-13,2025-08-13,株式会社ＬｉｔＦａｒｍ,,株式会社,沖縄県,国頭郡今帰仁村,字平敷３０６番地,,47,306,9050423,,,,,,,2025-08-13,1,,,,,リットファーム,0
1740,7360001035622,新規,0,2025-08-13,2025-08-13,株式会社宮古島工務店,,株式会社,沖縄県,宮古島市,平良字西仲宗根６８９番地５,,47,214,9060006,,,,,,,2025-08-13,1,,,,,ミヤコジマコウムテン,0
1743,7370001052939,新規,0,2025-08-13,2025-08-13,株式会社ＳＩＥＳＴＡ,,株式会社,宮城県,仙台市青葉区,堤通雨宮町２番１号,,04,101,9810914,,,,,,,2025-08-13,1,,,,,シエスタ,0
1744,7370001052963,新規,0,2025-08-13,2025-08-13,ピクシード株式会社,,株式会社,宮城県,仙台市青葉区,中央２丁目１１番１９号仙南ビル４階－Ａ,,04,101,9800021,,,,,,,2025-08-13,1,,,,,ピクシード,0
1745,7370003007239,新規,0,2025-08-13,2025-08-13,合同会社ｃｏｃｏ,,合同会社,宮城県,登米市,迫町佐沼字錦１１５番地１,,04,212,9870511,,,,,,,2025-08-13,1,,,,,ココ,0
1746,7370003007247,新規,0,2025-08-13,2025-08-13,合同会社ＧＧコム,,合同会社,宮城県,仙台市宮城野区,鶴ケ谷８丁目１６番地２,,04,102,9830824,,,,,,,2025-08-13,1,,,,,ジイジイコム,0
1750,7380001035505,新規,0,2025-08-13,2025-08-13,アイエフオー株式会社,,株式会社,福島県,いわき市,中央台鹿島１丁目３４番地の１１,,07,204,9708043,,,,,,,2025-08-13,1,,,,,アイエフオー,0
1762,7430001094933,新規,0,2025-08-13,2025-08-13,株式会社グリーン,,株式会社,北海道,札幌市白石区,南郷通７丁目北５番２７号第２中澤ビル１Ｆ,,01,104,0030023,,,,,,,2025-08-13,1,,,,,グリーン,0
1764,7430003017958,新規,0,2025-08-13,2025-08-13,つむぎ舎合同会社,,合同会社,北海道,札幌市中央区,南十二条西１４丁目１番１４号,,01,101,0640912,,,,,,,2025-08-13,1,,,,,,0
1768,7470001020852,新規,0,2025-08-13,2025-08-13,ＳＫ株式会社,,株式会社,香川県,高松市,鬼無町佐料１６番地１３,,37,201,7618022,,,,,,,2025-08-13,1,,,,,エスケー,0
1778,8010001257556,新規,0,2025-08-13,2025-08-13,株式会社ストックス,,株式会社,東京都,千代田区,神田神保町内神田三丁目１７－８小山ビル５０３,,13,101,1000000,,,,,,,2025-08-13,1,,,,,ストックス,0
1779,8010001257597,新規,0,2025-08-13,2025-08-13,ＳＥＮＣａｒｅ株式会社,,株式会社,東京都,千代田区,紀尾井町１番３号東京ガーデンテラス紀尾井町紀尾井タワー１４階,,13,101,1020094,,,,,,,2025-08-13,1,,,,,センケア,0
1780,8010001257606,新規,0,2025-08-13,2025-08-13,ＶｅｒｉＣｅｒｔｓ株式会社,,株式会社,東京都,千代田区,大手町２丁目２番２号,,13,101,1000004,,,,,,,2025-08-13,1,,,,,ベリサーツ,0
1781,8010001257614,新規,0,2025-08-13,2025-08-13,株式会社ＰｒｉｓｍＰｌａｎｅ,,株式会社,東京都,中央区,銀座２丁目１５－２ＫＲＧｉｎｚａＩＩ４Ｆ,,13,102,1040061,,,,,,,2025-08-13,1,,,,,プリズムプレーン,0
1783,8010003048268,新規,0,2025-08-13,2025-08-13,デンダデン合同会社,,合同会社,東京都,千代田区,霞が関３丁目２番６号東京倶楽部ビルディング１１階,,13,101,1000013,,,,,,,2025-08-13,1,,,,,デンダデン,0
1784,8010003048318,新規,0,2025-08-13,2025-08-13,ＫＡＮＥＨＡＲＡ　ＳＩＢＬＩＮＧＳ合同会社,,合同会社,東京都,文京区,関口２丁目８番８号プラウド目白台６０２,,13,105,1120014,,,,,,,2025-08-13,1,,,,,カネハラシブリングズ,0
1785,8010003048326,新規,0,2025-08-13,2025-08-13,ｂＡＮｑ合同会社,,合同会社,東京都,中央区,銀座１丁目１２番４号Ｎ＆ＥＢＬＤ．６Ｆ,,13,102,1040061,,,,,,,2025-08-13,1,,,,,バンク,0
1786,8010005040512,新規,0,2025-08-13,2025-08-13,一般社団法人グリーンビルＰＪ４,,その他の設立登記法人,東京都,中央区,日本橋１丁目４番１号,,13,102,1030027,,,,,,,2025-08-13,1,,,,,グリーンビルピージェイフォー,0
1787,8010101016812,新規,0,2025-08-13,2025-08-13,ＳｏＰｒｏｄｕｃｔｓ株式会社,,株式会社,東京都,八王子市,大和田町６丁目３番２９ー２０８号,,13,201,1920045,,,,,,,2025-08-13,1,,,,,ソウプロダクツ,0
1799,8010703007861,新規,0,2025-08-13,2025-08-13,合同会社アイオミクス,,合同会社,東京都,品川区,東五反田１丁目１０番７－１１０１号,,13,109,1410022,,,,,,,2025-08-13,1,,,,,アイオミクス,0
1818,8011601028883,新規,0,2025-08-13,2025-08-13,淇之花心理株式会社,,株式会社,東京都,練馬区,関町北５丁目６番７号関町マンション４０１Ｆ,,13,120,1770051,,,,,,,2025-08-13,1,,,,,キノハナシンリ,0
1820,8011603004800,新規,0,2025-08-13,2025-08-13,ＫＡＹＡＫＵ合同会社,,合同会社,東京都,練馬区,谷原１丁目２０番２０号,,13,120,1770032,,,,,,,2025-08-13,1,,,,,カヤク,0
1823,8012301014496,新規,0,2025-08-13,2025-08-13,株式会社須永計画,,株式会社,東京都,町田市,薬師台２丁目６番地１７,,13,209,1950073,,,,,,,2025-08-13,1,,,,,スナガケイカク,0
1824,8012403007282,新規,0,2025-08-13,2025-08-13,合同会社ＯＲＣＡ　ＴＲＩＡＤ,,合同会社,東京都,三鷹市,牟礼７丁目５番２６号シャルマン２０１,,13,204,1810002,,,,,,,2025-08-13,1,,,,,オルカトライアド,0
1835,8020001163927,新規,0,2025-08-13,2025-08-13,株式会社ＶＥＴＳオペレーションズ,,株式会社,神奈川県,川崎市川崎区,駅前本町１１番地２,,14,131,2100007,,,,,,,2025-08-13,1,,,,,,0
1836,8020001164256,新規,0,2025-08-13,2025-08-13,株式会社Ｆｌｏｗｌｉｓｓ　Ｄｅｓｉｇｎ,,株式会社,神奈川県,横浜市神奈川区,金港町５番地１４クアドフォリオ８階,,14,102,2210056,,,,,,,2025-08-13,1,,,,,フローリスデザイン,0
1837,8020001164289,新規,0,2025-08-13,2025-08-13,ＪＬＰグループホールディングス株式会社,,株式会社,神奈川県,横浜市中区,日本大通１５番地,,14,104,2310021,,,,,,,2025-08-13,1,,,,,,0
1838,8020001164371,新規,0,2025-08-13,2025-08-13,株式会社弥栄,,株式会社,神奈川県,横浜市中区,翁町２丁目７番地３松井ビル３０２,,14,104,2310028,,,,,,,2025-08-13,1,,,,,イヤサカ,0
1848,8030001168090,新規,0,2025-08-13,2025-08-13,潮膳株式会社,,株式会社,埼玉県,川口市,並木３丁目５番１－４０５号,,11,203,3320034,,,,,,,2025-08-13,1,,,,,チョウゼン,0
1849,8030001168116,新規,0,2025-08-13,2025-08-13,ＨＡＬ株式会社,,株式会社,埼玉県,秩父市,蒔田１７００番地,,11,207,3680062,,,,,,,2025-08-13,1,,,,,ハル,0
1850,8030001168132,新規,0,2025-08-13,2025-08-13,株式会社ｗａｖｅ,,株式会社,埼玉県,桶川市,坂田西２丁目４８番地の１０,,11,231,3630018,,,,,,,2025-08-13,1,,,,,ウェイブ,0
1860,8040001139966,新規,0,2025-08-13,2025-08-13,アリフ・ラーム・ミーム・トレーダーズ株式会社,,株式会社,千葉県,成田市,伊能２３５０番地,,12,211,2870204,,,,,,,2025-08-13,1,,,,,アリフラームミームトレーダーズ,0
1861,8040001140107,新規,0,2025-08-13,2025-08-13,アリスワークス株式会社,,株式会社,千葉県,市川市,市川南１丁目８番２８－２０９号,,12,203,2720033,,,,,,,2025-08-13,1,,,,,アリスワークス,0
1865,8040003028201,新規,0,2025-08-13,2025-08-13,合同会社翔陽,,合同会社,千葉県,袖ケ浦市,三ツ作１３６２－１,,12,229,2990254,,,,,,,2025-08-13,1,,,,,ショウヨウ,0
1866,8040003028250,新規,0,2025-08-13,2025-08-13,ＮＭＴ合同会社,,合同会社,千葉県,柏市,篠籠田１４５３－１２フラワーコーポＡ１０５,,12,217,2770862,,,,,,,2025-08-13,1,,,,,エヌエムティー,0
1870,8050001057044,新規,0,2025-08-13,2025-08-13,やす音響システム株式会社,,株式会社,茨城県,潮来市,島須３０８１番地３２,,08,223,3112434,,,,,,,2025-08-13,1,,,,,ヤスオンキョウシステム,0
1871,8050001057069,新規,0,2025-08-13,2025-08-13,株式会社タナカベイコク,,株式会社,茨城県,土浦市,大畑１４５９番地,,08,203,3004111,,,,,,,2025-08-13,1,,,,,タナカベイコク,0
1883,8080401028096,新規,0,2025-08-13,2025-08-13,株式会社じゅげむ,,株式会社,静岡県,浜松市中央区,千歳町１３５番地の７ＡＭＵＳＥ千歳８０１号室,,22,138,4300934,,,,,,,2025-08-13,1,,,,,ジュゲム,0
1885,8090001019445,新規,0,2025-08-13,2025-08-13,株式会社ＯＭＯＴＯ,,株式会社,山梨県,富士吉田市,下吉田２丁目１番１号,,19,202,4030004,,,,,,,2025-08-13,1,,,,,オモト,0
1895,8110003005845,新規,0,2025-08-13,2025-08-13,合同会社ながめ,,合同会社,新潟県,小千谷市,東栄１丁目９－１４,,15,208,9470004,,,,,,,2025-08-13,1,,,,,ナガメ,0
1903,8120001278517,新規,0,2025-08-13,2025-08-13,株式会社アンフィニ,,株式会社,大阪府,大阪市生野区,小路１丁目４番２号,,27,116,5440002,,,,,,,2025-08-13,1,,,,,アンフィニ,0
1904,8120001278599,新規,0,2025-08-13,2025-08-13,株式会社ＭＩＷ,,株式会社,大阪府,大阪市淀川区,東三国４丁目１４番２６号,,27,123,5320002,,,,,,,2025-08-13,1,,,,,ミウ,0
1905,8120001278657,新規,0,2025-08-13,2025-08-13,環拓株式会社,,株式会社,大阪府,大阪市生野区,勝山北４丁目１－１９－３０１,,27,116,5440033,,,,,,,2025-08-13,1,,,,,カンタク,0
1906,8120001278715,新規,0,2025-08-13,2025-08-13,クレッシェンド株式会社,,株式会社,大阪府,大阪市北区,梅田１丁目１－３大阪駅前第３ビル２９階１－１－１号室,,27,127,5300001,,,,,,,2025-08-13,1,,,,,クレッシェンド,0
1911,8120101072258,新規,0,2025-08-13,2025-08-13,株式会社Ｒｅｆｉｎｅ,,株式会社,大阪府,堺市堺区,砂道町１丁７番１６号,,27,141,5900002,,,,,,,2025-08-13,1,,,,,リファイン,0
1912,8120101072266,新規,0,2025-08-13,2025-08-13,株式会社ミライレーテ,,株式会社,大阪府,岸和田市,田治米町８８,,27,202,5960805,,,,,,,2025-08-13,1,,,,,ミライレーテ,0
1913,8120103006619,新規,0,2025-08-13,2025-08-13,合同会社福宝,,合同会社,大阪府,松原市,河合２丁目４３８番地の４（２０１号）,,27,217,5800022,,,,,,,2025-08-13,1,,,,,フクホウ,0
1919,8122001039527,新規,0,2025-08-13,2025-08-13,株式会社誠和,,株式会社,大阪府,東大阪市,稲葉１丁目１０番４０号,,27,227,5780925,,,,,,,2025-08-13,1,,,,,セイワ,0
1924,8130001080260,新規,0,2025-08-13,2025-08-13,ヤオジン商店株式会社,,株式会社,京都府,京都市山科区,小山西御所町２３番地６リアライズ小山西御所３０３,,26,110,6078109,,,,,,,2025-08-13,1,,,,,ヤオジンショウテン,0
1925,8130001080277,新規,0,2025-08-13,2025-08-13,株式会社ＡＩＲ‐ＳＰＡＣＥ,,株式会社,京都府,京都市中京区,押堀町４４番地１,,26,104,6040054,,,,,,,2025-08-13,1,,,,,エアースペース,0
1930,8130003010678,新規,0,2025-08-13,2025-08-13,合同会社ライオン,,合同会社,京都府,木津川市,木津宮ノ裏３２番地２３,,26,214,6190214,,,,,,,2025-08-13,1,,,,,ライオン,0
1935,8140001139634,新規,0,2025-08-13,2025-08-13,株式会社Ｂｉｇｔｒｅｅ,,株式会社,兵庫県,尼崎市,潮江５丁目２番１－１５２４号,,28,202,6610976,,,,,,,2025-08-13,1,,,,,ビッグツリー,0
1938,8160001026970,新規,0,2025-08-13,2025-08-13,ごとう電気株式会社,,株式会社,滋賀県,高島市,新旭町太田１０４３番地１,,25,212,5201512,,,,,,,2025-08-13,1,,,,,ゴトウデンキ,0
1945,8180001168027,新規,0,2025-08-13,2025-08-13,株式会社テクノロージア,,株式会社,愛知県,名古屋市西区,香呑町４丁目９―８,,23,104,4510015,,,,,,,2025-08-13,1,,,,,テクノロージア,0
1946,8180001168076,新規,0,2025-08-13,2025-08-13,東明ＨＣ株式会社,,株式会社,愛知県,知多市,新刀池２丁目１１番地,,23,224,4780069,,,,,,,2025-08-13,1,,,,,トウメイエイチシー,0
1959,8180303006685,新規,0,2025-08-13,2025-08-13,ホワイトキャット合同会社,,合同会社,愛知県,豊田市,室町２丁目５７番地７,,23,211,4710818,,,,,,,2025-08-13,1,,,,,ホワイトキャット,0
1964,8190001032462,新規,0,2025-08-13,2025-08-13,インフリート株式会社,,株式会社,三重県,三重郡川越町,大字高松１３６８番地１,,24,344,5108121,,,,,,,2025-08-13,1,,,,,インフリート,0
1976,8230003002483,新規,0,2025-08-13,2025-08-13,合同会社ＴＲＹ,,合同会社,富山県,滑川市,開６０９番地１,,16,206,9360835,,,,,,,2025-08-13,1,,,,,トライ,0
1984,8240003007358,新規,0,2025-08-13,2025-08-13,合同会社ＮｅｘｔＤｉｓｈ,,合同会社,広島県,広島市中区,流川町８番４号８ＭＩＮＸビル１Ｆ,,34,101,7300028,,,,,,,2025-08-13,1,,,,,ネクストディッシュ,0
1985,8240003007366,新規,0,2025-08-13,2025-08-13,合同会社エステート・ＭＯＲＩＴＡ,,合同会社,広島県,広島市安佐南区,長束西２丁目４４番２３号,,34,105,7310136,,,,,,,2025-08-13,1,,,,,エステートモリタ,0
1986,8250001021293,新規,0,2025-08-13,2025-08-13,ヤマネックス株式会社,,株式会社,山口県,山口市,金古曽町６番１６号,,35,203,7530024,,,,,,,2025-08-13,1,,,,,ヤマネックス,0
1990,8290001110984,新規,0,2025-08-13,2025-08-13,株式会社ナノハナエナジー,,株式会社,福岡県,福岡市博多区,板付５丁目１６番２４号,,40,132,8120888,,,,,,,2025-08-13,1,,,,,ナノハナエナジー,0
1992,8290003017187,新規,0,2025-08-13,2025-08-13,Ｈｏｐｅ　Ｌａｂ合同会社,,合同会社,福岡県,福岡市西区,愛宕４丁目１０－４,,40,135,8190015,,,,,,,2025-08-13,1,,,,,ホープラボ,0
1994,8290801031785,新規,0,2025-08-13,2025-08-13,株式会社比江島,,株式会社,福岡県,遠賀郡遠賀町,大字尾崎１０７６番地の３,,40,384,8114342,,,,,,,2025-08-13,1,,,,,ヒエジマ,0
1996,8300001014317,新規,0,2025-08-13,2025-08-13,株式会社山口農園,,株式会社,佐賀県,杵島郡白石町,大字遠江４２６５番地,,41,425,8491105,,,,,,,2025-08-13,1,,,,,ヤマグチノウエン,0
1998,8310001019744,新規,0,2025-08-13,2025-08-13,株式会社ＺＥＮＯＶＡ,,株式会社,長崎県,西彼杵郡時津町,久留里郷３０番地６,,42,308,8512107,,,,,,,2025-08-13,1,,,,,ゼノヴァ,0
2016,8350003005004,新規,0,2025-08-13,2025-08-13,合同会社ＴＲＵＳＴ　ＯＮＥ,,合同会社,宮崎県,宮崎市,谷川３丁目５番１０号リバーサイドマンション天神３０６号,,45,201,8800908,,,,,,,2025-08-13,1,,,,,トラストワン,0
2017,8360001035613,新規,0,2025-08-13,2025-08-13,株式会社沖縄メタリス,,株式会社,沖縄県,中頭郡中城村,字南上原９３４番地７ライトハウス３０２号室,,47,328,9012424,,,,,,,2025-08-13,1,,,,,オキナワメタリス,0
2018,8360001035621,新規,0,2025-08-13,2025-08-13,株式会社結和不動産,,株式会社,沖縄県,宮古島市,平良字西里７０９番地３－１０２,,47,214,9060012,,,,,,,2025-08-13,1,,,,,ユイワフドウサン,0
2020,8370001052946,新規,0,2025-08-13,2025-08-13,株式会社フォトリエ,,株式会社,宮城県,仙台市若林区,木ノ下２丁目１番１号ムラカタビル３階,,04,103,9840047,,,,,,,2025-08-13,1,,,,,フォトリエ,0
2021,8370003007246,新規,0,2025-08-13,2025-08-13,合同会社ＳＥＮＤＡＩ　ＭＯＴＯＲＳ,,合同会社,宮城県,加美郡加美町,字下野目雷北７番地４,,04,445,9814302,,,,,,,2025-08-13,1,,,,,センダイモーターズ,0
2029,8390003002427,新規,0,2025-08-13,2025-08-13,合同会社いせや,,合同会社,山形県,上山市,湯町３－７,,06,207,9993156,,,,,,,2025-08-13,1,,,,,,0
2036,8430001095071,新規,0,2025-08-13,2025-08-13,株式会社ＴＯＰ　ＲＯＯＫＩＥＳ,,株式会社,北海道,勇払郡安平町,安平１８４番地,,01,585,0591511,,,,,,,2025-08-13,1,,,,,トップルーキーズ,0
2039,8450001014698,新規,0,2025-08-13,2025-08-13,株式会社千代丸水産,,株式会社,北海道,利尻郡利尻町,沓形字日出町３１番地１,,01,518,0970401,,,,,,,2025-08-13,1,,,,,チヨマルスイサン,0
2040,8462505000297,新規,0,2025-08-13,2025-08-13,一般社団法人尾岱沼Ｓｅｅｄｓ,,その他の設立登記法人,北海道,野付郡別海町,尾岱沼潮見町２４０番地,,01,691,0861644,,,,,,,2025-08-13,1,,,,,オダイトウシーズ,0
2044,8470001020851,新規,0,2025-08-13,2025-08-13,株式会社ＢＵＬＬＷＯＲＫＳ,,株式会社,香川県,三豊市,高瀬町佐股甲２３７７番地１,,37,208,7670021,,,,,,,2025-08-13,1,,,,,ブルワークス,0
2046,8470003002955,新規,0,2025-08-13,2025-08-13,合同会社優綾,,合同会社,香川県,坂出市,林田町２８５１－２６６,,37,203,7620012,,,,,,,2025-08-13,1,,,,,,0
2047,8480001012922,新規,0,2025-08-13,2025-08-13,株式会社古川,,株式会社,徳島県,板野郡藍住町,住吉字神蔵１４３番地コーポ新聖１０２,,36,403,7711265,,,,,,,2025-08-13,1,,,,,フルカワ,0
2051,8500001026473,新規,0,2025-08-13,2025-08-13,ＴＥＮＫｅｉ株式会社,,株式会社,愛媛県,今治市,波方町波方甲２２６６－８,,38,202,7992101,,,,,,,2025-08-13,1,,,,,テンケイ,0
2059,9010001257497,新規,0,2025-08-13,2025-08-13,Ｉｎｎｏ　Ｊａｐａｎ株式会社,,株式会社,東京都,中央区,八丁堀４丁目３番５号京橋宝町ＰＲＥＸ１１Ｆ,,13,102,1040032,,,,,,,2025-08-13,1,,,,,イノジャパン,0
2060,9010001257596,新規,0,2025-08-13,2025-08-13,ＨＭＨホールディングス株式会社,,株式会社,東京都,千代田区,丸の内２丁目１番１号明治安田生命ビル１１階,,13,101,1000005,,,,,,,2025-08-13,1,,,,,エイチエムエイチホールディングス,0
2061,9010001257613,新規,0,2025-08-13,2025-08-13,株式会社コロネ,,株式会社,東京都,千代田区,神田須田町２丁目２５ＧＹＢ秋葉原５Ｆ,,13,101,1010041,,,,,,,2025-08-13,1,,,,,コロネ,0
2062,9010001257704,新規,0,2025-08-13,2025-08-13,株式会社トゥゲザーウィン,,株式会社,東京都,中央区,銀座１丁目１６番７号銀座大栄ビル５階,,13,102,1040061,,,,,,,2025-08-13,1,,,,,トゥゲザーウィン,0
2066,9010003048309,新規,0,2025-08-13,2025-08-13,ＰＲＯＴＨＥＮＴＩＡ合同会社,,合同会社,東京都,中央区,銀座１丁目１２番４号Ｎ＆ＥＢＬＤ．６Ｆ,,13,102,1040061,,,,,,,2025-08-13,1,,,,,プロセンティア,0
2067,9010003048325,新規,0,2025-08-13,2025-08-13,ＷＥ　ＴＨＥ　ＭＡＣＨＩＮＥ合同会社,,合同会社,東京都,千代田区,神田須田町１丁目１４番地１ヒューリック神田須田町ビル１Ｆ－４Ｆ,,13,101,1010041,,,,,,,2025-08-13,1,,,,,ウィーザマシーン,0
2068,9010003048333,新規,0,2025-08-13,2025-08-13,合同会社ＴＣ２２,,合同会社,東京都,千代田区,永田町２丁目１１番１号山王パークタワー５階トラスティーズ・コンサルティングＬＬＰ内,,13,101,1000014,,,,,,,2025-08-13,1,,,,,ティーシートゥウェンティツー,0
2071,9010101016811,新規,0,2025-08-13,2025-08-13,知情報株式会社,,株式会社,東京都,八王子市,子安町１丁目４８番９号２０２号室,,13,201,1920904,,,,,,,2025-08-13,1,,,,,チジョウホウ,0
2080,9010503007945,新規,0,2025-08-13,2025-08-13,Ｕｎｉｖｅｒｓａｌ　Ｄｒｅａｍ合同会社,,合同会社,東京都,台東区,西浅草３丁目３－１,,13,106,1110035,,,,,,,2025-08-13,1,,,,,ユニヴァーサルドリーム,0
2083,9010701048139,新規,0,2025-08-13,2025-08-13,ＡＩスマートワーク株式会社,,株式会社,東京都,品川区,東五反田１丁目７番１１号アイオス五反田ＡＮＮＥＸビル２階２０２号室,,13,109,1410022,,,,,,,2025-08-13,1,,,,,エイアイスマートワーク,0
2084,9010703007860,新規,0,2025-08-13,2025-08-13,合同会社ＣＯＲＥＢＲＩＤＧＥ　ＰＡＲＴＮＥＲＳ,,合同会社,東京都,品川区,東品川３丁目４番１９－７１２号,,13,109,1400002,,,,,,,2025-08-13,1,,,,,コアブリッジパートナーズ,0
2089,9010903010185,新規,0,2025-08-13,2025-08-13,合同会社Ｍｕｍｅ　Ｔｒｅｅ,,合同会社,東京都,世田谷区,奥沢５丁目３２番２号,,13,112,1580083,,,,,,,2025-08-13,1,,,,,ムメツリー,0
2091,9010905004813,新規,0,2025-08-13,2025-08-13,一般社団法人縁響舎,,その他の設立登記法人,東京都,世田谷区,世田谷３丁目１１番２７－５１４号,,13,112,1540017,,,,,,,2025-08-13,1,,,,,エンキョウシャ,0
2095,9011003022138,新規,0,2025-08-13,2025-08-13,ＥＰＳ合同会社,,合同会社,東京都,渋谷区,神南１丁目１１－４ＦＰＧリンクス神南５階,,13,113,1500041,,,,,,,2025-08-13,1,,,,,イーピーエス,0
2101,9011601028874,新規,0,2025-08-13,2025-08-13,アクアポリン株式会社,,株式会社,東京都,練馬区,大泉学園町１丁目３２番２１号２Ｆ,,13,120,1780061,,,,,,,2025-08-13,1,,,,,アクアポリン,0
2102,9011601028890,新規,0,2025-08-13,2025-08-13,株式会社エンゲージメント,,株式会社,東京都,練馬区,下石神井５丁目１３番１－２０３号,,13,120,1770042,,,,,,,2025-08-13,1,,,,,エンゲージメント,0
2103,9011603004799,新規,0,2025-08-13,2025-08-13,ｓｔａｎｄｏｕｔ合同会社,,合同会社,東京都,練馬区,春日町５丁目３５番２８号,,13,120,1790074,,,,,,,2025-08-13,1,,,,,スタンドアウト,0
2104,9011701028519,新規,0,2025-08-13,2025-08-13,ＮＡＳＡＮＥ株式会社,,株式会社,東京都,江戸川区,西葛西１丁目９番６号,,13,123,1340088,,,,,,,2025-08-13,1,,,,,ナサネ,0
2105,9011703004344,新規,0,2025-08-13,2025-08-13,Ｆｒｅｅｄｏｍ合同会社,,合同会社,東京都,江戸川区,北小岩８丁目２６－１クレセントトモ２１３号室,,13,123,1330051,,,,,,,2025-08-13,1,,,,,フリーダン,0
2106,9011801046569,新規,0,2025-08-13,2025-08-13,株式会社ジコモ,,株式会社,東京都,足立区,綾瀬１丁目３３番１４号４０２,,13,121,1200005,,,,,,,2025-08-13,1,,,,,ジコモ,0
2112,9012401043477,新規,0,2025-08-13,2025-08-13,株式会社創翔モア,,株式会社,東京都,三鷹市,下連雀３丁目２７番１号三協ビル２階,,13,204,1810013,,,,,,,2025-08-13,1,,,,,ソウショウモア,0
2115,9012801024168,新規,0,2025-08-13,2025-08-13,株式会社ｃｏｃｏｈｉｍａ,,株式会社,東京都,国分寺市,泉町３丁目１番９号２Ｆ,,13,214,1850024,,,,,,,2025-08-13,1,,,,,ココヒマ,0
2116,9012801024176,新規,0,2025-08-13,2025-08-13,株式会社ＬｏｆＲ,,株式会社,東京都,国分寺市,本町２丁目９―１４ワイエスビル４階,,13,214,1850012,,,,,,,2025-08-13,1,,,,,エルオブアール,0
2141,9030001167967,新規,0,2025-08-13,2025-08-13,株式会社錦建工業,,株式会社,埼玉県,川口市,栄町３丁目１１番４－７０４号セントラルコーポ川口,,11,203,3320017,,,,,,,2025-08-13,1,,,,,キンケンコウギョウ,0
2142,9030001168123,新規,0,2025-08-13,2025-08-13,株式会社恭昇エンジニア,,株式会社,埼玉県,川口市,大字芝５３１２番地の３,,11,203,3330866,,,,,,,2025-08-13,1,,,,,キョウショウエンジニア,0
2149,9040001140023,新規,0,2025-08-13,2025-08-13,株式会社兆田,,株式会社,千葉県,八街市,滝台６５９－１,,12,230,2891123,,,,,,,2025-08-13,1,,,,,チョウダ,0
2156,9040005022845,新規,0,2025-08-13,2025-08-13,一般社団法人つつつつつ,,その他の設立登記法人,千葉県,柏市,小青田５丁目７番地デュオヒルズ・ザ・グラン１２０９号,,12,217,2770803,,,,,,,2025-08-13,1,,,,,ツツツツツ,0
2160,9050001057076,新規,0,2025-08-13,2025-08-13,株式会社ＣＨＥＥＭＡ　ＴＲＡＤＩＮＧ,,株式会社,茨城県,古河市,東山田１８１５番地４４４,,08,204,3060112,,,,,,,2025-08-13,1,,,,,チーマトレーディング,0
2166,9080001027092,新規,0,2025-08-13,2025-08-13,株式会社Ｋ‐ＴＲＵＳＴ,,株式会社,静岡県,静岡市駿河区,大谷３丁目２８番１３号,,22,102,4228017,,,,,,,2025-08-13,1,,,,,ケイトラスト,0
2174,9100003008344,新規,0,2025-08-13,2025-08-13,合同会社Ｎａｔｌａｙ,,合同会社,長野県,北佐久郡御代田町,大字御代田２６２８番地１０５,,20,323,3890206,,,,,,,2025-08-13,1,,,,,ナトレイ,0
2179,9110003005844,新規,0,2025-08-13,2025-08-13,紅花鯉合同会社,,合同会社,新潟県,長岡市,悠久町１丁目１１０５番地１０,,15,202,9400827,,,,,,,2025-08-13,1,,,,,ベニバナコイ,0
2186,9120001278706,新規,0,2025-08-13,2025-08-13,株式会社大田,,株式会社,大阪府,大阪市中央区,上町１丁目８番８号ＧＲＥＥＮＢＯＷＬ上町ビル５階,,27,128,5400005,,,,,,,2025-08-13,1,,,,,オオタ,0
2189,9120005025105,新規,0,2025-08-13,2025-08-13,一般社団法人未来ウェルビーイング協会,,その他の設立登記法人,大阪府,大阪市中央区,東心斎橋１丁目７番３０号２１心斎橋ビル３階,,27,128,5420083,,,,,,,2025-08-13,1,,,,,ミライウェルビーイングキョウカイ,0
2192,9120101072216,新規,0,2025-08-13,2025-08-13,株式会社ＴＨＲＥＥ,,株式会社,大阪府,泉佐野市,日根野１１５０番地の１,,27,213,5980021,,,,,,,2025-08-13,1,,,,,スリー,0
2193,9120101072265,新規,0,2025-08-13,2025-08-13,光翔株式会社,,株式会社,大阪府,河内長野市,南青葉台１７番１号,,27,216,5860067,,,,,,,2025-08-13,1,,,,,コウショウ,0
2194,9120103006634,新規,0,2025-08-13,2025-08-13,合同会社ヘルスパートナー,,合同会社,大阪府,泉南郡岬町,深日３０６９－７２,,27,366,5990303,,,,,,,2025-08-13,1,,,,,ヘルスパートナー,0
2195,9120105010048,新規,0,2025-08-13,2025-08-13,医療法人矢野歯科診療所,,その他の設立登記法人,大阪府,泉佐野市,葵町３丁目５番１２号,,27,213,5980014,,,,,,,2025-08-13,1,,,,,ヤノシカシンリョウジョ,0
2198,9122001039518,新規,0,2025-08-13,2025-08-13,万盟特自動化株式会社,,株式会社,大阪府,東大阪市,源氏ケ丘一丁目１３－４０８号,,27,227,5770822,,,,,,,2025-08-13,1,,,,,マンメイトクジドウカ,0
2200,9130001080235,新規,0,2025-08-13,2025-08-13,株式会社ＭＩＲＡＩＫＵ,,株式会社,京都府,京都市下京区,七条通油小路東入大黒町２２７番地第２キョートビル４０２,,26,106,6008223,,,,,,,2025-08-13,1,,,,,,0
2201,9130001080276,新規,0,2025-08-13,2025-08-13,株式会社ＡＩＲ‐ＰＡＲＫ,,株式会社,京都府,京都市中京区,押堀町４４番地１,,26,104,6040054,,,,,,,2025-08-13,1,,,,,エアーパーク,0
2203,9130003010644,新規,0,2025-08-13,2025-08-13,合同会社ＴＯＵＪＩ,,合同会社,京都府,舞鶴市,字京口８９－２,,26,202,6240935,,,,,,,2025-08-13,1,,,,,トウジ,0
2207,9140001139633,新規,0,2025-08-13,2025-08-13,株式会社ヤノ,,株式会社,兵庫県,養父市,八鹿町八鹿１４５４番地２,,28,222,6670021,,,,,,,2025-08-13,1,,,,,ヤノ,0
2213,9140003022457,新規,0,2025-08-13,2025-08-13,合同会社ソウリツ,,合同会社,兵庫県,三田市,ゆりのき台４丁目２１－４９,,28,219,6691324,,,,,,,2025-08-13,1,,,,,ソウリツ,0
2214,9140005027594,新規,0,2025-08-13,2025-08-13,一般社団法人みのりクラブ,,その他の設立登記法人,兵庫県,神戸市東灘区,森南町１丁目６－１５ＥＧ森南町ガーデン５階,,28,101,6580011,,,,,,,2025-08-13,1,,,,,ミノリクラブ,0
2215,9150003003679,新規,0,2025-08-13,2025-08-13,甲方創研合同会社,,合同会社,奈良県,香芝市,関屋北５丁目１２番１６号,,29,210,6390254,,,,,,,2025-08-13,1,,,,,コウホウソウケン,0
2216,9160001026978,新規,0,2025-08-13,2025-08-13,株式会社クオライズ,,株式会社,滋賀県,甲賀市,水口町東名坂２４６番地１ウイング２階,,25,209,5280036,,,,,,,2025-08-13,1,,,,,クオライズ,0
2227,9180001168026,新規,0,2025-08-13,2025-08-13,ＮＹ　ＴＲＡＤＩＮＧ株式会社,,株式会社,愛知県,弥富市,前ケ須町勘助走２９番地１プレジオＢ‐２０１,,23,235,4980017,,,,,,,2025-08-13,1,,,,,エヌワイトレーディング,0
2228,9180001168067,新規,0,2025-08-13,2025-08-13,株式会社山本企画,,株式会社,愛知県,犬山市,大字前原字小脇町３２番地１,,23,215,4840061,,,,,,,2025-08-13,1,,,,,ヤマモトキカク,0
2229,9180001168083,新規,0,2025-08-13,2025-08-13,株式会社ＲＥＡＶＥ,,株式会社,愛知県,名古屋市中区,錦１丁目１７番１３号名興ビルディング２Ｆ,,23,106,4600003,,,,,,,2025-08-13,1,,,,,リーブ,0
2235,9180003028847,新規,0,2025-08-13,2025-08-13,合同会社Ａｍｂｅｒ,,合同会社,愛知県,名古屋市中村区,猪之越町１丁目４番１２号－１,,23,105,4530038,,,,,,,2025-08-13,1,,,,,アンバー,0
2237,9180301040082,新規,0,2025-08-13,2025-08-13,ＳＣＲ株式会社,,株式会社,愛知県,刈谷市,井ケ谷町一本木２２番地,,23,210,4480001,,,,,,,2025-08-13,1,,,,,エスシーアール,0
2238,9180301040099,新規,0,2025-08-13,2025-08-13,株式会社Ｍ．Ｙ．ＵＮＩＴＥ,,株式会社,愛知県,西尾市,一色町開正出口１３番地４,,23,213,4440421,,,,,,,2025-08-13,1,,,,,マイユナイト,0
2244,9180303006684,新規,0,2025-08-13,2025-08-13,合同会社レイリー,,合同会社,愛知県,みよし市,三好町中鯰ヶ池８４番地２スペクトル三好５０９号,,23,236,4700224,,,,,,,2025-08-13,1,,,,,レイリー,0
2248,9210001020273,新規,0,2025-08-13,2025-08-13,株式会社東和,,株式会社,福井県,小浜市,平野第２７号１番地の１－１０３,,18,204,9170226,,,,,,,2025-08-13,1,,,,,トウワ,0
2253,9230003002482,新規,0,2025-08-13,2025-08-13,合同会社ＴＭ企画,,合同会社,富山県,中新川郡立山町,岩峅寺９８番地８,,16,323,9301368,,,,,,,2025-08-13,1,,,,,ティエムキカク,0
2257,9240001065365,新規,0,2025-08-13,2025-08-13,株式会社Ｊｏｙコーポレーション,,株式会社,広島県,広島市安佐南区,中筋３丁目２６－１３,,34,105,7310122,,,,,,,2025-08-13,1,,,,,ジョイコーポレーション,0
2260,9240003007357,新規,0,2025-08-13,2025-08-13,合同会社ｂｒｏｔｈｅｒ,,合同会社,広島県,広島市西区,己斐本町１丁目５番５号ＳＡＦＡＲＩビル３階,,34,104,7330812,,,,,,,2025-08-13,1,,,,,ブラザー,0
2261,9240003007365,新規,0,2025-08-13,2025-08-13,合同会社リブル,,合同会社,広島県,広島市西区,横川町３丁目３－７－３０１,,34,104,7330011,,,,,,,2025-08-13,1,,,,,リブル,0
2262,9240005015977,新規,0,2025-08-13,2025-08-13,一般社団法人みらいサポート,,その他の設立登記法人,広島県,広島市西区,三篠町３丁目１１番５号,,34,104,7330003,,,,,,,2025-08-13,1,,,,,ミライサポート,0
2268,9280001009491,新規,0,2025-08-13,2025-08-13,Ｕｍａｒｓ株式会社,,株式会社,島根県,益田市,遠田町１７２１番地２,,32,204,6993676,,,,,,,2025-08-13,1,,,,,ユーマーズ,0
2272,9290001110983,新規,0,2025-08-13,2025-08-13,株式会社タンポポエナジー,,株式会社,福岡県,福岡市博多区,板付５丁目１６番２４号,,40,132,8120888,,,,,,,2025-08-13,1,,,,,タンポポエナジー,0
2273,9290001111098,新規,0,2025-08-13,2025-08-13,株式会社セラピストワールド,,株式会社,福岡県,三潴郡大木町,大字大角１５５８番地３,,40,522,8300403,,,,,,,2025-08-13,1,,,,,セラピストワールド,0
2279,9290005019809,新規,0,2025-08-13,2025-08-13,一般社団法人吉祥会,00140257,その他の設立登記法人,福岡県,大牟田市,大字吉野１６７９番地１,,40,202,8370904,,,,,,,2025-08-13,1,,,,,,0
2282,9300003002327,新規,0,2025-08-13,2025-08-13,合同会社パーチ,,合同会社,佐賀県,唐津市,千代田町２１０９番地６７ＣＨＩＹＯビル２階,,41,202,8470041,,,,,,,2025-08-13,1,,,,,パーチ,0
2283,9310001019743,新規,0,2025-08-13,2025-08-13,さきがけ不動産株式会社,,株式会社,長崎県,諫早市,真崎町１１２５番地,,42,204,8540084,,,,,,,2025-08-13,1,,,,,サキガケフドウサン,0
2291,9330003011151,新規,0,2025-08-13,2025-08-13,合同会社ＭＨＤパワーバンク７号,,合同会社,熊本県,阿蘇市,永草１９４３番地２８,,43,214,8692231,,,,,,,2025-08-13,1,,,,,エムエイチディーパワーバンクシチゴウ,0
2293,9350001019698,新規,0,2025-08-13,2025-08-13,トライブ株式会社,,株式会社,宮崎県,宮崎市,橘通西５丁目６番５７号山崎ビル５Ｆ,00140260,45,201,8800001,,,,,,,2025-08-13,1,,,,,トライブ,0
2294,9350005006321,新規,0,2025-08-13,2025-08-13,一般社団法人ＤａｉｏＤａｎｉスポーツクラブ,,その他の設立登記法人,宮崎県,日向市,大王町６丁目４１番地,,45,206,8830061,,,,,,,2025-08-13,1,,,,,ダイオウダニスポーツクラブ,0
2295,9360001035587,新規,0,2025-08-13,2025-08-13,株式会社Ｔｅｅｒａ,,株式会社,沖縄県,那覇市,牧志２丁目１６－２５ライオンズシティ牧志８０３号室,,47,201,9000013,,,,,,,2025-08-13,1,,,,,ティーラ,0
2296,9360001035612,新規,0,2025-08-13,2025-08-13,サンライズ電工株式会社,,株式会社,沖縄県,宮古島市,平良字久貝１０３３番地サンセットヒルズ３０６,,47,214,9060015,,,,,,,2025-08-13,1,,,,,サンライズデンコウ,0
2297,9360001035629,新規,0,2025-08-13,2025-08-13,株式会社レイジアムリゾート,,株式会社,沖縄県,宮古島市,下地字洲鎌２９６番地１２ＴＨＥＭＩＮＴＢＬＵＥ３０６,,47,214,9060303,,,,,,,2025-08-13,1,,,,,レイジアムリゾート,0
2298,9360001035637,新規,0,2025-08-13,2025-08-13,株式会社ＣＡＲＸＩＳ,,株式会社,沖縄県,豊見城市,字座安２１９番地１,,47,212,9010221,,,,,,,2025-08-13,1,,,,,カーキス,0
2302,9370001052929,新規,0,2025-08-13,2025-08-13,株式会社ＳＡＫＵＲＡ,,株式会社,宮城県,仙台市宮城野区,燕沢２丁目８番１７号,,04,102,9830823,,,,,,,2025-08-13,1,,,,,サクラ,0
2303,9370001052945,新規,0,2025-08-13,2025-08-13,株式会社ＭＩＴＺ,,株式会社,宮城県,仙台市宮城野区,岡田字寺袋浦１３番地の５６,,04,102,9830003,,,,,,,2025-08-13,1,,,,,ミッツ,0
2304,9370001052961,新規,0,2025-08-13,2025-08-13,株式会社ＳＯＣＩＡＬＶＩＬＬＡＧＥ,,株式会社,宮城県,多賀城市,中央３丁目１０－５,,04,209,9850873,,,,,,,2025-08-13,1,,,,,ソーシャルビレッジ,0
2307,9370003007237,新規,0,2025-08-13,2025-08-13,合同会社ｌｉｎａｒｉ,,合同会社,宮城県,仙台市泉区,八乙女中央４丁目１０番２号,,04,105,9813135,,,,,,,2025-08-13,1,,,,,リナリ,0
2308,9370003007245,新規,0,2025-08-13,2025-08-13,合同会社ｃａｐａｂｌｅ,,合同会社,宮城県,仙台市若林区,木ノ下２丁目６番５号ｓｐｉｒａｌｅｄｉｋｉｎｏｓｈｉｔａーＡ,,04,103,9840047,,,,,,,2025-08-13,1,,,,,ケイパブル,0
2312,9380001035503,新規,0,2025-08-13,2025-08-13,株式会社Ｔｒａｖｅｌ　ｈｏｍｅ,,株式会社,福島県,双葉郡大熊町,大字小入野字西大和久４７５番地３,,07,545,9791302,,,,,,,2025-08-13,1,,,,,トラベルホーム,0
2319,9420005007964,新規,0,2025-08-13,2025-08-13,一般社団法人あおもり地域おこし協力隊サポーターズ,,その他の設立登記法人,青森県,青森市,幸畑１丁目１６番１４号,,02,201,0300943,,,,,,,2025-08-13,1,,,,,アオモリチイキオコシキョウリョクタイサポーターズ,0
2321,9430001094980,新規,0,2025-08-13,2025-08-13,株式会社Ｊａｐａｎ　ｅａｔｓ,,株式会社,北海道,札幌市中央区,南九条西６丁目１番１２－２０１号,,01,101,0640809,,,,,,,2025-08-13,1,,,,,ジャパンイーツ,0
2326,9470001020850,新規,0,2025-08-13,2025-08-13,ＢｏｎｄＡＩ株式会社,,株式会社,香川県,高松市,サンポート２番１号高松シンボルタワータワー棟４・５階情報通信交流館Ｓｅｔｏｕｃｈｉ－ｉ－Ｂａｓｅ内,,37,201,7600019,,,,,,,2025-08-13,1,,,,,,0
2327,9470003002954,新規,0,2025-08-13,2025-08-13,合同会社さくらデジラボ,,合同会社,香川県,善通寺市,吉原町３６３番地４,,37,204,7650061,,,,,,,2025-08-13,1,,,,,,0
2328,9480001012921,新規,0,2025-08-13,2025-08-13,株式会社環境リサイクル,,株式会社,徳島県,名西郡石井町,浦庄字諏訪５０番地６,,36,341,7793241,,,,,,,2025-08-13,1,,,,,カンキョウリサイクル,0
2332,9500003003569,新規,0,2025-08-13,2025-08-13,合同会社公誠,,合同会社,愛媛県,松山市,吉藤３丁目８番１１－８号,,38,201,7918011,,,,,,,2025-08-13,1,,,,,コウセイ,0
2333,9700150131755,新規,0,2025-08-13,2025-08-13,ｓｈｅｎｚｈｅｎｓｈｉｘｉａｎｇｈｏｎｇｄｉａｎｚｉｙｏｕｘｉａｎｇｏｎｇｓｉ,,外国会社等,,,,,,,,Ｒｏｏｍ　２０６，　Ｎｏ．　２３，　Ｘｉｎｔｕｎ　５ｔｈ　Ａｒｅａ，　Ｘｉｎｌｉａｎ　Ｃｏｍｍｕｎｉｔｙ，　Ｌｏｎｇｃｈｅｎｇ　Ｓｕｂｄｉｓｔｒｉｃｔ，　Ｌｏｎｇｇａｎｇ　Ｄｉｓｔｒｉｃｔ，　Ｓｈｅｎｚｈｅｎ　Ｃｉｔｙ,,,,,,2025-08-13,1,,,,,シンセンシシャンホンデンシユウゲンコウシ,0
