sequenceNumber,corporateNumber,process,correct,updateDate,changeDate,name,nameImageId,kind,prefectureName,cityName,streetNumber,addressImageId,prefectureCode,cityCode,postCode,addressOutside,addressOutsideImageId,closeDate,closeCause,successorCorporateNumber,changeCause,assignmentDate,latest,enName,enPrefectureName,enCityName,enAddressOutside,furigana,hihyoji
11,1010001229974,新規,0,2022-10-12,2022-10-12,株式会社パトル,,株式会社,東京都,中央区,明石町１番２９ー４０６号,,13,102,1040044,,,,,,,2022-10-12,1,,,,,パトル,0
12,1010001229999,新規,0,2022-10-12,2022-10-12,株式会社康橋,,株式会社,東京都,千代田区,九段南１丁目５番６号りそな九段ビル５Ｆ、ＫＳフロア,,13,101,1020074,,,,,,,2022-10-12,1,,,,,コウキョウ,0
13,1010001230040,新規,0,2022-10-12,2022-10-12,Ｊａｍ　Ｓｅｓｓｉｏｎ株式会社,,株式会社,東京都,中央区,銀座１丁目１２番４号Ｎ＆ＥＢＬＤ．６Ｆ,,13,102,1040061,,,,,,,2022-10-12,1,,,,,ジャムセッション,0
14,1010003038845,新規,0,2022-10-12,2022-10-12,ｉｓｓｉｎ合同会社,,合同会社,東京都,文京区,本郷５丁目１番１１号ＫＩＩＨＯＵＳＥ２０２,,13,105,1130033,,,,,,,2022-10-12,1,,,,,イッシン,0
16,1010005035584,新規,0,2022-10-12,2022-10-12,一般社団法人ＵＡＢ運営事務局,,その他の設立登記法人,東京都,中央区,晴海３丁目１３番１－３６０７号,,13,102,1040053,,,,,,,2022-10-12,1,,,,,ユーエービーウンエイジムキョク,0
17,1010005035650,新規,0,2022-10-12,2022-10-12,一般社団法人次世代環境教育支援機構,,その他の設立登記法人,東京都,千代田区,内神田１丁目３番８号ステージ内神田ビル７階,,13,101,1010047,,,,,,,2022-10-12,1,,,,,ジセダイカンキョウキョウイクシエンキコウ,0
21,1010101015358,新規,0,2022-10-12,2022-10-12,株式会社小島管興,,株式会社,東京都,八王子市,宮下町６４番地２,,13,201,1920005,,,,,,,2022-10-12,1,,,,,コジマカンコウ,0
35,1010401170167,新規,0,2022-10-12,2022-10-12,株式会社ＴＯＮＹ,,株式会社,東京都,港区,麻布十番３丁目２番６号,,13,103,1060045,,,,,,,2022-10-12,1,,,,,トニー,0
36,1010401170183,新規,0,2022-10-12,2022-10-12,株式会社ＨＵＬＩＮＫ,,株式会社,東京都,港区,浜松町２丁目２番１５号浜松町ダイヤビル２Ｆ,,13,103,1050013,,,,,,,2022-10-12,1,,,,,ヒューリンク,0
37,1010401170209,新規,0,2022-10-12,2022-10-12,株式会社ＢａｏＢｕｌｌ,,株式会社,東京都,港区,浜松町２丁目２番１５号浜松町ダイヤビル２Ｆ,,13,103,1050013,,,,,,,2022-10-12,1,,,,,バオブル,0
38,1010401170225,新規,0,2022-10-12,2022-10-12,株式会社オフィス・エアー,,株式会社,東京都,港区,南青山２丁目２－１５ウィン青山９４２,,13,103,1070062,,,,,,,2022-10-12,1,,,,,オフィスエアー,0
39,1010403028611,新規,0,2022-10-12,2022-10-12,柴合同会社,,合同会社,東京都,港区,西新橋１丁目１番１号ＥＰコンサルティングサービス内,,13,103,1050003,,,,,,,2022-10-12,1,,,,,シバ,0
41,1010405021416,新規,0,2022-10-12,2022-10-12,一般社団法人日本危機管理協会,,その他の設立登記法人,東京都,港区,赤坂８丁目４番１４号青山タワープレイス８階,,13,103,1070052,,,,,,,2022-10-12,1,,,,,ニホンキキカンリキョウカイ,0
42,1010405021481,新規,0,2022-10-12,2022-10-12,江坂インベストメンツ特定目的会社,,その他の設立登記法人,東京都,港区,六本木１丁目６番１号泉ガーデンタワー,,13,103,1060032,,,,,,,2022-10-12,1,,,,,エサカインベストメンツ,0
50,1010701043320,新規,0,2022-10-12,2022-10-12,株式会社ＥＸＦＩＤＡ,,株式会社,東京都,品川区,東品川４丁目１０番１８号,,13,109,1400002,,,,,,,2022-10-12,1,,,,,エクスフィーダ,0
52,1010901051750,新規,0,2022-10-12,2022-10-12,ＳＯＵＳＨＩ不動産株式会社,,株式会社,東京都,世田谷区,北沢２丁目１４番１３号５０１号室,,13,112,1550031,,,,,,,2022-10-12,1,,,,,ソウシフドウサン,0
57,1011001150195,新規,0,2022-10-12,2022-10-12,株式会社Ｐａｔｃｈｗｏｒｋ,,株式会社,東京都,渋谷区,道玄坂１丁目１０－８渋谷道玄坂東急ビル２Ｆ－Ｃ,,13,113,1500043,,,,,,,2022-10-12,1,,,,,パッチワーク,0
63,1011101100439,新規,0,2022-10-12,2022-10-12,株式会社くま田商会,,株式会社,東京都,新宿区,西新宿７丁目４番７号イマス浜田ビル３Ｆ－Ｂ,,13,104,1600023,,,,,,,2022-10-12,1,,,,,クマダショウカイ,0
64,1011103012260,新規,0,2022-10-12,2022-10-12,ゼータテクノロジー合同会社,,合同会社,東京都,新宿区,西新宿３丁目３番１３号西新宿水間ビル２Ｆ,,13,104,1600023,,,,,,,2022-10-12,1,,,,,ゼータテクノロジー,0
81,1011801041387,新規,0,2022-10-12,2022-10-12,ＵＮＩＶＥＲＳＡＬ株式会社,,株式会社,東京都,葛飾区,西水元３丁目３４番１７号,,13,122,1250031,,,,,,,2022-10-12,1,,,,,ユニバーサル,0
86,1012403005623,新規,0,2022-10-12,2022-10-12,合同会社上隅,,合同会社,東京都,多摩市,関戸２丁目６５―１ラヴィドール聖蹟桜ヶ丘３０４,,13,224,2060011,,,,,,,2022-10-12,1,,,,,ウエズミ,0
91,1012805003159,新規,0,2022-10-12,2022-10-12,医療法人社団泰星,,その他の設立登記法人,東京都,武蔵村山市,榎１丁目７番地２１,,13,223,2080022,,,,,,,2022-10-12,1,,,,,タイセイ,0
97,1013301049778,新規,0,2022-10-12,2022-10-12,株式会社イーリス,,株式会社,東京都,豊島区,池袋２丁目３３番２１号セントリビエ３０１号,,13,116,1710014,,,,,,,2022-10-12,1,,,,,イーリス,0
107,1020001148488,新規,0,2022-10-12,2022-10-12,シーピーエイチ株式会社,,株式会社,神奈川県,横浜市保土ケ谷区,桜ケ丘１丁目３０番２２号,,14,106,2400011,,,,,,,2022-10-12,1,,,,,シーピーエイチ,0
108,1020001148505,新規,0,2022-10-12,2022-10-12,デスタ株式会社,,株式会社,神奈川県,横浜市都筑区,東山田町１２４番地,,14,118,2240024,,,,,,,2022-10-12,1,,,,,デスタ,0
112,1021001077165,新規,0,2022-10-12,2022-10-12,楽しい時間株式会社,,株式会社,神奈川県,海老名市,下今泉５丁目６番２８号グリシーナ・ロープ１０１,,14,215,2430435,,,,,,,2022-10-12,1,,,,,タノシイジカン,0
114,1021003012236,新規,0,2022-10-12,2022-10-12,合同会社Ｐｌｅａｓｕｒｅ　ｆａｃｔｏｒｙ,,合同会社,神奈川県,茅ヶ崎市,松浪２丁目２番３９－２号,,14,207,2530022,,,,,,,2022-10-12,1,,,,,プレジャーファクトリー,0
117,1030001150328,新規,0,2022-10-12,2022-10-12,わかさのみなもと株式会社,,株式会社,埼玉県,朝霞市,根岸台６丁目５番２４号,,11,227,3510005,,,,,,,2022-10-12,1,,,,,ワカサノミナモト,0
118,1030001150501,新規,0,2022-10-12,2022-10-12,株式会社Ｈｅａｒｔｓ　Ｇｒｏｕｐ,,株式会社,埼玉県,さいたま市大宮区,北袋町１丁目６０１番地１Ｄ１１４２,,11,103,3300835,,,,,,,2022-10-12,1,,,,,ハーツグループ,0
119,1030001150526,新規,0,2022-10-12,2022-10-12,株式会社Ｒｅ．ａｃｔ,,株式会社,埼玉県,越谷市,蒲生西町１丁目６番１１号ゴールドパストラルＶＩＩ１０６,00128101,11,222,3430835,,,,,,,2022-10-12,1,,,,,リアクト,0
124,1030003020371,新規,0,2022-10-12,2022-10-12,合同会社ＢＢＱ,,合同会社,埼玉県,さいたま市大宮区,仲町１丁目２７番地４長澤ビル３階,,11,103,3300845,,,,,,,2022-10-12,1,,,,,ビービーキュー,0
125,1030005021005,新規,0,2022-10-12,2022-10-12,特定非営利活動法人サウスチルドレンフィールド,,その他の設立登記法人,埼玉県,さいたま市見沼区,染谷２丁目５９番１号,,11,104,3370026,,,,,,,2022-10-12,1,,,,,サウスチルドレンフィールド,0
129,1040001125378,新規,0,2022-10-12,2022-10-12,株式会社インディヴィジュアル,,株式会社,千葉県,印西市,木刈５丁目１５番地４,,12,231,2701359,,,,,,,2022-10-12,1,,,,,インディヴィジュアル,0
130,1040001125411,新規,0,2022-10-12,2022-10-12,株式会社ホワイトベース,,株式会社,千葉県,いすみ市,小沢２０６番地,,12,238,2980012,,,,,,,2022-10-12,1,,,,,ホワイトベース,0
133,1040003021006,新規,0,2022-10-12,2022-10-12,Ｓ‐ＴＡＣＫ合同会社,,合同会社,千葉県,柏市,布施新町４丁目１２番２号,,12,217,2770823,,,,,,,2022-10-12,1,,,,,スタック,0
134,1040003021022,新規,0,2022-10-12,2022-10-12,サイ合同会社,,合同会社,千葉県,習志野市,鷺沼３丁目１９番５－２０２号,,12,216,2750014,,,,,,,2022-10-12,1,,,,,サイ,0
135,1040003021030,新規,0,2022-10-12,2022-10-12,ＡＹＡＡＮ　ＩＮＴＥＲＮＡＴＩＯＮＡＬ合同会社,,合同会社,千葉県,鎌ケ谷市,鎌ケ谷９丁目１２番５号,,12,224,2730105,,,,,,,2022-10-12,1,,,,,アヤンインターナショナル,0
137,1040005021747,新規,0,2022-10-12,2022-10-12,一般社団法人白樺同人社,,その他の設立登記法人,千葉県,我孫子市,寿１丁目２０－１白樺教育館１階,,12,222,2701152,,,,,,,2022-10-12,1,,,,,シラカバドウジンシャ,0
141,1050001051805,新規,0,2022-10-12,2022-10-12,株式会社アイテクト,,株式会社,茨城県,鹿嶋市,大字宮中４６８０番地７７,,08,222,3140031,,,,,,,2022-10-12,1,,,,,アイテクト,0
146,1060003004264,新規,0,2022-10-12,2022-10-12,合同会社エール,,合同会社,栃木県,宇都宮市,宿郷３丁目１７番５号,,09,201,3210945,,,,,,,2022-10-12,1,,,,,エール,0
154,1080403004630,新規,0,2022-10-12,2022-10-12,ＰＢシステム合同会社,,合同会社,静岡県,磐田市,高木４７番地２０,,22,211,4380202,,,,,,,2022-10-12,1,,,,,ピービーシステム,0
157,1090003002182,新規,0,2022-10-12,2022-10-12,合同会社Ｌｅａｄｉｎｇ　ｃｏｎｃｅｐｔ　ｉｎｖｅｓｔｍｅｎｔ　Ｊａｐａｎ,,合同会社,山梨県,富士吉田市,新町１丁目７番５１号,,19,202,4030019,,,,,,,2022-10-12,1,,,,,リーディングコンセプトインベストメントジャパン,0
179,1120001249400,新規,0,2022-10-12,2022-10-12,ＫＫ＆ＡＭＹ日中貿易株式会社,,株式会社,大阪府,大阪市浪速区,敷津西１丁目１番２８号,,27,111,5560015,,,,,,,2022-10-12,1,,,,,ケーケーアンドエイミーニッチュウボウエキ,0
182,1120005023207,新規,0,2022-10-12,2022-10-12,一般社団法人ＭｉｃｒｏＨｅｒｉｔａｇｅ,,その他の設立登記法人,大阪府,大阪市阿倍野区,阪南町１丁目５０番３号,,27,119,5450021,,,,,,,2022-10-12,1,,,,,マイクロヘリテージ,0
185,1120101066340,新規,0,2022-10-12,2022-10-12,株式会社Ｓ．Ｉ保温,,株式会社,大阪府,堺市中区,深井清水町３７２５番地４,,27,142,5998273,,,,,,,2022-10-12,1,,,,,エスアイホオン,0
186,1120101066365,新規,0,2022-10-12,2022-10-12,株式会社前田熔接,,株式会社,大阪府,和泉市,池田下町２１０８番地の１,,27,219,5940032,,,,,,,2022-10-12,1,,,,,マエダヨウセツ,0
187,1120105009634,新規,0,2022-10-12,2022-10-12,一般社団法人かすみ草,,その他の設立登記法人,大阪府,泉佐野市,高松西１丁目２０６８番地の１７,,27,213,5980016,,,,,,,2022-10-12,1,,,,,カスミソウ,0
189,1120903004332,新規,0,2022-10-12,2022-10-12,合同会社ヌベルリュンヌ,,合同会社,大阪府,豊中市,上新田３丁目７番－１９－７０３号,,27,203,5600085,,,,,,,2022-10-12,1,,,,,ヌベルリュンヌ,0
195,1130001072768,新規,0,2022-10-12,2022-10-12,株式会社ＴＡＮＡＳＨＯ,,株式会社,京都府,京都市南区,上鳥羽南岩ノ本町１７番地,,26,107,6018139,,,,,,,2022-10-12,1,,,,,タナショウ,0
196,1130001072776,新規,0,2022-10-12,2022-10-12,北山製作所株式会社,,株式会社,京都府,京都市北区,大森中町２２番地,,26,101,6010143,,,,,,,2022-10-12,1,,,,,キタヤマセイサクショ,0
204,1140001127645,新規,0,2022-10-12,2022-10-12,株式会社舞光,,株式会社,兵庫県,神戸市中央区,磯上通４丁目１－１４三宮スカイビル７Ｆ,,28,110,6510086,,,,,,,2022-10-12,1,,,,,マイコウ,0
205,1140001127661,新規,0,2022-10-12,2022-10-12,株式会社ＪＡＣＫＹ＆ＳＨＩＲＯ,,株式会社,兵庫県,神戸市東灘区,住吉本町１丁目２２番１１号,,28,101,6580051,,,,,,,2022-10-12,1,,,,,ジャッキーアンドシロ,0
206,1140001127694,新規,0,2022-10-12,2022-10-12,株式会社フライトプラン,,株式会社,兵庫県,神戸市中央区,磯上通８丁目１番２９号カサベラビルＣ＆Ｍ４０３号室,,28,110,6510086,,,,,,,2022-10-12,1,,,,,フライトプラン,0
208,1140003018215,新規,0,2022-10-12,2022-10-12,合同会社ＯＦＦＩＣＥ　Ｋ,,合同会社,兵庫県,芦屋市,海洋町５番７号,,28,206,6590035,,,,,,,2022-10-12,1,,,,,オフィスケイ,0
209,1140003018231,新規,0,2022-10-12,2022-10-12,ＡｎＬｏｎｇ合同会社,,合同会社,兵庫県,伊丹市,御願塚７丁目４番１１号,,28,207,6640855,,,,,,,2022-10-12,1,,,,,アンロン,0
214,1150001025872,新規,0,2022-10-12,2022-10-12,株式会社ＧＬＯＣＡＬ　ＭＥＲＣＨＡＮＴ,,株式会社,奈良県,奈良市,橋本町３－１,,29,201,6308217,,,,,,,2022-10-12,1,,,,,グローカルマーチャント,0
216,1170001017323,新規,0,2022-10-12,2022-10-12,株式会社ラクゴー,,株式会社,和歌山県,和歌山市,川辺３２,,30,201,6496312,,,,,,,2022-10-12,1,,,,,ラクゴー,0
224,1180001153290,新規,0,2022-10-12,2022-10-12,株式会社あいちフィナンシャルグループ,,株式会社,愛知県,名古屋市中区,栄３丁目１４番１２号,,23,106,4600008,,,,,,,2022-10-12,1,,,,,アイチフィナンシャルグループ,0
230,1180005019959,新規,0,2022-10-12,2022-10-12,カンパニュラ労務障害年金社会保険労務士法人,,その他の設立登記法人,愛知県,名古屋市北区,大杉２丁目９番２２号マルトミビル大杉荘３０５号,,23,103,4620837,,,,,,,2022-10-12,1,,,,,カンパニュラロウムショウガイネンキン,0
232,1190001029829,新規,0,2022-10-12,2022-10-12,株式会社大西新聞販売運送,,株式会社,三重県,松阪市,小片野町３１８番地１,,24,204,5151204,,,,,,,2022-10-12,1,,,,,オオニシシンブンハンバイウンソウ,0
234,1200001040536,新規,0,2022-10-12,2022-10-12,株式会社澤工建,,株式会社,岐阜県,瑞穂市,野白新田１８９番地,,21,216,5010231,,,,,,,2022-10-12,1,,,,,サワコウケン,0
246,1250001019798,新規,0,2022-10-12,2022-10-12,株式会社古里工業,,株式会社,山口県,山口市,吉田２４５４番地６,,35,203,7530841,,,,,,,2022-10-12,1,,,,,フルサトコウギョウ,0
247,1250003003164,新規,0,2022-10-12,2022-10-12,アルフレッド合同会社,,合同会社,山口県,下関市,長府松原町４番１７号,,35,201,7520983,,,,,,,2022-10-12,1,,,,,アルフレッド,0
260,1290001099151,新規,0,2022-10-12,2022-10-12,株式会社ハイ・スリー,,株式会社,福岡県,福岡市早良区,百道浜３丁目３番６－４０７号,,40,137,8140001,,,,,,,2022-10-12,1,,,,,ハイスリー,0
261,1290001099176,新規,0,2022-10-12,2022-10-12,株式会社高川建設,00128090,株式会社,福岡県,福岡市西区,今津４７９８番地２８４,,40,135,8190165,,,,,,,2022-10-12,1,,,,,タカガワケンセツ,0
262,1290001099201,新規,0,2022-10-12,2022-10-12,株式会社Ｆｏｏｄ　Ｆｕｌｌ,,株式会社,福岡県,福岡市南区,横手２丁目２８番１１－２０５号ハイド＆シーク横手,,40,134,8111311,,,,,,,2022-10-12,1,,,,,フードフル,0
267,1290003013036,新規,0,2022-10-12,2022-10-12,合同会社リンクスゲート,,合同会社,福岡県,福岡市東区,香椎浜３丁目３番５－１２１９号モントーレ香椎浜サーフタワーセンターコート,,40,131,8130016,,,,,,,2022-10-12,1,,,,,リンクスゲート,0
270,1310001018075,新規,0,2022-10-12,2022-10-12,株式会社ｗｉｓｔｅｒｉａ　ｖｉｌｌａｇｅ,,株式会社,長崎県,長崎市,諏訪町８番１号,,42,201,8500873,,,,,,,2022-10-12,1,,,,,ウィステリアヴィレッジ,0
274,1330001030193,新規,0,2022-10-12,2022-10-12,株式会社高木でんき,00128093,株式会社,熊本県,熊本市北区,植木町田底１６６７番地,,43,105,8610112,,,,,,,2022-10-12,1,,,,,タカキデンキ,0
278,1340003003931,新規,0,2022-10-12,2022-10-12,合同会社Ｒａｉｎｂｏｗ　Ｃｒａｆｔ,,合同会社,鹿児島県,志布志市,志布志町帖５８７５番地５,,46,221,8997102,,,,,,,2022-10-12,1,,,,,レインボークラフト,0
282,1360001031057,新規,0,2022-10-12,2022-10-12,株式会社結城工業,,株式会社,沖縄県,南城市,大里字稲嶺１８２９番地１,,47,215,9011204,,,,,,,2022-10-12,1,,,,,ユウキコウギョウ,0
283,1360003012360,新規,0,2022-10-12,2022-10-12,合同会社仲宗根自動車,,合同会社,沖縄県,国頭郡本部町,字谷茶５８番地,,47,308,9050213,,,,,,,2022-10-12,1,,,,,ナカソネジドウシャ,0
284,1370001049131,新規,0,2022-10-12,2022-10-12,株式会社ファンシートーク,,株式会社,宮城県,名取市,みどり台２丁目４番地の３１,,04,207,9811247,,,,,,,2022-10-12,1,,,,,ファンシートーク,0
285,1370001049148,新規,0,2022-10-12,2022-10-12,ＴＭＴ株式会社,,株式会社,宮城県,仙台市宮城野区,東仙台５丁目１６－１８,,04,102,9830833,,,,,,,2022-10-12,1,,,,,ティーエムティー,0
300,1430001087661,新規,0,2022-10-12,2022-10-12,株式会社第一環境機器テクノサービス,,株式会社,北海道,江別市,三条４丁目１２番地１,,01,217,0670013,,,,,,,2022-10-12,1,,,,,ダイイチカンキョウキキテクノサービス,0
304,1460101007260,新規,0,2022-10-12,2022-10-12,ＮＪホールディングス株式会社,,株式会社,北海道,帯広市,西一条南１０丁目１番地１,,01,207,0800011,,,,,,,2022-10-12,1,,,,,エヌジェイホールディングス,0
314,2010001230080,新規,0,2022-10-12,2022-10-12,株式会社Ｉｎｆｉｎｉｔｙ,,株式会社,東京都,千代田区,神田錦町２丁目７番地２２ワールドビル４階,,13,101,1010054,,,,,,,2022-10-12,1,,,,,インフィニティ,0
315,2010001230089,新規,0,2022-10-12,2022-10-12,株式会社ＢｌｕｅＳｅｅｄ,,株式会社,東京都,中央区,日本橋本町３丁目８－５日本橋本町松本ビル５階,,13,102,1030023,,,,,,,2022-10-12,1,,,,,ブルーシード,0
316,2010001230097,新規,0,2022-10-12,2022-10-12,Ｚｅｕｓ＆Ｔｅｌｌｕｓ株式会社,,株式会社,東京都,中央区,日本橋小網町１８番２０－８０８号,,13,102,1030016,,,,,,,2022-10-12,1,,,,,ゼウスアンドテルース,0
322,2010101015357,新規,0,2022-10-12,2022-10-12,八王子重量工事株式会社,,株式会社,東京都,八王子市,中野上町２丁目２番７号,,13,201,1920041,,,,,,,2022-10-12,1,,,,,ハチオウジジュウリョウコウジ,0
330,2010401170174,新規,0,2022-10-12,2022-10-12,株式会社アットホールディングス,,株式会社,東京都,港区,西新橋１丁目１８番１４号,,13,103,1050003,,,,,,,2022-10-12,1,,,,,アットホールディングス,0
331,2010401170208,新規,0,2022-10-12,2022-10-12,株式会社ＴＪ,,株式会社,東京都,港区,南青山５丁目１１番１０号南青山５１１ビルＴＨＥＳＡＬＯＮＳ．１Ｆ．Ｉ,,13,103,1070062,,,,,,,2022-10-12,1,,,,,ティージェイ,0
332,2010401170216,新規,0,2022-10-12,2022-10-12,ＣＲＩＦ　Ｊａｐａｎ株式会社,,株式会社,東京都,港区,六本木１丁目９番１０号アークヒルズ仙石山森タワー２８階べーカー＆マッケンジー法律事務所（外国法共同事業）内,,13,103,1060032,,,,,,,2022-10-12,1,,,,,クリフジャパン,0
333,2010401170224,新規,0,2022-10-12,2022-10-12,株式会社ボディプログラミング・ラボ,,株式会社,東京都,港区,芝浦４丁目２番１０－５０２号,,13,103,1080023,,,,,,,2022-10-12,1,,,,,ボディプログラミングラボ,0
336,2010403028610,新規,0,2022-10-12,2022-10-12,菫合同会社,,合同会社,東京都,港区,西新橋１丁目１番１号ＥＰコンサルティングサービス内,,13,103,1050003,,,,,,,2022-10-12,1,,,,,スミレ,0
339,2010501049475,新規,0,2022-10-12,2022-10-12,株式会社オオイシ,,株式会社,東京都,台東区,上野５丁目２５番１６号ウエハラビル２Ｆ,,13,106,1100005,,,,,,,2022-10-12,1,,,,,オオイシ,0
340,2010503006747,新規,0,2022-10-12,2022-10-12,合同会社ＬａｕｇｈＴａｌｅ,,合同会社,東京都,台東区,浅草橋１丁目３０－１１光雲堂ビル６階,,13,106,1110053,,,,,,,2022-10-12,1,,,,,ラフテル,0
348,2010801033344,新規,0,2022-10-12,2022-10-12,株式会社安藤工業,,株式会社,東京都,大田区,多摩川２丁目２０番１２号,,13,111,1460095,,,,,,,2022-10-12,1,,,,,アンドウコウギョウ,0
352,2010901051774,新規,0,2022-10-12,2022-10-12,株式会社クック・ビジネスラボ,,株式会社,東京都,世田谷区,三軒茶屋１丁目１０番１９号,,13,112,1540024,,,,,,,2022-10-12,1,,,,,クックビジネスラボ,0
362,2011001150194,新規,0,2022-10-12,2022-10-12,みらいの株式会社,,株式会社,東京都,渋谷区,上原１丁目３番９号１Ｆ,,13,113,1510064,,,,,,,2022-10-12,1,,,,,,0
370,2011101100405,新規,0,2022-10-12,2022-10-12,株式会社ＴＡＳＵＫＵ．Ｌａｂ,,株式会社,東京都,新宿区,西新宿３丁目２番９号,,13,104,1600023,,,,,,,2022-10-12,1,,,,,タスクラボ,0
371,2011101100438,新規,0,2022-10-12,2022-10-12,株式会社ＭＡＹＡ　ＴＥＣＨＮＯＬＯＧＩＥＳ,,株式会社,東京都,新宿区,西新宿２丁目６番１号,,13,104,1600023,,,,,,,2022-10-12,1,,,,,マヤテクノロジーズ,0
372,2011101100479,新規,0,2022-10-12,2022-10-12,株式会社ライブドア,,株式会社,東京都,新宿区,四谷１丁目６番１号,,13,104,1600004,,,,,,,2022-10-12,1,,,,,ライブドア,0
373,2011101100487,新規,0,2022-10-12,2022-10-12,株式会社一木,,株式会社,東京都,新宿区,余丁町４番１５－２０１号,,13,104,1620055,,,,,,,2022-10-12,1,,,,,イチボク,0
376,2011103012243,新規,0,2022-10-12,2022-10-12,合同会社Ｂｒｉｇｈｔ‐ｏｎｅ,,合同会社,東京都,新宿区,新宿７丁目２７番１２号,,13,104,1600022,,,,,,,2022-10-12,1,,,,,ブライトワン,0
377,2011103012251,新規,0,2022-10-12,2022-10-12,ＴＲＥインベストメンツ合同会社,,合同会社,東京都,新宿区,南元町１７－１－２０１,,13,104,1600012,,,,,,,2022-10-12,1,,,,,ティーアールイーインベストメンツ,0
384,2011501028535,新規,0,2022-10-12,2022-10-12,ＭＭＨ未来創造株式会社,,株式会社,東京都,北区,中十条４丁目９番６号,,13,117,1140032,,,,,,,2022-10-12,1,,,,,,0
385,2011501028543,新規,0,2022-10-12,2022-10-12,Ｗｒｅｘｉｖ株式会社,,株式会社,東京都,荒川区,西日暮里１丁目４８－３,,13,118,1160013,,,,,,,2022-10-12,1,,,,,レキシブ,0
389,2011701025687,新規,0,2022-10-12,2022-10-12,株式会社Ｎｅｗ　ＳＴＡＮＤＡＲＤ,,株式会社,東京都,江戸川区,西小岩１丁目２番９号,,13,123,1330057,,,,,,,2022-10-12,1,,,,,ニュースタンダード,0
392,2012301013157,新規,0,2022-10-12,2022-10-12,オープン・イノベーション株式会社,,株式会社,東京都,町田市,鶴川２丁目２－６,,13,209,1950061,,,,,,,2022-10-12,1,,,,,オープンイノベーション,0
394,2012401039746,新規,0,2022-10-12,2022-10-12,株式会社プラネットジャーニーラフライトン,,株式会社,東京都,小金井市,緑町３丁目９番２４号,,13,210,1840003,,,,,,,2022-10-12,1,,,,,プラネットジャーニーラフライトン,0
405,2012805003158,新規,0,2022-10-12,2022-10-12,医療法人社団おおくま歯科医院,,その他の設立登記法人,東京都,日野市,平山６丁目１１番地１３めぞんいっこく１階,,13,212,1910043,,,,,,,2022-10-12,1,,,,,オオクマシカイイン,0
421,2020001148553,新規,0,2022-10-12,2022-10-12,株式会社マルベック,,株式会社,神奈川県,横浜市磯子区,滝頭１丁目６番７２号,,14,107,2350012,,,,,,,2022-10-12,1,,,,,マルベック,0
423,2020003022500,新規,0,2022-10-12,2022-10-12,合同会社セレーノ,,合同会社,神奈川県,川崎市中原区,井田３丁目１７番５－１号,,14,133,2110035,,,,,,,2022-10-12,1,,,,,セレーノ,0
424,2020003022541,新規,0,2022-10-12,2022-10-12,合同会社オーサムタイム,,合同会社,神奈川県,横浜市港北区,綱島西２丁目２０番１４号,,14,109,2230053,,,,,,,2022-10-12,1,,,,,オーサムタイム,0
433,2030001150434,新規,0,2022-10-12,2022-10-12,エクセル・ワン株式会社,,株式会社,埼玉県,草加市,谷塚上町２２４番地１,,11,221,3400024,,,,,,,2022-10-12,1,,,,,エクセルワン,0
434,2030001150467,新規,0,2022-10-12,2022-10-12,株式会社ｔｅａｍ　ＬＯＧＩ,,株式会社,埼玉県,八潮市,大字二丁目上４４１番地１,,11,234,3400811,,,,,,,2022-10-12,1,,,,,チームロジ,0
435,2030001150533,新規,0,2022-10-12,2022-10-12,株式会社ラルゴ,,株式会社,埼玉県,飯能市,大字前ヶ貫２４０番４３号,,11,209,3570043,,,,,,,2022-10-12,1,,,,,ラルゴ,0
438,2030003020379,新規,0,2022-10-12,2022-10-12,渡邊農機合同会社,00128095,合同会社,埼玉県,坂戸市,鶴舞１丁目９番１３号,,11,239,3500241,,,,,,,2022-10-12,1,,,,,ワタナベノウキ,0
444,2040001125294,新規,0,2022-10-12,2022-10-12,成田空港事業サービス株式会社,,株式会社,千葉県,成田市,花崎町８２８番地７,,12,211,2860033,,,,,,,2022-10-12,1,,,,,ナリタクウコウジギョウサービス,0
445,2040001125352,新規,0,2022-10-12,2022-10-12,株式会社ＳｔｕｄｉｏＲ,,株式会社,千葉県,浦安市,東野１丁目２６番１－４０２号レクセルガーデン新浦安,,12,227,2790042,,,,,,,2022-10-12,1,,,,,スタジオアール,0
446,2040001125360,新規,0,2022-10-12,2022-10-12,株式会社瓜生工務店,,株式会社,千葉県,茂原市,千町２０３２番地６６,,12,210,2970002,,,,,,,2022-10-12,1,,,,,ウリュウコウムテン,0
447,2040001125385,新規,0,2022-10-12,2022-10-12,株式会社クラウス,,株式会社,千葉県,市川市,妙典１丁目１９番１７号,,12,203,2720111,,,,,,,2022-10-12,1,,,,,クラウス,0
448,2040001125410,新規,0,2022-10-12,2022-10-12,株式会社東旭,,株式会社,千葉県,流山市,前ケ崎７２２－２,,12,220,2700144,,,,,,,2022-10-12,1,,,,,ヒガシアサヒ,0
449,2040001125419,新規,0,2022-10-12,2022-10-12,株式会社ＣＯＨＡＲＵ市川,,株式会社,千葉県,市川市,高石神１４番１７号,,12,203,2720814,,,,,,,2022-10-12,1,,,,,コハルイチカワ,0
454,2040003020980,新規,0,2022-10-12,2022-10-12,ＡＳＴＥＬＬＡＳ合同会社,,合同会社,千葉県,松戸市,上矢切４０４番地の２日神パレステージ松戸５０５号,,12,207,2710094,,,,,,,2022-10-12,1,,,,,アステラス,0
455,2040003020997,新規,0,2022-10-12,2022-10-12,合同会社ＳＯＵＬ　ＶＯＩＣＥ,,合同会社,千葉県,柏市,南増尾６丁目１番１８－６号,,12,217,2770054,,,,,,,2022-10-12,1,,,,,ソウルボイス,0
460,2050005013156,新規,0,2022-10-12,2022-10-12,弁護士法人水戸翔合同法律事務所,,その他の設立登記法人,茨城県,水戸市,大町３丁目１番２４号はばたきビル,,08,201,3100062,,,,,,,2022-10-12,1,,,,,ミトハバタキゴウドウホウリツジムショ,0
470,2070001039731,新規,0,2022-10-12,2022-10-12,赤城殖産株式会社,,株式会社,群馬県,高崎市,柴崎町１６３０,,10,202,3700035,,,,,,,2022-10-12,1,,,,,アカギショクサン,0
472,2070003004634,新規,0,2022-10-12,2022-10-12,合同会社Ｒｅｉｗａ　Ｒｅａｌ　Ｔｒａｖｅｌ,,合同会社,群馬県,高崎市,赤坂町２３番地２,,10,202,3700818,,,,,,,2022-10-12,1,,,,,レイワリアルトラベル,0
473,2080001025243,新規,0,2022-10-12,2022-10-12,株式会社Ｔ．Ｏ,,株式会社,静岡県,静岡市駿河区,鎌田４番地の７メロディー石垣２０２,,22,102,4210133,,,,,,,2022-10-12,1,,,,,ティーオー,0
478,2100001035784,新規,0,2022-10-12,2022-10-12,株式会社ＷＯＯＯＤ,,株式会社,長野県,北佐久郡軽井沢町,大字長倉１５３８－１－２,,20,321,3890111,,,,,,,2022-10-12,1,,,,,ウード,0
481,2100003006718,新規,0,2022-10-12,2022-10-12,エヌ・アドバンス合同会社,,合同会社,長野県,上田市,殿城１８０５番地５,,20,203,3860004,,,,,,,2022-10-12,1,,,,,エヌアドバンス,0
482,2110001037029,新規,0,2022-10-12,2022-10-12,株式会社エコシステム豊,,株式会社,新潟県,長岡市,乙吉町２２７９番地,,15,202,9400812,,,,,,,2022-10-12,1,,,,,エコシステムユタカ,0
497,2120001249390,新規,0,2022-10-12,2022-10-12,株式会社港興産,,株式会社,大阪府,大阪市中央区,南船場３丁目８番５－５０２号,,27,128,5420081,,,,,,,2022-10-12,1,,,,,ミナトコウサン,0
498,2120001249440,新規,0,2022-10-12,2022-10-12,レイルズゲート株式会社,,株式会社,大阪府,大阪市中央区,島之内１丁目７番２１号ＵＫ長堀ビル６Ｆ,,27,128,5420082,,,,,,,2022-10-12,1,,,,,レイルズゲート,0
499,2120001249457,新規,0,2022-10-12,2022-10-12,株式会社Ｓｔａｆｆ　Ａｃｔ,,株式会社,大阪府,大阪市中央区,高麗橋２丁目３番１５号ＲＥ北浜ビルディング６Ｆ,,27,128,5410043,,,,,,,2022-10-12,1,,,,,スタッフアクト,0
505,2120003022614,新規,0,2022-10-12,2022-10-12,合同会社アセットオフィス,,合同会社,大阪府,大阪市天王寺区,大道４丁目７－２３－１３０６,,27,109,5430052,,,,,,,2022-10-12,1,,,,,アセットオフィス,0
506,2120003022622,新規,0,2022-10-12,2022-10-12,ｌａｔｕ　ｎａｉｌ　ｓａｌｏｎ合同会社,,合同会社,大阪府,大阪市西区,北堀江２丁目３番２５号,,27,106,5500014,,,,,,,2022-10-12,1,,,,,ラトゥネイルサロン,0
511,2120101066356,新規,0,2022-10-12,2022-10-12,日昇株式会社,,株式会社,大阪府,堺市堺区,三条通６番１７号１０２,,27,141,5900046,,,,,,,2022-10-12,1,,,,,ニッショウ,0
512,2120101066364,新規,0,2022-10-12,2022-10-12,日高重機株式会社,00128102,株式会社,大阪府,岸和田市,堺町８番１５号,,27,202,5960072,,,,,,,2022-10-12,1,,,,,ヒダカジュウキ,0
515,2120103004875,新規,0,2022-10-12,2022-10-12,合同会社エフ・ティ・エス,,合同会社,大阪府,貝塚市,北町６番２９－６０４号,,27,208,5970011,,,,,,,2022-10-12,1,,,,,エフティエス,0
516,2120103004883,新規,0,2022-10-12,2022-10-12,合同会社ミュウ,,合同会社,大阪府,堺市西区,上野芝向ヶ丘町２丁１２番３７－１０６号,,27,144,5938303,,,,,,,2022-10-12,1,,,,,ミュウ,0
519,2120901046598,新規,0,2022-10-12,2022-10-12,株式会社ＬＡＭＢＤＡ　ＧＲＯＵＰ,,株式会社,大阪府,高槻市,西真上１丁目３４番２２－６０５号,,27,207,5691127,,,,,,,2022-10-12,1,,,,,ラムダグループ,0
527,2130001072791,新規,0,2022-10-12,2022-10-12,株式会社Ｓ　Ｓｔｙｌｅ,,株式会社,京都府,京都市中京区,西ノ京南壺井町１４番地,,26,104,6048473,,,,,,,2022-10-12,1,,,,,エススタイル,0
528,2130001072800,新規,0,2022-10-12,2022-10-12,蒼羽電設株式会社,,株式会社,京都府,舞鶴市,北浜町３番地の１カワカミビル２０２,,26,202,6250050,,,,,,,2022-10-12,1,,,,,ソウワデンセツ,0
539,2140001127603,新規,0,2022-10-12,2022-10-12,丸八不動産株式会社,,株式会社,兵庫県,揖保郡太子町,立岡８１番地５,,28,464,6711531,,,,,,,2022-10-12,1,,,,,マルハチフドウサン,0
540,2140001127636,新規,0,2022-10-12,2022-10-12,株式会社森建築工房,,株式会社,兵庫県,加古川市,上荘町都台１丁目１８番地の１,,28,210,6751215,,,,,,,2022-10-12,1,,,,,モリケンチクコウボウ,0
541,2140001127677,新規,0,2022-10-12,2022-10-12,株式会社西木電工,,株式会社,兵庫県,姫路市,飾磨区英賀西町２丁目８０番地２,,28,201,6728088,,,,,,,2022-10-12,1,,,,,ニシキデンコウ,0
547,2140003018214,新規,0,2022-10-12,2022-10-12,合同会社ＰＡＩＮＴＬＡＢＯ,,合同会社,兵庫県,姫路市,御立西１丁目１６番１０号,,28,201,6700074,,,,,,,2022-10-12,1,,,,,ペイントラボ,0
548,2140003018230,新規,0,2022-10-12,2022-10-12,誠朋合同会社,,合同会社,兵庫県,神戸市東灘区,深江北町１丁目６番３２－２号,,28,101,6580013,,,,,,,2022-10-12,1,,,,,マコトモ,0
550,2150001025871,新規,0,2022-10-12,2022-10-12,はざま株式会社,,株式会社,奈良県,生駒市,小明町５５３番地１,,29,209,6300201,,,,,,,2022-10-12,1,,,,,ハザマ,0
553,2150005009425,新規,0,2022-10-12,2022-10-12,一般社団法人トレーニング,,その他の設立登記法人,奈良県,奈良市,学園大和町２丁目２２７番地の１,,29,201,6310041,,,,,,,2022-10-12,1,,,,,トレーニング,0
554,2160001024567,新規,0,2022-10-12,2022-10-12,ゼロ・コーポレーション株式会社,,株式会社,滋賀県,米原市,市場１１５６番地２,,25,214,5210225,,,,,,,2022-10-12,1,,,,,ゼロコーポレーション,0
557,2160005011132,新規,0,2022-10-12,2022-10-12,ＮＰＯ法人碧い地域をつなぐ会,,その他の設立登記法人,滋賀県,彦根市,長曽根南町４３８テラスビル３階３０５号,,25,202,5220052,,,,,,,2022-10-12,1,,,,,アオイチイキヲツナグカイ,0
563,2180305009403,新規,0,2022-10-12,2022-10-12,税理士法人ＷＩＬＤｅ,,その他の設立登記法人,愛知県,豊橋市,菰口町６丁目５３番地１,,23,201,4418011,,,,,,,2022-10-12,1,,,,,ワイルド,0
564,2190003004110,新規,0,2022-10-12,2022-10-12,ＭＹＡ合同会社,,合同会社,三重県,四日市市,九の城町１３番１２号,,24,202,5100072,,,,,,,2022-10-12,1,,,,,エムワイエー,0
569,2210001019124,新規,0,2022-10-12,2022-10-12,株式会社ＳＥＶＥＮ　ＨＩＬＬＳ,,株式会社,福井県,福井市,二の宮３丁目３６番８号,,18,201,9100015,,,,,,,2022-10-12,1,,,,,セブンヒルズ,0
572,2230003001920,新規,0,2022-10-12,2022-10-12,合同会社連,,合同会社,富山県,高岡市,蔵野町２６１番地１,,16,202,9330834,,,,,,,2022-10-12,1,,,,,レン,0
573,2240001060496,新規,0,2022-10-12,2022-10-12,株式会社梟総合研究所,,株式会社,広島県,呉市,川尻町東１丁目２１番１８号,,34,202,7372607,,,,,,,2022-10-12,1,,,,,フクロウソウゴウケンキュウショ,0
578,2250001019806,新規,0,2022-10-12,2022-10-12,株式会社ＨＫｃｏｍｐａｎｙ,,株式会社,山口県,柳井市,伊保庄５０４２番地,,35,212,7421352,,,,,,,2022-10-12,1,,,,,エイチケイカンパニー,0
591,2290001099167,新規,0,2022-10-12,2022-10-12,株式会社ＷＡ塾,,株式会社,福岡県,福岡市中央区,浄水通２－６,,40,133,8100028,,,,,,,2022-10-12,1,,,,,ワジュク,0
592,2290001099200,新規,0,2022-10-12,2022-10-12,株式会社ｕｎｉｃ,,株式会社,福岡県,福岡市中央区,大名１丁目４番１２号ディアコートパルフェ９０２号,,40,133,8100041,,,,,,,2022-10-12,1,,,,,ユニック,0
593,2290003013035,新規,0,2022-10-12,2022-10-12,合同会社あゆみ,,合同会社,福岡県,福岡市博多区,博多駅南２丁目１１番２３－１１０５号,,40,132,8120016,,,,,,,2022-10-12,1,,,,,アユミ,0
594,2310001018082,新規,0,2022-10-12,2022-10-12,株式会社ａｉｍ．Ｐ,,株式会社,長崎県,長崎市,音無町２０番４２号グレース住吉１０２,,42,201,8528044,,,,,,,2022-10-12,1,,,,,エイムピー,0
604,2340001025092,新規,0,2022-10-12,2022-10-12,株式会社山村木材,,株式会社,鹿児島県,曽於市,財部町下財部６６３５番地１１,,46,217,8994103,,,,,,,2022-10-12,1,,,,,ヤマムラモクザイ,0
605,2340005009513,新規,0,2022-10-12,2022-10-12,一般社団法人ＪＩＢＵＮいろ,,その他の設立登記法人,鹿児島県,奄美市,名瀬佐大熊町１４番６号（稲井ビル２０１号）,,46,222,8940005,,,,,,,2022-10-12,1,,,,,ジブンイロ,0
607,2360003012343,新規,0,2022-10-12,2022-10-12,合同会社大川道,,合同会社,沖縄県,宮古島市,平良字西里１１０７番地９コーポ光１０２,,47,214,9060012,,,,,,,2022-10-12,1,,,,,ウプカードウ,0
609,2370003005858,新規,0,2022-10-12,2022-10-12,ＦＳＭＳコンサルティングオフィス合同会社,,合同会社,宮城県,石巻市,新成２丁目１１－７,,04,202,9862105,,,,,,,2022-10-12,1,,,,,エフエスエムエスコンサルティングオフィス,0
611,2380003005295,新規,0,2022-10-12,2022-10-12,合同会社カネショウサガワ,,合同会社,福島県,石川郡古殿町,大字竹貫字古町３３番地,,07,505,9638305,,,,,,,2022-10-12,1,,,,,カネショウサガワ,0
614,2400001016028,新規,0,2022-10-12,2022-10-12,株式会社ＴｗｉｎｋｌｅＳｎｏｗ,,株式会社,岩手県,盛岡市,向中野７丁目２番２７号,,03,201,0200851,,,,,,,2022-10-12,1,,,,,トゥインクルスノー,0
625,2430001087586,新規,0,2022-10-12,2022-10-12,株式会社キャストリポート,,株式会社,北海道,札幌市中央区,南一条西１６丁目１番地３２３春野ビル３Ｆ,,01,101,0600061,,,,,,,2022-10-12,1,,,,,キャストリポート,0
626,2430001087636,新規,0,2022-10-12,2022-10-12,株式会社ＴＯＷＡＥ　Ｄｅｓｉｇｎ　Ｏｆｆｉｃｅ,,株式会社,北海道,札幌市中央区,南十八条西１４丁目１番２３号,,01,101,0640918,,,,,,,2022-10-12,1,,,,,トワエデザインオフィス,0
637,2500001024532,新規,0,2022-10-12,2022-10-12,ＫＨ．Ｉｎｄｕｓｔｒｙ株式会社,,株式会社,愛媛県,四国中央市,金生町下分２１７８番地１,,38,213,7990111,,,,,,,2022-10-12,1,,,,,ケイエイチインダストリー,0
645,3010001230022,新規,0,2022-10-12,2022-10-12,株式会社ディーセントコーハ,,株式会社,東京都,千代田区,内幸町２丁目１番１号,,13,101,1000011,,,,,,,2022-10-12,1,,,,,ディーセントコーハ,0
646,3010001230055,新規,0,2022-10-12,2022-10-12,東玄株式会社,,株式会社,東京都,千代田区,麹町１丁目３番地２３－５０１号,,13,101,1020083,,,,,,,2022-10-12,1,,,,,トウゲン,0
647,3010001230063,新規,0,2022-10-12,2022-10-12,株式会社つばさをひろげて,,株式会社,東京都,千代田区,神田小川町３丁目１４番地３,,13,101,1010052,,,,,,,2022-10-12,1,,,,,ツバサヲヒロゲテ,0
648,3010001230096,新規,0,2022-10-12,2022-10-12,株式会社コスモカンパニー,,株式会社,東京都,中央区,銀座１丁目１２－４Ｎ＆Ｅ・ＢＬＤ．７階,,13,102,1040061,,,,,,,2022-10-12,1,,,,,コスモカンパニー,0
660,3010401169991,新規,0,2022-10-12,2022-10-12,株式会社ＦＩＴ　ＬＩＮＫ,,株式会社,東京都,港区,六本木７丁目１８－１１ＤＭビル５階Ｃ室,,13,103,1060032,,,,,,,2022-10-12,1,,,,,フィットリンク,0
661,3010401170198,新規,0,2022-10-12,2022-10-12,５７プレシャス株式会社,,株式会社,東京都,港区,六本木５丁目１５番２１－１０１号,,13,103,1060032,,,,,,,2022-10-12,1,,,,,ゴウナナプレシャス,0
662,3010401170207,新規,0,2022-10-12,2022-10-12,株式会社ＦＯＲＣＥ,,株式会社,東京都,港区,海岸１丁目４番２２号,,13,103,1050022,,,,,,,2022-10-12,1,,,,,フォース,0
666,3010403028675,新規,0,2022-10-12,2022-10-12,Ｂｏｋｅｎ　Ｏｕｔｆｉｔｔｅｒｓ合同会社,,合同会社,東京都,港区,元麻布３丁目１番６号,,13,103,1060046,,,,,,,2022-10-12,1,,,,,ボーケンアウトフィッターズ,0
669,3010503006738,新規,0,2022-10-12,2022-10-12,合同会社ｃｌｏｖｅｒ,,合同会社,東京都,台東区,松が谷２丁目７－１ＬｉｖｅＣａｓａ上野４０２,,13,106,1110036,,,,,,,2022-10-12,1,,,,,クローバー,0
670,3010503006746,新規,0,2022-10-12,2022-10-12,合同会社カーバンクル,,合同会社,東京都,台東区,橋場１丁目６番４号エクシヴ・アルデール１６４・８０２,,13,106,1110023,,,,,,,2022-10-12,1,,,,,カーバンクル,0
674,3010605004136,新規,0,2022-10-12,2022-10-12,一般財団法人日本へいわ財団,,その他の設立登記法人,東京都,墨田区,吾妻橋２丁目１１番５号,,13,107,1300001,,,,,,,2022-10-12,1,,,,,ニホンヘイワザイダン,0
684,3010901051749,新規,0,2022-10-12,2022-10-12,株式会社ＹＯＵＲ　ＤＡＩＬＹ　ＣＯＦＦＥＥ,,株式会社,東京都,世田谷区,世田谷２丁目１４番３号,,13,112,1540017,,,,,,,2022-10-12,1,,,,,ユアデイリーコーヒー,0
695,3011001150193,新規,0,2022-10-12,2022-10-12,株式会社ごりちか,,株式会社,東京都,目黒区,碑文谷５丁目７－６本丸ビルＢ１,,13,110,1520003,,,,,,,2022-10-12,1,,,,,ゴリチカ,0
696,3011001150202,新規,0,2022-10-12,2022-10-12,ＳＮＭ株式会社,,株式会社,東京都,渋谷区,渋谷１丁目１５番１２号ＬＡＩＤＯＵＴＳＨＩＢＵＹＡ２０４,,13,113,1500002,,,,,,,2022-10-12,1,,,,,エスエヌエム,0
697,3011001150210,新規,0,2022-10-12,2022-10-12,株式会社Ｆｕｔｕｒｅ　Ｃｒｕｉｓｅ,,株式会社,東京都,渋谷区,神宮前２丁目２番３９号ＴＨＥＣＯＵＲＴ神宮外苑２２０９号室,,13,113,1500001,,,,,,,2022-10-12,1,,,,,フューチャークルーズ,0
698,3011001150243,新規,0,2022-10-12,2022-10-12,関カトラリー株式会社,,株式会社,東京都,渋谷区,神宮前６丁目２３番４号桑野ビル２階,,13,113,1500001,,,,,,,2022-10-12,1,,,,,セキカトラリー,0
701,3011003015469,新規,0,2022-10-12,2022-10-12,Ｆｅｉｑｕ合同会社,,合同会社,東京都,目黒区,中目黒１丁目７番１１号ＥＸＡＭ中目黒ＩＩ１０６号,00128100,13,110,1530061,,,,,,,2022-10-12,1,,,,,フェイク,0
702,3011003015493,新規,0,2022-10-12,2022-10-12,合同会社出雲プランニング,,合同会社,東京都,目黒区,祐天寺１丁目４－１４,,13,110,1530052,,,,,,,2022-10-12,1,,,,,イズモプランニング,0
703,3011003015527,新規,0,2022-10-12,2022-10-12,ａｒｇｍａｘ合同会社,,合同会社,東京都,渋谷区,渋谷２丁目１９―１５宮益坂ビルディング６０９,,13,113,1500002,,,,,,,2022-10-12,1,,,,,アーグマックス,0
708,3011101100387,新規,0,2022-10-12,2022-10-12,株式会社パレスブック,,株式会社,東京都,新宿区,西新宿１丁目２０番３号西新宿高木ビル８階,00128088,13,104,1600023,,,,,,,2022-10-12,1,,,,,パレスブック,0
709,3011101100486,新規,0,2022-10-12,2022-10-12,株式会社ＴＲＵＳＴ　ＡＧＥＮＴ,,株式会社,東京都,新宿区,西新宿７丁目４－７イマス浜田ビル３階Ｂ－７,,13,104,1600023,,,,,,,2022-10-12,1,,,,,トラストエージェント,0
714,3011403003783,新規,0,2022-10-12,2022-10-12,合同会社Ｌａｕｇｈｔｅｒ,,合同会社,東京都,板橋区,板橋１丁目３３－７ラティエラ板橋８０７,,13,119,1730004,,,,,,,2022-10-12,1,,,,,ラフター,0
715,3011501028542,新規,0,2022-10-12,2022-10-12,株式会社ＮＩＫＡ,,株式会社,東京都,北区,豊島５丁目５番５－６３３号,,13,117,1140003,,,,,,,2022-10-12,1,,,,,ニカ,0
728,3020001148544,新規,0,2022-10-12,2022-10-12,株式会社Ｋ‐ＴＲＵＳＴ,,株式会社,神奈川県,横浜市旭区,桐が作１７８９番地プーラヴィータＣ棟１０３,,14,112,2410832,,,,,,,2022-10-12,1,,,,,ケイトラスト,0
731,3020003022499,新規,0,2022-10-12,2022-10-12,合同会社ＦａｓｃｉｎａｔｅＪｏｕｒｎｅｙ,,合同会社,神奈川県,川崎市多摩区,登戸１２６１番地４ホワイトビル３Ｆ,,14,135,2140014,,,,,,,2022-10-12,1,,,,,ファーシネイトジャーニー,0
737,3021001077163,新規,0,2022-10-12,2022-10-12,株式会社遊びの時間,,株式会社,神奈川県,厚木市,森の里５丁目１４番地１６,,14,212,2430122,,,,,,,2022-10-12,1,,,,,,0
745,3030001150474,新規,0,2022-10-12,2022-10-12,株式会社イニカ,,株式会社,埼玉県,八潮市,大字新町８５－２,,11,234,3400807,,,,,,,2022-10-12,1,,,,,イニカ,0
746,3030001150490,新規,0,2022-10-12,2022-10-12,豫北株式会社,,株式会社,埼玉県,川口市,本前川３丁目３０番６号,,11,203,3330849,,,,,,,2022-10-12,1,,,,,ヨホク,0
747,3030001150565,新規,0,2022-10-12,2022-10-12,株式会社Ｈ＆Ｚ,,株式会社,埼玉県,川口市,南鳩ヶ谷５丁目１９番５－１０１号,,11,203,3340013,,,,,,,2022-10-12,1,,,,,エイチアンドジェット,0
749,3030003020361,新規,0,2022-10-12,2022-10-12,あきば合同会社,,合同会社,埼玉県,さいたま市南区,神明２丁目２番１６－４０９号,,11,108,3360023,,,,,,,2022-10-12,1,,,,,アキバ,0
750,3030003020378,新規,0,2022-10-12,2022-10-12,合同会社ＲＯＤ,,合同会社,埼玉県,新座市,池田４丁目７番１７号,,11,230,3520015,,,,,,,2022-10-12,1,,,,,アールオーディー,0
755,3040001125351,新規,0,2022-10-12,2022-10-12,株式会社リバーテックアオキ,,株式会社,千葉県,千葉市緑区,誉田町２丁目２１番地２０,,12,105,2660005,,,,,,,2022-10-12,1,,,,,リバーテックアオキ,0
756,3040001125392,新規,0,2022-10-12,2022-10-12,エレワークユナイテッド株式会社,,株式会社,千葉県,松戸市,八ケ崎７丁目３３番地の３ライオンズマンション馬橋さくら通り１０５号,,12,207,2700023,,,,,,,2022-10-12,1,,,,,エレワークユナイテッド,0
757,3040001125434,新規,0,2022-10-12,2022-10-12,株式会社ＯＫＮ,,株式会社,千葉県,鴨川市,滑谷２８６番地４,,12,223,2960034,,,,,,,2022-10-12,1,,,,,オクノ,0
762,3040003020947,新規,0,2022-10-12,2022-10-12,Ａｎｉｆｉｇｕｒｅ合同会社,,合同会社,千葉県,市川市,八幡３丁目９番４号,,12,203,2720021,,,,,,,2022-10-12,1,,,,,アニフィギュア,0
763,3040003021020,新規,0,2022-10-12,2022-10-12,ＭＩＮＡＭＩ　ＡＵＴＯ合同会社,,合同会社,千葉県,山武市,松尾町借毛本郷２２８８－８,,12,237,2891537,,,,,,,2022-10-12,1,,,,,ミナミオート,0
764,3040003021045,新規,0,2022-10-12,2022-10-12,エイチツーウエルネス合同会社,,合同会社,千葉県,佐倉市,ユーカリが丘４丁目１―１スカイプラザ・モール３Ｆ,,12,212,2850858,,,,,,,2022-10-12,1,,,,,エイチツーウエルネス,0
767,3050001051803,新規,0,2022-10-12,2022-10-12,株式会社フォーデイズオフ,,株式会社,茨城県,つくば市,島名４４６７番地（香取台Ｂ５３街区８）,,08,220,3002655,,,,,,,2022-10-12,1,,,,,フォーデイズオフ,0
781,3090003002180,新規,0,2022-10-12,2022-10-12,合同会社ムッチ,,合同会社,山梨県,甲斐市,大垈１００番地１２６,,19,210,4000103,,,,,,,2022-10-12,1,,,,,ムッチ,0
784,3100003006717,新規,0,2022-10-12,2022-10-12,ワクワク合同会社,,合同会社,長野県,長野市,大字栗田１７９６番地大光ビル３Ｆ,,20,201,3800921,,,,,,,2022-10-12,1,,,,,ワクワク,0
808,3120001249183,新規,0,2022-10-12,2022-10-12,株式会社マエダジオソリューション,,株式会社,大阪府,大阪市鶴見区,横堤５丁目１３番４１号１Ｂ,,27,124,5380052,,,,,,,2022-10-12,1,,,,,マエダジオソリューション,0
809,3120001249398,新規,0,2022-10-12,2022-10-12,ＲＩＳＥ‐ＢＵＩＬＤ株式会社,,株式会社,大阪府,寝屋川市,出雲町６番６号,,27,215,5720821,,,,,,,2022-10-12,1,,,,,ライズビルド,0
810,3120001249431,新規,0,2022-10-12,2022-10-12,株式会社クロート,,株式会社,大阪府,大阪市東住吉区,照ケ丘矢田３丁目１９番１１号,,27,121,5460021,,,,,,,2022-10-12,1,,,,,クロート,0
811,3120001249448,新規,0,2022-10-12,2022-10-12,株式会社財門,,株式会社,大阪府,大阪市北区,中崎西２丁目２番１号東梅田八千代ビル８階,,27,127,5300015,,,,,,,2022-10-12,1,,,,,ザイモン,0
812,3120001249456,新規,0,2022-10-12,2022-10-12,株式会社Ｎｏａｈ,,株式会社,大阪府,大阪市城東区,関目２丁目１２番３４号,,27,118,5360008,,,,,,,2022-10-12,1,,,,,ノア,0
815,3120003022621,新規,0,2022-10-12,2022-10-12,クオーレＦ２合同会社,,合同会社,大阪府,大阪市阿倍野区,昭和町５丁目１２番３号レジデンス西田辺２０２号,,27,119,5450011,,,,,,,2022-10-12,1,,,,,クオーレエフツー,0
826,3120905006382,新規,0,2022-10-12,2022-10-12,オレンジ協同組合,,その他の設立登記法人,大阪府,豊中市,北桜塚３丁目８‐２６‐３０４,,27,203,5600022,,,,,,,2022-10-12,1,,,,,オレンジ,0
830,3130001072758,新規,0,2022-10-12,2022-10-12,株式会社ＭＭＲ　Ｌｉｅｎ,,株式会社,京都府,亀岡市,大井町小金岐２丁目１６番２４号,,26,206,6210018,,,,,,,2022-10-12,1,,,,,エムエムアールリアン,0
831,3130001072766,新規,0,2022-10-12,2022-10-12,株式会社アビアラ,,株式会社,京都府,京都市右京区,太秦中筋町１３番地,,26,108,6168184,,,,,,,2022-10-12,1,,,,,アビアラ,0
832,3130001072790,新規,0,2022-10-12,2022-10-12,株式会社京嘉匠,,株式会社,京都府,京都市右京区,梅津南町１－４山創ビル２Ｆ,,26,108,6150915,,,,,,,2022-10-12,1,,,,,キョウカショウ,0
835,3130003008231,新規,0,2022-10-12,2022-10-12,合同会社ｍＤｅｓｉｇｎ,,合同会社,京都府,京都市東山区,小松町１１９番地２ライオンズマンション祇園小松町２０１号室,,26,105,6050811,,,,,,,2022-10-12,1,,,,,エムデザイン,0
842,3140001127635,新規,0,2022-10-12,2022-10-12,株式会社前後際断,,株式会社,兵庫県,丹波市,青垣町稲土３００番地,,28,223,6693827,,,,,,,2022-10-12,1,,,,,ゼンゴサイダン,0
843,3140001127643,新規,0,2022-10-12,2022-10-12,Ｇｈｏｓｔ　Ｃａｓｔｌｅ株式会社,,株式会社,兵庫県,芦屋市,公光町４番３１号,,28,206,6590065,,,,,,,2022-10-12,1,,,,,ゴーストキャッスル,0
844,3140001127692,新規,0,2022-10-12,2022-10-12,株式会社ＹＴテック,,株式会社,兵庫県,神戸市垂水区,神陵台９丁目７番１７号,,28,108,6550041,,,,,,,2022-10-12,1,,,,,ワイティテック,0
847,3150001025870,新規,0,2022-10-12,2022-10-12,株式会社Ｓｅｌｌ　ｔｈｅ　Ｆａｃｔ,,株式会社,奈良県,奈良市,奈保町６番５号,,29,201,6308107,,,,,,,2022-10-12,1,,,,,セルザファクト,0
865,3180301036706,新規,0,2022-10-12,2022-10-12,株式会社ＳＯＴＥＮ,,株式会社,愛知県,岡崎市,上和田町字南屋敷２番地１,,23,202,4440201,,,,,,,2022-10-12,1,,,,,ソーテン,0
866,3180305009402,新規,0,2022-10-12,2022-10-12,社会保険労務士法人ＳＭＡＳＨ　ＲＯＵＭＵ,,その他の設立登記法人,愛知県,知立市,長田１丁目１１番地,,23,225,4720035,,,,,,,2022-10-12,1,,,,,スマッシュロウム,0
867,3190001029827,新規,0,2022-10-12,2022-10-12,株式会社マキシム,,株式会社,三重県,亀山市,中庄町７１７番地１,,24,210,5190134,,,,,,,2022-10-12,1,,,,,マキシム,0
870,3200001040534,新規,0,2022-10-12,2022-10-12,ＴＨＹ株式会社,,株式会社,岐阜県,各務原市,川島緑町２丁目１３７番地２,,21,213,5016027,,,,,,,2022-10-12,1,,,,,ティエイチワイ,0
875,3220001025054,新規,0,2022-10-12,2022-10-12,プレヴナンス・コンサルティング株式会社,,株式会社,石川県,野々市市,住吉町１番１４号Ｓｉｍｆｏｎｉａ２０２号,,17,212,9218813,,,,,,,2022-10-12,1,,,,,プレヴナンスコンサルティング,0
877,3220005008708,新規,0,2022-10-12,2022-10-12,税理士法人はくい会計,,その他の設立登記法人,石川県,羽咋市,東川原町ワ９５番地１,,17,207,9250032,,,,,,,2022-10-12,1,,,,,ハクイカイケイ,0
885,3240005015470,新規,0,2022-10-12,2022-10-12,一般社団法人ＵＭＥプロジェクト,,その他の設立登記法人,広島県,尾道市,浦崎町２１９１番地,,34,205,7200551,,,,,,,2022-10-12,1,,,,,ユメプロジェクト,0
886,3250001019805,新規,0,2022-10-12,2022-10-12,株式会社裕磨総建,,株式会社,山口県,萩市,大字須佐４９０６番地４,,35,204,7593411,,,,,,,2022-10-12,1,,,,,ユウマソウケン,0
892,3280002012137,新規,0,2022-10-12,2022-10-12,丸勝物産有限会社,,有限会社,島根県,出雲市,東林木町３５３番地,,32,203,6930074,,,,,,,2022-10-12,1,,,,,,0
898,3290001099182,新規,0,2022-10-12,2022-10-12,株式会社ａｌｌｕｍｏｎｄｅ,,株式会社,福岡県,福岡市博多区,諸岡３丁目２８番９－１号,,40,132,8120894,,,,,,,2022-10-12,1,,,,,アリュモンド,0
901,3290003013042,新規,0,2022-10-12,2022-10-12,合同会社アウサム,,合同会社,福岡県,福岡市博多区,博多駅前３丁目２７番２４号,,40,132,8120011,,,,,,,2022-10-12,1,,,,,アウサム,0
905,3300001013100,新規,0,2022-10-12,2022-10-12,株式会社アクシアテック,,株式会社,佐賀県,三養基郡基山町,けやき台４丁目３０番地５,,41,341,8410205,,,,,,,2022-10-12,1,,,,,アクシアテック,0
923,3370005010541,新規,0,2022-10-12,2022-10-12,日出・高澤税理士法人,00128110,その他の設立登記法人,宮城県,仙台市青葉区,一番町２丁目１１－１２プレジデント一番町２０１号,,04,101,9800811,,,,,,,2022-10-12,1,,,,,ヒノデタカサワ,0
930,3380001033173,新規,0,2022-10-12,2022-10-12,ジャパンエコ株式会社,,株式会社,福島県,双葉郡浪江町,大字立野字原５９６番地５,,07,547,9791501,,,,,,,2022-10-12,1,,,,,ジャパンエコ,0
941,3430001087610,新規,0,2022-10-12,2022-10-12,株式会社Ａｃｃｏｕｎｔｉｎｇ　Ｓｉｄｅ,,株式会社,北海道,札幌市北区,北八条西６丁目２番２０号,,01,102,0600808,,,,,,,2022-10-12,1,,,,,アカウンティングサイド,0
942,3430001087627,新規,0,2022-10-12,2022-10-12,株式会社ロードスキップ,,株式会社,北海道,札幌市手稲区,新発寒四条４丁目４番１２号,,01,109,0060804,,,,,,,2022-10-12,1,,,,,ロードスキップ,0
943,3430001087635,新規,0,2022-10-12,2022-10-12,株式会社快和建装,,株式会社,北海道,札幌市東区,北丘珠三条１丁目４番１４号ワイエムコート１０１号,,01,103,0070883,,,,,,,2022-10-12,1,,,,,カイワケンソウ,0
944,3430001087643,新規,0,2022-10-12,2022-10-12,株式会社サキナッツ,,株式会社,北海道,札幌市西区,発寒二条１丁目１番５号,,01,107,0630822,,,,,,,2022-10-12,1,,,,,サキナッツ,0
945,3430001087651,新規,0,2022-10-12,2022-10-12,山口ガラス株式会社,,株式会社,北海道,札幌市東区,北十三条東１２丁目１番３号,,01,103,0650013,,,,,,,2022-10-12,1,,,,,ヤマグチガラス,0
947,3430003014356,新規,0,2022-10-12,2022-10-12,合同会社藤本誠司,,合同会社,北海道,千歳市,高台４丁目４番１１号,,01,224,0660035,,,,,,,2022-10-12,1,,,,,フジモトセイジ,0
955,3700150109798,新規,0,2022-10-12,2022-06-15,シネマコネクション,,その他,愛知県,名古屋市千種区,千種１丁目１４－２５　３Ｆ,,23,101,4640858,,,,,,,2022-06-15,1,,,,,シネマコネクシヨン,0
967,4010001230079,新規,0,2022-10-12,2022-10-12,株式会社ハウスＰＲＯＴＥＣＴ,,株式会社,東京都,中央区,銀座６丁目１３番１６号銀座ｗａｌｌビルｕｃｆ５階,,13,102,1040061,,,,,,,2022-10-12,1,,,,,ハウスプロテクト,0
973,4010005035656,新規,0,2022-10-12,2022-10-12,さくら橋特定目的会社,,その他の設立登記法人,東京都,千代田区,霞が関３丁目２番５号,,13,101,1000013,,,,,,,2022-10-12,1,,,,,サクラバシ,0
981,4010401170172,新規,0,2022-10-12,2022-10-12,ＮＩＨＯＮＧＯＥＮ株式会社,,株式会社,東京都,港区,南青山２丁目２番１５号,,13,103,1070062,,,,,,,2022-10-12,1,,,,,ニホンゴエン,0
982,4010401170189,新規,0,2022-10-12,2022-10-12,株式会社ミライト建設,,株式会社,東京都,港区,赤坂９丁目１番７号４２４,,13,103,1070052,,,,,,,2022-10-12,1,,,,,ミライトケンセツ,0
987,4010403028600,新規,0,2022-10-12,2022-10-12,合同会社ＦＡＮＳＡ企画,,合同会社,東京都,港区,六本木７丁目１８番６号,,13,103,1060032,,,,,,,2022-10-12,1,,,,,ファンサキカク,0
988,4010403028682,新規,0,2022-10-12,2022-10-12,ＰＩＮＥＡＰＰＬＥ　ＧＡＮＧ合同会社,,合同会社,東京都,港区,元麻布２丁目１１番２０号,,13,103,1060046,,,,,,,2022-10-12,1,,,,,パイナップルギャング,0
991,4010601061972,新規,0,2022-10-12,2022-10-12,株式会社Ｑｕａｉｎｔｌｙ,,株式会社,東京都,江東区,青海２丁目７番４号ｔｈｅＳОＨО５１６,,13,108,1350064,,,,,,,2022-10-12,1,,,,,クエントリィ,0
996,4010901051764,新規,0,2022-10-12,2022-10-12,レッツゴー株式会社,,株式会社,東京都,世田谷区,等々力３丁目２８番２１－１０５号,,13,112,1580082,,,,,,,2022-10-12,1,,,,,レッツゴー,0
999,4010903007715,新規,0,2022-10-12,2022-10-12,合同会社ＶＡＭＯＳ,,合同会社,東京都,世田谷区,三軒茶屋２丁目５４番３－５０２号,,13,112,1540024,,,,,,,2022-10-12,1,,,,,バモス,0
1008,4011001150119,新規,0,2022-10-12,2022-10-12,総合ＦＰ・資産形成コンサルティング株式会社,,株式会社,東京都,渋谷区,代々木３丁目５２番７‐３０１号,,13,113,1510053,,,,,,,2022-10-12,1,,,,,ソウゴウエフピーシサンケイセイコンサルティング,0
1009,4011001150127,新規,0,2022-10-12,2022-10-12,株式会社ＢＥＡＶＥＲ,,株式会社,東京都,渋谷区,神南１丁目２０番１３号,,13,113,1500041,,,,,,,2022-10-12,1,,,,,ビーバー,0
1010,4011001150192,新規,0,2022-10-12,2022-10-12,株式会社ＨＲパートナーズ,,株式会社,東京都,渋谷区,渋谷２丁目１９－１５宮益坂ビルディング６０９,,13,113,1500002,,,,,,,2022-10-12,1,,,,,エイチアールパートナーズ,0
1011,4011001150242,新規,0,2022-10-12,2022-10-12,株式会社ｓｈａｒｉｓｈｏ,,株式会社,東京都,渋谷区,渋谷２丁目１９番１５号宮益坂ビルディング６０９,,13,113,1500002,,,,,,,2022-10-12,1,,,,,シャリショウ,0
1013,4011003015492,新規,0,2022-10-12,2022-10-12,合同会社鶴田不動産コンサル,,合同会社,東京都,目黒区,目黒本町３丁目１２番１８号,,13,110,1520002,,,,,,,2022-10-12,1,,,,,ツルタフドウサンコンサル,0
1020,4011105010441,新規,0,2022-10-12,2022-10-12,一般社団法人日本国際交流協会,,その他の設立登記法人,東京都,新宿区,新宿７丁目２７番１５号ＰＡＴＩＯＥＡＳＴＳＨＩＮＪＵＫＵ８０１,,13,104,1600022,,,,,,,2022-10-12,1,,,,,ニホンコクサイコウリュウキョウカイ,0
1033,4012301013163,新規,0,2022-10-12,2022-10-12,株式会社ＷＥＬＬＩＣＩＯＵＳ,,株式会社,東京都,町田市,本町田１５０７番地３,,13,209,1940032,,,,,,,2022-10-12,1,,,,,ウェリシャス,0
1036,4012401039736,新規,0,2022-10-12,2022-10-12,求実株式会社,,株式会社,東京都,多摩市,落合６丁目１５番地の３第３椎の木ビル２０３号,,13,224,2060033,,,,,,,2022-10-12,1,,,,,キュウジツ,0
1039,4012703002557,新規,0,2022-10-12,2022-10-12,合同会社ＴＡＭＴＲＡＭ,,合同会社,東京都,西東京市,新町２丁目４番２号,,13,229,2020023,,,,,,,2022-10-12,1,,,,,,0
1052,4020003022548,新規,0,2022-10-12,2022-10-12,ＲＩＣＨ　ＧＬＯＢＡＬ合同会社,,合同会社,神奈川県,横浜市栄区,長沼町２６２番地１恒陽戸塚マンション４０６号,,14,115,2440841,,,,,,,2022-10-12,1,,,,,リッチグローバル,0
1053,4020005015681,新規,0,2022-10-12,2022-10-12,特定非営利活動法人横浜学園,,その他の設立登記法人,神奈川県,横浜市中区,山下町９８番地３階,,14,104,2310023,,,,,,,2022-10-12,1,,,,,ヨコハマガクエン,0
1060,4021001077154,新規,0,2022-10-12,2022-10-12,株式会社宮上倶楽部,,株式会社,神奈川県,足柄下郡湯河原町,宮上６３７－１６,,14,384,2590314,,,,,,,2022-10-12,1,,,,,ミヤカミクラブ,0
1061,4021001077162,新規,0,2022-10-12,2022-10-12,株式会社ショウタイム,,株式会社,神奈川県,相模原市中央区,相模原２丁目５番１３－３０３号,,14,152,2520231,,,,,,,2022-10-12,1,,,,,ショウタイム,0
1066,4021003012225,新規,0,2022-10-12,2022-10-12,合同会社人材コンサルティングオフィス年輪,,合同会社,神奈川県,藤沢市,亀井野４７７番地の６,,14,205,2520813,,,,,,,2022-10-12,1,,,,,ジンザイコンサルティングオフィスネンリン,0
1067,4021003012241,新規,0,2022-10-12,2022-10-12,ティ・ティ・ピー・スリー合同会社,,合同会社,神奈川県,逗子市,逗子１丁目８－３４,,14,208,2490006,,,,,,,2022-10-12,1,,,,,ティティピースリー,0
1078,4030003020369,新規,0,2022-10-12,2022-10-12,合同会社ＳＰＩＮＹＴＡＩＬ,,合同会社,埼玉県,熊谷市,代５１３番地１,,11,202,3600804,,,,,,,2022-10-12,1,,,,,スパイニーテイル,0
1088,4040001125375,新規,0,2022-10-12,2022-10-12,株式会社貝渕卓也,,株式会社,千葉県,千葉市中央区,登戸１丁目６番１４号,,12,101,2600032,,,,,,,2022-10-12,1,,,,,カイブチタクヤ,0
1089,4040001125409,新規,0,2022-10-12,2022-10-12,Ｈｏｐｅ　Ｌｉｎｅ株式会社,,株式会社,千葉県,佐倉市,吉見５７９番地,,12,212,2850834,,,,,,,2022-10-12,1,,,,,ホープライン,0
1093,4040003020979,新規,0,2022-10-12,2022-10-12,合同会社ＩＣＨＩＮＯＭＩＹＡ　ＭＯＴＯＲＳ,,合同会社,千葉県,長生郡一宮町,一宮３６２番地７,,12,421,2994301,,,,,,,2022-10-12,1,,,,,イチノミヤモータース,0
1094,4040003020987,新規,0,2022-10-12,2022-10-12,ネバラン合同会社,,合同会社,千葉県,松戸市,新松戸６丁目６９番地サンライトパストラル弐番街Ａ－４０３,,12,207,2700034,,,,,,,2022-10-12,1,,,,,ネバラン,0
1095,4040003021044,新規,0,2022-10-12,2022-10-12,合同会社ＳＷＡＭＰ,,合同会社,千葉県,千葉市中央区,宮崎町２３５－４メゾンアーツＹＫ六番館５号室,,12,101,2600805,,,,,,,2022-10-12,1,,,,,スワンプ,0
1096,4050001051802,新規,0,2022-10-12,2022-10-12,株式会社東都,,株式会社,茨城県,ひたちなか市,大字堀口２１８番地堀口清水住宅６号室,,08,221,3120034,,,,,,,2022-10-12,1,,,,,トウト,0
1104,4080001025233,新規,0,2022-10-12,2022-10-12,株式会社藤田工業,,株式会社,静岡県,静岡市清水区,小島本町９０番地の１,,22,103,4240306,,,,,,,2022-10-12,1,,,,,フジタコウギョウ,0
1113,4100003006716,新規,0,2022-10-12,2022-10-12,合同会社ｃｏｎｔｉｎｕｅｓ,,合同会社,長野県,南佐久郡北相木村,２０４８番地,,20,307,3841201,,,,,,,2022-10-12,1,,,,,コンティニューズ,0
1134,4120001249397,新規,0,2022-10-12,2022-10-12,株式会社ＭＡＹＦＵＬＬ,,株式会社,大阪府,大阪市東成区,東中本３丁目３番１５号,,27,115,5370021,,,,,,,2022-10-12,1,,,,,メイフル,0
1135,4120001249439,新規,0,2022-10-12,2022-10-12,株式会社アカシア,,株式会社,大阪府,大阪市北区,芝田２丁目８番１１号共栄ビル３階,,27,127,5300012,,,,,,,2022-10-12,1,,,,,アカシア,0
1136,4120001249447,新規,0,2022-10-12,2022-10-12,Ｌ’ａｎｇｅ株式会社,,株式会社,大阪府,大阪市北区,梅田１丁目１番３号大阪駅前第３ビル２９階１－１－１号室,,27,127,5300001,,,,,,,2022-10-12,1,,,,,ロンジュ,0
1137,4120001249463,新規,0,2022-10-12,2022-10-12,アクグル株式会社,,株式会社,大阪府,大阪市中央区,西心斎橋２丁目１５番１号,,27,128,5420086,,,,,,,2022-10-12,1,,,,,アクグル,0
1138,4120001249505,新規,0,2022-10-12,2022-10-12,Ｕｉｚｏ株式会社,,株式会社,大阪府,大阪市東成区,深江北３丁目４番２１号エクラ深江橋７１２Ｄ,,27,115,5370001,,,,,,,2022-10-12,1,,,,,ウイゾ,0
1142,4120101066354,新規,0,2022-10-12,2022-10-12,株式会社ＡＩＲ　ＬＩＮＥ,,株式会社,大阪府,泉佐野市,笠松２丁目３番８号,,27,213,5980044,,,,,,,2022-10-12,1,,,,,エアライン,0
1143,4120101066362,新規,0,2022-10-12,2022-10-12,株式会社春山建設,,株式会社,大阪府,松原市,三宅中４丁目１４番２０号,,27,217,5800046,,,,,,,2022-10-12,1,,,,,ハルヤマケンセツ,0
1144,4120901046596,新規,0,2022-10-12,2022-10-12,株式会社プラスワン,,株式会社,大阪府,豊中市,岡町北１丁目３－５ハイツイケダ２０２,,27,203,5610884,,,,,,,2022-10-12,1,,,,,プラスワン,0
1153,4130001072773,新規,0,2022-10-12,2022-10-12,株式会社ＣＡホールディングス,,株式会社,京都府,京都市右京区,梅津尻溝町６７番地１,,26,108,6150924,,,,,,,2022-10-12,1,,,,,シーエーホールディングス,0
1155,4130003008239,新規,0,2022-10-12,2022-10-12,合同会社パルティール,,合同会社,京都府,京田辺市,草内山科２３番地８,,26,211,6100311,,,,,,,2022-10-12,1,,,,,パルティール,0
1163,4140001127650,新規,0,2022-10-12,2022-10-12,Ｓｙｒｉａｎａ　Ｆｏｏｄ株式会社,,株式会社,兵庫県,神戸市東灘区,向洋町中５丁目１５番地６１７号,,28,101,6580032,,,,,,,2022-10-12,1,,,,,シリアナフード,0
1167,4140003018229,新規,0,2022-10-12,2022-10-12,合同会社ノアテックス,,合同会社,兵庫県,神戸市灘区,大石東町２丁目３番１６号,,28,102,6570043,,,,,,,2022-10-12,1,,,,,ノアテックス,0
1180,4180003024339,新規,0,2022-10-12,2022-10-12,ＲＡＹＳ合同会社,,合同会社,愛知県,清須市,西枇杷島町小田井３丁目８－１５,,23,233,4520021,,,,,,,2022-10-12,1,,,,,レイズ,0
1182,4180301036696,新規,0,2022-10-12,2022-10-12,シビックブレイン株式会社,,株式会社,愛知県,刈谷市,小垣江町南曲７番地１０,,23,210,4480813,,,,,,,2022-10-12,1,,,,,シビックブレイン,0
1185,4180305009401,新規,0,2022-10-12,2022-10-12,矢頭税理士法人,,その他の設立登記法人,愛知県,豊田市,浄水町伊保原４７０番地,,23,211,4700343,,,,,,,2022-10-12,1,,,,,ヤトウ,0
1186,4190001029818,新規,0,2022-10-12,2022-10-12,秋元エンジニアリング株式会社,,株式会社,三重県,桑名市,大字福島８６１番地２,,24,205,5110002,,,,,,,2022-10-12,1,,,,,アキモトエンジニアリング,0
1187,4190001029826,新規,0,2022-10-12,2022-10-12,株式会社ＴＨＥ　ＡＲＴＳ,,株式会社,三重県,松阪市,大黒田町６５８番地,,24,204,5150063,,,,,,,2022-10-12,1,,,,,ジアーツ,0
1188,4190003004109,新規,0,2022-10-12,2022-10-12,合同会社Ｍ＆Ｅ,,合同会社,三重県,四日市市,川原町８番１６号－４０１,,24,202,5100033,,,,,,,2022-10-12,1,,,,,エムアンドイー,0
1190,4200001040541,新規,0,2022-10-12,2022-10-12,後藤美装株式会社,,株式会社,岐阜県,岐阜市,西川手８丁目５３番地１,,21,201,5008258,,,,,,,2022-10-12,1,,,,,ゴトウビソウ,0
1193,4200003005699,新規,0,2022-10-12,2022-10-12,ＭＡＣ　ＪＡＰＡＮ合同会社,,合同会社,岐阜県,土岐市,土岐津町土岐口８５７番地１プレジールＷＩＮＫ２０２号室,,21,212,5095122,,,,,,,2022-10-12,1,,,,,マックジャパン,0
1203,4230001019541,新規,0,2022-10-12,2022-10-12,株式会社スクイッド,,株式会社,富山県,高岡市,中保７９５番地２,,16,202,9330331,,,,,,,2022-10-12,1,,,,,スクイッド,0
1205,4240001060486,新規,0,2022-10-12,2022-10-12,株式会社ＣＫＨＲ,,株式会社,広島県,広島市中区,十日市町２丁目３番１４号１０１,,34,101,7300805,,,,,,,2022-10-12,1,,,,,シーケーエイチアール,0
1207,4250001019804,新規,0,2022-10-12,2022-10-12,株式会社上翔,,株式会社,山口県,周南市,戎町３丁目３０番地の２,,35,215,7450041,,,,,,,2022-10-12,1,,,,,ジョウショウ,0
1213,4290001099124,新規,0,2022-10-12,2022-10-12,株式会社Ｈｉｇａ建築工房,,株式会社,福岡県,福岡市博多区,金の隈２丁目２番２４号,,40,132,8120863,,,,,,,2022-10-12,1,,,,,ヒガケンチクコウボウ,0
1214,4320003003922,新規,0,2022-10-12,2022-10-12,合同会社Ｓｍｉｌｅ　Ａｒｃｈｉｓｔ,,合同会社,大分県,国東市,国東町鶴川１８６６－３吉賀ビル,,44,214,8730503,,,,,,,2022-10-12,1,,,,,スマイルアーチスト,0
1219,4350005006103,新規,0,2022-10-12,2022-10-12,一般社団法人ピートカニオン,,その他の設立登記法人,宮崎県,児湯郡新富町,大字上富田２２７４,,45,402,8891403,,,,,,,2022-10-12,1,,,,,ピートカニオン,0
1220,4360001031046,新規,0,2022-10-12,2022-10-12,株式会社ＶＥＧＥＦＡＲＭ　ＯＫＩＮＡＷＡ具志堅農園,,株式会社,沖縄県,国頭郡国頭村,字鏡地３７１番地３,,47,301,9051416,,,,,,,2022-10-12,1,,,,,ベジファームオキナワグシケンノウエン,0
1223,4370005010540,新規,0,2022-10-12,2022-10-12,社会福祉法人山泉会,,その他の設立登記法人,宮城県,刈田郡蔵王町,宮字下別当７２番地,,04,301,9890701,,,,,,,2022-10-12,1,,,,,ヤマセンカイ,0
1226,4380001033180,新規,0,2022-10-12,2022-10-12,株式会社あづまエステート,,株式会社,福島県,福島市,笹谷字稲場２８番５の３,,07,201,9600241,,,,,,,2022-10-12,1,,,,,アヅマエステート,0
1234,4430003014347,新規,0,2022-10-12,2022-10-12,合同会社Ｖ　ＦＲＯＮＴＩＥＲ,,合同会社,北海道,札幌市中央区,南二条西７丁目１番５号２・７ビル２階,,01,101,0600062,,,,,,,2022-10-12,1,,,,,ブイフロンティア,0
1239,4440005002737,新規,0,2022-10-12,2022-10-12,一般社団法人みかん箱,,その他の設立登記法人,北海道,函館市,末広町９番９号,,01,202,0400053,,,,,,,2022-10-12,1,,,,,ミカンバコ,0
1242,4460301005103,新規,0,2022-10-12,2022-10-12,ＹＢ昌盛国際貿易株式会社,,株式会社,北海道,北見市,美芳町１０丁目４番１５号,,01,208,0900064,,,,,,,2022-10-12,1,,,,,ワイビーショウセイコクサイボウエキ,0
1248,4700150111687,新規,0,2022-10-12,2022-09-13,Ｋ１０ビル　管理組合,,その他,東京都,品川区,南大井６丁目２４番１０号,,13,109,1400013,,,,,,,2022-09-13,1,,,,,ケイテンビルカンリクミアイ,0
1276,5010401170163,新規,0,2022-10-12,2022-10-12,株式会社ＡＬＫ,,株式会社,東京都,港区,西新橋３丁目２０番１号パークアクシス御成門１９０５,,13,103,1050003,,,,,,,2022-10-12,1,,,,,エーエルケー,0
1277,5010401170188,新規,0,2022-10-12,2022-10-12,ＤＥＭＥ　Ｊａｐａｎ株式会社,,株式会社,東京都,港区,赤坂１丁目１１番４４号赤坂インターシティ５階Ｍａｚａｒｓ・Ｊａｐａｎ株式会社内,,13,103,1070052,,,,,,,2022-10-12,1,,,,,デーメジャパン,0
1278,5010401170221,新規,0,2022-10-12,2022-10-12,ＵＮＩＯＴ株式会社,,株式会社,東京都,港区,浜松町２丁目２番１５号浜松町ダイヤビル２Ｆ,,13,103,1050013,,,,,,,2022-10-12,1,,,,,ユニオット,0
1280,5010403028582,新規,0,2022-10-12,2022-10-12,Ｎｏｚｏｍｉ　ＸＵ合同会社,,合同会社,東京都,港区,港南４丁目１番６－６１０号,,13,103,1080075,,,,,,,2022-10-12,1,,,,,ノゾミズー,0
1281,5010403028681,新規,0,2022-10-12,2022-10-12,ＫＬＳ合同会社,,合同会社,東京都,港区,南青山２丁目２番１５号,,13,103,1070062,,,,,,,2022-10-12,1,,,,,ケーエルエス,0
1284,5010405021412,新規,0,2022-10-12,2022-10-12,一般社団法人ＡＩＤＮＥＴ,,その他の設立登記法人,東京都,港区,南青山１丁目２０－２,,13,103,1070062,,,,,,,2022-10-12,1,,,,,エイドネット,0
1285,5010405021478,新規,0,2022-10-12,2022-10-12,ジー・エイ・ワン・レジデンス・ワン特定目的会社,,その他の設立登記法人,東京都,港区,六本木１丁目９番１０号アークヒルズ仙石山森タワー４０階,,13,103,1060032,,,,,,,2022-10-12,1,,,,,ジーエイワンレジデンスワン,0
1286,5010501049472,新規,0,2022-10-12,2022-10-12,株式会社美生堂,,株式会社,東京都,台東区,浅草４丁目２３番７号浅草三基ビル２階,,13,106,1110032,,,,,,,2022-10-12,1,,,,,ビセイドウ,0
1287,5010503006736,新規,0,2022-10-12,2022-10-12,合同会社Ｐｅｇａｓｕｓ,,合同会社,東京都,台東区,松が谷２丁目７番１号ＬｉｖｅＣａｓａ上野４０２,,13,106,1110036,,,,,,,2022-10-12,1,,,,,ペガサス,0
1294,5010901051755,新規,0,2022-10-12,2022-10-12,株式会社ＲＯＯＴＳ,,株式会社,東京都,世田谷区,下馬５丁目８番２号ローヤルハウス１Ｆ,,13,112,1540002,,,,,,,2022-10-12,1,,,,,ルーツ,0
1299,5011001150175,新規,0,2022-10-12,2022-10-12,株式会社ＫＩＴＩ,,株式会社,東京都,目黒区,大岡山１丁目１３番１４号,,13,110,1520033,,,,,,,2022-10-12,1,,,,,キチ,0
1307,5011101100385,新規,0,2022-10-12,2022-10-12,株式会社ジャスタ,,株式会社,東京都,新宿区,新宿２丁目４番２号,,13,104,1600022,,,,,,,2022-10-12,1,,,,,ジャスタ,0
1308,5011101100468,新規,0,2022-10-12,2022-10-12,株式会社ＹＯＭＡ,,株式会社,東京都,新宿区,高田馬場４丁目１番６号ＳＵＭＩ－ＢＵＩＬ４０２号,,13,104,1690075,,,,,,,2022-10-12,1,,,,,ヨマ,0
1309,5011101100476,新規,0,2022-10-12,2022-10-12,株式会社ＲＫＣ,,株式会社,東京都,新宿区,新宿６丁目２７番２９－５１０号,,13,104,1600022,,,,,,,2022-10-12,1,,,,,アールケーシー,0
1310,5011101100484,新規,0,2022-10-12,2022-10-12,株式会社ＡＶＣ,,株式会社,東京都,新宿区,左門町１４番６２－１１０２,,13,104,1600017,,,,,,,2022-10-12,1,,,,,エーヴィシー,0
1324,5011505002509,新規,0,2022-10-12,2022-10-12,医療法人社団徳風会,,その他の設立登記法人,東京都,荒川区,南千住５丁目２１番７号２階,,13,118,1160003,,,,,,,2022-10-12,1,,,,,トクフウカイ,0
1329,5011801041383,新規,0,2022-10-12,2022-10-12,鴻鵬株式会社,,株式会社,東京都,葛飾区,柴又１丁目１７番１１号ライオンズマンション高砂ガーデン２０３,,13,122,1250052,,,,,,,2022-10-12,1,,,,,コウホウ,0
1333,5012701017300,新規,0,2022-10-12,2022-10-12,株式会社Ｏｃｒａｓｉ,,株式会社,東京都,西東京市,南町５丁目１２番４号,,13,229,1880012,,,,,,,2022-10-12,1,,,,,オクラシ,0
1354,5020001148162,新規,0,2022-10-12,2022-10-12,株式会社ＳＥＥＤＬＩＮＧ,,株式会社,神奈川県,横浜市旭区,小高町７－３,,14,112,2410015,,,,,,,2022-10-12,1,,,,,シードリング,0
1355,5020001148360,新規,0,2022-10-12,2022-10-12,株式会社ｏｐｔ．,,株式会社,神奈川県,横浜市青葉区,美しが丘２丁目２１番１２号Ｙ４５たまプラーザビル２階,,14,117,2250002,,,,,,,2022-10-12,1,,,,,オプト,0
1356,5020001148435,新規,0,2022-10-12,2022-10-12,ＬＸ　ＪＡＰＡＮ株式会社,,株式会社,神奈川県,川崎市川崎区,砂子２丁目１０－７ルリエ川崎駅前４０２号,,14,131,2100006,,,,,,,2022-10-12,1,,,,,エルエクスジャパン,0
1357,5020001148542,新規,0,2022-10-12,2022-10-12,フカサメホーム株式会社,,株式会社,神奈川県,横浜市戸塚区,矢部町１０２９番地１アーク戸塚ヒルズ２０５号,,14,110,2440002,,,,,,,2022-10-12,1,,,,,フカサメホーム,0
1360,5020005015689,新規,0,2022-10-12,2022-10-12,税理士法人コンタックス,,その他の設立登記法人,神奈川県,横浜市港北区,菊名６丁目２３番１９号今田アカウンティングビル１階,,14,109,2220011,,,,,,,2022-10-12,1,,,,,コンタックス,0
1364,5021001077153,新規,0,2022-10-12,2022-10-12,株式会社クリエイティビティアンリミテッド,,株式会社,神奈川県,相模原市南区,新磯野４丁目５番３－１０１号,,14,153,2520325,,,,,,,2022-10-12,1,,,,,クリエイティビティアンリミテッド,0
1366,5021003012208,新規,0,2022-10-12,2022-10-12,瀬戸合同会社,,合同会社,神奈川県,足柄上郡山北町,山北７５１,,14,364,2580113,,,,,,,2022-10-12,1,,,,,セト,0
1367,5021003012216,新規,0,2022-10-12,2022-10-12,合同会社Ｋ‐Ｎｅｔ,,合同会社,神奈川県,横須賀市,富士見町１丁目２９番地２,,14,201,2380021,,,,,,,2022-10-12,1,,,,,ケーネット,0
1368,5021003012240,新規,0,2022-10-12,2022-10-12,合同会社虎ノ門事務,,合同会社,神奈川県,海老名市,中央３丁目２番５号ダイエー海老名店２階,,14,215,2430432,,,,,,,2022-10-12,1,,,,,トラノモンジム,0
1369,5021005012635,新規,0,2022-10-12,2022-10-12,特定非営利活動法人赤ちゃんとママを守る会,,その他の設立登記法人,神奈川県,藤沢市,本町２丁目３番４号,,14,205,2510053,,,,,,,2022-10-12,1,,,,,,0
1374,5030001150489,新規,0,2022-10-12,2022-10-12,株式会社ＭＫ,,株式会社,埼玉県,上尾市,大字瓦葺２１００－１,,11,219,3620022,,,,,,,2022-10-12,1,,,,,エムケー,0
1375,5030001150522,新規,0,2022-10-12,2022-10-12,株式会社エスティーシー,,株式会社,埼玉県,さいたま市大宮区,桜木町２丁目３番地,,11,103,3300854,,,,,,,2022-10-12,1,,,,,エスティーシー,0
1376,5030001150539,新規,0,2022-10-12,2022-10-12,株式会社玄井,,株式会社,埼玉県,東松山市,本町１丁目８番１８号,,11,212,3550015,,,,,,,2022-10-12,1,,,,,トライ,0
1378,5030003020368,新規,0,2022-10-12,2022-10-12,合同会社ケアプラントラスト,,合同会社,埼玉県,越谷市,大成町１丁目２２０２番地１,,11,222,3430825,,,,,,,2022-10-12,1,,,,,ケアプラントラスト,0
1389,5040001125382,新規,0,2022-10-12,2022-10-12,株式会社Ｂｅｉｇｅ,,株式会社,千葉県,浦安市,北栄４丁目２１番２１－３０１号サンクレイドル浦安ＩＩ,00128092,12,227,2790002,,,,,,,2022-10-12,1,,,,,ベージュ,0
1392,5040003021019,新規,0,2022-10-12,2022-10-12,合同会社ＳＵＩＲＥＮ,,合同会社,千葉県,市川市,本北方３丁目１９番１２号,,12,203,2720816,,,,,,,2022-10-12,1,,,,,スイレン,0
1393,5050003006893,新規,0,2022-10-12,2022-10-12,合同会社ＴＯＲＥＤＯ,,合同会社,茨城県,稲敷郡阿見町,大字阿見５２６１－８,,08,443,3000331,,,,,,,2022-10-12,1,,,,,トレド,0
1394,5050003006910,新規,0,2022-10-12,2022-10-12,ＦＵＮ　ＥＮＧＬＩＳＨ合同会社,,合同会社,茨城県,取手市,宮和田１０７５番地２宇都野ビル２Ｆ,,08,217,3001514,,,,,,,2022-10-12,1,,,,,ファンイングリッシュ,0
1395,5060003004269,新規,0,2022-10-12,2022-10-12,合同会社ＴＹＫ,,合同会社,栃木県,足利市,若草町４番地８,,09,202,3260024,,,,,,,2022-10-12,1,,,,,ティーワイケー,0
1398,5070003004648,新規,0,2022-10-12,2022-10-12,ｒａｉｓｅ合同会社,,合同会社,群馬県,高崎市,緑町１丁目２３番地８円ビル１Ｆ－Ｂ,,10,202,3700073,,,,,,,2022-10-12,1,,,,,レイズ,0
1399,5080001025232,新規,0,2022-10-12,2022-10-12,ＡＤＯＲＥ　ＦＬＯＷＣＡ株式会社,,株式会社,静岡県,牧之原市,片浜８２５番地１,,22,226,4210511,,,,,,,2022-10-12,1,,,,,アドアーフローカ,0
1400,5080001025240,新規,0,2022-10-12,2022-10-12,株式会社Ｒｅｇａｌｏｎｉｃｏ,,株式会社,静岡県,静岡市葵区,千代１丁目１番１１号,,22,101,4211212,,,,,,,2022-10-12,1,,,,,レガロニコ,0
1410,5100001035757,新規,0,2022-10-12,2022-10-12,Ｓｈｉｍｉｚｕ株式会社,,株式会社,長野県,下伊那郡松川町,元大島５６１１番地１,,20,402,3993303,,,,,,,2022-10-12,1,,,,,シミズ,0
1431,5120001249405,新規,0,2022-10-12,2022-10-12,ジャディット株式会社,,株式会社,大阪府,大阪市東淀川区,東中島１丁目１７番５号,,27,114,5330033,,,,,,,2022-10-12,1,,,,,ジャディット,0
1432,5120001249446,新規,0,2022-10-12,2022-10-12,ＯＴＯＨＡ　ＪＡＰＡＮ株式会社,,株式会社,大阪府,大阪市淀川区,西中島６丁目３番２５号北白石ビル東館７階,,27,123,5320011,,,,,,,2022-10-12,1,,,,,オトハジャパン,0
1433,5120001249454,新規,0,2022-10-12,2022-10-12,株式会社Ｓａｍｒｉｔ,,株式会社,大阪府,大阪市西淀川区,出来島１丁目５番５－２０１号,,27,113,5550031,,,,,,,2022-10-12,1,,,,,サムリット,0
1438,5120003022628,新規,0,2022-10-12,2022-10-12,合同会社ＬＳＡ,,合同会社,大阪府,大阪市西区,南堀江２丁目２番６号ケンザイビル４０５号室,,27,106,5500015,,,,,,,2022-10-12,1,,,,,エルエスエー,0
1441,5120101066345,新規,0,2022-10-12,2022-10-12,株式会社エーテクノ,,株式会社,大阪府,堺市東区,中茶屋８１番地８,,27,143,5998128,,,,,,,2022-10-12,1,,,,,エーテクノ,0
1446,5120901046538,新規,0,2022-10-12,2022-10-12,株式会社ＯＮＥ,,株式会社,大阪府,茨木市,西安威１丁目４番２６号,,27,211,5670008,,,,,,,2022-10-12,1,,,,,ワン,0
1456,5140001127682,新規,0,2022-10-12,2022-10-12,Ｐ．Ｇ．Ｍａｃｈｉｎｅｒｙ株式会社,,株式会社,兵庫県,加東市,廻渕３１番地３４４,,28,228,6731412,,,,,,,2022-10-12,1,,,,,ピージーマシナリー,0
1463,5160001024564,新規,0,2022-10-12,2022-10-12,株式会社山口工務店,,株式会社,滋賀県,蒲生郡竜王町,大字鏡２１９４番地,,25,384,5202573,,,,,,,2022-10-12,1,,,,,ヤマグチコウムテン,0
1477,5180001153353,新規,0,2022-10-12,2022-10-12,株式会社ＫＳ,,株式会社,愛知県,愛西市,諸桑町西浦３４番地３,,23,232,4968005,,,,,,,2022-10-12,1,,,,,ケーエス,0
1484,5180301036695,新規,0,2022-10-12,2022-10-12,株式会社アガタＰＥオフィス,,株式会社,愛知県,豊橋市,野依台１丁目１５番地の３,,23,201,4418125,,,,,,,2022-10-12,1,,,,,アガタピーイーオフィス,0
1486,5180305009400,新規,0,2022-10-12,2022-10-12,医療法人吉邦会,,その他の設立登記法人,愛知県,碧南市,塩浜町２丁目２２番地,,23,209,4470841,,,,,,,2022-10-12,1,,,,,キッポウカイ,0
1488,5190001029800,新規,0,2022-10-12,2022-10-12,名張中西金属株式会社,,株式会社,三重県,名張市,八幡１３００番地６７,,24,208,5180605,,,,,,,2022-10-12,1,,,,,ナバリナカニシキンゾク,0
1490,5190003004108,新規,0,2022-10-12,2022-10-12,合同会社カウテック,,合同会社,三重県,いなべ市,大安町平塚１０８７番地１,,24,214,5110273,,,,,,,2022-10-12,1,,,,,カウテック,0
1494,5200003005707,新規,0,2022-10-12,2022-10-12,合同会社Ｊ　Ｆａｃｔｍ,,合同会社,岐阜県,多治見市,滝呂町９丁目４番地１２６,,21,204,5070813,,,,,,,2022-10-12,1,,,,,ジェイファクトム,0
1495,5200005013402,新規,0,2022-10-12,2022-10-12,一般社団法人こども食堂ナナカフェ,,その他の設立登記法人,岐阜県,岐阜市,河渡３丁目２２番地１,,21,201,5010105,,,,,,,2022-10-12,1,,,,,コドモショクドウナナカフェ,0
1497,5210003001564,新規,0,2022-10-12,2022-10-12,橋本空調設備合同会社,,合同会社,福井県,福井市,下森田新町２９０５番地,,18,201,9100143,,,,,,,2022-10-12,1,,,,,ハシモトクウチョウセツビ,0
1507,5240005015469,新規,0,2022-10-12,2022-10-12,特定非営利活動法人ねきえ,,その他の設立登記法人,広島県,山県郡北広島町,有田３４３８番地,,34,369,7311533,,,,,,,2022-10-12,1,,,,,ネキエ,0
1509,5250001019803,新規,0,2022-10-12,2022-10-12,株式会社Ｌ　ｇｒｏｗ,,株式会社,山口県,周南市,大字久米３５５番地ウエストヒルズインペリアル１０１号,,35,215,7450801,,,,,,,2022-10-12,1,,,,,エルグロウ,0
1511,5250003003160,新規,0,2022-10-12,2022-10-12,合同会社ＩＳＳＡ,,合同会社,山口県,光市,中島田２丁目１７－１,,35,210,7430064,,,,,,,2022-10-12,1,,,,,イッサ,0
1513,5260001037309,新規,0,2022-10-12,2022-10-12,株式会社ＯＦＣ,,株式会社,岡山県,岡山市北区,下伊福上町１２番１３号２０３,,33,101,7000051,,,,,,,2022-10-12,1,,,,,オーエフシー,0
1518,5280003001657,新規,0,2022-10-12,2022-10-12,合同会社未来共創ガレージ,,合同会社,島根県,松江市,北陵町１テクノアークしまね本館３ＦＮｏ．７,,32,201,6900816,,,,,,,2022-10-12,1,,,,,ミライキョウソウガレージ,0
1520,5290001099107,新規,0,2022-10-12,2022-10-12,栗田地質株式会社,,株式会社,福岡県,久留米市,篠原町２番地５エバーライフ久留米中央１１０５号,,40,203,8300036,,,,,,,2022-10-12,1,,,,,クリタチシツ,0
1521,5290001099180,新規,0,2022-10-12,2022-10-12,株式会社ＷｉｌｌＶｉａ,,株式会社,福岡県,福岡市博多区,祇園町６番２６号ニューガイアオフィス博多,,40,132,8120038,,,,,,,2022-10-12,1,,,,,ウィルヴィア,0
1522,5290001099197,新規,0,2022-10-12,2022-10-12,株式会社ＴｓｕｋｉＡｉ,,株式会社,福岡県,福岡市西区,愛宕浜２丁目３番１０号,,40,135,8190013,,,,,,,2022-10-12,1,,,,,ツキアイ,0
1529,5290003013049,新規,0,2022-10-12,2022-10-12,合同会社Ｍｉｎｄ　Ｓｏｕｌ　ＳＰＡ,,合同会社,福岡県,みやま市,瀬高町下庄２０３９番地１,,40,229,8350024,,,,,,,2022-10-12,1,,,,,マインドソウルスパ,0
1532,5300001013098,新規,0,2022-10-12,2022-10-12,株式会社有明産直の会,,株式会社,佐賀県,杵島郡白石町,大字横手２５５４番地４,,41,425,8491116,,,,,,,2022-10-12,1,,,,,アリアケサンチョクノカイ,0
1533,5300003001885,新規,0,2022-10-12,2022-10-12,合同会社Ａｘｉｓ,,合同会社,佐賀県,鳥栖市,下野町２４５１,,41,203,8410063,,,,,,,2022-10-12,1,,,,,,0
1537,5350001017986,新規,0,2022-10-12,2022-10-12,株式会社お菓子の小山田,,株式会社,宮崎県,都城市,鷹尾５丁目８街区２３号,,45,202,8850081,,,,,,,2022-10-12,1,,,,,オカシノオヤマダ,0
1539,5360003012357,新規,0,2022-10-12,2022-10-12,合同会社ＧＯＡＴ,,合同会社,沖縄県,那覇市,金城５丁目５番７号,,47,201,9010155,,,,,,,2022-10-12,1,,,,,ゴート,0
1541,5360005006720,新規,0,2022-10-12,2022-10-12,一般社団法人沖縄教育研究機構,,その他の設立登記法人,沖縄県,浦添市,内間５丁目４－１２－２０２号バイオスチェリー,,47,208,9012121,,,,,,,2022-10-12,1,,,,,オキナワキョウイクケンキュウキコウ,0
1545,5370001049136,新規,0,2022-10-12,2022-10-12,株式会社チルプロド,,株式会社,宮城県,仙台市青葉区,本町１丁目５番２８－６０３号,,04,101,9800014,,,,,,,2022-10-12,1,,,,,チルプロド,0
1552,5400001016025,新規,0,2022-10-12,2022-10-12,株式会社ベース,,株式会社,岩手県,一関市,山目字十二神１番地１,,03,209,0210036,,,,,,,2022-10-12,1,,,,,ベース,0
1558,5430003014354,新規,0,2022-10-12,2022-10-12,合同会社アイス企画,,合同会社,北海道,勇払郡むかわ町,米原３０４番地,,01,586,0540014,,,,,,,2022-10-12,1,,,,,アイスキカク,0
1560,5440001009165,新規,0,2022-10-12,2022-10-12,きゅういち株式会社,,株式会社,北海道,函館市,川汲町１３９５番地,,01,202,0411611,,,,,,,2022-10-12,1,,,,,キュウイチ,0
1574,5500003002905,新規,0,2022-10-12,2022-10-12,合同会社ＩＴ’Ｓ　ＭＥ,,合同会社,愛媛県,八幡浜市,１２１４番地１伊崎ビル２階,,38,204,7960088,,,,,,,2022-10-12,1,,,,,イッツミー,0
1590,6010003038824,新規,0,2022-10-12,2022-10-12,合同会社エルインベストメント,,合同会社,東京都,千代田区,神田神保町１丁目１１番地さくら綜合事務所内,,13,101,1010051,,,,,,,2022-10-12,1,,,,,エルインベストメント,0
1591,6010003038849,新規,0,2022-10-12,2022-10-12,Ｂｕｔｔｅｒｆｌｙ　Ｊａｐａｎ　Ｂｕｙｅｒ合同会社,,合同会社,東京都,中央区,日本橋室町４丁目３番９号,,13,102,1030022,,,,,,,2022-10-12,1,,,,,バタフライジャパンバイヤー,0
1597,6010401170204,新規,0,2022-10-12,2022-10-12,Ｓｏｒｃｅｒｙ株式会社,,株式会社,東京都,港区,赤坂２丁目１４番５号Ｄａｉｗａ赤坂ビル４階,,13,103,1070052,,,,,,,2022-10-12,1,,,,,ソーサリー,0
1600,6010403028664,新規,0,2022-10-12,2022-10-12,ＫＯシステムズ合同会社,,合同会社,東京都,港区,芝３丁目２５番２号黒田芝ビル３Ｆ３２２号,,13,103,1050014,,,,,,,2022-10-12,1,,,,,ケーオーシステムズ,0
1601,6010403028689,新規,0,2022-10-12,2022-10-12,ＪａｐａｎＨｉｒｅ合同会社,,合同会社,東京都,港区,虎ノ門４丁目１番１号神谷町トラストタワー２３Ｆ,,13,103,1050001,,,,,,,2022-10-12,1,,,,,ジャパンハイヤー,0
1608,6010601061979,新規,0,2022-10-12,2022-10-12,株式会社ライトアッププランニング,,株式会社,東京都,江東区,東陽２丁目４番１４－８０４号,,13,108,1350016,,,,,,,2022-10-12,1,,,,,ライトアッププランニング,0
1614,6010901051770,新規,0,2022-10-12,2022-10-12,株式会社はんざわ商会,,株式会社,東京都,世田谷区,玉川３丁目２０番２号マノア玉川第３ビル５０１号室,,13,112,1580094,,,,,,,2022-10-12,1,,,,,ハンザワショウカイ,0
1616,6010903007713,新規,0,2022-10-12,2022-10-12,コミューンエナジー合同会社,,合同会社,東京都,世田谷区,太子堂２丁目１７－５佐藤ビル３階,,13,112,1540004,,,,,,,2022-10-12,1,,,,,コミューンエナジー,0
1628,6011203003923,新規,0,2022-10-12,2022-10-12,ＲＹＵ合同会社,,合同会社,東京都,中野区,新井４丁目３１番６号サガラメール２０３号室,,13,114,1650026,,,,,,,2022-10-12,1,,,,,リュウ,0
1639,6011503005314,新規,0,2022-10-12,2022-10-12,大溢合同会社,,合同会社,東京都,北区,東十条５丁目１７番２号,,13,117,1140001,,,,,,,2022-10-12,1,,,,,ダイイツ,0
1640,6011601026294,新規,0,2022-10-12,2022-10-12,株式会社ＵＫＦインベストメント,,株式会社,東京都,練馬区,練馬１丁目２２番５号,,13,120,1760001,,,,,,,2022-10-12,1,,,,,ユーケーエフインベストメント,0
1643,6011801041382,新規,0,2022-10-12,2022-10-12,株式会社ＵＤＥ,,株式会社,東京都,葛飾区,西亀有３丁目５番５号,,13,122,1250002,,,,,,,2022-10-12,1,,,,,ユーディーイー,0
1647,6012701017299,新規,0,2022-10-12,2022-10-12,株式会社ＢＰＭ,,株式会社,東京都,東村山市,秋津町３丁目１１－５９,,13,213,1890001,,,,,,,2022-10-12,1,,,,,ビーピーエム,0
1653,6013301049781,新規,0,2022-10-12,2022-10-12,キリン商事株式会社,,株式会社,東京都,豊島区,池袋４丁目３－６オークヒルズ１０２号,,13,116,1710014,,,,,,,2022-10-12,1,,,,,キリンショウジ,0
1657,6013303006327,新規,0,2022-10-12,2022-10-12,合同会社ＧＡＰＳ,,合同会社,東京都,豊島区,千川１丁目１４番８号ハーヴェスト静３０１,,13,116,1710041,,,,,,,2022-10-12,1,,,,,ギャップス,0
1662,6020001148509,新規,0,2022-10-12,2022-10-12,株式会社ＰＡＵＳＥ,,株式会社,神奈川県,横浜市中区,弥生町２丁目１５－１－２０３ストークタワー大通り公園ＩＩＩ,00128094,14,104,2310058,,,,,,,2022-10-12,1,,,,,ポーズ,0
1663,6020001148517,新規,0,2022-10-12,2022-10-12,株式会社琉信,,株式会社,神奈川県,川崎市宮前区,南野川２丁目２２番３４号,,14,136,2160042,,,,,,,2022-10-12,1,,,,,リュウシン,0
1667,6020003022546,新規,0,2022-10-12,2022-10-12,ＴＫエンタープライズ合同会社,,合同会社,神奈川県,横浜市西区,戸部町２丁目４０番地１メルディア横濱桜木町５０１号,,14,103,2200042,,,,,,,2022-10-12,1,,,,,ティーケーエンタープライズゴウドウガイシャ,0
1682,6030003020375,新規,0,2022-10-12,2022-10-12,合同会社便利遺品,,合同会社,埼玉県,南埼玉郡宮代町,字西原４８３番地３８,,11,442,3450817,,,,,,,2022-10-12,1,,,,,ベンリイヒン,0
1689,6040001125290,新規,0,2022-10-12,2022-10-12,株式会社ＳＯＩＮホールディングス,,株式会社,千葉県,船橋市,二和東５丁目１４番２号,,12,204,2740805,,,,,,,2022-10-12,1,,,,,ソワンホールディングス,0
1690,6040001125381,新規,0,2022-10-12,2022-10-12,株式会社ヒロックス,,株式会社,千葉県,袖ケ浦市,蔵波台２丁目１３番地１９,,12,229,2990245,,,,,,,2022-10-12,1,,,,,ヒロックス,0
1694,6040003021026,新規,0,2022-10-12,2022-10-12,ＮＰＹ合同会社,,合同会社,千葉県,習志野市,袖ケ浦５丁目７番１３号らんまるビル２Ｆ,,12,216,2750021,,,,,,,2022-10-12,1,,,,,エヌピイワイ,0
1695,6040005021767,新規,0,2022-10-12,2022-10-12,特定非営利活動法人一宮・波の遠音,,その他の設立登記法人,千葉県,長生郡一宮町,船頭給１２９番地７,,12,421,2994313,,,,,,,2022-10-12,1,,,,,イチノミヤナミノトオネ,0
1700,6060001035348,新規,0,2022-10-12,2022-10-12,ＭＨ株式会社,,株式会社,栃木県,那須塩原市,永田町１４番２２号,,09,213,3292727,,,,,,,2022-10-12,1,,,,,エムエイチ,0
1706,6080003002889,新規,0,2022-10-12,2022-10-12,合同会社ｐｓｍｉＫ,,合同会社,静岡県,静岡市駿河区,馬渕３丁目１４番９号プラシード２０３,,22,102,4228063,,,,,,,2022-10-12,1,,,,,パスミック,0
1711,6080405007494,新規,0,2022-10-12,2022-10-12,医療法人社団廉咲会,,その他の設立登記法人,静岡県,浜松市中区,広沢３丁目２４番１３号,,22,131,4328013,,,,,,,2022-10-12,1,,,,,レンショウカイ,0
1733,6120001249370,新規,0,2022-10-12,2022-10-12,株式会社中西工業,,株式会社,大阪府,大阪市東淀川区,豊里２丁目２０番１７号,,27,114,5330013,,,,,,,2022-10-12,1,,,,,ナカニシコウギョウ,0
1734,6120001249387,新規,0,2022-10-12,2022-10-12,ベストライフ不動産株式会社,,株式会社,大阪府,門真市,岸和田３丁目２８番３０号,,27,223,5710002,,,,,,,2022-10-12,1,,,,,ベストライフフドウサン,0
1735,6120001249445,新規,0,2022-10-12,2022-10-12,株式会社Ｄｒａｗｅｒ,,株式会社,大阪府,大阪市東住吉区,今林２丁目１３番２２号,,27,121,5460001,,,,,,,2022-10-12,1,,,,,ドロワー,0
1736,6120001249453,新規,0,2022-10-12,2022-10-12,宏達株式会社,,株式会社,大阪府,大阪市東淀川区,小松１丁目６番２９号２０１号室,,27,114,5330004,,,,,,,2022-10-12,1,,,,,コウタツ,0
1747,6120903004311,新規,0,2022-10-12,2022-10-12,合同会社Ｃｏｒｅｖｉｃｅ,,合同会社,大阪府,箕面市,瀬川４丁目１５－４５－５０４,,27,220,5620045,,,,,,,2022-10-12,1,,,,,コアビス,0
1758,6130005016592,新規,0,2022-10-12,2022-10-12,一般社団法人和儀,,その他の設立登記法人,京都府,京都市北区,上賀茂松本町６５番地２,,26,101,6038052,,,,,,,2022-10-12,1,,,,,ワギ,0
1769,6140001127640,新規,0,2022-10-12,2022-10-12,大谷工業株式会社,,株式会社,兵庫県,加古川市,加古川町西河原１０５番地の１サンロイヤル加古川リバージュＩ号館６０６号,00128109,28,210,6750036,,,,,,,2022-10-12,1,,,,,オオタニコウギョウ,0
1774,6140003018235,新規,0,2022-10-12,2022-10-12,ＡＲＵＫＡＳ　ＪＡＰＡＮ合同会社,,合同会社,兵庫県,三木市,西自由が丘二丁目２７番６号棟５０１号,,28,215,6730400,,,,,,,2022-10-12,1,,,,,アルカスジャパン,0
1783,6160001024563,新規,0,2022-10-12,2022-10-12,テクノラボ株式会社,,株式会社,滋賀県,蒲生郡竜王町,大字須恵８１４－２,,25,384,5202500,,,,,,,2022-10-12,1,,,,,テクノラボ,0
1784,6170001017310,新規,0,2022-10-12,2022-10-12,株式会社ランプ,,株式会社,和歌山県,岩出市,堀口８４番地の４,,30,209,6496206,,,,,,,2022-10-12,1,,,,,ランプ,0
1791,6180301036694,新規,0,2022-10-12,2022-10-12,株式会社Ｏｖｅｒ,,株式会社,愛知県,刈谷市,高倉町１丁目２０５番地,,23,210,4480037,,,,,,,2022-10-12,1,,,,,オーバー,0
1796,6190001029816,新規,0,2022-10-12,2022-10-12,水谷造園株式会社,,株式会社,三重県,松阪市,飯高町赤桶１２０６番地２,,24,204,5151505,,,,,,,2022-10-12,1,,,,,ミズタニゾウエン,0
1797,6190001029832,新規,0,2022-10-12,2022-10-12,株式会社山野自動車サービス,,株式会社,三重県,志摩市,大王町波切２１６７番地１,,24,215,5170603,,,,,,,2022-10-12,1,,,,,ヤマノジドウシャサービス,0
1811,6230001019548,新規,0,2022-10-12,2022-10-12,銘茜株式会社,,株式会社,富山県,富山市,藤の木台３丁目２９番１,,16,201,9300934,,,,,,,2022-10-12,1,,,,,メイセン,0
1813,6240001060492,新規,0,2022-10-12,2022-10-12,株式会社ＴＡＫＡＢＲＡＩＮ,,株式会社,広島県,広島市佐伯区,五日市中央７丁目５番１１号,,34,108,7315128,,,,,,,2022-10-12,1,,,,,タカブレイン,0
1820,6260001037316,新規,0,2022-10-12,2022-10-12,株式会社ＯＮＥＦＩＸ,,株式会社,岡山県,岡山市中区,古京町１丁目２－２１古京町スクエア２０２,,33,102,7038278,,,,,,,2022-10-12,1,,,,,ワンフィックス,0
1825,6290001099196,新規,0,2022-10-12,2022-10-12,株式会社ｓｔｐｈｅｇｉａ,,株式会社,福岡県,福岡市中央区,大名２丁目９－３５トウセン天神ビル９Ｆ,,40,133,8100041,,,,,,,2022-10-12,1,,,,,ステフエギア,0
1832,6300001013097,新規,0,2022-10-12,2022-10-12,株式会社ＯＧＭ,,株式会社,佐賀県,佐賀市,神野西４丁目１１番１６号,,41,201,8400805,,,,,,,2022-10-12,1,,,,,オージーエム,0
1836,6330003009545,新規,0,2022-10-12,2022-10-12,ＲＥ．ＬＩＦＥ　ＬＡＢ合同会社,,合同会社,熊本県,合志市,須屋３４４番地８,,43,216,8611102,,,,,,,2022-10-12,1,,,,,リライフラボ,0
1839,6340003003927,新規,0,2022-10-12,2022-10-12,合同会社ＬＩＮＤＯ,,合同会社,鹿児島県,鹿屋市,串良町上小原４６６０番地９,,46,203,8931605,,,,,,,2022-10-12,1,,,,,リンドー,0
1841,6360001031044,新規,0,2022-10-12,2022-10-12,株式会社不動産の丸福,,株式会社,沖縄県,名護市,字為又１２１９番地８７,,47,209,9050005,,,,,,,2022-10-12,1,,,,,フドウサンノマルフク,0
1842,6360003012364,新規,0,2022-10-12,2022-10-12,合同会社神龍,,合同会社,沖縄県,中頭郡中城村,字当間８４０番地,,47,328,9012406,,,,,,,2022-10-12,1,,,,,シェンロン,0
1845,6370001049127,新規,0,2022-10-12,2022-10-12,株式会社ＪＣＩロジスティクスサービス,,株式会社,宮城県,黒川郡大和町,松坂平２丁目５番２号,,04,421,9813408,,,,,,,2022-10-12,1,,,,,ジェーシーアイロジスティクスサービス,0
1846,6370005010539,新規,0,2022-10-12,2022-10-12,一般社団法人ＴＯＨＯＫＵ海にいいことプロジェクト,,その他の設立登記法人,宮城県,仙台市太白区,あすと長町１丁目３番１５号,,04,104,9820007,,,,,,,2022-10-12,1,,,,,トウホクウミニイイコトプロジェクト,0
1850,6380001033154,新規,0,2022-10-12,2022-10-12,株式会社伊野商店,,株式会社,福島県,郡山市,堤下町８番１号,,07,203,9638878,,,,,,,2022-10-12,1,,,,,イノショウテン,0
1852,6400001016024,新規,0,2022-10-12,2022-10-12,株式会社小原工建,,株式会社,岩手県,上閉伊郡大槌町,桜木町９番３６号,,03,461,0281122,,,,,,,2022-10-12,1,,,,,オバラコウケン,0
1862,6430001087640,新規,0,2022-10-12,2022-10-12,株式会社僧都電機商会,,株式会社,北海道,江別市,元江別８７８番地の７,,01,217,0670032,,,,,,,2022-10-12,1,,,,,ソウヅデンキショウカイ,0
1864,6430003014345,新規,0,2022-10-12,2022-10-12,合同会社村上住建,,合同会社,北海道,札幌市手稲区,前田四条７丁目２番１３号,,01,109,0060814,,,,,,,2022-10-12,1,,,,,ムラカミジュウケン,0
1865,6430003014353,新規,0,2022-10-12,2022-10-12,合同会社光モータース,,合同会社,北海道,札幌市手稲区,金山二条４丁目３番３号,,01,109,0060042,,,,,,,2022-10-12,1,,,,,ヒカリモータース,0
1866,6450003002257,新規,0,2022-10-12,2022-10-12,ｎｅｘｔ合同会社,,合同会社,北海道,旭川市,神楽六条１２丁目３番３号,,01,204,0708006,,,,,,,2022-10-12,1,,,,,ネクスト,0
1870,6470003002271,新規,0,2022-10-12,2022-10-12,ＩＳＨＩＺＵＥ合同会社,,合同会社,香川県,高松市,寿町２丁目２番１０号高松寿町プライムビル４階,,37,201,7600023,,,,,,,2022-10-12,1,,,,,イシズエ,0
1872,6490001010308,新規,0,2022-10-12,2022-10-12,Ｒｅグループ株式会社,,株式会社,高知県,南国市,蛍が丘１丁目１番地２南国オフィスパークセンター別棟,,39,204,7830060,,,,,,,2022-10-12,1,,,,,アールイーグループ,0
1885,7010001229993,新規,0,2022-10-12,2022-10-12,株式会社ドクターズブライド,,株式会社,東京都,中央区,銀座１丁目１２－４Ｎ＆ＥＢＬＤ．７Ｆ,,13,102,1040061,,,,,,,2022-10-12,1,,,,,ドクターズブライド,0
1887,7010005035645,新規,0,2022-10-12,2022-10-12,税理士法人銀座中央会計,,その他の設立登記法人,東京都,中央区,銀座１丁目１４番５号南４階,,13,102,1040061,,,,,,,2022-10-12,1,,,,,ギンザチュウオウカイケイ,0
1900,7010401169848,新規,0,2022-10-12,2022-10-12,株式会社Ｂｌｕｅ,,株式会社,東京都,港区,南青山４丁目１３番９号３Ｆ,,13,103,1070062,,,,,,,2022-10-12,1,,,,,ブルー,0
1901,7010401170021,新規,0,2022-10-12,2022-10-12,株式会社ＪＳトランスポート,,株式会社,東京都,港区,芝大門１丁目１０番１１号,,13,103,1050012,,,,,,,2022-10-12,1,,,,,ジェイエストランスポート,0
1902,7010401170161,新規,0,2022-10-12,2022-10-12,株式会社カルム,,株式会社,東京都,港区,六本木３丁目３番１５号麻布台ＴＳタワー５０２,,13,103,1060032,,,,,,,2022-10-12,1,,,,,カルム,0
1903,7010401170203,新規,0,2022-10-12,2022-10-12,株式会社ナイトスリー,,株式会社,東京都,港区,六本木３丁目４番３３号マルマン六本木ビル３階,,13,103,1060032,,,,,,,2022-10-12,1,,,,,ナイトスリー,0
1906,7010403028688,新規,0,2022-10-12,2022-10-12,合同会社ＯＨ５,,合同会社,東京都,港区,赤坂９丁目１番７号秀和赤坂レジデンシャルホテル２９６号,,13,103,1070052,,,,,,,2022-10-12,1,,,,,オーエイチファイブ,0
1907,7010501049487,新規,0,2022-10-12,2022-10-12,日本未来再生科学株式会社,,株式会社,東京都,台東区,台東４丁目２８番１号,,13,106,1100016,,,,,,,2022-10-12,1,,,,,ニホンミライサイセイカガク,0
1910,7010605004140,新規,0,2022-10-12,2022-10-12,税理士法人坂部綜合会計,,その他の設立登記法人,東京都,墨田区,江東橋１丁目１６番２号,,13,107,1300022,,,,,,,2022-10-12,1,,,,,サカベソウゴウカイケイ,0
1914,7010703006410,新規,0,2022-10-12,2022-10-12,合同会社ブチャラティ,,合同会社,東京都,品川区,大崎２丁目９番１－２００９号,,13,109,1410032,,,,,,,2022-10-12,1,,,,,ブチャラティ,0
1915,7010801033331,新規,0,2022-10-12,2022-10-12,ディーアンドディー株式会社,,株式会社,東京都,大田区,東蒲田２丁目６番２３号,,13,111,1440031,,,,,,,2022-10-12,1,,,,,ディーアンドディー,0
1916,7010801033348,新規,0,2022-10-12,2022-10-12,株式会社ＫＥＮ,,株式会社,東京都,大田区,西蒲田７丁目３番２号蒲田シーエイビル４階,,13,111,1440051,,,,,,,2022-10-12,1,,,,,ケン,0
1920,7010901051761,新規,0,2022-10-12,2022-10-12,株式会社ＮＫ　Ｇｌｏｂａｌ,,株式会社,東京都,世田谷区,砧２丁目１６番１－５２６号,,13,112,1570073,,,,,,,2022-10-12,1,,,,,エヌケーグローバル,0
1922,7010903007712,新規,0,2022-10-12,2022-10-12,合同会社ｕｐｄａｔｅ,,合同会社,東京都,世田谷区,松原１丁目４９番２号グランパセオ明大前ＩＩＩ２０４,00128099,13,112,1560043,,,,,,,2022-10-12,1,,,,,アップデート,0
1924,7011001150108,新規,0,2022-10-12,2022-10-12,株式会社小夏,,株式会社,東京都,目黒区,五本木２丁目９番５－３０１号ＢＰＲレジデンス祐天寺,,13,110,1530053,,,,,,,2022-10-12,1,,,,,コナツ,0
1925,7011001150173,新規,0,2022-10-12,2022-10-12,株式会社ディーエムプロパティ,,株式会社,東京都,渋谷区,広尾１丁目１番２０号グレース広尾３階,,13,113,1500012,,,,,,,2022-10-12,1,,,,,,0
1926,7011001150207,新規,0,2022-10-12,2022-10-12,株式会社ＦｉｒｓｔＲｅｔｕｒｎ,,株式会社,東京都,目黒区,上目黒１丁目１６番１２号,,13,110,1530051,,,,,,,2022-10-12,1,,,,,ファーストリターン,0
1928,7011003015408,新規,0,2022-10-12,2022-10-12,合同会社ネイバーフード,,合同会社,東京都,目黒区,目黒２丁目１１番３号,,13,110,1530063,,,,,,,2022-10-12,1,,,,,ネイバーフード,0
1929,7011003015515,新規,0,2022-10-12,2022-10-12,インクリースカイ合同会社,,合同会社,東京都,目黒区,緑が丘３丁目６番１３号,,13,110,1520034,,,,,,,2022-10-12,1,,,,,インクリースカイ,0
1934,7011103012247,新規,0,2022-10-12,2022-10-12,合同会社ルームズスタジオ,,合同会社,東京都,新宿区,西新宿３丁目３番１３号西新宿水間ビル６階,,13,104,1600023,,,,,,,2022-10-12,1,,,,,ルームズスタジオ,0
1937,7011203003922,新規,0,2022-10-12,2022-10-12,合同会社あきひろ,,合同会社,東京都,中野区,上高田１丁目１番４１号,,13,114,1640002,,,,,,,2022-10-12,1,,,,,アキヒロ,0
1941,7011503005313,新規,0,2022-10-12,2022-10-12,合同会社ＮＩＰＰＯＮ　ＡＲＩＧＡＴＯ,,合同会社,東京都,北区,志茂２丁目１８番１１号ツインズバタフライ赤羽,,13,117,1150042,,,,,,,2022-10-12,1,,,,,ニッポンアリガト,0
1944,7011801041381,新規,0,2022-10-12,2022-10-12,株式会社ｍｉｃｏｎｏ,,株式会社,東京都,足立区,平野２丁目１６番１２号,,13,121,1210076,,,,,,,2022-10-12,1,,,,,ミコノ,0
1945,7011803005310,新規,0,2022-10-12,2022-10-12,合同会社Ｙｏｕ‐Ａｎｎｄ,,合同会社,東京都,足立区,東和４丁目３番８－８０３号,,13,121,1200003,,,,,,,2022-10-12,1,,,,,ユーアンド,0
1946,7012301013160,新規,0,2022-10-12,2022-10-12,ノーヴァ株式会社,,株式会社,東京都,町田市,高ヶ坂４丁目３番１２号,,13,209,1940014,,,,,,,2022-10-12,1,,,,,ノーヴァ,0
1950,7012701017298,新規,0,2022-10-12,2022-10-12,株式会社小池工業,,株式会社,東京都,東村山市,本町４丁目１２番地４０セジュールオッツ３０６,,13,213,1890014,,,,,,,2022-10-12,1,,,,,,0
1951,7013301049789,新規,0,2022-10-12,2022-10-12,ｓｍｉｌｅ商事株式会社,,株式会社,東京都,豊島区,東池袋２丁目６３番５号日興パレス池袋３０３号,,13,116,1700013,,,,,,,2022-10-12,1,,,,,,0
1966,7020001148499,新規,0,2022-10-12,2022-10-12,株式会社三幻色,,株式会社,神奈川県,横浜市磯子区,滝頭３丁目６－１１－６,,14,107,2350012,,,,,,,2022-10-12,1,,,,,サンゲンショク,0
1967,7020001148516,新規,0,2022-10-12,2022-10-12,太公望株式会社,,株式会社,神奈川県,横浜市港北区,新吉田東４丁目１－１１－１階,,14,109,2230058,,,,,,,2022-10-12,1,,,,,タイコウボウ,0
1968,7020001148540,新規,0,2022-10-12,2022-10-12,株式会社万和,,株式会社,神奈川県,横浜市南区,真金町２丁目２２番地１７－４０２,,14,105,2320021,,,,,,,2022-10-12,1,,,,,マンワ,0
1969,7020001148549,新規,0,2022-10-12,2022-10-12,住大不動産株式会社,,株式会社,神奈川県,横浜市南区,白妙町４丁目４２番地３藤和阪東橋ハイタウン１Ｆ,,14,105,2320023,,,,,,,2022-10-12,1,,,,,スミダイフドウサン,0
1976,7021005012633,新規,0,2022-10-12,2022-10-12,一般社団法人ｋｏｃｏ‐ｋａｒａ,,その他の設立登記法人,神奈川県,鎌倉市,鎌倉山１丁目２０番６号,,14,204,2480031,,,,,,,2022-10-12,1,,,,,ココカラ,0
1984,7030001150413,新規,0,2022-10-12,2022-10-12,株式会社Ｔｉｄｙ,,株式会社,埼玉県,ふじみ野市,鶴ケ岡１丁目１７番１０号高山マンション３０９,,11,245,3560045,,,,,,,2022-10-12,1,,,,,タイディ,0
1985,7030001150520,新規,0,2022-10-12,2022-10-12,株式会社ＲＩＣ,,株式会社,埼玉県,さいたま市緑区,東浦和３丁目７番地１６,,11,109,3360926,,,,,,,2022-10-12,1,,,,,アールアイシー,0
1987,7030003020325,新規,0,2022-10-12,2022-10-12,ＦＡＭＩＬＹ　ＣＡＭＰＵＳ合同会社,,合同会社,埼玉県,所沢市,けやき台２丁目４６番地の３,,11,208,3591118,,,,,,,2022-10-12,1,,,,,ファミリーキャンパス,0
1988,7030003020374,新規,0,2022-10-12,2022-10-12,ＮＵＷＡ　ＴＲＡＤＩＮＧ合同会社,,合同会社,埼玉県,熊谷市,四方寺字長安寺４０３,,11,202,3600006,,,,,,,2022-10-12,1,,,,,ヌワトレーディング,0
1989,7030003020390,新規,0,2022-10-12,2022-10-12,合同会社インフィニティ,,合同会社,埼玉県,蕨市,中央７丁目２２番６号,,11,223,3350004,,,,,,,2022-10-12,1,,,,,インフィニティ,0
1993,7040001125372,新規,0,2022-10-12,2022-10-12,株式会社Ｔｅｃｈｎｉｃａｌ　Ａｒｔ,,株式会社,千葉県,野田市,清水４９４番地の２５,,12,208,2780043,,,,,,,2022-10-12,1,,,,,テクニカルアート,0
1994,7040001125397,新規,0,2022-10-12,2022-10-12,株式会社ＹＵ‐ＫＩ,,株式会社,千葉県,千葉市若葉区,金親町５２７番地６７,,12,104,2640001,,,,,,,2022-10-12,1,,,,,ユーキ,0
1995,7040001125406,新規,0,2022-10-12,2022-10-12,株式会社ＧＲＯＷ　ＡＩＤ,,株式会社,千葉県,柏市,西原７丁目４番１号,,12,217,2770885,,,,,,,2022-10-12,1,,,,,グロウエイド,0
2007,7050001051782,新規,0,2022-10-12,2022-10-12,株式会社愛,,株式会社,茨城県,坂東市,鵠戸１２５０番地１０,,08,228,3060641,,,,,,,2022-10-12,1,,,,,メグミ,0
2008,7050001051799,新規,0,2022-10-12,2022-10-12,株式会社グリーンホワイト,,株式会社,茨城県,守谷市,みずき野２丁目７番地１号,,08,224,3020121,,,,,,,2022-10-12,1,,,,,グリーンホワイト,0
2019,7090001017805,新規,0,2022-10-12,2022-10-12,増富養蜂株式会社,,株式会社,山梨県,北杜市,須玉町比志６０７５,,19,209,4080102,,,,,,,2022-10-12,1,,,,,マストミヨウホウ,0
2023,7100005012924,新規,0,2022-10-12,2022-10-12,一般社団法人信州須坂観光協会,,その他の設立登記法人,長野県,須坂市,大字須坂１２９５番地１シルキービル２階,,20,207,3820000,,,,,,,2022-10-12,1,,,,,シンシュウスザカカンコウキョウカイ,0
2026,7110001037032,新規,0,2022-10-12,2022-10-12,株式会社あいをん,,株式会社,新潟県,村上市,羽黒口６番１６号,,15,212,9580836,,,,,,,2022-10-12,1,,,,,アイヲン,0
2027,7110001037040,新規,0,2022-10-12,2022-10-12,ユーズドセンター株式会社,,株式会社,新潟県,新潟市中央区,鳥屋野３２５番地,,15,103,9500951,,,,,,,2022-10-12,1,,,,,ユーズドセンター,0
2047,7120001249386,新規,0,2022-10-12,2022-10-12,ＺｉＬ株式会社,,株式会社,大阪府,枚方市,楠葉美咲３丁目１９番１０－７０７号,,27,210,5731112,,,,,,,2022-10-12,1,,,,,ジル,0
2051,7120003022626,新規,0,2022-10-12,2022-10-12,ＢＡＯ‐ＧＯ合同会社,,合同会社,大阪府,大阪市浪速区,湊町２丁目２番５リバーガーデン５０１号,,27,111,5560017,,,,,,,2022-10-12,1,,,,,バオーゴー,0
2052,7120005023242,新規,0,2022-10-12,2022-10-12,市南社会保険労務士法人,,その他の設立登記法人,大阪府,大阪市北区,梅田２丁目６番２０号,,27,127,5300001,,,,,,,2022-10-12,1,,,,,イチミナミ,0
2054,7120101066343,新規,0,2022-10-12,2022-10-12,株式会社しろうちゃん,,株式会社,大阪府,堺市北区,中百舌鳥町６丁８７６番地,,27,146,5918023,,,,,,,2022-10-12,1,,,,,シロウチャン,0
2065,7130001072754,新規,0,2022-10-12,2022-10-12,株式会社トータルＧ,,株式会社,京都府,福知山市,かしの木台３丁目３８番地の３,,26,201,6200921,,,,,,,2022-10-12,1,,,,,トータルジー,0
2066,7130001072779,新規,0,2022-10-12,2022-10-12,萌永プラスチックス株式会社,,株式会社,京都府,宇治市,槇島町十一９５番地１３,,26,204,6110041,,,,,,,2022-10-12,1,,,,,ホウエイプラスチックス,0
2068,7130003008228,新規,0,2022-10-12,2022-10-12,合同会社千里企画,,合同会社,京都府,京都市下京区,麩屋町通五条上る下鱗形町５４１番地,,26,106,6008059,,,,,,,2022-10-12,1,,,,,チサトキカク,0
2069,7130003008236,新規,0,2022-10-12,2022-10-12,ゆう合同会社,,合同会社,京都府,京都市伏見区,向島鷹場町１３０番地２,,26,109,6128133,,,,,,,2022-10-12,1,,,,,ユウ,0
2070,7130003008252,新規,0,2022-10-12,2022-10-12,合同会社ｙａｎａｓａｎ,,合同会社,京都府,宮津市,字上司１３３４番地,,26,205,6260074,,,,,,,2022-10-12,1,,,,,ヤナサン,0
2074,7140001127648,新規,0,2022-10-12,2022-10-12,株式会社掌,,株式会社,兵庫県,西宮市,本町１１－１８２Ｆ,,28,204,6620914,,,,,,,2022-10-12,1,,,,,タナゴコロ,0
2075,7140001127680,新規,0,2022-10-12,2022-10-12,朝詠株式会社,,株式会社,兵庫県,宍粟市,一宮町生栖字八代１４３番,,28,227,6714123,,,,,,,2022-10-12,1,,,,,トモナガ,0
2076,7140001127689,新規,0,2022-10-12,2022-10-12,株式会社Ｓｈｉｒｏｉｔｏ,,株式会社,兵庫県,神戸市灘区,倉石通３丁目１番１８－４０４号,,28,102,6570826,,,,,,,2022-10-12,1,,,,,シロイト,0
2079,7140003018226,新規,0,2022-10-12,2022-10-12,ＫＡＮＡＵ合同会社,,合同会社,兵庫県,神戸市北区,広陵町１丁目１３５番地,,28,109,6511213,,,,,,,2022-10-12,1,,,,,カナウ,0
2081,7150001025867,新規,0,2022-10-12,2022-10-12,株式会社ＣＡＭＰＥＯＮ,,株式会社,奈良県,生駒郡三郷町,立野南２丁目７番６号,,29,343,6360822,,,,,,,2022-10-12,1,,,,,カンペオン,0
2082,7150001025875,新規,0,2022-10-12,2022-10-12,株式会社スポーツイケジマ,,株式会社,奈良県,北葛城郡広陵町,大字三吉１４７番地２,,29,426,6350823,,,,,,,2022-10-12,1,,,,,スポーツイケジマ,0
2086,7160003002698,新規,0,2022-10-12,2022-10-12,合同会社居宅介護支援事業所一念,,合同会社,滋賀県,大津市,仰木の里４丁目１３番４－１０２号,,25,201,5200246,,,,,,,2022-10-12,1,,,,,キョタクカイゴシエンジギョウショイチネン,0
2096,7180003024352,新規,0,2022-10-12,2022-10-12,合同会社Ｔｒａｍｏｎｔ,,合同会社,愛知県,長久手市,杁ケ池７０３番地,,23,238,4801116,,,,,,,2022-10-12,1,,,,,トラモント,0
2098,7180303005449,新規,0,2022-10-12,2022-10-12,合同会社Ｒｅｇａｌｏ,,合同会社,愛知県,豊橋市,草間町字二本松７７番地グリシーヌ草間１０２,,23,201,4418141,,,,,,,2022-10-12,1,,,,,レガーロ,0
2100,7190001029831,新規,0,2022-10-12,2022-10-12,株式会社カワデン,,株式会社,三重県,津市,小舟９０４番地７６,,24,201,5140072,,,,,,,2022-10-12,1,,,,,カワデン,0
2103,7200001040530,新規,0,2022-10-12,2022-10-12,凡子文株式会社,,株式会社,岐阜県,岐阜市,大洞１丁目１番１６酒向第二ビル１０３号室,,21,201,5013124,,,,,,,2022-10-12,1,,,,,ハンスモン,0
2104,7200003005705,新規,0,2022-10-12,2022-10-12,順天堂合同会社,,合同会社,岐阜県,山県市,大森１８３番地５,,21,215,5012123,,,,,,,2022-10-12,1,,,,,ジュンテンドウ,0
2111,7240001060491,新規,0,2022-10-12,2022-10-12,株式会社コムレイズ,,株式会社,広島県,広島市西区,中広町２丁目４番３号,,34,104,7330012,,,,,,,2022-10-12,1,,,,,コムレイズ,0
2112,7250001019801,新規,0,2022-10-12,2022-10-12,株式会社エムゼック,,株式会社,山口県,下松市,瑞穂町３丁目９番１０号Ｐａｅ・ｇａｎｅミズホＢ１０５号,,35,207,7440075,,,,,,,2022-10-12,1,,,,,エムゼック,0
2114,7260001037273,新規,0,2022-10-12,2022-10-12,株式会社ＳＵＮＤＡＹ,,株式会社,岡山県,倉敷市,茶屋町１５９５,,33,202,7101101,,,,,,,2022-10-12,1,,,,,サンデー,0
2115,7260005011150,新規,0,2022-10-12,2022-10-12,一般財団法人英田エンジニアリング育英財団,,その他の設立登記法人,岡山県,美作市,三保原６７８番地,,33,215,7012603,,,,,,,2022-10-12,1,,,,,アイダエンジニアリングイクエイザイダン,0
2123,7290001099179,新規,0,2022-10-12,2022-10-12,ＡＩＲＡ　ｅｎｔｅｒｔａｉｎｍｅｎｔ株式会社,,株式会社,福岡県,糟屋郡粕屋町,大字仲原２５２８－９ジュネスパラシオン豊原２号館６０１号,,40,349,8112304,,,,,,,2022-10-12,1,,,,,アイラエンターテインメント,0
2126,7290003013039,新規,0,2022-10-12,2022-10-12,合同会社ＫＢＧ　ｆａｍ．,,合同会社,福岡県,福岡市早良区,東入部８丁目２７－６－２,,40,137,8111102,,,,,,,2022-10-12,1,,,,,ケービージーファム,0
2132,7320001019372,新規,0,2022-10-12,2022-10-12,株式会社ＬＩＮＧＯＮ,,株式会社,大分県,由布市,湯布院町川上１５１０番地７,,44,213,8795102,,,,,,,2022-10-12,1,,,,,リンゴン,0
2138,7330005010566,新規,0,2022-10-12,2022-10-12,医療法人くるる,,その他の設立登記法人,熊本県,玉名市,築地５番１,,43,206,8650065,,,,,,,2022-10-12,1,,,,,クルル,0
2149,7360001031051,新規,0,2022-10-12,2022-10-12,株式会社アルク沖縄,,株式会社,沖縄県,那覇市,銘苅２丁目３番１号,,47,201,9000004,,,,,,,2022-10-12,1,,,,,アルクオキナワ,0
2150,7360001031068,新規,0,2022-10-12,2022-10-12,株式会社本町通り不動産,,株式会社,沖縄県,宜野湾市,普天間１丁目１０番７号,,47,205,9012202,,,,,,,2022-10-12,1,,,,,ホンマチトオリフドウサン,0
2153,7360003012363,新規,0,2022-10-12,2022-10-12,合同会社仲程興業,,合同会社,沖縄県,豊見城市,字豊見城１００４番地１ウィングシャトー豊見城プロムナード３０３号,,47,212,9010241,,,,,,,2022-10-12,1,,,,,ナカホドコウギョウ,0
2155,7360005006727,新規,0,2022-10-12,2022-10-12,医療法人ココナッツ会,,その他の設立登記法人,沖縄県,那覇市,前島３丁目２１番１８号スプレットエム２階・３階,,47,201,9000016,,,,,,,2022-10-12,1,,,,,ココナッツカイ,0
2158,7370001049134,新規,0,2022-10-12,2022-10-12,ひろよし商会株式会社,,株式会社,宮城県,気仙沼市,長磯森３５番地１,,04,205,9880227,,,,,,,2022-10-12,1,,,,,ヒロヨシショウカイ,0
2161,7380001033178,新規,0,2022-10-12,2022-10-12,株式会社ａｍａｋａｓａ不動産,,株式会社,福島県,郡山市,八山田３丁目１番地イーストピアハイツ１０５号室,,07,203,9638052,,,,,,,2022-10-12,1,,,,,アマカサフドウサン,0
2169,7430001087656,新規,0,2022-10-12,2022-10-12,ＮＩＳＥＫＯ　ＳＰＯＲＴＳ　ＣＬＩＮＩＣ株式会社,,株式会社,北海道,虻田郡倶知安町,字山田１９５番地１綾ニセコ２Ｆ,,01,400,0440081,,,,,,,2022-10-12,1,,,,,ニセコスポーツクリニック,0
2174,7460101007263,新規,0,2022-10-12,2022-10-12,株式会社インフィニット１６８,,株式会社,北海道,中川郡池田町,字利別西町３０番地の１,,01,644,0830031,,,,,,,2022-10-12,1,,,,,インフィニットイチロクハチ,0
2175,7470001019291,新規,0,2022-10-12,2022-10-12,株式会社ポートリーフＨＤ,,株式会社,香川県,高松市,香西南町５１２番地１０,,37,201,7618014,,,,,,,2022-10-12,1,,,,,ポートリーフホールディングス,0
2186,8010001230034,新規,0,2022-10-12,2022-10-12,ＳＩ株式会社,,株式会社,東京都,千代田区,九段南１丁目５－６,,13,101,1020074,,,,,,,2022-10-12,1,,,,,シー,0
2187,8010001230042,新規,0,2022-10-12,2022-10-12,株式会社ギョクダリ,,株式会社,東京都,中央区,日本橋蠣殻町二丁目３番４号,,13,102,1030000,,,,,,,2022-10-12,1,,,,,ギョクダリ,0
2188,8010001230075,新規,0,2022-10-12,2022-10-12,株式会社湯村泰成建築設計事務所,,株式会社,東京都,千代田区,神田三崎町２丁目２０－１石川ビル,,13,101,1010061,,,,,,,2022-10-12,1,,,,,ユムラタイセイケンチクセッケイジムショ,0
2194,8010005035652,新規,0,2022-10-12,2022-10-12,一般社団法人フォルモサ太陽光,,その他の設立登記法人,東京都,千代田区,内幸町１丁目３番３号内幸町ダイビル,,13,101,1000011,,,,,,,2022-10-12,1,,,,,フォルモサタイヨウコウ,0
2201,8010401170202,新規,0,2022-10-12,2022-10-12,株式会社ＤＡＣ,,株式会社,東京都,港区,港南２丁目２番９号,,13,103,1080075,,,,,,,2022-10-12,1,,,,,ディーエーシー,0
2202,8010401170219,新規,0,2022-10-12,2022-10-12,株式会社Ｍｅｄ３．０,,株式会社,東京都,港区,南青山１丁目１２番３号ＬＩＦＯＲＫ南青山ＮｏｒｔｈＢｕｉｌｄｉｎｇ２Ｆ,,13,103,1070062,,,,,,,2022-10-12,1,,,,,メドスリー,0
2203,8010401170227,新規,0,2022-10-12,2022-10-12,サラトガジャパン株式会社,,株式会社,東京都,港区,麻布十番２丁目７番５号,,13,103,1060045,,,,,,,2022-10-12,1,,,,,サラトガジャパン,0
2205,8010403028613,新規,0,2022-10-12,2022-10-12,山吹合同会社,,合同会社,東京都,港区,西新橋１丁目１番１号ＥＰコンサルティングサービス内,,13,103,1050003,,,,,,,2022-10-12,1,,,,,ヤマブキ,0
2215,8010901051760,新規,0,2022-10-12,2022-10-12,株式会社ｈａｎａｓｕｎ,,株式会社,東京都,世田谷区,梅丘１丁目１７番１０号,,13,112,1540022,,,,,,,2022-10-12,1,,,,,ハナサン,0
2216,8010901051777,新規,0,2022-10-12,2022-10-12,株式会社ＮＵ,,株式会社,東京都,世田谷区,深沢４丁目３６番１４号深沢パークコートＩＩ２０１,00128098,13,112,1580081,,,,,,,2022-10-12,1,,,,,ヌー,0
2217,8010903007711,新規,0,2022-10-12,2022-10-12,合同会社ＳＡＮＤ,,合同会社,東京都,世田谷区,松原１丁目４９番２号グランパセオ明大前ＩＩＩ２０４,00128097,13,112,1560043,,,,,,,2022-10-12,1,,,,,サンド,0
2221,8011001150180,新規,0,2022-10-12,2022-10-12,株式会社ＢＩＧＧＡ,,株式会社,東京都,渋谷区,神宮前６丁目２３番４号,,13,113,1500001,,,,,,,2022-10-12,1,,,,,ビッガ,0
2224,8011003015489,新規,0,2022-10-12,2022-10-12,ｃｌａｉｒｃｈａｎｔ合同会社,,合同会社,東京都,渋谷区,道玄坂１丁目１２－１渋谷マークシティーＷ２２階,,13,113,1500043,,,,,,,2022-10-12,1,,,,,クレアチャント,0
2225,8011003015497,新規,0,2022-10-12,2022-10-12,フェムトグロース・ワン合同会社,,合同会社,東京都,渋谷区,神宮前５丁目５３番６７号,,13,113,1500001,,,,,,,2022-10-12,1,,,,,フェムトグロースワン,0
2226,8011003015514,新規,0,2022-10-12,2022-10-12,合同会社サンウィンズ,,合同会社,東京都,渋谷区,道玄坂２丁目２０番７－２０２号,,13,113,1500043,,,,,,,2022-10-12,1,,,,,サンウィンズ,0
2238,8011501028546,新規,0,2022-10-12,2022-10-12,株式会社Ｃｈｅｅｒ　Ｈａｎｄ,,株式会社,東京都,北区,豊島８丁目２番１２号,,13,117,1140003,,,,,,,2022-10-12,1,,,,,チアハンド,0
2239,8011503005312,新規,0,2022-10-12,2022-10-12,合同会社富澤堂,,合同会社,東京都,荒川区,東尾久２丁目１７番１４号共栄第１０コーポ１Ｆ,,13,118,1160012,,,,,,,2022-10-12,1,,,,,トミザワドウ,0
2247,8012801021892,新規,0,2022-10-12,2022-10-12,株式会社ＷｏｎＴｈｅＦｕｌｌ,,株式会社,東京都,日野市,三沢１５１１番地の１デューメゾンＢ,,13,212,1910032,,,,,,,2022-10-12,1,,,,,ウォンダフル,0
2249,8012803002899,新規,0,2022-10-12,2022-10-12,合同会社アイティーオー,,合同会社,東京都,国分寺市,戸倉４丁目３番地１００,,13,214,1850003,,,,,,,2022-10-12,1,,,,,アイティーオー,0
2263,8020003022528,新規,0,2022-10-12,2022-10-12,合同会社Ｂａｒｏｑｕｅ,,合同会社,神奈川県,横浜市保土ケ谷区,権太坂１丁目１０番６号ロマーノ・Ｍハウス１０１号,,14,106,2400026,,,,,,,2022-10-12,1,,,,,バロック,0
2264,8020003022544,新規,0,2022-10-12,2022-10-12,Ｒｉｎｎｏ．Ｌａｂ合同会社,,合同会社,神奈川県,川崎市高津区,下作延７丁目２４－１５－２,,14,134,2130033,,,,,,,2022-10-12,1,,,,,リンノラボ,0
2281,8030001150503,新規,0,2022-10-12,2022-10-12,ブルーハウス建設株式会社,,株式会社,埼玉県,さいたま市中央区,上落合３丁目１番２６号,,11,105,3380001,,,,,,,2022-10-12,1,,,,,ブルーハウスケンセツ,0
2282,8030001150511,新規,0,2022-10-12,2022-10-12,株式会社さかもと,,株式会社,埼玉県,大里郡寄居町,大字鉢形４５３番地１,,11,408,3691224,,,,,,,2022-10-12,1,,,,,サカモト,0
2283,8030001150560,新規,0,2022-10-12,2022-10-12,株式会社正義,,株式会社,埼玉県,和光市,白子３丁目５番２号,,11,229,3510101,,,,,,,2022-10-12,1,,,,,マサヨシ,0
2284,8030003020365,新規,0,2022-10-12,2022-10-12,合同会社ＳＯＲＡＭＡ,,合同会社,埼玉県,鴻巣市,屈巣３６６９番地４,,11,217,3650014,,,,,,,2022-10-12,1,,,,,ソラマ,0
2285,8030003020373,新規,0,2022-10-12,2022-10-12,合同会社ファースト,,合同会社,埼玉県,上尾市,愛宕３丁目１３番６号,,11,219,3620034,,,,,,,2022-10-12,1,,,,,ファースト,0
2292,8040003021008,新規,0,2022-10-12,2022-10-12,合同会社アルファライフプラス,,合同会社,千葉県,船橋市,馬込西１丁目３－１エレガンスビル１Ｆ,,12,204,2730855,,,,,,,2022-10-12,1,,,,,アルファライフプラス,0
2293,8040003021024,新規,0,2022-10-12,2022-10-12,寿防災設備合同会社,,合同会社,千葉県,白井市,冨士６８－１２４,,12,232,2701432,,,,,,,2022-10-12,1,,,,,コトブキボウサイセツビ,0
2306,8060003004266,新規,0,2022-10-12,2022-10-12,合同会社ＹＥＣ,,合同会社,栃木県,那須郡那珂川町,久那瀬８７２番地,,09,411,3240614,,,,,,,2022-10-12,1,,,,,ワイイーシー,0
2307,8060005010023,新規,0,2022-10-12,2022-10-12,医療法人クローバー,,その他の設立登記法人,栃木県,宇都宮市,一条２丁目９番２９号,,09,201,3200821,,,,,,,2022-10-12,1,,,,,クローバー,0
2310,8070001039726,新規,0,2022-10-12,2022-10-12,ＪＵＮＡ株式会社,,株式会社,群馬県,高崎市,日高町１３３５－２,,10,202,3700002,,,,,,,2022-10-12,1,,,,,ジュナ,0
2314,8080003002887,新規,0,2022-10-12,2022-10-12,合同会社ももはな,,合同会社,静岡県,島田市,河原２丁目１７番地２号,,22,209,4270037,,,,,,,2022-10-12,1,,,,,モモハナ,0
2323,8100003006720,新規,0,2022-10-12,2022-10-12,アンテリュール合同会社,,合同会社,長野県,小県郡長和町,大門３５１８－２５２０,,20,350,3860601,,,,,,,2022-10-12,1,,,,,アンテリュール,0
2325,8110003004888,新規,0,2022-10-12,2022-10-12,ｇｒｏｏｔ合同会社,,合同会社,新潟県,新潟市中央区,米山５丁目１１番２２号,,15,103,9500916,,,,,,,2022-10-12,1,,,,,ジールート,0
2333,8110005016865,新規,0,2022-10-12,2022-10-12,社会福祉法人愛郷会,,その他の設立登記法人,新潟県,魚沼市,穴沢２５番地,,15,225,9460304,,,,,,,2022-10-12,1,,,,,アイキョウカイ,0
2344,8120001249360,新規,0,2022-10-12,2022-10-12,株式会社ＭＹＳ,,株式会社,大阪府,大阪市北区,梅田１丁目２番２号大阪駅前第２ビル１０階,,27,127,5300001,,,,,,,2022-10-12,1,,,,,エムワイエス,0
2345,8120001249393,新規,0,2022-10-12,2022-10-12,株式会社新坂工建,,株式会社,大阪府,大阪市西区,九条南４丁目５番１９号,,27,106,5500025,,,,,,,2022-10-12,1,,,,,ニイサカコウケン,0
2346,8120001249410,新規,0,2022-10-12,2022-10-12,株式会社マルタビケン,,株式会社,大阪府,大阪市西成区,長橋３丁目４番３号,,27,122,5570025,,,,,,,2022-10-12,1,,,,,マルタビケン,0
2347,8120001249575,新規,0,2022-10-12,2022-10-12,株式会社エイエムエイ,,株式会社,大阪府,大阪市東住吉区,杭全２丁目８番１７号,,27,121,5460002,,,,,,,2022-10-12,1,,,,,エイエムエイ,0
2351,8120003022617,新規,0,2022-10-12,2022-10-12,合同会社旭興産,,合同会社,大阪府,大阪市西区,北堀江４丁目１４番１号,,27,106,5500014,,,,,,,2022-10-12,1,,,,,アサヒコウサン,0
2352,8120003022625,新規,0,2022-10-12,2022-10-12,合同会社シロズコンサルティング,,合同会社,大阪府,大阪市大正区,平尾５丁目１番１号,,27,108,5510012,,,,,,,2022-10-12,1,,,,,シロズコンサルティング,0
2353,8120003022633,新規,0,2022-10-12,2022-10-12,合同会社ぽんぽこ,,合同会社,大阪府,門真市,新橋町２４番３号,,27,223,5710048,,,,,,,2022-10-12,1,,,,,ポンポコ,0
2355,8120005023241,新規,0,2022-10-12,2022-10-12,大陽協同組合,,その他の設立登記法人,大阪府,門真市,垣内町５－２,,27,223,5710065,,,,,,,2022-10-12,1,,,,,タイヨウ,0
2359,8120101066359,新規,0,2022-10-12,2022-10-12,株式会社クレスト,,株式会社,大阪府,泉北郡忠岡町,馬瀬１丁目２番２６号,,27,341,5950804,,,,,,,2022-10-12,1,,,,,,0
2362,8120901046601,新規,0,2022-10-12,2022-10-12,株式会社ｎｉｎｅ　ｆｏｒ,,株式会社,大阪府,豊中市,玉井町３丁目８番１５号玉井町ＧａｒａｇｅＨｏｕｓｅＡ号室,,27,203,5600026,,,,,,,2022-10-12,1,,,,,ナインフォー,0
2368,8130001072761,新規,0,2022-10-12,2022-10-12,株式会社ぶあい荘,,株式会社,京都府,京都市右京区,嵯峨朝日町６番地,,26,108,6168343,,,,,,,2022-10-12,1,,,,,ブアイソウ,0
2369,8130001072778,新規,0,2022-10-12,2022-10-12,株式会社ＢＯＮＶＯ,,株式会社,京都府,京都市中京区,壬生賀陽御所町８７番地２グランベール壬生３０３号室,,26,104,6048811,,,,,,,2022-10-12,1,,,,,ボンボ,0
2370,8130001072794,新規,0,2022-10-12,2022-10-12,ハナリレーションズ株式会社,,株式会社,京都府,京都市左京区,下鴨宮崎町１１９－１,,26,103,6060802,,,,,,,2022-10-12,1,,,,,ハナリレーションズ,0
2379,8140001127639,新規,0,2022-10-12,2022-10-12,株式会社Ｊｏｒ,,株式会社,兵庫県,三田市,高次２丁目１７番８号高次ビル１０１,,28,219,6691512,,,,,,,2022-10-12,1,,,,,ヨル,0
2380,8140001127647,新規,0,2022-10-12,2022-10-12,株式会社ホリケホールディングス,,株式会社,兵庫県,神戸市中央区,栄町通５丁目１番３号,,28,110,6500023,,,,,,,2022-10-12,1,,,,,ホリケホールディングス,0
2381,8140001127671,新規,0,2022-10-12,2022-10-12,信騰株式会社,,株式会社,兵庫県,神戸市兵庫区,福原町８－４,,28,105,6520036,,,,,,,2022-10-12,1,,,,,シントウ,0
2382,8140001127688,新規,0,2022-10-12,2022-10-12,エイト株式会社,,株式会社,兵庫県,尼崎市,南塚口町４丁目２番２０－３０３号,,28,202,6610012,,,,,,,2022-10-12,1,,,,,エイト,0
2385,8140003018233,新規,0,2022-10-12,2022-10-12,合同会社Ｌｅｅ,,合同会社,兵庫県,神戸市灘区,篠原本町２丁目３番９号,,28,102,6570067,,,,,,,2022-10-12,1,,,,,リ,0
2388,8140005026341,新規,0,2022-10-12,2022-10-12,協同組合芦屋濾風会,00128107,その他の設立登記法人,兵庫県,芦屋市,上宮川町２番１０号,,28,206,6590061,,,,,,,2022-10-12,1,,,,,アシヤロフウカイ,0
2390,8150001025874,新規,0,2022-10-12,2022-10-12,株式会社Ｆ企画,,株式会社,奈良県,奈良市,法蓮町９３９番地の２,,29,201,6308113,,,,,,,2022-10-12,1,,,,,エフキカク,0
2394,8170001017317,新規,0,2022-10-12,2022-10-12,株式会社Ｕ．ＳＹＳＴＥＭ,,株式会社,和歌山県,新宮市,三輪崎２丁目１５番３８号,,30,207,6470061,,,,,,,2022-10-12,1,,,,,ユーシステム,0
2396,8170003001780,新規,0,2022-10-12,2022-10-12,合同会社Ｎフォルトゥーナ,,合同会社,和歌山県,橋本市,城山台３丁目４０番地５,,30,203,6480054,,,,,,,2022-10-12,1,,,,,エヌフォルトゥーナ,0
2408,8180303005464,新規,0,2022-10-12,2022-10-12,合同会社ＯＣＥＡＮＯ,,合同会社,愛知県,豊橋市,船渡町字高打場３１番地,,23,201,4418072,,,,,,,2022-10-12,1,,,,,オチェアーノ,0
2409,8190001029830,新規,0,2022-10-12,2022-10-12,株式会社カネカクリエイティブ,,株式会社,三重県,松阪市,鎌田町４１３番地５,,24,204,5150005,,,,,,,2022-10-12,1,,,,,カネカクリエイティブ,0
2411,8200003005704,新規,0,2022-10-12,2022-10-12,合同会社あおそら農園,,合同会社,岐阜県,海津市,南濃町田鶴３９８番地１５,,21,221,5030533,,,,,,,2022-10-12,1,,,,,アオソラノウエン,0
2415,8220001025082,新規,0,2022-10-12,2022-10-12,株式会社プラソウェル,,株式会社,石川県,河北郡津幡町,字越中坂ハ６６番地,,17,361,9290415,,,,,,,2022-10-12,1,,,,,プラソウェル,0
2426,8240001060490,新規,0,2022-10-12,2022-10-12,株式会社凛,,株式会社,広島県,広島市東区,馬木８丁目５２６番地７,,34,102,7320031,,,,,,,2022-10-12,1,,,,,リン,0
2432,8240005015474,新規,0,2022-10-12,2022-10-12,一般社団法人福山シティクラブ,,その他の設立登記法人,広島県,福山市,城見町２丁目１番２２号,,34,207,7200054,,,,,,,2022-10-12,1,,,,,フクヤマシティクラブ,0
2435,8250001019800,新規,0,2022-10-12,2022-10-12,株式会社野田工業,,株式会社,山口県,岩国市,立石町４丁目１番１４号,,35,208,7400011,,,,,,,2022-10-12,1,,,,,ノダコウギョウ,0
2437,8260001037297,新規,0,2022-10-12,2022-10-12,株式会社カーパサブル,,株式会社,岡山県,倉敷市,中島１２８１番地３,,33,202,7100803,,,,,,,2022-10-12,1,,,,,カーパサブル,0
2439,8270001008644,新規,0,2022-10-12,2022-10-12,株式会社ＡＱＵＡ　ＬＡＢ,,株式会社,鳥取県,鳥取市,吉方温泉３丁目５０６番地,,31,201,6800841,,,,,,,2022-10-12,1,,,,,アクアラボ,0
2446,8290001099194,新規,0,2022-10-12,2022-10-12,ＪＲ九州リージョナルデザイン株式会社,,株式会社,福岡県,福岡市博多区,博多駅前３丁目２５番２１号,,40,132,8120011,,,,,,,2022-10-12,1,,,,,ジェイアールキュウシュウリージョナルデザイン,0
2449,8290003013046,新規,0,2022-10-12,2022-10-12,合同会社ＮＵＶＩ,,合同会社,福岡県,福岡市中央区,赤坂２丁目２番１０－３０１号ダイナコート赤坂,,40,133,8100042,,,,,,,2022-10-12,1,,,,,ナビ,0
2450,8290003013054,新規,0,2022-10-12,2022-10-12,＿源合同会社,00128108,合同会社,福岡県,福岡市東区,唐原５丁目１－３,,40,131,8130001,,,,,,,2022-10-12,1,,,,,シンゲン,0
2453,8310003004463,新規,0,2022-10-12,2022-10-12,ジョイント企画合同会社,,合同会社,長崎県,西彼杵郡時津町,浦郷２７０番地３柳原ビル２階,,42,308,8512105,,,,,,,2022-10-12,1,,,,,,0
2454,8320001019371,新規,0,2022-10-12,2022-10-12,山翔株式会社,,株式会社,大分県,大分市,大字金谷迫１０７８番地,,44,201,8700879,,,,,,,2022-10-12,1,,,,,ヤマショー,0
2457,8330003009543,新規,0,2022-10-12,2022-10-12,合同会社エリミノ,,合同会社,熊本県,山鹿市,山鹿１７００－１,,43,208,8610501,,,,,,,2022-10-12,1,,,,,エリミノ,0
2462,8360001031050,新規,0,2022-10-12,2022-10-12,株式会社波商店,,株式会社,沖縄県,石垣市,美崎町８番地１５ラフォーレ石垣２Ｆ奥,,47,207,9070012,,,,,,,2022-10-12,1,,,,,ナミショウテン,0
2463,8360001031059,新規,0,2022-10-12,2022-10-12,アニマート・グループ北谷株式会社,,株式会社,沖縄県,中頭郡北谷町,北谷１丁目１１番地１８,,47,326,9040116,,,,,,,2022-10-12,1,,,,,アニマートグループチャタン,0
2476,8430001087589,新規,0,2022-10-12,2022-10-12,株式会社美城設備工業,,株式会社,北海道,江別市,あさひが丘４０番地の１３,,01,217,0690826,,,,,,,2022-10-12,1,,,,,ミシロセツビコウギョウ,0
2477,8430001087639,新規,0,2022-10-12,2022-10-12,株式会社ぐぅ,,株式会社,北海道,札幌市北区,屯田四条５丁目１４番１８号,,01,102,0020854,,,,,,,2022-10-12,1,,,,,グゥ,0
2479,8430003014343,新規,0,2022-10-12,2022-10-12,合同会社藝術共学舎,,合同会社,北海道,石狩郡当別町,太美町２６番地６６,,01,303,0613776,,,,,,,2022-10-12,1,,,,,ゲイジュツキョウガクシャ,0
2483,8460101007262,新規,0,2022-10-12,2022-10-12,株式会社ＬＱサービス,,株式会社,北海道,帯広市,西十三条北８丁目３番地６,,01,207,0800043,,,,,,,2022-10-12,1,,,,,エルキューサービス,0
2485,8470001019290,新規,0,2022-10-12,2022-10-12,西讃荷役株式会社,,株式会社,香川県,善通寺市,稲木町１３０５番地１,,37,204,7650022,,,,,,,2022-10-12,1,,,,,セイサンニヤク,0
2497,9010001230082,新規,0,2022-10-12,2022-10-12,株式会社ＫＰＭＧアドバイザリーライトハウス,,株式会社,東京都,千代田区,大手町１丁目９番５号,,13,101,1000004,,,,,,,2022-10-12,1,,,,,ケーピーエムジーアドバイザリーライトハウス,0
2498,9010001230090,新規,0,2022-10-12,2022-10-12,文京住建株式会社,,株式会社,東京都,文京区,白山４丁目５番１０号,,13,105,1120001,,,,,,,2022-10-12,1,,,,,ブンキョウジュウケン,0
2499,9010001230108,新規,0,2022-10-12,2022-10-12,株式会社ｏｃｃｕｐｈｙｓ,,株式会社,東京都,中央区,銀座１丁目１２番４号Ｎ＆ＥＢＬＤ．６Ｆ,,13,102,1040061,,,,,,,2022-10-12,1,,,,,オキュフィス,0
2500,9010003038846,新規,0,2022-10-12,2022-10-12,アサクラ・アンド・アソシエイツ合同会社,,合同会社,東京都,千代田区,永田町２丁目９番６号,,13,101,1000014,,,,,,,2022-10-12,1,,,,,アサクラアンドアソシエイツ,0
2514,9010401170226,新規,0,2022-10-12,2022-10-12,株式会社Ｇｒｅｅｎ　ａｎｄ　Ｂｒｏｗｎ,,株式会社,東京都,港区,芝公園２丁目３番２７号,,13,103,1050011,,,,,,,2022-10-12,1,,,,,グリーンアンドブラウン,0
2518,9010405021482,新規,0,2022-10-12,2022-10-12,江坂キャピタル一般社団法人,,その他の設立登記法人,東京都,港区,六本木１丁目６番１号泉ガーデンタワー,,13,103,1060032,,,,,,,2022-10-12,1,,,,,エサカキャピタル,0
2520,9010501049485,新規,0,2022-10-12,2022-10-12,丸ノ内堀切株式会社,,株式会社,東京都,台東区,蔵前４丁目３６番１４号,,13,106,1110051,,,,,,,2022-10-12,1,,,,,マルノウチホリキリ,0
2521,9010505003348,新規,0,2022-10-12,2022-10-12,フォルトゥーナ税理士法人,,その他の設立登記法人,東京都,台東区,浅草橋１丁目２８番３号,,13,106,1110053,,,,,,,2022-10-12,1,,,,,フォルトゥーナ,0
2522,9010601061919,新規,0,2022-10-12,2022-10-12,アールピーエムイービジネス株式会社,,株式会社,東京都,江東区,豊洲５丁目６番２９号,,13,108,1350061,,,,,,,2022-10-12,1,,,,,アールピーエムイービジネス,0
2528,9010705003437,新規,0,2022-10-12,2022-10-12,一般社団法人スタートアップ,,その他の設立登記法人,東京都,品川区,大井５丁目２１番９号,,13,109,1400014,,,,,,,2022-10-12,1,,,,,スタートアップ,0
2529,9010801033346,新規,0,2022-10-12,2022-10-12,株式会社Ｍｅｄｉａ　Ｔ．Ｋ,,株式会社,東京都,大田区,山王２丁目５番１３号,,13,111,1430023,,,,,,,2022-10-12,1,,,,,メディアティーケイ,0
2530,9010903007702,新規,0,2022-10-12,2022-10-12,合同会社Ｔｗｏ＆Ｆｏｕｒ,,合同会社,東京都,世田谷区,等々力３丁目３２番４号,,13,112,1580082,,,,,,,2022-10-12,1,,,,,トゥーアンドフォー,0
2540,9011001150188,新規,0,2022-10-12,2022-10-12,株式会社匠電工,,株式会社,東京都,渋谷区,笹塚３丁目３９番１１号,,13,113,1510073,,,,,,,2022-10-12,1,,,,,ショウデンコウ,0
2542,9011003015488,新規,0,2022-10-12,2022-10-12,合同会社Ｂｅｓｐｏｋｅ　Ｊａｐａｎ,,合同会社,東京都,渋谷区,神宮前６丁目２３番４号桑野ビル２階,,13,113,1500001,,,,,,,2022-10-12,1,,,,,ビスポークジャパン,0
2551,9011401024594,新規,0,2022-10-12,2022-10-12,ＰｏｉｎｔＦｉｖｅ株式会社,,株式会社,東京都,板橋区,大谷口上町８１番６号,,13,119,1730032,,,,,,,2022-10-12,1,,,,,ポイントファイブ,0
2552,9011501028545,新規,0,2022-10-12,2022-10-12,株式会社ＧＲＩＴ,,株式会社,東京都,北区,赤羽北２丁目１３番１５号エバーリビングイン赤羽北１０２号,,13,117,1150052,,,,,,,2022-10-12,1,,,,,グリット,0
2553,9011503005311,新規,0,2022-10-12,2022-10-12,合同会社はれのね,,合同会社,東京都,北区,岩淵町３８番２５－１２０３号,,13,117,1150041,,,,,,,2022-10-12,1,,,,,ハレノネ,0
2555,9011601026300,新規,0,2022-10-12,2022-10-12,株式会社ＴｏＷ‐ｉｎｄｕｓｔｒｙ,,株式会社,東京都,練馬区,田柄２丁目３５番２号コンフォート・田柄１０３,,13,120,1790073,,,,,,,2022-10-12,1,,,,,トーインダストリー,0
2559,9012401039698,新規,0,2022-10-12,2022-10-12,株式会社フライミー未来コンサルティング,,株式会社,東京都,武蔵野市,中町１丁目１９番１８号武蔵野センタービル,,13,203,1800006,,,,,,,2022-10-12,1,,,,,フライミーミライコンサルティング,0
2560,9012701017296,新規,0,2022-10-12,2022-10-12,株式会社東京イズミック,,株式会社,東京都,西東京市,緑町１丁目４番３号,,13,229,1880002,,,,,,,2022-10-12,1,,,,,トウキョウイズミック,0
2567,9013303006316,新規,0,2022-10-12,2022-10-12,合同会社Ｍｉｎｃｓ,,合同会社,東京都,豊島区,南池袋１丁目２２－２ＦＬＣビル９階,,13,116,1710022,,,,,,,2022-10-12,1,,,,,ミンクス,0
2578,9020001148407,新規,0,2022-10-12,2022-10-12,Ｆｏｍａｒｔ株式会社,,株式会社,神奈川県,横浜市旭区,万騎が原１３７,,14,112,2410836,,,,,,,2022-10-12,1,,,,,フォマート,0
2579,9020001148489,新規,0,2022-10-12,2022-10-12,おふろーど株式会社,,株式会社,神奈川県,横浜市瀬谷区,南瀬谷１丁目１６番地１１,,14,114,2460034,,,,,,,2022-10-12,1,,,,,オフロード,0
2580,9020001148514,新規,0,2022-10-12,2022-10-12,株式会社ｃｈｏｃｈｏ,,株式会社,神奈川県,川崎市高津区,溝口２丁目２７番４号,,14,134,2130001,,,,,,,2022-10-12,1,,,,,チョウチョ,0
2581,9020001148530,新規,0,2022-10-12,2022-10-12,横浜緑のみらい株式会社,,株式会社,神奈川県,横浜市都筑区,茅ケ崎東１丁目１７番５号,,14,118,2240033,,,,,,,2022-10-12,1,,,,,ヨコハマミドリノミライ,0
2589,9021001077166,新規,0,2022-10-12,2022-10-12,Ｌ＆Ｒ　ＫＡＭＡＫＵＲＡ株式会社,,株式会社,神奈川県,鎌倉市,御成町１１－２ヤノヤビル２Ｆ,,14,204,2480012,,,,,,,2022-10-12,1,,,,,エルアンドアールカマクラ,0
2596,9030001150502,新規,0,2022-10-12,2022-10-12,株式会社レノバハウス,,株式会社,埼玉県,川越市,大字石田２１２番地１４,,11,201,3500837,,,,,,,2022-10-12,1,,,,,レノバハウス,0
2597,9030001150519,新規,0,2022-10-12,2022-10-12,株式会社藤伸,,株式会社,埼玉県,川口市,大字前野宿２７３番地の１,,11,203,3340065,,,,,,,2022-10-12,1,,,,,トウシン,0
2598,9030001150527,新規,0,2022-10-12,2022-10-12,ＮＮＤ株式会社,,株式会社,埼玉県,さいたま市岩槻区,上里１丁目３－３６,,11,110,3390006,,,,,,,2022-10-12,1,,,,,エヌエヌディー,0
2601,9030003020356,新規,0,2022-10-12,2022-10-12,合同会社ＦＯＭＵＳ,,合同会社,埼玉県,坂戸市,本町３－３３,,11,239,3500226,,,,,,,2022-10-12,1,,,,,フォーマス,0
2602,9030003020372,新規,0,2022-10-12,2022-10-12,合同会社ＹＩＪＳ,,合同会社,埼玉県,さいたま市北区,日進町２丁目１９１６番地５－７０９,,11,102,3310823,,,,,,,2022-10-12,1,,,,,イージス,0
2603,9030003020380,新規,0,2022-10-12,2022-10-12,合同会社ひかり會計舎,,合同会社,埼玉県,入間郡毛呂山町,大字旭台７８番地４,,11,326,3500444,,,,,,,2022-10-12,1,,,,,ヒカリカイケイシャ,0
2604,9030003020389,新規,0,2022-10-12,2022-10-12,合同会社ＢＢＫ,,合同会社,埼玉県,川越市,大字山田１６８０番地１,,11,201,3500822,,,,,,,2022-10-12,1,,,,,ビービーケー,0
2608,9040001125370,新規,0,2022-10-12,2022-10-12,エムシーアセットマネジメント株式会社,,株式会社,千葉県,松戸市,二十世紀が丘萩町５５番地の５,,12,207,2710086,,,,,,,2022-10-12,1,,,,,エムシーアセットマネジメント,0
2609,9040001125395,新規,0,2022-10-12,2022-10-12,株式会社奏颯,,株式会社,千葉県,船橋市,習志野台５丁目３２－５－１Ｆ,,12,204,2740063,,,,,,,2022-10-12,1,,,,,カナデ,0
2610,9040001125412,新規,0,2022-10-12,2022-10-12,株式会社ＳＯＣＩＡＬ　ＧＲＥＥＮ　ＴＥＣＨ,,株式会社,千葉県,柏市,大津ケ丘３丁目１５－６,,12,217,2770921,,,,,,,2022-10-12,1,,,,,ソーシャルグリーンテック,0
2615,9040003020999,新規,0,2022-10-12,2022-10-12,ＡＴＡ合同会社,,合同会社,千葉県,浦安市,高洲７丁目１番１―１１１１号パークシティモアナヴィラ新浦安,,12,227,2790023,,,,,,,2022-10-12,1,,,,,エーティーエー,0
2616,9040003021007,新規,0,2022-10-12,2022-10-12,合同会社加藤不動産管理,,合同会社,千葉県,千葉市中央区,松波４丁目７番１０号,,12,101,2600044,,,,,,,2022-10-12,1,,,,,カトウフドウサンカンリ,0
2617,9040003021015,新規,0,2022-10-12,2022-10-12,Ｃ．Ｎ．Ｗ合同会社,,合同会社,千葉県,袖ケ浦市,蔵波台１丁目５番地３－２Ｆ,,12,229,2990245,,,,,,,2022-10-12,1,,,,,シーエヌダブリュー,0
2618,9040003021023,新規,0,2022-10-12,2022-10-12,合同会社モルスタ,,合同会社,千葉県,市川市,田尻５丁目５―１センテビル２―Ｂ,,12,203,2720014,,,,,,,2022-10-12,1,,,,,モルスタ,0
2621,9040005021764,新規,0,2022-10-12,2022-10-12,医療法人社団久遠会,,その他の設立登記法人,千葉県,松戸市,新松戸１丁目４８２番地松戸森谷ビル４階,,12,207,2700034,,,,,,,2022-10-12,1,,,,,クオンカイ,0
2629,9060003004265,新規,0,2022-10-12,2022-10-12,Ｓａｍｅｅｒａ　Ｅｎｔｅｒｐｒｉｓｅｓ合同会社,,合同会社,栃木県,佐野市,富士町６３９－１,,09,204,3270801,,,,,,,2022-10-12,1,,,,,サミーラエンタープライズ,0
2630,9060005010022,新規,0,2022-10-12,2022-10-12,一般社団法人ＲｅＮＡＳＵ,,その他の設立登記法人,栃木県,那須塩原市,青木１００５,,09,213,3250103,,,,,,,2022-10-12,1,,,,,リナス,0
2633,9070005010046,新規,0,2022-10-12,2022-10-12,ひふみ税理士法人,,その他の設立登記法人,群馬県,前橋市,北代田町７０４番地９,,10,201,3710055,,,,,,,2022-10-12,1,,,,,ヒフミ,0
2646,9080403004631,新規,0,2022-10-12,2022-10-12,合同会社ｓｏｍｅｐｌａｃｅ,,合同会社,静岡県,浜松市中区,広沢２丁目５０番２３号ＢｒｅｅｚｙＨｉｌｌ広沢ｗｅｓｔ,,22,131,4328013,,,,,,,2022-10-12,1,,,,,サムプレイス,0
2647,9090001017811,新規,0,2022-10-12,2022-10-12,株式会社ろばのせかい,,株式会社,山梨県,甲州市,勝沼町勝沼１１１６番地グレイス１１１６－１０５号室,,19,213,4091316,,,,,,,2022-10-12,1,,,,,ロバノセカイ,0
2652,9090003002183,新規,0,2022-10-12,2022-10-12,合同会社ＢＥクランニング,,合同会社,山梨県,大月市,御太刀１丁目１２番１３号,,19,206,4010012,,,,,,,2022-10-12,1,,,,,ビークランニング,0
2673,9120001249401,新規,0,2022-10-12,2022-10-12,イッセー工業株式会社,,株式会社,大阪府,門真市,五月田町１６番２３号,,27,223,5710027,,,,,,,2022-10-12,1,,,,,イッセーコウギョウ,0
2674,9120001249418,新規,0,2022-10-12,2022-10-12,株式会社ｗｅｌｌｓｕｉ,,株式会社,大阪府,大阪市阿倍野区,相生通１丁目５番１８号,,27,119,5450033,,,,,,,2022-10-12,1,,,,,ウェルスイ,0
2675,9120001249442,新規,0,2022-10-12,2022-10-12,株式会社グランパスＥ,,株式会社,大阪府,大阪市西区,北堀江１丁目３番７号,,27,106,5500014,,,,,,,2022-10-12,1,,,,,グランパスイー,0
2676,9120001249450,新規,0,2022-10-12,2022-10-12,株式会社ＭＯＰＳ,,株式会社,大阪府,大阪市中央区,南船場４丁目１０番５号南船場ＳＯＨＯビル７０２,,27,128,5420081,,,,,,,2022-10-12,1,,,,,モップス,0
2677,9120001249459,新規,0,2022-10-12,2022-10-12,株式会社前田青果,,株式会社,大阪府,大阪市生野区,巽南１丁目１番３４号,,27,116,5440015,,,,,,,2022-10-12,1,,,,,マエダセイカ,0
2691,9130001072777,新規,0,2022-10-12,2022-10-12,Ｉｎｓｐｉｒｅｄ　Ｍｉｃｒｏ　Ｃｒｙｓｔａｌｓ株式会社,,株式会社,京都府,京都市北区,小山下内河原町２７番地１,,26,101,6038132,,,,,,,2022-10-12,1,,,,,インスパイアードマイクロクリスタルズ,0
2692,9130001072802,新規,0,2022-10-12,2022-10-12,株式会社クローバー亀岡,,株式会社,京都府,亀岡市,篠町馬堀駅前１丁目５番１７号,,26,206,6210828,,,,,,,2022-10-12,1,,,,,クローバーカメオカ,0
2701,9140001127646,新規,0,2022-10-12,2022-10-12,株式会社ＲｕＴｉｌｅ,,株式会社,兵庫県,神戸市須磨区,菅の台７丁目２１番地の１,,28,107,6540143,,,,,,,2022-10-12,1,,,,,ルチル,0
2702,9140001127687,新規,0,2022-10-12,2022-10-12,株式会社ＯＷＬファクトリー,,株式会社,兵庫県,加古川市,野口町坂井４６－１－４０１,,28,210,6750015,,,,,,,2022-10-12,1,,,,,アウルファクトリー,0
2705,9140003018232,新規,0,2022-10-12,2022-10-12,合同会社アイワハウジング,,合同会社,兵庫県,姫路市,飾磨区下野田２丁目４２３番地２,,28,201,6728044,,,,,,,2022-10-12,1,,,,,アイワハウジング,0
2709,9150001025873,新規,0,2022-10-12,2022-10-12,株式会社ハイファイブ,,株式会社,奈良県,奈良市,西千代ヶ丘１丁目１２番３号,,29,201,6310046,,,,,,,2022-10-12,1,,,,,ハイファイブ,0
2725,9180005019968,新規,0,2022-10-12,2022-10-12,一般財団法人ＭＥＲＲＯ財団,,その他の設立登記法人,愛知県,名古屋市東区,東桜２丁目１７番２５号レジディア東桜ＩＩ８０４号,00128096,23,102,4610005,,,,,,,2022-10-12,1,,,,,メロウザイダン,0
2729,9180303005463,新規,0,2022-10-12,2022-10-12,合同会社みねさんリゾート,,合同会社,愛知県,安城市,福釜町里添８０番地６,,23,212,4460052,,,,,,,2022-10-12,1,,,,,ミネサンリゾート,0
2733,9200003005694,新規,0,2022-10-12,2022-10-12,合同会社Ｖｅｒｔｅｘ,,合同会社,岐阜県,多治見市,北丘町２丁目３６番地の３,,21,204,5070064,,,,,,,2022-10-12,1,,,,,バーテックス,0
2734,9200003005703,新規,0,2022-10-12,2022-10-12,ＡＳＡＨＩ国際合同会社,,合同会社,岐阜県,岐阜市,本郷町７丁目１３－１第３丸喜ビル２０１号,,21,201,5008302,,,,,,,2022-10-12,1,,,,,アサヒコクサイ,0
2746,9250001019799,新規,0,2022-10-12,2022-10-12,株式会社サンアール,,株式会社,山口県,岩国市,玖珂町４０５５番地１８,,35,208,7420344,,,,,,,2022-10-12,1,,,,,サンアール,0
2753,9260003004063,新規,0,2022-10-12,2022-10-12,合同会社ラ・シード,,合同会社,岡山県,岡山市中区,祇園５１７－２,00128089,33,102,7038207,,,,,,,2022-10-12,1,,,,,ラシード,0
2761,9290001099152,新規,0,2022-10-12,2022-10-12,牛販株式会社,,株式会社,福岡県,糟屋郡志免町,東公園台１丁目４番８号,,40,343,8112241,,,,,,,2022-10-12,1,,,,,ギュウハン,0
2762,9290001099177,新規,0,2022-10-12,2022-10-12,株式会社Ｊ‐ＴＥＣ,,株式会社,福岡県,福岡市東区,八田２丁目１７番１６号,,40,131,8130031,,,,,,,2022-10-12,1,,,,,ジェイテック,0
2766,9290003013037,新規,0,2022-10-12,2022-10-12,合同会社ＫＨ,,合同会社,福岡県,福岡市中央区,薬院４丁目１３番６２－１００１号,,40,133,8100022,,,,,,,2022-10-12,1,,,,,ケイエイチ,0
2770,9290801028962,新規,0,2022-10-12,2022-10-12,株式会社ＨＲＲ,,株式会社,福岡県,北九州市八幡西区,浅川学園台１丁目２番１号,,40,109,8070871,,,,,,,2022-10-12,1,,,,,エイチアールアール,0
2785,9360001031058,新規,0,2022-10-12,2022-10-12,株式会社果報樹,,株式会社,沖縄県,那覇市,若狭３丁目３３番３号２階,,47,201,9000031,,,,,,,2022-10-12,1,,,,,カフージュ,0
2786,9360005006725,新規,0,2022-10-12,2022-10-12,医療法人和宏会,,その他の設立登記法人,沖縄県,那覇市,銘苅１丁目１０番１２号,,47,201,9000004,,,,,,,2022-10-12,1,,,,,ワコウカイ,0
2802,9430003014342,新規,0,2022-10-12,2022-10-12,合同会社ふれあい・結,,合同会社,北海道,札幌市東区,北十五条東１３丁目１番２２－２０２号,,01,103,0650015,,,,,,,2022-10-12,1,,,,,フレアイユイ,0
2810,9460101007261,新規,0,2022-10-12,2022-10-12,株式会社ブレイク,,株式会社,北海道,河東郡音更町,字音更西３線８番地５２,,01,631,0800341,,,,,,,2022-10-12,1,,,,,ブレイク,0
