sequenceNumber,corporateNumber,process,correct,updateDate,changeDate,name,nameImageId,kind,prefectureName,cityName,streetNumber,addressImageId,prefectureCode,cityCode,postCode,addressOutside,addressOutsideImageId,closeDate,closeCause,successorCorporateNumber,changeCause,assignmentDate,latest,enName,enPrefectureName,enCityName,enAddressOutside,furigana,hihyoji
10,1010001257380,新規,0,2025-08-06,2025-08-06,人生アトリエ株式会社,,株式会社,東京都,中央区,銀座１丁目２２番１１号銀座大竹ビジデンス２階,,13,102,1040061,,,,,,,2025-08-06,1,,,,,ジンセイアトリエ,0
11,1010001257488,新規,0,2025-08-06,2025-08-06,株式会社ザモスキ・ワークス,,株式会社,東京都,中央区,京橋２丁目１１番７号５階,,13,102,1040031,,,,,,,2025-08-06,1,,,,,ザモスキワークス,0
14,1010003048225,新規,0,2025-08-06,2025-08-06,合同会社ＦＲＣ２,,合同会社,東京都,千代田区,霞が関３丁目２番５号,,13,101,1000013,,,,,,,2025-08-06,1,,,,,エフアールシーツー,0
15,1010003048274,新規,0,2025-08-06,2025-08-06,ＪＰＳＢ第２号合同会社,,合同会社,東京都,千代田区,霞が関３丁目２番１号,,13,101,1000013,,,,,,,2025-08-06,1,,,,,ジェイピーエスビーダイニゴウ,0
18,1010005040485,新規,0,2025-08-06,2025-08-06,一般社団法人日本職域栄養協会,,その他の設立登記法人,東京都,中央区,銀座１丁目１２番４号６階,,13,102,1040061,,,,,,,2025-08-06,1,,,,,ニホンショクイキエイヨウキョウカイ,0
19,1010005040493,新規,0,2025-08-06,2025-08-06,一般社団法人オルタナ３０,,その他の設立登記法人,東京都,千代田区,霞が関３丁目２番５号,,13,101,1000013,,,,,,,2025-08-06,1,,,,,オルタナサーティー,0
20,1010101016802,新規,0,2025-08-06,2025-08-06,Ｃｏｌｏｒ　Ｃｅｎｔｓ株式会社,,株式会社,東京都,八王子市,小比企町１９２２番地２０,,13,201,1930934,,,,,,,2025-08-06,1,,,,,カラーセンス,0
30,1010501054501,新規,0,2025-08-06,2025-08-06,健発株式会社,,株式会社,東京都,台東区,根岸３丁目２５番８号,,13,106,1100003,,,,,,,2025-08-06,1,,,,,ケンパツ,0
37,1010605004484,新規,0,2025-08-06,2025-08-06,特定非営利活動法人シフトエイティ,,その他の設立登記法人,東京都,江東区,木場３丁目１８番１７号－１階,,13,108,1350042,,,,,,,2025-08-06,1,,,,,シフトエイティ,0
43,1010801036471,新規,0,2025-08-06,2025-08-06,株式会社鳳栄,,株式会社,東京都,大田区,多摩川２丁目２４番６２－２－４０６号,,13,111,1460095,,,,,,,2025-08-06,1,,,,,ホウエイ,0
47,1010901057855,新規,0,2025-08-06,2025-08-06,株式会社フリンジ,,株式会社,東京都,世田谷区,池尻３丁目１番１－７０３号,,13,112,1540001,,,,,,,2025-08-06,1,,,,,フリンジ,0
48,1010901057871,新規,0,2025-08-06,2025-08-06,游貿堂株式会社,,株式会社,東京都,世田谷区,南烏山２丁目３５番２号ロカテラーザ２３０３,,13,112,1570062,,,,,,,2025-08-06,1,,,,,ユウボウドウ,0
55,1011001171068,新規,0,2025-08-06,2025-08-06,ドラテック株式会社,,株式会社,東京都,渋谷区,円山町５番３号ＭＩＥＵＸ渋谷ビル８階,,13,113,1500044,,,,,,,2025-08-06,1,,,,,ドラテック,0
57,1011103016146,新規,0,2025-08-06,2025-08-06,合同会社Ｇｏｉｎｇ舞ｗａｙ,,合同会社,東京都,新宿区,原町２丁目１２番地ノースウエストヒル６０４,,13,104,1620053,,,,,,,2025-08-06,1,,,,,ゴーイングマイウェイ,0
58,1011103016187,新規,0,2025-08-06,2025-08-06,合同会社ＯＨコンサルティング,,合同会社,東京都,新宿区,原町３丁目１５番地１プラウド新宿牛込柳町８０２,,13,104,1620053,,,,,,,2025-08-06,1,,,,,オーエイチコンサルティング,0
61,1011203004785,新規,0,2025-08-06,2025-08-06,合同会社ＥＮＯＳＣＯＵＴ,,合同会社,東京都,中野区,弥生町４丁目２番１５号,,13,114,1640013,,,,,,,2025-08-06,1,,,,,エノスカウト,0
66,1011602009468,新規,0,2025-08-06,2025-08-06,有限会社富士システム総合研究所,,有限会社,東京都,練馬区,下石神井６丁目４１番９号,,13,120,1770042,,,,,,,2025-08-06,1,,,,,フジシステムソウゴウケンキュウジョ,0
67,1011801046568,新規,0,2025-08-06,2025-08-06,株式会社ＳｙｅｅＤ,,株式会社,東京都,足立区,中央本町２丁目３番１１号グリーンパーク五反野７０４号室,,13,121,1200011,,,,,,,2025-08-06,1,,,,,エスイード,0
68,1012401043451,新規,0,2025-08-06,2025-08-06,株式会社ツナグ,,株式会社,東京都,府中市,新町１丁目５６番地の２三浦ビル２階,,13,206,1830052,,,,,,,2025-08-06,1,,,,,ツナグ,0
84,1020001164213,新規,0,2025-08-06,2025-08-06,ＥＨシステム株式会社,,株式会社,神奈川県,横浜市都筑区,北山田２丁目１５番２５号,,14,118,2240021,,,,,,,2025-08-06,1,,,,,エイシステム,0
92,1021001086001,新規,0,2025-08-06,2025-08-06,ライオンスリープ株式会社,,株式会社,神奈川県,逗子市,桜山８丁目１番３号グレイス桜山２０１,,14,208,2490005,,,,,,,2025-08-06,1,,,,,ライオンスリープ,0
93,1021003016286,新規,0,2025-08-06,2025-08-06,合同会社Ｇｏｎｏｅｎ,,合同会社,神奈川県,藤沢市,善行２丁目６－２グレープガーデン２０１,,14,205,2510871,,,,,,,2025-08-06,1,,,,,ゴノエン,0
94,1021003016377,新規,0,2025-08-06,2025-08-06,合同会社ＭＡＳＴ,,合同会社,神奈川県,藤沢市,菖蒲沢２２９－３,,14,205,2520823,,,,,,,2025-08-06,1,,,,,マスト,0
95,1021003016410,新規,0,2025-08-06,2025-08-06,合同会社クッピージャパン,,合同会社,神奈川県,座間市,東原１丁目１２番４ー１号,,14,216,2520004,,,,,,,2025-08-06,1,,,,,クッピージャパン,0
101,1030001167925,新規,0,2025-08-06,2025-08-06,株式会社ＣＯＤＥ,,株式会社,埼玉県,狭山市,入間川３丁目３３番６－３０２号,,11,215,3501305,,,,,,,2025-08-06,1,,,,,コード,0
102,1030001167974,新規,0,2025-08-06,2025-08-06,Ｒｅ・Ｔｒａｎｓ株式会社,,株式会社,埼玉県,川口市,大字安行小山３９８番地の２３,,11,203,3340055,,,,,,,2025-08-06,1,,,,,リートランス,0
103,1030001167990,新規,0,2025-08-06,2025-08-06,株式会社ＯＫＡＥＩ,,株式会社,埼玉県,さいたま市岩槻区,大字谷下２９２番地,,11,110,3390046,,,,,,,2025-08-06,1,,,,,オカエイ,0
104,1030001167999,新規,0,2025-08-06,2025-08-06,ＣＬＫ株式会社,,株式会社,埼玉県,川口市,元郷４丁目６番６号,,11,203,3320011,,,,,,,2025-08-06,1,,,,,シーエルケイ,0
105,1030001168015,新規,0,2025-08-06,2025-08-06,株式会社黒田設備,,株式会社,埼玉県,川越市,大字今福１７３８番地１３,,11,201,3501151,,,,,,,2025-08-06,1,,,,,クロダセツビ,0
106,1030001168023,新規,0,2025-08-06,2025-08-06,星依株式会社,,株式会社,埼玉県,さいたま市浦和区,大東３丁目３６番２６号,,11,107,3300043,,,,,,,2025-08-06,1,,,,,ホシエ,0
111,1030003027334,新規,0,2025-08-06,2025-08-06,合同会社あのね,,合同会社,埼玉県,加須市,芋茎３７８番地,,11,210,3470112,,,,,,,2025-08-06,1,,,,,アノネ,0
117,1040001139923,新規,0,2025-08-06,2025-08-06,株式会社ミッケタ,,株式会社,千葉県,富津市,望井字鶴舞９５番地２,,12,226,2991605,,,,,,,2025-08-06,1,,,,,ミッケタ,0
123,1050001057042,新規,0,2025-08-06,2025-08-06,株式会社イズミアルミ,,株式会社,茨城県,神栖市,土合本町４丁目９８０９番地３９６,,08,232,3140343,,,,,,,2025-08-06,1,,,,,イズミアルミ,0
124,1060001038470,新規,0,2025-08-06,2025-08-06,Ｌｉｅｎｉｘ　Ｌａｂ　Ｈｏｌｄｉｎｇｓ株式会社,,株式会社,栃木県,鹿沼市,下田町２丁目１０８３番地１６,,09,205,3220036,,,,,,,2025-08-06,1,,,,,リアニクスラボホールディングス,0
127,1060003005667,新規,0,2025-08-06,2025-08-06,メガタンク合同会社,,合同会社,栃木県,宇都宮市,ゆいの杜５丁目１６番３２号,,09,201,3213226,,,,,,,2025-08-06,1,,,,,メガタンク,0
130,1070001043230,新規,0,2025-08-06,2025-08-06,株式会社ＯＫＨ,,株式会社,群馬県,伊勢崎市,境東新井４７４番地６,,10,204,3700101,,,,,,,2025-08-06,1,,,,,オーケーエイチ,0
137,1080101025689,新規,0,2025-08-06,2025-08-06,株式会社ＣＡＳＴ　Ａ　ＳＰＥＬＬ,,株式会社,静岡県,富士市,富士見台５丁目６番地の５,,22,210,4170851,,,,,,,2025-08-06,1,,,,,キャストアスペル,0
143,1090001019443,新規,0,2025-08-06,2025-08-06,株式会社ＧｒｅｅｎＭａｋｅ,,株式会社,山梨県,甲府市,下飯田２丁目５番２７号,,19,201,4000064,,,,,,,2025-08-06,1,,,,,グリーンメイク,0
144,1100001038838,新規,0,2025-08-06,2025-08-06,株式会社Ｌｉａｉｓｏｎ,,株式会社,長野県,松本市,波田９８１２番地２,,20,202,3901401,,,,,,,2025-08-06,1,,,,,リエゾン,0
145,1100001038846,新規,0,2025-08-06,2025-08-06,株式会社ハッシュタグジャパン,,株式会社,長野県,岡谷市,湖畔２丁目１３番１８号ポムルージュ湖畔２０５,,20,204,3940034,,,,,,,2025-08-06,1,,,,,ハッシュタグジャパン,0
148,1100003008327,新規,0,2025-08-06,2025-08-06,合同会社ヤママル,,合同会社,長野県,中野市,大字竹原４９６番地,,20,211,3830007,,,,,,,2025-08-06,1,,,,,ヤママル,0
149,1110001039463,新規,0,2025-08-06,2025-08-06,ａｋａｒｉ株式会社,,株式会社,新潟県,三条市,駒込８８番地,,15,204,9550156,,,,,,,2025-08-06,1,,,,,アカリ,0
150,1110001039488,新規,0,2025-08-06,2025-08-06,株式会社ＳＤＭ,,株式会社,新潟県,新潟市南区,新飯田２６２８番地１,,15,106,9501455,,,,,,,2025-08-06,1,,,,,エスディーエム,0
153,1110003005843,新規,0,2025-08-06,2025-08-06,合同会社晋隆会,,合同会社,新潟県,新潟市秋葉区,みそら野３丁目８番地２２,,15,105,9560806,,,,,,,2025-08-06,1,,,,,シンリュウカイ,0
161,1120001278473,新規,0,2025-08-06,2025-08-06,株式会社オフィス濱,00140174,株式会社,大阪府,大阪市阿倍野区,阿倍野筋５丁目８番２７－２０３号,,27,119,5450052,,,,,,,2025-08-06,1,,,,,オフィスハマ,0
162,1120001278481,新規,0,2025-08-06,2025-08-06,芙蕾夢株式会社,,株式会社,大阪府,大阪市生野区,巽北１丁目７番３号１０２号室,00140166,27,116,5440004,,,,,,,2025-08-06,1,,,,,フレム,0
163,1120001278498,新規,0,2025-08-06,2025-08-06,幸鶴株式会社,,株式会社,大阪府,枚方市,岡本町７番１号,,27,210,5730031,,,,,,,2025-08-06,1,,,,,ユキツル,0
164,1120001278738,新規,0,2025-08-06,2025-08-06,株式会社ＭＩＲＡＩＬＬ,,株式会社,大阪府,大阪市淀川区,西宮原１丁目８番１０号３階,,27,123,5320004,,,,,,,2025-08-06,1,,,,,ミライル,0
168,1120101072207,新規,0,2025-08-06,2025-08-06,秋潤株式会社,,株式会社,大阪府,泉佐野市,南泉ケ丘２丁目６８６番地１４の２,,27,213,5980073,,,,,,,2025-08-06,1,,,,,シュウジュン,0
169,1120101072223,新規,0,2025-08-06,2025-08-06,株式会社セレスタ堺,,株式会社,大阪府,堺市堺区,田出井町５番５４号,,27,141,5900014,,,,,,,2025-08-06,1,,,,,セレスタサカイ,0
170,1120101072231,新規,0,2025-08-06,2025-08-06,株式会社ＳＥＬＥＣＴ,,株式会社,大阪府,河内長野市,美加の台４丁目５番６号,,27,216,5860044,,,,,,,2025-08-06,1,,,,,セレクト,0
176,1130003010651,新規,0,2025-08-06,2025-08-06,合同会社Ｏｒｉｇａｍｉ,,合同会社,京都府,京都市中京区,西ノ京南円町６２番地１,,26,104,6048464,,,,,,,2025-08-06,1,,,,,オリガミ,0
179,1140001139525,新規,0,2025-08-06,2025-08-06,株式会社Ｍ．Ｐ．Ｒ,,株式会社,兵庫県,神戸市長田区,西山町３丁目１２番６号,,28,106,6530862,,,,,,,2025-08-06,1,,,,,エムピーアール,0
180,1140001139533,新規,0,2025-08-06,2025-08-06,株式会社みなみ建設,,株式会社,兵庫県,たつの市,龍野町川原町１４９番地,,28,229,6794166,,,,,,,2025-08-06,1,,,,,ミナミケンセツ,0
181,1140001139590,新規,0,2025-08-06,2025-08-06,株式会社Ｃａｒｅｆｙ,,株式会社,兵庫県,神戸市中央区,磯辺通１丁目１番１８号カサベラ国際プラザビル７０７号室,,28,110,6510084,,,,,,,2025-08-06,1,,,,,ケアファイ,0
183,1140005027585,新規,0,2025-08-06,2025-08-06,弁護士法人おおげ法律事務所,,その他の設立登記法人,兵庫県,神戸市中央区,中町通２丁目３番２号三共神戸ツインビル１０階,,28,110,6500027,,,,,,,2025-08-06,1,,,,,オオゲホウリツジムショ,0
186,1160001026960,新規,0,2025-08-06,2025-08-06,株式会社鈴陽,,株式会社,滋賀県,彦根市,松原町１１３６番地３,,25,202,5220002,,,,,,,2025-08-06,1,,,,,リンヨウ,0
188,1170001018742,新規,0,2025-08-06,2025-08-06,株式会社青山,,株式会社,和歌山県,伊都郡かつらぎ町,大字佐野８２番地の６,,30,341,6497174,,,,,,,2025-08-06,1,,,,,アオヤマ,0
191,1180301040073,新規,0,2025-08-06,2025-08-06,株式会社ＩＮＡＹＡ,,株式会社,愛知県,豊田市,小坂町８丁目１５番地２,,23,211,4710035,,,,,,,2025-08-06,1,,,,,イナヤ,0
192,1180301040081,新規,0,2025-08-06,2025-08-06,株式会社Ｂ‐ｐｌｕｓ,,株式会社,愛知県,豊橋市,下五井町甚太前１４番地２,,23,201,4400091,,,,,,,2025-08-06,1,,,,,ビープラス,0
196,1190003005134,新規,0,2025-08-06,2025-08-06,合同会社あじさい,,合同会社,三重県,四日市市,阿倉川町４番３号,,24,202,5100803,,,,,,,2025-08-06,1,,,,,,0
200,1200003006948,新規,0,2025-08-06,2025-08-06,合同会社恵北サービス,,合同会社,岐阜県,中津川市,苗木４５４７番地の１２８,,21,206,5080101,,,,,,,2025-08-06,1,,,,,ケイホクサービス,0
204,1220003004090,新規,0,2025-08-06,2025-08-06,ｃｅｒｃａ合同会社,,合同会社,石川県,河北郡内灘町,字千鳥台４丁目２４,,17,365,9200277,,,,,,,2025-08-06,1,,,,,セルカ,0
206,1240001065323,新規,0,2025-08-06,2025-08-06,株式会社ヤブハナ設備,,株式会社,広島県,安芸郡海田町,三迫１丁目６番２２－１２号,,34,304,7360014,,,,,,,2025-08-06,1,,,,,ヤブハナセツビ,0
208,1240003007348,新規,0,2025-08-06,2025-08-06,合同会社エム＆エム,,合同会社,広島県,広島市中区,舟入幸町１番１２－５０１号,,34,101,7300844,,,,,,,2025-08-06,1,,,,,エムアンドエム,0
210,1250001021283,新規,0,2025-08-06,2025-08-06,株式会社ワンオリジン,,株式会社,山口県,周南市,御山町４番２０号,,35,215,7450863,,,,,,,2025-08-06,1,,,,,ワンオリジン,0
211,1250001021291,新規,0,2025-08-06,2025-08-06,株式会社エヌソク,,株式会社,山口県,長門市,東深川１７１７番地５,,35,211,7594101,,,,,,,2025-08-06,1,,,,,エヌソク,0
213,1250003003783,新規,0,2025-08-06,2025-08-06,合同会社ＣＨＩＬＬＴＯ,,合同会社,山口県,下松市,北斗町４－３－３０１,,35,207,7440012,,,,,,,2025-08-06,1,,,,,チルト,0
219,1290001110917,新規,0,2025-08-06,2025-08-06,株式会社Ｎｕｍｂｅｒ０１８,,株式会社,福岡県,福岡市博多区,博多駅前４丁目３６番３６号,,40,132,8120011,,,,,,,2025-08-06,1,,,,,ナンバーゼロイチハチ,0
220,1290001110925,新規,0,2025-08-06,2025-08-06,株式会社Ｍｉｔｉｓ,,株式会社,福岡県,福岡市早良区,百道浜４丁目３１番１－９０１号,,40,137,8140001,,,,,,,2025-08-06,1,,,,,ミティス,0
236,1330001033444,新規,0,2025-08-06,2025-08-06,株式会社平野自動車工業,,株式会社,熊本県,八代郡氷川町,網道２５２番地１,,43,468,8694812,,,,,,,2025-08-06,1,,,,,ヒラノジドウシャコウギョウ,0
237,1330001033460,新規,0,2025-08-06,2025-08-06,株式会社渡邉農園,,株式会社,熊本県,合志市,合生３８４７番地３,,43,216,8611101,,,,,,,2025-08-06,1,,,,,ワタナベノウエン,0
238,1330003011159,新規,0,2025-08-06,2025-08-06,合同会社ユニオンステーブル,,合同会社,熊本県,荒尾市,大島１１５１番地１Ｋ－ｉｄｅａｌ荒尾Ａ－２,,43,204,8640057,,,,,,,2025-08-06,1,,,,,ユニオンステーブル,0
243,1360003015149,新規,0,2025-08-06,2025-08-06,合同会社Ｓａｌｕｔ,,合同会社,沖縄県,沖縄市,南桃原１丁目１－２,,47,211,9040035,,,,,,,2025-08-06,1,,,,,サリュ,0
244,1370001052911,新規,0,2025-08-06,2025-08-06,株式会社メインヴィレッジ,,株式会社,宮城県,仙台市太白区,袋原２丁目７番３３号,,04,104,9811102,,,,,,,2025-08-06,1,,,,,メインヴィレッジ,0
246,1380001035493,新規,0,2025-08-06,2025-08-06,ネクストドア株式会社,,株式会社,福島県,いわき市,平字田町１２０ＬＡＴＯＶ６階いわき産業創造館インキュベートルーム内,,07,204,9708026,,,,,,,2025-08-06,1,,,,,ネクストドア,0
253,1400001017134,新規,0,2025-08-06,2025-08-06,株式会社オネスティサポート,,株式会社,岩手県,盛岡市,東新庄１丁目２番１８号,,03,201,0200805,,,,,,,2025-08-06,1,,,,,オネスティサポート,0
254,1430001095012,新規,0,2025-08-06,2025-08-06,株式会社Ｒｅａｌ　Ｔｏｕｃｈ,,株式会社,北海道,札幌市中央区,南二条西５丁目３１－１ＲＭＢｌｄ．７０１,,01,101,0600062,,,,,,,2025-08-06,1,,,,,リアルタッチ,0
258,1440001009664,新規,0,2025-08-06,2025-08-06,株式会社越野板金工業,,株式会社,北海道,函館市,浜町１番地１,,01,202,0410311,,,,,,,2025-08-06,1,,,,,コシノバンキンコウギョウ,0
259,1450001014696,新規,0,2025-08-06,2025-08-06,株式会社Ｂｅ　Ｆｕｒａｎｏ,,株式会社,北海道,空知郡中富良野町,字中富良野東１線北十八号,,01,461,0710771,,,,,,,2025-08-06,1,,,,,ビーフラノ,0
264,1470005006639,新規,0,2025-08-06,2025-08-06,社会保険労務士法人大橋事務所,,その他の設立登記法人,香川県,仲多度郡琴平町,榎井７５８番地４,,37,403,7660004,,,,,,,2025-08-06,1,,,,,オオハシジムショ,0
274,2010001257446,新規,0,2025-08-06,2025-08-06,株式会社Ｍｏｂｉｔｅｃｔ,,株式会社,東京都,千代田区,神田神保町３丁目２番地３,,13,101,1010051,,,,,,,2025-08-06,1,,,,,モビテクト,0
275,2010001257462,新規,0,2025-08-06,2025-08-06,株式会社ＲＥＶ,,株式会社,東京都,千代田区,神田紺屋町１６番地クニイビル４Ｆ,,13,101,1010035,,,,,,,2025-08-06,1,,,,,アールイーブイ,0
279,2010003048257,新規,0,2025-08-06,2025-08-06,合同会社ＳｐｈｅｒｅＣｏｄｅ,,合同会社,東京都,千代田区,神田須田町１丁目７番８号ＶＯＲＴ秋葉原ＩＶ２Ｆ,00140171,13,101,1010041,,,,,,,2025-08-06,1,,,,,スフィアコード,0
282,2010005040476,新規,0,2025-08-06,2025-08-06,一般社団法人相続終活支援機構,,その他の設立登記法人,東京都,中央区,銀座７丁目１３番２０号銀座ＴＨビル９階,,13,102,1040061,,,,,,,2025-08-06,1,,,,,ソウゾクシュウカツシエンキコウ,0
283,2010005040492,新規,0,2025-08-06,2025-08-06,一般社団法人ＮＣＰ,,その他の設立登記法人,東京都,千代田区,霞が関３丁目２番５号,,13,101,1000013,,,,,,,2025-08-06,1,,,,,エヌシーピー,0
289,2010501054500,新規,0,2025-08-06,2025-08-06,株式会社名川商事,,株式会社,東京都,台東区,上野６丁目１番６号御徒町グリーンハイツ５０１,,13,106,1100005,,,,,,,2025-08-06,1,,,,,ナガワショウジ,0
295,2010901057862,新規,0,2025-08-06,2025-08-06,株式会社リ・ライト,,株式会社,東京都,世田谷区,鎌田４丁目５番１７号,,13,112,1570077,,,,,,,2025-08-06,1,,,,,リライト,0
296,2010901057870,新規,0,2025-08-06,2025-08-06,株式会社旭昇エムゼック,,株式会社,東京都,世田谷区,喜多見７丁目１７番１０号,,13,112,1570067,,,,,,,2025-08-06,1,,,,,キョクショウエムゼック,0
297,2010903010167,新規,0,2025-08-06,2025-08-06,合同会社Ｑ‐ＭＥ,,合同会社,東京都,世田谷区,北沢１丁目２８―１７―２０３,,13,112,1550031,,,,,,,2025-08-06,1,,,,,キューミー,0
300,2011001171133,新規,0,2025-08-06,2025-08-06,ＥＦＣ株式会社,,株式会社,東京都,渋谷区,神南１丁目１８番２号フレーム神南坂４Ｆ,,13,113,1500041,,,,,,,2025-08-06,1,,,,,イーエフシー,0
301,2011001171182,新規,0,2025-08-06,2025-08-06,株式会社ＮｅｋｔｕｒｅＺ,,株式会社,東京都,渋谷区,代々木２丁目２６番５号バロール代々木２１１号,,13,113,1510053,,,,,,,2025-08-06,1,,,,,ネクチャーズ,0
302,2011001171190,新規,0,2025-08-06,2025-08-06,株式会社Ｃｒａｚｙ　Ｆｉｓｈ　Ｊｏ,,株式会社,東京都,目黒区,中目黒２丁目１番２３号,,13,110,1530061,,,,,,,2025-08-06,1,,,,,クレイジーフィッシュジョー,0
305,2011101112631,新規,0,2025-08-06,2025-08-06,株式会社徳積講,,株式会社,東京都,新宿区,新宿５丁目８番１８－１００１号,,13,104,1600022,,,,,,,2025-08-06,1,,,,,トクセキコウ,0
316,2011701028590,新規,0,2025-08-06,2025-08-06,株式会社ＭＮ　ＪＡＰＡＮ,,株式会社,東京都,江戸川区,平井５丁目２２番５－３０５号五光マンション,,13,123,1320035,,,,,,,2025-08-06,1,,,,,エムエヌジャパン,0
318,2011801046542,新規,0,2025-08-06,2025-08-06,公衆浴場株式会社,,株式会社,東京都,葛飾区,亀有３丁目１０番１９号,,13,122,1250061,,,,,,,2025-08-06,1,,,,,コウシュウヨクジョウ,0
319,2011801046559,新規,0,2025-08-06,2025-08-06,株式会社レアルエステート,,株式会社,東京都,葛飾区,亀有２丁目６８番１号４階,,13,122,1250061,,,,,,,2025-08-06,1,,,,,レアルエステート,0
335,2020001164204,新規,0,2025-08-06,2025-08-06,株式会社ウォルテック,,株式会社,神奈川県,横浜市金沢区,釜利谷東５丁目４番１２号バリオ・ベルデＶ１０２,00140178,14,108,2360042,,,,,,,2025-08-06,1,,,,,ウォルテック,0
340,2021001085968,新規,0,2025-08-06,2025-08-06,株式会社ＫＳＲ,,株式会社,神奈川県,高座郡寒川町,宮山１９番地２,,14,321,2530106,,,,,,,2025-08-06,1,,,,,ケーエスアール,0
344,2021005013413,新規,0,2025-08-06,2025-08-06,特定非営利活動法人生活未来支援センター,,その他の設立登記法人,神奈川県,藤沢市,辻堂神台２丁目２番１号アイクロス湘南５階Ｅ号室,,14,205,2510041,,,,,,,2025-08-06,1,,,,,セイカツミライシエンセンター,0
347,2030001167998,新規,0,2025-08-06,2025-08-06,Ｋ．ｓａｉｎ株式会社,,株式会社,埼玉県,鴻巣市,原馬室３０６２番地３,,11,217,3650043,,,,,,,2025-08-06,1,,,,,ケーサイン,0
348,2030001168039,新規,0,2025-08-06,2025-08-06,株式会社Ｓテック,,株式会社,埼玉県,上尾市,大字瓦葺６７４番地１４,,11,219,3620022,,,,,,,2025-08-06,1,,,,,エステック,0
354,2040001139856,新規,0,2025-08-06,2025-08-06,関東フォークリフト技能講習センター株式会社,,株式会社,千葉県,野田市,野田２７９番地１０,,12,208,2780037,,,,,,,2025-08-06,1,,,,,カントウフォークリフトギノウコウシュウセンター,0
355,2040001139872,新規,0,2025-08-06,2025-08-06,ＬｔＦ工業株式会社,,株式会社,千葉県,市原市,五井西１丁目１１番地１３ハイツモリＡ－２,,12,219,2900038,,,,,,,2025-08-06,1,,,,,エルティエフコウギョウ,0
356,2040003028149,新規,0,2025-08-06,2025-08-06,合同会社オフィスＫＥＮ,,合同会社,千葉県,木更津市,畑沢南６丁目９番３号,,12,206,2920826,,,,,,,2025-08-06,1,,,,,オフィスケン,0
359,2050001057041,新規,0,2025-08-06,2025-08-06,レヴィア株式会社,,株式会社,茨城県,守谷市,けやき台３丁目２０番地５パルネット１０２,,08,224,3020128,,,,,,,2025-08-06,1,,,,,レヴィア,0
363,2050003009486,新規,0,2025-08-06,2025-08-06,合同会社下館ディーディー,,合同会社,茨城県,筑西市,下中山５９２番地３０レオパレスプレミールＢ２０９,,08,227,3080825,,,,,,,2025-08-06,1,,,,,シモダテディーディー,0
369,2070001043221,新規,0,2025-08-06,2025-08-06,辰華株式会社,,株式会社,群馬県,高崎市,下之城町２５５番地１,,10,202,3700854,,,,,,,2025-08-06,1,,,,,シンカ,0
370,2070001043238,新規,0,2025-08-06,2025-08-06,株式会社シミズ,,株式会社,群馬県,藤岡市,中大塚７０６番地１,,10,209,3750053,,,,,,,2025-08-06,1,,,,,シミズ,0
376,2080001027074,新規,0,2025-08-06,2025-08-06,Ｄｏｔｓ　ｓｕｐｐｏｒｔｉｎｇ株式会社,,株式会社,静岡県,島田市,道悦５丁目５番５号,,22,209,4270019,,,,,,,2025-08-06,1,,,,,ドッツサポーティング,0
377,2080101025688,新規,0,2025-08-06,2025-08-06,株式会社Ｃｏｎｆｉａｎｃｅ　Ｇａｒａｇｅ　ＦＵＪＩＨＩＲＯ,,株式会社,静岡県,富士市,宮島１０５６番地の６,,22,210,4160945,,,,,,,2025-08-06,1,,,,,コンフィアンスガレージフジヒロ,0
380,2080401028060,新規,0,2025-08-06,2025-08-06,株式会社Ｔｒｅｅ,,株式会社,静岡県,袋井市,高尾町３－７－２０７,,22,216,4370027,,,,,,,2025-08-06,1,,,,,ツリー,0
381,2080401028069,新規,0,2025-08-06,2025-08-06,株式会社アルゴノーツ,,株式会社,静岡県,浜松市中央区,佐鳴台１丁目１５番３８号,,22,138,4328021,,,,,,,2025-08-06,1,,,,,アルゴノーツ,0
385,2090001019450,新規,0,2025-08-06,2025-08-06,株式会社Ｏｎｅ　Ｔｉｍｅ,,株式会社,山梨県,甲斐市,玉川５７０－１１Ｂ,,19,210,4000116,,,,,,,2025-08-06,1,,,,,,0
388,2100001038837,新規,0,2025-08-06,2025-08-06,株式会社陽だまりファーム,,株式会社,長野県,佐久市,志賀５６６４番地２,,20,217,3850006,,,,,,,2025-08-06,1,,,,,ヒダマリファーム,0
390,2100003008326,新規,0,2025-08-06,2025-08-06,合同会社小坂動物病院,,合同会社,長野県,塩尻市,大字広丘原新田１４７－６,,20,215,3990706,,,,,,,2025-08-06,1,,,,,コサカドウブツビョウイン,0
391,2100003008334,新規,0,2025-08-06,2025-08-06,合同会社ザ・フリースタイルワーカーズ,,合同会社,長野県,上田市,菅平高原１２７８－２８８,,20,203,3862204,,,,,,,2025-08-06,1,,,,,ザフリースタイルワーカーズ,0
392,2110001039479,新規,0,2025-08-06,2025-08-06,株式会社アキノ灯農場,,株式会社,新潟県,上越市,大字上野田７１９番地,,15,222,9430112,,,,,,,2025-08-06,1,,,,,アキノヒノウジョウ,0
397,2110003005842,新規,0,2025-08-06,2025-08-06,合同会社Ｅｎｊｏｙｎ,,合同会社,新潟県,新潟市東区,津島屋６丁目１０９－１,,15,102,9500801,,,,,,,2025-08-06,1,,,,,エンジョイン,0
407,2120001277061,新規,0,2025-08-06,2025-08-06,株式会社Ｃｏｎｔｉｎｕａｌ,,株式会社,大阪府,大阪市中央区,南船場４丁目１０－５,,27,128,5420081,,,,,,,2025-08-06,1,,,,,コンティニュアル,0
409,2120001278340,新規,0,2025-08-06,2025-08-06,株式会社Ｔａｒｏｔ,,株式会社,大阪府,守口市,梶町２丁目４番４号,,27,209,5700015,,,,,,,2025-08-06,1,,,,,タロット,0
410,2120001278464,新規,0,2025-08-06,2025-08-06,株式会社ＡＫ　Ｓｅｒｖｉｃｅ,,株式会社,大阪府,大阪市住之江区,粉浜１丁目１１－２,,27,125,5590001,,,,,,,2025-08-06,1,,,,,エイケイサービス,0
411,2120001278489,新規,0,2025-08-06,2025-08-06,エミレア株式会社,,株式会社,大阪府,大阪市北区,天満２丁目１５－１－５０３,,27,127,5300043,,,,,,,2025-08-06,1,,,,,エミレア,0
412,2120001278514,新規,0,2025-08-06,2025-08-06,東金株式会社,,株式会社,大阪府,大阪市中央区,内本町２丁目４番１０号ネオハイツ内本町４１２室,,27,128,5400026,,,,,,,2025-08-06,1,,,,,トウキン,0
413,2120001278563,新規,0,2025-08-06,2025-08-06,株式会社ＳＹＫ,,株式会社,大阪府,大阪市中央区,高麗橋２丁目３番５号投資ＪＰ北浜ビル２－Ｃ,,27,128,5410043,,,,,,,2025-08-06,1,,,,,エスワイケー,0
414,2120001278613,新規,0,2025-08-06,2025-08-06,ＪＫＳ株式会社,,株式会社,大阪府,大阪市城東区,鴫野西５丁目１５番７－３０８号,,27,118,5360014,,,,,,,2025-08-06,1,,,,,ジェイケーエス,0
415,2120001278654,新規,0,2025-08-06,2025-08-06,マスターズフォレスト株式会社,,株式会社,大阪府,大阪市中央区,伏見町４丁目２番１４号,,27,128,5410044,,,,,,,2025-08-06,1,,,,,マスターズフォレスト,0
416,2120003030187,新規,0,2025-08-06,2025-08-06,ＭＺ　ＴＲＡＤＩＮＧ合同会社,,合同会社,大阪府,大阪市西淀川区,大和田４丁目１３－２２アルカン三番街４０５号,,27,113,5550032,,,,,,,2025-08-06,1,,,,,エムゼットトレーディング,0
417,2120003030204,新規,0,2025-08-06,2025-08-06,合同会社ＮＩＮ,,合同会社,大阪府,大阪市西成区,花園北１丁目６番１６－９１３号,,27,122,5570016,,,,,,,2025-08-06,1,,,,,エヌアイエヌ,0
421,2120005025094,新規,0,2025-08-06,2025-08-06,一般社団法人希望のつばさ,,その他の設立登記法人,大阪府,守口市,菊水通３丁目７番３号,,27,209,5700032,,,,,,,2025-08-06,1,,,,,キボウノツバサ,0
425,2120101072206,新規,0,2025-08-06,2025-08-06,株式会社エム・フォレスト,,株式会社,大阪府,羽曳野市,軽里３丁目２０６番地の２７,,27,222,5830854,,,,,,,2025-08-06,1,,,,,エムフォレスト,0
432,2130005017421,新規,0,2025-08-06,2025-08-06,一般社団法人ＭｅｄＲｕｎ,,その他の設立登記法人,京都府,京都市東山区,末吉町９９番地５ＧＡＲＮＥＴＢＬＤＧ祇園縄手３Ｆ,,26,105,6050085,,,,,,,2025-08-06,1,,,,,メッドラン,0
439,2140001139532,新規,0,2025-08-06,2025-08-06,クレシアリアルティ株式会社,,株式会社,兵庫県,加西市,北条町古坂１丁目２番地,,28,220,6752303,,,,,,,2025-08-06,1,,,,,クレシアリアルティ,0
443,2170003002264,新規,0,2025-08-06,2025-08-06,合同会社木村商店,,合同会社,和歌山県,和歌山市,砂山南４丁目３番９－２号,,30,201,6408272,,,,,,,2025-08-06,1,,,,,キムラショウテン,0
456,2180005021179,新規,0,2025-08-06,2025-08-06,一般社団法人国際子ども学校,,その他の設立登記法人,愛知県,名古屋市昭和区,宮東町２６０番地,,23,107,4660804,,,,,,,2025-08-06,1,,,,,コクサイコドモガッコウ,0
457,2180301040072,新規,0,2025-08-06,2025-08-06,イーストヒルズ株式会社,,株式会社,愛知県,田原市,豊島町安原崎２６番地３,,23,231,4413417,,,,,,,2025-08-06,1,,,,,イーストヒルズ,0
458,2180301040080,新規,0,2025-08-06,2025-08-06,株式会社たいよう,,株式会社,愛知県,豊川市,一宮町下新切４５番地２９,,23,207,4411231,,,,,,,2025-08-06,1,,,,,タイヨウ,0
459,2180301040089,新規,0,2025-08-06,2025-08-06,心結建設株式会社,,株式会社,愛知県,豊田市,舞木町小原野６３０番３（２階）,,23,211,4700362,,,,,,,2025-08-06,1,,,,,シンユウケンセツ,0
461,2180303006674,新規,0,2025-08-06,2025-08-06,合同会社Ｐ‐ＲＡＩＳＥ,,合同会社,愛知県,豊橋市,大村町字金山１１９番地,,23,201,4400081,,,,,,,2025-08-06,1,,,,,ピーレイズ,0
462,2180303006682,新規,0,2025-08-06,2025-08-06,合同会社プログレス,,合同会社,愛知県,豊橋市,牟呂水神町１５番地１９,,23,201,4418091,,,,,,,2025-08-06,1,,,,,プログレス,0
465,2190001032443,新規,0,2025-08-06,2025-08-06,株式会社メディシン一光,,株式会社,三重県,津市,西丸之内３５番２６号,,24,201,5140035,,,,,,,2025-08-06,1,,,,,メディシンイッコウ,0
466,2190001032451,新規,0,2025-08-06,2025-08-06,株式会社小野ウェルディング,,株式会社,三重県,津市,柳山津興４２１番地マリンスクエア２０５号,,24,201,5140803,,,,,,,2025-08-06,1,,,,,オノウェルディング,0
469,2200003006947,新規,0,2025-08-06,2025-08-06,合同会社はるか技研,,合同会社,岐阜県,羽島郡岐南町,三宅７丁目７４－１,,21,302,5016002,,,,,,,2025-08-06,1,,,,,ハルカギケン,0
470,2230001021029,新規,0,2025-08-06,2025-08-06,ＡＭＢ株式会社,,株式会社,富山県,射水市,戸破６１６番地１,,16,211,9390351,,,,,,,2025-08-06,1,,,,,エーエムビー,0
474,2240001065314,新規,0,2025-08-06,2025-08-06,株式会社西遊記,,株式会社,広島県,東広島市,黒瀬町南方２００５番地２６,,34,212,7392503,,,,,,,2025-08-06,1,,,,,サイユウキ,0
475,2240001065322,新規,0,2025-08-06,2025-08-06,株式会社Ｋ,,株式会社,広島県,広島市中区,田中町１番１２号,,34,101,7300026,,,,,,,2025-08-06,1,,,,,ケイ,0
476,2240001065339,新規,0,2025-08-06,2025-08-06,株式会社プレイオンズ,,株式会社,広島県,広島市中区,土橋町６番２３－４０２号,,34,101,7300854,,,,,,,2025-08-06,1,,,,,プレイオンズ,0
478,2240003007347,新規,0,2025-08-06,2025-08-06,ＥＳＬ　Ｆａｒｍ合同会社,,合同会社,広島県,三次市,三和町羽出庭１２０８番地１,,34,209,7296614,,,,,,,2025-08-06,1,,,,,イーエスエルファーム,0
484,2280003001981,新規,0,2025-08-06,2025-08-06,合同会社みゆまっち,,合同会社,島根県,邑智郡邑南町,中野４３番地,,32,449,6960102,,,,,,,2025-08-06,1,,,,,ミユマッチ,0
486,2290001110916,新規,0,2025-08-06,2025-08-06,株式会社ＳＫＵＮＫ,,株式会社,福岡県,福岡市中央区,輝国２丁目１２番１２－２３６号輝国団地２棟,,40,133,8100032,,,,,,,2025-08-06,1,,,,,スカンク,0
487,2290001110949,新規,0,2025-08-06,2025-08-06,株式会社Ｍステップ,,株式会社,福岡県,八女市,黒木町本分１８５４番地２,,40,210,8341213,,,,,,,2025-08-06,1,,,,,エムステップ,0
492,2300001014306,新規,0,2025-08-06,2025-08-06,株式会社Ｓａｌｅｓ　ｈｏｂｂｙ,,株式会社,佐賀県,鳥栖市,永吉町８００番地１７,,41,203,8410011,,,,,,,2025-08-06,1,,,,,セールスホビー,0
494,2300003002325,新規,0,2025-08-06,2025-08-06,アクアティクス合同会社,,合同会社,佐賀県,佐賀市,若楠２丁目５番２０号,,41,201,8490928,,,,,,,2025-08-06,1,,,,,アクアティクス,0
496,2310001019741,新規,0,2025-08-06,2025-08-06,株式会社リクソラ,,株式会社,長崎県,長崎市,三原２丁目３番５７号,,42,201,8528123,,,,,,,2025-08-06,1,,,,,リクソラ,0
499,2310003005054,新規,0,2025-08-06,2025-08-06,合同会社ゆとり教材,,合同会社,長崎県,長崎市,三原２丁目４０番１７号,,42,201,8528123,,,,,,,2025-08-06,1,,,,,ユトリキョウザイ,0
500,2320001021267,新規,0,2025-08-06,2025-08-06,株式会社Ｋ‐ＺＯＮＥ,,株式会社,大分県,大分市,高崎２丁目５番１１号,,44,201,8700872,,,,,,,2025-08-06,1,,,,,ケイゾーン,0
501,2320003004732,新規,0,2025-08-06,2025-08-06,合同会社Ｐｅａｃｈ　Ｇａｒｄｅｎ,,合同会社,大分県,大分市,大字千歳２０８２番地の２４,,44,201,8700132,,,,,,,2025-08-06,1,,,,,ピーチガーデン,0
505,2340003004920,新規,0,2025-08-06,2025-08-06,合同会社せっせ,,合同会社,鹿児島県,指宿市,山川成川４９１番地２号,,46,210,8910516,,,,,,,2025-08-06,1,,,,,セッセ,0
507,2350003005001,新規,0,2025-08-06,2025-08-06,合同会社ＵＬＵ,,合同会社,宮崎県,宮崎市,大工１丁目３番１１号ダイアパレス宮崎県病院前５０２号,,45,201,8800015,,,,,,,2025-08-06,1,,,,,ウル,0
509,2370001052910,新規,0,2025-08-06,2025-08-06,ＥＶＯＫＥ株式会社,,株式会社,宮城県,仙台市泉区,南光台南２丁目７番１０号,,04,105,9818002,,,,,,,2025-08-06,1,,,,,エヴォーク,0
523,2450001014695,新規,0,2025-08-06,2025-08-06,株式会社晴天モータース,,株式会社,北海道,旭川市,永山十二条２丁目６番２号,,01,204,0798422,,,,,,,2025-08-06,1,,,,,セイテンモータース,0
528,2490001011128,新規,0,2025-08-06,2025-08-06,株式会社濱夢水産,00140172,株式会社,高知県,宿毛市,宇須々木１４６５番地,,39,208,7880023,,,,,,,2025-08-06,1,,,,,ハマユメスイサン,0
536,2700150131679,新規,0,2025-08-06,2025-08-06,ＩｎｎｏｖａｔｅＰｒｏ　Ｍａｎａｇｅｍｅｎｔ　ＵＳＡ　ＬＬＣ,,外国会社等,東京都,渋谷区,道玄坂１丁目１０番８号渋谷道玄坂東急ビル２Ｆ－Ｃ,,13,113,1500043,アメリカ合衆国デラウェア州、ウィルミントン、１２０９オレンジストリート、コーポレート・トラスト・センター、ザ・コーポレーション・トラスト・カンパニー内,,,,,,2025-08-06,1,,,,,イノベートプロマネージメントユーエスエーエルエルシー,0
545,3010001257461,新規,0,2025-08-06,2025-08-06,株式会社ＲｅｓｅａｒｃｈＰｌａｔｆｏｒｍ,,株式会社,東京都,千代田区,丸の内２丁目３番２号郵船ビルディング２階,,13,101,1000005,,,,,,,2025-08-06,1,,,,,リサーチプラットフォーム,0
546,3010001257544,新規,0,2025-08-06,2025-08-06,株式会社Ｏｐｔｉｍｕｓ　Ｃａｐｉｔａｌ,,株式会社,東京都,千代田区,丸の内１丁目１１番１号パシフィックセンチュリープレイス丸の内１３階,,13,101,1000005,,,,,,,2025-08-06,1,,,,,オプティマスキャピタル,0
547,3010005040483,新規,0,2025-08-06,2025-08-06,ネクシード税理士法人,,その他の設立登記法人,東京都,中央区,日本橋小網町７番８号日本橋ウィンテルビル３階,,13,102,1030016,,,,,,,2025-08-06,1,,,,,ネクシード,0
549,3010101016800,新規,0,2025-08-06,2025-08-06,株式会社ＲＳＫ,,株式会社,東京都,八王子市,めじろ台４丁目２０番地１１,,13,201,1930833,,,,,,,2025-08-06,1,,,,,アールエスケイ,0
550,3010101016809,新規,0,2025-08-06,2025-08-06,株式会社ａｖｌｎｕ,,株式会社,東京都,八王子市,泉町１４２５番地１,,13,201,1930814,,,,,,,2025-08-06,1,,,,,アヴリヌ,0
551,3010103002625,新規,0,2025-08-06,2025-08-06,合同会社ＰＲＩＯＲＩＴＹ‐ＯＮＥ,,合同会社,東京都,八王子市,北野町５８０の４石坂ゼフィール２０７号室,,13,201,1920906,,,,,,,2025-08-06,1,,,,,プライオリティーワン,0
569,3010601067731,新規,0,2025-08-06,2025-08-06,フォルクスアカウンティングパートナーズ株式会社,,株式会社,東京都,江東区,猿江２丁目１－４Ｎレジデンス３０４,,13,108,1350003,,,,,,,2025-08-06,1,,,,,フォルクスアカウンティングパートナーズ,0
570,3010601067756,新規,0,2025-08-06,2025-08-06,向島建設株式会社,,株式会社,東京都,墨田区,墨田５丁目４１番２号,,13,107,1310031,,,,,,,2025-08-06,1,,,,,ムコウジマケンセツ,0
571,3010601067764,新規,0,2025-08-06,2025-08-06,株式会社ゆいのや,,株式会社,東京都,江東区,塩浜２丁目５番１ー４２５号,,13,108,1350043,,,,,,,2025-08-06,1,,,,,ユイノヤ,0
576,3010901057861,新規,0,2025-08-06,2025-08-06,株式会社ＹＭトラスト,,株式会社,東京都,世田谷区,宮坂１丁目２１番１０号,,13,112,1560051,,,,,,,2025-08-06,1,,,,,ワイエムトラスト,0
582,3011001170976,新規,0,2025-08-06,2025-08-06,オリエントケンブリッジキャピタル株式会社,,株式会社,東京都,渋谷区,千駄ヶ谷５丁目１３－１８,,13,113,1510051,,,,,,,2025-08-06,1,,,,,オリエントケンブリッジキャピタル,0
583,3011001171181,新規,0,2025-08-06,2025-08-06,株式会社ＲＥＭＩＸ　ＬＩＮＫ,,株式会社,東京都,渋谷区,円山町５番３号ＭＩＥＵＸ渋谷ビル８階,,13,113,1500044,,,,,,,2025-08-06,1,,,,,リミックスリンク,0
584,3011001171198,新規,0,2025-08-06,2025-08-06,株式会社丸五商事,,株式会社,東京都,目黒区,中目黒１丁目１番６５－７０３号,,13,110,1530061,,,,,,,2025-08-06,1,,,,,マルゴショウジ,0
585,3011001171207,新規,0,2025-08-06,2025-08-06,株式会社ｐａｒａｄｏｘ,,株式会社,東京都,渋谷区,恵比寿西２丁目１９－９フランセスビル１階１１６号室,,13,113,1500021,,,,,,,2025-08-06,1,,,,,パラドックス,0
589,3011401027297,新規,0,2025-08-06,2025-08-06,株式会社成徳工業,,株式会社,東京都,板橋区,南常盤台１丁目３７番１２号,,13,119,1740072,,,,,,,2025-08-06,1,,,,,セイトクコウギョウ,0
590,3011503006629,新規,0,2025-08-06,2025-08-06,ＨＩＤＥＯＵＴ　ＧＡＲＡＧＥ合同会社,,合同会社,東京都,北区,王子１丁目２７番２－３０５号,,13,117,1140002,,,,,,,2025-08-06,1,,,,,ハイドアウトガレージ,0
596,3011801046558,新規,0,2025-08-06,2025-08-06,株式会社ＭＹ　ＬＩＦＥ,,株式会社,東京都,葛飾区,高砂２丁目１番２３号,,13,122,1250054,,,,,,,2025-08-06,1,,,,,マイライフ,0
597,3011803006997,新規,0,2025-08-06,2025-08-06,カロライン合同会社,,合同会社,東京都,足立区,皿沼２丁目３番２号ｇｒａｉｎ’ｓＥ棟,,13,121,1230862,,,,,,,2025-08-06,1,,,,,カロライン,0
601,3012401043417,新規,0,2025-08-06,2025-08-06,株式会社東京インターナショナル商会,,株式会社,東京都,小金井市,貫井南町３丁目５番７号,,13,210,1840014,,,,,,,2025-08-06,1,,,,,トウキョウインターナショナルショウカイ,0
602,3012401043441,新規,0,2025-08-06,2025-08-06,株式会社リペロ,,株式会社,東京都,三鷹市,深大寺２丁目３３番８号－２,,13,204,1810016,,,,,,,2025-08-06,1,,,,,リペロ,0
603,3012401043458,新規,0,2025-08-06,2025-08-06,ＴＯＫＹＯ　ＣＯＮＤＩＴＩＯＮ株式会社,,株式会社,東京都,三鷹市,井の頭３丁目１２－１０,,13,204,1810001,,,,,,,2025-08-06,1,,,,,トウキョウコンディション,0
624,3021001085975,新規,0,2025-08-06,2025-08-06,フェノースウィズ株式会社,,株式会社,神奈川県,相模原市緑区,相原２丁目１２番１８号スカイコート橋本１－４０２,,14,151,2520141,,,,,,,2025-08-06,1,,,,,フェノースウィズ,0
625,3021001085983,新規,0,2025-08-06,2025-08-06,株式会社ＹＯＧＯＢＥＥ,,株式会社,神奈川県,足柄上郡開成町,金井島１３１９番地,,14,366,2580028,,,,,,,2025-08-06,1,,,,,ヨゴベエ,0
626,3021001085991,新規,0,2025-08-06,2025-08-06,株式会社レイユールコンサルティング,,株式会社,神奈川県,平塚市,中里２６番２８号,,14,203,2540054,,,,,,,2025-08-06,1,,,,,レイユールコンサルティング,0
629,3021003016383,新規,0,2025-08-06,2025-08-06,ＹＴＭＭＸ　Ｊａｐａｎ合同会社,,合同会社,神奈川県,平塚市,追分２番１号,,14,203,2540047,,,,,,,2025-08-06,1,,,,,ワイティーエムエムエックスジャパン,0
630,3021005013404,新規,0,2025-08-06,2025-08-06,一般社団法人オダックス・ジャパン神奈川,,その他の設立登記法人,神奈川県,鎌倉市,大船３丁目７－４,,14,204,2470056,,,,,,,2025-08-06,1,,,,,オダックスジャパンカナガワ,0
642,3030001168005,新規,0,2025-08-06,2025-08-06,株式会社シン,,株式会社,埼玉県,入間郡三芳町,大字北永井５４７番地６,,11,324,3540044,,,,,,,2025-08-06,1,,,,,シン,0
643,3030001168038,新規,0,2025-08-06,2025-08-06,株式会社パンダクリーニング,,株式会社,埼玉県,三郷市,高州２丁目１１７番地２,,11,237,3410037,,,,,,,2025-08-06,1,,,,,パンダクリーニング,0
652,3040003028189,新規,0,2025-08-06,2025-08-06,合同会社エアコンクリーン松戸,,合同会社,千葉県,松戸市,中矢切６２４番地の１アドグランデ松戸１０３号,,12,207,2710095,,,,,,,2025-08-06,1,,,,,エアコンクリーンマツド,0
653,3050001057032,新規,0,2025-08-06,2025-08-06,株式会社ダーナ,,株式会社,茨城県,石岡市,若宮３丁目３番７号ラフィーネ・Ｎ２０２,,08,205,3150017,,,,,,,2025-08-06,1,,,,,ダーナ,0
654,3050003009485,新規,0,2025-08-06,2025-08-06,合同会社晴天好日,,合同会社,茨城県,つくば市,研究学園５丁目１１番地２パークハウスつくば研究学園けやきレジデンス壱番館２０１号,,08,220,3050817,,,,,,,2025-08-06,1,,,,,セイテンコウジツ,0
661,3070001043204,新規,0,2025-08-06,2025-08-06,株式会社春日楼,,株式会社,群馬県,渋川市,伊香保町３２９番地１０,,10,208,3770000,,,,,,,2025-08-06,1,,,,,カスガロウ,0
662,3070001043212,新規,0,2025-08-06,2025-08-06,株式会社クレアシオン,,株式会社,群馬県,吾妻郡草津町,大字草津６１１番地,,10,426,3771711,,,,,,,2025-08-06,1,,,,,クレアシオン,0
663,3070001043229,新規,0,2025-08-06,2025-08-06,株式会社ＫＡＮＡＦＵＬＬ,,株式会社,群馬県,前橋市,富士見町横室１０１１番地２,,10,201,3710117,,,,,,,2025-08-06,1,,,,,カナフル,0
664,3070001043245,新規,0,2025-08-06,2025-08-06,株式会社ＤＩＧＩＬＩＣＯ,,株式会社,群馬県,前橋市,大友町３丁目２４－１,,10,201,3710847,,,,,,,2025-08-06,1,,,,,デジリコ,0
666,3070003006010,新規,0,2025-08-06,2025-08-06,合同会社孫太郎むらさき,,合同会社,群馬県,高崎市,上中居町１７０５,,10,202,3700851,,,,,,,2025-08-06,1,,,,,マゴタロウムラサキ,0
667,3070003006027,新規,0,2025-08-06,2025-08-06,ＫａｉｒｏｓＭｅｄｉｃ合同会社,,合同会社,群馬県,前橋市,千代田町２丁目７－１０,,10,201,3710022,,,,,,,2025-08-06,1,,,,,カイロスメディック,0
671,3080401028068,新規,0,2025-08-06,2025-08-06,株式会社ＯＬＩＶＥ,,株式会社,静岡県,浜松市中央区,船越町３１番１５－１３号,,22,138,4300913,,,,,,,2025-08-06,1,,,,,オリーブ,0
672,3080401028092,新規,0,2025-08-06,2025-08-06,株式会社クローバーｙ．ｓ,,株式会社,静岡県,浜松市浜名区,三ヶ日町福長７７番地の３,,22,139,4311411,,,,,,,2025-08-06,1,,,,,クローバーワイエス,0
676,3100001038836,新規,0,2025-08-06,2025-08-06,株式会社わくわくランド,,株式会社,長野県,伊那市,境１６６３番地,,20,209,3960010,,,,,,,2025-08-06,1,,,,,ワクワクランド,0
677,3100001038860,新規,0,2025-08-06,2025-08-06,株式会社エフ・サイン,,株式会社,長野県,千曲市,大字戸倉２１７８番地１,,20,218,3890804,,,,,,,2025-08-06,1,,,,,エフサイン,0
682,3100003008333,新規,0,2025-08-06,2025-08-06,合同会社ＳＡＦＡ,,合同会社,長野県,安曇野市,堀金烏川４９７６番地３３,,20,220,3998211,,,,,,,2025-08-06,1,,,,,サアファ,0
683,3110001039478,新規,0,2025-08-06,2025-08-06,株式会社セーフィック,,株式会社,新潟県,新潟市中央区,花園２丁目３－１プレステージ新潟４０３,,15,103,9500086,,,,,,,2025-08-06,1,,,,,セーフィック,0
684,3110003005841,新規,0,2025-08-06,2025-08-06,合同会社ＫＡＺ,,合同会社,新潟県,燕市,小池新町１４９番地２,,15,213,9591275,,,,,,,2025-08-06,1,,,,,ケイエーゼット,0
694,3120001278513,新規,0,2025-08-06,2025-08-06,株式会社インフィニティ,,株式会社,大阪府,大阪市鶴見区,緑１丁目７番９号３Ｆ,,27,124,5380054,,,,,,,2025-08-06,1,,,,,インフィニティ,0
695,3120001278570,新規,0,2025-08-06,2025-08-06,株式会社ＫＥＮＳＨＩ,,株式会社,大阪府,大阪市西区,阿波座１丁目２番５号アーバネックス本町ＩＩ１階,00140175,27,106,5500011,,,,,,,2025-08-06,1,,,,,ケンシ,0
696,3120001278579,新規,0,2025-08-06,2025-08-06,株式会社グランリフト,,株式会社,大阪府,大阪市淀川区,西中島４丁目３番２１号ＮＬＣセントラルビル４Ｆ,,27,123,5320011,,,,,,,2025-08-06,1,,,,,グランリフト,0
697,3120001278678,新規,0,2025-08-06,2025-08-06,株式会社戦略人事,,株式会社,大阪府,大阪市北区,梅田２丁目２‐２ヒルトンプラザウエスト１９Ｆ,,27,127,5300001,,,,,,,2025-08-06,1,,,,,センリャクジンジ,0
699,3120003030252,新規,0,2025-08-06,2025-08-06,合同会社Ｎｕｍｂｅｒｓ　Ｃｒｅａｔｉｏｎ,,合同会社,大阪府,枚方市,渚東町５‐１０,,27,210,5731176,,,,,,,2025-08-06,1,,,,,ナンバーズクリエイション,0
700,3120005025085,新規,0,2025-08-06,2025-08-06,特定非営利活動法人Ａｒｏｕｎｄ　Ｔｈｅ　Ｔａｂｌｅ,,その他の設立登記法人,大阪府,大阪市旭区,清水２丁目２０番２２号,,27,117,5350021,,,,,,,2025-08-06,1,,,,,アラウンドザテーブル,0
701,3120005025093,新規,0,2025-08-06,2025-08-06,一般社団法人上海市外国投資促進中心日本代表事務所,,その他の設立登記法人,大阪府,大阪市住之江区,南港北２丁目１番１０号ＡＴＣビルＩＴＭ棟５階Ｍ－２,,27,125,5590034,,,,,,,2025-08-06,1,,,,,シャンハイシガイコクトウシソクシンチュウシンニホンダイヒョウジムショ,0
708,3130001080298,新規,0,2025-08-06,2025-08-06,高野電工テックファシリティ株式会社,00140189,株式会社,京都府,亀岡市,篠町森上垣内４５番地６,,26,206,6210831,,,,,,,2025-08-06,1,,,,,タカノデンコウテックファシリティ,0
719,3170001018740,新規,0,2025-08-06,2025-08-06,株式会社森山工業,,株式会社,和歌山県,紀の川市,桃山町市場６３０－３,,30,208,6496124,,,,,,,2025-08-06,1,,,,,モリヤマコウギョウ,0
720,3170003002263,新規,0,2025-08-06,2025-08-06,合同会社ＬＡＤＹＢＩＲＤ,,合同会社,和歌山県,橋本市,みゆき台２８番地１２,,30,203,6480088,,,,,,,2025-08-06,1,,,,,レディーバード,0
730,3190001032450,新規,0,2025-08-06,2025-08-06,株式会社シュクル,,株式会社,三重県,四日市市,大字羽津４６４５番地３,,24,202,5100012,,,,,,,2025-08-06,1,,,,,シュクル,0
732,3200003006954,新規,0,2025-08-06,2025-08-06,合同会社山口裁断,,合同会社,岐阜県,羽島市,正木町須賀小松２１番地４,,21,209,5016217,,,,,,,2025-08-06,1,,,,,ヤマグチサイダン,0
733,3220001026853,新規,0,2025-08-06,2025-08-06,株式会社アーリー,,株式会社,石川県,金沢市,割出町１５番地３,,17,201,9200062,,,,,,,2025-08-06,1,,,,,アーリー,0
737,3240001065321,新規,0,2025-08-06,2025-08-06,株式会社ｋｋｏｔｏ,,株式会社,広島県,広島市南区,宇品海岸２丁目１１番１７－５号,,34,103,7340011,,,,,,,2025-08-06,1,,,,,ケケオト,0
739,3250001021281,新規,0,2025-08-06,2025-08-06,株式会社Ｗｏｒｌｄ　Ｔｅｃｈｎｏｌｏｇｙ　Ｊａｐａｎ　Ｇｒｏｕｐ,,株式会社,山口県,岩国市,今津町１丁目１３番２号日興ビル１階,,35,208,7400017,,,,,,,2025-08-06,1,,,,,ワールドテクノロジージャパングループ,0
741,3260001040405,新規,0,2025-08-06,2025-08-06,株式会社Ｓｗｉｎｇ‐ｂｙ,,株式会社,岡山県,岡山市南区,福富西２丁目４番２４号,,33,104,7028031,,,,,,,2025-08-06,1,,,,,スウィングバイ,0
748,3290001110915,新規,0,2025-08-06,2025-08-06,株式会社ＵＤＯ,,株式会社,福岡県,福岡市中央区,舞鶴１丁目２番２６号宇土ビル３Ｆ,,40,133,8100073,,,,,,,2025-08-06,1,,,,,ユーディーオー,0
749,3290001110923,新規,0,2025-08-06,2025-08-06,株式会社Ｆｒｅｅｓｉａ,,株式会社,福岡県,福岡市城南区,松山１丁目１３番１３号,,40,136,8140131,,,,,,,2025-08-06,1,,,,,フリージア,0
751,3290003017159,新規,0,2025-08-06,2025-08-06,合同会社ＢＦＦ,,合同会社,福岡県,福岡市東区,香椎照葉５丁目１－１２,,40,131,8130017,,,,,,,2025-08-06,1,,,,,,0
754,3290801031765,新規,0,2025-08-06,2025-08-06,光運株式会社,,株式会社,福岡県,北九州市八幡西区,陣原２丁目１５番６－７０７号,,40,109,8070821,,,,,,,2025-08-06,1,,,,,コウウン,0
756,3300001014305,新規,0,2025-08-06,2025-08-06,青空商会株式会社,,株式会社,佐賀県,佐賀市,西田代１丁目８番１５号,,41,201,8400045,,,,,,,2025-08-06,1,,,,,アオゾラショウカイ,0
758,3310003005061,新規,0,2025-08-06,2025-08-06,合同会社ももやそ,,合同会社,長崎県,長崎市,小江原２丁目１３番１５号,,42,201,8511132,,,,,,,2025-08-06,1,,,,,モモヤソ,0
761,3320001021266,新規,0,2025-08-06,2025-08-06,株式会社ｆｏｒｅｓｔ　ｆａｒｍ,,株式会社,大分県,豊後大野市,千歳町船田４０６番地,,44,212,8797402,,,,,,,2025-08-06,1,,,,,フォレストファーム,0
765,3330001033459,新規,0,2025-08-06,2025-08-06,株式会社末永動物病院,,株式会社,熊本県,菊池郡菊陽町,大字津久礼３８０９番地１,,43,404,8691101,,,,,,,2025-08-06,1,,,,,スエナガドウブツビョウイン,0
766,3330001033483,新規,0,2025-08-06,2025-08-06,株式会社ＡＬＩＶＥ,,株式会社,熊本県,菊池市,重味２４７９‐１,,43,210,8611682,,,,,,,2025-08-06,1,,,,,アライブ,0
768,3330003011165,新規,0,2025-08-06,2025-08-06,合同会社あきんＤＯ,,合同会社,熊本県,熊本市東区,山ノ内２丁目３番８２－２号,,43,102,8620914,,,,,,,2025-08-06,1,,,,,アキンド,0
772,3350003005000,新規,0,2025-08-06,2025-08-06,合同会社秀和堂,,合同会社,宮崎県,宮崎市,阿波岐原町前田２６３９番地１,,45,201,8800835,,,,,,,2025-08-06,1,,,,,シュウワドウ,0
782,3390001018074,新規,0,2025-08-06,2025-08-06,株式会社結城工業,,株式会社,山形県,東根市,小林２丁目３番３８－２０号,,06,211,9993710,,,,,,,2025-08-06,1,,,,,,0
783,3390003002423,新規,0,2025-08-06,2025-08-06,合同会社Ｋ＆Ｋ,,合同会社,山形県,最上郡最上町,大字富澤４０７番地,,06,362,9996105,,,,,,,2025-08-06,1,,,,,ケーアンドケー,0
793,3430001094920,新規,0,2025-08-06,2025-08-06,株式会社ワットエバー,,株式会社,北海道,札幌市中央区,南二条西５丁目３１－１ＲＭＢｌｄ．７０１,,01,101,0600062,,,,,,,2025-08-06,1,,,,,ワットエバー,0
794,3430001094945,新規,0,2025-08-06,2025-08-06,株式会社ＲＫ,,株式会社,北海道,札幌市清田区,真栄五条４丁目７番３号,,01,110,0040835,,,,,,,2025-08-06,1,,,,,アールケー,0
795,3430001095002,新規,0,2025-08-06,2025-08-06,株式会社コプロダクト,,株式会社,北海道,札幌市中央区,南八条西２５丁目２番１２号旭ヶ丘グリーンハイツ３０４,,01,101,0640808,,,,,,,2025-08-06,1,,,,,コプロダクト,0
796,3430003017904,新規,0,2025-08-06,2025-08-06,合同会社ちゃむ,,合同会社,北海道,札幌市中央区,南四条西２０丁目１番２０‐１０３号,,01,101,0640804,,,,,,,2025-08-06,1,,,,,チャム,0
797,3430003017994,新規,0,2025-08-06,2025-08-06,合同会社アセンソラ,,合同会社,北海道,札幌市白石区,南郷通１丁目北７番６－２号,,01,104,0030023,,,,,,,2025-08-06,1,,,,,アセンソラ,0
798,3440001009662,新規,0,2025-08-06,2025-08-06,株式会社２３５４６,,株式会社,北海道,函館市,青柳町１８番２１号,,01,202,0400044,,,,,,,2025-08-06,1,,,,,ニイサンゴウヨンロク,0
802,3700150131678,新規,0,2025-08-06,2025-08-06,ＴｏｒｉｉＴｒａｖｅｌｓ　ＡｐＳ,,外国会社等,東京都,新宿区,西新宿３丁目３番１３号西新宿水間ビル２Ｆ,,13,104,1600023,デンマーク国オーフス市ウニベルシティビューエン７番地,,,,,,2025-08-06,1,,,,,トリイトラベル,0
805,4010001257262,新規,0,2025-08-06,2025-08-06,株式会社アグリライト,,株式会社,東京都,千代田区,神田三崎町３丁目２番８号グランバレー三崎町５階,,13,101,1010061,,,,,,,2025-08-06,1,,,,,アグリライト,0
806,4010001257304,新規,0,2025-08-06,2025-08-06,株式会社ゆき,,株式会社,東京都,中央区,銀座２丁目１３－１８－８０７号,,13,102,1040061,,,,,,,2025-08-06,1,,,,,ユキ,0
807,4010001257386,新規,0,2025-08-06,2025-08-06,株式会社Ｂｕｓｔｏｎｅ,,株式会社,東京都,千代田区,富士見１丁目３－１１,,13,101,1020071,,,,,,,2025-08-06,1,,,,,バストーン,0
808,4010001257519,新規,0,2025-08-06,2025-08-06,株式会社ユイセイバン,,株式会社,東京都,中央区,日本橋人形町３丁目１番１３－５０１号,,13,102,1030013,,,,,,,2025-08-06,1,,,,,ユイセイバン,0
809,4010001257568,新規,0,2025-08-06,2025-08-06,株式会社ＪＣＩＡインサイト,,株式会社,東京都,中央区,日本橋２丁目１２番６号,,13,102,1030027,,,,,,,2025-08-06,1,,,,,ジェーシーアイエーインサイト,0
811,4010003048247,新規,0,2025-08-06,2025-08-06,紀尾井町第三合同会社,,合同会社,東京都,千代田区,紀尾井町１番３号,,13,101,1020094,,,,,,,2025-08-06,1,,,,,キオイチョウダイサン,0
821,4010403035761,新規,0,2025-08-06,2025-08-06,合同会社マーキュリー,,合同会社,東京都,港区,北青山１丁目２番３号,,13,103,1070061,,,,,,,2025-08-06,1,,,,,マーキュリー,0
826,4010503007933,新規,0,2025-08-06,2025-08-06,合同会社ＲＳダイニング,,合同会社,東京都,台東区,東上野３丁目１３番２号ＡＹビル７階,,13,106,1100015,,,,,,,2025-08-06,1,,,,,アールエスダイニング,0
829,4010601067722,新規,0,2025-08-06,2025-08-06,ＳＣ株式会社,,株式会社,東京都,墨田区,緑１丁目１２番６号,,13,107,1300021,,,,,,,2025-08-06,1,,,,,エスシー,0
838,4010901057869,新規,0,2025-08-06,2025-08-06,株式会社ＹＡＴＡＫＡ,,株式会社,東京都,世田谷区,池尻１丁目８番６号,,13,112,1540001,,,,,,,2025-08-06,1,,,,,ヤタカ,0
852,4011003021978,新規,0,2025-08-06,2025-08-06,合同会社ｒｉｎｄｏｏ,,合同会社,東京都,渋谷区,５番３号ＭＩＥＵＸ渋谷ビル８階,,13,113,1500000,,,,,,,2025-08-06,1,,,,,リンドウ,0
855,4011101112472,新規,0,2025-08-06,2025-08-06,株式会社ココラ,,株式会社,東京都,新宿区,西新宿３丁目３番１３号西新宿水間ビル２Ｆ,,13,104,1600023,,,,,,,2025-08-06,1,,,,,ココラ,0
856,4011101112497,新規,0,2025-08-06,2025-08-06,株式会社シロオモチ,,株式会社,東京都,新宿区,西新宿３丁目３－１３西新宿水間ビル６階,,13,104,1600023,,,,,,,2025-08-06,1,,,,,シロオモチ,0
858,4011201026548,新規,0,2025-08-06,2025-08-06,株式会社ＴｒｉＦ,,株式会社,東京都,中野区,本町２丁目４番１１号２階,,13,114,1640012,,,,,,,2025-08-06,1,,,,,トライフ,0
860,4011501032403,新規,0,2025-08-06,2025-08-06,株式会社ゲームチェンジャーズ,,株式会社,東京都,荒川区,西日暮里２丁目２２番１－３５０８号,,13,118,1160013,,,,,,,2025-08-06,1,,,,,ゲームチェンジャーズ,0
865,4011803006996,新規,0,2025-08-06,2025-08-06,合同会社関口リアルエステートインベストメント,,合同会社,東京都,葛飾区,新小岩２丁目８番７－１４０２号,,13,122,1240024,,,,,,,2025-08-06,1,,,,,セキグチリアルエステートインベストメント,0
868,4012401043432,新規,0,2025-08-06,2025-08-06,株式会社ＫＩＫＵＺＡＫＩ観光,,株式会社,東京都,多摩市,諏訪１丁目５－９ベルメゾン２０６,,13,224,2060024,,,,,,,2025-08-06,1,,,,,キクザキカンコウ,0
893,4020001164094,新規,0,2025-08-06,2025-08-06,株式会社ティーアール,,株式会社,神奈川県,横浜市保土ケ谷区,月見台１０番２７号フォレストメゾン月見台２号室,,14,106,2400012,,,,,,,2025-08-06,1,,,,,ティーアール,0
894,4020001164185,新規,0,2025-08-06,2025-08-06,株式会社ＫＳＢカワサキ,,株式会社,神奈川県,川崎市宮前区,菅生ケ丘３６番６号,,14,136,2160014,,,,,,,2025-08-06,1,,,,,ケーエスビーカワサキ,0
895,4020001164202,新規,0,2025-08-06,2025-08-06,株式会社絆道,,株式会社,神奈川県,横浜市都筑区,勝田町８６７番地２,,14,118,2240034,,,,,,,2025-08-06,1,,,,,,0
896,4020001164235,新規,0,2025-08-06,2025-08-06,株式会社安田屋酒店,,株式会社,神奈川県,横浜市中区,山下町１３０番地・１Ｆ,,14,104,2310023,,,,,,,2025-08-06,1,,,,,ヤスダヤサケテン,0
897,4020001164243,新規,0,2025-08-06,2025-08-06,株式会社Ｂｉｔ　ＡＣ,,株式会社,神奈川県,横浜市西区,北幸２丁目１０番４８号むつみビル３階,,14,103,2200004,,,,,,,2025-08-06,1,,,,,ビットエーシー,0
901,4020003029023,新規,0,2025-08-06,2025-08-06,広進商事合同会社,,合同会社,神奈川県,横浜市南区,花之木町２丁目２８番１号,,14,105,2320018,,,,,,,2025-08-06,1,,,,,ヒロシンショウジ,0
907,4021001085941,新規,0,2025-08-06,2025-08-06,株式会社ＳＨＩ‐ＺＥＮ,,株式会社,神奈川県,逗子市,新宿１丁目２番３－４３２号,,14,208,2490007,,,,,,,2025-08-06,1,,,,,シゼン,0
911,4021003016382,新規,0,2025-08-06,2025-08-06,コネクトジャパン合同会社,,合同会社,神奈川県,小田原市,羽根尾４２０番地サンヒルズ峯尾Ｉ１０１,00140185,14,206,2560804,,,,,,,2025-08-06,1,,,,,コネクトジャパン,0
914,4030001167947,新規,0,2025-08-06,2025-08-06,株式会社ルミナスエイト,,株式会社,埼玉県,春日部市,大場１１８６番地１,,11,214,3440021,,,,,,,2025-08-06,1,,,,,ルミナスエイト,0
915,4030001167988,新規,0,2025-08-06,2025-08-06,株式会社大仙塗装店,,株式会社,埼玉県,川口市,朝日６丁目１３番９号,,11,203,3320001,,,,,,,2025-08-06,1,,,,,ダイセントソウテン,0
916,4030001168012,新規,0,2025-08-06,2025-08-06,株式会社ＳＵＮトータルサポート,,株式会社,埼玉県,戸田市,上戸田２丁目２０番１号,,11,224,3350022,,,,,,,2025-08-06,1,,,,,サントータルサポート,0
917,4030001168029,新規,0,2025-08-06,2025-08-06,Ｔｕｒｂｏ　Ｖｉｂｅ株式会社,,株式会社,埼玉県,入間郡毛呂山町,大字市場１２８－１－２０６号室,,11,326,3500434,,,,,,,2025-08-06,1,,,,,ターボバイブ,0
918,4030001168037,新規,0,2025-08-06,2025-08-06,東海株式会社,,株式会社,埼玉県,越谷市,大字袋山１６１３－１０,,11,222,3430032,,,,,,,2025-08-06,1,,,,,トウカイ,0
919,4030001168045,新規,0,2025-08-06,2025-08-06,ＴＡＩＹＯ　ＴＲＡＤＩＮＧ株式会社,,株式会社,埼玉県,羽生市,東６丁目１２番地１９,,11,216,3480052,,,,,,,2025-08-06,1,,,,,タイヨートレーディング,0
921,4030003027224,新規,0,2025-08-06,2025-08-06,合同会社ＳＯＲＡ,,合同会社,埼玉県,川越市,大字笠幡３６８８－１０,,11,201,3501175,,,,,,,2025-08-06,1,,,,,ソラ,0
927,4040001139870,新規,0,2025-08-06,2025-08-06,ＷＫＳ　ＴＲＡＤＩＮＧ株式会社,,株式会社,千葉県,野田市,柏寺２５８番地６,,12,208,2700214,,,,,,,2025-08-06,1,,,,,ダブリューケイエストレーディング,0
932,4040003028188,新規,0,2025-08-06,2025-08-06,合同会社子ども食堂松戸,,合同会社,千葉県,松戸市,中矢切６２４番地の１アドグランデ松戸１０３号,,12,207,2710095,,,,,,,2025-08-06,1,,,,,コドモショクドウマツド,0
934,4040005022833,新規,0,2025-08-06,2025-08-06,一般社団法人Ｂｏｓａｔｓｕ　Ｗｏｒｋｓ,,その他の設立登記法人,千葉県,勝浦市,新官１７４番地,,12,218,2995224,,,,,,,2025-08-06,1,,,,,ボサツワークス,0
938,4060001038468,新規,0,2025-08-06,2025-08-06,株式会社ＢｕｉｌｄＧａｍｉｎｇＬａｂ,,株式会社,栃木県,佐野市,若松町３５０番地,,09,204,3270846,,,,,,,2025-08-06,1,,,,,ビルドゲーミングラボ,0
939,4060001038476,新規,0,2025-08-06,2025-08-06,株式会社ハル,,株式会社,栃木県,下野市,薬師寺２８６６番地１,,09,216,3290431,,,,,,,2025-08-06,1,,,,,ハル,0
941,4060003005672,新規,0,2025-08-06,2025-08-06,合同会社ＢｉｚＡｓｓｉｓｔ,,合同会社,栃木県,小山市,城東３丁目１３番７号,,09,208,3230807,,,,,,,2025-08-06,1,,,,,ビズアシスト,0
942,4070001043228,新規,0,2025-08-06,2025-08-06,株式会社ＴＩＨ,,株式会社,群馬県,高崎市,下佐野町１０６３番地１,,10,202,3700855,,,,,,,2025-08-06,1,,,,,ティアイエイチ,0
943,4070003006026,新規,0,2025-08-06,2025-08-06,エスエヌエス合同会社,,合同会社,群馬県,高崎市,上豊岡町９８１番地６,,10,202,3700871,,,,,,,2025-08-06,1,,,,,エスエヌエス,0
944,4070005010414,新規,0,2025-08-06,2025-08-06,一般社団法人虹ノオト,,その他の設立登記法人,群馬県,高崎市,榛高町７３０番地２３０,,10,202,3700000,,,,,,,2025-08-06,1,,,,,ニジノオト,0
946,4080003003518,新規,0,2025-08-06,2025-08-06,ハーベストヘルス合同会社,,合同会社,静岡県,藤枝市,清里１丁目３３番地の１６,,22,214,4260223,,,,,,,2025-08-06,1,,,,,ハーベストヘルス,0
947,4080101025694,新規,0,2025-08-06,2025-08-06,株式会社マルモ,,株式会社,静岡県,沼津市,岡宮６３７番地の１,,22,203,4100011,,,,,,,2025-08-06,1,,,,,マルモ,0
948,4080101025703,新規,0,2025-08-06,2025-08-06,株式会社ＭＯＪＩ　ＷＯＲＫＳ,,株式会社,静岡県,御殿場市,新橋１５７５番地の８,,22,215,4120043,,,,,,,2025-08-06,1,,,,,モジワークス,0
950,4080403005312,新規,0,2025-08-06,2025-08-06,合同会社ｌｕａｓｏｌ,,合同会社,静岡県,掛川市,梅橋２‐１‐２,,22,213,4360034,,,,,,,2025-08-06,1,,,,,ルアソル,0
952,4100001038835,新規,0,2025-08-06,2025-08-06,株式会社英桜,,株式会社,長野県,長野市,権堂町２３９５番地９０３号,,20,201,3810000,,,,,,,2025-08-06,1,,,,,エイオウ,0
953,4100001038843,新規,0,2025-08-06,2025-08-06,株式会社縁,,株式会社,長野県,上伊那郡辰野町,大字辰野１１１２番地,,20,382,3990421,,,,,,,2025-08-06,1,,,,,エニシ,0
965,4120001278470,新規,0,2025-08-06,2025-08-06,株式会社ＨＯＦＦ,,株式会社,大阪府,大阪市北区,梅田１丁目１－３大阪駅前第３ビル２９階１－１－１号室,,27,127,5300001,,,,,,,2025-08-06,1,,,,,ホフ,0
966,4120001278495,新規,0,2025-08-06,2025-08-06,株式会社キャリアラインプラス,,株式会社,大阪府,大阪市福島区,海老江１丁目５番３０－８０８号,,27,103,5530001,,,,,,,2025-08-06,1,,,,,キャリアラインプラス,0
967,4120001278611,新規,0,2025-08-06,2025-08-06,日尚商事株式会社,,株式会社,大阪府,大阪市都島区,高倉町１丁目６番１３号３０Ｂ,,27,102,5340011,,,,,,,2025-08-06,1,,,,,ニッショウショウジ,0
968,4120001278652,新規,0,2025-08-06,2025-08-06,株式会社ＬＯＴＵＳ,,株式会社,大阪府,大阪市北区,堂島１丁目２番２７号オーシャンビル４階,,27,127,5300003,,,,,,,2025-08-06,1,,,,,ロータス,0
976,4120003030202,新規,0,2025-08-06,2025-08-06,合同会社郵優,,合同会社,大阪府,大阪市東成区,深江北１丁目１２－２６－２１８,,27,115,5370001,,,,,,,2025-08-06,1,,,,,ユウユウ,0
977,4120003030210,新規,0,2025-08-06,2025-08-06,合同会社ＭＯＯＦ,,合同会社,大阪府,大阪市北区,曾根崎新地１丁目３番３０号ＫＯＨＤＡビル５Ｆ５Ｄ,,27,127,5300002,,,,,,,2025-08-06,1,,,,,ムーフ,0
980,4120005025084,新規,0,2025-08-06,2025-08-06,一般社団法人日本遺骨供養協会,,その他の設立登記法人,大阪府,大阪市大正区,南恩加島６丁目９番２号,,27,108,5510021,,,,,,,2025-08-06,1,,,,,ニホンイコツクヨウキョウカイ,0
981,4120005025092,新規,0,2025-08-06,2025-08-06,一般社団法人ＨＯＰＥ教育支援グループ,,その他の設立登記法人,大阪府,枚方市,北中振１丁目２－７,,27,210,5730064,,,,,,,2025-08-06,1,,,,,ホープキョウイクシエングループ,0
986,4120101072229,新規,0,2025-08-06,2025-08-06,株式会社ｓｕｍａｉｄ,,株式会社,大阪府,松原市,阿保３丁目１－２３フレックスビル３０５,,27,217,5800043,,,,,,,2025-08-06,1,,,,,スマイダ,0
987,4120101072237,新規,0,2025-08-06,2025-08-06,日基株式会社,,株式会社,大阪府,和泉市,伏屋町２丁目１０番１６号,,27,219,5940031,,,,,,,2025-08-06,1,,,,,ニッキ,0
994,4122001039489,新規,0,2025-08-06,2025-08-06,コウシンプロダクツ株式会社,,株式会社,大阪府,八尾市,西高安町１丁目６１番地,,27,212,5810852,,,,,,,2025-08-06,1,,,,,コウシンプロダクツ,0
998,4130001080248,新規,0,2025-08-06,2025-08-06,株式会社ピースプラスワン,,株式会社,京都府,京都市山科区,西野山射庭ノ上町１３番地４,,26,110,6078307,,,,,,,2025-08-06,1,,,,,ピースプラスワン,0
999,4130001080297,新規,0,2025-08-06,2025-08-06,株式会社紅茶舗治郎兵衛,,株式会社,京都府,京都市左京区,岩倉西宮田町５１－３,,26,103,6060011,,,,,,,2025-08-06,1,,,,,コウチャホジロベエ,0
1004,4140001139571,新規,0,2025-08-06,2025-08-06,ＴＫ　ＧＲＯＵＰ株式会社,,株式会社,兵庫県,神戸市兵庫区,水木通８丁目１番９号２階,,28,105,6520802,,,,,,,2025-08-06,1,,,,,ティーケーグループ,0
1008,4150001028311,新規,0,2025-08-06,2025-08-06,株式会社マツヨシワールド,,株式会社,奈良県,生駒郡三郷町,立野北３丁目１６番２３号,,29,343,6360821,,,,,,,2025-08-06,1,,,,,マツヨシワールド,0
1009,4160001026966,新規,0,2025-08-06,2025-08-06,株式会社景日,,株式会社,滋賀県,大津市,南郷上山町１０－６,,25,201,5200871,,,,,,,2025-08-06,1,,,,,ケイジツ,0
1020,4180301040087,新規,0,2025-08-06,2025-08-06,株式会社ＳＦＬ,,株式会社,愛知県,豊橋市,舟原町１４５番地３サーラシティ舟原３０３号,,23,201,4400813,,,,,,,2025-08-06,1,,,,,エスエフエル,0
1021,4190001032458,新規,0,2025-08-06,2025-08-06,株式会社ＣＡＴＴＬＥＷＯＲＫＳ,,株式会社,三重県,亀山市,関ケ丘５２１番地８８,,24,210,5191119,,,,,,,2025-08-06,1,,,,,キャトルワークス,0
1034,4250001021289,新規,0,2025-08-06,2025-08-06,のぉくれ株式会社,,株式会社,山口県,柳井市,余田８０３番地２,,35,212,7420034,,,,,,,2025-08-06,1,,,,,ノォクレ,0
1040,4290001110947,新規,0,2025-08-06,2025-08-06,株式会社ＣＨＩＫＡＮＡ,,株式会社,福岡県,福岡市中央区,天神２丁目２番１２号Ｔ＆Ｊビルディング８階,,40,133,8100001,,,,,,,2025-08-06,1,,,,,チカナ,0
1041,4290001111053,新規,0,2025-08-06,2025-08-06,株式会社ナビタス,,株式会社,福岡県,福岡市南区,那の川１丁目２２－２２－５１１皐月マンション那の川,,40,134,8150081,,,,,,,2025-08-06,1,,,,,ナビタス,0
1043,4290003017166,新規,0,2025-08-06,2025-08-06,合同会社ビンナ,,合同会社,福岡県,糸島市,志摩初３８３－２７,,40,230,8191312,,,,,,,2025-08-06,1,,,,,ビンナ,0
1045,4290005019805,新規,0,2025-08-06,2025-08-06,一般社団法人日本スナック協会,,その他の設立登記法人,福岡県,福岡市博多区,美野島３丁目１７番２９号ＦＭＴ・ＲＥＳＩＤＥＮＣＥ・ＨＡＫＡＴＡ・ＭＩＮＯＳＨＩＭＡ・ＢＡＳＥ２階２－Ｃ号室,,40,132,8120017,,,,,,,2025-08-06,1,,,,,ニホンスナックキョウカイ,0
1047,4290801031748,新規,0,2025-08-06,2025-08-06,株式会社ＴＩＥ,,株式会社,福岡県,北九州市八幡西区,鷹の巣２丁目４番２３号,,40,109,8060047,,,,,,,2025-08-06,1,,,,,ティーアイイー,0
1052,4300001014304,新規,0,2025-08-06,2025-08-06,株式会社ＢＯＬ,,株式会社,佐賀県,三養基郡基山町,大字小倉１０３０番地１,,41,341,8410201,,,,,,,2025-08-06,1,,,,,ボル,0
1053,4300001014312,新規,0,2025-08-06,2025-08-06,株式会社カーセレクトニシムラ,,株式会社,佐賀県,佐賀市,川副町大字西古賀３７７番地,,41,201,8402204,,,,,,,2025-08-06,1,,,,,カーセレクトニシムラ,0
1060,4320001021257,新規,0,2025-08-06,2025-08-06,株式会社大成工業,,株式会社,大分県,大分市,東浜２丁目９番２５号,,44,201,8700932,,,,,,,2025-08-06,1,,,,,ダイセイコウギョウ,0
1064,4330001033466,新規,0,2025-08-06,2025-08-06,株式会社ふぁー夢おおむら,,株式会社,熊本県,上益城郡益城町,大字小谷１１８１番地３,,43,443,8612204,,,,,,,2025-08-06,1,,,,,ファームオオムラ,0
1066,4330003011164,新規,0,2025-08-06,2025-08-06,合同会社Ｔ・Ｙｓｕｃｃｅｓｓ,,合同会社,熊本県,熊本市中央区,米屋町１丁目９番地１（６０７号）フローレンス五福グランドアーク,,43,101,8600029,,,,,,,2025-08-06,1,,,,,ティワイサクセス,0
1073,4360001035591,新規,0,2025-08-06,2025-08-06,株式会社優賀工業,,株式会社,沖縄県,うるま市,字具志川１３１５番地イナフクハウス２Ｆ,,47,213,9042223,,,,,,,2025-08-06,1,,,,,ユウガコウギョウ,0
1074,4360001035600,新規,0,2025-08-06,2025-08-06,株式会社ＮＡＫＡＹＯＳＨＩ,,株式会社,沖縄県,那覇市,曙３丁目１６番１６－８０４号ブランシエラ那覇曙プレミスト,,47,201,9000002,,,,,,,2025-08-06,1,,,,,ナカヨシ,0
1075,4360003015154,新規,0,2025-08-06,2025-08-06,ＳＥＮＥＳＴ合同会社,,合同会社,沖縄県,豊見城市,字翁長５７６番地１３,,47,212,9010223,,,,,,,2025-08-06,1,,,,,セネスト,0
1083,4390001018073,新規,0,2025-08-06,2025-08-06,株式会社ｋｓ‐ｎｅｘｔ,,株式会社,山形県,山形市,七日町１丁目２番３６号,,06,201,9900042,,,,,,,2025-08-06,1,,,,,ケーズネクスト,0
1092,4420001019225,新規,0,2025-08-06,2025-08-06,アンドライス株式会社,,株式会社,青森県,青森市,浪岡大字樽沢字村元３３５番地１５,,02,201,0381342,,,,,,,2025-08-06,1,,,,,アンドライス,0
1093,4430001094903,新規,0,2025-08-06,2025-08-06,株式会社美山企画,,株式会社,北海道,札幌市白石区,川下２１２９番３１,,01,104,0030869,,,,,,,2025-08-06,1,,,,,ミヤマキカク,0
1102,4700150131677,新規,0,2025-08-06,2025-08-06,南京未来通軟件技術有限公司,,外国会社等,東京都,港区,虎ノ門３丁目１８－１２スチュディオ虎ノ門７０２号室,,13,103,1050001,中華人民共和国江蘇省南京市雨花台区西春路１号創智ビル北楼１階Ｄ区Ｄ２,,,,,,2025-08-06,1,,,,,ナンキンミライツウナンケンギジユツユウゲンコウシ,0
1109,5010001257253,新規,0,2025-08-06,2025-08-06,株式会社ソアネクスト,,株式会社,東京都,千代田区,神田須田町２丁目１９－２３Ｄａｉｗａ秋葉原ビル２階,,13,101,1010041,,,,,,,2025-08-06,1,,,,,ソアネクスト,0
1110,5010001257377,新規,0,2025-08-06,2025-08-06,ニチリョク納骨堂株式会社,,株式会社,東京都,中央区,八重洲１丁目７番２０号,,13,102,1030028,,,,,,,2025-08-06,1,,,,,ニチリョクノウコツドウ,0
1111,5010001257419,新規,0,2025-08-06,2025-08-06,株式会社ファイズリンク,,株式会社,東京都,千代田区,神田和泉町１番地６－１６ヤマトビル４０５,,13,101,1010024,,,,,,,2025-08-06,1,,,,,ファイズリンク,0
1113,5010003048262,新規,0,2025-08-06,2025-08-06,合同会社難波東キャピタル,,合同会社,東京都,千代田区,丸の内１丁目６番５号,,13,101,1000005,,,,,,,2025-08-06,1,,,,,ナンバヒガシキャピタル,0
1118,5010005040481,新規,0,2025-08-06,2025-08-06,一般社団法人全国高齢者等終身サポート事業者協会,,その他の設立登記法人,東京都,千代田区,五番町５番地１,,13,101,1020076,,,,,,,2025-08-06,1,,,,,ゼンコクコウレイシャトウシュウシンサポートジギョウシャキョウカイ,0
1119,5010005040498,新規,0,2025-08-06,2025-08-06,山佐ＫＬＭ５一般社団法人,,その他の設立登記法人,東京都,千代田区,丸の内１丁目４番１号東京共同会計事務所内,,13,101,1000005,,,,,,,2025-08-06,1,,,,,ヤマサケイエルエムファイブ,0
1123,5010101016781,新規,0,2025-08-06,2025-08-06,ＷＡＦＥＲＬＯＣＫ　ＪＡＰＡＮ株式会社,,株式会社,東京都,八王子市,子安町１丁目４８番９号２０２号室,,13,201,1920904,,,,,,,2025-08-06,1,,,,,ウェハーロックジャパン,0
1124,5010101016807,新規,0,2025-08-06,2025-08-06,株式会社ＭＯＮＫＡＲ,,株式会社,東京都,八王子市,上柚木３丁目９番地３－２０４,,13,201,1920373,,,,,,,2025-08-06,1,,,,,モンカル,0
1125,5010103002623,新規,0,2025-08-06,2025-08-06,リアシス合同会社,,合同会社,東京都,八王子市,南陽台３丁目１３番１７号,,13,201,1920371,,,,,,,2025-08-06,1,,,,,リアシス,0
1131,5010401192174,新規,0,2025-08-06,2025-08-06,株式会社Ｊｅｒｉｃｈｏ,,株式会社,東京都,港区,南青山３丁目１番３６号青山丸竹ビル６Ｆ,,13,103,1070062,,,,,,,2025-08-06,1,,,,,ジェリコ,0
1139,5010503007899,新規,0,2025-08-06,2025-08-06,谷根千企画合同会社,,合同会社,東京都,台東区,谷中３丁目１９番５号,,13,106,1100001,,,,,,,2025-08-06,1,,,,,ヤネセンキカク,0
1143,5010701048118,新規,0,2025-08-06,2025-08-06,ステラグロース株式会社,,株式会社,東京都,品川区,上大崎３丁目２番１号,,13,109,1410021,,,,,,,2025-08-06,1,,,,,ステラグロース,0
1145,5010801036468,新規,0,2025-08-06,2025-08-06,株式会社快風会,,株式会社,東京都,大田区,東嶺町３２番１０号,,13,111,1450074,,,,,,,2025-08-06,1,,,,,カイフウカイ,0
1149,5010901057868,新規,0,2025-08-06,2025-08-06,株式会社ＡＭＲ,,株式会社,東京都,世田谷区,北沢４丁目４番２１号,,13,112,1550031,,,,,,,2025-08-06,1,,,,,アムール,0
1150,5010901057876,新規,0,2025-08-06,2025-08-06,株式会社ｃｒｅＡ　ｔａｂｌｅ,,株式会社,東京都,世田谷区,等々力４丁目５番９号キラクプレイス等々力２－Ｂ,,13,112,1580082,,,,,,,2025-08-06,1,,,,,クレアターブル,0
1153,5011001171163,新規,0,2025-08-06,2025-08-06,株式会社Ｏｘｙｍｏｒｏｎ,,株式会社,東京都,渋谷区,恵比寿西２丁目８番４号ＥＸ恵比寿西ビル５階,,13,113,1500021,,,,,,,2025-08-06,1,,,,,オキシモロン,0
1158,5011101112570,新規,0,2025-08-06,2025-08-06,ＮＣＮＰ　Ｃｏｎｓｕｌｔｉｎｇ株式会社,,株式会社,東京都,新宿区,神楽坂２丁目１７,,13,104,1620825,,,,,,,2025-08-06,1,,,,,エヌシーエヌピーコンサルティング,0
1160,5011203004781,新規,0,2025-08-06,2025-08-06,合同会社すいぎょのおもい,,合同会社,東京都,中野区,鷺宮６丁目８番９号ＭＡＣ鷺宮ホームズ１０４,,13,114,1650032,,,,,,,2025-08-06,1,,,,,スイギョノオモイ,0
1162,5011303005663,新規,0,2025-08-06,2025-08-06,クイックルート合同会社,,合同会社,東京都,杉並区,方南１丁目３３番２５号トヨトミハウスＩＩ１０２,,13,115,1680062,,,,,,,2025-08-06,1,,,,,クイックルート,0
1167,5011605002664,新規,0,2025-08-06,2025-08-06,一般社団法人Ｂｅｓｈａ埼玉大宮,,その他の設立登記法人,東京都,練馬区,光が丘７丁目６番１９－３０６号,,13,120,1790072,,,,,,,2025-08-06,1,,,,,ビーシャサイタマオオミヤ,0
1170,5012301014490,新規,0,2025-08-06,2025-08-06,株式会社ベルシャンス,,株式会社,東京都,町田市,三輪緑山２丁目２１４１番地１,,13,209,1950055,,,,,,,2025-08-06,1,,,,,ベルシャンス,0
1176,5012401043381,新規,0,2025-08-06,2025-08-06,株式会社Ｙ・Ｔ・Ｍ多摩,,株式会社,東京都,多摩市,落合１丁目５番地１,,13,224,2060033,,,,,,,2025-08-06,1,,,,,ワイティーエムタマ,0
1177,5012403007269,新規,0,2025-08-06,2025-08-06,合同会社レアビー,,合同会社,東京都,狛江市,西野川４丁目３７番７号ボナール・フラット２０２,,13,219,2010001,,,,,,,2025-08-06,1,,,,,レアビー,0
1185,5020001163987,新規,0,2025-08-06,2025-08-06,ＫＩＮＲＩＮ技研株式会社,,株式会社,神奈川県,横浜市鶴見区,市場下町１１－３７ナイスクオリティス横浜１２７室,,14,101,2300024,,,,,,,2025-08-06,1,,,,,キンリンギケン,0
1186,5020001164102,新規,0,2025-08-06,2025-08-06,一祐塗建株式会社,,株式会社,神奈川県,川崎市高津区,東野川１丁目１９番３３－１０３号,,14,134,2130029,,,,,,,2025-08-06,1,,,,,イチユウトケン,0
1187,5020001164234,新規,0,2025-08-06,2025-08-06,株式会社ＮＯＲＯＳＨＩ,,株式会社,神奈川県,川崎市高津区,溝口２丁目７番２７号,,14,134,2130001,,,,,,,2025-08-06,1,,,,,ノロシ,0
1188,5020001164291,新規,0,2025-08-06,2025-08-06,株式会社天神森,,株式会社,神奈川県,川崎市中原区,木月４丁目９番２５号,,14,133,2110025,,,,,,,2025-08-06,1,,,,,テンジンモリ,0
1192,5020003028957,新規,0,2025-08-06,2025-08-06,ＬＴ合同会社,,合同会社,神奈川県,横浜市中区,吉田町５番地１第１吉田ビル４０３号,,14,104,2310041,,,,,,,2025-08-06,1,,,,,エルティー,0
1193,5020003028998,新規,0,2025-08-06,2025-08-06,合同会社たちつとこ,,合同会社,神奈川県,横浜市港南区,日野南４丁目６番２４－５１５号,,14,111,2340055,,,,,,,2025-08-06,1,,,,,タチツトコ,0
1194,5020003029030,新規,0,2025-08-06,2025-08-06,合同会社ｎｉｃｈｉ,,合同会社,神奈川県,横浜市神奈川区,金港町５－１４クアドリフォリオ８階,,14,102,2210056,,,,,,,2025-08-06,1,,,,,ニチ,0
1196,5021001085800,新規,0,2025-08-06,2025-08-06,株式会社からもん,,株式会社,神奈川県,相模原市中央区,星が丘３丁目１１番１３号,,14,152,2520238,,,,,,,2025-08-06,1,,,,,カラモン,0
1197,5021001086014,新規,0,2025-08-06,2025-08-06,株式会社Ｔ＆Ｙイベント事務所,,株式会社,神奈川県,茅ヶ崎市,東海岸北２丁目１３番３２－２号,,14,207,2530053,,,,,,,2025-08-06,1,,,,,ティーアンドワイイベントジムショ,0
1205,5030001167938,新規,0,2025-08-06,2025-08-06,株式会社ｉｎ‐ｈｉｇｈ　ｗｏｒｋｓ,,株式会社,埼玉県,八潮市,大字二丁目１０９９番地３,,11,234,3400811,,,,,,,2025-08-06,1,,,,,インハイワークス,0
1206,5030001168028,新規,0,2025-08-06,2025-08-06,Ｍｉｄｏｒｉ　Ｒｏｏｔｓ株式会社,,株式会社,埼玉県,蓮田市,椿山１丁目１２番８号,,11,238,3490144,,,,,,,2025-08-06,1,,,,,ミドリルーツ,0
1207,5030001168036,新規,0,2025-08-06,2025-08-06,株式会社フェリース,,株式会社,埼玉県,草加市,八幡町４６６番地７,,11,221,3400006,,,,,,,2025-08-06,1,,,,,フェリース,0
1216,5030003027248,新規,0,2025-08-06,2025-08-06,Ｅｘｐｅｒｉｅｎｔｉａｌ　Ｇｌｏｂａｌ　Ｇｒｏｕｐ合同会社,,合同会社,埼玉県,和光市,本町３１－１５－６０４,,11,229,3510114,,,,,,,2025-08-06,1,,,,,エクスペリエンシャルグローバルグループ,0
1217,5030003027339,新規,0,2025-08-06,2025-08-06,長信合同会社,,合同会社,埼玉県,蕨市,塚越７丁目３０番５号,,11,223,3350002,,,,,,,2025-08-06,1,,,,,チョウシン,0
1222,5040001139952,新規,0,2025-08-06,2025-08-06,阜株式会社,,株式会社,千葉県,松戸市,栄町３丁目１７４番地の３０,,12,207,2710062,,,,,,,2025-08-06,1,,,,,フ,0
1228,5050001057030,新規,0,2025-08-06,2025-08-06,株式会社輝王グローバル,,株式会社,茨城県,桜川市,真壁町亀熊１８７２番地３,,08,231,3004422,,,,,,,2025-08-06,1,,,,,キオウグローバル,0
1233,5050005013673,新規,0,2025-08-06,2025-08-06,特定非営利活動法人整形外科ネットワーク筑波,,その他の設立登記法人,茨城県,つくば市,天王台１丁目１番地１号筑波大学医学医療系整形外科内,,08,220,3050006,,,,,,,2025-08-06,1,,,,,セイケイゲカネットワークツクバ,0
1237,5060001038467,新規,0,2025-08-06,2025-08-06,善林園芸株式会社,,株式会社,栃木県,鹿沼市,南上野町５０８番地３,,09,205,3220531,,,,,,,2025-08-06,1,,,,,ゼンバヤシエンゲイ,0
1238,5060001038483,新規,0,2025-08-06,2025-08-06,山京貿易株式会社,,株式会社,栃木県,栃木市,境町１９番２２号ポレスター栃木蔵の街６０２号,,09,203,3280043,,,,,,,2025-08-06,1,,,,,サンキョウボウエキ,0
1241,5070001043219,新規,0,2025-08-06,2025-08-06,株式会社あすか,,株式会社,群馬県,太田市,八幡町２３番１１号,,10,205,3730056,,,,,,,2025-08-06,1,,,,,アスカ,0
1242,5070001043227,新規,0,2025-08-06,2025-08-06,株式会社ＤＫ,,株式会社,群馬県,伊勢崎市,連取町５２６番地１ダコタハウス１０３号室,,10,204,3720812,,,,,,,2025-08-06,1,,,,,ディーケー,0
1243,5070001043235,新規,0,2025-08-06,2025-08-06,株式会社シロクロ,,株式会社,群馬県,邑楽郡大泉町,大字古海７３６番地２４,,10,524,3700524,,,,,,,2025-08-06,1,,,,,シロクロ,0
1247,5080001027071,新規,0,2025-08-06,2025-08-06,株式会社ＮＯＭＯＲＥ,,株式会社,静岡県,静岡市駿河区,大坪町４番１７－４０５号,,22,102,4228075,,,,,,,2025-08-06,1,,,,,ノーモア,0
1248,5080003003517,新規,0,2025-08-06,2025-08-06,合同会社ＡＫマテリアル,,合同会社,静岡県,静岡市清水区,有東坂４４２番地の６,,22,103,4240873,,,,,,,2025-08-06,1,,,,,エーケーマテリアル,0
1261,5100001038826,新規,0,2025-08-06,2025-08-06,株式会社ＹＤ特殊車両,,株式会社,長野県,飯田市,下久堅小林４７２番地１,,20,205,3992605,,,,,,,2025-08-06,1,,,,,ワイディートクシュシャリョウ,0
1262,5100001038834,新規,0,2025-08-06,2025-08-06,ＫＡＲＵＩＺＡＷＡ　ＣＲＡＦＴ＆ＦＡＲＭ株式会社,,株式会社,長野県,北佐久郡軽井沢町,大字発地２７８５番地３１８,,20,321,3890113,,,,,,,2025-08-06,1,,,,,カルイザワクラフトアンドファーム,0
1263,5100001038850,新規,0,2025-08-06,2025-08-06,株式会社ＧＬＩＤＥ,,株式会社,長野県,安曇野市,穂高有明７５１５番地６０,,20,220,3998301,,,,,,,2025-08-06,1,,,,,グライド,0
1264,5100005013379,新規,0,2025-08-06,2025-08-06,つばき協同組合,,その他の設立登記法人,長野県,須坂市,大字沼目４６７番地２,,20,207,3820905,,,,,,,2025-08-06,1,,,,,ツバキ,0
1267,5110001039468,新規,0,2025-08-06,2025-08-06,株式会社ＦＷＡ　ｐａｒｔｎｅｒｓ,,株式会社,新潟県,新潟市中央区,東大通２丁目４番１０号日本生命新潟ビル９階,,15,103,9500087,,,,,,,2025-08-06,1,,,,,エフダブルエーパートナーズ,0
1269,5110003005848,新規,0,2025-08-06,2025-08-06,ツカダオート合同会社,,合同会社,新潟県,新潟市中央区,女池３丁目８番１９号セトル女池１０２,,15,103,9500941,,,,,,,2025-08-06,1,,,,,ツカダオート,0
1290,5120001278453,新規,0,2025-08-06,2025-08-06,久遇株式会社,,株式会社,大阪府,大阪市西成区,岸里２丁目２－４－１０１,,27,122,5570041,,,,,,,2025-08-06,1,,,,,キュウグウ,0
1291,5120001278478,新規,0,2025-08-06,2025-08-06,風沛株式会社,,株式会社,大阪府,大阪市中央区,久太郎町４丁目１番３号大阪センタービル６階,,27,128,5410056,,,,,,,2025-08-06,1,,,,,フウハイ,0
1292,5120001278560,新規,0,2025-08-06,2025-08-06,株式会社Ｒｉｔｏｗａ,,株式会社,大阪府,大阪市都島区,都島中通２丁目１３番１１号,,27,102,5340022,,,,,,,2025-08-06,1,,,,,リトワ,0
1293,5120001278619,新規,0,2025-08-06,2025-08-06,株式会社東洋ヘルスメディカル,,株式会社,大阪府,大阪市中央区,北久宝寺町２丁目１番３号,,27,128,5410057,,,,,,,2025-08-06,1,,,,,トウヨウヘルスメディカル,0
1294,5120001278643,新規,0,2025-08-06,2025-08-06,美台株式会社,,株式会社,大阪府,大阪市平野区,平野上町１丁目１６番３号,,27,126,5470045,,,,,,,2025-08-06,1,,,,,ビダイ,0
1298,5120003030201,新規,0,2025-08-06,2025-08-06,合同会社ＪＯＹＦＵＬ　ＲＡＩＮＢＯＷ,,合同会社,大阪府,大阪市北区,梅田１丁目１－３大阪駅前第３ビル２９階１－１－１号室,,27,127,5300001,,,,,,,2025-08-06,1,,,,,ジョイフルレインボー,0
1299,5120003030226,新規,0,2025-08-06,2025-08-06,ＳＩＭＲＩＫ合同会社,,合同会社,大阪府,大阪市淀川区,西中島３丁目２１番１号位高ビル３Ｆ,,27,123,5320011,,,,,,,2025-08-06,1,,,,,シムリク,0
1300,5120003030234,新規,0,2025-08-06,2025-08-06,大阪精元合同会社,,合同会社,大阪府,大阪市阿倍野区,西田辺２－２－２３、２階Ａ号室,,27,119,5450000,,,,,,,2025-08-06,1,,,,,オオサカセイゲン,0
1301,5120003030250,新規,0,2025-08-06,2025-08-06,合同会社Ｉｎｇｒｅｓｓｉｏｎ,,合同会社,大阪府,大阪市北区,梅田１丁目２番２号大阪駅前第２ビル１２－１２,,27,127,5300001,,,,,,,2025-08-06,1,,,,,イングレッション,0
1302,5120003030259,新規,0,2025-08-06,2025-08-06,合同会社ハミング・ばーど,,合同会社,大阪府,大阪市平野区,瓜破西１丁目８番６７号,,27,126,5470025,,,,,,,2025-08-06,1,,,,,ハミングバード,0
1305,5120901051298,新規,0,2025-08-06,2025-08-06,８８８株式会社,,株式会社,大阪府,吹田市,広芝町１８番３７－６０１号,,27,205,5640052,,,,,,,2025-08-06,1,,,,,トリプルエイト,0
1313,5130001080206,新規,0,2025-08-06,2025-08-06,バターナッツ株式会社,,株式会社,京都府,京都市左京区,鹿ケ谷上宮ノ前町５８番地１０,,26,103,6068447,,,,,,,2025-08-06,1,,,,,バターナッツ,0
1317,5130003010648,新規,0,2025-08-06,2025-08-06,合同会社サポート・イン総合会計,,合同会社,京都府,木津川市,城山台１１丁目６番地７,,26,214,6190218,,,,,,,2025-08-06,1,,,,,サポートインソウゴウカイケイ,0
1318,5130003010697,新規,0,2025-08-06,2025-08-06,合同会社オオニシ,,合同会社,京都府,相楽郡精華町,光台８丁目２７－１４,,26,366,6190237,,,,,,,2025-08-06,1,,,,,オオニシ,0
1319,5130005017419,新規,0,2025-08-06,2025-08-06,医療法人盛洛会もりうえ歯科クリニック,,その他の設立登記法人,京都府,京都市右京区,山ノ内大町８番地２,,26,108,6150097,,,,,,,2025-08-06,1,,,,,セイラクカイモリウエシカクリニック,0
1327,5140005027581,新規,0,2025-08-06,2025-08-06,一般社団法人ホロニック,,その他の設立登記法人,兵庫県,神戸市東灘区,向洋町中６丁目９神戸ファッションマート１０階,,28,101,6580032,,,,,,,2025-08-06,1,,,,,ホロニック,0
1330,5150003003674,新規,0,2025-08-06,2025-08-06,合同会社ＳＧ,,合同会社,奈良県,奈良市,富雄元町２丁目５番２０号富雄プラザ１Ｆ,,29,201,6310078,,,,,,,2025-08-06,1,,,,,エスジー,0
1333,5170003002261,新規,0,2025-08-06,2025-08-06,Ｐｒｏｏｆ　ｂｙ　Ｃａｐｉｔａｌ合同会社,,合同会社,和歌山県,和歌山市,東高松４丁目２－１－３,,30,201,6410052,,,,,,,2025-08-06,1,,,,,プルーフバイキャピタル,0
1344,5180005021184,新規,0,2025-08-06,2025-08-06,行政書士法人リアルパートナー,,その他の設立登記法人,愛知県,名古屋市中区,栄３丁目３５番４７号,,23,106,4600008,,,,,,,2025-08-06,1,,,,,リアルパートナー,0
1346,5180301040086,新規,0,2025-08-06,2025-08-06,株式会社コンドウ自動車,,株式会社,愛知県,豊川市,宿町古十王１０５番地,,23,207,4410101,,,,,,,2025-08-06,1,,,,,コンドウジドウシャ,0
1351,5190001032449,新規,0,2025-08-06,2025-08-06,株式会社優彩園芸,,株式会社,三重県,桑名市,高塚町４丁目７番地２,,24,205,5110818,,,,,,,2025-08-06,1,,,,,ユウサイエンゲイ,0
1358,5200003006944,新規,0,2025-08-06,2025-08-06,ＴＨＡＮＨ　ＢＩＮＨ　ＧＲＯＵＰ合同会社,,合同会社,岐阜県,関市,東門前町６番地関サンパティオ店舗Ｍ号室,,21,205,5013838,,,,,,,2025-08-06,1,,,,,タインビングループ,0
1365,5240001065336,新規,0,2025-08-06,2025-08-06,株式会社ラベルヴィー,,株式会社,広島県,広島市西区,井口３丁目１７番３１号,,34,104,7330842,,,,,,,2025-08-06,1,,,,,ラベルヴィー,0
1367,5240005015972,新規,0,2025-08-06,2025-08-06,一般社団法人ご縁,,その他の設立登記法人,広島県,広島市西区,己斐上３丁目９７５番５号,,34,104,7330815,,,,,,,2025-08-06,1,,,,,ゴエン,0
1382,5290003017181,新規,0,2025-08-06,2025-08-06,合同会社ＭＯＳＨ,,合同会社,福岡県,福津市,宮司６丁目２０番２３号,,40,224,8113305,,,,,,,2025-08-06,1,,,,,モッシュ,0
1385,5290801031747,新規,0,2025-08-06,2025-08-06,株式会社Ｕ‐ｆｉｒｓｔ,,株式会社,福岡県,遠賀郡遠賀町,大字老良４９４－６,,40,384,8114311,,,,,,,2025-08-06,1,,,,,ユーファースト,0
1390,5300001014303,新規,0,2025-08-06,2025-08-06,株式会社ＳＡＢパートナーズ,,株式会社,佐賀県,武雄市,山内町大字三間坂甲１４０５２番地４,,41,206,8492303,,,,,,,2025-08-06,1,,,,,エスエービーパートナーズ,0
1391,5300001014311,新規,0,2025-08-06,2025-08-06,株式会社メイプル,,株式会社,佐賀県,武雄市,東川登町大字永野４４００番地１,,41,206,8430233,,,,,,,2025-08-06,1,,,,,メイプル,0
1394,5320001021264,新規,0,2025-08-06,2025-08-06,ココチラボ株式会社,,株式会社,大分県,大分市,古国府５丁目１６番１－３０３号,,44,201,8700844,,,,,,,2025-08-06,1,,,,,ココチラボ,0
1401,5350001019685,新規,0,2025-08-06,2025-08-06,株式会社柊ｆｏｏｄｓ,,株式会社,宮崎県,宮崎市,阿波岐原町坂元２００８番地２,,45,201,8800835,,,,,,,2025-08-06,1,,,,,ヒイラギフーズ,0
1404,5360001035590,新規,0,2025-08-06,2025-08-06,株式会社ＭＯＲ,,株式会社,沖縄県,那覇市,首里崎山町１丁目６５番地３,,47,201,9030814,,,,,,,2025-08-06,1,,,,,モア,0
1405,5360001035599,新規,0,2025-08-06,2025-08-06,ＤＲＩＦＣＯ株式会社,,株式会社,沖縄県,国頭郡宜野座村,字漢那１６７７番地の４１,,47,313,9041304,,,,,,,2025-08-06,1,,,,,ドリフコ,0
1407,5360005007264,新規,0,2025-08-06,2025-08-06,一般社団法人スカラシップパートナーズ,,その他の設立登記法人,沖縄県,沖縄市,中央１丁目７番８号２Ｆ,,47,211,9040004,,,,,,,2025-08-06,1,,,,,スカラシップパートナーズ,0
1408,5370003007232,新規,0,2025-08-06,2025-08-06,合同会社Ｌｉｎｋ　Ｐｌｕｓ,,合同会社,宮城県,仙台市宮城野区,鉄砲町東４番地の４,,04,102,9830867,,,,,,,2025-08-06,1,,,,,リンクプラス,0
1412,5400003003517,新規,0,2025-08-06,2025-08-06,無題合同会社,,合同会社,岩手県,盛岡市,内丸５番６号,,03,201,0200023,,,,,,,2025-08-06,1,,,,,ムダイ,0
1422,5430001094992,新規,0,2025-08-06,2025-08-06,株式会社稲田商会,,株式会社,北海道,赤平市,西文京町２丁目２番地８,,01,218,0791122,,,,,,,2025-08-06,1,,,,,イナダショウカイ,0
1427,5480001012917,新規,0,2025-08-06,2025-08-06,株式会社にじいろ不動産,,株式会社,徳島県,阿南市,羽ノ浦町中庄砂川原２５番地１０,,36,204,7791101,,,,,,,2025-08-06,1,,,,,ニジイロフドウサン,0
1439,6010001257368,新規,0,2025-08-06,2025-08-06,株式会社ＳｕｒＦｕｎ,,株式会社,東京都,千代田区,九段北３丁目３－９新一口坂校舎Ｂ１,,13,101,1020073,,,,,,,2025-08-06,1,,,,,サーファン,0
1440,6010001257418,新規,0,2025-08-06,2025-08-06,ＮｅｗＬｉｆｅＪａｐａｎ株式会社,,株式会社,東京都,中央区,銀座１丁目１２番４号Ｎ＆ＥＢＬＤ．６Ｆ,,13,102,1040061,,,,,,,2025-08-06,1,,,,,ニューライフジャパン,0
1441,6010001257500,新規,0,2025-08-06,2025-08-06,リエゾン・ストラテジック・マネジメント株式会社,,株式会社,東京都,千代田区,神田須田町１丁目１６番地ＲＡＸＡ神田須田町４階,,13,101,1010041,,,,,,,2025-08-06,1,,,,,リエゾンストラテジックマネジメント,0
1442,6010001257517,新規,0,2025-08-06,2025-08-06,ＡｎｔｅｎｎａＣｏ　Ｊａｐａｎ株式会社,,株式会社,東京都,千代田区,大手町１丁目１番１号,,13,101,1000004,,,,,,,2025-08-06,1,,,,,アンテナコージャパン,0
1447,6010003048229,新規,0,2025-08-06,2025-08-06,合同会社ＵＲＶＡＮＧＵＡＲＤ,,合同会社,東京都,千代田区,神田須田町２丁目１９－７キャッスル須田町ビル３０１,,13,101,1010041,,,,,,,2025-08-06,1,,,,,アーバンガード,0
1448,6010003048261,新規,0,2025-08-06,2025-08-06,合同会社中之島キャピタル,,合同会社,東京都,千代田区,丸の内１丁目６番５号,,13,101,1000005,,,,,,,2025-08-06,1,,,,,ナカノシマキャピタル,0
1451,6010005040480,新規,0,2025-08-06,2025-08-06,一般社団法人ＦＵＮＡＤＥ２,,その他の設立登記法人,東京都,中央区,京橋２丁目１２番６号ＡＯＪ税理士法人内,,13,102,1040031,,,,,,,2025-08-06,1,,,,,フナデツー,0
1458,6010401192272,新規,0,2025-08-06,2025-08-06,Ｐｏｌｉｃｙ　Ｉｎｎｏｖａｔｉｏｎ　Ｊａｐａｎ株式会社,,株式会社,東京都,港区,六本木３丁目７番１号ＴＨＥ・ＲＯＰＰＯＮＧＩ・ＴＯＫＹＯ・ＣＬＵＢ・ＲＥＳＩＤＥＮＣＥ１４１２,,13,103,1060032,,,,,,,2025-08-06,1,,,,,ポリシーイノベーションジャパン,0
1459,6010401192306,新規,0,2025-08-06,2025-08-06,株式会社ビズイート,,株式会社,東京都,港区,西新橋１丁目１８番６号クロスオフィス内幸町６Ｆ,,13,103,1050003,,,,,,,2025-08-06,1,,,,,ビズイート,0
1469,6010601067720,新規,0,2025-08-06,2025-08-06,株式会社カシイ,,株式会社,東京都,江東区,東陽４丁目１２番２０－４０９号,,13,108,1350016,,,,,,,2025-08-06,1,,,,,カシイ,0
1470,6010601067729,新規,0,2025-08-06,2025-08-06,ＳＵＰＥＲＰＯＳＩＴＩＯＮ　ＳＴＵＤＩＯ株式会社,,株式会社,東京都,江東区,木場３丁目１６番２－５０１号,,13,108,1350042,,,,,,,2025-08-06,1,,,,,スーパーポジションスタジオ,0
1471,6010601067737,新規,0,2025-08-06,2025-08-06,株式会社一歩堂,,株式会社,東京都,江東区,新砂３丁目４番４３－６５０号,,13,108,1360075,,,,,,,2025-08-06,1,,,,,イッポドウ,0
1472,6010601067745,新規,0,2025-08-06,2025-08-06,株式会社オアシス総研,,株式会社,東京都,江東区,豊洲５丁目１番１３号,,13,108,1350061,,,,,,,2025-08-06,1,,,,,オアシスソウケン,0
1477,6010701048117,新規,0,2025-08-06,2025-08-06,ステラストラテジーアンドオペレーション株式会社,,株式会社,東京都,品川区,上大崎３丁目２番１号,,13,109,1410021,,,,,,,2025-08-06,1,,,,,ステラストラテジーアンドオペレーション,0
1482,6010801036467,新規,0,2025-08-06,2025-08-06,株式会社Ｈｉｉ,,株式会社,東京都,大田区,鵜の木１丁目１１番５号ティーダ４０１,,13,111,1460091,,,,,,,2025-08-06,1,,,,,ハイ,0
1488,6010901057867,新規,0,2025-08-06,2025-08-06,株式会社ＡＥＴＨＯＳ,,株式会社,東京都,世田谷区,上北沢１丁目１０番８号,,13,112,1560057,,,,,,,2025-08-06,1,,,,,エートス,0
1489,6010901057875,新規,0,2025-08-06,2025-08-06,湘樺実業株式会社,,株式会社,東京都,世田谷区,三軒茶屋１丁目５番１５号,,13,112,1540024,,,,,,,2025-08-06,1,,,,,ショウカジツギョウ,0
1490,6010901057883,新規,0,2025-08-06,2025-08-06,株式会社ベアコード,,株式会社,東京都,世田谷区,太子堂４丁目１８番１５号マガザン三軒茶屋２・３Ｆ－３,,13,112,1540004,,,,,,,2025-08-06,1,,,,,ベアコード,0
1491,6010903010155,新規,0,2025-08-06,2025-08-06,ハビットムーブ合同会社,,合同会社,東京都,世田谷区,北沢３丁目１９番３号,,13,112,1550031,,,,,,,2025-08-06,1,,,,,ハビットムーブ,0
1495,6011001171055,新規,0,2025-08-06,2025-08-06,サクルート株式会社,,株式会社,東京都,渋谷区,神宮前６丁目２３番４号桑野ビル２階,,13,113,1500001,,,,,,,2025-08-06,1,,,,,サクルート,0
1496,6011001171170,新規,0,2025-08-06,2025-08-06,株式会社ＳＫＯ　ＥＸＴＥＤＩＴ,,株式会社,東京都,渋谷区,道玄坂１丁目１０－８渋谷道玄坂東急ビル２Ｆ－Ｃ,,13,113,1500043,,,,,,,2025-08-06,1,,,,,エスケーオーエクステディット,0
1497,6011001171724,新規,0,2025-08-06,2025-08-06,株式会社風見堂,,株式会社,東京都,目黒区,上目黒３丁目１番１４号メイツ中目黒１０１,,13,110,1530051,,,,,,,2025-08-06,1,,,,,カザミドウ,0
1499,6011101112495,新規,0,2025-08-06,2025-08-06,株式会社コスゲエンターテインメント,,株式会社,東京都,新宿区,大久保２丁目３０番１０号,,13,104,1690072,,,,,,,2025-08-06,1,,,,,コスゲエンターテインメント,0
1500,6011101112636,新規,0,2025-08-06,2025-08-06,株式会社ｈａ．Ｔ,,株式会社,東京都,新宿区,南山伏町１－１８ハイホーム市ヶ谷１Ｆ－１０４号室,,13,104,1620854,,,,,,,2025-08-06,1,,,,,ハット,0
1501,6011101112652,新規,0,2025-08-06,2025-08-06,株式会社Ｓａｒａｎｉ,,株式会社,東京都,新宿区,西新宿７丁目４番７号イマス浜田ビル５階,,13,104,1600023,,,,,,,2025-08-06,1,,,,,サラニ,0
1503,6011201026546,新規,0,2025-08-06,2025-08-06,ＧＡＴＥ株式会社,,株式会社,東京都,中野区,中野４丁目１０番２号中野セントラルパークサウス２Ｆ,,13,114,1640001,,,,,,,2025-08-06,1,,,,,ゲート,0
1516,6011601028852,新規,0,2025-08-06,2025-08-06,株式会社ＪＡＰＥ,,株式会社,東京都,練馬区,北町２丁目３７番４号小口ビル２Ｆ,,13,120,1790081,,,,,,,2025-08-06,1,,,,,ジェイプ,0
1517,6011701028562,新規,0,2025-08-06,2025-08-06,アセットクリーン株式会社,,株式会社,東京都,江戸川区,中央２丁目１６番２４号,,13,123,1320021,,,,,,,2025-08-06,1,,,,,アセットクリーン,0
1518,6011701028579,新規,0,2025-08-06,2025-08-06,株式会社ＳＫＩＰａｒｔｎｅｒｓ,,株式会社,東京都,江戸川区,東葛西５丁目１０番１３号２Ｆ,,13,123,1340084,,,,,,,2025-08-06,1,,,,,スカイパートナーズ,0
1521,6011801046555,新規,0,2025-08-06,2025-08-06,アクトナ株式会社,,株式会社,東京都,足立区,谷中１丁目２３番１７号垣久保ビル１０１,,13,121,1200006,,,,,,,2025-08-06,1,,,,,アクトナ,0
1522,6011801046563,新規,0,2025-08-06,2025-08-06,株式会社ＤＯＬＣＥ,,株式会社,東京都,足立区,江北３丁目１２番８号エクセレントハイムＩＩ１０２,00140188,13,121,1230872,,,,,,,2025-08-06,1,,,,,ドルチェ,0
1524,6012401043430,新規,0,2025-08-06,2025-08-06,株式会社ソフィアコンサルティング,,株式会社,東京都,小金井市,本町６丁目２番２０－１９１３号,,13,210,1840004,,,,,,,2025-08-06,1,,,,,ソフィアコンサルティング,0
1525,6012401043455,新規,0,2025-08-06,2025-08-06,Ｒｅｌａｙ株式会社,,株式会社,東京都,狛江市,東和泉２丁目１４－１,,13,219,2010014,,,,,,,2025-08-06,1,,,,,リレー,0
1527,6012703003330,新規,0,2025-08-06,2025-08-06,合同会社Ｋ＆Ｅ’ｓ,,合同会社,東京都,東村山市,萩山町４丁目１５番地１,,13,213,1890012,,,,,,,2025-08-06,1,,,,,ケーアンドイーズ,0
1528,6012801024146,新規,0,2025-08-06,2025-08-06,サンティア株式会社,,株式会社,東京都,立川市,錦町１丁目４番４号サニービル２Ｆ、ＣＳ－２５１,,13,202,1900022,,,,,,,2025-08-06,1,,,,,サンティア,0
1530,6012803003817,新規,0,2025-08-06,2025-08-06,Ｈａｒｖｅｓｔ合同会社,,合同会社,東京都,立川市,柴崎町２丁目１２－１７輪々舘２０２号,,13,202,1900023,,,,,,,2025-08-06,1,,,,,ハーヴェスト,0
1540,6020001164101,新規,0,2025-08-06,2025-08-06,コネクト株式会社,,株式会社,神奈川県,横浜市緑区,森の台４１番Ｂ－６０３号,,14,113,2260029,,,,,,,2025-08-06,1,,,,,コネクト,0
1541,6020001164266,新規,0,2025-08-06,2025-08-06,株式会社ＩＲＯＮＯ,,株式会社,神奈川県,横浜市青葉区,市ケ尾町１６３７番地１ＭａｉｓｏｎＭｅｅｗａ２０２号,,14,117,2250024,,,,,,,2025-08-06,1,,,,,イロノ,0
1542,6020001164274,新規,0,2025-08-06,2025-08-06,ＳＧエクスプレス株式会社,,株式会社,神奈川県,川崎市高津区,千年６８４番地２,,14,134,2130022,,,,,,,2025-08-06,1,,,,,エスジーエクスプレス,0
1543,6020001164290,新規,0,2025-08-06,2025-08-06,株式会社ＭＩＹＡＢＩ,,株式会社,神奈川県,横浜市西区,北幸２丁目１０番４８号むつみビル３階,,14,103,2200004,,,,,,,2025-08-06,1,,,,,ミヤビ,0
1546,6020003028881,新規,0,2025-08-06,2025-08-06,合同会社おかゆ,,合同会社,神奈川県,横浜市都筑区,荏田東３丁目１番１２号棟３０３号室,,14,118,2240006,,,,,,,2025-08-06,1,,,,,オカユ,0
1547,6020003029054,新規,0,2025-08-06,2025-08-06,合同会社晴れ晴れ,,合同会社,神奈川県,横浜市青葉区,大場町２１６番地８,,14,117,2250023,,,,,,,2025-08-06,1,,,,,ハレバレ,0
1548,6020003029079,新規,0,2025-08-06,2025-08-06,合同会社アウトアップ,,合同会社,神奈川県,川崎市麻生区,上麻生３丁目４番２２号サンクレストせど１０１,,14,137,2150021,,,,,,,2025-08-06,1,,,,,アウトアップ,0
1549,6020003029112,新規,0,2025-08-06,2025-08-06,クレッシェーレ合同会社,,合同会社,神奈川県,横浜市港北区,綱島西５丁目１１番３２号,,14,109,2230053,,,,,,,2025-08-06,1,,,,,クレッシェーレ,0
1550,6020003029129,新規,0,2025-08-06,2025-08-06,合同会社ＹＯＵＢＡＳＥ,,合同会社,神奈川県,横浜市西区,北幸２丁目１０番４８号むつみビル３階,,14,103,2200004,,,,,,,2025-08-06,1,,,,,ユーベース,0
1552,6021001085972,新規,0,2025-08-06,2025-08-06,ＭＩＲＡＩＮＡＶＩ　ｃｏｎｎｅｃｔ株式会社,,株式会社,神奈川県,厚木市,中町２丁目４番１４－６０１号,,14,212,2430018,,,,,,,2025-08-06,1,,,,,ミライナビコネクト,0
1553,6021001085989,新規,0,2025-08-06,2025-08-06,株式会社インテリア坂田,,株式会社,神奈川県,藤沢市,円行２丁目２番地の１２,,14,205,2520805,,,,,,,2025-08-06,1,,,,,インテリアサカタ,0
1557,6030001167994,新規,0,2025-08-06,2025-08-06,株式会社ＥＮ,,株式会社,埼玉県,さいたま市大宮区,宮町４丁目１４４番地古賀屋ＳＫビル１Ｆ,,11,103,3300802,,,,,,,2025-08-06,1,,,,,エン,0
1558,6030001168002,新規,0,2025-08-06,2025-08-06,株式会社ＳｕｎＤｉｇｉ,,株式会社,埼玉県,さいたま市緑区,東浦和９丁目１２－２６バンシャトー１０６,,11,109,3360926,,,,,,,2025-08-06,1,,,,,サンデジ,0
1559,6030001168035,新規,0,2025-08-06,2025-08-06,株式会社鈴木工務店,,株式会社,埼玉県,越谷市,蒲生南町２４番３６号５１０号,,11,222,3430833,,,,,,,2025-08-06,1,,,,,スズキコウムテン,0
1560,6030001168043,新規,0,2025-08-06,2025-08-06,啓發株式会社,,株式会社,埼玉県,熊谷市,筑波２丁目６,,11,202,3600037,,,,,,,2025-08-06,1,,,,,ケイハツ,0
1565,6040001139778,新規,0,2025-08-06,2025-08-06,福稲株式会社,,株式会社,千葉県,千葉市稲毛区,小深町１２番地１,,12,103,2630003,,,,,,,2025-08-06,1,,,,,フクイネ,0
1566,6040001139943,新規,0,2025-08-06,2025-08-06,株式会社ＳＴＡＤＩＡ,,株式会社,千葉県,船橋市,本町１丁目３２－２６アロー船橋駅前２６番館４階,,12,204,2730005,,,,,,,2025-08-06,1,,,,,スタジア,0
1569,6040003028112,新規,0,2025-08-06,2025-08-06,ＨＢＴ合同会社,,合同会社,千葉県,松戸市,南花島２丁目２５番１５号,,12,207,2710065,,,,,,,2025-08-06,1,,,,,エイチビーティー,0
1570,6050001057046,新規,0,2025-08-06,2025-08-06,翔栄株式会社,,株式会社,茨城県,鉾田市,汲上２６７４－６,,08,234,3112103,,,,,,,2025-08-06,1,,,,,ショウエイ,0
1573,6050003009458,新規,0,2025-08-06,2025-08-06,合同会社ＢＮＫ,,合同会社,茨城県,日立市,田尻町７丁目４－１４,,08,202,3191416,,,,,,,2025-08-06,1,,,,,ビーエヌケー,0
1574,6050003009482,新規,0,2025-08-06,2025-08-06,Ａｄｅｅｌ　Ｔｒａｄｉｎｇ合同会社,,合同会社,茨城県,坂東市,幸田字南開１９１６番１,,08,228,3060606,,,,,,,2025-08-06,1,,,,,アディールトレーディング,0
1577,6060001038482,新規,0,2025-08-06,2025-08-06,株式会社結ファーム,,株式会社,栃木県,芳賀郡芳賀町,大字東水沼４３９番地,,09,345,3213322,,,,,,,2025-08-06,1,,,,,ユウファーム,0
1579,6070001043218,新規,0,2025-08-06,2025-08-06,株式会社上野コンサルティング,,株式会社,群馬県,館林市,本町２丁目２番１４号アドホック館林２Ｆ,,10,207,3740024,,,,,,,2025-08-06,1,,,,,ウエノコンサルティング,0
1580,6070003006032,新規,0,2025-08-06,2025-08-06,ＣａｒｅＭｏｔｉｏｎ合同会社,,合同会社,群馬県,前橋市,元総社町１２６８番地１オークスＣ－１０２号,,10,201,3710846,,,,,,,2025-08-06,1,,,,,ケアモーション,0
1582,6080001027070,新規,0,2025-08-06,2025-08-06,株式会社コネクトアクト,,株式会社,静岡県,藤枝市,前島１丁目７番５６号あおしまびる１Ｆ,,22,214,4260067,,,,,,,2025-08-06,1,,,,,コネクトアクト,0
1583,6080001027079,新規,0,2025-08-06,2025-08-06,株式会社ＭＡＫＩ　ＴＥＣ,,株式会社,静岡県,藤枝市,仮宿１６８４番地の１４,,22,214,4260001,,,,,,,2025-08-06,1,,,,,マキテック,0
1584,6080003003516,新規,0,2025-08-06,2025-08-06,合同会社ＧＯＬＤ　ＭＡＮＴＡ,,合同会社,静岡県,藤枝市,田沼３丁目１４番２号,,22,214,4260061,,,,,,,2025-08-06,1,,,,,ゴールドマンタ,0
1586,6080101025692,新規,0,2025-08-06,2025-08-06,株式会社三奕,,株式会社,静岡県,駿東郡清水町,久米田７４番地の２７,,22,341,4110911,,,,,,,2025-08-06,1,,,,,ミイゴ,0
1587,6080401028081,新規,0,2025-08-06,2025-08-06,株式会社ＴＦサポーターズ,,株式会社,静岡県,浜松市中央区,城北２丁目１８番８号,,22,138,4328011,,,,,,,2025-08-06,1,,,,,ティーエフサポーターズ,0
1594,6100001038841,新規,0,2025-08-06,2025-08-06,株式会社新あるが,,株式会社,長野県,松本市,並柳１丁目２番３３号,,20,202,3900825,,,,,,,2025-08-06,1,,,,,シンアルガ,0
1598,6100003008330,新規,0,2025-08-06,2025-08-06,合同会社コアソフト,,合同会社,長野県,佐久市,取出町２３４番地２,,20,217,3850043,,,,,,,2025-08-06,1,,,,,コアソフト,0
1600,6100005013378,新規,0,2025-08-06,2025-08-06,一般社団法人日本食肉マイスター協会,,その他の設立登記法人,長野県,飯田市,北方１０２３番地１,,20,205,3950151,,,,,,,2025-08-06,1,,,,,ニホンショクニクマイスターキョウカイ,0
1603,6110001039475,新規,0,2025-08-06,2025-08-06,株式会社ｆａｒｍｅｒｅｍｏｃｏ,,株式会社,新潟県,長岡市,川口牛ケ島６５８番地１,,15,202,9497505,,,,,,,2025-08-06,1,,,,,ファーマーエモコ,0
1604,6110001039483,新規,0,2025-08-06,2025-08-06,株式会社エコラボ７,,株式会社,新潟県,長岡市,新保４丁目１６番２５号,,15,202,9400875,,,,,,,2025-08-06,1,,,,,エコラボセブン,0
1606,6110003005847,新規,0,2025-08-06,2025-08-06,合同会社ｔｕｕｌｉ,,合同会社,新潟県,三条市,柳沢１１７３番地,,15,204,9550024,,,,,,,2025-08-06,1,,,,,トゥーリ,0
1607,6110003005855,新規,0,2025-08-06,2025-08-06,合同会社博栄,,合同会社,新潟県,妙高市,大字関山２０３９番地５,,15,217,9492235,,,,,,,2025-08-06,1,,,,,ハクエイ,0
1615,6120001278403,新規,0,2025-08-06,2025-08-06,株式会社ハンソンテックジャパン,,株式会社,大阪府,大阪市中央区,北久宝寺町３丁目６番１号本町南ガーデンシティ７階,,27,128,5410057,,,,,,,2025-08-06,1,,,,,ハンソンテックジャパン,0
1616,6120001278452,新規,0,2025-08-06,2025-08-06,好運来株式会社,,株式会社,大阪府,大阪市西成区,岸里２丁目２－４－１０５,,27,122,5570041,,,,,,,2025-08-06,1,,,,,コウウンライ,0
1617,6120001278469,新規,0,2025-08-06,2025-08-06,木子雅居株式会社,,株式会社,大阪府,大阪市西成区,玉出東１丁目１１番２１－３０２号,,27,122,5570043,,,,,,,2025-08-06,1,,,,,ココガキョ,0
1618,6120001278510,新規,0,2025-08-06,2025-08-06,富士株式会社,,株式会社,大阪府,大阪市住之江区,新北島１丁目４－１５－２１５号室,,27,125,5590024,,,,,,,2025-08-06,1,,,,,フジ,0
1623,6120003030118,新規,0,2025-08-06,2025-08-06,合同会社ＳＧＭ,,合同会社,大阪府,大阪市東淀川区,豊里７丁目９－１２,,27,114,5330013,,,,,,,2025-08-06,1,,,,,エスジーエム,0
1625,6120103006612,新規,0,2025-08-06,2025-08-06,合同会社ＭＥＳＳＩＤＯＲ,,合同会社,大阪府,藤井寺市,春日丘１丁目１－２８－２２０,,27,226,5830026,,,,,,,2025-08-06,1,,,,,メスィドール,0
1628,6122001039487,新規,0,2025-08-06,2025-08-06,ヨツバグループ株式会社,,株式会社,大阪府,東大阪市,善根寺町５丁目６番３４号,,27,227,5798001,,,,,,,2025-08-06,1,,,,,ヨツバグループ,0
1631,6130001080205,新規,0,2025-08-06,2025-08-06,誠吉株式会社,,株式会社,京都府,京都市北区,大北山原谷乾町１０１番地ディアコート２１１号室,,26,101,6038487,,,,,,,2025-08-06,1,,,,,セイキチ,0
1632,6130001080221,新規,0,2025-08-06,2025-08-06,アスリンク・ジャパン株式会社,,株式会社,京都府,京都市右京区,西京極西池田町６２番地４,,26,108,6150851,,,,,,,2025-08-06,1,,,,,アスリンクジャパン,0
1633,6130001080295,新規,0,2025-08-06,2025-08-06,株式会社ルミナスアセット,,株式会社,京都府,京都市下京区,五条通室町東入醍醐町２６８番地１００５号,,26,106,6008106,,,,,,,2025-08-06,1,,,,,ルミナスアセット,0
1641,6140003022419,新規,0,2025-08-06,2025-08-06,合同会社ジャスト,,合同会社,兵庫県,尼崎市,御園１丁目２３番１３号２０４号室,,28,202,6610984,,,,,,,2025-08-06,1,,,,,ジャスト,0
1643,6150001028301,新規,0,2025-08-06,2025-08-06,株式会社やまと,,株式会社,奈良県,香芝市,穴虫３０５０番地３２,,29,210,6390252,,,,,,,2025-08-06,1,,,,,ヤマト,0
1644,6150003003673,新規,0,2025-08-06,2025-08-06,合同会社ワンチェス,,合同会社,奈良県,奈良市,柏木町２９０－２７,,29,201,6308031,,,,,,,2025-08-06,1,,,,,ワンチェス,0
1645,6160001026964,新規,0,2025-08-06,2025-08-06,株式会社Ｓａｑｕｔｔｏ,,株式会社,滋賀県,草津市,大路３丁目４番５４号,,25,206,5250032,,,,,,,2025-08-06,1,,,,,サクット,0
1649,6180001168061,新規,0,2025-08-06,2025-08-06,拓心建設株式会社,,株式会社,愛知県,津島市,宇治町字小切４０番地２ナビシティ津島１２１３号,,23,208,4960008,,,,,,,2025-08-06,1,,,,,タクシンケンセツ,0
1654,6190003005138,新規,0,2025-08-06,2025-08-06,合同会社すずらんコーポレーション,,合同会社,三重県,四日市市,楠町南五味塚１３０番地６３,,24,202,5100104,,,,,,,2025-08-06,1,,,,,スズランコーポレーション,0
1657,6200003006943,新規,0,2025-08-06,2025-08-06,合同会社ネオブリッジケア,,合同会社,岐阜県,羽島郡岐南町,徳田３丁目６０－２,,21,302,5016016,,,,,,,2025-08-06,1,,,,,ネオブリッジケア,0
1670,6240001065310,新規,0,2025-08-06,2025-08-06,株式会社和建,,株式会社,広島県,福山市,芦田町大字上有地２０２番地１,,34,207,7201261,,,,,,,2025-08-06,1,,,,,カズケン,0
1678,6260003005262,新規,0,2025-08-06,2025-08-06,合同会社インフレクティッド・デザイン・アーキテクツ,,合同会社,岡山県,津山市,西中９５９番地２,,33,203,7081222,,,,,,,2025-08-06,1,,,,,インフレクティッドデザインアーキテクツ,0
1689,6290001110904,新規,0,2025-08-06,2025-08-06,安和商事株式会社,,株式会社,福岡県,福岡市中央区,小笹５丁目１０番第１３号棟２０４号,,40,133,8100033,,,,,,,2025-08-06,1,,,,,アンワショウジ,0
1690,6290001110953,新規,0,2025-08-06,2025-08-06,株式会社ＨＡＲＵ　ＴＲＡＶＥＬ,,株式会社,福岡県,福岡市東区,香椎駅前１丁目１９番４３－６０４号,,40,131,8130013,,,,,,,2025-08-06,1,,,,,ハルトラベル,0
1693,6290003017172,新規,0,2025-08-06,2025-08-06,サスラリ合同会社,,合同会社,福岡県,福岡市東区,和白丘１丁目２３番２７号,,40,131,8110213,,,,,,,2025-08-06,1,,,,,サスラリ,0
1694,6290003017189,新規,0,2025-08-06,2025-08-06,合同会社むすびの杜,,合同会社,福岡県,筑紫野市,桜台１丁目１９－１６,,40,217,8180063,,,,,,,2025-08-06,1,,,,,ムスビノモリ,0
1696,6290801031762,新規,0,2025-08-06,2025-08-06,株式会社オーシャン,,株式会社,福岡県,築上郡上毛町,大字宇野１３７３番地５,,40,646,8710914,,,,,,,2025-08-06,1,,,,,オーシャン,0
1698,6300001014310,新規,0,2025-08-06,2025-08-06,Ｎクリエイト株式会社,,株式会社,佐賀県,佐賀市,大財６丁目３番１号,,41,201,8400811,,,,,,,2025-08-06,1,,,,,エヌクリエイト,0
1701,6320001021263,新規,0,2025-08-06,2025-08-06,インテリアＢＥＡＲ株式会社,,株式会社,大分県,日田市,大字求来里４８３番地,,44,204,8770000,,,,,,,2025-08-06,1,,,,,インテリアベアー,0
1702,6320001021271,新規,0,2025-08-06,2025-08-06,株式会社ＲＳ工業,,株式会社,大分県,臼杵市,大字板知屋１番地１２,,44,206,8750034,,,,,,,2025-08-06,1,,,,,アールエスコウギョウ,0
1706,6340001027556,新規,0,2025-08-06,2025-08-06,株式会社ＳＨＯ,,株式会社,鹿児島県,鹿児島市,吉野町２２６０番地１６,,46,201,8920871,,,,,,,2025-08-06,1,,,,,エスエイチオー,0
1711,6360003015152,新規,0,2025-08-06,2025-08-06,合同会社ｌａｃｈｉｃ　ｐｌｕｓ,,合同会社,沖縄県,那覇市,字小禄９６９番地１ワイズガーデン小禄南５０２,,47,201,9010152,,,,,,,2025-08-06,1,,,,,ラシックプラス,0
1718,6380001035506,新規,0,2025-08-06,2025-08-06,株式会社ａｐｏｌｌｏｎ,,株式会社,福島県,郡山市,大槻町字御花畑２９－２６,,07,203,9630201,,,,,,,2025-08-06,1,,,,,,0
1719,6400003003516,新規,0,2025-08-06,2025-08-06,ソラス合同会社,,合同会社,岩手県,盛岡市,山岸６丁目４４番１９号,,03,201,0200004,,,,,,,2025-08-06,1,,,,,ソラス,0
1725,6430003017934,新規,0,2025-08-06,2025-08-06,雷神企画合同会社,,合同会社,北海道,虻田郡倶知安町,字比羅夫４７５番地６１,,01,400,0440077,,,,,,,2025-08-06,1,,,,,ライジンキカク,0
1749,7010001257383,新規,0,2025-08-06,2025-08-06,株式会社ニューロアクシスバイオ,,株式会社,東京都,千代田区,神田鍛冶町３丁目３番地３高遠ビル４Ｆ,,13,101,1010045,,,,,,,2025-08-06,1,,,,,ニューロアクシスバイオ,0
1750,7010001257409,新規,0,2025-08-06,2025-08-06,セレリアンス株式会社,,株式会社,東京都,千代田区,平河町２丁目４番８号,,13,101,1020093,,,,,,,2025-08-06,1,,,,,セレリアンス,0
1751,7010001257417,新規,0,2025-08-06,2025-08-06,海吉雅株式会社,,株式会社,東京都,千代田区,丸の内１丁目９－２グラントウキョウサウスタワー９階,,13,101,1000005,,,,,,,2025-08-06,1,,,,,ハイジヤ,0
1752,7010001257441,新規,0,2025-08-06,2025-08-06,株式会社ＪＩＰ,,株式会社,東京都,千代田区,飯田橋４丁目４－８東京中央ビル１０３号室,,13,101,1020072,,,,,,,2025-08-06,1,,,,,ジップ,0
1753,7010001257466,新規,0,2025-08-06,2025-08-06,株式会社ＫＴｙｄ．,,株式会社,東京都,千代田区,神田三崎町２丁目２２番８号,,13,101,1010061,,,,,,,2025-08-06,1,,,,,ケイティヤード,0
1754,7010001257482,新規,0,2025-08-06,2025-08-06,株式会社ＳＷＡＮ　ＣＲＥＡＴＩＶＥ,,株式会社,東京都,千代田区,六番町６番地４,,13,101,1020085,,,,,,,2025-08-06,1,,,,,スワンクリエイティブ,0
1755,7010001257490,新規,0,2025-08-06,2025-08-06,ＩＧブリッジパートナーズ株式会社,,株式会社,東京都,中央区,日本橋馬喰町１丁目１２番３号,,13,102,1030002,,,,,,,2025-08-06,1,,,,,アイジーブリッジパートナーズ,0
1756,7010001257499,新規,0,2025-08-06,2025-08-06,ＭＳファーム株式会社,,株式会社,東京都,千代田区,丸の内１丁目８番２号鉄鋼ビルディング４階,,13,101,1000005,,,,,,,2025-08-06,1,,,,,エムエスファーム,0
1762,7010003048228,新規,0,2025-08-06,2025-08-06,合同会社Ｗｉｎｇａｇｅ,,合同会社,東京都,中央区,銀座１丁目２２番１１号銀座大竹ビジデンス２Ｆ,,13,102,1040061,,,,,,,2025-08-06,1,,,,,ウィンゲージ,0
1763,7010003048252,新規,0,2025-08-06,2025-08-06,合同会社ＦＵＮＡＤＥ２,,合同会社,東京都,中央区,京橋２丁目１２番６号ＡＯＪ税理士法人内,,13,102,1040031,,,,,,,2025-08-06,1,,,,,フナデツー,0
1764,7010003048277,新規,0,2025-08-06,2025-08-06,合同会社ＴＢＦ,,合同会社,東京都,中央区,日本橋１丁目４番１号日本橋一丁目ビルディング,,13,102,1030027,,,,,,,2025-08-06,1,,,,,ティービーエフ,0
1765,7010003048293,新規,0,2025-08-06,2025-08-06,合同会社ＳＥＮＫＹＵＧＡＮ,,合同会社,東京都,千代田区,神田神保町２丁目１０－３１ＩＷビル１Ｆ,,13,101,1010051,,,,,,,2025-08-06,1,,,,,センキューガン,0
1768,7010005040488,新規,0,2025-08-06,2025-08-06,南麻布特定目的会社,,その他の設立登記法人,東京都,千代田区,平河町１丁目６番１５号シルスフィア会計事務所内,,13,101,1020093,,,,,,,2025-08-06,1,,,,,ミナミアザブ,0
1778,7010405024561,新規,0,2025-08-06,2025-08-06,一般社団法人福岡県国際ＦＸセンター,,その他の設立登記法人,東京都,港区,南青山３丁目１番３６号青山丸竹ビル６Ｆ,,13,103,1070062,,,,,,,2025-08-06,1,,,,,フクオカケンコクサイエフエックスセンター,0
1779,7010405024636,新規,0,2025-08-06,2025-08-06,マーキュリー一般社団法人,,その他の設立登記法人,東京都,港区,北青山１丁目２番３号,,13,103,1070061,,,,,,,2025-08-06,1,,,,,マーキュリー,0
1782,7010501054529,新規,0,2025-08-06,2025-08-06,株式会社小門商店,,株式会社,東京都,台東区,元浅草１丁目５番７号３階,,13,106,1110041,,,,,,,2025-08-06,1,,,,,コカドショウテン,0
1783,7010601067736,新規,0,2025-08-06,2025-08-06,韓桜国際株式会社,,株式会社,東京都,江東区,木場５丁目１番５号メイプルハイム木場Ｂ１１５号室,,13,108,1350042,,,,,,,2025-08-06,1,,,,,カンオウコクサイ,0
1784,7010601067769,新規,0,2025-08-06,2025-08-06,株式会社ルミアネラ,,株式会社,東京都,江東区,有明３丁目５番７号,,13,108,1350063,,,,,,,2025-08-06,1,,,,,ルミアネラ,0
1789,7010801036466,新規,0,2025-08-06,2025-08-06,株式会社ダブルボランチ,,株式会社,東京都,大田区,西馬込１丁目２２番１０－４０４号,,13,111,1430026,,,,,,,2025-08-06,1,,,,,ダブルボランチ,0
1792,7010901057866,新規,0,2025-08-06,2025-08-06,ＲＤ‐ＣＯＮＮＥＸ株式会社,,株式会社,東京都,世田谷区,等々力２丁目８番６号,,13,112,1580082,,,,,,,2025-08-06,1,,,,,アールディコネックス,0
1793,7010901057882,新規,0,2025-08-06,2025-08-06,株式会社ＡＢＹ　Ｒｅａｌ　ａｎｄ　Ｃａｐｉｔａｌ,,株式会社,東京都,世田谷区,玉川１丁目１５番２－６０８号,,13,112,1580094,,,,,,,2025-08-06,1,,,,,エービーワイリアルアンドキャピタル,0
1794,7010903010162,新規,0,2025-08-06,2025-08-06,合同会社Ｂｉｇ　Ｃｈａｎｃｅ,,合同会社,東京都,世田谷区,上馬２丁目３４番７号－２０８,,13,112,1540011,,,,,,,2025-08-06,1,,,,,ビッグチャンス,0
1801,7011001171178,新規,0,2025-08-06,2025-08-06,株式会社クロスト,,株式会社,東京都,渋谷区,恵比寿西２丁目８番４号ＥＸ恵比寿西ビル５階,,13,113,1500021,,,,,,,2025-08-06,1,,,,,クロスト,0
1805,7011003022107,新規,0,2025-08-06,2025-08-06,合同会社Ｃｌａｒｔｅ,,合同会社,東京都,目黒区,中央町２丁目２７番１６号ラゴム学芸大１０１,,13,110,1520001,,,,,,,2025-08-06,1,,,,,クラルテ,0
1806,7011005011108,新規,0,2025-08-06,2025-08-06,一般社団法人ＳＲＥコネクト,,その他の設立登記法人,東京都,渋谷区,道玄坂１丁目１０番８号渋谷道玄坂東急ビル２Ｆ－Ｃ,,13,113,1500043,,,,,,,2025-08-06,1,,,,,エスアールイーコネクト,0
1807,7011005011132,新規,0,2025-08-06,2025-08-06,弁護士法人アビエス法律事務所,,その他の設立登記法人,東京都,渋谷区,代々木２丁目１６番７号山葉ビル４階,,13,113,1510053,,,,,,,2025-08-06,1,,,,,アビエスホウリツジムショ,0
1811,7011101112643,新規,0,2025-08-06,2025-08-06,株式会社ディーエフコーポレーションジャパン,,株式会社,東京都,新宿区,天神町４番地１,,13,104,1620808,,,,,,,2025-08-06,1,,,,,ディーエフコーポレーションジャパン,0
1812,7011103016149,新規,0,2025-08-06,2025-08-06,ＯＳテクノロジー合同会社,,合同会社,東京都,新宿区,西新宿３丁目３番１３号西新宿水間ビル２Ｆ,,13,104,1600023,,,,,,,2025-08-06,1,,,,,オーエステクノロジー,0
1814,7011203004771,新規,0,2025-08-06,2025-08-06,ｏｆｆｉｃｅｌｌ合同会社,,合同会社,東京都,中野区,中野３丁目２７番１９号アルカディア中野２０６,,13,114,1640001,,,,,,,2025-08-06,1,,,,,オフィセル,0
1818,7011303005661,新規,0,2025-08-06,2025-08-06,合同会社あん日和,,合同会社,東京都,杉並区,阿佐谷南１丁目１２番３号,,13,115,1660004,,,,,,,2025-08-06,1,,,,,,0
1824,7011701028586,新規,0,2025-08-06,2025-08-06,ＤＵＯＥＮ　ＧＬＯＢＡＬ株式会社,,株式会社,東京都,江戸川区,小松川４丁目７５－２桐マンション１１０号,,13,123,1320034,,,,,,,2025-08-06,1,,,,,ドウエングルバル,0
1826,7011801046554,新規,0,2025-08-06,2025-08-06,吉野運送ホールディングス株式会社,,株式会社,東京都,足立区,江北２丁目１番１号,,13,121,1230872,,,,,,,2025-08-06,1,,,,,ヨシノウンソウホールディングス,0
1827,7012301014489,新規,0,2025-08-06,2025-08-06,株式会社アップフロント,,株式会社,東京都,町田市,金井ヶ丘２丁目１７番９号,,13,209,1950076,,,,,,,2025-08-06,1,,,,,アップフロント,0
1831,7012401043421,新規,0,2025-08-06,2025-08-06,株式会社ファルコン,,株式会社,東京都,三鷹市,井口１丁目１６番１８号,,13,204,1810011,,,,,,,2025-08-06,1,,,,,ファルコン,0
1832,7012401043438,新規,0,2025-08-06,2025-08-06,株式会社アップデート,,株式会社,東京都,調布市,上石原３丁目５９番地４１,,13,208,1820035,,,,,,,2025-08-06,1,,,,,アップデート,0
1833,7012401043446,新規,0,2025-08-06,2025-08-06,株式会社ベース,,株式会社,東京都,調布市,上石原１丁目７番地４９,,13,208,1820035,,,,,,,2025-08-06,1,,,,,ベース,0
1834,7012401043454,新規,0,2025-08-06,2025-08-06,株式会社ぐっと・クリーン,,株式会社,東京都,三鷹市,大沢４丁目８番３４号,,13,204,1810015,,,,,,,2025-08-06,1,,,,,グットクリーン,0
1836,7012403007267,新規,0,2025-08-06,2025-08-06,ＮｅｗＢｓ合同会社,,合同会社,東京都,小金井市,梶野町４丁目１５―１８,,13,210,1840002,,,,,,,2025-08-06,1,,,,,ニュービーエス,0
1847,7020001164232,新規,0,2025-08-06,2025-08-06,株式会社ＪＯＳＨＯ,,株式会社,神奈川県,横浜市旭区,中白根２丁目３１番４２号,,14,112,2410004,,,,,,,2025-08-06,1,,,,,ジョウショウ,0
1848,7020001164315,新規,0,2025-08-06,2025-08-06,株式会社ＰＯＺＯ,,株式会社,神奈川県,川崎市川崎区,渡田４丁目１１‐１６,,14,131,2100837,,,,,,,2025-08-06,1,,,,,ポソ,0
1850,7020003029053,新規,0,2025-08-06,2025-08-06,合同会社ＧＩＺＩＮ,,合同会社,神奈川県,川崎市多摩区,登戸新町３９９番地２グレイス登戸３０３,,14,135,2140013,,,,,,,2025-08-06,1,,,,,ギジン,0
1857,7030001167911,新規,0,2025-08-06,2025-08-06,日向株式会社,,株式会社,埼玉県,さいたま市南区,白幡５丁目３－２３－４０６号,,11,108,3360022,,,,,,,2025-08-06,1,,,,,ヒナタ,0
1858,7030003027345,新規,0,2025-08-06,2025-08-06,ＡＩエデュテック合同会社,,合同会社,埼玉県,朝霞市,本町１丁目２７番６号,,11,227,3510011,,,,,,,2025-08-06,1,,,,,エーアイエデュテック,0
1862,7040003028103,新規,0,2025-08-06,2025-08-06,合同会社リエル,,合同会社,千葉県,市原市,五井西４丁目２１番地６,,12,219,2900038,,,,,,,2025-08-06,1,,,,,リエル,0
1863,7040003028111,新規,0,2025-08-06,2025-08-06,合同会社ＳＡＴＯＭＡＲＫＥＴ,,合同会社,千葉県,市原市,君塚１丁目２番地１－Ｂ１０２,00140177,12,219,2900051,,,,,,,2025-08-06,1,,,,,サトマーケット,0
1864,7040003028152,新規,0,2025-08-06,2025-08-06,ＳＭ　ＭＯＴＯＲＳ合同会社,,合同会社,千葉県,山武市,板中新田字中戸山３２番地２１,,12,237,2891222,,,,,,,2025-08-06,1,,,,,エスエムモーターズ,0
1865,7040003028202,新規,0,2025-08-06,2025-08-06,合同会社Ｓ・Ｋ・ＧＬＯＢＡＬ,,合同会社,千葉県,白井市,神々廻１７６８－２,,12,232,2701416,,,,,,,2025-08-06,1,,,,,エスケーグローバル,0
1866,7050001057004,新規,0,2025-08-06,2025-08-06,株式会社八ノ森,,株式会社,茨城県,守谷市,中央２丁目１７－１フィネストリーノＫＥＩＳＥＩ×ＢＩＺｃｏｍｆｏｒｔ守谷１Ｆ－１７号室,,08,224,3020115,,,,,,,2025-08-06,1,,,,,ハチノモリ,0
1871,7070001043241,新規,0,2025-08-06,2025-08-06,ＴＡＩＢ　ＴＲＡＤＥ　ＩＮＴＥＲＮＡＴＩＯＮＡＬ株式会社,,株式会社,群馬県,桐生市,相生町２丁目３９番地の６,,10,203,3760011,,,,,,,2025-08-06,1,,,,,,0
1874,7080005007712,新規,0,2025-08-06,2025-08-06,一般社団法人経営を数字で学ぼう,,その他の設立登記法人,静岡県,静岡市葵区,日出町２番地の１田中産商第一生命共同ビルディング５階,,22,101,4200837,,,,,,,2025-08-06,1,,,,,ケイエイヲスウジデマナボウ,0
1875,7080101025700,新規,0,2025-08-06,2025-08-06,株式会社ネクストステージ,,株式会社,静岡県,裾野市,千福が丘１丁目１０番３１,,22,220,4101115,,,,,,,2025-08-06,1,,,,,ネクストステージ,0
1880,7110001039466,新規,0,2025-08-06,2025-08-06,クラスブルー株式会社,,株式会社,新潟県,新潟市中央区,西堀前通１１番町１６３８－２,,15,103,9518062,,,,,,,2025-08-06,1,,,,,クラスブルー,0
1881,7110001039474,新規,0,2025-08-06,2025-08-06,株式会社ＭＩＸＸ,,株式会社,新潟県,新潟市西区,みずき野５丁目９番３７号,,15,107,9502264,,,,,,,2025-08-06,1,,,,,ミックス,0
1882,7110001039482,新規,0,2025-08-06,2025-08-06,ライスサポート株式会社,,株式会社,新潟県,新潟市秋葉区,覚路津１４９番地,,15,105,9560001,,,,,,,2025-08-06,1,,,,,ライスサポート,0
1883,7110001039490,新規,0,2025-08-06,2025-08-06,株式会社六華文庫長岡,,株式会社,新潟県,長岡市,美沢３丁目５０３番地,,15,202,9400856,,,,,,,2025-08-06,1,,,,,ロッカブンコナガオカ,0
1893,7120001278261,新規,0,2025-08-06,2025-08-06,株式会社錦＿,00140169,株式会社,大阪府,大阪市平野区,長吉六反３丁目１７番２７号１階,,27,126,5470012,,,,,,,2025-08-06,1,,,,,キンキン,0
1894,7120001278402,新規,0,2025-08-06,2025-08-06,株式会社恩遇,,株式会社,大阪府,大阪市浪速区,敷津東３丁目３－２１－２０３号室,,27,111,5560012,,,,,,,2025-08-06,1,,,,,オングウ,0
1895,7120001278443,新規,0,2025-08-06,2025-08-06,玉朱株式会社,,株式会社,大阪府,大阪市中央区,上町１丁目２５－２清ビル５Ａ号室,,27,128,5400005,,,,,,,2025-08-06,1,,,,,ギョクシュ,0
1896,7120001278468,新規,0,2025-08-06,2025-08-06,株式会社航陽会,,株式会社,大阪府,大阪市浪速区,湊町１丁目２番１７－６０４号,,27,111,5560017,,,,,,,2025-08-06,1,,,,,コウヨウカイ,0
1897,7120001278526,新規,0,2025-08-06,2025-08-06,株式会社ＧＲＡＮＤ　ＶＩＥ,,株式会社,大阪府,大阪市住之江区,南港北２丁目１－１０,,27,125,5590034,,,,,,,2025-08-06,1,,,,,グランドヴイ,0
1898,7120001278550,新規,0,2025-08-06,2025-08-06,株式会社ジェーエス,,株式会社,大阪府,大阪市中央区,南船場１丁目１７番２６－１４０８号,,27,128,5420081,,,,,,,2025-08-06,1,,,,,ジェーエス,0
1899,7120001278674,新規,0,2025-08-06,2025-08-06,星菲株式会社,,株式会社,大阪府,大阪市生野区,生野東２丁目８－１１,,27,116,5440025,,,,,,,2025-08-06,1,,,,,セイヒ,0
1904,7120003030190,新規,0,2025-08-06,2025-08-06,合同会社ＩＢＥＸｐｌｕｓ,,合同会社,大阪府,大阪市平野区,加美北７丁目９番１号,,27,126,5470001,,,,,,,2025-08-06,1,,,,,アイベックスプラス,0
1905,7120003030208,新規,0,2025-08-06,2025-08-06,華天合同会社,,合同会社,大阪府,大阪市都島区,都島本通３丁目１８－４－２０８,,27,102,5340021,,,,,,,2025-08-06,1,,,,,カテン,0
1906,7120003030224,新規,0,2025-08-06,2025-08-06,合同会社ＳＡＹＡＰＡＴＴＲＩ,,合同会社,大阪府,大阪市淀川区,西中島３丁目２１番１号位高ビル３Ｆ,,27,123,5320011,,,,,,,2025-08-06,1,,,,,サヤパットリ,0
1913,7120101072226,新規,0,2025-08-06,2025-08-06,株式会社ＴＭＫ２８,,株式会社,大阪府,堺市東区,引野町１丁７番地２２２,,27,143,5998104,,,,,,,2025-08-06,1,,,,,ティーエムケイツーエイト,0
1914,7120101072234,新規,0,2025-08-06,2025-08-06,株式会社サンスリー,,株式会社,大阪府,羽曳野市,白鳥２丁目１１番４号,,27,222,5830856,,,,,,,2025-08-06,1,,,,,サンスリー,0
1920,7120901051296,新規,0,2025-08-06,2025-08-06,米飯米飯株式会社,,株式会社,大阪府,豊中市,寺内１丁目１０－７－３０５,,27,203,5610872,,,,,,,2025-08-06,1,,,,,ベイハンベイハン,0
1926,7130001080212,新規,0,2025-08-06,2025-08-06,株式会社ＵＧＬ京都Ｉｎｃ．,,株式会社,京都府,久世郡久御山町,森三丁１５番地１,,26,322,6130024,,,,,,,2025-08-06,1,,,,,ユージーエルキョウトインコーポレイテッド,0
1927,7130001080286,新規,0,2025-08-06,2025-08-06,株式会社ＫＰＧ,,株式会社,京都府,宇治市,槇島町落合１３３番地の３,,26,204,6110041,,,,,,,2025-08-06,1,,,,,ケーピージー,0
1934,7140003022401,新規,0,2025-08-06,2025-08-06,合同会社光栄,,合同会社,兵庫県,丹波市,氷上町西中２２番地１,,28,223,6693603,,,,,,,2025-08-06,1,,,,,コウエイ,0
1935,7140003022418,新規,0,2025-08-06,2025-08-06,チアーズ合同会社,,合同会社,兵庫県,芦屋市,涼風町１８―７,,28,206,6590036,,,,,,,2025-08-06,1,,,,,チアーズ,0
1940,7150001028317,新規,0,2025-08-06,2025-08-06,田澤一級建築士事務所株式会社,,株式会社,奈良県,生駒市,東新町４番２３号,,29,209,6300258,,,,,,,2025-08-06,1,,,,,タザワイッキュウケンチクシジムショ,0
1946,7180301040076,新規,0,2025-08-06,2025-08-06,株式会社結ｙｕｉ,,株式会社,愛知県,刈谷市,富士見町３丁目２０４番地パークサイド五軒屋１０１号,,23,210,4480854,,,,,,,2025-08-06,1,,,,,ユイユイ,0
1947,7180303006678,新規,0,2025-08-06,2025-08-06,Ｓｐｏｒｔｓ　Ｔｉｍｉｎｇ　ＷＳ合同会社,,合同会社,愛知県,新城市,八名井字滝ノ入山下１９番地１,,23,221,4411337,,,,,,,2025-08-06,1,,,,,スポーツタイミングダブリューエス,0
1949,7190001032455,新規,0,2025-08-06,2025-08-06,株式会社Ｒａｃｉｏｎ,,株式会社,三重県,津市,安濃町安濃２１８５番地４,,24,201,5142302,,,,,,,2025-08-06,1,,,,,ラシオン,0
1950,7190003005137,新規,0,2025-08-06,2025-08-06,合同会社美智,,合同会社,三重県,伊勢市,上地町１４３１番地,,24,203,5160051,,,,,,,2025-08-06,1,,,,,ミチ,0
1956,7200003006950,新規,0,2025-08-06,2025-08-06,オールセキュリティ合同会社,,合同会社,岐阜県,羽島郡岐南町,みやまち１丁目１０５番地の３,,21,302,5016019,,,,,,,2025-08-06,1,,,,,オールセキュリティ,0
1958,7220001026833,新規,0,2025-08-06,2025-08-06,株式会社サン,,株式会社,石川県,金沢市,西泉６丁目１５０番地３,,17,201,9218043,,,,,,,2025-08-06,1,,,,,サン,0
1959,7220001026858,新規,0,2025-08-06,2025-08-06,クラシビ株式会社,,株式会社,石川県,金沢市,彦三町１丁目９番１５号,,17,201,9200901,,,,,,,2025-08-06,1,,,,,クラシビ,0
1967,7240005015970,新規,0,2025-08-06,2025-08-06,一般社団法人ＬＩＧＨＴ　ＨＯＵＳＥ,,その他の設立登記法人,広島県,福山市,鞆町鞆２７９－４,,34,207,7200201,,,,,,,2025-08-06,1,,,,,ライトハウス,0
1970,7250001021278,新規,0,2025-08-06,2025-08-06,株式会社セイルワークス,,株式会社,山口県,下松市,大字末武上１２３６,,35,207,7440024,,,,,,,2025-08-06,1,,,,,セイルワークス,0
1971,7250001021286,新規,0,2025-08-06,2025-08-06,株式会社あきな技建,,株式会社,山口県,下松市,清瀬町４丁目３番３９号,,35,207,7440071,,,,,,,2025-08-06,1,,,,,アキナギケン,0
1975,7260001040418,新規,0,2025-08-06,2025-08-06,株式会社おもてなし,,株式会社,岡山県,倉敷市,沖新町９０－２ＭＩＫＡＷＡ６号室,,33,202,7100837,,,,,,,2025-08-06,1,,,,,オモテナシ,0
1976,7260003005286,新規,0,2025-08-06,2025-08-06,合同会社Ｍｕｓｔｅｒ　ｔｈｅ　ｃｏｕｒａｇｅ,,合同会社,岡山県,高梁市,南町１１８番地２西アパート５,,33,209,7160033,,,,,,,2025-08-06,1,,,,,マスターザカレッジ,0
1979,7290001110936,新規,0,2025-08-06,2025-08-06,アグロウズ株式会社,,株式会社,福岡県,八女郡広川町,大字広川１７２１番地１,,40,544,8340121,,,,,,,2025-08-06,1,,,,,アグロウズ,0
1980,7290001110952,新規,0,2025-08-06,2025-08-06,株式会社農業法人心,,株式会社,福岡県,飯塚市,上三緒３４６番地２２,,40,205,8200013,,,,,,,2025-08-06,1,,,,,ノウギョウホウジンシン,0
1985,7290801031745,新規,0,2025-08-06,2025-08-06,川口工業株式会社,,株式会社,福岡県,北九州市小倉北区,霧ケ丘２丁目１８番８号,,40,106,8020052,,,,,,,2025-08-06,1,,,,,カワグチコウギョウ,0
1988,7290805009853,新規,0,2025-08-06,2025-08-06,Ａｉｌｅ税理士法人,,その他の設立登記法人,福岡県,北九州市八幡西区,黒崎３丁目９番２２号７階ＲＩＳＯ黒崎駅前ビル,,40,109,8060021,,,,,,,2025-08-06,1,,,,,エール,0
1993,7320001021262,新規,0,2025-08-06,2025-08-06,株式会社ハイビスカスの咲叶,,株式会社,大分県,大分市,大字佐野２８８４番地,,44,201,8700315,,,,,,,2025-08-06,1,,,,,ハイビスカスノサト,0
1995,7320003004736,新規,0,2025-08-06,2025-08-06,合同会社ＴＭアシスト,,合同会社,大分県,大分市,大字鴛野１５８３番地１,,44,201,8701121,,,,,,,2025-08-06,1,,,,,ティーエムアシスト,0
1996,7320005010253,新規,0,2025-08-06,2025-08-06,特定非営利活動法人クゥハウス朋猫,,その他の設立登記法人,大分県,速見郡日出町,大字川崎４８３０番地２２ウィット川崎Ｄ１０５,,44,341,8791505,,,,,,,2025-08-06,1,,,,,クゥハウストモネコ,0
1998,7330001033463,新規,0,2025-08-06,2025-08-06,株式会社ケーフォー,,株式会社,熊本県,熊本市西区,新土河原１丁目３番６８号,,43,103,8600056,,,,,,,2025-08-06,1,,,,,ケーフォー,0
2004,7350001019691,新規,0,2025-08-06,2025-08-06,株式会社和屋,,株式会社,宮崎県,宮崎市,北川内町中岡４９６８番地１,,45,201,8800941,,,,,,,2025-08-06,1,,,,,ナゴミヤ,0
2007,7360001035597,新規,0,2025-08-06,2025-08-06,株式会社コーワ商事,,株式会社,沖縄県,沖縄市,山里２丁目１２番８号,,47,211,9040033,,,,,,,2025-08-06,1,,,,,コーワショウジ,0
2011,7370001052930,新規,0,2025-08-06,2025-08-06,株式会社葉もれ日,,株式会社,宮城県,気仙沼市,神山１２番地１８,,04,205,9880044,,,,,,,2025-08-06,1,,,,,ハモレビ,0
2013,7380001035513,新規,0,2025-08-06,2025-08-06,株式会社大橋,,株式会社,福島県,須賀川市,東町３１番地,,07,207,9620844,,,,,,,2025-08-06,1,,,,,,0
2029,7420003003166,新規,0,2025-08-06,2025-08-06,合同会社アクティヴサービス,,合同会社,青森県,弘前市,大字鷹匠町４６番地２,,02,202,0368271,,,,,,,2025-08-06,1,,,,,アクティヴサービス,0
2033,7430001094990,新規,0,2025-08-06,2025-08-06,株式会社Ｃｏｌｏｒ,,株式会社,北海道,札幌市東区,東苗穂十三条３丁目２番２６号,,01,103,0070813,,,,,,,2025-08-06,1,,,,,カラー,0
2035,7450003002702,新規,0,2025-08-06,2025-08-06,合同会社Ｆａｃｔｏｒｙたかはし,,合同会社,北海道,旭川市,近文町１１丁目３８５８番地の７,,01,204,0700821,,,,,,,2025-08-06,1,,,,,ファクトリータカハシ,0
2038,7470003002948,新規,0,2025-08-06,2025-08-06,Ｅ＆Ｍ　Ｕｓｈｉｊｉｍａ合同会社,,合同会社,香川県,高松市,郷東町７７９番地２７３,,37,201,7618031,,,,,,,2025-08-06,1,,,,,イーアンドエムウシジマ,0
2040,7490001011131,新規,0,2025-08-06,2025-08-06,株式会社ハウスクリーニング日高,,株式会社,高知県,高岡郡日高村,下分２７番地２,,39,410,7812151,,,,,,,2025-08-06,1,,,,,ハウスクリーニングヒダカ,0
2045,7700150131278,新規,0,2025-08-06,2025-08-06,Ｔｕ　Ｂｉ　Ｒｕｉ（Ｇｕａｎｇ　Ｄｏｎｇ）Ｋｅ　Ｊｉ　Ｙｏｕ　Ｘｉａｎ　Ｇｏｎｇ　Ｓｉ,,外国会社等,,,,,,,,Ｆｏｓｈａｎｓｈｉ　Ｃｈａｎｃｈｅｎｇｑｕ　Ｓｈｉｗａｎｚｈｅｎｊｉｅｄａｏ　Ｆｅｎｊｉａｎｇｎａｎｌｕ　３８　Ｈａｏ　Ｓｈｉｂｏｊｉｎｒｏｎｇｚｈｏｎｇｘｉｎ　２５　Ｃｅｎｇ　２５０１　Ｄａｎｙｕａｎ,,,,,,2025-08-06,1,,,,,トヒエイカントンカギユウゲンコウシ,0
2046,7700150131369,新規,0,2025-08-06,2025-08-06,Ｓｎｏｗ　ｈｏｕｓｅ　Ｏｎｓｅｎ　ＬＬＣ．,,外国会社等,,,,,,,,７３５　Ｎ　Ｇｉｌｐｉｎ　Ｓｔｒｅｅｔ　Ｄｅｎｖｅｒ，Ｄｅｎｖｅｒ　Ｃｏｕｎｔｙ，Ｃｏｌｏｒａｄｏ　８０２１８,,,,,,2025-08-06,1,,,,,スノーハウスオンセンエルエルシー,0
2059,8010001257432,新規,0,2025-08-06,2025-08-06,株式会社オオカド,,株式会社,東京都,千代田区,神田須田町１丁目７番８号ＶＯＲＴ秋葉原ＩＶ２Ｆ,00140186,13,101,1010041,,,,,,,2025-08-06,1,,,,,オオカド,0
2060,8010001257440,新規,0,2025-08-06,2025-08-06,ジェノミライズ株式会社,,株式会社,東京都,中央区,日本橋３丁目６－２,,13,102,1030027,,,,,,,2025-08-06,1,,,,,ジェノミライズ,0
2061,8010001257473,新規,0,2025-08-06,2025-08-06,株式会社ＪＭＫホールディングス,,株式会社,東京都,中央区,日本橋人形町１丁目６番２号,,13,102,1030013,,,,,,,2025-08-06,1,,,,,ジェイエムケーホールディングス,0
2062,8010001257481,新規,0,2025-08-06,2025-08-06,株式会社アンドカンパニー,,株式会社,東京都,文京区,湯島１丁目８番２号ＭＫ御茶ノ水ビル７階,,13,105,1130034,,,,,,,2025-08-06,1,,,,,アンドカンパニー,0
2063,8010005040487,新規,0,2025-08-06,2025-08-06,一般社団法人ＴＢＦ,,その他の設立登記法人,東京都,中央区,日本橋１丁目４番１号日本橋一丁目ビルディング,,13,102,1030027,,,,,,,2025-08-06,1,,,,,ティービーエフ,0
2065,8010101016804,新規,0,2025-08-06,2025-08-06,株式会社ジャイアントパートナーズ,,株式会社,東京都,八王子市,明神町３丁目２０番５号エイトビル３Ｆ,,13,201,1920046,,,,,,,2025-08-06,1,,,,,ジャイアントパートナーズ,0
2071,8010401192279,新規,0,2025-08-06,2025-08-06,株式会社ＢＡＮＤＥＬ,,株式会社,東京都,港区,南青山６丁目８番２号,,13,103,1070062,,,,,,,2025-08-06,1,,,,,バンデル,0
2074,8010503007938,新規,0,2025-08-06,2025-08-06,木村ファーマコンサルティング合同会社,,合同会社,東京都,台東区,上野６丁目１番６号,,13,106,1100005,,,,,,,2025-08-06,1,,,,,キムラファーマコンサルティング,0
2078,8010601067710,新規,0,2025-08-06,2025-08-06,株式会社ダイマサ,,株式会社,東京都,江東区,豊洲６丁目５番１号,,13,108,1350061,,,,,,,2025-08-06,1,,,,,ダイマサ,0
2083,8010703007853,新規,0,2025-08-06,2025-08-06,ＧＯＬＤＥＮ　ＳＥＡ　Ｃｏｎｓｕｌｔｉｎｇ合同会社,,合同会社,東京都,品川区,大崎３丁目６番１１－５０８号,,13,109,1410032,,,,,,,2025-08-06,1,,,,,ゴールデンシーコンサルティング,0
2086,8010801036465,新規,0,2025-08-06,2025-08-06,株式会社ＴＨＸ,,株式会社,東京都,大田区,下丸子２丁目１３番２－２１２号,,13,111,1460092,,,,,,,2025-08-06,1,,,,,サンクス,0
2087,8010801036473,新規,0,2025-08-06,2025-08-06,株式会社飛友,,株式会社,東京都,大田区,大森南２丁目１５番１０グリーンキャピタル大森２０５号,,13,111,1430013,,,,,,,2025-08-06,1,,,,,ヒユウ,0
2091,8010901057865,新規,0,2025-08-06,2025-08-06,株式会社カイエンパートナーズ,,株式会社,東京都,世田谷区,太子堂４丁目１８番１５号マガザン三軒茶屋２－３Ｆ－３,,13,112,1540004,,,,,,,2025-08-06,1,,,,,カイエンパートナーズ,0
2096,8011001171656,新規,0,2025-08-06,2025-08-06,株式会社ＰＣ４Ｋ,,株式会社,東京都,渋谷区,道玄坂１丁目１０番８号渋谷道玄坂東急ビル２Ｆ－Ｃ,,13,113,1500043,,,,,,,2025-08-06,1,,,,,ピーシーフォーケー,0
2102,8011003022287,新規,0,2025-08-06,2025-08-06,合同会社ＬＹＮＸ,,合同会社,東京都,渋谷区,道玄坂１丁目１０番８号渋谷道玄坂東急ビル２Ｆ－Ｃ,,13,113,1500043,,,,,,,2025-08-06,1,,,,,リンクス,0
2103,8011005011107,新規,0,2025-08-06,2025-08-06,一般社団法人まちづくりラボ,,その他の設立登記法人,東京都,渋谷区,代々木１丁目３１番１５号,,13,113,1510053,,,,,,,2025-08-06,1,,,,,マチヅクリラボ,0
2104,8011301030784,新規,0,2025-08-06,2025-08-06,株式会社ＳＴＡＮＤＢＡＳＥ,,株式会社,東京都,杉並区,高円寺南４丁目４２番４号広門ビル１階,,13,115,1660003,,,,,,,2025-08-06,1,,,,,スタンドベース,0
2110,8011603004791,新規,0,2025-08-06,2025-08-06,舞台猫乃手合同会社,,合同会社,東京都,練馬区,谷原５丁目２３番１３号ガーデンテラス石神井公園１０３号,,13,120,1770032,,,,,,,2025-08-06,1,,,,,ブタイネコノテ,0
2112,8011701028544,新規,0,2025-08-06,2025-08-06,株式会社ＬＪ,,株式会社,東京都,江戸川区,北小岩２丁目２４－１０,,13,123,1330051,,,,,,,2025-08-06,1,,,,,エルジェイ,0
2113,8011701028585,新規,0,2025-08-06,2025-08-06,サミットツアー株式会社,,株式会社,東京都,江戸川区,本一色２丁目１３番１６号,,13,123,1330044,,,,,,,2025-08-06,1,,,,,サミットツアー,0
2117,8011801046553,新規,0,2025-08-06,2025-08-06,株式会社ＲｉｖｅｒＳｔｏｎｅ,,株式会社,東京都,足立区,皿沼１丁目２０番１２号,,13,121,1230862,,,,,,,2025-08-06,1,,,,,リバーストーン,0
2118,8011803007000,新規,0,2025-08-06,2025-08-06,エムズコーポレーション合同会社,,合同会社,東京都,葛飾区,東金町３丁目１７番１０号ＫＢＳ－Ｆ－２９,,13,122,1250041,,,,,,,2025-08-06,1,,,,,エムズコーポレーション,0
2122,8012401043420,新規,0,2025-08-06,2025-08-06,川上建装株式会社,,株式会社,東京都,稲城市,矢野口２０５９番地の１ペアパレスＡＯＫＩ１０５,,13,225,2060812,,,,,,,2025-08-06,1,,,,,カワカミケンソウ,0
2124,8012801024144,新規,0,2025-08-06,2025-08-06,株式会社エヌワイケーシー,,株式会社,東京都,武蔵村山市,伊奈平１丁目３２番地３,,13,223,2080023,,,,,,,2025-08-06,1,,,,,エヌワイケーシー,0
2126,8013101009760,新規,0,2025-08-06,2025-08-06,株式会社陽貴,,株式会社,東京都,あきる野市,秋川１丁目２番地２レクセルマンション秋川７０５号,,13,228,1970804,,,,,,,2025-08-06,1,,,,,ヨウキ,0
2138,8020001163902,新規,0,2025-08-06,2025-08-06,株式会社キューピークバイオテック,,株式会社,神奈川県,横浜市中区,山下町２番地産業貿易センタービル２階,,14,104,2310023,,,,,,,2025-08-06,1,,,,,キューピークバイオテック,0
2139,8020001164165,新規,0,2025-08-06,2025-08-06,株式会社プレシャス,,株式会社,神奈川県,川崎市宮前区,有馬４丁目１１番４号,,14,136,2160003,,,,,,,2025-08-06,1,,,,,プレシャス,0
2140,8020001164314,新規,0,2025-08-06,2025-08-06,株式会社キュービック,,株式会社,神奈川県,川崎市中原区,新丸子町７３６番地４,,14,133,2110005,,,,,,,2025-08-06,1,,,,,キュービック,0
2142,8021001085921,新規,0,2025-08-06,2025-08-06,株式会社Ｈａｙａｍａ　Ｄｉｓｃｏｖｅｒｙ,,株式会社,神奈川県,三浦郡葉山町,一色５６９－８,,14,301,2400111,,,,,,,2025-08-06,1,,,,,ハヤマディスカバリー,0
2143,8021001085938,新規,0,2025-08-06,2025-08-06,株式会社Ｔ‐ＯＮＥ,,株式会社,神奈川県,三浦市,晴海町１２番５号,,14,210,2380232,,,,,,,2025-08-06,1,,,,,ティーワン,0
2144,8021001085946,新規,0,2025-08-06,2025-08-06,ＢｅｅｐＵｐ株式会社,,株式会社,神奈川県,相模原市緑区,町屋１丁目２４－４６－１,,14,151,2520101,,,,,,,2025-08-06,1,,,,,ビープアップ,0
2147,8021003016387,新規,0,2025-08-06,2025-08-06,合同会社海,,合同会社,神奈川県,秦野市,鶴巻南２丁目４４番１０号,,14,211,2570002,,,,,,,2025-08-06,1,,,,,ウミ,0
2155,8030001167984,新規,0,2025-08-06,2025-08-06,株式会社ナカムラ米販,,株式会社,埼玉県,越谷市,大間野町４丁目１３６番地,,11,222,3430844,,,,,,,2025-08-06,1,,,,,ナカムラベイハン,0
2156,8030001168009,新規,0,2025-08-06,2025-08-06,ＯＩＧ株式会社,,株式会社,埼玉県,熊谷市,小八林３３７番地,,11,202,3690103,,,,,,,2025-08-06,1,,,,,オーアイジー,0
2157,8030001168041,新規,0,2025-08-06,2025-08-06,株式会社千金楽工務店,,株式会社,埼玉県,春日部市,粕壁６７２０番地１,,11,214,3440061,,,,,,,2025-08-06,1,,,,,チギラコウムテン,0
2163,8030003027328,新規,0,2025-08-06,2025-08-06,合同会社ＣＨＡＲＲＥＬ,,合同会社,埼玉県,所沢市,北原町９０４番地１サンコート所沢１０５,,11,208,3590004,,,,,,,2025-08-06,1,,,,,チャレル,0
2164,8030003027344,新規,0,2025-08-06,2025-08-06,インプライドオッズ合同会社,,合同会社,埼玉県,草加市,旭町５丁目６番１０－１０２号,,11,221,3400053,,,,,,,2025-08-06,1,,,,,インプライドオッズ,0
2170,8040001139859,新規,0,2025-08-06,2025-08-06,Ｄ‐ｍｉｎｄ株式会社,,株式会社,千葉県,白井市,冨士８５番地３７,,12,232,2701432,,,,,,,2025-08-06,1,,,,,ディーマインド,0
2173,8040003028135,新規,0,2025-08-06,2025-08-06,合同会社Ａｐｅｒｔａ,,合同会社,千葉県,千葉市中央区,蘇我３丁目２３番１号,,12,101,2600822,,,,,,,2025-08-06,1,,,,,アペルタ,0
2175,8050001057028,新規,0,2025-08-06,2025-08-06,隆光急送株式会社,,株式会社,茨城県,つくば市,金田６４２番地２,,08,220,3050018,,,,,,,2025-08-06,1,,,,,タカミツキュウソウ,0
2179,8060001038480,新規,0,2025-08-06,2025-08-06,千里株式会社,,株式会社,栃木県,宇都宮市,東簗瀬１丁目４番地１,,09,201,3210925,,,,,,,2025-08-06,1,,,,,センリ,0
2180,8060003005669,新規,0,2025-08-06,2025-08-06,ＫＰ合同会社,,合同会社,栃木県,栃木市,神田町９番１２号,,09,203,3280032,,,,,,,2025-08-06,1,,,,,ケーピー,0
2181,8070001043232,新規,0,2025-08-06,2025-08-06,ＹＳホールディングス株式会社,,株式会社,群馬県,太田市,飯塚町１４３４番地１,,10,205,3730817,,,,,,,2025-08-06,1,,,,,ワイエスホールディングス,0
2183,8070003006022,新規,0,2025-08-06,2025-08-06,ＭＯＫＬＡＶ　ＧＬＯＢＡＬ合同会社,,合同会社,群馬県,太田市,由良町１６７１番地１アレリエスＣ－２０２号,,10,205,3730036,,,,,,,2025-08-06,1,,,,,モクラフグローバル,0
2186,8080101025690,新規,0,2025-08-06,2025-08-06,株式会社岩田塗建,,株式会社,静岡県,御殿場市,二枚橋５１４番地の１４,,22,215,4120021,,,,,,,2025-08-06,1,,,,,イワタトケン,0
2188,8080103003389,新規,0,2025-08-06,2025-08-06,合同会社ＹＺ３,,合同会社,静岡県,三島市,栄町１２番３４号,,22,206,4110846,,,,,,,2025-08-06,1,,,,,ワイゼットスリー,0
2191,8090001019437,新規,0,2025-08-06,2025-08-06,株式会社樋川電気,,株式会社,山梨県,中央市,臼井阿原１３２８番地５,,19,214,4093844,,,,,,,2025-08-06,1,,,,,,0
2199,8100001038831,新規,0,2025-08-06,2025-08-06,株式会社のぞみ,,株式会社,長野県,南佐久郡小海町,大字小海２８５１番地,,20,303,3841102,,,,,,,2025-08-06,1,,,,,ノゾミ,0
2200,8100001038848,新規,0,2025-08-06,2025-08-06,ＬＥＯＣＨジャパン株式会社,,株式会社,長野県,松本市,女鳥羽１丁目３番１２号,,20,202,3900806,,,,,,,2025-08-06,1,,,,,レオックジャパン,0
2203,8100003008329,新規,0,2025-08-06,2025-08-06,合同会社ギャルリ朔,,合同会社,長野県,木曽郡木曽町,日義４８７９番地２,,20,432,3996101,,,,,,,2025-08-06,1,,,,,ギャルリツイタチ,0
2205,8110001039465,新規,0,2025-08-06,2025-08-06,株式会社ｅｍｐａｔｈｙ,,株式会社,新潟県,新潟市中央区,万代３丁目２－２３－２０１,,15,103,9500088,,,,,,,2025-08-06,1,,,,,エンパシィ,0
2206,8110003005853,新規,0,2025-08-06,2025-08-06,合同会社高達養鯉場,,合同会社,新潟県,長岡市,山古志竹沢甲１５４１番地,,15,202,9470204,,,,,,,2025-08-06,1,,,,,タカタツヨウリジョウ,0
2217,8120001278467,新規,0,2025-08-06,2025-08-06,株式会社ＣＡＬＥＮ,,株式会社,大阪府,大阪市平野区,長吉出戸４丁目４－５５,,27,126,5470011,,,,,,,2025-08-06,1,,,,,カレン,0
2218,8120001278483,新規,0,2025-08-06,2025-08-06,新町不動産株式会社,,株式会社,大阪府,大阪市西区,新町１丁目１２番７号ｏｒｂｉｔｓｔａｇｅ新町三階,,27,106,5500013,,,,,,,2025-08-06,1,,,,,シンマチフドウサン,0
2219,8120001278509,新規,0,2025-08-06,2025-08-06,株式会社西日本クラウド,,株式会社,大阪府,大阪市北区,梅田１丁目２－２大阪駅前第２ビル１２－１２,,27,127,5300001,,,,,,,2025-08-06,1,,,,,ニシニホンクラウド,0
2220,8120001278525,新規,0,2025-08-06,2025-08-06,株式会社ヴィオラトリコロール,,株式会社,大阪府,大阪市中央区,本町３丁目２番６号,,27,128,5410053,,,,,,,2025-08-06,1,,,,,ヴィオラトリコロール,0
2221,8120001278541,新規,0,2025-08-06,2025-08-06,元翔株式会社,,株式会社,大阪府,大阪市中央区,安堂寺町２丁目７番２号朝日プラザ長堀東パサージュ３０３号室,,27,128,5420061,,,,,,,2025-08-06,1,,,,,ゲンショウ,0
2222,8120001278574,新規,0,2025-08-06,2025-08-06,株式会社ＲＩＳＩＡ,,株式会社,大阪府,大阪市鶴見区,放出東３丁目２１番４０号ローレルコート放出２０５号,,27,124,5380044,,,,,,,2025-08-06,1,,,,,ライシア,0
2227,8120003030207,新規,0,2025-08-06,2025-08-06,合同会社Ｈｉｎｏｋｉ　Ｓｔｕｄｉｏｓ,,合同会社,大阪府,大阪市西淀川区,姫里１丁目１８番２３号,,27,113,5550025,,,,,,,2025-08-06,1,,,,,ヒノキスタジオ,0
2228,8120003030223,新規,0,2025-08-06,2025-08-06,寶成國際合同会社,,合同会社,大阪府,大阪市西成区,萩之茶屋２丁目６番４号ニューかめや２２３号室,,27,122,5570004,,,,,,,2025-08-06,1,,,,,ホウセイコクサイ,0
2231,8120101072225,新規,0,2025-08-06,2025-08-06,株式会社アップエンジ,,株式会社,大阪府,堺市南区,赤坂台５丁４番４号,,27,145,5900144,,,,,,,2025-08-06,1,,,,,アップエンジ,0
2236,8130001080203,新規,0,2025-08-06,2025-08-06,株式会社小川,,株式会社,京都府,亀岡市,篠町広田２丁目１４番３号,,26,206,6210834,,,,,,,2025-08-06,1,,,,,オガワ,0
2237,8130001080244,新規,0,2025-08-06,2025-08-06,株式会社ａｃｃｕｍｕｌｅｒ,,株式会社,京都府,京都市中京区,中島町９８番地御所飴ビル４階,,26,104,6048004,,,,,,,2025-08-06,1,,,,,アキュミュリ,0
2243,8140001139312,新規,0,2025-08-06,2025-08-06,株式会社ＥＢＩＳＵ,,株式会社,兵庫県,西宮市,津門綾羽町４－３,,28,204,6638244,,,,,,,2025-08-06,1,,,,,エビス,0
2244,8140001139519,新規,0,2025-08-06,2025-08-06,株式会社ロジック,,株式会社,兵庫県,神戸市東灘区,本庄町１丁目７－９－１,,28,101,6580012,,,,,,,2025-08-06,1,,,,,ロジック,0
2249,8160001026962,新規,0,2025-08-06,2025-08-06,株式会社ＦＥ,,株式会社,滋賀県,近江八幡市,若葉町３丁目１７９６番地８,,25,204,5230815,,,,,,,2025-08-06,1,,,,,エフイー,0
2250,8170001018752,新規,0,2025-08-06,2025-08-06,株式会社仁インターナショナルグループ,,株式会社,和歌山県,和歌山市,大垣内６８３番地３,,30,201,6496272,,,,,,,2025-08-06,1,,,,,ジンインターナショナルグループ,0
2257,8180301040083,新規,0,2025-08-06,2025-08-06,株式会社不動産プラス,,株式会社,愛知県,碧南市,栄町１丁目１０番地,,23,209,4470877,,,,,,,2025-08-06,1,,,,,フドウサンプラス,0
2258,8190001032454,新規,0,2025-08-06,2025-08-06,株式会社Ａｒｏｕｎｄ　ＳＴ,,株式会社,三重県,桑名市,長島町松蔭９９番地,,24,205,5111134,,,,,,,2025-08-06,1,,,,,アラウンドエスティー,0
2259,8190003005136,新規,0,2025-08-06,2025-08-06,合同会社ミズノト,,合同会社,三重県,伊勢市,中村町７００番地１キャンパスライフ２０２号室,,24,203,5160028,,,,,,,2025-08-06,1,,,,,ミズノト,0
2265,8200005013787,新規,0,2025-08-06,2025-08-06,一般社団法人岐阜ｉネクスト,,その他の設立登記法人,岐阜県,関市,明生町２丁目１番地５－１０２,,21,205,5013904,,,,,,,2025-08-06,1,,,,,ギフアイネクスト,0
2267,8220001026857,新規,0,2025-08-06,2025-08-06,株式会社メープル,,株式会社,石川県,小松市,符津町カ８５番地,,17,203,9230302,,,,,,,2025-08-06,1,,,,,メープル,0
2272,8240001065309,新規,0,2025-08-06,2025-08-06,株式会社美・麗・彩,,株式会社,広島県,尾道市,御調町市１０４７番地１０,,34,205,7220311,,,,,,,2025-08-06,1,,,,,ビレイサイ,0
2273,8240001065317,新規,0,2025-08-06,2025-08-06,株式会社奥昌,,株式会社,広島県,呉市,倉橋町１０８１４番地の１,,34,202,7371377,,,,,,,2025-08-06,1,,,,,オクショウ,0
2276,8250001021277,新規,0,2025-08-06,2025-08-06,株式会社一進,,株式会社,山口県,熊毛郡田布施町,麻郷団地８３,,35,343,7421513,,,,,,,2025-08-06,1,,,,,イッシン,0
2277,8250001021285,新規,0,2025-08-06,2025-08-06,株式会社べんちすたーと,,株式会社,山口県,大島郡周防大島町,大字土居１０９１番地３,,35,305,7422803,,,,,,,2025-08-06,1,,,,,ベンチスタート,0
2283,8290001110919,新規,0,2025-08-06,2025-08-06,株式会社ヤク・イン,,株式会社,福岡県,福岡市博多区,銀天町３丁目４番６－１２０８号,,40,132,8120879,,,,,,,2025-08-06,1,,,,,ヤクイン,0
2284,8290001110927,新規,0,2025-08-06,2025-08-06,株式会社八紘工建,,株式会社,福岡県,福岡市博多区,麦野３丁目７番７号,,40,132,8120882,,,,,,,2025-08-06,1,,,,,ハッコウコウケン,0
2285,8290001110951,新規,0,2025-08-06,2025-08-06,株式会社ミラクルム,,株式会社,福岡県,福岡市西区,小戸１丁目２番２７－２０２号,,40,135,8190001,,,,,,,2025-08-06,1,,,,,ミラクルム,0
2288,8290003017179,新規,0,2025-08-06,2025-08-06,合同会社リンクネスト,,合同会社,福岡県,福岡市早良区,大字西油山字塚原１６２番地３,,40,137,8140173,,,,,,,2025-08-06,1,,,,,リンクネスト,0
2289,8290003017229,新規,0,2025-08-06,2025-08-06,ＤＴ合同会社,,合同会社,福岡県,小郡市,大保１６４５番地７セトル１０３号,,40,216,8380115,,,,,,,2025-08-06,1,,,,,ディーティー,0
2291,8290805009852,新規,0,2025-08-06,2025-08-06,一般社団法人ウェルビーイング,,その他の設立登記法人,福岡県,北九州市八幡西区,御開４丁目８番１号,,40,109,8070806,,,,,,,2025-08-06,1,,,,,ウェルビーイング,0
2292,8300005007259,新規,0,2025-08-06,2025-08-06,一般社団法人海の哲学ラボ,,その他の設立登記法人,佐賀県,唐津市,刀町１５２９番地,,41,202,8470055,,,,,,,2025-08-06,1,,,,,ウミノテツガクラボ,0
2296,8320003004735,新規,0,2025-08-06,2025-08-06,合同会社碧林業,,合同会社,大分県,大分市,大字中戸次４０７６番地３棟２０６号,,44,201,8797761,,,,,,,2025-08-06,1,,,,,アオイリンギョウ,0
2302,8330003011152,新規,0,2025-08-06,2025-08-06,合同会社アマリス,,合同会社,熊本県,天草市,本渡町広瀬２７９番地,,43,215,8630001,,,,,,,2025-08-06,1,,,,,アマリス,0
2306,8360001035596,新規,0,2025-08-06,2025-08-06,株式会社ＦＬＡＳＨ,,株式会社,沖縄県,浦添市,牧港４丁目１０番１－１４０４号,,47,208,9012131,,,,,,,2025-08-06,1,,,,,フラッシュ,0
2324,8410001014248,新規,0,2025-08-06,2025-08-06,株式会社秋田国際ダリア園,,株式会社,秋田県,秋田市,雄和妙法字糠塚２１番地,,05,201,0101223,,,,,,,2025-08-06,1,,,,,アキタコクサイダリアエン,0
2333,8490005007001,新規,0,2025-08-06,2025-08-06,一般社団法人るーちぇ,,その他の設立登記法人,高知県,高知市,南金田５番６号,,39,201,7810074,,,,,,,2025-08-06,1,,,,,ルーチェ,0
2338,8700150131368,新規,0,2025-08-06,2025-08-06,Ｌｅｎｏｖｏ　Ｉｒｅｌａｎｄ　Ｉｎｔｅｒｎａｔｉｏｎａｌ　Ｌｉｍｉｔｅｄ,,外国会社等,,,,,,,,Ｖｉｓｃｏｕｎｔ　Ｈｏｕｓｅ，６－７　Ｆｉｔｚｗｉｌｌｉａｍ　Ｓｑｕａｒｅ　Ｅａｓｔ，Ｄｕｂｌｉｎ，Ｄ０２Ｙ４４７，Ｉｒｅｌａｎｄ,,,,,,2025-08-06,1,,,,,レノボアイルランドインターナシヨナルリミテツド,0
2339,8700150131681,新規,0,2025-08-06,2025-08-06,６６デコ・ジャパン・エルエルシー,,外国会社等,東京都,千代田区,丸の内２丁目１－１明治安田生命ビル２１階,,13,101,1000005,アメリカ合衆国デラウエア州ウィルミントン、オレンジ・ストリート１２０９、ナショナル・レジスタード・エージェント・インク内,,,,,,2025-08-06,1,,,,,シツクステイーシツクスデコジヤパンエルエルシー,0
2350,9010001257258,新規,0,2025-08-06,2025-08-06,株式会社八〇九〇,,株式会社,東京都,文京区,根津２丁目３４番３号うぇすてる藍ぞめＣ棟１号室,,13,105,1130031,,,,,,,2025-08-06,1,,,,,ハチゼロキュウゼロ,0
2351,9010001257431,新規,0,2025-08-06,2025-08-06,株式会社ＤＲＡＦＴ４,,株式会社,東京都,中央区,月島１丁目３番１６－２０１号,,13,102,1040052,,,,,,,2025-08-06,1,,,,,ドラフトフォー,0
2352,9010003048168,新規,0,2025-08-06,2025-08-06,合同会社サンカクエール,,合同会社,東京都,中央区,日本橋室町１丁目１１番１２号日本橋水野ビル７階,,13,102,1030022,,,,,,,2025-08-06,1,,,,,サンカクエール,0
2353,9010003048259,新規,0,2025-08-06,2025-08-06,合同会社江坂キャピタル,,合同会社,東京都,千代田区,丸の内１丁目６番５号,,13,101,1000005,,,,,,,2025-08-06,1,,,,,エサカキャピタル,0
2358,9010005040494,新規,0,2025-08-06,2025-08-06,一般社団法人東山高台,,その他の設立登記法人,東京都,千代田区,霞が関３丁目２番５号,,13,101,1000013,,,,,,,2025-08-06,1,,,,,ヒガシヤマコウダイ,0
2383,9010501054510,新規,0,2025-08-06,2025-08-06,株式会社Ｒ　ＳＴＹＬＥ,,株式会社,東京都,台東区,東上野３丁目１３番２号ＡＹビル７階,,13,106,1100015,,,,,,,2025-08-06,1,,,,,アールスタイル,0
2387,9010601067734,新規,0,2025-08-06,2025-08-06,株式会社ＲＳ　ＶＩＳＩＯＮ　ＷＯＲＫＳ,,株式会社,東京都,江東区,東砂７丁目５番２２－８０２号,,13,108,1360074,,,,,,,2025-08-06,1,,,,,アールエスビジョンワークス,0
2389,9010603011681,新規,0,2025-08-06,2025-08-06,ＡｒｃｏＵｒＢＩ　ＦＧＨＤ合同会社,,合同会社,東京都,江東区,東雲１丁目２－８,,13,108,1350062,,,,,,,2025-08-06,1,,,,,アルコウルビエフジーエイチディ,0
2390,9010603011723,新規,0,2025-08-06,2025-08-06,合同会社京都不動産,,合同会社,東京都,江東区,門前仲町２丁目２番１０号楽陽ビル３０１号室,,13,108,1350048,,,,,,,2025-08-06,1,,,,,キョウトフドウサン,0
2394,9010801036464,新規,0,2025-08-06,2025-08-06,株式会社ＴＫＮｅＳｔａｔｅ,,株式会社,東京都,大田区,蒲田２丁目２２番１２号,,13,111,1440052,,,,,,,2025-08-06,1,,,,,ティーケーエヌエステート,0
2395,9010801036472,新規,0,2025-08-06,2025-08-06,株式会社ｍｍｙＢａｓｅ,,株式会社,東京都,大田区,矢口１丁目１３番１５号,,13,111,1460093,,,,,,,2025-08-06,1,,,,,ミーベース,0
2396,9010901057872,新規,0,2025-08-06,2025-08-06,株式会社ケイツーオー,,株式会社,東京都,世田谷区,東玉川２丁目１１番７号,,13,112,1580084,,,,,,,2025-08-06,1,,,,,ケイツーオー,0
2397,9010901057880,新規,0,2025-08-06,2025-08-06,株式会社Ｍｏｎａ,,株式会社,東京都,世田谷区,瀬田５丁目３９番２０－２０１号,,13,112,1580095,,,,,,,2025-08-06,1,,,,,モナ,0
2400,9011001171738,新規,0,2025-08-06,2025-08-06,エスエヌケー株式会社,,株式会社,東京都,渋谷区,道玄坂道玄坂一丁目１０番８号渋谷道玄坂東急ビル２Ｆ‐Ｃ,,13,113,1500000,,,,,,,2025-08-06,1,,,,,エスエヌケー,0
2401,9011005011106,新規,0,2025-08-06,2025-08-06,一般社団法人未来づくり研究所,,その他の設立登記法人,東京都,渋谷区,代々木１丁目３１番１５号,,13,113,1510053,,,,,,,2025-08-06,1,,,,,ミライヅクリケンキュウジョ,0
2409,9011701028592,新規,0,2025-08-06,2025-08-06,藤＿煌株式会社,00140168,株式会社,東京都,江戸川区,西葛西５丁目７番６－３０２号,,13,123,1340088,,,,,,,2025-08-06,1,,,,,トエンコ,0
2410,9011801046552,新規,0,2025-08-06,2025-08-06,株式会社アクト,,株式会社,東京都,足立区,一ツ家４丁目２番１９号,,13,121,1210075,,,,,,,2025-08-06,1,,,,,アクト,0
2411,9011801046560,新規,0,2025-08-06,2025-08-06,株式会社ＰＲＯＶＩＡ,,株式会社,東京都,足立区,竹の塚２丁目２９－１４－３Ｆ,,13,121,1210813,,,,,,,2025-08-06,1,,,,,プロヴィア,0
2413,9012401043436,新規,0,2025-08-06,2025-08-06,株式会社オスカーコンサルティング,,株式会社,東京都,武蔵野市,吉祥寺北町３丁目７－５,,13,203,1800001,,,,,,,2025-08-06,1,,,,,オスカーコンサルティング,0
2416,9012703003328,新規,0,2025-08-06,2025-08-06,合同会社も,,合同会社,東京都,東村山市,諏訪町２丁目１８番地１４号,,13,213,1890021,,,,,,,2025-08-06,1,,,,,モ,0
2417,9012801024151,新規,0,2025-08-06,2025-08-06,株式会社Ｖｉｌｏｎｅ,,株式会社,東京都,国分寺市,東戸倉２丁目１０番地２０ヒルズガーデン恋ヶ窪,,13,214,1850002,,,,,,,2025-08-06,1,,,,,ヴィローネ,0
2425,9020001164263,新規,0,2025-08-06,2025-08-06,トモイネットサービス株式会社,,株式会社,神奈川県,横浜市神奈川区,松見町２丁目５６９番地４,,14,102,2210005,,,,,,,2025-08-06,1,,,,,トモイネットサービス,0
2426,9020001164271,新規,0,2025-08-06,2025-08-06,株式会社ハノキザワ,,株式会社,神奈川県,横浜市磯子区,氷取沢町２０４番地２２,,14,107,2350043,,,,,,,2025-08-06,1,,,,,ハノキザワ,0
2430,9020003029076,新規,0,2025-08-06,2025-08-06,合同会社はぐくみ,,合同会社,神奈川県,横浜市港北区,下田町６丁目１２番５号,,14,109,2230064,,,,,,,2025-08-06,1,,,,,ハグクミ,0
2433,9021003016378,新規,0,2025-08-06,2025-08-06,合同会社Ｓ＆Ｎサービス,,合同会社,神奈川県,相模原市南区,東大沼３丁目３２－１４,,14,153,2520333,,,,,,,2025-08-06,1,,,,,エスアンドエヌサービス,0
2438,9030001167991,新規,0,2025-08-06,2025-08-06,株式会社ライズ,,株式会社,埼玉県,さいたま市中央区,本町東４丁目９番７号スターパレス２１・１０３,,11,105,3380003,,,,,,,2025-08-06,1,,,,,ライズ,0
2439,9030001168040,新規,0,2025-08-06,2025-08-06,Ｌ．Ｃ．株式会社,,株式会社,埼玉県,さいたま市桜区,桜田１丁目２４番１９号,,11,106,3380833,,,,,,,2025-08-06,1,,,,,エルシー,0
2441,9030003027335,新規,0,2025-08-06,2025-08-06,合同会社八木澤工業,,合同会社,埼玉県,川越市,大字寺尾３０５番地２１,,11,201,3501141,,,,,,,2025-08-06,1,,,,,ヤギサワコウギョウ,0
2442,9030003027343,新規,0,2025-08-06,2025-08-06,和心合同会社,,合同会社,埼玉県,川口市,青木１丁目２番１３号－４０７号,,11,203,3320031,,,,,,,2025-08-06,1,,,,,ワシン,0
2452,9040003028191,新規,0,2025-08-06,2025-08-06,Ｓｕｇｉｍｏｔｏ　ＰＭ　Ｓｅｒｖｉｃｅｓ合同会社,,合同会社,千葉県,千葉市美浜区,高洲２丁目２番１０棟５０５号,,12,106,2610004,,,,,,,2025-08-06,1,,,,,スギモトピーエムサービシーズ,0
2457,9060001038463,新規,0,2025-08-06,2025-08-06,あゆむｒｅｖｉｖａｌ株式会社,,株式会社,栃木県,宇都宮市,上小倉町３８８番地１,,09,201,3210401,,,,,,,2025-08-06,1,,,,,アユムリヴァイバル,0
2458,9070001043207,新規,0,2025-08-06,2025-08-06,株式会社高橋自動車ボデー,,株式会社,群馬県,富岡市,宇田４１５番地３,,10,210,3702451,,,,,,,2025-08-06,1,,,,,タカハシジドウシャボデー,0
2459,9070001043215,新規,0,2025-08-06,2025-08-06,株式会社ＢＢＢ,,株式会社,群馬県,太田市,由良町１５４２－３,,10,205,3730036,,,,,,,2025-08-06,1,,,,,ビービービー,0
2460,9070001043223,新規,0,2025-08-06,2025-08-06,株式会社ヴァモス,,株式会社,群馬県,高崎市,柴崎町４０番地６,,10,202,3700035,,,,,,,2025-08-06,1,,,,,ヴァモス,0
2463,9080101025698,新規,0,2025-08-06,2025-08-06,ＡＪＩＲＯ　ＬＩＦＥ株式会社,,株式会社,静岡県,熱海市,下多賀２０１番地の１２の１８　森野方,,22,205,4130102,,,,,,,2025-08-06,1,,,,,アジロライフ,0
2464,9080103003388,新規,0,2025-08-06,2025-08-06,合同会社弥栄ワークス,,合同会社,静岡県,富士市,中之郷３７８６番地の１,,22,210,4213306,,,,,,,2025-08-06,1,,,,,イヤサカワークス,0
2465,9090001019452,新規,0,2025-08-06,2025-08-06,株式会社Ｓｏｌａ,,株式会社,山梨県,中巨摩郡昭和町,清水新居５５８番地３,,19,384,4093867,,,,,,,2025-08-06,1,,,,,ソラ,0
2472,9100001038855,新規,0,2025-08-06,2025-08-06,ＡＶＡＮＴＩ株式会社,,株式会社,長野県,長野市,上野２丁目１１６１番地,,20,201,3810085,,,,,,,2025-08-06,1,,,,,アヴァンティ,0
2474,9100003008328,新規,0,2025-08-06,2025-08-06,尚合同会社,,合同会社,長野県,飯山市,大字飯山２９７番地３７,,20,213,3892253,,,,,,,2025-08-06,1,,,,,ショウ,0
2476,9110001039489,新規,0,2025-08-06,2025-08-06,株式会社六華文庫新潟,,株式会社,新潟県,新潟市中央区,山二ツ１丁目３番２０号,,15,103,9500922,,,,,,,2025-08-06,1,,,,,ロッカブンコニイガタ,0
2477,9110003005852,新規,0,2025-08-06,2025-08-06,ソウルシフト合同会社,,合同会社,新潟県,新潟市秋葉区,矢代田１９７４番地６,,15,105,9560113,,,,,,,2025-08-06,1,,,,,ソウルシフト,0
2495,9120001278193,新規,0,2025-08-06,2025-08-06,株式会社Ａ‐ｌｉｎｋ管理,,株式会社,大阪府,大阪市北区,西天満４丁目１番２０号,,27,127,5300047,,,,,,,2025-08-06,1,,,,,エーリンクカンリ,0
2496,9120001278524,新規,0,2025-08-06,2025-08-06,濱中工業株式会社,00140176,株式会社,大阪府,守口市,金田町２丁目２３番１２号,,27,209,5700011,,,,,,,2025-08-06,1,,,,,ハマナカコウギョウ,0
2497,9120001278581,新規,0,2025-08-06,2025-08-06,株式会社ＪＫＫＦ,,株式会社,大阪府,大阪市中央区,南船場３丁目６番５号芦池ビル３２,00140170,27,128,5420081,,,,,,,2025-08-06,1,,,,,ジェーケイケイエフ,0
2498,9120001278648,新規,0,2025-08-06,2025-08-06,株式会社ＭＡＮＧＯ,,株式会社,大阪府,大阪市西成区,岸里東２丁目１０番１３－１０６号室,,27,122,5570042,,,,,,,2025-08-06,1,,,,,マンゴー,0
2504,9120101072232,新規,0,2025-08-06,2025-08-06,株式会社ＡＩＳＥＩ,,株式会社,大阪府,富田林市,宮甲田町１番２５号,,27,214,5840037,,,,,,,2025-08-06,1,,,,,アイセイ,0
2519,9140001139451,新規,0,2025-08-06,2025-08-06,ＡＧＲＥＳＴＡＲＴ株式会社,,株式会社,兵庫県,豊岡市,出石町水上１４１番地,,28,209,6680274,,,,,,,2025-08-06,1,,,,,アグリスタート,0
2520,9140001139526,新規,0,2025-08-06,2025-08-06,株式会社Ｗｉｎｇｓ,,株式会社,兵庫県,姫路市,二階町１８番地４Ｆ,,28,201,6700922,,,,,,,2025-08-06,1,,,,,ウィングス,0
2529,9170001018743,新規,0,2025-08-06,2025-08-06,株式会社尾藤組,,株式会社,和歌山県,有田市,宮崎町１７８番地,,30,204,6490316,,,,,,,2025-08-06,1,,,,,ビトウグミ,0
2536,9180303006676,新規,0,2025-08-06,2025-08-06,合同会社ＦＯＵＲ　ＳＥＡＭ,,合同会社,愛知県,豊田市,岩倉町柿田１８番地１２,,23,211,4442225,,,,,,,2025-08-06,1,,,,,,0
2539,9190001032445,新規,0,2025-08-06,2025-08-06,株式会社ＤＲＥＡＭ　ＡＲＫ,,株式会社,三重県,熊野市,有馬町１８５６番地５,,24,212,5194325,,,,,,,2025-08-06,1,,,,,ドリームアーク,0
2543,9200003006940,新規,0,2025-08-06,2025-08-06,合同会社ｅｖａｎｇｅｌｉｓｔ,,合同会社,岐阜県,岐阜市,上尻毛八幡３０番地３,,21,201,5011149,,,,,,,2025-08-06,1,,,,,エヴァンジェリスト,0
2550,9240001065308,新規,0,2025-08-06,2025-08-06,株式会社Ｓｌａｃｋ,,株式会社,広島県,安芸郡海田町,窪町９番２２号,,34,304,7360046,,,,,,,2025-08-06,1,,,,,スラック,0
2552,9250001021284,新規,0,2025-08-06,2025-08-06,株式会社プロセス,,株式会社,山口県,下松市,潮音町１丁目１１番１９号シェラン２０３号,,35,207,7440074,,,,,,,2025-08-06,1,,,,,プロセス,0
2555,9270001009253,新規,0,2025-08-06,2025-08-06,株式会社永井ホールディングス,,株式会社,鳥取県,米子市,東福原１丁目２番２３号,,31,202,6830802,,,,,,,2025-08-06,1,,,,,ナガイホールディングス,0
2560,9290801031768,新規,0,2025-08-06,2025-08-06,株式会社ＴＲＡＣＥ,,株式会社,福岡県,北九州市八幡東区,荒生田３丁目５番５－１２０２号,,40,108,8050015,,,,,,,2025-08-06,1,,,,,トレース,0
2561,9290803005126,新規,0,2025-08-06,2025-08-06,合同会社ＴＨＯＭＡＳ,,合同会社,福岡県,直方市,大字植木１７１番地８１,,40,204,8220031,,,,,,,2025-08-06,1,,,,,トーマス,0
2562,9290805009851,新規,0,2025-08-06,2025-08-06,一般社団法人むすび,,その他の設立登記法人,福岡県,北九州市小倉北区,木町４丁目３番１０－２０１号,,40,106,8030851,,,,,,,2025-08-06,1,,,,,ムスビ,0
2566,9300001014308,新規,0,2025-08-06,2025-08-06,嬉野商事株式会社,,株式会社,佐賀県,嬉野市,塩田町五町田甲２９７９番地,,41,209,8430300,,,,,,,2025-08-06,1,,,,,ウレシノショウジ,0
2571,9330001033461,新規,0,2025-08-06,2025-08-06,株式会社Ｖｅｇｅｔａｒｙ,,株式会社,熊本県,上益城郡益城町,大字小谷１１９２番地１,,43,443,8612204,,,,,,,2025-08-06,1,,,,,ベジタリー,0
2576,9350003004995,新規,0,2025-08-06,2025-08-06,合同会社星楓木材,,合同会社,宮崎県,宮崎市,江南１丁目３０番６号,,45,201,8800944,,,,,,,2025-08-06,1,,,,,セイカモクザイ,0
2581,9370001052912,新規,0,2025-08-06,2025-08-06,総合食品今野株式会社,,株式会社,宮城県,多賀城市,伝上山３丁目１６番１号,,04,209,9850872,,,,,,,2025-08-06,1,,,,,ソウゴウショクヒンコンノ,0
2582,9370003007229,新規,0,2025-08-06,2025-08-06,ＹＭｅｄｉｃｓ合同会社,,合同会社,宮城県,仙台市泉区,南光台５丁目８番１６号,,04,105,9818003,,,,,,,2025-08-06,1,,,,,ワイメディクス,0
2586,9400001017127,新規,0,2025-08-06,2025-08-06,株式会社ＹＴメディカル,,株式会社,岩手県,紫波郡矢巾町,大字南矢幅第１１地割３４２番地,,03,322,0283615,,,,,,,2025-08-06,1,,,,,ワイティーメディカル,0
2587,9410001014247,新規,0,2025-08-06,2025-08-06,株式会社ブルーファーム,,株式会社,秋田県,横手市,平鹿町浅舞字蛭野３０３番地,,05,203,0130105,,,,,,,2025-08-06,1,,,,,ブルーファーム,0
2592,9460103001733,新規,0,2025-08-06,2025-08-06,ＴＡＫＥＤＡ　ＢＡＳＥ合同会社,,合同会社,北海道,帯広市,西十五条南３４丁目４番地７,,01,207,0800025,,,,,,,2025-08-06,1,,,,,タケダベース,0
2600,9490003002036,新規,0,2025-08-06,2025-08-06,合同会社つき,,合同会社,高知県,四万十市,古津賀１丁目１１４番地,,39,210,7870010,,,,,,,2025-08-06,1,,,,,ツキ,0
2605,9700150131680,新規,0,2025-08-06,2025-08-06,ＳＨＡＡＭ　ＴＲＡＤＩＮＧ　ＣＯＭＰＡＮＹ,,外国会社等,三重県,桑名郡木曽岬町,大字見入７２９－４２,,24,303,4980802,スリランカ民主社会主義共和国、コロンボ１１、３ｒｄクロスストリート、１ｓｔフロア、３２／Ｂ／２,,,,,,2025-08-06,1,,,,,シヤームトレーデイングカンパニー,0
