sequenceNumber,corporateNumber,process,correct,updateDate,changeDate,name,nameImageId,kind,prefectureName,cityName,streetNumber,addressImageId,prefectureCode,cityCode,postCode,addressOutside,addressOutsideImageId,closeDate,closeCause,successorCorporateNumber,changeCause,assignmentDate,latest,enName,enPrefectureName,enCityName,enAddressOutside,furigana,hihyoji
39,1011001129917,登記記録の閉鎖等,0,2025-02-12,2025-01-07,株式会社Ｂｒａｎｄｉｔ,,株式会社,東京都,渋谷区,神泉町９番５号,,13,113,1500045,,,2025-01-07,合併による解散等,2011001059337,令和７年１月１日東京都渋谷区恵比寿一丁目１９番１９号ＳｔｏｃｋＴｅｃｈ株式会社（2011001059337）に合併し解散,2019-09-11,1,,,,,ブランディット,0
61,1012701012981,登記記録の閉鎖等,0,2025-02-12,2025-02-06,株式会社ビートライン,,株式会社,東京都,小平市,学園西町１丁目１７番１－６１８号,,13,211,1870045,,,2025-02-06,清算の結了等,,,2015-10-05,1,,,,,ビートライン,0
84,1021001076233,登記記録の閉鎖等,0,2025-02-12,2025-02-06,株式会社フィル,,株式会社,神奈川県,茅ヶ崎市,円蔵１丁目２１番６０号ジェントル湘南２０１,,14,207,2530084,,,2025-02-06,清算の結了等,,,2022-06-16,1,,,,,フィル,0
97,1030003012864,登記記録の閉鎖等,0,2025-02-12,2025-02-05,合同会社ＨＡＮＡ,,合同会社,埼玉県,熊谷市,上之３１５２番地１９,,11,202,3600012,,,2025-02-05,清算の結了等,,,2018-12-28,1,,,,,ハナ,0
103,1040001083873,登記記録の閉鎖等,0,2025-02-12,2025-02-04,株式会社プロボノ,,株式会社,千葉県,千葉市花見川区,畑町１９７６番地３,,12,102,2620018,,,2025-02-04,清算の結了等,,,2015-10-05,1,,,,,プロボノ,0
109,1040003025196,登記記録の閉鎖等,0,2025-02-12,2025-02-05,合同会社インフィニティ,,合同会社,千葉県,印西市,大森４３２０,,12,231,2701327,,,2025-02-05,清算の結了等,,,2024-06-18,1,,,,,インフィニティ,0
119,1050002033554,登記記録の閉鎖等,0,2025-02-12,2025-02-03,有限会社友和商事,,有限会社,茨城県,取手市,椚木１０５２番地,,08,217,3001511,,,2025-02-03,清算の結了等,,,2015-10-05,1,,,,,ユウワショウジ,0
123,1080001024097,登記記録の閉鎖等,0,2025-02-12,2025-02-07,ＡＤＡＳＯ株式会社,,株式会社,静岡県,島田市,島１２２番地の１０,,22,209,4280007,,,2025-02-07,清算の結了等,,,2021-04-05,1,,,,,アダソー,0
126,1080003001805,登記記録の閉鎖等,0,2025-02-12,2025-02-07,合同会社零舗装,,合同会社,静岡県,藤枝市,音羽町３丁目７番１２号,,22,214,4260087,,,2025-02-07,清算の結了等,,,2015-10-05,1,,,,,ゼロホソウ,0
131,1100002004319,登記記録の閉鎖等,0,2025-02-12,2025-02-03,有限会社藤高産業,,有限会社,長野県,長野市,南屋島５１５番地,,20,201,3810000,,,2025-02-03,合併による解散等,9100001000600,令和７年２月１日長野市南屋島５１５番地株式会社角藤（9100001000600）に合併し解散,2015-10-05,1,,,,,トウコウサンギョウ,0
134,1120001042391,登記記録の閉鎖等,0,2025-02-12,2025-02-10,株式会社川田商店,,株式会社,大阪府,大阪市西区,南堀江２丁目５番１４－４０４号,,27,106,5500015,,,2025-02-10,清算の結了等,,,2015-10-05,1,,,,,カワタショウテン,0
143,1120002058008,登記記録の閉鎖等,0,2025-02-12,2025-02-06,有限会社活力経営研究所,,有限会社,三重県,津市,久居野村町３０６５番地１,,24,201,5141113,,,2025-02-06,清算の結了等,,,2015-10-05,1,,,,,カツリョクケイエイケンキュウショ,0
153,1130003007730,登記記録の閉鎖等,0,2025-02-12,2025-02-06,合同会社スコーピオ,,合同会社,京都府,京都市伏見区,竹田中川原町５０番１,,26,109,6128412,,,2025-02-06,合併による解散等,1180301038596,令和７年２月１日愛知県岡崎市大平町字天神前８番地１株式会社アース（1180301038596）に合併し解散,2022-02-02,1,,,,,スコーピオ,0
161,1140002061579,登記記録の閉鎖等,0,2025-02-12,2025-01-28,有限会社有延食鳥,,有限会社,兵庫県,多可郡多可町,中区茂利２０７番地の１,,28,365,6791134,,,2025-01-28,合併による解散等,1140001098647,令和７年１月２３日神戸市中央区八幡通四丁目１番１５号成樹ビル６０３号室ＡＲＩ株式会社（1140001098647）に合併し解散,2015-10-05,1,,,,,アリノベショクチョウ,0
168,1150002004900,登記記録の閉鎖等,0,2025-02-12,2025-02-10,有限会社オフィスＫＩＴＡ,,有限会社,奈良県,大和郡山市,本庄町１４４番地,,29,203,6391136,,,2025-02-10,清算の結了等,,,2015-10-05,1,,,,,オフィスキタ,0
170,1170001005807,登記記録の閉鎖等,0,2025-02-12,2025-02-10,株式会社メイワテック,,株式会社,和歌山県,海南市,高津４４３番地,,30,202,6400451,,,2025-02-10,清算の結了等,,,2015-10-05,1,,,,,メイワテック,0
174,1180002045215,登記記録の閉鎖等,0,2025-02-12,2025-01-31,有限会社ティ・エムシステム,,有限会社,愛知県,名古屋市中川区,法華西町２丁目１４番地,,23,110,4540937,,,2025-01-31,清算の結了等,,,2015-10-05,1,,,,,ティエムシステム,0
176,1180301030768,登記記録の閉鎖等,0,2025-02-12,2025-02-03,株式会社やくにたつもの，つくろう,,株式会社,愛知県,安城市,和泉町上之切１０８番地１,,23,212,4441221,,,2025-02-03,合併による解散等,9180301034076,令和７年２月１日愛知県安城市和泉町上之切１０８番地１株式会社八百芳商店（9180301034076）に合併し解散,2017-09-21,1,,,,,ヤクニタツモノツクロウ,0
178,1190001004419,登記記録の閉鎖等,0,2025-02-12,2025-02-05,七宝建設株式会社,,株式会社,三重県,尾鷲市,野地町１２番３１号,,24,209,5193617,,,2025-02-05,清算の結了等,,,2015-10-05,1,,,,,シッポウケンセツ,0
187,1230005006381,登記記録の閉鎖等,0,2025-02-12,2025-02-10,真行寺,,その他の設立登記法人,富山県,高岡市,二塚６９７番地,,16,202,9330816,,,2025-02-10,清算の結了等,,,2015-10-05,1,,,,,シンギョウジ,0
196,1290001041542,登記記録の閉鎖等,0,2025-02-12,2025-01-24,西日本大生株式会社,,株式会社,福岡県,春日市,桜ヶ丘６丁目６２番地,,40,218,8160872,,,2025-01-24,清算の結了等,,,2015-10-05,1,,,,,ニシニホンダイセイ,0
229,1460301004529,登記記録の閉鎖等,0,2025-02-12,2025-02-10,株式会社創信興業,,株式会社,北海道,北見市,花月町１１番地１８２,,01,208,0900066,,,2025-02-10,清算の結了等,,,2016-07-25,1,,,,,,0
232,1500001007661,登記記録の閉鎖等,0,2025-02-12,2025-02-03,オリオン薬品工業株式会社,,株式会社,愛媛県,大洲市,徳森１３４９番地１,,38,207,7950061,,,2025-02-03,合併による解散等,8500001008439,令和７年２月１日愛媛県八幡浜市松柏丙８３１番地丸三産業株式会社（8500001008439）に合併し解散,2015-10-05,1,,,,,オリオンヤクヒンコウギョウ,0
233,1500001016159,登記記録の閉鎖等,0,2025-02-12,2025-02-03,ＵＭＣＴ株式会社,,株式会社,愛媛県,西条市,ひうち３－４,,38,206,7930003,,,2025-02-03,合併による解散等,8500001008439,令和７年２月１日愛媛県八幡浜市松柏丙８３１番地丸三産業株式会社（8500001008439）に合併し解散,2015-10-05,1,,,,,ユーエムシーティー,0
237,2010001195745,登記記録の閉鎖等,0,2025-02-12,2025-01-27,エ・ティ・エス株式会社,,株式会社,東京都,中央区,入船１丁目９－８,,13,102,1040042,,,2025-01-27,清算の結了等,,,2018-10-25,1,,,,,エティエス,0
243,2010002028516,登記記録の閉鎖等,0,2025-02-12,2025-01-30,有限会社金龍商行,,有限会社,東京都,文京区,湯島２丁目３１番１７号,,13,105,1130034,,,2025-01-30,清算の結了等,,,2015-10-05,1,,,,,キンリュウショウコウ,0
250,2010005030304,登記記録の閉鎖等,0,2025-02-12,2025-02-04,一般社団法人ティグレホールディングス,,その他の設立登記法人,東京都,千代田区,丸の内１丁目４番１号東京共同会計事務所内,,13,101,1000005,,,2025-02-04,清算の結了等,,,2019-06-11,1,,,,,ティグレホールディングス,0
281,2010902009350,登記記録の閉鎖等,0,2025-02-12,2025-02-06,有限会社高澤商事,00052864,有限会社,東京都,世田谷区,池尻３丁目１５番１号,,13,112,1540001,,,2025-02-06,清算の結了等,,,2015-10-05,1,,,,,タカザワショウジ,0
327,2013202006233,登記記録の閉鎖等,0,2025-02-12,2025-01-16,有限会社ミュージック・プロスパー・アンリミテッド,,有限会社,東京都,目黒区,目黒本町２丁目１１番１１号,,13,110,1520002,,,2025-01-16,清算の結了等,,,2015-10-05,1,,,,,ミュージックプロスパーアンリミテッド,0
349,2020005010338,登記記録の閉鎖等,0,2025-02-12,2025-01-24,医療法人鹿浜会,,その他の設立登記法人,神奈川県,横浜市鶴見区,仲通１丁目５８番地７－１Ｆ,,14,101,2300042,,,2025-01-24,清算の結了等,,,2015-10-05,1,,,,,ロクヒンカイ,0
378,2040002054443,登記記録の閉鎖等,0,2025-02-12,2025-02-03,有限会社プラネッツ,,有限会社,千葉県,松戸市,根本１５１番地の２,,12,207,2710077,,,2025-02-03,清算の結了等,,,2015-10-05,1,,,,,プラネッツ,0
388,2050005010649,登記記録の閉鎖等,0,2025-02-12,2025-02-05,特定非営利活動法人かきのき,,その他の設立登記法人,茨城県,水戸市,田島町２９４番地,,08,201,3190301,,,2025-02-05,清算の結了等,,,2015-10-05,1,,,,,カキノキ,0
442,2150001015212,登記記録の閉鎖等,0,2025-02-12,2025-02-06,井上整骨院株式会社,,株式会社,奈良県,北葛城郡上牧町,桜ケ丘３丁目２９番１号,,29,424,6390202,,,2025-02-06,清算の結了等,,,2015-10-05,1,,,,,イノウエセイコツイン,0
445,2170005005876,登記記録の閉鎖等,0,2025-02-12,2025-02-10,特定非営利活動法人ＨＦＭ楽苦美ＧＴＯ,,その他の設立登記法人,和歌山県,田辺市,新庄町３１２８番地１２,,30,206,6460011,,,2025-02-10,清算の結了等,,,2015-10-05,1,,,,,エイチエフエムラククビジーティーオー,0
446,2180001001647,登記記録の閉鎖等,0,2025-02-12,2025-02-05,株式会社イムコ,,株式会社,愛知県,名古屋市名東区,平和が丘３丁目７５番１・２号,,23,115,4650097,,,2025-02-05,清算の結了等,,,2015-10-05,1,,,,,イムコ,0
456,2180003023813,登記記録の閉鎖等,0,2025-02-12,2025-02-05,合同会社ＦＲＵＯＲＥ,,合同会社,愛知県,名古屋市西区,名駅２丁目３４番１７号セントラル名古屋１１０１号,,23,104,4510045,,,2025-02-05,清算の結了等,,,2022-05-10,1,,,,,フルオーレ,0
460,2190002021610,登記記録の閉鎖等,0,2025-02-12,2025-02-07,有限会社日置機器サービス,,有限会社,三重県,四日市市,八千代台１丁目１番地３０,,24,202,5128047,,,2025-02-07,清算の結了等,,,2015-10-05,1,,,,,ヒオキキキサービス,0
462,2200002028595,登記記録の閉鎖等,0,2025-02-12,2025-02-07,有限会社アロエ薬品,,有限会社,岐阜県,下呂市,萩原町尾崎２４０番地の５,,21,220,5092508,,,2025-02-07,清算の結了等,,,2025-01-06,1,,,,,アロエヤクヒン,0
464,2210001001255,登記記録の閉鎖等,0,2025-02-12,2025-02-07,コトブキ水産株式会社,,株式会社,福井県,福井市,大和田１丁目１０１番地,,18,201,9100836,,,2025-02-07,清算の結了等,,,2015-10-05,1,,,,,コトブキスイサン,0
498,2320202000284,登記記録の閉鎖等,0,2025-02-12,2025-02-07,有限会社シーフード,,有限会社,大分県,臼杵市,大字臼杵２の３３５番地,,44,206,8750041,,,2025-02-07,清算の結了等,,,2015-10-05,1,,,,,,0
499,2330001015672,登記記録の閉鎖等,0,2025-02-12,2025-02-03,株式会社サンシー,,株式会社,熊本県,天草市,牛深町３３５６番地２６,,43,215,8631901,,,2025-02-03,清算の結了等,,,2015-10-05,1,,,,,サンシー,0
502,2330003002231,登記記録の閉鎖等,0,2025-02-12,2025-02-04,合資会社熊本第一犬舎,,合資会社,熊本県,熊本市北区,植木町富応１３０９番地,,43,105,8610162,,,2025-02-04,清算の結了等,,,2015-10-05,1,,,,,クマモトダイイチケンシャ,0
504,2350002017501,登記記録の閉鎖等,0,2025-02-12,2025-02-06,有限会社野辺茶園,,有限会社,宮崎県,串間市,大字串間２３７３番地,,45,207,8880004,,,2025-02-06,清算の結了等,,,2015-10-05,1,,,,,ノベチャエン,0
547,3010003036327,登記記録の閉鎖等,0,2025-02-12,2025-02-03,合同会社Ｐｌａｔｕ,,合同会社,東京都,中央区,銀座１丁目６番１１号土志田ビルディング３Ｆ,,13,102,1040061,,,2025-02-03,清算の結了等,,,2021-11-17,1,,,,,プラトウ,0
550,3010401020741,登記記録の閉鎖等,0,2025-02-12,2025-01-17,株式会社東京インテリア,,株式会社,東京都,港区,六本木６丁目１２番２号,,13,103,1060032,,,2025-01-17,清算の結了等,,,2015-10-05,1,,,,,トウキョウインテリア,0
563,3010403021663,登記記録の閉鎖等,0,2025-02-12,2025-01-17,合同会社マーズ,,合同会社,東京都,港区,虎ノ門３丁目２２番１０－２０１号,,13,103,1050001,,,2025-01-17,清算の結了等,,,2019-10-24,1,,,,,マーズ,0
597,3011201015493,登記記録の閉鎖等,0,2025-02-12,2025-02-10,株式会社ＥＲセイフティ,,株式会社,東京都,中野区,南台２丁目３２番４号,,13,114,1640014,,,2025-02-10,清算の結了等,,,2015-10-05,1,,,,,イーアールセイフティ,0
613,3012702007392,登記記録の閉鎖等,0,2025-02-12,2025-02-06,宮崎運送有限会社,,有限会社,東京都,東久留米市,柳窪４丁目４番１２号,,13,222,2030044,,,2025-02-06,清算の結了等,,,2015-10-05,1,,,,,,0
626,3020003021237,登記記録の閉鎖等,0,2025-02-12,2025-01-27,合同会社伊藤工業,,合同会社,神奈川県,横浜市南区,永田東２丁目３０番２９号,,14,105,2320072,,,2025-01-27,清算の結了等,,,2022-02-02,1,,,,,イトウコウギョウ,0
632,3021001013515,登記記録の閉鎖等,0,2025-02-12,2025-02-03,株式会社西野ビル,,株式会社,神奈川県,相模原市中央区,横山２丁目１６番４号,,14,152,2520242,,,2025-02-03,合併による解散等,4021001013514,令和７年２月１日神奈川県相模原市中央区星が丘四丁目１番１９号西野建設株式会社（4021001013514）に合併し解散,2015-10-05,1,,,,,ニシノビル,0
648,3030003007739,登記記録の閉鎖等,0,2025-02-12,2025-02-05,合同会社ＮＰ　ＭＡＲＴ,,合同会社,埼玉県,越谷市,大字大里７６０番地１,,11,222,3430031,,,2025-02-05,清算の結了等,,,2015-10-05,1,,,,,エヌピーマート,0
674,3080101020960,登記記録の閉鎖等,0,2025-02-12,2025-02-07,株式会社イエル,,株式会社,静岡県,熱海市,上多賀６８６番地,,22,205,4130101,,,2025-02-07,合併による解散等,6080101012765,令和７年２月１日静岡県熱海市上多賀６８６番地株式会社ＴＴＣ（6080101012765）に合併し解散,2019-02-20,1,,,,,イエル,0
675,3080102012585,登記記録の閉鎖等,0,2025-02-12,2025-02-06,有限会社アイコーポレーション,,有限会社,静岡県,駿東郡清水町,柿田１４８番地の１,,22,341,4110904,,,2025-02-06,清算の結了等,,,2015-10-05,1,,,,,アイコーポレーション,0
698,3120901045723,登記記録の閉鎖等,0,2025-02-12,2025-02-05,株式会社Ｃｈｕｍ,,株式会社,大阪府,吹田市,千里丘下２０番１６号,,27,205,5650813,,,2025-02-05,合併による解散等,2120901038760,令和７年１月３１日大阪市北区堂島二丁目２番２号株式会社セッツカンパニー（2120901038760）に合併し解散,2022-03-17,1,,,,,チャム,0
724,3170002009986,登記記録の閉鎖等,0,2025-02-12,2025-02-07,有限会社芝サッシ店,,有限会社,和歌山県,田辺市,本宮町本宮４７１番地の８,,30,206,6471731,,,2025-02-07,清算の結了等,,,2015-10-05,1,,,,,シバサッシテン,0
727,3180001086877,登記記録の閉鎖等,0,2025-02-12,2025-02-04,株式会社いのこプロモーション,,株式会社,愛知県,一宮市,大江３丁目１番２１号,,23,203,4910851,,,2025-02-04,清算の結了等,,,2015-10-05,1,,,,,イノコプロモーション,0
750,3240002033302,登記記録の閉鎖等,0,2025-02-12,2025-02-07,有限会社高岡鉄工所,00001115,有限会社,広島県,呉市,広文化町１１番７号,,34,202,7370114,,,2025-02-07,清算の結了等,,,2015-10-05,1,,,,,タカオカテッコウショ,0
755,3260001017535,登記記録の閉鎖等,0,2025-02-12,2025-02-10,株式会社ＴＡＣＧ,,株式会社,岡山県,倉敷市,浜町２丁目７番２０号,,33,202,7100062,,,2025-02-10,清算の結了等,,,2015-10-05,1,,,,,ティーエーシージー,0
757,3260003003434,登記記録の閉鎖等,0,2025-02-12,2025-02-04,合同会社日成,,合同会社,岡山県,津山市,昭和町２丁目６番地５,,33,203,7080886,,,2025-02-04,清算の結了等,,,2021-01-29,1,,,,,ニッセイ,0
760,3290001056241,登記記録の閉鎖等,0,2025-02-12,2025-01-22,ふたばフーズ株式会社,,株式会社,福岡県,福岡市東区,大字上和白１３３６番地１の１,,40,131,8110216,,,2025-01-22,清算の結了等,,,2015-10-05,1,,,,,,0
775,3320002006786,登記記録の閉鎖等,0,2025-02-12,2025-02-07,有限会社むらかみ,,有限会社,大分県,大分市,国分新町３７番１号,,44,201,8700869,,,2025-02-07,清算の結了等,,,2015-10-05,1,,,,,,0
812,3500001010770,登記記録の閉鎖等,0,2025-02-12,2025-02-03,株式会社ＭＣＴ西条,,株式会社,愛媛県,西条市,ひうち字西ひうち３番地４,,38,206,7930003,,,2025-02-03,合併による解散等,8500001008439,令和７年２月１日愛媛県八幡浜市松柏丙８３１番地丸三産業株式会社（8500001008439）に合併し解散,2015-10-05,1,,,,,エムシーティーサイジョウ,0
829,4010002001231,登記記録の閉鎖等,0,2025-02-12,2025-02-04,有限会社オオタスケート,,有限会社,千葉県,松戸市,新松戸６丁目６９番地サンライトパストラル弐番街Ｂ－５１０,,12,207,2700034,,,2025-02-04,清算の結了等,,,2015-10-05,1,,,,,オオタスケート,0
830,4010003037828,登記記録の閉鎖等,0,2025-02-12,2025-02-03,合同会社オルタナ１３,,合同会社,東京都,千代田区,丸の内１丁目４番１号東京共同会計事務所内,,13,101,1000005,,,2025-02-03,清算の結了等,,,2022-06-09,1,,,,,オルタナサーティーン,0
837,4010403023964,登記記録の閉鎖等,0,2025-02-12,2025-01-20,合同会社ベンチャーエムエルＥ,,合同会社,東京都,港区,虎ノ門３丁目２２番１０－２０１号,,13,103,1050001,,,2025-01-20,清算の結了等,,,2020-10-22,1,,,,,ベンチャーエムエルイー,0
845,4010502010401,登記記録の閉鎖等,0,2025-02-12,2025-01-31,株式会社丸和商店,,株式会社,東京都,文京区,湯島１丁目１０番５号,,13,105,1130034,,,2025-01-31,清算の結了等,,,2015-10-05,1,,,,,マルワショウテン,0
849,4010701046832,登記記録の閉鎖等,0,2025-02-12,2025-02-06,株式会社３９９ｄｏ,,株式会社,東京都,品川区,上大崎１丁目２１番１パークアクシス白金台南１１０２,,13,109,1410021,,,2025-02-06,合併による解散等,6011101109582,令和７年１月１５日東京都新宿区若宮町１３番地１ｋｉｆａｎｎｅｘ１Ｆ株式会社ヨンヒャクド（6011101109582）に合併し解散,2024-11-15,1,,,,,サンビャクキュウジュウキュウド,0
851,4010801000326,登記記録の閉鎖等,0,2025-02-12,2025-01-31,株式会社アカサカデザインハウス,,株式会社,東京都,大田区,西蒲田８丁目１３番７号,,13,111,1440051,,,2025-01-31,清算の結了等,,,2015-10-05,1,,,,,アカサカデザインハウス,0
895,4021001023620,登記記録の閉鎖等,0,2025-02-12,2025-02-10,株式会社ユーキ,,株式会社,神奈川県,厚木市,金田６６４番地２,,14,212,2430807,,,2025-02-10,清算の結了等,,,2015-10-05,1,,,,,ユーキ,0
897,4021001055408,登記記録の閉鎖等,0,2025-02-12,2025-02-05,アイグリーン株式会社,,株式会社,神奈川県,相模原市緑区,二本松３丁目８番２８号,,14,151,2520137,,,2025-02-05,清算の結了等,,,2015-10-05,1,,,,,アイグリーン,0
901,4030001043891,登記記録の閉鎖等,0,2025-02-12,2025-01-17,株式会社ＫＡＩＫＥＴＳＵ,,株式会社,東京都,港区,虎ノ門２丁目６番１号虎ノ門ヒルズステーションタワー３６階,,13,103,1050001,,,2025-01-17,清算の結了等,,,2015-10-05,1,,,,,カイケツ,0
913,4040001059227,登記記録の閉鎖等,0,2025-02-12,2025-02-04,正文建設株式会社,,株式会社,千葉県,茂原市,茂原１１３０番地１,,12,210,2970026,,,2025-02-04,清算の結了等,,,2015-10-05,1,,,,,ショウブンケンセツ,0
934,4070002020424,登記記録の閉鎖等,0,2025-02-12,2025-02-10,有限会社佐波給食センター,,有限会社,群馬県,伊勢崎市,境上渕名１００８番地,,10,204,3700102,,,2025-02-10,清算の結了等,,,2015-10-05,1,,,,,,0
939,4090001016487,登記記録の閉鎖等,0,2025-02-12,2025-02-04,株式会社和建富士,,株式会社,山梨県,南都留郡富士河口湖町,船津６０８８－１０１号室,,19,430,4010301,,,2025-02-04,清算の結了等,,,2020-04-22,1,,,,,ワケンフジ,0
945,4110001013696,登記記録の閉鎖等,0,2025-02-12,2025-02-04,株式会社Ｆ－ｓｔｙｌｅ,,株式会社,石川県,金沢市,久安４丁目４０４番地,,17,201,9218164,,,2025-02-04,清算の結了等,,,2015-10-05,1,,,,,エススタイル,0
985,4140001072855,登記記録の閉鎖等,0,2025-02-12,2025-01-31,セントハウス株式会社,,株式会社,兵庫県,西宮市,山口町下山口３丁目２番３号,,28,204,6511412,,,2025-01-31,清算の結了等,,,2015-10-05,1,,,,,セントハウス,0
1001,4180002028373,登記記録の閉鎖等,0,2025-02-12,2025-02-04,有限会社てんだあ亭,,有限会社,愛知県,名古屋市中村区,長筬町２丁目１２番地,,23,105,4530839,,,2025-02-04,清算の結了等,,,2015-10-05,1,,,,,テンダアテイ,0
1021,4260001020273,登記記録の閉鎖等,0,2025-02-12,2025-02-03,株式会社三宅商店,,株式会社,岡山県,津山市,一方４２０番地,,33,203,7080883,,,2025-02-03,合併による解散等,8260002029541,令和７年２月１日岡山県津山市京町２４番地三宅不動産株式会社（8260002029541）に合併し解散,2015-10-05,1,,,,,ミヤケショウテン,0
1026,4290001035137,登記記録の閉鎖等,0,2025-02-12,2025-01-21,株式会社マックスゲイナーズ,,株式会社,福岡県,福岡市中央区,大名１丁目８番２０号大名クリエイトビル８Ｆ,,40,133,8100041,,,2025-01-21,清算の結了等,,,2015-10-05,1,,,,,マックスゲイナーズ,0
1028,4290001076230,登記記録の閉鎖等,0,2025-02-12,2025-01-22,株式会社ｉａｎ,,株式会社,福岡県,福岡市中央区,薬院２丁目１７番３０号,,40,133,8100022,,,2025-01-22,清算の結了等,,,2016-12-27,1,,,,,,0
1040,4290801022482,登記記録の閉鎖等,0,2025-02-12,2025-01-22,ひかり建設株式会社,,株式会社,福岡県,福岡市中央区,赤坂１丁目１４番２２号８階,,40,133,8100042,,,2025-01-22,清算の結了等,,,2016-05-02,1,,,,,ヒカリケンセツ,0
1052,4390002005343,登記記録の閉鎖等,0,2025-02-12,2025-02-03,有限会社カワグチビル,,有限会社,山形県,天童市,糠塚２丁目２番１号,,06,210,9940014,,,2025-02-03,合併による解散等,2390002005411,令和７年２月１日山形県天童市糠塚二丁目２番１号株式会社弘栄不動産（2390002005411）に合併し解散,2015-10-05,1,,,,,カワグチビル,0
1053,4400002011686,登記記録の閉鎖等,0,2025-02-12,2025-01-30,有限会社タカハシ瓦工業,,有限会社,岩手県,釜石市,甲子町第１０地割４８番地４,,03,211,0260055,,,2025-01-30,清算の結了等,,,2015-10-05,1,,,,,タカハシカワラコウギョウ,0
1063,4470002005541,登記記録の閉鎖等,0,2025-02-12,2025-02-07,有限会社林電化センター,,有限会社,香川県,高松市,伏石町１３１５番地３,,37,201,7618071,,,2025-02-07,清算の結了等,,,2015-10-05,1,,,,,,0
1066,4480002007132,登記記録の閉鎖等,0,2025-02-12,2025-02-07,有限会社フレンドリーネットワークサービス,,有限会社,徳島県,徳島市,万代町６丁目４１番４,,36,201,7700941,,,2025-02-07,清算の結了等,,,2015-10-05,1,,,,,フレンドリーネットワークサービス,0
1071,5010001005694,登記記録の閉鎖等,0,2025-02-12,2025-01-31,中川化学サービス株式会社,,株式会社,東京都,文京区,目白台２丁目１３番１号,,13,105,1120015,,,2025-01-31,清算の結了等,,,2015-10-05,1,,,,,ナカガワカガクサービス,0
1072,5010001119081,登記記録の閉鎖等,0,2025-02-12,2025-01-31,株式会社日の丸無線,,株式会社,東京都,千代田区,外神田１丁目１４番２号,,13,101,1010021,,,2025-01-31,清算の結了等,,,2015-10-05,1,,,,,ヒノマルムセン,0
1085,5010005023016,登記記録の閉鎖等,0,2025-02-12,2025-02-04,一般社団法人日本マヤ暦セラピスト協会,,その他の設立登記法人,東京都,新宿区,津久戸町１番１号,,13,104,1620821,,,2025-02-04,合併による解散等,2011105010030,令和７年２月１日東京都新宿区新宿七丁目１２番１号新宿平和ビル１階一般社団法人日本マヤ暦セラピスト協会（2011105010030）に合併し解散,2015-10-05,1,,,,,ニホンマヤレキセラピストキョウカイ,0
1088,5010101000827,登記記録の閉鎖等,0,2025-02-12,2025-02-07,株式会社加藤工務店,,株式会社,東京都,八王子市,中山８０番地,,13,201,1920374,,,2025-02-07,清算の結了等,,,2015-10-05,1,,,,,カトウコウムテン,0
1114,5010901013986,登記記録の閉鎖等,0,2025-02-12,2025-01-23,株式会社栄光舎,,株式会社,東京都,世田谷区,赤堤１丁目２１番１号,,13,112,1560044,,,2025-01-23,清算の結了等,,,2015-10-05,1,,,,,エイコウシャ,0
1118,5011001005008,登記記録の閉鎖等,0,2025-02-12,2025-01-20,株式会社オスカー音楽出版,,株式会社,東京都,港区,赤坂４丁目１５番１号赤坂ガーデンシティ１６階,,13,103,1070052,,,2025-01-20,清算の結了等,,,2015-10-05,1,,,,,オスカーオンガクシュッパン,0
1134,5011005010053,登記記録の閉鎖等,0,2025-02-12,2025-01-20,一般社団法人蘇州大学日本事務所,,その他の設立登記法人,東京都,渋谷区,千駄ヶ谷３丁目１３番２２号,,13,113,1510051,,,2025-01-20,清算の結了等,,,2023-05-15,1,,,,,ソシュウダイガクニホンジムショ,0
1147,5011403003393,登記記録の閉鎖等,0,2025-02-12,2025-02-04,被災調査センター合同会社,,合同会社,東京都,板橋区,仲町３９番７号レシャンブルヴァレ３０３,,13,119,1730022,,,2025-02-04,清算の結了等,,,2021-07-28,1,,,,,ヒサイチョウサセンター,0
1156,5012801019782,登記記録の閉鎖等,0,2025-02-12,2025-01-29,株式会社リベルテ,,株式会社,東京都,日野市,大字川辺堀之内５１４番地の７,,13,212,1910015,,,2025-01-29,清算の結了等,,,2019-11-27,1,,,,,リベルテ,0
1166,5020001078847,登記記録の閉鎖等,0,2025-02-12,2025-02-05,株式会社ケイ・ミラクル,,株式会社,東京都,世田谷区,松原３丁目３０番１０号２階,,13,112,1560043,,,2025-02-05,清算の結了等,,,2015-10-05,1,,,,,ケイミラクル,0
1173,5020002027803,登記記録の閉鎖等,0,2025-02-12,2025-01-27,有限会社さいはひ,,有限会社,神奈川県,横浜市神奈川区,大口通５７番地の１,,14,102,2210002,,,2025-01-27,清算の結了等,,,2015-10-05,1,,,,,サイハヒ,0
1185,5030002019353,登記記録の閉鎖等,0,2025-02-12,2025-02-07,有限会社ラザリス,,有限会社,埼玉県,さいたま市南区,鹿手袋４丁目１５番５号,,11,108,3360031,,,2025-02-07,清算の結了等,,,2015-10-05,1,,,,,ラザリス,0
1186,5030002025368,登記記録の閉鎖等,0,2025-02-12,2025-02-04,有限会社ミワインテリア,,有限会社,埼玉県,戸田市,笹目４丁目５番地の２０,,11,224,3350034,,,2025-02-04,清算の結了等,,,2015-10-05,1,,,,,ミワインテリア,0
1187,5030002081551,登記記録の閉鎖等,0,2025-02-12,2025-02-06,有限会社フロンティア,,有限会社,埼玉県,本庄市,仁手１１２４番地１,,11,211,3670002,,,2025-02-06,清算の結了等,,,2015-10-05,1,,,,,フロンティア,0
1200,5040003025713,登記記録の閉鎖等,0,2025-02-12,2025-02-04,Ｚ・Ｙ合同会社,,合同会社,千葉県,市川市,市川南２丁目９番３２－２０３号,,12,203,2720033,,,2025-02-04,清算の結了等,,,2024-09-02,1,,,,,ズィーワイ,0
1218,5080003002915,登記記録の閉鎖等,0,2025-02-12,2025-02-04,Ｉｓｏｋｏｍａ　Ｂｅａｕｔｙ　ＪＡＰＡＮ合同会社,,合同会社,静岡県,静岡市駿河区,丸子６丁目６番３３号,,22,102,4210103,,,2025-02-04,清算の結了等,,,2022-12-22,1,,,,,イソコマビューティージャパン,0
1230,5110002014791,登記記録の閉鎖等,0,2025-02-12,2025-02-05,有限会社天尾興業,,有限会社,新潟県,北蒲原郡聖籠町,大字藤寄３２０番地,,15,307,9570127,,,2025-02-05,清算の結了等,,,2015-10-05,1,,,,,アマオコウギョウ,0
1268,5180002068765,登記記録の閉鎖等,0,2025-02-12,2025-02-06,有限会社オネスト工機,,有限会社,愛知県,小牧市,光ケ丘３丁目３９番地の５,,23,219,4850811,,,2025-02-06,清算の結了等,,,2015-10-05,1,,,,,オネストコウキ,0
1274,5190003003704,登記記録の閉鎖等,0,2025-02-12,2025-02-05,合同会社ｍｏｊｉｃｃａ,,合同会社,三重県,いなべ市,北勢町阿下喜１９８０番地,,24,214,5110428,,,2025-02-05,清算の結了等,,,2021-06-17,1,,,,,モジッカ,0
1278,5240005007573,登記記録の閉鎖等,0,2025-02-12,2025-02-06,広島県織染工業協同組合,,その他の設立登記法人,広島県,福山市,一文字町６番１号,,34,207,7210953,,,2025-02-06,清算の結了等,,,2015-10-05,1,,,,,ヒロシマケンオリセンコウギョウ,0
1285,5290001051133,登記記録の閉鎖等,0,2025-02-12,2025-01-23,株式会社レイヤード企画,,株式会社,福岡県,八女郡広川町,大字藤田１４０８番地１０,,40,544,8340123,,,2025-01-23,清算の結了等,,,2015-10-05,1,,,,,レイヤードキカク,0
1305,5400001002108,登記記録の閉鎖等,0,2025-02-12,2025-01-31,モリーオ株式会社,,株式会社,岩手県,盛岡市,中央通２丁目１１番１２号明治中央通ビル,,03,201,0200021,,,2025-01-31,清算の結了等,,,2015-10-05,1,,,,,モリーオ,0
1320,5500001002452,登記記録の閉鎖等,0,2025-02-12,2025-02-07,株式会社ファースト,,株式会社,愛媛県,松山市,森松町８１８番地１,,38,201,7911113,,,2025-02-07,清算の結了等,,,2015-10-05,1,,,,,ファースト,0
1327,6010001150283,登記記録の閉鎖等,0,2025-02-12,2025-01-31,アンクル株式会社,,株式会社,東京都,中央区,日本橋蛎殻町１丁目３０番１０号,,13,102,1030014,,,2025-01-31,清算の結了等,,,2015-10-05,1,,,,,アンクル,0
1355,6010901032416,登記記録の閉鎖等,0,2025-02-12,2025-02-05,株式会社ウィルフ,,株式会社,東京都,渋谷区,南平台町１５番１１号南平台野坂ビル２階,,13,113,1500036,,,2025-02-05,合併による解散等,6010001197993,令和７年１月１日東京都千代田区丸の内一丁目４番１号丸の内永楽ビルディング２６階株式会社アントレ（6010001197993）に合併し解散,2015-10-05,1,,,,,ウィルフ,0
1387,6011502015693,登記記録の閉鎖等,0,2025-02-12,2025-02-05,有限会社デコム,,有限会社,東京都,北区,中里２丁目５番５号,,13,117,1140015,,,2025-02-05,清算の結了等,,,2015-10-05,1,,,,,,0
1392,6012402004563,登記記録の閉鎖等,0,2025-02-12,2025-02-10,有限会社内田塗装,,有限会社,東京都,小金井市,中町３丁目２３番５号,,13,210,1840012,,,2025-02-10,清算の結了等,,,2015-10-05,1,,,,,ウチダトソウ,0
1397,6013202013960,登記記録の閉鎖等,0,2025-02-12,2025-01-31,春日産業有限会社,,有限会社,東京都,千代田区,霞が関３丁目２番５号,,13,101,1000013,,,2025-01-31,清算の結了等,,,2015-10-05,1,,,,,カスガサンギョウ,0
1414,6021001046009,登記記録の閉鎖等,0,2025-02-12,2025-02-07,株式会社ケンオーテック,,株式会社,神奈川県,大和市,桜森１丁目９番９－７号,,14,213,2420028,,,2025-02-07,清算の結了等,,,2015-10-05,1,,,,,ケンオーテック,0
1417,6030001012754,登記記録の閉鎖等,0,2025-02-12,2025-01-28,株式会社オールマイティ,,株式会社,千葉県,市川市,新田４丁目１６番１号,,12,203,2720035,,,2025-01-28,清算の結了等,,,2015-10-05,1,,,,,オールマイティ,0
1423,6030002088208,登記記録の閉鎖等,0,2025-02-12,2025-02-05,有限会社宮本塗装店,,有限会社,埼玉県,越谷市,大間野町４丁目３８番地,,11,222,3430844,,,2025-02-05,清算の結了等,,,2015-10-05,1,,,,,ミヤモトトソウテン,0
1427,6040001004222,登記記録の閉鎖等,0,2025-02-12,2025-02-06,株式会社ダイワホーム,,株式会社,千葉県,千葉市稲毛区,小仲台３丁目１７番２号,,12,103,2630043,,,2025-02-06,清算の結了等,,,2015-10-05,1,,,,,ダイワホーム,0
1433,6040001129845,登記記録の閉鎖等,0,2025-02-12,2025-01-20,株式会社ＢａｍｂｏｏＧＴ,,株式会社,東京都,港区,麻布十番１丁目８番１１号,,13,103,1060045,,,2025-01-20,清算の結了等,,,2023-08-30,1,,,,,バンブージーティー,0
1438,6040002017446,登記記録の閉鎖等,0,2025-02-12,2025-02-04,有限会社東栄ユニット,,有限会社,千葉県,千葉市若葉区,金親町１００２番地の１６,,12,104,2640001,,,2025-02-04,清算の結了等,,,2015-10-05,1,,,,,トウエイユニット,0
1439,6040002091656,登記記録の閉鎖等,0,2025-02-12,2025-02-05,有限会社松島,,有限会社,千葉県,柏市,旭町１丁目４番１７号,,12,217,2770852,,,2025-02-05,清算の結了等,,,2015-10-05,1,,,,,マツシマ,0
1470,6100003007324,登記記録の閉鎖等,0,2025-02-12,2025-02-06,合同会社アンタレス,,合同会社,長野県,長野市,大字鶴賀緑町１６１８番地１,,20,201,3800813,,,2025-02-06,合併による解散等,1180301038596,令和７年２月１日愛知県岡崎市大平町字天神前８番地１株式会社アース（1180301038596）に合併し解散,2023-12-28,1,,,,,アンタレス,0
1509,6140001103220,登記記録の閉鎖等,0,2025-02-12,2025-02-05,株式会社ミウラ総合企画プランニング,,株式会社,兵庫県,川西市,平野１丁目２６番１３号,,28,217,6660121,,,2025-02-05,清算の結了等,,,2016-08-26,1,,,,,ミウラソウゴウキカクプランニング,0
1529,6180003011211,登記記録の閉鎖等,0,2025-02-12,2025-02-05,合資会社大橋米穀,,合資会社,愛知県,犬山市,大字犬山字南古券１６５番地,,23,215,4840084,,,2025-02-05,清算の結了等,,,2015-10-05,1,,,,,オオハシベイコク,0
1531,6180003018363,登記記録の閉鎖等,0,2025-02-12,2025-02-05,合同会社Ａｌｐｈａｂｅｔ,,合同会社,愛知県,名古屋市北区,杉村１丁目１２番６号ＰＬＡＮ　ＤＯＯＬ尼ケ坂５０１号,,23,103,4620835,,,2025-02-05,清算の結了等,,,2017-10-20,1,,,,,アルファベット,0
1540,6220003002684,登記記録の閉鎖等,0,2025-02-12,2025-02-03,アセットファイナンスとなみ合同会社,,合同会社,石川県,金沢市,新神田５丁目５番地,,17,201,9218013,,,2025-02-03,清算の結了等,,,2019-10-24,1,,,,,アセットファイナンストナミ,0
1547,6290001079834,登記記録の閉鎖等,0,2025-02-12,2025-01-22,株式会社西川技建,,株式会社,福岡県,福岡市博多区,那珂５丁目４－５－３０６,,40,132,8120893,,,2025-01-22,清算の結了等,,,2017-12-07,1,,,,,,0
1554,6290002003941,登記記録の閉鎖等,0,2025-02-12,2025-01-24,有限会社ユニバーサル・ジョイント,,有限会社,福岡県,福岡市南区,西長住１丁目３番１５号,,40,134,8111361,,,2025-01-24,清算の結了等,,,2015-10-05,1,,,,,ユニバーサルジョイント,0
1555,6290003008295,登記記録の閉鎖等,0,2025-02-12,2025-01-24,フロンティア合同会社,,合同会社,福岡県,宗像市,ひかりヶ丘５丁目１２番地６,,40,220,8113403,,,2025-01-24,清算の結了等,,,2018-08-10,1,,,,,フロンティア,0
1563,6330001028836,登記記録の閉鎖等,0,2025-02-12,2025-02-03,株式会社ｏｎｅｒｏｏｍ,,株式会社,大阪府,岸和田市,岸野町５番１２号,,27,202,5960051,,,2025-02-03,合併による解散等,2120101062520,令和７年２月１日大阪府泉佐野市日根野４３４１－９株式会社ＣＯＣＯＳ（2120101062520）に合併し解散,2021-07-26,1,,,,,ワンルーム,0
1566,6340002024924,登記記録の閉鎖等,0,2025-02-12,2025-02-07,有限会社植木鉢の小正,,有限会社,鹿児島県,鹿屋市,寿４丁目１４番２２号,,46,203,8930014,,,2025-02-07,清算の結了等,,,2015-10-05,1,,,,,ウエキバチノコマサ,0
1576,6370301002735,登記記録の閉鎖等,0,2025-02-12,2025-02-03,タカワ株式会社,,株式会社,宮城県,石巻市,蛇田字下谷地２２番地１４,,04,202,9860861,,,2025-02-03,合併による解散等,4370301003306,令和７年２月１日宮城県石巻市北村字大尻三３番地の１株式会社向陽ホールディングス（4370301003306）に合併し解散,2015-10-05,1,,,,,タカワ,0
1580,6380001022108,登記記録の閉鎖等,0,2025-02-12,2025-02-05,株式会社アイエスエフネットライフいわき,,株式会社,福島県,いわき市,平字大町７番地１,,07,204,9708026,,,2025-02-05,合併による解散等,6010401052047,令和６年１２月２８日東京都港区赤坂七丁目１番１６号株式会社アイエスエフネット（6010401052047）に合併し解散,2015-10-05,1,,,,,,0
1581,6390005009050,登記記録の閉鎖等,0,2025-02-12,2025-02-05,協同組合ボーナブル,,その他の設立登記法人,山形県,山形市,大字成安１６７５番地,,06,201,9900891,,,2025-02-05,清算の結了等,,,2024-01-18,1,,,,,ボーナブル,0
1584,6410001007823,登記記録の閉鎖等,0,2025-02-12,2025-02-10,株式会社ｅワークス,,株式会社,東京都,中野区,東中野５丁目１１番８号Ｂ１,,13,114,1640003,,,2025-02-10,清算の結了等,,,2015-10-05,1,,,,,イーワークス,0
1597,6700150069073,登記記録の閉鎖等,0,2025-02-12,2021-11-02,日立国際電気企業年金基金,,その他,東京都,小平市,御幸町３２,,13,211,1870012,,,2021-11-02,その他の清算の結了等,,,2016-01-12,1,,,,,ヒタチコクサイデンキキギョウネンキンキキン,0
1599,7010001022688,登記記録の閉鎖等,0,2025-02-12,2025-01-29,株式会社中文創業,,株式会社,東京都,千代田区,神田三崎町３丁目１０番１５号富士ビル,,13,101,1010061,,,2025-01-29,清算の結了等,,,2015-10-05,1,,,,,チュウブンソウギョウ,0
1601,7010001043271,登記記録の閉鎖等,0,2025-02-12,2025-01-31,興亜ビジネス株式会社,,株式会社,東京都,中央区,晴海２丁目３番２－４８０４号,,13,102,1040053,,,2025-01-31,清算の結了等,,,2015-10-05,1,,,,,コウアビジネス,0
1624,7010401164048,登記記録の閉鎖等,0,2025-02-12,2025-01-17,株式会社東京スペースマーケット,,株式会社,東京都,港区,東麻布１丁目７番５号シティハウス東麻布８０２,,13,103,1060044,,,2025-01-17,清算の結了等,,,2021-11-30,1,,,,,トウキョウスペースマーケット,0
1682,7020001118493,登記記録の閉鎖等,0,2025-02-12,2025-01-27,テクトニック都市・建築研究所株式会社,,株式会社,神奈川県,横浜市磯子区,森６丁目１６番３－３０４号,,14,107,2350023,,,2025-01-27,清算の結了等,,,2016-11-07,1,,,,,テクトニックトシケンチクケンキュウジョ,0
1688,7020002096037,登記記録の閉鎖等,0,2025-02-12,2025-01-27,有限会社落合商店,,有限会社,神奈川県,川崎市川崎区,桜本２丁目３６番６号,,14,131,2100833,,,2025-01-27,清算の結了等,,,2015-10-05,1,,,,,,0
1720,7040002079411,登記記録の閉鎖等,0,2025-02-12,2025-02-06,有限会社小川商店,,有限会社,千葉県,山武市,蓮沼ハの９０３番地,,12,237,2891806,,,2025-02-06,清算の結了等,,,2015-10-05,1,,,,,オガワショウテン,0
1759,7122002010058,登記記録の閉鎖等,0,2025-02-12,2025-01-29,ホスピタリティ・マネジメント・コンサルティング有限会社,,有限会社,東京都,中央区,八重洲２丁目１１番２号城辺橋ビル１階,,13,102,1040028,,,2025-01-29,清算の結了等,,,2015-10-05,1,,,,,ホスピタリティマネジメントコンサルティング,0
1787,7180003024765,登記記録の閉鎖等,0,2025-02-12,2025-02-05,合同会社ＫＯＩＢＩＴＯ,,合同会社,愛知県,名古屋市中村区,名駅５丁目４番１４号花車ビル北館１Ｆ,,23,105,4500002,,,2025-02-05,清算の結了等,,,2023-01-26,1,,,,,コイビト,0
1793,7210001019697,登記記録の閉鎖等,0,2025-02-12,2025-02-10,株式会社リクリア,,株式会社,福井県,坂井市,丸岡町猪爪３丁目２１４番地１,,18,210,9100303,,,2025-02-10,清算の結了等,,,2024-03-27,1,,,,,リクリア,0
1795,7230001014135,登記記録の閉鎖等,0,2025-02-12,2025-02-07,株式会社ビオロジックノザコ,,株式会社,富山県,中新川郡立山町,浦田１１９３番地,,16,323,9300208,,,2025-02-07,清算の結了等,,,2015-10-05,1,,,,,ビオロジックノザコ,0
1826,7390002005332,登記記録の閉鎖等,0,2025-02-12,2025-02-03,有限会社かわぐち,,有限会社,山形県,天童市,糠塚２丁目２番１号,,06,210,9940014,,,2025-02-03,合併による解散等,2390002005411,令和７年２月１日山形県天童市糠塚二丁目２番１号株式会社弘栄不動産（2390002005411）に合併し解散,2015-10-05,1,,,,,カワグチ,0
1833,7430002052989,登記記録の閉鎖等,0,2025-02-12,2025-02-03,有限会社北海道環境企業,,有限会社,北海道,砂川市,西三条南１０丁目１番４号,,01,226,0730143,,,2025-02-03,合併による解散等,9430001066674,令和７年２月１日北海道砂川市西四条北二十二丁目１番２０号丸一物流株式会社（9430001066674）に合併し解散,2015-10-05,1,,,,,ホッカイドウカンキョウキギョウ,0
1842,7490001006726,登記記録の閉鎖等,0,2025-02-12,2025-02-07,大榮水産株式会社,,株式会社,高知県,安芸郡奈半利町,甲１０５番地,,39,302,7816401,,,2025-02-07,清算の結了等,,,2015-10-05,1,,,,,,0
1843,7500002020476,登記記録の閉鎖等,0,2025-02-12,2025-02-06,有限会社しらいし,,有限会社,愛媛県,今治市,松木１６０番地１２,,38,202,7991513,,,2025-02-06,清算の結了等,,,2015-10-05,1,,,,,シライシ,0
1844,7500002022761,登記記録の閉鎖等,0,2025-02-12,2025-02-03,昭幸水産有限会社,,有限会社,愛媛県,宇和島市,日振島１９００番地,,38,203,7980099,,,2025-02-03,清算の結了等,,,2015-10-05,1,,,,,ショウコウスイサン,0
1849,8010001211546,登記記録の閉鎖等,0,2025-02-12,2025-02-05,ｉｎｆｉｎｉｔｙ　ｓｔｏｒｅ　ｍａｎａｇｅｍｅｎｔ株式会社,,株式会社,東京都,台東区,浅草１丁目３７番地１１号１Ｆ,,13,106,1110032,,,2025-02-05,合併による解散等,7011201020325,令和６年１２月２５日東京都中央区銀座一丁目９番６号松岡第二銀緑館７階株式会社ｉｎｆｉｎｉｔｙ（7011201020325）に合併し解散,2020-08-17,1,,,,,インフィニティストアマネジメント,0
1851,8010001221495,登記記録の閉鎖等,0,2025-02-12,2025-02-05,株式会社ｌｅｇａｃｙ,,株式会社,東京都,港区,新橋１丁目１８番２１号,,13,103,1050004,,,2025-02-05,合併による解散等,7011201020325,令和６年１２月２５日東京都中央区銀座一丁目９番６号松岡第二銀緑館７階株式会社ｉｎｆｉｎｉｔｙ（7011201020325）に合併し解散,2021-10-01,1,,,,,レガシー,0
1863,8010401092660,登記記録の閉鎖等,0,2025-02-12,2025-02-03,株式会社ワンプラスワン,,株式会社,茨城県,牛久市,中央３丁目８番地３,,08,219,3001234,,,2025-02-03,清算の結了等,,,2015-10-05,1,,,,,ワンプラスワン,0
1864,8010401181257,登記記録の閉鎖等,0,2025-02-12,2025-01-20,株式会社石垣島不動産,,株式会社,東京都,港区,南青山１丁目１番１号新青山ビル東館１９階,,13,103,1070062,,,2025-01-20,清算の結了等,,,2024-03-25,1,,,,,イシガキジマフドウサン,0
1871,8010405010107,登記記録の閉鎖等,0,2025-02-12,2025-01-20,一般社団法人リキッドセブン,,その他の設立登記法人,東京都,港区,西新橋２丁目１９番４号,,13,103,1050003,,,2025-01-20,清算の結了等,,,2015-10-05,1,,,,,リキッドセブン,0
1894,8011001160931,登記記録の閉鎖等,0,2025-02-12,2025-01-23,株式会社バベル,,株式会社,東京都,渋谷区,道玄坂１丁目１０番８号渋谷道玄坂東急ビル２Ｆ－Ｃ,,13,113,1500043,,,2025-01-23,合併による解散等,6011001165049,令和６年１２月１７日東京都渋谷区恵比寿西二丁目４番８号ウィンド恵比寿ビル８Ｆ株式会社バベルグループ（6011001165049）に合併し解散,2024-03-29,1,,,,,バベル,0
1910,8011402002641,登記記録の閉鎖等,0,2025-02-12,2025-02-05,有限会社北村電機商会,,有限会社,東京都,板橋区,赤塚２丁目２５番２３号,,13,119,1750092,,,2025-02-05,清算の結了等,,,2015-10-05,1,,,,,キタムラデンキショウカイ,0
1918,8011702012803,登記記録の閉鎖等,0,2025-02-12,2025-02-06,渡辺機工有限会社,,有限会社,東京都,江戸川区,西一之江４丁目５番２０号,,13,123,1320023,,,2025-02-06,清算の結了等,,,2015-10-05,1,,,,,ワタナベキコウ,0
1927,8012801009327,登記記録の閉鎖等,0,2025-02-12,2025-01-16,ネオフィス株式会社,,株式会社,東京都,港区,六本木６丁目２－３１六本木ヒルズノースタワー１７階,,13,103,1060032,,,2025-01-16,清算の結了等,,,2015-10-05,1,,,,,ネオフィス,0
1928,8013301009305,登記記録の閉鎖等,0,2025-02-12,2025-02-05,ＮＸトランスポート株式会社,,株式会社,東京都,千代田区,神田和泉町２番地,,13,101,1010024,,,2025-02-05,合併による解散等,4180001018441,令和７年１月１日名古屋市東区葵二丁目１２番８号名鉄ＮＸ運輸株式会社（4180001018441）に合併し解散,2015-10-05,1,,,,,エヌエックストランスポート,0
1952,8030001120737,登記記録の閉鎖等,0,2025-02-12,2025-02-07,ハハトコみらい学習会株式会社,,株式会社,埼玉県,さいたま市中央区,大字下落合１００６番地１,,11,105,3380002,,,2025-02-07,清算の結了等,,,2017-06-09,1,,,,,ハハトコミライガクシュウカイ,0
1953,8030001126585,登記記録の閉鎖等,0,2025-02-12,2025-02-03,株式会社ＥＳ,,株式会社,茨城県,鹿嶋市,大字津賀字一本松１８５８番９,,08,222,3112205,,,2025-02-03,清算の結了等,,,2018-07-12,1,,,,,イーエス,0
1960,8040001022528,登記記録の閉鎖等,0,2025-02-12,2025-02-05,株式会社エヌイーインターナショナル,,株式会社,千葉県,船橋市,丸山３丁目２３番１５号,,12,204,2730048,,,2025-02-05,清算の結了等,,,2015-10-05,1,,,,,エヌイーインターナショナル,0
1970,8040003014515,登記記録の閉鎖等,0,2025-02-12,2025-02-04,合同会社エムズ設計,,合同会社,千葉県,船橋市,芝山２丁目５番１４棟７０４号,,12,204,2740816,,,2025-02-04,清算の結了等,,,2019-12-10,1,,,,,エムズセッケイ,0
1983,8060002014571,登記記録の閉鎖等,0,2025-02-12,2025-02-05,日光杣の里有限会社阿久津材木店,,有限会社,栃木県,日光市,瀬尾４４９番地,,09,206,3211264,,,2025-02-05,清算の結了等,,,2015-10-05,1,,,,,ニッコウソマノサトアクツザイモクテン,0
1989,8100002025498,登記記録の閉鎖等,0,2025-02-12,2025-02-06,有限会社プランニング,,有限会社,長野県,安曇野市,豊科南穂高４４７４番地,,20,220,3998201,,,2025-02-06,清算の結了等,,,2015-10-05,1,,,,,プランニング,0
1997,8120001182108,登記記録の閉鎖等,0,2025-02-12,2025-01-20,株式会社ＩＫＥＨＯＲＩ,,株式会社,兵庫県,宝塚市,雲雀丘１丁目４番４号,,28,214,6650805,,,2025-01-20,清算の結了等,,,2015-10-05,1,,,,,イケホリ,0
2015,8120002018871,登記記録の閉鎖等,0,2025-02-12,2025-02-07,有限会社立石商店,,有限会社,大阪府,大阪市福島区,野田１丁目１番８６号大阪市中央卸売市場本場内,,27,103,5530005,,,2025-02-07,清算の結了等,,,2015-10-05,1,,,,,タテイシショウテン,0
2018,8120003016627,登記記録の閉鎖等,0,2025-02-12,2025-02-07,合同会社ＭｓｍｉｌｅＳＴＡＧＥ,,合同会社,大阪府,大阪市北区,梅田１丁目２－２大阪駅前第２ビル２階５－６号室,,27,127,5300001,,,2025-02-07,清算の結了等,,,2019-12-19,1,,,,,エムスマイルステージ,0
2022,8120101039926,登記記録の閉鎖等,0,2025-02-12,2025-02-05,株式会社辻不動産部,00032461,株式会社,大阪府,泉佐野市,大西２丁目３番２２号,,27,213,5980043,,,2025-02-05,清算の結了等,,,2015-10-05,1,,,,,ツジフドウサンブ,0
2035,8130002006355,登記記録の閉鎖等,0,2025-02-12,2025-02-06,有限会社山光ハウス,,有限会社,京都府,京都市左京区,丸太町通川端東入東丸太町４６番地の４,,26,103,6068395,,,2025-02-06,清算の結了等,,,2015-10-05,1,,,,,ヤマミツハウス,0
2042,8140002056358,登記記録の閉鎖等,0,2025-02-12,2025-01-31,有限会社慶進教育企画,,有限会社,兵庫県,西宮市,馬場町１番５号,,28,204,6620915,,,2025-01-31,清算の結了等,,,2015-10-05,1,,,,,ケイシンキョウイクキカク,0
2043,8140005008587,登記記録の閉鎖等,0,2025-02-12,2025-02-06,農事組合法人清水農場,,その他の設立登記法人,兵庫県,丹波篠山市,小多田１７９５番地,,28,221,6692435,,,2025-02-06,清算の結了等,,,2015-10-05,1,,,,,シミズノウジョウ,0
2051,8180003024533,登記記録の閉鎖等,0,2025-02-12,2025-02-05,合同会社コミコレット,,合同会社,愛知県,名古屋市中区,栄２丁目２番地１号広小路伏見中駒ビル２Ｆ－９,,23,106,4600008,,,2025-02-05,清算の結了等,,,2022-11-30,1,,,,,コミコレット,0
2053,8220001002222,登記記録の閉鎖等,0,2025-02-12,2025-02-05,株式会社キーストーンプランニング,,株式会社,石川県,金沢市,泉野町１丁目１９番１２号,,17,201,9218034,,,2025-02-05,清算の結了等,,,2015-10-05,1,,,,,,0
2060,8260001020757,登記記録の閉鎖等,0,2025-02-12,2025-02-06,光和電子株式会社,,株式会社,岡山県,美作市,真加部６１番地１,,33,215,7070113,,,2025-02-06,清算の結了等,,,2015-10-05,1,,,,,コウワデンシ,0
2062,8260002018932,登記記録の閉鎖等,0,2025-02-12,2025-02-07,有限会社スイコー,,有限会社,岡山県,倉敷市,福田町浦田５０１番地の９,,33,202,7128031,,,2025-02-07,清算の結了等,,,2015-10-05,1,,,,,スイコー,0
2063,8260002020995,登記記録の閉鎖等,0,2025-02-12,2025-02-10,有限会社フロッシュ,,有限会社,岡山県,都窪郡早島町,早島３１４５番地の３,,33,423,7010304,,,2025-02-10,清算の結了等,,,2015-10-05,1,,,,,フロッシュ,0
2072,8290002012684,登記記録の閉鎖等,0,2025-02-12,2025-01-27,福岡愛林有限会社,,有限会社,福岡県,福岡市早良区,西新５丁目１５番４０－３０５号,,40,137,8140002,,,2025-01-27,清算の結了等,,,2015-10-05,1,,,,,フクオカアイリン,0
2081,8350002014591,登記記録の閉鎖等,0,2025-02-12,2025-02-05,有限会社中西牧場,,有限会社,宮崎県,都城市,庄内町１３４９８番地１,,45,202,8850114,,,2025-02-05,清算の結了等,,,2015-10-05,1,,,,,ナカニシボクジョウ,0
2084,8370001001795,登記記録の閉鎖等,0,2025-02-12,2025-02-05,株式会社下山家電,,株式会社,宮城県,仙台市太白区,袋原４丁目３１番４７号,,04,104,9811102,,,2025-02-05,清算の結了等,,,2015-10-05,1,,,,,シモヤマカデン,0
2085,8370001018311,登記記録の閉鎖等,0,2025-02-12,2025-02-06,株式会社佐々木産業,,株式会社,宮城県,石巻市,和渕字佐沼川１７８番地,,04,202,9871102,,,2025-02-06,清算の結了等,,,2015-10-05,1,,,,,ササキサンギョウ,0
2103,8500001008273,登記記録の閉鎖等,0,2025-02-12,2025-02-03,愛媛木蝋工業株式会社,,株式会社,愛媛県,八幡浜市,保内町喜木２番耕地７９番地,,38,204,7960111,,,2025-02-03,合併による解散等,8500001008439,令和７年２月１日愛媛県八幡浜市松柏丙８３１番地丸三産業株式会社（8500001008439）に合併し解散,2015-10-05,1,,,,,エヒメモクロウコウギョウ,0
2117,9010002019054,登記記録の閉鎖等,0,2025-02-12,2025-01-27,有限会社銀酉商事,,有限会社,東京都,中央区,銀座８丁目１６番１０号,,13,102,1040061,,,2025-01-27,清算の結了等,,,2015-10-05,1,,,,,ギンユウショウジ,0
2143,9010601059839,登記記録の閉鎖等,0,2025-02-12,2025-02-06,株式会社Ｒ・Ｅ・Ｎ,,株式会社,東京都,江東区,青海２丁目７番４号ＴｈｅＳｏｈｏ９０９号室,,13,108,1350064,,,2025-02-06,清算の結了等,,,2021-08-25,1,,,,,レン,0
2150,9010901022661,登記記録の閉鎖等,0,2025-02-12,2025-02-06,株式会社イファ,,株式会社,東京都,世田谷区,喜多見１丁目１１番８号多摩リバーテラスＡ棟２０７,,13,112,1570067,,,2025-02-06,清算の結了等,,,2015-10-05,1,,,,,イファ,0
2152,9010902001730,登記記録の閉鎖等,0,2025-02-12,2025-02-05,有限会社稲田屋,,有限会社,東京都,世田谷区,下馬５丁目１６番８号,,13,112,1540002,,,2025-02-05,清算の結了等,,,2015-10-05,1,,,,,イナダヤ,0
2156,9011101047276,登記記録の閉鎖等,0,2025-02-12,2025-01-14,株式会社ＰａｃＲｉｍ　Ｍａｒｋｅｔｉｎｇ　Ｇｒｏｕｐ,,株式会社,東京都,港区,赤坂４丁目１５番１号,,13,103,1070052,,,2025-01-14,合併による解散等,6010401053755,令和６年１２月２９日東京都港区赤坂四丁目１５番１号株式会社アンティル（6010401053755）に合併し解散,2015-10-05,1,,,,,,0
2157,9011101076572,登記記録の閉鎖等,0,2025-02-12,2025-02-03,株式会社神田企業リスク相談事務所,,株式会社,東京都,新宿区,新宿２丁目１２番１３号,,13,104,1600022,,,2025-02-03,清算の結了等,,,2016-04-06,1,,,,,カンダキギョウリスクソウダンジムショ,0
2166,9011402009487,登記記録の閉鎖等,0,2025-02-12,2025-02-05,有限会社きねぶちカンパニー,,有限会社,東京都,板橋区,中台３丁目２７番Ｈ－１１０３号,,13,119,1740064,,,2025-02-05,清算の結了等,,,2015-10-05,1,,,,,キネブチカンパニー,0
2167,9011501011253,登記記録の閉鎖等,0,2025-02-12,2025-02-05,株式会社テングラム,,株式会社,東京都,荒川区,荒川５丁目８番８号,,13,118,1160002,,,2025-02-05,清算の結了等,,,2015-10-05,1,,,,,,0
2170,9011502004792,登記記録の閉鎖等,0,2025-02-12,2025-02-03,有限会社バリーズ,,有限会社,東京都,北区,昭和町２丁目１６番１号,,13,117,1140011,,,2025-02-03,清算の結了等,,,2015-10-05,1,,,,,バリーズ,0
2173,9012401011368,登記記録の閉鎖等,0,2025-02-12,2025-02-07,株式会社タイガーママ,,株式会社,東京都,武蔵野市,吉祥寺本町２丁目２８番３号,,13,203,1800004,,,2025-02-07,清算の結了等,,,2015-10-05,1,,,,,タイガーママ,0
2174,9012401013918,登記記録の閉鎖等,0,2025-02-12,2025-02-03,株式会社ケー・エス・エム,,株式会社,東京都,新宿区,西早稲田１丁目１１番１号,,13,104,1690051,,,2025-02-03,清算の結了等,,,2015-10-05,1,,,,,ケーエスエム,0
2177,9020001065940,登記記録の閉鎖等,0,2025-02-12,2025-01-27,株式会社エヌエーエス,,株式会社,神奈川県,川崎市高津区,梶ケ谷３丁目１番地５,,14,134,2130015,,,2025-01-27,清算の結了等,,,2015-10-05,1,,,,,エヌエーエス,0
2204,9040001089888,登記記録の閉鎖等,0,2025-02-12,2025-02-05,株式会社エムセック,,株式会社,千葉県,浦安市,富岡４丁目１８番６号,,12,227,2790021,,,2025-02-05,清算の結了等,,,2015-10-05,1,,,,,エムセック,0
2205,9040001111619,登記記録の閉鎖等,0,2025-02-12,2024-12-27,株式会社住まいエステート,,株式会社,千葉県,千葉市花見川区,犢橋町１６４９番地９－１階,,12,102,2620013,,,2024-12-27,清算の結了等,,,2019-12-04,1,,,,,スマイエステート,0
2208,9040002044520,登記記録の閉鎖等,0,2025-02-12,2025-02-04,有限会社エイコー自動車,,有限会社,千葉県,松戸市,松飛台字中関７０９番１,,12,207,2702214,,,2025-02-04,清算の結了等,,,2015-10-05,1,,,,,エイコージドウシャ,0
2210,9040003003731,登記記録の閉鎖等,0,2025-02-12,2025-02-04,合資会社山忠,,合資会社,千葉県,香取市,三ノ分目２３８番地１,,12,236,2890302,,,2025-02-04,清算の結了等,,,2015-10-05,1,,,,,ヤマチュウ,0
2211,9040003019728,登記記録の閉鎖等,0,2025-02-12,2025-02-04,合同会社ＭＳＹ　ＣＯＮＮＥＣＴ,,合同会社,千葉県,千葉市稲毛区,園生町９０２番地１ビラ園生２０５号,,12,103,2630051,,,2025-02-04,清算の結了等,,,2022-03-28,1,,,,,エムエスワイコネクト,0
2219,9050003004357,登記記録の閉鎖等,0,2025-02-12,2025-02-03,合同会社Ｂｒｉｓｋ　ｗｏｒｋ,,合同会社,茨城県,結城市,大字結城１０５６７番地３８,,08,207,3070001,,,2025-02-03,清算の結了等,,,2018-09-19,1,,,,,ブリスクワーク,0
2221,9070002018967,登記記録の閉鎖等,0,2025-02-12,2025-02-07,有限会社斎藤石油,,有限会社,群馬県,伊勢崎市,波志江町１８００番地１,,10,204,3720001,,,2025-02-07,清算の結了等,,,2015-10-05,1,,,,,サイトウセキュウ,0
2229,9110001032948,登記記録の閉鎖等,0,2025-02-12,2025-01-31,株式会社ホームサポート,,株式会社,新潟県,十日町市,袋町西９１番地１,,15,210,9480066,,,2025-01-31,清算の結了等,,,2018-01-16,1,,,,,ホームサポート,0
2232,9120001013823,登記記録の閉鎖等,0,2025-02-12,2025-02-06,明昭工機株式会社,,株式会社,大阪府,大阪市東成区,神路３丁目４番２８号,,27,115,5370003,,,2025-02-06,清算の結了等,,,2015-10-05,1,,,,,メイショウコウキ,0
2249,9120003014092,登記記録の閉鎖等,0,2025-02-12,2025-02-04,合同会社ＮＩＣＯＴＴ,,合同会社,兵庫県,神戸市北区,松が枝町１丁目３６－５８,,28,109,6511232,,,2025-02-04,清算の結了等,,,2018-03-30,1,,,,,ニコット,0
2259,9120103001115,登記記録の閉鎖等,0,2025-02-12,2025-02-07,合名会社壽屋,,合名会社,大阪府,岸和田市,別所町２丁目１７番２８号,,27,202,5960045,,,2025-02-07,清算の結了等,,,2015-10-05,1,,,,,コトブキヤ,0
2265,9130001075615,登記記録の閉鎖等,0,2025-02-12,2025-02-04,マッハ塗装株式会社,,株式会社,京都府,京都市下京区,玉津島町２９４番地,,26,106,6008427,,,2025-02-04,清算の結了等,,,2023-11-06,1,,,,,マッハトソウ,0
2270,9140001107128,登記記録の閉鎖等,0,2025-02-12,2025-01-31,ラウンドアセット株式会社,,株式会社,大阪府,大阪市中央区,東心斎橋１丁目８番１１－３００６号,,27,128,5420083,,,2025-01-31,合併による解散等,9120001187163,令和７年１月３１日大阪市中央区伏見町四丁目４番１０号ＬＵＳＩＣ株式会社（9120001187163）に合併し解散,2017-08-04,1,,,,,ラウンドアセット,0
2289,9180003026941,登記記録の閉鎖等,0,2025-02-12,2025-02-05,合同会社トキワ,,合同会社,愛知県,北名古屋市,鹿田２５６８番地１グリーンシティＣ－２０３,,23,234,4810004,,,2025-02-05,清算の結了等,,,2024-06-14,1,,,,,トキワ,0
2295,9240002014486,登記記録の閉鎖等,0,2025-02-12,2025-02-10,有限会社藤田商会,,有限会社,広島県,広島市中区,南千田西町２番４５号,,34,101,7300055,,,2025-02-10,清算の結了等,,,2015-10-05,1,,,,,フジタショウカイ,0
2297,9240002047924,登記記録の閉鎖等,0,2025-02-12,2025-02-06,有限会社カワノデンキ,,有限会社,広島県,安芸郡府中町,八幡４丁目１２番３－６号,,34,302,7350012,,,2025-02-06,清算の結了等,,,2015-10-05,1,,,,,カワノデンキ,0
2300,9290001062770,登記記録の閉鎖等,0,2025-02-12,2025-01-24,株式会社上田鉄工所,,株式会社,福岡県,大牟田市,大字草木２０９番地５,,40,202,8370917,,,2025-01-24,清算の結了等,,,2015-10-05,1,,,,,ウエダテッコウショ,0
2311,9290801010945,登記記録の閉鎖等,0,2025-02-12,2025-01-21,株式会社ジー・イー・エヌ,,株式会社,福岡県,福岡市博多区,千代１丁目２０番３１号,,40,132,8120044,,,2025-01-21,清算の結了等,,,2015-10-05,1,,,,,ジーイーエヌ,0
2318,9320001010420,登記記録の閉鎖等,0,2025-02-12,2025-02-07,株式会社日緑サービス,,株式会社,大分県,日田市,天瀬町塚田１５８９番地の１,,44,204,8770113,,,2025-02-07,清算の結了等,,,2015-10-05,1,,,,,,0
2323,9360002010936,登記記録の閉鎖等,0,2025-02-12,2025-02-07,有限会社産創研,,有限会社,沖縄県,南城市,知念字知名８４４番地５,,47,215,9011503,,,2025-02-07,清算の結了等,,,2015-10-05,1,,,,,,0
2325,9370001016660,登記記録の閉鎖等,0,2025-02-12,2025-02-06,株式会社コーシン,,株式会社,宮城県,仙台市太白区,袋原２丁目１１番３５号,,04,104,9811102,,,2025-02-06,清算の結了等,,,2015-10-05,1,,,,,コーシン,0
2346,9500001013669,登記記録の閉鎖等,0,2025-02-12,2025-02-03,エコプロダクツ株式会社,,株式会社,愛媛県,西予市,宇和町田苗真土９５０番地１,,38,214,7970032,,,2025-02-03,合併による解散等,8500001008439,令和７年２月１日愛媛県八幡浜市松柏丙８３１番地丸三産業株式会社（8500001008439）に合併し解散,2015-10-05,1,,,,,エコプロダクツ,0
