sequenceNumber,corporateNumber,process,correct,updateDate,changeDate,name,nameImageId,kind,prefectureName,cityName,streetNumber,addressImageId,prefectureCode,cityCode,postCode,addressOutside,addressOutsideImageId,closeDate,closeCause,successorCorporateNumber,changeCause,assignmentDate,latest,enName,enPrefectureName,enCityName,enAddressOutside,furigana,hihyoji
25,1010703004626,登記記録の閉鎖等,0,2021-08-25,2021-08-23,合同会社三島開発,,合同会社,東京都,品川区,西五反田３丁目７番６号,,13,109,1410031,,,2021-08-23,清算の結了等,,,2019-01-22,1,,,,,ミシマカイハツ,0
29,1010902007181,登記記録の閉鎖等,0,2021-08-25,2021-08-17,有限会社ジェニオ,,有限会社,東京都,世田谷区,奥沢２丁目１７番１号,,13,112,1580083,,,2021-08-17,清算の結了等,,,2015-10-05,1,,,,,ジェニオ,0
58,1011802009490,登記記録の閉鎖等,0,2021-08-25,2021-08-24,有限会社池貴工業,,有限会社,東京都,足立区,小台１丁目５番３－５１２号,,13,121,1200046,,,2021-08-24,清算の結了等,,,2015-10-05,1,,,,,イケタカコウギョウ,0
64,1012701008955,登記記録の閉鎖等,0,2021-08-25,2021-08-24,Ｆｏｒｗａｒｄ’Ｓ株式会社,,株式会社,東京都,東久留米市,滝山７丁目１番６号武蔵野サンハイツ滝山パート２－３０６,,13,222,2030033,,,2021-08-24,清算の結了等,,,2015-10-05,1,,,,,フォワーズ,0
84,1020003017518,登記記録の閉鎖等,0,2021-08-25,2021-08-17,仁和合同会社,,合同会社,神奈川県,川崎市川崎区,本町２丁目９－２－９０４号,,14,131,2100001,,,2021-08-17,清算の結了等,,,2020-03-13,1,,,,,ニンワ,0
86,1021001012948,登記記録の閉鎖等,0,2021-08-25,2021-08-19,大東観光交通株式会社,,株式会社,神奈川県,相模原市中央区,光が丘３丁目２７番９号,,14,152,2520227,,,2021-08-19,清算の結了等,,,2015-10-05,1,,,,,ダイトウカンコウコウツウ,0
107,1040002047869,登記記録の閉鎖等,0,2021-08-25,2021-08-16,有限会社根本電設,,有限会社,千葉県,松戸市,幸田５丁目１４１番地,,12,207,2700001,,,2021-08-16,清算の結了等,,,2015-10-05,1,,,,,ネモトデンセツ,0
122,1100005007368,登記記録の閉鎖等,0,2021-08-25,2021-08-23,白馬村堀之内生産森林組合,,その他の設立登記法人,長野県,北安曇郡白馬村,大字神城１７６２６番地ロ,,20,485,3999211,,,2021-08-23,清算の結了等,,,2015-10-05,1,,,,,ハクバムラホリノウチ,0
145,1140001025948,登記記録の閉鎖等,0,2021-08-25,2021-08-24,株式会社ローズマリー,,株式会社,兵庫県,神戸市中央区,二宮町１丁目１０－２４－８０４号,,28,110,6510093,,,2021-08-24,清算の結了等,,,2015-10-05,1,,,,,ローズマリー,0
151,1160003001680,登記記録の閉鎖等,0,2021-08-25,2021-08-16,合同会社伊藤,,合同会社,滋賀県,守山市,古高町１６７番地,,25,207,5240044,,,2021-08-16,清算の結了等,,,2018-05-10,1,,,,,イトウ,0
166,1180002092678,登記記録の閉鎖等,0,2021-08-25,2021-08-20,有限会社真起カッティング,,有限会社,愛知県,あま市,乙之子十八割８２番地の２,,23,237,4901213,,,2021-08-20,清算の結了等,,,2015-10-05,1,,,,,マキカッティング,0
181,1250002016803,登記記録の閉鎖等,0,2021-08-25,2021-08-23,有限会社松村,,有限会社,山口県,周南市,清水２丁目９番１号,,35,215,7460015,,,2021-08-23,清算の結了等,,,2015-10-05,1,,,,,マツムラ,0
198,1290005016788,登記記録の閉鎖等,0,2021-08-25,2021-08-06,特定非営利活動法人福岡ＢＲＡＶＥＳ,,その他の設立登記法人,福岡県,那珂川市,王塚台２丁目１９５番地６,,40,231,8111221,,,2021-08-06,清算の結了等,,,2018-03-22,1,,,,,フクオカブレイブス,0
210,1340001003132,登記記録の閉鎖等,0,2021-08-25,2021-08-23,南星産業株式会社,,株式会社,鹿児島県,鹿児島市,坂之上４丁目２３番４３号,,46,201,8910150,,,2021-08-23,清算の結了等,,,2015-10-05,1,,,,,ナンセイサンギョウ,0
213,1340002004716,登記記録の閉鎖等,0,2021-08-25,2021-08-20,有限会社シゲノ,,有限会社,鹿児島県,鹿児島市,東谷山７丁目２９番７号,,46,201,8910113,,,2021-08-20,清算の結了等,,,2015-10-05,1,,,,,シゲノ,0
221,1370001031667,登記記録の閉鎖等,0,2021-08-25,2021-08-17,株式会社湯目工房,,株式会社,宮城県,仙台市宮城野区,鶴ケ谷５丁目１９番地の２,,04,102,9830824,,,2021-08-17,清算の結了等,,,2015-10-05,1,,,,,ユノメコウボウ,0
238,1470001007310,登記記録の閉鎖等,0,2021-08-25,2021-08-20,株式会社カツマ,,株式会社,香川県,丸亀市,土器町東５丁目７０５番地,,37,202,7630082,,,2021-08-20,清算の結了等,,,2015-10-05,1,,,,,カツマ,0
240,1470002007061,登記記録の閉鎖等,0,2021-08-25,2021-08-20,有限会社ヤシマ住宅,,有限会社,香川県,高松市,高松町２５０２番地,,37,201,7610104,,,2021-08-20,清算の結了等,,,2015-10-05,1,,,,,ヤシマジュウタク,0
256,2010102004516,登記記録の閉鎖等,0,2021-08-25,2021-08-23,有限会社綱木製作所,,有限会社,東京都,八王子市,元本郷町２丁目７番３号,,13,201,1920051,,,2021-08-23,清算の結了等,,,2015-10-05,1,,,,,,0
257,2010401023737,登記記録の閉鎖等,0,2021-08-25,2021-08-12,株式会社パーク,,株式会社,東京都,港区,南青山３丁目３番１０号,,13,103,1070062,,,2021-08-12,清算の結了等,,,2015-10-05,1,,,,,パーク,0
289,2011202003003,登記記録の閉鎖等,0,2021-08-25,2021-08-20,城西ビル管理有限会社,,有限会社,東京都,中野区,中野５丁目３２番６号,,13,114,1640001,,,2021-08-20,清算の結了等,,,2015-10-05,1,,,,,ジョウサイビルカンリ,0
291,2011302003002,登記記録の閉鎖等,0,2021-08-25,2021-08-18,有限会社久満喜屋,,有限会社,東京都,杉並区,和泉４丁目１番２０号,,13,115,1680063,,,2021-08-18,清算の結了等,,,2015-10-05,1,,,,,クマキヤ,0
295,2011502002167,登記記録の閉鎖等,0,2021-08-25,2021-08-23,有限会社五色,,有限会社,東京都,北区,豊島８丁目１２番１２号,,13,117,1140003,,,2021-08-23,清算の結了等,,,2015-10-05,1,,,,,,0
303,2011801031569,登記記録の閉鎖等,0,2021-08-25,2021-08-24,株式会社ビエールジャパン,,株式会社,東京都,足立区,島根１丁目３番１６号,,13,121,1210815,,,2021-08-24,清算の結了等,,,2016-03-24,1,,,,,,0
309,2013202000789,登記記録の閉鎖等,0,2021-08-25,2021-08-06,イトナー有限会社,,有限会社,東京都,目黒区,碑文谷１丁目２３番１９号,,13,110,1520003,,,2021-08-06,清算の結了等,,,2015-10-05,1,,,,,イトナー,0
317,2020001104440,登記記録の閉鎖等,0,2021-08-25,2021-08-20,南鉄筋興業株式会社,,株式会社,神奈川県,横浜市神奈川区,三ツ沢中町２４番２－３０５号,,14,102,2210851,,,2021-08-20,清算の結了等,,,2015-10-05,1,,,,,,0
334,2021002000629,登記記録の閉鎖等,0,2021-08-25,2021-08-20,有限会社入澤薬局,,有限会社,神奈川県,藤沢市,鵠沼橘１丁目１５番１号,,14,205,2510024,,,2021-08-20,清算の結了等,,,2015-10-05,1,,,,,イリサワヤッキョク,0
372,2060001001238,登記記録の閉鎖等,0,2021-08-25,2021-08-18,株式会社桂地建,,株式会社,栃木県,宇都宮市,今泉町２１６３番地１,,09,201,3210962,,,2021-08-18,清算の結了等,,,2015-10-05,1,,,,,カツラチケン,0
374,2060002007853,登記記録の閉鎖等,0,2021-08-25,2021-08-16,有限会社フジタ商事,,有限会社,栃木県,宇都宮市,野沢町４８９番地,,09,201,3200071,,,2021-08-16,清算の結了等,,,2015-10-05,1,,,,,フジタショウジ,0
377,2070001016482,登記記録の閉鎖等,0,2021-08-25,2021-08-20,小野商工株式会社,,株式会社,群馬県,桐生市,境野町７丁目５３番地１,,10,203,3760002,,,2021-08-20,清算の結了等,,,2015-10-05,1,,,,,オノショウコウ,0
383,2100001006315,登記記録の閉鎖等,0,2021-08-25,2021-08-24,株式会社グローバルユニット,,株式会社,長野県,千曲市,大字内川１２５番地３,,20,218,3890802,,,2021-08-24,清算の結了等,,,2015-10-05,1,,,,,グローバルユニット,0
385,2100003002766,登記記録の閉鎖等,0,2021-08-25,2021-08-23,合資会社タートル産業,,合資会社,長野県,伊那市,西箕輪６５８３番地２,,20,209,3994501,,,2021-08-23,清算の結了等,,,2015-10-05,1,,,,,タートルサンギョウ,0
402,2120101045616,登記記録の閉鎖等,0,2021-08-25,2021-08-24,株式会社エーアールエム,,株式会社,大阪府,泉南郡熊取町,小垣内２丁目５０番地の１３,,27,361,5900432,,,2021-08-24,清算の結了等,,,2015-10-05,1,,,,,,0
411,2120902019982,登記記録の閉鎖等,0,2021-08-25,2021-08-23,有限会社明和商会,,有限会社,大阪府,豊中市,夕日丘１丁目９番１１号,,27,203,5610864,,,2021-08-23,清算の結了等,,,2015-10-05,1,,,,,,0
415,2130001009364,登記記録の閉鎖等,0,2021-08-25,2021-08-23,新和硝子株式会社,,株式会社,京都府,京都市東山区,今熊野宝蔵町６５番地,,26,105,6050952,,,2021-08-23,清算の結了等,,,2015-10-05,1,,,,,シンワガラス,0
429,2140001097771,登記記録の閉鎖等,0,2021-08-25,2021-08-20,株式会社エスケー,,株式会社,兵庫県,西宮市,南甲子園２丁目２番１４号,,28,204,6638153,,,2021-08-20,清算の結了等,,,2015-10-05,1,,,,,エスケー,0
435,2150001010717,登記記録の閉鎖等,0,2021-08-25,2021-08-19,株式会社中和測量設計社,,株式会社,奈良県,橿原市,葛本町４９１番地の２,,29,205,6340007,,,2021-08-19,清算の結了等,,,2015-10-05,1,,,,,チュウワソクリョウセッケイシャ,0
447,2180001132789,登記記録の閉鎖等,0,2021-08-25,2021-08-20,株式会社プログレス,,株式会社,愛知県,名古屋市昭和区,鶴舞２丁目５番２２号,,23,107,4660064,,,2021-08-20,清算の結了等,,,2018-06-29,1,,,,,プログレス,0
454,2180303003671,登記記録の閉鎖等,0,2021-08-25,2021-08-24,合同会社あんのん岡崎,,合同会社,愛知県,岡崎市,牧御堂町字油田２９番地１岡崎第８東海ビル１０１号室,,23,202,4440205,,,2021-08-24,清算の結了等,,,2016-08-04,1,,,,,アンノンオカザキ,0
487,2310002001780,登記記録の閉鎖等,0,2021-08-25,2021-08-24,有限会社公楽荘,,有限会社,長崎県,長崎市,寄合町２番４号,,42,201,8500903,,,2021-08-24,清算の結了等,,,2015-10-05,1,,,,,コウラクソウ,0
493,2330001019863,登記記録の閉鎖等,0,2021-08-25,2021-08-23,株式会社九州マテリアル,,株式会社,熊本県,熊本市東区,健軍３丁目２番１号１Ｆ,,43,102,8620911,,,2021-08-23,清算の結了等,,,2015-10-05,1,,,,,キュウシュウマテリアル,0
513,2440001002288,登記記録の閉鎖等,0,2021-08-25,2021-08-23,マルタケ産業株式会社,,株式会社,北海道,函館市,豊川町８番５号,,01,202,0400065,,,2021-08-23,清算の結了等,,,2015-10-05,1,,,,,マルタケサンギョウ,0
533,3010001208836,登記記録の閉鎖等,0,2021-08-25,2021-08-16,ｉＤｒｏｎｅ　Ｔｅｃｈｎｏｌｏｇｉｅｓ株式会社,,株式会社,東京都,千代田区,一番町６番相模屋本社ビル７Ｆ,,13,101,1020082,,,2021-08-16,清算の結了等,,,2020-04-16,1,,,,,アイドローンテクノロジーズ,0
566,3010801011646,登記記録の閉鎖等,0,2021-08-25,2021-08-02,株式会社ミヤザキ,,株式会社,東京都,大田区,仲池上１丁目２９番３号,,13,111,1460081,,,2021-08-02,合併による解散等,2010801003347,令和３年８月１日東京都大田区仲池上一丁目２９番３号株式会社クライム（2010801003347）に合併し解散,2015-10-05,1,,,,,ミヤザキ,0
568,3010802005688,登記記録の閉鎖等,0,2021-08-25,2021-08-16,有限会社サンワ薬局,,有限会社,東京都,大田区,東矢口２丁目６番１３号,,13,111,1460094,,,2021-08-16,清算の結了等,,,2015-10-05,1,,,,,サンワヤッキョク,0
572,3011001123348,登記記録の閉鎖等,0,2021-08-25,2021-08-04,株式会社ワイズ,,株式会社,東京都,渋谷区,恵比寿４丁目２５番１号,,13,113,1500013,,,2021-08-04,清算の結了等,,,2018-07-20,1,,,,,ワイズ,0
575,3011001127423,登記記録の閉鎖等,0,2021-08-25,2021-08-10,株式会社イントランスファンディング,,株式会社,東京都,渋谷区,道玄坂１丁目１６番５号大下ビル９階,,13,113,1500043,,,2021-08-10,清算の結了等,,,2019-04-08,1,,,,,イントランスファンディング,0
579,3011002025436,登記記録の閉鎖等,0,2021-08-25,2021-08-04,有限会社ハートライフ,,有限会社,東京都,渋谷区,上原１丁目３３番２号,,13,113,1510064,,,2021-08-04,清算の結了等,,,2015-10-05,1,,,,,ハートライフ,0
581,3011101070374,登記記録の閉鎖等,0,2021-08-25,2021-08-10,株式会社Ｙｅｎｏｍ,,株式会社,東京都,渋谷区,桜丘町２９番３３号,,13,113,1500031,,,2021-08-10,清算の結了等,,,2015-10-05,1,,,,,エノム,0
586,3011301017745,登記記録の閉鎖等,0,2021-08-25,2021-08-16,株式会社マージュ,,株式会社,東京都,杉並区,高円寺北２丁目３９番１２号,,13,115,1660002,,,2021-08-16,清算の結了等,,,2015-10-05,1,,,,,マージュ,0
609,3020001124818,登記記録の閉鎖等,0,2021-08-25,2021-08-20,株式会社ラウンド,,株式会社,神奈川県,横浜市戸塚区,戸塚町３９９３番地,,14,110,2440003,,,2021-08-20,清算の結了等,,,2018-01-31,1,,,,,ラウンド,0
622,3020005007944,登記記録の閉鎖等,0,2021-08-25,2021-08-05,川崎青果商業協同組合,,その他の設立登記法人,神奈川県,川崎市幸区,南幸町３丁目１２６番地１,,14,132,2120016,,,2021-08-05,清算の結了等,,,2015-10-05,1,,,,,カワサキセイカショウギョウ,0
627,3021003004033,登記記録の閉鎖等,0,2021-08-25,2021-08-19,合同会社アルフォンスジャパン,,合同会社,神奈川県,中郡二宮町,富士見が丘２丁目１７番１０号,,14,342,2590122,,,2021-08-19,清算の結了等,,,2015-10-05,1,,,,,アルフォンスジャパン,0
638,3040001034924,登記記録の閉鎖等,0,2021-08-25,2021-08-20,トーチ精工株式会社,,株式会社,千葉県,松戸市,高塚新田４４８番地の２２,,12,207,2702222,,,2021-08-20,合併による解散等,4011701002973,令和３年８月１日東京都江戸川区東小岩二丁目９番１３号株式会社五関製作所（4011701002973）に合併し解散,2015-10-05,1,,,,,トーチセイコウ,0
652,3060001031382,登記記録の閉鎖等,0,2021-08-25,2021-08-17,株式会社エスペランサ,,株式会社,栃木県,宇都宮市,江野町１１番１号,,09,201,3200802,,,2021-08-17,清算の結了等,,,2019-03-06,1,,,,,エスペランサ,0
667,3120001188241,登記記録の閉鎖等,0,2021-08-25,2021-08-16,株式会社ワイシー保険企画,,株式会社,大阪府,大阪市北区,野崎町７番８号,,27,127,5300055,,,2021-08-16,清算の結了等,,,2015-10-05,1,,,,,ワイシーホケンキカク,0
714,3260001028045,登記記録の閉鎖等,0,2021-08-25,2021-08-24,株式会社楽佳貿易,,株式会社,岡山県,岡山市北区,中央町３番１２号難波ビル３Ｆ,,33,101,7000836,,,2021-08-24,清算の結了等,,,2015-10-05,1,,,,,,0
729,3310002013429,登記記録の閉鎖等,0,2021-08-25,2021-08-24,有限会社松本,,有限会社,長崎県,西海市,大島町１９７８－１番地,,42,212,8572427,,,2021-08-24,清算の結了等,,,2015-10-05,1,,,,,マツモト,0
735,3330002019580,登記記録の閉鎖等,0,2021-08-25,2021-08-23,有限会社うおや,,有限会社,熊本県,上益城郡甲佐町,大字岩下１０６番地,,43,444,8614601,,,2021-08-23,清算の結了等,,,2015-10-05,1,,,,,ウオヤ,0
748,3370602001208,登記記録の閉鎖等,0,2021-08-25,2021-08-12,有限会社伊達鋼建,,有限会社,宮城県,宮城郡七ヶ浜町,汐見台２丁目３番地の２７,,04,404,9850821,,,2021-08-12,清算の結了等,,,2015-10-05,1,,,,,,0
754,3400001014336,登記記録の閉鎖等,0,2021-08-25,2021-08-23,株式会社ユー・エスいわてＨＤ,,株式会社,岩手県,一関市,真柴字矢ノ目沢６４番地３,,03,209,0210901,,,2021-08-23,合併による解散等,7400501000583,令和３年７月２１日岩手県一関市真柴字矢ノ目沢６４番地３株式会社ユー・エスいわて（7400501000583）に合併し解散,2018-10-04,1,,,,,ユーエスイワテホールディングス,0
785,4010401140902,登記記録の閉鎖等,0,2021-08-25,2021-08-10,株式会社ＳＡＫＵＲＡラボラトリー,,株式会社,東京都,港区,麻布十番２丁目１６番７号,,13,103,1060045,,,2021-08-10,清算の結了等,,,2018-09-21,1,,,,,サクララボラトリー,0
787,4010401155347,登記記録の閉鎖等,0,2021-08-25,2021-08-12,ＵｐＭｉｎｄ株式会社,,株式会社,東京都,港区,北青山３丁目１５番１６号オラシオン青山ビル,,13,103,1070061,,,2021-08-12,清算の結了等,,,2020-09-24,1,,,,,アップマインド,0
806,4010802015158,登記記録の閉鎖等,0,2021-08-25,2021-08-16,有限会社ユーホーム,,有限会社,東京都,大田区,北千束２丁目１７番５号,,13,111,1450062,,,2021-08-16,清算の結了等,,,2015-10-05,1,,,,,ユーホーム,0
826,4011801037589,登記記録の閉鎖等,0,2021-08-25,2021-08-18,株式会社ＲｅＡｃｔｕａｌｉｚｅ,,株式会社,東京都,豊島区,池袋２丁目５２－３,,13,116,1710014,,,2021-08-18,清算の結了等,,,2020-05-11,1,,,,,リアクチャライズ,0
828,4012405002681,登記記録の閉鎖等,0,2021-08-25,2021-08-23,特定非営利活動法人ライツ,,その他の設立登記法人,東京都,武蔵野市,境１丁目１７番６－５１１号興栄マンションむさしの,,13,203,1800022,,,2021-08-23,清算の結了等,,,2015-10-05,1,,,,,ライツ,0
838,4020001074698,登記記録の閉鎖等,0,2021-08-25,2021-08-19,株式会社村田商店,,株式会社,神奈川県,川崎市川崎区,浅田３丁目１１番１３号,,14,131,2100847,,,2021-08-19,清算の結了等,,,2015-10-05,1,,,,,ムラタショウテン,0
848,4020002014959,登記記録の閉鎖等,0,2021-08-25,2021-08-19,有限会社トライ,,有限会社,神奈川県,横浜市青葉区,あざみ野３丁目３番地３－１０６号,,14,117,2250011,,,2021-08-19,清算の結了等,,,2015-10-05,1,,,,,トライ,0
855,4021001011344,登記記録の閉鎖等,0,2021-08-25,2021-08-19,株式会社ウエハラコーポレーション,,株式会社,神奈川県,相模原市南区,磯部１５０３番地１０,,14,153,2520327,,,2021-08-19,清算の結了等,,,2015-10-05,1,,,,,ウエハラコーポレーション,0
860,4021002002425,登記記録の閉鎖等,0,2021-08-25,2021-08-19,有限会社湘南ラミー,,有限会社,神奈川県,藤沢市,打戻１７８９番地古里住宅４－３０４,,14,205,2520824,,,2021-08-19,清算の結了等,,,2015-10-05,1,,,,,ショウナンラミー,0
863,4021002068607,登記記録の閉鎖等,0,2021-08-25,2021-08-19,有限会社山﨑技研,00013951,有限会社,神奈川県,逗子市,小坪２丁目８番４６号,,14,208,2490008,,,2021-08-19,清算の結了等,,,2015-10-05,1,,,,,ヤマザキギケン,0
878,4040002088935,登記記録の閉鎖等,0,2021-08-25,2021-08-16,株式会社柏流サービス,,株式会社,千葉県,野田市,三ツ堀８２７番地８,,12,208,2780011,,,2021-08-16,清算の結了等,,,2015-10-05,1,,,,,ハクリュウサービス,0
882,4060003002736,登記記録の閉鎖等,0,2021-08-25,2021-08-18,合同会社メディカルクリエイト・スター,,合同会社,栃木県,宇都宮市,小幡２丁目２番１２号サーパス小幡８０１,,09,201,3200036,,,2021-08-18,清算の結了等,,,2018-01-04,1,,,,,メディカルクリエイトスター,0
883,4060003003387,登記記録の閉鎖等,0,2021-08-25,2021-08-13,ＷｉｌｄＦｉｅｌｄ合同会社,,合同会社,栃木県,宇都宮市,元今泉７丁目１５－４,,09,201,3210954,,,2021-08-13,清算の結了等,,,2020-06-09,1,,,,,ワイルドフィールド,0
904,4120101043873,登記記録の閉鎖等,0,2021-08-25,2021-08-20,株式会社プリムラ,,株式会社,大阪府,泉大津市,東助松町３丁目１６番８号,,27,206,5950006,,,2021-08-20,清算の結了等,,,2015-10-05,1,,,,,プリムラ,0
907,4120102012423,登記記録の閉鎖等,0,2021-08-25,2021-08-19,有限会社ナカジマ,,有限会社,大阪府,堺市美原区,太井３７番地３,,27,147,5870062,,,2021-08-19,清算の結了等,,,2015-10-05,1,,,,,ナカジマ,0
914,4140001015104,登記記録の閉鎖等,0,2021-08-25,2021-08-18,ジャパンサーマルシステム株式会社,,株式会社,兵庫県,神戸市北区,鈴蘭台北町７丁目１２番８号,,28,109,6511111,,,2021-08-18,清算の結了等,,,2015-10-05,1,,,,,ジャパンサーマルシステム,0
943,4180002083749,登記記録の閉鎖等,0,2021-08-25,2021-08-19,有限会社中川塗料店,,有限会社,愛知県,半田市,港本町３丁目４５番地,,23,205,4750827,,,2021-08-19,清算の結了等,,,2015-10-05,1,,,,,ナカガワトリョウテン,0
950,4200002004735,登記記録の閉鎖等,0,2021-08-25,2021-08-24,有限会社武藤捺染,,有限会社,岐阜県,岐阜市,茶屋新田５丁目３１番地,,21,201,5016135,,,2021-08-24,清算の結了等,,,2015-10-05,1,,,,,,0
952,4230001014559,登記記録の閉鎖等,0,2021-08-25,2021-08-23,株式会社クリティア,,株式会社,富山県,砺波市,千代２６１番地６,,16,208,9391351,,,2021-08-23,清算の結了等,,,2015-10-05,1,,,,,クリティア,0
1021,5010503004500,登記記録の閉鎖等,0,2021-08-25,2021-08-17,合同会社さかえ,,合同会社,東京都,台東区,上野桜木２丁目１８番６号,,13,106,1100002,,,2021-08-17,清算の結了等,,,2015-10-27,1,,,,,サカエ,0
1063,5012401011520,登記記録の閉鎖等,0,2021-08-25,2021-08-23,株式会社東京コイン,,株式会社,東京都,武蔵野市,吉祥寺本町１丁目４番１１号,,13,203,1800004,,,2021-08-23,清算の結了等,,,2015-10-05,1,,,,,トウキョウコイン,0
1068,5013301002857,登記記録の閉鎖等,0,2021-08-25,2021-08-18,株式会社クラウン・モード,,株式会社,東京都,豊島区,駒込２丁目６番７号,,13,116,1700003,,,2021-08-18,清算の結了等,,,2015-10-05,1,,,,,,0
1083,5021002003793,登記記録の閉鎖等,0,2021-08-25,2021-08-20,西山倉庫有限会社,,有限会社,神奈川県,藤沢市,石川５丁目７番地の１３,,14,205,2520815,,,2021-08-20,清算の結了等,,,2015-10-05,1,,,,,ニシヤマソウコ,0
1113,5080001011315,登記記録の閉鎖等,0,2021-08-25,2021-08-24,ジョイコーポレーション株式会社,,株式会社,静岡県,静岡市清水区,江尻東３丁目７番２５号,,22,103,4240815,,,2021-08-24,合併による解散等,2080001007844,令和３年８月２４日静岡市清水区江尻東三丁目７番２５号加藤建設株式会社（2080001007844）に合併し解散,2015-10-05,1,,,,,ジョイコーポレーション,0
1116,5100001006460,登記記録の閉鎖等,0,2021-08-25,2021-08-24,株式会社フラット・ヘッド,,株式会社,長野県,千曲市,大字上徳間３番地１,,20,218,3890805,,,2021-08-24,清算の結了等,,,2015-10-05,1,,,,,フラットヘッド,0
1123,5120001067245,登記記録の閉鎖等,0,2021-08-25,2021-08-12,株式会社ツール・カンパニー,,株式会社,大阪府,大阪市北区,中崎３丁目２－１５,,27,127,5300016,,,2021-08-12,清算の結了等,,,2015-10-05,1,,,,,ツールカンパニー,0
1132,5120101053442,登記記録の閉鎖等,0,2021-08-25,2021-08-24,株式会社パンジー,,株式会社,大阪府,堺市北区,金岡町２４６３番地５,,27,146,5918022,,,2021-08-24,清算の結了等,,,2015-10-05,1,,,,,,0
1158,5180001080449,登記記録の閉鎖等,0,2021-08-25,2021-08-20,アイキ精工株式会社,,株式会社,愛知県,瀬戸市,田端町１丁目８２番地,,23,204,4890921,,,2021-08-20,清算の結了等,,,2015-10-05,1,,,,,アイキセイコウ,0
1160,5180001118265,登記記録の閉鎖等,0,2021-08-25,2021-08-20,村手クリエイト株式会社,,株式会社,愛知県,清須市,西枇杷島町十軒裏７５番地１,,23,233,4520025,,,2021-08-20,清算の結了等,,,2015-10-05,1,,,,,ムラテクリエイト,0
1171,5240001048489,登記記録の閉鎖等,0,2021-08-25,2021-08-12,株式会社良三,,株式会社,広島県,安芸高田市,吉田町中馬２５６１番地,,34,214,7310525,,,2021-08-12,清算の結了等,,,2015-11-17,1,,,,,,0
1188,5290005016792,登記記録の閉鎖等,0,2021-08-25,2021-08-06,一般社団法人ジモトＬＡＢ,,その他の設立登記法人,福岡県,福岡市博多区,吉塚５丁目１３番２２－６０７号,,40,132,8120041,,,2021-08-06,清算の結了等,,,2018-03-20,1,,,,,ジモトラボ,0
1193,5290802016549,登記記録の閉鎖等,0,2021-08-25,2021-08-24,有限会社アバンティ,,有限会社,福岡県,遠賀郡岡垣町,大字糠塚７７６番地２,,40,383,8114213,,,2021-08-24,清算の結了等,,,2015-10-05,1,,,,,,0
1206,5330002022335,登記記録の閉鎖等,0,2021-08-25,2021-08-20,だしとり名人有限会社,,有限会社,熊本県,玉名市,岱明町古閑２３９番地２,,43,206,8690233,,,2021-08-20,清算の結了等,,,2015-10-05,1,,,,,ダシトリメイジン,0
1214,5340002021154,登記記録の閉鎖等,0,2021-08-25,2021-08-20,有限会社奄美市名瀬米飯給食センター,,有限会社,鹿児島県,奄美市,名瀬大字朝戸１００３番地１,,46,222,8940773,,,2021-08-20,清算の結了等,,,2015-10-05,1,,,,,アマミシナゼベイハンキュウショクセンター,0
1235,5430002041878,登記記録の閉鎖等,0,2021-08-25,2021-08-12,有限会社和む,,有限会社,北海道,札幌市西区,発寒十条４丁目１番５０－１０２号,,01,107,0630830,,,2021-08-12,清算の結了等,,,2015-10-05,1,,,,,ナゴム,0
1256,6010003025293,登記記録の閉鎖等,0,2021-08-25,2021-08-20,合同会社ＮＫ２,,合同会社,東京都,中央区,勝どき１丁目３番１－１６１２号,,13,102,1040054,,,2021-08-20,清算の結了等,,,2017-05-23,1,,,,,エヌケーツー,0
1257,6010003030145,登記記録の閉鎖等,0,2021-08-25,2021-08-20,ＰＬＣ１１Ｌ合同会社,,合同会社,東京都,千代田区,丸の内１丁目１１番１号,,13,101,1000005,,,2021-08-20,清算の結了等,,,2019-07-03,1,,,,,ピーエルシーイレブンエル,0
1274,6011001031779,登記記録の閉鎖等,0,2021-08-25,2021-08-11,株式会社ビジネットシステム,,株式会社,東京都,港区,六本木３丁目１６番３３号,,13,103,1060032,,,2021-08-11,合併による解散等,7010401001556,令和３年８月１日東京都港区赤坂一丁目８番１号アクセンチュア株式会社（7010401001556）に合併し解散,2015-10-05,1,,,,,ビジネットシステム,0
1286,6011801031359,登記記録の閉鎖等,0,2021-08-25,2021-08-24,株式会社Ｙコーポレーション,,株式会社,東京都,足立区,関原２丁目２番２７号,,13,121,1230852,,,2021-08-24,清算の結了等,,,2016-02-08,1,,,,,,0
1288,6011802007903,登記記録の閉鎖等,0,2021-08-25,2021-08-24,有限会社八百信,,有限会社,東京都,葛飾区,鎌倉４丁目１０番５号,,13,122,1250053,,,2021-08-24,清算の結了等,,,2015-10-05,1,,,,,,0
1317,6030001120210,登記記録の閉鎖等,0,2021-08-25,2021-08-23,レインボー株式会社,,株式会社,東京都,東村山市,美住町２丁目２０－３６３,,13,213,1890023,,,2021-08-23,清算の結了等,,,2017-05-15,1,,,,,レインボー,0
1331,6040002032692,登記記録の閉鎖等,0,2021-08-25,2021-08-16,有限会社植草企画,,有限会社,千葉県,市川市,柏井町３丁目６１９番地,,12,203,2720802,,,2021-08-16,清算の結了等,,,2015-10-05,1,,,,,ウエクサキカク,0
1338,6060003000300,登記記録の閉鎖等,0,2021-08-25,2021-08-17,ＫＮＰ合同会社,,合同会社,栃木県,宇都宮市,元今泉５丁目４番１７号,,09,201,3210954,,,2021-08-17,清算の結了等,,,2015-10-05,1,,,,,ケーエヌピー,0
1367,6130002001069,登記記録の閉鎖等,0,2021-08-25,2021-08-24,有限会社ツカサ工芸,,有限会社,京都府,京都市右京区,龍安寺斎宮町１９番地の１０,,26,108,6168011,,,2021-08-24,清算の結了等,,,2015-10-05,1,,,,,ツカサコウゲイ,0
1381,6180001015767,登記記録の閉鎖等,0,2021-08-25,2021-08-20,株式会社山下建築設計事務所,,株式会社,愛知県,名古屋市南区,大堀町７番２１号,,23,112,4570002,,,2021-08-20,清算の結了等,,,2015-10-05,1,,,,,ヤマシタケンチクセッケイジムショ,0
1382,6180001114412,登記記録の閉鎖等,0,2021-08-25,2021-08-20,株式会社ダイアリークリエイト,,株式会社,愛知県,名古屋市瑞穂区,洲山町１丁目５５番地の１トミービル５階,,23,108,4670066,,,2021-08-20,清算の結了等,,,2015-10-05,1,,,,,ダイアリークリエイト,0
1391,6180002038115,登記記録の閉鎖等,0,2021-08-25,2021-08-20,有限会社タケホーム,,有限会社,愛知県,名古屋市東区,葵２丁目１０番２号,,23,102,4610004,,,2021-08-20,清算の結了等,,,2015-10-05,1,,,,,タケホーム,0
1396,6180302024921,登記記録の閉鎖等,0,2021-08-25,2021-08-23,有限会社デイズ,,有限会社,愛知県,豊田市,竹生町４丁目５２番地,,23,211,4710077,,,2021-08-23,清算の結了等,,,2015-10-05,1,,,,,デイズ,0
1402,6200005011339,登記記録の閉鎖等,0,2021-08-25,2021-08-20,特定非営利活動法人喜望会,,その他の設立登記法人,岐阜県,美濃市,上野２番地２,,21,207,5013787,,,2021-08-20,清算の結了等,,,2015-10-05,1,,,,,キボウカイ,0
1406,6240001030181,登記記録の閉鎖等,0,2021-08-25,2021-08-12,ダブルウッド株式会社,,株式会社,広島県,福山市,三吉町３丁目２番８号,,34,207,7200031,,,2021-08-12,清算の結了等,,,2015-10-05,1,,,,,,0
1429,6290002041173,登記記録の閉鎖等,0,2021-08-25,2021-08-04,有限会社松岡工業,,有限会社,福岡県,春日市,須玖北７丁目１２０番地,,40,218,8160864,,,2021-08-04,清算の結了等,,,2015-10-05,1,,,,,マツオカコウギョウ,0
1434,6310002015141,登記記録の閉鎖等,0,2021-08-25,2021-08-18,有限会社コバヤシ商事,,有限会社,長崎県,諫早市,鷲崎町３０２番地,,42,204,8540051,,,2021-08-18,清算の結了等,,,2015-10-05,1,,,,,コバヤシショウジ,0
1438,6330001017327,登記記録の閉鎖等,0,2021-08-25,2021-08-20,株式会社のどか,,株式会社,熊本県,球磨郡多良木町,大字久米６０１番地,,43,505,8680503,,,2021-08-20,清算の結了等,,,2015-10-05,1,,,,,ノドカ,0
1454,6370202000433,登記記録の閉鎖等,0,2021-08-25,2021-08-11,有限会社佐々木ボーリング工業,,有限会社,宮城県,大崎市,古川北稲葉３丁目３番３号,,04,215,9896145,,,2021-08-11,清算の結了等,,,2015-10-05,1,,,,,ササキボーリングコウギョウ,0
1457,6390002010911,登記記録の閉鎖等,0,2021-08-25,2021-08-20,有限会社蝶屋,,有限会社,山形県,新庄市,本町６番７号,,06,205,9960027,,,2021-08-20,清算の結了等,,,2015-10-05,1,,,,,チョウヤ,0
1459,6410001009019,登記記録の閉鎖等,0,2021-08-25,2021-08-23,ソフト・シリカ株式会社,,株式会社,秋田県,横手市,大森町八沢木字坂ノ下６０番地２,,05,203,0130561,,,2021-08-23,合併による解散等,4011101011674,令和３年８月１日東京都杉並区清水一丁目１６番５号ＩＷＡＩビル四階ソフト・シリカ株式会社（4011101011674）に合併し解散,2015-10-05,1,,,,,ソフトシリカ,0
1469,6430002021994,登記記録の閉鎖等,0,2021-08-25,2021-08-11,有限会社リゾート二一,,有限会社,北海道,札幌市南区,簾舞二条１丁目５番１８号,,01,106,0612262,,,2021-08-11,清算の結了等,,,2015-10-05,1,,,,,リゾートニジュウイチ,0
1472,6440002003728,登記記録の閉鎖等,0,2021-08-25,2021-08-23,有限会社ビューコンタクト,,有限会社,北海道,北斗市,東浜２丁目４番１号,,01,236,0490122,,,2021-08-23,清算の結了等,,,2015-10-05,1,,,,,ビューコンタクト,0
1475,6490002011461,登記記録の閉鎖等,0,2021-08-25,2021-08-20,有限会社香北自動車販売,,有限会社,高知県,香美市,香北町韮生野８４５番地２,,39,212,7814211,,,2021-08-20,清算の結了等,,,2015-10-05,1,,,,,カホクジドウシャハンバイ,0
1496,7010402003345,登記記録の閉鎖等,0,2021-08-25,2021-08-10,有限会社カウベル,,有限会社,東京都,港区,西新橋３丁目１８番１号,,13,103,1050003,,,2021-08-10,清算の結了等,,,2015-10-05,1,,,,,,0
1498,7010403020983,登記記録の閉鎖等,0,2021-08-25,2021-08-10,ＹＵＬＡＧＩ合同会社,,合同会社,東京都,港区,浜松町２丁目２番１５号浜松町ダイヤビル２Ｆ,,13,103,1050013,,,2021-08-10,清算の結了等,,,2019-07-04,1,,,,,ユラギ,0
1499,7010501027121,登記記録の閉鎖等,0,2021-08-25,2021-08-12,株式会社木住研,,株式会社,千葉県,千葉市花見川区,宮野木台３丁目３番１号ルミエール１０７号,,12,102,2620015,,,2021-08-12,清算の結了等,,,2015-10-05,1,,,,,モクジュウケン,0
1507,7010801008977,登記記録の閉鎖等,0,2021-08-25,2021-08-16,株式会社日本情報企画,,株式会社,東京都,大田区,大森北１丁目１５番１４号,,13,111,1430016,,,2021-08-16,清算の結了等,,,2015-10-05,1,,,,,ニホンジョウホウキカク,0
1508,7010803002838,登記記録の閉鎖等,0,2021-08-25,2021-08-17,合同会社Ｅｍｐｒｅｓｓ,,合同会社,東京都,大田区,蒲田５丁目２０番３号,,13,111,1440052,,,2021-08-17,清算の結了等,,,2018-10-30,1,,,,,エンプレス,0
1520,7011102026330,登記記録の閉鎖等,0,2021-08-25,2021-08-03,有限会社ピュアスマイル,,有限会社,東京都,新宿区,大京町２２番８号５０４,,13,104,1600015,,,2021-08-03,清算の結了等,,,2015-10-05,1,,,,,ピュアスマイル,0
1523,7011201001300,登記記録の閉鎖等,0,2021-08-25,2021-08-23,キクマツヤ販売株式会社,,株式会社,東京都,中野区,中野５丁目５２番１５号,,13,114,1640001,,,2021-08-23,清算の結了等,,,2015-10-05,1,,,,,キクマツヤハンバイ,0
1528,7011502004919,登記記録の閉鎖等,0,2021-08-25,2021-08-23,有限会社ヒットユニホーム,,有限会社,東京都,北区,赤羽２丁目３８番６号,,13,117,1150045,,,2021-08-23,清算の結了等,,,2015-10-05,1,,,,,ヒットユニホーム,0
1539,7012702014063,登記記録の閉鎖等,0,2021-08-25,2021-08-23,有限会社オフィス・サキムラ,,有限会社,東京都,小平市,学園東町３丁目６番３７号,,13,211,1870043,,,2021-08-23,清算の結了等,,,2015-10-05,1,,,,,オフィスサキムラ,0
1544,7013305001341,登記記録の閉鎖等,0,2021-08-25,2021-08-18,特定非営利活動法人松柏緑の大地,,その他の設立登記法人,東京都,豊島区,東池袋１丁目５番６号,,13,116,1700013,,,2021-08-18,清算の結了等,,,2015-10-05,1,,,,,ショウハクミドリノダイチ,0
1550,7020001126546,登記記録の閉鎖等,0,2021-08-25,2021-08-20,株式会社モイスト,,株式会社,神奈川県,横浜市港北区,新横浜２丁目６番地３ＤＳＭ新横浜ビル７階,,14,109,2220033,,,2021-08-20,清算の結了等,,,2018-06-01,1,,,,,モイスト,0
1551,7020001132684,登記記録の閉鎖等,0,2021-08-25,2021-08-19,株式会社トライデント,,株式会社,東京都,港区,芝大門１丁目４番４号,,13,103,1050012,,,2021-08-19,清算の結了等,,,2019-09-05,1,,,,,トライデント,0
1562,7030001039375,登記記録の閉鎖等,0,2021-08-25,2021-08-11,首恵株式会社,,株式会社,埼玉県,草加市,谷塚町１３７９番地８プレステージ谷塚３－１０６号,,11,221,3400023,,,2021-08-11,清算の結了等,,,2015-10-05,1,,,,,ソーホー,0
1594,7060002019852,登記記録の閉鎖等,0,2021-08-25,2021-08-11,有限会社金子材木店,,有限会社,栃木県,鹿沼市,泉町１９９９番地２,,09,205,3220062,,,2021-08-11,清算の結了等,,,2015-10-05,1,,,,,カネコザイモクテン,0
1596,7070002016931,登記記録の閉鎖等,0,2021-08-25,2021-08-19,有限会社ヤサカ不動産,,有限会社,群馬県,富岡市,内匠２５９番地３,,10,210,3702331,,,2021-08-19,清算の結了等,,,2015-10-05,1,,,,,ヤサカフドウサン,0
1606,7100002032727,登記記録の閉鎖等,0,2021-08-25,2021-08-23,有限会社北原材木店,,有限会社,長野県,伊那市,高遠町小原１１２０番地,,20,209,3960215,,,2021-08-23,清算の結了等,,,2015-10-05,1,,,,,キタハラザイモクテン,0
1621,7120002030241,登記記録の閉鎖等,0,2021-08-25,2021-08-17,有限会社グッドアングル,,有限会社,大阪府,大阪市北区,茶屋町６番１８号,,27,127,5300013,,,2021-08-17,清算の結了等,,,2015-10-05,1,,,,,グッドアングル,0
1633,7130002007536,登記記録の閉鎖等,0,2021-08-25,2021-08-23,有限会社東洋企画,,有限会社,京都府,京都市下京区,中堂寺鍵田町２番地,,26,106,6008805,,,2021-08-23,清算の結了等,,,2015-10-05,1,,,,,,0
1650,7180001063006,登記記録の閉鎖等,0,2021-08-25,2021-08-23,株式会社伊藤工業所,,株式会社,愛知県,名古屋市熱田区,明野町２番２１号,,23,109,4560071,,,2021-08-23,清算の結了等,,,2015-10-05,1,,,,,イトウコウギョウショ,0
1657,7180302025456,登記記録の閉鎖等,0,2021-08-25,2021-08-23,有限会社エモーション,,有限会社,愛知県,みよし市,三好丘１丁目５番地３,,23,236,4700202,,,2021-08-23,清算の結了等,,,2015-10-05,1,,,,,エモーション,0
1661,7200001004741,登記記録の閉鎖等,0,2021-08-25,2021-08-24,堀株式会社,,株式会社,岐阜県,岐阜市,九重町１丁目１３番地,,21,201,5008146,,,2021-08-24,清算の結了等,,,2015-10-05,1,,,,,,0
1664,7240001021163,登記記録の閉鎖等,0,2021-08-25,2021-08-11,株式会社広島教育研究社,,株式会社,広島県,広島市安佐南区,上安２丁目２５番２０－１０４号,,34,105,7310154,,,2021-08-11,清算の結了等,,,2015-10-05,1,,,,,ヒロシマキョウイクケンキュウシャ,0
1686,7330002027480,登記記録の閉鎖等,0,2021-08-25,2021-08-20,有限会社芦北開発,00097947,有限会社,熊本県,葦北郡芦北町,大字白木１３７０番地の１,,43,482,8696308,,,2021-08-20,清算の結了等,,,2015-10-05,1,,,,,アシキタカイハツ,0
1690,7340002009024,登記記録の閉鎖等,0,2021-08-25,2021-08-19,有限会社丸岩建装,,有限会社,鹿児島県,鹿児島市,西伊敷４丁目４８番３号,,46,201,8900002,,,2021-08-19,清算の結了等,,,2015-10-05,1,,,,,マルイワケンソウ,0
1699,7420002010089,登記記録の閉鎖等,0,2021-08-25,2021-08-19,マルナカ呉服店有限会社,,有限会社,青森県,三戸郡田子町,大字田子字田子５４番地,,02,443,0390201,,,2021-08-19,清算の結了等,,,2015-10-05,1,,,,,,0
1724,8010401013212,登記記録の閉鎖等,0,2021-08-25,2021-08-11,システム情報開発株式会社,,株式会社,東京都,港区,芝大門１丁目１番１２号高山ビル,,13,103,1050012,,,2021-08-11,清算の結了等,,,2015-10-05,1,,,,,システムジョウホウカイハツ,0
1739,8010701025163,登記記録の閉鎖等,0,2021-08-25,2021-08-18,アビオンインターナショナル株式会社,,株式会社,東京都,杉並区,久我山３丁目１７番２１号,,13,115,1680082,,,2021-08-18,清算の結了等,,,2015-10-05,1,,,,,アビオンインターナショナル,0
1741,8010701039403,登記記録の閉鎖等,0,2021-08-25,2021-08-13,Ｔｒｉｐｌｅｔ株式会社,,株式会社,東京都,品川区,東品川４丁目１０番１８－８１０号,,13,109,1400002,,,2021-08-13,清算の結了等,,,2020-06-17,1,,,,,トリプレット,0
1757,8011305002573,登記記録の閉鎖等,0,2021-08-25,2021-08-12,一般社団法人Ｒｅ－Ｐｌａｃｅ,,その他の設立登記法人,東京都,杉並区,高円寺北２丁目２９番５号グラン・ドミール１０３号室,,13,115,1660002,,,2021-08-12,清算の結了等,,,2019-08-06,1,,,,,リプレイス,0
1772,8013301020286,登記記録の閉鎖等,0,2021-08-25,2021-08-18,カワシマクロージング株式会社,,株式会社,東京都,豊島区,南大塚３丁目１５番６号,,13,116,1700005,,,2021-08-18,清算の結了等,,,2015-10-05,1,,,,,カワシマクロージング,0
1773,8013301046793,登記記録の閉鎖等,0,2021-08-25,2021-08-18,株式会社４Ｄ,,株式会社,東京都,豊島区,東池袋１丁目３６番７号アルテール池袋２Ｆ,,13,116,1700013,,,2021-08-18,清算の結了等,,,2021-01-13,1,,,,,フォーディー,0
1783,8020002032973,登記記録の閉鎖等,0,2021-08-25,2021-08-20,有限会社大内工業,,有限会社,神奈川県,横浜市港北区,新吉田町４１９６番地３７,,14,109,2230056,,,2021-08-20,清算の結了等,,,2015-10-05,1,,,,,,0
1785,8020002089510,登記記録の閉鎖等,0,2021-08-25,2021-08-20,有限会社高木電気商会,00011535,有限会社,神奈川県,川崎市高津区,溝口５丁目７番７号,,14,134,2130001,,,2021-08-20,清算の結了等,,,2015-10-05,1,,,,,タカギデンキショウカイ,0
1792,8021002059494,登記記録の閉鎖等,0,2021-08-25,2021-08-20,有限会社文樹堂,,有限会社,神奈川県,平塚市,横内３７９０番地,,14,203,2540002,,,2021-08-20,清算の結了等,,,2015-10-05,1,,,,,ブンキドウ,0
1800,8030001049299,登記記録の閉鎖等,0,2021-08-25,2021-08-11,株式会社アックケア事務所,,株式会社,埼玉県,富士見市,鶴瀬西３丁目３番７号,,11,235,3540026,,,2021-08-11,清算の結了等,,,2015-10-05,1,,,,,アックケアジムショ,0
1811,8040002006810,登記記録の閉鎖等,0,2021-08-25,2021-08-17,有限会社ダイヤ,,有限会社,千葉県,千葉市花見川区,花園２丁目１番３号,,12,102,2620025,,,2021-08-17,清算の結了等,,,2015-10-05,1,,,,,ダイヤ,0
1819,8080101004273,登記記録の閉鎖等,0,2021-08-25,2021-08-23,ＴＢソーテック関東株式会社,,株式会社,静岡県,裾野市,須山２８１０番地の４,,22,220,4101231,,,2021-08-23,清算の結了等,,,2015-10-05,1,,,,,ティービーソーテックカントウ,0
1825,8120001132153,登記記録の閉鎖等,0,2021-08-25,2021-08-24,アンジュ株式会社,,株式会社,大阪府,泉佐野市,大西２丁目３番５６号,,27,213,5980043,,,2021-08-24,清算の結了等,,,2015-10-05,1,,,,,アンジュ,0
1830,8120001203689,登記記録の閉鎖等,0,2021-08-25,2021-08-16,Ｇｉｖｅ＆Ｇｉｖｅｎ　Ｓｔｙｌｅ株式会社,,株式会社,大阪府,大阪市中央区,久太郎町１丁目２番７号,,27,128,5410056,,,2021-08-16,清算の結了等,,,2017-02-15,1,,,,,,0
1841,8120102027938,登記記録の閉鎖等,0,2021-08-25,2021-08-20,有限会社シンタク,,有限会社,大阪府,阪南市,新町２７１番地,,27,232,5990205,,,2021-08-20,清算の結了等,,,2015-10-05,1,,,,,シンタク,0
1862,8170002009189,登記記録の閉鎖等,0,2021-08-25,2021-08-20,有限会社マリンクラブスサミ,,有限会社,和歌山県,西牟婁郡すさみ町,周参見３３６３番地の３,,30,406,6492621,,,2021-08-20,清算の結了等,,,2015-10-05,1,,,,,マリンクラブスサミ,0
1863,8170005005227,登記記録の閉鎖等,0,2021-08-25,2021-08-20,特定非営利活動法人魅来づくりわかやま,,その他の設立登記法人,和歌山県,西牟婁郡すさみ町,周参見３３６３番地の３,,30,406,6492621,,,2021-08-20,清算の結了等,,,2015-10-05,1,,,,,ミライヅクリワカヤマ,0
1881,8180301032485,登記記録の閉鎖等,0,2021-08-25,2021-08-24,株式会社ウィルマテリアル,,株式会社,愛知県,安城市,三河安城町１丁目１１番地１,,23,212,4460056,,,2021-08-24,清算の結了等,,,2019-04-12,1,,,,,ウィルマテリアル,0
1884,8200001007644,登記記録の閉鎖等,0,2021-08-25,2021-08-23,株式会社明幸,,株式会社,岐阜県,各務原市,須衛町２丁目８５番地,,21,213,5090108,,,2021-08-23,清算の結了等,,,2015-10-05,1,,,,,メイコウ,0
1887,8200002026032,登記記録の閉鎖等,0,2021-08-25,2021-08-20,有限会社霧氷館,,有限会社,岐阜県,高山市,三福寺町１６９番地,,21,203,5060807,,,2021-08-20,清算の結了等,,,2015-10-05,1,,,,,ムヒョウカン,0
1901,8280001003479,登記記録の閉鎖等,0,2021-08-25,2021-08-23,株式会社大幸,,株式会社,島根県,出雲市,大社町北荒木６４５番地,,32,203,6990722,,,2021-08-23,清算の結了等,,,2015-10-05,1,,,,,ダイコウ,0
1909,8290002035025,登記記録の閉鎖等,0,2021-08-25,2021-08-02,栄光商事有限会社,,有限会社,福岡県,宗像市,日の里６丁目５番２号Ｂ棟１０１号,,40,220,8113425,,,2021-08-02,清算の結了等,,,2015-10-05,1,,,,,エイコウショウジ,0
1916,8330001011690,登記記録の閉鎖等,0,2021-08-25,2021-08-23,株式会社ロータス観光,,株式会社,熊本県,荒尾市,万田８９２番地１,,43,204,8640002,,,2021-08-23,清算の結了等,,,2015-10-05,1,,,,,ロータスカンコウ,0
1917,8340002028064,登記記録の閉鎖等,0,2021-08-25,2021-08-18,有限会社メガネの福留,,有限会社,鹿児島県,志布志市,有明町野井倉７４９１番地１,,46,221,8997402,,,2021-08-18,清算の結了等,,,2015-10-05,1,,,,,メガネノフクドメ,0
1918,8340003000773,登記記録の閉鎖等,0,2021-08-25,2021-08-18,南製油合名会社,,合名会社,鹿児島県,指宿市,十町２８３９番地,,46,210,8910402,,,2021-08-18,清算の結了等,,,2015-10-05,1,,,,,ミナミセイユ,0
1932,8410001001444,登記記録の閉鎖等,0,2021-08-25,2021-08-23,株式会社鈴木三翠園,,株式会社,秋田県,秋田市,雄和椿川字前椿岱４１９番地１１,,05,201,0101211,,,2021-08-23,清算の結了等,,,2015-10-05,1,,,,,スズキサンスイエン,0
1933,8410002003381,登記記録の閉鎖等,0,2021-08-25,2021-08-23,有限会社北陽電機工業所,,有限会社,秋田県,秋田市,飯島長野中町７番２４号,,05,201,0110925,,,2021-08-23,清算の結了等,,,2015-10-05,1,,,,,ホクヨウデンキコウギョウショ,0
1936,8410002012473,登記記録の閉鎖等,0,2021-08-25,2021-08-23,有限会社大友林業,,有限会社,秋田県,仙北市,田沢湖生保内字下高野２６１番地,,05,215,0141201,,,2021-08-23,清算の結了等,,,2015-10-05,1,,,,,オオトモリンギョウ,0
1951,9010001005947,登記記録の閉鎖等,0,2021-08-25,2021-08-17,日本ピーアール工芸株式会社,,株式会社,東京都,文京区,春日１丁目９番３０号,,13,105,1120003,,,2021-08-17,清算の結了等,,,2015-10-05,1,,,,,ニホンピーアールコウゲイ,0
1965,9010102006019,登記記録の閉鎖等,0,2021-08-25,2021-08-20,有限会社藤本商事,,有限会社,東京都,八王子市,元横山町１丁目２８番８号,,13,201,1920063,,,2021-08-20,清算の結了等,,,2015-10-05,1,,,,,,0
1970,9010401126285,登記記録の閉鎖等,0,2021-08-25,2021-08-12,ウェードコム株式会社,,株式会社,東京都,港区,芝３丁目２４番１号,,13,103,1050014,,,2021-08-12,清算の結了等,,,2016-08-05,1,,,,,ウェードコム,0
1980,9010602001031,登記記録の閉鎖等,0,2021-08-25,2021-08-06,有限会社旭商会,,有限会社,東京都,江東区,亀戸６丁目５７番１６号,,13,108,1360071,,,2021-08-06,清算の結了等,,,2015-10-05,1,,,,,アサヒショウカイ,0
1986,9010903005697,登記記録の閉鎖等,0,2021-08-25,2021-08-19,合同会社パーチェス,,合同会社,東京都,世田谷区,北烏山５丁目２１番６号,,13,112,1570061,,,2021-08-19,清算の結了等,,,2020-05-20,1,,,,,パーチェス,0
2002,9011602002622,登記記録の閉鎖等,0,2021-08-25,2021-08-20,有限会社神田電設,,有限会社,東京都,練馬区,貫井５丁目２８番１１号,,13,120,1760021,,,2021-08-20,清算の結了等,,,2021-06-11,1,,,,,カンダデンセツ,0
2015,9013202006788,登記記録の閉鎖等,0,2021-08-25,2021-08-18,有限会社ライアー,,有限会社,東京都,目黒区,上目黒４丁目２３番９号,,13,110,1530051,,,2021-08-18,清算の結了等,,,2015-10-05,1,,,,,ライアー,0
2025,9020001021183,登記記録の閉鎖等,0,2021-08-25,2021-08-20,株式会社ナムテック,,株式会社,神奈川県,横浜市都筑区,牛久保２丁目２３番１号,,14,118,2240012,,,2021-08-20,清算の結了等,,,2015-10-05,1,,,,,ナムテック,0
2026,9020001037535,登記記録の閉鎖等,0,2021-08-25,2021-08-20,株式会社シティーセレモニー,,株式会社,神奈川県,横浜市中区,本牧町２丁目２８８番地ニューパース本牧３０３号室,,14,104,2310806,,,2021-08-20,清算の結了等,,,2015-10-05,1,,,,,シティーセレモニー,0
2037,9020005009043,登記記録の閉鎖等,0,2021-08-25,2021-08-19,一般社団法人成就院,,その他の設立登記法人,神奈川県,川崎市中原区,小杉陣屋町１丁目３２番１号,,14,133,2110062,,,2021-08-19,清算の結了等,,,2015-10-05,1,,,,,ジョウジュイン,0
2057,9040002087222,登記記録の閉鎖等,0,2021-08-25,2021-08-13,遊佐企画有限会社,,有限会社,千葉県,香取市,北２丁目１２番地６,,12,236,2870002,,,2021-08-13,清算の結了等,,,2015-10-05,1,,,,,ユサキカク,0
2066,9060002005520,登記記録の閉鎖等,0,2021-08-25,2021-08-12,有限会社タイセイコーポレーション,,有限会社,栃木県,宇都宮市,上横田町７５６番地１３,,09,201,3210106,,,2021-08-12,清算の結了等,,,2015-10-05,1,,,,,タイセイコーポレーション,0
2069,9080005005623,登記記録の閉鎖等,0,2021-08-25,2021-08-18,特定非営利活動法人アジア人材支援センター,,その他の設立登記法人,静岡県,焼津市,中島７６１番地,,22,212,4210214,,,2021-08-18,清算の結了等,,,2015-10-05,1,,,,,アジアジンザイシエンセンター,0
2071,9090002014262,登記記録の閉鎖等,0,2021-08-25,2021-08-18,有限会社ファミリーストアまちや,,有限会社,山梨県,北杜市,高根町村山北割１９６５番地,,19,209,4080002,,,2021-08-18,清算の結了等,,,2015-10-05,1,,,,,,0
2077,9120001064692,登記記録の閉鎖等,0,2021-08-25,2021-08-17,株式会社塩見経営研究所,,株式会社,大阪府,大阪市北区,梅田１丁目３番１－３００号大阪駅前第一ビル,,27,127,5300001,,,2021-08-17,清算の結了等,,,2015-10-05,1,,,,,シオミケイエイケンキュウショ,0
2083,9120005010081,登記記録の閉鎖等,0,2021-08-25,2021-08-23,特定非営利活動法人大阪脳損傷者サポートセンター,,その他の設立登記法人,大阪府,大阪市浪速区,桜川４丁目９番２７号,,27,111,5560022,,,2021-08-23,清算の結了等,,,2015-10-05,1,,,,,オオサカノウソンショウシャサポートセンター,0
2097,9140001063874,登記記録の閉鎖等,0,2021-08-25,2021-08-23,株式会社アルバコーポレーション,,株式会社,兵庫県,姫路市,南畝町２丁目７６,,28,201,6700961,,,2021-08-23,清算の結了等,,,2015-10-05,1,,,,,アルバコーポレーション,0
2100,9140005019022,登記記録の閉鎖等,0,2021-08-25,2021-08-23,特定非営利活動法人カルチャーハブプロジェクト,,その他の設立登記法人,兵庫県,川西市,南花屋敷４丁目１３番２１号,,28,217,6660026,,,2021-08-23,清算の結了等,,,2015-10-05,1,,,,,カルチャーハブプロジェクト,0
2103,9180001079891,登記記録の閉鎖等,0,2021-08-25,2021-08-20,株式会社旭洋製作所,,株式会社,愛知県,瀬戸市,南山口町１４６番地,,23,204,4890965,,,2021-08-20,清算の結了等,,,2015-10-05,1,,,,,キョクヨウセイサクショ,0
2113,9200001025380,登記記録の閉鎖等,0,2021-08-25,2021-08-20,株式会社カナディアン,,株式会社,岐阜県,高山市,江名子町１７３４番地１,,21,203,5060818,,,2021-08-20,清算の結了等,,,2015-10-05,1,,,,,カナディアン,0
2119,9230001009513,登記記録の閉鎖等,0,2021-08-25,2021-08-23,株式会社元気おやべ,,株式会社,富山県,小矢部市,桜町１１３５番地１,,16,209,9320022,,,2021-08-23,清算の結了等,,,2015-10-05,1,,,,,ゲンキオヤベ,0
2178,9430002057978,登記記録の閉鎖等,0,2021-08-25,2021-08-12,有限会社飯田創建,,有限会社,北海道,苫小牧市,拓勇西町４丁目１７番１３号,,01,213,0591302,,,2021-08-12,清算の結了等,,,2015-10-05,1,,,,,イイダソウケン,0
2179,9430005010075,登記記録の閉鎖等,0,2021-08-25,2021-08-10,室蘭建築設計協同組合,,その他の設立登記法人,北海道,室蘭市,東町１丁目５番１５号,,01,205,0500083,,,2021-08-10,清算の結了等,,,2015-10-05,1,,,,,ムロランケンチクセッケイ,0
