sequenceNumber,corporateNumber,process,correct,updateDate,changeDate,name,nameImageId,kind,prefectureName,cityName,streetNumber,addressImageId,prefectureCode,cityCode,postCode,addressOutside,addressOutsideImageId,closeDate,closeCause,successorCorporateNumber,changeCause,assignmentDate,latest,enName,enPrefectureName,enCityName,enAddressOutside,furigana,hihyoji
4,1010001128177,登記記録の閉鎖等,0,2024-09-09,2024-09-04,ＩＴＢＵ株式会社,,株式会社,東京都,墨田区,江東橋１丁目９番５－８０１号,,13,107,1300022,,,2024-09-04,清算の結了等,,,2015-10-05,1,,,,,アイティービーユー,0
6,1010001221246,登記記録の閉鎖等,0,2024-09-09,2024-09-02,ＴＣＳアライアンス株式会社,,株式会社,東京都,中央区,日本橋本町４丁目８番１４号,,13,102,1030023,,,2024-09-02,合併による解散等,9010001234777,令和６年９月１日東京都中央区日本橋本町四丁目８番１４号ＴＣＳホールディングス株式会社（9010001234777）に合併し解散,2021-10-01,1,,,,,ティーシーエスアライアンス,0
15,1010003020951,登記記録の閉鎖等,0,2024-09-09,2024-08-26,合同会社鹿嶋・姫路,,合同会社,東京都,千代田区,二番町３番地麹町スクエア株式会社シリウス・アドバイザリー内,,13,101,1020084,,,2024-08-26,清算の結了等,,,2015-10-05,1,,,,,カシマヒメジ,0
16,1010003030059,登記記録の閉鎖等,0,2024-09-09,2024-08-29,合同会社成城,,合同会社,東京都,文京区,湯島４丁目６番１１号,,13,105,1130034,,,2024-08-29,清算の結了等,,,2019-06-20,1,,,,,セイジョウ,0
22,1010005015322,登記記録の閉鎖等,0,2024-09-09,2024-09-03,特定非営利活動法人環境フロンティア２１,,その他の設立登記法人,東京都,中央区,八丁堀３丁目１７番地１３ＴＭＹビル６階,,13,102,1040032,,,2024-09-03,清算の結了等,,,2015-10-05,1,,,,,カンキョウフロンティアニジュウイチ,0
34,1010601035104,登記記録の閉鎖等,0,2024-09-09,2024-09-05,株式会社アス,,株式会社,東京都,江東区,亀戸７丁目３９番１１－３０３号,,13,108,1360071,,,2024-09-05,清算の結了等,,,2015-10-05,1,,,,,アス,0
51,1011101101057,登記記録の閉鎖等,0,2024-09-09,2024-08-26,ＴＲＥソリューションズグループ株式会社,,株式会社,東京都,新宿区,西早稲田１丁目８－１２－５０１,,13,104,1690051,,,2024-08-26,清算の結了等,,,2022-12-05,1,,,,,ティーアールイーソリューションズグループ,0
63,1011802014953,登記記録の閉鎖等,0,2024-09-09,2024-09-04,有限会社第一クリーニング商会,,有限会社,東京都,足立区,島根４丁目２４番２号,,13,121,1210815,,,2024-09-04,清算の結了等,,,2015-10-05,1,,,,,ダイイチクリーニングショウカイ,0
64,1011802016280,登記記録の閉鎖等,0,2024-09-09,2024-09-04,有限会社東條防水工業,,有限会社,東京都,足立区,大谷田３丁目４番９号,,13,121,1200001,,,2024-09-04,清算の結了等,,,2015-10-05,1,,,,,,0
66,1012402023270,登記記録の閉鎖等,0,2024-09-09,2024-09-05,有限会社フィティー,,有限会社,東京都,武蔵野市,吉祥寺北町５丁目１番９号,,13,203,1800001,,,2024-09-05,清算の結了等,,,2015-10-05,1,,,,,フィティー,0
68,1012702010340,登記記録の閉鎖等,0,2024-09-09,2024-09-02,有限会社ハンナ,,有限会社,東京都,東村山市,廻田町３丁目１４番地４７,,13,213,1890025,,,2024-09-02,清算の結了等,,,2015-10-05,1,,,,,ハンナ,0
70,1013301044655,登記記録の閉鎖等,0,2024-09-09,2024-09-02,株式会社ＯＰＥＮ,,株式会社,東京都,豊島区,西池袋４丁目８番２－３０１号,,13,116,1710021,,,2024-09-02,清算の結了等,,,2019-10-24,1,,,,,オープン,0
76,1020001081697,登記記録の閉鎖等,0,2024-09-09,2024-08-19,株式会社Ｔ－グランドホーム,,株式会社,神奈川県,川崎市幸区,塚越３丁目１４２番地５,,14,132,2120024,,,2024-08-19,清算の結了等,,,2015-10-05,1,,,,,,0
78,1020001094823,登記記録の閉鎖等,0,2024-09-09,2024-08-23,大崎精工株式会社,,株式会社,神奈川県,川崎市宮前区,犬蔵１丁目１２番１０－２号,,14,136,2160011,,,2024-08-23,清算の結了等,,,2015-10-05,1,,,,,オオサキセイコウ,0
87,1021001010381,登記記録の閉鎖等,0,2024-09-09,2024-08-22,株式会社ウィル,,株式会社,神奈川県,川崎市中原区,下小田中６丁目３１番７－１０３号,,14,133,2110041,,,2024-08-22,清算の結了等,,,2015-10-05,1,,,,,ウィル,0
100,1030005016962,登記記録の閉鎖等,0,2024-09-09,2024-09-02,特定非営利活動法人きたまる,,その他の設立登記法人,埼玉県,さいたま市大宮区,桜木町４丁目２４４番１号都築ビル２Ｆ,,11,103,3300854,,,2024-09-02,清算の結了等,,,2015-10-05,1,,,,,キタマル,0
103,1040001032087,登記記録の閉鎖等,0,2024-09-09,2024-08-29,株式会社ガルテン,,株式会社,千葉県,市川市,鬼高１丁目７番３号,,12,203,2720015,,,2024-08-29,清算の結了等,,,2015-10-05,1,,,,,ガルテン,0
110,1050001025461,登記記録の閉鎖等,0,2024-09-09,2024-09-03,内藤産業株式会社,,株式会社,茨城県,北相馬郡利根町,大字早尾２００番地４５,,08,564,3001631,,,2024-09-03,清算の結了等,,,2015-10-05,1,,,,,ナイトウサンギョウ,0
114,1050001045229,登記記録の閉鎖等,0,2024-09-09,2024-09-02,株式会社六大,,株式会社,茨城県,土浦市,板谷６丁目６５１番地９４,,08,203,3000007,,,2024-09-02,清算の結了等,,,2018-11-20,1,,,,,ロクダイ,0
125,1070005000707,登記記録の閉鎖等,0,2024-09-09,2024-09-04,医療法人順道会,,その他の設立登記法人,群馬県,前橋市,下小出町２丁目１３番地の１０,,10,201,3710031,,,2024-09-04,清算の結了等,,,2015-10-05,1,,,,,ジュンドウカイ,0
128,1080101021168,登記記録の閉鎖等,0,2024-09-09,2024-09-03,株式会社ＷＦＰ,,株式会社,静岡県,三島市,梅名５７０番地の１０,,22,206,4110816,,,2024-09-03,清算の結了等,,,2019-06-04,1,,,,,ダブルエフピー,0
144,1120001171637,登記記録の閉鎖等,0,2024-09-09,2024-09-05,Ｊ＆Ｃ株式会社,,株式会社,大阪府,大阪市西区,江之子島１丁目７番３号,,27,106,5500006,,,2024-09-05,清算の結了等,,,2015-10-05,1,,,,,ジェイアンドシー,0
147,1120001247759,登記記録の閉鎖等,0,2024-09-09,2024-09-05,瑞翔株式会社,,株式会社,大阪府,大阪市中央区,松屋町９番２０号ローレルステート松屋町７０５Ａ,,27,128,5420067,,,2024-09-05,清算の結了等,,,2022-08-03,1,,,,,ズイショウ,0
161,1120903000612,登記記録の閉鎖等,0,2024-09-09,2024-09-04,合同会社望月,,合同会社,大阪府,茨木市,西河原１丁目１８番４１２号,,27,211,5670023,,,2024-09-04,清算の結了等,,,2015-10-05,1,,,,,モチヅキ,0
162,1130001030809,登記記録の閉鎖等,0,2024-09-09,2024-09-02,築柴商事株式会社,,株式会社,京都府,京都市中京区,富小路通夷川下る鍛冶屋町３８７番地,,26,104,6040964,,,2024-09-02,合併による解散等,7130001068653,令和６年９月１日京都市中京区富小路通夷川下る鍛冶屋町３８７番地株式会社ツクシホールディングス（7130001068653）に合併し解散,2015-10-05,1,,,,,ツクシショウジ,0
165,1130003005569,登記記録の閉鎖等,0,2024-09-09,2024-09-05,ＳＳＹ合同会社,,合同会社,滋賀県,湖南市,下田８７９番地１７,,25,211,5203201,,,2024-09-05,清算の結了等,,,2018-07-02,1,,,,,エスエスワイ,0
167,1140001028736,登記記録の閉鎖等,0,2024-09-09,2024-09-02,株式会社アール経営研究所,,株式会社,兵庫県,神戸市東灘区,森北町１丁目７番１３号,,28,101,6580001,,,2024-09-02,合併による解散等,5140001118830,令和６年９月１日神戸市東灘区本山南町三丁目５番１０－６１３号株式会社Ａｚｕｒｅ（5140001118830）に合併し解散,2015-10-05,1,,,,,アールケイエイケンキュウショ,0
169,1140001095801,登記記録の閉鎖等,0,2024-09-09,2024-09-05,株式会社モレス・アセットマネジメント,,株式会社,兵庫県,西宮市,与古道町１番１３号,,28,204,6620917,,,2024-09-05,清算の結了等,,,2015-10-05,1,,,,,モレスアセットマネジメント,0
173,1180001008701,登記記録の閉鎖等,0,2024-09-09,2024-09-02,株式会社高峯,,株式会社,愛知県,名古屋市名東区,極楽２丁目３０番地,,23,115,4650053,,,2024-09-02,清算の結了等,,,2015-10-05,1,,,,,タカミネ,0
185,1190002009169,登記記録の閉鎖等,0,2024-09-09,2024-09-05,有限会社堤鉄工所,,有限会社,三重県,伊勢市,中須町４６２番地,,24,203,5160053,,,2024-09-05,清算の結了等,,,2015-10-05,1,,,,,ツツミテッコウショ,0
190,1200002013648,登記記録の閉鎖等,0,2024-09-09,2024-09-04,マルセ木材有限会社,,有限会社,岐阜県,不破郡関ケ原町,大字玉５２５番地の２,,21,362,5031545,,,2024-09-04,清算の結了等,,,2015-10-05,1,,,,,マルセモクザイ,0
192,1210001011057,登記記録の閉鎖等,0,2024-09-09,2024-09-04,株式会社真建,,株式会社,福井県,敦賀市,平和町２４番５号,,18,202,9140815,,,2024-09-04,清算の結了等,,,2015-10-05,1,,,,,シンケン,0
197,1240001056578,登記記録の閉鎖等,0,2024-09-09,2024-09-02,株式会社トータテ保険サービス,,株式会社,広島県,広島市中区,国泰寺町２丁目４番７号,,34,101,7300042,,,2024-09-02,合併による解散等,6240001007535,令和６年９月１日広島市中区国泰寺町二丁目４番７号トータテ住宅販売株式会社（6240001007535）に合併し解散,2020-09-03,1,,,,,トータテホケンサービス,0
198,1240002003471,登記記録の閉鎖等,0,2024-09-09,2024-09-04,有限会社おのをか,,有限会社,広島県,広島市中区,紙屋町２丁目２番８号,,34,101,7300031,,,2024-09-04,清算の結了等,,,2015-10-05,1,,,,,,0
214,1290001049189,登記記録の閉鎖等,0,2024-09-09,2024-07-31,株式会社司建装,,株式会社,福岡県,久留米市,野中町９１９番地２,,40,203,8390862,,,2024-07-31,清算の結了等,,,2015-10-05,1,,,,,ツカサケンソウ,0
221,1290002029669,登記記録の閉鎖等,0,2024-09-09,2024-07-29,有限会社ヴァルハラ,,有限会社,福岡県,福岡市東区,馬出６丁目２０－９,,40,131,8120054,,,2024-07-29,清算の結了等,,,2015-10-05,1,,,,,ヴァルハラ,0
229,1290803001421,登記記録の閉鎖等,0,2024-09-09,2024-07-30,合同会社はぐくみ,,合同会社,福岡県,糟屋郡新宮町,緑ケ浜４丁目１４番３０－１４１５号,,40,345,8110119,,,2024-07-30,清算の結了等,,,2015-10-05,1,,,,,ハグクミ,0
250,1440002007295,登記記録の閉鎖等,0,2024-09-09,2024-09-04,有限会社サンコー加工,,有限会社,北海道,北斗市,七重浜１丁目２番２号,,01,236,0490111,,,2024-09-04,清算の結了等,,,2015-10-05,1,,,,,サンコーカコウ,0
252,1440005001493,登記記録の閉鎖等,0,2024-09-09,2024-09-03,特定非営利活動法人じゅんさい沼ネイチャーセンター,,その他の設立登記法人,北海道,亀田郡七飯町,字西大沼３５９番地８,,01,337,0411355,,,2024-09-03,清算の結了等,,,2015-10-05,1,,,,,ジュンサイヌマネイチャーセンター,0
254,1470002007185,登記記録の閉鎖等,0,2024-09-09,2024-09-05,山中設備有限会社,,有限会社,香川県,高松市,六条町８３５番地６,,37,201,7610303,,,2024-09-05,清算の結了等,,,2015-10-05,1,,,,,ヤマナカセツビ,0
272,2010003026089,登記記録の閉鎖等,0,2024-09-09,2024-08-26,合同会社開発４１号,,合同会社,東京都,千代田区,一番町９番地８ノザワビルディング６階税理士法人シリウス内,,13,101,1020082,,,2024-08-26,清算の結了等,,,2017-09-21,1,,,,,カイハツヨンジュウイチゴウ,0
278,2010101003717,登記記録の閉鎖等,0,2024-09-09,2024-09-04,株式会社丸勝,,株式会社,東京都,八王子市,石川町２０５５番地の１,,13,201,1920032,,,2024-09-04,清算の結了等,,,2015-10-05,1,,,,,マルカツ,0
287,2010401085653,登記記録の閉鎖等,0,2024-09-09,2024-09-04,ＹＳＤライフスタイル株式会社,,株式会社,東京都,大田区,北千束１丁目２８番１２号,,13,111,1450062,,,2024-09-04,清算の結了等,,,2015-10-05,1,,,,,ワイエスディライフスタイル,0
290,2010401119592,登記記録の閉鎖等,0,2024-09-09,2024-08-15,株式会社Ｒｅｇａｌｏ,,株式会社,東京都,港区,高輪３丁目１２番９号,,13,103,1080074,,,2024-08-15,清算の結了等,,,2015-10-05,1,,,,,レガロ,0
303,2010801033559,登記記録の閉鎖等,0,2024-09-09,2024-09-03,株式会社アライ空設,,株式会社,東京都,大田区,池上６丁目２３番６号２０２,,13,111,1460082,,,2024-09-03,清算の結了等,,,2023-01-11,1,,,,,アライクウセツ,0
320,2011101095199,登記記録の閉鎖等,0,2024-09-09,2024-08-27,株式会社リオランド,,株式会社,東京都,新宿区,高田馬場１丁目２７番３－７０４,,13,104,1690075,,,2024-08-27,清算の結了等,,,2021-05-31,1,,,,,リオランド,0
326,2011202001304,登記記録の閉鎖等,0,2024-09-09,2024-09-05,有限会社岡村マンション,,有限会社,東京都,中野区,本町４丁目１９番１２－６０３号,,13,114,1640012,,,2024-09-05,清算の結了等,,,2015-10-05,1,,,,,オカムラマンション,0
333,2011501028626,登記記録の閉鎖等,0,2024-09-09,2024-09-05,明佳芯源株式会社,,株式会社,東京都,荒川区,南千住３丁目２７－２浅草ビル５０８号室,,13,118,1160003,,,2024-09-05,清算の結了等,,,2022-11-04,1,,,,,メイカシンゲン,0
336,2011801041353,登記記録の閉鎖等,0,2024-09-09,2024-09-02,株式会社Ｇパイン,,株式会社,千葉県,勝浦市,沢倉４４１－１勝浦ヒルトップ６０６,,12,218,2995231,,,2024-09-02,合併による解散等,9010001116678,令和６年９月１日千葉県勝浦市沢倉４４１－１勝浦ヒルトップ６０６株式会社Ｇククルズ（9010001116678）に合併し解散,2022-10-05,1,,,,,ジーパイン,0
348,2020001057622,登記記録の閉鎖等,0,2024-09-09,2024-08-16,株式会社ＫａＮａシステム,,株式会社,神奈川県,横浜市神奈川区,西神奈川１丁目６番地１２ＳＵＧＩＵＲＡ東神奈川駅前ビル７階,,14,102,2210822,,,2024-08-16,清算の結了等,,,2015-10-05,1,,,,,カナシステム,0
349,2020001060320,登記記録の閉鎖等,0,2024-09-09,2024-08-26,株式会社サンケン,,株式会社,神奈川県,横浜市鶴見区,上末吉５丁目２番３５号シャインスイック２０５号,,14,101,2300011,,,2024-08-26,清算の結了等,,,2015-10-05,1,,,,,サンケン,0
352,2020001087058,登記記録の閉鎖等,0,2024-09-09,2024-08-09,株式会社グローイングトゥギャザー,,株式会社,神奈川県,横浜市旭区,中沢１丁目１４番１９号,,14,112,2410814,,,2024-08-09,清算の結了等,,,2015-10-05,1,,,,,グローイングトゥギャザー,0
356,2020001120735,登記記録の閉鎖等,0,2024-09-09,2024-08-23,株式会社アンカープライド横浜,,株式会社,神奈川県,横浜市磯子区,洋光台３丁目３６番２５号,,14,107,2350045,,,2024-08-23,清算の結了等,,,2017-04-11,1,,,,,アンカープライドヨコハマ,0
362,2020003012732,登記記録の閉鎖等,0,2024-09-09,2024-08-21,合同会社緊急連絡先協会,,合同会社,神奈川県,横浜市神奈川区,栄町２－１キコー横浜ビル７Ｆ,,14,102,2210052,,,2024-08-21,清算の結了等,,,2017-05-15,1,,,,,キンキュウレンラクサキキョウカイ,0
376,2021002033133,登記記録の閉鎖等,0,2024-09-09,2024-09-05,有限会社堀内自動車整備工場,,有限会社,神奈川県,厚木市,松枝２丁目１番６号,,14,212,2430005,,,2024-09-05,清算の結了等,,,2015-10-05,1,,,,,ホリウチジドウシャセイビコウジョウ,0
393,2030005021342,登記記録の閉鎖等,0,2024-09-09,2024-09-03,ｔｈｉｃｋ　ｌｉｆｅ　ｔｅｎｄｅｒ一般社団法人,,その他の設立登記法人,埼玉県,戸田市,中町２丁目６番１１号シャーメゾン中町１０３号,,11,224,3350012,,,2024-09-03,清算の結了等,,,2023-08-04,1,,,,,スィックライフテンダー,0
420,2080002010046,登記記録の閉鎖等,0,2024-09-09,2024-09-03,有限会社静岡エイピーアール印刷センター,,有限会社,静岡県,静岡市駿河区,丸子５２０７番地の１,,22,102,4210103,,,2024-09-03,清算の結了等,,,2015-10-05,1,,,,,シズオカエイピーアールインサツセンター,0
425,2080103001613,登記記録の閉鎖等,0,2024-09-09,2024-08-29,合同会社ＭＪネット,,合同会社,静岡県,沼津市,本字錦町６４９番地の２,,22,203,4100867,,,2024-08-29,清算の結了等,,,2016-11-21,1,,,,,エムジェーネット,0
432,2100001013451,登記記録の閉鎖等,0,2024-09-09,2024-08-23,カガミ・インベストメント株式会社,,株式会社,長野県,松本市,双葉１４番１８号,,20,202,3900833,,,2024-08-23,合併による解散等,8100001030854,令和６年７月３１日長野県松本市双葉１４番１８号カガミ・ホールディングス株式会社（8100001030854）に合併し解散,2015-10-05,1,,,,,カガミインベストメント,0
438,2120001022789,登記記録の閉鎖等,0,2024-09-09,2024-09-05,株式会社オーパル,,株式会社,大阪府,大阪市浪速区,桜川４丁目１２番１５－２０３号,,27,111,5560022,,,2024-09-05,清算の結了等,,,2015-10-05,1,,,,,オーパル,0
450,2120005020046,登記記録の閉鎖等,0,2024-09-09,2024-09-06,特定非営利活動法人Ｌｅ　Ｃｉｅｌ,,その他の設立登記法人,大阪府,大阪市西区,北堀江１丁目２２－１１－６０１,,27,106,5500014,,,2024-09-06,清算の結了等,,,2018-02-28,1,,,,,ルシエール,0
452,2120901000539,登記記録の閉鎖等,0,2024-09-09,2024-09-04,株式会社かね彦,00033240,株式会社,大阪府,茨木市,宮島１丁目１番１号,,27,211,5670853,,,2024-09-04,清算の結了等,,,2015-10-05,1,,,,,カネヒコ,0
457,2120903001295,登記記録の閉鎖等,0,2024-09-09,2024-09-03,ミネトンカモカシンジャパンマーケティング合同会社,,合同会社,大阪府,吹田市,豊津町５３番１０号,,27,205,5640051,,,2024-09-03,清算の結了等,,,2015-10-05,1,,,,,ミネトンカモカシンジャパンマーケティング,0
488,2180302015544,登記記録の閉鎖等,0,2024-09-09,2024-09-02,有限会社杉浦建装,,有限会社,愛知県,蒲郡市,柏原町川添２４番地の９,,23,214,4430008,,,2024-09-02,清算の結了等,,,2015-10-05,1,,,,,スギウラケンソウ,0
489,2190002006173,登記記録の閉鎖等,0,2024-09-09,2024-09-03,有限会社川北精機,,有限会社,三重県,鈴鹿市,上田町１１０５番地の２,,24,207,5130018,,,2024-09-03,清算の結了等,,,2015-10-05,1,,,,,カワキタセイキ,0
490,2200001037853,登記記録の閉鎖等,0,2024-09-09,2024-09-02,株式会社ティ・ワイ・ツー,,株式会社,岐阜県,美濃加茂市,草笛町１丁目４番９号,,21,211,5050045,,,2024-09-02,合併による解散等,1200001026840,令和６年９月１日岐阜県加茂郡八百津町野上４５５番地１株式会社ひまわり畑（1200001026840）に合併し解散,2020-09-17,1,,,,,ティワイツー,0
503,2290001035329,登記記録の閉鎖等,0,2024-09-09,2024-07-29,株式会社畑中工務店,,株式会社,福岡県,福岡市南区,野間１丁目２２番１１号カミヤビル１Ｆ,,40,134,8150041,,,2024-07-29,清算の結了等,,,2015-10-05,1,,,,,ハタナカコウムテン,0
515,2290002054071,登記記録の閉鎖等,0,2024-09-09,2024-07-26,森田舗道有限会社,,有限会社,福岡県,みやま市,瀬高町上庄６０５番地の２,,40,229,8350025,,,2024-07-26,清算の結了等,,,2015-10-05,1,,,,,モリタホドウ,0
522,2310002008529,登記記録の閉鎖等,0,2024-09-09,2024-09-04,有限会社イノウエメディカルサービス,,有限会社,長崎県,長崎市,若葉町７番１２号ハイツ若葉２０７号室,,42,201,8528137,,,2024-09-04,清算の結了等,,,2015-10-05,1,,,,,イノウエメディカルサービス,0
532,2380003005741,登記記録の閉鎖等,0,2024-09-09,2024-08-13,合同会社ｅ‐ｆｌａｔ,,合同会社,福島県,福島市,渡利字金山下８－２,,07,201,9608141,,,2024-08-13,清算の結了等,,,2024-04-26,1,,,,,イーフラット,0
533,2390002003662,登記記録の閉鎖等,0,2024-09-09,2024-08-30,有限会社カネヨシ建築,,有限会社,山形県,山形市,大字沼木５５６番地の８,,06,201,9902474,,,2024-08-30,清算の結了等,,,2015-10-05,1,,,,,カネヨシケンチク,0
538,2410001006135,登記記録の閉鎖等,0,2024-09-09,2024-09-04,北鹿製氷冷蔵株式会社,,株式会社,秋田県,大館市,字鉄砲場１３１番地２,,05,204,0170882,,,2024-09-04,清算の結了等,,,2015-10-05,1,,,,,ホクロクセイヒョウレイゾウ,0
550,2470003001269,登記記録の閉鎖等,0,2024-09-09,2024-09-05,合同会社塩江温泉観光名物を作る会,,合同会社,香川県,高松市,塩江町安原下第１号１４６６番地２,,37,201,7611501,,,2024-09-05,清算の結了等,,,2017-08-17,1,,,,,シオノエオンセンカンコウメイブツヲツクルカイ,0
554,2490002008569,登記記録の閉鎖等,0,2024-09-09,2024-09-03,有限会社フアイブ,,有限会社,高知県,四万十市,中村天神橋２７番地,,39,210,7870027,,,2024-09-03,清算の結了等,,,2015-10-05,1,,,,,ファイブ,0
558,2500002022246,登記記録の閉鎖等,0,2024-09-09,2024-09-02,有限会社アイソサポートオフィス,,有限会社,愛媛県,四国中央市,土居町蕪崎１１５３番地２,,38,213,7990724,,,2024-09-02,清算の結了等,,,2015-10-05,1,,,,,アイソサポートオフィス,0
618,3011001059170,登記記録の閉鎖等,0,2024-09-09,2024-08-19,株式会社ＡＭコンサルティング,,株式会社,神奈川県,横浜市中区,南仲通１丁目１３番地,,14,104,2310006,,,2024-08-19,清算の結了等,,,2015-10-05,1,,,,,,0
624,3011101028694,登記記録の閉鎖等,0,2024-09-09,2024-08-26,株式会社モダンエンジニアリングアンドデザイン,,株式会社,東京都,新宿区,神楽坂３丁目２番巽ハイム２０２号,,13,104,1620825,,,2024-08-26,清算の結了等,,,2015-10-05,1,,,,,モダンエンジニアリングアンドデザイン,0
625,3011101048494,登記記録の閉鎖等,0,2024-09-09,2024-09-04,株式会社韓国高麗人蔘社,,株式会社,東京都,新宿区,西早稲田１丁目２３番５号,,13,104,1690051,,,2024-09-04,合併による解散等,6010001240935,令和６年８月３０日東京都千代田区神田神保町三丁目１２番３号株式会社韓国高麗人蔘社（6010001240935）に合併し解散,2015-10-05,1,,,,,カンコクコウライニンジンシャ,0
630,3011101083335,登記記録の閉鎖等,0,2024-09-09,2024-08-27,リーガルエステートインターナショナル株式会社,,株式会社,東京都,新宿区,新宿１丁目１２番１２号オスカカテリーナ５階,,13,104,1600022,,,2024-08-27,清算の結了等,,,2018-02-28,1,,,,,リーガルエステートインターナショナル,0
636,3011201012912,登記記録の閉鎖等,0,2024-09-09,2024-09-06,株式会社シルクモア繭の里,,株式会社,東京都,中野区,東中野４丁目１０番１８号,,13,114,1640003,,,2024-09-06,清算の結了等,,,2015-10-05,1,,,,,シルクモアマユノサト,0
674,3020001005150,登記記録の閉鎖等,0,2024-09-09,2024-08-21,株式会社シンノオ,,株式会社,神奈川県,横浜市旭区,小高町１１８番地,,14,112,2410015,,,2024-08-21,清算の結了等,,,2015-10-05,1,,,,,シンノオ,0
675,3020001054239,登記記録の閉鎖等,0,2024-09-09,2024-08-19,株式会社一輝,,株式会社,神奈川県,横浜市磯子区,氷取沢町３６番地１,,14,107,2350043,,,2024-08-19,清算の結了等,,,2015-10-05,1,,,,,イッキ,0
678,3020001109125,登記記録の閉鎖等,0,2024-09-09,2024-08-26,小さなウェブ株式会社,,株式会社,神奈川県,横浜市西区,北幸１丁目１１番１号水信ビル７階,,14,103,2200004,,,2024-08-26,清算の結了等,,,2015-10-05,1,,,,,チイサナウェブ,0
707,3030002044114,登記記録の閉鎖等,0,2024-09-09,2024-09-03,有限会社児玉,,有限会社,埼玉県,草加市,八幡町１２５１番地の２,,11,221,3400006,,,2024-09-03,清算の結了等,,,2015-10-05,1,,,,,コダマ,0
729,3070001007670,登記記録の閉鎖等,0,2024-09-09,2024-09-06,株式会社宝工芸社,,株式会社,群馬県,高崎市,九蔵町１１２番地,,10,202,3700058,,,2024-09-06,清算の結了等,,,2015-10-05,1,,,,,タカラコウゲイシャ,0
743,3100003006584,登記記録の閉鎖等,0,2024-09-09,2024-08-28,ぱんみーる合同会社,,合同会社,長野県,長野市,柳町一丁目２番地小池ビル２階Ｎ－ｐｏｒｔ＋,,20,201,3800805,,,2024-08-28,清算の結了等,,,2022-06-15,1,,,,,パンミール,0
746,3110001033737,登記記録の閉鎖等,0,2024-09-09,2024-09-03,株式会社プラクリ,,株式会社,新潟県,新潟市中央区,鳥屋野２丁目１１番１６号フジ企画ビル６０２,,15,103,9500951,,,2024-09-03,清算の結了等,,,2019-01-09,1,,,,,プラクリ,0
750,3120001155621,登記記録の閉鎖等,0,2024-09-09,2024-09-04,クリーン化学株式会社,,株式会社,大阪府,守口市,金田町２丁目１２番７号,,27,209,5700011,,,2024-09-04,清算の結了等,,,2015-10-05,1,,,,,クリーンカガク,0
762,3120901028513,登記記録の閉鎖等,0,2024-09-09,2024-09-03,オザキ積算株式会社,,株式会社,大阪府,豊中市,上野東１丁目１９番１１号,,27,203,5600013,,,2024-09-03,清算の結了等,,,2015-10-05,1,,,,,オザキセキサン,0
775,3160001018072,登記記録の閉鎖等,0,2024-09-09,2024-08-15,りふれ株式会社,,株式会社,東京都,港区,六本木３丁目８番９号ソシエ六本木,,13,103,1060032,,,2024-08-15,清算の結了等,,,2015-10-05,1,,,,,リフレ,0
795,3200002011022,登記記録の閉鎖等,0,2024-09-09,2024-09-03,有限会社服部工業,,有限会社,岐阜県,羽島市,正木町不破一色３５４番地,,21,209,5016228,,,2024-09-03,清算の結了等,,,2015-10-05,1,,,,,ハットリコウギョウ,0
800,3230003001845,登記記録の閉鎖等,0,2024-09-09,2024-09-05,合同会社秀経営企画,,合同会社,富山県,中新川郡立山町,利田６６８番地７,,16,323,9300275,,,2024-09-05,清算の結了等,,,2022-04-27,1,,,,,シュウケイエイキカク,0
807,3290001013399,登記記録の閉鎖等,0,2024-09-09,2024-08-01,三州化学株式会社,,株式会社,福岡県,福岡市博多区,博多駅前３丁目２８番３号,,40,132,8120011,,,2024-08-01,合併による解散等,8290001013403,令和６年８月１日福岡市博多区博多駅前三丁目２８番３号株式会社アーテリアル（8290001013403）に合併し解散,2015-10-05,1,,,,,サンシュウカガク,0
808,3290001041441,登記記録の閉鎖等,0,2024-09-09,2024-07-26,株式会社三和,,株式会社,福岡県,春日市,昇町６丁目１２０番地,,40,218,8160851,,,2024-07-26,清算の結了等,,,2015-10-05,1,,,,,,0
821,3370201004025,登記記録の閉鎖等,0,2024-09-09,2024-08-28,株式会社ループ,,株式会社,宮城県,栗原市,一迫字大川口大東７４番地,,04,213,9872301,,,2024-08-28,清算の結了等,,,2015-10-05,1,,,,,ループ,0
829,3430005013471,登記記録の閉鎖等,0,2024-09-09,2024-09-05,特定非営利活動法人アジアサンガ,,その他の設立登記法人,北海道,札幌市東区,苗穂町１３丁目１番５号,,01,103,0650043,,,2024-09-05,清算の結了等,,,2018-08-22,1,,,,,アジアサンガ,0
833,3470002017265,登記記録の閉鎖等,0,2024-09-09,2024-09-06,有限会社和光観光,,有限会社,香川県,観音寺市,大野原町福田原７０２番地２４,,37,205,7691616,,,2024-09-06,清算の結了等,,,2015-10-05,1,,,,,ワコウカンコウ,0
836,4010001016098,登記記録の閉鎖等,0,2024-09-09,2024-08-27,株式会社光南電気,,株式会社,東京都,千代田区,外神田１丁目１０番１１号,,13,101,1010021,,,2024-08-27,清算の結了等,,,2015-10-05,1,,,,,コウナンデンキ,0
837,4010001045898,登記記録の閉鎖等,0,2024-09-09,2024-09-02,株式会社信食,,株式会社,千葉県,佐倉市,王子台４丁目１９番７号,,12,212,2850837,,,2024-09-02,清算の結了等,,,2015-10-05,1,,,,,シンショク,0
839,4010001147232,登記記録の閉鎖等,0,2024-09-09,2024-09-04,株式会社Ｍａｐ,,株式会社,東京都,台東区,浅草６丁目３６番１２号,,13,106,1110032,,,2024-09-04,清算の結了等,,,2015-10-05,1,,,,,マップ,0
869,4010602004897,登記記録の閉鎖等,0,2024-09-09,2024-09-05,有限会社宣巧社印刷,,有限会社,東京都,江東区,常盤１丁目７番６号,,13,108,1350006,,,2024-09-05,清算の結了等,,,2015-10-05,1,,,,,センコウシャインサツ,0
870,4010602008502,登記記録の閉鎖等,0,2024-09-09,2024-09-06,有限会社五十山工務店,,有限会社,東京都,墨田区,押上２丁目２９番１４号,,13,107,1310045,,,2024-09-06,清算の結了等,,,2015-10-05,1,,,,,,0
908,4020001012014,登記記録の閉鎖等,0,2024-09-09,2024-08-15,株式会社フリープラン,,株式会社,神奈川県,横浜市青葉区,しらとり台９番地５,,14,117,2270054,,,2024-08-15,清算の結了等,,,2015-10-05,1,,,,,フリープラン,0
910,4020001117184,登記記録の閉鎖等,0,2024-09-09,2024-08-19,株式会社イン・ホームズ,,株式会社,神奈川県,横浜市栄区,長沼町２８１番地１,,14,115,2440841,,,2024-08-19,清算の結了等,,,2016-07-27,1,,,,,インホームズ,0
936,4030002080926,登記記録の閉鎖等,0,2024-09-09,2024-09-02,有限会社北栄,,有限会社,埼玉県,本庄市,寿１丁目１５番１１号,,11,211,3670023,,,2024-09-02,合併による解散等,2030001060435,令和６年９月１日埼玉県本庄市寿一丁目１５番１１号株式会社ヤマダ（2030001060435）に合併し解散,2015-10-05,1,,,,,ホクエイ,0
937,4030002085891,登記記録の閉鎖等,0,2024-09-09,2024-08-30,有限会社越谷通信,,有限会社,埼玉県,越谷市,大字南荻島４１５０番地１,,11,222,3430804,,,2024-08-30,清算の結了等,,,2015-10-05,1,,,,,コシガヤツウシン,0
942,4040001109147,登記記録の閉鎖等,0,2024-09-09,2024-09-02,株式会社令和塗装,,株式会社,千葉県,四街道市,鷹の台２丁目８番５号,,12,228,2840033,,,2024-09-02,清算の結了等,,,2019-05-14,1,,,,,レイワトソウ,0
943,4040001124402,登記記録の閉鎖等,0,2024-09-09,2024-09-02,株式会社ＴＡＯ,,株式会社,千葉県,習志野市,花咲１丁目３番２２号,,12,216,2750013,,,2024-09-02,清算の結了等,,,2022-07-28,1,,,,,ティーエーオー,0
951,4050001007713,登記記録の閉鎖等,0,2024-09-09,2024-09-02,株式会社ロフェ,,株式会社,茨城県,ひたちなか市,石川町２８番１１号,,08,221,3120057,,,2024-09-02,清算の結了等,,,2015-10-05,1,,,,,ロフェ,0
952,4050001018314,登記記録の閉鎖等,0,2024-09-09,2024-09-02,株式会社大蔵,,株式会社,茨城県,古河市,大山１７３４番地の３０,,08,204,3060052,,,2024-09-02,清算の結了等,,,2015-10-05,1,,,,,オオクラ,0
957,4050003001160,登記記録の閉鎖等,0,2024-09-09,2024-09-03,合同会社つくばＧＢソリューション,,合同会社,茨城県,つくば市,桜２丁目４５番地３,,08,220,3050003,,,2024-09-03,清算の結了等,,,2015-10-05,1,,,,,ツクバジービーソリューション,0
959,4060001028246,登記記録の閉鎖等,0,2024-09-09,2024-09-02,ナスハウス工業株式会社,,株式会社,栃木県,塩谷郡塩谷町,大字田所２４９０番地３,,09,384,3292331,,,2024-09-02,清算の結了等,,,2016-05-13,1,,,,,ナスハウスコウギョウ,0
984,4100002027044,登記記録の閉鎖等,0,2024-09-09,2024-08-27,有限会社エス・コム,,有限会社,長野県,大町市,常盤６０５７番地８,,20,212,3980004,,,2024-08-27,清算の結了等,,,2015-10-05,1,,,,,エスコム,0
991,4120001174918,登記記録の閉鎖等,0,2024-09-09,2024-09-05,株式会社シンクスインターナショナル,,株式会社,大阪府,大阪市西区,北堀江１丁目５番２号,,27,106,5500014,,,2024-09-05,清算の結了等,,,2015-10-05,1,,,,,シンクスインターナショナル,0
1008,4120902009676,登記記録の閉鎖等,0,2024-09-09,2024-09-04,有限会社ウイザード,,有限会社,大阪府,高槻市,北柳川町３番１－４１１号,,27,207,5690852,,,2024-09-04,清算の結了等,,,2015-10-05,1,,,,,ウイザード,0
1011,4130001031358,登記記録の閉鎖等,0,2024-09-09,2024-09-05,茶道古書販売株式会社,,株式会社,京都府,京都市中京区,高倉通三条下る丸屋町１５５番地,,26,104,6048132,,,2024-09-05,清算の結了等,,,2015-10-05,1,,,,,サドウコショハンバイ,0
1022,4160001018229,登記記録の閉鎖等,0,2024-09-09,2024-09-05,株式会社四代目舍,,株式会社,滋賀県,大津市,中央２丁目２番２２号滋賀銀行本店前第二ハン六ビル内,,25,201,5200043,,,2024-09-05,清算の結了等,,,2015-10-05,1,,,,,ヨンダイメシャ,0
1027,4170002009234,登記記録の閉鎖等,0,2024-09-09,2024-09-05,有限会社ウメモト,,有限会社,和歌山県,西牟婁郡白浜町,１０６９番地の４,,30,401,6492211,,,2024-09-05,清算の結了等,,,2015-10-05,1,,,,,ウメモト,0
1032,4180001067471,登記記録の閉鎖等,0,2024-09-09,2024-08-30,中日本エアコン株式会社,,株式会社,愛知県,日進市,五色園１丁目６０４番地,,23,230,4700105,,,2024-08-30,清算の結了等,,,2015-10-05,1,,,,,ナカニホンエアコン,0
1042,4190001017442,登記記録の閉鎖等,0,2024-09-09,2024-09-02,株式会社東海精機,,株式会社,三重県,三重郡菰野町,大字千草字中原野４６３２番地の１,,24,341,5101251,,,2024-09-02,合併による解散等,1190001001432,令和６年８月３１日三重県津市芸濃町北神山１４７０番地の３ダイソウ工業株式会社（1190001001432）に合併し解散,2015-10-05,1,,,,,トウカイセイキ,0
1045,4200001021120,登記記録の閉鎖等,0,2024-09-09,2024-09-02,株式会社山則製陶所,,株式会社,岐阜県,多治見市,市之倉町１０丁目１４８番地,,21,204,5070814,,,2024-09-02,清算の結了等,,,2015-10-05,1,,,,,ヤマノリセイトウショ,0
1052,4220005005448,登記記録の閉鎖等,0,2024-09-09,2024-09-02,医療法人社団山岸歯科医院,,その他の設立登記法人,石川県,羽咋郡志賀町,高浜町ツの７３番地７,,17,384,9250141,,,2024-09-02,清算の結了等,,,2015-10-05,1,,,,,ヤマギシシカイイン,0
1057,4240001025571,登記記録の閉鎖等,0,2024-09-09,2024-09-02,大下土木株式会社,,株式会社,広島県,呉市,広古新開１丁目１１番４６号,,34,202,7370112,,,2024-09-02,合併による解散等,4240001027543,令和６年９月１日広島県呉市広古新開一丁目１１番４６号株式会社ＫＮプランニング（4240001027543）に合併し解散,2015-10-05,1,,,,,オオシタドボク,0
1068,4290001043833,登記記録の閉鎖等,0,2024-09-09,2024-07-30,株式会社ルシフェル,,株式会社,福岡県,福岡市博多区,麦野１丁目２６番２２,,40,132,8120882,,,2024-07-30,清算の結了等,,,2015-10-05,1,,,,,ルシフェル,0
1108,4430001012732,登記記録の閉鎖等,0,2024-09-09,2024-09-02,株式会社ニッセツ・北電気通信,,株式会社,北海道,札幌市中央区,大通西１２丁目４番地６９,,01,101,0600042,,,2024-09-02,清算の結了等,,,2015-10-05,1,,,,,ニッセツキタデンキツウシン,0
1116,4480005005884,登記記録の閉鎖等,0,2024-09-09,2024-09-02,特定非営利活動法人野生動物保護と農林業被害防止の研究会,,その他の設立登記法人,徳島県,三好市,山城町大川持３００番地,,36,208,7795304,,,2024-09-02,清算の結了等,,,2015-10-05,1,,,,,,0
1122,5010001213215,登記記録の閉鎖等,0,2024-09-09,2024-08-29,株式会社くぐる,,株式会社,東京都,千代田区,九段南１丁目５番６号りそな九段ビル５Ｆ－ＫＳフロア,,13,101,1020074,,,2024-08-29,清算の結了等,,,2020-10-22,1,,,,,クグル,0
1124,5010003030286,登記記録の閉鎖等,0,2024-09-09,2024-08-26,合同会社開発７６号,,合同会社,東京都,千代田区,飯田橋１丁目３番２号曙杉館４階清和コンサルティング株式会社内,,13,101,1020072,,,2024-08-26,清算の結了等,,,2019-07-29,1,,,,,カイハツナナジュウロクゴウ,0
1129,5010005031943,登記記録の閉鎖等,0,2024-09-09,2024-09-02,一般社団法人昭和文化アーカイブス,,その他の設立登記法人,東京都,中央区,銀座７丁目１３番６号サガミビル２階,,13,102,1040061,,,2024-09-02,清算の結了等,,,2020-06-23,1,,,,,ショウワブンカアーカイブス,0
1139,5010402033798,登記記録の閉鎖等,0,2024-09-09,2024-08-15,有限会社オンデマンドジャパン,,有限会社,東京都,港区,虎ノ門１丁目１４番１号,,13,103,1050001,,,2024-08-15,清算の結了等,,,2015-10-05,1,,,,,オンデマンドジャパン,0
1162,5011501009086,登記記録の閉鎖等,0,2024-09-09,2024-09-05,柳原製菓株式会社,,株式会社,東京都,荒川区,東日暮里３丁目３１番７号,,13,118,1160014,,,2024-09-05,清算の結了等,,,2015-10-05,1,,,,,ヤナギハラセイカ,0
1169,5011801020008,登記記録の閉鎖等,0,2024-09-09,2024-08-27,株式会社アイサポート,,株式会社,東京都,足立区,鹿浜２丁目２０番１４号,,13,121,1230864,,,2024-08-27,清算の結了等,,,2015-10-05,1,,,,,,0
1176,5012401024893,登記記録の閉鎖等,0,2024-09-09,2024-09-03,株式会社Ｎ８８,,株式会社,東京都,国分寺市,本町３丁目１番１号シティタワー国分寺ザ・ツインウエストＷ１２０７,,13,214,1850012,,,2024-09-03,清算の結了等,,,2015-10-05,1,,,,,エヌハチジュウハチ,0
1182,5013301029256,登記記録の閉鎖等,0,2024-09-09,2024-08-15,株式会社スタジオ・デバロッカ,,株式会社,東京都,港区,海岸１丁目４番１２号,,13,103,1050022,,,2024-08-15,清算の結了等,,,2015-10-05,1,,,,,,0
1202,5030001011550,登記記録の閉鎖等,0,2024-09-09,2024-09-03,わせまっく株式会社,,株式会社,埼玉県,さいたま市桜区,西堀６丁目１６番２１号,,11,106,3380832,,,2024-09-03,清算の結了等,,,2015-10-05,1,,,,,ワセマック,0
1203,5030001018579,登記記録の閉鎖等,0,2024-09-09,2024-09-05,城北紙業株式会社,,株式会社,埼玉県,さいたま市岩槻区,大字大戸２３４番地,,11,110,3390014,,,2024-09-05,合併による解散等,3011801011504,令和６年９月１日東京都足立区中央本町四丁目２３番１９号株式会社フジダン（3011801011504）に合併し解散,2015-10-05,1,,,,,ジョウホクシギョウ,0
1207,5030002055976,登記記録の閉鎖等,0,2024-09-09,2024-09-03,有限会社成塚管工,,有限会社,埼玉県,桶川市,鴨川１丁目８番２８号,,11,231,3630024,,,2024-09-03,清算の結了等,,,2015-10-05,1,,,,,ナリヅカカンコウ,0
1209,5030002117834,登記記録の閉鎖等,0,2024-09-09,2024-09-03,有限会社シミス,,有限会社,埼玉県,行田市,向町２６番３３号,,11,206,3610075,,,2024-09-03,清算の結了等,,,2015-10-05,1,,,,,シミス,0
1211,5030003012514,登記記録の閉鎖等,0,2024-09-09,2024-08-28,ＡＫ合同会社,,合同会社,東京都,大田区,大森西３丁目１番２５－３０８号,,13,111,1430015,,,2024-08-28,清算の結了等,,,2018-10-11,1,,,,,エーケー,0
1227,5050001023008,登記記録の閉鎖等,0,2024-09-09,2024-09-02,株式会社小木津工作所,,株式会社,茨城県,日立市,小木津町３丁目２０番１１号,,08,202,3191413,,,2024-09-02,清算の結了等,,,2015-10-05,1,,,,,オギツコウサクジョ,0
1235,5070001038994,登記記録の閉鎖等,0,2024-09-09,2024-09-05,株式会社小山商店,,株式会社,群馬県,吾妻郡嬬恋村,大字大笹３１８９番地３,,10,425,3771613,,,2024-09-05,清算の結了等,,,2022-03-03,1,,,,,コヤマショウテン,0
1246,5120001022200,登記記録の閉鎖等,0,2024-09-09,2024-09-03,荒木園茶舗株式会社,,株式会社,大阪府,大阪市天王寺区,玉造元町８番１６号,,27,109,5430014,,,2024-09-03,清算の結了等,,,2015-10-05,1,,,,,アラキエンチャホ,0
1258,5120901016219,登記記録の閉鎖等,0,2024-09-09,2024-08-30,株式会社タイアップ,,株式会社,大阪府,三島郡島本町,広瀬２丁目２４番１３号,,27,301,6180011,,,2024-08-30,清算の結了等,,,2015-10-05,1,,,,,タイアップ,0
1265,5130001011986,登記記録の閉鎖等,0,2024-09-09,2024-09-05,横井正株式会社,,株式会社,京都府,京都市南区,上鳥羽南鉾立町４５番地,,26,107,6018114,,,2024-09-05,清算の結了等,,,2015-10-05,1,,,,,ヨコイマサ,0
1269,5140001006481,登記記録の閉鎖等,0,2024-09-09,2024-09-02,ＴＣＳカンパニーズ株式会社,,株式会社,東京都,中央区,日本橋本町４丁目８番１４号,,13,102,1030023,,,2024-09-02,合併による解散等,9010001234777,令和６年９月１日東京都中央区日本橋本町四丁目８番１４号ＴＣＳホールディングス株式会社（9010001234777）に合併し解散,2015-10-05,1,,,,,ティーシーエスカンパニーズ,0
1270,5140001088850,登記記録の閉鎖等,0,2024-09-09,2024-09-04,アップかんなべ株式会社,,株式会社,兵庫県,豊岡市,日高町栗栖野７３９番地の１,,28,209,6695372,,,2024-09-04,清算の結了等,,,2015-10-05,1,,,,,アップカンナベ,0
1274,5140002002661,登記記録の閉鎖等,0,2024-09-09,2024-09-04,有限会社レディスオーダーサロン芽生,,有限会社,兵庫県,神戸市東灘区,森北町２丁目２番２４号,,28,101,6580001,,,2024-09-04,清算の結了等,,,2015-10-05,1,,,,,レディスオーダーサロンメバエ,0
1275,5140002026099,登記記録の閉鎖等,0,2024-09-09,2024-09-03,有限会社システムデザイン,,有限会社,兵庫県,神戸市西区,月が丘６丁目１８番地の２,,28,111,6512217,,,2024-09-03,清算の結了等,,,2015-10-05,1,,,,,システムデザイン,0
1277,5150003002180,登記記録の閉鎖等,0,2024-09-09,2024-09-05,合同会社福源,,合同会社,奈良県,高市郡明日香村,大字御園２４番地の１,,29,402,6340131,,,2024-09-05,清算の結了等,,,2020-07-15,1,,,,,フクゲン,0
1292,5180301002417,登記記録の閉鎖等,0,2024-09-09,2024-09-02,株式会社コーテック,,株式会社,愛知県,額田郡幸田町,大字菱池字東部８７番地の１,,23,501,4440113,,,2024-09-02,清算の結了等,,,2015-10-05,1,,,,,コーテック,0
1295,5200002010146,登記記録の閉鎖等,0,2024-09-09,2024-09-05,有限会社河合企画,,有限会社,岐阜県,本巣市,上真桑２０６５番地１,,21,218,5010461,,,2024-09-05,清算の結了等,,,2015-10-05,1,,,,,カワイキカク,0
1300,5230002013162,登記記録の閉鎖等,0,2024-09-09,2024-09-05,有限会社蓑輪工業,,有限会社,富山県,氷見市,朝日丘１４番３号,,16,205,9350023,,,2024-09-05,清算の結了等,,,2015-10-05,1,,,,,ミノワコウギョウ,0
1311,5280001007747,登記記録の閉鎖等,0,2024-09-09,2024-09-03,ａｒｃｈ株式会社,,株式会社,島根県,出雲市,姫原３丁目７番地７,,32,203,6930068,,,2024-09-03,合併による解散等,4280001004101,令和６年９月１日島根県出雲市姫原３－７－３株式会社ＭＩＸ　ＵＰ（4280001004101）に合併し解散,2018-06-06,1,,,,,アーチ,0
1312,5290001013397,登記記録の閉鎖等,0,2024-09-09,2024-08-01,株式会社三州コーポレーション,,株式会社,福岡県,福岡市博多区,博多駅前３丁目２８番３号,,40,132,8120011,,,2024-08-01,合併による解散等,8290001013403,令和６年８月１日福岡市博多区博多駅前三丁目２８番３号株式会社アーテリアル（8290001013403）に合併し解散,2015-10-05,1,,,,,サンシュウコーポレーション,0
1313,5290001048121,登記記録の閉鎖等,0,2024-09-09,2024-07-30,株式会社千歳屋,,株式会社,福岡県,筑紫野市,二日市中央２丁目６番２号,,40,217,8180072,,,2024-07-30,清算の結了等,,,2015-10-05,1,,,,,,0
1317,5290001081139,登記記録の閉鎖等,0,2024-09-09,2024-07-26,株式会社アバンティ,,株式会社,福岡県,糟屋郡志免町,石橋台６番１号,,40,343,8112203,,,2024-07-26,清算の結了等,,,2018-04-13,1,,,,,アバンティ,0
1341,5360002010576,登記記録の閉鎖等,0,2024-09-09,2024-09-06,有限会社ひろ企画,,有限会社,沖縄県,島尻郡南風原町,字兼城４０１番地,,47,350,9011111,,,2024-09-06,清算の結了等,,,2015-10-05,1,,,,,ヒロキカク,0
1346,5370002017315,登記記録の閉鎖等,0,2024-09-09,2024-08-27,有限会社カノエ工業,,有限会社,宮城県,仙台市宮城野区,栄２丁目１４番２２号,,04,102,9830011,,,2024-08-27,清算の結了等,,,2015-10-05,1,,,,,カノエコウギョウ,0
1349,5380001028634,登記記録の閉鎖等,0,2024-09-09,2024-08-30,吉野基工株式会社,,株式会社,福島県,福島市,天神町３番１号サーパス天神町４０１号,,07,201,9608001,,,2024-08-30,清算の結了等,,,2017-11-15,1,,,,,ヨシノキコウ,0
1354,5430001070333,登記記録の閉鎖等,0,2024-09-09,2024-09-02,株式会社エリオベース,,株式会社,北海道,札幌市中央区,南二条西５丁目２６番地４エリオ大通ビル２階,,01,101,0600062,,,2024-09-02,合併による解散等,7430001059556,令和６年８月３１日札幌市中央区南二条西五丁目２６番地４エリオ大通ビル２階株式会社エリオ（7430001059556）に合併し解散,2015-11-30,1,,,,,エリオベース,0
1360,5440001001386,登記記録の閉鎖等,0,2024-09-09,2024-09-03,東邦工業株式会社,,株式会社,北海道,函館市,浅野町４番８号,,01,202,0400076,,,2024-09-03,清算の結了等,,,2015-10-05,1,,,,,トウホウコウギョウ,0
1382,6010401060132,登記記録の閉鎖等,0,2024-09-09,2024-08-15,株式会社バリュークリエーションＡＳ,,株式会社,東京都,港区,西新橋１丁目２番９号,,13,103,1050003,,,2024-08-15,清算の結了等,,,2015-10-05,1,,,,,バリュークリエーションエーエス,0
1395,6010405003673,登記記録の閉鎖等,0,2024-09-09,2024-08-21,公益財団法人火薬工業技術奨励会,,その他の設立登記法人,東京都,港区,麻布台２丁目３番２２号,,13,103,1060041,,,2024-08-21,清算の結了等,,,2015-10-05,1,,,,,カヤクコウギョウギジュツショウレイカイ,0
1400,6010603008053,登記記録の閉鎖等,0,2024-09-09,2024-08-26,合同会社地方創生太陽光発電所４号,,合同会社,東京都,千代田区,平河町１丁目３番１３号平河町フロントビル７Ｆ税理士法人シリウス内,,13,101,1020093,,,2024-08-26,清算の結了等,,,2019-11-06,1,,,,,チホウソウセイタイヨウコウハツデンショヨンゴウ,0
1416,6011701018844,登記記録の閉鎖等,0,2024-09-09,2024-08-27,株式会社エクイスタジオ,,株式会社,東京都,中央区,日本橋３丁目２番１４号新槇町ビル別館第一１Ｆ,,13,102,1030027,,,2024-08-27,清算の結了等,,,2015-10-05,1,,,,,エクイスタジオ,0
1417,6011801033000,登記記録の閉鎖等,0,2024-09-09,2024-09-04,株式会社ＳＫＰ,,株式会社,東京都,足立区,青井２丁目１２番１２号青井ハイツ１０１,,13,121,1200012,,,2024-09-04,清算の結了等,,,2017-03-07,1,,,,,エスケーピー,0
1419,6011803006219,登記記録の閉鎖等,0,2024-09-09,2024-09-04,合同会社プメハナ,,合同会社,東京都,葛飾区,亀有３丁目２１－７小澤ビル１Ｆ,,13,122,1250061,,,2024-09-04,清算の結了等,,,2024-05-10,1,,,,,プメハナ,0
1434,6013302002442,登記記録の閉鎖等,0,2024-09-09,2024-09-03,有限会社小沢千月民謡教室,,有限会社,東京都,豊島区,長崎１丁目２６番５号,,13,116,1710051,,,2024-09-03,清算の結了等,,,2015-10-05,1,,,,,オザワチゲツミンヨウキョウシツ,0
1439,6020002019592,登記記録の閉鎖等,0,2024-09-09,2024-08-28,有限会社光電設,,有限会社,神奈川県,横浜市港南区,下永谷３丁目５０番６号,,14,111,2330016,,,2024-08-28,清算の結了等,,,2015-10-05,1,,,,,,0
1443,6020005004427,登記記録の閉鎖等,0,2024-09-09,2024-08-20,特定非営利活動法人神奈川被害者支援センター,,その他の設立登記法人,神奈川県,横浜市神奈川区,鶴屋町２丁目２４番地の２,,14,102,2210835,,,2024-08-20,清算の結了等,,,2015-10-05,1,,,,,カナガワヒガイシャシエンセンター,0
1488,6120001011078,登記記録の閉鎖等,0,2024-09-09,2024-09-05,丸大商事株式会社,,株式会社,大阪府,大阪市東住吉区,東田辺３丁目２７番２２号,,27,121,5460032,,,2024-09-05,清算の結了等,,,2015-10-05,1,,,,,マルダイショウジ,0
1489,6120001016077,登記記録の閉鎖等,0,2024-09-09,2024-09-05,株式会社福持製作所,,株式会社,大阪府,大阪市城東区,鴫野西５丁目１８番５号,,27,118,5360014,,,2024-09-05,清算の結了等,,,2015-10-05,1,,,,,,0
1490,6120001036307,登記記録の閉鎖等,0,2024-09-09,2024-09-05,株式会社富士常商店,,株式会社,大阪府,大阪市福島区,野田１丁目１番８６号大阪中央卸売市場本場内,,27,103,5530005,,,2024-09-05,清算の結了等,,,2015-10-05,1,,,,,フジツネショウテン,0
1492,6120001233787,登記記録の閉鎖等,0,2024-09-09,2024-09-05,株式会社伸成,,株式会社,大阪府,大阪市北区,西天満６丁目２－１４,,27,127,5300047,,,2024-09-05,清算の結了等,,,2020-12-14,1,,,,,ノブナリ,0
1501,6120005007857,登記記録の閉鎖等,0,2024-09-09,2024-09-06,特定非営利活動法人大阪経営指導士協会,,その他の設立登記法人,大阪府,大阪市西区,江戸堀１丁目１６－３１,,27,106,5500002,,,2024-09-06,清算の結了等,,,2015-10-05,1,,,,,オオサカケイエイシドウシキョウカイ,0
1508,6122001029331,登記記録の閉鎖等,0,2024-09-09,2024-09-05,アイシン株式会社,,株式会社,大阪府,東大阪市,新庄東２番１８号,,27,227,5780951,,,2024-09-05,清算の結了等,,,2016-02-25,1,,,,,,0
1511,6140001000244,登記記録の閉鎖等,0,2024-09-09,2024-09-04,株式会社オフィスユウアンドケイ,,株式会社,兵庫県,芦屋市,精道町５番３号,,28,206,6590064,,,2024-09-04,合併による解散等,8120001264426,令和６年８月６日大阪市中央区南船場四丁目１０－５南船場ＳＯＨＯビル７０２株式会社ムツキトーカ（8120001264426）に合併し解散,2015-10-05,1,,,,,オフィスユウアンドケイ,0
1515,6140001107782,登記記録の閉鎖等,0,2024-09-09,2024-09-05,株式会社アイル,,株式会社,大阪府,大阪市北区,西天満６丁目２－１４,,27,127,5300047,,,2024-09-05,清算の結了等,,,2017-10-10,1,,,,,アイル,0
1528,6180001142165,登記記録の閉鎖等,0,2024-09-09,2024-09-02,株式会社２６８,,株式会社,愛知県,名古屋市西区,上堀越町４丁目３７番地２・Ｂ棟,,23,104,4510084,,,2024-09-02,合併による解散等,2180001110778,令和６年８月３１日名古屋市西区上堀越町四丁目３７番地２・Ｂ棟横井工業株式会社（2180001110778）に合併し解散,2020-07-30,1,,,,,ジロハチ,0
1531,6180301000097,登記記録の閉鎖等,0,2024-09-09,2024-09-03,株式会社アール,,株式会社,愛知県,岡崎市,大平町字榎田２３番地１,,23,202,4440007,,,2024-09-03,清算の結了等,,,2015-10-05,1,,,,,アール,0
1534,6180302010814,登記記録の閉鎖等,0,2024-09-09,2024-09-02,有限会社ナゴヤミセ東店,,有限会社,愛知県,田原市,赤羽根町大辻５１番地の２,00074973,23,231,4413502,,,2024-09-02,清算の結了等,,,2015-10-05,1,,,,,ナゴヤミセヒガシテン,0
1538,6190002010361,登記記録の閉鎖等,0,2024-09-09,2024-09-05,有限会社エコクリーンＳ・Ｔ,,有限会社,三重県,伊勢市,一之木３丁目１９番２号,,24,203,5160071,,,2024-09-05,清算の結了等,,,2015-10-05,1,,,,,エコクリーンエスティー,0
1568,6290001074505,登記記録の閉鎖等,0,2024-09-09,2024-07-31,あくてむ株式会社,,株式会社,福岡県,福岡市東区,三苫１丁目３番５５号,,40,131,8110201,,,2024-07-31,清算の結了等,,,2016-07-11,1,,,,,アクテム,0
1573,6290003006002,登記記録の閉鎖等,0,2024-09-09,2024-08-01,パースペクティブ・アジリティ合同会社,,合同会社,福岡県,糟屋郡志免町,南里７丁目３番１－３０９号,,40,343,8112207,,,2024-08-01,合併による解散等,7290003005085,令和６年８月１日福岡県福津市宮司浜二丁目３５番１７号パースペクティブ・アール・イー合同会社（7290003005085）に合併し解散,2015-10-05,1,,,,,パースペクティブアジリティ,0
1576,6300001001119,登記記録の閉鎖等,0,2024-09-09,2024-07-30,株式会社江頭エーザイ,,株式会社,福岡県,大川市,大字大野島３５５５番地１,,40,212,8310045,,,2024-07-30,清算の結了等,,,2015-10-05,1,,,,,エガシラエーザイ,0
1590,6360002017059,登記記録の閉鎖等,0,2024-09-09,2024-09-06,有限会社丸川電気工業,,有限会社,沖縄県,浦添市,字前田８６２番地の２０２,,47,208,9012102,,,2024-09-06,清算の結了等,,,2015-10-05,1,,,,,マルカワデンキコウギョウ,0
1594,6370105001116,登記記録の閉鎖等,0,2024-09-09,2024-08-21,笠島生産森林組合,,その他の設立登記法人,宮城県,角田市,笠島字山口７番地,,04,208,9811515,,,2024-08-21,清算の結了等,,,2015-10-05,1,,,,,カサシマ,0
1600,6380002022230,登記記録の閉鎖等,0,2024-09-09,2024-08-28,有限会社いわきホスピタルサービス,,有限会社,福島県,いわき市,常磐西郷町銭田２２５番地,,07,204,9728316,,,2024-08-28,清算の結了等,,,2015-10-05,1,,,,,イワキホスピタルサービス,0
1601,6390001007504,登記記録の閉鎖等,0,2024-09-09,2024-08-30,株式会社岡部建設,,株式会社,山形県,鶴岡市,平成町１６番１５号,,06,203,9971156,,,2024-08-30,清算の結了等,,,2015-10-05,1,,,,,オカベケンセツ,0
1602,6390001012099,登記記録の閉鎖等,0,2024-09-09,2024-08-30,高栄設備株式会社,,株式会社,山形県,西村山郡西川町,大字間沢１７９番地１,,06,322,9900703,,,2024-08-30,清算の結了等,,,2015-10-05,1,,,,,コウエイセツビ,0
1638,7010003024204,登記記録の閉鎖等,0,2024-09-09,2024-08-26,合同会社山武・姫路,,合同会社,東京都,千代田区,一番町９番地８ノザワビルディング６階税理士法人シリウス内,,13,101,1020082,,,2024-08-26,清算の結了等,,,2016-10-05,1,,,,,ヤマタケヒメジ,0
1639,7010003030284,登記記録の閉鎖等,0,2024-09-09,2024-08-26,合同会社開発７４号,,合同会社,東京都,千代田区,飯田橋１丁目３番２号曙杉館４階清和コンサルティング株式会社内,,13,101,1020072,,,2024-08-26,清算の結了等,,,2019-07-29,1,,,,,カイハツナナジュウヨンゴウ,0
1676,7011101062450,登記記録の閉鎖等,0,2024-09-09,2024-08-27,株式会社建築計画フレスコ,,株式会社,東京都,新宿区,西新宿３丁目５番１２－５１６号,,13,104,1600023,,,2024-08-27,清算の結了等,,,2015-10-05,1,,,,,ケンチクケイカクフレスコ,0
1694,7012401037101,登記記録の閉鎖等,0,2024-09-09,2024-09-06,株式会社ＷＩＮＺ,,株式会社,東京都,調布市,入間町１丁目１１番地７,,13,208,1820004,,,2024-09-06,清算の結了等,,,2020-10-16,1,,,,,ウインズ,0
1708,7020001026440,登記記録の閉鎖等,0,2024-09-09,2024-08-23,株式会社後藤製豆,,株式会社,神奈川県,横浜市中区,曙町１丁目６番地,00009373,14,104,2310057,,,2024-08-23,清算の結了等,,,2015-10-05,1,,,,,ゴトウセイトウ,0
1715,7020001116159,登記記録の閉鎖等,0,2024-09-09,2024-08-19,株式会社ＧＬＡＮＴＺ　ＤＥＳＩＧＮ　ＳＰＡＣＥ＆ＯＦＦＩＣＥ,,株式会社,神奈川県,横浜市神奈川区,鶴屋町２丁目９番地７グローリア初穂横浜５０１号室,,14,102,2210835,,,2024-08-19,清算の結了等,,,2016-05-13,1,,,,,,0
1716,7020002002283,登記記録の閉鎖等,0,2024-09-09,2024-08-21,有限会社相弘,,有限会社,神奈川県,横浜市泉区,新橋町１６４８番地９,,14,116,2450009,,,2024-08-21,清算の結了等,,,2015-10-05,1,,,,,アイコウ,0
1717,7020002005344,登記記録の閉鎖等,0,2024-09-09,2024-08-26,有限会社飯田運輸,,有限会社,神奈川県,横浜市都筑区,折本町４９７番地１,,14,118,2240043,,,2024-08-26,清算の結了等,,,2015-10-05,1,,,,,,0
1718,7020002009808,登記記録の閉鎖等,0,2024-09-09,2024-08-21,有限会社港南設計工業所,,有限会社,神奈川県,横浜市戸塚区,深谷町５４番地２３,,14,110,2450067,,,2024-08-21,清算の結了等,,,2015-10-05,1,,,,,コウナンセッケイコウギョウショ,0
1723,7020003017652,登記記録の閉鎖等,0,2024-09-09,2024-08-22,エグザムキャスト合同会社,,合同会社,神奈川県,横浜市保土ケ谷区,西谷３丁目２０番１８号,,14,106,2400054,,,2024-08-22,清算の結了等,,,2020-04-02,1,,,,,エグザムキャスト,0
1729,7021003003691,登記記録の閉鎖等,0,2024-09-09,2024-09-04,ＡＩ合同会社,,合同会社,神奈川県,相模原市中央区,富士見１丁目５番２号三愛ビル相模原２階Ｃ号,,14,152,2520236,,,2024-09-04,清算の結了等,,,2015-10-05,1,,,,,アイ,0
1731,7030001150355,登記記録の閉鎖等,0,2024-09-09,2024-09-02,グッディワールド株式会社,,株式会社,埼玉県,さいたま市大宮区,堀の内町１丁目２０１番地１,,11,103,3300804,,,2024-09-02,合併による解散等,6030001117198,令和６年９月１日埼玉県さいたま市大宮区堀の内町一丁目２０１番地１グッディワールド株式会社（6030001117198）に合併し解散,2022-10-06,1,,,,,グッディワールド,0
1744,7030005018978,登記記録の閉鎖等,0,2024-09-09,2024-09-02,一般社団法人ＫＡＩＥＩ,,その他の設立登記法人,東京都,豊島区,東池袋４丁目５番２号,,13,116,1700013,,,2024-09-02,清算の結了等,,,2018-04-17,1,,,,,カイエイ,0
1747,7040002102370,登記記録の閉鎖等,0,2024-09-09,2024-09-02,有限会社平沢電機商会,,有限会社,千葉県,勝浦市,出水１３００番地,,12,218,2995235,,,2024-09-02,清算の結了等,,,2015-10-05,1,,,,,ヒラサワデンキショウカイ,0
1777,7100001032975,登記記録の閉鎖等,0,2024-09-09,2024-09-05,株式会社クレソンリバーストーン,,株式会社,長野県,北佐久郡軽井沢町,大字軽井沢６８０番地１,,20,321,3890102,,,2024-09-05,合併による解散等,6430001059284,令和６年９月１日東京都中央区銀座五丁目６番１５号株式会社クレソンリバーストーン（6430001059284）に合併し解散,2020-03-05,1,,,,,クレソンリバーストーン,0
1779,7100002007183,登記記録の閉鎖等,0,2024-09-09,2024-08-30,有限会社ジェイエイながの裾花戸隠店,,有限会社,長野県,長野市,戸隠栃原３２０４番地,,20,201,3814104,,,2024-08-30,清算の結了等,,,2015-10-05,1,,,,,ジェイエイナガノスソバナトガクシテン,0
1781,7110002003090,登記記録の閉鎖等,0,2024-09-09,2024-09-03,有限会社システムケイ,,有限会社,新潟県,新潟市中央区,山二ツ１丁目４番６号,,15,103,9500922,,,2024-09-03,清算の結了等,,,2015-10-05,1,,,,,システムケイ,0
1783,7120001101910,登記記録の閉鎖等,0,2024-09-09,2024-09-04,株式会社ライフトロン,,株式会社,大阪府,大阪市北区,天神西町６番７号,,27,127,5300045,,,2024-09-04,清算の結了等,,,2015-10-05,1,,,,,ライフトロン,0
1786,7120001161112,登記記録の閉鎖等,0,2024-09-09,2024-09-05,株式会社リバティ東三国,,株式会社,大阪府,大阪市淀川区,東三国３丁目１１番２１号,,27,123,5320002,,,2024-09-05,清算の結了等,,,2015-10-05,1,,,,,リバティヒガシミクニ,0
1831,7180002019650,登記記録の閉鎖等,0,2024-09-09,2024-09-02,有限会社矢神新聞,,有限会社,愛知県,名古屋市中川区,富田町大字千音寺２６７４番地,,23,110,4540971,,,2024-09-02,清算の結了等,,,2015-10-05,1,,,,,ヤガミシンブン,0
1858,7290002016686,登記記録の閉鎖等,0,2024-09-09,2024-07-26,西日本金属鉱山有限会社,,有限会社,福岡県,福岡市博多区,東光１丁目２番１８号,,40,132,8120008,,,2024-07-26,清算の結了等,,,2015-10-05,1,,,,,ニシニホンキンゾクコウザン,0
1872,7360001031076,登記記録の閉鎖等,0,2024-09-09,2024-09-04,株式会社Ｏｋｉｍａｔｅｓ,,株式会社,沖縄県,那覇市,天久２丁目７番７号沖縄広告ビル１階,,47,201,9000005,,,2024-09-04,清算の結了等,,,2022-10-17,1,,,,,オキメイツ,0
1881,7400002004968,登記記録の閉鎖等,0,2024-09-09,2024-08-28,有限会社アクティブ・ウィル,,有限会社,岩手県,盛岡市,大館町４番６号,,03,201,0200147,,,2024-08-28,清算の結了等,,,2015-10-05,1,,,,,アクティブウィル,0
1883,7420001010049,登記記録の閉鎖等,0,2024-09-09,2024-09-02,エヌエスサービス株式会社,,株式会社,青森県,平川市,館山上亀岡２６番地,,02,210,0360162,,,2024-09-02,合併による解散等,2420001010045,令和６年９月１日青森県平川市館山上亀岡２６番地株式会社アピール（2420001010045）に合併し解散,2015-10-05,1,,,,,エヌエスサービス,0
1900,8010002000519,登記記録の閉鎖等,0,2024-09-09,2024-08-20,有限会社石坂電設,,有限会社,東京都,文京区,大塚４丁目１２番１０号,,13,105,1120012,,,2024-08-20,清算の結了等,,,2015-10-05,1,,,,,,0
1901,8010002001673,登記記録の閉鎖等,0,2024-09-09,2024-08-27,有限会社キクチ印刷,,有限会社,東京都,新宿区,矢来町８５番地,,13,104,1620805,,,2024-08-27,清算の結了等,,,2015-10-05,1,,,,,キクチインサツ,0
1903,8010003026091,登記記録の閉鎖等,0,2024-09-09,2024-08-26,合同会社開発４３号,,合同会社,東京都,千代田区,飯田橋１丁目３番２号曙杉館４階ＲＳＭ清和コンサルティング株式会社内,,13,101,1020072,,,2024-08-26,清算の結了等,,,2017-09-21,1,,,,,カイハツヨンジュウサンゴウ,0
1911,8010401104564,登記記録の閉鎖等,0,2024-09-09,2024-08-19,デジタルイメージング株式会社,,株式会社,東京都,港区,虎ノ門４丁目１番２８号虎ノ門タワーズオフィス１７階,,13,103,1050001,,,2024-08-19,清算の結了等,,,2015-10-05,1,,,,,デジタルイメージング,0
1913,8010401121527,登記記録の閉鎖等,0,2024-09-09,2024-08-15,株式会社ナノ・エンターテイメント,,株式会社,東京都,港区,麻布十番１丁目２番３号,,13,103,1060045,,,2024-08-15,清算の結了等,,,2015-11-16,1,,,,,ナノエンターテイメント,0
1920,8010402006859,登記記録の閉鎖等,0,2024-09-09,2024-09-04,有限会社白金薬局,,有限会社,東京都,港区,白金６丁目２２番１１号,,13,103,1080072,,,2024-09-04,合併による解散等,4120001131547,令和６年９月１日大阪市淀川区宮原四丁目５番３６号株式会社キリン堂（4120001131547）に合併し解散,2015-10-05,1,,,,,シロカネヤッキョク,0
1926,8010502021774,登記記録の閉鎖等,0,2024-09-09,2024-09-03,有限会社オフィスサンハート,,有限会社,東京都,台東区,東上野１丁目２０番２ブルックハウスＪ,,13,106,1100015,,,2024-09-03,清算の結了等,,,2015-10-05,1,,,,,オフィスサンハート,0
1931,8010801032869,登記記録の閉鎖等,0,2024-09-09,2024-09-02,株式会社ＫｕｆｕＢａｎｋ,,株式会社,東京都,大田区,西蒲田４丁目８－６,,13,111,1440051,,,2024-09-02,清算の結了等,,,2022-04-06,1,,,,,クフウバンク,0
1939,8011101036032,登記記録の閉鎖等,0,2024-09-09,2024-09-04,株式会社佐々浪ファーマシー,,株式会社,東京都,世田谷区,岡本３丁目１１番１５－１０７号,,13,112,1570076,,,2024-09-04,合併による解散等,3011201013506,令和６年９月１日東京都中野区中央一丁目３８番１号ファーマライズ株式会社（3011201013506）に合併し解散,2015-10-05,1,,,,,ササナミファーマシー,0
1946,8011201017493,登記記録の閉鎖等,0,2024-09-09,2024-09-04,株式会社レオパレス・エナジー,,株式会社,東京都,中野区,本町２丁目５４番１１号,,13,114,1640012,,,2024-09-04,合併による解散等,7011201016249,令和６年９月１日東京都中野区本町二丁目５４番１１号株式会社レオパレス・パワー（7011201016249）に合併し解散,2015-10-05,1,,,,,レオパレスエナジー,0
1954,8012301000067,登記記録の閉鎖等,0,2024-09-09,2024-09-04,株式会社スタジオ・ギミック,,株式会社,東京都,町田市,上小山田町３０４０番地１３,,13,209,1940201,,,2024-09-04,清算の結了等,,,2015-10-05,1,,,,,スタジオギミック,0
1958,8012801004022,登記記録の閉鎖等,0,2024-09-09,2024-09-03,多摩デリバリー株式会社,,株式会社,東京都,昭島市,武蔵野３丁目２番４５号,,13,207,1960021,,,2024-09-03,清算の結了等,,,2015-10-05,1,,,,,タマデリバリー,0
1966,8020001055265,登記記録の閉鎖等,0,2024-09-09,2024-09-04,マイ・カンパニー株式会社,,株式会社,東京都,世田谷区,砧２丁目１４番１２－４２０号,,13,112,1570073,,,2024-09-04,清算の結了等,,,2015-10-05,1,,,,,マイカンパニー,0
1971,8020001145173,登記記録の閉鎖等,0,2024-09-09,2024-08-19,一輝グループホールディングス株式会社,,株式会社,神奈川県,横浜市泉区,和泉町６５４８,,14,116,2450016,,,2024-08-19,清算の結了等,,,2022-02-09,1,,,,,イッキグループホールディングス,0
1974,8020002047757,登記記録の閉鎖等,0,2024-09-09,2024-08-21,有限会社アイティ,,有限会社,神奈川県,横浜市青葉区,梅が丘１９番６号,,14,117,2270052,,,2024-08-21,清算の結了等,,,2015-10-05,1,,,,,アイティ,0
1977,8020002100086,登記記録の閉鎖等,0,2024-09-09,2024-08-15,有限会社サンシンコーポレーション,,有限会社,神奈川県,横浜市都筑区,東山田１丁目３１番１３号,,14,118,2240023,,,2024-08-15,清算の結了等,,,2015-10-05,1,,,,,サンシンコーポレーション,0
1980,8021001030092,登記記録の閉鎖等,0,2024-09-09,2024-09-05,株式会社タツノテック,,株式会社,神奈川県,座間市,立野台１丁目２番４号,,14,216,2520023,,,2024-09-05,清算の結了等,,,2015-10-05,1,,,,,タツノテック,0
1982,8021001068612,登記記録の閉鎖等,0,2024-09-09,2024-09-05,株式会社Ｋ’ｓ　ＨＯＵＳＥ,,株式会社,神奈川県,茅ヶ崎市,東海岸北３丁目９－７－１０１,,14,207,2530053,,,2024-09-05,清算の結了等,,,2019-11-18,1,,,,,ケーズハウス,0
1986,8030001049927,登記記録の閉鎖等,0,2024-09-09,2024-09-02,株式会社たけごしニューライフコーポレイション,,株式会社,埼玉県,和光市,本町３１番８－１３０３号ＣＩハイツ,,11,229,3510114,,,2024-09-02,清算の結了等,,,2015-10-05,1,,,,,タケゴシニューライフコーポレイション,0
1995,8040001035983,登記記録の閉鎖等,0,2024-09-09,2024-09-02,株式会社大樹,,株式会社,千葉県,松戸市,牧の原１丁目１６４番地,,12,207,2702267,,,2024-09-02,清算の結了等,,,2015-10-05,1,,,,,ダイキ,0
2017,8080401014880,登記記録の閉鎖等,0,2024-09-09,2024-09-02,落合刃物商事株式会社,,株式会社,静岡県,菊川市,西方５８番地,,22,224,4390037,,,2024-09-02,合併による解散等,1080401014879,令和６年９月１日静岡県菊川市西方５８番地落合刃物工業株式会社（1080401014879）に合併し解散,2015-10-05,1,,,,,オチアイハモノショウジ,0
2029,8120001207005,登記記録の閉鎖等,0,2024-09-09,2024-09-02,株式会社サクラワールドトレード,,株式会社,大阪府,大阪市大正区,平尾３丁目２３番６号,,27,108,5510012,,,2024-09-02,合併による解散等,7120001174683,令和６年９月１日大阪市淀川区東三国六丁目１番１－１０９号プラナリア株式会社（7120001174683）に合併し解散,2017-07-26,1,,,,,サクラワールドトレード,0
2047,8130001010358,登記記録の閉鎖等,0,2024-09-09,2024-09-06,協栄通信工業株式会社,,株式会社,京都府,京都市南区,吉祥院中島町３０番地の２,,26,107,6018313,,,2024-09-06,清算の結了等,,,2015-10-05,1,,,,,キョウエイツウシンコウギョウ,0
2049,8130001038135,登記記録の閉鎖等,0,2024-09-09,2024-09-05,株式会社ツジトミ,,株式会社,京都府,八幡市,八幡高坊１０番地の７,,26,210,6148005,,,2024-09-05,清算の結了等,,,2015-10-05,1,,,,,ツジトミ,0
2066,8180002032867,登記記録の閉鎖等,0,2024-09-09,2024-08-30,有限会社正木地質,,有限会社,愛知県,名古屋市天白区,天白町大字野並字境根２００６番地の５,,23,116,4680037,,,2024-08-30,清算の結了等,,,2015-10-05,1,,,,,マサキチシツ,0
2068,8180302015720,登記記録の閉鎖等,0,2024-09-09,2024-09-02,有限会社にしむら洋品店,,有限会社,愛知県,蒲郡市,竹谷町松田７４番地２０７,,23,214,4430046,,,2024-09-02,清算の結了等,,,2015-10-05,1,,,,,ニシムラヨウヒンテン,0
2078,8200002008699,登記記録の閉鎖等,0,2024-09-09,2024-09-05,有限会社ティエイチオフィス,,有限会社,岐阜県,岐阜市,鏡島南２丁目８番３０号,,21,201,5010115,,,2024-09-05,清算の結了等,,,2015-10-05,1,,,,,ティエイチオフィス,0
2086,8260001021193,登記記録の閉鎖等,0,2024-09-09,2024-09-06,株式会社アーキテック,,株式会社,岡山県,苫田郡鏡野町,布原１０９番地４,,33,606,7080331,,,2024-09-06,清算の結了等,,,2015-10-05,1,,,,,アーキテック,0
2089,8260002004197,登記記録の閉鎖等,0,2024-09-09,2024-09-03,西大寺ブロツク有限会社,,有限会社,岡山県,岡山市東区,金田４６９番地の１,,33,103,7048196,,,2024-09-03,清算の結了等,,,2015-10-05,1,,,,,サイダイジブロック,0
2090,8280002011308,登記記録の閉鎖等,0,2024-09-09,2024-09-06,有限会社木次浄化槽センター,,有限会社,島根県,雲南市,大東町前原３６４番地,,32,209,6991234,,,2024-09-06,清算の結了等,,,2015-10-05,1,,,,,キスキジョウカソウセンター,0
2091,8290001053069,登記記録の閉鎖等,0,2024-09-09,2024-07-29,東和工業株式会社,,株式会社,福岡県,柳川市,三橋町蒲船津１４０４番地３８レジェンド筑紫Ｉ１０２号,00113992,40,207,8320827,,,2024-07-29,清算の結了等,,,2015-10-05,1,,,,,トウワコウギョウ,0
2105,8360001018345,登記記録の閉鎖等,0,2024-09-09,2024-09-04,株式会社シーフォレスト,,株式会社,沖縄県,石垣市,字伊原間２番地７３６,,47,207,9070332,,,2024-09-04,清算の結了等,,,2015-10-05,1,,,,,シーフォレスト,0
2116,8380001021487,登記記録の閉鎖等,0,2024-09-09,2024-08-29,株式会社アナセム,,株式会社,福島県,福島市,笹谷字上成出８番地の７,,07,201,9600241,,,2024-08-29,清算の結了等,,,2015-10-05,1,,,,,アナセム,0
2121,8430001074884,登記記録の閉鎖等,0,2024-09-09,2024-09-02,株式会社岩松産業,,株式会社,北海道,札幌市中央区,南八条西４丁目４２２番地,,01,101,0640808,,,2024-09-02,清算の結了等,,,2017-09-07,1,,,,,イワマツサンギョウ,0
2123,8450001009228,登記記録の閉鎖等,0,2024-09-09,2024-09-02,株式会社木下運輸,,株式会社,北海道,苫前郡羽幌町,北二条１丁目９番地２,,01,484,0784112,,,2024-09-02,清算の結了等,,,2015-10-05,1,,,,,キノシタウンユ,0
2124,8470002012922,登記記録の閉鎖等,0,2024-09-09,2024-09-04,有限会社白井タクシー,,有限会社,香川県,善通寺市,善通寺町１丁目１番８号,,37,204,7650003,,,2024-09-04,清算の結了等,,,2015-10-05,1,,,,,シライタクシー,0
2143,9010003025365,登記記録の閉鎖等,0,2024-09-09,2024-08-26,合同会社開発３３号,,合同会社,東京都,千代田区,飯田橋１丁目３番２号曙杉館４階ＲＳＭ清和コンサルティング株式会社内,,13,101,1020072,,,2024-08-26,清算の結了等,,,2017-05-23,1,,,,,カイハツサンジュウサンゴウ,0
2174,9010902026091,登記記録の閉鎖等,0,2024-09-09,2024-09-05,有限会社スリーグッド,,有限会社,東京都,世田谷区,下馬１丁目２７番１５号,,13,112,1540002,,,2024-09-05,清算の結了等,,,2015-10-05,1,,,,,スリーグッド,0
2205,9020001109755,登記記録の閉鎖等,0,2024-09-09,2024-08-26,株式会社食,,株式会社,神奈川県,川崎市幸区,紺屋町６２番地１,,14,132,2120026,,,2024-08-26,清算の結了等,,,2015-10-05,1,,,,,ショク,0
2208,9020001139364,登記記録の閉鎖等,0,2024-09-09,2024-08-19,株式会社Ｐｉｅｎｏデザイン,,株式会社,神奈川県,川崎市多摩区,南生田７丁目１７番１２号,,14,135,2140036,,,2024-08-19,清算の結了等,,,2021-01-07,1,,,,,ピエノデザイン,0
2210,9020002043276,登記記録の閉鎖等,0,2024-09-09,2024-08-22,有限会社鈴木美芳堂薬局,,有限会社,神奈川県,横浜市中区,本郷町３丁目６９番地,,14,104,2310843,,,2024-08-22,清算の結了等,,,2015-10-05,1,,,,,スズキビホウドウヤッキョク,0
2212,9020002052905,登記記録の閉鎖等,0,2024-09-09,2024-08-28,有限会社シーホープ,,有限会社,神奈川県,横浜市金沢区,谷津町３６５番地ヨシエダビル３Ｆ,,14,108,2360016,,,2024-08-28,清算の結了等,,,2015-10-05,1,,,,,シーホープ,0
2213,9020003002925,登記記録の閉鎖等,0,2024-09-09,2024-08-26,合資会社アイビーシー,,合資会社,神奈川県,横浜市緑区,十日市場町８７４番地１９,,14,113,2260025,,,2024-08-26,清算の結了等,,,2015-10-05,1,,,,,アイビーシー,0
2214,9020003010473,登記記録の閉鎖等,0,2024-09-09,2024-08-16,合同会社Ｍ．Ｄｅｃｏ,,合同会社,神奈川県,横浜市戸塚区,矢部町６６４番地,,14,110,2440002,,,2024-08-16,清算の結了等,,,2015-10-14,1,,,,,,0
2231,9030002016529,登記記録の閉鎖等,0,2024-09-09,2024-08-30,有限会社イツミ,,有限会社,埼玉県,さいたま市南区,別所７丁目９番３号,,11,108,3360021,,,2024-08-30,清算の結了等,,,2015-10-05,1,,,,,イツミ,0
2240,9040001124802,登記記録の閉鎖等,0,2024-09-09,2024-09-02,株式会社菜の花レジデンス,,株式会社,千葉県,木更津市,東太田４丁目３番５号,,12,206,2920043,,,2024-09-02,合併による解散等,5040001093844,令和６年９月１日千葉県木更津市東太田四丁目３番５号株式会社菜の花ｈｏｍｅ（5040001093844）に合併し解散,2022-08-26,1,,,,,ナノハナレジデンス,0
2280,9120001176851,登記記録の閉鎖等,0,2024-09-09,2024-09-05,株式会社ＩＴ　ｃｒｅａｔｅ,,株式会社,大阪府,大阪市東淀川区,東中島２丁目９番１５号,,27,114,5330033,,,2024-09-05,清算の結了等,,,2015-10-05,1,,,,,アイティクリエイト,0
2318,9160005008881,登記記録の閉鎖等,0,2024-09-09,2024-09-05,守山市石油協同組合,,その他の設立登記法人,滋賀県,守山市,勝部２丁目４番６号,,25,207,5240041,,,2024-09-05,清算の結了等,,,2015-10-05,1,,,,,モリヤマシセキユ,0
2321,9170005003691,登記記録の閉鎖等,0,2024-09-09,2024-09-05,太間川上字生産森林組合,,その他の設立登記法人,和歌山県,西牟婁郡すさみ町,太間川３７９番地,,30,406,6492631,,,2024-09-05,清算の結了等,,,2015-10-05,1,,,,,タイマガワカミアザ,0
2327,9180301030397,登記記録の閉鎖等,0,2024-09-09,2024-09-02,レジオン株式会社,,株式会社,愛知県,豊田市,土橋町３丁目８８番地,,23,211,4710842,,,2024-09-02,清算の結了等,,,2017-05-30,1,,,,,レジオン,0
2329,9190001004931,登記記録の閉鎖等,0,2024-09-09,2024-09-03,株式会社キングフードサービス,,株式会社,三重県,鈴鹿市,南玉垣町２８６７番地の３,,24,207,5130816,,,2024-09-03,清算の結了等,,,2015-10-05,1,,,,,キングフードサービス,0
2330,9190001029912,登記記録の閉鎖等,0,2024-09-09,2024-09-06,株式会社女神ラボ,,株式会社,三重県,伊賀市,治田４６７５番地,,24,216,5181155,,,2024-09-06,清算の結了等,,,2022-11-09,1,,,,,メガミラボ,0
2331,9190002001671,登記記録の閉鎖等,0,2024-09-09,2024-09-06,有限会社優和サプライ,,有限会社,三重県,津市,新町２丁目２番２号,,24,201,5140042,,,2024-09-06,清算の結了等,,,2015-10-05,1,,,,,ユウワサプライ,0
2335,9200001023203,登記記録の閉鎖等,0,2024-09-09,2024-09-03,ＴＡＫＡＩＮＴＥＲＮＡＴＩＯＮＡＬＴＲＡＤＩＮＧＪＡＰＡＮ株式会社,,株式会社,岐阜県,多治見市,希望ケ丘３丁目８番地,,21,204,5070008,,,2024-09-03,清算の結了等,,,2015-10-05,1,,,,,タカインターナショナルトレーディングジャパン,0
2337,9200001037707,登記記録の閉鎖等,0,2024-09-09,2024-09-04,株式会社アミカル保険事務所,,株式会社,岐阜県,大垣市,直江町１８９番地２,,21,202,5030815,,,2024-09-04,清算の結了等,,,2020-08-07,1,,,,,アミカルホケンジムショ,0
2358,9290001087017,登記記録の閉鎖等,0,2024-09-09,2024-07-31,株式会社ティーアールアイアシスト,,株式会社,福岡県,福岡市中央区,薬院２丁目３番３６－１１０２号,,40,133,8100022,,,2024-07-31,清算の結了等,,,2019-11-07,1,,,,,ティーアールアイアシスト,0
2369,9330002022265,登記記録の閉鎖等,0,2024-09-09,2024-09-03,有限会社松岡商会,,有限会社,熊本県,玉名郡南関町,大字関町１５１６番地の１,,43,367,8610803,,,2024-09-03,清算の結了等,,,2015-10-05,1,,,,,マツオカショウカイ,0
2372,9370001039307,登記記録の閉鎖等,0,2024-09-09,2024-08-29,ＳＧＩ株式会社,,株式会社,宮城県,仙台市青葉区,葉山町５番１－１０２号,,04,101,9810917,,,2024-08-29,清算の結了等,,,2016-03-11,1,,,,,エスジーアイ,0
2373,9370001044793,登記記録の閉鎖等,0,2024-09-09,2024-08-27,株式会社東北フーヅ,,株式会社,宮城県,仙台市宮城野区,扇町３丁目１番２０号,,04,102,9830034,,,2024-08-27,清算の結了等,,,2019-09-05,1,,,,,トウホクフーヅ,0
