sequenceNumber,corporateNumber,process,correct,updateDate,changeDate,name,nameImageId,kind,prefectureName,cityName,streetNumber,addressImageId,prefectureCode,cityCode,postCode,addressOutside,addressOutsideImageId,closeDate,closeCause,successorCorporateNumber,changeCause,assignmentDate,latest,enName,enPrefectureName,enCityName,enAddressOutside,furigana,hihyoji
1,1010001054456,登記記録の閉鎖等,0,2021-12-02,2021-11-26,株式会社パイオニア映画シネマデスク社,,株式会社,東京都,港区,高輪２丁目１６番４２号,,13,103,1080074,,,2021-11-26,清算の結了等,,,2015-10-05,1,,,,,パイオニアエイガシネマデスクシャ,0
9,1010003022717,登記記録の閉鎖等,0,2021-12-02,2021-11-25,合同会社飯田橋プロパティ,,合同会社,東京都,港区,虎ノ門５丁目１番４号,,13,103,1050001,,,2021-11-25,清算の結了等,,,2015-11-26,1,,,,,イイダバシプロパティ,0
11,1010005028877,登記記録の閉鎖等,0,2021-12-02,2021-11-30,一般社団法人ＧＱ総合研究所,,その他の設立登記法人,東京都,千代田区,岩本町３丁目２番２号,,13,101,1010032,,,2021-11-30,清算の結了等,,,2018-08-02,1,,,,,ジーキューソウゴウケンキュウジョ,0
16,1010105000117,登記記録の閉鎖等,0,2021-12-02,2021-11-30,医療法人社団賢実会,,その他の設立登記法人,東京都,八王子市,長房町３７３番地の２渡辺ビル２階,,13,201,1930824,,,2021-11-30,清算の結了等,,,2015-10-05,1,,,,,,0
27,1010401154987,登記記録の閉鎖等,0,2021-12-02,2021-11-26,株式会社ネットライクル,,株式会社,東京都,港区,南青山２丁目２番１５号ウィン青山９４２,,13,103,1070062,,,2021-11-26,清算の結了等,,,2020-09-08,1,,,,,ネットライクル,0
30,1010405016317,登記記録の閉鎖等,0,2021-12-02,2021-11-26,ＥＳＲ野田中里特定目的会社,,その他の設立登記法人,東京都,港区,赤坂２丁目１０番５号税理士法人赤坂国際会計事務所内,,13,103,1070052,,,2021-11-26,清算の結了等,,,2017-12-15,1,,,,,イーエスアールノダナカザト,0
38,1010901022974,登記記録の閉鎖等,0,2021-12-02,2021-12-01,株式会社ブイトレーディング,,株式会社,東京都,世田谷区,用賀４丁目３３番２１号,,13,112,1580097,,,2021-12-01,清算の結了等,,,2015-10-05,1,,,,,ブイトレーディング,0
42,1011001098336,登記記録の閉鎖等,0,2021-12-02,2021-09-01,株式会社ジェイエムエス・シックス,,株式会社,東京都,新宿区,西新宿３丁目２０番２号,,13,104,1600023,,,2021-09-01,合併による解散等,9011001090260,令和３年９月１日東京都新宿区西新宿三丁目２０番２号株式会社ジェイエムエス・ワン（9011001090260）に合併し解散,2015-10-05,1,,,,,ジェイエムエスシックス,0
43,1011001121774,登記記録の閉鎖等,0,2021-12-02,2021-11-01,ＲＦＡ　Ｔｅｃｈｎｏｌｏｇｙ株式会社,,株式会社,東京都,渋谷区,千駄ヶ谷３丁目３番８号第５スカイビル２Ｆ,,13,113,1510051,,,2021-11-01,合併による解散等,5011001066603,令和３年１１月１日東京都渋谷区千駄ヶ谷三丁目３番８号第５スカイビル２ＦＲＦＡ　ｄｉｇｉｔａｌ　ｂｒａｉｎｓ株式会社（5011001066603）に合併し解散,2018-04-18,1,,,,,アルファテクノロジー,0
48,1011101060410,登記記録の閉鎖等,0,2021-12-02,2021-11-29,株式会社ヱニシ,,株式会社,東京都,千代田区,神田多町２丁目４番地２,,13,101,1010046,,,2021-11-29,清算の結了等,,,2015-10-05,1,,,,,エニシ,0
60,1011602009583,登記記録の閉鎖等,0,2021-12-02,2021-12-01,有限会社ミタキ,,有限会社,東京都,練馬区,平和台１丁目１４番１８号,,13,120,1790083,,,2021-12-01,清算の結了等,,,2015-10-05,1,,,,,ミタキ,0
61,1011701011119,登記記録の閉鎖等,0,2021-12-02,2021-11-30,株式会社豊四季,,株式会社,東京都,江戸川区,篠崎町７丁目１７－１８,,13,123,1330061,,,2021-11-30,清算の結了等,,,2015-10-05,1,,,,,トヨシキ,0
78,1020001073389,登記記録の閉鎖等,0,2021-12-02,2021-11-29,セルペン株式会社,,株式会社,神奈川県,川崎市川崎区,塩浜２丁目１９番１８号,,14,131,2100826,,,2021-11-29,清算の結了等,,,2015-10-05,1,,,,,セルペン,0
80,1020001094138,登記記録の閉鎖等,0,2021-12-02,2021-11-30,株式会社ＫＴ’Ｓ,,株式会社,神奈川県,川崎市麻生区,上麻生５丁目２４番１２号,,14,137,2150021,,,2021-11-30,清算の結了等,,,2015-10-05,1,,,,,ケーティーズ,0
83,1021001001777,登記記録の閉鎖等,0,2021-12-02,2021-11-29,株式会社浜屋百貨店,,株式会社,神奈川県,藤沢市,下土棚４６８番地,,14,205,2520807,,,2021-11-29,清算の結了等,,,2015-10-05,1,,,,,ハマヤヒャッカテン,0
94,1030002085614,登記記録の閉鎖等,0,2021-12-02,2021-11-30,有限会社川内冷機,,有限会社,埼玉県,越谷市,登戸町１０番３０号,,11,222,3430846,,,2021-11-30,清算の結了等,,,2015-10-05,1,,,,,カワウチレイキ,0
97,1040001018482,登記記録の閉鎖等,0,2021-12-02,2021-11-25,株式会社播摩商事,,株式会社,千葉県,船橋市,三山８丁目３６番４－２０３号,,12,204,2740072,,,2021-11-25,清算の結了等,,,2015-10-05,1,,,,,ハリマショウジ,0
104,1040002096494,登記記録の閉鎖等,0,2021-12-02,2021-11-29,有限会社エフォト,,有限会社,千葉県,柏市,明原３丁目８番５コーポリュビーラ１０４号,,12,217,2770843,,,2021-11-29,清算の結了等,,,2015-10-05,1,,,,,エフォト,0
128,1080401001679,登記記録の閉鎖等,0,2021-12-02,2021-11-30,株式会社工務店鈴野,,株式会社,静岡県,浜松市中区,住吉５丁目４番１７号,,22,131,4300906,,,2021-11-30,清算の結了等,,,2015-10-05,1,,,,,コウムテンスズノ,0
129,1090001012357,登記記録の閉鎖等,0,2021-12-02,2021-11-26,株式会社あけぼの開発,,株式会社,山梨県,南巨摩郡富士川町,青柳町３１７番地の１,,19,368,4000501,,,2021-11-26,清算の結了等,,,2015-10-05,1,,,,,アケボノカイハツ,0
133,1100002002363,登記記録の閉鎖等,0,2021-12-02,2021-12-01,有限会社シノノイマルマン,,有限会社,長野県,長野市,篠ノ井御幣川３０３番地１,,20,201,3888006,,,2021-12-01,合併による解散等,8100002005112,令和３年１２月１日長野市篠ノ井御幣川３０３番地１株式会社ミヤザキ（8100002005112）に合併し解散,2015-10-05,1,,,,,シノノイマルマン,0
181,1140003015105,登記記録の閉鎖等,0,2021-12-02,2021-11-17,合同会社フェアリースピーシーズ,,合同会社,兵庫県,神戸市須磨区,須磨浦通２丁目３番３１号２０１,,28,107,6540055,,,2021-11-17,清算の結了等,,,2020-06-30,1,,,,,フェアリースピーシーズ,0
185,1140005011151,登記記録の閉鎖等,0,2021-12-02,2021-11-15,天理教明心恵分教会,,その他の設立登記法人,兵庫県,尼崎市,昭和南通６丁目１３８番地,,28,202,6600882,,,2021-11-15,合併による解散等,8140005011095,令和３年１１月１５日兵庫県尼崎市宮内町三丁目１２６番地天理教港梅分教会（8140005011095）に合併し解散,2015-10-05,1,,,,,テンリキョウメイシンエブンキョウカイ,0
194,1180001083793,登記記録の閉鎖等,0,2021-12-02,2021-11-30,松本商工株式会社,,株式会社,愛知県,一宮市,牛野通２丁目２８番地２,,23,203,4910846,,,2021-11-30,清算の結了等,,,2015-10-05,1,,,,,マツモトショウコウ,0
218,1200002003021,登記記録の閉鎖等,0,2021-12-02,2021-11-30,有限会社ツザキ広告,,有限会社,岐阜県,岐阜市,岩地３丁目１０番１６号,,21,201,5008225,,,2021-11-30,清算の結了等,,,2015-10-05,1,,,,,ツザキコウコク,0
248,1290801018401,登記記録の閉鎖等,0,2021-12-02,2021-11-29,株式会社プラタナス企画,,株式会社,福岡県,田川市,西本町１番２４号,,40,206,8260024,,,2021-11-29,清算の結了等,,,2015-10-05,1,,,,,プラタナスキカク,0
252,1290805000867,登記記録の閉鎖等,0,2021-12-02,2021-12-01,毎日新聞西部販売店協同組合,,その他の設立登記法人,福岡県,北九州市小倉北区,紺屋町１３番１号,,40,106,8020081,,,2021-12-01,清算の結了等,,,2015-10-05,1,,,,,マイニチシンブンセイブハンバイテン,0
272,1380001017013,登記記録の閉鎖等,0,2021-12-02,2021-11-26,株式会社菅野工業,,株式会社,福島県,双葉郡浪江町,大字西台字谷地１０９番地６,,07,547,9791503,,,2021-11-26,清算の結了等,,,2015-10-05,1,,,,,カンノコウギョウ,0
274,1380002031657,登記記録の閉鎖等,0,2021-12-02,2021-11-29,有限会社京瑚紋,,有限会社,福島県,会津若松市,和田２丁目２番２５号,,07,202,9650811,,,2021-11-29,清算の結了等,,,2015-10-05,1,,,,,,0
291,1480001005107,登記記録の閉鎖等,0,2021-12-02,2021-11-30,中野テレビ株式会社,,株式会社,徳島県,鳴門市,撫養町南浜字蛭子前西１５５番地１,,36,202,7720003,,,2021-11-30,清算の結了等,,,2015-10-05,1,,,,,ナカノテレビ,0
293,1480005001366,登記記録の閉鎖等,0,2021-12-02,2021-11-16,天理教沖洲分教会,,その他の設立登記法人,徳島県,徳島市,北沖洲２丁目２番３号,,36,201,7700872,,,2021-11-16,合併による解散等,1480005001498,令和３年１１月１６日徳島市新蔵町三丁目２６番地天理教渭津分教会（1480005001498）に合併し解散,2015-10-05,1,,,,,テンリキョウオキノスブンキョウカイ,0
299,2010001169617,登記記録の閉鎖等,0,2021-12-02,2021-11-30,株式会社ＮＯＧＵＣＨＩ,,株式会社,東京都,千代田区,内幸町１丁目１番１号,,13,101,1000011,,,2021-11-30,清算の結了等,,,2015-10-05,1,,,,,ノグチ,0
301,2010002006166,登記記録の閉鎖等,0,2021-12-02,2021-11-29,有限会社矢嶋商事,,有限会社,東京都,文京区,本郷２丁目２６番１号,,13,105,1130033,,,2021-11-29,清算の結了等,,,2015-10-05,1,,,,,ヤジマショウジ,0
303,2010003032269,登記記録の閉鎖等,0,2021-12-02,2021-11-29,合同会社稲妻インベストメント,,合同会社,東京都,千代田区,丸の内３丁目１番１号東京共同会計事務所内,,13,101,1000005,,,2021-11-29,清算の結了等,,,2020-05-25,1,,,,,イナズマインベストメント,0
305,2010005023159,登記記録の閉鎖等,0,2021-12-02,2021-11-30,一般社団法人ＫＳＬＦ３,,その他の設立登記法人,東京都,千代田区,内幸町２丁目１番６号,,13,101,1000011,,,2021-11-30,清算の結了等,,,2015-10-05,1,,,,,ケイエスエルエフスリー,0
312,2010401087798,登記記録の閉鎖等,0,2021-12-02,2021-11-30,株式会社フリックス,,株式会社,高知県,四万十市,有岡１０４１番地１,,39,210,7870771,,,2021-11-30,清算の結了等,,,2015-10-05,1,,,,,フリックス,0
317,2010403012837,登記記録の閉鎖等,0,2021-12-02,2021-11-26,合同会社ＴＳＭ１２４,,合同会社,東京都,港区,元赤坂１丁目１番７号,,13,103,1070051,,,2021-11-26,清算の結了等,,,2015-10-05,1,,,,,ティーエスエムヒャクニジュウヨン,0
320,2010405016332,登記記録の閉鎖等,0,2021-12-02,2021-11-26,ＥＳＲ野田中里１一般社団法人,,その他の設立登記法人,東京都,港区,赤坂２丁目１０番５号税理士法人赤坂国際会計事務所内,,13,103,1070052,,,2021-11-26,清算の結了等,,,2017-12-21,1,,,,,イーエスアールノダナカザトワン,0
327,2010901041569,登記記録の閉鎖等,0,2021-12-02,2021-11-22,ヒッキーズ・ジャパン株式会社,,株式会社,東京都,世田谷区,成城３丁目９番１１号,,13,112,1570066,,,2021-11-22,清算の結了等,,,2018-02-16,1,,,,,ヒッキーズジャパン,0
333,2011001094086,登記記録の閉鎖等,0,2021-12-02,2021-09-01,株式会社ジェイエムエス・スリー,,株式会社,東京都,新宿区,西新宿３丁目２０番２号,,13,104,1600023,,,2021-09-01,合併による解散等,9011001090260,令和３年９月１日東京都新宿区西新宿三丁目２０番２号株式会社ジェイエムエス・ワン（9011001090260）に合併し解散,2015-10-05,1,,,,,ジェイエムエススリー,0
342,2011102014380,登記記録の閉鎖等,0,2021-12-02,2021-11-30,有限会社司マネキン紹介所,,有限会社,東京都,新宿区,百人町１丁目２３番１１号,,13,104,1690073,,,2021-11-30,清算の結了等,,,2015-10-05,1,,,,,,0
378,2020002021453,登記記録の閉鎖等,0,2021-12-02,2021-11-30,有限会社シンセーライジング,,有限会社,神奈川県,横浜市旭区,上白根町７２９番地の５,,14,112,2410001,,,2021-11-30,清算の結了等,,,2015-10-05,1,,,,,シンセーライジング,0
382,2020003015875,登記記録の閉鎖等,0,2021-12-02,2021-11-30,合同会社かけ橋コンサルティング,,合同会社,神奈川県,横浜市都筑区,加賀原１丁目２４番１５－３０１号,,14,118,2240055,,,2021-11-30,清算の結了等,,,2019-04-10,1,,,,,カケハシコンサルティング,0
387,2021002039997,登記記録の閉鎖等,0,2021-12-02,2021-11-29,有限会社石塚自動車,,有限会社,神奈川県,大和市,下和田９７３番地,,14,213,2420015,,,2021-11-29,清算の結了等,,,2015-10-05,1,,,,,イシヅカジドウシャ,0
413,2040002031814,登記記録の閉鎖等,0,2021-12-02,2021-11-26,有限会社赤平設備工業,,有限会社,千葉県,船橋市,大穴南１丁目２８番７号,,12,204,2740067,,,2021-11-26,清算の結了等,,,2015-10-05,1,,,,,アカヒラセツビコウギョウ,0
467,2130002014999,登記記録の閉鎖等,0,2021-12-02,2021-11-30,有限会社丸新,,有限会社,京都府,京都市伏見区,石田大山町６０番地の６,,26,109,6011433,,,2021-11-30,清算の結了等,,,2015-10-05,1,,,,,マルシン,0
485,2170005001875,登記記録の閉鎖等,0,2021-12-02,2021-12-01,特定非営利活動法人福祉作業所みどりの家,,その他の設立登記法人,和歌山県,和歌山市,土佐町２丁目３８番１号,,30,201,6408256,,,2021-12-01,清算の結了等,,,2015-10-05,1,,,,,フクシサギョウショミドリノイエ,0
486,2180001002059,登記記録の閉鎖等,0,2021-12-02,2021-11-29,三陽リース建設株式会社,,株式会社,愛知県,名古屋市名東区,神丘町２丁目５３番地,,23,115,4650083,,,2021-11-29,清算の結了等,,,2015-10-05,1,,,,,,0
505,2180005005842,登記記録の閉鎖等,0,2021-12-02,2021-11-29,特定非営利活動法人生き生きネットワークてとろ,,その他の設立登記法人,愛知県,名古屋市東区,出来町３丁目２０番９号,,23,102,4610032,,,2021-11-29,清算の結了等,,,2015-10-05,1,,,,,イキイキネットワークテトロ,0
507,2180302022086,登記記録の閉鎖等,0,2021-12-02,2021-12-01,有限会社サンインテリア,,有限会社,愛知県,豊田市,泉町３丁目２番地９９,,23,211,4710803,,,2021-12-01,清算の結了等,,,2015-10-05,1,,,,,サンインテリア,0
546,2290805005808,登記記録の閉鎖等,0,2021-12-02,2021-11-12,天理教道城分教会,,その他の設立登記法人,福岡県,直方市,大字下境４１１２番地,,40,204,8220007,,,2021-11-12,合併による解散等,7290805007353,令和３年１１月１２日福岡県田川市春日町６番９号天理教宮尾分教会（7290805007353）に合併し解散,2015-10-05,1,,,,,テンリキョウドウジョウブンキョウカイ,0
571,2380001026062,登記記録の閉鎖等,0,2021-12-02,2021-11-29,株式会社ＢＯＮＤ,,株式会社,福島県,南相馬市,原町区北町６１１番地,,07,212,9750018,,,2021-11-29,清算の結了等,,,2015-10-27,1,,,,,ボンド,0
603,2460301003307,登記記録の閉鎖等,0,2021-12-02,2021-11-30,株式会社湖南荘,,株式会社,北海道,網走郡大空町,女満別湖畔１丁目１番２号,,01,564,0992306,,,2021-11-30,清算の結了等,,,2015-10-05,1,,,,,コナンソウ,0
614,3010001097478,登記記録の閉鎖等,0,2021-12-02,2021-11-29,エンジハウス・ジャパン株式会社,,株式会社,東京都,中央区,京橋２丁目７番１４号,,13,102,1040031,,,2021-11-29,清算の結了等,,,2015-10-05,1,,,,,エンジハウスジャパン,0
615,3010001119793,登記記録の閉鎖等,0,2021-12-02,2021-11-26,株式会社クラシック・サイバー・コーポレーション,,株式会社,兵庫県,神戸市東灘区,住吉本町１丁目７番９－２号,,28,101,6580051,,,2021-11-26,合併による解散等,4010001111700,令和３年１１月２６日神戸市東灘区住吉本町一丁目７番９－２号株式会社クラシック・キャピタル・コーポレーション（4010001111700）に合併し解散,2015-10-05,1,,,,,クラシックサイバーコーポレーション,0
618,3010001176926,登記記録の閉鎖等,0,2021-12-02,2021-11-26,株式会社ゴチケーション,,株式会社,東京都,中央区,日本橋兜町１７番２号兜町第６葉山ビル４階,,13,102,1030026,,,2021-11-26,清算の結了等,,,2016-07-13,1,,,,,ゴチケーション,0
619,3010001200743,登記記録の閉鎖等,0,2021-12-02,2021-11-26,Ｚ　ＧＹＭ株式会社,,株式会社,東京都,中央区,日本橋茅場町１丁目２番１４号,,13,102,1030025,,,2021-11-26,清算の結了等,,,2019-05-15,1,,,,,ゼットジム,0
635,3010401122356,登記記録の閉鎖等,0,2021-12-02,2021-11-01,ＴＭイノベーション株式会社,,株式会社,愛知県,一宮市,奥町字野方７２番地２,,23,203,4910201,,,2021-11-01,合併による解散等,2021001063544,令和３年１１月１日愛知県一宮市開明字名古羅１２番地１株式会社グロース（2021001063544）に合併し解散,2016-01-06,1,,,,,ティエムイノベーション,0
643,3010405013477,登記記録の閉鎖等,0,2021-12-02,2021-11-26,一般社団法人ＴＳＭ１２４,,その他の設立登記法人,東京都,港区,元赤坂１丁目１番７号,,13,103,1070051,,,2021-11-26,清算の結了等,,,2015-10-05,1,,,,,ティーエスエムヒャクニジュウヨン,0
650,3010502001277,登記記録の閉鎖等,0,2021-12-02,2021-11-30,有限会社居酒屋やど八,,有限会社,東京都,台東区,入谷１丁目４番６号,,13,106,1100013,,,2021-11-30,清算の結了等,,,2015-10-05,1,,,,,イザカヤヤドハチ,0
651,3010502020021,登記記録の閉鎖等,0,2021-12-02,2021-12-01,有限会社ケーワン,,有限会社,東京都,台東区,柳橋１丁目２６番１号,,13,106,1110052,,,2021-12-01,清算の結了等,,,2015-10-05,1,,,,,,0
673,3011102013605,登記記録の閉鎖等,0,2021-12-02,2021-11-29,有限会社ワークス,,有限会社,東京都,新宿区,北新宿３丁目９番１０号,,13,104,1690074,,,2021-11-29,清算の結了等,,,2015-10-05,1,,,,,ワークス,0
674,3011103007878,登記記録の閉鎖等,0,2021-12-02,2021-11-29,ＨＡＮＡｏｎｅ合同会社,,合同会社,東京都,新宿区,西新宿５丁目１０番１０号３Ｆ,,13,104,1600023,,,2021-11-29,清算の結了等,,,2018-05-02,1,,,,,ハナワン,0
701,3020002083815,登記記録の閉鎖等,0,2021-12-02,2021-11-29,有限会社ジョイ・ハウジング,,有限会社,神奈川県,川崎市中原区,下小田中２丁目１２番１０号,,14,133,2110041,,,2021-11-29,清算の結了等,,,2015-10-05,1,,,,,ジョイハウジング,0
706,3021001060607,登記記録の閉鎖等,0,2021-12-02,2021-11-01,株式会社ＷＭＫ,,株式会社,神奈川県,藤沢市,鵠沼橘１丁目２番１０号,00108330,14,205,2510024,,,2021-11-01,合併による解散等,2021001051565,令和３年１１月１日神奈川県藤沢市鵠沼橘一丁目２番１０号株式会社ｒｅｌｍｅ（2021001051565）に合併し解散,2016-11-09,1,,,,,ダブルエムケー,0
714,3030001101089,登記記録の閉鎖等,0,2021-12-02,2021-11-30,株式会社ミールラボ,,株式会社,群馬県,藤岡市,岡之郷６６０番地１,,10,209,3750011,,,2021-11-30,清算の結了等,,,2015-10-05,1,,,,,ミールラボ,0
716,3030001123091,登記記録の閉鎖等,0,2021-12-02,2021-12-01,株式会社コーユー,,株式会社,埼玉県,蕨市,中央３丁目１６番２号（７－８０３号）,,11,223,3350004,,,2021-12-01,清算の結了等,,,2017-11-20,1,,,,,コーユー,0
724,3030002121103,登記記録の閉鎖等,0,2021-12-02,2021-11-30,有限会社明石商会,,有限会社,埼玉県,秩父市,上野町２９番２２号,,11,207,3680031,,,2021-11-30,清算の結了等,,,2015-10-05,1,,,,,アカシショウカイ,0
726,3040001025717,登記記録の閉鎖等,0,2021-12-02,2021-11-30,永光特機株式会社,,株式会社,千葉県,市川市,妙典３丁目５番７号,,12,203,2720111,,,2021-11-30,清算の結了等,,,2015-10-05,1,,,,,エイコウトッキ,0
763,3120005011201,登記記録の閉鎖等,0,2021-12-02,2021-11-30,特定非営利活動法人大楽小楽,,その他の設立登記法人,大阪府,大阪市中央区,内平野町２丁目２番７号,,27,128,5400037,,,2021-11-30,清算の結了等,,,2015-10-05,1,,,,,,0
774,3130001015964,登記記録の閉鎖等,0,2021-12-02,2021-11-30,株式会社山ノ内製作所,,株式会社,京都府,京都市伏見区,横大路一本木２５番地の１,,26,109,6128252,,,2021-11-30,清算の結了等,,,2015-10-05,1,,,,,ヤマノウチセイサクショ,0
787,3150001020384,登記記録の閉鎖等,0,2021-12-02,2021-12-01,サンワ商事株式会社,,株式会社,奈良県,奈良市,西大寺東町２丁目１番６３号,,29,201,6310821,,,2021-12-01,合併による解散等,2150001000908,令和３年１２月１日奈良市西大寺東町二丁目１番６３号三和住宅株式会社（2150001000908）に合併し解散,2015-12-10,1,,,,,サンワショウジ,0
797,3180001025496,登記記録の閉鎖等,0,2021-12-02,2021-11-30,三共建設株式会社,,株式会社,愛知県,名古屋市中村区,名駅南４丁目１０番３２号,,23,105,4500003,,,2021-11-30,清算の結了等,,,2015-10-05,1,,,,,サンキョウケンセツ,0
808,3180002049420,登記記録の閉鎖等,0,2021-12-02,2021-11-29,有限会社モリテツ,,有限会社,愛知県,名古屋市北区,西志賀町３丁目４番地の２,,23,103,4620058,,,2021-11-29,清算の結了等,,,2015-10-05,1,,,,,モリテツ,0
816,3180302022465,登記記録の閉鎖等,0,2021-12-02,2021-11-30,有限会社須田木型製作所,,有限会社,愛知県,豊田市,深田町４丁目３２番地４,,23,211,4710841,,,2021-11-30,清算の結了等,,,2015-10-05,1,,,,,スダキガタセイサクショ,0
820,3210005000517,登記記録の閉鎖等,0,2021-12-02,2021-11-29,マイ・スタンプ協同組合,,その他の設立登記法人,福井県,福井市,西木田２丁目２番１号,,18,201,9188004,,,2021-11-29,清算の結了等,,,2015-10-05,1,,,,,マイスタンプ,0
823,3230002013511,登記記録の閉鎖等,0,2021-12-02,2021-11-29,有限会社黒川ＪＡＰＡＮクリエイティブ研究所,,有限会社,富山県,高岡市,本丸町４番６号,,16,202,9330045,,,2021-11-29,清算の結了等,,,2015-10-05,1,,,,,クロカワジャパンクリエイティブケンキュウショ,0
833,3290002052669,登記記録の閉鎖等,0,2021-12-02,2021-11-26,有限会社黒岩空調,,有限会社,福岡県,久留米市,荒木町白口１６７４番地１,,40,203,8300062,,,2021-11-26,清算の結了等,,,2015-10-05,1,,,,,クロイワクウチョウ,0
843,3350001012221,登記記録の閉鎖等,0,2021-12-02,2021-11-30,株式会社橋口農場,,株式会社,宮崎県,日向市,東郷町山陰１１１番地１,,45,206,8830109,,,2021-11-30,清算の結了等,,,2015-10-05,1,,,,,ハシグチノウジョウ,0
846,3360002001387,登記記録の閉鎖等,0,2021-12-02,2021-11-30,有限会社金城園芸,,有限会社,沖縄県,島尻郡渡嘉敷村,字阿波連１５２番地,,47,353,9013502,,,2021-11-30,清算の結了等,,,2015-10-05,1,,,,,キンジョウエンゲイ,0
887,3700150068045,登記記録の閉鎖等,0,2021-12-02,2021-05-01,第三銀行企業年金基金,,その他,三重県,松阪市,京町５１０番地,,24,204,5150017,,,2021-05-01,その他の清算の結了等,,,2015-12-17,1,,,,,ダイサンギンコウキギョウネンキンキキン,0
906,4010401133476,登記記録の閉鎖等,0,2021-12-02,2021-11-29,株式会社ワイレックス・ジャパン,,株式会社,東京都,千代田区,丸の内１丁目５番１号新丸の内ビルディング１０階,,13,101,1000005,,,2021-11-29,清算の結了等,,,2017-08-30,1,,,,,ワイレックスジャパン,0
909,4010403017867,登記記録の閉鎖等,0,2021-12-02,2021-11-26,ＥＳＲ野田中里合同会社,,合同会社,東京都,港区,赤坂２丁目１０番５号税理士法人赤坂国際会計事務所内,,13,103,1070052,,,2021-11-26,清算の結了等,,,2017-12-26,1,,,,,イーエスアールノダナカザト,0
915,4010902005488,登記記録の閉鎖等,0,2021-12-02,2021-11-30,有限会社啓文堂松本印刷,,有限会社,東京都,世田谷区,太子堂４丁目５番１７号,,13,112,1540004,,,2021-11-30,清算の結了等,,,2015-10-05,1,,,,,ケイブンドウマツモトインサツ,0
923,4011001112036,登記記録の閉鎖等,0,2021-12-02,2021-11-01,ＲＦＡ　ＧＯＬＤ株式会社,,株式会社,東京都,渋谷区,千駄ヶ谷３丁目３番８号第５スカイビル２Ｆ,,13,113,1510051,,,2021-11-01,合併による解散等,5011001066603,令和３年１１月１日東京都渋谷区千駄ヶ谷三丁目３番８号第５スカイビル２ＦＲＦＡ　ｄｉｇｉｔａｌ　ｂｒａｉｎｓ株式会社（5011001066603）に合併し解散,2016-07-26,1,,,,,アルファゴールド,0
933,4011101050887,登記記録の閉鎖等,0,2021-12-02,2021-11-25,株式会社李白社,,株式会社,東京都,江東区,塩浜１丁目５番３０－３０７号,,13,108,1350043,,,2021-11-25,清算の結了等,,,2015-10-05,1,,,,,リハクシャ,0
944,4011801036649,登記記録の閉鎖等,0,2021-12-02,2021-11-30,株式会社エヌース,,株式会社,東京都,足立区,小台１丁目１８番８－４０６号,,13,121,1200046,,,2021-11-30,清算の結了等,,,2019-09-24,1,,,,,エヌース,0
951,4013102003007,登記記録の閉鎖等,0,2021-12-02,2021-11-25,有限会社中里金型,,有限会社,東京都,西多摩郡瑞穂町,大字武蔵１７２番地１,,13,303,1901213,,,2021-11-25,清算の結了等,,,2015-10-05,1,,,,,ナカザトカナガタ,0
954,4013202005191,登記記録の閉鎖等,0,2021-12-02,2021-11-19,有限会社ハルピン,,有限会社,東京都,目黒区,碑文谷１丁目３番１２号,,13,110,1520003,,,2021-11-19,清算の結了等,,,2015-10-05,1,,,,,ハルピン,0
956,4013301023144,登記記録の閉鎖等,0,2021-12-02,2021-12-01,株式会社アニマック,,株式会社,埼玉県,さいたま市中央区,鈴谷７丁目１番１号,,11,105,3380013,,,2021-12-01,清算の結了等,,,2015-10-05,1,,,,,アニマック,0
957,4013301035239,登記記録の閉鎖等,0,2021-12-02,2021-11-25,クロスファンクション株式会社,,株式会社,東京都,豊島区,南大塚２丁目３７番５号,,13,116,1700005,,,2021-11-25,清算の結了等,,,2015-10-05,1,,,,,クロスファンクション,0
985,4040001095610,登記記録の閉鎖等,0,2021-12-02,2021-11-29,株式会社生活サポートセンター,,株式会社,千葉県,印旛郡酒々井町,東酒々井５丁目５番２６,,12,322,2850923,,,2021-11-29,清算の結了等,,,2016-06-08,1,,,,,セイカツサポートセンター,0
989,4060001032082,登記記録の閉鎖等,0,2021-12-02,2021-11-26,株式会社川久,,株式会社,栃木県,足利市,大町５番地４,,09,202,3260056,,,2021-11-26,清算の結了等,,,2019-11-13,1,Kawakyu Inc.,Tochigi,"5-4 Dai-cho, Ashikaga shi",,,0
990,4070001000170,登記記録の閉鎖等,0,2021-12-02,2021-11-30,株式会社アドミサービス,,株式会社,群馬県,前橋市,幸塚町６０番地８,,10,201,3710053,,,2021-11-30,清算の結了等,,,2015-10-05,1,,,,,アドミサービス,0
1001,4080105003564,登記記録の閉鎖等,0,2021-12-02,2021-11-30,富士宮造園協同組合,,その他の設立登記法人,静岡県,富士宮市,杉田１０６９番地,,22,207,4180021,,,2021-11-30,清算の結了等,,,2015-10-05,1,,,,,フジノミヤゾウエン,0
1006,4100003004892,登記記録の閉鎖等,0,2021-12-02,2021-11-29,合同会社大和,,合同会社,長野県,北佐久郡軽井沢町,大字長倉３７７９番地３,,20,321,3890111,,,2021-11-29,清算の結了等,,,2018-02-15,1,,,,,ヤマト,0
1011,4120001106994,登記記録の閉鎖等,0,2021-12-02,2021-11-29,株式会社フェニックス,,株式会社,大阪府,大阪市中央区,大手前２丁目１番７号大阪赤十字会館９階,,27,128,5400008,,,2021-11-29,清算の結了等,,,2015-10-05,1,,,,,,0
1026,4122001007479,登記記録の閉鎖等,0,2021-12-02,2021-11-29,株式会社丸勝,,株式会社,大阪府,東大阪市,友井５丁目５番４６号,,27,227,5770816,,,2021-11-29,清算の結了等,,,2015-10-05,1,,,,,マルショウ,0
1041,4140005001406,登記記録の閉鎖等,0,2021-12-02,2021-11-17,天理教吉福分教会,00041977,その他の設立登記法人,兵庫県,神戸市須磨区,東町３丁目１番１６号,,28,107,6540033,,,2021-11-17,合併による解散等,1140005001144,令和３年１１月１７日神戸市須磨区須磨浦通五丁目２番１３号天理教梅香分教会（1140005001144）に合併し解散,2015-10-05,1,,,,,テンリキョウヨシフクブンキョウカイ,0
1052,4180002041946,登記記録の閉鎖等,0,2021-12-02,2021-11-29,有限会社カスガ,,有限会社,愛知県,名古屋市西区,城西２丁目５番４号,,23,104,4510031,,,2021-11-29,清算の結了等,,,2015-10-05,1,,,,,カスガ,0
1066,4220001014205,登記記録の閉鎖等,0,2021-12-02,2021-11-10,田中フォールディング株式会社,,株式会社,石川県,小松市,白江町ニ４７番地,,17,203,9230811,,,2021-11-10,清算の結了等,,,2015-10-05,1,,,,,タナカフォールディング,0
1071,4230001013809,登記記録の閉鎖等,0,2021-12-02,2021-11-29,株式会社ＧＯＳＵＫＥ,,株式会社,富山県,高岡市,清水町２丁目２番７号,,16,202,9330866,,,2021-11-29,清算の結了等,,,2015-10-05,1,,,,,,0
1076,4240005003895,登記記録の閉鎖等,0,2021-12-02,2021-11-12,天理教名豊栄分教会,,その他の設立登記法人,広島県,東広島市,豊栄町清武１９９８番地の１,,34,212,7392313,,,2021-11-12,合併による解散等,9240005000418,令和３年１１月１２日広島市南区宇品御幸三丁目４番１１号天理教宇品港分教会（9240005000418）に合併し解散,2015-10-05,1,,,,,テンリキョウメイホウエイブンキョウカイ,0
1079,4260001013839,登記記録の閉鎖等,0,2021-12-02,2021-11-30,大印株式会社倉敷大果,,株式会社,岡山県,倉敷市,西中新田５２５番地の２,,33,202,7100833,,,2021-11-30,清算の結了等,,,2015-10-05,1,,,,,ダイジルシクラシキタイカ,0
1130,4370103000550,登記記録の閉鎖等,0,2021-12-02,2021-11-26,合名会社奈良工業所,,合名会社,宮城県,白石市,郡山字鹿野２８番地,,04,206,9890203,,,2021-11-26,清算の結了等,,,2015-10-05,1,,,,,ナラコウギョウショ,0
1134,4400001008469,登記記録の閉鎖等,0,2021-12-02,2021-12-01,株式会社銀河エナジー,,株式会社,岩手県,釜石市,大平町４丁目１番１１号,,03,211,0260002,,,2021-12-01,清算の結了等,,,2015-10-05,1,,,,,ギンガエナジー,0
1143,4430001069698,登記記録の閉鎖等,0,2021-12-02,2021-11-29,フラワーヒルズ株式会社,,株式会社,北海道,札幌市中央区,北五条東２丁目６－１８１１,,01,101,0600035,,,2021-11-29,清算の結了等,,,2015-10-05,1,,,,,フラワーヒルズ,0
1148,4450001002327,登記記録の閉鎖等,0,2021-12-02,2021-11-30,ハローガス旭川株式会社,,株式会社,北海道,旭川市,二条通３丁目左８号,,01,204,0700032,,,2021-11-30,清算の結了等,,,2015-10-05,1,,,,,ハローガスアサヒカワ,0
1164,5010001019950,登記記録の閉鎖等,0,2021-12-02,2021-11-29,株式会社ＭＫＳコンサルティング,,株式会社,東京都,千代田区,一番町２２番地１ブランズザ・ハウス一番町６０１,,13,101,1020082,,,2021-11-29,清算の結了等,,,2015-10-05,1,,,,,エムケイエスコンサルティング,0
1166,5010001079210,登記記録の閉鎖等,0,2021-12-02,2021-11-29,株式会社ＭＫＳパートナーズ,,株式会社,東京都,中央区,八重洲１丁目７番２０号,,13,102,1030028,,,2021-11-29,清算の結了等,,,2015-10-05,1,,,,,エムケーエスパートナーズ,0
1185,5010403025423,登記記録の閉鎖等,0,2021-12-02,2021-11-26,Ｋｙｒｏｎ１合同会社,,合同会社,東京都,港区,虎ノ門４丁目１番２８号,,13,103,1050001,,,2021-11-26,清算の結了等,,,2021-06-02,1,,,,,カイロンワン,0
1191,5010502020168,登記記録の閉鎖等,0,2021-12-02,2021-12-01,有限会社エフビレッジ,,有限会社,東京都,台東区,浅草橋２丁目５番５号,,13,106,1110053,,,2021-12-01,清算の結了等,,,2015-10-05,1,,,,,エフビレッジ,0
1217,5011101085016,登記記録の閉鎖等,0,2021-12-02,2021-11-30,株式会社ＢＹＭＥ,,株式会社,東京都,新宿区,新宿７丁目３番４８号ＡＲＫＴＥＲＲＡＣＥ東新宿１０３,,13,104,1600022,,,2021-11-30,清算の結了等,,,2018-08-08,1,,,,,バイミー,0
1224,5011105004632,登記記録の閉鎖等,0,2021-12-02,2021-11-19,一般財団法人前田青邨顕彰中村奨学会,,その他の設立登記法人,東京都,新宿区,大京町２８番地１プラウド新宿御苑エンパイア９０１,,13,104,1600015,,,2021-11-19,清算の結了等,,,2015-10-05,1,,,,,マエダセイソンケンショウナカムラショウガクカイ,0
1238,5013301036525,登記記録の閉鎖等,0,2021-12-02,2021-11-26,服美株式会社,,株式会社,東京都,豊島区,高松２丁目３６番９号,,13,116,1710042,,,2021-11-26,清算の結了等,,,2015-10-05,1,,,,,ハツミ,0
1241,5020001042175,登記記録の閉鎖等,0,2021-12-02,2021-11-30,株式会社地計社,,株式会社,神奈川県,横浜市青葉区,すすき野３丁目８番地６,,14,117,2250021,,,2021-11-30,清算の結了等,,,2015-10-05,1,,,,,,0
1245,5020001114593,登記記録の閉鎖等,0,2021-12-02,2021-11-30,株式会社ＳＫＴ　ＰＬＡＮＮＩＮＧ,,株式会社,山口県,山口市,中市町１－２７,,35,203,7530086,,,2021-11-30,清算の結了等,,,2016-01-28,1,,,,,エスケーティープランニング,0
1271,5040002074959,登記記録の閉鎖等,0,2021-12-02,2021-11-29,有限会社伏見電設,,有限会社,千葉県,市原市,白金町６丁目１３番地２,,12,219,2900059,,,2021-11-29,清算の結了等,,,2015-10-05,1,,,,,フシミデンセツ,0
1283,5070002035272,登記記録の閉鎖等,0,2021-12-02,2021-11-30,有限会社尾瀬鉄工,,有限会社,群馬県,利根郡片品村,大字越本１１５４番地,,10,443,3780413,,,2021-11-30,清算の結了等,,,2015-10-05,1,,,,,オゼテッコウ,0
1286,5080001024028,登記記録の閉鎖等,0,2021-12-02,2021-11-26,株式会社ワールド,,株式会社,静岡県,静岡市清水区,袖師町５００番地の１,,22,103,4240037,,,2021-11-26,清算の結了等,,,2021-03-17,1,,,,,ワールド,0
1297,5120001173679,登記記録の閉鎖等,0,2021-12-02,2021-11-29,株式会社山樹,,株式会社,大阪府,大阪市北区,国分寺２丁目１番１号,,27,127,5310064,,,2021-11-29,清算の結了等,,,2015-10-05,1,,,,,サンジュ,0
1314,5122001008708,登記記録の閉鎖等,0,2021-12-02,2021-11-30,関西自動車株式会社,,株式会社,大阪府,東大阪市,御厨東１丁目８番１３号,,27,227,5770033,,,2021-11-30,清算の結了等,,,2015-10-05,1,,,,,カンサイジドウシャ,0
1321,5130002005830,登記記録の閉鎖等,0,2021-12-02,2021-11-30,有限会社なかえ,,有限会社,京都府,京都市左京区,下鴨貴船町３５番地,,26,103,6060813,,,2021-11-30,清算の結了等,,,2015-10-05,1,,,,,ナカエ,0
1333,5180001014951,登記記録の閉鎖等,0,2021-12-02,2021-12-01,株式会社ツノオカ電化センター,,株式会社,愛知県,名古屋市南区,城下町３丁目１３番地,,23,112,4570047,,,2021-12-01,清算の結了等,,,2015-10-05,1,,,,,ツノオカデンカセンター,0
1344,5180003003060,登記記録の閉鎖等,0,2021-12-02,2021-11-29,合資会社龍樹,,合資会社,愛知県,名古屋市天白区,植田山５丁目２２０１番地,,23,116,4680001,,,2021-11-29,清算の結了等,,,2015-10-05,1,,,,,タツキ,0
1352,5190002009917,登記記録の閉鎖等,0,2021-12-02,2021-11-30,有限会社森本金型,,有限会社,三重県,度会郡度会町,長原８６１番地,,24,470,5162115,,,2021-11-30,清算の結了等,,,2015-10-05,1,,,,,モリモトカナガタ,0
1358,5220005000737,登記記録の閉鎖等,0,2021-12-02,2021-11-12,天理教陸福分教会,,その他の設立登記法人,石川県,金沢市,菊川２丁目２番１１号,,17,201,9200967,,,2021-11-12,合併による解散等,9220005000733,令和３年１１月１２日石川県金沢市神宮寺一丁目５番１２号天理教福之澤分教会（9220005000733）に合併し解散,2015-10-05,1,,,,,,0
1374,5290001074324,登記記録の閉鎖等,0,2021-12-02,2021-11-26,株式会社コレ,,株式会社,福岡県,福岡市中央区,天神２丁目３番１０号天神パインクレスト７１６,,40,133,8100001,,,2021-11-26,清算の結了等,,,2016-06-22,1,,,,,コレ,0
1391,5330003007558,登記記録の閉鎖等,0,2021-12-02,2021-11-30,合同会社Ｔａｍａｇｏ,,合同会社,熊本県,熊本市東区,錦ケ丘２３－５的場ビル１０３,,43,102,8620912,,,2021-11-30,清算の結了等,,,2018-07-03,1,,,,,タマゴ,0
1396,5350001000067,登記記録の閉鎖等,0,2021-12-02,2021-11-30,朝日新聞宮崎販売株式会社,,株式会社,宮崎県,宮崎市,大字本郷南方４１４１,,45,201,8800921,,,2021-11-30,清算の結了等,,,2015-10-05,1,,,,,アサヒシンブンミヤザキハンバイ,0
1397,5350001014703,登記記録の閉鎖等,0,2021-12-02,2021-11-30,株式会社ペルテ・ラボラトリー,,株式会社,宮崎県,宮崎市,江平西２丁目３番４８号,,45,201,8800051,,,2021-11-30,清算の結了等,,,2017-05-25,1,,,,,ペルテラボラトリー,0
1408,5402702000380,登記記録の閉鎖等,0,2021-12-02,2021-11-30,有限会社丸吾運送,,有限会社,岩手県,大船渡市,赤崎町字石橋前３９番地１,,03,203,0220007,,,2021-11-30,清算の結了等,,,2015-10-05,1,,,,,マルゴウンソウ,0
1414,5420002014397,登記記録の閉鎖等,0,2021-12-02,2021-11-24,有限会社ムラキ工業,,有限会社,青森県,弘前市,大字新里字中平岡１０４番地５,,02,202,0368083,,,2021-11-24,清算の結了等,,,2015-10-05,1,,,,,ムラキコウギョウ,0
1424,5450002010963,登記記録の閉鎖等,0,2021-12-02,2021-11-30,有限会社信友商事,,有限会社,北海道,稚内市,富岡５丁目２３番１１号,,01,214,0970012,,,2021-11-30,清算の結了等,,,2015-10-05,1,,,,,シンユウショウジ,0
1451,6010002023331,登記記録の閉鎖等,0,2021-12-02,2021-11-30,有限会社中洲文化倶楽部,,有限会社,東京都,中央区,日本橋中洲１１番１４号,,13,102,1030008,,,2021-11-30,清算の結了等,,,2015-10-05,1,,,,,ナカスブンカクラブ,0
1455,6010101009446,登記記録の閉鎖等,0,2021-12-02,2021-12-01,株式会社クレメンティアサービス,,株式会社,東京都,品川区,上大崎３丁目１番２－３５１０号,,13,109,1410021,,,2021-12-01,清算の結了等,,,2015-10-05,1,,,,,クレメンティアサービス,0
1481,6010705000164,登記記録の閉鎖等,0,2021-12-02,2021-11-16,正信寺,,その他の設立登記法人,東京都,品川区,西品川１丁目１２番２号,,13,109,1410033,,,2021-11-16,合併による解散等,6080005004751,令和３年１１月１１日静岡県島田市川根町身成３９９８番地阿主南寺（6080005004751）に合併し解散,2015-10-05,1,,,,,セイシンジ,0
1494,6011101049787,登記記録の閉鎖等,0,2021-12-02,2021-11-29,株式会社旅・宿総研,,株式会社,東京都,新宿区,西新宿７丁目１０番１７号,,13,104,1600023,,,2021-11-29,清算の結了等,,,2015-10-05,1,,,,,タビヤドソウケン,0
1528,6020002067798,登記記録の閉鎖等,0,2021-12-02,2021-11-26,有限会社レジェンド,,有限会社,神奈川県,横浜市保土ケ谷区,星川２丁目１６番１－７２０号,,14,106,2400006,,,2021-11-26,清算の結了等,,,2015-10-05,1,,,,,レジェンド,0
1540,6021002049605,登記記録の閉鎖等,0,2021-12-02,2021-11-29,有限会社アクア・オーパ,,有限会社,徳島県,徳島市,川内町加賀須野６１７番地の４,,36,201,7710130,,,2021-11-29,清算の結了等,,,2015-10-05,1,,,,,アクアオーパ,0
1554,6050005006230,登記記録の閉鎖等,0,2021-12-02,2021-11-11,天理教錦鹿分教会,,その他の設立登記法人,茨城県,神栖市,息栖２８３２番地５,,08,232,3140133,,,2021-11-11,合併による解散等,6010005000542,令和３年１１月５日東京都千代田区神田錦町一丁目１１番地天理教錦江大教会（6010005000542）に合併し解散,2015-10-05,1,,,,,,0
1567,6110001018173,登記記録の閉鎖等,0,2021-12-02,2021-11-29,東北プレカット工業株式会社,,株式会社,新潟県,村上市,山辺里２９５番地,,15,212,9580821,,,2021-11-29,清算の結了等,,,2015-10-05,1,,,,,トウホクプレカットコウギョウ,0
1568,6110001030070,登記記録の閉鎖等,0,2021-12-02,2021-11-26,株式会社秋山建材,,株式会社,新潟県,胎内市,高野２４９番地,,15,227,9592618,,,2021-11-26,清算の結了等,,,2021-08-30,1,,,,,アキヤマケンザイ,0
1578,6120101037304,登記記録の閉鎖等,0,2021-12-02,2021-11-29,西川土木工業株式会社,,株式会社,大阪府,岸和田市,三田町９３番地,,27,202,5960808,,,2021-11-29,清算の結了等,,,2015-10-05,1,,,,,,0
1589,6140002014573,登記記録の閉鎖等,0,2021-12-02,2021-11-30,成貴企業有限会社,,有限会社,兵庫県,神戸市中央区,山本通４丁目１０番１３号,,28,110,6500003,,,2021-11-30,清算の結了等,,,2015-10-05,1,,,,,セイキキギョウ,0
1591,6140005017251,登記記録の閉鎖等,0,2021-12-02,2021-12-01,農事組合法人兵庫門上牧場,,その他の設立登記法人,兵庫県,西脇市,黒田庄町石原１４７４番地,,28,213,6790322,,,2021-12-01,清算の結了等,,,2015-10-05,1,,,,,,0
1597,6180001053544,登記記録の閉鎖等,0,2021-12-02,2021-11-30,株式会社ガジュマル,,株式会社,愛知県,名古屋市中区,丸の内２丁目１８番１４号,,23,106,4600002,,,2021-11-30,清算の結了等,,,2015-10-05,1,,,,,ガジュマル,0
1605,6180001140318,登記記録の閉鎖等,0,2021-12-02,2021-11-29,Ｋスペック株式会社,,株式会社,愛知県,東海市,富木島町前田面８９番地の１,,23,222,4760011,,,2021-11-29,清算の結了等,,,2020-03-05,1,,,,,ケイスペック,0
1624,6200001039202,登記記録の閉鎖等,0,2021-12-02,2021-12-01,株式会社林工務店,,株式会社,岐阜県,美濃市,大字前野字上野６１９番地の２,,21,207,5013701,,,2021-12-01,清算の結了等,,,2021-10-05,1,,,,,ハヤシコウムテン,0
1629,6200005005101,登記記録の閉鎖等,0,2021-12-02,2021-11-11,嚴嶋神社,,その他の設立登記法人,岐阜県,養老郡養老町,瑞穂３１４番地,,21,341,5031274,,,2021-11-11,合併による解散等,7200005005125,令和３年１１月１０日岐阜県養老郡養老町瑞穂７９０番地の１神明神社（7200005005125）に合併し解散,2015-10-05,1,,,,,イツクシマジンジャ,0
1633,6220002004483,登記記録の閉鎖等,0,2021-12-02,2021-11-30,有限会社丹羽由紀雄商店,,有限会社,石川県,金沢市,十一屋町１４番２号,,17,201,9218106,,,2021-11-30,清算の結了等,,,2015-10-05,1,,,,,ニワユキオショウテン,0
1639,6240005009651,登記記録の閉鎖等,0,2021-12-02,2021-11-16,天理教阿木行分教会,,その他の設立登記法人,広島県,府中市,阿字町１５７１番地,,34,208,7293212,,,2021-11-16,合併による解散等,8240005009658,令和３年１１月１６日広島県府中市府中町１４３番地の２天理教府中市分教会（8240005009658）に合併し解散,2015-10-05,1,,,,,テンリキョウアキユキブンキョウカイ,0
1641,6260001020024,登記記録の閉鎖等,0,2021-12-02,2021-12-01,ツチダ精工株式会社,,株式会社,岡山県,津山市,一方３３０番地の１,,33,203,7080883,,,2021-12-01,合併による解散等,5260001020025,令和３年１２月１日岡山県勝田郡勝央町植月北９７１番地２ツチダ電工株式会社（5260001020025）に合併し解散,2015-10-05,1,,,,,ツチダセイコウ,0
1644,6260003001757,登記記録の閉鎖等,0,2021-12-02,2021-11-30,アペックス合同会社,,合同会社,岡山県,岡山市中区,平井３丁目１０１４－２,,33,102,7038282,,,2021-11-30,清算の結了等,,,2015-10-05,1,,,,,アペックス,0
1647,6290001089321,登記記録の閉鎖等,0,2021-12-02,2021-11-29,株式会社いり江豊香園,,株式会社,福岡県,福岡市早良区,昭代１丁目４番１４号,,40,137,8140012,,,2021-11-29,清算の結了等,,,2020-06-24,1,,,,,イリエホウコウエン,0
1670,6320002001066,登記記録の閉鎖等,0,2021-12-02,2021-12-01,有限会社岩田産業ビル,,有限会社,大分県,大分市,金池町４丁目３番２号,,44,201,8700026,,,2021-12-01,清算の結了等,,,2015-10-05,1,,,,,イワタサンギョウビル,0
1672,6330001000150,登記記録の閉鎖等,0,2021-12-02,2021-11-30,朝日新聞熊本販売株式会社,,株式会社,熊本県,八代市,横手新町２６号６番地１,,43,202,8660875,,,2021-11-30,清算の結了等,,,2015-10-05,1,,,,,アサヒシンブンクマモトハンバイ,0
1675,6340002028280,登記記録の閉鎖等,0,2021-12-02,2021-11-30,有限会社春代美容室,,有限会社,鹿児島県,曽於市,末吉町本町１丁目５番地１０,,46,217,8998607,,,2021-11-30,清算の結了等,,,2015-10-05,1,,,,,,0
1678,6360002002738,登記記録の閉鎖等,0,2021-12-02,2021-11-29,有限会社高良ビル,00101477,有限会社,沖縄県,那覇市,天久２丁目１８番１１号ゴールドキャッスルＩＩ４０３,00115251,47,201,9000005,,,2021-11-29,清算の結了等,,,2015-10-05,1,,,,,タカラビル,0
1708,6480001007890,登記記録の閉鎖等,0,2021-12-02,2021-11-30,株式会社ジャスト・ライフ,,株式会社,徳島県,鳴門市,撫養町黒崎字松島１４０番地４,,36,202,7720001,,,2021-11-30,清算の結了等,,,2015-10-05,1,,,,,ジャストライフ,0
1717,7010001153211,登記記録の閉鎖等,0,2021-12-02,2021-11-26,ポイジェ株式会社,,株式会社,東京都,千代田区,神田須田町２丁目１５番地,,13,101,1010041,,,2021-11-26,清算の結了等,,,2015-10-05,1,,,,,,0
1720,7010001159852,登記記録の閉鎖等,0,2021-12-02,2021-11-19,株式会社磨尚,,株式会社,東京都,中央区,勝どき３丁目５番６－１１０３号,,13,102,1040054,,,2021-11-19,清算の結了等,,,2015-10-05,1,,,,,マナ,0
1730,7010005023187,登記記録の閉鎖等,0,2021-12-02,2021-11-30,ウエストプラム特定目的会社,,その他の設立登記法人,東京都,中央区,日本橋１丁目４番１号,,13,102,1030027,,,2021-11-30,清算の結了等,,,2015-10-05,1,,,,,ウエストプラム,0
1734,7010401052649,登記記録の閉鎖等,0,2021-12-02,2021-11-25,汎機構開発株式会社,,株式会社,東京都,港区,新橋４丁目１５番６号,,13,103,1050004,,,2021-11-25,清算の結了等,,,2015-10-05,1,,,,,ハンキコウカイハツ,0
1740,7010402022246,登記記録の閉鎖等,0,2021-12-02,2021-11-25,有限会社ベングラード,,有限会社,東京都,港区,白金２丁目３番１９号,,13,103,1080072,,,2021-11-25,清算の結了等,,,2015-10-05,1,,,,,ベングラード,0
1743,7010405015230,登記記録の閉鎖等,0,2021-12-02,2021-11-26,一般社団法人ＳＨ１４,,その他の設立登記法人,東京都,港区,元赤坂１丁目１番８号株式会社赤坂国際会計内,,13,103,1070051,,,2021-11-26,清算の結了等,,,2016-10-28,1,,,,,エスエイチジュウヨン,0
1758,7011001091772,登記記録の閉鎖等,0,2021-12-02,2021-09-01,株式会社ジェイエムエス・ツー,,株式会社,東京都,新宿区,西新宿３丁目２０番２号,,13,104,1600023,,,2021-09-01,合併による解散等,9011001090260,令和３年９月１日東京都新宿区西新宿三丁目２０番２号株式会社ジェイエムエス・ワン（9011001090260）に合併し解散,2015-10-05,1,,,,,ジェイエムエスツー,0
1767,7011103002925,登記記録の閉鎖等,0,2021-12-02,2021-11-29,合同会社ＫＺ１,,合同会社,東京都,新宿区,四谷１丁目４番地あると法律経済綜合事務所気付,,13,104,1600004,,,2021-11-29,清算の結了等,,,2015-10-05,1,,,,,ケーゼットワン,0
1770,7011203003022,登記記録の閉鎖等,0,2021-12-02,2021-11-29,合同会社ＰＵＺＺＬＩＮＧ,,合同会社,東京都,中野区,南台５丁目５番１４号エクセルコトブキ３０３,,13,114,1640014,,,2021-11-29,清算の結了等,,,2019-05-15,1,,,,,パズリング,0
1771,7011402003269,登記記録の閉鎖等,0,2021-12-02,2021-11-30,有限会社孝友運送,,有限会社,東京都,板橋区,舟渡２丁目５番４号,,13,119,1740041,,,2021-11-30,清算の結了等,,,2015-10-05,1,,,,,コウユウウンソウ,0
1789,7013302000908,登記記録の閉鎖等,0,2021-12-02,2021-11-26,有限会社イワヤ,,有限会社,東京都,文京区,白山５丁目３６番１３号,,13,105,1120001,,,2021-11-26,清算の結了等,,,2015-10-05,1,,,,,イワヤ,0
1800,7021001025762,登記記録の閉鎖等,0,2021-12-02,2021-11-26,株式会社パティスリークドウ,,株式会社,神奈川県,大和市,南林間１丁目６番４号,,14,213,2420006,,,2021-11-26,清算の結了等,,,2015-10-05,1,,,,,パティスリークドウ,0
1801,7021001048771,登記記録の閉鎖等,0,2021-12-02,2021-11-29,株式会社アルビレオ開発房,,株式会社,神奈川県,相模原市南区,相模大野６丁目２０番４－８０１号,,14,153,2520303,,,2021-11-29,清算の結了等,,,2015-10-05,1,,,,,アルビレオカイハツボウ,0
1804,7030001019674,登記記録の閉鎖等,0,2021-12-02,2021-12-01,シンティランテ株式会社,,株式会社,埼玉県,さいたま市岩槻区,大字本宿２２２番地２,,11,110,3390074,,,2021-12-01,清算の結了等,,,2015-10-05,1,,,,,シンティランテ,0
1816,7040001044829,登記記録の閉鎖等,0,2021-12-02,2021-11-29,空港総合サービス株式会社,,株式会社,千葉県,成田市,花崎町９２０番地アパガーデンコート１１１１号室,,12,211,2860033,,,2021-11-29,清算の結了等,,,2015-10-05,1,,,,,クウコウソウゴウサービス,0
1833,7080402015747,登記記録の閉鎖等,0,2021-12-02,2021-11-30,有限会社ルミエール,,有限会社,静岡県,浜松市浜北区,内野台４丁目４番１７号,,22,136,4340045,,,2021-11-30,清算の結了等,,,2015-10-05,1,,,,,ルミエール,0
1874,7130005010280,登記記録の閉鎖等,0,2021-12-02,2021-11-18,天理教綾福分教会,,その他の設立登記法人,京都府,福知山市,字観音寺１９２番地の２,,26,201,6200803,,,2021-11-18,合併による解散等,4130005010291,令和３年１１月１８日京都府福知山市字岡ノ９６番９７番合地天理教丹都分教会（4130005010291）に合併し解散,2015-10-05,1,,,,,テンリキョウアヤフクブンキョウカイ,0
1884,7140002039256,登記記録の閉鎖等,0,2021-12-02,2021-11-29,有限会社國屋メディカルサービス,,有限会社,兵庫県,養父市,八鹿町八鹿８５３番地,,28,222,6670021,,,2021-11-29,清算の結了等,,,2015-10-05,1,,,,,クニヤメディカルサービス,0
1923,7240002017680,登記記録の閉鎖等,0,2021-12-02,2021-11-29,有限会社吉岡新聞舗,,有限会社,広島県,広島市佐伯区,三筋１丁目１番１５号,,34,108,7315144,,,2021-11-29,清算の結了等,,,2015-10-05,1,,,,,ヨシオカシンブンホ,0
1925,7240002022508,登記記録の閉鎖等,0,2021-12-02,2021-11-30,有限会社アーツアーツ,,有限会社,広島県,広島市中区,土橋町２番２７号,,34,101,7300854,,,2021-11-30,清算の結了等,,,2015-10-05,1,,,,,アーツアーツ,0
1931,7260001004050,登記記録の閉鎖等,0,2021-12-02,2021-11-30,ダイヤスチール家具株式会社,,株式会社,岡山県,岡山市南区,福浜町１５番１０号,,33,104,7028035,,,2021-11-30,清算の結了等,,,2015-10-05,1,,,,,ダイヤスチールカグ,0
1936,7280002006036,登記記録の閉鎖等,0,2021-12-02,2021-11-30,有限会社三島住工,,有限会社,島根県,出雲市,高岡町２６２番地,,32,203,6930066,,,2021-11-30,清算の結了等,,,2015-10-05,1,,,,,ミシマジュウコウ,0
1940,7290001079164,登記記録の閉鎖等,0,2021-12-02,2021-11-30,株式会社ボニーエヌ,,株式会社,東京都,足立区,小台１丁目１８番８－４０６号,,13,121,1200046,,,2021-11-30,清算の結了等,,,2017-09-26,1,,,,,ボニーエヌ,0
1951,7300005002748,登記記録の閉鎖等,0,2021-12-02,2021-11-29,大野生産森林組合,,その他の設立登記法人,佐賀県,佐賀市,富士町大字大野１０６０番地１７,,41,201,8400532,,,2021-11-29,清算の結了等,,,2015-10-05,1,,,,,オオノ,0
1962,7340002002490,登記記録の閉鎖等,0,2021-12-02,2021-11-29,有限会社佳伸商亊,,有限会社,鹿児島県,鹿児島市,東谷山３丁目２９番２０号,,46,201,8910113,,,2021-11-29,清算の結了等,,,2015-10-05,1,,,,,ケイシンショウジ,0
1966,7350002017190,登記記録の閉鎖等,0,2021-12-02,2021-11-30,有限会社アップゲート,,有限会社,宮崎県,日南市,園田１丁目４番７号,,45,204,8870012,,,2021-11-30,清算の結了等,,,2015-10-05,1,,,,,アップゲート,0
1968,7360001005006,登記記録の閉鎖等,0,2021-12-02,2021-11-29,株式会社伊計島観光ヘルスセンター,,株式会社,沖縄県,那覇市,松尾２丁目１６番５２号松尾公園テミスビル４階,,47,201,9000014,,,2021-11-29,清算の結了等,,,2015-10-05,1,,,,,イケイジマカンコウヘルスセンター,0
1975,7370602000263,登記記録の閉鎖等,0,2021-12-02,2021-11-30,有限会社慧光建材,00082866,有限会社,宮城県,宮城郡利府町,しらかし台５丁目４番７号,,04,406,9810134,,,2021-11-30,清算の結了等,,,2015-10-05,1,,,,,エコウケンザイ,0
1981,7430002029533,登記記録の閉鎖等,0,2021-12-02,2021-11-29,有限会社西條広告事務所,,有限会社,北海道,札幌市中央区,宮の森一条６丁目３番４１－４０４号,,01,101,0640951,,,2021-11-29,清算の結了等,,,2015-10-05,1,,,,,サイジョウコウコクジムショ,0
1997,8010001128105,登記記録の閉鎖等,0,2021-12-02,2021-11-29,東京マルチメディア放送株式会社,,株式会社,東京都,千代田区,麹町１丁目７番地,,13,101,1020083,,,2021-11-29,清算の結了等,,,2015-10-05,1,,,,,トウキョウマルチメディアホウソウ,0
2000,8010001218277,登記記録の閉鎖等,0,2021-12-02,2021-11-29,株式会社ジャッカルホールディングス,,株式会社,東京都,千代田区,大手町１丁目５番１号,,13,101,1000004,,,2021-11-29,清算の結了等,,,2021-05-25,1,,,,,ジャッカルホールディングス,0
2006,8010102006936,登記記録の閉鎖等,0,2021-12-02,2021-11-29,有限会社山口電業,,有限会社,東京都,八王子市,犬目町１２４４番地の７,,13,201,1930802,,,2021-11-29,清算の結了等,,,2015-10-05,1,,,,,ヤマグチデンギョウ,0
2032,8011003003007,登記記録の閉鎖等,0,2021-12-02,2021-11-30,合同会社浅草門,,合同会社,東京都,杉並区,堀ノ内２丁目３６番１１号,,13,115,1660013,,,2021-11-30,清算の結了等,,,2015-10-05,1,,,,,アサクサモン,0
2036,8011203003491,登記記録の閉鎖等,0,2021-12-02,2021-11-30,六一貿易合同会社,,合同会社,東京都,中野区,沼袋１丁目５番１９号コーポ吉田Ｂ棟,,13,114,1650025,,,2021-11-30,清算の結了等,,,2021-03-15,1,,,,,ロクイチボウエキ,0
2047,8012701011382,登記記録の閉鎖等,0,2021-12-02,2021-11-30,株式会社Ｓｔｕｎｆｅｅｌ,,株式会社,東京都,西東京市,田無町４丁目１１番７－３０１号,,13,229,1880011,,,2021-11-30,清算の結了等,,,2015-10-05,1,,,,,スタンフィール,0
2053,8020001006210,登記記録の閉鎖等,0,2021-12-02,2021-11-30,株式会社ＳＨＹ,,株式会社,神奈川県,横浜市金沢区,福浦２丁目７番地５,,14,108,2360004,,,2021-11-30,清算の結了等,,,2015-10-05,1,,,,,エスエイチワイ,0
2086,8030002121180,登記記録の閉鎖等,0,2021-12-02,2021-11-30,有限会社逸見工作所,,有限会社,東京都,八王子市,宇津木町９１５番地２２,,13,201,1920024,,,2021-11-30,清算の結了等,,,2015-10-05,1,,,,,ヘンミコウサクジョ,0
2103,8070001017582,登記記録の閉鎖等,0,2021-12-02,2021-11-30,株式会社環境科学研究所,,株式会社,群馬県,北群馬郡吉岡町,大字小倉４０４番地,,10,345,3703607,,,2021-11-30,清算の結了等,,,2015-10-05,1,,,,,カンキョウカガクケンキュウジョ,0
2116,8080105002769,登記記録の閉鎖等,0,2021-12-02,2021-11-04,富士特産農業協同組合連合会,,その他の設立登記法人,静岡県,富士市,元町５番５号,,22,210,4160917,,,2021-11-04,合併による解散等,4080105002764,令和３年１１月４日静岡県富士市厚原２１１番地の４富士茶農業協同組合（4080105002764）に権利義務を承継し解散,2015-10-05,1,,,,,フジトクサン,0
2118,8080402017775,登記記録の閉鎖等,0,2021-12-02,2021-11-26,有限会社山崎精肉店,,有限会社,静岡県,掛川市,緑ケ丘１丁目５番地の１１,,22,213,4360021,,,2021-11-26,清算の結了等,,,2015-10-05,1,,,,,ヤマザキセイニクテン,0
2149,8120901007693,登記記録の閉鎖等,0,2021-12-02,2021-11-30,株式会社ナボセコ,,株式会社,大阪府,吹田市,芳野町１８番３３号,,27,205,5640054,,,2021-11-30,清算の結了等,,,2015-10-05,1,,,,,ナボセコ,0
2172,8180001006137,登記記録の閉鎖等,0,2021-12-02,2021-11-30,株式会社江坂商店,,株式会社,愛知県,名古屋市港区,稲永５丁目８番３号,,23,111,4550842,,,2021-11-30,清算の結了等,,,2015-10-05,1,,,,,エサカショウテン,0
2190,8190002011936,登記記録の閉鎖等,0,2021-12-02,2021-11-30,有限会社リアスコーポレーション,,有限会社,三重県,志摩市,阿児町神明７５４番地４,,24,215,5170502,,,2021-11-30,清算の結了等,,,2015-10-05,1,,,,,リアスコーポレーション,0
2232,8290002036980,登記記録の閉鎖等,0,2021-12-02,2021-11-29,有限会社福山タイル工業,,有限会社,福岡県,糟屋郡志免町,大字志免９１８番地の２１,,40,343,8112202,,,2021-11-29,清算の結了等,,,2015-10-05,1,,,,,フクヤマタイルコウギョウ,0
2250,8340001024246,登記記録の閉鎖等,0,2021-12-02,2021-11-30,株式会社中央観光旅行社,,株式会社,鹿児島県,霧島市,国分野口東１２９３番地８号,,46,218,8994341,,,2021-11-30,清算の結了等,,,2021-11-08,1,,,,,チュウオウカンコウリョコウシャ,0
2252,8340002004081,登記記録の閉鎖等,0,2021-12-02,2021-11-30,有限会社コワキ,,有限会社,鹿児島県,鹿児島市,薬師２丁目１５番９号,,46,201,8900042,,,2021-11-30,清算の結了等,,,2015-10-05,1,,,,,,0
2261,8360002022791,登記記録の閉鎖等,0,2021-12-02,2021-11-30,有限会社ガジュマル,,有限会社,滋賀県,大津市,桐生２丁目２４３４番地,,25,201,5202111,,,2021-11-30,清算の結了等,,,2015-10-05,1,,,,,ガジュマル,0
2265,8370002011034,登記記録の閉鎖等,0,2021-12-02,2021-11-29,有限会社こま屋,,有限会社,宮城県,仙台市青葉区,栗生６丁目７番地の４ライオンズ栗生シャインコート１００５,,04,101,9893122,,,2021-11-29,清算の結了等,,,2015-10-05,1,,,,,コマヤ,0
2276,8430001006499,登記記録の閉鎖等,0,2021-12-02,2021-11-24,株式会社在宅サッポロ,,株式会社,北海道,札幌市北区,北十条西４丁目１番地９,,01,102,0010010,,,2021-11-24,清算の結了等,,,2015-10-05,1,,,,,ザイタクサッポロ,0
2283,8460102000456,登記記録の閉鎖等,0,2021-12-02,2021-11-30,太田デンタルラボ有限会社,,有限会社,北海道,帯広市,西五条南２４丁目７番地３,,01,207,0800015,,,2021-11-30,清算の結了等,,,2015-10-05,1,,,,,オオタデンタルラボ,0
2292,8500002015186,登記記録の閉鎖等,0,2021-12-02,2021-11-30,有限会社日浅石油店,,有限会社,愛媛県,西条市,周布６１１番地２,,38,206,7991371,,,2021-11-30,清算の結了等,,,2015-10-05,1,,,,,ヒアサセキユテン,0
2319,9010405016912,登記記録の閉鎖等,0,2021-12-02,2021-11-26,ＥＳＲ野田中里２一般社団法人,,その他の設立登記法人,東京都,港区,赤坂２丁目１０番５号税理士法人赤坂国際会計事務所内,,13,103,1070052,,,2021-11-26,清算の結了等,,,2018-07-26,1,,,,,イーエスアールノダナカザトツー,0
2323,9010601034899,登記記録の閉鎖等,0,2021-12-02,2021-11-25,プロバイオ総合研究所株式会社,,株式会社,東京都,江東区,新木場４丁目５番１０号,,13,108,1360082,,,2021-11-25,清算の結了等,,,2015-10-05,1,,,,,プロバイオソウゴウケンキュウジョ,0
2326,9010701034213,登記記録の閉鎖等,0,2021-12-02,2021-11-30,株式会社光風輪業商会,,株式会社,東京都,品川区,荏原４丁目６番４号,,13,109,1420063,,,2021-11-30,清算の結了等,,,2017-05-25,1,,,,,コウフウリンギョウショウカイ,0
2327,9010801012886,登記記録の閉鎖等,0,2021-12-02,2021-11-29,渡辺電子工業株式会社,,株式会社,栃木県,大田原市,富士見１丁目３８３７番地６０,,09,210,3240028,,,2021-11-29,清算の結了等,,,2015-10-05,1,,,,,ワタナベデンシコウギョウ,0
2339,9011001098337,登記記録の閉鎖等,0,2021-12-02,2021-09-01,株式会社ジェイエムエス・セブン,,株式会社,東京都,新宿区,西新宿３丁目２０番２号,,13,104,1600023,,,2021-09-01,合併による解散等,9011001090260,令和３年９月１日東京都新宿区西新宿三丁目２０番２号株式会社ジェイエムエス・ワン（9011001090260）に合併し解散,2015-10-05,1,,,,,ジェイエムエスセブン,0
2358,9011701016928,登記記録の閉鎖等,0,2021-12-02,2021-11-30,株式会社源,,株式会社,東京都,葛飾区,細田５丁目８番７号,,13,122,1240021,,,2021-11-30,清算の結了等,,,2015-10-05,1,,,,,ミナモト,0
2362,9012701002612,登記記録の閉鎖等,0,2021-12-02,2021-11-30,株式会社青桐学園,,株式会社,東京都,西東京市,柳沢５丁目１番１３号,,13,229,2020022,,,2021-11-30,清算の結了等,,,2015-10-05,1,,,,,セイトウガクエン,0
2376,9020002070618,登記記録の閉鎖等,0,2021-12-02,2021-11-30,有限会社プロワーク,,有限会社,神奈川県,横浜市青葉区,あざみ野３丁目１０番地５５,,14,117,2250011,,,2021-11-30,清算の結了等,,,2015-10-05,1,,,,,プロワーク,0
2398,9060001000200,登記記録の閉鎖等,0,2021-12-02,2021-11-26,株式会社アイイーシー,,株式会社,栃木県,小山市,城東７丁目１５番８号,,09,208,3230807,,,2021-11-26,清算の結了等,,,2015-10-05,1,,,,,アイイーシー,0
2416,9080402019465,登記記録の閉鎖等,0,2021-12-02,2021-11-29,有限会社大城配管工業所,,有限会社,静岡県,磐田市,中泉１２８３番地の１８,,22,211,4380078,,,2021-11-29,清算の結了等,,,2015-10-05,1,,,,,オオシロハイカンコウギョウショ,0
2421,9110001033921,登記記録の閉鎖等,0,2021-12-02,2021-11-29,株式会社ピクトリープ,,株式会社,新潟県,上越市,板倉区稲増字下川原１９２番地６,,15,222,9440101,,,2021-11-29,清算の結了等,,,2019-04-08,1,,,,,ピクトリープ,0
2443,9120901001621,登記記録の閉鎖等,0,2021-12-02,2021-11-30,日昌産業株式会社,,株式会社,大阪府,茨木市,竹橋町１２番３３号,,27,211,5670815,,,2021-11-30,清算の結了等,,,2015-10-05,1,,,,,ニッショウサンギョウ,0
2454,9130001064576,登記記録の閉鎖等,0,2021-12-02,2021-11-30,株式会社ポッサム,,株式会社,京都府,京都市北区,平野八丁柳町６８番地１,,26,101,6038345,,,2021-11-30,清算の結了等,,,2019-05-31,1,,,,,ポッサム,0
2458,9150001005165,登記記録の閉鎖等,0,2021-12-02,2021-11-30,株式会社ＦＵＫＵ,,株式会社,奈良県,生駒市,光陽台１３６番地,,29,209,6300247,,,2021-11-30,清算の結了等,,,2015-10-05,1,,,,,フク,0
2469,9180001086038,登記記録の閉鎖等,0,2021-12-02,2021-11-26,株式会社陽光,,株式会社,愛知県,一宮市,浅野字大曲り４１番地,,23,203,4910871,,,2021-11-26,清算の結了等,,,2015-10-05,1,,,,,ヨウコウ,0
2513,9290001088642,登記記録の閉鎖等,0,2021-12-02,2021-11-30,株式会社＿坐,00119545,株式会社,福岡県,福岡市東区,多の津４丁目１２－１８多の津コアＩＩ３号室,00119546,40,131,8130034,,,2021-11-30,清算の結了等,,,2020-04-17,1,,,,,キンザ,0
2550,9470002013936,登記記録の閉鎖等,0,2021-12-02,2021-11-30,有限会社ユノパーツ,,有限会社,香川県,仲多度郡多度津町,本通３丁目７番１５号３,,37,404,7640014,,,2021-11-30,清算の結了等,,,2015-10-05,1,,,,,ユノパーツ,0
