sequenceNumber,corporateNumber,process,correct,updateDate,changeDate,name,nameImageId,kind,prefectureName,cityName,streetNumber,addressImageId,prefectureCode,cityCode,postCode,addressOutside,addressOutsideImageId,closeDate,closeCause,successorCorporateNumber,changeCause,assignmentDate,latest,enName,enPrefectureName,enCityName,enAddressOutside,furigana,hihyoji
7,1010001258239,新規,0,2025-09-09,2025-09-09,株式会社ドクターズサミット,,株式会社,東京都,千代田区,神田佐久間町３丁目１９番地１ローヤルシティ神田佐久間町６０２号,,13,101,1010025,,,,,,,2025-09-09,1,,,,,ドクターズサミット,0
8,1010001258370,新規,0,2025-09-09,2025-09-09,匯賢株式会社,,株式会社,東京都,文京区,後楽１丁目５－３日中友好会館Ｂ１,,13,105,1120004,,,,,,,2025-09-09,1,,,,,カイケン,0
9,1010003048646,新規,0,2025-09-09,2025-09-09,合同会社ＨＫ　Ｇｌｏｂａｌ　Ｊａｐａｎ,,合同会社,東京都,中央区,日本橋１丁目１３番１号日鉄日本橋ビル３階ＷＡＷ日本橋,,13,102,1030027,,,,,,,2025-09-09,1,,,,,エイチケーグローバルジャパン,0
10,1010003048654,新規,0,2025-09-09,2025-09-09,合同会社Ｇｌｏｂａｌ　Ｅｄｇｅ　Ｏｐｅｒａｔｉｏｎｓ,,合同会社,東京都,千代田区,麹町２丁目４－１０,,13,101,1020083,,,,,,,2025-09-09,1,,,,,グローバルエッジオペレーションズ,0
11,1010003048679,新規,0,2025-09-09,2025-09-09,合同会社ＢＥＣＡＳＡ,,合同会社,東京都,中央区,銀座８丁目５番４号８Ｆ,,13,102,1040061,,,,,,,2025-09-09,1,,,,,ビーカーサ,0
12,1010005040568,新規,0,2025-09-09,2025-09-09,一般社団法人Ａｋｉｂａ　Ｔｅｃｈ　Ｃｏｎｎｅｃｔ,,その他の設立登記法人,東京都,千代田区,外神田３丁目６番５号外神田永谷タウンプラザ１０３号室,,13,101,1010021,,,,,,,2025-09-09,1,,,,,アキバテックコネクト,0
13,1010005040642,新規,0,2025-09-09,2025-09-09,ＴＳインベストメント２号特定目的会社,,その他の設立登記法人,東京都,千代田区,平河町１丁目６番１５号シルスフィア会計事務所内,,13,101,1020093,,,,,,,2025-09-09,1,,,,,ティーエスインベストメントニゴウ,0
17,1010401192921,新規,0,2025-09-09,2025-09-09,株式会社ＧＡＴＴＥＬ,,株式会社,東京都,港区,六本木３丁目１番３０号Ａ・Ｂビル６,,13,103,1060032,,,,,,,2025-09-09,1,,,,,ガッテル,0
18,1010403035954,新規,0,2025-09-09,2025-09-09,Ｍｒ　Ｂ合同会社,,合同会社,東京都,港区,芝浦３丁目２番１６号Ａ－ＰＬＡＣＥ田町イースト８０６,,13,103,1080023,,,,,,,2025-09-09,1,,,,,ミスタービー,0
22,1010405024666,新規,0,2025-09-09,2025-09-09,一般社団法人皮膚科学検定協会,,その他の設立登記法人,東京都,港区,北青山１丁目３番１号アールキューブ青山３階,,13,103,1070061,,,,,,,2025-09-09,1,,,,,ヒフカガクケンテイキョウカイ,0
23,1010501054559,新規,0,2025-09-09,2025-09-09,株式会社ＡＱＵＥＡＬ,,株式会社,東京都,台東区,浅草１丁目１７－４Ｖｏｒｔ浅草雷門６Ｆ,,13,106,1110032,,,,,,,2025-09-09,1,,,,,アクエラ,0
24,1010501054658,新規,0,2025-09-09,2025-09-09,凱祥株式会社,,株式会社,東京都,台東区,柳橋２丁目１９－１０第二東商センター２号館４１８室,,13,106,1110052,,,,,,,2025-09-09,1,,,,,ガイショウ,0
27,1010801036570,新規,0,2025-09-09,2025-09-09,バイオニクス株式会社,,株式会社,東京都,大田区,下丸子４丁目２６番３－１８０１号,,13,111,1460092,,,,,,,2025-09-09,1,,,,,バイオニクス,0
29,1010803005532,新規,0,2025-09-09,2025-09-09,合同会社ＲＥＩＭＳ,,合同会社,東京都,大田区,蒲田５丁目２０番７号,,13,111,1440052,,,,,,,2025-09-09,1,,,,,ランス,0
30,1010901058052,新規,0,2025-09-09,2025-09-09,株式会社ＳＩＭＡ,,株式会社,東京都,世田谷区,桜２丁目８―２５,,13,112,1560053,,,,,,,2025-09-09,1,,,,,シマ,0
32,1011001171869,新規,0,2025-09-09,2025-09-09,株式会社Ｓａｎｔｏ,,株式会社,東京都,目黒区,東山３丁目３－１０大沢ビル５０１,,13,110,1530043,,,,,,,2025-09-09,1,,,,,サント,0
33,1011001171893,新規,0,2025-09-09,2025-09-09,株式会社ＬＩＯＮＳＧＡＴＥ,,株式会社,東京都,目黒区,青葉台１丁目１０番２３号筍里庵２０２,,13,110,1530042,,,,,,,2025-09-09,1,,,,,ライオンズゲート,0
36,1011003022327,新規,0,2025-09-09,2025-09-09,合同会社ＲａｄｉａｎＴ,,合同会社,東京都,渋谷区,恵比寿西２丁目８番４号ＥＸ恵比寿西ビル５階,,13,113,1500021,,,,,,,2025-09-09,1,,,,,レディアント,0
37,1011003022509,新規,0,2025-09-09,2025-09-09,合同会社リヴァール,,合同会社,東京都,渋谷区,恵比寿西２丁目８番４号ＥＸ恵比寿西ビル５階,,13,113,1500021,,,,,,,2025-09-09,1,,,,,リヴァール,0
41,1011103016377,新規,0,2025-09-09,2025-09-09,合同会社ＵＩＵＩ,,合同会社,東京都,新宿区,新宿１丁目２０－３ザ・ミッドハウス新宿御苑４０６,,13,104,1600022,,,,,,,2025-09-09,1,,,,,ウイウイ,0
47,1011401027381,新規,0,2025-09-09,2025-09-09,エスイーアイ株式会社,,株式会社,東京都,板橋区,徳丸５丁目８番１９号,,13,119,1750083,,,,,,,2025-09-09,1,,,,,エスイーアイ,0
49,1011603004831,新規,0,2025-09-09,2025-09-09,合同会社ＳＴＭ,,合同会社,東京都,練馬区,桜台５丁目９番１１号,,13,120,1760002,,,,,,,2025-09-09,1,,,,,エスティーエム,0
55,1011801046691,新規,0,2025-09-09,2025-09-09,融和商事株式会社,,株式会社,東京都,葛飾区,東金町１丁目２６番１号二宮ビル３０４号室,,13,122,1250041,,,,,,,2025-09-09,1,,,,,ユウワショウジ,0
63,1012403007322,新規,0,2025-09-09,2025-09-09,ＣＳＭ合同会社,,合同会社,東京都,武蔵野市,吉祥寺東町４丁目２番地９号,,13,203,1800002,,,,,,,2025-09-09,1,,,,,シーエスエム,0
64,1012801024233,新規,0,2025-09-09,2025-09-09,Ｔｒｅｅ　Ｌｉｆｅ　Ｓｅｒｖｉｃｅｓ株式会社,,株式会社,東京都,昭島市,郷地町１丁目１３番３号,,13,207,1960032,,,,,,,2025-09-09,1,,,,,ツリーライフサービシズ,0
65,1013101009791,新規,0,2025-09-09,2025-09-09,ＢＩＬＹＫＳ　ＡＬＩＶＥ株式会社,,株式会社,東京都,青梅市,今寺３丁目３７９番地の２９,,13,205,1980021,,,,,,,2025-09-09,1,,,,,ビリックスアライブ,0
71,1013305003756,新規,0,2025-09-09,2025-09-09,医療法人社団アイメッド,,その他の設立登記法人,東京都,豊島区,東池袋１丁目２１番１号ラグーン池袋ビル６階,,13,116,1700013,,,,,,,2025-09-09,1,,,,,アイメッド,0
77,1020001164469,新規,0,2025-09-09,2025-09-09,株式会社ＶＥＴＳテクノロジー,,株式会社,神奈川県,川崎市川崎区,駅前本町１１番地２,,14,131,2100007,,,,,,,2025-09-09,1,,,,,,0
78,1020001164709,新規,0,2025-09-09,2025-09-09,Ｓｕｎｄａｙｓ株式会社,,株式会社,神奈川県,横浜市鶴見区,東寺尾６丁目３４番４５号松沢ハイツ２０１号,,14,101,2300077,,,,,,,2025-09-09,1,,,,,サンデーズ,0
89,1021001086273,新規,0,2025-09-09,2025-09-09,株式会社ＭＡホールディングス,,株式会社,神奈川県,横須賀市,武１丁目３番１５号,,14,201,2380313,,,,,,,2025-09-09,1,,,,,エムエーホールディングス,0
97,1030001168493,新規,0,2025-09-09,2025-09-09,株式会社ＳＫ工業,,株式会社,埼玉県,桶川市,大字小針領家７１６番地,,11,231,3630007,,,,,,,2025-09-09,1,,,,,エスケーコウギョウ,0
98,1030001168502,新規,0,2025-09-09,2025-09-09,株式会社カポノ,,株式会社,埼玉県,川口市,中青木５丁目１５番１０号,,11,203,3320032,,,,,,,2025-09-09,1,,,,,カポノ,0
99,1030001168519,新規,0,2025-09-09,2025-09-09,株式会社ＴＨＥ　ＲＩＴＺ,,株式会社,埼玉県,越谷市,北越谷４丁目３番３－１号ＴｈｅＲｉｔｚ北越谷駅前３０１,,11,222,3430026,,,,,,,2025-09-09,1,,,,,ザリッツ,0
100,1030001168527,新規,0,2025-09-09,2025-09-09,株式会社もりアップ,,株式会社,埼玉県,川口市,領家１丁目９番１２号,,11,203,3320004,,,,,,,2025-09-09,1,,,,,モリアップ,0
103,1030003027508,新規,0,2025-09-09,2025-09-09,合同会社ハッピーベル,,合同会社,埼玉県,児玉郡神川町,大字八日市６４９番地５,,11,383,3670244,,,,,,,2025-09-09,1,,,,,ハッピーベル,0
104,1030003027540,新規,0,2025-09-09,2025-09-09,合同会社晴昌,,合同会社,埼玉県,ふじみ野市,苗間１丁目６番１２号,,11,245,3560052,,,,,,,2025-09-09,1,,,,,ハルショウ,0
109,1040001140393,新規,0,2025-09-09,2025-09-09,ｆａｃｅｗｏｒｋ株式会社,,株式会社,千葉県,千葉市美浜区,真砂２丁目４番１棟１０１号,,12,106,2610011,,,,,,,2025-09-09,1,,,,,フェイスワーク,0
113,1040005022860,新規,0,2025-09-09,2025-09-09,一般社団法人南房総ＳＵＰアライアンス,,その他の設立登記法人,千葉県,南房総市,富浦町原岡１００３－１,,12,234,2992403,,,,,,,2025-09-09,1,,,,,ミナミボウソウサップアライアンス,0
116,1050001057257,新規,0,2025-09-09,2025-09-09,株式会社イナホファーム,,株式会社,茨城県,結城郡八千代町,大字太田６７番地４,,08,521,3003534,,,,,,,2025-09-09,1,,,,,イナホファーム,0
126,1080001027133,新規,0,2025-09-09,2025-09-09,株式会社彩むすび書,,株式会社,静岡県,焼津市,田尻北３８０番地の１,,22,212,4250051,,,,,,,2025-09-09,1,,,,,イロムスビショ,0
136,1090001019501,新規,0,2025-09-09,2025-09-09,株式会社ＲＡＣＣＯ,,株式会社,山梨県,甲府市,富竹２丁目６番１号メゾンドール・タイヨー１Ｆ,,19,201,4000049,,,,,,,2025-09-09,1,,,,,ラッコ,0
142,1100001038929,新規,0,2025-09-09,2025-09-09,株式会社問いと決定,,株式会社,長野県,北佐久郡軽井沢町,軽井沢東２３番地２－２Ｆ,,20,321,3890104,,,,,,,2025-09-09,1,,,,,トイトケッテイ,0
164,1120001279356,新規,0,2025-09-09,2025-09-09,瀾悦株式会社,,株式会社,大阪府,大阪市城東区,関目５丁目１９番９号関目花博公館３０１Ｂ,,27,118,5360008,,,,,,,2025-09-09,1,,,,,ランエツ,0
165,1120001279389,新規,0,2025-09-09,2025-09-09,株式会社Ｍ,,株式会社,大阪府,大阪市中央区,南船場４丁目１０番５号南船場ＳＯＨＯビル７０２,,27,128,5420081,,,,,,,2025-09-09,1,,,,,エム,0
166,1120001279414,新規,0,2025-09-09,2025-09-09,株式会社Ｔ　ｐｒｏｇｒｅｓｓ,,株式会社,大阪府,大阪市都島区,友渕町１丁目５番９－１２０２号,,27,102,5340016,,,,,,,2025-09-09,1,,,,,ティープログレス,0
167,1120001279422,新規,0,2025-09-09,2025-09-09,株式会社中村鉄筋工業,,株式会社,大阪府,大阪市淀川区,十八条３丁目９番２号,,27,123,5320001,,,,,,,2025-09-09,1,,,,,ナカムラテッキンコウギョウ,0
168,1120001279430,新規,0,2025-09-09,2025-09-09,株式会社正湊工業,,株式会社,大阪府,大阪市東住吉区,湯里６丁目１１番５号,,27,121,5460013,,,,,,,2025-09-09,1,,,,,ショウソウコウギョウ,0
171,1120003030477,新規,0,2025-09-09,2025-09-09,合同会社Ｒ＆Ｙプランニング,,合同会社,大阪府,守口市,松町３番４－３０３号,,27,209,5700085,,,,,,,2025-09-09,1,,,,,アールアンドワイプランニング,0
172,1120101072388,新規,0,2025-09-09,2025-09-09,ＮａｔｕｒａｌＦｌｏｗ株式会社,,株式会社,大阪府,泉南市,新家７２５番地の１７１,,27,228,5900503,,,,,,,2025-09-09,1,,,,,ナチュラルフロー,0
174,1120901051475,新規,0,2025-09-09,2025-09-09,こくぶ不動産販売株式会社,,株式会社,大阪府,豊中市,本町１丁目１１番５０号,,27,203,5600021,,,,,,,2025-09-09,1,,,,,コクブフドウサンハンバイ,0
179,1130001080481,新規,0,2025-09-09,2025-09-09,菁華トリップ株式会社,,株式会社,京都府,京都市中京区,室町通二条下る蛸薬師町２８６番地,,26,104,6040021,,,,,,,2025-09-09,1,,,,,セイカトリップ,0
180,1130001080515,新規,0,2025-09-09,2025-09-09,株式会社ＮＵＴＺ,,株式会社,京都府,京都市伏見区,久我西出町１０番地１３,,26,109,6128496,,,,,,,2025-09-09,1,,,,,ナッツ,0
184,1140005027619,新規,0,2025-09-09,2025-09-09,一般社団法人不登校精神発達支援学会,,その他の設立登記法人,兵庫県,尼崎市,神田北通６丁目１５３フジ商産ビル２Ｆ,,28,202,6600883,,,,,,,2025-09-09,1,,,,,,0
187,1170003002273,新規,0,2025-09-09,2025-09-09,合同会社ファイブスター,,合同会社,和歌山県,和歌山市,田中町３丁目１０番地ライオンズマンション田中町３１１号,,30,201,6408329,,,,,,,2025-09-09,1,,,,,ファイブスター,0
190,1180001168421,新規,0,2025-09-09,2025-09-09,春日井精工株式会社,,株式会社,愛知県,春日井市,大留町７丁目５番地９,,23,206,4870024,,,,,,,2025-09-09,1,,,,,カスガイセイコウ,0
191,1180001168495,新規,0,2025-09-09,2025-09-09,株式会社ＰＳＡ,,株式会社,愛知県,名古屋市名東区,よもぎ台１丁目１３１６の２（シャンクレールよもぎ台Ｂ棟２０１号）,,23,115,4650091,,,,,,,2025-09-09,1,,,,,ピーエスエー,0
192,1180001168545,新規,0,2025-09-09,2025-09-09,株式会社リベルタ,,株式会社,愛知県,名古屋市瑞穂区,松月町１丁目２０－１,,23,108,4670004,,,,,,,2025-09-09,1,,,,,リベルタ,0
196,1180301040189,新規,0,2025-09-09,2025-09-09,株式会社ワイツー,,株式会社,愛知県,安城市,朝日町１９番１１号,,23,212,4460031,,,,,,,2025-09-09,1,,,,,ワイツー,0
202,1200003007021,新規,0,2025-09-09,2025-09-09,合同会社ＡＢＢＡＳ　ＩＮＴＥＲＮＡＴＩＯＮＡＬ,,合同会社,岐阜県,岐阜市,岩田東２丁目３５４番地１,,21,201,5013154,,,,,,,2025-09-09,1,,,,,アバースインターナショナル,0
212,1240003007397,新規,0,2025-09-09,2025-09-09,ｉ．ｇ．ｃ．合同会社,,合同会社,広島県,三原市,明神３丁目１３番７号,,34,204,7230046,,,,,,,2025-09-09,1,,,,,アイジーシー,0
213,1240005015984,新規,0,2025-09-09,2025-09-09,一般社団法人広島県学生ダンス普及協会,,その他の設立登記法人,広島県,安芸郡府中町,本町１丁目４番１２号,,34,302,7350006,,,,,,,2025-09-09,1,,,,,ヒロシマケンガクセイダンスフキュウキョウカイ,0
215,1260001040522,新規,0,2025-09-09,2025-09-09,株式会社グロウス,,株式会社,岡山県,岡山市東区,沼１２９６番１号,,33,103,7090621,,,,,,,2025-09-09,1,,,,,グロウス,0
217,1260003005333,新規,0,2025-09-09,2025-09-09,合同会社はれ会計,,合同会社,岡山県,岡山市北区,本町６番３６号第一セントラルビル４Ｆ,,33,101,7000901,,,,,,,2025-09-09,1,,,,,ハレカイケイ,0
227,1290003017334,新規,0,2025-09-09,2025-09-09,アンドＣ合同会社,,合同会社,福岡県,久留米市,篠山町１８４番地６,,40,203,8300021,,,,,,,2025-09-09,1,,,,,アンドシー,0
228,1290003017342,新規,0,2025-09-09,2025-09-09,合同会社Ｑｕｅ　ｅｍｏｃｉｏｎ,,合同会社,福岡県,筑紫野市,針摺西２丁目８番１１－６０２号,00140580,40,217,8180084,,,,,,,2025-09-09,1,,,,,ケエモシオン,0
229,1290003017350,新規,0,2025-09-09,2025-09-09,合同会社ダイヤモンドファーム,,合同会社,福岡県,朝倉市,須川３０５０番地,,40,228,8381304,,,,,,,2025-09-09,1,,,,,ダイヤモンドファーム,0
230,1290003017383,新規,0,2025-09-09,2025-09-09,ＤＴ　ＭＡＲＴ合同会社,,合同会社,福岡県,久留米市,東和町５番地１ＹＫビル３０２号,,40,203,8300035,,,,,,,2025-09-09,1,,,,,ディーティーマート,0
232,1290801031817,新規,0,2025-09-09,2025-09-09,デコボコシフト株式会社,,株式会社,福岡県,北九州市戸畑区,中本町８－１４ＦＡＲＯ戸畑駅前ビル２Ｆ,,40,105,8040061,,,,,,,2025-09-09,1,,,,,デコボコシフト,0
240,1320001021326,新規,0,2025-09-09,2025-09-09,株式会社ホガラカ電工,,株式会社,大分県,別府市,野口中町１４番３０号,,44,202,8740932,,,,,,,2025-09-09,1,,,,,ホガラカデンコウ,0
242,1340001027635,新規,0,2025-09-09,2025-09-09,株式会社ＦＬＡＴ　ＯＮＥ,,株式会社,鹿児島県,鹿児島市,易居町５番２１号徳重事務所１Ｆ,,46,201,8920815,,,,,,,2025-09-09,1,,,,,フラットワン,0
243,1340003004946,新規,0,2025-09-09,2025-09-09,合同会社Ｂｏｒコアテック,,合同会社,鹿児島県,鹿児島市,中山町５２４６番地２,,46,201,8910105,,,,,,,2025-09-09,1,,,,,ビーオーアールコアテック,0
249,1360003015223,新規,0,2025-09-09,2025-09-09,合同会社ｒｉｏ,,合同会社,沖縄県,沖縄市,越来２丁目１０番２１号,,47,211,9040001,,,,,,,2025-09-09,1,,,,,リオ,0
260,1430001095169,新規,0,2025-09-09,2025-09-09,ＨＯＵＳＥ　ＶＡＬＵＥ株式会社,,株式会社,北海道,札幌市中央区,北三条西２０丁目２番１６号,,01,101,0640823,,,,,,,2025-09-09,1,,,,,ハウスバリュー,0
261,1430001095177,新規,0,2025-09-09,2025-09-09,株式会社Ｌｉｔｔｌｅ　ｐａｓｓ,,株式会社,北海道,小樽市,オタモイ１丁目１番２１号,,01,203,0482671,,,,,,,2025-09-09,1,,,,,リトルパス,0
263,1440001009680,新規,0,2025-09-09,2025-09-09,ＪＨ株式会社,,株式会社,北海道,函館市,中野町５４番地３,,01,202,0420912,,,,,,,2025-09-09,1,,,,,ジェイエイチ,0
266,1460101007756,新規,0,2025-09-09,2025-09-09,株式会社ＧＡＲＡＧＥ　Ｍ７,,株式会社,北海道,帯広市,西十八条南４丁目３７番８号,,01,207,0800028,,,,,,,2025-09-09,1,,,,,ガレージエムセブン,0
269,1480003002317,新規,0,2025-09-09,2025-09-09,ＭＹＭ合同会社,,合同会社,徳島県,徳島市,川内町富吉２０番地の２,,36,201,7710112,,,,,,,2025-09-09,1,,,,,エムワイエム,0
278,1700150131713,新規,0,2025-09-09,2025-09-09,Ｍａｎｇｏ　Ｔｅｃｈｎｏｌｏｇｉｅｓ，Ｉｎｃ．,,外国会社等,,,,,,,,３５０　Ｔｅｎｔｈ　Ａｖｅ，Ｓｕｉｔｅ　５００．，Ｓａｎ　Ｄｉｅｇｏ，Ｃａｌｉｆｏｒｎｉａ，９２１０１,,,,,,2025-09-09,1,,,,,マンゴーテクノロジーズ,0
290,2010001258238,新規,0,2025-09-09,2025-09-09,株式会社Ｒｉｓｋ　Ｍａｎａｇｅｍｅｎｔ　Ｐａｒｔｎｅｒｓ,,株式会社,東京都,千代田区,大手町１丁目７番２号東京サンケイビル２７階,,13,101,1000004,,,,,,,2025-09-09,1,,,,,リスクマネジメントパートナーズ,0
291,2010001258312,新規,0,2025-09-09,2025-09-09,株式会社ナガヒロ,,株式会社,東京都,中央区,築地３丁目４－６３Ｆ,,13,102,1040045,,,,,,,2025-09-09,1,,,,,ナガヒロ,0
292,2010001258337,新規,0,2025-09-09,2025-09-09,株式会社Ｐａｃｋ　Ｒｕｎｎｅｒｓ,,株式会社,東京都,千代田区,神田須田町１丁目７番８号ＶＯＲＴ秋葉原ＩＶ２Ｆ,00140591,13,101,1010041,,,,,,,2025-09-09,1,,,,,パックランナーズ,0
293,2010001258361,新規,0,2025-09-09,2025-09-09,悟隠株式会社,,株式会社,東京都,文京区,本郷４丁目１６－６－１００５Ｂ,,13,105,1130033,,,,,,,2025-09-09,1,,,,,ゴイン,0
296,2010003048637,新規,0,2025-09-09,2025-09-09,合同会社Ｊｂｏｎｄ,,合同会社,東京都,中央区,銀座１丁目２２番１１号大竹ビジデンス２Ｆ,,13,102,1040061,,,,,,,2025-09-09,1,,,,,ジェボンド,0
297,2010003048678,新規,0,2025-09-09,2025-09-09,合同会社Ｈ＆Ｗ,,合同会社,東京都,中央区,勝どき１丁目１３番６－２６０５号,,13,102,1040054,,,,,,,2025-09-09,1,,,,,エイチアンドダブリュー,0
298,2010003048694,新規,0,2025-09-09,2025-09-09,ティーエフ・ワン合同会社,,合同会社,東京都,中央区,銀座１丁目１２番４号,,13,102,1040061,,,,,,,2025-09-09,1,,,,,ティエフワン,0
302,2010005040641,新規,0,2025-09-09,2025-09-09,一般社団法人臨床カンナビノイド治療研究会,,その他の設立登記法人,東京都,千代田区,麹町６丁目６番地１長尾ビル７階,,13,101,1020083,,,,,,,2025-09-09,1,,,,,リンショウカンナビノイドチリョウケンキュウカイ,0
308,2010101016859,新規,0,2025-09-09,2025-09-09,栄亨株式会社,,株式会社,東京都,八王子市,元横山町２丁目５番１８号ヴィラ元横山１０２号,,13,201,1920063,,,,,,,2025-09-09,1,,,,,エイコウ,0
311,2010401192961,新規,0,2025-09-09,2025-09-09,株式会社ＡＰ　Ｃｏｎｓｕｌｔｉｎｇ,,株式会社,東京都,港区,北青山１丁目３番１号アールキューブ青山３階,,13,103,1070061,,,,,,,2025-09-09,1,,,,,エーピーコンサルティング,0
312,2010403035986,新規,0,2025-09-09,2025-09-09,ＡＰ　Ｘ１合同会社,,合同会社,東京都,港区,虎ノ門４丁目１－１７アリサ・パートナーズ・ジャパン株式会社内,,13,103,1050001,,,,,,,2025-09-09,1,,,,,エーピーエックスワン,0
316,2010405024673,新規,0,2025-09-09,2025-09-09,一般社団法人日本Ｇｉｖｅ＆Ｔａｋｅマネジメント協会,,その他の設立登記法人,東京都,港区,赤坂７丁目４番１８－３０５号,,13,103,1070052,,,,,,,2025-09-09,1,,,,,ニホンギブアンドテイクマネジメントキョウカイ,0
319,2010601067939,新規,0,2025-09-09,2025-09-09,日桜国際株式会社,,株式会社,東京都,江東区,木場５丁目１番５号メイプルハイム木場Ｂ１２３号室,,13,108,1350042,,,,,,,2025-09-09,1,,,,,ニチオウコクサイ,0
320,2010603011779,新規,0,2025-09-09,2025-09-09,Ｂａｔｔｅｎ合同会社,,合同会社,東京都,江東区,三好１丁目８－３越前屋ビル２Ｆ,,13,108,1350022,,,,,,,2025-09-09,1,,,,,バテン,0
321,2010605004500,新規,0,2025-09-09,2025-09-09,医療法人社団泰悠会,,その他の設立登記法人,東京都,江東区,南砂２丁目３２番５号センタービレッジ南砂２階,,13,108,1360076,,,,,,,2025-09-09,1,,,,,タイユウカイ,0
329,2010901058043,新規,0,2025-09-09,2025-09-09,ＹＯＵＲＩＳＭ株式会社,,株式会社,東京都,世田谷区,太子堂４丁目１８番１５号マガザン三軒茶屋２－３Ｆ－３,,13,112,1540004,,,,,,,2025-09-09,1,,,,,ユアイズム,0
335,2011001171868,新規,0,2025-09-09,2025-09-09,株式会社まるはち,,株式会社,東京都,渋谷区,桜丘町２３番１７号シティコート桜丘４０４,,13,113,1500031,,,,,,,2025-09-09,1,,,,,マルハチ,0
336,2011001171950,新規,0,2025-09-09,2025-09-09,株式会社晴空日,,株式会社,東京都,渋谷区,恵比寿西１丁目２７番地１０号三友第二マンション１０３,,13,113,1500021,,,,,,,2025-09-09,1,,,,,ハクジツ,0
337,2011003022301,新規,0,2025-09-09,2025-09-09,合同会社Ｏｐｅｒｉｄｅ,,合同会社,東京都,渋谷区,道玄坂１丁目１０番８号渋谷道玄坂東急ビル２Ｆ―Ｃ,,13,113,1500043,,,,,,,2025-09-09,1,,,,,オペライド,0
338,2011003022326,新規,0,2025-09-09,2025-09-09,合同会社オーシャン,,合同会社,東京都,目黒区,自由が丘２丁目１６番１２号ＲＪ３,,13,110,1520035,,,,,,,2025-09-09,1,,,,,オーシャン,0
343,2011101112870,新規,0,2025-09-09,2025-09-09,株式会社Ａｇｅｎｔｓ　Ｃｈａｉｎ,,株式会社,東京都,新宿区,西新宿３丁目３番１３号西新宿水間ビル６階,,13,104,1600023,,,,,,,2025-09-09,1,,,,,エージェンツチェイン,0
344,2011101113233,新規,0,2025-09-09,2025-09-09,株式会社ＴＨＥ　ＰＩＶＯＴ,,株式会社,東京都,新宿区,西新宿３丁目３番１３号西新宿水間ビル２Ｆ,,13,104,1600023,,,,,,,2025-09-09,1,,,,,ザピボット,0
347,2011301030856,新規,0,2025-09-09,2025-09-09,ミライヲツナグ株式会社,,株式会社,東京都,杉並区,和泉１丁目２２番１９号,,13,115,1680063,,,,,,,2025-09-09,1,,,,,ミライヲツナグ,0
348,2011401027380,新規,0,2025-09-09,2025-09-09,ＧＯＬＤ株式会社,,株式会社,東京都,板橋区,赤塚２丁目３７－３,,13,119,1750092,,,,,,,2025-09-09,1,,,,,ゴールド,0
349,2011401027397,新規,0,2025-09-09,2025-09-09,株式会社ＡＳｔａｇｅ,,株式会社,東京都,板橋区,成増３丁目１７番１４号ヴィレッジ成丘２０２,,13,119,1750094,,,,,,,2025-09-09,1,,,,,アステージ,0
350,2011403004832,新規,0,2025-09-09,2025-09-09,ＭＩコンサルティング合同会社,,合同会社,東京都,板橋区,幸町２３－８,,13,119,1730034,,,,,,,2025-09-09,1,,,,,エムアイコンサルティング,0
356,2011601028897,新規,0,2025-09-09,2025-09-09,株式会社一英,,株式会社,東京都,練馬区,西大泉４丁目１７番８号,,13,120,1780065,,,,,,,2025-09-09,1,,,,,イチハナ,0
368,2011803007055,新規,0,2025-09-09,2025-09-09,ＭＩＡ国際合同会社,,合同会社,東京都,足立区,足立４丁目３３－１－ＺＫＹビル２０３号室,,13,121,1200015,,,,,,,2025-09-09,1,,,,,エムアイエーコクサイ,0
370,2012301014527,新規,0,2025-09-09,2025-09-09,株式会社ベレシート,,株式会社,東京都,町田市,鶴間３丁目３番地７ドレッセタワー南町田グランベリーパーク６０７,,13,209,1940004,,,,,,,2025-09-09,1,,,,,ベレシート,0
371,2012303002216,新規,0,2025-09-09,2025-09-09,合同会社中村,,合同会社,東京都,町田市,鶴間３丁目１６番地１０,,13,209,1940004,,,,,,,2025-09-09,1,,,,,ナカムラ,0
383,2013301054868,新規,0,2025-09-09,2025-09-09,至簡株式会社,,株式会社,東京都,豊島区,池袋２丁目２０番２号,,13,116,1710014,,,,,,,2025-09-09,1,,,,,シカン,0
387,2013303007865,新規,0,2025-09-09,2025-09-09,ニュースサービス日経合同会社,,合同会社,東京都,豊島区,池袋３丁目５８番１８号,,13,116,1710014,,,,,,,2025-09-09,1,,,,,ニュースサービスニッケイ,0
390,2020001164732,新規,0,2025-09-09,2025-09-09,株式会社武蔵,,株式会社,神奈川県,横浜市神奈川区,片倉２丁目６５番１１号,,14,102,2210865,,,,,,,2025-09-09,1,,,,,ムサシ,0
391,2020001164749,新規,0,2025-09-09,2025-09-09,株式会社ＨＯＭＥラボ,,株式会社,神奈川県,川崎市川崎区,藤崎１丁目２３番１６号,,14,131,2100804,,,,,,,2025-09-09,1,,,,,ホームラボ,0
392,2020001164757,新規,0,2025-09-09,2025-09-09,株式会社リアン,,株式会社,神奈川県,川崎市宮前区,西野川３丁目２０番２８号,,14,136,2160044,,,,,,,2025-09-09,1,,,,,リアン,0
393,2020001164765,新規,0,2025-09-09,2025-09-09,Ｓｔｅｐａｔｈ株式会社,,株式会社,神奈川県,川崎市川崎区,大師駅前２丁目１番１－９０１号シティテラス川崎鈴木町グランドシーズンズ,,14,131,2100802,,,,,,,2025-09-09,1,,,,,ステパス,0
395,2020003029272,新規,0,2025-09-09,2025-09-09,合同会社ＯＲＥＯ,,合同会社,神奈川県,川崎市中原区,木月４丁目２１番４１号,,14,133,2110025,,,,,,,2025-09-09,1,,,,,オレオ,0
409,2030001168518,新規,0,2025-09-09,2025-09-09,株式会社ＢＡＮＬＩ,,株式会社,埼玉県,さいたま市大宮区,桜木町２丁目３番地大宮マルイ７階,,11,103,3300854,,,,,,,2025-09-09,1,,,,,バンリ,0
410,2030001168542,新規,0,2025-09-09,2025-09-09,株式会社ＣｏｒｅＶａｌｕｅ,,株式会社,埼玉県,川口市,北原台２丁目１１番２号,,11,203,3330815,,,,,,,2025-09-09,1,,,,,コアバリュー,0
411,2030001168591,新規,0,2025-09-09,2025-09-09,ポラリス株式会社,,株式会社,埼玉県,志木市,本町５丁目１９番１５号,,11,228,3530004,,,,,,,2025-09-09,1,,,,,ポラリス,0
415,2030003027523,新規,0,2025-09-09,2025-09-09,Ｄ＆Ｂ　ＧＲＯＵＰ合同会社,,合同会社,埼玉県,羽生市,東３丁目５３番２号大塚ハイツＥ２０１,,11,216,3480052,,,,,,,2025-09-09,1,,,,,ディーアンドビーグループ,0
416,2030003027548,新規,0,2025-09-09,2025-09-09,合同会社ＡＭＡＹＳ,,合同会社,埼玉県,川口市,大字赤芝新田３０８番地の４,,11,203,3330824,,,,,,,2025-09-09,1,,,,,アメイズ,0
419,2040001140418,新規,0,2025-09-09,2025-09-09,株式会社エネコンサル,,株式会社,千葉県,千葉市稲毛区,作草部２丁目８番４３号,,12,103,2630015,,,,,,,2025-09-09,1,,,,,エネコンサル,0
420,2040001140426,新規,0,2025-09-09,2025-09-09,株式会社ＴＯＭＭＹ,,株式会社,千葉県,君津市,外箕輪２丁目１番１７号,,12,225,2991173,,,,,,,2025-09-09,1,,,,,トミー,0
421,2040005022868,新規,0,2025-09-09,2025-09-09,一般社団法人あっと未来コミュニティ,,その他の設立登記法人,千葉県,佐倉市,城内町１１２番地８,,12,212,2850017,,,,,,,2025-09-09,1,,,,,アットミライコミュニティ,0
431,2060001038552,新規,0,2025-09-09,2025-09-09,株式会社モロックファーム,,株式会社,栃木県,栃木市,岩舟町曲ケ島１８０６番地４,,09,203,3294306,,,,,,,2025-09-09,1,,,,,モロックファーム,0
433,2060003005732,新規,0,2025-09-09,2025-09-09,黒羽インターナショナル合同会社,,合同会社,栃木県,大田原市,堀之内８６番地,,09,210,3240235,,,,,,,2025-09-09,1,,,,,クロバネインターナショナル,0
434,2060003005740,新規,0,2025-09-09,2025-09-09,ＭＰＲ　ＴＲＡＤＩＮＧ合同会社,,合同会社,栃木県,栃木市,岩舟町新里１３０３－２－４０号室,,09,203,3294316,,,,,,,2025-09-09,1,,,,,エムピーアールトレーディング,0
436,2070003006077,新規,0,2025-09-09,2025-09-09,合同会社ＮＣＧ　ＧＲＯＵＰ,,合同会社,群馬県,桐生市,小曽根町１０番２１－８号室,,10,203,3760000,,,,,,,2025-09-09,1,,,,,エヌシージーグループ,0
439,2080101025779,新規,0,2025-09-09,2025-09-09,株式会社ＵＫＥＬＵ,,株式会社,静岡県,沼津市,西間門１３８番地の１,,22,203,4100871,,,,,,,2025-09-09,1,,,,,ウケル,0
443,2080403005347,新規,0,2025-09-09,2025-09-09,合同会社レムリアン・ハーモニー,,合同会社,静岡県,浜松市中央区,積志町７９１番地,,22,138,4313114,,,,,,,2025-09-09,1,,,,,レムリアンハーモニー,0
449,2100003008375,新規,0,2025-09-09,2025-09-09,Ｚｅｎｅｒａ合同会社,,合同会社,長野県,長野市,大字南長野西後町１５９７番地１長野表参道ビル４階,,20,201,3800845,,,,,,,2025-09-09,1,,,,,ゼネラ,0
451,2110003005883,新規,0,2025-09-09,2025-09-09,合同会社Ｋ会計,,合同会社,新潟県,長岡市,関原町１丁目５３１７番地１,,15,202,9402035,,,,,,,2025-09-09,1,,,,,ケイカイケイ,0
469,2120001279280,新規,0,2025-09-09,2025-09-09,多加株式会社,,株式会社,大阪府,大阪市中央区,森ノ宮中央２丁目１１番６号シュライン森ノ宮２０１,,27,128,5400003,,,,,,,2025-09-09,1,,,,,タカ,0
470,2120001279355,新規,0,2025-09-09,2025-09-09,コラジョ株式会社,,株式会社,大阪府,大阪市生野区,新今里３丁目４番１７号ＯＧビル２０１Ｂ,,27,116,5440001,,,,,,,2025-09-09,1,,,,,コラジョ,0
471,2120001279371,新規,0,2025-09-09,2025-09-09,宏昌株式会社,,株式会社,大阪府,大阪市浪速区,恵美須西２丁目１２番１９－３０６号,,27,111,5560003,,,,,,,2025-09-09,1,,,,,コウジョウ,0
472,2120001279396,新規,0,2025-09-09,2025-09-09,ＭＩＫＩ株式会社,,株式会社,大阪府,大阪市北区,中崎西４丁目２番２１－８０４号,,27,127,5300015,,,,,,,2025-09-09,1,,,,,ミキ,0
473,2120001279413,新規,0,2025-09-09,2025-09-09,ＯＳＤ株式会社,,株式会社,大阪府,大阪市北区,梅田１丁目２番２号大阪駅前第２ビル１２－１２,,27,127,5300001,,,,,,,2025-09-09,1,,,,,オーエスディー,0
474,2120001279421,新規,0,2025-09-09,2025-09-09,リィードジャパン株式会社,,株式会社,大阪府,大阪市福島区,鷺洲３丁目６番１０－８１０号,,27,103,5530002,,,,,,,2025-09-09,1,,,,,リィードジャパン,0
475,2120001279470,新規,0,2025-09-09,2025-09-09,株式会社Ｍｅｒｉｅ,,株式会社,大阪府,大阪市北区,太融寺町２－１８富士林プラザ８番館７階,,27,127,5300051,,,,,,,2025-09-09,1,,,,,メリー,0
476,2120001279512,新規,0,2025-09-09,2025-09-09,奮進株式会社,,株式会社,大阪府,大阪市中央区,内本町２丁目２番１４－３０２号,,27,128,5400026,,,,,,,2025-09-09,1,,,,,フンシン,0
477,2120001279669,新規,0,2025-09-09,2025-09-09,輝龍古芸術品株式会社,,株式会社,大阪府,大阪市浪速区,桜川２丁目１０番４－３０７号,,27,111,5560022,,,,,,,2025-09-09,1,,,,,キリュウコゲイジュツヒン,0
478,2120001279702,新規,0,2025-09-09,2025-09-09,ヤンマーブルーテック株式会社,,株式会社,大阪府,大阪市北区,茶屋町１番３２号,,27,127,5300013,,,,,,,2025-09-09,1,,,,,ヤンマーブルーテック,0
480,2120003030410,新規,0,2025-09-09,2025-09-09,合同会社ネオクリエイト,,合同会社,大阪府,大阪市北区,梅田１丁目２番２号大阪駅前第２ビル,,27,127,5300001,,,,,,,2025-09-09,1,,,,,ネオクリエイト,0
481,2120005025152,新規,0,2025-09-09,2025-09-09,一般社団法人Ｋカンパニー,,その他の設立登記法人,大阪府,大阪市福島区,福島５丁目１４番６号,,27,103,5530003,,,,,,,2025-09-09,1,,,,,ケーカンパニー,0
482,2120101072370,新規,0,2025-09-09,2025-09-09,株式会社ＫＩＴＡＵＲＡ,,株式会社,大阪府,泉佐野市,栄町５－４－４Ｆ,,27,213,5980054,,,,,,,2025-09-09,1,,,,,キタウラ,0
483,2120101072379,新規,0,2025-09-09,2025-09-09,株式会社ＡＬ’ＰＨＡ,,株式会社,大阪府,堺市中区,深井沢町３２９０番地深井プラザＡ－２号,,27,142,5998236,,,,,,,2025-09-09,1,,,,,アルファ,0
484,2120103006673,新規,0,2025-09-09,2025-09-09,合同会社ミスト,,合同会社,大阪府,堺市美原区,さつき野東３丁目７番地１１,,27,147,5870032,,,,,,,2025-09-09,1,,,,,ミスト,0
485,2120103006681,新規,0,2025-09-09,2025-09-09,合同会社ラッキー,,合同会社,大阪府,南河内郡太子町,大字春日１３３６－２,,27,381,5830991,,,,,,,2025-09-09,1,,,,,ラッキー,0
487,2120901051466,新規,0,2025-09-09,2025-09-09,株式会社勇進,,株式会社,大阪府,吹田市,泉町４丁目１７番５－２号,,27,205,5640041,,,,,,,2025-09-09,1,,,,,ユウシン,0
489,2122003003313,新規,0,2025-09-09,2025-09-09,合同会社Ｄｏ　ｉｔ,,合同会社,大阪府,東大阪市,御厨中１丁目１１番９号,,27,227,5770035,,,,,,,2025-09-09,1,,,,,ドゥイット,0
492,2130001080431,新規,0,2025-09-09,2025-09-09,テンマワークス株式会社,,株式会社,京都府,城陽市,枇杷庄出羽９番地の２２,,26,207,6100117,,,,,,,2025-09-09,1,,,,,テンマワークス,0
493,2130001080448,新規,0,2025-09-09,2025-09-09,株式会社レック,,株式会社,京都府,京都市左京区,岩倉村松町８２番地６,,26,103,6060034,,,,,,,2025-09-09,1,,,,,レック,0
494,2130001080472,新規,0,2025-09-09,2025-09-09,株式会社Ｔｏｄｏｋｅ　Ｂｒｉｄｇｅ,,株式会社,京都府,京都市下京区,七条通油小路東入大黒町２２７番地第２キョートビル４０２,,26,106,6008223,,,,,,,2025-09-09,1,,,,,トドケブリッジ,0
495,2130001080480,新規,0,2025-09-09,2025-09-09,株式会社京都カメラ,,株式会社,京都府,京都市北区,小山花ノ木町５４－４５・２階,,26,101,6038122,,,,,,,2025-09-09,1,,,,,キョウトカメラ,0
496,2130001080530,新規,0,2025-09-09,2025-09-09,アフキー株式会社,,株式会社,京都府,京都市下京区,金東横町２４２,,26,106,6008331,,,,,,,2025-09-09,1,,,,,アフキー,0
505,2140001139937,新規,0,2025-09-09,2025-09-09,株式会社Ｂｒａｉｎ　Ｆａｒｍｅｒｓ,,株式会社,兵庫県,神戸市中央区,琴ノ緒町４丁目１０－２吉光ビル２階,,28,110,6510094,,,,,,,2025-09-09,1,,,,,ブレインファーマーズ,0
506,2140001139953,新規,0,2025-09-09,2025-09-09,株式会社フューチャーライズ,,株式会社,兵庫県,神戸市灘区,水道筋３丁目７番５号,,28,102,6570831,,,,,,,2025-09-09,1,,,,,フューチャーライズ,0
511,2150001028387,新規,0,2025-09-09,2025-09-09,株式会社のぞみ,,株式会社,奈良県,生駒市,俵口町１３７０番地１,,29,209,6300243,,,,,,,2025-09-09,1,,,,,ノゾミ,0
515,2170003002297,新規,0,2025-09-09,2025-09-09,ファムドライブ合同会社,,合同会社,和歌山県,和歌山市,楠本１３８番地,,30,201,6496313,,,,,,,2025-09-09,1,,,,,ファムドライブ,0
520,2190001032518,新規,0,2025-09-09,2025-09-09,株式会社伊藤農園,,株式会社,三重県,桑名郡木曽岬町,大字見入８番地,,24,303,4980802,,,,,,,2025-09-09,1,,,,,イトウノウエン,0
526,2200003007012,新規,0,2025-09-09,2025-09-09,下呂金属合同会社,,合同会社,岐阜県,下呂市,萩原町奥田洞字島尻１９７番１,,21,220,5092519,,,,,,,2025-09-09,1,,,,,ゲロキンゾク,0
530,2220001026920,新規,0,2025-09-09,2025-09-09,株式会社Ｂｅｋｏｗａｓ,,株式会社,石川県,金沢市,東山３丁目３０番２号,,17,201,9200831,,,,,,,2025-09-09,1,,,,,ビコワス,0
532,2230003002497,新規,0,2025-09-09,2025-09-09,ＭＵＳＴＡＦＡ　ＴＲＡＤＥＲ合同会社,,合同会社,富山県,射水市,庄西町２丁目７番２３号,,16,211,9340001,,,,,,,2025-09-09,1,,,,,ムスタファトレーダー,0
536,2240003007396,新規,0,2025-09-09,2025-09-09,ＬＲＩ合同会社,,合同会社,広島県,広島市中区,本通１番２７号２階,,34,101,7300035,,,,,,,2025-09-09,1,,,,,エルアールアイ,0
537,2240005015983,新規,0,2025-09-09,2025-09-09,一般社団法人いきいきライフ協会せとうち,,その他の設立登記法人,広島県,広島市南区,宇品御幸３丁目７番４２号,,34,103,7340015,,,,,,,2025-09-09,1,,,,,イキイキライフキョウカイセトウチ,0
539,2250005009027,新規,0,2025-09-09,2025-09-09,医療法人藤井歯科医院,,その他の設立登記法人,山口県,長門市,油谷新別名９９３番地１１,,35,211,7594503,,,,,,,2025-09-09,1,,,,,フジイシカイイン,0
543,2290001111294,新規,0,2025-09-09,2025-09-09,一千京株式会社,,株式会社,福岡県,福岡市早良区,室見２丁目１３－１２パームハイツ１０１号室,,40,137,8140015,,,,,,,2025-09-09,1,,,,,イッセンキョウ,0
544,2290001111427,新規,0,2025-09-09,2025-09-09,株式会社吉田総建,,株式会社,福岡県,大牟田市,藤田町６６３番地１,,40,202,8360074,,,,,,,2025-09-09,1,,,,,ヨシダソウケン,0
548,2290003017416,新規,0,2025-09-09,2025-09-09,Ｌｅａｒｎｉｎｇ　Ｓｐａｃｅ合同会社,,合同会社,福岡県,福岡市中央区,白金１丁目１７番１８号４階,,40,133,8100012,,,,,,,2025-09-09,1,,,,,ラーニングスペース,0
550,2290803005149,新規,0,2025-09-09,2025-09-09,合同会社カーサポートサービス,,合同会社,福岡県,築上郡吉富町,大字広津３４９番地２トレステーラルーメ吉富１０３号,,40,642,8710811,,,,,,,2025-09-09,1,,,,,カーポートサービス,0
553,2330001033559,新規,0,2025-09-09,2025-09-09,株式会社Ｈｏ‐Ｈｏ,,株式会社,熊本県,熊本市南区,御幸木部１丁目１０－５５,,43,104,8614173,,,,,,,2025-09-09,1,,,,,ホーホ,0
554,2330003011199,新規,0,2025-09-09,2025-09-09,合同会社三浦総建工業,,合同会社,熊本県,熊本市南区,八幡５丁目８番３号,,43,104,8614113,,,,,,,2025-09-09,1,,,,,ミウラソウケンコウギョウ,0
558,2340003004945,新規,0,2025-09-09,2025-09-09,合同会社ファルモア,,合同会社,鹿児島県,鹿児島市,平川町５７５８番地１０,,46,201,8910133,,,,,,,2025-09-09,1,,,,,ファルモア,0
560,2350005006328,新規,0,2025-09-09,2025-09-09,社会保険労務士法人ＯＷＬ,,その他の設立登記法人,宮崎県,宮崎市,川原町４番１５号エスポワールクレア３０５,,45,201,8800866,,,,,,,2025-09-09,1,,,,,オウル,0
563,2360003015230,新規,0,2025-09-09,2025-09-09,天華合同会社,,合同会社,沖縄県,那覇市,松山２丁目２９－７－１３０５,,47,201,9000032,,,,,,,2025-09-09,1,,,,,テンカ,0
564,2360005007283,新規,0,2025-09-09,2025-09-09,一般社団法人沖縄人財育成ネットワーク,,その他の設立登記法人,沖縄県,中頭郡西原町,字徳佐田４１番地の６,,47,329,9030127,,,,,,,2025-09-09,1,,,,,オキナワジンザイイクセイネットワーク,0
566,2370001053017,新規,0,2025-09-09,2025-09-09,株式会社コスモスター,,株式会社,宮城県,仙台市泉区,将監８丁目１０番６－１１０１号,,04,105,9813132,,,,,,,2025-09-09,1,,,,,コスモスター,0
567,2370001053033,新規,0,2025-09-09,2025-09-09,Ａｅｔｈｅｒ株式会社,,株式会社,宮城県,仙台市青葉区,春日町３番１６－３０２号,,04,101,9800821,,,,,,,2025-09-09,1,,,,,エーテル,0
568,2370001053041,新規,0,2025-09-09,2025-09-09,株式会社ＱＢ,,株式会社,宮城県,仙台市太白区,金剛沢３丁目１９番１５号,,04,104,9820803,,,,,,,2025-09-09,1,,,,,キュービー,0
571,2380001035550,新規,0,2025-09-09,2025-09-09,株式会社いろは,,株式会社,福島県,福島市,北矢野目字前原１番地の１０,,07,201,9600113,,,,,,,2025-09-09,1,,,,,イロハ,0
577,2410001014261,新規,0,2025-09-09,2025-09-09,能代商事株式会社,,株式会社,秋田県,能代市,萬町１１３番地,,05,202,0160000,,,,,,,2025-09-09,1,,,,,ノシロショウジ,0
581,2450001014729,新規,0,2025-09-09,2025-09-09,株式会社Ａｔｅｌｉｅｒ　Ｎｏｌｉｅ,,株式会社,北海道,上川郡東川町,南町２丁目４番１０号,,01,458,0711424,,,,,,,2025-09-09,1,,,,,アトリエノリ,0
582,2460101007747,新規,0,2025-09-09,2025-09-09,株式会社梶農場,,株式会社,北海道,帯広市,大正町東１線８６番地,,01,207,0891242,,,,,,,2025-09-09,1,,,,,カジノウジョウ,0
583,2460101007755,新規,0,2025-09-09,2025-09-09,株式会社ＴＯＫＡＣＨＩ　ＢＡＲＯＮ,,株式会社,北海道,中川郡幕別町,本町１２２番地,,01,643,0890603,,,,,,,2025-09-09,1,,,,,トカチバロン,0
586,2480005007107,新規,0,2025-09-09,2025-09-09,ＳＳＫ行政書士法人,,その他の設立登記法人,徳島県,鳴門市,撫養町南浜字東浜３９５番地,,36,202,7720003,,,,,,,2025-09-09,1,,,,,,0
609,3010001258245,新規,0,2025-09-09,2025-09-09,株式会社フィデリオ,,株式会社,東京都,中央区,銀座１丁目２１番４号中野ビル３階,,13,102,1040061,,,,,,,2025-09-09,1,,,,,フィデリオ,0
610,3010001258369,新規,0,2025-09-09,2025-09-09,株式会社Ｌｅａｆｕｌｌ,,株式会社,東京都,中央区,銀座１丁目１２番４号６Ｆ,,13,102,1040061,,,,,,,2025-09-09,1,,,,,リーフル,0
612,3010003048644,新規,0,2025-09-09,2025-09-09,ミルキーウェイ合同会社,,合同会社,東京都,中央区,銀座７丁目１３番２０号銀座ＴＨビル９階,,13,102,1040061,,,,,,,2025-09-09,1,,,,,ミルキーウェイ,0
613,3010003048677,新規,0,2025-09-09,2025-09-09,ＲＥＰジャパン投資合同会社,,合同会社,東京都,中央区,日本橋３丁目９番１号日本橋三丁目スクエア１１階,,13,102,1030027,,,,,,,2025-09-09,1,,,,,アールイーピージャパントウシ,0
617,3010005040632,新規,0,2025-09-09,2025-09-09,医療法人社団幹俊会,,その他の設立登記法人,東京都,千代田区,鍛冶町２丁目８番６号メディカルプライム神田５階,,13,101,1010044,,,,,,,2025-09-09,1,,,,,カンシュンカイ,0
618,3010101016858,新規,0,2025-09-09,2025-09-09,株式会社トラスト,,株式会社,東京都,八王子市,鑓水２丁目１４７９－７,,13,201,1920375,,,,,,,2025-09-09,1,,,,,トラスト,0
620,3010103002641,新規,0,2025-09-09,2025-09-09,Ｏ１ＯＭＥ合同会社,,合同会社,東京都,八王子市,旭町１－１セレオ八王子北館９Ｆ３号室,,13,201,1920083,,,,,,,2025-09-09,1,,,,,オーワンオーエムイー,0
626,3010401192779,新規,0,2025-09-09,2025-09-09,株式会社クラルスアセット,,株式会社,東京都,港区,三田５丁目２番２７号,,13,103,1080073,,,,,,,2025-09-09,1,,,,,クラルスアセット,0
627,3010401192911,新規,0,2025-09-09,2025-09-09,イロドリスタイル株式会社,,株式会社,東京都,港区,北青山１丁目３番１号アールキューブ青山３階,,13,103,1070061,,,,,,,2025-09-09,1,,,,,イロドリスタイル,0
628,3010401192928,新規,0,2025-09-09,2025-09-09,Ｙｕｒｕ２株式会社,,株式会社,東京都,港区,西麻布１丁目４番２２号ａｒｔｓｑｕａｒｅ西麻布Ｂ１Ｆ,,13,103,1060031,,,,,,,2025-09-09,1,,,,,ユル,0
629,3010401192936,新規,0,2025-09-09,2025-09-09,株式会社ｍＴｗｏ,,株式会社,東京都,港区,北青山１丁目３番３号三橋ビル３階,,13,103,1070061,,,,,,,2025-09-09,1,,,,,エムトゥー,0
630,3010401192944,新規,0,2025-09-09,2025-09-09,株式会社ｓｈｉｋｉ　ｔｏ　ｏｒｉ,,株式会社,東京都,港区,西麻布３丁目２０番９号ハイネス麻布９０１号室,,13,103,1060031,,,,,,,2025-09-09,1,,,,,シキトオリ,0
631,3010401192985,新規,0,2025-09-09,2025-09-09,ｅｇｏ　ａｉ株式会社,,株式会社,東京都,港区,虎ノ門１丁目１７番１号虎ノ門ヒルズビジネスタワー５Ｆ,,13,103,1050001,,,,,,,2025-09-09,1,,,,,エゴエーアイ,0
633,3010403035985,新規,0,2025-09-09,2025-09-09,ギャラリージェイコ合同会社,,合同会社,東京都,港区,赤坂６丁目１９番４０－８０３号,,13,103,1070052,,,,,,,2025-09-09,1,,,,,ギャラリージェイコ,0
634,3010403035993,新規,0,2025-09-09,2025-09-09,Ｊｕｓｔ　Ｇｒａｐｅｓ合同会社,,合同会社,東京都,港区,南青山１丁目１番１号,,13,103,1070062,,,,,,,2025-09-09,1,,,,,ジャストグレープス,0
635,3010501054672,新規,0,2025-09-09,2025-09-09,ＶＩＫ株式会社,,株式会社,東京都,台東区,上野６丁目７－１６川久保ビル７１９室,,13,106,1100005,,,,,,,2025-09-09,1,,,,,ヴィキ,0
636,3010501054680,新規,0,2025-09-09,2025-09-09,和＿商事株式会社,00140577,株式会社,東京都,台東区,蔵前４丁目１６－６ストーク蔵前Ｍ＆Ｋ４階４１９,,13,106,1110051,,,,,,,2025-09-09,1,,,,,ワキショウジ,0
639,3010701048251,新規,0,2025-09-09,2025-09-09,株式会社Ｗａｌｋ,,株式会社,東京都,品川区,東五反田２丁目５番２－３０１号,,13,109,1410022,,,,,,,2025-09-09,1,,,,,ウォーク,0
645,3010901058034,新規,0,2025-09-09,2025-09-09,ヴィングループジャパン株式会社,,株式会社,東京都,世田谷区,桜上水５丁目９－１１,,13,112,1560045,,,,,,,2025-09-09,1,,,,,ヴィングループジャパン,0
646,3010901058050,新規,0,2025-09-09,2025-09-09,株式会社ｏｚ　ｄｅｓｉｇｎ,,株式会社,東京都,世田谷区,砧１丁目４―２,,13,112,1570073,,,,,,,2025-09-09,1,,,,,オズデザイン,0
653,3011001171792,新規,0,2025-09-09,2025-09-09,株式会社結城工務店,,株式会社,東京都,渋谷区,恵比寿西２丁目４－８ウィンド恵比寿ビル８Ｆ,,13,113,1500021,,,,,,,2025-09-09,1,,,,,ユウキコウムテン,0
654,3011001171842,新規,0,2025-09-09,2025-09-09,さんかくねっと株式会社,,株式会社,東京都,目黒区,下目黒１丁目１番１４号コノトラビル７Ｆ,,13,110,1530064,,,,,,,2025-09-09,1,,,,,サンカクネット,0
655,3011001171859,新規,0,2025-09-09,2025-09-09,ＡＳＫ株式会社,,株式会社,東京都,渋谷区,元代々木町５１番３号,,13,113,1510062,,,,,,,2025-09-09,1,,,,,エースケー,0
657,3011003022325,新規,0,2025-09-09,2025-09-09,合同会社コロニ,,合同会社,東京都,渋谷区,広尾１丁目２番地１号ヒカリビル４階,,13,113,1500012,,,,,,,2025-09-09,1,,,,,コロニ,0
658,3011003022333,新規,0,2025-09-09,2025-09-09,フォレストリミット合同会社,,合同会社,東京都,渋谷区,幡ヶ谷２丁目８番１５号幡ヶ谷ＫＯＤＡビルＢ１Ｆ,,13,113,1510072,,,,,,,2025-09-09,1,,,,,フォレストリミット,0
659,3011005011177,新規,0,2025-09-09,2025-09-09,医療法人社団和悠会,,その他の設立登記法人,東京都,目黒区,鷹番２丁目１５番１３号,,13,110,1520004,,,,,,,2025-09-09,1,,,,,ワユウカイ,0
669,3011303005707,新規,0,2025-09-09,2025-09-09,ＳＡＰＫＯＴＡ　Ｇ合同会社,,合同会社,東京都,杉並区,天沼２丁目２９－１１,,13,115,1670032,,,,,,,2025-09-09,1,,,,,サプコタジー,0
672,3011501032528,新規,0,2025-09-09,2025-09-09,亘昌株式会社,,株式会社,東京都,荒川区,町屋３丁目１８－１２ＮＤビル２１０,,13,118,1160001,,,,,,,2025-09-09,1,,,,,ノブマサ,0
682,3012401043565,新規,0,2025-09-09,2025-09-09,株式会社ＹＨＫ,,株式会社,東京都,府中市,西府町２丁目１５番地の６,,13,206,1830031,,,,,,,2025-09-09,1,,,,,ワイエイチケー,0
684,3012801024231,新規,0,2025-09-09,2025-09-09,株式会社ＩＣＨＩ建設,,株式会社,東京都,日野市,落川１０７０番地リヴェージュ百草園６０１,,13,212,1910034,,,,,,,2025-09-09,1,,,,,イチケンセツ,0
686,3012805003363,新規,0,2025-09-09,2025-09-09,ファイブグッド行政書士法人,,その他の設立登記法人,東京都,立川市,幸町１丁目３６番地の１１,,13,202,1900002,,,,,,,2025-09-09,1,,,,,ファイブグッド,0
689,3013301054891,新規,0,2025-09-09,2025-09-09,ＴＯＳ株式会社,,株式会社,東京都,豊島区,東池袋２丁目６２番８号ＢＩＧオフィスプラザ池袋１２０６,,13,116,1700013,,,,,,,2025-09-09,1,,,,,ティーオーエス,0
690,3013301054917,新規,0,2025-09-09,2025-09-09,株式会社Ｍａｓｔｅｒ　Ｃｌｅａｎｉｎｇ,,株式会社,東京都,豊島区,上池袋４丁目２２番２号セレス上池袋１Ｆ,,13,116,1700012,,,,,,,2025-09-09,1,,,,,マスタークリーニング,0
691,3013303007864,新規,0,2025-09-09,2025-09-09,合同会社ＡＫＩＴＡＮＩ,,合同会社,東京都,豊島区,駒込４丁目３番２０号プラウド駒込５２２号,,13,116,1700003,,,,,,,2025-09-09,1,,,,,アキタニ,0
692,3013305003762,新規,0,2025-09-09,2025-09-09,司法書士法人故郷,,その他の設立登記法人,東京都,豊島区,南大塚１丁目６０番２０号天翔大塚駅前ビル,,13,116,1700005,,,,,,,2025-09-09,1,,,,,コキョウ,0
700,3020001164723,新規,0,2025-09-09,2025-09-09,株式会社アポステリオリ,,株式会社,神奈川県,横浜市中区,山手町２７番地５ベイステージ元町２０３,,14,104,2310862,,,,,,,2025-09-09,1,,,,,アポステリオリ,0
707,3021001086239,新規,0,2025-09-09,2025-09-09,株式会社ルミナス,,株式会社,神奈川県,相模原市中央区,清新６丁目１２番１号レジーナ１０１,,14,152,2520216,,,,,,,2025-09-09,1,,,,,ルミナス,0
708,3021001086247,新規,0,2025-09-09,2025-09-09,ケイリレーションズ株式会社,,株式会社,神奈川県,茅ヶ崎市,幸町３番５－１１０２号,,14,207,2530052,,,,,,,2025-09-09,1,,,,,ケイリレーションズ,0
719,3030001168401,新規,0,2025-09-09,2025-09-09,株式会社貴丸,,株式会社,埼玉県,朝霞市,西弁財１丁目１３番１４号ネクストハイツ２０１号,,11,227,3510021,,,,,,,2025-09-09,1,,,,,タカマル,0
720,3030001168491,新規,0,2025-09-09,2025-09-09,株式会社折原建設,,株式会社,埼玉県,北葛飾郡杉戸町,大字本郷８３７－１,,11,464,3450023,,,,,,,2025-09-09,1,,,,,オリハラケンセツ,0
721,3030001168509,新規,0,2025-09-09,2025-09-09,ＪＡＣ株式会社,,株式会社,埼玉県,吉川市,大字保５１０番地２７－１Ｆ,,11,243,3420041,,,,,,,2025-09-09,1,,,,,ジェーエイシー,0
722,3030001168517,新規,0,2025-09-09,2025-09-09,久喜木易株式会社,,株式会社,埼玉県,久喜市,栗橋３８０,,11,232,3491104,,,,,,,2025-09-09,1,,,,,クキモクエキ,0
723,3030001168541,新規,0,2025-09-09,2025-09-09,株式会社ＮＮＳ,,株式会社,埼玉県,春日部市,立野７９２－１,,11,214,3440134,,,,,,,2025-09-09,1,,,,,エヌエヌエス,0
724,3030001168558,新規,0,2025-09-09,2025-09-09,株式会社ＭＴＯ　ｖｉｌｌａｇｅｓ,,株式会社,埼玉県,入間市,扇台４丁目１番７号,,11,225,3580023,,,,,,,2025-09-09,1,,,,,エムティーオービレッジ,0
727,3030003027539,新規,0,2025-09-09,2025-09-09,ＡＡＭ合同会社,,合同会社,埼玉県,川口市,飯塚２丁目２番１０－３１０４号,,11,203,3320023,,,,,,,2025-09-09,1,,,,,エーエーエム,0
728,3030003027588,新規,0,2025-09-09,2025-09-09,合同会社Ｌ＆Ｃ,,合同会社,埼玉県,白岡市,小久喜１４２０番地５,,11,246,3490217,,,,,,,2025-09-09,1,,,,,エルアンドシー,0
729,3030005022257,新規,0,2025-09-09,2025-09-09,一般社団法人経済産業新報,,その他の設立登記法人,埼玉県,和光市,新倉２丁目３２番４６号,,11,229,3510115,,,,,,,2025-09-09,1,,,,,ケイザイサンギョウシンポウ,0
735,3040001140425,新規,0,2025-09-09,2025-09-09,Ｃ．Ｏ．Ｋ．Ｗｏｒｋｓ株式会社,,株式会社,千葉県,浦安市,高洲３丁目３５番１３号,,12,227,2790023,,,,,,,2025-09-09,1,,,,,シーオーケーワークス,0
745,3070001043328,新規,0,2025-09-09,2025-09-09,株式会社グランクラス,,株式会社,群馬県,高崎市,下之城町５１１－１Ｍ－１ビル２Ｆ,,10,202,3700854,,,,,,,2025-09-09,1,,,,,,0
746,3070003006076,新規,0,2025-09-09,2025-09-09,合同会社ＳＫＹＬＩＮＥ　ＣＯＲＰＯＲＡＴＩＯＮ,,合同会社,群馬県,桐生市,小曽根町１０番２１－９号室,,10,203,3760000,,,,,,,2025-09-09,1,,,,,スカイラインコーポレーション,0
756,3080105006535,新規,0,2025-09-09,2025-09-09,一般社団法人ＮＯＥＬ,,その他の設立登記法人,静岡県,沼津市,大手町５丁目９－２１２階,,22,203,4100801,,,,,,,2025-09-09,1,,,,,ノエル,0
758,3080403005346,新規,0,2025-09-09,2025-09-09,合同会社Ｄｒａｖｉｘ,,合同会社,静岡県,磐田市,中泉３０８４番地２１,,22,211,4380078,,,,,,,2025-09-09,1,,,,,ドラヴィクス,0
759,3090005007731,新規,0,2025-09-09,2025-09-09,一般社団法人Ｓｅｍａｎｔｉｃｓ　Ｒｅｓｅａｒｃｈ　Ｉｎｓｔｉｔｕｔｅ,,その他の設立登記法人,山梨県,笛吹市,一宮町金田１２９６番地４,,19,211,4050079,,,,,,,2025-09-09,1,,,,,セマンティクスリサーチインスティテュート,0
761,3100001038935,新規,0,2025-09-09,2025-09-09,信和地質株式会社,,株式会社,長野県,長野市,上松４丁目６番１８号,,20,201,3800802,,,,,,,2025-09-09,1,,,,,シンワチシツ,0
766,3110003005882,新規,0,2025-09-09,2025-09-09,Ｍａｍｍｏｔｈ合同会社,,合同会社,新潟県,妙高市,大字関川２４４６番地,,15,217,9492112,,,,,,,2025-09-09,1,,,,,マンモス,0
781,3120001279247,新規,0,2025-09-09,2025-09-09,パナソニックヒューマンキャピタルサービス株式会社,,株式会社,大阪府,門真市,元町２２番６号,,27,223,5710057,,,,,,,2025-09-09,1,,,,,パナソニックヒューマンキャピタルサービス,0
782,3120001279354,新規,0,2025-09-09,2025-09-09,火山湖株式会社,,株式会社,大阪府,大阪市東成区,大今里３丁目１５番６号ＩｍａｚａｔｏＴｏｗｅｒ３０９Ｂ,,27,115,5370012,,,,,,,2025-09-09,1,,,,,カザンコ,0
783,3120001279404,新規,0,2025-09-09,2025-09-09,株式会社Ｈｉｄａｍａｒｉ　Ｗｏｒｋｓ,,株式会社,大阪府,大阪市福島区,福島７丁目１７－１１福島７ビル２０５号,,27,103,5530003,,,,,,,2025-09-09,1,,,,,ヒダマリワークス,0
784,3120001279412,新規,0,2025-09-09,2025-09-09,株式会社Ｒ　Ｄｅｓｉｇｎ　Ｐｌａｎｎｉｎｇ,,株式会社,大阪府,大阪市中央区,南船場３丁目２番２２号,,27,128,5420081,,,,,,,2025-09-09,1,,,,,アールデザインプランニング,0
785,3120001279445,新規,0,2025-09-09,2025-09-09,株式会社みつばキッチン,,株式会社,大阪府,大阪市北区,中津１丁目２番２１号中津明大ビル,,27,127,5310071,,,,,,,2025-09-09,1,,,,,ミツバキッチン,0
786,3120001279453,新規,0,2025-09-09,2025-09-09,株式会社ボナフォルトゥーナ,,株式会社,大阪府,大阪市北区,曾根崎２丁目１５番１６－３５０７号,,27,127,5300057,,,,,,,2025-09-09,1,,,,,ボナフォルトゥーナ,0
790,3120003030442,新規,0,2025-09-09,2025-09-09,合同会社ＣｙｂｅｒＧａｍｅｓ,,合同会社,大阪府,大阪市北区,梅田１丁目２番２号大阪駅前第２ビル,,27,127,5300001,,,,,,,2025-09-09,1,,,,,サイバーゲームズ,0
791,3120003030483,新規,0,2025-09-09,2025-09-09,合同会社いづる,,合同会社,大阪府,大阪市北区,曾根崎新地１丁目２－６新松リンデンビル２階,,27,127,5300002,,,,,,,2025-09-09,1,,,,,イヅル,0
792,3120003030517,新規,0,2025-09-09,2025-09-09,Ｅｎｌｉｎｋ合同会社,,合同会社,大阪府,大阪市生野区,田島５丁目１９番１８号,,27,116,5440011,,,,,,,2025-09-09,1,,,,,エンリンク,0
793,3120101072394,新規,0,2025-09-09,2025-09-09,株式会社ＡＳＫ,,株式会社,大阪府,堺市北区,北花田町１丁６９番地,,27,146,5918002,,,,,,,2025-09-09,1,,,,,エイエスケイ,0
795,3120901051465,新規,0,2025-09-09,2025-09-09,ベストライフホールディングス株式会社,,株式会社,大阪府,豊中市,庄本町３丁目１１番４号,,27,203,5610835,,,,,,,2025-09-09,1,,,,,ベストライフホールディングス,0
796,3120903005840,新規,0,2025-09-09,2025-09-09,合同会社Ｎｅｘｔｅｒｒａ,,合同会社,大阪府,吹田市,山田東１丁目３０番１－２０８号,,27,205,5650821,,,,,,,2025-09-09,1,,,,,ネクステラ,0
797,3120903005849,新規,0,2025-09-09,2025-09-09,Ｐｌｕｓ　ＯＮＥ合同会社,,合同会社,大阪府,池田市,栄本町７番８－Ａ号,,27,204,5630058,,,,,,,2025-09-09,1,,,,,プラスワン,0
801,3130001080447,新規,0,2025-09-09,2025-09-09,株式会社Ｋａｐｉｌｉｎａ,,株式会社,京都府,京都市右京区,山ノ内大町１－１６,,26,108,6150097,,,,,,,2025-09-09,1,,,,,カピリナ,0
802,3130001080488,新規,0,2025-09-09,2025-09-09,株式会社はたらくことばラボ,,株式会社,京都府,京都市伏見区,京町１０丁目１１番地１,,26,109,6128083,,,,,,,2025-09-09,1,,,,,ハタラクコトバラボ,0
803,3130001080496,新規,0,2025-09-09,2025-09-09,株式会社ケイシンファーム,,株式会社,京都府,相楽郡南山城村,大字高尾小字三升９番地,,26,367,6191422,,,,,,,2025-09-09,1,,,,,ケイシンファーム,0
804,3130003010781,新規,0,2025-09-09,2025-09-09,ＱＵＲＮＥＯ合同会社,,合同会社,京都府,京都市伏見区,深草寺内町８４２ＰｒｅｍｉｅｒＭａｒｓｅｉ寺内町３０３,,26,109,6120033,,,,,,,2025-09-09,1,,,,,クルネオ,0
809,3140001139837,新規,0,2025-09-09,2025-09-09,株式会社Ｌｉｆｅ　ｉｓ　ｃｏｏｌ,,株式会社,兵庫県,三田市,下井沢１２５番地５,,28,219,6691315,,,,,,,2025-09-09,1,,,,,ライフイズクール,0
810,3140001139903,新規,0,2025-09-09,2025-09-09,セナト工業株式会社,,株式会社,兵庫県,宝塚市,亀井町８－５１－４,,28,214,6650047,,,,,,,2025-09-09,1,,,,,セナトコウギョウ,0
811,3140001139944,新規,0,2025-09-09,2025-09-09,泉工匠株式会社,,株式会社,兵庫県,尼崎市,神崎町２８番地６,,28,202,6610964,,,,,,,2025-09-09,1,,,,,イズミコウショウ,0
812,3140001139952,新規,0,2025-09-09,2025-09-09,株式会社ＴＲＡＤＥ　ＮＥＰＡ,,株式会社,兵庫県,三木市,別所町下石野１３７４番地の１,,28,215,6730453,,,,,,,2025-09-09,1,,,,,トレードネパ,0
814,3140003022537,新規,0,2025-09-09,2025-09-09,合同会社ＪＥＴ,,合同会社,兵庫県,神戸市兵庫区,駅南通４丁目４番１８－３０１号,,28,105,6520897,,,,,,,2025-09-09,1,,,,,ジェット,0
816,3150005009721,新規,0,2025-09-09,2025-09-09,一般社団法人結いグローバルアカデミー,,その他の設立登記法人,奈良県,奈良市,法蓮町６２５－４,,29,201,6308113,,,,,,,2025-09-09,1,,,,,ユイグローバルアカデミー,0
823,3170001018781,新規,0,2025-09-09,2025-09-09,ヴンダー株式会社,,株式会社,和歌山県,和歌山市,毛見２７番地１,,30,201,6410014,,,,,,,2025-09-09,1,,,,,ブンダー,0
829,3180001168592,新規,0,2025-09-09,2025-09-09,株式会社ＯＨＤＥＮ,,株式会社,愛知県,名古屋市西区,笠取町２丁目７６番地金城ビル１階Ｃ号室,,23,104,4510072,,,,,,,2025-09-09,1,,,,,オーデン,0
834,3180301040154,新規,0,2025-09-09,2025-09-09,ＭＤＩ株式会社,,株式会社,愛知県,豊橋市,大橋通２丁目１２４番地１,,23,201,4400076,,,,,,,2025-09-09,1,,,,,エムディーアイ,0
836,3190001032517,新規,0,2025-09-09,2025-09-09,株式会社桂いとう,,株式会社,三重県,鈴鹿市,平田新町２‐１１Ｔ２ビル１階,,24,207,5130845,,,,,,,2025-09-09,1,,,,,カツライトウ,0
842,3210003001954,新規,0,2025-09-09,2025-09-09,林合同会社,,合同会社,福井県,福井市,栗森２丁目１９１３番地,,18,201,9100137,,,,,,,2025-09-09,1,,,,,ハヤシ,0
849,3220003004114,新規,0,2025-09-09,2025-09-09,モバイルホッパーズ合同会社,,合同会社,石川県,金沢市,春日町３番３号ロイヤルシャトー夢香山９１３号室,,17,201,9200817,,,,,,,2025-09-09,1,,,,,モバイルホッパーズ,0
850,3230003002496,新規,0,2025-09-09,2025-09-09,ＡＳトレディング合同会社,,合同会社,富山県,射水市,西高木７４６番地２,,16,211,9390303,,,,,,,2025-09-09,1,,,,,エーエストレディング,0
854,3240001065486,新規,0,2025-09-09,2025-09-09,株式会社ロータスルート,,株式会社,広島県,広島市南区,東雲本町２丁目７番６号,,34,103,7340023,,,,,,,2025-09-09,1,,,,,ロータスルート,0
858,3290001111285,新規,0,2025-09-09,2025-09-09,ビジナラ株式会社,,株式会社,福岡県,福岡市東区,千早２丁目３６番２号,,40,131,8130044,,,,,,,2025-09-09,1,,,,,ビジナラ,0
861,3290003017340,新規,0,2025-09-09,2025-09-09,合同会社ジャスケー,,合同会社,福岡県,糟屋郡志免町,田富３丁目９－１１,,40,343,8112204,,,,,,,2025-09-09,1,,,,,ジャスケー,0
884,3350001019720,新規,0,2025-09-09,2025-09-09,株式会社Ｎａｉｌ　Ｖｉｌｌａｇｅ,,株式会社,宮崎県,宮崎市,大字本郷北方３２３５番地７,,45,201,8800925,,,,,,,2025-09-09,1,,,,,ネイルビレッジ,0
889,3370001053040,新規,0,2025-09-09,2025-09-09,株式会社ＡＨＭＡＤ　ＴＲＡＤＩＮＧ,,株式会社,宮城県,大崎市,田尻小塩字日影浦２番地,,04,215,9894305,,,,,,,2025-09-09,1,,,,,アハマドトレーディング,0
895,3410003004152,新規,0,2025-09-09,2025-09-09,合同会社Ｔｈｅｔａ　Ｐｒｏｄｕｃｔｉｏｎｓ,,合同会社,秋田県,秋田市,南通亀の町６番２８号,,05,201,0100011,,,,,,,2025-09-09,1,,,,,,0
898,3430003018068,新規,0,2025-09-09,2025-09-09,合同会社チカコム,,合同会社,北海道,札幌市東区,東雁来七条１丁目４番１号２Ｆ,,01,103,0070827,,,,,,,2025-09-09,1,,,,,,0
907,3700150132131,新規,0,2025-09-09,2025-09-09,ＣＡＲＳＯＮ　ＹＯＵＮＧ　ＧＯＬＦ　ＬＬＣ,,外国会社等,,,,,,,,１２１４　Ｍｏｏｒｅｈｅａｄ　Ｐｌ，Ｐｅｎｄｌｅｔｏｎ，ＳＣ　２９６７０,,,,,,2025-09-09,1,,,,,カーソンヤングゴルフエルエルシー,0
913,4010001258335,新規,0,2025-09-09,2025-09-09,ＷＥＬＩＫＥ株式会社,,株式会社,東京都,中央区,佃２丁目１番２－２３０９号イーストタワーズ２,,13,102,1040051,,,,,,,2025-09-09,1,,,,,ウィーライク,0
914,4010001258343,新規,0,2025-09-09,2025-09-09,株式会社キラフル,,株式会社,東京都,千代田区,神田神保町３丁目１７－３－３０２都ビル,,13,101,1010051,,,,,,,2025-09-09,1,,,,,キラフル,0
915,4010003048668,新規,0,2025-09-09,2025-09-09,ＥｄｇｅＣｏｎｎｅＸ　Ｊａｐａｎ７合同会社,,合同会社,東京都,千代田区,霞が関３丁目２番６号東京倶楽部ビルディング１１階,,13,101,1000013,,,,,,,2025-09-09,1,,,,,エッジコネックスジャパンセブン,0
916,4010003048692,新規,0,2025-09-09,2025-09-09,合同会社美利,,合同会社,東京都,中央区,日本橋人形町２丁目５番１号,,13,102,1030013,,,,,,,2025-09-09,1,,,,,ミヨシ,0
921,4010101016857,新規,0,2025-09-09,2025-09-09,かむなび株式会社,,株式会社,東京都,八王子市,北野台２丁目３５番９号,,13,201,1920913,,,,,,,2025-09-09,1,,,,,カムナビ,0
923,4010401192836,新規,0,2025-09-09,2025-09-09,Ｎｅｘｔｗａｖｅ　Ｍｅｄｉａ株式会社,,株式会社,東京都,港区,芝浦３丁目１７番１１号天翔田町ビル６階６０９号室,,13,103,1080023,,,,,,,2025-09-09,1,,,,,ネクストウェーブメディア,0
924,4010401192844,新規,0,2025-09-09,2025-09-09,株式会社フードパレット,,株式会社,東京都,港区,赤坂６丁目１０番４号,,13,103,1070052,,,,,,,2025-09-09,1,,,,,フードパレット,0
925,4010401192869,新規,0,2025-09-09,2025-09-09,株式会社プロアクトコンサルタント,,株式会社,東京都,港区,六本木２丁目３番７号セントラルクリブ六本木ＩＩＩ棟１５０３号室,00140582,13,103,1060032,,,,,,,2025-09-09,1,,,,,プロアクトコンサルタント,0
927,4010405024671,新規,0,2025-09-09,2025-09-09,一般社団法人子どもたちに生きる力を,,その他の設立登記法人,東京都,港区,台場１丁目３番４号シーリアお台場三番街４号棟２０７号室,,13,103,1350091,,,,,,,2025-09-09,1,,,,,コドモタチニイキルチカラヲ,0
929,4010601067879,新規,0,2025-09-09,2025-09-09,株式会社ＩＲＯＤＯＲＩ,,株式会社,東京都,江東区,有明３丁目７番２６号有明フロンティアビルＢ棟９階,,13,108,1350063,,,,,,,2025-09-09,1,,,,,イロドリ,0
941,4010901058009,新規,0,2025-09-09,2025-09-09,株式会社１３ＳＴＵＤＩＯ,,株式会社,東京都,世田谷区,代田１丁目２２番１３号,,13,112,1550033,,,,,,,2025-09-09,1,,,,,イチサンスタジオ,0
942,4010901058017,新規,0,2025-09-09,2025-09-09,株式会社Ｓａｉｌ　Ｉｎｖｅｓｔｍｅｎｔ,,株式会社,東京都,世田谷区,弦巻１丁目４番２２号,,13,112,1540016,,,,,,,2025-09-09,1,,,,,セールインベストメント,0
943,4010903010248,新規,0,2025-09-09,2025-09-09,合同会社ルミナリアエンターテインメント,,合同会社,東京都,世田谷区,奥沢２丁目３７－７廬山マンション５０２号室,,13,112,1580083,,,,,,,2025-09-09,1,,,,,ルミナリアエンターテインメント,0
952,4011001171866,新規,0,2025-09-09,2025-09-09,倉富ファミリーオフィス事業承継２号株式会社,,株式会社,東京都,渋谷区,桜丘町２６番１号セルリアンタワー１５階,,13,113,1500031,,,,,,,2025-09-09,1,,,,,クラトミファミリーオフィスジギョウショウケイニゴウ,0
953,4011001171899,新規,0,2025-09-09,2025-09-09,迅速技術株式会社,,株式会社,東京都,渋谷区,神宮前１丁目２３番２８号,,13,113,1500001,,,,,,,2025-09-09,1,,,,,ジンソクギジュツ,0
954,4011003022332,新規,0,2025-09-09,2025-09-09,合同会社オフィスＴ＆Ｙ,,合同会社,東京都,目黒区,下目黒６丁目１２番２４－４１８号シティハウス下目黒,,13,110,1530064,,,,,,,2025-09-09,1,,,,,オフィスティーアンドワイ,0
955,4011005011184,新規,0,2025-09-09,2025-09-09,一般社団法人渋谷区ボクシング連盟,,その他の設立登記法人,東京都,渋谷区,神宮前６丁目３１番１５号マンション３１地下１Ｆ,,13,113,1500001,,,,,,,2025-09-09,1,,,,,シブヤクボクシングレンメイ,0
962,4011301030862,新規,0,2025-09-09,2025-09-09,株式会社新未来,,株式会社,東京都,杉並区,阿佐谷北１丁目３４番３号,,13,115,1660001,,,,,,,2025-09-09,1,,,,,シンミライ,0
965,4011401027395,新規,0,2025-09-09,2025-09-09,ティーエムホールディングス株式会社,,株式会社,東京都,板橋区,板橋１丁目３１番１１号大朋ハイツ１０２号,,13,119,1730004,,,,,,,2025-09-09,1,,,,,ティーエムホールディングス,0
968,4011603004829,新規,0,2025-09-09,2025-09-09,合同会社トコナッツ,,合同会社,東京都,練馬区,栄町４６番３号クローバーハウス桜台４０２,,13,120,1760006,,,,,,,2025-09-09,1,,,,,トコナッツ,0
974,4012401043556,新規,0,2025-09-09,2025-09-09,オールコネクト株式会社,,株式会社,東京都,調布市,東つつじケ丘３丁目２５番１５号,,13,208,1820005,,,,,,,2025-09-09,1,,,,,オールコネクト,0
975,4012401043564,新規,0,2025-09-09,2025-09-09,株式会社松葉茶屋,,株式会社,東京都,調布市,深大寺元町５丁目１１番地３,,13,208,1820017,,,,,,,2025-09-09,1,,,,,マツバチャヤ,0
976,4012401043580,新規,0,2025-09-09,2025-09-09,株式会社Ｓｍｏｋｅｎａｔｉｏｎ,,株式会社,東京都,三鷹市,井の頭３丁目１９－１０ルボア井の頭２０１,,13,204,1810001,,,,,,,2025-09-09,1,,,,,スモークネイション,0
981,4013301054858,新規,0,2025-09-09,2025-09-09,日沐株式会社,,株式会社,東京都,豊島区,池袋本町２丁目７番１号メゾン池袋４０８,,13,116,1700011,,,,,,,2025-09-09,1,,,,,ニチモク,0
982,4013301054882,新規,0,2025-09-09,2025-09-09,株式会社ウェイブホールディングス,,株式会社,東京都,豊島区,東池袋３丁目１番１号サンシャイン６０、１５階,,13,116,1700013,,,,,,,2025-09-09,1,,,,,ウェイブホールディングス,0
986,4020001164664,新規,0,2025-09-09,2025-09-09,株式会社Ｍａｉｋ’ｓ　Ｋｏｃｈｌｏｅｆｆｅｌ,,株式会社,神奈川県,横浜市青葉区,大場町３６０番地１０,,14,117,2250023,,,,,,,2025-09-09,1,,,,,マイクスコッホルッフェル,0
987,4020001164680,新規,0,2025-09-09,2025-09-09,株式会社ＳＵＭＩＫＡ,,株式会社,神奈川県,横浜市神奈川区,片倉２丁目１６番１７号,,14,102,2210865,,,,,,,2025-09-09,1,,,,,スミカ,0
988,4020001164714,新規,0,2025-09-09,2025-09-09,ケイデン株式会社,,株式会社,神奈川県,横浜市戸塚区,小雀町９６番地２,,14,110,2440004,,,,,,,2025-09-09,1,,,,,ケイデン,0
989,4020001164747,新規,0,2025-09-09,2025-09-09,株式会社ｆｕｋｕ．,,株式会社,神奈川県,横浜市都筑区,中川中央１丁目３５番１６号,,14,118,2240003,,,,,,,2025-09-09,1,,,,,フクドット,0
991,4020003029287,新規,0,2025-09-09,2025-09-09,合同会社ミノビア,,合同会社,神奈川県,横浜市西区,浅間町１丁目４番３号ウィザードビル４０２,,14,103,2200072,,,,,,,2025-09-09,1,,,,,ミノビア,0
992,4020003029320,新規,0,2025-09-09,2025-09-09,合同会社ＭＯＦ,,合同会社,神奈川県,横浜市西区,北幸２丁目１０番４８号むつみビル３階,,14,103,2200004,,,,,,,2025-09-09,1,,,,,エムオーエフ,0
993,4020003029329,新規,0,2025-09-09,2025-09-09,合同会社ジョー,,合同会社,神奈川県,横浜市南区,高根町４丁目２９－２－６０１,,14,105,2320022,,,,,,,2025-09-09,1,,,,,ジョー,0
994,4020003029337,新規,0,2025-09-09,2025-09-09,合同会社ハナダオフィス,,合同会社,神奈川県,横浜市神奈川区,白幡東町９番９号,,14,102,2210072,,,,,,,2025-09-09,1,,,,,ハナダオフィス,0
995,4020003029361,新規,0,2025-09-09,2025-09-09,ＭｏｒｐｈＴｅｃｈ合同会社,,合同会社,神奈川県,横浜市西区,浅間町１丁目４番３号　ウィザードビル４０２,,14,103,2200072,,,,,,,2025-09-09,1,,,,,モーフテック,0
1006,4030001168441,新規,0,2025-09-09,2025-09-09,ＧＬロジスティクス株式会社,,株式会社,埼玉県,北足立郡伊奈町,大字小針新宿４６９番地５１,,11,301,3620808,,,,,,,2025-09-09,1,,,,,ジーエルロジスティクス,0
1007,4030001168466,新規,0,2025-09-09,2025-09-09,株式会社ＳＰＯＯＮ,,株式会社,埼玉県,越谷市,大字平方１７９７番地３,,11,222,3430002,,,,,,,2025-09-09,1,,,,,スプーン,0
1008,4030001168474,新規,0,2025-09-09,2025-09-09,株式会社啓航,,株式会社,埼玉県,入間郡三芳町,大字藤久保５２６－１朝日センチュリーみずほ台Ｃ棟２０１号室,,11,324,3540041,,,,,,,2025-09-09,1,,,,,ケイコウ,0
1009,4030001168490,新規,0,2025-09-09,2025-09-09,株式会社Ｆｅｌｕｎｅ,,株式会社,埼玉県,川口市,青木４丁目２２番５０－１号,,11,203,3320031,,,,,,,2025-09-09,1,,,,,フェルネ,0
1010,4030001168499,新規,0,2025-09-09,2025-09-09,株式会社フェニックスセキュリティー,,株式会社,埼玉県,さいたま市浦和区,領家３丁目１１番６－１０２号,,11,107,3300072,,,,,,,2025-09-09,1,,,,,フェニックスセキュリティー,0
1011,4030001168540,新規,0,2025-09-09,2025-09-09,株式会社ＣＬＩＰ　ＰＲＯＪＥＣＴｓ,,株式会社,埼玉県,蓮田市,藤ノ木４丁目２２番地ＴＡＮＡＧ１０３号,,11,238,3490105,,,,,,,2025-09-09,1,,,,,クリッププロジェクト,0
1015,4030005022248,新規,0,2025-09-09,2025-09-09,一般社団法人日本ロボット協会,,その他の設立登記法人,埼玉県,鴻巣市,天神１丁目１０番６１号２０３室,,11,217,3650036,,,,,,,2025-09-09,1,,,,,ニホンロボットキョウカイ,0
1020,4040001140390,新規,0,2025-09-09,2025-09-09,クロスアイホールディングス株式会社,,株式会社,千葉県,千葉市稲毛区,穴川２丁目９番８号,,12,103,2630024,,,,,,,2025-09-09,1,,,,,クロスアイホールディングス,0
1021,4040001140416,新規,0,2025-09-09,2025-09-09,株式会社Ｋｉ　Ｇｒｏｗｔｈ,,株式会社,千葉県,習志野市,津田沼４丁目１０番５－１０１号,,12,216,2750016,,,,,,,2025-09-09,1,,,,,ケーアイグロース,0
1026,4040003028394,新規,0,2025-09-09,2025-09-09,ＡＵＲＯＣＯ合同会社,,合同会社,千葉県,千葉市中央区,富士見１丁目１４番１３号千葉大栄ビル８Ｆ８３１号室,,12,101,2600015,,,,,,,2025-09-09,1,,,,,オーロコ,0
1027,4040003028469,新規,0,2025-09-09,2025-09-09,ＳＮ合同会社,,合同会社,千葉県,千葉市若葉区,貝塚町２０３９―２１サンシティハイツつたえ３０５号,,12,104,2640023,,,,,,,2025-09-09,1,,,,,エスエヌ,0
1033,4050003009542,新規,0,2025-09-09,2025-09-09,合同会社まったりーまどか,,合同会社,茨城県,常陸太田市,折橋町１４４４番地の１,,08,212,3110506,,,,,,,2025-09-09,1,,,,,マッタリーマドカ,0
1034,4050003009550,新規,0,2025-09-09,2025-09-09,ＡＩＳ合同会社,,合同会社,茨城県,那珂市,菅谷５１２番地４,,08,226,3110105,,,,,,,2025-09-09,1,,,,,エーアイエス,0
1036,4060003005739,新規,0,2025-09-09,2025-09-09,ＭＵＤＡＳＳＡＲ　ＴＲＡＤＩＮＧ合同会社,,合同会社,栃木県,栃木市,岩舟町新里１３０３－２－２１号室,,09,203,3294316,,,,,,,2025-09-09,1,,,,,ムダサールトレーディング,0
1037,4070003006075,新規,0,2025-09-09,2025-09-09,合同会社Ｐｒｅｃｉｏｕｓ　ｂｅ　ｉｎ　Ｓｙｎｃ,,合同会社,群馬県,太田市,新田上中町３０２－１,,10,205,3700353,,,,,,,2025-09-09,1,,,,,,0
1041,4080101025777,新規,0,2025-09-09,2025-09-09,株式会社Ｆｕｎ　Ｒｉｓｅ,,株式会社,静岡県,駿東郡長泉町,南一色１４４番地メゾンラフィネ１０２号,,22,342,4110932,,,,,,,2025-09-09,1,,,,,ファンライズ,0
1042,4080105006534,新規,0,2025-09-09,2025-09-09,特定非営利活動法人りらいず,,その他の設立登記法人,静岡県,賀茂郡西伊豆町,安良里６４０番地,,22,306,4103502,,,,,,,2025-09-09,1,,,,,リライズ,0
1064,4120001279353,新規,0,2025-09-09,2025-09-09,ＡＩ智能国際会計師株式会社,,株式会社,大阪府,大阪市城東区,関目５丁目１９番９号関目花博公館３０１Ａ,,27,118,5360008,,,,,,,2025-09-09,1,,,,,エイアイチノウコクサイカイケイシ,0
1065,4120001279361,新規,0,2025-09-09,2025-09-09,株式会社ＬＩＢＥＬＬＥ,,株式会社,大阪府,大阪市都島区,東野田町２丁目９番２３号晃進ビル６階Ｃ,,27,102,5340024,,,,,,,2025-09-09,1,,,,,リベレ,0
1066,4120001279428,新規,0,2025-09-09,2025-09-09,株式会社ボンパピ,,株式会社,大阪府,大阪市阿倍野区,三明町２丁目７－１３水明ハウス１０２,,27,119,5450005,,,,,,,2025-09-09,1,,,,,ボンパピ,0
1067,4120001279452,新規,0,2025-09-09,2025-09-09,株式会社Ｍデザイン,,株式会社,大阪府,大阪市北区,豊崎３丁目１５番５号ＴＫビル２Ｆ,,27,127,5310072,,,,,,,2025-09-09,1,,,,,エムデザイン,0
1068,4120001279477,新規,0,2025-09-09,2025-09-09,株式会社ナビール,,株式会社,大阪府,大阪市都島区,片町１丁目１番３７号,,27,102,5340025,,,,,,,2025-09-09,1,,,,,ナビール,0
1069,4120001279683,新規,0,2025-09-09,2025-09-09,株式会社ＮＥＵＶＥ　ＮＩＮＥ,,株式会社,大阪府,大阪市浪速区,敷津西１丁目５番１３号グレースフルトキワ３０６号,,27,111,5560015,,,,,,,2025-09-09,1,,,,,ヌーヴナイン,0
1075,4120101072377,新規,0,2025-09-09,2025-09-09,三輝建設株式会社,,株式会社,大阪府,和泉市,室堂町７６９番地の７１,,27,219,5941101,,,,,,,2025-09-09,1,,,,,サンキケンセツ,0
1076,4120101072393,新規,0,2025-09-09,2025-09-09,株式会社ＤＬカレント,,株式会社,大阪府,堺市中区,陶器北２５１３番地,,27,142,5998242,,,,,,,2025-09-09,1,,,,,ディーエルカレント,0
1080,4120901051472,新規,0,2025-09-09,2025-09-09,石原インダストリー株式会社,,株式会社,大阪府,高槻市,真上町５丁目８番３号,,27,207,5691121,,,,,,,2025-09-09,1,,,,,イシハラインダストリー,0
1089,4130001080446,新規,0,2025-09-09,2025-09-09,株式会社スリーサークル,,株式会社,京都府,宇治市,広野町新成田１００番地の１３９,,26,204,6110031,,,,,,,2025-09-09,1,,,,,スリーサークル,0
1090,4130001080487,新規,0,2025-09-09,2025-09-09,京都ボイス株式会社,,株式会社,京都府,京都市中京区,六角通東洞院西入堂之前町２５４番地,,26,104,6048134,,,,,,,2025-09-09,1,,,,,キョウトボイス,0
1091,4130001080537,新規,0,2025-09-09,2025-09-09,Ｉｓａｏ＆Ｃｏ．株式会社,,株式会社,京都府,京都市北区,紫野上門前町７６番地,,26,101,6038217,,,,,,,2025-09-09,1,,,,,イサオアンドコーポレート,0
1099,4140001139943,新規,0,2025-09-09,2025-09-09,マサミツメディカル株式会社,,株式会社,兵庫県,宝塚市,野上３丁目５番４１号,,28,214,6650022,,,,,,,2025-09-09,1,,,,,マサミツメディカル,0
1115,4180001168501,新規,0,2025-09-09,2025-09-09,ベア＆カーフハウス株式会社,,株式会社,愛知県,名古屋市中区,栄１丁目２６番７号リアライズ栄ビルＴ１－３,,23,106,4600008,,,,,,,2025-09-09,1,,,,,ベアアンドカーフハウス,0
1116,4180001168534,新規,0,2025-09-09,2025-09-09,ブレイクスルー医療グループ株式会社,,株式会社,愛知県,名古屋市中村区,名駅４丁目２４番５号第２森ビル４０１,,23,105,4500002,,,,,,,2025-09-09,1,,,,,ブレイクスルーイリョウグループ,0
1117,4180001168550,新規,0,2025-09-09,2025-09-09,ＭＫＭ　ＴＲＡＤＩＮＧ株式会社,,株式会社,愛知県,東海市,富木島町伏見１丁目１１番地の１４,,23,222,4760012,,,,,,,2025-09-09,1,,,,,エムケーエムトレーディング,0
1118,4180001168591,新規,0,2025-09-09,2025-09-09,株式会社日本エナジー,,株式会社,愛知県,名古屋市中区,丸の内２丁目９番２４号,,23,106,4600002,,,,,,,2025-09-09,1,,,,,ニホンエナジー,0
1120,4190001032516,新規,0,2025-09-09,2025-09-09,至誠株式会社,,株式会社,三重県,鳥羽市,安楽島町３５２－４,,24,211,5170021,,,,,,,2025-09-09,1,,,,,シセイ,0
1127,4230001021076,新規,0,2025-09-09,2025-09-09,Ｈｉｎｏｄｅ　Ｔｒａｄｅ株式会社,,株式会社,富山県,富山市,東岩瀬町５番地１,,16,201,9318358,,,,,,,2025-09-09,1,,,,,ヒノデトレイド,0
1128,4230003002495,新規,0,2025-09-09,2025-09-09,合同会社ＩＴ保険,,合同会社,富山県,富山市,久郷６７番地,,16,201,9300865,,,,,,,2025-09-09,1,,,,,アイティーホケン,0
1131,4240001065477,新規,0,2025-09-09,2025-09-09,おきラボ株式会社,,株式会社,広島県,広島市西区,大宮２丁目５－７,,34,104,7330007,,,,,,,2025-09-09,1,,,,,オキラボ,0
1132,4240001065485,新規,0,2025-09-09,2025-09-09,Ｓｉｏｎ株式会社,,株式会社,広島県,廿日市市,宮島町６６７番地,,34,213,7390588,,,,,,,2025-09-09,1,,,,,シオン,0
1136,4260001040511,新規,0,2025-09-09,2025-09-09,カーサービスカネダ株式会社,,株式会社,岡山県,津山市,二宮２２６番地１,,33,203,7080013,,,,,,,2025-09-09,1,,,,,カーサービスカネダ,0
1137,4270001009282,新規,0,2025-09-09,2025-09-09,株式会社ＳＨＩＮＥＩ,,株式会社,鳥取県,鳥取市,叶１４５番地１１,,31,201,6800874,,,,,,,2025-09-09,1,,,,,シンエイ,0
1142,4290001111318,新規,0,2025-09-09,2025-09-09,株式会社Ｍ＆Ｃコーポレーション,,株式会社,福岡県,福岡市中央区,薬院３丁目８番１６号,,40,133,8100022,,,,,,,2025-09-09,1,,,,,エムアンドシーコーポレーション,0
1143,4290001111375,新規,0,2025-09-09,2025-09-09,株式会社ラグゼアド,,株式会社,福岡県,福岡市博多区,竹下５丁目２６番８－１０１号ベネフィスタウン竹下Ｉ,00140584,40,132,8120895,,,,,,,2025-09-09,1,,,,,ラグゼアド,0
1144,4300001014345,新規,0,2025-09-09,2025-09-09,株式会社シナモン,,株式会社,佐賀県,鳥栖市,宿町１２７０番地６,,41,203,8410052,,,,,,,2025-09-09,1,,,,,シナモン,0
1146,4310001019780,新規,0,2025-09-09,2025-09-09,株式会社Ｒｅ．ｌａｂ,,株式会社,長崎県,佐世保市,天神５丁目１０番３１号,,42,202,8571174,,,,,,,2025-09-09,1,,,,,リラボ,0
1149,4320001021323,新規,0,2025-09-09,2025-09-09,翔心株式会社,,株式会社,大分県,臼杵市,大字臼杵２の１０７番地の４９２,,44,206,8750041,,,,,,,2025-09-09,1,,,,,ショウシン,0
1153,4340001027624,新規,0,2025-09-09,2025-09-09,マルタケ株式会社,,株式会社,鹿児島県,出水市,高尾野町江内６２９５番地,,46,208,8990407,,,,,,,2025-09-09,1,,,,,マルタケ,0
1157,4340003004943,新規,0,2025-09-09,2025-09-09,合同会社縁結び,,合同会社,鹿児島県,薩摩郡さつま町,虎居町２番地５,,46,392,8951812,,,,,,,2025-09-09,1,,,,,エンムスビ,0
1159,4360001035740,新規,0,2025-09-09,2025-09-09,株式会社亀太,,株式会社,沖縄県,名護市,大中３丁目１番１９号,,47,209,9050017,,,,,,,2025-09-09,1,,,,,キタイ,0
1160,4360001035757,新規,0,2025-09-09,2025-09-09,ＫＵＫＵＲＵＹＡ株式会社,,株式会社,沖縄県,豊見城市,字豊崎３番地５９トヨプラ３０６号,,47,212,9010225,,,,,,,2025-09-09,1,,,,,ククルヤ,0
1161,4370005011002,新規,0,2025-09-09,2025-09-09,一般社団法人プロフィットメディカル仙台,,その他の設立登記法人,宮城県,仙台市泉区,泉中央３丁目３６番地の６ＳＨＤビル３Ｆ,,04,105,9813133,,,,,,,2025-09-09,1,,,,,プロフィットメディカルセンダイ,0
1164,4380003006127,新規,0,2025-09-09,2025-09-09,Ｅｌｔｕｒｅ合同会社,,合同会社,福島県,福島市,御山字沢田７番地の３２メゾン沢田ＩＩＡ２０２,00140585,07,201,9608252,,,,,,,2025-09-09,1,,,,,エルチュール,0
1169,4410003004151,新規,0,2025-09-09,2025-09-09,合同会社キャラバン,,合同会社,秋田県,由利本荘市,石脇字竜巻１２番地,,05,210,0150011,,,,,,,2025-09-09,1,,,,,キャラバン,0
1183,4700150132130,新規,0,2025-09-09,2025-09-09,４ＰＸ　ＥＸＰＲＥＳＳ　ＣＯ．，ＬＩＭＩＴＥＤ,,外国会社等,,,,,,,,１６７－１６９　Ｈｏｉ　Ｂｕｎ　Ｒｏａｄ，Ｋｗｕｎ　Ｔｏｎｇ，Ｋｏｗｌｏｏｎ　Ｈｏｎｇ　Ｋｏｎｇ,,,,,,2025-09-09,1,,,,,フオーピーエツクスエクスプレスシーオーリミテツド,0
1193,5010001258193,新規,0,2025-09-09,2025-09-09,ＯｎｅＩｓｓｕｅ株式会社,,株式会社,東京都,千代田区,神田須田町１丁目７番８号ＶＯＲＴ秋葉原ＩＶ２Ｆ,00140578,13,101,1010041,,,,,,,2025-09-09,1,,,,,ワンイシュー,0
1194,5010001258235,新規,0,2025-09-09,2025-09-09,ＮＦＡ株式会社,,株式会社,東京都,千代田区,外神田２丁目８－４－４０３,,13,101,1010021,,,,,,,2025-09-09,1,,,,,エヌエフエー,0
1195,5010001258292,新規,0,2025-09-09,2025-09-09,バイオミビューティー株式会社,,株式会社,東京都,千代田区,内神田１丁目５番１６号,,13,101,1010047,,,,,,,2025-09-09,1,,,,,バイオミビューティー,0
1196,5010001258318,新規,0,2025-09-09,2025-09-09,ＷＡＫＯ株式会社,,株式会社,東京都,中央区,日本橋小舟町９番１０号,,13,102,1030024,,,,,,,2025-09-09,1,,,,,ワコウ,0
1197,5010001258375,新規,0,2025-09-09,2025-09-09,株式会社Ｍｏｓｏｏｋ　Ｓａｕｄｉ　Ｊａｐａｎ　Ｂｕｓｉｎｅｓｓ　Ｃｅｎｔｒｅ,,株式会社,東京都,千代田区,霞が関３丁目２－５霞が関ビルディング３１階ＯｎｅＡｓｉａ法律事務所内,,13,101,1000013,,,,,,,2025-09-09,1,,,,,モスークサウジジャパンビジネスセンター,0
1202,5010003048576,新規,0,2025-09-09,2025-09-09,合同会社ベクターポイント,,合同会社,東京都,中央区,銀座１丁目１２番４号Ｎ＆ＥＢＬＤ,,13,102,1040061,,,,,,,2025-09-09,1,,,,,ベクターポイント,0
1203,5010003048667,新規,0,2025-09-09,2025-09-09,ＥｄｇｅＣｏｎｎｅＸ　Ｊａｐａｎ８合同会社,,合同会社,東京都,千代田区,霞が関３丁目２番６号東京倶楽部ビルディング１１階,,13,101,1000013,,,,,,,2025-09-09,1,,,,,エッジコネックスジャパンエイト,0
1209,5010005040647,新規,0,2025-09-09,2025-09-09,一般社団法人日蒙共創ソーラー水素フロンティア推進協議会定款,,その他の設立登記法人,東京都,中央区,日本橋兜町１３番１号,,13,102,1030026,,,,,,,2025-09-09,1,,,,,ニチモウキョウソウソーラースイソフロンティアスイシンキョウギカイ,0
1210,5010401192876,新規,0,2025-09-09,2025-09-09,株式会社オフィス・マル,,株式会社,東京都,港区,白金２丁目５番２０‐２２０１号,,13,103,1080072,,,,,,,2025-09-09,1,,,,,オフィスマル,0
1211,5010401192918,新規,0,2025-09-09,2025-09-09,株式会社ハイク,,株式会社,東京都,港区,海岸１丁目１番１号,,13,103,1050022,,,,,,,2025-09-09,1,,,,,ハイク,0
1212,5010401192959,新規,0,2025-09-09,2025-09-09,株式会社グリットワイズ,,株式会社,東京都,港区,六本木６丁目１０番１号六本木ヒルズ森タワー,,13,103,1060032,,,,,,,2025-09-09,1,,,,,グリットワイズ,0
1215,5010403035967,新規,0,2025-09-09,2025-09-09,合同会社ＭＳＣＴＹ,,合同会社,東京都,港区,虎ノ門１丁目１７番１号虎ノ門ヒルズビジネスタワー１５階,,13,103,1050001,,,,,,,2025-09-09,1,,,,,エムエスシーティーワイ,0
1216,5010403035991,新規,0,2025-09-09,2025-09-09,Ｗｏｏｄ　Ｒｉｖｅｒ開発３号合同会社,,合同会社,東京都,港区,新橋５丁目１３番５号,,13,103,1050004,,,,,,,2025-09-09,1,,,,,ウッドリバーカイハツサンゴウ,0
1219,5010501054679,新規,0,2025-09-09,2025-09-09,株式会社ＴＯＰ,,株式会社,東京都,台東区,東上野６丁目４番２－７０１号,,13,106,1100015,,,,,,,2025-09-09,1,,,,,トップ,0
1220,5010503007981,新規,0,2025-09-09,2025-09-09,嘉本合同会社,,合同会社,東京都,台東区,松が谷４丁目２８－７,,13,106,1110036,,,,,,,2025-09-09,1,,,,,,0
1226,5010601067928,新規,0,2025-09-09,2025-09-09,株式会社ＴｉｅｒＯｎｅ,,株式会社,東京都,墨田区,石原２丁目２３番８号,,13,107,1300011,,,,,,,2025-09-09,1,,,,,ティアワン,0
1228,5010603011776,新規,0,2025-09-09,2025-09-09,ＮＫ　ＶＯＮＸＤ合同会社,,合同会社,東京都,江東区,大島５丁目３２－１２ナイスアーバンステイツ大島２０３,,13,108,1360072,,,,,,,2025-09-09,1,,,,,エヌケーボンド,0
1229,5010701048266,新規,0,2025-09-09,2025-09-09,悠河コーポレーション株式会社,,株式会社,東京都,品川区,旗の台６丁目５番４２号,,13,109,1420064,,,,,,,2025-09-09,1,,,,,ユウガコーポレーション,0
1232,5010901058016,新規,0,2025-09-09,2025-09-09,株式会社ＫＯ‐ＥＮ,,株式会社,東京都,世田谷区,太子堂４丁目１８番１５号マガザン三軒茶屋２－３Ｆ－３,,13,112,1540004,,,,,,,2025-09-09,1,,,,,コーエン,0
1233,5010901058032,新規,0,2025-09-09,2025-09-09,株式会社池住電気工業,,株式会社,東京都,世田谷区,砧８丁目１２番１４号,,13,112,1570073,,,,,,,2025-09-09,1,,,,,イケズミデンキコウギョウ,0
1234,5010901058040,新規,0,2025-09-09,2025-09-09,メディオンパートナーズ株式会社,,株式会社,東京都,世田谷区,代田４丁目３２番７号,,13,112,1550033,,,,,,,2025-09-09,1,,,,,メディオンパートナーズ,0
1235,5010903010222,新規,0,2025-09-09,2025-09-09,合同会社ＬＩＡ,,合同会社,東京都,世田谷区,中町２丁目１８番１８ー３０１号,,13,112,1580091,,,,,,,2025-09-09,1,,,,,ライア,0
1236,5010903010247,新規,0,2025-09-09,2025-09-09,豪徳寺ホールディングス合同会社,,合同会社,東京都,世田谷区,豪徳寺１丁目５０番１７号,,13,112,1540021,,,,,,,2025-09-09,1,,,,,ゴウトクジホールディングス,0
1237,5010903010255,新規,0,2025-09-09,2025-09-09,合同会社ｐａｔｔｅ　ｄｅ　ｃｈａｔ,,合同会社,東京都,世田谷区,三宿２丁目１６番１２号,,13,112,1540005,,,,,,,2025-09-09,1,,,,,パットドゥシャ,0
1242,5011001171824,新規,0,2025-09-09,2025-09-09,株式会社ＹＵＣＡＲＥ,,株式会社,東京都,渋谷区,代々木４丁目３１番４号キャッスル新宿１１０２,,13,113,1510053,,,,,,,2025-09-09,1,,,,,ユーケア,0
1243,5011001171849,新規,0,2025-09-09,2025-09-09,株式会社ＭＭＮ,,株式会社,東京都,渋谷区,神宮前２丁目２番３９号８２４号室,,13,113,1500001,,,,,,,2025-09-09,1,,,,,エマエムエヌ,0
1244,5011001171857,新規,0,2025-09-09,2025-09-09,ＮＵＶＯＬＡ株式会社,,株式会社,東京都,渋谷区,広尾５丁目７番１－８０６号,,13,113,1500012,,,,,,,2025-09-09,1,,,,,ヌーボラ,0
1245,5011001171865,新規,0,2025-09-09,2025-09-09,株式会社ＣＲＥＡ,,株式会社,東京都,目黒区,八雲２丁目８番９－２０８号アパートメンツ都立大学,,13,110,1520023,,,,,,,2025-09-09,1,,,,,クレア,0
1246,5011001171881,新規,0,2025-09-09,2025-09-09,ａｎｄＹＯＵ出版株式会社,,株式会社,東京都,渋谷区,神宮前６丁目１９－１５高野第一ビル５階Ｂ区画,,13,113,1500001,,,,,,,2025-09-09,1,,,,,アンドユーシュッパン,0
1247,5011001172260,新規,0,2025-09-09,2025-09-09,ミークモバイル株式会社,,株式会社,東京都,渋谷区,渋谷３丁目１０番１３号,,13,113,1500002,,,,,,,2025-09-09,1,,,,,ミークモバイル,0
1248,5011001172327,新規,0,2025-09-09,2025-09-09,株式会社Ｈｅｒ　Ｖｏｙａｇｅｒ,,株式会社,東京都,渋谷区,道玄坂１丁目１０番８号渋谷道玄坂東急ビル２Ｆ－Ｃ,,13,113,1500043,,,,,,,2025-09-09,1,,,,,ハーヴォイジャー,0
1249,5011001172384,新規,0,2025-09-09,2025-09-09,株式会社ＳＡＩＢＡＩ,,株式会社,東京都,渋谷区,神南１丁目１１－４ＦＰＧリンクス神南５階,,13,113,1500041,,,,,,,2025-09-09,1,,,,,サイバイ,0
1250,5011003022496,新規,0,2025-09-09,2025-09-09,合同会社ｇＫｎｏｗｓｉｓ,,合同会社,東京都,渋谷区,東２丁目２７－１４ペガサスマンション恵比寿２１０号室,,13,113,1500011,,,,,,,2025-09-09,1,,,,,ノウシス,0
1251,5011003022513,新規,0,2025-09-09,2025-09-09,合同会社Ｓｏｕｎｄｓ　Ｌｉｇｈｔｓ,,合同会社,東京都,渋谷区,神宮前６丁目２３番４号桑野ビル２階,,13,113,1500001,,,,,,,2025-09-09,1,,,,,サウンズライツ,0
1254,5011101112843,新規,0,2025-09-09,2025-09-09,株式会社ＮＥＯＭ,,株式会社,東京都,新宿区,西新宿３丁目３番１３号西新宿水間ビル６階,,13,104,1600023,,,,,,,2025-09-09,1,,,,,ネオム,0
1256,5011201026621,新規,0,2025-09-09,2025-09-09,株式会社アンリン,,株式会社,東京都,中野区,新井１丁目１番５号,,13,114,1650026,,,,,,,2025-09-09,1,,,,,アンリン,0
1257,5011203004815,新規,0,2025-09-09,2025-09-09,ＨＡＮＡ合同会社,,合同会社,東京都,中野区,野方３丁目１３番地１６号カーサビナーリオ３０１,,13,114,1650027,,,,,,,2025-09-09,1,,,,,ハナ,0
1264,5011501032526,新規,0,2025-09-09,2025-09-09,株式会社２４ＣＯＬＯＲ,,株式会社,東京都,荒川区,西日暮里５丁目１５番１３号三共サンプラザ４階Ｂ区画,,13,118,1160013,,,,,,,2025-09-09,1,,,,,トゥエンティフォーカラー,0
1269,5011801046713,新規,0,2025-09-09,2025-09-09,株式会社ＴＣ,,株式会社,東京都,足立区,鹿浜２丁目２３番９号,,13,121,1230864,,,,,,,2025-09-09,1,,,,,ティーシー,0
1275,5012801024246,新規,0,2025-09-09,2025-09-09,株式会社オザキ＆パートナーズ,,株式会社,東京都,昭島市,松原町２丁目８番１０号,,13,207,1960003,,,,,,,2025-09-09,1,,,,,オザキアンドパートナーズ,0
1278,5013301054865,新規,0,2025-09-09,2025-09-09,株式会社丈翔,,株式会社,東京都,豊島区,長崎１丁目２６番１１号,,13,116,1710051,,,,,,,2025-09-09,1,,,,,ジョーショウ,0
1291,5020001164630,新規,0,2025-09-09,2025-09-09,株式会社阿部ホールディングス,,株式会社,神奈川県,横浜市鶴見区,北寺尾７丁目１２番１０号,,14,101,2300074,,,,,,,2025-09-09,1,,,,,アベホールディングス,0
1292,5020001164647,新規,0,2025-09-09,2025-09-09,株式会社ＬＳＣ,,株式会社,神奈川県,横浜市中区,伊勢佐木町５丁目１２６番地シャンボール伊勢佐木７０９号室,,14,104,2310045,,,,,,,2025-09-09,1,,,,,エルエスシー,0
1293,5020001164713,新規,0,2025-09-09,2025-09-09,株式会社ＡｓｔａｒＷｏｒｋｓ,,株式会社,神奈川県,横浜市神奈川区,金港町５－１４クアドリフォリオ８階,,14,102,2210056,,,,,,,2025-09-09,1,,,,,アスターワークス,0
1294,5020001164738,新規,0,2025-09-09,2025-09-09,株式会社美将建設,,株式会社,神奈川県,横浜市西区,浅間町１丁目４番地３ウィザードビル４０２号,,14,103,2200072,,,,,,,2025-09-09,1,,,,,ビショウケンセツ,0
1295,5020001164746,新規,0,2025-09-09,2025-09-09,トラストリンク株式会社,,株式会社,神奈川県,川崎市多摩区,西生田５丁目３番１０号,,14,135,2140037,,,,,,,2025-09-09,1,,,,,トラストリンク,0
1300,5020003029311,新規,0,2025-09-09,2025-09-09,ヤマコープランニング合同会社,,合同会社,神奈川県,川崎市川崎区,大島１丁目１２－１３,,14,131,2100834,,,,,,,2025-09-09,1,,,,,ヤマコープランニング,0
1313,5030001168440,新規,0,2025-09-09,2025-09-09,氷川のつどい株式会社,,株式会社,埼玉県,さいたま市大宮区,大門町３丁目２０５番地,,11,103,3300846,,,,,,,2025-09-09,1,,,,,ヒカワノツドイ,0
1314,5030001168473,新規,0,2025-09-09,2025-09-09,株式会社ＶＡＮＴ,,株式会社,埼玉県,越谷市,レイクタウン７丁目３番地４１,,11,222,3430828,,,,,,,2025-09-09,1,,,,,ヴァント,0
1315,5030001168515,新規,0,2025-09-09,2025-09-09,Ｍｉｒａｉ　Ｃｏｐｏ株式会社,,株式会社,埼玉県,春日部市,大場１１８２番地１平成建設春日部ビル２０９号室,,11,214,3440021,,,,,,,2025-09-09,1,,,,,ミライコーポー,0
1316,5030001168548,新規,0,2025-09-09,2025-09-09,株式会社ケイアイスペース,,株式会社,埼玉県,富士見市,羽沢１丁目２４番３０号,,11,235,3540033,,,,,,,2025-09-09,1,,,,,ケイアイスペース,0
1317,5030001168589,新規,0,2025-09-09,2025-09-09,ＴＫＳ株式会社,,株式会社,埼玉県,川口市,前川３丁目３２番２０号,,11,203,3330842,,,,,,,2025-09-09,1,,,,,ティーケーエス,0
1321,5030003027537,新規,0,2025-09-09,2025-09-09,シャペロンアイ合同会社,,合同会社,埼玉県,さいたま市大宮区,桜木町１丁目１９５番地１大宮ソラミチＫＯＺ４階,,11,103,3300854,,,,,,,2025-09-09,1,,,,,シャペロンアイ,0
1322,5030003027545,新規,0,2025-09-09,2025-09-09,Ｌｕｍｉｏ合同会社,,合同会社,埼玉県,富士見市,渡戸３丁目７番５号,,11,235,3540032,,,,,,,2025-09-09,1,,,,,ルミオ,0
1323,5030003027553,新規,0,2025-09-09,2025-09-09,合同会社岩槻インベストメント,,合同会社,埼玉県,さいたま市岩槻区,本町５丁目６番５０号,,11,110,3390057,,,,,,,2025-09-09,1,,,,,イワツキインベストメント,0
1329,5040003028476,新規,0,2025-09-09,2025-09-09,合同会社ドムリス,,合同会社,千葉県,市川市,下貝塚２丁目９番５号,,12,203,2720821,,,,,,,2025-09-09,1,,,,,ドムリス,0
1330,5040003028484,新規,0,2025-09-09,2025-09-09,合同会社ＬＣＬＭ,,合同会社,千葉県,柏市,逆井８２７－４メゾン・デ・シャルム逆井２０６号室,,12,217,2770042,,,,,,,2025-09-09,1,,,,,ルクルム,0
1334,5040005022865,新規,0,2025-09-09,2025-09-09,一般社団法人ＥＣＭＡ,,その他の設立登記法人,千葉県,千葉市美浜区,中瀬２丁目６番地１ワールドビジネスガーデンマリブウエスト２０階,,12,106,2610023,,,,,,,2025-09-09,1,,,,,イーシーエムエー,0
1346,5080101025776,新規,0,2025-09-09,2025-09-09,やどり設計株式会社,,株式会社,静岡県,駿東郡長泉町,下土狩１２１２番地の７,,22,342,4110943,,,,,,,2025-09-09,1,,,,,ヤドリセッケイ,0
1350,5080403005344,新規,0,2025-09-09,2025-09-09,合同会社ＣＳ　Ｄｅｒａｚｕｍ,,合同会社,静岡県,磐田市,請負新田７６番地２,,22,211,4380223,,,,,,,2025-09-09,1,,,,,シーエスデラズム,0
1354,5100001038933,新規,0,2025-09-09,2025-09-09,株式会社ＭＫトレーディング,,株式会社,長野県,上田市,塩川２７００番地３１,,20,203,3860401,,,,,,,2025-09-09,1,,,,,エムケートレーディング,0
1355,5100003008372,新規,0,2025-09-09,2025-09-09,合同会社Ｊｏｕｒｎｅｅｄｓ,,合同会社,長野県,松本市,大字里山辺４７１２番地８,,20,202,3900221,,,,,,,2025-09-09,1,,,,,ジャーニーズ,0
1368,5120001279360,新規,0,2025-09-09,2025-09-09,株式会社ＪＰＲＯＵＤ,,株式会社,大阪府,大阪市天王寺区,上汐６丁目３番２４号,,27,109,5430002,,,,,,,2025-09-09,1,,,,,ジェイプラウド,0
1369,5120001279402,新規,0,2025-09-09,2025-09-09,株式会社麦島製作所,,株式会社,大阪府,門真市,島頭４丁目１番６号,,27,223,5710016,,,,,,,2025-09-09,1,,,,,ムギシマセイサクショ,0
1370,5120001279410,新規,0,2025-09-09,2025-09-09,株式会社文建,,株式会社,大阪府,大阪市中央区,十二軒町７番１５－１００１号,,27,128,5400015,,,,,,,2025-09-09,1,,,,,ブンケン,0
1371,5120001279419,新規,0,2025-09-09,2025-09-09,株式会社Ａｌｒｉｓｅ　Ｐａｒｔｎｅｒｓ,,株式会社,大阪府,大阪市中央区,南船場３丁目２番２２号おおきに南船場ビル２０５,,27,128,5420081,,,,,,,2025-09-09,1,,,,,アライズパートナーズ,0
1376,5120003030498,新規,0,2025-09-09,2025-09-09,ツーリストサービスジャパン合同会社,,合同会社,大阪府,守口市,八雲中町２丁目７番３３号,,27,209,5700005,,,,,,,2025-09-09,1,,,,,ツーリストサービスジャパン,0
1377,5120101072376,新規,0,2025-09-09,2025-09-09,株式会社おくのいえ,,株式会社,大阪府,堺市西区,鳳北町２丁８０番地２,,27,144,5938328,,,,,,,2025-09-09,1,,,,,オクノイエ,0
1378,5120101072392,新規,0,2025-09-09,2025-09-09,株式会社ＷＤＳ,,株式会社,大阪府,堺市堺区,南島町２丁１１９番地１２,,27,141,5900904,,,,,,,2025-09-09,1,,,,,ダブリューディーエス,0
1379,5120103006687,新規,0,2025-09-09,2025-09-09,合同会社ＹＭＳ,,合同会社,大阪府,大阪狭山市,大野台４丁目３番１３号,,27,231,5890023,,,,,,,2025-09-09,1,,,,,ワイエムエス,0
1380,5120901051447,新規,0,2025-09-09,2025-09-09,株式会社つなぐカンパニー,,株式会社,大阪府,豊中市,中桜塚１丁目９番３号,,27,203,5610881,,,,,,,2025-09-09,1,,,,,ツナグカンパニー,0
1381,5120901051471,新規,0,2025-09-09,2025-09-09,コンサルターレ望月株式会社,,株式会社,大阪府,豊中市,新千里東町２丁目６番１８－９０４号,,27,203,5600082,,,,,,,2025-09-09,1,,,,,コンサルターレモチヅキ,0
1382,5122001039612,新規,0,2025-09-09,2025-09-09,エイペックスパートナーズ株式会社,,株式会社,大阪府,東大阪市,足代新町１７番１０号,,27,227,5770057,,,,,,,2025-09-09,1,,,,,エイペックスパートナーズ,0
1387,5130001080461,新規,0,2025-09-09,2025-09-09,利利株式会社,,株式会社,京都府,京都市左京区,岡崎徳成町２８番地２６,,26,103,6068351,,,,,,,2025-09-09,1,,,,,リリ,0
1388,5130001080478,新規,0,2025-09-09,2025-09-09,株式会社マルヤマテック,,株式会社,京都府,福知山市,字池部４４番地の２,,26,201,6200013,,,,,,,2025-09-09,1,,,,,マルヤマテック,0
1389,5130001080486,新規,0,2025-09-09,2025-09-09,株式会社ＬＡＳＨＩＫ,,株式会社,京都府,京都市北区,上賀茂松本町３８番地ＫＩＴＡＹＡＭＡＬＡＮＤＡＲＴ２階,,26,101,6038052,,,,,,,2025-09-09,1,,,,,ラシク,0
1390,5130001080494,新規,0,2025-09-09,2025-09-09,株式会社高畠商店,,株式会社,京都府,京都市伏見区,深草稲荷中之町４６番地３,,26,109,6120807,,,,,,,2025-09-09,1,,,,,タカハタショウテン,0
1395,5140001139950,新規,0,2025-09-09,2025-09-09,株式会社アイビスオーク,,株式会社,兵庫県,神戸市中央区,大日通２丁目４番５号,,28,110,6510064,,,,,,,2025-09-09,1,,,,,アイビスオーク,0
1397,5140003022551,新規,0,2025-09-09,2025-09-09,合同会社ウェルジグ,,合同会社,兵庫県,西宮市,北昭和町１４番２１号,,28,204,6620833,,,,,,,2025-09-09,1,,,,,ウェルジグ,0
1399,5160003003599,新規,0,2025-09-09,2025-09-09,合同会社ＦＡＢＬＥ,,合同会社,滋賀県,大津市,春日町１番５－１３１４号,,25,201,5200055,,,,,,,2025-09-09,1,,,,,フェーブル,0
1400,5170003002294,新規,0,2025-09-09,2025-09-09,ワイエスシステム合名会社,,合名会社,和歌山県,和歌山市,松島２４５番地,,30,201,6408304,,,,,,,2025-09-09,1,,,,,ワイエスシステム,0
1409,5180003028990,新規,0,2025-09-09,2025-09-09,明智大型蓄電事業合同会社,,合同会社,愛知県,愛西市,本部田町狭場３２番地,,23,232,4960915,,,,,,,2025-09-09,1,,,,,アケチオオガタチクデンジギョウ,0
1411,5180301040185,新規,0,2025-09-09,2025-09-09,株式会社Ｒｅ．ｆｒａｉｎ,,株式会社,愛知県,豊橋市,松葉町２丁目６０番地,,23,201,4400897,,,,,,,2025-09-09,1,,,,,リフレイン,0
1412,5190001032515,新規,0,2025-09-09,2025-09-09,株式会社ＹＯＳＥＬＹＮコーポレーション,,株式会社,三重県,四日市市,堀木１丁目２番６－３０４号サニータウン堀木,,24,202,5100076,,,,,,,2025-09-09,1,,,,,ヨセリンコーポレーション,0
1417,5200001044203,新規,0,2025-09-09,2025-09-09,株式会社Ｋ．Ｎ．Ｇ．,,株式会社,岐阜県,安八郡神戸町,大字北一色９０３番地の２８,,21,381,5032306,,,,,,,2025-09-09,1,,,,,ケイエヌジー,0
1423,5230001021075,新規,0,2025-09-09,2025-09-09,株式会社エクレル,,株式会社,富山県,富山市,下赤江町２丁目５番２５号,,16,201,9300813,,,,,,,2025-09-09,1,,,,,エクレル,0
1425,5240001065484,新規,0,2025-09-09,2025-09-09,株式会社仕組工場,,株式会社,広島県,福山市,川口町５丁目６－２４,,34,207,7200822,,,,,,,2025-09-09,1,,,,,シクミコウジョウ,0
1429,5260001040527,新規,0,2025-09-09,2025-09-09,みんなのおうち株式会社,,株式会社,岡山県,岡山市北区,鹿田町２丁目２番７号１階,,33,101,7000914,,,,,,,2025-09-09,1,,,,,ミンナノオウチ,0
1431,5270005005657,新規,0,2025-09-09,2025-09-09,医療法人スマイル歯科・矯正歯科クリニック,,その他の設立登記法人,鳥取県,鳥取市,吉成南町１丁目７番地,,31,201,6800871,,,,,,,2025-09-09,1,,,,,スマイルシカキョウセイシカクリニック,0
1436,5290001111325,新規,0,2025-09-09,2025-09-09,ＦＵＪＩＹＡ　ＴＲＡＤＩＮＧ株式会社,,株式会社,福岡県,福岡市西区,今宿東１丁目６番１号,,40,135,8190161,,,,,,,2025-09-09,1,,,,,フジヤトレーディング,0
1437,5290001111408,新規,0,2025-09-09,2025-09-09,池田電気株式会社,,株式会社,福岡県,古賀市,米多比１５６２番地２４,,40,223,8113123,,,,,,,2025-09-09,1,,,,,イケダデンキ,0
1439,5290003017347,新規,0,2025-09-09,2025-09-09,合同会社ＫＣＬ,,合同会社,福岡県,福岡市博多区,博多駅前１丁目２３番２号ＰａｒｋＦｒｏｎｔ博多駅前一丁目５Ｆ－Ｂ,,40,132,8120011,,,,,,,2025-09-09,1,,,,,ケーシーエル,0
1440,5290003017413,新規,0,2025-09-09,2025-09-09,島景合同会社,,合同会社,福岡県,福岡市中央区,白金１丁目１７－１８－５０３号,,40,133,8100012,,,,,,,2025-09-09,1,,,,,トウケイ,0
1451,5340005009907,新規,0,2025-09-09,2025-09-09,医療法人いろは会,,その他の設立登記法人,鹿児島県,鹿児島市,緑ヶ丘町５番３号,,46,201,8911274,,,,,,,2025-09-09,1,,,,,イロハカイ,0
1455,5360001035756,新規,0,2025-09-09,2025-09-09,株式会社ＣＢＳジャパン,,株式会社,沖縄県,豊見城市,字豊見城６７番地,,47,212,9010241,,,,,,,2025-09-09,1,,,,,シービーエスジャパン,0
1457,5370005011001,新規,0,2025-09-09,2025-09-09,特定非営利活動法人しちがはま国際交流協会,,その他の設立登記法人,宮城県,宮城郡七ヶ浜町,花渕浜字舘下１４９番地,,04,404,9850803,,,,,,,2025-09-09,1,,,,,シチガハマコクサイコウリュウキョウカイ,0
1458,5380001035548,新規,0,2025-09-09,2025-09-09,アミートランスポート株式会社,,株式会社,福島県,郡山市,安積４丁目９５番地１,,07,203,9630107,,,,,,,2025-09-09,1,,,,,アミートランスポート,0
1465,5430003018058,新規,0,2025-09-09,2025-09-09,合同会社ＵＭＰ,,合同会社,北海道,札幌市西区,発寒六条９丁目１１番１０号ロイヤルハイツゆう２０１号,,01,107,0630826,,,,,,,2025-09-09,1,,,,,ユウエムピィ,0
1466,5440003001707,新規,0,2025-09-09,2025-09-09,合同会社ライラック,,合同会社,北海道,函館市,本町３２番８号,,01,202,0400011,,,,,,,2025-09-09,1,,,,,ライラック,0
1476,5500003003589,新規,0,2025-09-09,2025-09-09,合同会社ＴＹコンサルタント,,合同会社,愛媛県,松山市,久万ノ台５０３番地９,,38,201,7918016,,,,,,,2025-09-09,1,,,,,ティーワイコンサルタント,0
1481,6010001258341,新規,0,2025-09-09,2025-09-09,株式会社たいのいかこ,,株式会社,東京都,中央区,銀座３丁目１１番１９－１５０６号,,13,102,1040061,,,,,,,2025-09-09,1,,,,,タイノイカコ,0
1482,6010001258424,新規,0,2025-09-09,2025-09-09,株式会社ライズリスタート,,株式会社,東京都,中央区,日本橋箱崎町１番２号ＴＨＥＳＨＯＲＥ日本橋茅場町２Ｆ,,13,102,1030015,,,,,,,2025-09-09,1,,,,,ライズリスタート,0
1485,6010003048600,新規,0,2025-09-09,2025-09-09,ＡＭＰ１６合同会社,,合同会社,東京都,千代田区,内神田１丁目３番７号４０１あすな会計事務所内,,13,101,1010047,,,,,,,2025-09-09,1,,,,,アンプシックスティーン,0
1487,6010101016855,新規,0,2025-09-09,2025-09-09,株式会社テルシーナ,,株式会社,東京都,八王子市,川町１２８－４２,,13,201,1930821,,,,,,,2025-09-09,1,,,,,テルシーナ,0
1489,6010103002647,新規,0,2025-09-09,2025-09-09,ＩＰＰＯＮｋａ合同会社,,合同会社,東京都,八王子市,横川町１０８番地８－６０５,,13,201,1930823,,,,,,,2025-09-09,1,,,,,イッポンカ,0
1490,6010401192909,新規,0,2025-09-09,2025-09-09,株式会社マネーフォワードファウンダーズ,,株式会社,東京都,港区,赤坂９丁目７番２号ミッドタウン・イースト４階,,13,103,1070052,,,,,,,2025-09-09,1,,,,,マネーフォワードファウンダーズ,0
1491,6010401192925,新規,0,2025-09-09,2025-09-09,株式会社Ｋｅｙｓｔｏｎｅ,,株式会社,東京都,港区,南青山４丁目１５番１－２０１号,,13,103,1070062,,,,,,,2025-09-09,1,,,,,キーストーン,0
1492,6010401192958,新規,0,2025-09-09,2025-09-09,株式会社ｇｒｅｅｎＨＡＵＳ,,株式会社,東京都,港区,白金台４丁目２番１１号,,13,103,1080071,,,,,,,2025-09-09,1,,,,,グリーンハウス,0
1495,6010501054678,新規,0,2025-09-09,2025-09-09,株式会社ライフスタイルギャザー,,株式会社,東京都,台東区,上野３丁目１５－７－５０６,,13,106,1100005,,,,,,,2025-09-09,1,,,,,,0
1496,6010501054694,新規,0,2025-09-09,2025-09-09,ＢＦＣファクトリー株式会社,,株式会社,東京都,台東区,浅草橋５丁目８番１１号大富ビル４０３号室,,13,106,1110053,,,,,,,2025-09-09,1,,,,,ビーエフシーファクトリー,0
1497,6010503007980,新規,0,2025-09-09,2025-09-09,ＰＬＡＴＩＮＵＭ‐Ｂ合同会社,,合同会社,東京都,台東区,上野６丁目４－１２アメ横ウェルカムモール,,13,106,1100005,,,,,,,2025-09-09,1,,,,,,0
1498,6010503007989,新規,0,2025-09-09,2025-09-09,Ａｎｔｒａ合同会社,,合同会社,東京都,台東区,寿３丁目９番３号丸大ビル３Ｆ－０５号室,,13,106,1110042,,,,,,,2025-09-09,1,,,,,アントラ,0
1501,6010601067927,新規,0,2025-09-09,2025-09-09,融龍貿易株式会社,,株式会社,東京都,江東区,大島４丁目１９－５,,13,108,1360072,,,,,,,2025-09-09,1,,,,,ユウリュウボウエキ,0
1504,6010801036574,新規,0,2025-09-09,2025-09-09,株式会社ブルーワンコンサルティング,,株式会社,東京都,大田区,田園調布２丁目１７番１１号,,13,111,1450071,,,,,,,2025-09-09,1,,,,,ブルーワンコンサルティング,0
1508,6010905004832,新規,0,2025-09-09,2025-09-09,一般社団法人ＡＩＤＡコンソーシアム,,その他の設立登記法人,東京都,世田谷区,赤堤２丁目１５番３号,,13,112,1560044,,,,,,,2025-09-09,1,,,,,アイダコンソーシアム,0
1517,6011001171848,新規,0,2025-09-09,2025-09-09,株式会社Ｎｅｘｂｒｉｄｇｅ,,株式会社,東京都,目黒区,大橋１丁目３番地８号,,13,110,1530044,,,,,,,2025-09-09,1,,,,,ネクスブリッジ,0
1518,6011001171914,新規,0,2025-09-09,2025-09-09,株式会社学,,株式会社,東京都,目黒区,下目黒１丁目１番１４号コノトラビル７Ｆ,,13,110,1530064,,,,,,,2025-09-09,1,,,,,マナブ,0
1519,6011001171971,新規,0,2025-09-09,2025-09-09,株式会社Ａｍｕｙｏ,,株式会社,東京都,渋谷区,神宮前１丁目１９番１号１Ｆ,,13,113,1500001,,,,,,,2025-09-09,1,,,,,アムヨ,0
1520,6011003022330,新規,0,2025-09-09,2025-09-09,合同会社ＬｅＬｉｅｎ,,合同会社,東京都,渋谷区,千駄ヶ谷５丁目１６番１６号千駄ヶ谷フラワーマンション１００３,,13,113,1510051,,,,,,,2025-09-09,1,,,,,ルリアン,0
1528,6011201026620,新規,0,2025-09-09,2025-09-09,株式会社ＳＥＶＥＮ　ＧＲＩＴ,,株式会社,東京都,中野区,中野３丁目５０番４号,,13,114,1640001,,,,,,,2025-09-09,1,,,,,セブングリット,0
1529,6011201026629,新規,0,2025-09-09,2025-09-09,株式会社ＲＡＹＯＮ．,,株式会社,東京都,中野区,東中野１丁目３６番４－９０３号,,13,114,1640003,,,,,,,2025-09-09,1,,,,,レイオン,0
1530,6011303005695,新規,0,2025-09-09,2025-09-09,合同会社トップランク,,合同会社,東京都,杉並区,高円寺北３丁目３６－１５－２０５,,13,115,1660002,,,,,,,2025-09-09,1,,,,,トップランク,0
1531,6011401027385,新規,0,2025-09-09,2025-09-09,株式会社ソンヒ,,株式会社,東京都,板橋区,徳丸３丁目２２番１８－８２２号,,13,119,1750083,,,,,,,2025-09-09,1,,,,,ソンヒ,0
1538,6011601028968,新規,0,2025-09-09,2025-09-09,株式会社ワンライン,,株式会社,東京都,練馬区,関町南４丁目２０－２,,13,120,1770053,,,,,,,2025-09-09,1,,,,,ワンライン,0
1543,6011801046654,新規,0,2025-09-09,2025-09-09,帆月株式会社,,株式会社,東京都,足立区,六月２丁目２８番地１の２１,,13,121,1210814,,,,,,,2025-09-09,1,,,,,ホツキ,0
1546,6012401043570,新規,0,2025-09-09,2025-09-09,株式会社ＳＵＮ,,株式会社,東京都,多摩市,関戸４丁目９－３ブロッサム聖蹟４Ｆ,,13,224,2060011,,,,,,,2025-09-09,1,,,,,サン,0
1548,6012403007326,新規,0,2025-09-09,2025-09-09,ボッカーズ合同会社,,合同会社,東京都,三鷹市,井の頭４丁目１９番７号,,13,204,1810001,,,,,,,2025-09-09,1,,,,,ボッカーズ,0
1549,6013103001486,新規,0,2025-09-09,2025-09-09,ＨＩＲＩＭＡ　ＩＮＴＥＲＮＡＴＩＯＮＡＬ合同会社,,合同会社,東京都,西多摩郡瑞穂町,大字石畑１８５コリーヌビルー３０２,,13,303,1901211,,,,,,,2025-09-09,1,,,,,ヒリマインターナショナル,0
1564,6020001164729,新規,0,2025-09-09,2025-09-09,ＫＭＴ株式会社,,株式会社,神奈川県,横浜市南区,高根町１丁目４番４０号ＫＹＳオフィス２階Ａ０２０,,14,105,2320022,,,,,,,2025-09-09,1,,,,,ケーエムティー,0
1570,6020003029335,新規,0,2025-09-09,2025-09-09,合同会社あるごアンサンブル,,合同会社,神奈川県,横浜市緑区,いぶき野２９番地２８,,14,113,2260028,,,,,,,2025-09-09,1,,,,,アルゴアンサンブル,0
1572,6021001086211,新規,0,2025-09-09,2025-09-09,株式会社ＭＲＡ,,株式会社,神奈川県,相模原市南区,新磯野４丁目２番４－４０９号,,14,153,2520325,,,,,,,2025-09-09,1,,,,,エムアールエー,0
1573,6021001086269,新規,0,2025-09-09,2025-09-09,株式会社エミ・ユー・プラント,,株式会社,神奈川県,南足柄市,塚原２３５１番地１,,14,217,2500117,,,,,,,2025-09-09,1,,,,,エミユープラント,0
1577,6030001168431,新規,0,2025-09-09,2025-09-09,株式会社恕,,株式会社,埼玉県,春日部市,粕壁６８９８番地５,,11,214,3440061,,,,,,,2025-09-09,1,,,,,ジョ,0
1578,6030001168448,新規,0,2025-09-09,2025-09-09,株式会社野村商事,,株式会社,埼玉県,所沢市,大字本郷１０８６番地の９,,11,208,3590022,,,,,,,2025-09-09,1,,,,,ノムラショウジ,0
1579,6030001168472,新規,0,2025-09-09,2025-09-09,株式会社ａｓ．ｔｏｂｅ,,株式会社,埼玉県,さいたま市大宮区,浅間町２丁目７７番地９,,11,103,3300842,,,,,,,2025-09-09,1,,,,,アストビー,0
1580,6030001168497,新規,0,2025-09-09,2025-09-09,株式会社ＳＧ,,株式会社,埼玉県,入間郡毛呂山町,若山２丁目１６番地１６,,11,326,3500462,,,,,,,2025-09-09,1,,,,,エスジー,0
1581,6030001168522,新規,0,2025-09-09,2025-09-09,株式会社ＨＯＮＰ,,株式会社,埼玉県,さいたま市浦和区,本太１丁目５番２－３号,,11,107,3300052,,,,,,,2025-09-09,1,,,,,エイチオーエヌピー,0
1586,6030003027528,新規,0,2025-09-09,2025-09-09,合同会社ｓｔａｒｔｓ,,合同会社,埼玉県,川口市,末広３丁目１６番１３号メゾンアーバンＩＩ１０６号,00140581,11,203,3320006,,,,,,,2025-09-09,1,,,,,スターツ,0
1587,6030005022262,新規,0,2025-09-09,2025-09-09,プランナー行政書士法人,,その他の設立登記法人,埼玉県,新座市,東北２丁目２６－３安部ビル５階,,11,230,3520001,,,,,,,2025-09-09,1,,,,,プランナー,0
1593,6040001140422,新規,0,2025-09-09,2025-09-09,株式会社リバイバルベース,,株式会社,千葉県,印西市,草深２４０５番地３１,,12,231,2701337,,,,,,,2025-09-09,1,,,,,リバイバルベース,0
1599,6060003005737,新規,0,2025-09-09,2025-09-09,合同会社くらり堂,,合同会社,栃木県,栃木市,倭町６－４,,09,203,3280037,,,,,,,2025-09-09,1,,,,,クラリドウ,0
1602,6070001043300,新規,0,2025-09-09,2025-09-09,株式会社ＫＲＹ映像,,株式会社,群馬県,前橋市,公田町１１４７－１,,10,201,3792146,,,,,,,2025-09-09,1,,,,,,0
1605,6070003005959,新規,0,2025-09-09,2025-09-09,合同会社サカケン,,合同会社,群馬県,館林市,野辺町９４３番地６,,10,207,3740047,,,,,,,2025-09-09,1,,,,,サカケン,0
1607,6080401028164,新規,0,2025-09-09,2025-09-09,Ａ＆Ａ株式会社,,株式会社,静岡県,磐田市,中泉１８４２番地２,,22,211,4380078,,,,,,,2025-09-09,1,,,,,エーアンドエー,0
1610,6080405007759,新規,0,2025-09-09,2025-09-09,一般社団法人ＹＯＪ,,その他の設立登記法人,静岡県,浜松市中央区,曳馬２丁目１６番１６号,,22,138,4300901,,,,,,,2025-09-09,1,,,,,ワイオージェイ,0
1612,6090003002888,新規,0,2025-09-09,2025-09-09,合同会社ＪＩＮ,,合同会社,山梨県,中巨摩郡昭和町,清水新居９３９番地６,,19,384,4093867,,,,,,,2025-09-09,1,,,,,ジン,0
1620,6120001073218,新規,0,2025-09-09,2025-09-09,アイボリーシャツ株式会社,,株式会社,大阪府,大阪市中央区,博労町１丁目１番２号,,27,128,5410059,,,,,,,2025-09-09,1,,,,,,0
1634,6120001279442,新規,0,2025-09-09,2025-09-09,ウイングループ株式会社,,株式会社,大阪府,大阪市天王寺区,空堀町５番３号,,27,109,5430012,,,,,,,2025-09-09,1,,,,,ウイングループ,0
1635,6120001279450,新規,0,2025-09-09,2025-09-09,ＩＮＳＯＵ不動産株式会社,,株式会社,大阪府,大阪市西区,新町３丁目６番１０号,,27,106,5500013,,,,,,,2025-09-09,1,,,,,インソウフドウサン,0
1637,6120003030489,新規,0,2025-09-09,2025-09-09,合同会社ヒサダ,,合同会社,大阪府,大阪市中央区,谷町７丁目５番４号グラン・ドムール高津北２０１号,,27,128,5420012,,,,,,,2025-09-09,1,,,,,ヒサダ,0
1638,6120101072375,新規,0,2025-09-09,2025-09-09,株式会社ＫＩＢＡＳＯＵ,,株式会社,大阪府,泉大津市,式内町９番８号,,27,206,5950035,,,,,,,2025-09-09,1,,,,,キバソウ,0
1639,6120103006653,新規,0,2025-09-09,2025-09-09,阪和合同会社,,合同会社,大阪府,富田林市,梅の里２３３２,,27,214,5840000,,,,,,,2025-09-09,1,,,,,ハンワ,0
1640,6120103006686,新規,0,2025-09-09,2025-09-09,合同会社ＳＫプランニング,,合同会社,大阪府,堺市堺区,三国ヶ丘御幸通５７番地２（８１１号）,,27,141,5900028,,,,,,,2025-09-09,1,,,,,エスケイプランニング,0
1651,6130001080411,新規,0,2025-09-09,2025-09-09,ＬＵＸＤＲＡＧＯＮ株式会社,,株式会社,京都府,京都市右京区,宇多野馬場町２６－２０１,,26,108,6168202,,,,,,,2025-09-09,1,,,,,ラックスドラゴン,0
1652,6130001080477,新規,0,2025-09-09,2025-09-09,緑の館株式会社,,株式会社,京都府,京都市中京区,坂井町４７０,,26,104,6048065,,,,,,,2025-09-09,1,,,,,ミドリノヤカタ,0
1653,6130001080485,新規,0,2025-09-09,2025-09-09,株式会社ＧＥＮＥＲＡＴＥ,,株式会社,京都府,京都市伏見区,深草大亀谷東古御香町２５番地９,,26,109,6120844,,,,,,,2025-09-09,1,,,,,ジェネレート,0
1658,6140001139883,新規,0,2025-09-09,2025-09-09,株式会社四ツ目,,株式会社,兵庫県,小野市,垂井町６０２番地の３,,28,218,6751333,,,,,,,2025-09-09,1,,,,,ヨツメ,0
1659,6140001139909,新規,0,2025-09-09,2025-09-09,ユニオンマネジメント株式会社,,株式会社,兵庫県,神戸市中央区,波止場町６番３号,,28,110,6500042,,,,,,,2025-09-09,1,,,,,ユニオンマネジメント,0
1660,6140001139933,新規,0,2025-09-09,2025-09-09,株式会社開森,,株式会社,兵庫県,淡路市,斗ノ内１４１０番地２７,,28,226,6561743,,,,,,,2025-09-09,1,,,,,カイモリ,0
1661,6140001139941,新規,0,2025-09-09,2025-09-09,株式会社Ａｃｅ,,株式会社,兵庫県,たつの市,揖保川町黍田４３番地６ジュネスＩ３Ｅ,,28,229,6711632,,,,,,,2025-09-09,1,,,,,エース,0
1666,6140003022534,新規,0,2025-09-09,2025-09-09,ＴＡＰ合同会社,,合同会社,兵庫県,揖保郡太子町,東保４８７番地８,,28,464,6711524,,,,,,,2025-09-09,1,,,,,タップ,0
1668,6160001027046,新規,0,2025-09-09,2025-09-09,株式会社Ｍａｓｓｙ,,株式会社,滋賀県,大津市,北比良９７０番地の１２９,,25,201,5200503,,,,,,,2025-09-09,1,,,,,マシー,0
1676,6180001168540,新規,0,2025-09-09,2025-09-09,ＨＬ　ＴＲＡＤＩＮＧ株式会社,,株式会社,愛知県,弥富市,稲元６丁目４番,,23,235,4980045,,,,,,,2025-09-09,1,,,,,エッチエルトレーディング,0
1677,6180001168549,新規,0,2025-09-09,2025-09-09,株式会社Ｐｒｅｃｉｏｕｓ　Ｍｅ,,株式会社,愛知県,名古屋市千種区,姫池通３丁目４番地の２ＯＬＤ＆ＮＥＷ７階Ａ号室,,23,101,4640055,,,,,,,2025-09-09,1,,,,,プレシャスミー,0
1679,6180301040184,新規,0,2025-09-09,2025-09-09,株式会社プランニング,,株式会社,愛知県,岡崎市,橋目町３０番地１,,23,202,4440908,,,,,,,2025-09-09,1,,,,,プランニング,0
1680,6190003005162,新規,0,2025-09-09,2025-09-09,合同会社エンパワーメントベース,,合同会社,三重県,名張市,梅が丘北５番町８５番地,,24,208,5180740,,,,,,,2025-09-09,1,,,,,エンパワーメントベース,0
1684,6200003007009,新規,0,2025-09-09,2025-09-09,合同会社ＳＳＫ,,合同会社,岐阜県,岐阜市,薮田南１丁目７番１６－７０４号（第一岐阜県ビル）,,21,201,5008384,,,,,,,2025-09-09,1,,,,,エスエスケー,0
1688,6220001026917,新規,0,2025-09-09,2025-09-09,音建設工業株式会社,,株式会社,石川県,小松市,福乃宮町２丁目９１番地１,,17,203,9230865,,,,,,,2025-09-09,1,,,,,オトケンセツコウギョウ,0
1692,6240001065475,新規,0,2025-09-09,2025-09-09,株式会社華膳,,株式会社,広島県,広島市安佐北区,亀山２丁目２６番１号,,34,106,7310231,,,,,,,2025-09-09,1,,,,,カゼン,0
1693,6240001065483,新規,0,2025-09-09,2025-09-09,株式会社ｒｉｖａ,,株式会社,広島県,広島市中区,鉄砲町１番２０号第３ウエノヤビル２Ｆ,,34,101,7300017,,,,,,,2025-09-09,1,,,,,リーバ,0
1695,6260001040501,新規,0,2025-09-09,2025-09-09,猫砂工房株式会社,,株式会社,岡山県,真庭郡新庄村,６１２９番地４,,33,586,7170201,,,,,,,2025-09-09,1,,,,,ネコスナコウボウ,0
1700,6290001111308,新規,0,2025-09-09,2025-09-09,株式会社ＲＥＰＬＵＳ,,株式会社,福岡県,福岡市博多区,博多駅南３丁目１７番５－１００５号パンルネックスクリスタル博多駅南,,40,132,8120016,,,,,,,2025-09-09,1,,,,,リプラス,0
1701,6290001111365,新規,0,2025-09-09,2025-09-09,株式会社弥,,株式会社,福岡県,福岡市早良区,賀茂１丁目２６番６号,,40,137,8140164,,,,,,,2025-09-09,1,,,,,ワタル,0
1702,6290001111407,新規,0,2025-09-09,2025-09-09,株式会社六松,,株式会社,福岡県,福岡市中央区,六本松３丁目１１番２５－６０３号,,40,133,8100044,,,,,,,2025-09-09,1,,,,,ロクマツ,0
1705,6290003017370,新規,0,2025-09-09,2025-09-09,デバイス笹丘合同会社,,合同会社,福岡県,福岡市中央区,笹丘２丁目２０番１号,,40,133,8100034,,,,,,,2025-09-09,1,,,,,デバイスササオカ,0
1706,6290003017412,新規,0,2025-09-09,2025-09-09,合同会社ＨＵＭＡ,,合同会社,福岡県,小郡市,小郡２３４番地２４香月ビル３０２号,,40,216,8380141,,,,,,,2025-09-09,1,,,,,ヒューマ,0
1712,6320001021313,新規,0,2025-09-09,2025-09-09,ＨＹＧＥＮ　ＧＲＥＥＮ　ＳＡＩＫＩ株式会社,,株式会社,大分県,佐伯市,大字鶴望４３３番地,,44,205,8760012,,,,,,,2025-09-09,1,,,,,ハイゲングリーンサイキ,0
1723,6350001019726,新規,0,2025-09-09,2025-09-09,株式会社ＰｔｏＢ,,株式会社,宮崎県,宮崎市,村角町前畑４２９,,45,201,8800837,,,,,,,2025-09-09,1,,,,,ピートゥービィー,0
1724,6360001035722,新規,0,2025-09-09,2025-09-09,株式会社日々向上,,株式会社,沖縄県,那覇市,牧志３丁目３番１０号マキシフードホール２階２－２,,47,201,9000013,,,,,,,2025-09-09,1,,,,,ヒビコウジョウ,0
1725,6360001035755,新規,0,2025-09-09,2025-09-09,株式会社那覇マンスリー,,株式会社,沖縄県,那覇市,具志１丁目１２番３号グランドメゾングシＩＩ３０２号室,00140579,47,201,9010146,,,,,,,2025-09-09,1,,,,,ナハマンスリー,0
1728,6380001035547,新規,0,2025-09-09,2025-09-09,株式会社米屋商店,,株式会社,福島県,南会津郡只見町,大字只見字上ノ原１６９０－１,,07,367,9680421,,,,,,,2025-09-09,1,,,,,コメヤショウテン,0
1729,6380003006125,新規,0,2025-09-09,2025-09-09,Ｍｏｋｅｙａ合同会社,,合同会社,福島県,いわき市,中央台飯野２丁目１番地の１市営住宅８－９,,07,204,9708044,,,,,,,2025-09-09,1,,,,,モケヤ,0
1739,6430001095156,新規,0,2025-09-09,2025-09-09,株式会社月白,,株式会社,北海道,札幌市中央区,南四条西１５丁目３番５号,,01,101,0640804,,,,,,,2025-09-09,1,,,,,ツキシロ,0
1740,6430001095180,新規,0,2025-09-09,2025-09-09,株式会社男道,,株式会社,北海道,札幌市中央区,南五条西２丁目９番地２,,01,101,0640805,,,,,,,2025-09-09,1,,,,,オトコミチ,0
1747,6480001012940,新規,0,2025-09-09,2025-09-09,株式会社ＵＮＴＲＡＣＥ,,株式会社,徳島県,小松島市,南小松島町９番１４号,,36,203,7730005,,,,,,,2025-09-09,1,,,,,アントレース,0
1755,6700150132129,新規,0,2025-09-09,2025-09-09,Ｌｉｇｈｔｈｏｕｓｅ　Ｄｅｖｅｌｏｐｍｅｎｔｓ　６　Ｐｔｅ．　Ｌｔｄ．,,外国会社等,,,,,,,,７　ｓｔｒａｉｔｓ　ｖｉｅｗ　１９－０３　ｍａｒｉｎａ　ｏｎｅ　ｅａｓｔ　ｔｏｗｅｒ　ｓｉｎｇａｐｏｒｅ　０１８９３６,,,,,,2025-09-09,1,,,,,ライトハウスデヴエロツプメント,0
1762,7010001258290,新規,0,2025-09-09,2025-09-09,Ｐｉｎｎａｃｌｅ株式会社,,株式会社,東京都,中央区,銀座１丁目１２－４Ｎ＆ＥＢＬＤ．７階,,13,102,1040061,,,,,,,2025-09-09,1,,,,,ピナクル,0
1765,7010003048657,新規,0,2025-09-09,2025-09-09,合同会社ＯＳＴＡＹなんば,,合同会社,東京都,千代田区,神田錦町１丁目２１番１号,,13,101,1010054,,,,,,,2025-09-09,1,,,,,オーステイナンバ,0
1766,7010003048665,新規,0,2025-09-09,2025-09-09,ジェネラリスト合同会社,,合同会社,東京都,中央区,銀座１丁目２２番１１号銀座大竹ビジデンス２Ｆ,,13,102,1040061,,,,,,,2025-09-09,1,,,,,ジェネラリスト,0
1776,7010401192783,新規,0,2025-09-09,2025-09-09,株式会社世紀至誠,,株式会社,東京都,港区,港南５丁目４番３８号,,13,103,1080075,,,,,,,2025-09-09,1,,,,,セイキシセイ,0
1777,7010401192866,新規,0,2025-09-09,2025-09-09,株式会社ＴｅｌｏｓＡＩ,,株式会社,東京都,港区,六本木３丁目１６番１２号六本木ＫＳビル５Ｆ,,13,103,1060032,,,,,,,2025-09-09,1,,,,,テロスエーアイ,0
1778,7010401192949,新規,0,2025-09-09,2025-09-09,株式会社Ａｒｅｎａ　ｇａｍｅｓ,,株式会社,東京都,港区,南青山３丁目１番３６号青山丸竹ビル６階,,13,103,1070062,,,,,,,2025-09-09,1,,,,,アリーナゲームス,0
1779,7010401193039,新規,0,2025-09-09,2025-09-09,株式会社Ｇａｉｋａ,,株式会社,東京都,港区,南青山３丁目１番３６号青山丸竹ビル６Ｆ,,13,103,1070062,,,,,,,2025-09-09,1,,,,,ガイカ,0
1782,7010405024669,新規,0,2025-09-09,2025-09-09,一般社団法人Ａｒａｂｉｃ‐Ｊａｐａｎ　Ｍｅｄｉｃａｌ　Ｓｃｉｅｎｃｅ　Ｕｎｉｏｎ,,その他の設立登記法人,東京都,港区,赤坂１丁目１４番２号,,13,103,1070052,,,,,,,2025-09-09,1,,,,,アラビィックジャパンメディカルサイエンスユニオン,0
1784,7010501054669,新規,0,2025-09-09,2025-09-09,嵐峰株式会社,,株式会社,東京都,台東区,上野６丁目７－１６川久保ビル５１２,,13,106,1100005,,,,,,,2025-09-09,1,,,,,,0
1785,7010501054677,新規,0,2025-09-09,2025-09-09,高奢株式会社,,株式会社,東京都,台東区,柳橋２丁目１９－１０第二東商センター２号館４２１室,,13,106,1110052,,,,,,,2025-09-09,1,,,,,,0
1786,7010501054685,新規,0,2025-09-09,2025-09-09,富吉株式会社,,株式会社,東京都,台東区,鳥越２丁目８－４島崎第１０ビル,,13,106,1110054,,,,,,,2025-09-09,1,,,,,,0
1787,7010503007971,新規,0,2025-09-09,2025-09-09,合同会社むさし,,合同会社,東京都,台東区,上野３丁目１８番６号ＧＢビル４階,,13,106,1100005,,,,,,,2025-09-09,1,,,,,ムサシ,0
1789,7010701048248,新規,0,2025-09-09,2025-09-09,ワイケイシステムサービス株式会社,,株式会社,東京都,品川区,北品川２丁目２０番１９号,,13,109,1400001,,,,,,,2025-09-09,1,,,,,ワイケイシステムサービス,0
1792,7010801036557,新規,0,2025-09-09,2025-09-09,ＶＧＡＭ　ＤＥＳＩＧＮ株式会社,,株式会社,東京都,大田区,西馬込２丁目１９番１７号第２グランドハイツ３０１号室,,13,111,1430026,,,,,,,2025-09-09,1,,,,,ビーガムデザイン,0
1793,7010801036573,新規,0,2025-09-09,2025-09-09,ＳＹＮＲＡ株式会社,,株式会社,東京都,大田区,北千束３丁目２０番８号,,13,111,1450062,,,,,,,2025-09-09,1,,,,,シンラ,0
1794,7010801036581,新規,0,2025-09-09,2025-09-09,株式会社ベリエスタ,,株式会社,東京都,大田区,矢口３丁目２８番８号東急ドエルアルス多摩川４０３,,13,111,1460093,,,,,,,2025-09-09,1,,,,,ベリエスタ,0
1799,7010901058039,新規,0,2025-09-09,2025-09-09,株式会社Ｏｒｕｔａｓ,,株式会社,東京都,世田谷区,深沢２丁目１番１３－９０４号,,13,112,1580081,,,,,,,2025-09-09,1,,,,,オルタス,0
1800,7010901058047,新規,0,2025-09-09,2025-09-09,株式会社ｓｌｅｅ,,株式会社,東京都,世田谷区,太子堂３丁目２７番３１－３０２号,,13,112,1540004,,,,,,,2025-09-09,1,,,,,スリー,0
1803,7010903010253,新規,0,2025-09-09,2025-09-09,合同会社小林,,合同会社,東京都,世田谷区,尾山台３丁目１０番９号ＲＴ１ｓｔビル,,13,112,1580086,,,,,,,2025-09-09,1,,,,,コバヤシ,0
1812,7011001171376,新規,0,2025-09-09,2025-09-09,海順不動産株式会社,,株式会社,東京都,渋谷区,上原１丁目１６番１５号,,13,113,1510064,,,,,,,2025-09-09,1,,,,,カウジュンフドウサン,0
1813,7011001171772,新規,0,2025-09-09,2025-09-09,株式会社ｍｉｃｒｏＬｏｇｉ,,株式会社,東京都,渋谷区,恵比寿南１丁目１－１,,13,113,1500022,,,,,,,2025-09-09,1,,,,,マイクロロジ,0
1822,7011101112841,新規,0,2025-09-09,2025-09-09,株式会社Ｃｏｃｏ　Ｓａｌｏｎ,,株式会社,東京都,新宿区,西新宿３丁目３番１３号西新宿水間ビル６階,,13,104,1600023,,,,,,,2025-09-09,1,,,,,ココサロン,0
1825,7011203004805,新規,0,2025-09-09,2025-09-09,合同会社ＳＡＥＬＩ,,合同会社,東京都,中野区,本町２丁目４０－６－２０２,,13,114,1640012,,,,,,,2025-09-09,1,,,,,サエリ,0
1826,7011301030868,新規,0,2025-09-09,2025-09-09,ＣＯＲＥＸＩＯＮ株式会社,,株式会社,東京都,杉並区,松ノ木３丁目１７番５号,,13,115,1660014,,,,,,,2025-09-09,1,,,,,コレクション,0
1828,7011401027384,新規,0,2025-09-09,2025-09-09,皓天財経グループ日本株式会社,,株式会社,東京都,板橋区,稲荷台１６－９ペガサス稲荷台２０１号室,,13,119,1730002,,,,,,,2025-09-09,1,,,,,コウテンザイケイグループニホン,0
1830,7011601028959,新規,0,2025-09-09,2025-09-09,株式会社ビーエレック,,株式会社,東京都,練馬区,上石神井１丁目３９番２２号キャピタル１０１,,13,120,1770044,,,,,,,2025-09-09,1,,,,,ビーエレック,0
1831,7011601028967,新規,0,2025-09-09,2025-09-09,ＭＩＲＡＩＳＵＫＩ株式会社,,株式会社,東京都,練馬区,北町８丁目１２番３３号,,13,120,1790081,,,,,,,2025-09-09,1,,,,,ミライスキ,0
1832,7011603004818,新規,0,2025-09-09,2025-09-09,アカリ合同会社,,合同会社,東京都,練馬区,旭丘１丁目６５－１７小坂ビルＢ１－１０１,,13,120,1760005,,,,,,,2025-09-09,1,,,,,アカリ,0
1837,7011705001911,新規,0,2025-09-09,2025-09-09,ＡＩＴ税理士法人,,その他の設立登記法人,東京都,江戸川区,西葛西６丁目１２番７号,,13,123,1340088,,,,,,,2025-09-09,1,,,,,エーアイティー,0
1841,7011801046694,新規,0,2025-09-09,2025-09-09,ユニコーンズホールディングス株式会社,,株式会社,東京都,葛飾区,高砂１丁目２１番４号,,13,122,1250054,,,,,,,2025-09-09,1,,,,,ユニコーンズホールディングス,0
1844,7012301014530,新規,0,2025-09-09,2025-09-09,株式会社ＨＡＮＤＲＩＮＧ,,株式会社,東京都,町田市,成瀬が丘１丁目１０－３,,13,209,1940011,,,,,,,2025-09-09,1,,,,,ハンドリング,0
1857,7020001164711,新規,0,2025-09-09,2025-09-09,Ａｎｒｉ株式会社,,株式会社,神奈川県,横浜市神奈川区,金港町５－１４クアドリフォリオ８階,,14,102,2210056,,,,,,,2025-09-09,1,,,,,アンリ,0
1858,7020001164744,新規,0,2025-09-09,2025-09-09,株式会社ＡｎｄＫ,,株式会社,神奈川県,横浜市保土ケ谷区,天王町１丁目６－４,,14,106,2400003,,,,,,,2025-09-09,1,,,,,アンドケイ,0
1863,7020003029334,新規,0,2025-09-09,2025-09-09,ＹＯＯＮ　ＭＹＩＮＴ　ＭＯＬ合同会社,,合同会社,神奈川県,横浜市神奈川区,台町１１番地２６－１０４号,,14,102,2210834,,,,,,,2025-09-09,1,,,,,ユンミィンモ,0
1868,7021001086276,新規,0,2025-09-09,2025-09-09,株式会社優心美総,,株式会社,神奈川県,小田原市,千代７４番地の１２,,14,206,2500215,,,,,,,2025-09-09,1,,,,,ユウシンビソウ,0
1870,7021003016529,新規,0,2025-09-09,2025-09-09,おおいそスポーツ合同会社,,合同会社,神奈川県,中郡大磯町,国府本郷１１６０番地２アウローラ大磯１０２号室,,14,341,2590111,,,,,,,2025-09-09,1,,,,,オオイソスポーツ,0
1871,7021003016553,新規,0,2025-09-09,2025-09-09,合同会社ＢＡＬＡＮＣＥ,,合同会社,神奈川県,藤沢市,鵠沼石上２丁目５－１湘南鵠沼ＢＬＤ３Ｆ－Ｃ,,14,205,2510025,,,,,,,2025-09-09,1,,,,,バランス,0
1876,7030001168439,新規,0,2025-09-09,2025-09-09,株式会社ＣＡＲＶＥＯ,,株式会社,埼玉県,川口市,仲町１５番２１号,,11,203,3320022,,,,,,,2025-09-09,1,,,,,カーヴィオ,0
1877,7030001168463,新規,0,2025-09-09,2025-09-09,株式会社ＳＧＲ,,株式会社,埼玉県,所沢市,大字亀ケ谷１０－１０,,11,208,3590014,,,,,,,2025-09-09,1,,,,,エスジーアール,0
1878,7030001168496,新規,0,2025-09-09,2025-09-09,株式会社ニチヨウ架設,,株式会社,埼玉県,児玉郡上里町,大字勅使河原１３１０番地８,,11,385,3690311,,,,,,,2025-09-09,1,,,,,ニチヨウカセツ,0
1879,7030001168505,新規,0,2025-09-09,2025-09-09,株式会社Ｃｏｎｎｏｉｓｓｅｕｒ,,株式会社,埼玉県,行田市,持田１丁目１番１号,,11,206,3610056,,,,,,,2025-09-09,1,,,,,コノシュアー,0
1880,7030001168538,新規,0,2025-09-09,2025-09-09,株式会社櫻清舎,,株式会社,埼玉県,さいたま市浦和区,高砂３丁目１７番２１号高砂武蔵ビルディング２階,,11,107,3300063,,,,,,,2025-09-09,1,,,,,オウセイシャ,0
1881,7030001168554,新規,0,2025-09-09,2025-09-09,株式会社ＨＫ＆Ｂ,,株式会社,埼玉県,戸田市,川岸２丁目８番１４号,,11,224,3350015,,,,,,,2025-09-09,1,,,,,エイチケーアンドビー,0
1884,7030003027543,新規,0,2025-09-09,2025-09-09,Ｄａｒ‐ｆｒｕｔｏ合同会社,,合同会社,埼玉県,鶴ヶ島市,松ヶ丘４丁目１，１－４０７,,11,241,3502205,,,,,,,2025-09-09,1,,,,,ダールフルート,0
1885,7030003027551,新規,0,2025-09-09,2025-09-09,合同会社夢匠商事,,合同会社,埼玉県,川口市,朝日６丁目１２－１０－１０３,,11,203,3320001,,,,,,,2025-09-09,1,,,,,ムショウショウジ,0
1887,7040001140371,新規,0,2025-09-09,2025-09-09,タカトラスト株式会社,,株式会社,千葉県,いすみ市,岬町三門１４６８番地,,12,238,2994613,,,,,,,2025-09-09,1,,,,,タカトラスト,0
1889,7050003009548,新規,0,2025-09-09,2025-09-09,合同会社エムアールエフ,,合同会社,茨城県,水戸市,内原１丁目２３１番地グランディール２０５号,,08,201,3190317,,,,,,,2025-09-09,1,,,,,エムアールエフ,0
1892,7060003005736,新規,0,2025-09-09,2025-09-09,合同会社ＡＬＬ,,合同会社,栃木県,鹿沼市,栄町３丁目２２番地４５,,09,205,3220028,,,,,,,2025-09-09,1,,,,,オール,0
1919,7120001279210,新規,0,2025-09-09,2025-09-09,ＡＫ株式会社,,株式会社,大阪府,大阪市中央区,南船場４丁目１０番５号南船場ＳＯＨＯビル,,27,128,5420081,,,,,,,2025-09-09,1,,,,,エイケイ,0
1920,7120001279417,新規,0,2025-09-09,2025-09-09,株式会社アレリスグロウ,,株式会社,大阪府,大阪市北区,梅田１丁目１－３大阪駅前第３ビル２９階１－１－１号室,,27,127,5300001,,,,,,,2025-09-09,1,,,,,アレリスグロウ,0
1921,7120001279441,新規,0,2025-09-09,2025-09-09,株式会社マツリカ,,株式会社,大阪府,大阪市中央区,南久宝寺町４丁目４番１号新御堂ビル５０１－１号,,27,128,5410058,,,,,,,2025-09-09,1,,,,,マツリカ,0
1927,7120101072358,新規,0,2025-09-09,2025-09-09,株式会社結,,株式会社,大阪府,堺市南区,鉢ヶ峯寺１０３番地１１,,27,145,5900125,,,,,,,2025-09-09,1,,,,,ユイ,0
1928,7120101072390,新規,0,2025-09-09,2025-09-09,株式会社Ｋａｐｐａ　ＮＯＫＩＹＡ,,株式会社,大阪府,泉大津市,旭町２３番４９号,,27,206,5950025,,,,,,,2025-09-09,1,,,,,カッパノキヤ,0
1929,7120103006685,新規,0,2025-09-09,2025-09-09,電設のゴン合同会社,,合同会社,大阪府,堺市東区,野尻町２６５番地１９,,27,143,5998116,,,,,,,2025-09-09,1,,,,,デンセツノゴン,0
1931,7120903005837,新規,0,2025-09-09,2025-09-09,ＰＡＫ　ＷＨＥＥＬ合同会社,,合同会社,大阪府,高槻市,庄所町３－１７第三富士ビル２０１号,,27,207,5690064,,,,,,,2025-09-09,1,,,,,パックホイール,0
1941,7130003010753,新規,0,2025-09-09,2025-09-09,合同会社ＡＮＤＡＮＴＥ,,合同会社,京都府,京都市南区,久世大薮町４２３－１２,,26,107,6018206,,,,,,,2025-09-09,1,,,,,アンダンテ,0
1947,7140001139924,新規,0,2025-09-09,2025-09-09,株式会社井手口,,株式会社,兵庫県,神戸市灘区,桜口町５丁目１番１号ウェルブ六甲道５番街１番館１１０号室,,28,102,6570036,,,,,,,2025-09-09,1,,,,,イデグチ,0
1948,7140001139973,新規,0,2025-09-09,2025-09-09,株式会社ハウオリ,,株式会社,兵庫県,西宮市,南昭和町７－２８－３１９,,28,204,6620834,,,,,,,2025-09-09,1,,,,,ハウオリ,0
1949,7150001028390,新規,0,2025-09-09,2025-09-09,株式会社雅,,株式会社,奈良県,山辺郡山添村,大字伏拝５０２番地,,29,322,6302225,,,,,,,2025-09-09,1,,,,,ミヤビ,0
1957,7180001168548,新規,0,2025-09-09,2025-09-09,株式会社カタトキ,,株式会社,愛知県,名古屋市名東区,牧の里３丁目１０４番地の２、２Ｆ,,23,115,4650068,,,,,,,2025-09-09,1,,,,,カタトキ,0
1958,7180001168614,新規,0,2025-09-09,2025-09-09,株式会社丹羽由商事,,株式会社,愛知県,名古屋市守山区,瀬古１丁目９０２番地,,23,113,4630068,,,,,,,2025-09-09,1,,,,,ニワヨシショウジ,0
1963,7190003005161,新規,0,2025-09-09,2025-09-09,合同会社まるなげ栄養士さん,,合同会社,三重県,伊賀市,中友田６５５番地２ＡＴＡＡＴＡＲＥＳＯＲＴ内,,24,216,5181304,,,,,,,2025-09-09,1,,,,,マルナゲエイヨウシサン,0
1970,7200003007008,新規,0,2025-09-09,2025-09-09,ＬＧＣ合同会社,,合同会社,岐阜県,各務原市,那加芦原町２丁目４７番地６,00140594,21,213,5040007,,,,,,,2025-09-09,1,,,,,エルジーシー,0
1971,7210001020300,新規,0,2025-09-09,2025-09-09,株式会社Ｔ３,,株式会社,福井県,敦賀市,清水町２丁目１４番２６号,,18,202,9140052,,,,,,,2025-09-09,1,,,,,ティースリー,0
1980,7250001021328,新規,0,2025-09-09,2025-09-09,株式会社ＹＭＶｎ,,株式会社,山口県,防府市,勝間１丁目８番１２号,,35,206,7470822,,,,,,,2025-09-09,1,,,,,ワイエムブイエヌ,0
1982,7260001040525,新規,0,2025-09-09,2025-09-09,株式会社セラ塗装工業,,株式会社,岡山県,岡山市南区,芳泉４丁目２０番２５－８号,,33,104,7028027,,,,,,,2025-09-09,1,,,,,セラトソウコウギョウ,0
1985,7260003005336,新規,0,2025-09-09,2025-09-09,合同会社ＵＳＭＡＮ　ＩＮＴＥＲＮＡＴＩＯＮＡＬ,,合同会社,岡山県,岡山市中区,浜１丁目６番１５号メゾン司Ｂ１０３,,33,102,7038256,,,,,,,2025-09-09,1,,,,,ウスマンインターナショナル,0
1990,7290001111224,新規,0,2025-09-09,2025-09-09,Ｈ２Ｋ株式会社,,株式会社,福岡県,福岡市中央区,大名１丁目２番２０号,,40,133,8100041,,,,,,,2025-09-09,1,,,,,エイチツーケイ,0
1995,7290005019827,新規,0,2025-09-09,2025-09-09,一般社団法人相続・贈与相談センターつなぐ,,その他の設立登記法人,福岡県,福岡市南区,高宮２丁目１０番１－４０１号,,40,134,8150083,,,,,,,2025-09-09,1,,,,,ソウゾクゾウヨソウダンセンターツナグ,0
1996,7290801031844,新規,0,2025-09-09,2025-09-09,株式会社ニューフィールド,,株式会社,福岡県,北九州市小倉南区,西貫２丁目３番２９号,,40,107,8000243,,,,,,,2025-09-09,1,,,,,ニューフィールド,0
1998,7320001021329,新規,0,2025-09-09,2025-09-09,株式会社ＮＡＴＵＲＥ　ＹＡＭＡＮＡＭＩ,,株式会社,大分県,玖珠郡九重町,大字右田２２０８番地,,44,461,8794601,,,,,,,2025-09-09,1,,,,,ナチュールヤマナミ,0
2001,7350001019717,新規,0,2025-09-09,2025-09-09,株式会社Ｋ＆Ｋ,,株式会社,宮崎県,延岡市,緑ケ丘１丁目１５番１号,,45,203,8820863,,,,,,,2025-09-09,1,,,,,ケイアンドケイ,0
2004,7360001035746,新規,0,2025-09-09,2025-09-09,株式会社ハマダイ,,株式会社,沖縄県,那覇市,宇栄原５丁目７番３２号２階,,47,201,9010153,,,,,,,2025-09-09,1,,,,,ハマダイ,0
2007,7370001053004,新規,0,2025-09-09,2025-09-09,株式会社スベロア,,株式会社,宮城県,仙台市宮城野区,元寺小路３０６番地の１４,,04,102,9830865,,,,,,,2025-09-09,1,,,,,スベロア,0
2009,7390005009132,新規,0,2025-09-09,2025-09-09,社会保険労務士法人ホワイトブリッジパートナーズ,,その他の設立登記法人,山形県,山形市,旅篭町２丁目２－２６庄司ビル５階,,06,201,9900047,,,,,,,2025-09-09,1,,,,,ホワイトブリッジパートナーズ,0
2010,7430001095139,新規,0,2025-09-09,2025-09-09,株式会社シャドウ,,株式会社,北海道,札幌市中央区,南七条西４丁目４２４番地１２,,01,101,0640807,,,,,,,2025-09-09,1,,,,,シャドウ,0
2011,7430003018106,新規,0,2025-09-09,2025-09-09,みらい総合研究所合同会社,,合同会社,北海道,白老郡白老町,字社台５３８番地１２,,01,578,0590901,,,,,,,2025-09-09,1,,,,,ミライソウゴウケンキュウショ,0
2020,7700150132128,新規,0,2025-09-09,2025-09-09,ＡＳＩＡＥＸ　ＨＯＬＤＩＮＧＳ　ＰＴＥ．ＬＴＤ．,,外国会社等,,,,,,,,シンガポール共和国インターナショナルプラザ３１番１０アンソンロード１０,,,,,,2025-09-09,1,,,,,アジアエツクスホールデイングス,0
2025,8010001258208,新規,0,2025-09-09,2025-09-09,プルーデンスコンサルティング株式会社,,株式会社,東京都,千代田区,九段北２丁目３番２５―３０２号,,13,101,1020073,,,,,,,2025-09-09,1,,,,,プルーデンスコンサルティング,0
2026,8010001258232,新規,0,2025-09-09,2025-09-09,株式会社港都エステート,,株式会社,東京都,中央区,銀座１丁目２２番１１号銀座大竹ビジデンス２Ｆ,,13,102,1040061,,,,,,,2025-09-09,1,,,,,コウトエステート,0
2028,8010003048540,新規,0,2025-09-09,2025-09-09,合同会社ＫＬＡＳＳＹ,,合同会社,東京都,中央区,銀座１丁目１２番４号Ｎ＆ＥＢＬＤ．６Ｆ,,13,102,1040061,,,,,,,2025-09-09,1,,,,,クラッシー,0
2029,8010003048607,新規,0,2025-09-09,2025-09-09,合同会社ＫＳＲ,,合同会社,東京都,中央区,銀座１丁目１２－４Ｎ＆ＥＢＬＤ．７階,,13,102,1040061,,,,,,,2025-09-09,1,,,,,ケーエスアール,0
2030,8010003048664,新規,0,2025-09-09,2025-09-09,合同会社Ｇａｔｅｗａｙ　Ｔｅｃｈ,,合同会社,東京都,千代田区,神田神保町２丁目１０番３１号ＩＷビル１Ｆ,,13,101,1010051,,,,,,,2025-09-09,1,,,,,ゲートウェイテック,0
2031,8010003048672,新規,0,2025-09-09,2025-09-09,蒼亭合同会社,,合同会社,東京都,千代田区,神田錦町３丁目１５錦精社神田ビル天翔オフィス大手町竹橋２階２９２号室,,13,101,1010054,,,,,,,2025-09-09,1,,,,,ソウテイ,0
2033,8010105002346,新規,0,2025-09-09,2025-09-09,朝日八王子マンション管理組合法人,,その他の設立登記法人,東京都,八王子市,追分町７番１１号朝日八王子マンション管理事務室,,13,201,1920056,,,,,,,2025-09-09,1,,,,,アサヒハチオウジマンション,0
2040,8010401192931,新規,0,2025-09-09,2025-09-09,株式会社アーク,,株式会社,東京都,港区,六本木３丁目１６番１２号六本木ＫＳビル５Ｆ,,13,103,1060032,,,,,,,2025-09-09,1,,,,,アーク,0
2041,8010401192972,新規,0,2025-09-09,2025-09-09,株式会社３ｉ,,株式会社,東京都,港区,南青山１丁目３番１号,,13,103,1070062,,,,,,,2025-09-09,1,,,,,スリーアイ,0
2042,8010401193013,新規,0,2025-09-09,2025-09-09,株式会社ＴｒａｎＶａｌｕ,,株式会社,東京都,港区,浜松町２丁目２番１５号浜松町ダイヤビル２Ｆ,,13,103,1050013,,,,,,,2025-09-09,1,,,,,トランバリュー,0
2047,8010403035964,新規,0,2025-09-09,2025-09-09,Ｔｕｐｌｅ　Ｊａｐａｎ合同会社,,合同会社,東京都,港区,六本木１丁目９番１０号アークヒルズ仙石山森タワー２８階ベーカー＆マッケンジー法律事務所（外国法共同事業）内,,13,103,1060032,,,,,,,2025-09-09,1,,,,,タプルジャパン,0
2050,8010501054692,新規,0,2025-09-09,2025-09-09,蘇氏株式会社,,株式会社,東京都,台東区,入谷１丁目２１－４入谷センチュープラザ２１－９１０室,,13,106,1100013,,,,,,,2025-09-09,1,,,,,,0
2052,8010503007987,新規,0,2025-09-09,2025-09-09,Ｐｉｃｋｌｅｓ．合同会社,,合同会社,東京都,台東区,蔵前４丁目１０番４－３０４号コンフォルテハイム蔵前,,13,106,1110051,,,,,,,2025-09-09,1,,,,,,0
2055,8010601067883,新規,0,2025-09-09,2025-09-09,株式会社Ｌｉｂｅｒｔａｓ,,株式会社,東京都,墨田区,墨田５丁目１４－９－４０４,,13,107,1310031,,,,,,,2025-09-09,1,,,,,リバータス,0
2061,8010703007894,新規,0,2025-09-09,2025-09-09,合同会社ヤマハナ,,合同会社,東京都,品川区,旗の台４丁目１３番９号,,13,109,1420064,,,,,,,2025-09-09,1,,,,,ヤマハナ,0
2069,8010901058038,新規,0,2025-09-09,2025-09-09,株式会社ＵＮＴＩＭＩＮＡＬ,,株式会社,東京都,世田谷区,上馬５丁目１５番１０号,,13,112,1540011,,,,,,,2025-09-09,1,,,,,アンティミナル,0
2070,8010903010252,新規,0,2025-09-09,2025-09-09,合同会社ＧＸ１２ＴＷＯ,,合同会社,東京都,世田谷区,松原２丁目３２番３２号アークファビラス１階,,13,112,1560043,,,,,,,2025-09-09,1,,,,,ジーエックストゥエルブトゥー,0
2074,8011001171862,新規,0,2025-09-09,2025-09-09,ＡＯＨＩ　ｃｒｅａｔｉｖｅ株式会社,,株式会社,東京都,渋谷区,恵比寿西２丁目８番４号ＥＸ恵比寿西ビル５階,,13,113,1500021,,,,,,,2025-09-09,1,,,,,アオヒクリエイティブ,0
2075,8011001171870,新規,0,2025-09-09,2025-09-09,アルミホス・グループ株式会社,,株式会社,東京都,目黒区,鷹番１丁目８番９号,,13,110,1520004,,,,,,,2025-09-09,1,,,,,アルミホスグループ,0
2076,8011001171895,新規,0,2025-09-09,2025-09-09,株式会社ｌｉｃ,,株式会社,東京都,渋谷区,道玄坂２丁目９番１０号Ｋ＆Ｋビル４階,,13,113,1500043,,,,,,,2025-09-09,1,,,,,リック,0
2080,8011201026627,新規,0,2025-09-09,2025-09-09,ＥＭＰＲＥＳＳ　ＬＩＮＫ株式会社,,株式会社,東京都,中野区,中野３丁目２８番２１号,,13,114,1640001,,,,,,,2025-09-09,1,,,,,エンプレスリンク,0
2081,8011203004812,新規,0,2025-09-09,2025-09-09,合同会社Ｎｅｐｐａｌｔ,,合同会社,東京都,中野区,中央４丁目１番３号ボニータ新中野３０１,,13,114,1640011,,,,,,,2025-09-09,1,,,,,ネッパルト,0
2086,8011603004833,新規,0,2025-09-09,2025-09-09,小林商事合同会社,,合同会社,東京都,練馬区,春日町６丁目１６番１１号フォーチュン光が丘２２８号室,,13,120,1790074,,,,,,,2025-09-09,1,,,,,コバヤシショウジ,0
2090,8012301014521,新規,0,2025-09-09,2025-09-09,株式会社中村ファミリーオフィス,,株式会社,東京都,町田市,森野１丁目３０番８号ノアビル７階,,13,209,1940022,,,,,,,2025-09-09,1,,,,,ナカムラファミリーオフィス,0
2098,8012705002477,新規,0,2025-09-09,2025-09-09,一般社団法人モンゴルウォーカービジネス機構,,その他の設立登記法人,東京都,東村山市,多摩湖町４丁目８番４号,,13,213,1890026,,,,,,,2025-09-09,1,,,,,モンゴルウォーカービジネスキコウ,0
2103,8013301054895,新規,0,2025-09-09,2025-09-09,株式会社グレートスコット,,株式会社,東京都,豊島区,東池袋１丁目１４番１０号ポプラビル４階,,13,116,1700013,,,,,,,2025-09-09,1,,,,,グレートスコット,0
2104,8013301054912,新規,0,2025-09-09,2025-09-09,株式会社ＡＮＮＥＳＴ,,株式会社,東京都,豊島区,池袋２丁目３６番１号ＩＮＦＩＮＩＴＹＩＫＥＢＵＫＵＲＯ４階,,13,116,1710014,,,,,,,2025-09-09,1,,,,,アンネスト,0
2107,8013305003758,新規,0,2025-09-09,2025-09-09,税理士法人アモルファス,,その他の設立登記法人,東京都,豊島区,東池袋４丁目２１－１アウルタワー４００２,,13,116,1700013,,,,,,,2025-09-09,1,,,,,アモルファス,0
2118,8020001164719,新規,0,2025-09-09,2025-09-09,株式会社ＭＫキャピタル,,株式会社,神奈川県,横浜市中区,野毛町４丁目１７３番地２サンヴェール横濱野毛山公園３０３,,14,104,2310064,,,,,,,2025-09-09,1,,,,,エムケーキャピタル,0
2119,8020001164751,新規,0,2025-09-09,2025-09-09,東京Ｐａｎｓｙｓ株式会社,,株式会社,神奈川県,川崎市川崎区,境町１０番１１号加瀬ビル２００－４階,,14,131,2100838,,,,,,,2025-09-09,1,,,,,トウキョウパンシス,0
2120,8020001164768,新規,0,2025-09-09,2025-09-09,株式会社ＴＯＴ,,株式会社,神奈川県,横浜市港南区,港南台７丁目３１番８号,,14,111,2340054,,,,,,,2025-09-09,1,,,,,ティーオーティー,0
2122,8020003029317,新規,0,2025-09-09,2025-09-09,ＭｉｒａＴｉｅｓ合同会社,,合同会社,神奈川県,川崎市川崎区,追分町１－１８,,14,131,2100835,,,,,,,2025-09-09,1,,,,,ミラタイズ,0
2123,8020003029325,新規,0,2025-09-09,2025-09-09,Ｏｃａｓｏｌ合同会社,,合同会社,神奈川県,横浜市神奈川区,金港町５‐１４クアドリフォリオ８階,,14,102,2210056,,,,,,,2025-09-09,1,,,,,オカソル,0
2131,8030001168487,新規,0,2025-09-09,2025-09-09,株式会社ＲＨｉｓｅ,,株式会社,埼玉県,吉川市,美南４丁目６番地９,,11,243,3420038,,,,,,,2025-09-09,1,,,,,ライズ,0
2132,8030001168495,新規,0,2025-09-09,2025-09-09,株式会社ファミリーテラス,,株式会社,埼玉県,春日部市,内牧３８５１番地,,11,214,3440051,,,,,,,2025-09-09,1,,,,,ファミリーテラス,0
2133,8030001168553,新規,0,2025-09-09,2025-09-09,株式会社中華笑月,,株式会社,埼玉県,さいたま市見沼区,東大宮４丁目２番地６,,11,104,3370051,,,,,,,2025-09-09,1,,,,,チュウカショウゲツ,0
2142,8030003027534,新規,0,2025-09-09,2025-09-09,合同会社うえはら総建,,合同会社,埼玉県,熊谷市,上恩田４７０番地２,,11,202,3600125,,,,,,,2025-09-09,1,,,,,ウエハラソウケン,0
2143,8030003027542,新規,0,2025-09-09,2025-09-09,合同会社マックディール,,合同会社,埼玉県,さいたま市浦和区,上木崎１丁目２番２０－３０１号,,11,107,3300071,,,,,,,2025-09-09,1,,,,,マックディール,0
2148,8040001140288,新規,0,2025-09-09,2025-09-09,株式会社Ｓｕｎｎｙ　ａｒｋ,,株式会社,千葉県,松戸市,新松戸北１丁目２番地の１新松戸コーポＡ－７１８,,12,207,2700032,,,,,,,2025-09-09,1,,,,,サニーアーク,0
2151,8040003028143,新規,0,2025-09-09,2025-09-09,合同会社Ｇｕｃｈｉ,,合同会社,千葉県,松戸市,小金清志町２丁目６７番６号,,12,207,2700016,,,,,,,2025-09-09,1,,,,,グチ,0
2152,8040003028440,新規,0,2025-09-09,2025-09-09,潤和マネジメント合同会社,,合同会社,千葉県,富里市,日吉倉三丁目１６番クレッサ２１－３０１号室,,12,233,2860202,,,,,,,2025-09-09,1,,,,,ジュンワマネジメント,0
2156,8050001057242,新規,0,2025-09-09,2025-09-09,株式会社菜ノ芽,,株式会社,茨城県,牛久市,桂町２７６４番地２,,08,219,3001281,,,,,,,2025-09-09,1,,,,,サイノメ,0
2159,8060001038555,新規,0,2025-09-09,2025-09-09,ＥＡＩ株式会社,,株式会社,栃木県,那須塩原市,若草町１１８番地５０３,,09,213,3250032,,,,,,,2025-09-09,1,,,,,イーエーアイ,0
2164,8080001027135,新規,0,2025-09-09,2025-09-09,株式会社エネルギーソリューション,,株式会社,静岡県,焼津市,吉永１９３６,,22,212,4210211,,,,,,,2025-09-09,1,,,,,エネルギーソリューション,0
2167,8080401028162,新規,0,2025-09-09,2025-09-09,株式会社フォーシーズ,,株式会社,静岡県,袋井市,諸井１３７０番地の７,,22,216,4371121,,,,,,,2025-09-09,1,,,,,フォーシーズ,0
2190,8120001279358,新規,0,2025-09-09,2025-09-09,柳泉瀛株式会社,,株式会社,大阪府,大阪市城東区,関目５丁目１９番９号関目花博公館１０１Ａ,,27,118,5360008,,,,,,,2025-09-09,1,,,,,リュウセンエイ,0
2191,8120001279374,新規,0,2025-09-09,2025-09-09,温心株式会社,00140592,株式会社,大阪府,大阪市中央区,南久宝寺町１丁目６番１５－３０２号室,,27,128,5410058,,,,,,,2025-09-09,1,,,,,オンシン,0
2192,8120001279399,新規,0,2025-09-09,2025-09-09,株式会社ＧＭ,,株式会社,大阪府,大阪市西区,江戸堀２丁目１－１江戸堀センタービルＢ１Ｆ,,27,106,5500002,,,,,,,2025-09-09,1,,,,,ジーエム,0
2193,8120001279424,新規,0,2025-09-09,2025-09-09,株式会社ハートテック,,株式会社,大阪府,大阪市北区,西天満４丁目３番２５号梅田プラザビル本館１０階,,27,127,5300047,,,,,,,2025-09-09,1,,,,,ハートテック,0
2199,8120003030462,新規,0,2025-09-09,2025-09-09,合同会社瑞鳥,,合同会社,大阪府,大阪市北区,梅田１丁目２番２号大阪駅前第２ビル１２－１２,,27,127,5300001,,,,,,,2025-09-09,1,,,,,ズイチョウ,0
2200,8120003030487,新規,0,2025-09-09,2025-09-09,合同会社Ｐｌａｎｅｔ,,合同会社,大阪府,大阪市住吉区,遠里小野１丁目６番１５号遠里小野マンション１階,,27,120,5580032,,,,,,,2025-09-09,1,,,,,プラネット,0
2201,8120003030504,新規,0,2025-09-09,2025-09-09,Ｌａｍ　Ｈｏｎｇ　Ｍａｒｔ合同会社,,合同会社,大阪府,大阪市住之江区,西加賀屋４丁目５番６号,,27,125,5590016,,,,,,,2025-09-09,1,,,,,ラムホンマート,0
2203,8120101072381,新規,0,2025-09-09,2025-09-09,株式会社Ｓｔａｒｔ　ｐｌｕｓ,,株式会社,大阪府,堺市北区,長曽根町３０５６番９先野ビル３０１号室,,27,146,5918025,,,,,,,2025-09-09,1,,,,,スタートプラス,0
2204,8120103006676,新規,0,2025-09-09,2025-09-09,合同会社Ｋ＆Ｒ,,合同会社,大阪府,堺市西区,鳳中町３丁７５番地８,,27,144,5938327,,,,,,,2025-09-09,1,,,,,ケイアンドアール,0
2207,8120903005844,新規,0,2025-09-09,2025-09-09,合同会社國井企画,,合同会社,大阪府,吹田市,桃山台１丁目１番１,,27,205,5650854,,,,,,,2025-09-09,1,,,,,クニイキカク,0
2209,8122003003308,新規,0,2025-09-09,2025-09-09,Ｌｉｎｋ合同会社,,合同会社,大阪府,東大阪市,永和３丁目５番１２号,,27,227,5770809,,,,,,,2025-09-09,1,,,,,リンク,0
2211,8130001080533,新規,0,2025-09-09,2025-09-09,楽居株式会社,,株式会社,京都府,京都市下京区,西洞院通仏光寺下る本柳水町７７７番地－４０３号室,,26,106,6008462,,,,,,,2025-09-09,1,,,,,ラクキョ,0
2212,8130001080541,新規,0,2025-09-09,2025-09-09,株式会社ボークスプランニング,,株式会社,京都府,亀岡市,南つつじケ丘大葉台２丁目７番１８号,,26,206,6210846,,,,,,,2025-09-09,1,,,,,ボークスプランニング,0
2214,8130005017449,新規,0,2025-09-09,2025-09-09,京都銀行従業員組合,,その他の設立登記法人,京都府,京都市南区,久世高田町３７６番地７株式会社京都銀行金融大学校桂川キャンパス内,,26,107,6018211,,,,,,,2025-09-09,1,,,,,キョウトギンコウ,0
2221,8140001139972,新規,0,2025-09-09,2025-09-09,株式会社ＯＴＩＵＮＡ,,株式会社,兵庫県,姫路市,西庄甲２９６－１５,,28,201,6700981,,,,,,,2025-09-09,1,,,,,オティウナ,0
2224,8140003022508,新規,0,2025-09-09,2025-09-09,ＣｈｒｏｎｏｓＧａｍｅ合同会社,,合同会社,兵庫県,神戸市中央区,磯辺通１丁目１番１８号カサベラ国際プラザビル,,28,110,6510084,,,,,,,2025-09-09,1,,,,,クロノスゲーム,0
2234,8180001168539,新規,0,2025-09-09,2025-09-09,株式会社ＫＡＴ,,株式会社,愛知県,名古屋市名東区,引山１丁目１００５番地サンリバーＫ１０１号,,23,115,4650002,,,,,,,2025-09-09,1,,,,,ケイエイティー,0
2235,8180001168547,新規,0,2025-09-09,2025-09-09,ｓｉｎｃｅｒｅ株式会社,,株式会社,愛知県,名古屋市西区,中小田井４丁目１２５番地,,23,104,4520822,,,,,,,2025-09-09,1,,,,,シンシア,0
2241,8190001032512,新規,0,2025-09-09,2025-09-09,株式会社ＮＫラピス,,株式会社,三重県,津市,栄町２丁目４６２番地,,24,201,5140004,,,,,,,2025-09-09,1,,,,,エヌケーラピス,0
2243,8200001044209,新規,0,2025-09-09,2025-09-09,ＦＲ　ＴＲＡＤＩＮＧ株式会社,,株式会社,岐阜県,美濃加茂市,加茂野町加茂野１番地４８小瀬木マンション１０６号室,,21,211,5050054,,,,,,,2025-09-09,1,,,,,エフアールトレーディング,0
2248,8220001026915,新規,0,2025-09-09,2025-09-09,株式会社Ｇｌｕｏｎｅｘ＆Ｃｏ．,,株式会社,石川県,加賀市,高尾町い７８６番地１,,17,206,9220562,,,,,,,2025-09-09,1,,,,,グルーネクスアンドカンパニー,0
2254,8240001065473,新規,0,2025-09-09,2025-09-09,株式会社ＡＭＲ,,株式会社,広島県,広島市中区,西十日市町１０番１３－３０２号,,34,101,7300806,,,,,,,2025-09-09,1,,,,,エーエムアール,0
2256,8240003007399,新規,0,2025-09-09,2025-09-09,スマイル合同会社,,合同会社,広島県,東広島市,西条町御薗宇６９１６－３,,34,212,7390024,,,,,,,2025-09-09,1,,,,,スマイル,0
2259,8260003005335,新規,0,2025-09-09,2025-09-09,合同会社ジュウキショウカイ,,合同会社,岡山県,岡山市中区,浜１丁目６番２２号メゾン司Ａ３０６,,33,102,7038256,,,,,,,2025-09-09,1,,,,,ジュウキショウカイ,0
2264,8290001111272,新規,0,2025-09-09,2025-09-09,株式会社Ｒｅｔｒｏ　Ｗｉｓｔｅｒｉａ,,株式会社,福岡県,福岡市中央区,西中洲３－１９－１０３,,40,133,8100002,,,,,,,2025-09-09,1,,,,,レトロウィステリア,0
2265,8290001111280,新規,0,2025-09-09,2025-09-09,株式会社ドンピエール,,株式会社,福岡県,福岡市城南区,松山１丁目１５－３－１０６,,40,136,8140131,,,,,,,2025-09-09,1,,,,,ドンピエール,0
2266,8290003017427,新規,0,2025-09-09,2025-09-09,黒岩電機合同会社,,合同会社,福岡県,三井郡大刀洗町,大字本郷１１３８,,40,503,8301211,,,,,,,2025-09-09,1,,,,,クロイワデンキ,0
2275,8360001035753,新規,0,2025-09-09,2025-09-09,株式会社ＧＵＳＱ,,株式会社,沖縄県,うるま市,字江洲５４９番地９,,47,213,9042244,,,,,,,2025-09-09,1,,,,,グスク,0
2279,8370001053011,新規,0,2025-09-09,2025-09-09,シナジーパートナーズ株式会社,,株式会社,宮城県,仙台市青葉区,本町１丁目１２番３１―２０２号,,04,101,9800014,,,,,,,2025-09-09,1,,,,,シナジーパートナーズ,0
2282,8380003006123,新規,0,2025-09-09,2025-09-09,合同会社Ｍｕｓｕｂｉ,,合同会社,福島県,郡山市,中町１０－１０郡山ビューホテルアネックス５階,,07,203,9638004,,,,,,,2025-09-09,1,,,,,ムスビ,0
2284,8400001017169,新規,0,2025-09-09,2025-09-09,ナックス株式会社,,株式会社,岩手県,紫波郡紫波町,桜町１丁目１２番地１,,03,321,0283307,,,,,,,2025-09-09,1,,,,,ナックス,0
2290,8430003018105,新規,0,2025-09-09,2025-09-09,合同会社ＬＫ,,合同会社,北海道,札幌市中央区,南五条西１５丁目２番３－５０３号,,01,101,0640805,,,,,,,2025-09-09,1,,,,,エルケー,0
2293,8450001014731,新規,0,2025-09-09,2025-09-09,株式会社千客万来,,株式会社,北海道,深川市,三条７番１８号,,01,228,0740003,,,,,,,2025-09-09,1,,,,,センキャクバンライ,0
2294,8460103001742,新規,0,2025-09-09,2025-09-09,合同会社Ｅｎｂｒｉｄｇｅ,,合同会社,北海道,河西郡芽室町,東九条６丁目２番地４,,01,637,0820019,,,,,,,2025-09-09,1,,,,,エンブリッジ,0
2295,8462503000233,新規,0,2025-09-09,2025-09-09,合同会社ｋｉｍｕｒａ．,,合同会社,北海道,野付郡別海町,別海１３１番地の１３３,,01,691,0860216,,,,,,,2025-09-09,1,,,,,キムラ,0
2306,8700150131954,新規,0,2025-09-09,2025-09-09,上海太可美タイ科技有限公司,,外国会社等,,,,,,,,上海市閔行区申長路５１８号１幢８層８０６室,,,,,,2025-09-09,1,,,,,シヤンハイタイカビタイカギユウゲンコウシ,0
2312,9010001258033,新規,0,2025-09-09,2025-09-09,ＳＫ株式会社,,株式会社,東京都,中央区,京橋２丁目６番５号ラング・タワー京橋４０２,,13,102,1040031,,,,,,,2025-09-09,1,,,,,エスケイ,0
2313,9010001258198,新規,0,2025-09-09,2025-09-09,株式会社Ａｕｖｉｎｅ,,株式会社,東京都,中央区,銀座１丁目１２番４号ＮＥビル６階,,13,102,1040061,,,,,,,2025-09-09,1,,,,,オーヴィン,0
2314,9010001258207,新規,0,2025-09-09,2025-09-09,株式会社ラピッドストリーム,,株式会社,東京都,千代田区,神田佐久間町２丁目１８番地１秋葉原ＳＴＮフロント１０階,,13,101,1010025,,,,,,,2025-09-09,1,,,,,ラピッドストリーム,0
2315,9010001258223,新規,0,2025-09-09,2025-09-09,エスエムティー株式会社,,株式会社,東京都,中央区,銀座８丁目１０番７号東成ビル２階,,13,102,1040061,,,,,,,2025-09-09,1,,,,,エスエムティー,0
2316,9010001258231,新規,0,2025-09-09,2025-09-09,株式会社ｗｉｓｈｒｏｎ,,株式会社,東京都,中央区,銀座１丁目１２－４Ｎ＆ＥＢＬＤ．７階,,13,102,1040061,,,,,,,2025-09-09,1,,,,,ウィシュロン,0
2317,9010001258264,新規,0,2025-09-09,2025-09-09,株式会社ニュートンダイナミクス,,株式会社,東京都,中央区,京橋１丁目１６番１０号,,13,102,1040031,,,,,,,2025-09-09,1,,,,,ニュートンダイナミクス,0
2318,9010001258347,新規,0,2025-09-09,2025-09-09,株式会社医縁,,株式会社,東京都,千代田区,神田錦町３丁目１５－２９４号,,13,101,1010054,,,,,,,2025-09-09,1,,,,,イエン,0
2319,9010001258371,新規,0,2025-09-09,2025-09-09,Ｒｉｖｅｒ　Ｇａｍｅ株式会社,,株式会社,東京都,中央区,湊３丁目２番７朝日銀座東ビル,,13,102,1040043,,,,,,,2025-09-09,1,,,,,リバーゲーム,0
2320,9010001258388,新規,0,2025-09-09,2025-09-09,株式会社Ｒｏｏｔ＆Ｒ,,株式会社,東京都,中央区,銀座１丁目１２番４号Ｎ＆Ｅビル７階,,13,102,1040061,,,,,,,2025-09-09,1,,,,,ルートアンドアール,0
2321,9010001258405,新規,0,2025-09-09,2025-09-09,森湘ホールディングス株式会社,,株式会社,東京都,中央区,銀座８丁目１５番２号ＡＣＮ銀座ビル７階,,13,102,1040061,,,,,,,2025-09-09,1,,,,,モリショウホールディングス,0
2324,9010003048663,新規,0,2025-09-09,2025-09-09,ＩＶＹ　ＳＰＡＣＥ合同会社,,合同会社,東京都,文京区,小石川５丁目６番９－１１０８号,,13,105,1120002,,,,,,,2025-09-09,1,,,,,アイビースペース,0
2325,9010003048671,新規,0,2025-09-09,2025-09-09,合同会社ＳＭＬ　Ｊ　ＨＯＴＥＬ１,,合同会社,東京都,中央区,新川１丁目１７番１８号,,13,102,1040033,,,,,,,2025-09-09,1,,,,,エスエムエルジェイホテルワン,0
2326,9010003048696,新規,0,2025-09-09,2025-09-09,Ｃｒｅａｔｉｖｅ　Ｗａｎｄ合同会社,,合同会社,東京都,千代田区,東神田１丁目１６番１２－１００３号,,13,101,1010031,,,,,,,2025-09-09,1,,,,,クリエイティブワンド,0
2329,9010005040635,新規,0,2025-09-09,2025-09-09,加古川特定目的会社,,その他の設立登記法人,東京都,千代田区,飯田橋４丁目７番１号結和税理士法人内,,13,101,1020072,,,,,,,2025-09-09,1,,,,,カコガワ,0
2330,9010005040643,新規,0,2025-09-09,2025-09-09,医療法人社団ノエル,,その他の設立登記法人,東京都,中央区,銀座２丁目５番１４号銀座マロニエビル７Ｆ,,13,102,1040061,,,,,,,2025-09-09,1,,,,,ノエル,0
2333,9010401192773,新規,0,2025-09-09,2025-09-09,株式会社ＴＷＩＳＴ,,株式会社,東京都,港区,北青山１丁目３－３三橋ビル３階,,13,103,1070061,,,,,,,2025-09-09,1,,,,,ツイスト,0
2334,9010401192889,新規,0,2025-09-09,2025-09-09,株式会社Ｇ‐ｐｒｏ,,株式会社,東京都,港区,六本木７丁目７番７号,,13,103,1060032,,,,,,,2025-09-09,1,,,,,ジィプロ,0
2335,9010401192914,新規,0,2025-09-09,2025-09-09,株式会社Ｔｈａｌｅｉａ　Ａｓｓｅｔ,,株式会社,東京都,港区,麻布十番２丁目２１番６号アクシア麻布９０７,,13,103,1060045,,,,,,,2025-09-09,1,,,,,タレイアアセット,0
2336,9010401192939,新規,0,2025-09-09,2025-09-09,ＡＳＩＳＴ８株式会社,,株式会社,東京都,港区,港南２丁目１６番７－３５０８号,,13,103,1080075,,,,,,,2025-09-09,1,,,,,アシストエイト,0
2337,9010401192963,新規,0,2025-09-09,2025-09-09,ＯＲＣＡ　ＣＡＰＩＴＡＬ株式会社,,株式会社,東京都,港区,南青山６丁目１３番２４号,,13,103,1070062,,,,,,,2025-09-09,1,,,,,オルカキャピタル,0
2342,9010405024634,新規,0,2025-09-09,2025-09-09,一般財団法人ガクシー財団,,その他の設立登記法人,東京都,港区,西新橋１丁目１番１号１０Ｆ、ＷｅＷｏｒｋ日比谷ＦＯＲＴＴＯＷＥＲ,,13,103,1050003,,,,,,,2025-09-09,1,,,,,ガクシーザイダン,0
2343,9010405024667,新規,0,2025-09-09,2025-09-09,一般社団法人干支氣學協会,,その他の設立登記法人,東京都,港区,赤坂６丁目１３番１９号オリエント赤坂２０１,,13,103,1070052,,,,,,,2025-09-09,1,,,,,カンシキガクキョウカイ,0
2344,9010501054659,新規,0,2025-09-09,2025-09-09,マスター会計株式会社,,株式会社,東京都,台東区,花川戸１丁目３番６号,,13,106,1110033,,,,,,,2025-09-09,1,,,,,,0
2345,9010501054683,新規,0,2025-09-09,2025-09-09,ｅｋｏｙｕ株式会社,,株式会社,東京都,台東区,橋場２丁目１番１０－１０４号,,13,106,1110023,,,,,,,2025-09-09,1,,,,,エコユ,0
2347,9010601067858,新規,0,2025-09-09,2025-09-09,株式会社ＧＥＮＥＮ,,株式会社,東京都,墨田区,両国３丁目５－３－４Ｆ,,13,107,1300026,,,,,,,2025-09-09,1,,,,,ゲンエン,0
2353,9010803005525,新規,0,2025-09-09,2025-09-09,合同会社Ａｌｌ　Ｍｅｄｉｃａｌ　Ｓｕｐｐｏｒｔ,,合同会社,東京都,大田区,池上２丁目１９番２０号アネシス池上２０４,,13,111,1460082,,,,,,,2025-09-09,1,,,,,オールメディカルサポート,0
2354,9010803005533,新規,0,2025-09-09,2025-09-09,合同会社プラダ,,合同会社,東京都,大田区,蒲田５丁目２０番３号,,13,111,1440052,,,,,,,2025-09-09,1,,,,,プラダ,0
2355,9010805003205,新規,0,2025-09-09,2025-09-09,一般社団法人Ｆｕｔｕｒｅ　Ｍｅｄｉｃａｌ　Ｆａｒｍ,,その他の設立登記法人,東京都,大田区,西蒲田７丁目４番４号小山第２ビル１Ｆ,,13,111,1440051,,,,,,,2025-09-09,1,,,,,フューチャーメディカルファーム,0
2360,9011001171242,新規,0,2025-09-09,2025-09-09,株式会社Ｂｌｕｅ　Ｒｅｂｕｉｌｄ,,株式会社,東京都,渋谷区,道玄坂１丁目１０番８号渋谷道玄坂東急ビル２Ｆ－Ｃ,,13,113,1500043,,,,,,,2025-09-09,1,,,,,ブルーリビルド,0
2361,9011001171671,新規,0,2025-09-09,2025-09-09,５０ｐｅｒｃｅｎｔ株式会社,,株式会社,東京都,渋谷区,広尾１丁目２番地１号ヒカリビル４階,,13,113,1500012,,,,,,,2025-09-09,1,,,,,フィフティパーセント,0
2362,9011001171837,新規,0,2025-09-09,2025-09-09,株式会社バスケスタッツ,,株式会社,東京都,渋谷区,道玄坂１丁目１０番８号渋谷道玄坂東急ビル２Ｆ－Ｃ,,13,113,1500043,,,,,,,2025-09-09,1,,,,,バスケスタッツ,0
2363,9011001171861,新規,0,2025-09-09,2025-09-09,株式会社ｂｅａｔ,,株式会社,東京都,目黒区,上目黒２丁目１２－１３前田ビル２Ｆ,,13,110,1530051,,,,,,,2025-09-09,1,,,,,ビート,0
2368,9011101023277,新規,0,2025-09-09,2025-09-09,株式会社大平工務店,,株式会社,東京都,新宿区,弁天町１７８番地,,13,104,1620851,,,,,,,2025-09-09,1,,,,,オオヒラコウムテン,0
2380,9011201026618,新規,0,2025-09-09,2025-09-09,株式会社ＴｅａｍＢ,,株式会社,東京都,中野区,中野５丁目６７番７号プラザ中野８０１,,13,114,1640001,,,,,,,2025-09-09,1,,,,,チームビー,0
2381,9011201026626,新規,0,2025-09-09,2025-09-09,来株式会社,,株式会社,東京都,中野区,中央４丁目４番３－４０４号,,13,114,1640011,,,,,,,2025-09-09,1,,,,,ライ,0
2384,9011603004832,新規,0,2025-09-09,2025-09-09,アドニス合同会社,,合同会社,東京都,練馬区,高松６丁目２１番５号,,13,120,1790075,,,,,,,2025-09-09,1,,,,,アドニス,0
2385,9011605002669,新規,0,2025-09-09,2025-09-09,医療法人社団三穏会,,その他の設立登記法人,東京都,練馬区,貫井１丁目１番４号トレスリーオス４階,,13,120,1760021,,,,,,,2025-09-09,1,,,,,サンオンカイ,0
2386,9011701028683,新規,0,2025-09-09,2025-09-09,ＳＨＩＮＹ　ＢＵＤＤＹ株式会社,,株式会社,東京都,江戸川区,東小岩６丁目３３－１８ＺＫＹビル４０４号室,,13,123,1330052,,,,,,,2025-09-09,1,,,,,シャイニーバディ,0
2387,9011701028691,新規,0,2025-09-09,2025-09-09,海和株式会社,,株式会社,東京都,江戸川区,北小岩８丁目２６－１クレセントトモナ２０７号室,,13,123,1330051,,,,,,,2025-09-09,1,,,,,カイワ,0
2393,9012301014529,新規,0,2025-09-09,2025-09-09,株式会社トリリオン,,株式会社,東京都,町田市,金森１丁目７番３０号第２茜荘１３号,,13,209,1940012,,,,,,,2025-09-09,1,,,,,トリリオン,0
2398,9012703003369,新規,0,2025-09-09,2025-09-09,ＳＵＢＨＡＳＨＲＥＥ合同会社,,合同会社,東京都,東村山市,栄町３丁目１３番地１５大洋ビル２０３号,,13,213,1890013,,,,,,,2025-09-09,1,,,,,スバシリ,0
2399,9012803003847,新規,0,2025-09-09,2025-09-09,合同会社グリ,,合同会社,東京都,日野市,西平山１丁目３０－１２,,13,212,1910055,,,,,,,2025-09-09,1,,,,,グリ,0
2407,9020001164627,新規,0,2025-09-09,2025-09-09,株式会社ｔｅｒａｓｉｃａ,,株式会社,神奈川県,横浜市旭区,市沢町９３番地２０,,14,112,2410014,,,,,,,2025-09-09,1,,,,,テラシカ,0
2408,9020001164668,新規,0,2025-09-09,2025-09-09,株式会社ｉｎｔｅｒｆａｃｅ,,株式会社,神奈川県,川崎市多摩区,長尾４丁目４番１号,,14,135,2140023,,,,,,,2025-09-09,1,,,,,インターフェイス,0
2409,9020001164718,新規,0,2025-09-09,2025-09-09,株式会社ＭＮインベストメント,,株式会社,神奈川県,川崎市中原区,新城中町１４番２９号,,14,133,2110043,,,,,,,2025-09-09,1,,,,,エムエヌインベストメント,0
2410,9020001164734,新規,0,2025-09-09,2025-09-09,Ｃｒｉｅコンサルティング株式会社,,株式会社,神奈川県,横浜市中区,太田町６丁目７９－５０２,,14,104,2310011,,,,,,,2025-09-09,1,,,,,クリエコンサルティング,0
2411,9020001164750,新規,0,2025-09-09,2025-09-09,株式会社ジュエリーサンフラワー,,株式会社,神奈川県,横浜市神奈川区,三ツ沢南町５番２２号,,14,102,2210854,,,,,,,2025-09-09,1,,,,,ジュエリーサンフラワー,0
2412,9020001164783,新規,0,2025-09-09,2025-09-09,株式会社ＬＯＯＫ　ＵＰ,,株式会社,神奈川県,横浜市神奈川区,鶴屋町１丁目４１番地２０１３号,,14,102,2210835,,,,,,,2025-09-09,1,,,,,ルックアップ,0
2414,9020003029282,新規,0,2025-09-09,2025-09-09,合同会社一会,,合同会社,神奈川県,横浜市泉区,和泉中央南４丁目２１番２８号,,14,116,2450023,,,,,,,2025-09-09,1,,,,,イチエ,0
2415,9020003029299,新規,0,2025-09-09,2025-09-09,合同会社希,,合同会社,神奈川県,川崎市高津区,子母口８３番地１７,,14,134,2130023,,,,,,,2025-09-09,1,,,,,ノゾミ,0
2419,9021001086209,新規,0,2025-09-09,2025-09-09,株式会社結城,,株式会社,神奈川県,相模原市南区,新磯野４丁目２番４－４０９号,,14,153,2520325,,,,,,,2025-09-09,1,,,,,ユウキ,0
2425,9030001168478,新規,0,2025-09-09,2025-09-09,株式会社鷹光ホールディングス,,株式会社,埼玉県,川口市,東川口１丁目１９番１６号ベレオヴィラリーブス東川口３０２号,,11,203,3330801,,,,,,,2025-09-09,1,,,,,タカミツホールディングス,0
2426,9030001168486,新規,0,2025-09-09,2025-09-09,株式会社ＦＳＳホールディングス,,株式会社,埼玉県,ふじみ野市,上福岡２丁目６番１０号,,11,245,3560004,,,,,,,2025-09-09,1,,,,,エフエスエスホールディングス,0
2427,9030001168511,新規,0,2025-09-09,2025-09-09,株式会社リクノア,,株式会社,埼玉県,日高市,大字中鹿山４５２－５９,,11,242,3501232,,,,,,,2025-09-09,1,,,,,リクノア,0
2428,9030001168536,新規,0,2025-09-09,2025-09-09,株式会社イーアクション,,株式会社,埼玉県,上尾市,二ツ宮７１１－８,,11,219,3620017,,,,,,,2025-09-09,1,,,,,イーアクション,0
2429,9030001168593,新規,0,2025-09-09,2025-09-09,株式会社ＲＣ,,株式会社,埼玉県,所沢市,大字上安松７９６番地,,11,208,3590025,,,,,,,2025-09-09,1,,,,,アールシー,0
2438,9040003028456,新規,0,2025-09-09,2025-09-09,合同会社ＦＬＯＰＴＩＯＮ,,合同会社,千葉県,松戸市,横須賀１丁目１番地の９、１Ｆ,,12,207,2700031,,,,,,,2025-09-09,1,,,,,フロプション,0
2441,9050001057241,新規,0,2025-09-09,2025-09-09,株式会社トラストホーム,,株式会社,茨城県,古河市,女沼１６３６番地４,,08,204,3060226,,,,,,,2025-09-09,1,,,,,トラストホーム,0
2445,9060003005718,新規,0,2025-09-09,2025-09-09,合同会社Ａｍａｂｉｌｅ,,合同会社,栃木県,那須塩原市,寺子２２２１番地,,09,213,3250011,,,,,,,2025-09-09,1,,,,,アマービレ,0
2446,9060003005742,新規,0,2025-09-09,2025-09-09,合同会社在宅ケアいちごの会,,合同会社,栃木県,真岡市,西田井番外８番地９,,09,209,3214301,,,,,,,2025-09-09,1,,,,,ザイタクケアイチゴノカイ,0
2448,9080001027134,新規,0,2025-09-09,2025-09-09,まごころ不動産株式会社,,株式会社,静岡県,焼津市,三ケ名１２５５番地の１－Ａ１,,22,212,4250071,,,,,,,2025-09-09,1,,,,,マゴコロフドウサン,0
2449,9080103003413,新規,0,2025-09-09,2025-09-09,力ファーム合同会社,,合同会社,静岡県,沼津市,西浦立保９７番地,,22,203,4100235,,,,,,,2025-09-09,1,,,,,チカラファーム,0
2455,9100001038946,新規,0,2025-09-09,2025-09-09,株式会社スノードロップ,,株式会社,長野県,長野市,大字下駒沢４０２番地１４,,20,201,3810008,,,,,,,2025-09-09,1,,,,,スノードロップ,0
2456,9100003008377,新規,0,2025-09-09,2025-09-09,デジファク合同会社,,合同会社,長野県,長野市,稲里町中央３丁目３番４７－２０１号カーサパトリアＢ棟,,20,201,3812217,,,,,,,2025-09-09,1,,,,,デジファク,0
2460,9110003005877,新規,0,2025-09-09,2025-09-09,合同会社みらい,,合同会社,新潟県,上越市,中央１丁目２６番４５号,,15,222,9420001,,,,,,,2025-09-09,1,,,,,ミライ,0
2473,9120001279349,新規,0,2025-09-09,2025-09-09,新星通信株式会社,,株式会社,大阪府,大阪市阿倍野区,天王寺町南２丁目２２番３号ＮＡＧＡＩメゾン天王寺南５０６号室,,27,119,5450002,,,,,,,2025-09-09,1,,,,,シンセイツウシン,0
2474,9120001279423,新規,0,2025-09-09,2025-09-09,株式会社ｉｌｉｙ,,株式会社,大阪府,大阪市北区,同心２丁目１４番１５号,,27,127,5300035,,,,,,,2025-09-09,1,,,,,イリ,0
2475,9120001279448,新規,0,2025-09-09,2025-09-09,株式会社Ｌｉｈｉ,,株式会社,大阪府,大阪市中央区,東心斎橋１丁目１２番１４号ＺｅｌｋｏｖａＵＮＯ５Ｆ,,27,128,5420083,,,,,,,2025-09-09,1,,,,,リヒ,0
2476,9120001279464,新規,0,2025-09-09,2025-09-09,株式会社ＦＥＬＩＭＯ,,株式会社,大阪府,大阪市中央区,南本町２丁目３番１２号ＥＤＧＥ本町３Ｆ,,27,128,5410054,,,,,,,2025-09-09,1,,,,,フェリモ,0
2477,9120001279679,新規,0,2025-09-09,2025-09-09,嵐宿株式会社,,株式会社,大阪府,大阪市西成区,萩之茶屋２丁目６－４ニューかめや２７０,,27,122,5570004,,,,,,,2025-09-09,1,,,,,アラシュク,0
2483,9120101072356,新規,0,2025-09-09,2025-09-09,株式会社リッカメディカル,,株式会社,大阪府,富田林市,西板持町７丁目６番１３号,,27,214,5840048,,,,,,,2025-09-09,1,,,,,リッカメディカル,0
2484,9120101072364,新規,0,2025-09-09,2025-09-09,ベルクロシェット株式会社,,株式会社,大阪府,堺市南区,新檜尾台１丁５番１０号,,27,145,5900143,,,,,,,2025-09-09,1,,,,,ベルクロシェット,0
2485,9120101072372,新規,0,2025-09-09,2025-09-09,株式会社Ｓａｋｕｒａ　Ｂｌｏｏｍ,,株式会社,大阪府,岸和田市,別所町１丁目１０番１１号,,27,202,5960045,,,,,,,2025-09-09,1,,,,,サクラブルーム,0
2486,9120101072397,新規,0,2025-09-09,2025-09-09,株式会社花田会計,,株式会社,大阪府,岸和田市,別所町３丁目１０－４,,27,202,5960045,,,,,,,2025-09-09,1,,,,,ハナダカイケイ,0
2488,9120103006675,新規,0,2025-09-09,2025-09-09,合同会社ＷＲＸ,,合同会社,大阪府,堺市美原区,北余部３２６番地１６,,27,147,5870051,,,,,,,2025-09-09,1,,,,,ダブルアールエックス,0
2492,9122001039625,新規,0,2025-09-09,2025-09-09,株式会社ＮＲｉｓｅ,,株式会社,大阪府,柏原市,大正２丁目２番２２号,,27,221,5820009,,,,,,,2025-09-09,1,,,,,エヌライズ,0
2501,9130001080458,新規,0,2025-09-09,2025-09-09,株式会社バディアス,,株式会社,京都府,京都市下京区,七条通油小路東入大黒町２２７番地第２キョートビル４０２,,26,106,6008223,,,,,,,2025-09-09,1,,,,,バディアス,0
2502,9130001080482,新規,0,2025-09-09,2025-09-09,株式会社飯田美術,,株式会社,京都府,京都市上京区,五辻通浄福寺西入る一色町２７番地の１メガロコープ西陣１号棟５０４号,00140588,26,102,6020000,,,,,,,2025-09-09,1,,,,,イイダビジュツ,0
2506,9130003010751,新規,0,2025-09-09,2025-09-09,ＥＪＴ合同会社,,合同会社,京都府,京都市下京区,猪熊通五条上る柿本町５９３番地２グレーシァス堀川１１０２,,26,106,6008357,,,,,,,2025-09-09,1,,,,,イージェーティー,0
2511,9140001139939,新規,0,2025-09-09,2025-09-09,株式会社まつのや,,株式会社,兵庫県,神戸市東灘区,深江浜町７０番地,,28,101,6580023,,,,,,,2025-09-09,1,,,,,マツノヤ,0
2522,9180001168595,新規,0,2025-09-09,2025-09-09,株式会社ダイオー,,株式会社,愛知県,名古屋市中区,丸の内３丁目１３番１１号,,23,106,4600002,,,,,,,2025-09-09,1,,,,,ダイオー,0
2526,9180003028995,新規,0,2025-09-09,2025-09-09,合同会社エムクリエイト,,合同会社,愛知県,愛西市,柚木町東田面１１５０番地４１,,23,232,4960904,,,,,,,2025-09-09,1,,,,,エムクリエイト,0
2532,9190003005168,新規,0,2025-09-09,2025-09-09,合同会社Ｗｏｏｇｏｓ,,合同会社,三重県,四日市市,鵜の森２丁目７５７番地１,,24,202,5100074,,,,,,,2025-09-09,1,,,,,ウーゴス,0
2538,9210001020307,新規,0,2025-09-09,2025-09-09,株式会社徳太夫,,株式会社,福井県,今立郡池田町,野尻１１番３号１０２Ａ,,18,382,9102502,,,,,,,2025-09-09,1,,,,,トクダヨ,0
2540,9230001021071,新規,0,2025-09-09,2025-09-09,株式会社シー・エス・エー・ジャパン,,株式会社,富山県,砺波市,豊町１丁目８番４号豊町ハイツ５０１号室,,16,208,9391364,,,,,,,2025-09-09,1,,,,,シーエスエージャパン,0
2543,9240001065480,新規,0,2025-09-09,2025-09-09,株式会社ＹＵ．ＨＡＵＳ,,株式会社,広島県,広島市中区,平野町２番３１号１Ｆ,,34,101,7300047,,,,,,,2025-09-09,1,,,,,ユウハウス,0
2546,9260001040523,新規,0,2025-09-09,2025-09-09,株式会社Ｄ‐ＴＥＣＨ,,株式会社,岡山県,岡山市中区,山崎１５７番地３,,33,102,7038267,,,,,,,2025-09-09,1,,,,,ディーテック,0
2548,9260003005334,新規,0,2025-09-09,2025-09-09,合同会社Ｍ．Ｍ建機貿易,,合同会社,岡山県,岡山市北区,津島京町３丁目６番２０号サンライズ津島京町２０９,,33,101,7000087,,,,,,,2025-09-09,1,,,,,エムエムケンキボウエキ,0
2550,9270003001786,新規,0,2025-09-09,2025-09-09,合同会社ＨＲＺＮ,,合同会社,鳥取県,倉吉市,上余戸２３７－１チェリーハウスＨ１０３,,31,203,6820032,,,,,,,2025-09-09,1,,,,,ホライゾン,0
2559,9320001021319,新規,0,2025-09-09,2025-09-09,株式会社翔,,株式会社,大分県,豊後大野市,緒方町馬場３０７番１号,,44,212,8796601,,,,,,,2025-09-09,1,,,,,ショウ,0
2568,9360001035752,新規,0,2025-09-09,2025-09-09,株式会社Ｂｒｉｏ　Ｗｏｒｋｓ,,株式会社,沖縄県,沖縄市,高原２丁目８番４０号ルピナス高原オーシャンビュー６０１,,47,211,9042171,,,,,,,2025-09-09,1,,,,,ブリオワークス,0
2570,9370003007278,新規,0,2025-09-09,2025-09-09,合同会社ＬＯＶＥ＆ＲＡＩＫＵ,,合同会社,宮城県,岩沼市,藤浪１丁目１番８号,,04,211,9892434,,,,,,,2025-09-09,1,,,,,ラブアンドライク,0
2590,9430001095153,新規,0,2025-09-09,2025-09-09,株式会社ｆｕｌ．ｌａｂ,,株式会社,北海道,札幌市中央区,南一条西５丁目５番地５,,01,101,0600061,,,,,,,2025-09-09,1,,,,,フルラボ,0
2599,9480001012938,新規,0,2025-09-09,2025-09-09,ＳＴＡＲ‐ＬＩＧＨＴ　ＭＥＤＩＣＡＬ株式会社,,株式会社,徳島県,徳島市,南庄町２丁目４４‐５,,36,201,7700045,,,,,,,2025-09-09,1,,,,,スターライトメディカル,0
2600,9490003002044,新規,0,2025-09-09,2025-09-09,合同会社ネルアポ,,合同会社,高知県,南国市,緑ケ丘２丁目８０７番地,,39,204,7830086,,,,,,,2025-09-09,1,,,,,ネルアポ,0
