sequenceNumber,corporateNumber,process,correct,updateDate,changeDate,name,nameImageId,kind,prefectureName,cityName,streetNumber,addressImageId,prefectureCode,cityCode,postCode,addressOutside,addressOutsideImageId,closeDate,closeCause,successorCorporateNumber,changeCause,assignmentDate,latest,enName,enPrefectureName,enCityName,enAddressOutside,furigana,hihyoji
1,1010001023163,登記記録の閉鎖等,0,2023-11-14,2023-11-10,株式会社天津飯店埼玉,,株式会社,東京都,中野区,江原町３丁目２３番９号,,13,114,1650023,,,2023-11-10,合併による解散等,1013201019121,令和５年１１月１０日東京都中野区江原町三丁目２３番９号株式会社天津飯店ホールディングス（1013201019121）に合併し解散,2015-10-05,1,,,,,テンシンハンテンサイタマ,0
41,1011001116469,登記記録の閉鎖等,0,2023-11-14,2023-11-06,株式会社高橋ビル,00110277,株式会社,東京都,渋谷区,西原１丁目３１番７号,,13,113,1510066,,,2023-11-06,清算の結了等,,,2017-05-23,1,,,,,,0
52,1011203001691,登記記録の閉鎖等,0,2023-11-14,2023-11-02,合同会社けやき,,合同会社,埼玉県,朝霞市,根岸台６丁目１０番３３号メイツ根岸台１階,,11,227,3510005,,,2023-11-02,清算の結了等,,,2015-10-05,1,,,,,ケヤキ,0
61,1011702010061,登記記録の閉鎖等,0,2023-11-14,2023-11-09,有限会社二見屋,,有限会社,東京都,江戸川区,西小松川町３７番３号,,13,123,1320032,,,2023-11-09,清算の結了等,,,2015-10-05,1,,,,,フタミヤ,0
85,1021001006520,登記記録の閉鎖等,0,2023-11-14,2023-10-27,株式会社アイワーク,,株式会社,神奈川県,茅ヶ崎市,香川４丁目２９番３０号,,14,207,2530082,,,2023-10-27,清算の結了等,,,2015-10-05,1,,,,,アイワーク,0
94,1030002028275,登記記録の閉鎖等,0,2023-11-14,2023-11-06,有限会社インテリアいとう,,有限会社,埼玉県,所沢市,若狭２丁目２５８０番地の１１４,,11,208,3591151,,,2023-11-06,清算の結了等,,,2015-10-05,1,,,,,インテリアイトウ,0
100,1040001079987,登記記録の閉鎖等,0,2023-11-14,2023-11-09,株式会社エスケーマッシモ,,株式会社,埼玉県,三郷市,半田６３３,,11,237,3410012,,,2023-11-09,合併による解散等,8040001040942,令和５年１１月１日千葉県松戸市常盤平七丁目３０番地の１３株式会社アイサービス（8040001040942）に合併し解散,2015-10-05,1,,,,,エスケーマッシモ,0
104,1040002046978,登記記録の閉鎖等,0,2023-11-14,2023-11-06,有限会社武川電気,,有限会社,千葉県,松戸市,樋野口５３８番地,,12,207,2710067,,,2023-11-06,清算の結了等,,,2015-10-05,1,,,,,タケカワデンキ,0
108,1050002024405,登記記録の閉鎖等,0,2023-11-14,2023-11-07,有限会社イトウニット,,有限会社,茨城県,古河市,東牛谷１０５２番地の６,,08,204,3060232,,,2023-11-07,清算の結了等,,,2015-10-05,1,,,,,イトウニット,0
119,1120001201410,登記記録の閉鎖等,0,2023-11-14,2023-11-13,株式会社アール・ワイ・エステート,,株式会社,大阪府,大阪市此花区,朝日２丁目１８番８号３Ｆ－２６５,,27,104,5540011,,,2023-11-13,清算の結了等,,,2016-10-24,1,,,,,アールワイエステート,0
123,1120002021469,登記記録の閉鎖等,0,2023-11-14,2023-11-06,有限会社オフィスエーアンドエム,,有限会社,大阪府,吹田市,竹谷町２番１－９１１号,,27,205,5650835,,,2023-11-06,清算の結了等,,,2015-10-05,1,,,,,オフィスエーアンドエム,0
152,1140002034345,登記記録の閉鎖等,0,2023-11-14,2023-11-07,有限会社プライマリー,,有限会社,兵庫県,赤穂市,大町４番地７,,28,212,6780205,,,2023-11-07,清算の結了等,,,2015-10-05,1,,,,,プライマリー,0
153,1140005021984,登記記録の閉鎖等,0,2023-11-14,2023-11-13,特定非営利活動法人ホームホスピス淡路島,,その他の設立登記法人,兵庫県,洲本市,下加茂２丁目３番地３０号,,28,205,6560013,,,2023-11-13,清算の結了等,,,2015-10-05,1,,,,,ホームホスピスアワジシマ,0
159,1160003002571,登記記録の閉鎖等,0,2023-11-14,2023-11-10,Ｂａｃｋｙａｒｄ合同会社,,合同会社,滋賀県,栗東市,井上４９６番地１,,25,208,5203006,,,2023-11-10,清算の結了等,,,2022-05-23,1,,,,,バックヤード,0
161,1180001001739,登記記録の閉鎖等,0,2023-11-14,2023-11-10,株式会社オオギ,,株式会社,愛知県,名古屋市名東区,藤森西町８０２番地の２,,23,115,4650022,,,2023-11-10,清算の結了等,,,2015-10-05,1,,,,,オオギ,0
174,1180002049166,登記記録の閉鎖等,0,2023-11-14,2023-11-10,有限会社フレッシュアオキ,,有限会社,愛知県,名古屋市瑞穂区,白砂町１丁目５３番地,,23,108,4670056,,,2023-11-10,清算の結了等,,,2015-10-05,1,,,,,フレッシュアオキ,0
177,1180005003194,登記記録の閉鎖等,0,2023-11-14,2023-11-06,シティコーポ尾頭橋団地管理組合法人,,その他の設立登記法人,愛知県,名古屋市中川区,尾頭橋１丁目１番３５号,,23,110,4540012,,,2023-11-06,清算の結了等,,,2015-10-05,1,,,,,シティコーポオトウバシダンチ,0
178,1180005011305,登記記録の閉鎖等,0,2023-11-14,2023-11-01,特定非営利活動法人手づくり文化普及振興会,,その他の設立登記法人,愛知県,岩倉市,昭和町１丁目２３番地,,23,228,4820011,,,2023-11-01,清算の結了等,,,2015-10-05,1,,,,,テヅクリブンカフキュウシンコウカイ,0
195,1250002010491,登記記録の閉鎖等,0,2023-11-14,2023-11-10,有限会社濱野商店,,有限会社,山口県,下関市,豊前田町２丁目１番２０号,,35,201,7500018,,,2023-11-10,清算の結了等,,,2015-10-05,1,,,,,ハマノショウテン,0
216,1320001002326,登記記録の閉鎖等,0,2023-11-14,2023-11-13,株式会社日吉原工業,,株式会社,大分県,大分市,里２丁目５番２１号,,44,201,8700303,,,2023-11-13,清算の結了等,,,2015-10-05,1,,,,,ヒヨシバルコウギョウ,0
231,1430001008709,登記記録の閉鎖等,0,2023-11-14,2023-11-01,西武部品販売株式会社,,株式会社,北海道,札幌市白石区,東札幌二条５丁目６番１５号,,01,104,0030002,,,2023-11-01,清算の結了等,,,2015-10-05,1,,,,,セイブブヒンハンバイ,0
239,1470002017242,登記記録の閉鎖等,0,2023-11-14,2023-11-13,有限会社三弘,,有限会社,香川県,三豊市,高瀬町下麻１２９６番地,,37,208,7670013,,,2023-11-13,清算の結了等,,,2015-10-05,1,,,,,,0
254,2010002033185,登記記録の閉鎖等,0,2023-11-14,2023-11-10,有限会社オオイシ・アンド・パートナーズ,,有限会社,東京都,台東区,谷中６丁目１番２号,,13,106,1100001,,,2023-11-10,清算の結了等,,,2015-10-05,1,,,,,,0
288,2011001108093,登記記録の閉鎖等,0,2023-11-14,2023-11-06,株式会社ぴあぷる,,株式会社,東京都,渋谷区,代々木１丁目４２番２号,,13,113,1510053,,,2023-11-06,清算の結了等,,,2015-11-10,1,,,,,ピアプル,0
291,2011101066951,登記記録の閉鎖等,0,2023-11-14,2023-11-09,株式会社ヒューマンキャピタルパートナーズ,,株式会社,東京都,新宿区,下宮比町２番１２号,,13,104,1620822,,,2023-11-09,清算の結了等,,,2015-10-05,1,,,,,ヒューマンキャピタルパートナーズ,0
329,2013301002595,登記記録の閉鎖等,0,2023-11-14,2023-11-06,株式会社銀座マリア・マリア,,株式会社,埼玉県,三郷市,早稲田８丁目２番地２３,,11,237,3410018,,,2023-11-06,清算の結了等,,,2015-10-05,1,,,,,ギンザマリアマリア,0
344,2021002036862,登記記録の閉鎖等,0,2023-11-14,2023-11-10,有限会社イセハラトータルサービス,,有限会社,神奈川県,厚木市,妻田西２丁目９番１１号,,14,212,2430815,,,2023-11-10,清算の結了等,,,2015-10-05,1,,,,,イセハラトータルサービス,0
345,2021003009850,登記記録の閉鎖等,0,2023-11-14,2023-11-10,Ｇｒｅｅｎ　Ｓｐｉｒｉｔ合同会社,,合同会社,神奈川県,秦野市,曽屋６０２３の３,,14,211,2570031,,,2023-11-10,清算の結了等,,,2020-11-16,1,,,,,グリーンスピリット,0
366,2040002059905,登記記録の閉鎖等,0,2023-11-14,2023-11-07,有限会社ウィル,,有限会社,千葉県,成田市,西三里塚一丁目１２８４番地デリツィオーゾ成田２０２号室,,12,211,2860115,,,2023-11-07,清算の結了等,,,2015-10-05,1,,,,,ウィル,0
370,2050001026913,登記記録の閉鎖等,0,2023-11-14,2023-10-24,三和興産株式会社,,株式会社,茨城県,久慈郡大子町,大字北田気７３２番地５,,08,364,3193521,,,2023-10-24,清算の結了等,,,2015-10-05,1,,,,,サンワコウサン,0
380,2070001030979,登記記録の閉鎖等,0,2023-11-14,2023-11-08,株式会社ＯＭＡ企画,,株式会社,群馬県,伊勢崎市,宮子町３６０７番地９,,10,204,3720801,,,2023-11-08,清算の結了等,,,2015-10-05,1,,,,,オーエムエーキカク,0
393,2100003003038,登記記録の閉鎖等,0,2023-11-14,2023-11-07,合資会社石田木工所,,合資会社,長野県,飯田市,大王路１丁目９番地,,20,205,3950012,,,2023-11-07,清算の結了等,,,2015-10-05,1,,,,,イシダモッコウジョ,0
402,2120001235424,登記記録の閉鎖等,0,2023-11-14,2023-11-13,ＡＮＴｓ株式会社,,株式会社,大阪府,大阪市淀川区,三津屋中３丁目８番２０号３Ｆ,,27,123,5320036,,,2023-11-13,清算の結了等,,,2021-02-22,1,,,,,アンツ,0
406,2120003009578,登記記録の閉鎖等,0,2023-11-14,2023-11-10,原田闘球審判合同会社,,合同会社,大阪府,大阪市北区,中津１丁目１３番１７号,,27,127,5310071,,,2023-11-10,清算の結了等,,,2015-10-05,1,,,,,ハラダトウキュウシンパン,0
423,2130002015816,登記記録の閉鎖等,0,2023-11-14,2023-11-07,有限会社エフ・アッシュ,,有限会社,京都府,京都市中京区,新烏丸通竹屋町下る梅之木町１３６番地,,26,104,6040905,,,2023-11-07,清算の結了等,,,2015-10-05,1,,,,,エフアッシュ,0
435,2180001134521,登記記録の閉鎖等,0,2023-11-14,2023-11-10,Ｂｅ　Ｍａｇｉｃａｌ株式会社,,株式会社,東京都,台東区,上野６丁目８－１９,,13,106,1100005,,,2023-11-10,清算の結了等,,,2018-11-27,1,,,,,ビーマジカル,0
439,2180002060782,登記記録の閉鎖等,0,2023-11-14,2023-11-10,有限会社ＤＥＬＬＡ,,有限会社,愛知県,名古屋市中川区,野田２丁目５３０番地,,23,110,4540912,,,2023-11-10,清算の結了等,,,2015-10-05,1,,,,,デラ,0
440,2180003025074,登記記録の閉鎖等,0,2023-11-14,2023-11-10,ハレコレ合同会社,,合同会社,愛知県,名古屋市港区,十一屋２丁目２８４番地の１（サニープレイス十一屋Ｄ棟２０５号）,,23,111,4550831,,,2023-11-10,清算の結了等,,,2023-04-07,1,,,,,ハレコレ,0
450,2180303004158,登記記録の閉鎖等,0,2023-11-14,2023-11-01,合同会社アクアエア,,合同会社,愛知県,西尾市,八ツ面町梅之宮５６番地,,23,213,4450082,,,2023-11-01,清算の結了等,,,2018-09-14,1,,,,,アクアエア,0
461,2220001011286,登記記録の閉鎖等,0,2023-11-14,2023-11-08,株式会社アスナルコーポレーション,,株式会社,石川県,金沢市,諸江町中丁２１２番地１,,17,201,9200016,,,2023-11-08,合併による解散等,9010001008669,令和５年１１月１日東京都新宿区北新宿二丁目２１番１号国際航業株式会社（9010001008669）に合併し解散,2015-10-05,1,,,,,,0
467,2230002009130,登記記録の閉鎖等,0,2023-11-14,2023-11-08,有限会社トーワ,,有限会社,富山県,魚津市,川縁１２８０番地１２,,16,204,9370856,,,2023-11-08,清算の結了等,,,2015-10-05,1,,,,,トーワ,0
475,2260002005985,登記記録の閉鎖等,0,2023-11-14,2023-11-10,大和製菓有限会社,,有限会社,岡山県,岡山市北区,天瀬南町５番１５号,,33,101,7000834,,,2023-11-10,清算の結了等,,,2015-10-05,1,,,,,ダイワセイカ,0
478,2280002004671,登記記録の閉鎖等,0,2023-11-14,2023-11-13,有限会社サピア電工,,有限会社,島根県,安来市,野方町７８番地１,,32,206,6920036,,,2023-11-13,清算の結了等,,,2015-10-05,1,,,,,サピアデンコウ,0
493,2290003011823,登記記録の閉鎖等,0,2023-11-14,2023-11-01,合同会社朝倉テックサポート,,合同会社,福岡県,朝倉市,頓田４５５,,40,228,8380064,,,2023-11-01,清算の結了等,,,2021-11-11,1,,,,,アサクラテックサポート,0
495,2290005015764,登記記録の閉鎖等,0,2023-11-14,2023-11-02,特定非営利活動法人久留米筑後観光開発千歳の会,,その他の設立登記法人,福岡県,久留米市,国分町５１８番地１エイコーハイツ１０１号,,40,203,8390863,,,2023-11-02,清算の結了等,,,2016-01-25,1,,,,,クルメチクゴカンコウカイハツチトセノカイ,0
502,2310002019212,登記記録の閉鎖等,0,2023-11-14,2023-11-07,有限会社丸久,,有限会社,長崎県,壱岐市,郷ノ浦町郷ノ浦３４番地,,42,210,8115135,,,2023-11-07,清算の結了等,,,2015-10-05,1,,,,,マルキュウ,0
503,2310005003262,登記記録の閉鎖等,0,2023-11-14,2023-11-10,日本農林開発農事組合法人,,その他の設立登記法人,長崎県,西海市,西海町横瀬郷４０８５番地,,42,212,8513509,,,2023-11-10,清算の結了等,,,2015-10-05,1,,,,,ニホンノウリンカイハツ,0
513,2340001012132,登記記録の閉鎖等,0,2023-11-14,2023-11-10,株式会社ユナイトイース,,株式会社,鹿児島県,霧島市,隼人町松永３３０６番地１５,,46,218,8995112,,,2023-11-10,合併による解散等,7430001069398,令和５年１１月１日札幌市白石区東札幌五条二丁目４番３０号株式会社アインファーマシーズ（7430001069398）に合併し解散,2015-10-05,1,,,,,ユナイトイース,0
523,2370003004265,登記記録の閉鎖等,0,2023-11-14,2023-11-13,合同会社カイタク,,合同会社,宮城県,仙台市若林区,大和町４丁目１３－２７,,04,103,9840042,,,2023-11-13,清算の結了等,,,2018-09-21,1,,,,,,0
525,2370601002942,登記記録の閉鎖等,0,2023-11-14,2023-11-09,株式会社アズテックス,,株式会社,宮城県,塩竈市,藤倉１丁目１５番３７号,,04,203,9850004,,,2023-11-09,清算の結了等,,,2015-10-05,1,,,,,アズテックス,0
530,2380002018050,登記記録の閉鎖等,0,2023-11-14,2023-11-10,有限会社清栄建設,,有限会社,福島県,白河市,大信中新城字愛宕山１２２番地,,07,205,9690307,,,2023-11-10,清算の結了等,,,2015-10-05,1,,,,,セイエイケンセツ,0
534,2430001005424,登記記録の閉鎖等,0,2023-11-14,2023-10-31,株式会社ケー・ワイ,,株式会社,北海道,札幌市西区,西野三条５丁目３番１４号,,01,107,0630033,,,2023-10-31,清算の結了等,,,2015-10-05,1,,,,,ケーワイ,0
535,2430001022444,登記記録の閉鎖等,0,2023-11-14,2023-11-02,株式会社北海道美術印刷,,株式会社,北海道,札幌市西区,発寒十六条１４丁目３番３０号,,01,107,0630836,,,2023-11-02,清算の結了等,,,2015-10-05,1,,,,,ホッカイドウビジュツインサツ,0
539,2480001003398,登記記録の閉鎖等,0,2023-11-14,2023-11-13,株式会社ケイツウ,,株式会社,徳島県,小松島市,坂野町字苅屋１番地４,,36,203,7730023,,,2023-11-13,清算の結了等,,,2015-10-05,1,,,,,ケイツウ,0
559,3010001116972,登記記録の閉鎖等,0,2023-11-14,2023-11-07,株式会社ミューズアミューズ,,株式会社,東京都,千代田区,九段北４丁目３番６号カーサフジマ２０１,,13,101,1020073,,,2023-11-07,清算の結了等,,,2015-10-05,1,,,,,ミューズアミューズ,0
565,3010001188467,登記記録の閉鎖等,0,2023-11-14,2023-11-07,ユニットＴＫ株式会社,,株式会社,東京都,千代田区,内神田２丁目１５番４号,,13,101,1010047,,,2023-11-07,合併による解散等,7010001024420,令和５年１１月１日東京都千代田区内神田二丁目１５番４号東信工業株式会社（7010001024420）に合併し解散,2017-12-20,1,,,,,ユニットティーケイ,0
586,3010501050309,登記記録の閉鎖等,0,2023-11-14,2023-11-09,株式会社ＳＨＩＭＯＭＵＲＡ健康管理,,株式会社,東京都,台東区,上野３丁目１１番５号,,13,106,1100005,,,2023-11-09,清算の結了等,,,2023-04-14,1,,,,,シモムラケンコウカンリ,0
605,3011601015944,登記記録の閉鎖等,0,2023-11-14,2023-11-06,株式会社チャッピー,,株式会社,東京都,練馬区,豊玉上２丁目３番１０号,,13,120,1760011,,,2023-11-06,清算の結了等,,,2015-10-05,1,,,,,チャッピー,0
609,3012401011126,登記記録の閉鎖等,0,2023-11-14,2023-11-09,株式会社コア・カッティング,,株式会社,東京都,武蔵野市,吉祥寺本町２丁目３２番７号,,13,203,1800004,,,2023-11-09,清算の結了等,,,2015-10-05,1,,,,,コアカッティング,0
635,3021002001774,登記記録の閉鎖等,0,2023-11-14,2023-11-10,有限会社向上鉄工,,有限会社,神奈川県,藤沢市,村岡東３丁目３８５番地,,14,205,2510012,,,2023-11-10,清算の結了等,,,2015-10-05,1,,,,,コウジョウテッコウ,0
637,3030001006164,登記記録の閉鎖等,0,2023-11-14,2023-11-06,株式会社浪花屋,,株式会社,埼玉県,さいたま市緑区,大字中尾３３２番地,,11,109,3360932,,,2023-11-06,清算の結了等,,,2015-10-05,1,,,,,ナニワヤ,0
646,3030002055937,登記記録の閉鎖等,0,2023-11-14,2023-11-01,有限会社東和企画,,有限会社,埼玉県,桶川市,大字川田谷６１６５番地２,,11,231,3630027,,,2023-11-01,清算の結了等,,,2015-10-05,1,,,,,,0
647,3030002081710,登記記録の閉鎖等,0,2023-11-14,2023-10-31,有限会社マジックシェルパ,,有限会社,埼玉県,本庄市,西富田８２０番地２,,11,211,3670035,,,2023-10-31,清算の結了等,,,2015-10-05,1,,,,,マジックシェルパ,0
659,3040003018347,登記記録の閉鎖等,0,2023-11-14,2023-11-07,合同会社ＩＮＤＩＧＯＬＤ,,合同会社,千葉県,千葉市美浜区,打瀬２丁目２３番地パティオス１９番街２－２０８号,,12,106,2610013,,,2023-11-07,清算の結了等,,,2021-08-18,1,,,,,インディゴールド,0
669,3070002029540,登記記録の閉鎖等,0,2023-11-14,2023-11-07,有限会社清水商店,,有限会社,群馬県,太田市,上強戸町１６９４番地,,10,205,3730074,,,2023-11-07,清算の結了等,,,2015-10-05,1,,,,,シミズショウテン,0
676,3080102008278,登記記録の閉鎖等,0,2023-11-14,2023-11-08,有限会社山海荘,,有限会社,静岡県,伊豆市,土肥２９４番地の１７,,22,222,4103302,,,2023-11-08,清算の結了等,,,2015-10-05,1,,,,,サンカイソウ,0
677,3080102022114,登記記録の閉鎖等,0,2023-11-14,2023-11-10,コイケ企画有限会社,,有限会社,静岡県,田方郡函南町,上沢９５１番地の１０,,22,325,4190122,,,2023-11-10,清算の結了等,,,2015-10-05,1,,,,,コイケキカク,0
687,3120001031070,登記記録の閉鎖等,0,2023-11-14,2023-11-07,玉置鉄興株式会社,,株式会社,大阪府,大阪市住之江区,御崎７丁目９番２４号,,27,125,5590013,,,2023-11-07,清算の結了等,,,2015-10-05,1,,,,,,0
692,3120001104066,登記記録の閉鎖等,0,2023-11-14,2023-11-13,株式会社都畜産,,株式会社,大阪府,大阪市浪速区,元町３丁目１０番９号,,27,111,5560016,,,2023-11-13,清算の結了等,,,2015-10-05,1,,,,,ミヤコチクサン,0
725,3130001054327,登記記録の閉鎖等,0,2023-11-14,2023-11-08,株式会社森,,株式会社,京都府,京都市山科区,四ノ宮小金塚８番地５７９,00108396,26,110,6078022,,,2023-11-08,清算の結了等,,,2015-10-05,1,,,,,モリ,0
731,3140001040805,登記記録の閉鎖等,0,2023-11-14,2023-11-07,株式会社なばの里デイサービスセンター,,株式会社,兵庫県,相生市,那波本町８番２３号,,28,208,6780055,,,2023-11-07,清算の結了等,,,2015-10-05,1,,,,,ナバノサトデイサービスセンター,0
759,3190005010997,登記記録の閉鎖等,0,2023-11-14,2023-11-10,特定非営利活動法人だんない塾,,その他の設立登記法人,三重県,松阪市,垣鼻町１０５４番地５,,24,204,5150033,,,2023-11-10,清算の結了等,,,2016-11-16,1,,,,,ダンナイジュク,0
760,3200001031509,登記記録の閉鎖等,0,2023-11-14,2023-11-09,株式会社塩仁,,株式会社,岐阜県,岐阜市,柳津町南塚４丁目３番地１,,21,201,5016113,,,2023-11-09,清算の結了等,,,2015-10-05,1,,,,,エンジン,0
762,3200002017829,登記記録の閉鎖等,0,2023-11-14,2023-11-10,有限会社太田ラジエーター,,有限会社,岐阜県,美濃加茂市,島町２丁目１番９号,,21,211,5050025,,,2023-11-10,清算の結了等,,,2015-10-05,1,,,,,オオタラジエーター,0
768,3240002011233,登記記録の閉鎖等,0,2023-11-14,2023-11-10,有限会社トータルワーク,,有限会社,広島県,広島市西区,中広町２丁目２４番５号,,34,104,7330012,,,2023-11-10,清算の結了等,,,2015-10-05,1,,,,,,0
769,3240005002106,登記記録の閉鎖等,0,2023-11-14,2023-11-08,特定非営利活動法人広島鯉城断酒会,,その他の設立登記法人,広島県,広島市東区,戸坂大上４丁目３１番２１号,,34,102,7320014,,,2023-11-08,清算の結了等,,,2015-10-05,1,,,,,,0
775,3260005007185,登記記録の閉鎖等,0,2023-11-14,2023-11-10,医療法人能勢歯科医院,,その他の設立登記法人,岡山県,津山市,小田中１３００番地１０,,33,203,7080006,,,2023-11-10,清算の結了等,,,2015-10-05,1,,,,,ノセシカイイン,0
778,3290001016253,登記記録の閉鎖等,0,2023-11-14,2023-11-01,株式会社福田造園,,株式会社,福岡県,福岡市博多区,諸岡６丁目３０番４号,,40,132,8120894,,,2023-11-01,清算の結了等,,,2015-10-05,1,,,,,フクダゾウエン,0
787,3290002002640,登記記録の閉鎖等,0,2023-11-14,2023-11-01,有限会社第一商事,,有限会社,福岡県,福岡市南区,花畑４丁目４番１号,,40,134,8111356,,,2023-11-01,合併による解散等,9290002001216,令和５年１１月１日福岡市南区花畑四丁目４番１号株式会社愛の家（9290002001216）に合併し解散,2015-10-05,1,,,,,ダイイチショウジ,0
793,3310001012670,登記記録の閉鎖等,0,2023-11-14,2023-11-02,フレームワークスナガサキ株式会社,,株式会社,長崎県,北松浦郡佐々町,沖田免１番地３３,,42,391,8570353,,,2023-11-02,合併による解散等,2310002012877,令和５年１１月１日長崎県北松浦郡佐々町沖田免１番地３３株式会社はた産業（2310002012877）に合併し解散,2015-10-05,1,,,,,フレームワークスナガサキ,0
794,3310002015417,登記記録の閉鎖等,0,2023-11-14,2023-11-10,有限会社中尾畳店,,有限会社,長崎県,諫早市,正久寺町３２番地１,,42,204,8590302,,,2023-11-10,清算の結了等,,,2015-10-05,1,,,,,,0
816,3370001021014,登記記録の閉鎖等,0,2023-11-14,2023-11-09,株式会社ケアプランなでしこ,,株式会社,宮城県,仙台市泉区,南光台７丁目６番１４号,,04,105,9818003,,,2023-11-09,清算の結了等,,,2015-10-05,1,,,,,ケアプランナデシコ,0
832,3460002000321,登記記録の閉鎖等,0,2023-11-14,2023-11-10,有限会社エイコング,,有限会社,北海道,釧路市,文苑４丁目２９番５号,,01,206,0850063,,,2023-11-10,清算の結了等,,,2015-10-05,1,,,,,,0
844,4010003028629,登記記録の閉鎖等,0,2023-11-14,2023-11-07,合同会社コア・クリエーション名古屋,,合同会社,東京都,中央区,日本橋１丁目４番１号,,13,102,1030027,,,2023-11-07,清算の結了等,,,2018-11-09,1,,,,,コアクリエーションナゴヤ,0
854,4010603003709,登記記録の閉鎖等,0,2023-11-14,2023-11-06,合資会社金子商店,,合資会社,東京都,墨田区,東向島６丁目６３番１０号,,13,107,1310032,,,2023-11-06,清算の結了等,,,2015-10-05,1,,,,,カネコショウテン,0
864,4010801028202,登記記録の閉鎖等,0,2023-11-14,2023-11-10,株式会社リーベル西源,,株式会社,東京都,豊島区,池袋３丁目５７番７号,,13,116,1710014,,,2023-11-10,合併による解散等,4010701017858,令和５年１１月１日東京都目黒区目黒一丁目３番１６号株式会社果実園（4010701017858）に合併し解散,2017-09-28,1,,,,,リーベルニシゲン,0
865,4010802018441,登記記録の閉鎖等,0,2023-11-14,2023-11-02,有限会社ＳＵＺＵＳＨＯ,,有限会社,茨城県,古河市,上辺見４２３番地５,,08,204,3060234,,,2023-11-02,清算の結了等,,,2015-10-05,1,,,,,スズショウ,0
902,4020001011164,登記記録の閉鎖等,0,2023-11-14,2023-11-06,株式会社川原製作所,,株式会社,神奈川県,横浜市青葉区,鉄町字久保田８番１３,,14,117,2250025,,,2023-11-06,清算の結了等,,,2015-10-05,1,,,,,カワハラセイサクショ,0
909,4020001100999,登記記録の閉鎖等,0,2023-11-14,2023-11-06,株式会社ＷＡＮＤ,,株式会社,神奈川県,横浜市港北区,大豆戸町１１４６番地４,,14,109,2220032,,,2023-11-06,清算の結了等,,,2015-10-05,1,,,,,ワンド,0
911,4020001107400,登記記録の閉鎖等,0,2023-11-14,2023-11-01,ラインハウゼンソリューションズ株式会社,,株式会社,神奈川県,横浜市緑区,白山１丁目１８番２号ジャーマンインダストリーパーク,,14,113,2260006,,,2023-11-01,清算の結了等,,,2015-10-05,1,,,,,ラインハウゼンソリューションズ,0
918,4021001000594,登記記録の閉鎖等,0,2023-11-14,2023-11-09,株式会社クマクラ,,株式会社,神奈川県,藤沢市,宮原３２３７番地の１,,14,205,2520826,,,2023-11-09,清算の結了等,,,2015-10-05,1,,,,,クマクラ,0
926,4030001058015,登記記録の閉鎖等,0,2023-11-14,2023-11-02,株式会社Ｏｆｆｉｃｅ　ＷｏｏｄＢｅｌｌ,,株式会社,埼玉県,入間郡三芳町,大字北永井９４８番地６４,,11,324,3540044,,,2023-11-02,清算の結了等,,,2015-10-05,1,,,,,オフィスウッドベル,0
933,4030002002525,登記記録の閉鎖等,0,2023-11-14,2023-11-02,有限会社エレクトロニクスイマガワ,,有限会社,埼玉県,さいたま市見沼区,大字南中野４５５番地の１６,,11,104,3370042,,,2023-11-02,清算の結了等,,,2015-10-05,1,,,,,エレクトロニクスイマガワ,0
935,4030002100989,登記記録の閉鎖等,0,2023-11-14,2023-11-01,海老沢食品有限会社,,有限会社,埼玉県,川口市,大字安行領根岸３０１６番地,,11,203,3330834,,,2023-11-01,清算の結了等,,,2015-10-05,1,,,,,エビサワショクヒン,0
939,4040001069696,登記記録の閉鎖等,0,2023-11-14,2023-11-06,メディシアＲＡ株式会社,,株式会社,千葉県,柏市,十余二２４８番地の３４メイツ柏・松ヶ崎５０１号,,12,217,2770872,,,2023-11-06,清算の結了等,,,2015-10-05,1,,,,,メディシアアールエー,0
949,4050002023981,登記記録の閉鎖等,0,2023-11-14,2023-11-06,有限会社しのざき宝飾時計店,,有限会社,茨城県,古河市,東２丁目１３番４７号,,08,204,3060011,,,2023-11-06,清算の結了等,,,2015-10-05,1,,,,,シノザキホウショクトケイテン,0
954,4070002015110,登記記録の閉鎖等,0,2023-11-14,2023-11-09,有限会社マルシヨウ商店,,有限会社,群馬県,安中市,安中３８８４番地１２,,10,211,3790116,,,2023-11-09,清算の結了等,,,2015-10-05,1,,,,,マルショウショウテン,0
956,4080002012313,登記記録の閉鎖等,0,2023-11-14,2023-11-13,有限会社ジェイエスコーポレーション,,有限会社,静岡県,静岡市駿河区,大坪町９番１３号コンフォール大坪３０１号,,22,102,4228075,,,2023-11-13,清算の結了等,,,2015-10-05,1,,,,,,0
971,4120001085859,登記記録の閉鎖等,0,2023-11-14,2023-11-10,株式会社鳥居ビル,,株式会社,大阪府,大阪市中央区,千日前１丁目７番１１号,,27,128,5420074,,,2023-11-10,清算の結了等,,,2015-10-05,1,,,,,トリイビル,0
983,4120003023239,登記記録の閉鎖等,0,2023-11-14,2023-11-01,合同会社ＮＩＳＨＩＮＯ,,合同会社,大阪府,大阪市中央区,東心斎橋２丁目２番１４－８０５号,,27,128,5420083,,,2023-11-01,合併による解散等,8120001031074,令和５年１１月１日大阪市住之江区北加賀屋二丁目１１番８号株式会社銭家（8120001031074）に合併し解散,2023-01-17,1,,,,,ニシノ,0
990,4120901008076,登記記録の閉鎖等,0,2023-11-14,2023-11-08,株式会社ビスコム,,株式会社,大阪府,吹田市,垂水町３丁目２９番６０２号,,27,205,5640062,,,2023-11-08,清算の結了等,,,2015-10-05,1,,,,,ビスコム,0
995,4120905004815,登記記録の閉鎖等,0,2023-11-14,2023-11-07,北摂介護サービス事業協同組合,,その他の設立登記法人,大阪府,豊中市,刀根山４丁目６番４号,,27,203,5600045,,,2023-11-07,清算の結了等,,,2015-10-05,1,,,,,ホクセツカイゴサービス,0
1002,4140001129606,登記記録の閉鎖等,0,2023-11-14,2023-11-09,株式会社ＣＩＥＬＯ,,株式会社,兵庫県,神戸市中央区,栄町通２丁目４番７号ＮＲビル５０１,,28,110,6500023,,,2023-11-09,清算の結了等,,,2023-04-05,1,,,,,シエロ,0
1005,4140002058507,登記記録の閉鎖等,0,2023-11-14,2023-11-09,有限会社アフターフォーティー,,有限会社,兵庫県,西宮市,名次町８番３４号,,28,204,6620024,,,2023-11-09,清算の結了等,,,2015-10-05,1,,,,,アフターフォーティー,0
1011,4180001043951,登記記録の閉鎖等,0,2023-11-14,2023-11-10,株式会社日本ウィル,,株式会社,愛知県,名古屋市中川区,かの里２丁目１０２番地,,23,110,4540957,,,2023-11-10,清算の結了等,,,2015-10-05,1,,,,,ニホンウィル,0
1012,4180001063529,登記記録の閉鎖等,0,2023-11-14,2023-11-10,クリアボーテ株式会社,,株式会社,愛知県,名古屋市中区,上前津２丁目２番２１号パレス上前津９Ｄ,,23,106,4600013,,,2023-11-10,清算の結了等,,,2015-10-05,1,,,,,クリアボーテ,0
1020,4180002073576,登記記録の閉鎖等,0,2023-11-14,2023-11-10,有限会社名東エンジニアリング,,有限会社,愛知県,瀬戸市,大坂町３４８番地,,23,204,4890867,,,2023-11-10,清算の結了等,,,2015-10-05,1,,,,,メイトウエンジニアリング,0
1021,4180002079838,登記記録の閉鎖等,0,2023-11-14,2023-11-09,有限会社山田製作所,,有限会社,愛知県,一宮市,天王３丁目３番５号,,23,203,4910046,,,2023-11-09,清算の結了等,,,2015-10-05,1,,,,,ヤマダセイサクジョ,0
1055,4290802000842,登記記録の閉鎖等,0,2023-11-14,2023-11-09,有限会社猿友ビル会舘,,有限会社,福岡県,北九州市小倉北区,米町１丁目２番１０号,,40,106,8020003,,,2023-11-09,清算の結了等,,,2015-10-05,1,,,,,エンユウビルカイカン,0
1077,4410001009169,登記記録の閉鎖等,0,2023-11-14,2023-11-08,株式会社増田印刷所,,株式会社,秋田県,横手市,増田町増田字伊勢堂南１番地の１７,,05,203,0190701,,,2023-11-08,清算の結了等,,,2015-10-05,1,,,,,マスダインサツショ,0
1078,4420005003506,登記記録の閉鎖等,0,2023-11-14,2023-11-07,医療法人清邦会,,その他の設立登記法人,青森県,北津軽郡板柳町,大字福野田字実田９７番地１,,02,381,0383661,,,2023-11-07,清算の結了等,,,2015-10-05,1,,,,,セイホウカイ,0
1084,4460002003637,登記記録の閉鎖等,0,2023-11-14,2023-11-10,有限会社Ｔ・Ｍコーポレーション,,有限会社,北海道,釧路郡釧路町,新開２丁目１４番地２,,01,661,0880624,,,2023-11-10,清算の結了等,,,2015-10-05,1,,,,,ティーエムコーポレーション,0
1086,4500001011751,登記記録の閉鎖等,0,2023-11-14,2023-11-10,白鞘電気水道株式会社,,株式会社,愛媛県,今治市,大西町宮脇甲１４９７番地の１,,38,202,7992205,,,2023-11-10,清算の結了等,,,2015-10-05,1,,,,,シラサヤデンキスイドウ,0
1108,5010405015629,登記記録の閉鎖等,0,2023-11-14,2023-11-09,一般社団法人レオニ,,その他の設立登記法人,東京都,港区,新橋４丁目３０番６号京急中はらビル５階,,13,103,1050004,,,2023-11-09,清算の結了等,,,2017-03-27,1,,,,,レオニ,0
1116,5010901038406,登記記録の閉鎖等,0,2023-11-14,2023-11-10,株式会社ＹＳコーポレーション,,株式会社,東京都,渋谷区,宇田川町３２番７号,,13,113,1500042,,,2023-11-10,清算の結了等,,,2016-07-05,1,,,,,ワイエスコーポレーション,0
1121,5011001056422,登記記録の閉鎖等,0,2023-11-14,2023-11-07,株式会社ラックス,,株式会社,東京都,中央区,銀座６丁目１４番２０号,,13,102,1040061,,,2023-11-07,清算の結了等,,,2015-10-05,1,,,,,,0
1142,5012301007899,登記記録の閉鎖等,0,2023-11-14,2023-11-10,株式会社パラダイス,,株式会社,東京都,町田市,原町田４丁目７番１４号,,13,209,1940013,,,2023-11-10,清算の結了等,,,2015-10-05,1,,,,,パラダイス,0
1147,5013202001470,登記記録の閉鎖等,0,2023-11-14,2023-11-10,有限会社大谷工業,,有限会社,東京都,目黒区,南１丁目５番３号,,13,110,1520013,,,2023-11-10,清算の結了等,,,2015-10-05,1,,,,,オオタニコウギョウ,0
1159,5021002029161,登記記録の閉鎖等,0,2023-11-14,2023-10-30,有限会社チャーム・ドレス,,有限会社,神奈川県,相模原市緑区,太井３３６番地１１５,,14,151,2520152,,,2023-10-30,清算の結了等,,,2015-10-05,1,,,,,チャームドレス,0
1164,5030001060580,登記記録の閉鎖等,0,2023-11-14,2023-11-06,株式会社飯野商事,,株式会社,埼玉県,本庄市,児玉町吉田林３８２番地,,11,211,3670211,,,2023-11-06,清算の結了等,,,2015-10-05,1,,,,,イイノショウジ,0
1174,5030002028172,登記記録の閉鎖等,0,2023-11-14,2023-11-01,有限会社イイデホーム,,有限会社,埼玉県,所沢市,大字北岩岡１２７番地の８,,11,208,3590007,,,2023-11-01,清算の結了等,,,2015-10-05,1,,,,,イイデホーム,0
1185,5040002046363,登記記録の閉鎖等,0,2023-11-14,2023-11-06,有限会社仁屋,,有限会社,千葉県,松戸市,牧の原２丁目２６５番地,,12,207,2702267,,,2023-11-06,清算の結了等,,,2015-10-05,1,,,,,ジンヤ,0
1204,5100001012673,登記記録の閉鎖等,0,2023-11-14,2023-11-07,株式会社あづみ野インテリア,,株式会社,長野県,松本市,市場２番１８号,,20,202,3990004,,,2023-11-07,清算の結了等,,,2015-10-05,1,,,,,アヅミノインテリア,0
1207,5100002014322,登記記録の閉鎖等,0,2023-11-14,2023-11-07,有限会社タキザワ,,有限会社,長野県,上田市,秋和４４６番地,,20,203,3860041,,,2023-11-07,清算の結了等,,,2015-10-05,1,,,,,タキザワ,0
1213,5120001181806,登記記録の閉鎖等,0,2023-11-14,2023-11-10,株式会社フジタ,,株式会社,大阪府,大阪市城東区,新喜多東２丁目６番１０号,,27,118,5360017,,,2023-11-10,清算の結了等,,,2015-10-05,1,,,,,フジタ,0
1230,5120102003677,登記記録の閉鎖等,0,2023-11-14,2023-11-09,有限会社ニユー男爵,,有限会社,佐賀県,伊万里市,二里町大里甲２８２８番地１０,,41,205,8480032,,,2023-11-09,清算の結了等,,,2015-10-05,1,,,,,ニユーダンシャク,0
1249,5150001014582,登記記録の閉鎖等,0,2023-11-14,2023-11-10,平和薬品株式会社,,株式会社,奈良県,大和高田市,大字市場２０６番地,,29,202,6350074,,,2023-11-10,合併による解散等,5120103001861,令和５年１１月４日大阪府堺市西区鳳東町七丁８１６番地３合同会社８２アセット（5120103001861）に合併し解散,2015-10-05,1,,,,,ヘイワヤクヒン,0
1255,5180001029850,登記記録の閉鎖等,0,2023-11-14,2023-11-10,加藤製菓株式会社,,株式会社,愛知県,名古屋市中村区,高道町６丁目１番１４号,,23,105,4530037,,,2023-11-10,清算の結了等,,,2015-10-05,1,,,,,カトウセイカ,0
1265,5200001023421,登記記録の閉鎖等,0,2023-11-14,2023-11-10,株式会社つた善,,株式会社,岐阜県,中津川市,駒場４５６番地の１,,21,206,5080011,,,2023-11-10,清算の結了等,,,2015-10-05,1,,,,,ツタゼン,0
1274,5240003005471,登記記録の閉鎖等,0,2023-11-14,2023-11-13,ＶＥＬＲＥＡ合同会社,,合同会社,広島県,広島市中区,紙屋町２丁目２－２８,,34,101,7300031,,,2023-11-13,清算の結了等,,,2022-01-21,1,,,,,ベレア,0
1280,5260002028406,登記記録の閉鎖等,0,2023-11-14,2023-09-25,有限会社坂田百貨店,,有限会社,岡山県,久米郡久米南町,上神目５５８番第１地,,33,663,7093626,,,2023-09-25,清算の結了等,,,2015-10-05,1,,,,,サカタヒャッカテン,0
1283,5280002011566,登記記録の閉鎖等,0,2023-11-14,2023-11-13,三刀屋石油有限会社,,有限会社,島根県,雲南市,三刀屋町三刀屋１７７番地３,,32,209,6902404,,,2023-11-13,清算の結了等,,,2015-10-05,1,,,,,ミトヤセキユ,0
1313,5370602003284,登記記録の閉鎖等,0,2023-11-14,2023-11-13,有限会社Ｐ．Ｃ．Ｂ東北,,有限会社,宮城県,塩竈市,白菊町３番２４号,,04,203,9850041,,,2023-11-13,清算の結了等,,,2015-10-05,1,,,,,,0
1315,5380002003792,登記記録の閉鎖等,0,2023-11-14,2023-11-09,有限会社山岸ガラス,,有限会社,福島県,福島市,渡利字山ノ下前１４番地の２,,07,201,9608141,,,2023-11-09,清算の結了等,,,2015-10-05,1,,,,,ヤマギシガラス,0
1318,5410001007626,登記記録の閉鎖等,0,2023-11-14,2023-11-10,ナビロード株式会社,,株式会社,秋田県,能代市,大町１番９号,,05,202,0160803,,,2023-11-10,清算の結了等,,,2015-10-05,1,,,,,ナビロード,0
1322,5430001064467,登記記録の閉鎖等,0,2023-11-14,2023-10-30,株式会社リ・エンド,,株式会社,北海道,札幌市豊平区,平岸一条８丁目８番２０号,,01,105,0620931,,,2023-10-30,清算の結了等,,,2015-10-05,1,,,,,リエンド,0
1332,6010001020156,登記記録の閉鎖等,0,2023-11-14,2023-11-10,株式会社須藤商店,,株式会社,東京都,武蔵野市,吉祥寺南町２丁目８番１号,,13,203,1800003,,,2023-11-10,合併による解散等,2011301023158,令和５年１１月１日東京都目黒区中目黒三丁目５番１号株式会社ＳＵＤＯ（2011301023158）に合併し解散,2015-10-05,1,,,,,,0
1335,6010001080101,登記記録の閉鎖等,0,2023-11-14,2023-11-07,株式会社ジェーピーインターナショナルサービス,,株式会社,東京都,千代田区,神田和泉町１番地６の１５,,13,101,1010024,,,2023-11-07,合併による解散等,3010001066656,令和５年１１月７日東京都中央区日本橋富沢町８番９号株式会社村山（3010001066656）に合併し解散,2015-10-05,1,,,,,ジェーピーインターナショナルサービス,0
1348,6010405015628,登記記録の閉鎖等,0,2023-11-14,2023-11-09,一般社団法人カラン,,その他の設立登記法人,東京都,港区,新橋４丁目３０番６号京急中はらビル５階,,13,103,1050004,,,2023-11-09,清算の結了等,,,2017-03-27,1,,,,,カラン,0
1358,6011001002887,登記記録の閉鎖等,0,2023-11-14,2023-11-13,株式会社ウィズ,,株式会社,東京都,渋谷区,富ヶ谷１丁目１１番１２号,,13,113,1510063,,,2023-11-13,清算の結了等,,,2015-10-05,1,,,,,,0
1365,6011101070553,登記記録の閉鎖等,0,2023-11-14,2023-11-09,株式会社キャリタス,,株式会社,東京都,新宿区,下宮比町２番１２号,,13,104,1620822,,,2023-11-09,清算の結了等,,,2015-10-05,1,,,,,キャリタス,0
1382,6012302008103,登記記録の閉鎖等,0,2023-11-14,2023-11-08,有限会社コジマ住建,,有限会社,東京都,町田市,成瀬７丁目１番４０号,,13,209,1940044,,,2023-11-08,清算の結了等,,,2015-10-05,1,,,,,コジマジュウケン,0
1408,6021002037956,登記記録の閉鎖等,0,2023-11-14,2023-11-10,有限会社サン・リビング,,有限会社,神奈川県,秦野市,南矢名１丁目１４番８号,,14,211,2570003,,,2023-11-10,清算の結了等,,,2015-10-05,1,,,,,,0
1409,6021002039267,登記記録の閉鎖等,0,2023-11-14,2023-11-09,有限会社白石,00013439,有限会社,神奈川県,秦野市,鶴巻南４丁目１３番２４号,,14,211,2570002,,,2023-11-09,清算の結了等,,,2015-10-05,1,,,,,シライシ,0
1415,6030001094405,登記記録の閉鎖等,0,2023-11-14,2023-11-01,株式会社鈴やホールディングス,,株式会社,埼玉県,さいたま市緑区,山崎１丁目１０番２０号,,11,109,3360903,,,2023-11-01,合併による解散等,7030001004420,令和５年１１月１日埼玉県さいたま市緑区山崎一丁目１０番２０号株式会社鈴や商事（7030001004420）に合併し解散,2015-10-05,1,,,,,スズヤホールディングス,0
1417,6030001115516,登記記録の閉鎖等,0,2023-11-14,2023-11-01,インターライズ株式会社,,株式会社,埼玉県,さいたま市南区,南本町１丁目３番１５号,,11,108,3360018,,,2023-11-01,清算の結了等,,,2016-07-27,1,,,,,インターライズ,0
1422,6030002034062,登記記録の閉鎖等,0,2023-11-14,2023-11-02,有限会社天竜,,有限会社,埼玉県,狭山市,入間川１丁目３番６号,,11,215,3501305,,,2023-11-02,清算の結了等,,,2015-10-05,1,,,,,テンリュウ,0
1425,6030003020490,登記記録の閉鎖等,0,2023-11-14,2023-11-06,合同会社Ｍｉｒａｃｌｅ,,合同会社,埼玉県,川越市,豊田町２丁目１７番１１号,,11,201,3501110,,,2023-11-06,清算の結了等,,,2022-11-02,1,,,,,ミラクル,0
1433,6040001028130,登記記録の閉鎖等,0,2023-11-14,2023-11-06,株式会社三和地所,,株式会社,千葉県,鎌ケ谷市,道野辺中央１丁目６番５号,,12,224,2730113,,,2023-11-06,清算の結了等,,,2015-10-05,1,,,,,サンワジショ,0
1441,6060001007652,登記記録の閉鎖等,0,2023-11-14,2023-11-10,株式会社トゥラスト,,株式会社,栃木県,宇都宮市,平出町３７５６番地１３ベリーコート５０２,,09,201,3210901,,,2023-11-10,清算の結了等,,,2015-10-05,1,,,,,トゥラスト,0
1449,6080001020892,登記記録の閉鎖等,0,2023-11-14,2023-11-13,株式会社巨林,,株式会社,静岡県,焼津市,利右衛門６２６番地の２,,22,212,4210212,,,2023-11-13,清算の結了等,,,2016-04-21,1,,,,,キョーリン,0
1454,6100002000511,登記記録の閉鎖等,0,2023-11-14,2023-11-06,有限会社イナガキ薬局,,有限会社,長野県,長野市,大字鶴賀字居町１７７２番地６,,20,201,3810000,,,2023-11-06,清算の結了等,,,2015-10-05,1,,,,,イナガキヤッキョク,0
1456,6120001033080,登記記録の閉鎖等,0,2023-11-14,2023-11-10,大興制服株式会社,,株式会社,大阪府,大阪市住吉区,千躰２丁目７番２５号,,27,120,5580047,,,2023-11-10,清算の結了等,,,2015-10-05,1,,,,,ダイコウセイフク,0
1477,6130001038095,登記記録の閉鎖等,0,2023-11-14,2023-11-07,株式会社住田屋,,株式会社,京都府,八幡市,八幡柿ケ谷５７番地の１,,26,210,6148055,,,2023-11-07,清算の結了等,,,2015-10-05,1,,,,,スミタヤ,0
1483,6130003004715,登記記録の閉鎖等,0,2023-11-14,2023-11-01,合同会社藤大,,合同会社,京都府,京都市下京区,西七条御前田町５番地,,26,106,6008897,,,2023-11-01,清算の結了等,,,2016-07-19,1,,,,,フジダイ,0
1497,6170001005793,登記記録の閉鎖等,0,2023-11-14,2023-11-10,株式会社ナカタニ,,株式会社,和歌山県,海南市,七山６４９番地,,30,202,6400441,,,2023-11-10,清算の結了等,,,2015-10-05,1,,,,,ナカタニ,0
1513,6200002022520,登記記録の閉鎖等,0,2023-11-14,2023-11-10,有限会社壽喜名,,有限会社,岐阜県,瑞浪市,山田町１０５４番地,,21,208,5096104,,,2023-11-10,清算の結了等,,,2015-10-05,1,,,,,ジュキナ,0
1515,6220002016116,登記記録の閉鎖等,0,2023-11-14,2023-11-09,有限会社川辺運送,,有限会社,石川県,珠洲市,飯田町５部９５番地の１,,17,205,9271214,,,2023-11-09,清算の結了等,,,2015-10-05,1,,,,,カワベウンソウ,0
1525,6240002002865,登記記録の閉鎖等,0,2023-11-14,2023-11-08,有限会社オーティー企画,,有限会社,広島県,広島市西区,鈴が峰町３３番１号,,34,104,7330852,,,2023-11-08,清算の結了等,,,2015-10-05,1,,,,,オーティーキカク,0
1529,6250002014661,登記記録の閉鎖等,0,2023-11-14,2023-11-10,有限会社コアスタイル,,有限会社,山口県,周南市,糀町１丁目１番地,,35,215,7450027,,,2023-11-10,清算の結了等,,,2015-10-05,1,,,,,コアスタイル,0
1552,6330002030898,登記記録の閉鎖等,0,2023-11-14,2023-11-01,有限会社木村製材所,,有限会社,熊本県,球磨郡あさぎり町,免田東１６８２番地の２,,43,514,8680408,,,2023-11-01,清算の結了等,,,2015-10-05,1,,,,,キムラセイザイショ,0
1566,6380005012088,登記記録の閉鎖等,0,2023-11-14,2023-11-09,特定非営利活動法人相双の未来,,その他の設立登記法人,福島県,いわき市,泉玉露２丁目６番地の９,,07,204,9718172,,,2023-11-09,清算の結了等,,,2018-11-09,1,,,,,ソウソウノミライ,0
1593,7010001230134,登記記録の閉鎖等,0,2023-11-14,2023-11-07,ＦＩＲＳＴ　ＳＴＥＰ株式会社,,株式会社,東京都,千代田区,西神田２丁目５番６号中西ビル４階,,13,101,1010065,,,2023-11-07,清算の結了等,,,2022-10-17,1,,,,,ファーストステップ,0
1597,7010405010900,登記記録の閉鎖等,0,2023-11-14,2023-11-09,特定非営利活動法人日本スポーツボランティアネットワーク,,その他の設立登記法人,東京都,港区,赤坂１丁目２番２号,,13,103,1070052,,,2023-11-09,清算の結了等,,,2015-10-05,1,,,,,ニホンスポーツボランティアネットワーク,0
1603,7010802008299,登記記録の閉鎖等,0,2023-11-14,2023-11-10,有限会社第一大成舍,,有限会社,東京都,大田区,北千束２丁目２３番５号,,13,111,1450062,,,2023-11-10,清算の結了等,,,2015-10-05,1,,,,,ダイイチタイセイシャ,0
1604,7010901002921,登記記録の閉鎖等,0,2023-11-14,2023-11-06,株式会社唐川商工,,株式会社,東京都,世田谷区,祖師谷２丁目７番１１号,,13,112,1570072,,,2023-11-06,清算の結了等,,,2015-10-05,1,,,,,カラカワショウコウ,0
1630,7013202012301,登記記録の閉鎖等,0,2023-11-14,2023-11-13,有限会社木島コーポレーション,,有限会社,東京都,目黒区,鷹番３丁目６番２１号岡部ビル５０１号室,,13,110,1520004,,,2023-11-13,清算の結了等,,,2015-10-05,1,,,,,,0
1648,7030001127080,登記記録の閉鎖等,0,2023-11-14,2023-11-02,株式会社Ｋｏｍｏｔｔｏ,,株式会社,埼玉県,さいたま市南区,大字大谷口８６５番地６１,,11,108,3360042,,,2023-11-02,清算の結了等,,,2018-08-17,1,,,,,コモット,0
1659,7030002074140,登記記録の閉鎖等,0,2023-11-14,2023-11-06,有限会社橘建築設計事務所,,有限会社,埼玉県,川越市,大字伊佐沼１３２番地２,,11,201,3500855,,,2023-11-06,清算の結了等,,,2015-10-05,1,,,,,タチバナケンチクセッケイジムショ,0
1674,7090002015774,登記記録の閉鎖等,0,2023-11-14,2023-11-13,有限会社小倉家具店,,有限会社,山梨県,甲府市,中央３丁目１０番３３号,,19,201,4000032,,,2023-11-13,清算の結了等,,,2023-08-17,1,,,,,オグラカグテン,0
1677,7100001034121,登記記録の閉鎖等,0,2023-11-14,2023-11-06,株式会社エフ・ユー建築,,株式会社,長野県,松本市,芳野１５番３号,,20,202,3990002,,,2023-11-06,清算の結了等,,,2021-04-05,1,,,,,エフユーケンチク,0
1686,7120001221915,登記記録の閉鎖等,0,2023-11-14,2023-11-01,株式会社テクノフード,,株式会社,大阪府,大阪市中央区,千日前１丁目６番１２号,,27,128,5420074,,,2023-11-01,合併による解散等,2120001210121,令和５年１１月１日大阪市中央区難波四丁目１番１５号近鉄難波ビルリージャス内株式会社和のみや（2120001210121）に合併し解散,2019-06-21,1,,,,,テクノフード,0
1690,7120001257793,登記記録の閉鎖等,0,2023-11-14,2023-11-10,株式会社ミツワ企画,,株式会社,大阪府,大阪市福島区,福島７丁目４番１７号,,27,103,5530003,,,2023-11-10,清算の結了等,,,2023-09-07,1,,,,,ミツワキカク,0
1695,7120002035050,登記記録の閉鎖等,0,2023-11-14,2023-11-10,有限会社上方,,有限会社,大阪府,大阪市中央区,（大阪市南区千日前一丁目７番１１号）,,27,128,5390000,,,2023-11-10,清算の結了等,,,2015-10-05,1,,,,,カミガタ,1
1698,7120102003519,登記記録の閉鎖等,0,2023-11-14,2023-11-13,有限会社ナショナルコンサルタント,,有限会社,大阪府,堺市北区,金岡町１９９４番地の２,,27,146,5918022,,,2023-11-13,清算の結了等,,,2015-10-05,1,,,,,ナショナルコンサルタント,0
1701,7120901030036,登記記録の閉鎖等,0,2023-11-14,2023-11-07,株式会社ヨシオカ相続総研,,株式会社,大阪府,豊中市,岡上の町４丁目３番２号,,27,203,5600023,,,2023-11-07,清算の結了等,,,2015-10-05,1,,,,,ヨシオカソウゾクソウケン,0
1706,7130001036528,登記記録の閉鎖等,0,2023-11-14,2023-11-01,株式会社三煌アグリブレーンシステム,,株式会社,京都府,亀岡市,上矢田町溝ノ向９番地,,26,206,6210856,,,2023-11-01,合併による解散等,1130001035618,令和５年１１月１日京都府亀岡市大井町南金岐尾垣内９番地株式会社三煌産業（1130001035618）に合併し解散,2015-10-05,1,,,,,サンコウアグリブレーンシステム,0
1707,7130001047616,登記記録の閉鎖等,0,2023-11-14,2023-11-06,株式会社ジェイ,,株式会社,京都府,京都市左京区,岩倉下在地町４７－２,,26,103,6060013,,,2023-11-06,清算の結了等,,,2015-10-05,1,,,,,ジェイ,0
1722,7140001099895,登記記録の閉鎖等,0,2023-11-14,2023-11-09,株式会社ウィングジャパン,,株式会社,兵庫県,加東市,社５９８番地１,,28,228,6731431,,,2023-11-09,清算の結了等,,,2015-11-06,1,,,,,ウィングジャパン,0
1723,7140001105851,登記記録の閉鎖等,0,2023-11-14,2023-11-01,株式会社ミヤビ,,株式会社,兵庫県,神戸市中央区,栄町通１丁目２番１号,,28,110,6500023,,,2023-11-01,合併による解散等,2140001093242,令和５年１１月１日神戸市中央区北長狭通一丁目６番１号株式会社八坐和（2140001093242）に合併し解散,2017-04-18,1,,,,,ミヤビ,0
1735,7180001139400,登記記録の閉鎖等,0,2023-11-14,2023-10-20,株式会社ＳｏｍｅＬｉｅｄ,,株式会社,愛知県,名古屋市北区,西味鋺２丁目７１６番地,,23,103,4620016,,,2023-10-20,清算の結了等,,,2019-12-27,1,,,,,ソーマリッド,0
1740,7180003016184,登記記録の閉鎖等,0,2023-11-14,2023-11-10,合同会社オフィスクアン,,合同会社,愛知県,豊明市,新田町子持松９番地８,,23,229,4701112,,,2023-11-10,清算の結了等,,,2015-10-05,1,,,,,オフィスクアン,0
1741,7180003020582,登記記録の閉鎖等,0,2023-11-14,2023-11-09,グルメエクスプローラ合同会社,,合同会社,東京都,新宿区,新宿１丁目３６番２号新宿第七葉山ビル３階,,13,104,1600022,,,2023-11-09,清算の結了等,,,2019-11-28,1,,,,,グルメエクスプローラ,0
1743,7180005018823,登記記録の閉鎖等,0,2023-11-14,2023-11-08,一般社団法人みらい,,その他の設立登記法人,愛知県,名古屋市東区,泉１丁目１４番３号ＨＡＳＥＧＡＷＡビル４階Ｅ号室,,23,102,4610001,,,2023-11-08,清算の結了等,,,2020-06-02,1,,,,,ミライ,0
1749,7200002025381,登記記録の閉鎖等,0,2023-11-14,2023-11-10,有限会社真山,,有限会社,岐阜県,高山市,総和町１丁目４５番地,,21,203,5060007,,,2023-11-10,清算の結了等,,,2015-10-05,1,,,,,シンザン,0
1755,7240001055632,登記記録の閉鎖等,0,2023-11-14,2023-11-13,株式会社ワタナベハウス,,株式会社,広島県,広島市西区,三滝本町２丁目２２番１６番,,34,104,7330802,,,2023-11-13,清算の結了等,,,2020-02-10,1,,,,,ワタナベハウス,0
1757,7240002007797,登記記録の閉鎖等,0,2023-11-14,2023-11-09,島資材有限会社,,有限会社,広島県,広島市安佐南区,高取南２丁目１９番８号,,34,105,7310142,,,2023-11-09,清算の結了等,,,2015-10-05,1,,,,,シマシザイ,0
1783,7290802016407,登記記録の閉鎖等,0,2023-11-14,2023-11-10,有限会社相生鉄工,,有限会社,福岡県,北九州市八幡西区,相生町１７番１６－８０４号,,40,109,8060044,,,2023-11-10,清算の結了等,,,2015-10-05,1,,,,,アイオイテッコウ,0
1784,7290803004014,登記記録の閉鎖等,0,2023-11-14,2023-10-31,合同会社サンライズ,,合同会社,福岡県,北九州市小倉北区,木町２丁目８番４号,,40,106,8030851,,,2023-10-31,清算の結了等,,,2021-12-27,1,,,,,サンライズ,0
1815,7410002005420,登記記録の閉鎖等,0,2023-11-14,2023-11-10,有限会社あすりーと自動車,,有限会社,秋田県,潟上市,天王字持谷地１番地２１,,05,211,0100201,,,2023-11-10,清算の結了等,,,2015-10-05,1,,,,,アスリートジドウシャ,0
1822,7430003013552,登記記録の閉鎖等,0,2023-11-14,2023-11-06,イーナサービス合同会社,,合同会社,北海道,札幌市北区,新琴似九条８丁目２番１６号,,01,102,0010909,,,2023-11-06,清算の結了等,,,2022-01-18,1,,,,,イーナサービス,0
1828,7470002000845,登記記録の閉鎖等,0,2023-11-14,2023-11-10,有限会社アラモード印刷,,有限会社,香川県,高松市,由良町８７０番地の３,,37,201,7610441,,,2023-11-10,清算の結了等,,,2015-10-05,1,,,,,アラモードインサツ,0
1830,7500001001584,登記記録の閉鎖等,0,2023-11-14,2023-11-10,コウテイホーム株式会社,,株式会社,愛媛県,松山市,本町２丁目１－１,,38,201,7900811,,,2023-11-10,合併による解散等,9500001001582,令和５年１１月１０日愛媛県松山市本町二丁目１－１コウテイ建設株式会社（9500001001582）に合併し解散,2015-10-05,1,,,,,コウテイホーム,0
1854,8010401063975,登記記録の閉鎖等,0,2023-11-14,2023-11-09,株式会社テクブリッジ,,株式会社,東京都,港区,西新橋１丁目２番９号日比谷セントラルビル１４階,,13,103,1050003,,,2023-11-09,清算の結了等,,,2015-10-05,1,,,,,テクブリッジ,0
1858,8010401109027,登記記録の閉鎖等,0,2023-11-14,2023-11-09,株式会社イノベーション・ドリーム,,株式会社,東京都,港区,南青山２丁目２番１５号Ｗｉｎ青山ビルＵＣＦ９１７号,,13,103,1070062,,,2023-11-09,清算の結了等,,,2015-10-05,1,,,,,イノベーションドリーム,0
1875,8010701039840,登記記録の閉鎖等,0,2023-11-14,2023-11-08,アンドノート株式会社,,株式会社,東京都,品川区,大崎５丁目８－５グリーンプラザ五反田第二２０８,,13,109,1410032,,,2023-11-08,清算の結了等,,,2020-09-17,1,,,,,アンドノート,0
1880,8011001128326,登記記録の閉鎖等,0,2023-11-14,2023-11-07,株式会社ＶＯＹＺ　ＥＮＴＥＲＴＡＩＮＭＥＮＴ,,株式会社,東京都,渋谷区,恵比寿１丁目１９番１９号,,13,113,1500013,,,2023-11-07,清算の結了等,,,2019-06-03,1,,,,,ボイズエンターテインメント,0
1883,8011001134951,登記記録の閉鎖等,0,2023-11-14,2023-11-06,株式会社Ｊｕｇｇａａｒ,,株式会社,東京都,渋谷区,渋谷２丁目２１番１号,,13,113,1500002,,,2023-11-06,清算の結了等,,,2020-07-27,1,,,,,ジュガール,0
1904,8012801018740,登記記録の閉鎖等,0,2023-11-14,2023-11-06,株式会社エムズホーム,,株式会社,東京都,日野市,神明２丁目１０番地の１,,13,212,1910016,,,2023-11-06,清算の結了等,,,2018-05-18,1,,,,,エムズホーム,0
1907,8013301050721,登記記録の閉鎖等,0,2023-11-14,2023-11-06,株式会社ＡＬＴＥＡ,,株式会社,東京都,豊島区,南池袋１丁目９番１８－３３４号,,13,116,1710022,,,2023-11-06,清算の結了等,,,2023-05-10,1,,,,,アルテア,0
1915,8020002012249,登記記録の閉鎖等,0,2023-11-14,2023-11-02,ブリッジ学院有限会社,,有限会社,神奈川県,横浜市戸塚区,平戸１丁目２９番地,,14,110,2440802,,,2023-11-02,清算の結了等,,,2015-10-05,1,,,,,ブリッジガクイン,0
1916,8020002026224,登記記録の閉鎖等,0,2023-11-14,2023-11-06,有限会社栗原建設,,有限会社,神奈川県,横浜市神奈川区,白幡南町３２番５号,,14,102,2210073,,,2023-11-06,清算の結了等,,,2015-10-05,1,,,,,クリハラケンセツ,0
1930,8030002027270,登記記録の閉鎖等,0,2023-11-14,2023-11-01,有限会社藤田空調,,有限会社,埼玉県,戸田市,笹目２丁目８番地の３９,,11,224,3350034,,,2023-11-01,清算の結了等,,,2015-10-05,1,,,,,フジタクウチョウ,0
1931,8030002056930,登記記録の閉鎖等,0,2023-11-14,2023-11-02,有限会社エスケイ精密,,有限会社,埼玉県,上尾市,大字領家１４番地の３,,11,219,3620066,,,2023-11-02,清算の結了等,,,2015-10-05,1,,,,,エスケイセイミツ,0
1934,8040001070865,登記記録の閉鎖等,0,2023-11-14,2023-11-06,株式会社ＴＡＫＥ２,,株式会社,千葉県,柏市,松ケ崎１０５７番地９,,12,217,2770835,,,2023-11-06,清算の結了等,,,2015-10-05,1,,,,,,0
1944,8040005021071,登記記録の閉鎖等,0,2023-11-14,2023-11-02,特定非営利活動法人ちば日独国際交流センター,,その他の設立登記法人,千葉県,佐倉市,山王２丁目３９番地３,,12,212,2850807,,,2023-11-02,清算の結了等,,,2021-01-21,1,,,,,チバニチドクコクサイコウリュウセンター,0
1948,8050002018342,登記記録の閉鎖等,0,2023-11-14,2023-11-06,有限会社小野製作所,,有限会社,茨城県,猿島郡境町,大字横塚２２番地の２,,08,546,3060406,,,2023-11-06,清算の結了等,,,2015-10-05,1,,,,,,0
1950,8060001001430,登記記録の閉鎖等,0,2023-11-14,2023-11-10,協立産業株式会社,,株式会社,栃木県,宇都宮市,宝木町１丁目２５８３番地２２コ－ポエクセル２－２０１,,09,201,3200061,,,2023-11-10,清算の結了等,,,2015-10-05,1,,,,,キョウリツサンギョウ,0
1963,8100003006027,登記記録の閉鎖等,0,2023-11-14,2023-11-07,佐久平ファーム合同会社,,合同会社,長野県,佐久市,瀬戸１９３３番地,,20,217,3850035,,,2023-11-07,清算の結了等,,,2021-04-05,1,,,,,サクダイラファーム,0
1965,8120001026909,登記記録の閉鎖等,0,2023-11-14,2023-11-07,株式会社やたや,,株式会社,大阪府,大阪市此花区,四貫島１丁目６番８号,,27,104,5540014,,,2023-11-07,清算の結了等,,,2015-10-05,1,,,,,ヤタヤ,0
1968,8120001202088,登記記録の閉鎖等,0,2023-11-14,2023-11-13,株式会社アルッキ,,株式会社,大阪府,大阪市東淀川区,豊新２丁目６番６－２０６号,,27,114,5330014,,,2023-11-13,清算の結了等,,,2016-11-25,1,,,,,アルッキ,0
1979,8120901031033,登記記録の閉鎖等,0,2023-11-14,2023-11-06,ＢＭＪ株式会社,,株式会社,大阪府,摂津市,鳥飼銘木町１８番３５号,,27,224,5660063,,,2023-11-06,清算の結了等,,,2015-10-05,1,,,,,ビーエムジェイ,0
1984,8130002007378,登記記録の閉鎖等,0,2023-11-14,2023-11-07,有限会社大信,,有限会社,京都府,京都市下京区,朱雀宝蔵町７５番地,,26,106,6008846,,,2023-11-07,清算の結了等,,,2015-10-05,1,,,,,ダイシン,0
2007,8180001146585,登記記録の閉鎖等,0,2023-11-14,2023-11-02,株式会社招猫,,株式会社,愛知県,瀬戸市,みずの坂３丁目１７３番地,,23,204,4890909,,,2023-11-02,清算の結了等,,,2021-06-21,1,,,,,マネキネコ,0
2010,8180002092498,登記記録の閉鎖等,0,2023-11-14,2023-11-09,有限会社石島建築,,有限会社,愛知県,あま市,中橋郷中２９番地,,23,237,4901226,,,2023-11-09,清算の結了等,,,2015-10-05,1,,,,,イシジマケンチク,0
2021,8200002026214,登記記録の閉鎖等,0,2023-11-14,2023-11-08,有限会社ジェーツー,,有限会社,岐阜県,高山市,中切町４６５番地,,21,203,5060043,,,2023-11-08,合併による解散等,3120001024223,令和５年１１月１日大阪市天王寺区上本町八丁目６番２６号太平地所株式会社（3120001024223）に合併し解散,2015-10-05,1,,,,,,0
2023,8230001007815,登記記録の閉鎖等,0,2023-11-14,2023-11-10,仁生薬品株式会社,,株式会社,富山県,滑川市,堀江６３６番地,,16,206,9360846,,,2023-11-10,清算の結了等,,,2015-10-05,1,,,,,ジンセイヤクヒン,0
2042,8290001072903,登記記録の閉鎖等,0,2023-11-14,2023-11-01,株式会社松武キッズアカデミー,,株式会社,福岡県,大野城市,下大利２丁目１８番１０号,,40,219,8160952,,,2023-11-01,清算の結了等,,,2016-02-16,1,,,,,マツタケキッズアカデミー,0
2054,8300001009300,登記記録の閉鎖等,0,2023-11-14,2023-11-10,エナピース株式会社,,株式会社,佐賀県,佐賀市,光１丁目２番９号,,41,201,8400033,,,2023-11-10,清算の結了等,,,2015-10-05,1,,,,,エナピース,0
2055,8300002009596,登記記録の閉鎖等,0,2023-11-14,2023-11-09,有限会社三葉美創産業,,有限会社,佐賀県,三養基郡みやき町,大字西島３３２３番地の２,,41,346,8401101,,,2023-11-09,清算の結了等,,,2015-10-05,1,,,,,サンヨウビソウサンギョウ,0
2060,8310003000314,登記記録の閉鎖等,0,2023-11-14,2023-11-10,二神合名会社,,合名会社,長崎県,長崎市,若葉町１０番８号,,42,201,8528137,,,2023-11-10,清算の結了等,,,2015-10-05,1,,,,,フタガミ,0
2076,8350002018709,登記記録の閉鎖等,0,2023-11-14,2023-11-06,株式会社ホクサツえびのファーム,,株式会社,宮崎県,えびの市,大字原田字木場添１６７８番地２,,45,209,8894301,,,2023-11-06,清算の結了等,,,2015-10-05,1,,,,,ホクサツエビノファーム,0
2079,8360002014987,登記記録の閉鎖等,0,2023-11-14,2023-11-09,有限会社島シングル工業,,有限会社,沖縄県,中頭郡北谷町,字宮城１番地の２８９,,47,326,9040113,,,2023-11-09,清算の結了等,,,2015-10-05,1,,,,,シマシングルコウギョウ,0
2080,8360003011637,登記記録の閉鎖等,0,2023-11-14,2023-11-06,合同会社ワイエフ企画室,,合同会社,沖縄県,中頭郡読谷村,字渡慶次１８４番地,,47,324,9040326,,,2023-11-06,清算の結了等,,,2021-12-09,1,,,,,ワイエフキカクシツ,0
2088,8430001040234,登記記録の閉鎖等,0,2023-11-14,2023-11-01,株式会社イー・ワーク,,株式会社,北海道,札幌市中央区,大通西１１丁目４番地２１,,01,101,0600042,,,2023-11-01,清算の結了等,,,2015-10-05,1,,,,,イーワーク,0
2091,8470002010736,登記記録の閉鎖等,0,2023-11-14,2023-11-10,有限会社松井商店,,有限会社,香川県,木田郡三木町,大字井上２２６４番地,,37,341,7610705,,,2023-11-10,清算の結了等,,,2015-10-05,1,,,,,マツイショウテン,0
2092,8470002010959,登記記録の閉鎖等,0,2023-11-14,2023-11-10,有限会社綾上電気,,有限会社,香川県,綾歌郡綾川町,山田上甲１１３番地３,,37,387,7612203,,,2023-11-10,清算の結了等,,,2015-10-05,1,,,,,アヤカミデンキ,0
2095,8480002004209,登記記録の閉鎖等,0,2023-11-14,2023-11-13,有限会社ニーファニチア,,有限会社,徳島県,徳島市,佐古一番町１４番１４号,,36,201,7700021,,,2023-11-13,清算の結了等,,,2015-10-05,1,,,,,ニーファニチア,0
2096,8490005000625,登記記録の閉鎖等,0,2023-11-14,2023-11-10,医療法人信言会,,その他の設立登記法人,高知県,高知市,玉水町８２番地,,39,201,7800931,,,2023-11-10,清算の結了等,,,2015-10-05,1,,,,,シンゲンカイ,0
2097,8500001001583,登記記録の閉鎖等,0,2023-11-14,2023-11-10,コウテイ建物株式会社,,株式会社,愛媛県,松山市,本町２丁目１－１,,38,201,7900811,,,2023-11-10,合併による解散等,9500001001582,令和５年１１月１０日愛媛県松山市本町二丁目１－１コウテイ建設株式会社（9500001001582）に合併し解散,2015-10-05,1,,,,,コウテイタテモノ,0
2103,9010001133236,登記記録の閉鎖等,0,2023-11-14,2023-11-08,株式会社ＮＬＰフィールド,,株式会社,兵庫県,神戸市須磨区,菅の台７丁目２９番地の５,,28,107,6540143,,,2023-11-08,清算の結了等,,,2015-10-05,1,,,,,エヌエルピーフィールド,0
2117,9010003038739,登記記録の閉鎖等,0,2023-11-14,2023-11-09,ＮＥＸＴ　ＩＮＮＯＶＡＴＩＯＮ合同会社,,合同会社,兵庫県,西脇市,野村町７２２－５,,28,213,6770054,,,2023-11-09,清算の結了等,,,2022-09-28,1,,,,,ネクストイノベーション,0
2128,9010401159392,登記記録の閉鎖等,0,2023-11-14,2023-11-09,株式会社ＯＦＦＩＣＥ　ＬＡＢＯ,,株式会社,東京都,港区,赤坂６丁目１０番４５－５０７号,,13,103,1070052,,,2023-11-09,清算の結了等,,,2021-04-08,1,,,,,オフィスラボ,0
2135,9010501030429,登記記録の閉鎖等,0,2023-11-14,2023-11-06,不用品回収，買取，リサイクルショップ東京マルマサ株式会社,,株式会社,東京都,台東区,松が谷４丁目２５番８号第２山口ビル１階,,13,106,1110036,,,2023-11-06,清算の結了等,,,2015-10-05,1,,,,,フヨウヒンカイシュウカイトリリサイクルショップトウキョウマルマサ,0
2141,9010601048957,登記記録の閉鎖等,0,2023-11-14,2023-11-06,株式会社ＦＮＣ,,株式会社,東京都,江東区,千田４番６号ドエル清光１０１号,,13,108,1350013,,,2023-11-06,清算の結了等,,,2015-12-24,1,,,,,エフエヌシー,0
2152,9011001096357,登記記録の閉鎖等,0,2023-11-14,2023-11-09,株式会社ＦＡＣＴＢＡＳＥ,,株式会社,東京都,渋谷区,渋谷２丁目１９番１５号宮益坂ビルディング６０９,,13,113,1500002,,,2023-11-09,清算の結了等,,,2015-10-05,1,,,,,ファクトベース,0
2178,9013302012570,登記記録の閉鎖等,0,2023-11-14,2023-11-09,新アジア企画有限会社,,有限会社,東京都,豊島区,高田１丁目３６番３７号,,13,116,1710033,,,2023-11-09,清算の結了等,,,2015-10-05,1,,,,,シンアジアキカク,0
2179,9020001020664,登記記録の閉鎖等,0,2023-11-14,2023-11-02,株式会社杉屋商事,,株式会社,神奈川県,横浜市港北区,日吉本町３丁目２２番１３号,,14,109,2230062,,,2023-11-02,清算の結了等,,,2023-08-21,1,,,,,スギヤショウジ,0
2198,9021001063364,登記記録の閉鎖等,0,2023-11-14,2023-11-09,ＡＴファイン株式会社,,株式会社,神奈川県,相模原市南区,東林間４丁目３７番１９号,,14,153,2520311,,,2023-11-09,清算の結了等,,,2017-10-24,1,,,,,エーティーファイン,0
2225,9080001016748,登記記録の閉鎖等,0,2023-11-14,2023-11-09,藤枝倉庫株式会社,,株式会社,静岡県,藤枝市,茶町１丁目３番１０号,,22,214,4260023,,,2023-11-09,清算の結了等,,,2015-10-05,1,,,,,フジエダソウコ,0
2245,9120901030884,登記記録の閉鎖等,0,2023-11-14,2023-11-10,株式会社オーティ,,株式会社,大阪府,高槻市,宮野町２番２２号,,27,207,5690081,,,2023-11-10,合併による解散等,7430001069398,令和５年１１月１日札幌市白石区東札幌五条二丁目４番３０号株式会社アインファーマシーズ（7430001069398）に合併し解散,2015-10-05,1,,,,,オーティ,0
2258,9130001045758,登記記録の閉鎖等,0,2023-11-14,2023-11-08,笠井ビズテクノス株式会社,,株式会社,京都府,京都市南区,吉祥院大河原町２１番地,,26,107,6018391,,,2023-11-08,清算の結了等,,,2015-10-05,1,,,,,カサイビズテクノス,0
2264,9140001021477,登記記録の閉鎖等,0,2023-11-14,2023-11-09,ベイバイオサイエンス株式会社,,株式会社,兵庫県,神戸市中央区,港島南町５丁目２番５号,,28,110,6500047,,,2023-11-09,清算の結了等,,,2015-10-05,1,,,,,ベイバイオサイエンス,0
2269,9140001100685,登記記録の閉鎖等,0,2023-11-14,2023-11-01,株式会社栄喜,,株式会社,兵庫県,神戸市中央区,栄町通１丁目３番１０号,,28,110,6500023,,,2023-11-01,合併による解散等,2140001093242,令和５年１１月１日神戸市中央区北長狭通一丁目６番１号株式会社八坐和（2140001093242）に合併し解散,2016-01-13,1,,,,,エイキ,0
2274,9140002031863,登記記録の閉鎖等,0,2023-11-14,2023-11-09,有限会社岸屋,,有限会社,兵庫県,たつの市,龍野町富永１９４番地,,28,229,6794167,,,2023-11-09,清算の結了等,,,2015-10-05,1,,,,,キシヤ,0
2276,9140002052265,登記記録の閉鎖等,0,2023-11-14,2023-11-10,有限会社フレンズ調剤薬局,,有限会社,兵庫県,姫路市,西今宿３丁目１９番４０号,,28,201,6700061,,,2023-11-10,合併による解散等,7430001069398,令和５年１１月１日札幌市白石区東札幌五条二丁目４番３０号株式会社アインファーマシーズ（7430001069398）に合併し解散,2015-10-05,1,,,,,フレンズチョウザイヤッキョク,0
2282,9180003022866,登記記録の閉鎖等,0,2023-11-14,2023-11-09,ＮＯＢＯＲＩ合同会社,,合同会社,愛知県,名古屋市西区,中小田井５丁目２５０番地サロンハイツ１Ａ号,,23,104,4520822,,,2023-11-09,清算の結了等,,,2021-08-19,1,,,,,ノボリ,0
2284,9180005003939,登記記録の閉鎖等,0,2023-11-14,2023-11-07,愛知県人形玩具工業協同組合,,その他の設立登記法人,愛知県,名古屋市西区,新道２丁目１５番１７号,,23,104,4510043,,,2023-11-07,清算の結了等,,,2015-10-05,1,,,,,アイチケンニンギョウガングコウギョウ,0
2289,9180301000862,登記記録の閉鎖等,0,2023-11-14,2023-11-01,株式会社紘進,,株式会社,愛知県,岡崎市,美合町字呑地２番地１３,,23,202,4440802,,,2023-11-01,清算の結了等,,,2015-10-05,1,,,,,コウシン,0
2298,9200001034720,登記記録の閉鎖等,0,2023-11-14,2023-11-10,株式会社ＨＩＧＡＳＨＩ,,株式会社,岐阜県,高山市,中切町４９７,,21,203,5060043,,,2023-11-10,清算の結了等,,,2017-12-15,1,,,,,ヒガシ,0
2301,9230002011674,登記記録の閉鎖等,0,2023-11-14,2023-11-08,有限会社長井商会,,有限会社,石川県,河北郡津幡町,字潟端４７３番地２,,17,361,9290346,,,2023-11-08,清算の結了等,,,2015-10-05,1,,,,,ナガイショウカイ,0
2306,9240002049953,登記記録の閉鎖等,0,2023-11-14,2023-11-10,有限会社アスカ設計,,有限会社,広島県,尾道市,因島土生町１８９９番地の３７,,34,205,7222323,,,2023-11-10,清算の結了等,,,2015-10-05,1,,,,,,0
2308,9250002020599,登記記録の閉鎖等,0,2023-11-14,2023-11-10,有限会社キムラ工業,,有限会社,山口県,熊毛郡田布施町,大字麻郷奥７９９番地１,,35,343,7421512,,,2023-11-10,清算の結了等,,,2015-10-05,1,,,,,キムラコウギョウ,0
2325,9290001070864,登記記録の閉鎖等,0,2023-11-14,2023-11-01,株式会社プリモ,,株式会社,福岡県,福岡市中央区,大手門３丁目８番１６号,,40,133,8100074,,,2023-11-01,合併による解散等,3290001058155,令和５年１１月１日福岡市中央区大手門三丁目８番１６号株式会社アパックスホーム（3290001058155）に合併し解散,2015-10-05,1,,,,,プリモ,0
2334,9290002051748,登記記録の閉鎖等,0,2023-11-14,2023-11-01,有限会社田中商会,,有限会社,福岡県,小郡市,三沢１２３０番地の２,,40,216,8380106,,,2023-11-01,清算の結了等,,,2015-10-05,1,,,,,,0
2348,9340002009914,登記記録の閉鎖等,0,2023-11-14,2023-11-13,有限会社ヤマカタ熱絶,,有限会社,鹿児島県,鹿児島市,武２丁目３５番２２号,,46,201,8900045,,,2023-11-13,清算の結了等,,,2015-10-05,1,,,,,ヤマカタネツゼツ,0
2349,9340005001050,登記記録の閉鎖等,0,2023-11-14,2023-11-10,医療法人大森歯科医院,,その他の設立登記法人,鹿児島県,鹿児島市,新屋敷町３２番地７,,46,201,8920838,,,2023-11-10,清算の結了等,,,2015-10-05,1,,,,,オオモリシカイイン,0
2366,9430001035836,登記記録の閉鎖等,0,2023-11-14,2023-11-02,株式会社ＨＫＲ,,株式会社,北海道,札幌市白石区,南郷通７丁目北５番２７号,,01,104,0030023,,,2023-11-02,清算の結了等,,,2015-10-05,1,,,,,,0
