sequenceNumber,corporateNumber,process,correct,updateDate,changeDate,name,nameImageId,kind,prefectureName,cityName,streetNumber,addressImageId,prefectureCode,cityCode,postCode,addressOutside,addressOutsideImageId,closeDate,closeCause,successorCorporateNumber,changeCause,assignmentDate,latest,enName,enPrefectureName,enCityName,enAddressOutside,furigana,hihyoji
37,1010801034616,登記記録の閉鎖等,0,2025-05-29,2025-05-01,Ａｔｔｏｓｅｋ株式会社,,株式会社,東京都,品川区,東大井４丁目１－１１仙台坂アルカディア４０８号,,13,109,1400011,,,2025-05-01,清算の結了等,,,2023-12-18,1,,,,,アトセク,0
51,1011101024555,登記記録の閉鎖等,0,2025-05-29,2025-05-09,株式会社テイスティ・ガーデン,,株式会社,東京都,新宿区,舟町１０番地,,13,104,1600006,,,2025-05-09,清算の結了等,,,2015-10-05,1,,,,,テイスティガーデン,0
56,1011105008034,登記記録の閉鎖等,0,2025-05-29,2025-05-27,一般社団法人不動産経営イノベーション協会,,その他の設立登記法人,東京都,新宿区,高田馬場３丁目１番５号サンパティオ高田馬場３０９号室,,13,104,1690075,,,2025-05-27,清算の結了等,,,2017-10-16,1,,,,,フドウサンケイエイイノベーションキョウカイ,0
60,1011401022548,登記記録の閉鎖等,0,2025-05-29,2025-05-23,株式会社Ｃ３,,株式会社,東京都,板橋区,赤塚７丁目１８番２２号,,13,119,1750092,,,2025-05-23,清算の結了等,,,2020-04-30,1,,,,,シースリー,0
63,1011602008032,登記記録の閉鎖等,0,2025-05-29,2025-05-26,有限会社ハッピーアンドグリーン,,有限会社,東京都,練馬区,関町北５丁目１８番２０－２０６号,,13,120,1770051,,,2025-05-26,清算の結了等,,,2015-10-05,1,,,,,ハッピーアンドグリーン,0
75,1013301051726,登記記録の閉鎖等,0,2025-05-29,2025-05-19,フォルトナ・キャリア株式会社,,株式会社,東京都,豊島区,池袋２丁目３６番１号インフィニティ池袋６Ｆ,,13,116,1710014,,,2025-05-19,清算の結了等,,,2023-12-05,1,,,,,フォルトナキャリア,0
94,1030001096083,登記記録の閉鎖等,0,2025-05-29,2025-05-26,株式会社エムズコーポレーション,,株式会社,埼玉県,さいたま市西区,大字中釘２１９５番地１,,11,101,3310077,,,2025-05-26,清算の結了等,,,2015-10-05,1,,,,,エムズコーポレーション,0
104,1030005011922,登記記録の閉鎖等,0,2025-05-29,2025-05-26,特定非営利活動法人子ども家族いきいきプロジェクト・あっとほーむ,,その他の設立登記法人,埼玉県,比企郡滑川町,大字月輪１６２３番地１０,,11,341,3550813,,,2025-05-26,清算の結了等,,,2015-10-05,1,,,,,コドモカゾクイキイキプロジェクトアットホーム,0
105,1040001062695,登記記録の閉鎖等,0,2025-05-29,2025-05-15,株式会社山石商会,,株式会社,千葉県,山武郡横芝光町,長倉１３０８番地,,12,410,2891756,,,2025-05-15,清算の結了等,,,2015-10-05,1,,,,,ヤマイシショウカイ,0
111,1040002022426,登記記録の閉鎖等,0,2025-05-29,2025-05-12,有限会社サトウ住建,,有限会社,千葉県,船橋市,咲が丘４丁目２２番１号,,12,204,2740807,,,2025-05-12,清算の結了等,,,2015-10-05,1,,,,,サトウジュウケン,0
114,1050002010842,登記記録の閉鎖等,0,2025-05-29,2025-05-26,有限会社ホクショー,,有限会社,茨城県,笠間市,下郷４５２７番地１７,,08,216,3190202,,,2025-05-26,清算の結了等,,,2015-10-05,1,,,,,,0
119,1070001039237,登記記録の閉鎖等,0,2025-05-29,2025-05-26,株式会社アイキューグロースパートナーズ,,株式会社,群馬県,館林市,栄町１３番１０号,,10,207,3740052,,,2025-05-26,清算の結了等,,,2022-05-18,1,,,,,アイキューグロースパートナーズ,0
122,1070002010907,登記記録の閉鎖等,0,2025-05-29,2025-05-22,有限会社高橋板金工業所,,有限会社,群馬県,高崎市,江木町５９６番地の１９,,10,202,3700046,,,2025-05-22,清算の結了等,,,2015-10-05,1,,,,,タカハシバンキンコウギョウショ,0
131,1100003006702,登記記録の閉鎖等,0,2025-05-29,2025-05-26,合同会社５７３,,合同会社,長野県,上田市,神畑１０２５－１－１０４号室,,20,203,3861103,,,2025-05-26,清算の結了等,,,2022-10-03,1,,,,,コナミ,0
135,1110005009850,登記記録の閉鎖等,0,2025-05-29,2025-05-19,道因寺,,その他の設立登記法人,新潟県,妙高市,大字大原新田４１２番地,,15,217,9440332,,,2025-05-19,清算の結了等,,,2015-10-05,1,,,,,ドウインジ,0
137,1120001023499,登記記録の閉鎖等,0,2025-05-29,2025-05-22,株式会社サン・カラー,,株式会社,大阪府,大阪市天王寺区,国分町２番２３号,,27,109,5430044,,,2025-05-22,清算の結了等,,,2015-10-05,1,,,,,サンカラー,0
170,1180001083307,登記記録の閉鎖等,0,2025-05-29,2025-05-26,中沢株式会社,,株式会社,愛知県,一宮市,神山３丁目３番９号,,23,203,4910904,,,2025-05-26,清算の結了等,,,2015-10-05,1,,,,,ナカザワ,0
180,1190001015580,登記記録の閉鎖等,0,2025-05-29,2025-05-26,株式会社ティーエスカンパニー,,株式会社,三重県,四日市市,内山町字仲尾７９６７番地２,,24,202,5121101,,,2025-05-26,清算の結了等,,,2015-10-05,1,,,,,ティーエスカンパニー,0
206,1300001007500,登記記録の閉鎖等,0,2025-05-29,2025-05-27,株式会社肥前風力エネルギー開発,,株式会社,佐賀県,唐津市,肥前町入野甲１７０３番地,,41,202,8471526,,,2025-05-27,清算の結了等,,,2015-10-05,1,,,,,ヒゼンフウリョクエネルギーカイハツ,0
227,1430001048498,登記記録の閉鎖等,0,2025-05-29,2025-05-26,株式会社土田鉄工,,株式会社,北海道,滝川市,中島町３丁目２番２０号,,01,225,0730035,,,2025-05-26,清算の結了等,,,2015-10-05,1,,,,,ツチダテッコウ,0
244,2010001119794,登記記録の閉鎖等,0,2025-05-29,2025-05-09,川人産業株式会社,,株式会社,東京都,千代田区,麹町２丁目４番地,,13,101,1020083,,,2025-05-09,清算の結了等,,,2015-10-05,1,,,,,カワヒトサンギョウ,0
249,2010002026156,登記記録の閉鎖等,0,2025-05-29,2025-05-12,有限会社ゆかい,,有限会社,東京都,中央区,佃１丁目９番１３号,,13,102,1040051,,,2025-05-12,清算の結了等,,,2015-10-05,1,,,,,ユカイ,0
250,2010002028094,登記記録の閉鎖等,0,2025-05-29,2025-05-09,有限会社エイチ,,有限会社,東京都,文京区,本郷１丁目１４番２号,,13,105,1130033,,,2025-05-09,清算の結了等,,,2015-10-05,1,,,,,エイチ,0
251,2010003024142,登記記録の閉鎖等,0,2025-05-29,2025-05-22,ＭＢ　Ａｓｓｅｔ　Ｍａｎａｇｅｍｅｎｔ合同会社,,合同会社,福岡県,福岡市早良区,百道浜２丁目４番２７号ＡＩビル６Ｆ,,40,137,8140001,,,2025-05-22,清算の結了等,,,2016-09-21,1,,,,,エムビーアセットマネジメント,0
262,2010401178069,登記記録の閉鎖等,0,2025-05-29,2025-04-30,株式会社ｍｉｄｉホールディングス,,株式会社,東京都,港区,港南２丁目１５番３号,,13,103,1080075,,,2025-04-30,清算の結了等,,,2023-10-25,1,,,,,ミディホールディングス,0
269,2010502019485,登記記録の閉鎖等,0,2025-05-29,2025-05-23,有限会社ビッグワイズ,,有限会社,東京都,八王子市,七国１丁目２８番１６号,,13,201,1920919,,,2025-05-23,清算の結了等,,,2015-10-05,1,,,,,ビッグワイズ,0
272,2010601062139,登記記録の閉鎖等,0,2025-05-29,2025-05-26,株式会社オリエンタル,,株式会社,東京都,江東区,深川１丁目１－２シャンボール門前仲町４０６,,13,108,1350033,,,2025-05-26,清算の結了等,,,2022-11-10,1,,,,,オリエンタル,0
274,2010701035804,登記記録の閉鎖等,0,2025-05-29,2025-05-26,株式会社ミライバ,,株式会社,東京都,品川区,東品川２丁目２番２０号天王洲オーシャンスクエア２２階,,13,109,1400002,,,2025-05-26,合併による解散等,9120901025281,令和７年５月１日大阪府豊中市寺内二丁目１３番３号株式会社日本経営（9120901025281）に合併し解散,2018-05-16,1,,,,,ミライバ,0
293,2011402004577,登記記録の閉鎖等,0,2025-05-29,2025-05-26,有限会社秀交堂,,有限会社,東京都,板橋区,高島平８丁目２３番３号,,13,119,1750082,,,2025-05-26,清算の結了等,,,2015-10-05,1,,,,,シュウコウドウ,0
296,2011701004071,登記記録の閉鎖等,0,2025-05-29,2025-05-20,株式会社ジュールファッション,,株式会社,東京都,江戸川区,西小岩１丁目３番１３号,,13,123,1330057,,,2025-05-20,清算の結了等,,,2015-10-05,1,,,,,ジュールファッション,0
313,2013201015128,登記記録の閉鎖等,0,2025-05-29,2025-04-30,株式会社アール・パートナーズ,,株式会社,東京都,目黒区,中根１丁目９番１２号,,13,110,1520031,,,2025-04-30,清算の結了等,,,2015-10-05,1,,,,,アールパートナーズ,0
393,2120902017846,登記記録の閉鎖等,0,2025-05-29,2025-05-21,有限会社大石地所,,有限会社,大阪府,豊中市,庄内幸町４丁目１１番２１号,,27,203,5610833,,,2025-05-21,清算の結了等,,,2015-10-05,1,,,,,オオイシジショ,0
401,2140002049656,登記記録の閉鎖等,0,2025-05-29,2025-05-26,有限会社釣具の橋本,,有限会社,兵庫県,姫路市,緑台１丁目１７番１０号,,28,201,6712247,,,2025-05-26,清算の結了等,,,2015-10-05,1,,,,,ツリグノハシモト,0
409,2180001147449,登記記録の閉鎖等,0,2025-05-29,2025-05-27,ケーツー株式会社,,株式会社,愛知県,名古屋市中区,丸の内３丁目１８番９号秀光堂ビル３０１,,23,106,4600002,,,2025-05-27,清算の結了等,,,2021-08-18,1,,,,,ケーツー,0
420,2190005011666,登記記録の閉鎖等,0,2025-05-29,2025-05-26,行政書士法人菅原武事務所,,その他の設立登記法人,三重県,鈴鹿市,西条５丁目４０番地の１,,24,207,5130809,,,2025-05-26,清算の結了等,,,2022-01-18,1,,,,,スガワラタケシジムショ,0
421,2210005009897,登記記録の閉鎖等,0,2025-05-29,2025-05-26,一般社団法人地域フロンティアラボラトリー,,その他の設立登記法人,福井県,福井市,大手３丁目１３番１号,,18,201,9100005,,,2025-05-26,清算の結了等,,,2020-07-20,1,,,,,チイキフロンティアラボラトリー,0
443,2290001034339,登記記録の閉鎖等,0,2025-05-29,2025-05-23,株式会社ジェイシーピー,,株式会社,福岡県,福岡市博多区,博多駅南３丁目２番３号,,40,132,8120016,,,2025-05-23,清算の結了等,,,2015-10-05,1,,,,,ジェイシーピー,0
454,2300005004393,登記記録の閉鎖等,0,2025-05-29,2025-05-26,肥前陶磁器商工協同組合,,その他の設立登記法人,佐賀県,西松浦郡有田町,本町丙９５４番地９,,41,401,8440018,,,2025-05-26,清算の結了等,,,2015-10-05,1,,,,,ヒゼントウジキショウコウ,0
462,2340001002100,登記記録の閉鎖等,0,2025-05-29,2025-05-22,株式会社司調センター,,株式会社,鹿児島県,鹿児島市,鴨池新町１番３号司調センタービル３階２９号室,,46,201,8900064,,,2025-05-22,清算の結了等,,,2015-10-05,1,,,,,シチョウセンター,0
470,2370002012847,登記記録の閉鎖等,0,2025-05-29,2025-05-20,有限会社花森,,有限会社,宮城県,仙台市青葉区,国分町３丁目９番地７－２４０５号,,04,101,9800803,,,2025-05-20,清算の結了等,,,2015-10-05,1,,,,,ハナモリ,0
472,2370302001987,登記記録の閉鎖等,0,2025-05-29,2025-05-23,有限会社プロパン設備,,有限会社,宮城県,石巻市,門脇字二番谷地１３番地の３０７,,04,202,9860853,,,2025-05-23,清算の結了等,,,2015-10-05,1,,,,,プロパンセツビ,0
478,2410003003907,登記記録の閉鎖等,0,2025-05-29,2025-05-22,秋田浮体式洋上風力合同会社,,合同会社,秋田県,由利本荘市,一番堰１８１番地,,05,210,0150852,,,2025-05-22,清算の結了等,,,2024-04-03,1,,,,,アキタフタイシキヨウジョウフウリョク,0
481,2430001066895,登記記録の閉鎖等,0,2025-05-29,2025-05-26,株式会社けっぱる屋,,株式会社,北海道,札幌市北区,篠路四条４丁目４０番地４３９,,01,102,0028024,,,2025-05-26,清算の結了等,,,2015-10-05,1,,,,,ケッパルヤ,0
518,3010501006896,登記記録の閉鎖等,0,2025-05-29,2025-05-16,株式会社相馬,,株式会社,東京都,台東区,三筋２丁目６番２号,,13,106,1110055,,,2025-05-16,清算の結了等,,,2015-10-05,1,,,,,ソウマ,0
541,3011501009154,登記記録の閉鎖等,0,2025-05-29,2025-05-27,株式会社山桝酒店,,株式会社,東京都,荒川区,荒川５丁目１７番２号,,13,118,1160002,,,2025-05-27,清算の結了等,,,2015-10-05,1,,,,,ヤママスサケテン,0
554,3013403000455,登記記録の閉鎖等,0,2025-05-29,2025-05-26,合同会社中山建築設計,,合同会社,東京都,日野市,百草９２０番地の３３,,13,212,1910033,,,2025-05-26,清算の結了等,,,2015-10-05,1,,,,,ナカヤマケンチクセッケイ,0
555,3020001003550,登記記録の閉鎖等,0,2025-05-29,2025-05-22,株式会社アスタック,,株式会社,神奈川県,横浜市港南区,下永谷５丁目３０番２５号,,14,111,2330016,,,2025-05-22,清算の結了等,,,2015-10-05,1,,,,,アスタック,0
568,3021002038536,登記記録の閉鎖等,0,2025-05-29,2025-05-22,有限会社びんびん,,有限会社,神奈川県,秦野市,西田原２１８番地の１,,14,211,2570027,,,2025-05-22,清算の結了等,,,2015-10-05,1,,,,,ビンビン,0
569,3021002051836,登記記録の閉鎖等,0,2025-05-29,2025-05-21,有限会社三幸建設,,有限会社,神奈川県,小田原市,飯田岡６番地の１２,,14,206,2500854,,,2025-05-21,清算の結了等,,,2015-10-05,1,,,,,サンコウケンセツ,0
580,3030005021275,登記記録の閉鎖等,0,2025-05-29,2025-05-26,特定非営利活動法人みのり,,その他の設立登記法人,埼玉県,越谷市,川柳町１丁目５６５番地１,,11,222,3430827,,,2025-05-26,清算の結了等,,,2023-05-19,1,,,,,ミノリ,0
583,3040001090315,登記記録の閉鎖等,0,2025-05-29,2025-05-15,株式会社るーぷらカンパニー,,株式会社,千葉県,市原市,辰巳台西４丁目１１番地６,,12,219,2900004,,,2025-05-15,清算の結了等,,,2015-10-05,1,,,,,ループラカンパニー,0
592,3040002060374,登記記録の閉鎖等,0,2025-05-29,2025-05-13,エバウス・エンタープライズ有限会社,,有限会社,千葉県,佐倉市,王子台５丁目２１番地２４,,12,212,2850837,,,2025-05-13,清算の結了等,,,2015-10-05,1,,,,,エバウスエンタープライズ,0
597,3050001032860,登記記録の閉鎖等,0,2025-05-29,2025-05-23,株式会社結和物流,,株式会社,宮城県,名取市,愛島台６丁目１９番地の２２,,04,207,9811251,,,2025-05-23,清算の結了等,,,2015-10-05,1,,,,,ユウワブツリュウ,0
600,3060002002787,登記記録の閉鎖等,0,2025-05-29,2025-05-26,有限会社割烹三徳,,有限会社,栃木県,宇都宮市,塙田２丁目３番１１号,,09,201,3200027,,,2025-05-26,清算の結了等,,,2015-10-05,1,,,,,サントク,0
607,3080001013684,登記記録の閉鎖等,0,2025-05-29,2025-05-26,南遠化工株式会社,,株式会社,静岡県,牧之原市,新庄２０５８番地,,22,226,4210533,,,2025-05-26,清算の結了等,,,2015-10-05,1,,,,,ナンエンカコウ,0
621,3120001138626,登記記録の閉鎖等,0,2025-05-29,2025-05-23,創工房株式会社,,株式会社,大阪府,寝屋川市,萱島信和町９番５号,,27,215,5720829,,,2025-05-23,清算の結了等,,,2015-10-05,1,,,,,ソウコウボウ,0
623,3120001234945,登記記録の閉鎖等,0,2025-05-29,2025-05-20,株式会社サンキスト,,株式会社,大阪府,枚方市,宮之阪１丁目１１番５号,,27,210,5730022,,,2025-05-20,清算の結了等,,,2021-02-02,1,,,,,サンキスト,0
632,3120002007623,登記記録の閉鎖等,0,2025-05-29,2025-05-20,有限会社アクティブ,,有限会社,大阪府,大阪市城東区,東中浜１丁目９番１８号,,27,118,5360023,,,2025-05-20,清算の結了等,,,2015-10-05,1,,,,,,0
647,3130003002597,登記記録の閉鎖等,0,2025-05-29,2025-05-28,合同会社京唄堂,,合同会社,京都府,京都市下京区,高辻通寺町東入る恵美須之町５２０－１１,,26,106,6000000,,,2025-05-28,清算の結了等,,,2015-10-05,1,,,,,キョウバイドウ,0
676,3230003000269,登記記録の閉鎖等,0,2025-05-29,2025-05-28,合同会社タクマ工業,,合同会社,富山県,富山市,大町２３番地７,,16,201,9398073,,,2025-05-28,清算の結了等,,,2015-10-05,1,,,,,タクマコウギョウ,0
703,3310002010624,登記記録の閉鎖等,0,2025-05-29,2025-05-27,有限会社武田蒲団店,,有限会社,長崎県,佐世保市,上京町５番１１号,,42,202,8570872,,,2025-05-27,清算の結了等,,,2015-10-05,1,,,,,タケダフトンテン,0
731,3500002005514,登記記録の閉鎖等,0,2025-05-29,2025-05-27,有限会社ビジネスホテル・レインボー,,有限会社,愛媛県,松山市,枝松６丁目１０番６号,,38,201,7900962,,,2025-05-27,清算の結了等,,,2015-10-05,1,,,,,ビジネスホテルレインボー,0
741,4010001123902,登記記録の閉鎖等,0,2025-05-29,2025-04-30,株式会社Ｗ－ＥＳＴ,,株式会社,東京都,港区,西新橋１丁目２番９号日比谷セントラルビル１４階,,13,103,1050003,,,2025-04-30,清算の結了等,,,2015-10-05,1,,,,,,0
742,4010001214841,登記記録の閉鎖等,0,2025-05-29,2025-05-01,株式会社ＶＨシェアードサービス,,株式会社,東京都,中央区,日本橋堀留町１丁目９番１１号ＮＥＷＳ日本橋堀留町６階,,13,102,1030012,,,2025-05-01,合併による解散等,3021001032820,令和７年５月１日東京都中央区日本橋堀留町一丁目９番１１号ＮＥＷＳ日本橋堀留町６階株式会社メガネスーパー（3021001032820）に合併し解散,2021-01-06,1,,,,,ブイエイチシェアードサービス,0
746,4010401014569,登記記録の閉鎖等,0,2025-05-29,2025-04-30,株式会社新和商会,,株式会社,東京都,港区,浜松町１丁目２７番４号,,13,103,1050013,,,2025-04-30,清算の結了等,,,2015-10-05,1,,,,,シンワショウカイ,0
749,4010401098901,登記記録の閉鎖等,0,2025-05-29,2025-04-30,株式会社金属時評,,株式会社,東京都,港区,新橋２丁目２０番１５号新橋駅前ビル１号館６０１号室,,13,103,1050004,,,2025-04-30,清算の結了等,,,2015-10-05,1,,,,,キンゾクジヒョウ,0
751,4010401120763,登記記録の閉鎖等,0,2025-05-29,2025-05-23,株式会社エンズ・パートナーズ,,株式会社,東京都,江戸川区,北小岩６丁目１２番１号白坂ビル３０２号,,13,123,1330051,,,2025-05-23,清算の結了等,,,2015-10-05,1,,,,,エンズパートナーズ,0
757,4010403029276,登記記録の閉鎖等,0,2025-05-29,2025-04-30,Ｓｈｏｐ８１合同会社,,合同会社,東京都,港区,南青山７丁目１０番６－９０１号,,13,103,1070062,,,2025-04-30,清算の結了等,,,2023-01-13,1,,,,,ショップハチジュウイチ,0
762,4010601051981,登記記録の閉鎖等,0,2025-05-29,2025-05-12,Ａｘｉｏｍｔｅｋジャパン株式会社,,株式会社,東京都,中央区,東日本橋１丁目７番１１号３階,,13,102,1030004,,,2025-05-12,清算の結了等,,,2017-07-28,1,,,,,アクショムテックジャパン,0
801,4013202006710,登記記録の閉鎖等,0,2025-05-29,2025-04-28,有限会社湯村照明,,有限会社,東京都,目黒区,目黒本町３丁目１９番３号,,13,110,1520002,,,2025-04-28,清算の結了等,,,2024-11-14,1,,,,,ユムラショウメイ,0
805,4013302019083,登記記録の閉鎖等,0,2025-05-29,2025-05-16,有限会社カズコーポレーション,,有限会社,東京都,豊島区,巣鴨４丁目６番４号,,13,116,1700002,,,2025-05-16,清算の結了等,,,2015-10-05,1,,,,,カズコーポレーション,0
836,4040001086691,登記記録の閉鎖等,0,2025-05-29,2025-05-14,株式会社和顔施,,株式会社,千葉県,千葉市花見川区,花島町９７番地２,,12,102,2620042,,,2025-05-14,清算の結了等,,,2015-10-05,1,,,,,,0
853,4080001005359,登記記録の閉鎖等,0,2025-05-29,2025-05-26,株式会社やぶ,,株式会社,静岡県,静岡市葵区,北番町１３１番地,,22,101,4200005,,,2025-05-26,清算の結了等,,,2015-10-05,1,,,,,ヤブ,0
856,4080101015398,登記記録の閉鎖等,0,2025-05-29,2025-05-27,株式会社アイ・メット,,株式会社,静岡県,伊東市,八幡野１２８３番地の５２,,22,208,4130232,,,2025-05-27,清算の結了等,,,2015-10-05,1,,,,,アイメット,0
867,4110005002670,登記記録の閉鎖等,0,2025-05-29,2025-05-19,玄人工房企業組合,,その他の設立登記法人,新潟県,新潟市中央区,長潟３丁目６番２号,,15,103,9500932,,,2025-05-19,清算の結了等,,,2015-10-05,1,,,,,クロウトコウボウ,0
879,4120005018039,登記記録の閉鎖等,0,2025-05-29,2025-05-27,税理士法人脇阪会計事務所,,その他の設立登記法人,大阪府,大阪市西区,靱本町１丁目５番７号,,27,106,5500004,,,2025-05-27,清算の結了等,,,2015-10-05,1,,,,,ワキサカカイケイジムショ,0
893,4140001067426,登記記録の閉鎖等,0,2025-05-29,2025-05-20,株式会社ＣＡＴＵＬＥ,,株式会社,兵庫県,尼崎市,塚口町２丁目２番地の５,,28,202,6610002,,,2025-05-20,清算の結了等,,,2015-10-05,1,,,,,カトゥール,0
908,4180302001880,登記記録の閉鎖等,0,2025-05-29,2025-05-27,有限会社ティ・エム・エス,,有限会社,愛知県,岡崎市,薮田２丁目６番地１２,,23,202,4442137,,,2025-05-27,清算の結了等,,,2015-10-05,1,,,,,ティエムエス,0
913,4200001010627,登記記録の閉鎖等,0,2025-05-29,2025-05-26,株式会社みう,,株式会社,岐阜県,本巣市,下真桑大門前３９０番地６,,21,218,5010466,,,2025-05-26,清算の結了等,,,2015-10-05,1,,,,,,0
924,4240002041527,登記記録の閉鎖等,0,2025-05-29,2025-05-28,有限会社第一企画,,有限会社,広島県,福山市,神辺町大字下竹田８９６番地４５,,34,207,7202115,,,2025-05-28,清算の結了等,,,2015-10-05,1,,,,,,0
956,4320002003584,登記記録の閉鎖等,0,2025-05-29,2025-05-01,有限会社車光工業,,有限会社,大分県,大分市,王子西町５番９号,,44,201,8700008,,,2025-05-01,合併による解散等,3320002003585,令和７年５月１日大分市王子西町５番９号株式会社車光商事（3320002003585）に合併し解散,2015-10-05,1,,,,,シャコウコウギョウ,0
963,4340005002078,登記記録の閉鎖等,0,2025-05-29,2025-05-23,特定非営利活動法人ＰａｎｄＡ,,その他の設立登記法人,鹿児島県,鹿児島市,石谷町２１５５番地２７,,46,201,8992701,,,2025-05-23,清算の結了等,,,2015-10-05,1,,,,,ピーアンドエー,0
964,4350001000910,登記記録の閉鎖等,0,2025-05-29,2025-05-26,株式会社総合企画設計いわい,,株式会社,宮崎県,宮崎市,阿波岐原町前浜４２７６番地１０８０,,45,201,8800835,,,2025-05-26,清算の結了等,,,2015-10-05,1,,,,,ソウゴウキカクセッケイイワイ,0
971,4360005004725,登記記録の閉鎖等,0,2025-05-29,2025-05-20,一般社団法人ＮＥＸＴＡＧＥ,,その他の設立登記法人,沖縄県,中頭郡西原町,字嘉手苅１０２番地２シャルムＴ１０３,,47,329,9030102,,,2025-05-20,清算の結了等,,,2015-10-05,1,,,,,ネクステージ,0
977,4400001007082,登記記録の閉鎖等,0,2025-05-29,2025-04-28,泉金商事株式会社,,株式会社,岩手県,下閉伊郡岩泉町,岩泉字村木１８番地１,,03,483,0270501,,,2025-04-28,合併による解散等,5400001007081,令和７年４月１日岩手県下閉伊郡岩泉町岩泉字太田３０番地泉金酒造株式会社（5400001007081）に合併し解散,2015-10-05,1,,,,,センキンショウジ,0
978,4410001000615,登記記録の閉鎖等,0,2025-05-29,2025-05-23,井川商事株式会社,,株式会社,秋田県,秋田市,千秋久保田町２番２３号,,05,201,0100874,,,2025-05-23,清算の結了等,,,2015-10-05,1,,,,,イカワショウジ,0
980,4420003002658,登記記録の閉鎖等,0,2025-05-29,2025-05-22,合同会社ぴぃす,,合同会社,青森県,三沢市,古間木２丁目１９９番地２,,02,207,0330051,,,2025-05-22,清算の結了等,,,2023-01-31,1,,,,,,0
984,4430001072355,登記記録の閉鎖等,0,2025-05-29,2025-05-28,株式会社ＭＡＣＨ,,株式会社,北海道,札幌市厚別区,青葉町１１丁目１２番２４号,,01,108,0040021,,,2025-05-28,清算の結了等,,,2016-09-14,1,,,,,マッハ,0
989,4480002011217,登記記録の閉鎖等,0,2025-05-29,2025-05-27,有限会社忠津工務店,,有限会社,徳島県,板野郡北島町,新喜来字南古田９７番地の１,,36,402,7710207,,,2025-05-27,清算の結了等,,,2015-10-05,1,,,,,タダツコウムテン,0
991,4500001007270,登記記録の閉鎖等,0,2025-05-29,2025-05-27,株式会社プランドゥ,,株式会社,愛媛県,東温市,西岡５９９番地３６,,38,215,7910205,,,2025-05-27,清算の結了等,,,2015-10-05,1,,,,,プランドゥ,0
1004,5010001249696,登記記録の閉鎖等,0,2025-05-29,2025-05-22,ベストキャピタル２号株式会社,,株式会社,東京都,千代田区,丸の内２丁目７番２号ＪＰタワー２２階,,13,101,1000005,,,2025-05-22,合併による解散等,2230001009750,令和７年５月１日富山県高岡市石瀬８３４番地エアロ工業株式会社（2230001009750）に合併し解散,2024-11-07,1,,,,,ベストキャピタルニゴウ,0
1024,5010403021967,登記記録の閉鎖等,0,2025-05-29,2025-04-30,ＮＨインベストメント合同会社,,合同会社,東京都,港区,西新橋１丁目２番９号メンターキャピタル税理士法人内,,13,103,1050003,,,2025-04-30,清算の結了等,,,2019-12-06,1,,,,,エヌエイチインベストメント,0
1027,5010501027370,登記記録の閉鎖等,0,2025-05-29,2025-04-30,ＮＳＥＮＳＥ株式会社,,株式会社,東京都,港区,三田４丁目１番２７号,,13,103,1080073,,,2025-04-30,清算の結了等,,,2015-10-05,1,,,,,エンセンス,0
1064,5012802000717,登記記録の閉鎖等,0,2025-05-29,2025-05-26,有限会社久寿屋,,有限会社,東京都,立川市,羽衣町２丁目４６番２５号,,13,202,1900021,,,2025-05-26,清算の結了等,,,2015-10-05,1,,,,,クスヤ,0
1074,5020002051472,登記記録の閉鎖等,0,2025-05-29,2025-05-22,有限会社トークシステム,,有限会社,神奈川県,大和市,大和南１丁目１５番５号,,14,213,2420016,,,2025-05-22,清算の結了等,,,2015-10-05,1,,,,,トークシステム,0
1083,5030001107761,登記記録の閉鎖等,0,2025-05-29,2025-04-30,インシュアフィニティー株式会社,,株式会社,東京都,港区,浜松町２丁目２番１５号,,13,103,1050013,,,2025-04-30,清算の結了等,,,2015-10-05,1,,,,,インシュアフィニティー,0
1092,5030002046323,登記記録の閉鎖等,0,2025-05-29,2025-05-21,有限会社隆進電機製作所,,有限会社,埼玉県,草加市,松江５丁目５番１１号,,11,221,3400013,,,2025-05-21,清算の結了等,,,2015-10-05,1,,,,,リュウシンデンキセイサクジョ,0
1097,5040001106820,登記記録の閉鎖等,0,2025-05-29,2025-05-02,株式会社Ｓｔｙｌｅ,,株式会社,千葉県,鎌ケ谷市,東鎌ケ谷３丁目１０番１４号,,12,224,2730104,,,2025-05-02,清算の結了等,,,2018-11-08,1,,,,,スタイル,0
1110,5060001021539,登記記録の閉鎖等,0,2025-05-29,2025-05-26,株式会社赤坂総業,,株式会社,埼玉県,加須市,下樋遣川１２７９番地７,00015708,11,210,3470005,,,2025-05-26,清算の結了等,,,2015-10-05,1,,,,,アカサカソウギョウ,0
1112,5070002005044,登記記録の閉鎖等,0,2025-05-29,2025-05-26,有限会社松本精密,,有限会社,群馬県,前橋市,駒形町１４９９番地４,,10,201,3792122,,,2025-05-26,清算の結了等,,,2015-10-05,1,,,,,マツモトセイミツ,0
1113,5080002004862,登記記録の閉鎖等,0,2025-05-29,2025-05-27,有限会社平出鉄工所,,有限会社,静岡県,静岡市葵区,川合３丁目２６番２６号,,22,101,4200923,,,2025-05-27,清算の結了等,,,2015-10-05,1,,,,,ヒラデテッコウジョ,0
1114,5080003003351,登記記録の閉鎖等,0,2025-05-29,2025-05-26,合同会社ＡＦＭ,,合同会社,静岡県,静岡市葵区,城北２丁目９番２１号,,22,101,4200805,,,2025-05-26,合併による解散等,8430001063912,令和７年４月３０日札幌市西区発寒十七条四丁目１番３０号株式会社サプライコーポレーション（8430001063912）に合併し解散,2024-12-10,1,,,,,エーエフエム,0
1119,5090005006062,登記記録の閉鎖等,0,2025-05-29,2025-05-23,特定非営利活動法人富士山ふるさと研究会,,その他の設立登記法人,山梨県,甲斐市,篠原３２１５番地８,,19,210,4000115,,,2025-05-23,清算の結了等,,,2015-10-05,1,,,,,フジサンフルサトケンキュウカイ,0
1127,5120001179858,登記記録の閉鎖等,0,2025-05-29,2025-05-22,ターナーブラザーズ株式会社,,株式会社,大阪府,大阪市中央区,南船場４丁目１０番５号南船場ＳＯＨＯビル７０２,,27,128,5420081,,,2025-05-22,清算の結了等,,,2015-10-05,1,,,,,ターナーブラザーズ,0
1140,5120902012472,登記記録の閉鎖等,0,2025-05-29,2025-05-26,有限会社プレスト物流,,有限会社,大阪府,茨木市,沢良宜西４丁目６番１号,,27,211,5670868,,,2025-05-26,清算の結了等,,,2015-10-05,1,,,,,,0
1151,5140001056097,登記記録の閉鎖等,0,2025-05-29,2025-05-16,福井ペイント株式会社,,株式会社,兵庫県,豊岡市,船町３０８番地１,,28,209,6680805,,,2025-05-16,清算の結了等,,,2015-10-05,1,,,,,フクイペイント,0
1189,5270002006848,登記記録の閉鎖等,0,2025-05-29,2025-05-28,有限会社福島商店,,有限会社,鳥取県,米子市,旗ヶ崎２０３２番地,,31,202,6830845,,,2025-05-28,清算の結了等,,,2015-10-05,1,,,,,,0
1195,5290001023264,登記記録の閉鎖等,0,2025-05-29,2025-05-22,株式会社なごみ,,株式会社,福岡県,福岡市博多区,住吉５丁目１７番８号,,40,132,8120018,,,2025-05-22,清算の結了等,,,2015-10-05,1,,,,,ナゴミ,0
1204,5290003015508,登記記録の閉鎖等,0,2025-05-29,2025-05-21,合同会社葉月,,合同会社,福岡県,春日市,小倉東２丁目１９番地春日サンハイツ８棟５０５号,,40,218,8160826,,,2025-05-21,清算の結了等,,,2024-07-01,1,,,,,ハヅキ,0
1208,5300003001365,登記記録の閉鎖等,0,2025-05-29,2025-05-27,合同会社プレスタイル,,合同会社,福岡県,福岡市博多区,博多駅南５丁目２番２７号トップガン１号室,,40,132,8120016,,,2025-05-27,清算の結了等,,,2018-07-13,1,,,,,プレスタイル,0
1246,6010001120443,登記記録の閉鎖等,0,2025-05-29,2025-05-23,株式会社ナポリテクノ,,株式会社,東京都,北区,赤羽西４丁目１１番６号,,13,117,1150055,,,2025-05-23,清算の結了等,,,2015-10-05,1,,,,,ナポリテクノ,0
1248,6010001206176,登記記録の閉鎖等,0,2025-05-29,2025-05-01,株式会社ＳＥＮＳＥＡＩＤ,,株式会社,東京都,中央区,日本橋堀留町１丁目９番１１号ＮＥＷＳ日本橋堀留町６階,,13,102,1030012,,,2025-05-01,合併による解散等,3021001032820,令和７年５月１日東京都中央区日本橋堀留町一丁目９番１１号ＮＥＷＳ日本橋堀留町６階株式会社メガネスーパー（3021001032820）に合併し解散,2019-12-18,1,,,,,センスエイド,0
1257,6010003040499,登記記録の閉鎖等,0,2025-05-29,2025-05-09,合同会社ヒトミン,,合同会社,東京都,中央区,日本橋室町１丁目１１番１２号日本橋水野ビル７階,,13,102,1030022,,,2025-05-09,清算の結了等,,,2023-05-02,1,,,,,ヒトミン,0
1276,6010405018309,登記記録の閉鎖等,0,2025-05-29,2025-04-30,ＮＨホールディングス一般社団法人,,その他の設立登記法人,東京都,港区,西新橋１丁目２番９号メンターキャピタル税理士法人内,,13,103,1050003,,,2025-04-30,清算の結了等,,,2019-12-04,1,,,,,エヌエイチホールディングス,0
1277,6010501016348,登記記録の閉鎖等,0,2025-05-29,2025-05-26,株式会社システムプロダクト,,株式会社,東京都,葛飾区,立石２丁目２６番７号,,13,122,1240012,,,2025-05-26,清算の結了等,,,2015-10-05,1,,,,,システムプロダクト,0
1289,6011101083712,登記記録の閉鎖等,0,2025-05-29,2025-05-19,株式会社ファンガッシュ,,株式会社,東京都,豊島区,目白３丁目１７番２５号メゾン・ド・八千代１０１号,,13,116,1710031,,,2025-05-19,清算の結了等,,,2018-04-09,1,,,,,ファンガッシュ,0
1310,6020001134434,登記記録の閉鎖等,0,2025-05-29,2025-05-23,株式会社ＭＹ,,株式会社,神奈川県,横浜市都筑区,川和町１２１１番地,,14,118,2240057,,,2025-05-23,清算の結了等,,,2020-01-15,1,,,,,エムワイ,0
1318,6021001064308,登記記録の閉鎖等,0,2025-05-29,2025-05-22,株式会社小美屋,,株式会社,神奈川県,大和市,中央林間２丁目２１番１２－５０１号,,14,213,2420007,,,2025-05-22,清算の結了等,,,2018-03-07,1,,,,,コミヤ,0
1319,6021002026166,登記記録の閉鎖等,0,2025-05-29,2025-05-16,ユーエス電気有限会社,,有限会社,神奈川県,相模原市中央区,弥栄２丁目１３番地１１号,,14,152,2520229,,,2025-05-16,清算の結了等,,,2015-10-05,1,,,,,ユーエスデンキ,0
1326,6030002057534,登記記録の閉鎖等,0,2025-05-29,2025-05-26,有限会社伊藤電気工業,,有限会社,埼玉県,上尾市,大字上野本郷２６４番地７,,11,219,3620056,,,2025-05-26,清算の結了等,,,2015-10-05,1,,,,,イトウデンキコウギョウ,0
1334,6040002007901,登記記録の閉鎖等,0,2025-05-29,2025-05-07,有限会社データワン,,有限会社,千葉県,香取市,九美上９６番地２,,12,236,2870022,,,2025-05-07,清算の結了等,,,2015-10-05,1,,,,,データワン,0
1393,6190002019287,登記記録の閉鎖等,0,2025-05-29,2025-05-26,有限会社イマムラ,,有限会社,三重県,四日市市,塩浜本町３丁目３６番地,,24,202,5100854,,,2025-05-26,清算の結了等,,,2015-10-05,1,,,,,イマムラ,0
1405,6260001022391,登記記録の閉鎖等,0,2025-05-29,2025-05-23,東栄汽船株式会社,,株式会社,岡山県,玉野市,日比５丁目１０番１６号,,33,204,7060027,,,2025-05-23,清算の結了等,,,2015-10-05,1,,,,,トウエイキセン,0
1406,6260001032011,登記記録の閉鎖等,0,2025-05-29,2025-05-23,株式会社久保設備,,株式会社,岡山県,玉野市,田井５丁目４０番１４号,,33,204,7060001,,,2025-05-23,清算の結了等,,,2018-05-08,1,,,,,クボセツビ,0
1427,6320003003342,登記記録の閉鎖等,0,2025-05-29,2025-05-22,合同会社ｋｉｋｉ,,合同会社,大分県,大分市,明野北４丁目２番１号－１０５,,44,201,8700165,,,2025-05-22,清算の結了等,,,2020-09-18,1,,,,,キキ,0
1442,6380001031190,登記記録の閉鎖等,0,2025-05-29,2025-05-26,株式会社繁盛店売上研究所,,株式会社,福島県,伊達市,新町３１番地６,,07,213,9600441,,,2025-05-26,清算の結了等,,,2020-09-09,1,,,,,ハンジョウテンウリアゲケンキュウジョ,0
1456,6430002057972,登記記録の閉鎖等,0,2025-05-29,2025-05-26,有限会社アイランド,,有限会社,北海道,苫小牧市,明野新町６丁目２６番２号,,01,213,0530054,,,2025-05-26,清算の結了等,,,2015-10-05,1,,,,,アイランド,0
1457,6430005004113,登記記録の閉鎖等,0,2025-05-29,2025-05-22,特定非営利活動法人北海道シルバー住宅情報,,その他の設立登記法人,北海道,札幌市中央区,北一条東１丁目７番地１,,01,101,0600031,,,2025-05-22,清算の結了等,,,2015-10-05,1,,,,,ホッカイドウシルバージュウタクジョウホウ,0
1479,7010003019996,登記記録の閉鎖等,0,2025-05-29,2025-05-15,合同会社市ヶ谷インベストメント,,合同会社,東京都,千代田区,丸の内１丁目５番１号新丸の内ビルディング１３Ｆ,,13,101,1000005,,,2025-05-15,合併による解散等,6120001095071,令和７年５月１２日東京都千代田区丸の内一丁目５番１号地主株式会社（6120001095071）に合併し解散,2015-10-05,1,,,,,イチガヤインベストメント,0
1488,7010401116544,登記記録の閉鎖等,0,2025-05-29,2025-04-30,トゥルー・マネージメント株式会社,,株式会社,東京都,港区,西新橋３丁目２４番５号御成門ビル７階,,13,103,1050003,,,2025-04-30,清算の結了等,,,2015-10-05,1,,,,,,0
1503,7010701017293,登記記録の閉鎖等,0,2025-05-29,2025-05-01,コンフォルト株式会社,,株式会社,東京都,品川区,大崎５丁目９番９－２１０６号,,13,109,1410032,,,2025-05-01,清算の結了等,,,2015-10-05,1,,,,,コンフォルト,0
1513,7011003002422,登記記録の閉鎖等,0,2025-05-29,2025-04-28,合同会社建築緑化専門家集団,,合同会社,東京都,渋谷区,渋谷２丁目１９番１５号宮益坂ビルディング６１０,,13,113,1500002,,,2025-04-28,清算の結了等,,,2015-10-05,1,,,,,ケンチクリョッカセンモンカシュウダン,0
1529,7011701018323,登記記録の閉鎖等,0,2025-05-29,2025-05-23,株式会社松塗装,,株式会社,東京都,江戸川区,平井３丁目１０－１３,,13,123,1320035,,,2025-05-23,清算の結了等,,,2015-10-05,1,,,,,マツトソウ,0
1534,7011801014791,登記記録の閉鎖等,0,2025-05-29,2025-05-22,株式会社サム研究所,,株式会社,北海道,札幌市南区,南沢四条４丁目１０番３５号,,01,106,0050824,,,2025-05-22,清算の結了等,,,2015-10-05,1,,,,,サムケンキュウジョ,0
1535,7011801018479,登記記録の閉鎖等,0,2025-05-29,2025-05-23,株式会社エヌ・ケイ・オー,,株式会社,東京都,葛飾区,立石８丁目４０番１２号,,13,122,1240012,,,2025-05-23,清算の結了等,,,2015-10-05,1,,,,,エヌケイオー,0
1542,7012302001726,登記記録の閉鎖等,0,2025-05-29,2025-05-26,有限会社京浜テクノサービス,,有限会社,東京都,町田市,相原町２３５５番地１,,13,209,1940211,,,2025-05-26,清算の結了等,,,2015-10-05,1,,,,,ケイヒンテクノサービス,0
1548,7013301051266,登記記録の閉鎖等,0,2025-05-29,2025-05-12,株式会社ＡＣＴ,,株式会社,東京都,豊島区,西池袋３丁目１７番７－３０１号,,13,116,1710021,,,2025-05-12,清算の結了等,,,2023-08-25,1,,,,,アクト,0
1570,7040001106521,登記記録の閉鎖等,0,2025-05-29,2025-05-14,株式会社ソリデアワークス,,株式会社,千葉県,市川市,南行徳４丁目９番６－２０６号,,12,203,2720138,,,2025-05-14,清算の結了等,,,2018-10-17,1,,,,,ソリデアワークス,0
1578,7060001000739,登記記録の閉鎖等,0,2025-05-29,2025-05-27,株式会社上野ハウジング,,株式会社,栃木県,宇都宮市,駒生１丁目１４番１号,,09,201,3200066,,,2025-05-27,清算の結了等,,,2015-10-05,1,,,,,ウエノハウジング,0
1585,7080001004548,登記記録の閉鎖等,0,2025-05-29,2025-05-27,株式会社フクヨー,,株式会社,静岡県,静岡市葵区,人宿町１丁目４番地の７,,22,101,4200037,,,2025-05-27,清算の結了等,,,2015-10-05,1,,,,,フクヨー,0
1610,7120005013243,登記記録の閉鎖等,0,2025-05-29,2025-05-28,特定非営利活動法人児童福祉サポート,,その他の設立登記法人,大阪府,寝屋川市,萱島東２丁目１９番１０号,,27,215,5720824,,,2025-05-28,清算の結了等,,,2015-10-05,1,,,,,ジドウフクシサポート,0
1623,7130001064371,登記記録の閉鎖等,0,2025-05-29,2025-05-26,株式会社下池研究所,,株式会社,京都府,京都市中京区,間之町通御池下る綿屋町５２０－１京ビル２号館３階,,26,104,6048181,,,2025-05-26,清算の結了等,,,2019-04-25,1,,,,,シモイケケンキュウジョ,0
1637,7180005016810,登記記録の閉鎖等,0,2025-05-29,2025-05-20,一般社団法人名古屋小児がん基金,,その他の設立登記法人,愛知県,名古屋市中区,千代田５丁目１１－３３ＳＴ　ＰＬＡＺＡ　ＴＳＵＲＵＭＡＩ本館４階Ｂ,,23,106,4600012,,,2025-05-20,清算の結了等,,,2016-06-08,1,,,,,ナゴヤショウニガンキキン,0
1638,7190001018958,登記記録の閉鎖等,0,2025-05-29,2025-05-27,株式会社Ｅ・トラストハウジング,,株式会社,三重県,鈴鹿市,下箕田１丁目４番８号,,24,207,5130052,,,2025-05-27,清算の結了等,,,2015-10-05,1,,,,,イートラストハウジング,0
1656,7290001090666,登記記録の閉鎖等,0,2025-05-29,2025-05-23,メントシステム株式会社,,株式会社,福岡県,筑紫野市,大字古賀４１１番地１,,40,217,8180047,,,2025-05-23,清算の結了等,,,2020-10-23,1,,,,,メントシステム,0
1663,7290002039852,登記記録の閉鎖等,0,2025-05-29,2025-05-22,有限会社西建設,,有限会社,福岡県,太宰府市,吉松３丁目２番７号,,40,221,8180138,,,2025-05-22,清算の結了等,,,2015-10-05,1,,,,,ニシケンセツ,0
1703,7430002016696,登記記録の閉鎖等,0,2025-05-29,2025-05-22,有限会社平野商店,,有限会社,北海道,札幌市中央区,南六条西５丁目１３番地,,01,101,0640806,,,2025-05-22,清算の結了等,,,2015-10-05,1,,,,,ヒラノショウテン,0
1705,7460101001547,登記記録の閉鎖等,0,2025-05-29,2025-05-22,北建工営株式会社,,株式会社,北海道,帯広市,東五条南１５丁目１番地,,01,207,0800805,,,2025-05-22,清算の結了等,,,2015-10-05,1,,,,,ホッケンコウエイ,0
1722,8010001189048,登記記録の閉鎖等,0,2025-05-29,2025-05-22,ＲＥＩＮＯＷＡホールディングス株式会社,,株式会社,神奈川県,大和市,中央林間７丁目１０番１号,,14,213,2420007,,,2025-05-22,清算の結了等,,,2018-01-18,1,,,,,レイノワホールディングス,0
1756,8010601049725,登記記録の閉鎖等,0,2025-05-29,2025-04-28,ウィズフルエンス株式会社,,株式会社,東京都,港区,浜松町２丁目２番１５号,,13,103,1050013,,,2025-04-28,清算の結了等,,,2016-05-18,1,,,,,ウィズフルエンス,0
1759,8010701035625,登記記録の閉鎖等,0,2025-05-29,2025-05-12,プロダクトアシュアランス株式会社,,株式会社,東京都,千代田区,外神田５丁目５番１１号,,13,101,1010021,,,2025-05-12,清算の結了等,,,2018-04-10,1,,,,,プロダクトアシュアランス,0
1781,8011302003913,登記記録の閉鎖等,0,2025-05-29,2025-05-28,有限会社坂本俊一建築工房,,有限会社,東京都,杉並区,阿佐谷北３丁目５番１４号,,13,115,1660001,,,2025-05-28,清算の結了等,,,2015-10-05,1,,,,,,0
1795,8012301013275,登記記録の閉鎖等,0,2025-05-29,2025-05-28,株式会社ＣＬＩＰ,,株式会社,東京都,町田市,真光寺町９３３番地６,,13,209,1950051,,,2025-05-28,清算の結了等,,,2023-01-12,1,,,,,クリップ,0
1797,8012303001880,登記記録の閉鎖等,0,2025-05-29,2025-05-22,コバヤシ合同会社,,合同会社,東京都,町田市,真光寺３丁目２４番地２０,,13,209,1950057,,,2025-05-22,清算の結了等,,,2023-09-28,1,,,,,コバヤシ,0
1817,8021001045883,登記記録の閉鎖等,0,2025-05-29,2025-05-23,株式会社Ｍ＆ＳＭＡＲＴ南林間,,株式会社,神奈川県,大和市,南林間２丁目１番３号男全ビルＩＩ２Ｆ,00012671,14,213,2420006,,,2025-05-23,清算の結了等,,,2015-10-05,1,,,,,エムアンドスマートミナミリンカン,0
1821,8030001036058,登記記録の閉鎖等,0,2025-05-29,2025-05-26,株式会社三陽化学工業所,,株式会社,埼玉県,八潮市,大字浮塚６２２番地,,11,234,3400835,,,2025-05-26,清算の結了等,,,2015-10-05,1,,,,,サンヨウカガクコウギョウショ,0
1824,8030001128375,登記記録の閉鎖等,0,2025-05-29,2025-05-26,Ｍ＆Ｒ株式会社,,株式会社,埼玉県,川越市,新富町１丁目１８番地８沼野ビル２Ｆ,,11,201,3500043,,,2025-05-26,清算の結了等,,,2018-11-21,1,,,,,エムアンドアール,0
1839,8040002033202,登記記録の閉鎖等,0,2025-05-29,2025-05-15,有限会社オザワ,,有限会社,千葉県,市川市,市川１丁目２３番１０号,,12,203,2720034,,,2025-05-15,清算の結了等,,,2015-10-05,1,,,,,オザワ,0
1841,8040002082546,登記記録の閉鎖等,0,2025-05-29,2025-05-13,有限会社待山運輸,,有限会社,千葉県,長生郡一宮町,一宮８６９４番地,,12,421,2994301,,,2025-05-13,清算の結了等,,,2015-10-05,1,,,,,マチヤマウンユ,0
1845,8050002009449,登記記録の閉鎖等,0,2025-05-29,2025-05-26,有限会社オザワ茨城,,有限会社,茨城県,ひたちなか市,大字足崎１４７４番地の２９８,,08,221,3120003,,,2025-05-26,清算の結了等,,,2015-10-05,1,,,,,オザワイバラキ,0
1846,8060002012963,登記記録の閉鎖等,0,2025-05-29,2025-05-22,有限会社栄内装,,有限会社,栃木県,塩谷郡高根沢町,宝石台３丁目１０番地２,,09,386,3291231,,,2025-05-22,清算の結了等,,,2015-10-05,1,,,,,サカエナイソウ,0
1857,8080101001205,登記記録の閉鎖等,0,2025-05-29,2025-05-23,東海ピーエチエス販売株式会社,,株式会社,静岡県,沼津市,吉田町３５番３１号,,22,203,4100836,,,2025-05-23,清算の結了等,,,2015-10-05,1,,,,,トウカイピーエチエスハンバイ,0
1858,8080101002129,登記記録の閉鎖等,0,2025-05-29,2025-05-23,旭プラスチック株式会社,,株式会社,静岡県,裾野市,茶畑５７６番地,,22,220,4101121,,,2025-05-23,清算の結了等,,,2015-10-05,1,,,,,アサヒプラスチック,0
1888,8130001020729,登記記録の閉鎖等,0,2025-05-29,2025-05-27,光洋商事株式会社,,株式会社,京都府,京都市中京区,蛸薬師通烏丸西入橋弁慶町２２３番地,,26,104,6048151,,,2025-05-27,清算の結了等,,,2015-10-05,1,,,,,コウヨウショウジ,0
1919,8200001029127,登記記録の閉鎖等,0,2025-05-29,2025-05-23,株式会社ＲＥＤ　ＦＯＲＣＥ,,株式会社,岐阜県,岐阜市,切通４丁目１７番３－２号,,21,201,5008237,,,2025-05-23,清算の結了等,,,2015-10-05,1,,,,,レッドフォース,0
1933,8260002027586,登記記録の閉鎖等,0,2025-05-29,2025-05-23,有限会社葵,,有限会社,岡山県,久米郡久米南町,上弓削１００９番地,,33,663,7093612,,,2025-05-23,清算の結了等,,,2025-04-08,1,,,,,アオイ,0
1938,8290001080674,登記記録の閉鎖等,0,2025-05-29,2025-05-22,株式会社ＷＡＯ,,株式会社,福岡県,福岡市中央区,桜坂１丁目１４番１８号ＥＳハウス４,,40,133,8100024,,,2025-05-22,清算の結了等,,,2018-02-28,1,,,,,ワオ,0
1951,8290005006394,登記記録の閉鎖等,0,2025-05-29,2025-05-26,特定非営利活動法人日本伝統文化継承機構,,その他の設立登記法人,福岡県,福岡市博多区,御供所町５番２７号グラムビル御供所町２０２号,,40,132,8120037,,,2025-05-26,清算の結了等,,,2015-10-05,1,,,,,,0
1975,8430001054408,登記記録の閉鎖等,0,2025-05-29,2025-05-26,株式会社こうねん,,株式会社,北海道,苫小牧市,豊川町２丁目１３番８号,,01,213,0530831,,,2025-05-26,清算の結了等,,,2015-10-05,1,,,,,コウネン,0
1986,8430002035588,登記記録の閉鎖等,0,2025-05-29,2025-05-26,有限会社ドリーム大地,,有限会社,大阪府,摂津市,鳥飼中３丁目７番１１号,,27,224,5660064,,,2025-05-26,清算の結了等,,,2015-10-05,1,,,,,,0
1987,8430002059323,登記記録の閉鎖等,0,2025-05-29,2025-05-26,有限会社トライステート,,有限会社,北海道,苫小牧市,桜木町２丁目１１番１３号,,01,213,0530832,,,2025-05-26,清算の結了等,,,2015-10-05,1,,,,,トライステート,0
1989,8500001023413,登記記録の閉鎖等,0,2025-05-29,2025-05-27,ＲＣメンテック株式会社,,株式会社,愛媛県,松山市,久米窪田町３３７番地１テクノプラザ愛媛内,,38,201,7911101,,,2025-05-27,清算の結了等,,,2021-05-12,1,,,,,アールシーメンテック,0
2055,9021001074295,登記記録の閉鎖等,0,2025-05-29,2025-05-26,株式会社ｍｅｔｅｏｒ,,株式会社,東京都,町田市,原町田４丁目５番１０号,,13,209,1940013,,,2025-05-26,清算の結了等,,,2021-10-22,1,,,,,ミーティア,0
2056,9021001078635,登記記録の閉鎖等,0,2025-05-29,2025-05-22,株式会社こだわり専家,,株式会社,神奈川県,藤沢市,石川１丁目３番地の３－５０３号室,,14,205,2520815,,,2025-05-22,清算の結了等,,,2023-04-06,1,,,,,コダワリセンカ,0
2084,9050001034579,登記記録の閉鎖等,0,2025-05-29,2025-05-26,株式会社和流粋三昧福井,,株式会社,茨城県,水戸市,泉町２丁目２番４６号,,08,201,3100026,,,2025-05-26,清算の結了等,,,2015-10-05,1,,,,,ワリュウイキザンマイフクイ,0
2085,9060001023275,登記記録の閉鎖等,0,2025-05-29,2025-05-26,株式会社ネスト,,株式会社,茨城県,水戸市,けやき台１丁目６８番地５,,08,201,3100842,,,2025-05-26,清算の結了等,,,2015-10-05,1,,,,,ネスト,0
2092,9080001018307,登記記録の閉鎖等,0,2025-05-29,2025-05-26,株式会社ハウシア,,株式会社,静岡県,静岡市駿河区,高松２丁目２５番２号,,22,102,4228034,,,2025-05-26,清算の結了等,,,2015-10-05,1,,,,,ハウシア,0
2093,9080002009255,登記記録の閉鎖等,0,2025-05-29,2025-05-26,有限会社岩崎製材所,,有限会社,静岡県,静岡市葵区,沓谷６丁目９番地の１８,,22,101,4200816,,,2025-05-26,清算の結了等,,,2015-10-05,1,,,,,イワサキセイザイショ,0
2094,9080403003583,登記記録の閉鎖等,0,2025-05-29,2025-05-26,合同会社秋永社会経済研究所,,合同会社,静岡県,浜松市中央区,鍛冶町１４０Ｃビル４階,,22,138,4300933,,,2025-05-26,清算の結了等,,,2018-01-05,1,,,,,アキナガシャカイケイザイケンキュウジョ,0
2106,9120003015594,登記記録の閉鎖等,0,2025-05-29,2025-05-20,美濃メンテナンス合同会社,,合同会社,大阪府,枚方市,香里ケ丘２丁目４番地の１（２－１１０３）,,27,210,5730084,,,2025-05-20,清算の結了等,,,2019-04-15,1,,,,,ミノメンテナンス,0
2156,9190002004014,登記記録の閉鎖等,0,2025-05-29,2025-05-26,有限会社ちさとコンタクト,,有限会社,三重県,津市,河芸町東千里２６０番地３,,24,201,5100303,,,2025-05-26,清算の結了等,,,2015-10-05,1,,,,,チサトコンタクト,0
2164,9240001033891,登記記録の閉鎖等,0,2025-05-29,2025-05-28,株式会社芳原新聞舗,,株式会社,広島県,福山市,神辺町大字川南４４１番地の１３,,34,207,7202124,,,2025-05-28,清算の結了等,,,2015-10-05,1,,,,,ヨシハラシンブンホ,0
2170,9250005004137,登記記録の閉鎖等,0,2025-05-29,2025-05-22,特定非営利活動法人ほのぼのセンター,,その他の設立登記法人,山口県,下関市,大坪本町２６番１５号,,35,201,7500051,,,2025-05-22,清算の結了等,,,2015-10-05,1,,,,,ホノボノセンター,0
2172,9260001004049,登記記録の閉鎖等,0,2025-05-29,2025-05-22,ダイヤ産商株式会社,,株式会社,岡山県,岡山市北区,白石東新町１３番地の１０７,,33,101,7010141,,,2025-05-22,清算の結了等,,,2015-10-05,1,,,,,ダイヤサンショウ,0
2174,9260001018049,登記記録の閉鎖等,0,2025-05-29,2025-05-23,特機産業株式会社,,株式会社,岡山県,浅口郡里庄町,大字里見２８００番地,,33,445,7190301,,,2025-05-23,清算の結了等,,,2015-10-05,1,,,,,トッキサンギョウ,0
2181,9290001046823,登記記録の閉鎖等,0,2025-05-29,2025-05-22,アイシン工業株式会社,,株式会社,福岡県,福岡市中央区,天神１丁目４番１号西日本新聞会館１６階（天神スカイホール内）,,40,133,8100001,,,2025-05-22,清算の結了等,,,2015-10-05,1,,,,,アイシンコウギョウ,0
2196,9290803002040,登記記録の閉鎖等,0,2025-05-29,2025-05-27,合同会社フラワー,,合同会社,福岡県,北九州市若松区,西天神町８番３号,,40,103,8080101,,,2025-05-27,清算の結了等,,,2015-10-05,1,,,,,フラワー,0
2207,9340005002321,登記記録の閉鎖等,0,2025-05-29,2025-05-19,特定非営利活動法人ハッピネス・インフォメーション,,その他の設立登記法人,鹿児島県,鹿児島市,和田１丁目２６番３号バレムＡ棟２０１,,46,201,8910143,,,2025-05-19,清算の結了等,,,2015-10-05,1,,,,,ハッピネスインフォメーション,0
