sequenceNumber,corporateNumber,process,correct,updateDate,changeDate,name,nameImageId,kind,prefectureName,cityName,streetNumber,addressImageId,prefectureCode,cityCode,postCode,addressOutside,addressOutsideImageId,closeDate,closeCause,successorCorporateNumber,changeCause,assignmentDate,latest,enName,enPrefectureName,enCityName,enAddressOutside,furigana,hihyoji
5,1010001136816,登記記録の閉鎖等,0,2023-04-11,2023-03-29,ＯＤＳ株式会社,,株式会社,東京都,千代田区,神田須田町２丁目５番地,,13,101,1010041,,,2023-03-29,清算の結了等,,,2015-10-05,1,,,,,オーディーエス,0
21,1010401033308,登記記録の閉鎖等,0,2023-04-11,2023-04-03,株式会社アイエムインターナショナル,,株式会社,神奈川県,愛甲郡清川村,宮ヶ瀬９４０番地２１,,14,402,2430111,,,2023-04-03,清算の結了等,,,2015-10-05,1,,,,,,0
22,1010401046350,登記記録の閉鎖等,0,2023-04-11,2023-04-03,イー・エンジニアリング株式会社,,株式会社,東京都,港区,赤坂１丁目８番１号,,13,103,1070052,,,2023-04-03,合併による解散等,3010401019619,令和５年４月１日東京都港区赤坂一丁目８番１号株式会社ドコモＣＳ（3010401019619）に合併し解散,2015-10-05,1,,,,,イーエンジニアリング,0
39,1010701015303,登記記録の閉鎖等,0,2023-04-11,2023-04-03,株式会社ハーズ・サプライ,,株式会社,東京都,品川区,中延３丁目８番１１号桜井ビル２階,,13,109,1420053,,,2023-04-03,清算の結了等,,,2015-10-05,1,"Hearce Supply Co., Ltd.",Tokyo,"2F Sakurai bldg., 3-8-11 Nakanobu, Shinagawa ku",,ハーズサプライ,0
40,1010901024178,登記記録の閉鎖等,0,2023-04-11,2023-04-03,株式会社ＳＫＭジャパン,,株式会社,東京都,世田谷区,松原２丁目４２番７号,,13,112,1560043,,,2023-04-03,合併による解散等,2010901024177,令和５年４月１日東京都世田谷区松原二丁目４２番７号株式会社オボジャパン（2010901024177）に合併し解散,2015-10-05,1,,,,,エスケイエムジャパン,0
46,1011001032542,登記記録の閉鎖等,0,2023-04-11,2023-04-06,株式会社東急シェアリング,,株式会社,東京都,渋谷区,南平台町５番６号,,13,113,1500036,,,2023-04-06,合併による解散等,3011001150664,令和５年４月１日東京都渋谷区南平台町５番６号東急ホテルズ＆リゾーツ株式会社（3011001150664）に合併し解散,2015-10-05,1,,,,,トウキュウシェアリング,0
48,1011001062201,登記記録の閉鎖等,0,2023-04-11,2023-04-03,株式会社保険見直し本舗,,株式会社,東京都,新宿区,新宿５丁目１７番１８号,,13,104,1600022,,,2023-04-03,合併による解散等,1011101093443,令和５年４月１日東京都新宿区新宿五丁目１７番１８号株式会社ＧＯＥＳＷＥＬＬ（1011101093443）に合併し解散,2015-10-05,1,,,,,ホケンミナオシホンポ,0
66,1011201000588,登記記録の閉鎖等,0,2023-04-11,2023-04-03,ウエルストン電子工業株式会社,,株式会社,東京都,中野区,大和町３丁目４３番３号、ラビアン大和Ｂ１,,13,114,1650034,,,2023-04-03,合併による解散等,9011201001884,令和５年４月１日東京都中野区大和町三丁目４３番３号、ラビアン大和Ｂ１三和電気工業株式会社（9011201001884）に合併し解散,2015-10-05,1,,,,,ウエルストンデンシコウギョウ,0
72,1011405001325,登記記録の閉鎖等,0,2023-04-11,2023-03-06,特定非営利活動法人　生活サポート東京,,その他の設立登記法人,東京都,北区,浮間１丁目１番地１４リムジンビル４０１,,13,117,1150051,,,2023-03-06,清算の結了等,,,2015-10-05,1,,,,,セイカツサポートトウキョウ,0
94,1013301008123,登記記録の閉鎖等,0,2023-04-11,2023-04-03,東京保温材株式会社,,株式会社,東京都,豊島区,南長崎６丁目１３番５号,,13,116,1710052,,,2023-04-03,清算の結了等,,,2015-10-05,1,,,,,トウキョウホオンザイ,0
100,1020001065816,登記記録の閉鎖等,0,2023-04-11,2023-04-03,株式会社アーク建築事務所,,株式会社,神奈川県,川崎市高津区,久本３丁目６番９－４０４号,,14,134,2130011,,,2023-04-03,清算の結了等,,,2015-10-05,1,,,,,アークケンチクジムショ,0
107,1020002035363,登記記録の閉鎖等,0,2023-04-11,2023-04-03,有限会社畑中製作所,,有限会社,神奈川県,横浜市港北区,樽町４丁目１４番１９号,,14,109,2220001,,,2023-04-03,清算の結了等,,,2015-10-05,1,,,,,ハタナカセイサクショ,0
112,1021001037128,登記記録の閉鎖等,0,2023-04-11,2023-04-04,馬場フード・サービス株式会社,,株式会社,神奈川県,平塚市,桜ケ丘２番２２号,,14,203,2540053,,,2023-04-04,合併による解散等,8021001037410,令和５年４月１日神奈川県平塚市桜ケ丘２番２２号株式会社みづほ野（8021001037410）に合併し解散,2015-10-05,1,,,,,ババフードサービス,0
115,1021002039676,登記記録の閉鎖等,0,2023-04-11,2023-03-24,有限会社アカウントカネコ,,有限会社,神奈川県,秦野市,寺山５２０番地の１６,,14,211,2570023,,,2023-03-24,清算の結了等,,,2015-10-05,1,,,,,アカウントカネコ,0
119,1030001036007,登記記録の閉鎖等,0,2023-04-11,2023-03-31,三栄不動産株式会社,,株式会社,埼玉県,八潮市,大瀬５丁目６番地６,,11,234,3400822,,,2023-03-31,清算の結了等,,,2015-10-05,1,,,,,サンエイフドウサン,0
126,1030002000812,登記記録の閉鎖等,0,2023-04-11,2023-04-10,有限会社アドニス,,有限会社,埼玉県,さいたま市北区,今羽町４１０番地の１コスモ大宮北４０５号,,11,102,3310801,,,2023-04-10,清算の結了等,,,2015-10-05,1,,,,,アドニス,0
127,1030003013193,登記記録の閉鎖等,0,2023-04-11,2023-03-31,合同会社ネル・ハイドロジェン・ジャパン,,合同会社,埼玉県,さいたま市大宮区,堀の内町２丁目９番地１,,11,103,3300804,,,2023-03-31,清算の結了等,,,2019-03-07,1,,,,,ネルハイドロジェンジャパン,0
143,1050001023473,登記記録の閉鎖等,0,2023-04-11,2023-04-03,電鉄タクシー株式会社,,株式会社,茨城県,日立市,東町１丁目８番１８号,,08,202,3170061,,,2023-04-03,合併による解散等,6050001006333,令和５年４月１日茨城県水戸市袴塚三丁目５番３６号茨城交通株式会社（6050001006333）に合併し解散,2015-10-05,1,,,,,デンテツタクシー,0
152,1060001008606,登記記録の閉鎖等,0,2023-04-11,2023-04-03,大和交通株式会社,,株式会社,栃木県,日光市,相生町１７７番地,,09,206,3211413,,,2023-04-03,合併による解散等,3060001015088,令和５年４月１日栃木県下野市下古山２９８４番地栃木交通バス株式会社（3060001015088）に合併し解散,2015-10-05,1,,,,,ダイワコウツウ,0
157,1080401001299,登記記録の閉鎖等,0,2023-04-11,2023-04-05,株式会社カメックス,,株式会社,静岡県,磐田市,見付１７４０番地５２,,22,211,4380086,,,2023-04-05,清算の結了等,,,2015-10-05,1,,,,,カメックス,0
181,1120002064385,登記記録の閉鎖等,0,2023-04-11,2023-04-04,有限会社シー・エス・エンジニアリング,,有限会社,大阪府,大阪市東成区,中道３丁目４番２４－２０１号,,27,115,5370025,,,2023-04-04,清算の結了等,,,2015-10-05,1,,,,,シーエスエンジニアリング,0
182,1120002064757,登記記録の閉鎖等,0,2023-04-11,2023-04-03,有限会社ＪＳＫ,,有限会社,大阪府,大阪市平野区,平野北１丁目５番１９号,,27,126,5470041,,,2023-04-03,合併による解散等,1120001020372,令和５年４月１日大阪市平野区平野北一丁目５番１９号株式会社システックキョーワ（1120001020372）に合併し解散,2015-10-05,1,,,,,ジェイエスケイ,0
220,1180001069272,登記記録の閉鎖等,0,2023-04-11,2023-04-03,エーエス株式会社,,株式会社,愛知県,豊明市,阿野町池下３０番地,,23,229,4701141,,,2023-04-03,合併による解散等,5180001069252,令和５年４月１日愛知県豊明市阿野町池下３０番地エーエスペイント株式会社（5180001069252）に合併し解散,2015-10-05,1,,,,,エーエス,0
223,1180001098627,登記記録の閉鎖等,0,2023-04-11,2023-04-03,丸良株式会社,,株式会社,愛知県,海部郡飛島村,木場２丁目１２５番地,,23,427,4901444,,,2023-04-03,合併による解散等,9180001021309,令和５年４月１日名古屋市中川区山王四丁目２番１２号吉村製材株式会社（9180001021309）に合併し解散,2015-10-05,1,,,,,マルリョウ,0
234,1180005001066,登記記録の閉鎖等,0,2023-04-11,2023-03-30,天理教本中京分教会,,その他の設立登記法人,愛知県,名古屋市中村区,松原町４丁目１５番地,,23,105,4530021,,,2023-03-30,合併による解散等,5180005013066,令和５年３月３０日愛知県愛西市森川町堤外１１３番地の１天理教本煥分教会（5180005013066）に合併し解散,2015-10-05,1,,,,,テンリキョウホンチュウキョウブンキョウカイ,0
240,1220001022078,登記記録の閉鎖等,0,2023-04-11,2023-04-07,株式会社インテグラルコミュニティ,,株式会社,石川県,金沢市,二口町ハ１５番地８,,17,201,9200051,,,2023-04-07,清算の結了等,,,2018-01-17,1,,,,,インテグラルコミュニティ,0
241,1230002011310,登記記録の閉鎖等,0,2023-04-11,2023-04-07,有限会社ジャパンギフト,,有限会社,富山県,高岡市,中保１３１５番地,,16,202,9330331,,,2023-04-07,清算の結了等,,,2015-10-05,1,,,,,ジャパンギフト,0
252,1260001021167,登記記録の閉鎖等,0,2023-04-11,2023-04-03,株式会社西粟倉・森の学校,,株式会社,岡山県,英田郡西粟倉村,大字影石８９５番地,,33,643,7070503,,,2023-04-03,合併による解散等,5260001028852,令和５年４月１日岡山県英田郡西粟倉村大字長尾４６１番地１株式会社エーゼログループ（5260001028852）に合併し解散,2015-10-05,1,,,,,ニシアワクラモリノガッコウ,0
255,1260002016182,登記記録の閉鎖等,0,2023-04-11,2023-04-03,アクト・フォーラム有限会社,,有限会社,岡山県,倉敷市,西田１２６番地の２,,33,202,7100027,,,2023-04-03,清算の結了等,,,2015-10-05,1,,,,,アクトフォーラム,0
260,1260005006461,登記記録の閉鎖等,0,2023-04-11,2023-04-04,岡山県ジャス製材事業協同組合,,その他の設立登記法人,岡山県,津山市,上田邑２８８０番地,,33,203,7080011,,,2023-04-04,清算の結了等,,,2015-10-05,1,,,,,オカヤマケンジャスセイザイ,0
266,1290001056185,登記記録の閉鎖等,0,2023-04-11,2023-04-03,株式会社サンエー２１,,株式会社,福岡県,福岡市博多区,博多駅南２丁目１番９号,,40,132,8120016,,,2023-04-03,合併による解散等,9290001017163,令和５年４月１日福岡市博多区博多駅東二丁目１３番３４号ヤマエ久野株式会社（9290001017163）に合併し解散,2015-10-05,1,,,,,サンエーニジュウイチ,0
267,1290001084830,登記記録の閉鎖等,0,2023-04-11,2023-03-31,株式会社関西柳川合同運送,,株式会社,福岡県,柳川市,西浜武４７５番地２,,40,207,8320081,,,2023-03-31,清算の結了等,,,2019-04-10,1,,,,,カンサイヤナガワゴウドウウンソウ,0
269,1290002053735,登記記録の閉鎖等,0,2023-04-11,2023-04-03,有限会社西日本消毒,,有限会社,福岡県,柳川市,新外町８番地の９,,40,207,8320069,,,2023-04-03,清算の結了等,,,2015-10-05,1,,,,,ニシニホンショウドク,0
270,1290003009653,登記記録の閉鎖等,0,2023-04-11,2023-04-03,株式会社Ｈａｒｄｃｏｒｅ,,株式会社,福岡県,福岡市中央区,大濠１丁目１２番３号,,40,133,8100052,,,2023-04-03,合併による解散等,8290001063415,令和５年４月１日福岡市中央区大濠一丁目１２番３号株式会社ＤＣＭ（8290001063415）に合併し解散,2020-01-14,1,,,,,ハードコア,0
275,1290802013913,登記記録の閉鎖等,0,2023-04-11,2023-04-05,有限会社黒崎葬祭,,有限会社,福岡県,北九州市八幡西区,東鳴水２丁目６番１６号,,40,109,8060051,,,2023-04-05,清算の結了等,,,2015-10-05,1,,,,,クロサキソウサイ,0
287,1370001005720,登記記録の閉鎖等,0,2023-04-11,2023-04-03,トヨタカローラ宮城株式会社,,株式会社,宮城県,仙台市宮城野区,苦竹２丁目６番１０号,,04,102,9830036,,,2023-04-03,合併による解散等,6370001006557,令和５年４月１日仙台市宮城野区日の出町二丁目３番７号宮城トヨタ自動車株式会社（6370001006557）に合併し解散,2015-10-05,1,,,,,トヨタカローラミヤギ,0
318,1470001002039,登記記録の閉鎖等,0,2023-04-11,2023-04-03,株式会社新岡山ビルデイング,,株式会社,香川県,高松市,田町１１番地５,,37,201,7600053,,,2023-04-03,合併による解散等,2470001001816,令和５年４月１日香川県高松市塩屋町８番地１四国興業株式会社（2470001001816）に合併し解散,2015-10-05,1,,,,,シンオカヤマビルデイング,0
343,2010001231277,登記記録の閉鎖等,0,2023-04-11,2023-04-03,株式会社エスコ,,株式会社,東京都,千代田区,平河町１丁目７番１６号,,13,101,1020093,,,2023-04-03,合併による解散等,1010001229314,令和５年４月１日東京都中央区日本橋室町二丁目４番３号株式会社ＥＳ（1010001229314）に合併し解散,2022-12-06,1,,,,,エスコ,0
352,2010003024448,登記記録の閉鎖等,0,2023-04-11,2023-04-03,合同会社ＭＭＹ,,合同会社,東京都,千代田区,麹町３丁目４番地,,13,101,1020083,,,2023-04-03,合併による解散等,9010001090196,令和５年４月１日東京都千代田区麹町三丁目４番地株式会社サクセスガーデン佐野（9010001090196）に合併し解散,2016-11-29,1,,,,,エムエムワイ,0
379,2010802016471,登記記録の閉鎖等,0,2023-04-11,2023-04-03,有限会社フェアウエー,,有限会社,東京都,大田区,萩中１丁目１０番３１号,,13,111,1440047,,,2023-04-03,清算の結了等,,,2015-10-05,1,,,,,フェアウエー,0
381,2010901019763,登記記録の閉鎖等,0,2023-04-11,2023-04-03,株式会社ネオタイド建築計画,,株式会社,東京都,世田谷区,奥沢４丁目２７番１２号,,13,112,1580083,,,2023-04-03,清算の結了等,,,2015-10-05,1,,,,,ネオタイドケンチクケイカク,0
398,2011001152083,登記記録の閉鎖等,0,2023-04-11,2023-03-31,ＭＳＫＤ株式会社,,株式会社,東京都,渋谷区,桜丘町２３－１７シティコート桜町４０８,,13,113,1500031,,,2023-03-31,清算の結了等,,,2023-01-20,1,,,,,エムエスケーディー,0
407,2011101045443,登記記録の閉鎖等,0,2023-04-11,2023-04-06,株式会社パインクレスト,,株式会社,東京都,新宿区,四谷４丁目２２番地,,13,104,1600004,,,2023-04-06,清算の結了等,,,2015-10-05,1,,,,,パインクレスト,0
418,2011301016178,登記記録の閉鎖等,0,2023-04-11,2023-04-03,株式会社Ｋ’ｓコーポレーション,,株式会社,東京都,杉並区,梅里１丁目５番１１号,,13,115,1660011,,,2023-04-03,清算の結了等,,,2015-10-05,1,,,,,ケーズコーポレーション,0
426,2011801021990,登記記録の閉鎖等,0,2023-04-11,2023-04-07,株式会社テイクミー,,株式会社,東京都,足立区,千住柳町２２－１,,13,121,1200032,,,2023-04-07,清算の結了等,,,2015-10-05,1,,,,,テイクミー,0
428,2012401012744,登記記録の閉鎖等,0,2023-04-11,2023-04-06,株式会社多摩薬品,,株式会社,東京都,武蔵野市,境１丁目１８番４号,,13,203,1800022,,,2023-04-06,清算の結了等,,,2015-10-05,1,,,,,タマヤクヒン,0
438,2020001031940,登記記録の閉鎖等,0,2023-04-11,2023-04-03,精機工業株式会社,,株式会社,神奈川県,横浜市港北区,新横浜１丁目３番地１０,,14,109,2220033,,,2023-04-03,清算の結了等,,,2015-10-05,1,,,,,,0
456,2030001088030,登記記録の閉鎖等,0,2023-04-11,2023-04-03,株式会社ワコム電創,,株式会社,東京都,千代田区,丸の内１丁目６番５号,,13,101,1000005,,,2023-04-03,清算の結了等,,,2015-10-05,1,,,,,ワコムデンソウ,0
480,2040002062917,登記記録の閉鎖等,0,2023-04-11,2023-03-31,有限会社ポー,,有限会社,千葉県,印旛郡酒々井町,本佐倉字西屋上り１８番２,,12,322,2850926,,,2023-03-31,清算の結了等,,,2015-10-05,1,,,,,ポウ,0
482,2040005020434,登記記録の閉鎖等,0,2023-04-11,2023-04-03,特定非営利活動法人リオングローバルアカデミー,,その他の設立登記法人,千葉県,千葉市中央区,新町２２番地１新町５５ビル４０１,,12,101,2600028,,,2023-04-03,清算の結了等,,,2019-06-11,1,,,,,リオングローバルアカデミー,0
484,2050001017904,登記記録の閉鎖等,0,2023-04-11,2023-03-31,株式会社ラファエル,,株式会社,茨城県,つくば市,前野３０８番地１,,08,220,3003267,,,2023-03-31,清算の結了等,,,2015-10-05,1,,,,,ラファエル,0
485,2050001040856,登記記録の閉鎖等,0,2023-04-11,2023-03-31,株式会社バイオパワーＡ,,株式会社,茨城県,つくば市,花室９６２番地３,,08,220,3050025,,,2023-03-31,清算の結了等,,,2016-04-25,1,,,,,バイオパワーエー,0
494,2070001006194,登記記録の閉鎖等,0,2023-04-11,2023-04-04,株式会社市川,,株式会社,群馬県,高崎市,和田町５番１号,,10,202,3700847,,,2023-04-04,清算の結了等,,,2015-10-05,1,,,,,イチカワ,0
496,2080001020376,登記記録の閉鎖等,0,2023-04-11,2023-04-03,株式会社ふじケアサービス寒川,,株式会社,神奈川県,茅ヶ崎市,茅ヶ崎１丁目２番６２号,,14,207,2530041,,,2023-04-03,合併による解散等,1021001008698,令和５年４月１日神奈川県茅ヶ崎市茅ヶ崎一丁目２番６２号株式会社ふじケアサービス（1021001008698）に合併し解散,2015-10-05,1,,,,,フジケアサービスサムカワ,0
498,2080002010731,登記記録の閉鎖等,0,2023-04-11,2023-04-04,有限会社東海インフライズ,,有限会社,静岡県,静岡市清水区,本郷町４番１２号,,22,103,4240814,,,2023-04-04,清算の結了等,,,2015-10-05,1,,,,,トウカイインフライズ,0
500,2100001025604,登記記録の閉鎖等,0,2023-04-11,2023-04-04,エア・ウォーター・ダイオー株式会社,,株式会社,大阪府,守口市,寺内町２丁目７番２７号,,27,209,5700056,,,2023-04-04,合併による解散等,7120001252101,令和５年４月１日大阪府守口市寺内町二丁目７番２７号エア・ウォーター・エレクトロニクス株式会社（7120001252101）に合併し解散,2015-10-05,1,,,,,エアウォーターダイオー,0
506,2110001007130,登記記録の閉鎖等,0,2023-04-11,2023-04-03,株式会社くみあい企画,,株式会社,新潟県,新潟市秋葉区,新津東町１丁目３１８番地１,,15,105,9560816,,,2023-04-03,合併による解散等,8110001016002,令和５年４月１日新潟県燕市佐渡山１４２８番地株式会社ＪＡライフ新潟（8110001016002）に合併し解散,2015-10-05,1,,,,,クミアイキカク,0
509,2110002024050,登記記録の閉鎖等,0,2023-04-11,2023-04-04,有限会社ケンコー薬局,,有限会社,新潟県,上越市,大潟区潟町３８９番地４,,15,222,9493103,,,2023-04-04,清算の結了等,,,2015-10-05,1,,,,,ケンコーヤッキョク,0
530,2120005004478,登記記録の閉鎖等,0,2023-04-11,2023-04-04,よどがわ保健生活協同組合,,その他の設立登記法人,大阪府,大阪市東淀川区,西淡路５丁目１１番１１号,,27,114,5330031,,,2023-04-04,合併による解散等,8120005004423,令和５年４月１日大阪市鶴見区鶴見三丁目６番２４号医療福祉生活協同組合おおさか（8120005004423）に合併し解散,2015-10-05,1,,,,,ヨドガワホケン,0
533,2120901005892,登記記録の閉鎖等,0,2023-04-11,2023-04-05,株式会社岡井,,株式会社,大阪府,吹田市,朝日町１番１１２号,,27,205,5640027,,,2023-04-05,清算の結了等,,,2015-10-05,1,,,,,オカイ,0
546,2140002015880,登記記録の閉鎖等,0,2023-04-11,2023-04-07,有限会社ポートゥラス,,有限会社,兵庫県,神戸市中央区,栄町通３丁目６番７号,,28,110,6500023,,,2023-04-07,清算の結了等,,,2015-10-05,1,,,,,ポートゥラス,0
555,2160001013438,登記記録の閉鎖等,0,2023-04-11,2023-04-03,セキスイ管材テクニックス株式会社,,株式会社,滋賀県,栗東市,野尻７５番地,,25,208,5203027,,,2023-04-03,合併による解散等,1260001001094,令和５年４月１日滋賀県栗東市野尻７５番地西日本積水工業株式会社（1260001001094）に合併し解散,2015-10-05,1,,,,,セキスイカンザイテクニックス,0
561,2180001018435,登記記録の閉鎖等,0,2023-04-11,2023-04-03,株式会社名食,,株式会社,愛知県,名古屋市昭和区,宮東町２０７番地の４,,23,107,4660804,,,2023-04-03,清算の結了等,,,2015-10-05,1,,,,,メイショク,0
599,2250001011432,登記記録の閉鎖等,0,2023-04-11,2023-04-03,センシン工業株式会社,,株式会社,山口県,岩国市,装束町５丁目４番３２号,,35,208,7400001,,,2023-04-03,合併による解散等,6250001011528,令和５年４月１日山口県岩国市装束町五丁目４番３２号内海工業株式会社（6250001011528）に合併し解散,2015-10-05,1,,,,,センシンコウギョウ,0
630,2360001025264,登記記録の閉鎖等,0,2023-04-11,2023-03-24,株式会社プロポライフホテルズ石垣,,株式会社,沖縄県,南城市,佐敷字津波古９７８番地,,47,215,9011414,,,2023-03-24,清算の結了等,,,2019-02-20,1,,,,,プロポライフホテルズイシガキ,0
636,2380005010384,登記記録の閉鎖等,0,2023-04-11,2023-04-10,企業組合エフ・エヌ・シー,,その他の設立登記法人,福島県,郡山市,片平町字新蟻塚１３３番地,,07,203,9630211,,,2023-04-10,清算の結了等,,,2015-10-05,1,,,,,エフエヌシー,0
653,2450001010496,登記記録の閉鎖等,0,2023-04-11,2023-03-31,株式会社大阪農園,,株式会社,北海道,旭川市,東旭川町下兵村４９３番地,,01,204,0788208,,,2023-03-31,合併による解散等,5450001000635,令和５年３月３１日北海道旭川市東旭川町下兵村４９３番地株式会社大阪畜産（5450001000635）に合併し解散,2015-10-05,1,,,,,オオサカノウエン,0
659,2480002000915,登記記録の閉鎖等,0,2023-04-11,2023-04-10,有限会社奥谷興産,,有限会社,徳島県,鳴門市,撫養町南浜字東浜２６３番地,,36,202,7720003,,,2023-04-10,清算の結了等,,,2015-10-05,1,,,,,オクタニコウサン,0
671,2500002005102,登記記録の閉鎖等,0,2023-04-11,2023-04-10,有限会社西山架設工業,,有限会社,愛媛県,松山市,北吉田町１０２５番地５,,38,201,7918041,,,2023-04-10,清算の結了等,,,2015-10-05,1,,,,,ニシヤマカセツコウギョウ,0
672,2500002008492,登記記録の閉鎖等,0,2023-04-11,2023-04-10,有限会社エヌディー,,有限会社,愛媛県,松山市,堀江町甲１３１４番地２１,,38,201,7992651,,,2023-04-10,清算の結了等,,,2015-10-05,1,,,,,エヌディー,0
680,3010001094789,登記記録の閉鎖等,0,2023-04-11,2023-04-03,株式会社エヴァウェイ,,株式会社,東京都,中央区,銀座１丁目２３番１０号,,13,102,1040061,,,2023-04-03,合併による解散等,8120001043838,令和５年４月１日東京都中央区銀座一丁目２３番１０号株式会社ジュテーム（8120001043838）に合併し解散,2015-10-05,1,,,,,エヴァウェイ,0
697,3010401093762,登記記録の閉鎖等,0,2023-04-11,2023-04-06,株式会社ディクスエンジニアリング,,株式会社,東京都,港区,芝５丁目３３番１号,,13,103,1080014,,,2023-04-06,合併による解散等,5010401094098,令和５年４月１日東京都港区芝五丁目３３番１号日本ディクス株式会社（5010401094098）に合併し解散,2015-10-05,1,,,,,ディクスエンジニアリング,0
699,3010401108479,登記記録の閉鎖等,0,2023-04-11,2023-04-03,孫エステート合同会社,,合同会社,東京都,千代田区,神田錦町２丁目４番６号,,13,101,1010054,,,2023-04-03,合併による解散等,7010003013792,令和５年４月１日東京都千代田区神田淡路町一丁目１番地孫インベストメント合同会社（7010003013792）に合併し解散,2015-10-05,1,,,,,ソンエステート,0
718,3011001020099,登記記録の閉鎖等,0,2023-04-11,2023-04-03,株式会社中越エステート,,株式会社,東京都,千代田区,内幸町１丁目３番２号,,13,101,1000011,,,2023-04-03,合併による解散等,3010001034877,令和５年４月１日東京都千代田区内幸町一丁目３番２号中越パルプ工業株式会社（3010001034877）に合併し解散,2015-10-05,1,,,,,チュウエツエステート,0
744,3011301022464,登記記録の閉鎖等,0,2023-04-11,2023-04-03,株式会社イマドキ,,株式会社,東京都,渋谷区,円山町２８番１号,,13,113,1500044,,,2023-04-03,清算の結了等,,,2016-08-04,1,,,,,イマドキ,0
749,3011501016869,登記記録の閉鎖等,0,2023-04-11,2023-04-07,東雲管財株式会社,,株式会社,東京都,荒川区,東日暮里１丁目５番７号三ノ輪ビル３階,,13,118,1160014,,,2023-04-07,合併による解散等,1011001001010,令和５年４月１日東京都新宿区西新宿六丁目２４番１号太平洋不動産株式会社（1011001001010）に合併し解散,2015-10-05,1,,,,,シノノメカンザイ,0
781,3020001021668,登記記録の閉鎖等,0,2023-04-11,2023-04-03,株式会社ホンダカーズ神奈川東,,株式会社,神奈川県,横浜市港北区,箕輪町２丁目５番地１６号,,14,109,2230051,,,2023-04-03,合併による解散等,5020001065597,令和５年４月１日川崎市麻生区上麻生四丁目１９番１号株式会社ホンダカーズ神奈川北（5020001065597）に合併し解散,2015-10-05,1,,,,,ホンダカーズカナガワヒガシ,0
844,3070001007101,登記記録の閉鎖等,0,2023-04-11,2023-04-03,上信トラック株式会社,,株式会社,群馬県,高崎市,吉井町池７７９番地の１０,,10,202,3702107,,,2023-04-03,合併による解散等,5070001007099,令和５年４月１日群馬県高崎市鶴見町５１番地上信電鉄株式会社（5070001007099）に合併し解散,2015-10-05,1,,,,,ジョウシントラック,0
860,3110001000092,登記記録の閉鎖等,0,2023-04-11,2023-04-04,株式会社ときわ電機,,株式会社,新潟県,新潟市西区,善久字川中１２１番地８,,15,107,9501102,,,2023-04-04,清算の結了等,,,2015-10-05,1,,,,,トキワデンキ,0
883,3120005023469,登記記録の閉鎖等,0,2023-04-11,2023-04-06,税理士法人二瓶カジカワ会計事務所,,その他の設立登記法人,大阪府,守口市,菊水通３丁目１６番２６号,,27,209,5700032,,,2023-04-06,清算の結了等,,,2023-02-09,1,,,,,ニヘイカジカワカイケイジムショ,0
893,3130001031061,登記記録の閉鎖等,0,2023-04-11,2023-04-03,株式会社フェイス,,株式会社,京都府,京都市上京区,南上善寺町１７０番地,,26,102,6028321,,,2023-04-03,合併による解散等,4130001071024,令和５年４月１日京都市伏見区竹田向代町５１７番地株式会社ゲートホールディングス（4130001071024）に合併し解散,2015-10-05,1,,,,,フェイス,0
898,3130005003775,登記記録の閉鎖等,0,2023-04-11,2023-04-03,医療法人一仁会,,その他の設立登記法人,京都府,京都市左京区,一乗寺西水干町２５番地２,,26,103,6068171,,,2023-04-03,合併による解散等,9130005003877,令和５年４月３日京都市伏見区深草越後屋敷町１７番地医療法人清水会（9130005003877）に合併し解散,2015-10-05,1,,,,,イチジンカイ,0
925,3180001154031,登記記録の閉鎖等,0,2023-04-11,2023-04-03,株式会社アプロワン,,株式会社,愛知県,名古屋市中区,新栄１丁目８番３５号,,23,106,4600007,,,2023-04-03,合併による解散等,6180001147791,令和５年４月１日名古屋市中区新栄一丁目８番３５号株式会社アプロ（6180001147791）に合併し解散,2022-12-08,1,,,,,アプロワン,0
938,3200001000026,登記記録の閉鎖等,0,2023-04-11,2023-04-03,株式会社青木清三郎商店,,株式会社,岐阜県,岐阜市,東明見町１６番地１,,21,201,5008436,,,2023-04-03,清算の結了等,,,2015-10-05,1,,,,,アオキセイザブロウショウテン,0
943,3210002003869,登記記録の閉鎖等,0,2023-04-11,2023-04-06,ｎａｎｏ　ＶＩＳＵＡＬＯＧＩＣＡＬ有限会社,,有限会社,福井県,福井市,花月４丁目１０番８号,,18,201,9100022,,,2023-04-06,清算の結了等,,,2015-10-05,1,,,,,ナノビジュアロジカル,0
948,3230001007885,登記記録の閉鎖等,0,2023-04-11,2023-04-03,北陸高砂鉄心株式会社,00078873,株式会社,富山県,滑川市,法花寺２３３番地,,16,206,9360885,,,2023-04-03,合併による解散等,6230001007882,令和５年４月１日富山県滑川市法花寺２３３番地北陸電機製造株式会社（6230001007882）に合併し解散,2015-10-05,1,,,,,ホクリクタカサゴテッシン,0
950,3240001015342,登記記録の閉鎖等,0,2023-04-11,2023-04-03,広島トヨタトレーディング株式会社,,株式会社,広島県,広島市中区,広瀬北町２番２４号,,34,101,7300803,,,2023-04-03,合併による解散等,4240001009500,令和５年４月１日広島市中区広瀬北町２番２４号広島トヨタ自動車株式会社（4240001009500）に合併し解散,2015-10-05,1,,,,,ヒロシマトヨタトレーディング,0
951,3240001027932,登記記録の閉鎖等,0,2023-04-11,2023-04-05,共立機工株式会社,,株式会社,広島県,廿日市市,浅原大山甲９６２番地３,,34,213,7380223,,,2023-04-05,清算の結了等,,,2015-10-05,1,,,,,キョウリツキコウ,0
952,3240001042543,登記記録の閉鎖等,0,2023-04-11,2023-04-03,株式会社Ｓｕｎｓエステート,,株式会社,広島県,広島市中区,大手町４丁目６番１６号,,34,101,7300051,,,2023-04-03,合併による解散等,1240001002763,令和５年４月１日広島市中区大手町五丁目２番２２号株式会社Ｓｕｎｓハウジング（1240001002763）に合併し解散,2015-10-05,1,,,,,サンズエステート,0
957,3260005001477,登記記録の閉鎖等,0,2023-04-11,2023-04-07,医療法人深澤内科医院,,その他の設立登記法人,岡山県,岡山市北区,西辛川４８７番地の２,,33,101,7011213,,,2023-04-07,清算の結了等,,,2015-10-05,1,,,,,フカザワナイカイイン,0
960,3290001028620,登記記録の閉鎖等,0,2023-04-11,2023-04-03,株式会社ヤマウトラスト,,株式会社,福岡県,福岡市早良区,東入部５丁目１５番７号,,40,137,8111102,,,2023-04-03,合併による解散等,6290001092671,令和５年４月１日福岡市早良区東入部五丁目１５番７号株式会社ヤマウ（6290001092671）に合併し解散,2015-10-05,1,,,,,ヤマウトラスト,0
1006,3430003008143,登記記録の閉鎖等,0,2023-04-11,2023-04-10,合同会社オフィスＬＵＣＥ,,合同会社,北海道,札幌市中央区,南三条西８丁目３番地２リエス南３条１００１号,,01,101,0600063,,,2023-04-10,清算の結了等,,,2017-01-17,1,,,,,,0
1010,3462502000998,登記記録の閉鎖等,0,2023-04-11,2023-04-05,有限会社尾田牧場,,有限会社,北海道,野付郡別海町,別海緑町１０９番地１８,,01,691,0860214,,,2023-04-05,清算の結了等,,,2015-10-05,1,,,,,オダボクジョウ,0
1016,3500002017930,登記記録の閉鎖等,0,2023-04-11,2023-04-06,有限会社大西タクシー,,有限会社,愛媛県,今治市,大西町新町甲７１０番地２,,38,202,7992203,,,2023-04-06,清算の結了等,,,2015-10-05,1,,,,,オオニシタクシー,0
1028,4010001142919,登記記録の閉鎖等,0,2023-04-11,2023-04-03,ケイラインエナジーシップマネージメント株式会社,,株式会社,東京都,千代田区,内幸町２丁目１番１号,,13,101,1000011,,,2023-04-03,合併による解散等,9010001142963,令和５年４月１日東京都千代田区内幸町二丁目１番１号ケイラインマリンソリューションズ株式会社（9010001142963）に合併し解散,2015-10-05,1,,,,,ケイラインエナジーシップマネージメント,0
1087,4011101034790,登記記録の閉鎖等,0,2023-04-11,2023-04-04,株式会社Ａ２Ａ研究所,,株式会社,東京都,多摩市,落合１丁目４３番地京王プラザホテル多摩２階ＫＥＩＯＢＩＺＰＬＡＺＡ内,,13,224,2060033,,,2023-04-04,清算の結了等,,,2015-10-05,1,,,,,エイツーエイケンキュウショ,0
1091,4011101092021,登記記録の閉鎖等,0,2023-04-11,2023-04-06,株式会社ローカルダイバー,,株式会社,東京都,新宿区,下落合３丁目１４番１６号,,13,104,1610033,,,2023-04-06,清算の結了等,,,2020-07-29,1,,,,,ローカルダイバー,0
1122,4013301001042,登記記録の閉鎖等,0,2023-04-11,2023-04-03,株式会社イシヤマ,,株式会社,東京都,豊島区,池袋本町３丁目７番２２号,,13,116,1700011,,,2023-04-03,清算の結了等,,,2015-10-05,1,,,,,イシヤマ,0
1131,4020002031954,登記記録の閉鎖等,0,2023-04-11,2023-04-03,横浜興業有限会社,,有限会社,神奈川県,横浜市南区,別所１丁目１５番１号,,14,105,2320064,,,2023-04-03,清算の結了等,,,2015-10-05,1,,,,,ヨコハマコウギョウ,0
1161,4030002056372,登記記録の閉鎖等,0,2023-04-11,2023-03-31,有限会社ニラサワ製作所,,有限会社,埼玉県,北足立郡伊奈町,大字小針新宿６８８番地１,,11,301,3620808,,,2023-03-31,清算の結了等,,,2015-10-05,1,,,,,ニラサワセイサクショ,0
1186,4070002002661,登記記録の閉鎖等,0,2023-04-11,2023-04-05,有限会社重山労務管理事務所,,有限会社,群馬県,前橋市,元総社町２丁目７番地の４,,10,201,3710846,,,2023-04-05,清算の結了等,,,2015-10-05,1,,,,,シゲヤマロウムカンリジムショ,0
1189,4080001016133,登記記録の閉鎖等,0,2023-04-11,2023-04-07,株式会社プラティックジャパン,,株式会社,静岡県,焼津市,下小田８０３番地の１,,22,212,4250057,,,2023-04-07,清算の結了等,,,2015-10-05,1,,,,,プラティックジャパン,0
1192,4080102002726,登記記録の閉鎖等,0,2023-04-11,2023-04-05,有限会社日進電気工業所,,有限会社,静岡県,沼津市,高砂町９番地の４０,,22,203,4100016,,,2023-04-05,清算の結了等,,,2015-10-05,1,,,,,ニッシンデンキコウギョウショ,0
1193,4080401010660,登記記録の閉鎖等,0,2023-04-11,2023-03-28,株式会社山下組,,株式会社,静岡県,浜松市北区,引佐町金指１５５５番地の２,,22,135,4312213,,,2023-03-28,清算の結了等,,,2015-10-05,1,,,,,ヤマシタグミ,0
1202,4110001010396,登記記録の閉鎖等,0,2023-04-11,2023-04-03,株式会社みらいサービス,,株式会社,新潟県,新潟市南区,東笠巻新田２７０番地５,,15,106,9501406,,,2023-04-03,合併による解散等,8110001016002,令和５年４月１日新潟県燕市佐渡山１４２８番地株式会社ＪＡライフ新潟（8110001016002）に合併し解散,2015-10-05,1,,,,,ミライサービス,0
1205,4120001045061,登記記録の閉鎖等,0,2023-04-11,2023-04-04,株式会社ダイケイ,,株式会社,大阪府,大阪市淀川区,西宮原１丁目８番１０号,,27,123,5320004,,,2023-04-04,清算の結了等,,,2015-10-05,1,,,,,ダイケイ,0
1246,4130002021366,登記記録の閉鎖等,0,2023-04-11,2023-04-03,有限会社ＰＳ,,有限会社,京都府,京都市北区,小山花ノ木町５,,26,101,6038122,,,2023-04-03,合併による解散等,8130002002437,令和５年４月１日京都市北区小山花ノ木町５株式会社紫晃（8130002002437）に合併し解散,2015-10-05,1,,,,,ピーエス,0
1247,4140001011086,登記記録の閉鎖等,0,2023-04-11,2023-04-07,後藤トランス株式会社,,株式会社,兵庫県,神戸市中央区,海岸通３丁目２番１号,,28,110,6500024,,,2023-04-07,清算の結了等,,,2015-10-05,1,,,,,ゴトウトランス,0
1267,4140005018160,登記記録の閉鎖等,0,2023-04-11,2023-04-05,セントラル第二伊丹管理組合法人,,その他の設立登記法人,兵庫県,伊丹市,南本町１丁目１番１２号,,28,207,6640852,,,2023-04-05,清算の結了等,,,2015-10-05,1,,,,,セントラルダイニイタミ,0
1273,4150003001927,登記記録の閉鎖等,0,2023-04-11,2023-04-03,合同会社創ライフ,,合同会社,奈良県,大和郡山市,南郡山町３６３番地２５－１０１,,29,203,6391007,,,2023-04-03,清算の結了等,,,2019-04-19,1,,,,,ソウライフ,0
1298,4190002010628,登記記録の閉鎖等,0,2023-04-11,2023-04-04,有限会社ナカタ工業,,有限会社,三重県,鳥羽市,安楽島町１３１７番地６,,24,211,5170021,,,2023-04-04,清算の結了等,,,2015-10-05,1,,,,,ナカタコウギョウ,0
1309,4240001042807,登記記録の閉鎖等,0,2023-04-11,2023-04-06,株式会社フラット,,株式会社,広島県,広島市西区,中広町２丁目５番２５号,,34,104,7330012,,,2023-04-06,清算の結了等,,,2015-10-05,1,,,,,フラット,0
1311,4240001048218,登記記録の閉鎖等,0,2023-04-11,2023-04-03,株式会社Ｓｕｎｓ,,株式会社,広島県,広島市中区,大手町５丁目２番２２号,,34,101,7300051,,,2023-04-03,合併による解散等,1240001002763,令和５年４月１日広島市中区大手町五丁目２番２２号株式会社Ｓｕｎｓハウジング（1240001002763）に合併し解散,2015-10-05,1,,,,,サンズ,0
1312,4240001057078,登記記録の閉鎖等,0,2023-04-11,2023-04-03,株式会社メディア・マックス,,株式会社,広島県,広島市西区,観音本町２丁目５番２０号,,34,104,7330033,,,2023-04-03,合併による解散等,7240001056936,令和５年４月１日広島市西区観音本町二丁目５番２０号株式会社フタバ図書（7240001056936）に合併し解散,2020-12-10,1,,,,,メディアマックス,0
1320,4260003001577,登記記録の閉鎖等,0,2023-04-11,2023-03-30,合同会社作州連合坪井農場,,合同会社,岡山県,津山市,中北上１６３６番地３,,33,203,7094606,,,2023-03-30,清算の結了等,,,2015-10-05,1,,,,,,0
1330,4290002014825,登記記録の閉鎖等,0,2023-04-11,2023-04-03,有限会社華龍,,有限会社,福岡県,福岡市博多区,比恵町２番２７号,,40,132,8120014,,,2023-04-03,清算の結了等,,,2015-10-05,1,,,,,カリュウ,0
1334,4300002005839,登記記録の閉鎖等,0,2023-04-11,2023-03-31,有限会社江里口文具店,,有限会社,佐賀県,武雄市,武雄町大字富岡７７８０番地１,,41,206,8430024,,,2023-03-31,清算の結了等,,,2015-10-05,1,,,,,エリグチブングテン,0
1350,4370601002759,登記記録の閉鎖等,0,2023-04-11,2023-04-04,株式会社グラス建装,,株式会社,宮城県,塩竈市,青葉ケ丘２１番４号,,04,203,9850082,,,2023-04-04,清算の結了等,,,2015-10-05,1,,,,,グラスケンソウ,0
1369,4440001003037,登記記録の閉鎖等,0,2023-04-11,2023-04-06,吉建産商株式会社,,株式会社,北海道,茅部郡鹿部町,字鹿部４５番地,,01,343,0411402,,,2023-04-06,合併による解散等,6440001002573,令和５年４月６日北海道茅部郡鹿部町字鹿部４５番地吉建設株式会社（6440001002573）に合併し解散,2015-10-05,1,,,,,ヨシケンサンショウ,0
1375,4440005000071,登記記録の閉鎖等,0,2023-04-11,2023-04-04,函館工業団地協同組合,,その他の設立登記法人,北海道,函館市,浅野町４番８号,,01,202,0400076,,,2023-04-04,清算の結了等,,,2015-10-05,1,,,,,ハコダテコウギョウダンチ,0
1392,5010001144113,登記記録の閉鎖等,0,2023-04-11,2023-04-03,株式会社光コーポレーション,,株式会社,東京都,千代田区,神田須田町１丁目２４番地３,,13,101,1010041,,,2023-04-03,合併による解散等,1010001226831,令和５年４月１日東京都千代田区神田須田町一丁目２４番地３株式会社アイリス（1010001226831）に合併し解散,2015-10-05,1,,,,,ヒカリコーポレーション,0
1425,5010701023376,登記記録の閉鎖等,0,2023-04-11,2023-04-03,株式会社タクト,,株式会社,東京都,品川区,南品川３丁目６番４号,,13,109,1400004,,,2023-04-03,清算の結了等,,,2015-10-05,1,,,,,タクト,0
1443,5011001050821,登記記録の閉鎖等,0,2023-04-11,2023-04-04,株式会社アスリートサポート,,株式会社,東京都,渋谷区,恵比寿西１丁目８番１号,,13,113,1500021,,,2023-04-04,合併による解散等,3011001029248,令和５年４月１日東京都渋谷区恵比寿西一丁目８番１号株式会社ブイ・シー・エヌ（3011001029248）に合併し解散,2015-10-05,1,,,,,アスリートサポート,0
1451,5011003002275,登記記録の閉鎖等,0,2023-04-11,2023-04-05,合同会社ＶＴＦＡビリーフ,,合同会社,東京都,渋谷区,代官山町２０番９号,,13,113,1500034,,,2023-04-05,清算の結了等,,,2015-10-05,1,,,,,ヴイティーエフエービリーフ,0
1453,5011003014923,登記記録の閉鎖等,0,2023-04-11,2023-04-04,セレクトカンパニー合同会社,,合同会社,東京都,渋谷区,渋谷１丁目１５－１２ＬＡＩＤＯＵＴＳＨＩＢＵＹＡ２０４,,13,113,1500002,,,2023-04-04,清算の結了等,,,2022-06-30,1,,,,,セレクトカンパニー,0
1474,5011403002610,登記記録の閉鎖等,0,2023-04-11,2023-04-03,合同会社サトノエステート銀座,,合同会社,東京都,板橋区,双葉町３１番７号,,13,119,1730011,,,2023-04-03,合併による解散等,1011403002564,令和５年４月１日東京都板橋区双葉町３１番７号合同会社サトノエステート神谷町（1011403002564）に合併し解散,2019-02-08,1,,,,,サトノエステートギンザ,0
1526,5020002097697,登記記録の閉鎖等,0,2023-04-11,2023-04-03,有限会社相馬,,有限会社,神奈川県,川崎市川崎区,観音１丁目１１番１２号,,14,131,2100831,,,2023-04-03,清算の結了等,,,2015-10-05,1,,,,,ソウマ,0
1543,5030001129277,登記記録の閉鎖等,0,2023-04-11,2023-03-31,株式会社永明商事,,株式会社,埼玉県,飯能市,仲町１２－９芳本ビル７０１,,11,209,3570038,,,2023-03-31,清算の結了等,,,2019-01-31,1,,,,,エイメイショウジ,0
1558,5040001038411,登記記録の閉鎖等,0,2023-04-11,2023-03-31,北總工業株式会社,00019051,株式会社,千葉県,流山市,流山２丁目２５番地,,12,220,2700164,,,2023-03-31,清算の結了等,,,2015-10-05,1,,,,,ホクソウコウギョウ,0
1562,5040001085569,登記記録の閉鎖等,0,2023-04-11,2023-03-31,株式会社コミュニティルネサンス,,株式会社,千葉県,流山市,東初石２丁目７８番地の１ダイアパレスコータコート２０１号,,12,220,2700114,,,2023-03-31,清算の結了等,,,2015-10-05,1,,,,,コミュニティルネサンス,0
1575,5050001045605,登記記録の閉鎖等,0,2023-04-11,2023-03-31,株式会社美浦村バイオマス発電所,,株式会社,茨城県,稲敷郡美浦村,大字木原２３３６番地,,08,442,3000421,,,2023-03-31,清算の結了等,,,2019-02-22,1,,,,,ミホムラバイオマスハツデンショ,0
1603,5120001106985,登記記録の閉鎖等,0,2023-04-11,2023-04-07,株式会社西日本リサーチ,,株式会社,大阪府,大阪市中央区,谷町５丁目６番１０号,,27,128,5400012,,,2023-04-07,合併による解散等,1122001025582,令和５年４月１日大阪府東大阪市寺前町一丁目１０番１６号株式会社西日本リビング・サポート（1122001025582）に合併し解散,2015-10-05,1,,,,,ニシニホンリサーチ,0
1604,5120001178851,登記記録の閉鎖等,0,2023-04-11,2023-04-03,株式会社エスケイ,,株式会社,大阪府,大阪市平野区,平野北１丁目５番１９号,,27,126,5470041,,,2023-04-03,合併による解散等,1120001020372,令和５年４月１日大阪市平野区平野北一丁目５番１９号株式会社システックキョーワ（1120001020372）に合併し解散,2015-10-05,1,,,,,エスケイ,0
1620,5120005014193,登記記録の閉鎖等,0,2023-04-11,2023-04-05,社会福祉法人サザンカ会,,その他の設立登記法人,大阪府,守口市,平代町４番１０号,,27,209,5700078,,,2023-04-05,合併による解散等,3120005013949,令和５年４月５日大阪府守口市京阪本通二丁目５番５号守口市役所内社会福祉法人守口市社会福祉協議会（3120005013949）に合併し解散,2015-10-05,1,,,,,サザンカカイ,0
1629,5130001018973,登記記録の閉鎖等,0,2023-04-11,2023-03-31,株式会社みつわ,,株式会社,京都府,京都市北区,平野東柳町７９番地２,,26,101,6038356,,,2023-03-31,清算の結了等,,,2015-10-05,1,,,,,ミツワ,0
1633,5140001005888,登記記録の閉鎖等,0,2023-04-11,2023-04-06,株式会社アルバ,,株式会社,兵庫県,神戸市中央区,相生町４丁目７番１７号,,28,110,6500025,,,2023-04-06,清算の結了等,,,2015-10-05,1,,,,,アルバ,0
1641,5140001108088,登記記録の閉鎖等,0,2023-04-11,2023-04-05,Ｖｏｌｏｎｔ’ｅ　ｃｏｃｏ株式会社,,株式会社,兵庫県,神戸市中央区,栄町通４丁目３番１５号,,28,110,6500023,,,2023-04-05,清算の結了等,,,2017-11-08,1,,,,,,0
1642,5140005014456,登記記録の閉鎖等,0,2023-04-11,2023-04-04,医療法人社団赤松眼科医院,,その他の設立登記法人,兵庫県,姫路市,御国野町国分寺８２７番地の３,,28,201,6710234,,,2023-04-04,清算の結了等,,,2015-10-05,1,,,,,アカマツガンカイイン,0
1648,5160001022675,登記記録の閉鎖等,0,2023-04-11,2023-04-04,株式会社金田外装,,株式会社,滋賀県,守山市,水保町１３４２番地１０,,25,207,5240102,,,2023-04-04,清算の結了等,,,2020-08-06,1,,,,,カネダガイソウ,0
1668,5210001013231,登記記録の閉鎖等,0,2023-04-11,2023-04-03,藤田光学株式会社,,株式会社,福井県,鯖江市,神中町１丁目５番２２号,,18,207,9160016,,,2023-04-03,合併による解散等,5210001017488,令和５年４月１日福井県鯖江市神中町一丁目５番２２号株式会社ＦＵＪＩＫＯＮ　ＨＯＬＤＩＮＧＳ（5210001017488）に合併し解散,2015-10-05,1,,,,,フジタコウガク,0
1672,5230001009483,登記記録の閉鎖等,0,2023-04-11,2023-04-05,株式会社ゆらら,,株式会社,富山県,砺波市,五郎丸６３０番地,,16,208,9391327,,,2023-04-05,清算の結了等,,,2015-10-05,1,,,,,ユララ,0
1687,5260002022061,登記記録の閉鎖等,0,2023-04-11,2023-04-04,有限会社ワイズ,,有限会社,岡山県,倉敷市,新田３１１２番地６,,33,202,7100038,,,2023-04-04,清算の結了等,,,2015-10-05,1,,,,,ワイズ,0
1688,5270002011047,登記記録の閉鎖等,0,2023-04-11,2023-04-04,有限会社高塚貿易,,有限会社,鳥取県,東伯郡琴浦町,大字箆津８０番地２,,31,371,6892544,,,2023-04-04,清算の結了等,,,2015-10-05,1,,,,,タカツカボウエキ,0
1704,5330001020777,登記記録の閉鎖等,0,2023-04-11,2023-04-03,株式会社レデモホールディングス,,株式会社,熊本県,菊池郡菊陽町,光の森７丁目４９番地２０,,43,404,8691108,,,2023-04-03,合併による解散等,7330001010421,令和５年４月１日熊本県山鹿市石１４０３番地株式会社レ・デ・モ（7330001010421）に合併し解散,2015-10-05,1,,,,,レデモホールディングス,0
1713,5370802002111,登記記録の閉鎖等,0,2023-04-11,2023-04-05,有限会社仙台アナログ設計,,有限会社,宮城県,亘理郡亘理町,吉田字中原５５番４４４,,04,361,9892331,,,2023-04-05,清算の結了等,,,2015-10-05,1,,,,,センダイアナログセッケイ,0
1723,5430001060284,登記記録の閉鎖等,0,2023-04-11,2023-04-07,ベネフィット株式会社,,株式会社,北海道,札幌市東区,北十二条東４丁目１番１５号,,01,103,0650012,,,2023-04-07,合併による解散等,2011101019422,令和５年４月１日東京都新宿区新宿一丁目１７番２号株式会社ベネフィット（2011101019422）に合併し解散,2015-10-05,1,,,,,ベネフィット,0
1762,6010402031660,登記記録の閉鎖等,0,2023-04-11,2023-04-05,有限会社ＶＴＦＡフォー,,有限会社,東京都,渋谷区,代官山町２０番９号,,13,113,1500034,,,2023-04-05,清算の結了等,,,2015-10-05,1,,,,,ヴイティーエフエーフォー,0
1774,6010601022989,登記記録の閉鎖等,0,2023-04-11,2023-03-31,株式会社東武ホテル北海道,,株式会社,東京都,墨田区,錦糸１丁目２番２号,,13,107,1300013,,,2023-03-31,清算の結了等,,,2015-10-05,1,,,,,トウブホテルホッカイドウ,0
1800,6011101073151,登記記録の閉鎖等,0,2023-04-11,2023-04-06,株式会社Ｍ．Ｍ．Ｓ．Ｊ,,株式会社,東京都,新宿区,高田馬場２丁目１４番２７号村山ビル３Ｆ,,13,104,1690075,,,2023-04-06,清算の結了等,,,2015-10-05,1,,,,,エムエムエスジェイ,0
1805,6011102020912,登記記録の閉鎖等,0,2023-04-11,2023-04-03,有限会社ｂａｍｂｉ,,有限会社,神奈川県,横浜市西区,みなとみらい４丁目９番１号Ｂ４１０,,14,103,2200012,,,2023-04-03,清算の結了等,,,2015-10-05,1,,,,,,0
1809,6011302010226,登記記録の閉鎖等,0,2023-04-11,2023-04-03,有限会社ロザンプランニング,,有限会社,神奈川県,横浜市青葉区,美しが丘西３丁目１３番１１号,,14,117,2250001,,,2023-04-03,清算の結了等,,,2015-10-05,1,,,,,ロザンプランニング,0
1820,6011801031466,登記記録の閉鎖等,0,2023-04-11,2023-04-05,株式会社ＭＣＣホールディング,,株式会社,東京都,葛飾区,西新小岩５丁目３番２７号,,13,122,1240025,,,2023-04-05,合併による解散等,5011801035831,令和５年４月１日東京都葛飾区西新小岩五丁目３番２７号株式会社セキグチホールディングス（5011801035831）に合併し解散,2016-03-02,1,,,,,,0
1821,6011802011987,登記記録の閉鎖等,0,2023-04-11,2023-04-05,有限会社クニイ,,有限会社,東京都,足立区,西保木間１丁目１９番１８号,,13,121,1210812,,,2023-04-05,清算の結了等,,,2015-10-05,1,,,,,クニイ,0
1875,6040003011051,登記記録の閉鎖等,0,2023-04-11,2023-04-03,みのりファーム合同会社,,合同会社,千葉県,千葉市中央区,富士見２丁目７番９号富士見ビル６０９号,,12,101,2600015,,,2023-04-03,合併による解散等,3040003009370,令和５年４月１日千葉市中央区富士見二丁目７番９号富士見ビル６０９号合同会社すみれコーポレーション（3040003009370）に合併し解散,2017-12-26,1,,,,,ミノリファーム,0
1884,6060001009145,登記記録の閉鎖等,0,2023-04-11,2023-04-03,ファスコデザインストアー株式会社,,株式会社,栃木県,宇都宮市,上大曽町３３８番地４,,09,201,3200013,,,2023-04-03,合併による解散等,4060001004635,令和５年４月１日栃木県宇都宮市二荒町５番１２号株式会社ヨコセ（4060001004635）に合併し解散,2015-10-05,1,,,,,ファスコデザインストアー,0
1886,6070001006744,登記記録の閉鎖等,0,2023-04-11,2023-04-03,ぐんま県央青果精算株式会社,,株式会社,群馬県,高崎市,下大類町１２５８番地,,10,202,3700034,,,2023-04-03,合併による解散等,8070001010364,令和５年４月１日群馬県高崎市下大類町１２５８番地ぐんま県央青果株式会社（8070001010364）に合併し解散,2015-10-05,1,,,,,グンマケンオウセイカセイサン,0
1895,6080101010521,登記記録の閉鎖等,0,2023-04-11,2023-04-07,株式会社中央乳販,,株式会社,静岡県,富士市,中丸９番地３,,22,210,4160933,,,2023-04-07,合併による解散等,7080001010678,令和５年４月１日静岡市清水区原５７番地の２株式会社中央乳販（7080001010678）に合併し解散,2015-10-05,1,,,,,チュウオウニュウハン,0
1897,6080401010948,登記記録の閉鎖等,0,2023-04-11,2023-04-07,株式会社ブルックマンテクノロジ,,株式会社,静岡県,浜松市中区,大工町１２５番地,,22,131,4300936,,,2023-04-07,合併による解散等,7010501016231,令和５年４月１日東京都台東区台東一丁目５番１号凸版印刷株式会社（7010501016231）に合併し解散,2015-10-05,1,,,,,ブルックマンテクノロジ,0
1908,6110003004246,登記記録の閉鎖等,0,2023-04-11,2023-04-03,合同会社エムオーエヌディベロップメント,,合同会社,新潟県,五泉市,水島町９番１１号,,15,218,9591812,,,2023-04-03,清算の結了等,,,2020-08-25,1,,,,,エムオーエヌディベロップメント,0
1910,6120001057121,登記記録の閉鎖等,0,2023-04-11,2023-04-04,株式会社東通エンジニアリング,,株式会社,大阪府,大阪市淀川区,宮原４丁目１番４５号（新大阪八千代ビル）,,27,123,5320003,,,2023-04-04,清算の結了等,,,2015-10-05,1,,,,,トウツウエンジニアリング,0
1911,6120001194410,登記記録の閉鎖等,0,2023-04-11,2023-04-07,株式会社エルコーデ,,株式会社,大阪府,大阪市中央区,南本町１丁目４番１０号,,27,128,5410054,,,2023-04-07,合併による解散等,7150001010555,令和５年３月３１日奈良県磯城郡田原本町千代１１１０番地の５伸和建設株式会社（7150001010555）に合併し解散,2015-11-12,1,,,,,エルコーデ,0
1921,6120005004474,登記記録の閉鎖等,0,2023-04-11,2023-04-04,なにわ保健生活協同組合,,その他の設立登記法人,大阪府,大阪市都島区,高倉町２丁目３番４号,,27,102,5340011,,,2023-04-04,合併による解散等,8120005004423,令和５年４月１日大阪市鶴見区鶴見三丁目６番２４号医療福祉生活協同組合おおさか（8120005004423）に合併し解散,2015-10-05,1,,,,,ナニワホケン,0
1934,6130002017040,登記記録の閉鎖等,0,2023-04-11,2023-03-31,有限会社ニシガサ,,有限会社,京都府,京都市上京区,新町通丸太町上る春帯町３５３番地,,26,102,6028026,,,2023-03-31,合併による解散等,7130001071426,令和５年３月３１日京都市上京区新町通丸太町上る春帯町３５３番地株式会社ＫＪ（7130001071426）に合併し解散,2015-10-05,1,,,,,ニシガサ,0
1953,6150005007532,登記記録の閉鎖等,0,2023-04-11,2023-04-04,天理教保敷野分教会,,その他の設立登記法人,奈良県,吉野郡大淀町,大字増口５７５番地,,29,442,6393123,,,2023-04-04,合併による解散等,3010105000651,令和５年３月２２日東京都八王子市暁町一丁目３７番１１号天理教本保大教会（3010105000651）に合併し解散,2015-10-05,1,,,,,,0
1971,6180005013263,登記記録の閉鎖等,0,2023-04-11,2023-03-30,天理教本西春分教会,,その他の設立登記法人,愛知県,愛西市,佐屋町道西１８８番地の３,,23,232,4960901,,,2023-03-30,合併による解散等,5180005013066,令和５年３月３０日愛知県愛西市森川町堤外１１３番地の１天理教本煥分教会（5180005013066）に合併し解散,2015-10-05,1,,,,,テンリキョウホンニシシュンブンキョウカイ,0
1996,6240001022600,登記記録の閉鎖等,0,2023-04-11,2023-04-03,株式会社Ｓｕｎｓテック,,株式会社,広島県,広島市安芸区,船越南３丁目７番３９号,,34,107,7360082,,,2023-04-03,合併による解散等,1240001002763,令和５年４月１日広島市中区大手町五丁目２番２２号株式会社Ｓｕｎｓハウジング（1240001002763）に合併し解散,2015-10-05,1,,,,,サンズテック,0
2007,6260001036805,登記記録の閉鎖等,0,2023-04-11,2023-04-03,株式会社Ｓｅｒｉｏｕｓ　ｐｌａｙ,,株式会社,岡山県,岡山市南区,泉田４２１番地２０,,33,104,7000944,,,2023-04-03,清算の結了等,,,2022-04-28,1,,,,,セリオスプレイ,0
2019,6290001052196,登記記録の閉鎖等,0,2023-04-11,2023-04-03,株式会社エス・エル・エス福岡,,株式会社,福岡県,福岡市博多区,中洲４丁目３番１８号,,40,132,8100801,,,2023-04-03,合併による解散等,9310002008596,令和５年４月１日福岡市博多区中洲四丁目３番１８号株式会社Ｆａ‐Ｔｕｓ（9310002008596）に合併し解散,2015-10-05,1,,,,,エスエルエスフクオカ,0
2028,6290802016787,登記記録の閉鎖等,0,2023-04-11,2023-04-04,有限会社イナケン,,有限会社,福岡県,遠賀郡遠賀町,大字広渡２１３０番地の１,,40,384,8114302,,,2023-04-04,清算の結了等,,,2015-10-05,1,,,,,イナケン,0
2033,6340002015592,登記記録の閉鎖等,0,2023-04-11,2023-04-04,有限会社エイ・ケイ・ケイ電設,,有限会社,鹿児島県,姶良市,平松６１７５番地３,,46,225,8995652,,,2023-04-04,清算の結了等,,,2015-10-05,1,,,,,,0
2049,6390003001240,登記記録の閉鎖等,0,2023-04-11,2023-04-03,ビオインダストリー合同会社,,合同会社,山形県,西村山郡朝日町,大字送橋４５番地,,06,323,9901422,,,2023-04-03,清算の結了等,,,2015-10-05,1,,,,,ビオインダストリー,0
2065,6462501000947,登記記録の閉鎖等,0,2023-04-11,2023-04-07,株式会社角川商店,,株式会社,北海道,野付郡別海町,西春別駅前錦町４５番地,,01,691,0882563,,,2023-04-07,清算の結了等,,,2023-04-04,1,,,,,カドカワショウテン,0
2066,6470001001465,登記記録の閉鎖等,0,2023-04-11,2023-04-03,神戸広島ビル株式会社,,株式会社,香川県,高松市,田町１１番地５,,37,201,7600053,,,2023-04-03,合併による解散等,2470001001816,令和５年４月１日香川県高松市塩屋町８番地１四国興業株式会社（2470001001816）に合併し解散,2015-10-05,1,,,,,コウベヒロシマビル,0
2077,7010001040491,登記記録の閉鎖等,0,2023-04-11,2023-03-31,海栄水産株式会社,,株式会社,千葉県,松戸市,五香西１丁目２５番地の２７,,12,207,2702218,,,2023-03-31,清算の結了等,,,2015-10-05,1,,,,,カイエイスイサン,0
2081,7010001180577,登記記録の閉鎖等,0,2023-04-11,2023-03-31,株式会社ＪＳＩ,,株式会社,東京都,墨田区,本所４丁目１９番３号本所吾妻橋ＤＪビル,,13,107,1300004,,,2023-03-31,合併による解散等,9010401093781,令和５年３月３１日東京都墨田区本所四丁目１９番３号本所吾妻橋ＤＪビル株式会社ＪＳＩ（9010401093781）に合併し解散,2017-01-10,1,,,,,ジェイエスアイ,0
2124,7011001067120,登記記録の閉鎖等,0,2023-04-11,2023-04-05,スイタリアルエステート株式会社,,株式会社,東京都,渋谷区,上原２丁目２３番２号,,13,113,1510064,,,2023-04-05,清算の結了等,,,2015-10-05,1,,,,,スイタリアルエステート,0
2125,7011001073845,登記記録の閉鎖等,0,2023-04-11,2023-04-03,株式会社ＡＲＩＡ　Ｓｏｌｕｔｉｏｎ,,株式会社,東京都,渋谷区,初台１丁目１１番２号,,13,113,1510061,,,2023-04-03,清算の結了等,,,2015-10-05,1,,,,,アリアソリューション,0
2146,7011201016744,登記記録の閉鎖等,0,2023-04-11,2023-04-07,株式会社たんぽぽ薬局,,株式会社,東京都,中野区,野方６丁目４番１号,,13,114,1650027,,,2023-04-07,合併による解散等,6010901003581,令和５年４月１日東京都世田谷区成城七丁目８番１８号株式会社グラム（6010901003581）に合併し解散,2015-10-05,1,,,,,タンポポヤッキョク,0
2154,7011702010551,登記記録の閉鎖等,0,2023-04-11,2023-04-04,有限会社前澤設備,,有限会社,東京都,江戸川区,江戸川１丁目５１番４号,,13,123,1320013,,,2023-04-04,清算の結了等,,,2015-10-05,1,,,,,,0
2158,7011802002548,登記記録の閉鎖等,0,2023-04-11,2023-04-05,有限会社ケアサービス共栄,,有限会社,東京都,葛飾区,堀切３丁目１９番１５号,,13,122,1240006,,,2023-04-05,清算の結了等,,,2015-10-05,1,,,,,ケアサービスキョウエイ,0
2161,7012401023159,登記記録の閉鎖等,0,2023-04-11,2023-04-05,株式会社リンタク,,株式会社,東京都,国立市,中１丁目１０番５号金水ビル４Ｆ,,13,215,1860004,,,2023-04-05,清算の結了等,,,2015-10-05,1,,,,,リンタク,0
2172,7013301041440,登記記録の閉鎖等,0,2023-04-11,2023-04-07,日誠マリンホールディングス株式会社,,株式会社,東京都,豊島区,駒込４丁目３番２０－９０３号,,13,116,1700003,,,2023-04-07,合併による解散等,5011001017176,令和５年３月１９日東京都渋谷区笹塚一丁目５７番７号日誠マリン工業株式会社（5011001017176）に合併し解散,2017-11-29,1,,,,,ニッセイマリンホールディングス,0
2174,7020001013959,登記記録の閉鎖等,0,2023-04-11,2023-04-03,株式会社横浜巧芸,,株式会社,神奈川県,横浜市南区,大岡５丁目４番２５号,,14,105,2320061,,,2023-04-03,清算の結了等,,,2015-10-05,1,,,,,ヨコハマコウゲイ,0
2175,7020001023850,登記記録の閉鎖等,0,2023-04-11,2023-04-03,株式会社東環,,株式会社,神奈川県,横浜市神奈川区,鶴屋町２丁目９番地２２,,14,102,2210835,,,2023-04-03,清算の結了等,,,2015-10-05,1,,,,,,0
2189,7021002012223,登記記録の閉鎖等,0,2023-04-11,2023-04-03,株式会社ＭＩＮＡＭＩ,,株式会社,神奈川県,茅ヶ崎市,小和田１丁目９番３号,,14,207,2530012,,,2023-04-03,合併による解散等,7021002009913,令和５年４月１日神奈川県茅ヶ崎市鶴が台１－１－１１０株式会社南パッケージ（7021002009913）に合併し解散,2015-10-05,1,,,,,ミナミ,0
2190,7021002031966,登記記録の閉鎖等,0,2023-04-11,2023-04-04,有限会社渋谷造園,,有限会社,神奈川県,厚木市,上依知２６７５番地の２,,14,212,2430801,,,2023-04-04,清算の結了等,,,2015-10-05,1,,,,,シブヤゾウエン,0
2204,7030001078308,登記記録の閉鎖等,0,2023-04-11,2023-03-31,株式会社エムアンドエムシステムズ,,株式会社,埼玉県,川口市,大字安行領根岸１０２７番地の１,,11,203,3330834,,,2023-03-31,清算の結了等,,,2015-10-05,1,,,,,エムアンドエムシステムズ,0
2227,7040002036453,登記記録の閉鎖等,0,2023-04-11,2023-03-31,有限会社ベックスジャパン環境社,,有限会社,千葉県,市川市,菅野４丁目１２番１号,,12,203,2720824,,,2023-03-31,清算の結了等,,,2015-10-05,1,,,,,ベックスジャパンカンキョウシャ,0
2231,7050001010193,登記記録の閉鎖等,0,2023-04-11,2023-04-03,市川建設工業株式会社,,株式会社,茨城県,稲敷郡美浦村,大字信太２１８３番地１,,08,442,3000414,,,2023-04-03,合併による解散等,4050001010394,令和５年４月１日茨城県稲敷郡美浦村信太２１８３番地株式会社ユミナスコーポレーション（4050001010394）に合併し解散,2015-10-05,1,,,,,イチカワケンセツコウギョウ,0
2239,7060001022881,登記記録の閉鎖等,0,2023-04-11,2023-04-03,Ｓ．Ｔ．Ｔ．フィールド株式会社,,株式会社,栃木県,小山市,大字南小林６７６番地２,,09,208,3230057,,,2023-04-03,合併による解散等,7060001014516,令和５年４月１日栃木県小山市大字生駒８５１番地１株式会社東建（7060001014516）に合併し解散,2015-10-05,1,,,,,エスティティフィールド,0
2241,7070001006405,登記記録の閉鎖等,0,2023-04-11,2023-03-31,株式会社岡部開発工業,,株式会社,群馬県,藤岡市,上落合８４８番地１０,,10,209,3750057,,,2023-03-31,清算の結了等,,,2015-10-05,1,,,,,オカベカイハツコウギョウ,0
2242,7070001024506,登記記録の閉鎖等,0,2023-04-11,2023-04-04,フジシステム株式会社,,株式会社,群馬県,伊勢崎市,宮前町１６番地Ｂ１０１号,,10,204,3720026,,,2023-04-04,清算の結了等,,,2015-10-05,1,,,,,フジシステム,0
2247,7080001018754,登記記録の閉鎖等,0,2023-04-11,2023-04-06,株式会社藤枝きのこ園培養センター,,株式会社,静岡県,藤枝市,宮原７７４番地の１,,22,214,4260133,,,2023-04-06,清算の結了等,,,2015-10-05,1,,,,,フジエダキノコエンバイヨウセンター,0
2263,7120001220867,登記記録の閉鎖等,0,2023-04-11,2023-04-05,株式会社庵,,株式会社,大阪府,大阪市東成区,東小橋１丁目１８番１号,,27,115,5370024,,,2023-04-05,清算の結了等,,,2019-05-09,1,,,,,イオリ,0
2324,7200005011346,登記記録の閉鎖等,0,2023-04-11,2023-04-06,特定非営利活動法人かがやき,,その他の設立登記法人,岐阜県,岐阜市,古市場８５番地２,,21,201,5011121,,,2023-04-06,清算の結了等,,,2015-10-05,1,,,,,カガヤキ,0
2334,7240001029363,登記記録の閉鎖等,0,2023-04-11,2023-04-04,株式会社瀬戸内コーポレーション,,株式会社,広島県,福山市,沼隈町大字草深１３０２番地の１,,34,207,7200311,,,2023-04-04,清算の結了等,,,2015-10-05,1,,,,,セトウチコーポレーション,0
2343,7260001029436,登記記録の閉鎖等,0,2023-04-11,2023-04-05,株式会社中古住宅売却相談センター,,株式会社,岡山県,岡山市北区,問屋町８番地１０１,,33,101,7000977,,,2023-04-05,清算の結了等,,,2016-04-06,1,,,,,チュウコジュウタクバイキャクソウダンセンター,0
2345,7260005003107,登記記録の閉鎖等,0,2023-04-11,2023-04-10,特定非営利活動法人紙ひこう機,,その他の設立登記法人,岡山県,岡山市北区,中仙道１丁目７番３５号,,33,101,7000964,,,2023-04-10,清算の結了等,,,2015-10-05,1,,,,,カミヒコウキ,0
2346,7260005004468,登記記録の閉鎖等,0,2023-04-11,2023-04-03,社会福祉法人倉敷連医会,,その他の設立登記法人,岡山県,倉敷市,片島町１０５７番地１,,33,202,7100805,,,2023-04-03,合併による解散等,9260005003492,令和５年４月３日岡山県倉敷市神田二丁目３番５号社会福祉法人薫風会（9260005003492）に合併し解散,2015-10-05,1,,,,,クラシキレンイカイ,0
2348,7260005006563,登記記録の閉鎖等,0,2023-04-11,2023-04-03,社会福祉法人千寿福祉会,,その他の設立登記法人,岡山県,津山市,瓜生原３２６番地の１,,33,203,7080844,,,2023-04-03,合併による解散等,7260005006555,令和５年４月３日岡山県津山市瓜生原３３７番地の１社会福祉法人鶯園（7260005006555）に合併し解散,2015-10-05,1,,,,,センジュフクシカイ,0
2353,7290001052294,登記記録の閉鎖等,0,2023-04-11,2023-04-03,株式会社緑健ホールディングス,,株式会社,福岡県,福岡市博多区,博多駅東３丁目５番１５号,,40,132,8120013,,,2023-04-03,合併による解散等,1290001018292,令和５年４月１日福岡市博多区博多駅東三丁目５番１５号株式会社アサヒ緑健（1290001018292）に合併し解散,2015-10-05,1,,,,,リョクケンホールディングス,0
2354,7290001092415,登記記録の閉鎖等,0,2023-04-11,2023-04-04,株式会社ＭＥＥＴＩＳ,,株式会社,福岡県,福岡市博多区,博多駅前１丁目１５番２０号２階,,40,132,8120011,,,2023-04-04,清算の結了等,,,2021-03-23,1,,,,,ミーティス,0
2358,7290002045066,登記記録の閉鎖等,0,2023-04-11,2023-04-03,有限会社サンライト,,有限会社,福岡県,飯塚市,横田２８４番地の４,,40,205,8200044,,,2023-04-03,清算の結了等,,,2015-10-05,1,,,,,,0
2377,7340005009194,登記記録の閉鎖等,0,2023-04-11,2023-04-07,税理士法人フィナンシャルマネジメント,,その他の設立登記法人,鹿児島県,鹿児島市,小川町１２番８号,,46,201,8920817,,,2023-04-07,清算の結了等,,,2020-09-03,1,,,,,フィナンシャルマネジメント,0
2383,7360003007124,登記記録の閉鎖等,0,2023-04-11,2023-03-31,株式会社海客,,株式会社,沖縄県,宜野湾市,我如古１丁目４８番５,,47,205,9012214,,,2023-03-31,清算の結了等,,,2015-10-05,1,,,,,ウミキャク,0
2397,7410001008936,登記記録の閉鎖等,0,2023-04-11,2023-04-03,株式会社横手ジャパン,,株式会社,秋田県,横手市,八幡字八幡３２番地１,,05,203,0130071,,,2023-04-03,清算の結了等,,,2015-10-05,1,,,,,ヨコテジャパン,0
2517,8012402008546,登記記録の閉鎖等,0,2023-04-11,2023-04-05,有限会社那須興業,,有限会社,東京都,小金井市,梶野町１丁目５番９号,,13,210,1840002,,,2023-04-05,清算の結了等,,,2015-10-05,1,,,,,ナスコウギョウ,0
2521,8013202005015,登記記録の閉鎖等,0,2023-04-11,2023-04-04,有限会社はぎはらや,,有限会社,東京都,目黒区,自由が丘１丁目２７番２号,,13,110,1520035,,,2023-04-04,清算の結了等,,,2015-10-05,1,,,,,ハギハラヤ,0
2525,8013303005632,登記記録の閉鎖等,0,2023-04-11,2023-03-31,合同会社イタバ,,合同会社,東京都,豊島区,上池袋３丁目２６番２号北池袋クアトロ４号,,13,116,1700012,,,2023-03-31,清算の結了等,,,2021-04-14,1,,,,,イタバ,0
2528,8020001033618,登記記録の閉鎖等,0,2023-04-11,2023-04-05,株式会社ケーアイテクノロジー,,株式会社,神奈川県,横浜市港北区,新横浜３丁目１７番２号,,14,109,2220033,,,2023-04-05,合併による解散等,8500001010469,令和５年４月１日愛媛県西条市港字北新地３５７番３アインド株式会社（8500001010469）に合併し解散,2015-10-05,1,,,,,ケーアイテクノロジー,0
2547,8021002005746,登記記録の閉鎖等,0,2023-04-11,2023-04-05,有限会社カジュケマ,,有限会社,神奈川県,藤沢市,亀井野２丁目３番地の１０,,14,205,2520813,,,2023-04-05,清算の結了等,,,2015-10-05,1,,,,,カジュケマ,0
2548,8021002050395,登記記録の閉鎖等,0,2023-04-11,2023-04-03,有限会社照本,,有限会社,神奈川県,足柄上郡松田町,松田惣領１１番地１３,,14,363,2580003,,,2023-04-03,清算の結了等,,,2015-10-05,1,,,,,,0
2549,8021002062440,登記記録の閉鎖等,0,2023-04-11,2023-04-05,有限会社アウリン,,有限会社,神奈川県,横須賀市,鴨居２丁目３５番１０号,,14,201,2390813,,,2023-04-05,清算の結了等,,,2015-10-05,1,,,,,アウリン,0
2565,8030002111280,登記記録の閉鎖等,0,2023-04-11,2023-03-31,有限会社テイク・ファイブ,,有限会社,埼玉県,川口市,大字安行北谷６２９番地の５,,11,203,3340054,,,2023-03-31,清算の結了等,,,2015-10-05,1,,,,,テイクファイブ,0
2577,8040002046328,登記記録の閉鎖等,0,2023-04-11,2023-03-31,有限会社新松戸大倉屋酒店,,有限会社,千葉県,松戸市,新松戸４丁目２１８番地,,12,207,2700034,,,2023-03-31,清算の結了等,,,2015-10-05,1,,,,,シンマツドオオクラヤサケテン,0
2580,8050001040867,登記記録の閉鎖等,0,2023-04-11,2023-03-31,ウィンドパワー株式会社,,株式会社,茨城県,つくば市,花室９６２番地３,,08,220,3050025,,,2023-03-31,清算の結了等,,,2016-04-25,1,,,,,ウィンドパワー,0
2589,8080402008089,登記記録の閉鎖等,0,2023-04-11,2023-04-05,有限会社三好鉄工所,,有限会社,静岡県,浜松市東区,有玉南町１１６１番地の２,,22,132,4313122,,,2023-04-05,清算の結了等,,,2015-10-05,1,,,,,ミヨシテッコウショ,0
2602,8120001067837,登記記録の閉鎖等,0,2023-04-11,2023-04-04,株式会社東洋紡システムクリエート,,株式会社,大阪府,大阪市北区,梅田１丁目１３番１号,,27,127,5300001,,,2023-04-04,合併による解散等,2120001059666,令和５年４月１日大阪市北区梅田一丁目１３番１号東洋紡株式会社（2120001059666）に合併し解散,2015-10-05,1,,,,,トウヨウボウシステムクリエート,0
2606,8120001195563,登記記録の閉鎖等,0,2023-04-11,2023-04-04,株式会社ジャパンＭ＆Ａアドバイザー,,株式会社,大阪府,大阪市中央区,北浜３丁目１番１８号,,27,128,5410041,,,2023-04-04,清算の結了等,,,2016-01-08,1,,,,,ジャパンエムアンドエーアドバイザー,0
2607,8120001252034,登記記録の閉鎖等,0,2023-04-11,2023-04-03,エナジー分割準備株式会社,,株式会社,大阪府,守口市,松下町１番１号,,27,209,5700052,,,2023-04-03,合併による解散等,6120001235593,令和５年４月１日大阪府守口市松下町１番１号パナソニックエナジー株式会社（6120001235593）に合併し解散,2023-01-27,1,,,,,エナジーブンカツジュンビ,0
2612,8120002014581,登記記録の閉鎖等,0,2023-04-11,2023-04-03,有限会社エビス商会,,有限会社,大阪府,大阪市大正区,三軒家東６丁目８－２０－６０５,,27,108,5510002,,,2023-04-03,清算の結了等,,,2015-10-05,1,,,,,エビスショウカイ,0
2636,8130001001869,登記記録の閉鎖等,0,2023-04-11,2023-04-07,株式会社ホンダカーズ京都,,株式会社,京都府,京都市右京区,西院東貝川町５７番地,,26,108,6150057,,,2023-04-07,合併による解散等,8120001119497,令和５年４月１日大阪市北区南扇町７番３１号ホンダ大阪ビル５Ｆ株式会社ホンダモビリティ近畿（8120001119497）に合併し解散,2015-10-05,1,,,,,ホンダカーズキョウト,0
2642,8130003005133,登記記録の閉鎖等,0,2023-04-11,2023-04-04,合同会社本倉税務経営研究所,,合同会社,京都府,宇治市,開町４５番地３１,,26,204,6110026,,,2023-04-04,清算の結了等,,,2017-08-02,1,,,,,モトクラゼイムケイエイケンキュウショ,0
2672,8200001018798,登記記録の閉鎖等,0,2023-04-11,2023-04-04,株式会社吉川工貿,,株式会社,岐阜県,美濃加茂市,加茂野町稲辺４７３番地１,,21,211,5050055,,,2023-04-04,清算の結了等,,,2015-10-05,1,,,,,,0
2679,8220002002015,登記記録の閉鎖等,0,2023-04-11,2023-04-04,有限会社金沢アンカー商会,,有限会社,石川県,金沢市,糸田２丁目７番地１,,17,201,9218014,,,2023-04-04,清算の結了等,,,2015-10-05,1,,,,,カナザワアンカーショウカイ,0
2680,8230001005447,登記記録の閉鎖等,0,2023-04-11,2023-04-05,株式会社フォレスト・ホーム,,株式会社,富山県,中新川郡立山町,二ツ塚１５５番地２,,16,323,9300218,,,2023-04-05,清算の結了等,,,2015-10-05,1,,,,,フォレストホーム,0
2690,8260001012259,登記記録の閉鎖等,0,2023-04-11,2023-04-05,株式会社不動,,株式会社,岡山県,赤磐市,沢原１５５２番地,,33,213,7090704,,,2023-04-05,清算の結了等,,,2015-10-05,1,,,,,フドウ,0
2719,8320001012599,登記記録の閉鎖等,0,2023-04-11,2023-04-04,株式会社エステートバンク,,株式会社,大分県,大分市,大字上宗方９１８番地の２７,,44,201,8701152,,,2023-04-04,清算の結了等,,,2015-10-05,1,,,,,,0
2731,8370001038623,登記記録の閉鎖等,0,2023-04-11,2023-04-03,株式会社ＳＡＭ,,株式会社,宮城県,大崎市,古川駅東２丁目４番１１号,,04,215,9896115,,,2023-04-03,合併による解散等,2370202000536,令和５年４月１日宮城県大崎市古川雨生沢字大谷川５番地株式会社宍戸重機（2370202000536）に合併し解散,2015-10-05,1,,,,,エスエーエム,0
2733,8370002009978,登記記録の閉鎖等,0,2023-04-11,2023-04-05,有限会社エース・プランニング,,有限会社,宮城県,仙台市青葉区,北目町４番７号ＨＳＧビル２Ａ,,04,101,9800023,,,2023-04-05,清算の結了等,,,2015-10-05,1,,,,,エースプランニング,0
2737,8390001013517,登記記録の閉鎖等,0,2023-04-11,2023-04-03,フカセ工業株式会社,,株式会社,山形県,山形市,山家町１丁目１番３３号,,06,201,9900063,,,2023-04-03,清算の結了等,,,2015-10-05,1,,,,,,0
2739,8390002009159,登記記録の閉鎖等,0,2023-04-11,2023-04-03,有限会社太田リース,,有限会社,山形県,鶴岡市,日枝字坂本２２番地の２,,06,203,9970824,,,2023-04-03,清算の結了等,,,2015-10-05,1,,,,,オオタリース,0
2741,8390005000511,登記記録の閉鎖等,0,2023-04-11,2023-04-03,一般社団法人山形県ホルスタイン協会,,その他の設立登記法人,山形県,山形市,城北町１丁目１８番４号,,06,201,9900825,,,2023-04-03,合併による解散等,5390005000497,令和５年４月１日山形県山形市吉原二丁目８番６号公益社団法人山形県畜産協会（5390005000497）に合併し解散,2015-10-05,1,,,,,ヤマガタケンホルスタインキョウカイ,0
2744,8420001011244,登記記録の閉鎖等,0,2023-04-11,2023-04-03,青森県観光開発株式会社,,株式会社,青森県,上北郡六戸町,大字犬落瀬字坪毛沢２５番地１２６,,02,405,0330071,,,2023-04-03,合併による解散等,1420001011911,令和５年４月１日青森県上北郡六戸町大字犬落瀬字坪毛沢２５番地１２６青森県観光開発株式会社（1420001011911）に合併し解散,2015-10-05,1,,,,,アオモリケンカンコウカイハツ,0
2750,8430005013013,登記記録の閉鎖等,0,2023-04-11,2023-04-03,一般財団法人ものづくり基金,,その他の設立登記法人,北海道,室蘭市,東町２丁目２４番１３号（室蘭信用金庫内）,,01,205,0500083,,,2023-04-03,合併による解散等,6430005010788,令和５年３月２８日北海道室蘭市東町二丁目２４番１３号（室蘭信用金庫内）一般財団法人むろしん緑の基金（6430005010788）に合併し解散,2017-01-13,1,,,,,モノヅクリキキン,0
2770,9010001100590,登記記録の閉鎖等,0,2023-04-11,2023-04-03,大和証券エスエムビーシープリンシパル・インベストメンツ株式会社,,株式会社,東京都,千代田区,丸の内１丁目９番１号,,13,101,1000005,,,2023-04-03,清算の結了等,,,2015-10-05,1,,,,,ダイワショウケンエスエムビーシープリンシパルインベストメンツ,0
2773,9010001207279,登記記録の閉鎖等,0,2023-04-11,2023-04-03,サニー・トレーディング株式会社,,株式会社,東京都,千代田区,内神田２丁目３番６号,,13,101,1010047,,,2023-04-03,合併による解散等,2010001206898,令和５年４月１日東京都千代田区内神田二丁目３番６号サニー・ホールディングス株式会社（2010001206898）に合併し解散,2020-02-05,1,,,,,サニートレーディング,0
2784,9010002000666,登記記録の閉鎖等,0,2023-04-11,2023-04-03,有限会社井上鞄店,00049634,有限会社,東京都,文京区,本駒込１丁目１番１９号,,13,105,1130021,,,2023-04-03,清算の結了等,,,2015-10-05,1,,,,,イノウエカバンテン,0
2786,9010003034457,登記記録の閉鎖等,0,2023-04-11,2023-03-15,西新宿エステイト合同会社,,合同会社,東京都,中央区,銀座１丁目２２－１１銀座大竹ビジデンス２階,,13,102,1040061,,,2023-03-15,清算の結了等,,,2021-03-22,1,,,,,ニシシンジュクエステイト,0
2803,9010601034255,登記記録の閉鎖等,0,2023-04-11,2023-04-06,リバーホールディングス株式会社,,株式会社,東京都,千代田区,大手町１丁目７番２号東京サンケイビル１５階,,13,101,1000004,,,2023-04-06,合併による解散等,4010601013131,令和５年４月１日東京都墨田区緑一丁目４番１９号リバー株式会社（4010601013131）に合併し解散,2015-10-05,1,,,,,リバーホールディングス,0
2822,9011003002057,登記記録の閉鎖等,0,2023-04-11,2023-04-05,合同会社ＶＴＦＡイーグル,,合同会社,東京都,渋谷区,代官山町２０番９号,,13,113,1500034,,,2023-04-05,清算の結了等,,,2015-10-05,1,,,,,ヴイティーエフエーイーグル,0
2896,9030001124431,登記記録の閉鎖等,0,2023-04-11,2023-04-03,株式会社マルモトエステート,,株式会社,埼玉県,さいたま市浦和区,仲町１丁目３番２号,,11,107,3300062,,,2023-04-03,合併による解散等,5010603005571,令和５年４月１日埼玉県さいたま市緑区太田窪三丁目２番２７号合同会社マルモト（5010603005571）に合併し解散,2018-02-23,1,,,,,マルモトエステート,0
2905,9030002054710,登記記録の閉鎖等,0,2023-04-11,2023-04-03,有限会社英興業,,有限会社,埼玉県,上尾市,壱丁目北１０番地１７,,11,219,3620081,,,2023-04-03,清算の結了等,,,2015-10-05,1,,,,,ハナブサコウギョウ,0
2924,9060001007518,登記記録の閉鎖等,0,2023-04-11,2023-04-03,株式会社小針労務管理事務所,,株式会社,栃木県,宇都宮市,東峰町３０９７番地１,,09,201,3210944,,,2023-04-03,清算の結了等,,,2015-10-05,1,,,,,コバリロウムカンリジムショ,0
2948,9110001017148,登記記録の閉鎖等,0,2023-04-11,2023-04-03,猪俣建築株式会社,,株式会社,新潟県,柏崎市,半田３丁目７番１０号,,15,205,9450812,,,2023-04-03,清算の結了等,,,2015-10-05,1,,,,,イノマタケンチク,0
2950,9110002013170,登記記録の閉鎖等,0,2023-04-11,2023-04-03,有限会社水原公益社,,有限会社,新潟県,阿賀野市,北本町２６番４号,,15,223,9592015,,,2023-04-03,合併による解散等,8110001016002,令和５年４月１日新潟県燕市佐渡山１４２８番地株式会社ＪＡライフ新潟（8110001016002）に合併し解散,2015-10-05,1,,,,,スイバラコウエキシャ,0
2984,9140001029578,登記記録の閉鎖等,0,2023-04-11,2023-04-07,株式会社やまもとや,,株式会社,兵庫県,神戸市灘区,水道筋１丁目２１番地の２－２０４号,,28,102,6570831,,,2023-04-07,清算の結了等,,,2015-10-05,1,,,,,ヤマモトヤ,0
2999,9160001018645,登記記録の閉鎖等,0,2023-04-11,2023-04-07,近江工業株式会社,,株式会社,滋賀県,東近江市,宮井町３３８番地,,25,213,5291564,,,2023-04-07,清算の結了等,,,2015-10-05,1,,,,,オウミコウギョウ,0
3003,9180001088315,登記記録の閉鎖等,0,2023-04-11,2023-04-04,株式会社エコフィールド２１,,株式会社,愛知県,江南市,安良町地蔵５５番地,,23,217,4838111,,,2023-04-04,清算の結了等,,,2015-10-05,1,,,,,エコフィールドニジュウイチ,0
3011,9200001022790,登記記録の閉鎖等,0,2023-04-11,2023-03-31,株式会社マウントアイ,,株式会社,岐阜県,瑞浪市,北小田町２丁目１７７番地,,21,208,5096115,,,2023-03-31,清算の結了等,,,2015-10-05,1,,,,,マウントアイ,0
3017,9210002004853,登記記録の閉鎖等,0,2023-04-11,2023-04-03,有限会社丸岡ガス・ライス,,有限会社,福井県,坂井市,丸岡町霞町４丁目２８番地,,18,210,9100231,,,2023-04-03,合併による解散等,3210001003671,令和５年４月１日福井市豊岡一丁目１４番２０号福井ツバメ商事株式会社（3210001003671）に合併し解散,2015-10-05,1,,,,,マルオカガスライス,0
3018,9210002014340,登記記録の閉鎖等,0,2023-04-11,2023-04-03,ヒライエナジー有限会社,,有限会社,福井県,小浜市,小浜清滝９８番地の４,,18,204,9170083,,,2023-04-03,合併による解散等,9210001008384,令和５年４月１日福井市花堂東一丁目１７番２５号クリーンガス福井株式会社（9210001008384）に合併し解散,2015-10-05,1,,,,,ヒライエナジー,0
3021,9230001001940,登記記録の閉鎖等,0,2023-04-11,2023-04-10,大幸株式会社,,株式会社,富山県,富山市,堀川本郷１６０番地６３,,16,201,9398049,,,2023-04-10,清算の結了等,,,2015-10-05,1,,,,,タイコウ,0
3026,9240001024370,登記記録の閉鎖等,0,2023-04-11,2023-04-06,株式会社レベル,,株式会社,広島県,広島市西区,中広町２丁目５番２５号,,34,104,7330012,,,2023-04-06,清算の結了等,,,2015-10-05,1,,,,,レベル,0
3033,9250002005385,登記記録の閉鎖等,0,2023-04-11,2023-04-03,有限会社ニシムラ商事,,有限会社,山口県,宇部市,西琴芝２丁目１０番２３号,,35,202,7550035,,,2023-04-03,合併による解散等,7250001003755,令和５年４月１日山口県宇部市大字東須恵３８４０番地１エネックス株式会社（7250001003755）に合併し解散,2015-10-05,1,,,,,ニシムラショウジ,0
3057,9320005009525,登記記録の閉鎖等,0,2023-04-11,2023-04-04,一般社団法人ＵＳＡＧＩ社,,その他の設立登記法人,大分県,大分市,大字三芳８７８番地の２８,,44,201,8700030,,,2023-04-04,清算の結了等,,,2017-08-15,1,,,,,ウサギシャ,0
3066,9380002000885,登記記録の閉鎖等,0,2023-04-11,2023-04-06,有限会社菅野建工,,有限会社,福島県,福島市,大笹生字作田５７番地の９,,07,201,9600251,,,2023-04-06,清算の結了等,,,2015-10-05,1,,,,,カンノケンコウ,0
3070,9390002007509,登記記録の閉鎖等,0,2023-04-11,2023-04-03,有限会社昭和紙工,,有限会社,山形県,酒田市,東町１丁目２４番地の１,,06,204,9980875,,,2023-04-03,清算の結了等,,,2015-10-05,1,,,,,ショウワシコウ,0
3075,9400601000647,登記記録の閉鎖等,0,2023-04-11,2023-03-31,株式会社アルファビジョン,,株式会社,岩手県,奥州市,水沢西上野町１２番５号,,03,215,0230856,,,2023-03-31,清算の結了等,,,2015-10-05,1,,,,,アルファビジョン,0
3080,9430001017363,登記記録の閉鎖等,0,2023-04-11,2023-04-06,株式会社山上カミヤマビル,,株式会社,北海道,札幌市中央区,北三条西２丁目１番地,,01,101,0600003,,,2023-04-06,合併による解散等,1011103012351,令和５年４月１日東京都新宿区四谷四丁目３２番８号ＹＫＢサニービル６階山上カミヤマ合同会社（1011103012351）に合併し解散,2015-10-05,1,,,,,ヤマガミカミヤマビル,0
3088,9430003009838,登記記録の閉鎖等,0,2023-04-11,2023-04-03,合同会社ケンジー,,合同会社,北海道,札幌市白石区,栄通１９丁目３番１号,,01,104,0030021,,,2023-04-03,清算の結了等,,,2018-11-06,1,,,,,ケンジー,0
