sequenceNumber,corporateNumber,process,correct,updateDate,changeDate,name,nameImageId,kind,prefectureName,cityName,streetNumber,addressImageId,prefectureCode,cityCode,postCode,addressOutside,addressOutsideImageId,closeDate,closeCause,successorCorporateNumber,changeCause,assignmentDate,latest,enName,enPrefectureName,enCityName,enAddressOutside,furigana,hihyoji
2,1010001257447,新規,0,2025-08-12,2025-08-12,株式会社ミレアコーポレーション,,株式会社,東京都,中央区,銀座１丁目１２番４号Ｎ＆ＥＢＬＤ６階,,13,102,1040061,,,,,,,2025-08-12,1,,,,,ミレアコーポレーション,0
3,1010001257471,新規,0,2025-08-12,2025-08-12,株式会社ＵＮＩＰＡＸ,,株式会社,東京都,中央区,日本橋２丁目１番３号,,13,102,1030027,,,,,,,2025-08-12,1,,,,,ユニパックス,0
4,1010001257496,新規,0,2025-08-12,2025-08-12,株式会社Ｇｏ　ｆｏｒ,,株式会社,東京都,中央区,銀座１丁目１２番４号Ｎ＆ＥＢＬＤ．６Ｆ,,13,102,1040061,,,,,,,2025-08-12,1,,,,,ゴーフォー,0
5,1010001257554,新規,0,2025-08-12,2025-08-12,株式会社イチノイチ,,株式会社,東京都,中央区,勝どき４丁目６番２号パークタワー勝どきミッド,,13,102,1040054,,,,,,,2025-08-12,1,,,,,イチノイチ,0
6,1010001257612,新規,0,2025-08-12,2025-08-12,株式会社惟居,,株式会社,東京都,中央区,銀座６丁目３番７号ＡＯＫＩＴＯＷＥＲビル７階,,13,102,1040061,,,,,,,2025-08-12,1,,,,,イオリ,0
9,1010003048233,新規,0,2025-08-12,2025-08-12,合同会社Ｓｙｎｋｍｏｒｅ,,合同会社,東京都,千代田区,神田和泉町１番地６－１６ヤマトビル４０５,,13,101,1010024,,,,,,,2025-08-12,1,,,,,シンクモア,0
10,1010005040510,新規,0,2025-08-12,2025-08-12,一般社団法人全国確認検査協会,,その他の設立登記法人,東京都,千代田区,丸の内１丁目１番２号,,13,101,1000005,,,,,,,2025-08-12,1,,,,,ゼンコクカクニンケンサキョウカイ,0
11,1010101016810,新規,0,2025-08-12,2025-08-12,ＨａｎｄＴｅｃｈ株式会社,,株式会社,東京都,八王子市,めじろ台１丁目３２番７号,,13,201,1930833,,,,,,,2025-08-12,1,,,,,ハンドテック,0
17,1010401192260,新規,0,2025-08-12,2025-08-12,株式会社ＴｒｏｉｓＡ,,株式会社,東京都,港区,南青山２丁目２番１５号,,13,103,1070062,,,,,,,2025-08-12,1,,,,,トロワア,0
18,1010401192418,新規,0,2025-08-12,2025-08-12,ＫＵＭＡホールディングス株式会社,,株式会社,東京都,港区,赤坂９丁目７番２号ミッドタウン・イースト４階,,13,103,1070052,,,,,,,2025-08-12,1,,,,,クマホールディングス,0
19,1010401192426,新規,0,2025-08-12,2025-08-12,株式会社螢,,株式会社,東京都,港区,新橋２丁目２０番１５－３０４号,,13,103,1050004,,,,,,,2025-08-12,1,,,,,ホタル,0
21,1010403035772,新規,0,2025-08-12,2025-08-12,Ｙａｍａ　Ｖａｋｅｄｍａ　Ｊａｐａｎ合同会社,,合同会社,東京都,港区,赤坂２丁目２３番１号アークヒルズ・フロントタワーＩｎＣｏｎｔｒｏｌ内,,13,103,1070052,,,,,,,2025-08-12,1,,,,,ヤマバケドマジャパン,0
22,1010403035789,新規,0,2025-08-12,2025-08-12,合同会社Ｈａｂｉｂａ,,合同会社,東京都,港区,港南２丁目１５番１号品川インターシティＡ棟２８階,,13,103,1080075,,,,,,,2025-08-12,1,,,,,ハビバ,0
23,1010403035806,新規,0,2025-08-12,2025-08-12,合同会社ＹＭＤ,,合同会社,東京都,港区,南青山４丁目１番８号,,13,103,1070062,,,,,,,2025-08-12,1,,,,,ワイエムディー,0
25,1010601067766,新規,0,2025-08-12,2025-08-12,ＳＯＲＡ　Ｊａｐａｎ株式会社,,株式会社,東京都,江東区,豊洲５丁目５番１号,,13,108,1350061,,,,,,,2025-08-12,1,,,,,ソラジャパン,0
26,1010601067774,新規,0,2025-08-12,2025-08-12,満倉株式会社,,株式会社,東京都,江東区,大島４丁目２－４－３０２室,,13,108,1360072,,,,,,,2025-08-12,1,,,,,マンソウ,0
27,1010603011730,新規,0,2025-08-12,2025-08-12,合同会社Ｂ．Ｍ．,,合同会社,東京都,墨田区,京島１丁目１番２－２７０９号,,13,107,1310046,,,,,,,2025-08-12,1,,,,,ビーエム,0
29,1010701048055,新規,0,2025-08-12,2025-08-12,株式会社ＭＹＪ,,株式会社,東京都,品川区,東品川１丁目３番１８号キャナルテラス品川９１２,,13,109,1400002,,,,,,,2025-08-12,1,,,,,エムワイジェイ,0
34,1010803005499,新規,0,2025-08-12,2025-08-12,Ｐａｎｄａｎｏｖａ合同会社,,合同会社,東京都,大田区,東雪谷１丁目２－１７－３０１,,13,111,1450065,,,,,,,2025-08-12,1,,,,,パンダノヴァ,0
41,1011001171233,新規,0,2025-08-12,2025-08-12,ｍｍ　ＴＯＫＹＯ株式会社,,株式会社,東京都,渋谷区,恵比寿１丁目８番３号恵比寿リバストーンハイム４０３,,13,113,1500013,,,,,,,2025-08-12,1,,,,,ミリトウキョウ,0
42,1011001171258,新規,0,2025-08-12,2025-08-12,株式会社ウェイクラップ,,株式会社,東京都,渋谷区,道玄坂１丁目１０番８号渋谷道玄坂東急ビル２Ｆ－Ｃ,,13,113,1500043,,,,,,,2025-08-12,1,,,,,ウェイクラップ,0
49,1011101112517,新規,0,2025-08-12,2025-08-12,Ｎｏａｌｉｓ株式会社,,株式会社,東京都,新宿区,西新宿３丁目３番１３号西新宿水間ビル２Ｆ,,13,104,1600023,,,,,,,2025-08-12,1,,,,,ノアリス,0
50,1011101112640,新規,0,2025-08-12,2025-08-12,株式会社ＧＬＩＸ,,株式会社,東京都,新宿区,新宿３丁目４－８京王フレンテ新宿三丁目４２０号,,13,104,1600022,,,,,,,2025-08-12,1,,,,,グリックス,0
51,1011101112707,新規,0,2025-08-12,2025-08-12,株式会社ｗｅｓｔ清掃事務局,,株式会社,東京都,新宿区,西新宿６丁目２１番１－５０２号アイタウンレピア,,13,104,1600023,,,,,,,2025-08-12,1,,,,,ウェストセイソウジムキョク,0
52,1011101112715,新規,0,2025-08-12,2025-08-12,株式会社ＮｏｖａＶｏｌｔ　Ｊａｐａｎ,,株式会社,東京都,新宿区,西新宿８丁目３－３２ＣＡＲＭＥＬＩ４０１号室,00140242,13,104,1600023,,,,,,,2025-08-12,1,,,,,ノヴァボルトジャパン,0
53,1011103016154,新規,0,2025-08-12,2025-08-12,合同会社フェイス,,合同会社,東京都,新宿区,高田馬場１丁目１７－１４サウンズビル７－Ｗ,,13,104,1690075,,,,,,,2025-08-12,1,,,,,フェイス,0
54,1011103016179,新規,0,2025-08-12,2025-08-12,スタジオ・ラリー合同会社,,合同会社,東京都,新宿区,西新宿３丁目３番１３号西新宿水間ビル２Ｆ,,13,104,1600023,,,,,,,2025-08-12,1,,,,,スタジオラリー,0
55,1011103016204,新規,0,2025-08-12,2025-08-12,応援科技合同会社,,合同会社,東京都,新宿区,西新宿３丁目３番１３号西新宿水間ビル６階,,13,104,1600023,,,,,,,2025-08-12,1,,,,,オウエンカギ,0
58,1011201026559,新規,0,2025-08-12,2025-08-12,ゼロクラワン株式会社,,株式会社,東京都,中野区,中野４丁目１０番２号中野セントラルパークサウス２階,,13,114,1640001,,,,,,,2025-08-12,1,,,,,ゼロクラワン,0
60,1011301030790,新規,0,2025-08-12,2025-08-12,株式会社まるコーポレーション,,株式会社,東京都,杉並区,高円寺南２丁目５４番８－６０１号,,13,115,1660003,,,,,,,2025-08-12,1,,,,,マルコーポレーション,0
61,1011301030799,新規,0,2025-08-12,2025-08-12,株式会社シェイプ,,株式会社,東京都,杉並区,下高井戸１丁目３７－５,,13,115,1680073,,,,,,,2025-08-12,1,,,,,,0
73,1012301014494,新規,0,2025-08-12,2025-08-12,株式会社ＳＯＬＵＮＡ,,株式会社,東京都,町田市,森野５丁目１２番１６号ディモーラ森野４０２,,13,209,1940022,,,,,,,2025-08-12,1,,,,,ソルナ,0
74,1012703003335,新規,0,2025-08-12,2025-08-12,合同会社Ｄｅｎｔａｌｉｘ　Ｄｅｓｉｇｎ,,合同会社,東京都,清瀬市,松山１丁目１４－５,,13,221,2040022,,,,,,,2025-08-12,1,,,,,デンタリックスデザイン,0
75,1012801024150,新規,0,2025-08-12,2025-08-12,太平株式会社,,株式会社,東京都,立川市,錦町３丁目１－２１熊ビル１０２号室,,13,202,1900022,,,,,,,2025-08-12,1,,,,,タイヘイ,0
80,1020001164329,新規,0,2025-08-12,2025-08-12,株式会社ＴＨＵＭＢ,,株式会社,神奈川県,川崎市高津区,久本３丁目７番３－５０８号グランドメゾン溝の口の杜,,14,134,2130011,,,,,,,2025-08-12,1,,,,,サム,0
82,1020003029133,新規,0,2025-08-12,2025-08-12,合同会社ソニックアート,,合同会社,神奈川県,川崎市幸区,河原町一番地河原町団地１５－１２０５,,14,132,2120007,,,,,,,2025-08-12,1,,,,,ソニックアート,0
86,1021001085969,新規,0,2025-08-12,2025-08-12,株式会社アル,,株式会社,神奈川県,三浦郡葉山町,堀内９２８番地の１－２０５,,14,301,2400112,,,,,,,2025-08-12,1,,,,,アル,0
89,1030001168072,新規,0,2025-08-12,2025-08-12,株式会社ＧｏＴｏｄａｙ,,株式会社,埼玉県,越谷市,大字大里３６６番地１９,,11,222,3430031,,,,,,,2025-08-12,1,,,,,ゴオトゥディ,0
90,1030001168080,新規,0,2025-08-12,2025-08-12,株式会社ファソン,,株式会社,埼玉県,和光市,白子２丁目９番３０－Ａ２１３号,,11,229,3510101,,,,,,,2025-08-12,1,,,,,ファソン,0
91,1030001168097,新規,0,2025-08-12,2025-08-12,スタイル株式会社,,株式会社,埼玉県,秩父市,寺尾１７９４－３,,11,207,3680056,,,,,,,2025-08-12,1,,,,,スタイル,0
92,1030001168106,新規,0,2025-08-12,2025-08-12,株式会社ＯＬＤ　ＧＲＥＥＮ,,株式会社,埼玉県,三郷市,番匠免１丁目９６番地,,11,237,3410056,,,,,,,2025-08-12,1,,,,,オールドグリーン,0
95,1030003027383,新規,0,2025-08-12,2025-08-12,合同会社Ｍ‐ｓｔｙｌｅ,,合同会社,埼玉県,蕨市,塚越５丁目２９番４号グローガーデン１０１号,,11,223,3350002,,,,,,,2025-08-12,1,,,,,エムスタイル,0
107,1060005010368,新規,0,2025-08-12,2025-08-12,一般社団法人ラブリー,,その他の設立登記法人,栃木県,下野市,柴１１３３番地１７,,09,216,3290412,,,,,,,2025-08-12,1,,,,,ラブリー,0
108,1070001043206,新規,0,2025-08-12,2025-08-12,井上産業株式会社,,株式会社,群馬県,太田市,尾島町７７番地１,,10,205,3700401,,,,,,,2025-08-12,1,,,,,,0
109,1080001027075,新規,0,2025-08-12,2025-08-12,株式会社にくわらい,,株式会社,静岡県,静岡市葵区,人宿町１丁目４番５号,,22,101,4200037,,,,,,,2025-08-12,1,,,,,ニクワライ,0
110,1080001027083,新規,0,2025-08-12,2025-08-12,株式会社アサズ・カンパニー,,株式会社,静岡県,静岡市駿河区,大谷２７８５番地の６２,,22,102,4228017,,,,,,,2025-08-12,1,,,,,アサズカンパニー,0
127,1120001278564,新規,0,2025-08-12,2025-08-12,株式会社ＩＲＯＳＡＩ,,株式会社,大阪府,大阪市淀川区,三津屋中１丁目８番２０号,,27,123,5320036,,,,,,,2025-08-12,1,,,,,イロサイ,0
128,1120001278580,新規,0,2025-08-12,2025-08-12,株式会社明誠,,株式会社,大阪府,大阪市平野区,喜連４丁目８番５３号大一興産ビル１階,,27,126,5470027,,,,,,,2025-08-12,1,,,,,メイセイ,0
129,1120001278597,新規,0,2025-08-12,2025-08-12,株式会社モルツ,,株式会社,大阪府,大阪市中央区,常盤町２丁目１番１３号アドバンスビル本町５０２号,,27,128,5400028,,,,,,,2025-08-12,1,,,,,モルツ,0
130,1120001278663,新規,0,2025-08-12,2025-08-12,潤澤海川株式会社,,株式会社,大阪府,大阪市西成区,天下茶屋東２丁目１４番３０－５号,,27,122,5570011,,,,,,,2025-08-12,1,,,,,ジュンタクカイセン,0
136,1120003030205,新規,0,2025-08-12,2025-08-12,合同会社ＢＯＮＴＯＵＲＳ,,合同会社,大阪府,大阪市都島区,善源寺町２丁目１－７,,27,102,5340015,,,,,,,2025-08-12,1,,,,,ボンツアーズ,0
137,1120003030246,新規,0,2025-08-12,2025-08-12,ｌｕｍｉｅｒｅｗｏｒｋｓ合同会社,,合同会社,大阪府,大阪市住之江区,御崎８丁目６番１８号ボナール島田１Ａ,,27,125,5590013,,,,,,,2025-08-12,1,,,,,ルミエールワークス,0
144,1122001039517,新規,0,2025-08-12,2025-08-12,株式会社スピリト,,株式会社,大阪府,八尾市,北本町１丁目３－３０ハーモニアス北本町２階,,27,212,5810802,,,,,,,2025-08-12,1,,,,,スピリト,0
149,1140001139608,新規,0,2025-08-12,2025-08-12,株式会社ＫＣＥＬＬ,,株式会社,兵庫県,神戸市中央区,港島南町１丁目５－４神戸臨床情報研究センター,,28,110,6500047,,,,,,,2025-08-12,1,,,,,ケーセル,0
150,1140001139616,新規,0,2025-08-12,2025-08-12,株式会社篠田建装,,株式会社,兵庫県,神戸市長田区,海運町３丁目６番６号,,28,106,6530052,,,,,,,2025-08-12,1,,,,,シノダケンソウ,0
152,1150001028322,新規,0,2025-08-12,2025-08-12,株式会社ウエムラ,,株式会社,奈良県,御所市,大字室５８６番地の３,,29,208,6392277,,,,,,,2025-08-12,1,,,,,ウエムラ,0
154,1150003003678,新規,0,2025-08-12,2025-08-12,フォロー・アップ合同会社,,合同会社,奈良県,橿原市,曽我町１０７０番地の１フローラ真菅２０５,,29,205,6340831,,,,,,,2025-08-12,1,,,,,フォローアップ,0
155,1160001026985,新規,0,2025-08-12,2025-08-12,ハラグチエンジニアリング株式会社,,株式会社,滋賀県,彦根市,開出今町１５１６番地７４,,25,202,5220056,,,,,,,2025-08-12,1,,,,,ハラグチエンジニアリング,0
160,1180001167992,新規,0,2025-08-12,2025-08-12,株式会社ドリーム,,株式会社,愛知県,名古屋市緑区,松が根台２２３番地の１,,23,114,4580843,,,,,,,2025-08-12,1,,,,,ドリーム,0
161,1180001168033,新規,0,2025-08-12,2025-08-12,株式会社ＫＭＡ,,株式会社,愛知県,半田市,平井町２丁目６２番地,,23,205,4750964,,,,,,,2025-08-12,1,,,,,ケイエムエー,0
162,1180001168041,新規,0,2025-08-12,2025-08-12,ＦＩＯ株式会社,,株式会社,愛知県,名古屋市緑区,鳴海町字赤塚２４番地の３,,23,114,4580845,,,,,,,2025-08-12,1,,,,,フィオ,0
170,1180003028846,新規,0,2025-08-12,2025-08-12,合同会社シャンティ,,合同会社,愛知県,名古屋市名東区,文教台２丁目５０３番地,,23,115,4650012,,,,,,,2025-08-12,1,,,,,シャンティ,0
175,1190001032460,新規,0,2025-08-12,2025-08-12,株式会社Ｇｒｉ,,株式会社,三重県,松阪市,駅部田町９７３番地２５,,24,204,5150045,,,,,,,2025-08-12,1,,,,,グリ,0
185,1230003002481,新規,0,2025-08-12,2025-08-12,合同会社月ノ灯,,合同会社,富山県,高岡市,常国２２５１,,16,202,9391251,,,,,,,2025-08-12,1,,,,,ツキノアカリ,0
190,1240001065331,新規,0,2025-08-12,2025-08-12,株式会社しまなみ防設,,株式会社,広島県,尾道市,因島中庄町３２１１番地７,,34,205,7222211,,,,,,,2025-08-12,1,,,,,シマナミボウセツ,0
191,1240001065356,新規,0,2025-08-12,2025-08-12,株式会社フジレイズ,,株式会社,広島県,広島市西区,山手町２３番２－４号,,34,104,7330804,,,,,,,2025-08-12,1,,,,,フジレイズ,0
192,1240001065364,新規,0,2025-08-12,2025-08-12,株式会社ＦＪ,,株式会社,広島県,広島市安佐南区,長楽寺２丁目３番２５－１０３,,34,105,7310143,,,,,,,2025-08-12,1,,,,,エフジェイ,0
195,1240003007356,新規,0,2025-08-12,2025-08-12,合同会社おうちのクリーニングＡＲＵＫＵ,,合同会社,広島県,東広島市,八本松南４丁目１２番２５号,,34,212,7390144,,,,,,,2025-08-12,1,,,,,オウチノクリーニングアルク,0
202,1260001040423,新規,0,2025-08-12,2025-08-12,ハッピースマイル株式会社,,株式会社,岡山県,瀬戸内市,長船町土師７７番地４,,33,212,7014264,,,,,,,2025-08-12,1,,,,,ハッピースマイル,0
203,1260001040431,新規,0,2025-08-12,2025-08-12,株式会社ＮＥ企画,,株式会社,岡山県,岡山市中区,国富８０７－１６,,33,102,7038236,,,,,,,2025-08-12,1,,,,,エヌイーキカク,0
204,1260003005291,新規,0,2025-08-12,2025-08-12,合同会社瀬戸内ハウスキーパー,,合同会社,岡山県,瀬戸内市,長船町東須恵２７３番地,,33,212,7014262,,,,,,,2025-08-12,1,,,,,セトウチハウスキーパー,0
207,1280001009490,新規,0,2025-08-12,2025-08-12,株式会社オルタナティブ,,株式会社,島根県,松江市,浜乃木１丁目１９番６号,,32,201,6900044,,,,,,,2025-08-12,1,,,,,オルタナティブ,0
214,1290001111015,新規,0,2025-08-12,2025-08-12,株式会社Ｄ２Ｗ,,株式会社,福岡県,春日市,岡本６丁目７０番地１エスポワール・ソワ２０２号,,40,218,8160861,,,,,,,2025-08-12,1,,,,,ディーツーダブリュー,0
215,1290001111163,新規,0,2025-08-12,2025-08-12,株式会社Ｎｅｋｏｌａ,,株式会社,福岡県,福岡市中央区,大名２丁目６－５０福岡大名ガーデンシティ８Ｆ,,40,133,8100041,,,,,,,2025-08-12,1,,,,,ネコラ,0
219,1290801031767,新規,0,2025-08-12,2025-08-12,株式会社ＯＺ,,株式会社,福岡県,北九州市小倉北区,篠崎１丁目３番１号,,40,106,8030861,,,,,,,2025-08-12,1,,,,,オズ,0
220,1290801031783,新規,0,2025-08-12,2025-08-12,株式会社雅楽,,株式会社,福岡県,直方市,大字知古１７６１番地６６,,40,204,8220022,,,,,,,2025-08-12,1,,,,,ガラク,0
224,1310001019742,新規,0,2025-08-12,2025-08-12,株式会社ゴトウ,,株式会社,長崎県,五島市,吉田町１８０３番地４メゾン久木山Ｄ棟,,42,211,8530042,,,,,,,2025-08-12,1,,,,,ゴトウ,0
225,1320003004741,新規,0,2025-08-12,2025-08-12,ライトリア合同会社,,合同会社,大分県,中津市,三光成恒１６７番地１,,44,203,8710102,,,,,,,2025-08-12,1,,,,,ライトリア,0
229,1330001033469,新規,0,2025-08-12,2025-08-12,株式会社熊城防災総研,,株式会社,熊本県,熊本市中央区,花畑町１番１４号Ａ＆ＭＨＡＮＡＢＡＴＡ３０１号,,43,101,8600806,,,,,,,2025-08-12,1,,,,,クマジョウボウサイソウケン,0
254,1430001094963,新規,0,2025-08-12,2025-08-12,日本投資移民サービス株式会社,,株式会社,北海道,札幌市北区,北十二条西１丁目１番８－７０６号,,01,102,0010012,,,,,,,2025-08-12,1,,,,,ニホントウシイミンサービス,0
256,1430003017930,新規,0,2025-08-12,2025-08-12,合同会社オールイン,,合同会社,北海道,札幌市中央区,南十九条西９丁目１番３８－２０１号,,01,101,0640919,,,,,,,2025-08-12,1,,,,,オールイン,0
265,1500003003568,新規,0,2025-08-12,2025-08-12,Ｓｏｌａｒｉｓ合同会社,,合同会社,愛媛県,松山市,立花３丁目５番２０号,,38,201,7900966,,,,,,,2025-08-12,1,,,,,ソラリス,0
269,2010001257495,新規,0,2025-08-12,2025-08-12,易歓美株式会社,,株式会社,東京都,千代田区,神田須田町２丁目１９－２３Ｄａｉｗａ秋葉原ビル２Ｆ,,13,101,1010041,,,,,,,2025-08-12,1,,,,,イカンビ,0
270,2010001257545,新規,0,2025-08-12,2025-08-12,株式会社Ｏｒｂａ　Ｊａｐａｎ,,株式会社,東京都,千代田区,神田須田町１丁目７番８号ＶＯＲＴ秋葉原ＩＶ２Ｆ,00140237,13,101,1010041,,,,,,,2025-08-12,1,,,,,オルバジャパン,0
271,2010001257628,新規,0,2025-08-12,2025-08-12,株式会社ＡＣ‐８ホールディングス,,株式会社,東京都,千代田区,麹町３丁目５番地２,,13,101,1020083,,,,,,,2025-08-12,1,,,,,エーシーエイトホールディングス,0
272,2010003048232,新規,0,2025-08-12,2025-08-12,合同会社ｎｅａｔ　ｐｅｒｆｏｒｍａｎｃｅ,,合同会社,東京都,中央区,東日本橋２丁目２－１ＣａｆｅＤｏｒ２Ｆ,,13,102,1030004,,,,,,,2025-08-12,1,,,,,ニートパフォーマンス,0
273,2010003048249,新規,0,2025-08-12,2025-08-12,合同会社レコプロ,,合同会社,東京都,文京区,本郷２丁目２９－７,,13,105,1130033,,,,,,,2025-08-12,1,,,,,レコプロ,0
274,2010003048273,新規,0,2025-08-12,2025-08-12,合同会社ジンソフト,,合同会社,東京都,千代田区,神田須田町１丁目７番８号ＶＯＲＴ秋葉原ＩＶ２Ｆ,00140246,13,101,1010041,,,,,,,2025-08-12,1,,,,,ジンソフト,0
275,2010003048307,新規,0,2025-08-12,2025-08-12,Ｆｒｏｍ　ＺＥＲＯ合同会社,,合同会社,東京都,中央区,日本橋室町３丁目２番１号,,13,102,1030022,,,,,,,2025-08-12,1,,,,,フロムゼロ,0
276,2010005040501,新規,0,2025-08-12,2025-08-12,一般社団法人赤い翼日仏航空文化協会,,その他の設立登記法人,東京都,中央区,日本橋１丁目４番１号、日本橋一丁目三井ビル７階,,13,102,1030027,,,,,,,2025-08-12,1,,,,,アカイツバサニチフツコウクウブンカキョウカイ,0
282,2010401192243,新規,0,2025-08-12,2025-08-12,ＷＡＫＡＮＡＥ株式会社,,株式会社,東京都,港区,南青山２丁目２番１５－１００２号,,13,103,1070062,,,,,,,2025-08-12,1,,,,,ワカナエ,0
283,2010401192409,新規,0,2025-08-12,2025-08-12,ＧＣＪＧ５４株式会社,,株式会社,東京都,港区,元赤坂１丁目１番７－１２０９号株式会社赤坂国際会計内,,13,103,1070051,,,,,,,2025-08-12,1,,,,,ジーシージェイジーフィフティーフォー,0
284,2010401192433,新規,0,2025-08-12,2025-08-12,ＴＨＥ　ＰＨＡＲＭＡＣＹ　ＳＨＩＲＯＫＡＮＥ株式会社,,株式会社,東京都,港区,白金１丁目１４番１１号,,13,103,1080072,,,,,,,2025-08-12,1,,,,,ザファーマシーシロカネ,0
289,2010403035813,新規,0,2025-08-12,2025-08-12,合同会社未来再創ファンド,,合同会社,東京都,港区,港南２丁目１５番３号,,13,103,1080075,,,,,,,2025-08-12,1,,,,,ミライサイソウファンド,0
292,2010501054533,新規,0,2025-08-12,2025-08-12,株式会社Ｊ‐Ｆｕｎｋ　ＺＥＮ　ｅｎｔｅｒｐｒｉｓｅ,,株式会社,東京都,台東区,谷中３丁目１９番５－１０３号オープンレジデンシア谷中,,13,106,1100001,,,,,,,2025-08-12,1,,,,,,0
293,2010601067765,新規,0,2025-08-12,2025-08-12,株式会社ＮＴＴデータ・ライフデザイン,,株式会社,東京都,江東区,豊洲３丁目３番３号,,13,108,1350061,,,,,,,2025-08-12,1,,,,,エヌティティデータライフデザイン,0
294,2010601067773,新規,0,2025-08-12,2025-08-12,株式会社アクセル,,株式会社,東京都,江東区,豊洲２丁目５番２－１２１０号,,13,108,1350061,,,,,,,2025-08-12,1,,,,,アクセル,0
295,2010703007850,新規,0,2025-08-12,2025-08-12,登波管財合同会社,,合同会社,東京都,品川区,大崎２丁目９番２－１６１７号,,13,109,1410032,,,,,,,2025-08-12,1,,,,,トバカンザイ,0
298,2010801036470,新規,0,2025-08-12,2025-08-12,株式会社ＰＳＹＣＬＥ　ＬＩＦＥ,,株式会社,東京都,大田区,久が原５丁目５番７号,,13,111,1460085,,,,,,,2025-08-12,1,,,,,サイクルライフ,0
308,2011001171257,新規,0,2025-08-12,2025-08-12,株式会社Ｌｅａｄｒｉｓｅ,,株式会社,東京都,渋谷区,円山町５番３号ＭＩＥＵＸ渋谷ビル８階,,13,113,1500044,,,,,,,2025-08-12,1,,,,,リードライズ,0
309,2011001171265,新規,0,2025-08-12,2025-08-12,株式会社ＦｉｒｓｔＣｏｍｍｉｔ,,株式会社,東京都,渋谷区,円山町５番３号ＭＩＥＵＸ渋谷ビル８階,,13,113,1500044,,,,,,,2025-08-12,1,,,,,ファーストコミット,0
310,2011001171273,新規,0,2025-08-12,2025-08-12,株式会社ＣＯＥＬ,,株式会社,東京都,渋谷区,道玄坂１丁目１０番８号渋谷道玄坂東急ビル２Ｆ－Ｃ,,13,113,1500043,,,,,,,2025-08-12,1,,,,,コエル,0
311,2011001171769,新規,0,2025-08-12,2025-08-12,昭和会計株式会社,,株式会社,東京都,目黒区,東山１丁目２２－２４,,13,110,1530043,,,,,,,2025-08-12,1,,,,,ショウワカイケイ,0
312,2011001171793,新規,0,2025-08-12,2025-08-12,Ａｓｔｅｒｍｉｎｄｓ株式会社,,株式会社,東京都,渋谷区,恵比寿西２丁目４番８号,,13,113,1500021,,,,,,,2025-08-12,1,,,,,アスターマインズ,0
317,2011101112549,新規,0,2025-08-12,2025-08-12,株式会社Ｑ‐ＲＩＳＥ,,株式会社,東京都,新宿区,西新宿３丁目３番１３号西新宿水間ビル２Ｆ,,13,104,1600023,,,,,,,2025-08-12,1,,,,,キューライズ,0
318,2011101112714,新規,0,2025-08-12,2025-08-12,ＢＣＦｏｏｄｓ株式会社,,株式会社,東京都,新宿区,神楽坂６丁目２４番地,,13,104,1620825,,,,,,,2025-08-12,1,,,,,ビーシーフーズ,0
321,2011103016178,新規,0,2025-08-12,2025-08-12,合同会社ｇｉｖｅ,,合同会社,東京都,新宿区,西新宿８丁目５－２－２５シャイニングマンション３０２,,13,104,1600023,,,,,,,2025-08-12,1,,,,,ギブ,0
322,2011105011524,新規,0,2025-08-12,2025-08-12,一般社団法人滅菌業務社会支援協会,,その他の設立登記法人,東京都,新宿区,四谷１丁目１８番地,,13,104,1600004,,,,,,,2025-08-12,1,,,,,メッキンギョウムシャカイシエンキョウカイ,0
330,2011601028880,新規,0,2025-08-12,2025-08-12,ＭＵＮＩ株式会社,,株式会社,東京都,練馬区,石神井町６丁目２７番６号,,13,120,1770041,,,,,,,2025-08-12,1,,,,,ムニ,0
331,2011601028889,新規,0,2025-08-12,2025-08-12,株式会社Ｋａｌａｆｉｎａ,,株式会社,東京都,練馬区,下石神井２丁目３３番２９号,,13,120,1770042,,,,,,,2025-08-12,1,,,,,カラフィナ,0
340,2012401043467,新規,0,2025-08-12,2025-08-12,Ｇｒｏｏｖａ株式会社,,株式会社,東京都,調布市,西つつじケ丘３丁目２６番地７アーバンフラッツＭＡ２０３,,13,208,1820006,,,,,,,2025-08-12,1,,,,,グルーヴァ,0
342,2012703003334,新規,0,2025-08-12,2025-08-12,合同会社サンブリッジ・パートナーズ,,合同会社,東京都,西東京市,富士町６丁目３－１０,,13,229,2020014,,,,,,,2025-08-12,1,,,,,サンブリッジパートナーズ,0
343,2012801024133,新規,0,2025-08-12,2025-08-12,道月株式会社,,株式会社,東京都,武蔵村山市,大南２丁目１１―１２,,13,223,2080013,,,,,,,2025-08-12,1,,,,,ミツキ,0
347,2020001164311,新規,0,2025-08-12,2025-08-12,株式会社祝融文化,,株式会社,神奈川県,横浜市南区,六ツ川１丁目１５番地７プランドール２０２号室,,14,105,2320066,,,,,,,2025-08-12,1,,,,,シュクユウブンカ,0
348,2020001164328,新規,0,2025-08-12,2025-08-12,株式会社シンゲン,,株式会社,神奈川県,横浜市金沢区,谷津町４０番地１４７,,14,108,2360016,,,,,,,2025-08-12,1,,,,,シンゲン,0
351,2020003029124,新規,0,2025-08-12,2025-08-12,ｃｉｅｌ合同会社,,合同会社,神奈川県,川崎市幸区,塚越２丁目２２５番地１７Ｋコーポ１０１,,14,132,2120024,,,,,,,2025-08-12,1,,,,,シエル,0
359,2030001168071,新規,0,2025-08-12,2025-08-12,株式会社ゆうしん,,株式会社,埼玉県,入間市,大字野田２２２２番地３１,,11,225,3580054,,,,,,,2025-08-12,1,,,,,ユウシン,0
360,2030001168138,新規,0,2025-08-12,2025-08-12,株式会社聖道,,株式会社,埼玉県,川口市,大字峯９３１番地１,,11,203,3340056,,,,,,,2025-08-12,1,,,,,セイドウ,0
364,2030003027382,新規,0,2025-08-12,2025-08-12,リンケージテック合同会社,,合同会社,埼玉県,さいたま市見沼区,東大宮３丁目１番地５６,,11,104,3370051,,,,,,,2025-08-12,1,,,,,リンケージテック,0
365,2030003027390,新規,0,2025-08-12,2025-08-12,合同会社フレンド０１,,合同会社,埼玉県,戸田市,本町４丁目１７番２２－２０５号,,11,224,3350023,,,,,,,2025-08-12,1,,,,,フレンドゼロワン,0
369,2040001139947,新規,0,2025-08-12,2025-08-12,株式会社マルチクラフト,,株式会社,千葉県,船橋市,二和東３丁目１９番１８号,,12,204,2740805,,,,,,,2025-08-12,1,,,,,マルチクラフト,0
370,2040001139963,新規,0,2025-08-12,2025-08-12,ＴＫ　ａｕｔｏｍａｔｉｏｎ株式会社,,株式会社,千葉県,千葉市稲毛区,稲毛東５丁目１－２７サンシティ稲毛ＩＩ１０３,00140238,12,103,2630031,,,,,,,2025-08-12,1,,,,,ティーケイオートメーション,0
371,2040001139988,新規,0,2025-08-12,2025-08-12,株式会社親睦会,,株式会社,千葉県,旭市,ハ１１６１番,,12,215,2892521,,,,,,,2025-08-12,1,,,,,シンボクカイ,0
376,2040003028198,新規,0,2025-08-12,2025-08-12,合同会社山亀,,合同会社,千葉県,習志野市,実籾本郷１７番－１３号,00140241,12,216,2750003,,,,,,,2025-08-12,1,,,,,ヤマガメ,0
377,2040003028215,新規,0,2025-08-12,2025-08-12,合同会社ＶＣＫ　ＩＮＴＥＲＮＡＴＩＯＮＡＬ,,合同会社,千葉県,山武市,早船トの８６８番地２,,12,237,2891311,,,,,,,2025-08-12,1,,,,,ウィシイケェインターナショナル,0
378,2040003028231,新規,0,2025-08-12,2025-08-12,合同会社Ｓｔａｒｓｉｄｅ　Ｍａｒｋｅｔ,,合同会社,千葉県,君津市,東坂田１丁目１番６－１４０５号,,12,225,2991144,,,,,,,2025-08-12,1,,,,,スターサイドマーケット,0
379,2040003028256,新規,0,2025-08-12,2025-08-12,合同会社ＹＯＺＡＮ,,合同会社,千葉県,富津市,大堀３丁目１７番地１９,,12,226,2930001,,,,,,,2025-08-12,1,,,,,ヨウザン,0
380,2040003028264,新規,0,2025-08-12,2025-08-12,合同会社ＫＭＳ,,合同会社,千葉県,習志野市,谷津３丁目１番１６－９１８号,,12,216,2750026,,,,,,,2025-08-12,1,,,,,ケーエムエス,0
381,2040005022843,新規,0,2025-08-12,2025-08-12,一般社団法人ライフサポートやわらぎ,,その他の設立登記法人,千葉県,松戸市,根本１２２番地の２朝日松戸プラザ２階,,12,207,2710077,,,,,,,2025-08-12,1,,,,,ライフサポートヤワラギ,0
383,2050001057066,新規,0,2025-08-12,2025-08-12,株式会社未来工房,,株式会社,茨城県,久慈郡大子町,大字小生瀬３９６４番地,,08,364,3193512,,,,,,,2025-08-12,1,,,,,ミライコウボウ,0
390,2070001043246,新規,0,2025-08-12,2025-08-12,株式会社伽耶興産,,株式会社,群馬県,前橋市,六供町３丁目１０番地１,,10,201,3710804,,,,,,,2025-08-12,1,,,,,カヤコウサン,0
408,2120001278530,新規,0,2025-08-12,2025-08-12,株式会社ビルドシンク,,株式会社,大阪府,大阪市鶴見区,鶴見４丁目２番１２－３０３号,,27,124,5380053,,,,,,,2025-08-12,1,,,,,ビルドシンク,0
409,2120001278547,新規,0,2025-08-12,2025-08-12,株式会社マイキー,,株式会社,大阪府,大阪市城東区,関目４丁目６番１７号第一ケルンビル１階Ｄ号,,27,118,5360008,,,,,,,2025-08-12,1,,,,,マイキー,0
410,2120001278596,新規,0,2025-08-12,2025-08-12,株式会社オンデックコンサルティング,,株式会社,大阪府,大阪市中央区,備後町３丁目４番１号,,27,128,5410051,,,,,,,2025-08-12,1,,,,,オンデックコンサルティング,0
411,2120001278638,新規,0,2025-08-12,2025-08-12,株式会社ミラーナ,,株式会社,大阪府,大阪市北区,鶴野町４番１号,,27,127,5300014,,,,,,,2025-08-12,1,,,,,ミラーナ,0
412,2120001278662,新規,0,2025-08-12,2025-08-12,株式会社ワンチーム,,株式会社,大阪府,大阪市淀川区,木川東４丁目５番２３号,,27,123,5320012,,,,,,,2025-08-12,1,,,,,ワンチーム,0
418,2120003030245,新規,0,2025-08-12,2025-08-12,合同会社みのる,,合同会社,大阪府,大阪市西成区,花園北２丁目３－２１－２番館４０１,,27,122,5570016,,,,,,,2025-08-12,1,,,,,ミノル,0
424,2120901051301,新規,0,2025-08-12,2025-08-12,株式会社ライズビルド,,株式会社,大阪府,高槻市,藤の里町１９－１６－１号,,27,207,5690025,,,,,,,2025-08-12,1,,,,,ライズビルド,0
426,2122001039499,新規,0,2025-08-12,2025-08-12,潤川国際株式会社,,株式会社,大阪府,東大阪市,足代新町１３番５号福澤マンション１Ｆ,,27,227,5770057,,,,,,,2025-08-12,1,,,,,ジュンカワコクサイ,0
427,2122001039508,新規,0,2025-08-12,2025-08-12,株式会社フュージョン,,株式会社,大阪府,東大阪市,長堂３丁目１８番１９－５０１号,,27,227,5770056,,,,,,,2025-08-12,1,,,,,フュージョン,0
430,2140001139433,新規,0,2025-08-12,2025-08-12,衆遠株式会社,,株式会社,兵庫県,神戸市須磨区,妙法寺字ぬめり石１－１永興ロジスティクス２０９,,28,107,6540121,,,,,,,2025-08-12,1,,,,,シュウエン,0
431,2140001139458,新規,0,2025-08-12,2025-08-12,株式会社ＮＥＸＴＥＩＧＨＴ,,株式会社,兵庫県,姫路市,安富町字末広４８６－２,,28,201,6700000,,,,,,,2025-08-12,1,,,,,ネクストエイト,0
432,2140001139607,新規,0,2025-08-12,2025-08-12,ＲＥＭＯ株式会社,,株式会社,兵庫県,尼崎市,武庫之荘東２丁目１６番１３－４号,,28,202,6610032,,,,,,,2025-08-12,1,,,,,レモ,0
433,2140001139615,新規,0,2025-08-12,2025-08-12,株式会社植山工芸,,株式会社,兵庫県,丹波市,山南町小新屋２５５番地２,,28,223,6693155,,,,,,,2025-08-12,1,,,,,ウエヤマコウゲイ,0
436,2140003022422,新規,0,2025-08-12,2025-08-12,合同会社ＭＡＩＳＯＮ　ＭＵＳＥ,,合同会社,兵庫県,神戸市東灘区,森南町２丁目８番２４号ドメスティック４０１号,,28,101,6580011,,,,,,,2025-08-12,1,,,,,メゾンミューズ,0
450,2180001168049,新規,0,2025-08-12,2025-08-12,株式会社松涛会,,株式会社,愛知県,尾張旭市,城山町三ツ池６２２５番地１,,23,226,4880881,,,,,,,2025-08-12,1,,,,,ショウトウカイ,0
453,2180003028894,新規,0,2025-08-12,2025-08-12,百姓ラボ合同会社,,合同会社,愛知県,半田市,亀崎町９丁目１０８－１,,23,205,4750023,,,,,,,2025-08-12,1,,,,,ヒャクショウラボ,0
459,2200003006955,新規,0,2025-08-12,2025-08-12,裕リンクス合同会社,,合同会社,岐阜県,関市,洞戸市場９２５番地３,,21,205,5012812,,,,,,,2025-08-12,1,,,,,ユウリンクス,0
462,2210001020263,新規,0,2025-08-12,2025-08-12,福井県原子力リサイクルビジネス準備株式会社,,株式会社,福井県,敦賀市,中央町１丁目１３番４０号中央ビル３階,,18,202,9140811,,,,,,,2025-08-12,1,,,,,フクイケンゲンシリョクリサイクルビジネスジュンビ,0
466,2240001065355,新規,0,2025-08-12,2025-08-12,株式会社高橋みえこ一級建築士事務所,00140244,株式会社,広島県,尾道市,山波町１９０５番地８、１階中,,34,205,7220052,,,,,,,2025-08-12,1,,,,,タカハシミエコイッキュウケンチクシジムショ,0
467,2240001065363,新規,0,2025-08-12,2025-08-12,ＲＹＯＳＨＩＮ株式会社,,株式会社,広島県,広島市佐伯区,皆賀４丁目１番１２－１０１号,,34,108,7315124,,,,,,,2025-08-12,1,,,,,リョウシン,0
468,2240003007355,新規,0,2025-08-12,2025-08-12,合同会社ケーブン,,合同会社,広島県,福山市,多治米町１丁目１０番７号,,34,207,7200824,,,,,,,2025-08-12,1,,,,,ケーブン,0
470,2250001021282,新規,0,2025-08-12,2025-08-12,株式会社ｂｉ‐ｂａ,,株式会社,山口県,山口市,中市町１番２０号,,35,203,7530086,,,,,,,2025-08-12,1,,,,,ビーバ,0
471,2250003003790,新規,0,2025-08-12,2025-08-12,合同会社ＤＭＡ,,合同会社,山口県,宇部市,新天町１丁目２番３８号新天町ビル２階,,35,202,7550029,,,,,,,2025-08-12,1,,,,,ディエムエー,0
473,2260001040422,新規,0,2025-08-12,2025-08-12,株式会社ＮＥＸＴＡＲＴ,,株式会社,岡山県,岡山市中区,円山１０２７番地,,33,102,7038271,,,,,,,2025-08-12,1,,,,,ネクスタート,0
487,2290001110924,新規,0,2025-08-12,2025-08-12,株式会社エスエーシーアイ,,株式会社,福岡県,福岡市中央区,天神２丁目２番１２号Ｔ＆Ｊビルディング７Ｆ,,40,133,8100001,,,,,,,2025-08-12,1,,,,,エスエーシーエス,0
493,2320003004740,新規,0,2025-08-12,2025-08-12,はるの灯合同会社,,合同会社,大分県,豊後高田市,玉津１８８０番地６,,44,209,8790606,,,,,,,2025-08-12,1,,,,,ハルノヒ,0
494,2330001033484,新規,0,2025-08-12,2025-08-12,株式会社禾,,株式会社,熊本県,熊本市北区,植木町内９８５番地,,43,105,8610102,,,,,,,2025-08-12,1,,,,,ノギ,0
495,2330003011166,新規,0,2025-08-12,2025-08-12,合同会社ＡＫＦ．ｌｌｃ,,合同会社,熊本県,上益城郡御船町,大字滝川１１９番地１,,43,441,8613205,,,,,,,2025-08-12,1,,,,,エーケーエフ,0
503,2370001052935,新規,0,2025-08-12,2025-08-12,株式会社ＰＡＬＣＥ,,株式会社,宮城県,仙台市若林区,蒲町東２０番地の７イーストアヴェニュー２０５,,04,103,9840016,,,,,,,2025-08-12,1,,,,,パールス,0
508,2390001018083,新規,0,2025-08-12,2025-08-12,株式会社ルートサン,,株式会社,山形県,東根市,中央１丁目１２番２３号,,06,211,9993711,,,,,,,2025-08-12,1,,,,,ルートサン,0
517,2450001014704,新規,0,2025-08-12,2025-08-12,株式会社石川組,,株式会社,北海道,旭川市,北門町１７丁目２１５９番地１５６,,01,204,0700825,,,,,,,2025-08-12,1,,,,,イシカワグミ,0
518,2470001020849,新規,0,2025-08-12,2025-08-12,株式会社ＴＫＯ香川,,株式会社,香川県,高松市,木太町２２０６番地１パルムハウス高松１０６,,37,201,7600080,,,,,,,2025-08-12,1,,,,,,0
519,2470003002952,新規,0,2025-08-12,2025-08-12,合同会社ワイエムエステートコンサル,,合同会社,香川県,木田郡三木町,大字鹿伏５４３番地４６,,37,341,7610703,,,,,,,2025-08-12,1,,,,,ワイエムエステートコンサル,0
523,2500005008812,新規,0,2025-08-12,2025-08-12,行政書士法人ポラリス法務サポート,,その他の設立登記法人,愛媛県,西条市,小松町南川甲２３７番地１,,38,206,7991102,,,,,,,2025-08-12,1,,,,,ポラリスホウムサポート,0
531,3010001257429,新規,0,2025-08-12,2025-08-12,ネクストプラン２株式会社,,株式会社,東京都,千代田区,麹町３丁目５番地２,,13,101,1020083,,,,,,,2025-08-12,1,,,,,ネクストプランツー,0
532,3010001257445,新規,0,2025-08-12,2025-08-12,エクスプレス・プランニング株式会社,,株式会社,東京都,千代田区,霞が関３丁目２番５号,,13,101,1000013,,,,,,,2025-08-12,1,,,,,エクスプレスプランニング,0
533,3010001257453,新規,0,2025-08-12,2025-08-12,株式会社リーメントＣＳ,,株式会社,東京都,千代田区,麹町３丁目５番地麹町シルクビル３Ｆ,,13,101,1020083,,,,,,,2025-08-12,1,,,,,リーメントシーエス,0
534,3010001257569,新規,0,2025-08-12,2025-08-12,株式会社ＣＢＪ,,株式会社,東京都,千代田区,有楽町１丁目５番２号東宝日比谷プロムナードビル１１階,,13,101,1000006,,,,,,,2025-08-12,1,,,,,シービージェイ,0
535,3010003048289,新規,0,2025-08-12,2025-08-12,合同会社オルタナ３０,,合同会社,東京都,千代田区,霞が関３丁目２番５号,,13,101,1000013,,,,,,,2025-08-12,1,,,,,オルタナサーティー,0
539,3010401192317,新規,0,2025-08-12,2025-08-12,ＳＲＴアセットマネジメント株式会社,,株式会社,東京都,港区,北青山１丁目３番１号アールキューブ青山３階,,13,103,1070061,,,,,,,2025-08-12,1,,,,,エスアールティーアセットマネジメント,0
540,3010401192416,新規,0,2025-08-12,2025-08-12,株式会社東京永和,,株式会社,東京都,港区,西新橋３丁目２３番６号,,13,103,1050003,,,,,,,2025-08-12,1,,,,,トウキョウエイワ,0
544,3010403035812,新規,0,2025-08-12,2025-08-12,合同会社杜の都事業再生ファンド,,合同会社,東京都,港区,港南２丁目１５番３号,,13,103,1080075,,,,,,,2025-08-12,1,,,,,モリノミヤコジギョウサイセイファンド,0
546,3010405024664,新規,0,2025-08-12,2025-08-12,一般社団法人シルバー・マウンテン,,その他の設立登記法人,東京都,港区,元赤坂１丁目１番７号,,13,103,1070051,,,,,,,2025-08-12,1,,,,,シルバーマウンテン,0
547,3010501054516,新規,0,2025-08-12,2025-08-12,株式会社ノバリンク,,株式会社,東京都,台東区,松が谷２丁目１５番８号浅草Ｋ２ビル３０３号室,,13,106,1110036,,,,,,,2025-08-12,1,,,,,ノバリンク,0
548,3010501054540,新規,0,2025-08-12,2025-08-12,ＫＯＨＩＮＯＯＲ　ＧＥＭＳ株式会社,,株式会社,東京都,台東区,上野３丁目７番９－５０３号,,13,106,1100005,,,,,,,2025-08-12,1,,,,,コヒヌールジェムス,0
551,3010601067772,新規,0,2025-08-12,2025-08-12,株式会社シンエナジー,,株式会社,東京都,江東区,青海２丁目７番４号ｔｈｅＳＯＨＯｏｄａｉｂａ８２３号室,,13,108,1350064,,,,,,,2025-08-12,1,,,,,シンエナジー,0
552,3010603011729,新規,0,2025-08-12,2025-08-12,合同会社ＨＩＲＡＮＵＭＡ,,合同会社,東京都,江東区,森下４丁目７－１２,,13,108,1350004,,,,,,,2025-08-12,1,,,,,ヒラヌマ,0
553,3010701048144,新規,0,2025-08-12,2025-08-12,株式会社Ｈａｒｕ　Ｔｅｒｒａ,,株式会社,東京都,品川区,東大井５丁目９番７号,,13,109,1400011,,,,,,,2025-08-12,1,,,,,ハルテラ,0
562,3010901057886,新規,0,2025-08-12,2025-08-12,ＴｅｒｒａＬｕｍｅ株式会社,,株式会社,東京都,世田谷区,尾山台１丁目４番１７号,,13,112,1580086,,,,,,,2025-08-12,1,,,,,テラルーム,0
566,3011001171231,新規,0,2025-08-12,2025-08-12,ｅｎｙ株式会社,,株式会社,東京都,目黒区,五本木１丁目３３－１,,13,110,1530053,,,,,,,2025-08-12,1,,,,,エニー,0
567,3011001171256,新規,0,2025-08-12,2025-08-12,Ｍｕｌｌｉｇａｎ株式会社,,株式会社,東京都,渋谷区,神宮前３丁目１８番４３号ラ・コリーヌ神宮前３０１,,13,113,1500001,,,,,,,2025-08-12,1,,,,,マリガン,0
568,3011001171272,新規,0,2025-08-12,2025-08-12,株式会社アンドラボ,,株式会社,東京都,渋谷区,恵比寿４丁目２０番４号ＰＯＲＴＡＬＰＯＩＮＴ・Ｅｂｉｓｕ,,13,113,1500013,,,,,,,2025-08-12,1,,,,,アンドラボ,0
569,3011001171347,新規,0,2025-08-12,2025-08-12,株式会社大川商店,,株式会社,東京都,渋谷区,恵比寿２丁目１３番１２－７０２号,,13,113,1500013,,,,,,,2025-08-12,1,,,,,オオカワショウテン,0
570,3011001171363,新規,0,2025-08-12,2025-08-12,株式会社ＬＩＯＴ,,株式会社,東京都,渋谷区,道玄坂１丁目１０番８号,,13,113,1500043,,,,,,,2025-08-12,1,,,,,リオット,0
571,3011003022119,新規,0,2025-08-12,2025-08-12,合同会社エフ・ピー・シー,,合同会社,東京都,渋谷区,初台２丁目２９番３－３０１号,,13,113,1510061,,,,,,,2025-08-12,1,,,,,エフピーシー,0
572,3011003022127,新規,0,2025-08-12,2025-08-12,合同会社ＫｎＧＭ,,合同会社,東京都,渋谷区,神南１丁目１１番４号ＦＰＧリンクス神南５階,,13,113,1500041,,,,,,,2025-08-12,1,,,,,ケーエヌジーエム,0
573,3011003022234,新規,0,2025-08-12,2025-08-12,プラトニック・デジタル合同会社,,合同会社,東京都,渋谷区,円山町５番３号ＭＩＥＵＸ渋谷ビル８階,,13,113,1500044,,,,,,,2025-08-12,1,,,,,プラトニックデジタル,0
574,3011101112580,新規,0,2025-08-12,2025-08-12,株式会社アブラカダブラ,,株式会社,東京都,新宿区,西早稲田１丁目１６－８フェニックス早稲田２Ｆ,,13,104,1690051,,,,,,,2025-08-12,1,,,,,アブラカダブラ,0
575,3011101112589,新規,0,2025-08-12,2025-08-12,株式会社東京共創旅,,株式会社,東京都,新宿区,西新宿６丁目５番１号新宿アイランドタワー２階,,13,104,1600023,,,,,,,2025-08-12,1,,,,,,0
576,3011101112663,新規,0,2025-08-12,2025-08-12,ＧＡＬＡＣＳＴＥＣＨ株式会社,,株式会社,東京都,新宿区,西新宿３丁目３番１３号西新宿水間ビル６階,,13,104,1600023,,,,,,,2025-08-12,1,,,,,ガラクステック,0
577,3011101112696,新規,0,2025-08-12,2025-08-12,株式会社ＲＥＭＩＮＩ,,株式会社,東京都,新宿区,西新宿３丁目７番２６号ハイネスロワイヤル１１０６,,13,104,1600023,,,,,,,2025-08-12,1,,,,,レミニ,0
578,3011101112721,新規,0,2025-08-12,2025-08-12,クレアスコンサルティング株式会社,,株式会社,東京都,新宿区,市谷左内町３２番地市ケ谷台グランドマンション２ａ,,13,104,1620846,,,,,,,2025-08-12,1,,,,,クレアスコンサルティング,0
580,3011103016169,新規,0,2025-08-12,2025-08-12,合同会社Ｅｎｌｉｎｘ,,合同会社,東京都,新宿区,市谷柳町３７番地４マージュ市谷柳町１４０３,,13,104,1620061,,,,,,,2025-08-12,1,,,,,エンリンクス,0
581,3011103016177,新規,0,2025-08-12,2025-08-12,合同会社Ｃｏｎｎｅｃｔｅｒ,,合同会社,東京都,新宿区,西新宿３丁目３番１３号西新宿水間ビル２Ｆ,,13,104,1600023,,,,,,,2025-08-12,1,,,,,コネクター,0
582,3011103016243,新規,0,2025-08-12,2025-08-12,合同会社Ｌｕｐｉｎ,,合同会社,東京都,新宿区,新宿１丁目１８－１２パレステュディオ新宿御苑駅前４０３号室,,13,104,1600022,,,,,,,2025-08-12,1,,,,,ルパン,0
589,3011501032412,新規,0,2025-08-12,2025-08-12,株式会社ＥＢＨ,,株式会社,東京都,北区,志茂２丁目３３番１１号,,13,117,1150042,,,,,,,2025-08-12,1,,,,,イービーエイチ,0
590,3011603004796,新規,0,2025-08-12,2025-08-12,合同会社青空,,合同会社,東京都,練馬区,中村２丁目３２番８号,,13,120,1760024,,,,,,,2025-08-12,1,,,,,アオゾラ,0
592,3011701028615,新規,0,2025-08-12,2025-08-12,株式会社大瀧商事,,株式会社,東京都,江戸川区,北葛西５丁目１７番１－６０５号,,13,123,1340081,,,,,,,2025-08-12,1,,,,,オオタキショウジ,0
593,3011703004341,新規,0,2025-08-12,2025-08-12,合同会社ｇｕｆｆｏｕｒ,,合同会社,東京都,江戸川区,一之江８丁目１３番９号,,13,123,1320024,,,,,,,2025-08-12,1,,,,,ガフォー,0
596,3011801046574,新規,0,2025-08-12,2025-08-12,株式会社志事図,,株式会社,東京都,足立区,梅島３丁目１３番４号,,13,121,1210816,,,,,,,2025-08-12,1,,,,,シゴトズ,0
598,3012403007279,新規,0,2025-08-12,2025-08-12,合同会社ＩＬＩＯ,,合同会社,東京都,多摩市,中沢１丁目５－２ファインスクェア多摩センター２０２,,13,224,2060036,,,,,,,2025-08-12,1,,,,,イーリオ,0
599,3012405005140,新規,0,2025-08-12,2025-08-12,一般社団法人ＳＡＲＡ’Ｓ　ＧＡＲＤＥＮもりのひろば,,その他の設立登記法人,東京都,三鷹市,井の頭３丁目３４番１号,,13,204,1810001,,,,,,,2025-08-12,1,,,,,サラズガーデンモリノヒロバ,0
618,3030001167997,新規,0,2025-08-12,2025-08-12,株式会社ＤＥＳＴＩＮＹ　ＪＡＰＡＮ,,株式会社,埼玉県,川口市,朝日１丁目２６番２３号,,11,203,3320001,,,,,,,2025-08-12,1,,,,,デスティニージャパン,0
619,3030001168087,新規,0,2025-08-12,2025-08-12,株式会社村井商事,,株式会社,埼玉県,川口市,差間１丁目１７番９号Ｂ棟,,11,203,3330816,,,,,,,2025-08-12,1,,,,,ムライショウジ,0
626,3030003027365,新規,0,2025-08-12,2025-08-12,合同会社サンパワー,,合同会社,埼玉県,川越市,大字今福９２１番地,,11,201,3501151,,,,,,,2025-08-12,1,,,,,サンパワー,0
632,3040001139962,新規,0,2025-08-12,2025-08-12,株式会社康信設備,,株式会社,千葉県,佐倉市,大崎台１丁目１６番地６,,12,212,2850817,,,,,,,2025-08-12,1,,,,,コウシンセツビ,0
638,3040003028206,新規,0,2025-08-12,2025-08-12,アパートパートナー合同会社,,合同会社,千葉県,船橋市,前原東３丁目１３番１号,,12,204,2740824,,,,,,,2025-08-12,1,,,,,アパートパートナー,0
640,3050001057057,新規,0,2025-08-12,2025-08-12,株式会社ＫＬＭ,,株式会社,茨城県,牛久市,牛久町３２７０番地１２,,08,219,3001221,,,,,,,2025-08-12,1,,,,,ケーエルエム,0
641,3050001057081,新規,0,2025-08-12,2025-08-12,株式会社ＣＲＯＷ　ＫＩＴＥ,,株式会社,茨城県,つくば市,梅園２丁目１－１５スプリングテックつくばビル４０１,,08,220,3050045,,,,,,,2025-08-12,1,,,,,クロウカイト,0
646,3070001043220,新規,0,2025-08-12,2025-08-12,株式会社ＨＡＳＥＥＮＧ,,株式会社,群馬県,伊勢崎市,堀下町１６２８番地ＲＫハイツＤ棟１０２,,10,204,3792212,,,,,,,2025-08-12,1,,,,,ハセエンジ,0
647,3070005010415,新規,0,2025-08-12,2025-08-12,一般社団法人群馬地区産学官交流会,,その他の設立登記法人,群馬県,桐生市,天神町１丁目５番１号,,10,203,3760052,,,,,,,2025-08-12,1,,,,,グンマチクサンガクカンコウリュウカイ,0
651,3080101025712,新規,0,2025-08-12,2025-08-12,株式会社ＥＩＪＵ,,株式会社,静岡県,伊豆市,土肥６３番地の６,,22,222,4103302,,,,,,,2025-08-12,1,,,,,エイジュ,0
658,3080401028101,新規,0,2025-08-12,2025-08-12,株式会社レガント,,株式会社,静岡県,浜松市中央区,中田町９５番地,,22,138,4350057,,,,,,,2025-08-12,1,,,,,レガント,0
661,3090001019458,新規,0,2025-08-12,2025-08-12,株式会社Ｎｏｖｅｌ　Ａｒｃｈｉ,,株式会社,山梨県,北杜市,大泉町西井出字石堂８２４０番地８５３４,,19,209,4091501,,,,,,,2025-08-12,1,,,,,ノベルアーキ,0
664,3100003008325,新規,0,2025-08-12,2025-08-12,合同会社ＡｗａｙｋｅｎＴｒａｖｅｌ,,合同会社,長野県,大町市,大町５７０９－８,,20,212,3980002,,,,,,,2025-08-12,1,,,,,アウェイケントラベル,0
677,3120001278496,新規,0,2025-08-12,2025-08-12,株式会社ＶＩＶＡＲＥ,,株式会社,大阪府,大阪市北区,大淀南２丁目２番地４３ローレルタワーサンクタス梅田１６０７号室,,27,127,5310075,,,,,,,2025-08-12,1,,,,,ヴィヴァール,0
678,3120001278546,新規,0,2025-08-12,2025-08-12,株式会社マルシマ物産,,株式会社,大阪府,大阪市住吉区,清水丘１丁目８番６号,,27,120,5580033,,,,,,,2025-08-12,1,,,,,マルシマブッサン,0
679,3120001278562,新規,0,2025-08-12,2025-08-12,東京バンケット関西株式会社,,株式会社,大阪府,大阪市西区,新町１丁目８番３号,,27,106,5500013,,,,,,,2025-08-12,1,,,,,トウキョウバンケットカンサイ,0
681,3120003030244,新規,0,2025-08-12,2025-08-12,合同会社天晴,,合同会社,大阪府,大阪市大正区,南恩加島６丁目９番１号,,27,108,5510021,,,,,,,2025-08-12,1,,,,,アッパレ,0
683,3120005025102,新規,0,2025-08-12,2025-08-12,一般社団法人美と健康研究所,,その他の設立登記法人,大阪府,大阪市城東区,古市１丁目２３－１５角栄ビル,,27,118,5360001,,,,,,,2025-08-12,1,,,,,ビトケンコウケンキュウショ,0
687,3120901051300,新規,0,2025-08-12,2025-08-12,大田株式会社,,株式会社,大阪府,豊中市,大黒町３丁目２１－５,,27,203,5610827,,,,,,,2025-08-12,1,,,,,オオタ,0
688,3120901051325,新規,0,2025-08-12,2025-08-12,株式会社成栄設備,,株式会社,大阪府,池田市,伏尾台１丁目１４番地の６,,27,204,5630017,,,,,,,2025-08-12,1,,,,,セイエイセツビ,0
689,3122001039498,新規,0,2025-08-12,2025-08-12,株式会社バンシャイン,,株式会社,大阪府,柏原市,大字高井田１５７１番地１６,,27,221,5820015,,,,,,,2025-08-12,1,,,,,バンシャイン,0
695,3140001139606,新規,0,2025-08-12,2025-08-12,株式会社仲田設備工業,,株式会社,兵庫県,神戸市垂水区,学が丘４丁目１１番１８号,,28,108,6550004,,,,,,,2025-08-12,1,,,,,ナカタセツビコウギョウ,0
696,3140001139614,新規,0,2025-08-12,2025-08-12,株式会社早川工業,,株式会社,兵庫県,相生市,山崎町２３７番地４,,28,208,6780066,,,,,,,2025-08-12,1,,,,,ハヤカワコウギョウ,0
702,3140003022413,新規,0,2025-08-12,2025-08-12,合同会社Ｌｉｅｎ,,合同会社,兵庫県,宍粟市,山崎町矢原１９１－１９,,28,227,6712526,,,,,,,2025-08-12,1,,,,,リアン,0
704,3160003003568,新規,0,2025-08-12,2025-08-12,合同会社ウェルスリンク,,合同会社,滋賀県,草津市,南草津プリムタウン２丁目５番地４,,25,206,5250068,,,,,,,2025-08-12,1,,,,,ウェルスリンク,0
710,3180001168048,新規,0,2025-08-12,2025-08-12,株式会社宮野ホールディングス,,株式会社,愛知県,名古屋市中村区,名駅１丁目１番１号ＪＰタワー２１階,,23,105,4500002,,,,,,,2025-08-12,1,,,,,ミヤノホールディングス,0
711,3180001168056,新規,0,2025-08-12,2025-08-12,株式会社Ｆｕｔｕｒｅ　Ｃｒｅａｔｅ,,株式会社,愛知県,名古屋市緑区,東神の倉１丁目２２４番地,,23,114,4580808,,,,,,,2025-08-12,1,,,,,フューチャークリエイト,0
712,3180001168072,新規,0,2025-08-12,2025-08-12,株式会社愛学サービス,,株式会社,愛知県,日進市,岩崎町阿良池１２番地,,23,230,4700131,,,,,,,2025-08-12,1,,,,,アイガクサービス,0
713,3180001168097,新規,0,2025-08-12,2025-08-12,株式会社ＡＫＲ,,株式会社,愛知県,名古屋市天白区,保呂町２０６番地ラ・メゾン桜ＡＡ,,23,116,4680041,,,,,,,2025-08-12,1,,,,,エーケーアール,0
719,3190001032459,新規,0,2025-08-12,2025-08-12,株式会社ＭＵＧＥＮ,,株式会社,三重県,松阪市,下村町６１６番地４３,,24,204,5150043,,,,,,,2025-08-12,1,,,,,,0
721,3190003005140,新規,0,2025-08-12,2025-08-12,合同会社海ノ風,,合同会社,三重県,四日市市,西町７番７号北畠ビル３０３,,24,202,5100089,,,,,,,2025-08-12,1,,,,,ウミノカゼ,0
723,3200001044114,新規,0,2025-08-12,2025-08-12,中央ブラシ株式会社,,株式会社,岐阜県,中津川市,福岡１２４番地の３,,21,206,5080203,,,,,,,2025-08-12,1,,,,,チュウオウブラシ,0
730,3230001021036,新規,0,2025-08-12,2025-08-12,株式会社原レジデンス,,株式会社,富山県,魚津市,大光寺２３７５番地,,16,204,9370807,,,,,,,2025-08-12,1,,,,,ハラレジデンス,0
741,3240001065346,新規,0,2025-08-12,2025-08-12,株式会社煌,,株式会社,広島県,広島市安佐北区,安佐町毛木５３０,,34,106,7391700,,,,,,,2025-08-12,1,,,,,キラメキ,0
742,3240003007346,新規,0,2025-08-12,2025-08-12,合同会社ＳＫＹ,,合同会社,広島県,広島市南区,宇品東６丁目２－３９－５０１,,34,103,7340003,,,,,,,2025-08-12,1,,,,,スカイ,0
743,3240003007354,新規,0,2025-08-12,2025-08-12,Ｍ２Ｎ合同会社,,合同会社,広島県,東広島市,西条町助実１８５８番地１幸西アパート１１０号室,,34,212,7390021,,,,,,,2025-08-12,1,,,,,エムトゥーエヌ,0
744,3240003007362,新規,0,2025-08-12,2025-08-12,合同会社ＭＩＬＫ,,合同会社,広島県,広島市安佐南区,長楽寺１丁目４７番６－２号,,34,105,7310143,,,,,,,2025-08-12,1,,,,,ミルク,0
745,3240005015974,新規,0,2025-08-12,2025-08-12,特定非営利活動法人ママライフデザイン協会,,その他の設立登記法人,広島県,大竹市,西栄１丁目２０番１６号,,34,211,7390603,,,,,,,2025-08-12,1,,,,,ママライフデザインキョウカイ,0
746,3250005009018,新規,0,2025-08-12,2025-08-12,一般社団法人田布施ｉＴｕｒｎｓ,,その他の設立登記法人,山口県,熊毛郡田布施町,大字下田布施２５９０番地１８,,35,343,7421511,,,,,,,2025-08-12,1,,,,,タブセアイターンズ,0
753,3290001110989,新規,0,2025-08-12,2025-08-12,藤進ホールディングス株式会社,,株式会社,福岡県,福岡市博多区,綱場町９番１１号藤進ビル２階,,40,132,8120024,,,,,,,2025-08-12,1,,,,,トウシンホールディングス,0
756,3290801031781,新規,0,2025-08-12,2025-08-12,ＳＡＮＥＩ株式会社,,株式会社,福岡県,直方市,大字中泉７９５番地１,,40,204,8220011,,,,,,,2025-08-12,1,,,,,サンエイ,0
760,3340001027575,新規,0,2025-08-12,2025-08-12,株式会社今徳鈑金塗装,00140243,株式会社,鹿児島県,鹿児島市,下福元町１９２９番地,,46,201,8910144,,,,,,,2025-08-12,1,,,,,イマトクバンキントソウ,0
764,3360003015163,新規,0,2025-08-12,2025-08-12,アークビスタ合同会社,,合同会社,沖縄県,那覇市,田原１丁目６番地３,,47,201,9010156,,,,,,,2025-08-12,1,,,,,アークビスタ,0
765,3360005007266,新規,0,2025-08-12,2025-08-12,アジビズ協同組合,,その他の設立登記法人,沖縄県,宜野湾市,大謝名２丁目３番５号１－Ａ,,47,205,9012225,,,,,,,2025-08-12,1,,,,,アジビズ,0
767,3370003007234,新規,0,2025-08-12,2025-08-12,合同会社Ｌ．Ｓ．Ｃ,,合同会社,宮城県,本吉郡南三陸町,歌津字平棚１７番地,,04,606,9880421,,,,,,,2025-08-12,1,,,,,エルエスシー,0
780,3450001014703,新規,0,2025-08-12,2025-08-12,株式会社たかすのお米,,株式会社,北海道,上川郡鷹栖町,２０線十四号４番地,,01,452,0711260,,,,,,,2025-08-12,1,,,,,タカスノオコメ,0
783,3480001012919,新規,0,2025-08-12,2025-08-12,株式会社Ｇｒａｃｅ,,株式会社,徳島県,板野郡北島町,鯛浜字かや１１８番地４,,36,402,7710204,,,,,,,2025-08-12,1,,,,,グレース,0
796,4010001257428,新規,0,2025-08-12,2025-08-12,ネクストプラン１株式会社,,株式会社,東京都,千代田区,麹町３丁目５番地２,,13,101,1020083,,,,,,,2025-08-12,1,,,,,ネクストプランワン,0
797,4010001257502,新規,0,2025-08-12,2025-08-12,ＮｉｎＴＰ株式会社,,株式会社,東京都,千代田区,神田錦町３丁目１５番地錦精社神田ビル天翔オフィス大手町竹橋２階２０９号室,,13,101,1010054,,,,,,,2025-08-12,1,,,,,ニンティーピー,0
798,4010001257642,新規,0,2025-08-12,2025-08-12,エムキャップ二十一号株式会社,,株式会社,東京都,千代田区,丸の内２丁目７番２号,,13,101,1000005,,,,,,,2025-08-12,1,,,,,エムキャップニジュウイチゴウ,0
802,4010003048271,新規,0,2025-08-12,2025-08-12,合同会社優豊電算,,合同会社,東京都,中央区,銀座１丁目２２－１１銀座大竹ビジデンス２Ｆ,,13,102,1040061,,,,,,,2025-08-12,1,,,,,ユウホウデンサン,0
803,4010003048288,新規,0,2025-08-12,2025-08-12,合同会社東山高台,,合同会社,東京都,千代田区,霞が関３丁目２番５号,,13,101,1000013,,,,,,,2025-08-12,1,,,,,ヒガシヤマコウダイ,0
812,4010401192423,新規,0,2025-08-12,2025-08-12,日正信株式会社,,株式会社,東京都,港区,浜松町２丁目３番８号,,13,103,1050013,,,,,,,2025-08-12,1,,,,,ニッショウシン,0
814,4010405024647,新規,0,2025-08-12,2025-08-12,ライツグループ司法書士法人,,その他の設立登記法人,東京都,港区,赤坂８丁目５番４０号,,13,103,1070052,,,,,,,2025-08-12,1,,,,,ライツグループ,0
816,4010501054515,新規,0,2025-08-12,2025-08-12,星耀互働株式会社,,株式会社,東京都,台東区,松が谷２丁目１５番８号浅草Ｋ２ビル２１１号室,,13,106,1110036,,,,,,,2025-08-12,1,,,,,セイヨウゴドウ,0
817,4010601067763,新規,0,2025-08-12,2025-08-12,株式会社ホロイムア,,株式会社,東京都,江東区,住吉１丁目１番６号デュオメゾン住吉３０２,,13,108,1350002,,,,,,,2025-08-12,1,,,,,ホロイムア,0
818,4010601067771,新規,0,2025-08-12,2025-08-12,株式会社つなＧＯ,,株式会社,東京都,墨田区,緑４丁目１１番４号４０３号室,,13,107,1300021,,,,,,,2025-08-12,1,,,,,ツナゴー,0
820,4010801036485,新規,0,2025-08-12,2025-08-12,Ｔｉｐ　Ｔｏｐ株式会社,,株式会社,東京都,大田区,東馬込１丁目４番１６号,,13,111,1430022,,,,,,,2025-08-12,1,,,,,ティップトップ,0
824,4010901057860,新規,0,2025-08-12,2025-08-12,株式会社ＩＭＵ‐ＬＡＢＯ,,株式会社,東京都,世田谷区,船橋２丁目２１番２５号ハイツ杉山１０Ａ,,13,112,1560055,,,,,,,2025-08-12,1,,,,,イムラボ,0
825,4010903010173,新規,0,2025-08-12,2025-08-12,ｃｏｃｏｓｏｃｏ合同会社,,合同会社,東京都,世田谷区,野毛２丁目４－１７サニーハイツ田園１０２,,13,112,1580092,,,,,,,2025-08-12,1,,,,,ココソコ,0
826,4010903010181,新規,0,2025-08-12,2025-08-12,合同会社Ｒマネジメント,,合同会社,東京都,世田谷区,上北沢１丁目３－８,,13,112,1560057,,,,,,,2025-08-12,1,,,,,アールマネジメント,0
830,4011001171239,新規,0,2025-08-12,2025-08-12,株式会社Ｆｉｎｅｒ,,株式会社,東京都,渋谷区,円山町５番３号ＭＩＥＵＸ渋谷ビル８階,,13,113,1500044,,,,,,,2025-08-12,1,,,,,ファイナー,0
831,4011001171255,新規,0,2025-08-12,2025-08-12,株式会社ＵｓＰｒｏｍｅ,,株式会社,東京都,渋谷区,道玄坂１丁目１０番８号渋谷道玄坂東急ビル２Ｆ－Ｃ,,13,113,1500043,,,,,,,2025-08-12,1,,,,,アスプローム,0
832,4011001171305,新規,0,2025-08-12,2025-08-12,株式会社ＡＤＭＡＮＴＩＮＥ,,株式会社,東京都,目黒区,東山１丁目６番５号シティーハウス中目黒ステーションコート１１０３室,,13,110,1530043,,,,,,,2025-08-12,1,,,,,アドマンティン,0
833,4011001171338,新規,0,2025-08-12,2025-08-12,株式会社ビセル,,株式会社,東京都,渋谷区,恵比寿１丁目２２番２３号ヴェラハイツ恵比寿,,13,113,1500013,,,,,,,2025-08-12,1,,,,,ビセル,0
834,4011001171370,新規,0,2025-08-12,2025-08-12,Ｔｉｉ株式会社,,株式会社,東京都,渋谷区,恵比寿西２丁目４番８号ウィンド恵比寿ビル８Ｆ,,13,113,1500021,,,,,,,2025-08-12,1,,,,,ティーアイアイ,0
835,4011003022126,新規,0,2025-08-12,2025-08-12,Ｕｒ合同会社,,合同会社,東京都,渋谷区,道玄坂１丁目１０番８号渋谷道玄坂東急ビル２Ｆ－Ｃ,,13,113,1500043,,,,,,,2025-08-12,1,,,,,ユア,0
840,4011101112530,新規,0,2025-08-12,2025-08-12,株式会社Ａｉｗａｋ,,株式会社,東京都,新宿区,新宿２丁目１２番１３号新宿アントレサロンビル２階,,13,104,1600022,,,,,,,2025-08-12,1,,,,,アイワック,0
841,4011101112662,新規,0,2025-08-12,2025-08-12,株式会社おはぎＦＩＴ,,株式会社,東京都,新宿区,市谷柳町１５番地１プラウド市谷柳町７０３,,13,104,1620061,,,,,,,2025-08-12,1,,,,,オハギフィット,0
842,4011101112679,新規,0,2025-08-12,2025-08-12,株式会社ｐｉｐｉｔａ,,株式会社,東京都,新宿区,西新宿３丁目３番１３号西新宿水間ビル６階,,13,104,1600023,,,,,,,2025-08-12,1,,,,,ピピタ,0
843,4011101112695,新規,0,2025-08-12,2025-08-12,株式会社コーナーフィールド,,株式会社,東京都,新宿区,西新宿６丁目２０番７号,,13,104,1600023,,,,,,,2025-08-12,1,,,,,コーナーフィールド,0
846,4011103016176,新規,0,2025-08-12,2025-08-12,合同会社御輿,,合同会社,東京都,新宿区,高田馬場３丁目４－１６第二双葉ビル３階,,13,104,1690075,,,,,,,2025-08-12,1,,,,,ミコシ,0
854,4011603004795,新規,0,2025-08-12,2025-08-12,合同会社新和基,,合同会社,東京都,練馬区,谷原５丁目２６番８号パム谷原Ｂ棟２０５号,,13,120,1770032,,,,,,,2025-08-12,1,,,,,シンワキ,0
856,4011801046557,新規,0,2025-08-12,2025-08-12,金禾科技株式会社,,株式会社,東京都,葛飾区,東金町３丁目１７－１０ＫＢＳＣ－１３,,13,122,1250041,,,,,,,2025-08-12,1,,,,,キンカカギョウ,0
859,4012301014491,新規,0,2025-08-12,2025-08-12,株式会社Ｍｏｔｉｏｎ　Ｌｉｎｋｓ,,株式会社,東京都,町田市,原町田１丁目４番７‐１３０２号,,13,209,1940013,,,,,,,2025-08-12,1,,,,,モーションリンクス,0
860,4012303002206,新規,0,2025-08-12,2025-08-12,合同会社ボディメンテナンス,,合同会社,東京都,町田市,三輪町１９８番地６,,13,209,1950054,,,,,,,2025-08-12,1,,,,,ボディメンテナンス,0
862,4012401043465,新規,0,2025-08-12,2025-08-12,株式会社べーぴーす,,株式会社,東京都,三鷹市,新川４丁目３番３０号－７,,13,204,1810004,,,,,,,2025-08-12,1,,,,,ベーピース,0
865,4012801024164,新規,0,2025-08-12,2025-08-12,株式会社榮工業,,株式会社,東京都,日野市,大字上田２３３番地の５,,13,212,1910014,,,,,,,2025-08-12,1,,,,,サカエコウギョウ,0
866,4012801024172,新規,0,2025-08-12,2025-08-12,ＩＴＳＡＭＣ株式会社,,株式会社,東京都,国立市,富士見台４丁目４１番地の１、５２３,,13,215,1860003,,,,,,,2025-08-12,1,,,,,アイティーエスエーエムシー,0
879,4020001164284,新規,0,2025-08-12,2025-08-12,株式会社Ｖｉｎｃｉ　Ｌｕｍｅｎ,,株式会社,神奈川県,横浜市都筑区,北山田７丁目４番４－１０１号,,14,118,2240021,,,,,,,2025-08-12,1,,,,,ヴィンチルーメン,0
880,4020001164318,新規,0,2025-08-12,2025-08-12,株式会社かつみ工業,,株式会社,神奈川県,横浜市鶴見区,生麦５丁目２５番２１－４０１号,,14,101,2300052,,,,,,,2025-08-12,1,,,,,カツミコウギョウ,0
881,4020001164326,新規,0,2025-08-12,2025-08-12,株式会社Ｃｈｉｋａｒａ　Ｈｏｍｅｓ,,株式会社,神奈川県,横浜市青葉区,しらとり台２２番地６７,,14,117,2270054,,,,,,,2025-08-12,1,,,,,チカラホームズ,0
882,4020001164350,新規,0,2025-08-12,2025-08-12,株式会社ＮＩＳＨＩＫＥＮ　ＳＵＮ,,株式会社,神奈川県,横浜市港北区,鳥山町４４６番地１リヴィエール新横浜１０２,,14,109,2220035,,,,,,,2025-08-12,1,,,,,ニシケンサン,0
883,4020003029122,新規,0,2025-08-12,2025-08-12,駿快合同会社,,合同会社,神奈川県,横浜市港南区,丸山台２丁目３１番１３号,,14,111,2330013,,,,,,,2025-08-12,1,,,,,シュンカイ,0
884,4020003029130,新規,0,2025-08-12,2025-08-12,ＦＵＮＦＵＮ賃貸合同会社,,合同会社,神奈川県,横浜市中区,吉田町３番地１１サウンド吉田町ビル３０１,,14,104,2310041,,,,,,,2025-08-12,1,,,,,ファンファンチンタイ,0
892,4030001168053,新規,0,2025-08-12,2025-08-12,Ｄａイチヤマト株式会社,,株式会社,埼玉県,児玉郡上里町,大字藤木戸２６８,,11,385,3690318,,,,,,,2025-08-12,1,,,,,ダイチヤマト,0
893,4030001168094,新規,0,2025-08-12,2025-08-12,ドミニオンシンクタンク株式会社,,株式会社,埼玉県,越谷市,大字大泊７０１番地２７,,11,222,3430044,,,,,,,2025-08-12,1,,,,,ドミニオンシンクタンク,0
901,4040001139961,新規,0,2025-08-12,2025-08-12,株式会社Ｎ．Ｐ．Ｃ　ＥＸＰＯＲＴ,,株式会社,千葉県,成田市,成井４２９番地４,,12,211,2890114,,,,,,,2025-08-12,1,,,,,エヌピーシーエクスポート,0
902,4040001139978,新規,0,2025-08-12,2025-08-12,株式会社２４,,株式会社,千葉県,大網白里市,北飯塚２８４番地６,,12,239,2993218,,,,,,,2025-08-12,1,,,,,トゥエンティーフォー,0
903,4040001140036,新規,0,2025-08-12,2025-08-12,株式会社ＮＩＳＳＹ,,株式会社,千葉県,千葉市稲毛区,園生町１３５１－１－１２１２,,12,103,2630051,,,,,,,2025-08-12,1,,,,,ニッシー,0
904,4040001140052,新規,0,2025-08-12,2025-08-12,株式会社ＴＷＯ,,株式会社,千葉県,市川市,新田５丁目５番３０号中田ビル２０４,,12,203,2720035,,,,,,,2025-08-12,1,,,,,ティーダブリューオー,0
908,4050001057056,新規,0,2025-08-12,2025-08-12,株式会社ＬＥＡＬＥ,,株式会社,茨城県,水戸市,開江町１３１２番地の１,,08,201,3114144,,,,,,,2025-08-12,1,,,,,レアーレ,0
909,4050001057064,新規,0,2025-08-12,2025-08-12,株式会社榎戸農産,,株式会社,茨城県,桜川市,真壁町源法寺４２７番地,,08,231,3004424,,,,,,,2025-08-12,1,,,,,エノキドノウサン,0
920,4080403005329,新規,0,2025-08-12,2025-08-12,合同会社アクトバリ,,合同会社,静岡県,浜松市中央区,西ケ崎町１１９５‐７,,22,138,4313115,,,,,,,2025-08-12,1,,,,,アクトバリ,0
932,4120001278669,新規,0,2025-08-12,2025-08-12,株式会社ＯＧＲｓ,,株式会社,大阪府,大阪市淀川区,西中島３丁目１２－１５第５新大阪ビル６０２,,27,123,5320011,,,,,,,2025-08-12,1,,,,,オージーアールス,0
933,4120001278792,新規,0,2025-08-12,2025-08-12,株式会社夜明け,,株式会社,大阪府,大阪市平野区,平野西５丁目４番１０－５０２号,,27,126,5470033,,,,,,,2025-08-12,1,,,,,ヨアケ,0
935,4120003030235,新規,0,2025-08-12,2025-08-12,合同会社ゆうらん,,合同会社,大阪府,大阪市城東区,放出西２丁目１３－３,,27,118,5360011,,,,,,,2025-08-12,1,,,,,ユウラン,0
937,4120005025101,新規,0,2025-08-12,2025-08-12,社会保険労務士法人ゆうあいパートナーズ,,その他の設立登記法人,大阪府,大阪市中央区,谷町４丁目５番９号谷町アークビル６０３号室,,27,128,5400012,,,,,,,2025-08-12,1,,,,,ユウアイパートナーズ,0
945,4120905006778,新規,0,2025-08-12,2025-08-12,一般財団法人梅の会,,その他の設立登記法人,大阪府,吹田市,元町６番４号４Ｆ,,27,205,5640031,,,,,,,2025-08-12,1,,,,,ウメノカイ,0
955,4140001139613,新規,0,2025-08-12,2025-08-12,株式会社濱田商会,,株式会社,兵庫県,佐用郡佐用町,桑野３０番地,,28,501,6795334,,,,,,,2025-08-12,1,,,,,ハマダショウカイ,0
958,4150001028328,新規,0,2025-08-12,2025-08-12,株式会社ＪＰＥ,,株式会社,奈良県,生駒郡平群町,北信貴ケ丘１丁目２－１３,,29,342,6360913,,,,,,,2025-08-12,1,,,,,ジェイピーイー,0
965,4180001168055,新規,0,2025-08-12,2025-08-12,株式会社可夢多,,株式会社,愛知県,名古屋市緑区,平手南１丁目２１７番地,,23,114,4580009,,,,,,,2025-08-12,1,,,,,カムータ,0
966,4180001168088,新規,0,2025-08-12,2025-08-12,株式会社トミサトレーシングサービス,,株式会社,愛知県,愛知郡東郷町,大字春木字下鏡田４４６番地６９８,,23,302,4700162,,,,,,,2025-08-12,1,,,,,トミサトレーシングサービス,0
967,4180001168105,新規,0,2025-08-12,2025-08-12,株式会社ＢＬＫ,,株式会社,愛知県,名古屋市中区,栄３丁目８番２２号サンリツビル２Ｆ,,23,106,4600008,,,,,,,2025-08-12,1,,,,,ビーエルケー,0
968,4180001168113,新規,0,2025-08-12,2025-08-12,株式会社ひびかん,,株式会社,愛知県,春日井市,白山町８丁目５番地１６,,23,206,4870034,,,,,,,2025-08-12,1,,,,,ヒビカン,0
973,4180003028843,新規,0,2025-08-12,2025-08-12,合同会社ロイヤルネクサス,,合同会社,愛知県,日進市,藤塚３丁目３５９番地１,,23,230,4700117,,,,,,,2025-08-12,1,,,,,ロイヤルネクサス,0
974,4180005021193,新規,0,2025-08-12,2025-08-12,税理士法人トライスター,,その他の設立登記法人,愛知県,名古屋市名東区,社が丘４丁目６０１番地,,23,115,4650051,,,,,,,2025-08-12,1,,,,,トライスター,0
984,4230003002479,新規,0,2025-08-12,2025-08-12,合同会社スカイ,,合同会社,富山県,中新川郡立山町,蔵本新１２６番地２３,,16,323,9300262,,,,,,,2025-08-12,1,,,,,スカイ,0
988,4260001040445,新規,0,2025-08-12,2025-08-12,株式会社萬木春商事,,株式会社,岡山県,倉敷市,老松町３丁目２－２５,,33,202,7100826,,,,,,,2025-08-12,1,,,,,マンキシュンショウジ,0
992,4290001110889,新規,0,2025-08-12,2025-08-12,信和金属株式会社,,株式会社,福岡県,うきは市,吉井町新治１３２－１,,40,225,8391306,,,,,,,2025-08-12,1,,,,,シンワキンゾク,0
993,4290001110963,新規,0,2025-08-12,2025-08-12,株式会社ｆｌａｔ　ｈｉｌｌｓ,,株式会社,福岡県,久留米市,上津１丁目２６－３１,,40,203,8300055,,,,,,,2025-08-12,1,,,,,フラットヒルズ,0
994,4290001110996,新規,0,2025-08-12,2025-08-12,株式会社ＡｐｏＴｏｒｅ,,株式会社,福岡県,筑紫野市,塔原東４丁目２番４号（ウェルフェアービレッジＤ１０１号）,,40,217,8180059,,,,,,,2025-08-12,1,,,,,アポトーレ,0
995,4290003017174,新規,0,2025-08-12,2025-08-12,合同会社カツケン,,合同会社,福岡県,福岡市西区,石丸２丁目１３－３,,40,135,8190025,,,,,,,2025-08-12,1,,,,,カツケン,0
996,4290003017182,新規,0,2025-08-12,2025-08-12,合同会社ＲｅＣｏ　Ｌａｂｏ,,合同会社,福岡県,糟屋郡志免町,別府東２丁目９番６号,,40,343,8112231,,,,,,,2025-08-12,1,,,,,リコラボ,0
997,4290003017224,新規,0,2025-08-12,2025-08-12,オーロラシンク合同会社,,合同会社,福岡県,福岡市東区,千早４丁目２番８号,,40,131,8130044,,,,,,,2025-08-12,1,,,,,オーロラシンク,0
1000,4290801031764,新規,0,2025-08-12,2025-08-12,株式会社ＴＭＳ,,株式会社,福岡県,行橋市,中央２丁目６番２７号,,40,213,8240005,,,,,,,2025-08-12,1,,,,,ティーエムエス,0
1009,4350001019686,新規,0,2025-08-12,2025-08-12,株式会社永田板金工業,,株式会社,宮崎県,えびの市,大字浦１４３８番地１,,45,209,8894153,,,,,,,2025-08-12,1,,,,,ナガタバンキンコウギョウ,0
1013,4360003015162,新規,0,2025-08-12,2025-08-12,合同会社ＳＯＬＥＡ,,合同会社,沖縄県,中頭郡中城村,字津覇５１６番地２,,47,328,9012413,,,,,,,2025-08-12,1,,,,,ソレア,0
1024,4390003002422,新規,0,2025-08-12,2025-08-12,合同会社えん縁ｆａｔｅ,,合同会社,山形県,東村山郡山辺町,近江５番地４８,,06,301,9900311,,,,,,,2025-08-12,1,,,,,エンエニシフェス,0
1030,4430001094969,新規,0,2025-08-12,2025-08-12,株式会社ラピヘル,,株式会社,北海道,札幌市中央区,南二条西５丁目３１番地１ＲＭＢｌｄ．７０１,,01,101,0600062,,,,,,,2025-08-12,1,,,,,ラピヘル,0
1034,4430005015269,新規,0,2025-08-12,2025-08-12,一般社団法人健康寿命１２０,,その他の設立登記法人,北海道,小樽市,忍路１丁目４０６番地,,01,203,0482561,,,,,,,2025-08-12,1,,,,,ケンコウジュミョウヒャクニジュウ,0
1047,5010001257443,新規,0,2025-08-12,2025-08-12,株式会社大山,,株式会社,東京都,中央区,新川１丁目２２番１２－１００１号,,13,102,1040033,,,,,,,2025-08-12,1,,,,,オオヤマ,0
1048,5010001257492,新規,0,2025-08-12,2025-08-12,株式会社ＺＥＮＴＲＹ,,株式会社,東京都,文京区,大塚５丁目３７番１０号レジデンス開運坂３０３,,13,105,1120012,,,,,,,2025-08-12,1,,,,,ゼントリー,0
1049,5010001257559,新規,0,2025-08-12,2025-08-12,株式会社ネクストステップ,,株式会社,東京都,中央区,新富１丁目１５番１４－２０７号,,13,102,1040041,,,,,,,2025-08-12,1,,,,,ネクストステップ,0
1050,5010001257567,新規,0,2025-08-12,2025-08-12,株式会社セルフォールド,,株式会社,東京都,中央区,銀座１丁目１２番４号Ｎ＆ＥＢＬＤ．６Ｆ,,13,102,1040061,,,,,,,2025-08-12,1,,,,,セルフォールド,0
1051,5010001257575,新規,0,2025-08-12,2025-08-12,東京リアルエステートアドバイザーズ株式会社,,株式会社,東京都,中央区,日本橋室町２丁目１番１号,,13,102,1030022,,,,,,,2025-08-12,1,,,,,トウキョウリアルエステートアドバイザーズ,0
1052,5010001257609,新規,0,2025-08-12,2025-08-12,株式会社ＮＯＢＵテクノロジーズ,,株式会社,東京都,中央区,銀座１丁目１２番４号Ｎ＆ＥＢＬＤ．６Ｆ,,13,102,1040061,,,,,,,2025-08-12,1,,,,,ノブテクノロジーズ,0
1053,5010001257617,新規,0,2025-08-12,2025-08-12,株式会社Ｌｕｎａｐｉｃｋ,,株式会社,東京都,千代田区,神田和泉町１番地６－１６ヤマトビル４０５,,13,101,1010024,,,,,,,2025-08-12,1,,,,,ルナピック,0
1054,5010003048304,新規,0,2025-08-12,2025-08-12,スプリングレタス合同会社,,合同会社,東京都,千代田区,神田神保町１丁目４２番地２コンフォリア神田神保町６０１号,,13,101,1010051,,,,,,,2025-08-12,1,,,,,スプリングレタス,0
1061,5010401192232,新規,0,2025-08-12,2025-08-12,株式会社チヨ丸,,株式会社,東京都,港区,六本木１丁目３番４０号アークタワーズウエスト２００３号,,13,103,1060032,,,,,,,2025-08-12,1,,,,,チヨマル,0
1062,5010401192422,新規,0,2025-08-12,2025-08-12,スピネルリーシング２株式会社,,株式会社,東京都,港区,虎ノ門１丁目２番６号,,13,103,1050001,,,,,,,2025-08-12,1,,,,,スピネルリーシングツー,0
1068,5010501054514,新規,0,2025-08-12,2025-08-12,雲道株式会社,,株式会社,東京都,台東区,松が谷２丁目１５番８号浅草Ｋ２ビル２１３号室,,13,106,1110036,,,,,,,2025-08-12,1,,,,,ウンドウ,0
1071,5010601067779,新規,0,2025-08-12,2025-08-12,株式会社Ｄｅｌｉｇｈｔ’ｓ,,株式会社,東京都,江東区,大島７丁目４２－１４本山ビル１階,,13,108,1360072,,,,,,,2025-08-12,1,,,,,ディライツ,0
1073,5010703007864,新規,0,2025-08-12,2025-08-12,ＲｅｖｅＩｃｉコンサルタント合同会社,,合同会社,東京都,品川区,西五反田５丁目２３番４号アーデン目黒不動前５０３,,13,109,1410031,,,,,,,2025-08-12,1,,,,,レーヴイシコンサルタント,0
1090,5011001171213,新規,0,2025-08-12,2025-08-12,株式会社ＡＲＭ,,株式会社,東京都,渋谷区,恵比寿西１丁目３６番２号,,13,113,1500021,,,,,,,2025-08-12,1,,,,,アーム,0
1091,5011001171808,新規,0,2025-08-12,2025-08-12,ＨＲホールディングス株式会社,,株式会社,東京都,渋谷区,神宮前６丁目１９番１６号,,13,113,1500001,,,,,,,2025-08-12,1,,,,,エイチアールホールディングス,0
1092,5011003022125,新規,0,2025-08-12,2025-08-12,合同会社Ｍｅｃｈａｂ,,合同会社,東京都,目黒区,駒場１丁目３７－３オアシス丘の上３０３,,13,110,1530041,,,,,,,2025-08-12,1,,,,,メカブ,0
1093,5011003022133,新規,0,2025-08-12,2025-08-12,ネオカガミ合同会社,,合同会社,東京都,渋谷区,神宮前６丁目２３番４号桑野ビル２階,,13,113,1500001,,,,,,,2025-08-12,1,,,,,ネオカガミ,0
1095,5011101112694,新規,0,2025-08-12,2025-08-12,株式会社ｍｏｓｓ,,株式会社,東京都,新宿区,西新宿７丁目４－７イマス浜田ビル５階,,13,104,1600023,,,,,,,2025-08-12,1,,,,,モス,0
1097,5011103016191,新規,0,2025-08-12,2025-08-12,合同会社ＮＥＯＮＡＩＶＥ,,合同会社,東京都,新宿区,新宿５丁目１８番２０号ルックハイツ新宿８０３号,,13,104,1600022,,,,,,,2025-08-12,1,,,,,ネオナイーブ,0
1104,5011603004803,新規,0,2025-08-12,2025-08-12,合同会社Ｕ‐Ｓｔｙｌｅ,,合同会社,東京都,練馬区,大泉町４丁目２３番１１号,,13,120,1780062,,,,,,,2025-08-12,1,,,,,ユースタイル,0
1105,5011701028613,新規,0,2025-08-12,2025-08-12,株式会社ユーガード,,株式会社,東京都,江戸川区,西小岩３丁目２７番１７号,,13,123,1330057,,,,,,,2025-08-12,1,,,,,ユーガード,0
1107,5012403007277,新規,0,2025-08-12,2025-08-12,合同会社なごみの杜,,合同会社,東京都,調布市,深大寺元町３丁目５番地５,,13,208,1820017,,,,,,,2025-08-12,1,,,,,ナゴミノモリ,0
1119,5020001164325,新規,0,2025-08-12,2025-08-12,株式会社ＴＳアセット,,株式会社,神奈川県,川崎市高津区,末長２丁目２５番２５号グランフォート３Ｆ,,14,134,2130013,,,,,,,2025-08-12,1,,,,,ティーエスアセット,0
1120,5020001164333,新規,0,2025-08-12,2025-08-12,株式会社Ｅｃｏ　Ｒｅｂｉｒｔｈ,,株式会社,神奈川県,横浜市青葉区,青葉台１丁目５番地４サンクスビル３Ｆ,,14,117,2270062,,,,,,,2025-08-12,1,,,,,エコリバース,0
1121,5020001164341,新規,0,2025-08-12,2025-08-12,石塚物産株式会社,,株式会社,神奈川県,川崎市高津区,久地３丁目９番１号,,14,134,2130032,,,,,,,2025-08-12,1,,,,,イシヅカブッサン,0
1122,5020001164358,新規,0,2025-08-12,2025-08-12,株式会社Ｋスマイル,,株式会社,神奈川県,川崎市中原区,小杉町３丁目３番地１５,,14,133,2110063,,,,,,,2025-08-12,1,,,,,ケースマイル,0
1131,5030001168069,新規,0,2025-08-12,2025-08-12,セブンカラー株式会社,,株式会社,埼玉県,春日部市,南中曽根５４９番地４,,11,214,3440048,,,,,,,2025-08-12,1,,,,,セブンカラー,0
1132,5030001168093,新規,0,2025-08-12,2025-08-12,株式会社Ｒｏｏｔｓ,,株式会社,埼玉県,幸手市,大字戸島５６１番１,,11,240,3400144,,,,,,,2025-08-12,1,,,,,ルーツ,0
1135,5030003027355,新規,0,2025-08-12,2025-08-12,合同会社ホースシュー,,合同会社,埼玉県,鶴ヶ島市,大字五味ヶ谷１１１番地５８,,11,241,3502202,,,,,,,2025-08-12,1,,,,,ホースシュー,0
1136,5030003027371,新規,0,2025-08-12,2025-08-12,金山合同会社,,合同会社,埼玉県,さいたま市大宮区,桜木町２丁目３番地大宮マルイ７階,,11,103,3300854,,,,,,,2025-08-12,1,,,,,カナヤマ,0
1137,5030003027388,新規,0,2025-08-12,2025-08-12,一龍工業合同会社,,合同会社,埼玉県,川越市,大字中福１８番地４,,11,201,3501156,,,,,,,2025-08-12,1,,,,,イチリュウコウギョウ,0
1141,5040001139969,新規,0,2025-08-12,2025-08-12,株式会社千香,,株式会社,千葉県,香取市,佐原イ３１５８番地３,,12,236,2870003,,,,,,,2025-08-12,1,,,,,センカ,0
1142,5040001140010,新規,0,2025-08-12,2025-08-12,株式会社ＬａＬａ　ＧＬＯＢＡＬ　ＬＡＮＧＵＡＧＥ,,株式会社,千葉県,千葉市中央区,中央２丁目５番１号千葉中央ツインビル２号館７階,,12,101,2600013,,,,,,,2025-08-12,1,,,,,ララグローバルランゲッジ,0
1143,5040001140084,新規,0,2025-08-12,2025-08-12,株式会社志合山海,,株式会社,千葉県,千葉市中央区,東千葉１丁目１３ー１祥和ビル２０１号室,,12,101,2600041,,,,,,,2025-08-12,1,,,,,シゴウサンカイ,0
1167,5080403005328,新規,0,2025-08-12,2025-08-12,合同会社コンパソーレ,,合同会社,静岡県,浜松市中央区,入野町５８番地の２,,22,138,4328061,,,,,,,2025-08-12,1,,,,,コンパソーレ,0
1169,5100003008331,新規,0,2025-08-12,2025-08-12,合同会社有賀建具店,,合同会社,長野県,上伊那郡箕輪町,大字中箕輪４０番地１,,20,383,3994601,,,,,,,2025-08-12,1,,,,,アルガタテグテン,0
1179,5120001278552,新規,0,2025-08-12,2025-08-12,株式会社シャングリラ,,株式会社,大阪府,門真市,速見町８番２４号,,27,223,5710039,,,,,,,2025-08-12,1,,,,,シャングリラ,0
1180,5120001278627,新規,0,2025-08-12,2025-08-12,日進株式会社,,株式会社,大阪府,大阪市西区,本田３丁目１番１９－４０５号,,27,106,5500022,,,,,,,2025-08-12,1,,,,,ニッシン,0
1181,5120001278742,新規,0,2025-08-12,2025-08-12,エネフォース株式会社,,株式会社,大阪府,大阪市中央区,内久宝寺町４丁目１番１９号エネフォースビルディング,,27,128,5400013,,,,,,,2025-08-12,1,,,,,エネフォース,0
1182,5120001278759,新規,0,2025-08-12,2025-08-12,喜可株式会社,,株式会社,大阪府,大阪市天王寺区,伶人町２－３１ＳｔａｒＯｆｆｉｃｅ大阪天王寺北８０７号室,,27,109,5430061,,,,,,,2025-08-12,1,,,,,キカ,0
1191,5120903005789,新規,0,2025-08-12,2025-08-12,合同会社雅ケアサービス,,合同会社,大阪府,豊中市,春日町３丁目７番５号,,27,203,5600052,,,,,,,2025-08-12,1,,,,,ミヤビケアサービス,0
1204,5140001139604,新規,0,2025-08-12,2025-08-12,ＮＥＳＴＡ株式会社,,株式会社,兵庫県,神戸市灘区,船寺通５丁目４番１６－３０２号,,28,102,6570842,,,,,,,2025-08-12,1,,,,,ネスタ,0
1205,5140001139612,新規,0,2025-08-12,2025-08-12,株式会社木いち,,株式会社,兵庫県,尼崎市,宮内町３丁目１４６番地の１,,28,202,6600877,,,,,,,2025-08-12,1,,,,,キイチ,0
1208,5150001028319,新規,0,2025-08-12,2025-08-12,株式会社平山電設興業,,株式会社,奈良県,磯城郡川西町,大字結崎４０６番地の１－２０２号,,29,361,6360202,,,,,,,2025-08-12,1,,,,,ヒラヤマデンセツコウギョウ,0
1213,5180001168021,新規,0,2025-08-12,2025-08-12,株式会社康森,,株式会社,愛知県,北名古屋市,二子屋敷３４０番地１,,23,234,4810013,,,,,,,2025-08-12,1,,,,,ヤスモリ,0
1214,5180001168079,新規,0,2025-08-12,2025-08-12,株式会社Ｋ＆Ｄｔｏ,,株式会社,愛知県,名古屋市港区,油屋町１丁目３３番地,,23,111,4550815,,,,,,,2025-08-12,1,,,,,ケーアンドディート,0
1215,5180001168104,新規,0,2025-08-12,2025-08-12,ＫＫＳＫ株式会社,,株式会社,愛知県,名古屋市東区,葵１丁目２５番１号,,23,102,4610004,,,,,,,2025-08-12,1,,,,,ケーケーエスケー,0
1216,5180001168112,新規,0,2025-08-12,2025-08-12,株式会社リベラル,,株式会社,愛知県,瀬戸市,みずの坂２丁目２５３番地イオン瀬戸みずの店２Ｆ,,23,204,4890909,,,,,,,2025-08-12,1,,,,,リベラル,0
1217,5180001168120,新規,0,2025-08-12,2025-08-12,愛佳優品株式会社,,株式会社,愛知県,名古屋市北区,大我麻町４３番地,,23,103,4620064,,,,,,,2025-08-12,1,,,,,アイカユウヒン,0
1218,5180001168129,新規,0,2025-08-12,2025-08-12,株式会社フリースタイル,,株式会社,愛知県,名古屋市中区,東桜２丁目２２番１８号,,23,106,4600005,,,,,,,2025-08-12,1,,,,,フリースタイル,0
1219,5180001168178,新規,0,2025-08-12,2025-08-12,株式会社将来グループ,,株式会社,愛知県,名古屋市中村区,名駅４丁目２４番５号第２森ビル４０１,,23,105,4500002,,,,,,,2025-08-12,1,,,,,ショウライグループ,0
1223,5190001032465,新規,0,2025-08-12,2025-08-12,株式会社ＨＯＳＯＮＡ,,株式会社,三重県,いなべ市,大安町石榑東２５５０番地２３,,24,214,5110264,,,,,,,2025-08-12,1,,,,,,0
1226,5200003006960,新規,0,2025-08-12,2025-08-12,いわのり合同会社,,合同会社,岐阜県,可児郡御嵩町,中２６６１番地２２,,21,521,5050121,,,,,,,2025-08-12,1,,,,,イワノリ,0
1232,5240003007344,新規,0,2025-08-12,2025-08-12,合同会社ＡＥＴＨＥＲ,,合同会社,広島県,大竹市,木野２丁目６番１号,,34,211,7390616,,,,,,,2025-08-12,1,,,,,エーテル,0
1237,5260001040411,新規,0,2025-08-12,2025-08-12,兼崎工業株式会社,,株式会社,岡山県,岡山市東区,城東台西３丁目１番７号,,33,103,7090624,,,,,,,2025-08-12,1,,,,,カネサキコウギョウ,0
1238,5260003005288,新規,0,2025-08-12,2025-08-12,合同会社グッドインターベンション,,合同会社,岡山県,倉敷市,福島６８２番地１,,33,202,7100048,,,,,,,2025-08-12,1,,,,,グッドインターベンション,0
1241,5270003001781,新規,0,2025-08-12,2025-08-12,合同会社雅,,合同会社,鳥取県,鳥取市,吉成６８２番地１,,31,201,6800864,,,,,,,2025-08-12,1,,,,,ミヤビ,0
1246,5290001110954,新規,0,2025-08-12,2025-08-12,株式会社アマリオン,,株式会社,福岡県,福岡市早良区,百道浜１丁目３番１３－２０７号,,40,137,8140001,,,,,,,2025-08-12,1,,,,,アマリオン,0
1247,5290001111069,新規,0,2025-08-12,2025-08-12,株式会社ＫＡＧＵＬＡ,,株式会社,福岡県,糟屋郡粕屋町,甲仲原４丁目７番８号,,40,349,8112315,,,,,,,2025-08-12,1,,,,,カグラ,0
1250,5290801031788,新規,0,2025-08-12,2025-08-12,株式会社ショウワ,,株式会社,福岡県,直方市,大字山部９２０番地１,,40,204,8220034,,,,,,,2025-08-12,1,,,,,ショウワ,0
1252,5320001021280,新規,0,2025-08-12,2025-08-12,株式会社高進工業,,株式会社,大分県,大分市,横田２丁目６番３号,,44,201,8700263,,,,,,,2025-08-12,1,,,,,コウシンコウギョウ,0
1261,5340001027540,新規,0,2025-08-12,2025-08-12,株式会社Ｌａｕｇｈ　ａｒｃ,,株式会社,鹿児島県,鹿児島市,吉野３丁目４８番２５号,,46,201,8920877,,,,,,,2025-08-12,1,,,,,ラフアーク,0
1262,5340001027573,新規,0,2025-08-12,2025-08-12,株式会社燈,,株式会社,鹿児島県,鹿児島市,田上２丁目２６番１６号,,46,201,8900034,,,,,,,2025-08-12,1,,,,,アカリ,0
1268,5360003015161,新規,0,2025-08-12,2025-08-12,合同会社ＪＡＰＡ,,合同会社,沖縄県,国頭郡大宜味村,字塩屋５３８番地,,47,302,9051311,,,,,,,2025-08-12,1,,,,,ジャパ,0
1281,5430003017943,新規,0,2025-08-12,2025-08-12,合同会社グランツ,,合同会社,北海道,札幌市清田区,北野五条４丁目２４番２０号,,01,110,0040865,,,,,,,2025-08-12,1,,,,,グランツ,0
1289,6010001257442,新規,0,2025-08-12,2025-08-12,かもめリサーチ＆コンサルティング株式会社,,株式会社,東京都,中央区,銀座１丁目１２番４号Ｎ＆ＥＢＬＤ．７階,,13,102,1040061,,,,,,,2025-08-12,1,,,,,カモメリサーチアンドコンサルティング,0
1290,6010001257483,新規,0,2025-08-12,2025-08-12,株式会社未来キャスティングホールディングス,,株式会社,東京都,中央区,八丁堀３丁目２０番５号,,13,102,1040032,,,,,,,2025-08-12,1,,,,,ミライキャスティングホールディングス,0
1291,6010001257558,新規,0,2025-08-12,2025-08-12,株式会社Ｄ＆Ｆ,,株式会社,東京都,中央区,勝どき１丁目３番１－４５０４号,,13,102,1040054,,,,,,,2025-08-12,1,,,,,ディーアンドエフ,0
1292,6010001257574,新規,0,2025-08-12,2025-08-12,株式会社ｋｉｒｉｎｃｏ　ｊａｐａｎ,,株式会社,東京都,千代田区,神田錦町３丁目７番２号東京堂錦町ビル７階,,13,101,1010054,,,,,,,2025-08-12,1,,,,,キリエンコジャパン,0
1293,6010001257608,新規,0,2025-08-12,2025-08-12,株式会社Ｃｅｌｌｉｃａ,,株式会社,東京都,千代田区,神田須田町２丁目２３番地１１,,13,101,1010041,,,,,,,2025-08-12,1,,,,,セリカ,0
1294,6010001257616,新規,0,2025-08-12,2025-08-12,ウレシーズ株式会社,,株式会社,東京都,中央区,日本橋本町１丁目８番３－５０２号,,13,102,1030023,,,,,,,2025-08-12,1,,,,,ウレシーズ,0
1298,6010003048286,新規,0,2025-08-12,2025-08-12,合同会社ベルラ,,合同会社,東京都,中央区,銀座１丁目１２番４号,,13,102,1040061,,,,,,,2025-08-12,1,,,,,ベルラ,0
1304,6010401192264,新規,0,2025-08-12,2025-08-12,株式会社ＫＩＴＥ,,株式会社,東京都,港区,浜松町１丁目２番１７号ストークベル浜松町１１０２号室,,13,103,1050013,,,,,,,2025-08-12,1,,,,,カイト,0
1305,6010401192421,新規,0,2025-08-12,2025-08-12,スピネルリーシング１株式会社,,株式会社,東京都,港区,虎ノ門１丁目２番６号,,13,103,1050001,,,,,,,2025-08-12,1,,,,,スピネルリーシングワン,0
1306,6010403035784,新規,0,2025-08-12,2025-08-12,合同会社エディル,,合同会社,東京都,港区,南青山２丁目２番１５号,,13,103,1070062,,,,,,,2025-08-12,1,,,,,エディル,0
1310,6010503007948,新規,0,2025-08-12,2025-08-12,合同会社ＪＡＤＥ,,合同会社,東京都,台東区,竜泉３丁目３１番１１－２０３号,,13,106,1100012,,,,,,,2025-08-12,1,,,,,,0
1312,6010601067761,新規,0,2025-08-12,2025-08-12,ＭＱ株式会社,,株式会社,東京都,墨田区,横川３丁目６番７号２－Ｋ室,,13,107,1300003,,,,,,,2025-08-12,1,,,,,エムキュー,0
1324,6011001171204,新規,0,2025-08-12,2025-08-12,株式会社ＣＯＶＲＳＥ　ｌａｂ,,株式会社,東京都,渋谷区,神宮前６丁目２３番４号桑野ビル２階,,13,113,1500001,,,,,,,2025-08-12,1,,,,,カバースラボ,0
1325,6011001171220,新規,0,2025-08-12,2025-08-12,株式会社Ｗａｋｕ　Ｌａｂ,,株式会社,東京都,渋谷区,道玄坂１丁目１０－８渋谷道玄坂東急ビル２Ｆ－Ｃ,,13,113,1500043,,,,,,,2025-08-12,1,,,,,ワクラボ,0
1326,6011001171253,新規,0,2025-08-12,2025-08-12,株式会社リアルティクス,,株式会社,東京都,渋谷区,初台２丁目４番２０号シャルム初台３階,,13,113,1510061,,,,,,,2025-08-12,1,,,,,リアルティクス,0
1327,6011001171286,新規,0,2025-08-12,2025-08-12,株式会社トップ,,株式会社,東京都,渋谷区,神南１丁目１２番１４号渋谷宮田ビル６Ｆ,,13,113,1500041,,,,,,,2025-08-12,1,,,,,トップ,0
1328,6011001171311,新規,0,2025-08-12,2025-08-12,株式会社インフィニット・コネクター・ホールディング,,株式会社,東京都,渋谷区,道玄坂１丁目１６番６号二葉ビル８ｂ,,13,113,1500043,,,,,,,2025-08-12,1,,,,,インフィニットコネクターホールディング,0
1329,6011001171831,新規,0,2025-08-12,2025-08-12,株式会社Ｕｐｆｌｏｗ,,株式会社,東京都,渋谷区,道玄坂１丁目１０－８渋谷道玄坂東急ビル２Ｆ－Ｃ,,13,113,1500043,,,,,,,2025-08-12,1,,,,,アップフロー,0
1331,6011003022116,新規,0,2025-08-12,2025-08-12,合同会社Ｍｉｇｌｅｅ,,合同会社,東京都,渋谷区,恵比寿西２丁目４番８号ウィンド恵比寿ビル８Ｆ,,13,113,1500021,,,,,,,2025-08-12,1,,,,,ミグリー,0
1332,6011003022124,新規,0,2025-08-12,2025-08-12,ＯＵＴＳＡＬＥ合同会社,,合同会社,東京都,渋谷区,恵比寿西２丁目８番４号ＥＸ恵比寿西ビル５階,,13,113,1500021,,,,,,,2025-08-12,1,,,,,アウトセール,0
1333,6011003022140,新規,0,2025-08-12,2025-08-12,合同会社ｐ‐ｗｏｒｋｓ,,合同会社,東京都,渋谷区,桜丘町２９番２４号,,13,113,1500031,,,,,,,2025-08-12,1,,,,,ピーワークス,0
1338,6011101112537,新規,0,2025-08-12,2025-08-12,株式会社アクトワン・エンターテイメント,,株式会社,東京都,新宿区,西早稲田３丁目１－３,,13,104,1690051,,,,,,,2025-08-12,1,,,,,アクトワンエンターテイメント,0
1339,6011101112578,新規,0,2025-08-12,2025-08-12,株式会社Ｌｕｘ,,株式会社,東京都,新宿区,山吹町１３０－１１イトーピア神楽坂１２０２,,13,104,1620801,,,,,,,2025-08-12,1,,,,,ルクス,0
1340,6011103016174,新規,0,2025-08-12,2025-08-12,ジパングゲート合同会社,,合同会社,東京都,新宿区,西新宿３丁目８－１４コーシンハイツ３０２,,13,104,1600023,,,,,,,2025-08-12,1,,,,,ジパングゲート,0
1341,6011103016208,新規,0,2025-08-12,2025-08-12,合同会社橋本商事,,合同会社,東京都,新宿区,西新宿３丁目３番１３号西新宿水間ビル２Ｆ,,13,104,1600023,,,,,,,2025-08-12,1,,,,,ハシモトショウジ,0
1343,6011203004789,新規,0,2025-08-12,2025-08-12,合同会社Ｌｉｖｕｒｅ,,合同会社,東京都,中野区,上鷺宮１丁目２２番６号,,13,114,1650031,,,,,,,2025-08-12,1,,,,,リビュア,0
1350,6011801046588,新規,0,2025-08-12,2025-08-12,株式会社翔電住建,,株式会社,東京都,足立区,西綾瀬３丁目１２番７号,,13,121,1200014,,,,,,,2025-08-12,1,,,,,ショウデンジュウケン,0
1353,6012401043447,新規,0,2025-08-12,2025-08-12,Ｐ．ｅｙｅｗｅａｒ株式会社,,株式会社,東京都,多摩市,和田１４６３－５,,13,224,2060001,,,,,,,2025-08-12,1,,,,,ピィドットアイウェア,0
1356,6013101009762,新規,0,2025-08-12,2025-08-12,株式会社登栄,,株式会社,東京都,羽村市,小作台２丁目５番地６,,13,227,2050001,,,,,,,2025-08-12,1,,,,,トウエイ,0
1357,6013103001478,新規,0,2025-08-12,2025-08-12,ＴＫＴ合同会社,,合同会社,東京都,青梅市,東青梅４丁目７番地の８,,13,205,1980042,,,,,,,2025-08-12,1,,,,,ティーケーティー,0
1372,6020001164316,新規,0,2025-08-12,2025-08-12,株式会社ＯＴＴＣ,,株式会社,神奈川県,横浜市保土ケ谷区,常盤台５８番地１,,14,106,2400067,,,,,,,2025-08-12,1,,,,,オーティーティーシー,0
1373,6020001164357,新規,0,2025-08-12,2025-08-12,株式会社Ｓｕｍｉｃａ,,株式会社,神奈川県,横浜市港南区,丸山台１丁目１１番１６号,,14,111,2330013,,,,,,,2025-08-12,1,,,,,スミカ,0
1375,6020003029145,新規,0,2025-08-12,2025-08-12,合同会社零,,合同会社,神奈川県,横浜市保土ケ谷区,霞台４９番７号２Ｆ,,14,106,2400014,,,,,,,2025-08-12,1,,,,,ゼロ,0
1380,6030001168076,新規,0,2025-08-12,2025-08-12,株式会社クレアファーム,,株式会社,埼玉県,狭山市,大字水野２３４番地の５,,11,215,3501317,,,,,,,2025-08-12,1,,,,,クレアファーム,0
1381,6030001168092,新規,0,2025-08-12,2025-08-12,ＭｅｔａＣｈｒｏｍｅ株式会社,,株式会社,埼玉県,川口市,大字安行原１５７５番地１０,,11,203,3340057,,,,,,,2025-08-12,1,,,,,メタクローム,0
1384,6030003027288,新規,0,2025-08-12,2025-08-12,合同会社トラスト,,合同会社,埼玉県,上尾市,中分２丁目２３９－１,,11,219,3620067,,,,,,,2025-08-12,1,,,,,トラスト,0
1385,6030003027362,新規,0,2025-08-12,2025-08-12,ヒートデバイス合同会社,,合同会社,埼玉県,さいたま市緑区,太田窪３丁目１４番２０号,,11,109,3360936,,,,,,,2025-08-12,1,,,,,ヒートデバイス,0
1386,6030003027387,新規,0,2025-08-12,2025-08-12,Ｌｕｘｈａｖｅｎ　Ｊａｐａｎ合同会社,,合同会社,埼玉県,坂戸市,花影町７番２５号ＫＩＶオフィス花影Ａ号室,,11,239,3500236,,,,,,,2025-08-12,1,,,,,ラックスヘイブンジャパン,0
1387,6030005022238,新規,0,2025-08-12,2025-08-12,一般社団法人飯能地区薬剤師会,,その他の設立登記法人,埼玉県,飯能市,大字双柳３７３番地６１,,11,209,3570021,,,,,,,2025-08-12,1,,,,,ハンノウチクヤクザイシカイ,0
1389,6040001139968,新規,0,2025-08-12,2025-08-12,株式会社ＰｈｉＬｉａ,,株式会社,千葉県,船橋市,本町７丁目５番４号ユニマット船橋駅前ビル４Ｆ,,12,204,2730005,,,,,,,2025-08-12,1,,,,,フィリア,0
1390,6040003028228,新規,0,2025-08-12,2025-08-12,ＫＭ　Ｌｕｘｅ合同会社,,合同会社,千葉県,八街市,勢田字瀬田入８２４番地３９,,12,230,2891132,,,,,,,2025-08-12,1,,,,,ケーエムラクス,0
1405,6100001038866,新規,0,2025-08-12,2025-08-12,株式会社ＹＡＭＡＫＥＩ,,株式会社,長野県,長野市,北条町３番地３,,20,201,3810035,,,,,,,2025-08-12,1,,,,,ヤマケイ,0
1410,6110001039517,新規,0,2025-08-12,2025-08-12,株式会社中越植物園,,株式会社,新潟県,見附市,上新田町５０２番地１,,15,211,9540112,,,,,,,2025-08-12,1,,,,,チュウエツショクブツエン,0
1421,6120001278535,新規,0,2025-08-12,2025-08-12,株式会社Ｗｏｌｆ　Ｇａｎｇ　Ｍａｎａｇｅｍｅｎｔ,,株式会社,大阪府,大阪市中央区,南船場４丁目１０番３号ナガホリ大阪ビル,,27,128,5420081,,,,,,,2025-08-12,1,,,,,ウルフギャングマネージメント,0
1422,6120001278659,新規,0,2025-08-12,2025-08-12,株式会社ｆｏｒｃｅ,,株式会社,大阪府,大阪市北区,梅田１丁目２番２号大阪駅前第２ビル１２－１２,,27,127,5300001,,,,,,,2025-08-12,1,,,,,フォース,0
1423,6120001278667,新規,0,2025-08-12,2025-08-12,株式会社モノリス,,株式会社,大阪府,大阪市北区,梅田１丁目２番２号大阪駅前第２ビル１２－１２,,27,127,5300001,,,,,,,2025-08-12,1,,,,,モノリス,0
1437,6122001039504,新規,0,2025-08-12,2025-08-12,株式会社北村不動産,,株式会社,大阪府,八尾市,曙町３丁目５４番地,,27,212,5810026,,,,,,,2025-08-12,1,,,,,キタムラフドウサン,0
1441,6130003010663,新規,0,2025-08-12,2025-08-12,タカタニイノベーションコンサルティング合同会社,,合同会社,京都府,京都市右京区,谷口園町６番地の１,,26,108,6168015,,,,,,,2025-08-12,1,,,,,タカタニイノベーションコンサルティング,0
1444,6140001139611,新規,0,2025-08-12,2025-08-12,株式会社ｅｍｕ,,株式会社,兵庫県,尼崎市,名神町３丁目２番１０－１号,,28,202,6610021,,,,,,,2025-08-12,1,,,,,エミュ,0
1458,6180001168004,新規,0,2025-08-12,2025-08-12,パラレルワークス株式会社,,株式会社,愛知県,名古屋市東区,芳野３丁目６番４号ダイアパレス東白壁Ｂ－１１０５,,23,102,4610027,,,,,,,2025-08-12,1,,,,,パラレルワークス,0
1459,6180001168045,新規,0,2025-08-12,2025-08-12,株式会社リプル,,株式会社,愛知県,名古屋市昭和区,広路町字南山７１番地南山レジデンスＣ棟１０４号,,23,107,4660834,,,,,,,2025-08-12,1,,,,,リプル,0
1460,6180001168078,新規,0,2025-08-12,2025-08-12,株式会社五十嵐工務店,,株式会社,愛知県,名古屋市北区,光音寺町１丁目１０６番Ｂ,,23,103,4620053,,,,,,,2025-08-12,1,,,,,イガラシコウムテン,0
1462,6180003028841,新規,0,2025-08-12,2025-08-12,合同会社Ｐｒｉｄｅ　Ｕｎｄｅｒｗｅａｒ,,合同会社,愛知県,名古屋市中村区,名駅３丁目４番１０号アルティメイト名駅１ｓｔ２階,,23,105,4500002,,,,,,,2025-08-12,1,,,,,プライドアンダーウェア,0
1463,6180003028866,新規,0,2025-08-12,2025-08-12,ウサギシークレットサービス合同会社,,合同会社,愛知県,名古屋市中村区,太閤４丁目１６番３号ー１,,23,105,4530801,,,,,,,2025-08-12,1,,,,,ウサギシークレットサービス,0
1465,6190001032456,新規,0,2025-08-12,2025-08-12,組み紐システム株式会社,,株式会社,三重県,四日市市,堀木２丁目１番１号,,24,202,5100076,,,,,,,2025-08-12,1,,,,,クミヒモシステム,0
1472,6220001026867,新規,0,2025-08-12,2025-08-12,株式会社勝元商事,,株式会社,石川県,加賀市,分校町コ７番地１,,17,206,9220304,,,,,,,2025-08-12,1,,,,,カツモトショウジ,0
1476,6260003005295,新規,0,2025-08-12,2025-08-12,合同会社ミアントレーダーズ,,合同会社,岡山県,岡山市東区,東幸崎１６９番地,,33,103,7048145,,,,,,,2025-08-12,1,,,,,ミアントレーダーズ,0
1484,6290001110870,新規,0,2025-08-12,2025-08-12,株式会社耳納ホーム,,株式会社,福岡県,久留米市,御井旗崎５丁目２番１,,40,203,8390841,,,,,,,2025-08-12,1,,,,,ミノウホーム,0
1485,6290001110945,新規,0,2025-08-12,2025-08-12,株式会社久和屋,,株式会社,福岡県,福岡市南区,井尻１丁目５番１号,,40,134,8111302,,,,,,,2025-08-12,1,,,,,クワヤ,0
1486,6290001110994,新規,0,2025-08-12,2025-08-12,株式会社ＨＩＳＵＩ,,株式会社,福岡県,福岡市早良区,原５丁目１５番１５号,,40,137,8140022,,,,,,,2025-08-12,1,,,,,ヒスイ,0
1487,6290001111150,新規,0,2025-08-12,2025-08-12,ＰＯＳＳ　ＷＯＲＫＳ株式会社,,株式会社,福岡県,福岡市博多区,築港本町１３番６号ベイサイドプレイス博多１ＦＢ－３,,40,132,8120021,,,,,,,2025-08-12,1,,,,,ポスワークス,0
1490,6290003017197,新規,0,2025-08-12,2025-08-12,合同会社ＶｉｄｅｏＤＩＹ,,合同会社,福岡県,福岡市南区,花畑３丁目３９番２６号２階,,40,134,8111356,,,,,,,2025-08-12,1,,,,,ビデオディーアイワイ,0
1491,6290003017206,新規,0,2025-08-12,2025-08-12,アークウェブ合同会社,,合同会社,福岡県,古賀市,千鳥２丁目５番１０号（レトア千鳥Ｂ棟２０２号）,,40,223,8113113,,,,,,,2025-08-12,1,,,,,アークウェブ,0
1494,6320001021288,新規,0,2025-08-12,2025-08-12,株式会社プレシア,,株式会社,大分県,豊後大野市,三重町市場４４４番地,,44,212,8797131,,,,,,,2025-08-12,1,,,,,プレシア,0
1498,6340001027572,新規,0,2025-08-12,2025-08-12,株式会社暮らしのお手伝い,,株式会社,鹿児島県,鹿児島市,石谷町１５１４番地２,,46,201,8992701,,,,,,,2025-08-12,1,,,,,クラシノオテツダイ,0
1513,6370001052915,新規,0,2025-08-12,2025-08-12,株式会社Ｄｉｖｅｒｓｉｏｎ,,株式会社,宮城県,仙台市太白区,西多賀４丁目１６番３０号,,04,104,9820034,,,,,,,2025-08-12,1,,,,,ディバージョン,0
1515,6380001035514,新規,0,2025-08-12,2025-08-12,株式会社Ｍｉｒａｉｔｏ,,株式会社,福島県,郡山市,東原３丁目２１０番地,,07,203,9630552,,,,,,,2025-08-12,1,,,,,ミライト,0
1525,6420003003167,新規,0,2025-08-12,2025-08-12,ＹＭＣ合同会社,,合同会社,青森県,三戸郡南部町,大字小向字下モ米内２５番地,,02,445,0390104,,,,,,,2025-08-12,1,,,,,,0
1529,6430001095057,新規,0,2025-08-12,2025-08-12,株式会社Ｅｔｅｒｎｉｔｙ,,株式会社,北海道,札幌市東区,北十八条東１４丁目２番１０－１０１号,,01,103,0650018,,,,,,,2025-08-12,1,,,,,エタニティ,0
1534,6470001020845,新規,0,2025-08-12,2025-08-12,ビートストック株式会社,,株式会社,香川県,高松市,天神前１０番５号,,37,201,7600018,,,,,,,2025-08-12,1,,,,,ビートストック,0
1539,6500005008809,新規,0,2025-08-12,2025-08-12,一般社団法人西条農業大学設立準備会,,その他の設立登記法人,愛媛県,西条市,中野甲６１６番地９,,38,206,7930054,,,,,,,2025-08-12,1,,,,,サイジョウノウギョウダイガクセツリツジュンビカイ,0
1543,7010001257474,新規,0,2025-08-12,2025-08-12,株式会社リアメディ,,株式会社,東京都,文京区,千石４丁目１８番１号千石ハイツ２０４,,13,105,1120011,,,,,,,2025-08-12,1,,,,,リアメディ,0
1544,7010001257573,新規,0,2025-08-12,2025-08-12,アデナック・インベストメント株式会社,,株式会社,東京都,千代田区,東神田１丁目４番４号,,13,101,1010031,,,,,,,2025-08-12,1,,,,,アデナックインベストメント,0
1545,7010001257598,新規,0,2025-08-12,2025-08-12,クリニカルリサーチジャパン株式会社,,株式会社,東京都,千代田区,九段南４丁目８番２１号山脇ビル５Ｆ,,13,101,1020074,,,,,,,2025-08-12,1,,,,,クリニカルリサーチジャパン,0
1546,7010001257615,新規,0,2025-08-12,2025-08-12,株式会社清水設備設計,,株式会社,東京都,千代田区,神田神保町２丁目１０番地３１ＩＷビル１Ｆ,,13,101,1010051,,,,,,,2025-08-12,1,,,,,シミズセツビセッケイ,0
1547,7010001257689,新規,0,2025-08-12,2025-08-12,株式会社大手町インベストメントマネジメント,,株式会社,東京都,千代田区,丸の内１丁目１番２号,,13,101,1000005,,,,,,,2025-08-12,1,,,,,オオテマチインベストメントマネジメント,0
1549,7010005040505,新規,0,2025-08-12,2025-08-12,一般社団法人上機嫌リーダーシップ協会,,その他の設立登記法人,東京都,中央区,日本橋３丁目２番１４号,,13,102,1030027,,,,,,,2025-08-12,1,,,,,ジョウキゲンリーダーシップキョウカイ,0
1550,7010101016813,新規,0,2025-08-12,2025-08-12,株式会社Ｍｙ‐Ｒｉｓｅ,,株式会社,東京都,八王子市,新町２‐５コスモリード八王子１階,,13,201,1920065,,,,,,,2025-08-12,1,,,,,マイライズ,0
1557,7010401192387,新規,0,2025-08-12,2025-08-12,ひまわりアセットマネジメント株式会社,,株式会社,東京都,港区,南青山１丁目２６番１６号乃木坂リリエンハイム６０５号室,,13,103,1070062,,,,,,,2025-08-12,1,,,,,ヒマワリアセットマネジメント,0
1558,7010401192437,新規,0,2025-08-12,2025-08-12,株式会社シャランポワ,,株式会社,東京都,港区,南青山４丁目１０番１２号,,13,103,1070062,,,,,,,2025-08-12,1,,,,,シャランポワ,0
1561,7010403035825,新規,0,2025-08-12,2025-08-12,ＨＡＮＡ．ＳＡＫＵＲＡＳＥ合同会社,,合同会社,東京都,港区,北青山１丁目３番１号アールキューブ青山３階,,13,103,1070061,,,,,,,2025-08-12,1,,,,,ハナサクラセ,0
1566,7010601067777,新規,0,2025-08-12,2025-08-12,株式会社学習の窓口,,株式会社,東京都,江東区,有明３丁目７番２６号有明フロンティアビルＢ棟９階,,13,108,1350063,,,,,,,2025-08-12,1,,,,,ガクシュウノマドグチ,0
1572,7010801036482,新規,0,2025-08-12,2025-08-12,ＪＪ　Ｏｎｅ　Ｓｏｌｕｔｉｏｎｓ株式会社,,株式会社,東京都,大田区,羽田空港１丁目１番４号羽田イノベーションシティ３Ｆ－Ｇ１,,13,111,1440041,,,,,,,2025-08-12,1,,,,,ジェイジェイワンソリューションズ,0
1573,7010901057899,新規,0,2025-08-12,2025-08-12,株式会社ＣＬＥＡＲ’ｓ,,株式会社,東京都,世田谷区,代田３丁目２７番１０号３階,,13,112,1550033,,,,,,,2025-08-12,1,,,,,クリアーズ,0
1574,7011001171252,新規,0,2025-08-12,2025-08-12,株式会社ＭＯＦＵ,,株式会社,東京都,渋谷区,円山町５番３号ＭＩＥＵＸ渋谷ビル８階,,13,113,1500044,,,,,,,2025-08-12,1,,,,,モフ,0
1575,7011001171277,新規,0,2025-08-12,2025-08-12,ドッグラッド株式会社,,株式会社,東京都,渋谷区,道玄坂１丁目１６－６二葉ビル８Ｂ,,13,113,1500043,,,,,,,2025-08-12,1,,,,,ドッグラッド,0
1576,7011001171418,新規,0,2025-08-12,2025-08-12,株式会社Ｋｎｏｗｌｅｄｇｅ　Ｃａｐｉｔａｌジャパン,,株式会社,東京都,目黒区,中目黒３丁目６番２号,,13,110,1530061,,,,,,,2025-08-12,1,,,,,ノウリッジキャピタルジャパン,0
1586,7011101112668,新規,0,2025-08-12,2025-08-12,株式会社ゼロ,,株式会社,東京都,新宿区,上落合１丁目３番９号日興パレス高田馬場,,13,104,1610034,,,,,,,2025-08-12,1,,,,,ゼロ,0
1588,7011103016181,新規,0,2025-08-12,2025-08-12,合同会社カメのあゆみ,,合同会社,東京都,新宿区,新宿１丁目１９番１６号,,13,104,1600022,,,,,,,2025-08-12,1,,,,,カメノアユミ,0
1593,7011305003060,新規,0,2025-08-12,2025-08-12,一般社団法人アジア・インスティチュート,,その他の設立登記法人,東京都,杉並区,阿佐谷南１丁目３４番６号新東京会館５階,,13,115,1660004,,,,,,,2025-08-12,1,,,,,,0
1594,7011401027310,新規,0,2025-08-12,2025-08-12,株式会社凛和,,株式会社,東京都,板橋区,徳丸６丁目４２番５号,,13,119,1750083,,,,,,,2025-08-12,1,,,,,リンワ,0
1604,7011801046562,新規,0,2025-08-12,2025-08-12,株式会社モールス,,株式会社,東京都,葛飾区,亀有４丁目５番１２橋川ビル１０１,,13,122,1250061,,,,,,,2025-08-12,1,,,,,モールス,0
1605,7011801046570,新規,0,2025-08-12,2025-08-12,株式会社あおぞら,,株式会社,東京都,足立区,綾瀬７丁目４番１号,,13,121,1200005,,,,,,,2025-08-12,1,,,,,アオゾラ,0
1610,7012703003338,新規,0,2025-08-12,2025-08-12,浩源商事合同会社,,合同会社,東京都,東村山市,多摩湖町３丁目３番地２５,,13,213,1890026,,,,,,,2025-08-12,1,,,,,コウゲンショウジ,0
1612,7012803003816,新規,0,2025-08-12,2025-08-12,合同会社ｖｉ　ｃａｍｉｎｏ,,合同会社,東京都,立川市,若葉町２丁目２２番地の３１,,13,202,1900001,,,,,,,2025-08-12,1,,,,,ヴィカミノ,0
1613,7013103001477,新規,0,2025-08-12,2025-08-12,合同会社アカウントサービス,,合同会社,東京都,あきる野市,伊奈１５０４番地１５,,13,228,1900142,,,,,,,2025-08-12,1,,,,,アカウントサービス,0
1620,7020001164174,新規,0,2025-08-12,2025-08-12,法務コンサル株式会社,,株式会社,神奈川県,横浜市都筑区,中川３丁目２９番３３号,,14,118,2240001,,,,,,,2025-08-12,1,,,,,ホウムコンサル,0
1621,7020001164348,新規,0,2025-08-12,2025-08-12,Ｏｎｃｅ　ＩＡＬ株式会社,,株式会社,神奈川県,横浜市青葉区,新石川２丁目３２番地９－２０１,,14,117,2250003,,,,,,,2025-08-12,1,,,,,ワンスアイエーエル,0
1626,7020003029103,新規,0,2025-08-12,2025-08-12,合同会社わくわくわんわんランド,,合同会社,神奈川県,横浜市中区,山元町１丁目５３,,14,104,2310851,,,,,,,2025-08-12,1,,,,,ワクワクワンワンランド,0
1627,7020003029128,新規,0,2025-08-12,2025-08-12,安達ファイナンシャルインスティテュート合同会社,,合同会社,神奈川県,横浜市青葉区,桜台３番地８０,,14,117,2270061,,,,,,,2025-08-12,1,,,,,アダチファイナンシャルインスティテュート,0
1640,7030001168026,新規,0,2025-08-12,2025-08-12,株式会社Ｗｈｉｔｅ　Ｎｏｉｓｅ,,株式会社,埼玉県,さいたま市岩槻区,加倉５丁目８番５５号ウエインヒルド１０４,,11,110,3390056,,,,,,,2025-08-12,1,,,,,ホワイトノイズ,0
1641,7030001168075,新規,0,2025-08-12,2025-08-12,株式会社ライザ,,株式会社,埼玉県,草加市,旭町１丁目３番６号,,11,221,3400053,,,,,,,2025-08-12,1,,,,,ライザ,0
1642,7030001168083,新規,0,2025-08-12,2025-08-12,株式会社ジョブアカデミー,,株式会社,埼玉県,越谷市,蒲生２丁目１番１６号,,11,222,3430838,,,,,,,2025-08-12,1,,,,,ジョブアカデミー,0
1643,7030001168091,新規,0,2025-08-12,2025-08-12,株式会社プレアス,,株式会社,埼玉県,川口市,東川口１丁目５番３１－４号,,11,203,3330801,,,,,,,2025-08-12,1,,,,,プレアス,0
1647,7030003027320,新規,0,2025-08-12,2025-08-12,合同会社ＰｅｄｉａＬｉｎｋ,,合同会社,埼玉県,草加市,住吉１丁目１１番３５号－１０２,,11,221,3400014,,,,,,,2025-08-12,1,,,,,ペディアリンク,0
1648,7030003027329,新規,0,2025-08-12,2025-08-12,合同会社ＣａＳＴ‐Ｏ,,合同会社,埼玉県,八潮市,大字八條１６０４番地４,,11,234,3400801,,,,,,,2025-08-12,1,,,,,キャスト,0
1654,7040003028251,新規,0,2025-08-12,2025-08-12,合同会社ＬＩＴＮ　ｇｏｌｆ,,合同会社,千葉県,我孫子市,湖北台１丁目８番１１号,,12,222,2701132,,,,,,,2025-08-12,1,,,,,リットインゴルフ,0
1667,7070001043258,新規,0,2025-08-12,2025-08-12,株式会社ＥＮＬＡＲＧＥ,,株式会社,群馬県,前橋市,富士見町時沢１８１１番地２,,10,201,3710104,,,,,,,2025-08-12,1,,,,,エンラージ,0
1669,7080001027086,新規,0,2025-08-12,2025-08-12,株式会社ドッコ,,株式会社,静岡県,静岡市駿河区,西脇１１４３番地の６,,22,102,4228044,,,,,,,2025-08-12,1,,,,,ドッコ,0
1670,7080003003523,新規,0,2025-08-12,2025-08-12,アテナリンクス合同会社,,合同会社,静岡県,静岡市清水区,草薙１１６２番地の２４,,22,103,4240886,,,,,,,2025-08-12,1,,,,,アテナリンクス,0
1676,7090001019446,新規,0,2025-08-12,2025-08-12,株式会社山織,,株式会社,山梨県,南都留郡富士河口湖町,西湖１９７５番地,,19,430,4010332,,,,,,,2025-08-12,1,,,,,ヤマオリ,0
1679,7100001038832,新規,0,2025-08-12,2025-08-12,株式会社Ａｒｃｈｉ．Ｄｅｓｉｇｎ　Ｃｈｉｎｏ,,株式会社,長野県,茅野市,泉野５５７６番地,,20,214,3910214,,,,,,,2025-08-12,1,,,,,アーキドットデザインチノ,0
1680,7100003008338,新規,0,2025-08-12,2025-08-12,里山の未来合同会社,,合同会社,長野県,松本市,中央２丁目４－１０,,20,202,3900811,,,,,,,2025-08-12,1,,,,,サトヤマノミライ,0
1695,7120001278419,新規,0,2025-08-12,2025-08-12,ペプチドワン株式会社,,株式会社,大阪府,大阪市北区,梅田１丁目１１番４－１０００号,,27,127,5300001,,,,,,,2025-08-12,1,,,,,ペプチドワン,0
1696,7120001278484,新規,0,2025-08-12,2025-08-12,株式会社ｕｈｉ,,株式会社,大阪府,大阪市住吉区,東粉浜２丁目１０番９号１Ｆ,,27,120,5580051,,,,,,,2025-08-12,1,,,,,ユウヒ,0
1697,7120001278534,新規,0,2025-08-12,2025-08-12,エーステック株式会社,,株式会社,大阪府,大阪市西淀川区,中島１丁目１７番２号,,27,113,5550041,,,,,,,2025-08-12,1,,,,,エーステック,0
1698,7120001278559,新規,0,2025-08-12,2025-08-12,株式会社Ｒ・Ｂ　Ｈｏｕｓｅ,,株式会社,大阪府,大阪市浪速区,敷津西２丁目７番２６－１０１号,,27,111,5560015,,,,,,,2025-08-12,1,,,,,アールビーハウス,0
1699,7120001278591,新規,0,2025-08-12,2025-08-12,株式会社ＢＵＮＴ,,株式会社,大阪府,大阪市中央区,上町１丁目１５番３－１９０１号,,27,128,5400005,,,,,,,2025-08-12,1,,,,,バント,0
1700,7120001278600,新規,0,2025-08-12,2025-08-12,世代商事株式会社,,株式会社,大阪府,大阪市生野区,新今里３丁目１０番８－３０１号,,27,116,5440001,,,,,,,2025-08-12,1,,,,,セダイショウジ,0
1701,7120001278658,新規,0,2025-08-12,2025-08-12,西扶海棠株式会社,,株式会社,大阪府,大阪市浪速区,恵美須西２丁目１２番１９－４０８号,,27,111,5560003,,,,,,,2025-08-12,1,,,,,セイフカイドウ,0
1702,7120001278716,新規,0,2025-08-12,2025-08-12,株式会社シスラボ,,株式会社,大阪府,大阪市天王寺区,小橋町１２番２号,,27,109,5430028,,,,,,,2025-08-12,1,,,,,シスラボ,0
1705,7120003030249,新規,0,2025-08-12,2025-08-12,合同会社Ｖａｎｔｉｅｒ　Ａｓｓｅｔ　Ｍａｎａｇｅｍｅｎｔ,,合同会社,大阪府,大阪市住吉区,我孫子３丁目２番８－２０８号,,27,120,5580014,,,,,,,2025-08-12,1,,,,,ヴァンティアアセットマネジメント,0
1706,7120003030281,新規,0,2025-08-12,2025-08-12,合同会社ｓｏｗｅｌｌｅ,,合同会社,大阪府,大阪市福島区,玉川４丁目１１番２２号２Ｆ,,27,103,5530004,,,,,,,2025-08-12,1,,,,,ソウェル,0
1730,7180001168036,新規,0,2025-08-12,2025-08-12,株式会社ツァラ,,株式会社,愛知県,名古屋市中区,大須３丁目２－９プレミアム大須２階,,23,106,4600011,,,,,,,2025-08-12,1,,,,,ツァラ,0
1731,7180001168044,新規,0,2025-08-12,2025-08-12,ＴＩＮホールディングス株式会社,,株式会社,愛知県,名古屋市中川区,横井２丁目２８番地,,23,110,4540915,,,,,,,2025-08-12,1,,,,,ティンホールディングス,0
1732,7180001168077,新規,0,2025-08-12,2025-08-12,ＣＮＴ株式会社,,株式会社,愛知県,名古屋市中村区,名駅３丁目４－１０アルティメイト名駅１ｓｔ２階,,23,105,4500002,,,,,,,2025-08-12,1,,,,,シーエヌティー,0
1733,7180001168102,新規,0,2025-08-12,2025-08-12,株式会社徳松造園,,株式会社,愛知県,常滑市,小倉町５丁目１０６番地,,23,216,4790862,,,,,,,2025-08-12,1,,,,,トクマツゾウエン,0
1737,7180003028849,新規,0,2025-08-12,2025-08-12,合同会社マイベース,,合同会社,愛知県,春日井市,松本町６５７番地,,23,206,4870027,,,,,,,2025-08-12,1,,,,,マイベース,0
1742,7220001026866,新規,0,2025-08-12,2025-08-12,株式会社ＳＫＹＩＮＮＯＶＡＴＩＯＮ,,株式会社,石川県,金沢市,入江２丁目５４番地中村ビル５階,,17,201,9218011,,,,,,,2025-08-12,1,,,,,スカイイノベーション,0
1743,7230001021024,新規,0,2025-08-12,2025-08-12,清水研磨システムサポート株式会社,,株式会社,富山県,高岡市,昭和町１丁目３番５６号,,16,202,9330946,,,,,,,2025-08-12,1,,,,,シミズケンマシステムサポート,0
1744,7230001021032,新規,0,2025-08-12,2025-08-12,ＴＫマネージメント株式会社,,株式会社,富山県,富山市,上冨居１１８番地２７,,16,201,9300835,,,,,,,2025-08-12,1,,,,,ティーケーマネージメント,0
1752,7240003007350,新規,0,2025-08-12,2025-08-12,合同会社増建,,合同会社,広島県,廿日市市,宮島口西３丁目２番４９号（１０５）,,34,213,7390412,,,,,,,2025-08-12,1,,,,,マスケン,0
1753,7240003007359,新規,0,2025-08-12,2025-08-12,ＳＵＧ合同会社,,合同会社,広島県,広島市西区,己斐上３丁目７番１２号,,34,104,7330815,,,,,,,2025-08-12,1,,,,,エスユージー,0
1765,7260001040426,新規,0,2025-08-12,2025-08-12,株式会社ＡＫＡＲＩ,,株式会社,岡山県,倉敷市,白楽町５６５番地はくらくハウス８号,,33,202,7100824,,,,,,,2025-08-12,1,,,,,アカリ,0
1766,7260001040434,新規,0,2025-08-12,2025-08-12,東櫻国際株式会社,,株式会社,岡山県,岡山市北区,鹿田町１丁目６番１７号４０２,,33,101,7000914,,,,,,,2025-08-12,1,,,,,トウオウコクサイ,0
1767,7260001040442,新規,0,2025-08-12,2025-08-12,株式会社ウィズカルナ,,株式会社,岡山県,岡山市北区,納所４－６,,33,101,7010162,,,,,,,2025-08-12,1,,,,,ウィズカルナ,0
1769,7260005011506,新規,0,2025-08-12,2025-08-12,一般社団法人光三会,,その他の設立登記法人,岡山県,岡山市北区,表町３丁目５番４３号,,33,101,7000822,,,,,,,2025-08-12,1,,,,,コウサンカイ,0
1775,7290001110861,新規,0,2025-08-12,2025-08-12,ＡＩパートナーｆｏｒＢｉｚ株式会社,,株式会社,福岡県,福岡市博多区,博多駅前１丁目２３番２号ＰａｒｋＦｒｏｎｔ博多駅前１丁目５Ｆ－Ｂ,,40,132,8120011,,,,,,,2025-08-12,1,,,,,エーアイパートナーフォービズ,0
1776,7290001110944,新規,0,2025-08-12,2025-08-12,株式会社Ｎ’ｓ　ｓｔｙｌｅ,,株式会社,福岡県,福岡市早良区,曙１丁目１番１３－１０１号ヴィレッジヒルズＡ棟,,40,137,8140004,,,,,,,2025-08-12,1,,,,,エヌズスタイル,0
1777,7290001110960,新規,0,2025-08-12,2025-08-12,株式会社ＳＥＩＺＡＮ,,株式会社,福岡県,福岡市中央区,荒戸１丁目３番２０号,,40,133,8100062,,,,,,,2025-08-12,1,,,,,セイザン,0
1778,7290001110969,新規,0,2025-08-12,2025-08-12,株式会社ＮＥＸＡＲＣ,,株式会社,福岡県,久留米市,津福本町１０５１番地９,,40,203,8300047,,,,,,,2025-08-12,1,,,,,ネクスアーク,0
1781,7290003017205,新規,0,2025-08-12,2025-08-12,ＲＥＷＩＮＤ　ＪＡＰＡＮ合同会社,,合同会社,福岡県,福岡市中央区,大名２丁目９番３５号トウセン天神ビル９Ｆ,,40,133,8100041,,,,,,,2025-08-12,1,,,,,リワインドジャパン,0
1782,7290003017238,新規,0,2025-08-12,2025-08-12,合同会社エルピス,,合同会社,福岡県,福岡市博多区,祇園町８番１２号ロータリー大和１０１８号,,40,132,8120038,,,,,,,2025-08-12,1,,,,,エルピス,0
1785,7290801031778,新規,0,2025-08-12,2025-08-12,株式会社ｉｗａｏ,,株式会社,福岡県,北九州市八幡東区,日の出３丁目１７－２２,,40,108,8050004,,,,,,,2025-08-12,1,,,,,イワオ,0
1788,7310003005066,新規,0,2025-08-12,2025-08-12,４Ｔ　ＰＲＯＤＵＣＴＳ合同会社,,合同会社,長崎県,長崎市,南山手町４番２８ヴィラコモン南山手２１０,,42,201,8500931,,,,,,,2025-08-12,1,,,,,フォーティープロダクツ,0
1794,7340003004924,新規,0,2025-08-12,2025-08-12,Ｃ．Ｐ．Ｆ．Ｅ合同会社,,合同会社,鹿児島県,鹿児島市,魚見町１２５－２９,,46,201,8910112,,,,,,,2025-08-12,1,,,,,シーピーエフイー,0
1801,7360003015151,新規,0,2025-08-12,2025-08-12,景森設計舎合同会社,,合同会社,沖縄県,中頭郡北谷町,字宮城１番地３４６－３Ｆ,,47,326,9040113,,,,,,,2025-08-12,1,,,,,ケイシンセッケイシャ,0
1802,7360003015168,新規,0,2025-08-12,2025-08-12,合同会社ＢＨＡＴＴＡＣＨＡＮ　ＣＯＭＰＡＮＹ,,合同会社,沖縄県,那覇市,前島２丁目１９－１２,,47,201,9000016,,,,,,,2025-08-12,1,,,,,バタチャンカンパニー,0
1803,7360005007262,新規,0,2025-08-12,2025-08-12,一般社団法人インターナショナルイシガキ,,その他の設立登記法人,沖縄県,石垣市,字新川２１８７番地,,47,207,9070024,,,,,,,2025-08-12,1,,,,,インターナショナルイシガキ,0
1805,7370001052922,新規,0,2025-08-12,2025-08-12,株式会社日企設計,,株式会社,宮城県,仙台市青葉区,一番町２丁目８番１０号,,04,101,9800811,,,,,,,2025-08-12,1,,,,,ニッキセッケイ,0
1817,7410001014249,新規,0,2025-08-12,2025-08-12,株式会社ヤマキ,,株式会社,秋田県,横手市,十文字町字西下４６番地１０,,05,203,0190521,,,,,,,2025-08-12,1,,,,,ヤマキ,0
1839,8010001257457,新規,0,2025-08-12,2025-08-12,株式会社ＭＪオフィス,,株式会社,東京都,中央区,日本橋箱崎町６－９,,13,102,1030015,,,,,,,2025-08-12,1,,,,,エムジェイオフィス,0
1840,8010001257507,新規,0,2025-08-12,2025-08-12,株式会社Ｍｅｄｉｓｐａｒｋ,,株式会社,東京都,中央区,銀座１丁目１２番４号Ｎ＆ＥＢＬＤ．６Ｆ,,13,102,1040061,,,,,,,2025-08-12,1,,,,,メディスパーク,0
1841,8010001257572,新規,0,2025-08-12,2025-08-12,青鶴メディカル株式会社,,株式会社,東京都,中央区,東日本橋３丁目９番１０号ＤＩＮＯ日本橋ビル,,13,102,1030004,,,,,,,2025-08-12,1,,,,,アオツルメディカル,0
1842,8010003048219,新規,0,2025-08-12,2025-08-12,山福合同会社,,合同会社,東京都,千代田区,神田須田町１丁目７番８号ＶＯＲＴ秋葉原ＩＶ２Ｆ,00140232,13,101,1010041,,,,,,,2025-08-12,1,,,,,ヤマフク,0
1843,8010003048292,新規,0,2025-08-12,2025-08-12,ネオスパーク合同会社,,合同会社,東京都,中央区,銀座１丁目２２番１１号,,13,102,1040061,,,,,,,2025-08-12,1,,,,,ネオスパーク,0
1844,8010003048301,新規,0,2025-08-12,2025-08-12,トーエーワークス合同会社,,合同会社,東京都,文京区,水道２丁目１３番１４号,,13,105,1120005,,,,,,,2025-08-12,1,,,,,トーエーワークス,0
1845,8010003048359,新規,0,2025-08-12,2025-08-12,Ｈ＆Ｗ合同会社,,合同会社,東京都,中央区,勝どき４丁目６番１－４０１５号,,13,102,1040054,,,,,,,2025-08-12,1,,,,,エイチアンドダブリュー,0
1863,8010401192361,新規,0,2025-08-12,2025-08-12,Ｔｒｉｄｅ株式会社,,株式会社,東京都,港区,虎ノ門５丁目９番１号,,13,103,1050001,,,,,,,2025-08-12,1,,,,,トライド,0
1864,8010401192386,新規,0,2025-08-12,2025-08-12,Ｆｏｒｅ　Ｏｎｅ　Ｆｉｖｅ株式会社,,株式会社,東京都,港区,元麻布３丁目１番６号,,13,103,1060046,,,,,,,2025-08-12,1,,,,,フォーワンファイブ,0
1867,8010403035816,新規,0,2025-08-12,2025-08-12,合同会社シルバー・マウンテン・マスターリース,,合同会社,東京都,港区,元赤坂１丁目１番７号,,13,103,1070051,,,,,,,2025-08-12,1,,,,,シルバーマウンテンマスターリース,0
1869,8010501054552,新規,0,2025-08-12,2025-08-12,株式会社ＳＯ１,,株式会社,東京都,台東区,蔵前２丁目５番４－４０１号,,13,106,1110051,,,,,,,2025-08-12,1,,,,,,0
1870,8010603011732,新規,0,2025-08-12,2025-08-12,合同会社Ｔ３,,合同会社,東京都,江東区,亀戸７丁目５９－２,,13,108,1360071,,,,,,,2025-08-12,1,,,,,ティースリー,0
1876,8010803005501,新規,0,2025-08-12,2025-08-12,合同会社ロンズ,,合同会社,東京都,大田区,千鳥２丁目１２番１号,,13,111,1460083,,,,,,,2025-08-12,1,,,,,ロンズ,0
1884,8011001171219,新規,0,2025-08-12,2025-08-12,ＲｉｖｅｒＭｅｒｇｅ　Ｃｏｎｓｕｌｔｉｎｇ株式会社,,株式会社,東京都,渋谷区,渋谷２丁目１９番１５号宮益坂ビルディング６０９,,13,113,1500002,,,,,,,2025-08-12,1,,,,,リバーマージコンサルティング,0
1885,8011001171268,新規,0,2025-08-12,2025-08-12,株式会社アップトゥユー,,株式会社,東京都,渋谷区,代々木１丁目２５番５号ＢＩＺＳＭＡＲＴ代々木２２４号室,,13,113,1510053,,,,,,,2025-08-12,1,,,,,アップトゥユー,0
1886,8011003022015,新規,0,2025-08-12,2025-08-12,Ｎａｔｅｒａ合同会社,,合同会社,東京都,渋谷区,神南１丁目１２番１４号渋谷宮田ビル６階,,13,113,1500041,,,,,,,2025-08-12,1,,,,,ナテラ,0
1888,8011101112568,新規,0,2025-08-12,2025-08-12,ＡＴＯ株式会社,,株式会社,東京都,新宿区,高田馬場３丁目４４番１２－３０３号,,13,104,1690075,,,,,,,2025-08-12,1,,,,,アト,0
1889,8011101112576,新規,0,2025-08-12,2025-08-12,株式会社ＴＫＪＰライブ商貿,,株式会社,東京都,新宿区,西新宿３丁目３番１３号西新宿水間ビル２Ｆ,,13,104,1600023,,,,,,,2025-08-12,1,,,,,ティーケージェーピーライブショウボウ,0
1890,8011101112592,新規,0,2025-08-12,2025-08-12,株式会社Ｎｅｘｃｙ,,株式会社,東京都,新宿区,四谷４丁目８－９－４０９,,13,104,1600004,,,,,,,2025-08-12,1,,,,,ネクシー,0
1894,8011103016172,新規,0,2025-08-12,2025-08-12,ノマド合同会社,,合同会社,東京都,新宿区,新宿１丁目３６番２号新宿第七葉山ビル３階,,13,104,1600022,,,,,,,2025-08-12,1,,,,,ノマド,0
1896,8011301030792,新規,0,2025-08-12,2025-08-12,株式会社ＪＵＩＣＥＦＵＬＬ＆ＣＯＭＰＡＮＹ,,株式会社,東京都,杉並区,高円寺南２丁目５０番１０－２０１号,,13,115,1660003,,,,,,,2025-08-12,1,,,,,ジュースフルアンドカンパニー,0
1910,8020001164231,新規,0,2025-08-12,2025-08-12,ネクスリー株式会社,,株式会社,神奈川県,横浜市戸塚区,小雀町１１８番地１,,14,110,2440004,,,,,,,2025-08-12,1,,,,,ネクスリー,0
1911,8020001164322,新規,0,2025-08-12,2025-08-12,株式会社しまや,,株式会社,神奈川県,川崎市川崎区,小川町１０番地１９,,14,131,2100023,,,,,,,2025-08-12,1,,,,,シマヤ,0
1912,8020001164339,新規,0,2025-08-12,2025-08-12,ＡＫＧ　Ｋａｎｔｏ株式会社,,株式会社,神奈川県,横浜市港北区,新横浜３丁目８番８号日総第１６ビル,,14,109,2220033,,,,,,,2025-08-12,1,,,,,エーケージーカントウ,0
1914,8020003029127,新規,0,2025-08-12,2025-08-12,トキワファイナンスファンド２号合同会社,,合同会社,神奈川県,横浜市港北区,新横浜３丁目１９－１１加瀬ビル８８－１００２,,14,109,2220033,,,,,,,2025-08-12,1,,,,,トキワファイナンスファンドニゴウ,0
1924,8030001168074,新規,0,2025-08-12,2025-08-12,株式会社Ｇリフォーム,,株式会社,埼玉県,さいたま市桜区,大字上大久保４２４番地３,,11,106,3380824,,,,,,,2025-08-12,1,,,,,ジーリフォーム,0
1925,8030001168082,新規,0,2025-08-12,2025-08-12,株式会社Ａｌｃｅｄｏ　Ｌｉｆｅ,,株式会社,埼玉県,さいたま市南区,辻１丁目２５－１５－２０３,00140233,11,108,3360026,,,,,,,2025-08-12,1,,,,,アルセドライフ,0
1926,8030001168149,新規,0,2025-08-12,2025-08-12,株式会社西鳳不動産,,株式会社,埼玉県,さいたま市北区,日進町２丁目１０８８－９管野ビル１階,,11,102,3310823,,,,,,,2025-08-12,1,,,,,サイホウフドウサン,0
1930,8030003027377,新規,0,2025-08-12,2025-08-12,合同会社Ｏｌｄｅ　Ｒｏｓｅ,,合同会社,埼玉県,東松山市,幸町１５番３５号ルネ東松山８０４,,11,212,3550025,,,,,,,2025-08-12,1,,,,,オルデローズ,0
1939,8040001139982,新規,0,2025-08-12,2025-08-12,株式会社ひとみ産業,,株式会社,千葉県,鴨川市,内浦２８２１番地１１,,12,223,2995502,,,,,,,2025-08-12,1,,,,,ヒトミサンギョウ,0
1940,8040001140098,新規,0,2025-08-12,2025-08-12,株式会社みやび,,株式会社,千葉県,八千代市,村上１８９１番地４１０,,12,221,2760028,,,,,,,2025-08-12,1,,,,,ミヤビ,0
1944,8040003028218,新規,0,2025-08-12,2025-08-12,ＵａｎｄＭ合同会社,,合同会社,千葉県,旭市,鎌数１０４９４番地６,,12,215,2892505,,,,,,,2025-08-12,1,,,,,ユアンドエム,0
1946,8050001057060,新規,0,2025-08-12,2025-08-12,株式会社Ｓｏｒａ　Ｊａｐａｎ,,株式会社,茨城県,つくば市,吾妻２丁目５番地１つくば市産業振興センター,,08,220,3050031,,,,,,,2025-08-12,1,,,,,ソラジャパン,0
1951,8070001043249,新規,0,2025-08-12,2025-08-12,株式会社五十嵐左官工業,,株式会社,群馬県,藤岡市,中１７１番地１１,,10,209,3750005,,,,,,,2025-08-12,1,,,,,イガラシサカンコウギョウ,0
1953,8070003006030,新規,0,2025-08-12,2025-08-12,エスガーデン合同会社,,合同会社,群馬県,藤岡市,森新田１７４番地１１号,,10,209,3750006,,,,,,,2025-08-12,1,,,,,エスガーデン,0
1959,8080101025682,新規,0,2025-08-12,2025-08-12,株式会社ウィルプロ,,株式会社,静岡県,伊東市,大原３丁目４－９,,22,208,4140046,,,,,,,2025-08-12,1,,,,,ウィルプロ,0
1979,8120001278194,新規,0,2025-08-12,2025-08-12,株式会社ＬＩＬＹ,,株式会社,大阪府,大阪市中央区,西心斎橋１丁目８番６号,,27,128,5420086,,,,,,,2025-08-12,1,,,,,リリー,0
1980,8120001278558,新規,0,2025-08-12,2025-08-12,奈恩株式会社,,株式会社,大阪府,大阪市東住吉区,北田辺４丁目６番８－２０１号,,27,121,5460044,,,,,,,2025-08-12,1,,,,,ナオン,0
1981,8120001278665,新規,0,2025-08-12,2025-08-12,平野タクシー株式会社,,株式会社,大阪府,大阪市平野区,西脇１丁目５番５号,,27,126,5470035,,,,,,,2025-08-12,1,,,,,ヒラノタクシー,0
1986,8120003030149,新規,0,2025-08-12,2025-08-12,七人の星野家合同会社,,合同会社,大阪府,大阪市東淀川区,豊新２丁目１１番５号マンハッタンヒルズ５０８号室,,27,114,5330014,,,,,,,2025-08-12,1,,,,,シチニンノホシノケ,0
1990,8120901051304,新規,0,2025-08-12,2025-08-12,株式会社編,,株式会社,大阪府,高槻市,真上町１丁目１－１８,,27,207,5691121,,,,,,,2025-08-12,1,,,,,イトトジ,0
1992,8122001039502,新規,0,2025-08-12,2025-08-12,株式会社武島鐵工,,株式会社,大阪府,八尾市,竹渕３丁目１５１番地,,27,212,5810052,,,,,,,2025-08-12,1,,,,,タケシマテッコウ,0
1993,8122001039510,新規,0,2025-08-12,2025-08-12,株式会社オージーホールディングス,,株式会社,大阪府,東大阪市,大蓮北４丁目８番２２号,,27,227,5770826,,,,,,,2025-08-12,1,,,,,オージーホールディングス,0
1994,8122001039519,新規,0,2025-08-12,2025-08-12,株式会社ティーワイワンワークス,,株式会社,大阪府,東大阪市,横枕西９番２９号５階,,27,227,5780956,,,,,,,2025-08-12,1,,,,,ティーワイワンワークス,0
1997,8140003022417,新規,0,2025-08-12,2025-08-12,合同会社エムケイプラン,,合同会社,兵庫県,姫路市,田寺５丁目７番４８号,,28,201,6700086,,,,,,,2025-08-12,1,,,,,エムケイプラン,0
1998,8150001028316,新規,0,2025-08-12,2025-08-12,エンカー株式会社,,株式会社,奈良県,奈良市,右京３丁目１３番地１－１０３号,,29,201,6310805,,,,,,,2025-08-12,1,,,,,エンカー,0
2001,8170003002267,新規,0,2025-08-12,2025-08-12,合同会社ＫＲＯＡ,,合同会社,和歌山県,和歌山市,畑屋敷西ノ丁７５番地２,,30,201,6408396,,,,,,,2025-08-12,1,,,,,カロア,0
2005,8180001167994,新規,0,2025-08-12,2025-08-12,株式会社七福,,株式会社,愛知県,名古屋市中村区,名駅３丁目４番１０号アルティメイト名駅１ｓｔ２階,,23,105,4500002,,,,,,,2025-08-12,1,,,,,シチフク,0
2006,8180001168035,新規,0,2025-08-12,2025-08-12,株式会社ＴＲＡＶＥＲＳＥ,,株式会社,愛知県,北名古屋市,西之保南若４５－５０６,,23,234,4810033,,,,,,,2025-08-12,1,,,,,トラバース,0
2007,8180001168043,新規,0,2025-08-12,2025-08-12,株式会社ＭＥＱＵＩＰ,,株式会社,愛知県,愛西市,大井町同所２４２番地１,,23,232,4960921,,,,,,,2025-08-12,1,,,,,メクイップ,0
2008,8180001168068,新規,0,2025-08-12,2025-08-12,株式会社宮内建設,,株式会社,愛知県,あま市,七宝町下之森屋敷６０９番地２,,23,237,4970006,,,,,,,2025-08-12,1,,,,,ミヤウチケンセツ,0
2009,8180001168084,新規,0,2025-08-12,2025-08-12,株式会社ミヤザワ板金,,株式会社,愛知県,名古屋市中川区,長須賀３丁目１３２１番地,,23,110,4540994,,,,,,,2025-08-12,1,,,,,ミヤザワバンキン,0
2010,8180001168159,新規,0,2025-08-12,2025-08-12,株式会社結,,株式会社,愛知県,名古屋市北区,上飯田北町２丁目２０番地の４,,23,103,4620802,,,,,,,2025-08-12,1,,,,,ムスビ,0
2012,8180005021173,新規,0,2025-08-12,2025-08-12,一般社団法人犬山共創レレレプロジェクト,,その他の設立登記法人,愛知県,犬山市,大字犬山字西古券４３番地３,,23,215,4840085,,,,,,,2025-08-12,1,,,,,イヌヤマキョウソウレレレプロジェクト,0
2017,8200001044134,新規,0,2025-08-12,2025-08-12,株式会社ＬａｂＱｕｉｃｋ,,株式会社,岐阜県,本巣市,上真桑２２５８番地１３９,,21,218,5010461,,,,,,,2025-08-12,1,,,,,ラボクイック,0
2027,8240001065358,新規,0,2025-08-12,2025-08-12,株式会社シンワ薬品,,株式会社,広島県,三原市,城町１丁目５番３号,,34,204,7230014,,,,,,,2025-08-12,1,,,,,シンワヤクヒン,0
2028,8240001065366,新規,0,2025-08-12,2025-08-12,株式会社キューセ,,株式会社,広島県,広島市安佐北区,口田１丁目１１番７－１０２号,,34,106,7391734,,,,,,,2025-08-12,1,,,,,キューセ,0
2037,8260001040433,新規,0,2025-08-12,2025-08-12,株式会社元気,,株式会社,岡山県,岡山市中区,清水１丁目１０番１２号,,33,102,7038243,,,,,,,2025-08-12,1,,,,,ゲンキ,0
2039,8260005011505,新規,0,2025-08-12,2025-08-12,医療法人社団萌真会,,その他の設立登記法人,岡山県,岡山市東区,目黒町２８番地３,,33,103,7048171,,,,,,,2025-08-12,1,,,,,ホウシンカイ,0
2041,8290001110935,新規,0,2025-08-12,2025-08-12,株式会社クラフテック,,株式会社,福岡県,福津市,西福間４丁目５番２８号,,40,224,8113219,,,,,,,2025-08-12,1,,,,,クラフテック,0
2042,8290001110943,新規,0,2025-08-12,2025-08-12,株式会社津村水産,,株式会社,福岡県,柳川市,大和町中島１８６６番地２,,40,207,8390254,,,,,,,2025-08-12,1,,,,,ツムラスイサン,0
2043,8290001111025,新規,0,2025-08-12,2025-08-12,Ｎｙｌｅ４株式会社,,株式会社,福岡県,久留米市,上津１丁目１０番３５号,,40,203,8300055,,,,,,,2025-08-12,1,,,,,ナイルフォー,0
2048,8290003017212,新規,0,2025-08-12,2025-08-12,合同会社ベスト．ワン,,合同会社,福岡県,福岡市東区,多々良２丁目１７番２－１号,,40,131,8130033,,,,,,,2025-08-12,1,,,,,ベストワン,0
2053,8330001033479,新規,0,2025-08-12,2025-08-12,ヤマブキエンジニアリング株式会社,,株式会社,熊本県,合志市,豊岡２４０２番地５２,,43,216,8611115,,,,,,,2025-08-12,1,,,,,ヤマブキエンジニアリング,0
2054,8330001033487,新規,0,2025-08-12,2025-08-12,株式会社シャイニング,,株式会社,熊本県,宇土市,松山町３９４１,,43,211,8690416,,,,,,,2025-08-12,1,,,,,シャイニング,0
2058,8360003015159,新規,0,2025-08-12,2025-08-12,Ｉｎｔｅｇｒｉｔｙ　Ｂａｓｅ合同会社,,合同会社,沖縄県,浦添市,仲西１丁目２番１号共和ビル３Ｂ,,47,208,9012125,,,,,,,2025-08-12,1,,,,,インテグリティベース,0
2059,8360003015167,新規,0,2025-08-12,2025-08-12,合同会社祥,,合同会社,沖縄県,浦添市,字経塚６３７番地,00140245,47,208,9012111,,,,,,,2025-08-12,1,,,,,サチ,0
2060,8370001052921,新規,0,2025-08-12,2025-08-12,株式会社Ｌｉｎｋ宮城,,株式会社,宮城県,白石市,大川町１１番６号,,04,206,9890254,,,,,,,2025-08-12,1,,,,,リンクミヤギ,0
2061,8370001052938,新規,0,2025-08-12,2025-08-12,株式会社トリドリー,,株式会社,宮城県,岩沼市,字朝日３５番地の６,,04,211,9892474,,,,,,,2025-08-12,1,,,,,トリドリー,0
2065,8380001035520,新規,0,2025-08-12,2025-08-12,株式会社ノバリスラボ,,株式会社,福島県,いわき市,平字五色町７８―１,,07,204,9708026,,,,,,,2025-08-12,1,,,,,ノバリスラボ,0
2075,8430001094924,新規,0,2025-08-12,2025-08-12,株式会社ＡＷＮ,,株式会社,北海道,苫小牧市,船見町１丁目２番１１号,,01,213,0530007,,,,,,,2025-08-12,1,,,,,エーダブルエヌ,0
2076,8430001094932,新規,0,2025-08-12,2025-08-12,株式会社ＭＩ　ＩＮＴＥＲＮＡＴＩＯＮＡＬ,,株式会社,北海道,石狩市,生振２９０－２１,,01,235,0613245,,,,,,,2025-08-12,1,,,,,エムアイインターナショナル,0
2077,8430001094973,新規,0,2025-08-12,2025-08-12,株式会社キタラボ,,株式会社,北海道,札幌市西区,琴似二条６丁目１番１５‐１６０２号,,01,107,0630812,,,,,,,2025-08-12,1,,,,,キタラボ,0
2078,8430001094981,新規,0,2025-08-12,2025-08-12,株式会社ピース,,株式会社,北海道,夕張郡栗山町,字三日月９４番地,,01,429,0691525,,,,,,,2025-08-12,1,,,,,ピース,0
2083,8460103001734,新規,0,2025-08-12,2025-08-12,合同会社ＹＴサービス,,合同会社,北海道,帯広市,西十七条南４０丁目１番地２,,01,207,0800027,,,,,,,2025-08-12,1,,,,,ワイティーサービス,0
2084,8460305002027,新規,0,2025-08-12,2025-08-12,一般社団法人ともにこＬａｂｏ,,その他の設立登記法人,北海道,北見市,北斗町３丁目３番１７号ハイツ井上２０１号,,01,208,0900035,,,,,,,2025-08-12,1,,,,,トモニコラボ,0
2087,8490001011130,新規,0,2025-08-12,2025-08-12,株式会社高知新聞山中販売所,,株式会社,高知県,土佐郡土佐町,田井４４６番地２,,39,363,7813521,,,,,,,2025-08-12,1,,,,,コウチシンブンヤマナカハンバイショ,0
2090,9010001257183,新規,0,2025-08-12,2025-08-12,エルタイド・インベストメント株式会社,,株式会社,東京都,千代田区,富士見２丁目１０－３パークコート千代田富士見ザタワー２８０１,,13,101,1020071,,,,,,,2025-08-12,1,,,,,エルタイドインベストメント,0
2091,9010001257415,新規,0,2025-08-12,2025-08-12,株式会社ミライタクト,,株式会社,東京都,中央区,日本橋蛎殻町１丁目２４－４井川ビル２Ｆ,,13,102,1030014,,,,,,,2025-08-12,1,,,,,ミライタクト,0
2092,9010001257472,新規,0,2025-08-12,2025-08-12,株式会社アドビフレスコ,,株式会社,東京都,中央区,日本橋兜町１７番１号日本橋ロイヤルプラザ７０６,,13,102,1030026,,,,,,,2025-08-12,1,,,,,アドビフレスコ,0
2093,9010001257480,新規,0,2025-08-12,2025-08-12,株式会社レグコンパス,,株式会社,東京都,中央区,日本橋兜町５番１号,,13,102,1030026,,,,,,,2025-08-12,1,,,,,レグコンパス,0
2094,9010001257489,新規,0,2025-08-12,2025-08-12,株式会社パンダ日和,,株式会社,東京都,千代田区,神田和泉町１番地６号１６番地ヤマトビル４０５,,13,101,1010024,,,,,,,2025-08-12,1,,,,,パンダビヨリ,0
2095,9010001257539,新規,0,2025-08-12,2025-08-12,スリーエスパートナーズ株式会社,,株式会社,東京都,千代田区,丸の内２丁目７番２号ＪＰタワー,,13,101,1000005,,,,,,,2025-08-12,1,,,,,スリーエスパートナーズ,0
2096,9010001257555,新規,0,2025-08-12,2025-08-12,株式会社ｆａｓｔ　ｃｏｎｓｕｌｔｉｎｇ　ｇｒｏｕｐ,,株式会社,東京都,中央区,日本橋３丁目７－７日本橋アーバンビルヂング４Ｆ,,13,102,1030027,,,,,,,2025-08-12,1,,,,,ファーストコンサルティンググループ,0
2097,9010001257571,新規,0,2025-08-12,2025-08-12,ＬＵコンサルティング株式会社,,株式会社,東京都,中央区,銀座８丁目９番１７号,,13,102,1040061,,,,,,,2025-08-12,1,,,,,エルユーコンサルティング,0
2098,9010001257588,新規,0,2025-08-12,2025-08-12,山佐ＫＬＭ９リース株式会社,,株式会社,東京都,千代田区,丸の内１丁目４番１号東京共同会計事務所内,,13,101,1000005,,,,,,,2025-08-12,1,,,,,ヤマサケイエルエムナインリース,0
2101,9010003048250,新規,0,2025-08-12,2025-08-12,合同会社ゆいまる,,合同会社,東京都,中央区,新川２丁目３０番１１号庄田ビル３０１号,,13,102,1040033,,,,,,,2025-08-12,1,,,,,ユイマル,0
2102,9010003048267,新規,0,2025-08-12,2025-08-12,ビガラス合同会社,,合同会社,東京都,千代田区,九段南１丁目５番６号りそな九段ビル５階ＫＳフロア,,13,101,1020074,,,,,,,2025-08-12,1,,,,,ビガラス,0
2103,9010003048291,新規,0,2025-08-12,2025-08-12,和興合同会社,,合同会社,東京都,千代田区,岩本町３丁目１０－７東自機ビル７Ｆ５０２室,,13,101,1010032,,,,,,,2025-08-12,1,,,,,ワキョウ,0
2108,9010005040503,新規,0,2025-08-12,2025-08-12,一般社団法人国際女子アウトドアスポーツ協会,,その他の設立登記法人,東京都,中央区,銀座１丁目２２番１１号銀座大竹ビジデンス２Ｆ,,13,102,1040061,,,,,,,2025-08-12,1,,,,,コクサイジョシアウトドアスポーツキョウカイ,0
2112,9010401190661,新規,0,2025-08-12,2025-08-12,株式会社ＬＧＨ,,株式会社,東京都,港区,南青山３丁目１番３６号青山丸竹ビル６Ｆ,,13,103,1070062,,,,,,,2025-08-12,1,,,,,エルジーエイチ,0
2113,9010401192352,新規,0,2025-08-12,2025-08-12,Ｍｏｎａｄｙｎｅ株式会社,,株式会社,東京都,港区,赤坂２丁目２１番４号天翔赤坂ＡＮＮＥＸビル５階５１４号室,,13,103,1070052,,,,,,,2025-08-12,1,,,,,モナダイン,0
2119,9010403035815,新規,0,2025-08-12,2025-08-12,合同会社シルバー・マウンテン,,合同会社,東京都,港区,元赤坂１丁目１番７号,,13,103,1070051,,,,,,,2025-08-12,1,,,,,シルバーマウンテン,0
2120,9010501054519,新規,0,2025-08-12,2025-08-12,株式会社Ｃｈｒｏｎｏｓ　Ｊａｐａｎ　Ｗａｔｃｈ,,株式会社,東京都,台東区,蔵前２丁目４－６ニューライフ蔵前７０３号室,,13,106,1110051,,,,,,,2025-08-12,1,,,,,クロノスジャパンウォッチ,0
2121,9010601067767,新規,0,2025-08-12,2025-08-12,株式会社フォーティー,,株式会社,東京都,江東区,大島３丁目１３番１号,,13,108,1360072,,,,,,,2025-08-12,1,,,,,フォーティー,0
2125,9010903010169,新規,0,2025-08-12,2025-08-12,合同会社Ｏｙｓｔｅｒ　Ｔｅｃｈ,,合同会社,東京都,世田谷区,弦巻４丁目２５番１４号,,13,112,1540016,,,,,,,2025-08-12,1,,,,,オイスターテック,0
2126,9010903010177,新規,0,2025-08-12,2025-08-12,Ｋｅｎｊａ　Ｐｒｏｊｅｃｔ　Ｊａｐａｎ合同会社,,合同会社,東京都,世田谷区,砧２丁目１８番６号,,13,112,1570073,,,,,,,2025-08-12,1,,,,,ケンジャプロジェクトジャパン,0
2129,9011001171531,新規,0,2025-08-12,2025-08-12,Ｌｅｘｅｅｄ株式会社,,株式会社,東京都,渋谷区,桜丘町１７番６号,,13,113,1500031,,,,,,,2025-08-12,1,,,,,レクシード,0
2132,9011003022121,新規,0,2025-08-12,2025-08-12,合同会社千田編集社,,合同会社,東京都,目黒区,自由が丘２丁目１６番１２号ＲＪ３,,13,110,1520035,,,,,,,2025-08-12,1,,,,,チダヘンシュウシャ,0
2135,9011101112468,新規,0,2025-08-12,2025-08-12,株式会社ＲＵＳＨＡＨ,,株式会社,東京都,新宿区,西新宿３丁目３番１３号西新宿水間ビル２Ｆ,,13,104,1600023,,,,,,,2025-08-12,1,,,,,ラッシャー,0
2136,9011101112518,新規,0,2025-08-12,2025-08-12,株式会社松波工務店,,株式会社,東京都,新宿区,左門町１４－６１フォルム四谷外苑東２０７,,13,104,1600017,,,,,,,2025-08-12,1,,,,,マツナミコウムテン,0
2137,9011101112526,新規,0,2025-08-12,2025-08-12,株式会社アドプライド,,株式会社,東京都,新宿区,西新宿３丁目３番１３号西新宿水間ビル２Ｆ,,13,104,1600023,,,,,,,2025-08-12,1,,,,,アドプライド,0
2138,9011101112583,新規,0,2025-08-12,2025-08-12,株式会社クラフル,,株式会社,東京都,新宿区,西新宿３丁目３番１３号西新宿水間ビル６階,,13,104,1600023,,,,,,,2025-08-12,1,,,,,クラフル,0
2139,9011101112699,新規,0,2025-08-12,2025-08-12,株式会社Ｏｌｉｖｅ　ｃｒｅａｔｉｏｎ,,株式会社,東京都,新宿区,市谷薬王寺町５番１０号ニュー金谷ビル１Ｆ,,13,104,1620063,,,,,,,2025-08-12,1,,,,,オリーブクリエイション,0
2140,9011101112716,新規,0,2025-08-12,2025-08-12,オーシャンウイング株式会社,,株式会社,東京都,新宿区,百人町２丁目５－４土屋ビル２Ｆ、ＬｉｎｋＳｐａｃｅ＋Ｎ０２号室,,13,104,1690073,,,,,,,2025-08-12,1,,,,,オーシャンウイング,0
2143,9011301030791,新規,0,2025-08-12,2025-08-12,株式会社Ｇｌｏｗ　ｕｐ　Ｕｎｉｏｎ,,株式会社,東京都,杉並区,和泉４丁目１８番３３号,,13,115,1680063,,,,,,,2025-08-12,1,,,,,グローアップユニオン,0
2144,9011303005668,新規,0,2025-08-12,2025-08-12,ＴＵＭＭＵＱ合同会社,,合同会社,東京都,杉並区,高円寺南２丁目１番１５－１０７号,,13,115,1660003,,,,,,,2025-08-12,1,,,,,トゥームック,0
2145,9011403004801,新規,0,2025-08-12,2025-08-12,合同会社ＡＷＪ,,合同会社,東京都,板橋区,南常盤台１丁目１１－６レフア南常盤台１０１号室,,13,119,1740072,,,,,,,2025-08-12,1,,,,,エーダブリュージェー,0
2148,9011501032415,新規,0,2025-08-12,2025-08-12,シンコーレザーホールディングス株式会社,,株式会社,東京都,荒川区,東日暮里４丁目１２番１号,,13,118,1160014,,,,,,,2025-08-12,1,,,,,シンコーレザーホールディングス,0
2149,9011501032431,新規,0,2025-08-12,2025-08-12,Ｋ．ＳＹ株式会社,,株式会社,東京都,北区,赤羽南１丁目３番７－２０３号,,13,117,1150044,,,,,,,2025-08-12,1,,,,,ケードットエスワイ,0
2153,9011803007008,新規,0,2025-08-12,2025-08-12,花とうるし合同会社,,合同会社,東京都,葛飾区,東四つ木２丁目１６番５－７０１号ライオンズマンション立石南,,13,122,1240014,,,,,,,2025-08-12,1,,,,,ハナトウルシ,0
2166,9020001164214,新規,0,2025-08-12,2025-08-12,ＦＬＡＧＳＴＡＦＦ株式会社,,株式会社,神奈川県,横浜市神奈川区,六角橋１丁目１６番８号,,14,102,2210802,,,,,,,2025-08-12,1,,,,,フラッグスタッフ,0
2167,9020001164379,新規,0,2025-08-12,2025-08-12,Ｋａｗａｓｈｉｍａ　Ｓｅｉｄｅｌ＆Ｃｏｍｐａｎｙ株式会社,,株式会社,神奈川県,横浜市都筑区,茅ケ崎東２丁目２４番１６号,,14,118,2240033,,,,,,,2025-08-12,1,,,,,カワシマサイデルアンドカンパニー,0
2169,9020003029126,新規,0,2025-08-12,2025-08-12,合同会社ＷｉＬＬｉｅｓ　ＬｉｆｅＳｈｉｆｔ,,合同会社,神奈川県,川崎市麻生区,五力田３丁目３番３７‐２号,,14,137,2150025,,,,,,,2025-08-12,1,,,,,ウィリーズライフシフト,0
2170,9020003029134,新規,0,2025-08-12,2025-08-12,合同会社ＮＹＹＫ,,合同会社,神奈川県,横浜市戸塚区,平戸３丁目５４番４３号,,14,110,2440802,,,,,,,2025-08-12,1,,,,,エヌワイワイケイ,0
2179,9021001086019,新規,0,2025-08-12,2025-08-12,株式会社Ｈｉ‐ｆｉｎ．,,株式会社,神奈川県,茅ヶ崎市,室田１丁目１５－５２ハイツカワバタ２０１号室,,14,207,2530018,,,,,,,2025-08-12,1,,,,,ハイフィン,0
2182,9030001168073,新規,0,2025-08-12,2025-08-12,株式会社ＡＤＹ　Ｐａｒｔｎｅｒｓ,,株式会社,埼玉県,川口市,川口５丁目１９番３９号,,11,203,3320015,,,,,,,2025-08-12,1,,,,,エイディーワイパートナーズ,0
2183,9030001168098,新規,0,2025-08-12,2025-08-12,カーテン倶楽部株式会社,,株式会社,埼玉県,越谷市,千間台東４丁目１４３７番地,,11,222,3430042,,,,,,,2025-08-12,1,,,,,カーテンクラブ,0
2184,9030001168148,新規,0,2025-08-12,2025-08-12,ソリッドプロダクション株式会社,,株式会社,埼玉県,所沢市,南住吉１９－８シャトー所沢３０３,,11,208,3591125,,,,,,,2025-08-12,1,,,,,ソリッドプロダクション,0
2193,9030003027376,新規,0,2025-08-12,2025-08-12,合同会社Ｇｒｅｅｎ　Ｌａｂ,,合同会社,埼玉県,東松山市,松葉町１丁目５－４,,11,212,3550017,,,,,,,2025-08-12,1,,,,,グリーンラボ,0
2201,9040001139932,新規,0,2025-08-12,2025-08-12,株式会社ｎｋｍ　Ｌｉｖｉｎｇ,,株式会社,千葉県,柏市,旭町１丁目１０番５号島根ビル,,12,217,2770852,,,,,,,2025-08-12,1,,,,,エヌケーエムリビング,0
2202,9040001139949,新規,0,2025-08-12,2025-08-12,ＰｌｅａｓｕｒｅＷｏｒｋｓ株式会社,,株式会社,千葉県,千葉市若葉区,貝塚町２０３５番地１６サンクレスト２０５,,12,104,2640023,,,,,,,2025-08-12,1,,,,,プレジャーワークス,0
2203,9040001139965,新規,0,2025-08-12,2025-08-12,株式会社ホームフロント,,株式会社,千葉県,千葉市緑区,おゆみ野中央９丁目１番地４９,,12,105,2660032,,,,,,,2025-08-12,1,,,,,ホームフロント,0
2204,9040001139973,新規,0,2025-08-12,2025-08-12,株式会社Ｓｅｖｅｎ,,株式会社,千葉県,船橋市,前原西２丁目１３番３号第１辰巳ビル５階,,12,204,2740825,,,,,,,2025-08-12,1,,,,,セブン,0
2209,9040003028010,新規,0,2025-08-12,2025-08-12,合同会社農サイド,,合同会社,千葉県,成田市,東峰１０９番地,,12,211,2860103,,,,,,,2025-08-12,1,,,,,,0
2210,9040003028217,新規,0,2025-08-12,2025-08-12,合同会社やもり,,合同会社,千葉県,浦安市,堀江４丁目９番２３号,,12,227,2790041,,,,,,,2025-08-12,1,,,,,ヤモリ,0
2211,9040003028225,新規,0,2025-08-12,2025-08-12,合同会社ＵＮＩ,,合同会社,千葉県,市原市,うるいど南１丁目２番地７,,12,219,2900170,,,,,,,2025-08-12,1,,,,,ウニ,0
2212,9040003028299,新規,0,2025-08-12,2025-08-12,大池サポート合同会社,,合同会社,千葉県,木更津市,東太田２丁目１５－１８,,12,206,2920043,,,,,,,2025-08-12,1,,,,,オオイケサポート,0
2213,9040003028308,新規,0,2025-08-12,2025-08-12,合同会社Ｅｄｇｅ　Ｃｏｍｍｏｎｓ,,合同会社,千葉県,長生郡白子町,剃金２７２０―２,,12,424,2994203,,,,,,,2025-08-12,1,,,,,エッジコモンズ,0
2218,9050003009488,新規,0,2025-08-12,2025-08-12,さとるんです合同会社,,合同会社,茨城県,土浦市,真鍋６丁目１３番８号マイシティライフ３番館１０１号室,,08,203,3000051,,,,,,,2025-08-12,1,,,,,サトルンデス,0
2226,9080001027076,新規,0,2025-08-12,2025-08-12,株式会社木村工業,,株式会社,静岡県,島田市,中溝町２４２８番地の１－１,,22,209,4270047,,,,,,,2025-08-12,1,,,,,キムラコウギョウ,0
2231,9090001019444,新規,0,2025-08-12,2025-08-12,株式会社サイトウ電工,,株式会社,山梨県,甲府市,上今井町８８１－１０２,,19,201,4000845,,,,,,,2025-08-12,1,,,,,サイトウデンコウ,0
2252,9120001278508,新規,0,2025-08-12,2025-08-12,奥田祥人株式会社,00140235,株式会社,大阪府,大阪市北区,大深町３番４０グランフロント大阪オーナーズタワー５０１号,,27,127,5300011,,,,,,,2025-08-12,1,,,,,オクダヨシト,0
2253,9120001278549,新規,0,2025-08-12,2025-08-12,株式会社ＫＴＲ,,株式会社,大阪府,枚方市,伊加賀北町５番１２号３階,,27,210,5730036,,,,,,,2025-08-12,1,,,,,ケイティーアール,0
2255,9120003030189,新規,0,2025-08-12,2025-08-12,合同会社ムーンループスタジオ,,合同会社,大阪府,大阪市中央区,久太郎町１丁目９番１０－５０１号,,27,128,5410056,,,,,,,2025-08-12,1,,,,,ムーンループスタジオ,0
2256,9120003030239,新規,0,2025-08-12,2025-08-12,ＫＮｅｘｕｓ合同会社,,合同会社,大阪府,大阪市北区,大淀北１丁目３番１８号カーサ梅田北２０３号室,,27,127,5310077,,,,,,,2025-08-12,1,,,,,ケイネクサス,0
2257,9120003030247,新規,0,2025-08-12,2025-08-12,大起商事合同会社,,合同会社,大阪府,大阪市平野区,瓜破西３丁目８番６号,,27,126,5470025,,,,,,,2025-08-12,1,,,,,ダイキショウジ,0
2270,9150001028323,新規,0,2025-08-12,2025-08-12,株式会社アジラボ,,株式会社,奈良県,生駒市,辻町９７番地ロイヤルアーク東生駒５０４,00140247,29,209,6300212,,,,,,,2025-08-12,1,,,,,アジラボ,0
2275,9180001168042,新規,0,2025-08-12,2025-08-12,株式会社内田建設,,株式会社,愛知県,春日井市,知多町１丁目１５７番地３,,23,206,4860947,,,,,,,2025-08-12,1,,,,,ウチダケンセツ,0
2276,9180001168050,新規,0,2025-08-12,2025-08-12,株式会社マシンワークス,,株式会社,愛知県,日進市,岩崎台２丁目６１２番地１,,23,230,4700135,,,,,,,2025-08-12,1,,,,,マシンワークス,0
2279,9180005021189,新規,0,2025-08-12,2025-08-12,一般社団法人ここかなら,,その他の設立登記法人,愛知県,名古屋市緑区,上旭１丁目９０１番地,,23,114,4580016,,,,,,,2025-08-12,1,,,,,ココカナラ,0
2283,9190001032461,新規,0,2025-08-12,2025-08-12,エイトマネージメント株式会社,,株式会社,三重県,松阪市,伊勢場町２０７番地,,24,204,5150213,,,,,,,2025-08-12,1,,,,,エイトマネージメント,0
2286,9200001044109,新規,0,2025-08-12,2025-08-12,株式会社ＤＩＸＩＡ,,株式会社,岐阜県,岐阜市,切通４丁目１６番２５号,,21,201,5008237,,,,,,,2025-08-12,1,,,,,ディクシア,0
2287,9200001044141,新規,0,2025-08-12,2025-08-12,ＮＡＯネイバーストック株式会社,,株式会社,岐阜県,関市,下有知３４５４番地２,,21,205,5013217,,,,,,,2025-08-12,1,,,,,ナオネイバーストック,0
2292,9200003006965,新規,0,2025-08-12,2025-08-12,Ｈａｐｐｉｎｅｓｓ　Ｂｌｏｏｍ合同会社,,合同会社,岐阜県,揖斐郡大野町,大字黒野１２９番地２,,21,403,5010521,,,,,,,2025-08-12,1,,,,,ハピネスブルーム,0
2294,9220001026864,新規,0,2025-08-12,2025-08-12,株式会社Ｋａｎａｚａｗａ　Ｔｏｗｎｓｃａｐｅ,,株式会社,石川県,金沢市,春日町４番２２号,,17,201,9200817,,,,,,,2025-08-12,1,,,,,カナザワタウンスケープ,0
2298,9230003002474,新規,0,2025-08-12,2025-08-12,Ｂｅ　ｈａｐｐｉｎｅｓｓ合同会社,,合同会社,富山県,富山市,布瀬本町１０番地６,,16,201,9398207,,,,,,,2025-08-12,1,,,,,ビーハピネス,0
2303,9240003007349,新規,0,2025-08-12,2025-08-12,おばら石材合同会社,,合同会社,広島県,広島市安佐北区,白木町秋山５７４－１,,34,106,7391700,,,,,,,2025-08-12,1,,,,,オバラセキザイ,0
2305,9250001021292,新規,0,2025-08-12,2025-08-12,株式会社シン,,株式会社,山口県,下関市,豊浦町大字川棚２４８０番地,,35,201,7596301,,,,,,,2025-08-12,1,,,,,シン,0
2310,9260005011504,新規,0,2025-08-12,2025-08-12,一般社団法人プロジェット・モーダ,,その他の設立登記法人,岡山県,岡山市南区,万倍１５番地９,,33,104,7000955,,,,,,,2025-08-12,1,,,,,プロジェットモーダ,0
2317,9290001110975,新規,0,2025-08-12,2025-08-12,Ｄ．Ｏ．ＩＴ日本株式会社,,株式会社,福岡県,福岡市中央区,春吉３丁目１６番８号,,40,133,8100003,,,,,,,2025-08-12,1,,,,,ディーオーアイティーニホン,0
2320,9310005008866,新規,0,2025-08-12,2025-08-12,特定非営利活動法人対馬たんぽぽの会,,その他の設立登記法人,長崎県,対馬市,豊玉町仁位１１８０番地,,42,209,8171201,,,,,,,2025-08-12,1,,,,,ツシマタンポポノカイ,0
2321,9320001021260,新規,0,2025-08-12,2025-08-12,ＡＫＵＲＡＨ株式会社,,株式会社,大分県,中津市,沖代町２丁目６番２１号,,44,203,8710021,,,,,,,2025-08-12,1,,,,,アクレイ,0
2322,9320001021269,新規,0,2025-08-12,2025-08-12,株式会社山成,,株式会社,大分県,臼杵市,大字戸室６３４番地の１,,44,206,8750051,,,,,,,2025-08-12,1,,,,,サンセイ,0
2323,9320001021277,新規,0,2025-08-12,2025-08-12,株式会社シェリール・リアン,,株式会社,大分県,大分市,大字勢家１０９８番地の２７７,,44,201,8700100,,,,,,,2025-08-12,1,,,,,シェリールリアン,0
2327,9330001033478,新規,0,2025-08-12,2025-08-12,株式会社英友,,株式会社,熊本県,八代市,鏡町鏡１１５９番地１２,,43,202,8694203,,,,,,,2025-08-12,1,,,,,エイユウ,0
2333,9360003015166,新規,0,2025-08-12,2025-08-12,合同会社ＯＮＥ　ＢＩＬＬＩＯＮ,,合同会社,沖縄県,石垣市,字平得１３５番地２,,47,207,9070003,,,,,,,2025-08-12,1,,,,,ワンビリオン,0
2336,9370001052937,新規,0,2025-08-12,2025-08-12,ＤＩＣＥ株式会社,,株式会社,宮城県,柴田郡柴田町,東船迫２丁目１番地８Ｇ棟,,04,323,9891631,,,,,,,2025-08-12,1,,,,,ディーアイシーイー,0
2342,9400003003521,新規,0,2025-08-12,2025-08-12,合同会社ＬＹＣＯＲＩＳ,,合同会社,岩手県,盛岡市,清水町１２番１０－１４０２号,,03,201,0200875,,,,,,,2025-08-12,1,,,,,リコリス,0
2352,9430001094956,新規,0,2025-08-12,2025-08-12,株式会社Ｌｅｇａｃｙ　ｆｏｒ　Ｆｕｔｕｒｅ,,株式会社,北海道,札幌市白石区,東札幌一条２丁目２番３１－２０１号,,01,104,0030001,,,,,,,2025-08-12,1,,,,,レガシーフォーフューチャー,0
2358,9430003017956,新規,0,2025-08-12,2025-08-12,点と線合同会社,,合同会社,北海道,札幌市中央区,南七条西９丁目１０２４番地４２,,01,101,0640807,,,,,,,2025-08-12,1,,,,,テントセン,0
2359,9430003017997,新規,0,2025-08-12,2025-08-12,旧羽幌オロロンＣＣ土地管理合同会社,,合同会社,北海道,札幌市白石区,北郷八条３丁目３番２２号,,01,104,0030838,,,,,,,2025-08-12,1,,,,,キュウハボロオロロンシーシートチカンリ,0
2364,9500001026464,新規,0,2025-08-12,2025-08-12,アイエス地所株式会社,,株式会社,愛媛県,松山市,石手４丁目３番３号,,38,201,7900852,,,,,,,2025-08-12,1,,,,,アイエスジショ,0
