sequenceNumber,corporateNumber,process,correct,updateDate,changeDate,name,nameImageId,kind,prefectureName,cityName,streetNumber,addressImageId,prefectureCode,cityCode,postCode,addressOutside,addressOutsideImageId,closeDate,closeCause,successorCorporateNumber,changeCause,assignmentDate,latest,enName,enPrefectureName,enCityName,enAddressOutside,furigana,hihyoji
8,1010001258404,新規,0,2025-09-25,2025-09-25,株式会社ＭＥＬ,,株式会社,東京都,中央区,勝どき４丁目６番２－４０２５号,,13,102,1040054,,,,,,,2025-09-25,1,,,,,メル,0
9,1010001258494,新規,0,2025-09-25,2025-09-25,株式会社松濤坊,,株式会社,東京都,千代田区,富士見１丁目３番１１号富士見デュープレックスＢ‘ｓ４階,,13,101,1020071,,,,,,,2025-09-25,1,,,,,ショウトウボウ,0
10,1010001258536,新規,0,2025-09-25,2025-09-25,株式会社中央開発,,株式会社,東京都,中央区,湊３丁目１３番１０号２０３号室,,13,102,1040043,,,,,,,2025-09-25,1,,,,,チュウオウカイハツ,0
11,1010001258552,新規,0,2025-09-25,2025-09-25,不動産ソリューションサポート株式会社,,株式会社,東京都,千代田区,神田駿河台２丁目１番１９号アルベルゴ御茶ノ水１１１８号室,,13,101,1010062,,,,,,,2025-09-25,1,,,,,フドウサンソリューションサポート,0
12,1010001258635,新規,0,2025-09-25,2025-09-25,Ｒａｙｐｏｒｔ　Ａｄｖｉｓｏｒｙ株式会社,,株式会社,東京都,中央区,八丁堀４丁目１番３号宝町ＴＡＴＳＵＭＩビル７階,,13,102,1040032,,,,,,,2025-09-25,1,,,,,レイポートアドバイザリー,0
13,1010003048720,新規,0,2025-09-25,2025-09-25,ガンダルフ合同会社,,合同会社,東京都,中央区,日本橋人形町１丁目１２－１１－２６０７,,13,102,1030013,,,,,,,2025-09-25,1,,,,,ガンダルフ,0
14,1010003048794,新規,0,2025-09-25,2025-09-25,合同会社ＧＩ,,合同会社,東京都,中央区,日本橋室町１丁目１１番１２号日本橋水野ビル７階,,13,102,1030022,,,,,,,2025-09-25,1,,,,,ジーアイ,0
15,1010003048844,新規,0,2025-09-25,2025-09-25,合同会社吹雪,,合同会社,東京都,文京区,小石川４丁目１６番９－８０３号,,13,105,1120002,,,,,,,2025-09-25,1,,,,,フブキ,0
23,1010401193333,新規,0,2025-09-25,2025-09-25,株式会社エゾノスワン,,株式会社,東京都,港区,北青山１丁目３－３三橋ビル３階,,13,103,1070061,,,,,,,2025-09-25,1,,,,,エゾノスワン,0
25,1010405024807,新規,0,2025-09-25,2025-09-25,一般社団法人エーエスエー・ジーイレブン,,その他の設立登記法人,東京都,港区,虎ノ門３丁目２２番１０－２０１号,,13,103,1050001,,,,,,,2025-09-25,1,,,,,エーエスエージーイレブン,0
27,1010701048344,新規,0,2025-09-25,2025-09-25,ＹＦＭ株式会社,,株式会社,東京都,品川区,西五反田８丁目１番１１－１３０１号,,13,109,1410031,,,,,,,2025-09-25,1,,,,,ワイエフエム,0
28,1010701048352,新規,0,2025-09-25,2025-09-25,ＭＡＲＩＮＥＸＵＳ株式会社,,株式会社,東京都,品川区,上大崎２丁目２４番１３号目黒西口マンション１号館３０３号室,,13,109,1410021,,,,,,,2025-09-25,1,,,,,マリネクサス,0
36,1011001172215,新規,0,2025-09-25,2025-09-25,株式会社ｋｅｅｅ‐ｊｐ,,株式会社,東京都,渋谷区,円山町５番３号ＭＩＥＵＸ渋谷ビル８階,,13,113,1500044,,,,,,,2025-09-25,1,,,,,ケージェーピー,0
37,1011001172223,新規,0,2025-09-25,2025-09-25,株式会社エン・ソース,,株式会社,東京都,渋谷区,笹塚１丁目６０－７－３０１,,13,113,1510073,,,,,,,2025-09-25,1,,,,,エンソース,0
38,1011001172470,新規,0,2025-09-25,2025-09-25,Ｏ２株式会社,,株式会社,東京都,渋谷区,神南１丁目１２－１４渋谷宮田ビル６１０,,13,113,1500041,,,,,,,2025-09-25,1,,,,,オーツー,0
43,1011003022418,新規,0,2025-09-25,2025-09-25,８８６８１合同会社,,合同会社,東京都,渋谷区,富ヶ谷１丁目１４番１４号スタンフォードアネックスビル３Ｆ,,13,113,1510063,,,,,,,2025-09-25,1,,,,,ハチハチロクハチイチ,0
45,1011101113234,新規,0,2025-09-25,2025-09-25,株式会社ＦｅｅｌＣｏｄｅＬａｂ,,株式会社,東京都,新宿区,若宮町３１－２市ケ谷若宮町ローヤルコーポ２０６号,,13,104,1620827,,,,,,,2025-09-25,1,,,,,フィールコードラボ,0
46,1011101113366,新規,0,2025-09-25,2025-09-25,東京沛日テック株式会社,,株式会社,東京都,新宿区,下宮比町２－２８－１１１４,,13,104,1620822,,,,,,,2025-09-25,1,,,,,トウキョウパイリテック,0
47,1011101113382,新規,0,2025-09-25,2025-09-25,株式会社３９ＴＯＫＹＯ,,株式会社,東京都,新宿区,北新宿３丁目５番１３号関根ビル１０１,,13,104,1690074,,,,,,,2025-09-25,1,,,,,サンキュートウキョウ,0
48,1011103016393,新規,0,2025-09-25,2025-09-25,アレックスシールド合同会社,,合同会社,東京都,新宿区,北新宿４丁目３５番２－３０６号,,13,104,1690074,,,,,,,2025-09-25,1,,,,,アレックスシールド,0
49,1011301030915,新規,0,2025-09-25,2025-09-25,株式会社ＡＴＨ,,株式会社,東京都,杉並区,西荻南３丁目８―２サニーサイド９０１,,13,115,1670053,,,,,,,2025-09-25,1,,,,,エーティーエイチ,0
52,1011501032604,新規,0,2025-09-25,2025-09-25,日本淞町製薬株式会社,,株式会社,東京都,荒川区,南千住３丁目２７－２浅草ビル５０８,,13,118,1160003,,,,,,,2025-09-25,1,,,,,ニホンショウマチセイヤク,0
58,1011801046782,新規,0,2025-09-25,2025-09-25,海利成株式会社,,株式会社,東京都,葛飾区,堀切７丁目２７－７名橋ビル２０４号室,,13,122,1240006,,,,,,,2025-09-25,1,,,,,カイリセイ,0
66,1013103001490,新規,0,2025-09-25,2025-09-25,合同会社コネクト,,合同会社,東京都,青梅市,仲町２７２－１,,13,205,1980082,,,,,,,2025-09-25,1,,,,,コネクト,0
77,1020001164907,新規,0,2025-09-25,2025-09-25,株式会社あかつき,,株式会社,神奈川県,横浜市戸塚区,小雀町９５０番地,,14,110,2440004,,,,,,,2025-09-25,1,,,,,アカツキ,0
82,1021003016583,新規,0,2025-09-25,2025-09-25,ウサラボ合同会社,,合同会社,神奈川県,茅ヶ崎市,幸町１６番２１号,,14,207,2530052,,,,,,,2025-09-25,1,,,,,ウサラボ,0
83,1021003016600,新規,0,2025-09-25,2025-09-25,Ｙａｓｕｍｕｒｏ　Ａｃｃｏｕｎｔｉｎｇ合同会社,,合同会社,神奈川県,相模原市緑区,相原１丁目２番７号,,14,151,2520141,,,,,,,2025-09-25,1,,,,,ヤスムロアカウンティング,0
94,1030003027664,新規,0,2025-09-25,2025-09-25,合同会社アストラムトイズ,,合同会社,埼玉県,越谷市,相模町５丁目３２７―１―１０１号室,,11,222,3430823,,,,,,,2025-09-25,1,,,,,アストラムトイズ,0
103,1040001140567,新規,0,2025-09-25,2025-09-25,＿祥株式会社,00140786,株式会社,千葉県,鎌ケ谷市,南鎌ケ谷１丁目８番２７号,,12,224,2730106,,,,,,,2025-09-25,1,,,,,イクショウ,0
104,1040001140600,新規,0,2025-09-25,2025-09-25,株式会社新宝,,株式会社,千葉県,船橋市,藤原４丁目４番１７号,,12,204,2730047,,,,,,,2025-09-25,1,,,,,シンボウ,0
105,1040001140617,新規,0,2025-09-25,2025-09-25,株式会社ＮＹ,,株式会社,千葉県,市川市,行徳駅前１丁目７番３－２１２号,,12,203,2720133,,,,,,,2025-09-25,1,,,,,エヌワイ,0
108,1040003028513,新規,0,2025-09-25,2025-09-25,ｘ２ｓ合同会社,,合同会社,千葉県,我孫子市,天王台３丁目３０番２号,,12,222,2701143,,,,,,,2025-09-25,1,,,,,エックストゥエス,0
112,1060005010376,新規,0,2025-09-25,2025-09-25,医療法人社団ＲＩＣＫ啓匠会,,その他の設立登記法人,栃木県,宇都宮市,平出町４０６７番地８,,09,201,3210901,,,,,,,2025-09-25,1,,,,,リックケイショウカイ,0
113,1070001043370,新規,0,2025-09-25,2025-09-25,株式会社ＧＲＯＷ,,株式会社,群馬県,高崎市,本町１６０番地１,,10,202,3700813,,,,,,,2025-09-25,1,,,,,グロウ,0
114,1080103003429,新規,0,2025-09-25,2025-09-25,合同会社サニテック,,合同会社,静岡県,御殿場市,神山１６３９－４４,,22,215,4120033,,,,,,,2025-09-25,1,,,,,サニテック,0
117,1080405007763,新規,0,2025-09-25,2025-09-25,医療法人社団優麦会,,その他の設立登記法人,静岡県,浜松市浜名区,東美薗６７８番地,,22,139,4340026,,,,,,,2025-09-25,1,,,,,ユウムギカイ,0
118,1090001019518,新規,0,2025-09-25,2025-09-25,株式会社ブレインパートナーズ,,株式会社,山梨県,甲斐市,西八幡２３００番地２,,19,210,4000117,,,,,,,2025-09-25,1,,,,,ブレインパートナーズ,0
129,1120001279851,新規,0,2025-09-25,2025-09-25,おさむらホールディングス株式会社,,株式会社,大阪府,寝屋川市,石津南町３番４４－４０３号,,27,215,5720024,,,,,,,2025-09-25,1,,,,,オサムラホールディングス,0
130,1120001279892,新規,0,2025-09-25,2025-09-25,ＯＮＥＭＡＫＥ　ＬＯＧＩＳＴＩＣＳ株式会社,,株式会社,大阪府,大阪市東成区,深江南１丁目６番１１号,,27,115,5370002,,,,,,,2025-09-25,1,,,,,ワンメイクロジスティクス,0
131,1120001279926,新規,0,2025-09-25,2025-09-25,富生株式会社,,株式会社,大阪府,大阪市中央区,南久宝寺町１丁目６番１５－５０２号室,,27,128,5410058,,,,,,,2025-09-25,1,,,,,トミセイ,0
132,1120001279950,新規,0,2025-09-25,2025-09-25,株式会社Ｖｏｒｔｅｘ　ｃｏｒｅ,,株式会社,大阪府,大阪市中央区,道修町２丁目１番１０号Ｔ・Ｍ・Ｂ道修町ビル３階,,27,128,5410045,,,,,,,2025-09-25,1,,,,,ヴォルテックスコア,0
133,1120001280025,新規,0,2025-09-25,2025-09-25,株式会社ライズリアルティ,,株式会社,大阪府,大阪市西区,江之子島１丁目７番３－１４０３号,,27,106,5500006,,,,,,,2025-09-25,1,,,,,ライズリアルティ,0
134,1120001280116,新規,0,2025-09-25,2025-09-25,宙明株式会社,,株式会社,大阪府,大阪市生野区,巽南１丁目１４番２７号１０１号室,00140782,27,116,5440015,,,,,,,2025-09-25,1,,,,,チュウメイ,0
135,1120001280289,新規,0,2025-09-25,2025-09-25,盛田株式会社,,株式会社,大阪府,大阪市西成区,天下茶屋２丁目２０番１６－３０４号室,,27,122,5570014,,,,,,,2025-09-25,1,,,,,モリタ,0
136,1120003030816,新規,0,2025-09-25,2025-09-25,合同会社紬,,合同会社,大阪府,大阪市浪速区,稲荷１丁目１０－２８－５０１号,,27,111,5560023,,,,,,,2025-09-25,1,,,,,ツムギ,0
143,1120103006716,新規,0,2025-09-25,2025-09-25,合同会社Ｆｏｒｅｓｔ　Ｉｓｌａｎｄ　Ｄｉｎｉｎｇ,,合同会社,大阪府,泉佐野市,鶴原１７８５番地の２（２０５）,,27,213,5980071,,,,,,,2025-09-25,1,,,,,フォレストアイランドダイニング,0
144,1120901051533,新規,0,2025-09-25,2025-09-25,株式会社Ｍ＆Ｎ,,株式会社,大阪府,高槻市,芥川町２丁目１５番７号,,27,207,5691123,,,,,,,2025-09-25,1,,,,,エムアンドエヌ,0
147,1122001039657,新規,0,2025-09-25,2025-09-25,岩原商事株式会社,,株式会社,大阪府,東大阪市,吉田７丁目１番１６号ニッシンハイツ３０４,,27,227,5780924,,,,,,,2025-09-25,1,,,,,イワハラショウジ,0
148,1122003003314,新規,0,2025-09-25,2025-09-25,合同会社ＮｉＲＡｉ,,合同会社,大阪府,八尾市,楠根町２丁目１２番地の１８,,27,212,5810814,,,,,,,2025-09-25,1,,,,,ニライ,0
162,1160005011439,新規,0,2025-09-25,2025-09-25,一般社団法人ホロソフィー,,その他の設立登記法人,滋賀県,大津市,仰木の里東１丁目６番１号,,25,201,5200248,,,,,,,2025-09-25,1,,,,,ホロソフィー,0
168,1180001168735,新規,0,2025-09-25,2025-09-25,ＪＡＶＥＤ　ＭＯＴＯＲＳ　ＪＡＰＡＮ株式会社,,株式会社,愛知県,名古屋市港区,宝神２丁目２３０４番地１コーポ稲栄南棟３－Ｃ,,23,111,4550832,,,,,,,2025-09-25,1,,,,,ジャヴェードモータースジャパン,0
169,1180001168743,新規,0,2025-09-25,2025-09-25,株式会社セグレート,,株式会社,愛知県,名古屋市中川区,小本本町３丁目８１番地の２,,23,110,4540826,,,,,,,2025-09-25,1,,,,,セグレート,0
173,1180303006733,新規,0,2025-09-25,2025-09-25,Ｍｏｎｓｏｏｎ　Ｉｎｔｅｒｎａｔｉｏｎａｌ合同会社,,合同会社,愛知県,刈谷市,中山町４丁目４４－３,,23,210,4480026,,,,,,,2025-09-25,1,,,,,モンスーンインターナショナル,0
180,1230001021095,新規,0,2025-09-25,2025-09-25,ＫＳ　ＴＲＡＤＩＮＧ株式会社,,株式会社,富山県,滑川市,柴１５４２番地,,16,206,9360841,,,,,,,2025-09-25,1,,,,,ケーエストレーディング,0
192,1290001111469,新規,0,2025-09-25,2025-09-25,株式会社ＴＫＧ,,株式会社,福岡県,福岡市中央区,天神４丁目６番２８号いちご天神ノースビル７階,,40,133,8100001,,,,,,,2025-09-25,1,,,,,ティーケージー,0
193,1290001111485,新規,0,2025-09-25,2025-09-25,株式会社クレ・ホールディングス,,株式会社,福岡県,福岡市中央区,天神３丁目９番２６号,,40,133,8100001,,,,,,,2025-09-25,1,,,,,クレホールディングス,0
194,1290001111493,新規,0,2025-09-25,2025-09-25,株式会社Ｃｏｍｍｉｔ　Ｐｌｕｓ,,株式会社,福岡県,福岡市博多区,博多駅前１丁目２３番２号,,40,132,8120011,,,,,,,2025-09-25,1,,,,,コミットプラス,0
195,1290001111592,新規,0,2025-09-25,2025-09-25,株式会社ＰＩＴＣＲＥＷ,,株式会社,福岡県,福岡市城南区,友丘１丁目８番７号,,40,136,8140112,,,,,,,2025-09-25,1,,,,,ピットクルー,0
199,1290003017441,新規,0,2025-09-25,2025-09-25,ナマステゴルカ合同会社,,合同会社,福岡県,宗像市,くりえいと３丁目４番８号,,40,220,8114184,,,,,,,2025-09-25,1,,,,,ナマステゴルカ,0
200,1290801031874,新規,0,2025-09-25,2025-09-25,ＳＨグループ株式会社,,株式会社,福岡県,北九州市小倉北区,足立２丁目８番４１－４０６号,,40,106,8020042,,,,,,,2025-09-25,1,,,,,エスエイチグループ,0
202,1310005008873,新規,0,2025-09-25,2025-09-25,特定非営利活動法人山の学校,,その他の設立登記法人,長崎県,西海市,大島町１９１９番２号,,42,212,8572427,,,,,,,2025-09-25,1,,,,,ヤマノガッコウ,0
203,1320003004774,新規,0,2025-09-25,2025-09-25,合同会社Ｒｅｅｖｏ,,合同会社,大分県,大分市,政所１丁目２番１０号ＰＲＩＮＣＥＩＩＦ,00140784,44,201,8700268,,,,,,,2025-09-25,1,,,,,リーボ,0
213,1360003015248,新規,0,2025-09-25,2025-09-25,合同会社花丸,,合同会社,沖縄県,沖縄市,字知花２９０２番地１,,47,211,9042143,,,,,,,2025-09-25,1,,,,,ハナマル,0
214,1360005007292,新規,0,2025-09-25,2025-09-25,一般社団法人うみそら,,その他の設立登記法人,沖縄県,浦添市,安波茶１丁目３２番１４号福地ビル１０２号室,,47,208,9012114,,,,,,,2025-09-25,1,,,,,ウミソラ,0
216,1400005008518,新規,0,2025-09-25,2025-09-25,医療法人ＭＭＣ,,その他の設立登記法人,岩手県,北上市,鬼柳町荒高３５番地１,,03,206,0240056,,,,,,,2025-09-25,1,,,,,エムエムシー,0
233,1490003002051,新規,0,2025-09-25,2025-09-25,ラッキース合同会社,,合同会社,高知県,高知市,愛宕町３丁目１０－１８イッケイあたごビル２０２,,39,201,7800051,,,,,,,2025-09-25,1,,,,,ラッキース,0
235,1700150132356,新規,0,2025-09-25,2025-09-25,ｚｈａｎｇ　ｚｈｏｕ　ａｉ　ｒｕｉ　ｋｅ　ｄｉａｎ　ｚｉ　ｋｅｊｉ　ｙｏｕ　ｘｉａｎ　ｇｏｎｇ　ｓｉ,,外国会社等,,,,,,,,Ｒｏｏｍ　Ｂ５０４，Ｂｕｉｌｄｉｎｇ　３，Ｃｈｅｎｇｔｏｕ　Ｂｉｈｕ　Ｃｉｔｙ　Ｓｑｕａｒｅ，Ｎｏ．１　Ｈｕｂｉｎ　Ｒｏａｄ，Ｌｏｎｇｗｅｎ　Ｄｉｓｔｒｉｃｔ，Ｚｈａｎｇｚｈｏｕ　Ｃｉｔｙ，Ｆｕｊｉａｎ　Ｐｒｏｖｉｎｃｅ　３６３０３０　ＣＮ,,,,,,2025-09-25,1,,,,,チャンヂョウアイルイクーディエンヅークージーヨウシェンゴンスー,0
253,2010003048760,新規,0,2025-09-25,2025-09-25,ウランバートルアセットマネジメントジャパン合同会社,,合同会社,東京都,千代田区,大手町１丁目５番１号大手町ファーストスクエアイーストタワー４階,,13,101,1000004,,,,,,,2025-09-25,1,,,,,ウランバートルアセットマネジメントジャパン,0
262,2010401192862,新規,0,2025-09-25,2025-09-25,株式会社ＭＳＪ商会,,株式会社,東京都,港区,六本木１丁目９番１８－２０１０号,,13,103,1060032,,,,,,,2025-09-25,1,,,,,エムエスジェイショウカイ,0
263,2010401193051,新規,0,2025-09-25,2025-09-25,株式会社タレントワークス,,株式会社,東京都,港区,南青山３丁目３番３号リビエラ南青山ビルＡ館４Ｆ,,13,103,1070062,,,,,,,2025-09-25,1,,,,,タレントワークス,0
264,2010401193241,新規,0,2025-09-25,2025-09-25,株式会社ＬＩＭＭＥ,,株式会社,東京都,港区,麻布十番２丁目１９番４号３Ｆ,,13,103,1060045,,,,,,,2025-09-25,1,,,,,リム,0
266,2010403036076,新規,0,2025-09-25,2025-09-25,合同会社モノクロームシステムズ,,合同会社,東京都,港区,新橋６丁目１６番８号ＳＡＮＰＵビル４Ｆ,,13,103,1050004,,,,,,,2025-09-25,1,,,,,モノクロームシステムズ,0
273,2010803005531,新規,0,2025-09-25,2025-09-25,リフランド合同会社,,合同会社,東京都,大田区,大森北１丁目１１－１０コンドミニアム大森１０１号,,13,111,1430016,,,,,,,2025-09-25,1,,,,,リフランド,0
281,2011101113209,新規,0,2025-09-25,2025-09-25,株式会社アップサポート,,株式会社,東京都,新宿区,高田馬場１丁目２０番７号スワコモンズ１０７,,13,104,1690075,,,,,,,2025-09-25,1,,,,,アップサポート,0
282,2011101113365,新規,0,2025-09-25,2025-09-25,株式会社昇華,,株式会社,東京都,新宿区,下宮比町２番２８号,,13,104,1620822,,,,,,,2025-09-25,1,,,,,ショウカ,0
286,2011201026665,新規,0,2025-09-25,2025-09-25,和陽堂株式会社,,株式会社,東京都,中野区,鷺宮４丁目５番６号,,13,114,1650032,,,,,,,2025-09-25,1,,,,,ワヨウドウ,0
287,2011203004826,新規,0,2025-09-25,2025-09-25,ｆｌｏｗ合同会社,,合同会社,東京都,中野区,新井１丁目３番３号６Ｆ,,13,114,1650026,,,,,,,2025-09-25,1,,,,,フロウ,0
288,2011301030914,新規,0,2025-09-25,2025-09-25,株式会社こもれび,,株式会社,東京都,杉並区,善福寺２丁目３番１２号,,13,115,1670041,,,,,,,2025-09-25,1,,,,,コモレビ,0
303,2012703003375,新規,0,2025-09-25,2025-09-25,合同会社レイクリエイト,,合同会社,東京都,小平市,上水本町２丁目８番２８号,,13,211,1870022,,,,,,,2025-09-25,1,,,,,レイクリエイト,0
304,2012801024265,新規,0,2025-09-25,2025-09-25,ＭＩＲＡＩアセットマネジメント株式会社,,株式会社,東京都,昭島市,美堀町１丁目２番７７－５０１号,,13,207,1960001,,,,,,,2025-09-25,1,,,,,ミライアセットマネジメント,0
305,2012803003878,新規,0,2025-09-25,2025-09-25,Ｏｒｏｌｉｏ合同会社,,合同会社,東京都,日野市,平山４丁目６番地の３４,,13,212,1910043,,,,,,,2025-09-25,1,,,,,オロリオ,0
322,2030001168724,新規,0,2025-09-25,2025-09-25,株式会社Ｄｉａｍｏｎｄ,,株式会社,埼玉県,さいたま市南区,文蔵３丁目３８番１号,,11,108,3360025,,,,,,,2025-09-25,1,,,,,ダイヤモンド,0
323,2030001168757,新規,0,2025-09-25,2025-09-25,株式会社白馬,,株式会社,埼玉県,越谷市,南町３丁目１０－２ピアコート越谷４０３－１号室,,11,222,3430832,,,,,,,2025-09-25,1,,,,,ハクバ,0
326,2030003027655,新規,0,2025-09-25,2025-09-25,合同会社ＲＵＮＯ,,合同会社,埼玉県,所沢市,けやき台１丁目２９番地の６,,11,208,3591118,,,,,,,2025-09-25,1,,,,,ルーノ,0
332,2040001140525,新規,0,2025-09-25,2025-09-25,株式会社ＺＡＳ,,株式会社,千葉県,野田市,小山４３３５番地,,12,208,2700231,,,,,,,2025-09-25,1,,,,,ザス,0
333,2040001140608,新規,0,2025-09-25,2025-09-25,ＲＩＳＥ　ＨＡＲＫ株式会社,,株式会社,千葉県,千葉市中央区,中央２丁目５－１千葉中央ツインビル２号館７階チバラボ内,,12,101,2600013,,,,,,,2025-09-25,1,,,,,ライズハーク,0
339,2050003009602,新規,0,2025-09-25,2025-09-25,ＭＺ　ＴＲＡＤＩＮＧ合同会社,,合同会社,茨城県,古河市,松並２丁目７－２３,,08,204,3060021,,,,,,,2025-09-25,1,,,,,エムジェドトレーディング,0
341,2060005010375,新規,0,2025-09-25,2025-09-25,一般社団法人喜叶,,その他の設立登記法人,栃木県,足利市,上渋垂町９６３番地６,,09,202,3260335,,,,,,,2025-09-25,1,,,,,キット,0
349,2090005007740,新規,0,2025-09-25,2025-09-25,特定非営利活動法人昆虫の聖地プロジェクト実行委員会,,その他の設立登記法人,山梨県,北杜市,大泉町谷戸８７４１番２２４,,19,209,4091502,,,,,,,2025-09-25,1,,,,,コンチュウノセイチプロジェクトジッコウイインカイ,0
351,2100003008400,新規,0,2025-09-25,2025-09-25,合同会社エムアイエステート,,合同会社,長野県,飯田市,久米１５７７番地１,,20,205,3950241,,,,,,,2025-09-25,1,,,,,エムアイエステート,0
353,2110001039578,新規,0,2025-09-25,2025-09-25,株式会社レイカバリアン,,株式会社,新潟県,燕市,吉田東栄町３０番４号,,15,213,9590232,,,,,,,2025-09-25,1,,,,,レイカバリアン,0
361,2120001279693,新規,0,2025-09-25,2025-09-25,徳原ホールディングス株式会社,,株式会社,大阪府,大阪市中央区,大手前１丁目７番３１号ＯＭＭビル１８階,,27,128,5400008,,,,,,,2025-09-25,1,,,,,トクハラホールディングス,0
362,2120001279743,新規,0,2025-09-25,2025-09-25,藤栄トップアセット株式会社,,株式会社,大阪府,大阪市此花区,春日出中１丁目９番１３号１０４Ｂ,,27,104,5540022,,,,,,,2025-09-25,1,,,,,トウエイトップアセット,0
363,2120001279891,新規,0,2025-09-25,2025-09-25,株式会社ＳｋｙＷｉｌｌ,,株式会社,大阪府,大阪市中央区,北久宝寺町３丁目６番１号本町南ガーデンシティ７階,,27,128,5410057,,,,,,,2025-09-25,1,,,,,スカイウィル,0
364,2120001279900,新規,0,2025-09-25,2025-09-25,春上株式会社,,株式会社,大阪府,大阪市大正区,小林西２丁目１５－３－２０６,,27,108,5510013,,,,,,,2025-09-25,1,,,,,ハルウエ,0
365,2120001279909,新規,0,2025-09-25,2025-09-25,天心株式会社,,株式会社,大阪府,大阪市住之江区,新北島１丁目４－１５,,27,125,5590024,,,,,,,2025-09-25,1,,,,,テンシン,0
366,2120001279958,新規,0,2025-09-25,2025-09-25,Ｊｉｕ　Ｆｉｅｓｔａ株式会社,,株式会社,大阪府,大阪市中央区,本町３丁目３－９－９Ｆ,,27,128,5410053,,,,,,,2025-09-25,1,,,,,ジュフィエスタ,0
367,2120001280016,新規,0,2025-09-25,2025-09-25,ＧＸグループ株式会社,,株式会社,大阪府,大阪市中央区,南船場３丁目１１番１０号心斎橋大陽ビル,,27,128,5420081,,,,,,,2025-09-25,1,,,,,ジーエックスグループ,0
368,2120001280115,新規,0,2025-09-25,2025-09-25,株式会社ＴＫ管理,,株式会社,大阪府,大阪市中央区,平野町３丁目４番９号,,27,128,5410046,,,,,,,2025-09-25,1,,,,,ティーケーカンリ,0
369,2120001280230,新規,0,2025-09-25,2025-09-25,オフィスカーニバル株式会社,,株式会社,大阪府,大阪市生野区,鶴橋４丁目２番７号,,27,116,5440031,,,,,,,2025-09-25,1,,,,,オフィスカーニバル,0
376,2120003030625,新規,0,2025-09-25,2025-09-25,ＹＵＹＵ＆ＴＰＯ　ＪＡＰＡＮ合同会社,,合同会社,大阪府,大阪市旭区,高殿５丁目４番１２号,,27,117,5350031,,,,,,,2025-09-25,1,,,,,ユーユーアンドティーピーオージャパン,0
377,2120003030658,新規,0,2025-09-25,2025-09-25,Ｋａｏｒｉ合同会社,,合同会社,大阪府,大阪市浪速区,難波中３丁目１２－３－２０３,,27,111,5560011,,,,,,,2025-09-25,1,,,,,カオリ,0
378,2120003030674,新規,0,2025-09-25,2025-09-25,大川国際合同会社,,合同会社,大阪府,大阪市西成区,千本南２丁目７番１８－３０１号,,27,122,5570055,,,,,,,2025-09-25,1,,,,,オオカワコクサイ,0
379,2120005025177,新規,0,2025-09-25,2025-09-25,一般社団法人ＡＤＣ,,その他の設立登記法人,大阪府,枚方市,招提大谷２丁目２２番２０号,,27,210,5731153,,,,,,,2025-09-25,1,,,,,エーディーシー,0
387,2130003010782,新規,0,2025-09-25,2025-09-25,合同会社Ｋａｎａｅ　Ｄｅｓｉｇｎ　Ｌａｂｏ,,合同会社,京都府,京都市北区,小山堀池町３８番地２５,,26,101,6038145,,,,,,,2025-09-25,1,,,,,カナエデザインラボ,0
388,2130003010808,新規,0,2025-09-25,2025-09-25,合同会社ミナキ建築スタジオ,,合同会社,京都府,亀岡市,内丸町２６番地７６,,26,206,6210864,,,,,,,2025-09-25,1,,,,,ミナキケンチクスタジオ,0
393,2140001140102,新規,0,2025-09-25,2025-09-25,すずの木デザイン株式会社,,株式会社,兵庫県,伊丹市,中野東２丁目２９４番地ベルフィオーレ２０２号,,28,207,6640022,,,,,,,2025-09-25,1,,,,,スズノキデザイン,0
394,2140001140110,新規,0,2025-09-25,2025-09-25,ＭＡＲＩＮＡ株式会社,,株式会社,兵庫県,加古川市,加古川町本町６００－２階２０１号室,,28,210,6750037,,,,,,,2025-09-25,1,,,,,マリナ,0
395,2140001140127,新規,0,2025-09-25,2025-09-25,株式会社リアン,,株式会社,兵庫県,伊丹市,南本町４丁目３番２５号,,28,207,6640852,,,,,,,2025-09-25,1,,,,,リアン,0
402,2180001168742,新規,0,2025-09-25,2025-09-25,株式会社ワンテンスリー,,株式会社,愛知県,半田市,相賀町５番地の１２,,23,205,4750801,,,,,,,2025-09-25,1,,,,,ワンテンスリー,0
403,2180003029075,新規,0,2025-09-25,2025-09-25,合同会社アンサク,,合同会社,愛知県,知多郡東浦町,大字緒川字丸池台２５番地の９,,23,442,4702102,,,,,,,2025-09-25,1,,,,,アンサク,0
410,2200001044263,新規,0,2025-09-25,2025-09-25,ＥＡＧＬＥ　ＴＲＡＤＩＮＧ株式会社,,株式会社,岐阜県,美濃加茂市,西町６丁目２７番地,,21,211,5050046,,,,,,,2025-09-25,1,,,,,イーグルトレーディング,0
416,2230001021086,新規,0,2025-09-25,2025-09-25,ナイツプロモーション株式会社,,株式会社,富山県,富山市,安養坊７０７番地８,,16,201,9300881,,,,,,,2025-09-25,1,,,,,ナイツプロモーション,0
417,2230001021094,新規,0,2025-09-25,2025-09-25,株式会社セカンド,,株式会社,富山県,魚津市,吉島２５９番地１,,16,204,9370041,,,,,,,2025-09-25,1,,,,,セカンド,0
418,2230003002506,新規,0,2025-09-25,2025-09-25,ジェイ・エス・ケー合同会社,,合同会社,富山県,高岡市,下牧野７１番地１１,,16,202,9340091,,,,,,,2025-09-25,1,,,,,ジェイエスケー,0
419,2240001065537,新規,0,2025-09-25,2025-09-25,株式会社Ａｍｂｉｓｔｅｐ,,株式会社,広島県,広島市佐伯区,美の里１丁目１６番１２号,,34,108,7315137,,,,,,,2025-09-25,1,,,,,アンビステップ,0
429,2290001111402,新規,0,2025-09-25,2025-09-25,株式会社ＭＯＬＡ,,株式会社,福岡県,福岡市中央区,今泉１丁目１２番８号天神ＱＲビル３階,,40,133,8100021,,,,,,,2025-09-25,1,,,,,モラ,0
430,2290001111484,新規,0,2025-09-25,2025-09-25,株式会社愛和,,株式会社,福岡県,筑後市,大字山ノ井２０３番地２コスモ筑後８０７号,,40,211,8330031,,,,,,,2025-09-25,1,,,,,アイワ,0
434,2290003017432,新規,0,2025-09-25,2025-09-25,合同会社ＡＳＫ,,合同会社,福岡県,福岡市早良区,百道浜４丁目３番４－６０２号,,40,137,8140001,,,,,,,2025-09-25,1,,,,,アスク,0
435,2290801031873,新規,0,2025-09-25,2025-09-25,株式会社ホクショウ,,株式会社,福岡県,北九州市八幡西区,中須２丁目５番７号,,40,109,8070823,,,,,,,2025-09-25,1,,,,,ホクショウ,0
437,2300005007264,新規,0,2025-09-25,2025-09-25,一般財団法人ウニプロジェクト,,その他の設立登記法人,佐賀県,杵島郡大町町,大字大町５２０５番地,,41,423,8492101,,,,,,,2025-09-25,1,,,,,ウニプロジェクト,0
467,2420001019276,新規,0,2025-09-25,2025-09-25,フェリス農場株式会社,,株式会社,青森県,南津軽郡田舎館村,大字東光寺字村上１２２番地１,,02,367,0381101,,,,,,,2025-09-25,1,,,,,フェリスノウジョウ,0
477,2700150132355,新規,0,2025-09-25,2025-09-25,Ｎａｎｙａｎｇｈｅｎｇｔｉａｎｙｕａｎ　Ｔｅｃｈｎｏｌｏｇｙ　Ｄｅｖｅｌｏｐｍｅｎｔ　Ｃｏ．，Ｌｔｄ．,,外国会社等,,,,,,,,Ｔｈｅ　ｍｉｄｄｌｅ　ｓｅｃｔｉｏｎ　ｏｆ　Ｘｉｎｇｄａ　Ｒｏａｄ，Ｉｎｄｕｓｔｒｉａｌ　Ｃｌｕｓｔｅｒ　Ｚｏｎｅ，Ｔａｎｇｈｅ　Ｃｏｕｎｔｒｙ　Ｈｅｎａｎ　Ｐｒｏｖｉｎｃｅ,,,,,,2025-09-25,1,,,,,ナンヤンシーホンティエンユエンコージーファージャンヨウシエンゴンスー,0
487,3010001258559,新規,0,2025-09-25,2025-09-25,ＰｅｓｗａＰａｙ　Ｊａｐａｎ株式会社,,株式会社,東京都,中央区,八丁堀４丁目４番４号梅崎ビル３階,,13,102,1040032,,,,,,,2025-09-25,1,,,,,ペスワペイジャパン,0
496,3010401192861,新規,0,2025-09-25,2025-09-25,株式会社ＲＭアセットマネジメント,,株式会社,東京都,港区,六本木１丁目９番１８－２０１０号,,13,103,1060032,,,,,,,2025-09-25,1,,,,,アールエムアセットマネジメント,0
499,3010403036050,新規,0,2025-09-25,2025-09-25,ＹＯＪＯ合同会社,,合同会社,東京都,港区,北青山１丁目３－３三橋ビル３階,,13,103,1070061,,,,,,,2025-09-25,1,,,,,ヨウジョウ,0
500,3010403036059,新規,0,2025-09-25,2025-09-25,合同会社ＴＭ,,合同会社,東京都,港区,港南３丁目７番１６号,,13,103,1080075,,,,,,,2025-09-25,1,,,,,ティーエム,0
501,3010403036100,新規,0,2025-09-25,2025-09-25,合同会社ヘルスケアアセットソリューション５号,,合同会社,東京都,港区,港南２丁目１５番３号,,13,103,1080075,,,,,,,2025-09-25,1,,,,,ヘルスケアアセットソリューションゴゴウ,0
505,3010801036627,新規,0,2025-09-25,2025-09-25,株式会社ロフティー,,株式会社,東京都,大田区,大森西５丁目２番３号,,13,111,1430015,,,,,,,2025-09-25,1,,,,,ロフティー,0
506,3010803005555,新規,0,2025-09-25,2025-09-25,ＬＡＸＭＩ合同会社,,合同会社,東京都,大田区,矢口１丁目２０－１－１０３,,13,111,1460093,,,,,,,2025-09-25,1,,,,,ラクシュミ,0
516,3011001172188,新規,0,2025-09-25,2025-09-25,株式会社Ｂｉｇ　Ｓｕｃｃｅｓｓ,,株式会社,東京都,渋谷区,恵比寿西２丁目８番４号ＥＸ恵比寿西ビル５階,,13,113,1500021,,,,,,,2025-09-25,1,,,,,ビッグサクセス,0
517,3011003022358,新規,0,2025-09-25,2025-09-25,合同会社Ｂｉｌｌｉｏｎｓ,,合同会社,東京都,渋谷区,道玄坂１丁目１番８号渋谷道玄坂東急ビル２Ｆ－Ｃ,,13,113,1500043,,,,,,,2025-09-25,1,,,,,ビリオンズ,0
523,3011101113216,新規,0,2025-09-25,2025-09-25,ＡＩデザインラボ株式会社,,株式会社,東京都,新宿区,新宿１丁目３６番２号新宿第七葉山ビル３Ｆ,,13,104,1600022,,,,,,,2025-09-25,1,,,,,エーアイデザインラボ,0
526,3011103016391,新規,0,2025-09-25,2025-09-25,合同会社スタジオモンスター,,合同会社,東京都,新宿区,西新宿８丁目１１－１０星野ビル３０４,,13,104,1600023,,,,,,,2025-09-25,1,,,,,スタジオモンスター,0
527,3011103016400,新規,0,2025-09-25,2025-09-25,ＴＨＵＤＲＡ合同会社,,合同会社,東京都,新宿区,百人町２丁目１８番１８号ＭＴ３、１０４,,13,104,1690073,,,,,,,2025-09-25,1,,,,,チュドラー,0
530,3011301030913,新規,0,2025-09-25,2025-09-25,株式会社ｂｔ　Ａｒｔ,,株式会社,東京都,杉並区,和田３丁目４９‐１０,,13,115,1660012,,,,,,,2025-09-25,1,,,,,ビーティーアート,0
533,3011501032602,新規,0,2025-09-25,2025-09-25,株式会社炎陽,,株式会社,東京都,北区,豊島４丁目８番１０号,,13,117,1140003,,,,,,,2025-09-25,1,,,,,エンヨウ,0
534,3011501032610,新規,0,2025-09-25,2025-09-25,吉鋭タッチディスプレイ技術日本株式会社,,株式会社,東京都,荒川区,南千住３丁目２７－２浅草ビル５０８,,13,118,1160003,,,,,,,2025-09-25,1,,,,,キエイタッチディスプレイギジュツニホン,0
535,3011601028987,新規,0,2025-09-25,2025-09-25,得夢テクノロジーズ株式会社,,株式会社,東京都,練馬区,関町北５丁目１３－２５練馬区関町北五丁目ビル２－Ｇ号室,,13,120,1770051,,,,,,,2025-09-25,1,,,,,トクムテクノロジーズ,0
538,3011801046715,新規,0,2025-09-25,2025-09-25,株式会社三欣,,株式会社,東京都,葛飾区,亀有３丁目１３番２善一ビル６Ｆ６０９号室,,13,122,1250061,,,,,,,2025-09-25,1,,,,,サンキン,0
539,3011801046772,新規,0,2025-09-25,2025-09-25,楽創品牌管理株式会社,,株式会社,東京都,足立区,西新井２丁目４番６号ＡｎｄＰｌｕｓ西新井ビル１０５号,,13,121,1230841,,,,,,,2025-09-25,1,,,,,ラクソウブランドカンリ,0
540,3011801046789,新規,0,2025-09-25,2025-09-25,宏大株式会社,,株式会社,東京都,葛飾区,水元２丁目１０番７号エリービル１３１０号室,,13,122,1250032,,,,,,,2025-09-25,1,,,,,コウダイ,0
543,3011803007095,新規,0,2025-09-25,2025-09-25,大業合同会社,,合同会社,東京都,葛飾区,堀切７丁目２７－７名橋ビル２０３号室,,13,122,1240006,,,,,,,2025-09-25,1,,,,,オオギョウ,0
547,3012701019091,新規,0,2025-09-25,2025-09-25,ＳＡＳＡ株式会社,,株式会社,東京都,西東京市,柳沢２丁目１番１６号サザンクロスＩＩ２０３,00140780,13,229,2020022,,,,,,,2025-09-25,1,,,,,ササ,0
549,3012803003877,新規,0,2025-09-25,2025-09-25,ＳＥＩＷＡ合同会社,,合同会社,東京都,日野市,日野台１丁目８番地の３ニチエーイン第二日野１０１,,13,212,1910003,,,,,,,2025-09-25,1,,,,,セイワ,0
559,3020001164946,新規,0,2025-09-25,2025-09-25,株式会社ＡＸＩＳ,,株式会社,神奈川県,横浜市西区,浅間町１丁目４番３号ウィザードビル４０２,,14,103,2200072,,,,,,,2025-09-25,1,,,,,アクシス,0
560,3020001164979,新規,0,2025-09-25,2025-09-25,株式会社ＯｒｃａＦｒｏｎｔ,,株式会社,神奈川県,横浜市中区,打越３０パークハイム横濱山手６１１,,14,104,2310867,,,,,,,2025-09-25,1,,,,,オルカフロント,0
561,3020001165003,新規,0,2025-09-25,2025-09-25,Ｏｍｉ柴屋株式会社,,株式会社,神奈川県,横浜市西区,中央２丁目６番５号,,14,103,2200051,,,,,,,2025-09-25,1,,,,,オウミシバリヤ,0
566,3021001086321,新規,0,2025-09-25,2025-09-25,株式会社尾崎設備,,株式会社,神奈川県,相模原市中央区,南橋本１丁目１３番９号,,14,152,2520253,,,,,,,2025-09-25,1,,,,,オザキセツビ,0
567,3021001086338,新規,0,2025-09-25,2025-09-25,株式会社マキタインテリア,,株式会社,神奈川県,相模原市中央区,上溝６丁目２１番１４号,,14,152,2520243,,,,,,,2025-09-25,1,,,,,マキタインテリア,0
572,3030001168698,新規,0,2025-09-25,2025-09-25,株式会社つながりの花もっと,,株式会社,埼玉県,川口市,東川口６丁目１９番３３号メゾンドファミーユＩ－１号室,00140777,11,203,3330801,,,,,,,2025-09-25,1,,,,,ツナガリノハナモット,0
575,3030003027654,新規,0,2025-09-25,2025-09-25,幸せＦＯＯＤ合同会社,,合同会社,埼玉県,川口市,飯塚１丁目９番１３ライオンズシティ川口第二３０８号室,,11,203,3320023,,,,,,,2025-09-25,1,,,,,シアワセフード,0
579,3040001140607,新規,0,2025-09-25,2025-09-25,株式会社ＹＣ,,株式会社,千葉県,白井市,西白井２丁目１８番地２,,12,232,2701408,,,,,,,2025-09-25,1,,,,,ワイシー,0
583,3040003028552,新規,0,2025-09-25,2025-09-25,Ｍｉｎｄｚａｉ　Ｊａｐａｎ合同会社,,合同会社,千葉県,千葉市中央区,富士見１丁目１４番１３号千葉ダイエー,,12,101,2600015,,,,,,,2025-09-25,1,,,,,マインザイジャパン,0
584,3040003028569,新規,0,2025-09-25,2025-09-25,合同会社Ｒｅｆｏｒｄｉｎｇ,,合同会社,千葉県,船橋市,行田１丁目４９番２－２０２号,,12,204,2730044,,,,,,,2025-09-25,1,,,,,リフォーディング,0
585,3040003028577,新規,0,2025-09-25,2025-09-25,合同会社足とタンパク,,合同会社,千葉県,館山市,国分１１番地１ＭＡＸコジマ１０２号,,12,205,2940018,,,,,,,2025-09-25,1,,,,,アシトタンパク,0
586,3040005022883,新規,0,2025-09-25,2025-09-25,一般社団法人森の下,,その他の設立登記法人,千葉県,木更津市,文京４丁目５－２４,,12,206,2920804,,,,,,,2025-09-25,1,,,,,モリノシタ,0
587,3050001057305,新規,0,2025-09-25,2025-09-25,株式会社ＳＹＭＢＩＯＳＩＳ　ＡＫ　ＳＣＯ．,,株式会社,茨城県,神栖市,知手２９７４番地１６２,,08,232,3140115,,,,,,,2025-09-25,1,,,,,シンビオシスエーケーエスシーオー,0
589,3050003009601,新規,0,2025-09-25,2025-09-25,Ｍ．ＴＲＡＤＩＮＧ合同会社,,合同会社,茨城県,結城郡八千代町,大字大戸新田３７－８２,,08,521,3003571,,,,,,,2025-09-25,1,,,,,エムトレーディング,0
590,3050003009618,新規,0,2025-09-25,2025-09-25,ＪＡＰＡＮ　ＴＲＡＤＩＮＧ合同会社,,合同会社,茨城県,筑西市,玉戸１３０９番地５５大吉亭１０４号,,08,227,3080847,,,,,,,2025-09-25,1,,,,,ジャパントレーディング,0
592,3060001038601,新規,0,2025-09-25,2025-09-25,ＭＯＲＩＫＥＮ株式会社,,株式会社,栃木県,宇都宮市,氷室町１７４５番地３１,,09,201,3213232,,,,,,,2025-09-25,1,,,,,モリケン,0
594,3070001043344,新規,0,2025-09-25,2025-09-25,株式会社ＬＩＬＹ＆ＳＵＳＩＥ,,株式会社,群馬県,前橋市,南町３丁目３６－５,,10,201,3710805,,,,,,,2025-09-25,1,,,,,リリーアンドスージー,0
596,3070003006092,新規,0,2025-09-25,2025-09-25,Ｌａｍｓａｌ　Ｔｒａｄｅｒｓ合同会社,,合同会社,群馬県,邑楽郡大泉町,坂田５丁目９－１６－２,,10,524,3700532,,,,,,,2025-09-25,1,,,,,ラムサルトレーダーズ,0
605,3100003008399,新規,0,2025-09-25,2025-09-25,ＡＯＩＭＯ農園合同会社,,合同会社,長野県,飯田市,川路５２６６番地３,,20,205,3992431,,,,,,,2025-09-25,1,,,,,アオイモノウエン,0
607,3110001039577,新規,0,2025-09-25,2025-09-25,株式会社忍,,株式会社,新潟県,三条市,新光町１０番１０号,,15,204,9550057,,,,,,,2025-09-25,1,,,,,シノビ,0
618,3120001279809,新規,0,2025-09-25,2025-09-25,和光株式会社,,株式会社,大阪府,大阪市東成区,東小橋１丁目１７番３１号２０１室,,27,115,5370024,,,,,,,2025-09-25,1,,,,,ワコウ,0
619,3120001279825,新規,0,2025-09-25,2025-09-25,Ｓｈｉｃｈａｎｇ株式会社,,株式会社,大阪府,大阪市城東区,諏訪４丁目５番３１－３０３号,,27,118,5360021,,,,,,,2025-09-25,1,,,,,シーチャン,0
620,3120001279833,新規,0,2025-09-25,2025-09-25,ＫＤ人形美術館Ｊａｐａｎ株式会社,,株式会社,大阪府,大阪市天王寺区,東高津町９－１３・ＫＢＣビル３０１号室,,27,109,5430021,,,,,,,2025-09-25,1,,,,,ケーディーニンギョウビジュツカンジャパン,0
621,3120001279899,新規,0,2025-09-25,2025-09-25,億＿メディカルテクノロジー株式会社,00140781,株式会社,大阪府,大阪市旭区,赤川２丁目７番７号,,27,117,5350005,,,,,,,2025-09-25,1,,,,,イーシンメディカルテクノロジー,0
622,3120001279924,新規,0,2025-09-25,2025-09-25,夢の城株式会社,,株式会社,大阪府,大阪市西区,北堀江２丁目３番１０－４０２号,,27,106,5500014,,,,,,,2025-09-25,1,,,,,ユメノシロ,0
623,3120001279940,新規,0,2025-09-25,2025-09-25,株式会社ＮＯＷＫプラス,,株式会社,大阪府,大阪市西淀川区,姫島４丁目８番１２号,,27,113,5550033,,,,,,,2025-09-25,1,,,,,ノークプラス,0
624,3120001279998,新規,0,2025-09-25,2025-09-25,株式会社和心クリエイティブ,,株式会社,大阪府,大阪市生野区,新今里６丁目９番１７－２０３号,,27,116,5440001,,,,,,,2025-09-25,1,,,,,ワシンクリエイティブ,0
625,3120001280270,新規,0,2025-09-25,2025-09-25,黒傑克株式会社,,株式会社,大阪府,大阪市浪速区,幸町２丁目３番３７号９０１室,,27,111,5560021,,,,,,,2025-09-25,1,,,,,コクケツコク,0
626,3120001280279,新規,0,2025-09-25,2025-09-25,株式会社ツーエス設備,,株式会社,大阪府,交野市,藤が尾６丁目１３番３号,,27,230,5760022,,,,,,,2025-09-25,1,,,,,ツーエスセツビ,0
630,3120003030500,新規,0,2025-09-25,2025-09-25,合同会社ＳＫ,,合同会社,大阪府,大阪市北区,茶屋町８番２１－９１０号,,27,127,5300013,,,,,,,2025-09-25,1,,,,,エスケー,0
631,3120003030665,新規,0,2025-09-25,2025-09-25,Ｔｈｅ　ＪＤＭ合同会社,,合同会社,大阪府,大阪市住吉区,庭井１丁目１番１１号,,27,120,5580012,,,,,,,2025-09-25,1,,,,,ザジェイディーエム,0
632,3120003030673,新規,0,2025-09-25,2025-09-25,ＡＤＩＢＡ合同会社,,合同会社,大阪府,大阪市西成区,山王１丁目１０番１７号１階,,27,122,5570001,,,,,,,2025-09-25,1,,,,,アディバ,0
640,3120901051531,新規,0,2025-09-25,2025-09-25,株式会社ハイテナジャパン,,株式会社,大阪府,茨木市,大字生保５３番５号,,27,211,5680092,,,,,,,2025-09-25,1,,,,,ハイテナジャパン,0
651,3160001027065,新規,0,2025-09-25,2025-09-25,株式会社ＴＡＮＥＢＩ,,株式会社,滋賀県,近江八幡市,上田町１２５７番地１８,,25,204,5230015,,,,,,,2025-09-25,1,,,,,タネビ,0
655,3170001018798,新規,0,2025-09-25,2025-09-25,株式会社中平木材,,株式会社,和歌山県,東牟婁郡古座川町,月野瀬７０－３,,30,424,6494106,,,,,,,2025-09-25,1,,,,,ナカヒラモクザイ,0
658,3180001168717,新規,0,2025-09-25,2025-09-25,株式会社ＴＴセキュリティ,,株式会社,愛知県,名古屋市中村区,松原町４丁目２２番ＤＥＶＥＬＤ松原１０３号,,23,105,4530021,,,,,,,2025-09-25,1,,,,,ティーティーセキュリティ,0
666,3230001021093,新規,0,2025-09-25,2025-09-25,株式会社富山エアポート,,株式会社,富山県,富山市,秋ヶ島３０番地,,16,201,9398252,,,,,,,2025-09-25,1,,,,,トヤマエアポート,0
685,3290001111599,新規,0,2025-09-25,2025-09-25,株式会社スーフィー・トレーディング,,株式会社,福岡県,三井郡大刀洗町,大字山隈２６６番地２,,40,503,8301226,,,,,,,2025-09-25,1,,,,,スーフィートレーディング,0
691,3290003017431,新規,0,2025-09-25,2025-09-25,合同会社エムエヌ,,合同会社,福岡県,福岡市中央区,天神２丁目２番１２号Ｔ＆Ｊビルディング７Ｆ,,40,133,8100001,,,,,,,2025-09-25,1,,,,,エムエヌ,0
692,3290003017464,新規,0,2025-09-25,2025-09-25,ＱＨＬ合同会社,,合同会社,福岡県,福岡市博多区,東比恵２丁目１３番１号東比恵ビル３０１号,,40,132,8120007,,,,,,,2025-09-25,1,,,,,キューエイチエル,0
697,3310003005094,新規,0,2025-09-25,2025-09-25,合同会社ＫＡＭＥ　ＨＯＵＳＥ,,合同会社,長崎県,対馬市,厳原町久田３６５番地２　２０１号,,42,209,8170032,,,,,,,2025-09-25,1,,,,,カメハウス,0
702,3360003015254,新規,0,2025-09-25,2025-09-25,いぎみいんじゃみ合同会社,,合同会社,沖縄県,国頭郡大宜味村,字謝名城２５７番地,,47,302,9051302,,,,,,,2025-09-25,1,,,,,イギミインジャミ,0
712,3430001095332,新規,0,2025-09-25,2025-09-25,ＣＭＬ株式会社,,株式会社,北海道,札幌市清田区,平岡三条２丁目１３番３４号,,01,110,0040873,,,,,,,2025-09-25,1,,,,,シーエムエル,0
723,3700150132354,新規,0,2025-09-25,2025-09-25,関内駅前北口地区市街地再開発組合,,その他,神奈川県,横浜市中区,真砂町３丁目３３,,14,104,2310016,,,,,,,2025-09-25,1,,,,,カンナイエキマエキタグチチクシガイチサイカイハツクミアイ,0
740,4010001258574,新規,0,2025-09-25,2025-09-25,株式会社ＳＯＲＡＭＥ,,株式会社,東京都,中央区,勝どき６丁目３番２－１１０１号,,13,102,1040054,,,,,,,2025-09-25,1,,,,,ソラメ,0
741,4010001258608,新規,0,2025-09-25,2025-09-25,ラウテジャパン株式会社,,株式会社,東京都,中央区,銀座６丁目１３番１６号銀座ウォールビル７階,,13,102,1040061,,,,,,,2025-09-25,1,,,,,ラウテジャパン,0
742,4010003048759,新規,0,2025-09-25,2025-09-25,合同会社ＬＡＩＶ,,合同会社,東京都,中央区,銀座１丁目１２―４Ｎ＆ＥＢＬＤ．７階,,13,102,1040061,,,,,,,2025-09-25,1,,,,,ライブ,0
749,4010401192860,新規,0,2025-09-25,2025-09-25,Ｍ．Ｓ　ＭＥＤＩＣＡＬ株式会社,,株式会社,東京都,港区,六本木１丁目９番１８－２０１０号,,13,103,1060032,,,,,,,2025-09-25,1,,,,,エムエスメディカル,0
752,4010601067961,新規,0,2025-09-25,2025-09-25,株式会社ＭＡＤＥ　ＩＮ　ＣＲＥＷ,,株式会社,東京都,墨田区,東向島４丁目２７番２－１０６号,,13,107,1310032,,,,,,,2025-09-25,1,,,,,メイドインクルー,0
761,4011001172195,新規,0,2025-09-25,2025-09-25,株式会社Ｈａｕ’ｏｌｉ,,株式会社,東京都,渋谷区,神南１丁目１１－４ＦＰＧリンクス神南５階,,13,113,1500041,,,,,,,2025-09-25,1,,,,,ハウオリ,0
762,4011001172518,新規,0,2025-09-25,2025-09-25,株式会社エイム,,株式会社,東京都,渋谷区,道玄坂１丁目１０番８号渋谷道玄坂東急ビル２Ｆ－Ｃ,,13,113,1500043,,,,,,,2025-09-25,1,,,,,エイム,0
766,4011005011168,新規,0,2025-09-25,2025-09-25,一般社団法人東京ケルソ神学校,,その他の設立登記法人,東京都,渋谷区,神宮前１丁目１０番９号オンデンフラットＢ１０１号室,,13,113,1500001,,,,,,,2025-09-25,1,,,,,トウキョウケルソカミガッコウ,0
776,4011301030912,新規,0,2025-09-25,2025-09-25,ジュニグマ株式会社,,株式会社,東京都,杉並区,高井戸東１丁目３１番３－４０９号パークシティ浜田山Ｂ棟,,13,115,1680072,,,,,,,2025-09-25,1,,,,,ジュニグマ,0
777,4011401027429,新規,0,2025-09-25,2025-09-25,マスターモータース・ジャパン株式会社,,株式会社,東京都,板橋区,小豆沢４丁目２７－１１兆豊小豆沢ビル４１２号室,,13,119,1740051,,,,,,,2025-09-25,1,,,,,マスターモータースジャパン,0
778,4011603004861,新規,0,2025-09-25,2025-09-25,合同会社Ｓｔｕｄｉｏ　ＹｕＥｎ,,合同会社,東京都,練馬区,関町北４丁目１番６号ハイクレスト関３０６号室,,13,120,1770051,,,,,,,2025-09-25,1,,,,,スタジオユエン,0
781,4011801046771,新規,0,2025-09-25,2025-09-25,株式会社ＩＤ,,株式会社,東京都,足立区,綾瀬５丁目１４番１５号,,13,121,1200005,,,,,,,2025-09-25,1,,,,,アイディー,0
782,4011801046788,新規,0,2025-09-25,2025-09-25,スカイ株式会社,,株式会社,東京都,葛飾区,水元２丁目１０番７号エリービル１３１１号室,,13,122,1250032,,,,,,,2025-09-25,1,,,,,スカイ,0
784,4011803007094,新規,0,2025-09-25,2025-09-25,ＰＨ合同会社,,合同会社,東京都,葛飾区,東新小岩２丁目１０番５－２０３号,,13,122,1240023,,,,,,,2025-09-25,1,,,,,ピーエイチ,0
787,4012403007344,新規,0,2025-09-25,2025-09-25,合同会社Ｓａｎｅｌ,,合同会社,東京都,稲城市,長峰２丁目５番地杜の五番街１－２０１,,13,225,2060821,,,,,,,2025-09-25,1,,,,,サネル,0
798,4020001164945,新規,0,2025-09-25,2025-09-25,株式会社ポンドワールド,,株式会社,神奈川県,川崎市宮前区,宮前平１丁目７番地３田辺ビル４０１,,14,136,2160006,,,,,,,2025-09-25,1,,,,,ポンドワールド,0
805,4021003016564,新規,0,2025-09-25,2025-09-25,合同会社ＫＫ,,合同会社,神奈川県,相模原市南区,上鶴間５丁目６番５－７０３号,,14,153,2520302,,,,,,,2025-09-25,1,,,,,ケーケー,0
813,4030001168813,新規,0,2025-09-25,2025-09-25,株式会社初光,,株式会社,埼玉県,戸田市,喜沢２丁目１５番地の１０,,11,224,3350013,,,,,,,2025-09-25,1,,,,,ハツヒカリ,0
822,4040001140696,新規,0,2025-09-25,2025-09-25,ルートグリッド株式会社,,株式会社,千葉県,大網白里市,南飯塚４８６－１,,12,239,2993219,,,,,,,2025-09-25,1,,,,,ルートグリッド,0
826,4050003009600,新規,0,2025-09-25,2025-09-25,ＡＡＫ　ＴＲＡＤＩＮＧ合同会社,,合同会社,茨城県,坂東市,寺久１２５３－９,,08,228,3060656,,,,,,,2025-09-25,1,,,,,エーエーケートレーディング,0
827,4050003009609,新規,0,2025-09-25,2025-09-25,ＷＯＲＬＤ　ＬＩＮＫ合同会社,,合同会社,茨城県,常総市,内守谷町きぬの里２丁目１４番２３号,,08,211,3030046,,,,,,,2025-09-25,1,,,,,ワールドリンク,0
828,4050003009617,新規,0,2025-09-25,2025-09-25,ＮＩＲＯ　ＡＵＴＯ　ＭＯＴＯＲＳ合同会社,,合同会社,茨城県,稲敷市,大字犬塚１６１７番地１,,08,229,3000500,,,,,,,2025-09-25,1,,,,,ニロオートモータース,0
835,4080001027155,新規,0,2025-09-25,2025-09-25,ＴＯＮ株式会社,,株式会社,静岡県,静岡市葵区,竜南１丁目１９番３１号,,22,101,4200804,,,,,,,2025-09-25,1,,,,,ティーオーエヌ,0
845,4120001279964,新規,0,2025-09-25,2025-09-25,亜佐理株式会社,,株式会社,大阪府,大阪市阿倍野区,丸山通１丁目５－２－５０３,,27,119,5450042,,,,,,,2025-09-25,1,,,,,アゾリ,0
846,4120001279997,新規,0,2025-09-25,2025-09-25,マサヒロオクノ株式会社,,株式会社,大阪府,大阪市城東区,野江４丁目６番４号,,27,118,5360006,,,,,,,2025-09-25,1,,,,,マサヒロオクノ,0
847,4120001280022,新規,0,2025-09-25,2025-09-25,さつまＡｇｒｉ・Ｂａｓｅ株式会社,,株式会社,大阪府,大阪市住吉区,苅田７丁目３番１０号,,27,120,5580011,,,,,,,2025-09-25,1,,,,,サツマアグリベース,0
848,4120001280113,新規,0,2025-09-25,2025-09-25,３ＥＣＡＲＥ株式会社,,株式会社,大阪府,大阪市西成区,千本北１丁目１番１６,,27,122,5570053,,,,,,,2025-09-25,1,,,,,スリーイーケア,0
849,4120001280154,新規,0,2025-09-25,2025-09-25,未来商業株式会社,,株式会社,大阪府,大阪市浪速区,日本橋４丁目１１番１０－１０６号,,27,111,5560005,,,,,,,2025-09-25,1,,,,,ミライショウギョウ,0
850,4120001280220,新規,0,2025-09-25,2025-09-25,潤和株式会社,,株式会社,大阪府,大阪市東住吉区,中野４丁目１番１６号リベラルオリエンテ中野３０２Ｂ,,27,121,5460012,,,,,,,2025-09-25,1,,,,,ジュンワ,0
851,4120001280253,新規,0,2025-09-25,2025-09-25,株式会社Ｎｅｘｐｌｉｃｏ,,株式会社,大阪府,大阪市天王寺区,伶人町２－３１ＳｔａｒＯｆｆｉｃｅ大阪天王寺北５０５号室,,27,109,5430061,,,,,,,2025-09-25,1,,,,,ネクスプリコ,0
852,4120001280294,新規,0,2025-09-25,2025-09-25,センシアベース株式会社,,株式会社,大阪府,大阪市城東区,今福西２丁目５番１号,,27,118,5360004,,,,,,,2025-09-25,1,,,,,センシアベース,0
857,4120003030400,新規,0,2025-09-25,2025-09-25,ＲＯＴＴＯ合同会社,,合同会社,大阪府,大阪市大正区,千島１丁目１０－２０－５０２,,27,108,5510003,,,,,,,2025-09-25,1,,,,,ロット,0
858,4120003030672,新規,0,2025-09-25,2025-09-25,谷川合同会社,,合同会社,大阪府,大阪市都島区,高倉町３丁目１５－１５－１Ｆ,,27,102,5340011,,,,,,,2025-09-25,1,,,,,タニガワ,0
859,4120003030680,新規,0,2025-09-25,2025-09-25,ＴＰＪサービスカンパニー合同会社,,合同会社,大阪府,大阪市都島区,中野町４丁目１番１１－１４５,,27,102,5340027,,,,,,,2025-09-25,1,,,,,ティーピージェイサービスカンパニー,0
860,4120003030689,新規,0,2025-09-25,2025-09-25,ｕｍ　ｈａｎｄｍａｄｅ合同会社,,合同会社,大阪府,大阪市東淀川区,豊里３丁目２番１９－２０１号,,27,114,5330013,,,,,,,2025-09-25,1,,,,,ユーエムハンドメイド,0
870,4130001080636,新規,0,2025-09-25,2025-09-25,株式会社ｍｈ,,株式会社,京都府,京都市中京区,御池通御幸町西入御池大東町５９５美幸ビル６階,,26,104,6040942,,,,,,,2025-09-25,1,,,,,エムエイチ,0
882,4140003022627,新規,0,2025-09-25,2025-09-25,Ｋｏｄｅ合同会社,,合同会社,兵庫県,神戸市東灘区,住吉山手７丁目３－１神戸大学住吉寮４０９号室,,28,101,6580063,,,,,,,2025-09-25,1,,,,,コード,0
894,4180001168699,新規,0,2025-09-25,2025-09-25,株式会社アールネット,,株式会社,愛知県,名古屋市中区,丸の内１丁目８番１５号Ｌ．Ｂｉｚ丸の内１２階Ｂ,,23,106,4600002,,,,,,,2025-09-25,1,,,,,アールネット,0
904,4200001044261,新規,0,2025-09-25,2025-09-25,石徹白エリアマネジメント株式会社,,株式会社,岐阜県,郡上市,白鳥町石徹白第６５号９番地,,21,219,5015231,,,,,,,2025-09-25,1,,,,,イトシロエリアマネジメント,0
909,4230003002504,新規,0,2025-09-25,2025-09-25,合同会社ＹａｄｏＴｅｃｈ,,合同会社,富山県,氷見市,阿尾５８３番地,,16,205,9350002,,,,,,,2025-09-25,1,,,,,ヤドテック,0
917,4290001111565,新規,0,2025-09-25,2025-09-25,松勝株式会社,,株式会社,福岡県,福岡市博多区,博多駅中央街５番１１号,,40,132,8120012,,,,,,,2025-09-25,1,,,,,マツカツ,0
919,4290003017397,新規,0,2025-09-25,2025-09-25,合同会社ＢＬＯＯＤ,,合同会社,福岡県,飯塚市,弁分１７０番地１,,40,205,8200088,,,,,,,2025-09-25,1,,,,,ブラッド,0
920,4290003017439,新規,0,2025-09-25,2025-09-25,合同会社オールブル,,合同会社,福岡県,大牟田市,三里町１丁目１６番地７０,,40,202,8360076,,,,,,,2025-09-25,1,,,,,オールブル,0
921,4290003017513,新規,0,2025-09-25,2025-09-25,ＷａｌｄＲｉｅ　Ｅｍｏｒｉａ　Ａｓｅｔ合同会社,,合同会社,福岡県,福岡市東区,香椎照葉５丁目１番１１－１１１５号,,40,131,8130017,,,,,,,2025-09-25,1,,,,,ヴァルトリーエモリアアセット,0
922,4290803005122,新規,0,2025-09-25,2025-09-25,合同会社ｔｍｋ,,合同会社,福岡県,北九州市門司区,吉志２丁目１５‐６サンライフ恒見ＩＩ２０１号室,00140792,40,101,8000114,,,,,,,2025-09-25,1,,,,,ティーエムケー,0
923,4300001014353,新規,0,2025-09-25,2025-09-25,株式会社Ａ’Ｓ建築,,株式会社,佐賀県,鳥栖市,本鳥栖町５３７番地４,,41,203,8410026,,,,,,,2025-09-25,1,,,,,エーエスケンチク,0
924,4310003005093,新規,0,2025-09-25,2025-09-25,合同会社ＣＲＯＳＳＲＯＡＤ,,合同会社,長崎県,長崎市,深堀町４丁目３８番地１８,,42,201,8510301,,,,,,,2025-09-25,1,,,,,クロスロード,0
925,4320001021356,新規,0,2025-09-25,2025-09-25,株式会社ＤＦＳＢ,,株式会社,大分県,大分市,上野丘１丁目９－４５,,44,201,8700835,,,,,,,2025-09-25,1,,,,,ディーエフエスビー,0
929,4330003011230,新規,0,2025-09-25,2025-09-25,ウエストコンサル合同会社,,合同会社,熊本県,熊本市西区,島崎５丁目２番７６－２号,,43,103,8600073,,,,,,,2025-09-25,1,,,,,ウエストコンサル,0
938,4390003002447,新規,0,2025-09-25,2025-09-25,みきみきファーム合同会社,,合同会社,山形県,東田川郡庄内町,添津字諏訪下４２,,06,428,9996603,,,,,,,2025-09-25,1,,,,,ミキミキファーム,0
939,4400003003534,新規,0,2025-09-25,2025-09-25,ＴＯＫＹＯ　ＴＲＡＤＩＮＧ合同会社,,合同会社,岩手県,遠野市,上郷町細越８地割３５,,03,208,0280772,,,,,,,2025-09-25,1,,,,,トウキョウトレーディング,0
950,4430001095249,新規,0,2025-09-25,2025-09-25,株式会社ユウショウ,,株式会社,北海道,札幌市清田区,北野七条３丁目３番１２号,,01,110,0040867,,,,,,,2025-09-25,1,,,,,ユウショウ,0
957,4490005007005,新規,0,2025-09-25,2025-09-25,一般社団法人こども自立援助の会ゆいのね,,その他の設立登記法人,高知県,高知市,瀬戸２丁目９番１９号,,39,201,7810250,,,,,,,2025-09-25,1,,,,,コドモジリツエンジョノカイユイノネ,0
958,4500001026527,新規,0,2025-09-25,2025-09-25,株式会社上信屋,,株式会社,愛媛県,松山市,三番町７丁目１０番地３,,38,201,7900003,,,,,,,2025-09-25,1,,,,,ジョウシンヤ,0
969,5010001258557,新規,0,2025-09-25,2025-09-25,株式会社ＮＣ商事,,株式会社,東京都,中央区,日本橋浜町３丁目３－１トルナーレ日本橋浜町２１４,,13,102,1030007,,,,,,,2025-09-25,1,,,,,エヌシーショウジ,0
970,5010001258573,新規,0,2025-09-25,2025-09-25,ロジドット株式会社,,株式会社,東京都,千代田区,神田和泉町１番地６－１６ヤマトビル４０５,,13,101,1010024,,,,,,,2025-09-25,1,,,,,ロジドット,0
971,5010001258623,新規,0,2025-09-25,2025-09-25,株式会社Ｒａｙ　ｓｔａｒ,,株式会社,東京都,千代田区,神田神保町２丁目３４番１号鳴海ビル２０８号,,13,101,1010051,,,,,,,2025-09-25,1,,,,,レインスター,0
972,5010001258714,新規,0,2025-09-25,2025-09-25,ディーアールアイ・ラップ株式会社,,株式会社,東京都,千代田区,丸の内２丁目３番１号,,13,101,1000005,,,,,,,2025-09-25,1,,,,,ディーアールアイラップ,0
981,5010005040705,新規,0,2025-09-25,2025-09-25,一般社団法人西淀川インベストメント,,その他の設立登記法人,東京都,中央区,日本橋１丁目４番１号日本橋一丁目ビルディング,,13,102,1030027,,,,,,,2025-09-25,1,,,,,ニシヨドガワインベストメント,0
982,5010101016880,新規,0,2025-09-25,2025-09-25,株式会社ＡＣＴ‐Ｘ,,株式会社,東京都,八王子市,上柚木３８７番地１６,,13,201,1920373,,,,,,,2025-09-25,1,,,,,エーシーティーエックス,0
1002,5011001172038,新規,0,2025-09-25,2025-09-25,株式会社８０８,,株式会社,東京都,渋谷区,東２丁目２７番２号ｅｓｔ２０３,,13,113,1500011,,,,,,,2025-09-25,1,,,,,ハチマルハチ,0
1003,5011001172112,新規,0,2025-09-25,2025-09-25,株式会社トゥインキィープロジェクト,,株式会社,東京都,渋谷区,円山町５番３号ＭＩＥＵＸ渋谷ビル８階,,13,113,1500044,,,,,,,2025-09-25,1,,,,,トゥインキィープロジェクト,0
1004,5011001172203,新規,0,2025-09-25,2025-09-25,株式会社ＴＯＧＡＲＩ,,株式会社,東京都,目黒区,青葉台３丁目１２番５号エスセナーリオ青葉台ＤｕｏＩ―４０１,00140798,13,110,1530042,,,,,,,2025-09-25,1,,,,,トガリ,0
1005,5011001172228,新規,0,2025-09-25,2025-09-25,株式会社茂庭料理,,株式会社,東京都,渋谷区,幡ヶ谷２丁目３９番８－７０４号,,13,113,1510072,,,,,,,2025-09-25,1,,,,,モニワリョウリ,0
1007,5011005011200,新規,0,2025-09-25,2025-09-25,医療法人社団美勝会,,その他の設立登記法人,東京都,渋谷区,代々木２丁目９番５号ＦＰＧｌｉｎｋｓＳＨＩＮＪＵＫＵＴｅｒｒａｃｅ４階,,13,113,1510053,,,,,,,2025-09-25,1,,,,,ビショウカイ,0
1011,5011101113247,新規,0,2025-09-25,2025-09-25,ミバヤ株式会社,,株式会社,東京都,新宿区,歌舞伎町２丁目２５番８号２１４室,,13,104,1600021,,,,,,,2025-09-25,1,,,,,ミバヤ,0
1013,5011103016398,新規,0,2025-09-25,2025-09-25,合同会社ＮＥＷ　ＲＩＳＥ,,合同会社,東京都,新宿区,西早稲田３丁目２９番９号,,13,104,1690051,,,,,,,2025-09-25,1,,,,,ニューライズ,0
1017,5011303005713,新規,0,2025-09-25,2025-09-25,合同会社ｆｏｎｓ,,合同会社,東京都,杉並区,西荻南２丁目２５－１１,,13,115,1670053,,,,,,,2025-09-25,1,,,,,フォンス,0
1028,5011801046779,新規,0,2025-09-25,2025-09-25,淨雲株式会社,,株式会社,東京都,足立区,千住仲町２５番４号,,13,121,1200036,,,,,,,2025-09-25,1,,,,,ジョウウン,0
1029,5011801046787,新規,0,2025-09-25,2025-09-25,ＪＺ貿易株式会社,,株式会社,東京都,葛飾区,青戸７丁目２３番１１号,,13,122,1250062,,,,,,,2025-09-25,1,,,,,ジェイズィーボウエキ,0
1031,5012401043613,新規,0,2025-09-25,2025-09-25,株式会社青葉国際教育センター,,株式会社,東京都,三鷹市,新川６丁目１番１４号４０５号室,,13,204,1810004,,,,,,,2025-09-25,1,,,,,アオバコクサイキョウイクセンター,0
1038,5012801024262,新規,0,2025-09-25,2025-09-25,株式会社ＹＫ８,,株式会社,東京都,立川市,一番町１丁目２５－３,,13,202,1900033,,,,,,,2025-09-25,1,,,,,ワイケーエイト,0
1039,5012803003875,新規,0,2025-09-25,2025-09-25,ＢＲＩＧＨＴＥＮ‐Ｕ合同会社,,合同会社,東京都,昭島市,昭和町３丁目１８番６号,,13,207,1960015,,,,,,,2025-09-25,1,,,,,ブライテンユー,0
1047,5020001164878,新規,0,2025-09-25,2025-09-25,匯＿商事株式会社,00140787,株式会社,神奈川県,横浜市南区,井土ケ谷下町２４－１１－２０２,,14,105,2320053,,,,,,,2025-09-25,1,,,,,カイキンショウジ,0
1048,5020001164977,新規,0,2025-09-25,2025-09-25,清華園株式会社,,株式会社,神奈川県,横浜市港南区,港南２丁目３４番１７号,,14,111,2330003,,,,,,,2025-09-25,1,,,,,セイカエン,0
1049,5020001164993,新規,0,2025-09-25,2025-09-25,株式会社カワセミ,,株式会社,神奈川県,横浜市戸塚区,汲沢６丁目３６番２４－２号,,14,110,2450061,,,,,,,2025-09-25,1,,,,,カワセミ,0
1053,5021001086311,新規,0,2025-09-25,2025-09-25,株式会社ＦｉｎＢｕｄｄｙ,,株式会社,神奈川県,秦野市,曽屋３５５４－２３,,14,211,2570031,,,,,,,2025-09-25,1,,,,,フィンバディー,0
1064,5030001168738,新規,0,2025-09-25,2025-09-25,株式会社鏡水斎,,株式会社,埼玉県,朝霞市,幸町２丁目８－３５,,11,227,3510015,,,,,,,2025-09-25,1,,,,,キョウスイサイ,0
1067,5040001140522,新規,0,2025-09-25,2025-09-25,株式会社Ｍａｉｓｏｎｔｅｒｒｅ,,株式会社,千葉県,松戸市,新松戸１丁目２０５番地,,12,207,2700034,,,,,,,2025-09-25,1,,,,,メゾンテール,0
1068,5040001140555,新規,0,2025-09-25,2025-09-25,ＺｅｒｏＰｏｉｎｔ　Ｆｉｅｌｄ株式会社,,株式会社,千葉県,柏市,北柏５丁目２番地１レイクパレス北柏６０５号,,12,217,2770832,,,,,,,2025-09-25,1,,,,,ゼロポイントフィールド,0
1069,5040001140588,新規,0,2025-09-25,2025-09-25,伊和国際株式会社,,株式会社,千葉県,成田市,郷部６１５－１フェアリーＡ３０４号,,12,211,2860014,,,,,,,2025-09-25,1,,,,,イワコクサイ,0
1072,5040003028575,新規,0,2025-09-25,2025-09-25,合同会社ニジトヨツバアトリエ,,合同会社,千葉県,香取郡多古町,次浦４１６番２,,12,347,2892313,,,,,,,2025-09-25,1,,,,,ニジトヨツバアトリエ,0
1075,5050003009574,新規,0,2025-09-25,2025-09-25,ＳＩＤＨＵ　ＴＲＡＤＩＮＧ合同会社,,合同会社,茨城県,結城郡八千代町,大字東蕗田６８４－４－２１０号,,08,521,3003545,,,,,,,2025-09-25,1,,,,,シドゥトレーディング,0
1076,5050003009608,新規,0,2025-09-25,2025-09-25,ＣＯＭＢＩＮＥＤ　ＩＮＴＥＲＮＡＴＩＯＮＡＬ合同会社,,合同会社,茨城県,筑西市,布川字雁沼１０５２番地４２江連アパート南１－１０４,,08,227,3080846,,,,,,,2025-09-25,1,,,,,コムバインドインターナショナル,0
1078,5060003005754,新規,0,2025-09-25,2025-09-25,合同会社Ｓｏｌｅａ,,合同会社,栃木県,栃木市,都賀町家中５７７８－１トワイライトＡ１０３,,09,203,3280111,,,,,,,2025-09-25,1,,,,,ソレア,0
1084,5080101025801,新規,0,2025-09-25,2025-09-25,株式会社２９ｂａｓｅ　Ｎｉｃｏ,,株式会社,静岡県,三島市,日の出町６番７号,,22,206,4110851,,,,,,,2025-09-25,1,,,,,ニクベースニコ,0
1097,5120001279880,新規,0,2025-09-25,2025-09-25,維軒研究株式会社,,株式会社,大阪府,大阪市中央区,平野町１丁目８番１３号平野町八千代ビル３階,,27,128,5410046,,,,,,,2025-09-25,1,,,,,イケンケンキュウ,0
1098,5120001279996,新規,0,2025-09-25,2025-09-25,巨岳偉株式会社,,株式会社,大阪府,大阪市西成区,松３丁目１１番２２－３０５号,,27,122,5570034,,,,,,,2025-09-25,1,,,,,キョカクイ,0
1099,5120001280005,新規,0,2025-09-25,2025-09-25,株式会社Ｆｉｒｅ,,株式会社,大阪府,大阪市北区,梅田１丁目２番２号大阪駅前第２ビル１２－１２,,27,127,5300001,,,,,,,2025-09-25,1,,,,,ファイヤー,0
1100,5120001280120,新規,0,2025-09-25,2025-09-25,ポラリス株式会社,,株式会社,大阪府,大阪市西成区,南津守３丁目１－５１,,27,122,5570063,,,,,,,2025-09-25,1,,,,,ポラリス,0
1101,5120001280228,新規,0,2025-09-25,2025-09-25,株式会社ＷａＬｉｎｋ,,株式会社,大阪府,大阪市中央区,日本橋１丁目２１－２０丸富日本橋パールビル,,27,128,5420073,,,,,,,2025-09-25,1,,,,,ワリンク,0
1102,5120003030671,新規,0,2025-09-25,2025-09-25,美林合同会社,,合同会社,大阪府,大阪市中央区,常盤町１丁目１－９－６０５,,27,128,5400028,,,,,,,2025-09-25,1,,,,,ビリン,0
1103,5120003030688,新規,0,2025-09-25,2025-09-25,Ｂｌｏｏｍ　ｈａｉｒ　ｃｏｍ合同会社,,合同会社,大阪府,大阪市旭区,大宮１丁目１２－６－１０１号室,,27,117,5350002,,,,,,,2025-09-25,1,,,,,ブルームヘアーコム,0
1109,5120101072491,新規,0,2025-09-25,2025-09-25,安心安家株式会社,,株式会社,大阪府,高石市,綾園１丁目１１番２４－２０５号,,27,225,5920014,,,,,,,2025-09-25,1,,,,,アンシンアンカ,0
1112,5120903005863,新規,0,2025-09-25,2025-09-25,合同会社ＭＡＴＳＵ,,合同会社,大阪府,摂津市,鶴野２丁目９番２－５０２号,,27,224,5660035,,,,,,,2025-09-25,1,,,,,マツ,0
1114,5122001039637,新規,0,2025-09-25,2025-09-25,株式会社丸栄,,株式会社,大阪府,東大阪市,渋川町１丁目１４番１３号,,27,227,5770836,,,,,,,2025-09-25,1,,,,,マルエイ,0
1115,5122001039653,新規,0,2025-09-25,2025-09-25,株式会社ジョインロジ,,株式会社,大阪府,東大阪市,横枕西１１番２７号,,27,227,5780956,,,,,,,2025-09-25,1,,,,,ジョインロジ,0
1124,5140001140116,新規,0,2025-09-25,2025-09-25,株式会社色葉,,株式会社,兵庫県,赤穂郡上郡町,上郡６５５番地４,,28,481,6781231,,,,,,,2025-09-25,1,,,,,イロハ,0
1126,5150001028418,新規,0,2025-09-25,2025-09-25,壹木茂松株式会社,,株式会社,奈良県,奈良市,南京終町１丁目８３番地の１１,,29,201,6308141,,,,,,,2025-09-25,1,,,,,イツキシゲマツ,0
1127,5160001027071,新規,0,2025-09-25,2025-09-25,株式会社ＵＲＡＮＵＳ,,株式会社,滋賀県,東近江市,五個荘五位田町５５６番地１,,25,213,5291415,,,,,,,2025-09-25,1,,,,,ウラヌス,0
1130,5180003029097,新規,0,2025-09-25,2025-09-25,合同会社ＲＢ　ＩＮＴＥＲＮＡＴＩＯＮＡＬ,,合同会社,愛知県,春日井市,柏原町２丁目９１番地川口ビル４階４０８号室,,23,206,4860913,,,,,,,2025-09-25,1,,,,,アールビーインターナショナル,0
1132,5190001032556,新規,0,2025-09-25,2025-09-25,株式会社金福商事,,株式会社,三重県,津市,河芸町東千里９２４番,,24,201,5100303,,,,,,,2025-09-25,1,,,,,キンフクショウジ,0
1141,5240001065542,新規,0,2025-09-25,2025-09-25,同和株式会社,,株式会社,広島県,広島市中区,十日市町２丁目１番２５－５０２号,,34,101,7300805,,,,,,,2025-09-25,1,,,,,ドウワ,0
1142,5240003007419,新規,0,2025-09-25,2025-09-25,合同会社ミザール,,合同会社,広島県,広島市中区,大手町４丁目５番２－６０５号,,34,101,7300051,,,,,,,2025-09-25,1,,,,,ミザール,0
1144,5260001040576,新規,0,2025-09-25,2025-09-25,ＡＭＡＲ　ＴＲＡＤＩＮＧ株式会社,,株式会社,岡山県,岡山市北区,三野３丁目１‐２９スカイコテージ１０２,,33,101,7000802,,,,,,,2025-09-25,1,,,,,アマルトレーディング,0
1149,5290001111457,新規,0,2025-09-25,2025-09-25,株式会社新葉,,株式会社,福岡県,那珂川市,片縄西４丁目１８番３０－２０９号,,40,231,8111202,,,,,,,2025-09-25,1,,,,,シンヨウ,0
1150,5290001111473,新規,0,2025-09-25,2025-09-25,株式会社角建,,株式会社,福岡県,太宰府市,大字北谷１０１番地,,40,221,8180114,,,,,,,2025-09-25,1,,,,,スミケン,0
1155,5290003017405,新規,0,2025-09-25,2025-09-25,合同会社雲揚テクノロジー,,合同会社,福岡県,福岡市中央区,天神１丁目９番地１７号福岡天神フコク生命ビル１５階サーブコープ,,40,133,8100001,,,,,,,2025-09-25,1,,,,,クモアゲテクノロジー,0
1156,5290003017495,新規,0,2025-09-25,2025-09-25,合同会社Ｎｅｗ　Ｒｉｖｅｒ,,合同会社,福岡県,福岡市博多区,美野島２丁目７番２５－２０３号,,40,132,8120017,,,,,,,2025-09-25,1,,,,,ニューリバー,0
1157,5290003017512,新規,0,2025-09-25,2025-09-25,Ｆ．Ｔ．Ｍ合同会社,,合同会社,福岡県,久留米市,山本町豊田２３４番地１,,40,203,8390827,,,,,,,2025-09-25,1,,,,,エフティーエム,0
1158,5290801031879,新規,0,2025-09-25,2025-09-25,株式会社平石建設,,株式会社,福岡県,田川市,大字夏吉１９０３番地３,,40,206,8250004,,,,,,,2025-09-25,1,,,,,ヒライシケンセツ,0
1167,5350005006333,新規,0,2025-09-25,2025-09-25,医療法人ねっこ,,その他の設立登記法人,宮崎県,小林市,堤２３２２－４,,45,205,8860003,,,,,,,2025-09-25,1,,,,,ネッコ,0
1168,5360001035814,新規,0,2025-09-25,2025-09-25,大阪自店株式会社,,株式会社,沖縄県,宮古島市,平良字西里８２５番地,,47,214,9060012,,,,,,,2025-09-25,1,,,,,オオサカジテン,0
1177,5420001019281,新規,0,2025-09-25,2025-09-25,ブルーポンド株式会社,,株式会社,青森県,八戸市,根城１丁目１番１２号メゾンプレセアＣ号室,,02,203,0391166,,,,,,,2025-09-25,1,,,,,ブルーポンド,0
1180,5430001095248,新規,0,2025-09-25,2025-09-25,アイコン．株式会社,,株式会社,北海道,札幌市清田区,美しが丘五条５丁目９番３８号,,01,110,0040815,,,,,,,2025-09-25,1,,,,,アイコン,0
1184,5470003002982,新規,0,2025-09-25,2025-09-25,合同会社中讃ベイグネッツ,,合同会社,香川県,丸亀市,飯野町東分１１５３番地１カーサフェリーチェ２０１,,37,202,7630085,,,,,,,2025-09-25,1,,,,,,0
1185,5490003002048,新規,0,2025-09-25,2025-09-25,合同会社だるま,,合同会社,高知県,高知市,仁井田４６１３番地２,,39,201,7810112,,,,,,,2025-09-25,1,,,,,ダルマ,0
1187,5500003003597,新規,0,2025-09-25,2025-09-25,合同会社アバロン,,合同会社,愛媛県,松山市,浅海原２０２番地１,,38,201,7992401,,,,,,,2025-09-25,1,,,,,アバロン,0
1188,5500005008818,新規,0,2025-09-25,2025-09-25,一般社団法人ダイバーシティ愛媛,,その他の設立登記法人,愛媛県,松山市,北斎院町４８０番地１,,38,201,7918031,,,,,,,2025-09-25,1,,,,,ダイバーシティエヒメ,0
1203,6010001258449,新規,0,2025-09-25,2025-09-25,Ｒ・ＳＰＡＣＥ株式会社,,株式会社,東京都,中央区,銀座７丁目１７－１８,,13,102,1040061,,,,,,,2025-09-25,1,,,,,アルスプエィス,0
1204,6010001258589,新規,0,2025-09-25,2025-09-25,株式会社Ｃａｌｅｎｏｒ,,株式会社,東京都,中央区,銀座６丁目１３番１６号銀座ＷａｌｌビルＵＣＦ５０１,,13,102,1040061,,,,,,,2025-09-25,1,,,,,カレノア,0
1205,6010001258787,新規,0,2025-09-25,2025-09-25,ＴＴ．ＤＥＳＩＧＮ株式会社,,株式会社,東京都,中央区,入船２丁目３番７築地エー・アイ・ユービル５階５０９号,,13,102,1040042,,,,,,,2025-09-25,1,,,,,ティーティーデザイン,0
1208,6010003048716,新規,0,2025-09-25,2025-09-25,合同会社ＮＯＵＣＡＲＥ,,合同会社,東京都,中央区,銀座１丁目１２番４号Ｎ＆ＥＢＬＤ．６Ｆ,,13,102,1040061,,,,,,,2025-09-25,1,,,,,ノウケア,0
1209,6010003048815,新規,0,2025-09-25,2025-09-25,ＫＥＩＧＡＮエナジー３号合同会社,,合同会社,東京都,中央区,銀座８丁目１５番２号ＡＣＮ銀座ビル２階,,13,102,1040061,,,,,,,2025-09-25,1,,,,,ケイガンエナジーサンゴウ,0
1213,6010401192859,新規,0,2025-09-25,2025-09-25,ＭＭ商会株式会社,,株式会社,東京都,港区,六本木１丁目９番１８－２０１０号,,13,103,1060032,,,,,,,2025-09-25,1,,,,,エムエムショウカイ,0
1214,6010403036122,新規,0,2025-09-25,2025-09-25,ＧＳＳＧ　Ｃｈｉｋｕｄｅｎ　Ａｓｓｅｔ　Ｍａｎａｇｅｍｅｎｔ合同会社,,合同会社,東京都,港区,高輪１丁目３番１３号ＮＢＦ高輪ビル７階,,13,103,1080074,,,,,,,2025-09-25,1,,,,,ジーエスエスジーチクデンアセットマネジメント,0
1217,6010601068000,新規,0,2025-09-25,2025-09-25,株式会社Ｌｕｖｉａ,,株式会社,東京都,墨田区,向島３丁目１９番９－７０３号ルフレグランデ押上,,13,107,1310033,,,,,,,2025-09-25,1,,,,,ルビア,0
1218,6010601068009,新規,0,2025-09-25,2025-09-25,株式会社Ｎｕｔｓ　Ｂｒｏｔｈｅｒｓ,,株式会社,東京都,墨田区,千歳３丁目６番５－２０６号,,13,107,1300025,,,,,,,2025-09-25,1,,,,,ナッツブラザーズ,0
1219,6010701048348,新規,0,2025-09-25,2025-09-25,株式会社アイクランチセラピューティクス,,株式会社,東京都,品川区,西五反田１丁目２６番２号五反田サンハイツビル２Ｆ,,13,109,1410031,,,,,,,2025-09-25,1,,,,,アイクランチセラピューティクス,0
1220,6010701048356,新規,0,2025-09-25,2025-09-25,ＫＯＤＯ株式会社,,株式会社,東京都,品川区,東五反田４丁目１０番２２号パークアクシス池田山１０１１,,13,109,1410022,,,,,,,2025-09-25,1,,,,,コドー,0
1222,6010805003208,新規,0,2025-09-25,2025-09-25,医療法人社団Ｌ　ｎｏａｈ,,その他の設立登記法人,東京都,大田区,萩中１丁目６番２２号白井ビル１階,,13,111,1440047,,,,,,,2025-09-25,1,,,,,エルノア,0
1228,6011001171939,新規,0,2025-09-25,2025-09-25,株式会社ｃｏｍｃｅ,,株式会社,東京都,渋谷区,恵比寿西２丁目８番４号ＥＸ恵比寿西ビル５階,,13,113,1500021,,,,,,,2025-09-25,1,,,,,コンチェ,0
1229,6011001172227,新規,0,2025-09-25,2025-09-25,大正発酵薬品株式会社,,株式会社,東京都,渋谷区,道玄坂１丁目１０番８号渋谷道玄坂東急ビル２Ｆ－Ｃ,,13,113,1500043,,,,,,,2025-09-25,1,,,,,タイショウハッコウヤクヒン,0
1230,6011001172607,新規,0,2025-09-25,2025-09-25,株式会社ＮＧＴＧ１８,,株式会社,東京都,渋谷区,渋谷１丁目３－１８ビラ・モデルナＡ４０２,,13,113,1500002,,,,,,,2025-09-25,1,,,,,エヌジーティージーイチハチ,0
1236,6011101113238,新規,0,2025-09-25,2025-09-25,ＪＡＮＯ　ＪＡＰＡＮ株式会社,,株式会社,東京都,新宿区,新宿２丁目１２番１３号新宿アントレサロンビル２階,,13,104,1600022,,,,,,,2025-09-25,1,,,,,ジャノジャパン,0
1237,6011101113246,新規,0,2025-09-25,2025-09-25,株式会社ＵｌｍｕｓＣｒａｆｔ,,株式会社,東京都,新宿区,西新宿３丁目３番１３号西新宿水間ビル２Ｆ,,13,104,1600023,,,,,,,2025-09-25,1,,,,,ウルムスクラフト,0
1238,6011103016372,新規,0,2025-09-25,2025-09-25,合同会社Ｍｅｍｏｒｙ　Ｎｅｓｔ,,合同会社,東京都,新宿区,原町３丁目１５番地１プラウド新宿牛込柳町２１４,,13,104,1620053,,,,,,,2025-09-25,1,,,,,メモリーネスト,0
1241,6011301030910,新規,0,2025-09-25,2025-09-25,株式会社アーキテック北斗不動産,,株式会社,東京都,杉並区,高円寺北２丁目８番１号,,13,115,1660002,,,,,,,2025-09-25,1,,,,,アーキテックホクトフドウサン,0
1245,6011401027427,新規,0,2025-09-25,2025-09-25,銘慧産業株式会社,,株式会社,東京都,板橋区,南常盤台１丁目１６－１５－３０７号,,13,119,1740072,,,,,,,2025-09-25,1,,,,,メイケイサンギョウ,0
1247,6011501032599,新規,0,2025-09-25,2025-09-25,株式会社ラサミヤ,,株式会社,東京都,荒川区,西日暮里６丁目１３－１２フジメゾン西日暮里２０５,,13,118,1160013,,,,,,,2025-09-25,1,,,,,ラサミヤ,0
1249,6011701028760,新規,0,2025-09-25,2025-09-25,ＬＸ株式会社,,株式会社,東京都,江戸川区,東葛西８丁目６番９号,,13,123,1340084,,,,,,,2025-09-25,1,,,,,エルエックス,0
1260,6012401043620,新規,0,2025-09-25,2025-09-25,株式会社ジョイント・Ｂ,,株式会社,東京都,調布市,緑ケ丘１丁目３６番地６２,,13,208,1820001,,,,,,,2025-09-25,1,,,,,ジョイントビー,0
1269,6020001164893,新規,0,2025-09-25,2025-09-25,リチャード・アセット・インベストメント株式会社,,株式会社,神奈川県,川崎市宮前区,有馬５丁目７番１０号,,14,136,2160003,,,,,,,2025-09-25,1,,,,,リチャードアセットインベストメント,0
1270,6020001165017,新規,0,2025-09-25,2025-09-25,ＨＲコンシェルジュ株式会社,,株式会社,神奈川県,横浜市青葉区,美しが丘１丁目１１－６第５キングビル２０７,,14,117,2250002,,,,,,,2025-09-25,1,,,,,エイチアールコンシェルジュ,0
1273,6020003029426,新規,0,2025-09-25,2025-09-25,合同会社キャピタル,,合同会社,神奈川県,横浜市神奈川区,三ツ沢下町３－１５ＹＫビル４階,,14,102,2210852,,,,,,,2025-09-25,1,,,,,キャピタル,0
1274,6020003029442,新規,0,2025-09-25,2025-09-25,合同会社高海興業,00140785,合同会社,神奈川県,横浜市泉区,緑園１丁目１４番地７ロワール緑園Ｄ２０１号,,14,116,2450002,,,,,,,2025-09-25,1,,,,,タカウミコウギョウ,0
1278,6030001168547,新規,0,2025-09-25,2025-09-25,北方天株式会社,,株式会社,埼玉県,さいたま市大宮区,高鼻町１丁目２０－１大宮中央ビルディングＢ１Ｆ,,11,103,3300803,,,,,,,2025-09-25,1,,,,,ホクホウテン,0
1280,6040001140521,新規,0,2025-09-25,2025-09-25,五木田株式会社,,株式会社,千葉県,山武市,五木田４１４７番地５,,12,237,2891316,,,,,,,2025-09-25,1,,,,,ゴキタ,0
1281,6040001140562,新規,0,2025-09-25,2025-09-25,はたらくまち株式会社,,株式会社,千葉県,松戸市,五香南１丁目１３番地の３,,12,207,2702212,,,,,,,2025-09-25,1,,,,,ハタラクマチ,0
1287,6050003009598,新規,0,2025-09-25,2025-09-25,ＰＩＲ　ＡＬＩ　ＭＯＨＡＭＭＡＤ　ＴＲＡＤＩＮＧ合同会社,,合同会社,茨城県,笠間市,稲田１９５０番地１,,08,216,3091635,,,,,,,2025-09-25,1,,,,,ピールアリモハドトレーディング,0
1288,6050003009607,新規,0,2025-09-25,2025-09-25,Ｐａｋ　Ｊａｐａｎ　Ｔｒａｄｉｎｇ合同会社,,合同会社,茨城県,古河市,東牛谷１３５６東ハイツ１棟２０２号室,,08,204,3060232,,,,,,,2025-09-25,1,,,,,パークジャパントレーディング,0
1289,6050003009623,新規,0,2025-09-25,2025-09-25,合同会社クローバー,,合同会社,茨城県,稲敷郡阿見町,うずら野４丁目２１番地２パストラル宮岡第２―１０３号,,08,443,3000341,,,,,,,2025-09-25,1,,,,,クローバー,0
1291,6060003005745,新規,0,2025-09-25,2025-09-25,合同会社ＮＨパルミー,,合同会社,栃木県,栃木市,岩舟町下津原１６５－５,,09,203,3294308,,,,,,,2025-09-25,1,,,,,エヌエイチパルミー,0
1293,6070003006107,新規,0,2025-09-25,2025-09-25,合同会社ＢＡＬＬＧＡＭＥＳ,,合同会社,群馬県,邑楽郡明和町,江口７３８番地,,10,522,3700706,,,,,,,2025-09-25,1,,,,,ボールゲームズ,0
1296,6080101025800,新規,0,2025-09-25,2025-09-25,株式会社ナミキ,,株式会社,静岡県,富士宮市,粟倉１５７９番地の１,,22,207,4180011,,,,,,,2025-09-25,1,,,,,ナミキ,0
1299,6090005007737,新規,0,2025-09-25,2025-09-25,一般社団法人いきいきライフ協会ふれあい,,その他の設立登記法人,山梨県,山梨市,上神内川１７３６番地１０３,,19,205,4050018,,,,,,,2025-09-25,1,,,,,イキイキライフキョウカイフレアイ,0
1300,6100001038981,新規,0,2025-09-25,2025-09-25,株式会社フェリオ．アイエム,,株式会社,長野県,長野市,南千歳１丁目３－１５,,20,201,3800823,,,,,,,2025-09-25,1,,,,,フェリオアイエム,0
1314,6120001279715,新規,0,2025-09-25,2025-09-25,尼佐株式会社,,株式会社,大阪府,大阪市北区,本庄東３丁目３番７号マンション淀３０３Ａ,,27,127,5310074,,,,,,,2025-09-25,1,,,,,アマサ,0
1315,6120001279962,新規,0,2025-09-25,2025-09-25,ＪＥＮ株式会社,,株式会社,大阪府,大阪市西成区,玉出東１丁目８番２４号,,27,122,5570043,,,,,,,2025-09-25,1,,,,,ジェイイーエヌ,0
1316,6120001279995,新規,0,2025-09-25,2025-09-25,智雄株式会社,,株式会社,大阪府,大阪市港区,弁天３丁目１０番２０号港ＯＧＩビル３１０号室,,27,107,5520007,,,,,,,2025-09-25,1,,,,,チオ,0
1317,6120001280078,新規,0,2025-09-25,2025-09-25,Ｋ‐ＴＥＣ　Ｔｒａｄｉｎｇ株式会社,,株式会社,大阪府,大阪市淀川区,新北野３丁目７番１４号グランビルド新北野Ｉ２０６,,27,123,5320025,,,,,,,2025-09-25,1,,,,,ケイテックトレーディング,0
1318,6120001280160,新規,0,2025-09-25,2025-09-25,株式会社ＴＳＭ,,株式会社,大阪府,大阪市城東区,鴫野東１丁目５番３５号,,27,118,5360013,,,,,,,2025-09-25,1,,,,,ティーエスエム,0
1319,6120001280251,新規,0,2025-09-25,2025-09-25,萬川株式会社,,株式会社,大阪府,大阪市城東区,野江３丁目２６番１１－４０１号,,27,118,5360006,,,,,,,2025-09-25,1,,,,,バンセン,0
1320,6120001280342,新規,0,2025-09-25,2025-09-25,株式会社ＲＩＮ　ｐａｒｔｎｅｒｓ,,株式会社,大阪府,大阪市中央区,備後町２丁目４番６号森田ビルディング,,27,128,5410051,,,,,,,2025-09-25,1,,,,,リンパートナーズ,0
1333,6130001080584,新規,0,2025-09-25,2025-09-25,創和株式会社,,株式会社,京都府,京都市左京区,静市市原町１５９－５,,26,103,6011123,,,,,,,2025-09-25,1,,,,,ソウワ,0
1334,6130001080592,新規,0,2025-09-25,2025-09-25,星嶼株式会社,,株式会社,京都府,木津川市,加茂町里中森２６番地１４、１Ｆ,,26,214,6191152,,,,,,,2025-09-25,1,,,,,セイジョ,0
1345,6140003022600,新規,0,2025-09-25,2025-09-25,ＴＵＯＮＧ　ＳＡＮ合同会社,,合同会社,兵庫県,姫路市,花田町加納原田２９７－７号,,28,201,6710252,,,,,,,2025-09-25,1,,,,,トゥンサン,0
1347,6150001028417,新規,0,2025-09-25,2025-09-25,株式会社アシスト,,株式会社,奈良県,北葛城郡広陵町,大字南郷１０４５番地２,,29,426,6350814,,,,,,,2025-09-25,1,,,,,アシスト,0
1358,6180001168714,新規,0,2025-09-25,2025-09-25,ＬＩＴＡＴＥ株式会社,,株式会社,愛知県,名古屋市中村区,名駅５丁目２番１７号,,23,105,4500002,,,,,,,2025-09-25,1,,,,,リタテ,0
1359,6180001168739,新規,0,2025-09-25,2025-09-25,株式会社ガーディアン,,株式会社,愛知県,名古屋市熱田区,旗屋２丁目１１番１７号,,23,109,4560027,,,,,,,2025-09-25,1,,,,,ガーディアン,0
1360,6180001168747,新規,0,2025-09-25,2025-09-25,ＬＯＴＡＹＡ株式会社,,株式会社,愛知県,名古屋市北区,平手町１丁目６番地クレアール１階,,23,103,4620057,,,,,,,2025-09-25,1,,,,,ロタヤ,0
1365,6190001032555,新規,0,2025-09-25,2025-09-25,株式会社大軍通商,,株式会社,三重県,四日市市,西山町６９７２番地２,,24,202,5121103,,,,,,,2025-09-25,1,,,,,ダイグンツウショウ,0
1372,6240001065541,新規,0,2025-09-25,2025-09-25,株式会社Ｊｏｙ　Ｒｉｐｐｌｅ,,株式会社,広島県,福山市,駅家町大字弥生ケ丘１０番地９９,,34,207,7201135,,,,,,,2025-09-25,1,,,,,ジョイリップル,0
1373,6250001021337,新規,0,2025-09-25,2025-09-25,株式会社ＬＥＯＳ,,株式会社,山口県,岩国市,麻里布町２丁目５番１８号２Ｆ,,35,208,7400018,,,,,,,2025-09-25,1,,,,,レオス,0
1381,6290001111472,新規,0,2025-09-25,2025-09-25,株式会社福岡中央地所,,株式会社,福岡県,福岡市南区,若久４丁目１０番２０号,,40,134,8150042,,,,,,,2025-09-25,1,,,,,フクオカチュウオウジショ,0
1382,6290001111596,新規,0,2025-09-25,2025-09-25,株式会社アブドラ・トレーディング,,株式会社,福岡県,うきは市,浮羽町高見１４５９番地,,40,225,8391406,,,,,,,2025-09-25,1,,,,,アブドラトレーディング,0
1385,6290003017486,新規,0,2025-09-25,2025-09-25,アイビーの森合同会社,,合同会社,福岡県,福岡市東区,唐原３丁目１６－４ノーベルハウス１０３号室,,40,131,8130001,,,,,,,2025-09-25,1,,,,,アイビーノモリ,0
1386,6290003017511,新規,0,2025-09-25,2025-09-25,ＭＩＮＧ＆ＬＩＮＧ合同会社,,合同会社,福岡県,福岡市博多区,千代５丁目３番３２号ルミナス博多１０６号室,,40,132,8120044,,,,,,,2025-09-25,1,,,,,ミンアンドリン,0
1395,6330001033605,新規,0,2025-09-25,2025-09-25,株式会社輪,,株式会社,熊本県,熊本市北区,植木町舟島３７９番地１,,43,105,8610114,,,,,,,2025-09-25,1,,,,,リン,0
1428,7010001258571,新規,0,2025-09-25,2025-09-25,株式会社銀座絵本ハウス,,株式会社,東京都,中央区,銀座６丁目７－１６岩月ビル７０８,,13,102,1040061,,,,,,,2025-09-25,1,,,,,ギンザエホンハウス,0
1429,7010001258638,新規,0,2025-09-25,2025-09-25,バイタリティー・ケア・ホールディングス株式会社,,株式会社,東京都,千代田区,神田錦町３丁目１５番地錦精社神田ビル天翔オフィス大手町竹橋１階１２２号室,,13,101,1010054,,,,,,,2025-09-25,1,,,,,バイタリティーケアホールディングス,0
1430,7010001258670,新規,0,2025-09-25,2025-09-25,時喜人文株式会社,,株式会社,東京都,中央区,新川１丁目７番１号,,13,102,1040033,,,,,,,2025-09-25,1,,,,,ジキジンブン,0
1431,7010001258712,新規,0,2025-09-25,2025-09-25,株式会社Ｎｏｐｓｅ,,株式会社,東京都,千代田区,神田和泉町１番地６－１６ヤマトビル４０５,,13,101,1010024,,,,,,,2025-09-25,1,,,,,ノープス,0
1434,7010003048814,新規,0,2025-09-25,2025-09-25,ＫＥＩＧＡＮエナジー２号合同会社,,合同会社,東京都,中央区,銀座８丁目１５番２号ＡＣＮ銀座ビル２階,,13,102,1040061,,,,,,,2025-09-25,1,,,,,ケイガンエナジーニゴウ,0
1437,7010101016879,新規,0,2025-09-25,2025-09-25,株式会社松美屋,,株式会社,東京都,八王子市,堀之内８７５番地３,,13,201,1920355,,,,,,,2025-09-25,1,,,,,マツミヤ,0
1439,7010401193303,新規,0,2025-09-25,2025-09-25,ＬｕｍｉＶｉｖ株式会社,,株式会社,東京都,港区,西新橋３丁目１３－７ＶＯＲＴ虎ノ門ｓｏｕｔｈ１２Ｆ,,13,103,1050003,,,,,,,2025-09-25,1,,,,,ルミヴィブ,0
1440,7010403036071,新規,0,2025-09-25,2025-09-25,日本ハネウェル・エアロスペース合同会社,,合同会社,東京都,港区,元麻布３丁目１番６号,,13,103,1060046,,,,,,,2025-09-25,1,,,,,ニホンハネウェルエアロスペース,0
1441,7010403036096,新規,0,2025-09-25,2025-09-25,マイルストーン合同会社,,合同会社,東京都,港区,六本木１丁目９番１０号アークヒルズ仙石山森タワー４０階,,13,103,1060032,,,,,,,2025-09-25,1,,,,,マイルストーン,0
1442,7010403036105,新規,0,2025-09-25,2025-09-25,合同会社ＫｏｒｏｎＣｏｒｏｎ,,合同会社,東京都,港区,北青山１丁目３番１号アールキューブ青山３階,,13,103,1070061,,,,,,,2025-09-25,1,,,,,コロンコロン,0
1451,7010603011799,新規,0,2025-09-25,2025-09-25,Ｂｅｙｏｎｄ　ＨｅａｌｔｈＴｅｃｈ合同会社,,合同会社,東京都,江東区,豊洲２丁目５－１,,13,108,1350061,,,,,,,2025-09-25,1,,,,,ビヨンドヘルステック,0
1463,7011001172606,新規,0,2025-09-25,2025-09-25,株式会社ＮＧＴＧ１７,,株式会社,東京都,渋谷区,渋谷１丁目３－１８ビラ・モデルナＡ４０２,,13,113,1500002,,,,,,,2025-09-25,1,,,,,エヌジーティージーイチナナ,0
1474,7011201026660,新規,0,2025-09-25,2025-09-25,株式会社Ｔａｋａｒａ　Ｉｎ　Ｎｉｐｐｏｎ,,株式会社,東京都,中野区,中野３丁目２８番２１号,,13,114,1640001,,,,,,,2025-09-25,1,,,,,タカラインニッポン,0
1476,7011401027426,新規,0,2025-09-25,2025-09-25,神花商事株式会社,,株式会社,東京都,板橋区,徳丸１丁目５５－６モデュロール東武練馬１０２号室,,13,119,1750083,,,,,,,2025-09-25,1,,,,,シンカショウジ,0
1477,7011503006699,新規,0,2025-09-25,2025-09-25,Ｍｉｒａｉ　Ｔｒａｄｅ合同会社,,合同会社,東京都,北区,浮間１丁目１番１４号リムジンビル３３５,,13,117,1150051,,,,,,,2025-09-25,1,,,,,ミライトレード,0
1479,7011703004395,新規,0,2025-09-25,2025-09-25,Ａｕｔｕｍｎ　Ｗｈｉｓｐｅｒ合同会社,,合同会社,東京都,江戸川区,松島３丁目１４番７－３０５号若林ビル,,13,123,1320031,,,,,,,2025-09-25,1,,,,,オータムウィスパー,0
1483,7011803007109,新規,0,2025-09-25,2025-09-25,合同会社ケアフロー,,合同会社,東京都,足立区,梅島３丁目３３番６号エンブレム西新井２Ｆ－１５号室,,13,121,1210816,,,,,,,2025-09-25,1,,,,,ケアフロー,0
1506,7020003029301,新規,0,2025-09-25,2025-09-25,ｆｒａｎｔｉｃａｌｌｙ合同会社,,合同会社,神奈川県,横浜市磯子区,森５丁目１１番３８号,,14,107,2350023,,,,,,,2025-09-25,1,,,,,フランティカリィ,0
1508,7020003029409,新規,0,2025-09-25,2025-09-25,ＳＯＲＡ合同会社,,合同会社,神奈川県,横浜市鶴見区,潮田町１丁目１５－４０１,,14,101,2300041,,,,,,,2025-09-25,1,,,,,ソラ,0
1509,7020003029458,新規,0,2025-09-25,2025-09-25,Ｐｒｅｈ　Ｊａｐａｎ合同会社,,合同会社,神奈川県,横浜市港北区,新横浜３丁目１７番地１２アルファスペース新横浜４階４０６,,14,109,2220033,,,,,,,2025-09-25,1,,,,,プレイジャパン,0
1516,7021003016561,新規,0,2025-09-25,2025-09-25,東洋日本合同会社,,合同会社,神奈川県,愛甲郡愛川町,半原４６６７番地５,,14,401,2430307,,,,,,,2025-09-25,1,,,,,トウヨウニホン,0
1523,7030001168728,新規,0,2025-09-25,2025-09-25,株式会社ようく,,株式会社,埼玉県,さいたま市中央区,本町東５丁目５番１８号,,11,105,3380003,,,,,,,2025-09-25,1,,,,,ヨウク,0
1524,7030001168777,新規,0,2025-09-25,2025-09-25,株式会社＿得,00140779,株式会社,埼玉県,本庄市,寿３丁目２－１,,11,211,3670023,,,,,,,2025-09-25,1,,,,,シントク,0
1528,7030003027675,新規,0,2025-09-25,2025-09-25,ゼットワン合同会社,,合同会社,埼玉県,越谷市,大沢１６７３番地１０,,11,222,3430025,,,,,,,2025-09-25,1,,,,,ゼットワン,0
1534,7040001140446,新規,0,2025-09-25,2025-09-25,Ｔｅｎｏｖａ株式会社,,株式会社,千葉県,船橋市,印内２丁目３番１５号ＴＯＰ西船橋第一３０６,,12,204,2730039,,,,,,,2025-09-25,1,,,,,テノヴァ,0
1535,7040001140537,新規,0,2025-09-25,2025-09-25,株式会社なつめ創建,,株式会社,千葉県,柏市,柏６９０番地９１,,12,217,2770005,,,,,,,2025-09-25,1,,,,,ナツメソウケン,0
1536,7040001140561,新規,0,2025-09-25,2025-09-25,ＳＨＮＳＨＵ　ＭＩＲＡＩ株式会社,,株式会社,千葉県,千葉市中央区,東千葉２丁目３２番８号,,12,101,2600041,,,,,,,2025-09-25,1,,,,,サンスミライ,0
1540,7040003028549,新規,0,2025-09-25,2025-09-25,ＦＵＪＩＹＡＭＡ合同会社,,合同会社,千葉県,佐倉市,上志津１５９９－６９,,12,212,2850846,,,,,,,2025-09-25,1,,,,,フジヤマ,0
1543,7050003009572,新規,0,2025-09-25,2025-09-25,合同会社ＧＡＲＡＧＥ　ＳＫＩＬＬ　ＦＵＬＬ,,合同会社,茨城県,つくば市,作谷３４２３番地１,,08,220,3004204,,,,,,,2025-09-25,1,,,,,ガレージスキルフル,0
1544,7050003009606,新規,0,2025-09-25,2025-09-25,双龍商事合同会社,,合同会社,茨城県,取手市,椚木１８５番地の１,,08,217,3001511,,,,,,,2025-09-25,1,,,,,,0
1567,7110003005895,新規,0,2025-09-25,2025-09-25,合同会社百屋,,合同会社,新潟県,三条市,東三条１丁目２２番１０号アパマンション壱番館８０８号室,,15,204,9550047,,,,,,,2025-09-25,1,,,,,モモヤ,0
1577,7120001279912,新規,0,2025-09-25,2025-09-25,発財株式会社,,株式会社,大阪府,大阪市西区,北堀江２丁目３番１０－４０１号,,27,106,5500014,,,,,,,2025-09-25,1,,,,,ハツザイ,0
1578,7120001279929,新規,0,2025-09-25,2025-09-25,Ｂａｉｌｅｙ株式会社,,株式会社,大阪府,大阪市大正区,小林東３丁目１番１５号２０４号室,,27,108,5510011,,,,,,,2025-09-25,1,,,,,ベイリー,0
1579,7120001279937,新規,0,2025-09-25,2025-09-25,株式会社エムシーラボラトリー,,株式会社,大阪府,大阪市北区,大淀中５丁目９番３号,,27,127,5310076,,,,,,,2025-09-25,1,,,,,エムシーラボラトリー,0
1580,7120001280077,新規,0,2025-09-25,2025-09-25,鶴宝文化傳媒株式会社,,株式会社,大阪府,大阪市西成区,松３丁目１２番２号松三丁目事務所１０２号室,,27,122,5570034,,,,,,,2025-09-25,1,,,,,ツルホウブンカデンバイ,0
1581,7120001280218,新規,0,2025-09-25,2025-09-25,盛世株式会社,,株式会社,大阪府,大阪市東住吉区,中野４丁目１番１６号リベラルオリエンテ中野５０２Ｂ,,27,121,5460012,,,,,,,2025-09-25,1,,,,,セイセ,0
1582,7120001280226,新規,0,2025-09-25,2025-09-25,ＨＯ　ＳＯＮＧ　ＪＰ株式会社,,株式会社,大阪府,大阪市住之江区,南港北２丁目１番１０号ＡＴＣビルＯ’ｓ棟北館５２０－１１３号室,,27,125,5590034,,,,,,,2025-09-25,1,,,,,ホーソンジェイピー,0
1583,7120001280291,新規,0,2025-09-25,2025-09-25,杰克・余株式会社,,株式会社,大阪府,大阪市西成区,天下茶屋２丁目２０番１６－３０３号,,27,122,5570014,,,,,,,2025-09-25,1,,,,,ジャックヨ,0
1586,7120003030645,新規,0,2025-09-25,2025-09-25,合同会社友祥建設,,合同会社,大阪府,大阪市中央区,谷町５丁目２番７－１１０６号,,27,128,5400012,,,,,,,2025-09-25,1,,,,,ユウショウケンセツ,0
1589,7120903005861,新規,0,2025-09-25,2025-09-25,合同会社エスライズ,,合同会社,大阪府,吹田市,岸部中５丁目２番５－２０８号,,27,205,5640002,,,,,,,2025-09-25,1,,,,,エスライズ,0
1592,7122001039651,新規,0,2025-09-25,2025-09-25,株式会社Ｗａｎｏｍａ,,株式会社,大阪府,東大阪市,小阪１丁目２番３号,,27,227,5770801,,,,,,,2025-09-25,1,,,,,ワノマ,0
1597,7140001140089,新規,0,2025-09-25,2025-09-25,株式会社ハイクアップ,,株式会社,兵庫県,西脇市,小坂町１２６番地の４リジエール・アン２０１,,28,213,6770017,,,,,,,2025-09-25,1,,,,,ハイクアップ,0
1598,7140001140122,新規,0,2025-09-25,2025-09-25,アズオート株式会社,,株式会社,兵庫県,神戸市灘区,城内通２丁目５番７号,,28,102,6570836,,,,,,,2025-09-25,1,,,,,アズオート,0
1603,7140003022616,新規,0,2025-09-25,2025-09-25,ＭＮＴ合同会社,,合同会社,兵庫県,小野市,西本町５６７－１宮元マンション１Ｆ,,28,218,6751375,,,,,,,2025-09-25,1,,,,,エムエヌティー,0
1608,7180001168738,新規,0,2025-09-25,2025-09-25,ＥＮＩＳＨＩ　Ｗｏｒｋｓ株式会社,,株式会社,愛知県,大府市,追分町３丁目２９６番地,,23,223,4740027,,,,,,,2025-09-25,1,,,,,エニシワークス,0
1627,7240003007417,新規,0,2025-09-25,2025-09-25,合同会社ポラリス,,合同会社,広島県,広島市中区,大手町４丁目５番２－６０５号,,34,101,7300051,,,,,,,2025-09-25,1,,,,,ポラリス,0
1628,7260001040574,新規,0,2025-09-25,2025-09-25,Ｄ．ＣＯＬＯＲ株式会社,,株式会社,岡山県,倉敷市,児島味野２丁目３番２号,,33,202,7110913,,,,,,,2025-09-25,1,,,,,ディーカラー,0
1634,7290001111430,新規,0,2025-09-25,2025-09-25,株式会社グッドサイクル,,株式会社,福岡県,大野城市,白木原１丁目９番３７－１１０１号シュヴァル・マラン大野城,,40,219,8160943,,,,,,,2025-09-25,1,,,,,グッドサイクル,0
1636,7290003017411,新規,0,2025-09-25,2025-09-25,合同会社くわしん,,合同会社,福岡県,飯塚市,飯塚１０番３号,,40,205,8200041,,,,,,,2025-09-25,1,,,,,クワシン,0
1637,7290801031869,新規,0,2025-09-25,2025-09-25,株式会社ＮＩＳＨＩＫＩ,,株式会社,福岡県,北九州市小倉北区,東城野町２－２５,,40,106,8020054,,,,,,,2025-09-25,1,,,,,ニシキ,0
1638,7290801031877,新規,0,2025-09-25,2025-09-25,ｎａｎｏ株式会社,,株式会社,福岡県,北九州市小倉南区,湯川５丁目８－１０エステート湯川２０１,,40,107,8000257,,,,,,,2025-09-25,1,,,,,ナノ,0
1643,7320001021353,新規,0,2025-09-25,2025-09-25,株式会社アローズ,,株式会社,大分県,別府市,北浜１丁目１５番１４号,,44,202,8740920,,,,,,,2025-09-25,1,,,,,アローズ,0
1654,7370001053061,新規,0,2025-09-25,2025-09-25,株式会社ｄｏｍｍシステムクリエイション,,株式会社,宮城県,多賀城市,八幡２丁目１５番１８号,,04,209,9850874,,,,,,,2025-09-25,1,,,,,ドムシステムクリエイション,0
1661,7430001095312,新規,0,2025-09-25,2025-09-25,株式会社キートス,,株式会社,北海道,札幌市中央区,宮の森二条１２丁目３番１０－１０１号,,01,101,0640952,,,,,,,2025-09-25,1,,,,,キートス,0
1662,7430001095320,新規,0,2025-09-25,2025-09-25,株式会社ＵＤＧ,,株式会社,北海道,札幌市手稲区,富丘四条２丁目４番１０号,,01,109,0060014,,,,,,,2025-09-25,1,,,,,ユーディージー,0
1665,7470003002972,新規,0,2025-09-25,2025-09-25,Ｍｉｒａｉ‐ｋｌ　Ｇｌｏｂａｌ合同会社,,合同会社,香川県,高松市,中野町２９番５号,,37,201,7600008,,,,,,,2025-09-25,1,,,,,,0
1674,8010001258570,新規,0,2025-09-25,2025-09-25,株式会社ソマト,,株式会社,東京都,中央区,日本橋富沢町４－９,,13,102,1030006,,,,,,,2025-09-25,1,,,,,ソマト,0
1675,8010003048755,新規,0,2025-09-25,2025-09-25,ＮＥＸＴ　ＯＮＥ合同会社,,合同会社,東京都,中央区,日本橋室町１丁目１１番１２号日本橋水野ビル７階,,13,102,1030022,,,,,,,2025-09-25,1,,,,,ネックストワン,0
1682,8010405024809,新規,0,2025-09-25,2025-09-25,一般社団法人マイルストーン,,その他の設立登記法人,東京都,港区,六本木１丁目９番１０号アークヒルズ仙石山森タワー４０階,,13,103,1060032,,,,,,,2025-09-25,1,,,,,マイルストーン,0
1686,8010601067990,新規,0,2025-09-25,2025-09-25,株式会社Ｄｉｐｓ,,株式会社,東京都,江東区,北砂４丁目１９番３０－２０５号,,13,108,1360073,,,,,,,2025-09-25,1,,,,,ディップス,0
1687,8010603011798,新規,0,2025-09-25,2025-09-25,合同会社ベス２号,,合同会社,東京都,江東区,亀戸９丁目１９－７,,13,108,1360071,,,,,,,2025-09-25,1,,,,,ベスニゴウ,0
1700,8011001172225,新規,0,2025-09-25,2025-09-25,株式会社Ｍｙ　ａｌｌｙ,,株式会社,東京都,渋谷区,神南１丁目１１－４ＦＰＧリンクス神南５階,,13,113,1500041,,,,,,,2025-09-25,1,,,,,マイアライ,0
1701,8011001172605,新規,0,2025-09-25,2025-09-25,株式会社ＮＧＴＧ１６,,株式会社,東京都,渋谷区,渋谷１丁目３－１８ビラ・モデルナＡ４０２,,13,113,1500002,,,,,,,2025-09-25,1,,,,,エヌジーティージーイチロク,0
1702,8011003022337,新規,0,2025-09-25,2025-09-25,Ｔｒｕｖｅｓｔ合同会社,,合同会社,東京都,渋谷区,鉢山町２－４、３０１,,13,113,1500035,,,,,,,2025-09-25,1,,,,,トゥルーベスト,0
1703,8011003022353,新規,0,2025-09-25,2025-09-25,合同会社ＢＬＵＲＡ,,合同会社,東京都,渋谷区,円山町５番３号ＭＩＥＵＸ渋谷ビル８階,,13,113,1500044,,,,,,,2025-09-25,1,,,,,ブルラ,0
1705,8011103016445,新規,0,2025-09-25,2025-09-25,サステナブルエナジー５号合同会社,,合同会社,東京都,新宿区,西新宿６丁目２０－１２山口ビル５階,,13,104,1600023,,,,,,,2025-09-25,1,,,,,サステナブルエナジーゴゴウ,0
1708,8011203004829,新規,0,2025-09-25,2025-09-25,合同会社Ｄｉｓａｇｅ,,合同会社,東京都,中野区,野方３丁目６番３８号,,13,114,1650027,,,,,,,2025-09-25,1,,,,,ディセージ,0
1710,8011303005727,新規,0,2025-09-25,2025-09-25,合同会社耕智堂,,合同会社,東京都,杉並区,和泉２丁目２０番３号,,13,115,1680063,,,,,,,2025-09-25,1,,,,,コウチドウ,0
1712,8011401027425,新規,0,2025-09-25,2025-09-25,観晟株式会社,,株式会社,東京都,板橋区,氷川町４４番１０ＷＩＬＬＯＬＩＭＰＩＡ氷川町１０２号室,,13,119,1730013,,,,,,,2025-09-25,1,,,,,カンセイ,0
1713,8011403004868,新規,0,2025-09-25,2025-09-25,サン五スパイス合同会社,,合同会社,東京都,板橋区,徳丸４丁目７－１０こがねマンション５０３号,,13,119,1750083,,,,,,,2025-09-25,1,,,,,サンゴスパイス,0
1718,8011801046776,新規,0,2025-09-25,2025-09-25,森馳リンク株式会社,,株式会社,東京都,足立区,千住仲町２５番４号,,13,121,1200036,,,,,,,2025-09-25,1,,,,,モリハセリンク,0
1730,8013301055010,新規,0,2025-09-25,2025-09-25,株式会社ハーモニーテクノロジー,,株式会社,東京都,豊島区,池袋２丁目１７番８号天翔池袋西口ＡＮＮＥＸビル１０６,,13,116,1710014,,,,,,,2025-09-25,1,,,,,ハーモニーテクノロジー,0
1745,8020003029440,新規,0,2025-09-25,2025-09-25,合同会社Ｃ９,,合同会社,神奈川県,川崎市麻生区,万福寺４丁目１９番１－２１６号,,14,137,2150004,,,,,,,2025-09-25,1,,,,,シーナイン,0
1747,8021001086325,新規,0,2025-09-25,2025-09-25,ＳＰＡＲＫ５株式会社,,株式会社,神奈川県,平塚市,真田３丁目２番１０号,,14,203,2591206,,,,,,,2025-09-25,1,,,,,スパークファイブ,0
1754,8030001168735,新規,0,2025-09-25,2025-09-25,ＴＡＪ　ｔｒａｄｉｎｇ株式会社,,株式会社,埼玉県,蕨市,南町４丁目１－１９ペアーズ・おおとり３０１号,,11,223,3350003,,,,,,,2025-09-25,1,,,,,ティエイジェイトレーディング,0
1755,8030001168776,新規,0,2025-09-25,2025-09-25,株式会社ＨＢ　ＴＲＡＤＩＮＧ,,株式会社,埼玉県,羽生市,南５丁目１１番地２１－Ｃ棟,,11,216,3480053,,,,,,,2025-09-25,1,,,,,エイチビートレーディング,0
1760,8030003027674,新規,0,2025-09-25,2025-09-25,ＴＵ　ＤＯ合同会社,,合同会社,埼玉県,川口市,大字安行慈林８３２番の１９川口ビジネスセンター２Ｃ号室,,11,203,3340071,,,,,,,2025-09-25,1,,,,,トゥゾー,0
1761,8030003027682,新規,0,2025-09-25,2025-09-25,ＡＮＨ　ＱＵＡＮ合同会社,,合同会社,埼玉県,坂戸市,伊豆の山町２１番地３９ＫＩＶオフィス伊豆の山２号棟Ｃ号室,,11,239,3500275,,,,,,,2025-09-25,1,,,,,アインクアン,0
1766,8040001140552,新規,0,2025-09-25,2025-09-25,アッシュガーレ株式会社,,株式会社,千葉県,千葉市中央区,道場北１丁目８番２１号Ｇ－ＨＡＮＧＡＲ１８２１・１号室,,12,101,2600006,,,,,,,2025-09-25,1,,,,,アッシュガーレ,0
1767,8040001140593,新規,0,2025-09-25,2025-09-25,株式会社Ｍａｎｏ,,株式会社,千葉県,千葉市緑区,あすみが丘７丁目１６番地１,,12,105,2670066,,,,,,,2025-09-25,1,,,,,マノ,0
1768,8040003028564,新規,0,2025-09-25,2025-09-25,合同会社ｅｓｐｏｉｒ,,合同会社,千葉県,千葉市中央区,中央１丁目８番５号リ－ジェントビル２階,,12,101,2600013,,,,,,,2025-09-25,1,,,,,エスポワール,0
1769,8040003028606,新規,0,2025-09-25,2025-09-25,合同会社ＤＥＬＩＧＨＴ　ＣＯＮＣＥＰＴ,,合同会社,千葉県,印西市,大森２５６４番地４６－２０２,,12,231,2701327,,,,,,,2025-09-25,1,,,,,ディライトコンセプト,0
1772,8050001057325,新規,0,2025-09-25,2025-09-25,株式会社リップル・リング,,株式会社,茨城県,ひたちなか市,大字長砂１５２０番地９,,08,221,3120004,,,,,,,2025-09-25,1,,,,,リップルリング,0
1776,8050003009605,新規,0,2025-09-25,2025-09-25,合同会社ＹＡＬＥＥ,,合同会社,茨城県,猿島郡境町,大字若林４２２１番地１,,08,546,3060417,,,,,,,2025-09-25,1,,,,,イェリー,0
1777,8050003009613,新規,0,2025-09-25,2025-09-25,合同会社ことぶき,,合同会社,茨城県,ひたちなか市,東石川３丁目１３－１０,,08,221,3120052,,,,,,,2025-09-25,1,,,,,コトブキ,0
1781,8060001038588,新規,0,2025-09-25,2025-09-25,株式会社井上管財,,株式会社,栃木県,宇都宮市,上籠谷町２０５８－４,,09,201,3213233,,,,,,,2025-09-25,1,,,,,イノウエカンザイ,0
1783,8070001043372,新規,0,2025-09-25,2025-09-25,Ｋ．Ｓパートナーズ株式会社,,株式会社,群馬県,伊勢崎市,波志江町１６１番地４,,10,204,3720001,,,,,,,2025-09-25,1,,,,,ケーエスパートナーズ,0
1784,8070003006105,新規,0,2025-09-25,2025-09-25,合同会社徳大,,合同会社,群馬県,伊勢崎市,西小保方町５３０番地２歩２０６,,10,204,3792224,,,,,,,2025-09-25,1,,,,,トクヒロ,0
1798,8120001279614,新規,0,2025-09-25,2025-09-25,沢輝株式会社,,株式会社,大阪府,大阪市淀川区,三国本町１丁目１４番３９号４階,,27,123,5320005,,,,,,,2025-09-25,1,,,,,サワテル,0
1799,8120001279746,新規,0,2025-09-25,2025-09-25,宝嘉株式会社,,株式会社,大阪府,大阪市都島区,内代町１丁目１－２８フェブライオ都島本通８０２,,27,102,5340013,,,,,,,2025-09-25,1,,,,,ホウカ,0
1800,8120001279911,新規,0,2025-09-25,2025-09-25,大田株式会社,,株式会社,大阪府,大阪市大正区,千島３丁目２番地１－２０２号,,27,108,5510003,,,,,,,2025-09-25,1,,,,,オオタ,0
1801,8120001279928,新規,0,2025-09-25,2025-09-25,冬詠株式会社,,株式会社,大阪府,大阪市北区,西天満２丁目６番８号堂島ビルヂング６Ｆ新東京国際リーガル内,,27,127,5300047,,,,,,,2025-09-25,1,,,,,トウエイ,0
1802,8120001279936,新規,0,2025-09-25,2025-09-25,ネクストトレード株式会社,,株式会社,大阪府,大阪市西成区,天神ノ森１丁目１７－２３シャトー天神の森５０５号室,,27,122,5570013,,,,,,,2025-09-25,1,,,,,ネクストトレード,0
1803,8120001280217,新規,0,2025-09-25,2025-09-25,築巣装飾工程株式会社,,株式会社,大阪府,大阪市東住吉区,中野４丁目１番１６号リベラルオリエンテ中野２０３Ａ,,27,121,5460012,,,,,,,2025-09-25,1,,,,,チクソウソウショクコウテイ,0
1804,8120001280225,新規,0,2025-09-25,2025-09-25,沙黄株式会社,,株式会社,大阪府,大阪市東住吉区,中野４丁目１番１６号リベラルオリエンテ中野４０１Ａ,,27,121,5460012,,,,,,,2025-09-25,1,,,,,サコウ,0
1805,8120001280290,新規,0,2025-09-25,2025-09-25,山川商務株式会社,,株式会社,大阪府,大阪市西成区,千本南２丁目７－１８メゾン美也パートＩ１０２号室,00140800,27,122,5570055,,,,,,,2025-09-25,1,,,,,ヤマカワショウム,0
1808,8120003030792,新規,0,2025-09-25,2025-09-25,合同会社Ｒｉｎｃｈｕｎ,,合同会社,大阪府,大阪市西成区,山王２丁目１３－２１－１０６号,,27,122,5570001,,,,,,,2025-09-25,1,,,,,リンチュン,0
1809,8120003030826,新規,0,2025-09-25,2025-09-25,合同会社ミナ,,合同会社,大阪府,大阪市淀川区,宮原５丁目５番８－９０４号,,27,123,5320003,,,,,,,2025-09-25,1,,,,,ミナ,0
1818,8130001080574,新規,0,2025-09-25,2025-09-25,易＆昔株式会社,,株式会社,京都府,京都市伏見区,竹田狩賀町１４５番地２,,26,109,6128442,,,,,,,2025-09-25,1,,,,,イーアンドシー,0
1819,8130001080582,新規,0,2025-09-25,2025-09-25,ＴＨＥ　ＳＯＬＤＩＥＲＳ株式会社,,株式会社,京都府,京都市下京区,新町通的場東入蛭子町１３４番地２,,26,106,6000000,,,,,,,2025-09-25,1,,,,,ザソルジャーズ,0
1824,8170003002309,新規,0,2025-09-25,2025-09-25,合同会社あい,,合同会社,和歌山県,海南市,阪井６４５番地８,,30,202,6420024,,,,,,,2025-09-25,1,,,,,アイ,0
1828,8180001168753,新規,0,2025-09-25,2025-09-25,ゼストコミュニケーションズ株式会社,,株式会社,愛知県,名古屋市熱田区,金山町１丁目４番１号,,23,109,4560002,,,,,,,2025-09-25,1,,,,,ゼストコミュニケーションズ,0
1831,8180005021231,新規,0,2025-09-25,2025-09-25,医療法人岩田病院,,その他の設立登記法人,愛知県,名古屋市中村区,則武１丁目１番１１号,,23,105,4530014,,,,,,,2025-09-25,1,,,,,イワタビョウイン,0
1836,8230001021097,新規,0,2025-09-25,2025-09-25,野村工業株式会社,,株式会社,富山県,富山市,寺町けや木台１７３番地,,16,201,9300875,,,,,,,2025-09-25,1,,,,,ノムラコウギョウ,0
1839,8240001065523,新規,0,2025-09-25,2025-09-25,中央ホールディングス株式会社,,株式会社,広島県,東広島市,西条昭和町１番１０号,,34,212,7390014,,,,,,,2025-09-25,1,,,,,チュウオウホールディングス,0
1840,8240003007416,新規,0,2025-09-25,2025-09-25,合同会社ＫＴＹ,,合同会社,広島県,広島市西区,三篠町２丁目１３－１４－３立川ビル４０１号,,34,104,7330003,,,,,,,2025-09-25,1,,,,,ケーティーワイ,0
1850,8290001111495,新規,0,2025-09-25,2025-09-25,Ｔｏｎｙ＆Ｍｏｌｙ株式会社,,株式会社,福岡県,福岡市南区,南大橋１丁目１１－１３,,40,134,8150034,,,,,,,2025-09-25,1,,,,,トニーアンドモリー,0
1851,8290001111594,新規,0,2025-09-25,2025-09-25,ＭＵＳＡ　ＴＲＡＤＩＮＧ株式会社,,株式会社,福岡県,朝倉市,杷木若市字光明寺３０４４番地１,,40,228,8381515,,,,,,,2025-09-25,1,,,,,ムサトレーディング,0
1852,8290001111603,新規,0,2025-09-25,2025-09-25,株式会社Ｅｌｆ,,株式会社,福岡県,福岡市中央区,薬院２丁目１９番１４－８０１号,,40,133,8100022,,,,,,,2025-09-25,1,,,,,エルフ,0
1854,8290003017435,新規,0,2025-09-25,2025-09-25,合同会社時間屋,,合同会社,福岡県,久留米市,南２丁目２－６,,40,203,8300051,,,,,,,2025-09-25,1,,,,,ジカンヤ,0
1855,8290801031876,新規,0,2025-09-25,2025-09-25,リードベイス株式会社,,株式会社,福岡県,北九州市小倉北区,弁天町５番２号,,40,106,8030856,,,,,,,2025-09-25,1,,,,,リードベイス,0
1858,8320001021352,新規,0,2025-09-25,2025-09-25,株式会社康健,,株式会社,大分県,日田市,若宮町５番４８号,,44,204,8770037,,,,,,,2025-09-25,1,,,,,ヤスタケ,0
1860,8330001033603,新規,0,2025-09-25,2025-09-25,永興商事株式会社,,株式会社,熊本県,球磨郡山江村,大字山田甲２７３３番地の８７,,43,512,8680092,,,,,,,2025-09-25,1,,,,,エイコウショウジ,0
1861,8330003011227,新規,0,2025-09-25,2025-09-25,合同会社マナ,,合同会社,熊本県,球磨郡錦町,大字西字名次場３２６６－２２,,43,501,8680303,,,,,,,2025-09-25,1,,,,,マナ,0
1871,8370001053069,新規,0,2025-09-25,2025-09-25,株式会社Ｄｉｖｉｔａｌ　Ｃａｒｅ,,株式会社,宮城県,仙台市若林区,新寺１丁目８番２－１１０９号,,04,103,9840051,,,,,,,2025-09-25,1,,,,,ディバイタルケア,0
1872,8370003007295,新規,0,2025-09-25,2025-09-25,合同会社ＨＹＪＡＰＡＮ,,合同会社,宮城県,仙台市泉区,向陽台３丁目１３番１４号ＧｒａｃｅＬｉｌｙ向陽台２０２,,04,105,9813102,,,,,,,2025-09-25,1,,,,,エイチワイジャパン,0
1884,8430005015298,新規,0,2025-09-25,2025-09-25,社会福祉法人連山会,,その他の設立登記法人,北海道,千歳市,文京１丁目２番地の５ＷＩＮＧ１１－３０８,,01,224,0660052,,,,,,,2025-09-25,1,,,,,レンザンカイ,0
1899,9010001257448,新規,0,2025-09-25,2025-09-25,０ＵＴＬ１ＥＲ株式会社,,株式会社,東京都,千代田区,神田松永町１３番地ＶＯＲＴ秋葉原ＩＩ,00140793,13,101,1010023,,,,,,,2025-09-25,1,,,,,アウトライヤ,0
1900,9010001257456,新規,0,2025-09-25,2025-09-25,株式会社ＲＩＱＵＥ,,株式会社,東京都,中央区,新川２丁目６－１２－２０１,,13,102,1040033,,,,,,,2025-09-25,1,,,,,リクエ,0
1901,9010003048762,新規,0,2025-09-25,2025-09-25,ＨＯＴＯＫＥ　ＣＯＭＰＡＮＹ合同会社,,合同会社,東京都,中央区,東日本橋２丁目２８番４号日本橋ＣＥＴビル２階,,13,102,1030004,,,,,,,2025-09-25,1,,,,,ホトケカンパニー,0
1910,9010401193193,新規,0,2025-09-25,2025-09-25,株式会社ＣＵＲＡ　ｓｕｍ,,株式会社,東京都,港区,北青山１丁目３番１号アールキューブ青山３階,,13,103,1070061,,,,,,,2025-09-25,1,,,,,キュラサム,0
1911,9010401193219,新規,0,2025-09-25,2025-09-25,株式会社ＲＶファミリーオフィス,,株式会社,東京都,港区,北青山１丁目２番３号,,13,103,1070061,,,,,,,2025-09-25,1,,,,,アールブイファミリーオフィス,0
1912,9010401193326,新規,0,2025-09-25,2025-09-25,株式会社２２３,,株式会社,東京都,港区,虎ノ門１丁目１２番９号,,13,103,1050001,,,,,,,2025-09-25,1,,,,,ニーニーサン,0
1919,9010603011797,新規,0,2025-09-25,2025-09-25,合同会社ベス１号,,合同会社,東京都,江東区,亀戸９丁目１９－７,,13,108,1360071,,,,,,,2025-09-25,1,,,,,ベスイチゴウ,0
1921,9010703007919,新規,0,2025-09-25,2025-09-25,合同会社ＢｌａｎｃＴｅｃｈ,,合同会社,東京都,品川区,大崎３丁目１―１―４０１,,13,109,1410032,,,,,,,2025-09-25,1,,,,,ブランテック,0
1926,9011001172216,新規,0,2025-09-25,2025-09-25,Ｒｅｎａｌｉｓ株式会社,,株式会社,東京都,目黒区,碑文谷５丁目５－１５－７０２,,13,110,1520003,,,,,,,2025-09-25,1,,,,,レナリス,0
1930,9011103016361,新規,0,2025-09-25,2025-09-25,合同会社Ｅｕｓｐｅｃ,,合同会社,東京都,新宿区,西新宿３丁目３番１３号西新宿水間ビル２Ｆ,,13,104,1600023,,,,,,,2025-09-25,1,,,,,ユースペック,0
1932,9011301030908,新規,0,2025-09-25,2025-09-25,源拓株式会社,,株式会社,東京都,杉並区,下井草２丁目５番１６号,,13,115,1670022,,,,,,,2025-09-25,1,,,,,ゲンタク,0
1934,9011401027424,新規,0,2025-09-25,2025-09-25,スターファクトリー株式会社,,株式会社,東京都,板橋区,仲宿５４番７－５０３号スカイライフ板橋,,13,119,1730005,,,,,,,2025-09-25,1,,,,,スターファクトリー,0
1936,9011501032605,新規,0,2025-09-25,2025-09-25,Ｖｉｓｉｏｎ　ｃｏｍｍｕｎｉｃａｔｉｏｎ株式会社,,株式会社,東京都,荒川区,南千住３丁目２７－２浅草ビル５０８,,13,118,1160003,,,,,,,2025-09-25,1,,,,,ビジョンコミューニケーション,0
1939,9011801046759,新規,0,2025-09-25,2025-09-25,サガル株式会社,,株式会社,東京都,足立区,大谷田５丁目２９番１４号２Ｆ２０１,,13,121,1200001,,,,,,,2025-09-25,1,,,,,サガル,0
1951,9020001164998,新規,0,2025-09-25,2025-09-25,美雪株式会社,,株式会社,神奈川県,横浜市中区,赤門町１丁目３番地７ＭＶビル１０２,,14,104,2310051,,,,,,,2025-09-25,1,,,,,ミキ,0
1955,9020003029290,新規,0,2025-09-25,2025-09-25,ＴＯＭＹＭＡＲＥ合同会社,,合同会社,神奈川県,横浜市都筑区,見花山１－３０見花山ビル３Ｆ,,14,118,2240066,,,,,,,2025-09-25,1,,,,,トミーマーレ,0
1956,9020003029407,新規,0,2025-09-25,2025-09-25,合同会社Ｋｅｍｍｍｙ,,合同会社,神奈川県,横浜市港北区,新横浜３丁目７番地１８日総第１８ビル６階,,14,109,2220033,,,,,,,2025-09-25,1,,,,,ケミー,0
1957,9020003029431,新規,0,2025-09-25,2025-09-25,合同会社ＺＯＯＮ,,合同会社,神奈川県,横浜市戸塚区,品濃町１８１０－２,,14,110,2440801,,,,,,,2025-09-25,1,,,,,ズーン,0
1968,9030001168775,新規,0,2025-09-25,2025-09-25,ＮＯＭＡＮ　ＴＲＡＤＩＮＧ株式会社,,株式会社,埼玉県,行田市,大字北河原５３０番地２,,11,206,3610001,,,,,,,2025-09-25,1,,,,,ノーマントレーディング,0
1971,9030003027698,新規,0,2025-09-25,2025-09-25,ＩＭＨ合同会社,,合同会社,埼玉県,川口市,元郷１丁目３－８ワコーレ川口Ｖ１２１,00140778,11,203,3320011,,,,,,,2025-09-25,1,,,,,アイエムエイチ,0
1972,9030005022276,新規,0,2025-09-25,2025-09-25,特定非営利活動法人Ａｒｅａ大谷場,,その他の設立登記法人,埼玉県,さいたま市南区,大字太田窪２０２０番地,,11,108,3360015,,,,,,,2025-09-25,1,,,,,エリアオオヤバ,0
1976,9040001140618,新規,0,2025-09-25,2025-09-25,株式会社インサイドラグーン,,株式会社,千葉県,柏市,青葉台１丁目２０番１０号,,12,217,2770055,,,,,,,2025-09-25,1,,,,,インサイドラグーン,0
1981,9050003009538,新規,0,2025-09-25,2025-09-25,Ｗｏｒｌｄｗｉｄｅ　Ａｕｔｏ　Ｔｒａｄｉｎｇ合同会社,,合同会社,茨城県,下妻市,長塚９２番地４アーリーハイツＩ１０２号室,00140802,08,210,3040056,,,,,,,2025-09-25,1,,,,,ワールドワイドオートトレーディング,0
1982,9050003009604,新規,0,2025-09-25,2025-09-25,合同会社ＫＨＡＬＩＤ　ＡＢＵＢＡＫＡＲ　ＴＲＡＤＩＮＧ,,合同会社,茨城県,坂東市,上出島１１１０番地５２,,08,228,3060654,,,,,,,2025-09-25,1,,,,,ハレドアブバカルトレイディング,0
1983,9050003009612,新規,0,2025-09-25,2025-09-25,日本インターナショナル合同会社,,合同会社,茨城県,つくば市,栗原３５３３番地５３プレシャス１０５号室,,08,220,3050001,,,,,,,2025-09-25,1,,,,,ニッポンインターナショナル,0
1984,9050005013703,新規,0,2025-09-25,2025-09-25,医療法人社団なかむら会,,その他の設立登記法人,茨城県,つくばみらい市,絹の台３丁目２２番地７,,08,235,3002436,,,,,,,2025-09-25,1,,,,,ナカムラカイ,0
1985,9060005010377,新規,0,2025-09-25,2025-09-25,医療法人玄医会,,その他の設立登記法人,栃木県,下野市,祇園１丁目１３番地２タカヤマビル２階,00140799,09,216,3290434,,,,,,,2025-09-25,1,,,,,ゲンイカイ,0
2002,9120001279670,新規,0,2025-09-25,2025-09-25,大阪サンデーズ株式会社,,株式会社,大阪府,大阪市西区,千代崎１丁目２番４８号５０２,,27,106,5500023,,,,,,,2025-09-25,1,,,,,オオサカサンデーズ,0
2003,9120001279803,新規,0,2025-09-25,2025-09-25,株式会社ＡＳＵＰＬＵＳ,,株式会社,大阪府,大阪市北区,天満橋１丁目８番１５－１６０８号,,27,127,5300042,,,,,,,2025-09-25,1,,,,,アスプラス,0
2004,9120001279976,新規,0,2025-09-25,2025-09-25,至善株式会社,,株式会社,大阪府,大阪市西成区,橘１丁目１１番２８号オフィスポート橘５０２号室,,27,122,5570051,,,,,,,2025-09-25,1,,,,,シゼン,0
2005,9120001280034,新規,0,2025-09-25,2025-09-25,株式会社Ｌｅａｌ,,株式会社,大阪府,大阪市西区,京町堀１丁目１１－７京旺ビル４階Ｂ号室,,27,106,5500003,,,,,,,2025-09-25,1,,,,,ライアル,0
2006,9120001280050,新規,0,2025-09-25,2025-09-25,ＧＯＬＤＥＮ　ＫＯＫＯＲＯ株式会社,,株式会社,大阪府,大阪市浪速区,幸町２丁目３－１８,,27,111,5560021,,,,,,,2025-09-25,1,,,,,ゴールデンココロ,0
2007,9120001280174,新規,0,2025-09-25,2025-09-25,瀛海株式会社,,株式会社,大阪府,大阪市東住吉区,中野４丁目１番１６号リベラルオリエンテ中野２０１Ｂ,,27,121,5460012,,,,,,,2025-09-25,1,,,,,エカイ,0
2010,9120003030676,新規,0,2025-09-25,2025-09-25,合同会社ＳＨＡＤＯＷ,,合同会社,大阪府,大阪市北区,中津３丁目１７番９号,,27,127,5310071,,,,,,,2025-09-25,1,,,,,シャドウ,0
2011,9120003030791,新規,0,2025-09-25,2025-09-25,合同会社モクチャー,,合同会社,大阪府,大阪市西成区,鶴見橋３丁目６－２０－１Ｆ,,27,122,5570031,,,,,,,2025-09-25,1,,,,,モクチャー,0
2014,9122001039658,新規,0,2025-09-25,2025-09-25,株式会社さえの,,株式会社,大阪府,大東市,中垣内２丁目１番６号,,27,218,5740013,,,,,,,2025-09-25,1,,,,,サエノ,0
2017,9130001080565,新規,0,2025-09-25,2025-09-25,株式会社ＳＯＵＴＨＥＲＮ　ＣＡＰＩＴＡＬ　ＤＥＶＯＴＩＯＮ,,株式会社,京都府,京都市上京区,中町通丸太町下る駒之町５６１番地４河原町スカイマンション４１４,,26,102,6020872,,,,,,,2025-09-25,1,,,,,サザンキャピタルディボーション,0
2020,9140001140120,新規,0,2025-09-25,2025-09-25,株式会社近藤重機,,株式会社,兵庫県,明石市,二見町西二見１８７９番地の１２,,28,203,6740094,,,,,,,2025-09-25,1,,,,,コンドウジュウキ,0
2021,9140003022614,新規,0,2025-09-25,2025-09-25,ＡＲＫ合同会社,,合同会社,兵庫県,神戸市中央区,御幸通８丁目１番６号,,28,110,6510087,,,,,,,2025-09-25,1,,,,,アーク,0
2024,9150001028414,新規,0,2025-09-25,2025-09-25,ＯＫＡ・ＢＯＯＫ株式会社,,株式会社,奈良県,磯城郡三宅町,大字但馬４６７,,29,362,6360214,,,,,,,2025-09-25,1,,,,,オカブック,0
2026,9170001018801,新規,0,2025-09-25,2025-09-25,ツクル出版株式会社,,株式会社,和歌山県,岩出市,金池５２８番地ＣＯＣＯＳＴＹＬＥ金池２号室,,30,209,6496256,,,,,,,2025-09-25,1,,,,,ツクルシュッパン,0
2028,9180001168744,新規,0,2025-09-25,2025-09-25,株式会社スミス,,株式会社,愛知県,名古屋市中村区,草薙町１丁目６６番地,,23,105,4530064,,,,,,,2025-09-25,1,,,,,スミス,0
2029,9180003029052,新規,0,2025-09-25,2025-09-25,ＡＺＥＥＭＡ　ＩＮＴＥＲＮＡＴＩＯＮＡＬ合同会社,,合同会社,愛知県,日進市,三本木町福池５１５－１－Ｂ１０９,,23,230,4700101,,,,,,,2025-09-25,1,,,,,アージマインターナショナル,0
2030,9180005021230,新規,0,2025-09-25,2025-09-25,特定非営利活動法人泳愛倶楽部,,その他の設立登記法人,愛知県,名古屋市千種区,桜が丘９０番地ソミュール桜が丘Ａ棟１階Ｂ,,23,101,4640025,,,,,,,2025-09-25,1,,,,,エイアイクラブ,0
2033,9190001032560,新規,0,2025-09-25,2025-09-25,スーパーコネクト株式会社,,株式会社,三重県,松阪市,嬉野宮古町９２９番地,,24,204,5152303,,,,,,,2025-09-25,1,,,,,スーパーコネクト,0
2035,9200003007055,新規,0,2025-09-25,2025-09-25,合同会社ＣＯＭＥ　ＴＲＵＥ,,合同会社,岐阜県,飛騨市,古川町中野７８６番地１,,21,217,5094262,,,,,,,2025-09-25,1,,,,,カムトゥルー,0
2045,9240001065539,新規,0,2025-09-25,2025-09-25,株式会社リネ５７,,株式会社,広島県,広島市南区,大州２丁目９番２３号,,34,103,7320802,,,,,,,2025-09-25,1,,,,,リネゴナナ,0
2047,9280001009509,新規,0,2025-09-25,2025-09-25,株式会社ｎｉｎｏｄｅｎ,,株式会社,島根県,出雲市,万田町６８２番地,,32,203,6910033,,,,,,,2025-09-25,1,,,,,ニノデン,0
2050,9290001111478,新規,0,2025-09-25,2025-09-25,クリエートナインキャピタル株式会社,,株式会社,福岡県,福岡市中央区,高砂２丁目１番４号,,40,133,8100011,,,,,,,2025-09-25,1,,,,,クリエートナインキャピタル,0
2051,9290001111486,新規,0,2025-09-25,2025-09-25,株式会社ＴＫＳ,,株式会社,福岡県,福岡市中央区,薬院３丁目１０番１２－１０１号,,40,133,8100022,,,,,,,2025-09-25,1,,,,,ティーケーエス,0
2055,9290003017442,新規,0,2025-09-25,2025-09-25,ＳＫ　ＴＲＡＤＩＮＧ合同会社,,合同会社,福岡県,大川市,大字下牟田口５７０－２,,40,212,8310023,,,,,,,2025-09-25,1,,,,,エスケートレーディング,0
2056,9290003017500,新規,0,2025-09-25,2025-09-25,合同会社あんかい,,合同会社,福岡県,福岡市南区,警弥郷１丁目１０番１８－１０３号,,40,134,8111324,,,,,,,2025-09-25,1,,,,,アンカイ,0
2059,9320003004775,新規,0,2025-09-25,2025-09-25,合同会社芝原蓄電所,,合同会社,大分県,大分市,大字入蔵８２３番地,,44,201,8701202,,,,,,,2025-09-25,1,,,,,シバハラチクデンショ,0
2060,9330001033602,新規,0,2025-09-25,2025-09-25,株式会社ＳＨＥＥＰＨＯＲＵＳ,,株式会社,熊本県,熊本市中央区,本荘５丁目９番２５号３階,,43,101,8600811,,,,,,,2025-09-25,1,,,,,シープホルス,0
2064,9340001027669,新規,0,2025-09-25,2025-09-25,株式会社八,,株式会社,鹿児島県,鹿児島市,谷山港３丁目４番１７号,,46,201,8910131,,,,,,,2025-09-25,1,,,,,ハチ,0
2075,9380001035593,新規,0,2025-09-25,2025-09-25,ＡＣホールディングス株式会社,,株式会社,福島県,須賀川市,大袋町１１９番地,,07,207,9620032,,,,,,,2025-09-25,1,,,,,エーシーホールディングス,0
2086,9430003018079,新規,0,2025-09-25,2025-09-25,合同会社クロスフィールド,,合同会社,北海道,札幌市清田区,真栄五条４丁目２－１,,01,110,0040835,,,,,,,2025-09-25,1,,,,,クロスフィールド,0
2093,9700150128231,新規,0,2025-09-25,2024-12-16,落合学区エルモ運営委員会,,その他,広島県,広島市安佐北区,落合南２丁目７－１３,,34,106,7391732,,,,,,,2024-12-16,1,,,,,オチアイガツクエルモウンエイイインカイ,0
