sequenceNumber,corporateNumber,process,correct,updateDate,changeDate,name,nameImageId,kind,prefectureName,cityName,streetNumber,addressImageId,prefectureCode,cityCode,postCode,addressOutside,addressOutsideImageId,closeDate,closeCause,successorCorporateNumber,changeCause,assignmentDate,latest,enName,enPrefectureName,enCityName,enAddressOutside,furigana,hihyoji
7,1010001257240,新規,0,2025-08-04,2025-08-04,株式会社Ｄｌｉｎｋ,,株式会社,東京都,中央区,日本橋茅場町２丁目１５番４号第二大倉ビル２Ｆ,,13,102,1030025,,,,,,,2025-08-04,1,,,,,ドリンク,0
11,1010005040477,新規,0,2025-08-04,2025-08-04,宮城たいわ開発特定目的会社,,その他の設立登記法人,東京都,千代田区,飯田橋４丁目７番１号結和税理士法人内,,13,101,1020072,,,,,,,2025-08-04,1,,,,,ミヤギタイワカイハツ,0
16,1010401192087,新規,0,2025-08-04,2025-08-04,ＡＯＳＯＲＡ　ＥＮＥＲＧＹ株式会社,,株式会社,東京都,港区,西麻布４丁目１番１－７０５号,,13,103,1060031,,,,,,,2025-08-04,1,,,,,アオソラエナジー,0
17,1010401192161,新規,0,2025-08-04,2025-08-04,株式会社ＹＯＬＯ,,株式会社,東京都,港区,浜松町２丁目２番１５号浜松町ダイヤビル２Ｆ,,13,103,1050013,,,,,,,2025-08-04,1,,,,,ヨロ,0
18,1010401192194,新規,0,2025-08-04,2025-08-04,株式会社ＧＥＮサン,,株式会社,東京都,港区,西麻布２丁目１１番２号,,13,103,1060031,,,,,,,2025-08-04,1,,,,,ゲンサン,0
22,1010403035731,新規,0,2025-08-04,2025-08-04,ヤマヤマホールディングス合同会社,,合同会社,東京都,港区,南麻布５丁目３番４４－２０１号,,13,103,1060047,,,,,,,2025-08-04,1,,,,,ヤマヤマホールディングス,0
33,1010903010151,新規,0,2025-08-04,2025-08-04,ＡＴＫ合同会社,,合同会社,東京都,世田谷区,太子堂４丁目１８番１５号マガザン三軒茶屋２－３Ｆ－３,,13,112,1540004,,,,,,,2025-08-04,1,,,,,エーティーケー,0
41,1011001171183,新規,0,2025-08-04,2025-08-04,Ｍａｎｕｆａｃｔｕｒｏ株式会社,,株式会社,東京都,渋谷区,桜丘町２６番１号セルリアンタワー１５階,,13,113,1500031,,,,,,,2025-08-04,1,,,,,マニュファクチュロ,0
42,1011001171266,新規,0,2025-08-04,2025-08-04,株式会社ＭＮＭ,,株式会社,東京都,渋谷区,恵比寿西２丁目４番８号ウィンド恵比寿ビル８Ｆ,,13,113,1500021,,,,,,,2025-08-04,1,,,,,エムエヌエム,0
43,1011001171332,新規,0,2025-08-04,2025-08-04,株式会社Ｍｏｎｏｓｅｅ,,株式会社,東京都,渋谷区,道玄坂１丁目１０番８号渋谷道玄坂東急ビル２Ｆ－Ｃ,,13,113,1500043,,,,,,,2025-08-04,1,,,,,モノシー,0
44,1011001171571,新規,0,2025-08-04,2025-08-04,Ａｕｔｒｙ　Ｊａｐａｎ株式会社,,株式会社,東京都,渋谷区,千駄ヶ谷３丁目５１番７号ＰＯＲＴＡＬＰＯＩＮＴＨＡＲＡＪＵＫＵＡＮＮＥＸ７Ｆ,,13,113,1510051,,,,,,,2025-08-04,1,,,,,オートリージャパン,0
47,1011003022194,新規,0,2025-08-04,2025-08-04,合同会社Ｂｒｉｇｈｔｈｏｏｄ,,合同会社,東京都,渋谷区,円山町５番３号ＭＩＥＵＸ渋谷ビル８階,,13,113,1500044,,,,,,,2025-08-04,1,,,,,ブライトフッド,0
54,1011501032397,新規,0,2025-08-04,2025-08-04,株式会社Ｌｉｌｙｌｉｇｈｔ,,株式会社,東京都,荒川区,町屋８丁目１－１７－３０１コートアネモス,,13,118,1160001,,,,,,,2025-08-04,1,,,,,,0
59,1011701028583,新規,0,2025-08-04,2025-08-04,Ｐａｔｈｍｉｎｄ株式会社,,株式会社,東京都,江戸川区,平井６丁目３０番５号,,13,123,1320035,,,,,,,2025-08-04,1,,,,,パスマインド,0
68,1020001164080,新規,0,2025-08-04,2025-08-04,Ｚ＆Ｓケミカル株式会社,,株式会社,神奈川県,横浜市金沢区,福浦１丁目１番地１横浜金沢ハイテクセンターテクノコア棟２Ｆ・Ｅ室,,14,108,2360004,,,,,,,2025-08-04,1,,,,,ゼットアンドエスケミカル,0
69,1020001164106,新規,0,2025-08-04,2025-08-04,ゼストサポート株式会社,,株式会社,神奈川県,横浜市港南区,港南台１丁目６番２号エクセリーヌ・アミ２０１号,,14,111,2340054,,,,,,,2025-08-04,1,,,,,ゼストサポート,0
70,1020001164163,新規,0,2025-08-04,2025-08-04,株式会社エーイーフォリオ,,株式会社,神奈川県,横浜市港北区,大豆戸町９０２番地２大倉山ハイム４－８１０,,14,109,2220032,,,,,,,2025-08-04,1,,,,,エーイーフォリオ,0
79,1021001085960,新規,0,2025-08-04,2025-08-04,ＭＳ　ＣＯＲＰＯＲＡＴＩＯＮ株式会社,,株式会社,神奈川県,相模原市南区,下溝１６６１番地１,,14,153,2520335,,,,,,,2025-08-04,1,,,,,エムエスコーポレーション,0
88,1030003027318,新規,0,2025-08-04,2025-08-04,シーシーエム合同会社,,合同会社,埼玉県,さいたま市北区,日進町２丁目６６８番地,,11,102,3310823,,,,,,,2025-08-04,1,,,,,シーシーエム,0
89,1030003027326,新規,0,2025-08-04,2025-08-04,合同会社エディソングループ,,合同会社,埼玉県,北葛飾郡松伏町,大字松伏３００９番地６,,11,465,3430111,,,,,,,2025-08-04,1,,,,,エディソングループ,0
94,1040001139873,新規,0,2025-08-04,2025-08-04,株式会社ｓｈａｋｔｉｐａｔａ．ｍ,,株式会社,千葉県,四街道市,吉岡１８１１－１４,,12,228,2840032,,,,,,,2025-08-04,1,,,,,シャクティパタドットエム,0
95,1040001139898,新規,0,2025-08-04,2025-08-04,株式会社ＥＮＩＳＨＩ,,株式会社,千葉県,八街市,八街に２１８番地２９,,12,230,2891103,,,,,,,2025-08-04,1,,,,,エニシ,0
99,1040003028166,新規,0,2025-08-04,2025-08-04,フードビジネスリアライズ合同会社,,合同会社,千葉県,千葉市中央区,弁天１丁目３１番１号ファミール千葉弁天町６０６号,,12,101,2600045,,,,,,,2025-08-04,1,,,,,フードビジネスリアライズ,0
100,1050001057018,新規,0,2025-08-04,2025-08-04,株式会社古工,,株式会社,茨城県,下妻市,古沢３０５番地１,,08,210,3040041,,,,,,,2025-08-04,1,,,,,フルコウ,0
104,1070003006020,新規,0,2025-08-04,2025-08-04,合同会社Ｆｉｌｉｌ,,合同会社,群馬県,桐生市,新里町新川１４２７番地４,,10,203,3760121,,,,,,,2025-08-04,1,,,,,フィリル,0
111,1100001038821,新規,0,2025-08-04,2025-08-04,株式会社Ｋｅｙｄｏｏｒ,,株式会社,長野県,北佐久郡御代田町,大字御代田４１０７番地２５,,20,323,3890206,,,,,,,2025-08-04,1,,,,,キードア,0
122,1120001278333,新規,0,2025-08-04,2025-08-04,杏潤株式会社,,株式会社,大阪府,大阪市淀川区,十三本町１丁目１８－７－３０１,,27,123,5320024,,,,,,,2025-08-04,1,,,,,キョウジュン,0
123,1120001278341,新規,0,2025-08-04,2025-08-04,株式会社あおのかんご,,株式会社,大阪府,大阪市中央区,谷町６丁目３番１８号,,27,128,5420012,,,,,,,2025-08-04,1,,,,,アオノカンゴ,0
124,1120001278408,新規,0,2025-08-04,2025-08-04,株式会社フロンティア,,株式会社,大阪府,大阪市東淀川区,南江口３丁目７番５号,,27,114,5330003,,,,,,,2025-08-04,1,,,,,フロンティア,0
125,1120001278457,新規,0,2025-08-04,2025-08-04,光輝道株式会社,,株式会社,大阪府,大阪市西成区,千本南１丁目４番１１－２０２号,,27,122,5570055,,,,,,,2025-08-04,1,,,,,コウキドウ,0
139,1122001039475,新規,0,2025-08-04,2025-08-04,株式会社ｆｌｉｃｋ,,株式会社,大阪府,八尾市,志紀町南４丁目１２７,,27,212,5810033,,,,,,,2025-08-04,1,,,,,ピラック,0
140,1122005003840,新規,0,2025-08-04,2025-08-04,一般社団法人全国ビリヤード普及連盟,,その他の設立登記法人,大阪府,東大阪市,岩田町３丁目１２番３５号,,27,227,5780941,,,,,,,2025-08-04,1,,,,,ゼンコクビリヤードフキュウレンメイ,0
142,1130001080259,新規,0,2025-08-04,2025-08-04,株式会社うてな,,株式会社,京都府,京都市北区,大宮薬師山東町２１－５,,26,101,6038474,,,,,,,2025-08-04,1,,,,,ウテナ,0
151,1140001139442,新規,0,2025-08-04,2025-08-04,株式会社ＡＩＲＣＲＡ,,株式会社,兵庫県,加古川市,野口町二屋３１７番地の８,,28,210,6750013,,,,,,,2025-08-04,1,,,,,エアクラ,0
163,1170005007163,新規,0,2025-08-04,2025-08-04,特定非営利活動法人木育ネットワーク,,その他の設立登記法人,和歌山県,伊都郡かつらぎ町,大字下天野９０９番地,,30,341,6497142,,,,,,,2025-08-04,1,,,,,モクイクネットワーク,0
167,1180001167869,新規,0,2025-08-04,2025-08-04,株式会社ＩＫ　ＬＯＧＩＳＴＩＣＳ,,株式会社,愛知県,弥富市,中原１丁目２４‐１,,23,235,4980057,,,,,,,2025-08-04,1,,,,,アイケーロジスティクス,0
168,1180001168009,新規,0,2025-08-04,2025-08-04,ＭＡＲＵＷＡ株式会社,,株式会社,愛知県,尾張旭市,大塚一丁目３番地２,,23,226,4880000,,,,,,,2025-08-04,1,,,,,マルワ,0
170,1180003028838,新規,0,2025-08-04,2025-08-04,大畠会計コンサルティング合同会社,,合同会社,愛知県,名古屋市瑞穂区,十六町２丁目３９番地の５,,23,108,4670015,,,,,,,2025-08-04,1,,,,,オオハタカイケイコンサルティング,0
171,1180303006675,新規,0,2025-08-04,2025-08-04,合同会社ＷＯＷ,,合同会社,愛知県,岡崎市,上地１丁目５４番地１２,,23,202,4440823,,,,,,,2025-08-04,1,,,,,ワオ,0
179,1240001065298,新規,0,2025-08-04,2025-08-04,株式会社恵真,,株式会社,広島県,東広島市,西条町御薗宇４６３６番地,,34,212,7390024,,,,,,,2025-08-04,1,,,,,エマ,0
188,1290003017169,新規,0,2025-08-04,2025-08-04,合同会社Ｂｌｕｅｖｉｕ,,合同会社,福岡県,福岡市博多区,博多駅前１丁目２３番２号ＰａｒｋＦｒｏｎｔ博多駅前１丁目５Ｆ－Ｂ,,40,132,8120011,,,,,,,2025-08-04,1,,,,,ブルービュー,0
189,1290005019799,新規,0,2025-08-04,2025-08-04,一般社団法人ＩＯＲＡＮＡ　ＡＲＴ,,その他の設立登記法人,福岡県,糸島市,伊都の杜１丁目１４番１－７０３号,,40,230,8191130,,,,,,,2025-08-04,1,,,,,イオラナアート,0
201,1340005009893,新規,0,2025-08-04,2025-08-04,ＮｅｘｔＬｉｎｋｓ税理士法人,,その他の設立登記法人,鹿児島県,曽於市,末吉町諏訪方８３５８番地３,,46,217,8998604,,,,,,,2025-08-04,1,,,,,ネクストリンクス,0
206,1370003007228,新規,0,2025-08-04,2025-08-04,ａｎｏｅ合同会社,,合同会社,宮城県,仙台市青葉区,みやぎ台１丁目１８番１３号,,04,101,9893214,,,,,,,2025-08-04,1,,,,,アノエ,0
207,1370005010989,新規,0,2025-08-04,2025-08-04,特定非営利活動法人愛結び,,その他の設立登記法人,宮城県,仙台市青葉区,中央２丁目２番１０号仙都会館ビル５階,,04,101,9800021,,,,,,,2025-08-04,1,,,,,アイムスビ,0
215,1410001014246,新規,0,2025-08-04,2025-08-04,株式会社能代事務機,,株式会社,秋田県,能代市,景林町１３番５号,,05,202,0160892,,,,,,,2025-08-04,1,,,,,ノシロジムキ,0
217,1420005007963,新規,0,2025-08-04,2025-08-04,一般社団法人Ｎ‐ｃｕｂｅ,,その他の設立登記法人,青森県,十和田市,西十二番町１番３号,,02,206,0340093,,,,,,,2025-08-04,1,,,,,エヌキューブ,0
222,1430003017906,新規,0,2025-08-04,2025-08-04,合同会社Ｉ＆Ｙｏｕ,,合同会社,北海道,札幌市東区,東苗穂七条１丁目１番６７号,,01,103,0070807,,,,,,,2025-08-04,1,,,,,アイアンドユー,0
223,1430003017922,新規,0,2025-08-04,2025-08-04,合同会社Ｍ＆Ｍ,,合同会社,北海道,札幌市北区,新琴似二条５丁目１番１８号,,01,102,0010902,,,,,,,2025-08-04,1,,,,,エムアンドアエム,0
225,1440003001702,新規,0,2025-08-04,2025-08-04,合同会社ブルースの木,,合同会社,北海道,函館市,宝来町７番３号,,01,202,0400043,,,,,,,2025-08-04,1,,,,,ブルースノキ,0
228,1480003002300,新規,0,2025-08-04,2025-08-04,合同会社ｙｏｕｒ　ｐｌａｃｅ,,合同会社,徳島県,徳島市,国府町和田字表６０番地の８,,36,201,7793121,,,,,,,2025-08-04,1,,,,,ユーアープレス,0
241,2010003048208,新規,0,2025-08-04,2025-08-04,合同会社ＭＯＱ,,合同会社,東京都,千代田区,神田須田町１丁目７番８号ＶＯＲＴ秋葉原ＩＶ２Ｆ,00140148,13,101,1010041,,,,,,,2025-08-04,1,,,,,エムオーキュー,0
242,2010003048265,新規,0,2025-08-04,2025-08-04,ウィスカーキャピタル合同会社,,合同会社,東京都,文京区,千石２丁目２番５－６０３号,,13,105,1120011,,,,,,,2025-08-04,1,,,,,ウィスカーキャピタル,0
248,2010401192078,新規,0,2025-08-04,2025-08-04,優凛株式会社,,株式会社,東京都,港区,南青山５丁目１７番２号,,13,103,1070062,,,,,,,2025-08-04,1,,,,,ユウリン,0
249,2010401192103,新規,0,2025-08-04,2025-08-04,株式会社星輝‐スターライト,,株式会社,東京都,港区,六本木３丁目１番３０号Ａ・Ｂビル６階,,13,103,1060032,,,,,,,2025-08-04,1,,,,,スターライト,0
250,2010401192136,新規,0,2025-08-04,2025-08-04,株式会社くも,,株式会社,東京都,港区,南青山３丁目１番３６号青山丸竹ビル６Ｆ,,13,103,1070062,,,,,,,2025-08-04,1,,,,,クモ,0
251,2010401192185,新規,0,2025-08-04,2025-08-04,ＬＯＯＰ株式会社,,株式会社,東京都,港区,南青山５丁目１７番２号,,13,103,1070062,,,,,,,2025-08-04,1,,,,,ループ,0
252,2010401192193,新規,0,2025-08-04,2025-08-04,株式会社ＨＲ・ラボラトリーオートメーション,,株式会社,東京都,港区,北青山１丁目３－１アールキューブ青山３Ｆ,,13,103,1070061,,,,,,,2025-08-04,1,,,,,エイチアールラボラトリーオートメーション,0
253,2010401192202,新規,0,2025-08-04,2025-08-04,株式会社ＪＩＤＡＩ　Ｘ,,株式会社,東京都,港区,六本木７丁目３番２４号メゾン明石４０１,,13,103,1060032,,,,,,,2025-08-04,1,,,,,ジダイ,0
256,2010403035656,新規,0,2025-08-04,2025-08-04,ＫＡＮＡＥＬ合同会社,,合同会社,東京都,港区,北青山１丁目３番１号アールキューブ青山３階,,13,103,1070061,,,,,,,2025-08-04,1,,,,,カナエル,0
260,2010801000113,新規,0,2025-08-04,2025-08-04,株式会社アイ・エル・イー,,株式会社,東京都,大田区,北馬込２丁目４８番１２号,,13,111,1430021,,,,,,,2025-08-04,1,,,,,アイエルイー,0
261,2010801036454,新規,0,2025-08-04,2025-08-04,ＫＫホームズ株式会社,,株式会社,東京都,大田区,中央６丁目６番１０号森田方,,13,111,1430024,,,,,,,2025-08-04,1,,,,,ケイケイホームズ,0
265,2010903010142,新規,0,2025-08-04,2025-08-04,合同会社中村家,,合同会社,東京都,世田谷区,北沢２丁目２６－２５－２Ｆ,,13,112,1550031,,,,,,,2025-08-04,1,,,,,ナカムラヤ,0
266,2010903010159,新規,0,2025-08-04,2025-08-04,合同会社ｔａｓｕｋａｒｕ,,合同会社,東京都,世田谷区,野沢３丁目６番１３号,,13,112,1540003,,,,,,,2025-08-04,1,,,,,タスカル,0
272,2011003022094,新規,0,2025-08-04,2025-08-04,Ｍａｎｕｌａｂ合同会社,,合同会社,東京都,目黒区,自由が丘２丁目１６番１２号ＲＪ３,,13,110,1520035,,,,,,,2025-08-04,1,,,,,マニュラボ,0
273,2011003022268,新規,0,2025-08-04,2025-08-04,Ｂａｌｌｅｔ　Ｓｅｒｅｎｏ合同会社,,合同会社,東京都,渋谷区,本町２丁目３２－１はっちょうビル２階,,13,113,1510071,,,,,,,2025-08-04,1,,,,,バレエセレーノ,0
275,2011101112680,新規,0,2025-08-04,2025-08-04,株式会社ＬＫＩ,,株式会社,東京都,新宿区,西新宿３丁目２０番１号,,13,104,1600023,,,,,,,2025-08-04,1,,,,,エルケイアイ,0
281,2011501032396,新規,0,2025-08-04,2025-08-04,株式会社東京メイデイコープ,,株式会社,東京都,北区,浮間４丁目１９－１０,,13,117,1150051,,,,,,,2025-08-04,1,,,,,トウキョウメイデイコープ,0
285,2011601028848,新規,0,2025-08-04,2025-08-04,株式会社Ａｌｗａｙｓ,,株式会社,東京都,練馬区,桜台３丁目７番１１号,,13,120,1760002,,,,,,,2025-08-04,1,,,,,オールウェイズ,0
287,2011701028582,新規,0,2025-08-04,2025-08-04,株式会社ＨｅＸａ　Ｍａｔｅｒｉａｌ,,株式会社,東京都,江戸川区,西小岩３丁目３７番１号,,13,123,1330057,,,,,,,2025-08-04,1,,,,,ヘキサマテリアル,0
303,2020001164088,新規,0,2025-08-04,2025-08-04,株式会社ＬＡ,,株式会社,神奈川県,横浜市青葉区,桂台２丁目２１番地５５アミティエ１０２,,14,117,2270034,,,,,,,2025-08-04,1,,,,,エルエー,0
304,2020001164162,新規,0,2025-08-04,2025-08-04,株式会社リンシ,,株式会社,神奈川県,川崎市中原区,丸子通１丁目６１７番地１１リベラ新丸子２０１,,14,133,2110006,,,,,,,2025-08-04,1,,,,,リンシ,0
305,2020001164187,新規,0,2025-08-04,2025-08-04,株式会社煌雅建設,,株式会社,神奈川県,横浜市旭区,川井本町６番地３２サンモールナナＢ１０１,,14,112,2410803,,,,,,,2025-08-04,1,,,,,コウガケンセツ,0
311,2020003029041,新規,0,2025-08-04,2025-08-04,合同会社ＯＣＣＯ,,合同会社,神奈川県,横浜市西区,浅間町１丁目４番３号ウィザードビル４０２,,14,103,2200072,,,,,,,2025-08-04,1,,,,,オッコ,0
312,2020003029058,新規,0,2025-08-04,2025-08-04,トラフィックワークス合同会社,,合同会社,神奈川県,横浜市神奈川区,金港町５－１４クアドリフォリオ８階,,14,102,2210056,,,,,,,2025-08-04,1,,,,,トラフィックワークス,0
313,2020003029066,新規,0,2025-08-04,2025-08-04,合同会社ＡＩＲＳ,,合同会社,神奈川県,横浜市神奈川区,栄町１６番地５プレミスト横浜ポートサイド２０９号,,14,102,2210052,,,,,,,2025-08-04,1,,,,,エアーズ,0
319,2021003016343,新規,0,2025-08-04,2025-08-04,フュージョン・プラネット合同会社,,合同会社,神奈川県,鎌倉市,梶原１丁目１７－３,,14,204,2470063,,,,,,,2025-08-04,1,,,,,フュージョンプラネット,0
320,2021003016368,新規,0,2025-08-04,2025-08-04,ｄｏｗｅｌｌｙ合同会社,,合同会社,神奈川県,大和市,中央林間７丁目９番６－１２０９号,,14,213,2420007,,,,,,,2025-08-04,1,,,,,ドゥウェリー,0
325,2030001167932,新規,0,2025-08-04,2025-08-04,株式会社ルトリス,,株式会社,埼玉県,さいたま市南区,辻７丁目８番１２－２０２号,,11,108,3360026,,,,,,,2025-08-04,1,,,,,ルトリス,0
326,2030001167965,新規,0,2025-08-04,2025-08-04,株式会社浦和不動産,,株式会社,埼玉県,さいたま市浦和区,木崎４丁目１９番２９号,,11,107,3300042,,,,,,,2025-08-04,1,,,,,ウラワフドウサン,0
327,2030001167973,新規,0,2025-08-04,2025-08-04,星野商業株式会社,,株式会社,埼玉県,春日部市,米崎３６８,,11,214,3440124,,,,,,,2025-08-04,1,,,,,ホシノショウギョウ,0
334,2040001139880,新規,0,2025-08-04,2025-08-04,ＦＵＮＡ　ＳＴＡＤＩＵＭ株式会社,,株式会社,千葉県,船橋市,本町２丁目１３番７－２０１号,,12,204,2730005,,,,,,,2025-08-04,1,,,,,フナスタジアム,0
335,2040001139897,新規,0,2025-08-04,2025-08-04,株式会社タカノダクト,,株式会社,千葉県,松戸市,高塚新田２３３番地,,12,207,2702222,,,,,,,2025-08-04,1,,,,,タカノダクト,0
338,2040003028173,新規,0,2025-08-04,2025-08-04,合同会社Ｒ＆Ｈ,,合同会社,千葉県,松戸市,大橋４３６番地２８号,,12,207,2702224,,,,,,,2025-08-04,1,,,,,アールアンドエイチ,0
340,2050001057009,新規,0,2025-08-04,2025-08-04,株式会社ルカラボ,,株式会社,茨城県,水戸市,赤塚２丁目２０１９番地の１７２,,08,201,3114141,,,,,,,2025-08-04,1,,,,,ルカラボ,0
344,2060001038453,新規,0,2025-08-04,2025-08-04,株式会社Ｎｅｘｉｍ,,株式会社,栃木県,宇都宮市,岩曽町１３２８番地１,,09,201,3210973,,,,,,,2025-08-04,1,,,,,ネクシム,0
345,2060001038461,新規,0,2025-08-04,2025-08-04,那須野管理株式会社,,株式会社,栃木県,大田原市,美原１丁目３１３１番地１６,,09,210,3240047,,,,,,,2025-08-04,1,,,,,ナスノカンリ,0
347,2070001043213,新規,0,2025-08-04,2025-08-04,株式会社ＲＭＫ,,株式会社,群馬県,吾妻郡中之条町,大字下沢渡７６－２,,10,421,3770542,,,,,,,2025-08-04,1,,,,,アールエムケイ,0
349,2070003006028,新規,0,2025-08-04,2025-08-04,ナラフーズ合同会社,,合同会社,群馬県,前橋市,下新田町６６番地４－１Ｆ,,10,201,3710822,,,,,,,2025-08-04,1,,,,,ナラフーズ,0
357,2100001038812,新規,0,2025-08-04,2025-08-04,ＮＡＧＡＮＯ　Ｎａｏｒａｉ株式会社,,株式会社,長野県,長野市,青木島３丁目５番１号,,20,201,3812247,,,,,,,2025-08-04,1,,,,,ナガノナオライ,0
358,2100001038820,新規,0,2025-08-04,2025-08-04,株式会社ＴＯＲＩＴＳＵ,,株式会社,長野県,下伊那郡高森町,牛牧２２５８番地１,,20,403,3993105,,,,,,,2025-08-04,1,,,,,トリツ,0
374,2120001278332,新規,0,2025-08-04,2025-08-04,徳順株式会社,,株式会社,大阪府,大阪市淀川区,十三本町１丁目１８－７－４０１号室,,27,123,5320024,,,,,,,2025-08-04,1,,,,,トクジュン,0
375,2120001278373,新規,0,2025-08-04,2025-08-04,株式会社ＬＡＢＯＴＥＳＴ,,株式会社,大阪府,大阪市浪速区,元町２丁目５番１６号,,27,111,5560016,,,,,,,2025-08-04,1,,,,,ラボテスト,0
376,2120001278398,新規,0,2025-08-04,2025-08-04,株式会社檸檬,,株式会社,大阪府,交野市,星田２丁目１３－７,,27,230,5760016,,,,,,,2025-08-04,1,,,,,レモン,0
377,2120001278407,新規,0,2025-08-04,2025-08-04,Ａｅｒｏｓｋｙ株式会社,,株式会社,大阪府,大阪市浪速区,恵美須西２丁目１２番１９－４０６号,,27,111,5560003,,,,,,,2025-08-04,1,,,,,エアロスカイ,0
382,2120003030146,新規,0,2025-08-04,2025-08-04,藍天合同会社,,合同会社,大阪府,大阪市港区,市岡元町１丁目６－１１－５０２号,,27,107,5520002,,,,,,,2025-08-04,1,,,,,ブルースカイ,0
384,2120005025078,新規,0,2025-08-04,2025-08-04,一般社団法人西日本河南同郷会,,その他の設立登記法人,大阪府,大阪市中央区,大手前１丁目７番３１号ＯＭＭビル１４Ｆ,,27,128,5400008,,,,,,,2025-08-04,1,,,,,ニシニホンカナンドウキョウカイ,0
385,2120005025086,新規,0,2025-08-04,2025-08-04,一般社団法人バイローカル,,その他の設立登記法人,大阪府,大阪市阿倍野区,阿倍野元町６番２３号,,27,119,5450034,,,,,,,2025-08-04,1,,,,,バイローカル,0
392,2122001039482,新規,0,2025-08-04,2025-08-04,株式会社竹村総研,,株式会社,大阪府,東大阪市,荒本北１丁目２番３６－１４０８号,,27,227,5770011,,,,,,,2025-08-04,1,,,,,タケムラソウケン,0
397,2130001080200,新規,0,2025-08-04,2025-08-04,株式会社みやの和,,株式会社,京都府,向日市,寺戸町永田１番地の７７,,26,208,6170002,,,,,,,2025-08-04,1,,,,,ミヤノワ,0
398,2130003010683,新規,0,2025-08-04,2025-08-04,合同会社ねころく,,合同会社,京都府,亀岡市,西別院町柚原東谷５－２９,,26,206,6210124,,,,,,,2025-08-04,1,,,,,ネコロク,0
415,2180001167967,新規,0,2025-08-04,2025-08-04,株式会社ＧＯＬＤ　ＭＡＸ,,株式会社,愛知県,名古屋市中区,新栄１丁目２６番３号シャトル東瓦４０２号室,,23,106,4600007,,,,,,,2025-08-04,1,,,,,ゴールドマックス,0
416,2180001167983,新規,0,2025-08-04,2025-08-04,株式会社ＲＥ,,株式会社,愛知県,名古屋市中区,大須１丁目３５番３１号パートナーズビルヂング１０階,,23,106,4600011,,,,,,,2025-08-04,1,,,,,アールイー,0
417,2180001167991,新規,0,2025-08-04,2025-08-04,ＰＲＩＭＥ株式会社,,株式会社,愛知県,名古屋市中区,栄４丁目１１番２６号,,23,106,4600008,,,,,,,2025-08-04,1,,,,,プライム,0
418,2180001168016,新規,0,2025-08-04,2025-08-04,株式会社ＦＬＯＷ,,株式会社,愛知県,名古屋市中村区,森末町４丁目１３３番地の５,,23,105,4530052,,,,,,,2025-08-04,1,,,,,フロウ,0
419,2180001168024,新規,0,2025-08-04,2025-08-04,株式会社翔紅,,株式会社,愛知県,名古屋市東区,東桜２丁目３番７号東カン名古屋キャステール１１４３号室,,23,102,4610005,,,,,,,2025-08-04,1,,,,,ショウコウ,0
422,2180003028837,新規,0,2025-08-04,2025-08-04,合同会社井筒幸,,合同会社,愛知県,名古屋市天白区,植田１丁目１２０５番地オークヒルズ植田４０１,,23,116,4680051,,,,,,,2025-08-04,1,,,,,イヅコウ,0
427,2180305009717,新規,0,2025-08-04,2025-08-04,一般社団法人ここより,,その他の設立登記法人,愛知県,岡崎市,細川町字窪地７７番地２６３,,23,202,4442149,,,,,,,2025-08-04,1,,,,,ココヨリ,0
438,2220001026838,新規,0,2025-08-04,2025-08-04,株式会社メカニックスジャパン,,株式会社,石川県,金沢市,若草町２番３７号,,17,201,9218111,,,,,,,2025-08-04,1,,,,,メカニックスジャパン,0
441,2220005008989,新規,0,2025-08-04,2025-08-04,一般社団法人能登国指定文化財保護活用連携機構,,その他の設立登記法人,石川県,羽咋市,寺家町ク１番地１,,17,207,9250003,,,,,,,2025-08-04,1,,,,,ノトクニシテイブンカザイホゴカツヨウレンケイキコウ,0
445,2260003005290,新規,0,2025-08-04,2025-08-04,プラットホーム合同会社,,合同会社,岡山県,浅口市,鴨方町六条院中１０５２－１,,33,216,7190252,,,,,,,2025-08-04,1,,,,,プラットホーム,0
446,2270003001776,新規,0,2025-08-04,2025-08-04,合同会社ＮＡＩＳＵＮＡ　ＫＯＷＡＮＥＫＯ,,合同会社,鳥取県,鳥取市,吉岡温泉町４１５番地８,,31,201,6801442,,,,,,,2025-08-04,1,,,,,ナイスナコワネコ,0
452,2290003017176,新規,0,2025-08-04,2025-08-04,合同会社ＴＡＫＡＲＡ　Ｓｔａｎｄａｒｄ,,合同会社,福岡県,筑後市,大字山ノ井４４番地ルグラン羽犬塚駅前２０１号,,40,211,8330031,,,,,,,2025-08-04,1,,,,,タカラスタンダード,0
457,2290801031758,新規,0,2025-08-04,2025-08-04,株式会社地鶏屋代表,,株式会社,福岡県,行橋市,中央３丁目２番７号,,40,213,8240005,,,,,,,2025-08-04,1,,,,,ジドリヤダイヒョウ,0
462,2310001019733,新規,0,2025-08-04,2025-08-04,株式会社Ｋ．Ｋ．Ｅ,,株式会社,長崎県,東彼杵郡波佐見町,湯無田郷１１３２‐９,,42,323,8593702,,,,,,,2025-08-04,1,,,,,ケーケーイー,0
471,2350003004993,新規,0,2025-08-04,2025-08-04,ＶＩＺＭＯ合同会社,,合同会社,宮崎県,宮崎市,大字新名爪１８８番地２０,,45,201,8800124,,,,,,,2025-08-04,1,,,,,ビズモ,0
475,2370003007227,新規,0,2025-08-04,2025-08-04,合同会社ｈｅｌｋａ,,合同会社,宮城県,黒川郡大和町,吉岡南３丁目１３番地の２チャミィハウス１０５,,04,421,9813626,,,,,,,2025-08-04,1,,,,,ヘルカ,0
492,2430005015270,新規,0,2025-08-04,2025-08-04,ビルダーズ事業協同組合,,その他の設立登記法人,北海道,札幌市中央区,大通西１１丁目４番地,,01,101,0600042,,,,,,,2025-08-04,1,,,,,ビルダーズ,0
499,2490005006999,新規,0,2025-08-04,2025-08-04,土佐町やまとしごと協同組合,,その他の設立登記法人,高知県,土佐郡土佐町,田井１４９５－１,,39,363,7813521,,,,,,,2025-08-04,1,,,,,トサチョウヤマトシゴト,0
501,2500001026446,新規,0,2025-08-04,2025-08-04,株式会社牧野メンテナンス,,株式会社,愛媛県,松山市,美沢２丁目７番５号－１０３,,38,201,7918022,,,,,,,2025-08-04,1,,,,,マキノメンテナンス,0
507,3010001257379,新規,0,2025-08-04,2025-08-04,株式会社ヒャクドシー,,株式会社,東京都,千代田区,神田須田町１丁目２０－１ルフォンプログレ神田プレミア,,13,101,1010041,,,,,,,2025-08-04,1,,,,,ヒャクドシー,0
509,3010003048090,新規,0,2025-08-04,2025-08-04,合同会社東京ＰＧ,,合同会社,東京都,中央区,日本橋箱崎町１６－１東益ビル６階,,13,102,1030015,,,,,,,2025-08-04,1,,,,,トウキョウピージー,0
510,3010003048215,新規,0,2025-08-04,2025-08-04,合同会社Ｔｓｕｃｈｉｙａ　Ｔｅｃｈ,,合同会社,東京都,文京区,小石川５丁目６番９－４０１号,,13,105,1120002,,,,,,,2025-08-04,1,,,,,ツチヤテック,0
515,3010005040459,新規,0,2025-08-04,2025-08-04,一般財団法人平山・ニップン財団,,その他の設立登記法人,東京都,千代田区,麹町４丁目８番地,,13,101,1020083,,,,,,,2025-08-04,1,,,,,ヒラヤマニップンザイダン,0
526,3010401192003,新規,0,2025-08-04,2025-08-04,株式会社ベネフィットグルメ,,株式会社,東京都,港区,六本木７丁目７－７Ｔｒｉ－ＳｅｖｅｎＲｏｐｐｏｎｇｉ８階,,13,103,1060032,,,,,,,2025-08-04,1,,,,,ベネフィットグルメ,0
527,3010401192135,新規,0,2025-08-04,2025-08-04,株式会社リンクス,,株式会社,東京都,港区,赤坂２丁目１７－５９国際本社ビル第二別館３階,,13,103,1070052,,,,,,,2025-08-04,1,,,,,リンクス,0
528,3010401192176,新規,0,2025-08-04,2025-08-04,ＬＣＪ　Ｐｅｇａｓｕｓ株式会社,,株式会社,東京都,港区,赤坂５丁目３番１号赤坂Ｂｉｚタワー２９階,,13,103,1070052,,,,,,,2025-08-04,1,,,,,エルシージェーペガサス,0
541,3010801036453,新規,0,2025-08-04,2025-08-04,株式会社ＡＢＥ,,株式会社,東京都,大田区,池上７丁目１９番３号Ｇｒａｐａｄｏｒａ池上Ｂ－０３,,13,111,1460082,,,,,,,2025-08-04,1,,,,,アベ,0
542,3010803005497,新規,0,2025-08-04,2025-08-04,合同会社柊ワークス,,合同会社,東京都,大田区,下丸子２丁目１２番１５－９１８号,,13,111,1460092,,,,,,,2025-08-04,1,,,,,ヒイラギワークス,0
543,3010901057853,新規,0,2025-08-04,2025-08-04,ＣｌｉｍｂＵｐ　Ａｇｅｎｃｙ株式会社,,株式会社,東京都,世田谷区,大原１丁目２１番６号クレスコ下北沢２０６,,13,112,1560041,,,,,,,2025-08-04,1,,,,,クライムアップエージェンシー,0
545,3010903010141,新規,0,2025-08-04,2025-08-04,合同会社スパイスエム,,合同会社,東京都,世田谷区,上馬４丁目６－８,,13,112,1540011,,,,,,,2025-08-04,1,,,,,スパイスエム,0
549,3011001171140,新規,0,2025-08-04,2025-08-04,株式会社麗,,株式会社,東京都,渋谷区,代々木１丁目５５－１４セントヒルズ代々木内海ビル６０２号室,,13,113,1510053,,,,,,,2025-08-04,1,,,,,レイ,0
550,3011001171149,新規,0,2025-08-04,2025-08-04,株式会社ＢＡＬＬＯＯＮ　ＴＯＫＹＯ,,株式会社,東京都,渋谷区,道玄坂１丁目１０番８号渋谷道玄坂東急ビル２Ｆ－Ｃ,,13,113,1500043,,,,,,,2025-08-04,1,,,,,バルーントウキョウ,0
560,3011703004333,新規,0,2025-08-04,2025-08-04,合同会社Ｌｉｎｋ　Ｃａｒｇｏ,,合同会社,東京都,江戸川区,松江５丁目２４番４号Ｎｏ．１００１,,13,123,1320025,,,,,,,2025-08-04,1,,,,,リンクカーゴ,0
562,3012401043409,新規,0,2025-08-04,2025-08-04,株式会社スマラボ,,株式会社,東京都,武蔵野市,吉祥寺本町１丁目３１番１１号,,13,203,1800004,,,,,,,2025-08-04,1,,,,,スマラボ,0
571,3013301054693,新規,0,2025-08-04,2025-08-04,株式会社アリエスパートナーズ,,株式会社,東京都,豊島区,池袋４丁目２４番５号メゾンウエダ１Ｆ,,13,116,1710014,,,,,,,2025-08-04,1,,,,,アリエスパートナーズ,0
574,3020001164095,新規,0,2025-08-04,2025-08-04,株式会社ｙｏｒｉｍｏｋｕ,,株式会社,神奈川県,川崎市幸区,塚越１丁目７３番地,,14,132,2120024,,,,,,,2025-08-04,1,,,,,ヨリモク,0
575,3020001164161,新規,0,2025-08-04,2025-08-04,Ｅｎｔｏｕｒａｇｅ株式会社,,株式会社,神奈川県,横浜市緑区,中山４丁目１８－３２,,14,113,2260019,,,,,,,2025-08-04,1,,,,,アントラージュ,0
580,3020003029024,新規,0,2025-08-04,2025-08-04,合同会社富士興業,,合同会社,神奈川県,横浜市戸塚区,戸塚町３１６３番地２２ライムハイツ２０１,,14,110,2440003,,,,,,,2025-08-04,1,,,,,フジコウギョウ,0
581,3020003029040,新規,0,2025-08-04,2025-08-04,合同会社東京物流テック,,合同会社,神奈川県,横浜市西区,浅間町１丁目４番３号ウィザードビル４０２,,14,103,2200072,,,,,,,2025-08-04,1,,,,,トウキョウブツリュウテック,0
599,3040001139913,新規,0,2025-08-04,2025-08-04,株式会社Ｐｒｏｇｒｅｓｓ,,株式会社,千葉県,柏市,中十余二４０７番地の３,,12,217,2770873,,,,,,,2025-08-04,1,,,,,プログレス,0
601,3040003028156,新規,0,2025-08-04,2025-08-04,合同会社ＵＰ’ｓ,,合同会社,千葉県,千葉市稲毛区,長沼原町５３８番地３,,12,103,2630001,,,,,,,2025-08-04,1,,,,,アップス,0
602,3040003028164,新規,0,2025-08-04,2025-08-04,合同会社ＨＴ,,合同会社,千葉県,市川市,八幡２丁目１６番２１号ウエストビル２階,,12,203,2720021,,,,,,,2025-08-04,1,,,,,エイチティー,0
609,3050001057016,新規,0,2025-08-04,2025-08-04,株式会社ＳＴＥＬＬＡ,,株式会社,茨城県,水戸市,千波町２０８３番地の１１,,08,201,3100851,,,,,,,2025-08-04,1,,,,,ステラ,0
611,3050003009469,新規,0,2025-08-04,2025-08-04,合同会社Ｒｅｓｏｎａｎｃｅ,,合同会社,茨城県,鹿嶋市,大字宮中２０６番地４,,08,222,3140031,,,,,,,2025-08-04,1,,,,,レゾナンス,0
612,3050003009477,新規,0,2025-08-04,2025-08-04,合同会社Ｄａｙ　Ｏｎｅ,,合同会社,茨城県,古河市,水海２４５４番地４パールヴィレッジＡ棟２０２,,08,204,3060215,,,,,,,2025-08-04,1,,,,,デイワン,0
616,3080101025687,新規,0,2025-08-04,2025-08-04,株式会社Ｐｒｏｌｉｎｅ　Ｍｏｔｏｒ　Ｓｐｏｒｔ　Ｒａｃｉｎｇ,,株式会社,静岡県,御殿場市,印野１７９１番地の４,,22,215,4120008,,,,,,,2025-08-04,1,,,,,プロラインモータースポーツレーシング,0
617,3080103003385,新規,0,2025-08-04,2025-08-04,合同会社和音社,,合同会社,静岡県,三島市,４２８４番地の１５,,22,206,4110000,,,,,,,2025-08-04,1,,,,,ワオンシャ,0
627,3120001278281,新規,0,2025-08-04,2025-08-04,ＳＡＫＡＩホールディングス株式会社,,株式会社,大阪府,大阪市天王寺区,国分町１３番３号,,27,109,5430044,,,,,,,2025-08-04,1,,,,,サカイホールディングス,0
628,3120001278315,新規,0,2025-08-04,2025-08-04,株式会社ＧＡＭＥＶＡＴＥ,,株式会社,大阪府,大阪市北区,豊崎４丁目６番７－１９０７号,,27,127,5310072,,,,,,,2025-08-04,1,,,,,ゲームベート,0
629,3120001278331,新規,0,2025-08-04,2025-08-04,暁光株式会社,,株式会社,大阪府,大阪市淀川区,十三本町１丁目１８－７－８０２,,27,123,5320024,,,,,,,2025-08-04,1,,,,,ギョウコウ,0
630,3120001278389,新規,0,2025-08-04,2025-08-04,株式会社ｎｕａ,,株式会社,大阪府,大阪市北区,芝田２丁目７－１８－６０９,,27,127,5300012,,,,,,,2025-08-04,1,,,,,ヌア,0
631,3120001278397,新規,0,2025-08-04,2025-08-04,日富メタプロ株式会社,,株式会社,大阪府,大阪市淀川区,西宮原１丁目８番１０号,,27,123,5320004,,,,,,,2025-08-04,1,,,,,ニチフメタプロ,0
632,3120001278406,新規,0,2025-08-04,2025-08-04,和風株式会社,,株式会社,大阪府,大阪市浪速区,恵美須西２丁目１２番１９－４０５号,,27,111,5560003,,,,,,,2025-08-04,1,,,,,ワフウ,0
633,3120001278422,新規,0,2025-08-04,2025-08-04,来楽株式会社,,株式会社,大阪府,大阪市住之江区,新北島１丁目４－１５－３１７号室,,27,125,5590024,,,,,,,2025-08-04,1,,,,,ライラク,0
634,3120001278538,新規,0,2025-08-04,2025-08-04,株式会社Ｐｒｅｍｓａｎ,,株式会社,大阪府,大阪市北区,梅田１丁目２番２号大阪駅前第２ビル１２‐１２,,27,127,5300001,,,,,,,2025-08-04,1,,,,,プレムサン,0
643,3130003010641,新規,0,2025-08-04,2025-08-04,合同会社Ｓ・Ｓクリーンサービス,,合同会社,京都府,京都市伏見区,下鳥羽北円面田町１２５番地５０１号,,26,109,6128497,,,,,,,2025-08-04,1,,,,,エスエスクリーンサービス,0
655,3140003022396,新規,0,2025-08-04,2025-08-04,Ｂ．Ｋ．合同会社,,合同会社,兵庫県,神戸市北区,大池見山台１４番地の１８９,,28,109,6511206,,,,,,,2025-08-04,1,,,,,ビーケー,0
657,3160001026975,新規,0,2025-08-04,2025-08-04,株式会社アートプラス,,株式会社,滋賀県,栗東市,小柿１０丁目１１－１４,,25,208,5203024,,,,,,,2025-08-04,1,,,,,アートプラス,0
662,3180001167990,新規,0,2025-08-04,2025-08-04,株式会社ＳＡＳＡＧＵ,,株式会社,愛知県,名古屋市中区,栄５丁目４番地２レジデンシア栄南３０２,,23,106,4600008,,,,,,,2025-08-04,1,,,,,ササグ,0
663,3180001168015,新規,0,2025-08-04,2025-08-04,株式会社ＬＵＭＩｅｎｅ,,株式会社,愛知県,春日井市,味美白山町１丁目１０番地１,,23,206,4860969,,,,,,,2025-08-04,1,,,,,ルミエネ,0
664,3180001168023,新規,0,2025-08-04,2025-08-04,株式会社ＲＡＹ,,株式会社,愛知県,名古屋市千種区,春里町２丁目１４番６号,,23,101,4640038,,,,,,,2025-08-04,1,,,,,レイ,0
676,3210001020262,新規,0,2025-08-04,2025-08-04,株式会社ＣＨＩＬＬ　ＮＥＳＴ,,株式会社,福井県,丹生郡越前町,小倉第３５号１２番地１,,18,423,9160111,,,,,,,2025-08-04,1,,,,,チルネスト,0
679,3220005008988,新規,0,2025-08-04,2025-08-04,一般社団法人紡ぐ学校上黒丸,,その他の設立登記法人,石川県,珠洲市,若山町上山２０番地１２,,17,205,9271317,,,,,,,2025-08-04,1,,,,,ツムグガッコウカミクロマル,0
688,3240003007338,新規,0,2025-08-04,2025-08-04,スギノアセット合同会社,,合同会社,広島県,福山市,奈良津町３丁目１２－１６,,34,207,7200022,,,,,,,2025-08-04,1,,,,,スギノアセット,0
702,3290001110931,新規,0,2025-08-04,2025-08-04,株式会社Ｌｉｔｔｌｅ　Ｆｌｏｗｅｒ　Ｆｕｋｕｏｋａ,,株式会社,福岡県,福岡市中央区,大名１丁目３－５ＡＲＫＣＵＢＥ２０１,,40,133,8100041,,,,,,,2025-08-04,1,,,,,リトルフラワーフクオカ,0
703,3290003017167,新規,0,2025-08-04,2025-08-04,合同会社ホロムア,,合同会社,福岡県,福岡市博多区,東光２丁目１３番２０－２０１号,,40,132,8120008,,,,,,,2025-08-04,1,,,,,ホロムア,0
704,3290003017175,新規,0,2025-08-04,2025-08-04,合同会社裕安,,合同会社,福岡県,福岡市博多区,博多駅前４丁目３３－７ロマネスク博多駅前１０１９,,40,132,8120011,,,,,,,2025-08-04,1,,,,,,0
709,3290801031749,新規,0,2025-08-04,2025-08-04,岩本電工株式会社,,株式会社,福岡県,北九州市若松区,今光１丁目２４番１８号,,40,103,8080071,,,,,,,2025-08-04,1,,,,,イワモトデンコウ,0
716,3340001027559,新規,0,2025-08-04,2025-08-04,株式会社サンコーフーズ,,株式会社,鹿児島県,肝属郡肝付町,宮下４６９番地,,46,492,8931205,,,,,,,2025-08-04,1,,,,,サンコーフーズ,0
722,3360001035519,新規,0,2025-08-04,2025-08-04,株式会社ナレッジ出版,,株式会社,沖縄県,浦添市,港川２丁目３１番６号秀建ビル２０２,,47,208,9012134,,,,,,,2025-08-04,1,,,,,ナレッジ,0
725,3360003015147,新規,0,2025-08-04,2025-08-04,合同会社佐智組,,合同会社,沖縄県,宮古島市,平良字下里１３２２番地　伊志嶺アパート２０２,,47,214,9060013,,,,,,,2025-08-04,1,,,,,サチグミ,0
757,4010003048206,新規,0,2025-08-04,2025-08-04,ＴＦ合同会社,,合同会社,東京都,中央区,銀座１丁目１２番４号Ｎ＆Ｅ　ＢＬＤ．６Ｆ,,13,102,1040061,,,,,,,2025-08-04,1,,,,,タナベファミリー,0
758,4010003048214,新規,0,2025-08-04,2025-08-04,合同会社レジェンダリーゲームス・ジャパン,,合同会社,東京都,中央区,新川１丁目２７番８号新川大原ビル８階,,13,102,1040033,,,,,,,2025-08-04,1,,,,,レジェンダリーゲームスジャパン,0
759,4010103002608,新規,0,2025-08-04,2025-08-04,合同会社ＡＭＡＺＯＲＡ　Ｗｏｒｋｓ,,合同会社,東京都,八王子市,左入町３１―４,,13,201,1920012,,,,,,,2025-08-04,1,,,,,アマゾラワークス,0
767,4010401192092,新規,0,2025-08-04,2025-08-04,株式会社Ｎａｒａｌｉｓ,,株式会社,東京都,港区,北青山１丁目３番１号アールキューブ青山３階,,13,103,1070061,,,,,,,2025-08-04,1,,,,,ナラリス,0
768,4010401192159,新規,0,2025-08-04,2025-08-04,株式会社東京企画,,株式会社,東京都,港区,浜松町２丁目２番１５号浜松町ダイヤビル２階,,13,103,1050013,,,,,,,2025-08-04,1,,,,,トウキョウキカク,0
769,4010401192191,新規,0,2025-08-04,2025-08-04,Ａｃｈｉｅｖｅ　Ｅｘｐｏｒｔｓ株式会社,,株式会社,東京都,港区,南青山２丁目２－１５ウィン青山１４０１号室,,13,103,1070062,,,,,,,2025-08-04,1,,,,,アチーブエクスポート,0
770,4010401192241,新規,0,2025-08-04,2025-08-04,カムイアカシャ・サンクチュアリ株式会社,,株式会社,東京都,港区,赤坂６丁目３番２０号ＨＡＴビル５Ｆ,,13,103,1070052,,,,,,,2025-08-04,1,,,,,カムイアカシャサンクチュアリ,0
773,4010403035695,新規,0,2025-08-04,2025-08-04,Ｓｗｉｍｌａｎｅ　Ｊａｐａｎ合同会社,,合同会社,東京都,港区,赤坂２丁目２３番１号アークヒルズフロントタワーＲｏＰ８０６号,,13,103,1070052,,,,,,,2025-08-04,1,,,,,スイムレーンジャパン,0
774,4010403035712,新規,0,2025-08-04,2025-08-04,合同会社メディリンク,,合同会社,東京都,港区,南青山３丁目１番３６号青山丸竹ビル６Ｆ,,13,103,1070062,,,,,,,2025-08-04,1,,,,,メディリンク,0
781,4010803005496,新規,0,2025-08-04,2025-08-04,合同会社ＤＥＭＡＲＩＺ,,合同会社,東京都,大田区,田園調布１丁目１番１１－２０４号,,13,111,1450071,,,,,,,2025-08-04,1,,,,,デマリズ,0
793,4011001171156,新規,0,2025-08-04,2025-08-04,部品大好き株式会社,,株式会社,東京都,渋谷区,恵比寿西２丁目４番８号ウインド恵比寿ビル８Ｆ,,13,113,1500021,,,,,,,2025-08-04,1,,,,,ブヒンダイスキ,0
794,4011001171164,新規,0,2025-08-04,2025-08-04,株式会社ｘＢｏｕｎｄａｒｙ,,株式会社,東京都,渋谷区,恵比寿３丁目９番３号,,13,113,1500013,,,,,,,2025-08-04,1,,,,,クロスバウンダリー,0
795,4011001171362,新規,0,2025-08-04,2025-08-04,株式会社Ａｒｃｎｅｍ　ＡＩ,,株式会社,東京都,渋谷区,南平台町１６－２８Ｄａｉｗａ渋谷スクエア６階,,13,113,1500036,,,,,,,2025-08-04,1,,,,,アークネムエーアイ,0
797,4011003022241,新規,0,2025-08-04,2025-08-04,グランツラボ合同会社,,合同会社,東京都,渋谷区,広尾１丁目２番地１号ヒカリビル４階,,13,113,1500012,,,,,,,2025-08-04,1,,,,,グランツラボ,0
803,4011501032394,新規,0,2025-08-04,2025-08-04,株式会社間渡出版,,株式会社,東京都,北区,西ケ原１丁目５３番１３号ミルーナヒルズＤ駒込８０３号,,13,117,1140024,,,,,,,2025-08-04,1,,,,,ジャンドゥーシュッパン,0
808,4012301014483,新規,0,2025-08-04,2025-08-04,株式会社ｚｏｋｕｊｉｎ,,株式会社,東京都,町田市,玉川学園２丁目５‐２４,,13,209,1940041,,,,,,,2025-08-04,1,,,,,ゾクジン,0
814,4013301054692,新規,0,2025-08-04,2025-08-04,泰瑞国際株式会社,,株式会社,東京都,豊島区,池袋３丁目３－６パールハイツ池袋８０２号,,13,116,1710014,,,,,,,2025-08-04,1,,,,,タイズイコクサイ,0
821,4020001164020,新規,0,2025-08-04,2025-08-04,パンパン株式会社,,株式会社,神奈川県,川崎市多摩区,登戸新町３１１番地フォーレストハイツ３０２,,14,135,2140013,,,,,,,2025-08-04,1,,,,,パンパン,0
822,4020001164177,新規,0,2025-08-04,2025-08-04,株式会社Ｃａｐｉｔａｌ　Ｋ,,株式会社,神奈川県,横浜市港北区,日吉本町１丁目４番２４号,,14,109,2230062,,,,,,,2025-08-04,1,,,,,キャピタルケイ,0
826,4020003029015,新規,0,2025-08-04,2025-08-04,ハルノバ合同会社,,合同会社,神奈川県,横浜市神奈川区,金港町５番地１４クアドリフォリオ８階,,14,102,2210056,,,,,,,2025-08-04,1,,,,,ハルノバ,0
827,4020003029031,新規,0,2025-08-04,2025-08-04,ＷＡＴｈｅｒａｐｙ合同会社,,合同会社,神奈川県,川崎市麻生区,高石２丁目９番１１－２０７号,,14,137,2150003,,,,,,,2025-08-04,1,,,,,,0
839,4030003027315,新規,0,2025-08-04,2025-08-04,愛宕合同会社,,合同会社,埼玉県,本庄市,見福３丁目１３番３号,,11,211,3670044,,,,,,,2025-08-04,1,,,,,アタゴ,0
844,4040001139879,新規,0,2025-08-04,2025-08-04,株式会社山口トレーディング,,株式会社,千葉県,千葉市花見川区,大日町１５４７番地１６,,12,102,2620004,,,,,,,2025-08-04,1,,,,,ヤマグチトレーディング,0
845,4040001139904,新規,0,2025-08-04,2025-08-04,海新達株式会社,,株式会社,千葉県,成田市,川上２４５番地１７００,,12,211,2870244,,,,,,,2025-08-04,1,,,,,カイシンタツ,0
848,4040003028155,新規,0,2025-08-04,2025-08-04,コウユウ・キャピタル合同会社,,合同会社,千葉県,市川市,北国分３丁目６番１号,,12,203,2720836,,,,,,,2025-08-04,1,,,,,コウユウキャピタル,0
854,4060001038435,新規,0,2025-08-04,2025-08-04,ＮＤ．ＷＯＲＫｓ株式会社,,株式会社,栃木県,宇都宮市,今泉町７８番地１,,09,201,3210962,,,,,,,2025-08-04,1,,,,,エヌディーワークス,0
859,4060005010365,新規,0,2025-08-04,2025-08-04,特定非営利活動法人群雀,,その他の設立登記法人,栃木県,宇都宮市,雀の宮４丁目５番１８号,,09,201,3210132,,,,,,,2025-08-04,1,,,,,ムラスズメ,0
867,4100001038827,新規,0,2025-08-04,2025-08-04,株式会社ハウザーナガノ,,株式会社,長野県,長野市,大字安茂里１１８１番地１,,20,201,3800941,,,,,,,2025-08-04,1,,,,,ハウザーナガノ,0
876,4120001278330,新規,0,2025-08-04,2025-08-04,奈古株式会社,,株式会社,大阪府,大阪市港区,市岡元町２丁目６番１１－１０５号,,27,107,5520002,,,,,,,2025-08-04,1,,,,,ナコ,0
877,4120001278355,新規,0,2025-08-04,2025-08-04,株式会社食事と健康エルヴェ,,株式会社,大阪府,大阪市東住吉区,湯里１丁目１６番１２号,,27,121,5460013,,,,,,,2025-08-04,1,,,,,ショクジトケンコウエルヴェ,0
878,4120001278363,新規,0,2025-08-04,2025-08-04,鳴人株式会社,,株式会社,大阪府,大阪市東淀川区,下新庄４丁目２０番７号、３０３号室,,27,114,5330021,,,,,,,2025-08-04,1,,,,,ナルト,0
879,4120001278396,新規,0,2025-08-04,2025-08-04,京和薬局株式会社,,株式会社,大阪府,大阪市中央区,島之内１丁目１４番８号長堀小谷マンション１階,,27,128,5420082,,,,,,,2025-08-04,1,,,,,キョウワヤッキョク,0
880,4120001278405,新規,0,2025-08-04,2025-08-04,匯宸株式会社,,株式会社,大阪府,大阪市浪速区,恵美須西２丁目１２番１９－４０７号,,27,111,5560003,,,,,,,2025-08-04,1,,,,,カイシン,0
881,4120001278421,新規,0,2025-08-04,2025-08-04,弘川株式会社,,株式会社,大阪府,大阪市阿倍野区,松虫通１丁目３－１１－３０７室,,27,119,5450043,,,,,,,2025-08-04,1,,,,,ヒロカワ,0
882,4120001278520,新規,0,2025-08-04,2025-08-04,株式会社ｗａｒｕｃａ,,株式会社,大阪府,大阪市中央区,南船場３丁目２番６号,,27,128,5420081,,,,,,,2025-08-04,1,,,,,ワルカ,0
883,4120001278578,新規,0,2025-08-04,2025-08-04,ＳＩＴ株式会社,,株式会社,大阪府,大阪市北区,大深町５番５４号グラングリーン大阪パークタワー８階,,27,127,5300011,,,,,,,2025-08-04,1,,,,,エスアイティー,0
886,4120003030219,新規,0,2025-08-04,2025-08-04,合同会社アメジスト,,合同会社,大阪府,大阪市西区,南堀江３丁目１０番８号,,27,106,5500015,,,,,,,2025-08-04,1,,,,,アメジスト,0
892,4122001039480,新規,0,2025-08-04,2025-08-04,株式会社城下塗装,,株式会社,大阪府,東大阪市,友井２丁目２７番１号,,27,227,5770816,,,,,,,2025-08-04,1,,,,,シロシタトソウ,0
894,4130003010640,新規,0,2025-08-04,2025-08-04,清水合同会社,,合同会社,京都府,京都市山科区,八軒屋敷町１３アルカディア追分３０４号,,26,110,6078091,,,,,,,2025-08-04,1,,,,,シミズ,0
903,4140003022230,新規,0,2025-08-04,2025-08-04,合同会社プロバリュー,,合同会社,兵庫県,西宮市,北六甲台２丁目１５番１５号,,28,204,6511413,,,,,,,2025-08-04,1,,,,,プロバリュー,0
912,4180001167890,新規,0,2025-08-04,2025-08-04,株式会社ルリエ,,株式会社,愛知県,海部郡蟹江町,大字蟹江新町字中之割１２６－１０,,23,425,4970035,,,,,,,2025-08-04,1,,,,,ルリエ,0
913,4180001167957,新規,0,2025-08-04,2025-08-04,株式会社リンクラシア,,株式会社,愛知県,名古屋市中村区,椿町２２番１号,,23,105,4530015,,,,,,,2025-08-04,1,,,,,リンクラシア,0
915,4180003028810,新規,0,2025-08-04,2025-08-04,ＪＡＡ合同会社,,合同会社,愛知県,名古屋市港区,東茶屋１丁目１９番地,,23,111,4550851,,,,,,,2025-08-04,1,,,,,,0
917,4180301040079,新規,0,2025-08-04,2025-08-04,株式会社ＢＮＧ,,株式会社,愛知県,豊田市,小坂本町１丁目１３番地７,,23,211,4710034,,,,,,,2025-08-04,1,,,,,ビーエヌジー,0
919,4190003005131,新規,0,2025-08-04,2025-08-04,合同会社セントユウ,,合同会社,三重県,志摩市,磯部町穴川１１６２番地５,,24,215,5170213,,,,,,,2025-08-04,1,,,,,セントユウ,0
924,4200003006945,新規,0,2025-08-04,2025-08-04,ＡＷＡＮ　ＴＲＡＤＩＮＧ合同会社,,合同会社,岐阜県,安八郡輪之内町,福束字下沼１７００－２番地,,21,382,5030235,,,,,,,2025-08-04,1,,,,,アワントレーディング,0
925,4200005013782,新規,0,2025-08-04,2025-08-04,一般財団法人日本未来資源,,その他の設立登記法人,岐阜県,関市,神野１８４０番地,,21,205,5013203,,,,,,,2025-08-04,1,,,,,ニホンミライシゲン,0
931,4220001026836,新規,0,2025-08-04,2025-08-04,龍滝建材株式会社,,株式会社,石川県,金沢市,土清水２丁目９５番地,,17,201,9200955,,,,,,,2025-08-04,1,,,,,リュウタキケンザイ,0
938,4260003005289,新規,0,2025-08-04,2025-08-04,合同会社共栄,,合同会社,岡山県,倉敷市,加須山２７６番地３青野ビル２Ｆ,,33,202,7100026,,,,,,,2025-08-04,1,,,,,キョウエイ,0
944,4290001110897,新規,0,2025-08-04,2025-08-04,寺甌株式会社,00140147,株式会社,福岡県,福岡市博多区,博多駅前４丁目３３番７号ロマネスク博多駅前９０８号室,,40,132,8120011,,,,,,,2025-08-04,1,,,,,ジオウ,0
947,4290003017133,新規,0,2025-08-04,2025-08-04,合同会社みのり,,合同会社,福岡県,福岡市南区,大橋３丁目２番２８－６０１号,,40,134,8150033,,,,,,,2025-08-04,1,,,,,ミノリ,0
951,4290801031756,新規,0,2025-08-04,2025-08-04,株式会社おかげさま,,株式会社,福岡県,北九州市若松区,鴨生田３丁目６番１６号,,40,103,8080105,,,,,,,2025-08-04,1,,,,,オカゲサマ,0
955,4310003005052,新規,0,2025-08-04,2025-08-04,合同会社ＳＭＣ,,合同会社,長崎県,東彼杵郡東彼杵町,蔵本郷１２４６番地８,,42,321,8593808,,,,,,,2025-08-04,1,,,,,エスエムシー,0
958,4320001021249,新規,0,2025-08-04,2025-08-04,ＧＯＤＯモバイル株式会社,,株式会社,大分県,大分市,府内町３丁目９番１５号,,44,201,8700021,,,,,,,2025-08-04,1,,,,,ゴードーモバイル,0
961,4320003004730,新規,0,2025-08-04,2025-08-04,合同会社ドリーム,,合同会社,大分県,大分市,新町２番１４号日宝グランディ新町２０１,,44,201,8700028,,,,,,,2025-08-04,1,,,,,ドリーム,0
965,4370001052925,新規,0,2025-08-04,2025-08-04,ジャパンサイドクエスト株式会社,,株式会社,宮城県,仙台市青葉区,貝ケ森１丁目１２番５号,,04,101,9810942,,,,,,,2025-08-04,1,,,,,ジャパンサイドクエスト,0
969,4370003007233,新規,0,2025-08-04,2025-08-04,ＬＣＰａｒｔｎｅｒｓ合同会社,,合同会社,宮城県,仙台市泉区,将監２丁目４番５－２号,,04,105,9813132,,,,,,,2025-08-04,1,,,,,エルシーパートナーズ,0
975,4380003006110,新規,0,2025-08-04,2025-08-04,合同会社ソラリコ,,合同会社,福島県,いわき市,平下平窪字中島町２番地の８,,07,204,9708003,,,,,,,2025-08-04,1,,,,,ソラリコ,0
982,4430001094894,新規,0,2025-08-04,2025-08-04,東建工務店株式会社,,株式会社,北海道,札幌市中央区,南十条西９丁目１番２１－１５号室,,01,101,0640810,,,,,,,2025-08-04,1,,,,,トウケンコウムテン,0
983,4430001094985,新規,0,2025-08-04,2025-08-04,株式会社ロックフィールド,,株式会社,北海道,札幌市東区,東苗穂十一条３丁目１５番２３号,,01,103,0070811,,,,,,,2025-08-04,1,,,,,ロックフィールド,0
986,4430003017911,新規,0,2025-08-04,2025-08-04,Ｏａｓｉｓ　Ｒｅｓｉｄｅｎｔｉａｌ　Ｓｅｒｖｉｃｅｓ合同会社,,合同会社,北海道,磯谷郡蘭越町,字湯里６９１－２３,,01,394,0481321,,,,,,,2025-08-04,1,,,,,オアシスレシデンシャルサービス,0
990,4460303000878,新規,0,2025-08-04,2025-08-04,合同会社恵み介護,,合同会社,北海道,北見市,とん田東町４０１番地４ハッピー９３１０５号,,01,208,0900833,,,,,,,2025-08-04,1,,,,,メグミカイゴ,0
992,4470003002942,新規,0,2025-08-04,2025-08-04,アジャイル合同会社,,合同会社,香川県,綾歌郡宇多津町,３５９３番地１,,37,386,7690210,,,,,,,2025-08-04,1,,,,,アジャイル,0
994,4500005008810,新規,0,2025-08-04,2025-08-04,税理士法人ＨＡＬ,,その他の設立登記法人,愛媛県,松山市,平田町３５３番地４,,38,201,7918001,,,,,,,2025-08-04,1,,,,,ハル,0
1001,5010001257385,新規,0,2025-08-04,2025-08-04,株式会社ジェネカー,,株式会社,東京都,千代田区,神田須田町１丁目４Ｙ１０１ビル２階,,13,101,1010041,,,,,,,2025-08-04,1,,,,,ジェネカー,0
1003,5010005040473,新規,0,2025-08-04,2025-08-04,一般社団法人オルタナ２９,,その他の設立登記法人,東京都,千代田区,霞が関３丁目２番５号,,13,101,1000013,,,,,,,2025-08-04,1,,,,,オルタナトゥエティナイン,0
1014,5010401191985,新規,0,2025-08-04,2025-08-04,株式会社Ｎｉｃｅ　ＢＢＱ,,株式会社,東京都,港区,南青山３丁目１番３６号,,13,103,1070062,,,,,,,2025-08-04,1,,,,,ナイスバーベキュー,0
1015,5010401192091,新規,0,2025-08-04,2025-08-04,株式会社ｋ‐ｋｂ,,株式会社,東京都,港区,西麻布２丁目８番１２号,,13,103,1060031,,,,,,,2025-08-04,1,,,,,ケーケービー,0
1016,5010401192133,新規,0,2025-08-04,2025-08-04,株式会社リアルガイド,,株式会社,東京都,港区,南青山３丁目３－３リビエラ南青山,,13,103,1070062,,,,,,,2025-08-04,1,,,,,リアルガイド,0
1017,5010401192190,新規,0,2025-08-04,2025-08-04,株式会社空トラベル,,株式会社,東京都,港区,海岸１丁目２番１－１６０６号,,13,103,1050022,,,,,,,2025-08-04,1,,,,,ソラトラベル,0
1018,5010401192240,新規,0,2025-08-04,2025-08-04,カムイアカシャ・レジデンス株式会社,,株式会社,東京都,港区,赤坂６丁目３番２０号ＨＡＴビル５Ｆ,,13,103,1070052,,,,,,,2025-08-04,1,,,,,カムイアカシャレジデンス,0
1025,5010405024571,新規,0,2025-08-04,2025-08-04,司法書士法人Ｋ＆Ｃ,,その他の設立登記法人,東京都,港区,白金台５丁目１３番２６号レクシア白金台１０１,,13,103,1080071,,,,,,,2025-08-04,1,,,,,ケーアンドシー,0
1042,5011001171155,新規,0,2025-08-04,2025-08-04,Ｄｅｓｉｇｎ株式会社,,株式会社,東京都,渋谷区,道玄坂１丁目１０番８号渋谷道玄坂東急ビル２Ｆ－Ｃ,,13,113,1500043,,,,,,,2025-08-04,1,,,,,デザイン,0
1044,5011003022174,新規,0,2025-08-04,2025-08-04,合同会社エンサージョ,,合同会社,東京都,渋谷区,渋谷２丁目１９－１５宮益坂ビルディング６０９,,13,113,1500002,,,,,,,2025-08-04,1,,,,,エンサージョ,0
1045,5011003022199,新規,0,2025-08-04,2025-08-04,Ｍａｒｖｉｓ　Ｊａｐａｎ合同会社,,合同会社,東京都,渋谷区,恵比寿西１丁目３３番６号１階,,13,113,1500021,,,,,,,2025-08-04,1,,,,,マービスジャパン,0
1047,5011103016241,新規,0,2025-08-04,2025-08-04,合同会社ヒライテック,,合同会社,東京都,新宿区,新宿１丁目３６番２号新宿第七葉山ビル３階,,13,104,1600022,,,,,,,2025-08-04,1,,,,,ヒライテック,0
1048,5011303005655,新規,0,2025-08-04,2025-08-04,合同会社ブックマーク,,合同会社,東京都,杉並区,上高井戸１丁目２９－２５－１０２Ａ,,13,115,1680074,,,,,,,2025-08-04,1,,,,,ブックマーク,0
1050,5011401027295,新規,0,2025-08-04,2025-08-04,咲ネクスト株式会社,,株式会社,東京都,板橋区,大山東町４５番７号第二大沼ビル３０１,,13,119,1730014,,,,,,,2025-08-04,1,,,,,サキネクスト,0
1058,5011701028596,新規,0,2025-08-04,2025-08-04,清澄キャリア株式会社,,株式会社,東京都,江戸川区,中央４丁目１０－１２セントラルハイツ,,13,123,1320021,,,,,,,2025-08-04,1,,,,,キヨスミキャリア,0
1061,5011803006995,新規,0,2025-08-04,2025-08-04,ウィルホープ合同会社,,合同会社,東京都,足立区,新田１丁目３番２３－５０４号,,13,121,1230865,,,,,,,2025-08-04,1,,,,,ウィルホープ,0
1063,5012401043415,新規,0,2025-08-04,2025-08-04,株式会社光田精工,,株式会社,東京都,調布市,菊野台２丁目２番地６,,13,208,1820007,,,,,,,2025-08-04,1,,,,,ミツダセイコウ,0
1066,5012703003331,新規,0,2025-08-04,2025-08-04,合同会社Ｓｅｎ,,合同会社,東京都,東久留米市,柳窪４丁目３番１１号,,13,222,2030044,,,,,,,2025-08-04,1,,,,,セン,0
1067,5012805003353,新規,0,2025-08-04,2025-08-04,特定非営利活動法人ヒガシヤマトみらい基地,,その他の設立登記法人,東京都,東大和市,中央１丁目１５番地の１,,13,220,2070015,,,,,,,2025-08-04,1,,,,,ヒガシヤマトミライキチ,0
1081,5020001164011,新規,0,2025-08-04,2025-08-04,株式会社メテイヤ,,株式会社,神奈川県,横浜市泉区,上飯田町３６９０番地２,,14,116,2450018,,,,,,,2025-08-04,1,,,,,メテイヤ,0
1082,5020001164036,新規,0,2025-08-04,2025-08-04,株式会社Ｌｕｃｅｒｉａ,,株式会社,神奈川県,横浜市港北区,新横浜３丁目１７－１２アルファベース新横浜ビステーション新横浜４０１,,14,109,2220033,,,,,,,2025-08-04,1,,,,,ルセリア,0
1083,5020001164176,新規,0,2025-08-04,2025-08-04,株式会社Ｐｒｉｍｅ　Ｙ,,株式会社,神奈川県,横浜市港北区,日吉本町１丁目４番２４号,,14,109,2230062,,,,,,,2025-08-04,1,,,,,プライムワイ,0
1086,5020003029088,新規,0,2025-08-04,2025-08-04,合同会社エルズヤード,,合同会社,神奈川県,川崎市多摩区,南生田２丁目１２番１７号,,14,135,2140036,,,,,,,2025-08-04,1,,,,,エルズヤード,0
1088,5021001085957,新規,0,2025-08-04,2025-08-04,株式会社Ｔｒｉ‐ＰｏｐＹＵ,,株式会社,神奈川県,平塚市,夕陽ケ丘１２－３－２号,,14,203,2540806,,,,,,,2025-08-04,1,,,,,トリポップユー,0
1097,5030001167905,新規,0,2025-08-04,2025-08-04,株式会社ヴィヴァーチェ,,株式会社,埼玉県,所沢市,小手指町４丁目１０番地の３０,,11,208,3591141,,,,,,,2025-08-04,1,,,,,ヴィヴァーチェ,0
1098,5030001167962,新規,0,2025-08-04,2025-08-04,株式会社Ｃｉｔｙ　Ｌｉｇｈｔｓ,,株式会社,埼玉県,白岡市,西８丁目１０番４号,,11,246,3490205,,,,,,,2025-08-04,1,,,,,シティライツ,0
1099,5030001167995,新規,0,2025-08-04,2025-08-04,ＳＢＰ企画株式会社,,株式会社,埼玉県,和光市,新倉２丁目１５番５９号,,11,229,3510115,,,,,,,2025-08-04,1,,,,,エスビーピーキカク,0
1100,5030001168003,新規,0,2025-08-04,2025-08-04,株式会社ハウジングリーフ,,株式会社,埼玉県,入間市,大字仏子１６４１番地５０,,11,225,3580053,,,,,,,2025-08-04,1,,,,,ハウジングリーフ,0
1104,5030003027256,新規,0,2025-08-04,2025-08-04,合同会社Ｈ‐Ｏｎｅ,,合同会社,埼玉県,羽生市,大字神戸１３２３番地１ベルフルール１０１,,11,216,3480024,,,,,,,2025-08-04,1,,,,,エイチワン,0
1108,5040001139878,新規,0,2025-08-04,2025-08-04,株式会社ｉ‐ＮＥＸＴ,,株式会社,千葉県,茂原市,下永吉１２５５番地２,,12,210,2970035,,,,,,,2025-08-04,1,,,,,アイネクスト,0
1109,5040001139911,新規,0,2025-08-04,2025-08-04,株式会社ＴＳＵＲＵ,,株式会社,千葉県,千葉市中央区,富士見２丁目２１番１号,,12,101,2600015,,,,,,,2025-08-04,1,,,,,ツル,0
1114,5040003028179,新規,0,2025-08-04,2025-08-04,合同会社ＦＩＲＳＴ,,合同会社,千葉県,千葉市花見川区,幕張町５丁目４１７番地３２５レクセルガーデン幕張２０８号,,12,102,2620032,,,,,,,2025-08-04,1,,,,,ファースト,0
1123,5050001057022,新規,0,2025-08-04,2025-08-04,株式会社大内通商,,株式会社,茨城県,那珂郡東海村,大字石神外宿８３６番地,,08,341,3191101,,,,,,,2025-08-04,1,,,,,オオウチツウショウ,0
1124,5050003009459,新規,0,2025-08-04,2025-08-04,合同会社モーターベース,,合同会社,茨城県,水戸市,双葉台５丁目７８９番地４３,,08,201,3114145,,,,,,,2025-08-04,1,,,,,モーターベース,0
1125,5050003009475,新規,0,2025-08-04,2025-08-04,アルパインワークス合同会社,,合同会社,茨城県,鉾田市,上幡木１６２７番地４,,08,234,3112113,,,,,,,2025-08-04,1,,,,,アルパインワークス,0
1128,5060001038450,新規,0,2025-08-04,2025-08-04,株式会社落合設備,,株式会社,栃木県,栃木市,都賀町深沢６７０番地１,,09,203,3280107,,,,,,,2025-08-04,1,,,,,オチアイセツビ,0
1134,5080101025693,新規,0,2025-08-04,2025-08-04,株式会社リトープス,,株式会社,静岡県,沼津市,末広町２２８番地,,22,203,4100888,,,,,,,2025-08-04,1,,,,,リトープス,0
1135,5080401028066,新規,0,2025-08-04,2025-08-04,株式会社ｔｕｌｉｐ,,株式会社,静岡県,浜松市中央区,上島７丁目４番１４－８０６号ナイスパークステイツ上島,,22,138,4338122,,,,,,,2025-08-04,1,,,,,チューリップ,0
1137,5100001038842,新規,0,2025-08-04,2025-08-04,Ｓ・Ａエステート株式会社,,株式会社,長野県,上田市,住吉５３－１３,,20,203,3860002,,,,,,,2025-08-04,1,,,,,エスエーエステート,0
1143,5120001278338,新規,0,2025-08-04,2025-08-04,株式会社すてっぷあっぷ,,株式会社,大阪府,大阪市浪速区,戎本町２丁目４番３－２１１号,,27,111,5560013,,,,,,,2025-08-04,1,,,,,ステップアップ,0
1144,5120001278395,新規,0,2025-08-04,2025-08-04,株式会社ＴＴＨ,,株式会社,大阪府,大阪市北区,菅栄町６－１５リマジオンキタ３０３号室,,27,127,5300031,,,,,,,2025-08-04,1,,,,,ティーティーエイチ,0
1145,5120001278412,新規,0,2025-08-04,2025-08-04,ＭａｎｎＭｉａｏ　Ｓｈｉｋｉ株式会社,,株式会社,大阪府,大阪市北区,曾根崎２丁目８－５お初天神ＥＡＳＴＢＬＤＧ６Ｆ－３５,,27,127,5300057,,,,,,,2025-08-04,1,,,,,マンミアオシキ,0
1146,5120001278420,新規,0,2025-08-04,2025-08-04,米馬株式会社,,株式会社,大阪府,大阪市住之江区,新北島１丁目４－１５－３１０号室,,27,125,5590024,,,,,,,2025-08-04,1,,,,,ベイマ,0
1163,5140001139439,新規,0,2025-08-04,2025-08-04,株式会社エイシン先導,,株式会社,兵庫県,尼崎市,三反田町３丁目６番３０号,,28,202,6610024,,,,,,,2025-08-04,1,,,,,エイシンセンドウ,0
1164,5140001139463,新規,0,2025-08-04,2025-08-04,株式会社Ｍｉｔｏｃｅｒｅｓ,,株式会社,兵庫県,明石市,二見町東二見１６８０－２,,28,203,6740092,,,,,,,2025-08-04,1,,,,,マイトセレス,0
1167,5150001028310,新規,0,2025-08-04,2025-08-04,株式会社求組,,株式会社,奈良県,奈良市,中町５０６４番地の９,,29,201,6310052,,,,,,,2025-08-04,1,,,,,モトメグミ,0
1169,5170001018739,新規,0,2025-08-04,2025-08-04,株式会社前門左官,,株式会社,和歌山県,有田市,宮原町東５０８番地,,30,204,6490432,,,,,,,2025-08-04,1,,,,,マエカドサカン,0
1170,5180001167989,新規,0,2025-08-04,2025-08-04,株式会社アシストＳＩ,,株式会社,愛知県,名古屋市中区,丸の内２丁目７番２４号ＫＳ名古屋ビル５０３,,23,106,4600002,,,,,,,2025-08-04,1,,,,,アシストエスアイ,0
1173,5180003028735,新規,0,2025-08-04,2025-08-04,合同会社ＬＵＭＩＮＡ,,合同会社,愛知県,名古屋市中村区,名駅４丁目２４番地５第２森ビル４０１,,23,105,4500002,,,,,,,2025-08-04,1,,,,,ルミナ,0
1174,5180003028818,新規,0,2025-08-04,2025-08-04,合同会社ゴールド,,合同会社,愛知県,名古屋市千種区,内山３丁目３３番１４号,,23,101,4640075,,,,,,,2025-08-04,1,,,,,ゴールド,0
1175,5180003028850,新規,0,2025-08-04,2025-08-04,合同会社シモキタポップ,,合同会社,愛知県,名古屋市中村区,名駅３丁目４―１０アルティメイト名駅１ｓｔ２階,,23,105,4500002,,,,,,,2025-08-04,1,,,,,シモキタポップ,0
1195,5280001009479,新規,0,2025-08-04,2025-08-04,北里電気株式会社,,株式会社,島根県,出雲市,白枝町１０３５番地４,,32,203,6930006,,,,,,,2025-08-04,1,,,,,キタザトデンキ,0
1198,5290001110863,新規,0,2025-08-04,2025-08-04,株式会社オルレア,,株式会社,福岡県,福津市,福間南２丁目５番１７号,,40,224,8113212,,,,,,,2025-08-04,1,,,,,オルレア,0
1199,5290003017165,新規,0,2025-08-04,2025-08-04,合同会社ラナキラ,,合同会社,福岡県,福岡市中央区,渡辺通５丁目１６番１０－４０８号,,40,133,8100004,,,,,,,2025-08-04,1,,,,,ラナキラ,0
1201,5290801031755,新規,0,2025-08-04,2025-08-04,株式会社リンク交通,,株式会社,福岡県,北九州市小倉南区,下石田２丁目１１番４２号,,40,107,8020832,,,,,,,2025-08-04,1,,,,,リンクコウツウ,0
1204,5310001019730,新規,0,2025-08-04,2025-08-04,株式会社Ｋｅｉ　Ｄｅｓｉｇｎ　Ｗｏｒｋｓ,,株式会社,長崎県,雲仙市,吾妻町阿母名３７４番地１,,42,213,8591116,,,,,,,2025-08-04,1,,,,,ケイデザインワークス,0
1209,5350003004999,新規,0,2025-08-04,2025-08-04,合同会社ｍｏｍｏ,,合同会社,宮崎県,都城市,太郎坊町６８２９番地１コーポ中村１０２,,45,202,8850002,,,,,,,2025-08-04,1,,,,,モモ,0
1212,5360003015145,新規,0,2025-08-04,2025-08-04,真琉スミス合同会社,,合同会社,沖縄県,中頭郡北谷町,字浜川１６２番地,,47,326,9040112,,,,,,,2025-08-04,1,,,,,シンリュウスミス,0
1215,5370001052924,新規,0,2025-08-04,2025-08-04,株式会社ＲｅＳＴＡＴＥ,,株式会社,宮城県,仙台市泉区,泉中央１丁目５１番地の１,,04,105,9813133,,,,,,,2025-08-04,1,,,,,リステート,0
1226,5430001094976,新規,0,2025-08-04,2025-08-04,株式会社トントン,,株式会社,北海道,札幌市東区,北二十三条東７丁目４番１８号,,01,103,0650023,,,,,,,2025-08-04,1,,,,,トントン,0
1235,5700150131627,新規,0,2025-08-04,2025-08-04,Ｈ．Ｕ．グループ健康保険組合,,その他,東京都,立川市,曙町２丁目３７番７号,,13,202,1900012,,,,,,,2025-08-04,1,,,,,エイチユーグループケンコウホケンクミアイ,0
1244,6010001257376,新規,0,2025-08-04,2025-08-04,サトウヨード株式会社,,株式会社,東京都,千代田区,九段北１丁目３番２号大橋ビル３Ｆ,,13,101,1020073,,,,,,,2025-08-04,1,,,,,サトウヨード,0
1249,6010005040472,新規,0,2025-08-04,2025-08-04,一般社団法人ＦＲＣ２,,その他の設立登記法人,東京都,千代田区,霞が関３丁目２番５号,,13,101,1000013,,,,,,,2025-08-04,1,,,,,エフアールシーツー,0
1251,6010401192149,新規,0,2025-08-04,2025-08-04,Ｈａｒｕｎａｅ株式会社,,株式会社,東京都,港区,赤坂４丁目８番１９号赤坂フロントタウン３階,,13,103,1070052,,,,,,,2025-08-04,1,,,,,ハルネ,0
1252,6010401192198,新規,0,2025-08-04,2025-08-04,アキューメディカルジャパン株式会社,,株式会社,東京都,港区,元赤坂１丁目６番２号,,13,103,1070051,,,,,,,2025-08-04,1,,,,,アキューメディカルジャパン,0
1258,6010601067712,新規,0,2025-08-04,2025-08-04,株式会社ＩＨＩセグメント,,株式会社,東京都,江東区,豊洲３丁目１番１号,,13,108,1350061,,,,,,,2025-08-04,1,,,,,アイエイチアイセグメント,0
1259,6010801036459,新規,0,2025-08-04,2025-08-04,株式会社トラスト・ケー,,株式会社,東京都,大田区,東蒲田１丁目２２番地４号コーポ武石１階,,13,111,1440031,,,,,,,2025-08-04,1,,,,,トラストケー,0
1264,6010901057859,新規,0,2025-08-04,2025-08-04,株式会社ビガロー,,株式会社,東京都,世田谷区,桜新町１丁目１５番２２号,,13,112,1540015,,,,,,,2025-08-04,1,,,,,ビガロー,0
1267,6011001171154,新規,0,2025-08-04,2025-08-04,株式会社グルメグリッド,,株式会社,東京都,目黒区,東山２丁目９番１４ー１０５号目黒東山シティハウス,,13,110,1530043,,,,,,,2025-08-04,1,,,,,グルメグリッド,0
1268,6011001171195,新規,0,2025-08-04,2025-08-04,株式会社ＰＬＥＡＳＥ,,株式会社,東京都,渋谷区,恵比寿西１丁目３３－６－２１５,,13,113,1500021,,,,,,,2025-08-04,1,,,,,プリーズ,0
1269,6011001171328,新規,0,2025-08-04,2025-08-04,株式会社えん,,株式会社,東京都,渋谷区,道玄坂２丁目２９番１８号清水ビル４Ｆ,,13,113,1500043,,,,,,,2025-08-04,1,,,,,エン,0
1274,6011303005654,新規,0,2025-08-04,2025-08-04,ＧＬＯＢＡＬ　ＣＨＡＮＣＥ合同会社,,合同会社,東京都,杉並区,清水３丁目２番１０号,,13,115,1670033,,,,,,,2025-08-04,1,,,,,グローバルチャンス,0
1279,6011701028587,新規,0,2025-08-04,2025-08-04,株式会社ＭＡＴＡ　ＰＩＴＡ,,株式会社,東京都,江戸川区,松島３丁目１５番４号ＡＳＰフェニックスビル３０１,,13,123,1320031,,,,,,,2025-08-04,1,,,,,マターピター,0
1300,6020001164092,新規,0,2025-08-04,2025-08-04,株式会社新麦薗,,株式会社,神奈川県,横浜市戸塚区,平戸１丁目１３番１号,,14,110,2440802,,,,,,,2025-08-04,1,,,,,シンムギエン,0
1301,6020001164167,新規,0,2025-08-04,2025-08-04,株式会社ＡＬＬＩＮ,,株式会社,神奈川県,横浜市鶴見区,馬場４丁目３８番１号,,14,101,2300076,,,,,,,2025-08-04,1,,,,,オールイン,0
1302,6020001164175,新規,0,2025-08-04,2025-08-04,Ｄａｖｉ　Ｊａｐａｎ株式会社,,株式会社,神奈川県,横浜市中区,住吉町２丁目２２松栄関内ビル２Ｆ,,14,104,2310013,,,,,,,2025-08-04,1,,,,,ダビジャパン,0
1306,6020003028989,新規,0,2025-08-04,2025-08-04,合同会社Ｒａｆａｅｌ,,合同会社,神奈川県,横浜市中区,伊勢佐木町２丁目１０－４第三泰信ビル１階南,,14,104,2310045,,,,,,,2025-08-04,1,,,,,ラファエル,0
1307,6020003029021,新規,0,2025-08-04,2025-08-04,Ｇａｎａｎ　Ｆｉｎａｎｃｅ合同会社,,合同会社,神奈川県,横浜市中区,本牧大里町３０番１９号,,14,104,2310823,,,,,,,2025-08-04,1,,,,,ガナンファイナンス,0
1320,6030001167929,新規,0,2025-08-04,2025-08-04,株式会社奈良工業,,株式会社,埼玉県,八潮市,大字大曽根９０９番地１,,11,234,3400834,,,,,,,2025-08-04,1,,,,,ナラコウギョウ,0
1321,6030001167937,新規,0,2025-08-04,2025-08-04,株式会社ＥＢＳＳ,,株式会社,埼玉県,朝霞市,宮戸３丁目３番７９号,,11,227,3510031,,,,,,,2025-08-04,1,,,,,イービーエスエス,0
1330,6040003028161,新規,0,2025-08-04,2025-08-04,合同会社Ｌｅａｆ,,合同会社,千葉県,八千代市,大和田２９０番地２６,,12,221,2760045,,,,,,,2025-08-04,1,,,,,リーフ,0
1333,6060001038458,新規,0,2025-08-04,2025-08-04,株式会社ＤＩＭＡＬＩ,,株式会社,栃木県,宇都宮市,松原１丁目８番３７号－１,,09,201,3200041,,,,,,,2025-08-04,1,,,,,ディマリ,0
1337,6070001043201,新規,0,2025-08-04,2025-08-04,株式会社Ａｉｋｕ,,株式会社,群馬県,前橋市,川曲町４２５番地１,,10,201,3710823,,,,,,,2025-08-04,1,,,,,アイク,0
1342,6080401028065,新規,0,2025-08-04,2025-08-04,株式会社ＲＴコンサルタント,,株式会社,静岡県,掛川市,紅葉台９番地の１０,,22,213,4360070,,,,,,,2025-08-04,1,,,,,アールティーコンサルタント,0
1345,6080405007750,新規,0,2025-08-04,2025-08-04,ＮＰＯ法人よさこい遠州連合会,,その他の設立登記法人,静岡県,浜松市浜名区,新都田５丁目３０番１４号,,22,139,4312103,,,,,,,2025-08-04,1,,,,,ヨサコイエンシュウレンゴウカイ,0
1348,6100003008322,新規,0,2025-08-04,2025-08-04,合同会社ＨＫテックパートナー,,合同会社,長野県,安曇野市,明科中川手３５６８－１,,20,220,3997102,,,,,,,2025-08-04,1,,,,,エイチケイテックパートナー,0
1362,6120001278262,新規,0,2025-08-04,2025-08-04,青谷商事株式会社,,株式会社,大阪府,大阪市港区,弁天３丁目１０番２０号港ＯＧＩビル３０４号室,,27,107,5520007,,,,,,,2025-08-04,1,,,,,アオタニショウジ,0
1363,6120001278386,新規,0,2025-08-04,2025-08-04,株式会社ＰＥＡＣＥ,,株式会社,大阪府,門真市,北巣本町９－３,,27,223,5710073,,,,,,,2025-08-04,1,,,,,ピース,0
1364,6120001278411,新規,0,2025-08-04,2025-08-04,忠静株式会社,,株式会社,大阪府,大阪市東住吉区,今川７丁目１０番４－２０３号,,27,121,5460003,,,,,,,2025-08-04,1,,,,,チュウセイ,0
1365,6120001278485,新規,0,2025-08-04,2025-08-04,株式会社Ｈ＆Ｗ,,株式会社,大阪府,大阪市旭区,清水２丁目１８番２２号４階Ｄ１室,,27,117,5350021,,,,,,,2025-08-04,1,,,,,エイチアンドダブル,0
1369,6120003030150,新規,0,2025-08-04,2025-08-04,合同会社ａｎｎ,,合同会社,大阪府,大阪市此花区,島屋６丁目２番地１４－６０２号,,27,104,5540024,,,,,,,2025-08-04,1,,,,,アン,0
1370,6120003030175,新規,0,2025-08-04,2025-08-04,合同会社あまね,,合同会社,大阪府,大阪市中央区,南船場３丁目２番２２号おおきに南船場ビル２０５,,27,128,5420081,,,,,,,2025-08-04,1,,,,,アマネ,0
1378,6120901051264,新規,0,2025-08-04,2025-08-04,株式会社Ｐｒｅｃｉｏｕｓ　Ｔｈｒｅｅ,,株式会社,大阪府,豊中市,曽根東町３丁目２番６号,,27,203,5610802,,,,,,,2025-08-04,1,,,,,プレシャススリー,0
1379,6122001039479,新規,0,2025-08-04,2025-08-04,株式会社悠久,,株式会社,大阪府,東大阪市,川田２丁目３番２４号,,27,227,5780905,,,,,,,2025-08-04,1,,,,,ユウキュウ,0
1380,6122005003828,新規,0,2025-08-04,2025-08-04,特定非営利活動法人Ｙ‐ｃｏｌｏｒ,,その他の設立登記法人,大阪府,八尾市,山賀町１丁目２７番地１,,27,212,5810812,,,,,,,2025-08-04,1,,,,,ワイカラー,0
1396,6170001018738,新規,0,2025-08-04,2025-08-04,ヤナセＡＤＸホールディング株式会社,,株式会社,和歌山県,有田市,宮原町滝川原４３３,,30,204,6490435,,,,,,,2025-08-04,1,,,,,ヤナセエーディーエックスホールディング,0
1403,6180001167947,新規,0,2025-08-04,2025-08-04,株式会社ＴＥＡＬ　ＧＲＯＷ,,株式会社,愛知県,名古屋市中村区,長戸井町１丁目１１－１,,23,105,4530803,,,,,,,2025-08-04,1,,,,,ティールグロウ,0
1404,6180301040069,新規,0,2025-08-04,2025-08-04,株式会社ＪＭコクサイ,,株式会社,愛知県,西尾市,一色町中外沢上大割９２番地１,,23,213,4440428,,,,,,,2025-08-04,1,,,,,ジェイエムコクサイ,0
1405,6180301040077,新規,0,2025-08-04,2025-08-04,株式会社ａｔｅｌｉｅｒ　ｎｉｃｏ,,株式会社,愛知県,西尾市,吉良町友国前深１９番地３,,23,213,4440504,,,,,,,2025-08-04,1,,,,,アトリエニコ,0
1407,6180303006679,新規,0,2025-08-04,2025-08-04,ＯｗｎＰａｔｈ合同会社,,合同会社,愛知県,岡崎市,康生町５７８番地５２,,23,202,4440052,,,,,,,2025-08-04,1,,,,,オウンパス,0
1415,6220001026834,新規,0,2025-08-04,2025-08-04,株式会社一心,,株式会社,石川県,白山市,上二口町６番地,,17,210,9240828,,,,,,,2025-08-04,1,,,,,イッシン,0
1421,6250003003787,新規,0,2025-08-04,2025-08-04,イースクエア合同会社,,合同会社,山口県,下関市,竹崎町４丁目４－８,,35,201,7500025,,,,,,,2025-08-04,1,,,,,イースクエア,0
1423,6260003005279,新規,0,2025-08-04,2025-08-04,久本汽船合同会社,,合同会社,岡山県,備前市,日生町日生２４１番地の１１８,,33,211,7013204,,,,,,,2025-08-04,1,,,,,ヒサモトキセン,0
1429,6290801031754,新規,0,2025-08-04,2025-08-04,株式会社のぞみ,,株式会社,福岡県,北九州市小倉北区,原町２丁目３番４‐１４０３号,,40,106,8030815,,,,,,,2025-08-04,1,,,,,ノゾミ,0
1434,6310003005050,新規,0,2025-08-04,2025-08-04,合同会社アイシップ,,合同会社,長崎県,大村市,諏訪２丁目２０９番地,,42,205,8560024,,,,,,,2025-08-04,1,,,,,アイシップ,0
1439,6320003004729,新規,0,2025-08-04,2025-08-04,ひととひと合同会社,,合同会社,大分県,津久見市,徳浦宮町１２番５号,,44,207,8792473,,,,,,,2025-08-04,1,,,,,ヒトトヒト,0
1449,6370001052931,新規,0,2025-08-04,2025-08-04,株式会社カンテラ仙台,,株式会社,宮城県,仙台市青葉区,中央４丁目４－１９アーバンネット仙台中央ビル２Ｆ、ＹＵＩ　ＮＯＳ内,,04,101,9800021,,,,,,,2025-08-04,1,,,,,カンテラセンダイ,0
1450,6370003007215,新規,0,2025-08-04,2025-08-04,Ｃ‐Ｐａｋ　Ｊａｐａｎ合同会社,,合同会社,宮城県,多賀城市,高崎３丁目２１番１号シャーメゾンステージ多賀城２０５,,04,209,9850862,,,,,,,2025-08-04,1,,,,,シーパックジャパン,0
1455,6380003006109,新規,0,2025-08-04,2025-08-04,ケアノワ合同会社,,合同会社,福島県,河沼郡会津坂下町,大字羽林字西碇１８３,,07,421,9696572,,,,,,,2025-08-04,1,,,,,ケアノワ,0
1458,6410001014241,新規,0,2025-08-04,2025-08-04,株式会社ぬまだてハイツ,,株式会社,秋田県,大館市,沼館字藤蕪６９番地１,,05,204,0170057,,,,,,,2025-08-04,1,,,,,ヌマダテハイツ,0
1461,6430001094918,新規,0,2025-08-04,2025-08-04,株式会社察調,,株式会社,北海道,札幌市中央区,北二条西２丁目３２番地第３７桂和ビル５階,,01,101,0600002,,,,,,,2025-08-04,1,,,,,サッチョウ,0
1470,6480001012916,新規,0,2025-08-04,2025-08-04,株式会社ＰＩＮＺＯＲＯ,,株式会社,徳島県,徳島市,中洲町３丁目４８番地,,36,201,7700856,,,,,,,2025-08-04,1,,,,,ピンゾロ,0
1471,6490001011132,新規,0,2025-08-04,2025-08-04,建物サービス株式会社,,株式会社,高知県,高知市,春野町南ケ丘４丁目１０番地２シエルＥ,,39,201,7810314,,,,,,,2025-08-04,1,,,,,タテモノサービス,0
1472,6500001026450,新規,0,2025-08-04,2025-08-04,伯方シッピング株式会社,,株式会社,愛媛県,今治市,伯方町木浦甲８２９番地の内第１,,38,202,7942305,,,,,,,2025-08-04,1,,,,,ハカタシッピング,0
1473,6700150131626,新規,0,2025-08-04,2025-08-04,ＳＵＤＥＳＨ　ＰＲＯＤＵＣＴ　ＰＲＩＶＡＴＥ　ＬＩＭＩＴＥＤ,,外国会社等,三重県,津市,一志町大仰１０９２番地２Ｇ２－３,,24,201,5152524,スリランカ民主社会主義共和国、ヴァウニヤ、ママドゥワ、アグボプラＮｏ．０１,,,,,,2025-08-04,1,,,,,スデツシユプロダクトプライベートリミテツド,0
1483,7010003048178,新規,0,2025-08-04,2025-08-04,サステナブルローンファンド３５号合同会社,,合同会社,東京都,千代田区,九段南３丁目７番７号成和綜合会計事務所内,,13,101,1020074,,,,,,,2025-08-04,1,,,,,サステナブルローンファンドサンジュウゴゴウ,0
1485,7010005040463,新規,0,2025-08-04,2025-08-04,一般社団法人ジャパンインターネット産業コンプライアンス連盟,,その他の設立登記法人,東京都,千代田区,麹町２丁目４－１１麹町スクエアプラザ１１階,,13,101,1020083,,,,,,,2025-08-04,1,,,,,ジャパンインターネットサンギョウコンプライアンスレンメイ,0
1492,7010401192189,新規,0,2025-08-04,2025-08-04,ＪＡＰＡＮ　Ｅｖｅｒｍｏｒｅ　Ｆａｍｉｌｙ株式会社,,株式会社,東京都,港区,虎ノ門５丁目１３番１号虎ノ門４０ＭＴビル７Ｆ,,13,103,1050001,,,,,,,2025-08-04,1,,,,,ジャパンエバーモアーファミリー,0
1493,7010401192214,新規,0,2025-08-04,2025-08-04,株式会社ＮＡＧＩＤＡ,,株式会社,東京都,港区,南青山３丁目１番３６号青山丸竹ビル６階,,13,103,1070062,,,,,,,2025-08-04,1,,,,,ナギダ,0
1495,7010403035610,新規,0,2025-08-04,2025-08-04,ファーストフラッグ合同会社,,合同会社,東京都,港区,六本木６丁目２番７号,,13,103,1060032,,,,,,,2025-08-04,1,,,,,ファーストフラッグ,0
1498,7010901057858,新規,0,2025-08-04,2025-08-04,ＣＢ　ＴＯＫＹＯ株式会社,,株式会社,東京都,世田谷区,瀬田４丁目２１番５号Ａ棟,,13,112,1580095,,,,,,,2025-08-04,1,,,,,シービートウキョウ,0
1500,7010903010154,新規,0,2025-08-04,2025-08-04,合同会社サンハート,,合同会社,東京都,世田谷区,奥沢６丁目１番１６号２Ｂ,,13,112,1580083,,,,,,,2025-08-04,1,,,,,サンハート,0
1506,7011003022098,新規,0,2025-08-04,2025-08-04,コンツェルトハウス合同会社,,合同会社,東京都,渋谷区,大山町８番１７号,,13,113,1510065,,,,,,,2025-08-04,1,,,,,コンツェルトハウス,0
1508,7011401027293,新規,0,2025-08-04,2025-08-04,株式会社Ｔａｃｔ,,株式会社,東京都,板橋区,赤塚２丁目１０番１７号（買取大吉板橋赤塚店内）,,13,119,1750092,,,,,,,2025-08-04,1,,,,,タクト,0
1510,7011803006993,新規,0,2025-08-04,2025-08-04,ＡＪ　Ｄｅｓｉｇｎ合同会社,,合同会社,東京都,葛飾区,亀有３丁目１３番２号善一ビル６２０号室,,13,122,1250061,,,,,,,2025-08-04,1,,,,,エージェーデザイン,0
1514,7012803003808,新規,0,2025-08-04,2025-08-04,合同会社カイナミ,,合同会社,東京都,日野市,程久保３丁目１５番地の１,,13,212,1910042,,,,,,,2025-08-04,1,,,,,カイナミ,0
1526,7020001164166,新規,0,2025-08-04,2025-08-04,株式会社ＲＳＳ　ＳＯＬＵＴＩＯＮＳ,,株式会社,神奈川県,横浜市青葉区,みすずが丘１２番地１１,,14,117,2250016,,,,,,,2025-08-04,1,,,,,アールエスエスソリューションズ,0
1531,7020003028971,新規,0,2025-08-04,2025-08-04,合同会社マハロ,,合同会社,神奈川県,横浜市神奈川区,東神奈川１丁目９－８,,14,102,2210044,,,,,,,2025-08-04,1,,,,,マハロ,0
1532,7020003029045,新規,0,2025-08-04,2025-08-04,合同会社ネクレクス,,合同会社,神奈川県,川崎市多摩区,東三田３丁目１０－２－５１１,,14,135,2140033,,,,,,,2025-08-04,1,,,,,ネクレクス,0
1533,7020003029061,新規,0,2025-08-04,2025-08-04,合同会社ｔｈｒｅｅＡ,,合同会社,神奈川県,川崎市川崎区,大島３丁目３４番３号,,14,131,2100834,,,,,,,2025-08-04,1,,,,,スリーエー,0
1540,7030003027312,新規,0,2025-08-04,2025-08-04,ＭＣ合同会社,,合同会社,埼玉県,入間郡毛呂山町,若山１丁目４４－４レプロ毛呂山２０１室,,11,326,3500462,,,,,,,2025-08-04,1,,,,,エムシー,0
1549,7040001139901,新規,0,2025-08-04,2025-08-04,株式会社フォレリッシュ,,株式会社,千葉県,千葉市中央区,汐見丘町１８番２号,,12,101,2600034,,,,,,,2025-08-04,1,,,,,フォレリッシュ,0
1550,7040001139918,新規,0,2025-08-04,2025-08-04,株式会社Ｃａｒｉｂｅｌｌ,,株式会社,千葉県,柏市,東中新宿３丁目２５番３号,,12,217,2770061,,,,,,,2025-08-04,1,,,,,キャリベル,0
1556,7050001057012,新規,0,2025-08-04,2025-08-04,株式会社スマイルＫ,,株式会社,茨城県,ひたちなか市,東大島２丁目１７番１８号,,08,221,3120042,,,,,,,2025-08-04,1,,,,,スマイルケイ,0
1560,7050003009440,新規,0,2025-08-04,2025-08-04,合同会社ＳＥＫＩＴＯＢＡ,,合同会社,茨城県,小美玉市,幡谷３９２番地１,,08,236,3113424,,,,,,,2025-08-04,1,,,,,セキトバ,0
1561,7050003009473,新規,0,2025-08-04,2025-08-04,合同会社ｆａｍｉｇｌｉａ,,合同会社,茨城県,水戸市,双葉台４丁目５６２番地の１５,,08,201,3114145,,,,,,,2025-08-04,1,,,,,ファミリア,0
1562,7060001038440,新規,0,2025-08-04,2025-08-04,株式会社つむぎ,,株式会社,栃木県,鹿沼市,西茂呂４丁目４２番地６,,09,205,3220029,,,,,,,2025-08-04,1,,,,,ツムギ,0
1563,7060001038449,新規,0,2025-08-04,2025-08-04,天泉環考株式会社,,株式会社,栃木県,小山市,城山町３丁目６番２５号ＳＥＫＥＮ,,09,208,3230025,,,,,,,2025-08-04,1,,,,,テンセンカンコウ,0
1564,7060001038465,新規,0,2025-08-04,2025-08-04,株式会社ＴＡＭ,,株式会社,栃木県,宇都宮市,針ヶ谷町５０７番地１６,,09,201,3210147,,,,,,,2025-08-04,1,,,,,ティーエーエム,0
1570,7080001027061,新規,0,2025-08-04,2025-08-04,松岡カッター株式会社,,株式会社,静岡県,静岡市葵区,古庄２丁目１８番４６号,,22,101,4200812,,,,,,,2025-08-04,1,,,,,マツオカカッター,0
1572,7080101025691,新規,0,2025-08-04,2025-08-04,株式会社石渡林業,,株式会社,静岡県,伊豆市,持越６５７番地の１,,22,222,4103207,,,,,,,2025-08-04,1,,,,,イシワタリンギョウ,0
1591,7120001278393,新規,0,2025-08-04,2025-08-04,Ｏｎｅ株式会社,,株式会社,大阪府,大阪市西淀川区,佃１丁目１９番２号,,27,113,5550001,,,,,,,2025-08-04,1,,,,,ワン,0
1594,7120005025081,新規,0,2025-08-04,2025-08-04,ともにみらい協同組合,,その他の設立登記法人,大阪府,大阪市北区,堂島１丁目１番５号関電不動産梅田新道ビル,,27,127,5300003,,,,,,,2025-08-04,1,,,,,トモニミライ,0
1601,7130001080195,新規,0,2025-08-04,2025-08-04,Ｓｔａｒ’ｓ　Ａｒｋ株式会社,,株式会社,京都府,京都市下京区,七条通油小路東入大黒町２２７番地第２キョートビル４０２,,26,106,6008223,,,,,,,2025-08-04,1,,,,,スターズアーク,0
1602,7130003010638,新規,0,2025-08-04,2025-08-04,合同会社Ｈ＆Ｒ　Ｔｒａｎｓｐｏｒｔ　Ｓｅｒｖｉｃｅ,,合同会社,京都府,宇治市,菟道西中１０番地の１５,00140149,26,204,6110000,,,,,,,2025-08-04,1,,,,,エイチアンドアールトランスポートサービス,0
1606,7140001139552,新規,0,2025-08-04,2025-08-04,株式会社ボルティア,,株式会社,兵庫県,神戸市東灘区,本山北町５丁目１０－２８－１,,28,101,6580003,,,,,,,2025-08-04,1,,,,,ボルティア,0
1607,7140003022376,新規,0,2025-08-04,2025-08-04,結真合同会社,,合同会社,兵庫県,宝塚市,中山五月台２丁目８番１５号,,28,214,6650871,,,,,,,2025-08-04,1,,,,,ユマ,0
1608,7140005027571,新規,0,2025-08-04,2025-08-04,一般社団法人日本歯科啓発・推進機構,,その他の設立登記法人,兵庫県,西宮市,松園町５－２５Ｍｕ夙川１０１,,28,204,6620053,,,,,,,2025-08-04,1,,,,,ニホンシカケイハツスイシンキコウ,0
1610,7160001026955,新規,0,2025-08-04,2025-08-04,株式会社Ｈａｓｕｄａエンタープライズ,,株式会社,滋賀県,大津市,水明２丁目３３番地２７,,25,201,5200531,,,,,,,2025-08-04,1,,,,,ハスダエンタープライズ,0
1613,7170001018737,新規,0,2025-08-04,2025-08-04,大阪ミヤモト株式会社,,株式会社,和歌山県,橋本市,高野口町応其３２０－１,,30,203,6497201,,,,,,,2025-08-04,1,,,,,オオサカミヤモト,0
1618,7180001167780,新規,0,2025-08-04,2025-08-04,株式会社ウイングロー,,株式会社,愛知県,名古屋市昭和区,長池町５丁目６１番地の２,,23,107,4660847,,,,,,,2025-08-04,1,,,,,ウイングロー,0
1619,7180001167896,新規,0,2025-08-04,2025-08-04,株式会社ＧｉｖｅＣＯＮＮＥＣＴ,,株式会社,愛知県,名古屋市中村区,名駅３丁目４－１０アルティメイト名駅１ｓｔ２階,,23,105,4500002,,,,,,,2025-08-04,1,,,,,ギブコネクト,0
1620,7180001167970,新規,0,2025-08-04,2025-08-04,株式会社ノヴァロジ,,株式会社,愛知県,名古屋市中区,栄４丁目１５番２３号１４１１号室,,23,106,4600008,,,,,,,2025-08-04,1,,,,,ノヴァロジ,0
1621,7180001168003,新規,0,2025-08-04,2025-08-04,カンパニーズ・ホールディングス株式会社,,株式会社,愛知県,名古屋市東区,徳川１丁目９０１番地,,23,102,4610025,,,,,,,2025-08-04,1,,,,,カンパニーズホールディングス,0
1642,7220001026841,新規,0,2025-08-04,2025-08-04,ＫＥＮＴ企画株式会社,,株式会社,石川県,金沢市,増泉４丁目１番１０号プレミア増泉レジデンス５０８号,,17,201,9218025,,,,,,,2025-08-04,1,,,,,ケントキカク,0
1648,7270001009255,新規,0,2025-08-04,2025-08-04,株式会社ゼイン,,株式会社,鳥取県,鳥取市,湖山町南３丁目４１１番地５９,,31,201,6800945,,,,,,,2025-08-04,1,,,,,ゼイン,0
1649,7280001009477,新規,0,2025-08-04,2025-08-04,株式会社Ｌｕｄｉｑｕｅ,,株式会社,島根県,松江市,宍道町白石１７４５番地１０,,32,201,6990402,,,,,,,2025-08-04,1,,,,,ルディック,0
1653,7290001110903,新規,0,2025-08-04,2025-08-04,株式会社リスクラウド,,株式会社,福岡県,福岡市早良区,原５丁目９番１５－２０２号ファーネスト原ルシエ,,40,137,8140022,,,,,,,2025-08-04,1,,,,,リスクラウド,0
1656,7290003017171,新規,0,2025-08-04,2025-08-04,合同会社焼鳥の豪士,,合同会社,福岡県,福岡市博多区,店屋町３－５,,40,132,8120025,,,,,,,2025-08-04,1,,,,,,0
1657,7290003017196,新規,0,2025-08-04,2025-08-04,楠澤合同会社,,合同会社,福岡県,福岡市東区,香住ヶ丘２丁目８－１２ドムール香住ヶ丘５階５０５号室,,40,131,8130003,,,,,,,2025-08-04,1,,,,,ナンタク,0
1660,7300001014301,新規,0,2025-08-04,2025-08-04,Ｎ．Ｒ．Ｓ株式会社,,株式会社,佐賀県,唐津市,双水２６９０番地１８３,,41,202,8470001,,,,,,,2025-08-04,1,,,,,エヌアールエス,0
1663,7320001021254,新規,0,2025-08-04,2025-08-04,株式会社ワイエム大分,,株式会社,大分県,大分市,城南北１丁目３番２７号,,44,201,8700827,,,,,,,2025-08-04,1,,,,,ワイエムオオイタ,0
1674,7370003007230,新規,0,2025-08-04,2025-08-04,合同会社キタハラ,,合同会社,宮城県,仙台市太白区,柳生字北原３２番地,,04,104,9811106,,,,,,,2025-08-04,1,,,,,キタハラ,0
1678,7400003003515,新規,0,2025-08-04,2025-08-04,合同会社羽五重,,合同会社,岩手県,盛岡市,中央通１丁目７－３５コアフィールドモリオカ１階－３階,,03,201,0200021,,,,,,,2025-08-04,1,,,,,ハゴエ,0
1679,7410001014240,新規,0,2025-08-04,2025-08-04,株式会社いしごう商店,,株式会社,秋田県,大館市,御成町２丁目３番地３０号,,05,204,0170044,,,,,,,2025-08-04,1,,,,,イシゴウショウテン,0
1683,7430001094917,新規,0,2025-08-04,2025-08-04,株式会社Ｇ１ｓｔ,,株式会社,北海道,札幌市中央区,南五条西１５丁目２－３－５０３,,01,101,0640805,,,,,,,2025-08-04,1,,,,,ジーファースト,0
1684,7430001094982,新規,0,2025-08-04,2025-08-04,株式会社まごころコンサルタント,,株式会社,北海道,札幌市手稲区,富丘二条４丁目１２番１５号,,01,109,0060012,,,,,,,2025-08-04,1,,,,,マゴコロコンサルタント,0
1685,7430003017925,新規,0,2025-08-04,2025-08-04,合同会社ＬＢ．,,合同会社,北海道,札幌市中央区,南十条西１丁目１番地全国ビルニューオリンピア３１８,,01,101,0640810,,,,,,,2025-08-04,1,,,,,エルビー,0
1686,7430005015274,新規,0,2025-08-04,2025-08-04,一般社団法人コトチハ,,その他の設立登記法人,北海道,札幌市豊平区,月寒西一条１１丁目３番１０号,,01,105,0620021,,,,,,,2025-08-04,1,,,,,コトチハ,0
1688,7450001014690,新規,0,2025-08-04,2025-08-04,株式会社オーアールエス,,株式会社,北海道,上川郡剣淵町,東町２２４１番地２,,01,465,0980341,,,,,,,2025-08-04,1,,,,,オーアールエス,0
1689,7480001012915,新規,0,2025-08-04,2025-08-04,万楷商事株式会社,,株式会社,徳島県,鳴門市,撫養町小桑島字前浜１０６番地リベロビル２階２０２号室,,36,202,7720012,,,,,,,2025-08-04,1,,,,,マンカイショウジ,0
1690,7700150131625,新規,0,2025-08-04,2025-08-04,青島輝安電気有限公司,,外国会社等,東京都,品川区,北品川１丁目２０－４ライオンズマンション北品川第２・４０４号室,,13,109,1400001,中華人民共和国山東省青島市黄島区（原開発区武夷山路７号６０９号）,,,,,,2025-08-04,1,,,,,アオシマキアンデンキユウゲンコウシ,0
1701,8010001257267,新規,0,2025-08-04,2025-08-04,Ｓｏｕｌ　Ｍａｒｋ株式会社,,株式会社,東京都,中央区,勝どき１丁目３番１－３９１２号,,13,102,1040054,,,,,,,2025-08-04,1,,,,,ソウルマーク,0
1702,8010001257300,新規,0,2025-08-04,2025-08-04,シーザーテクノロジー株式会社,,株式会社,東京都,千代田区,神田神保町２丁目３４番１－２１６号室,,13,101,1010051,,,,,,,2025-08-04,1,,,,,シーザーテクノロジー,0
1703,8010001257382,新規,0,2025-08-04,2025-08-04,エメトレ・ホールディングス株式会社,,株式会社,東京都,中央区,日本橋久松町９番９号ＦＲＡＭＥ日本橋６階,,13,102,1030005,,,,,,,2025-08-04,1,,,,,エメトレホールディングス,0
1704,8010001257390,新規,0,2025-08-04,2025-08-04,株式会社ＭＹテック,,株式会社,東京都,中央区,日本橋人形町３丁目４番１５－２０１号,,13,102,1030013,,,,,,,2025-08-04,1,,,,,マイテック,0
1711,8010401192089,新規,0,2025-08-04,2025-08-04,千尋株式会社,,株式会社,東京都,港区,西新橋３丁目１４－５エラスムス虎ノ門３Ｆ,,13,103,1050003,,,,,,,2025-08-04,1,,,,,センジン,0
1712,8010401192246,新規,0,2025-08-04,2025-08-04,株式会社ネストブルー,,株式会社,東京都,港区,高輪２丁目２１番１号ＴＨＥ・ＬＩＮＫＰＩＬＬＡＲ１・ＮＯＲＴＨ６Ｆ,,13,103,1080074,,,,,,,2025-08-04,1,,,,,ネストブルー,0
1713,8010403035725,新規,0,2025-08-04,2025-08-04,合同会社Ｌａｕｇｈ　ｏｕｔ,,合同会社,東京都,港区,南青山６丁目８－２－１２０３,,13,103,1070062,,,,,,,2025-08-04,1,,,,,ラフアウト,0
1716,8010701048098,新規,0,2025-08-04,2025-08-04,株式会社エンリ,,株式会社,東京都,品川区,北品川６丁目５番８号プライムメゾン御殿山ＷＥＳＴ４０３,,13,109,1410001,,,,,,,2025-08-04,1,,,,,エンリ,0
1724,8011001171152,新規,0,2025-08-04,2025-08-04,株式会社ＬＡ　ｉｎｎｏｖａｔｉｏｎ,,株式会社,東京都,渋谷区,道玄坂１丁目１０番８号,,13,113,1500043,,,,,,,2025-08-04,1,,,,,エルエーイノベーション,0
1734,8011203004779,新規,0,2025-08-04,2025-08-04,９３Ｆ１合同会社,,合同会社,東京都,中野区,東中野４丁目２－１６ハピネス豊倉２０３,,13,114,1640003,,,,,,,2025-08-04,1,,,,,キューサンエフイチ,0
1743,8011801046512,新規,0,2025-08-04,2025-08-04,ＣＨＥ商事株式会社,,株式会社,東京都,葛飾区,堀切７丁目２７番７号名橋ビル３０３号室,,13,122,1240006,,,,,,,2025-08-04,1,,,,,シーエイチイーショウジ,0
1746,8012403007266,新規,0,2025-08-04,2025-08-04,ペガサス合同会社,,合同会社,東京都,武蔵野市,関前３丁目２２－１０プレザントヒルズ４０６号,,13,203,1800014,,,,,,,2025-08-04,1,,,,,ペガサス,0
1752,8013103001476,新規,0,2025-08-04,2025-08-04,カイノスイノベーター合同会社,,合同会社,東京都,羽村市,小作台４丁目６番地１７,,13,227,2050001,,,,,,,2025-08-04,1,,,,,カイノスイノベーター,0
1755,8013301054697,新規,0,2025-08-04,2025-08-04,ＶＥＲＩＴＡＳ株式会社,,株式会社,東京都,豊島区,高田３丁目７番１７号安斎ビル２１０号室,,13,116,1710033,,,,,,,2025-08-04,1,,,,,ヴェリタス,0
1764,8020001164149,新規,0,2025-08-04,2025-08-04,株式会社エムジェイハピネス,,株式会社,神奈川県,横浜市磯子区,久木町２２番１５号,,14,107,2350015,,,,,,,2025-08-04,1,,,,,エムジェイハピネス,0
1769,8020003029069,新規,0,2025-08-04,2025-08-04,ＹＫＨＭプロパティ合同会社,,合同会社,神奈川県,横浜市中区,山手町２４９番地２グランドメゾンＴｈｅ山手２４９－３０２号室,,14,104,2310862,,,,,,,2025-08-04,1,,,,,ワイケーエイチエムプロパティ,0
1777,8030001167910,新規,0,2025-08-04,2025-08-04,江松株式会社,,株式会社,埼玉県,さいたま市大宮区,堀の内町１丁目５３７番地７,,11,103,3300804,,,,,,,2025-08-04,1,,,,,エマツ,0
1778,8030001167927,新規,0,2025-08-04,2025-08-04,株式会社ＢＢＬ,,株式会社,埼玉県,所沢市,大字南永井１０５０番地の８,,11,208,3590011,,,,,,,2025-08-04,1,,,,,ビービーエル,0
1779,8030001167935,新規,0,2025-08-04,2025-08-04,株式会社発酵食品の館,,株式会社,埼玉県,本庄市,東台２丁目３番１号ＫＲＳ本庄ビル１階,,11,211,3670021,,,,,,,2025-08-04,1,,,,,ハッコウショクヒンノヤカタ,0
1780,8030001168033,新規,0,2025-08-04,2025-08-04,株式会社一華,,株式会社,埼玉県,ふじみ野市,大井中央２丁目１番３６―２０２号,,11,245,3560058,,,,,,,2025-08-04,1,,,,,イッカ,0
1788,8040001139925,新規,0,2025-08-04,2025-08-04,株式会社オーエスキャピタル,,株式会社,千葉県,四街道市,めいわ３丁目１４番４号,,12,228,2840043,,,,,,,2025-08-04,1,,,,,オーエスキャピタル,0
1792,8050001057011,新規,0,2025-08-04,2025-08-04,ビリーフ株式会社,,株式会社,茨城県,小美玉市,飯前１３７６番地６４,,08,236,3113404,,,,,,,2025-08-04,1,,,,,ビリーフ,0
1793,8050003009472,新規,0,2025-08-04,2025-08-04,ＪＲＲ　ＭＯＴＯＲＳ　ＴＲＡＤＩＮＧ合同会社,,合同会社,茨城県,下妻市,高道祖６０番地６８,,08,210,3040031,,,,,,,2025-08-04,1,,,,,ジアルアルモーターズトレーディング,0
1794,8060001038448,新規,0,2025-08-04,2025-08-04,神塩原源泉開発株式会社,,株式会社,栃木県,那須塩原市,上塩原１０８５,,09,213,3292923,,,,,,,2025-08-04,1,,,,,カミシオバラゲンセンカイハツ,0
1796,8070001043199,新規,0,2025-08-04,2025-08-04,株式会社フクリオ,,株式会社,群馬県,太田市,飯田町９１６番地三光ビル２０１,,10,205,3730851,,,,,,,2025-08-04,1,,,,,フクリオ,0
1799,8080001027069,新規,0,2025-08-04,2025-08-04,株式会社アテップ,,株式会社,静岡県,静岡市駿河区,丸子３丁目７番１号小川ハイツ１Ａ,,22,102,4210103,,,,,,,2025-08-04,1,,,,,アテップ,0
1807,8100003008320,新規,0,2025-08-04,2025-08-04,合同会社クロノイノベーション,,合同会社,長野県,佐久市,佐久平駅南１０永存第１ビルＣ,,20,217,3850029,,,,,,,2025-08-04,1,,,,,クロノイノベーション,0
1818,8120001278450,新規,0,2025-08-04,2025-08-04,株式会社空間Ｌａｂ,,株式会社,大阪府,大阪市中央区,平野町２丁目３番７アーバンエース北浜ビル１階,,27,128,5410046,,,,,,,2025-08-04,1,,,,,クウカンラボ,0
1822,8120003030165,新規,0,2025-08-04,2025-08-04,合同会社ウェルフェア野里ケアーセンター,,合同会社,大阪府,大阪市西淀川区,花川２丁目１６番１８号,,27,113,5550023,,,,,,,2025-08-04,1,,,,,ウェルフェアノザトケアーセンター,0
1825,8122001039477,新規,0,2025-08-04,2025-08-04,株式会社オルソ・ネロ,,株式会社,大阪府,東大阪市,角田１丁目５番３号,,27,227,5780912,,,,,,,2025-08-04,1,,,,,オルソネロ,0
1836,8140003022367,新規,0,2025-08-04,2025-08-04,合同会社Ｚｅｎｉｔｈ,,合同会社,兵庫県,川辺郡猪名川町,若葉１丁目５０番地５６,,28,301,6660251,,,,,,,2025-08-04,1,,,,,ゼニス,0
1837,8150003003671,新規,0,2025-08-04,2025-08-04,合同会社ライフエール,,合同会社,奈良県,磯城郡田原本町,大字千代８１８番地の１スミヨシ住宅１０号館３０２号室,,29,363,6360246,,,,,,,2025-08-04,1,,,,,ライフエール,0
1838,8160001026946,新規,0,2025-08-04,2025-08-04,五感生活株式会社,,株式会社,滋賀県,大津市,打出浜２番１号コラボしが２１　４階４２３号室,,25,201,5200806,,,,,,,2025-08-04,1,,,,,ゴカンセイカツ,0
1842,8180001167953,新規,0,2025-08-04,2025-08-04,株式会社ｎｅｗｎｏａ,,株式会社,愛知県,名古屋市緑区,鳴海町字下汐田１６７－１,,23,114,4580801,,,,,,,2025-08-04,1,,,,,ニューノア,0
1843,8180001168002,新規,0,2025-08-04,2025-08-04,株式会社大福,,株式会社,愛知県,名古屋市名東区,社台２丁目１７８番地,,23,115,4650092,,,,,,,2025-08-04,1,,,,,ダイフク,0
1844,8180001168019,新規,0,2025-08-04,2025-08-04,株式会社ココロ,,株式会社,愛知県,名古屋市天白区,福池２丁目３７０番地,,23,116,4680049,,,,,,,2025-08-04,1,,,,,ココロ,0
1848,8180003028823,新規,0,2025-08-04,2025-08-04,合同会社ＱＯＤ向上委員会,,合同会社,愛知県,知多市,南巽が丘１丁目７２番地,,23,224,4780013,,,,,,,2025-08-04,1,,,,,キューオーディーコウジョウイインカイ,0
1849,8180003028831,新規,0,2025-08-04,2025-08-04,Ｋテック合同会社,,合同会社,愛知県,一宮市,伝法寺１丁目９番地１２,,23,203,4910828,,,,,,,2025-08-04,1,,,,,ケーテック,0
1851,8180301040042,新規,0,2025-08-04,2025-08-04,株式会社Ｋｅｙ　ｎｅｓｓ,,株式会社,愛知県,西尾市,熊味町大道南８６－１Ｊｏｕｅｒ　Ｖｉｌｌａ　Ｂｏｎｈｅｕｒ１０１号室,,23,213,4450071,,,,,,,2025-08-04,1,,,,,キーネス,0
1852,8180301040075,新規,0,2025-08-04,2025-08-04,株式会社ＭＡＮＯＭＡＮＯ,,株式会社,愛知県,高浜市,呉竹町４丁目１４番地１５,,23,227,4441336,,,,,,,2025-08-04,1,,,,,マノマノ,0
1853,8180303006677,新規,0,2025-08-04,2025-08-04,合同会社ダックス,,合同会社,愛知県,豊橋市,北島町字北島１１０番地の７,,23,201,4400071,,,,,,,2025-08-04,1,,,,,ダックス,0
1858,8200001044101,新規,0,2025-08-04,2025-08-04,株式会社井上会,,株式会社,岐阜県,高山市,江名子町２７１５番地１１,,21,203,5060818,,,,,,,2025-08-04,1,,,,,イノウエカイ,0
1862,8220001026840,新規,0,2025-08-04,2025-08-04,大商エステート株式会社,,株式会社,石川県,金沢市,入江２丁目４０２番地,,17,201,9218011,,,,,,,2025-08-04,1,,,,,ダイショウエステート,0
1866,8230001021023,新規,0,2025-08-04,2025-08-04,株式会社コロポ,,株式会社,富山県,中新川郡立山町,利田１９９２番地,,16,323,9300275,,,,,,,2025-08-04,1,,,,,コロポ,0
1872,8260001040417,新規,0,2025-08-04,2025-08-04,株式会社ミライノサチ,,株式会社,岡山県,岡山市南区,福富東１丁目７番１３号クレアフォートＩＩ２０３号室,00140152,33,104,7028033,,,,,,,2025-08-04,1,,,,,ミライノサチ,0
1875,8260003005285,新規,0,2025-08-04,2025-08-04,合同会社ＦＲ　ＴＥＣ,,合同会社,岡山県,岡山市北区,東島田町１丁目７番１１号,,33,101,7000983,,,,,,,2025-08-04,1,,,,,エフアールテック,0
1876,8270001009254,新規,0,2025-08-04,2025-08-04,株式会社ＮＡＸ,,株式会社,鳥取県,八頭郡八頭町,三浦１１番地,,31,329,6800536,,,,,,,2025-08-04,1,,,,,ナエックス,0
1879,8280005007666,新規,0,2025-08-04,2025-08-04,一般社団法人島根県水道工事業者連合会,,その他の設立登記法人,島根県,松江市,学園南２丁目２０番８号,,32,201,6900826,,,,,,,2025-08-04,1,,,,,シマネケンスイドウコウジギョウシャレンゴウカイ,0
1886,8290001110910,新規,0,2025-08-04,2025-08-04,株式会社Ｚｅｒｏ１,,株式会社,福岡県,筑後市,大字蔵数２９８番地２,,40,211,8330054,,,,,,,2025-08-04,1,,,,,ゼロワン,0
1897,8340003004915,新規,0,2025-08-04,2025-08-04,合同会社Ｋａｎｏｎ,,合同会社,鹿児島県,鹿児島市,皇徳寺台４丁目２１番１１号,,46,201,8910103,,,,,,,2025-08-04,1,,,,,カノン,0
1903,8380001035495,新規,0,2025-08-04,2025-08-04,株式会社パズル,,株式会社,福島県,郡山市,新屋敷１丁目８６番地Ｋ’ｓＨＯＵＳＥ２０２号,,07,203,9638045,,,,,,,2025-08-04,1,,,,,パズル,0
1910,8430001095014,新規,0,2025-08-04,2025-08-04,株式会社エーエス・オーピー,,株式会社,北海道,恵庭市,北柏木町２丁目１３番９号,,01,231,0611433,,,,,,,2025-08-04,1,,,,,エーエスオーピー,0
1911,8430003017924,新規,0,2025-08-04,2025-08-04,ＮｏｒｔｈＣｒｅｗ　Ｗｏｒｋｓ合同会社,,合同会社,北海道,苫小牧市,大町１丁目４番１６号,,01,213,0530024,,,,,,,2025-08-04,1,,,,,ノースクルーワークス,0
1912,8430003017965,新規,0,2025-08-04,2025-08-04,合同会社わたなべ商事,,合同会社,北海道,札幌市中央区,南五条西１５丁目２番３　５０３号,,01,101,0640805,,,,,,,2025-08-04,1,,,,,ワタナベショウジ,0
1919,8450003002701,新規,0,2025-08-04,2025-08-04,合同会社ドラゴンズゲート,,合同会社,北海道,雨竜郡妹背牛町,字妹背牛３６８番の９,,01,433,0790500,,,,,,,2025-08-04,1,,,,,ドラゴンズゲート,0
1922,8470003002947,新規,0,2025-08-04,2025-08-04,合同会社Ｙｏｒｉｄｏｋｏｒｏ,,合同会社,香川県,木田郡三木町,大字鹿伏３８８番地,,37,341,7610703,,,,,,,2025-08-04,1,,,,,ヨリドコロ,0
1925,8500001026449,新規,0,2025-08-04,2025-08-04,株式会社すし丸,,株式会社,愛媛県,松山市,二番町２丁目３番地２,,38,201,7900002,,,,,,,2025-08-04,1,,,,,スシマル,0
1933,9010001257167,新規,0,2025-08-04,2025-08-04,株式会社レオ,,株式会社,東京都,文京区,関口１丁目１９番５号弥助ビル別館３階,,13,105,1120014,,,,,,,2025-08-04,1,,,,,レオ,0
1934,9010001257332,新規,0,2025-08-04,2025-08-04,Ｃｈａｔｔｅｒｂｏｘ　Ｊａｐａｎ株式会社,,株式会社,東京都,中央区,京橋２丁目７番８号,,13,102,1040031,,,,,,,2025-08-04,1,,,,,チャターボックスジャパン,0
1936,9010003048218,新規,0,2025-08-04,2025-08-04,奥野希望合同会社,,合同会社,東京都,千代田区,神田須田町１丁目７番８号ＶＯＲＴ秋葉原４、２Ｆ,,13,101,1010041,,,,,,,2025-08-04,1,,,,,オクノキボウ,0
1951,9010401192071,新規,0,2025-08-04,2025-08-04,ＬＡＭＩＥ　ＪＡＰＡＮ株式会社,,株式会社,東京都,港区,北青山１丁目３番３号三橋ビル３階,,13,103,1070061,,,,,,,2025-08-04,1,,,,,ラミエジャパン,0
1952,9010401192162,新規,0,2025-08-04,2025-08-04,ＩｔｓＭｅ株式会社,,株式会社,東京都,港区,三田３丁目２番１号弓和三田ビジデンス８０５号室,,13,103,1080073,,,,,,,2025-08-04,1,,,,,イッツミー,0
1953,9010401192195,新規,0,2025-08-04,2025-08-04,株式会社Ｄｉｇｉｔａｌ　Ｂｏｏｋ　Ｊａｐａｎ,,株式会社,東京都,港区,赤坂９丁目６番２８号アルベルゴ乃木坂９０５,,13,103,1070052,,,,,,,2025-08-04,1,,,,,デジタルブックジャパン,0
1957,9010605004485,新規,0,2025-08-04,2025-08-04,一般社団法人モンゴル語医療・高度通訳協会,,その他の設立登記法人,東京都,江東区,門前仲町１丁目１５番３号,,13,108,1350048,,,,,,,2025-08-04,1,,,,,モンゴルゴイリョウコウドツウヤクキョウカイ,0
1960,9010803005491,新規,0,2025-08-04,2025-08-04,合同会社ＴＯＫＩＴＯＫＵ,,合同会社,東京都,大田区,多摩川２丁目１６番１－１００４号,,13,111,1460095,,,,,,,2025-08-04,1,,,,,トキトク,0
1962,9010901057823,新規,0,2025-08-04,2025-08-04,株式会社ニブンノイチ,,株式会社,東京都,世田谷区,太子堂４丁目６番２０号アレーロ三軒茶屋,,13,112,1540004,,,,,,,2025-08-04,1,,,,,ニブンノイチ,0
1966,9010903010152,新規,0,2025-08-04,2025-08-04,合同会社ここのえ,,合同会社,東京都,世田谷区,粕谷４丁目１２番６号,,13,112,1570063,,,,,,,2025-08-04,1,,,,,ココノエ,0
1969,9011001171151,新規,0,2025-08-04,2025-08-04,株式会社ＭＬ＆Ｇ,,株式会社,東京都,渋谷区,道玄坂１丁目１０番８号渋谷道玄坂東急ビル２Ｆ－Ｃ,,13,113,1500043,,,,,,,2025-08-04,1,,,,,エムエルアンドジー,0
1972,9011101112377,新規,0,2025-08-04,2025-08-04,株式会社ココネージュ,,株式会社,東京都,新宿区,新宿２丁目８番８号ヒューリック新宿御苑ビル８階,,13,104,1600022,,,,,,,2025-08-04,1,,,,,ココネージュ,0
1982,9012301014487,新規,0,2025-08-04,2025-08-04,株式会社クレア,,株式会社,東京都,町田市,山崎町８１３‐２９,,13,209,1950074,,,,,,,2025-08-04,1,,,,,クレア,0
1984,9012705002468,新規,0,2025-08-04,2025-08-04,一般社団法人ノーディス,,その他の設立登記法人,東京都,小平市,小川東町１丁目１８番２７パルナス小川３０１号,,13,211,1870031,,,,,,,2025-08-04,1,,,,,ノーディス,0
1986,9013103001475,新規,0,2025-08-04,2025-08-04,さとやまハンズ合同会社,,合同会社,東京都,西多摩郡檜原村,小沢４０６３,,13,307,1900204,,,,,,,2025-08-04,1,,,,,サトヤマハンズ,0
1996,9020001164024,新規,0,2025-08-04,2025-08-04,ａｂｃ株式会社,,株式会社,神奈川県,川崎市中原区,上小田中１丁目１５番７－１号,,14,133,2110053,,,,,,,2025-08-04,1,,,,,エービーシー,0
1997,9020001164115,新規,0,2025-08-04,2025-08-04,Ｂｉｔｏｋｕ株式会社,,株式会社,神奈川県,横浜市中区,石川町１丁目１３番地２号エネクル横浜元町テラス,,14,104,2310868,,,,,,,2025-08-04,1,,,,,ビトク,0
1998,9020001164164,新規,0,2025-08-04,2025-08-04,株式会社ＫＡＷＡＤＡＩ　ＯＮＥ　ＰＣＴ,,株式会社,神奈川県,横浜市泉区,中田東２丁目１４番２３－２号ミリオンＣ２０５号,,14,116,2450013,,,,,,,2025-08-04,1,,,,,カワダイワンパーセント,0
2001,9020003028986,新規,0,2025-08-04,2025-08-04,合同会社Ａｋａｌａ,,合同会社,神奈川県,横浜市鶴見区,矢向１丁目２０番４０－７０４号,,14,101,2300001,,,,,,,2025-08-04,1,,,,,アカラ,0
2002,9020003029027,新規,0,2025-08-04,2025-08-04,合同会社オルネヴィア,,合同会社,神奈川県,横浜市神奈川区,栄町２－１キコー横浜ビル７０９,,14,102,2210052,,,,,,,2025-08-04,1,,,,,オルネヴィア,0
2004,9021001085961,新規,0,2025-08-04,2025-08-04,楽億包装株式会社,,株式会社,神奈川県,大和市,草柳１丁目１９番地９田園リビングマート１１号室,,14,213,2420026,,,,,,,2025-08-04,1,,,,,ラクオクホウソウ,0
2011,9030001167934,新規,0,2025-08-04,2025-08-04,株式会社ＳＶＴ‐３,,株式会社,埼玉県,さいたま市大宮区,吉敷町１丁目１３５番地Ａｒａｉビル８階,,11,103,3300843,,,,,,,2025-08-04,1,,,,,エスブイティースリー,0
2012,9030001167950,新規,0,2025-08-04,2025-08-04,ＴＩＭＥカンパニー株式会社,,株式会社,埼玉県,川口市,並木元町１番６７－１４０６号,,11,203,3320033,,,,,,,2025-08-04,1,,,,,タイムカンパニー,0
2013,9030001167959,新規,0,2025-08-04,2025-08-04,小池商事株式会社,,株式会社,埼玉県,さいたま市岩槻区,大字慈恩寺１１５－９,,11,110,3390009,,,,,,,2025-08-04,1,,,,,コイケショウジ,0
2014,9030001168032,新規,0,2025-08-04,2025-08-04,株式会社エースマイル,,株式会社,埼玉県,さいたま市浦和区,本太２丁目２７番２号,,11,107,3300052,,,,,,,2025-08-04,1,,,,,エースマイル,0
2018,9030003027302,新規,0,2025-08-04,2025-08-04,合同会社ＫＩＲＥＩＹＡ,,合同会社,埼玉県,富士見市,上沢３丁目２番５０号・ＬｉｅｎかみさわＩ・２０１,00140146,11,235,3540034,,,,,,,2025-08-04,1,,,,,キレイヤ,0
2029,9050001057010,新規,0,2025-08-04,2025-08-04,株式会社源六,,株式会社,茨城県,稲敷郡河内町,生板５１４４番地,,08,447,3001331,,,,,,,2025-08-04,1,,,,,ゲンロク,0
2030,9050001057019,新規,0,2025-08-04,2025-08-04,株式会社ＦＩＴＮＥＡＲ,,株式会社,茨城県,つくば市,春日２丁目３３番地４ハッピーカンパニービル４０１,,08,220,3050821,,,,,,,2025-08-04,1,,,,,フィットニア,0
2032,9050003009471,新規,0,2025-08-04,2025-08-04,合同会社ＭＳ企画,,合同会社,茨城県,石岡市,根当１１０１２番地５,,08,205,3150029,,,,,,,2025-08-04,1,,,,,エムエスキカク,0
2039,9080401028070,新規,0,2025-08-04,2025-08-04,株式会社ＡＣＣサービス,,株式会社,静岡県,磐田市,東新町３丁目１０番２号,,22,211,4380039,,,,,,,2025-08-04,1,,,,,エーシーシーサービス,0
2040,9080401028079,新規,0,2025-08-04,2025-08-04,株式会社伊藤縁,,株式会社,静岡県,浜松市中央区,鴨江４丁目１１‐３０プラージュ鴨江２０５,,22,138,4328023,,,,,,,2025-08-04,1,,,,,イトウエン,0
2041,9080401028087,新規,0,2025-08-04,2025-08-04,株式会社ｅＣＥＬ,,株式会社,静岡県,浜松市中央区,鍛冶町１４０番地の４浜松Ａビル北館６Ｆ,,22,138,4300933,,,,,,,2025-08-04,1,,,,,イーセル,0
2042,9080403005324,新規,0,2025-08-04,2025-08-04,合同会社ｍａｃｏ,,合同会社,静岡県,袋井市,久能２９５５―１５,,22,216,4370061,,,,,,,2025-08-04,1,,,,,マコ,0
2063,9120001278441,新規,0,2025-08-04,2025-08-04,昌盛株式会社,,株式会社,大阪府,大阪市住吉区,南住吉１丁目１０番２３号１階,,27,120,5580041,,,,,,,2025-08-04,1,,,,,マサモリ,0
2080,9120903005802,新規,0,2025-08-04,2025-08-04,合同会社ふうわ,,合同会社,大阪府,豊中市,北緑丘２丁目１番９―１０１号,,27,203,5600001,,,,,,,2025-08-04,1,,,,,フウワ,0
2081,9130001080202,新規,0,2025-08-04,2025-08-04,株式会社哉優,,株式会社,京都府,京都市右京区,太秦川所町７番地１６,,26,108,6168143,,,,,,,2025-08-04,1,,,,,カナユウ,0
2092,9140001139550,新規,0,2025-08-04,2025-08-04,株式会社Ｒｅピート,,株式会社,兵庫県,尼崎市,立花町２丁目２０－１９シャーメゾン立花１０２,,28,202,6610025,,,,,,,2025-08-04,1,,,,,リピート,0
2109,9180001167894,新規,0,2025-08-04,2025-08-04,株式会社ＳＴＥＬＬＩＡ,,株式会社,愛知県,海部郡蟹江町,城３丁目４１７番地,,23,425,4970040,,,,,,,2025-08-04,1,,,,,ステリア,0
2110,9180001167985,新規,0,2025-08-04,2025-08-04,株式会社Ｇｒａｎｄ　Ｂｏｕｑｕｅｔ,,株式会社,愛知県,名古屋市中村区,名駅４丁目２４番５号第２森ビル４０１,,23,105,4500002,,,,,,,2025-08-04,1,,,,,グランブーケ,0
2111,9180001167993,新規,0,2025-08-04,2025-08-04,株式会社Ａｌｔｅｒｒａ,,株式会社,愛知県,名古屋市中村区,太閤１丁目７番２２号,,23,105,4530801,,,,,,,2025-08-04,1,,,,,アルテラ,0
2112,9180001168018,新規,0,2025-08-04,2025-08-04,瀬戸川企画株式会社,,株式会社,愛知県,瀬戸市,水南町４８番地の１,,23,204,4890913,,,,,,,2025-08-04,1,,,,,セトガワキカク,0
2116,9180003028830,新規,0,2025-08-04,2025-08-04,合同会社アレスト,,合同会社,愛知県,名古屋市昭和区,白金２丁目３番５号,,23,107,4660058,,,,,,,2025-08-04,1,,,,,アレスト,0
2123,9200001044100,新規,0,2025-08-04,2025-08-04,株式会社すすむ,,株式会社,岐阜県,土岐市,鶴里町柿野２３２２番地の６０,,21,212,5095312,,,,,,,2025-08-04,1,,,,,ススム,0
2125,9200005013786,新規,0,2025-08-04,2025-08-04,一般社団法人黒野農園イベント広場,,その他の設立登記法人,岐阜県,岐阜市,曽我屋３丁目１４０番地２,,21,201,5010101,,,,,,,2025-08-04,1,,,,,クロノノウエンイベントヒロバ,0
2144,9290001110901,新規,0,2025-08-04,2025-08-04,高橋金属株式会社,,株式会社,福岡県,柳川市,三橋町白鳥４７８番地１,,40,207,8320815,,,,,,,2025-08-04,1,,,,,タカハシキンゾク,0
2145,9290003017161,新規,0,2025-08-04,2025-08-04,ＳｕｎＲｉｓｅＷａｖｅ合同会社,,合同会社,福岡県,福岡市博多区,博多駅南３丁目２１番９－１２０４号,,40,132,8120016,,,,,,,2025-08-04,1,,,,,サンライズウェイブ,0
2146,9290003017186,新規,0,2025-08-04,2025-08-04,ＴＩＭ合同会社,,合同会社,福岡県,福岡市西区,内浜２丁目３２－２リヴァテラス姪浜３号,,40,135,8190005,,,,,,,2025-08-04,1,,,,,ティーアイエム,0
2148,9290801031751,新規,0,2025-08-04,2025-08-04,株式会社辰光建設,,株式会社,福岡県,北九州市小倉南区,横代南町２丁目１番４号,,40,107,8020826,,,,,,,2025-08-04,1,,,,,シンコウケンセツ,0
2152,9320001021244,新規,0,2025-08-04,2025-08-04,横松塗建株式会社,,株式会社,大分県,中津市,大字蛎瀬１１７５番地１,,44,203,8710007,,,,,,,2025-08-04,1,,,,,ヨコマツトケン,0
2157,9340001027561,新規,0,2025-08-04,2025-08-04,株式会社田中屋精肉店,,株式会社,鹿児島県,姶良市,加治木町本町３８５番地,,46,225,8995215,,,,,,,2025-08-04,1,,,,,タナカヤセイニクテン,0
2158,9340005009894,新規,0,2025-08-04,2025-08-04,ＮｅｘｔＬｉｎｋｓ行政書士法人,,その他の設立登記法人,鹿児島県,曽於市,末吉町諏訪方８３５８番地３,,46,217,8998604,,,,,,,2025-08-04,1,,,,,ネクストリンクス,0
2169,9380003006106,新規,0,2025-08-04,2025-08-04,エリシア合同会社,,合同会社,福島県,西白河郡西郷村,大字小田倉字原中６４番地２,,07,461,9618061,,,,,,,2025-08-04,1,,,,,エリシア,0
2179,9430001094923,新規,0,2025-08-04,2025-08-04,食品ＩＣＴ株式会社,,株式会社,北海道,札幌市手稲区,曙二条４丁目４番２５号,,01,109,0060832,,,,,,,2025-08-04,1,,,,,ショクヒンアイシーティ,0
2180,9430001094931,新規,0,2025-08-04,2025-08-04,アンダマン投資株式会社,,株式会社,北海道,札幌市中央区,宮の森四条１３丁目２番７号,,01,101,0640954,,,,,,,2025-08-04,1,,,,,アンダマントウシ,0
2187,9470003002946,新規,0,2025-08-04,2025-08-04,合同会社いろは刺繍,,合同会社,香川県,仲多度郡琴平町,五條３２７番地,,37,403,7660003,,,,,,,2025-08-04,1,,,,,イロハシシュウ,0
2192,9480003002301,新規,0,2025-08-04,2025-08-04,合同会社ＭＯＴ,,合同会社,徳島県,徳島市,元町１丁目２４番地,,36,201,7700834,,,,,,,2025-08-04,1,,,,,モト,0
