sequenceNumber,corporateNumber,process,correct,updateDate,changeDate,name,nameImageId,kind,prefectureName,cityName,streetNumber,addressImageId,prefectureCode,cityCode,postCode,addressOutside,addressOutsideImageId,closeDate,closeCause,successorCorporateNumber,changeCause,assignmentDate,latest,enName,enPrefectureName,enCityName,enAddressOutside,furigana,hihyoji
9,1010001223366,登記記録の閉鎖等,0,2024-07-09,2024-07-01,コスモジャパン株式会社,,株式会社,東京都,杉並区,和田３丁目３番１６号,,13,115,1660012,,,2024-07-01,清算の結了等,,,2021-12-21,1,,,,,コスモジャパン,0
14,1010002052905,登記記録の閉鎖等,0,2024-07-09,2024-06-18,ＡＴＴＡ有限会社,,有限会社,東京都,港区,南青山１丁目１０番２号,,13,103,1070062,,,2024-06-18,合併による解散等,2010401123280,令和６年４月１日東京都港区芝浦三丁目１１－９武藤ビル５階ＤＩＡＦ株式会社（2010401123280）に合併し解散,2015-10-05,1,,,,,エーティーティーエー,0
15,1010003034175,登記記録の閉鎖等,0,2024-07-09,2024-06-28,合同会社ＡＬＥＲＯ５８,,合同会社,東京都,千代田区,神田錦町１丁目２１番１号,,13,101,1010054,,,2024-06-28,清算の結了等,,,2021-02-12,1,,,,,アレーロフィフティーエイト,0
19,1010101007917,登記記録の閉鎖等,0,2024-07-09,2024-07-08,ＭＤＭ株式会社,,株式会社,東京都,八王子市,東浅川町５４６番地１９八王子サニーハイツ５０２号,,13,201,1930834,,,2024-07-08,清算の結了等,,,2015-10-05,1,,,,,エムディエム,0
23,1010401135013,登記記録の閉鎖等,0,2024-07-09,2024-06-26,株式会社ＩＰ　Ｗｏｒｋｓ,,株式会社,東京都,港区,西麻布１丁目１５番７号,,13,103,1060031,,,2024-06-26,清算の結了等,,,2017-11-16,1,,,,,アイピーワークス,0
29,1010701034435,登記記録の閉鎖等,0,2024-07-09,2024-07-01,ＰＧＧ株式会社,,株式会社,東京都,品川区,東中延２丁目７－１３アミティエ中延１階,,13,109,1420052,,,2024-07-01,合併による解散等,2010701026836,令和６年７月１日東京都品川区東中延２－７－１３アミティエ中延１階株式会社ＬＩＭＯ（2010701026836）に合併し解散,2017-07-14,1,,,,,ピージージー,0
61,1011602010293,登記記録の閉鎖等,0,2024-07-09,2024-07-02,有限会社山野プランニング,,有限会社,東京都,練馬区,中村南１丁目３１番１１号,,13,120,1760025,,,2024-07-02,清算の結了等,,,2015-10-05,1,,,,,ヤマノプランニング,0
67,1012402015961,登記記録の閉鎖等,0,2024-07-09,2024-06-28,有限会社畠山建装,,有限会社,東京都,調布市,入間町１丁目２２番地３,,13,208,1820004,,,2024-06-28,清算の結了等,,,2015-10-05,1,,,,,ハタケヤマケンソウ,0
80,1020002050024,登記記録の閉鎖等,0,2024-07-09,2024-06-26,有限会社キャラット,,有限会社,神奈川県,横浜市南区,中村町３丁目１９７番地の５,,14,105,2320033,,,2024-06-26,清算の結了等,,,2015-10-05,1,,,,,キャラット,0
94,1030002072736,登記記録の閉鎖等,0,2024-07-09,2024-07-03,川越貨物有限会社,,有限会社,埼玉県,川越市,石原町２丁目２番地１,,11,201,3500824,,,2024-07-03,清算の結了等,,,2015-10-05,1,,,,,カワゴエカモツ,0
104,1040002010942,登記記録の閉鎖等,0,2024-07-09,2024-07-01,有限会社丸英美装,,有限会社,千葉県,千葉市中央区,弁天３丁目１２番１４号,,12,101,2600045,,,2024-07-01,清算の結了等,,,2015-10-05,1,,,,,マルエイビソウ,0
121,1080001020245,登記記録の閉鎖等,0,2024-07-09,2024-06-27,株式会社水咲コーポレーション,,株式会社,静岡県,藤枝市,瀬戸新屋１３７番地の１,,22,214,4260075,,,2024-06-27,清算の結了等,,,2015-10-05,1,,,,,ミサキコーポレーション,0
143,1120001227901,登記記録の閉鎖等,0,2024-07-09,2024-07-05,エヌエスフィンテック株式会社,,株式会社,大阪府,大阪市城東区,今福西１丁目１０番１号,,27,118,5360004,,,2024-07-05,清算の結了等,,,2020-03-16,1,,,,,エヌエスフィンテック,0
151,1120005011335,登記記録の閉鎖等,0,2024-07-09,2024-07-03,特定非営利活動法人全国高齢者専用賃貸住宅協会,,その他の設立登記法人,大阪府,大阪市中央区,島町１丁目１番１号,,27,128,5400034,,,2024-07-03,清算の結了等,,,2015-10-05,1,,,,,ゼンコクコウレイシャセンヨウチンタイジュウタクキョウカイ,0
154,1120101065573,登記記録の閉鎖等,0,2024-07-09,2024-07-03,ＡＲＬＹ株式会社,,株式会社,大阪府,松原市,上田１丁目４番５号,,27,217,5800016,,,2024-07-03,清算の結了等,,,2022-05-12,1,,,,,エーアールエルワイ,0
164,1130001030478,登記記録の閉鎖等,0,2024-07-09,2024-07-02,株式会社向日建設,,株式会社,京都府,向日市,上植野町南小路８５番地,,26,208,6170006,,,2024-07-02,清算の結了等,,,2015-10-05,1,,,,,ムコウケンセツ,0
167,1140001011634,登記記録の閉鎖等,0,2024-07-09,2024-07-02,株式会社和運堂,,株式会社,三重県,松阪市,久保町１８５５番地５５５,,24,204,5150044,,,2024-07-02,清算の結了等,,,2015-10-05,1,,,,,ワウンドウ,0
183,1180002047558,登記記録の閉鎖等,0,2024-07-09,2024-06-25,有限会社岩塚塗装店,,有限会社,愛知県,名古屋市守山区,鳥羽見２丁目１４番１１号,,23,113,4630076,,,2024-06-25,清算の結了等,,,2015-10-05,1,,,,,イワツカトソウテン,0
185,1180002068661,登記記録の閉鎖等,0,2024-07-09,2024-06-27,有限会社エムティー,,有限会社,愛知県,小牧市,篠岡３丁目２２番地の１,,23,219,4850815,,,2024-06-27,清算の結了等,,,2015-10-05,1,,,,,エムティー,0
193,1190001027527,登記記録の閉鎖等,0,2024-07-09,2024-07-01,株式会社ｉｎｏ－Ｂｒａｎｄ,,株式会社,三重県,四日市市,西浦１丁目７番７号尾西ビル２階,,24,202,5100071,,,2024-07-01,合併による解散等,2190001018426,令和６年７月１日三重県三重郡菰野町大字福村７９５番地１ハウスクラフト株式会社（2190001018426）に合併し解散,2020-07-21,1,,,,,イノブランド,0
198,1200005012663,登記記録の閉鎖等,0,2024-07-09,2024-07-03,一般社団法人中部イノベーションドローン協会,,その他の設立登記法人,岐阜県,大垣市,枝郷１丁目２番地１,,21,202,5032207,,,2024-07-03,清算の結了等,,,2017-05-11,1,,,,,チュウブイノベーションドローンキョウカイ,0
201,1220005008024,登記記録の閉鎖等,0,2024-07-09,2024-07-02,税理士法人あさがお会計,,その他の設立登記法人,石川県,白山市,田中町６２番地７,,17,210,9240801,,,2024-07-02,清算の結了等,,,2015-11-06,1,,,,,アサガオカイケイ,0
207,1240002007175,登記記録の閉鎖等,0,2024-07-09,2024-07-02,有限会社三楽屋酒店,,有限会社,広島県,広島市西区,大宮２丁目５番１４号,,34,104,7330007,,,2024-07-02,清算の結了等,,,2015-10-05,1,,,,,サンラクヤサケテン,0
211,1250002013635,登記記録の閉鎖等,0,2024-07-09,2024-07-05,有限会社日本海コマツサービス,,有限会社,山口県,萩市,大字須佐４９６３番地の３,,35,204,7593411,,,2024-07-05,清算の結了等,,,2015-10-05,1,,,,,ニホンカイコマツサービス,0
218,1270005004225,登記記録の閉鎖等,0,2024-07-09,2024-07-04,社会福祉法人ひかり福祉会,,その他の設立登記法人,鳥取県,倉吉市,上井町１丁目１０４番地,,31,203,6820022,,,2024-07-04,清算の結了等,,,2015-10-05,1,,,,,ヒカリフクシカイ,0
220,1290001070277,登記記録の閉鎖等,0,2024-07-09,2024-06-11,株式会社ＤＡＩＹＵＵ,,株式会社,福岡県,久留米市,藤光町９５７番地,,40,203,8300054,,,2024-06-11,清算の結了等,,,2015-10-05,1,,,,,ダイユウ,0
243,1380002012161,登記記録の閉鎖等,0,2024-07-09,2024-07-01,有限会社星製作所,,有限会社,福島県,郡山市,喜久田町堀之内字堀内１５番地,,07,203,9630541,,,2024-07-01,清算の結了等,,,2015-10-05,1,,,,,ホシセイサクジョ,0
248,1420002003305,登記記録の閉鎖等,0,2024-07-09,2024-06-28,有限会社マルエイ相内工務店,,有限会社,青森県,東津軽郡今別町,大字浜名字中宇田７番地５,,02,303,0301501,,,2024-06-28,清算の結了等,,,2015-10-05,1,,,,,マルエイアイウチコウムテン,0
259,1460302003273,登記記録の閉鎖等,0,2024-07-09,2024-07-05,有限会社小谷水産,,有限会社,北海道,紋別郡湧別町,曙町１１６番地,,01,559,0996402,,,2024-07-05,清算の結了等,,,2015-10-05,1,,,,,オダニスイサン,0
261,1470001007913,登記記録の閉鎖等,0,2024-07-09,2024-07-02,多度津米穀株式会社,,株式会社,香川県,仲多度郡多度津町,北鴨３丁目２番１７号,,37,404,7640022,,,2024-07-02,清算の結了等,,,2015-10-05,1,,,,,タドツベイコク,0
262,1500001000798,登記記録の閉鎖等,0,2024-07-09,2024-06-26,愛媛宅地株式会社,,株式会社,愛媛県,松山市,八反地甲１６４２番地２,,38,201,7992424,,,2024-06-26,清算の結了等,,,2015-10-05,1,,,,,エヒメタクチ,0
298,2010801020334,登記記録の閉鎖等,0,2024-07-09,2024-07-02,株式会社ゴストンテクノ,,株式会社,東京都,大田区,南雪谷３丁目９番１２号,,13,111,1450066,,,2024-07-02,清算の結了等,,,2015-10-05,1,,,,,,0
334,2013201002282,登記記録の閉鎖等,0,2024-07-09,2024-06-24,三協印刷株式会社,,株式会社,東京都,目黒区,目黒本町５丁目２０番７号,,13,110,1520002,,,2024-06-24,清算の結了等,,,2015-10-05,1,,,,,サンキョウインサツ,0
354,2030001067570,登記記録の閉鎖等,0,2024-07-09,2024-06-14,フェルテ化成株式会社,,株式会社,埼玉県,北葛飾郡松伏町,大字築比地５４４番地５,,11,465,3430102,,,2024-06-14,合併による解散等,6030001066965,令和６年６月１日埼玉県北葛飾郡松伏町築比地７９５番地１株式会社ウィーズ（6030001066965）に合併し解散,2015-10-05,1,,,,,フェルテカセイ,0
363,2040002033216,登記記録の閉鎖等,0,2024-07-09,2024-06-26,有限会社小野整備工業所,,有限会社,千葉県,市川市,宝１丁目１５番８号,,12,203,2720122,,,2024-06-26,清算の結了等,,,2015-10-05,1,,,,,オノセイビコウギョウショウ,0
370,2050002041317,登記記録の閉鎖等,0,2024-07-09,2024-07-03,有限会社篠崎瓦店,00023228,有限会社,茨城県,常総市,本豊田１５７番地,,08,211,3002711,,,2024-07-03,清算の結了等,,,2015-10-05,1,,,,,シノザキカワラテン,0
371,2050002042216,登記記録の閉鎖等,0,2024-07-09,2024-07-03,有限会社大洋商会,,有限会社,茨城県,筑西市,外塚５９５番地,,08,227,3080053,,,2024-07-03,清算の結了等,,,2015-10-05,1,,,,,タイヨウショウカイ,0
375,2070001000692,登記記録の閉鎖等,0,2024-07-09,2024-07-01,開発技術株式会社,,株式会社,群馬県,前橋市,元総社町９４７番地１１,,10,201,3710846,,,2024-07-01,合併による解散等,9070001016674,令和６年７月１日群馬県桐生市広沢町六丁目２６８番地１株式会社森エンジニアリング（9070001016674）に合併し解散,2015-10-05,1,,,,,カイハツギジュツ,0
380,2080401019266,登記記録の閉鎖等,0,2024-07-09,2024-07-04,Ｄ－Ｌａｓｅｒ株式会社,,株式会社,静岡県,浜松市中央区,恩地町６５０番地,,22,138,4300814,,,2024-07-04,合併による解散等,5180001039239,令和６年５月１日名古屋市中区古渡町９番２７号株式会社ナ・デックス（5180001039239）に合併し解散,2015-10-05,1,,,,,ディーレーザー,0
403,2120001063016,登記記録の閉鎖等,0,2024-07-09,2024-07-05,株式会社桐谷商店,,株式会社,大阪府,大阪市北区,本庄西２丁目１７番８号,,27,127,5310073,,,2024-07-05,清算の結了等,,,2015-10-05,1,,,,,キリタニショウテン,0
404,2120001164094,登記記録の閉鎖等,0,2024-07-09,2024-07-02,株式会社豊島構造設計事務所,,株式会社,大阪府,大阪市中央区,農人橋２丁目１番２４号コープ野村農人橋６０２号,,27,128,5400011,,,2024-07-02,清算の結了等,,,2015-10-05,1,,,,,トヨシマコウゾウセッケイジムショ,0
432,2122002001045,登記記録の閉鎖等,0,2024-07-09,2024-07-04,有限会社大島,,有限会社,大阪府,東大阪市,旭町１５番８号,,27,227,5798048,,,2024-07-04,清算の結了等,,,2015-10-05,1,,,,,オオシマ,0
439,2140001010965,登記記録の閉鎖等,0,2024-07-09,2024-07-03,松永製＿株式会社,00039115,株式会社,兵庫県,神戸市灘区,大和町１丁目３番１０ー３０３号,,28,102,6570031,,,2024-07-03,清算の結了等,,,2015-10-05,1,,,,,マツナガセイアン,0
452,2140002047577,登記記録の閉鎖等,0,2024-07-09,2024-07-01,有限会社ウエダ,,有限会社,兵庫県,姫路市,余部区上余部８８番地の８２,,28,201,6711262,,,2024-07-01,清算の結了等,,,2015-10-05,1,,,,,ウエダ,0
459,2170001007736,登記記録の閉鎖等,0,2024-07-09,2024-07-05,株式会社英和工機製作所,,株式会社,和歌山県,岩出市,根来９９１番地の１,,30,209,6496202,,,2024-07-05,清算の結了等,,,2015-10-05,1,,,,,エイワコウキセイサクショ,0
462,2180001124613,登記記録の閉鎖等,0,2024-07-09,2024-06-24,株式会社ヤンチャン,,株式会社,愛知県,名古屋市千種区,自由ケ丘３丁目１番２－２０４号,,23,101,4640044,,,2024-06-24,清算の結了等,,,2016-08-26,1,,,,,ヤンチャン,0
472,2180303004348,登記記録の閉鎖等,0,2024-07-09,2024-06-28,合同会社Ｙ’ｓ　Ａｇｒｉ　Ｃｏｍｐａｎｙ,,合同会社,愛知県,田原市,浦町中世古４４番地７,,23,231,4413403,,,2024-06-28,清算の結了等,,,2019-06-07,1,,,,,ワイズアグリカンパニー,0
474,2190001014334,登記記録の閉鎖等,0,2024-07-09,2024-07-01,市川石油株式会社,,株式会社,三重県,四日市市,藏町３番２１号,,24,202,5100000,,,2024-07-01,合併による解散等,8190001015748,令和６年７月１日三重県四日市市高浜町１０番２３号ナカイ商事株式会社（8190001015748）に合併し解散,2015-10-05,1,,,,,イチカワセキユ,0
479,2230002008578,登記記録の閉鎖等,0,2024-07-09,2024-07-04,有限会社前坂建築,,有限会社,富山県,黒部市,宇奈月町下立９番地の７,,16,207,9380861,,,2024-07-04,清算の結了等,,,2015-10-05,1,,,,,マエサカケンチク,0
481,2240001039706,登記記録の閉鎖等,0,2024-07-09,2024-07-01,株式会社ティーアンドピィー設計事務所,,株式会社,広島県,三原市,円一町４丁目２番１４号,,34,204,7230015,,,2024-07-01,合併による解散等,2240001040143,令和６年７月１日広島県三原市円一町四丁目２番１４号株式会社タケウチ建設（2240001040143）に合併し解散,2015-10-05,1,,,,,ティーアンドピィー,0
501,2290801026221,登記記録の閉鎖等,0,2024-07-09,2024-06-19,株式会社ＡＡＡ,,株式会社,福岡県,北九州市小倉南区,横代葉山２５番３号,,40,107,8020825,,,2024-06-19,清算の結了等,,,2020-01-29,1,,,,,トリプルエー,0
503,2310001006475,登記記録の閉鎖等,0,2024-07-09,2024-07-05,株式会社県北總建,00095703,株式会社,長崎県,佐世保市,吉井町橋川内１５６番地,,42,202,8596311,,,2024-07-05,清算の結了等,,,2015-10-05,1,,,,,ケンホクソウケン,0
504,2310001017910,登記記録の閉鎖等,0,2024-07-09,2024-07-01,株式会社ＫＡＮ,,株式会社,長崎県,長崎市,今博多町２２番地,,42,201,8500025,,,2024-07-01,合併による解散等,6310001000805,令和６年７月１日長崎市魚の町３番２１号株式会社ＫＩＫ（6310001000805）に合併し解散,2022-06-16,1,,,,,カン,0
507,2330001017388,登記記録の閉鎖等,0,2024-07-09,2024-06-24,株式会社マリード,,株式会社,熊本県,熊本市東区,秋津新町１番３４号,,43,102,8612107,,,2024-06-24,合併による解散等,2330001004403,令和６年６月２２日熊本市東区秋津新町１番３４号株式会社マリーゴールドホールディングス（2330001004403）に合併し解散,2015-10-05,1,,,,,マリード,0
509,2340001009327,登記記録の閉鎖等,0,2024-07-09,2024-07-01,株式会社福元駐車場,,株式会社,鹿児島県,鹿児島市,伊敷２丁目１７番３４号,,46,201,8900008,,,2024-07-01,清算の結了等,,,2015-10-05,1,,,,,フクモトチュウシャジョウ,0
538,2460302001367,登記記録の閉鎖等,0,2024-07-09,2024-07-08,北進産商有限会社,,有限会社,北海道,北見市,大正２４４番地の２２,,01,208,0900008,,,2024-07-08,清算の結了等,,,2015-10-05,1,,,,,ホクシンサンショウ,0
543,2500002018252,登記記録の閉鎖等,0,2024-07-09,2024-07-01,有限会社コピー商会,,有限会社,愛媛県,今治市,南大門町３丁目２番地５,,38,202,7940027,,,2024-07-01,合併による解散等,3500003001900,令和６年７月１日愛媛県今治市南大門町三丁目２番地の５合同会社メビウス（3500003001900）に合併し解散,2015-10-05,1,,,,,コピーショウカイ,0
549,3010001104639,登記記録の閉鎖等,0,2024-07-09,2024-07-03,株式会社大正堂,,株式会社,東京都,新宿区,市谷甲良町１番１２号コスモ市ヶ谷３０３,,13,104,1620856,,,2024-07-03,清算の結了等,,,2015-10-05,1,,,,,タイショウドウ,0
577,3010701039705,登記記録の閉鎖等,0,2024-07-09,2024-07-03,株式会社イームズ,,株式会社,東京都,品川区,西五反田５丁目３番９－７０２号,,13,109,1410031,,,2024-07-03,清算の結了等,,,2020-08-17,1,,,,,イームズ,0
604,3011305002842,登記記録の閉鎖等,0,2024-07-09,2024-07-01,一般社団法人Ａｒｔ　Ｃａｎ　Ｓａｖｅ　Ｕｓ,,その他の設立登記法人,東京都,杉並区,高井戸東３丁目７番２号,,13,115,1680072,,,2024-07-01,清算の結了等,,,2022-08-03,1,,,,,アートキャンセイブアス,0
612,3011502011613,登記記録の閉鎖等,0,2024-07-09,2024-07-05,有限会社山崎建材,,有限会社,東京都,荒川区,町屋８丁目１４番１１号,,13,118,1160001,,,2024-07-05,清算の結了等,,,2015-10-05,1,,,,,ヤマザキケンザイ,0
615,3011802003806,登記記録の閉鎖等,0,2024-07-09,2024-07-05,有限会社下田,,有限会社,東京都,葛飾区,東金町３丁目３２番１１号,,13,122,1250041,,,2024-07-05,清算の結了等,,,2015-10-05,1,,,,,シモダ,0
624,3020001117350,登記記録の閉鎖等,0,2024-07-09,2024-06-24,株式会社ＡＩＭＯＶＥ,,株式会社,東京都,渋谷区,神宮前６丁目１９番１６号,,13,113,1500001,,,2024-06-24,清算の結了等,,,2016-08-05,1,,,,,エイムーブ,0
657,3040003006178,登記記録の閉鎖等,0,2024-07-09,2024-06-21,合同会社Ｍ’ｓ　Ｅｎｇｌｉｓｈ,,合同会社,千葉県,八千代市,ゆりのき台４丁目１７番地１４,,12,221,2760042,,,2024-06-21,清算の結了等,,,2015-10-05,1,,,,,エムズイングリッシュ,0
686,3120001133684,登記記録の閉鎖等,0,2024-07-09,2024-07-02,株式会社ファインプロ,,株式会社,滋賀県,湖南市,石部東６丁目４番３１号,,25,211,5203107,,,2024-07-02,合併による解散等,4160001005854,令和６年７月１日滋賀県甲賀市甲南町柑子２００２番地１９ニッタモールド株式会社（4160001005854）に合併し解散,2015-10-05,1,,,,,ファインプロ,0
696,3120001259471,登記記録の閉鎖等,0,2024-07-09,2024-07-02,Ｆｕｎ株式会社,,株式会社,大阪府,大阪市北区,梅田１丁目１番３号大阪駅前第３ビル２９階１－１－１号室,,27,127,5300001,,,2024-07-02,清算の結了等,,,2023-11-02,1,,,,,ファン,0
697,3120001261329,登記記録の閉鎖等,0,2024-07-09,2024-07-05,株式会社ＴｒｕｅＳｈｉｎｅ,,株式会社,大阪府,大阪市中央区,北浜２丁目６番１８号,,27,128,5410041,,,2024-07-05,清算の結了等,,,2024-01-17,1,,,,,トゥルーシャイン,0
708,3120105005978,登記記録の閉鎖等,0,2024-07-09,2024-06-25,天理教泉和分教会,,その他の設立登記法人,大阪府,岸和田市,藤井町３丁目２番２号,,27,202,5960046,,,2024-06-25,合併による解散等,5120105005984,令和６年６月２５日大阪府岸和田市磯上町四丁目９番１号天理教泉西分教会（5120105005984）に合併し解散,2015-10-05,1,,,,,テンリキョウセンワブンキョウカイ,0
717,3130002034550,登記記録の閉鎖等,0,2024-07-09,2024-07-02,有限会社ふれんど,,有限会社,京都府,舞鶴市,字浜７７２番地,,26,202,6250036,,,2024-07-02,清算の結了等,,,2015-10-05,1,,,,,フレンド,0
724,3140001082855,登記記録の閉鎖等,0,2024-07-09,2024-07-01,メッセスタッフ株式会社,,株式会社,愛媛県,今治市,吉海町正味１９０番地１,,38,202,7942117,,,2024-07-01,清算の結了等,,,2015-10-05,1,,,,,メッセスタッフ,0
726,3140002053806,登記記録の閉鎖等,0,2024-07-09,2024-07-03,有限会社サンキ,,有限会社,兵庫県,姫路市,五軒邸４丁目１０４番地の１アルファステイツ五軒邸１０２号,,28,201,6700854,,,2024-07-03,清算の結了等,,,2015-10-05,1,,,,,サンキ,0
728,3140005023608,登記記録の閉鎖等,0,2024-07-09,2024-07-02,一般社団法人しおさい,,その他の設立登記法人,兵庫県,神戸市垂水区,馬場通５番１９号,,28,108,6550021,,,2024-07-02,清算の結了等,,,2017-06-19,1,,,,,シオサイ,0
745,3200001028934,登記記録の閉鎖等,0,2024-07-09,2024-07-01,株式会社杉正鉄工所,,株式会社,岐阜県,高山市,名田町１丁目４９番地,,21,203,5060021,,,2024-07-01,清算の結了等,,,2015-10-05,1,,,,,スギショウテッコウショ,0
750,3200002009041,登記記録の閉鎖等,0,2024-07-09,2024-07-03,有限会社富士,,有限会社,岐阜県,岐阜市,市橋１丁目８番１１号,,21,201,5008381,,,2024-07-03,清算の結了等,,,2015-10-05,1,,,,,フジ,0
752,3210001003696,登記記録の閉鎖等,0,2024-07-09,2024-07-02,福井日通運輸株式会社,,株式会社,福井県,福井市,重立町２２号１番地,,18,201,9100823,,,2024-07-02,清算の結了等,,,2015-10-05,1,,,,,フクイニッツウウンユ,0
758,3260002014481,登記記録の閉鎖等,0,2024-07-09,2024-06-26,有限会社ハッピーサービス,,有限会社,岡山県,岡山市南区,福富中２丁目１２番９号,,33,104,7028032,,,2024-06-26,清算の結了等,,,2015-10-05,1,,,,,ハッピーサービス,0
763,3290001061225,登記記録の閉鎖等,0,2024-07-09,2024-06-11,株式会社福臨臨,,株式会社,福岡県,福岡市南区,平和２丁目２４番２７号,,40,134,8150071,,,2024-06-11,清算の結了等,,,2015-10-05,1,,,,,フクリンリン,0
770,3300001006442,登記記録の閉鎖等,0,2024-07-09,2024-07-02,株式会社レゾナック電子材料九州,,株式会社,佐賀県,神埼郡吉野ヶ里町,吉田２３０７番地の２,,41,327,8420031,,,2024-07-02,合併による解散等,3011101018084,令和６年７月１日東京都港区東新橋一丁目９番１号株式会社レゾナック（3011101018084）に合併し解散,2015-10-05,1,,,,,レゾナックデンシザイリョウキュウシュウ,0
798,3400001015887,登記記録の閉鎖等,0,2024-07-09,2024-07-01,株式会社岩中,,株式会社,岩手県,北上市,二子町宿西１１２番地,,03,206,0240104,,,2024-07-01,合併による解散等,8400002009322,令和６年７月１日岩手県北上市二子町明神２１８番地株式会社ケイアイファーム（8400002009322）に合併し解散,2022-05-17,1,,,,,イワチュウ,0
806,3500001018970,登記記録の閉鎖等,0,2024-07-09,2024-07-02,株式会社中のや,,株式会社,愛媛県,松山市,湯の山６丁目６番地５,,38,201,7910121,,,2024-07-02,清算の結了等,,,2015-10-05,1,,,,,ナカノヤ,0
830,4010003030766,登記記録の閉鎖等,0,2024-07-09,2024-06-25,Ｏｒａｎｇｅ　Ｍａｐ２合同会社,,合同会社,東京都,千代田区,丸の内３丁目１番１号東京共同会計事務所内,,13,101,1000005,,,2024-06-25,清算の結了等,,,2019-09-30,1,,,,,オレンジマップツー,0
867,4011101102267,登記記録の閉鎖等,0,2024-07-09,2024-06-27,柿の木坂アセットマネジメント株式会社,,株式会社,東京都,新宿区,原町３丁目１５番地１プラウド新宿牛込柳町９０４,,13,104,1620053,,,2024-06-27,清算の結了等,,,2023-03-24,1,,,,,カキノキザカアセットマネジメント,0
868,4011103006359,登記記録の閉鎖等,0,2024-07-09,2024-06-28,メディカルプラス合同会社,,合同会社,東京都,新宿区,市谷砂土原町３丁目１７番地１ラ・トゥール市谷砂土原Ｗ４０３,,13,104,1620842,,,2024-06-28,清算の結了等,,,2016-07-01,1,,,,,メディカルプラス,0
870,4011202000403,登記記録の閉鎖等,0,2024-07-09,2024-07-08,有限会社天野書店,,有限会社,東京都,中野区,沼袋２丁目３０番７号,,13,114,1650025,,,2024-07-08,清算の結了等,,,2015-10-05,1,,,,,アマノショテン,0
872,4011301022372,登記記録の閉鎖等,0,2024-07-09,2024-07-04,シー・エム・エス株式会社,,株式会社,東京都,武蔵野市,吉祥寺本町３丁目９番１１号,,13,203,1800004,,,2024-07-04,清算の結了等,,,2016-07-04,1,,,,,シーエムエス,0
882,4011801009852,登記記録の閉鎖等,0,2024-07-09,2024-07-04,株式会社つくばや,,株式会社,東京都,足立区,関原３丁目１５番１号,,13,121,1230852,,,2024-07-04,清算の結了等,,,2015-10-05,1,,,,,ツクバヤ,0
891,4013202014077,登記記録の閉鎖等,0,2024-07-09,2024-07-04,有限会社八廣コンサルタンツ,,有限会社,大阪府,大阪市中央区,道修町３丁目３番８－１１０３号,,27,128,5410045,,,2024-07-04,清算の結了等,,,2015-10-05,1,,,,,ヤヒロコンサルタンツ,0
909,4021001007656,登記記録の閉鎖等,0,2024-07-09,2024-07-03,株式会社湘南眼鏡センター,,株式会社,神奈川県,茅ヶ崎市,室田２丁目６番３２号,,14,207,2530018,,,2024-07-03,清算の結了等,,,2015-10-05,1,,,,,ショウナンメガネセンター,0
914,4021002000890,登記記録の閉鎖等,0,2024-07-09,2024-07-05,有限会社エフ・ケー精密,,有限会社,神奈川県,藤沢市,本町３丁目１１番１９号,,14,205,2510053,,,2024-07-05,清算の結了等,,,2015-10-05,1,,,,,,0
916,4021005012553,登記記録の閉鎖等,0,2024-07-09,2024-07-04,一般社団法人ごかんシンフォニカ,,その他の設立登記法人,神奈川県,横須賀市,秋谷４３２１番地,,14,201,2400105,,,2024-07-04,清算の結了等,,,2022-06-23,1,,,,,ゴカンシンフォニカ,0
917,4030001024529,登記記録の閉鎖等,0,2024-07-09,2024-06-18,田中木材株式会社,,株式会社,埼玉県,所沢市,旭町２４番７号,,11,208,3590036,,,2024-06-18,合併による解散等,9030001023641,令和６年６月１８日埼玉県所沢市旭町２４番７号株式会社イーグルビジネス（9030001023641）に合併し解散,2015-10-05,1,,,,,タナカモクザイ,0
918,4030001059426,登記記録の閉鎖等,0,2024-07-09,2024-07-02,株式会社マルキ,,株式会社,東京都,板橋区,上板橋３丁目４番１１号二村ビル１Ｆ,,13,119,1740076,,,2024-07-02,清算の結了等,,,2015-10-05,1,,,,,マルキ,0
927,4030002063666,登記記録の閉鎖等,0,2024-07-09,2024-07-03,有限会社細田コーポ,,有限会社,埼玉県,富士見市,針ケ谷２丁目１５番地２０,,11,235,3540017,,,2024-07-03,清算の結了等,,,2015-10-05,1,,,,,ホソダコーポ,0
942,4060005007122,登記記録の閉鎖等,0,2024-07-09,2024-06-05,嚴島神社,,その他の設立登記法人,栃木県,佐野市,嘉多山町３８７１番地,,09,204,3270523,,,2024-06-05,合併による解散等,9060005007126,令和６年６月５日栃木県佐野市葛生西二丁目４番１号鹿島神社（9060005007126）に合併し解散,2015-10-05,1,,,,,イツクシマジンジャ,0
947,4080102009333,登記記録の閉鎖等,0,2024-07-09,2024-07-04,有限会社旭製作所,,有限会社,静岡県,駿東郡長泉町,下土狩１３７番地の２,,22,342,4110943,,,2024-07-04,清算の結了等,,,2015-10-05,1,,,,,アサヒセイサクショ,0
951,4080405006168,登記記録の閉鎖等,0,2024-07-09,2024-07-02,税理士法人土屋会計事務所,,その他の設立登記法人,静岡県,袋井市,高尾町７番地の８,,22,216,4370027,,,2024-07-02,清算の結了等,,,2015-10-05,1,,,,,ツチヤカイケイジムショ,0
966,4120003009139,登記記録の閉鎖等,0,2024-07-09,2024-07-05,合同会社ＰＦＰ,,合同会社,大阪府,大阪市中央区,南久宝寺町３丁目２番１１号,,27,128,5410058,,,2024-07-05,清算の結了等,,,2015-10-05,1,,,,,,0
968,4120003021606,登記記録の閉鎖等,0,2024-07-09,2024-07-05,合同会社たいようさんさん,,合同会社,大阪府,守口市,金下町２丁目２番１３号,,27,209,5700079,,,2024-07-05,清算の結了等,,,2022-05-06,1,,,,,タイヨウサンサン,0
983,4120902019964,登記記録の閉鎖等,0,2024-07-09,2024-07-04,有限会社ムツミヤ,,有限会社,大阪府,豊中市,庄内西町３丁目６番１６号,,27,203,5610832,,,2024-07-04,清算の結了等,,,2015-10-05,1,,,,,ムツミヤ,0
1003,4180002025734,登記記録の閉鎖等,0,2024-07-09,2024-06-25,有限会社坂本製作所,,有限会社,愛知県,名古屋市緑区,大高町字本銭瓶３７番地２,,23,114,4598001,,,2024-06-25,清算の結了等,,,2015-10-05,1,,,,,サカモトセイサクショ,0
1004,4180002074789,登記記録の閉鎖等,0,2024-07-09,2024-06-25,有限会社カントリーアーバン,,有限会社,愛知県,犬山市,大字前原字天道新田８１番地の９０,,23,215,4840061,,,2024-06-25,清算の結了等,,,2015-10-05,1,,,,,カントリーアーバン,0
1013,4220001012209,登記記録の閉鎖等,0,2024-07-09,2024-07-03,株式会社テスク,,株式会社,石川県,能美市,上清水町イ８２番地,,17,211,9231237,,,2024-07-03,清算の結了等,,,2015-10-05,1,,,,,テスク,0
1018,4220005006066,登記記録の閉鎖等,0,2024-07-09,2024-07-01,能登内浦漁業生産組合,,その他の設立登記法人,石川県,鳳珠郡能登町,字小木３４字１番地５,,17,463,9270553,,,2024-07-01,清算の結了等,,,2015-10-05,1,,,,,ノトウチウラ,0
1060,4370001002921,登記記録の閉鎖等,0,2024-07-09,2024-06-25,株式会社伽羅,,株式会社,宮城県,仙台市青葉区,五橋２丁目８番７－４０８号,,04,101,9800022,,,2024-06-25,清算の結了等,,,2015-10-05,1,,,,,キャラ,0
1065,4380002019740,登記記録の閉鎖等,0,2024-07-09,2024-07-01,有限会社カネヤマ,,有限会社,福島県,須賀川市,旭町１２８番地,,07,207,9620834,,,2024-07-01,清算の結了等,,,2015-10-05,1,,,,,,0
1069,4410002010836,登記記録の閉鎖等,0,2024-07-09,2024-07-01,有限会社国塚工業,,有限会社,秋田県,山本郡三種町,鹿渡字高屋敷７３番地の１,,05,348,0182104,,,2024-07-01,清算の結了等,,,2015-10-05,1,,,,,クニヅカコウギョウ,0
1084,4460302001431,登記記録の閉鎖等,0,2024-07-09,2024-07-08,有限会社マリー美容室,,有限会社,北海道,北見市,北二条西３丁目７番地,,01,208,0900042,,,2024-07-08,清算の結了等,,,2015-10-05,1,,,,,,0
1086,4490002005259,登記記録の閉鎖等,0,2024-07-09,2024-06-28,有限会社森山製パン所,,有限会社,高知県,高知市,桜井町１丁目５番８号,,39,201,7800821,,,2024-06-28,清算の結了等,,,2015-10-05,1,,,,,モリヤマセイパンショ,0
1107,5010001137273,登記記録の閉鎖等,0,2024-07-09,2024-06-25,株式会社アイルビースタジオ,,株式会社,東京都,千代田区,九段南１丁目５番６号りそな九段ビル,,13,101,1020074,,,2024-06-25,清算の結了等,,,2015-10-05,1,,,,,アイルビースタジオ,0
1132,5010801006438,登記記録の閉鎖等,0,2024-07-09,2024-07-02,大洋サッシュ株式会社,,株式会社,東京都,大田区,北糀谷２丁目３番１１号殿山ＪＯＹＦＵＬ１０５,,13,111,1440032,,,2024-07-02,清算の結了等,,,2015-10-05,1,,,,,タイヨウサッシュ,0
1149,5011801000570,登記記録の閉鎖等,0,2024-07-09,2024-07-05,エイゼン工業株式会社,,株式会社,東京都,葛飾区,宝町２丁目８番１号,,13,122,1240005,,,2024-07-05,清算の結了等,,,2015-10-05,1,,,,,エイゼンコウギョウ,0
1168,5020002104619,登記記録の閉鎖等,0,2024-07-09,2024-06-26,有限会社湯山造園,,有限会社,神奈川県,川崎市中原区,上小田中６丁目５６番３号,,14,133,2110053,,,2024-06-26,清算の結了等,,,2015-10-05,1,,,,,ユヤマゾウエン,0
1173,5021001007399,登記記録の閉鎖等,0,2024-07-09,2024-07-04,北斗運輸株式会社,,株式会社,神奈川県,茅ヶ崎市,萩園１７４７番地６,,14,207,2530071,,,2024-07-04,清算の結了等,,,2015-10-05,1,,,,,ホクトウンユ,0
1174,5030001000438,登記記録の閉鎖等,0,2024-07-09,2024-07-03,株式会社アサカ,,株式会社,埼玉県,さいたま市西区,大字高木１６１番地３６,,11,101,3310071,,,2024-07-03,清算の結了等,,,2015-10-05,1,,,,,アサカ,0
1188,5050001006689,登記記録の閉鎖等,0,2024-07-09,2024-07-02,株式会社川上綜合設計,,株式会社,茨城県,ひたちなか市,西大島３丁目２番９号,,08,221,3120041,,,2024-07-02,清算の結了等,,,2015-10-05,1,,,,,カワカミソウゴウセッケイ,0
1198,5080101015232,登記記録の閉鎖等,0,2024-07-09,2024-07-04,株式会社サカイ産業静岡,,株式会社,静岡県,御殿場市,深沢５７２番地１,,22,215,4120023,,,2024-07-04,合併による解散等,9021001012296,令和６年７月１日神奈川県相模原市中央区田名１９１０番地６株式会社サカイアゼットロジ（9021001012296）に合併し解散,2015-10-05,1,,,,,サカイサンギョウシズオカ,0
1209,5120001159471,登記記録の閉鎖等,0,2024-07-09,2024-07-04,株式会社有徳,,株式会社,大阪府,守口市,大宮通４丁目１１番１０号,,27,209,5700033,,,2024-07-04,合併による解散等,3120101028719,令和６年７月１日大阪府堺市北区北長尾町一丁７番１号孝華株式会社（3120101028719）に合併し解散,2015-10-05,1,,,,,ユウトク,0
1228,5120101047460,登記記録の閉鎖等,0,2024-07-09,2024-07-01,株式会社桝谷反毛,,株式会社,大阪府,泉佐野市,南中樫井７１２番地,,27,213,5980035,,,2024-07-01,清算の結了等,,,2015-10-05,1,,,,,マスタニハンモウ,0
1232,5120103000054,登記記録の閉鎖等,0,2024-07-09,2024-07-04,合資会社小田垣広一商店,,合資会社,大阪府,堺市堺区,櫛屋町東２丁２番１１号,,27,141,5900944,,,2024-07-04,清算の結了等,,,2015-10-05,1,,,,,オダガキコウイチショウテン,0
1235,5122001022428,登記記録の閉鎖等,0,2024-07-09,2024-07-05,株式会社ｓｔａｇｅ,,株式会社,大阪府,八尾市,柏村町４丁目１９０番地,,27,212,5810022,,,2024-07-05,清算の結了等,,,2015-10-05,1,,,,,ステージ,0
1241,5140001062293,登記記録の閉鎖等,0,2024-07-09,2024-07-03,株式会社ランドマーク,,株式会社,兵庫県,姫路市,飾東町庄６３０番地,,28,201,6710218,,,2024-07-03,清算の結了等,,,2015-10-05,1,,,,,ランドマーク,0
1277,5260002020544,登記記録の閉鎖等,0,2024-07-09,2024-06-25,有限会社羽原溶工,,有限会社,岡山県,倉敷市,中島９３５番地の７,,33,202,7100803,,,2024-06-25,清算の結了等,,,2015-10-05,1,,,,,ハバラヨウコウ,0
1282,5260005008660,登記記録の閉鎖等,0,2024-07-09,2024-06-25,医療法人ひいらぎ,,その他の設立登記法人,岡山県,真庭市,下呰部４５２番地,,33,214,7161433,,,2024-06-25,清算の結了等,,,2015-10-05,1,,,,,ヒイラギ,0
1286,5290001026564,登記記録の閉鎖等,0,2024-07-09,2024-06-11,株式会社ビスネット,,株式会社,福岡県,福岡市中央区,天神３丁目４番５号,,40,133,8100001,,,2024-06-11,清算の結了等,,,2015-10-05,1,,,,,ビスネット,0
1294,5290003006275,登記記録の閉鎖等,0,2024-07-09,2024-06-12,合同会社オッケーテクノロジー,,合同会社,福岡県,福岡市東区,青葉１丁目４１番５号,,40,131,8130025,,,2024-06-12,清算の結了等,,,2016-02-05,1,,,,,オッケーテクノロジー,0
1298,5290801010973,登記記録の閉鎖等,0,2024-07-09,2024-06-24,株式会社九州クリーンメディカル,,株式会社,福岡県,北九州市八幡西区,割子川２丁目８番２３号,,40,109,8060064,,,2024-06-24,清算の結了等,,,2015-10-05,1,,,,,,0
1300,5320001003881,登記記録の閉鎖等,0,2024-07-09,2024-06-24,みのり産業株式会社,,株式会社,大分県,大分市,今津留３丁目１５３番地,,44,201,8700938,,,2024-06-24,清算の結了等,,,2015-10-30,1,,,,,ミノリサンギョウ,0
1301,5330001007163,登記記録の閉鎖等,0,2024-07-09,2024-07-01,株式会社シーマ・サウンド,,株式会社,熊本県,熊本市北区,打越町４３番４３号,,43,105,8600086,,,2024-07-01,清算の結了等,,,2015-10-05,1,,,,,シーマサウンド,0
1306,5330001024035,登記記録の閉鎖等,0,2024-07-09,2024-07-01,株式会社ＲＹＯＭＯＮＺＯ,,株式会社,熊本県,菊池市,旭志新明７４１番地１,,43,210,8691207,,,2024-07-01,清算の結了等,,,2017-05-12,1,,,,,リョウモンゾ,0
1314,5360001001659,登記記録の閉鎖等,0,2024-07-09,2024-07-03,株式会社なんよう,,株式会社,沖縄県,那覇市,与儀１丁目５番２号,,47,201,9020076,,,2024-07-03,清算の結了等,,,2015-10-05,1,,,,,ナンヨウ,0
1320,5370001042099,登記記録の閉鎖等,0,2024-07-09,2024-06-26,株式会社仙台石材センター,,株式会社,宮城県,仙台市若林区,中倉１丁目２番３号,,04,103,9840821,,,2024-06-26,清算の結了等,,,2017-09-27,1,,,,,センダイセキザイセンター,0
1342,5430002057387,登記記録の閉鎖等,0,2024-07-09,2024-07-02,有限会社ノースエイブル,,有限会社,北海道,虻田郡ニセコ町,字ニセコ１８８番地,,01,395,0481511,,,2024-07-02,清算の結了等,,,2015-10-05,1,,,,,ノースエイブル,0
1368,6010401000856,登記記録の閉鎖等,0,2024-07-09,2024-06-24,アイボリー・アンド・サイム・ジャパン株式会社,,株式会社,東京都,港区,港南２丁目１３番４０号,,13,103,1080075,,,2024-06-24,清算の結了等,,,2015-10-05,1,,,,,アイボリーアンドサイムジャパン,0
1370,6010401124671,登記記録の閉鎖等,0,2024-07-09,2024-07-04,株式会社オーバス,,株式会社,東京都,港区,港南２丁目１６番２号,,13,103,1080075,,,2024-07-04,合併による解散等,9180301014251,令和６年７月１日愛知県刈谷市昭和町一丁目１番地株式会社デンソー（9180301014251）に合併し解散,2016-05-09,1,,,,,オーバス,0
1375,6010403030777,登記記録の閉鎖等,0,2024-07-09,2024-06-25,合同会社サングリーンフィールド,,合同会社,東京都,港区,白金２丁目５番１０号,,13,103,1080072,,,2024-06-25,清算の結了等,,,2023-08-23,1,,,,,サングリーンフィールド,0
1378,6010701007717,登記記録の閉鎖等,0,2024-07-09,2024-07-02,アイ・ネクストジーイー株式会社,,株式会社,埼玉県,さいたま市大宮区,北袋町１丁目２９９番地１２,,11,103,3300835,,,2024-07-02,清算の結了等,,,2015-10-05,1,,,,,アイネクストジーイー,0
1389,6010905004114,登記記録の閉鎖等,0,2024-07-09,2024-07-03,一般社団法人イノベーション研究所,,その他の設立登記法人,東京都,世田谷区,羽根木２丁目２５番１９号,,13,112,1560042,,,2024-07-03,清算の結了等,,,2021-03-22,1,,,,,イノベーションケンキュウジョ,0
1399,6011101020401,登記記録の閉鎖等,0,2024-07-09,2024-06-28,丸矢機械販売株式会社,,株式会社,東京都,新宿区,四谷１丁目１３番１２号,,13,104,1600004,,,2024-06-28,清算の結了等,,,2015-10-05,1,,,,,マルヤキカイハンバイ,0
1423,6013201010496,登記記録の閉鎖等,0,2024-07-09,2024-06-24,株式会社柳屋漆器店,,株式会社,東京都,目黒区,上目黒３丁目１７番７号,,13,110,1530051,,,2024-06-24,清算の結了等,,,2015-10-05,1,,,,,ヤナギヤシッキテン,0
1424,6013301045021,登記記録の閉鎖等,0,2024-07-09,2024-07-01,ナレッジ株式会社,,株式会社,東京都,豊島区,東池袋１丁目１７番１１号パークハイツ池袋１１０６,,13,116,1700013,,,2024-07-01,清算の結了等,,,2020-01-06,1,,,,,ナレッジ,0
1433,6020002083531,登記記録の閉鎖等,0,2024-07-09,2024-06-26,有限会社コンテック,,有限会社,神奈川県,川崎市中原区,井田２丁目１２番地３号,,14,133,2110035,,,2024-06-26,清算の結了等,,,2015-10-05,1,,,,,コンテック,0
1450,6030002105887,登記記録の閉鎖等,0,2024-07-09,2024-07-04,二番館インターナショナル有限会社,,有限会社,埼玉県,さいたま市緑区,東大門２丁目１７－１,,11,109,3360964,,,2024-07-04,清算の結了等,,,2015-10-05,1,,,,,ニバンカンインターナショナル,0
1451,6030002107074,登記記録の閉鎖等,0,2024-07-09,2024-07-01,有限会社増田宝飾,,有限会社,埼玉県,川口市,大字差間２２０番地４,,11,203,3330816,,,2024-07-01,清算の結了等,,,2015-10-05,1,,,,,マスダホウショク,0
1518,6140001098254,登記記録の閉鎖等,0,2024-07-09,2024-07-03,株式会社Ｂｅａｕｘ　ａｒｔｓ,,株式会社,兵庫県,揖保郡太子町,佐用岡６番地５,,28,464,6711575,,,2024-07-03,清算の結了等,,,2015-10-05,1,,,,,ボーアール,0
1524,6140002035933,登記記録の閉鎖等,0,2024-07-09,2024-07-02,有限会社柴田鉄工所,,有限会社,兵庫県,加古川市,尾上町養田１５７９番地の４,,28,210,6750025,,,2024-07-02,清算の結了等,,,2015-10-05,1,,,,,シバタテッコウショ,0
1532,6150001007858,登記記録の閉鎖等,0,2024-07-09,2024-07-05,株式会社ボンヌ・スール,,株式会社,奈良県,奈良市,登美ヶ丘５丁目１５番９号,,29,201,6310004,,,2024-07-05,清算の結了等,,,2015-10-05,1,,,,,ボンヌスール,0
1546,6180002036473,登記記録の閉鎖等,0,2024-07-09,2024-06-26,有限会社トキワ,,有限会社,愛知県,名古屋市中川区,新家１丁目１９１０番地,,23,110,4540972,,,2024-06-26,清算の結了等,,,2015-10-05,1,,,,,トキワ,0
1547,6180002056125,登記記録の閉鎖等,0,2024-07-09,2024-06-25,有限会社プレーゴ,,有限会社,愛知県,名古屋市名東区,陸前町３４０２番地,,23,115,4650057,,,2024-06-25,清算の結了等,,,2015-10-05,1,,,,,プレーゴ,0
1556,6200001018305,登記記録の閉鎖等,0,2024-07-09,2024-06-13,株式会社ジェイ・シー・アール,,株式会社,岐阜県,可児市,今渡７１５番地７,,21,214,5090207,,,2024-06-13,清算の結了等,,,2015-10-05,1,,,,,ジェイシーアール,0
1574,6250002019000,登記記録の閉鎖等,0,2024-07-09,2024-07-01,有限会社葉柴商店,,有限会社,山口県,岩国市,由宇町神東７０３番地の１,,35,208,7401432,,,2024-07-01,清算の結了等,,,2015-10-05,1,,,,,ハシバショウテン,0
1576,6260005004122,登記記録の閉鎖等,0,2024-07-09,2024-06-24,天理教攝義分教会,,その他の設立登記法人,岡山県,倉敷市,児島稗田町２１３９番地,00004060,33,202,7110937,,,2024-06-24,合併による解散等,4120005000500,令和６年６月２０日大阪市中央区島之内一丁目３番２５号天理教御津大教会（4120005000500）に合併し解散,2015-10-05,1,,,,,テンリキョウセツヨシブンキョウカイ,0
1599,6350003002366,登記記録の閉鎖等,0,2024-07-09,2024-06-28,合同会社山善,,合同会社,宮崎県,宮崎市,大字大瀬町１５３７番地,,45,201,8800045,,,2024-06-28,清算の結了等,,,2015-10-05,1,,,,,ヤマゼン,0
1601,6360003007884,登記記録の閉鎖等,0,2024-07-09,2024-07-03,合同会社宮城,,合同会社,沖縄県,宜野湾市,新城２丁目１７番６号,,47,205,9012201,,,2024-07-03,清算の結了等,,,2016-11-28,1,,,,,ミヤギ,0
1606,6380003004525,登記記録の閉鎖等,0,2024-07-09,2024-07-01,合同会社ママズコットン桜,,合同会社,福島県,福島市,笹谷字中谷前２番地の１１,,07,201,9600241,,,2024-07-01,清算の結了等,,,2019-09-03,1,,,,,ママズコットンサクラ,0
1616,6450002010087,登記記録の閉鎖等,0,2024-07-09,2024-07-01,有限会社佐藤電気工業所,,有限会社,北海道,中川郡美深町,字美深５５９番地１８,,01,469,0982205,,,2024-07-01,清算の結了等,,,2015-10-05,1,,,,,サトウデンキコウギョウショ,0
1618,6450005002461,登記記録の閉鎖等,0,2024-07-09,2024-06-17,天理教北名寄分教会,,その他の設立登記法人,北海道,名寄市,西七条北１丁目４番地,,01,221,0960037,,,2024-06-17,合併による解散等,9450005002467,令和６年６月１７日北海道名寄市西七条南十一丁目５５番地２２天理教名寄太分教会（9450005002467）に合併し解散,2015-10-05,1,,,,,テンリキョウキタナヨロブンキョウカイ,0
1621,6480002012948,登記記録の閉鎖等,0,2024-07-09,2024-07-03,有限会社熊澤商会,,有限会社,徳島県,阿南市,羽ノ浦町中庄上ナカレ３１番地,,36,204,7791101,,,2024-07-03,清算の結了等,,,2015-10-05,1,,,,,,0
1622,6500002008951,登記記録の閉鎖等,0,2024-07-09,2024-07-01,松林自動車有限会社,,有限会社,愛媛県,松山市,土居田町３３２番地３,,38,201,7900056,,,2024-07-01,清算の結了等,,,2015-10-05,1,,,,,マツバヤシジドウシャ,0
1644,7010002008158,登記記録の閉鎖等,0,2024-07-09,2024-06-27,エフジージャスティスリーシング有限会社,,有限会社,東京都,千代田区,麹町５丁目１番地１,,13,101,1020083,,,2024-06-27,清算の結了等,,,2015-10-05,1,,,,,エフジージャスティスリーシング,0
1657,7010601006009,登記記録の閉鎖等,0,2024-07-09,2024-07-04,株式会社フカガワ,,株式会社,東京都,江東区,北砂１丁目８番１０号サンライズ１０１号室,,13,108,1360073,,,2024-07-04,清算の結了等,,,2015-10-05,1,,,,,フカガワ,0
1658,7010701003632,登記記録の閉鎖等,0,2024-07-09,2024-07-03,彩株式会社,,株式会社,東京都,品川区,南品川１丁目８番５号,,13,109,1400004,,,2024-07-03,清算の結了等,,,2015-10-05,1,,,,,イロドリ,0
1665,7010901043437,登記記録の閉鎖等,0,2024-07-09,2024-07-01,株式会社田島創造所,,株式会社,東京都,世田谷区,玉川３丁目２２番１６号４階,,13,112,1580094,,,2024-07-01,合併による解散等,7010901050004,令和６年７月１日東京都世田谷区玉川三丁目２２番１６号リオテラス４０１株式会社ＳＡＩ（7010901050004）に合併し解散,2019-01-09,1,,,,,タジマソウゾウジョ,0
1683,7011303004325,登記記録の閉鎖等,0,2024-07-09,2024-06-24,合同会社サンク,,合同会社,東京都,渋谷区,代々木３丁目４９番６号フォレスト代々木Ｃ３０１,,13,113,1510053,,,2024-06-24,清算の結了等,,,2022-03-02,1,,,,,サンク,0
1705,7020001128971,登記記録の閉鎖等,0,2024-07-09,2024-06-26,株式会社８,,株式会社,神奈川県,横浜市港南区,港南台７丁目３３番３号,,14,111,2340054,,,2024-06-26,清算の結了等,,,2018-12-05,1,,,,,エイト,0
1706,7020002021077,登記記録の閉鎖等,0,2024-07-09,2024-06-25,有限会社京彦,,有限会社,神奈川県,横浜市旭区,中希望が丘２２６－９,,14,112,2410825,,,2024-06-25,清算の結了等,,,2015-10-05,1,,,,,キョウヒコ,0
1707,7020002088950,登記記録の閉鎖等,0,2024-07-09,2024-06-26,有限会社港北サービス,,有限会社,神奈川県,川崎市高津区,蟹ケ谷２３０番地７,,14,134,2130025,,,2024-06-26,清算の結了等,,,2015-10-05,1,,,,,,0
1720,7030002074108,登記記録の閉鎖等,0,2024-07-09,2024-07-03,有限会社竹花新聞店,,有限会社,埼玉県,川越市,新宿町１丁目１番地５,,11,201,3501124,,,2024-07-03,清算の結了等,,,2015-10-05,1,,,,,タケハナシンブンテン,0
1722,7030002106926,登記記録の閉鎖等,0,2024-07-09,2024-07-02,有限会社本田商店,,有限会社,埼玉県,川口市,川口５丁目１８番１１号,,11,203,3320015,,,2024-07-02,清算の結了等,,,2015-10-05,1,,,,,,0
1757,7080101005850,登記記録の閉鎖等,0,2024-07-09,2024-07-04,ダイドー重機商工株式会社,,株式会社,静岡県,駿東郡長泉町,下長窪１０２２番地６,,22,342,4110934,,,2024-07-04,合併による解散等,1030001056500,令和６年７月１日埼玉県比企郡川島町大字戸守７０７番地株式会社あさひコーポレーション（1030001056500）に合併し解散,2015-10-05,1,,,,,ダイドージュウキショウコウ,0
1791,7120902013634,登記記録の閉鎖等,0,2024-07-09,2024-07-04,有限会社Ａｃｃｏｍｐｌｉｓｈ,,有限会社,大阪府,吹田市,青葉丘南８番Ｓ－２０１,,27,205,5650802,,,2024-07-04,清算の結了等,,,2015-10-05,1,,,,,アコンプリッシュ,0
1797,7130001012768,登記記録の閉鎖等,0,2024-07-09,2024-07-03,株式会社サンロード,,株式会社,京都府,京都市山科区,大宅早稲ノ内町１８５番地,,26,110,6078186,,,2024-07-03,清算の結了等,,,2015-10-05,1,,,,,サンロード,0
1798,7130001049843,登記記録の閉鎖等,0,2024-07-09,2024-06-20,株式会社オアシス,,株式会社,京都府,木津川市,相楽台５丁目８－２－１０３,,26,214,6190223,,,2024-06-20,合併による解散等,9150001020965,令和６年６月１日奈良県北葛城郡広陵町みささぎ台３５－１７－１０１株式会社サンライズ（9150001020965）に合併し解散,2015-10-05,1,,,,,オアシス,0
1826,7190002014865,登記記録の閉鎖等,0,2024-07-09,2024-07-01,株式会社長栄商事,,株式会社,三重県,松阪市,小津町４６３番地,,24,204,5152114,,,2024-07-01,合併による解散等,8190001010963,令和６年７月１日三重県松阪市小津町４６３番地株式会社伊勢生花地方卸売市場（8190001010963）に合併し解散,2015-10-05,1,,,,,チョウエイショウジ,0
1831,7240001034561,登記記録の閉鎖等,0,2024-07-09,2024-07-02,松川工業株式会社,,株式会社,広島県,福山市,引野町４丁目１２番２７号,,34,207,7210942,,,2024-07-02,清算の結了等,,,2015-10-05,1,,,,,マツカワコウギョウ,0
1834,7250002001519,登記記録の閉鎖等,0,2024-07-09,2024-07-01,ＡＫＭ有限会社,,有限会社,山口県,山口市,湯田温泉１丁目５番２８号,,35,203,7530056,,,2024-07-01,清算の結了等,,,2015-10-05,1,,,,,エイケイエム,0
1844,7290001092373,登記記録の閉鎖等,0,2024-07-09,2024-06-11,株式会社Ｓｔａｒ　Ｈｏｒｓｅ,,株式会社,福岡県,福岡市博多区,対馬小路１１－１５デアマーレ博多３０２号室,,40,132,8120020,,,2024-06-11,清算の結了等,,,2021-03-19,1,,,,,スターホース,0
1851,7300001008435,登記記録の閉鎖等,0,2024-07-09,2024-07-04,富永健康堂株式会社,,株式会社,佐賀県,鹿島市,大字納富分３１０７番地１,,41,207,8491312,,,2024-07-04,清算の結了等,,,2015-10-05,1,,,,,トミナガケンコウドウ,0
1859,7350005005333,登記記録の閉鎖等,0,2024-07-09,2024-07-01,特定非営利活動法人ドンと佐土原まちおこし隊,,その他の設立登記法人,宮崎県,宮崎市,佐土原町上田島１３８７番地１,,45,201,8800301,,,2024-07-01,清算の結了等,,,2015-10-05,1,,,,,ドントサドワラマチオコシタイ,0
1879,7410002013927,登記記録の閉鎖等,0,2024-07-09,2024-07-01,有限会社フェイス,,有限会社,秋田県,横手市,増田町増田字中町７５番地,,05,203,0190701,,,2024-07-01,清算の結了等,,,2015-10-05,1,,,,,フェイス,0
1882,7420001010461,登記記録の閉鎖等,0,2024-07-09,2024-07-02,株式会社おかざき電器,,株式会社,青森県,黒石市,大字上町２番地,,02,204,0360386,,,2024-07-02,清算の結了等,,,2015-10-05,1,,,,,オカザキデンキ,0
1890,7430005014838,登記記録の閉鎖等,0,2024-07-09,2024-07-04,一般社団法人こどもＳＯＳ,,その他の設立登記法人,北海道,石狩郡当別町,若葉２２６３番地８,,01,303,0610204,,,2024-07-04,清算の結了等,,,2023-12-01,1,,,,,コドモエスオーエス,0
1894,7460001001795,登記記録の閉鎖等,0,2024-07-09,2024-07-05,株式会社緑ケ岡スタジオ,,株式会社,北海道,釧路市,緑ケ岡２丁目３８番３号,,01,206,0850814,,,2024-07-05,清算の結了等,,,2015-10-05,1,,,,,ミドリガオカスタジオ,0
1917,8010001191466,登記記録の閉鎖等,0,2024-07-09,2024-07-03,株式会社ＭＢＫハウスマネジメント,,株式会社,東京都,港区,西麻布３丁目３番１号,,13,103,1060031,,,2024-07-03,清算の結了等,,,2018-05-02,1,,,,,エムビーケーハウスマネジメント,0
1925,8010003028708,登記記録の閉鎖等,0,2024-07-09,2024-06-25,Ｔｏｋｙｏ　Ｅｘｐａｎｓｅ２合同会社,,合同会社,東京都,千代田区,丸の内３丁目１番１号東京共同会計事務所内,,13,101,1000005,,,2024-06-25,清算の結了等,,,2018-11-15,1,,,,,トウキョウエクスパンスツー,0
1942,8010501049775,登記記録の閉鎖等,0,2024-07-09,2024-07-08,株式会社啓和,,株式会社,東京都,足立区,小台１丁目６番５号ＫＦ－ＲＯＯＭ小台２０１号室,,13,121,1200046,,,2024-07-08,清算の結了等,,,2022-12-20,1,,,,,ケイワ,0
1946,8010701001115,登記記録の閉鎖等,0,2024-07-09,2024-07-01,株式会社岩付電機製作所,,株式会社,東京都,品川区,中延６丁目１１番１７号,,13,109,1420053,,,2024-07-01,清算の結了等,,,2015-10-05,1,,,,,イワツキデンキセイサクショ,0
1947,8010701002773,登記記録の閉鎖等,0,2024-07-09,2024-07-03,株式会社ＳＳＣ,,株式会社,東京都,品川区,西中延３丁目９番６号,,13,109,1420054,,,2024-07-03,清算の結了等,,,2015-10-05,1,,,,,エスエスシー,0
1948,8010702000611,登記記録の閉鎖等,0,2024-07-09,2024-07-02,飯島鷄卵有限会社,,有限会社,東京都,品川区,東中延１丁目５番１７号,,13,109,1420052,,,2024-07-02,清算の結了等,,,2015-10-05,1,,,,,イイジマケイラン,0
1992,8020001117858,登記記録の閉鎖等,0,2024-07-09,2024-07-01,株式会社シバイチ通建,,株式会社,神奈川県,横浜市保土ケ谷区,常盤台６３番地２クレフォートときわＢ棟２０１号,,14,106,2400067,,,2024-07-01,清算の結了等,,,2016-09-14,1,,,,,シバイチツウケン,0
2002,8021002061500,登記記録の閉鎖等,0,2024-07-09,2024-07-02,有限会社エリオス翻訳,,有限会社,山口県,宇部市,大字船木３８４１番地２,,35,202,7570216,,,2024-07-02,清算の結了等,,,2015-10-05,1,,,,,エリオスホンヤク,0
2003,8030001017710,登記記録の閉鎖等,0,2024-07-09,2024-07-03,株式会社アサノ商事,,株式会社,埼玉県,さいたま市岩槻区,東岩槻６丁目９番地の２３,,11,110,3390005,,,2024-07-03,清算の結了等,,,2015-10-05,1,,,,,アサノショウジ,0
2004,8030001066311,登記記録の閉鎖等,0,2024-07-09,2024-06-14,株式会社ＭＰＲ,,株式会社,埼玉県,北葛飾郡松伏町,大字築比地７９５番地１,,11,465,3430102,,,2024-06-14,合併による解散等,6030001066965,令和６年６月１日埼玉県北葛飾郡松伏町築比地７９５番地１株式会社ウィーズ（6030001066965）に合併し解散,2015-10-05,1,,,,,エムピーアール,0
2007,8030001120299,登記記録の閉鎖等,0,2024-07-09,2024-07-01,サイトラ株式会社,,株式会社,埼玉県,春日部市,増戸２４０番地１,,11,214,3440042,,,2024-07-01,合併による解散等,4030001126424,令和６年７月１日埼玉県さいたま市岩槻区大字真福寺１３６５番地１フロンティア株式会社（4030001126424）に合併し解散,2017-05-18,1,,,,,サイトラ,0
2047,8120001095631,登記記録の閉鎖等,0,2024-07-09,2024-07-08,株式会社コーワシステム,,株式会社,大阪府,大阪市住吉区,山之内４丁目１７番１号,,27,120,5580023,,,2024-07-08,清算の結了等,,,2015-10-05,1,,,,,コーワシステム,0
2050,8120001154370,登記記録の閉鎖等,0,2024-07-09,2024-07-04,株式会社トータル関西,,株式会社,大阪府,大阪市東住吉区,中野３丁目１番１３号,,27,121,5460012,,,2024-07-04,合併による解散等,3120102012713,令和６年７月１日大阪府堺市北区金岡町１９８８番地コトブキマンション２号館１階株式会社ユニオンリスクコンサルタント（3120102012713）に合併し解散,2015-10-05,1,,,,,トータルカンサイ,0
2070,8130001073512,登記記録の閉鎖等,0,2024-07-09,2024-07-02,株式会社幽玄,,株式会社,京都府,京都市下京区,七条通油小路東入大黒町２２７番地第２キョートビル４０２,,26,106,6008223,,,2024-07-02,清算の結了等,,,2023-01-20,1,,,,,ユウゲン,0
2076,8140001118051,登記記録の閉鎖等,0,2024-07-09,2024-07-05,株式会社泉栄,,株式会社,兵庫県,神戸市灘区,大石南町３丁目５番１０号レトア大石Ｉ２０１号,00120301,28,102,6570852,,,2024-07-05,清算の結了等,,,2020-07-20,1,,,,,センエイ,0
2094,8200002007214,登記記録の閉鎖等,0,2024-07-09,2024-06-27,有限会社カワシンインテリアオフィス,,有限会社,岐阜県,各務原市,那加不動丘２丁目７９番地の１,,21,213,5040838,,,2024-06-27,清算の結了等,,,2015-10-05,1,,,,,カワシンインテリアオフィス,0
2095,8210001000573,登記記録の閉鎖等,0,2024-07-09,2024-07-01,株式会社エムズ,,株式会社,福井県,福井市,天池町第３２号７５番地の１,,18,201,9100124,,,2024-07-01,合併による解散等,3210001003903,令和６年７月１日福井市下森田桜町２０５番地松本商事株式会社（3210001003903）に合併し解散,2015-10-05,1,,,,,エムズ,0
2097,8220001022039,登記記録の閉鎖等,0,2024-07-09,2024-07-02,株式会社Ａ．Ｉ．Ｃｏｌｌｅｃｔｉｏｎ,,株式会社,石川県,金沢市,片町２丁目１３番１１号,,17,201,9200981,,,2024-07-02,清算の結了等,,,2017-12-21,1,,,,,アイコレクション,0
2100,8230002009595,登記記録の閉鎖等,0,2024-07-09,2024-07-03,有限会社サイキ,,有限会社,富山県,砺波市,庄川町青島１００番地,,16,208,9320314,,,2024-07-03,清算の結了等,,,2015-10-05,1,,,,,サイキ,0
2113,8290001045405,登記記録の閉鎖等,0,2024-07-09,2024-06-11,株式会社大路商会,,株式会社,福岡県,飯塚市,下三緒１７１番地２５,,40,205,8200012,,,2024-06-11,清算の結了等,,,2015-10-05,1,,,,,オオジショウカイ,0
2138,8320005008271,登記記録の閉鎖等,0,2024-07-09,2024-06-26,一般社団法人大分県竹産業文化振興連合会,,その他の設立登記法人,大分県,別府市,光町１番５号,,44,202,8740930,,,2024-06-26,清算の結了等,,,2015-10-05,1,,,,,オオイタケンタケサンギョウブンカシンコウレンゴウカイ,0
2159,8390001015190,登記記録の閉鎖等,0,2024-07-09,2024-06-24,株式会社エナジーバンク,,株式会社,山形県,最上郡金山町,大字中田１８７番地,,06,361,9995411,,,2024-06-24,清算の結了等,,,2018-02-06,1,,,,,エナジーバンク,0
2163,8420001005849,登記記録の閉鎖等,0,2024-07-09,2024-07-04,株式会社光和電気工業,,株式会社,青森県,八戸市,諏訪１丁目５番１４号,,02,203,0310803,,,2024-07-04,清算の結了等,,,2015-10-05,1,,,,,コウワデンキコウギョウ,0
2168,8460302004430,登記記録の閉鎖等,0,2024-07-09,2024-07-08,有限会社トクノウ建窓,,有限会社,北海道,網走市,字呼人５３０番地の１２,,01,211,0992421,,,2024-07-08,清算の結了等,,,2015-10-05,1,,,,,,0
2203,9010403021377,登記記録の閉鎖等,0,2024-07-09,2024-06-27,サイアプス合同会社,,合同会社,東京都,中央区,日本橋３丁目９番１号日本橋三丁目スクエア１１階,,13,102,1030027,,,2024-06-27,清算の結了等,,,2019-09-02,1,,,,,サイアプス,0
2218,9011103010785,登記記録の閉鎖等,0,2024-07-09,2024-06-28,合同会社粋美,,合同会社,東京都,新宿区,新宿４丁目２番２５号,,13,104,1600022,,,2024-06-28,清算の結了等,,,2021-06-22,1,,,,,スイビ,0
2222,9011301013920,登記記録の閉鎖等,0,2024-07-09,2024-07-01,株式会社ＰＯＷＥＲＰＬＵＧ,,株式会社,東京都,新宿区,西新宿６丁目１０番１号,,13,104,1600023,,,2024-07-01,合併による解散等,7011101101522,令和６年６月３０日東京都新宿区西新宿６－１０－１新宿オークシティ日土地西新宿ビル８ＦＴＯＬＦＡ株式会社（7011101101522）に合併し解散,2015-10-05,1,,,,,パワープラグ,0
2224,9011302004043,登記記録の閉鎖等,0,2024-07-09,2024-07-03,有限会社サムソン,,有限会社,東京都,杉並区,高円寺北３丁目５番１９号,,13,115,1660002,,,2024-07-03,清算の結了等,,,2015-10-05,1,,,,,サムソン,0
2232,9011603001499,登記記録の閉鎖等,0,2024-07-09,2024-07-02,合同会社ＭＡＰＳ,,合同会社,東京都,練馬区,下石神井５丁目８番２３号,,13,120,1770042,,,2024-07-02,清算の結了等,,,2015-10-05,1,,,,,マップス,0
2235,9011702016679,登記記録の閉鎖等,0,2024-07-09,2024-07-02,有限会社ラインドライブ,,有限会社,東京都,江戸川区,小松川２丁目１０番１－７０２号,,13,123,1320034,,,2024-07-02,清算の結了等,,,2015-10-05,1,,,,,ラインドライブ,0
2237,9012302002796,登記記録の閉鎖等,0,2024-07-09,2024-07-03,有限会社ダイエー不動産,,有限会社,東京都,町田市,成瀬７丁目１番９号,,13,209,1940044,,,2024-07-03,清算の結了等,,,2015-10-05,1,,,,,ダイエーフドウサン,0
2241,9012702014020,登記記録の閉鎖等,0,2024-07-09,2024-07-03,有限会社グリーンホップ,,有限会社,静岡県,熱海市,相の原町９番３１号ベルエール熱海来の宮６０１,,22,205,4130039,,,2024-07-03,清算の結了等,,,2015-10-05,1,,,,,グリーンホップ,0
2243,9013101000388,登記記録の閉鎖等,0,2024-07-09,2024-07-03,株式会社マイクロ・サイエンス,,株式会社,東京都,福生市,加美平２丁目１７番地１３,,13,218,1970012,,,2024-07-03,清算の結了等,,,2015-10-05,1,,,,,マイクロサイエンス,0
2246,9013202000898,登記記録の閉鎖等,0,2024-07-09,2024-06-24,有限会社ウィズ,,有限会社,東京都,目黒区,東山１丁目２０番６－３０３号,,13,110,1530043,,,2024-06-24,清算の結了等,,,2015-10-05,1,,,,,ウィズ,0
2273,9030002073314,登記記録の閉鎖等,0,2024-07-09,2024-07-01,有限会社小林商事,,有限会社,埼玉県,川越市,脇田本町１９番地７,,11,201,3501123,,,2024-07-01,清算の結了等,,,2015-10-05,1,,,,,コバヤシショウジ,0
2304,9090001011616,登記記録の閉鎖等,0,2024-07-09,2024-07-03,株式会社グリーン・ハート,,株式会社,山梨県,北杜市,明野町上手９３８９番地３,,19,209,4080204,,,2024-07-03,清算の結了等,,,2015-10-05,1,,,,,グリーンハート,0
2317,9110005009645,登記記録の閉鎖等,0,2024-07-09,2024-07-01,Ｊマテ．バイオマス循環株式会社,,株式会社,新潟県,上越市,頸城区下三分一１番地２５,,15,222,9420143,,,2024-07-01,合併による解散等,6110001019097,令和６年７月１日新潟県上越市大字下名柄１６１８番地１上越マテリアル株式会社（6110001019097）に合併し解散,2015-10-05,1,,,,,ジョーマテバイオマスジュンカン,0
2318,9120001057052,登記記録の閉鎖等,0,2024-07-09,2024-07-08,株式会社テン設計,,株式会社,大阪府,大阪市淀川区,西中島３丁目８番１４号,,27,123,5320011,,,2024-07-08,清算の結了等,,,2015-10-05,1,,,,,テンセッケイ,0
2344,9130002009571,登記記録の閉鎖等,0,2024-07-09,2024-07-02,有限会社グレイシー,,有限会社,京都府,京都市西京区,桂坤町２０番地２,,26,111,6158084,,,2024-07-02,清算の結了等,,,2015-10-05,1,,,,,グレイシー,0
2358,9160001006575,登記記録の閉鎖等,0,2024-07-09,2024-07-02,株式会社久保寺商店,,株式会社,滋賀県,長浜市,分木町４番２９号,,25,203,5260025,,,2024-07-02,清算の結了等,,,2015-10-05,1,,,,,クボデラショウテン,0
2377,9190005004390,登記記録の閉鎖等,0,2024-07-09,2024-06-28,鈴鹿製墨協同組合,,その他の設立登記法人,三重県,鈴鹿市,寺家５丁目５番１５号,,24,207,5100254,,,2024-06-28,清算の結了等,,,2015-10-05,1,,,,,スズカセイボク,0
2380,9210001015323,登記記録の閉鎖等,0,2024-07-09,2024-07-03,株式会社人材戦略,,株式会社,福井県,福井市,中野１丁目６０２番地,,18,201,9188186,,,2024-07-03,清算の結了等,,,2015-10-05,1,,,,,ジンザイセンリャク,0
2382,9210002013524,登記記録の閉鎖等,0,2024-07-09,2024-07-03,有限会社ゆう,,有限会社,福井県,鯖江市,中戸口町第１５号３６番地,,18,207,9161112,,,2024-07-03,清算の結了等,,,2015-10-05,1,,,,,ユウ,0
2386,9230002011534,登記記録の閉鎖等,0,2024-07-09,2024-06-28,有限会社高岡証行,,有限会社,富山県,高岡市,坂下町８２番地,,16,202,9330038,,,2024-06-28,清算の結了等,,,2015-10-05,1,,,,,タカオカショウコウ,0
2395,9260002014939,登記記録の閉鎖等,0,2024-07-09,2024-06-21,有限会社宮向工務店,,有限会社,岡山県,赤磐市,殿谷６２４番地の１,,33,213,7090703,,,2024-06-21,清算の結了等,,,2015-10-05,1,,,,,ミヤムキコウムテン,0
2396,9260002016547,登記記録の閉鎖等,0,2024-07-09,2024-06-27,有限会社吾吉商店,,有限会社,岡山県,倉敷市,連島１丁目１３番１０号,,33,202,7128012,,,2024-06-27,清算の結了等,,,2015-10-05,1,,,,,イツヨシショウテン,0
2404,9290001038399,登記記録の閉鎖等,0,2024-07-09,2024-07-03,株式会社ツズミ商事,,株式会社,福岡県,糟屋郡篠栗町,大字尾仲５９６番地の３,,40,342,8112413,,,2024-07-03,清算の結了等,,,2015-10-05,1,,,,,ツズミショウジ,0
2436,9380002017319,登記記録の閉鎖等,0,2024-07-09,2024-07-01,有限会社ワタナベ設備工業,,有限会社,福島県,本宮市,白岩字根岸３７９番地の５,,07,214,9691203,,,2024-07-01,清算の結了等,,,2015-10-05,1,,,,,ワタナベセツビコウギョウ,0
2460,9500001023049,登記記録の閉鎖等,0,2024-07-09,2024-07-01,株式会社カロン,,株式会社,愛媛県,西条市,下島山クツロギ甲１３２３番地,,38,206,7930000,,,2024-07-01,清算の結了等,,,2020-12-04,1,,,,,カロン,0
2461,9500002017660,登記記録の閉鎖等,0,2024-07-09,2024-07-01,有限会社アドプラン,,有限会社,愛媛県,今治市,南宝来町３丁目５番地２,,38,202,7940043,,,2024-07-01,清算の結了等,,,2015-10-05,1,,,,,アドプラン,0
