sequenceNumber,corporateNumber,process,correct,updateDate,changeDate,name,nameImageId,kind,prefectureName,cityName,streetNumber,addressImageId,prefectureCode,cityCode,postCode,addressOutside,addressOutsideImageId,closeDate,closeCause,successorCorporateNumber,changeCause,assignmentDate,latest,enName,enPrefectureName,enCityName,enAddressOutside,furigana,hihyoji
11,1010001255624,新規,0,2025-06-04,2025-06-04,藤田鋼板アセットマネジメント株式会社,,株式会社,東京都,中央区,新川１丁目１１番１１号,,13,102,1040033,,,,,,,2025-06-04,1,,,,,フジタコウハンアセットマネジメント,0
12,1010001255632,新規,0,2025-06-04,2025-06-04,株式会社ＭＨホールディングス,,株式会社,東京都,千代田区,大手町１丁目１番１号,,13,101,1000004,,,,,,,2025-06-04,1,,,,,エムエイチホールディングス,0
13,1010001255681,新規,0,2025-06-04,2025-06-04,株式会社Ｔｏｂｉｒａ　Ｔｒａｖｅｌ,,株式会社,東京都,中央区,銀座１丁目１２番４号Ｎ＆ＥＢＬＤ．７階,,13,102,1040061,,,,,,,2025-06-04,1,,,,,トビラトラベル,0
17,1010003047128,新規,0,2025-06-04,2025-06-04,Ｙガヤ合同会社,,合同会社,東京都,中央区,築地１丁目４番３－１００８号,,13,102,1040045,,,,,,,2025-06-04,1,,,,,ワイガヤ,0
21,1010005040139,新規,0,2025-06-04,2025-06-04,一般財団法人次世代人材育成基金,,その他の設立登記法人,東京都,千代田区,大手町１丁目７番２号東京サンケイビル２７階,,13,101,1000004,,,,,,,2025-06-04,1,,,,,ジセダイジンザイイクセイキキン,0
22,1010103002593,新規,0,2025-06-04,2025-06-04,合同会社リベルタ,,合同会社,東京都,八王子市,小宮町６７４番地１１,,13,201,1920031,,,,,,,2025-06-04,1,,,,,リベルタ,0
28,1010401190710,新規,0,2025-06-04,2025-06-04,ＶＡＮＮＥ株式会社,,株式会社,東京都,港区,北青山３丁目６番７号青山パラシオタワー１１階,,13,103,1070061,,,,,,,2025-06-04,1,,,,,バン,0
29,1010401190727,新規,0,2025-06-04,2025-06-04,ＬＰ　Ｃａｐｉｔａｌ株式会社,,株式会社,東京都,港区,六本木２丁目３番２号ＶＯＲＴ六本木一丁目８階,,13,103,1060032,,,,,,,2025-06-04,1,,,,,エルピーキャピタル,0
30,1010401190751,新規,0,2025-06-04,2025-06-04,株式会社ＡＣＨＩＥＶＥ,,株式会社,東京都,港区,北青山１丁目３番１号アールキューブ青山３階,,13,103,1070061,,,,,,,2025-06-04,1,,,,,アチーブ,0
32,1010403035228,新規,0,2025-06-04,2025-06-04,合同会社ＧＯＢＩＧ　ＣＯＬＯＲ,,合同会社,東京都,港区,六本木３丁目４－２コープ野村六本木１－３０９号室,,13,103,1060032,,,,,,,2025-06-04,1,,,,,ゴービッグカラー,0
33,1010403035285,新規,0,2025-06-04,2025-06-04,ＳＣＧ８２合同会社,,合同会社,東京都,港区,虎ノ門２丁目６番１号,,13,103,1050001,,,,,,,2025-06-04,1,,,,,エスシージーエイティツー,0
37,1010601067403,新規,0,2025-06-04,2025-06-04,祈月株式会社,,株式会社,東京都,墨田区,向島３丁目４３番９号,,13,107,1310033,,,,,,,2025-06-04,1,,,,,キヅキ,0
38,1010603011615,新規,0,2025-06-04,2025-06-04,合同会社Ｙ３ＭＴ,,合同会社,東京都,江東区,古石場３丁目１２番５－１０１号,,13,108,1350045,,,,,,,2025-06-04,1,,,,,ワイスリーエムティー,0
42,1010901057500,新規,0,2025-06-04,2025-06-04,エヌ＆リーヴス株式会社,,株式会社,東京都,世田谷区,松原５丁目７番１４号,,13,112,1560043,,,,,,,2025-06-04,1,,,,,エヌアンドリーヴス,0
43,1010903009978,新規,0,2025-06-04,2025-06-04,合同会社ユーエフコンサル,,合同会社,東京都,世田谷区,弦巻２丁目１２番２６号ジェイパーク駒沢大学ルミナヴェール１０３,,13,112,1540016,,,,,,,2025-06-04,1,,,,,ユーエフコンサル,0
48,1011001169772,新規,0,2025-06-04,2025-06-04,株式会社ＦｉｎＭａｒｋ　Ｅｄｇｅ,,株式会社,東京都,渋谷区,渋谷２丁目１９番１９号ワコー宮益坂ビル５階,,13,113,1500002,,,,,,,2025-06-04,1,,,,,フィンマークエッジ,0
49,1011001169921,新規,0,2025-06-04,2025-06-04,株式会社ＳＵＮ　ＰＥＥ,,株式会社,東京都,渋谷区,恵比寿西１丁目３４－６－４０１,,13,113,1500021,,,,,,,2025-06-04,1,,,,,サンペエ,0
64,1011101111907,新規,0,2025-06-04,2025-06-04,正時偉業株式会社,,株式会社,東京都,新宿区,西新宿４丁目１７－１０－４０２号,,13,104,1600023,,,,,,,2025-06-04,1,,,,,セイジイギョウ,0
65,1011101111931,新規,0,2025-06-04,2025-06-04,ＴＮアセットマネジメント株式会社,,株式会社,東京都,新宿区,西五軒町３番１０－４０８号,,13,104,1620812,,,,,,,2025-06-04,1,,,,,ティーエヌアセットマネジメント,0
66,1011103015965,新規,0,2025-06-04,2025-06-04,合同会社ツブクスホーム,,合同会社,東京都,新宿区,市谷本村町７番４－３１２号,,13,104,1620845,,,,,,,2025-06-04,1,,,,,ツブクスホーム,0
67,1011103015973,新規,0,2025-06-04,2025-06-04,合同会社Ｓ．Ｔ．Ｋ,,合同会社,東京都,新宿区,西新宿７丁目１８－５Ｖｏｒｔ西新宿５０２,,13,104,1600023,,,,,,,2025-06-04,1,,,,,エスティーケイ,0
68,1011103016014,新規,0,2025-06-04,2025-06-04,Ｅｓｐｙｒｅ　Ｅｎｔｅｒｔａｉｎｍｅｎｔ合同会社,,合同会社,東京都,新宿区,西新宿５丁目８番２号惠徳ビル,,13,104,1600023,,,,,,,2025-06-04,1,,,,,エスパイアエンターテインメント,0
70,1011401027142,新規,0,2025-06-04,2025-06-04,株式会社シーアンドエイチプラン,,株式会社,東京都,板橋区,成増２丁目３２番７－３０４号,,13,119,1750094,,,,,,,2025-06-04,1,,,,,シーアンドエイチプラン,0
78,1011503006564,新規,0,2025-06-04,2025-06-04,ＹＡＧＩ合同会社,,合同会社,東京都,北区,滝野川５丁目２４番５号ヴェルカーサ１０１号,,13,117,1140023,,,,,,,2025-06-04,1,,,,,ヤギ,0
80,1011701028393,新規,0,2025-06-04,2025-06-04,崎一株式会社,,株式会社,東京都,江戸川区,平井５丁目４４－６－２０２号,,13,123,1320035,,,,,,,2025-06-04,1,,,,,サキイチ,0
82,1011801046254,新規,0,2025-06-04,2025-06-04,株式会社ワイ・ジービーサウス,,株式会社,東京都,葛飾区,西新小岩１丁目２番６号ｈ・ｔビル３階,,13,122,1240025,,,,,,,2025-06-04,1,,,,,ワイジービーサウス,0
83,1011801046262,新規,0,2025-06-04,2025-06-04,ＲＰＧ株式会社,,株式会社,東京都,葛飾区,白鳥４丁目１５－９－１０１,,13,122,1250063,,,,,,,2025-06-04,1,,,,,アールピージー,0
84,1012401043170,新規,0,2025-06-04,2025-06-04,株式会社アングリー,,株式会社,東京都,府中市,日新町２丁目１９番地の１４,,13,206,1830036,,,,,,,2025-06-04,1,,,,,アングリー,0
86,1012801024010,新規,0,2025-06-04,2025-06-04,株式会社ａｎｃｏｒｏ,,株式会社,東京都,立川市,曙町２丁目８番２８号,,13,202,1900012,,,,,,,2025-06-04,1,,,,,アンコロ,0
87,1012803003755,新規,0,2025-06-04,2025-06-04,ビルドナカムラ合同会社,,合同会社,東京都,武蔵村山市,大南１丁目１５４番地の１,,13,223,2080013,,,,,,,2025-06-04,1,,,,,ビルドナカムラ,0
103,1020001163165,新規,0,2025-06-04,2025-06-04,株式会社Ａｍｅｌｏ,,株式会社,神奈川県,川崎市高津区,梶ケ谷５丁目５番地３－５０６,,14,134,2130015,,,,,,,2025-06-04,1,,,,,エーメロ,0
104,1020001163173,新規,0,2025-06-04,2025-06-04,株式会社ビーンズ,,株式会社,神奈川県,横浜市保土ケ谷区,上星川２丁目５番４号,,14,106,2400042,,,,,,,2025-06-04,1,,,,,ビーンズ,0
105,1020001163223,新規,0,2025-06-04,2025-06-04,株式会社Ｌｉｎｇｕａ　Ｌｕｍｉｎｕｍ,,株式会社,神奈川県,川崎市麻生区,万福寺４丁目１９番１－４３８号,,14,137,2150004,,,,,,,2025-06-04,1,,,,,リンガルミナム,0
106,1020001163231,新規,0,2025-06-04,2025-06-04,ＳＫＹ建物管理株式会社,,株式会社,神奈川県,川崎市麻生区,王禅寺西７丁目２４番１６号,,14,137,2150017,,,,,,,2025-06-04,1,,,,,スカイタテモノカンリ,0
107,1020001163256,新規,0,2025-06-04,2025-06-04,株式会社ミーツテクノ,,株式会社,神奈川県,横浜市青葉区,美しが丘１丁目１１番地１,,14,117,2250002,,,,,,,2025-06-04,1,,,,,ミーツテクノ,0
111,1020003028639,新規,0,2025-06-04,2025-06-04,ＥＣＯ．Ｐｒｏ合同会社,,合同会社,神奈川県,横浜市南区,別所１丁目１２－１８コムネット上大岡３０５,,14,105,2320064,,,,,,,2025-06-04,1,,,,,,0
123,1030001166844,新規,0,2025-06-04,2025-06-04,宇翼歯科株式会社,,株式会社,埼玉県,川口市,並木３丁目６番１９－２０４号,,11,203,3320034,,,,,,,2025-06-04,1,,,,,ウヨクシカ,0
124,1030001166852,新規,0,2025-06-04,2025-06-04,三和高圧株式会社,,株式会社,埼玉県,さいたま市岩槻区,大字加倉１９８６番地１,,11,110,3390056,,,,,,,2025-06-04,1,,,,,サンワコウアツ,0
125,1030001166877,新規,0,2025-06-04,2025-06-04,株式会社ＢＵＬＬＳＥＹＥ　ＥＮＴＥＲＰＲＩＳＥ,,株式会社,埼玉県,ふじみ野市,福岡中央１丁目１番１５号２１１号室,,11,245,3560031,,,,,,,2025-06-04,1,,,,,ブルズアイエンタープライズ,0
127,1030003026897,新規,0,2025-06-04,2025-06-04,ミムコ合同会社,,合同会社,埼玉県,さいたま市見沼区,大和田町１丁目１１０９番地７,,11,104,3370053,,,,,,,2025-06-04,1,,,,,ミムコ,0
128,1030003026922,新規,0,2025-06-04,2025-06-04,合同会社リメンバー,,合同会社,埼玉県,さいたま市西区,大字内野本郷５５６番地６,,11,101,3310045,,,,,,,2025-06-04,1,,,,,リメンバー,0
129,1040001139007,新規,0,2025-06-04,2025-06-04,株式会社千葉リフォーム,,株式会社,千葉県,八千代市,高津４８８番地２スプレンダー津端１０１号室,,12,221,2760036,,,,,,,2025-06-04,1,,,,,チバリフォーム,0
130,1040001139056,新規,0,2025-06-04,2025-06-04,株式会社フリーデナウ,,株式会社,千葉県,船橋市,前原西７丁目１６番２０号,,12,204,2740825,,,,,,,2025-06-04,1,,,,,フリーデナウ,0
131,1040001139097,新規,0,2025-06-04,2025-06-04,館山の事務を改善する株式会社,,株式会社,千葉県,館山市,北条２０９３－１,,12,205,2940045,,,,,,,2025-06-04,1,,,,,タテヤマノジムヲカイゼンスル,0
134,1050001056721,新規,0,2025-06-04,2025-06-04,株式会社Ｍ・Ｋ・Ａ,,株式会社,茨城県,取手市,台宿２丁目２４番３２号,,08,217,3020013,,,,,,,2025-06-04,1,,,,,エムケイエイ,0
135,1050001056762,新規,0,2025-06-04,2025-06-04,株式会社アークス,,株式会社,茨城県,水戸市,東原２丁目４番１６号,,08,201,3100035,,,,,,,2025-06-04,1,,,,,アークス,0
137,1050003009330,新規,0,2025-06-04,2025-06-04,合同会社ディアライド,,合同会社,茨城県,守谷市,松並青葉２丁目１１番地３,,08,224,3020132,,,,,,,2025-06-04,1,,,,,ディアライド,0
141,1060001038264,新規,0,2025-06-04,2025-06-04,ミユキ総合防災システム株式会社,,株式会社,栃木県,宇都宮市,御幸本町４７３６番地４２,,09,201,3210983,,,,,,,2025-06-04,1,,,,,ミユキソウゴウボウサイシステム,0
142,1060003005576,新規,0,2025-06-04,2025-06-04,合同会社えるどらど,,合同会社,栃木県,芳賀郡市貝町,大字文谷９８１番地２,,09,344,3213413,,,,,,,2025-06-04,1,,,,,エルドラド,0
143,1070003005947,新規,0,2025-06-04,2025-06-04,合同会社タケドー,,合同会社,群馬県,高崎市,倉賀野町８５３番地２０,,10,202,3701201,,,,,,,2025-06-04,1,,,,,タケドー,0
144,1070005010400,新規,0,2025-06-04,2025-06-04,特定非営利活動法人森がお医者さんＦｏｒｅｓｔ　ｉｓ　Ｔｈｅｒａｐｉｓｔ,,その他の設立登記法人,群馬県,吾妻郡高山村,大字中山２２５２番地２１,,10,428,3770702,,,,,,,2025-06-04,1,,,,,,0
145,1080003003470,新規,0,2025-06-04,2025-06-04,Ｂ＆Ｎ　Ｉｎｔｅｒｎａｔｉｏｎａｌ合同会社,,合同会社,静岡県,静岡市葵区,瀬名川１丁目３２番３０号,,22,101,4200913,,,,,,,2025-06-04,1,,,,,ビーアンドエヌインターナショナル,0
147,1080101025532,新規,0,2025-06-04,2025-06-04,株式会社堀内機工,,株式会社,静岡県,富士市,中丸５７９番地の１グレンディールＩＩー１０１号,00139441,22,210,4160933,,,,,,,2025-06-04,1,,,,,ホリウチキコウ,0
148,1080101025540,新規,0,2025-06-04,2025-06-04,株式会社ＰＯＬＩＳＨ　ＢＡＳＥ,,株式会社,静岡県,駿東郡清水町,長沢２５１番地の３サンモールＤ２０１,,22,341,4110905,,,,,,,2025-06-04,1,,,,,ポリッシュベース,0
150,1080103003338,新規,0,2025-06-04,2025-06-04,合同会社ルルジュエルＰＬＵＳ,,合同会社,静岡県,富士市,石坂５７９番地の１７４,,22,210,4170862,,,,,,,2025-06-04,1,,,,,ルルジュエルプラス,0
153,1080401027947,新規,0,2025-06-04,2025-06-04,株式会社フラットエス,,株式会社,静岡県,浜松市中央区,萩丘４丁目１１番２号リーフ萩丘３０１,,22,138,4338121,,,,,,,2025-06-04,1,,,,,フラットエス,0
154,1080401027955,新規,0,2025-06-04,2025-06-04,Ｈ＆Ｒ　ＨＯＬＤＩＮＧＳ株式会社,,株式会社,静岡県,袋井市,天神町１丁目１番地の１２,,22,216,4370067,,,,,,,2025-06-04,1,,,,,エイチアンドアールホールディングス,0
155,1080401027963,新規,0,2025-06-04,2025-06-04,株式会社ＧＨインダストリーズ,,株式会社,静岡県,菊川市,吉沢４９１－１,,22,224,4390009,,,,,,,2025-06-04,1,,,,,ジーエイチインダストリーズ,0
157,1080403005273,新規,0,2025-06-04,2025-06-04,合同会社ＳＳ．ＩＮＴＥＲＮＡＴＩＯＮＡＬ,,合同会社,静岡県,御前崎市,池新田５２２０番地の１ＭｓｂＣ－１,,22,223,4371612,,,,,,,2025-06-04,1,,,,,エスエスインターナショナル,0
159,1100001038664,新規,0,2025-06-04,2025-06-04,佐藤マネジメント株式会社,,株式会社,長野県,小諸市,荒町１丁目５番７号,,20,208,3840014,,,,,,,2025-06-04,1,,,,,サトウマネジメント,0
161,1100003008211,新規,0,2025-06-04,2025-06-04,茅野スポーツリンク＆イノベーション合同会社,,合同会社,長野県,茅野市,ちの３５０２番地１ベルビア２階ワークラボ八ヶ岳２１２,,20,214,3910001,,,,,,,2025-06-04,1,,,,,チノスポーツリンクアンドイノベーション,0
163,1110001039307,新規,0,2025-06-04,2025-06-04,株式会社ボランチ,,株式会社,新潟県,三条市,一ツ屋敷新田２２２番地１,,15,204,9591152,,,,,,,2025-06-04,1,,,,,ボランチ,0
176,1120001276394,新規,0,2025-06-04,2025-06-04,和栄商事株式会社,,株式会社,大阪府,大阪市中央区,東心斎橋１丁目３－１０冨士通商ビル６階,,27,128,5420083,,,,,,,2025-06-04,1,,,,,ワエイショウジ,0
177,1120001276460,新規,0,2025-06-04,2025-06-04,株式会社Ｎｏｂｌｅ＆Ｃｏ．,,株式会社,大阪府,大阪市西区,立売堀１丁目９－１３エアル本町ビル５Ｂ,,27,106,5500012,,,,,,,2025-06-04,1,,,,,ノーブルアンドコー,0
178,1120001276469,新規,0,2025-06-04,2025-06-04,株式会社三村電気,,株式会社,大阪府,寝屋川市,国松町３７番１３号,,27,215,5720016,,,,,,,2025-06-04,1,,,,,ミムラデンキ,0
179,1120001276502,新規,0,2025-06-04,2025-06-04,株式会社Ｅｃｏｍｐａｎｙ,,株式会社,大阪府,大阪市西成区,天下茶屋北１丁目６番１７－７０３号,,27,122,5570003,,,,,,,2025-06-04,1,,,,,イーカンパニー,0
180,1120001276519,新規,0,2025-06-04,2025-06-04,株式会社ブルームネスト,,株式会社,大阪府,大阪市平野区,流町２丁目４番６号,,27,126,5470032,,,,,,,2025-06-04,1,,,,,ブルームネスト,0
184,1120003029692,新規,0,2025-06-04,2025-06-04,Ａｎｔｅｎａｔｏ合同会社,,合同会社,大阪府,大阪市東淀川区,瑞光１丁目２１‐２,,27,114,5330005,,,,,,,2025-06-04,1,,,,,アンテナート,0
188,1120005024972,新規,0,2025-06-04,2025-06-04,社会保険労務士法人つむサポ,,その他の設立登記法人,大阪府,大阪市北区,神山町８番１号梅田辰巳ビル,,27,127,5300026,,,,,,,2025-06-04,1,,,,,ツムサポ,0
190,1120101071786,新規,0,2025-06-04,2025-06-04,リベティ株式会社,,株式会社,大阪府,堺市北区,北花田町３丁３５番地１０,,27,146,5918002,,,,,,,2025-06-04,1,,,,,リベティ,0
191,1120101071811,新規,0,2025-06-04,2025-06-04,株式会社ＣＵＥ,,株式会社,大阪府,阪南市,箱作２５２０番地の２４,,27,232,5990232,,,,,,,2025-06-04,1,,,,,シーユーイー,0
192,1120101071828,新規,0,2025-06-04,2025-06-04,株式会社森永造園,,株式会社,大阪府,河内長野市,中片添町２２番２号,,27,216,5860046,,,,,,,2025-06-04,1,,,,,モリナガゾウエン,0
193,1120103006492,新規,0,2025-06-04,2025-06-04,合同会社ｃａｌｍ,,合同会社,大阪府,岸和田市,下松町２丁目１１番１号２０１号,,27,202,5960823,,,,,,,2025-06-04,1,,,,,カーム,0
197,1120901050989,新規,0,2025-06-04,2025-06-04,株式会社グッドジョブ,,株式会社,大阪府,高槻市,氷室町３丁目５番２号,,27,207,5691141,,,,,,,2025-06-04,1,,,,,グッドジョブ,0
198,1122001039302,新規,0,2025-06-04,2025-06-04,ショウセン株式会社,,株式会社,大阪府,東大阪市,大蓮北３丁目１８－２４－１０１,,27,227,5770826,,,,,,,2025-06-04,1,,,,,ショウセン,0
199,1130001079838,新規,0,2025-06-04,2025-06-04,ｎｉｗａ　ｄｅｓｉｇｎ株式会社,,株式会社,京都府,京都市下京区,小稲荷町８５－２Ｇｒａｎｄ－Ｋ京都駅前ビル２０１,,26,106,6008208,,,,,,,2025-06-04,1,,,,,ニワデザイン,0
206,1140003022134,新規,0,2025-06-04,2025-06-04,合同会社イチ,,合同会社,兵庫県,神戸市東灘区,魚崎北町７丁目９番８－１号,,28,101,6580082,,,,,,,2025-06-04,1,,,,,イチ,0
208,1150001028173,新規,0,2025-06-04,2025-06-04,株式会社十津川地域創生研究所,,株式会社,奈良県,吉野郡十津川村,大字風屋５４３番地,,29,449,6371217,,,,,,,2025-06-04,1,,,,,トツカワチイキソウセイケンキュウショ,0
212,1160003003504,新規,0,2025-06-04,2025-06-04,合同会社さわの,,合同会社,滋賀県,大津市,錦織２丁目５番５１号,,25,201,5200027,,,,,,,2025-06-04,1,,,,,サワノ,0
214,1160005011414,新規,0,2025-06-04,2025-06-04,一般社団法人応縁堂,,その他の設立登記法人,滋賀県,大津市,石山寺２丁目２５番８号,,25,201,5200861,,,,,,,2025-06-04,1,,,,,オウエンドウ,0
216,1170001018651,新規,0,2025-06-04,2025-06-04,株式会社Ｑｒｅａｔｅ,,株式会社,和歌山県,紀の川市,桃山町段６７８番地,,30,208,6496125,,,,,,,2025-06-04,1,,,,,クリエイト,0
220,1180001167076,新規,0,2025-06-04,2025-06-04,株式会社翔建工業,,株式会社,愛知県,名古屋市緑区,大高町字寅新田３３番地の３,,23,114,4598001,,,,,,,2025-06-04,1,,,,,ショウケンコウギョウ,0
221,1180001167134,新規,0,2025-06-04,2025-06-04,株式会社Ｍｅｄｉｃｉｎｅ‐Ｌｉｎｋ,,株式会社,愛知県,名古屋市中村区,二ツ橋町１丁目３５番地,,23,105,4530813,,,,,,,2025-06-04,1,,,,,メディスンリンク,0
225,1180003028532,新規,0,2025-06-04,2025-06-04,合同会社ｒａｉｓｅ,,合同会社,愛知県,海部郡大治町,大字砂子字山ノ浦３９６－１カーサ・ピノ３０２,,23,424,4901143,,,,,,,2025-06-04,1,,,,,,0
226,1180003028581,新規,0,2025-06-04,2025-06-04,合同会社Ｎ　Ｅｓｔａｔｅ,,合同会社,愛知県,一宮市,新生３丁目６－３０ＨａｕｓｋａＴａｌｏＳＨＩＮＳＥＩ２０６号,,23,203,4910912,,,,,,,2025-06-04,1,,,,,エヌエステイト,0
230,1180301039859,新規,0,2025-06-04,2025-06-04,株式会社Ｓｍｉｌｅｙ　Ｓｙｓｔｅｍ,,株式会社,愛知県,安城市,堀内町前山５０番地１,,23,212,4441155,,,,,,,2025-06-04,1,,,,,スマイリーシステム,0
231,1180301039875,新規,0,2025-06-04,2025-06-04,株式会社ミライ品質研究所,,株式会社,愛知県,刈谷市,東境町大坪７９番地１,,23,210,4480007,,,,,,,2025-06-04,1,,,,,ミライヒンシツケンキュウジョ,0
232,1190001032262,新規,0,2025-06-04,2025-06-04,桑名トラックレンタリース株式会社,,株式会社,三重県,桑名市,星見ヶ丘６丁目９０９番地,,24,205,5110912,,,,,,,2025-06-04,1,,,,,クワナトラックレンタリース,0
236,1210001020198,新規,0,2025-06-04,2025-06-04,株式会社Ａｄｍｉｓｉｏｎ,,株式会社,福井県,敦賀市,和久野２５号２７番地の１,,18,202,9140123,,,,,,,2025-06-04,1,,,,,アドミシオン,0
238,1210005010212,新規,0,2025-06-04,2025-06-04,医療法人社団くわばら皮膚科,,その他の設立登記法人,福井県,福井市,城東２丁目６番１号,,18,201,9100853,,,,,,,2025-06-04,1,,,,,シャダンクワバラヒフカ,0
240,1220001026731,新規,0,2025-06-04,2025-06-04,株式会社高野住宅設備,,株式会社,石川県,金沢市,金石北２丁目１８番１０号,,17,201,9200338,,,,,,,2025-06-04,1,,,,,タカノジュウタクセツビ,0
244,1230001020948,新規,0,2025-06-04,2025-06-04,エイトワン株式会社,,株式会社,富山県,富山市,婦中町小泉４１３番地,,16,201,9392752,,,,,,,2025-06-04,1,,,,,エイトワン,0
247,1240001065042,新規,0,2025-06-04,2025-06-04,株式会社Ｗｄｙ．Ｌａｂｏ,,株式会社,広島県,広島市中区,竹屋町３番２２－４０３号,,34,101,7300048,,,,,,,2025-06-04,1,,,,,ダブリューディーワイラボ,0
248,1240003007240,新規,0,2025-06-04,2025-06-04,ケーズプロジェクト合同会社,,合同会社,広島県,安芸郡府中町,柳ケ丘７７番５号,,34,302,7350014,,,,,,,2025-06-04,1,,,,,ケーズプロジェクト,0
255,1250003003742,新規,0,2025-06-04,2025-06-04,カラーズ合同会社,,合同会社,山口県,山口市,阿知須６５９３番地５,,35,203,7541277,,,,,,,2025-06-04,1,,,,,カラーズ,0
258,1270001009211,新規,0,2025-06-04,2025-06-04,株式会社同新,,株式会社,鳥取県,東伯郡北栄町,下神１５０番地２,,31,372,6892105,,,,,,,2025-06-04,1,,,,,ドウシン,0
263,1290001110248,新規,0,2025-06-04,2025-06-04,株式会社Ｓｈｉｎｉｎｇ　Ｅｓｔａｔｅ,,株式会社,福岡県,久留米市,御井町１９９５番地１７,,40,203,8390851,,,,,,,2025-06-04,1,,,,,シャイニングエステート,0
264,1290001110272,新規,0,2025-06-04,2025-06-04,株式会社ＥＲＡＩ,,株式会社,福岡県,大野城市,乙金東４丁目２番１４号,,40,219,8160901,,,,,,,2025-06-04,1,,,,,エライ,0
265,1290003016947,新規,0,2025-06-04,2025-06-04,合同会社Ｌｉｇｈｔ,,合同会社,福岡県,福岡市博多区,博多駅前１丁目２３番２号ＰａｒｋＦｒｏｎｔ５Ｆ－Ｂ,,40,132,8120011,,,,,,,2025-06-04,1,,,,,ライト,0
273,1290801031585,新規,0,2025-06-04,2025-06-04,株式会社３６９,,株式会社,福岡県,北九州市小倉北区,片野４丁目１番８号,,40,106,8020064,,,,,,,2025-06-04,1,,,,,ミロク,0
274,1300001014208,新規,0,2025-06-04,2025-06-04,株式会社ｌｉｌｙ,,株式会社,佐賀県,伊万里市,大坪町甲１００７－３,,41,205,8480021,,,,,,,2025-06-04,1,,,,,リリ,0
275,1300001014216,新規,0,2025-06-04,2025-06-04,株式会社クローバー,,株式会社,佐賀県,伊万里市,二里町八谷搦１３番地１４,,41,205,8480031,,,,,,,2025-06-04,1,,,,,クローバー,0
277,1310001019627,新規,0,2025-06-04,2025-06-04,株式会社ＳＨＩＮＹＡ,,株式会社,長崎県,佐世保市,日野町１００２番地２４,,42,202,8580923,,,,,,,2025-06-04,1,,,,,シンヤ,0
278,1310003005022,新規,0,2025-06-04,2025-06-04,合同会社ＮａｇａＪａｍ,,合同会社,長崎県,長崎市,多以良町２１１０番地１３,,42,201,8512213,,,,,,,2025-06-04,1,,,,,ナガジャム,0
280,1330001033254,新規,0,2025-06-04,2025-06-04,株式会社ライフ・モア,,株式会社,熊本県,菊池市,泗水町住吉２１８６番地１３,,43,210,8611203,,,,,,,2025-06-04,1,,,,,ライフモア,0
281,1330001033262,新規,0,2025-06-04,2025-06-04,株式会社Ｒｅａｌｉｚｅ,,株式会社,熊本県,熊本市中央区,壺川１丁目９番４３号,,43,101,8600076,,,,,,,2025-06-04,1,,,,,リアライズ,0
282,1340001027387,新規,0,2025-06-04,2025-06-04,株式会社成陽タイル技建,,株式会社,鹿児島県,鹿児島市,清和２丁目９番１１－１号,,46,201,8910109,,,,,,,2025-06-04,1,,,,,セイヨウタイルギケン,0
285,1350003004945,新規,0,2025-06-04,2025-06-04,合同会社ＥＮＴＥＲＡＳ,,合同会社,宮崎県,宮崎市,大字糸原２５１９番地,,45,201,8802231,,,,,,,2025-06-04,1,,,,,エンテラス,0
288,1370003007120,新規,0,2025-06-04,2025-06-04,ｓｉｎｇｅｒ合同会社,,合同会社,宮城県,仙台市青葉区,昭和町４―９―３０７,,04,101,9810913,,,,,,,2025-06-04,1,,,,,シンガー,0
290,1380001035345,新規,0,2025-06-04,2025-06-04,株式会社ループ食品,,株式会社,福島県,相馬市,尾浜字追川１８６番地の５,,07,209,9760022,,,,,,,2025-06-04,1,,,,,ループショクヒン,0
291,1380001035361,新規,0,2025-06-04,2025-06-04,株式会社ＡＫＡＴＵＫＩ,,株式会社,福島県,郡山市,富田町字下小次郎木３３番地２,,07,203,9638041,,,,,,,2025-06-04,1,,,,,アカツキ,0
301,1430001094567,新規,0,2025-06-04,2025-06-04,株式会社ＡＺＵｊｉｎｏ,,株式会社,北海道,札幌市北区,新琴似十条１丁目７番２１号リヒトラーレ麻生１Ｆ,,01,102,0010910,,,,,,,2025-06-04,1,,,,,アズジーノ,0
302,1430001094591,新規,0,2025-06-04,2025-06-04,株式会社キカセテ,,株式会社,北海道,札幌市清田区,美しが丘三条２丁目４番８号,,01,110,0040813,,,,,,,2025-06-04,1,,,,,キカセテ,0
306,1430002064222,新規,0,2025-06-04,2025-06-04,有限会社サトー商事,,有限会社,北海道,室蘭市,宮の森町３丁目１４番２号,,01,205,0500073,,,,,,,2025-06-04,1,,,,,,0
308,1430003017724,新規,0,2025-06-04,2025-06-04,リラチャ合同会社,,合同会社,北海道,札幌市南区,川沿一条２丁目１２番２３号,,01,106,0050801,,,,,,,2025-06-04,1,,,,,リラチャ,0
311,1450001014639,新規,0,2025-06-04,2025-06-04,株式会社Ｄｅｓｓｉｎａｔｅｕｒｉｃｅ１１５,,株式会社,北海道,旭川市,台場東３丁目３９８番地の１８６,,01,204,0708027,,,,,,,2025-06-04,1,,,,,デシナトゥーリスサンケンズ,0
312,1460003001056,新規,0,2025-06-04,2025-06-04,合同会社インベスト,,合同会社,北海道,釧路市,星が浦大通１丁目４番３５号,,01,206,0840912,,,,,,,2025-06-04,1,,,,,インベスト,0
314,1470001020742,新規,0,2025-06-04,2025-06-04,株式会社笙,,株式会社,香川県,仲多度郡多度津町,大字三井７９３番地１,,37,404,7640032,,,,,,,2025-06-04,1,,,,,ショウ,0
315,1480001012854,新規,0,2025-06-04,2025-06-04,株式会社武力屋,,株式会社,徳島県,徳島市,新浜町１丁目１－１８,,36,201,7708006,,,,,,,2025-06-04,1,,,,,ブリキヤ,0
318,1500001026331,新規,0,2025-06-04,2025-06-04,株式会社カジノＤＥＣＯプロ,,株式会社,愛媛県,伊予郡松前町,大字西古泉４７８番地１,,38,401,7913134,,,,,,,2025-06-04,1,,,,,カジノデコプロ,0
320,1500003003527,新規,0,2025-06-04,2025-06-04,合同会社シナモン,,合同会社,愛媛県,松山市,道後湯之町４番５０号,,38,201,7900842,,,,,,,2025-06-04,1,,,,,シナモン,0
334,2010001254955,新規,0,2025-06-04,2025-06-04,Ｔｈｒｅｅ株式会社,,株式会社,東京都,中央区,銀座１丁目２２番１１号,,13,102,1040061,,,,,,,2025-06-04,1,,,,,スリー,0
335,2010001255425,新規,0,2025-06-04,2025-06-04,株式会社ＢＬＵＥＢＡＣＫＳ,,株式会社,東京都,中央区,築地６丁目２４番５－１０２号,,13,102,1040045,,,,,,,2025-06-04,1,,,,,ブルーバックス,0
336,2010001255598,新規,0,2025-06-04,2025-06-04,安倉商事株式会社,,株式会社,東京都,文京区,白山１丁目６番４号文京ＶｅｎｔｕｒｅＢａｓｅ２１１室,,13,105,1130001,,,,,,,2025-06-04,1,,,,,アクラショウジ,0
337,2010001255680,新規,0,2025-06-04,2025-06-04,Ｍｓ＆ｉ株式会社,,株式会社,東京都,千代田区,四番町２番地１クレール東郷坂１Ｆ,,13,101,1020081,,,,,,,2025-06-04,1,,,,,エムエスアンドアイ,0
339,2010005040146,新規,0,2025-06-04,2025-06-04,一般社団法人日本赤外線暗視カメラ協会,,その他の設立登記法人,東京都,文京区,湯島２丁目２－１６御茶ノ水クロスビル２階,,13,105,1130034,,,,,,,2025-06-04,1,,,,,ニホンセキガイセンアンシカメラキョウカイ,0
340,2010103002592,新規,0,2025-06-04,2025-06-04,アイエスティ合同会社,,合同会社,東京都,八王子市,大塚９４番地１５,,13,201,1920352,,,,,,,2025-06-04,1,,,,,アイエスティ,0
362,2010403035284,新規,0,2025-06-04,2025-06-04,ＳＣＧ８１合同会社,,合同会社,東京都,港区,虎ノ門２丁目６番１号,,13,103,1050001,,,,,,,2025-06-04,1,,,,,エスシージーエイティワン,0
363,2010405024401,新規,0,2025-06-04,2025-06-04,一般社団法人碧の森,,その他の設立登記法人,東京都,港区,浜松町２丁目２番１５号浜松町ダイヤビル２階,,13,103,1050013,,,,,,,2025-06-04,1,,,,,アオノモリ,0
364,2010405024459,新規,0,2025-06-04,2025-06-04,ＳＣＧ８１一般社団法人,,その他の設立登記法人,東京都,港区,虎ノ門２丁目６番１号,,13,103,1050001,,,,,,,2025-06-04,1,,,,,エスシージーエイティワン,0
366,2010501054070,新規,0,2025-06-04,2025-06-04,大磐食品株式会社,,株式会社,東京都,台東区,日本堤１丁目４－２－２０１,,13,106,1110021,,,,,,,2025-06-04,1,,,,,ダイバンショクヒン,0
373,2010601067419,新規,0,2025-06-04,2025-06-04,株式会社活飛,,株式会社,東京都,墨田区,堤通２丁目７番１０－１２０８号,,13,107,1310034,,,,,,,2025-06-04,1,,,,,カットビ,0
378,2010701047799,新規,0,2025-06-04,2025-06-04,株式会社Ｍ．Ａ．Ｃ桜,,株式会社,東京都,品川区,西五反田５丁目２６番１０号ＬＥＧＡＬＡＮＤ不動前ＡＮＮＥＸ１０３号室,,13,109,1410031,,,,,,,2025-06-04,1,,,,,エムエーシーサクラ,0
388,2010901057441,新規,0,2025-06-04,2025-06-04,株式会社セッタ,,株式会社,東京都,世田谷区,成城４丁目６－６,,13,112,1570066,,,,,,,2025-06-04,1,,,,,セッタ,0
389,2010901057482,新規,0,2025-06-04,2025-06-04,株式会社Ｋホールディングス,,株式会社,東京都,世田谷区,下馬３丁目２０番１１号,,13,112,1540002,,,,,,,2025-06-04,1,,,,,ケイホールディングス,0
390,2010901057490,新規,0,2025-06-04,2025-06-04,Ｕｃｈｉ　Ｓｔｕｄｉｏ株式会社,,株式会社,東京都,世田谷区,上馬４丁目１３番１１号,,13,112,1540011,,,,,,,2025-06-04,1,,,,,ウチスタジオ,0
391,2010903009977,新規,0,2025-06-04,2025-06-04,ウェルス合同会社,,合同会社,東京都,世田谷区,若林２丁目７番５号,,13,112,1540023,,,,,,,2025-06-04,1,,,,,ウェルス,0
396,2011001169747,新規,0,2025-06-04,2025-06-04,フリーランスコネクト株式会社,,株式会社,東京都,渋谷区,神南１丁目１１－４ＦＰＧリンクス神南５階,,13,113,1500041,,,,,,,2025-06-04,1,,,,,フリーランスコネクト,0
397,2011001169771,新規,0,2025-06-04,2025-06-04,株式会社パスクリ,,株式会社,東京都,渋谷区,道玄坂１丁目１０番８号渋谷道玄坂東急ビル２Ｆ－Ｃ,,13,113,1500043,,,,,,,2025-06-04,1,,,,,パスクリ,0
398,2011001169796,新規,0,2025-06-04,2025-06-04,株式会社Ｎｅｘｕｓ　Ｕｐ,,株式会社,東京都,渋谷区,円山町５番３号ＭＩＥＵＸ渋谷ビル８階,,13,113,1500044,,,,,,,2025-06-04,1,,,,,ネクサスアップ,0
399,2011001169805,新規,0,2025-06-04,2025-06-04,メドリング株式会社,,株式会社,東京都,渋谷区,道玄坂２丁目１６番４号野村不動産渋谷道玄坂ビル２階,,13,113,1500043,,,,,,,2025-06-04,1,,,,,メドリング,0
400,2011001169838,新規,0,2025-06-04,2025-06-04,株式会社Ｒｅｖｏ,,株式会社,東京都,渋谷区,渋谷２丁目１９番１５号宮益坂ビルディング６０９,,13,113,1500002,,,,,,,2025-06-04,1,,,,,レボ,0
401,2011001169854,新規,0,2025-06-04,2025-06-04,Ｋサイクル株式会社,,株式会社,東京都,目黒区,下目黒２丁目２０番１５号アトモスフィア青山２０２,,13,110,1530064,,,,,,,2025-06-04,1,,,,,ケイサイクル,0
402,2011003021666,新規,0,2025-06-04,2025-06-04,ＭＡＴ合同会社,,合同会社,東京都,渋谷区,上原２丁目４７番５－２０９号,,13,113,1510064,,,,,,,2025-06-04,1,,,,,エムエーティー,0
410,2011303005591,新規,0,2025-06-04,2025-06-04,合同会社ソルヴィナ,,合同会社,東京都,杉並区,阿佐谷北６丁目２３番２１号,,13,115,1660001,,,,,,,2025-06-04,1,,,,,ソルヴィナ,0
411,2011401027141,新規,0,2025-06-04,2025-06-04,株式会社Ｔ’ｓプランニング,,株式会社,東京都,板橋区,高島平９丁目１２番１４号Ｋ．Ｙビル３０３,,13,119,1750082,,,,,,,2025-06-04,1,,,,,ティーズプランニング,0
412,2011503006555,新規,0,2025-06-04,2025-06-04,合同会社どっこいしょ,,合同会社,東京都,荒川区,南千住７丁目２０番１－８１５号,,13,118,1160003,,,,,,,2025-06-04,1,,,,,ドッコイショ,0
413,2011503006563,新規,0,2025-06-04,2025-06-04,合同会社ＧｏｏＤｏｏｒ,,合同会社,東京都,北区,王子４丁目１４番１３－３０３号アゼリアヒルハイツ,,13,117,1140002,,,,,,,2025-06-04,1,,,,,グッドアー,0
419,2011801046245,新規,0,2025-06-04,2025-06-04,株式会社リアン,,株式会社,東京都,足立区,大谷田１丁目２１番１号,,13,121,1200001,,,,,,,2025-06-04,1,,,,,リアン,0
423,2012403007164,新規,0,2025-06-04,2025-06-04,合同会社ティーアンドエム,,合同会社,東京都,多摩市,和田１１９２－１－３０５,,13,224,2060001,,,,,,,2025-06-04,1,,,,,ティーアンドエム,0
424,2012403007172,新規,0,2025-06-04,2025-06-04,ＩＭＫ合名会社,,合名会社,東京都,府中市,白糸台２丁目６番地の６,,13,206,1830011,,,,,,,2025-06-04,1,,,,,,0
432,2020001163172,新規,0,2025-06-04,2025-06-04,ＦＬＡＧ株式会社,,株式会社,神奈川県,横浜市中区,本牧三之谷４３番２号コートドール本牧１０１号室,,14,104,2310824,,,,,,,2025-06-04,1,,,,,フラッグ,0
433,2020001163214,新規,0,2025-06-04,2025-06-04,メロティ株式会社,,株式会社,神奈川県,横浜市西区,北幸１丁目１１番１号水信ビル７階,,14,103,2200004,,,,,,,2025-06-04,1,,,,,メロティ,0
434,2020001163230,新規,0,2025-06-04,2025-06-04,ブルースカイ株式会社,,株式会社,神奈川県,横浜市戸塚区,前田町１９８番地１ヴェレーナ東戸塚ＩＩ７０２号,00139442,14,110,2440804,,,,,,,2025-06-04,1,,,,,ブルースカイ,0
435,2020001163263,新規,0,2025-06-04,2025-06-04,株式会社令和林ビルメンテナンス,,株式会社,神奈川県,横浜市南区,永田北３丁目３２番５－１号,,14,105,2320071,,,,,,,2025-06-04,1,,,,,レイワハヤシビルメンテナンス,0
463,2040003027737,新規,0,2025-06-04,2025-06-04,合同会社ドリーム,,合同会社,千葉県,船橋市,二和東５丁目３９番１号,,12,204,2740805,,,,,,,2025-06-04,1,,,,,ドリーム,0
464,2040003027753,新規,0,2025-06-04,2025-06-04,合同会社Ｌｉｔｔｌｅ　ｂｙ　ｌｉｔｔｌｅ,,合同会社,千葉県,東金市,堀上９０２番地６,,12,213,2830063,,,,,,,2025-06-04,1,,,,,リトルバイリトル,0
469,2050001056778,新規,0,2025-06-04,2025-06-04,株式会社ＣＯＣＣＩＮＥＬＬＡ,,株式会社,茨城県,守谷市,久保ケ丘１丁目１８―１２,,08,224,3020104,,,,,,,2025-06-04,1,,,,,コッチネッラ,0
484,2080001026968,新規,0,2025-06-04,2025-06-04,株式会社いちご実加藤農園,,株式会社,静岡県,静岡市葵区,西ケ谷２６５番地,,22,101,4212116,,,,,,,2025-06-04,1,,,,,イチゴミカトウノウエン,0
485,2080001026976,新規,0,2025-06-04,2025-06-04,ｅ‐ｃｒｕｓｔ株式会社,,株式会社,静岡県,静岡市清水区,広瀬７８３－１－１,,22,103,4240102,,,,,,,2025-06-04,1,,,,,イークラスト,0
488,2080101025531,新規,0,2025-06-04,2025-06-04,株式会社Ｍａｓａ　Ｇａｒａｇｅ,,株式会社,静岡県,沼津市,下香貫木ノ宮８６５番地の１１,,22,203,4100822,,,,,,,2025-06-04,1,,,,,マサガレージ,0
489,2080103003337,新規,0,2025-06-04,2025-06-04,みんなのｈａｎｄｓ合同会社,,合同会社,静岡県,富士市,中丸４７７番地の５,,22,210,4160933,,,,,,,2025-06-04,1,,,,,ミンナノハンズ,0
493,2080401027946,新規,0,2025-06-04,2025-06-04,株式会社西部クレーン保温工事,,株式会社,静岡県,磐田市,草崎１２番地５,,22,211,4380067,,,,,,,2025-06-04,1,,,,,セイブクレーンホオンコウジ,0
499,2090003002834,新規,0,2025-06-04,2025-06-04,合同会社Ｆｕｆｕｐｕｒｅ,,合同会社,山梨県,甲府市,里吉４丁目９－１６,,19,201,4000822,,,,,,,2025-06-04,1,,,,,フフピュア,0
502,2100003008202,新規,0,2025-06-04,2025-06-04,合同会社いとう,,合同会社,長野県,飯山市,大字木島６８２番地１４,,20,213,3892234,,,,,,,2025-06-04,1,,,,,イトウ,0
503,2100003008210,新規,0,2025-06-04,2025-06-04,アップルズ合同会社,,合同会社,長野県,安曇野市,穂高有明１７０番地６,,20,220,3998301,,,,,,,2025-06-04,1,,,,,アップルズ,0
504,2100005013357,新規,0,2025-06-04,2025-06-04,縁途協同組合,,その他の設立登記法人,長野県,長野市,松代町岩野６７５,,20,201,3811234,,,,,,,2025-06-04,1,,,,,エント,0
507,2110005017233,新規,0,2025-06-04,2025-06-04,一般社団法人ｙｕｋｉｎｏｗａ,,その他の設立登記法人,新潟県,南魚沼市,六日町１２４番地２,,15,226,9496680,,,,,,,2025-06-04,1,,,,,ユキノワ,0
519,2120001276427,新規,0,2025-06-04,2025-06-04,源氣株式会社,,株式会社,大阪府,守口市,大枝北町１３－１,,27,209,5700037,,,,,,,2025-06-04,1,,,,,ゲンキ,0
520,2120001276443,新規,0,2025-06-04,2025-06-04,ヒシムラ技建株式会社,,株式会社,大阪府,大阪市平野区,背戸口２丁目１５番２号,,27,126,5470034,,,,,,,2025-06-04,1,,,,,ヒシムラギケン,0
521,2120001276451,新規,0,2025-06-04,2025-06-04,株式会社Ｇ‐ＭＥＣ,,株式会社,大阪府,大阪市中央区,日本橋１丁目２５番１５号リバーサイド日本橋４０３号,,27,128,5420073,,,,,,,2025-06-04,1,,,,,ジーメック,0
522,2120001276484,新規,0,2025-06-04,2025-06-04,ＯＪＣ株式会社,,株式会社,大阪府,大阪市天王寺区,烏ケ辻２丁目２番１１号天王寺福岡ビル４０Ｂ,00139439,27,109,5430042,,,,,,,2025-06-04,1,,,,,オージェイシー,0
523,2120001276501,新規,0,2025-06-04,2025-06-04,株式会社Ｍ＆Ｄ,,株式会社,大阪府,枚方市,岡山手町２番９号,,27,210,5730034,,,,,,,2025-06-04,1,,,,,エムアンドディー,0
524,2120001276518,新規,0,2025-06-04,2025-06-04,株式会社Ｒ・Ｅ・Ｙコーポレーション,,株式会社,大阪府,枚方市,藤阪元町２丁目５０番１－３０４号,,27,210,5730157,,,,,,,2025-06-04,1,,,,,アールイーワイコーポレーション,0
527,2120003029659,新規,0,2025-06-04,2025-06-04,合同会社安心運輸,,合同会社,大阪府,大阪市生野区,生野西１丁目３番２６号,,27,116,5440024,,,,,,,2025-06-04,1,,,,,アンシンウンユ,0
528,2120003029667,新規,0,2025-06-04,2025-06-04,合同会社ラボグループ,,合同会社,大阪府,大阪市港区,波除２丁目４番１２号２階,,27,107,5520001,,,,,,,2025-06-04,1,,,,,ラボグループ,0
529,2120101071802,新規,0,2025-06-04,2025-06-04,株式会社ココロ商店,,株式会社,大阪府,堺市西区,浜寺諏訪森町東２丁１２４番地１７,,27,144,5928349,,,,,,,2025-06-04,1,,,,,ココロショウテン,0
530,2120101071819,新規,0,2025-06-04,2025-06-04,西村工業株式会社,,株式会社,大阪府,貝塚市,森４６０－１,,27,208,5970044,,,,,,,2025-06-04,1,,,,,ニシムラコウギョウ,0
531,2120101071827,新規,0,2025-06-04,2025-06-04,株式会社新光電設,,株式会社,大阪府,松原市,阿保３丁目２番１８号,,27,217,5800043,,,,,,,2025-06-04,1,,,,,シンコウデンセツ,0
538,2120905006739,新規,0,2025-06-04,2025-06-04,一般社団法人トータルリフォームネット,,その他の設立登記法人,大阪府,池田市,鉢塚３丁目７－１３,,27,204,5630024,,,,,,,2025-06-04,1,,,,,トータルリフォームネット,0
549,2150001028180,新規,0,2025-06-04,2025-06-04,株式会社グランティス,,株式会社,奈良県,橿原市,五井町４７番地の６,,29,205,6340832,,,,,,,2025-06-04,1,,,,,グランティス,0
552,2160003003503,新規,0,2025-06-04,2025-06-04,合同会社はるのゆこと,,合同会社,滋賀県,長浜市,小野寺町５０９番地７,,25,203,5260221,,,,,,,2025-06-04,1,,,,,ハルノユコト,0
559,2180001167166,新規,0,2025-06-04,2025-06-04,株式会社ｇｏｏｄ　ｎａｔｕｒｅｄ’ｓ,,株式会社,愛知県,名古屋市中区,橘１丁目１７－２５,,23,106,4600016,,,,,,,2025-06-04,1,,,,,グッドネイチャーズ,0
568,2190001032286,新規,0,2025-06-04,2025-06-04,株式会社トレーディア,,株式会社,三重県,四日市市,東新町４番２６号,,24,202,5100025,,,,,,,2025-06-04,1,,,,,トレーディア,0
573,2220001026722,新規,0,2025-06-04,2025-06-04,エアーネクト株式会社,,株式会社,石川県,野々市市,郷１丁目１８９番地,,17,212,9218849,,,,,,,2025-06-04,1,,,,,エアーネクト,0
574,2220001026730,新規,0,2025-06-04,2025-06-04,株式会社ＡＳ　ｓｕｐｐｏｒｔ　ｃｏｎｎｅｃｔ,,株式会社,石川県,珠洲市,正院町川尻字狩的部２２,,17,205,9271205,,,,,,,2025-06-04,1,,,,,エーエスサポートコネクト,0
578,2230001020947,新規,0,2025-06-04,2025-06-04,株式会社ＳＴＯＲＹ　ＦＡＲＭ,,株式会社,富山県,高岡市,波岡１７４番地２,,16,202,9330958,,,,,,,2025-06-04,1,,,,,ストーリーファーム,0
582,2240001065033,新規,0,2025-06-04,2025-06-04,株式会社ＬＩＶＥＣＯＯＬ,,株式会社,広島県,広島市中区,大手町１丁目１番２０号相生橋ビル７－Ａ,,34,101,7300051,,,,,,,2025-06-04,1,,,,,リブクール,0
589,2260001040232,新規,0,2025-06-04,2025-06-04,株式会社アイ,,株式会社,岡山県,倉敷市,中島６８６番地７,,33,202,7100803,,,,,,,2025-06-04,1,,,,,アイ,0
594,2290001110255,新規,0,2025-06-04,2025-06-04,ラシッツ株式会社,,株式会社,福岡県,福岡市博多区,浦田１丁目２０番２８号,,40,132,8120861,,,,,,,2025-06-04,1,,,,,ラシッツ,0
601,2290801031592,新規,0,2025-06-04,2025-06-04,株式会社田村農場,,株式会社,福岡県,築上郡築上町,大字越路３０６番地３,,40,647,8290332,,,,,,,2025-06-04,1,,,,,タムラノウジョウ,0
604,2300001014207,新規,0,2025-06-04,2025-06-04,株式会社Ｐｌｕｓ　Ｕ,,株式会社,佐賀県,小城市,牛津町柿樋瀬１１２９番地１,00139430,41,208,8490302,,,,,,,2025-06-04,1,,,,,プラスユー,0
615,2350001019572,新規,0,2025-06-04,2025-06-04,株式会社大木建設,,株式会社,宮崎県,児湯郡新富町,大字日置９６４番地５７,,45,402,8891401,,,,,,,2025-06-04,1,,,,,オオキケンセツ,0
623,2370005010971,新規,0,2025-06-04,2025-06-04,そなえる相続行政書士法人,,その他の設立登記法人,宮城県,仙台市宮城野区,鉄砲町東４番地の６榴ケ岡ハイデンス５０１,,04,102,9830867,,,,,,,2025-06-04,1,,,,,ソナエルソウゾク,0
628,2380003006062,新規,0,2025-06-04,2025-06-04,合同会社ｎａｐｏ,,合同会社,福島県,いわき市,郷ケ丘１丁目２８番地の１２,,07,204,9708045,,,,,,,2025-06-04,1,,,,,ナポ,0
635,2410001014170,新規,0,2025-06-04,2025-06-04,株式会社志,,株式会社,秋田県,秋田市,手形山崎町１０番１３号,,05,201,0100854,,,,,,,2025-06-04,1,,,,,ココロザシ,0
637,2430001094582,新規,0,2025-06-04,2025-06-04,株式会社Ｔ’ｓ　ＨＯＭＥ,,株式会社,北海道,札幌市東区,北四十三条東８丁目１番５号,,01,103,0070843,,,,,,,2025-06-04,1,,,,,ティーズホーム,0
638,2430001094590,新規,0,2025-06-04,2025-06-04,株式会社宮技建,,株式会社,北海道,札幌市北区,あいの里三条５丁目８番１７号,,01,102,0028073,,,,,,,2025-06-04,1,,,,,ミヤギケン,0
639,2430001094632,新規,0,2025-06-04,2025-06-04,株式会社匠,,株式会社,北海道,札幌市清田区,北野五条４丁目１７番１３号,,01,110,0040865,,,,,,,2025-06-04,1,,,,,タクミ,0
644,2440001009622,新規,0,2025-06-04,2025-06-04,株式会社のために,,株式会社,北海道,函館市,湯川町３丁目２５番１５号,,01,202,0420932,,,,,,,2025-06-04,1,,,,,ノタメニ,0
645,2450005004453,新規,0,2025-06-04,2025-06-04,一般社団法人ＹＡＲＤ,,その他の設立登記法人,北海道,中川郡中川町,字中川３９７－２,,01,471,0982802,,,,,,,2025-06-04,1,,,,,ヤード,0
648,2470003002894,新規,0,2025-06-04,2025-06-04,合同会社ＫＡＹ,,合同会社,香川県,さぬき市,津田町鶴羽６８９番地１,,37,206,7692402,,,,,,,2025-06-04,1,,,,,,0
651,2500001026330,新規,0,2025-06-04,2025-06-04,株式会社ＴＯＩＲＯ,,株式会社,愛媛県,松山市,千舟町５丁目１番地６三宅ビル６階,,38,201,7900011,,,,,,,2025-06-04,1,,,,,トイロ,0
652,2500001026339,新規,0,2025-06-04,2025-06-04,ＲＩＮＡＲＳ自動車株式会社,,株式会社,愛媛県,新居浜市,磯浦町９番２７号,,38,205,7920002,,,,,,,2025-06-04,1,,,,,リナーズジドウシャ,0
653,2500003003526,新規,0,2025-06-04,2025-06-04,末廣のとうまんじゅう合同会社,,合同会社,愛媛県,大洲市,平野町野田乙７０２番地４,,38,207,7950021,,,,,,,2025-06-04,1,,,,,スエヒロノトウマンジュウ,0
671,3010001255622,新規,0,2025-06-04,2025-06-04,株式会社ライフシフトワークス,,株式会社,東京都,千代田区,神田和泉町１番地６―１６ヤマトビル４０５,,13,101,1010024,,,,,,,2025-06-04,1,,,,,ライフシフトワークス,0
672,3010001255655,新規,0,2025-06-04,2025-06-04,ＷｏｎｄｅｒＳｃａｐｅ株式会社,,株式会社,東京都,中央区,八重洲１丁目４番１６号,,13,102,1030028,,,,,,,2025-06-04,1,,,,,ワンダースケープ,0
673,3010001255663,新規,0,2025-06-04,2025-06-04,Ｊａｐａｎ８メディカルキャリア支援協会株式会社,,株式会社,東京都,中央区,月島１丁目１９番１０号,,13,102,1040052,,,,,,,2025-06-04,1,,,,,ジャパンエイトメディカルキャリアシエンキョウカイ,0
677,3010003047539,新規,0,2025-06-04,2025-06-04,Ｋ‐３ＢＡＳＥ合同会社,,合同会社,東京都,中央区,日本橋浜町２丁目６１番９号７階,,13,102,1030007,,,,,,,2025-06-04,1,,,,,ケースリーベース,0
679,3010005040104,新規,0,2025-06-04,2025-06-04,一般社団法人視覚過敏サポート研究所,,その他の設立登記法人,東京都,千代田区,内神田３丁目２４－４ナインステージカンダ１Ｆ,,13,101,1010047,,,,,,,2025-06-04,1,,,,,シカクカビンサポートケンキュウジョ,0
680,3010005040129,新規,0,2025-06-04,2025-06-04,Ｓ坂オフィス税理士法人,,その他の設立登記法人,東京都,文京区,弥生１丁目２番１号,,13,105,1130032,,,,,,,2025-06-04,1,,,,,エスザカオフィス,0
681,3010103002591,新規,0,2025-06-04,2025-06-04,合同会社イブレノ,,合同会社,東京都,八王子市,暁町２丁目３８番１１号,,13,201,1920043,,,,,,,2025-06-04,1,,,,,イブレノ,0
688,3010401190139,新規,0,2025-06-04,2025-06-04,ＴＮＭ株式会社,,株式会社,東京都,港区,南青山３丁目１番３６号青山丸竹ビル６Ｆ,,13,103,1070062,,,,,,,2025-06-04,1,,,,,ティーエヌエム,0
690,3010403035283,新規,0,2025-06-04,2025-06-04,ＳＣＧ８０合同会社,,合同会社,東京都,港区,虎ノ門２丁目６番１号,,13,103,1050001,,,,,,,2025-06-04,1,,,,,エスシージーエイティ,0
691,3010403035291,新規,0,2025-06-04,2025-06-04,合同会社ｒｅｖａｌｕｘ,,合同会社,東京都,港区,芝浦３丁目１５番５－５０６号,,13,103,1080023,,,,,,,2025-06-04,1,,,,,レヴァラックス,0
694,3010405024458,新規,0,2025-06-04,2025-06-04,ＳＣＧ８０一般社団法人,,その他の設立登記法人,東京都,港区,虎ノ門２丁目６番１号,,13,103,1050001,,,,,,,2025-06-04,1,,,,,エスシージーエイティ,0
695,3010503007868,新規,0,2025-06-04,2025-06-04,ＺＥＲＯ合同会社,,合同会社,東京都,台東区,浅草６丁目３０番１号,,13,106,1110032,,,,,,,2025-06-04,1,,,,,ゼロ,0
700,3010701047798,新規,0,2025-06-04,2025-06-04,アフターピルオンライン株式会社,,株式会社,東京都,品川区,小山３丁目１５番２－１４１５号,,13,109,1420062,,,,,,,2025-06-04,1,,,,,アフターピルオンライン,0
709,3010903009992,新規,0,2025-06-04,2025-06-04,ｆｅｅｌＦｒｅｅ合同会社,,合同会社,東京都,世田谷区,奥沢５丁目１１番３号,,13,112,1580083,,,,,,,2025-06-04,1,,,,,フィールフリー,0
713,3011001169779,新規,0,2025-06-04,2025-06-04,ＡＮＤＷＡ株式会社,,株式会社,東京都,渋谷区,道玄坂１丁目１０番８号渋谷道玄坂東急ビル２Ｆ－Ｃ,,13,113,1500043,,,,,,,2025-06-04,1,,,,,アンドワ,0
714,3011001169795,新規,0,2025-06-04,2025-06-04,株式会社ＬＩＮＯ,,株式会社,東京都,目黒区,下目黒１丁目１－１４コノトラビル７Ｆ,,13,110,1530064,,,,,,,2025-06-04,1,,,,,リノ,0
715,3011001169829,新規,0,2025-06-04,2025-06-04,株式会社幻想通信社,,株式会社,東京都,渋谷区,円山町５番３号ＭＩＥＵＸ渋谷ビル８階,,13,113,1500044,,,,,,,2025-06-04,1,,,,,ゲンソウツウシンシャ,0
718,3011003021665,新規,0,2025-06-04,2025-06-04,星雲商事合同会社,,合同会社,東京都,目黒区,大橋２丁目５番３号,,13,110,1530044,,,,,,,2025-06-04,1,,,,,セイウンショウジ,0
719,3011005011029,新規,0,2025-06-04,2025-06-04,一般社団法人ＮａｔｕｒｅＬｉｔ　Ｊａｐａｎ,,その他の設立登記法人,東京都,渋谷区,道玄坂１丁目１０番８号,,13,113,1500043,,,,,,,2025-06-04,1,,,,,ネイチャーリットジャパン,0
725,3011101111822,新規,0,2025-06-04,2025-06-04,宝仁会株式会社,,株式会社,東京都,新宿区,百人町１丁目１５番２０号レジデンスカマタ１０３,,13,104,1690073,,,,,,,2025-06-04,1,,,,,ホウジンカイ,0
726,3011101111987,新規,0,2025-06-04,2025-06-04,ＴｒａｎｓＢ株式会社,,株式会社,東京都,新宿区,西新宿２丁目３番３号ＫＤＤＩアネックスビル１階,,13,104,1600023,,,,,,,2025-06-04,1,,,,,トランスビー,0
727,3011101112069,新規,0,2025-06-04,2025-06-04,株式会社ウラカタ,,株式会社,東京都,新宿区,四谷１丁目７番,,13,104,1600004,,,,,,,2025-06-04,1,,,,,ウラカタ,0
731,3011203004726,新規,0,2025-06-04,2025-06-04,合同会社くいしん坊,,合同会社,東京都,中野区,中央１丁目２７－２１－２０５,,13,114,1640011,,,,,,,2025-06-04,1,,,,,クイシンボウ,0
732,3011301030632,新規,0,2025-06-04,2025-06-04,株式会社大地,,株式会社,東京都,杉並区,高円寺南１丁目６番１１号,,13,115,1660003,,,,,,,2025-06-04,1,,,,,,0
736,3011601028698,新規,0,2025-06-04,2025-06-04,株式会社三都,,株式会社,東京都,練馬区,石神井台４丁目１番１号,,13,120,1770045,,,,,,,2025-06-04,1,,,,,サント,0
739,3011701028383,新規,0,2025-06-04,2025-06-04,アーサー総合企画株式会社,,株式会社,東京都,江戸川区,西小岩５丁目１３番１３号,,13,123,1330057,,,,,,,2025-06-04,1,,,,,アーサーソウゴウキカク,0
740,3011701028391,新規,0,2025-06-04,2025-06-04,株式会社Ｏｂｉ,,株式会社,東京都,江戸川区,西小岩１丁目３０番１１号,,13,123,1330057,,,,,,,2025-06-04,1,,,,,オビ,0
741,3011801046244,新規,0,2025-06-04,2025-06-04,株式会社ＥＲＳ,,株式会社,東京都,足立区,足立２丁目２２番６号,,13,121,1200015,,,,,,,2025-06-04,1,,,,,イーアールエス,0
742,3011801046269,新規,0,2025-06-04,2025-06-04,ＴｅｒｒａＢｙｔｅ株式会社,,株式会社,東京都,葛飾区,東新小岩７丁目２９番２０号,,13,122,1240023,,,,,,,2025-06-04,1,,,,,テラバイト,0
745,3012401043185,新規,0,2025-06-04,2025-06-04,株式会社ロンズテイル,,株式会社,東京都,小金井市,前原町３丁目１６番１１号シティハイム西之台２０５,,13,210,1840013,,,,,,,2025-06-04,1,,,,,ロンズテイル,0
746,3012401043193,新規,0,2025-06-04,2025-06-04,株式会社淙々,,株式会社,東京都,調布市,下石原２丁目６番地９,,13,208,1820034,,,,,,,2025-06-04,1,,,,,ソウソウ,0
748,3012801023935,新規,0,2025-06-04,2025-06-04,株式会社自由研究舎,,株式会社,東京都,国立市,北３丁目２４－５,,13,215,1860001,,,,,,,2025-06-04,1,,,,,ジユウケンキュウシャ,0
749,3012801024009,新規,0,2025-06-04,2025-06-04,株式会社ＬＥＡ,,株式会社,東京都,国立市,中１丁目１１番地の４５,,13,215,1860004,,,,,,,2025-06-04,1,,,,,レア,0
755,3013303007699,新規,0,2025-06-04,2025-06-04,合同会社Ｓｉｌｋ＆Ｋｏ,,合同会社,東京都,豊島区,東池袋２丁目６３－５－８０２,,13,116,1700013,,,,,,,2025-06-04,1,,,,,シルクアンドコー,0
756,3020001163155,新規,0,2025-06-04,2025-06-04,株式会社Ｅｘｔｅｒｉｏｒ　Ｎａｌｕ,,株式会社,神奈川県,横浜市金沢区,六浦南４丁目４番１２号,,14,108,2360038,,,,,,,2025-06-04,1,,,,,エクステリアナル,0
757,3020001163163,新規,0,2025-06-04,2025-06-04,株式会社パッション,,株式会社,神奈川県,横浜市中区,相生町４丁目７６番地ラタンビル２０２,,14,104,2310012,,,,,,,2025-06-04,1,,,,,パッション,0
758,3020001163205,新規,0,2025-06-04,2025-06-04,株式会社ＴＭ９２Ｒｅｖｏｌｕｔｉｏｎ,,株式会社,神奈川県,川崎市高津区,久末１８３７番地,,14,134,2130026,,,,,,,2025-06-04,1,,,,,ティエムクニレボリューション,0
759,3020001163221,新規,0,2025-06-04,2025-06-04,Ｃ＆Ｃ株式会社,,株式会社,神奈川県,横浜市西区,浅間町１丁目４番３号ウィザードビル４０２,,14,103,2200072,,,,,,,2025-06-04,1,,,,,シーアンドシー,0
760,3020001163238,新規,0,2025-06-04,2025-06-04,株式会社ＨＡＬＭＯ,,株式会社,神奈川県,横浜市戸塚区,吉田町１０１２,,14,110,2440817,,,,,,,2025-06-04,1,,,,,ハルモ,0
763,3020003028620,新規,0,2025-06-04,2025-06-04,ＯＭＲ合同会社,,合同会社,神奈川県,横浜市金沢区,富岡東１丁目１番２２－３０４号,,14,108,2360051,,,,,,,2025-06-04,1,,,,,オーエムアール,0
764,3020003028653,新規,0,2025-06-04,2025-06-04,合同会社えすな,,合同会社,神奈川県,横浜市港北区,仲手原２丁目２１番５号,,14,109,2220023,,,,,,,2025-06-04,1,,,,,エスナ,0
766,3021003015988,新規,0,2025-06-04,2025-06-04,合同会社創美,,合同会社,神奈川県,小田原市,清水新田２８４－１プレゴ１０３,,14,206,2500855,,,,,,,2025-06-04,1,,,,,ソウミ,0
770,3021005013362,新規,0,2025-06-04,2025-06-04,特定非営利活動法人ペアレントＢＡＳＥ‐Ｓａｇａｍｉｈａｒａ,,その他の設立登記法人,神奈川県,相模原市緑区,田名２５８１番地２０１,,14,151,2520124,,,,,,,2025-06-04,1,,,,,ペアレントベースサガミハラ,0
781,3030001166850,新規,0,2025-06-04,2025-06-04,三和ガス株式会社,,株式会社,埼玉県,さいたま市岩槻区,大字加倉１９８６番地１,,11,110,3390056,,,,,,,2025-06-04,1,,,,,サンワガス,0
782,3030003026895,新規,0,2025-06-04,2025-06-04,合同会社立野,,合同会社,埼玉県,さいたま市大宮区,宮町１丁目８６番地１ワイムビジネスプラザ大宮７０３号室,,11,103,3300802,,,,,,,2025-06-04,1,,,,,タテノ,0
783,3030005022182,新規,0,2025-06-04,2025-06-04,ＮＰＯ法人ねこかつ,,その他の設立登記法人,埼玉県,川越市,脇田町８番３Ｍ．Ｔ．Ｆ．ビル３階,,11,201,3501122,,,,,,,2025-06-04,1,,,,,ネコカツ,0
787,3040001139038,新規,0,2025-06-04,2025-06-04,株式会社ブリッジデザイン,,株式会社,千葉県,印西市,草深８４２番地６０,,12,231,2701337,,,,,,,2025-06-04,1,,,,,ブリッジデザイン,0
788,3040001139054,新規,0,2025-06-04,2025-06-04,株式会社美麗,,株式会社,千葉県,松戸市,小金原４丁目４０番地の５,,12,207,2700021,,,,,,,2025-06-04,1,,,,,ビレイ,0
790,3040003027686,新規,0,2025-06-04,2025-06-04,ＳＳむかわＡ合同会社,,合同会社,千葉県,木更津市,かずさ鎌足３丁目９番地１,,12,206,2920818,,,,,,,2025-06-04,1,,,,,エスエスムカワエー,0
791,3040003027736,新規,0,2025-06-04,2025-06-04,合同会社ｃｉａｏ　ｂｅｌｌａ,,合同会社,千葉県,船橋市,高野台４丁目７番５号,,12,204,2740801,,,,,,,2025-06-04,1,,,,,チャオベッラ,0
792,3040003027752,新規,0,2025-06-04,2025-06-04,合同会社ＭＫ‐Ｒｉｃｈ,,合同会社,千葉県,千葉市中央区,蘇我３丁目４１番２０号,,12,101,2600822,,,,,,,2025-06-04,1,,,,,エムケーリッチ,0
793,3040005022792,新規,0,2025-06-04,2025-06-04,一般社団法人ＩＮＳＥＬ　ＵＮＩＴＥＤ,,その他の設立登記法人,千葉県,千葉市中央区,新千葉１丁目７番２号,,12,101,2600031,,,,,,,2025-06-04,1,,,,,インゼルユナイテッド,0
798,3050001056744,新規,0,2025-06-04,2025-06-04,株式会社ｅ．,,株式会社,茨城県,水戸市,西原１丁目１番８９－２０１号ヴァレンティーナＥ棟,,08,201,3100044,,,,,,,2025-06-04,1,,,,,イードット,0
799,3050003009254,新規,0,2025-06-04,2025-06-04,合同会社ルネサンスＪＡＰＡＮ,,合同会社,茨城県,下妻市,下妻乙１９２番地１カーサグランデ壱番館２０６号室,,08,210,3040067,,,,,,,2025-06-04,1,,,,,ルネサンスジャパン,0
804,3060001038262,新規,0,2025-06-04,2025-06-04,株式会社Ｉｒｏａｓ,,株式会社,栃木県,宇都宮市,元今泉７丁目５番５号Ｂ－１,,09,201,3210954,,,,,,,2025-06-04,1,,,,,イロアス,0
807,3070001042981,新規,0,2025-06-04,2025-06-04,株式会社コーヴィーサポート,,株式会社,群馬県,前橋市,野中町２８１番地２３,,10,201,3792166,,,,,,,2025-06-04,1,,,,,,0
809,3080001026967,新規,0,2025-06-04,2025-06-04,Ｗコイズミ塗工株式会社,,株式会社,静岡県,静岡市清水区,谷津町１丁目１７９番地の１,,22,103,4240211,,,,,,,2025-06-04,1,,,,,ダブリュコイズミトコウ,0
810,3080001026975,新規,0,2025-06-04,2025-06-04,ＡＱＵＡ株式会社,,株式会社,静岡県,静岡市葵区,紺屋町１７番地の１,,22,101,4200852,,,,,,,2025-06-04,1,,,,,アクア,0
811,3080101025530,新規,0,2025-06-04,2025-06-04,株式会社ＹＭ企画,,株式会社,静岡県,富士市,松岡２５４番地の４,,22,210,4160909,,,,,,,2025-06-04,1,,,,,ワイエムキカク,0
813,3080103003336,新規,0,2025-06-04,2025-06-04,合同会社ネイルスクールエクリュ,,合同会社,静岡県,富士市,依田橋町５番１４－２号,,22,210,4170003,,,,,,,2025-06-04,1,,,,,ネイルスクールエクリュ,0
815,3090005007715,新規,0,2025-06-04,2025-06-04,一般財団法人日本介護医療共創協会,,その他の設立登記法人,山梨県,甲斐市,亀沢６９４９番地９６,,19,210,4001113,,,,,,,2025-06-04,1,,,,,ニホンカイゴイリョウキョウソウキョウカイ,0
817,3100001038662,新規,0,2025-06-04,2025-06-04,株式会社長野ダム水路保安法人,,株式会社,長野県,上田市,林之郷１１１番地,,20,203,3860156,,,,,,,2025-06-04,1,,,,,ナガノダムスイロホアンホウジン,0
818,3100003008201,新規,0,2025-06-04,2025-06-04,Ｃｅｄａｒ　Ｃａｓａ　Ｃｏ．合同会社,,合同会社,長野県,北安曇郡白馬村,大字北城１４９２０番地２９９,,20,485,3999301,,,,,,,2025-06-04,1,,,,,シダーカーサコー,0
831,3120001276450,新規,0,2025-06-04,2025-06-04,ＷＥＳＴ　ＷＡＶＥ株式会社,,株式会社,大阪府,大阪市中央区,北浜東４－３３北浜ネクスビルディングＢ１,,27,128,5400031,,,,,,,2025-06-04,1,,,,,ウェストウェーブ,0
832,3120001276459,新規,0,2025-06-04,2025-06-04,株式会社メンタップ,,株式会社,大阪府,大阪市中央区,千日前１丁目７番６号禅ラボビル２階,,27,128,5420074,,,,,,,2025-06-04,1,,,,,メンタップ,0
833,3120001276500,新規,0,2025-06-04,2025-06-04,株式会社１３３,,株式会社,大阪府,大阪市中央区,東心斎橋１丁目４番２６号,,27,128,5420083,,,,,,,2025-06-04,1,,,,,イザミ,0
834,3120001276533,新規,0,2025-06-04,2025-06-04,錦仕株式会社,,株式会社,大阪府,大阪市中央区,徳井町２丁目４番５号－４０８号,,27,128,5400025,,,,,,,2025-06-04,1,,,,,キンシ,0
835,3120001276582,新規,0,2025-06-04,2025-06-04,株式会社アネクス,,株式会社,大阪府,大阪市天王寺区,筆ケ崎町２番１０－２８０５号,,27,109,5430027,,,,,,,2025-06-04,1,,,,,アネクス,0
837,3120003029658,新規,0,2025-06-04,2025-06-04,合同会社トリリオンクエスト,,合同会社,大阪府,大阪市北区,梅田１丁目１－３大阪駅前第３ビル２９階１－１－１号室,,27,127,5300001,,,,,,,2025-06-04,1,,,,,トリリオンクエスト,0
838,3120003029682,新規,0,2025-06-04,2025-06-04,合同会社つくね,,合同会社,大阪府,大阪市東成区,大今里２丁目３３番３３号,,27,115,5370012,,,,,,,2025-06-04,1,,,,,ツクネ,0
840,3120101071768,新規,0,2025-06-04,2025-06-04,株式会社うぇるらいふ,,株式会社,大阪府,河内長野市,木戸３丁目１３番２３号,,27,216,5860001,,,,,,,2025-06-04,1,,,,,ウェルライフ,0
841,3120101071818,新規,0,2025-06-04,2025-06-04,株式会社ＩＩＤＡＹＳ,,株式会社,大阪府,堺市西区,鳳南町５丁４９０番地７,,27,144,5938325,,,,,,,2025-06-04,1,,,,,イーデイズ,0
844,3120901050954,新規,0,2025-06-04,2025-06-04,迎新Ａｃｃｅｐｔ　Ｆｕｔｕｒｅ株式会社,,株式会社,大阪府,摂津市,正雀３丁目１０番１９－３０８号,,27,224,5660023,,,,,,,2025-06-04,1,,,,,ゲイシンアクセプトフューチャー,0
846,3120903005700,新規,0,2025-06-04,2025-06-04,ヰタ・デザイン合同会社,,合同会社,大阪府,茨木市,彩都やまぶき３丁目１１番２０号,,27,211,5670086,,,,,,,2025-06-04,1,,,,,ヰタデザイン,0
848,3122001039325,新規,0,2025-06-04,2025-06-04,株式会社アヤテック,,株式会社,大阪府,八尾市,久宝寺１丁目１番１４号,,27,212,5810072,,,,,,,2025-06-04,1,,,,,アヤテック,0
853,3130001079811,新規,0,2025-06-04,2025-06-04,タヒロ鋳金産業株式会社,,株式会社,京都府,京都市左京区,一乗寺中ノ田町３７番地３,,26,103,6068163,,,,,,,2025-06-04,1,,,,,タヒロチュウキンサンギョウ,0
854,3130001079828,新規,0,2025-06-04,2025-06-04,株式会社リンク,,株式会社,京都府,宇治市,炭山西ノ谷４番地１,,26,204,6011395,,,,,,,2025-06-04,1,,,,,リンク,0
858,3140001138789,新規,0,2025-06-04,2025-06-04,株式会社Ｈ‐Ｂｅａｕｔｅ,,株式会社,兵庫県,宝塚市,武庫川町１番５－１１０６号,,28,214,6650844,,,,,,,2025-06-04,1,,,,,エイチボーテ,0
866,3180001167066,新規,0,2025-06-04,2025-06-04,株式会社ロイテック,,株式会社,愛知県,名古屋市東区,東桜２丁目３番７号（東カン名古屋キャステール６３８号）,,23,102,4610005,,,,,,,2025-06-04,1,,,,,ロイテック,0
867,3180001167165,新規,0,2025-06-04,2025-06-04,株式会社東海金属,,株式会社,愛知県,東海市,加木屋町円畑１１７番地１,,23,222,4770032,,,,,,,2025-06-04,1,,,,,トウカイキンゾク,0
869,3180005021120,新規,0,2025-06-04,2025-06-04,特定非営利活動法人かい,,その他の設立登記法人,愛知県,名古屋市西区,花の木３丁目１７番１４号第一新日本ビル２Ｆ,,23,104,4510062,,,,,,,2025-06-04,1,,,,,カイ,0
870,3180301039857,新規,0,2025-06-04,2025-06-04,株式会社乙川川守舎,,株式会社,愛知県,岡崎市,康生通南３丁目４３番地（偶偶３階）,,23,202,4440044,,,,,,,2025-06-04,1,,,,,オトガワカワモリシャ,0
872,3190001032269,新規,0,2025-06-04,2025-06-04,Ｅｘｃｅｅｄ株式会社,,株式会社,三重県,度会郡玉城町,冨岡２６３番地２,,24,461,5190421,,,,,,,2025-06-04,1,,,,,エクシード,0
873,3200001043875,新規,0,2025-06-04,2025-06-04,株式会社Ｎｅｗ．ｍｅ,,株式会社,岐阜県,岐阜市,本荘中ノ町１０丁目４４番地２,,21,201,5008364,,,,,,,2025-06-04,1,,,,,ニューミー,0
874,3210001020196,新規,0,2025-06-04,2025-06-04,株式会社天じゅ,,株式会社,福井県,福井市,高木中央１丁目３０４番地,,18,201,9100804,,,,,,,2025-06-04,1,,,,,テンジュ,0
886,3250001021174,新規,0,2025-06-04,2025-06-04,株式会社豊田電気商会,,株式会社,山口県,山口市,湯田温泉１丁目１１番３３号,,35,203,7530056,,,,,,,2025-06-04,1,,,,,トヨタデンキショウカイ,0
887,3250002005572,新規,0,2025-06-04,2025-06-04,有限会社フタハシ内装,,有限会社,山口県,宇部市,則貞６丁目５番２５号,,35,202,7550003,,,,,,,2025-06-04,1,,,,,フタハシナイソウ,0
889,3250003003740,新規,0,2025-06-04,2025-06-04,ココイル合同会社,,合同会社,山口県,宇部市,大字上宇部２８２１番２,,35,202,7550091,,,,,,,2025-06-04,1,,,,,ココイル,0
894,3290001110246,新規,0,2025-06-04,2025-06-04,株式会社Ｒｅ‐ｍｅｍｂｅｒ,,株式会社,福岡県,福岡市東区,香椎照葉６丁目４番２－６０３号フォレストプレイス香椎照葉ザ・テラス０２,,40,131,8130017,,,,,,,2025-06-04,1,,,,,リメンバー,0
895,3290001110254,新規,0,2025-06-04,2025-06-04,株式会社Ｏｎｎ,,株式会社,福岡県,糸島市,前原西１丁目１２番１７号,,40,230,8191117,,,,,,,2025-06-04,1,,,,,オン,0
906,3300003002290,新規,0,2025-06-04,2025-06-04,合同会社住繕ホーム,,合同会社,佐賀県,小城市,芦刈町芦溝１０８４番２号,00139425,41,208,8490311,,,,,,,2025-06-04,1,,,,,ジュウゼンホーム,0
909,3320001021134,新規,0,2025-06-04,2025-06-04,株式会社エアプラン,,株式会社,大分県,大分市,上宗方南１丁目１番１９号,,44,201,8701167,,,,,,,2025-06-04,1,,,,,エアプラン,0
910,3320003004681,新規,0,2025-06-04,2025-06-04,合同会社みらいつむぎ,,合同会社,大分県,別府市,駅前本町９－２０オフィスＨＯＯＤ,,44,202,8740934,,,,,,,2025-06-04,1,,,,,ミライツムギ,0
917,3330001033236,新規,0,2025-06-04,2025-06-04,アスイズ株式会社,,株式会社,熊本県,熊本市東区,若葉３丁目１３番３０－３０１号,,43,102,8620903,,,,,,,2025-06-04,1,,,,,アスイズ,0
918,3330001033244,新規,0,2025-06-04,2025-06-04,森屋開発株式会社,,株式会社,熊本県,上益城郡益城町,大字古閑２７２番地１（４街区１画地）,,43,443,8612234,,,,,,,2025-06-04,1,,,,,モリヤカイハツ,0
919,3330001033252,新規,0,2025-06-04,2025-06-04,株式会社ブルウェル,,株式会社,熊本県,合志市,幾久富１６５６－７０７エスターブレ２０５号,,43,216,8611112,,,,,,,2025-06-04,1,,,,,ブルウェル,0
920,3330001033269,新規,0,2025-06-04,2025-06-04,白嶽工舎株式会社,,株式会社,熊本県,上益城郡益城町,大字広崎１３２８番地３,,43,443,8612236,,,,,,,2025-06-04,1,,,,,シラタケコウシャ,0
921,3330003011033,新規,0,2025-06-04,2025-06-04,合同会社川口設備工業,,合同会社,熊本県,熊本市南区,富合町清藤３５３番地１グランシティ富合駅前ＩＩＢ号室,00139429,43,104,8614151,,,,,,,2025-06-04,1,,,,,カワグチセツビコウギョウ,0
922,3330003011041,新規,0,2025-06-04,2025-06-04,合同会社あゆ太郎,,合同会社,熊本県,山鹿市,鹿校通１丁目６番２５号,,43,208,8610532,,,,,,,2025-06-04,1,,,,,アユタロウ,0
926,3350001019571,新規,0,2025-06-04,2025-06-04,株式会社Ｅｌｖｅｒ,,株式会社,宮崎県,宮崎市,清武町加納乙２４０番地１ＰＧＣパークＩＩ,00139416,45,201,8891605,,,,,,,2025-06-04,1,,,,,エルヴァー,0
927,3350003004943,新規,0,2025-06-04,2025-06-04,合同会社ＬＬｉｂ,,合同会社,宮崎県,宮崎市,村角町宮崎牟田２０番地７２,,45,201,8800837,,,,,,,2025-06-04,1,,,,,エルエルアイビー,0
928,3360005007241,新規,0,2025-06-04,2025-06-04,一般財団法人沖縄振興財団,,その他の設立登記法人,沖縄県,沖縄市,高原４丁目１５番１２号三幸ＢＬ２Ｆ,,47,211,9042171,,,,,,,2025-06-04,1,,,,,オキナワシンコウザイダン,0
935,3370001052645,新規,0,2025-06-04,2025-06-04,株式会社フォース,,株式会社,宮城県,名取市,高柳字山神２５５－１,,04,207,9811211,,,,,,,2025-06-04,1,,,,,フォース,0
936,3370001052653,新規,0,2025-06-04,2025-06-04,株式会社トーイン企画,,株式会社,宮城県,気仙沼市,松崎浦田７０番地９,,04,205,9880114,,,,,,,2025-06-04,1,,,,,トーインキカク,0
940,3370003007110,新規,0,2025-06-04,2025-06-04,森のチカラ合同会社,,合同会社,宮城県,柴田郡川崎町,大字川内字北川原山２３８－６０,,04,324,9891503,,,,,,,2025-06-04,1,,,,,モリノチカラ,0
941,3370005010970,新規,0,2025-06-04,2025-06-04,一般社団法人日々養生協会,,その他の設立登記法人,宮城県,仙台市青葉区,国分町３丁目２番１０号麻井１０７,,04,101,9800803,,,,,,,2025-06-04,1,,,,,ニチニチヨウジョウキョウカイ,0
951,3430001094598,新規,0,2025-06-04,2025-06-04,Ｒｅ‐ｓｔａｒｔ株式会社,,株式会社,北海道,札幌市豊平区,豊平三条５丁目１番１号ワシダビル２階,,01,105,0620903,,,,,,,2025-06-04,1,,,,,リスタート,0
956,3430003017730,新規,0,2025-06-04,2025-06-04,合同会社オフィス松島,,合同会社,北海道,札幌市豊平区,福住一条３丁目１３番１－６１０号,,01,105,0620041,,,,,,,2025-06-04,1,,,,,オフィスマツシマ,0
957,3430003017739,新規,0,2025-06-04,2025-06-04,合同会社のら,,合同会社,北海道,札幌市南区,藻岩下４丁目１２番２０号,,01,106,0050040,,,,,,,2025-06-04,1,,,,,ノラ,0
962,3470001020749,新規,0,2025-06-04,2025-06-04,株式会社ＦＬＡＩＲ,,株式会社,香川県,高松市,朝日町１丁目３番２３号,,37,201,7600065,,,,,,,2025-06-04,1,,,,,,0
964,3480001012852,新規,0,2025-06-04,2025-06-04,株式会社ディグルームズ,,株式会社,徳島県,徳島市,応神町古川字日ノ上３番地４,,36,201,7711151,,,,,,,2025-06-04,1,,,,,ディグルームズ,0
976,4010001255571,新規,0,2025-06-04,2025-06-04,株式会社Ｏａｋｓ　Ｊａｐａｎ,,株式会社,東京都,中央区,銀座５丁目１５番１８号,,13,102,1040061,,,,,,,2025-06-04,1,,,,,オークスジャパン,0
977,4010001255596,新規,0,2025-06-04,2025-06-04,株式会社ポチテック,,株式会社,東京都,千代田区,神田錦町３丁目１５番地名鉄不動産竹橋ビル,,13,101,1010054,,,,,,,2025-06-04,1,,,,,ポチテック,0
978,4010001255654,新規,0,2025-06-04,2025-06-04,ＭＯＮ　ＥＰＯＱＵＥ　ＪＡＰＡＮ株式会社,,株式会社,東京都,中央区,日本橋本町２丁目２番２号日本橋本町ＹＳビル２階,,13,102,1030023,,,,,,,2025-06-04,1,,,,,モネポークジャパン,0
980,4010003047538,新規,0,2025-06-04,2025-06-04,合同会社ＴＦＫインベストメント,,合同会社,東京都,文京区,千石２丁目１９番４－８０４号,,13,105,1120011,,,,,,,2025-06-04,1,,,,,ティーエフケーインベストメント,0
987,4010401190749,新規,0,2025-06-04,2025-06-04,Ｗａｆｆｏ　Ｊａｐａｎ株式会社,,株式会社,東京都,港区,南青山２丁目２番８号ＤＦビル１０階,,13,103,1070062,,,,,,,2025-06-04,1,,,,,ワッフォジャパン,0
988,4010401190765,新規,0,2025-06-04,2025-06-04,セブンテック株式会社,,株式会社,東京都,港区,新橋４丁目１４番１新橋ＡＵＮＢＬＤＧ４階,,13,103,1050004,,,,,,,2025-06-04,1,,,,,セブンテック,0
989,4010405024399,新規,0,2025-06-04,2025-06-04,一般社団法人中小企業イノベーションネットワーク,,その他の設立登記法人,東京都,港区,北青山１丁目３番１号アールキューブ青山３階,,13,103,1070061,,,,,,,2025-06-04,1,,,,,チュウショウキギョウイノベーションネットワーク,0
990,4010405024457,新規,0,2025-06-04,2025-06-04,Ｄｅｍｉｏ一般社団法人,,その他の設立登記法人,東京都,港区,虎ノ門２丁目６番１号,,13,103,1050001,,,,,,,2025-06-04,1,,,,,デミオ,0
991,4010501054119,新規,0,2025-06-04,2025-06-04,株式会社弘瑛商事,,株式会社,東京都,台東区,上野６丁目１番６号御徒町グリーンハイツ１００５号,,13,106,1100005,,,,,,,2025-06-04,1,,,,,コウエイショウジ,0
992,4010503007867,新規,0,2025-06-04,2025-06-04,合同会社ＳＶＯコンサルティング,,合同会社,東京都,台東区,浅草橋５丁目４番４－３０４号ジュウェル秋葉原,,13,106,1110053,,,,,,,2025-06-04,1,,,,,エスブイオーコンサルティング,0
999,4010601067425,新規,0,2025-06-04,2025-06-04,グリーンストラテジー株式会社,,株式会社,東京都,江東区,富岡２丁目８番１３号,,13,108,1350047,,,,,,,2025-06-04,1,,,,,グリーンストラテジー,0
1002,4010603011612,新規,0,2025-06-04,2025-06-04,合同会社Ｉ＆Ｋ,,合同会社,東京都,墨田区,江東橋３丁目２番２－８１１号,,13,107,1300022,,,,,,,2025-06-04,1,,,,,アイアンドケイ,0
1009,4010901057506,新規,0,2025-06-04,2025-06-04,株式会社スクラムキューブ,,株式会社,東京都,世田谷区,中町４丁目２４番９号,,13,112,1580091,,,,,,,2025-06-04,1,,,,,スクラムキューブ,0
1011,4010903009991,新規,0,2025-06-04,2025-06-04,Ｅｒｒａｒｅ合同会社,,合同会社,東京都,世田谷区,代田１丁目１１―１１,,13,112,1550033,,,,,,,2025-06-04,1,,,,,エラーレ,0
1019,4011001169613,新規,0,2025-06-04,2025-06-04,株式会社ピュアウェルスリング,,株式会社,東京都,渋谷区,神南１丁目１１‐４ＦＰＧリンクス神南５階,,13,113,1500041,,,,,,,2025-06-04,1,,,,,ピュアウェルスリング,0
1020,4011001169778,新規,0,2025-06-04,2025-06-04,株式会社ＭＯＳＳＥＬ,,株式会社,東京都,渋谷区,道玄坂１丁目１０番８号渋谷道玄坂東急ビル２Ｆ－Ｃ,,13,113,1500043,,,,,,,2025-06-04,1,,,,,モセル,0
1021,4011001169794,新規,0,2025-06-04,2025-06-04,株式会社Ｅｓｅｃｔｉｏｎ　Ｐａｒｔｎｅｒ,,株式会社,東京都,渋谷区,恵比寿西２丁目４番８号ウィンド恵比寿ビル８階,,13,113,1500021,,,,,,,2025-06-04,1,,,,,エセクションパートナー,0
1022,4011001169844,新規,0,2025-06-04,2025-06-04,ＧＴ　Ｓｔｙｌｅ株式会社,,株式会社,東京都,渋谷区,恵比寿西２丁目４番８号ウィンド恵比寿ビル８Ｆ,,13,113,1500021,,,,,,,2025-06-04,1,,,,,ジーティースタイル,0
1023,4011001169860,新規,0,2025-06-04,2025-06-04,株式会社みずぐるま,,株式会社,東京都,渋谷区,代官山町１８番３号ベステックビル２階,,13,113,1500034,,,,,,,2025-06-04,1,,,,,ミズグルマ,0
1024,4011003021672,新規,0,2025-06-04,2025-06-04,合同会社ニーズｓｍｉｌｅ,,合同会社,東京都,渋谷区,円山町２５－４加藤ビル１Ｆ,,13,113,1500044,,,,,,,2025-06-04,1,,,,,ニーズスマイル,0
1025,4011003021697,新規,0,2025-06-04,2025-06-04,合同会社ＴＫＭ　Ｃａｔａｌｙｓｔ,,合同会社,東京都,目黒区,下目黒１丁目１－１４コノトラビル７Ｆ,,13,110,1530064,,,,,,,2025-06-04,1,,,,,ティーケーエムカタリスト,0
1028,4011101111937,新規,0,2025-06-04,2025-06-04,株式会社アットホープ,,株式会社,東京都,新宿区,信濃町３５慶応義塾大学信濃町キャンパス２号館９階ＣＲＩＫ信濃町,,13,104,1600016,,,,,,,2025-06-04,1,,,,,アットホープ,0
1029,4011101111945,新規,0,2025-06-04,2025-06-04,株式会社ＴｈＲｅｅ,,株式会社,東京都,新宿区,西新宿５丁目８－２惠徳ビル９階,,13,104,1600023,,,,,,,2025-06-04,1,,,,,スリー,0
1032,4011103015995,新規,0,2025-06-04,2025-06-04,合同会社７２８,,合同会社,東京都,新宿区,西新宿３丁目３番１３号西新宿水間ビル６階,,13,104,1600023,,,,,,,2025-06-04,1,,,,,ナナニハチ,0
1035,4011301030631,新規,0,2025-06-04,2025-06-04,株式会社シンワデザイン,,株式会社,東京都,杉並区,荻窪５丁目３０番１２号グローリア荻窪７１３,,13,115,1670051,,,,,,,2025-06-04,1,,,,,,0
1037,4011501032163,新規,0,2025-06-04,2025-06-04,株式会社Ｐｕｎｉｃａ＆Ｃｏ．,,株式会社,東京都,北区,西ケ原２丁目８番１－２０１号,,13,117,1140024,,,,,,,2025-06-04,1,,,,,パニカ,0
1039,4011801046243,新規,0,2025-06-04,2025-06-04,株式会社Ｙ’ｓ,,株式会社,東京都,足立区,保木間５丁目２１番４号,,13,121,1210064,,,,,,,2025-06-04,1,,,,,ワイズ,0
1043,4012401043168,新規,0,2025-06-04,2025-06-04,ハーモニー株式会社,,株式会社,東京都,稲城市,東長沼２１２０番地１１号１０３号室,,13,225,2060802,,,,,,,2025-06-04,1,,,,,ハーモニー,0
1044,4012401043201,新規,0,2025-06-04,2025-06-04,株式会社プログレス,,株式会社,東京都,府中市,是政３丁目１６番地の２６－１０２,,13,206,1830014,,,,,,,2025-06-04,1,,,,,プログレス,0
1050,4012403007170,新規,0,2025-06-04,2025-06-04,合同会社Ｍｏｌｅｋｎｏｔｚ,,合同会社,東京都,多摩市,豊ヶ丘１丁目５３番地３－３０５,,13,224,2060031,,,,,,,2025-06-04,1,,,,,モールノッツ,0
1053,4012801024008,新規,0,2025-06-04,2025-06-04,ＭＫファシリティ株式会社,,株式会社,東京都,日野市,高幡１０１３番地の１３メゾネット小宮２－１,,13,212,1910031,,,,,,,2025-06-04,1,,,,,エムケーファシリティ,0
1078,4021001085165,新規,0,2025-06-04,2025-06-04,株式会社山崎興業,00139428,株式会社,神奈川県,海老名市,門沢橋２丁目４番２０－１０５号,,14,215,2430426,,,,,,,2025-06-04,1,,,,,ヤマザキコウギョウ,0
1081,4030001166817,新規,0,2025-06-04,2025-06-04,ＸＥＪＡＰＡＮ　ＳＥＲＶＩＣＥ株式会社,,株式会社,埼玉県,入間市,東藤沢３丁目２番１３号ＫＩＶ商会館入間Ｄ号室,,11,225,3580012,,,,,,,2025-06-04,1,,,,,エクシージャパンサービス,0
1082,4030001166825,新規,0,2025-06-04,2025-06-04,株式会社リブ,,株式会社,埼玉県,さいたま市見沼区,大字丸ヶ崎８７１番地１,,11,104,3370001,,,,,,,2025-06-04,1,,,,,リブ,0
1083,4030001166833,新規,0,2025-06-04,2025-06-04,プルスウルトラ株式会社,,株式会社,埼玉県,三郷市,栄３丁目３００番地,,11,237,3410043,,,,,,,2025-06-04,1,,,,,プルスウルトラ,0
1092,4040001138996,新規,0,2025-06-04,2025-06-04,株式会社アイイー,,株式会社,千葉県,佐倉市,宮前２丁目８番地１１,,12,212,2850005,,,,,,,2025-06-04,1,,,,,アイイー,0
1093,4040001139012,新規,0,2025-06-04,2025-06-04,株式会社ＹＴＥＣ,,株式会社,千葉県,市川市,高谷１丁目９番８号梛２０２,,12,203,2720013,,,,,,,2025-06-04,1,,,,,ワイテック,0
1095,4040003027685,新規,0,2025-06-04,2025-06-04,日高賀張ソーラーファーミング合同会社,,合同会社,千葉県,木更津市,かずさ鎌足３丁目９番地１,,12,206,2920818,,,,,,,2025-06-04,1,,,,,ヒダカカバリソーラーファーミング,0
1096,4040003027727,新規,0,2025-06-04,2025-06-04,Ｔ＆Ｐ合同会社,,合同会社,千葉県,市原市,根田３丁目１１番地３,,12,219,2900024,,,,,,,2025-06-04,1,,,,,ティーアンドピー,0
1097,4040003027751,新規,0,2025-06-04,2025-06-04,ＷＲＳＫ　ＴＲＡＤＩＮＧ合同会社,,合同会社,千葉県,松戸市,六高台西２－１ドミール五香１０１号,,12,207,2702205,,,,,,,2025-06-04,1,,,,,ダブリューアールエスケイトレーディング,0
1100,4050001056768,新規,0,2025-06-04,2025-06-04,株式会社ｐａｖｅ　ｔｈｅ　ｗａｙ,,株式会社,茨城県,水戸市,城南３丁目１６番１６号アシスト城南ビル２０１号室,,08,201,3100803,,,,,,,2025-06-04,1,,,,,ペイブザウェイ,0
1105,4060003005581,新規,0,2025-06-04,2025-06-04,特装工業合同会社,,合同会社,栃木県,小山市,大字網戸１８４０番地,,09,208,3290215,,,,,,,2025-06-04,1,,,,,トクソウコウギョウ,0
1107,4070001042997,新規,0,2025-06-04,2025-06-04,株式会社ＦｉｎＰａｓｓ,,株式会社,群馬県,前橋市,箱田町２５３－２,,10,201,3710837,,,,,,,2025-06-04,1,,,,,フィンパス,0
1108,4080001026966,新規,0,2025-06-04,2025-06-04,造景屋沙羅乃樹株式会社,,株式会社,静岡県,焼津市,柳新屋９６３番地の３－３Ｆ,,22,212,4250074,,,,,,,2025-06-04,1,,,,,ゾウケイヤシャラノキ,0
1109,4080003003468,新規,0,2025-06-04,2025-06-04,合同会社つばめ制作社,,合同会社,静岡県,静岡市清水区,蒲原３丁目２２番２号,,22,103,4213203,,,,,,,2025-06-04,1,,,,,ツバメセイサクシャ,0
1116,4080401027960,新規,0,2025-06-04,2025-06-04,株式会社Ｓｌａｙ,,株式会社,静岡県,浜松市中央区,頭陀寺町３２９番地の２,,22,138,4300817,,,,,,,2025-06-04,1,,,,,スレイ,0
1118,4090001019300,新規,0,2025-06-04,2025-06-04,ブレスドパール株式会社,,株式会社,山梨県,富士吉田市,上吉田東９丁目８番１０号,,19,202,4030032,,,,,,,2025-06-04,1,,,,,ブレスドパール,0
1119,4090001019309,新規,0,2025-06-04,2025-06-04,山梨フルーツパラダイス株式会社,,株式会社,山梨県,山梨市,大野１４５番地１,,19,205,4050016,,,,,,,2025-06-04,1,,,,,ヤマナシフルーツパラダイス,0
1121,4100001038661,新規,0,2025-06-04,2025-06-04,株式会社スペースＫプラス,,株式会社,長野県,松本市,大字笹賀７２２４番地１,,20,202,3990033,,,,,,,2025-06-04,1,,,,,スペースケイプラス,0
1122,4110001039312,新規,0,2025-06-04,2025-06-04,株式会社日本商事,,株式会社,新潟県,新潟市中央区,沼垂西１丁目４番１８号カスターノビル１０１,,15,103,9500076,,,,,,,2025-06-04,1,,,,,ニホンショウジ,0
1132,4120001276458,新規,0,2025-06-04,2025-06-04,株式会社ＺＥＫＥ　ｃｒａｎｅ,,株式会社,大阪府,大阪市港区,夕凪２丁目４番６号,,27,107,5520004,,,,,,,2025-06-04,1,,,,,ジーククレイン,0
1133,4120001276466,新規,0,2025-06-04,2025-06-04,Ｎ’ｓエステート株式会社,,株式会社,大阪府,大阪市浪速区,日本橋５丁目１２－９－３０５,,27,111,5560005,,,,,,,2025-06-04,1,,,,,エヌズエステート,0
1144,4120101071825,新規,0,2025-06-04,2025-06-04,株式会社Ｆｏｖｅｒｓ,,株式会社,大阪府,堺市西区,浜寺公園町２丁１０９番地７,,27,144,5928346,,,,,,,2025-06-04,1,,,,,フォーバーズ,0
1146,4130001079819,新規,0,2025-06-04,2025-06-04,六白株式会社,,株式会社,京都府,宇治市,炭山大西５番地の３,,26,204,6011395,,,,,,,2025-06-04,1,,,,,ロクハク,0
1147,4130003010509,新規,0,2025-06-04,2025-06-04,合同会社ＲＩＶＡＹＡ,,合同会社,京都府,京都市北区,上賀茂坂口町９番地９,,26,101,6038016,,,,,,,2025-06-04,1,,,,,リヴァヤ,0
1151,4140003022156,新規,0,2025-06-04,2025-06-04,合同会社マルノウ,,合同会社,兵庫県,伊丹市,伊丹１丁目５番２１号,,28,207,6640846,,,,,,,2025-06-04,1,,,,,マルノウ,0
1153,4150001028179,新規,0,2025-06-04,2025-06-04,株式会社ＬｕｕｃＫ,,株式会社,奈良県,大和高田市,三和町１２番４号,,29,202,6350014,,,,,,,2025-06-04,1,,,,,ラック,0
1156,4160001026801,新規,0,2025-06-04,2025-06-04,株式会社ｄｅｓａｆｉｏ,,株式会社,滋賀県,大津市,大江６丁目２４－２６,,25,201,5202141,,,,,,,2025-06-04,1,,,,,デサフィオ,0
1158,4170001018649,新規,0,2025-06-04,2025-06-04,株式会社サンワ,,株式会社,和歌山県,田辺市,下三栖１３５５番地の８,,30,206,6460216,,,,,,,2025-06-04,1,,,,,サンワ,0
1159,4170001018657,新規,0,2025-06-04,2025-06-04,株式会社ソラール,,株式会社,和歌山県,和歌山市,西浜３丁目７番３５号,,30,201,6410036,,,,,,,2025-06-04,1,,,,,ソラール,0
1165,4180001167148,新規,0,2025-06-04,2025-06-04,株式会社ビューティーブレイン,,株式会社,愛知県,名古屋市千種区,西崎町２丁目３６番地の４,,23,101,4640825,,,,,,,2025-06-04,1,,,,,ビューティーブレイン,0
1170,4190001032268,新規,0,2025-06-04,2025-06-04,ソーサービス株式会社,,株式会社,三重県,伊勢市,大湊町１０２１番地１,,24,203,5160001,,,,,,,2025-06-04,1,,,,,ソーサービス,0
1174,4220001026729,新規,0,2025-06-04,2025-06-04,株式会社喜多建築板金,,株式会社,石川県,かほく市,高松ツ２２６番地,,17,209,9291215,,,,,,,2025-06-04,1,,,,,キタケンチクバンキン,0
1176,4220003004055,新規,0,2025-06-04,2025-06-04,合同会社ＴＯＭＯＲＲＯＷＳ,,合同会社,石川県,金沢市,新保本３丁目１１５―１,,17,201,9218062,,,,,,,2025-06-04,1,,,,,トゥモローズ,0
1184,4230003002438,新規,0,2025-06-04,2025-06-04,合同会社ＨＵＥ,,合同会社,富山県,富山市,中島４丁目８番１３号,,16,201,9300801,,,,,,,2025-06-04,1,,,,,ヒュー,0
1192,4260001040239,新規,0,2025-06-04,2025-06-04,株式会社ＣＩＥＬ,,株式会社,岡山県,岡山市北区,下石井２丁目１０番３０号杜の街グレース岡山ザ・タワー１６０５室,,33,101,7000907,,,,,,,2025-06-04,1,,,,,シエル,0
1193,4260001040255,新規,0,2025-06-04,2025-06-04,岡北商事株式会社,,株式会社,岡山県,岡山市北区,西崎１丁目５番７号,,33,101,7000055,,,,,,,2025-06-04,1,,,,,コウホクショウジ,0
1194,4260003005198,新規,0,2025-06-04,2025-06-04,合同会社Ｒｅｂｕｌｉｉｅｎｃｅ,,合同会社,岡山県,岡山市中区,平井７丁目６番２０号,,33,102,7038282,,,,,,,2025-06-04,1,,,,,リブリエンス,0
1199,4280003001955,新規,0,2025-06-04,2025-06-04,おおた林業合同会社,,合同会社,島根県,邑智郡美郷町,粕渕２５２番地３,,32,448,6994621,,,,,,,2025-06-04,1,,,,,オオタリンギョウ,0
1203,4290001110286,新規,0,2025-06-04,2025-06-04,Ｖｉｓｉｏｎ　Ａｓｓｅｔ　Ｍａｎａｇｅｍｅｎｔ株式会社,,株式会社,福岡県,福岡市城南区,別府６丁目２５番２４号,,40,136,8140104,,,,,,,2025-06-04,1,,,,,ビジョンアセットマネジメント,0
1206,4290003016928,新規,0,2025-06-04,2025-06-04,合同会社井上企画,,合同会社,福岡県,糟屋郡久山町,大字山田８５８－２番地,,40,348,8112502,,,,,,,2025-06-04,1,,,,,イノウエキカク,0
1207,4290003016936,新規,0,2025-06-04,2025-06-04,ＺＥＥ　ＭＯＴＯＲＳ合同会社,,合同会社,福岡県,福岡市東区,下原４丁目１９番２０－２０２号,,40,131,8130002,,,,,,,2025-06-04,1,,,,,ジーモーターズ,0
1208,4290801031582,新規,0,2025-06-04,2025-06-04,株式会社華栄商事,,株式会社,福岡県,田川郡川崎町,大字田原２９９－１,,40,605,8270004,,,,,,,2025-06-04,1,,,,,カエイショウジ,0
1209,4290801031599,新規,0,2025-06-04,2025-06-04,株式会社シマケン,,株式会社,福岡県,京都郡苅田町,大字与原１９９５番地１,,40,621,8000323,,,,,,,2025-06-04,1,,,,,シマケン,0
1214,4290803005072,新規,0,2025-06-04,2025-06-04,合同会社ＣｏＣｏＲｅｖｅ,,合同会社,福岡県,北九州市戸畑区,三六町９番２０号,,40,105,8040091,,,,,,,2025-06-04,1,,,,,ココレーヴ,0
1220,4310001019632,新規,0,2025-06-04,2025-06-04,Ａｓｒｉｓｅコンサルティング株式会社,,株式会社,長崎県,長崎市,万屋町３番１６号ウィステリア万屋町４階,,42,201,8500852,,,,,,,2025-06-04,1,,,,,アスライズコンサルティング,0
1221,4310003005028,新規,0,2025-06-04,2025-06-04,合同会社徳永経営企画,,合同会社,長崎県,島原市,南柏野町２７１０番地,,42,203,8550065,,,,,,,2025-06-04,1,,,,,トクナガケイエイキカク,0
1225,4320001021141,新規,0,2025-06-04,2025-06-04,株式会社Ｂｕｌｌ　Ｂｅａｒ,,株式会社,大分県,大分市,青崎２丁目３１５番地,,44,201,8700278,,,,,,,2025-06-04,1,,,,,ブルベア,0
1230,4330001033284,新規,0,2025-06-04,2025-06-04,株式会社粋正看板,,株式会社,熊本県,菊池郡菊陽町,大字辛川６４１－２,,43,404,8691107,,,,,,,2025-06-04,1,,,,,イッセイカンバン,0
1232,4350001019579,新規,0,2025-06-04,2025-06-04,株式会社タニグチ設備,,株式会社,宮崎県,宮崎市,佐土原町上田島４０３５番地４,,45,201,8800301,,,,,,,2025-06-04,1,,,,,タニグチセツビ,0
1235,4370001052669,新規,0,2025-06-04,2025-06-04,株式会社大崎鉄工,00139427,株式会社,宮城県,黒川郡大郷町,石原字馬場３２番３,,04,422,9813503,,,,,,,2025-06-04,1,,,,,オオサキテッコウ,0
1236,4370001052677,新規,0,2025-06-04,2025-06-04,株式会社及川ホーム建装,,株式会社,宮城県,仙台市太白区,富田字上野東６－７,,04,104,9820033,,,,,,,2025-06-04,1,,,,,オイカワホームケンソウ,0
1239,4410001014177,新規,0,2025-06-04,2025-06-04,株式会社八塩板金,,株式会社,秋田県,横手市,雄物川町沼館字館ノ下２１６番地,,05,203,0130208,,,,,,,2025-06-04,1,,,,,ヤシオバンキン,0
1245,4430001094556,新規,0,2025-06-04,2025-06-04,株式会社ｎ‐ｌｉｆｅ,,株式会社,北海道,札幌市西区,琴似三条４丁目４番２６号,,01,107,0630813,,,,,,,2025-06-04,1,,,,,エヌーライフ,0
1249,4440001009620,新規,0,2025-06-04,2025-06-04,株式会社Ｎ，ＳＵＤＯ,,株式会社,北海道,北斗市,東浜１丁目１２番７０号,,01,236,0490122,,,,,,,2025-06-04,1,,,,,エヌスドウ,0
1267,5010001255570,新規,0,2025-06-04,2025-06-04,瑞豊株式会社,,株式会社,東京都,中央区,銀座１丁目１４番５銀座ウイングビル北４階,,13,102,1040061,,,,,,,2025-06-04,1,,,,,ズイホウ,0
1269,5010003047529,新規,0,2025-06-04,2025-06-04,ＣＲＩＭＳＯＮ　ＲＩＳＫ合同会社,,合同会社,東京都,中央区,日本橋箱崎町２７－９ＶＥＲＡ日本橋箱崎１階オフィス,,13,102,1030015,,,,,,,2025-06-04,1,,,,,クリムゾンリスク,0
1280,5010401190582,新規,0,2025-06-04,2025-06-04,株式会社Ｂｅｎｅｐｒｏ,,株式会社,東京都,港区,南青山３丁目１番３６号青山丸竹ビル６階,,13,103,1070062,,,,,,,2025-06-04,1,,,,,ベネプロ,0
1281,5010401190780,新規,0,2025-06-04,2025-06-04,高輪ビジネス企画２号株式会社,,株式会社,東京都,港区,高輪２丁目２１番１号,,13,103,1080074,,,,,,,2025-06-04,1,,,,,タカナワビジネスキカクニゴウ,0
1283,5010405024398,新規,0,2025-06-04,2025-06-04,一般財団法人森現代芸術財団,,その他の設立登記法人,東京都,港区,六本木６丁目１０番１号六本木ヒルズ森タワー,,13,103,1060032,,,,,,,2025-06-04,1,,,,,モリゲンダイゲイジュツザイダン,0
1286,5010501054183,新規,0,2025-06-04,2025-06-04,株式会社ｎｉｃｏｄｅｓｉｇｎ,,株式会社,東京都,台東区,小島２丁目６－９平和ビル２０３,,13,106,1110056,,,,,,,2025-06-04,1,,,,,ニコデザイン,0
1292,5010601067408,新規,0,2025-06-04,2025-06-04,株式会社ピクセルノート,,株式会社,東京都,墨田区,墨田１丁目１５番３－３１１号,,13,107,1310031,,,,,,,2025-06-04,1,,,,,ピクセルノート,0
1293,5010603011611,新規,0,2025-06-04,2025-06-04,合同会社ｓａｎｋａｋｕ,,合同会社,東京都,墨田区,菊川２丁目１１－１２,,13,107,1300024,,,,,,,2025-06-04,1,,,,,サンカク,0
1300,5010801036212,新規,0,2025-06-04,2025-06-04,株式会社フルーツバスケット,,株式会社,東京都,大田区,蒲田本町１丁目３番１－１０６号,,13,111,1440053,,,,,,,2025-06-04,1,,,,,フルーツバスケット,0
1303,5010901057496,新規,0,2025-06-04,2025-06-04,株式会社Ｎｅｘｔ,,株式会社,東京都,世田谷区,太子堂４丁目１８番１５号マガザン三軒茶屋２・３Ｆ－３,,13,112,1540004,,,,,,,2025-06-04,1,,,,,ネクスト,0
1306,5010903009982,新規,0,2025-06-04,2025-06-04,ＨＡＹＡＴＡ＆アソシエイツ合同会社,,合同会社,東京都,世田谷区,千歳台３丁目２５番１５号,,13,112,1570071,,,,,,,2025-06-04,1,,,,,ハヤタアンドアソシエイツ,0
1315,5011001169777,新規,0,2025-06-04,2025-06-04,株式会社ｎａｎａｍｅｉｓｍ,,株式会社,東京都,目黒区,目黒本町６丁目２０－２,,13,110,1520002,,,,,,,2025-06-04,1,,,,,ナナメイズム,0
1316,5011001169810,新規,0,2025-06-04,2025-06-04,もとき株式会社,,株式会社,東京都,渋谷区,神南１丁目１１－４ＦＰＧリンクス神南５階,,13,113,1500041,,,,,,,2025-06-04,1,,,,,モトキ,0
1317,5011001169843,新規,0,2025-06-04,2025-06-04,ＦＩＮＥ　ＧＯＯＤＳ株式会社,,株式会社,東京都,渋谷区,神南１丁目１１－４ＦＰＧリンクス神南５階,,13,113,1500041,,,,,,,2025-06-04,1,,,,,ファイングッズ,0
1319,5011003021696,新規,0,2025-06-04,2025-06-04,合同会社コトノハ,,合同会社,東京都,渋谷区,道玄坂１丁目１０番８号渋谷道玄坂東急ビル２Ｆ－Ｃ,,13,113,1500043,,,,,,,2025-06-04,1,,,,,コトノハ,0
1320,5011005011010,新規,0,2025-06-04,2025-06-04,一般社団法人日本生成ＡＩ推進協会,,その他の設立登記法人,東京都,渋谷区,広尾１丁目４番１５号エストレーヤ広尾２０２,,13,113,1500012,,,,,,,2025-06-04,1,,,,,ニホンセイセイエーアイスイシンキョウカイ,0
1321,5011005011043,新規,0,2025-06-04,2025-06-04,一般社団法人ＩＴエンジニア育成検定協会,,その他の設立登記法人,東京都,渋谷区,道玄坂１丁目１０－８渋谷道玄坂東急ビル２Ｆ－Ｃ,,13,113,1500043,,,,,,,2025-06-04,1,,,,,アイティーエンジニアイクセイケンテイキョウカイ,0
1324,5011101111928,新規,0,2025-06-04,2025-06-04,株式会社売れる営業資料,,株式会社,東京都,新宿区,西新宿７丁目７番１９－２３０４号,,13,104,1600023,,,,,,,2025-06-04,1,,,,,ウレルエイギョウシリョウ,0
1325,5011103015953,新規,0,2025-06-04,2025-06-04,合同会社Ｔｒｅａｓｕｒｅ　Ｆｏｏｄ　Ｓｅｒｖｉｃｅ,,合同会社,東京都,新宿区,歌舞伎町２丁目１７－１０新宿小沼ビル６０３,,13,104,1600021,,,,,,,2025-06-04,1,,,,,トレジャーフードサービス,0
1326,5011103015978,新規,0,2025-06-04,2025-06-04,ＬＡＦＡ合同会社,,合同会社,東京都,新宿区,大久保１丁目１６番６号コーポオオゾラ２Ｆ７,,13,104,1690072,,,,,,,2025-06-04,1,,,,,ラファ,0
1329,5011201026407,新規,0,2025-06-04,2025-06-04,株式会社Ｃｅｎｔｅｒ　Ｆｉｅｌｄ,,株式会社,東京都,中野区,中野５丁目６７番７号プラザ中野８０１,,13,114,1640001,,,,,,,2025-06-04,1,,,,,センターフィールド,0
1333,5011401027139,新規,0,2025-06-04,2025-06-04,株式会社ＳＡアカウンティング,,株式会社,東京都,板橋区,板橋１丁目２７番１４号ふなもとビル２０１,,13,119,1730004,,,,,,,2025-06-04,1,,,,,エスエーアカウンティング,0
1335,5011501032162,新規,0,2025-06-04,2025-06-04,ＡＹＡｇｉｒｌ株式会社,,株式会社,東京都,北区,西ケ原２丁目８番１－２０１号,,13,117,1140024,,,,,,,2025-06-04,1,,,,,アヤカ,0
1344,5012401043183,新規,0,2025-06-04,2025-06-04,株式会社雅匠,,株式会社,東京都,府中市,西府町３丁目３１番地の２４,,13,206,1830031,,,,,,,2025-06-04,1,,,,,ガショウ,0
1345,5012401043191,新規,0,2025-06-04,2025-06-04,株式会社Ｕｍｉ,,株式会社,東京都,小金井市,梶野町１丁目２－３６,,13,210,1840002,,,,,,,2025-06-04,1,,,,,ユミ,0
1352,5012801024007,新規,0,2025-06-04,2025-06-04,株式会社中央土質,,株式会社,東京都,武蔵村山市,大南４丁目１８番地の４,,13,223,2080013,,,,,,,2025-06-04,1,,,,,チュウオウドシツ,0
1363,5020001163153,新規,0,2025-06-04,2025-06-04,株式会社じょうや,,株式会社,神奈川県,横浜市中区,野毛町２丁目９０番地２階,,14,104,2310064,,,,,,,2025-06-04,1,,,,,ジョウヤ,0
1364,5020001163186,新規,0,2025-06-04,2025-06-04,株式会社ＡＴＫＯＮＳＡＩ,,株式会社,神奈川県,横浜市神奈川区,松見町２丁目３８４番地,,14,102,2210005,,,,,,,2025-06-04,1,,,,,アットコンサイ,0
1369,5020003028619,新規,0,2025-06-04,2025-06-04,ＢＥＹＯＮＤ　ＴＨＥ　ＬＩＭＩＴＳ合同会社,,合同会社,神奈川県,横浜市青葉区,青葉台２丁目２８－３－４１８,,14,117,2270062,,,,,,,2025-06-04,1,,,,,ビヨンドザリミッツ,0
1376,5021001085395,新規,0,2025-06-04,2025-06-04,株式会社ワークスツリー,,株式会社,神奈川県,茅ヶ崎市,柳島１丁目１２番９号,,14,207,2530064,,,,,,,2025-06-04,1,,,,,ワークスツリー,0
1379,5021003016076,新規,0,2025-06-04,2025-06-04,合同会社Ｂ‐Ｔｒｉｇｇｅｒ,,合同会社,神奈川県,藤沢市,本町１丁目１０番１３号,,14,205,2510053,,,,,,,2025-06-04,1,,,,,ビートリガー,0
1383,5030001166700,新規,0,2025-06-04,2025-06-04,株式会社夢幻,,株式会社,埼玉県,桶川市,大字川田谷５５７６番地,,11,231,3630027,,,,,,,2025-06-04,1,,,,,ムゲン,0
1384,5030001166832,新規,0,2025-06-04,2025-06-04,株式会社暁月,,株式会社,埼玉県,さいたま市見沼区,大字西山村新田６２番地,,11,104,3370034,,,,,,,2025-06-04,1,,,,,アカツキ,0
1385,5030001166865,新規,0,2025-06-04,2025-06-04,株式会社ＵＴＡＳＡＮ,,株式会社,埼玉県,桶川市,大字川田谷２７３０番地の２９７,,11,231,3630027,,,,,,,2025-06-04,1,,,,,ウタサン,0
1386,5030001166931,新規,0,2025-06-04,2025-06-04,株式会社ニュー大宝,,株式会社,埼玉県,さいたま市緑区,美園２丁目８番地９－１０１,,11,109,3360967,,,,,,,2025-06-04,1,,,,,ニュータイホウ,0
1392,5040001139052,新規,0,2025-06-04,2025-06-04,株式会社エンゲージメントプロモーション,,株式会社,千葉県,船橋市,前原東５丁目３７番１号,,12,204,2740824,,,,,,,2025-06-04,1,,,,,エンゲージメントプロモーション,0
1393,5040001139060,新規,0,2025-06-04,2025-06-04,株式会社インパクト,,株式会社,千葉県,千葉市美浜区,真砂４丁目１番１１号－１１１号,,12,106,2610011,,,,,,,2025-06-04,1,,,,,インパクト,0
1395,5040003027718,新規,0,2025-06-04,2025-06-04,合同会社ＤＳＪ,,合同会社,千葉県,山武市,小松１６８－５,,12,237,2891302,,,,,,,2025-06-04,1,,,,,ディーエスジェイ,0
1399,5050001056759,新規,0,2025-06-04,2025-06-04,株式会社石崎工業,00139422,株式会社,茨城県,水戸市,河和田町４０２８番地の１９,,08,201,3114153,,,,,,,2025-06-04,1,,,,,イシザキコウギョウ,0
1400,5050001056767,新規,0,2025-06-04,2025-06-04,株式会社小原商店,,株式会社,茨城県,鹿嶋市,大字清水２４０番地,,08,222,3140001,,,,,,,2025-06-04,1,,,,,オバラショウテン,0
1406,5070001042996,新規,0,2025-06-04,2025-06-04,株式会社Ｌｉｖｅ　Ｏｎｅ,,株式会社,群馬県,伊勢崎市,新栄町３８５０番地１３,,10,204,3720038,,,,,,,2025-06-04,1,,,,,ライブワン,0
1407,5080001026965,新規,0,2025-06-04,2025-06-04,ＳＩＲＡＲＡ　ＥＰＩＳ株式会社,,株式会社,静岡県,静岡市葵区,音羽町１６番２６号,,22,101,4200834,,,,,,,2025-06-04,1,,,,,シララエピス,0
1409,5080101025529,新規,0,2025-06-04,2025-06-04,株式会社エルビーズ,,株式会社,静岡県,富士市,伝法９４７番地の１,,22,210,4170061,,,,,,,2025-06-04,1,,,,,エルビーズ,0
1411,5080401027951,新規,0,2025-06-04,2025-06-04,株式会社中嶋園芸,,株式会社,静岡県,浜松市中央区,白洲町２９７５番地の１,,22,138,4311204,,,,,,,2025-06-04,1,,,,,ナカジマエンゲイ,0
1413,5080403005278,新規,0,2025-06-04,2025-06-04,合同会社セイワケアサービス,,合同会社,静岡県,浜松市中央区,城北２丁目２０番４号,,22,138,4328011,,,,,,,2025-06-04,1,,,,,セイワケアサービス,0
1418,5100001038652,新規,0,2025-06-04,2025-06-04,株式会社ビーインテント,,株式会社,長野県,安曇野市,穂高有明８９６９番地３０,,20,220,3998301,,,,,,,2025-06-04,1,,,,,ビーインテント,0
1419,5100003008208,新規,0,2025-06-04,2025-06-04,合同会社ＲＩＤＥＲＥ,,合同会社,長野県,松本市,笹部４丁目２番４号サンライズ笹部１０１,,20,202,3900847,,,,,,,2025-06-04,1,,,,,リデーレ,0
1420,5100003008216,新規,0,2025-06-04,2025-06-04,合同会社Ｖｏｒｔｅｘ,,合同会社,長野県,伊那市,荒井３５１１番地１スクエアビル３Ｆ,,20,209,3960025,,,,,,,2025-06-04,1,,,,,ヴォルテックス,0
1422,5110001039311,新規,0,2025-06-04,2025-06-04,株式会社ＴＫ,,株式会社,新潟県,小千谷市,大字三仏生４２２９番地１,,15,208,9470051,,,,,,,2025-06-04,1,,,,,ティーケー,0
1432,5120001276424,新規,0,2025-06-04,2025-06-04,株式会社黒船,,株式会社,大阪府,大阪市北区,中津１丁目３番１１－３０２号,,27,127,5310071,,,,,,,2025-06-04,1,,,,,クロフネ,0
1433,5120001276449,新規,0,2025-06-04,2025-06-04,株式会社Ｒ．Ｔｈｒｅｅ,,株式会社,大阪府,大阪市住吉区,帝塚山西３丁目１－２２,,27,120,5580052,,,,,,,2025-06-04,1,,,,,アールスリー,0
1434,5120001276457,新規,0,2025-06-04,2025-06-04,株式会社ＴＲＡＮＣＥ　ＬＩＦＥ,,株式会社,大阪府,大阪市淀川区,西中島４丁目７－１チサンマンション１階,,27,123,5320011,,,,,,,2025-06-04,1,,,,,トランスライフ,0
1435,5120001276465,新規,0,2025-06-04,2025-06-04,株式会社トモツク,,株式会社,大阪府,大阪市生野区,生野東２丁目１番２３号森本ビル３Ｆ,,27,116,5440025,,,,,,,2025-06-04,1,,,,,トモツク,0
1436,5120001276473,新規,0,2025-06-04,2025-06-04,株式会社Ｓ‐ＷＩＮＤ,,株式会社,大阪府,大阪市天王寺区,上之宮町１番１３号,,27,109,5430037,,,,,,,2025-06-04,1,,,,,エスウィンド,0
1437,5120001276597,新規,0,2025-06-04,2025-06-04,禾良一株式会社,,株式会社,大阪府,大阪市生野区,新今里７丁目７番２－２０１号,,27,116,5440001,,,,,,,2025-06-04,1,,,,,カリョウイチ,0
1440,5120003029656,新規,0,2025-06-04,2025-06-04,合同会社フェアルワークス,,合同会社,大阪府,大阪市北区,天満橋２丁目３番１０－７０６号,,27,127,5300042,,,,,,,2025-06-04,1,,,,,フェアルワークス,0
1441,5120003029664,新規,0,2025-06-04,2025-06-04,合同会社情熱エステート,,合同会社,大阪府,大阪市都島区,中野町３丁目７－２１,,27,102,5340027,,,,,,,2025-06-04,1,,,,,ジョウネツエステート,0
1442,5120005024977,新規,0,2025-06-04,2025-06-04,ＷＥＬＬ　ＶＩＳＡ行政書士法人,,その他の設立登記法人,大阪府,大阪市中央区,本町４丁目６番２７－２０１号,,27,128,5410053,,,,,,,2025-06-04,1,,,,,ウェルビザ,0
1445,5120101071832,新規,0,2025-06-04,2025-06-04,株式会社クールエッジ,,株式会社,大阪府,泉大津市,西港町１番７号,,27,206,5950052,,,,,,,2025-06-04,1,,,,,クールエッジ,0
1448,5120901050993,新規,0,2025-06-04,2025-06-04,株式会社ＤＡＦＴ,,株式会社,大阪府,茨木市,五日市緑町４番１４号茨木山本ハイツ２０２号,,27,211,5670029,,,,,,,2025-06-04,1,,,,,ダフト,0
1449,5120901051001,新規,0,2025-06-04,2025-06-04,おくちエンターテイメント株式会社,,株式会社,大阪府,茨木市,大手町９－２１マリンビル３階,,27,211,5670883,,,,,,,2025-06-04,1,,,,,オクチエンターテイメント,0
1453,5130001079818,新規,0,2025-06-04,2025-06-04,未来ファミリー株式会社,,株式会社,京都府,京都市右京区,太秦中筋町７番地１０７号室,,26,108,6168184,,,,,,,2025-06-04,1,,,,,ミライファミリー,0
1455,5130003010508,新規,0,2025-06-04,2025-06-04,エンライトンリサーチ合同会社,,合同会社,京都府,京都市左京区,岡崎徳成町８番地１８,,26,103,6068351,,,,,,,2025-06-04,1,,,,,エンライトンリサーチ,0
1462,5150003003625,新規,0,2025-06-04,2025-06-04,合同会社リリークレスト,,合同会社,奈良県,奈良市,高畑町８１０番地,,29,201,6308301,,,,,,,2025-06-04,1,,,,,リリークレスト,0
1465,5170001018648,新規,0,2025-06-04,2025-06-04,株式会社ＴＡＦ防水,,株式会社,和歌山県,西牟婁郡白浜町,１０７７番地の２,,30,401,6492211,,,,,,,2025-06-04,1,,,,,タフボウスイ,0
1473,5180001167072,新規,0,2025-06-04,2025-06-04,株式会社Ｅｅｎｙ，Ｍｅｅｎｙ，Ｍｉｎｙ，Ｍｏｅ,,株式会社,愛知県,名古屋市中区,金山１丁目１５番２１号ＪＧ金山ビル２Ｆ,,23,106,4600022,,,,,,,2025-06-04,1,,,,,イニミニマニモエ,0
1474,5180001167097,新規,0,2025-06-04,2025-06-04,株式会社ＫＡＢＩＮ,,株式会社,愛知県,名古屋市瑞穂区,豊岡通１丁目４５番地,,23,108,4670012,,,,,,,2025-06-04,1,,,,,カビン,0
1475,5180001167106,新規,0,2025-06-04,2025-06-04,株式会社Ｎ,,株式会社,愛知県,名古屋市中川区,長良町５丁目１１番地アイリスＩＩ３０２号,00139418,23,110,4540815,,,,,,,2025-06-04,1,,,,,エヌ,0
1478,5180303006597,新規,0,2025-06-04,2025-06-04,合同会社スモール,,合同会社,愛知県,岡崎市,羽根町字大池２０番地１２,,23,202,4440816,,,,,,,2025-06-04,1,,,,,スモール,0
1481,5190001032259,新規,0,2025-06-04,2025-06-04,株式会社ＪＰＧＲ,,株式会社,三重県,四日市市,小林町３００８番地６９,,24,202,5100946,,,,,,,2025-06-04,1,,,,,ジェイピージーアール,0
1487,5230003002437,新規,0,2025-06-04,2025-06-04,ＬＯＣＡＬＵ合同会社,,合同会社,富山県,高岡市,戸出町２丁目３番５６‐２２０号アキバハイツ４号,,16,202,9391104,,,,,,,2025-06-04,1,,,,,ローカル,0
1494,5240003007245,新規,0,2025-06-04,2025-06-04,合同会社ＦＰＩ,,合同会社,広島県,福山市,東川口町５丁目２番１９号,,34,207,7200821,,,,,,,2025-06-04,1,,,,,エフピーアイ,0
1503,5260001040238,新規,0,2025-06-04,2025-06-04,いとよし株式会社,,株式会社,岡山県,倉敷市,酒津２３３１番地１ジュール・ド・ミュゲ１０２,,33,202,7100801,,,,,,,2025-06-04,1,,,,,イトヨシ,0
1504,5260001040254,新規,0,2025-06-04,2025-06-04,株式会社ＳＩ防災,,株式会社,岡山県,岡山市南区,妹尾２７６０番地１２,,33,104,7010205,,,,,,,2025-06-04,1,,,,,エスアイボウサイ,0
1505,5260003005206,新規,0,2025-06-04,2025-06-04,ＥＳ‐１合同会社,,合同会社,岡山県,岡山市北区,今４丁目１５番３３号,,33,101,7000975,,,,,,,2025-06-04,1,,,,,イーエスワン,0
1509,5290001110228,新規,0,2025-06-04,2025-06-04,株式会社Ｓｏｊｏ,,株式会社,福岡県,福岡市東区,舞松原２丁目１番１５－１０１号,,40,131,8130042,,,,,,,2025-06-04,1,,,,,,0
1510,5290001110277,新規,0,2025-06-04,2025-06-04,株式会社エヌ運送お引越し,,株式会社,福岡県,福岡市西区,福重４丁目９番２３号,,40,135,8190022,,,,,,,2025-06-04,1,,,,,エヌウンソウオヒッコシ,0
1511,5290001110293,新規,0,2025-06-04,2025-06-04,株式会社空間事業創造研究所,,株式会社,福岡県,福岡市中央区,黒門６番４５－６１０号,,40,133,8100055,,,,,,,2025-06-04,1,,,,,クウカンジギョウソウゾウケンキュウショ,0
1518,5300001014212,新規,0,2025-06-04,2025-06-04,株式会社ｐｏ‐ｍａｒｉ,,株式会社,佐賀県,唐津市,新興町２０番地アーバンパレス唐津スカイテラス１００１号,,41,202,8470000,,,,,,,2025-06-04,1,,,,,ポマリ,0
1523,5320001021149,新規,0,2025-06-04,2025-06-04,株式会社ＬＯＵ,,株式会社,大分県,大分市,大字羽屋９３７番地の６,,44,201,8700854,,,,,,,2025-06-04,1,,,,,ルー,0
1526,5330003011023,新規,0,2025-06-04,2025-06-04,合同会社鼎工業,,合同会社,熊本県,熊本市東区,花立５丁目５－１１４,,43,102,8620918,,,,,,,2025-06-04,1,,,,,テイコウギョウ,0
1527,5340001027400,新規,0,2025-06-04,2025-06-04,株式会社結心,,株式会社,鹿児島県,鹿児島市,山之口町９番６号南州ＤＡＤＡビル２階,,46,201,8920844,,,,,,,2025-06-04,1,,,,,ユイゴコロ,0
1531,5370001052676,新規,0,2025-06-04,2025-06-04,株式会社創一路,,株式会社,宮城県,仙台市太白区,三神峯２丁目１４番５号,,04,104,9820826,,,,,,,2025-06-04,1,,,,,ソウイチロ,0
1533,5370003007117,新規,0,2025-06-04,2025-06-04,ｍａｉｉｂａｓｈｏ合同会社,,合同会社,宮城県,伊具郡丸森町,字町東６８番地,,04,341,9812164,,,,,,,2025-06-04,1,,,,,マイイバショ,0
1536,5380001035366,新規,0,2025-06-04,2025-06-04,ＳＡＴＯＭＩ　ＨＯＭＥＳ株式会社,,株式会社,福島県,いわき市,常磐白鳥町勝丘１１７番地の５６,,07,204,9728325,,,,,,,2025-06-04,1,,,,,サトミホームズ,0
1539,5390001018007,新規,0,2025-06-04,2025-06-04,上白土建設株式会社,,株式会社,山形県,山形市,鈴川町４丁目７番１１－１号,,06,201,9900062,,,,,,,2025-06-04,1,,,,,カミシラトケンセツ,0
1541,5400001017056,新規,0,2025-06-04,2025-06-04,株式会社トラスト,,株式会社,岩手県,盛岡市,小鳥沢１丁目１９番３号,,03,201,0200104,,,,,,,2025-06-04,1,,,,,トラスト,0
1546,5420001019166,新規,0,2025-06-04,2025-06-04,バイオ実験ハンズオン株式会社,,株式会社,青森県,弘前市,大字早稲田３丁目７番地１４,,02,202,0368087,,,,,,,2025-06-04,1,,,,,バイオジッケンハンズオン,0
1548,5430001094596,新規,0,2025-06-04,2025-06-04,メディアビジネスラボ株式会社,,株式会社,北海道,札幌市中央区,南二十一条西１３丁目１－１５－１０６,,01,101,0640921,,,,,,,2025-06-04,1,,,,,メディアビジネスラボ,0
1554,5480003002271,新規,0,2025-06-04,2025-06-04,ｓｕｎ　ｐｌｕｓ合同会社,,合同会社,徳島県,徳島市,西須賀町中開３２番地の４,,36,201,7708024,,,,,,,2025-06-04,1,,,,,サンプラス,0
1557,5500001026328,新規,0,2025-06-04,2025-06-04,株式会社ＭＣＳ,,株式会社,愛媛県,松山市,馬木町３１８番地７,,38,201,7992655,,,,,,,2025-06-04,1,,,,,エムシーエス,0
1558,5500003003531,新規,0,2025-06-04,2025-06-04,Ｓｏｌｕｎａ合同会社,,合同会社,愛媛県,松山市,千舟町５丁目３－１７・４階,,38,201,7900011,,,,,,,2025-06-04,1,,,,,ソルナ,0
1567,6010001255504,新規,0,2025-06-04,2025-06-04,株式会社Ｇｉｖｅ　Ｃｏｎｎｅｃｔｉｏｎ,,株式会社,東京都,中央区,日本橋室町１丁目９－１２共同ビル１Ｆ,,13,102,1030022,,,,,,,2025-06-04,1,,,,,ギブコネクション,0
1568,6010001255628,新規,0,2025-06-04,2025-06-04,株式会社ＮＥＸ,,株式会社,東京都,中央区,銀座１丁目１２番４号Ｎ＆ＥＢＬＤ．６Ｆ,,13,102,1040061,,,,,,,2025-06-04,1,,,,,ネックス,0
1569,6010001255677,新規,0,2025-06-04,2025-06-04,株式会社ＨＷＰ,,株式会社,東京都,中央区,築地３丁目１７番１０号ＢＡＮＨＯＴＥＬ１Ｆ,,13,102,1040045,,,,,,,2025-06-04,1,,,,,エイチダブリューピー,0
1570,6010003047552,新規,0,2025-06-04,2025-06-04,合同会社聖岳,,合同会社,東京都,千代田区,丸の内１丁目４番１号東京共同会計事務所内,,13,101,1000005,,,,,,,2025-06-04,1,,,,,ヒジリダケ,0
1573,6010005040142,新規,0,2025-06-04,2025-06-04,一般社団法人銀座８ホテルプロジェクト,,その他の設立登記法人,東京都,千代田区,霞が関３丁目２番５号,,13,101,1000013,,,,,,,2025-06-04,1,,,,,ギンザハチホテルプロジェクト,0
1579,6010401190722,新規,0,2025-06-04,2025-06-04,アルファ・アセット・ソリューションズ株式会社,,株式会社,東京都,港区,虎ノ門５丁目３番２０号仙石山アネックス２１４,,13,103,1050001,,,,,,,2025-06-04,1,,,,,アルファアセットソリューションズ,0
1580,6010401190747,新規,0,2025-06-04,2025-06-04,Ｈａｓｈｔａｇ　Ｈｏｔｅｌ　Ｏｐｅｒａｔｉｏｎｓ株式会社,,株式会社,東京都,港区,虎ノ門３丁目７番１０号,,13,103,1050001,,,,,,,2025-06-04,1,,,,,ハッシュタグホテルオペレーションズ,0
1581,6010401190755,新規,0,2025-06-04,2025-06-04,株式会社デジタル人事コンサルティング,,株式会社,東京都,港区,南青山２丁目２番１５号,,13,103,1070062,,,,,,,2025-06-04,1,,,,,デジタルジンジコンサルティング,0
1583,6010603011610,新規,0,2025-06-04,2025-06-04,合同会社ＴＫ,,合同会社,東京都,江東区,塩浜２丁目７番５－６４２号,,13,108,1350043,,,,,,,2025-06-04,1,,,,,ティーケー,0
1585,6010701047795,新規,0,2025-06-04,2025-06-04,ＭＫ株式会社,,株式会社,東京都,品川区,東五反田５丁目４番６号池田山テラスＣ号室,,13,109,1410022,,,,,,,2025-06-04,1,,,,,エムケー,0
1588,6010801036228,新規,0,2025-06-04,2025-06-04,株式会社ＲＡＩＮＢＯＷ,,株式会社,東京都,大田区,西蒲田６丁目８番１０号,,13,111,1440051,,,,,,,2025-06-04,1,,,,,レインボウ,0
1590,6010803005429,新規,0,2025-06-04,2025-06-04,合同会社ｅ‐ＳｕＰ＆Ｐ,,合同会社,東京都,大田区,田園調布３丁目３６－３,,13,111,1450071,,,,,,,2025-06-04,1,,,,,イーサップアンドピー,0
1592,6010901057495,新規,0,2025-06-04,2025-06-04,株式会社ｐｌｕｓ　Ｕ　ａｒｃｈｉｔｅｃｔｓ,,株式会社,東京都,世田谷区,玉川台２丁目３番２０－５０３号,,13,112,1580096,,,,,,,2025-06-04,1,,,,,プラスユーアーキテクツ,0
1593,6010903009940,新規,0,2025-06-04,2025-06-04,合同会社友と酒,,合同会社,東京都,世田谷区,北沢２丁目８―１２本多ビル２階,,13,112,1550031,,,,,,,2025-06-04,1,,,,,トモトサケ,0
1594,6010903009981,新規,0,2025-06-04,2025-06-04,合同会社アクシス,,合同会社,東京都,世田谷区,下馬３丁目１３－８,,13,112,1540002,,,,,,,2025-06-04,1,,,,,アクシス,0
1600,6011001169867,新規,0,2025-06-04,2025-06-04,株式会社美容ヒフコキャリア,,株式会社,東京都,渋谷区,神宮前６丁目１７番１５号落合原宿ビル７階,,13,113,1500001,,,,,,,2025-06-04,1,,,,,ビヨウヒフコキャリア,0
1601,6011001170172,新規,0,2025-06-04,2025-06-04,株式会社あどばんす,,株式会社,東京都,目黒区,目黒２丁目５－２ウィステリア目黒Ａ,,13,110,1530063,,,,,,,2025-06-04,1,,,,,アドバンス,0
1609,6011101112033,新規,0,2025-06-04,2025-06-04,株式会社まる,,株式会社,東京都,新宿区,新宿５丁目１８－２０ルックハイツ新宿８０３号,,13,104,1600022,,,,,,,2025-06-04,1,,,,,マル,0
1612,6011201026406,新規,0,2025-06-04,2025-06-04,承新デジタル株式会社,,株式会社,東京都,中野区,中野４丁目１０番２号中野セントラルパークサウス,,13,114,1640001,,,,,,,2025-06-04,1,,,,,ショウシンデジタル,0
1613,6011203004723,新規,0,2025-06-04,2025-06-04,合同会社土橋,,合同会社,東京都,中野区,弥生町４丁目１１－１３、３０３,,13,114,1640013,,,,,,,2025-06-04,1,,,,,ドバシ,0
1618,6011403004721,新規,0,2025-06-04,2025-06-04,モア・グロース合同会社,,合同会社,東京都,板橋区,高島平１丁目８１番１３－７０１,,13,119,1750082,,,,,,,2025-06-04,1,,,,,モアグロース,0
1623,6012401043199,新規,0,2025-06-04,2025-06-04,株式会社イッテルビー,,株式会社,東京都,武蔵野市,吉祥寺北町１丁目３０番２１号,,13,203,1800001,,,,,,,2025-06-04,1,,,,,イッテルビー,0
1628,6012801024006,新規,0,2025-06-04,2025-06-04,株式会社小林電工,,株式会社,東京都,武蔵村山市,大南３丁目１１７番地の７７,,13,223,2080013,,,,,,,2025-06-04,1,,,,,コバヤシデンコウ,0
1639,6020001163169,新規,0,2025-06-04,2025-06-04,株式会社ＡＬＬＩＥＲ,,株式会社,神奈川県,横浜市中区,桜木町１丁目１０１番地１クロスゲート７階,,14,104,2310062,,,,,,,2025-06-04,1,,,,,,0
1640,6020001163193,新規,0,2025-06-04,2025-06-04,株式会社イノヴァティオ,,株式会社,神奈川県,横浜市西区,浅間町１丁目４番３号ウィザードビル４０２,,14,103,2200072,,,,,,,2025-06-04,1,,,,,イノヴァティオ,0
1646,6020003028642,新規,0,2025-06-04,2025-06-04,エクセル合同会社,,合同会社,神奈川県,川崎市多摩区,登戸１１９３－６エクセルコート１Ｆ,,14,135,2140014,,,,,,,2025-06-04,1,,,,,エクセル,0
1661,6030001166856,新規,0,2025-06-04,2025-06-04,株式会社リプランツ,,株式会社,埼玉県,三郷市,三郷３丁目１６番地２,,11,237,3410024,,,,,,,2025-06-04,1,,,,,リプランツ,0
1662,6030001166872,新規,0,2025-06-04,2025-06-04,株式会社エイボ,,株式会社,埼玉県,川口市,大字東内野２１３番地の３７,,11,203,3330821,,,,,,,2025-06-04,1,,,,,エイボ,0
1663,6030001166880,新規,0,2025-06-04,2025-06-04,株式会社タダデンキ,,株式会社,埼玉県,さいたま市南区,大字大谷口５４８０番地,,11,108,3360042,,,,,,,2025-06-04,1,,,,,タダデンキ,0
1664,6030002117131,新規,0,2025-06-04,2025-06-04,有限会社文化印刷所,,有限会社,埼玉県,深谷市,西島町２丁目６番地６,,11,218,3660824,,,,,,,2025-06-04,1,,,,,ブンカインサツジョ,0
1675,6040001138961,新規,0,2025-06-04,2025-06-04,エイアールエム株式会社,,株式会社,千葉県,船橋市,宮本９丁目６番１－８２１号,,12,204,2730003,,,,,,,2025-06-04,1,,,,,エイアールエム,0
1676,6040001139035,新規,0,2025-06-04,2025-06-04,株式会社深山組,,株式会社,千葉県,長生郡白子町,浜宿２６３番地３,,12,424,2994201,,,,,,,2025-06-04,1,,,,,ミヤマグミ,0
1677,6040001139051,新規,0,2025-06-04,2025-06-04,株式会社スマイル旅,,株式会社,千葉県,成田市,郷部１２１２ソフィテル３号館３０５,,12,211,2860014,,,,,,,2025-06-04,1,,,,,スマイルタビ,0
1678,6040001139068,新規,0,2025-06-04,2025-06-04,ＫＥＮＺ株式会社,,株式会社,千葉県,市川市,北方町４丁目１５６２番地,,12,203,2720811,,,,,,,2025-06-04,1,,,,,ケンズ,0
1681,6040002071666,新規,0,2025-06-04,2025-06-04,有限会社やすたけ不動産,,有限会社,千葉県,富津市,金谷２１５４番地１,,12,226,2991861,,,,,,,2025-06-04,1,,,,,ヤスタケフドウサン,0
1684,6050001056758,新規,0,2025-06-04,2025-06-04,株式会社ＬＴ,,株式会社,茨城県,龍ケ崎市,白羽４丁目２番地８フォルミアＡ棟１０２号室,,08,208,3010841,,,,,,,2025-06-04,1,,,,,エルティー,0
1685,6050001056766,新規,0,2025-06-04,2025-06-04,株式会社アグリトレジャー,,株式会社,茨城県,東茨城郡茨城町,大字駒場２１２番地１,,08,302,3113132,,,,,,,2025-06-04,1,,,,,アグリトレジャー,0
1690,6060001038251,新規,0,2025-06-04,2025-06-04,ＳＯＯＳＵ株式会社,,株式会社,栃木県,足利市,朝倉町２丁目１７－２１,,09,202,3260823,,,,,,,2025-06-04,1,,,,,ソース,0
1692,6080001026972,新規,0,2025-06-04,2025-06-04,株式会社ＪＤＩ,,株式会社,静岡県,焼津市,駅北３丁目２番１５号,,22,212,4250028,,,,,,,2025-06-04,1,,,,,ジェイディーアイ,0
1694,6080101025528,新規,0,2025-06-04,2025-06-04,株式会社及川組,,株式会社,静岡県,伊東市,玖須美元和田７１６番地の９７３,,22,208,4140045,,,,,,,2025-06-04,1,,,,,オイカワグミ,0
1696,6080103003341,新規,0,2025-06-04,2025-06-04,合同会社山のはちみつ熱海,,合同会社,静岡県,熱海市,上多賀６１３－７,,22,205,4130101,,,,,,,2025-06-04,1,,,,,ヤマノハチミツアタミ,0
1697,6080401027942,新規,0,2025-06-04,2025-06-04,株式会社ファーストハウス,,株式会社,静岡県,浜松市中央区,向宿２丁目２７番９号,,22,138,4300851,,,,,,,2025-06-04,1,,,,,ファーストハウス,0
1698,6080401027950,新規,0,2025-06-04,2025-06-04,株式会社ＯｎｅＳｔｙｌｅ,,株式会社,静岡県,浜松市浜名区,三ヶ日町下尾奈１１０２番地,,22,139,4311424,,,,,,,2025-06-04,1,,,,,ワンスタイル,0
1702,6100001038668,新規,0,2025-06-04,2025-06-04,株式会社ＳＴ　Ｃｏｒｐｏｒａｔｉｏｎ,,株式会社,長野県,長野市,三輪３丁目７番２４号,,20,201,3800803,,,,,,,2025-06-04,1,,,,,エスティーコーポレイション,0
1703,6100001038676,新規,0,2025-06-04,2025-06-04,長和のめぐみ株式会社,,株式会社,長野県,小県郡長和町,古町４０１２番地２,,20,350,3860603,,,,,,,2025-06-04,1,,,,,ナガワノネグミ,0
1704,6100003008207,新規,0,2025-06-04,2025-06-04,合同会社ブリッジ・バインド,,合同会社,長野県,諏訪郡富士見町,落合３７６４番地６,,20,362,3990214,,,,,,,2025-06-04,1,,,,,ブリッジバインド,0
1705,6100003008215,新規,0,2025-06-04,2025-06-04,合同会社ＩＬ　ＲＯＳＳＯ,,合同会社,長野県,安曇野市,豊科光２０３７番地４１,,20,220,3998202,,,,,,,2025-06-04,1,,,,,イルロッソ,0
1707,6110001039310,新規,0,2025-06-04,2025-06-04,株式会社あおやま建築,,株式会社,新潟県,新潟市西蒲区,巻甲４３６番地１,,15,108,9530041,,,,,,,2025-06-04,1,,,,,アオヤマケンチク,0
1717,6120001276431,新規,0,2025-06-04,2025-06-04,介洋株式会社,,株式会社,大阪府,大阪市生野区,巽北１丁目１番１号２Ｆ－Ｆ,,27,116,5440004,,,,,,,2025-06-04,1,,,,,カイヨウ,0
1718,6120001276448,新規,0,2025-06-04,2025-06-04,株式会社Ｅｔｅｒｎａｌ　Ｔｒａｓｔ,,株式会社,大阪府,大阪市西区,江之子島２丁目１番３７－３１０９号,,27,106,5500006,,,,,,,2025-06-04,1,,,,,エターナルトラスト,0
1719,6120001276472,新規,0,2025-06-04,2025-06-04,株式会社征電,,株式会社,大阪府,大阪市城東区,諏訪１丁目１７番１６号,,27,118,5360021,,,,,,,2025-06-04,1,,,,,セイデン,0
1720,6120001276489,新規,0,2025-06-04,2025-06-04,株式会社マルワ,,株式会社,大阪府,大阪市港区,弁天３丁目６番２０号,,27,107,5520007,,,,,,,2025-06-04,1,,,,,マルワ,0
1721,6120001276497,新規,0,2025-06-04,2025-06-04,株式会社悠靴,,株式会社,大阪府,大阪市浪速区,恵美須西３丁目１３番３０号ドムスコンタアト２０２号,,27,111,5560003,,,,,,,2025-06-04,1,,,,,ユウカ,0
1722,6120001276613,新規,0,2025-06-04,2025-06-04,株式会社朝日温泉,,株式会社,大阪府,大阪市住吉区,南住吉３丁目１１番８号,,27,120,5580041,,,,,,,2025-06-04,1,,,,,アサヒオンセン,0
1727,6120101071807,新規,0,2025-06-04,2025-06-04,株式会社山塚刃物製作所,00139424,株式会社,大阪府,堺市西区,築港浜寺西町２番地９,,27,144,5928352,,,,,,,2025-06-04,1,,,,,ヤマツカハモノセイサクショ,0
1733,6122001039289,新規,0,2025-06-04,2025-06-04,株式会社西村商運,,株式会社,大阪府,四條畷市,岡山２丁目１７番１４号,,27,229,5750002,,,,,,,2025-06-04,1,,,,,ニシムラショウウン,0
1737,6130001079809,新規,0,2025-06-04,2025-06-04,株式会社ハートフーズ,,株式会社,京都府,京都市伏見区,日野田中町６番地,,26,109,6011425,,,,,,,2025-06-04,1,,,,,ハートフーズ,0
1738,6130001079817,新規,0,2025-06-04,2025-06-04,株式会社茉啓建設,,株式会社,京都府,京都市西京区,大枝南福西町２丁目１５番地９,,26,111,6101113,,,,,,,2025-06-04,1,,,,,マヒロケンセツ,0
1739,6130001079825,新規,0,2025-06-04,2025-06-04,株式会社Ｌ．ｅａｓｅ,,株式会社,京都府,京都市中京区,西ノ京円町２７－１－８０３,,26,104,6048463,,,,,,,2025-06-04,1,,,,,イーズ,0
1740,6130005017376,新規,0,2025-06-04,2025-06-04,一般社団法人Ｎａｔｉｏｎａｌ,,その他の設立登記法人,京都府,京都市左京区,高野蓼原町１４－１－ＯＤ３－Ｎａｔｉｏｎａｌ,,26,103,6068101,,,,,,,2025-06-04,1,,,,,ナショナル,0
1744,6150001028169,新規,0,2025-06-04,2025-06-04,ユウキクラフト株式会社,,株式会社,奈良県,天理市,岩室町５６番地３,,29,204,6320076,,,,,,,2025-06-04,1,,,,,ユウキクラフト,0
1745,6150003003624,新規,0,2025-06-04,2025-06-04,合同会社安寿,,合同会社,奈良県,奈良市,南京終町７８５－１０番地,,29,201,6308141,,,,,,,2025-06-04,1,,,,,アンジュ,0
1747,6160001026799,新規,0,2025-06-04,2025-06-04,株式会社ＧｒａｎＤｒｅａｍ,,株式会社,滋賀県,長浜市,大戌亥町６８２－１,,25,203,5260043,,,,,,,2025-06-04,1,,,,,グランドリーム,0
1749,6170001018655,新規,0,2025-06-04,2025-06-04,山久商店株式会社,,株式会社,和歌山県,和歌山市,畑屋敷中ノ丁３２番地,,30,201,6408395,,,,,,,2025-06-04,1,,,,,ヤマヒサショウテン,0
1755,6180001167179,新規,0,2025-06-04,2025-06-04,門前自動車販売株式会社,,株式会社,愛知県,尾張旭市,晴丘町池上１２２番地１,,23,226,4880032,,,,,,,2025-06-04,1,,,,,モンマエジドウシャハンバイ,0
1762,6190001032258,新規,0,2025-06-04,2025-06-04,株式会社コレクティブ,,株式会社,三重県,桑名市,野田３丁目２０番地１９,,24,205,5110904,,,,,,,2025-06-04,1,,,,,コレクティブ,0
1763,6190001032266,新規,0,2025-06-04,2025-06-04,ウミノ工業株式会社,,株式会社,三重県,津市,安濃町粟加２２５５番地,,24,201,5142324,,,,,,,2025-06-04,1,,,,,ウミノコウギョウ,0
1767,6200001043864,新規,0,2025-06-04,2025-06-04,株式会社ＲＡＩＺ,,株式会社,岐阜県,岐阜市,東川手４丁目４５番地,,21,201,5008257,,,,,,,2025-06-04,1,,,,,ライズ,0
1769,6200003006860,新規,0,2025-06-04,2025-06-04,千本カツラ合同会社,,合同会社,岐阜県,岐阜市,北一色５丁目６番１８号,,21,201,5008227,,,,,,,2025-06-04,1,,,,,センボンカツラ,0
1776,6220003004037,新規,0,2025-06-04,2025-06-04,ＫＯＳＭＯＳ合同会社,,合同会社,石川県,小松市,打越町丙１４０番地１ラフィネデュオＩＩ２１１号,00139417,17,203,9230831,,,,,,,2025-06-04,1,,,,,コスモス,0
1777,6230001020943,新規,0,2025-06-04,2025-06-04,株式会社恵比須丸黒部,,株式会社,富山県,黒部市,生地神明町５３番地,,16,207,9380065,,,,,,,2025-06-04,1,,,,,エビスマルクロベ,0
1782,6240001065013,新規,0,2025-06-04,2025-06-04,株式会社ネクリエ,,株式会社,広島県,福山市,神辺町字上御領９７３番地２,,34,207,7202111,,,,,,,2025-06-04,1,,,,,ネクリエ,0
1783,6240001065021,新規,0,2025-06-04,2025-06-04,株式会社守信工業,,株式会社,広島県,福山市,引野町７６５９番地２,,34,207,7210942,,,,,,,2025-06-04,1,,,,,モリシンコウギョウ,0
1784,6240001065046,新規,0,2025-06-04,2025-06-04,株式会社とも,,株式会社,広島県,福山市,日吉台２丁目２１番１０号,,34,207,7210972,,,,,,,2025-06-04,1,,,,,トモ,0
1788,6240003007236,新規,0,2025-06-04,2025-06-04,合同会社Ｗｅ　Ｓｔｅｐ,,合同会社,広島県,広島市南区,東本浦町２番１５号,,34,103,7340025,,,,,,,2025-06-04,1,,,,,ウィーステップ,0
1791,6250003003738,新規,0,2025-06-04,2025-06-04,合同会社運搬屋,,合同会社,山口県,山口市,小郡上郷１４９７番地５,,35,203,7540001,,,,,,,2025-06-04,1,,,,,ウンパンヤ,0
1793,6260003005205,新規,0,2025-06-04,2025-06-04,合同会社ｓｕｎ,,合同会社,岡山県,岡山市北区,中山下１丁目７番７号２階,,33,101,7000821,,,,,,,2025-06-04,1,,,,,サン,0
1799,6290001110268,新規,0,2025-06-04,2025-06-04,株式会社アーバンパートナーズ,,株式会社,福岡県,福岡市早良区,百道浜４丁目３１番１０号,,40,137,8140001,,,,,,,2025-06-04,1,,,,,アーバンパートナーズ,0
1809,6330001033258,新規,0,2025-06-04,2025-06-04,株式会社合志ファーマーズ,,株式会社,熊本県,合志市,上庄１６３,,43,216,8611111,,,,,,,2025-06-04,1,,,,,コウシファーマーズ,0
1813,6330003011047,新規,0,2025-06-04,2025-06-04,ＣＬＩＭＡＸ合同会社,,合同会社,熊本県,熊本市南区,島町３丁目３番２０号グランディール壱番館４０７,,43,104,8614133,,,,,,,2025-06-04,1,,,,,クライマックス,0
1827,6430001094570,新規,0,2025-06-04,2025-06-04,株式会社ホームプラス,,株式会社,北海道,札幌市白石区,本通３丁目北６番地１２号第二河口ビル１０２号室,,01,104,0030027,,,,,,,2025-06-04,1,,,,,ホームプラス,0
1828,6430001094579,新規,0,2025-06-04,2025-06-04,株式会社オルタナティブ,,株式会社,北海道,札幌市中央区,北五条西１１丁目１５－４　ＢＹＹＡＲＤ　ＦＤ－０６２,,01,101,0600005,,,,,,,2025-06-04,1,,,,,オルタナティブ,0
1831,6430005015242,新規,0,2025-06-04,2025-06-04,一般社団法人かえでクリニック,,その他の設立登記法人,北海道,札幌市豊平区,豊平三条１２丁目１－４０クラリス豊平ＩＩＩ１０１,00139426,01,105,0620903,,,,,,,2025-06-04,1,,,,,カエデクリニック,0
1837,6500001026327,新規,0,2025-06-04,2025-06-04,株式会社天満,,株式会社,愛媛県,松山市,住吉２丁目８番３３号,,38,201,7918062,,,,,,,2025-06-04,1,,,,,テンマ,0
1838,6500001026335,新規,0,2025-06-04,2025-06-04,株式会社ＲＭ,,株式会社,愛媛県,松山市,中村４丁目３番３９号,,38,201,7900964,,,,,,,2025-06-04,1,,,,,アールエム,0
1850,7010005040141,新規,0,2025-06-04,2025-06-04,ＴＯＫＹＯ　ＧＩＮＺＡ司法書士法人,,その他の設立登記法人,東京都,中央区,銀座１丁目１６番７号銀座大栄ビル５階,,13,102,1040061,,,,,,,2025-06-04,1,,,,,トウキョウギンザ,0
1851,7010101016714,新規,0,2025-06-04,2025-06-04,株式会社Ａｉ　Ｒｉｓｅ　Ｓｈｉｐ,,株式会社,東京都,八王子市,久保山町２丁目４９番地１６,,13,201,1920023,,,,,,,2025-06-04,1,,,,,アイライズシップ,0
1862,7010401190705,新規,0,2025-06-04,2025-06-04,株式会社トゥエンティー・ワン,,株式会社,東京都,港区,芝４丁目１番２３号三田ＮＮビル１５階,,13,103,1080014,,,,,,,2025-06-04,1,,,,,トゥエンティーワン,0
1863,7010401190779,新規,0,2025-06-04,2025-06-04,高輪ビジネス企画１号株式会社,,株式会社,東京都,港区,高輪２丁目２１番１号,,13,103,1080074,,,,,,,2025-06-04,1,,,,,タカナワビジネスキカクイチゴウ,0
1864,7010401190787,新規,0,2025-06-04,2025-06-04,株式会社スプリングノット,,株式会社,東京都,港区,三田４丁目１５―１,,13,103,1080073,,,,,,,2025-06-04,1,,,,,スプリングノット,0
1868,7010403035247,新規,0,2025-06-04,2025-06-04,Ａｌｖａｒｅｚ＆Ｍａｒｓａｌ　Ｊａｐａｎ合同会社,,合同会社,東京都,港区,海岸１丁目２番２０号汐留ビルディング３階,,13,103,1050022,,,,,,,2025-06-04,1,,,,,アルバレスアンドマルサルジャパン,0
1869,7010403035288,新規,0,2025-06-04,2025-06-04,ＳＣＧ８５合同会社,,合同会社,東京都,港区,虎ノ門２丁目６番１号,,13,103,1050001,,,,,,,2025-06-04,1,,,,,エスシージーエイティファイブ,0
1872,7010601067380,新規,0,2025-06-04,2025-06-04,株式会社チャレンジ・フォー・ハピネス,,株式会社,東京都,墨田区,千歳３丁目１８番８－７０２号,,13,107,1300025,,,,,,,2025-06-04,1,,,,,チャレンジフォーハピネス,0
1882,7010903009972,新規,0,2025-06-04,2025-06-04,合同会社いろどり,,合同会社,東京都,世田谷区,砧４丁目１６－８－３０６,,13,112,1570073,,,,,,,2025-06-04,1,,,,,イロドリ,0
1883,7010903009980,新規,0,2025-06-04,2025-06-04,合同会社ツーベース,,合同会社,東京都,世田谷区,桜上水４丁目１８番８号,,13,112,1560045,,,,,,,2025-06-04,1,,,,,ツーベース,0
1890,7011001169775,新規,0,2025-06-04,2025-06-04,株式会社チェリブロ,,株式会社,東京都,渋谷区,渋谷２丁目１９番１５号宮益坂ビルディング６０９,,13,113,1500002,,,,,,,2025-06-04,1,,,,,チェリブロ,0
1893,7011101111851,新規,0,2025-06-04,2025-06-04,株式会社ＴｉＮＢ,,株式会社,東京都,新宿区,大久保２丁目２番１８号,,13,104,1690072,,,,,,,2025-06-04,1,,,,,ティアイエヌビー,0
1894,7011101111926,新規,0,2025-06-04,2025-06-04,株式会社ミリオンダラー営業代行,,株式会社,東京都,新宿区,西新宿７丁目７番１９－２３０４号,,13,104,1600023,,,,,,,2025-06-04,1,,,,,ミリオンダラーエイギョウダイコウ,0
1895,7011101111934,新規,0,2025-06-04,2025-06-04,株式会社ＮＣＭ,,株式会社,東京都,新宿区,矢来町１２１日幸ビル４Ｆ,,13,104,1620805,,,,,,,2025-06-04,1,,,,,エヌシーエム,0
1899,7011201026405,新規,0,2025-06-04,2025-06-04,株式会社アスレックス,,株式会社,東京都,中野区,本町５丁目６番１１号,,13,114,1640012,,,,,,,2025-06-04,1,,,,,アスレックス,0
1901,7011301030629,新規,0,2025-06-04,2025-06-04,株式会社大福餅,,株式会社,東京都,杉並区,和泉４丁目１１番４号,,13,115,1680063,,,,,,,2025-06-04,1,,,,,ダイフクモチ,0
1903,7011303005587,新規,0,2025-06-04,2025-06-04,合同会社メディカルサポート,,合同会社,東京都,杉並区,荻窪５丁目１６番１号,,13,115,1670051,,,,,,,2025-06-04,1,,,,,メディカルサポート,0
1908,7012301014415,新規,0,2025-06-04,2025-06-04,株式会社Ｃｈｉｌｌ　Ｌｉｆｅ,,株式会社,東京都,町田市,原町田３丁目８番１２号網倉ビル３階,,13,209,1940013,,,,,,,2025-06-04,1,,,,,チルライフ,0
1910,7012701018908,新規,0,2025-06-04,2025-06-04,株式会社ＣａｒｓＮａｉｔｏ,,株式会社,東京都,東久留米市,前沢５丁目７－９,,13,222,2030032,,,,,,,2025-06-04,1,,,,,カーズナイトー,0
1911,7012801023997,新規,0,2025-06-04,2025-06-04,株式会社Ｌｉｒｉｕｎ・コヴェン,,株式会社,東京都,日野市,高幡１０２２－２リベェール高幡３－１０１号室,,13,212,1910031,,,,,,,2025-06-04,1,,,,,リリーンコヴェン,0
1919,7020001163218,新規,0,2025-06-04,2025-06-04,株式会社ＫＭＫ,,株式会社,神奈川県,横浜市港北区,日吉本町１丁目１７番１号,,14,109,2230062,,,,,,,2025-06-04,1,,,,,ケーエムケー,0
1920,7020001163234,新規,0,2025-06-04,2025-06-04,カレタカ株式会社,,株式会社,神奈川県,川崎市多摩区,東生田３丁目１番４１号Ａ－２,,14,135,2140031,,,,,,,2025-06-04,1,,,,,カレタカ,0
1921,7020001163250,新規,0,2025-06-04,2025-06-04,株式会社ミチビキ,,株式会社,神奈川県,横浜市港北区,大曽根台３２－２－２,,14,109,2220004,,,,,,,2025-06-04,1,,,,,ミチビキ,0
1926,7020003028617,新規,0,2025-06-04,2025-06-04,ホアファット合同会社,,合同会社,神奈川県,横浜市保土ケ谷区,常盤台５３番１－３０１号,,14,106,2400067,,,,,,,2025-06-04,1,,,,,ホアファット,0
1929,7020005016784,新規,0,2025-06-04,2025-06-04,協和輸送互助会,,その他の設立登記法人,神奈川県,横浜市瀬谷区,下瀬谷２丁目２０番地８ベルーガ横浜１０２,,14,114,2460035,,,,,,,2025-06-04,1,,,,,キョウワユソウゴジョカイ,0
1934,7021003016116,新規,0,2025-06-04,2025-06-04,合同会社フロー,,合同会社,神奈川県,相模原市南区,相模大野２丁目１６番６号－２０１,,14,153,2520303,,,,,,,2025-06-04,1,,,,,フロー,0
1938,7030001166855,新規,0,2025-06-04,2025-06-04,株式会社元倶楽部,,株式会社,埼玉県,さいたま市南区,文蔵４丁目２９番１２号ツヂビル２Ｆ,,11,108,3360025,,,,,,,2025-06-04,1,,,,,モトクラブ,0
1939,7030001166863,新規,0,2025-06-04,2025-06-04,株式会社ＫＭサポート,,株式会社,埼玉県,さいたま市南区,南浦和３丁目４０番２１－５２１号,,11,108,3360017,,,,,,,2025-06-04,1,,,,,ケイエムサポート,0
1945,7040001139026,新規,0,2025-06-04,2025-06-04,陽建設株式会社,,株式会社,千葉県,千葉市稲毛区,長沼町２４７番地１７６,,12,103,2630005,,,,,,,2025-06-04,1,,,,,ヨウケンセツ,0
1946,7040001139034,新規,0,2025-06-04,2025-06-04,永井工業株式会社,,株式会社,千葉県,山武郡横芝光町,尾垂イ２２０４番地,,12,410,2891725,,,,,,,2025-06-04,1,,,,,ナガイコウギョウ,0
1947,7040001139067,新規,0,2025-06-04,2025-06-04,株式会社ａｍｉｎｏｗａ,,株式会社,千葉県,船橋市,三山３丁目３５－５,,12,204,2740072,,,,,,,2025-06-04,1,,,,,アミノワ,0
1948,7040003027740,新規,0,2025-06-04,2025-06-04,ＹＸＴ合同会社,,合同会社,千葉県,松戸市,南花島４丁目６２番地の１８篠崎マンション３０２号,,12,207,2710065,,,,,,,2025-06-04,1,,,,,ワイエックスティー,0
1949,7040003027757,新規,0,2025-06-04,2025-06-04,合同会社Ｂｉｂｉａｎｎａ,,合同会社,千葉県,千葉市花見川区,花園町２４８６－１０,,12,102,2620021,,,,,,,2025-06-04,1,,,,,ビィビィアナ,0
1951,7040005022789,新規,0,2025-06-04,2025-06-04,ＢＡＣＣＨＵＳ行政書士法人,,その他の設立登記法人,千葉県,船橋市,本町２丁目１４番９号エムズビル２階,,12,204,2730005,,,,,,,2025-06-04,1,,,,,バッカス,0
1952,7050001056749,新規,0,2025-06-04,2025-06-04,啓航商事株式会社,,株式会社,茨城県,鉾田市,大蔵８３４番地３６,,08,234,3112117,,,,,,,2025-06-04,1,,,,,ケイコウショウジ,0
1953,7050001056757,新規,0,2025-06-04,2025-06-04,株式会社三尚,,株式会社,茨城県,日立市,大沼町１丁目９番１３号,,08,202,3160022,,,,,,,2025-06-04,1,,,,,サンショウ,0
1959,7060001038259,新規,0,2025-06-04,2025-06-04,株式会社みどりの里,,株式会社,栃木県,小山市,城東３丁目１番１３号,,09,208,3230807,,,,,,,2025-06-04,1,,,,,ミドリノサト,0
1960,7060001038267,新規,0,2025-06-04,2025-06-04,株式会社レヴェリー,,株式会社,栃木県,宇都宮市,今泉４丁目１５番２７号,,09,201,3210966,,,,,,,2025-06-04,1,,,,,レヴェリー,0
1966,7080001026971,新規,0,2025-06-04,2025-06-04,株式会社ケイ,,株式会社,静岡県,静岡市駿河区,西脇７５５番地の１,,22,102,4228044,,,,,,,2025-06-04,1,,,,,ケイ,0
1968,7080101025527,新規,0,2025-06-04,2025-06-04,株式会社佐野技建,,株式会社,静岡県,富士宮市,大中里８２７番地の１,,22,207,4180044,,,,,,,2025-06-04,1,,,,,サノギケン,0
1969,7080101025535,新規,0,2025-06-04,2025-06-04,株式会社セカンド,,株式会社,静岡県,駿東郡清水町,伏見２５３番地の２６,,22,341,4110907,,,,,,,2025-06-04,1,,,,,セカンド,0
1970,7080101025543,新規,0,2025-06-04,2025-06-04,株式会社ＣｌａｒｉｔｙＬａｂｏ,,株式会社,静岡県,三島市,本町１１番３号ベルメゾン三島本町１０１,,22,206,4110855,,,,,,,2025-06-04,1,,,,,クラリティーラボ,0
1972,7080103003340,新規,0,2025-06-04,2025-06-04,合同会社えにし,,合同会社,静岡県,裾野市,深良２３７７－１９,,22,220,4101102,,,,,,,2025-06-04,1,,,,,,0
1976,7080401027941,新規,0,2025-06-04,2025-06-04,エンジョイキッズ株式会社,,株式会社,静岡県,袋井市,太郎助１０１０番地,,22,216,4371116,,,,,,,2025-06-04,1,,,,,エンジョイキッズ,0
1977,7080401027958,新規,0,2025-06-04,2025-06-04,ナカホンヤ株式会社,,株式会社,静岡県,浜松市中央区,中島２丁目１３番２０号,,22,138,4300856,,,,,,,2025-06-04,1,,,,,ナカホンヤ,0
1982,7100001038667,新規,0,2025-06-04,2025-06-04,株式会社園部設備,,株式会社,長野県,北佐久郡軽井沢町,大字長倉３９７６番地３,,20,321,3890111,,,,,,,2025-06-04,1,,,,,ソノベセツビ,0
1987,7100003008206,新規,0,2025-06-04,2025-06-04,ＡｎＺ合同会社,,合同会社,長野県,長野市,大字鶴賀田町２１２９番地１、１８０５,,20,201,3800815,,,,,,,2025-06-04,1,,,,,エーアンドゼット,0
1997,7120001275242,新規,0,2025-06-04,2025-06-04,株式会社Ａｍｂｉｔ,,株式会社,大阪府,大阪市中央区,南船場３丁目２番２２号おおきに南船場ビル２０５,,27,128,5420081,,,,,,,2025-06-04,1,,,,,アンビット,0
1998,7120001276389,新規,0,2025-06-04,2025-06-04,アールズ株式会社,,株式会社,大阪府,大阪市鶴見区,鶴見４丁目１１番４５－４０２号,,27,124,5380053,,,,,,,2025-06-04,1,,,,,アールズ,0
1999,7120001276447,新規,0,2025-06-04,2025-06-04,ＦＴＳ商事株式会社,,株式会社,大阪府,大阪市中央区,玉造２丁目６番４号,,27,128,5400004,,,,,,,2025-06-04,1,,,,,エフティーエスショウジ,0
2003,7120003029480,新規,0,2025-06-04,2025-06-04,合同会社ＤＥＮＥＢＯＬＤ,,合同会社,大阪府,大阪市北区,本庄東２丁目３番３３－９０１号,,27,127,5310074,,,,,,,2025-06-04,1,,,,,デネボラ,0
2004,7120003029646,新規,0,2025-06-04,2025-06-04,合同会社祥愛会,,合同会社,大阪府,大阪市中央区,安土町１丁目７－２０新トヤマビル８Ｆ,,27,128,5410052,,,,,,,2025-06-04,1,,,,,ショウアイカイ,0
2005,7120003029654,新規,0,2025-06-04,2025-06-04,合同会社たむたむ,,合同会社,大阪府,大阪市住之江区,御崎５丁目７番１号,,27,125,5590013,,,,,,,2025-06-04,1,,,,,タムタム,0
2006,7120003029679,新規,0,2025-06-04,2025-06-04,チアミミ合同会社,,合同会社,大阪府,大阪市大正区,三軒家西１丁目９番２８号,,27,108,5510001,,,,,,,2025-06-04,1,,,,,チアミミ,0
2007,7120005024975,新規,0,2025-06-04,2025-06-04,税理士法人サライ,,その他の設立登記法人,大阪府,大阪市中央区,谷町２丁目３番２号,,27,128,5400012,,,,,,,2025-06-04,1,,,,,サライ,0
2010,7120901050991,新規,0,2025-06-04,2025-06-04,株式会社オズプランニング,,株式会社,大阪府,茨木市,西太田町１１番３号,,27,211,5670015,,,,,,,2025-06-04,1,,,,,オズプランニング,0
2013,7122001039305,新規,0,2025-06-04,2025-06-04,株式会社Ｂｌｕｅ　Ｓｅｃｏｎｄ,,株式会社,大阪府,東大阪市,善根寺町４丁目６番３１号,,27,227,5798001,,,,,,,2025-06-04,1,,,,,ブルーセカンド,0
2014,7122001039313,新規,0,2025-06-04,2025-06-04,株式会社Ｌｅｔ　ｉｔ　ｂｅ．,,株式会社,大阪府,東大阪市,西堤本通西１丁目６番１２号,,27,227,5770046,,,,,,,2025-06-04,1,,,,,レットイットビー,0
2015,7122001039321,新規,0,2025-06-04,2025-06-04,精米番長株式会社,,株式会社,大阪府,八尾市,宮町４丁目３番３０号,,27,212,5810815,,,,,,,2025-06-04,1,,,,,セイマイバンチョウ,0
2018,7130001079824,新規,0,2025-06-04,2025-06-04,長瀬・松本経営サポート株式会社,,株式会社,京都府,京都市伏見区,桃山南大島町９５番地５７,,26,109,6128017,,,,,,,2025-06-04,1,,,,,ナガセマツモトケイエイサポート,0
2031,7160003003498,新規,0,2025-06-04,2025-06-04,和香産業合同会社,,合同会社,滋賀県,大津市,大萱１丁目１８番２０号,,25,201,5202144,,,,,,,2025-06-04,1,,,,,カズカサンギョウ,0
2035,7180001167104,新規,0,2025-06-04,2025-06-04,株式会社リクセル,,株式会社,愛知県,名古屋市中区,千代田１丁目１０番１２号,,23,106,4600012,,,,,,,2025-06-04,1,,,,,リクセル,0
2036,7180001167120,新規,0,2025-06-04,2025-06-04,株式会社北智,,株式会社,愛知県,名古屋市守山区,金屋１丁目１３番１３号エスペランサ新守山１０１,,23,113,4630072,,,,,,,2025-06-04,1,,,,,ホクチ,0
2037,7180001167153,新規,0,2025-06-04,2025-06-04,株式会社未来リンク,,株式会社,愛知県,名古屋市港区,宝神１丁目６５番地の２東明ビル３０６号室,,23,111,4550832,,,,,,,2025-06-04,1,,,,,ミライリンク,0
2038,7180005021117,新規,0,2025-06-04,2025-06-04,一般社団法人不当課税対策プロジェクト,,その他の設立登記法人,愛知県,名古屋市中区,栄１丁目１３番２号愛織第２ビル４階,,23,106,4600008,,,,,,,2025-06-04,1,,,,,フトウカゼイタイサクプロジェクト,0
2041,7180301039853,新規,0,2025-06-04,2025-06-04,株式会社愛正,,株式会社,愛知県,安城市,昭和町１９番地３７,,23,212,4460063,,,,,,,2025-06-04,1,,,,,アイショウ,0
2043,7190001032273,新規,0,2025-06-04,2025-06-04,株式会社ユタカ造園,,株式会社,三重県,亀山市,阿野田町１３４４番地,,24,210,5190137,,,,,,,2025-06-04,1,,,,,ユタカゾウエン,0
2049,7220001026718,新規,0,2025-06-04,2025-06-04,株式会社輪,,株式会社,石川県,能美市,三道山町へ１２番地４,,17,211,9231124,,,,,,,2025-06-04,1,,,,,リン,0
2050,7220001026726,新規,0,2025-06-04,2025-06-04,西設備工業株式会社,,株式会社,石川県,羽咋市,寺家町３５９番地,,17,207,9250003,,,,,,,2025-06-04,1,,,,,ニシセツビコウギョウ,0
2055,7230003002435,新規,0,2025-06-04,2025-06-04,合同会社ＦＵＮ　Ｌｉｎｋ,,合同会社,富山県,富山市,太郎丸西町１丁目１５番地１キャピタル平安４０７号,,16,201,9398271,,,,,,,2025-06-04,1,,,,,ファンリンク,0
2058,7250001021170,新規,0,2025-06-04,2025-06-04,株式会社さむらい,,株式会社,山口県,下関市,長府土居の内町１番４３－１３０５号,,35,201,7520974,,,,,,,2025-06-04,1,,,,,サムライ,0
2059,7250003003745,新規,0,2025-06-04,2025-06-04,合同会社まごころ便,,合同会社,山口県,熊毛郡平生町,大字平生村１２１１番地,,35,344,7421102,,,,,,,2025-06-04,1,,,,,マゴコロビン,0
2061,7260001040236,新規,0,2025-06-04,2025-06-04,株式会社トビラデザイン,,株式会社,岡山県,備前市,日生町日生２２９７,,33,211,7013204,,,,,,,2025-06-04,1,,,,,トビラデザイン,0
2062,7260001040252,新規,0,2025-06-04,2025-06-04,株式会社ＳＫＹクリエイティブ,,株式会社,岡山県,岡山市北区,天瀬南町１番１号,,33,101,7000834,,,,,,,2025-06-04,1,,,,,スカイクリエイティブ,0
2063,7260001040260,新規,0,2025-06-04,2025-06-04,株式会社ＢｉｇＢｉｒｄ,,株式会社,岡山県,岡山市南区,藤田５６６番地２２６号,,33,104,7010221,,,,,,,2025-06-04,1,,,,,ビッグバード,0
2078,7290801031596,新規,0,2025-06-04,2025-06-04,株式会社ｕｎｉｔｅｃ,,株式会社,福岡県,中間市,岩瀬１丁目１１番４８号,,40,215,8090011,,,,,,,2025-06-04,1,,,,,ユニテック,0
2079,7300003002295,新規,0,2025-06-04,2025-06-04,合同会社インベネックス,,合同会社,佐賀県,伊万里市,南波多町重橋２０６５番地１,,41,205,8480001,,,,,,,2025-06-04,1,,,,,インベネックス,0
2082,7330001033257,新規,0,2025-06-04,2025-06-04,株式会社ＢＮＦ,,株式会社,熊本県,熊本市中央区,本山２丁目２番４号,,43,101,8600821,,,,,,,2025-06-04,1,,,,,ビーエヌエフ,0
2083,7330003011038,新規,0,2025-06-04,2025-06-04,ＣＯＮＮＥＣＴ不動産合同会社,,合同会社,熊本県,熊本市西区,春日２丁目１１番２８－１２０５号レーベン熊本駅レクシア,,43,103,8600047,,,,,,,2025-06-04,1,,,,,コネクトフドウサン,0
2084,7330003011046,新規,0,2025-06-04,2025-06-04,合同会社ＹＫフーズ,,合同会社,熊本県,天草市,船之尾町３５５番地２,,43,215,8630017,,,,,,,2025-06-04,1,,,,,ワイケーフーズ,0
2088,7350001019568,新規,0,2025-06-04,2025-06-04,株式会社Ｄｉａｍｏｎｄ,,株式会社,宮崎県,宮崎市,大塚町田淵ケ原４０１８番地５,,45,201,8800951,,,,,,,2025-06-04,1,,,,,ダイアモンド,0
2089,7350001019576,新規,0,2025-06-04,2025-06-04,株式会社長友林業,,株式会社,宮崎県,日南市,戸高４丁目１３番地２,,45,204,8870031,,,,,,,2025-06-04,1,,,,,ナガトモリンギョウ,0
2093,7370001052674,新規,0,2025-06-04,2025-06-04,株式会社Ｍ．ｉｎｖｅｓｔｍｅｎｔ,,株式会社,宮城県,仙台市青葉区,国分町２丁目１０－１布袋屋ビル４Ａ,,04,101,9800803,,,,,,,2025-06-04,1,,,,,エムインベストメント,0
2095,7380001035372,新規,0,2025-06-04,2025-06-04,芳賀ガラス株式会社,,株式会社,福島県,会津若松市,山鹿町５番１号,,07,202,9650876,,,,,,,2025-06-04,1,,,,,ハガガラス,0
2096,7390001018005,新規,0,2025-06-04,2025-06-04,株式会社寒河江住宅サポート,,株式会社,山形県,寒河江市,大字宮内４０番地の８,,06,206,9900501,,,,,,,2025-06-04,1,,,,,サガエジュウタクサポート,0
2097,7390003002403,新規,0,2025-06-04,2025-06-04,合同会社ＳＴＲ,,合同会社,山形県,東置賜郡高畠町,大字上和田２３７８番地,,06,381,9920261,,,,,,,2025-06-04,1,,,,,エスティーアール,0
2105,7430001094578,新規,0,2025-06-04,2025-06-04,Ｓｕｍｉｃａ株式会社,,株式会社,北海道,札幌市東区,伏古九条２丁目２番１６－１０１号,,01,103,0070869,,,,,,,2025-06-04,1,,,,,スミカ,0
2112,7430003017735,新規,0,2025-06-04,2025-06-04,合同会社Ｎｅｉｇｈｂｏｒｈｏｏｄ,,合同会社,北海道,札幌市北区,新琴似七条１２丁目４番２３号,,01,102,0010907,,,,,,,2025-06-04,1,,,,,ネイバーフッド,0
2115,7460301005298,新規,0,2025-06-04,2025-06-04,株式会社さくら不動産,,株式会社,北海道,北見市,北四条東４丁目１６番地１,,01,208,0900024,,,,,,,2025-06-04,1,,,,,サクラフドウサン,0
2116,7470001020745,新規,0,2025-06-04,2025-06-04,株式会社シーナリー,,株式会社,香川県,仲多度郡琴平町,下櫛梨１２３７番地１,,37,403,7660007,,,,,,,2025-06-04,1,,,,,シーナリー,0
2121,7490001011073,新規,0,2025-06-04,2025-06-04,株式会社ＨＩＲＯ,,株式会社,高知県,高岡郡佐川町,黒原３１５８番地１２,,39,402,7891211,,,,,,,2025-06-04,1,,,,,ヒロ,0
2124,7500001026326,新規,0,2025-06-04,2025-06-04,株式会社加賀田メディカル,,株式会社,愛媛県,松山市,古川北１丁目２１番３０号,,38,201,7900942,,,,,,,2025-06-04,1,,,,,カガタメディカル,0
2133,8010001255576,新規,0,2025-06-04,2025-06-04,アイゼンティア・テクノロジーズ株式会社,,株式会社,東京都,千代田区,内幸町２丁目１番１号飯野ビルディング９Ｆ,,13,101,1000011,,,,,,,2025-06-04,1,,,,,アイゼンティアテクノロジーズ,0
2134,8010001255592,新規,0,2025-06-04,2025-06-04,Ｉ’ｍｅ株式会社,,株式会社,東京都,中央区,築地７丁目１０番１１号築地美将内,,13,102,1040045,,,,,,,2025-06-04,1,,,,,アイミー,0
2135,8010001255618,新規,0,2025-06-04,2025-06-04,株式会社ｉクレーン,,株式会社,東京都,千代田区,外神田２丁目７番１号,,13,101,1010021,,,,,,,2025-06-04,1,,,,,アイクレーン,0
2136,8010001255650,新規,0,2025-06-04,2025-06-04,株式会社エクラ,,株式会社,東京都,中央区,築地３丁目２番１０－１３１０号,,13,102,1040045,,,,,,,2025-06-04,1,,,,,エクラ,0
2137,8010001255725,新規,0,2025-06-04,2025-06-04,Ｓｅｉｒａ　Ｔｅｃｈ株式会社,,株式会社,東京都,中央区,日本橋室町１丁目１１番１２号日本橋水野ビル７階,,13,102,1030022,,,,,,,2025-06-04,1,,,,,セイラテック,0
2139,8010003047534,新規,0,2025-06-04,2025-06-04,合同会社ヴォーチェ,,合同会社,東京都,文京区,湯島１丁目９番１０号湯島ビル２０５号室,,13,105,1130034,,,,,,,2025-06-04,1,,,,,ヴォーチェ,0
2140,8010003047542,新規,0,2025-06-04,2025-06-04,ＲｅＤａｒａｚ＆Ｃｏ．合同会社,,合同会社,東京都,中央区,銀座１丁目２２番１１号銀座大竹ビジデンス２Ｆ,,13,102,1040061,,,,,,,2025-06-04,1,,,,,リダラズアンドカンパニー,0
2142,8010103002595,新規,0,2025-06-04,2025-06-04,合同会社ｂｅｌｉｅｖｅ,,合同会社,東京都,八王子市,楢原町５６６－５,,13,201,1930803,,,,,,,2025-06-04,1,,,,,ビリーブ,0
2151,8010401190588,新規,0,2025-06-04,2025-06-04,株式会社ＫＭ　Ｉｎｆｉｎｉｔｙ,,株式会社,東京都,港区,海岸２丁目５番１号ローレルタワールネ浜松町２００１号室,,13,103,1050022,,,,,,,2025-06-04,1,,,,,ケーエムインフィニティー,0
2152,8010403035114,新規,0,2025-06-04,2025-06-04,ＹＯＫＵＳＵＬＵ合同会社,,合同会社,東京都,港区,新橋４丁目１４番１新橋ＡＵＮＢＬＤＧ４階,,13,103,1050004,,,,,,,2025-06-04,1,,,,,ヨクスル,0
2153,8010403035155,新規,0,2025-06-04,2025-06-04,合同会社ＡＭＯＮＴ２号,,合同会社,東京都,港区,元麻布３丁目１２－３５,,13,103,1060046,,,,,,,2025-06-04,1,,,,,アモントニゴウ,0
2154,8010403035287,新規,0,2025-06-04,2025-06-04,ＳＣＧ８４合同会社,,合同会社,東京都,港区,虎ノ門２丁目６番１号,,13,103,1050001,,,,,,,2025-06-04,1,,,,,エスシージーエイティフォー,0
2155,8010403035295,新規,0,2025-06-04,2025-06-04,ホーカモティカ合同会社,,合同会社,東京都,港区,北青山１丁目３番１号アールキューブ青山３階,,13,103,1070061,,,,,,,2025-06-04,1,,,,,ホーカモティカ,0
2157,8010405024404,新規,0,2025-06-04,2025-06-04,一般社団法人日本健康経営促進機構,,その他の設立登記法人,東京都,港区,南青山２丁目２番１５号,,13,103,1070062,,,,,,,2025-06-04,1,,,,,ニホンケンコウケイエイソクシンキコウ,0
2163,8010601067396,新規,0,2025-06-04,2025-06-04,ＡＩ　Ｅｍｐｏｗｅｒ株式会社,,株式会社,東京都,江東区,青海２丁目７－４ＴＨＥ・ＳＯＨＯ－８０１号室,,13,108,1350064,,,,,,,2025-06-04,1,,,,,エーアイエンパワー,0
2170,8010901057502,新規,0,2025-06-04,2025-06-04,株式会社ＡＬＴＲＡ,,株式会社,東京都,世田谷区,三軒茶屋２丁目３０番７号グランパセオ三軒茶屋１０３,,13,112,1540024,,,,,,,2025-06-04,1,,,,,アルトラ,0
2172,8010903009988,新規,0,2025-06-04,2025-06-04,合同会社ｍｏｆｌ,,合同会社,東京都,世田谷区,砧１丁目１８番１２号,,13,112,1570073,,,,,,,2025-06-04,1,,,,,モフル,0
2181,8011001169758,新規,0,2025-06-04,2025-06-04,ＭＥＤコンサルティング株式会社,,株式会社,東京都,渋谷区,円山町５番５号Ｎａｖｉ渋谷Ｖ３階,,13,113,1500044,,,,,,,2025-06-04,1,,,,,メッドコンサルティング,0
2182,8011001169808,新規,0,2025-06-04,2025-06-04,株式会社ＲＭＲ　Ｅｎｔｅｒｔａｉｎｍｅｎｔ．,,株式会社,東京都,渋谷区,宇田川町３－３アトラス渋谷公園通り７０３,,13,113,1500042,,,,,,,2025-06-04,1,,,,,アールエムアールエンターテインメント,0
2183,8011001170237,新規,0,2025-06-04,2025-06-04,スモールスタートシステム株式会社,,株式会社,東京都,渋谷区,道玄坂１丁目１０番８号渋谷道玄坂東急ビル２Ｆ－Ｃ,,13,113,1500043,,,,,,,2025-06-04,1,,,,,スモールスタートシステム,0
2184,8011003021826,新規,0,2025-06-04,2025-06-04,アンジュミミ・ジャパン合同会社,,合同会社,東京都,渋谷区,渋谷２丁目１９－１５宮益坂ビルディング６０９,,13,113,1500002,,,,,,,2025-06-04,1,,,,,アンジュミミジャパン,0
2188,8011101111933,新規,0,2025-06-04,2025-06-04,ＲＨＩＮＯＳ　ＤＡＴＡ株式会社,,株式会社,東京都,新宿区,新宿６丁目２１－１７－１Ｆ,,13,104,1600022,,,,,,,2025-06-04,1,,,,,ライノスデータ,0
2189,8011101111941,新規,0,2025-06-04,2025-06-04,株式会社Ｂｌｏｏｍ　ｓｔａｎｄａｒｄ．,,株式会社,東京都,新宿区,左門町２番地１グランドール四谷５０２,,13,104,1600017,,,,,,,2025-06-04,1,,,,,ブルームスタンダード,0
2190,8011103015975,新規,0,2025-06-04,2025-06-04,ギャルド・ビジネス合同会社,,合同会社,東京都,新宿区,西五軒町４－１－２０６,,13,104,1620812,,,,,,,2025-06-04,1,,,,,ギャルドビジネス,0
2191,8011103015991,新規,0,2025-06-04,2025-06-04,合同会社ＮＡＴＰＵＬ,,合同会社,東京都,新宿区,新宿６丁目２番４－５２３号,,13,104,1600022,,,,,,,2025-06-04,1,,,,,ナトプル,0
2195,8011603004734,新規,0,2025-06-04,2025-06-04,合同会社トレイルＮＡＶＩ,,合同会社,東京都,練馬区,東大泉４丁目１０－３１,,13,120,1780063,,,,,,,2025-06-04,1,,,,,トレイルナヴィ,0
2201,8011801046264,新規,0,2025-06-04,2025-06-04,株式会社Ｋ．Ｙｍｅｔａｌ,,株式会社,東京都,足立区,古千谷本町２丁目１３番５号,,13,121,1210832,,,,,,,2025-06-04,1,,,,,ケイワイメタル,0
2206,8012401043180,新規,0,2025-06-04,2025-06-04,Ｔ＆Ｆｕｔｕｒｅ株式会社,,株式会社,東京都,武蔵野市,吉祥寺東町３丁目１番１９号,,13,203,1800002,,,,,,,2025-06-04,1,,,,,ティーアンドフューチャー,0
2207,8012401043197,新規,0,2025-06-04,2025-06-04,株式会社三浦,,株式会社,東京都,武蔵野市,関前４丁目１番７号,,13,203,1800014,,,,,,,2025-06-04,1,,,,,ミウラ,0
2215,8020001163150,新規,0,2025-06-04,2025-06-04,株式会社ブライトネス,,株式会社,神奈川県,横浜市磯子区,西町１２番１号－２０４,,14,107,2350007,,,,,,,2025-06-04,1,,,,,ブライトネス,0
2216,8020001163209,新規,0,2025-06-04,2025-06-04,インサイティブ株式会社,,株式会社,神奈川県,横浜市西区,浅間町１丁目４番３号ウィザードビル４０２,,14,103,2200072,,,,,,,2025-06-04,1,,,,,インサイティブ,0
2219,8020003028616,新規,0,2025-06-04,2025-06-04,合同会社ＣＨＩＢＡ,,合同会社,神奈川県,横浜市港北区,師岡町３４３番地２５,,14,109,2220002,,,,,,,2025-06-04,1,,,,,チバ,0
2242,8030001166862,新規,0,2025-06-04,2025-06-04,株式会社アシストホーム,,株式会社,埼玉県,鶴ヶ島市,大字高倉３０１番地,,11,241,3502223,,,,,,,2025-06-04,1,,,,,アシストホーム,0
2243,8030001166929,新規,0,2025-06-04,2025-06-04,株式会社彩川商会,,株式会社,埼玉県,川越市,並木新町７－４２０１,,11,201,3500024,,,,,,,2025-06-04,1,,,,,サイカワショウカイ,0
2248,8030005022178,新規,0,2025-06-04,2025-06-04,労働者協同組合Ａｓｉａｎろーかるマーケット・結,,その他の設立登記法人,埼玉県,東松山市,大字東平１７９０－２２,,11,212,3550002,,,,,,,2025-06-04,1,,,,,アジアンローカルマーケットユイ,0
2256,8040001138992,新規,0,2025-06-04,2025-06-04,株式会社アーリーマスター,,株式会社,千葉県,柏市,高柳８７９番地２９,,12,217,2770941,,,,,,,2025-06-04,1,,,,,アーリーマスター,0
2258,8040003027723,新規,0,2025-06-04,2025-06-04,ベイビーステップス合同会社,,合同会社,千葉県,千葉市稲毛区,穴川３丁目１―１７黒川ビル１０１,,12,103,2630024,,,,,,,2025-06-04,1,,,,,ベイビーステップス,0
2263,8050001056748,新規,0,2025-06-04,2025-06-04,株式会社ＮＥＷＶＯ,,株式会社,茨城県,龍ケ崎市,南が丘２丁目１３番地７,,08,208,3010022,,,,,,,2025-06-04,1,,,,,ニューヴォ,0
2264,8050001056756,新規,0,2025-06-04,2025-06-04,株式会社Ｂｅｌｉｎａｓ,,株式会社,茨城県,水戸市,見川２丁目５０番地の７,,08,201,3100912,,,,,,,2025-06-04,1,,,,,ベリナス,0
2266,8050003009274,新規,0,2025-06-04,2025-06-04,合同会社ＧＯＥＩ,,合同会社,茨城県,水戸市,堀町１１９７番地の５,,08,201,3100903,,,,,,,2025-06-04,1,,,,,ゴエイ,0
2270,8060001038258,新規,0,2025-06-04,2025-06-04,株式会社七彩農園,,株式会社,栃木県,小山市,大字下河原田９５４番地,,09,208,3230052,,,,,,,2025-06-04,1,,,,,ナナセノウエン,0
2271,8060001038266,新規,0,2025-06-04,2025-06-04,Ｎｅｘｏｒａホールディングス株式会社,,株式会社,栃木県,宇都宮市,大曽２丁目１番４号,,09,201,3200014,,,,,,,2025-06-04,1,,,,,ネクソラホールディングス,0
2272,8060001038274,新規,0,2025-06-04,2025-06-04,株式会社ミヤマチ,,株式会社,栃木県,宇都宮市,大曽１丁目５番１０号,,09,201,3200014,,,,,,,2025-06-04,1,,,,,ミヤマチ,0
2278,8070001042993,新規,0,2025-06-04,2025-06-04,株式会社インボルブ,,株式会社,群馬県,高崎市,日高町１７１番地４,,10,202,3700002,,,,,,,2025-06-04,1,,,,,インボルブ,0
2281,8080101025526,新規,0,2025-06-04,2025-06-04,株式会社マイオーリン,,株式会社,静岡県,富士市,入山瀬５２２番地の１８,,22,210,4190204,,,,,,,2025-06-04,1,,,,,マイオーリン,0
2282,8080101025534,新規,0,2025-06-04,2025-06-04,株式会社ＡＴＳＵＭＩ創建,,株式会社,静岡県,三島市,松本５０番地の１ＡＲＩＯＧＡＴＯ３,,22,206,4110822,,,,,,,2025-06-04,1,,,,,アツミソウケン,0
2283,8080105006514,新規,0,2025-06-04,2025-06-04,グッドブリッジ社会保険労務士法人,,その他の設立登記法人,静岡県,沼津市,柳町１番６６号,,22,203,4100043,,,,,,,2025-06-04,1,,,,,グッドブリッジ,0
2285,8080401027940,新規,0,2025-06-04,2025-06-04,株式会社ＡＬＬＹ,,株式会社,静岡県,浜松市中央区,初生町３３０番地の１,,22,138,4338112,,,,,,,2025-06-04,1,,,,,アリー,0
2286,8080403005275,新規,0,2025-06-04,2025-06-04,合同会社Ｐａｒｔｉｄａ,,合同会社,静岡県,浜松市中央区,有玉南町１８６７番地の１,,22,138,4313122,,,,,,,2025-06-04,1,,,,,パルティーダ,0
2288,8090001019305,新規,0,2025-06-04,2025-06-04,ＥＮチャージ株式会社,,株式会社,山梨県,北杜市,大泉町西井出８２４０番地８５３３,,19,209,4091501,,,,,,,2025-06-04,1,,,,,,0
2291,8100001038666,新規,0,2025-06-04,2025-06-04,ＥＸＬＩＮＫ株式会社,,株式会社,長野県,長野市,篠ノ井西寺尾字上碇２５８９番１２,,20,201,3888018,,,,,,,2025-06-04,1,,,,,エクスリンク,0
2293,8100003008205,新規,0,2025-06-04,2025-06-04,合同会社ｔａｋｅＤＡ,,合同会社,長野県,中野市,大字竹原８４０番地,,20,211,3830007,,,,,,,2025-06-04,1,,,,,タケダ,0
2294,8110001039309,新規,0,2025-06-04,2025-06-04,株式会社ＲＲ‐ＵＳＥＤ,,株式会社,新潟県,新潟市東区,藤見町２丁目１４番３号２ミ・ピアーチェＡ棟２０１号,,15,102,9500025,,,,,,,2025-06-04,1,,,,,リーユーズド,0
2295,8110003005779,新規,0,2025-06-04,2025-06-04,合同会社ｃｏｌｏｒｆｕｌ　ｓｃｅｎｅ,,合同会社,新潟県,新潟市江南区,元町３丁目７番８号,,15,104,9500143,,,,,,,2025-06-04,1,,,,,カラフルシーン,0
2305,8120001276388,新規,0,2025-06-04,2025-06-04,株式会社ＥＶＥＲＣＡＲＥ　ＪＡＰＡＮ,,株式会社,大阪府,大阪市中央区,南船場１丁目１３番２０号リアライズ南船場ビル３０１号室,,27,128,5420081,,,,,,,2025-06-04,1,,,,,エバーケアジャパン,0
2306,8120001276454,新規,0,2025-06-04,2025-06-04,株式会社颯,,株式会社,大阪府,大阪市生野区,勝山北４丁目１２番１７号,,27,116,5440033,,,,,,,2025-06-04,1,,,,,ハヤテ,0
2307,8120001276586,新規,0,2025-06-04,2025-06-04,株式会社クリアロジ,,株式会社,大阪府,門真市,沖町２５番８号,,27,223,5710022,,,,,,,2025-06-04,1,,,,,クリアロジ,0
2310,8120003029604,新規,0,2025-06-04,2025-06-04,合同会社ＫＥＲＹＳ,,合同会社,大阪府,大阪市住吉区,我孫子５丁目５番１４号,,27,120,5580014,,,,,,,2025-06-04,1,,,,,ケリス,0
2311,8120003029653,新規,0,2025-06-04,2025-06-04,合同会社千流,,合同会社,大阪府,大阪市都島区,東野田町２丁目５番２号,,27,102,5340024,,,,,,,2025-06-04,1,,,,,センリュウ,0
2314,8120101071821,新規,0,2025-06-04,2025-06-04,ミナミ電気工業株式会社,,株式会社,大阪府,羽曳野市,古市６丁目２７番４号,,27,222,5830852,,,,,,,2025-06-04,1,,,,,ミナミデンキコウギョウ,0
2316,8120103006494,新規,0,2025-06-04,2025-06-04,合同会社ライクワーカー,,合同会社,大阪府,和泉市,府中町６丁目１４番３２－７０９号,,27,219,5940071,,,,,,,2025-06-04,1,,,,,ライクワーカー,0
2318,8120901050982,新規,0,2025-06-04,2025-06-04,株式会社ＰｒｅｄＮｅｘｔ,,株式会社,大阪府,箕面市,桜２丁目５－９,,27,220,5620041,,,,,,,2025-06-04,1,,,,,プレドネクスト,0
2319,8120903005695,新規,0,2025-06-04,2025-06-04,Ｙ．Ｒｉｎｓｅｎ合同会社,,合同会社,大阪府,茨木市,舟木町１番１１号,,27,211,5670828,,,,,,,2025-06-04,1,,,,,ワイリンセン,0
2322,8130001079831,新規,0,2025-06-04,2025-06-04,株式会社Ｃｏｚｙ,,株式会社,京都府,京都市左京区,吉田泉殿町１番地８５－１階,,26,103,6068301,,,,,,,2025-06-04,1,,,,,コージー,0
2326,8130003010505,新規,0,2025-06-04,2025-06-04,合同会社リブロック,,合同会社,京都府,京都市西京区,樫原平田町１番地１１１,,26,111,6158141,,,,,,,2025-06-04,1,,,,,リブロック,0
2327,8130003010513,新規,0,2025-06-04,2025-06-04,合同会社Ｒａｄｉｕｓ　Ｏｎｅ,,合同会社,京都府,京都市中京区,丸屋町１７０番地１２,,26,104,6048086,,,,,,,2025-06-04,1,,,,,ラディウスワン,0
2333,8140003022136,新規,0,2025-06-04,2025-06-04,合同会社大阪渡辺商会,,合同会社,兵庫県,神戸市東灘区,本山北町５丁目４番８－２０２号,,28,101,6580003,,,,,,,2025-06-04,1,,,,,オオサカワタナベショウカイ,0
2334,8150001028167,新規,0,2025-06-04,2025-06-04,勝間電工株式会社,,株式会社,奈良県,生駒市,有里町４８６番地１０,,29,209,6300233,,,,,,,2025-06-04,1,,,,,カツマデンコウ,0
2335,8150001028175,新規,0,2025-06-04,2025-06-04,株式会社ＳＣＬｉｆｅ,,株式会社,奈良県,奈良市,山陵町７９番地の１,,29,201,6310803,,,,,,,2025-06-04,1,,,,,エスシーライフ,0
2336,8160001026797,新規,0,2025-06-04,2025-06-04,株式会社アルク農園,,株式会社,滋賀県,長浜市,北ノ郷町８９番地３,,25,203,5260214,,,,,,,2025-06-04,1,,,,,アルクノウエン,0
2337,8160003003489,新規,0,2025-06-04,2025-06-04,合同会社ＨＡＮＡＫＯ,,合同会社,滋賀県,野洲市,西河原２４８－２０,,25,210,5202423,,,,,,,2025-06-04,1,,,,,ハナコ,0
2340,8170001018661,新規,0,2025-06-04,2025-06-04,株式会社継,,株式会社,和歌山県,西牟婁郡上富田町,朝来８番地１８,,30,404,6492105,,,,,,,2025-06-04,1,,,,,ツナグ,0
2345,8180003028567,新規,0,2025-06-04,2025-06-04,Ｉ’ｓサポート合同会社,,合同会社,愛知県,名古屋市南区,本城町１丁目１８番地の３,,23,112,4570053,,,,,,,2025-06-04,1,,,,,アイズサポート,0
2346,8180003028583,新規,0,2025-06-04,2025-06-04,合同会社アイズ,,合同会社,愛知県,名古屋市中村区,名駅４丁目２４番５号第２森ビル４０１,,23,105,4500002,,,,,,,2025-06-04,1,,,,,アイズ,0
2350,8180005021116,新規,0,2025-06-04,2025-06-04,特定非営利活動法人Ｂｒｉｎｇ　Ｕｐ　Ｊａｐａｎ,,その他の設立登記法人,愛知県,名古屋市千種区,豊年町８番３号,,23,101,4640076,,,,,,,2025-06-04,1,,,,,ブリングアップジャパン,0
2353,8180301039852,新規,0,2025-06-04,2025-06-04,株式会社ＴＫＦ,,株式会社,愛知県,豊橋市,神野新田町字会所前１２２番地セザンヌ牟呂Ａ３,,23,201,4418077,,,,,,,2025-06-04,1,,,,,ティーケーエフ,0
2354,8180301039860,新規,0,2025-06-04,2025-06-04,株式会社ステップアップ,,株式会社,愛知県,豊田市,広久手町５丁目３０番地８,,23,211,4710036,,,,,,,2025-06-04,1,,,,,ステップアップ,0
2357,8190001032272,新規,0,2025-06-04,2025-06-04,株式会社Ｃｏｖｅｒ　Ｔｅｃｈ,,株式会社,三重県,亀山市,亀田町３７３－１,,24,210,5190163,,,,,,,2025-06-04,1,,,,,カバーテック,0
2359,8190003005061,新規,0,2025-06-04,2025-06-04,まちなみ設計合同会社,,合同会社,三重県,四日市市,あかつき台２丁目２番地１２６,,24,202,5128046,,,,,,,2025-06-04,1,,,,,マチナミセッケイ,0
2364,8210001020191,新規,0,2025-06-04,2025-06-04,株式会社ハピネスライフ,,株式会社,福井県,福井市,高木中央２丁目４００７番地,,18,201,9100804,,,,,,,2025-06-04,1,,,,,ハピネスライフ,0
2365,8210001020200,新規,0,2025-06-04,2025-06-04,株式会社三華,,株式会社,福井県,福井市,板垣３丁目１７０５番地,,18,201,9188104,,,,,,,2025-06-04,1,,,,,ミカ,0
2370,8220001026709,新規,0,2025-06-04,2025-06-04,株式会社ｄｅ‐ｗｏｒｋｓ,,株式会社,石川県,河北郡津幡町,字庄ヘ２２番地１３,,17,361,9290327,,,,,,,2025-06-04,1,,,,,ディーワークス,0
2371,8220001026717,新規,0,2025-06-04,2025-06-04,創造株式会社,,株式会社,石川県,河北郡内灘町,字緑台２丁目１２０番地,,17,365,9200276,,,,,,,2025-06-04,1,,,,,ソウゾウ,0
2374,8230001020941,新規,0,2025-06-04,2025-06-04,愛ライフ株式会社,,株式会社,富山県,射水市,海王町２４番地１,,16,211,9340023,,,,,,,2025-06-04,1,,,,,アイライフ,0
2375,8240001065036,新規,0,2025-06-04,2025-06-04,株式会社作田工業,,株式会社,広島県,福山市,西新涯町１丁目１５番１５－２号,,34,207,7210958,,,,,,,2025-06-04,1,,,,,サクダコウギョウ,0
2376,8240001065044,新規,0,2025-06-04,2025-06-04,株式会社Ｍａｙｓ‐ｐｌｕｓ,,株式会社,広島県,広島市中区,大手町１丁目１番２０号相生橋ビル７階Ａ号室,,34,101,7300051,,,,,,,2025-06-04,1,,,,,メイズプラス,0
2378,8240003007234,新規,0,2025-06-04,2025-06-04,合同会社蒼,,合同会社,広島県,福山市,千田町千田１３１５番地,,34,207,7200017,,,,,,,2025-06-04,1,,,,,ソウ,0
2382,8260001040251,新規,0,2025-06-04,2025-06-04,株式会社Ｓ　ＳＴＯＲＥ,,株式会社,岡山県,岡山市北区,本町３－６,,33,101,7000901,,,,,,,2025-06-04,1,,,,,エスストア,0
2387,8290001110183,新規,0,2025-06-04,2025-06-04,株式会社キッチンみつ葉,,株式会社,福岡県,久留米市,諏訪野町２６２３番地１,,40,203,8300037,,,,,,,2025-06-04,1,,,,,キッチンミツバ,0
2388,8290001110225,新規,0,2025-06-04,2025-06-04,株式会社水上ファーム,,株式会社,福岡県,宗像市,野坂３１２２番地,,40,220,8113423,,,,,,,2025-06-04,1,,,,,ミズカミファーム,0
2389,8290001110241,新規,0,2025-06-04,2025-06-04,ＴＮコーポレーション株式会社,,株式会社,福岡県,春日市,桜ヶ丘１丁目２７番地,,40,218,8160872,,,,,,,2025-06-04,1,,,,,ティーエヌコーポレーション,0
2390,8290001110290,新規,0,2025-06-04,2025-06-04,Ｄ＆Ｍフロンティア株式会社,,株式会社,福岡県,福岡市中央区,伊崎３番１２号,,40,133,8100067,,,,,,,2025-06-04,1,,,,,ディアンドエムフロンティア,0
2397,8290801031595,新規,0,2025-06-04,2025-06-04,株式会社ｕｎｉｔｙｃｏｖｅ,,株式会社,福岡県,北九州市小倉北区,三萩野１丁目１番２２－２０２号,,40,106,8020065,,,,,,,2025-06-04,1,,,,,ユニティコーブ,0
2404,8300003002294,新規,0,2025-06-04,2025-06-04,合同会社Ｓｉｌｖｅｒ　Ｓｐｏｏｎ,,合同会社,佐賀県,武雄市,武雄町大字富岡８４８３番地５,,41,206,8430024,,,,,,,2025-06-04,1,,,,,シルバースプーン,0
2407,8310003005024,新規,0,2025-06-04,2025-06-04,合同会社魚酎,,合同会社,長崎県,長崎市,銅座町１２番１０号,,42,201,8500841,,,,,,,2025-06-04,1,,,,,ウオチュウ,0
2411,8340001027397,新規,0,2025-06-04,2025-06-04,Ｍ’ｓテック株式会社,,株式会社,鹿児島県,鹿屋市,今坂町１００５７番地２,,46,203,8930057,,,,,,,2025-06-04,1,,,,,エムズテック,0
2412,8340001027406,新規,0,2025-06-04,2025-06-04,株式会社ＤＹＣ　ＷＯＲＫＳ,,株式会社,鹿児島県,肝属郡南大隅町,根占川北１７１７番地３,,46,491,8932501,,,,,,,2025-06-04,1,,,,,ディーワイシーワークス,0
2414,8350001019567,新規,0,2025-06-04,2025-06-04,ロープマン株式会社,,株式会社,宮崎県,宮崎市,大島町原ノ島１６０５番地７,,45,201,8800824,,,,,,,2025-06-04,1,,,,,ロープマン,0
2416,8350003004947,新規,0,2025-06-04,2025-06-04,クーラヴィジュアル合同会社,,合同会社,宮崎県,宮崎市,神宮東３丁目４番４０号ブルーロッジ２Ｒ,,45,201,8800056,,,,,,,2025-06-04,1,,,,,クーラヴィジュアル,0
2417,8350005006314,新規,0,2025-06-04,2025-06-04,社会保険労務士法人かわごえ事務所,,その他の設立登記法人,宮崎県,宮崎市,神宮２丁目３番１１号,,45,201,8800053,,,,,,,2025-06-04,1,,,,,カワゴエジムショ,0
2421,8370001052649,新規,0,2025-06-04,2025-06-04,株式会社アクア住まいる設備,,株式会社,宮城県,仙台市泉区,北中山２丁目４２番地の３７,,04,105,9813215,,,,,,,2025-06-04,1,,,,,アクアスマイルセツビ,0
2422,8370001052657,新規,0,2025-06-04,2025-06-04,株式会社Ｋボディーワークス,,株式会社,宮城県,仙台市太白区,坪沼字長田中２３番地の３,,04,104,9820231,,,,,,,2025-06-04,1,,,,,ケイボディーワークス,0
2423,8370001052681,新規,0,2025-06-04,2025-06-04,株式会社ＮＩＣＯＩＥ,,株式会社,宮城県,仙台市太白区,四郎丸字昭和裏１８番地の１１,,04,104,9811101,,,,,,,2025-06-04,1,,,,,ニコイエ,0
2427,8380001035363,新規,0,2025-06-04,2025-06-04,株式会社ＡＲＣＳ,,株式会社,福島県,福島市,北町４番５号ＤＡＮビル４Ｆ,,07,201,9608102,,,,,,,2025-06-04,1,,,,,アークス,0
2428,8390001018004,新規,0,2025-06-04,2025-06-04,株式会社エスピーアール,,株式会社,山形県,山形市,大字松原５６４番地２６,,06,201,9902313,,,,,,,2025-06-04,1,,,,,エスピーアール,0
2430,8410001014173,新規,0,2025-06-04,2025-06-04,秋田大家の会株式会社,,株式会社,秋田県,秋田市,中通２丁目２－３２山二ビル７階,,05,201,0100001,,,,,,,2025-06-04,1,,,,,アキタオオヤノカイ,0
2434,8430001094569,新規,0,2025-06-04,2025-06-04,ＡＰ美沢株式会社,,株式会社,北海道,千歳市,桂木１丁目２番１１号パレス・デ・ルル２０３号室,,01,224,0660067,,,,,,,2025-06-04,1,,,,,エーピーミサワ,0
2435,8430001094585,新規,0,2025-06-04,2025-06-04,功電業株式会社,,株式会社,北海道,江別市,緑町西１丁目３１番地の７,,01,217,0670002,,,,,,,2025-06-04,1,,,,,コウデンギョウ,0
2438,8430003017734,新規,0,2025-06-04,2025-06-04,合同会社ネクスマイル,,合同会社,北海道,札幌市北区,北二十五条西４丁目３番１号,,01,102,0010025,,,,,,,2025-06-04,1,,,,,ネクスマイル,0
2443,8450003002676,新規,0,2025-06-04,2025-06-04,ＴＤＣ　ＮＥＸＵＳ合同会社,,合同会社,北海道,旭川市,神楽岡二条４丁目２―３１,,01,204,0788312,,,,,,,2025-06-04,1,,,,,ティーディーシーネクサス,0
2446,8470003002897,新規,0,2025-06-04,2025-06-04,合同会社ハナスル,,合同会社,香川県,高松市,三谷町４３１７番地１２,,37,201,7610450,,,,,,,2025-06-04,1,,,,,,0
2448,8500001026325,新規,0,2025-06-04,2025-06-04,株式会社九プラント工業,,株式会社,愛媛県,大洲市,長浜町櫛生甲３５０番地４,,38,207,7993452,,,,,,,2025-06-04,1,,,,,アマタプラントコウギョウ,0
2449,8500001026333,新規,0,2025-06-04,2025-06-04,株式会社ＬＧ工業,,株式会社,愛媛県,新居浜市,中萩町７番１５号,,38,205,7920045,,,,,,,2025-06-04,1,,,,,エルジーコウギョウ,0
2451,8700150130907,新規,0,2025-06-04,2025-06-04,Ｓｐｉｔｆｉｒｅ　Ａｕｄｉｏ　Ｈｏｌｄｉｎｇｓ　Ｌｉｍｉｔｅｄ,,外国会社等,,,,,,,,Ｅｌｓｌｅｙ　Ｃｏｕｒｔ，２０－２２　Ｇｒｅａｔ　Ｔｉｔｃｈｆｉｅｌｄ　Ｓｔ．，Ｌｏｎｄｏｎ，ＵＫ，Ｗ１Ｗ　８ＢＥ,,,,,,2025-06-04,1,,,,,スピツトフアイアオーデイオホールデイングスリミテツド,0
2464,9010001255609,新規,0,2025-06-04,2025-06-04,ｔａｋｅ　ｏｎｅ株式会社,,株式会社,東京都,千代田区,神田須田町１丁目７番８号ＶＯＲＴ秋葉原ＩＶ２Ｆ,00139440,13,101,1010041,,,,,,,2025-06-04,1,,,,,テイクワン,0
2465,9010001255674,新規,0,2025-06-04,2025-06-04,株式会社れいじん,,株式会社,東京都,中央区,銀座１丁目１６番７号銀座大栄ビル５階,,13,102,1040061,,,,,,,2025-06-04,1,,,,,レイジン,0
2466,9010001255690,新規,0,2025-06-04,2025-06-04,株式会社ＭＩＴＡＲＫ,,株式会社,東京都,千代田区,内神田１丁目１０番５号,,13,101,1010047,,,,,,,2025-06-04,1,,,,,ミットアーク,0
2470,9010003047533,新規,0,2025-06-04,2025-06-04,藤劉合同会社,,合同会社,東京都,中央区,銀座１丁目１２番４号Ｎ＆ＥＢＬＤ．６Ｆ,,13,102,1040061,,,,,,,2025-06-04,1,,,,,フジミズキ,0
2471,9010003047541,新規,0,2025-06-04,2025-06-04,ｍｉｇｎｏｎ合同会社,,合同会社,東京都,中央区,銀座１丁目２２番１１号銀座大竹ビジデンス２Ｆ,,13,102,1040061,,,,,,,2025-06-04,1,,,,,ミニョン,0
2473,9010101016712,新規,0,2025-06-04,2025-06-04,株式会社ＫＢＣ　ＪＡＰＡＮ,,株式会社,東京都,八王子市,四谷町６１７番地１２,,13,201,1930813,,,,,,,2025-06-04,1,,,,,ケービーシージャパン,0
2483,9010401190703,新規,0,2025-06-04,2025-06-04,株式会社マーシャルアーツテクノロジーズ,,株式会社,東京都,港区,白金１丁目２７－６白金高輪ステーションビル９階,,13,103,1080072,,,,,,,2025-06-04,1,,,,,マーシャルアーツテクノロジーズ,0
2484,9010401190752,新規,0,2025-06-04,2025-06-04,ＶＩＲＯＮ　ＡＳＴＲＡ　Ａｓｓｅｔ　Ｍａｎａｇｅｍｅｎｔ株式会社,,株式会社,東京都,港区,三田１丁目７番１号,,13,103,1080073,,,,,,,2025-06-04,1,,,,,バイロンアストラアセットマネジメント,0
2485,9010401190777,新規,0,2025-06-04,2025-06-04,株式会社フィールソン,,株式会社,東京都,港区,新橋４丁目１４番１新橋ＡＵＮＢＬＤＧ４階,,13,103,1050004,,,,,,,2025-06-04,1,,,,,フィールソン,0
2489,9010403035286,新規,0,2025-06-04,2025-06-04,ＳＣＧ８３合同会社,,合同会社,東京都,港区,虎ノ門２丁目６番１号,,13,103,1050001,,,,,,,2025-06-04,1,,,,,エスシージーエイティスリー,0
2490,9010405024460,新規,0,2025-06-04,2025-06-04,ＳＣＧ８２一般社団法人,,その他の設立登記法人,東京都,港区,虎ノ門２丁目６番１号,,13,103,1050001,,,,,,,2025-06-04,1,,,,,エスシージーエイティツー,0
2503,9010901057501,新規,0,2025-06-04,2025-06-04,株式会社プラスケー,,株式会社,東京都,世田谷区,上用賀３丁目９番７ー１０３号,,13,112,1580098,,,,,,,2025-06-04,1,,,,,プラスケー,0
2504,9010903009970,新規,0,2025-06-04,2025-06-04,合同会社コートリィ,,合同会社,東京都,世田谷区,深沢２丁目１番３－６１２号,,13,112,1580081,,,,,,,2025-06-04,1,,,,,コートリィ,0
2510,9011001169798,新規,0,2025-06-04,2025-06-04,株式会社ＣｏｓｍｏＬｉｎｋ,,株式会社,東京都,渋谷区,神南１丁目１１番地４－５階,,13,113,1500041,,,,,,,2025-06-04,1,,,,,コスモリンク,0
2511,9011001169823,新規,0,2025-06-04,2025-06-04,株式会社Ａｍａｎｄｉｎｅ,,株式会社,東京都,渋谷区,本町２丁目４２番８号,,13,113,1510071,,,,,,,2025-06-04,1,,,,,アマンディーヌ,0
2512,9011001169848,新規,0,2025-06-04,2025-06-04,ＣｒｅａｔｏＲｅｖ　Ｊａｐａｎ株式会社,,株式会社,東京都,渋谷区,神宮前６丁目３５番３号コープオリンピア２階（２０７）,,13,113,1500001,,,,,,,2025-06-04,1,,,,,クリエイトレブジャパン,0
2513,9011001169872,新規,0,2025-06-04,2025-06-04,株式会社ｉｍｕ,,株式会社,東京都,渋谷区,千駄ヶ谷４丁目６番８号パークコート神宮北参道ザ・タワー１９０２,,13,113,1510051,,,,,,,2025-06-04,1,,,,,アイエムユー,0
2515,9011003021684,新規,0,2025-06-04,2025-06-04,合同会社ＲＡＫＵＮＩ,,合同会社,東京都,渋谷区,東３丁目２４－８マーサ恵比寿５０２,,13,113,1500011,,,,,,,2025-06-04,1,,,,,ラクニ,0
2516,9011005011015,新規,0,2025-06-04,2025-06-04,一般社団法人ドローン協会,,その他の設立登記法人,東京都,目黒区,中央町２丁目１１番８号,,13,110,1520001,,,,,,,2025-06-04,1,,,,,ドローンキョウカイ,0
2517,9011101111866,新規,0,2025-06-04,2025-06-04,株式会社ワォ,,株式会社,東京都,新宿区,新宿６丁目２７番２９－２４０３号,,13,104,1600022,,,,,,,2025-06-04,1,,,,,ワォ,0
2518,9011103015974,新規,0,2025-06-04,2025-06-04,ＪＪＷ合同会社,,合同会社,東京都,新宿区,西新宿７丁目７番２６号ワコーレ新宿第一ビル４１３,,13,104,1600023,,,,,,,2025-06-04,1,,,,,ジェイジェイダブリュー,0
2520,9011301030627,新規,0,2025-06-04,2025-06-04,モノガタリング株式会社,,株式会社,東京都,杉並区,堀ノ内２丁目３１番２２号,,13,115,1660013,,,,,,,2025-06-04,1,,,,,モノガタリング,0
2522,9011403004719,新規,0,2025-06-04,2025-06-04,エクセル観光合同会社,,合同会社,東京都,板橋区,西台２丁目３番２０号,,13,119,1750045,,,,,,,2025-06-04,1,,,,,エクセルカンコウ,0
2523,9011501032142,新規,0,2025-06-04,2025-06-04,株式会社ＪＹＣ　ＴＯＰ,,株式会社,東京都,北区,上十条２丁目２７－１ザ・タワー十条１５１３,,13,117,1140034,,,,,,,2025-06-04,1,,,,,ジェーワイシートップ,0
2524,9011501032175,新規,0,2025-06-04,2025-06-04,株式会社ＨＡＴＴＯＳ,,株式会社,東京都,北区,十条仲原１丁目２番１４号,,13,117,1140031,,,,,,,2025-06-04,1,,,,,ハットス,0
2529,9011801046255,新規,0,2025-06-04,2025-06-04,ナンバーナイン株式会社,,株式会社,東京都,葛飾区,東金町３丁目１７番１０号ＫＢＳ－Ｆ－２１,,13,122,1250041,,,,,,,2025-06-04,1,,,,,ナンバーナイン,0
2530,9011803006892,新規,0,2025-06-04,2025-06-04,合同会社元和建興,,合同会社,東京都,葛飾区,西水元５丁目５番１号シャーメゾン西水元２０３,,13,122,1250031,,,,,,,2025-06-04,1,,,,,モトワケンコウ,0
2531,9011805003459,新規,0,2025-06-04,2025-06-04,一般社団法人ＷｉＬＬＤスポーツアカデミー,,その他の設立登記法人,東京都,足立区,中川１丁目２０番３－２１２号,,13,121,1200002,,,,,,,2025-06-04,1,,,,,ウィルドスポーツアカデミー,0
2532,9012401043205,新規,0,2025-06-04,2025-06-04,株式会社ケンセキ,,株式会社,東京都,三鷹市,下連雀８丁目２－１３ＹＭ三鷹２０１,,13,204,1810013,,,,,,,2025-06-04,1,,,,,ケンセキ,0
2534,9012403007166,新規,0,2025-06-04,2025-06-04,テクノロップ合同会社,,合同会社,東京都,府中市,宮西町２丁目８番地の２,,13,206,1830022,,,,,,,2025-06-04,1,,,,,テクノロップ,0
2537,9012801024011,新規,0,2025-06-04,2025-06-04,宮川アセットマネージメント株式会社,,株式会社,東京都,昭島市,拝島町４丁目４番１９号ガーデンハウス拝島Ｂ１０３号,,13,207,1960002,,,,,,,2025-06-04,1,,,,,ミヤガワアセットマネージメント,0
2538,9012803003756,新規,0,2025-06-04,2025-06-04,合同会社クリーンネクト,,合同会社,東京都,国分寺市,北町２丁目２４番地２北町マンションＫ－０－１０２,,13,214,1850001,,,,,,,2025-06-04,1,,,,,クリーンネクト,0
2547,9020001163158,新規,0,2025-06-04,2025-06-04,株式会社ジュンテック,,株式会社,神奈川県,横浜市中区,長者町６丁目８８番地１グランアルベーラ横濱関内１３１０号室,,14,104,2310033,,,,,,,2025-06-04,1,,,,,ジュンテック,0
2549,9020003028631,新規,0,2025-06-04,2025-06-04,合同会社こころとからだメンタルサポート,,合同会社,神奈川県,横浜市中区,野毛町１丁目８－２メゾンオークレール２Ｆ,,14,104,2310064,,,,,,,2025-06-04,1,,,,,ココロトカラダメンタルサポート,0
2553,9021001085400,新規,0,2025-06-04,2025-06-04,株式会社アンセリオ,,株式会社,神奈川県,足柄上郡開成町,宮台１０９０番地５,,14,366,2580023,,,,,,,2025-06-04,1,,,,,アンセリオ,0
2561,9030001166820,新規,0,2025-06-04,2025-06-04,株式会社猪瀬工務店,00139423,株式会社,埼玉県,所沢市,青葉台１３０８番地の２１,,11,208,3591105,,,,,,,2025-06-04,1,,,,,イノセコウムテン,0
2562,9030001166837,新規,0,2025-06-04,2025-06-04,株式会社ＴＴＫ,,株式会社,埼玉県,川越市,大字下赤坂６４５番地８,,11,201,3501155,,,,,,,2025-06-04,1,,,,,ティーティーケー,0
2563,9030001166845,新規,0,2025-06-04,2025-06-04,株式会社Ｌａ　Ｂｒｅａ,,株式会社,埼玉県,春日部市,大枝９２番地８シティハイムパル１０２,,11,214,3440023,,,,,,,2025-06-04,1,,,,,ラブレア,0
2571,9040001138918,新規,0,2025-06-04,2025-06-04,株式会社良和,,株式会社,千葉県,柏市,大室２丁目６番地５,,12,217,2770813,,,,,,,2025-06-04,1,,,,,リョウワ,0
2572,9040001139008,新規,0,2025-06-04,2025-06-04,株式会社ヒカリプラス,,株式会社,千葉県,柏市,しいの木台２丁目５番４号,,12,217,2770945,,,,,,,2025-06-04,1,,,,,ヒカリプラス,0
2576,9040003027706,新規,0,2025-06-04,2025-06-04,山本便利屋合同会社,,合同会社,千葉県,流山市,名都借２１５,,12,220,2700145,,,,,,,2025-06-04,1,,,,,ヤマモトベンリヤ,0
2577,9040003027730,新規,0,2025-06-04,2025-06-04,Ｓｕｍｍａ合同会社,,合同会社,千葉県,市原市,山木１２６５番地７,,12,219,2900005,,,,,,,2025-06-04,1,,,,,スマ,0
2578,9040003027771,新規,0,2025-06-04,2025-06-04,合同会社Ａｔｅｌｉｅｒ１‐１,,合同会社,千葉県,流山市,おおたかの森西４丁目１７６番地の５３,,12,220,2700128,,,,,,,2025-06-04,1,,,,,アトリエワンワン,0
2581,9050001056763,新規,0,2025-06-04,2025-06-04,株式会社レイワライン,,株式会社,茨城県,坂東市,幸神平４１番４号,,08,228,3060608,,,,,,,2025-06-04,1,,,,,レイワライン,0
2582,9050001056771,新規,0,2025-06-04,2025-06-04,株式会社ＡＴＯＳ,,株式会社,茨城県,かすみがうら市,宍倉３１７５番地,,08,230,3000121,,,,,,,2025-06-04,1,,,,,,0
2591,9060001038257,新規,0,2025-06-04,2025-06-04,株式会社ＮＥＸＵＳ,,株式会社,栃木県,宇都宮市,東宝木町９番２０号,,09,201,3200062,,,,,,,2025-06-04,1,,,,,ネクサス,0
2593,9070001042984,新規,0,2025-06-04,2025-06-04,株式会社味蔵,,株式会社,群馬県,高崎市,綿貫町１６９５番地３,,10,202,3701207,,,,,,,2025-06-04,1,,,,,アジクラ,0
2595,9080003003471,新規,0,2025-06-04,2025-06-04,合同会社日本平精密模型,,合同会社,静岡県,静岡市駿河区,大谷３８００番地の８７,,22,102,4228017,,,,,,,2025-06-04,1,,,,,ニホンダイラセイミツモケイ,0
2596,9080101025533,新規,0,2025-06-04,2025-06-04,ツキノマ株式会社,,株式会社,静岡県,三島市,西若町２番９号マルコウビル１Ｆ北,,22,206,4110038,,,,,,,2025-06-04,1,,,,,ツキノマ,0
2597,9080101025541,新規,0,2025-06-04,2025-06-04,株式会社縁,,株式会社,静岡県,沼津市,千本中町３６番地,,22,203,4100847,,,,,,,2025-06-04,1,,,,,エニシ,0
2598,9080401027948,新規,0,2025-06-04,2025-06-04,株式会社岡村建設,,株式会社,静岡県,御前崎市,池新田２４４０番地の１８,,22,223,4371612,,,,,,,2025-06-04,1,,,,,オカムラケンセツ,0
2606,9100003008204,新規,0,2025-06-04,2025-06-04,合同会社宮崎えのき,00139443,合同会社,長野県,中野市,大字篠井２００番地１,,20,211,3830035,,,,,,,2025-06-04,1,,,,,ミヤザキエノキ,0
2615,9120001276370,新規,0,2025-06-04,2025-06-04,恒安株式会社,,株式会社,大阪府,大阪市城東区,東中浜３丁目２番２３－３０８号,,27,118,5360023,,,,,,,2025-06-04,1,,,,,コウアン,0
2616,9120001276437,新規,0,2025-06-04,2025-06-04,炭吉株式会社,,株式会社,大阪府,大阪市生野区,巽北１丁目１番１号３Ｆ－Ｈ,,27,116,5440004,,,,,,,2025-06-04,1,,,,,スミヨシ,0
2617,9120001276478,新規,0,2025-06-04,2025-06-04,株式会社ｂｅｌｌ,,株式会社,大阪府,大阪市淀川区,東三国４丁目４番１５号ＣＯＬＵＭＮ新大阪４０３号,,27,123,5320002,,,,,,,2025-06-04,1,,,,,ベル,0
2618,9120001276569,新規,0,2025-06-04,2025-06-04,ウィンテックパートナーズ株式会社,,株式会社,大阪府,大阪市東住吉区,北田辺４丁目５番２４号,,27,121,5460044,,,,,,,2025-06-04,1,,,,,ウィンテックパートナーズ,0
2619,9120001276585,新規,0,2025-06-04,2025-06-04,ｗａｃｏ株式会社,,株式会社,大阪府,大阪市北区,梅田１丁目２番２号大阪駅前第２ビル１２－１２,,27,127,5300001,,,,,,,2025-06-04,1,,,,,ワコ,0
2623,9120003029529,新規,0,2025-06-04,2025-06-04,合同会社ＳＯＳＥＩ,,合同会社,大阪府,大阪市中央区,島之内２丁目１２番１５号ロイヤルコーポ鍛冶屋町１階,,27,128,5420082,,,,,,,2025-06-04,1,,,,,ソセイ,0
2624,9120005024973,新規,0,2025-06-04,2025-06-04,一般社団法人ＡＣＥ,,その他の設立登記法人,大阪府,大阪市中央区,北浜東４番３３号,,27,128,5400031,,,,,,,2025-06-04,1,,,,,エース,0
2625,9120101071787,新規,0,2025-06-04,2025-06-04,株式会社ＲＩＳＥ　ＫＩＤＳ,,株式会社,大阪府,堺市東区,白鷺町１丁３番１３号１Ｆ,,27,143,5998107,,,,,,,2025-06-04,1,,,,,ライズキッズ,0
2626,9120101071795,新規,0,2025-06-04,2025-06-04,ＭＥＴＡＶＥＲＳＥ　ＢＯＸＳ株式会社,,株式会社,大阪府,堺市堺区,宿院町東２丁２－１５－５０１号,,27,141,5900955,,,,,,,2025-06-04,1,,,,,メタバースボックス,0
2627,9120101071804,新規,0,2025-06-04,2025-06-04,株式会社ＷＡＳＡＢＩ,,株式会社,大阪府,堺市中区,土師町３丁１５番１２号,,27,142,5998238,,,,,,,2025-06-04,1,,,,,ワサビ,0
2628,9120101071812,新規,0,2025-06-04,2025-06-04,太田工業株式会社,,株式会社,大阪府,堺市中区,深井沢町３１５４番地２階,,27,142,5998236,,,,,,,2025-06-04,1,,,,,オオタコウギョウ,0
2631,9120903005703,新規,0,2025-06-04,2025-06-04,合同会社ＲＲＡ,,合同会社,大阪府,吹田市,円山町５２番５１号,,27,205,5640061,,,,,,,2025-06-04,1,,,,,アールアールエー,0
2635,9122003003224,新規,0,2025-06-04,2025-06-04,合同会社かしわ信託,,合同会社,大阪府,柏原市,大正１丁目２番１８号,,27,221,5820009,,,,,,,2025-06-04,1,,,,,カシワシンタク,0
2638,9130001079822,新規,0,2025-06-04,2025-06-04,株式会社オクムラタイル,,株式会社,京都府,京都市右京区,嵯峨野芝野町３５番地１４７,,26,108,6168322,,,,,,,2025-06-04,1,,,,,オクムラタイル,0
2639,9130001079830,新規,0,2025-06-04,2025-06-04,株式会社ＲＳ環境,,株式会社,京都府,京都市伏見区,醍醐一言寺裏町１５番地１０,,26,109,6011335,,,,,,,2025-06-04,1,,,,,アールエスカンキョウ,0
2645,9140003022127,新規,0,2025-06-04,2025-06-04,合同会社サンルーツ,,合同会社,兵庫県,尼崎市,塚口町１丁目２５番地１５－１０３,,28,202,6610002,,,,,,,2025-06-04,1,,,,,サンルーツ,0
2646,9150001028166,新規,0,2025-06-04,2025-06-04,株式会社ＲＩＥＮ,,株式会社,奈良県,奈良市,百楽園５丁目１４番１－３１９号,,29,201,6310024,,,,,,,2025-06-04,1,,,,,リアン,0
2647,9160001026805,新規,0,2025-06-04,2025-06-04,株式会社Ｏｃｅａｎ　ｈ,,株式会社,滋賀県,守山市,水保町１１６８番地１,,25,207,5240102,,,,,,,2025-06-04,1,,,,,オーシャンアッシュ,0
2648,9160003003496,新規,0,2025-06-04,2025-06-04,合同会社スプラッシュエージェント,,合同会社,滋賀県,東近江市,妹町６０２番地,,25,213,5270162,,,,,,,2025-06-04,1,,,,,スプラッシュエージェント,0
2649,9170001018660,新規,0,2025-06-04,2025-06-04,株式会社ＲＩＶＥＲＳＩＤＥ,,株式会社,和歌山県,田辺市,新庄町１６１７番地６,,30,206,6460011,,,,,,,2025-06-04,1,,,,,リバーサイド,0
2650,9170003002225,新規,0,2025-06-04,2025-06-04,合同会社南冷設,,合同会社,和歌山県,岩出市,金屋８２番地３,,30,209,6496243,,,,,,,2025-06-04,1,,,,,ミナミレイセツ,0
2657,9180001167060,新規,0,2025-06-04,2025-06-04,興隆商事株式会社,,株式会社,愛知県,名古屋市中区,三の丸１丁目１４番７号本丸ビル３１３号室,,23,106,4600001,,,,,,,2025-06-04,1,,,,,コウリュウショウジ,0
2658,9180001167085,新規,0,2025-06-04,2025-06-04,バイオディール株式会社,,株式会社,愛知県,名古屋市東区,東桜２丁目３番７－１１２５号,,23,102,4610005,,,,,,,2025-06-04,1,,,,,バイオディール,0
2659,9180001167110,新規,0,2025-06-04,2025-06-04,株式会社ＹＪＣ,,株式会社,愛知県,津島市,新開町３丁目１３４番地,,23,208,4960071,,,,,,,2025-06-04,1,,,,,ワイジェイシー,0
2667,9180301039876,新規,0,2025-06-04,2025-06-04,株式会社Ｒａｙ　ｐｉｌｌａｒｓ,,株式会社,愛知県,岡崎市,柱町字東荒子１２４番地,,23,202,4440834,,,,,,,2025-06-04,1,,,,,レイピラーズ,0
2669,9190001032263,新規,0,2025-06-04,2025-06-04,株式会社茅花工業,,株式会社,三重県,桑名市,西外面１２６９番地サンシャイン長良３－１０２,,24,205,5110000,,,,,,,2025-06-04,1,,,,,カヤハナコウギョウ,0
2670,9190003005052,新規,0,2025-06-04,2025-06-04,サンネクスト合同会社,,合同会社,三重県,多気郡明和町,大字前野１１４８番地２,,24,442,5150346,,,,,,,2025-06-04,1,,,,,サンネクスト,0
2672,9200001043853,新規,0,2025-06-04,2025-06-04,株式会社ｂｌｉｓｓ,,株式会社,岐阜県,岐阜市,西改田村前４１番地４,,21,201,5011166,,,,,,,2025-06-04,1,,,,,ブリス,0
2673,9200001043861,新規,0,2025-06-04,2025-06-04,株式会社ＭＡＲＵＹＯＳＨＩ,,株式会社,岐阜県,岐阜市,則武中１丁目１９番２９号,,21,201,5020932,,,,,,,2025-06-04,1,,,,,マルヨシ,0
2675,9200003006858,新規,0,2025-06-04,2025-06-04,Ｄ．Ｋ　ＴＲＡＤＩＮＧ合同会社,,合同会社,岐阜県,岐阜市,黒野１０１－１,,21,201,5011131,,,,,,,2025-06-04,1,,,,,ディーケイトレーディング,0
2677,9220001026732,新規,0,2025-06-04,2025-06-04,株式会社湖山荘,,株式会社,石川県,小松市,木場町む２０番地,,17,203,9230311,,,,,,,2025-06-04,1,,,,,コザンソウ,0
2678,9230001020940,新規,0,2025-06-04,2025-06-04,ジオスペック株式会社,,株式会社,富山県,富山市,月岡東緑町１丁目１０７番地,,16,201,9398141,,,,,,,2025-06-04,1,,,,,ジオスペック,0
2682,9240001065019,新規,0,2025-06-04,2025-06-04,株式会社ＦＥＡＬＳ,,株式会社,広島県,広島市安佐南区,高取北１丁目５番３１－３０１号,,34,105,7310144,,,,,,,2025-06-04,1,,,,,フィールズ,0
2683,9240001065043,新規,0,2025-06-04,2025-06-04,株式会社Ｗａｉｚ,,株式会社,広島県,広島市中区,江波東１丁目１５番５号,,34,101,7300832,,,,,,,2025-06-04,1,,,,,ワイズ,0
2685,9240003007241,新規,0,2025-06-04,2025-06-04,Ｍｏｎｏｆｏｎｄ合同会社,,合同会社,広島県,東広島市,西条町田口２２４番地４５,,34,212,7390036,,,,,,,2025-06-04,1,,,,,モノフォンド,0
2688,9250005009012,新規,0,2025-06-04,2025-06-04,行政書士法人永松事務所,,その他の設立登記法人,山口県,山口市,葵１丁目５番５８号,,35,203,7530821,,,,,,,2025-06-04,1,,,,,ナガマツジムショ,0
2690,9260001040242,新規,0,2025-06-04,2025-06-04,株式会社瀬戸内アイランダー,,株式会社,岡山県,玉野市,築港５丁目４番１号,,33,204,7060002,,,,,,,2025-06-04,1,,,,,セトウチアイランダー,0
2691,9260001040250,新規,0,2025-06-04,2025-06-04,両備アグリウェルネス株式会社,,株式会社,岡山県,岡山市北区,下石井２丁目１０番１２号,,33,101,7000907,,,,,,,2025-06-04,1,,,,,リョウビアグリウェルネス,0
2696,9290001110224,新規,0,2025-06-04,2025-06-04,株式会社ａ　ｎｅｗ,,株式会社,福岡県,福岡市城南区,別府１丁目２１番１０号,,40,136,8140104,,,,,,,2025-06-04,1,,,,,,0
2697,9290001110323,新規,0,2025-06-04,2025-06-04,フットワーク株式会社,,株式会社,福岡県,古賀市,天神１丁目４番３０号,,40,223,8113101,,,,,,,2025-06-04,1,,,,,フットワーク,0
2703,9300001014209,新規,0,2025-06-04,2025-06-04,株式会社フォワードケイ,,株式会社,佐賀県,鹿島市,大字高津原４２１４番地１０,,41,207,8491311,,,,,,,2025-06-04,1,,,,,フォワードケイ,0
2710,9330001033255,新規,0,2025-06-04,2025-06-04,株式会社敬装,,株式会社,熊本県,熊本市西区,横手３丁目９番７号１階,,43,103,8600046,,,,,,,2025-06-04,1,,,,,ケイソウ,0
2711,9330001033263,新規,0,2025-06-04,2025-06-04,株式会社ＴＷＯ　Ｍ　ＮＥＸＴ,,株式会社,熊本県,熊本市南区,出仲間９丁目５番１０号スペーシアビル２階,,43,104,8620963,,,,,,,2025-06-04,1,,,,,ツーエムネクスト,0
2714,9340001027396,新規,0,2025-06-04,2025-06-04,株式会社協晶一,,株式会社,鹿児島県,鹿児島市,吉野町３０７３番地７５,,46,201,8920871,,,,,,,2025-06-04,1,,,,,キョウショウイチ,0
2715,9350001019582,新規,0,2025-06-04,2025-06-04,株式会社メモリード宮崎セールスエージェント,,株式会社,宮崎県,宮崎市,青葉町５番地１,,45,201,8800842,,,,,,,2025-06-04,1,,,,,メモリードミヤザキセールスエージェント,0
2723,9380001035370,新規,0,2025-06-04,2025-06-04,株式会社ロハス中毒,,株式会社,福島県,郡山市,安積町日出山３丁目３２番地の１,,07,203,9630101,,,,,,,2025-06-04,1,,,,,ロハスチュウドク,0
2725,9380005012977,新規,0,2025-06-04,2025-06-04,一般社団法人郡山どぶろく倶楽部,,その他の設立登記法人,福島県,郡山市,安積町荒井字田中屋敷１０番地の２,,07,203,9630111,,,,,,,2025-06-04,1,,,,,コオリヤマドブロククラブ,0
2730,9420003003123,新規,0,2025-06-04,2025-06-04,合同会社白碧建設,,合同会社,青森県,三戸郡五戸町,大字上市川字中筒６７番地４９１,,02,442,0391501,,,,,,,2025-06-04,1,,,,,シロアオイケンセツ,0
2734,9430001094551,新規,0,2025-06-04,2025-06-04,株式会社藤野社中,,株式会社,北海道,札幌市南区,藤野六条６丁目１５番１号,,01,106,0612286,,,,,,,2025-06-04,1,,,,,フジノシャチュウ,0
2735,9430001094568,新規,0,2025-06-04,2025-06-04,さいとう製パン株式会社,,株式会社,北海道,虻田郡ニセコ町,字本通１０６,,01,395,0481502,,,,,,,2025-06-04,1,,,,,サイトウセイパン,0
2736,9430001094584,新規,0,2025-06-04,2025-06-04,株式会社ＨＬサービス,,株式会社,北海道,札幌市西区,西野十一条９丁目２０番３６号,,01,107,0630041,,,,,,,2025-06-04,1,,,,,エイチエルサービス,0
2738,9430003017741,新規,0,2025-06-04,2025-06-04,合同会社デサイル,,合同会社,北海道,札幌市中央区,南一条西２７丁目１番２５－４０１号,,01,101,0640801,,,,,,,2025-06-04,1,,,,,デサイル,0
2744,9470001020743,新規,0,2025-06-04,2025-06-04,株式会社古岡商会,,株式会社,香川県,高松市,亀水町１番地２,,37,201,7618001,,,,,,,2025-06-04,1,,,,,フルオカショウカイ,0
2748,9500001026332,新規,0,2025-06-04,2025-06-04,壱英株式会社,,株式会社,愛媛県,新居浜市,又野１丁目８番１５号,,38,205,7920882,,,,,,,2025-06-04,1,,,,,イチエイ,0
2749,9500003003528,新規,0,2025-06-04,2025-06-04,合同会社温もり,,合同会社,愛媛県,松山市,竹原３丁目１０－１０,,38,201,7900053,,,,,,,2025-06-04,1,,,,,ヌクモリ,0
2751,9700150130906,新規,0,2025-06-04,2025-06-04,栄町町内会,,その他,和歌山県,田辺市,栄町１５番地,,30,206,6460048,,,,,,,2025-06-04,1,,,,,サカエマチチヨウナイカイ,0
