sequenceNumber,corporateNumber,process,correct,updateDate,changeDate,name,nameImageId,kind,prefectureName,cityName,streetNumber,addressImageId,prefectureCode,cityCode,postCode,addressOutside,addressOutsideImageId,closeDate,closeCause,successorCorporateNumber,changeCause,assignmentDate,latest,enName,enPrefectureName,enCityName,enAddressOutside,furigana,hihyoji
3,1010001203715,登記記録の閉鎖等,0,2025-05-27,2025-05-02,プルートパートナーズ株式会社,,株式会社,東京都,中央区,新富１丁目８番２号,,13,102,1040041,,,2025-05-02,清算の結了等,,,2019-09-04,1,,,,,プルートパートナーズ,0
14,1010401149021,登記記録の閉鎖等,0,2025-05-27,2025-05-19,株式会社ＣＨＵ　ＹＯ,,株式会社,東京都,杉並区,和泉３丁目６番１２号,,13,115,1680063,,,2025-05-19,清算の結了等,,,2019-11-08,1,,,,,チューヨー,0
37,1011301013309,登記記録の閉鎖等,0,2025-05-27,2025-05-19,株式会社イワタニテクノ,,株式会社,東京都,杉並区,高円寺北２丁目８番１２号－３０１,,13,115,1660002,,,2025-05-19,清算の結了等,,,2015-10-05,1,,,,,,0
40,1011501017976,登記記録の閉鎖等,0,2025-05-27,2025-05-21,１６ｆｒａｎｃｓ株式会社,,株式会社,東京都,国分寺市,南町２丁目１４番６号,,13,214,1850021,,,2025-05-21,清算の結了等,,,2015-10-05,1,,,,,セイズフラン,0
69,1021002041236,登記記録の閉鎖等,0,2025-05-27,2025-05-14,有限会社昇和塗装,,有限会社,神奈川県,綾瀬市,深谷上６丁目４番３２号,,14,218,2521108,,,2025-05-14,清算の結了等,,,2015-10-05,1,,,,,ショウワトソウ,0
82,1030002047390,登記記録の閉鎖等,0,2025-05-27,2025-05-21,有限会社高山製作所,00016682,有限会社,埼玉県,八潮市,大字浮塚３６８番地７,,11,234,3400835,,,2025-05-21,清算の結了等,,,2015-10-05,1,,,,,タカヤマセイサクショ,0
83,1030002095869,登記記録の閉鎖等,0,2025-05-27,2025-05-23,有限会社齊藤自動車,,有限会社,埼玉県,東松山市,大字田木７０２番地,,11,212,3550053,,,2025-05-23,清算の結了等,,,2015-10-05,1,,,,,サイトウジドウシャ,0
90,1040002056515,登記記録の閉鎖等,0,2025-05-27,2025-05-13,有限会社ベルウッド工業,,有限会社,千葉県,富里市,中沢７０３番地６,,12,233,2860222,,,2025-05-13,清算の結了等,,,2015-10-05,1,,,,,ベルウッドコウギョウ,0
110,1120001016899,登記記録の閉鎖等,0,2025-05-27,2025-05-15,株式会社生野工務店,,株式会社,大阪府,東大阪市,足代１丁目１２－８ヤマトビル２Ｆ,,27,227,5770841,,,2025-05-15,清算の結了等,,,2015-10-05,1,,,,,イクノコウムテン,0
137,1120103003647,登記記録の閉鎖等,0,2025-05-27,2025-05-09,ミニマムＩＴ合同会社,,合同会社,大阪府,高石市,綾園４丁目９番１２号,,27,225,5920014,,,2025-05-09,清算の結了等,,,2020-04-08,1,,,,,ミニマムアイティ,0
138,1120103004224,登記記録の閉鎖等,0,2025-05-27,2025-05-21,合同会社一家,,合同会社,大阪府,貝塚市,堤１６９番地５,,27,208,5970054,,,2025-05-21,清算の結了等,,,2021-06-23,1,,,,,イッカ,0
150,1150005000608,登記記録の閉鎖等,0,2025-05-27,2025-05-01,社会医療法人平和会,,その他の設立登記法人,奈良県,奈良市,西大寺赤田町１丁目７番１号,,29,201,6310818,,,2025-05-01,合併による解散等,2150005006257,令和７年５月１日奈良県大和高田市日之出町１２番８号社会医療法人健生会（2150005006257）に合併し解散,2015-10-05,1,,,,,ヘイワカイ,0
154,1180001043137,登記記録の閉鎖等,0,2025-05-27,2025-05-23,株式会社ウォーキング,,株式会社,愛知県,名古屋市中川区,野田１丁目１１１番地の１,,23,110,4540912,,,2025-05-23,清算の結了等,,,2015-10-05,1,,,,,ウォーキング,0
160,1180002033640,登記記録の閉鎖等,0,2025-05-27,2025-05-26,東海自動車鈑金塗装有限会社,,有限会社,愛知県,名古屋市守山区,川宮町３７３番地,,23,113,4630081,,,2025-05-26,清算の結了等,,,2015-10-05,1,,,,,トウカイジドウシャバンキントソウ,0
163,1180002092323,登記記録の閉鎖等,0,2025-05-27,2025-05-21,有限会社ショウカエン,,有限会社,愛知県,あま市,七宝町川部壱屋敷１７番地,,23,237,4970013,,,2025-05-21,清算の結了等,,,2015-10-05,1,,,,,ショウカエン,0
181,1240001037289,登記記録の閉鎖等,0,2025-05-27,2025-05-26,株式会社タケモト,,株式会社,広島県,竹原市,中央５丁目３番１０号,,34,203,7250026,,,2025-05-26,清算の結了等,,,2015-10-05,1,,,,,タケモト,0
185,1240003004972,登記記録の閉鎖等,0,2025-05-27,2025-05-23,Ｔｒｕｔｈ　Ｈｏｐｅ　Ｏｃｅａｎ合同会社,,合同会社,広島県,広島市安佐南区,山本７丁目２番１２号,,34,105,7310137,,,2025-05-23,清算の結了等,,,2021-01-27,1,,,,,トゥルーホープオーシャン,0
207,1330001010179,登記記録の閉鎖等,0,2025-05-27,2025-05-22,熊本ネクストソサエティ株式会社,,株式会社,熊本県,熊本市中央区,手取本町４番１５号みどりやトーキビル１Ｆ,,43,101,8600808,,,2025-05-22,清算の結了等,,,2015-10-05,1,,,,,クマモトネクストソサエティ,0
222,1370101001784,登記記録の閉鎖等,0,2025-05-27,2025-05-16,株式会社ゆらいず,,株式会社,宮城県,柴田郡川崎町,大字川内字七曲山２１６番地６,,04,324,9891503,,,2025-05-16,清算の結了等,,,2015-10-05,1,,,,,ユライズ,0
225,1380001008301,登記記録の閉鎖等,0,2025-05-27,2025-05-13,株式会社アドバンス,,株式会社,福島県,郡山市,安積２丁目１１４番地３,,07,203,9630107,,,2025-05-13,清算の結了等,,,2015-10-05,1,,,,,アドバンス,0
227,1420001015788,登記記録の閉鎖等,0,2025-05-27,2025-05-16,株式会社トウカン,,株式会社,青森県,上北郡東北町,字乙供６３番地１,,02,408,0392664,,,2025-05-16,清算の結了等,,,2017-06-26,1,,,,,トウカン,0
231,1420002016901,登記記録の閉鎖等,0,2025-05-27,2025-05-15,有限会社中平商事,,有限会社,青森県,十和田市,大字三本木字千歳森１６７番地３,,02,206,0340001,,,2025-05-15,清算の結了等,,,2015-10-05,1,,,,,ナカヘイショウジ,0
240,1450002008284,登記記録の閉鎖等,0,2025-05-27,2025-05-26,有限会社マルコシ,,有限会社,北海道,旭川市,東鷹栖東三条６丁目２１４９番地,,01,204,0718113,,,2025-05-26,清算の結了等,,,2015-10-05,1,,,,,マルコシ,0
242,1450002012419,登記記録の閉鎖等,0,2025-05-27,2025-05-23,有限会社留萌港湾企業,,有限会社,北海道,留萌市,開運町２丁目８番１号,,01,212,0770042,,,2025-05-23,清算の結了等,,,2015-10-05,1,,,,,ルモイコウワキギョウ,0
243,1450005003398,登記記録の閉鎖等,0,2025-05-27,2025-05-22,一般社団法人紋別青年会議所,,その他の設立登記法人,北海道,紋別市,本町４丁目１番１６号,,01,219,0940004,,,2025-05-22,清算の結了等,,,2015-10-05,1,,,,,モンベツセイネンカイギショ,0
266,2010002006439,登記記録の閉鎖等,0,2025-05-27,2025-05-08,有限会社米山製本所,,有限会社,東京都,文京区,小石川３丁目３１番４号,,13,105,1120002,,,2025-05-08,清算の結了等,,,2015-10-05,1,,,,,ヨネヤマセイホンジョ,0
271,2010005031582,登記記録の閉鎖等,0,2025-05-27,2025-04-25,社会保険労務士法人アルマップ,,その他の設立登記法人,東京都,港区,南青山２丁目１３番１１号,,13,103,1070062,,,2025-04-25,清算の結了等,,,2020-03-12,1,,,,,アルマップ,0
280,2010401149805,登記記録の閉鎖等,0,2025-05-27,2025-05-19,株式会社エースホールディングス,,株式会社,東京都,港区,麻布台１丁目３番１号,,13,103,1060041,,,2025-05-19,合併による解散等,5010001250407,令和７年４月１日東京都中央区京橋一丁目６番１２号株式会社エース（5010001250407）に合併し解散,2019-12-12,1,,,,,エースホールディングス,0
287,2010502006921,登記記録の閉鎖等,0,2025-05-27,2025-05-13,有限会社たわらプレス,,有限会社,東京都,台東区,雷門１丁目８番１１号,,13,106,1110034,,,2025-05-13,清算の結了等,,,2015-10-05,1,,,,,,0
288,2010502019519,登記記録の閉鎖等,0,2025-05-27,2025-05-15,有限会社ＮＯＴＥＳ　ＵＮＬＩＭＩＴＥＤ,,有限会社,東京都,台東区,東上野５丁目１０番１０号,,13,106,1100015,,,2025-05-15,清算の結了等,,,2015-10-05,1,,,,,ノーツアンリミテッド,0
297,2010901014005,登記記録の閉鎖等,0,2025-05-27,2025-05-22,キーウェアサービス株式会社,,株式会社,東京都,世田谷区,上北沢５丁目３７番１８号,,13,112,1560057,,,2025-05-22,合併による解散等,3010401023595,令和７年４月１日東京都港区芝三丁目２４番２１号株式会社クレヴァシステムズ（3010401023595）に合併し解散,2015-10-05,1,,,,,キーウェアサービス,0
300,2010902018772,登記記録の閉鎖等,0,2025-05-27,2025-05-12,有限会社アウル,,有限会社,東京都,世田谷区,世田谷１丁目３番１４号,,13,112,1540017,,,2025-05-12,合併による解散等,1013202006804,令和７年５月１０日東京都世田谷区世田谷一丁目３番１４号株式会社頼佳（1013202006804）に合併し解散,2015-10-05,1,,,,,アウル,0
314,2011202002616,登記記録の閉鎖等,0,2025-05-27,2025-05-26,有限会社三宝システム,,有限会社,東京都,中野区,野方５丁目１７番４号,,13,114,1650027,,,2025-05-26,清算の結了等,,,2015-10-05,1,,,,,サンポウシステム,0
326,2012401030390,登記記録の閉鎖等,0,2025-05-27,2025-05-23,株式会社Ｆｏｌｉｎｉｔｙ　ｐｅｒｉｅｎｃｅ,,株式会社,東京都,武蔵野市,吉祥寺南町２丁目６番１号,,13,203,1800003,,,2025-05-23,清算の結了等,,,2015-10-05,1,,,,,,0
341,2020003022962,登記記録の閉鎖等,0,2025-05-27,2025-05-20,合同会社エコローグ,,合同会社,神奈川県,横浜市金沢区,能見台東８番Ａ－５０８号,,14,108,2360058,,,2025-05-20,清算の結了等,,,2022-12-27,1,,,,,エコローグ,0
346,2021001035881,登記記録の閉鎖等,0,2025-05-27,2025-05-08,ハートフル株式会社,,株式会社,神奈川県,相模原市緑区,下九沢２０３８番地１　１２１２号,,14,151,2520134,,,2025-05-08,合併による解散等,9012301007854,令和７年５月１日東京都町田市小山ヶ丘六丁目１番２２６株式会社インフィニティ（9012301007854）に合併し解散,2015-10-05,1,,,,,ハートフル,0
351,2030001062621,登記記録の閉鎖等,0,2025-05-27,2025-05-23,ベストワンガレージ株式会社,,株式会社,埼玉県,北本市,中丸７丁目１４３番地,,11,233,3640013,,,2025-05-23,清算の結了等,,,2015-10-05,1,,,,,ベストワンガレージ,0
360,2030002111146,登記記録の閉鎖等,0,2025-05-27,2025-05-22,工藤アート有限会社,,有限会社,埼玉県,川口市,領家３丁目７番８号,,11,203,3320004,,,2025-05-22,清算の結了等,,,2015-10-05,1,,,,,,0
365,2040001014480,登記記録の閉鎖等,0,2025-05-27,2025-05-12,株式会社サンロード,,株式会社,千葉県,習志野市,東習志野６丁目２番１４号,,12,216,2750001,,,2025-05-12,清算の結了等,,,2015-10-05,1,,,,,,0
369,2040003013316,登記記録の閉鎖等,0,2025-05-27,2025-04-24,ＫＭＴインターナショナル合同会社,,合同会社,千葉県,四街道市,四街道１丁目１８－３,,12,228,2840005,,,2025-04-24,清算の結了等,,,2019-05-08,1,,,,,ケイエムティーインターナショナル,0
425,2140001023496,登記記録の閉鎖等,0,2025-05-27,2025-05-08,株式会社伊藤園関西茶業,,株式会社,兵庫県,神戸市西区,見津が丘５丁目４番１,,28,111,6512228,,,2025-05-08,合併による解散等,7080001013771,令和７年５月１日静岡県牧之原市坂部３２７２番地１伊藤園産業株式会社（7080001013771）に合併し解散,2015-10-05,1,,,,,イトウエンカンサイチャギョウ,0
441,2150005000549,登記記録の閉鎖等,0,2025-05-27,2025-05-01,医療法人岡谷会（財団）,,その他の設立登記法人,奈良県,奈良市,西木辻町２００番地,00043747,29,201,6308325,,,2025-05-01,合併による解散等,2150005006257,令和７年５月１日奈良県大和高田市日之出町１２番８号社会医療法人健生会（2150005006257）に合併し解散,2015-10-05,1,,,,,オカタニカイ,0
447,2180001150246,登記記録の閉鎖等,0,2025-05-27,2025-05-22,ＣＡＲＡＭＥＬ　ＣＵＳＴＡＲＤ株式会社,,株式会社,愛知県,名古屋市中区,富士見町１５番３９号,,23,106,4600014,,,2025-05-22,清算の結了等,,,2022-03-03,1,,,,,カラメルカスタード,0
455,2190005007020,登記記録の閉鎖等,0,2025-05-27,2025-04-30,天理教尾野分教会,,その他の設立登記法人,三重県,松阪市,小野江町４０４番地の１,,24,204,5152109,,,2025-04-30,合併による解散等,5190005003859,令和７年４月３０日三重県北牟婁郡紀北町相賀６６番地天理教相賀分教会（5190005003859）に合併し解散,2015-10-05,1,,,,,,0
467,2290001032243,登記記録の閉鎖等,0,2025-05-27,2025-05-19,株式会社アルファー,,株式会社,福岡県,福岡市中央区,薬院２丁目２番７号,,40,133,8100022,,,2025-05-19,清算の結了等,,,2015-10-05,1,,,,,,0
480,2290802013243,登記記録の閉鎖等,0,2025-05-27,2025-05-22,相生タクシー有限会社,,有限会社,福岡県,北九州市八幡西区,森下町１１番３号,,40,109,8060046,,,2025-05-22,清算の結了等,,,2015-10-05,1,,,,,,0
483,2330001023824,登記記録の閉鎖等,0,2025-05-27,2025-05-22,株式会社本田,,株式会社,熊本県,合志市,須屋２７６７番地５,,43,216,8611102,,,2025-05-22,清算の結了等,,,2017-03-09,1,,,,,ホンダ,0
498,2380003005551,登記記録の閉鎖等,0,2025-05-27,2025-05-15,合同会社ＬＩＮＫ建設,,合同会社,福島県,郡山市,田村町岩作字駒形１３番地の５,,07,203,9631154,,,2025-05-15,清算の結了等,,,2023-08-25,1,,,,,リンクケンセツ,0
511,2430002007527,登記記録の閉鎖等,0,2025-05-27,2025-05-26,有限会社工房横井珈琲,,有限会社,北海道,札幌市西区,発寒九条１１丁目２番１１号,,01,107,0630829,,,2025-05-26,清算の結了等,,,2015-10-05,1,,,,,,0
516,2480002009246,登記記録の閉鎖等,0,2025-05-27,2025-05-26,有限会社中央プランニング,,有限会社,徳島県,吉野川市,鴨島町飯尾７１２番地の１,,36,205,7760033,,,2025-05-26,清算の結了等,,,2015-10-05,1,,,,,,0
520,2490003001333,登記記録の閉鎖等,0,2025-05-27,2025-05-26,合同会社ハナヤマ,,合同会社,高知県,須崎市,赤崎町２番２５号,,39,206,7850037,,,2025-05-26,清算の結了等,,,2019-04-26,1,,,,,ハナヤマ,0
551,3010601029839,登記記録の閉鎖等,0,2025-05-27,2025-05-22,株式会社ヒロエンタープライズ,,株式会社,東京都,江東区,東雲１丁目９番１２号,,13,108,1350062,,,2025-05-22,清算の結了等,,,2015-10-05,1,,,,,ヒロエンタープライズ,0
555,3010702005994,登記記録の閉鎖等,0,2025-05-27,2025-05-23,有限会社中村屋,,有限会社,東京都,中野区,新井２丁目２０番９号,,13,114,1650026,,,2025-05-23,清算の結了等,,,2015-10-05,1,,,,,ナカムラヤ,0
569,3011103006533,登記記録の閉鎖等,0,2025-05-27,2025-05-07,合同会社ＯＲＤＥＲ,,合同会社,東京都,新宿区,上落合２丁目２２番２３－７０８号,,13,104,1610034,,,2025-05-07,清算の結了等,,,2016-10-03,1,,,,,オーダー,0
573,3011402010483,登記記録の閉鎖等,0,2025-05-27,2025-05-22,有限会社コニー,,有限会社,東京都,板橋区,西台３丁目５６番４－６１０号,,13,119,1750045,,,2025-05-22,清算の結了等,,,2015-10-05,1,,,,,コニー,0
590,3020003011650,登記記録の閉鎖等,0,2025-05-27,2025-05-20,合同会社カイロン工房,,合同会社,神奈川県,横浜市青葉区,美しが丘２丁目５番地２,,14,117,2250002,,,2025-05-20,清算の結了等,,,2016-08-05,1,,,,,カイロンコウボウ,0
599,3030001016295,登記記録の閉鎖等,0,2025-05-27,2025-05-22,ケミアジャパンサポート株式会社,,株式会社,埼玉県,さいたま市西区,宮前町５９２番地８,,11,101,3310046,,,2025-05-22,清算の結了等,,,2015-10-05,1,,,,,ケミアジャパンサポート,0
600,3030001028836,登記記録の閉鎖等,0,2025-05-27,2025-05-22,株式会社ＳＴＳブレーンズ,,株式会社,埼玉県,所沢市,若狭３丁目２５５０番地の１,,11,208,3591151,,,2025-05-22,清算の結了等,,,2015-10-05,1,,,,,エスティーエスブレーンズ,0
610,3030002120278,登記記録の閉鎖等,0,2025-05-27,2025-05-22,有限会社高橋石材産業,,有限会社,埼玉県,日高市,高萩東１丁目２７番１０号,,11,242,3501215,,,2025-05-22,清算の結了等,,,2015-10-05,1,,,,,タカハシセキザイサンギョウ,0
615,3040001121235,登記記録の閉鎖等,0,2025-05-27,2025-05-01,株式会社ＴＵＫＡＤＥＮ,,株式会社,千葉県,銚子市,前宿町８５９番地,,12,202,2880031,,,2025-05-01,清算の結了等,,,2021-12-06,1,,,,,ツカデン,0
616,3040001131548,登記記録の閉鎖等,0,2025-05-27,2025-05-12,株式会社カポノ,,株式会社,千葉県,習志野市,津田沼１丁目３番地１１号昭和第三ビル６階ｉ－Ｏｆｆｉｃｅ内,,12,216,2750016,,,2025-05-12,清算の結了等,,,2023-12-27,1,,,,,カポノ,0
623,3050002008133,登記記録の閉鎖等,0,2025-05-27,2025-05-22,有限会社エス企画,,有限会社,茨城県,ひたちなか市,大字勝倉２００７番地,,08,221,3120024,,,2025-05-22,清算の結了等,,,2015-10-05,1,,,,,エスキカク,0
632,3080403004455,登記記録の閉鎖等,0,2025-05-27,2025-05-22,合同会社ＹＧＰソーラーＡ,,合同会社,静岡県,御前崎市,新野２番地,,22,223,4371611,,,2025-05-22,合併による解散等,2080403004167,令和７年５月２０日静岡県御前崎市新野２番地合同会社ＹＧＰソーラー（2080403004167）に合併し解散,2022-01-24,1,,,,,ワイジーピーソーラーエー,0
639,3120001144467,登記記録の閉鎖等,0,2025-05-27,2025-05-22,株式会社Ｓ－ＰＡＬ,,株式会社,大阪府,大阪市淀川区,西中島６丁目５番４号,,27,123,5320011,,,2025-05-22,合併による解散等,1013301031827,令和７年５月１日東京都豊島区東池袋一丁目３３番８号ＮＢＦ池袋タワー１２階株式会社アイレ（1013301031827）に合併し解散,2015-10-05,1,,,,,エスパル,0
708,3240005008417,登記記録の閉鎖等,0,2025-05-27,2025-05-12,天理教福春分教会,,その他の設立登記法人,広島県,福山市,春日町吉田１０１５番地の２,,34,207,7210908,,,2025-05-12,合併による解散等,5240005008423,令和７年５月１２日広島県福山市北吉津町五丁目７番１５号天理教福山分教会（5240005008423）に合併し解散,2015-10-05,1,,,,,,0
710,3250002013220,登記記録の閉鎖等,0,2025-05-27,2025-05-22,有限会社田中幸雄商店,,有限会社,山口県,萩市,大字下五間町６４番地,,35,204,7580043,,,2025-05-22,清算の結了等,,,2015-10-05,1,,,,,タナカユキオショウテン,0
723,3290002030311,登記記録の閉鎖等,0,2025-05-27,2025-05-19,有限会社ＡＬＩＶＥ,,有限会社,福岡県,福岡市南区,平和２丁目７番２４号,,40,134,8150071,,,2025-05-19,清算の結了等,,,2015-10-05,1,,,,,アライブ,0
724,3290002052982,登記記録の閉鎖等,0,2025-05-27,2025-05-19,有限会社イマフク印刷,,有限会社,福岡県,柳川市,弥四郎町２３８番地の８,,40,207,8320057,,,2025-05-19,清算の結了等,,,2015-10-05,1,,,,,,0
744,3370302001284,登記記録の閉鎖等,0,2025-05-27,2025-05-16,有限会社シュトウ建工,,有限会社,宮城県,石巻市,小船越字山畑６５番地の１,,04,202,9860132,,,2025-05-16,清算の結了等,,,2015-10-05,1,,,,,シュトウケンコウ,0
748,3420001005011,登記記録の閉鎖等,0,2025-05-27,2025-05-19,株式会社まるわ青森,,株式会社,青森県,青森市,第二問屋町３丁目１８番１１号,,02,201,0300113,,,2025-05-19,清算の結了等,,,2015-10-05,1,,,,,マルワアオモリ,0
749,3420002019373,登記記録の閉鎖等,0,2025-05-27,2025-05-19,有限会社タイセイフーズ,,有限会社,青森県,むつ市,大畑町鳥谷場１７８番地２,,02,208,0394401,,,2025-05-19,清算の結了等,,,2015-10-05,1,,,,,,0
753,3460105001571,登記記録の閉鎖等,0,2025-05-27,2025-05-08,天理教琵勝分教会,,その他の設立登記法人,北海道,中川郡幕別町,忠類東宝２０４番地,,01,643,0891711,,,2025-05-08,合併による解散等,8160005009154,令和７年４月２５日滋賀県野洲市小篠原１０６２番地天理教琵琶分教会（8160005009154）に合併し解散,2015-10-05,1,,,,,テンリキョウビカツブンキョウカイ,0
772,4010401012928,登記記録の閉鎖等,0,2025-05-27,2025-05-08,真興不動産株式会社,,株式会社,東京都,千代田区,神田淡路町１丁目３番,,13,101,1010063,,,2025-05-08,清算の結了等,,,2015-10-05,1,,,,,シンコウフドウサン,0
787,4010405017790,登記記録の閉鎖等,0,2025-05-27,2025-04-25,一般社団法人那覇西２丁目開発,,その他の設立登記法人,東京都,港区,元赤坂１丁目１番８号株式会社赤坂国際会計内,,13,103,1070051,,,2025-04-25,清算の結了等,,,2019-06-13,1,,,,,ナハニシニチョウメカイハツ,0
789,4010501051248,登記記録の閉鎖等,0,2025-05-27,2025-05-07,健康薬局株式会社,,株式会社,東京都,台東区,東上野４丁目２０番５号,,13,106,1100015,,,2025-05-07,清算の結了等,,,2023-10-25,1,,,,,ケンコウヤッキョク,0
796,4011001011056,登記記録の閉鎖等,0,2025-05-27,2025-04-25,株式会社樹生,,株式会社,東京都,渋谷区,幡ヶ谷１丁目３番１号,,13,113,1510072,,,2025-04-25,清算の結了等,,,2015-10-05,1,,,,,ジュナ,0
797,4011001011535,登記記録の閉鎖等,0,2025-05-27,2025-05-16,株式会社ジェイ・ワイ・ダブリュー,,株式会社,大阪府,大阪市中央区,久太郎町２丁目５番２８号,,27,128,5410056,,,2025-05-16,清算の結了等,,,2015-10-05,1,,,,,ジェイワイダブリュー,0
820,4012301008931,登記記録の閉鎖等,0,2025-05-27,2025-05-21,日本建徳工業株式会社,,株式会社,東京都,練馬区,中村２丁目９番１０号,,13,120,1760024,,,2025-05-21,清算の結了等,,,2015-10-05,1,,,,,ニホンケントクコウギョウ,0
832,4020002034206,登記記録の閉鎖等,0,2025-05-27,2025-05-19,有限会社正栄工業,,有限会社,神奈川県,横浜市港北区,大倉山７丁目１２番２号,,14,109,2220037,,,2025-05-19,清算の結了等,,,2015-10-05,1,,,,,ショウエイコウギョウ,0
846,4030001060400,登記記録の閉鎖等,0,2025-05-27,2025-05-21,本庄観光株式会社,,株式会社,埼玉県,児玉郡美里町,大字阿那志６９７番地４,,11,381,3670103,,,2025-05-21,合併による解散等,4030001093482,令和７年４月２８日埼玉県大里郡寄居町大字桜沢１２５１番地５すみれ観光バス株式会社（4030001093482）に合併し解散,2015-10-05,1,,,,,ホンジョウカンコウ,0
851,4030001107837,登記記録の閉鎖等,0,2025-05-27,2025-05-23,株式会社ＳＹＤ,,株式会社,埼玉県,蓮田市,大字黒浜３４１５番地５,,11,238,3490101,,,2025-05-23,清算の結了等,,,2015-10-05,1,,,,,エスワイディー,0
852,4030001125005,登記記録の閉鎖等,0,2025-05-27,2025-05-22,ミライカム株式会社,,株式会社,埼玉県,川口市,大字里９７３番地の２,,11,203,3340005,,,2025-05-22,清算の結了等,,,2018-04-05,1,,,,,ミライカム,0
853,4030001140994,登記記録の閉鎖等,0,2025-05-27,2025-05-22,株式会社舘ホーム,,株式会社,埼玉県,上尾市,大字上８８番地１,,11,219,3620001,,,2025-05-22,清算の結了等,,,2021-03-03,1,,,,,ダテホーム,0
860,4030002061100,登記記録の閉鎖等,0,2025-05-27,2025-05-22,有限会社川上工務店,,有限会社,埼玉県,新座市,野寺３丁目２番２６号,,11,230,3520034,,,2025-05-22,清算の結了等,,,2015-10-05,1,,,,,カワカミコウムテン,0
861,4030002119930,登記記録の閉鎖等,0,2025-05-27,2025-05-22,有限会社山田家具木工所,,有限会社,埼玉県,飯能市,大字双柳１０３１番地の１,,11,209,3570021,,,2025-05-22,清算の結了等,,,2015-10-05,1,,,,,ヤマダカグモッコウショ,0
870,4050002037602,登記記録の閉鎖等,0,2025-05-27,2025-05-21,有限会社大澤設計事務所,,有限会社,茨城県,牛久市,城中町１２７５番地,,08,219,3001223,,,2025-05-21,清算の結了等,,,2015-10-05,1,,,,,オオサワセッケイジムショ,0
885,4080105004026,登記記録の閉鎖等,0,2025-05-27,2025-05-19,医療法人社団顕明会,,その他の設立登記法人,東京都,杉並区,西荻北３丁目２３番１４号,,13,115,1670042,,,2025-05-19,清算の結了等,,,2015-10-05,1,,,,,ケンメイカイ,0
900,4120001254736,登記記録の閉鎖等,0,2025-05-27,2025-05-09,ツァイト株式会社,,株式会社,大阪府,大阪市北区,西天満４丁目７－１３新老松ビル３７号室,,27,127,5300047,,,2025-05-09,清算の結了等,,,2023-05-09,1,,,,,ツァイト,0
908,4120101063616,登記記録の閉鎖等,0,2025-05-27,2025-05-21,株式会社ｉｎｏｖａｔｉｏｎ,,株式会社,大阪府,松原市,天美東７丁目１１２番地,,27,217,5800032,,,2025-05-21,清算の結了等,,,2021-05-13,1,,,,,イノベーション,0
915,4140001115259,登記記録の閉鎖等,0,2025-05-27,2025-05-22,株式会社ＯＮＥ’Ｋ　ＴＲＵＳＴ,,株式会社,兵庫県,神戸市西区,持子３丁目２５番地の３,,28,111,6512131,,,2025-05-22,清算の結了等,,,2019-10-25,1,,,,,ワンクトラスト,0
919,4140002003693,登記記録の閉鎖等,0,2025-05-27,2025-05-21,丸佳産業有限会社,,有限会社,兵庫県,神戸市灘区,岩屋北町７丁目１番８号,,28,102,6570846,,,2025-05-21,合併による解散等,2180001153240,令和７年５月１５日名古屋市西区名駅三丁目７－９サン・名駅三丁目ビル６０１ソルエユニーク株式会社（2180001153240）に合併し解散,2015-10-05,1,,,,,,0
933,4180301001510,登記記録の閉鎖等,0,2025-05-27,2025-05-01,株式会社中日本,,株式会社,愛知県,岡崎市,大門５丁目１２番地１２,,23,202,4442135,,,2025-05-01,合併による解散等,7180301014831,令和７年５月１日愛知県知立市新林町平草４８番地１中日本産業株式会社（7180301014831）に合併し解散　,2015-10-05,1,,,,,ナカニホン,0
938,4190005003918,登記記録の閉鎖等,0,2025-05-27,2025-04-30,天理教三野瀬分教會,00076255,その他の設立登記法人,三重県,北牟婁郡紀北町,三浦４１番地の４,,24,543,5193208,,,2025-04-30,合併による解散等,5190005003859,令和７年４月３０日三重県北牟婁郡紀北町相賀６６番地天理教相賀分教会（5190005003859）に合併し解散,2015-10-05,1,,,,,,0
964,4330002005836,登記記録の閉鎖等,0,2025-05-27,2025-05-22,有限会社清和教育総合研究所,,有限会社,熊本県,熊本市北区,弓削４丁目１５番２１号,,43,105,8618002,,,2025-05-22,清算の結了等,,,2015-10-05,1,,,,,セイワキョウイクソウゴウケンキュウショ,0
966,4350001009019,登記記録の閉鎖等,0,2025-05-27,2025-05-09,株式会社学産給食,,株式会社,宮崎県,都城市,蓑原町２９８４番地１２コーポ蓑原１０８,,45,202,8850095,,,2025-05-09,合併による解散等,5340001000448,令和７年５月１日鹿児島市与次郎一丁目３番１５号伊田食品株式会社（5340001000448）に合併し解散,2015-10-05,1,,,,,ガクサンキュウショク,0
967,4360001025972,登記記録の閉鎖等,0,2025-05-27,2025-05-19,Ｓｕｎｓｈｉｎｅ　Ｃｏｒｐｏｒａｔｉｏｎ株式会社,,株式会社,沖縄県,宜野湾市,大山４丁目４番５号,,47,205,9012223,,,2025-05-19,清算の結了等,,,2019-07-19,1,,,,,サンシャインコーポレーション,0
976,4370605000156,登記記録の閉鎖等,0,2025-05-27,2025-05-13,学校法人田中学園,,その他の設立登記法人,宮城県,塩竈市,本町１３番５号,,04,203,9850052,,,2025-05-13,清算の結了等,,,2015-10-05,1,,,,,タナカガクエン,0
981,4380003005806,登記記録の閉鎖等,0,2025-05-27,2025-05-19,大丸合同会社,,合同会社,福島県,双葉郡富岡町,大字下郡山字真壁１６６,,07,543,9791132,,,2025-05-19,清算の結了等,,,2024-07-09,1,,,,,ダイマル,0
982,4410001003394,登記記録の閉鎖等,0,2025-05-27,2025-05-22,株式会社エムーワン,,株式会社,秋田県,秋田市,土崎港中央１丁目７番１４号,,05,201,0110946,,,2025-05-22,清算の結了等,,,2015-10-05,1,,,,,エムーワン,0
988,4440002004819,登記記録の閉鎖等,0,2025-05-27,2025-05-22,株式会社アセットハウジング,,株式会社,北海道,函館市,川汲町１４５１番地,,01,202,0411611,,,2025-05-22,清算の結了等,,,2015-10-05,1,,,,,アセットハウジング,0
991,4480001007199,登記記録の閉鎖等,0,2025-05-27,2025-05-23,株式会社トウワ,,株式会社,徳島県,阿南市,中林町東３４番地２,,36,204,7740016,,,2025-05-23,清算の結了等,,,2015-10-05,1,,,,,トウワ,0
994,4500003000380,登記記録の閉鎖等,0,2025-05-27,2025-05-22,合資会社ティケイリサーチ,,合資会社,愛媛県,松山市,下伊台町５２６番地１６,,38,201,7910112,,,2025-05-22,清算の結了等,,,2015-10-05,1,,,,,,0
1010,5010002024306,登記記録の閉鎖等,0,2025-05-27,2025-05-07,有限会社古埜木堂,,有限会社,東京都,中央区,月島１丁目６番１２号,,13,102,1040052,,,2025-05-07,清算の結了等,,,2015-10-05,1,,,,,コノキドウ,0
1021,5010405019852,登記記録の閉鎖等,0,2025-05-27,2025-04-25,ＲＢソーラーブリーズホールディングス一般社団法人,,その他の設立登記法人,東京都,港区,虎ノ門３丁目２２番１０－２０１号,,13,103,1050001,,,2025-04-25,清算の結了等,,,2021-05-28,1,,,,,アールビーソーラーブリーズホールディングス,0
1025,5010701003576,登記記録の閉鎖等,0,2025-05-27,2025-05-01,株式会社彩巧社,,株式会社,東京都,品川区,豊町４丁目１６番２号,,13,109,1420042,,,2025-05-01,清算の結了等,,,2015-10-05,1,,,,,サイコウシャ,0
1026,5010801009184,登記記録の閉鎖等,0,2025-05-27,2025-05-23,株式会社ニコー,,株式会社,栃木県,佐野市,大橋町３２２８番地６,,09,204,3270003,,,2025-05-23,清算の結了等,,,2015-10-05,1,,,,,ニコー,0
1032,5011001154325,登記記録の閉鎖等,0,2025-05-27,2025-05-07,株式会社メリウス,,株式会社,東京都,新宿区,新宿５丁目１８番２０号ルックハイツ新宿８０３号,,13,104,1600022,,,2025-05-07,清算の結了等,,,2023-05-12,1,,,,,メリウス,0
1052,5011403001166,登記記録の閉鎖等,0,2025-05-27,2025-05-23,ＹＭＳ合同会社,,合同会社,東京都,板橋区,上板橋１丁目１５番２１号,,13,119,1740076,,,2025-05-23,清算の結了等,,,2015-10-05,1,,,,,ワイエムエス,0
1066,5013301028919,登記記録の閉鎖等,0,2025-05-27,2025-05-08,東海建設産業株式会社,,株式会社,東京都,豊島区,上池袋３丁目３３番,,13,116,1700012,,,2025-05-08,清算の結了等,,,2015-10-05,1,,,,,トウカイケンセツサンギョウ,0
1087,5030002019915,登記記録の閉鎖等,0,2025-05-27,2025-05-23,有限会社ナビゲーション,,有限会社,千葉県,習志野市,東習志野８丁目１８番２４号,,12,216,2750001,,,2025-05-23,清算の結了等,,,2015-10-05,1,,,,,ナビゲーション,0
1102,5040002031101,登記記録の閉鎖等,0,2025-05-27,2025-05-12,有限会社ふくい,,有限会社,千葉県,八千代市,村上１８６６番地２９モアステージ勝田台５０１号,,12,221,2760028,,,2025-05-12,清算の結了等,,,2015-10-05,1,,,,,フクイ,0
1143,5120101059811,登記記録の閉鎖等,0,2025-05-27,2025-05-21,株式会社ミキ技建,,株式会社,大阪府,堺市西区,神野町２丁１番３７号,,27,144,5938308,,,2025-05-21,清算の結了等,,,2019-05-23,1,,,,,ミキギケン,0
1164,5140002028871,登記記録の閉鎖等,0,2025-05-27,2025-05-20,有限会社財田商店,,有限会社,兵庫県,明石市,朝霧町１丁目１７番６号,,28,203,6730866,,,2025-05-20,清算の結了等,,,2015-10-05,1,,,,,タカラダショウテン,0
1174,5180001110750,登記記録の閉鎖等,0,2025-05-27,2025-05-21,株式会社ぶりっじ,,株式会社,愛知県,名古屋市中川区,松ノ木町１丁目２９番地,,23,110,4540848,,,2025-05-21,清算の結了等,,,2015-10-05,1,,,,,ブリッジ,0
1181,5180005008140,登記記録の閉鎖等,0,2025-05-27,2025-05-13,天理教紀愛分教会,,その他の設立登記法人,愛知県,春日井市,六軒屋町西３丁目１３番地１６,,23,206,4860839,,,2025-05-13,合併による解散等,5190005003859,令和７年４月３０日三重県北牟婁郡紀北町相賀６６番地天理教相賀分教会（5190005003859）に合併し解散,2015-10-05,1,,,,,テンリキョウキアイブンキョウカイ,0
1193,5240001033111,登記記録の閉鎖等,0,2025-05-27,2025-05-22,株式会社ハーモニー,,株式会社,広島県,福山市,南蔵王町５丁目１６番４３号,,34,207,7210973,,,2025-05-22,合併による解散等,7240001034099,令和７年５月１７日広島県府中市中須町１１４２番地１株式会社シービーホーム（7240001034099）に合併し解散,2015-10-05,1,,,,,ハーモニー,0
1194,5240001042335,登記記録の閉鎖等,0,2025-05-27,2025-05-23,株式会社プログレス,,株式会社,広島県,広島市佐伯区,五日市４丁目５番２７号,,34,108,7315127,,,2025-05-23,合併による解散等,6240002009373,令和７年５月２３日広島市佐伯区五日市四丁目５番３１－２０１号株式会社大拓（6240002009373）に合併し解散,2015-10-05,1,,,,,プログレス,0
1201,5260001031006,登記記録の閉鎖等,0,2025-05-27,2025-05-15,雅通商株式会社,,株式会社,岡山県,岡山市北区,芳賀５３０３,,33,101,7011221,,,2025-05-15,合併による解散等,7260001019420,令和７年５月１５日岡山市北区芳賀５３０３株式会社ウィルウェーブ（7260001019420）に合併し解散,2017-07-11,1,,,,,ミヤビツウショウ,0
1217,5290801009339,登記記録の閉鎖等,0,2025-05-27,2025-05-22,株式会社日本電算,,株式会社,福岡県,北九州市八幡東区,春の町４丁目５番１５号,,40,108,8050050,,,2025-05-22,清算の結了等,,,2015-10-05,1,,,,,ニホンデンサン,0
1245,5430003016672,登記記録の閉鎖等,0,2025-05-27,2025-05-22,合同会社ｎａｓｓｙ　ｅｎｇｉｎｅｅｒ,,合同会社,北海道,札幌市北区,屯田六条２丁目７番８号,,01,102,0020856,,,2025-05-22,清算の結了等,,,2024-08-20,1,,,,,ナッシーエンジニア,0
1263,6010003037198,登記記録の閉鎖等,0,2025-05-27,2025-05-08,合同会社ボンドブリッジ・ワン,,合同会社,東京都,千代田区,丸の内１丁目３番２号,,13,101,1000005,,,2025-05-08,清算の結了等,,,2022-03-09,1,,,,,ボンドブリッジワン,0
1275,6010403023153,登記記録の閉鎖等,0,2025-05-27,2025-04-25,合同会社Ｎｏｒｔｈ　Ｓｔａｒ,,合同会社,東京都,港区,愛宕２丁目５番１号愛宕グリーンヒルズＭＯＲＩタワー１８階,,13,103,1050002,,,2025-04-25,清算の結了等,,,2020-06-18,1,,,,,ノーススター,0
1284,6010601007890,登記記録の閉鎖等,0,2025-05-27,2025-05-23,株式会社フジトモ,,株式会社,東京都,江東区,毛利１丁目１８番８号,,13,108,1350001,,,2025-05-23,清算の結了等,,,2015-10-05,1,,,,,フジトモ,0
1294,6010901017953,登記記録の閉鎖等,0,2025-05-27,2025-05-23,株式会社アムシャ・スプンタ,,株式会社,東京都,世田谷区,池尻４丁目１番６号,,13,112,1540001,,,2025-05-23,清算の結了等,,,2015-10-05,1,,,,,アムシャスプンタ,0
1304,6011002011879,登記記録の閉鎖等,0,2025-05-27,2025-04-23,有限会社トーチク産商,,有限会社,東京都,渋谷区,笹塚３丁目５４番１５－３０３号,00064830,13,113,1510073,,,2025-04-23,清算の結了等,,,2015-10-05,1,,,,,トーチクサンショウ,0
1315,6011502006321,登記記録の閉鎖等,0,2025-05-27,2025-05-21,有限会社ヨシダヤ,,有限会社,東京都,北区,堀船３丁目３３番３号,,13,117,1140004,,,2025-05-21,清算の結了等,,,2015-10-05,1,,,,,ヨシダヤ,0
1341,6020002000775,登記記録の閉鎖等,0,2025-05-27,2025-05-20,有限会社松岡自動車,,有限会社,神奈川県,横浜市栄区,飯島町４３６,,14,115,2440842,,,2025-05-20,清算の結了等,,,2015-10-05,1,,,,,マツオカジドウシャ,0
1357,6021002016365,登記記録の閉鎖等,0,2025-05-27,2025-05-22,有限会社グローカル,,有限会社,静岡県,伊東市,八幡野１３４８番地の９,,22,208,4130232,,,2025-05-22,清算の結了等,,,2015-10-05,1,,,,,グローカル,0
1358,6021002030498,登記記録の閉鎖等,0,2025-05-27,2025-05-22,愛和興産有限会社,,有限会社,神奈川県,厚木市,旭町３丁目１番１３号,,14,212,2430014,,,2025-05-22,清算の結了等,,,2015-10-05,1,,,,,アイワコウサン,0
1368,6030001138715,登記記録の閉鎖等,0,2025-05-27,2025-05-22,株式会社エクセル,,株式会社,埼玉県,さいたま市南区,別所５丁目１５－２,,11,108,3360021,,,2025-05-22,清算の結了等,,,2020-10-14,1,,,,,エクセル,0
1373,6030002060604,登記記録の閉鎖等,0,2025-05-27,2025-05-23,有限会社石田工務店,,有限会社,埼玉県,新座市,野火止６丁目４番２６－１４０４号,,11,230,3520011,,,2025-05-23,清算の結了等,,,2015-10-05,1,,,,,イシダコウムテン,0
1374,6030002076988,登記記録の閉鎖等,0,2025-05-27,2025-05-22,有限会社樹輪舎,,有限会社,埼玉県,入間郡三芳町,大字竹間沢７５０番地２,,11,324,3540043,,,2025-05-22,清算の結了等,,,2015-10-05,1,,,,,ジュリンシャ,0
1376,6030005019366,登記記録の閉鎖等,0,2025-05-27,2025-05-23,ＮＰＯ法人不用品の物品寄付で明るい社会を築く会,,その他の設立登記法人,埼玉県,入間市,河原町８番５号フォルム飛和２０１,,11,225,3580008,,,2025-05-23,清算の結了等,,,2019-03-12,1,,,,,フヨウヒンノブッピンキフデアカルイシャカイヲキズクカイ,0
1395,6060002029308,登記記録の閉鎖等,0,2025-05-27,2025-05-23,有限会社星の宮商事,,有限会社,栃木県,小山市,城北６丁目５番地７,,09,208,3230029,,,2025-05-23,清算の結了等,,,2015-10-05,1,,,,,ホシノミヤショウジ,0
1397,6060005000620,登記記録の閉鎖等,0,2025-05-27,2025-05-23,栃木県卸酒販組合,,その他の設立登記法人,栃木県,宇都宮市,大通り３丁目１番１７号,,09,201,3200811,,,2025-05-23,清算の結了等,,,2015-10-05,1,,,,,トチギケンオロシ,0
1413,6090001005199,登記記録の閉鎖等,0,2025-05-27,2025-05-14,株式会社オーク商事,,株式会社,山梨県,甲府市,美咲１丁目１０番６号,,19,201,4000007,,,2025-05-14,清算の結了等,,,2015-10-05,1,,,,,オークショウジ,0
1417,6120001023742,登記記録の閉鎖等,0,2025-05-27,2025-05-22,シルバー自動車株式会社,,株式会社,大阪府,大阪市天王寺区,生玉町９番１６号,,27,109,5430071,,,2025-05-22,合併による解散等,6010703007434,令和７年５月１７日東京都品川区上大崎三丁目１番１号目黒セントラルスクエア１５階いくたま合同会社（6010703007434）に合併し解散,2015-10-05,1,,,,,シルバージドウシャ,0
1420,6120001064646,登記記録の閉鎖等,0,2025-05-27,2025-05-20,三油株式会社,,株式会社,大阪府,大阪市北区,万歳町３番５号,,27,127,5300028,,,2025-05-20,清算の結了等,,,2015-10-05,1,,,,,サンユ,0
1447,6120102021760,登記記録の閉鎖等,0,2025-05-27,2025-05-21,有限会社和田製作所,,有限会社,大阪府,岸和田市,稲葉町６２８番地,,27,202,5960103,,,2025-05-21,清算の結了等,,,2015-10-05,1,,,,,ワダセイサクショ,0
1463,6140002014061,登記記録の閉鎖等,0,2025-05-27,2025-05-22,ヒップスタイル神戸株式会社,,株式会社,兵庫県,神戸市灘区,摩耶埠頭まや流通センター東棟,,28,102,6570854,,,2025-05-22,合併による解散等,3020001103581,令和６年１２月１日横浜市西区みなとみらい二丁目３番５号クイーンズタワーＣ－１０Ｆヒップスタイル株式会社（3020001103581）に合併し解散,2015-10-05,1,,,,,ヒップスタイルコウベ,0
1467,6160001012972,登記記録の閉鎖等,0,2025-05-27,2025-05-21,株式会社坪井電気,,株式会社,滋賀県,草津市,西渋川２丁目６番８７号,,25,206,5250025,,,2025-05-21,清算の結了等,,,2015-10-05,1,,,,,ツボイデンキ,0
1476,6180001161529,登記記録の閉鎖等,0,2025-05-27,2025-05-23,株式会社ｓｙｎｄｒｏｍｅ,,株式会社,愛知県,名古屋市中区,栄３丁目２５番１７号ＣＨＩＰＴＯＷＥＲ７Ｆ,,23,106,4600008,,,2025-05-23,清算の結了等,,,2024-05-22,1,,,,,シンドローム,0
1485,6210002005012,登記記録の閉鎖等,0,2025-05-27,2025-05-23,有限会社坂井電池,,有限会社,福井県,福井市,西開発３丁目３０２番地,,18,201,9100843,,,2025-05-23,清算の結了等,,,2015-10-05,1,,,,,サカイデンチ,0
1499,6290001089825,登記記録の閉鎖等,0,2025-05-27,2025-05-16,株式会社エポック,,株式会社,福岡県,久留米市,荒木町荒木１２８９番地１４,,40,203,8300063,,,2025-05-16,清算の結了等,,,2020-08-21,1,,,,,エポック,0
1514,6320002001479,登記記録の閉鎖等,0,2025-05-27,2025-05-19,有限会社大在メデイカル・サービス,,有限会社,大分県,大分市,庄境４番９号,,44,201,8700241,,,2025-05-19,清算の結了等,,,2015-10-05,1,,,,,,0
1532,6430001016327,登記記録の閉鎖等,0,2025-05-27,2025-05-20,三樹興業株式会社,,株式会社,北海道,札幌市東区,中沼西三条１丁目３番１号,,01,103,0070893,,,2025-05-20,清算の結了等,,,2015-10-05,1,,,,,サンジュコウギョウ,0
1533,6430001048989,登記記録の閉鎖等,0,2025-05-27,2025-05-08,株式会社照運,,株式会社,北海道,砂川市,西一条北１２丁目１番２８号,,01,226,0730161,,,2025-05-08,合併による解散等,5430001076594,令和７年４月１日北海道砂川市西一条北十二丁目１番２８号株式会社栄進（5430001076594）に合併し解散,2015-10-05,1,,,,,ショウウン,0
1534,6430001080059,登記記録の閉鎖等,0,2025-05-27,2025-05-26,株式会社中川運送,,株式会社,北海道,札幌市手稲区,新発寒六条７丁目６番２６号,,01,109,0060806,,,2025-05-26,清算の結了等,,,2019-10-16,1,,,,,ナカガワウンソウ,0
1538,6430005008477,登記記録の閉鎖等,0,2025-05-27,2025-05-08,天理教美倶分教会,,その他の設立登記法人,北海道,虻田郡倶知安町,北一条東３丁目２番地の３,,01,400,0440001,,,2025-05-08,合併による解散等,1200005002111,令和７年４月２５日岐阜県山県市西深瀬６６０番地の１天理教美山分教会（1200005002111）に合併し解散,2015-10-05,1,,,,,テンリキョウミクブンキョウカイ,0
1541,6450001008355,登記記録の閉鎖等,0,2025-05-27,2025-05-23,山カ一川村漁業株式会社,,株式会社,北海道,稚内市,港５丁目３番７号,,01,214,0970021,,,2025-05-23,清算の結了等,,,2015-10-05,1,,,,,ヤマカイチカワムラギョギョウ,0
1545,6470002014771,登記記録の閉鎖等,0,2025-05-27,2025-05-23,有限会社金山総業,,有限会社,香川県,坂出市,福江町３丁目４番２４号,,37,203,7620034,,,2025-05-23,清算の結了等,,,2015-10-05,1,,,,,カナヤマソウギョウ,0
1560,7010001221216,登記記録の閉鎖等,0,2025-05-27,2025-05-09,株式会社ＩｎｖｅｓｔｏｒｓＨＵＢ,,株式会社,東京都,千代田区,麹町３丁目５番地２ＢＵＲＥＸ麹町,,13,101,1020083,,,2025-05-09,合併による解散等,3010001212508,令和７年４月２６日東京都西多摩郡日の出町平井１５－１０株式会社ひだね（3010001212508）に合併し解散,2021-09-21,1,,,,,インベスターズハブ,0
1588,7010802001295,登記記録の閉鎖等,0,2025-05-27,2025-05-20,有限会社伊東建設,,有限会社,東京都,大田区,羽田３丁目４番１４号,,13,111,1440043,,,2025-05-20,清算の結了等,,,2015-10-05,1,,,,,イトウケンセツ,0
1611,7011301001233,登記記録の閉鎖等,0,2025-05-27,2025-05-19,株式会社エレガントジャパン,,株式会社,東京都,杉並区,高円寺南１丁目２８番３－５０８号,,13,115,1660003,,,2025-05-19,清算の結了等,,,2015-10-05,1,,,,,エレガントジャパン,0
1612,7011301015332,登記記録の閉鎖等,0,2025-05-27,2025-05-16,株式会社津田家紫乃,,株式会社,東京都,杉並区,阿佐谷南１丁目２０番２７号,,13,115,1660004,,,2025-05-16,清算の結了等,,,2015-10-05,1,,,,,ツダヤシノ,0
1615,7011303004952,登記記録の閉鎖等,0,2025-05-27,2025-05-19,合同会社池畑企画,,合同会社,東京都,杉並区,高円寺北４丁目３０番１７号,,13,115,1660002,,,2025-05-19,清算の結了等,,,2023-10-31,1,,,,,イケハタキカク,0
1631,7012801021183,登記記録の閉鎖等,0,2025-05-27,2025-05-13,ＡＣＥ株式会社,,株式会社,神奈川県,横浜市神奈川区,大口通８－３,,14,102,2210002,,,2025-05-13,清算の結了等,,,2021-10-26,1,,,,,エース,0
1658,7040001056452,登記記録の閉鎖等,0,2025-05-27,2025-05-12,株式会社フラット,,株式会社,千葉県,袖ケ浦市,長浦駅前７丁目２１番６号,,12,229,2990246,,,2025-05-12,清算の結了等,,,2015-10-05,1,,,,,フラット,0
1664,7040005018309,登記記録の閉鎖等,0,2025-05-27,2025-05-09,特定非営利活動法人地域支援ネットワーク,,その他の設立登記法人,千葉県,夷隅郡大多喜町,大多喜６１番地１,,12,441,2980216,,,2025-05-09,清算の結了等,,,2015-10-05,1,,,,,チイキシエンネットワーク,0
1668,7060001031437,登記記録の閉鎖等,0,2025-05-27,2025-05-21,株式会社ＴＨＬ,,株式会社,栃木県,佐野市,宮下町７番１０号,,09,204,3270509,,,2025-05-21,清算の結了等,,,2019-04-05,1,,,,,ティーエイチエル,0
1681,7090001001486,登記記録の閉鎖等,0,2025-05-27,2025-05-23,株式会社三英東体,,株式会社,山梨県,甲府市,下飯田４丁目４番２５号,,19,201,4000064,,,2025-05-23,合併による解散等,4100001002642,令和７年５月２１日長野市大字風間２０３４番地株式会社三英日体（4100001002642）に合併し解散,2015-10-05,1,,,,,サンエイトウタイ,0
1704,7120101025126,登記記録の閉鎖等,0,2025-05-27,2025-05-21,株式会社北中美創,,株式会社,大阪府,松原市,三宅中４丁目２番２４号,,27,217,5800046,,,2025-05-21,清算の結了等,,,2015-10-05,1,,,,,キタナカビソウ,0
1780,7290802004329,登記記録の閉鎖等,0,2025-05-27,2025-05-22,有限会社戸根タクシー,,有限会社,福岡県,北九州市小倉南区,東貫３丁目２２番１７号,,40,107,8000224,,,2025-05-22,清算の結了等,,,2015-10-05,1,,,,,トネタクシー,0
1784,7330001022227,登記記録の閉鎖等,0,2025-05-27,2025-05-01,株式会社ケイティーケイ,,株式会社,熊本県,熊本市東区,京塚本町４８番３４号,00104882,43,102,8620952,,,2025-05-01,合併による解散等,8330001006534,令和７年５月１日熊本市東区京塚本町４８番３４号株式会社環境都市開発（8330001006534）に合併し解散,2015-11-05,1,,,,,ケイティーケイ,0
1790,7360001006425,登記記録の閉鎖等,0,2025-05-27,2025-04-25,株式会社大成ホーム建設工業,,株式会社,沖縄県,島尻郡与那原町,字板良敷１３３番地の５,,47,348,9011301,,,2025-04-25,合併による解散等,1360001008922,令和７年４月１４日沖縄県浦添市牧港三丁目３９番１１号株式会社大成ホーム（1360001008922）に合併し解散,2015-10-05,1,,,,,タイセイホームケンセツコウギョウ,0
1803,7380005008028,登記記録の閉鎖等,0,2025-05-27,2025-05-16,ＦＤＳ磐梯協同組合,,その他の設立登記法人,福島県,耶麻郡磐梯町,大字赤枝字堂殿２１５４番地,,07,407,9693303,,,2025-05-16,清算の結了等,,,2015-10-05,1,,,,,エフディーエスバンダイ,0
1806,7400001004060,登記記録の閉鎖等,0,2025-05-27,2025-05-19,株式会社永井中央薬局,,株式会社,岩手県,盛岡市,永井１９地割２５３番地１,,03,201,0200834,,,2025-05-19,合併による解散等,1370001017988,令和７年５月１日仙台市太白区鈎取本町一丁目１３番１号Ｍ２ファーマシー株式会社（1370001017988）に合併し解散,2015-10-05,1,,,,,ナガイチュウオウヤッキョク,0
1818,7460105001452,登記記録の閉鎖等,0,2025-05-27,2025-05-08,天理教美浦分教会,,その他の設立登記法人,北海道,十勝郡浦幌町,字宝町２６番地,,01,649,0895601,,,2025-05-08,合併による解散等,1200005002111,令和７年４月２５日岐阜県山県市西深瀬６６０番地の１天理教美山分教会（1200005002111）に合併し解散,2015-10-05,1,,,,,テンリキョウミウラブンキョウカイ,0
1826,8010001202446,登記記録の閉鎖等,0,2025-05-27,2025-04-10,株式会社ＴＴデジタル・プラットフォーム,,株式会社,東京都,中央区,新川１丁目１７番２１号,,13,102,1040033,,,2025-04-10,合併による解散等,4010001205279,令和７年４月１日東京都中央区新川一丁目１７番２１号ＣＨＥＥＲ証券株式会社（4010001205279）に合併し解散,2019-07-19,1,,,,,ティーティーデジタルプラットフォーム,0
1830,8010002001772,登記記録の閉鎖等,0,2025-05-27,2025-05-08,有限会社キューブ,,有限会社,東京都,文京区,大塚４丁目４２番１９号,,13,105,1120012,,,2025-05-08,清算の結了等,,,2015-10-05,1,,,,,キューブ,0
1846,8010802003142,登記記録の閉鎖等,0,2025-05-27,2025-05-20,有限会社落合板金工業所,,有限会社,東京都,大田区,下丸子３丁目２８番６号,,13,111,1460092,,,2025-05-20,清算の結了等,,,2015-10-05,1,,,,,オチアイバンキンコウギョウショ,0
1848,8010901047057,登記記録の閉鎖等,0,2025-05-27,2025-05-23,株式会社オフィス瀬田,,株式会社,東京都,世田谷区,瀬田３丁目１３番１５号,,13,112,1580095,,,2025-05-23,清算の結了等,,,2020-09-24,1,,,,,オフィスセタ,0
1850,8011001032214,登記記録の閉鎖等,0,2025-05-27,2025-05-22,株式会社ムージャック,,株式会社,東京都,世田谷区,代沢１丁目１４番６号,,13,112,1550032,,,2025-05-22,清算の結了等,,,2015-10-05,1,,,,,ムージャック,0
1861,8011101048498,登記記録の閉鎖等,0,2025-05-27,2025-05-07,Ｄ．Ａ．Ｋ株式会社,,株式会社,東京都,新宿区,高田馬場４丁目１７－１５－４０３号,,13,104,1690075,,,2025-05-07,清算の結了等,,,2015-10-05,1,,,,,デイーエイケイ,0
1877,8013202004355,登記記録の閉鎖等,0,2025-05-27,2025-04-25,有限会社寺門商店,,有限会社,東京都,目黒区,目黒本町２丁目１５番１８号,,13,110,1520002,,,2025-04-25,清算の結了等,,,2015-10-05,1,,,,,テラカドショウテン,0
1887,8020001120184,登記記録の閉鎖等,0,2025-05-27,2025-05-20,コバヤシ工芸株式会社,,株式会社,神奈川県,横浜市瀬谷区,阿久和西４丁目３６－１２,,14,114,2460025,,,2025-05-20,清算の結了等,,,2017-03-07,1,,,,,コバヤシコウゲイ,0
1900,8030001034540,登記記録の閉鎖等,0,2025-05-27,2025-05-22,株式会社フラクタリコ,,株式会社,埼玉県,さいたま市大宮区,櫛引町１丁目３２４－２－３３６,,11,103,3300851,,,2025-05-22,清算の結了等,,,2015-10-05,1,,,,,フラクタリコ,0
1913,8040003026618,登記記録の閉鎖等,0,2025-05-27,2025-05-09,合同会社リス,,合同会社,千葉県,船橋市,本町４丁目１番１５号快美壱番館５階,,12,204,2730005,,,2025-05-09,清算の結了等,,,2025-01-17,1,,,,,リス,0
1920,8060001014614,登記記録の閉鎖等,0,2025-05-27,2025-05-23,株式会社ｉ－ＳＨＡＰＥ,,株式会社,栃木県,小山市,城山町２丁目９番１６号,,09,208,3230025,,,2025-05-23,清算の結了等,,,2015-10-05,1,,,,,アイシェイプ,0
1974,8140002034000,登記記録の閉鎖等,0,2025-05-27,2025-05-21,有限会社ネットデジコム,,有限会社,兵庫県,赤穂市,加里屋１７０６番地,,28,212,6780239,,,2025-05-21,清算の結了等,,,2015-10-05,1,,,,,ネットデジコム,0
1983,8180001036786,登記記録の閉鎖等,0,2025-05-27,2025-05-23,株式会社新生ライフスタイル,,株式会社,愛知県,名古屋市中区,栄４丁目１６番８号,,23,106,4600008,,,2025-05-23,清算の結了等,,,2015-10-05,1,,,,,シンセイライフスタイル,0
1991,8180003012678,登記記録の閉鎖等,0,2025-05-27,2025-05-22,合同会社佐藤,,合同会社,愛知県,名古屋市天白区,向が丘２丁目６１０番地,,23,116,4680012,,,2025-05-22,清算の結了等,,,2015-10-05,1,,,,,サトウ,0
1994,8180302021545,登記記録の閉鎖等,0,2025-05-27,2025-05-23,有限会社エス設計工房,,有限会社,愛知県,豊田市,豊栄町４丁目１７０番地,,23,211,4701201,,,2025-05-23,清算の結了等,,,2015-10-05,1,,,,,エスセッケイコウボウ,0
1997,8190005003914,登記記録の閉鎖等,0,2025-05-27,2025-04-30,天理教長郷分教会,,その他の設立登記法人,三重県,北牟婁郡紀北町,東長島２７４番地の４,,24,543,5193204,,,2025-04-30,合併による解散等,5190005003859,令和７年４月３０日三重県北牟婁郡紀北町相賀６６番地天理教相賀分教会（5190005003859）に合併し解散,2015-10-05,1,,,,,テンリキョウナガサトブンキョウカイ,0
2000,8220001010992,登記記録の閉鎖等,0,2025-05-27,2025-05-21,ＴＯＭ　ＯＮＥ株式会社,,株式会社,石川県,金沢市,額新町２丁目６１番地,,17,201,9218149,,,2025-05-21,清算の結了等,,,2015-10-05,1,,,,,トムワン,0
2025,8290003015629,登記記録の閉鎖等,0,2025-05-27,2025-05-19,Ａｎｉｍａｔｅｄ　Ｃａｒｂｏｎ合同会社,,合同会社,福岡県,福岡市中央区,大名１丁目３番４１号プリオ大名ビル２Ｆ,,40,133,8100041,,,2025-05-19,清算の結了等,,,2024-08-07,1,,,,,アニメカーボン,0
2055,8370002007783,登記記録の閉鎖等,0,2025-05-27,2025-05-15,有限会社スズキ,,有限会社,宮城県,仙台市宮城野区,宮千代１丁目１２番地の２,,04,102,9830044,,,2025-05-15,清算の結了等,,,2015-10-05,1,,,,,スズキ,0
2061,8400001013787,登記記録の閉鎖等,0,2025-05-27,2025-05-01,株式会社純そば,,株式会社,岩手県,盛岡市,上堂４丁目１番２０号,,03,201,0200125,,,2025-05-01,合併による解散等,4400003003245,令和７年５月１日岩手県盛岡市東新庄一丁目２－１８ＯＳＦパートナーズ合同会社（4400003003245）に合併し解散,2017-07-18,1,,,,,ジュンソバ,0
2062,8410001011633,登記記録の閉鎖等,0,2025-05-27,2025-05-22,株式会社ｓｍａｒｔ　ｐｌｕｓ,,株式会社,秋田県,秋田市,土崎港西３丁目９番１５号,,05,201,0110945,,,2025-05-22,清算の結了等,,,2017-08-23,1,,,,,,0
2072,8430002054935,登記記録の閉鎖等,0,2025-05-27,2025-05-22,有限会社西村理美容室,,有限会社,北海道,小樽市,緑２丁目２９番１号,,01,203,0470034,,,2025-05-22,清算の結了等,,,2015-10-05,1,,,,,ニシムラリビヨウシツ,0
2073,8430002057541,登記記録の閉鎖等,0,2025-05-27,2025-05-02,有限会社坂本工務店,,有限会社,北海道,岩内郡岩内町,字御崎２番地の１０,,01,402,0450026,,,2025-05-02,清算の結了等,,,2015-10-05,1,,,,,,0
2079,8450001006027,登記記録の閉鎖等,0,2025-05-27,2025-05-26,株式会社北星電装,,株式会社,北海道,旭川市,東鷹栖東三条６丁目２１４９番地,,01,204,0718113,,,2025-05-26,清算の結了等,,,2015-10-05,1,,,,,ホクセイデンソウ,0
2092,9010001122049,登記記録の閉鎖等,0,2025-05-27,2025-05-21,株式会社電匠,,株式会社,東京都,八王子市,新町９番１１号,,13,201,1920065,,,2025-05-21,清算の結了等,,,2015-10-05,1,,,,,,0
2094,9010001193908,登記記録の閉鎖等,0,2025-05-27,2025-05-08,ＭＧＡ　Ｊａｐａｎ株式会社,,株式会社,東京都,中央区,日本橋３丁目９番１号日本橋三丁目スクエア１１階,,13,102,1030027,,,2025-05-08,清算の結了等,,,2018-08-03,1,,,,,エムジーエージャパン,0
2106,9010003026801,登記記録の閉鎖等,0,2025-05-27,2025-05-08,さくら野弘前ＳＣ合同会社,,合同会社,東京都,千代田区,大手町１丁目５番１号,,13,101,1000004,,,2025-05-08,清算の結了等,,,2018-01-18,1,,,,,サクラノヒロサキエスシー,0
2109,9010401167750,登記記録の閉鎖等,0,2025-05-27,2025-05-07,Ｊｕｎｉｐｅｒ　Ｔｈｅｒａｐｅｕｔｉｘ株式会社,,株式会社,東京都,千代田区,丸の内３丁目４番１号新国際ビル８階,,13,101,1000005,,,2025-05-07,清算の結了等,,,2022-06-07,1,,,,,ジュニパーセラピューティクス,0
2113,9010501038158,登記記録の閉鎖等,0,2025-05-27,2025-05-12,株式会社石塚左玄医食研究所,,株式会社,東京都,台東区,東上野１丁目１７番２号第２江口ビル３階,,13,106,1100015,,,2025-05-12,清算の結了等,,,2015-10-05,1,,,,,イシヅカサゲンイショクケンキュウショ,0
2136,9011201010316,登記記録の閉鎖等,0,2025-05-27,2025-05-23,株式会社向陽測量,,株式会社,東京都,中野区,中野４丁目４番１１号,,13,114,1640001,,,2025-05-23,清算の結了等,,,2015-10-05,1,,,,,コウヨウソクリョウ,0
2165,9021001073553,登記記録の閉鎖等,0,2025-05-27,2025-05-23,株式会社Ｎｅｗ　Ｇａｔｅ,,株式会社,神奈川県,伊勢原市,東大竹１１２７番地の１,,14,214,2591133,,,2025-05-23,清算の結了等,,,2021-08-11,1,,,,,ニューゲート,0
2175,9030003018813,登記記録の閉鎖等,0,2025-05-27,2025-05-21,合同会社昴,,合同会社,埼玉県,飯能市,美杉台４丁目４１番地７,,11,209,3570041,,,2025-05-21,清算の結了等,,,2022-02-07,1,,,,,スバル,0
2178,9040001028292,登記記録の閉鎖等,0,2025-05-27,2025-05-16,株式会社ハードオフファミリー,,株式会社,千葉県,白井市,冨士１５３番地２７,,12,232,2701432,,,2025-05-16,合併による解散等,6110001012853,令和７年４月１日新潟県新発田市新栄町三丁目１番１３号株式会社ハードオフコーポレーション（6110001012853）に合併し解散,2015-10-05,1,,,,,ハードオフファミリー,0
2197,9070005007661,登記記録の閉鎖等,0,2025-05-27,2025-04-30,名久田牧野農業協同組合,,その他の設立登記法人,群馬県,吾妻郡中之条町,大字赤坂２０９番地の２,,10,421,3770417,,,2025-04-30,清算の結了等,,,2015-10-05,1,,,,,ナクタ,0
2207,9110003003955,登記記録の閉鎖等,0,2025-05-27,2025-05-14,合同会社ＥＧコンサルティング,,合同会社,新潟県,新潟市中央区,笹口３丁目１６番１６号大東ビル２階,,15,103,9500911,,,2025-05-14,清算の結了等,,,2019-07-03,1,,,,,イージーコンサルティング,0
2233,9120003010166,登記記録の閉鎖等,0,2025-05-27,2025-05-16,合同会社コム・デ・フルール,,合同会社,大阪府,大阪市東住吉区,東田辺１丁目１３番１４号,,27,121,5460032,,,2025-05-16,清算の結了等,,,2015-10-05,1,,,,,コムデフルール,0
2243,9120101050568,登記記録の閉鎖等,0,2025-05-27,2025-05-21,株式会社まほろば,,株式会社,大阪府,岸和田市,春木若松町６番６号,,27,202,5960006,,,2025-05-21,清算の結了等,,,2015-10-05,1,,,,,マホロバ,0
2244,9120101052614,登記記録の閉鎖等,0,2025-05-27,2025-05-16,株式会社パーツグリーン,,株式会社,大阪府,泉大津市,旭町１８番１－２４０５号,,27,206,5950025,,,2025-05-16,清算の結了等,,,2015-10-05,1,,,,,パーツグリーン,0
2250,9120901018376,登記記録の閉鎖等,0,2025-05-27,2025-05-19,株式会社ディバイディコーポレーション,,株式会社,大阪府,吹田市,豊津町５６番４号,,27,205,5640051,,,2025-05-19,清算の結了等,,,2015-10-05,1,,,,,,0
2253,9122001009074,登記記録の閉鎖等,0,2025-05-27,2025-05-16,理研化学産業株式会社,,株式会社,大阪府,東大阪市,稲葉２丁目２番５２号,,27,227,5780925,,,2025-05-16,清算の結了等,,,2015-10-05,1,,,,,リケンカガクサンギョウ,0
2265,9140002022219,登記記録の閉鎖等,0,2025-05-27,2025-05-22,有限会社クルチュア,,有限会社,兵庫県,神戸市中央区,北長狭通１丁目２－１３,,28,110,6500012,,,2025-05-22,清算の結了等,,,2015-10-05,1,,,,,,0
2272,9160001004083,登記記録の閉鎖等,0,2025-05-27,2025-05-26,日本食品技術株式会社,,株式会社,東京都,世田谷区,玉川３丁目１番９－５０１号,,13,112,1580094,,,2025-05-26,清算の結了等,,,2015-10-05,1,,,,,ニホンショクヒンギジュツ,0
2277,9180001141981,登記記録の閉鎖等,0,2025-05-27,2025-05-23,ティークリエイション株式会社,,株式会社,愛知県,江南市,松竹町西瀬古３７番１,,23,217,4838355,,,2025-05-23,清算の結了等,,,2020-07-14,1,,,,,ティークリエイション,0
2303,9240005008428,登記記録の閉鎖等,0,2025-05-27,2025-05-12,天理教引野分教会,00002094,その他の設立登記法人,広島県,福山市,引野町３丁目３２番３号,,34,207,7210942,,,2025-05-12,合併による解散等,5240005008423,令和７年５月１２日広島県福山市北吉津町五丁目７番１５号天理教福山分教会（5240005008423）に合併し解散,2015-10-05,1,,,,,テンリキョウヒキノブンキョウカイ,0
2309,9280002008146,登記記録の閉鎖等,0,2025-05-27,2025-05-23,有限会社エリア,,有限会社,島根県,浜田市,殿町５番地７,,32,202,6970027,,,2025-05-23,清算の結了等,,,2015-10-05,1,,,,,エリア,0
2332,9360001023609,登記記録の閉鎖等,0,2025-05-27,2025-04-25,株式会社大成ホーム不動産開発,,株式会社,沖縄県,浦添市,牧港３丁目３９番１１号,,47,208,9012131,,,2025-04-25,合併による解散等,1360001008922,令和７年４月１４日沖縄県浦添市牧港三丁目３９番１１号株式会社大成ホーム（1360001008922）に合併し解散,2018-03-02,1,,,,,タイセイホームフドウサンカイハツ,0
2340,9360003007196,登記記録の閉鎖等,0,2025-05-27,2025-05-19,合同会社知念屋,,合同会社,沖縄県,宜野湾市,嘉数３丁目１８番２５号,,47,205,9012226,,,2025-05-19,清算の結了等,,,2015-10-05,1,,,,,チネンヤ,0
2352,9380002015132,登記記録の閉鎖等,0,2025-05-27,2025-05-14,有限会社日栄架設機工,,有限会社,福島県,田村市,船引町中山字遠下１５７番地の１６,,07,211,9634543,,,2025-05-14,清算の結了等,,,2015-10-05,1,,,,,ニチエイカセツキコウ,0
2353,9380003004456,登記記録の閉鎖等,0,2025-05-27,2025-05-16,合同会社創志工業,,合同会社,福島県,福島市,宮代字宝田前２０番地５,,07,201,9600116,,,2025-05-16,清算の結了等,,,2019-04-25,1,,,,,ソウシコウギョウ,0
2358,9410001013158,登記記録の閉鎖等,0,2025-05-27,2025-05-26,株式会社アルビス,,株式会社,秋田県,秋田市,広面字堤敷６４番地１,,05,201,0100041,,,2025-05-26,清算の結了等,,,2022-04-13,1,,,,,アルビス,0
