sequenceNumber,corporateNumber,process,correct,updateDate,changeDate,name,nameImageId,kind,prefectureName,cityName,streetNumber,addressImageId,prefectureCode,cityCode,postCode,addressOutside,addressOutsideImageId,closeDate,closeCause,successorCorporateNumber,changeCause,assignmentDate,latest,enName,enPrefectureName,enCityName,enAddressOutside,furigana,hihyoji
19,1010001232739,新規,0,2023-02-10,2023-02-10,株式会社フーユーミート,,株式会社,東京都,千代田区,神田錦町２丁目２番１号ＫＡＮＤＡＳＱＵＡＲＥ１１階,,13,101,1010054,,,,,,,2023-02-10,1,,,,,フーユーミート,0
20,1010001232870,新規,0,2023-02-10,2023-02-10,株式会社クライノート,,株式会社,東京都,千代田区,神田錦町２丁目七番地乾ビル六階,,13,101,1010054,,,,,,,2023-02-10,1,,,,,クライノート,0
21,1010001232904,新規,0,2023-02-10,2023-02-10,株式会社ＰＡＲＫＯＵＲ　ＦＲＯＮＴＩＥＲ,,株式会社,東京都,千代田区,神田小川町３丁目１－５須田ビル８階,,13,101,1010052,,,,,,,2023-02-10,1,,,,,パルクールフロンティア,0
23,1010003039760,新規,0,2023-02-10,2023-02-10,合同会社誠月,,合同会社,東京都,中央区,月島１丁目２２番１号－１１４,,13,102,1040052,,,,,,,2023-02-10,1,,,,,セイゲツ,0
24,1010003039810,新規,0,2023-02-10,2023-02-10,ＲＯＵＧＩＥ　ＪＡＰＡＮ合同会社,,合同会社,東京都,中央区,日本橋蛎殻町１丁目５番６号盛田ビルディング３階,,13,102,1030014,,,,,,,2023-02-10,1,,,,,ルージエジャパン,0
25,1010003039819,新規,0,2023-02-10,2023-02-10,合同会社やまふぶき,,合同会社,東京都,文京区,音羽１丁目２６番１号音羽江戸川橋ビル３階,,13,105,1120013,,,,,,,2023-02-10,1,,,,,ヤマフブキ,0
26,1010101015523,新規,0,2023-02-10,2023-02-10,株式会社ＫＮＯＰＥＴＳ,,株式会社,東京都,八王子市,東町１２番８号長澤ビル５階,,13,201,1920082,,,,,,,2023-02-10,1,,,,,ノペッツ,0
35,1010401172436,新規,0,2023-02-10,2023-02-10,株式会社エーシー,,株式会社,東京都,港区,麻布十番２丁目１６番８号,,13,103,1060045,,,,,,,2023-02-10,1,,,,,エーシー,0
36,1010401172444,新規,0,2023-02-10,2023-02-10,株式会社沼本カット研究所,,株式会社,東京都,港区,港南２丁目１６番７号品川Ｖタワー１４１３,,13,103,1080075,,,,,,,2023-02-10,1,,,,,ヌマモトカットケンキュウジョ,0
44,1010601062602,新規,0,2023-02-10,2023-02-10,クールアシスト株式会社,,株式会社,東京都,江東区,新木場１丁目１１番２号,,13,108,1360082,,,,,,,2023-02-10,1,,,,,クールアシスト,0
45,1010701043832,新規,0,2023-02-10,2023-02-10,株式会社神田ＳＥＫＩＺＡＡＩ,,株式会社,東京都,品川区,上大崎２丁目１５番５号,,13,109,1410021,,,,,,,2023-02-10,1,,,,,カンダセキザイ,0
49,1010802010351,新規,0,2023-02-10,2023-02-10,トドラ・マスミ商亊有限会社,,有限会社,東京都,大田区,田園調布２丁目１２番１４号,,13,111,1450071,,,,,,,2023-02-10,1,,,,,トドラマスミショウジ,0
50,1010901052385,新規,0,2023-02-10,2023-02-10,株式会社ニューハイヤーテクノロジー,,株式会社,東京都,世田谷区,深沢８丁目６－６,,13,112,1580081,,,,,,,2023-02-10,1,,,,,ニューハイヤーテクノロジー,0
52,1010903007965,新規,0,2023-02-10,2023-02-10,ケーアンドエヌ合同会社,,合同会社,東京都,世田谷区,用賀４丁目２４番５号,,13,112,1580097,,,,,,,2023-02-10,1,,,,,ケーアンドエヌ,0
57,1011001152398,新規,0,2023-02-10,2023-02-10,株式会社旅人,,株式会社,東京都,渋谷区,神宮前３丁目１４番６号フェリージュ表参道２０１,,13,113,1500001,,,,,,,2023-02-10,1,,,,,タビビト,0
58,1011001152456,新規,0,2023-02-10,2023-02-10,株式会社ＤｉｒｔｙｚＰｒｏｍｏｔｉｏｎ,,株式会社,東京都,渋谷区,渋谷２丁目１９番１５－６０９号,,13,113,1500002,,,,,,,2023-02-10,1,,,,,ダーティーズプロモーション,0
59,1011001152522,新規,0,2023-02-10,2023-02-10,株式会社スリーユナイテッド,,株式会社,東京都,渋谷区,神宮前６丁目１５番１４号ガーデンスクエア原宿１階,,13,113,1500001,,,,,,,2023-02-10,1,,,,,スリーユナイテッド,0
60,1011005009941,新規,0,2023-02-10,2023-02-10,一般社団法人日本消費者機構,,その他の設立登記法人,東京都,渋谷区,代々木１丁目５７番２号ドルミ代々木２０１,,13,113,1510053,,,,,,,2023-02-10,1,,,,,ニホンショウヒシャキコウ,0
69,1011101101783,新規,0,2023-02-10,2023-02-10,日本瑞美株式会社,,株式会社,東京都,新宿区,百人町２丁目１番４５号赤煉瓦２３２,,13,104,1690073,,,,,,,2023-02-10,1,,,,,ニホンミズビ,0
79,1011801041908,新規,0,2023-02-10,2023-02-10,株式会社ｋ．ｋグローバル,,株式会社,東京都,葛飾区,立石２丁目２８－５,,13,122,1240012,,,,,,,2023-02-10,1,,,,,ケイケイグローバル,0
82,1013101009115,新規,0,2023-02-10,2023-02-10,株式会社Ｌｉｌｙ　Ａｒｃｈｉｔｅｃｔ,,株式会社,東京都,あきる野市,小中野２３番地１,,13,228,1900165,,,,,,,2023-02-10,1,,,,,リリーアーキテクト,0
91,1020001150205,新規,0,2023-02-10,2023-02-10,ＧＯＣ株式会社,,株式会社,神奈川県,横浜市旭区,中白根４丁目１４番２８号,,14,112,2410004,,,,,,,2023-02-10,1,,,,,ジーオーシー,0
92,1020001150213,新規,0,2023-02-10,2023-02-10,ＡＡＢＡ株式会社,,株式会社,神奈川県,横浜市都筑区,折本町１３８番地友ビル１号１階,,14,118,2240043,,,,,,,2023-02-10,1,,,,,アーバ,0
93,1020001150238,新規,0,2023-02-10,2023-02-10,クレセントホーム株式会社,,株式会社,神奈川県,川崎市川崎区,京町１丁目９番２１号,,14,131,2100848,,,,,,,2023-02-10,1,,,,,クレセントホーム,0
100,1020003023284,新規,0,2023-02-10,2023-02-10,コモドランド合同会社,,合同会社,神奈川県,横浜市鶴見区,栄町通３丁目２７番１号,,14,101,2300038,,,,,,,2023-02-10,1,,,,,コモドランド,0
102,1021001078188,新規,0,2023-02-10,2023-02-10,株式会社ＪＮＦソリューションズ,,株式会社,神奈川県,大和市,下鶴間１９０４番地１,,14,213,2420001,,,,,,,2023-02-10,1,,,,,ジェーエヌエフソリューションズ,0
108,1030003021147,新規,0,2023-02-10,2023-02-10,合同会社ＹＯＵ＆ＭＫ,,合同会社,埼玉県,所沢市,大字下安松５８７番地の３,,11,208,3590024,,,,,,,2023-02-10,1,,,,,ユーアンドエムケイ,0
119,1040001126913,新規,0,2023-02-10,2023-02-10,エヌエス・ジャパン東金株式会社,,株式会社,千葉県,東金市,堀上３３４番地１オフィスあかり４号,,12,213,2830063,,,,,,,2023-02-10,1,,,,,エヌエスジャパントウガネ,0
122,1050001052373,新規,0,2023-02-10,2023-02-10,株式会社Ｍ’ｓ　ｂａｓｅ,,株式会社,茨城県,取手市,宮和田１２５０番地１,,08,217,3001514,,,,,,,2023-02-10,1,,,,,エムズベース,0
129,1060003004413,新規,0,2023-02-10,2023-02-10,合同会社ＫＲＫ,,合同会社,栃木県,宇都宮市,西川田本町２丁目６番１８号,,09,201,3210158,,,,,,,2023-02-10,1,,,,,ケーアールケー,0
132,1070001040120,新規,0,2023-02-10,2023-02-10,株式会社ＺＡＮ　ＺＡＲＡ,,株式会社,群馬県,桐生市,相生町２丁目２０４番地,,10,203,3760011,,,,,,,2023-02-10,1,,,,,ザンザラ,0
137,1090001017975,新規,0,2023-02-10,2023-02-10,Ｂｅｓｔ　Ｗｅｌｌ株式会社,,株式会社,山梨県,甲府市,中央５丁目７番２７号メゾンオークラ４０５号室,,19,201,4000032,,,,,,,2023-02-10,1,,,,,ベストウェル,0
152,1120001252214,新規,0,2023-02-10,2023-02-10,株式会社福野電業社,,株式会社,大阪府,門真市,上野口町３４番８号,,27,223,5710070,,,,,,,2023-02-10,1,,,,,フクノデンギョウシャ,0
153,1120001252354,新規,0,2023-02-10,2023-02-10,テクノサポート株式会社,,株式会社,大阪府,枚方市,山之上北町１番３２号テクノスビル４Ｆ,,27,210,5730049,,,,,,,2023-02-10,1,,,,,テクノサポート,0
154,1120001252429,新規,0,2023-02-10,2023-02-10,株式会社ＭＥＢＡＥ,,株式会社,大阪府,大阪市生野区,林寺２丁目８番２号Ａ１０２,,27,116,5440023,,,,,,,2023-02-10,1,,,,,メバエ,0
159,1120003023415,新規,0,2023-02-10,2023-02-10,ＮＥＷ　ＳＨＩＮＥ合同会社,,合同会社,大阪府,大阪市浪速区,恵美須西１丁目４－１３クレール難波南５０３,,27,111,5560003,,,,,,,2023-02-10,1,,,,,ニューシャイン,0
160,1120003023423,新規,0,2023-02-10,2023-02-10,合同会社ＢＥＬＬＡビューティーアトリエ,,合同会社,大阪府,大阪市東淀川区,瑞光４丁目７－１１本多ビル１０２,,27,114,5330005,,,,,,,2023-02-10,1,,,,,ベラビューティーアトリエ,0
164,1120101066976,新規,0,2023-02-10,2023-02-10,株式会社暖和建設,,株式会社,大阪府,泉南郡熊取町,五門東４丁目１番３１号,,27,361,5900414,,,,,,,2023-02-10,1,,,,,ダンワケンセツ,0
168,1120903004497,新規,0,2023-02-10,2023-02-10,エフサマー合同会社,,合同会社,大阪府,高槻市,宮野町５番５５－１０５号,,27,207,5690081,,,,,,,2023-02-10,1,,,,,エフサマー,0
173,1130001073667,新規,0,2023-02-10,2023-02-10,白金スカイプロパティ株式会社,,株式会社,京都府,京都市下京区,下魚棚通堀川西入南八百屋町３３４番地,,26,106,6008251,,,,,,,2023-02-10,1,,,,,シロガネスカイプロパティ,0
187,1150001026169,新規,0,2023-02-10,2023-02-10,株式会社ａｋａｌａ,,株式会社,奈良県,橿原市,土橋町３２８番地の１、２号,,29,205,6340844,,,,,,,2023-02-10,1,,,,,アカラ,0
188,1160001024832,新規,0,2023-02-10,2023-02-10,エンツ株式会社,,株式会社,滋賀県,近江八幡市,江頭町４２５－４６,,25,204,5230061,,,,,,,2023-02-10,1,,,,,エンツ,0
194,1180001154925,新規,0,2023-02-10,2023-02-10,ＣＯＣＯＰＬＵＧ株式会社,,株式会社,愛知県,名古屋市中村区,名駅１丁目１－１ＪＰタワー名古屋２１Ｆ,,23,105,4500002,,,,,,,2023-02-10,1,,,,,ココプラグ,0
195,1180001154958,新規,0,2023-02-10,2023-02-10,株式会社Ｙ’ｚ　Ｇｏｏ,,株式会社,愛知県,名古屋市熱田区,一番１丁目１７番３０号モアグレース白鳥庭園５０３号,,23,109,4560053,,,,,,,2023-02-10,1,,,,,ワイズグー,0
196,1180001154974,新規,0,2023-02-10,2023-02-10,レントセル株式会社,,株式会社,愛知県,名古屋市西区,樋の口町１番１５号,,23,104,4510034,,,,,,,2023-02-10,1,,,,,レントセル,0
206,1240001061074,新規,0,2023-02-10,2023-02-10,株式会社藤岡ビジネスパートナーズ,,株式会社,広島県,呉市,広本町３丁目１４番３７号１Ｆ,,34,202,7370125,,,,,,,2023-02-10,1,,,,,フジオカビジネスパートナーズ,0
218,1290801029274,新規,0,2023-02-10,2023-02-10,株式会社ＧＲＥＡＮ,,株式会社,福岡県,北九州市小倉北区,三萩野１丁目２番５号,,40,106,8020065,,,,,,,2023-02-10,1,,,,,グリーン,0
220,1320001019568,新規,0,2023-02-10,2023-02-10,株式会社美成,,株式会社,大分県,豊後大野市,犬飼町柴北１０９８番地１,,44,212,8797311,,,,,,,2023-02-10,1,,,,,ミノリ,0
229,1380001033464,新規,0,2023-02-10,2023-02-10,株式会社クレイジーアグリ,,株式会社,福島県,郡山市,富久山町八山田字勝木沢８２番地,,07,203,9638051,,,,,,,2023-02-10,1,,,,,クレイジーアグリ,0
234,1420001018155,新規,0,2023-02-10,2023-02-10,株式会社翔心,,株式会社,青森県,青森市,大字三内字稲元１１７－２,,02,201,0380031,,,,,,,2023-02-10,1,,,,,ショウシン,0
238,1430005014637,新規,0,2023-02-10,2023-02-10,特定非営利活動法人国際医療資源活用機構,,その他の設立登記法人,北海道,札幌市中央区,北五条西１１丁目１１番地１パークアクシス札幌植物園前４０１号,,01,101,0600005,,,,,,,2023-02-10,1,,,,,コクサイイリョウシゲンカツヨウキコウ,0
265,2010001232787,新規,0,2023-02-10,2023-02-10,Ｖ３７株式会社,,株式会社,東京都,中央区,銀座１丁目１２番４号Ｎ＆ＥＢＬＤ．７Ｆ,,13,102,1040061,,,,,,,2023-02-10,1,,,,,ブイサンジュウナナ,0
272,2010403029476,新規,0,2023-02-10,2023-02-10,ＡＩＳＵ合同会社,,合同会社,東京都,港区,六本木７丁目７番７号トライセブン六本木８Ｆ,,13,103,1060032,,,,,,,2023-02-10,1,,,,,アイスウ,0
273,2010405021778,新規,0,2023-02-10,2023-02-10,一般社団法人エムスリーアカデミー,,その他の設立登記法人,東京都,港区,浜松町２丁目１２番１０－５０４号,,13,103,1050013,,,,,,,2023-02-10,1,,,,,エムスリーアカデミー,0
274,2010501049987,新規,0,2023-02-10,2023-02-10,若玲株式会社,,株式会社,東京都,台東区,浅草橋５丁目８番３号新田ビル２０２室,,13,106,1110053,,,,,,,2023-02-10,1,,,,,ルリン,0
285,2010901052491,新規,0,2023-02-10,2023-02-10,株式会社マージナルドット,,株式会社,東京都,世田谷区,上用賀５丁目２６番２３号,,13,112,1580098,,,,,,,2023-02-10,1,,,,,マージナルドット,0
286,2010903007972,新規,0,2023-02-10,2023-02-10,合同会社ケーエーワン,,合同会社,東京都,世田谷区,上祖師谷７丁目２７番４号美鈴コーポ１０２,,13,112,1570065,,,,,,,2023-02-10,1,,,,,ケーエーワン,0
291,2011001152389,新規,0,2023-02-10,2023-02-10,ミライＨＲ株式会社,,株式会社,東京都,渋谷区,円山町５番５号Ｎａｖｉ渋谷Ｖ３階,,13,113,1500044,,,,,,,2023-02-10,1,,,,,ミライエイチアール,0
292,2011001152455,新規,0,2023-02-10,2023-02-10,株式会社ＨＯＯＫ,,株式会社,東京都,目黒区,下目黒２丁目２２番１１－１２０４号,,13,110,1530064,,,,,,,2023-02-10,1,,,,,フック,0
293,2011001152521,新規,0,2023-02-10,2023-02-10,株式会社スプリームプレイス,,株式会社,東京都,目黒区,目黒１丁目４番１６号目黒Ｇビル７Ｆ,,13,110,1530063,,,,,,,2023-02-10,1,,,,,スプリームプレイス,0
294,2011001152538,新規,0,2023-02-10,2023-02-10,株式会社リバテック,,株式会社,東京都,渋谷区,千駄ヶ谷２丁目９番６号バルビソン３番館２０４,,13,113,1510051,,,,,,,2023-02-10,1,,,,,リバテック,0
295,2011003016204,新規,0,2023-02-10,2023-02-10,合同会社Ｄａｉ　Ｓａｎ　Ｂｏｎ　Ｍａｔｓｕ,,合同会社,東京都,渋谷区,神宮前６丁目２３－４桑野ビル２階,,13,113,1500001,,,,,,,2023-02-10,1,,,,,ダイサンボンマツ,0
297,2011005009932,新規,0,2023-02-10,2023-02-10,一般社団法人研究基盤協議会,,その他の設立登記法人,東京都,目黒区,目黒本町３丁目７番地１７号,,13,110,1520002,,,,,,,2023-02-10,1,,,,,ケンキュウキバンキョウギカイ,0
299,2011101101774,新規,0,2023-02-10,2023-02-10,株式会社Ｌｏｙａｌ　ｄｏｇ,,株式会社,東京都,新宿区,歌舞伎町２丁目４５番６号,,13,104,1600021,,,,,,,2023-02-10,1,,,,,ロイヤルドッグ,0
308,2011501028956,新規,0,2023-02-10,2023-02-10,ファミリーＫＴ株式会社,,株式会社,東京都,北区,赤羽２丁目４２番３－２０３号ＰＲＥＳＴＩＧＥ島村,,13,117,1150045,,,,,,,2023-02-10,1,,,,,ファミリーケーティー,0
314,2011801041907,新規,0,2023-02-10,2023-02-10,星野企画株式会社,,株式会社,東京都,葛飾区,東金町１丁目４５番１０号荻野ビル５０１号,,13,122,1250041,,,,,,,2023-02-10,1,,,,,ホシノキカク,0
315,2011801041915,新規,0,2023-02-10,2023-02-10,アーネスト株式会社,,株式会社,東京都,葛飾区,西新小岩４丁目１番１号,,13,122,1240025,,,,,,,2023-02-10,1,,,,,アーネスト,0
317,2011803005505,新規,0,2023-02-10,2023-02-10,Ｂｙｓｅｌｆ合同会社,,合同会社,東京都,葛飾区,西新小岩４丁目３１番３号コーポ大島,,13,122,1240025,,,,,,,2023-02-10,1,,,,,バイセルフ,0
318,2012303001779,新規,0,2023-02-10,2023-02-10,合同会社ネクステラ・パートナーズ,,合同会社,東京都,町田市,原町田１丁目１３－１町田ハイツ壱番館１－３ソフトオフィス町田内,,13,209,1940013,,,,,,,2023-02-10,1,,,,,ネクステラパートナーズ,0
320,2012401040150,新規,0,2023-02-10,2023-02-10,大和株式会社,,株式会社,東京都,武蔵野市,西久保１丁目２３－６,,13,203,1800013,,,,,,,2023-02-10,1,,,,,ヤマト,0
321,2012801022137,新規,0,2023-02-10,2023-02-10,株式会社ワガ・ママパートナーズ,,株式会社,東京都,立川市,錦町１丁目４番４号,,13,202,1900022,,,,,,,2023-02-10,1,,,,,ワガママパートナーズ,0
325,2013101009114,新規,0,2023-02-10,2023-02-10,株式会社輝久矢,,株式会社,東京都,福生市,武蔵野台１丁目２７番地６２,,13,218,1970013,,,,,,,2023-02-10,1,,,,,,0
335,2020001150212,新規,0,2023-02-10,2023-02-10,株式会社牧野,,株式会社,神奈川県,川崎市多摩区,東三田３丁目３番１４号,,14,135,2140033,,,,,,,2023-02-10,1,,,,,マキノ,0
339,2020003023283,新規,0,2023-02-10,2023-02-10,合同会社Ｒｅｎ,,合同会社,神奈川県,横浜市泉区,中田西１丁目４番５号,,14,116,2450015,,,,,,,2023-02-10,1,,,,,レン,0
340,2020003023291,新規,0,2023-02-10,2023-02-10,トランサムノット合同会社,,合同会社,神奈川県,横浜市南区,南太田１丁目５１番２号,,14,105,2320006,,,,,,,2023-02-10,1,,,,,トランサムノット,0
341,2020005015849,新規,0,2023-02-10,2023-02-10,一般社団法人睡蓮,,その他の設立登記法人,神奈川県,横浜市金沢区,釜利谷東２丁目２０番９号２階,,14,108,2360042,,,,,,,2023-02-10,1,,,,,スイレン,0
344,2021001078154,新規,0,2023-02-10,2023-02-10,株式会社いいとらっく藤沢,,株式会社,神奈川県,藤沢市,用田５４０番地の１,,14,205,2520821,,,,,,,2023-02-10,1,,,,,イイトラックフジサワ,0
345,2021001078179,新規,0,2023-02-10,2023-02-10,株式会社そいや,,株式会社,神奈川県,南足柄市,和田河原３７８番地４,,14,217,2500112,,,,,,,2023-02-10,1,,,,,ソイヤ,0
349,2030001152331,新規,0,2023-02-10,2023-02-10,株式会社アイリスホーム,,株式会社,埼玉県,さいたま市桜区,大字白鍬６９０番地８,,11,106,3380811,,,,,,,2023-02-10,1,,,,,アイリスホーム,0
358,2030003021146,新規,0,2023-02-10,2023-02-10,合同会社ヴィレッジ・アイランド,,合同会社,埼玉県,新座市,菅沢２丁目４番１５号,,11,230,3520017,,,,,,,2023-02-10,1,,,,,ヴィレッジアイランド,0
364,2040001126953,新規,0,2023-02-10,2023-02-10,千葉国際人材育成支援株式会社,,株式会社,千葉県,柏市,加賀３丁目１９番６号,,12,217,2770051,,,,,,,2023-02-10,1,,,,,チバコクサイジンザイイクセイシエン,0
365,2040001127019,新規,0,2023-02-10,2023-02-10,株式会社やまなかマネジメント,,株式会社,千葉県,船橋市,行田１丁目３番７号,,12,204,2730044,,,,,,,2023-02-10,1,,,,,ヤマナカマネジメント,0
366,2040001127027,新規,0,2023-02-10,2023-02-10,株式会社みやさんグループ,,株式会社,千葉県,市川市,中山４丁目２０番２号,,12,203,2720813,,,,,,,2023-02-10,1,,,,,ミヤサングループ,0
367,2040001127035,新規,0,2023-02-10,2023-02-10,株式会社聯合金属,,株式会社,千葉県,佐倉市,生谷８４５番地,,12,212,2850836,,,,,,,2023-02-10,1,,,,,レンゴウキンゾク,0
368,2040003021888,新規,0,2023-02-10,2023-02-10,ＤＯＳＨＴＡ合同会社,,合同会社,千葉県,柏市,南逆井２丁目２番２３号,,12,217,2770043,,,,,,,2023-02-10,1,,,,,ドシタ,0
372,2050001052389,新規,0,2023-02-10,2023-02-10,株式会社かわさき,,株式会社,茨城県,石岡市,旭台３丁目１番３号,,08,205,3150038,,,,,,,2023-02-10,1,,,,,カワサキ,0
379,2080101023790,新規,0,2023-02-10,2023-02-10,株式会社イーストエムズ,,株式会社,静岡県,賀茂郡東伊豆町,稲取３０１１番地の２９５,,22,301,4130411,,,,,,,2023-02-10,1,,,,,イーストエムズ,0
389,2110001037292,新規,0,2023-02-10,2023-02-10,ｍ‐ｓｔｕｄｉｏ株式会社,,株式会社,新潟県,新潟市西区,内野戸中才１４８２番地３,,15,107,9502142,,,,,,,2023-02-10,1,,,,,エムスタジオ,0
402,2120001252411,新規,0,2023-02-10,2023-02-10,株式会社Ｃｌｅｐｅｃｔ,,株式会社,大阪府,大阪市北区,梅田１丁目２番２号大阪駅前第２ビル１２－１２,,27,127,5300001,,,,,,,2023-02-10,1,,,,,クレペクト,0
403,2120003023422,新規,0,2023-02-10,2023-02-10,合同会社ことのは,,合同会社,大阪府,大阪市西成区,旭１丁目８番５号,,27,122,5570032,,,,,,,2023-02-10,1,,,,,コトノハ,0
404,2120005023445,新規,0,2023-02-10,2023-02-10,一般社団法人ＡＰＬｏｖｉｎｇ,,その他の設立登記法人,大阪府,大阪市西区,西本町１丁目４－１オリックス本町ビル４階,,27,106,5500005,,,,,,,2023-02-10,1,,,,,エーピーラビング,0
407,2120101066983,新規,0,2023-02-10,2023-02-10,日向商事株式会社,,株式会社,大阪府,和泉市,はつが野６丁目１５番６号,,27,219,5941106,,,,,,,2023-02-10,1,,,,,ヒナタショウジ,0
408,2120901047101,新規,0,2023-02-10,2023-02-10,株式会社自然生物化学循環研究所,,株式会社,大阪府,吹田市,原町３丁目６番２号,,27,205,5640004,,,,,,,2023-02-10,1,,,,,シゼンセイブツカガクジュンカンケンキュウショ,0
420,2130001073658,新規,0,2023-02-10,2023-02-10,株式会社ＡＯ１,,株式会社,京都府,福知山市,字天田４２０番地の５,,26,201,6200000,,,,,,,2023-02-10,1,,,,,エーオーワン,0
423,2140001129087,新規,0,2023-02-10,2023-02-10,株式会社ＳＫサービス,,株式会社,兵庫県,高砂市,荒井町小松原１丁目１０番８号,,28,216,6760011,,,,,,,2023-02-10,1,,,,,エスケイサービス,0
424,2150001026168,新規,0,2023-02-10,2023-02-10,株式会社ことぶき,,株式会社,奈良県,天理市,川原城町３７８番地４,,29,204,6320016,,,,,,,2023-02-10,1,,,,,コトブキ,0
426,2150005009458,新規,0,2023-02-10,2023-02-10,社会福祉法人はる陽の郷,,その他の設立登記法人,奈良県,香芝市,良福寺３７番地１,,29,210,6390235,,,,,,,2023-02-10,1,,,,,ハルヒノサト,0
436,2180001154882,新規,0,2023-02-10,2023-02-10,株式会社Ｒｅｔｅｌａｓ,,株式会社,愛知県,一宮市,開明字洗心７番地１,,23,203,4940001,,,,,,,2023-02-10,1,,,,,リテラス,0
437,2180001154940,新規,0,2023-02-10,2023-02-10,株式会社Ｃｉｅｔｅ,,株式会社,愛知県,名古屋市東区,泉１丁目２３番１号ボイスビル７Ｆ,,23,102,4610001,,,,,,,2023-02-10,1,,,,,シーテ,0
438,2180001154973,新規,0,2023-02-10,2023-02-10,ｃｈａｒｍｅ．株式会社,,株式会社,愛知県,名古屋市中区,栄３丁目３１番１８号,,23,106,4600008,,,,,,,2023-02-10,1,,,,,シャルムドット,0
442,2180003024836,新規,0,2023-02-10,2023-02-10,合同会社神技,,合同会社,愛知県,名古屋市緑区,野末町１０１８番地,,23,114,4580915,,,,,,,2023-02-10,1,,,,,カミキ,0
444,2180301037093,新規,0,2023-02-10,2023-02-10,株式会社ねといろ,,株式会社,愛知県,豊橋市,平川町２１－３,,23,201,4400037,,,,,,,2023-02-10,1,,,,,ネトイロ,0
450,2180303005610,新規,0,2023-02-10,2023-02-10,合同会社いつがる,,合同会社,愛知県,岡崎市,北野町字畔北８２番地２,,23,202,4440951,,,,,,,2023-02-10,1,,,,,イツガル,0
455,2200001040948,新規,0,2023-02-10,2023-02-10,株式会社塗装の日成美濃加茂本店,,株式会社,岐阜県,美濃加茂市,太田町６０９番地７,,21,211,5050041,,,,,,,2023-02-10,1,,,,,トソウノニッセイミノカモホンテン,0
466,2290001100537,新規,0,2023-02-10,2023-02-10,株式会社Ｇｒｅｅｎ　ｒｏｏｍ　ｆａｃｔｏｒｙ,,株式会社,福岡県,糸島市,本５４０番地１,,40,230,8191151,,,,,,,2023-02-10,1,,,,,グリーンルームファクトリー,0
467,2290003013522,新規,0,2023-02-10,2023-02-10,ＴＴＣ合同会社,,合同会社,福岡県,福岡市南区,若久１丁目３９番３－１０８号筑紫丘第７大塚ビル,,40,134,8150042,,,,,,,2023-02-10,1,,,,,ティーティースィー,0
472,2300001013217,新規,0,2023-02-10,2023-02-10,株式会社雅建,,株式会社,佐賀県,佐賀市,末広２丁目４番４８号,,41,201,8400032,,,,,,,2023-02-10,1,,,,,マサケン,0
475,2330003009714,新規,0,2023-02-10,2023-02-10,合同会社まるもり介護カルチャーセンター,,合同会社,熊本県,熊本市東区,昭和町９番１６号,,43,102,8612108,,,,,,,2023-02-10,1,,,,,マルモリカイゴカルチャーセンター,0
479,2370003005981,新規,0,2023-02-10,2023-02-10,合同会社シエンス,,合同会社,宮城県,塩竈市,石堂８番１２号,,04,203,9850031,,,,,,,2023-02-10,1,,,,,シエンス,0
480,2380003005386,新規,0,2023-02-10,2023-02-10,合同会社Ｂｅｅグリーンパーク,,合同会社,福島県,田村市,都路町岩井沢字中作１２６番地２,,07,211,9634702,,,,,,,2023-02-10,1,,,,,ビーグリーンパーク,0
487,2420001018154,新規,0,2023-02-10,2023-02-10,株式会社アールイークレスト,,株式会社,青森県,青森市,桜川３丁目１２番４号,,02,201,0300945,,,,,,,2023-02-10,1,,,,,アールイークレスト,0
514,3010001232638,新規,0,2023-02-10,2023-02-10,株式会社ビーハグ,,株式会社,東京都,中央区,日本橋２丁目１番１７号丹生ビル２階,,13,102,1030027,,,,,,,2023-02-10,1,,,,,ビーハグ,0
515,3010001232869,新規,0,2023-02-10,2023-02-10,エフエルシーＮｏ．２リーシング株式会社,,株式会社,東京都,千代田区,麹町５丁目１番地１,,13,101,1020083,,,,,,,2023-02-10,1,,,,,エフエルシーナンバーツーリーシング,0
516,3010001232919,新規,0,2023-02-10,2023-02-10,株式会社施設環境評価システム,,株式会社,東京都,千代田区,五番町６番地２,,13,101,1020076,,,,,,,2023-02-10,1,,,,,シセツカンキョウヒョウカシステム,0
517,3010001232943,新規,0,2023-02-10,2023-02-10,株式会社ネクスト,,株式会社,東京都,中央区,晴海３丁目１３番２号ドゥ・トゥールＷ－４３０２,,13,102,1040053,,,,,,,2023-02-10,1,,,,,ネクスト,0
519,3010101015521,新規,0,2023-02-10,2023-02-10,保科プランニング株式会社,,株式会社,東京都,八王子市,犬目町２９４番地２,,13,201,1930802,,,,,,,2023-02-10,1,,,,,ホシナプランニング,0
527,3010503006886,新規,0,2023-02-10,2023-02-10,広連合同会社,,合同会社,東京都,台東区,東上野２丁目２０－１３,,13,106,1100015,,,,,,,2023-02-10,1,,,,,コウレン,0
528,3010601062591,新規,0,2023-02-10,2023-02-10,株式会社ノーモアマンデー,,株式会社,東京都,江東区,東雲１丁目１０番１４－１０３８号,,13,108,1350062,,,,,,,2023-02-10,1,,,,,ノーモアマンデー,0
530,3010603009995,新規,0,2023-02-10,2023-02-10,合同会社ＭＡＴ,,合同会社,東京都,江東区,東砂８丁目２５番２２号,,13,108,1360074,,,,,,,2023-02-10,1,,,,,エムエーティー,0
532,3010701043839,新規,0,2023-02-10,2023-02-10,株式会社トップスタジオＣＥ,,株式会社,東京都,品川区,西五反田８丁目７番１１号アクシス五反田ビル５０２号,,13,109,1410031,,,,,,,2023-02-10,1,,,,,トップスタジオシーイー,0
542,3011001152388,新規,0,2023-02-10,2023-02-10,株式会社ＰＩＣＫＳ,,株式会社,東京都,目黒区,下目黒６丁目１７－１５スタイルハウス下目黒１０４号,,13,110,1530064,,,,,,,2023-02-10,1,,,,,ピックス,0
543,3011001152487,新規,0,2023-02-10,2023-02-10,株式会社ｃｏｚｚｉ,,株式会社,東京都,渋谷区,千駄ヶ谷５丁目８番５号,,13,113,1510051,,,,,,,2023-02-10,1,,,,,コッジ,0
544,3011001152529,新規,0,2023-02-10,2023-02-10,株式会社ａｒｓａｆｆｉｘ,,株式会社,東京都,渋谷区,神泉町１０番１５号,,13,113,1500045,,,,,,,2023-02-10,1,,,,,アルサフィクス,0
564,3011801041914,新規,0,2023-02-10,2023-02-10,永源株式会社,,株式会社,東京都,足立区,西新井１丁目２１－３－２０３号室,,13,121,1230841,,,,,,,2023-02-10,1,,,,,エイゲン,0
567,3011803005504,新規,0,2023-02-10,2023-02-10,合同会社レアニコ,,合同会社,東京都,葛飾区,堀切４丁目２４番２号,,13,122,1240006,,,,,,,2023-02-10,1,,,,,レアニコ,0
579,3020001150228,新規,0,2023-02-10,2023-02-10,株式会社六菱,,株式会社,神奈川県,横浜市中区,山下町２１５－２日昇ビル１Ｆ,,14,104,2310023,,,,,,,2023-02-10,1,,,,,ロクビシ,0
583,3020003023282,新規,0,2023-02-10,2023-02-10,合同会社ＮＡＤＯ,,合同会社,神奈川県,横浜市中区,元町４丁目１７９、ウィスタリア元町２階Ｄ室,,14,104,2310861,,,,,,,2023-02-10,1,,,,,ナド,0
584,3020003023290,新規,0,2023-02-10,2023-02-10,合同会社エル・シー,,合同会社,神奈川県,横浜市西区,北幸１丁目１１番１号水信ビル７階,,14,103,2200004,,,,,,,2023-02-10,1,,,,,エルシー,0
585,3020003023299,新規,0,2023-02-10,2023-02-10,合同会社ＭＫ,,合同会社,神奈川県,川崎市高津区,溝口６丁目２２番５－３号,,14,134,2130001,,,,,,,2023-02-10,1,,,,,エムケー,0
586,3020003023308,新規,0,2023-02-10,2023-02-10,合同会社リノプロジェクト,,合同会社,神奈川県,横浜市緑区,霧が丘５丁目３番地２８,,14,113,2260016,,,,,,,2023-02-10,1,,,,,リノプロジェクト,0
588,3020005015848,新規,0,2023-02-10,2023-02-10,行政書士法人奥村事務所,,その他の設立登記法人,神奈川県,横浜市都筑区,池辺町３６２０,,14,118,2240053,,,,,,,2023-02-10,1,,,,,,0
590,3021001078186,新規,0,2023-02-10,2023-02-10,株式会社ＲＡＳ,,株式会社,神奈川県,相模原市中央区,千代田６丁目９番２１－２号,,14,152,2520237,,,,,,,2023-02-10,1,,,,,ラス,0
595,3021003012746,新規,0,2023-02-10,2023-02-10,合同会社台湾料理麗,,合同会社,神奈川県,厚木市,下萩野４３８番地２Ｆ－Ｂ,,14,212,2430000,,,,,,,2023-02-10,1,,,,,タイワンリョウリレイ,0
596,3021003012754,新規,0,2023-02-10,2023-02-10,伏見屋合同会社,,合同会社,神奈川県,秦野市,曽屋１丁目５番６号,,14,211,2570031,,,,,,,2023-02-10,1,,,,,フシミヤ,0
598,3021005012736,新規,0,2023-02-10,2023-02-10,一般社団法人ピンクバルーン,,その他の設立登記法人,神奈川県,厚木市,泉町１番１号本厚木ミロード１６階,00129406,14,212,2430013,,,,,,,2023-02-10,1,,,,,ピンクバルーン,0
602,3030001152355,新規,0,2023-02-10,2023-02-10,株式会社ＳＰＡＣＥ,,株式会社,埼玉県,東松山市,大字西本宿２８５－４,,11,212,3550062,,,,,,,2023-02-10,1,,,,,スペース,0
603,3030001152371,新規,0,2023-02-10,2023-02-10,Ｓｅｍｉｒｏ　Ｊａｐａｎ株式会社,,株式会社,埼玉県,さいたま市北区,日進町１丁目７０番地４,,11,102,3310823,,,,,,,2023-02-10,1,,,,,セミロジャパン,0
607,3030003021062,新規,0,2023-02-10,2023-02-10,合同会社中吉,,合同会社,埼玉県,戸田市,上戸田１丁目２番９号（プチメゾンシィール１０３号室）,,11,224,3350022,,,,,,,2023-02-10,1,,,,,ナカヨシ,0
608,3030003021145,新規,0,2023-02-10,2023-02-10,京源合同会社,,合同会社,埼玉県,ふじみ野市,駒西２丁目９番２７号,,11,245,3560029,,,,,,,2023-02-10,1,,,,,キョウゲン,0
609,3030003021153,新規,0,2023-02-10,2023-02-10,合同会社ｒａｉｓｅｘ,,合同会社,埼玉県,さいたま市大宮区,桜木町２丁目３番地大宮マルイ７階,,11,103,3300854,,,,,,,2023-02-10,1,,,,,レイズクロス,0
618,3040001127026,新規,0,2023-02-10,2023-02-10,株式会社ミツエパートナーズ,,株式会社,千葉県,市川市,中山４丁目２０番２号,,12,203,2720813,,,,,,,2023-02-10,1,,,,,ミツエパートナーズ,0
619,3040001127034,新規,0,2023-02-10,2023-02-10,株式会社ヤマシン,,株式会社,千葉県,我孫子市,柴崎１１２７番地,,12,222,2701177,,,,,,,2023-02-10,1,,,,,ヤマシン,0
623,3040003021912,新規,0,2023-02-10,2023-02-10,合同会社ウインパイプワークス,,合同会社,千葉県,船橋市,松が丘５丁目３５番１８号,,12,204,2740064,,,,,,,2023-02-10,1,,,,,ウインパイプワークス,0
627,3060001035689,新規,0,2023-02-10,2023-02-10,株式会社おやま２期Ｅサービス,,株式会社,栃木県,小山市,大字塩沢５７６番地１５,,09,208,3230043,,,,,,,2023-02-10,1,,,,,オヤマニキイーサービス,0
629,3060005010052,新規,0,2023-02-10,2023-02-10,一般社団法人つきのおとぎ,,その他の設立登記法人,栃木県,宇都宮市,江曽島３丁目２５７７番地２０,,09,201,3210107,,,,,,,2023-02-10,1,,,,,ツキノオトギ,0
630,3070001040119,新規,0,2023-02-10,2023-02-10,株式会社阿部鉄筋,,株式会社,群馬県,前橋市,鶴が谷町４番地１１,,10,201,3792108,,,,,,,2023-02-10,1,,,,,アベテッキン,0
631,3070003004823,新規,0,2023-02-10,2023-02-10,ウェルス・プラス合同会社,,合同会社,群馬県,高崎市,下小鳥町８４番地１３,,10,202,3700074,,,,,,,2023-02-10,1,,,,,ウェルスプラス,0
634,3080403004728,新規,0,2023-02-10,2023-02-10,合同会社スピカ,,合同会社,静岡県,浜松市中区,船越町５４番１０号,,22,131,4300913,,,,,,,2023-02-10,1,,,,,スピカ,0
639,3100003006881,新規,0,2023-02-10,2023-02-10,合同会社中平構業,,合同会社,長野県,松本市,野溝西２丁目９番８号デドモジェミノス３０２号,,20,202,3990006,,,,,,,2023-02-10,1,,,,,ナカダイラコウギョウ,0
651,3120001252393,新規,0,2023-02-10,2023-02-10,弘宇国際貿易株式会社,,株式会社,大阪府,大阪市大正区,小林西２丁目３－２,,27,108,5510013,,,,,,,2023-02-10,1,,,,,コウウコクサイボウエキ,0
652,3120001252402,新規,0,2023-02-10,2023-02-10,墨柴株式会社,,株式会社,大阪府,大阪市此花区,梅香３丁目２５－４サカエマンション梅香４０３号室,,27,104,5540013,,,,,,,2023-02-10,1,,,,,スミシバ,0
653,3120001252427,新規,0,2023-02-10,2023-02-10,株式会社Ｆｏｏｇｉｆｔ,,株式会社,大阪府,大阪市淀川区,東三国１丁目１－１８高島マンション１Ｆ,,27,123,5320002,,,,,,,2023-02-10,1,,,,,フーギフト,0
655,3120003023421,新規,0,2023-02-10,2023-02-10,翠洋合同会社,,合同会社,大阪府,大阪市中央区,瓦町４丁目３番１４－７０２号,,27,128,5410048,,,,,,,2023-02-10,1,,,,,スイヨウ,0
661,3120901047117,新規,0,2023-02-10,2023-02-10,株式会社ｅｚｔｏｕｐ,,株式会社,大阪府,吹田市,岸部北２丁目５番１６号１階,,27,205,5640001,,,,,,,2023-02-10,1,,,,,イージーツゥアップ,0
662,3120903004495,新規,0,2023-02-10,2023-02-10,合同会社菱屋,,合同会社,大阪府,高槻市,京口町８番５号第一ＡＳビル１階,,27,207,5690072,,,,,,,2023-02-10,1,,,,,ヒシヤ,0
664,3122001036693,新規,0,2023-02-10,2023-02-10,株式会社ＧＡＣ,,株式会社,大阪府,東大阪市,長田西１丁目３番２８号,,27,227,5770016,,,,,,,2023-02-10,1,,,,,ジーエーシー,0
672,3140001129086,新規,0,2023-02-10,2023-02-10,アイル株式会社,,株式会社,兵庫県,姫路市,安田４丁目８８番地,,28,201,6700955,,,,,,,2023-02-10,1,,,,,アイル,0
673,3140001129103,新規,0,2023-02-10,2023-02-10,株式会社グローバルミドリ,,株式会社,兵庫県,尼崎市,塚口町３丁目３８番地の５０,,28,202,6610002,,,,,,,2023-02-10,1,,,,,グローバルミドリ,0
674,3140001129111,新規,0,2023-02-10,2023-02-10,アスザックス株式会社,,株式会社,兵庫県,姫路市,小姓町３５番地１の２７、２階４号,,28,201,6700043,,,,,,,2023-02-10,1,,,,,アスザックス,0
682,3180001154881,新規,0,2023-02-10,2023-02-10,株式会社河合商店,,株式会社,愛知県,名古屋市北区,中味鋺３丁目１００３番地の３,,23,103,4620015,,,,,,,2023-02-10,1,,,,,カワイショウテン,0
683,3180001154931,新規,0,2023-02-10,2023-02-10,株式会社Ｆａｒｆａｌｌａ　Ｓｏｇｎａｎｔｅ,,株式会社,愛知県,愛西市,千引町郷前２８番地,,23,232,4968003,,,,,,,2023-02-10,1,,,,,ファルファーラソニアンテ,0
684,3180001154956,新規,0,2023-02-10,2023-02-10,株式会社ＦＳＵＮビジネスソリューションズ,,株式会社,愛知県,名古屋市中区,千代田３丁目１１番１１号,,23,106,4600012,,,,,,,2023-02-10,1,,,,,エフサンビジネスソリューションズ,0
685,3180001154972,新規,0,2023-02-10,2023-02-10,株式会社カネヒコ自動車レッカー,,株式会社,愛知県,名古屋市中川区,東春田３丁目１４９番地,,23,110,4540983,,,,,,,2023-02-10,1,,,,,カネヒコジドウシャレッカー,0
690,3180301037092,新規,0,2023-02-10,2023-02-10,株式会社日の出オフィス,,株式会社,愛知県,豊橋市,八町通３丁目１０５番地,,23,201,4400806,,,,,,,2023-02-10,1,,,,,ヒノデオフィス,0
697,3230001019708,新規,0,2023-02-10,2023-02-10,株式会社ＯＴＯＮＡＮＯ,,株式会社,富山県,魚津市,双葉町５番３号,,16,204,9370868,,,,,,,2023-02-10,1,,,,,オトナノ,0
711,3290001100528,新規,0,2023-02-10,2023-02-10,株式会社２‐ａｃｔ,,株式会社,福岡県,福岡市中央区,大名２丁目６番３９号ジラソーレビル５階,,40,133,8100041,,,,,,,2023-02-10,1,,,,,ツーアクト,0
712,3290001100536,新規,0,2023-02-10,2023-02-10,株式会社ＴｏｋｕＫｅｎ,,株式会社,福岡県,久留米市,城島町四郎丸１９６番地,,40,203,8300223,,,,,,,2023-02-10,1,,,,,トクケン,0
725,3330003009713,新規,0,2023-02-10,2023-02-10,合同会社ＯＣＥＡＮ,,合同会社,熊本県,人吉市,九日町５４番地２プラネートの惺６０３,,43,203,8680004,,,,,,,2023-02-10,1,,,,,オーシャン,0
726,3340003004044,新規,0,2023-02-10,2023-02-10,合同会社ＩＫＫＡ,,合同会社,鹿児島県,鹿児島市,皇徳寺台１丁目２６番１１号,,46,201,8910103,,,,,,,2023-02-10,1,,,,,アイカ,0
730,3360001031550,新規,0,2023-02-10,2023-02-10,Ｔ＆Ｇ　Ｈｏｌｄｉｎｇｓ株式会社,,株式会社,沖縄県,うるま市,字塩屋５３番地,,47,213,9042231,,,,,,,2023-02-10,1,,,,,ティーアンドジーホールディングス,0
731,3360001031559,新規,0,2023-02-10,2023-02-10,株式会社ＮＥＫＯＨＩＧＥ,,株式会社,沖縄県,那覇市,西１丁目３番７号,,47,201,9000036,,,,,,,2023-02-10,1,,,,,ネコヒゲ,0
734,3360003012714,新規,0,2023-02-10,2023-02-10,合同会社ネクストイノベーション,,合同会社,沖縄県,那覇市,松尾１丁目１０番２４号ホークシティ那覇ビル１階,,47,201,9000014,,,,,,,2023-02-10,1,,,,,ネクストイノベーション,0
735,3360005006788,新規,0,2023-02-10,2023-02-10,一般社団法人織瑠,,その他の設立登記法人,沖縄県,那覇市,松山２丁目１１－６－２０２,,47,201,9000032,,,,,,,2023-02-10,1,,,,,オル,0
739,3400005008301,新規,0,2023-02-10,2023-02-10,一般社団法人みどりのゆび,,その他の設立登記法人,岩手県,盛岡市,菜園１丁目６番９号第十菱和ビル２階,,03,201,0200024,,,,,,,2023-02-10,1,,,,,ミドリノユビ,0
740,3410001013394,新規,0,2023-02-10,2023-02-10,株式会社横井架設工業,,株式会社,秋田県,横手市,大雄字新処９９番地２,,05,203,0130484,,,,,,,2023-02-10,1,,,,,ヨコイカセツコウギョウ,0
743,3430003014728,新規,0,2023-02-10,2023-02-10,Ｔｈｅｉａ　Ｈｏｌｄｉｎｇｓ合同会社,,合同会社,北海道,虻田郡倶知安町,ニセコひらふ一条４丁目１番６号Ｓｎｏｗ　Ｃｒｙｓｔａｌ　６０１,,01,400,0440080,,,,,,,2023-02-10,1,,,,,テイアホールディングス,0
744,3430005014635,新規,0,2023-02-10,2023-02-10,一般社団法人ＩＨＮトラスト,,その他の設立登記法人,北海道,札幌市清田区,里塚一条４丁目１３番１０号,,01,110,0040801,,,,,,,2023-02-10,1,,,,,アイエイチエヌトラスト,0
761,4010001232868,新規,0,2023-02-10,2023-02-10,エフエルシーＮｏ．１リーシング株式会社,,株式会社,東京都,千代田区,麹町５丁目１番地１,,13,101,1020083,,,,,,,2023-02-10,1,,,,,エフエルシーナンバーワンリーシング,0
762,4010001232901,新規,0,2023-02-10,2023-02-10,ＣＡＴＡＰＵＬＴ　ＩＮＶＥＳＴＭＥＮＴＳ株式会社,,株式会社,東京都,千代田区,霞が関３丁目２番５号,,13,101,1000013,,,,,,,2023-02-10,1,,,,,カタパルトインベストメンツ,0
763,4010001232942,新規,0,2023-02-10,2023-02-10,株式会社ＡＬＬ　ＳＰＡＣＥ,,株式会社,東京都,中央区,銀座７丁目１３－２０銀座ＴＨビル９Ｆ,,13,102,1040061,,,,,,,2023-02-10,1,,,,,オールスペース,0
767,4010401172425,新規,0,2023-02-10,2023-02-10,株式会社連徳,,株式会社,東京都,港区,新橋５丁目１２番１１号天翔新橋５丁目ビル７０９号室,,13,103,1050004,,,,,,,2023-02-10,1,,,,,レントク,0
768,4010401172433,新規,0,2023-02-10,2023-02-10,株式会社ＫＡＩＮＯｉｎｔｅｒｎａｔｉｏｎａｌ東京,,株式会社,東京都,港区,南青山３丁目２番７号,,13,103,1070062,,,,,,,2023-02-10,1,,,,,カイノインターナショナルトウキョウ,0
769,4010401172482,新規,0,2023-02-10,2023-02-10,株式会社アメリ,,株式会社,東京都,港区,六本木７丁目１２番２号,,13,103,1060032,,,,,,,2023-02-10,1,,,,,アメリ,0
771,4010403029474,新規,0,2023-02-10,2023-02-10,ＳＢＩＣＡＨ合同会社,,合同会社,東京都,港区,六本木１丁目６番１号,,13,103,1060032,,,,,,,2023-02-10,1,,,,,エスビーアイシーエイエイチ,0
772,4010403029516,新規,0,2023-02-10,2023-02-10,ＦＬＹＩＮＧ　ＰＥＡＣＥ合同会社,,合同会社,東京都,港区,浜松町２丁目２番１５号浜松町ダイヤビル２Ｆ,,13,103,1050013,,,,,,,2023-02-10,1,,,,,フライングピース,0
776,4010701043821,新規,0,2023-02-10,2023-02-10,株式会社ｉｎｕｋ,,株式会社,東京都,品川区,西大井１丁目７番２６号トミーハイツ３０５,,13,109,1400015,,,,,,,2023-02-10,1,,,,,イヌーク,0
778,4010703006578,新規,0,2023-02-10,2023-02-10,ＢＡＳＨ合同会社,,合同会社,東京都,品川区,東五反田５丁目２２番３３号ＷｅＷｏｒｋＴＫ池田山,,13,109,1410022,,,,,,,2023-02-10,1,,,,,バッシュ,0
779,4010705003474,新規,0,2023-02-10,2023-02-10,一般社団法人日本先進レーザー歯科研究会,,その他の設立登記法人,東京都,品川区,荏原１丁目１８番１１号,,13,109,1420063,,,,,,,2023-02-10,1,,,,,ニホンセンシンレーザーシカケンキュウカイ,0
781,4010801033680,新規,0,2023-02-10,2023-02-10,フレンド株式会社,,株式会社,東京都,大田区,東海４丁目３番１号,,13,111,1430001,,,,,,,2023-02-10,1,,,,,,0
784,4010903007970,新規,0,2023-02-10,2023-02-10,Ｋａｏｒｉ　Ｓｔｕｄｉｏ花合同会社,,合同会社,東京都,世田谷区,大原１丁目３５番２０号,,13,112,1560041,,,,,,,2023-02-10,1,,,,,カオリスタジオハナ,0
794,4011003016243,新規,0,2023-02-10,2023-02-10,いずみ合同会社,,合同会社,東京都,目黒区,鷹番３丁目１１－１６ルミエ学芸大学１０８,,13,110,1520004,,,,,,,2023-02-10,1,,,,,イズミ,0
798,4011101101789,新規,0,2023-02-10,2023-02-10,株式会社ＱＵＡＲＩＳ,,株式会社,東京都,新宿区,北新宿２丁目２０番３－３０５号,,13,104,1690074,,,,,,,2023-02-10,1,,,,,クオリス,0
799,4011101101806,新規,0,2023-02-10,2023-02-10,株式会社シーズカンパニー,,株式会社,東京都,新宿区,西新宿３丁目３番１３号西新宿水間ビル６階,,13,104,1600023,,,,,,,2023-02-10,1,,,,,シーズカンパニー,0
807,4011801041913,新規,0,2023-02-10,2023-02-10,株式会社弥栄,,株式会社,東京都,足立区,梅島１丁目２８番６号,,13,121,1210816,,,,,,,2023-02-10,1,,,,,ヤサカ,0
815,4012701017482,新規,0,2023-02-10,2023-02-10,ハイッテイル株式会社,,株式会社,東京都,西東京市,東町２丁目１５番地２５号クレスト都１０５,,13,229,2020012,,,,,,,2023-02-10,1,,,,,ハイッテイル,0
817,4012801022135,新規,0,2023-02-10,2023-02-10,株式会社カイトプロモーション,,株式会社,東京都,立川市,富士見町１丁目３５番１３号ライオンズスクエア立川レジデンス７１４号,,13,202,1900013,,,,,,,2023-02-10,1,,,,,カイトプロモーション,0
830,4020001150210,新規,0,2023-02-10,2023-02-10,Ａ‐Ｄｒｉｖｅ株式会社,,株式会社,神奈川県,横浜市都筑区,中川１丁目４番１号,,14,118,2240001,,,,,,,2023-02-10,1,,,,,エードライブ,0
831,4020001150227,新規,0,2023-02-10,2023-02-10,株式会社オー,,株式会社,神奈川県,横浜市西区,みなとみらい３丁目７－１ＯＣＥＡＮＧＡＴＥＭＩＮＡＴＯＭＩＲＡＩ１０Ｆ,,14,103,2200012,,,,,,,2023-02-10,1,,,,,オー,0
832,4020001150235,新規,0,2023-02-10,2023-02-10,株式会社ヨコハマ福祉タクシー,,株式会社,神奈川県,横浜市泉区,中田北３丁目７番２６号,,14,116,2450012,,,,,,,2023-02-10,1,,,,,ヨコハマフクシタクシー,0
833,4020001150243,新規,0,2023-02-10,2023-02-10,ＢｌｕｅＲｏｃｋ株式会社,,株式会社,神奈川県,横浜市西区,平沼１丁目１３番１９号ライオンズマンション平沼６０２号,,14,103,2200023,,,,,,,2023-02-10,1,,,,,ブルーロック,0
836,4020005015847,新規,0,2023-02-10,2023-02-10,特定非営利活動法人相続不動産サポートセンター,,その他の設立登記法人,神奈川県,横浜市神奈川区,台町１７番地１マストビル８階Ｗ２号室,,14,102,2210834,,,,,,,2023-02-10,1,,,,,ソウゾクフドウサンサポートセンター,0
844,4021003012753,新規,0,2023-02-10,2023-02-10,合同会社トータルエステート,,合同会社,神奈川県,横須賀市,佐原４丁目１４番３－３０１号,,14,201,2390835,,,,,,,2023-02-10,1,,,,,トータルエステート,0
851,4030001152338,新規,0,2023-02-10,2023-02-10,株式会社Ｒ．Ｓコーポレーション,,株式会社,埼玉県,三郷市,戸ケ崎３１４８番地５戸ヶ崎ビル２階,,11,237,3410044,,,,,,,2023-02-10,1,,,,,アールエスコーポレーション,0
852,4030001152354,新規,0,2023-02-10,2023-02-10,Ｐｌｅｉｓ株式会社,,株式会社,埼玉県,新座市,野寺４丁目３番３５号,,11,230,3520034,,,,,,,2023-02-10,1,,,,,プレイス,0
853,4030001152370,新規,0,2023-02-10,2023-02-10,株式会社あゆみ美装,,株式会社,埼玉県,朝霞市,膝折町５丁目４番１４号,,11,227,3510014,,,,,,,2023-02-10,1,,,,,アユミビソウ,0
862,4030003021128,新規,0,2023-02-10,2023-02-10,合同会社深谷民商会館,,合同会社,埼玉県,深谷市,萱場２４８番地３,,11,218,3660818,,,,,,,2023-02-10,1,,,,,フカヤミンショウカイカン,0
863,4030003021144,新規,0,2023-02-10,2023-02-10,ＣＣ　Ｅｎｔｅｒｐｒｉｓｅ合同会社,,合同会社,埼玉県,新座市,新堀２丁目１６番２７号清瀬ロード（中山寮）２０１号室,,11,230,3520032,,,,,,,2023-02-10,1,,,,,シーシーエンタープライズ,0
873,4040001127017,新規,0,2023-02-10,2023-02-10,株式会社エストル,,株式会社,千葉県,長生郡長南町,深沢１８３－１,,12,427,2970124,,,,,,,2023-02-10,1,,,,,エストル,0
874,4040001127033,新規,0,2023-02-10,2023-02-10,株式会社ジャパンプログレス,,株式会社,千葉県,市原市,有秋台西２丁目２番１４号,,12,219,2990125,,,,,,,2023-02-10,1,,,,,ジャパンプログレス,0
875,4040001127041,新規,0,2023-02-10,2023-02-10,株式会社ＫＤＳ　ＪＡＰＡＮ,,株式会社,千葉県,八千代市,八千代台西４丁目１６番１５号ローズパレス２０１,,12,221,2760034,,,,,,,2023-02-10,1,,,,,ケーディーエスジャパン,0
879,4040003021911,新規,0,2023-02-10,2023-02-10,Ｖｏｚｉｌｏ　Ａｕｔｏｍｏｂｉｌｅｓ合同会社,,合同会社,千葉県,山武郡芝山町,山中１３２９ー２,,12,409,2891618,,,,,,,2023-02-10,1,,,,,ボジロオートモービルス,0
881,4050001052379,新規,0,2023-02-10,2023-02-10,株式会社モエ・フラワー,,株式会社,茨城県,取手市,台宿１丁目１番４０－１０１号,,08,217,3020013,,,,,,,2023-02-10,1,,,,,,0
882,4050001052387,新規,0,2023-02-10,2023-02-10,株式会社Ｄｒａｇｏｎｆｌｙ　ｗｏｒｋｓ,,株式会社,茨城県,守谷市,松並青葉２丁目２１－１２,,08,224,3020132,,,,,,,2023-02-10,1,,,,,,0
883,4050003007232,新規,0,2023-02-10,2023-02-10,合同会社ＬＩＭＩ,,合同会社,茨城県,東茨城郡大洗町,磯浜町５６７番地,,08,309,3111301,,,,,,,2023-02-10,1,,,,,リミ,0
885,4060001035688,新規,0,2023-02-10,2023-02-10,株式会社ｃｈｏｉｃｅＢｏｘ,,株式会社,栃木県,那須塩原市,橋本町８番５０号,,09,213,3250043,,,,,,,2023-02-10,1,,,,,チョイスボックス,0
891,4070003004822,新規,0,2023-02-10,2023-02-10,合同会社Ｋ＆Ｓ,,合同会社,群馬県,邑楽郡板倉町,大字岩田１５２０番地の５,,10,521,3740133,,,,,,,2023-02-10,1,,,,,ケイアンドエス,0
894,4070005010083,新規,0,2023-02-10,2023-02-10,一般社団法人ＡＳＳＩＳＴ　ＢＡＳＥ,,その他の設立登記法人,群馬県,藤岡市,藤岡１７５７番地１,,10,209,3750024,,,,,,,2023-02-10,1,,,,,アシストベース,0
906,4110001037290,新規,0,2023-02-10,2023-02-10,株式会社Ｆｓ　Ｌｉｎｘ,,株式会社,新潟県,南魚沼市,坂戸８６番地１パートポート坂戸Ａ２０２号,,15,226,9496611,,,,,,,2023-02-10,1,,,,,エフエスリンクス,0
915,4120001252351,新規,0,2023-02-10,2023-02-10,ｅ株式会社,,株式会社,大阪府,大阪市阿倍野区,天王寺町北２丁目１０番１５号,,27,119,5450001,,,,,,,2023-02-10,1,,,,,イー,0
916,4120001252384,新規,0,2023-02-10,2023-02-10,株式会社日翔グローバル,,株式会社,大阪府,大阪市西成区,南津守１丁目６番２号,,27,122,5570063,,,,,,,2023-02-10,1,,,,,ニッショウグローバル,0
917,4120001252392,新規,0,2023-02-10,2023-02-10,ＲＯＲＯ株式会社,,株式会社,大阪府,大阪市西成区,鶴見橋２丁目１１－１５,,27,122,5570031,,,,,,,2023-02-10,1,,,,,ロロ,0
918,4120001252426,新規,0,2023-02-10,2023-02-10,株式会社００,,株式会社,大阪府,大阪市北区,西天満４丁目３番１１号,,27,127,5300047,,,,,,,2023-02-10,1,,,,,ダブルオー,0
919,4120001252442,新規,0,2023-02-10,2023-02-10,株式会社ＲＥＯＮＵＳ,,株式会社,大阪府,大阪市北区,天神西町１番６号アールビル天神西１Ｆ,,27,127,5300045,,,,,,,2023-02-10,1,,,,,リオナス,0
922,4120003023404,新規,0,2023-02-10,2023-02-10,合同会社瑠依,,合同会社,大阪府,大阪市生野区,林寺２丁目１番１７号２Ｆ,,27,116,5440023,,,,,,,2023-02-10,1,,,,,ルイ,0
923,4120003023420,新規,0,2023-02-10,2023-02-10,福井合同会社,,合同会社,大阪府,大阪市東成区,大今里西３丁目２－２９－３０１号,,27,115,5370014,,,,,,,2023-02-10,1,,,,,フクイ,0
927,4120901047116,新規,0,2023-02-10,2023-02-10,株式会社ｃｏｌｏｒ　ＳＣＨＥＭＥ,,株式会社,大阪府,豊中市,野田町２番１－２０１号,,27,203,5610855,,,,,,,2023-02-10,1,,,,,カラースキーム,0
942,4140001129077,新規,0,2023-02-10,2023-02-10,矢野不動産株式会社,,株式会社,兵庫県,加古郡播磨町,東野添３丁目７番１２号,,28,382,6750159,,,,,,,2023-02-10,1,,,,,ヤノフドウサン,0
943,4140001129102,新規,0,2023-02-10,2023-02-10,株式会社Ｋ’ｓ　Ｌａｂ,,株式会社,兵庫県,小野市,昭和町４５８番地の２４１,,28,218,6751359,,,,,,,2023-02-10,1,,,,,ケーズラボ,0
947,4150001026158,新規,0,2023-02-10,2023-02-10,株式会社コントロールエヌ,,株式会社,奈良県,橿原市,白橿町８丁目１６番２０号,,29,205,6340051,,,,,,,2023-02-10,1,,,,,コントロールエヌ,0
951,4180001154955,新規,0,2023-02-10,2023-02-10,株式会社ＲＣＳ,,株式会社,愛知県,名古屋市北区,辻町３丁目１番地の４平安ビル１Ｆ,00129401,23,103,4620032,,,,,,,2023-02-10,1,,,,,アールシーエス,0
954,4180005020105,新規,0,2023-02-10,2023-02-10,一般社団法人匠の会,,その他の設立登記法人,愛知県,名古屋市中区,大須４丁目１０番４０号,,23,106,4600011,,,,,,,2023-02-10,1,,,,,タクミノカイ,0
961,4200001040954,新規,0,2023-02-10,2023-02-10,株式会社ＳＨＯＫＥＮ,,株式会社,岐阜県,羽島郡笠松町,円城寺６６０番地の４（ルクプル２０２号室）,,21,303,5016035,,,,,,,2023-02-10,1,,,,,ショウケン,0
966,4220001025268,新規,0,2023-02-10,2023-02-10,クラシック株式会社,,株式会社,石川県,野々市市,御経塚２丁目２５２番地,,17,212,9218801,,,,,,,2023-02-10,1,,,,,クラシック,0
970,4230001019707,新規,0,2023-02-10,2023-02-10,株式会社キレイコムＤｅｕｃｅ,,株式会社,富山県,富山市,太郎丸西町１丁目３番地４,,16,201,9398271,,,,,,,2023-02-10,1,,,,,キレイコムデュース,0
976,4240001061055,新規,0,2023-02-10,2023-02-10,株式会社ＴＯＭＯＥ,,株式会社,広島県,福山市,蔵王町３９６５番地２２,,34,207,7210971,,,,,,,2023-02-10,1,,,,,トモエ,0
980,4260003004200,新規,0,2023-02-10,2023-02-10,合同会社備前エステート,,合同会社,岡山県,岡山市北区,西古松１丁目２番１号７０２,,33,101,7000927,,,,,,,2023-02-10,1,,,,,ビゼンエステート,0
990,4290001100543,新規,0,2023-02-10,2023-02-10,株式会社結不動産,,株式会社,福岡県,福岡市中央区,黒門８番２４－３０２号,,40,133,8100055,,,,,,,2023-02-10,1,,,,,ユイフドウサン,0
993,4290803004339,新規,0,2023-02-10,2023-02-10,合同会社ゆくママ,,合同会社,福岡県,北九州市八幡東区,高見２丁目９番３０－７１０号,,40,108,8050016,,,,,,,2023-02-10,1,,,,,ユクママ,0
995,4320003004020,新規,0,2023-02-10,2023-02-10,合同会社豊商,,合同会社,大分県,杵築市,山香町大字立石４７３３番地,,44,210,8791302,,,,,,,2023-02-10,1,,,,,トヨショウ,0
1001,4360001031566,新規,0,2023-02-10,2023-02-10,株式会社美ら島トータルサポート,,株式会社,沖縄県,宮古島市,平良字荷川取４９４番地１,,47,214,9060008,,,,,,,2023-02-10,1,,,,,チュラシマトータルサポート,0
1004,4370003005988,新規,0,2023-02-10,2023-02-10,合同会社ふくまる,,合同会社,宮城県,仙台市宮城野区,銀杏町１－４,,04,102,9830047,,,,,,,2023-02-10,1,,,,,フクマル,0
1008,4420001018152,新規,0,2023-02-10,2023-02-10,株式会社アカデミア研究開発支援,,株式会社,青森県,弘前市,大字早稲田３丁目７番地１４,,02,202,0368087,,,,,,,2023-02-10,1,,,,,アカデミアケンキュウカイハツシエン,0
1035,5010003039757,新規,0,2023-02-10,2023-02-10,合同会社ＩＡＰコンサルティング,,合同会社,東京都,中央区,銀座１丁目２２番１１号銀座大竹ビジデンス２階,,13,102,1040061,,,,,,,2023-02-10,1,,,,,アイエーピーコンサルティング,0
1040,5010401172432,新規,0,2023-02-10,2023-02-10,株式会社ＪＢＥＣ,,株式会社,東京都,港区,六本木１丁目４番５号,,13,103,1060032,,,,,,,2023-02-10,1,,,,,ジェイベック,0
1041,5010401172449,新規,0,2023-02-10,2023-02-10,株式会社オーラスタート,,株式会社,東京都,港区,虎ノ門４丁目３番１号城山トラストタワー２７階,,13,103,1050001,,,,,,,2023-02-10,1,,,,,オーラスタート,0
1045,5010403029473,新規,0,2023-02-10,2023-02-10,合同会社ＧＫ０６７,,合同会社,東京都,港区,虎ノ門３丁目２２番１０－２０１号,,13,103,1050001,,,,,,,2023-02-10,1,,,,,ジーケイゼロシックスセブン,0
1047,5010405021775,新規,0,2023-02-10,2023-02-10,ＰＡＴＲＩＺＩＡ　ＭＦ２一般社団法人,,その他の設立登記法人,東京都,港区,虎ノ門３丁目２２番１０－２０１号,,13,103,1050001,,,,,,,2023-02-10,1,,,,,パトリチアエムエフトゥ,0
1051,5010603009993,新規,0,2023-02-10,2023-02-10,合同会社Ｂｒｉｃｏ,,合同会社,東京都,江東区,平野１丁目９番７号２０４号,,13,108,1350023,,,,,,,2023-02-10,1,,,,,ブリコ,0
1056,5010901052514,新規,0,2023-02-10,2023-02-10,株式会社ＨＡＰＰＹ　ＮＩＣＥ,,株式会社,東京都,世田谷区,祖師谷３丁目１番１６号,,13,112,1570072,,,,,,,2023-02-10,1,,,,,ハッピーナイス,0
1060,5011001152205,新規,0,2023-02-10,2023-02-10,株式会社ＫＬＡＳＳ,,株式会社,東京都,渋谷区,代々木１丁目７番３マノアール３０２号,,13,113,1510053,,,,,,,2023-02-10,1,,,,,クラス,0
1061,5011001152386,新規,0,2023-02-10,2023-02-10,株式会社ＳＨＩＭ,,株式会社,東京都,渋谷区,神南１丁目２３－１４リージャス渋谷公園通りビル,,13,113,1500041,,,,,,,2023-02-10,1,,,,,シム,0
1062,5011001152428,新規,0,2023-02-10,2023-02-10,株式会社ＳｑｕａｒｅＥｉｇｈｔ,,株式会社,東京都,渋谷区,道玄坂１丁目１０番８号渋谷道玄坂東急ビル２Ｆ－Ｃ,,13,113,1500043,,,,,,,2023-02-10,1,,,,,スクエアエイト,0
1063,5011001152452,新規,0,2023-02-10,2023-02-10,株式会社３ＬＤＫ,,株式会社,東京都,渋谷区,東１丁目２７番１号,,13,113,1500011,,,,,,,2023-02-10,1,,,,,サンエルディーケー,0
1065,5011003016234,新規,0,2023-02-10,2023-02-10,ＳＯＭＩ　ＩＮＳＩＧＨＴＳ合同会社,,合同会社,東京都,渋谷区,松濤１丁目１１番１２号松濤アートハウス２０１,,13,113,1500046,,,,,,,2023-02-10,1,,,,,ソウミインサイト,0
1066,5011005009938,新規,0,2023-02-10,2023-02-10,一般社団法人国際ピラティス協会,,その他の設立登記法人,東京都,渋谷区,恵比寿１丁目１０番６号,,13,113,1500013,,,,,,,2023-02-10,1,,,,,コクサイピラティスキョウカイ,0
1076,5011603003821,新規,0,2023-02-10,2023-02-10,合同会社Ｓｏｕｇｏｕｉｓｈｉ,,合同会社,東京都,練馬区,石神井町２丁目１４番１号（ピアレス・ザ・タワー）,,13,120,1770041,,,,,,,2023-02-10,1,,,,,ソウゴウイシ,0
1081,5011801041920,新規,0,2023-02-10,2023-02-10,株式会社ＥＲＵＲＵ,,株式会社,東京都,足立区,本木１丁目２１番１４号,,13,121,1230853,,,,,,,2023-02-10,1,,,,,エルル,0
1083,5012403005826,新規,0,2023-02-10,2023-02-10,合同会社ウメキジ,,合同会社,東京都,武蔵野市,吉祥寺東町３丁目２２番１１号,,13,203,1800002,,,,,,,2023-02-10,1,,,,,ウメキジ,0
1085,5012801022092,新規,0,2023-02-10,2023-02-10,株式会社想ひ,,株式会社,東京都,日野市,南平２丁目３９番地の２５,,13,212,1910041,,,,,,,2023-02-10,1,,,,,オモヒ,0
1086,5012801022134,新規,0,2023-02-10,2023-02-10,株式会社マイトラック,,株式会社,東京都,武蔵村山市,三ツ藤２丁目８番地の３,,13,223,2080021,,,,,,,2023-02-10,1,,,,,マイトラック,0
1100,5020001150218,新規,0,2023-02-10,2023-02-10,株式会社ルナミレックス,,株式会社,神奈川県,横浜市戸塚区,戸塚町２８１０番地５,,14,110,2440003,,,,,,,2023-02-10,1,,,,,ルナミレックス,0
1101,5020001150242,新規,0,2023-02-10,2023-02-10,株式会社ＭＳＭ,,株式会社,神奈川県,横浜市青葉区,あざみ野３丁目２３番地２,,14,117,2250011,,,,,,,2023-02-10,1,,,,,エムエスエム,0
1102,5020001150250,新規,0,2023-02-10,2023-02-10,株式会社エイト工業,,株式会社,神奈川県,川崎市中原区,新城中町１６－１４しらかばポイント１－５０２,,14,133,2110043,,,,,,,2023-02-10,1,,,,,エイトコウギョウ,0
1104,5020003023289,新規,0,2023-02-10,2023-02-10,合同会社ＴＨＥＳＥＮＳＥ,,合同会社,神奈川県,横浜市青葉区,恩田町９８４番地１,,14,117,2270065,,,,,,,2023-02-10,1,,,,,ザセンス,0
1105,5020003023297,新規,0,2023-02-10,2023-02-10,通円合同会社,,合同会社,神奈川県,横浜市港北区,新吉田東３丁目３７番２１号,,14,109,2230058,,,,,,,2023-02-10,1,,,,,ツウエン,0
1110,5021001078176,新規,0,2023-02-10,2023-02-10,株式会社ウィーズ横須賀,,株式会社,神奈川県,横須賀市,森崎１丁目１番１６号,,14,201,2380023,,,,,,,2023-02-10,1,,,,,ウィーズヨコスカ,0
1111,5021001078192,新規,0,2023-02-10,2023-02-10,株式会社ＫＴキッチン,,株式会社,神奈川県,藤沢市,宮原３３４１番地の３,,14,205,2520826,,,,,,,2023-02-10,1,,,,,ケイティキッチン,0
1115,5021003012752,新規,0,2023-02-10,2023-02-10,合同会社Ｅｍｅｒａｌｄ,,合同会社,神奈川県,小田原市,国府津３丁目１５番２２号,,14,206,2560812,,,,,,,2023-02-10,1,,,,,エメラルド,0
1117,5030001038206,新規,0,2023-02-10,2023-02-10,株式会社千代田紙芸,,株式会社,埼玉県,草加市,栄町２丁目１番３２号,,11,221,3400011,,,,,,,2023-02-10,1,,,,,チヨダシゲイ,0
1121,5030001152353,新規,0,2023-02-10,2023-02-10,ＬＥＣ株式会社,,株式会社,埼玉県,八潮市,緑町４丁目２２番１５号緑町共和ビル２０５,,11,234,3400808,,,,,,,2023-02-10,1,,,,,エルイーシー,0
1127,5040001127024,新規,0,2023-02-10,2023-02-10,株式会社光プランニング,,株式会社,千葉県,東金市,八坂台５丁目３０番地１１,,12,213,2830801,,,,,,,2023-02-10,1,,,,,ヒカリプランニング,0
1128,5040001127032,新規,0,2023-02-10,2023-02-10,株式会社タカイチ,,株式会社,千葉県,我孫子市,柴崎１１２７番地,,12,222,2701177,,,,,,,2023-02-10,1,,,,,タカイチ,0
1132,5040003021910,新規,0,2023-02-10,2023-02-10,ＯＺＯ　ＴＲＡＤＩＮＧ合同会社,,合同会社,千葉県,富里市,御料２７２ー８,,12,233,2860211,,,,,,,2023-02-10,1,,,,,オゾトレーディング,0
1135,5050001052386,新規,0,2023-02-10,2023-02-10,玉吉不動産株式会社,,株式会社,茨城県,常陸太田市,宮本町４２２番地の２,,08,212,3130006,,,,,,,2023-02-10,1,,,,,タマヨシフドウサン,0
1137,5070001040100,新規,0,2023-02-10,2023-02-10,株式会社アクアセント,,株式会社,群馬県,富岡市,富岡２５９番地２,,10,210,3702316,,,,,,,2023-02-10,1,,,,,アクアセント,0
1174,5130001073655,新規,0,2023-02-10,2023-02-10,株式会社菱田鍼灸整骨院,,株式会社,京都府,亀岡市,中矢田町才ノ溝１番地３６,,26,206,6210855,,,,,,,2023-02-10,1,,,,,ヒシダシンキュウセイコツイン,0
1178,5130003008527,新規,0,2023-02-10,2023-02-10,合同会社ハイ・フレッシュ,,合同会社,京都府,向日市,上植野町南小路４３番地の７,,26,208,6170006,,,,,,,2023-02-10,1,,,,,ハイフレッシュ,0
1181,5140001128953,新規,0,2023-02-10,2023-02-10,株式会社Ｂ．Ｈパートナーズ,,株式会社,兵庫県,姫路市,岡田１５０番地４,,28,201,6700982,,,,,,,2023-02-10,1,,,,,ビーエイチパートナーズ,0
1182,5140001129084,新規,0,2023-02-10,2023-02-10,株式会社Ｋ’ｓ　Ｗｏｒｋｓ,,株式会社,兵庫県,加古川市,野口町水足３３３番地の２２０,,28,210,6750019,,,,,,,2023-02-10,1,,,,,ケーズワークス,0
1183,5140001129092,新規,0,2023-02-10,2023-02-10,イザナミファーム株式会社,,株式会社,兵庫県,淡路市,郡家１１６番地２,,28,226,6561511,,,,,,,2023-02-10,1,,,,,イザナミファーム,0
1191,5180001154954,新規,0,2023-02-10,2023-02-10,株式会社ピュアフィールド,,株式会社,愛知県,名古屋市中村区,名駅３丁目４番１０号アルティメイト名駅１ｓｔ２階,,23,105,4500002,,,,,,,2023-02-10,1,,,,,ピュアフィールド,0
1192,5180001154962,新規,0,2023-02-10,2023-02-10,株式会社ｐａｚ,,株式会社,愛知県,あま市,本郷郷前８７番地２,,23,237,4901116,,,,,,,2023-02-10,1,,,,,パズ,0
1196,5180003024841,新規,0,2023-02-10,2023-02-10,物流ＤＡＯ合同会社,,合同会社,愛知県,日進市,北新町殿ケ池上５７３番地３,,23,230,4700103,,,,,,,2023-02-10,1,,,,,ブツリュウダオ,0
1197,5180303005608,新規,0,2023-02-10,2023-02-10,合同会社ｓｔｉｌｌ,,合同会社,愛知県,豊橋市,新川町１７番,,23,201,4400883,,,,,,,2023-02-10,1,,,,,スティル,0
1205,5200001040945,新規,0,2023-02-10,2023-02-10,大前造園株式会社,,株式会社,岐阜県,下呂市,金山町菅田桐洞２９８９番地,,21,220,5091623,,,,,,,2023-02-10,1,,,,,オオマエゾウエン,0
1206,5200005013443,新規,0,2023-02-10,2023-02-10,特定非営利活動法人ＪＲ穂積駅周辺まちづくり協議会ＥｘＳｉｔｅ,,その他の設立登記法人,岐阜県,瑞穂市,別府６５８番地１３,,21,216,5010222,,,,,,,2023-02-10,1,,,,,ジェイアールホヅミエキシュウヘンマチヅクリキョウギカイエキサイト,0
1214,5240001061079,新規,0,2023-02-10,2023-02-10,株式会社昇工業,,株式会社,広島県,広島市東区,戸坂大上４丁目２８番１２号,,34,102,7320014,,,,,,,2023-02-10,1,,,,,ノボルコウギョウ,0
1216,5240003006008,新規,0,2023-02-10,2023-02-10,Ｓｔｅｌｌａ合同会社,,合同会社,広島県,尾道市,土堂２丁目１０番２４号,,34,205,7220035,,,,,,,2023-02-10,1,,,,,ステラ,0
1218,5260003004199,新規,0,2023-02-10,2023-02-10,合同会社ローカル・モビリティーズ,,合同会社,岡山県,英田郡西粟倉村,大字影石５８０番１ａｍｏｃａ白棟Ｃ号室,,33,643,7070503,,,,,,,2023-02-10,1,,,,,ローカルモビリティーズ,0
1229,5290803004338,新規,0,2023-02-10,2023-02-10,合同会社九州トレーディング,,合同会社,福岡県,宮若市,磯光１３１３番地５,,40,226,8230004,,,,,,,2023-02-10,1,,,,,キュウシュウトレーディング,0
1239,5330001030586,新規,0,2023-02-10,2023-02-10,株式会社ＨＫＴホールディングス,,株式会社,熊本県,熊本市中央区,帯山４丁目２８番３２号,,43,101,8620924,,,,,,,2023-02-10,1,,,,,エイチケーティーホールディングス,0
1244,5360001031549,新規,0,2023-02-10,2023-02-10,株式会社セブンヒルズ宮古島,,株式会社,沖縄県,宮古島市,平良字西里１３番地１,,47,214,9060012,,,,,,,2023-02-10,1,,,,,セブンヒルズミヤコジマ,0
1245,5360001031565,新規,0,2023-02-10,2023-02-10,株式会社ｅｎｅ未来,,株式会社,沖縄県,那覇市,三原１丁目１８番２５－１３０６号,,47,201,9020063,,,,,,,2023-02-10,1,,,,,エネミク,0
1247,5360005006786,新規,0,2023-02-10,2023-02-10,行政書士法人ニライ,,その他の設立登記法人,沖縄県,中頭郡北谷町,字浜川８番地２４しまぜんビル２Ｆ－Ｂ,,47,326,9040112,,,,,,,2023-02-10,1,,,,,ニライ,0
1248,5370001049573,新規,0,2023-02-10,2023-02-10,Ｔｈｉｎｋｆｅｅｌ株式会社,,株式会社,宮城県,岩沼市,本町７番２１号,,04,211,9892444,,,,,,,2023-02-10,1,,,,,シンクフィール,0
1250,5380001033469,新規,0,2023-02-10,2023-02-10,株式会社アローズ,,株式会社,福島県,郡山市,横塚１丁目８番２４号,,07,203,9638803,,,,,,,2023-02-10,1,,,,,アローズ,0
1256,5410001013392,新規,0,2023-02-10,2023-02-10,株式会社デザインビルド,,株式会社,秋田県,大仙市,協和荒川字下荒川５０番地２,,05,212,0192412,,,,,,,2023-02-10,1,,,,,デザインビルド,0
1270,5480003001934,新規,0,2023-02-10,2023-02-10,Ｈｏｍｅ　Ｉｓｌａｎｄ　Ｐｒｏｊｅｃｔ合同会社,,合同会社,徳島県,徳島市,中吉野町１丁目５０－１,,36,201,7700804,,,,,,,2023-02-10,1,,,,,ホームアイランドプロジェクト,0
1278,5700150114284,新規,0,2023-02-10,2023-02-10,岩木川土地改良区,,その他,青森県,弘前市,大字熊嶋字亀田１６９－１０,,02,202,0361321,,,,,,,2023-02-10,1,,,,,イワキガワトチカイリヨウク,0
1293,6010001232783,新規,0,2023-02-10,2023-02-10,株式会社トレス・ディベロップメント,,株式会社,東京都,中央区,銀座７丁目１５－８,,13,102,1040061,,,,,,,2023-02-10,1,,,,,トレスディベロップメント,0
1294,6010001232825,新規,0,2023-02-10,2023-02-10,ニューライフ株式会社,,株式会社,東京都,千代田区,内神田３丁目１２番４号第一岸ビル５階,,13,101,1010047,,,,,,,2023-02-10,1,,,,,ニューライフ,0
1295,6010001232833,新規,0,2023-02-10,2023-02-10,株式会社ＮＶ１,,株式会社,東京都,文京区,千駄木４丁目５番４号,,13,105,1130022,,,,,,,2023-02-10,1,,,,,エヌブイワン,0
1298,6010003039756,新規,0,2023-02-10,2023-02-10,合同会社サヌック,,合同会社,東京都,文京区,湯島２丁目３２番８－２０８号,,13,105,1130034,,,,,,,2023-02-10,1,,,,,サヌック,0
1299,6010003039797,新規,0,2023-02-10,2023-02-10,怜岸島合同会社,,合同会社,東京都,中央区,新川１丁目３番７－９０１号ストークマンション新川,,13,102,1040033,,,,,,,2023-02-10,1,,,,,レイガンジマ,0
1300,6010101015502,新規,0,2023-02-10,2023-02-10,ＬＰｓＴ株式会社,,株式会社,東京都,八王子市,子安町１丁目４８番９号共立リライアンス２０２号室,,13,201,1920904,,,,,,,2023-02-10,1,,,,,エルピーエスティ,0
1312,6010401172423,新規,0,2023-02-10,2023-02-10,コンシティー株式会社,,株式会社,東京都,港区,南青山３丁目１番３６号青山丸竹ビル６Ｆ,,13,103,1070062,,,,,,,2023-02-10,1,,,,,コンシティー,0
1313,6010401172431,新規,0,2023-02-10,2023-02-10,株式会社マイレ不動産,,株式会社,東京都,港区,赤坂１丁目１番１７－４０８号,,13,103,1070052,,,,,,,2023-02-10,1,,,,,マイレフドウサン,0
1314,6010403029472,新規,0,2023-02-10,2023-02-10,合同会社ＧＫ０６６,,合同会社,東京都,港区,虎ノ門３丁目２２番１０－２０１号,,13,103,1050001,,,,,,,2023-02-10,1,,,,,ジーケイゼロシックスシックス,0
1315,6010403029489,新規,0,2023-02-10,2023-02-10,合同会社Ｍｅｒｒｙｇａｔｅ,,合同会社,東京都,港区,浜松町２丁目２－１５浜松町ダイヤビル２Ｆ,,13,103,1050013,,,,,,,2023-02-10,1,,,,,メリーゲート,0
1336,6010901052505,新規,0,2023-02-10,2023-02-10,株式会社花笑む,,株式会社,東京都,世田谷区,下馬１丁目５４番１３－４０４号,,13,112,1540002,,,,,,,2023-02-10,1,,,,,ハナエム,0
1337,6010901052513,新規,0,2023-02-10,2023-02-10,株式会社ＳＡＮ,,株式会社,東京都,世田谷区,太子堂１丁目１２番２７コンフォートテラス１００５号,,13,112,1540004,,,,,,,2023-02-10,1,,,,,サン,0
1343,6011001152435,新規,0,2023-02-10,2023-02-10,株式会社ｒａｖｉｄｅ,,株式会社,東京都,目黒区,下目黒３丁目１０－２６タカハシハイム１０１,,13,110,1530064,,,,,,,2023-02-10,1,,,,,ラビット,0
1344,6011001152526,新規,0,2023-02-10,2023-02-10,株式会社サンフラワー,,株式会社,東京都,渋谷区,神宮前４丁目１３番２号ＨＡＰ表参道ビル,,13,113,1500001,,,,,,,2023-02-10,1,,,,,サンフラワー,0
1345,6011001152542,新規,0,2023-02-10,2023-02-10,株式会社ＢｉＳＨ,,株式会社,東京都,渋谷区,道玄坂１丁目１６番１０号渋谷ＤＴビル８Ｆ,,13,113,1500043,,,,,,,2023-02-10,1,,,,,ビッシュ,0
1347,6011003016225,新規,0,2023-02-10,2023-02-10,合同会社Ａｑｕａｐｏｃｋｅｔ,,合同会社,東京都,渋谷区,神宮前６丁目２３番地４桑野ビル２階,,13,113,1500001,,,,,,,2023-02-10,1,,,,,アクアポケット,0
1348,6011003016233,新規,0,2023-02-10,2023-02-10,合同会社ＮＯ．７,,合同会社,東京都,渋谷区,幡ヶ谷３丁目５０番２号・２０１,,13,113,1510072,,,,,,,2023-02-10,1,,,,,ナンバーセブン,0
1349,6011003016266,新規,0,2023-02-10,2023-02-10,合同会社スパイスアップワークス,,合同会社,東京都,目黒区,南１丁目１６番２号,,13,110,1520013,,,,,,,2023-02-10,1,,,,,スパイスアップワークス,0
1350,6011005009937,新規,0,2023-02-10,2023-02-10,一般社団法人日本テニス振興協会,,その他の設立登記法人,東京都,目黒区,大橋２丁目７番６号,,13,110,1530044,,,,,,,2023-02-10,1,,,,,ニホンテニスシンコウキョウカイ,0
1353,6011101101787,新規,0,2023-02-10,2023-02-10,ＷＴ　ＰＡＲＴＮＥＲＳ株式会社,,株式会社,東京都,新宿区,西新宿３丁目９番１号西新宿ティーオービル１０階,,13,104,1600023,,,,,,,2023-02-10,1,,,,,ダブリューティーパートナーズ,0
1354,6011101101804,新規,0,2023-02-10,2023-02-10,株式会社ノーブル,,株式会社,東京都,新宿区,大久保２丁目２番１２－９０４号,,13,104,1690072,,,,,,,2023-02-10,1,,,,,ノーブル,0
1362,6011503005479,新規,0,2023-02-10,2023-02-10,合同会社フローズンＩＴ,,合同会社,東京都,荒川区,町屋５丁目４－１３,,13,118,1160001,,,,,,,2023-02-10,1,,,,,フローズンアイティ,0
1365,6011701026005,新規,0,2023-02-10,2023-02-10,ホームジャパン株式会社,,株式会社,東京都,江戸川区,南小岩５丁目２０番１３号ＳＫビル３０２,,13,123,1330056,,,,,,,2023-02-10,1,,,,,ホームジャパン,0
1371,6011801041911,新規,0,2023-02-10,2023-02-10,株式会社義隆,,株式会社,東京都,足立区,東綾瀬３丁目１４－４－９０２ライオンズマンション東綾瀬公園第２,,13,121,1200004,,,,,,,2023-02-10,1,,,,,ヨシタカ,0
1372,6011801041928,新規,0,2023-02-10,2023-02-10,株式会社Ｇｌｏｌｉｎｋ,,株式会社,東京都,足立区,加平２丁目１３番１７－２０２号,,13,121,1210055,,,,,,,2023-02-10,1,,,,,グローリンク,0
1376,6012403005825,新規,0,2023-02-10,2023-02-10,合同会社ＦＡＢグループ,,合同会社,東京都,府中市,若松町４丁目５１－１グリーンパレス府中１０９,,13,206,1830005,,,,,,,2023-02-10,1,,,,,エフエービーグループ,0
1382,6013301050269,新規,0,2023-02-10,2023-02-10,株式会社Ｓｋｙｔｅｃ,,株式会社,東京都,豊島区,東池袋４丁目２番１号２２０４号,,13,116,1700013,,,,,,,2023-02-10,1,,,,,スカイテック,0
1383,6013301050302,新規,0,2023-02-10,2023-02-10,株式会社フラッグシップ,,株式会社,東京都,豊島区,長崎４丁目８番１５号桂荘１Ｆ３号,,13,116,1710051,,,,,,,2023-02-10,1,,,,,フラッグシップ,0
1391,6020001150225,新規,0,2023-02-10,2023-02-10,株式会社ＮＭＫコンサルティング,,株式会社,神奈川県,横浜市中区,桜木町１丁目１番７号ヒューリックみなとみらい１０階,,14,104,2310062,,,,,,,2023-02-10,1,,,,,エヌエムケイコンサルティング,0
1392,6020001150233,新規,0,2023-02-10,2023-02-10,株式会社心紡,,株式会社,神奈川県,横浜市神奈川区,西寺尾１丁目１８番７号,,14,102,2210001,,,,,,,2023-02-10,1,,,,,コムギ,0
1396,6020003023288,新規,0,2023-02-10,2023-02-10,ワタナベ商事合同会社,,合同会社,神奈川県,横浜市中区,曙町１丁目１０番地山口ビル５０１号室,,14,104,2310057,,,,,,,2023-02-10,1,,,,,ワタナベショウジ,0
1400,6021001078175,新規,0,2023-02-10,2023-02-10,株式会社日菜太,,株式会社,神奈川県,藤沢市,辻堂新町１丁目４番３０～３０４号,,14,205,2510042,,,,,,,2023-02-10,1,,,,,ヒナタ,0
1401,6021001078183,新規,0,2023-02-10,2023-02-10,株式会社ＬＥＬファーマシー,,株式会社,神奈川県,相模原市南区,大野台５丁目２番３４号,,14,153,2520331,,,,,,,2023-02-10,1,,,,,エルイーエルファーマシー,0
1402,6021001078191,新規,0,2023-02-10,2023-02-10,株式会社ＣＯＣＯＸＩＡ,,株式会社,神奈川県,愛甲郡清川村,宮ヶ瀬９４１番地１,,14,402,2430111,,,,,,,2023-02-10,1,,,,,ココシア,0
1413,6030001152328,新規,0,2023-02-10,2023-02-10,株式会社ＭＩＹＡＢＩ,,株式会社,埼玉県,川越市,南台２丁目１１番地１０（ロータリーライフ川越１０６号室）,,11,201,3501165,,,,,,,2023-02-10,1,,,,,ミヤビ,0
1414,6030001152336,新規,0,2023-02-10,2023-02-10,株式会社扇建工,,株式会社,埼玉県,越谷市,南町３丁目５－４ハイムウェルシィ１０２,,11,222,3430832,,,,,,,2023-02-10,1,,,,,オウギケンコウ,0
1415,6030001152352,新規,0,2023-02-10,2023-02-10,株式会社ピースフルビレッジ,,株式会社,埼玉県,春日部市,花積４７１番地３,,11,214,3440044,,,,,,,2023-02-10,1,,,,,ピースフルビレッジ,0
1416,6030001152369,新規,0,2023-02-10,2023-02-10,林宏株式会社,,株式会社,埼玉県,川口市,西川口１丁目３０番２０－５階Ｄ,,11,203,3320021,,,,,,,2023-02-10,1,,,,,リンコウ,0
1426,6040001127007,新規,0,2023-02-10,2023-02-10,株式会社ＰＩＣＳＥＳ,,株式会社,千葉県,市川市,八幡２丁目６番９号秋葉ビル４階,,12,203,2720021,,,,,,,2023-02-10,1,,,,,パイシース,0
1427,6040001127023,新規,0,2023-02-10,2023-02-10,株式会社ハチイチ,,株式会社,千葉県,佐倉市,城２０４番地２９,,12,212,2850815,,,,,,,2023-02-10,1,,,,,ハチイチ,0
1428,6040001127031,新規,0,2023-02-10,2023-02-10,ＩＳＴサポート株式会社,,株式会社,千葉県,野田市,古布内１５４４番地４,,12,208,2700221,,,,,,,2023-02-10,1,,,,,アイエスティサポート,0
1438,6070001040116,新規,0,2023-02-10,2023-02-10,ものづくりラボ株式会社,,株式会社,群馬県,太田市,大原町２５６７番地２,,10,205,3792304,,,,,,,2023-02-10,1,,,,,モノヅクリラボ,0
1439,6070005010081,新規,0,2023-02-10,2023-02-10,一般社団法人桐生南スポーツアカデミー,,その他の設立登記法人,群馬県,桐生市,本町２丁目８番２６号,,10,203,3760031,,,,,,,2023-02-10,1,,,,,キリュウミナミスポーツアカデミー,0
1448,6100001036143,新規,0,2023-02-10,2023-02-10,株式会社Ａｍｉ．Ｐｏｒｔｅ,,株式会社,長野県,長野市,大字東和田８４２番地ＣＯＲＥＯＦＦＩＣＥ３０１号室,,20,201,3810038,,,,,,,2023-02-10,1,,,,,アミポルテ,0
1460,6120001252366,新規,0,2023-02-10,2023-02-10,ＮａＴ’ｓ株式会社,,株式会社,大阪府,大阪市北区,梅田１丁目１番３号大阪駅前第３ビル２９階１－１－１号室,,27,127,5300001,,,,,,,2023-02-10,1,,,,,ナッツ,0
1461,6120001252424,新規,0,2023-02-10,2023-02-10,株式会社Ｎ．Ｅ．Ｎ,,株式会社,大阪府,大阪市中央区,久太郎町１丁目７番１１－１６０７号,,27,128,5410056,,,,,,,2023-02-10,1,,,,,ネン,0
1462,6120001252432,新規,0,2023-02-10,2023-02-10,株式会社ベイスリーアセット,,株式会社,大阪府,大阪市淀川区,十三東３丁目２５番２号,,27,123,5320023,,,,,,,2023-02-10,1,,,,,ベイスリーアセット,0
1463,6120001252440,新規,0,2023-02-10,2023-02-10,株式会社ＮＡＫＡＩ,,株式会社,大阪府,大阪市都島区,友渕町１丁目３番１２－９０８号,,27,102,5340016,,,,,,,2023-02-10,1,,,,,ナカイ,0
1465,6120003023419,新規,0,2023-02-10,2023-02-10,合同会社Ｆｕｌｌ　Ｌｅｖｅｒａｇｅ,,合同会社,大阪府,守口市,南寺方北通１丁目６番１０号,,27,209,5700046,,,,,,,2023-02-10,1,,,,,フルレバレッジ,0
1469,6120101066971,新規,0,2023-02-10,2023-02-10,株式会社ＩＮＣＥＰＴＩＯＮ,,株式会社,大阪府,松原市,岡３丁目３番１４号,,27,217,5800014,,,,,,,2023-02-10,1,,,,,インセプション,0
1480,6130001073670,新規,0,2023-02-10,2023-02-10,株式会社ノーツセキュリティ,,株式会社,京都府,京都市下京区,傘鉾町４３立原ビル４階,,26,106,6008494,,,,,,,2023-02-10,1,,,,,ノーツセキュリティ,0
1487,6140001129083,新規,0,2023-02-10,2023-02-10,株式会社Ｊｏｙ　Ｗｏｒｌｄ,,株式会社,兵庫県,姫路市,城見台３丁目９番地５,,28,201,6700803,,,,,,,2023-02-10,1,,,,,ジョイワールド,0
1488,6140001129100,新規,0,2023-02-10,2023-02-10,金発商事株式会社,,株式会社,兵庫県,加東市,多井田６９２番地２０３,,28,228,6790202,,,,,,,2023-02-10,1,,,,,キンハツショウジ,0
1491,6140005026483,新規,0,2023-02-10,2023-02-10,ＮＰＯ法人幸せの窓口,,その他の設立登記法人,兵庫県,明石市,大久保町西島１１６９番地の１４,,28,203,6740065,,,,,,,2023-02-10,1,,,,,シアワセノマドグチ,0
1493,6160001024828,新規,0,2023-02-10,2023-02-10,株式会社モンキーガレージ,,株式会社,滋賀県,高島市,朽木市場１３２５番地,,25,212,5201401,,,,,,,2023-02-10,1,,,,,モンキーガレージ,0
1505,6180001154904,新規,0,2023-02-10,2023-02-10,株式会社Ｓｅｎ　Ｊａｐａｎ,,株式会社,愛知県,名古屋市中区,丸の内３丁目５番３３号名古屋有楽町ビル６０１,,23,106,4600002,,,,,,,2023-02-10,1,,,,,センジャパン,0
1506,6180001154937,新規,0,2023-02-10,2023-02-10,株式会社ニシデン,,株式会社,愛知県,春日井市,上条町６丁目７６番地１,,23,206,4860833,,,,,,,2023-02-10,1,,,,,ニシデン,0
1512,6180301037098,新規,0,2023-02-10,2023-02-10,岡崎クリエイティブ株式会社,,株式会社,愛知県,岡崎市,稲熊町字４丁目８６番地３,,23,202,4440071,,,,,,,2023-02-10,1,,,,,オカザキクリエイティブ,0
1540,6290001100541,新規,0,2023-02-10,2023-02-10,天馬産業株式会社,,株式会社,福岡県,福岡市西区,愛宕３丁目４番３号,,40,135,8190015,,,,,,,2023-02-10,1,,,,,テンマサンギョウ,0
1546,6310003004515,新規,0,2023-02-10,2023-02-10,合同会社野々川グランビューパーク,,合同会社,長崎県,東彼杵郡波佐見町,野々川郷１２６２番地,,42,323,8593703,,,,,,,2023-02-10,1,,,,,,0
1555,6360001031564,新規,0,2023-02-10,2023-02-10,株式会社ルルべ,,株式会社,沖縄県,那覇市,安謝２丁目３番７号,,47,201,9000003,,,,,,,2023-02-10,1,,,,,ルルベ,0
1557,6360003012703,新規,0,2023-02-10,2023-02-10,合同会社ハレルーヤ,,合同会社,沖縄県,那覇市,牧志２丁目１６番４６－１２０１号タカラマンションマキシー１,,47,201,9000013,,,,,,,2023-02-10,1,,,,,ハレルーヤ,0
1571,6430001088382,新規,0,2023-02-10,2023-02-10,株式会社Ｙ’ｓクリエイト,,株式会社,北海道,札幌市清田区,清田五条２丁目３３番２０号,,01,110,0040845,,,,,,,2023-02-10,1,,,,,ワイズクリエイト,0
1575,6700150114283,新規,0,2023-02-10,2023-02-10,株式会社テクロス,,外国会社等,大阪府,大阪市北区,中津１丁目１８番１８号若杉ビル８階８０２号室,,27,127,5310071,大韓民国ソウル特別市江南区三成路５２８（三成洞）,,,,,,2023-02-10,1,,,,,カブシキガイシヤテクロス,0
1595,7010001232717,新規,0,2023-02-10,2023-02-10,株式会社ＡＤＶＡＮＣＥ,,株式会社,東京都,千代田区,有楽町２丁目２番１号,,13,101,1000006,,,,,,,2023-02-10,1,,,,,アドバンス,0
1596,7010001232808,新規,0,2023-02-10,2023-02-10,株式会社セブンヒルズ東京,,株式会社,東京都,中央区,銀座８丁目５番１８号,,13,102,1040061,,,,,,,2023-02-10,1,,,,,セブンヒルズトウキョウ,0
1597,7010001232849,新規,0,2023-02-10,2023-02-10,株式会社フォル,,株式会社,東京都,千代田区,神田和泉町１番地１２の３石井ビル１Ｆ,,13,101,1010024,,,,,,,2023-02-10,1,,,,,フォル,0
1598,7010001232923,新規,0,2023-02-10,2023-02-10,株式会社Ｈ・Ｕ・Ｇ・Ｓ,,株式会社,東京都,中央区,銀座６丁目２番６号,,13,102,1040061,,,,,,,2023-02-10,1,,,,,ハグス,0
1599,7010103002076,新規,0,2023-02-10,2023-02-10,合同会社セカンドライフ,,合同会社,東京都,八王子市,打越町１３７４番地１５,,13,201,1920911,,,,,,,2023-02-10,1,,,,,セカンドライフ,0
1604,7010401172430,新規,0,2023-02-10,2023-02-10,株式会社Ｚｅｒｏ．Ｄ．Ｌｉｂｅｒｔａｓ,,株式会社,東京都,港区,南青山３丁目１番３６号青山丸竹ビル６Ｆ,,13,103,1070062,,,,,,,2023-02-10,1,,,,,ゼロリベルタス,0
1607,7010403029471,新規,0,2023-02-10,2023-02-10,合同会社ＧＫ０６５,,合同会社,東京都,港区,虎ノ門３丁目２２番１０－２０１号,,13,103,1050001,,,,,,,2023-02-10,1,,,,,ジーケイゼロシックスファイブ,0
1617,7010801033678,新規,0,2023-02-10,2023-02-10,ＴＦＪ株式会社,,株式会社,東京都,大田区,山王２丁目３７番５－３０４号,,13,111,1430023,,,,,,,2023-02-10,1,,,,,ティーエフジェイ,0
1629,7011001152392,新規,0,2023-02-10,2023-02-10,グリッドスタート株式会社,,株式会社,東京都,渋谷区,千駄ヶ谷２丁目９番２－３０３号,,13,113,1510051,,,,,,,2023-02-10,1,,,,,グリッドスタート,0
1630,7011001152426,新規,0,2023-02-10,2023-02-10,株式会社６Ａ　ＣＯＲＰＯＲＡＴＩＯＮ,,株式会社,東京都,渋谷区,幡ヶ谷２丁目１３番１号,,13,113,1510072,,,,,,,2023-02-10,1,,,,,シックスエーコーポレーション,0
1631,7011001152434,新規,0,2023-02-10,2023-02-10,株式会社ｎｅｗｅｌ,,株式会社,東京都,渋谷区,道玄坂１丁目１０番８号渋谷道玄坂東急ビル２Ｆ－Ｃ,,13,113,1500043,,,,,,,2023-02-10,1,,,,,ニュエル,0
1632,7011001152450,新規,0,2023-02-10,2023-02-10,株式会社Ｉ・Ｔ・Ｏ,,株式会社,東京都,渋谷区,広尾４丁目２番２０－２０１号オープンレジデンシア広尾ザ・ハウスＳｏｕｔｈＣｏｕｒｔ,,13,113,1500012,,,,,,,2023-02-10,1,,,,,,0
1635,7011003016216,新規,0,2023-02-10,2023-02-10,合同会社Ｂｕｚｚ　Ｂｒａｎｄｓ,,合同会社,東京都,目黒区,下目黒１丁目４番７グリーンハイツ行人坂２１５号,,13,110,1530064,,,,,,,2023-02-10,1,,,,,バズブランズ,0
1636,7011003016240,新規,0,2023-02-10,2023-02-10,合同会社アンズインダストリー,,合同会社,東京都,目黒区,八雲２丁目１０番９号グランエックス自由が丘Ｗ－０７,,13,110,1520023,,,,,,,2023-02-10,1,,,,,アンズインダストリー,0
1637,7011103012684,新規,0,2023-02-10,2023-02-10,合同会社ＯＨＧリニューアブルエナジー２,,合同会社,東京都,新宿区,四谷２丁目９番地１５東京ユナイテッド綜合事務所内,,13,104,1600004,,,,,,,2023-02-10,1,,,,,オーエイチジーリニューアブルエナジーツー,0
1645,7011701026004,新規,0,2023-02-10,2023-02-10,オリソン株式会社,,株式会社,東京都,江戸川区,北葛西２丁目１－１３,,13,123,1340081,,,,,,,2023-02-10,1,,,,,オリソン,0
1648,7011801041927,新規,0,2023-02-10,2023-02-10,松勝株式会社,,株式会社,東京都,足立区,西新井本町５丁目２番４－２０１号,,13,121,1230845,,,,,,,2023-02-10,1,,,,,マツショウ,0
1650,7011803005509,新規,0,2023-02-10,2023-02-10,合同会社ＹＲＳ,,合同会社,東京都,足立区,保木間３丁目８番１３号,,13,121,1210064,,,,,,,2023-02-10,1,,,,,ワイアールエス,0
1653,7012401040170,新規,0,2023-02-10,2023-02-10,株式会社ファイアーフラワーミュージック,,株式会社,東京都,府中市,若松町１丁目３２番地の１５,,13,206,1830005,,,,,,,2023-02-10,1,,,,,ファイアーフラワーミュージック,0
1657,7013301050318,新規,0,2023-02-10,2023-02-10,株式会社日本エーコン．Ｓ,,株式会社,東京都,豊島区,東池袋１丁目４７番９号,,13,116,1700013,,,,,,,2023-02-10,1,,,,,ニホンエーコンドットエス,0
1660,7020001150166,新規,0,2023-02-10,2023-02-10,株式会社ＳＴＩ,,株式会社,神奈川県,横浜市神奈川区,白幡南町８番１０号メゾン白幡南２０２号,,14,102,2210073,,,,,,,2023-02-10,1,,,,,エスティーアイ,0
1662,7020003023295,新規,0,2023-02-10,2023-02-10,３０１プロダクション合同会社,,合同会社,神奈川県,横浜市神奈川区,片倉５丁目４３番１号,,14,102,2210865,,,,,,,2023-02-10,1,,,,,サンマルイチプロダクション,0
1663,7020003023304,新規,0,2023-02-10,2023-02-10,山村平合同会社,,合同会社,神奈川県,横浜市港北区,大曽根１丁目２番２２号,,14,109,2220003,,,,,,,2023-02-10,1,,,,,ヤマムラヘイ,0
1671,7030001152319,新規,0,2023-02-10,2023-02-10,株式会社ＢＬＵＥ　ＰＥＡＫ,,株式会社,埼玉県,さいたま市南区,辻２丁目９番３４号ラクラシオン２０１,00129403,11,108,3360026,,,,,,,2023-02-10,1,,,,,ブルーピーク,0
1672,7030001152335,新規,0,2023-02-10,2023-02-10,株式会社ＤＡＲＷＩＮ,,株式会社,埼玉県,川口市,安行出羽２丁目８番７号,,11,203,3340052,,,,,,,2023-02-10,1,,,,,ダーウィン,0
1673,7030001152343,新規,0,2023-02-10,2023-02-10,株式会社エムザ,,株式会社,埼玉県,越谷市,大字砂原１３５６番地１,,11,222,3430803,,,,,,,2023-02-10,1,,,,,エムザ,0
1683,7040001127030,新規,0,2023-02-10,2023-02-10,新神物流株式会社,,株式会社,千葉県,流山市,大字平方字下中谷８０６番１,,12,220,2700105,,,,,,,2023-02-10,1,,,,,シンシンブツリュウ,0
1687,7040003021900,新規,0,2023-02-10,2023-02-10,合同会社イート,,合同会社,千葉県,船橋市,大穴南５丁目２５番２６号,,12,204,2740067,,,,,,,2023-02-10,1,,,,,イート,0
1688,7040003021917,新規,0,2023-02-10,2023-02-10,ＡＩＤＡ　ＥＮＴＥＲＰＲＩＳＥＳ合同会社,,合同会社,千葉県,山武市,松尾町借毛本郷２２８８番地２,,12,237,2891537,,,,,,,2023-02-10,1,,,,,アイダエンタープライズ,0
1694,7060001035685,新規,0,2023-02-10,2023-02-10,株式会社サンシンテクノＨＤ,,株式会社,栃木県,宇都宮市,鶴田町３４９２番地２,,09,201,3200851,,,,,,,2023-02-10,1,,,,,サンシンテクノホールディングス,0
1696,7070001040115,新規,0,2023-02-10,2023-02-10,株式会社ステージファーム,,株式会社,群馬県,利根郡昭和村,大字糸井５８６６番地２,,10,448,3791203,,,,,,,2023-02-10,1,,,,,ステージファーム,0
1710,7100003006878,新規,0,2023-02-10,2023-02-10,合同会社Ｌｅａｐ,,合同会社,長野県,長野市,大字鶴賀東鶴賀町１５４７番地２５コーポ荒井３０２,,20,201,3800811,,,,,,,2023-02-10,1,,,,,リープ,0
1718,7120001252407,新規,0,2023-02-10,2023-02-10,ＲＥＡＭＳＬＩＮＫ株式会社,,株式会社,大阪府,大阪市天王寺区,大道３丁目２番１９号,,27,109,5430052,,,,,,,2023-02-10,1,,,,,リームスリンク,0
1719,7120001252415,新規,0,2023-02-10,2023-02-10,株式会社ＯＨＲＹ,,株式会社,大阪府,寝屋川市,池田北町８番１２号,,27,215,5720073,,,,,,,2023-02-10,1,,,,,オーリー,0
1720,7120001252423,新規,0,2023-02-10,2023-02-10,株式会社角谷建装,,株式会社,大阪府,大阪市淀川区,宮原１丁目４番３号グランクラス新大阪１０３号,,27,123,5320003,,,,,,,2023-02-10,1,,,,,カクタニケンソウ,0
1722,7120003023426,新規,0,2023-02-10,2023-02-10,ビックブランド合同会社,,合同会社,大阪府,大阪市中央区,北久宝寺町１丁目５－６堺筋本町アーバンライフ３０４室,,27,128,5410057,,,,,,,2023-02-10,1,,,,,ビックブランド,0
1724,7120101066979,新規,0,2023-02-10,2023-02-10,株式会社リベア,,株式会社,大阪府,松原市,三宅中６丁目１３番４号,,27,217,5800046,,,,,,,2023-02-10,1,,,,,リベア,0
1728,7120901047113,新規,0,2023-02-10,2023-02-10,株式会社Ｌ’ａｉｌｅ,,株式会社,大阪府,豊中市,旭丘１番６－３０２号,,27,203,5610865,,,,,,,2023-02-10,1,,,,,ラエール,0
1733,7140001129090,新規,0,2023-02-10,2023-02-10,株式会社福田工房,,株式会社,兵庫県,尼崎市,西本町５丁目６６番地１,,28,202,6600874,,,,,,,2023-02-10,1,,,,,フクダコウボウ,0
1746,7180001154952,新規,0,2023-02-10,2023-02-10,株式会社モトクルー,,株式会社,愛知県,尾張旭市,白鳳町２丁目３０番地,,23,226,4880858,,,,,,,2023-02-10,1,,,,,モトクルー,0
1747,7180001154960,新規,0,2023-02-10,2023-02-10,株式会社縁造建材,,株式会社,愛知県,瀬戸市,萩殿町４丁目４８番地,,23,204,4890885,,,,,,,2023-02-10,1,,,,,エンゾウケンザイ,0
1748,7180001154977,新規,0,2023-02-10,2023-02-10,株式会社Ｋ’ｓ技建,,株式会社,愛知県,豊明市,栄町元屋敷５５番地スパークシティポルト３０３号,,23,229,4701161,,,,,,,2023-02-10,1,,,,,ケーズギケン,0
1761,7200003005837,新規,0,2023-02-10,2023-02-10,合同会社Ｆ．ｓｈｉｐ,,合同会社,岐阜県,多治見市,明和町４丁目５番地の４３３,,21,204,5070072,,,,,,,2023-02-10,1,,,,,エフシップ,0
1769,7260003004197,新規,0,2023-02-10,2023-02-10,合同会社ＳＭＲ,,合同会社,岡山県,笠岡市,一番町３番地３５,,33,205,7140082,,,,,,,2023-02-10,1,,,,,エスエムアール,0
1772,7270003001490,新規,0,2023-02-10,2023-02-10,食ＬＡＢＯ合同会社,,合同会社,鳥取県,米子市,法勝寺町６５番地ＨＡＲＩ,,31,202,6830063,,,,,,,2023-02-10,1,,,,,ショクラボ,0
1789,7340001025369,新規,0,2023-02-10,2023-02-10,株式会社西日本投資承継機構,,株式会社,鹿児島県,薩摩郡さつま町,轟町２４番地４,,46,392,8951813,,,,,,,2023-02-10,1,,,,,ニシニホントウシショウケイキコウ,0
1795,7360001031522,新規,0,2023-02-10,2023-02-10,株式会社コウノトリ和牛動物病院,,株式会社,沖縄県,石垣市,字大浜７０番地１,,47,207,9070001,,,,,,,2023-02-10,1,,,,,コウノトリワギュウドウブツビョウイン,0
1798,7380001033459,新規,0,2023-02-10,2023-02-10,株式会社サムエクス,,株式会社,福島県,田村市,船引町船引字下川原１－２６,,07,211,9634312,,,,,,,2023-02-10,1,,,,,サムエクス,0
1799,7380001033467,新規,0,2023-02-10,2023-02-10,株式会社セブン警備,,株式会社,福島県,須賀川市,八幡山２３２番地１,,07,207,9620025,,,,,,,2023-02-10,1,,,,,セブンケイビ,0
1802,7390003002048,新規,0,2023-02-10,2023-02-10,合同会社ライク,,合同会社,山形県,酒田市,北里町１２番３３号,,06,204,9980028,,,,,,,2023-02-10,1,,,,,ライク,0
1806,7430001088415,新規,0,2023-02-10,2023-02-10,株式会社Ａｒｕｋａｓ,,株式会社,北海道,札幌市中央区,南十八条西９丁目１番‐４５‐９０１号,,01,101,0640918,,,,,,,2023-02-10,1,,,,,アルカス,0
1817,7700150114274,新規,0,2023-02-10,2023-02-10,稲生御崎自治会,,その他,三重県,鈴鹿市,稲生３丁目２番３４号,,24,207,5100205,,,,,,,2023-02-10,1,,,,,イノウミサキジチカイ,0
1837,8010001232856,新規,0,2023-02-10,2023-02-10,株式会社ＥＬＫＳＨ,,株式会社,東京都,文京区,向丘２丁目３４番１４号,,13,105,1130023,,,,,,,2023-02-10,1,,,,,イーエルケーエスエイチ,0
1838,8010001232922,新規,0,2023-02-10,2023-02-10,株式会社ＧＲＡＮＡＤＡ,,株式会社,東京都,中央区,日本橋２丁目１番３号,,13,102,1030027,,,,,,,2023-02-10,1,,,,,グラナダ,0
1841,8010103002075,新規,0,2023-02-10,2023-02-10,合同会社うさぎ,,合同会社,東京都,八王子市,明神町４丁目１４番５－３０６号,,13,201,1920046,,,,,,,2023-02-10,1,,,,,ウサギ,0
1846,8010401172355,新規,0,2023-02-10,2023-02-10,株式会社ＭＩＲＥＥ,,株式会社,東京都,港区,六本木２丁目４番１２号ガリシアヒルズ六本木１２０３,,13,103,1060032,,,,,,,2023-02-10,1,,,,,ミリー,0
1848,8010403029487,新規,0,2023-02-10,2023-02-10,合同会社Ｕｔｏｐｉａ,,合同会社,東京都,港区,芝１丁目１３番２１－２０２号,,13,103,1050014,,,,,,,2023-02-10,1,,,,,ユートピア,0
1860,8010901052429,新規,0,2023-02-10,2023-02-10,株式会社ＴＥＮＱｏｏ,,株式会社,東京都,世田谷区,大原１丁目２３番２１－４０１号,,13,112,1560041,,,,,,,2023-02-10,1,,,,,テンクウ,0
1861,8010901052503,新規,0,2023-02-10,2023-02-10,株式会社ＩＫＥ,,株式会社,東京都,世田谷区,砧７丁目１８番２６－３２０２号,,13,112,1570073,,,,,,,2023-02-10,1,,,,,アイク,0
1866,8011001152375,新規,0,2023-02-10,2023-02-10,株式会社ｋｙａｎｉｔｅ,,株式会社,東京都,渋谷区,渋谷２丁目１９－１５宮益坂ビルディング６０９,,13,113,1500002,,,,,,,2023-02-10,1,,,,,カヤナイト,0
1867,8011001152391,新規,0,2023-02-10,2023-02-10,株式会社Ｓｕｃｃｅｓｓｉｏｎ,,株式会社,東京都,渋谷区,神宮前２丁目１９番１６号,,13,113,1500001,,,,,,,2023-02-10,1,,,,,サクセッション,0
1868,8011001152400,新規,0,2023-02-10,2023-02-10,アズメド株式会社,,株式会社,東京都,渋谷区,渋谷２丁目１９－１５宮益坂ビルディング６０９,,13,113,1500002,,,,,,,2023-02-10,1,,,,,アズメド,0
1869,8011001152482,新規,0,2023-02-10,2023-02-10,ＴＥＡＭアライアンス株式会社,,株式会社,東京都,渋谷区,道玄坂１丁目１０番８号渋谷道玄坂東急ビル２Ｆ－Ｃ,,13,113,1500043,,,,,,,2023-02-10,1,,,,,チームアライアンス,0
1870,8011001152490,新規,0,2023-02-10,2023-02-10,株式会社Ｓ＆Ｔ　Ｓｉｂｌｉｎｇｓ,,株式会社,東京都,渋谷区,道玄坂１丁目１０番８号渋谷道玄坂東急ビル２Ｆ－Ｃ,,13,113,1500043,,,,,,,2023-02-10,1,,,,,エスアンドティーシブリングス,0
1875,8011101101810,新規,0,2023-02-10,2023-02-10,株式会社Ｓｅｌｅａｌ,,株式会社,東京都,新宿区,西新宿３丁目３番１３号西新宿水間ビル６階,,13,104,1600023,,,,,,,2023-02-10,1,,,,,シリアル,0
1877,8011103012691,新規,0,2023-02-10,2023-02-10,メディエンス合同会社,,合同会社,東京都,新宿区,西早稲田３丁目５番１３号清水ビル４０２,,13,104,1690051,,,,,,,2023-02-10,1,,,,,メディエンス,0
1880,8011401024901,新規,0,2023-02-10,2023-02-10,株式会社ＯＮプランニング,,株式会社,東京都,板橋区,赤塚２丁目４０番６号,,13,119,1750092,,,,,,,2023-02-10,1,,,,,オンプランニング,0
1888,8011601026581,新規,0,2023-02-10,2023-02-10,株式会社ピークペニンシュラ,,株式会社,東京都,練馬区,中村南１丁目３３番１３－９０２号,,13,120,1760025,,,,,,,2023-02-10,1,,,,,ピークペニンシュラ,0
1889,8011701026003,新規,0,2023-02-10,2023-02-10,株式会社ｃｏｎｄｕｃｔｏｒ．,,株式会社,東京都,江戸川区,大杉４丁目２５番３号,,13,123,1320022,,,,,,,2023-02-10,1,,,,,コンダクター,0
1893,8011801041901,新規,0,2023-02-10,2023-02-10,株式会社Ｅｎｓｕ,,株式会社,東京都,足立区,伊興４丁目１番２９号狩野ハイツ１階,,13,121,1210823,,,,,,,2023-02-10,1,,,,,,0
1902,8012703002636,新規,0,2023-02-10,2023-02-10,合同会社ステップ＆ストップ,,合同会社,東京都,東村山市,諏訪町１丁目３１番地４６,,13,213,1890021,,,,,,,2023-02-10,1,,,,,ステップアンドストップ,0
1914,8020001150181,新規,0,2023-02-10,2023-02-10,株式会社松原,,株式会社,神奈川県,横浜市西区,境之谷３２番地９,,14,103,2200054,,,,,,,2023-02-10,1,,,,,マツバラ,0
1915,8020001150223,新規,0,2023-02-10,2023-02-10,株式会社８,,株式会社,神奈川県,川崎市中原区,田尻町２９－１,,14,133,2110014,,,,,,,2023-02-10,1,,,,,エイト,0
1919,8020003023278,新規,0,2023-02-10,2023-02-10,ＲｅＬａｂ合同会社,,合同会社,神奈川県,横浜市西区,楠町１７番地２４,,14,103,2200003,,,,,,,2023-02-10,1,,,,,リラボ,0
1920,8020003023294,新規,0,2023-02-10,2023-02-10,ｎｅｔｓｔｉｌｌ合同会社,,合同会社,神奈川県,横浜市神奈川区,栄町５番地１横浜クリエーションスクエア１４階,,14,102,2210052,,,,,,,2023-02-10,1,,,,,ネットスティル,0
1921,8020003023303,新規,0,2023-02-10,2023-02-10,合同会社エルアンドエス,,合同会社,神奈川県,横浜市西区,西戸部町３丁目２８０－７３,,14,103,2200046,,,,,,,2023-02-10,1,,,,,エルアンドエス,0
1923,8021001078181,新規,0,2023-02-10,2023-02-10,ＡＮＨ　ＮＧＵＹＥＮ株式会社,,株式会社,神奈川県,伊勢原市,上粕屋４４９番地の１秋山ハイツ２０２号,,14,214,2591141,,,,,,,2023-02-10,1,,,,,アングエン,0
1927,8030001152350,新規,0,2023-02-10,2023-02-10,株式会社スマイリー１,,株式会社,埼玉県,ふじみ野市,桜ケ丘３丁目１番１９－１０５号,,11,245,3560059,,,,,,,2023-02-10,1,,,,,スマイリーワン,0
1931,8030003021157,新規,0,2023-02-10,2023-02-10,ｔ．ｗ．ｏ．合同会社,,合同会社,埼玉県,東松山市,箭弓町１丁目１３－１６安福ビル３階,,11,212,3550028,,,,,,,2023-02-10,1,,,,,ティダブリューオー,0
1937,8040001126989,新規,0,2023-02-10,2023-02-10,株式会社キラメキ,,株式会社,千葉県,船橋市,南本町３０－１９,,12,204,2730004,,,,,,,2023-02-10,1,,,,,キラメキ,0
1938,8040001127021,新規,0,2023-02-10,2023-02-10,エコマネジメントジャパン株式会社,,株式会社,千葉県,香取市,大根１６９８番地,,12,236,2870026,,,,,,,2023-02-10,1,,,,,エコマネジメントジャパン,0
1939,8040003021908,新規,0,2023-02-10,2023-02-10,ＮＡＤＨＡ　ＴＲＡＤＩＮＧ合同会社,,合同会社,千葉県,山武市,森１４８８番地２３,,12,237,2891214,,,,,,,2023-02-10,1,,,,,ナダトレーディング,0
1942,8050001052375,新規,0,2023-02-10,2023-02-10,株式会社荒井タイヤ,,株式会社,茨城県,日立市,桜川町３丁目３番１６号,,08,202,3160002,,,,,,,2023-02-10,1,,,,,アライタイヤ,0
1943,8050001052383,新規,0,2023-02-10,2023-02-10,株式会社サン・ステップホールディングス,,株式会社,茨城県,つくばみらい市,野堀４７６番地７,,08,235,3002311,,,,,,,2023-02-10,1,,,,,サンステップホールディングス,0
1945,8060001035684,新規,0,2023-02-10,2023-02-10,株式会社アイズ,,株式会社,栃木県,足利市,福居町５８７番地１,,09,202,3260338,,,,,,,2023-02-10,1,,,,,アイズ,0
1948,8070001040114,新規,0,2023-02-10,2023-02-10,Ｃ・Ｅサピエンス株式会社,,株式会社,群馬県,前橋市,三河町１丁目１番１号,,10,201,3710015,,,,,,,2023-02-10,1,,,,,シーイーサピエンス,0
1951,8080101023793,新規,0,2023-02-10,2023-02-10,株式会社結きずな,,株式会社,静岡県,沼津市,高砂町１１‐７,,22,203,4100016,,,,,,,2023-02-10,1,,,,,ユウキズナ,0
1955,8100001036141,新規,0,2023-02-10,2023-02-10,株式会社オーシーコーポレーション,,株式会社,長野県,岡谷市,赤羽３丁目７番４－１号,,20,204,3940002,,,,,,,2023-02-10,1,,,,,オーシーコーポレーション,0
1970,8120001252414,新規,0,2023-02-10,2023-02-10,株式会社ｂｏｒｄｅｒ　ｎｏｎｅ,,株式会社,大阪府,大阪市鶴見区,放出東３丁目２１番４０－２０５号,,27,124,5380044,,,,,,,2023-02-10,1,,,,,ボーダーナーン,0
1971,8120001252422,新規,0,2023-02-10,2023-02-10,株式会社アークテリア,,株式会社,大阪府,大阪市北区,黒崎町３番３号Ｋ’ｓＰｌａｃｅ２０５号室,,27,127,5300023,,,,,,,2023-02-10,1,,,,,アークテリア,0
1972,8120001252430,新規,0,2023-02-10,2023-02-10,株式会社ＳＴＡＮＣＥ,,株式会社,大阪府,大阪市中央区,久太郎町４丁目１－３大阪センタービル６Ｆ－２１２,,27,128,5410056,,,,,,,2023-02-10,1,,,,,スタンス,0
1973,8120001252439,新規,0,2023-02-10,2023-02-10,株式会社ＫＵＵ,,株式会社,大阪府,大阪市中央区,南船場２丁目４－８長堀プラザビル４階,,27,128,5420081,,,,,,,2023-02-10,1,,,,,クウ,0
1974,8120003023425,新規,0,2023-02-10,2023-02-10,アップライズ合同会社,,合同会社,大阪府,門真市,岸和田１丁目３番３４号,,27,223,5710002,,,,,,,2023-02-10,1,,,,,アップライズ,0
1978,8120101066961,新規,0,2023-02-10,2023-02-10,株式会社イグジスト,,株式会社,大阪府,貝塚市,澤３００番地１０２,,27,208,5970062,,,,,,,2023-02-10,1,,,,,イグジスト,0
1979,8120101066986,新規,0,2023-02-10,2023-02-10,株式会社谷口組,,株式会社,大阪府,貝塚市,半田１丁目７番３２号,,27,208,5970033,,,,,,,2023-02-10,1,,,,,タニグチグミ,0
1981,8120103005075,新規,0,2023-02-10,2023-02-10,合同会社ロチカスワーハ,,合同会社,大阪府,藤井寺市,川北２丁目１０番２号,,27,226,5830001,,,,,,,2023-02-10,1,,,,,ロチカスワーハ,0
1983,8120901047112,新規,0,2023-02-10,2023-02-10,株式会社ティブロス,,株式会社,大阪府,茨木市,新和町８番１６号の３,,27,211,5670855,,,,,,,2023-02-10,1,,,,,ティブロス,0
1984,8120901047120,新規,0,2023-02-10,2023-02-10,株式会社ｙｏｕｒ　ｓｉｄｅ,,株式会社,大阪府,高槻市,真上町２丁目１２番２５号高槻ロイヤルハイツ１０１号,,27,207,5691121,,,,,,,2023-02-10,1,,,,,ユアサイド,0
1986,8120903004499,新規,0,2023-02-10,2023-02-10,アイピー合同会社,,合同会社,大阪府,吹田市,山田東２丁目９番２０－７１１号,,27,205,5650821,,,,,,,2023-02-10,1,,,,,アイピー,0
1995,8130003008524,新規,0,2023-02-10,2023-02-10,グリーンコード合同会社,,合同会社,京都府,京都市西京区,桂西滝川町９番地,,26,111,6158024,,,,,,,2023-02-10,1,,,,,グリーンコード,0
1997,8140001128983,新規,0,2023-02-10,2023-02-10,株式会社国際コネクト,,株式会社,兵庫県,西脇市,野村町茜が丘１２－４,,28,213,6770057,,,,,,,2023-02-10,1,,,,,コクサイコネクト,0
1998,8140005005972,新規,0,2023-02-10,2023-02-10,農事組合法人久次栗生産組合,,その他の設立登記法人,兵庫県,三木市,口吉川町久次３７１番地,,28,215,6730758,,,,,,,2023-02-10,1,,,,,ヒサツギクリセイサンクミアイ,0
2007,8180001154844,新規,0,2023-02-10,2023-02-10,株式会社中央マーケティング,,株式会社,愛知県,名古屋市中区,丸の内２丁目１８番１４号ＬＡＮＤＳＱＵＡＲＥＭＡＲＵＮＯＵＣＨＩ８階,,23,106,4600002,,,,,,,2023-02-10,1,,,,,チュウオウマーケティング,0
2008,8180001154927,新規,0,2023-02-10,2023-02-10,株式会社ＨＳＧホールディングス,,株式会社,愛知県,名古屋市中区,千代田３丁目１５番１２号,,23,106,4600012,,,,,,,2023-02-10,1,,,,,エイチエスジーホールディングス,0
2009,8180001154935,新規,0,2023-02-10,2023-02-10,株式会社リテアテック,,株式会社,愛知県,名古屋市緑区,黒沢台２丁目３０００番地,,23,114,4580003,,,,,,,2023-02-10,1,,,,,リテアテック,0
2010,8180001154968,新規,0,2023-02-10,2023-02-10,株式会社久遠,,株式会社,愛知県,北名古屋市,徳重米野１０５番地１ウイング生田３０３,,23,234,4810038,,,,,,,2023-02-10,1,,,,,クオン,0
2011,8180001154976,新規,0,2023-02-10,2023-02-10,クアッドページ株式会社,,株式会社,愛知県,名古屋市天白区,山郷町１８番地,,23,116,4680032,,,,,,,2023-02-10,1,,,,,クアッドページ,0
2019,8180301037088,新規,0,2023-02-10,2023-02-10,株式会社ｕｎｉｃａ,,株式会社,愛知県,豊田市,平芝町３丁目９－２アクシス豊田２０７,,23,211,4710065,,,,,,,2023-02-10,1,,,,,ウニカ,0
2026,8200001040950,新規,0,2023-02-10,2023-02-10,株式会社東海地耐協,,株式会社,岐阜県,岐阜市,入舟町４丁目７－２ＡＫＡＯ　ＢＬＤＧ．２Ｆ,,21,201,5008152,,,,,,,2023-02-10,1,,,,,トウカイチタイキョウ,0
2033,8240003006021,新規,0,2023-02-10,2023-02-10,合同会社ＳＹＬＬＡ,,合同会社,広島県,広島市安芸区,中野２丁目１１番９－２－２０１号,,34,107,7390321,,,,,,,2023-02-10,1,,,,,セイラ,0
2036,8250005008799,新規,0,2023-02-10,2023-02-10,一般社団法人アイリス,,その他の設立登記法人,山口県,下松市,潮音町１丁目５番９号,,35,207,7440074,,,,,,,2023-02-10,1,,,,,アイリス,0
2046,8290001100523,新規,0,2023-02-10,2023-02-10,株式会社マルコー,,株式会社,福岡県,飯塚市,秋松７４８番地３,,40,205,8200083,,,,,,,2023-02-10,1,,,,,マルコー,0
2063,8330001030591,新規,0,2023-02-10,2023-02-10,株式会社Ｕサポート,,株式会社,熊本県,熊本市南区,城南町鰐瀬１６４２番地６６,,43,104,8614222,,,,,,,2023-02-10,1,,,,,ユウサポート,0
2066,8330003009717,新規,0,2023-02-10,2023-02-10,合同会社エンリンクス,,合同会社,熊本県,熊本市南区,城南町千町２０７０番地５,,43,104,8614235,,,,,,,2023-02-10,1,,,,,エンリンクス,0
2071,8370001049595,新規,0,2023-02-10,2023-02-10,株式会社ルートフォー,,株式会社,宮城県,東松島市,小松字上浮足１８２番地６,,04,214,9810504,,,,,,,2023-02-10,1,,,,,ルートフォー,0
2073,8380005012672,新規,0,2023-02-10,2023-02-10,特定非営利活動法人あぶくま山の暮らし研究所,,その他の設立登記法人,福島県,田村市,都路町古道字蒲生河原２６番地１,,07,211,9634701,,,,,,,2023-02-10,1,,,,,アブクマヤマノクラシケンキュウジョ,0
2080,8430001088414,新規,0,2023-02-10,2023-02-10,株式会社高翔工業,,株式会社,北海道,札幌市中央区,宮の森二条８丁目１番５６号,,01,101,0640952,,,,,,,2023-02-10,1,,,,,コウショウコウギョウ,0
2082,8440001009220,新規,0,2023-02-10,2023-02-10,啓蟄商事株式会社,,株式会社,北海道,函館市,西旭岡町３丁目１－２アシスト函館マンション２１６号,,01,202,0420915,,,,,,,2023-02-10,1,,,,,ケイチツショウジ,0
2091,8500003002976,新規,0,2023-02-10,2023-02-10,ＰＬＡＴＡＮＵＳ合同会社,,合同会社,愛媛県,松山市,萱町６丁目２２番地３,,38,201,7900813,,,,,,,2023-02-10,1,,,,,プラタナス,0
2110,9010001232888,新規,0,2023-02-10,2023-02-10,太陽不動産グループ株式会社,,株式会社,東京都,文京区,千駄木３丁目３７番４号,,13,105,1130022,,,,,,,2023-02-10,1,,,,,タイヨウフドウサングループ,0
2112,9010003039720,新規,0,2023-02-10,2023-02-10,Ｃｏｒｐｏｒａｔｉｏｎ　Ｒｅｎｏｖａｂｌｅｓ　Ｊａｐａｎ合同会社,,合同会社,東京都,中央区,勝どき６丁目３番１－２１０１号,,13,102,1040054,,,,,,,2023-02-10,1,,,,,コーポレーションレノバブレスジャパン,0
2122,9010401172338,新規,0,2023-02-10,2023-02-10,株式会社リファイネス,,株式会社,東京都,港区,赤坂４丁目８番１９号赤坂フロントタウン３階,,13,103,1070052,,,,,,,2023-02-10,1,,,,,リファイネス,0
2123,9010401172429,新規,0,2023-02-10,2023-02-10,株式会社ｚｉｌｃｈ,,株式会社,東京都,港区,赤坂２丁目１７番６３号コンフォリア赤坂８０１,,13,103,1070052,,,,,,,2023-02-10,1,,,,,ヂルチ,0
2133,9010601062586,新規,0,2023-02-10,2023-02-10,株式会社ＧＲＩアーツインベストメンツ,,株式会社,東京都,江東区,木場５丁目８番４１－２０３号,,13,108,1350042,,,,,,,2023-02-10,1,,,,,ジーアールアイアーツインベストメンツ,0
2139,9010901052510,新規,0,2023-02-10,2023-02-10,Ｋｉｎｇ　Ｔｏｎｂｏ株式会社,,株式会社,東京都,世田谷区,若林２丁目５番１１号,,13,112,1540023,,,,,,,2023-02-10,1,,,,,キングトンボ,0
2161,9011001152399,新規,0,2023-02-10,2023-02-10,コスモス株式会社,,株式会社,東京都,渋谷区,円山町５番５号Ｎａｖｉ渋谷Ｖ３階,,13,113,1500044,,,,,,,2023-02-10,1,,,,,コスモス,0
2162,9011001152408,新規,0,2023-02-10,2023-02-10,ケイマック株式会社,,株式会社,東京都,目黒区,中目黒５丁目２８番１７号,,13,110,1530061,,,,,,,2023-02-10,1,,,,,ケイマック,0
2163,9011001152523,新規,0,2023-02-10,2023-02-10,インプルーブ株式会社,,株式会社,東京都,渋谷区,桜丘町２３番１７号,,13,113,1500031,,,,,,,2023-02-10,1,,,,,インプルーブ,0
2175,9011103012682,新規,0,2023-02-10,2023-02-10,合同会社Ｒｅｆｉｇｈｔ,,合同会社,東京都,新宿区,大久保３丁目２番６－４０７号,,13,104,1690072,,,,,,,2023-02-10,1,,,,,リファイト,0
2176,9011301028448,新規,0,2023-02-10,2023-02-10,Ｔａｌｅｓ＆Ｔｏｋｅｎｓ株式会社,,株式会社,東京都,杉並区,西荻北４丁目３８番８－２０９号,,13,115,1670042,,,,,,,2023-02-10,1,,,,,テイルズアンドトークンズ,0
2181,9011701026002,新規,0,2023-02-10,2023-02-10,株式会社ＳＰＣ,,株式会社,東京都,江戸川区,東小岩２丁目６番１４－３０２号,,13,123,1330052,,,,,,,2023-02-10,1,,,,,エスピーシー,0
2183,9011801041909,新規,0,2023-02-10,2023-02-10,ＴＨＥ　ＲＯＯＴ　ＢＥＥＲ　ＪＯＵＲＮＥＹ株式会社,,株式会社,東京都,葛飾区,東四つ木４丁目５番２号２階,,13,122,1240014,,,,,,,2023-02-10,1,,,,,ザルートビアジャーニー,0
2184,9011801041917,新規,0,2023-02-10,2023-02-10,株式会社インテリアララ,,株式会社,東京都,足立区,東保木間２丁目１２番９－１０６号,,13,121,1210063,,,,,,,2023-02-10,1,,,,,インテリアララ,0
2188,9012301013308,新規,0,2023-02-10,2023-02-10,株式会社芯成建築,,株式会社,東京都,町田市,成瀬が丘３丁目１７３０番地３コンホートＮ・Ａ号室,,13,209,1940011,,,,,,,2023-02-10,1,,,,,シンセイケンチク,0
2191,9012403005822,新規,0,2023-02-10,2023-02-10,合同会社じゅりふう,,合同会社,東京都,武蔵野市,吉祥寺本町１丁目１３番２号シラカバビル５階,,13,203,1800004,,,,,,,2023-02-10,1,,,,,ジュリフウ,0
2193,9012801022139,新規,0,2023-02-10,2023-02-10,株式会社オクテック,,株式会社,東京都,国分寺市,西元町２丁目１６番３４号,,13,214,1850023,,,,,,,2023-02-10,1,,,,,オクテック,0
2202,9020001150222,新規,0,2023-02-10,2023-02-10,株式会社アイデックス,,株式会社,神奈川県,横浜市西区,北幸２丁目１０－２８,,14,103,2200004,,,,,,,2023-02-10,1,,,,,アイデックス,0
2203,9020001150230,新規,0,2023-02-10,2023-02-10,Ｏｐｅｒｏ株式会社,,株式会社,神奈川県,横浜市西区,みなとみらい３丁目７番１号,,14,103,2200012,,,,,,,2023-02-10,1,,,,,オペロ,0
2204,9020001150239,新規,0,2023-02-10,2023-02-10,株式会社Ｅｕｐｈｏｒｉａ,,株式会社,神奈川県,川崎市高津区,溝口２丁目１７番３０－１０８号イクシア溝の口,,14,134,2130001,,,,,,,2023-02-10,1,,,,,ユーフォリア,0
2205,9020003023293,新規,0,2023-02-10,2023-02-10,合同会社関内産業,,合同会社,神奈川県,横浜市中区,尾上町４丁目５６番地２－９Ｆ,,14,104,2310015,,,,,,,2023-02-10,1,,,,,カンナイサンギョウ,0
2206,9020003023302,新規,0,2023-02-10,2023-02-10,ＦＣＭ　ＧＲＯＵＰ合同会社,,合同会社,神奈川県,横浜市金沢区,六浦東１丁目３７番３０号,,14,108,2360037,,,,,,,2023-02-10,1,,,,,エフシーエムグループ,0
2210,9021001078189,新規,0,2023-02-10,2023-02-10,株式会社一踏,,株式会社,神奈川県,平塚市,四之宮３丁目１１番１４号,,14,203,2540014,,,,,,,2023-02-10,1,,,,,イット,0
2220,9030001152325,新規,0,2023-02-10,2023-02-10,株式会社Ｍ．Ｓ．Ｉｎｔｅｒｎａｔｉｏｎａｌ,,株式会社,埼玉県,深谷市,矢島９２６－１,,11,218,3660839,,,,,,,2023-02-10,1,,,,,エムエスインターナショナル,0
2221,9030001152333,新規,0,2023-02-10,2023-02-10,株式会社オフィスマート,,株式会社,埼玉県,所沢市,東町１０番１８号グリーンビル３Ｆ,,11,208,3591116,,,,,,,2023-02-10,1,,,,,オフィスマート,0
2222,9030001152341,新規,0,2023-02-10,2023-02-10,青木友雪株式会社,,株式会社,埼玉県,戸田市,中町１丁目６－１６,,11,224,3350012,,,,,,,2023-02-10,1,,,,,アオキトモユキ,0
2223,9030001152374,新規,0,2023-02-10,2023-02-10,株式会社縁,,株式会社,埼玉県,川越市,大字下小坂９９４番地１１,,11,201,3500812,,,,,,,2023-02-10,1,,,,,エニシ,0
2224,9030001152390,新規,0,2023-02-10,2023-02-10,株式会社ヒロミコーポレーション,,株式会社,埼玉県,さいたま市桜区,大字神田１８３番地１,,11,106,3380812,,,,,,,2023-02-10,1,,,,,ヒロミコーポレーション,0
2227,9030003021156,新規,0,2023-02-10,2023-02-10,コクサイファミリア合同会社,,合同会社,埼玉県,さいたま市緑区,東浦和２丁目４番地１２県営井沼方団地２号棟４０６号室,,11,109,3360926,,,,,,,2023-02-10,1,,,,,コクサイファミリア,0
2235,9040001127004,新規,0,2023-02-10,2023-02-10,Ｍ’ｓＡＤＶＡＮＣＥ株式会社,,株式会社,千葉県,千葉市若葉区,中野町１２７７番地１,,12,104,2650051,,,,,,,2023-02-10,1,,,,,エムズアドヴァンス,0
2236,9040001127020,新規,0,2023-02-10,2023-02-10,株式会社ＪＣＴ国際,,株式会社,千葉県,松戸市,金ケ作４０８番地の１８８冨澤ビル２０２号,,12,207,2702251,,,,,,,2023-02-10,1,,,,,ジェイシーティーコクサイ,0
2237,9040001127029,新規,0,2023-02-10,2023-02-10,株式会社ＣＯＲ,,株式会社,千葉県,船橋市,丸山５丁目３５番１－５１３号,,12,204,2730048,,,,,,,2023-02-10,1,,,,,コル,0
2243,9040003021915,新規,0,2023-02-10,2023-02-10,ＦＡＣＴＹ合同会社,,合同会社,千葉県,野田市,尾崎台４０番地の８,,12,208,2700238,,,,,,,2023-02-10,1,,,,,ファクティー,0
2245,9050001052382,新規,0,2023-02-10,2023-02-10,万達株式会社,,株式会社,茨城県,土浦市,大畑１６０５－９,,08,203,3004111,,,,,,,2023-02-10,1,,,,,バンダツ,0
2246,9050001052390,新規,0,2023-02-10,2023-02-10,ＨＥＬＵＸ・ＪＡＰＡＮ株式会社,,株式会社,茨城県,稲敷市,椎塚１７１２,,08,229,3000512,,,,,,,2023-02-10,1,,,,,ヘルクスジャパン,0
2256,9070001040113,新規,0,2023-02-10,2023-02-10,株式会社Ｇｒｅｅｎ　Ｌｏｔｕｓ,,株式会社,群馬県,伊勢崎市,今泉町１丁目１４８９番地１,,10,204,3720031,,,,,,,2023-02-10,1,,,,,グリーンロータス,0
2263,9090001017976,新規,0,2023-02-10,2023-02-10,株式会社ＫＡＣＨＩＫＡＮ,,株式会社,山梨県,甲府市,国玉町９７６番地２,,19,201,4000815,,,,,,,2023-02-10,1,,,,,カチカン,0
2266,9100005012971,新規,0,2023-02-10,2023-02-10,一般社団法人ＡＬＰＳ　ＯＵＴＤＯＯＲ　ＳＵＭＭＩＴ,,その他の設立登記法人,長野県,松本市,宮渕１丁目３番３０号,,20,202,3900862,,,,,,,2023-02-10,1,,,,,アルプスアウトドアサミット,0
2269,9110001037294,新規,0,2023-02-10,2023-02-10,株式会社コネクト,,株式会社,新潟県,新潟市西区,五十嵐１の町６６８２番地５,,15,107,9502101,,,,,,,2023-02-10,1,,,,,コネクト,0
2270,9110005016897,新規,0,2023-02-10,2023-02-10,新潟カメラ写真事業協同組合,,その他の設立登記法人,新潟県,新潟市中央区,女池南１丁目３番２号,,15,103,9500948,,,,,,,2023-02-10,1,,,,,ニイガタカメラシャシンジギョウ,0
2291,9120001252215,新規,0,2023-02-10,2023-02-10,株式会社エステック,,株式会社,大阪府,大阪市旭区,生江３丁目２番１２号,,27,117,5350004,,,,,,,2023-02-10,1,,,,,エステック,0
2292,9120001252330,新規,0,2023-02-10,2023-02-10,エアーラボ株式会社,,株式会社,大阪府,大阪市北区,梅田１丁目２番２号大阪駅前第２ビル１２－１２,,27,127,5300001,,,,,,,2023-02-10,1,,,,,エアーラボ,0
2293,9120001252413,新規,0,2023-02-10,2023-02-10,ＭＥＤＩＵＶ株式会社,,株式会社,大阪府,大阪市北区,梅田２丁目２番２号ヒルトンプラザウエストオフィスタワー１９階,,27,127,5300001,,,,,,,2023-02-10,1,,,,,メディウヴ,0
2294,9120001252446,新規,0,2023-02-10,2023-02-10,スメラギ・アライアンス株式会社,,株式会社,大阪府,大阪市浪速区,敷津西２丁目１２番１７号タイホウハイツ敷津４番館９０５号室,,27,111,5560015,,,,,,,2023-02-10,1,,,,,スメラギアライアンス,0
2302,9120101066985,新規,0,2023-02-10,2023-02-10,株式会社ＳＨＡＲＫ,,株式会社,大阪府,堺市北区,北花田町１丁１０番地３９,,27,146,5918002,,,,,,,2023-02-10,1,,,,,シャーク,0
2304,9120103005074,新規,0,2023-02-10,2023-02-10,合同会社メロディー,,合同会社,大阪府,富田林市,川面町１丁目１０番１３号,,27,214,5840014,,,,,,,2023-02-10,1,,,,,メロディー,0
2307,9120903004498,新規,0,2023-02-10,2023-02-10,合同会社ホルン・コンサルティング,,合同会社,大阪府,吹田市,千里山西６丁目３４番２－７１０号,,27,205,5650851,,,,,,,2023-02-10,1,,,,,ホルンコンサルティング,0
2316,9130001073668,新規,0,2023-02-10,2023-02-10,アセッツザスカイ株式会社,,株式会社,京都府,京都市下京区,下魚棚通堀川西入南八百屋町３３４番地,,26,106,6008251,,,,,,,2023-02-10,1,,,,,アセッツザスカイ,0
2323,9130005016697,新規,0,2023-02-10,2023-02-10,アイネックスＨＲサポート社会保険労務士法人,,その他の設立登記法人,京都府,京都市下京区,烏丸通四条下る水銀屋町６２０ＣＯＣＯＮ烏丸５Ｆ,,26,106,6008411,,,,,,,2023-02-10,1,,,,,アイネックスエイチアールサポート,0
2324,9140001129089,新規,0,2023-02-10,2023-02-10,株式会社ソウルオブジアース,,株式会社,兵庫県,神戸市中央区,熊内町２丁目６番２０号ファゼンダ７８（３０７号）,,28,110,6510056,,,,,,,2023-02-10,1,,,,,ソウルオブジアース,0
2330,9180001154901,新規,0,2023-02-10,2023-02-10,株式会社緑機工,,株式会社,愛知県,豊明市,新田町中ノ割１５１番地１３,,23,229,4701112,,,,,,,2023-02-10,1,,,,,ミドリキコウ,0
2354,9290001100415,新規,0,2023-02-10,2023-02-10,ＧＥＴ　ＦＲＥＳＨ株式会社,,株式会社,福岡県,福岡市東区,香椎１丁目１０－５メゾン・ド・香椎参道２０５号室,,40,131,8130011,,,,,,,2023-02-10,1,,,,,ゲットフレッシュ,0
2357,9290005018950,新規,0,2023-02-10,2023-02-10,医療法人優純会,,その他の設立登記法人,福岡県,宗像市,くりえいと１丁目５番７号,,40,220,8114184,,,,,,,2023-02-10,1,,,,,ユウジュンカイ,0
2359,9290801029275,新規,0,2023-02-10,2023-02-10,リッチグッド株式会社,,株式会社,福岡県,北九州市八幡東区,枝光１丁目２番４号,,40,108,8050002,,,,,,,2023-02-10,1,,,,,リッチグッド,0
2366,9360001031537,新規,0,2023-02-10,2023-02-10,株式会社マインドチャレンジ,,株式会社,沖縄県,浦添市,牧港２丁目３４番１８号,,47,208,9012131,,,,,,,2023-02-10,1,,,,,マインドチャレンジ,0
2367,9360001031553,新規,0,2023-02-10,2023-02-10,コーラルハウジング株式会社,,株式会社,沖縄県,うるま市,石川伊波９９３番地,,47,213,9041115,,,,,,,2023-02-10,1,,,,,コーラルハウジング,0
2369,9370001049586,新規,0,2023-02-10,2023-02-10,株式会社アサンジャパン,,株式会社,宮城県,仙台市青葉区,本町１丁目１２番１２号,,04,101,9800014,,,,,,,2023-02-10,1,,,,,アサンジャパン,0
2378,9430003014730,新規,0,2023-02-10,2023-02-10,合同会社Ｐｏｎｔａｎｉ,,合同会社,北海道,札幌市北区,北二十一条西２丁目２番２３－２０１号,,01,102,0010021,,,,,,,2023-02-10,1,,,,,ポンタニ,0
2379,9450003002295,新規,0,2023-02-10,2023-02-10,合同会社Ｃｒｅｄｏ,,合同会社,北海道,旭川市,常盤通２丁目１９７１－２２ミナミ石油旭川ビル４階,,01,204,0700043,,,,,,,2023-02-10,1,,,,,クレド,0
