sequenceNumber,corporateNumber,process,correct,updateDate,changeDate,name,nameImageId,kind,prefectureName,cityName,streetNumber,addressImageId,prefectureCode,cityCode,postCode,addressOutside,addressOutsideImageId,closeDate,closeCause,successorCorporateNumber,changeCause,assignmentDate,latest,enName,enPrefectureName,enCityName,enAddressOutside,furigana,hihyoji
40,1011001064750,登記記録の閉鎖等,0,2022-11-11,2022-10-31,株式会社モンスターラボＢＸ,,株式会社,東京都,渋谷区,広尾１丁目１番３９号恵比寿プライムスクエアタワー４Ｆ,,13,113,1500012,,,2022-10-31,清算の結了等,,,2015-10-05,1,,,,,,0
53,1011003004151,登記記録の閉鎖等,0,2022-11-11,2022-11-04,合同会社プリマヴェーラ,,合同会社,東京都,渋谷区,代官山町２０番９号,,13,113,1500034,,,2022-11-04,清算の結了等,,,2015-10-05,1,,,,,プリマヴェーラ,0
54,1011003005521,登記記録の閉鎖等,0,2022-11-11,2022-11-04,カッティングエッジ合同会社,,合同会社,東京都,渋谷区,代官山町２０番９号,,13,113,1500034,,,2022-11-04,清算の結了等,,,2015-10-05,1,,,,,カッティングエッジ,0
55,1011003007914,登記記録の閉鎖等,0,2022-11-11,2022-11-04,アルファ・リーシング合同会社,,合同会社,東京都,渋谷区,代官山町２０番９号,,13,113,1500034,,,2022-11-04,清算の結了等,,,2017-08-02,1,,,,,アルファリーシング,0
59,1011101019431,登記記録の閉鎖等,0,2022-11-11,2022-11-09,株式会社ベルエア,,株式会社,東京都,新宿区,西新宿３丁目２０番２号,,13,104,1600023,,,2022-11-09,清算の結了等,,,2015-10-05,1,,,,,ベルエア,0
64,1011201004069,登記記録の閉鎖等,0,2022-11-11,2022-11-09,株式会社日本ゴーエル,,株式会社,東京都,中野区,弥生町２丁目４１番地１０号,,13,114,1640013,,,2022-11-09,清算の結了等,,,2015-10-05,1,,,,,ニホンゴーエル,0
75,1011801002281,登記記録の閉鎖等,0,2022-11-11,2022-11-08,進和基礎工業株式会社,,株式会社,東京都,葛飾区,亀有５丁目１９番５号,,13,122,1250061,,,2022-11-08,合併による解散等,4230001001111,令和４年１１月１日富山市堀川町４６４番地の２三和ボーリング株式会社（4230001001111）に合併し解散,2015-10-05,1,,,,,シンワキソコウギョウ,0
79,1011801032642,登記記録の閉鎖等,0,2022-11-11,2022-11-09,株式会社りんりん,,株式会社,東京都,足立区,千住中居町１７番１４号,,13,121,1200035,,,2022-11-09,清算の結了等,,,2016-12-13,1,,,,,,0
87,1012701011224,登記記録の閉鎖等,0,2022-11-11,2022-11-04,三幣美装株式会社,,株式会社,東京都,西東京市,西原町１丁目７番４－４０３号,,13,229,1880004,,,2022-11-04,清算の結了等,,,2015-10-05,1,,,,,サンペイビソウ,0
109,1030001004863,登記記録の閉鎖等,0,2022-11-11,2022-11-01,ダイゴウサービス株式会社,,株式会社,埼玉県,さいたま市浦和区,北浦和３丁目１２番８号,,11,107,3300074,,,2022-11-01,清算の結了等,,,2015-10-05,1,,,,,ダイゴウサービス,0
132,1040002079383,登記記録の閉鎖等,0,2022-11-11,2022-11-04,有限会社栄光電機サービス,,有限会社,千葉県,山武市,蓮沼ロの１７２０番地の１,,12,237,2891802,,,2022-11-04,清算の結了等,,,2015-10-05,1,,,,,エイコウデンキサービス,0
151,1060002036622,登記記録の閉鎖等,0,2022-11-11,2022-11-07,武井不動産商事有限会社,,有限会社,栃木県,足利市,丸山町６８５番地１５,,09,202,3260057,,,2022-11-07,清算の結了等,,,2015-10-05,1,,,,,タケイフドウサンショウジ,0
160,1100001028285,登記記録の閉鎖等,0,2022-11-11,2022-11-08,オリックス八ヶ岳農園株式会社,,株式会社,長野県,諏訪郡富士見町,立沢１３１２番地,,20,362,3990212,,,2022-11-08,清算の結了等,,,2015-10-05,1,,,,,オリックスヤツガタケノウエン,0
166,1120001108060,登記記録の閉鎖等,0,2022-11-11,2022-11-09,株式会社環研究所,,株式会社,大阪府,大阪市淀川区,西中島６丁目８番２０号,,27,123,5320011,,,2022-11-09,清算の結了等,,,2015-10-05,1,,,,,カンケンキュウショ,0
177,1120101049634,登記記録の閉鎖等,0,2022-11-11,2022-11-09,株式会社Ｈｉｒｏ’ｓ　Ｆａｃｔｏｒｙ,,株式会社,大阪府,富田林市,津々山台１丁目２番２７号,,27,214,5840086,,,2022-11-09,清算の結了等,,,2015-10-05,1,,,,,ヒロズファクトリー,0
200,1150003001888,登記記録の閉鎖等,0,2022-11-11,2022-11-07,エイジングラボＫ合同会社,,合同会社,奈良県,生駒市,さつき台２丁目４５０番地１３３,,29,209,6300221,,,2022-11-07,清算の結了等,,,2019-02-14,1,,,,,エイジングラボケイ,0
215,1180302016056,登記記録の閉鎖等,0,2022-11-11,2022-11-04,有限会社山本保険事務所,,有限会社,愛知県,蒲郡市,形原町上音羽２７番地,,23,214,4430104,,,2022-11-04,清算の結了等,,,2015-10-05,1,,,,,ヤマモトホケンジムショ,0
218,1190001015218,登記記録の閉鎖等,0,2022-11-11,2022-11-10,杉本建設株式会社,,株式会社,三重県,四日市市,中村町１６３３番地,,24,202,5128044,,,2022-11-10,清算の結了等,,,2015-10-05,1,,,,,スギモトケンセツ,0
220,1190001028418,登記記録の閉鎖等,0,2022-11-11,2022-11-02,株式会社一耕,,株式会社,三重県,津市,柳山津興３２１番地３,,24,201,5140803,,,2022-11-02,清算の結了等,,,2021-06-15,1,,,,,イッコウ,0
223,1190005011015,登記記録の閉鎖等,0,2022-11-11,2022-11-08,特定非営利活動法人ｌｏｖｅ　ｔｒｉｎｉｔｙ,,その他の設立登記法人,三重県,多気郡明和町,大字濱田２１８番地,,24,442,5150351,,,2022-11-08,清算の結了等,,,2017-02-02,1,,,,,ラブトリニティ,0
237,1260002014814,登記記録の閉鎖等,0,2022-11-11,2022-11-10,有限会社牧本,,有限会社,岡山県,岡山市北区,丸の内１丁目７番１０号,,33,101,7000823,,,2022-11-10,清算の結了等,,,2015-10-05,1,,,,,マキモト,0
240,1290001073718,登記記録の閉鎖等,0,2022-11-11,2022-10-31,株式会社ビッグマート,,株式会社,福岡県,福岡市博多区,博多駅前１丁目２１番２８号,,40,132,8120011,,,2022-10-31,合併による解散等,7010401024061,令和４年１０月１日東京都港区芝二丁目３２番１号株式会社長谷工コーポレーション（7010401024061）に合併し解散,2016-04-22,1,,,,,ビッグマート,0
242,1290805005370,登記記録の閉鎖等,0,2022-11-11,2022-11-09,特定非営利活動法人わんぱくハウス,,その他の設立登記法人,福岡県,直方市,大字植木２１６０番地１,,40,204,8220031,,,2022-11-09,清算の結了等,,,2015-10-05,1,,,,,ワンパクハウス,0
254,1350001011555,登記記録の閉鎖等,0,2022-11-11,2022-11-08,株式会社山地商会,,株式会社,宮崎県,西都市,下妻１６番地,,45,208,8810014,,,2022-11-08,清算の結了等,,,2015-10-05,1,,,,,ヤマジショウカイ,0
263,1380002026938,登記記録の閉鎖等,0,2022-11-11,2022-11-04,有限会社鳶建根本組,,有限会社,福島県,いわき市,平中神谷字北鳥沼５番地の２,,07,204,9708021,,,2022-11-04,清算の結了等,,,2015-10-05,1,,,,,トビケンネモトグミ,0
279,1470002017770,登記記録の閉鎖等,0,2022-11-11,2022-11-09,有限会社木村商会,,有限会社,香川県,さぬき市,大川町富田中２１２７番地,,37,206,7610902,,,2022-11-09,清算の結了等,,,2015-10-05,1,,,,,キムラショウカイ,0
280,1500001017157,登記記録の閉鎖等,0,2022-11-11,2022-11-08,進成土木株式会社,,株式会社,愛媛県,松山市,畑寺３丁目１１番１号,,38,201,7900913,,,2022-11-08,合併による解散等,1100002022428,令和４年１１月１日長野県松本市波田２０１６番地１中信土木株式会社（1100002022428）に合併し解散,2015-10-05,1,,,,,,0
281,2010001088354,登記記録の閉鎖等,0,2022-11-11,2022-11-07,株式会社ハイライト,,株式会社,東京都,中央区,日本橋本町３丁目１番１１号,,13,102,1030023,,,2022-11-07,合併による解散等,7120001042923,令和４年１１月１日大阪市西区阿波座一丁目１３番１５号クリエイト株式会社（7120001042923）に合併し解散,2015-10-05,1,,,,,ハイライト,0
287,2010001132418,登記記録の閉鎖等,0,2022-11-11,2022-11-07,アンカー・シップ・インベストメント株式会社,,株式会社,東京都,中央区,京橋２丁目２番１号,,13,102,1040031,,,2022-11-07,清算の結了等,,,2015-10-05,1,,,,,アンカーシップインベストメント,0
292,2010001190416,登記記録の閉鎖等,0,2022-11-11,2022-11-01,パフォーマンス・マテリアルズ・ジャパン株式会社,,株式会社,東京都,品川区,東品川２丁目２番２４号,,13,109,1400002,,,2022-11-01,合併による解散等,7010703003275,令和４年１１月１日東京都品川区東品川二丁目２番２４号ダウ・ケミカル日本株式会社（7010703003275）に合併し解散,2018-03-22,1,,,,,パフォーマンスマテリアルズジャパン,0
302,2010003027574,登記記録の閉鎖等,0,2022-11-11,2022-11-07,合同会社クスノキ,,合同会社,東京都,中央区,日本橋１丁目４番１号,,13,102,1030027,,,2022-11-07,清算の結了等,,,2018-05-22,1,,,,,クスノキ,0
303,2010003029496,登記記録の閉鎖等,0,2022-11-11,2022-11-07,合同会社ＤＳＢ－３,,合同会社,東京都,中央区,日本橋１丁目４番１号,,13,102,1030027,,,2022-11-07,清算の結了等,,,2019-03-15,1,,,,,ディーエスビースリー,0
306,2010401043033,登記記録の閉鎖等,0,2022-11-11,2022-10-28,株式会社小の半,,株式会社,東京都,港区,六本木７丁目１７番２号,,13,103,1060032,,,2022-10-28,清算の結了等,,,2015-10-05,1,,,,,オノハン,0
308,2010401103431,登記記録の閉鎖等,0,2022-11-11,2022-11-09,株式会社中央合同総合事務所,,株式会社,東京都,新宿区,新宿１丁目３６番２号新宿第七葉山ビル３階,,13,104,1600022,,,2022-11-09,清算の結了等,,,2015-10-05,1,,,,,チュウオウゴウドウソウゴウジムショ,0
319,2010403024287,登記記録の閉鎖等,0,2022-11-11,2022-10-28,合同会社ＥＷＡ,,合同会社,東京都,港区,南青山５丁目１１番９号レキシントン青山３階,,13,103,1070062,,,2022-10-28,清算の結了等,,,2020-12-10,1,,,,,イーダブリューエー,0
320,2010403026218,登記記録の閉鎖等,0,2022-11-11,2022-10-27,ノーザンクリエイション合同会社,,合同会社,東京都,港区,南青山２丁目２番１５号ウィン青山９４２,,13,103,1070062,,,2022-10-27,清算の結了等,,,2021-09-29,1,,,,,ノーザンクリエイション,0
329,2010801006060,登記記録の閉鎖等,0,2022-11-11,2022-11-01,成興商事株式会社,,株式会社,東京都,大田区,東雪谷３丁目１９番１０号,,13,111,1450065,,,2022-11-01,合併による解散等,1010801006623,令和４年１１月１日東京都大田区東雪谷三丁目１９番１０号株式会社大成製作所（1010801006623）に合併し解散,2015-10-05,1,,,,,セイコウショウジ,0
337,2010903001496,登記記録の閉鎖等,0,2022-11-11,2022-11-08,合同会社せたがや生活サポート,,合同会社,東京都,世田谷区,下馬３丁目３２番９号,,13,112,1540002,,,2022-11-08,清算の結了等,,,2015-10-05,1,,,,,セタガヤセイカツサポート,0
339,2011001118506,登記記録の閉鎖等,0,2022-11-11,2022-11-01,株式会社Ｃｏｄｅ　ａｎｄ　Ｗｉｓｅ　Ｃｏｍｐａｎｙ,,株式会社,東京都,新宿区,新宿１丁目１番１４号,,13,104,1600022,,,2022-11-01,合併による解散等,5011101092755,令和４年１１月１日東京都新宿区新宿一丁目１番１４号株式会社Ｓｕｐｅｒ　Ｓｑｕａｌｌ　Ｅｎｔｅｒｔａｉｎｍｅｎｔ（5011101092755）に合併し解散,2017-09-27,1,,,,,コードアンドワイズカンパニー,0
354,2011102003904,登記記録の閉鎖等,0,2022-11-11,2022-11-09,有限会社クリエイターズカンパニーミカミ,,有限会社,東京都,新宿区,住吉町９番１号,,13,104,1620065,,,2022-11-09,清算の結了等,,,2015-10-05,1,,,,,クリエイターズカンパニーミカミ,0
378,2012803001353,登記記録の閉鎖等,0,2022-11-11,2022-11-01,からなしホーム合同会社,,合同会社,東京都,国立市,富士見台１丁目４８番地の２８,,13,215,1860003,,,2022-11-01,合併による解散等,3012803001352,令和４年１１月１日東京都国立市富士見台一丁目４８番地の２８合同会社ストリームワン（3012803001352）に合併し解散,2015-10-29,1,,,,,カラナシホーム,0
387,2020001061649,登記記録の閉鎖等,0,2022-11-11,2022-11-04,株式会社神明,,株式会社,神奈川県,横浜市港南区,最戸２丁目２０番３４号,,14,111,2330008,,,2022-11-04,清算の結了等,,,2015-10-05,1,,,,,シンメイ,0
395,2020002047060,登記記録の閉鎖等,0,2022-11-11,2022-10-28,有限会社ヨシデン,,有限会社,神奈川県,横浜市都筑区,東山田町１５８３番地,,14,118,2240024,,,2022-10-28,清算の結了等,,,2015-10-05,1,,,,,ヨシデン,0
396,2020002069996,登記記録の閉鎖等,0,2022-11-11,2022-11-04,有限会社ヒカリ総合設備,,有限会社,神奈川県,横浜市泉区,下和泉１丁目１０番２２号,,14,116,2450021,,,2022-11-04,清算の結了等,,,2015-10-05,1,,,,,ヒカリソウゴウセツビ,0
431,2040001060079,登記記録の閉鎖等,0,2022-11-11,2022-11-01,株式会社粕谷商事,,株式会社,千葉県,長生郡白子町,五井２６５８番地５,,12,424,2994211,,,2022-11-01,清算の結了等,,,2015-10-05,1,,,,,カスヤショウジ,0
448,2060005007917,登記記録の閉鎖等,0,2022-11-11,2022-11-04,特定非営利活動法人とちぎの木で家をつくる会,,その他の設立登記法人,栃木県,宇都宮市,新里町丁２７７番地１,,09,201,3212118,,,2022-11-04,清算の結了等,,,2015-10-05,1,,,,,トチギノキデイエヲツクルカイ,0
452,2070003004345,登記記録の閉鎖等,0,2022-11-11,2022-11-07,合同会社カリカマイ,,合同会社,群馬県,前橋市,南町３丁目５０番地２,,10,201,3710805,,,2022-11-07,清算の結了等,,,2021-12-27,1,,,,,カリカマイ,0
501,2140002039161,登記記録の閉鎖等,0,2022-11-11,2022-11-08,有限会社ピアノサロンチャイム,,有限会社,兵庫県,養父市,八鹿町宿南１０１番地の３,,28,222,6670003,,,2022-11-08,清算の結了等,,,2015-10-05,1,,,,,ピアノサロンチャイム,0
506,2160002011531,登記記録の閉鎖等,0,2022-11-11,2022-11-09,有限会社松井レンタカー,,有限会社,滋賀県,高島市,今津町桜町２丁目１０番地５,,25,212,5201632,,,2022-11-09,清算の結了等,,,2015-10-05,1,,,,,マツイレンタカー,0
523,2180005015544,登記記録の閉鎖等,0,2022-11-11,2022-11-09,特定非営利活動法人津島山車祭連盟,,その他の設立登記法人,愛知県,津島市,江川町２丁目１４３番地,,23,208,4960867,,,2022-11-09,清算の結了等,,,2015-10-05,1,,,,,ツシマダシマツリレンメイ,0
526,2180301029470,登記記録の閉鎖等,0,2022-11-11,2022-11-02,ＹＫテック株式会社,,株式会社,愛知県,高浜市,新田町５丁目１番地８,,23,227,4441301,,,2022-11-02,清算の結了等,,,2016-08-08,1,,,,,ワイケイテック,0
528,2190002009424,登記記録の閉鎖等,0,2022-11-11,2022-11-04,有限会社西井建築板金,,有限会社,三重県,伊勢市,二見町山田原２９５番地,,24,203,5190604,,,2022-11-04,清算の結了等,,,2015-10-05,1,,,,,ニシイケンチクバンキン,0
529,2190002014531,登記記録の閉鎖等,0,2022-11-11,2022-11-04,有限会社みなみ,,有限会社,三重県,松阪市,宮町堂の後１４１番地の５,,24,204,5150015,,,2022-11-04,清算の結了等,,,2015-10-05,1,,,,,ミナミ,0
532,2190005006121,登記記録の閉鎖等,0,2022-11-11,2022-11-08,特定非営利活動法人Ａｒｔｓ　Ｐｌａｎｅｔ　Ｐｌａｎ　ｆｒｏｍ　ＩＧＡ,,その他の設立登記法人,三重県,伊賀市,伊勢路字青山１３８１番地の７７,,24,216,5180205,,,2022-11-08,清算の結了等,,,2015-10-05,1,,,,,アーツプラネットプランフロームイガ,0
546,2250001000749,登記記録の閉鎖等,0,2022-11-11,2022-11-07,株式会社宮野造園,,株式会社,山口県,山口市,宮野上３４３１番地,,35,203,7530001,,,2022-11-07,清算の結了等,,,2015-10-05,1,,,,,ミヤノゾウエン,0
596,2460001001981,登記記録の閉鎖等,0,2022-11-11,2022-11-08,株式会社脇工務店,,株式会社,北海道,釧路市,南大通３丁目３番５号,,01,206,0850841,,,2022-11-08,清算の結了等,,,2015-10-05,1,,,,,ワキコウムテン,0
613,3010001197939,登記記録の閉鎖等,0,2022-11-11,2022-10-28,ＪＢ不動産株式会社,,株式会社,東京都,港区,北青山１丁目２番３号,,13,103,1070061,,,2022-10-28,清算の結了等,,,2019-01-23,1,,,,,ジェイビーフドウサン,0
623,3010401055738,登記記録の閉鎖等,0,2022-11-11,2022-11-01,スクレーパー開発株式会社,,株式会社,千葉県,千葉市花見川区,長作町１２３１番地５２,,12,102,2620044,,,2022-11-01,清算の結了等,,,2015-10-05,1,,,,,スクレーパーカイハツ,0
657,3011001132720,登記記録の閉鎖等,0,2022-11-11,2022-11-07,株式会社シーラコミュニティー,,株式会社,東京都,渋谷区,広尾１丁目１番３９号,,13,113,1500012,,,2022-11-07,清算の結了等,,,2020-03-06,1,,,,,シーラコミュニティー,0
692,3012402000598,登記記録の閉鎖等,0,2022-11-11,2022-11-08,有限会社奥平,,有限会社,東京都,府中市,八幡町２丁目１５番地の１２,,13,206,1830016,,,2022-11-08,清算の結了等,,,2015-10-05,1,,,,,オクヒラ,0
707,3020001063982,登記記録の閉鎖等,0,2022-11-11,2022-11-04,共進運送株式会社,,株式会社,神奈川県,川崎市多摩区,長沢４丁目４１番１５号,,14,135,2140035,,,2022-11-04,清算の結了等,,,2015-10-05,1,,,,,キョウシンウンソウ,0
709,3020001093278,登記記録の閉鎖等,0,2022-11-11,2022-11-07,株式会社アメトマラボコンサルティング,,株式会社,神奈川県,横浜市西区,平沼１丁目４０番２５－８０７号,,14,103,2200023,,,2022-11-07,清算の結了等,,,2015-10-05,1,,,,,アメトマラボコンサルティング,0
714,3020002052142,登記記録の閉鎖等,0,2022-11-11,2022-11-07,有限会社橋本トータルプランニング,,有限会社,神奈川県,横浜市金沢区,釜利谷西１丁目４４番１７号,,14,108,2360046,,,2022-11-07,清算の結了等,,,2015-10-05,1,,,,,,0
741,3030002095958,登記記録の閉鎖等,0,2022-11-11,2022-11-02,有限会社鈴木製麺工場,,有限会社,埼玉県,東松山市,大字柏崎２９番地,,11,212,3550034,,,2022-11-02,清算の結了等,,,2015-10-05,1,,,,,スズキセイメンコウジョウ,0
776,3070001000758,登記記録の閉鎖等,0,2022-11-11,2022-11-04,株式会社河島勇商店,,株式会社,群馬県,前橋市,富士見町時沢１４５２番地２,,10,201,3710104,,,2022-11-04,清算の結了等,,,2015-10-05,1,,,,,カワシマイサムショウテン,0
777,3070001011739,登記記録の閉鎖等,0,2022-11-11,2022-11-01,近藤樹脂工業株式会社,,株式会社,群馬県,富岡市,妙義町下高田１１０番地６,,10,210,3702412,,,2022-11-01,合併による解散等,6070001009607,令和４年１１月１日群馬県高崎市箕郷町柏木沢２０２３番地株式会社榛名モールド（6070001009607）に合併し解散,2015-10-05,1,,,,,コンドウジュシコウギョウ,0
806,3120101023802,登記記録の閉鎖等,0,2022-11-11,2022-11-01,福栄ロジスティクス株式会社,,株式会社,大阪府,堺市美原区,今井２９７番地,,27,147,5870061,,,2022-11-01,合併による解散等,7120101021744,令和４年１１月１日大阪府堺市美原区今井２９７番地福栄物流株式会社（7120101021744）に合併し解散,2015-10-05,1,,,,,フクエイロジスティクス,0
827,3150001000650,登記記録の閉鎖等,0,2022-11-11,2022-11-08,株式会社木村建材土木,,株式会社,奈良県,奈良市,押熊町２１３６番地,,29,201,6310011,,,2022-11-08,清算の結了等,,,2015-10-05,1,,,,,キムラケンザイドボク,0
843,3180302025534,登記記録の閉鎖等,0,2022-11-11,2022-11-07,ＨＡＮＡ計装有限会社,,有限会社,愛知県,豊田市,四郷町天道４５番地９０,,23,211,4700373,,,2022-11-07,清算の結了等,,,2015-10-05,1,,,,,ハナケイソウ,0
856,3220002010419,登記記録の閉鎖等,0,2022-11-11,2022-11-07,有限会社角谷合繊,,有限会社,石川県,小松市,村松町１４番地,,17,203,9230968,,,2022-11-07,清算の結了等,,,2015-10-05,1,,,,,カドヤゴウセン,0
875,3290802024603,登記記録の閉鎖等,0,2022-11-11,2022-11-09,有限会社ガッシュ,,有限会社,福岡県,田川郡川崎町,大字田原３２４番地の１５,,40,605,8270004,,,2022-11-09,清算の結了等,,,2015-10-05,1,,,,,ガッシュ,0
883,3330001018666,登記記録の閉鎖等,0,2022-11-11,2022-11-07,吉村水産株式会社,00097477,株式会社,熊本県,玉名市,岱明町下沖洲５１１番地３,,43,206,8690212,,,2022-11-07,清算の結了等,,,2015-10-05,1,,,,,ヨシムラスイサン,0
885,3330002011125,登記記録の閉鎖等,0,2022-11-11,2022-11-07,有限会社ユタカ商事,,有限会社,熊本県,熊本市中央区,出水７丁目７７番１３号,,43,101,8620941,,,2022-11-07,清算の結了等,,,2015-10-05,1,,,,,ユタカショウジ,0
917,3430002025164,登記記録の閉鎖等,0,2022-11-11,2022-11-01,有限会社丸倉共立商事,,有限会社,北海道,札幌市清田区,北野二条３丁目８番２８号,,01,110,0040862,,,2022-11-01,清算の結了等,,,2015-10-05,1,,,,,マルクラキョウリツショウジ,0
939,4010001156687,登記記録の閉鎖等,0,2022-11-11,2022-10-31,株式会社ＨＲＯ,,株式会社,大阪府,大阪市住之江区,南港北１丁目１３番１１号,,27,125,5590034,,,2022-10-31,合併による解散等,5010001142661,令和４年１０月１日富山市大手町２番３号株式会社ホライズン・ホテルズ（5010001142661）に合併し解散,2015-10-05,1,HRO Inc.,Osaka,"1-13-11, Nanko-kita, Suminoe ku Osaka shi",,エイチアールオー,0
966,4010701020572,登記記録の閉鎖等,0,2022-11-11,2022-11-09,株式会社ハヤセ・リミテッド,,株式会社,東京都,品川区,中延４丁目５番３号智勇第一ビル３０７号,,13,109,1420053,,,2022-11-09,清算の結了等,,,2015-10-05,1,,,,,ハヤセリミテッド,0
978,4011001137479,登記記録の閉鎖等,0,2022-11-11,2022-11-02,株式会社レナシード,,株式会社,東京都,渋谷区,神宮前６丁目１２番１８号,,13,113,1500001,,,2022-11-02,清算の結了等,,,2020-12-15,1,,,,,レナシード,0
1003,4012402000325,登記記録の閉鎖等,0,2022-11-11,2022-11-09,有限会社インテリアリーフ,,有限会社,東京都,府中市,本宿町１丁目３２番地１サンライズヒル６－４０４,,13,206,1830032,,,2022-11-09,清算の結了等,,,2015-10-05,1,,,,,インテリアリーフ,0
1010,4020002039403,登記記録の閉鎖等,0,2022-11-11,2022-11-07,有限会社中沢工業所,,有限会社,神奈川県,横浜市保土ケ谷区,上菅田町１０５番地の８,,14,106,2400051,,,2022-11-07,清算の結了等,,,2015-10-05,1,,,,,ナカザワコウギョウショ,0
1031,4030001138353,登記記録の閉鎖等,0,2022-11-11,2022-11-01,株式会社日本建物検査,,株式会社,埼玉県,和光市,下新倉１丁目１番６号,,11,229,3510111,,,2022-11-01,清算の結了等,,,2020-09-17,1,,,,,ニホンタテモノケンサ,0
1079,4100005011994,登記記録の閉鎖等,0,2022-11-11,2022-11-10,特定非営利活動法人八ヶ岳自然塾,,その他の設立登記法人,長野県,諏訪郡原村,１７２１９番地９５８,,20,363,3910100,,,2022-11-10,清算の結了等,,,2017-02-03,1,,,,,ヤツガタケシゼンジュク,0
1087,4120001128353,登記記録の閉鎖等,0,2022-11-11,2022-11-07,株式会社ハウスコミュニケーションビルダー,,株式会社,大阪府,大阪市中央区,南久宝寺町２丁目１番１号リブラ南久宝寺町１号館６階,,27,128,5410058,,,2022-11-07,清算の結了等,,,2015-10-05,1,,,,,ハウスコミュニケーションビルダー,0
1100,4120003010633,登記記録の閉鎖等,0,2022-11-11,2022-11-07,合名会社ＭＡコンサルタント,,合名会社,大阪府,大阪市北区,同心１丁目１１番５号,,27,127,5300035,,,2022-11-07,清算の結了等,,,2015-10-05,1,,,,,エムエーコンサルタント,0
1110,4130001037090,登記記録の閉鎖等,0,2022-11-11,2022-11-08,株式会社ＡＴＯＵＮ,,株式会社,奈良県,奈良市,左京６丁目５－２,,29,201,6310801,,,2022-11-08,清算の結了等,,,2015-10-05,1,,,,,アトウン,0
1111,4130001039624,登記記録の閉鎖等,0,2022-11-11,2022-11-02,株式会社マーケットプレース,,株式会社,京都府,京田辺市,山手西１丁目１４番地３,,26,211,6100355,,,2022-11-02,清算の結了等,,,2015-10-05,1,,,,,マーケットプレース,0
1112,4130001060076,登記記録の閉鎖等,0,2022-11-11,2022-11-04,Ｆ－ＳＴＡＦＦ株式会社,,株式会社,京都府,京都市右京区,西京極新田町１５－１０,,26,108,6150874,,,2022-11-04,清算の結了等,,,2017-07-18,1,,,,,エフスタッフ,0
1114,4130002010030,登記記録の閉鎖等,0,2022-11-11,2022-11-04,有限会社辻双,00047464,有限会社,京都府,京都市東山区,渋谷通り本町東入ル二丁目下新シ町３２９,,26,105,6050000,,,2022-11-04,清算の結了等,,,2015-10-05,1,,,,,,0
1126,4150001008775,登記記録の閉鎖等,0,2022-11-11,2022-11-08,株式会社ＴＩＭＥＳ　ＤＥＳＩＧＮ　ＣＯＮＳＴＲＵＣＴＩＯＮ,,株式会社,奈良県,奈良市,北之庄西町１丁目１０番地の１０,,29,201,6308452,,,2022-11-08,清算の結了等,,,2015-10-05,1,,,,,タイムスデザインコンストラクション,0
1130,4150002008758,登記記録の閉鎖等,0,2022-11-11,2022-11-09,有限会社エステートユタカ,,有限会社,奈良県,香芝市,真美ヶ丘６丁目６番１５号,,29,210,6390223,,,2022-11-09,清算の結了等,,,2015-10-05,1,,,,,エステートユタカ,0
1135,4180001089615,登記記録の閉鎖等,0,2022-11-11,2022-11-04,株式会社ＡＡＩホールディングス,,株式会社,愛知県,名古屋市昭和区,広路町字隼人８番地,,23,107,4660834,,,2022-11-04,清算の結了等,,,2015-10-05,1,,,,,エーエーアイホールディングス,0
1149,4190001016808,登記記録の閉鎖等,0,2022-11-11,2022-11-08,鷲尾産業株式会社,,株式会社,三重県,四日市市,諏訪栄町１６番２号,,24,202,5100086,,,2022-11-08,清算の結了等,,,2015-10-05,1,,,,,ワシオサンギョウ,0
1154,4190001028076,登記記録の閉鎖等,0,2022-11-11,2022-11-02,株式会社みやび,,株式会社,三重県,津市,下弁財町津興７４５,,24,201,5140805,,,2022-11-02,清算の結了等,,,2021-02-24,1,,,,,ミヤビ,0
1157,4190002011262,登記記録の閉鎖等,0,2022-11-11,2022-11-07,有限会社エルピーガス浜島配送センター,,有限会社,三重県,志摩市,浜島町浜島７１４番地１,,24,215,5170404,,,2022-11-07,清算の結了等,,,2015-10-05,1,,,,,エルピーガスハマジマハイソウセンター,0
1190,4320002019069,登記記録の閉鎖等,0,2022-11-11,2022-11-09,有限会社コスモハイテク,,有限会社,大分県,日田市,大字友田２１０４番地の１,,44,204,8770000,,,2022-11-09,清算の結了等,,,2015-10-05,1,,,,,コスモハイテク,0
1198,4360001015429,登記記録の閉鎖等,0,2022-11-11,2022-11-02,株式会社朝日,,株式会社,沖縄県,那覇市,泉崎１丁目２１番２号泉崎ビル２０３,,47,201,9000021,,,2022-11-02,清算の結了等,,,2015-10-05,1,,,,,,0
1202,4380002031415,登記記録の閉鎖等,0,2022-11-11,2022-11-04,有限会社小原魚店,,有限会社,福島県,会津若松市,駅前町４番１１号,,07,202,9650041,,,2022-11-04,清算の結了等,,,2015-10-05,1,,,,,オバラウオテン,0
1206,4420002020000,登記記録の閉鎖等,0,2022-11-11,2022-11-07,有限会社むつオートサービス,,有限会社,青森県,むつ市,大曲３丁目６番１５号,,02,208,0350042,,,2022-11-07,清算の結了等,,,2015-10-05,1,,,,,,0
1209,4430001012848,登記記録の閉鎖等,0,2022-11-11,2022-11-08,日畜フーズ株式会社,,株式会社,北海道,札幌市清田区,清田八条３丁目２番３号,,01,110,0040848,,,2022-11-08,清算の結了等,,,2015-10-05,1,,,,,ニッチクフーズ,0
1250,5010403021694,登記記録の閉鎖等,0,2022-11-11,2022-10-27,川崎ベイ不動産販売合同会社,,合同会社,東京都,港区,元赤坂１丁目１番７号,,13,103,1070051,,,2022-10-27,清算の結了等,,,2019-10-30,1,,,,,カワサキベイフドウサンハンバイ,0
1274,5011101059886,登記記録の閉鎖等,0,2022-11-11,2022-11-01,アイシー企画株式会社,,株式会社,東京都,渋谷区,代々木３丁目３１番５号,,13,113,1510053,,,2022-11-01,清算の結了等,,,2015-10-05,1,,,,,アイシーキカク,0
1285,5011203003081,登記記録の閉鎖等,0,2022-11-11,2022-11-09,合同会社ＢＵＤＤＹ,,合同会社,東京都,新宿区,西新宿４丁目２１番１８－６０１号,,13,104,1600023,,,2022-11-09,清算の結了等,,,2019-07-30,1,,,,,バディ,0
1308,5012401019803,登記記録の閉鎖等,0,2022-11-11,2022-11-07,株式会社コトノカ,,株式会社,東京都,千代田区,九段南１丁目５番地の６りそな九段ビル５Ｆ,,13,101,1020074,,,2022-11-07,清算の結了等,,,2015-10-05,1,,,,,コトノカ,0
1315,5012702001848,登記記録の閉鎖等,0,2022-11-11,2022-11-08,有限会社ムサシノスタヂオ,,有限会社,東京都,小平市,たかの台４４番６号,,13,211,1870024,,,2022-11-08,清算の結了等,,,2015-10-05,1,,,,,ムサシノスタヂオ,0
1330,5020002087046,登記記録の閉鎖等,0,2022-11-11,2022-11-04,有限会社滝沢電設,,有限会社,神奈川県,川崎市宮前区,菅生３丁目７番６号,,14,136,2160015,,,2022-11-04,清算の結了等,,,2015-10-05,1,,,,,タキザワデンセツ,0
1365,5050002022058,登記記録の閉鎖等,0,2022-11-11,2022-10-31,有限会社平成製作所,,有限会社,茨城県,つくば市,島名３６５９番地の１,,08,220,3002655,,,2022-10-31,清算の結了等,,,2015-10-05,1,,,,,ヘイセイセイサクショ,0
1371,5060001025069,登記記録の閉鎖等,0,2022-11-11,2022-11-09,株式会社パレンス,,株式会社,東京都,中央区,八重洲１丁目５番１７号八重洲香川ビルディング６Ｆ,,13,102,1030028,,,2022-11-09,合併による解散等,6070001028755,令和４年１０月３１日群馬県伊勢崎市山王町３０４番地５株式会社ホードコーポレーション（6070001028755）に合併し解散,2015-10-05,1,,,,,パレンス,0
1377,5070002028557,登記記録の閉鎖等,0,2022-11-11,2022-11-07,有限会社おざわ製作所,,有限会社,群馬県,邑楽郡邑楽町,大字篠塚２６６４番地３,,10,525,3700615,,,2022-11-07,清算の結了等,,,2022-09-30,1,,,,,オザワセイサクジョ,0
1385,5110001025625,登記記録の閉鎖等,0,2022-11-11,2022-11-07,株式会社アトロス,,株式会社,新潟県,小千谷市,城内４丁目２番２９号,,15,208,9470028,,,2022-11-07,清算の結了等,,,2015-10-05,1,,,,,,0
1426,5150003001876,登記記録の閉鎖等,0,2022-11-11,2022-11-08,合同会社Ｎ－ｓｔｙｌｅ,,合同会社,奈良県,五條市,田殿町５２５番地,,29,207,6370067,,,2022-11-08,清算の結了等,,,2019-01-16,1,,,,,エヌスタイル,0
1430,5170001011297,登記記録の閉鎖等,0,2022-11-11,2022-11-10,株式会社ユース,,株式会社,和歌山県,岩出市,山４０７番地の３,,30,209,6496258,,,2022-11-10,清算の結了等,,,2015-10-05,1,,,,,ユース,0
1449,5200001016870,登記記録の閉鎖等,0,2022-11-11,2022-11-07,ＴＯＰ技研株式会社,,株式会社,岐阜県,大垣市,和合新町１丁目１２３９番地３,,21,202,5030801,,,2022-11-07,清算の結了等,,,2015-10-05,1,,,,,トップギケン,0
1453,5250001007634,登記記録の閉鎖等,0,2022-11-11,2022-11-07,スカイテク株式会社,,株式会社,山口県,下関市,綾羅木本町７丁目１３番８号,,35,201,7510849,,,2022-11-07,清算の結了等,,,2015-10-05,1,,,,,スカイテク,0
1476,5350002007020,登記記録の閉鎖等,0,2022-11-11,2022-11-08,有限会社井上商会,,有限会社,宮崎県,東諸県郡国富町,大字本庄４０１６番地,,45,382,8801101,,,2022-11-08,清算の結了等,,,2015-10-05,1,,,,,イノウエショウカイ,0
1488,5380002016555,登記記録の閉鎖等,0,2022-11-11,2022-11-04,有限会社本田書店,,有限会社,福島県,二本松市,本町２丁目１０８番地,,07,210,9640917,,,2022-11-04,清算の結了等,,,2015-10-05,1,,,,,ホンダショテン,0
1500,5430002055275,登記記録の閉鎖等,0,2022-11-11,2022-10-31,有限会社マルキチ近藤商店,,有限会社,北海道,小樽市,色内２丁目７番６号,,01,203,0470031,,,2022-10-31,清算の結了等,,,2015-10-05,1,,,,,マルキチコンドウショウテン,0
1526,6010401069082,登記記録の閉鎖等,0,2022-11-11,2022-10-31,株式会社ＩＨＢ,,株式会社,兵庫県,神戸市中央区,下山手通２丁目１１番５号,,28,110,6500011,,,2022-10-31,合併による解散等,5010001142661,令和４年１０月１日富山市大手町２番３号株式会社ホライズン・ホテルズ（5010001142661）に合併し解散,2015-10-05,1,,,,,アイエイチビー,0
1551,6010701017212,登記記録の閉鎖等,0,2022-11-11,2022-11-02,ターボテクノサービス株式会社,,株式会社,埼玉県,鴻巣市,吹上富士見３丁目２番９号,,11,217,3690121,,,2022-11-02,清算の結了等,,,2015-10-05,1,,,,,ターボテクノサービス,0
1570,6011001123642,登記記録の閉鎖等,0,2022-11-11,2022-11-10,カリビアン貿易株式会社,,株式会社,東京都,渋谷区,恵比寿西２丁目２１－８－２０４,,13,113,1500021,,,2022-11-10,清算の結了等,,,2018-08-13,1,,,,,カリビアンボウエキ,0
1579,6011101074488,登記記録の閉鎖等,0,2022-11-11,2022-11-01,株式会社メガソーラー２８号,,株式会社,埼玉県,比企郡嵐山町,大字大蔵３８８番地,,11,342,3550222,,,2022-11-01,合併による解散等,7030001105953,令和４年１１月１日埼玉県比企郡嵐山町大字大蔵３８８番地太陽グリーンエナジー株式会社（7030001105953）に合併し解散,2015-10-05,1,,,,,メガソーラーニジュウハチゴウ,0
1609,6012302000010,登記記録の閉鎖等,0,2022-11-11,2022-11-07,有限会社吉田塗装,,有限会社,東京都,町田市,相原町４２７１番地,,13,209,1940211,,,2022-11-07,清算の結了等,,,2015-10-05,1,,,,,ヨシダトソウ,0
1636,6020002091096,登記記録の閉鎖等,0,2022-11-11,2022-10-31,有限会社脇屋塗装工業所,,有限会社,神奈川県,川崎市高津区,溝口５丁目６番１８号,,14,134,2130001,,,2022-10-31,清算の結了等,,,2015-10-05,1,,,,,ワキヤトソウコウギョウショ,0
1663,6030002026415,登記記録の閉鎖等,0,2022-11-11,2022-11-02,有限会社弥生興産,,有限会社,埼玉県,蕨市,北町１丁目５番１５号,,11,223,3350001,,,2022-11-02,清算の結了等,,,2015-10-05,1,,,,,ヤヨイコウサン,0
1676,6050002031272,登記記録の閉鎖等,0,2022-11-11,2022-11-02,有限会社日立鈴木,,有限会社,茨城県,日立市,若葉町１丁目６番１０号,,08,202,3170063,,,2022-11-02,清算の結了等,,,2015-10-05,1,,,,,ヒタチスズキ,0
1680,6060002039661,登記記録の閉鎖等,0,2022-11-11,2022-11-04,有限会社渡辺商店,,有限会社,栃木県,佐野市,天神町７１８番地１４,,09,204,3270847,,,2022-11-04,清算の結了等,,,2015-10-05,1,,,,,ワタナベショウテン,0
1685,6080001022550,登記記録の閉鎖等,0,2022-11-11,2022-11-10,株式会社ワヲン,,株式会社,静岡県,静岡市駿河区,谷田１５番１１号,,22,102,4228002,,,2022-11-10,清算の結了等,,,2018-11-16,1,,,,,ワヲン,0
1692,6100002034765,登記記録の閉鎖等,0,2022-11-11,2022-11-02,有限会社クロダ精密塗装,,有限会社,長野県,上伊那郡箕輪町,大字中箕輪１６３３８番地,,20,383,3994601,,,2022-11-02,清算の結了等,,,2015-10-05,1,,,,,クロダセイミツトソウ,0
1693,6110002011607,登記記録の閉鎖等,0,2022-11-11,2022-11-09,有限会社上原会計,,有限会社,新潟県,新潟市西蒲区,巻甲４１０１番地１,,15,108,9530041,,,2022-11-09,清算の結了等,,,2015-10-05,1,,,,,ウエハラカイケイ,0
1733,6160002014596,登記記録の閉鎖等,0,2022-11-11,2022-11-09,有限会社タケロジテック,,有限会社,滋賀県,守山市,立入町４８５番地２,,25,207,5240031,,,2022-11-09,清算の結了等,,,2015-10-05,1,,,,,タケロジテック,0
1736,6180001107176,登記記録の閉鎖等,0,2022-11-11,2022-11-08,加藤政商事株式会社,,株式会社,愛知県,あま市,乙之子十八割３１番地,,23,237,4901213,,,2022-11-08,清算の結了等,,,2015-10-05,1,,,,,カトウマサショウジ,0
1749,6180302013817,登記記録の閉鎖等,0,2022-11-11,2022-11-02,有限会社ハツザワ商会,,有限会社,愛知県,豊川市,蔵子４丁目３番地２,,23,207,4420842,,,2022-11-02,清算の結了等,,,2015-10-05,1,,,,,ハツザワショウカイ,0
1764,6230001010614,登記記録の閉鎖等,0,2022-11-11,2022-11-09,中村プレス株式会社,,株式会社,富山県,高岡市,中田４４５５番地,,16,202,9391275,,,2022-11-09,清算の結了等,,,2015-10-05,1,,,,,ナカムラプレス,0
1769,6250002000827,登記記録の閉鎖等,0,2022-11-11,2022-11-07,有限会社杉山グリーン,,有限会社,山口県,山口市,宮野上３４３２番地の３,,35,203,7530001,,,2022-11-07,清算の結了等,,,2015-10-05,1,,,,,スギヤマグリーン,0
1780,6300001003734,登記記録の閉鎖等,0,2022-11-11,2022-11-02,株式会社清己建設,,株式会社,佐賀県,佐賀市,大和町大字池上１３９６番地,,41,201,8400212,,,2022-11-02,清算の結了等,,,2015-10-05,1,,,,,キヨミケンセツ,0
1797,6370001024229,登記記録の閉鎖等,0,2022-11-11,2022-11-08,株式会社エステック,,株式会社,徳島県,徳島市,佐古二番町５番１７号豊川第１ビル２０１,,36,201,7700022,,,2022-11-08,合併による解散等,1100002022428,令和４年１１月１日長野県松本市波田２０１６番地１中信土木株式会社（1100002022428）に合併し解散,2015-10-05,1,,,,,エステック,0
1804,6380002029713,登記記録の閉鎖等,0,2022-11-11,2022-11-04,有限会社未来本陣そうま,,有限会社,福島県,相馬市,日下石字金谷７７番地の１,,07,209,9792522,,,2022-11-04,清算の結了等,,,2015-10-05,1,,,,,ミライホンジンソウマ,0
1823,6430005007966,登記記録の閉鎖等,0,2022-11-11,2022-10-31,小樽木材工芸団地協同組合,00090166,その他の設立登記法人,北海道,小樽市,新光５丁目１０番地,,01,203,0470152,,,2022-10-31,清算の結了等,,,2015-10-05,1,,,,,オタルモクザイコウゲイダンチ,0
1830,6470002010878,登記記録の閉鎖等,0,2022-11-11,2022-11-09,有限会社中讃工作,,有限会社,香川県,綾歌郡綾川町,滝宮１２３３番地の４,,37,387,7612305,,,2022-11-09,清算の結了等,,,2015-10-05,1,,,,,チュウサンコウサク,0
1835,7010001039542,登記記録の閉鎖等,0,2022-11-11,2022-11-08,株式会社フロムエーキャリア,,株式会社,東京都,中央区,銀座８丁目４番１７号,,13,102,1040061,,,2022-11-08,清算の結了等,,,2015-10-05,1,,,,,フロムエーキャリア,0
1851,7010005008584,登記記録の閉鎖等,0,2022-11-11,2022-10-28,特定非営利活動法人ナノフォトニクス工学推進機構,,その他の設立登記法人,東京都,港区,南青山５丁目１７番２号,,13,103,1070062,,,2022-10-28,清算の結了等,,,2015-10-05,1,,,,,ナノフォトニクスコウガクスイシンキコウ,0
1903,7011201015985,登記記録の閉鎖等,0,2022-11-11,2022-11-01,株式会社サンビスタ,,株式会社,千葉県,千葉市中央区,問屋町１番５５号,,12,101,2600025,,,2022-11-01,清算の結了等,,,2015-10-05,1,,,,,サンビスタ,0
1930,7012402019098,登記記録の閉鎖等,0,2022-11-11,2022-11-08,有限会社千石フルーツ,,有限会社,東京都,三鷹市,井の頭２丁目６番１２号,,13,204,1810001,,,2022-11-08,清算の結了等,,,2015-10-05,1,,,,,,0
1935,7013202005726,登記記録の閉鎖等,0,2022-11-11,2022-11-02,有限会社ベルカンパニー,,有限会社,茨城県,東茨城郡大洗町,磯浜町８２２８番地の１１９,,08,309,3111301,,,2022-11-02,清算の結了等,,,2015-10-05,1,,,,,ベルカンパニー,0
1936,7013301026490,登記記録の閉鎖等,0,2022-11-11,2022-11-07,株式会社ニッケイプランニング,,株式会社,東京都,豊島区,巣鴨４丁目５番１２号,,13,116,1700002,,,2022-11-07,清算の結了等,,,2015-10-05,1,,,,,ニッケイプランニング,0
1966,7030001145090,登記記録の閉鎖等,0,2022-11-11,2022-11-01,エントロピーテクノロジー株式会社,,株式会社,埼玉県,本庄市,緑２丁目１１番１１号,,11,211,3670043,,,2022-11-01,清算の結了等,,,2021-11-02,1,,,,,エントロピーテクノロジー,0
1968,7030002044028,登記記録の閉鎖等,0,2022-11-11,2022-11-01,公栄測量設計有限会社,,有限会社,埼玉県,草加市,原町１丁目１６番１４号,,11,221,3400048,,,2022-11-01,清算の結了等,,,2015-10-05,1,,,,,コウエイソクリョウセッケイ,0
1972,7030003018559,登記記録の閉鎖等,0,2022-11-11,2022-11-02,合同会社アトラス,,合同会社,埼玉県,幸手市,中３丁目１４番６号,,11,240,3400115,,,2022-11-02,清算の結了等,,,2021-12-28,1,,,,,アトラス,0
1985,7040002087744,登記記録の閉鎖等,0,2022-11-11,2022-11-01,有限会社総和,,有限会社,千葉県,香取市,分郷５１番地,,12,236,2890305,,,2022-11-01,清算の結了等,,,2015-10-05,1,,,,,ソウワ,0
1991,7050002026222,登記記録の閉鎖等,0,2022-11-11,2022-11-02,有限会社池田電設,,有限会社,茨城県,鹿嶋市,大字佐田６１９番地２,,08,222,3140027,,,2022-11-02,清算の結了等,,,2015-10-05,1,,,,,イケダデンセツ,0
1994,7070001010357,登記記録の閉鎖等,0,2022-11-11,2022-11-07,群馬環境物流株式会社,,株式会社,群馬県,高崎市,倉賀野町３２５０番地１２,,10,202,3701201,,,2022-11-07,清算の結了等,,,2015-10-05,1,,,,,グンマカンキョウブツリュウ,0
1997,7070002000241,登記記録の閉鎖等,0,2022-11-11,2022-11-02,浅香商事有限会社,,有限会社,群馬県,前橋市,三俣町１丁目５番１４号,,10,201,3710018,,,2022-11-02,合併による解散等,5070001004476,令和４年１１月１日群馬県前橋市三俣町一丁目５番１４号アサカタクシー株式会社（5070001004476）に合併し解散,2015-10-05,1,,,,,アサカショウジ,0
1998,7070005008471,登記記録の閉鎖等,0,2022-11-11,2022-11-04,特定非営利活動法人ドリーム北毛の会,,その他の設立登記法人,群馬県,渋川市,渋川２８２７番地１セシール今成Ａ２０３,,10,208,3770008,,,2022-11-04,清算の結了等,,,2015-10-05,1,,,,,,0
2001,7080002013911,登記記録の閉鎖等,0,2022-11-11,2022-11-09,有限会社松野不動産,,有限会社,静岡県,島田市,御仮屋町７４２８番地,,22,209,4270053,,,2022-11-09,清算の結了等,,,2015-10-05,1,,,,,マツノフドウサン,0
2064,7210002010795,登記記録の閉鎖等,0,2022-11-11,2022-11-08,有限会社山中設計事務所,,有限会社,福井県,敦賀市,和久野７号２４番地,,18,202,9140123,,,2022-11-08,清算の結了等,,,2015-10-05,1,,,,,ヤマナカセッケイジムショ,0
2067,7220005008043,登記記録の閉鎖等,0,2022-11-11,2022-11-10,一般財団法人マオウ・花と実の生薬研究所,,その他の設立登記法人,石川県,白山市,鹿島平１１番地６０,,17,210,9290206,,,2022-11-10,清算の結了等,,,2015-12-15,1,,,,,マオウハナトミノショウヤクケンキュウジョ,0
2085,7290802015648,登記記録の閉鎖等,0,2022-11-11,2022-11-10,有限会社優建設興業,,有限会社,福岡県,北九州市八幡西区,池田３丁目９番５号,,40,109,8071125,,,2022-11-10,清算の結了等,,,2015-10-05,1,,,,,ユタカケンセツコウギョウ,0
2088,7300002006017,登記記録の閉鎖等,0,2022-11-11,2022-11-01,株式会社中山技研,,株式会社,佐賀県,武雄市,朝日町大字甘久２２４６番地１,,41,206,8430001,,,2022-11-01,合併による解散等,8300001004648,令和４年１１月１日佐賀県武雄市朝日町大字甘久２２４６番地１株式会社中山ホールディングス（8300001004648）に合併し解散,2015-10-05,1,,,,,ナカヤマギケン,0
2109,7400003001980,登記記録の閉鎖等,0,2022-11-11,2022-11-08,タージ合同会社,,合同会社,岩手県,盛岡市,中野１丁目２５－２８,,03,201,0200816,,,2022-11-08,清算の結了等,,,2015-10-05,1,,,,,タージ,0
2112,7410002008200,登記記録の閉鎖等,0,2022-11-11,2022-11-02,有限会社アシスト,,有限会社,宮城県,大崎市,古川北稲葉２丁目１２番５号,,04,215,9896145,,,2022-11-02,清算の結了等,,,2015-10-05,1,,,,,アシスト,0
2120,7430002019179,登記記録の閉鎖等,0,2022-11-11,2022-11-04,有限会社ミウラ商事,,有限会社,北海道,札幌市南区,澄川四条２丁目１番７号,,01,106,0050004,,,2022-11-04,清算の結了等,,,2015-10-05,1,,,,,ミウラショウジ,0
2123,7430003008412,登記記録の閉鎖等,0,2022-11-11,2022-11-01,アスカ合同会社,,合同会社,北海道,札幌市中央区,南七条西１８丁目１番８号,,01,101,0640807,,,2022-11-01,清算の結了等,,,2017-05-18,1,,,,,アスカ,0
2126,7480001004169,登記記録の閉鎖等,0,2022-11-11,2022-11-04,株式会社ほのか,,株式会社,徳島県,徳島市,西二軒屋町２丁目３９番地４,,36,201,7708061,,,2022-11-04,清算の結了等,,,2015-10-05,1,,,,,ホノカ,0
2136,8010003037584,登記記録の閉鎖等,0,2022-11-11,2022-11-07,合同会社くるとん,,合同会社,東京都,千代田区,岩本町３丁目８番８号中和秋葉原ビル７Ｆ３１,,13,101,1010032,,,2022-11-07,清算の結了等,,,2022-05-02,1,,,,,クルトン,0
2147,8010405020015,登記記録の閉鎖等,0,2022-11-11,2022-10-28,ＲＢソーラーディライトホールディングス一般社団法人,,その他の設立登記法人,東京都,港区,虎ノ門３丁目２２番１０－２０１号,,13,103,1050001,,,2022-10-28,清算の結了等,,,2021-07-16,1,,,,,アールビーソーラーディライトホールディングス,0
2157,8010903004361,登記記録の閉鎖等,0,2022-11-11,2022-11-08,合同会社ＩＥネット,,合同会社,東京都,世田谷区,玉川３丁目２０番２号マノア玉川第３ビル５０１号室,,13,112,1580094,,,2022-11-08,清算の結了等,,,2018-06-13,1,,,,,アイイーネット,0
2171,8011101074486,登記記録の閉鎖等,0,2022-11-11,2022-11-01,株式会社メガソーラー２３号,,株式会社,埼玉県,比企郡嵐山町,大字大蔵３８８番地,,11,342,3550222,,,2022-11-01,合併による解散等,7030001105953,令和４年１１月１日埼玉県比企郡嵐山町大字大蔵３８８番地太陽グリーンエナジー株式会社（7030001105953）に合併し解散,2015-10-05,1,,,,,メガソーラーニジュウサンゴウ,0
2188,8011602021755,登記記録の閉鎖等,0,2022-11-11,2022-11-08,有限会社吉村商会,,有限会社,東京都,練馬区,大泉町３丁目３２番２号,,13,120,1780062,,,2022-11-08,清算の結了等,,,2015-10-05,1,,,,,ヨシムラショウカイ,0
2191,8011702013636,登記記録の閉鎖等,0,2022-11-11,2022-11-07,有限会社ホームケア・一之江,,有限会社,東京都,江戸川区,一之江７丁目６６番１号イーストイン１階,,13,123,1320024,,,2022-11-07,清算の結了等,,,2015-10-05,1,,,,,ホームケアイチノエ,0
2196,8012701009708,登記記録の閉鎖等,0,2022-11-11,2022-11-07,株式会社サンヴェリ,,株式会社,東京都,小平市,上水新町１丁目１６番３号,,13,211,1870023,,,2022-11-07,清算の結了等,,,2015-10-05,1,,,,,サンヴェリ,0
2223,8020002058449,登記記録の閉鎖等,0,2022-11-11,2022-11-04,有限会社グリーン商会,,有限会社,神奈川県,横浜市青葉区,荏田北１丁目１６番１号,,14,117,2250015,,,2022-11-04,清算の結了等,,,2015-10-05,1,,,,,グリーンショウカイ,0
2226,8020002104500,登記記録の閉鎖等,0,2022-11-11,2022-11-04,有限会社ＴＲＳ・サポート,,有限会社,神奈川県,川崎市多摩区,菅野戸呂９－１ロジュマンリーヴ１０２,,14,135,2140002,,,2022-11-04,清算の結了等,,,2015-10-05,1,,,,,,0
2264,8060002033142,登記記録の閉鎖等,0,2022-11-11,2022-11-07,荒川木材有限会社,,有限会社,栃木県,栃木市,岩舟町和泉１４６０番地４,,09,203,3294303,,,2022-11-07,清算の結了等,,,2015-10-05,1,,,,,アラカワモクザイ,0
2308,8140001009457,登記記録の閉鎖等,0,2022-11-11,2022-11-07,株式会社ＧＲＰコンストラクションズ,,株式会社,兵庫県,神戸市西区,美賀多台１丁目２番地Ｅ－５０８号,,28,111,6512277,,,2022-11-07,清算の結了等,,,2015-10-05,1,,,,,ジーアールピーコンストラクションズ,0
2313,8140002057785,登記記録の閉鎖等,0,2022-11-11,2022-11-08,有限会社ベーシック,,有限会社,兵庫県,西宮市,甲陽園東山町１０番２６号,,28,204,6620012,,,2022-11-08,清算の結了等,,,2015-10-05,1,,,,,ベーシック,0
2334,8180002011169,登記記録の閉鎖等,0,2022-11-11,2022-11-09,有限会社上飯田美容室,,有限会社,愛知県,名古屋市北区,上飯田通３丁目３６番地,,23,103,4620808,,,2022-11-09,清算の結了等,,,2015-10-05,1,,,,,カミイイダビヨウシツ,0
2335,8180301031454,登記記録の閉鎖等,0,2022-11-11,2022-11-02,株式会社システムプラント,,株式会社,愛知県,碧南市,源氏町１丁目２２番地２,,23,209,4470886,,,2022-11-02,清算の結了等,,,2018-05-08,1,,,,,システムプラント,0
2342,8200003001496,登記記録の閉鎖等,0,2022-11-11,2022-11-09,合資会社伏見農機商会,,合資会社,岐阜県,羽島郡笠松町,松栄町１７３番地,,21,303,5016091,,,2022-11-09,清算の結了等,,,2015-10-05,1,,,,,フシミノウキショウカイ,0
2347,8230003000958,登記記録の閉鎖等,0,2022-11-11,2022-11-09,合同会社大古久福聚堂,,合同会社,富山県,南砺市,下吉江１３番地２,,16,210,9391543,,,2022-11-09,清算の結了等,,,2015-10-05,1,,,,,,0
2379,8290802002380,登記記録の閉鎖等,0,2022-11-11,2022-11-09,有限会社児玉建設工業,,有限会社,福岡県,北九州市小倉北区,篠崎２丁目４７番１２号,,40,106,8030861,,,2022-11-09,清算の結了等,,,2015-10-05,1,,,,,コダマケンセツコウギョウ,0
2393,8350002002984,登記記録の閉鎖等,0,2022-11-11,2022-11-09,有限会社中馬商事,,有限会社,宮崎県,宮崎市,橘通東３丁目７番６号,,45,201,8800805,,,2022-11-09,清算の結了等,,,2015-10-05,1,,,,,チュウマンショウジ,0
2402,8360001028039,登記記録の閉鎖等,0,2022-11-11,2022-11-04,光産業設備株式会社,,株式会社,沖縄県,島尻郡八重瀬町,字後原６１６番地２,,47,362,9010504,,,2022-11-04,清算の結了等,,,2020-12-11,1,,,,,ヒカリサンギョウセツビ,0
2412,8420001012688,登記記録の閉鎖等,0,2022-11-11,2022-11-04,株式会社しもくぼ,,株式会社,青森県,上北郡横浜町,字吹越５６番地３１８,,02,406,0394153,,,2022-11-04,清算の結了等,,,2015-10-05,1,,,,,シモクボ,0
2429,9010001114839,登記記録の閉鎖等,0,2022-11-11,2022-11-02,株式会社エージェントオフィスタクト,,株式会社,東京都,中央区,銀座１丁目８番２１号第２１中央ビル９Ｆ,,13,102,1040061,,,2022-11-02,清算の結了等,,,2015-10-05,1,,,,,エージェントオフィスタクト,0
2434,9010001186069,登記記録の閉鎖等,0,2022-11-11,2022-11-01,株式会社ＬＣフィールドパートナーズ,,株式会社,東京都,千代田区,神田錦町２丁目７番地,,13,101,1010054,,,2022-11-01,合併による解散等,2010001175417,令和４年１１月１日東京都千代田区神田錦町二丁目７番地株式会社リムズキャピタル（2010001175417）に合併し解散,2017-09-07,1,,,,,エルシーフィールドパートナーズ,0
2440,9010002015193,登記記録の閉鎖等,0,2022-11-11,2022-11-07,有限会社やくしま,,有限会社,東京都,千代田区,麹町１丁目６番地,00061059,13,101,1020083,,,2022-11-07,清算の結了等,,,2015-10-05,1,,,,,ヤクシマ,0
2441,9010002029342,登記記録の閉鎖等,0,2022-11-11,2022-11-07,有限会社生活の花,,有限会社,東京都,文京区,湯島２丁目１９番１１号,,13,105,1130034,,,2022-11-07,清算の結了等,,,2015-10-05,1,,,,,セイカツノハナ,0
2446,9010401098046,登記記録の閉鎖等,0,2022-11-11,2022-11-02,株式会社Ａ－ｐｒｏ,,株式会社,東京都,港区,赤坂４丁目１番２号,,13,103,1070052,,,2022-11-02,清算の結了等,,,2015-10-05,1,,,,,エープロ,0
2486,9011002007379,登記記録の閉鎖等,0,2022-11-11,2022-11-07,有限会社竹松印刷所,,有限会社,東京都,渋谷区,代々木１丁目４４番２号,,13,113,1510053,,,2022-11-07,清算の結了等,,,2015-10-05,1,,,,,タケマツインサツジョ,0
2510,9012401013158,登記記録の閉鎖等,0,2022-11-11,2022-11-08,ユナイテッド貿易株式会社,,株式会社,東京都,武蔵野市,中町１丁目２番９号,,13,203,1800006,,,2022-11-08,清算の結了等,,,2015-10-05,1,,,,,ユナイテッドボウエキ,0
2518,9013102003167,登記記録の閉鎖等,0,2022-11-11,2022-11-10,水谷プレス販売有限会社,,有限会社,東京都,西多摩郡瑞穂町,大字箱根ケ崎２５６番地３,,13,303,1901221,,,2022-11-10,清算の結了等,,,2015-10-05,1,,,,,ミズタニプレスハンバイ,0
2523,9013301044623,登記記録の閉鎖等,0,2022-11-11,2022-11-07,株式会社ＯＮＡＩＲ,,株式会社,東京都,豊島区,東池袋１丁目１７番１１号パークハイツ池袋１１０５号,,13,116,1700013,,,2022-11-07,清算の結了等,,,2019-10-17,1,,,,,オンエア,0
2532,9020002098304,登記記録の閉鎖等,0,2022-11-11,2022-11-04,有限会社トピカ,,有限会社,神奈川県,川崎市川崎区,渡田新町１丁目７番５号,,14,131,2100844,,,2022-11-04,清算の結了等,,,2015-10-05,1,,,,,トピカ,0
2552,9030002112014,登記記録の閉鎖等,0,2022-11-11,2022-10-31,有限会社オレンジシステム企画,,有限会社,埼玉県,川口市,並木４丁目２－１１アーバン西川口２０７,,11,203,3320034,,,2022-10-31,清算の結了等,,,2015-10-05,1,,,,,オレンジシステムキカク,0
2580,9080402010127,登記記録の閉鎖等,0,2022-11-11,2022-11-09,有限会社エスエス工業,,有限会社,静岡県,浜松市東区,丸塚町２５４番地の７,,22,132,4350046,,,2022-11-09,清算の結了等,,,2015-10-05,1,,,,,エスエスコウギョウ,0
2586,9110001012330,登記記録の閉鎖等,0,2022-11-11,2022-11-09,新発田工房株式会社,,株式会社,新潟県,新発田市,緑町２丁目２番２９号,,15,206,9570018,,,2022-11-09,清算の結了等,,,2015-10-05,1,,,,,シバタコウボウ,0
2629,9180001064869,登記記録の閉鎖等,0,2022-11-11,2022-11-08,株式会社東海スペースプラニング,,株式会社,愛知県,名古屋市千種区,猫洞通２丁目１７番地三旺マンション第二猫洞５０４号,,23,101,4640032,,,2022-11-08,清算の結了等,,,2015-10-05,1,,,,,トウカイスペースプラニング,0
2648,9210002004127,登記記録の閉鎖等,0,2022-11-11,2022-11-07,有限会社ヨシズミフロアー工業,,有限会社,福井県,福井市,江守の里１丁目９０６番地,,18,201,9188035,,,2022-11-07,清算の結了等,,,2015-10-05,1,,,,,ヨシズミフロアーコウギョウ,0
2671,9290001069394,登記記録の閉鎖等,0,2022-11-11,2022-11-07,株式会社ユタオン,,株式会社,福岡県,福岡市中央区,大名２丁目９番３５号９階,,40,133,8100041,,,2022-11-07,清算の結了等,,,2015-10-05,1,,,,,ユタオン,0
2692,9340001002151,登記記録の閉鎖等,0,2022-11-11,2022-11-10,株式会社松栄電業,,株式会社,鹿児島県,鹿児島市,岡之原町９８１番地３,,46,201,8911201,,,2022-11-10,清算の結了等,,,2015-10-05,1,,,,,ショウエイデンギョウ,0
2694,9340001015946,登記記録の閉鎖等,0,2022-11-11,2022-11-08,株式会社防災サービス,,株式会社,鹿児島県,出水市,緑町１９番１号,,46,208,8990201,,,2022-11-08,清算の結了等,,,2015-10-05,1,,,,,ボウサイサービス,0
2695,9340002001029,登記記録の閉鎖等,0,2022-11-11,2022-11-11,有限会社アピア,,有限会社,鹿児島県,鹿児島市,慈眼寺町２８番２０号,,46,201,8910146,,,2022-11-11,清算の結了等,,,2015-10-05,1,,,,,アピア,0
2712,9380001013211,登記記録の閉鎖等,0,2022-11-11,2022-11-08,株式会社ダイエイ,,株式会社,福島県,いわき市,小名浜林城字下高田２番地の１,,07,204,9718122,,,2022-11-08,合併による解散等,6370001019658,令和４年１１月１日仙台市宮城野区仙台港北一丁目６番地の１８株式会社ブルケン東日本（6370001019658）に合併し解散,2015-10-05,1,,,,,ダイエイ,0
2720,9400001001519,登記記録の閉鎖等,0,2022-11-11,2022-11-09,株式会社みちのく通商,,株式会社,岩手県,盛岡市,材木町７番３４号,,03,201,0200063,,,2022-11-09,清算の結了等,,,2015-10-05,1,,,,,ミチノクツウショウ,0
2732,9430002056294,登記記録の閉鎖等,0,2022-11-11,2022-11-04,有限会社荻野宅建,,有限会社,北海道,余市郡余市町,沢町２丁目８１番地,,01,408,0460022,,,2022-11-04,清算の結了等,,,2015-10-05,1,,,,,オギノタッケン,0
