sequenceNumber,corporateNumber,process,correct,updateDate,changeDate,name,nameImageId,kind,prefectureName,cityName,streetNumber,addressImageId,prefectureCode,cityCode,postCode,addressOutside,addressOutsideImageId,closeDate,closeCause,successorCorporateNumber,changeCause,assignmentDate,latest,enName,enPrefectureName,enCityName,enAddressOutside,furigana,hihyoji
14,1010401166578,登記記録の閉鎖等,0,2023-09-04,2023-08-10,株式会社Ａｌｔ,,株式会社,東京都,港区,三田３丁目５番１９号,,13,103,1080073,,,2023-08-10,合併による解散等,9010401073940,令和５年８月１日東京都港区三田三丁目５番１９号株式会社ＡｌｔＸ（9010401073940）に合併し解散,2022-04-07,1,,,,,オルト,0
46,1011601024617,登記記録の閉鎖等,0,2023-09-04,2023-08-30,アルテミスソリューション株式会社,,株式会社,東京都,練馬区,高野台２丁目５番１１号,,13,120,1770033,,,2023-08-30,清算の結了等,,,2020-11-06,1,,,,,アルテミスソリューション,0
49,1011803002511,登記記録の閉鎖等,0,2023-09-04,2023-08-31,合同会社エルレフォルマール,,合同会社,新潟県,村上市,殿岡１０３８,,15,212,9593407,,,2023-08-31,清算の結了等,,,2016-06-23,1,,,,,エルレフォルマール,0
60,1030001070922,登記記録の閉鎖等,0,2023-09-04,2023-08-07,株式会社タニグチ,,株式会社,埼玉県,東松山市,本町２丁目６番１１号,,11,212,3550015,,,2023-08-07,清算の結了等,,,2023-05-31,1,,,,,タニグチ,0
61,1030001071499,登記記録の閉鎖等,0,2023-09-04,2023-08-03,株式会社小久保設計,,株式会社,埼玉県,比企郡小川町,大字青山７７０番地の１,,11,343,3550324,,,2023-08-03,清算の結了等,,,2015-10-05,1,,,,,コクボセッケイ,0
68,1030002058925,登記記録の閉鎖等,0,2023-09-04,2023-08-04,有限会社拓商,,有限会社,埼玉県,比企郡川島町,大字吹塚７６８番地１０,,11,346,3500164,,,2023-08-04,清算の結了等,,,2015-10-05,1,,,,,タクショウ,0
77,1040002084490,登記記録の閉鎖等,0,2023-09-04,2023-08-17,有限会社鈴木薬局,,有限会社,千葉県,旭市,新町８６８番地の２,,12,215,2892501,,,2023-08-17,清算の結了等,,,2015-10-05,1,,,,,,0
78,1040005012829,登記記録の閉鎖等,0,2023-09-04,2023-08-16,千葉畜産農業支援協同組合,,その他の設立登記法人,千葉県,旭市,倉橋４００８番地,,12,215,2892611,,,2023-08-16,清算の結了等,,,2015-10-05,1,,,,,チバチクサンノウギョウシエン,0
83,1070002028107,登記記録の閉鎖等,0,2023-09-04,2023-08-31,有限会社インテリアウチダ,,有限会社,群馬県,邑楽郡千代田町,大字舞木東１６番地の１０,,10,523,3700504,,,2023-08-31,清算の結了等,,,2015-10-05,1,,,,,インテリアウチダ,0
95,1110001025760,登記記録の閉鎖等,0,2023-09-04,2023-08-31,株式会社サウンドプロデュース,,株式会社,新潟県,長岡市,青葉台２丁目１０番地３,,15,202,9402145,,,2023-08-31,清算の結了等,,,2015-10-05,1,,,,,サウンドプロデュース,0
96,1110002008418,登記記録の閉鎖等,0,2023-09-04,2023-08-31,有限会社ルーチェ,,有限会社,新潟県,三条市,須頃１丁目７２アクアホテルアネックス１Ｆ,,15,204,9550092,,,2023-08-31,清算の結了等,,,2015-10-05,1,,,,,ルーチェ,0
104,1120002073790,登記記録の閉鎖等,0,2023-09-04,2023-08-31,有限会社オー・エス研,,有限会社,大阪府,枚方市,小倉東町３３番１号,,27,210,5731174,,,2023-08-31,清算の結了等,,,2015-10-05,1,,,,,オーエスケン,0
113,1120901009201,登記記録の閉鎖等,0,2023-09-04,2023-08-21,香島建設株式会社,,株式会社,大阪府,摂津市,西一津屋３番３号,,27,224,5660044,,,2023-08-21,清算の結了等,,,2015-10-05,1,,,,,,0
125,1140005015714,登記記録の閉鎖等,0,2023-09-04,2023-08-31,特定非営利活動法人ゆうゆう加古っち,,その他の設立登記法人,兵庫県,加古郡稲美町,加古４０５７番地の２,,28,381,6751105,,,2023-08-31,清算の結了等,,,2015-10-05,1,,,,,ユウユウカコッチ,0
130,1160002008784,登記記録の閉鎖等,0,2023-09-04,2023-09-01,有限会社中村総研,,有限会社,滋賀県,彦根市,本町２丁目３番４９号,,25,202,5220064,,,2023-09-01,清算の結了等,,,2015-10-05,1,,,,,ナカムラソウケン,0
131,1170001004271,登記記録の閉鎖等,0,2023-09-04,2023-08-31,株式会社チカゾエ,,株式会社,和歌山県,和歌山市,六十谷２２２番地の３８,,30,201,6408482,,,2023-08-31,清算の結了等,,,2015-10-05,1,,,,,チカゾエ,0
139,1180002033995,登記記録の閉鎖等,0,2023-09-04,2023-08-28,有限会社北建築工房,,有限会社,愛知県,名古屋市瑞穂区,東栄町１丁目１４番地,,23,108,4670017,,,2023-08-28,清算の結了等,,,2015-10-05,1,,,,,キタケンチクコウボウ,0
140,1180003002124,登記記録の閉鎖等,0,2023-09-04,2023-09-01,合資会社呼続温泉,,合資会社,愛知県,名古屋市南区,呼続１丁目８番８号,,23,112,4570014,,,2023-09-01,清算の結了等,,,2015-10-05,1,,,,,ヨビツギオンセン,0
153,1260002010053,登記記録の閉鎖等,0,2023-09-04,2023-09-01,有限会社桃井,,有限会社,岡山県,岡山市北区,中山下２丁目２番２２号,,33,101,7000821,,,2023-09-01,清算の結了等,,,2015-10-05,1,,,,,モモイ,0
165,1290801020836,登記記録の閉鎖等,0,2023-09-04,2023-09-01,株式会社Ｎｅｏ－ｓｔｙｌｅ,,株式会社,福岡県,北九州市小倉南区,蜷田若園３丁目１４番５号２Ｆ,,40,107,8020814,,,2023-09-01,清算の結了等,,,2015-10-05,1,,,,,ネオスタイル,0
170,1310002017654,登記記録の閉鎖等,0,2023-09-04,2023-08-30,有限会社松尾住設メンテナンス,,有限会社,長崎県,大村市,杭出津１丁目８７０番地５６,,42,205,8560828,,,2023-08-30,清算の結了等,,,2015-10-05,1,,,,,マツオジュウセツメンテナンス,0
172,1320002019591,登記記録の閉鎖等,0,2023-09-04,2023-08-31,有限会社ワイショップあまがせ,,有限会社,大分県,日田市,天瀬町合田３１４９番地の１,,44,204,8794122,,,2023-08-31,清算の結了等,,,2015-10-05,1,,,,,,0
177,1350002007899,登記記録の閉鎖等,0,2023-09-04,2023-08-28,有限会社ケアセンターあい,,有限会社,宮崎県,宮崎市,大字熊野５２７９番地３,,45,201,8892151,,,2023-08-28,清算の結了等,,,2015-10-05,1,,,,,ケアセンターアイ,0
180,1370001022690,登記記録の閉鎖等,0,2023-09-04,2023-08-31,株式会社タントケア,,株式会社,宮城県,仙台市泉区,山の寺１丁目１番２号,,04,105,9813103,,,2023-08-31,清算の結了等,,,2015-10-05,1,,,,,タントケア,0
188,1430001047442,登記記録の閉鎖等,0,2023-09-04,2023-08-22,株式会社山文三沢商店,,株式会社,北海道,夕張市,鹿の谷１丁目７９番地,,01,209,0680413,,,2023-08-22,清算の結了等,,,2015-10-05,1,,,,,ヤマブンミサワショウテン,0
216,2010003036047,登記記録の閉鎖等,0,2023-09-04,2023-08-08,小石川国際綜合会計合同会社,,合同会社,東京都,中央区,日本橋兜町１７番２号兜町第６葉山ビル４階,,13,102,1030026,,,2023-08-08,清算の結了等,,,2021-10-18,1,,,,,コイシカワコクサイソウゴウカイケイ,0
230,2010705002742,登記記録の閉鎖等,0,2023-09-04,2023-08-31,医療法人社団タイオン,,その他の設立登記法人,東京都,品川区,東五反田５丁目２５番１９号東京デザインセンター２階,,13,109,1410022,,,2023-08-31,清算の結了等,,,2018-03-14,1,,,,,タイオン,0
249,2011802002016,登記記録の閉鎖等,0,2023-09-04,2023-09-01,有限会社上林商事,,有限会社,東京都,葛飾区,東新小岩２丁目１番１５号,,13,122,1240023,,,2023-09-01,清算の結了等,,,2015-10-05,1,,,,,,0
251,2012402019573,登記記録の閉鎖等,0,2023-09-04,2023-08-31,フォレスト有限会社,,有限会社,東京都,三鷹市,下連雀３丁目４１番３号,,13,204,1810013,,,2023-08-31,清算の結了等,,,2015-10-05,1,,,,,フォレスト,0
295,2070001012969,登記記録の閉鎖等,0,2023-09-04,2023-08-31,株式会社ソムシバン,,株式会社,群馬県,藤岡市,藤岡５２３番地５,,10,209,3750024,,,2023-08-31,清算の結了等,,,2015-10-05,1,,,,,ソムシバン,0
300,2080001022430,登記記録の閉鎖等,0,2023-09-04,2023-08-31,株式会社ダックス,,株式会社,静岡県,静岡市葵区,岳美１丁目９番１号,,22,101,4200934,,,2023-08-31,清算の結了等,,,2018-09-11,1,,,,,ダックス,0
304,2080403003680,登記記録の閉鎖等,0,2023-09-04,2023-09-01,合同会社クオリティサポート,,合同会社,静岡県,浜松市中区,高林５丁目１番２２号,,22,131,4300907,,,2023-09-01,清算の結了等,,,2018-07-05,1,,,,,クオリティサポート,0
305,2090003000334,登記記録の閉鎖等,0,2023-09-04,2023-08-29,合同会社イーフォーキャスト,,合同会社,山梨県,笛吹市,石和町唐柏１１１番地,,19,211,4060034,,,2023-08-29,清算の結了等,,,2015-10-05,1,,,,,イーフォーキャスト,0
311,2120001145391,登記記録の閉鎖等,0,2023-09-04,2023-09-01,システムビジネス株式会社,,株式会社,大阪府,大阪市中央区,谷町９丁目２番２９号北平谷町ビル６０１号,,27,128,5420012,,,2023-09-01,清算の結了等,,,2015-10-05,1,,,,,システムビジネス,0
316,2120002015239,登記記録の閉鎖等,0,2023-09-04,2023-08-31,有限会社イナダ＿工所,00030605,有限会社,大阪府,大阪市港区,波除５丁目１３番１８号,,27,107,5520001,,,2023-08-31,清算の結了等,,,2015-10-05,1,,,,,イナダテッコウジョ,0
317,2120002078186,登記記録の閉鎖等,0,2023-09-04,2023-08-31,有限会社河野工業所,,有限会社,大阪府,守口市,南寺方南通１丁目９番２３号,,27,209,5700044,,,2023-08-31,清算の結了等,,,2015-10-05,1,,,,,カワノコウギョウショ,0
323,2140002053781,登記記録の閉鎖等,0,2023-09-04,2023-08-30,有限会社Ｗｉｔｈｙｏｕ,,有限会社,兵庫県,姫路市,広畑区西蒲田３６９番地２５号,,28,201,6711107,,,2023-08-30,清算の結了等,,,2015-10-05,1,,,,,ウィズユー,0
336,2180301006701,登記記録の閉鎖等,0,2023-09-04,2023-08-30,成田商事株式会社,,株式会社,愛知県,豊橋市,新吉町５５番地,,23,201,4400871,,,2023-08-30,清算の結了等,,,2015-10-05,1,,,,,ナリタショウジ,0
354,2260002004839,登記記録の閉鎖等,0,2023-09-04,2023-09-01,新協電気有限会社,,有限会社,岡山県,岡山市北区,天瀬南町１番１５号,,33,101,7000834,,,2023-09-01,清算の結了等,,,2015-10-05,1,,,,,シンキョウデンキ,0
355,2270002000713,登記記録の閉鎖等,0,2023-09-04,2023-08-31,有限会社湖山駅前コンタクトレンズセンター,,有限会社,鳥取県,鳥取市,湖山町東５丁目５０４番１７号,,31,201,6800942,,,2023-08-31,清算の結了等,,,2015-10-05,1,,,,,コヤマエキマエコンタクトレンズセンター,0
366,2290005018676,登記記録の閉鎖等,0,2023-09-04,2023-08-17,ＮＰＯ法人海のゆりかご,,その他の設立登記法人,福岡県,福岡市西区,横浜３丁目２４番１９号,,40,135,8190366,,,2023-08-17,清算の結了等,,,2022-05-12,1,,,,,ウミノユリカゴ,0
382,2370802000555,登記記録の閉鎖等,0,2023-09-04,2023-08-28,有限会社ビルサービス装研,,有限会社,宮城県,名取市,高舘吉田字前沖１９９番地の２１,,04,207,9811242,,,2023-08-28,清算の結了等,,,2015-10-05,1,,,,,ビルサービスソウケン,0
388,2410001000617,登記記録の閉鎖等,0,2023-09-04,2023-08-28,株式会社井川鉄工所,,株式会社,秋田県,秋田市,将軍野東３丁目２番３８号,,05,201,0110931,,,2023-08-28,清算の結了等,,,2015-10-05,1,,,,,イカワテッコウショ,0
393,2430002007106,登記記録の閉鎖等,0,2023-09-04,2023-08-21,有限会社計電装,,有限会社,北海道,札幌市東区,東苗穂十四条２丁目２番２８号,,01,103,0070814,,,2023-08-21,清算の結了等,,,2015-10-05,1,,,,,ケイデンソウ,0
400,2500002006546,登記記録の閉鎖等,0,2023-09-04,2023-09-01,有限会社ミザイム,,有限会社,愛媛県,松山市,竹原４丁目８番８号,,38,201,7900053,,,2023-09-01,清算の結了等,,,2015-10-05,1,,,,,ミザイム,0
412,3010003025379,登記記録の閉鎖等,0,2023-09-04,2023-08-18,カズサフラップ合同会社,,合同会社,東京都,文京区,本郷３丁目４－３,,13,105,1130033,,,2023-08-18,清算の結了等,,,2017-05-19,1,,,,,カズサフラップ,0
429,3010802014722,登記記録の閉鎖等,0,2023-09-04,2023-08-31,有限会社八百房,,有限会社,東京都,大田区,大森本町２丁目３１番２１号,,13,111,1430011,,,2023-08-31,清算の結了等,,,2015-10-05,1,,,,,ヤオフサ,0
457,3013302009754,登記記録の閉鎖等,0,2023-09-04,2023-08-29,有限会社宮城商事,,有限会社,東京都,豊島区,南池袋２丁目３７番２号,,13,116,1710022,,,2023-08-29,清算の結了等,,,2015-10-05,1,,,,,ミヤギショウジ,0
470,3030001128578,登記記録の閉鎖等,0,2023-09-04,2023-08-07,株式会社Ｌｉｆｅｓｔｙｌｅ　Ｌａｂｏ,,株式会社,埼玉県,さいたま市岩槻区,本町３丁目２０－１５亀谷大工町ビル２Ｆ,,11,110,3390057,,,2023-08-07,清算の結了等,,,2018-12-06,1,,,,,ライフスタイルラボ,0
473,3030002093516,登記記録の閉鎖等,0,2023-09-04,2023-08-07,有限会社日新エンジニアリング,,有限会社,埼玉県,鶴ヶ島市,富士見３丁目１７番２０４号,,11,241,3502201,,,2023-08-07,清算の結了等,,,2015-10-05,1,,,,,ニッシンエンジニアリング,0
483,3040002099660,登記記録の閉鎖等,0,2023-09-04,2023-08-17,有限会社南創,,有限会社,千葉県,館山市,坂足４２４番地,,12,205,2940313,,,2023-08-17,清算の結了等,,,2015-10-05,1,,,,,ナンソウ,0
496,3080003001662,登記記録の閉鎖等,0,2023-09-04,2023-08-31,合同会社ＭＤ　ＬＡＢＯ　ＥＮＴ　ＪＡＰＡＮ,,合同会社,静岡県,静岡市駿河区,登呂４丁目１３番９号,,22,102,4228033,,,2023-08-31,清算の結了等,,,2015-10-05,1,,,,,エムディーラボイーエヌティージャパン,0
502,3090001009475,登記記録の閉鎖等,0,2023-09-04,2023-08-29,株式会社柳澤商会ＴＯＫＹＯ,,株式会社,山梨県,甲府市,朝気１丁目１番４０号,,19,201,4000862,,,2023-08-29,清算の結了等,,,2015-10-05,1,,,,,ヤナギサワショウカイトウキョウ,0
516,3120002031598,登記記録の閉鎖等,0,2023-09-04,2023-08-30,有限会社土田興産,,有限会社,大阪府,大阪市北区,天満橋１丁目１番３８号,,27,127,5300042,,,2023-08-30,清算の結了等,,,2015-10-05,1,,,,,ツチダコウサン,0
523,3122001024491,登記記録の閉鎖等,0,2023-09-04,2023-08-31,株式会社スマイルケアセンター,,株式会社,大阪府,大阪市平野区,瓜破西２丁目７番１０号,,27,126,5470025,,,2023-08-31,清算の結了等,,,2015-10-05,1,,,,,スマイルケアセンター,0
543,3150002010392,登記記録の閉鎖等,0,2023-09-04,2023-08-31,有限会社安川自動車,,有限会社,奈良県,葛城市,薑２５５番地２,,29,211,6392122,,,2023-08-31,清算の結了等,,,2015-10-05,1,,,,,ヤスカワジドウシャ,0
556,3180303002193,登記記録の閉鎖等,0,2023-09-04,2023-09-01,合資会社笹山製鬼所,,合資会社,愛知県,高浜市,春日町３丁目３番地４１,,23,227,4441334,,,2023-09-01,清算の結了等,,,2015-10-05,1,,,,,ササヤマセイキショ,0
558,3180305009179,登記記録の閉鎖等,0,2023-09-04,2023-08-30,ＮＰＯ法人Ｖｏｌｕｎｔｅｅｒ＆Ｍｕｓｉｃひつじ雲,,その他の設立登記法人,愛知県,知立市,山屋敷町富士塚１番地１７０,,23,225,4720022,,,2023-08-30,清算の結了等,,,2021-03-08,1,,,,,ボランティアアンドミュージックヒツジグモ,0
574,3250001000723,登記記録の閉鎖等,0,2023-09-04,2023-08-29,株式会社丸平商店,,株式会社,山口県,山口市,秋穂二島４３７番地の４９,,35,203,7540893,,,2023-08-29,合併による解散等,5290001048435,令和５年８月１日福岡県久留米市天神町１４６番地株式会社梅の花（5290001048435）に合併し解散,2015-10-05,1,,,,,,0
578,3260002033374,登記記録の閉鎖等,0,2023-09-04,2023-09-01,有限会社ヨシダ設計,,有限会社,岡山県,倉敷市,水島東川町６番２６号,,33,202,7128021,,,2023-09-01,清算の結了等,,,2015-10-05,1,,,,,ヨシダセッケイ,0
581,3270005005436,登記記録の閉鎖等,0,2023-09-04,2023-08-18,一般社団法人Ｐａｌｅｓａ,,その他の設立登記法人,鳥取県,米子市,旗ヶ崎９丁目６番２０号,,31,202,6830845,,,2023-08-18,清算の結了等,,,2020-11-26,1,,,,,パレサ,0
595,3300002004247,登記記録の閉鎖等,0,2023-09-04,2023-08-31,有限会社ミルンファーメント,,有限会社,佐賀県,神埼市,脊振町広滝１４４１番地１,,41,210,8420201,,,2023-08-31,清算の結了等,,,2015-10-05,1,,,,,ミルンファーメント,0
611,3370002016104,登記記録の閉鎖等,0,2023-09-04,2023-08-30,有限会社エスケーエス,,有限会社,宮城県,仙台市宮城野区,鉄砲町西１番地の２３－７０１,,04,102,9830861,,,2023-08-30,清算の結了等,,,2015-10-05,1,,,,,エスケーエス,0
628,3440001004969,登記記録の閉鎖等,0,2023-09-04,2023-08-29,株式会社おおつき薬局,,株式会社,北海道,函館市,富岡町２丁目２３番１６号,,01,202,0410811,,,2023-08-29,清算の結了等,,,2015-10-05,1,,,,,オオツキヤッキョク,0
631,3460102002176,登記記録の閉鎖等,0,2023-09-04,2023-08-31,有限会社てらにし調剤薬局,,有限会社,北海道,帯広市,西二条南９丁目８番地,,01,207,0800012,,,2023-08-31,清算の結了等,,,2015-10-05,1,,,,,テラニシチョウザイヤッキョク,0
633,3470002011549,登記記録の閉鎖等,0,2023-09-04,2023-08-30,有限会社北川製＿所,00005393,有限会社,香川県,丸亀市,西本町２丁目７番１２号,,37,202,7630047,,,2023-08-30,清算の結了等,,,2015-10-05,1,,,,,キタガワセイアンショ,0
653,4010001112392,登記記録の閉鎖等,0,2023-09-04,2023-08-31,株式会社アイグラン,,株式会社,東京都,文京区,本郷３丁目２７番１号,,13,105,1130033,,,2023-08-31,清算の結了等,,,2015-10-05,1,,,,,アイグラン,0
660,4010402028543,登記記録の閉鎖等,0,2023-09-04,2023-08-14,有限会社ワンテン,,有限会社,東京都,港区,北青山３丁目６番７号,,13,103,1070061,,,2023-08-14,清算の結了等,,,2015-10-05,1,,,,,,0
668,4010901005786,登記記録の閉鎖等,0,2023-09-04,2023-08-31,株式会社ジュン・クリエイト,,株式会社,東京都,世田谷区,経堂１丁目３７番１０号経堂セントラルマンション３０４号室,,13,112,1560052,,,2023-08-31,清算の結了等,,,2015-10-05,1,,,,,ジュンクリエイト,0
673,4010902026328,登記記録の閉鎖等,0,2023-09-04,2023-08-30,有限会社アトン,,有限会社,東京都,杉並区,阿佐谷北２丁目１３番４号,,13,115,1660001,,,2023-08-30,清算の結了等,,,2015-10-05,1,,,,,,0
691,4011005008098,登記記録の閉鎖等,0,2023-09-04,2023-08-30,代々木の杜会計税理士法人,,その他の設立登記法人,東京都,渋谷区,代々木１丁目５８番２号９０３,,13,113,1510053,,,2023-08-30,清算の結了等,,,2019-05-10,1,,,,,ヨヨギノモリカイケイ,0
695,4011501010516,登記記録の閉鎖等,0,2023-09-04,2023-08-28,株式会社イダルツ,,株式会社,東京都,北区,田端４丁目１番１４号,,13,117,1140014,,,2023-08-28,清算の結了等,,,2015-10-05,1,,,,,イダルツ,0
697,4011501021075,登記記録の閉鎖等,0,2023-09-04,2023-08-28,フィーモ株式会社,,株式会社,東京都,荒川区,荒川１丁目４９番１号,,13,118,1160002,,,2023-08-28,清算の結了等,,,2015-11-09,1,,,,,,0
731,4040001038206,登記記録の閉鎖等,0,2023-09-04,2023-08-18,株式会社タニカツ,,株式会社,千葉県,流山市,江戸川台東２丁目７番地,,12,220,2700111,,,2023-08-18,清算の結了等,,,2015-10-05,1,,,,,タニカツ,0
735,4040001121861,登記記録の閉鎖等,0,2023-09-04,2023-08-17,株式会社勝秋,,株式会社,千葉県,船橋市,湊町２丁目１４番２５号,,12,204,2730011,,,2023-08-17,清算の結了等,,,2022-01-20,1,,,,,カツアキ,0
736,4040002000131,登記記録の閉鎖等,0,2023-09-04,2023-08-17,有限会社アートサンワ,,有限会社,千葉県,千葉市若葉区,大宮町３３６１番地,,12,104,2640016,,,2023-08-17,清算の結了等,,,2015-10-05,1,,,,,アートサンワ,0
740,4040002095485,登記記録の閉鎖等,0,2023-09-04,2023-08-17,有限会社オールウッド,,有限会社,千葉県,我孫子市,南新木４丁目２４番地の１,,12,222,2701119,,,2023-08-17,清算の結了等,,,2015-10-05,1,,,,,オールウッド,0
744,4050001049870,登記記録の閉鎖等,0,2023-09-04,2023-08-28,株式会社龍虎,,株式会社,茨城県,笠間市,泉字中村１０９８番地４,,08,216,3190209,,,2023-08-28,合併による解散等,9060001030180,令和５年８月１日茨城県笠間市泉字中村１０９８番地４株式会社剛電（9060001030180）に合併し解散,2021-09-28,1,,,,,リュウコ,0
753,4080001008824,登記記録の閉鎖等,0,2023-09-04,2023-09-01,中山石油株式会社,,株式会社,静岡県,静岡市清水区,神田町６番１号,,22,103,4240852,,,2023-09-01,清算の結了等,,,2015-10-05,1,,,,,ナカヤマセキユ,0
759,4090001014565,登記記録の閉鎖等,0,2023-09-04,2023-08-25,株式会社水上電営社,,株式会社,山梨県,笛吹市,一宮町塩田８３２番地,,19,211,4050064,,,2023-08-25,清算の結了等,,,2016-04-20,1,,,,,ミズカミデンエイシャ,0
764,4110002010429,登記記録の閉鎖等,0,2023-09-04,2023-08-28,有限会社星野酒店,,有限会社,新潟県,新潟市南区,西白根２５５番地１,,15,106,9501262,,,2023-08-28,清算の結了等,,,2015-10-05,1,,,,,ホシノサケテン,0
779,4120003014808,登記記録の閉鎖等,0,2023-09-04,2023-08-31,地域応援ＨＤ合同会社,,合同会社,大阪府,大阪市淀川区,西中島７丁目５番２５号,,27,123,5320011,,,2023-08-31,清算の結了等,,,2018-10-11,1,,,,,チイキオウエンエイチディー,0
799,4150005009407,登記記録の閉鎖等,0,2023-09-04,2023-08-31,社会保険労務士法人アシスト,,その他の設立登記法人,奈良県,奈良市,菅原東２丁目２９番１９号,,29,201,6310842,,,2023-08-31,清算の結了等,,,2022-07-07,1,,,,,アシスト,0
805,4180001004045,登記記録の閉鎖等,0,2023-09-04,2023-08-31,株式会社サトー設計室,,株式会社,愛知県,名古屋市千種区,南明町１丁目５３番地,,23,101,4640845,,,2023-08-31,清算の結了等,,,2015-10-05,1,,,,,サトーセッケイシツ,0
818,4230005006024,登記記録の閉鎖等,0,2023-09-04,2023-08-31,高岡魚商業協同組合,,その他の設立登記法人,富山県,高岡市,下黒田７７７番地,,16,202,9330852,,,2023-08-31,清算の結了等,,,2015-10-05,1,,,,,タカオカウオショウギョウ,0
832,4320002001258,登記記録の閉鎖等,0,2023-09-04,2023-09-01,有限会社栄和設備,,有限会社,大分県,大分市,椿が丘２丁目１３番３号,,44,201,8701166,,,2023-09-01,清算の結了等,,,2015-10-05,1,,,,,エイワセツビ,0
843,4360003011970,登記記録の閉鎖等,0,2023-09-04,2023-09-01,合同会社ウエルネスサービス,,合同会社,沖縄県,名護市,大北３丁目２０番１７号アンドーバーテラス大北８０３号室,,47,209,9050019,,,2023-09-01,清算の結了等,,,2022-04-26,1,,,,,ウェルネスサービス,0
867,4430003002442,登記記録の閉鎖等,0,2023-09-04,2023-08-30,合資会社平尾電気商会,,合資会社,北海道,岩見沢市,四条東５丁目１０番地,,01,210,0680004,,,2023-08-30,清算の結了等,,,2015-10-05,1,,,,,ヒラオデンキショウカイ,0
877,4500002020355,登記記録の閉鎖等,0,2023-09-04,2023-08-31,有限会社山西石材,,有限会社,愛媛県,今治市,宮窪町余所国１０２７番地,,38,202,7942202,,,2023-08-31,清算の結了等,,,2015-10-05,1,,,,,ヤマニシセキザイ,0
899,5010601040595,登記記録の閉鎖等,0,2023-09-04,2023-08-29,株式会社創真,,株式会社,東京都,江東区,亀戸２丁目４４番１０号,,13,108,1360071,,,2023-08-29,清算の結了等,,,2015-10-05,1,,,,,ソウシン,0
906,5010802011164,登記記録の閉鎖等,0,2023-09-04,2023-08-31,有限会社ニューウエスト,,有限会社,東京都,大田区,北千束１丁目３９番２２号,,13,111,1450062,,,2023-08-31,清算の結了等,,,2015-10-05,1,,,,,ニューウエスト,0
908,5010803000281,登記記録の閉鎖等,0,2023-09-04,2023-08-31,合資会社篠沢商店,,合資会社,東京都,大田区,池上４丁目３１番１４号,,13,111,1460082,,,2023-08-31,清算の結了等,,,2023-04-24,1,,,,,シノサワショウテン,0
916,5011702013985,登記記録の閉鎖等,0,2023-09-04,2023-09-01,有限会社井上水産,,有限会社,東京都,江戸川区,北小岩８丁目１５番１８号,,13,123,1330051,,,2023-09-01,清算の結了等,,,2015-10-05,1,,,,,,0
919,5012402005604,登記記録の閉鎖等,0,2023-09-04,2023-08-31,有限会社武蔵産業,,有限会社,東京都,武蔵野市,桜堤２丁目８番８－Ｅ２０１号,,13,203,1800021,,,2023-08-31,清算の結了等,,,2015-10-05,1,,,,,ムサシサンギョウ,0
923,5013201011685,登記記録の閉鎖等,0,2023-09-04,2023-08-28,株式会社アルバ,,株式会社,東京都,目黒区,中根１丁目１５番４号,,13,110,1520031,,,2023-08-28,清算の結了等,,,2015-10-05,1,,,,,アルバ,0
939,5020002002946,登記記録の閉鎖等,0,2023-09-04,2023-08-29,有限会社新和設備,,有限会社,神奈川県,横浜市泉区,和泉中央南３丁目２６番６号,,14,116,2450023,,,2023-08-29,清算の結了等,,,2015-10-05,1,,,,,シンワセツビ,0
946,5030001013968,登記記録の閉鎖等,0,2023-09-04,2023-08-09,株式会社エイティーイーシステム,,株式会社,埼玉県,さいたま市見沼区,大字中川９２番地１１,,11,104,3370043,,,2023-08-09,清算の結了等,,,2015-10-05,1,,,,,エイティーイーシステム,0
960,5040001109492,登記記録の閉鎖等,0,2023-09-04,2023-08-16,株式会社コンボックス,,株式会社,千葉県,千葉市中央区,中央港２丁目４番４号,,12,101,2600024,,,2023-08-16,清算の結了等,,,2019-06-06,1,,,,,コンボックス,0
962,5040002006697,登記記録の閉鎖等,0,2023-09-04,2023-08-17,有限会社大新設備,,有限会社,千葉県,千葉市花見川区,花見川３番１２棟３０４号,,12,102,2620046,,,2023-08-17,清算の結了等,,,2015-10-05,1,,,,,ダイシンセツビ,0
966,5060001030597,登記記録の閉鎖等,0,2023-09-04,2023-08-24,株式会社高橋商事,,株式会社,栃木県,下都賀郡壬生町,大師町１５番１０号,,09,361,3210228,,,2023-08-24,清算の結了等,,,2018-06-04,1,,,,,タカハシショウジ,0
976,5090002007823,登記記録の閉鎖等,0,2023-09-04,2023-08-24,有限会社ミシナ,,有限会社,山梨県,甲斐市,竜王新町２２５３番地１,,19,210,4000111,,,2023-08-24,清算の結了等,,,2015-10-05,1,,,,,ミシナ,0
977,5100002018793,登記記録の閉鎖等,0,2023-09-04,2023-08-29,有限会社関谷電工,,有限会社,長野県,中野市,大字七瀬１５２２番地３,,20,211,3830051,,,2023-08-29,清算の結了等,,,2015-10-05,1,,,,,セキヤデンコウ,0
979,5110001034485,登記記録の閉鎖等,0,2023-09-04,2023-08-30,株式会社健挑堂長岡,,株式会社,新潟県,長岡市,希望が丘３丁目２番地４,,15,202,9402124,,,2023-08-30,清算の結了等,,,2019-12-16,1,,,,,ケンチョウドウナガオカ,0
1000,5120901025450,登記記録の閉鎖等,0,2023-09-04,2023-08-31,富士技研株式会社,,株式会社,大阪府,豊中市,本町３丁目７番７７号,,27,203,5600021,,,2023-08-31,清算の結了等,,,2015-10-05,1,,,,,フジギケン,0
1002,5120905004938,登記記録の閉鎖等,0,2023-09-04,2023-08-31,一般社団法人企業活力サポートセンター,,その他の設立登記法人,大阪府,茨木市,上野町２０番１７号,,27,211,5670064,,,2023-08-31,清算の結了等,,,2015-10-05,1,,,,,キギョウカツリョクサポートセンター,0
1004,5122001024085,登記記録の閉鎖等,0,2023-09-04,2023-08-29,株式会社三和,,株式会社,大阪府,東大阪市,新庄１丁目１番６１号,,27,227,5780963,,,2023-08-29,清算の結了等,,,2015-10-05,1,,,,,サンワ,0
1008,5122003000885,登記記録の閉鎖等,0,2023-09-04,2023-08-28,株式会社仁,,株式会社,大阪府,大東市,新田西町２番３３号,,27,218,5740057,,,2023-08-28,合併による解散等,8122001015230,令和５年８月２６日大阪府大東市新田西町２番３３号ＡＣＣ株式会社（8122001015230）に合併し解散,2015-10-05,1,,,,,ジン,0
1019,5180001022277,登記記録の閉鎖等,0,2023-09-04,2023-09-01,中部ヒック販売株式会社,,株式会社,愛知県,名古屋市熱田区,二番１丁目１４番８号,,23,109,4560052,,,2023-09-01,清算の結了等,,,2015-10-05,1,,,,,チュウブヒックハンバイ,0
1028,5180002084390,登記記録の閉鎖等,0,2023-09-04,2023-08-30,有限会社ユタカ,,有限会社,愛知県,知多郡武豊町,字口田３０番地の１,,23,447,4702323,,,2023-08-30,清算の結了等,,,2015-10-05,1,,,,,ユタカ,0
1036,5220002009376,登記記録の閉鎖等,0,2023-09-04,2023-09-01,有限会社ブォーノ,,有限会社,石川県,白山市,徳丸町６８２番地,,17,210,9240804,,,2023-09-01,清算の結了等,,,2015-10-05,1,,,,,ブォーノ,0
1047,5260001009200,登記記録の閉鎖等,0,2023-09-04,2023-08-31,ＨＡＣ産業株式会社,,株式会社,岡山県,赤磐市,沼田８２２番地１,,33,213,7090812,,,2023-08-31,清算の結了等,,,2015-10-05,1,,,,,エイチエイシーサンギョウ,0
1092,5450001008463,登記記録の閉鎖等,0,2023-09-04,2023-08-31,株式会社豊富重機車輌整備工場,,株式会社,北海道,天塩郡豊富町,字豊富市街西五線１５５番地,,01,516,0984100,,,2023-08-31,清算の結了等,,,2015-10-05,1,,,,,トヨトミジュウキシャリョウセイビコウジョウ,0
1096,5490001007296,登記記録の閉鎖等,0,2023-09-04,2023-08-31,株式会社むっく,,株式会社,高知県,高知市,栄田町３丁目７番１０号,,39,201,7800061,,,2023-08-31,清算の結了等,,,2015-10-05,1,,,,,ムック,0
1113,6010001181931,登記記録の閉鎖等,0,2023-09-04,2023-08-30,株式会社アンガット,,株式会社,東京都,文京区,湯島３丁目２番１４－２２１号,,13,105,1130034,,,2023-08-30,清算の結了等,,,2017-03-03,1,,,,,アンガット,0
1114,6010001184315,登記記録の閉鎖等,0,2023-09-04,2023-08-31,グローバル測位サービス株式会社,,株式会社,東京都,品川区,南大井６丁目２６番３号大森ベルポート,,13,109,1400013,,,2023-08-31,清算の結了等,,,2017-06-21,1,,,,,グローバルソクイサービス,0
1118,6010002017416,登記記録の閉鎖等,0,2023-09-04,2023-08-30,有限会社エバープランニング,,有限会社,東京都,中央区,日本橋箱崎町１６番１１号ルミネ日本橋５０４,,13,102,1030015,,,2023-08-30,清算の結了等,,,2015-10-05,1,,,,,エバープランニング,0
1138,6010805002845,登記記録の閉鎖等,0,2023-09-04,2023-08-31,一般社団法人クラフトプラス,,その他の設立登記法人,東京都,大田区,田園調布２丁目４７番１８号,,13,111,1450071,,,2023-08-31,清算の結了等,,,2021-05-24,1,,,,,クラフトプラス,0
1157,6011003015169,登記記録の閉鎖等,0,2023-09-04,2023-08-31,Ｂインパクト３号合同会社,,合同会社,東京都,渋谷区,渋谷２丁目２４番１２号,,13,113,1500002,,,2023-08-31,清算の結了等,,,2022-08-04,1,,,,,ビーインパクトサンゴウ,0
1170,6011801025600,登記記録の閉鎖等,0,2023-09-04,2023-08-29,株式会社Ｊｕｓｔｉｃｅ,,株式会社,東京都,江東区,亀戸６丁目５６番８号,,13,108,1360071,,,2023-08-29,清算の結了等,,,2015-10-05,1,,,,,ジャスティス,0
1171,6011802000593,登記記録の閉鎖等,0,2023-09-04,2023-08-31,有限会社石川ゴム工業所,,有限会社,東京都,葛飾区,立石３丁目１２番１８号,,13,122,1240012,,,2023-08-31,清算の結了等,,,2015-10-05,1,,,,,イシカワゴムコウギョウショ,0
1184,6030001088786,登記記録の閉鎖等,0,2023-09-04,2023-08-03,ユイテックジャパン株式会社,,株式会社,埼玉県,深谷市,内ケ島５８６番地２,,11,218,3660831,,,2023-08-03,清算の結了等,,,2015-10-05,1,,,,,ユイテックジャパン,0
1200,6040003015069,登記記録の閉鎖等,0,2023-09-04,2023-08-18,合同会社エリアアクティベーション,,合同会社,千葉県,印西市,高花２丁目１０番地６,,12,231,2701342,,,2023-08-18,清算の結了等,,,2020-03-23,1,,,,,エリアアクティベーション,0
1208,6070001018442,登記記録の閉鎖等,0,2023-09-04,2023-08-31,不動産のＴＡＧ株式会社,,株式会社,群馬県,沼田市,下沼田町４１０番地１５,,10,206,3780063,,,2023-08-31,清算の結了等,,,2015-10-05,1,,,,,フドウサンノタッグ,0
1210,6080002006593,登記記録の閉鎖等,0,2023-09-04,2023-08-31,有限会社一級建築士事務所アオイ設計,,有限会社,静岡県,静岡市葵区,末広町１１０番地,,22,101,4200004,,,2023-08-31,清算の結了等,,,2015-10-05,1,,,,,イッキュウケンチクシジムショアオイセッケイ,0
1212,6080102018712,登記記録の閉鎖等,0,2023-09-04,2023-08-30,有限会社山田プランニング,,有限会社,静岡県,熱海市,清水町２番８号,,22,205,4130021,,,2023-08-30,清算の結了等,,,2015-10-05,1,,,,,ヤマダプランニング,0
1218,6120001001277,登記記録の閉鎖等,0,2023-09-04,2023-08-31,山田精密工業株式会社,,株式会社,大阪府,大阪市旭区,高殿５丁目５番１６号,,27,117,5350031,,,2023-08-31,清算の結了等,,,2015-10-05,1,,,,,ヤマダセイミツコウギョウ,0
1229,6120901017488,登記記録の閉鎖等,0,2023-09-04,2023-08-31,株式会社ディスコ,,株式会社,大阪府,吹田市,山田西１丁目２７－１０－４０１,,27,205,5650824,,,2023-08-31,清算の結了等,,,2015-10-05,1,,,,,ディスコ,0
1234,6122001023417,登記記録の閉鎖等,0,2023-09-04,2023-08-29,株式会社みやび,,株式会社,大阪府,八尾市,龍華町２丁目１番２０－１１０８号,,27,212,5810069,,,2023-08-29,清算の結了等,,,2015-10-05,1,,,,,ミヤビ,0
1251,6180001075150,登記記録の閉鎖等,0,2023-09-04,2023-08-31,ユタカ工業株式会社,,株式会社,愛知県,春日井市,神屋町字引沢１番地４１,,23,206,4800304,,,2023-08-31,合併による解散等,2180001011299,令和５年８月３１日名古屋市瑞穂区中山町二丁目１番地株式会社マサシックス（2180001011299）に合併し解散,2015-10-05,1,,,,,ユタカコウギョウ,0
1293,6370002016621,登記記録の閉鎖等,0,2023-09-04,2023-08-31,有限会社彩創,,有限会社,宮城県,仙台市青葉区,花京院１丁目４番８－７０１号,,04,101,9800013,,,2023-08-31,清算の結了等,,,2015-10-05,1,,,,,サイソウ,0
1300,6420003002334,登記記録の閉鎖等,0,2023-09-04,2023-08-28,合同会社美実花,,合同会社,青森県,上北郡六戸町,小松ケ丘３丁目７７番地１５１８,,02,405,0330074,,,2023-08-28,清算の結了等,,,2021-06-18,1,,,,,ミミカ,0
1303,6430001027803,登記記録の閉鎖等,0,2023-09-04,2023-08-21,株式会社松田産業,,株式会社,北海道,札幌市白石区,東札幌二条６丁目８番２１号第５トーホービル,,01,104,0030002,,,2023-08-21,清算の結了等,,,2015-10-05,1,,,,,マツダサンギョウ,0
1308,6430002010436,登記記録の閉鎖等,0,2023-09-04,2023-08-21,有限会社菅原工務店,,有限会社,北海道,札幌市北区,新琴似五条１５丁目５４１番地２７,,01,102,0010905,,,2023-08-21,清算の結了等,,,2015-10-05,1,,,,,スガワラコウムテン,0
1319,6500001014711,登記記録の閉鎖等,0,2023-09-04,2023-08-28,中特建機株式会社,,株式会社,愛媛県,四国中央市,妻鳥町１１１６番地２,,38,213,7990113,,,2023-08-28,清算の結了等,,,2015-10-05,1,,,,,チュウトクケンキ,0
1320,6500001021716,登記記録の閉鎖等,0,2023-09-04,2023-08-28,ベティ・クロッカーズ株式会社,,株式会社,愛媛県,松山市,石手４丁目１１番３７号,,38,201,7900852,,,2023-08-28,清算の結了等,,,2018-11-30,1,,,,,ベティクロッカーズ,0
1334,7010005030522,登記記録の閉鎖等,0,2023-09-04,2023-08-30,一般社団法人もみじプロパティ,,その他の設立登記法人,東京都,千代田区,神田神保町１丁目１１番地さくら綜合事務所内,,13,101,1010051,,,2023-08-30,清算の結了等,,,2019-07-26,1,,,,,モミジプロパティ,0
1340,7010403025198,登記記録の閉鎖等,0,2023-09-04,2023-08-14,合同会社ＥＤＧＥｏｆ　Ｔｅｃｈｎｏｌｏｇｙ,,合同会社,東京都,港区,虎ノ門１丁目１７番１号虎ノ門ヒルズビジネスタワー１５Ｆ,,13,103,1050001,,,2023-08-14,清算の結了等,,,2021-04-28,1,,,,,エッジオブテクノロジー,0
1348,7010802014173,登記記録の閉鎖等,0,2023-09-04,2023-08-31,有限会社ミナト電設,,有限会社,東京都,大田区,東馬込１丁目１７番６号,,13,111,1430022,,,2023-08-31,清算の結了等,,,2015-10-05,1,,,,,ミナトデンセツ,0
1352,7011001061635,登記記録の閉鎖等,0,2023-09-04,2023-08-30,株式会社ＴＡＫＥ,,株式会社,東京都,渋谷区,宇田川町１２番９号８Ｆ,,13,113,1500042,,,2023-08-30,清算の結了等,,,2015-10-05,1,,,,,テイク,0
1373,7020001125746,登記記録の閉鎖等,0,2023-09-04,2023-08-28,株式会社プロテクト・プレミアコート,,株式会社,神奈川県,横浜市金沢区,六浦南５丁目１５番５１号,,14,108,2360038,,,2023-08-28,清算の結了等,,,2018-04-05,1,,,,,プロテクトプレミアコート,0
1389,7030001084058,登記記録の閉鎖等,0,2023-09-04,2023-08-07,株式会社スマイルクリーン,,株式会社,埼玉県,川口市,並木１丁目１３番１８－２０６号コスモパーク川口,,11,203,3320034,,,2023-08-07,清算の結了等,,,2015-10-05,1,,,,,スマイルクリーン,0
1431,7090001007005,登記記録の閉鎖等,0,2023-09-04,2023-08-21,株式会社ヒロ,,株式会社,山梨県,笛吹市,石和町川中島１１０番地１７９,,19,211,4060024,,,2023-08-21,清算の結了等,,,2015-10-05,1,,,,,,0
1464,7170001011072,登記記録の閉鎖等,0,2023-09-04,2023-09-01,松山パイル織物株式会社,,株式会社,和歌山県,伊都郡かつらぎ町,大字中飯降２１２番地,,30,341,6497112,,,2023-09-01,清算の結了等,,,2015-10-05,1,,,,,マツヤマパイルオリモノ,0
1473,7180002092111,登記記録の閉鎖等,0,2023-09-04,2023-08-29,有限会社三昧堂,,有限会社,愛知県,海部郡大治町,大字中島字大門先１３９番地,,23,424,4901145,,,2023-08-29,清算の結了等,,,2015-10-05,1,,,,,サンマイドウ,0
1483,7210002010746,登記記録の閉鎖等,0,2023-09-04,2023-08-30,有限会社メンテナンス中野,,有限会社,福井県,敦賀市,山３９号４番地,,18,202,9140134,,,2023-08-30,清算の結了等,,,2015-10-05,1,,,,,メンテナンスナカノ,0
1520,7380002030521,登記記録の閉鎖等,0,2023-09-04,2023-08-28,有限会社山ペン塗装,,有限会社,福島県,双葉郡浪江町,大字川添字中上ノ原２３５番地１,,07,547,9791531,,,2023-08-28,清算の結了等,,,2015-10-05,1,,,,,ヤマペントソウ,0
1538,7500001020758,登記記録の閉鎖等,0,2023-09-04,2023-09-01,いよぎん・ＲＥＶＩＣインベストメンツ株式会社,,株式会社,愛媛県,松山市,南堀端町１番地,,38,201,7900006,,,2023-09-01,清算の結了等,,,2017-07-19,1,,,,,イヨギンレビックインベストメンツ,0
1560,8010403024711,登記記録の閉鎖等,0,2023-09-04,2023-08-14,合同会社エッジオブ・エデュケーション,,合同会社,東京都,港区,虎ノ門１丁目１７番１号虎ノ門ヒルズビジネスタワー１５Ｆ,,13,103,1050001,,,2023-08-14,清算の結了等,,,2021-02-18,1,,,,,エッジオブエデュケーション,0
1585,8011802005624,登記記録の閉鎖等,0,2023-09-04,2023-08-31,有限会社富よし,,有限会社,東京都,葛飾区,白鳥３丁目１４番３号,,13,122,1250063,,,2023-08-31,清算の結了等,,,2015-10-05,1,,,,,トミヨシ,0
1614,8021002055733,登記記録の閉鎖等,0,2023-09-04,2023-08-29,有限会社魚一商店,,有限会社,神奈川県,足柄上郡山北町,山北２６０９番地の７,,14,364,2580113,,,2023-08-29,清算の結了等,,,2015-10-05,1,,,,,ウオイチショウテン,0
1616,8030001025374,登記記録の閉鎖等,0,2023-09-04,2023-08-07,株式会社フリープラン,,株式会社,埼玉県,所沢市,中富南３丁目８番地１２,,11,208,3590003,,,2023-08-07,清算の結了等,,,2015-10-05,1,,,,,フリープラン,0
1623,8030001121784,登記記録の閉鎖等,0,2023-09-04,2023-08-07,株式会社ＳＬＤ,,株式会社,埼玉県,上尾市,井戸木３丁目３番地１７,,11,219,3620071,,,2023-08-07,清算の結了等,,,2017-08-16,1,,,,,エスエルディ,0
1634,8040001107774,登記記録の閉鎖等,0,2023-09-04,2023-08-17,株式会社ＥＮＧ開発,,株式会社,千葉県,市原市,五井東３丁目６番地１３,,12,219,2900055,,,2023-08-17,清算の結了等,,,2019-01-23,1,,,,,イーエヌジーカイハツ,0
1637,8040002051641,登記記録の閉鎖等,0,2023-09-04,2023-08-17,有限会社シャン・ドール,,有限会社,千葉県,流山市,南流山２丁目２４番地の１２,,12,220,2700163,,,2023-08-17,清算の結了等,,,2015-10-05,1,,,,,シャンドール,0
1639,8040002085771,登記記録の閉鎖等,0,2023-09-04,2023-08-16,有限会社天下堂,,有限会社,千葉県,銚子市,馬場町２番地の７,,12,202,2880054,,,2023-08-16,清算の結了等,,,2015-10-05,1,,,,,テンカドウ,0
1640,8070001009943,登記記録の閉鎖等,0,2023-09-04,2023-08-31,株式会社上毛測量設計事務所,,株式会社,群馬県,安中市,松井田町松井田７２１番地１,,10,211,3790222,,,2023-08-31,清算の結了等,,,2015-10-05,1,,,,,ジョウモウソクリョウセッケイジムショ,0
1644,8080001017251,登記記録の閉鎖等,0,2023-09-04,2023-08-31,株式会社トップライン静岡,,株式会社,静岡県,藤枝市,築地６３９番地の１,,22,214,4260031,,,2023-08-31,清算の結了等,,,2015-10-05,1,,,,,トップラインシズオカ,0
1648,8090001009479,登記記録の閉鎖等,0,2023-09-04,2023-08-29,株式会社柳澤,,株式会社,山梨県,甲府市,朝気１丁目１番４０号,,19,201,4000862,,,2023-08-29,清算の結了等,,,2015-10-05,1,,,,,ヤナギサワ,0
1662,8120102018301,登記記録の閉鎖等,0,2023-09-04,2023-08-31,有限会社ひかり,,有限会社,大阪府,羽曳野市,はびきの２丁目１番１６号,,27,222,5830872,,,2023-08-31,清算の結了等,,,2015-10-05,1,,,,,ヒカリ,0
1663,8120901038185,登記記録の閉鎖等,0,2023-09-04,2023-08-31,大石設備株式会社,,株式会社,大阪府,高槻市,西冠２丁目７番７号,,27,207,5690055,,,2023-08-31,清算の結了等,,,2017-03-16,1,,,,,オオイシセツビ,0
1664,8122001000240,登記記録の閉鎖等,0,2023-09-04,2023-08-29,東商事株式会社,,株式会社,大阪府,東大阪市,御幸町４番２５号,,27,227,5798057,,,2023-08-29,清算の結了等,,,2015-10-05,1,,,,,アズマショウジ,0
1672,8130005012929,登記記録の閉鎖等,0,2023-09-04,2023-08-17,ＮＰＯ法人全国つくりべの会,,その他の設立登記法人,京都府,京都市北区,鷹峯藤林町６番地の３２２,,26,101,6038445,,,2023-08-17,清算の結了等,,,2015-10-05,1,,,,,ゼンコクツクリベノカイ,0
1678,8140001110743,登記記録の閉鎖等,0,2023-09-04,2023-08-31,株式会社ｉｎｆｉｎｉｔｏ,,株式会社,兵庫県,神戸市中央区,熊内町２丁目４番７号,,28,110,6510056,,,2023-08-31,清算の結了等,,,2018-07-23,1,,,,,インフィニート,0
1684,8180001073862,登記記録の閉鎖等,0,2023-09-04,2023-08-30,株式会社落合,,株式会社,愛知県,春日井市,神屋町１８１４番地,,23,206,4800304,,,2023-08-30,清算の結了等,,,2015-10-05,1,,,,,オチアイ,0
1688,8180002078919,登記記録の閉鎖等,0,2023-09-04,2023-08-30,有限会社丸成食品,,有限会社,愛知県,一宮市,浅井町黒岩字寺西１０番地の４,,23,203,4910141,,,2023-08-30,清算の結了等,,,2015-10-05,1,,,,,マルセイショクヒン,0
1700,8220001022187,登記記録の閉鎖等,0,2023-09-04,2023-08-31,ハウスクリエーション株式会社,,株式会社,石川県,金沢市,四十万６丁目６０番地５,,17,201,9218135,,,2023-08-31,清算の結了等,,,2018-04-02,1,,,,,ハウスクリエーション,0
1713,8260002014139,登記記録の閉鎖等,0,2023-09-04,2023-08-31,有限会社ｃｏｎｔｉ　ｃｏｔｔｉ,,有限会社,岡山県,岡山市北区,平田１１０番地１０１,,33,101,7000952,,,2023-08-31,清算の結了等,,,2015-10-05,1,,,,,コンティコッチ,0
1724,8290805000753,登記記録の閉鎖等,0,2023-09-04,2023-09-01,北九州木材市場協同組合,,その他の設立登記法人,福岡県,北九州市小倉北区,西港町６４番地,,40,106,8030801,,,2023-09-01,清算の結了等,,,2015-10-05,1,,,,,キタキュウシュウモクザイイチバ,0
1726,8300005004099,登記記録の閉鎖等,0,2023-09-04,2023-08-31,伊万里電気工事協同組合,,その他の設立登記法人,佐賀県,伊万里市,立花町１５４２番地２７,,41,205,8480027,,,2023-08-31,清算の結了等,,,2015-10-05,1,,,,,イマリデンキコウジ,0
1731,8320002016855,登記記録の閉鎖等,0,2023-09-04,2023-08-31,有限会社寿恵ひろ,,有限会社,大分県,佐伯市,城下東町１番３号,,44,205,8760848,,,2023-08-31,清算の結了等,,,2015-10-05,1,,,,,,0
1745,8380001002594,登記記録の閉鎖等,0,2023-09-04,2023-08-31,株式会社鞄工作社いたがき,00082976,株式会社,福島県,伊達郡桑折町,大字万正寺字宮ノ西１番地の３,,07,301,9691651,,,2023-08-31,清算の結了等,,,2015-10-05,1,,,,,カバンコウサクシャイタガキ,0
1787,9010703006202,登記記録の閉鎖等,0,2023-09-04,2023-08-31,合同会社Ｃｈｅｒ　ａｎｇｅ,,合同会社,東京都,品川区,北品川１丁目２４番４号ディライトフルーＩＩ３０１,00126360,13,109,1400001,,,2023-08-31,清算の結了等,,,2022-04-21,1,,,,,シェールアンジュ,0
1788,9010802003364,登記記録の閉鎖等,0,2023-09-04,2023-09-01,有限会社開地製作所,,有限会社,東京都,大田区,東蒲田２丁目１７番５号,,13,111,1440031,,,2023-09-01,清算の結了等,,,2015-10-05,1,,,,,カイチセイサクショ,0
1791,9010901036711,登記記録の閉鎖等,0,2023-09-04,2023-08-30,株式会社さよし,,株式会社,東京都,世田谷区,下馬４丁目２６番１０号,,13,112,1540002,,,2023-08-30,清算の結了等,,,2015-10-05,1,,,,,サヨシ,0
1802,9011002014466,登記記録の閉鎖等,0,2023-09-04,2023-08-29,有限会社東都商会,,有限会社,東京都,渋谷区,鶯谷町１８番５号,,13,113,1500032,,,2023-08-29,清算の結了等,,,2015-10-05,1,,,,,トウトショウカイ,0
1813,9011602010055,登記記録の閉鎖等,0,2023-09-04,2023-08-30,有限会社森澄石材工業,,有限会社,東京都,練馬区,上石神井１丁目３０番３４号,,13,120,1770044,,,2023-08-30,清算の結了等,,,2015-10-05,1,,,,,モリズミセキザイコウギョウ,0
1814,9011801026034,登記記録の閉鎖等,0,2023-09-04,2023-08-29,株式会社ブロード,,株式会社,東京都,江東区,亀戸２丁目４４番１２号,,13,108,1360071,,,2023-08-29,清算の結了等,,,2015-10-05,1,,,,,ブロード,0
1817,9011802011464,登記記録の閉鎖等,0,2023-09-04,2023-08-30,有限会社かねます,,有限会社,東京都,足立区,西綾瀬２丁目２番６号,,13,121,1200014,,,2023-08-30,清算の結了等,,,2015-10-05,1,,,,,,0
1843,9030002059404,登記記録の閉鎖等,0,2023-09-04,2023-08-04,有限会社芙蓉技研工業,,有限会社,埼玉県,朝霞市,膝折町１丁目１番６号,,11,227,3510014,,,2023-08-04,清算の結了等,,,2015-10-05,1,,,,,フヨウギケンコウギョウ,0
1848,9030005009439,登記記録の閉鎖等,0,2023-09-04,2023-08-04,上里町繊維事業協同組合,,その他の設立登記法人,埼玉県,児玉郡上里町,大字三町５７８番地１０,,11,385,3690314,,,2023-08-04,清算の結了等,,,2015-10-05,1,,,,,カミサトマチセンイ,0
1855,9050002023837,登記記録の閉鎖等,0,2023-09-04,2023-08-29,有限会社亀隆科学,,有限会社,茨城県,古河市,本町１丁目３番４５号,,08,204,3060023,,,2023-08-29,清算の結了等,,,2015-10-05,1,,,,,キリュウカガク,0
1868,9100002027799,登記記録の閉鎖等,0,2023-09-04,2023-08-29,有限会社ウエハラ,,有限会社,長野県,諏訪郡下諏訪町,６４３７番地８,,20,361,3930000,,,2023-08-29,清算の結了等,,,2015-10-05,1,,,,,ウエハラ,0
1870,9110001031388,登記記録の閉鎖等,0,2023-09-04,2023-08-25,株式会社グリーン大海,,株式会社,新潟県,十日町市,松之山天水越８４６番地２,,15,210,9421435,,,2023-08-25,清算の結了等,,,2016-04-12,1,,,,,グリーンタイカイ,0
1890,9130001067141,登記記録の閉鎖等,0,2023-09-04,2023-08-14,株式会社樹商事,,株式会社,京都府,京都市右京区,西院乾町７０番地１ＪＯ－ＩＮジェミニビル４０１号,,26,108,6150061,,,2023-08-14,清算の結了等,,,2020-06-26,1,,,,,イツキショウジ,0
1911,9180002024062,登記記録の閉鎖等,0,2023-09-04,2023-08-31,有限会社藤和電機,,有限会社,愛知県,名古屋市西区,山木１丁目３６番地,,23,104,4520833,,,2023-08-31,清算の結了等,,,2015-10-05,1,,,,,トウワデンキ,0
1912,9180002051172,登記記録の閉鎖等,0,2023-09-04,2023-08-31,有限会社葵サンサン,,有限会社,愛知県,名古屋市中区,東桜２丁目２１番１０号,,23,106,4600005,,,2023-08-31,清算の結了等,,,2015-10-05,1,,,,,アオイサンサン,0
1916,9180003015317,登記記録の閉鎖等,0,2023-09-04,2023-08-30,合同会社エビのいちかわ,,合同会社,愛知県,名古屋市緑区,乗鞍１丁目１２０１番地の６,,23,114,4580004,,,2023-08-30,清算の結了等,,,2015-10-05,1,,,,,エビノイチカワ,0
1920,9180301010795,登記記録の閉鎖等,0,2023-09-04,2023-08-30,江頭株式会社,,株式会社,愛知県,蒲郡市,竹谷町松本１１番地３,,23,214,4430046,,,2023-08-30,清算の結了等,,,2015-10-05,1,,,,,エトウ,0
1921,9180301028672,登記記録の閉鎖等,0,2023-09-04,2023-08-29,アストロ株式会社,,株式会社,愛知県,安城市,箕輪町鳥屋金９１番地,,23,212,4460051,,,2023-08-29,清算の結了等,,,2015-12-07,1,,,,,アストロ,0
1929,9220001020685,登記記録の閉鎖等,0,2023-09-04,2023-08-28,株式会社ホットライフ・ラボ,,株式会社,石川県,金沢市,利屋町る１０番地,,17,201,9200101,,,2023-08-28,清算の結了等,,,2015-12-07,1,,,,,ホットライフラボ,0
1951,9290005003440,登記記録の閉鎖等,0,2023-09-04,2023-08-23,特定非営利活動法人塩浜学園,,その他の設立登記法人,福岡県,古賀市,庄６６－１,,40,223,8113116,,,2023-08-23,清算の結了等,,,2015-10-05,1,,,,,シオハマガクエン,0
1955,9300001008516,登記記録の閉鎖等,0,2023-09-04,2023-08-31,株式会社カルネ,,株式会社,佐賀県,鳥栖市,今泉町２２５７番地１７,,41,203,8410047,,,2023-08-31,清算の結了等,,,2015-10-05,1,,,,,カルネ,0
1986,9460002002502,登記記録の閉鎖等,0,2023-09-04,2023-08-31,有限会社ブレーン,,有限会社,北海道,釧路市,城山１丁目３番３１号,,01,206,0850826,,,2023-08-31,清算の結了等,,,2015-10-05,1,,,,,,0
1989,9480005000435,登記記録の閉鎖等,0,2023-09-04,2023-08-31,医療法人森本整形外科,,その他の設立登記法人,徳島県,徳島市,津田本町４丁目２番３１号,,36,201,7708003,,,2023-08-31,清算の結了等,,,2015-10-05,1,,,,,モリモトセイケイゲカ,0
