sequenceNumber,corporateNumber,process,correct,updateDate,changeDate,name,nameImageId,kind,prefectureName,cityName,streetNumber,addressImageId,prefectureCode,cityCode,postCode,addressOutside,addressOutsideImageId,closeDate,closeCause,successorCorporateNumber,changeCause,assignmentDate,latest,enName,enPrefectureName,enCityName,enAddressOutside,furigana,hihyoji
4,1010002002430,登記記録の閉鎖等,0,2025-01-06,2024-12-16,有限会社小室米店,,有限会社,東京都,文京区,湯島２丁目１１番７号,,13,105,1130034,,,2024-12-16,清算の結了等,,,2015-10-05,1,,,,,コムロコメテン,0
9,1010401093327,登記記録の閉鎖等,0,2025-01-06,2024-12-10,ｓｋｙ株式会社,,株式会社,東京都,港区,東麻布１丁目１４番５号,,13,103,1060044,,,2024-12-10,清算の結了等,,,2015-10-05,1,,,,,スカイ,0
40,1011303004933,登記記録の閉鎖等,0,2025-01-06,2024-12-26,合同会社日越社,,合同会社,東京都,杉並区,成田西２丁目３番２０号,,13,115,1660016,,,2024-12-26,清算の結了等,,,2023-10-16,1,,,,,ニチエツシャ,0
45,1011602004857,登記記録の閉鎖等,0,2025-01-06,2024-12-20,有限会社篠崎生花,,有限会社,東京都,練馬区,東大泉３丁目３番８号,,13,120,1780063,,,2024-12-20,清算の結了等,,,2015-10-05,1,,,,,,0
54,1013201016085,登記記録の閉鎖等,0,2025-01-06,2024-12-03,株式会社ＫＥＥＰ２０,,株式会社,東京都,目黒区,八雲３丁目２９番２０号,,13,110,1520023,,,2024-12-03,清算の結了等,,,2015-10-05,1,,,,,キープニジュウ,0
59,1013302001515,登記記録の閉鎖等,0,2025-01-06,2024-12-20,有限会社おおしも商事,,有限会社,東京都,豊島区,西巣鴨１丁目２番１９号,,13,116,1700001,,,2024-12-20,清算の結了等,,,2015-10-05,1,,,,,オオシモショウジ,0
60,1020001006547,登記記録の閉鎖等,0,2025-01-06,2024-12-23,株式会社徳一,,株式会社,神奈川県,横浜市金沢区,鳥浜町１番１,,14,108,2360002,,,2024-12-23,清算の結了等,,,2015-10-05,1,,,,,トクイチ,0
62,1020001041577,登記記録の閉鎖等,0,2025-01-06,2024-12-24,トップフーズ株式会社,,株式会社,北海道,札幌市中央区,大通西２３丁目２番２５号ラ・メール円山公園１階,,01,101,0640820,,,2024-12-24,清算の結了等,,,2015-10-05,1,,,,,トップフーズ,0
68,1020002100448,登記記録の閉鎖等,0,2025-01-06,2024-12-02,有限会社全信,,有限会社,神奈川県,川崎市中原区,新丸子東２丁目９２４番地８,,14,133,2110004,,,2024-12-02,合併による解散等,1020001075550,令和６年１１月３０日川崎市中原区新丸子東二丁目９２４番地８株式会社三誠（1020001075550）に合併し解散,2015-10-05,1,,,,,ゼンシン,0
79,1021002018481,登記記録の閉鎖等,0,2025-01-06,2024-12-26,有限会社エビス産業,,有限会社,神奈川県,相模原市南区,相模台４丁目２番１２号,,14,153,2520321,,,2024-12-26,清算の結了等,,,2015-10-05,1,,,,,エビスサンギョウ,0
95,1030003021238,登記記録の閉鎖等,0,2025-01-06,2024-12-25,ＶＢＫ合同会社,,合同会社,埼玉県,吉川市,美南２丁目１０番地８,,11,243,3420038,,,2024-12-25,清算の結了等,,,2023-02-22,1,,,,,ブイビーケイ,0
107,1040002006073,登記記録の閉鎖等,0,2025-01-06,2024-12-25,有限会社進商事,,有限会社,千葉県,千葉市若葉区,殿台町４２４番地の９,,12,104,2640036,,,2024-12-25,清算の結了等,,,2015-10-05,1,,,,,ススムショウジ,0
111,1050002028240,登記記録の閉鎖等,0,2025-01-06,2024-12-16,うるおい訪問介護サービス有限会社,,有限会社,茨城県,神栖市,波崎５１８２番地,,08,232,3140408,,,2024-12-16,清算の結了等,,,2015-10-05,1,,,,,ウルオイホウモンカイゴサービス,0
114,1070002018495,登記記録の閉鎖等,0,2025-01-06,2024-12-24,有限会社内山燃料店,,有限会社,群馬県,伊勢崎市,若葉町１９番１７号,,10,204,3720811,,,2024-12-24,清算の結了等,,,2015-10-05,1,,,,,ウチヤマネンリョウテン,0
119,1080102021068,登記記録の閉鎖等,0,2025-01-06,2024-12-25,有限会社東研システム,,有限会社,静岡県,下田市,吉佐美３１４番地の２,,22,219,4150028,,,2024-12-25,清算の結了等,,,2015-10-05,1,,,,,トウケンシステム,0
143,1120103001717,登記記録の閉鎖等,0,2025-01-06,2024-12-27,合同会社ゆたかな農園,,合同会社,大阪府,泉南市,新家２１３７,,27,228,5900503,,,2024-12-27,清算の結了等,,,2015-10-05,1,,,,,ユタカナノウエン,0
148,1130001050030,登記記録の閉鎖等,0,2025-01-06,2024-12-25,株式会社平安スズキ,,株式会社,京都府,京都市西京区,桂千代原町５６番地,,26,111,6158085,,,2024-12-25,清算の結了等,,,2015-10-05,1,,,,,ヘイアンスズキ,0
166,1150001024065,登記記録の閉鎖等,0,2025-01-06,2024-12-27,株式会社Ｂｌｕｅ　Ｒｏｓｅ,,株式会社,奈良県,奈良市,中山町１２５９－２１,,29,201,6310012,,,2024-12-27,清算の結了等,,,2020-09-28,1,,,,,ブルーローズ,0
185,1190002002099,登記記録の閉鎖等,0,2025-01-06,2024-12-26,有限会社丸賀建設,,有限会社,三重県,津市,芸濃町雲林院１９８６番地,,24,201,5142204,,,2024-12-26,清算の結了等,,,2015-10-05,1,,,,,,0
189,1200001016726,登記記録の閉鎖等,0,2025-01-06,2024-12-25,株式会社ビサイド,,株式会社,岐阜県,大垣市,大島町２丁目３９８番地１,,21,202,5030001,,,2024-12-25,清算の結了等,,,2015-10-05,1,,,,,ビサイド,0
206,1260002027733,登記記録の閉鎖等,0,2025-01-06,2024-12-23,有限会社インテリア今屋,,有限会社,岡山県,津山市,川崎６１２番地,,33,203,7080841,,,2024-12-23,清算の結了等,,,2015-10-05,1,,,,,インテリアイマヤ,0
236,1370102000298,登記記録の閉鎖等,0,2025-01-06,2024-12-25,有限会社嶋伝,,有限会社,宮城県,柴田郡大河原町,字町１７３番地,,04,321,9891241,,,2024-12-25,清算の結了等,,,2015-10-05,1,,,,,シマデン,0
237,1380001015347,登記記録の閉鎖等,0,2025-01-06,2024-12-20,株式会社フラワー才丸,,株式会社,福島県,いわき市,植田町本町２丁目６番地の１３,,07,204,9748261,,,2024-12-20,清算の結了等,,,2015-10-05,1,,,,,フラワーサイマル,0
259,1500001002191,登記記録の閉鎖等,0,2025-01-06,2024-12-25,昭和電設株式会社,,株式会社,愛媛県,松山市,天山３丁目５番２３号,,38,201,7900951,,,2024-12-25,清算の結了等,,,2015-10-05,1,,,,,ショウワデンセツ,0
287,2010701035102,登記記録の閉鎖等,0,2025-01-06,2024-12-26,ディグイン株式会社,,株式会社,滋賀県,大津市,萱野浦２５番４７号,,25,201,5202143,,,2024-12-26,合併による解散等,2010403018173,令和６年１２月２０日京都市左京区田中東春菜町３０－３ケノビ株式会社（2010403018173）に合併し解散,2017-12-19,1,,,,,ディグイン,0
294,2010802020093,登記記録の閉鎖等,0,2025-01-06,2024-12-25,有限会社桂花社,,有限会社,東京都,大田区,田園調布２丁目２６番１８－２０５号,,13,111,1450071,,,2024-12-25,清算の結了等,,,2015-10-05,1,,,,,ケイカシャ,0
300,2010902007362,登記記録の閉鎖等,0,2025-01-06,2024-12-25,有限会社伸東工業,,有限会社,東京都,世田谷区,玉川４丁目２２番９号,,13,112,1580094,,,2024-12-25,清算の結了等,,,2015-10-05,1,,,,,シントウコウギョウ,0
314,2011501028741,登記記録の閉鎖等,0,2025-01-06,2024-12-23,信仁株式会社,,株式会社,東京都,荒川区,南千住１丁目４５番８－１０３号Ｅ,,13,118,1160003,,,2024-12-23,清算の結了等,,,2022-12-08,1,,,,,シンジン,0
331,2020001083593,登記記録の閉鎖等,0,2025-01-06,2024-12-19,株式会社神奈川ビジネスアカデミー,,株式会社,神奈川県,横浜市泉区,和泉中央南５丁目８番５－１１０号,,14,116,2450023,,,2024-12-19,清算の結了等,,,2015-10-05,1,,,,,カナガワビジネスアカデミー,0
336,2020002059997,登記記録の閉鎖等,0,2025-01-06,2024-12-17,有限会社アラカルト,,有限会社,神奈川県,横浜市保土ケ谷区,天王町１丁目３３番地の１,,14,106,2400003,,,2024-12-17,清算の結了等,,,2015-10-05,1,,,,,アラカルト,0
342,2021002028645,登記記録の閉鎖等,0,2025-01-06,2024-12-26,有限会社かざまき,,有限会社,神奈川県,相模原市中央区,上溝６丁目３番１７号,,14,152,2520243,,,2024-12-26,清算の結了等,,,2015-10-05,1,,,,,カザマキ,0
371,2060002002838,登記記録の閉鎖等,0,2025-01-06,2024-12-18,有限会社神野商会,,有限会社,栃木県,宇都宮市,一条１丁目３番２３号,,09,201,3200821,,,2024-12-18,清算の結了等,,,2015-10-05,1,,,,,カンノショウカイ,0
378,2070002028584,登記記録の閉鎖等,0,2025-01-06,2024-12-25,有限会社オールエイジソサエティーハーズ,,有限会社,群馬県,太田市,世良田町３１０１番地４,,10,205,3700426,,,2024-12-25,清算の結了等,,,2015-10-05,1,,,,,オールエイジソサエティーハーズ,0
380,2080102007603,登記記録の閉鎖等,0,2025-01-06,2024-12-25,有限会社ユウ動物病院,,有限会社,静岡県,御殿場市,川島田１７４番地の１２,,22,215,4120045,,,2024-12-25,清算の結了等,,,2015-10-05,1,,,,,ユウドウブツビョウイン,0
381,2080402003475,登記記録の閉鎖等,0,2025-01-06,2024-12-26,有限会社信栄工業,,有限会社,静岡県,浜松市中央区,高丘西２丁目３番２５号,,22,138,4338118,,,2024-12-26,清算の結了等,,,2015-10-05,1,,,,,シンエイコウギョウ,0
388,2120001001867,登記記録の閉鎖等,0,2025-01-06,2024-12-24,三喜メタルモールド株式会社,,株式会社,大阪府,大阪市鶴見区,諸口１丁目２番４６号,,27,124,5380051,,,2024-12-24,清算の結了等,,,2015-10-05,1,,,,,ミキメタルモールド,0
404,2120901001941,登記記録の閉鎖等,0,2025-01-06,2024-12-26,ホクセツ産業株式会社,,株式会社,大阪府,茨木市,山手台５丁目２６番２７号,,27,211,5670009,,,2024-12-26,清算の結了等,,,2015-10-05,1,,,,,,0
413,2140001045391,登記記録の閉鎖等,0,2025-01-06,2024-12-25,アルト株式会社,,株式会社,兵庫県,加古川市,志方町志方町９１９番地の４,,28,210,6750321,,,2024-12-25,清算の結了等,,,2015-10-05,1,,,,,アルト,0
424,2180001113319,登記記録の閉鎖等,0,2025-01-06,2024-12-23,株式会社大暉工業,,株式会社,愛知県,名古屋市中川区,法華２丁目４５第２西垣ハイツ４０６,,23,110,4540933,,,2024-12-23,清算の結了等,,,2015-10-05,1,,,,,ダイキコウギョウ,0
451,2250001000187,登記記録の閉鎖等,0,2025-01-06,2024-12-25,株式会社クマヤ組,,株式会社,山口県,山口市,吉敷中東４丁目１１番３３号,,35,203,7530813,,,2024-12-25,清算の結了等,,,2015-10-05,1,,,,,クマヤグミ,0
455,2270001000706,登記記録の閉鎖等,0,2025-01-06,2024-12-27,株式会社ベルモード,,株式会社,鳥取県,鳥取市,永楽温泉町１０１番地,,31,201,6800834,,,2024-12-27,清算の結了等,,,2015-10-05,1,,,,,ベルモード,0
471,2320002010293,登記記録の閉鎖等,0,2025-01-06,2024-12-26,有限会社アイ・エヌ・テイ,,有限会社,大分県,由布市,湯布院町川上１１８８番地２６,,44,213,8795102,,,2024-12-26,清算の結了等,,,2015-10-05,1,,,,,,0
472,2320002018675,登記記録の閉鎖等,0,2025-01-06,2024-12-25,向野工務店有限会社,,有限会社,大分県,豊後大野市,三重町小坂４０２４番地２６,,44,212,8797104,,,2024-12-25,清算の結了等,,,2015-10-05,1,,,,,,0
473,2330003003394,登記記録の閉鎖等,0,2025-01-06,2024-12-24,合資会社八代木工,,合資会社,熊本県,八代市,西宮町８５８番地,,43,202,8660804,,,2024-12-24,清算の結了等,,,2015-10-05,1,,,,,ヤツシロモッコウ,0
488,2390001008596,登記記録の閉鎖等,0,2025-01-06,2024-12-25,株式会社相馬セメント,,株式会社,山形県,新庄市,万場町３番１５号,,06,205,9960028,,,2024-12-25,清算の結了等,,,2015-10-05,1,,,,,ソウマセメント,0
494,2450001008879,登記記録の閉鎖等,0,2025-01-06,2024-12-25,北嶋製粉株式会社,,株式会社,北海道,留萌市,栄町２丁目６番２号,,01,212,0770007,,,2024-12-25,清算の結了等,,,2015-10-05,1,,,,,キタジマセイフン,0
495,2460001005941,登記記録の閉鎖等,0,2025-01-06,2024-12-13,株式会社東幸,,株式会社,北海道,釧路市,鳥取大通４丁目３番１３号,,01,206,0840906,,,2024-12-13,清算の結了等,,,2024-10-16,1,,,,,トウコウ,0
512,3010003022491,登記記録の閉鎖等,0,2025-01-06,2024-12-16,ＰＧ　Ｉｎｖｅｓｔｍｅｎｔ合同会社,,合同会社,東京都,千代田区,神田神保町１丁目１１番地さくら綜合事務所内,,13,101,1010051,,,2024-12-16,清算の結了等,,,2015-10-14,1,,,,,ピージーインベストメント,0
519,3010401183596,登記記録の閉鎖等,0,2025-01-06,2024-12-12,株式会社安裕,,株式会社,東京都,港区,浜松町２丁目２番１５号浜松町ダイヤビル２Ｆ,,13,103,1050013,,,2024-12-12,清算の結了等,,,2024-07-05,1,,,,,アンユウ,0
538,3011101002699,登記記録の閉鎖等,0,2025-01-06,2024-12-24,株式会社ＳＨ建築事務所,,株式会社,東京都,新宿区,新宿５丁目６番１１号,,13,104,1600022,,,2024-12-24,清算の結了等,,,2015-10-05,1,,,,,エスエイチケンチクジムショ,0
545,3011202007770,登記記録の閉鎖等,0,2025-01-06,2024-12-26,有限会社メディアプラン,,有限会社,東京都,中野区,白鷺２丁目１３番３－６０１号,,13,114,1650035,,,2024-12-26,清算の結了等,,,2015-10-05,1,,,,,,0
546,3011301017126,登記記録の閉鎖等,0,2025-01-06,2024-12-26,株式会社高円寺ドットネット,,株式会社,東京都,杉並区,高円寺南３丁目１０番１５号,,13,115,1660003,,,2024-12-26,清算の結了等,,,2015-10-05,1,,,,,コウエンジドットネット,0
555,3012401000194,登記記録の閉鎖等,0,2025-01-06,2024-12-25,市川不動産管理株式会社,,株式会社,東京都,府中市,美好町１丁目７番地の２,,13,206,1830045,,,2024-12-25,清算の結了等,,,2015-10-05,1,,,,,イチカワフドウサンカンリ,0
561,3013302015109,登記記録の閉鎖等,0,2025-01-06,2024-12-20,有限会社コルベーユ,,有限会社,東京都,豊島区,要町１丁目１０番１号,,13,116,1710043,,,2024-12-20,清算の結了等,,,2015-10-05,1,,,,,コルベーユ,0
562,3013305003127,登記記録の閉鎖等,0,2025-01-06,2024-12-19,マイファリエ十字街管理組合法人,,その他の設立登記法人,東京都,豊島区,長崎４丁目１１番１０号,,13,116,1710051,,,2024-12-19,清算の結了等,,,2020-09-16,1,,,,,マイファリエジュウジガイ,0
579,3020003007533,登記記録の閉鎖等,0,2025-01-06,2024-12-20,合同会社アドレ・キッズ,,合同会社,神奈川県,横浜市港北区,富士塚２丁目２８番１６号,,14,109,2220012,,,2024-12-20,清算の結了等,,,2015-10-05,1,,,,,アドレキッズ,0
581,3020005012928,登記記録の閉鎖等,0,2025-01-06,2024-12-16,特定非営利活動法人ザ・事務方,,その他の設立登記法人,神奈川県,川崎市高津区,下作延４丁目１５番２６号トップヒルハウス１０１,,14,134,2130033,,,2024-12-16,清算の結了等,,,2017-01-18,1,,,,,ザジムカタ,0
591,3021005009006,登記記録の閉鎖等,0,2025-01-06,2024-12-26,医療法人社団恵和会,,その他の設立登記法人,神奈川県,鎌倉市,大船２丁目６番７号ベルデ鎌倉芸術館通り１０２号,,14,204,2470056,,,2024-12-26,清算の結了等,,,2015-10-05,1,,,,,ケイワカイ,0
619,3040002002946,登記記録の閉鎖等,0,2025-01-06,2024-12-13,有限会社金野建設,,有限会社,千葉県,千葉市花見川区,柏井４丁目２９番４号,,12,102,2620048,,,2024-12-13,清算の結了等,,,2015-10-05,1,,,,,コンノケンセツ,0
634,3080102013732,登記記録の閉鎖等,0,2025-01-06,2024-12-25,有限会社木根製作所,,有限会社,静岡県,富士市,津田２６０番地の３７,,22,210,4170034,,,2024-12-25,清算の結了等,,,2015-10-05,1,,,,,キネセイサクショ,0
648,3110002019438,登記記録の閉鎖等,0,2025-01-06,2024-12-26,株式会社互コーポレーション,,株式会社,新潟県,燕市,小関１１０２番地１,,15,213,9591286,,,2024-12-26,清算の結了等,,,2015-10-05,1,,,,,タガイコーポレーション,0
703,3210002009247,登記記録の閉鎖等,0,2025-01-06,2024-12-26,有限会社バーズ,,有限会社,石川県,金沢市,西金沢新町３３番地,,17,201,9218055,,,2024-12-26,清算の結了等,,,2015-10-05,1,,,,,バーズ,0
718,3290002032407,登記記録の閉鎖等,0,2025-01-06,2024-12-12,有限会社ポエム,,有限会社,福岡県,福岡市博多区,大字立花寺１番地１９,,40,132,8120862,,,2024-12-12,清算の結了等,,,2015-10-05,1,,,,,ポエム,0
726,3310002006738,登記記録の閉鎖等,0,2025-01-06,2024-12-26,ミサキフーズ有限会社,,有限会社,長崎県,長崎市,戸石町２８０６番地１７,,42,201,8510113,,,2024-12-26,清算の結了等,,,2015-10-05,1,,,,,ミサキフーズ,0
736,3360002018811,登記記録の閉鎖等,0,2025-01-06,2024-12-26,有限会社　テクニカルシート産業,,有限会社,沖縄県,宜野湾市,大山１丁目１４－２－２０２,,47,205,9012223,,,2024-12-26,清算の結了等,,,2015-10-05,1,,,,,テクニカルシートサンギョウ,0
739,3370202003876,登記記録の閉鎖等,0,2025-01-06,2024-12-20,有限会社加美設備工業,,有限会社,宮城県,加美郡色麻町,一の関字片平前４番地,,04,444,9814121,,,2024-12-20,清算の結了等,,,2015-10-05,1,,,,,カミセツビコウギョウ,0
740,3380001008919,登記記録の閉鎖等,0,2025-01-06,2024-12-20,オリエンタルデザイン株式会社,,株式会社,福島県,郡山市,久留米１丁目７５番地の５,,07,203,9638846,,,2024-12-20,清算の結了等,,,2015-10-05,1,,,,,オリエンタルデザイン,0
743,3380002015559,登記記録の閉鎖等,0,2025-01-06,2024-12-20,有限会社宗像製作所,,有限会社,福島県,田村市,常葉町常葉字白地石５９番地１,,07,211,9634602,,,2024-12-20,清算の結了等,,,2015-10-05,1,,,,,,0
757,3460101004999,登記記録の閉鎖等,0,2025-01-06,2024-12-23,さほろ酒造株式会社,,株式会社,北海道,上川郡新得町,字新内６３９番地２,,01,635,0810039,,,2024-12-23,清算の結了等,,,2015-10-05,1,,,,,,0
760,3490002003701,登記記録の閉鎖等,0,2025-01-06,2024-12-26,有限会社トーリツ,,有限会社,高知県,高知市,東石立町１０６番地３,,39,201,7808039,,,2024-12-26,清算の結了等,,,2015-10-05,1,,,,,,0
770,4010005034138,登記記録の閉鎖等,0,2025-01-06,2024-12-25,健康医療情報標準流通基盤技術研究組合,,その他の設立登記法人,東京都,文京区,本郷７丁目３番１号,,13,105,1130033,,,2024-12-25,清算の結了等,,,2021-10-28,1,,,,,ケンコウイリョウジョウホウヒョウジュンリュウツウキバン,0
792,4010702006694,登記記録の閉鎖等,0,2025-01-06,2024-12-19,有限会社春木屋,,有限会社,東京都,品川区,旗の台４丁目１番８号,,13,109,1420064,,,2024-12-19,清算の結了等,,,2015-10-05,1,,,,,ハルキヤ,0
805,4011002010560,登記記録の閉鎖等,0,2025-01-06,2024-12-04,有限会社フオルジユ,,有限会社,東京都,渋谷区,神南１丁目１３番１４号,,13,113,1500041,,,2024-12-04,清算の結了等,,,2015-10-05,1,,,,,,0
812,4011201013959,登記記録の閉鎖等,0,2025-01-06,2024-12-26,株式会社ソーシャルビジネスデザイン,,株式会社,東京都,中野区,白鷺２丁目１３番３－６０１号,,13,114,1650035,,,2024-12-26,清算の結了等,,,2015-10-05,1,,,,,,0
847,4020002029635,登記記録の閉鎖等,0,2025-01-06,2024-12-17,有限会社木村糸綿店,,有限会社,神奈川県,横浜市南区,中島町３丁目５０番地,,14,105,2320055,,,2024-12-17,清算の結了等,,,2015-10-05,1,,,,,,0
848,4020002071199,登記記録の閉鎖等,0,2025-01-06,2024-12-16,アルス・エンジニアリング有限会社,,有限会社,神奈川県,横浜市神奈川区,羽沢南２丁目３４番１９号,,14,102,2210866,,,2024-12-16,清算の結了等,,,2015-10-05,1,,,,,アルスエンジニアリング,0
858,4030001123891,登記記録の閉鎖等,0,2025-01-06,2024-12-25,株式会社マリア・デュオ,,株式会社,埼玉県,さいたま市見沼区,大字大谷１３６４番地１,,11,104,3370014,,,2024-12-25,清算の結了等,,,2018-01-19,1,,,,,マリアデュオ,0
880,4040002100286,登記記録の閉鎖等,0,2025-01-06,2024-12-13,三正企業有限会社,,有限会社,千葉県,南房総市,二部６３１番地,,12,234,2992214,,,2024-12-13,清算の結了等,,,2024-08-19,1,,,,,サンショウキギョウ,0
896,4070002019111,登記記録の閉鎖等,0,2025-01-06,2024-12-24,下城商事有限会社,,有限会社,群馬県,伊勢崎市,今泉町１丁目１４番地１,,10,204,3720031,,,2024-12-24,清算の結了等,,,2015-10-05,1,,,,,シモジョウショウジ,0
905,4100001011107,登記記録の閉鎖等,0,2025-01-06,2024-12-12,山一木材工業株式会社,,株式会社,長野県,小県郡長和町,和田５６１番地,,20,350,3860701,,,2024-12-12,清算の結了等,,,2015-10-05,1,,,,,ヤマイチモクザイコウギョウ,0
907,4100003002748,登記記録の閉鎖等,0,2025-01-06,2024-12-26,合資会社サス吉春日呉服店,,合資会社,長野県,伊那市,高遠町西高遠１６５０番地,,20,209,3960211,,,2024-12-26,清算の結了等,,,2015-10-05,1,,,,,サスキチカスガゴフクテン,0
932,4120902010808,登記記録の閉鎖等,0,2025-01-06,2024-12-24,有限会社テクノ久保,,有限会社,大阪府,高槻市,津之江町２丁目３３番５号,,27,207,5690822,,,2024-12-24,清算の結了等,,,2015-10-05,1,,,,,テクノクボ,0
941,4140001132972,登記記録の閉鎖等,0,2025-01-06,2024-12-24,株式会社ロイハート,,株式会社,兵庫県,神戸市垂水区,山手７丁目４番６号,,28,108,6550891,,,2024-12-24,清算の結了等,,,2024-01-11,1,,,,,ロイハート,0
950,4160005010941,登記記録の閉鎖等,0,2025-01-06,2024-12-26,一般社団法人大津で落語を楽しむ会,,その他の設立登記法人,滋賀県,大津市,中央１丁目９番６号,,25,201,5200043,,,2024-12-26,清算の結了等,,,2021-06-02,1,,,,,,0
1006,4310001002035,登記記録の閉鎖等,0,2025-01-06,2024-12-13,ＭＵ企画株式会社,,株式会社,長崎県,長崎市,滑石２丁目１番３８号,,42,201,8528061,,,2024-12-13,清算の結了等,,,2015-10-05,1,,,,,エムユーキカク,0
1011,4350003002450,登記記録の閉鎖等,0,2025-01-06,2024-12-25,合同会社葵産業,,合同会社,宮崎県,西都市,水流崎町１４番地,,45,208,8810036,,,2024-12-25,清算の結了等,,,2015-10-05,1,,,,,アオイサンギョウ,0
1015,4380001024683,登記記録の閉鎖等,0,2025-01-06,2024-12-20,株式会社ケア・コンシェルジュ,,株式会社,福島県,郡山市,大槻町字西ノ宮西３番地の１１,,07,203,9630201,,,2024-12-20,清算の結了等,,,2015-10-05,1,,,,,ケアコンシェルジュ,0
1021,4420002017459,登記記録の閉鎖等,0,2025-01-06,2024-12-25,有限会社二又燃料店,,有限会社,青森県,三沢市,大町２丁目３番７号,,02,207,0330041,,,2024-12-25,清算の結了等,,,2015-10-05,1,,,,,フタマタネンリョウテン,0
1032,4470005002899,登記記録の閉鎖等,0,2025-01-06,2024-12-20,まんのう町土地開発公社,,その他の設立登記法人,香川県,仲多度郡まんのう町,吉野下４３０番地,,37,406,7660022,,,2024-12-20,清算の結了等,,,2015-10-05,1,,,,,マンノウチョウ,0
1037,5010001030544,登記記録の閉鎖等,0,2025-01-06,2024-12-16,武藤幸株式会社,,株式会社,東京都,千代田区,紀尾井町３番３２号,,13,101,1020094,,,2024-12-16,清算の結了等,,,2015-10-05,1,,,,,ムトウコウ,0
1038,5010001130609,登記記録の閉鎖等,0,2025-01-06,2024-12-26,株式会社ジー・エフ,,株式会社,東京都,江東区,富岡２丁目１１番１８号,,13,108,1350047,,,2024-12-26,清算の結了等,,,2015-10-05,1,,,,,ジーエフ,0
1050,5010403017461,登記記録の閉鎖等,0,2025-01-06,2024-12-12,ＳＢＧマネージャーズ合同会社,,合同会社,東京都,港区,海岸１丁目７番１号,,13,103,1050022,,,2024-12-12,清算の結了等,,,2017-10-30,1,,,,,エスビージーマネージャーズ,0
1073,5011005008188,登記記録の閉鎖等,0,2025-01-06,2024-12-04,一般社団法人プロっ子ワールド協会,,その他の設立登記法人,東京都,目黒区,上目黒１丁目１７番１０,,13,110,1530051,,,2024-12-04,清算の結了等,,,2019-07-11,1,,,,,プロッコワールドキョウカイ,0
1090,5012403003730,登記記録の閉鎖等,0,2025-01-06,2024-12-26,ＡＢＩ合同会社,,合同会社,東京都,調布市,国領町５丁目２８番地８、３０１,,13,208,1820022,,,2024-12-26,清算の結了等,,,2019-01-10,1,,,,,エービーアイ,0
1093,5013301027862,登記記録の閉鎖等,0,2025-01-06,2024-12-26,ＡＣＧ　Ｒｉｇｈｔｓ株式会社,,株式会社,東京都,杉並区,西荻南３丁目５番１９号,,13,115,1670053,,,2024-12-26,清算の結了等,,,2015-10-05,1,,,,,,0
1095,5020001013639,登記記録の閉鎖等,0,2025-01-06,2024-12-20,株式会社日立美研,,株式会社,神奈川県,横浜市南区,高根町３丁目１７番地,,14,105,2320022,,,2024-12-20,清算の結了等,,,2015-10-05,1,,,,,ヒタチビケン,0
1121,5030001092269,登記記録の閉鎖等,0,2025-01-06,2024-12-23,オランダ農業振興会株式会社,,株式会社,東京都,豊島区,南池袋２丁目１０番３号,,13,116,1710022,,,2024-12-23,清算の結了等,,,2015-10-05,1,,,,,オランダノウギョウシンコウカイ,0
1155,5080001025224,登記記録の閉鎖等,0,2025-01-06,2024-12-24,株式会社南條工務店,,株式会社,静岡県,焼津市,駅北３丁目１４番４号,,22,212,4250028,,,2024-12-24,清算の結了等,,,2022-10-06,1,,,,,ナンジョウコウムテン,0
1184,5120002063895,登記記録の閉鎖等,0,2025-01-06,2024-12-24,有限会社オール・サービス,,有限会社,大阪府,大阪市住吉区,我孫子東２丁目９番３４号,,27,120,5580013,,,2024-12-24,清算の結了等,,,2015-10-05,1,,,,,オールサービス,0
1211,5180001153254,登記記録の閉鎖等,0,2025-01-06,2024-12-23,株式会社Ｓｃｒｉａｄ,,株式会社,愛知県,名古屋市千種区,仲田２丁目１７番７号池下タワーズ９０１号室,,23,101,4640074,,,2024-12-23,清算の結了等,,,2022-10-05,1,,,,,スクリア,0
1224,5190001007723,登記記録の閉鎖等,0,2025-01-06,2024-12-25,株式会社アリーナ保険事務所,,株式会社,三重県,伊勢市,二見町山田原６９番地７,,24,203,5190604,,,2024-12-25,清算の結了等,,,2015-10-05,1,,,,,アリーナホケンジムショ,0
1237,5240002006413,登記記録の閉鎖等,0,2025-01-06,2024-12-12,有限会社三栄開発,,有限会社,広島県,広島市安佐北区,口田１丁目１７番１５号,,34,106,7391734,,,2024-12-12,清算の結了等,,,2015-10-05,1,,,,,,0
1272,5300002010846,登記記録の閉鎖等,0,2025-01-06,2024-12-25,魚見有限会社,,有限会社,佐賀県,唐津市,浜玉町東山田４１４４番地２,,41,202,8495123,,,2024-12-25,清算の結了等,,,2015-10-05,1,,,,,ウオミ,0
1274,5310002017931,登記記録の閉鎖等,0,2025-01-06,2024-12-24,有限会社佐原工務店,,有限会社,長崎県,島原市,寺町５９３２番地２,,42,203,8550852,,,2024-12-24,清算の結了等,,,2015-10-05,1,,,,,サハラコウムテン,0
1278,5340002028694,登記記録の閉鎖等,0,2025-01-06,2024-12-19,宮内商事有限会社,,有限会社,鹿児島県,霧島市,隼人町内山田２２１６番地,,46,218,8995106,,,2024-12-19,清算の結了等,,,2024-04-25,1,,,,,ミヤウチショウジ,0
1279,5360001017878,登記記録の閉鎖等,0,2025-01-06,2024-12-26,株式会社ＧＡＮＡＲ,,株式会社,沖縄県,那覇市,松山１丁目８番１９号,,47,201,9000032,,,2024-12-26,清算の結了等,,,2015-10-05,1,,,,,ガナール,0
1298,5430002049401,登記記録の閉鎖等,0,2025-01-06,2024-12-25,有限会社谷脇電気商会,,有限会社,北海道,岩見沢市,上幌向町６９７番地,,01,210,0690365,,,2024-12-25,清算の結了等,,,2015-10-05,1,,,,,タニワキデンキショウカイ,0
1309,6010001214187,登記記録の閉鎖等,0,2025-01-06,2024-12-17,ＫＯＣ‐ＳＧ株式会社,,株式会社,東京都,中央区,銀座７丁目１３番２０号銀座ＴＨビル９階,,13,102,1040061,,,2024-12-17,清算の結了等,,,2020-12-07,1,,,,,ケイオーシーエスジー,0
1320,6010401102520,登記記録の閉鎖等,0,2025-01-06,2024-12-13,日の出ＰＭ株式会社,,株式会社,東京都,港区,海岸１丁目７番１号,,13,103,1050022,,,2024-12-13,清算の結了等,,,2015-10-05,1,,,,,ヒノデピーエムヒノデ,0
1326,6010405016923,登記記録の閉鎖等,0,2025-01-06,2024-12-13,一般社団法人Ｓｏｄｅｇａｈａｍａ,,その他の設立登記法人,東京都,港区,虎ノ門５丁目１番４号,,13,103,1050001,,,2024-12-13,清算の結了等,,,2018-07-20,1,,,,,ソデガハマ,0
1338,6011001152947,登記記録の閉鎖等,0,2025-01-06,2024-12-04,株式会社はまむ,,株式会社,東京都,渋谷区,円山町５番５号Ｎａｖｉ渋谷Ｖ３階,,13,113,1500044,,,2024-12-04,清算の結了等,,,2023-03-08,1,,,,,ハマム,0
1354,6012402023191,登記記録の閉鎖等,0,2025-01-06,2024-12-26,有限会社プロジェクトチノ,,有限会社,東京都,三鷹市,下連雀３丁目４２番２－３０３号,,13,204,1810013,,,2024-12-26,清算の結了等,,,2015-10-05,1,,,,,プロジェクトチノ,0
1357,6013301028521,登記記録の閉鎖等,0,2025-01-06,2024-12-12,名取建設株式会社,,株式会社,東京都,豊島区,西池袋１丁目２８番７号ニイミビル,,13,116,1710021,,,2024-12-12,清算の結了等,,,2015-10-05,1,,,,,ナトリケンセツ,0
1361,6020002005535,登記記録の閉鎖等,0,2025-01-06,2024-12-23,有限会社エフ・ケイ・ジープラン,,有限会社,神奈川県,横浜市都筑区,中川３丁目２２番地１９号,,14,118,2240001,,,2024-12-23,清算の結了等,,,2015-10-05,1,,,,,エフケイジープラン,0
1380,6030002014106,登記記録の閉鎖等,0,2025-01-06,2024-12-25,有限会社山平海産,00016193,有限会社,埼玉県,さいたま市北区,別所町２９番地の４４,,11,102,3310821,,,2024-12-25,清算の結了等,,,2015-10-05,1,,,,,ヤマヘイカイサン,0
1403,6090003001411,登記記録の閉鎖等,0,2025-01-06,2024-12-23,合同会社Ｇｏｎ,,合同会社,山梨県,大月市,大月町花咲２７９番地５,,19,206,4010015,,,2024-12-23,清算の結了等,,,2018-05-02,1,,,,,ゴン,0
1422,6120901038419,登記記録の閉鎖等,0,2025-01-06,2024-12-26,株式会社ＨＫ　ＳＴＥＰ,,株式会社,大阪府,池田市,満寿美町７番２８－１０３号,,27,204,5630041,,,2024-12-26,清算の結了等,,,2017-05-11,1,,,,,,0
1434,6140001042765,登記記録の閉鎖等,0,2025-01-06,2024-12-25,株式会社洸陽,,株式会社,兵庫県,加古川市,野口町良野５４２番地の１,,28,210,6750017,,,2024-12-25,清算の結了等,,,2015-10-05,1,,,,,コウヨウ,0
1437,6140001115562,登記記録の閉鎖等,0,2025-01-06,2024-12-12,株式会社阪神Ｔ・Ｎ・Ａ,,株式会社,兵庫県,芦屋市,大桝町１番１８号,,28,206,6590066,,,2024-12-12,清算の結了等,,,2019-11-21,1,,,,,ハンシンティーエヌエー,0
1445,6150002008277,登記記録の閉鎖等,0,2025-01-06,2024-12-24,有限会社ケアセンター華の木,,有限会社,奈良県,橿原市,南八木町３丁目４３－１,,29,205,6340077,,,2024-12-24,清算の結了等,,,2015-10-05,1,,,,,ケアセンターハナノキ,0
1457,6190001027596,登記記録の閉鎖等,0,2025-01-06,2024-12-23,株式会社ＥＧ－ＥＳＴＡＴＥ,,株式会社,愛知県,名古屋市名東区,八前２丁目３１１番地,,23,115,4650018,,,2024-12-23,清算の結了等,,,2020-08-18,1,,,,,イージーエステート,0
1458,6190001029980,登記記録の閉鎖等,0,2025-01-06,2024-12-26,ＥＳプラス株式会社,,株式会社,三重県,四日市市,別名５丁目４番２８号,,24,202,5100007,,,2024-12-26,清算の結了等,,,2022-12-02,1,,,,,イーエスプラス,0
1475,6290002056147,登記記録の閉鎖等,0,2025-01-06,2024-12-12,有限会社明月軒,,有限会社,福岡県,大牟田市,大正町３丁目１番地５,,40,202,8360047,,,2024-12-12,清算の結了等,,,2015-10-05,1,,,,,メイゲツケン,0
1485,6340002028702,登記記録の閉鎖等,0,2025-01-06,2024-12-12,有限会社記念品のニュー光栄,,有限会社,鹿児島県,鹿児島市,東千石町２１番３８号,,46,201,8920842,,,2024-12-12,清算の結了等,,,2024-09-05,1,,,,,キネンヒンノニューコウエイ,0
1491,6370002013429,登記記録の閉鎖等,0,2025-01-06,2024-12-24,有限会社北長商事,,有限会社,宮城県,仙台市青葉区,北山１丁目６番１３号,,04,101,9810931,,,2024-12-24,清算の結了等,,,2015-10-05,1,,,,,ホクチョウショウジ,0
1494,6370202000326,登記記録の閉鎖等,0,2025-01-06,2024-12-24,有限会社クリーニングホワイト,,有限会社,宮城県,遠田郡美里町,関根字道明７０番地,,04,505,9870006,,,2024-12-24,清算の結了等,,,2015-10-05,1,,,,,クリーニングホワイト,0
1496,6380001028088,登記記録の閉鎖等,0,2025-01-06,2024-12-19,株式会社ｅ事務局,,株式会社,福島県,郡山市,台新２丁目２４番１０号,,07,203,9638852,,,2024-12-19,清算の結了等,,,2017-05-12,1,,,,,イージムキョク,0
1504,6430002009049,登記記録の閉鎖等,0,2025-01-06,2024-12-26,有限会社真栄燃料店,,有限会社,北海道,札幌市清田区,清田一条４丁目１番６０号,,01,110,0040841,,,2024-12-26,清算の結了等,,,2015-10-05,1,,,,,シンエイネンリョウテン,0
1508,6440001002029,登記記録の閉鎖等,0,2025-01-06,2024-12-26,株式会社豊恵,,株式会社,北海道,函館市,桔梗町５７２番８,,01,202,0410801,,,2024-12-26,清算の結了等,,,2015-10-05,1,,,,,ホウエ,0
1525,7010002046785,登記記録の閉鎖等,0,2025-01-06,2024-12-23,有限会社イズミプロジェクト,,有限会社,東京都,杉並区,上荻１丁目１０番６号,,13,115,1670043,,,2024-12-23,清算の結了等,,,2015-10-05,1,,,,,イズミプロジェクト,0
1554,7011101091375,登記記録の閉鎖等,0,2025-01-06,2024-12-23,株式会社エムティーアイ・コンサルティング,,株式会社,東京都,新宿区,西新宿３丁目２０番２号,,13,104,1600023,,,2024-12-23,清算の結了等,,,2020-05-26,1,,,,,エムティーアイコンサルティング,0
1563,7012401033587,登記記録の閉鎖等,0,2025-01-06,2024-12-25,株式会社タガワ,,株式会社,東京都,調布市,深大寺東町６丁目３０番地７,,13,208,1820012,,,2024-12-25,清算の結了等,,,2018-01-26,1,,,,,,0
1566,7012803002512,登記記録の閉鎖等,0,2025-01-06,2024-12-20,啓星合同会社,,合同会社,東京都,昭島市,上川原町２丁目１４－１１メゾン・ド・フルール１－Ｄ号室,,13,207,1960011,,,2024-12-20,清算の結了等,,,2021-06-10,1,,,,,ケイセイ,0
1567,7013301009132,登記記録の閉鎖等,0,2025-01-06,2024-12-20,株式会社日本芸術人形協会,,株式会社,東京都,豊島区,千早４丁目３５番７号,,13,116,1710044,,,2024-12-20,清算の結了等,,,2015-10-05,1,,,,,ニホンゲイジュツニンギョウキョウカイ,0
1571,7020001091220,登記記録の閉鎖等,0,2025-01-06,2024-12-12,株式会社アミークス,,株式会社,神奈川県,横浜市港北区,大倉山６丁目２番８－１０５号,,14,109,2220037,,,2024-12-12,清算の結了等,,,2015-10-05,1,,,,,アミークス,0
1582,7020002086946,登記記録の閉鎖等,0,2025-01-06,2024-12-20,有限会社ベルメタル設計,,有限会社,神奈川県,川崎市宮前区,鷺沼１丁目２３番地１０,,14,136,2160004,,,2024-12-20,清算の結了等,,,2015-10-05,1,,,,,ベルメタルセッケイ,0
1587,7021001009534,登記記録の閉鎖等,0,2025-01-06,2024-12-27,株式会社マックストレードアソシエイツ,,株式会社,神奈川県,逗子市,山の根２丁目７番３８号,,14,208,2490002,,,2024-12-27,清算の結了等,,,2015-10-05,1,,,,,マックストレードアソシエイツ,0
1590,7021002000046,登記記録の閉鎖等,0,2025-01-06,2024-12-25,有限会社アイエヌジープラス,,有限会社,神奈川県,藤沢市,湘南台２丁目７番地の６,,14,205,2520804,,,2024-12-25,清算の結了等,,,2015-10-05,1,,,,,,0
1613,7050001054661,登記記録の閉鎖等,0,2025-01-06,2024-11-15,株式会社吉原興産企画,,株式会社,茨城県,つくばみらい市,谷井田１２４６番地４,,08,235,3002337,,,2024-11-15,清算の結了等,,,2024-04-25,1,,,,,ヨシハラコウサンキカク,0
1618,7070005002458,登記記録の閉鎖等,0,2025-01-06,2024-12-26,特定非営利活動法人日本健康美容協会,,その他の設立登記法人,群馬県,高崎市,井野町字天水１０１６番地１,,10,202,3700004,,,2024-12-26,清算の結了等,,,2015-10-05,1,,,,,ニホンケンコウビヨウキョウカイ,0
1621,7080002009356,登記記録の閉鎖等,0,2025-01-06,2024-12-24,有限会社ポートスターエクスプレス,,有限会社,静岡県,静岡市清水区,草薙一里山６番２０号,,22,103,4240884,,,2024-12-24,清算の結了等,,,2015-10-05,1,,,,,ポートスターエクスプレス,0
1625,7080401022298,登記記録の閉鎖等,0,2025-01-06,2024-12-26,株式会社Ｋ．Ｒ．Ｈ,,株式会社,静岡県,浜松市中央区,広沢２丁目５０番２４号,,22,138,4328013,,,2024-12-26,清算の結了等,,,2017-07-11,1,,,,,,0
1626,7080402020458,登記記録の閉鎖等,0,2025-01-06,2024-12-25,有限会社古川整経,,有限会社,静岡県,磐田市,福田中島１１６７番地の１,,22,211,4371204,,,2024-12-25,清算の結了等,,,2015-10-05,1,,,,,フルカワセイケイ,0
1627,7080403003809,登記記録の閉鎖等,0,2025-01-06,2024-12-27,合同会社プランニングサポート,,合同会社,静岡県,浜松市中央区,富塚町５９０番地の２９,,22,138,4328002,,,2024-12-27,合併による解散等,3080403003440,令和６年１２月２７日静岡県浜松市中央区富塚町５９０番地の２９合同会社ＳＧコンサルティング（3080403003440）に合併し解散,2019-02-22,1,,,,,プランニングサポート,0
1631,7110001027058,登記記録の閉鎖等,0,2025-01-06,2024-12-25,丸山運輸株式会社,,株式会社,新潟県,南魚沼市,宮６０３番地４,,15,226,9496775,,,2024-12-25,清算の結了等,,,2015-10-05,1,,,,,マルヤマウンユ,0
1632,7110002005277,登記記録の閉鎖等,0,2025-01-06,2024-12-25,有限会社萬商,,有限会社,新潟県,新潟市東区,河渡３丁目６番２７号,,15,102,9500024,,,2024-12-25,清算の結了等,,,2015-10-05,1,,,,,バンショウ,0
1633,7110003004195,登記記録の閉鎖等,0,2025-01-06,2024-12-25,合同会社ウエルス・マネジメント,,合同会社,新潟県,新潟市秋葉区,美善１丁目２番地８,,15,105,9560027,,,2024-12-25,清算の結了等,,,2020-06-15,1,,,,,ウエルスマネジメント,0
1638,7120001167836,登記記録の閉鎖等,0,2025-01-06,2024-12-19,ヴァモス・システムエンジ株式会社,,株式会社,大阪府,大阪市淀川区,西中島３丁目１８番２１号ＮＬＣ新大阪１８号館６階６－Ｈ号室,,27,123,5320011,,,2024-12-19,清算の結了等,,,2015-10-05,1,,,,,ヴァモスシステムエンジ,0
1640,7120001197890,登記記録の閉鎖等,0,2025-01-06,2024-12-25,株式会社ＶＥＲＳＡＴＩＬＥ　ＡＲＴＳ,,株式会社,大阪府,大阪市中央区,南船場４丁目１０番５号,,27,128,5420081,,,2024-12-25,清算の結了等,,,2016-04-28,1,,,,,バーサタイルアーツ,0
1641,7120001208631,登記記録の閉鎖等,0,2025-01-06,2024-12-25,株式会社アルチザンサポート,,株式会社,大阪府,大阪市北区,梅田１丁目１番３号大阪駅前第３ビル２３０７,,27,127,5300001,,,2024-12-25,清算の結了等,,,2017-10-05,1,,,,,アルチザンサポート,0
1664,7140001043465,登記記録の閉鎖等,0,2025-01-06,2024-12-23,ハリノ伸線株式会社,,株式会社,兵庫県,加古川市,野口町野口２８６の１ハイタウンＡ－３０１,,28,210,6750012,,,2024-12-23,清算の結了等,,,2015-10-05,1,,,,,ハリノシンセン,0
1684,7200001036363,登記記録の閉鎖等,0,2025-01-06,2024-12-25,株式会社ハート．トゥ．ハート,,株式会社,岐阜県,安八郡安八町,南今ケ渕４４５番地の５,,21,383,5030115,,,2024-12-25,清算の結了等,,,2019-06-20,1,,,,,ハートトゥハート,0
1690,7240001047365,登記記録の閉鎖等,0,2025-01-06,2024-12-26,株式会社新千光寺山荘,,株式会社,広島県,尾道市,西土堂町１５番２０号,,34,205,7220032,,,2024-12-26,清算の結了等,,,2015-10-05,1,,,,,シンセンコウジサンソウ,0
1691,7240001051565,登記記録の閉鎖等,0,2025-01-06,2024-12-26,株式会社１９８４,,株式会社,広島県,福山市,明王台５丁目１０番２７号,,34,207,7200834,,,2024-12-26,清算の結了等,,,2017-08-16,1,,,,,,0
1706,7290801008438,登記記録の閉鎖等,0,2025-01-06,2024-12-26,ＪＰコンサルタンツ株式会社,,株式会社,福岡県,北九州市門司区,柳町１丁目８番３０号,,40,101,8000025,,,2024-12-26,清算の結了等,,,2015-10-05,1,,,,,ジェーピーコンサルタンツ,0
1718,7380002030133,登記記録の閉鎖等,0,2025-01-06,2024-12-19,有限会社セキセイ工業,,有限会社,福島県,双葉郡広野町,大字上北迫字二ツ沼１４番地の５,,07,541,9790401,,,2024-12-19,清算の結了等,,,2015-10-05,1,,,,,,0
1720,7390003002097,登記記録の閉鎖等,0,2025-01-06,2024-12-16,合同会社Ｓｅｒｅｎｏ,,合同会社,山形県,東置賜郡高畠町,大字露藤２２１０－１,,06,381,9920323,,,2024-12-16,清算の結了等,,,2023-05-22,1,,,,,セレーノ,0
1722,7400502000021,登記記録の閉鎖等,0,2025-01-06,2024-12-23,有限会社小野寺住建,,有限会社,岩手県,一関市,狐禅寺字宇南田１番地７,,03,209,0290131,,,2024-12-23,清算の結了等,,,2015-10-05,1,,,,,オノデラジュウケン,0
1723,7420005003148,登記記録の閉鎖等,0,2025-01-06,2024-12-25,医療法人誠和会,,その他の設立登記法人,青森県,三戸郡南部町,大字斗賀字上明戸１４番地,,02,445,0390611,,,2024-12-25,清算の結了等,,,2015-10-05,1,,,,,セイワカイ,0
1730,7460001001267,登記記録の閉鎖等,0,2025-01-06,2024-12-13,中本商事株式会社,,株式会社,北海道,釧路市,若松町１３番７号,,01,206,0850033,,,2024-12-13,清算の結了等,,,2015-10-05,1,,,,,ナカモトショウジ,0
1731,7460103000761,登記記録の閉鎖等,0,2025-01-06,2024-12-25,合同会社住まい支援コンサルタント,,合同会社,北海道,帯広市,白樺十六条西６丁目２番地,,01,207,0800051,,,2024-12-25,清算の結了等,,,2015-10-05,1,,,,,,0
1732,7460302003813,登記記録の閉鎖等,0,2025-01-06,2024-12-27,有限会社エスボックス,,有限会社,北海道,網走郡美幌町,字日の出１丁目２６番地３,,01,543,0920069,,,2024-12-27,清算の結了等,,,2015-10-05,1,,,,,エスボックス,0
1744,8010003022495,登記記録の閉鎖等,0,2025-01-06,2024-12-16,合同会社ＳＳＧ２１,,合同会社,東京都,千代田区,神田神保町１丁目１１番地さくら綜合事務所内,,13,101,1010051,,,2024-12-16,清算の結了等,,,2015-10-14,1,,,,,エスエスジートゥエンティーワン,0
1750,8010401092693,登記記録の閉鎖等,0,2025-01-06,2024-12-19,ＹＯＳＨＩＫＡＷＡ　Ｍｅｔｈｏｄ株式会社,,株式会社,東京都,品川区,北品川１丁目９番７号トップルーム品川１０１５号,,13,109,1400001,,,2024-12-19,清算の結了等,,,2015-10-05,1,,,,,ヨシカワメゾッド,0
1758,8010602012046,登記記録の閉鎖等,0,2025-01-06,2024-12-24,有限会社秀和,,有限会社,東京都,墨田区,向島５丁目５０番７号,,13,107,1310033,,,2024-12-24,清算の結了等,,,2015-10-05,1,,,,,シュウワ,0
1772,8010903006993,登記記録の閉鎖等,0,2025-01-06,2024-12-24,グロリアジャパン合同会社,,合同会社,東京都,世田谷区,駒沢４丁目１８番１７号,,13,112,1540012,,,2024-12-24,清算の結了等,,,2021-12-06,1,,,,,グロリアジャパン,0
1776,8011001030003,登記記録の閉鎖等,0,2025-01-06,2024-12-04,友交テクニカ株式会社,,株式会社,東京都,渋谷区,桜丘町２４番８号,,13,113,1500031,,,2024-12-04,清算の結了等,,,2015-10-05,1,,,,,ユウコウテクニカ,0
1779,8011001142310,登記記録の閉鎖等,0,2025-01-06,2024-12-03,株式会社Ｈａｌｌｏｔ,,株式会社,東京都,渋谷区,神宮前５丁目１２番６号,,13,113,1500001,,,2024-12-03,清算の結了等,,,2021-08-17,1,,,,,ハロット,0
1793,8012302007623,登記記録の閉鎖等,0,2025-01-06,2024-12-24,有限会社エムシイエス設計,,有限会社,東京都,町田市,成瀬台２丁目３０番地１４ファインヴィレッジ成瀬台Ｃ－３０３,,13,209,1940043,,,2024-12-24,清算の結了等,,,2015-10-05,1,,,,,エムシイエスセッケイ,0
1801,8013401006210,登記記録の閉鎖等,0,2025-01-06,2024-12-10,ｍａｈｉｎａ株式会社,,株式会社,東京都,日野市,高幡１５２,,13,212,1910031,,,2024-12-10,清算の結了等,,,2015-10-05,1,,,,,マヒナ,0
1835,8040002021925,登記記録の閉鎖等,0,2025-01-06,2024-12-20,有限会社ケンズサービス,,有限会社,千葉県,船橋市,市場３丁目１６番１－７０９号,,12,204,2730001,,,2024-12-20,清算の結了等,,,2015-10-05,1,,,,,ケンズサービス,0
1852,8100001027149,登記記録の閉鎖等,0,2025-01-06,2024-12-26,株式会社自由仁十色,,株式会社,長野県,上伊那郡箕輪町,大字中箕輪１４４３２番地１,,20,383,3994601,,,2024-12-26,清算の結了等,,,2015-10-05,1,,,,,ジュウニントイロ,0
1855,8120001018682,登記記録の閉鎖等,0,2025-01-06,2024-12-25,不二化学株式会社,,株式会社,大阪府,大阪市生野区,巽北１丁目２０番２１号,00027598,27,116,5440004,,,2024-12-25,清算の結了等,,,2015-10-05,1,,,,,フジカガク,0
1858,8120001202534,登記記録の閉鎖等,0,2025-01-06,2024-12-26,株式会社つむぎ,,株式会社,大阪府,大阪市中央区,安土町２丁目３番１３号,,27,128,5410052,,,2024-12-26,清算の結了等,,,2016-12-15,1,,,,,ツムギ,0
1881,8130001061252,登記記録の閉鎖等,0,2025-01-06,2024-12-25,株式会社Ａ・ＳＴＯＲＹ,,株式会社,京都府,京都市右京区,西院寿町４０番地３,,26,108,6150033,,,2024-12-25,清算の結了等,,,2018-01-05,1,,,,,アストーリー,0
1886,8140005002508,登記記録の閉鎖等,0,2025-01-06,2024-12-12,兵庫福祉生活協同組合,,その他の設立登記法人,兵庫県,神戸市中央区,古湊通１丁目２番４号（ユウシンビル内）,,28,110,6500026,,,2024-12-12,清算の結了等,,,2019-10-16,1,,,,,,0
1893,8180001024700,登記記録の閉鎖等,0,2025-01-06,2024-12-24,株式会社石黒商店,,株式会社,愛知県,名古屋市西区,名西２丁目２６番２７号,,23,104,4510064,,,2024-12-24,清算の結了等,,,2015-10-05,1,,,,,イシグロショウテン,0
1896,8180001125515,登記記録の閉鎖等,0,2025-01-06,2024-12-23,株式会社三ッ輪,,株式会社,愛知県,江南市,力長町若宮１５４番地１,,23,217,4838102,,,2024-12-23,清算の結了等,,,2016-11-15,1,,,,,ミツワ,0
1905,8180302016644,登記記録の閉鎖等,0,2025-01-06,2024-12-25,有限会社ゴトウ精工,,有限会社,愛知県,安城市,山崎町大手６１番地,,23,212,4460016,,,2024-12-25,清算の結了等,,,2015-10-05,1,,,,,ゴトウセイコウ,0
1908,8200001029242,登記記録の閉鎖等,0,2025-01-06,2024-12-25,株式会社涼風,,株式会社,岐阜県,岐阜市,西荘３丁目５番４４号,,21,201,5008362,,,2024-12-25,合併による解散等,5200002003678,令和６年１２月２５日岐阜市西荘三丁目５番４４号ハット・ユナイテッド株式会社（5200002003678）に合併し解散,2015-10-05,1,,,,,スズカゼ,0
1909,8200005005917,登記記録の閉鎖等,0,2025-01-06,2024-12-26,特定非営利活動法人ふるさと谷汲,00077368,その他の設立登記法人,岐阜県,揖斐郡揖斐川町,谷汲徳積１１５０番地,00077369,21,401,5011311,,,2024-12-26,清算の結了等,,,2015-10-05,1,,,,,フルサトタニグミ,0
1914,8240001030196,登記記録の閉鎖等,0,2025-01-06,2024-12-25,株式会社小野,,株式会社,広島県,福山市,芦田町大字福田２４７９番地の６,00000302,34,207,7201264,,,2024-12-25,清算の結了等,,,2015-10-05,1,,,,,オノ,0
1927,8290801018262,登記記録の閉鎖等,0,2025-01-06,2024-12-25,株式会社共栄通商,,株式会社,福岡県,北九州市小倉北区,西港町１０１番地１０,,40,106,8030801,,,2024-12-25,清算の結了等,,,2015-10-05,1,,,,,キョウエイツウショウ,0
1930,8290802011654,登記記録の閉鎖等,0,2025-01-06,2024-12-26,有限会社藍島通船,,有限会社,福岡県,北九州市小倉北区,大字藍島３２番地の３,,40,106,8020091,,,2024-12-26,清算の結了等,,,2015-10-05,1,,,,,アイシマツウセン,0
1939,8300005004099,登記記録の閉鎖等,0,2025-01-06,2024-12-25,伊万里電気工事協同組合,,その他の設立登記法人,佐賀県,伊万里市,立花町１５４２番地２７,,41,205,8480027,,,2024-12-25,清算の結了等,,,2015-10-05,1,,,,,イマリデンキコウジ,0
1946,8370001048622,登記記録の閉鎖等,0,2025-01-06,2024-12-24,株式会社シーワーク,,株式会社,宮城県,石巻市,茜平３丁目１番地４,,04,202,9860866,,,2024-12-24,清算の結了等,,,2022-06-03,1,,,,,シーワーク,0
1949,8370002014623,登記記録の閉鎖等,0,2025-01-06,2024-12-20,有限会社荒木俊行編集事務所,,有限会社,宮城県,仙台市宮城野区,鶴ケ谷４丁目３番２５号,,04,102,9830824,,,2024-12-20,清算の結了等,,,2015-10-05,1,,,,,アラキトシユキヘンシュウジムショ,0
1952,8370302000141,登記記録の閉鎖等,0,2025-01-06,2024-12-16,有限会社浅野冷熱,,有限会社,宮城県,東松島市,矢本字町浦１００番地７,,04,214,9810503,,,2024-12-16,清算の結了等,,,2015-10-05,1,,,,,アサノレイネツ,0
1957,8430001026547,登記記録の閉鎖等,0,2025-01-06,2024-12-25,株式会社榎屋,,株式会社,北海道,札幌市北区,北三十七条西６丁目１番２６号,,01,102,0010037,,,2024-12-25,清算の結了等,,,2015-10-05,1,,,,,エノキヤ,0
1958,8430001073738,登記記録の閉鎖等,0,2025-01-06,2024-12-25,株式会社阿部鉄工,,株式会社,北海道,苫小牧市,字勇払１５７番地１０,,01,213,0591372,,,2024-12-25,清算の結了等,,,2017-04-14,1,,,,,アベテッコウ,0
1961,8430002033781,登記記録の閉鎖等,0,2025-01-06,2024-12-24,有限会社オートモ事務所,,有限会社,北海道,札幌市豊平区,月寒西四条６丁目２番５号,,01,105,0620024,,,2024-12-24,清算の結了等,,,2015-10-05,1,,,,,オートモジムショ,0
1974,8500005000482,登記記録の閉鎖等,0,2025-01-06,2024-12-25,眞乃道教,,その他の設立登記法人,愛媛県,松山市,美沢２丁目７番３５号,,38,201,7918022,,,2024-12-25,清算の結了等,,,2015-10-05,1,,,,,マコトノミチキョウ,0
1975,8700150099424,登記記録の閉鎖等,0,2025-01-06,2023-12-27,２５Ｈｏｌｄｉｎｇｓ　Ｐｔｅ．Ｌｔｄ．,,外国会社等,神奈川県,鎌倉市,御成町１１－３７小林ビル２Ｆ－Ｂ,,14,204,2480012,シンガポール共和国４８６０６８チャンギサウスストリート２、１５番地０４－００号,,2023-12-27,その他の清算の結了等,,,2020-06-16,1,,,,,トウエンテイフアイブホールデイングスピーテイーイーエルテイーデイー,0
1978,9010001121232,登記記録の閉鎖等,0,2025-01-06,2024-12-17,共生ビジネス・パートナーズ株式会社,,株式会社,東京都,千代田区,麹町２丁目５番地４,,13,101,1020083,,,2024-12-17,清算の結了等,,,2015-10-05,1,,,,,キョウセイビジネスパートナーズ,0
1981,9010001228721,登記記録の閉鎖等,0,2025-01-06,2024-12-16,株式会社ＡＨＰ,,株式会社,東京都,千代田区,飯田橋４丁目５番１４号飯田橋サンポーロハイツ５０,,13,101,1020072,,,2024-12-16,清算の結了等,,,2022-08-15,1,,,,,エーエイチピー,0
2006,9011001136996,登記記録の閉鎖等,0,2025-01-06,2024-12-03,株式会社ｄｕｒａｂｌｅ,,株式会社,東京都,渋谷区,神山町１６番４号ヴィラメトロポリス４Ｆ－Ａ,,13,113,1500047,,,2024-12-03,清算の結了等,,,2020-11-19,1,,,,,デュラブル,0
2009,9011002030587,登記記録の閉鎖等,0,2025-01-06,2024-12-04,有限会社コバ・コーポレーション,,有限会社,東京都,渋谷区,本町１丁目３０番３号,,13,113,1510071,,,2024-12-04,清算の結了等,,,2015-10-05,1,,,,,コバコーポレーション,0
2011,9011005001263,登記記録の閉鎖等,0,2025-01-06,2024-12-02,税理士法人山城会計事務所,,その他の設立登記法人,東京都,渋谷区,代々木２丁目２３番１号ニュー・ステイト・メナー１階,,13,113,1510053,,,2024-12-02,清算の結了等,,,2015-10-05,1,,,,,ヤマシロカイケイジムショ,0
2038,9020001092605,登記記録の閉鎖等,0,2025-01-06,2024-12-17,株式会社Ｋａｉ,,株式会社,神奈川県,川崎市宮前区,犬蔵３丁目８番１号,,14,136,2160011,,,2024-12-17,清算の結了等,,,2015-10-05,1,,,,,カイ,0
2068,9060002000604,登記記録の閉鎖等,0,2025-01-06,2024-12-24,有限会社アイ・ピノーレ,,有限会社,栃木県,宇都宮市,富士見が丘１丁目２６番２号,,09,201,3200011,,,2024-12-24,清算の結了等,,,2015-10-05,1,,,,,アイピノーレ,0
2121,9140001112763,登記記録の閉鎖等,0,2025-01-06,2024-12-20,株式会社オフィスＧ,,株式会社,兵庫県,神戸市中央区,磯上通８丁目１－２９カサベラビルＣ＆Ｍ４０３,,28,110,6510086,,,2024-12-20,清算の結了等,,,2019-02-20,1,,,,,オフィスジー,0
2123,9140002013936,登記記録の閉鎖等,0,2025-01-06,2024-12-19,有限会社コスモポリタン製菓,,有限会社,兵庫県,神戸市灘区,篠原伯母野山町３丁目１０番８号,,28,102,6570015,,,2024-12-19,清算の結了等,,,2024-10-16,1,,,,,コスモポリタンセイカ,0
2127,9150002007375,登記記録の閉鎖等,0,2025-01-06,2024-12-25,有限会社インターネットクラブ,,有限会社,奈良県,橿原市,栄和町１５番地の２－４１２,,29,205,6340046,,,2024-12-25,清算の結了等,,,2015-10-05,1,,,,,インターネットクラブ,0
2128,9160001020709,登記記録の閉鎖等,0,2025-01-06,2024-12-25,株式会社ベースワンファーム,,株式会社,滋賀県,米原市,梅ケ原１２８８番地１,,25,214,5210013,,,2024-12-25,合併による解散等,8160001009372,令和６年１２月２５日滋賀県彦根市外町１８１番地６株式会社ベースワン（8160001009372）に合併し解散,2018-01-25,1,,,,,ベースワンファーム,0
2136,9180301019894,登記記録の閉鎖等,0,2025-01-06,2024-12-25,株式会社マノモクハウジング,,株式会社,愛知県,豊田市,深見町向イ洞１０７１番２,,23,211,4700441,,,2024-12-25,合併による解散等,8180001040961,令和６年１２月２１日名古屋市中区千代田二丁目２番３４号株式会社マノモク（8180001040961）に合併し解散,2015-10-05,1,,,,,マノモクハウジング,0
2144,9200002026626,登記記録の閉鎖等,0,2025-01-06,2024-12-24,有限会社船坂ファミリー薬局,,有限会社,岐阜県,高山市,国府町広瀬町９３６番地,,21,203,5094119,,,2024-12-24,清算の結了等,,,2015-10-05,1,,,,,フナサカファミリーヤッキョク,0
2156,9240001005684,登記記録の閉鎖等,0,2025-01-06,2024-12-26,株式会社ソージャ・エー・ディー,,株式会社,広島県,広島市東区,温品２丁目１６番１１号,,34,102,7320033,,,2024-12-26,清算の結了等,,,2015-10-05,1,,,,,ソージャエーディー,0
2162,9250005008492,登記記録の閉鎖等,0,2025-01-06,2024-12-23,一般社団法人ａｎｄ　Ｌｉｆｅ信託センター,,その他の設立登記法人,山口県,周南市,大字櫛ヶ浜２２７番地１,,35,215,7450805,,,2024-12-23,清算の結了等,,,2019-04-17,1,,,,,アンドライフシンタクセンター,0
2205,9420003001374,登記記録の閉鎖等,0,2025-01-06,2024-12-25,合同会社インテリア檜山,,合同会社,青森県,上北郡七戸町,字森ノ上１９０番地１３,,02,402,0392827,,,2024-12-25,清算の結了等,,,2015-10-05,1,,,,,インテリアヒヤマ,0
2207,9430001062558,登記記録の閉鎖等,0,2025-01-06,2024-12-20,株式会社クラーク,,株式会社,北海道,札幌市西区,宮の沢二条４丁目１番４号,,01,107,0630052,,,2024-12-20,清算の結了等,,,2015-10-05,1,,,,,クラーク,0
