sequenceNumber,corporateNumber,process,correct,updateDate,changeDate,name,nameImageId,kind,prefectureName,cityName,streetNumber,addressImageId,prefectureCode,cityCode,postCode,addressOutside,addressOutsideImageId,closeDate,closeCause,successorCorporateNumber,changeCause,assignmentDate,latest,enName,enPrefectureName,enCityName,enAddressOutside,furigana,hihyoji
8,1010001220693,新規,0,2021-08-27,2021-08-27,株式会社金世,,株式会社,東京都,文京区,湯島３丁目３９番１１号ライワビル３Ｆ,,13,105,1130034,,,,,,,2021-08-27,1,,,,,カネセ,0
18,1010401162338,新規,0,2021-08-27,2021-08-27,株式会社ライフラインネクスト,,株式会社,東京都,港区,赤坂４丁目８番１９号赤坂フロントタウン３階,,13,103,1070052,,,,,,,2021-08-27,1,,,,,ライフラインネクスト,0
19,1010401162346,新規,0,2021-08-27,2021-08-27,株式会社ホワイトスパイダー,,株式会社,東京都,港区,虎ノ門５丁目１１番１号,,13,103,1050001,,,,,,,2021-08-27,1,,,,,ホワイトスパイダー,0
21,1010403025988,新規,0,2021-08-27,2021-08-27,ヒロ合同会社,,合同会社,東京都,港区,南青山２丁目１４番１９号,,13,103,1070062,,,,,,,2021-08-27,1,,,,,ヒロ,0
22,1010403025996,新規,0,2021-08-27,2021-08-27,合同会社フォルテム,,合同会社,東京都,港区,西麻布２丁目２番２－３０２号,,13,103,1060031,,,,,,,2021-08-27,1,,,,,フォルテム,0
49,1011101096066,新規,0,2021-08-27,2021-08-27,株式会社ＯＭＴＭ,,株式会社,東京都,新宿区,新宿２丁目１２番１３号,,13,104,1600022,,,,,,,2021-08-27,1,,,,,オムタム,0
50,1011101096124,新規,0,2021-08-27,2021-08-27,一川文研株式会社,,株式会社,東京都,新宿区,高田馬場３丁目１番５－３０９号サンパティオ高田馬場,,13,104,1690075,,,,,,,2021-08-27,1,,,,,イチカワブンケン,0
52,1011501027257,新規,0,2021-08-27,2021-08-27,株式会社Ｓｐｒｉｎｇ　ＤＡＹ,,株式会社,東京都,荒川区,東尾久２丁目２８番１３号,,13,118,1160012,,,,,,,2021-08-27,1,,,,,スプリングデイ,0
55,1011603003379,新規,0,2021-08-27,2021-08-27,合同会社ｗａｘ,,合同会社,東京都,練馬区,中村北２丁目２０番１５号セブンスマグノリア３０４,,13,120,1760023,,,,,,,2021-08-27,1,,,,,ワックス,0
60,1011701024665,新規,0,2021-08-27,2021-08-27,株式会社Ｓｅｒｏｉ,,株式会社,東京都,江戸川区,宇喜田町１３３０番地６,,13,123,1340082,,,,,,,2021-08-27,1,,,,,セロイ,0
62,1011703002925,新規,0,2021-08-27,2021-08-27,合同会社西澤為次郎商会,,合同会社,東京都,江戸川区,松島１丁目１８－１２,,13,123,1320031,,,,,,,2021-08-27,1,,,,,ニシザワタメジロウショウカイ,0
73,1012701016636,新規,0,2021-08-27,2021-08-27,株式会社さくらオフィス,,株式会社,東京都,小平市,花小金井南町３丁目３８－１６,,13,211,1870003,,,,,,,2021-08-27,1,,,,,サクラオフィス,0
84,1013301047922,新規,0,2021-08-27,2021-08-27,株式会社ａｍａｓ,,株式会社,東京都,豊島区,池袋４丁目９番６号佐藤ビル１０１,,13,116,1710014,,,,,,,2021-08-27,1,,,,,アマス,0
97,1020001142680,新規,0,2021-08-27,2021-08-27,株式会社アルク・エステート,,株式会社,神奈川県,横浜市鶴見区,佃野町３４番３号,,14,101,2300061,,,,,,,2021-08-27,1,,,,,アルクエステート,0
98,1020001142763,新規,0,2021-08-27,2021-08-27,ＴＢ　Ｈｏｌｄｉｎｇｓ株式会社,,株式会社,神奈川県,横浜市港北区,下田町６丁目４番３８号,,14,109,2230064,,,,,,,2021-08-27,1,,,,,ティービーホールディングス,0
123,1030001143983,新規,0,2021-08-27,2021-08-27,株式会社ＨＣＳ,,株式会社,埼玉県,さいたま市西区,西大宮３丁目３８番地１,,11,101,3310078,,,,,,,2021-08-27,1,,,,,,0
124,1030001144024,新規,0,2021-08-27,2021-08-27,株式会社ＮＵＮＵ　ＦＡＣＴＯＲＹ,,株式会社,埼玉県,春日部市,豊町６丁目２５番１０号,,11,214,3440066,,,,,,,2021-08-27,1,,,,,ヌヌファクトリー,0
125,1030001144040,新規,0,2021-08-27,2021-08-27,株式会社結信,,株式会社,埼玉県,上尾市,小泉４丁目１７番５号,,11,219,3620063,,,,,,,2021-08-27,1,,,,,ケッシン,0
136,1040001119900,新規,0,2021-08-27,2021-08-27,株式会社一凛,,株式会社,千葉県,旭市,足川３９１８番地１３,,12,215,2892522,,,,,,,2021-08-27,1,,,,,イチリン,0
138,1040003018407,新規,0,2021-08-27,2021-08-27,Ｆ＆Ｙ　ｉｎｔｅｒｎａｔｉｏｎａｌ合同会社,,合同会社,千葉県,松戸市,岩瀬６１８番地の８,,12,207,2710076,,,,,,,2021-08-27,1,,,,,エフアンドワイインターナショナル,0
142,1060001034024,新規,0,2021-08-27,2021-08-27,株式会社岡田工務店,,株式会社,栃木県,栃木市,吹上町１２０１番地,,09,203,3280125,,,,,,,2021-08-27,1,,,,,オカダコウムテン,0
153,1090003001928,新規,0,2021-08-27,2021-08-27,合同会社鈴木浩事務所,,合同会社,山梨県,富士吉田市,下吉田７丁目６番１２号,,19,202,4030004,,,,,,,2021-08-27,1,,,,,スズキヒロシジムショ,0
160,1110001035999,新規,0,2021-08-27,2021-08-27,小山建設工業株式会社,,株式会社,新潟県,上越市,木田２丁目７番２３号３０６,,15,222,9430805,,,,,,,2021-08-27,1,,,,,コヤマケンセツコウギョウ,0
174,1120001239954,新規,0,2021-08-27,2021-08-27,株式会社メディアビジョン,,株式会社,大阪府,大阪市北区,野崎町６番８号トレックノース梅田ビル７０５,,27,127,5300055,,,,,,,2021-08-27,1,,,,,メディアビジョン,0
175,1120001239962,新規,0,2021-08-27,2021-08-27,株式会社Ｃａｎｅｌｉｔａ,,株式会社,大阪府,大阪市西区,北堀江１丁目１４番１８号,,27,106,5500014,,,,,,,2021-08-27,1,,,,,カネリータ,0
180,1120003020107,新規,0,2021-08-27,2021-08-27,合同会社ビルケアパートナーズ,,合同会社,大阪府,大阪市中央区,北浜東５番４号,,27,128,5400031,,,,,,,2021-08-27,1,,,,,ビルケアパートナーズ,0
181,1120005022464,新規,0,2021-08-27,2021-08-27,一般財団法人ブルーオーシャンファンデーション,,その他の設立登記法人,大阪府,大阪市中央区,備後町４丁目２番３号サラヤ本町東ビル,,27,128,5410051,,,,,,,2021-08-27,1,,,,,ブルーオーシャンファンデーション,0
183,1120103004315,新規,0,2021-08-27,2021-08-27,合資会社フォレストルーラル,,合資会社,大阪府,堺市北区,奥本町２丁８１番地,,27,146,5918007,,,,,,,2021-08-27,1,,,,,フォレストルーラル,0
185,1120903003796,新規,0,2021-08-27,2021-08-27,合同会社ギミックスコンサル,,合同会社,大阪府,高槻市,大和１丁目２３番１５号,,27,207,5691047,,,,,,,2021-08-27,1,,,,,ギミックスコンサル,0
190,1130001069995,新規,0,2021-08-27,2021-08-27,株式会社京都メディカルコーポレーション,,株式会社,京都府,京都市西京区,山田大吉見町１８番地の５,,26,111,6158236,,,,,,,2021-08-27,1,,,,,キョウトメディカルコーポレーション,0
193,1140001122803,新規,0,2021-08-27,2021-08-27,株式会社ビッグイン,,株式会社,兵庫県,三田市,つつじが丘北３丁目５番地１４,,28,219,6691348,,,,,,,2021-08-27,1,,,,,ビッグイン,0
198,1160001023578,新規,0,2021-08-27,2021-08-27,株式会社ＥＷＯＬＰ,,株式会社,滋賀県,守山市,下之郷２丁目１３番８号,,25,207,5240013,,,,,,,2021-08-27,1,,,,,エクォルプ,0
203,1180001147573,新規,0,2021-08-27,2021-08-27,株式会社Ｎ．ｙｄ,,株式会社,愛知県,名古屋市中区,新栄１丁目１２番３２号シャインアルファビル１０１号,,23,106,4600007,,,,,,,2021-08-27,1,,,,,エヌワイディー,0
217,1240001058491,新規,0,2021-08-27,2021-08-27,株式会社アミダパワー,,株式会社,広島県,広島市中区,中町１番２１－３０１号,,34,101,7300037,,,,,,,2021-08-27,1,,,,,アミダパワー,0
220,1290001094383,新規,0,2021-08-27,2021-08-27,株式会社映像工房ＴＥＲＡＫＯＹＡ,,株式会社,福岡県,福岡市中央区,荒戸１丁目６番地１５,,40,133,8100062,,,,,,,2021-08-27,1,,,,,エイゾウコウボウテラコヤ,0
221,1290001094391,新規,0,2021-08-27,2021-08-27,株式会社アウトドアプロジェクト,,株式会社,福岡県,福岡市城南区,鳥飼６丁目１０番７号ファミール鳥飼３０５号,,40,136,8140103,,,,,,,2021-08-27,1,,,,,アウトドアプロジェクト,0
226,1290003011551,新規,0,2021-08-27,2021-08-27,合同会社フィールズ,,合同会社,福岡県,久留米市,江戸屋敷１丁目８番５号,,40,203,8300059,,,,,,,2021-08-27,1,,,,,フィールズ,0
228,1290005018330,新規,0,2021-08-27,2021-08-27,一般社団法人博多美人会,,その他の設立登記法人,福岡県,福岡市博多区,住吉４丁目４番２８号,,40,132,8120018,,,,,,,2021-08-27,1,,,,,ハカタビジンカイ,0
234,1320001018553,新規,0,2021-08-27,2021-08-27,株式会社ｚｕｂａｉｒ　ｔｒａｄｉｎｇ,,株式会社,大分県,大分市,大字松岡１５２５番地の１,,44,201,8700125,,,,,,,2021-08-27,1,,,,,ズベールトレーディング,0
238,1360001029274,新規,0,2021-08-27,2021-08-27,Ｌｉｂｒａｐｌａｃｅ株式会社,,株式会社,沖縄県,うるま市,字前原４６０番地１クオリティー１０３,,47,213,9042235,,,,,,,2021-08-27,1,,,,,リブラプラス,0
239,1360001029290,新規,0,2021-08-27,2021-08-27,株式会社オキフル,,株式会社,沖縄県,那覇市,久茂地１丁目１番１号９階,,47,201,9000015,,,,,,,2021-08-27,1,,,,,オキフル,0
264,1500001023642,新規,0,2021-08-27,2021-08-27,森とカンパニー株式会社,,株式会社,愛媛県,北宇和郡松野町,大字目黒３８６番地１,,38,484,7982106,,,,,,,2021-08-27,1,,,,,モリトカンパニー,0
277,2010001220767,新規,0,2021-08-27,2021-08-27,株式会社ＳｔａｔＨａｃｋ,,株式会社,東京都,文京区,本郷６丁目２５番１４号,,13,105,1130033,,,,,,,2021-08-27,1,,,,,スタットハック,0
280,2010401162163,新規,0,2021-08-27,2021-08-27,株式会社ＧＧｄｅｓｉｇｎ,,株式会社,東京都,港区,西麻布２丁目１３番地１５号第２横芝ビル,,13,103,1060031,,,,,,,2021-08-27,1,,,,,ジージーデザイン,0
281,2010401162295,新規,0,2021-08-27,2021-08-27,株式会社Ｓｔａｙ　Ｈｕｍｂｌｅ,,株式会社,東京都,港区,赤坂２丁目１６番２１号,,13,103,1070052,,,,,,,2021-08-27,1,,,,,,0
282,2010401162320,新規,0,2021-08-27,2021-08-27,株式会社蓮光商会,,株式会社,東京都,港区,三田２丁目３番３４－５０４号,,13,103,1080073,,,,,,,2021-08-27,1,,,,,レンコウショウカイ,0
283,2010401162329,新規,0,2021-08-27,2021-08-27,エシカルパートナーズ株式会社,,株式会社,東京都,港区,赤坂３丁目１１番１４－８０６号,,13,103,1070052,,,,,,,2021-08-27,1,,,,,エシカルパートナーズ,0
284,2010401162337,新規,0,2021-08-27,2021-08-27,株式会社Ｓｕｇａｒ　ｂｅｅｔ,,株式会社,東京都,港区,白金台５丁目５番８号ＩＳＯＬＥＴＴＡビル４Ｆ,,13,103,1080071,,,,,,,2021-08-27,1,,,,,シュガービート,0
286,2010403025979,新規,0,2021-08-27,2021-08-27,合同会社シリウス,,合同会社,東京都,港区,浜松町２丁目２－１５浜松町ダイヤビル２Ｆ,,13,103,1050013,,,,,,,2021-08-27,1,,,,,シリウス,0
288,2010405020144,新規,0,2021-08-27,2021-08-27,ＡＫＢプラチナ一般社団法人,,その他の設立登記法人,東京都,港区,西新橋１丁目２番９号メンターキャピタル税理士法人内,,13,103,1050003,,,,,,,2021-08-27,1,,,,,エーケービープラチナ,0
289,2010405020160,新規,0,2021-08-27,2021-08-27,Ｃａｍｂｒｉｄｇｅ　Ｋｕｔｃｈａｎ特定目的会社,,その他の設立登記法人,東京都,港区,六本木１丁目６番１号泉ガーデンタワーＫＰＭＧ税理士法人内,,13,103,1060032,,,,,,,2021-08-27,1,,,,,ケンブリッジクッチャン,0
309,2010901049331,新規,0,2021-08-27,2021-08-27,ｐｌａｙ　ｓｔｙｌｅ株式会社,,株式会社,東京都,世田谷区,玉川３丁目２０番２号マノア玉川第３ビル５０１号室,,13,112,1580094,,,,,,,2021-08-27,1,,,,,プレイスタイル,0
317,2011301027134,新規,0,2021-08-27,2021-08-27,株式会社スタジオイチバン,,株式会社,東京都,杉並区,高円寺南４丁目２９番１４号エルディア高円寺５０１,,13,115,1660003,,,,,,,2021-08-27,1,,,,,スタジオイチバン,0
328,2011701024664,新規,0,2021-08-27,2021-08-27,株式会社世光,,株式会社,東京都,江戸川区,東葛西９丁目３番２号東京倉庫実業９号,,13,123,1340084,,,,,,,2021-08-27,1,,,,,セイコウ,0
330,2011801039620,新規,0,2021-08-27,2021-08-27,ルミエール株式会社,,株式会社,東京都,足立区,千住１丁目３０番３－２５０２号,,13,121,1200034,,,,,,,2021-08-27,1,,,,,ルミエール,0
332,2012401038252,新規,0,2021-08-27,2021-08-27,株式会社智塗装,,株式会社,東京都,調布市,飛田給３丁目１７番地９,,13,208,1820036,,,,,,,2021-08-27,1,,,,,トモトソウ,0
335,2012803002582,新規,0,2021-08-27,2021-08-27,Ｎｅｕｕｕｆ合同会社,,合同会社,東京都,立川市,若葉町１丁目２４番地の５１,,13,202,1900001,,,,,,,2021-08-27,1,,,,,ヌーフ,0
348,2020001142762,新規,0,2021-08-27,2021-08-27,ＴＡＫ株式会社,,株式会社,神奈川県,横浜市保土ケ谷区,上星川３丁目４番３号,,14,106,2400042,,,,,,,2021-08-27,1,,,,,ティーエーケー,0
355,2021001073766,新規,0,2021-08-27,2021-08-27,株式会社エイアンドエー,,株式会社,神奈川県,小田原市,栢山２６４８番地,,14,206,2500852,,,,,,,2021-08-27,1,,,,,エイアンドエー,0
356,2021005012282,新規,0,2021-08-27,2021-08-27,一般社団法人たていとの会,,その他の設立登記法人,神奈川県,海老名市,東柏ケ谷１丁目６番１２号大貫ビル１０６,,14,215,2430401,,,,,,,2021-08-27,1,,,,,タテイトノカイ,0
361,2030001144015,新規,0,2021-08-27,2021-08-27,株式会社エーケーアーク,,株式会社,埼玉県,加須市,南篠崎２丁目１２番地１５,,11,210,3470017,,,,,,,2021-08-27,1,,,,,エーケーアーク,0
362,2030001144023,新規,0,2021-08-27,2021-08-27,株式会社テッパンカンパニー,,株式会社,埼玉県,川口市,中青木５丁目８番１９号,,11,203,3320032,,,,,,,2021-08-27,1,,,,,テッパンカンパニー,0
363,2030001144031,新規,0,2021-08-27,2021-08-27,株式会社ヤクシン埼玉千間台営業所,,株式会社,埼玉県,越谷市,千間台東１丁目７番地１３－２Ｆ,,11,222,3430042,,,,,,,2021-08-27,1,,,,,ヤクシンサイタマセンゲンダイエイギョウショ,0
374,2030003017838,新規,0,2021-08-27,2021-08-27,合同会社翔栄,,合同会社,埼玉県,熊谷市,妻沼４７８番地４タベイマンション１０２,,11,202,3600201,,,,,,,2021-08-27,1,,,,,ショウエイ,0
375,2030003017846,新規,0,2021-08-27,2021-08-27,合同会社リベラノート,,合同会社,埼玉県,越谷市,大字袋山１４４９番地１,,11,222,3430032,,,,,,,2021-08-27,1,,,,,リベラノート,0
381,2040001119899,新規,0,2021-08-27,2021-08-27,株式会社Ｍｏｏｎｂｅａｒ,,株式会社,千葉県,船橋市,本町２丁目２５番１７号高橋ビル１０１,,12,204,2730005,,,,,,,2021-08-27,1,,,,,ムーンベアー,0
388,2050005012926,新規,0,2021-08-27,2021-08-27,一般社団法人土浦蓮静会,,その他の設立登記法人,茨城県,土浦市,乙戸１０８０番地１３,,08,203,3000844,,,,,,,2021-08-27,1,,,,,ツチウラレンセイカイ,0
402,2100005012763,新規,0,2021-08-27,2021-08-27,一般社団法人八ヶ岳総合スポーツクラブ,,その他の設立登記法人,長野県,諏訪郡原村,１７８９２番地,,20,363,3910100,,,,,,,2021-08-27,1,,,,,ヤツガタケソウゴウスポーツクラブ,0
412,2120003020106,新規,0,2021-08-27,2021-08-27,合同会社ＬＤＫ,,合同会社,大阪府,大阪市北区,本庄西２丁目１２番３号,,27,127,5310073,,,,,,,2021-08-27,1,,,,,エルディーケイ,0
414,2120005022463,新規,0,2021-08-27,2021-08-27,一般社団法人関西中小個人企業支援協会,,その他の設立登記法人,大阪府,大阪市福島区,福島７丁目１７番２１－５０２号,,27,103,5530003,,,,,,,2021-08-27,1,,,,,カンサイチュウショウコジンキギョウシエンキョウカイ,0
418,2120101064203,新規,0,2021-08-27,2021-08-27,株式会社ｓｈｏｏｔ,,株式会社,大阪府,泉南市,男里６丁目１５番２号朝日プラザシティーサザンコーストＡ－９０１,,27,228,5900526,,,,,,,2021-08-27,1,,,,,シュート,0
433,2130001069978,新規,0,2021-08-27,2021-08-27,株式会社ｍｏｎｕｋｅｒｕ,,株式会社,京都府,京都市左京区,下鴨東岸本町１４番地京都下鴨修学館２０７号室,,26,103,6060854,,,,,,,2021-08-27,1,,,,,モヌケル,0
448,2140001122810,新規,0,2021-08-27,2021-08-27,株式会社ソウエイ,,株式会社,兵庫県,尼崎市,東難波町４丁目２番１９号,,28,202,6600892,,,,,,,2021-08-27,1,,,,,ソウエイ,0
449,2140001122819,新規,0,2021-08-27,2021-08-27,株式会社エイケミストリー,,株式会社,兵庫県,神戸市東灘区,御影山手２丁目１番１７号,,28,101,6580065,,,,,,,2021-08-27,1,,,,,エイケミストリー,0
458,2180001147572,新規,0,2021-08-27,2021-08-27,株式会社ＡＬＩＶＥ,,株式会社,愛知県,名古屋市中区,大須２丁目２１番３２号第三アメ横ビル３階,,23,106,4600011,,,,,,,2021-08-27,1,,,,,アライブ,0
459,2180001147589,新規,0,2021-08-27,2021-08-27,エムテックＤＳ株式会社,,株式会社,愛知県,尾張旭市,渋川町３丁目９番地２３,,23,226,4880839,,,,,,,2021-08-27,1,,,,,エムテックディーエス,0
486,2260003003658,新規,0,2021-08-27,2021-08-27,合同会社ＮＨＴＳ,,合同会社,岡山県,津山市,東一宮２８８番地４,,33,203,7080814,,,,,,,2021-08-27,1,,,,,エヌエイチティエス,0
491,2290001094358,新規,0,2021-08-27,2021-08-27,株式会社アルファ,,株式会社,福岡県,糟屋郡新宮町,上府北２丁目１３番５号,,40,345,8110123,,,,,,,2021-08-27,1,,,,,アルファ,0
492,2290001094382,新規,0,2021-08-27,2021-08-27,立新商事株式会社,,株式会社,福岡県,福岡市博多区,博多駅南３丁目２番２７号ヒューマンズ博多駅南１０５号,,40,132,8120016,,,,,,,2021-08-27,1,,,,,リッシンショウジ,0
493,2290001094390,新規,0,2021-08-27,2021-08-27,株式会社スマートコネクト,,株式会社,福岡県,福岡市東区,松島１丁目２６番２３－１０１号,,40,131,8120062,,,,,,,2021-08-27,1,,,,,スマートコネクト,0
504,2330005010389,新規,0,2021-08-27,2021-08-27,一般社団法人日本渦巻協会,,その他の設立登記法人,熊本県,熊本市西区,八島町７２６番地,,43,103,8600057,,,,,,,2021-08-27,1,,,,,ニホンウズマキキョウカイ,0
505,2340002004789,新規,0,2021-08-27,2021-08-27,有限会社新宅工務店,,有限会社,鹿児島県,鹿児島市,坂元町７８０番地３,,46,201,8920862,,,,,,,2021-08-27,1,,,,,シンタクコウムテン,0
535,2700150104536,新規,0,2021-08-27,2021-08-27,ＭＥＰＳＥＲＶＥ　ＦＺＣＯ,,外国会社等,福島県,いわき市,植田町根小屋６０－３,,07,204,9748261,アラブ首長国連邦ドバイジェベルアリ私書箱２６２７８３,,,,,,2021-08-27,1,,,,,メプサーブエフゼツトシーオー,0
537,3010001220592,新規,0,2021-08-27,2021-08-27,ＪＰ未来開発株式会社,,株式会社,東京都,中央区,日本橋小舟町４－９－５１８,,13,102,1030024,,,,,,,2021-08-27,1,,,,,ジャパンミライカイハツ,0
538,3010001220725,新規,0,2021-08-27,2021-08-27,株式会社ＳＨＩＰ第２２１号,,株式会社,東京都,千代田区,丸の内２丁目７番２号,,13,101,1000005,,,,,,,2021-08-27,1,,,,,エスエイチアイピーダイニヒャクニジュウイチゴウ,0
539,3010001220733,新規,0,2021-08-27,2021-08-27,株式会社ＳＨＩＰ第２２９号,,株式会社,東京都,千代田区,丸の内２丁目７番２号,,13,101,1000005,,,,,,,2021-08-27,1,,,,,エスエイチアイピーダイニヒャクニジュウキュウゴウ,0
547,3010005033867,新規,0,2021-08-27,2021-08-27,ＮＰＯ法人ＺＥＲＯ　ＳＴＡＲＴｓ,,その他の設立登記法人,東京都,中央区,日本橋本石町４丁目５番８号京央会館３階ル．ヲ号室,,13,102,1030021,,,,,,,2021-08-27,1,,,,,ゼロスターツ,0
550,3010401162303,新規,0,2021-08-27,2021-08-27,株式会社東京女性不動産,,株式会社,東京都,港区,海岸１丁目１４番１７号ベイサイド竹芝１５０３,,13,103,1050022,,,,,,,2021-08-27,1,,,,,トウキョウジョセイフドウサン,0
551,3010401162352,新規,0,2021-08-27,2021-08-27,株式会社ゼロボード,,株式会社,東京都,港区,芝公園３丁目１番８号,,13,103,1050011,,,,,,,2021-08-27,1,,,,,ゼロボード,0
552,3010405020151,新規,0,2021-08-27,2021-08-27,特定目的会社青葉ホールディングス,,その他の設立登記法人,東京都,港区,六本木６丁目１０番１号六本木ヒルズ森タワー,,13,103,1060032,,,,,,,2021-08-27,1,,,,,アオバホールディングス,0
553,3010501047726,新規,0,2021-08-27,2021-08-27,株式会社エスティーワン,,株式会社,東京都,台東区,日本堤２丁目２９番１２－８０３号クレヴィスタ南千住,,13,106,1110021,,,,,,,2021-08-27,1,,,,,エスティーワン,0
556,3010505003262,新規,0,2021-08-27,2021-08-27,一般社団法人日本ナノコート協議会,,その他の設立登記法人,東京都,台東区,浅草橋２丁目２５番１３号,,13,106,1110053,,,,,,,2021-08-27,1,,,,,ニホンナノコートキョウギカイ,0
558,3010601059860,新規,0,2021-08-27,2021-08-27,株式会社ｍｅｇｕ,,株式会社,東京都,墨田区,東向島６丁目２番１号,,13,107,1310032,,,,,,,2021-08-27,1,,,,,メグ,0
559,3010701041421,新規,0,2021-08-27,2021-08-27,株式会社スリーアローズ,,株式会社,東京都,品川区,上大崎２丁目１５－１４－５Ｆ,,13,109,1410021,,,,,,,2021-08-27,1,,,,,スリーアローズ,0
567,3011003013266,新規,0,2021-08-27,2021-08-27,合同会社ＲｅＣｏｒｐｓ,,合同会社,東京都,目黒区,鷹番１丁目２番１５－２０１号,,13,110,1520004,,,,,,,2021-08-27,1,,,,,リコア,0
570,3011103010956,新規,0,2021-08-27,2021-08-27,合同会社ブエナビスタ,,合同会社,東京都,新宿区,高田馬場１丁目１１番５号,,13,104,1690075,,,,,,,2021-08-27,1,,,,,ブエナビスタ,0
581,3011701024663,新規,0,2021-08-27,2021-08-27,株式会社ユニテック,,株式会社,東京都,江戸川区,鹿骨２丁目３３番７号第１１諸マンション１０６,,13,123,1330073,,,,,,,2021-08-27,1,,,,,ユニテック,0
583,3011801039628,新規,0,2021-08-27,2021-08-27,株式会社Ａｓｕｋａ－ＷＩＮＧ,,株式会社,東京都,葛飾区,鎌倉１丁目２番１５号,,13,122,1250053,,,,,,,2021-08-27,1,,,,,アスカウィング,0
611,3020001142712,新規,0,2021-08-27,2021-08-27,株式会社武田工業,,株式会社,神奈川県,横浜市西区,北幸１丁目１番１号水信ビル７階,,14,103,2200004,,,,,,,2021-08-27,1,,,,,タケダコウギョウ,0
612,3020001142778,新規,0,2021-08-27,2021-08-27,ＡＮＴ　ＡＧＥＮＴ株式会社,,株式会社,神奈川県,横浜市西区,みなとみらい２丁目２番１号横浜ランドマークタワー２０階,,14,103,2200012,,,,,,,2021-08-27,1,,,,,アントエージェント,0
618,3020003020379,新規,0,2021-08-27,2021-08-27,合同会社システムインベスター,,合同会社,神奈川県,川崎市多摩区,宿河原２丁目２－２３,,14,135,2140021,,,,,,,2021-08-27,1,,,,,システムインベスター,0
619,3020003020387,新規,0,2021-08-27,2021-08-27,合同会社アクティベンシャル,,合同会社,神奈川県,横浜市鶴見区,諏訪坂１６－２４,,14,101,2300014,,,,,,,2021-08-27,1,,,,,アクティベンシャル,0
626,3021001073765,新規,0,2021-08-27,2021-08-27,株式会社ガーラ,,株式会社,神奈川県,相模原市緑区,川尻５５００番地１,,14,151,2520111,,,,,,,2021-08-27,1,,,,,ガーラ,0
635,3030001144006,新規,0,2021-08-27,2021-08-27,株式会社職人道,,株式会社,埼玉県,さいたま市北区,植竹町１丁目８２０番地６埼玉電気会館４階,,11,102,3310813,,,,,,,2021-08-27,1,,,,,ショクニンドウ,0
636,3030001144014,新規,0,2021-08-27,2021-08-27,株式会社時茂プロダクション,,株式会社,埼玉県,草加市,高砂２丁目５番５号,,11,221,3400015,,,,,,,2021-08-27,1,,,,,トキシゲプロダクション,0
637,3030001144039,新規,0,2021-08-27,2021-08-27,株式会社ここから,,株式会社,埼玉県,草加市,吉町３丁目５番２４号,,11,221,3400017,,,,,,,2021-08-27,1,,,,,ココカラ,0
644,3030003017845,新規,0,2021-08-27,2021-08-27,合同会社ｋｉｎｎｉｋｕ,,合同会社,埼玉県,川口市,芝中田２丁目２８番１号,,11,203,3330847,,,,,,,2021-08-27,1,,,,,キンニク,0
645,3040001119923,新規,0,2021-08-27,2021-08-27,株式会社ブリッヂ,,株式会社,千葉県,市原市,東五所２９番地の５,,12,219,2900064,,,,,,,2021-08-27,1,,,,,ブリッヂ,0
679,3120001239944,新規,0,2021-08-27,2021-08-27,株式会社武野企画,,株式会社,大阪府,枚方市,上野２丁目４番１－３１２号,,27,210,5731175,,,,,,,2021-08-27,1,,,,,タケノキカク,0
680,3120001239952,新規,0,2021-08-27,2021-08-27,Ｌｉｇｈｔｈｉｌｌ　Ｇｌｏｂａｌ株式会社,,株式会社,大阪府,大阪市旭区,中宮５丁目６－８リバーパーク中宮２０２,,27,117,5350003,,,,,,,2021-08-27,1,,,,,ライトヒルグローバル,0
681,3120001239960,新規,0,2021-08-27,2021-08-27,株式会社Ｗｅｌｌｎｅｓｓ　Ｌａｎｄ,,株式会社,大阪府,大阪市浪速区,桜川１丁目３番２号,,27,111,5560022,,,,,,,2021-08-27,1,,,,,ウェルネスランド,0
682,3120001239969,新規,0,2021-08-27,2021-08-27,株式会社昇六下田,,株式会社,大阪府,枚方市,招提北町１丁目２２２９番地２,,27,210,5731138,,,,,,,2021-08-27,1,,,,,ショウロクシモダ,0
704,3140001122834,新規,0,2021-08-27,2021-08-27,株式会社ヘルスリー,,株式会社,兵庫県,神戸市兵庫区,三川口町３丁目３番１０－４０６号,,28,105,6520815,,,,,,,2021-08-27,1,,,,,ヘルスリー,0
709,3140003016670,新規,0,2021-08-27,2021-08-27,合同会社ソル,,合同会社,兵庫県,芦屋市,翠ケ丘町９番２５－２０２号,,28,206,6590014,,,,,,,2021-08-27,1,,,,,ソル,0
717,3180001147563,新規,0,2021-08-27,2021-08-27,ＳＯＬＡＲメンテＦＡＣＴＯＲＹ株式会社,,株式会社,愛知県,東海市,加木屋町北鹿持３４番地２３２,,23,222,4770032,,,,,,,2021-08-27,1,,,,,ソーラーメンテファクトリー,0
718,3180001147571,新規,0,2021-08-27,2021-08-27,株式会社アンジー,,株式会社,愛知県,名古屋市中区,平和２丁目１４番１８号,,23,106,4600021,,,,,,,2021-08-27,1,,,,,アンジー,0
728,3230001018957,新規,0,2021-08-27,2021-08-27,八光エステイト株式会社,,株式会社,富山県,魚津市,本江１０３０番地,,16,204,9370805,,,,,,,2021-08-27,1,,,,,ハッコウエステイト,0
733,3240001058498,新規,0,2021-08-27,2021-08-27,株式会社エム・トラスト,,株式会社,広島県,広島市西区,楠木町１丁目１３番１０号ロイヤル神川７０１,,34,104,7330002,,,,,,,2021-08-27,1,,,,,エムトラスト,0
744,3290001094373,新規,0,2021-08-27,2021-08-27,Ｒｉｃｈ　Ｇｒｏｕｐ株式会社,,株式会社,福岡県,福岡市東区,香椎浜３丁目３番６号,,40,131,8130016,,,,,,,2021-08-27,1,,,,,リッチグループ,0
745,3290001094381,新規,0,2021-08-27,2021-08-27,万慈株式会社,,株式会社,福岡県,福岡市博多区,寿町３丁目４番１５号南福岡ルネッサンス６０２号,,40,132,8120884,,,,,,,2021-08-27,1,,,,,マンジ,0
749,3290003011558,新規,0,2021-08-27,2021-08-27,合同会社ストレートロー,,合同会社,福岡県,福岡市東区,松香台１丁目２１番７－１０３号,,40,131,8130004,,,,,,,2021-08-27,1,,,,,ストレートロー,0
751,3300003001714,新規,0,2021-08-27,2021-08-27,合同会社ＯＣＥＡＮ,,合同会社,佐賀県,唐津市,町田１丁目８番５号,,41,202,8470821,,,,,,,2021-08-27,1,,,,,オーシャン,0
771,3370005010335,新規,0,2021-08-27,2021-08-27,農事組合法人おおぬき彩土里ファーム,,その他の設立登記法人,宮城県,大崎市,田尻大貫字築留１４番地１３,,04,215,9894302,,,,,,,2021-08-27,1,,,,,オオヌキイロドリファーム,0
817,4010001220690,新規,0,2021-08-27,2021-08-27,ＩＰＳＦホールディングス株式会社,,株式会社,東京都,千代田区,岩本町２丁目１０番２号,,13,101,1010032,,,,,,,2021-08-27,1,,,,,アイピーエスエフホールディングス,0
818,4010001220724,新規,0,2021-08-27,2021-08-27,株式会社ＳＨＩＰ第２２０号,,株式会社,東京都,千代田区,丸の内２丁目７番２号,,13,101,1000005,,,,,,,2021-08-27,1,,,,,エスエイチアイピーダイニヒャクニジュウゴウ,0
820,4010003035699,新規,0,2021-08-27,2021-08-27,合同会社ＣＥＩ,,合同会社,東京都,中央区,銀座１丁目２２番１１号銀座大竹ビジデンス２階,,13,102,1040061,,,,,,,2021-08-27,1,,,,,シーイーアイ,0
825,4010401162277,新規,0,2021-08-27,2021-08-27,ＵＮＬＩＭＩＮＴ　ＪＰ株式会社,,株式会社,東京都,港区,港南２丁目１６番４号品川グランドセントラルタワー８Ｆ,,13,103,1080075,,,,,,,2021-08-27,1,,,,,アンリミントジェーピー,0
826,4010401162302,新規,0,2021-08-27,2021-08-27,株式会社ＢＵＮ３６,,株式会社,東京都,港区,北青山３丁目１－６－３１６青山３０７号室,,13,103,1070061,,,,,,,2021-08-27,1,,,,,ブンサンジュウロク,0
827,4010401162319,新規,0,2021-08-27,2021-08-27,６３４株式会社,,株式会社,東京都,港区,赤坂３丁目８番８号,,13,103,1070052,,,,,,,2021-08-27,1,,,,,ムサシ,0
828,4010401162335,新規,0,2021-08-27,2021-08-27,株式会社ＧＡ,,株式会社,東京都,港区,赤坂８丁目６番２７号スカイプラザ赤坂２１１,,13,103,1070052,,,,,,,2021-08-27,1,,,,,ジーエー,0
833,4010403025985,新規,0,2021-08-27,2021-08-27,Ｎｉｇｉｔａ　Ｊａｐａｎ合同会社,,合同会社,東京都,港区,六本木３丁目１５番３号ヒルサイド六本木１０７号,,13,103,1060032,,,,,,,2021-08-27,1,,,,,ニギタジャパン,0
835,4010405020150,新規,0,2021-08-27,2021-08-27,特定目的会社ジャパンロジプロパティーズ,,その他の設立登記法人,東京都,港区,六本木６丁目１０番１号六本木ヒルズ森タワー,,13,103,1060032,,,,,,,2021-08-27,1,,,,,ジャパンロジプロパティーズ,0
841,4010603009103,新規,0,2021-08-27,2021-08-27,アストンブリッジ合同会社,,合同会社,東京都,江東区,有明２丁目１番２―４１６号,,13,108,1350063,,,,,,,2021-08-27,1,,,,,アストンブリッジ,0
858,4011001142487,新規,0,2021-08-27,2021-08-27,株式会社テンリュウ,,株式会社,東京都,渋谷区,神宮前６丁目２３番４号桑野ビル２階,,13,113,1500001,,,,,,,2021-08-27,1,,,,,テンリュウ,0
859,4011003013257,新規,0,2021-08-27,2021-08-27,Ｓｏｌｉｓ　ＤＥＳＩＧＮ合同会社,,合同会社,東京都,渋谷区,神南１丁目６－５,,13,113,1500041,,,,,,,2021-08-27,1,,,,,ソリスデザイン,0
860,4011101096113,新規,0,2021-08-27,2021-08-27,株式会社ｔｅｒｒａｓｕ,,株式会社,東京都,新宿区,山吹町３６６番地１,,13,104,1620801,,,,,,,2021-08-27,1,,,,,テラス,0
861,4011103010955,新規,0,2021-08-27,2021-08-27,合同会社アララト,,合同会社,東京都,新宿区,四谷２丁目１１番地６ＦＯＲＥＣＡＳＴ四谷８０２,,13,104,1600004,,,,,,,2021-08-27,1,,,,,アララト,0
865,4011301027132,新規,0,2021-08-27,2021-08-27,株式会社Ｍｏｔｏｒｉｋｕ,,株式会社,東京都,杉並区,阿佐谷南１丁目４７－２４ＫＤＸレジデンス阿佐ヶ谷４０７,,13,115,1660004,,,,,,,2021-08-27,1,,,,,モトリク,0
881,4012701016633,新規,0,2021-08-27,2021-08-27,玄機株式会社,,株式会社,東京都,東久留米市,本町４丁目５番３号レオパレス本町２０２,,13,222,2030053,,,,,,,2021-08-27,1,,,,,ゲンキ,0
900,4021001073772,新規,0,2021-08-27,2021-08-27,株式会社シブヤ,,株式会社,神奈川県,相模原市中央区,田名４３３３番地２６,,14,152,2520244,,,,,,,2021-08-27,1,,,,,シブヤ,0
907,4030001143931,新規,0,2021-08-27,2021-08-27,株式会社修栄設備,,株式会社,埼玉県,白岡市,西５丁目４番３,,11,246,3490205,,,,,,,2021-08-27,1,,,,,シュウエイセツビ,0
908,4030001144005,新規,0,2021-08-27,2021-08-27,株式会社ＬＶシステム,,株式会社,埼玉県,さいたま市中央区,上峰３丁目１３番９号－１－２０２,,11,105,3380014,,,,,,,2021-08-27,1,,,,,エルブイシステム,0
909,4030001144021,新規,0,2021-08-27,2021-08-27,株式会社石川企画,,株式会社,埼玉県,春日部市,粕壁３丁目４番３８号,,11,214,3440061,,,,,,,2021-08-27,1,,,,,イシカワキカク,0
918,4040001119897,新規,0,2021-08-27,2021-08-27,株式会社廣川電気,,株式会社,千葉県,市原市,能満１１１５番地,,12,219,2900011,,,,,,,2021-08-27,1,,,,,ヒロカワデンキ,0
919,4040001119914,新規,0,2021-08-27,2021-08-27,株式会社Ｔ・Ｔ商事,,株式会社,千葉県,四街道市,もねの里３丁目２４－１４８,,12,228,2840016,,,,,,,2021-08-27,1,,,,,ティティショウジ,0
920,4040001119939,新規,0,2021-08-27,2021-08-27,株式会社エバーグリーン,,株式会社,千葉県,八千代市,ゆりのき台７丁目９番地１１,,12,221,2760042,,,,,,,2021-08-27,1,,,,,エバーグリーン,0
921,4040001119955,新規,0,2021-08-27,2021-08-27,オプション警備株式会社,,株式会社,千葉県,松戸市,西馬橋蔵元町５５番地２０２号,,12,207,2710046,,,,,,,2021-08-27,1,,,,,オプションケイビ,0
922,4040003018370,新規,0,2021-08-27,2021-08-27,Ｏｌｉｖｅ　Ｈｏｕｓｅ合同会社,,合同会社,千葉県,成田市,囲護台１丁目１０番地８,,12,211,2860035,,,,,,,2021-08-27,1,,,,,オリーブハウス,0
923,4040003018379,新規,0,2021-08-27,2021-08-27,ＡＮＧＥＬ　ＢＥＡＴ合同会社,,合同会社,千葉県,佐倉市,王子台１丁目２２番地１７ベルハイム王子台１Ｆ,,12,212,2850837,,,,,,,2021-08-27,1,,,,,エンジェルビート,0
924,4050001049755,新規,0,2021-08-27,2021-08-27,日本海流発電株式会社,,株式会社,茨城県,つくば市,榎戸７８３番地１２沼尻産業ビル２Ｆ,,08,220,3050853,,,,,,,2021-08-27,1,,,,,ニホンカイリュウハツデン,0
925,4050001049763,新規,0,2021-08-27,2021-08-27,株式会社晴飛,,株式会社,茨城県,小美玉市,羽鳥２３５２－１２３９メゾン脇山Ｂ号,,08,236,3190123,,,,,,,2021-08-27,1,,,,,ハレトビ,0
938,4080005007392,新規,0,2021-08-27,2021-08-27,一般社団法人静岡県建築職人協会,,その他の設立登記法人,静岡県,静岡市葵区,追手町１０,,22,101,4200853,,,,,,,2021-08-27,1,,,,,シズオカケンケンチクショクニンキョウカイ,0
939,4080103002411,新規,0,2021-08-27,2021-08-27,合同会社ＨＡＲＬＥＭ,,合同会社,静岡県,三島市,本町５番１２号,,22,206,4110855,,,,,,,2021-08-27,1,,,,,ハーレム,0
940,4080401025287,新規,0,2021-08-27,2021-08-27,株式会社コンフィニティ,,株式会社,静岡県,浜松市中区,上島５丁目１２－２９,,22,131,4338122,,,,,,,2021-08-27,1,,,,,コンフィニティ,0
960,4120001239935,新規,0,2021-08-27,2021-08-27,株式会社ＲＵＳＨ　ＯＦ,,株式会社,大阪府,大阪市北区,天満１丁目１３番５－４０３号,,27,127,5300043,,,,,,,2021-08-27,1,,,,,ラッシュオブ,0
961,4120001239968,新規,0,2021-08-27,2021-08-27,株式会社ゴールデンエイジ,,株式会社,大阪府,大阪市北区,天神橋１丁目７番１７号,,27,127,5300041,,,,,,,2021-08-27,1,,,,,ゴールデンエイジ,0
967,4120101064201,新規,0,2021-08-27,2021-08-27,株式会社おひげ,,株式会社,大阪府,和泉市,上町６５８番地の４,,27,219,5940002,,,,,,,2021-08-27,1,,,,,オヒゲ,0
991,4160005010974,新規,0,2021-08-27,2021-08-27,一般財団法人野田俊作顕彰財団Ａｄｌｅｒ　Ｉｎｓｔｉｔｕｔｅ　Ｊａｐａｎ,,その他の設立登記法人,滋賀県,大津市,松原町１０番１０－２０４号,,25,201,5200831,,,,,,,2021-08-27,1,,,,,ノダシュンサクケンショウザイダンアドラーインスティテュートジャパン,0
994,4170001016735,新規,0,2021-08-27,2021-08-27,Ｓｅｌｉｅｒ株式会社,,株式会社,和歌山県,田辺市,湊５２番６号,,30,206,6460031,,,,,,,2021-08-27,1,,,,,セリエ,0
1006,4180005019411,新規,0,2021-08-27,2021-08-27,一般社団法人三陽会,,その他の設立登記法人,愛知県,名古屋市西区,又穂町４丁目２２番地,,23,104,4510014,,,,,,,2021-08-27,1,,,,,サンヨウカイ,0
1021,4230001018956,新規,0,2021-08-27,2021-08-27,Ｔ＆Ｔ　ＴＯＹＡＭＡ株式会社,,株式会社,富山県,砺波市,三郎丸２０８番地,,16,208,9391308,,,,,,,2021-08-27,1,,,,,ティーアンドティートヤマ,0
1029,4240001058497,新規,0,2021-08-27,2021-08-27,株式会社アリマコーポレーション,,株式会社,広島県,東広島市,高屋町高屋堀２０２７番地１１,,34,212,7392111,,,,,,,2021-08-27,1,,,,,アリマコーポレーション,0
1038,4260001035899,新規,0,2021-08-27,2021-08-27,株式会社ＳＡＩＧＯＮ９３,,株式会社,岡山県,岡山市中区,今在家４４７番地１（Ｂ－１０１）,,33,102,7038208,,,,,,,2021-08-27,1,,,,,サイゴンキュウジュウサン,0
1048,4290001094389,新規,0,2021-08-27,2021-08-27,株式会社ラジカル,,株式会社,福岡県,久留米市,六ツ門町７番地５２－１９０２号,,40,203,8300031,,,,,,,2021-08-27,1,,,,,ラジカル,0
1049,4290003011557,新規,0,2021-08-27,2021-08-27,合同会社みなとＴＭパートナーズ,,合同会社,福岡県,福岡市早良区,室見４丁目２４番２５－５０３号,,40,137,8140015,,,,,,,2021-08-27,1,,,,,ミナトティーエムパートナーズ,0
1051,4290801027738,新規,0,2021-08-27,2021-08-27,Ｆｅａｒｌｅｓｔ　Ｊａｐａｎ株式会社,,株式会社,福岡県,北九州市小倉北区,室町３丁目３番５－６０１号,,40,106,8030812,,,,,,,2021-08-27,1,,,,,フィアーレストジャパン,0
1054,4320001018559,新規,0,2021-08-27,2021-08-27,株式会社リアライズ,,株式会社,大分県,豊後高田市,呉崎１１０１番地３,,44,209,8790608,,,,,,,2021-08-27,1,,,,,リアライズ,0
1058,4330001028937,新規,0,2021-08-27,2021-08-27,株式会社秋雲,,株式会社,熊本県,八代市,古閑中町５０８番地,,43,202,8660898,,,,,,,2021-08-27,1,,,,,,0
1064,4360001029255,新規,0,2021-08-27,2021-08-27,株式会社ｅ’ｍｕ,,株式会社,沖縄県,那覇市,銘苅１丁目２－２９ディベロップ新都心４０１,,47,201,9000004,,,,,,,2021-08-27,1,,,,,エミュー,0
1065,4360001029263,新規,0,2021-08-27,2021-08-27,あったかＪＡＰＡＮ株式会社,,株式会社,沖縄県,那覇市,前島３丁目２５－２泊ポートビル１Ｆ,,47,201,9000016,,,,,,,2021-08-27,1,,,,,アッタカジャパン,0
1069,4370005010334,新規,0,2021-08-27,2021-08-27,Ｓｗｉｍｍｙ　Ｏｎａｇａｗａ事業協同組合,,その他の設立登記法人,宮城県,牡鹿郡女川町,黄金１番地１,,04,581,9862246,,,,,,,2021-08-27,1,,,,,スイミーオナガワ,0
1074,4380003005005,新規,0,2021-08-27,2021-08-27,ＷＩＬＤ　ＳＩＤＥ合同会社,,合同会社,福島県,福島市,下鳥渡字新町１３番地の５,,07,201,9601106,,,,,,,2021-08-27,1,,,,,ワイルドサイド,0
1099,5010001220673,新規,0,2021-08-27,2021-08-27,株式会社ＶＡＲＩＥＴＹ,,株式会社,東京都,千代田区,内神田３丁目１７番５号稲垣内神田ビル２階,,13,101,1010047,,,,,,,2021-08-27,1,,,,,バラエティ,0
1100,5010001220723,新規,0,2021-08-27,2021-08-27,株式会社ＳＨＩＰ第２１９号,,株式会社,東京都,千代田区,丸の内２丁目７番２号,,13,101,1000005,,,,,,,2021-08-27,1,,,,,エスエイチアイピーダイニヒャクジュウキュウゴウ,0
1102,5010003035649,新規,0,2021-08-27,2021-08-27,Ｔｒａｄｅ　Ｌｉｎｋ　Ｊａｐａｎ合同会社,,合同会社,東京都,中央区,日本橋小網町８－２ＢＩＺＭＡＲＫＳ日本橋茅場町４１１号室,,13,102,1030016,,,,,,,2021-08-27,1,,,,,トレードリンクジャパン,0
1103,5010003035698,新規,0,2021-08-27,2021-08-27,ＦＳＭ　ＧＰ　Ｓｕｂ－２合同会社,,合同会社,東京都,中央区,銀座６丁目１０番１号,,13,102,1040061,,,,,,,2021-08-27,1,,,,,エフエスエムジーピーサブツー,0
1114,5010401162350,新規,0,2021-08-27,2021-08-27,ＧＣＪＩ４株式会社,,株式会社,東京都,港区,元赤坂１丁目１番８号株式会社赤坂国際会計内,,13,103,1070051,,,,,,,2021-08-27,1,,,,,ジーシージェイアイフォー,0
1115,5010403025984,新規,0,2021-08-27,2021-08-27,Ｚｅｎｉｔｈ　Ｐｒｉｎｃｉｐａｌ合同会社,,合同会社,東京都,港区,白金台３丁目１－６－３０１,,13,103,1080071,,,,,,,2021-08-27,1,,,,,ゼニスプリンシパル,0
1116,5010403025992,新規,0,2021-08-27,2021-08-27,ＣＥＬＩＮＡ合同会社,,合同会社,東京都,港区,北青山３丁目６番７号青山パラシオタワー１１Ｆ,,13,103,1070061,,,,,,,2021-08-27,1,,,,,セリナ,0
1118,5010601059801,新規,0,2021-08-27,2021-08-27,株式会社ＳＫ　ｓｅｒｖｉｃｅ,,株式会社,東京都,墨田区,墨田３丁目１８番１４号,,13,107,1310031,,,,,,,2021-08-27,1,,,,,エスケーサービス,0
1120,5010603009127,新規,0,2021-08-27,2021-08-27,合同会社フウスル,,合同会社,東京都,墨田区,押上３丁目２４－１８－１Ｆ,,13,107,1310045,,,,,,,2021-08-27,1,,,,,フウスル,0
1124,5010703005918,新規,0,2021-08-27,2021-08-27,イッシングループジャパン合同会社,,合同会社,東京都,品川区,南大井２丁目１２番１号,,13,109,1400013,,,,,,,2021-08-27,1,,,,,イッシングループジャパン,0
1138,5011101096112,新規,0,2021-08-27,2021-08-27,株式会社ピーチプロモーション,,株式会社,東京都,新宿区,河田町３番５１－２７１２号,,13,104,1620054,,,,,,,2021-08-27,1,,,,,ピーチプロモーション,0
1145,5011501027253,新規,0,2021-08-27,2021-08-27,株式会社ＡＣＥＯＮＥ,,株式会社,東京都,荒川区,南千住３丁目４１番６－１０１０号,,13,118,1160003,,,,,,,2021-08-27,1,,,,,エースワン,0
1150,5011803004751,新規,0,2021-08-27,2021-08-27,Ｐａｐｉｌｉｏ合同会社,,合同会社,東京都,葛飾区,南水元３丁目６金町第二１－１１２６,,13,122,1250035,,,,,,,2021-08-27,1,,,,,パピリオ,0
1154,5012401038241,新規,0,2021-08-27,2021-08-27,株式会社城南急送,,株式会社,東京都,稲城市,平尾１丁目７番地の３,,13,225,2060823,,,,,,,2021-08-27,1,,,,,ジョウナンキュウソウ,0
1164,5013301047919,新規,0,2021-08-27,2021-08-27,株式会社ＣＡＮＡＥＬ,,株式会社,東京都,豊島区,東池袋２丁目６３番５号日興パレス池袋４０３,,13,116,1700013,,,,,,,2021-08-27,1,,,,,カナエル,0
1173,5020001142776,新規,0,2021-08-27,2021-08-27,オールウェイ株式会社,,株式会社,神奈川県,横浜市旭区,鶴ケ峰本町２丁目４２番２０号スプリングハイム２０１,,14,112,2410021,,,,,,,2021-08-27,1,,,,,オールウェイ,0
1179,5021001073771,新規,0,2021-08-27,2021-08-27,株式会社孝建,,株式会社,神奈川県,三浦市,南下浦町上宮田８６３番地１,,14,210,2380101,,,,,,,2021-08-27,1,,,,,コウケン,0
1189,5030001144012,新規,0,2021-08-27,2021-08-27,株式会社宏輝,,株式会社,埼玉県,志木市,上宗岡１丁目９番１３号,,11,228,3530001,,,,,,,2021-08-27,1,,,,,コウキ,0
1190,5030001144029,新規,0,2021-08-27,2021-08-27,株式会社地質工学社,,株式会社,埼玉県,さいたま市北区,本郷町５７６番地４,,11,102,3310802,,,,,,,2021-08-27,1,,,,,チシツコウガクシャ,0
1191,5030001144037,新規,0,2021-08-27,2021-08-27,ｃｏｃｏハウス株式会社,,株式会社,埼玉県,上尾市,大字平塚３１１５番地６,,11,219,3620011,,,,,,,2021-08-27,1,,,,,ココハウス,0
1197,5030005020498,新規,0,2021-08-27,2021-08-27,一般社団法人日本フィードバック協会,,その他の設立登記法人,埼玉県,さいたま市緑区,大字大牧１４７０番地１９,,11,109,3360922,,,,,,,2021-08-27,1,,,,,ニホンフィードバックキョウカイ,0
1198,5040001119938,新規,0,2021-08-27,2021-08-27,多吉株式会社,,株式会社,千葉県,鎌ケ谷市,丸山３丁目９番３号,,12,224,2730103,,,,,,,2021-08-27,1,,,,,タキチ,0
1199,5040001119954,新規,0,2021-08-27,2021-08-27,株式会社ｌｅａｐ,,株式会社,千葉県,茂原市,小林２３９６番地１,,12,210,2970074,,,,,,,2021-08-27,1,,,,,リープ,0
1200,5040003018378,新規,0,2021-08-27,2021-08-27,Ｍｏｍ’ｓ　ＨＡＮＤ合同会社,,合同会社,千葉県,佐倉市,江原台１丁目３２番地１５,,12,212,2850825,,,,,,,2021-08-27,1,,,,,マムズハンド,0
1201,5040003018386,新規,0,2021-08-27,2021-08-27,マタラオート合同会社,,合同会社,千葉県,船橋市,大穴北１丁目２３－１７,,12,204,2740068,,,,,,,2021-08-27,1,,,,,マタラオート,0
1202,5040003018403,新規,0,2021-08-27,2021-08-27,合同会社ＡＲＡ,,合同会社,千葉県,印西市,大塚３丁目２４－９,00124038,12,231,2701352,,,,,,,2021-08-27,1,,,,,アラ,0
1239,5120001239967,新規,0,2021-08-27,2021-08-27,株式会社ＮＡＭＩＤＩＢＡ,,株式会社,大阪府,大阪市中央区,内久宝寺町２丁目２番２２－３１０１号,,27,128,5400013,,,,,,,2021-08-27,1,,,,,ナミディバ,0
1240,5120001239975,新規,0,2021-08-27,2021-08-27,株式会社ＨＩＹＯＲＩ,,株式会社,大阪府,大阪市北区,大淀中２丁目７番１号,,27,127,5310076,,,,,,,2021-08-27,1,,,,,ヒヨリ,0
1241,5120001239983,新規,0,2021-08-27,2021-08-27,株式会社ＨＥＡＶＥＮ,,株式会社,大阪府,大阪市東成区,玉津１丁目１－２９不燃ビル１Ｆ,,27,115,5370023,,,,,,,2021-08-27,1,,,,,ヘブン,0
1249,5122001035116,新規,0,2021-08-27,2021-08-27,株式会社ｈａｃｏｂｉ,,株式会社,大阪府,東大阪市,俊徳町１丁目３－２３桜ガーデン１０１,,27,227,5770831,,,,,,,2021-08-27,1,,,,,ハコビ,0
1252,5130001069975,新規,0,2021-08-27,2021-08-27,株式会社Ｈｏｌｏｍｕａ,,株式会社,京都府,京都市右京区,鳴滝松本町２６番地１２,,26,108,6168256,,,,,,,2021-08-27,1,,,,,ホロムア,0
1253,5130001069983,新規,0,2021-08-27,2021-08-27,株式会社ｏｎｔａｋｕ　ａｇｅｎｔ,,株式会社,京都府,福知山市,字岩井８０番地の２オアシス２０５,,26,201,6200922,,,,,,,2021-08-27,1,,,,,オンタクエージェント,0
1254,5130001069991,新規,0,2021-08-27,2021-08-27,株式会社織り夢,,株式会社,京都府,綾部市,豊里町三宅１０７番地,,26,203,6230223,,,,,,,2021-08-27,1,,,,,オリユメ,0
1259,5140001122790,新規,0,2021-08-27,2021-08-27,株式会社ｉｎｇｕｚ,,株式会社,兵庫県,丹波篠山市,殿町８７３番地,,28,221,6692434,,,,,,,2021-08-27,1,,,,,イング,0
1260,5140001122808,新規,0,2021-08-27,2021-08-27,株式会社ルーチェ,,株式会社,兵庫県,姫路市,花田町勅旨３３４番地５,,28,201,6710254,,,,,,,2021-08-27,1,,,,,ルーチェ,0
1265,5180001147561,新規,0,2021-08-27,2021-08-27,プロニト株式会社,,株式会社,愛知県,名古屋市中区,栄１丁目６番１５号（グランドメゾン御園座タワー３８０６号）,,23,106,4600008,,,,,,,2021-08-27,1,,,,,プロニト,0
1270,5180003022903,新規,0,2021-08-27,2021-08-27,合同会社達磨,,合同会社,愛知県,名古屋市港区,港陽２丁目９番地の１ハイス丸二Ｂ棟１０２,,23,111,4550013,,,,,,,2021-08-27,1,,,,,ダルマ,0
1271,5180005019410,新規,0,2021-08-27,2021-08-27,アレグリア行政書士法人,,その他の設立登記法人,愛知県,名古屋市天白区,古川町１５０番地,,23,116,4680046,,,,,,,2021-08-27,1,,,,,アレグリア,0
1274,5190001028637,新規,0,2021-08-27,2021-08-27,株式会社ＲＥＭＡＲＥ,,株式会社,三重県,鳥羽市,鳥羽５丁目１６－１６,,24,211,5170011,,,,,,,2021-08-27,1,,,,,リマーレ,0
1285,5240001058496,新規,0,2021-08-27,2021-08-27,株式会社ＭＡＴ情報システム,,株式会社,広島県,広島市安佐南区,長束西１丁目２５番１３－３号,,34,105,7310136,,,,,,,2021-08-27,1,,,,,エムエーティジョウホウシステム,0
1296,5290001094363,新規,0,2021-08-27,2021-08-27,ルナタウン株式会社,,株式会社,福岡県,糟屋郡篠栗町,大字乙犬９８０番地４,,40,342,8112412,,,,,,,2021-08-27,1,,,,,ルナタウン,0
1308,5340003003531,新規,0,2021-08-27,2021-08-27,合同会社松田商店,,合同会社,鹿児島県,鹿児島市,中山町３－１,,46,201,8910105,,,,,,,2021-08-27,1,,,,,マツダショウテン,0
1328,5390001016571,新規,0,2021-08-27,2021-08-27,日本医薬品情報管理株式会社,,株式会社,山形県,酒田市,千石町１丁目４番１３－１０２号,,06,204,9980843,,,,,,,2021-08-27,1,,,,,ニホンイヤクヒンジョウホウカンリ,0
1355,6010001220664,新規,0,2021-08-27,2021-08-27,株式会社アクロエンジニア,,株式会社,東京都,中央区,日本橋本町４丁目８番１５号,,13,102,1030023,,,,,,,2021-08-27,1,,,,,アクロエンジニア,0
1356,6010001220680,新規,0,2021-08-27,2021-08-27,日本大東港商事株式会社,,株式会社,東京都,中央区,勝どき５丁目１２番４－１２０３号,,13,102,1040054,,,,,,,2021-08-27,1,,,,,ニホンダイトウコウショウジ,0
1357,6010001220689,新規,0,2021-08-27,2021-08-27,ＨＫＴＩ株式会社,,株式会社,東京都,中央区,日本橋茅場町３丁目７番１１号,,13,102,1030025,,,,,,,2021-08-27,1,,,,,エイチケーティーアイ,0
1358,6010001220722,新規,0,2021-08-27,2021-08-27,株式会社ＳＨＩＰ第２１８号,,株式会社,東京都,千代田区,丸の内２丁目７番２号,,13,101,1000005,,,,,,,2021-08-27,1,,,,,エスエイチアイピーダイニヒャクジュウハチゴウ,0
1368,6010401162300,新規,0,2021-08-27,2021-08-27,株式会社ＯＺ　Ｗｏｒｋｓ,,株式会社,東京都,港区,西麻布２丁目１７番６－１０１号,,13,103,1060031,,,,,,,2021-08-27,1,,,,,オズワークス,0
1369,6010401162317,新規,0,2021-08-27,2021-08-27,株式会社リボーンフーズ,,株式会社,東京都,港区,北青山１丁目４番５号ＶＯＲＴ青山一丁目９０２,,13,103,1070061,,,,,,,2021-08-27,1,,,,,リボーンフーズ,0
1374,6010403025942,新規,0,2021-08-27,2021-08-27,合同会社ＬｉｖｅＬ,,合同会社,東京都,港区,浜松町１丁目２７－１７三和ビル４Ｆ,,13,103,1050013,,,,,,,2021-08-27,1,,,,,ライブール,0
1375,6010403025983,新規,0,2021-08-27,2021-08-27,合同会社ＲＡＹＣＩＯＵＳ,,合同会社,東京都,港区,六本木４丁目３番１１号４０５号室,,13,103,1060032,,,,,,,2021-08-27,1,,,,,レイシャス,0
1376,6010403025991,新規,0,2021-08-27,2021-08-27,ＪＸブリッジ合同会社,,合同会社,東京都,港区,赤坂９丁目７番１号,,13,103,1070052,,,,,,,2021-08-27,1,,,,,ジェイエックスブリッジ,0
1377,6010405020149,新規,0,2021-08-27,2021-08-27,特定目的会社天王洲プロパティ,,その他の設立登記法人,東京都,港区,六本木６丁目１０番１号六本木ヒルズ森タワー,,13,103,1060032,,,,,,,2021-08-27,1,,,,,テンノウズプロパティ,0
1381,6010501047748,新規,0,2021-08-27,2021-08-27,株式会社焱義,00124041,株式会社,東京都,台東区,三筋１丁目３番１８号ＳＹビル３０５,,13,106,1110055,,,,,,,2021-08-27,1,,,,,エンギ,0
1382,6010503006371,新規,0,2021-08-27,2021-08-27,エコ・プランニング合同会社,,合同会社,東京都,台東区,東上野３丁目１３番５号深谷ビル４０２,,13,106,1100015,,,,,,,2021-08-27,1,,,,,エコプランニング,0
1396,6010901049303,新規,0,2021-08-27,2021-08-27,株式会社類都,,株式会社,東京都,世田谷区,三宿１丁目２１番２１号,,13,112,1540005,,,,,,,2021-08-27,1,,,,,ルイト,0
1401,6011003013271,新規,0,2021-08-27,2021-08-27,合同会社ＡＱＵＡ,,合同会社,東京都,渋谷区,東４丁目７番４－２０１号広尾ヴィラスクエア,,13,113,1500011,,,,,,,2021-08-27,1,,,,,アクア,0
1406,6011101096111,新規,0,2021-08-27,2021-08-27,青空プロパティ株式会社,,株式会社,東京都,新宿区,愛住町６番地,,13,104,1600005,,,,,,,2021-08-27,1,,,,,アオゾラプロパティ,0
1414,6011203003626,新規,0,2021-08-27,2021-08-27,合同会社シェア,,合同会社,東京都,中野区,野方６丁目３５－１８マロンハイム２０３,,13,114,1650027,,,,,,,2021-08-27,1,,,,,シェア,0
1426,6013303005808,新規,0,2021-08-27,2021-08-27,合同会社ブルーム,,合同会社,東京都,豊島区,池袋１丁目２番７号,,13,116,1700014,,,,,,,2021-08-27,1,,,,,ブルーム,0
1433,6020001142759,新規,0,2021-08-27,2021-08-27,株式会社日本連帯保証解除協会,,株式会社,神奈川県,横浜市港北区,大豆戸町５３５番地５の１０５,,14,109,2220032,,,,,,,2021-08-27,1,,,,,ニホンレンタイホショウカイジョキョウカイ,0
1439,6021001073770,新規,0,2021-08-27,2021-08-27,玄鳥重工業株式会社,,株式会社,神奈川県,相模原市中央区,東淵野辺３丁目２３番１８－３号,,14,152,2520203,,,,,,,2021-08-27,1,,,,,ツバメジュウコウギョウ,0
1444,6021003010838,新規,0,2021-08-27,2021-08-27,合同会社ＴＥＨ,,合同会社,神奈川県,相模原市南区,鵜野森２丁目２６番４号,,14,153,2520301,,,,,,,2021-08-27,1,,,,,ティーイーエイチ,0
1449,6030001144003,新規,0,2021-08-27,2021-08-27,株式会社ＨＯＰＥ,,株式会社,埼玉県,川口市,西川口４丁目１１－１５西川口ローヤルコーポ５０５号室,,11,203,3320021,,,,,,,2021-08-27,1,,,,,ホープ,0
1450,6030001144011,新規,0,2021-08-27,2021-08-27,さいたまクリーン株式会社,,株式会社,埼玉県,さいたま市大宮区,天沼町２丁目１１０番地２,,11,103,3300834,,,,,,,2021-08-27,1,,,,,,0
1461,6040001119937,新規,0,2021-08-27,2021-08-27,株式会社三栄クリエイション,,株式会社,千葉県,富津市,大堀１丁目１５番地６,,12,226,2930001,,,,,,,2021-08-27,1,,,,,サンエイクリエイション,0
1462,6040001119953,新規,0,2021-08-27,2021-08-27,株式会社木村食品,,株式会社,千葉県,市川市,二俣６７３番地,,12,203,2720001,,,,,,,2021-08-27,1,,,,,キムラショクヒン,0
1481,6070001038382,新規,0,2021-08-27,2021-08-27,株式会社しろくま不動産,,株式会社,群馬県,伊勢崎市,宮子町３１３８,,10,204,3720801,,,,,,,2021-08-27,1,,,,,シロクマフドウサン,0
1486,6080401025285,新規,0,2021-08-27,2021-08-27,株式会社Ｎ－ＡＲＫ,,株式会社,静岡県,浜松市中区,鍛冶町１００番地の１ザザシティ浜松中央館Ｂ１Ｆ,,22,131,4300933,,,,,,,2021-08-27,1,,,,,ナーク,0
1509,6120001239966,新規,0,2021-08-27,2021-08-27,Ｄｉａｍｏｎｄ　Ｊｅｗｅｌ株式会社,,株式会社,大阪府,大阪市中央区,南新町１丁目４番８号,,27,128,5400024,,,,,,,2021-08-27,1,,,,,ダイヤモンドジュエル,0
1517,6130001069990,新規,0,2021-08-27,2021-08-27,株式会社クレドール,,株式会社,京都府,京都市南区,吉祥院定成町２３番地１クレドール洛南ＬＥＧＥＮＤ（１Ｆ）,,26,107,6018322,,,,,,,2021-08-27,1,,,,,クレドール,0
1527,6140001122757,新規,0,2021-08-27,2021-08-27,漢和盛株式会社,,株式会社,兵庫県,神戸市中央区,海岸通２丁目２番３号,,28,110,6500024,,,,,,,2021-08-27,1,,,,,,0
1536,6180001147569,新規,0,2021-08-27,2021-08-27,ＭＯＮＯＬＩＳＩＸマーケティング株式会社,,株式会社,愛知県,名古屋市中区,錦２丁目９番２０号トラスト伏見駅前ビル１階,,23,106,4600003,,,,,,,2021-08-27,1,,,,,モノリシックスマーケティング,0
1547,6230001018954,新規,0,2021-08-27,2021-08-27,株式会社ケアメディカルおやべ,,株式会社,富山県,小矢部市,石動町１番３２号,,16,209,9320053,,,,,,,2021-08-27,1,,,,,ケアメディカルオヤベ,0
1555,6260005010962,新規,0,2021-08-27,2021-08-27,一般社団法人麦の方舟,,その他の設立登記法人,岡山県,岡山市北区,平野７２７番地５,,33,101,7010151,,,,,,,2021-08-27,1,,,,,ムギノハコブネ,0
1560,6290001094354,新規,0,2021-08-27,2021-08-27,株式会社Ｄ．Ｋ．Ｗｏｒｋｓ,,株式会社,福岡県,福岡市城南区,大字東油山１５４番地６０,,40,136,8140155,,,,,,,2021-08-27,1,,,,,ディーケイワークス,0
1561,6290001094370,新規,0,2021-08-27,2021-08-27,株式会社博多おでん研究所,,株式会社,福岡県,福岡市早良区,荒江２丁目２５番３０－７０２号,,40,137,8140021,,,,,,,2021-08-27,1,,,,,ハカタオデンケンキュウショ,0
1562,6290001094379,新規,0,2021-08-27,2021-08-27,株式会社サンテック電工,,株式会社,福岡県,福岡市早良区,田村５丁目２６番８－１号,,40,137,8140175,,,,,,,2021-08-27,1,,,,,サンテックデンコウ,0
1572,6320005009916,新規,0,2021-08-27,2021-08-27,ＮＰＯ法人チーム１．５おおいた,,その他の設立登記法人,大分県,大分市,大字横尾３９０３番地の５,,44,201,8700126,,,,,,,2021-08-27,1,,,,,チームイッテンゴオオイタ,0
1580,6340003003530,新規,0,2021-08-27,2021-08-27,令王ＪＡＰＡＮ合同会社,,合同会社,鹿児島県,鹿屋市,向江町２６－１プラシードピアッツァ鹿屋２０２号,,46,203,8930006,,,,,,,2021-08-27,1,,,,,レオジャパン,0
1593,6430003013082,新規,0,2021-08-27,2021-08-27,合同会社ＳＪＫＣ,,合同会社,北海道,札幌市東区,北二十二条東１６丁目１番１３号田房ビル２０７号,,01,103,0650022,,,,,,,2021-08-27,1,,,,,エスジェイケイシー,0
1601,6500001023613,新規,0,2021-08-27,2021-08-27,株式会社Ｍａｋｅ　Ｂｅｔｔｅｒ,,株式会社,愛媛県,松山市,湯渡町１０番２５号,,38,201,7900862,,,,,,,2021-08-27,1,,,,,メイクベター,0
1607,7010001220688,新規,0,2021-08-27,2021-08-27,八千代ケアホールディングス株式会社,,株式会社,東京都,千代田区,丸の内３丁目４番１号新国際ビル６階,,13,101,1000005,,,,,,,2021-08-27,1,,,,,ヤチヨケアホールディングス,0
1608,7010001220696,新規,0,2021-08-27,2021-08-27,株式会社オクプロ,,株式会社,東京都,中央区,銀座１丁目２２番１１号銀座大竹ビジデンス２階,,13,102,1040061,,,,,,,2021-08-27,1,,,,,オクプロ,0
1609,7010001220721,新規,0,2021-08-27,2021-08-27,株式会社ＳＨＩＰ第２１７号,,株式会社,東京都,千代田区,丸の内２丁目７番２号,,13,101,1000005,,,,,,,2021-08-27,1,,,,,エスエイチアイピーダイニヒャクジュウナナゴウ,0
1622,7010103001763,新規,0,2021-08-27,2021-08-27,合同会社リアルエステート福島,,合同会社,東京都,八王子市,子安町４丁目７番１－１７０６号,,13,201,1920904,,,,,,,2021-08-27,1,,,,,リアルエステートフクシマ,0
1624,7010401162183,新規,0,2021-08-27,2021-08-27,株式会社ＫＩＷＡＤＡＣＨＩ,,株式会社,東京都,港区,東新橋２丁目１０番１０－９０３号,,13,103,1050021,,,,,,,2021-08-27,1,,,,,キワダチ,0
1625,7010401162217,新規,0,2021-08-27,2021-08-27,株式会社シンシア,,株式会社,東京都,港区,南青山２丁目２番１５号ＷｉｎＡｏｙａｍａビルＵＣＦ６３５,,13,103,1070062,,,,,,,2021-08-27,1,,,,,シンシア,0
1626,7010401162316,新規,0,2021-08-27,2021-08-27,株式会社ＷｈｉｔｅＬｉｌｙ,,株式会社,東京都,港区,麻布十番２丁目８－８エル麻布矢島ビル４０１,,13,103,1060045,,,,,,,2021-08-27,1,,,,,,0
1627,7010401162340,新規,0,2021-08-27,2021-08-27,株式会社ＢＡＬＯ　ＥＮＴＥＲＰＲＩＳＥ,,株式会社,東京都,港区,北青山３丁目６番７,,13,103,1070061,,,,,,,2021-08-27,1,,,,,バーロエンタープライズ,0
1628,7010401162349,新規,0,2021-08-27,2021-08-27,ＧＣＪＩ３株式会社,,株式会社,東京都,港区,元赤坂１丁目１番８号株式会社赤坂国際会計内,,13,103,1070051,,,,,,,2021-08-27,1,,,,,ジーシージェイアイスリー,0
1633,7010501047747,新規,0,2021-08-27,2021-08-27,株式会社ＰＡＮＤＡ,,株式会社,東京都,台東区,浅草４丁目４３番９－２０１号,,13,106,1110032,,,,,,,2021-08-27,1,,,,,パンダ,0
1634,7010503006370,新規,0,2021-08-27,2021-08-27,合同会社ＡｏＮ,,合同会社,東京都,台東区,蔵前４丁目３５－５－９０１,,13,106,1110051,,,,,,,2021-08-27,1,,,,,アオン,0
1640,7010903006755,新規,0,2021-08-27,2021-08-27,合同会社Ｍ＆ＡＩ,,合同会社,東京都,世田谷区,用賀１丁目２０番２０号,,13,112,1580097,,,,,,,2021-08-27,1,,,,,エムアンドアイ,0
1646,7011001142377,新規,0,2021-08-27,2021-08-27,株式会社ニュースタ,,株式会社,東京都,渋谷区,渋谷２丁目１９－１５宮益坂ビルディング６０９,,13,113,1500002,,,,,,,2021-08-27,1,,,,,ニュースタ,0
1647,7011001142484,新規,0,2021-08-27,2021-08-27,株式会社ライテック,,株式会社,東京都,渋谷区,東３丁目２４番８号,,13,113,1500011,,,,,,,2021-08-27,1,,,,,ライテック,0
1650,7011003013238,新規,0,2021-08-27,2021-08-27,合同会社ＫｏｈＭｏｒｉ,,合同会社,東京都,渋谷区,神宮前６丁目２３番４号桑野ビル２階,,13,113,1500001,,,,,,,2021-08-27,1,,,,,コウモリ,0
1651,7011003013270,新規,0,2021-08-27,2021-08-27,合同会社ＭＡＭＯ　ＣＡＰＩＴＡＬ,,合同会社,東京都,渋谷区,笹塚１丁目６０番５号山幸ビル１２Ｆ,,13,113,1510073,,,,,,,2021-08-27,1,,,,,マモキャピタル,0
1653,7011101096102,新規,0,2021-08-27,2021-08-27,ＢＭＥＣ株式会社,,株式会社,東京都,新宿区,西早稲田１丁目２２番３号,,13,104,1690051,,,,,,,2021-08-27,1,,,,,ビーメック,0
1665,7011801039616,新規,0,2021-08-27,2021-08-27,株式会社ＯＭＯＲＯＢＡ,,株式会社,東京都,葛飾区,白鳥４丁目７番５－３０１号ライオンズガーデンお花茶屋,,13,122,1250063,,,,,,,2021-08-27,1,,,,,オモロバ,0
1675,7013301047925,新規,0,2021-08-27,2021-08-27,レートメッド工業株式会社,,株式会社,東京都,豊島区,北大塚３丁目６番４号,,13,116,1700004,,,,,,,2021-08-27,1,,,,,レートメッドコウギョウ,0
1681,7020001142758,新規,0,2021-08-27,2021-08-27,ＯｒａｎｇｅＣａＴ株式会社,,株式会社,神奈川県,横浜市西区,中央１丁目２番３－１号,,14,103,2200051,,,,,,,2021-08-27,1,,,,,オレンジキャット,0
1682,7020001142782,新規,0,2021-08-27,2021-08-27,株式会社今村施行,,株式会社,神奈川県,横浜市鶴見区,岸谷１丁目２４－１４、３Ｆ,,14,101,2300078,,,,,,,2021-08-27,1,,,,,イマムラセコウ,0
1683,7020001142790,新規,0,2021-08-27,2021-08-27,株式会社ａｈｅａｄ,,株式会社,神奈川県,横浜市港北区,大曽根１丁目６番１０号メゾン内藤１０１号室,,14,109,2220003,,,,,,,2021-08-27,1,,,,,アヘッド,0
1688,7021001073778,新規,0,2021-08-27,2021-08-27,株式会社タカラグループ,,株式会社,神奈川県,海老名市,上今泉３丁目７番３４号,,14,215,2430431,,,,,,,2021-08-27,1,,,,,タカラグループ,0
1694,7021003010837,新規,0,2021-08-27,2021-08-27,Ｍ＆Ｒ合同会社,,合同会社,神奈川県,足柄下郡箱根町,宮城野１４４８－２－４１,,14,382,2500401,,,,,,,2021-08-27,1,,,,,エムアンドアール,0
1704,7030001143929,新規,0,2021-08-27,2021-08-27,株式会社ＦＡＮＦＡＮ,,株式会社,埼玉県,草加市,西町５４５番地８,,11,221,3400035,,,,,,,2021-08-27,1,,,,,ファンファン,0
1705,7030001144010,新規,0,2021-08-27,2021-08-27,ローカル・コミュニケーション・ラボ株式会社,,株式会社,埼玉県,入間市,大字上藤沢３７５番地５９,,11,225,3580013,,,,,,,2021-08-27,1,,,,,ローカルコミュニケーションラボ,0
1713,7040003018376,新規,0,2021-08-27,2021-08-27,合同会社ｓｈｏ４,,合同会社,千葉県,習志野市,本大久保２丁目１２－１６伸和ハイツ２０３,,12,216,2750012,,,,,,,2021-08-27,1,,,,,ショーヨン,0
1715,7050001049760,新規,0,2021-08-27,2021-08-27,株式会社ＨＯＴＡＫＡ,,株式会社,茨城県,鉾田市,新鉾田２丁目１番地１４,,08,234,3111516,,,,,,,2021-08-27,1,,,,,ホタカ,0
1722,7070003004209,新規,0,2021-08-27,2021-08-27,こまつ野商店合同会社,,合同会社,群馬県,前橋市,天川原町１丁目１番１号,,10,201,3710803,,,,,,,2021-08-27,1,,,,,コマツノショウテン,0
1743,7120001239932,新規,0,2021-08-27,2021-08-27,安良株式会社,,株式会社,大阪府,大阪市東住吉区,湯里５丁目１６番地５号３Ｆ－Ｄ,,27,121,5460013,,,,,,,2021-08-27,1,,,,,ヤスラ,0
1744,7120001239965,新規,0,2021-08-27,2021-08-27,アインスタインエステート株式会社,,株式会社,大阪府,大阪市中央区,南新町１丁目４番８号,,27,128,5400024,,,,,,,2021-08-27,1,,,,,アインスタインエステート,0
1745,7120001239973,新規,0,2021-08-27,2021-08-27,株式会社Ｔ．ＭＡＫＥ,,株式会社,大阪府,大阪市西区,阿波座２丁目３番２３号,,27,106,5500011,,,,,,,2021-08-27,1,,,,,ティーメイク,0
1748,7120003020092,新規,0,2021-08-27,2021-08-27,グレース合同会社,,合同会社,大阪府,大阪市生野区,小路２丁目１９番２２号,,27,116,5440002,,,,,,,2021-08-27,1,,,,,グレース,0
1751,7120101064207,新規,0,2021-08-27,2021-08-27,株式会社Ｓ．Ｍ．Ｓ,,株式会社,大阪府,松原市,三宅中４丁目２０番１６号,,27,217,5800046,,,,,,,2021-08-27,1,,,,,エスエムエス,0
1767,7140001122806,新規,0,2021-08-27,2021-08-27,大運株式会社,,株式会社,兵庫県,たつの市,誉田町福田４９７番地１,,28,229,6794132,,,,,,,2021-08-27,1,,,,,ダイウン,0
1768,7140001122814,新規,0,2021-08-27,2021-08-27,株式会社雪輪,,株式会社,兵庫県,神戸市灘区,鹿ノ下通１丁目３番４号,,28,102,6570044,,,,,,,2021-08-27,1,,,,,ユキワ,0
1769,7140001122822,新規,0,2021-08-27,2021-08-27,株式会社プロセコン,,株式会社,兵庫県,芦屋市,茶屋之町５－８－３０１,,28,206,6590067,,,,,,,2021-08-27,1,,,,,プロセコン,0
1770,7140001122839,新規,0,2021-08-27,2021-08-27,オレンジラボ株式会社,,株式会社,兵庫県,神戸市兵庫区,松原通５丁目１番２１－１５０４号,,28,105,6520881,,,,,,,2021-08-27,1,,,,,オレンジラボ,0
1776,7150001024885,新規,0,2021-08-27,2021-08-27,株式会社森と人研究所,,株式会社,奈良県,奈良市,五条西１丁目３６番１２－２－２０３号,,29,201,6308034,,,,,,,2021-08-27,1,,,,,モリトヒトケンキュウショ,0
1784,7180001147584,新規,0,2021-08-27,2021-08-27,株式会社フルハウス,,株式会社,愛知県,名古屋市中区,栄１丁目１６番３１号アメニティ栄７０２号室,,23,106,4600008,,,,,,,2021-08-27,1,,,,,フルハウス,0
1785,7180001147592,新規,0,2021-08-27,2021-08-27,株式会社ＡＯＫＫ．,,株式会社,愛知県,名古屋市中区,丸の内３丁目１９番１４号財形久屋セントラルハイツ６０３号,,23,106,4600002,,,,,,,2021-08-27,1,,,,,アオク,0
1790,7200001039044,新規,0,2021-08-27,2021-08-27,内建株式会社,,株式会社,岐阜県,岐阜市,中屋東１９５番地１,,21,201,5012531,,,,,,,2021-08-27,1,,,,,ウチケン,0
1791,7200001039052,新規,0,2021-08-27,2021-08-27,株式会社スローフォルムス,,株式会社,岐阜県,大垣市,墨俣町墨俣５１３番地,,21,202,5030102,,,,,,,2021-08-27,1,,,,,スローフォルムス,0
1797,7220003003104,新規,0,2021-08-27,2021-08-27,合同会社狩女の会,,合同会社,石川県,鳳珠郡穴水町,字大町ヨの１８２番地来迎寺住宅８号,,17,461,9270026,,,,,,,2021-08-27,1,,,,,カリジョノカイ,0
1801,7240001058494,新規,0,2021-08-27,2021-08-27,神石高原グリーン電力株式会社,,株式会社,広島県,神石郡神石高原町,光信５８番地１,,34,545,7201411,,,,,,,2021-08-27,1,,,,,ジンセキコウゲングリーンデンリョク,0
1809,7260001035905,新規,0,2021-08-27,2021-08-27,ａｂｓｔｒａｃｔ　ｗｏｒｋ株式会社,,株式会社,岡山県,倉敷市,生坂１４６番地７,,33,202,7100002,,,,,,,2021-08-27,1,,,,,アブストラクトワーク,0
1815,7290001094378,新規,0,2021-08-27,2021-08-27,株式会社ＬｉｆＡｃｔ,,株式会社,福岡県,那珂川市,大字別所４５３－１８,,40,231,8111245,,,,,,,2021-08-27,1,,,,,リフアクト,0
1816,7290001094386,新規,0,2021-08-27,2021-08-27,ｓｆ．ｎｅｔ株式会社,,株式会社,福岡県,福岡市中央区,草香江１丁目２番４０号,,40,133,8100045,,,,,,,2021-08-27,1,,,,,サイドフィールドネット,0
1818,7290003011562,新規,0,2021-08-27,2021-08-27,うきうきアグリン合同会社,,合同会社,福岡県,久留米市,城島町浮島４１６番地２,,40,203,8300221,,,,,,,2021-08-27,1,,,,,ウキウキアグリン,0
1822,7320001018556,新規,0,2021-08-27,2021-08-27,株式会社Ｂｅｒｒｙ,,株式会社,大分県,中津市,大字今津６６番地６,,44,203,8790101,,,,,,,2021-08-27,1,,,,,ベリー,0
1828,7340005009327,新規,0,2021-08-27,2021-08-27,ＮＩＳＨＩＤＡ　ＯＦＦＩＣＥ社会保険労務士法人,,その他の設立登記法人,鹿児島県,鹿児島市,光山１丁目１１番２５号,,46,201,8910151,,,,,,,2021-08-27,1,,,,,ニシダオフィス,0
1835,7360003011398,新規,0,2021-08-27,2021-08-27,合同会社楽生,,合同会社,沖縄県,宮古島市,平良字下里１３５９番地２スカイマンション１階Ａ５,,47,214,9060013,,,,,,,2021-08-27,1,,,,,ライフ,0
1837,7370001047526,新規,0,2021-08-27,2021-08-27,株式会社ネイキッドフォース,,株式会社,宮城県,仙台市青葉区,柏木１丁目１番４５－２０１号,,04,101,9810933,,,,,,,2021-08-27,1,,,,,ネイキッドフォース,0
1851,7420003002374,新規,0,2021-08-27,2021-08-27,合同会社ＡｏｍｏｒｉＯｕｔｄｏｏｒＨｏｕｓｅ,,合同会社,青森県,青森市,東造道３丁目１１番地１３,,02,201,0300913,,,,,,,2021-08-27,1,,,,,アオモリアウトドアハウス,0
1856,7460303000735,新規,0,2021-08-27,2021-08-27,ウッドベル合同会社,,合同会社,北海道,北見市,端野町緋牛内１５２番地６,,01,208,0992231,,,,,,,2021-08-27,1,,,,,,0
1863,7500001023645,新規,0,2021-08-27,2021-08-27,Ｅｈｉｍｅ運輸倉庫株式会社,,株式会社,愛媛県,東温市,南方１４７４番地,,38,215,7910301,,,,,,,2021-08-27,1,,,,,エヒメウンユソウコ,0
1867,8010001220679,新規,0,2021-08-27,2021-08-27,一楓株式会社,,株式会社,東京都,中央区,勝どき５丁目１２番４－１２０３号,,13,102,1040054,,,,,,,2021-08-27,1,,,,,イフウ,0
1868,8010001220687,新規,0,2021-08-27,2021-08-27,株式会社ＤＥＳＭＡＳ,,株式会社,東京都,千代田区,神田佐久間町２丁目１８番地５アークビル２Ｆ,,13,101,1010025,,,,,,,2021-08-27,1,,,,,デスマス,0
1869,8010001220695,新規,0,2021-08-27,2021-08-27,英科医療用品株式会社,,株式会社,東京都,中央区,晴海２丁目２番４２－２５０１号,,13,102,1040053,,,,,,,2021-08-27,1,,,,,エイカイリョウヨウヒン,0
1870,8010001220720,新規,0,2021-08-27,2021-08-27,株式会社ＳＨＩＰ第２１６号,,株式会社,東京都,千代田区,丸の内２丁目７番２号,,13,101,1000005,,,,,,,2021-08-27,1,,,,,エスエイチアイピーダイニヒャクジュウロクゴウ,0
1875,8010005033862,新規,0,2021-08-27,2021-08-27,一般社団法人あんばいＬＢ２号,,その他の設立登記法人,東京都,千代田区,霞が関３丁目２番５号,,13,101,1000013,,,,,,,2021-08-27,1,,,,,アンバイエルビーニゴウ,0
1876,8010103001762,新規,0,2021-08-27,2021-08-27,ケイデンスコンサルティング合同会社,,合同会社,東京都,八王子市,下恩方町５７７番地４１,,13,201,1920154,,,,,,,2021-08-27,1,,,,,ケイデンスコンサルティング,0
1880,8010401162307,新規,0,2021-08-27,2021-08-27,アイキャップ・エナジー・ジャパン株式会社,,株式会社,東京都,港区,赤坂２丁目１７番７号,,13,103,1070052,,,,,,,2021-08-27,1,,,,,アイキャップエナジージャパン,0
1881,8010401162323,新規,0,2021-08-27,2021-08-27,株式会社Ｙｏｕｔｈｆｕｌｌ,,株式会社,東京都,港区,芝２丁目２９番１０号,,13,103,1050014,,,,,,,2021-08-27,1,,,,,ユースフル,0
1882,8010401162356,新規,0,2021-08-27,2021-08-27,Ｊａｃｑｕｅｓ　Ｍａｒｉｅ　Ｍａｇｅ　Ｊａｐａｎ株式会社,,株式会社,東京都,港区,元赤坂１丁目２番７号赤坂Ｋタワー１９階太陽グラントソントン税理士法人,,13,103,1070051,,,,,,,2021-08-27,1,,,,,ジャックマリーマージュジャパン,0
1886,8010405020155,新規,0,2021-08-27,2021-08-27,Ｋｕｔｃｈａｎ　Ｉｎｖｅｓｔｍｅｎｔ一般社団法人,,その他の設立登記法人,東京都,港区,六本木１丁目６番１号泉ガーデンタワーＫＰＭＧ税理士法人内,,13,103,1060032,,,,,,,2021-08-27,1,,,,,クッチャンインベストメント,0
1887,8010501047746,新規,0,2021-08-27,2021-08-27,株式会社メリンダ,,株式会社,東京都,台東区,上野５丁目３番１１号,,13,106,1100005,,,,,,,2021-08-27,1,,,,,メリンダ,0
1893,8010701041433,新規,0,2021-08-27,2021-08-27,ＨＰＳ株式会社,,株式会社,東京都,品川区,大崎１丁目２番３－２００５号,,13,109,1410032,,,,,,,2021-08-27,1,,,,,エイチピーエス,0
1906,8011001142450,新規,0,2021-08-27,2021-08-27,株式会社Ｌｕｘ,,株式会社,東京都,渋谷区,神宮前６丁目３２番５号,,13,113,1500001,,,,,,,2021-08-27,1,,,,,ルクス,0
1907,8011001142467,新規,0,2021-08-27,2021-08-27,株式会社Ｓｅｅｄｉｍ,,株式会社,東京都,目黒区,大岡山１丁目５番６号,,13,110,1520033,,,,,,,2021-08-27,1,,,,,シーディム,0
1909,8011003013253,新規,0,2021-08-27,2021-08-27,合同会社ＧＲＣサポート,,合同会社,東京都,渋谷区,神宮前６丁目２３番４号桑野ビル２階,,13,113,1500001,,,,,,,2021-08-27,1,,,,,ジーアールシーサポート,0
1910,8011003013261,新規,0,2021-08-27,2021-08-27,合同会社ロケットダック,,合同会社,東京都,渋谷区,幡ヶ谷３丁目３９番１２号渋谷ウェストビル１階,,13,113,1510072,,,,,,,2021-08-27,1,,,,,ロケットダック,0
1913,8011101096118,新規,0,2021-08-27,2021-08-27,株式会社ＣＹＲＵＳ,,株式会社,東京都,新宿区,西新宿４丁目２２番９号,,13,104,1600023,,,,,,,2021-08-27,1,,,,,サイラス,0
1929,8011803004749,新規,0,2021-08-27,2021-08-27,みんなのテクノロジー合同会社,,合同会社,東京都,足立区,竹の塚４丁目３番２５－３０５号,,13,121,1210813,,,,,,,2021-08-27,1,,,,,ミンナノテクノロジー,0
1932,8012301012673,新規,0,2021-08-27,2021-08-27,株式会社ルミエール,,株式会社,東京都,町田市,小山町１１７６番地,,13,209,1940212,,,,,,,2021-08-27,1,,,,,ルミエール,0
1944,8020001142773,新規,0,2021-08-27,2021-08-27,株式会社Ｍａｑｓｙｓ,,株式会社,神奈川県,川崎市高津区,坂戸３丁目２番１号,,14,134,2130012,,,,,,,2021-08-27,1,,,,,マクシス,0
1952,8021001073769,新規,0,2021-08-27,2021-08-27,株式会社ルミライズ,,株式会社,神奈川県,相模原市中央区,千代田３丁目３番２０号,,14,152,2520237,,,,,,,2021-08-27,1,,,,,ルミライズ,0
1960,8030001144018,新規,0,2021-08-27,2021-08-27,ＭＥＧＵＲＵ株式会社,,株式会社,埼玉県,鶴ヶ島市,大字上広谷７８７番地４８,,11,241,3502203,,,,,,,2021-08-27,1,,,,,メグル,0
1961,8030001144026,新規,0,2021-08-27,2021-08-27,株式会社ＫＡＮＤＡ,,株式会社,埼玉県,和光市,南１丁目２１番１０号,,11,229,3510104,,,,,,,2021-08-27,1,,,,,カンダ,0
1962,8030001144034,新規,0,2021-08-27,2021-08-27,株式会社くるまのレジアス,,株式会社,埼玉県,ふじみ野市,上福岡５丁目５番地１７,,11,245,3560004,,,,,,,2021-08-27,1,,,,,クルマノレジアス,0
1963,8030001144042,新規,0,2021-08-27,2021-08-27,株式会社Ｐｒｉｍｉｔ,,株式会社,埼玉県,さいたま市南区,太田窪４丁目８番１７号,,11,108,3360015,,,,,,,2021-08-27,1,,,,,プライミット,0
1968,8030003017824,新規,0,2021-08-27,2021-08-27,合同会社心陽,,合同会社,埼玉県,上尾市,宮本町７－１１,,11,219,3620036,,,,,,,2021-08-27,1,,,,,コハル,0
1969,8030003017840,新規,0,2021-08-27,2021-08-27,足あと合同会社,,合同会社,埼玉県,越谷市,東大沢１丁目４３番地５,,11,222,3430022,,,,,,,2021-08-27,1,,,,,アシアト,0
1978,8040001119893,新規,0,2021-08-27,2021-08-27,株式会社ファルコンオート,,株式会社,千葉県,野田市,東金野井１４０５番地の１２４,,12,208,2700236,,,,,,,2021-08-27,1,,,,,ファルコンオート,0
1979,8040001119910,新規,0,2021-08-27,2021-08-27,１００８株式会社,,株式会社,千葉県,長生郡睦沢町,河須ケ谷１３番地４,,12,422,2994411,,,,,,,2021-08-27,1,,,,,センノハ,0
1980,8040001119935,新規,0,2021-08-27,2021-08-27,株式会社ＢＲＩＬＬＥＲ,,株式会社,千葉県,松戸市,胡録台３６４番地の２アゼリア２０２号,,12,207,2710075,,,,,,,2021-08-27,1,,,,,ブリエ,0
1981,8040003018391,新規,0,2021-08-27,2021-08-27,合同会社Ｎｉｇｈｔｉｎｇａｌｅ,,合同会社,千葉県,木更津市,祇園１丁目２３番２号アメニティ祇園Ｃ棟１０１号,00124037,12,206,2920052,,,,,,,2021-08-27,1,,,,,ナイチンゲール,0
1983,8040005021328,新規,0,2021-08-27,2021-08-27,特定非営利活動法人千葉ふなボランティアネットワーク,,その他の設立登記法人,千葉県,船橋市,馬込西１丁目２番１０号寿ビル２０３号,,12,204,2730855,,,,,,,2021-08-27,1,,,,,チバフナボランティアネットワーク,0
1993,8050005000132,新規,0,2021-08-27,2021-08-27,茨城県漁業協同組合連合会,00123982,その他の設立登記法人,茨城県,水戸市,三の丸１丁目１番３３号,,08,201,3100011,,,,,,,2021-08-27,1,,,,,,0
1994,8050005012920,新規,0,2021-08-27,2021-08-27,特定非営利活動法人ワールド・ヒーロー・プロジェクト,,その他の設立登記法人,茨城県,つくば市,北条４０１８－６,,08,220,3004231,,,,,,,2021-08-27,1,,,,,ワールドヒーロープロジェクト,0
2008,8100003006217,新規,0,2021-08-27,2021-08-27,合同会社ケイアンドエム,,合同会社,長野県,飯田市,下殿岡２８８番地５,,20,205,3950154,,,,,,,2021-08-27,1,,,,,ケイアンドエム,0
2020,8120001239931,新規,0,2021-08-27,2021-08-27,禾崎株式会社,,株式会社,大阪府,大阪市生野区,巽北１丁目１番１号１Ｆ－Ｉ,,27,116,5440004,,,,,,,2021-08-27,1,,,,,カサキ,0
2021,8120001239980,新規,0,2021-08-27,2021-08-27,株式会社ワイエツバンタ,,株式会社,大阪府,大阪市中央区,久太郎町３丁目１－６伊藤佑ビル大阪本町８階,,27,128,5410056,,,,,,,2021-08-27,1,,,,,ワイエツバンタ,0
2023,8120005022466,新規,0,2021-08-27,2021-08-27,一般社団法人みらい共育ラボ,,その他の設立登記法人,大阪府,大阪市北区,天満橋１丁目６番１４－１３０５号,,27,127,5300042,,,,,,,2021-08-27,1,,,,,ミライキョウイクラボ,0
2029,8120103004317,新規,0,2021-08-27,2021-08-27,合同会社ＪＭＲ,,合同会社,大阪府,堺市北区,百舌鳥本町３丁４０６番地３,,27,146,5918036,,,,,,,2021-08-27,1,,,,,ジェイエムアール,0
2032,8120903003798,新規,0,2021-08-27,2021-08-27,合同会社スタートライン,,合同会社,大阪府,摂津市,東別府４丁目８－１９,,27,224,5660042,,,,,,,2021-08-27,1,,,,,スタートライン,0
2034,8122001035113,新規,0,2021-08-27,2021-08-27,Ｋ＆Ｋ人材サービス株式会社,,株式会社,大阪府,東大阪市,横小路町４丁目９番５６号,,27,227,5798063,,,,,,,2021-08-27,1,,,,,ケーアンドケージンザイサービス,0
2035,8122001035121,新規,0,2021-08-27,2021-08-27,株式会社Ｉｎｆｉｎｉｔｅ　Ｓｐａｃｅ,,株式会社,大阪府,東大阪市,寿町１丁目７－２７Ｈａｂｉｔａｔ寿,,27,227,5770837,,,,,,,2021-08-27,1,,,,,インフィナイトスペース,0
2047,8140001122821,新規,0,2021-08-27,2021-08-27,株式会社Ｆａｔｅ　ｃｈａｎｇｅ,,株式会社,兵庫県,西宮市,東町２丁目１－３６,,28,204,6620922,,,,,,,2021-08-27,1,,,,,フェイトチェンジ,0
2053,8160003002359,新規,0,2021-08-27,2021-08-27,合同会社Ｓａｉｄａｉ,,合同会社,滋賀県,守山市,荒見町２４５番地４,,25,207,5240016,,,,,,,2021-08-27,1,,,,,サイダイ,0
2059,8180001147567,新規,0,2021-08-27,2021-08-27,株式会社かんかんみらいサポート,,株式会社,愛知県,名古屋市昭和区,鶴羽町３丁目６番地,,23,107,4660011,,,,,,,2021-08-27,1,,,,,カンカンミライサポート,0
2060,8180001147575,新規,0,2021-08-27,2021-08-27,Ｒｉｖａｌｉｓｈ株式会社,,株式会社,愛知県,名古屋市昭和区,元宮町５丁目２３番地の１,,23,107,4660851,,,,,,,2021-08-27,1,,,,,リヴァリッシュ,0
2064,8200001039043,新規,0,2021-08-27,2021-08-27,株式会社マルキホールディングズ,,株式会社,岐阜県,美濃市,極楽寺３３１番地の１,,21,207,5013763,,,,,,,2021-08-27,1,,,,,マルキホールディングズ,0
2072,8240001058493,新規,0,2021-08-27,2021-08-27,株式会社エブレイズ,,株式会社,広島県,竹原市,中央３丁目１１番３１号,,34,203,7250026,,,,,,,2021-08-27,1,,,,,エブレイズ,0
2085,8290001094352,新規,0,2021-08-27,2021-08-27,株式会社Ｍｉｒａｉ　Ｎｅｔｔｓｕ,,株式会社,福岡県,福岡市博多区,博多駅南１丁目８番１３号,,40,132,8120016,,,,,,,2021-08-27,1,,,,,ミライネッツ,0
2086,8290001094385,新規,0,2021-08-27,2021-08-27,株式会社三結,,株式会社,福岡県,大野城市,大城２丁目４番１０号,,40,219,8160911,,,,,,,2021-08-27,1,,,,,サンキ,0
2087,8290001094393,新規,0,2021-08-27,2021-08-27,株式会社クレイン,,株式会社,福岡県,福岡市早良区,百道３丁目１０番３０号,,40,137,8140006,,,,,,,2021-08-27,1,,,,,クレイン,0
2091,8290003011553,新規,0,2021-08-27,2021-08-27,合同会社ＡＤ,,合同会社,福岡県,那珂川市,今光４丁目１４３番地,,40,231,8111211,,,,,,,2021-08-27,1,,,,,エーディー,0
2092,8290003011561,新規,0,2021-08-27,2021-08-27,合同会社ＳＳプランニング,,合同会社,福岡県,福岡市南区,若久３丁目８－４,,40,134,8150042,,,,,,,2021-08-27,1,,,,,エスエスプランニング,0
2093,8290005018332,新規,0,2021-08-27,2021-08-27,一般社団法人九州ウォータージェット工業会,,その他の設立登記法人,福岡県,福岡市博多区,金の隈３丁目１０番７号,,40,132,8120863,,,,,,,2021-08-27,1,,,,,キュウシュウウォータージェットコウギョウカイ,0
2095,8310001017434,新規,0,2021-08-27,2021-08-27,株式会社浪漫酒創造舎,,株式会社,長崎県,佐世保市,大潟町２９０－１１,,42,202,8580926,,,,,,,2021-08-27,1,,,,,ロマンシュソウゾウシャ,0
2097,8310005008537,新規,0,2021-08-27,2021-08-27,あおば行政書士法人,,その他の設立登記法人,長崎県,長崎市,恵美須町７番１２号オックス．ＳＴＡＹ　ＢＬＤ５Ｆ,,42,201,8500056,,,,,,,2021-08-27,1,,,,,アオバ,0
2103,8330001028941,新規,0,2021-08-27,2021-08-27,株式会社ｉスクール,,株式会社,熊本県,熊本市南区,近見８丁目１１番３０号ラ・ドルチェ２０１,,43,104,8614101,,,,,,,2021-08-27,1,,,,,アイスクール,0
2105,8340001024031,新規,0,2021-08-27,2021-08-27,ファイン株式会社,,株式会社,鹿児島県,曽於郡大崎町,假宿３４５９番地,,46,468,8997305,,,,,,,2021-08-27,1,,,,,ファイン,0
2108,8350001017273,新規,0,2021-08-27,2021-08-27,株式会社大山水産,,株式会社,宮崎県,串間市,大字市木８９８９番地１４,,45,207,8893311,,,,,,,2021-08-27,1,,,,,オオヤマスイサン,0
2110,8370001047467,新規,0,2021-08-27,2021-08-27,株式会社ジョブ・グー,,株式会社,宮城県,仙台市若林区,連坊２丁目１番１９号,,04,103,9840052,,,,,,,2021-08-27,1,,,,,ジョブグー,0
2119,8420001017563,新規,0,2021-08-27,2021-08-27,株式会社ワイズ計装,,株式会社,青森県,三沢市,中央町３丁目１１番９号,,02,207,0330001,,,,,,,2021-08-27,1,,,,,ワイズケイソウ,0
2120,8420003002373,新規,0,2021-08-27,2021-08-27,合同会社ｍａｋａｎａ,,合同会社,青森県,青森市,大字安田字近野２７０番地５,,02,201,0380021,,,,,,,2021-08-27,1,,,,,マカナ,0
2141,9010001220661,新規,0,2021-08-27,2021-08-27,株式会社レゲイム,,株式会社,東京都,中央区,銀座１丁目２２番１１号銀座大竹ビジデンス２階,,13,102,1040061,,,,,,,2021-08-27,1,,,,,,0
2142,9010001220694,新規,0,2021-08-27,2021-08-27,株式会社ＩＲＩＳ,,株式会社,東京都,中央区,晴海２丁目２番４２－３１０号,,13,102,1040053,,,,,,,2021-08-27,1,,,,,アイリス,0
2146,9010003035694,新規,0,2021-08-27,2021-08-27,合同会社Ｑｕａｒｔｅｒｈａｃｋ,,合同会社,東京都,千代田区,平河町２丁目７番４－１２０２号,,13,101,1020093,,,,,,,2021-08-27,1,,,,,クォーターハック,0
2148,9010401162306,新規,0,2021-08-27,2021-08-27,タレットプレボン・エナジー・ジャパン株式会社,,株式会社,東京都,港区,赤坂２丁目１７番７号,,13,103,1070052,,,,,,,2021-08-27,1,,,,,タレットプレボンエナジージャパン,0
2149,9010401162314,新規,0,2021-08-27,2021-08-27,株式会社ＥＹＬ,,株式会社,東京都,港区,浜松町２丁目２－１５浜松町ダイヤビル２階,,13,103,1050013,,,,,,,2021-08-27,1,,,,,イール,0
2150,9010401162322,新規,0,2021-08-27,2021-08-27,株式会社ワンセル,,株式会社,東京都,港区,白金３丁目１２番８号シルフィード白金４０５,,13,103,1080072,,,,,,,2021-08-27,1,,,,,ワンセル,0
2159,9010801032265,新規,0,2021-08-27,2021-08-27,楚々健美株式会社,,株式会社,東京都,大田区,西蒲田７丁目６０番１－２０２号,,13,111,1440051,,,,,,,2021-08-27,1,,,,,ソソケンビ,0
2160,9010903006761,新規,0,2021-08-27,2021-08-27,合同会社Ｏ,,合同会社,東京都,世田谷区,松原５丁目３０番３号コーポ松原３０２,,13,112,1560043,,,,,,,2021-08-27,1,,,,,オーダー,0
2165,9011001142508,新規,0,2021-08-27,2021-08-27,株式会社しょう点,,株式会社,東京都,渋谷区,松濤１丁目２８番２号,,13,113,1500046,,,,,,,2021-08-27,1,,,,,ショウテン,0
2167,9011005009182,新規,0,2021-08-27,2021-08-27,一般社団法人ＧＯ　ＶＯＴＥ　ＪＡＰＡＮ,,その他の設立登記法人,東京都,渋谷区,桜丘町２９番３５号ヴィラ桜ヶ丘７階,,13,113,1500031,,,,,,,2021-08-27,1,,,,,ゴーボートジャパン,0
2168,9011105009933,新規,0,2021-08-27,2021-08-27,一般社団法人奨学育英会,,その他の設立登記法人,東京都,新宿区,百人町１丁目２２番１７号,,13,104,1690073,,,,,,,2021-08-27,1,,,,,ショウガクイクエイカイ,0
2174,9011701024666,新規,0,2021-08-27,2021-08-27,株式会社ニチオインフォテックジャパン,,株式会社,東京都,江戸川区,北葛西２丁目８番３号,,13,123,1340081,,,,,,,2021-08-27,1,,,,,ニチオインフォテックジャパン,0
2176,9011801039630,新規,0,2021-08-27,2021-08-27,株式会社カトウ塾,,株式会社,東京都,葛飾区,東水元３丁目２２番１９号,,13,122,1250033,,,,,,,2021-08-27,1,,,,,カトウジュク,0
2192,9020001142756,新規,0,2021-08-27,2021-08-27,株式会社相原,,株式会社,神奈川県,横浜市泉区,新橋町２番地,,14,116,2450009,,,,,,,2021-08-27,1,,,,,アイハラ,0
2193,9020001142772,新規,0,2021-08-27,2021-08-27,株式会社ＰＬＯＷ,,株式会社,神奈川県,横浜市戸塚区,川上町９１番地１ＢＥＬＩＳＴＡタワー東戸塚２４０９号,,14,110,2440805,,,,,,,2021-08-27,1,,,,,プラウ,0
2197,9020005015181,新規,0,2021-08-27,2021-08-27,マイク一般社団法人,,その他の設立登記法人,神奈川県,横浜市青葉区,新石川３丁目１５番地１１,,14,117,2250003,,,,,,,2021-08-27,1,,,,,マイク,0
2200,9021001073768,新規,0,2021-08-27,2021-08-27,株式会社Ｄａｙｓ,,株式会社,神奈川県,足柄下郡箱根町,湯本６９３番地の１,,14,382,2500311,,,,,,,2021-08-27,1,,,,,デイズ,0
2203,9021003010835,新規,0,2021-08-27,2021-08-27,合同会社石川圧送,,合同会社,神奈川県,伊勢原市,上谷８２８番地の９,,14,214,2591127,,,,,,,2021-08-27,1,,,,,イシカワアッソウ,0
2209,9030001144000,新規,0,2021-08-27,2021-08-27,知拓株式会社,,株式会社,埼玉県,さいたま市南区,辻８丁目６番１１－５号,,11,108,3360026,,,,,,,2021-08-27,1,,,,,トモタク,0
2210,9030001144009,新規,0,2021-08-27,2021-08-27,アバン株式会社,,株式会社,埼玉県,新座市,あたご１丁目２番３３号,,11,230,3520021,,,,,,,2021-08-27,1,,,,,アバン,0
2211,9030001144017,新規,0,2021-08-27,2021-08-27,株式会社カナヤマファルマ,,株式会社,埼玉県,草加市,栄町３丁目４番２４－９０９号,,11,221,3400011,,,,,,,2021-08-27,1,,,,,カナヤマファルマ,0
2212,9030001144033,新規,0,2021-08-27,2021-08-27,和新株式会社,,株式会社,埼玉県,さいたま市北区,吉野町２丁目２８４番地３,,11,102,3310811,,,,,,,2021-08-27,1,,,,,ワシン,0
2213,9030001144041,新規,0,2021-08-27,2021-08-27,株式会社Ｋプラン,,株式会社,埼玉県,川口市,末広１丁目３番３１－３０３号,,11,203,3320006,,,,,,,2021-08-27,1,,,,,ケープラン,0
2220,9040001119950,新規,0,2021-08-27,2021-08-27,株式会社一陽ｗｉｔｈ賃貸,,株式会社,千葉県,八千代市,米本２１３７－１,,12,221,2760015,,,,,,,2021-08-27,1,,,,,イチヨウウィズチンタイ,0
2222,9040003018408,新規,0,2021-08-27,2021-08-27,合同会社ルーキーズ,,合同会社,千葉県,柏市,逆井５丁目４番１８号,,12,217,2770042,,,,,,,2021-08-27,1,,,,,ルーキーズ,0
2234,9090001017167,新規,0,2021-08-27,2021-08-27,株式会社利根川商事,,株式会社,山梨県,南アルプス市,鮎沢１３３７番地２,,19,208,4000403,,,,,,,2021-08-27,1,,,,,トネガワショウジ,0
2244,9120001239930,新規,0,2021-08-27,2021-08-27,株式会社ファーストバリュー,,株式会社,大阪府,大阪市都島区,高倉町１丁目１１番１９号,,27,102,5340011,,,,,,,2021-08-27,1,,,,,ファーストバリュー,0
2245,9120001239963,新規,0,2021-08-27,2021-08-27,株式会社ＧＲＩＴ,,株式会社,大阪府,大阪市平野区,喜連５丁目１番５０号,,27,126,5470027,,,,,,,2021-08-27,1,,,,,グリット,0
2246,9120001239971,新規,0,2021-08-27,2021-08-27,株式会社テイショウフーズ,,株式会社,大阪府,大阪市中央区,内平野町１丁目５番５号内平野町ビル四階,,27,128,5400037,,,,,,,2021-08-27,1,,,,,テイショウフーズ,0
2247,9120001239996,新規,0,2021-08-27,2021-08-27,株式会社ＮｉＲ,,株式会社,大阪府,枚方市,高塚町２５番１－７１２号,,27,210,5730035,,,,,,,2021-08-27,1,,,,,ニール,0
2259,9120101064205,新規,0,2021-08-27,2021-08-27,中遠国際株式会社,,株式会社,大阪府,泉大津市,条南町３－２６－１０４Ａ,,27,206,5950016,,,,,,,2021-08-27,1,,,,,チュウエンコクサイ,0
2260,9120103004316,新規,0,2021-08-27,2021-08-27,スターアライアンス合同会社,,合同会社,大阪府,堺市中区,八田西町３丁４番１２号,,27,142,5998265,,,,,,,2021-08-27,1,,,,,スターアライアンス,0
2262,9120903003797,新規,0,2021-08-27,2021-08-27,合同会社アシステッド,,合同会社,大阪府,吹田市,新芦屋下１６番３１号１０１,00124039,27,205,5650803,,,,,,,2021-08-27,1,,,,,アシステッド,0
2263,9122001035112,新規,0,2021-08-27,2021-08-27,株式会社Ａｎｄｒｅａｍ,,株式会社,大阪府,東大阪市,菱屋西６丁目７番１８号,,27,227,5770807,,,,,,,2021-08-27,1,,,,,アンドリーム,0
2269,9130003007442,新規,0,2021-08-27,2021-08-27,合同会社ＳＬ－Ｄ５４０,,合同会社,京都府,南丹市,園部町大河内垣内４２番地,,26,213,6220065,,,,,,,2021-08-27,1,,,,,エスエルディーゴヒャクヨンジュウ,0
2276,9140001122820,新規,0,2021-08-27,2021-08-27,株式会社Ｒｉｚｏｎｉａ,,株式会社,兵庫県,宝塚市,御殿山４丁目２４番２号,,28,214,6650841,,,,,,,2021-08-27,1,,,,,リゾニア,0
2277,9140001122829,新規,0,2021-08-27,2021-08-27,ＸＲ　ｐａｄｄｌｅ株式会社,,株式会社,兵庫県,宝塚市,伊孑志１丁目７番４０号,,28,214,6650033,,,,,,,2021-08-27,1,,,,,エックスアールパドル,0
2280,9150001024867,新規,0,2021-08-27,2021-08-27,株式会社エムアンドエム,,株式会社,奈良県,香芝市,穴虫２２３３－１,,29,210,6390252,,,,,,,2021-08-27,1,,,,,エムアンドエム,0
2281,9160001023579,新規,0,2021-08-27,2021-08-27,エーアイティー株式会社,,株式会社,滋賀県,東近江市,青野町４６００番地,,25,213,5270232,,,,,,,2021-08-27,1,,,,,エーアイティー,0
2285,9180001147566,新規,0,2021-08-27,2021-08-27,西川造園株式会社,,株式会社,愛知県,名古屋市南区,松城町１丁目１３番地の６,,23,112,4570045,,,,,,,2021-08-27,1,,,,,ニシカワゾウエン,0
2290,9200001039050,新規,0,2021-08-27,2021-08-27,ａｇａｒｕ株式会社,,株式会社,岐阜県,羽島郡岐南町,八剣２丁目２４番地,,21,302,5016012,,,,,,,2021-08-27,1,,,,,アガル,0
2295,9240001058492,新規,0,2021-08-27,2021-08-27,株式会社Ｓ・Ｃ・Ｗ,,株式会社,広島県,広島市中区,堀川町４番２０号,,34,101,7300033,,,,,,,2021-08-27,1,,,,,,0
2299,9250001019080,新規,0,2021-08-27,2021-08-27,株式会社クオーレ,,株式会社,山口県,周南市,大字呼坂１００６番地の９５,,35,215,7450612,,,,,,,2021-08-27,1,,,,,クオーレ,0
2302,9250003002885,新規,0,2021-08-27,2021-08-27,合同会社Ｌｅｇａｍｉ,,合同会社,山口県,下関市,大学町４丁目６番２４号,,35,201,7510831,,,,,,,2021-08-27,1,,,,,レガーミ,0
2311,9290001094368,新規,0,2021-08-27,2021-08-27,株式会社バング,,株式会社,福岡県,大野城市,瓦田４丁目６番１号,,40,219,8160932,,,,,,,2021-08-27,1,,,,,バング,0
2312,9290001094392,新規,0,2021-08-27,2021-08-27,Ｓｔａｍｐ　Ｓｉｇｎ株式会社,,株式会社,福岡県,福岡市中央区,今泉１丁目２番２０－１５０７号,,40,133,8100021,,,,,,,2021-08-27,1,,,,,スタンプサイン,0
2313,9290001094401,新規,0,2021-08-27,2021-08-27,株式会社ＩＭＰＲＯＶＥ,,株式会社,福岡県,福岡市博多区,東平尾２丁目９番２３号,,40,132,8120853,,,,,,,2021-08-27,1,,,,,インプルーブ,0
2315,9290003011560,新規,0,2021-08-27,2021-08-27,つなぐ合同会社,,合同会社,福岡県,春日市,下白水南７丁目７７番地１ｂｌｕｅｍｏｏｎＪ１０５号,,40,218,8160846,,,,,,,2021-08-27,1,,,,,ツナグ,0
2321,9320003003604,新規,0,2021-08-27,2021-08-27,合同会社アシストワーカー,,合同会社,大分県,宇佐市,大字下高家１２８６番地の５,,44,211,8790308,,,,,,,2021-08-27,1,,,,,アシストワーカー,0
2326,9330001028940,新規,0,2021-08-27,2021-08-27,日新金属株式会社,,株式会社,熊本県,宇城市,松橋町竹崎１２９９番地１１,,43,213,8690523,,,,,,,2021-08-27,1,,,,,ニッシンキンゾク,0
2333,9360001029275,新規,0,2021-08-27,2021-08-27,株式会社コーポレートサポート,,株式会社,沖縄県,那覇市,古波蔵１丁目３１番１２号,,47,201,9000024,,,,,,,2021-08-27,1,,,,,コーポレートサポート,0
2334,9360003011388,新規,0,2021-08-27,2021-08-27,合同会社ビックドリーム,,合同会社,沖縄県,那覇市,牧志３丁目１３－６２フェアスティック牧志２０３,,47,201,9000013,,,,,,,2021-08-27,1,,,,,ビッグドリーム,0
2350,9430001084825,新規,0,2021-08-27,2021-08-27,株式会社歌川ＥＣＯファクトリー,,株式会社,北海道,札幌市北区,南あいの里７丁目１０番１１号,,01,102,0028091,,,,,,,2021-08-27,1,,,,,ウタガワエコファクトリー,0
2358,9480003001716,新規,0,2021-08-27,2021-08-27,Ｈｉｒａｋｕ合同会社,,合同会社,徳島県,徳島市,安宅１丁目３－３０,,36,201,7700863,,,,,,,2021-08-27,1,,,,,,0
2362,9500001023643,新規,0,2021-08-27,2021-08-27,株式会社インディータイム,,株式会社,愛媛県,松山市,喜与町２丁目１番地３,,38,201,7900802,,,,,,,2021-08-27,1,,,,,インディータイム,0
