sequenceNumber,corporateNumber,process,correct,updateDate,changeDate,name,nameImageId,kind,prefectureName,cityName,streetNumber,addressImageId,prefectureCode,cityCode,postCode,addressOutside,addressOutsideImageId,closeDate,closeCause,successorCorporateNumber,changeCause,assignmentDate,latest,enName,enPrefectureName,enCityName,enAddressOutside,furigana,hihyoji
4,1010001238538,新規,0,2023-09-29,2023-09-29,株式会社Ｐｏｚｉｔｉｖ,,株式会社,東京都,中央区,築地４丁目３－１２－１００６,,13,102,1040045,,,,,,,2023-09-29,1,,,,,ポジティーブ,0
5,1010001238793,新規,0,2023-09-29,2023-09-29,ドラムス株式会社,,株式会社,東京都,千代田区,神田須田町２丁目１３番地１ＹＫＳ黒田ビル７階,,13,101,1010041,,,,,,,2023-09-29,1,,,,,ドラムス,0
6,1010001238819,新規,0,2023-09-29,2023-09-29,サムテック株式会社,,株式会社,東京都,千代田区,神田佐久間町２丁目１８番地１秋葉原ＳＴＮフロント１０階,,13,101,1010025,,,,,,,2023-09-29,1,,,,,サムテック,0
7,1010001238827,新規,0,2023-09-29,2023-09-29,株式会社ＢＬＡＣＫＳＷＡＮ‐ＴＹＯ,,株式会社,東京都,中央区,銀座８丁目４番２３号９階,,13,102,1040061,,,,,,,2023-09-29,1,,,,,ブラックスワントウキョウ,0
8,1010001238843,新規,0,2023-09-29,2023-09-29,株式会社Ｅｕｄｒａｎｉａ,,株式会社,東京都,千代田区,神田小川町３丁目２８番地５,,13,101,1010052,,,,,,,2023-09-29,1,,,,,ユードラニア,0
9,1010001238884,新規,0,2023-09-29,2023-09-29,ＭＳ　Ｖｅｎｔｕｒｅ　ａｄｖｅｎｔｕｒｅ株式会社,,株式会社,東京都,千代田区,神田小川町２丁目４－１４フィールドクレストビル８階,,13,101,1010052,,,,,,,2023-09-29,1,,,,,エムエスベンチャーアドベンチャー,0
11,1010003041790,新規,0,2023-09-29,2023-09-29,サイナム合同会社,,合同会社,東京都,文京区,千駄木４丁目１７番１号,,13,105,1130022,,,,,,,2023-09-29,1,,,,,サイナム,0
12,1010003041799,新規,0,2023-09-29,2023-09-29,Ｔｈｒｅｅｚｅｒｏ　Ｊａｐａｎ合同会社,,合同会社,東京都,千代田区,外神田４丁目８番５号クレイン末広３階,,13,101,1010021,,,,,,,2023-09-29,1,,,,,スリーゼロジャパン,0
23,1010401177360,新規,0,2023-09-29,2023-09-29,株式会社セブンヒルズ,,株式会社,東京都,港区,南青山６丁目１３番４号ソフトタウン南青山７０６,,13,103,1070062,,,,,,,2023-09-29,1,,,,,セブンヒルズ,0
24,1010401177451,新規,0,2023-09-29,2023-09-29,株式会社ＭＡＲＺ,,株式会社,東京都,港区,北青山１丁目３番１号アールキューブ青山３階,,13,103,1070061,,,,,,,2023-09-29,1,,,,,マーズ,0
28,1010403031029,新規,0,2023-09-29,2023-09-29,折口善次合同会社,,合同会社,東京都,港区,赤坂４丁目３番９号－３０１,,13,103,1070052,,,,,,,2023-09-29,1,,,,,オリグチゼンジ,0
29,1010403031037,新規,0,2023-09-29,2023-09-29,箱根芦ノ湖合同会社,,合同会社,東京都,港区,元赤坂１丁目１番８号株式会社赤坂国際会計内,,13,103,1070051,,,,,,,2023-09-29,1,,,,,ハコネアシノコ,0
34,1010701044913,新規,0,2023-09-29,2023-09-29,株式会社ちょも,,株式会社,東京都,品川区,大崎３丁目１番５号ルミネ五反田第２・２０２号室,,13,109,1410032,,,,,,,2023-09-29,1,,,,,チョモ,0
37,1010801034376,新規,0,2023-09-29,2023-09-29,株式会社ＴＬＯＰ,,株式会社,東京都,大田区,大森中２丁目１５番５号,,13,111,1430014,,,,,,,2023-09-29,1,,,,,トロップ,0
39,1010901053895,新規,0,2023-09-29,2023-09-29,株式会社ｇｕｎｔａｉ９,,株式会社,東京都,世田谷区,野沢２丁目２９－２０,,13,112,1540003,,,,,,,2023-09-29,1,,,,,グンタイナイン,0
44,1011003017624,新規,0,2023-09-29,2023-09-29,合同会社Ａｌｐｈａｌｐｈａ,,合同会社,東京都,渋谷区,富ヶ谷２丁目３４－３－Ｂ１,,13,113,1510063,,,,,,,2023-09-29,1,,,,,アルファルファ,0
56,1011503005780,新規,0,2023-09-29,2023-09-29,ＫＩＫＡＩ合同会社,,合同会社,東京都,荒川区,東日暮里６丁目２４番１３号ＦＸハイツ２０２,,13,118,1160014,,,,,,,2023-09-29,1,,,,,キカイ,0
57,1011601027149,新規,0,2023-09-29,2023-09-29,株式会社Ｌｉａｎ　Ａ．,,株式会社,東京都,練馬区,東大泉２丁目４２番８－１００７号,,13,120,1780063,,,,,,,2023-09-29,1,,,,,リアンエー,0
58,1012301013604,新規,0,2023-09-29,2023-09-29,日本大禹株式会社,,株式会社,東京都,町田市,中町１丁目３０番２号,,13,209,1940021,,,,,,,2023-09-29,1,,,,,ニホンタイウ,0
61,1012303001879,新規,0,2023-09-29,2023-09-29,合同会社ＳＣＢウェル,,合同会社,東京都,町田市,南つくし野２丁目２７番地２０,,13,209,1940002,,,,,,,2023-09-29,1,,,,,エスシービーウェル,0
64,1012403006200,新規,0,2023-09-29,2023-09-29,合同会社ヴァイツ,,合同会社,東京都,調布市,多摩川７丁目２３番地６３,,13,208,1820025,,,,,,,2023-09-29,1,,,,,ヴァイツ,0
82,1020001153686,新規,0,2023-09-29,2023-09-29,株式会社Ｄスタイル,,株式会社,神奈川県,横浜市鶴見区,鶴見中央４丁目２番９号４０２,,14,101,2300051,,,,,,,2023-09-29,1,,,,,ディスタイル,0
91,1021001080301,新規,0,2023-09-29,2023-09-29,株式会社ティー・エム鋼業,,株式会社,神奈川県,相模原市中央区,陽光台４丁目３６番１２号アコルデ陽光台２０４,,14,152,2520226,,,,,,,2023-09-29,1,,,,,ティーエム,0
102,1030001156085,新規,0,2023-09-29,2023-09-29,ＤＲＥＡＭＩＮ株式会社,,株式会社,埼玉県,草加市,氷川町２１４４番地１１アークプラザＩＩ２階,00132075,11,221,3400034,,,,,,,2023-09-29,1,,,,,ドリーミン,0
103,1030001156119,新規,0,2023-09-29,2023-09-29,風景不動産株式会社,,株式会社,埼玉県,加須市,久下４丁目１７番地１３,,11,210,3470063,,,,,,,2023-09-29,1,,,,,フウケイフドウサン,0
104,1030001156300,新規,0,2023-09-29,2023-09-29,株式会社＿洋国際,00132074,株式会社,埼玉県,川口市,並木１丁目１８番１３号ウッドハウスナミキ３０２号,,11,203,3320034,,,,,,,2023-09-29,1,,,,,キンヨウコクサイ,0
105,1030001156325,新規,0,2023-09-29,2023-09-29,株式会社ＤＤＹプラス,,株式会社,埼玉県,さいたま市見沼区,東大宮５丁目５３番地２９,,11,104,3370051,,,,,,,2023-09-29,1,,,,,ディーディーワイプラス,0
106,1030001156366,新規,0,2023-09-29,2023-09-29,ＲｅＷａｌｌ株式会社,,株式会社,埼玉県,狭山市,狭山７番１６号,,11,215,3501334,,,,,,,2023-09-29,1,,,,,リウォール,0
113,1030003022574,新規,0,2023-09-29,2023-09-29,Ｔ＆Ｔ合同会社,,合同会社,埼玉県,坂戸市,伊豆の山町２１番地２０第８雲南コーポ２０３号室,,11,239,3500275,,,,,,,2023-09-29,1,,,,,ティーアンドティー,0
118,1040001130279,新規,0,2023-09-29,2023-09-29,株式会社田中不動産,,株式会社,千葉県,東金市,広瀬６００－６４,,12,213,2830041,,,,,,,2023-09-29,1,,,,,タナカフドウサン,0
120,1040003023407,新規,0,2023-09-29,2023-09-29,合同会社ＢＯＮＫＩＣＨＩ,,合同会社,千葉県,木更津市,祇園２６６番地１－Ｃ棟,00132085,12,206,2920052,,,,,,,2023-09-29,1,,,,,ボンキチ,0
133,1070001040913,新規,0,2023-09-29,2023-09-29,株式会社フルラージュ,,株式会社,群馬県,前橋市,元総社町３丁目８番地６,,10,201,3710846,,,,,,,2023-09-29,1,,,,,フルラージュ,0
145,1120001258335,新規,0,2023-09-29,2023-09-29,豊潤株式会社,,株式会社,大阪府,大阪市中央区,高津１丁目３番１７号ファミールＫＯＵＺＴＯＷＥＲ１９０１号,,27,128,5420072,,,,,,,2023-09-29,1,,,,,ホウジュン,0
146,1120001258434,新規,0,2023-09-29,2023-09-29,株式会社ＡＶＡＮＣＥＲ,,株式会社,大阪府,大阪市中央区,高津３丁目２番３４号ホワイトハイツ１０３号,,27,128,5420072,,,,,,,2023-09-29,1,,,,,アバンセ,0
147,1120001258467,新規,0,2023-09-29,2023-09-29,ジェンミストジャパン株式会社,,株式会社,大阪府,大阪市浪速区,難波中２丁目８番６５号新光ビル３０１号室,,27,111,5560011,,,,,,,2023-09-29,1,,,,,ジェンミストジャパン,0
148,1120003024826,新規,0,2023-09-29,2023-09-29,合同会社水色,,合同会社,大阪府,枚方市,津田西町１丁目３番１０号,,27,210,5730126,,,,,,,2023-09-29,1,,,,,ミズイロ,0
149,1120003024966,新規,0,2023-09-29,2023-09-29,ＶＵ　ＧＩＡ合同会社,,合同会社,大阪府,大阪市平野区,喜連５丁目１番３５号,,27,126,5470027,,,,,,,2023-09-29,1,,,,,ブザァ,0
150,1120003024974,新規,0,2023-09-29,2023-09-29,合同会社ＹＫＨ　ｃｒｅａｒｅ,,合同会社,大阪府,大阪市北区,梅田１丁目１番３号大阪駅前第３ビル２９階１－１－１号室,,27,127,5300001,,,,,,,2023-09-29,1,,,,,ワイケーエイチクレアーレ,0
151,1120101068287,新規,0,2023-09-29,2023-09-29,株式会社リシェル,,株式会社,大阪府,堺市中区,福田８６２番地,,27,142,5998241,,,,,,,2023-09-29,1,,,,,リシェル,0
159,1140001131770,新規,0,2023-09-29,2023-09-29,株式会社阪神住設,,株式会社,兵庫県,尼崎市,武庫之荘本町２丁目２１番１－１０３号,,28,202,6610031,,,,,,,2023-09-29,1,,,,,ハンシンジュウセツ,0
160,1140001131787,新規,0,2023-09-29,2023-09-29,昊映工業株式会社,,株式会社,兵庫県,三木市,別所町下石野１１８４番地,,28,215,6730453,,,,,,,2023-09-29,1,,,,,コウエイコウギョウ,0
165,1170003001928,新規,0,2023-09-29,2023-09-29,青木一永合同会社,,合同会社,和歌山県,和歌山市,西高松１丁目７番１５号レピア高松１２１４,,30,201,6410051,,,,,,,2023-09-29,1,,,,,アオキカズナガ,0
174,1180003025802,新規,0,2023-09-29,2023-09-29,前進鉄筋合同会社,,合同会社,愛知県,名古屋市千種区,月ケ丘３丁目５番１６号,,23,101,4640043,,,,,,,2023-09-29,1,,,,,ゼンシンテッキン,0
188,1230003002085,新規,0,2023-09-29,2023-09-29,合同会社Ｃｕｌｔｕｒｅ‐Ｂａｓｅｄ,,合同会社,富山県,富山市,太郎丸西町１丁目１５番地３ダイアパレス城南公園６０２号,,16,201,9398271,,,,,,,2023-09-29,1,,,,,カルチャーベース,0
193,1240003006333,新規,0,2023-09-29,2023-09-29,ＲｅｃｏｒｄＬｉｎｋ合同会社,,合同会社,広島県,尾道市,正徳町１２―２２,,34,205,7220004,,,,,,,2023-09-29,1,,,,,レコードリンク,0
197,1260001038343,新規,0,2023-09-29,2023-09-29,株式会社岡山トランポリンＦＲＥＥＳＴＹＬＥ,,株式会社,岡山県,岡山市北区,栢谷１１６５番地,,33,101,7011144,,,,,,,2023-09-29,1,,,,,オカヤマトランポリンフリースタイル,0
211,1330001031299,新規,0,2023-09-29,2023-09-29,株式会社奈須壱,,株式会社,熊本県,熊本市東区,下南部１丁目３番１２号,,43,102,8618019,,,,,,,2023-09-29,1,,,,,ナスイチ,0
213,1330005010704,新規,0,2023-09-29,2023-09-29,イーズ社会保険労務士法人,,その他の設立登記法人,熊本県,上益城郡益城町,大字惣領９１０番地１,,43,443,8612233,,,,,,,2023-09-29,1,,,,,イーズ,0
231,1390001017383,新規,0,2023-09-29,2023-09-29,株式会社トーシン,,株式会社,山形県,山形市,飯田５丁目７番２５号,,06,201,9902332,,,,,,,2023-09-29,1,,,,,トーシン,0
238,1460103001559,新規,0,2023-09-29,2023-09-29,合同会社グリット,,合同会社,北海道,上川郡清水町,南一条７丁目２番地１,,01,636,0890137,,,,,,,2023-09-29,1,,,,,グリット,0
239,1470001019826,新規,0,2023-09-29,2023-09-29,株式会社高原工務店,,株式会社,香川県,観音寺市,古川町１６３番地,,37,205,7680023,,,,,,,2023-09-29,1,,,,,タカハラコウムテン,0
242,1700150120848,新規,0,2023-09-29,2023-09-29,ＱｌＮＧＤＡＯＳＡＮＳＨＩＬＩＵＤＵＦＡＺＨＩＰｌＮＧ　Ｃｏ．，Ｌｔｄ．,,外国会社等,,,,,,,,Ｘｉｎｊｉａｎｇ　Ｒｏａｄ，Ｂｅｉｇｕａｎ　Ｉｎｄｕｓｔｒｉａｌ　Ｐａｒｋ，Ｊｉａｏｂｅｉ　Ｓｔｒｅｅｔ　Ｏｆｆｉｃｅ，Ｊｉａｏｚｈｏｕ　Ｃｉｔｙ，Ｑｉｎｇｄａｏ　Ｃｉｔｙ，Ｓｈａｎｇｄｏｎｇ　Ｐｒｏｖｉｎｃｅ，Ｃｈｉｎａ,,,,,,2023-09-29,1,,,,,チンダオサンシーリュードゥーファージーピンヨウシエンゴンスー,0
247,2010003041773,新規,0,2023-09-29,2023-09-29,合同会社プログレス,,合同会社,東京都,文京区,本郷４丁目３７番１５号吉田ビル５階,,13,105,1130033,,,,,,,2023-09-29,1,,,,,プログレス,0
248,2010003041781,新規,0,2023-09-29,2023-09-29,ＦＩＧＳ合同会社,,合同会社,東京都,中央区,日本橋室町４丁目３番９号,,13,102,1030022,,,,,,,2023-09-29,1,,,,,フィグズ,0
249,2010003041798,新規,0,2023-09-29,2023-09-29,サンライズ・ターンアラウンド・パートナーズ合同会社,,合同会社,東京都,千代田区,永田町２丁目１１番１号山王パークタワー,,13,101,1000014,,,,,,,2023-09-29,1,,,,,サンライズターンアラウンドパートナーズ,0
254,2010101015836,新規,0,2023-09-29,2023-09-29,株式会社くらしの研究所,,株式会社,東京都,八王子市,並木町５番１－８０６,,13,201,1930831,,,,,,,2023-09-29,1,,,,,クラシノケンキュウジョ,0
264,2010401177426,新規,0,2023-09-29,2023-09-29,株式会社ｂｕｚｚ　ｓｕｐｐｏｒｔ,,株式会社,東京都,港区,赤坂２丁目１３番２０号ツムギビル３Ｆ,,13,103,1070052,,,,,,,2023-09-29,1,,,,,バズサポート,0
266,2010403031003,新規,0,2023-09-29,2023-09-29,ＡＩ参謀合同会社,,合同会社,東京都,港区,六本木４丁目８番７号六本木嶋田ビル５階,,13,103,1060032,,,,,,,2023-09-29,1,,,,,エーアイサンボウ,0
276,2010701044904,新規,0,2023-09-29,2023-09-29,森源通商株式会社,,株式会社,東京都,品川区,南大井３丁目２７番１４号ＴＲＵＴＨ・ＢＬＤＧ．２Ｆ,,13,109,1400013,,,,,,,2023-09-29,1,,,,,モリゲンツウショウ,0
277,2010703006885,新規,0,2023-09-29,2023-09-29,合同会社スモールウエスト,,合同会社,東京都,品川区,上大崎２丁目２４番１号６０７号,,13,109,1410021,,,,,,,2023-09-29,1,,,,,スモールウエスト,0
282,2010801034375,新規,0,2023-09-29,2023-09-29,株式会社Ｑ‐ＦＩＴ,,株式会社,東京都,大田区,本羽田１丁目１９－１１,,13,111,1440044,,,,,,,2023-09-29,1,,,,,キューフィット,0
284,2010805003062,新規,0,2023-09-29,2023-09-29,一般社団法人Ｄ２ＰＡ,,その他の設立登記法人,東京都,大田区,田園調布３丁目３２－２,,13,111,1450071,,,,,,,2023-09-29,1,,,,,ディーツーピーエー,0
288,2010901053903,新規,0,2023-09-29,2023-09-29,株式会社クローバー東京,,株式会社,東京都,世田谷区,大蔵１丁目１４番１９号,,13,112,1570074,,,,,,,2023-09-29,1,,,,,クローバートウキョウ,0
293,2011101104546,新規,0,2023-09-29,2023-09-29,シアーミュージックホールディングス株式会社,,株式会社,東京都,新宿区,北新宿１丁目７番２０号アルテビル北新宿,,13,104,1690074,,,,,,,2023-09-29,1,,,,,シアーミュージックホールディングス,0
294,2011101104554,新規,0,2023-09-29,2023-09-29,日本一崎株式会社,,株式会社,東京都,新宿区,百人町２丁目１番４５号赤煉瓦２４５,,13,104,1690073,,,,,,,2023-09-29,1,,,,,ニホンイチサキ,0
296,2011203004165,新規,0,2023-09-29,2023-09-29,合同会社リタクト,,合同会社,東京都,中野区,中野１丁目３－２ウェルスクエアイズム中野坂上４０２,,13,114,1640001,,,,,,,2023-09-29,1,,,,,リタクト,0
297,2011203004181,新規,0,2023-09-29,2023-09-29,合同会社りばーさいど,,合同会社,東京都,中野区,東中野３丁目２番９号戸田ビル３Ｆ,,13,114,1640003,,,,,,,2023-09-29,1,,,,,リバーサイド,0
298,2011501029830,新規,0,2023-09-29,2023-09-29,株式会社ファブリックリバー,,株式会社,東京都,北区,西ケ原２丁目２９番１号,,13,117,1140024,,,,,,,2023-09-29,1,,,,,ファブリックリバー,0
301,2011703003609,新規,0,2023-09-29,2023-09-29,ＳＫＩＮ　ＢＹ　ＳＷＥ合同会社,,合同会社,東京都,江戸川区,東葛西９丁目６番８－２０５号,,13,123,1340084,,,,,,,2023-09-29,1,,,,,スキンバイスェイ,0
302,2011705001800,新規,0,2023-09-29,2023-09-29,一般社団法人ＣｒａｎｅＳｈｉｐ,,その他の設立登記法人,東京都,江戸川区,春江町５丁目２１番地１５,,13,123,1340003,,,,,,,2023-09-29,1,,,,,クレーンシップ,0
308,2012401041041,新規,0,2023-09-29,2023-09-29,株式会社Ｃｏｎｎｅｃｔ　Ｔｅｃｈ,,株式会社,東京都,調布市,多摩川３丁目６７番地１０,,13,208,1820025,,,,,,,2023-09-29,1,,,,,コネクトテック,0
310,2012403006199,新規,0,2023-09-29,2023-09-29,合同会社サイラ,,合同会社,東京都,調布市,調布ケ丘３丁目４７番地１６グランヒルズ調布ケ丘ブローディア１０７,,13,208,1820021,,,,,,,2023-09-29,1,,,,,サイラ,0
311,2012405004903,新規,0,2023-09-29,2023-09-29,一般社団法人こどもリビング,,その他の設立登記法人,東京都,多摩市,一ノ宮２丁目４５番地の３,,13,224,2060002,,,,,,,2023-09-29,1,,,,,コドモリビング,0
312,2012701017848,新規,0,2023-09-29,2023-09-29,株式会社ちんねん,,株式会社,東京都,東久留米市,柳窪４丁目７番３９号,,13,222,2030044,,,,,,,2023-09-29,1,,,,,チンネン,0
314,2012803003192,新規,0,2023-09-29,2023-09-29,ＳＡＮＧＡ　ＪＡＰＡＮ合同会社,,合同会社,東京都,日野市,百草９７１番地１６０,,13,212,1910033,,,,,,,2023-09-29,1,,,,,サンガジャパン,0
319,2013301051411,新規,0,2023-09-29,2023-09-29,株式会社ＴＳＵＭＵＧＨＥＥ,,株式会社,東京都,豊島区,南池袋１丁目１６－１５ダイヤゲート池袋５階,,13,116,1710022,,,,,,,2023-09-29,1,,,,,ツムギー,0
337,2021001080300,新規,0,2023-09-29,2023-09-29,株式会社エアーズビルド,,株式会社,神奈川県,茅ヶ崎市,香川７丁目８番１８号ハイツ東６－２０２,,14,207,2530082,,,,,,,2023-09-29,1,,,,,エアーズビルド,0
346,2030001156324,新規,0,2023-09-29,2023-09-29,株式会社Ｍトレーディング,,株式会社,埼玉県,川口市,大字赤山１２２１番地の３,,11,203,3330825,,,,,,,2023-09-29,1,,,,,エムトレーディング,0
350,2030003022540,新規,0,2023-09-29,2023-09-29,Ｉ．ｗａｖｅ合同会社,,合同会社,埼玉県,蕨市,塚越５丁目２２番１２号クレイドルＩＩＩ－２０１号,00132076,11,223,3350002,,,,,,,2023-09-29,1,,,,,アイウェーブ,0
351,2030003022557,新規,0,2023-09-29,2023-09-29,合同会社ＭＯＤＡ,,合同会社,埼玉県,朝霞市,根岸台６丁目５－２４－７０７,,11,227,3510005,,,,,,,2023-09-29,1,,,,,モダ,0
353,2030005021400,新規,0,2023-09-29,2023-09-29,一般社団法人ＩＣＥＥ協会,,その他の設立登記法人,埼玉県,川口市,南鳩ヶ谷５丁目７番５号,,11,203,3340013,,,,,,,2023-09-29,1,,,,,アイシーイーイーキョウカイ,0
360,2040001130278,新規,0,2023-09-29,2023-09-29,株式会社中嶋商会,,株式会社,千葉県,千葉市中央区,市場町６－８クリスタルスクエアＩＮＯＨＡＮＡ０６１,,12,101,2600855,,,,,,,2023-09-29,1,,,,,ナカジマショウカイ,0
363,2040003023430,新規,0,2023-09-29,2023-09-29,こだま知財管理合同会社,,合同会社,千葉県,千葉市中央区,中央３丁目１３番７号コスモ千葉中央ビル４０１号室,,12,101,2600013,,,,,,,2023-09-29,1,,,,,コダマチザイカンリ,0
369,2050001053544,新規,0,2023-09-29,2023-09-29,株式会社タチハラ住建,,株式会社,茨城県,水戸市,東野町２９３番地３８,,08,201,3100846,,,,,,,2023-09-29,1,,,,,タチハラジュウケン,0
385,2090003002396,新規,0,2023-09-29,2023-09-29,合同会社Ｈａｐｐｉｎｅｓｓ　Ｂｅｌｌ,,合同会社,山梨県,甲府市,池田３丁目４－１１グランシャリオ２０２,,19,201,4000062,,,,,,,2023-09-29,1,,,,,ハピネスベル,0
388,2100001036816,新規,0,2023-09-29,2023-09-29,株式会社まるよし,,株式会社,長野県,下伊那郡高森町,下市田３２６番１,,20,403,3993103,,,,,,,2023-09-29,1,,,,,マルヨシ,0
401,2120001258417,新規,0,2023-09-29,2023-09-29,株式会社エピバース,,株式会社,大阪府,大阪市西区,北堀江１丁目２番１７号四ツ橋川崎ビル８Ｆ,,27,106,5500014,,,,,,,2023-09-29,1,,,,,エピバース,0
402,2120001258433,新規,0,2023-09-29,2023-09-29,株式会社ＮＹＫ,,株式会社,大阪府,大阪市生野区,小路２丁目１５番２７－１０２号,,27,116,5440002,,,,,,,2023-09-29,1,,,,,エヌワイケー,0
403,2120001258441,新規,0,2023-09-29,2023-09-29,株式会社ＭＳＳＨ,,株式会社,大阪府,大阪市天王寺区,真法院町１４番５号カーサ・ディエス７Ｃ号,,27,109,5430041,,,,,,,2023-09-29,1,,,,,エムエスエスエイチ,0
410,2120003024973,新規,0,2023-09-29,2023-09-29,Ｐａｃｉｆｉｃ　Ｌｉｎｋ合同会社,,合同会社,大阪府,大阪市住之江区,北島２丁目５番２６号コンフォート壱番館１０１,,27,125,5590014,,,,,,,2023-09-29,1,,,,,パシフィックリンク,0
417,2120101068286,新規,0,2023-09-29,2023-09-29,株式会社シライ,,株式会社,大阪府,泉大津市,板原町４丁目９番２８号,,27,206,5950033,,,,,,,2023-09-29,1,,,,,シライ,0
419,2120901048108,新規,0,2023-09-29,2023-09-29,株式会社メルクファーマシー,,株式会社,大阪府,箕面市,森町南１丁目１５番７号,,27,220,5630258,,,,,,,2023-09-29,1,,,,,メルクファーマシー,0
429,2140001131786,新規,0,2023-09-29,2023-09-29,株式会社キョウイン,,株式会社,兵庫県,神戸市東灘区,向洋町中１丁目１８－１０１,,28,101,6580032,,,,,,,2023-09-29,1,,,,,キョウイン,0
441,2180001158223,新規,0,2023-09-29,2023-09-29,株式会社紬,,株式会社,愛知県,江南市,古知野町宮裏１７５番地,,23,217,4838279,,,,,,,2023-09-29,1,,,,,ツムギ,0
445,2180003025801,新規,0,2023-09-29,2023-09-29,合同会社ＳｍｉｌｅＲｅｌａｔｉｏｎ,,合同会社,愛知県,名古屋市名東区,若葉台５０５番地の２,,23,115,4650015,,,,,,,2023-09-29,1,,,,,スマイルリレーション,0
454,2200003006096,新規,0,2023-09-29,2023-09-29,合同会社１０メディカル,,合同会社,岐阜県,安八郡安八町,北今ケ渕６５０番地の１,,21,383,5030113,,,,,,,2023-09-29,1,,,,,テンメディカル,0
455,2210001019479,新規,0,2023-09-29,2023-09-29,株式会社ＲＩＰＥＮ,,株式会社,福井県,福井市,順化１丁目１５番２９号,,18,201,9100023,,,,,,,2023-09-29,1,,,,,リペン,0
456,2210005010112,新規,0,2023-09-29,2023-09-29,税理士法人ウィズ総合事務所,,その他の設立登記法人,福井県,大野市,美川町５番３号,,18,205,9120036,,,,,,,2023-09-29,1,,,,,ウィズソウゴウジムショ,0
466,2260001038342,新規,0,2023-09-29,2023-09-29,株式会社山陽フォレスト,,株式会社,岡山県,倉敷市,山地１９７５番地,,33,202,7010104,,,,,,,2023-09-29,1,,,,,サンヨウフォレスト,0
475,2290001103176,新規,0,2023-09-29,2023-09-29,株式会社Ｇｒａｃｈｅｒ,,株式会社,福岡県,福岡市中央区,大名２丁目２番２号４０１号室,,40,133,8100041,,,,,,,2023-09-29,1,,,,,グレーシェル,0
476,2290001103184,新規,0,2023-09-29,2023-09-29,ケイケイ株式会社,,株式会社,福岡県,福岡市南区,中尾１丁目３１番１０号,,40,134,8111364,,,,,,,2023-09-29,1,,,,,ケイケイ,0
478,2290003014413,新規,0,2023-09-29,2023-09-29,合同会社ＨＬＳ,,合同会社,福岡県,福岡市東区,香椎照葉７丁目８－３,,40,131,8130017,,,,,,,2023-09-29,1,,,,,エイチエルエス,0
486,2360003013333,新規,0,2023-09-29,2023-09-29,合同会社イーストマリンサポート,,合同会社,沖縄県,うるま市,勝連平安名１１１８番地１,,47,213,9042312,,,,,,,2023-09-29,1,,,,,イーストマリンサポート,0
508,2500001025217,新規,0,2023-09-29,2023-09-29,トマト商会株式会社,,株式会社,愛媛県,今治市,古国分２丁目３番１０号,,38,202,7991521,,,,,,,2023-09-29,1,,,,,トマトショウカイ,0
510,2700150120847,新規,0,2023-09-29,2023-09-29,ＨＵＮＡＮＱＩＮＧＨＯＮＧＴＲＡＤＩＮＧ　Ｃｏ．，Ｌｔｄ．,,外国会社等,,,,,,,,Ｒｏｏｍ　１０４，Ｂｕｉｌｄｉｎｇ１，Ｊｉｓｈｕｎ　Ｍｅｉｙｕａｎ，１１９　Ｘｉａｎｊｉａｈｕ　Ｗｅｓｔ　Ｒｏａｄ，Ｘｉａｎｊｉａｈｕ　Ｓｔｒｅｅｔ，Ｙｕｅｌｕ　Ｄｉｓｔｒｉｃｔ，Ｃｈａｎｇｓｈａ　Ｃｉｔｙ，Ｈｕｎａｎ　Ｐｒｏｖｉｎｃｅ，Ｃｈｉｎａ．,,,,,,2023-09-29,1,,,,,フーナンチエンホンマオイーヨウシエンゴンスー,0
514,3010001238791,新規,0,2023-09-29,2023-09-29,株式会社Ｓｕｒｆ　ａｎｄ　Ｔｕｒｆ,,株式会社,東京都,文京区,本駒込６丁目１１番２２号,,13,105,1130021,,,,,,,2023-09-29,1,,,,,サーフアンドターフ,0
515,3010001238817,新規,0,2023-09-29,2023-09-29,株式会社Ｔ＆Ｍパートナーズ,,株式会社,東京都,中央区,日本橋蛎殻町１丁目１３番１号ユニゾ蛎殻町北島ビルＢ１Ｆ－Ａ,,13,102,1030014,,,,,,,2023-09-29,1,,,,,ティーアンドエム,0
516,3010001238825,新規,0,2023-09-29,2023-09-29,株式会社Ｆｅｅｌｉｎｇ,,株式会社,東京都,中央区,日本橋蛎殻町１丁目３４番８－３０５号,,13,102,1030014,,,,,,,2023-09-29,1,,,,,フィーリング,0
517,3010003041772,新規,0,2023-09-29,2023-09-29,ＡＣ２７合同会社,,合同会社,東京都,千代田区,内神田２丁目２番６号５階あすな会計事務所内,,13,101,1010047,,,,,,,2023-09-29,1,,,,,エーシートゥエンティセブン,0
518,3010003041780,新規,0,2023-09-29,2023-09-29,合同会社Ｓｔａｒ‐Ｓｅｅｋｅｒ,,合同会社,東京都,中央区,銀座１丁目１２－４Ｎ＆ＥＢＬＤ．７階,,13,102,1040061,,,,,,,2023-09-29,1,,,,,スターシーカー,0
519,3010003041797,新規,0,2023-09-29,2023-09-29,Ｈ＆Ｓ合同会社,,合同会社,東京都,文京区,本駒込６丁目１５番９－４０２号,,13,105,1130021,,,,,,,2023-09-29,1,,,,,エイチアンドエス,0
522,3010005037307,新規,0,2023-09-29,2023-09-29,一般財団法人全国就職活動支援協会,,その他の設立登記法人,東京都,中央区,銀座７丁目１３番２０号,,13,102,1040061,,,,,,,2023-09-29,1,,,,,ゼンコクシュウショクカツドウシエンキョウカイ,0
530,3010401177359,新規,0,2023-09-29,2023-09-29,株式会社ＨＲＰＯ,,株式会社,東京都,港区,麻布十番２丁目１２番４号,,13,103,1060045,,,,,,,2023-09-29,1,,,,,エイチアールピーオー,0
531,3010401177383,新規,0,2023-09-29,2023-09-29,株式会社ケン・リクルート,,株式会社,東京都,港区,赤坂２丁目２１番４号天翔赤坂ＡＮＮＥＸビル５０３－Ｅ,,13,103,1070052,,,,,,,2023-09-29,1,,,,,ケンリクルート,0
532,3010401177433,新規,0,2023-09-29,2023-09-29,株式会社アルカス,,株式会社,東京都,港区,南青山２丁目２２番４号,,13,103,1070062,,,,,,,2023-09-29,1,,,,,アルカス,0
533,3010401177466,新規,0,2023-09-29,2023-09-29,株式会社青山経営,,株式会社,東京都,港区,南青山７丁目１番１２号１０２,,13,103,1070062,,,,,,,2023-09-29,1,,,,,アオヤマケイエイ,0
534,3010401177474,新規,0,2023-09-29,2023-09-29,株式会社ブイ,,株式会社,東京都,港区,芝４丁目１６番２‐２３０８号,,13,103,1080014,,,,,,,2023-09-29,1,,,,,ブイ,0
536,3010601063879,新規,0,2023-09-29,2023-09-29,株式会社Ｇ＆Ｄ,,株式会社,東京都,江東区,潮見２丁目１０番２５－７１２号,,13,108,1350052,,,,,,,2023-09-29,1,,,,,ジーアンドディー,0
537,3010603010367,新規,0,2023-09-29,2023-09-29,Ｐｒｏｒｉｇｏ　Ｓｏｆｔｗａｒｅ　Ｊａｐａｎ合同会社,,合同会社,東京都,江東区,豊洲６丁目２番３１－１９１７号,,13,108,1350061,,,,,,,2023-09-29,1,,,,,プロリゴソフトウェアジャパン,0
538,3010603010391,新規,0,2023-09-29,2023-09-29,Ａｌａｃａｒｔｅ合同会社,,合同会社,東京都,墨田区,八広１丁目３４番２０号ＢｌａｎｃＰａｒｆａｉｔ１Ｆ店舗,,13,107,1310041,,,,,,,2023-09-29,1,,,,,アラカルト,0
539,3010701044911,新規,0,2023-09-29,2023-09-29,株式会社ＦＹＣ,,株式会社,東京都,品川区,東品川２丁目２番２０号天王洲オーシャンスクエア２１階,,13,109,1400002,,,,,,,2023-09-29,1,,,,,エフワイシー,0
540,3010801034374,新規,0,2023-09-29,2023-09-29,株式会社セラグ,,株式会社,東京都,大田区,上池台４丁目２２番５－６０３号,,13,111,1450064,,,,,,,2023-09-29,1,,,,,セラグ,0
541,3010803004697,新規,0,2023-09-29,2023-09-29,合同会社Ｆａｎａｃｔ,,合同会社,東京都,大田区,南雪谷１丁目６－５,,13,111,1450066,,,,,,,2023-09-29,1,,,,,ファナクト,0
543,3010901053893,新規,0,2023-09-29,2023-09-29,衆利財管サービス株式会社,,株式会社,東京都,世田谷区,奥沢４丁目１７番５号,,13,112,1580083,,,,,,,2023-09-29,1,,,,,シュウリザイカンサービス,0
544,3010901053910,新規,0,2023-09-29,2023-09-29,シルバーベル株式会社,,株式会社,東京都,世田谷区,砧２丁目１４番１２－４２０号,,13,112,1570073,,,,,,,2023-09-29,1,,,,,シルバーベル,0
546,3011001157247,新規,0,2023-09-29,2023-09-29,ソルバーパートナーズ株式会社,,株式会社,東京都,渋谷区,代々木１丁目２５番５号,,13,113,1510053,,,,,,,2023-09-29,1,,,,,ソルバーパートナーズ,0
547,3011005010195,新規,0,2023-09-29,2023-09-29,一般社団法人関東テニス協会,,その他の設立登記法人,東京都,渋谷区,幡ヶ谷１丁目１番２号,,13,113,1510072,,,,,,,2023-09-29,1,,,,,カントウテニスキョウカイ,0
552,3011101104537,新規,0,2023-09-29,2023-09-29,株式会社ＡＮＲｉｓ,,株式会社,東京都,新宿区,西早稲田１丁目２２番３号,,13,104,1690051,,,,,,,2023-09-29,1,,,,,アンリス,0
553,3011101104545,新規,0,2023-09-29,2023-09-29,株式会社五百依,,株式会社,東京都,新宿区,歌舞伎町２丁目２－２１ライオンズマンション歌舞伎町１４０６号室,,13,104,1600021,,,,,,,2023-09-29,1,,,,,イオヨリ,0
554,3011101104553,新規,0,2023-09-29,2023-09-29,ＧＩＩＫＴＯＰ株式会社,,株式会社,東京都,新宿区,百人町２丁目１番４５号赤煉瓦２４４,,13,104,1690073,,,,,,,2023-09-29,1,,,,,ジークトップ,0
556,3011201024949,新規,0,2023-09-29,2023-09-29,Ｔｉｍｅ　Ｃａｐｉｔａｌ株式会社,,株式会社,東京都,中野区,中央５丁目２２番１０号,,13,114,1640011,,,,,,,2023-09-29,1,,,,,タイムキャピタル,0
559,3011501029821,新規,0,2023-09-29,2023-09-29,株式会社ツナゲルド会,,株式会社,東京都,荒川区,東日暮里６丁目２１番１１－４０９号,,13,118,1160014,,,,,,,2023-09-29,1,,,,,ツナゲルドカイ,0
567,3012401041040,新規,0,2023-09-29,2023-09-29,株式会社マルセ・インターナショナル,,株式会社,東京都,小金井市,東町４丁目３７番２３号,,13,210,1840011,,,,,,,2023-09-29,1,,,,,マルセインターナショナル,0
570,3012801022656,新規,0,2023-09-29,2023-09-29,株式会社Ｆｒｅｓｈ　Ａｉｒ　Ｓｏｌｕｔｉｏｎ,,株式会社,東京都,立川市,西砂町３丁目２５番地の３,,13,202,1900034,,,,,,,2023-09-29,1,,,,,フレッシュエアーソリューション,0
582,3020001153692,新規,0,2023-09-29,2023-09-29,株式会社リオン,,株式会社,神奈川県,横浜市港北区,樽町４丁目１１番４－２号,,14,109,2220001,,,,,,,2023-09-29,1,,,,,リオン,0
587,3020003024660,新規,0,2023-09-29,2023-09-29,合同会社アンサンブル・グレイス,,合同会社,神奈川県,川崎市麻生区,はるひ野２丁目２８番１１号,,14,137,2150036,,,,,,,2023-09-29,1,,,,,アンサンブルグレイス,0
601,3021001080308,新規,0,2023-09-29,2023-09-29,株式会社Ｒｉｓｅ　Ｃｏｍｐａｎｙ,,株式会社,神奈川県,平塚市,出縄２０６番地の４,,14,203,2540915,,,,,,,2023-09-29,1,,,,,ライズカンパニー,0
613,3030001156059,新規,0,2023-09-29,2023-09-29,株式会社ＢアンドＡインターナショナル,,株式会社,埼玉県,志木市,柏町４丁目５番１３号,,11,228,3530007,,,,,,,2023-09-29,1,,,,,ビーアンドエーインターナショナル,0
614,3030001156323,新規,0,2023-09-29,2023-09-29,株式会社ＨＯＰＥ,,株式会社,埼玉県,越谷市,蒲生２丁目１３番１２号,,11,222,3430838,,,,,,,2023-09-29,1,,,,,ホープ,0
619,3030003022572,新規,0,2023-09-29,2023-09-29,ナインテン合同会社,,合同会社,埼玉県,行田市,桜町１丁目１４番１２号,,11,206,3610022,,,,,,,2023-09-29,1,,,,,ナインテン,0
620,3030003022671,新規,0,2023-09-29,2023-09-29,合同会社ラ・ファミーユ,,合同会社,埼玉県,さいたま市浦和区,北浦和３丁目１６番１６－６号,,11,107,3300074,,,,,,,2023-09-29,1,,,,,ラファミーユ,0
624,3040001130260,新規,0,2023-09-29,2023-09-29,株式会社トップワークス,,株式会社,千葉県,船橋市,前貝塚町６７２番地３,,12,204,2730042,,,,,,,2023-09-29,1,,,,,トップワークス,0
625,3040001130277,新規,0,2023-09-29,2023-09-29,株式会社ＵＳＣコネクト,,株式会社,千葉県,野田市,柳沢１４４番地の６,,12,208,2780006,,,,,,,2023-09-29,1,,,,,ユーエスシーコネクト,0
628,3040003023421,新規,0,2023-09-29,2023-09-29,合同会社Ｐ．Ｊ．Ｋタノペリゲサク,,合同会社,千葉県,山武市,板中新田３１番地２１,,12,237,2891222,,,,,,,2023-09-29,1,,,,,ピージェイケータノペリゲサク,0
629,3050001053469,新規,0,2023-09-29,2023-09-29,株式会社ａｇｒａｒｉｅｒ,,株式会社,茨城県,水戸市,上水戸２丁目４番４３号,,08,201,3100041,,,,,,,2023-09-29,1,,,,,アグラリア,0
630,3050001053543,新規,0,2023-09-29,2023-09-29,株式会社ＧＨＫ,,株式会社,茨城県,土浦市,摩利山新田２７７－２,,08,203,3000838,,,,,,,2023-09-29,1,,,,,ジーエイチケー,0
638,3070001040911,新規,0,2023-09-29,2023-09-29,株式会社ピオーネ,,株式会社,群馬県,前橋市,青梨子町９６９番地３,,10,201,3703573,,,,,,,2023-09-29,1,,,,,ピオーネ,0
642,3080401026757,新規,0,2023-09-29,2023-09-29,株式会社木野鉄工所,,株式会社,静岡県,袋井市,太田５００番地の３,,22,216,4370052,,,,,,,2023-09-29,1,,,,,キノテツコウジョ,0
647,3100001036815,新規,0,2023-09-29,2023-09-29,株式会社Ｔｏｗ・ｔｒｕｓｔ,,株式会社,長野県,小諸市,大字山浦２４７番地１,,20,208,3840807,,,,,,,2023-09-29,1,,,,,ツートラスト,0
661,3120001258358,新規,0,2023-09-29,2023-09-29,株式会社真和コンサルティング,,株式会社,大阪府,大阪市天王寺区,悲田院町８番２６号天王寺センターハイツ５１０号,,27,109,5430055,,,,,,,2023-09-29,1,,,,,シンワコンサルティング,0
662,3120001258408,新規,0,2023-09-29,2023-09-29,ＭＤ　Ｐｒｏｊｅｃｔ株式会社,,株式会社,大阪府,大阪市中央区,博労町３丁目４番９号,,27,128,5410059,,,,,,,2023-09-29,1,,,,,エムディープロジェクト,0
663,3120001258424,新規,0,2023-09-29,2023-09-29,株式会社ＲＡＮＴ,,株式会社,大阪府,大阪市西区,新町３丁目４番１１－４０８号,,27,106,5500013,,,,,,,2023-09-29,1,,,,,ラント,0
664,3120001258449,新規,0,2023-09-29,2023-09-29,葡萄株式会社,,株式会社,大阪府,大阪市旭区,赤川１丁目５番１３－１０３号,,27,117,5350005,,,,,,,2023-09-29,1,,,,,ブドウ,0
665,3120001258465,新規,0,2023-09-29,2023-09-29,ＦＵＲＴＨＥＳＴＡＲ株式会社,,株式会社,大阪府,大阪市中央区,北久宝寺町３丁目６番１号本町南ガーデンシティ７階,,27,128,5410057,,,,,,,2023-09-29,1,,,,,ファーゼスター,0
669,3120003024964,新規,0,2023-09-29,2023-09-29,合同会社バレルライド,,合同会社,大阪府,大阪市東住吉区,東田辺１丁目１番８号２０２,,27,121,5460032,,,,,,,2023-09-29,1,,,,,バレルライド,0
670,3120003024972,新規,0,2023-09-29,2023-09-29,合同会社Ｈｕｇｍｉｌｙ,,合同会社,大阪府,守口市,大庭町２丁目１１番１０号,,27,209,5700009,,,,,,,2023-09-29,1,,,,,ハグミリー,0
673,3120101068285,新規,0,2023-09-29,2023-09-29,株式会社大阪オートパーツ,,株式会社,大阪府,岸和田市,西之内町１３番２８号,,27,202,5960044,,,,,,,2023-09-29,1,,,,,オオサカオートパーツ,0
675,3120901048098,新規,0,2023-09-29,2023-09-29,株式会社左官屋コテコテ,,株式会社,大阪府,豊中市,桜の町５丁目３番５２号,,27,203,5600054,,,,,,,2023-09-29,1,,,,,サカンヤコテコテ,0
684,3130005016884,新規,0,2023-09-29,2023-09-29,一般社団法人茶の場,,その他の設立登記法人,京都府,京都市北区,紫野大徳寺町７４番地４,,26,101,6038231,,,,,,,2023-09-29,1,,,,,チャノバ,0
697,3180001158222,新規,0,2023-09-29,2023-09-29,アウトドアマスタージャパン株式会社,,株式会社,愛知県,名古屋市中区,新栄１丁目３８番２１号、荘苑ひがし栄８Ｂ号,,23,106,4600007,,,,,,,2023-09-29,1,,,,,アウトドアマスタージャパン,0
698,3180001158239,新規,0,2023-09-29,2023-09-29,株式会社チームうさぎ,,株式会社,愛知県,名古屋市中村区,名駅５丁目３３番２１号アクアタウン納屋橋７０４号,,23,105,4500002,,,,,,,2023-09-29,1,,,,,チームウサギ,0
704,3180003025800,新規,0,2023-09-29,2023-09-29,合同会社ＩＮＶＥＳＴＡＲ,,合同会社,愛知県,豊明市,前後町螺貝１３７２番地４ファミリアーレ豊明前後レジデンス１１０４号室,,23,229,4701151,,,,,,,2023-09-29,1,,,,,インベスター,0
706,3180301037860,新規,0,2023-09-29,2023-09-29,株式会社白鶯会,,株式会社,愛知県,豊橋市,飯村町字高山１番１,,23,201,4400833,,,,,,,2023-09-29,1,,,,,ハクオウカイ,0
712,3200003006095,新規,0,2023-09-29,2023-09-29,合同会社花・花,,合同会社,岐阜県,恵那市,岩村町１６６４番地１９,,21,210,5097403,,,,,,,2023-09-29,1,,,,,ハナハナ,0
718,3250003003360,新規,0,2023-09-29,2023-09-29,四つ葉合同会社,,合同会社,山口県,美祢市,於福町下２８５２番地３,,35,213,7592302,,,,,,,2023-09-29,1,,,,,ヨツバ,0
722,3280001009043,新規,0,2023-09-29,2023-09-29,株式会社ＤＭＹ,,株式会社,島根県,松江市,浜佐田町１６１番地ｎｙａｎｓ浜佐田Ａ棟１０３,,32,201,6900855,,,,,,,2023-09-29,1,,,,,ディーエムワイ,0
728,3290001103175,新規,0,2023-09-29,2023-09-29,株式会社ＣＲＯＳＳ　ＲＯＡＤ,,株式会社,福岡県,太宰府市,梅ケ丘２丁目１２番１３号,,40,221,8180123,,,,,,,2023-09-29,1,,,,,クロスロード,0
729,3290001103191,新規,0,2023-09-29,2023-09-29,株式会社ＩＲＥＭ八幡,,株式会社,福岡県,福岡市東区,箱崎１丁目６番１６号,,40,131,8120053,,,,,,,2023-09-29,1,,,,,アイアールイーエムヤハタ,0
730,3290005019161,新規,0,2023-09-29,2023-09-29,一般社団法人ＣＩＲＣＬＥ,,その他の設立登記法人,福岡県,福岡市中央区,平尾浄水町４番１５号,,40,133,8100029,,,,,,,2023-09-29,1,,,,,サークル,0
732,3300003002027,新規,0,2023-09-29,2023-09-29,合同会社はるひな,,合同会社,佐賀県,西松浦郡有田町,南原甲３６２番地３,,41,401,8440027,,,,,,,2023-09-29,1,,,,,ハルヒナ,0
733,3310001018627,新規,0,2023-09-29,2023-09-29,株式会社山重,,株式会社,長崎県,佐世保市,原分町８９－６あたごハイツ１０３,,42,202,8570103,,,,,,,2023-09-29,1,,,,,ヤマシゲ,0
740,3360003013332,新規,0,2023-09-29,2023-09-29,ラソ・ＫＭＳ合同会社,,合同会社,沖縄県,うるま市,字上江洲９６２番地５,,47,213,9042222,,,,,,,2023-09-29,1,,,,,ラソケーエムエス,0
751,3390001017381,新規,0,2023-09-29,2023-09-29,株式会社協建Ｇｒｏｕｐ,,株式会社,山形県,鶴岡市,大淀川字洞合６８番地,,06,203,9970854,,,,,,,2023-09-29,1,,,,,キョウケングループ,0
754,3420001018418,新規,0,2023-09-29,2023-09-29,株式会社Ｐｒｏ　Ｐｌａｎｔ,,株式会社,青森県,三沢市,美野原３丁目１５番地１１号,,02,207,0330033,,,,,,,2023-09-29,1,,,,,プロプラント,0
760,3450001014100,新規,0,2023-09-29,2023-09-29,株式会社焼尻めん羊牧場,,株式会社,北海道,苫前郡羽幌町,大字焼尻字白浜２５６番地,,01,484,0783871,,,,,,,2023-09-29,1,,,,,ヤギシリメンヨウボクジョウ,0
764,3700150120846,新規,0,2023-09-29,2023-09-29,ＨＥＮＡＮＪＩＵＺＨＯＵＣＡＮＹＩＮＧＵＡＮＬＩ　Ｃｏ．，Ｌｔｄ．,,外国会社等,,,,,,,,Ｆｌｏｏｒ　９，Ｚｏｎｅ　Ｄ，Ｄ００２－０３，Ｉｎｃｕｂａｔｏｒ　Ｂｕｉｌｄｉｎｇ，Ｃｒｅａｔｉｖｅ　Ｐａｒｋ，Ｉｎｔｅｒｓｅｃｔｉｏｎ　ｏｆ　Ｎｅｉｈｕａｎ　Ｒｏａｄ，Ｚｅｈｎｇｄｏｎｇ　Ｄｉｓｔｒｉｃｔ，Ｚｈｅｎｇｚｈｏｕ　Ｃｉｔｙ，Ｈｅｎａｎ　Ｐｒｏｖｉｎｃｅ，Ｃｈｉｎａ．,,,,,,2023-09-29,1,,,,,ホーナンジュージョウツァンイングワンリーヨウシエンゴンスー,0
767,4010001238816,新規,0,2023-09-29,2023-09-29,株式会社先進医療東京,,株式会社,東京都,中央区,日本橋本町２丁目６番１号,,13,102,1030023,,,,,,,2023-09-29,1,,,,,センシンイリョウトウキョウ,0
768,4010001238824,新規,0,2023-09-29,2023-09-29,株式会社デジタルトラスト,,株式会社,東京都,中央区,銀座１丁目１２番４号Ｎ＆ＥＢＬＤ．６Ｆ,,13,102,1040061,,,,,,,2023-09-29,1,,,,,デジタルトラスト,0
780,4010401177358,新規,0,2023-09-29,2023-09-29,Ｌｙｃｋａ　Ｊａｐａｎ株式会社,,株式会社,東京都,港区,北青山１丁目３番１号アールキューブ青山３階,,13,103,1070061,,,,,,,2023-09-29,1,,,,,リュッカジャパン,0
784,4010601063861,新規,0,2023-09-29,2023-09-29,然達株式会社,,株式会社,東京都,墨田区,両国２丁目１７番１７号両国ダイヤハイツ２０２－Ｔ,,13,107,1300026,,,,,,,2023-09-29,1,,,,,ゼンタツ,0
785,4010601063878,新規,0,2023-09-29,2023-09-29,株式会社アイソレーション,,株式会社,東京都,江東区,東砂８丁目６番２号ツインシティ東砂アネックス２０８,,13,108,1360074,,,,,,,2023-09-29,1,,,,,アイソレーション,0
786,4010603010390,新規,0,2023-09-29,2023-09-29,合同会社ＦＣＴ,,合同会社,東京都,江東区,豊洲１丁目２－３３ＫＤＸレジデンス豊洲５１２,,13,108,1350061,,,,,,,2023-09-29,1,,,,,エフシーティー,0
787,4010701044910,新規,0,2023-09-29,2023-09-29,株式会社エピリズ,,株式会社,東京都,品川区,東五反田２丁目１０番１号１８０６,,13,109,1410022,,,,,,,2023-09-29,1,,,,,エピリズ,0
793,4010901053918,新規,0,2023-09-29,2023-09-29,株式会社Ｙ．Ｙ,,株式会社,東京都,世田谷区,三宿１丁目３番２２号,,13,112,1540005,,,,,,,2023-09-29,1,,,,,ワイワイ,0
796,4010903008440,新規,0,2023-09-29,2023-09-29,合同会社ＮＥＭＯ,,合同会社,東京都,世田谷区,上北沢５丁目２６番５号セブンスターハイツ上北沢２０５,,13,112,1560057,,,,,,,2023-09-29,1,,,,,ネモ,0
798,4011001157205,新規,0,2023-09-29,2023-09-29,Ｉｎｆｉｎｉｔａｓ株式会社,,株式会社,東京都,渋谷区,富ヶ谷１丁目１４－１４スタンフォードアネックスビル３Ｆ・４Ｆ,,13,113,1510063,,,,,,,2023-09-29,1,,,,,インフィニタス,0
820,4011803005858,新規,0,2023-09-29,2023-09-29,ドリームロケット合同会社,,合同会社,東京都,足立区,東綾瀬１丁目２５番５号,,13,121,1200004,,,,,,,2023-09-29,1,,,,,ドリームロケット,0
823,4012401041048,新規,0,2023-09-29,2023-09-29,株式会社松南,,株式会社,東京都,稲城市,矢野口２０４０番地,,13,225,2060812,,,,,,,2023-09-29,1,,,,,ショウナン,0
824,4012403006206,新規,0,2023-09-29,2023-09-29,合同会社ＦＲＥＥＢＹＲＤ,,合同会社,東京都,調布市,深大寺北町２丁目４０番地３,,13,208,1820011,,,,,,,2023-09-29,1,,,,,,0
825,4012805003230,新規,0,2023-09-29,2023-09-29,特定非営利活動法人クラウド技術者養成協会,,その他の設立登記法人,東京都,日野市,多摩平２丁目５番地の１クレヴィア多摩平の森ＲＥＳＩＤＥＮＣＥ１階日野市多摩平の森産業連携センターＰｌａｎＴ内,,13,212,1910062,,,,,,,2023-09-29,1,,,,,クラウドギジュツシャヨウセイキョウカイ,0
838,4020003024676,新規,0,2023-09-29,2023-09-29,フォーエー合同会社,,合同会社,神奈川県,横浜市港北区,綱島上町４６番地３豊栄綱島マンション４０７,,14,109,2230055,,,,,,,2023-09-29,1,,,,,フォーエー,0
839,4020005016135,新規,0,2023-09-29,2023-09-29,一般社団法人ＮＩＳＥＮ　ＣＯ‐ＬＡＢＳ,,その他の設立登記法人,神奈川県,横浜市青葉区,あざみ野１丁目２６番１４号,,14,117,2250011,,,,,,,2023-09-29,1,,,,,ニセンコーラブス,0
845,4021001080307,新規,0,2023-09-29,2023-09-29,ＴＨＥ　ＡＫＡＴＳＵＫＩ株式会社,,株式会社,神奈川県,大和市,中央林間西２丁目９番１０号,,14,213,2420008,,,,,,,2023-09-29,1,,,,,ザアカツキ,0
852,4030001156132,新規,0,2023-09-29,2023-09-29,株式会社香月,,株式会社,埼玉県,川口市,末広３丁目６番１２－２０１号,,11,203,3320006,,,,,,,2023-09-29,1,,,,,カツキ,0
853,4030001156330,新規,0,2023-09-29,2023-09-29,株式会社リンクス,,株式会社,埼玉県,熊谷市,中央２丁目３４０番地－２０２,,11,202,3600018,,,,,,,2023-09-29,1,,,,,リンクス,0
855,4030003022547,新規,0,2023-09-29,2023-09-29,合同会社ＰＭ　Ｖｅｎｕｓ　Ｐｏｗｅｒ　Ｃｏｍｐａｎｙ,,合同会社,埼玉県,蕨市,中央１丁目７番１－４０７号,,11,223,3350004,,,,,,,2023-09-29,1,,,,,ピーエムビーナスパワーカンパニー,0
856,4030003022555,新規,0,2023-09-29,2023-09-29,合同会社ＮＫ,,合同会社,埼玉県,さいたま市桜区,中島４丁目８番８号ドリームハイツ１０３号,,11,106,3380822,,,,,,,2023-09-29,1,,,,,エヌケー,0
857,4030003022670,新規,0,2023-09-29,2023-09-29,ＫＹＣステージ合同会社,,合同会社,埼玉県,上尾市,富士見２丁目１番２５号,,11,219,3620041,,,,,,,2023-09-29,1,,,,,ケーワイシーステージ,0
858,4030003022679,新規,0,2023-09-29,2023-09-29,合同会社ファンフィールコネクト,,合同会社,埼玉県,比企郡吉見町,大字江綱１４９８番地３,,11,347,3550136,,,,,,,2023-09-29,1,,,,,ファンフィールコネクト,0
865,4040003023338,新規,0,2023-09-29,2023-09-29,合同会社ＩｎｌｅｔＲｉｖｅｒ,,合同会社,千葉県,船橋市,湊町２丁目１２番２号湊町日本橋ビル６Ｆ,,12,204,2730011,,,,,,,2023-09-29,1,,,,,インリットリバー,0
869,4050001053559,新規,0,2023-09-29,2023-09-29,株式会社ＫＲＬ,,株式会社,茨城県,水戸市,見和２丁目２２３－１,,08,201,3100911,,,,,,,2023-09-29,1,,,,,ケーアールエル,0
874,4050002045902,新規,0,2023-09-29,2023-09-29,有限会社開和ビルサービス,,有限会社,茨城県,土浦市,上高津８６８番地１,,08,203,3000811,,,,,,,2023-09-29,1,,,,,カイワビルサービス,0
880,4070001040910,新規,0,2023-09-29,2023-09-29,株式会社ブースト,,株式会社,群馬県,沼田市,西原新町１５０１番地４,,10,206,3780054,,,,,,,2023-09-29,1,,,,,ブースト,0
887,4090003002394,新規,0,2023-09-29,2023-09-29,合同会社アシストライフロジスティクス,,合同会社,山梨県,韮崎市,旭町上條中割６８４番地１,,19,207,4070045,,,,,,,2023-09-29,1,,,,,アシストライフロジスティクス,0
907,4120001258365,新規,0,2023-09-29,2023-09-29,株式会社ＯＮＥＬＩＦＥ,,株式会社,大阪府,大阪市阿倍野区,松虫通１丁目４－２６,,27,119,5450043,,,,,,,2023-09-29,1,,,,,ワンライフ,0
908,4120001258398,新規,0,2023-09-29,2023-09-29,株式会社ユウセイ,,株式会社,大阪府,大阪市天王寺区,空堀町１５番６－６０６号,,27,109,5430012,,,,,,,2023-09-29,1,,,,,ユウセイ,0
909,4120001258423,新規,0,2023-09-29,2023-09-29,株式会社ニューデイ,,株式会社,大阪府,大阪市淀川区,西中島２丁目６番２－４０４号,,27,123,5320011,,,,,,,2023-09-29,1,,,,,ニューデイ,0
910,4120001258448,新規,0,2023-09-29,2023-09-29,株式会社情報ステーション,,株式会社,大阪府,大阪市東成区,中道４丁目１２番９－１４０４号,,27,115,5370025,,,,,,,2023-09-29,1,,,,,ジョウホウステーション,0
911,4120001258456,新規,0,2023-09-29,2023-09-29,ＡＣＥ　ｃｏｆｆｅｅ株式会社,,株式会社,大阪府,大阪市中央区,内本町２丁目１番１９－１１３０号,,27,128,5400026,,,,,,,2023-09-29,1,,,,,エースコーヒー,0
912,4120001258464,新規,0,2023-09-29,2023-09-29,株式会社ＹＡＭＡＳＡＮ,,株式会社,大阪府,大阪市生野区,小路東２丁目１５番２号,,27,116,5440003,,,,,,,2023-09-29,1,,,,,ヤマサン,0
917,4120003024963,新規,0,2023-09-29,2023-09-29,合同会社Ｈ＆Ｅ,,合同会社,大阪府,大阪市中央区,玉造２丁目３－２７ブルーエグリ上町台２０１,,27,128,5400004,,,,,,,2023-09-29,1,,,,,エイチアンドイー,0
918,4120003024988,新規,0,2023-09-29,2023-09-29,トップラン合同会社,,合同会社,大阪府,大阪市東淀川区,下新庄３丁目１１番１５号,,27,114,5330021,,,,,,,2023-09-29,1,,,,,トップラン,0
932,4122001037419,新規,0,2023-09-29,2023-09-29,株式会社レイムズ,,株式会社,大阪府,東大阪市,楠根３丁目３番３７号,,27,227,5770006,,,,,,,2023-09-29,1,,,,,レイムズ,0
945,4150003003080,新規,0,2023-09-29,2023-09-29,合同会社ＡＩ　Ｑｕａｎｔｓ　Ｔｒａｄｉｎｇ,,合同会社,奈良県,大和高田市,幸町３番３－９２３号,,29,202,6350015,,,,,,,2023-09-29,1,,,,,エーアイクォンツトレーディング,0
947,4160001025373,新規,0,2023-09-29,2023-09-29,株式会社リノペット,,株式会社,滋賀県,彦根市,八坂町３０７３番地１,,25,202,5220057,,,,,,,2023-09-29,1,,,,,リノペット,0
948,4160003002998,新規,0,2023-09-29,2023-09-29,合同会社ヴィスコ,,合同会社,滋賀県,米原市,柏原９６８,,25,214,5210202,,,,,,,2023-09-29,1,,,,,ヴィスコ,0
954,4180001158147,新規,0,2023-09-29,2023-09-29,ＡＴＡＲＡクリエイト株式会社,,株式会社,愛知県,名古屋市中村区,名駅４丁目１７番３号メイヨンビル２Ｆ,,23,105,4500002,,,,,,,2023-09-29,1,,,,,アタラクリエイト,0
955,4180001158205,新規,0,2023-09-29,2023-09-29,株式会社ＡＩＮＹ＆Ｃｏ．,,株式会社,愛知県,名古屋市中区,栄５丁目３番４号栄ゴールドビル４Ｆ,,23,106,4600008,,,,,,,2023-09-29,1,,,,,アイニーアンドコー,0
956,4180001158213,新規,0,2023-09-29,2023-09-29,株式会社ＭＯ‐ＤＥ,,株式会社,愛知県,名古屋市西区,牛島町６番１号名古屋ルーセントタワー４０階,,23,104,4510046,,,,,,,2023-09-29,1,,,,,モウデ,0
959,4180003025782,新規,0,2023-09-29,2023-09-29,Ｈｉｒｓｃｈ　Ｆａｎｇ合同会社,,合同会社,愛知県,名古屋市中村区,下米野町２丁目１８番地の２（ＤｒｏｏｍＢ棟）,,23,105,4530802,,,,,,,2023-09-29,1,,,,,ヒルシュファング,0
960,4180003025799,新規,0,2023-09-29,2023-09-29,ＴＲＫ合同会社,,合同会社,愛知県,知多市,新知字美濃川１０１番地の１,,23,224,4780017,,,,,,,2023-09-29,1,,,,,ティーアールケイ,0
968,4240001062169,新規,0,2023-09-29,2023-09-29,株式会社ＲＩＴＡ,,株式会社,広島県,広島市南区,的場町２丁目６番２号－２０２,,34,103,7320824,,,,,,,2023-09-29,1,,,,,リタ,0
989,4310001018618,新規,0,2023-09-29,2023-09-29,株式会社平田機電,,株式会社,長崎県,長崎市,畝刈町３２１番地１ブルーハイツ畝刈３０７,,42,201,8512212,,,,,,,2023-09-29,1,,,,,,0
992,4340001025933,新規,0,2023-09-29,2023-09-29,ロジスティック九州株式会社,,株式会社,鹿児島県,鹿児島市,高麗町２１番８号コーポ南星１階,,46,201,8900051,,,,,,,2023-09-29,1,,,,,ロジスティックキュウシュウ,0
996,4360003013323,新規,0,2023-09-29,2023-09-29,合同会社Ａｒａｎｔｉｙａ,,合同会社,沖縄県,石垣市,字平得１９０番地３,,47,207,9070003,,,,,,,2023-09-29,1,,,,,アランティヤ,0
1004,4410003003847,新規,0,2023-09-29,2023-09-29,合同会社うゑむら,,合同会社,秋田県,秋田市,御野場２丁目７番４号,,05,201,0101424,,,,,,,2023-09-29,1,,,,,ウエムラ,0
1006,4420001018425,新規,0,2023-09-29,2023-09-29,株式会社Ｔｉｆｆａ,,株式会社,青森県,青森市,本町１丁目４番２６号,,02,201,0300802,,,,,,,2023-09-29,1,,,,,ティファ,0
1009,4430001090068,新規,0,2023-09-29,2023-09-29,ＶＩＳＩＯＮ　ＢＵＳＩＮＥＳＳ　ＧＲＯＵＰ株式会社,,株式会社,北海道,苫小牧市,見山町４丁目１０番５号ベルメゾン２０２,,01,213,0530855,,,,,,,2023-09-29,1,,,,,ビジョンビジネスグループ,0
1016,4450003002390,新規,0,2023-09-29,2023-09-29,北海道アーツ＆クリエイション合同会社,,合同会社,北海道,旭川市,春光台一条３丁目２番７号,,01,204,0718141,,,,,,,2023-09-29,1,,,,,ホッカイドウアーツアンドクリエイション,0
1019,4500001025215,新規,0,2023-09-29,2023-09-29,株式会社日晴マネジメント,,株式会社,愛媛県,新居浜市,角野３５１３－３,,38,205,7920857,,,,,,,2023-09-29,1,,,,,ニッセイマネジメント,0
1020,4700150120845,新規,0,2023-09-29,2023-09-29,Ｓｕｚｈｏｕ　Ｍｅｉ　Ａｉｙｏｕ　Ｔｒａｄｉｎｇ　Ｃｏ．，Ｌｔｄ．,,外国会社等,,,,,,,,ＰｉｎｇＬｏｎｇＬｕ　２５１Ｈａｏ　Ｓｕｚｈｏｕ　ＣｈｅｎｇＳｈｉＳｈｅｎｇＨｕｏＧｕａｎｇＣｈａｎｇ　ＡＺｕｏ　１７１６Ｓｈｉ，ＧｕＳｕＱｕ，Ｓｕｚｈｏｕ，Ｊｉａｎｇｓｕ，２１５０００　ＣＮ,,,,,,2023-09-29,1,,,,,スージョウメイアイヨウシャンマオヨウシエンゴンスー,0
1024,5010003041746,新規,0,2023-09-29,2023-09-29,尼崎ロジスティクス不動産販売合同会社,,合同会社,東京都,千代田区,九段南３丁目７番７号成和綜合会計事務所内,,13,101,1020074,,,,,,,2023-09-29,1,,,,,アマガサキロジスティクスフドウサンハンバイ,0
1025,5010003041804,新規,0,2023-09-29,2023-09-29,ワークツリー合同会社,,合同会社,東京都,千代田区,九段南３丁目４－５・１Ｆ,,13,101,1020074,,,,,,,2023-09-29,1,,,,,ワークツリー,0
1026,5010101015833,新規,0,2023-09-29,2023-09-29,株式会社プランドール,,株式会社,東京都,八王子市,越野２５番地１３,,13,201,1920361,,,,,,,2023-09-29,1,,,,,プランドール,0
1030,5010401177398,新規,0,2023-09-29,2023-09-29,株式会社ラウム,,株式会社,東京都,港区,麻布台３丁目１番６号,,13,103,1060041,,,,,,,2023-09-29,1,,,,,ラウム,0
1040,5010701044901,新規,0,2023-09-29,2023-09-29,株式会社Ｌｕｘｏｎ,,株式会社,東京都,品川区,西五反田３丁目４番１０号目黒ＭＡＲＣレジデンスタワー１６０３,,13,109,1410031,,,,,,,2023-09-29,1,,,,,ルクシオン,0
1041,5010801034372,新規,0,2023-09-29,2023-09-29,株式会社マハナ,,株式会社,東京都,大田区,本羽田２丁目９番２３－９号,,13,111,1440044,,,,,,,2023-09-29,1,,,,,マハナ,0
1042,5010801034380,新規,0,2023-09-29,2023-09-29,株式会社庭建,,株式会社,東京都,大田区,東糀谷１丁目２１番６号,,13,111,1440033,,,,,,,2023-09-29,1,,,,,ニワケン,0
1045,5010901053900,新規,0,2023-09-29,2023-09-29,株式会社ギフトピア,,株式会社,東京都,世田谷区,中町３丁目１９番１７号,,13,112,1580091,,,,,,,2023-09-29,1,,,,,ギフトピア,0
1051,5011001157204,新規,0,2023-09-29,2023-09-29,ウィンヴォルブ株式会社,,株式会社,東京都,渋谷区,恵比寿南１丁目１番１号ヒューマックス恵比寿ビル,,13,113,1500022,,,,,,,2023-09-29,1,,,,,ウィンヴォルブ,0
1052,5011001157253,新規,0,2023-09-29,2023-09-29,株式会社ＭＴＳＰ,,株式会社,東京都,渋谷区,渋谷２丁目２１番１号,,13,113,1500002,,,,,,,2023-09-29,1,,,,,エムティーエスピー,0
1055,5011003017620,新規,0,2023-09-29,2023-09-29,合同会社ガジェロール,,合同会社,東京都,渋谷区,道玄坂１丁目１０番８号渋谷道玄坂東急ビル２Ｆ－Ｃ,,13,113,1500043,,,,,,,2023-09-29,1,,,,,ガジェロール,0
1056,5011003017637,新規,0,2023-09-29,2023-09-29,合同会社文校,,合同会社,東京都,渋谷区,道玄坂１丁目１０番８号渋谷道玄坂東急ビル２Ｆ－Ｃ,,13,113,1500043,,,,,,,2023-09-29,1,,,,,ブンコウ,0
1062,5011101104535,新規,0,2023-09-29,2023-09-29,わくわく空間デザイン株式会社,,株式会社,東京都,新宿区,西五軒町３番７号モンマルトル神楽坂１０１,,13,104,1620812,,,,,,,2023-09-29,1,,,,,ワクワククウカンデザイン,0
1065,5011701026617,新規,0,2023-09-29,2023-09-29,恒祥株式会社,,株式会社,東京都,江戸川区,西葛西５丁目７－６ＤＡＯＳＰＡＣＥ西葛西３階３０６号,,13,123,1340088,,,,,,,2023-09-29,1,,,,,コウショウ,0
1068,5011801043099,新規,0,2023-09-29,2023-09-29,株式会社美辰,,株式会社,東京都,足立区,西保木間２丁目３－１７－４１３,,13,121,1210812,,,,,,,2023-09-29,1,,,,,ビシン,0
1069,5011803005857,新規,0,2023-09-29,2023-09-29,合同会社アートワン,,合同会社,東京都,葛飾区,金町２丁目２１番１－５０６号,,13,122,1250042,,,,,,,2023-09-29,1,,,,,アートワン,0
1072,5012403006205,新規,0,2023-09-29,2023-09-29,合同会社ラッキープレイス,,合同会社,東京都,武蔵野市,西久保２丁目２８番１２号,,13,203,1800013,,,,,,,2023-09-29,1,,,,,ラッキープレイス,0
1081,5020001153674,新規,0,2023-09-29,2023-09-29,株式会社Ｉデザイン,,株式会社,神奈川県,川崎市高津区,上作延１丁目２番３５－２０５号,,14,134,2130034,,,,,,,2023-09-29,1,,,,,アイデザイン,0
1083,5020003024667,新規,0,2023-09-29,2023-09-29,アリウープ合同会社,,合同会社,神奈川県,横浜市港南区,野庭町７４番地１メルヴェーユ上永谷５１１,,14,111,2340056,,,,,,,2023-09-29,1,,,,,アリウープ,0
1086,5020005016134,新規,0,2023-09-29,2023-09-29,一般社団法人ＪＡＢＡ神奈川県野球協会,,その他の設立登記法人,神奈川県,川崎市中原区,木月４丁目４３番５号,,14,133,2110025,,,,,,,2023-09-29,1,,,,,ジャバカナガワケンヤキュウキョウカイ,0
1091,5021001080297,新規,0,2023-09-29,2023-09-29,株式会社ＪＡＰＡＮ　ＦＯＯＤ　ＰＲＯ,,株式会社,神奈川県,藤沢市,稲荷５２０,,14,205,2510862,,,,,,,2023-09-29,1,,,,,ジャパンフードプロ,0
1092,5021001080306,新規,0,2023-09-29,2023-09-29,株式会社サム・スペース,,株式会社,神奈川県,座間市,ひばりが丘３丁目５７番Ａ－１０１号,,14,216,2520003,,,,,,,2023-09-29,1,,,,,サムスペース,0
1095,5021003013627,新規,0,2023-09-29,2023-09-29,ＳＨＡＲＡ自動車合同会社,,合同会社,神奈川県,厚木市,山際５０番地３－２０６,,14,212,2430803,,,,,,,2023-09-29,1,,,,,サーラジドウシャ,0
1106,5030001156189,新規,0,2023-09-29,2023-09-29,株式会社ＴＳＦＥ,,株式会社,埼玉県,さいたま市中央区,下落合５丁目１０番５号,,11,105,3380002,,,,,,,2023-09-29,1,,,,,ティーエスエフイー,0
1114,5040001130283,新規,0,2023-09-29,2023-09-29,玉山金属株式会社,,株式会社,千葉県,山武郡横芝光町,宮川６９７５番地１,,12,410,2891727,,,,,,,2023-09-29,1,,,,,ギョクザンキンゾク,0
1118,5040003023428,新規,0,2023-09-29,2023-09-29,小山直丈構造設計事務所合同会社,,合同会社,千葉県,我孫子市,白山２丁目２０－３－１,,12,222,2701154,,,,,,,2023-09-29,1,,,,,コヤマナオタケコウゾウセッケイジムショ,0
1133,5100001036813,新規,0,2023-09-29,2023-09-29,株式会社ＮＩＧＥＬＬＥ,,株式会社,長野県,松本市,中央１丁目２番１０号イワサ第１３ビル１階,,20,202,3900811,,,,,,,2023-09-29,1,,,,,ニゼル,0
1138,5110001037868,新規,0,2023-09-29,2023-09-29,株式会社ブレイクスルー,,株式会社,新潟県,上越市,浦川原区有島１１２番地６,,15,222,9420306,,,,,,,2023-09-29,1,,,,,,0
1152,5120001258109,新規,0,2023-09-29,2023-09-29,株式会社ニカスト,,株式会社,大阪府,大阪市中央区,平野町２丁目３－７アーバンエース北浜ビル１階,,27,128,5410046,,,,,,,2023-09-29,1,,,,,ニカスト,0
1153,5120001258364,新規,0,2023-09-29,2023-09-29,ＭｏｂｉｌｉｔｙＰａｒｔｎｅｒｓ株式会社,,株式会社,大阪府,大阪市西区,立売堀２丁目５－４１合田ビル７０５,,27,106,5500012,,,,,,,2023-09-29,1,,,,,モビリティパートナーズ,0
1154,5120001258372,新規,0,2023-09-29,2023-09-29,株式会社Ａｌｎａｉｒ,,株式会社,大阪府,大阪市北区,中之島６丁目１番３８－７１３号,,27,127,5300005,,,,,,,2023-09-29,1,,,,,アルナイル,0
1155,5120001258397,新規,0,2023-09-29,2023-09-29,魔鏡株式会社,,株式会社,大阪府,大阪市福島区,大開２丁目６番９－４０３号,,27,103,5530007,,,,,,,2023-09-29,1,,,,,マキョウ,0
1156,5120001258455,新規,0,2023-09-29,2023-09-29,日本文化旅行不動産株式会社,,株式会社,大阪府,大阪市中央区,内本町２丁目１番１９－１１３０号,,27,128,5400026,,,,,,,2023-09-29,1,,,,,ニホンブンカリョコウフドウサン,0
1157,5120001258463,新規,0,2023-09-29,2023-09-29,株式会社Ｃｏｌｏｒ,,株式会社,大阪府,大阪市淀川区,東三国１丁目１４番１２号,,27,123,5320002,,,,,,,2023-09-29,1,,,,,カラー,0
1162,5120003024987,新規,0,2023-09-29,2023-09-29,ＢＶＬ合同会社,,合同会社,大阪府,大阪市都島区,都島南通２丁目４番２０号２Ｆブリリアントクラブ内,,27,102,5340023,,,,,,,2023-09-29,1,,,,,ビーブイエル,0
1166,5120101068275,新規,0,2023-09-29,2023-09-29,楽途国際株式会社,,株式会社,大阪府,泉大津市,条南町３番２６－１０３号,,27,206,5950016,,,,,,,2023-09-29,1,,,,,ラクトコクサイ,0
1167,5120101068283,新規,0,2023-09-29,2023-09-29,株式会社ＧＯＡＴ,,株式会社,大阪府,泉大津市,豊中町３丁目２番３９号ジーメゾン１０２,,27,206,5950023,,,,,,,2023-09-29,1,,,,,ゴート,0
1168,5120103005466,新規,0,2023-09-29,2023-09-29,合同会社サティーン,,合同会社,大阪府,堺市堺区,西永山園５番１８－１０３号,,27,141,5900032,,,,,,,2023-09-29,1,,,,,サティーン,0
1173,5130005016882,新規,0,2023-09-29,2023-09-29,特定非営利活動法人未来仮想,,その他の設立登記法人,京都府,京都市南区,吉祥院嶋高町３５番地の２,,26,107,6018372,,,,,,,2023-09-29,1,,,,,ミライカソウ,0
1176,5140001131750,新規,0,2023-09-29,2023-09-29,Ｊ‐Ｃａｒｓ株式会社,,株式会社,兵庫県,丹波篠山市,後川新田３４３番地１,,28,221,6692421,,,,,,,2023-09-29,1,,,,,ジェイカーズ,0
1177,5140001131767,新規,0,2023-09-29,2023-09-29,株式会社Ｕｏ．Ａ,,株式会社,兵庫県,豊岡市,出石町福住４９２番地７,,28,209,6680263,,,,,,,2023-09-29,1,,,,,ユーオーエー,0
1178,5140001131775,新規,0,2023-09-29,2023-09-29,オゼショウ株式会社,,株式会社,兵庫県,神戸市中央区,日暮通６丁目４番１８－１０１号,,28,110,6510077,,,,,,,2023-09-29,1,,,,,オゼショウ,0
1184,5160001025372,新規,0,2023-09-29,2023-09-29,株式会社リノプランニング,,株式会社,滋賀県,彦根市,八坂町３０７３番地１,,25,202,5220057,,,,,,,2023-09-29,1,,,,,リノプランニング,0
1194,5180001158195,新規,0,2023-09-29,2023-09-29,株式会社Ｒｉｅｎｄａｓ,,株式会社,愛知県,長久手市,作田２丁目６１６番地,,23,238,4801153,,,,,,,2023-09-29,1,,,,,リエンダス,0
1195,5180001158212,新規,0,2023-09-29,2023-09-29,株式会社Ｐｏｒｉｇｈｔ,,株式会社,愛知県,一宮市,赤見１丁目７番６号,,23,203,4910023,,,,,,,2023-09-29,1,,,,,ポライト,0
1196,5180001158229,新規,0,2023-09-29,2023-09-29,株式会社サンヨー圧送,,株式会社,愛知県,知多郡武豊町,字鹿ノ子田１丁目２番地,,23,447,4702302,,,,,,,2023-09-29,1,,,,,サンヨーアッソウ,0
1197,5180001158237,新規,0,2023-09-29,2023-09-29,株式会社Ｗｏｒｌｄ　Ｗｉｄｅ　Ｓｔｕｄｉｏ,,株式会社,愛知県,瀬戸市,京町２丁目８９番地,,23,204,4890804,,,,,,,2023-09-29,1,,,,,ワールドワイドスタジオ,0
1198,5180001158245,新規,0,2023-09-29,2023-09-29,株式会社Ｔｏ　Ｂｅ　Ｍａｎａｇｅｍｅｎｔ,,株式会社,愛知県,名古屋市中区,栄１丁目６番１５号,,23,106,4600008,,,,,,,2023-09-29,1,,,,,トゥービーマネジメント,0
1209,5220001025614,新規,0,2023-09-29,2023-09-29,アイデン株式会社,,株式会社,石川県,能美市,岩内町ル３８番地１,,17,211,9231201,,,,,,,2023-09-29,1,,,,,アイデン,0
1212,5240001062176,新規,0,2023-09-29,2023-09-29,株式会社エフ・サポート,,株式会社,広島県,呉市,朝日町１４番２－４０１号,,34,202,7370056,,,,,,,2023-09-29,1,,,,,エフサポート,0
1217,5270001008845,新規,0,2023-09-29,2023-09-29,株式会社ＧＣ．Ｎ,,株式会社,鳥取県,米子市,両三柳１０３番地,,31,202,6830853,,,,,,,2023-09-29,1,,,,,ジーシードットエヌ,0
1224,5290001103165,新規,0,2023-09-29,2023-09-29,株式会社ベルアシスト,,株式会社,福岡県,久留米市,東合川７丁目６番３０号,,40,203,8390809,,,,,,,2023-09-29,1,,,,,ベルアシスト,0
1229,5290803004511,新規,0,2023-09-29,2023-09-29,合同会社コネクトライン,,合同会社,福岡県,北九州市小倉北区,南丘１丁目７番１３号,,40,106,8030863,,,,,,,2023-09-29,1,,,,,コネクトライン,0
1230,5300001013478,新規,0,2023-09-29,2023-09-29,クライム株式会社,,株式会社,佐賀県,唐津市,半田２６４０番地,,41,202,8470023,,,,,,,2023-09-29,1,,,,,クライム,0
1232,5310003004648,新規,0,2023-09-29,2023-09-29,合同会社絆,,合同会社,長崎県,佐世保市,上本山町１番地４５,,42,202,8580903,,,,,,,2023-09-29,1,,,,,キズナ,0
1237,5340003004265,新規,0,2023-09-29,2023-09-29,ＹＯＫＩＡＳＵ合同会社,,合同会社,鹿児島県,鹿屋市,吾平町上名８８９番地１,,46,203,8931101,,,,,,,2023-09-29,1,,,,,ヨキアス,0
1242,5350001018588,新規,0,2023-09-29,2023-09-29,株式会社ニクニクニック,,株式会社,宮崎県,都城市,高崎町縄瀬２９３８番地１,,45,202,8894503,,,,,,,2023-09-29,1,,,,,ニクニクニック,0
1246,5360001032605,新規,0,2023-09-29,2023-09-29,株式会社ＯＴＲ,,株式会社,沖縄県,豊見城市,字田頭１０３番地２－２０５号室,,47,212,9010234,,,,,,,2023-09-29,1,,,,,オーティーアール,0
1249,5360003013330,新規,0,2023-09-29,2023-09-29,トップセールス合同会社,,合同会社,沖縄県,那覇市,辻２丁目８番２号,00132079,47,201,9000037,,,,,,,2023-09-29,1,,,,,トップセールス,0
1250,5370001050449,新規,0,2023-09-29,2023-09-29,石川商事株式会社,,株式会社,宮城県,栗原市,金成平治屋敷５５番地１,,04,213,9895123,,,,,,,2023-09-29,1,,,,,イシカワショウジ,0
1258,5440001009330,新規,0,2023-09-29,2023-09-29,株式会社吉村デザイン事務所,,株式会社,北海道,函館市,深堀町３５番１２－２号,,01,202,0420941,,,,,,,2023-09-29,1,,,,,ヨシムラデザインジムショ,0
1268,5500001025214,新規,0,2023-09-29,2023-09-29,株式会社インテリアＹＯＵ,,株式会社,愛媛県,新居浜市,西の土居町２丁目１番４９号,,38,205,7920035,,,,,,,2023-09-29,1,,,,,インテリアユー,0
1271,5700150120844,新規,0,2023-09-29,2023-09-29,南三陸森林管理協議会,,その他,宮城県,本吉郡南三陸町,志津川字天王山１３８番地３,,04,606,9860728,,,,,,,2023-09-29,1,,,,,ミナミサンリクシンリンカンリキョウギカイ,0
1276,6010001238665,新規,0,2023-09-29,2023-09-29,株式会社ＴＯＧＳ,,株式会社,東京都,千代田区,神田須田町１丁目１４番１号ヒューリック神田須田町ビル１階,,13,101,1010041,,,,,,,2023-09-29,1,,,,,トグス,0
1277,6010001238764,新規,0,2023-09-29,2023-09-29,Ｈｏｔｅｌ１０１　Ｊａｐａｎ　Ｍａｎａｇｅｍｅｎｔ株式会社,,株式会社,東京都,千代田区,霞が関３丁目２番５号,,13,101,1000013,,,,,,,2023-09-29,1,,,,,ホテルワンオーワンジャパンマネジメント,0
1278,6010001238797,新規,0,2023-09-29,2023-09-29,株式会社ロング・タイム・キャピタル,,株式会社,東京都,千代田区,神田錦町２丁目２番地１神田スクエア１１Ｆ,,13,101,1010054,,,,,,,2023-09-29,1,,,,,ロングタイムキャピタル,0
1279,6010001238822,新規,0,2023-09-29,2023-09-29,ＣＦＯテクノロジーズ株式会社,,株式会社,東京都,中央区,日本橋兜町１７－２兜町第６葉山ビル４階,,13,102,1030026,,,,,,,2023-09-29,1,,,,,シーエフオーテクノロジー,0
1282,6010003041786,新規,0,2023-09-29,2023-09-29,合同会社ＹＫＬ　ＥＳＳ２号,,合同会社,東京都,中央区,日本橋浜町２丁目７番１号小田ビル３Ｆ,,13,102,1030007,,,,,,,2023-09-29,1,,,,,ワイケイエルイーエスエスニゴウ,0
1286,6010401177372,新規,0,2023-09-29,2023-09-29,株式会社ヒカルボタン,,株式会社,東京都,港区,赤坂３丁目９番２号Ｎｏ．Ｒ赤坂見附１Ｆ,,13,103,1070052,,,,,,,2023-09-29,1,,,,,ヒカルボタン,0
1287,6010401177430,新規,0,2023-09-29,2023-09-29,ＡＡＫＴグループ株式会社,,株式会社,東京都,港区,赤坂２丁目２３番１号アークヒルズ・フロントタワーＩｎＣｏｎｔｒｏｌ内,,13,103,1070052,,,,,,,2023-09-29,1,,,,,エイエイケイティグループ,0
1288,6010401177439,新規,0,2023-09-29,2023-09-29,株式会社Ｗ‐ＰＬＵＳ,,株式会社,東京都,港区,三田５丁目２番２２号ザ・パークハウス三田ガーデン１２０８,,13,103,1080073,,,,,,,2023-09-29,1,,,,,ダブリュープラス,0
1292,6010601063868,新規,0,2023-09-29,2023-09-29,ホワイトテック株式会社,,株式会社,東京都,墨田区,本所１丁目１番８号,,13,107,1300004,,,,,,,2023-09-29,1,,,,,ホワイトテック,0
1294,6010603010380,新規,0,2023-09-29,2023-09-29,ＭａｌｏｎｅＢａｉｌｅｙ　Ｃｏｎｓｕｌｔｉｎｇ　Ｔｏｋｙｏ合同会社,,合同会社,東京都,江東区,有明３丁目７番２６号有明フロンティアビルＢ棟９階,,13,108,1350063,,,,,,,2023-09-29,1,,,,,マローンベイリーコンサルティングトウキョウ,0
1300,6010901053908,新規,0,2023-09-29,2023-09-29,ＦＳマネジメント株式会社,,株式会社,東京都,世田谷区,経堂５丁目１６番１０号,,13,112,1560052,,,,,,,2023-09-29,1,,,,,エフエスマネジメント,0
1311,6011101104550,新規,0,2023-09-29,2023-09-29,株式会社ＳＫＹＢクリエイト,,株式会社,東京都,新宿区,荒木町１番地４４マガザン荒木町５階,,13,104,1600007,,,,,,,2023-09-29,1,,,,,エスケイワイビークリエイト,0
1313,6011103013535,新規,0,2023-09-29,2023-09-29,合同会社創業アシスト四谷,,合同会社,東京都,新宿区,四谷本塩町１５番１２－１２０４号,,13,104,1600003,,,,,,,2023-09-29,1,,,,,ソウギョウアシストヨツヤ,0
1314,6011201024946,新規,0,2023-09-29,2023-09-29,株式会社ＳｏｃｉａｌＬｏｇｉｓｔｉｃｓ,,株式会社,東京都,中野区,野方２丁目４－１６,,13,114,1650027,,,,,,,2023-09-29,1,,,,,ソウシャルロジスティクス,0
1323,6011501029819,新規,0,2023-09-29,2023-09-29,株式会社ちきゅうのうたげ,,株式会社,東京都,荒川区,西日暮里６丁目６５番１号Ａ棟１階,,13,118,1160013,,,,,,,2023-09-29,1,,,,,チキュウノウタゲ,0
1326,6011701026616,新規,0,2023-09-29,2023-09-29,優能株式会社,,株式会社,東京都,江戸川区,西葛西５丁目７－６ＤＡＯＳＰＡＣＥ西葛西３階３０７号,,13,123,1340088,,,,,,,2023-09-29,1,,,,,ユウノウ,0
1330,6011801043098,新規,0,2023-09-29,2023-09-29,株式会社燦良,,株式会社,東京都,足立区,千住１丁目４番１号芸術センタービル１０階,,13,121,1200034,,,,,,,2023-09-29,1,,,,,サンリョウ,0
1338,6012401041046,新規,0,2023-09-29,2023-09-29,テクノプランニング株式会社,,株式会社,東京都,多摩市,桜ヶ丘１丁目６番地の１３,,13,224,2060013,,,,,,,2023-09-29,1,,,,,テクノプランニング,0
1339,6012403006204,新規,0,2023-09-29,2023-09-29,合同会社ＹＵＭＩ,,合同会社,東京都,調布市,上石原１丁目４番地９号コーポ田中２０１,,13,208,1820035,,,,,,,2023-09-29,1,,,,,ユミ,0
1342,6012801022653,新規,0,2023-09-29,2023-09-29,株式会社コーエー,,株式会社,東京都,国分寺市,南町２丁目１番３６号ＳＧビル３Ｆ,,13,214,1850021,,,,,,,2023-09-29,1,,,,,コーエー,0
1344,6013303006814,新規,0,2023-09-29,2023-09-29,合同会社アクティブ,,合同会社,東京都,豊島区,西池袋３丁目１番１３号西池袋パークフロントビル５階,,13,116,1710021,,,,,,,2023-09-29,1,,,,,アクティブ,0
1345,6013305003520,新規,0,2023-09-29,2023-09-29,一般社団法人シューニャ・アカデミー協会,,その他の設立登記法人,東京都,豊島区,駒込１丁目１０番１３号,,13,116,1700003,,,,,,,2023-09-29,1,,,,,シューニャアカデミーキョウカイ,0
1347,6020001153698,新規,0,2023-09-29,2023-09-29,アートメイクテラス株式会社,,株式会社,神奈川県,横浜市西区,高島２丁目１１番２号スカイメナー横浜５１９,,14,103,2200011,,,,,,,2023-09-29,1,,,,,アートメイクテラス,0
1348,6020001153707,新規,0,2023-09-29,2023-09-29,穂高株式会社,,株式会社,神奈川県,横浜市中区,本牧元町９番１０－１号,,14,104,2310822,,,,,,,2023-09-29,1,,,,,ホダカ,0
1354,6020005016133,新規,0,2023-09-29,2023-09-29,ヒーローズ行政書士法人,,その他の設立登記法人,神奈川県,横浜市保土ケ谷区,星川２丁目１６番１－３１２号,,14,106,2400006,,,,,,,2023-09-29,1,,,,,ヒーローズ,0
1371,6030001156122,新規,0,2023-09-29,2023-09-29,株式会社ＡＣＴ,,株式会社,埼玉県,さいたま市北区,日進町２丁目１３６７番地１レクセルプラザ日進２０７号,,11,102,3310823,,,,,,,2023-09-29,1,,,,,アクト,0
1372,6030001156139,新規,0,2023-09-29,2023-09-29,株式会社中新建装,,株式会社,埼玉県,戸田市,中町１丁目１３番地の１７（パークヒルズＮ２０５号室）,,11,224,3350012,,,,,,,2023-09-29,1,,,,,ナカシンケンソウ,0
1373,6030001156254,新規,0,2023-09-29,2023-09-29,ＴＭＡ　Ｓｔｅｌｌａｒ　Ｇｒｏｕｐ株式会社,,株式会社,埼玉県,川口市,並木３丁目５番５号,,11,203,3320034,,,,,,,2023-09-29,1,,,,,ティーエムエーステラーグループ,0
1377,6030003022553,新規,0,2023-09-29,2023-09-29,Ｋｅｉ＆Ｃｈｉａ　Ｊｏｉｎｔ　Ｃｅｎｔｅｒ合同会社,,合同会社,埼玉県,さいたま市中央区,上落合３丁目１３番２６号,,11,105,3380001,,,,,,,2023-09-29,1,,,,,ケイアンドチャージョイントセンター,0
1378,6030003022652,新規,0,2023-09-29,2023-09-29,合同会社ＬＢＰＡ,,合同会社,埼玉県,越谷市,越ヶ谷１丁目１３番２０号－３０３,,11,222,3430813,,,,,,,2023-09-29,1,,,,,エルビーピーエー,0
1385,6040001130290,新規,0,2023-09-29,2023-09-29,株式会社Ｃｒｅａｔｅ　Ｊａｐａｎ,,株式会社,千葉県,市原市,白金町５丁目２８番地４－１０６,,12,219,2900059,,,,,,,2023-09-29,1,,,,,クリエイトジャパン,0
1386,6040001130299,新規,0,2023-09-29,2023-09-29,株式会社ＺＥＲＯ‐ＯＮＥ,,株式会社,千葉県,千葉市美浜区,中瀬１丁目３番地幕張テクノガーデンＣＢ棟３階ＭＢＰ,,12,106,2610023,,,,,,,2023-09-29,1,,,,,ゼロワン,0
1395,6050001053557,新規,0,2023-09-29,2023-09-29,株式会社みやび,,株式会社,茨城県,水戸市,大工町１丁目２番２―６０４号,,08,201,3100031,,,,,,,2023-09-29,1,,,,,ミヤビ,0
1397,6050003007783,新規,0,2023-09-29,2023-09-29,合同会社日本ワールド,,合同会社,茨城県,坂東市,矢作３１８３－３６,,08,228,3060624,,,,,,,2023-09-29,1,,,,,ニホンワールド,0
1403,6070003005109,新規,0,2023-09-29,2023-09-29,合同会社リープ,,合同会社,群馬県,前橋市,岩神町１丁目５－１４,,10,201,3710035,,,,,,,2023-09-29,1,,,,,リープ,0
1405,6080401026738,新規,0,2023-09-29,2023-09-29,三好人形株式会社,,株式会社,静岡県,袋井市,葵町２丁目１番地の１２,,22,216,4370016,,,,,,,2023-09-29,1,,,,,ミヨシニンギョウ,0
1419,6120001258198,新規,0,2023-09-29,2023-09-29,株式会社片山美装,,株式会社,大阪府,大阪市東淀川区,淡路４丁目１番２６号,,27,114,5330032,,,,,,,2023-09-29,1,,,,,カタヤマビソウ,0
1420,6120001258322,新規,0,2023-09-29,2023-09-29,株式会社翔永,,株式会社,大阪府,大阪市東住吉区,田辺２丁目７番１６号,,27,121,5460031,,,,,,,2023-09-29,1,,,,,ショウエイ,0
1421,6120001258405,新規,0,2023-09-29,2023-09-29,株式会社ネクストマージ,,株式会社,大阪府,大阪市西区,新町１丁目２番１３号,,27,106,5500013,,,,,,,2023-09-29,1,,,,,ネクストマージ,0
1422,6120001258454,新規,0,2023-09-29,2023-09-29,株式会社Ｎ２,,株式会社,大阪府,大阪市西成区,松１丁目４番７号,,27,122,5570034,,,,,,,2023-09-29,1,,,,,エヌツー,0
1423,6120001258462,新規,0,2023-09-29,2023-09-29,株式会社ＨｉｇｈＰｒｏｐ,,株式会社,大阪府,守口市,佐太中町１丁目９番２０号,,27,209,5700002,,,,,,,2023-09-29,1,,,,,ハイプロップ,0
1424,6120001258487,新規,0,2023-09-29,2023-09-29,株式会社一輪,,株式会社,大阪府,大阪市西成区,松１丁目５番２７号,,27,122,5570034,,,,,,,2023-09-29,1,,,,,イチリン,0
1426,6120005023879,新規,0,2023-09-29,2023-09-29,弁護士法人ＧＶＡ国際法律事務所,,その他の設立登記法人,大阪府,大阪市中央区,伏見町３丁目２番４号淀屋橋戸田ビル６階,,27,128,5410044,,,,,,,2023-09-29,1,,,,,ジーヴァコクサイホウリツジムショ,0
1431,6120901048095,新規,0,2023-09-29,2023-09-29,デルトカーズ株式会社,,株式会社,大阪府,豊中市,東豊中町５丁目２１番３３号,,27,203,5600003,,,,,,,2023-09-29,1,,,,,デルトカーズ,0
1433,6122003002674,新規,0,2023-09-29,2023-09-29,合同会社ＵＫ,,合同会社,大阪府,東大阪市,長堂１丁目３番２０号,,27,227,5770056,,,,,,,2023-09-29,1,,,,,ユーケイ,0
1441,6130001075304,新規,0,2023-09-29,2023-09-29,Ａｐｉｃ株式会社,,株式会社,京都府,京都市下京区,七条通油小路東入大黒町２２７番地第２キョートビル４０２,,26,106,6008223,,,,,,,2023-09-29,1,,,,,エピック,0
1442,6130001075329,新規,0,2023-09-29,2023-09-29,株式会社ｈｉｎｏｄｅ,,株式会社,京都府,京都市西京区,御陵北山町３０番地１３,,26,111,6158253,,,,,,,2023-09-29,1,,,,,ヒノデ,0
1444,6130005016881,新規,0,2023-09-29,2023-09-29,特定非営利活動法人山家みらい,,その他の設立登記法人,京都府,綾部市,鷹栖町豊後田３２番地（綾部市基幹集落センター内）,,26,203,6291263,,,,,,,2023-09-29,1,,,,,ヤマガミライ,0
1448,6140001131774,新規,0,2023-09-29,2023-09-29,ポーアイ投資サービス株式会社,,株式会社,兵庫県,神戸市中央区,港島中町６丁目８番２,,28,110,6500046,,,,,,,2023-09-29,1,,,,,,0
1453,6160001025363,新規,0,2023-09-29,2023-09-29,株式会社シュピーゲルフルス,,株式会社,滋賀県,栗東市,小柿４丁目１３番１１－２０１号,,25,208,5203024,,,,,,,2023-09-29,1,,,,,シュピーゲルフルス,0
1462,6180001158211,新規,0,2023-09-29,2023-09-29,Ｎ’ｚＣＲＥＷ株式会社,,株式会社,愛知県,西春日井郡豊山町,字青山１６３７番地２フレグランス５６－１０１号室,,23,342,4800200,,,,,,,2023-09-29,1,,,,,エヌズクルー,0
1463,6180001158236,新規,0,2023-09-29,2023-09-29,ＴＯＲＡＬ株式会社,,株式会社,愛知県,一宮市,千秋町浮野字冠羅４３番地２,,23,203,4910806,,,,,,,2023-09-29,1,,,,,トラル,0
1468,6180301037858,新規,0,2023-09-29,2023-09-29,ペインターネット株式会社,,株式会社,愛知県,豊橋市,大村町字大賀里６番地,,23,201,4400081,,,,,,,2023-09-29,1,,,,,ペインターネット,0
1469,6180303005846,新規,0,2023-09-29,2023-09-29,Ｔ．Ｋサービス合同会社,,合同会社,愛知県,安城市,篠目町作野５番地１,,23,212,4460073,,,,,,,2023-09-29,1,,,,,ティケィサービス,0
1472,6200001041760,新規,0,2023-09-29,2023-09-29,株式会社土岐ぶどうの森,,株式会社,岐阜県,土岐市,泉町河合１２２５番地１,,21,212,5095101,,,,,,,2023-09-29,1,,,,,トキブドウノモリ,0
1481,6240003006337,新規,0,2023-09-29,2023-09-29,合同会社ピュアリンク,,合同会社,広島県,広島市中区,吉島町５番２１－３０７号,,34,101,7300821,,,,,,,2023-09-29,1,,,,,ピュアリンク,0
1485,6290001103189,新規,0,2023-09-29,2023-09-29,株式会社北村商会,,株式会社,福岡県,久留米市,三潴町福光２８９番地１,,40,203,8300114,,,,,,,2023-09-29,1,,,,,キタムラショウカイ,0
1486,6290001103197,新規,0,2023-09-29,2023-09-29,農業法人ＳＨＩＮＧＲＥＥＮ株式会社,,株式会社,福岡県,久留米市,田主丸町石垣９２４番地１,,40,203,8391212,,,,,,,2023-09-29,1,,,,,ノウギョウホウジンシングリーン,0
1489,6310003004647,新規,0,2023-09-29,2023-09-29,合同会社ＩＭＧ２７,,合同会社,長崎県,佐世保市,横尾町１７００番地８,,42,202,8570018,,,,,,,2023-09-29,1,,,,,アイエムジーニジュウナナ,0
1491,6340003004264,新規,0,2023-09-29,2023-09-29,合同会社ＫＡＲＩＹＡ,,合同会社,鹿児島県,肝属郡東串良町,池之原２７０２番地４５,,46,482,8931612,,,,,,,2023-09-29,1,,,,,カリヤ,0
1493,6350001018587,新規,0,2023-09-29,2023-09-29,株式会社シャインフード,,株式会社,宮崎県,宮崎市,橘通東４丁目５番７号,,45,201,8800805,,,,,,,2023-09-29,1,,,,,シャインフード,0
1497,6370001050456,新規,0,2023-09-29,2023-09-29,株式会社Ａｍａｚｉｎｇ,,株式会社,宮城県,仙台市青葉区,国分町３丁目９番９－３０３号,,04,101,9800803,,,,,,,2023-09-29,1,,,,,アメージング,0
1504,6420001018423,新規,0,2023-09-29,2023-09-29,株式会社高橋,,株式会社,青森県,青森市,大字新城字平岡２６０番地６レジデンス新城Ａ－１０２,,02,201,0380042,,,,,,,2023-09-29,1,,,,,タカハシ,0
1510,6430001090066,新規,0,2023-09-29,2023-09-29,株式会社ｎｏｏｋ,,株式会社,北海道,札幌市手稲区,前田四条１４丁目４番１６号,,01,109,0060814,,,,,,,2023-09-29,1,,,,,ノォーク,0
1511,6430003015483,新規,0,2023-09-29,2023-09-29,ＯＭＢ合同会社,,合同会社,北海道,虻田郡豊浦町,字東雲町２８番地１,,01,571,0495411,,,,,,,2023-09-29,1,,,,,オーエムビー,0
1513,6480001012230,新規,0,2023-09-29,2023-09-29,ＬＥＤ’Ｓ阿南株式会社,,株式会社,徳島県,阿南市,那賀川町西原５６３番地,,36,204,7791232,,,,,,,2023-09-29,1,,,,,レッズアナン,0
1516,6700150120843,新規,0,2023-09-29,2023-09-29,Ｓｐｒｉｎｇ　Ｆｅｓｔｉｖａｌ　Ｊａｐａｎ,,その他,東京都,豊島区,西巣鴨１丁目２－１８,,13,116,1700001,,,,,,,2023-09-29,1,,,,,スプリングフェスティバルジャパン,0
1525,7010001238771,新規,0,2023-09-29,2023-09-29,株式会社ＲＳＴ,,株式会社,東京都,千代田区,神田猿楽町２丁目１番１６号シエルブルー猿楽町３階,,13,101,1010064,,,,,,,2023-09-29,1,,,,,アールエスティ,0
1526,7010001238796,新規,0,2023-09-29,2023-09-29,株式会社８４５,,株式会社,東京都,千代田区,一番町２３番地２番町ロイヤルコート４０５,,13,101,1020082,,,,,,,2023-09-29,1,,,,,ハシゴ,0
1527,7010001238805,新規,0,2023-09-29,2023-09-29,株式会社天ぷら浅沼,,株式会社,東京都,中央区,日本橋２丁目１０番１１号Ｏｒｄｉｎ日本橋ビル６Ｆ,,13,102,1030027,,,,,,,2023-09-29,1,,,,,テンプラアサヌマ,0
1528,7010001238838,新規,0,2023-09-29,2023-09-29,株式会社カノン,,株式会社,東京都,中央区,銀座６丁目６番１号銀座風月堂ビル５Ｆ,,13,102,1040061,,,,,,,2023-09-29,1,,,,,カノン,0
1529,7010003041777,新規,0,2023-09-29,2023-09-29,合同会社宮古伊良部島ホテルプロジェクト,,合同会社,東京都,千代田区,霞が関３丁目２番１号,,13,101,1000013,,,,,,,2023-09-29,1,,,,,ミヤコイラブジマホテルプロジェクト,0
1530,7010003041785,新規,0,2023-09-29,2023-09-29,合同会社ＹＫＬ　ＥＳＳ１号,,合同会社,東京都,中央区,日本橋浜町２丁目７番１号小田ビル３Ｆ,,13,102,1030007,,,,,,,2023-09-29,1,,,,,ワイケイエルイーエスエスイチゴウ,0
1531,7010003041793,新規,0,2023-09-29,2023-09-29,合同会社ＢｒｉＬＬｉａｎｔ,,合同会社,東京都,中央区,日本橋室町１丁目１１番１２号日本橋水野ビル７階,,13,102,1030022,,,,,,,2023-09-29,1,,,,,ブリリアント,0
1552,7010801034370,新規,0,2023-09-29,2023-09-29,豊溢株式会社,,株式会社,東京都,大田区,東海３丁目７番３号,,13,111,1430001,,,,,,,2023-09-29,1,,,,,ホウイキ,0
1556,7010901053907,新規,0,2023-09-29,2023-09-29,株式会社レモネコ,,株式会社,東京都,世田谷区,上北沢４丁目１９番１－２１３号,,13,112,1560057,,,,,,,2023-09-29,1,,,,,レモネコ,0
1574,7011501029818,新規,0,2023-09-29,2023-09-29,株式会社Ｊ‐ＮＥＴシステム,,株式会社,東京都,北区,田端新町３丁目３１番７号しんまちマンション１階,,13,117,1140012,,,,,,,2023-09-29,1,,,,,ジェイネットシステム,0
1578,7011701026615,新規,0,2023-09-29,2023-09-29,株式会社リアークス,,株式会社,東京都,江戸川区,西葛西５丁目４番１２号レジデンスＩＩＩ６０２,00132084,13,123,1340088,,,,,,,2023-09-29,1,,,,,リアークス,0
1579,7011801043097,新規,0,2023-09-29,2023-09-29,株式会社Ｙ’ｓカンパニー,,株式会社,東京都,葛飾区,立石４丁目２番１１号,,13,122,1240012,,,,,,,2023-09-29,1,,,,,ワイズカンパニー,0
1583,7012401041045,新規,0,2023-09-29,2023-09-29,株式会社ＡＯ　ＰＲＯ,,株式会社,東京都,府中市,府中町２丁目７番地３,,13,206,1830055,,,,,,,2023-09-29,1,,,,,エーオープロ,0
1603,7021001080287,新規,0,2023-09-29,2023-09-29,株式会社エー・スリー,,株式会社,神奈川県,平塚市,小鍋島１２４４－１,,14,203,2540004,,,,,,,2023-09-29,1,,,,,エースリー,0
1609,7021003013633,新規,0,2023-09-29,2023-09-29,合同会社Ｃｏｃｃｏｌｅ,,合同会社,神奈川県,相模原市南区,相模大野４丁目５番１１－３０８号,,14,153,2520303,,,,,,,2023-09-29,1,,,,,コッコレ,0
1617,7030001156105,新規,0,2023-09-29,2023-09-29,株式会社ＯＮＺＡＫＡ,,株式会社,埼玉県,さいたま市南区,南浦和２丁目３０番１６－２号,,11,108,3360017,,,,,,,2023-09-29,1,,,,,,0
1618,7030001156113,新規,0,2023-09-29,2023-09-29,株式会社とちたま,,株式会社,埼玉県,さいたま市中央区,上落合７丁目６－４８テート大宮２０２号,,11,105,3380001,,,,,,,2023-09-29,1,,,,,トチタマ,0
1619,7030001156344,新規,0,2023-09-29,2023-09-29,株式会社アインス,,株式会社,埼玉県,越谷市,南越谷４丁目１９番２５号フローリア市川１Ｆ,,11,222,3430845,,,,,,,2023-09-29,1,,,,,アインス,0
1624,7030003022585,新規,0,2023-09-29,2023-09-29,合同会社Ｓｕｎｋｙｕ．,,合同会社,埼玉県,本庄市,万年寺３丁目２２番４号,,11,211,3670064,,,,,,,2023-09-29,1,,,,,サンキュウ,0
1632,7040001130281,新規,0,2023-09-29,2023-09-29,三興電創株式会社,,株式会社,千葉県,八千代市,吉橋１１６０番地の２,,12,221,2760047,,,,,,,2023-09-29,1,,,,,サンコウデンソウ,0
1635,7040003023434,新規,0,2023-09-29,2023-09-29,合同会社ｍｏｉｃｈｉ,,合同会社,千葉県,山武郡横芝光町,栗山１６１－９,,12,410,2891733,,,,,,,2023-09-29,1,,,,,モイチ,0
1637,7050001053556,新規,0,2023-09-29,2023-09-29,株式会社ファーストガレージ,,株式会社,茨城県,下妻市,村岡乙１６６番地３３,,08,210,3040824,,,,,,,2023-09-29,1,,,,,ファーストガレージ,0
1642,7070001040908,新規,0,2023-09-29,2023-09-29,株式会社ナスカ,,株式会社,群馬県,邑楽郡大泉町,大字寄木戸１２０番地の２,,10,524,3700535,,,,,,,2023-09-29,1,,,,,ナスカ,0
1646,7110003005169,新規,0,2023-09-29,2023-09-29,合同会社中越,,合同会社,新潟県,三条市,東三条２丁目６番３３ー１号,,15,204,9550047,,,,,,,2023-09-29,1,,,,,チュウエツ,0
1652,7120001258255,新規,0,2023-09-29,2023-09-29,株式会社Ｋｅｙ　ｏｆ　Ｈｏｍｅ,,株式会社,大阪府,大阪市東淀川区,東中島２丁目８－８ワークステーション新大阪２０１,,27,114,5330033,,,,,,,2023-09-29,1,,,,,キーオブホーム,0
1653,7120001258263,新規,0,2023-09-29,2023-09-29,興成株式会社,,株式会社,大阪府,大阪市西区,靭本町３－１０－２４兆豊阿波座ビル５０１号室,,27,106,5500000,,,,,,,2023-09-29,1,,,,,オキナリ,0
1654,7120001258404,新規,0,2023-09-29,2023-09-29,ＣＥＳバンク株式会社,,株式会社,大阪府,大阪市西区,西本町１丁目７番１号,,27,106,5500005,,,,,,,2023-09-29,1,,,,,シーイーエスバンク,0
1658,7120003024977,新規,0,2023-09-29,2023-09-29,四つ葉合同会社,,合同会社,大阪府,大阪市中央区,島町２丁目２番３号サンハイム天満橋３１１号室,,27,128,5400034,,,,,,,2023-09-29,1,,,,,ヨツバ,0
1661,7120005023903,新規,0,2023-09-29,2023-09-29,インマヌエル大阪教会,,その他の設立登記法人,大阪府,大阪市淀川区,新北野２丁目９番７号,,27,123,5320025,,,,,,,2023-09-29,1,,,,,インマヌエルオオサカキョウカイ,0
1666,7120103005464,新規,0,2023-09-29,2023-09-29,Ｒ＆ｔｒａｄｅ合同会社,,合同会社,大阪府,堺市西区,菱木３丁２４４０－１,,27,144,5938315,,,,,,,2023-09-29,1,,,,,アールアンドトレード,0
1678,7140001131765,新規,0,2023-09-29,2023-09-29,株式会社チューズ,,株式会社,兵庫県,神戸市中央区,宮本通３丁目１番３９号,,28,110,6510063,,,,,,,2023-09-29,1,,,,,チューズ,0
1693,7180003025796,新規,0,2023-09-29,2023-09-29,合同会社Ｌｉ．Ｉ’ｍ,,合同会社,愛知県,名古屋市中村区,太閤１丁目２０番１０号名古屋プレミアム医療モール太閤４階,,23,105,4530801,,,,,,,2023-09-29,1,,,,,リアイム,0
1699,7200005013524,新規,0,2023-09-29,2023-09-29,特定非営利活動法人うっどああと,,その他の設立登記法人,岐阜県,多治見市,笠原町３５５５番地の１,,21,204,5070901,,,,,,,2023-09-29,1,,,,,ウッドアアト,0
1700,7210001019482,新規,0,2023-09-29,2023-09-29,ＧｒｅｅｎＰｒｉｍｅ株式会社,,株式会社,福井県,坂井市,丸岡町小黒第７４号４３番地,,18,210,9100315,,,,,,,2023-09-29,1,,,,,グリーンプライム,0
1701,7210003001703,新規,0,2023-09-29,2023-09-29,合同会社ｖｕｅ,,合同会社,福井県,福井市,順化１丁目１５番２９号,,18,201,9100023,,,,,,,2023-09-29,1,,,,,ビュー,0
1704,7240001062174,新規,0,2023-09-29,2023-09-29,株式会社析学,,株式会社,広島県,広島市佐伯区,五日市中央６丁目１－６７－１１０６,,34,108,7315128,,,,,,,2023-09-29,1,,,,,セキガク,0
1705,7240001062182,新規,0,2023-09-29,2023-09-29,合田開発株式会社,,株式会社,広島県,広島市西区,鈴が峰町２２番９号,,34,104,7330852,,,,,,,2023-09-29,1,,,,,ゴウダカイハツ,0
1716,7290001103171,新規,0,2023-09-29,2023-09-29,株式会社ＭｉｙａＳｙＲｏ,,株式会社,福岡県,福岡市早良区,昭代１丁目５番７号エリーナハイツ西新南Ｉ－２０２号,00132077,40,137,8140012,,,,,,,2023-09-29,1,,,,,ミヤシロ,0
1717,7290001103188,新規,0,2023-09-29,2023-09-29,ひなたエステート株式会社,,株式会社,福岡県,福岡市南区,井尻５丁目２６番５０号アートビルＩＩ－１０１号,00132086,40,134,8111302,,,,,,,2023-09-29,1,,,,,ヒナタエステート,0
1719,7290003014409,新規,0,2023-09-29,2023-09-29,合同会社いろ葉,,合同会社,福岡県,糟屋郡宇美町,とびたけ３丁目１２番５号,,40,341,8112107,,,,,,,2023-09-29,1,,,,,イロハ,0
1720,7290003014417,新規,0,2023-09-29,2023-09-29,Ｍｏａｎａ合同会社,,合同会社,福岡県,糸島市,志摩津和崎６７番地,,40,230,8191311,,,,,,,2023-09-29,1,,,,,モアナ,0
1729,7310001018623,新規,0,2023-09-29,2023-09-29,株式会社花樹園,,株式会社,長崎県,島原市,中安徳町丁４３８８番地,,42,203,8550875,,,,,,,2023-09-29,1,,,,,カジュエン,0
1730,7310003004646,新規,0,2023-09-29,2023-09-29,合同会社グランドアーク,,合同会社,長崎県,大村市,久原１丁目５７０番地２,,42,205,8560835,,,,,,,2023-09-29,1,,,,,グランドアーク,0
1732,7320001020025,新規,0,2023-09-29,2023-09-29,株式会社Ｂｅｐｐｕ　Ｊａｒｄｉｎ,,株式会社,大分県,別府市,光町２０番３０号,,44,202,8740930,,,,,,,2023-09-29,1,,,,,ベップジャルダン,0
1737,7360001032603,新規,0,2023-09-29,2023-09-29,株式会社ＤＡＩＢＡＮＧ,,株式会社,沖縄県,宮古島市,平良字下里１４７０番地１３,,47,214,9060013,,,,,,,2023-09-29,1,,,,,ダイバン,0
1738,7360005006909,新規,0,2023-09-29,2023-09-29,一般社団法人あいのいえ,,その他の設立登記法人,沖縄県,中頭郡読谷村,字渡慶次１１９９番地３,,47,324,9040326,,,,,,,2023-09-29,1,,,,,アイノイエ,0
1743,7370005010694,新規,0,2023-09-29,2023-09-29,社会福祉法人あおぞら会,,その他の設立登記法人,宮城県,仙台市泉区,東黒松１９番３４号,,04,105,9818005,,,,,,,2023-09-29,1,,,,,アオゾラカイ,0
1750,7390005009033,新規,0,2023-09-29,2023-09-29,一般社団法人ＡＯーＺ,,その他の設立登記法人,山形県,山形市,蔵王成沢４５番地１,,06,201,9902334,,,,,,,2023-09-29,1,,,,,アオーズ,0
1756,7430001090073,新規,0,2023-09-29,2023-09-29,株式会社Ｉｎｎｏｃｅｎｔ,,株式会社,北海道,札幌市中央区,北一条西２１丁目１番５号サンコート表参道９０２号室,,01,101,0640821,,,,,,,2023-09-29,1,,,,,イノセント,0
1759,7430003015482,新規,0,2023-09-29,2023-09-29,セイムボート合同会社,,合同会社,北海道,札幌市白石区,栄通１９丁目７番１９号,,01,104,0030021,,,,,,,2023-09-29,1,,,,,セイムボート,0
1767,7700150120842,新規,0,2023-09-29,2023-09-29,滋賀県牛乳流通改善協会,,その他,滋賀県,大津市,あかね町３番１号日本酪農協同株式会社　滋賀工場内,,25,201,5200003,,,,,,,2023-09-29,1,,,,,シガケンギュウニュウリュウツウカイゼンキョウカイ,0
1772,8010001238754,新規,0,2023-09-29,2023-09-29,株式会社エクスポーロ,,株式会社,東京都,中央区,八丁堀３丁目１４番４号直平ビル２階,,13,102,1040032,,,,,,,2023-09-29,1,,,,,エクスポーロ,0
1773,8010001238795,新規,0,2023-09-29,2023-09-29,エステートライフ東京株式会社,,株式会社,東京都,中央区,日本橋３丁目２番１４号新槇町ビル別館第一１階,,13,102,1030027,,,,,,,2023-09-29,1,,,,,エステートライフトウキョウ,0
1774,8010001238812,新規,0,2023-09-29,2023-09-29,株式会社わかば総合コンサルティング,,株式会社,東京都,中央区,日本橋箱崎町３番４号,,13,102,1030015,,,,,,,2023-09-29,1,,,,,ワカバソウゴウコンサルティング,0
1776,8010003041792,新規,0,2023-09-29,2023-09-29,富通亜太合同会社,,合同会社,東京都,中央区,晴海１丁目６番１－４６０９号,,13,102,1040053,,,,,,,2023-09-29,1,,,,,フツウアタイ,0
1789,8010401177412,新規,0,2023-09-29,2023-09-29,株式会社アシスト,,株式会社,東京都,港区,芝４丁目７番６－３０５号,,13,103,1080014,,,,,,,2023-09-29,1,,,,,アシスト,0
1792,8010403030998,新規,0,2023-09-29,2023-09-29,Ｌｅ’ｖｉｅ　ｍｅｄｉｃａｌ合同会社,,合同会社,東京都,港区,六本木５丁目１６番４号ＺＯＮＥ麻布六本木ビル８Ｆ,,13,103,1060032,,,,,,,2023-09-29,1,,,,,ラヴィメディカル,0
1793,8010403031030,新規,0,2023-09-29,2023-09-29,Ｆｒｅｅ．Ａｃｔ合同会社,,合同会社,東京都,港区,西新橋１丁目６－１２－９０２,,13,103,1050003,,,,,,,2023-09-29,1,,,,,フリーアクト,0
1796,8010801034361,新規,0,2023-09-29,2023-09-29,和慶商事株式会社,,株式会社,東京都,大田区,羽田４丁目１０－４,,13,111,1440043,,,,,,,2023-09-29,1,,,,,ワケイショウジ,0
1797,8010801034386,新規,0,2023-09-29,2023-09-29,株式会社ＳＩＸ　ＬＡＢＯＲ,,株式会社,東京都,大田区,北千束２丁目４－３富士見荘２５,,13,111,1450062,,,,,,,2023-09-29,1,,,,,シックスレイバー,0
1800,8010903008478,新規,0,2023-09-29,2023-09-29,ＬＵＣＩＳ合同会社,,合同会社,東京都,世田谷区,奥沢３丁目３４番５号,,13,112,1580083,,,,,,,2023-09-29,1,,,,,ルーキス,0
1807,8011001157151,新規,0,2023-09-29,2023-09-29,株式会社ＳｕｉＳｕｉ,,株式会社,東京都,渋谷区,道玄坂１丁目１２番１号,,13,113,1500043,,,,,,,2023-09-29,1,,,,,スイスイ,0
1808,8011001157226,新規,0,2023-09-29,2023-09-29,株式会社Ａｄｍｏｔｔｏコンサルティング,,株式会社,東京都,渋谷区,神泉町２０－２１クロスシー渋谷神泉ビル６－２,,13,113,1500045,,,,,,,2023-09-29,1,,,,,アドモットコンサルティング,0
1809,8011001157259,新規,0,2023-09-29,2023-09-29,ライフワンズソリューションズ株式会社,,株式会社,東京都,目黒区,青葉台３丁目１０番９号,,13,110,1530042,,,,,,,2023-09-29,1,,,,,ライフワンズソリューションズ,0
1813,8011101104540,新規,0,2023-09-29,2023-09-29,株式会社ＢＵＬＬＥＴ,,株式会社,東京都,新宿区,西新宿７丁目７番地３３号新銘ビル５階,,13,104,1600023,,,,,,,2023-09-29,1,,,,,バレット,0
1816,8011103013533,新規,0,2023-09-29,2023-09-29,合同会社ｌａｂｏｒｅｍｕｓ,,合同会社,東京都,新宿区,西新宿３丁目３番１３号西新宿水間ビル６階,,13,104,1600023,,,,,,,2023-09-29,1,,,,,ラボレムス,0
1819,8011503005782,新規,0,2023-09-29,2023-09-29,ＣＡＬＥＸＯ　ＪＡＰＡＮ合同会社,,合同会社,東京都,荒川区,南千住８丁目６番３－５１６号,,13,118,1160003,,,,,,,2023-09-29,1,,,,,カレクソジャパン,0
1820,8011601027150,新規,0,2023-09-29,2023-09-29,株式会社Ｒｅ．Ｕｓｅ　Ｂｒａｎｄｉｎｇ,,株式会社,東京都,練馬区,大泉町６丁目８－１０プラザ大泉学園２０７,,13,120,1780062,,,,,,,2023-09-29,1,,,,,リユースブランディング,0
1828,8011801043088,新規,0,2023-09-29,2023-09-29,久道株式会社,,株式会社,東京都,足立区,西新井２丁目４番６号Ａｎｄｐｌｕｓ西新井ビル,,13,121,1230841,,,,,,,2023-09-29,1,,,,,キュウドウ,0
1839,8020001153663,新規,0,2023-09-29,2023-09-29,Ｏｎｅ　Ｃａｐｉｔａｌ株式会社,,株式会社,神奈川県,川崎市高津区,末長１丁目８番５２－３０８号,,14,134,2130013,,,,,,,2023-09-29,1,,,,,ワンキャピタル,0
1847,8021001080286,新規,0,2023-09-29,2023-09-29,株式会社凛,,株式会社,神奈川県,横須賀市,芦名２丁目１８番２４号,00132083,14,201,2400104,,,,,,,2023-09-29,1,,,,,リン,0
1860,8030001156277,新規,0,2023-09-29,2023-09-29,株式会社翔竹,,株式会社,埼玉県,熊谷市,新堀新田５３８番地２１,,11,202,3600842,,,,,,,2023-09-29,1,,,,,ショウチク,0
1861,8030001156327,新規,0,2023-09-29,2023-09-29,Ｔ＆Ｗ株式会社,,株式会社,埼玉県,志木市,館１丁目１番８号３０１－Ｂ,,11,228,3530006,,,,,,,2023-09-29,1,,,,,ティーアンドダブリュー,0
1869,8040001130248,新規,0,2023-09-29,2023-09-29,株式会社ｋｉｎａ,,株式会社,千葉県,市原市,五井４９５７番地５,,12,219,2900056,,,,,,,2023-09-29,1,,,,,キナ,0
1870,8040001130297,新規,0,2023-09-29,2023-09-29,株式会社ＳＬＯＷＬＹ,,株式会社,千葉県,長生郡一宮町,一宮１０２１５番地,,12,421,2994301,,,,,,,2023-09-29,1,,,,,スロウリ,0
1879,8050001053555,新規,0,2023-09-29,2023-09-29,栄株式会社,,株式会社,茨城県,取手市,東３丁目１番１７－２０５号,,08,217,3020005,,,,,,,2023-09-29,1,,,,,サカエ,0
1883,8060001036385,新規,0,2023-09-29,2023-09-29,Ｆｏｒｅｓｔｒｙ　Ｊａｐａｎ株式会社,,株式会社,栃木県,芳賀郡市貝町,大字市塙２３０１番地３,,09,344,3213423,,,,,,,2023-09-29,1,,,,,フォレストリィジャパン,0
1890,8070001040907,新規,0,2023-09-29,2023-09-29,株式会社ＨＲＪ,,株式会社,群馬県,館林市,西美園町７４３番地の９２,,10,207,3740038,,,,,,,2023-09-29,1,,,,,エイチアールジェイ,0
1905,8120001258270,新規,0,2023-09-29,2023-09-29,ＴＵＬＡＮＤＵＴ　ＪＡＰＡＮ株式会社,,株式会社,大阪府,大阪市阿倍野区,丸山通１丁目５番１号,,27,119,5450042,,,,,,,2023-09-29,1,,,,,トゥーランドジャパン,0
1906,8120001258312,新規,0,2023-09-29,2023-09-29,株式会社ＺＥＮ,,株式会社,大阪府,大阪市生野区,巽南５丁目１７番３８号,00132087,27,116,5440015,,,,,,,2023-09-29,1,,,,,ゼン,0
1907,8120001258329,新規,0,2023-09-29,2023-09-29,龍騰株式会社,,株式会社,大阪府,大阪市西成区,鶴見橋１丁目３番６号,,27,122,5570031,,,,,,,2023-09-29,1,,,,,リュウトウ,0
1908,8120001258386,新規,0,2023-09-29,2023-09-29,株式会社未来,,株式会社,大阪府,大阪市淀川区,西中島６丁目２番３号－７０２,,27,123,5320011,,,,,,,2023-09-29,1,,,,,ミライ,0
1909,8120001258403,新規,0,2023-09-29,2023-09-29,株式会社かたづけ関西,,株式会社,大阪府,大阪市北区,南森町１丁目３番９号,,27,127,5300054,,,,,,,2023-09-29,1,,,,,カタヅケカンサイ,0
1910,8120001258436,新規,0,2023-09-29,2023-09-29,株式会社ｃｏＲｏ,,株式会社,大阪府,大阪市東淀川区,東中島１丁目２０番１９号新大阪ヒカリビル８０３号室,,27,114,5330033,,,,,,,2023-09-29,1,,,,,コロ,0
1911,8120001258527,新規,0,2023-09-29,2023-09-29,株式会社メディプランホールディングス,,株式会社,大阪府,大阪市中央区,北浜３丁目２番２４号,,27,128,5410041,,,,,,,2023-09-29,1,,,,,メディプランホールディングス,0
1912,8120003024984,新規,0,2023-09-29,2023-09-29,合同会社Ｐａｒｔｅ,,合同会社,大阪府,大阪市北区,曾根崎新地１丁目９－２５玉美ビル４０１,,27,127,5300002,,,,,,,2023-09-29,1,,,,,パルテ,0
1917,8120101068289,新規,0,2023-09-29,2023-09-29,株式会社Ｇ‐ｃｏｎｎｅｃｔ,,株式会社,大阪府,堺市堺区,南田出井町１丁４番１７－２０２号,,27,141,5900015,,,,,,,2023-09-29,1,,,,,ジーコネクト,0
1918,8120103005455,新規,0,2023-09-29,2023-09-29,合同会社スピネル,,合同会社,大阪府,大阪狭山市,半田３丁目３６１番地の１（７１２号）,,27,231,5890011,,,,,,,2023-09-29,1,,,,,スピネル,0
1919,8120105009768,新規,0,2023-09-29,2023-09-29,特定非営利活動法人ＳＵＭＩＫＡすみか,,その他の設立登記法人,大阪府,藤井寺市,西古室１丁目２１番４０号,,27,226,5830018,,,,,,,2023-09-29,1,,,,,スミカ,0
1929,8130001075277,新規,0,2023-09-29,2023-09-29,株式会社ＨＲホールディングス,,株式会社,京都府,福知山市,字天田３９１番地の乙,,26,201,6200000,,,,,,,2023-09-29,1,,,,,エイチアールホールディングス,0
1930,8130001075310,新規,0,2023-09-29,2023-09-29,株式会社京都モトイデザイン,,株式会社,京都府,京都市下京区,室町通仏光寺上る白楽天町５１９番地ＭＵＲＯＭＡＣＨＩＰＬＡＣＥ２０７号室,,26,106,6008422,,,,,,,2023-09-29,1,,,,,キョウトモトイデザイン,0
1936,8130005016888,新規,0,2023-09-29,2023-09-29,特定非営利活動法人と・な・りの愛,,その他の設立登記法人,京都府,舞鶴市,字浜７９１－２Ｆ,,26,202,6250036,,,,,,,2023-09-29,1,,,,,トナリノアイ,0
1944,8140001131772,新規,0,2023-09-29,2023-09-29,株式会社コプロホールディングス,,株式会社,兵庫県,高砂市,荒井町新浜２丁目１１番２５号,,28,216,6760008,,,,,,,2023-09-29,1,,,,,コプロホールディングス,0
1949,8150005009510,新規,0,2023-09-29,2023-09-29,ＪＡＰＡＮ人材支援協同組合,,その他の設立登記法人,奈良県,磯城郡田原本町,大字阪手６５９番地２,,29,363,6360247,,,,,,,2023-09-29,1,,,,,ジャパンジンザイシエン,0
1958,8180001158226,新規,0,2023-09-29,2023-09-29,中京マネジメント株式会社,,株式会社,愛知県,名古屋市中村区,名駅３丁目４－１０アルティメイト名駅１ｓｔ　２階,,23,105,4500002,,,,,,,2023-09-29,1,,,,,チュウキョウマネジメント,0
1961,8180003025812,新規,0,2023-09-29,2023-09-29,合同会社ＭＩＲＡＩ　ＣＯＲＰＯＲＡＴＩＯＮ,,合同会社,愛知県,春日井市,旭町３丁目４２番２,,23,206,4860929,,,,,,,2023-09-29,1,,,,,ミライコーポレーション,0
1965,8180301037856,新規,0,2023-09-29,2023-09-29,株式会社内田建設,,株式会社,愛知県,豊川市,豊川町利通６０番地の１,,23,207,4420033,,,,,,,2023-09-29,1,,,,,ウチダケンセツ,0
1968,8190003004451,新規,0,2023-09-29,2023-09-29,Ｋｎｉｇｈｔ合同会社,,合同会社,三重県,四日市市,西新地９番８号日宝シオン西新地４０１．４０２号室,,24,202,5100087,,,,,,,2023-09-29,1,,,,,ナイト,0
1970,8200001041759,新規,0,2023-09-29,2023-09-29,株式会社敬護,,株式会社,岐阜県,美濃加茂市,西町６丁目３００番地６,,21,211,5050046,,,,,,,2023-09-29,1,,,,,ケイゴ,0
1972,8210003001702,新規,0,2023-09-29,2023-09-29,合同会社スパイスナード,,合同会社,福井県,大飯郡高浜町,青戸第３号１番地６２,,18,481,9192204,,,,,,,2023-09-29,1,,,,,スパイスナード,0
1974,8220005008785,新規,0,2023-09-29,2023-09-29,一般財団法人金岡教育財団,,その他の設立登記法人,石川県,金沢市,大野町４丁目レ４０番地１７２,,17,201,9200331,,,,,,,2023-09-29,1,,,,,カナオカキョウイクザイダン,0
1976,8240001062173,新規,0,2023-09-29,2023-09-29,宅都ハウス株式会社,,株式会社,広島県,安芸郡府中町,柳ケ丘３７番２６号２Ｆ,,34,302,7350014,,,,,,,2023-09-29,1,,,,,タクトハウス,0
1977,8240001062181,新規,0,2023-09-29,2023-09-29,株式会社ＴＯＫＯ,,株式会社,広島県,東広島市,高屋町白市５６２番地４,,34,212,7392114,,,,,,,2023-09-29,1,,,,,トーコー,0
1982,8260001038345,新規,0,2023-09-29,2023-09-29,株式会社Ｍｕ会計アシスト,,株式会社,岡山県,岡山市北区,今６丁目１９番１４号,,33,101,7000975,,,,,,,2023-09-29,1,,,,,ミューカイケイアシスト,0
1986,8290001103187,新規,0,2023-09-29,2023-09-29,株式会社Ｃｕｐｉｄ,,株式会社,福岡県,福岡市城南区,松山１丁目９－１２,,40,136,8140131,,,,,,,2023-09-29,1,,,,,クピド,0
1994,8290005019165,新規,0,2023-09-29,2023-09-29,ＮＰＯ法人Ｒａｓｉｋｕ,,その他の設立登記法人,福岡県,福岡市早良区,荒江２丁目６番１－３０１号,,40,137,8140021,,,,,,,2023-09-29,1,,,,,ラシク,0
2003,8360001032602,新規,0,2023-09-29,2023-09-29,株式会社リヴクライム・ファイナンス,,株式会社,沖縄県,那覇市,若狭２丁目３番１５号,,47,201,9000031,,,,,,,2023-09-29,1,,,,,リヴクライムファイナンス,0
2004,8360003013328,新規,0,2023-09-29,2023-09-29,合同会社ユースフル,,合同会社,沖縄県,沖縄市,住吉１丁目７番３０号プレミアムコート住吉６０２,,47,211,9040003,,,,,,,2023-09-29,1,,,,,ユースフル,0
2042,9010001238836,新規,0,2023-09-29,2023-09-29,株式会社三英,,株式会社,東京都,千代田区,内神田３丁目１７番８号,,13,101,1010047,,,,,,,2023-09-29,1,,,,,サンエイ,0
2043,9010001238852,新規,0,2023-09-29,2023-09-29,株式会社銀浩国際,,株式会社,東京都,千代田区,神田司町２丁目１３番地,,13,101,1010048,,,,,,,2023-09-29,1,,,,,ギンコウコクサイ,0
2046,9010003041775,新規,0,2023-09-29,2023-09-29,Ｋａｚａｎａ合同会社,,合同会社,東京都,千代田区,富士見１丁目３番１１号富士見デュープレックスＢ’ｓ４階,,13,101,1020071,,,,,,,2023-09-29,1,,,,,カザナ,0
2055,9010401177452,新規,0,2023-09-29,2023-09-29,株式会社ＵＮｉＴＥｐｒｏｄｕｃｔｉｏｎ,,株式会社,東京都,港区,北青山１丁目３番１号アールキューブ青山３階,,13,103,1070061,,,,,,,2023-09-29,1,,,,,ユナイトプロダクション,0
2059,9010501051136,新規,0,2023-09-29,2023-09-29,ニューロングマシンテック株式会社,,株式会社,東京都,台東区,松が谷１丁目１４番１４号ニューロング株式会社内,,13,106,1110036,,,,,,,2023-09-29,1,,,,,ニューロングマシンテック,0
2063,9010601063857,新規,0,2023-09-29,2023-09-29,株式会社ｉＶｅｇｉ,,株式会社,東京都,墨田区,江東橋４丁目８番１１－３０１号サンウッド錦糸町フラッツ,,13,107,1300022,,,,,,,2023-09-29,1,,,,,アイベジ,0
2066,9010801034369,新規,0,2023-09-29,2023-09-29,株式会社Ｌｉｆｅ　Ｇｌｏｂａｌ　Ｌｉｎｋ,,株式会社,東京都,大田区,大森北４丁目１５番２６号,,13,111,1430016,,,,,,,2023-09-29,1,,,,,ライフグローバルリンク,0
2071,9010901053913,新規,0,2023-09-29,2023-09-29,株式会社Ｎａｐｏｌｉ,,株式会社,東京都,世田谷区,松原１丁目３６番９号白川ビル４階,,13,112,1560043,,,,,,,2023-09-29,1,,,,,ナポリ,0
2073,9010903008485,新規,0,2023-09-29,2023-09-29,合同会社ＵＧ,,合同会社,東京都,世田谷区,瀬田２丁目２０番１５号,,13,112,1580095,,,,,,,2023-09-29,1,,,,,ユージー,0
2078,9011001157233,新規,0,2023-09-29,2023-09-29,株式会社あすなろ経営研究所,,株式会社,東京都,渋谷区,円山町５番５号Ｎａｖｉ渋谷Ｖ３階,,13,113,1500044,,,,,,,2023-09-29,1,,,,,アスナロケイエイケンキュウジョ,0
2079,9011001157258,新規,0,2023-09-29,2023-09-29,ＡｎｄＧｒｏｗ株式会社,,株式会社,東京都,渋谷区,道玄坂１丁目１０番８号渋谷道玄坂東急ビル２Ｆ－Ｃ,,13,113,1500043,,,,,,,2023-09-29,1,,,,,アンドグロウ,0
2082,9011003017617,新規,0,2023-09-29,2023-09-29,合同会社ウイング,,合同会社,東京都,渋谷区,神宮前６丁目５番６号サンポウ綜合ビル５階,,13,113,1500001,,,,,,,2023-09-29,1,,,,,ウイング,0
2084,9011101104498,新規,0,2023-09-29,2023-09-29,株式会社ゴエンアップ・パートナーズ,,株式会社,東京都,新宿区,西新宿３丁目３番１３号西新宿水間ビル６階,,13,104,1600023,,,,,,,2023-09-29,1,,,,,ゴエンアップパートナーズ,0
2086,9011203004183,新規,0,2023-09-29,2023-09-29,ＮＩＫＩ　ＥＮＴＥＲＰＲＩＳＥＳ合同会社,,合同会社,東京都,中野区,東中野１丁目１４番２６－１０１号,,13,114,1640003,,,,,,,2023-09-29,1,,,,,ニキエンタープライズ,0
2090,9011403004132,新規,0,2023-09-29,2023-09-29,合同会社ｆｏｃｕｓ,,合同会社,東京都,板橋区,大山東町２９番１３－５０５号,,13,119,1730014,,,,,,,2023-09-29,1,,,,,フォーカス,0
2115,9021001080293,新規,0,2023-09-29,2023-09-29,株式会社ＣＲＧ,,株式会社,神奈川県,秦野市,萩が丘８番３６号,,14,211,2591325,,,,,,,2023-09-29,1,,,,,シーアールジー,0
2119,9021003013623,新規,0,2023-09-29,2023-09-29,合同会社ＫＡＭＩＫＡＺＥ　ＡＵＴＯ,,合同会社,神奈川県,茅ヶ崎市,堤６４番地２６,,14,207,2530006,,,,,,,2023-09-29,1,,,,,カミカゼオート,0
2130,9030001156193,新規,0,2023-09-29,2023-09-29,株式会社ＵＮＯＵ,,株式会社,埼玉県,さいたま市浦和区,常盤３丁目１３－１０－３０２室,,11,107,3300061,,,,,,,2023-09-29,1,,,,,ウノウ,0
2131,9030001156276,新規,0,2023-09-29,2023-09-29,ＴＡＢＡＴＡ株式会社,,株式会社,埼玉県,志木市,幸町３丁目４番４―１４０２号,,11,228,3530005,,,,,,,2023-09-29,1,,,,,タバタ,0
2132,9030001156334,新規,0,2023-09-29,2023-09-29,株式会社サンフレーム,,株式会社,埼玉県,川口市,大字里１３３８番地の５,,11,203,3340005,,,,,,,2023-09-29,1,,,,,サンフレーム,0
2143,9030003022591,新規,0,2023-09-29,2023-09-29,進栄通信合同会社,,合同会社,埼玉県,八潮市,大字大曽根１０８７番地１,,11,234,3400834,,,,,,,2023-09-29,1,,,,,シンエイツウシン,0
2144,9030003022666,新規,0,2023-09-29,2023-09-29,合同会社ＡＵＢＯＹＮＥＡＵ　ＧＲＯＵＰ,,合同会社,埼玉県,ふじみ野市,駒林元町４丁目２番２０号,,11,245,3560038,,,,,,,2023-09-29,1,,,,,オボワノーグループ,0
2149,9040001130288,新規,0,2023-09-29,2023-09-29,株式会社ヒロ建設,,株式会社,千葉県,富津市,青木３丁目５番地２４,,12,226,2930012,,,,,,,2023-09-29,1,,,,,ヒロケンセツ,0
2183,9120001258336,新規,0,2023-09-29,2023-09-29,株式会社ＬｉＥＮ,,株式会社,大阪府,大阪市北区,兎我野町１２－１５ＭＡＲＵＩＣＨＩＰＬＡＺＡビルＢ１Ｆ,,27,127,5300056,,,,,,,2023-09-29,1,,,,,リアン,0
2184,9120001258369,新規,0,2023-09-29,2023-09-29,株式会社ＲＩＣＡＬ　ＭＵＳＩＣ　ＳＹＳＴＥＭ,,株式会社,大阪府,大阪市北区,山崎町５－５－３０１,,27,127,5300024,,,,,,,2023-09-29,1,,,,,リカルミュージックシステム,0
2185,9120001258377,新規,0,2023-09-29,2023-09-29,株式会社ＬＩＬＡＣ,,株式会社,大阪府,大阪市西区,北堀江１丁目１３番６－９０５号,,27,106,5500014,,,,,,,2023-09-29,1,,,,,ライラック,0
2186,9120001258393,新規,0,2023-09-29,2023-09-29,株式会社ヤハタデザイン,,株式会社,大阪府,大阪市中央区,谷町４丁目４番１７－１１０６号,,27,128,5400012,,,,,,,2023-09-29,1,,,,,ヤハタデザイン,0
2187,9120001258443,新規,0,2023-09-29,2023-09-29,Ｍａｔｔ’ｓ株式会社,,株式会社,大阪府,大阪市生野区,勝山北１丁目２２番１１号エム・ステージ勝山６０２号室,,27,116,5440033,,,,,,,2023-09-29,1,,,,,マットズ,0
2188,9120001258451,新規,0,2023-09-29,2023-09-29,東方株式会社,,株式会社,大阪府,大阪市中央区,島之内１丁目１５番１４－７０２号,,27,128,5420082,,,,,,,2023-09-29,1,,,,,トウホウ,0
2189,9120001258468,新規,0,2023-09-29,2023-09-29,株式会社Ｂｕｙ‐ｔｈｘ,,株式会社,大阪府,大阪市中央区,松屋町３番２３－１１０８号,,27,128,5420067,,,,,,,2023-09-29,1,,,,,バイサンクス,0
2190,9120001258476,新規,0,2023-09-29,2023-09-29,株式会社Ｐａｒｋ＆Ｃｏ．,,株式会社,大阪府,大阪市北区,松ケ枝町６番２１－４０３号,,27,127,5300037,,,,,,,2023-09-29,1,,,,,パークアンドコー,0
2203,9120105009767,新規,0,2023-09-29,2023-09-29,特定非営利活動法人ＣＯＫＡ　Ａｎｉｍａｌ　Ｒｅｓｃｕｅ,,その他の設立登記法人,大阪府,岸和田市,宮前町１５番１５号,,27,202,5960043,,,,,,,2023-09-29,1,,,,,コカアニマルレスキュー,0
2210,9122001037414,新規,0,2023-09-29,2023-09-29,インターステラ株式会社,,株式会社,大阪府,柏原市,大正２丁目４番３２号大正谷野ビル２階,,27,221,5820009,,,,,,,2023-09-29,1,,,,,インターステラ,0
2215,9130001075334,新規,0,2023-09-29,2023-09-29,株式会社トライブ,,株式会社,京都府,京都市下京区,中堂寺壬生川町８－７、１階,,26,106,6008806,,,,,,,2023-09-29,1,,,,,トライブ,0
2224,9140001131771,新規,0,2023-09-29,2023-09-29,株式会社エックスハーツ,,株式会社,兵庫県,尼崎市,北大物町１番４号,,28,202,6600804,,,,,,,2023-09-29,1,,,,,エックスハーツ,0
2240,9180001158200,新規,0,2023-09-29,2023-09-29,ＪＳ　ＴＲＡＤＩＮＧ　ＪＡＰＡＮ株式会社,,株式会社,愛知県,名古屋市東区,泉２丁目２８番２４号東和高岳ビル６０３号室,,23,102,4610001,,,,,,,2023-09-29,1,,,,,ジェイエストレーディングジャパン,0
2241,9180001158225,新規,0,2023-09-29,2023-09-29,株式会社ＭＹ企画,,株式会社,愛知県,東海市,大田町下浜田９２番地の１ストリーム４階,,23,222,4770031,,,,,,,2023-09-29,1,,,,,エムワイキカク,0
2243,9180003025803,新規,0,2023-09-29,2023-09-29,合同会社ベストワーク伊藤,,合同会社,愛知県,愛西市,北一色町北田面２９８番地エスポワール佐屋２０１号,,23,232,4960905,,,,,,,2023-09-29,1,,,,,ベストワークイトウ,0
2244,9180301037855,新規,0,2023-09-29,2023-09-29,株式会社東海総合荷役,,株式会社,愛知県,豊橋市,馬見塚町２５９番地１シティハイム１０２号,,23,201,4418007,,,,,,,2023-09-29,1,,,,,トウカイソウゴウニヤク,0
2248,9190003004450,新規,0,2023-09-29,2023-09-29,ＮｅｖｅｒＬａｎｄ合同会社,,合同会社,三重県,四日市市,西新地３－１１,,24,202,5100087,,,,,,,2023-09-29,1,,,,,ネバーランド,0
2262,9240001062172,新規,0,2023-09-29,2023-09-29,株式会社Ｌｉｅｎ　ｔｅｃｈ,,株式会社,広島県,福山市,神辺町大字新道上２０番地１３,,34,207,7202107,,,,,,,2023-09-29,1,,,,,リアンテック,0
2274,9290001103178,新規,0,2023-09-29,2023-09-29,Ａｎｄａｎｔｅ　ＣＲＥＡＴＥ株式会社,,株式会社,福岡県,那珂川市,観晴が丘８番６－１号,,40,231,8111216,,,,,,,2023-09-29,1,,,,,アンダンテクリエイト,0
2280,9290803004508,新規,0,2023-09-29,2023-09-29,合同会社翔峰,,合同会社,福岡県,北九州市小倉北区,紺屋町１１番１１号,,40,106,8020081,,,,,,,2023-09-29,1,,,,,ショウホウ,0
2283,9330001031300,新規,0,2023-09-29,2023-09-29,株式会社ＫＥＩＪＩ,,株式会社,熊本県,熊本市中央区,出水４丁目１７番１１－１号,,43,101,8620941,,,,,,,2023-09-29,1,,,,,ケイジ,0
2285,9340005009663,新規,0,2023-09-29,2023-09-29,かごしまアグリライス協同組合,,その他の設立登記法人,鹿児島県,鹿児島市,西別府町２９４１番地４６,,46,201,8900033,,,,,,,2023-09-29,1,,,,,カゴシマアグリライス,0
2286,9360003013327,新規,0,2023-09-29,2023-09-29,合同会社於茂登,,合同会社,沖縄県,石垣市,美崎町１１番地１,,47,207,9070012,,,,,,,2023-09-29,1,,,,,オモト,0
2295,9430001090071,新規,0,2023-09-29,2023-09-29,株式会社ＦＡＢ,,株式会社,北海道,札幌市手稲区,曙四条１丁目６番２８号,,01,109,0060834,,,,,,,2023-09-29,1,,,,,ファブ,0
2300,9700150120849,新規,0,2023-09-29,2023-09-29,ＤＡＬＩＡＮＹＡＮＹＵＴＯＮＧＭＡＯＹＩ　Ｃｏ．，Ｌｔｄ．,,外国会社等,,,,,,,,Ｒｏｏｍ　８１３，Ｆｒｅｅ　Ｔｒａｄｅ　Ｂｕｉｌｄ，Ｄａｌｉａｎ　Ｂｏｎｄｅｄ　Ｚｏｎｅ，Ｌｉａｏｎｉｎｇ　Ｐｒｏｖｉｎｃｅ．ＣＨｌＮＡ,,,,,,2023-09-29,1,,,,,ダーリエンイエンイートンマオイーヨウシエンゴンスー,0
2301,9700150120857,新規,0,2023-09-29,2023-09-29,ＯＮＥＫＥＹ　ＬＩＭＩＴＥＤ,,外国会社等,,,,,,,,ＲＭ　１５１７，１５Ｆ　ＡＭＩＡＴＡ　ＩＮＤＵＳＴＲＩＡＬ　ＢＵＩＬＤＩＮＧ，５８　ＬＥＩ　ＭＵＫ　ＲＯＡＤ，ＫＷＡＩ　ＣＨＵＮＧ　ＨＫ,,,,,,2023-09-29,1,,,,,イーチーヨウシエンゴンスー,0
