sequenceNumber,corporateNumber,process,correct,updateDate,changeDate,name,nameImageId,kind,prefectureName,cityName,streetNumber,addressImageId,prefectureCode,cityCode,postCode,addressOutside,addressOutsideImageId,closeDate,closeCause,successorCorporateNumber,changeCause,assignmentDate,latest,enName,enPrefectureName,enCityName,enAddressOutside,furigana,hihyoji
7,1010001256325,新規,0,2025-07-03,2025-07-03,起点株式会社,,株式会社,東京都,中央区,銀座１丁目１２番４号Ｎ＆ＥＢＬＤ．６Ｆ,,13,102,1040061,,,,,,,2025-07-03,1,,,,,キテン,0
8,1010001256390,新規,0,2025-07-03,2025-07-03,株式会社ＹＯＨＢＡ,,株式会社,東京都,中央区,銀座１丁目１２番４号Ｎ＆ＥＢＬＤ．６Ｆ,,13,102,1040061,,,,,,,2025-07-03,1,,,,,ヨウバ,0
9,1010001256416,新規,0,2025-07-03,2025-07-03,和泉メディカル株式会社,,株式会社,東京都,中央区,銀座７丁目１３番２１号ＧｉｎｚａＲｏｋｕｓｈｕビル２階,,13,102,1040061,,,,,,,2025-07-03,1,,,,,イズミメディカル,0
10,1010005040320,新規,0,2025-07-03,2025-07-03,ＨＭＰ１一般社団法人,,その他の設立登記法人,東京都,千代田区,丸の内１丁目４番１号東京共同会計事務所内,,13,101,1000005,,,,,,,2025-07-03,1,,,,,エイチエムピーワン,0
13,1010101016752,新規,0,2025-07-03,2025-07-03,株式会社Ｋ＆Ｒ,,株式会社,東京都,八王子市,みなみ野３丁目５番４号,,13,201,1920916,,,,,,,2025-07-03,1,,,,,ケーアンドアール,0
15,1010401191428,新規,0,2025-07-03,2025-07-03,株式会社ＫＩＴパートナーズ,,株式会社,東京都,港区,北青山１丁目３番１号アールキューブ青山３階,,13,103,1070061,,,,,,,2025-07-03,1,,,,,キットパートナーズ,0
16,1010401191436,新規,0,2025-07-03,2025-07-03,ＣＵＤＯ　Ｉｎｔｅｒｎａｔｉｏｎａｌ株式会社,,株式会社,東京都,港区,六本木３丁目３番２７号スハラ六本木３階,,13,103,1060032,,,,,,,2025-07-03,1,,,,,クドゥインターナショナル,0
17,1010401191460,新規,0,2025-07-03,2025-07-03,エスリート株式会社,,株式会社,東京都,港区,赤坂６丁目１３番１９号－７０７,,13,103,1070052,,,,,,,2025-07-03,1,,,,,エスリート,0
18,1010401191510,新規,0,2025-07-03,2025-07-03,株式会社ＰＯＦＩＴ,,株式会社,東京都,港区,北青山２丁目７番２６号メゾン青山８０１,,13,103,1070061,,,,,,,2025-07-03,1,,,,,ポフィット,0
24,1010501054336,新規,0,2025-07-03,2025-07-03,宸軒株式会社,,株式会社,東京都,台東区,台東２丁目３１番１０号第二掛川ビル１０８号室,,13,106,1100016,,,,,,,2025-07-03,1,,,,,シンケン,0
25,1010601067568,新規,0,2025-07-03,2025-07-03,株式会社Ｄｉｃｅ‐Ｋ,,株式会社,東京都,江東区,亀戸９丁目３４番１－７１５号,,13,108,1360071,,,,,,,2025-07-03,1,,,,,ダイスケー,0
34,1010905004795,新規,0,2025-07-03,2025-07-03,一般社団法人三軒茶屋・太子堂商店街連合,,その他の設立登記法人,東京都,世田谷区,太子堂２丁目９番１０号太子堂ハイツＡ１,,13,112,1540004,,,,,,,2025-07-03,1,,,,,サンゲンヂャヤタイシドウショウテンガイレンゴウ,0
40,1011001170573,新規,0,2025-07-03,2025-07-03,株式会社ＯＭＬ,,株式会社,東京都,渋谷区,東３丁目９番１２号,,13,113,1500011,,,,,,,2025-07-03,1,,,,,オーエムエル,0
41,1011001170623,新規,0,2025-07-03,2025-07-03,迦南美地株式会社,,株式会社,東京都,渋谷区,笹塚１丁目５６－６－５０Ｅ,,13,113,1510073,,,,,,,2025-07-03,1,,,,,カナミチ,0
42,1011001170648,新規,0,2025-07-03,2025-07-03,株式会社プライム,,株式会社,東京都,渋谷区,渋谷３丁目１番９号ＹＡＺＡＷＡビル３階,,13,113,1500002,,,,,,,2025-07-03,1,,,,,プライム,0
43,1011001170986,新規,0,2025-07-03,2025-07-03,株式会社ソドレミ,,株式会社,東京都,渋谷区,道玄坂１丁目１０番８号渋谷道玄坂東急ビル２Ｆ－Ｃ,,13,113,1500043,,,,,,,2025-07-03,1,,,,,ソドレミ,0
44,1011003021931,新規,0,2025-07-03,2025-07-03,フィルディマンド合同会社,,合同会社,東京都,渋谷区,広尾１丁目１１番２－９０８,,13,113,1500012,,,,,,,2025-07-03,1,,,,,フィルディマンド,0
45,1011003022005,新規,0,2025-07-03,2025-07-03,合同会社Ａｃｈｉｅｖｅ,,合同会社,東京都,渋谷区,道玄坂１丁目１０番８号渋谷道玄坂東急ビル２Ｆ－Ｃ,,13,113,1500043,,,,,,,2025-07-03,1,,,,,アチーヴ,0
47,1011005011063,新規,0,2025-07-03,2025-07-03,一般社団法人全日本害獣駆除救急サービス,,その他の設立登記法人,東京都,渋谷区,渋谷２丁目１９番１５号,,13,113,1500002,,,,,,,2025-07-03,1,,,,,ゼンコクガイジュウクジョキュウキュウサービス,0
56,1011201026476,新規,0,2025-07-03,2025-07-03,株式会社ＰＵＰＵ,,株式会社,東京都,中野区,本町６丁目３５番１６号ＬｉｖｅＦｌａｔ新中野２０１,,13,114,1640012,,,,,,,2025-07-03,1,,,,,ププ,0
63,1011501032257,新規,0,2025-07-03,2025-07-03,株式会社メイプル,,株式会社,東京都,北区,浮間４丁目１９－１０－１階,,13,117,1150051,,,,,,,2025-07-03,1,,,,,メイプル,0
66,1011703004302,新規,0,2025-07-03,2025-07-03,合同会社ロックホーム,,合同会社,東京都,江戸川区,西瑞江３丁目２０番地１ハイム・カメリエ２－１０３,,13,123,1320015,,,,,,,2025-07-03,1,,,,,ロックホーム,0
73,1020001163644,新規,0,2025-07-03,2025-07-03,株式会社新成工業,,株式会社,神奈川県,横浜市鶴見区,鶴見中央２丁目３番３グランメゾン鶴見９１４号,,14,101,2300051,,,,,,,2025-07-03,1,,,,,シンセイコウギョウ,0
74,1020001163652,新規,0,2025-07-03,2025-07-03,株式会社Ｙ’ｓトランスポート,,株式会社,神奈川県,横浜市戸塚区,原宿３丁目５番４－３０２号,,14,110,2450063,,,,,,,2025-07-03,1,,,,,ワイズトランスポート,0
75,1020003028795,新規,0,2025-07-03,2025-07-03,Ｎａｖｉｒｅｘａ合同会社,,合同会社,神奈川県,横浜市泉区,緑園３丁目６番１０号,,14,116,2450002,,,,,,,2025-07-03,1,,,,,ナビレクサ,0
80,1030001167330,新規,0,2025-07-03,2025-07-03,株式会社ＥＤＥＮ,,株式会社,埼玉県,八潮市,大字古新田９１０－２４,,11,234,3400823,,,,,,,2025-07-03,1,,,,,エデン,0
81,1030001167405,新規,0,2025-07-03,2025-07-03,株式会社ベルキッズ,,株式会社,埼玉県,さいたま市大宮区,仲町３丁目１０１番地１－４０３号室,,11,103,3300845,,,,,,,2025-07-03,1,,,,,ベルキッズ,0
82,1030001167413,新規,0,2025-07-03,2025-07-03,株式会社はじめ設備,,株式会社,埼玉県,草加市,新里町８５５番地８,,11,221,3400031,,,,,,,2025-07-03,1,,,,,ハジメセツビ,0
83,1030001167421,新規,0,2025-07-03,2025-07-03,株式会社ＤＡＮＫ,,株式会社,埼玉県,さいたま市見沼区,大和田二丁目１７３番２号１０１号室,,11,104,3370000,,,,,,,2025-07-03,1,,,,,ダンク,0
84,1030001167438,新規,0,2025-07-03,2025-07-03,ＫＭＫＷ株式会社,,株式会社,埼玉県,蕨市,錦町２丁目７番２６号オハナ蕨錦町６１２号,,11,223,3350005,,,,,,,2025-07-03,1,,,,,ケーエムケーダブリュー,0
85,1030001167462,新規,0,2025-07-03,2025-07-03,株式会社Ｌｕｍｉｓｙｎｃ,,株式会社,埼玉県,さいたま市大宮区,桜木町４丁目１６９番地２,,11,103,3300854,,,,,,,2025-07-03,1,,,,,ルミシンク,0
92,1040001139279,新規,0,2025-07-03,2025-07-03,Ｑｕａｌｅｎｃｅ株式会社,,株式会社,千葉県,八千代市,八千代台西２丁目５－２７,,12,221,2760034,,,,,,,2025-07-03,1,,,,,クアレンス,0
96,1040003027952,新規,0,2025-07-03,2025-07-03,合同会社大誠,,合同会社,千葉県,千葉市緑区,あすみが丘東１丁目５番地,,12,105,2670067,,,,,,,2025-07-03,1,,,,,タイセイ,0
97,1040003027969,新規,0,2025-07-03,2025-07-03,合同会社ＴＫＲエージェント,,合同会社,千葉県,市原市,椎の木台１丁目２２番地６,,12,219,2990128,,,,,,,2025-07-03,1,,,,,ティーケイアールエージェント,0
99,1050001056894,新規,0,2025-07-03,2025-07-03,株式会社ＲｉＴｍ,,株式会社,茨城県,結城市,大字北南茂呂１０２４番地１－２階,,08,207,3070036,,,,,,,2025-07-03,1,,,,,リトム,0
100,1050001056903,新規,0,2025-07-03,2025-07-03,株式会社フェイスクラフト,,株式会社,茨城県,笠間市,東平４丁目７番５０号,,08,216,3091705,,,,,,,2025-07-03,1,,,,,フェイスクラフト,0
102,1050003009405,新規,0,2025-07-03,2025-07-03,合同会社高塚,,合同会社,茨城県,行方市,浜１９６７－２,,08,233,3113505,,,,,,,2025-07-03,1,,,,,タカツカ,0
103,1050003009413,新規,0,2025-07-03,2025-07-03,合同会社ＱＯＺ,,合同会社,茨城県,つくば市,竹園１丁目６番地２号,,08,220,3050032,,,,,,,2025-07-03,1,,,,,キューオーゼット,0
106,1060001038355,新規,0,2025-07-03,2025-07-03,渡辺地質株式会社,,株式会社,栃木県,宇都宮市,清原台３丁目９番５号,,09,201,3213223,,,,,,,2025-07-03,1,,,,,ワタナベチシツ,0
107,1060001038371,新規,0,2025-07-03,2025-07-03,株式会社むすびファーム,,株式会社,栃木県,塩谷郡塩谷町,大字泉６５４番地,,09,384,3292337,,,,,,,2025-07-03,1,,,,,ムスビファーム,0
113,1080101025615,新規,0,2025-07-03,2025-07-03,株式会社ビルダイヤ,,株式会社,静岡県,駿東郡長泉町,南一色２５３番地の１５,,22,342,4110932,,,,,,,2025-07-03,1,,,,,ビルダイヤ,0
114,1100001038739,新規,0,2025-07-03,2025-07-03,ガーデンファイン株式会社,,株式会社,長野県,東御市,滋野乙３２６３番地５,,20,219,3890512,,,,,,,2025-07-03,1,,,,,ガーデンファイン,0
115,1100003008260,新規,0,2025-07-03,2025-07-03,合同会社アートプロデュース,,合同会社,長野県,北佐久郡軽井沢町,軽井沢１０－２６－Ｂ１０１,,20,321,3890103,,,,,,,2025-07-03,1,,,,,アートプロデュース,0
126,1120001277178,新規,0,2025-07-03,2025-07-03,株式会社京山,,株式会社,大阪府,大阪市都島区,片町１丁目３番１１号,,27,102,5340025,,,,,,,2025-07-03,1,,,,,キョウサン,0
127,1120001277384,新規,0,2025-07-03,2025-07-03,金木株式会社,,株式会社,大阪府,大阪市東成区,中本２丁目１１番３４号グリーンハイツ緑橋Ａ１０６号室,,27,115,5370022,,,,,,,2025-07-03,1,,,,,カネギ,0
128,1120001277459,新規,0,2025-07-03,2025-07-03,株式会社叶夢,,株式会社,大阪府,大阪市城東区,鴫野西２丁目５番５号,,27,118,5360014,,,,,,,2025-07-03,1,,,,,カム,0
129,1120003029874,新規,0,2025-07-03,2025-07-03,アタラシスク合同会社,,合同会社,大阪府,大阪市西成区,玉出中２丁目１２番２３号酒井コーポ２０１号,,27,122,5570044,,,,,,,2025-07-03,1,,,,,アタラシスク,0
130,1120003029899,新規,0,2025-07-03,2025-07-03,合同会社障害者アシスト,,合同会社,大阪府,大阪市平野区,喜連西４丁目７番５０号,,27,126,5470026,,,,,,,2025-07-03,1,,,,,ショウガイシャアシスト,0
135,1122005003832,新規,0,2025-07-03,2025-07-03,一般社団法人Ｔｈｉｎｋ　ａ　Ｃｏｎｎｅｃｔ　Ｐｒｏｊｅｃｔ　ｓｕｐｐｏｒｔ,,その他の設立登記法人,大阪府,東大阪市,小阪本町２丁目９番１０号,,27,227,5770802,,,,,,,2025-07-03,1,,,,,シンクアコネクトプロジェクトサポート,0
142,1180001167480,新規,0,2025-07-03,2025-07-03,株式会社エー・エヌインターナショナル,,株式会社,愛知県,愛知郡東郷町,大字春木字新池３９１５番地の８,,23,302,4700162,,,,,,,2025-07-03,1,,,,,エーエヌインターナショナル,0
143,1180001167506,新規,0,2025-07-03,2025-07-03,共翔工業株式会社,,株式会社,愛知県,東海市,加木屋町白拍子１４１番地の３,,23,222,4770032,,,,,,,2025-07-03,1,,,,,キョウショウコウギョウ,0
144,1180001167522,新規,0,2025-07-03,2025-07-03,株式会社みとら,,株式会社,愛知県,名古屋市中区,新栄２丁目１４番１６号第８１プロスパービル１－Ｃ,,23,106,4600007,,,,,,,2025-07-03,1,,,,,ミトラ,0
145,1180001167547,新規,0,2025-07-03,2025-07-03,株式会社長谷川不動産,,株式会社,愛知県,一宮市,大和町妙興寺２０６２番地,,23,203,4910922,,,,,,,2025-07-03,1,,,,,ハセガワフドウサン,0
153,1220001026772,新規,0,2025-07-03,2025-07-03,株式会社ポコアポコ,,株式会社,石川県,金沢市,末町９の４７番地５１,,17,201,9201302,,,,,,,2025-07-03,1,,,,,ポコアポコ,0
154,1220001026780,新規,0,2025-07-03,2025-07-03,株式会社あいうえおの杜,,株式会社,石川県,加賀市,山代温泉幸町１２番地１,,17,206,9220255,,,,,,,2025-07-03,1,,,,,アイウエオノモリ,0
157,1230001020980,新規,0,2025-07-03,2025-07-03,株式会社古久龍,,株式会社,富山県,富山市,清水元町３番８号,,16,201,9300034,,,,,,,2025-07-03,1,,,,,コクリュウ,0
158,1230001020989,新規,0,2025-07-03,2025-07-03,常田建材株式会社,,株式会社,富山県,射水市,海竜町４６番地,,16,211,9330222,,,,,,,2025-07-03,1,,,,,ツネダケンザイ,0
161,1270001009236,新規,0,2025-07-03,2025-07-03,株式会社Ｋ‐ＳＴＹＬＥ,,株式会社,鳥取県,鳥取市,賀露町南６丁目１３－２１,,31,201,6800909,,,,,,,2025-07-03,1,,,,,ケイスタイル,0
168,1290001110594,新規,0,2025-07-03,2025-07-03,株式会社Ｅｎｃｏｕｎｔ,,株式会社,福岡県,福岡市博多区,美野島３丁目６番１７－７０２号,,40,132,8120017,,,,,,,2025-07-03,1,,,,,エンカウント,0
169,1290001110628,新規,0,2025-07-03,2025-07-03,株式会社ＴＡＩＧＵ,,株式会社,福岡県,福岡市南区,鶴田４丁目５１番８号,,40,134,8111352,,,,,,,2025-07-03,1,,,,,タイグ,0
172,1290003017053,新規,0,2025-07-03,2025-07-03,合同会社シナジーワークス,,合同会社,福岡県,柳川市,三橋町柳河１００番地,,40,207,8320806,,,,,,,2025-07-03,1,,,,,シナジーワークス,0
173,1290003017061,新規,0,2025-07-03,2025-07-03,合同会社Ｌｉｌｉｔｈ,,合同会社,福岡県,福岡市東区,香椎照葉６丁目２番５２－７０３号ＷＥＳＴ棟,,40,131,8130017,,,,,,,2025-07-03,1,,,,,リリス,0
174,1290801031651,新規,0,2025-07-03,2025-07-03,ＲｅＲｉｓｅＨｏｌｄｉｎｇｓ株式会社,,株式会社,福岡県,北九州市門司区,柳原町９番８ロワール・イン柳原町３０３号,,40,101,8000036,,,,,,,2025-07-03,1,,,,,リライズホールディングス,0
177,1310003005039,新規,0,2025-07-03,2025-07-03,ＹＬｉｎｋｓ合同会社,,合同会社,長崎県,長崎市,つつじが丘２丁目８番１号,,42,201,8510102,,,,,,,2025-07-03,1,,,,,ワイリンクス,0
181,1320001021193,新規,0,2025-07-03,2025-07-03,Ｆｉｏｒｅｎｔ株式会社,,株式会社,大分県,大分市,花園１丁目１１番２号幸アパート２０２号,,44,201,8700846,,,,,,,2025-07-03,1,,,,,フィオレント,0
182,1320003004700,新規,0,2025-07-03,2025-07-03,オフィスめぐみ合同会社,,合同会社,大分県,豊後大野市,三重町秋葉字寺後９９６番地４,,44,212,8797141,,,,,,,2025-07-03,1,,,,,オフィスメグミ,0
183,1320003004709,新規,0,2025-07-03,2025-07-03,合同会社ＣＷＹ,,合同会社,大分県,大分市,碩田町３丁目１番１３号サンライズ碩田５０２,,44,201,8700048,,,,,,,2025-07-03,1,,,,,シーダブリューワイ,0
184,1330003011076,新規,0,2025-07-03,2025-07-03,ＥＹＳ合同会社,,合同会社,熊本県,上益城郡益城町,大字宮園８６４番地４,,43,443,8612241,,,,,,,2025-07-03,1,,,,,イーワイエス,0
185,1330003011092,新規,0,2025-07-03,2025-07-03,エイチエヌティー合同会社,,合同会社,熊本県,熊本市東区,小山１丁目６番４０号,,43,102,8618045,,,,,,,2025-07-03,1,,,,,エイチエヌティー,0
186,1340001027478,新規,0,2025-07-03,2025-07-03,株式会社知覧カントリー,,株式会社,鹿児島県,南九州市,知覧町郡８６３０番地,,46,223,8970302,,,,,,,2025-07-03,1,,,,,チランカントリー,0
198,1400001017092,新規,0,2025-07-03,2025-07-03,ＴＫ不動産総合管理株式会社,,株式会社,岩手県,盛岡市,津志田南３丁目８番２２号,,03,201,0200839,,,,,,,2025-07-03,1,,,,,ティーケーフドウサンソウゴウカンリ,0
204,1430001094749,新規,0,2025-07-03,2025-07-03,株式会社莉,,株式会社,北海道,美唄市,字峰延無番地,,01,215,0720000,,,,,,,2025-07-03,1,,,,,レイ,0
211,1460301005304,新規,0,2025-07-03,2025-07-03,株式会社ｇｒｏｗ,,株式会社,北海道,北見市,東陵町１番地３,,01,208,0900061,,,,,,,2025-07-03,1,,,,,グロウ,0
213,1480001012879,新規,0,2025-07-03,2025-07-03,青木断熱工業株式会社,,株式会社,徳島県,徳島市,八万町橋本２５３番地２,,36,201,7708078,,,,,,,2025-07-03,1,,,,,アオキダンネツコウギョウ,0
215,1490001011095,新規,0,2025-07-03,2025-07-03,株式会社森徳蔵ホールディングス,,株式会社,高知県,高知市,追手筋１丁目３番１号,,39,201,7800842,,,,,,,2025-07-03,1,,,,,モリトクゾウホールディングス,0
220,2010001256415,新規,0,2025-07-03,2025-07-03,ＭＳＢ株式会社,,株式会社,東京都,中央区,銀座７丁目１３番２０号銀座ＴＨビル９階,,13,102,1040061,,,,,,,2025-07-03,1,,,,,エムエスビー,0
221,2010001256480,新規,0,2025-07-03,2025-07-03,Ｇｒｉｆｆｉｎ株式会社,,株式会社,東京都,文京区,小日向２丁目２番２０号,,13,105,1120006,,,,,,,2025-07-03,1,,,,,グリフィン,0
222,2010001256514,新規,0,2025-07-03,2025-07-03,株式会社日本プライベートクレジット,,株式会社,東京都,中央区,日本橋茅場町２丁目１２番１０号,,13,102,1030025,,,,,,,2025-07-03,1,,,,,ニッポンプライベートクレジット,0
223,2010001256530,新規,0,2025-07-03,2025-07-03,株式会社ＫＹ,,株式会社,東京都,中央区,銀座１丁目１２番４号Ｎ＆ＥＢＬＤ．６Ｆ,,13,102,1040061,,,,,,,2025-07-03,1,,,,,ケーワイ,0
224,2010001256539,新規,0,2025-07-03,2025-07-03,ブレイクポイント・キャピタル株式会社,,株式会社,東京都,中央区,日本橋箱崎町１番２号,,13,102,1030015,,,,,,,2025-07-03,1,,,,,ブレイクポイントキャピタル,0
226,2010003047696,新規,0,2025-07-03,2025-07-03,合同会社Ｐｒｏｄｂｙ,,合同会社,東京都,中央区,日本橋室町１丁目１１番１２号日本橋水野ビル７階,,13,102,1030022,,,,,,,2025-07-03,1,,,,,プロドバイ,0
227,2010003047845,新規,0,2025-07-03,2025-07-03,合同会社レディガード,,合同会社,東京都,中央区,日本橋３丁目２番１４号新槇町ビル別館第一１階,,13,102,1030027,,,,,,,2025-07-03,1,,,,,レディガード,0
228,2010003047911,新規,0,2025-07-03,2025-07-03,合同会社ＨｉＪｏＪｏ．ｃｏｍ１８,,合同会社,東京都,千代田区,霞が関３丁目２番５号,,13,101,1000013,,,,,,,2025-07-03,1,,,,,ヒジョージョードットコムエイティン,0
232,2010005040261,新規,0,2025-07-03,2025-07-03,一般社団法人青渓会,,その他の設立登記法人,東京都,中央区,新富１丁目９番１２号,,13,102,1040041,,,,,,,2025-07-03,1,,,,,セイケイカイ,0
234,2010101016751,新規,0,2025-07-03,2025-07-03,株式会社共栄警備保障,,株式会社,東京都,八王子市,叶谷町１７７４番地４,,13,201,1930815,,,,,,,2025-07-03,1,,,,,キョウエイケイビホショウ,0
240,2010401191410,新規,0,2025-07-03,2025-07-03,はなびＡＩ株式会社,,株式会社,東京都,港区,赤坂２丁目２３番１号アークヒルズ・フロントタワーＩｎＣｏｎｔｒｏｌ内,,13,103,1070052,,,,,,,2025-07-03,1,,,,,ハナビエーアイ,0
241,2010401191427,新規,0,2025-07-03,2025-07-03,株式会社日本ブリッジパートナー,,株式会社,東京都,港区,赤坂５丁目２番３３号ＩｓａＩＡｋａｓａｋＡ１８０３,,13,103,1070052,,,,,,,2025-07-03,1,,,,,ニホンブリッジパートナー,0
242,2010401191518,新規,0,2025-07-03,2025-07-03,Ｓ＆Ｔアドバイザーズ株式会社,,株式会社,東京都,港区,元赤坂１丁目１番７号,,13,103,1070051,,,,,,,2025-07-03,1,,,,,エスアンドティーアドバイザーズ,0
246,2010403035499,新規,0,2025-07-03,2025-07-03,ＲＯＤＥ　Ｊａｐａｎ合同会社,,合同会社,東京都,港区,港南２丁目１６番１号品川イーストワンタワー７Ｆ,,13,103,1080075,,,,,,,2025-07-03,1,,,,,ロードジャパン,0
247,2010403035516,新規,0,2025-07-03,2025-07-03,合同会社はれはり,,合同会社,東京都,港区,芝大門２丁目１―１３Ｔ・Ｓビル４Ｆ,,13,103,1050012,,,,,,,2025-07-03,1,,,,,ハレハリ,0
249,2010501054343,新規,0,2025-07-03,2025-07-03,株式会社ハヤシ商事,,株式会社,東京都,台東区,浅草橋１丁目２５－７,,13,106,1110053,,,,,,,2025-07-03,1,,,,,ハヤシショウジ,0
251,2010601067542,新規,0,2025-07-03,2025-07-03,株式会社光誠土木,,株式会社,東京都,墨田区,緑２丁目２２番１３エムツ－３０１号室,,13,107,1300021,,,,,,,2025-07-03,1,,,,,コウセイドボク,0
270,2011001170382,新規,0,2025-07-03,2025-07-03,株式会社デイワイホールディングス,,株式会社,東京都,渋谷区,代々木１丁目３８番１８号,,13,113,1510053,,,,,,,2025-07-03,1,,,,,デイワイホールディングス,0
271,2011001170647,新規,0,2025-07-03,2025-07-03,株式会社エイム,,株式会社,東京都,渋谷区,桜丘町７番３号,,13,113,1500031,,,,,,,2025-07-03,1,,,,,エイム,0
272,2011001170928,新規,0,2025-07-03,2025-07-03,株式会社ｃｏｎｔｅｘｔ,,株式会社,東京都,渋谷区,道玄坂１丁目１０番８号渋谷道玄坂東急ビル２Ｆ－Ｃ,,13,113,1500043,,,,,,,2025-07-03,1,,,,,コンテキスト,0
276,2011103016070,新規,0,2025-07-03,2025-07-03,合同会社エンパワーボディラボ,,合同会社,東京都,新宿区,西新宿７丁目９－１５ダイカンプラザビズネス清田ビル５０５,,13,104,1600023,,,,,,,2025-07-03,1,,,,,エンパワーボディラボ,0
278,2011201026450,新規,0,2025-07-03,2025-07-03,株式会社ローコ,,株式会社,東京都,中野区,弥生町４丁目３４番１５号,,13,114,1640013,,,,,,,2025-07-03,1,,,,,ローコ,0
279,2011201026483,新規,0,2025-07-03,2025-07-03,株式会社リズミック,,株式会社,東京都,中野区,弥生町５丁目１１番６号テーラーロッヂ１０２,,13,114,1640013,,,,,,,2025-07-03,1,,,,,リズミック,0
280,2011203004743,新規,0,2025-07-03,2025-07-03,合同会社セレクトラボ,,合同会社,東京都,中野区,大和町３丁目－１１番－８号ベネチアーノ－３０７,,13,114,1650034,,,,,,,2025-07-03,1,,,,,セレクトラボ,0
281,2011301030674,新規,0,2025-07-03,2025-07-03,Ｔｏｋｙｏ　Ｗａｋｅ　Ｕｐ株式会社,,株式会社,東京都,杉並区,高円寺南２丁目１番１５号ジェイパーク高円寺,,13,115,1660003,,,,,,,2025-07-03,1,,,,,トーキョーウエイクアップ,0
297,2012801024075,新規,0,2025-07-03,2025-07-03,株式会社８オンデマンド,,株式会社,東京都,立川市,柏町４丁目５５－１１－３０６号,,13,202,1900004,,,,,,,2025-07-03,1,,,,,エイトオンデマンド,0
298,2013103001465,新規,0,2025-07-03,2025-07-03,合同会社リオスタイル,,合同会社,東京都,羽村市,神明台２丁目１１－１１マロンガーデンＢ１０１,,13,227,2050023,,,,,,,2025-07-03,1,,,,,リオスタイル,0
304,2020001163643,新規,0,2025-07-03,2025-07-03,株式会社ＲＩＳＥアセット,,株式会社,神奈川県,横浜市中区,山下町７４番地１,,14,104,2310023,,,,,,,2025-07-03,1,,,,,ライズアセット,0
305,2020001163651,新規,0,2025-07-03,2025-07-03,株式会社ＩＭＳ,,株式会社,神奈川県,川崎市宮前区,野川本町３丁目２９番５号,,14,136,2160041,,,,,,,2025-07-03,1,,,,,アイエムエス,0
310,2020003028720,新規,0,2025-07-03,2025-07-03,合同会社ＭＡＮＯＥＳ,,合同会社,神奈川県,横浜市港北区,師岡町４６８番地１２コンドミニアムヴェル大倉山７０４,,14,109,2220002,,,,,,,2025-07-03,1,,,,,マノーズ,0
311,2020003028844,新規,0,2025-07-03,2025-07-03,合同会社ＳＵＮＡＯ,,合同会社,神奈川県,横浜市戸塚区,秋葉町５４６番地２ピアパレス戸塚２１７号,,14,110,2450052,,,,,,,2025-07-03,1,,,,,スナオ,0
312,2021001085662,新規,0,2025-07-03,2025-07-03,株式会社ミライ・ロードプロテクション,,株式会社,神奈川県,平塚市,諏訪町２０番２６号ライフインスワ３０２号室,,14,203,2540063,,,,,,,2025-07-03,1,,,,,ミライロードプロテクション,0
316,2030001167354,新規,0,2025-07-03,2025-07-03,株式会社大知,,株式会社,埼玉県,富士見市,ふじみ野西１丁目１９番地１,,11,235,3540035,,,,,,,2025-07-03,1,,,,,タイチ,0
317,2030001167379,新規,0,2025-07-03,2025-07-03,株式会社湘夢書屋,,株式会社,埼玉県,所沢市,弥生町１７５５番地の３８,,11,208,3590043,,,,,,,2025-07-03,1,,,,,ショウムショオク,0
318,2030001167412,新規,0,2025-07-03,2025-07-03,株式会社ＯＮＩＲＩＡ,,株式会社,埼玉県,富士見市,ふじみ野西１丁目６番地８ザふじみ野３０１,,11,235,3540035,,,,,,,2025-07-03,1,,,,,オニリア,0
319,2030001167429,新規,0,2025-07-03,2025-07-03,株式会社ＦＵＺ　ＪＡＰＡＮ,,株式会社,埼玉県,上尾市,日の出３丁目９番１４－２６号,,11,219,3620032,,,,,,,2025-07-03,1,,,,,フューズジャパン,0
322,2030003027085,新規,0,2025-07-03,2025-07-03,合同会社Ｒｙｕｎｏｓｕｋｅ　ＴＯＫＹＯ,,合同会社,埼玉県,さいたま市南区,大字大谷口９９１－１７－５０５,,11,108,3360042,,,,,,,2025-07-03,1,,,,,リュウノスケトウキョウ,0
323,2030003027143,新規,0,2025-07-03,2025-07-03,合同会社ｋｏｎｓｏｌｏ,,合同会社,埼玉県,朝霞市,根岸台７丁目３番４５号,,11,227,3510005,,,,,,,2025-07-03,1,,,,,コンソーロ,0
326,2040001139377,新規,0,2025-07-03,2025-07-03,株式会社ファビリア,,株式会社,千葉県,船橋市,本町４丁目２７番１４号,,12,204,2730005,,,,,,,2025-07-03,1,,,,,ファビリア,0
329,2040003027976,新規,0,2025-07-03,2025-07-03,我孫子国際研修開発合同会社,,合同会社,千葉県,我孫子市,台田１丁目１番地４５,,12,222,2701167,,,,,,,2025-07-03,1,,,,,アビココクサイケンシュウカイハツ,0
332,2050003009404,新規,0,2025-07-03,2025-07-03,ＪＴＴ合同会社,,合同会社,茨城県,古河市,尾崎４０１４番地５３,,08,204,3060101,,,,,,,2025-07-03,1,,,,,ジェイティティ,0
339,2060001038354,新規,0,2025-07-03,2025-07-03,株式会社ＳＴｗｉｌｌ,,株式会社,栃木県,宇都宮市,氷室町２７３５番地１,,09,201,3213232,,,,,,,2025-07-03,1,,,,,エスティーウィル,0
345,2070003005987,新規,0,2025-07-03,2025-07-03,合同会社ＨＢＳ,,合同会社,群馬県,前橋市,上新田町９０５番地１,,10,201,3710821,,,,,,,2025-07-03,1,,,,,エイチビーエス,0
348,2080403005297,新規,0,2025-07-03,2025-07-03,合同会社ＭＢＯＸ,,合同会社,静岡県,浜松市中央区,中島２丁目２２番１３号,,22,138,4300856,,,,,,,2025-07-03,1,,,,,エムボックス,0
351,2100001038738,新規,0,2025-07-03,2025-07-03,株式会社下村工務所,,株式会社,長野県,上田市,芳田４７９番地１,,20,203,3860151,,,,,,,2025-07-03,1,,,,,シモムラコウムショ,0
352,2100001038746,新規,0,2025-07-03,2025-07-03,株式会社Ｒｅｓｔａｒｔ　ｉｎ　Ａｚｕｍｉｎｏ,,株式会社,長野県,北安曇郡池田町,大字池田５８０番地１,,20,481,3998601,,,,,,,2025-07-03,1,,,,,リスタートインアヅミノ,0
360,2120001277268,新規,0,2025-07-03,2025-07-03,生命の源ビッグデータ株式会社,,株式会社,大阪府,大阪市東淀川区,瑞光１丁目５－１８－２０４号室,,27,114,5330005,,,,,,,2025-07-03,1,,,,,セイメイノゲンビッグデータ,0
361,2120001277400,新規,0,2025-07-03,2025-07-03,クロマフューチャー株式会社,,株式会社,大阪府,大阪市北区,中之島３丁目６番３２号,,27,127,5300005,,,,,,,2025-07-03,1,,,,,クロマフューチャー,0
362,2120001277417,新規,0,2025-07-03,2025-07-03,恒泰株式会社,,株式会社,大阪府,大阪市北区,堂山町１番５号三共梅田ビル６階センターオフィス内,,27,127,5300027,,,,,,,2025-07-03,1,,,,,コウタイ,0
373,2140001139086,新規,0,2025-07-03,2025-07-03,株式会社ＯＦＦＩＣＥ．Ｗ,,株式会社,兵庫県,神戸市東灘区,御影山手６丁目９－３１,,28,101,6580065,,,,,,,2025-07-03,1,,,,,オフィスダブリュ,0
374,2140001139128,新規,0,2025-07-03,2025-07-03,株式会社Ｍ’ｓコーポレーション,,株式会社,兵庫県,西宮市,仁川町２丁目５番５号,,28,204,6620811,,,,,,,2025-07-03,1,,,,,エムズコーポレーション,0
379,2140003022265,新規,0,2025-07-03,2025-07-03,合同会社花月,,合同会社,兵庫県,神戸市須磨区,一ノ谷町５丁目４番１８号,,28,107,6540076,,,,,,,2025-07-03,1,,,,,カゲツ,0
382,2160005011421,新規,0,2025-07-03,2025-07-03,税理士法人サニーネクスト,,その他の設立登記法人,滋賀県,東近江市,八日市町２番１０号八日市ビル１Ｆ,,25,213,5270029,,,,,,,2025-07-03,1,,,,,サニーネクスト,0
383,2170001018691,新規,0,2025-07-03,2025-07-03,Ｇｕｓｋ株式会社,,株式会社,和歌山県,西牟婁郡白浜町,２９２７番地の１７０４‐６０９号,,30,401,6492211,,,,,,,2025-07-03,1,,,,,グスク,0
391,2180001167521,新規,0,2025-07-03,2025-07-03,株式会社Ｆ‐ＮＥＸＴ,,株式会社,愛知県,愛西市,須依町須賀割２０９６番地１３,,23,232,4960902,,,,,,,2025-07-03,1,,,,,エフネクスト,0
392,2180001167554,新規,0,2025-07-03,2025-07-03,株式会社谷川建工,,株式会社,愛知県,名古屋市港区,築三町２丁目１６番地の３,,23,111,4550044,,,,,,,2025-07-03,1,,,,,タニカワケンコウ,0
400,2230001020996,新規,0,2025-07-03,2025-07-03,株式会社Ｈａｎｏ,,株式会社,富山県,富山市,内幸町２‐１４内幸ビルＡ館５階,,16,201,9300093,,,,,,,2025-07-03,1,,,,,ハノ,0
401,2240001065140,新規,0,2025-07-03,2025-07-03,株式会社Ｍ’ｓコーポレーション,,株式会社,広島県,広島市東区,戸坂出江２丁目８番７号１Ｆ,,34,102,7320016,,,,,,,2025-07-03,1,,,,,エムズコーポレーション,0
402,2240001065149,新規,0,2025-07-03,2025-07-03,株式会社家守,,株式会社,広島県,福山市,神辺町大字新徳田４６８番地,,34,207,7202125,,,,,,,2025-07-03,1,,,,,ヤモリ,0
403,2240001065181,新規,0,2025-07-03,2025-07-03,ＨＡＮＥ‐ＣＲＡＦＴ株式会社,,株式会社,広島県,広島市西区,上天満町１０番５－２１０号,,34,104,7330021,,,,,,,2025-07-03,1,,,,,ハネクラフト,0
414,2280005007663,新規,0,2025-07-03,2025-07-03,一般社団法人まちなかプラン,,その他の設立登記法人,島根県,松江市,新雑賀町１２番１２号,,32,201,6900054,,,,,,,2025-07-03,1,,,,,マチナカプラン,0
421,2330003011091,新規,0,2025-07-03,2025-07-03,合同会社Ｌｉｃｈｔ,,合同会社,熊本県,宇城市,不知火町高良２７１８番地,,43,213,8690552,,,,,,,2025-07-03,1,,,,,リヒト,0
423,2340005009884,新規,0,2025-07-03,2025-07-03,一般社団法人奄美国際人材・観光創生機構,,その他の設立登記法人,鹿児島県,奄美市,名瀬港町１５－１本場奄美大島紬会館４階,,46,222,8940026,,,,,,,2025-07-03,1,,,,,アマミコクサイジンザイカンコウソウセイキコウ,0
432,2390001018034,新規,0,2025-07-03,2025-07-03,株式会社耕晋堂,,株式会社,山形県,酒田市,両羽町２番地の２４,,06,204,9980832,,,,,,,2025-07-03,1,,,,,コウシンドウ,0
435,2400001017091,新規,0,2025-07-03,2025-07-03,ペネトロンジャパン株式会社,,株式会社,岩手県,遠野市,上郷町板沢９地割１９番地１,,03,208,0280776,,,,,,,2025-07-03,1,,,,,ペネトロンジャパン,0
442,2430001094756,新規,0,2025-07-03,2025-07-03,株式会社アスリヴ,,株式会社,北海道,札幌市白石区,北郷五条４丁目２番１１号,,01,104,0030835,,,,,,,2025-07-03,1,,,,,アスリヴ,0
443,2430001094806,新規,0,2025-07-03,2025-07-03,株式会社ノースワーク,,株式会社,北海道,札幌市西区,発寒十条４丁目１番５４号,,01,107,0630830,,,,,,,2025-07-03,1,,,,,ノースワーク,0
449,2460301005303,新規,0,2025-07-03,2025-07-03,株式会社伊藤,,株式会社,北海道,北見市,小泉６７５番地４８,,01,208,0900001,,,,,,,2025-07-03,1,,,,,イトウ,0
451,2500001026388,新規,0,2025-07-03,2025-07-03,高路電子計算センター株式会社,00139779,株式会社,愛媛県,松山市,喜与町２丁目３番地７,,38,201,7900802,,,,,,,2025-07-03,1,,,,,コウロデンシケイサンセンター,0
459,3010001256471,新規,0,2025-07-03,2025-07-03,株式会社イデアテック,,株式会社,東京都,中央区,銀座１丁目２２番１１号銀座大竹ビジデンス２Ｆ,,13,102,1040061,,,,,,,2025-07-03,1,,,,,イデアテック,0
460,3010001256488,新規,0,2025-07-03,2025-07-03,株式会社ミートクラフト,,株式会社,東京都,中央区,日本橋室町１丁目１１－１２日本橋水野ビル７階,,13,102,1030022,,,,,,,2025-07-03,1,,,,,ミートクラフト,0
461,3010001256513,新規,0,2025-07-03,2025-07-03,株式会社スリービーパートナーズ,,株式会社,東京都,千代田区,丸の内１丁目８番３号丸の内トラストタワー本館２０階,,13,101,1000005,,,,,,,2025-07-03,1,,,,,スリービーパートナーズ,0
463,3010003047869,新規,0,2025-07-03,2025-07-03,ＧＳＥＡ　Ｊａｐａｎ合同会社,,合同会社,東京都,文京区,根津１丁目２２－１４,,13,105,1130031,,,,,,,2025-07-03,1,,,,,ジーシアジャパン,0
464,3010003047902,新規,0,2025-07-03,2025-07-03,村上グリーンパワー合同会社,,合同会社,東京都,千代田区,神田神保町２丁目４番地６３太平電業第２ビル２階,,13,101,1010051,,,,,,,2025-07-03,1,,,,,ムラカミグリーンパワー,0
465,3010003047910,新規,0,2025-07-03,2025-07-03,合同会社ＨｉＪｏＪｏ．ｃｏｍ１７,,合同会社,東京都,千代田区,霞が関３丁目２番５号,,13,101,1000013,,,,,,,2025-07-03,1,,,,,ヒジョージョードットコムセブンティン,0
468,3010005040319,新規,0,2025-07-03,2025-07-03,Ｎａｍｂａ１一般社団法人,,その他の設立登記法人,東京都,千代田区,丸の内１丁目４番１号東京共同会計事務所内,,13,101,1000005,,,,,,,2025-07-03,1,,,,,ナンバワン,0
470,3010101016750,新規,0,2025-07-03,2025-07-03,ＪＡＳ株式会社,,株式会社,東京都,八王子市,館町１９１２番地１７,,13,201,1930944,,,,,,,2025-07-03,1,,,,,ジェイエーエス,0
471,3010103002609,新規,0,2025-07-03,2025-07-03,焼き鳥すず喜合同会社,,合同会社,東京都,八王子市,四谷町７４０番地２４,,13,201,1930813,,,,,,,2025-07-03,1,,,,,ヤキトリスズキ,0
481,3010401191418,新規,0,2025-07-03,2025-07-03,株式会社Ｔｈｒｅｅ　Ａｒｒｏｗｓ,,株式会社,東京都,港区,高輪３丁目４番１３号,,13,103,1080074,,,,,,,2025-07-03,1,,,,,スリーアローズ,0
482,3010401191426,新規,0,2025-07-03,2025-07-03,株式会社インベクター,,株式会社,東京都,港区,六本木６丁目１０番１号六本木ヒルズ森タワー１６階,,13,103,1060032,,,,,,,2025-07-03,1,,,,,インベクター,0
483,3010401191459,新規,0,2025-07-03,2025-07-03,株式会社すずき不動産,,株式会社,東京都,港区,芝５丁目３６番４号札の辻スクエア９階,,13,103,1080014,,,,,,,2025-07-03,1,,,,,スズキフドウサン,0
489,3010403035449,新規,0,2025-07-03,2025-07-03,合同会社Ｋ８ＳＫ,,合同会社,東京都,港区,芝３丁目３２－１２,,13,103,1050014,,,,,,,2025-07-03,1,,,,,ケイエスケイ,0
490,3010403035481,新規,0,2025-07-03,2025-07-03,ＦＭＩ合同会社,,合同会社,東京都,港区,芝浦２丁目９番１－１２０４号,,13,103,1080023,,,,,,,2025-07-03,1,,,,,エフエムアイ,0
491,3010403035498,新規,0,2025-07-03,2025-07-03,合同会社ＷＡＭ,,合同会社,東京都,港区,白金１丁目２番１－Ｅ１２１８号,,13,103,1080072,,,,,,,2025-07-03,1,,,,,ワム,0
495,3010601067541,新規,0,2025-07-03,2025-07-03,株式会社アイティーフードサービス,,株式会社,東京都,江東区,豊洲４丁目２番７号サンベルク豊洲,,13,108,1350061,,,,,,,2025-07-03,1,,,,,アイティーフードサービス,0
496,3010603011654,新規,0,2025-07-03,2025-07-03,みなの合同会社,,合同会社,東京都,江東区,有明１丁目４番２０－７３２号,,13,108,1350063,,,,,,,2025-07-03,1,,,,,ミナノ,0
497,3010603011662,新規,0,2025-07-03,2025-07-03,合同会社ＩＬＯＣ,,合同会社,東京都,墨田区,東向島４丁目３１番１－２０１号,,13,107,1310032,,,,,,,2025-07-03,1,,,,,アイロック,0
501,3010901057671,新規,0,2025-07-03,2025-07-03,株式会社クラス,,株式会社,東京都,世田谷区,駒沢５丁目２０番１６号,,13,112,1540012,,,,,,,2025-07-03,1,,,,,クラス,0
504,3010903010059,新規,0,2025-07-03,2025-07-03,赤穂蓄電所合同会社,,合同会社,東京都,世田谷区,北沢１丁目３２番１０号,,13,112,1550031,,,,,,,2025-07-03,1,,,,,アコウチクデンショ,0
506,3011001170349,新規,0,2025-07-03,2025-07-03,株式会社ミライテラス,,株式会社,東京都,渋谷区,道玄坂１丁目１２－１渋谷マークシティＷ２２階,,13,113,1500043,,,,,,,2025-07-03,1,,,,,ミライテラス,0
507,3011001170415,新規,0,2025-07-03,2025-07-03,株式会社Ｔｏｔｔｏ．,,株式会社,東京都,渋谷区,神宮前４丁目１５番１６号原宿ジートルンク２０７,,13,113,1500001,,,,,,,2025-07-03,1,,,,,トット,0
508,3011001170646,新規,0,2025-07-03,2025-07-03,雷鳥キャピタル株式会社,,株式会社,東京都,目黒区,下目黒１丁目１番１４号コノトラビル７Ｆ,,13,110,1530064,,,,,,,2025-07-03,1,,,,,ライチョウキャピタル,0
513,3011101112317,新規,0,2025-07-03,2025-07-03,株式会社ＩＣグループ,,株式会社,東京都,新宿区,西新宿６丁目１５番１－２９０５号,,13,104,1600023,,,,,,,2025-07-03,1,,,,,アイシーグループ,0
517,3011501032288,新規,0,2025-07-03,2025-07-03,麻氏物産株式会社,,株式会社,東京都,荒川区,町屋３丁目１８番１２号ＮＤビル２２３,,13,118,1160001,,,,,,,2025-07-03,1,,,,,マーシブッサン,0
521,3011701028425,新規,0,2025-07-03,2025-07-03,株式会社京辰,,株式会社,東京都,江戸川区,西小岩３丁目６－１６,,13,123,1330057,,,,,,,2025-07-03,1,,,,,ケイシン,0
525,3012801024074,新規,0,2025-07-03,2025-07-03,東成株式会社,,株式会社,東京都,東大和市,芋窪４丁目１８３４番地の１,,13,220,2070033,,,,,,,2025-07-03,1,,,,,トウセイ,0
534,3020001163650,新規,0,2025-07-03,2025-07-03,Ａｓｓｏｃｉａｔｅ　Ａｓｉａ株式会社,,株式会社,神奈川県,横浜市青葉区,美しが丘２丁目１番地２７第５正美ビル４０５,,14,117,2250002,,,,,,,2025-07-03,1,,,,,アソシエイトアジア,0
535,3020001163675,新規,0,2025-07-03,2025-07-03,株式会社ＳＥＥＤｓ,,株式会社,神奈川県,横浜市西区,北幸２丁目１０番４８号むつみビル３階,,14,103,2200004,,,,,,,2025-07-03,1,,,,,シーズ,0
536,3020001163691,新規,0,2025-07-03,2025-07-03,株式会社アルバスエステート,,株式会社,神奈川県,横浜市神奈川区,新子安１丁目１４番２１号プリムス１階,,14,102,2210013,,,,,,,2025-07-03,1,,,,,アルバスエステート,0
540,3020003028819,新規,0,2025-07-03,2025-07-03,合同会社トライブ,,合同会社,神奈川県,横浜市旭区,小高町１５５番地８,,14,112,2410015,,,,,,,2025-07-03,1,,,,,トライブ,0
545,3030001167411,新規,0,2025-07-03,2025-07-03,ＴＯＫＵＺＯ株式会社,,株式会社,埼玉県,越谷市,赤山本町４番地１ヨネビルディング６Ｆ,,11,222,3430808,,,,,,,2025-07-03,1,,,,,トクゾー,0
552,3040001139418,新規,0,2025-07-03,2025-07-03,ｅホールディングス株式会社,,株式会社,千葉県,大網白里市,ながた野２丁目３番地５,,12,239,2993232,,,,,,,2025-07-03,1,,,,,イーホールディングス,0
554,3040003027942,新規,0,2025-07-03,2025-07-03,合同会社グランベル,,合同会社,千葉県,船橋市,旭町２丁目２４番１－１１２号,,12,204,2730041,,,,,,,2025-07-03,1,,,,,グランベル,0
555,3050001056876,新規,0,2025-07-03,2025-07-03,Ｅ’ｓ　Ｎｅｘｔ株式会社,,株式会社,茨城県,取手市,ゆめみ野２丁目２２番地１ＧＬＢゆめみ野Ａ棟１号室,,08,217,3020039,,,,,,,2025-07-03,1,,,,,イーズネクスト,0
560,3060001038345,新規,0,2025-07-03,2025-07-03,株式会社ＩＮＡ不動産,,株式会社,栃木県,那須郡那珂川町,北向田３３９番地２,,09,411,3240617,,,,,,,2025-07-03,1,,,,,アイエヌエーフドウサン,0
561,3060001038353,新規,0,2025-07-03,2025-07-03,株式会社シャイン,,株式会社,栃木県,大田原市,湯津上３０３番地２,,09,210,3240403,,,,,,,2025-07-03,1,,,,,シャイン,0
562,3060001038361,新規,0,2025-07-03,2025-07-03,株式会社ＴＯＫＯ,,株式会社,栃木県,宇都宮市,二荒町５番７号ＭＵＳＡＳＨＩｆｕｔａａｒａＢＡＳＥ３０４,,09,201,3200804,,,,,,,2025-07-03,1,,,,,トーコー,0
565,3080001027008,新規,0,2025-07-03,2025-07-03,株式会社職人宿,,株式会社,静岡県,静岡市葵区,千代２丁目１７－３８－４,,22,101,4211212,,,,,,,2025-07-03,1,,,,,ショクニンヤド,0
566,3080101025621,新規,0,2025-07-03,2025-07-03,株式会社富士塗装,,株式会社,静岡県,富士宮市,万野原新田４０４０番地の５,,22,207,4180001,,,,,,,2025-07-03,1,,,,,フジトソウ,0
569,3080401028002,新規,0,2025-07-03,2025-07-03,エスエスホールディングス株式会社,,株式会社,静岡県,浜松市中央区,上島３丁目７番１号,,22,138,4338122,,,,,,,2025-07-03,1,,,,,エスエスホールディングス,0
573,3080403005296,新規,0,2025-07-03,2025-07-03,合同会社雅克屋,,合同会社,静岡県,浜松市中央区,和合北４丁目８番３１号,,22,138,4338127,,,,,,,2025-07-03,1,,,,,マサカツヤ,0
581,3120001277250,新規,0,2025-07-03,2025-07-03,エルマノワイズ株式会社,,株式会社,大阪府,大阪市城東区,関目１丁目１２－７サンライズ関目６０１,,27,118,5360008,,,,,,,2025-07-03,1,,,,,エルマノワイズ,0
582,3120001277374,新規,0,2025-07-03,2025-07-03,株式会社喜組,00139778,株式会社,大阪府,大阪市北区,曾根崎新地１丁目８番７号フォーシーズンズ北新地Ｂ１,,27,127,5300002,,,,,,,2025-07-03,1,,,,,キグミ,0
583,3120001277408,新規,0,2025-07-03,2025-07-03,Ｉｃｏｎａ株式会社,,株式会社,大阪府,大阪市中央区,千日前１丁目５－１９寿楽ビル１００２号,,27,128,5420074,,,,,,,2025-07-03,1,,,,,イコナ,0
587,3122001039390,新規,0,2025-07-03,2025-07-03,薩摩建設株式会社,,株式会社,大阪府,東大阪市,長田３丁目１番３号,,27,227,5770015,,,,,,,2025-07-03,1,,,,,サツマケンセツ,0
589,3130001080018,新規,0,2025-07-03,2025-07-03,京‐ｅ‐Ｗｏｒｋｓ株式会社,,株式会社,京都府,京都市伏見区,桃山紅雪町８０番地３,,26,109,6120835,,,,,,,2025-07-03,1,,,,,ミヤコイーワークス,0
590,3130003010600,新規,0,2025-07-03,2025-07-03,合同会社ｍｉｎｏｕ,,合同会社,京都府,京都市中京区,三条河原町東入中島町９０－２ａｕｎｅ京都三条９Ｆ,,26,104,6040000,,,,,,,2025-07-03,1,,,,,ミヌー,0
597,3140003022264,新規,0,2025-07-03,2025-07-03,日盛合同会社,,合同会社,兵庫県,西宮市,羽衣町７番３１－１４０５号,,28,204,6620051,,,,,,,2025-07-03,1,,,,,ニッセイ,0
598,3140005027550,新規,0,2025-07-03,2025-07-03,一般社団法人まごころケアネット,,その他の設立登記法人,兵庫県,神戸市垂水区,塩屋町６丁目２番２号１Ｆ,,28,108,6550872,,,,,,,2025-07-03,1,,,,,マゴコロケアネット,0
599,3150001028238,新規,0,2025-07-03,2025-07-03,ＬＥＴＯＰＪＡＰＡＮ株式会社,,株式会社,奈良県,香芝市,瓦口９番地７,,29,210,6390225,,,,,,,2025-07-03,1,,,,,レトップジャパン,0
616,3210001020221,新規,0,2025-07-03,2025-07-03,株式会社ＡＫＮＯＷＬＥＤＧＥ,,株式会社,福井県,越前市,白崎町２４－４－６,,18,209,9150876,,,,,,,2025-07-03,1,,,,,エーナレッジ,0
624,3220001026779,新規,0,2025-07-03,2025-07-03,株式会社ＳＡＣ,,株式会社,石川県,金沢市,竪町１０１番地１宮下ビル２階,,17,201,9200997,,,,,,,2025-07-03,1,,,,,エスエーシー,0
629,3240001065148,新規,0,2025-07-03,2025-07-03,株式会社ＭＣＯＮＮＥＣＴＩＯＮ,,株式会社,広島県,廿日市市,友田１００２７番地６,,34,213,7380203,,,,,,,2025-07-03,1,,,,,エムコネクション,0
630,3240001065172,新規,0,2025-07-03,2025-07-03,株式会社ＴＰＷｏｒｋｓ,,株式会社,広島県,安芸郡熊野町,５３９０番地１,,34,307,7314200,,,,,,,2025-07-03,1,,,,,ティーピーワークス,0
634,3290001110584,新規,0,2025-07-03,2025-07-03,株式会社オーガホールディングス,,株式会社,福岡県,福岡市博多区,博多駅前３丁目９番１号,,40,132,8120011,,,,,,,2025-07-03,1,,,,,オーガホールディングス,0
635,3290001110667,新規,0,2025-07-03,2025-07-03,株式会社ＧＡ,,株式会社,福岡県,福岡市中央区,小笹１丁目１１番２６号,,40,133,8100033,,,,,,,2025-07-03,1,,,,,ジーエー,0
636,3290801031658,新規,0,2025-07-03,2025-07-03,３Ｋ’ｓハウス株式会社,,株式会社,福岡県,北九州市小倉北区,泉台２丁目２０番９号,,40,106,8030842,,,,,,,2025-07-03,1,,,,,スリーケーズハウス,0
638,3310003005037,新規,0,2025-07-03,2025-07-03,合同会社ベル,,合同会社,長崎県,佐世保市,上相浦町９番３４号,,42,202,8580915,,,,,,,2025-07-03,1,,,,,ベル,0
639,3330001033351,新規,0,2025-07-03,2025-07-03,株式会社コスモカンパニー,,株式会社,熊本県,熊本市中央区,世安１丁目６番２３号,,43,101,8600827,,,,,,,2025-07-03,1,,,,,コスモカンパニー,0
641,3340001027476,新規,0,2025-07-03,2025-07-03,株式会社曽木石油,,株式会社,鹿児島県,伊佐市,大口曽木１５３１番地１,,46,224,8952441,,,,,,,2025-07-03,1,,,,,ソギセキユ,0
643,3350001019613,新規,0,2025-07-03,2025-07-03,株式会社霧島国際研究学園,,株式会社,宮崎県,宮崎市,永楽町３番地３,,45,201,8800872,,,,,,,2025-07-03,1,,,,,キリシマコクサイケンキュウガクエン,0
656,3380003006078,新規,0,2025-07-03,2025-07-03,須賀川風力発電合同会社,,合同会社,福島県,須賀川市,卸町４４番地,,07,207,9620053,,,,,,,2025-07-03,1,,,,,スカガワフウリョクハツデン,0
657,3390001018033,新規,0,2025-07-03,2025-07-03,株式会社Ｒｉｃｏｒｏ,,株式会社,山形県,米沢市,大町３丁目５番３０号,,06,202,9920031,,,,,,,2025-07-03,1,,,,,リコロ,0
658,3390001018041,新規,0,2025-07-03,2025-07-03,株式会社旭ブレインズ,,株式会社,山形県,山形市,東原町２丁目１番２７号,,06,201,9900034,,,,,,,2025-07-03,1,,,,,アサヒブレインズ,0
661,3420001019201,新規,0,2025-07-03,2025-07-03,株式会社新時代ＨＤ　Ｍ,,株式会社,青森県,五所川原市,金木町喜良市坂本５６番地１２３,,02,205,0370203,,,,,,,2025-07-03,1,,,,,シンジダイホールディングスエム,0
664,3430001094747,新規,0,2025-07-03,2025-07-03,株式会社ＭＥＧＬＯＷ,,株式会社,北海道,札幌市中央区,南八条西５丁目２８９番地７２,,01,101,0640808,,,,,,,2025-07-03,1,,,,,メグロウ,0
665,3430001094788,新規,0,2025-07-03,2025-07-03,株式会社ａｒｉｓｔ,,株式会社,北海道,札幌市東区,東雁来十一条２丁目１２番１０号,,01,103,0070031,,,,,,,2025-07-03,1,,,,,アリスト,0
667,3440001009638,新規,0,2025-07-03,2025-07-03,ＩＮＳＩＤＥ　ＶＩＬＬＡＧＥ株式会社,,株式会社,北海道,函館市,千代台町１７番９号,,01,202,0400013,,,,,,,2025-07-03,1,,,,,インサイドビレッジ,0
670,3470003002910,新規,0,2025-07-03,2025-07-03,合同会社ＨＫリンクス,,合同会社,香川県,高松市,田村町８９６番地１－１０３,,37,201,7618057,,,,,,,2025-07-03,1,,,,,エイチケーリンクス,0
672,3480003002281,新規,0,2025-07-03,2025-07-03,ＫＪフーズ合同会社,,合同会社,徳島県,阿南市,住吉町横見境６９番地３,,36,204,7740041,,,,,,,2025-07-03,1,,,,,ケイジェィフーズ,0
675,4010001256454,新規,0,2025-07-03,2025-07-03,ＢＬＥＮＤＥＡ株式会社,,株式会社,東京都,中央区,銀座１丁目１２－４Ｎ＆ＥＢＬＤ６Ｆ,,13,102,1040061,,,,,,,2025-07-03,1,,,,,ブレンディア,0
676,4010001256479,新規,0,2025-07-03,2025-07-03,株式会社ｉｉｍ,,株式会社,東京都,中央区,銀座１丁目１２番４号Ｎ＆Ｅ・ＢＬＤ．６Ｆ,,13,102,1040061,,,,,,,2025-07-03,1,,,,,アイアイエム,0
677,4010001256545,新規,0,2025-07-03,2025-07-03,株式会社りんたろうランド,,株式会社,東京都,千代田区,神田神保町３丁目２番地２８ＡＣＮ神保町ビル１１階,,13,101,1010051,,,,,,,2025-07-03,1,,,,,リンタロウランド,0
685,4010401191359,新規,0,2025-07-03,2025-07-03,株式会社ＹＴ　ＢＥＡＵＴＹ,,株式会社,東京都,港区,南青山２丁目２２番１９号,,13,103,1070062,,,,,,,2025-07-03,1,,,,,ワイティビューティ,0
686,4010401191417,新規,0,2025-07-03,2025-07-03,株式会社アカミー,,株式会社,東京都,港区,虎ノ門３丁目２２番１０－２０５号,,13,103,1050001,,,,,,,2025-07-03,1,,,,,アカミー,0
687,4010401191490,新規,0,2025-07-03,2025-07-03,ＮＥＸＵＳ　ＣＯＮＳＵＬＴＩＮＧ株式会社,,株式会社,東京都,港区,北青山１丁目３番１号アールキューブ青山３階,,13,103,1070061,,,,,,,2025-07-03,1,,,,,ネクサスコンサルティング,0
689,4010403035522,新規,0,2025-07-03,2025-07-03,Ｚ‐ｍａｒｋｅｔｉｎｇ合同会社,,合同会社,東京都,港区,六本木７丁目１番１４－６０２号,,13,103,1060032,,,,,,,2025-07-03,1,,,,,ゼットマーケティング,0
698,4011001170595,新規,0,2025-07-03,2025-07-03,株式会社ラフメット,,株式会社,東京都,渋谷区,道玄坂１丁目１０番８号渋谷道玄坂東急ビル２Ｆ－Ｃ,,13,113,1500043,,,,,,,2025-07-03,1,,,,,ラフメット,0
699,4011001170926,新規,0,2025-07-03,2025-07-03,株式会社ＳｍａｒｔＩｎｂｏｘ,,株式会社,東京都,渋谷区,道玄坂２丁目１５番１－１２１０号,,13,113,1500043,,,,,,,2025-07-03,1,,,,,スマートインボックス,0
704,4011101111961,新規,0,2025-07-03,2025-07-03,晴川株式会社,,株式会社,東京都,新宿区,山吹町３３７－５都住創山吹町ビル６０４Ｑ,,13,104,1620801,,,,,,,2025-07-03,1,,,,,セイセン,0
706,4011103016069,新規,0,2025-07-03,2025-07-03,合同会社對馬,,合同会社,東京都,新宿区,西新宿６丁目５番１号新宿アイランドタワー２階,,13,104,1600023,,,,,,,2025-07-03,1,,,,,ツシマ,0
709,4011201026481,新規,0,2025-07-03,2025-07-03,ＧＤＳ株式会社,,株式会社,東京都,中野区,東中野１丁目５６番１大島ビル本館２０５,,13,114,1640003,,,,,,,2025-07-03,1,,,,,ジーディーエス,0
711,4011301030697,新規,0,2025-07-03,2025-07-03,株式会社ＩＣＰ,,株式会社,東京都,杉並区,大宮２丁目１６番１９号１Ｆ,,13,115,1680061,,,,,,,2025-07-03,1,,,,,アイシーピー,0
716,4011501032238,新規,0,2025-07-03,2025-07-03,北商ユースフル株式会社,,株式会社,東京都,北区,赤羽北２丁目２９番１２号,,13,117,1150052,,,,,,,2025-07-03,1,,,,,ホクショウユースフル,0
723,4012703003308,新規,0,2025-07-03,2025-07-03,合同会社キャラナドデザイン,,合同会社,東京都,小平市,花小金井７丁目２７番６－４０５号,,13,211,1870002,,,,,,,2025-07-03,1,,,,,キャラナドデザイン,0
731,4020001163617,新規,0,2025-07-03,2025-07-03,株式会社渡辺建築設計事務所,,株式会社,神奈川県,横浜市戸塚区,戸塚町１６７番地１２若葉ビル２０１号室,,14,110,2440003,,,,,,,2025-07-03,1,,,,,ワタナベケンチクセッケイジムショ,0
732,4020001163641,新規,0,2025-07-03,2025-07-03,株式会社横浜総合サービス,,株式会社,神奈川県,横浜市西区,中央２丁目１２番５号－１Ｆ,,14,103,2200051,,,,,,,2025-07-03,1,,,,,ヨコハマソウゴウサービス,0
733,4020001163708,新規,0,2025-07-03,2025-07-03,株式会社Ｎワークス,,株式会社,神奈川県,横浜市南区,宿町３丁目６２番地みなみハイム２０１,,14,105,2320017,,,,,,,2025-07-03,1,,,,,エヌワークス,0
738,4020003028891,新規,0,2025-07-03,2025-07-03,合同会社Ｒｉｘｙ,,合同会社,神奈川県,横浜市神奈川区,金港町５‐１４クアドリフォリオ８階,,14,102,2210056,,,,,,,2025-07-03,1,,,,,リクシー,0
744,4030001167410,新規,0,2025-07-03,2025-07-03,株式会社ロジクルー,,株式会社,埼玉県,富士見市,西みずほ台１丁目４番地４第２みずほ台マンション５０３,,11,235,3540018,,,,,,,2025-07-03,1,,,,,ロジクルー,0
749,4030003027026,新規,0,2025-07-03,2025-07-03,合同会社Ｆｏｒｎｅｓｔ,,合同会社,埼玉県,川口市,元郷１丁目１－２１－８１２,,11,203,3320011,,,,,,,2025-07-03,1,,,,,フォーネスト,0
750,4030003027117,新規,0,2025-07-03,2025-07-03,合同会社清水総業,,合同会社,埼玉県,加須市,花崎２丁目２５番地１１,,11,210,3470032,,,,,,,2025-07-03,1,,,,,シミズソウギョウ,0
755,4040001139466,新規,0,2025-07-03,2025-07-03,株式会社グリーンワークス,,株式会社,千葉県,市川市,下貝塚１丁目３－３５,,12,203,2720821,,,,,,,2025-07-03,1,,,,,グリーンワークス,0
757,4050001056883,新規,0,2025-07-03,2025-07-03,三国屋建設ホールディングス株式会社,,株式会社,茨城県,神栖市,奥野谷８０８３番地１,,08,232,3140116,,,,,,,2025-07-03,1,,,,,ミクニヤケンセツホールディングス,0
759,4060003005623,新規,0,2025-07-03,2025-07-03,合同会社ＳＴＰ,,合同会社,栃木県,下都賀郡野木町,大字友沼６０２１番地４,,09,364,3290101,,,,,,,2025-07-03,1,,,,,エスティーピー,0
763,4080001027007,新規,0,2025-07-03,2025-07-03,株式会社ＳＲＴ,,株式会社,静岡県,静岡市葵区,瀬名川３丁目１３番５２号,,22,101,4200913,,,,,,,2025-07-03,1,,,,,エスアールティー,0
764,4080101025620,新規,0,2025-07-03,2025-07-03,株式会社翔洋建設,,株式会社,静岡県,富士市,大淵５３番地の１４０Ｌａ’ｐｉｎ１０１号,,22,210,4170801,,,,,,,2025-07-03,1,,,,,ショウヨウケンセツ,0
765,4100001038736,新規,0,2025-07-03,2025-07-03,株式会社ＳＡＢＯＴＥＮ,,株式会社,長野県,木曽郡南木曽町,読書３４６５－２,,20,423,3995301,,,,,,,2025-07-03,1,,,,,サボテン,0
767,4110001039378,新規,0,2025-07-03,2025-07-03,株式会社Ｎｏａｈ,,株式会社,新潟県,新潟市中央区,下大川前通１ノ町１９３７番地１,,15,103,9518052,,,,,,,2025-07-03,1,,,,,ノア,0
769,4110005017248,新規,0,2025-07-03,2025-07-03,土地家屋調査士法人星野合同事務所,,その他の設立登記法人,新潟県,小千谷市,城内１丁目８番２０号,,15,208,9470028,,,,,,,2025-07-03,1,,,,,ホシノゴウドウジムショ,0
775,4120001277365,新規,0,2025-07-03,2025-07-03,ロングテック株式会社,,株式会社,大阪府,大阪市中央区,平野町２丁目３番７号アーバンエース北浜ビル１階,,27,128,5410046,,,,,,,2025-07-03,1,,,,,ロングテック,0
776,4120001277373,新規,0,2025-07-03,2025-07-03,株式会社Ｏｔｋ,,株式会社,大阪府,大阪市淀川区,野中南２丁目５番２６号,,27,123,5320022,,,,,,,2025-07-03,1,,,,,オーティーケー,0
777,4120001277407,新規,0,2025-07-03,2025-07-03,青耀株式会社,,株式会社,大阪府,大阪市中央区,千日前１丁目５－１９寿楽ビル１００４号,,27,128,5420074,,,,,,,2025-07-03,1,,,,,セイヨウ,0
778,4120001277423,新規,0,2025-07-03,2025-07-03,おとかぷ株式会社,,株式会社,大阪府,大阪市中央区,道修町２丁目２番５号イヌイ第二ビル２階,,27,128,5410045,,,,,,,2025-07-03,1,,,,,オトカプ,0
779,4120001277464,新規,0,2025-07-03,2025-07-03,株式会社ＺＯＭ,,株式会社,大阪府,大阪市中央区,南船場３丁目２－２２おおきに南船場ビル２０５,,27,128,5420081,,,,,,,2025-07-03,1,,,,,ゾム,0
781,4120003029459,新規,0,2025-07-03,2025-07-03,合同会社ＶＯＴＵＭ,,合同会社,大阪府,大阪市浪速区,桜川１丁目１番１６－４０１号,,27,111,5560022,,,,,,,2025-07-03,1,,,,,ヴォツム,0
782,4120003029517,新規,0,2025-07-03,2025-07-03,ＪＰＤ合同会社,,合同会社,大阪府,大阪市北区,梅田１丁目２番２号大阪駅前第２ビル１２－１２,,27,127,5300001,,,,,,,2025-07-03,1,,,,,ジェーピーディー,0
783,4120003029905,新規,0,2025-07-03,2025-07-03,ＪＳＢ　Ｉｎｔｅｒｎａｔｉｏｎａｌ合同会社,,合同会社,大阪府,守口市,八雲東町２丁目５３番６号,,27,209,5700021,,,,,,,2025-07-03,1,,,,,ジェイエスビーインターナショナル,0
787,4120903005749,新規,0,2025-07-03,2025-07-03,合同会社アソビヤベース,,合同会社,大阪府,茨木市,太田２丁目１２番１６号,,27,211,5670018,,,,,,,2025-07-03,1,,,,,アソビヤベース,0
792,4130001080009,新規,0,2025-07-03,2025-07-03,Ａｒｔｉｓａｎ　Ｊａｐａｎ株式会社,,株式会社,京都府,京都市下京区,七条通油小路東入大黒町２２７番地第２キョートビル４０２,,26,106,6008223,,,,,,,2025-07-03,1,,,,,アーティザンジャパン,0
793,4130001080017,新規,0,2025-07-03,2025-07-03,株式会社ａｎｄ．ｏｎｅ,,株式会社,京都府,京都市伏見区,淀池上町３４番地,,26,109,6130904,,,,,,,2025-07-03,1,,,,,アンドワン,0
794,4130001080025,新規,0,2025-07-03,2025-07-03,株式会社山京商会,,株式会社,京都府,京都市山科区,大塚丹田３５番地４,,26,110,6078136,,,,,,,2025-07-03,1,,,,,サンキョウショウカイ,0
795,4130001080066,新規,0,2025-07-03,2025-07-03,株式会社ＳＨＯＯＴ３６０ＪＡＰＡＮ,,株式会社,京都府,京都市下京区,烏丸通仏光寺下る大政所町６８０番地１第八長谷ビル５Ｆ,,26,106,6008413,,,,,,,2025-07-03,1,,,,,シュートスリーシックスティジャパン,0
799,4140001139134,新規,0,2025-07-03,2025-07-03,ＣａｃｔｙＧｅｎＴｅｃｈ株式会社,,株式会社,兵庫県,神戸市中央区,磯辺通１丁目１番１８号カサベラ国際プラザビル７０７号室,,28,110,6510084,,,,,,,2025-07-03,1,,,,,カクティジェンテック,0
803,4150001028237,新規,0,2025-07-03,2025-07-03,タイヤＭＡＸ株式会社,,株式会社,奈良県,天理市,楢町１９６番地１,,29,204,6320005,,,,,,,2025-07-03,1,,,,,タイヤマックス,0
804,4150001028245,新規,0,2025-07-03,2025-07-03,株式会社関西ユニセンター,,株式会社,奈良県,香芝市,西真美３丁目１８番地４,,29,210,6390222,,,,,,,2025-07-03,1,,,,,カンサイユニセンター,0
805,4160003003526,新規,0,2025-07-03,2025-07-03,合同会社Ｎａｖｙ,,合同会社,滋賀県,高島市,安曇川町中央３丁目４－１７,,25,212,5201216,,,,,,,2025-07-03,1,,,,,ネイビー,0
810,4180001167544,新規,0,2025-07-03,2025-07-03,株式会社明治館,,株式会社,愛知県,名古屋市瑞穂区,亀城町５丁目４２番地,,23,108,4670876,,,,,,,2025-07-03,1,,,,,メイジカン,0
823,4200001043949,新規,0,2025-07-03,2025-07-03,株式会社ＧＲＯＵＮＤ１８,,株式会社,岐阜県,本巣市,見延１３１６番地３,,21,218,5010413,,,,,,,2025-07-03,1,,,,,グラウンドジュウハチ,0
827,4210001020220,新規,0,2025-07-03,2025-07-03,株式会社ひじりと,,株式会社,福井県,福井市,高木中央２丁目７０１,,18,201,9100804,,,,,,,2025-07-03,1,,,,,ヒジリト,0
831,4230001020978,新規,0,2025-07-03,2025-07-03,株式会社ＧｏＴｒｅｋ,,株式会社,富山県,富山市,赤田８９５番地,,16,201,9398064,,,,,,,2025-07-03,1,,,,,ゴートレック,0
834,4240001065163,新規,0,2025-07-03,2025-07-03,株式会社ａｌｂｏ,,株式会社,広島県,安芸高田市,吉田町常友１５１番地１,,34,214,7310521,,,,,,,2025-07-03,1,,,,,アルボ,0
836,4240003007287,新規,0,2025-07-03,2025-07-03,果乃島合同会社,,合同会社,広島県,広島市中区,大手町１丁目１－２０相生橋ビル７階Ａ号室,,34,101,7300051,,,,,,,2025-07-03,1,,,,,カノシマ,0
839,4260001040321,新規,0,2025-07-03,2025-07-03,株式会社Ｏｌｉｎｏ,,株式会社,岡山県,倉敷市,藤戸町天城１７５２番地１０,,33,202,7100132,,,,,,,2025-07-03,1,,,,,オリノ,0
841,4270001009233,新規,0,2025-07-03,2025-07-03,熊装株式会社,,株式会社,鳥取県,倉吉市,上井町１丁目４番地２,,31,203,6820022,,,,,,,2025-07-03,1,,,,,クマソウ,0
843,4280001009447,新規,0,2025-07-03,2025-07-03,株式会社宗家竹風軒,,株式会社,島根県,鹿足郡津和野町,後田ロ６０番地２１,,32,501,6995605,,,,,,,2025-07-03,1,,,,,ソウケチクフウケン,0
848,4290001110583,新規,0,2025-07-03,2025-07-03,株式会社ＯＤＡ,,株式会社,福岡県,福岡市南区,大橋４丁目８番１２－２０３号,,40,134,8150033,,,,,,,2025-07-03,1,,,,,オーディーエー,0
850,4290801031681,新規,0,2025-07-03,2025-07-03,株式会社ＣＯＣパートナーズ,,株式会社,福岡県,北九州市八幡西区,東鳴水４丁目２番９号,,40,109,8060051,,,,,,,2025-07-03,1,,,,,シーオーシーパートナーズ,0
851,4310001019673,新規,0,2025-07-03,2025-07-03,株式会社ヨシハル,,株式会社,長崎県,長崎市,油屋町１番３７号,,42,201,8500832,,,,,,,2025-07-03,1,,,,,ヨシハル,0
854,4320001021190,新規,0,2025-07-03,2025-07-03,株式会社２０,,株式会社,大分県,大分市,弁天２丁目３番１０号Ｋ１プラザ１０１,,44,201,8700017,,,,,,,2025-07-03,1,,,,,トゥエンティ,0
855,4320003004706,新規,0,2025-07-03,2025-07-03,タイト工業合同会社,,合同会社,大分県,大分市,大字勢家８７８番地,,44,201,8700100,,,,,,,2025-07-03,1,,,,,タイトコウギョウ,0
857,4340001027475,新規,0,2025-07-03,2025-07-03,株式会社照泉,,株式会社,鹿児島県,鹿児島市,紫原２丁目３５番２７号,,46,201,8900082,,,,,,,2025-07-03,1,,,,,テルミ,0
861,4370005010986,新規,0,2025-07-03,2025-07-03,医療法人いとうハートクリニック,,その他の設立登記法人,宮城県,柴田郡大河原町,字新東２２番地４,,04,321,9891246,,,,,,,2025-07-03,1,,,,,イトウハートクリニック,0
865,4380001035417,新規,0,2025-07-03,2025-07-03,株式会社生田目工業,,株式会社,福島県,東白川郡棚倉町,大字棚倉字中居野１７４番地１１,,07,481,9636131,,,,,,,2025-07-03,1,,,,,ナマタメコウギョウ,0
866,4380001035425,新規,0,2025-07-03,2025-07-03,株式会社伊達のひまわり会計事務所,,株式会社,福島県,伊達市,保原町字一丁目６番地,,07,213,9600624,,,,,,,2025-07-03,1,,,,,ダテノヒマワリカイケイジムショ,0
881,4430001094795,新規,0,2025-07-03,2025-07-03,株式会社坂本工房,,株式会社,北海道,恵庭市,恵み野北７丁目８番２２,,01,231,0611374,,,,,,,2025-07-03,1,,,,,サカモトコウボウ,0
887,4470001020789,新規,0,2025-07-03,2025-07-03,株式会社オルソ,,株式会社,香川県,高松市,瓦町１丁目７番地１３,,37,201,7600052,,,,,,,2025-07-03,1,,,,,オルソ,0
891,4480003002280,新規,0,2025-07-03,2025-07-03,ボルドヌイ合同会社,,合同会社,徳島県,徳島市,富田町２丁目２８番地の１,,36,201,7700915,,,,,,,2025-07-03,1,,,,,ボルドヌイ,0
893,4500001026386,新規,0,2025-07-03,2025-07-03,株式会社イノベーションＩＦＡ　Ｊａｐａｎ,,株式会社,愛媛県,松山市,雄郡１丁目１２番１１号上野ビル６０３号,,38,201,7900031,,,,,,,2025-07-03,1,,,,,イノベーションアイエフエージャパン,0
894,4500001026394,新規,0,2025-07-03,2025-07-03,菊友物流株式会社,,株式会社,愛媛県,東温市,志津川南１丁目７番地１,,38,215,7910206,,,,,,,2025-07-03,1,,,,,キクトモブツリュウ,0
903,5010001256412,新規,0,2025-07-03,2025-07-03,株式会社エアリンク,,株式会社,東京都,千代田区,丸の内１丁目１１番１号１３Ｆ,,13,101,1000005,,,,,,,2025-07-03,1,,,,,エアリンク,0
904,5010001256593,新規,0,2025-07-03,2025-07-03,株式会社Ｗｉｌｌ　Ｈｕｇ,,株式会社,東京都,中央区,銀座１丁目１２番４号Ｎ＆ＥＢＬＤ．６Ｆ,,13,102,1040061,,,,,,,2025-07-03,1,,,,,ウィルハグ,0
905,5010003047867,新規,0,2025-07-03,2025-07-03,合同会社神田知子事務所,,合同会社,東京都,千代田区,霞が関３丁目６－１５－２０２,,13,101,1000013,,,,,,,2025-07-03,1,,,,,カンダトモコジムショ,0
906,5010005040300,新規,0,2025-07-03,2025-07-03,税理士法人アークス総合会計事務所,,その他の設立登記法人,東京都,千代田区,岩本町２丁目１１番１号ハーブ神田ビル５Ｆ,,13,101,1010032,,,,,,,2025-07-03,1,,,,,アークスソウゴウカイケイジムショ,0
907,5010101016749,新規,0,2025-07-03,2025-07-03,株式会社Ｄ＆Ｂ,,株式会社,東京都,八王子市,日吉町１２番１６号,,13,201,1930836,,,,,,,2025-07-03,1,,,,,ディーアンドビー,0
915,5010401191424,新規,0,2025-07-03,2025-07-03,株式会社トラック輸送総合研究所,,株式会社,東京都,港区,六本木６丁目１０番１号六本木ヒルズ森タワー３４階,,13,103,1060032,,,,,,,2025-07-03,1,,,,,トラックユソウソウゴウケンキュウショ,0
916,5010401191440,新規,0,2025-07-03,2025-07-03,株式会社ＧＵＩＬＤＸ,,株式会社,東京都,港区,南青山２丁目２番１５号,,13,103,1070062,,,,,,,2025-07-03,1,,,,,ギルドエックス,0
917,5010401191515,新規,0,2025-07-03,2025-07-03,株式会社ブランシエールプラス,,株式会社,東京都,港区,芝２丁目９番１０号,,13,103,1050014,,,,,,,2025-07-03,1,,,,,ブランシエールプラス,0
918,5010401191523,新規,0,2025-07-03,2025-07-03,株式会社ＩＶ　Ｐａｒｔｎｅｒｓ,,株式会社,東京都,港区,芝浦４丁目１６－２５,,13,103,1080023,,,,,,,2025-07-03,1,,,,,アイヴイパートナーズ,0
920,5010501054332,新規,0,2025-07-03,2025-07-03,株式会社Ｍａｄｅ　ｉｎ上野,,株式会社,東京都,台東区,上野５丁目１６番１号,,13,106,1100005,,,,,,,2025-07-03,1,,,,,メイドインウエノ,0
921,5010603011652,新規,0,2025-07-03,2025-07-03,合同会社ファンタスティックライト,,合同会社,東京都,江東区,亀戸５丁目３８番９－２１４号,,13,108,1360071,,,,,,,2025-07-03,1,,,,,ファンタスティックライト,0
925,5010905004791,新規,0,2025-07-03,2025-07-03,特定非営利活動法人リスペクトリング,,その他の設立登記法人,東京都,世田谷区,等々力４丁目１８番４号,,13,112,1580082,,,,,,,2025-07-03,1,,,,,リスペクトリング,0
931,5011001170644,新規,0,2025-07-03,2025-07-03,株式会社ＤＯＯＬＩ,,株式会社,東京都,渋谷区,千駄ヶ谷４丁目２９番１２号北参道ダイヤモンドパレス３０７号室,,13,113,1510051,,,,,,,2025-07-03,1,,,,,ドゥーリ,0
932,5011001170925,新規,0,2025-07-03,2025-07-03,株式会社Ｔｏｋｙｏ　Ｓｔａｙｓ,,株式会社,東京都,渋谷区,道玄坂２丁目１５番１－１２１０号,,13,113,1500043,,,,,,,2025-07-03,1,,,,,トーキョーステイズ,0
935,5011003021936,新規,0,2025-07-03,2025-07-03,合同会社５Ｓｐｉｃｅ,,合同会社,東京都,目黒区,中目黒４丁目３番１１号,,13,110,1530061,,,,,,,2025-07-03,1,,,,,ファイブスパイス,0
936,5011003022050,新規,0,2025-07-03,2025-07-03,Ｔｅｎｓｈｏ合同会社,,合同会社,東京都,渋谷区,円山町５番３号ＭＩＥＵＸ渋谷ビル８階,,13,113,1500044,,,,,,,2025-07-03,1,,,,,テンショウ,0
943,5011301030696,新規,0,2025-07-03,2025-07-03,株式会社水井工業,,株式会社,東京都,杉並区,上高井戸２丁目１７番８－３０６号ファインクレスト富士見ケ丘,,13,115,1680074,,,,,,,2025-07-03,1,,,,,ミズイコウギョウ,0
944,5011303005614,新規,0,2025-07-03,2025-07-03,ＯＥＭ　Ｄｅｖｅｌｏｐｍｅｎｔ合同会社,,合同会社,東京都,杉並区,高円寺南２丁目５３－４アークビル高円寺４０３,,13,115,1660003,,,,,,,2025-07-03,1,,,,,,0
945,5011501032286,新規,0,2025-07-03,2025-07-03,株式会社共成,,株式会社,東京都,北区,浮間１丁目４番１－１００７号,,13,117,1150051,,,,,,,2025-07-03,1,,,,,キョウセイ,0
965,5020001163599,新規,0,2025-07-03,2025-07-03,株式会社ランドスケープ,,株式会社,神奈川県,横浜市戸塚区,平戸３丁目１８番５号,,14,110,2440802,,,,,,,2025-07-03,1,,,,,ランドスケープ,0
966,5020001163608,新規,0,2025-07-03,2025-07-03,株式会社ＳＣＦ,,株式会社,神奈川県,横浜市港北区,新横浜２丁目１８番地４レアシス新横浜パークフロント１２０５号,,14,109,2220033,,,,,,,2025-07-03,1,,,,,エスシーエフ,0
967,5020001163649,新規,0,2025-07-03,2025-07-03,株式会社ＫＪ,,株式会社,神奈川県,川崎市高津区,久本１丁目１５番１２号,,14,134,2130011,,,,,,,2025-07-03,1,,,,,ケイジェイ,0
968,5020001163665,新規,0,2025-07-03,2025-07-03,株式会社ｈｏａｎｇｔｅｃ,,株式会社,神奈川県,川崎市川崎区,駅前本町１１番地２川崎フロンティアビル４階,,14,131,2100007,,,,,,,2025-07-03,1,,,,,ホアンテック,0
969,5020001163707,新規,0,2025-07-03,2025-07-03,株式会社フルヤマ,,株式会社,神奈川県,川崎市高津区,二子１丁目１８番２１号,,14,134,2130002,,,,,,,2025-07-03,1,,,,,フルヤマ,0
972,5020003028841,新規,0,2025-07-03,2025-07-03,合同会社Ｌｙｎｑｘ,,合同会社,神奈川県,横浜市保土ケ谷区,仏向町１１８０番地５０,,14,106,2400044,,,,,,,2025-07-03,1,,,,,リンクス,0
977,5030001167426,新規,0,2025-07-03,2025-07-03,アルファトレーディング株式会社,,株式会社,埼玉県,さいたま市大宮区,上小町５３５番地,,11,103,3300855,,,,,,,2025-07-03,1,,,,,アルファトレーディング,0
980,5040001139457,新規,0,2025-07-03,2025-07-03,株式会社ＦＵＴＵＲＯ,,株式会社,千葉県,市川市,入船５－２１市川入船ウェルズ２１－Ａ棟,,12,203,2720134,,,,,,,2025-07-03,1,,,,,フットゥロー,0
981,5040001139580,新規,0,2025-07-03,2025-07-03,株式会社アルテス,,株式会社,千葉県,我孫子市,新木野４丁目１５―８,,12,222,2701114,,,,,,,2025-07-03,1,,,,,アルテス,0
984,5050001056882,新規,0,2025-07-03,2025-07-03,株式会社水戸菜園,,株式会社,茨城県,水戸市,河和田町４４７０番地の１７１,,08,201,3114153,,,,,,,2025-07-03,1,,,,,,0
987,5060001038351,新規,0,2025-07-03,2025-07-03,株式会社ＫＲＣｒａｆｔ,,株式会社,栃木県,小山市,大字間々田２４５０番地９４,,09,208,3290205,,,,,,,2025-07-03,1,,,,,ケーアールクラフト,0
989,5080401028000,新規,0,2025-07-03,2025-07-03,株式会社ＣＣＲ,,株式会社,静岡県,磐田市,匂坂上１８８－８メゾンセギュレＭ号室,,22,211,4380005,,,,,,,2025-07-03,1,,,,,シーシーアール,0
990,5080401028009,新規,0,2025-07-03,2025-07-03,静岡ＬＩＦＥ株式会社,,株式会社,静岡県,浜松市中央区,早出町８０１,,22,138,4350054,,,,,,,2025-07-03,1,,,,,シズオカライフ,0
991,5100001038735,新規,0,2025-07-03,2025-07-03,アイグレー株式会社,,株式会社,長野県,長野市,青木島１丁目２９番地２６,,20,201,3812247,,,,,,,2025-07-03,1,,,,,アイグレー,0
992,5100001038743,新規,0,2025-07-03,2025-07-03,株式会社Ｄ‐ｉｎｇ,,株式会社,長野県,千曲市,大字寂蒔４０５番地８,,20,218,3870016,,,,,,,2025-07-03,1,,,,,ディーイング,0
993,5100003008257,新規,0,2025-07-03,2025-07-03,合同会社Ａテック,,合同会社,長野県,松本市,横田２丁目１３番Ｂ－４０１号,,20,202,3900804,,,,,,,2025-07-03,1,,,,,エーテック,0
996,5110005017247,新規,0,2025-07-03,2025-07-03,司法書士法人星野合同事務所,,その他の設立登記法人,新潟県,小千谷市,城内１丁目８番２０号,,15,208,9470028,,,,,,,2025-07-03,1,,,,,ホシノゴウドウジムショ,0
1005,5120001277389,新規,0,2025-07-03,2025-07-03,豐正利株式会社,,株式会社,大阪府,守口市,梶町１丁目２８番２号,,27,209,5700015,,,,,,,2025-07-03,1,,,,,ホウセイリ,0
1006,5120001277422,新規,0,2025-07-03,2025-07-03,俄不動産株式会社,,株式会社,大阪府,大阪市天王寺区,勝山２丁目８番３号戸田ハイツ３０３号,,27,109,5430043,,,,,,,2025-07-03,1,,,,,ニワカフドウサン,0
1007,5120001277455,新規,0,2025-07-03,2025-07-03,株式会社あおちゃん,,株式会社,大阪府,大阪市平野区,加美南５丁目１０番１０号,,27,126,5470003,,,,,,,2025-07-03,1,,,,,アオチャン,0
1008,5120001277463,新規,0,2025-07-03,2025-07-03,株式会社もりわき産業医オフィス,,株式会社,大阪府,大阪市西区,南堀江１丁目１０番１１号,,27,106,5500015,,,,,,,2025-07-03,1,,,,,モリワキサンギョウイオフィス,0
1009,5120003029904,新規,0,2025-07-03,2025-07-03,Ｒａｙｃｏｎｎｅｃｔ合同会社,,合同会社,大阪府,大阪市福島区,海老江１丁目５番３０－６０５号,,27,103,5530001,,,,,,,2025-07-03,1,,,,,レイコネクト,0
1024,5140003022262,新規,0,2025-07-03,2025-07-03,合同会社ｎａｖｉｇａｔｉｏ,,合同会社,兵庫県,明石市,小久保１丁目１３番地の２ベルシエール４０１号,,28,203,6730005,,,,,,,2025-07-03,1,,,,,ナヴィガティオ,0
1025,5140003022270,新規,0,2025-07-03,2025-07-03,合同会社Ａｌｌｏｓｔａ,,合同会社,兵庫県,加古川市,志方町西中１４５－４,,28,210,6750346,,,,,,,2025-07-03,1,,,,,アロスタ,0
1027,5150001028228,新規,0,2025-07-03,2025-07-03,株式会社ＳＡＩＮＡトレーディング,,株式会社,奈良県,御所市,６３９番地の１,,29,208,6392200,,,,,,,2025-07-03,1,,,,,サイナトレーディング,0
1028,5150001028236,新規,0,2025-07-03,2025-07-03,日心製作株式会社,,株式会社,奈良県,奈良市,秋篠町９６９番地の１９,,29,201,6310811,,,,,,,2025-07-03,1,,,,,ニッシンセイサク,0
1029,5150001028244,新規,0,2025-07-03,2025-07-03,肉よし株式会社,,株式会社,奈良県,奈良市,富雄北１丁目１６番９号,,29,201,6310076,,,,,,,2025-07-03,1,,,,,ニクヨシ,0
1030,5150003003641,新規,0,2025-07-03,2025-07-03,合同会社ミューチュアルエイド,,合同会社,奈良県,奈良市,六条西３丁目１４－４,,29,201,6308044,,,,,,,2025-07-03,1,,,,,ミューチュアルエイド,0
1033,5170001018689,新規,0,2025-07-03,2025-07-03,株式会社ワコウホールディングス,,株式会社,和歌山県,和歌山市,和佐中１５１番地４,,30,201,6496326,,,,,,,2025-07-03,1,,,,,ワコウホールディングス,0
1037,5180005021143,新規,0,2025-07-03,2025-07-03,一般社団法人ｈａｍａｔｅｃ,,その他の設立登記法人,愛知県,名古屋市中川区,七反田町７８番地の２,,23,110,4540975,,,,,,,2025-07-03,1,,,,,ハマテック,0
1038,5180005021151,新規,0,2025-07-03,2025-07-03,医療法人徳重はりがや循環器内科,,その他の設立登記法人,愛知県,名古屋市緑区,徳重１丁目１４１５,,23,114,4580815,,,,,,,2025-07-03,1,,,,,トクシゲハリガヤジュンカンキナイカ,0
1044,5220001026777,新規,0,2025-07-03,2025-07-03,株式会社氷屋,,株式会社,石川県,小松市,平面町ヨ１５０番地２,,17,203,9230036,,,,,,,2025-07-03,1,,,,,コオリヤ,0
1045,5240001065170,新規,0,2025-07-03,2025-07-03,ウエイブオン株式会社,,株式会社,広島県,広島市安佐北区,倉掛３丁目２７番３号,,34,106,7391743,,,,,,,2025-07-03,1,,,,,ウエイブオン,0
1046,5240001065179,新規,0,2025-07-03,2025-07-03,株式会社ｎａｎａ,,株式会社,広島県,広島市安佐北区,安佐町大字筒瀬１２４６番地２,,34,106,7313354,,,,,,,2025-07-03,1,,,,,ナナ,0
1048,5250001021230,新規,0,2025-07-03,2025-07-03,株式会社カメナガ,,株式会社,山口県,山陽小野田市,日の出３丁目１番２６号,,35,216,7560091,,,,,,,2025-07-03,1,,,,,カメナガ,0
1049,5250003003763,新規,0,2025-07-03,2025-07-03,合同会社Ｔ＆Ｓ商会,,合同会社,山口県,山陽小野田市,大字厚狭２７番地５,,35,216,7570001,,,,,,,2025-07-03,1,,,,,ティアンドエスショウカイ,0
1056,5290001110599,新規,0,2025-07-03,2025-07-03,株式会社ランド,,株式会社,福岡県,福岡市東区,奈多団地２８番５０５号,,40,131,8110205,,,,,,,2025-07-03,1,,,,,ランド,0
1058,5290003017041,新規,0,2025-07-03,2025-07-03,合同会社Ｒｅ　ｓｔａｒｔ,,合同会社,福岡県,福岡市中央区,清川２丁目２１－９－１０２ニューパレス２４,,40,133,8100005,,,,,,,2025-07-03,1,,,,,リスタート,0
1059,5290003017066,新規,0,2025-07-03,2025-07-03,合同会社Ｓｐｉｄｅｒ　Ａｃａｄｅｍｙ,,合同会社,福岡県,福岡市博多区,博多駅前１丁目２３－２ＰａｒｋＦｒｏｎｔ１－５Ｆ－Ｂ,,40,132,8120011,,,,,,,2025-07-03,1,,,,,スパイダーアカデミー,0
1062,5310001019680,新規,0,2025-07-03,2025-07-03,株式会社松本商会,,株式会社,長崎県,長崎市,浜町６番１２号１Ｆ,,42,201,8500853,,,,,,,2025-07-03,1,,,,,マツモトショウカイ,0
1064,5320003004713,新規,0,2025-07-03,2025-07-03,合同会社ＭＡＳＡＫＩ,,合同会社,大分県,大分市,東春日町３番１６号,,44,201,8700037,,,,,,,2025-07-03,1,,,,,マサキ,0
1066,5340001027482,新規,0,2025-07-03,2025-07-03,ＵＲＡＩＲＯ株式会社,,株式会社,鹿児島県,鹿児島市,武１丁目２番１０号ＪＲ鹿児島中央ビル４階,,46,201,8900045,,,,,,,2025-07-03,1,,,,,ウライロ,0
1072,5380001035416,新規,0,2025-07-03,2025-07-03,株式会社石田防水,,株式会社,福島県,郡山市,富田東１丁目４３１番地,,07,203,9638047,,,,,,,2025-07-03,1,,,,,イシダボウスイ,0
1073,5400001017089,新規,0,2025-07-03,2025-07-03,株式会社アートリス,,株式会社,岩手県,滝沢市,室小路６３８番地２,,03,216,0200634,,,,,,,2025-07-03,1,,,,,アートリス,0
1074,5400001017097,新規,0,2025-07-03,2025-07-03,株式会社ｇａｉｎｓ,,株式会社,岩手県,盛岡市,本宮１丁目２番１２号,,03,201,0200866,,,,,,,2025-07-03,1,,,,,ゲインズ,0
1075,5430001094778,新規,0,2025-07-03,2025-07-03,Ｌｉｖｅｓｔａ　Ｐａｒｔｎｅｒｓ株式会社,,株式会社,北海道,札幌市南区,澄川五条４丁目２番１０号,,01,106,0050005,,,,,,,2025-07-03,1,,,,,リブスタパートナーズ,0
1079,5440001009636,新規,0,2025-07-03,2025-07-03,株式会社Ｍｅｃｈａ　Ｂｉｚ,,株式会社,北海道,函館市,千代台町２８番２号,,01,202,0400013,,,,,,,2025-07-03,1,,,,,メカビズ,0
1080,5470001020788,新規,0,2025-07-03,2025-07-03,株式会社Ａ．Ａ‐ｉ,,株式会社,香川県,高松市,仏生山町甲１６７２番地４,,37,201,7618078,,,,,,,2025-07-03,1,,,,,エーエーアイ,0
1082,5470003002917,新規,0,2025-07-03,2025-07-03,合同会社ＫＩデザインワークス,,合同会社,香川県,高松市,国分寺町新居３７１７番地５６,,37,201,7690101,,,,,,,2025-07-03,1,,,,,ケイアイデザインワークス,0
1085,5500001026393,新規,0,2025-07-03,2025-07-03,株式会社Ｐｉｃｔ,,株式会社,愛媛県,松山市,山越町４２３番地４瑞穂ビル１階,,38,201,7918014,,,,,,,2025-07-03,1,,,,,ピクト,0
1086,5500003003548,新規,0,2025-07-03,2025-07-03,合同会社相続の森,,合同会社,愛媛県,松山市,堀江町甲１４１０番地３,,38,201,7992651,,,,,,,2025-07-03,1,,,,,ソウゾクノモリ,0
1097,6010001256452,新規,0,2025-07-03,2025-07-03,株式会社キリマンジャロ,,株式会社,東京都,中央区,銀座１丁目１２番４号Ｎ＆ＥＢＬＤ．６Ｆ,,13,102,1040061,,,,,,,2025-07-03,1,,,,,キリマンジャロ,0
1098,6010001256460,新規,0,2025-07-03,2025-07-03,インフラストラクチャーキャピタルソリューションズ株式会社,,株式会社,東京都,千代田区,丸の内３丁目２番２号丸の内二重橋ビル,,13,101,1000005,,,,,,,2025-07-03,1,,,,,インフラストラクチャーキャピタルソリューションズ,0
1099,6010001256477,新規,0,2025-07-03,2025-07-03,株式会社ＳＡＳＡＥＲＵ,,株式会社,東京都,中央区,銀座１丁目２２番１１号銀座大竹ビジデンス２Ｆ,,13,102,1040061,,,,,,,2025-07-03,1,,,,,ササエル,0
1100,6010003047874,新規,0,2025-07-03,2025-07-03,合同会社和日和庵,,合同会社,東京都,中央区,銀座１丁目１２番４号Ｎ＆ＥＢＬＤ．６Ｆ,,13,102,1040061,,,,,,,2025-07-03,1,,,,,ワビヨリアン,0
1109,6010401191431,新規,0,2025-07-03,2025-07-03,株式会社Ｙ’ｓ　Ｂｅａｕｔｙ,,株式会社,東京都,港区,南青山２丁目２２番１９号,,13,103,1070062,,,,,,,2025-07-03,1,,,,,ワイズビューティ,0
1110,6010401191464,新規,0,2025-07-03,2025-07-03,株式会社ｍｉｄｔｉｄｅ,,株式会社,東京都,港区,三田５丁目７番８－５０２号,,13,103,1080073,,,,,,,2025-07-03,1,,,,,ミッドタイド,0
1113,6010601067547,新規,0,2025-07-03,2025-07-03,株式会社モスグリーン,,株式会社,東京都,江東区,大島５丁目４９番３－６０１号,,13,108,1360072,,,,,,,2025-07-03,1,,,,,モスグリーン,0
1117,6010803005461,新規,0,2025-07-03,2025-07-03,合同会社ＦａＳＩＮｇ　Ｍａｎａｇｅｍｅｎｔ　Ｄｅｓｉｇｎ,,合同会社,東京都,大田区,田園調布１丁目１２番４－４０２号,,13,111,1450071,,,,,,,2025-07-03,1,,,,,フェイシングマネジメントデザイン,0
1121,6010903010048,新規,0,2025-07-03,2025-07-03,Ｇｅｎ　Ｃｏｎｓｕｌｔｉｎｇ合同会社,,合同会社,東京都,世田谷区,桜丘４丁目２７番１６－１１２号,,13,112,1560054,,,,,,,2025-07-03,1,,,,,ゲンコンサルティング,0
1122,6010903010056,新規,0,2025-07-03,2025-07-03,合同会社ＨＡＹＡＮＯＢＵ,,合同会社,東京都,世田谷区,祖師谷１丁目３２番２号１０３号室,,13,112,1570072,,,,,,,2025-07-03,1,,,,,ハヤノブ,0
1125,6011001170635,新規,0,2025-07-03,2025-07-03,Ｍｙｒｉａ　Ｃａｐｉｔａｌ株式会社,,株式会社,東京都,渋谷区,広尾５丁目４番１２号大成綱機ビル４Ｆ,,13,113,1500012,,,,,,,2025-07-03,1,,,,,ミリアキャピタル,0
1126,6011001170651,新規,0,2025-07-03,2025-07-03,株式会社Ｃａｌａ　Ｂｒｉｌｌａｎｔｅ,,株式会社,東京都,渋谷区,猿楽町６番９号,,13,113,1500033,,,,,,,2025-07-03,1,,,,,カーラブリランテ,0
1128,6011003021885,新規,0,2025-07-03,2025-07-03,ＦＭＴ合同会社,,合同会社,東京都,渋谷区,神宮前１丁目５番８号,,13,113,1500001,,,,,,,2025-07-03,1,,,,,エフエムティ,0
1129,6011003022033,新規,0,2025-07-03,2025-07-03,Ａ２Ｃ合同会社,,合同会社,東京都,目黒区,目黒１丁目４番１６号目黒Ｇビル５階,,13,110,1530063,,,,,,,2025-07-03,1,,,,,エーツーシー,0
1133,6011103016075,新規,0,2025-07-03,2025-07-03,スナップコンサルト合同会社,,合同会社,東京都,新宿区,高田馬場２丁目１７－３東京三協信用金庫本店ビル８１９,,13,104,1690075,,,,,,,2025-07-03,1,,,,,スナップコンサルト,0
1144,6011803006953,新規,0,2025-07-03,2025-07-03,宍戸錺金具工芸合同会社,,合同会社,東京都,葛飾区,立石４丁目３１番１６号,,13,122,1240012,,,,,,,2025-07-03,1,,,,,シシドカザリカナグコウゲイ,0
1148,6020001163656,新規,0,2025-07-03,2025-07-03,株式会社Ａｓｇａｒｄ,,株式会社,神奈川県,横浜市泉区,和泉中央南２丁目２４番１０号,,14,116,2450023,,,,,,,2025-07-03,1,,,,,アスガルド,0
1149,6020001163680,新規,0,2025-07-03,2025-07-03,オフィスマエダ株式会社,,株式会社,神奈川県,横浜市青葉区,荏田西５丁目４番地３６,,14,117,2250014,,,,,,,2025-07-03,1,,,,,オフィスマエダ,0
1150,6020003028824,新規,0,2025-07-03,2025-07-03,合同会社柏桜第３８コンサルタント,,合同会社,神奈川県,横浜市青葉区,あざみ野４丁目９番地１６,,14,117,2250011,,,,,,,2025-07-03,1,,,,,カシワサクラダイサンジュウハチコンサルタント,0
1151,6020003028832,新規,0,2025-07-03,2025-07-03,チームＮＯＡ合同会社,,合同会社,神奈川県,川崎市宮前区,菅生２丁目１３番４３－４０４号,,14,136,2160015,,,,,,,2025-07-03,1,,,,,,0
1152,6020003028849,新規,0,2025-07-03,2025-07-03,ＣＯＣＵＶＯ合同会社,,合同会社,神奈川県,横浜市西区,北幸２丁目１０番４８号むつみビル３階,,14,103,2200004,,,,,,,2025-07-03,1,,,,,コクボ,0
1159,6030001167235,新規,0,2025-07-03,2025-07-03,吉光株式会社,,株式会社,埼玉県,八潮市,大字浮塚６８６－１－４０２,,11,234,3400835,,,,,,,2025-07-03,1,,,,,ヨシミツ,0
1160,6030001167409,新規,0,2025-07-03,2025-07-03,武士道ラボ株式会社,,株式会社,埼玉県,川口市,差間２丁目１１番１３号ロイヤル・グランツ１０２号室,,11,203,3330816,,,,,,,2025-07-03,1,,,,,ブシドウラボ,0
1161,6030001167524,新規,0,2025-07-03,2025-07-03,株式会社モゲトコ,,株式会社,埼玉県,川口市,東川口４丁目４番２９－３０７号,,11,203,3330801,,,,,,,2025-07-03,1,,,,,モゲトコ,0
1163,6030003027115,新規,0,2025-07-03,2025-07-03,やぎちゃん家合同会社,,合同会社,埼玉県,春日部市,粕壁６９４７番地１茂木店舗１０２,,11,214,3440061,,,,,,,2025-07-03,1,,,,,ヤギチャンチ,0
1168,6040001139464,新規,0,2025-07-03,2025-07-03,長岡株式会社,,株式会社,千葉県,千葉市花見川区,千種町１０８番地３５,,12,102,2620012,,,,,,,2025-07-03,1,,,,,ナガオカ,0
1169,6040001139472,新規,0,2025-07-03,2025-07-03,株式会社ＷＥＬＣＯＭＥ　ＪＡＰＡＮ,,株式会社,千葉県,松戸市,松飛台１４５－１０,,12,207,2702214,,,,,,,2025-07-03,1,,,,,ウェルカムジャパン,0
1171,6040003027964,新規,0,2025-07-03,2025-07-03,合同会社Ｅｘｃｅｅｄ,,合同会社,千葉県,市川市,下貝塚３丁目２３‐１３,,12,203,2720821,,,,,,,2025-07-03,1,,,,,エクシード,0
1172,6040003027972,新規,0,2025-07-03,2025-07-03,合同会社ネコリ・バーサキ,,合同会社,千葉県,柏市,旭町４丁目１１番３９ー２１３号,,12,217,2770852,,,,,,,2025-07-03,1,,,,,ネコリバーサキ,0
1173,6040005022807,新規,0,2025-07-03,2025-07-03,特定非営利活動法人新規就農者支援センター船橋,,その他の設立登記法人,千葉県,船橋市,大穴南２丁目２９番１８号,,12,204,2740067,,,,,,,2025-07-03,1,,,,,シンキシュウノウシャシエンセンターフナバシ,0
1176,6050001056873,新規,0,2025-07-03,2025-07-03,ＤＨＡＬＩ　ＥＮＴＥＲＰＲＩＳＥ株式会社,,株式会社,茨城県,坂東市,岩井２８４５番地１,,08,228,3060631,,,,,,,2025-07-03,1,,,,,ダリエンタープライズ,0
1178,6060001038359,新規,0,2025-07-03,2025-07-03,株式会社ＳＥＡＣ,,株式会社,栃木県,栃木市,城内町２丁目３番２８号,,09,203,3280033,,,,,,,2025-07-03,1,,,,,シーク,0
1185,6070003005991,新規,0,2025-07-03,2025-07-03,ＢｙｔｅＢｒｉｄｇｅ合同会社,,合同会社,群馬県,高崎市,栄町３ー１１高崎バナーズビル３ー５Ｆ,,10,202,3700841,,,,,,,2025-07-03,1,,,,,バイトブリッジ,0
1188,6080103003366,新規,0,2025-07-03,2025-07-03,合同会社描語舎,,合同会社,静岡県,駿東郡長泉町,南一色１６６番地の１２,,22,342,4110932,,,,,,,2025-07-03,1,,,,,ビョウゴシャ,0
1189,6080401028008,新規,0,2025-07-03,2025-07-03,株式会社ブレス浜松,,株式会社,静岡県,浜松市浜名区,貴布祢２２７番地の３,,22,139,4340038,,,,,,,2025-07-03,1,,,,,ブレスハママツ,0
1190,6090001019348,新規,0,2025-07-03,2025-07-03,ＫＲＩＳＴＩＮＥ　ＪＥＷＥＬＲＹ株式会社,,株式会社,山梨県,甲府市,高畑３丁目６番３８号,,19,201,4000042,,,,,,,2025-07-03,1,,,,,クリスティーンジュエリー,0
1194,6100001038742,新規,0,2025-07-03,2025-07-03,直信建設株式会社,,株式会社,長野県,飯田市,中村２６９番地６,,20,205,3950156,,,,,,,2025-07-03,1,,,,,チョクシンケンセツ,0
1195,6100003008264,新規,0,2025-07-03,2025-07-03,合同会社きゅう,,合同会社,長野県,長野市,七瀬２９－１－６０４,,20,201,3800922,,,,,,,2025-07-03,1,,,,,キュウ,0
1202,6120001277470,新規,0,2025-07-03,2025-07-03,株式会社Ｍａｉｓｏｎ　Ｎｅｕｖｅ,,株式会社,大阪府,大阪市西区,江戸堀３丁目６番２５－４０６号,,27,106,5500002,,,,,,,2025-07-03,1,,,,,メゾンヌーヴ,0
1203,6120001277545,新規,0,2025-07-03,2025-07-03,トリアップス株式会社,,株式会社,大阪府,大阪市北区,豊崎３丁目１５‐５ＴＫビル２Ｆ,,27,127,5310072,,,,,,,2025-07-03,1,,,,,トリアップス,0
1209,6120903005739,新規,0,2025-07-03,2025-07-03,合同会社Ｂｉｚｃｒａｆｔ,,合同会社,大阪府,摂津市,東別府３丁目１－１９－８０１,,27,224,5660042,,,,,,,2025-07-03,1,,,,,ビズクラフト,0
1221,6140001139132,新規,0,2025-07-03,2025-07-03,株式会社ＮＫプロダクト,,株式会社,兵庫県,西宮市,樋之池町２４番２１－２０１号,,28,204,6620084,,,,,,,2025-07-03,1,,,,,エヌケイプロダクト,0
1222,6140001139140,新規,0,2025-07-03,2025-07-03,株式会社ミニーログ,,株式会社,兵庫県,宝塚市,中山桜台６丁目８番１２号,,28,214,6650877,,,,,,,2025-07-03,1,,,,,ミニーログ,0
1223,6140001139165,新規,0,2025-07-03,2025-07-03,株式会社ＣＦＥコンサルティング,,株式会社,兵庫県,芦屋市,翠ケ丘町５番１号,,28,206,6590014,,,,,,,2025-07-03,1,,,,,シーエフイーコンサルティング,0
1226,6150001028227,新規,0,2025-07-03,2025-07-03,株式会社Ｍａｒｋ,,株式会社,奈良県,奈良市,八条町３８９番地の１,,29,201,6308146,,,,,,,2025-07-03,1,,,,,マーク,0
1227,6150001028243,新規,0,2025-07-03,2025-07-03,株式会社ナラリサ,,株式会社,奈良県,北葛城郡上牧町,片岡台１丁目６番地１１５,,29,424,6390201,,,,,,,2025-07-03,1,,,,,ナラリサ,0
1229,6160001026816,新規,0,2025-07-03,2025-07-03,株式会社ヤマタク,,株式会社,滋賀県,草津市,矢橋町７番地１０２－２０２有元荘,,25,206,5250066,,,,,,,2025-07-03,1,,,,,ヤマタク,0
1232,6180001167567,新規,0,2025-07-03,2025-07-03,株式会社Ｍｙｓｔｒａｄａ,,株式会社,愛知県,名古屋市港区,南十番町４丁目６番地の１プライズ南十番３０１号,,23,111,4550007,,,,,,,2025-07-03,1,,,,,マイストラーダ,0
1233,6180001167583,新規,0,2025-07-03,2025-07-03,株式会社貴佳,,株式会社,愛知県,名古屋市熱田区,六番２丁目１４番１５号,,23,109,4560058,,,,,,,2025-07-03,1,,,,,タカケイ,0
1237,6210005010216,新規,0,2025-07-03,2025-07-03,一般社団法人ｍｕｍｍ,,その他の設立登記法人,福井県,福井市,文京３丁目６－１７,,18,201,9100017,,,,,,,2025-07-03,1,,,,,ムーム,0
1242,6240001065145,新規,0,2025-07-03,2025-07-03,株式会社メメメ,,株式会社,広島県,呉市,三条３丁目２番１３号,,34,202,7370821,,,,,,,2025-07-03,1,,,,,メメメ,0
1244,6250001021221,新規,0,2025-07-03,2025-07-03,アラインホールディングス株式会社,,株式会社,山口県,岩国市,長野１８１５番地７,,35,208,7400045,,,,,,,2025-07-03,1,,,,,アラインホールディングス,0
1245,6250001021238,新規,0,2025-07-03,2025-07-03,カーグラスサービス株式会社,,株式会社,山口県,下関市,大字冨任１３２番地,,35,201,7596615,,,,,,,2025-07-03,1,,,,,カーグラスサービス,0
1250,6290001110598,新規,0,2025-07-03,2025-07-03,株式会社ＨＤＫ,,株式会社,福岡県,福岡市早良区,飯倉８丁目５番２９号,,40,137,8140161,,,,,,,2025-07-03,1,,,,,エイチディーケー,0
1252,6290003017057,新規,0,2025-07-03,2025-07-03,合同会社９１,,合同会社,福岡県,福岡市東区,多の津４丁目２３番２５－１００３号,,40,131,8130034,,,,,,,2025-07-03,1,,,,,ナインワン,0
1254,6300005007252,新規,0,2025-07-03,2025-07-03,ＮＰＯ法人さが子ども多文化センター・わーるどりんぐ,,その他の設立登記法人,佐賀県,佐賀市,唐人２丁目５番１５号まちなかオフィスＴＯＪＩＮ館９号,,41,201,8400813,,,,,,,2025-07-03,1,,,,,サガコドモタブンカセンターワールドリング,0
1255,6310001019671,新規,0,2025-07-03,2025-07-03,株式会社花音,,株式会社,長崎県,佐世保市,天満町２－１７－２Ｆ,,42,202,8570043,,,,,,,2025-07-03,1,,,,,カノン,0
1256,6320001021197,新規,0,2025-07-03,2025-07-03,みのりマネジメント株式会社,,株式会社,大分県,別府市,石垣東６丁目１番１３号,,44,202,8740919,,,,,,,2025-07-03,1,,,,,ミノリマネジメント,0
1258,6330003011088,新規,0,2025-07-03,2025-07-03,合同会社Ｓ・Ｙ,,合同会社,熊本県,菊池郡大津町,大字大林１５２８番地２９,,43,403,8691219,,,,,,,2025-07-03,1,,,,,エスドットワイ,0
1259,6340001027473,新規,0,2025-07-03,2025-07-03,ＫＭＴＴ株式会社,,株式会社,鹿児島県,鹿児島市,松原町１０番２４－７０２,,46,201,8920833,,,,,,,2025-07-03,1,,,,,ケーエムティーティー,0
1260,6340001027481,新規,0,2025-07-03,2025-07-03,株式会社ＬＩＶＩＯＮ,,株式会社,鹿児島県,鹿屋市,西原１丁目２８番３５号向日葵Ａ,,46,203,8930064,,,,,,,2025-07-03,1,,,,,リビオン,0
1266,6370001052766,新規,0,2025-07-03,2025-07-03,株式会社ＴＳＫイノベーション,,株式会社,宮城県,仙台市青葉区,大手町６番１５－２号ＳｈａＭａｉｓｏｎＳｔａｇｅ大手町３０２,,04,101,9800805,,,,,,,2025-07-03,1,,,,,ティーエスケーイノベーション,0
1270,6380005012988,新規,0,2025-07-03,2025-07-03,一般社団法人アル・ラフマーン・モスク・しらかわ,,その他の設立登記法人,福島県,白河市,五番町川原３３番地１３,,07,205,9610076,,,,,,,2025-07-03,1,,,,,アルラフマーンモスクシラカワ,0
1272,6400001017088,新規,0,2025-07-03,2025-07-03,ＦＰＳ株式会社,,株式会社,岩手県,滝沢市,穴口８７番地２７,,03,216,0200633,,,,,,,2025-07-03,1,,,,,エフピーエス,0
1278,6430001094752,新規,0,2025-07-03,2025-07-03,雪小板株式会社,,株式会社,北海道,札幌市手稲区,稲穂一条６丁目２２番１号,,01,109,0060031,,,,,,,2025-07-03,1,,,,,ユキコイタ,0
1280,6430003017793,新規,0,2025-07-03,2025-07-03,ひろや合同会社,,合同会社,北海道,札幌市豊平区,平岸一条８丁目４番６号,,01,105,0620931,,,,,,,2025-07-03,1,,,,,ヒロヤ,0
1282,6440003001697,新規,0,2025-07-03,2025-07-03,ＮＯＴ　ＴＨＥ　ＳＡＭＥ合同会社,,合同会社,北海道,函館市,堀川町１０番１６号,,01,202,0400025,,,,,,,2025-07-03,1,,,,,ノットザセイム,0
1284,6450001014659,新規,0,2025-07-03,2025-07-03,株式会社アンドオート,,株式会社,北海道,旭川市,東旭川町共栄１２１番地３,,01,204,0788340,,,,,,,2025-07-03,1,,,,,アンドオート,0
1286,6470001020787,新規,0,2025-07-03,2025-07-03,株式会社ケアルス,,株式会社,香川県,東かがわ市,大谷６番地,,37,207,7692513,,,,,,,2025-07-03,1,,,,,ケアルス,0
1288,6480003002279,新規,0,2025-07-03,2025-07-03,合同会社本田鉄工所,,合同会社,徳島県,名西郡石井町,高川原字桜間１８６番地１,,36,341,7793225,,,,,,,2025-07-03,1,,,,,ホンダテッコウショ,0
1289,6500001026384,新規,0,2025-07-03,2025-07-03,株式会社リンク,,株式会社,愛媛県,松山市,道後喜多町８番８号道後山本ビル７０７号,,38,201,7900848,,,,,,,2025-07-03,1,,,,,リンク,0
1290,6500001026392,新規,0,2025-07-03,2025-07-03,株式会社近樹,,株式会社,愛媛県,松山市,宮田町１５３番地,,38,201,7900066,,,,,,,2025-07-03,1,,,,,キンキ,0
1291,6500001026401,新規,0,2025-07-03,2025-07-03,株式会社ほのか穂,,株式会社,愛媛県,松山市,美沢１丁目８番５７号ハイム美沢５０７号,,38,201,7918022,,,,,,,2025-07-03,1,,,,,ホノカホ,0
1300,7010001256204,新規,0,2025-07-03,2025-07-03,株式会社キャリヴィア,,株式会社,東京都,千代田区,外神田６丁目１６番１号外神田フジハイツ２０２,,13,101,1010021,,,,,,,2025-07-03,1,,,,,キャリヴィア,0
1301,7010003047799,新規,0,2025-07-03,2025-07-03,ＳＨ合同会社,,合同会社,東京都,中央区,晴海３丁目１３番２－１０１２号,,13,102,1040053,,,,,,,2025-07-03,1,,,,,エスエイチ,0
1302,7010003047857,新規,0,2025-07-03,2025-07-03,猫舌ゲームズ合同会社,,合同会社,東京都,中央区,日本橋箱崎町２７番９号１Ｆ１１４号室,,13,102,1030015,,,,,,,2025-07-03,1,,,,,ネコジタゲームズ,0
1309,7010401191422,新規,0,2025-07-03,2025-07-03,株式会社あなたの専属ドライバー,,株式会社,東京都,港区,赤坂７丁目５番６号ライオンズマンション赤坂８０１号室,,13,103,1070052,,,,,,,2025-07-03,1,,,,,アナタノセンゾクドライバー,0
1310,7010401191521,新規,0,2025-07-03,2025-07-03,株式会社Ｔａｂｉｆｙ,,株式会社,東京都,港区,南青山３丁目１番３６号青山丸竹ビル６Ｆ,,13,103,1070062,,,,,,,2025-07-03,1,,,,,タビファイ,0
1311,7010403035486,新規,0,2025-07-03,2025-07-03,Ｎｅｘｔｈｉｎｋ合同会社,,合同会社,東京都,港区,西新橋３丁目２４番８号山内ビル３階,,13,103,1050003,,,,,,,2025-07-03,1,,,,,ネクストシンク,0
1312,7010403035528,新規,0,2025-07-03,2025-07-03,ＸＲアセットマネージメント合同会社,,合同会社,東京都,港区,六本木５丁目２番１号ほうらいやビル７Ｆ,,13,103,1060032,,,,,,,2025-07-03,1,,,,,エックスアールアセットマネージメント,0
1313,7010501054330,新規,0,2025-07-03,2025-07-03,株式会社ＳＯＲＮＩＡ,,株式会社,東京都,台東区,西浅草２丁目２番４－１１０２号,,13,106,1110035,,,,,,,2025-07-03,1,,,,,ソルニア,0
1316,7010603011667,新規,0,2025-07-03,2025-07-03,合同会社ｓｌｉｐｄａｔａ　ｄｅｓｉｇｎｉｎｇ,,合同会社,東京都,江東区,扇橋１丁目２１－５－４２０,,13,108,1350011,,,,,,,2025-07-03,1,,,,,スリップデータデザイニング,0
1327,7011001170485,新規,0,2025-07-03,2025-07-03,株式会社ＮｉｅＶホールディングス,,株式会社,東京都,渋谷区,神宮前２丁目３－１８建築家会館ＪＩＡ館６階,,13,113,1500001,,,,,,,2025-07-03,1,,,,,ニーヴホールディングス,0
1328,7011001170584,新規,0,2025-07-03,2025-07-03,株式会社フェリックスキャピタル,,株式会社,東京都,目黒区,洗足１丁目２０番１３号３４３レジデンス目黒ＩＩ５０１,00139780,13,110,1520012,,,,,,,2025-07-03,1,,,,,フェリックスキャピタル,0
1332,7011003021884,新規,0,2025-07-03,2025-07-03,ＣＭＴ合同会社,,合同会社,東京都,渋谷区,神宮前１丁目５番８号,,13,113,1500001,,,,,,,2025-07-03,1,,,,,シーエムティ,0
1333,7011003021934,新規,0,2025-07-03,2025-07-03,トランスＡＤ合同会社,,合同会社,東京都,渋谷区,東２丁目９番１９号,,13,113,1500011,,,,,,,2025-07-03,1,,,,,トランスアド,0
1334,7011003022040,新規,0,2025-07-03,2025-07-03,合同会社シンリ,,合同会社,東京都,渋谷区,元代々木町５５番７号元代々木桜苑マンション１０１,,13,113,1510062,,,,,,,2025-07-03,1,,,,,シンリ,0
1336,7011101112313,新規,0,2025-07-03,2025-07-03,株式会社ベター・ジャパンズ,,株式会社,東京都,新宿区,四谷１丁目８番３号,,13,104,1600004,,,,,,,2025-07-03,1,,,,,ベタージャパンズ,0
1337,7011201026487,新規,0,2025-07-03,2025-07-03,株式会社Ｄ・ＣＲＡＦＴ,,株式会社,東京都,中野区,上高田４丁目６番２号,,13,114,1640002,,,,,,,2025-07-03,1,,,,,ディクラフト,0
1338,7011203004747,新規,0,2025-07-03,2025-07-03,合同会社Ｐｕｂｌｉｃ　Ｐｉｖｏｔ,,合同会社,東京都,中野区,東中野１丁目２７番６号リバティ東中野１０２,,13,114,1640003,,,,,,,2025-07-03,1,,,,,パブリックピボット,0
1351,7012401043256,新規,0,2025-07-03,2025-07-03,株式会社０’ＰＯＳＩＴＩＯＮ,,株式会社,東京都,小金井市,本町５丁目１３番１号,,13,210,1840004,,,,,,,2025-07-03,1,,,,,ゼロポジション,0
1354,7013101009737,新規,0,2025-07-03,2025-07-03,トトアンドカンパニー株式会社,,株式会社,東京都,福生市,大字福生１０４６コヤマビル３Ｆ,,13,218,1970011,,,,,,,2025-07-03,1,,,,,,0
1357,7020001163630,新規,0,2025-07-03,2025-07-03,宝石建設株式会社,,株式会社,神奈川県,横浜市瀬谷区,瀬谷町５８１２番地細谷戸ハイツ２０２－４０２,,14,114,2460003,,,,,,,2025-07-03,1,,,,,ホウセキケンセツ,0
1358,7020001163647,新規,0,2025-07-03,2025-07-03,株式会社相川エクイティマネジメント,,株式会社,神奈川県,横浜市戸塚区,上倉田町９０８番地,,14,110,2440816,,,,,,,2025-07-03,1,,,,,アイカワエクイティマネジメント,0
1359,7020001163655,新規,0,2025-07-03,2025-07-03,Ｕｓｅｄ　Ｏｎｅ株式会社,,株式会社,神奈川県,横浜市栄区,本郷台５丁目５－７,,14,115,2470008,,,,,,,2025-07-03,1,,,,,ユーズドワン,0
1360,7020001163671,新規,0,2025-07-03,2025-07-03,株式会社Ｂｅｓｔ　Ｃｌａｓｓ,,株式会社,神奈川県,横浜市西区,浅間町１丁目４番３号ウィザードビル４０２,,14,103,2200072,,,,,,,2025-07-03,1,,,,,ベストクラス,0
1367,7021003016231,新規,0,2025-07-03,2025-07-03,合同会社ホームベース,,合同会社,神奈川県,鎌倉市,笛田３丁目１番７号湘南ハナビル２０２号室,,14,204,2480027,,,,,,,2025-07-03,1,,,,,ホームベース,0
1370,7030001167424,新規,0,2025-07-03,2025-07-03,株式会社ＷＲ,,株式会社,埼玉県,川口市,芝３丁目５番１０－１０５号クレアーホームズ芝３丁目,,11,203,3330866,,,,,,,2025-07-03,1,,,,,ダブルアール,0
1371,7030001167440,新規,0,2025-07-03,2025-07-03,株式会社電動ローラー,,株式会社,埼玉県,川口市,東川口６丁目１４－１６,,11,203,3330801,,,,,,,2025-07-03,1,,,,,デンドウローラー,0
1373,7040001139447,新規,0,2025-07-03,2025-07-03,株式会社ＳＳ　ＪＡＰＡＮ　ＣＯＲＰＯＲＡＴＩＯＮ,,株式会社,千葉県,流山市,加６丁目１１８７番地の３,,12,220,2700176,,,,,,,2025-07-03,1,,,,,エスエスジャパンコーポレーション,0
1374,7040001139471,新規,0,2025-07-03,2025-07-03,株式会社ｈ２ｇｏ,,株式会社,千葉県,習志野市,本大久保４丁目４番２６号,,12,216,2750012,,,,,,,2025-07-03,1,,,,,エイチツーゴー,0
1375,7040001139579,新規,0,2025-07-03,2025-07-03,Ｐｒｉｍｅｒａ株式会社,,株式会社,千葉県,富津市,金谷５３０番地１,,12,226,2991861,,,,,,,2025-07-03,1,,,,,プリメラ,0
1385,7080101025626,新規,0,2025-07-03,2025-07-03,株式会社ａｕｔｏｒａｉｓｅ,,株式会社,静岡県,沼津市,西沢田３８７番地の１,,22,203,4100007,,,,,,,2025-07-03,1,,,,,オートライズ,0
1389,7100001038733,新規,0,2025-07-03,2025-07-03,株式会社ジャンプ,,株式会社,長野県,中野市,小舘３番２号,,20,211,3830023,,,,,,,2025-07-03,1,,,,,ジャンプ,0
1390,7100001038741,新規,0,2025-07-03,2025-07-03,諏訪技建株式会社,,株式会社,長野県,諏訪市,大字四賀４３３番地１,,20,206,3920012,,,,,,,2025-07-03,1,,,,,スワギケン,0
1391,7100003008255,新規,0,2025-07-03,2025-07-03,合同会社カモミール,,合同会社,長野県,上伊那郡中川村,片桐２３１６－２,,20,386,3993802,,,,,,,2025-07-03,1,,,,,カモミール,0
1401,7120001277073,新規,0,2025-07-03,2025-07-03,株式会社ｇｒｅｎａ,,株式会社,大阪府,大阪市西淀川区,佃５丁目１１－２０－７０２,,27,113,5550001,,,,,,,2025-07-03,1,,,,,グレナ,0
1402,7120001277395,新規,0,2025-07-03,2025-07-03,株式会社Ｔ．ｐａｒｔｎｅｒｓ,,株式会社,大阪府,大阪市西区,新町２丁目５番１号プレミストタワー大阪新町ローレルコート２１０２号,,27,106,5500013,,,,,,,2025-07-03,1,,,,,ティーパートナーズ,0
1403,7120001277429,新規,0,2025-07-03,2025-07-03,株式会社往来テック,,株式会社,大阪府,大阪市中央区,常盤町２丁目４番２号一久ビル４階,,27,128,5400028,,,,,,,2025-07-03,1,,,,,オウライテック,0
1404,7120001277453,新規,0,2025-07-03,2025-07-03,株式会社クレイビング,,株式会社,大阪府,守口市,南寺方南通１丁目８番５号,,27,209,5700044,,,,,,,2025-07-03,1,,,,,クレイビング,0
1408,7120003029869,新規,0,2025-07-03,2025-07-03,合同会社Ｃｙｐｈｅｒ,,合同会社,大阪府,大阪市旭区,赤川２丁目８番２９号Ｊ－ＱｕａＬｉｏｒ１０３,,27,117,5350005,,,,,,,2025-07-03,1,,,,,サイファー,0
1409,7120003029910,新規,0,2025-07-03,2025-07-03,深月計画合同会社,,合同会社,大阪府,大阪市中央区,南船場３丁目２番２２号おおきに南船場ビル２０５,,27,128,5420081,,,,,,,2025-07-03,1,,,,,ミヅキケイカク,0
1413,7120005025008,新規,0,2025-07-03,2025-07-03,一般社団法人ＭＢＡ協会,,その他の設立登記法人,大阪府,大阪市住吉区,東粉浜１丁目１２番１２－４０２号,,27,120,5580051,,,,,,,2025-07-03,1,,,,,エムビーエーキョウカイ,0
1423,7130001080022,新規,0,2025-07-03,2025-07-03,株式会社まほろば,,株式会社,京都府,京都市下京区,小稲荷町８５－２Ｇｒａｎｄ－Ｋ京都駅前ビル２０１,,26,106,6008208,,,,,,,2025-07-03,1,,,,,マホロバ,0
1430,7150001028234,新規,0,2025-07-03,2025-07-03,株式会社ＮＩＳ,,株式会社,奈良県,香芝市,逢坂４丁目２９２番地３,00139785,29,210,6390251,,,,,,,2025-07-03,1,,,,,ニース,0
1431,7150001028242,新規,0,2025-07-03,2025-07-03,株式会社グローブアクセス,,株式会社,奈良県,奈良市,押熊町２０４７番地の１４,,29,201,6310011,,,,,,,2025-07-03,1,,,,,グローブアクセス,0
1436,7180001167582,新規,0,2025-07-03,2025-07-03,株式会社一真,,株式会社,愛知県,名古屋市守山区,大字中志段味字下寺林７番地の２,,23,113,4630002,,,,,,,2025-07-03,1,,,,,イッシン,0
1445,7210001020226,新規,0,2025-07-03,2025-07-03,株式会社橋本農園,,株式会社,福井県,福井市,和田中町神明宅地１７番地,,18,201,9188235,,,,,,,2025-07-03,1,,,,,ハシモトノウエン,0
1457,7240001065144,新規,0,2025-07-03,2025-07-03,株式会社新内塗装,,株式会社,広島県,呉市,広石内３丁目１４番１９号,,34,202,7370101,,,,,,,2025-07-03,1,,,,,ニイナイトソウ,0
1459,7240003007284,新規,0,2025-07-03,2025-07-03,合同会社藤美装,,合同会社,広島県,尾道市,因島土生町１７８６番地５,,34,205,7222323,,,,,,,2025-07-03,1,,,,,フジビソウ,0
1460,7250001021220,新規,0,2025-07-03,2025-07-03,株式会社シンユウ商店,,株式会社,山口県,宇部市,大字広瀬無番地,,35,202,7590124,,,,,,,2025-07-03,1,,,,,シンユウショウテン,0
1461,7250001021237,新規,0,2025-07-03,2025-07-03,アクロスＳＡ株式会社,,株式会社,山口県,宇部市,常藤町２番１号,,35,202,7550021,,,,,,,2025-07-03,1,,,,,アクロスエスエー,0
1468,7290801031670,新規,0,2025-07-03,2025-07-03,株式会社Ｒｅｓｋｙ,,株式会社,福岡県,北九州市小倉北区,熊本３丁目７番１０号,,40,106,8020044,,,,,,,2025-07-03,1,,,,,リスカイ,0
1470,7310001019670,新規,0,2025-07-03,2025-07-03,甘味処澪株式会社,,株式会社,長崎県,佐世保市,若竹台町３１番地アートインブルーム２０２号室,,42,202,8593204,,,,,,,2025-07-03,1,,,,,アマミドコロミオ,0
1471,7310001019679,新規,0,2025-07-03,2025-07-03,株式会社Ｎ‐ＴＥＣ,,株式会社,長崎県,西彼杵郡時津町,日並郷３７８２番地,,42,308,8512108,,,,,,,2025-07-03,1,,,,,エヌテック,0
1482,7400001017087,新規,0,2025-07-03,2025-07-03,株式会社シュラインフィールド,,株式会社,岩手県,盛岡市,中屋敷町１番３０号,,03,201,0200141,,,,,,,2025-07-03,1,,,,,シュラインフィールド,0
1486,7430001094768,新規,0,2025-07-03,2025-07-03,株式会社Ｒａｎ動物病院,,株式会社,北海道,札幌市豊平区,月寒東三条３丁目２番１９号,,01,105,0620053,,,,,,,2025-07-03,1,,,,,ランドウブツビョウイン,0
1487,7430001094784,新規,0,2025-07-03,2025-07-03,株式会社匠屋,,株式会社,北海道,札幌市北区,篠路十条４丁目７番６号,,01,102,0028030,,,,,,,2025-07-03,1,,,,,タクミヤ,0
1488,7440001009634,新規,0,2025-07-03,2025-07-03,株式会社田中商店,,株式会社,北海道,函館市,富岡町５番地,,01,202,0400000,,,,,,,2025-07-03,1,,,,,,0
1491,7462501001036,新規,0,2025-07-03,2025-07-03,株式会社アイザワ,,株式会社,北海道,野付郡別海町,尾岱沼潮見町１０７番地,,01,691,0861644,,,,,,,2025-07-03,1,,,,,アイザワ,0
1492,7470001020786,新規,0,2025-07-03,2025-07-03,株式会社福井工業,,株式会社,香川県,高松市,円座町２０５５番地１,,37,201,7618044,,,,,,,2025-07-03,1,,,,,フクイコウギョウ,0
1493,7470003002915,新規,0,2025-07-03,2025-07-03,合同会社ｋａｌｏｎ,,合同会社,香川県,丸亀市,土器町東７丁目８０４番地タクマビル,,37,202,7630082,,,,,,,2025-07-03,1,,,,,カロン,0
1495,7480001012881,新規,0,2025-07-03,2025-07-03,株式会社ＣＡ　Ｐｒｏｊｅｃｔ,,株式会社,徳島県,阿南市,羽ノ浦町岩脇高地１０番地２,,36,204,7791106,,,,,,,2025-07-03,1,,,,,シーエープロジェクト,0
1496,7500001026391,新規,0,2025-07-03,2025-07-03,株式会社Ｅｌｅ,,株式会社,愛媛県,松山市,小坂５丁目１１番１８号,,38,201,7900963,,,,,,,2025-07-03,1,,,,,イーエルイー,0
1497,7500001026400,新規,0,2025-07-03,2025-07-03,Ｍｙｕ　Ｍｅｄｉｃａｌ株式会社,,株式会社,愛媛県,松山市,三番町１丁目１３番地１レーベン松山三番町ＯＮＥＴＯＷＥＲ１５０２,,38,201,7900003,,,,,,,2025-07-03,1,,,,,ミュウメディカル,0
1507,8010001256269,新規,0,2025-07-03,2025-07-03,株式会社ＧｌｅａｎＡＩ,,株式会社,東京都,中央区,銀座１丁目１２－４Ｎ＆Ｅ－ＢＬＤ．７階,,13,102,1040061,,,,,,,2025-07-03,1,,,,,グリーンエーアイ,0
1508,8010001256277,新規,0,2025-07-03,2025-07-03,株式会社ｅｍＭＡ,,株式会社,東京都,中央区,銀座１丁目１２番４号Ｎ＆ＥＢＬＤ．６Ｆ,,13,102,1040061,,,,,,,2025-07-03,1,,,,,エマ,0
1509,8010001256450,新規,0,2025-07-03,2025-07-03,ＷＡＮＧ株式会社,,株式会社,東京都,中央区,新川２丁目２１－１５、２０４－Ｃ,,13,102,1040033,,,,,,,2025-07-03,1,,,,,ワン,0
1510,8010001256483,新規,0,2025-07-03,2025-07-03,株式会社薄荷匠,,株式会社,東京都,文京区,白山１丁目６番４－Ａ３１,,13,105,1130001,,,,,,,2025-07-03,1,,,,,ハッカショウ,0
1517,8010401191504,新規,0,2025-07-03,2025-07-03,プロマケＡＩ株式会社,,株式会社,東京都,港区,南青山２丁目６番１２号アヌシー青山４Ｆ－Ａ号,,13,103,1070062,,,,,,,2025-07-03,1,,,,,プロマケエーアイ,0
1518,8010401191512,新規,0,2025-07-03,2025-07-03,株式会社ＯＫＡＺＵ,,株式会社,東京都,港区,南青山６丁目８番２号エステラス南青山９０２,,13,103,1070062,,,,,,,2025-07-03,1,,,,,オカズ,0
1520,8010403035485,新規,0,2025-07-03,2025-07-03,Ｍｏｍｉｊｉ合同会社,,合同会社,東京都,港区,六本木１丁目９番１０号アークヒルズ仙石山森タワー４０階,,13,103,1060032,,,,,,,2025-07-03,1,,,,,モミジ,0
1521,8010405024503,新規,0,2025-07-03,2025-07-03,一般社団法人まなびをつなぐ未来創造機構,,その他の設立登記法人,東京都,港区,新橋４丁目１４番１号新橋ＡＵＮＢＬＤＧ．４階,,13,103,1050004,,,,,,,2025-07-03,1,,,,,マナビヲツナグミライソウゾウキコウ,0
1531,8010703007795,新規,0,2025-07-03,2025-07-03,Ｕｎｂｏｕｎｄ合同会社,,合同会社,東京都,品川区,大崎２丁目９番１号,,13,109,1410032,,,,,,,2025-07-03,1,,,,,アンバウンド,0
1534,8010801036341,新規,0,2025-07-03,2025-07-03,株式会社ＯＮＥＺ,,株式会社,東京都,大田区,大森北４丁目１３番２０号－２階,,13,111,1430016,,,,,,,2025-07-03,1,,,,,ワンズ,0
1538,8010901057650,新規,0,2025-07-03,2025-07-03,株式会社Ａｘｉｏｎ,,株式会社,東京都,世田谷区,北沢２丁目２１番２５号メゾン芙蓉１０１,,13,112,1550031,,,,,,,2025-07-03,1,,,,,アクシオン,0
1539,8010901057675,新規,0,2025-07-03,2025-07-03,株式会社ｍｙＦＡＶ,,株式会社,東京都,世田谷区,世田谷４丁目７番８号グランホース世田谷アベニュー４０１,,13,112,1540017,,,,,,,2025-07-03,1,,,,,マイファブ,0
1541,8011001170468,新規,0,2025-07-03,2025-07-03,株式会社ＭＯＮＡＲＣＨＹ,,株式会社,東京都,渋谷区,神南１丁目１１番４号ＦＰＧリンクス神南５階,,13,113,1500041,,,,,,,2025-07-03,1,,,,,モナーキー,0
1542,8011001170600,新規,0,2025-07-03,2025-07-03,株式会社Ｒｅａｃｈ　Ｔｈｅ　Ｔｏｐ,,株式会社,東京都,目黒区,下目黒１丁目８番１号アルコタワー７階,,13,110,1530064,,,,,,,2025-07-03,1,,,,,リーチザトップ,0
1543,8011001170625,新規,0,2025-07-03,2025-07-03,ＰＬＥＡＳＵＲＥ　ＰＬＵＳ　ＯＮＥ株式会社,,株式会社,東京都,渋谷区,神宮前６丁目２３番４号桑野ビル２階,,13,113,1500001,,,,,,,2025-07-03,1,,,,,プレジャープラスワン,0
1544,8011001170641,新規,0,2025-07-03,2025-07-03,株式会社トロハチ,,株式会社,東京都,渋谷区,宇田川町２８番１号高山ランド第１５ビル２階,,13,113,1500042,,,,,,,2025-07-03,1,,,,,トロハチ,0
1546,8011203004746,新規,0,2025-07-03,2025-07-03,合同会社ティーダ,,合同会社,東京都,中野区,中野４丁目３番１号,,13,114,1640001,,,,,,,2025-07-03,1,,,,,ティーダ,0
1547,8011301030702,新規,0,2025-07-03,2025-07-03,株式会社Ｃｈｅｌｓｅａ　ｗｏｒｋｓ　ＦＩＬＭ,,株式会社,東京都,杉並区,堀ノ内２丁目１番４４－２０１号日商岩井第二方南町マンション,,13,115,1660013,,,,,,,2025-07-03,1,,,,,チェルシーワークスフィルム,0
1551,8011303005611,新規,0,2025-07-03,2025-07-03,合同会社すゞき,,合同会社,東京都,杉並区,清水２丁目１１番９号ベルユニテ荻窪１０３,,13,115,1670033,,,,,,,2025-07-03,1,,,,,,0
1556,8011501032283,新規,0,2025-07-03,2025-07-03,リステル２１株式会社,,株式会社,東京都,北区,中里２丁目１９番４号１階,,13,117,1140015,,,,,,,2025-07-03,1,,,,,リステルニジュウイチ,0
1558,8011701028486,新規,0,2025-07-03,2025-07-03,翔政株式会社,,株式会社,東京都,江戸川区,松島３丁目２０番２０号,,13,123,1320031,,,,,,,2025-07-03,1,,,,,ショウセイ,0
1559,8011803006951,新規,0,2025-07-03,2025-07-03,合同会社ルミナス,,合同会社,東京都,足立区,綾瀬６丁目３番６号グリーンパーク綾瀬リバーサイド３０１,,13,121,1200005,,,,,,,2025-07-03,1,,,,,ルミナス,0
1565,8012403007225,新規,0,2025-07-03,2025-07-03,合同会社Ｃｏｏｌａｎｃｅ,,合同会社,東京都,府中市,寿町１丁目２―２プラウドタワー府中寿町３０４号,,13,206,1830056,,,,,,,2025-07-03,1,,,,,クーランス,0
1574,8020001163613,新規,0,2025-07-03,2025-07-03,株式会社川崎工業,,株式会社,神奈川県,横浜市神奈川区,金港町５番地１４クアドリフォリオ８階,,14,102,2210056,,,,,,,2025-07-03,1,,,,,カワサキコウギョウ,0
1575,8020001163638,新規,0,2025-07-03,2025-07-03,株式会社Ｐａｐｒｉｋａ,,株式会社,神奈川県,横浜市中区,宮川町２丁目４７大貫ビル９０４,,14,104,2310065,,,,,,,2025-07-03,1,,,,,パプリカ,0
1576,8020001163646,新規,0,2025-07-03,2025-07-03,サジテック株式会社,,株式会社,神奈川県,横浜市中区,西之谷町１３２番地６,,14,104,2310844,,,,,,,2025-07-03,1,,,,,サジテック,0
1577,8020001163662,新規,0,2025-07-03,2025-07-03,株式会社ブラント,,株式会社,神奈川県,横浜市神奈川区,西神奈川３丁目２番地１１第５カヤギヤビル２Ｆ,,14,102,2210822,,,,,,,2025-07-03,1,,,,,ブラント,0
1578,8020001163729,新規,0,2025-07-03,2025-07-03,エムパス株式会社,,株式会社,神奈川県,横浜市港北区,菊名３丁目１９番１６－１号,,14,109,2220011,,,,,,,2025-07-03,1,,,,,エムパス,0
1585,8020003028855,新規,0,2025-07-03,2025-07-03,合同会社ダヴ＆ルカ,,合同会社,神奈川県,横浜市金沢区,大道１丁目３２番７号,,14,108,2360035,,,,,,,2025-07-03,1,,,,,ダヴアンドルカ,0
1590,8021003016239,新規,0,2025-07-03,2025-07-03,合同会社巡花,,合同会社,神奈川県,平塚市,土屋１７９０番地の１,,14,203,2591205,,,,,,,2025-07-03,1,,,,,ジュンカ,0
1594,8030001167423,新規,0,2025-07-03,2025-07-03,株式会社ＡＤＰＴ,,株式会社,埼玉県,所沢市,大字南永井７６２番地６,,11,208,3590011,,,,,,,2025-07-03,1,,,,,エーディーピーティー,0
1595,8030001167448,新規,0,2025-07-03,2025-07-03,株式会社真正不動産,,株式会社,埼玉県,富士見市,貝塚１丁目３４番地１３,,11,235,3540012,,,,,,,2025-07-03,1,,,,,シンセイフドウサン,0
1596,8030001167464,新規,0,2025-07-03,2025-07-03,ＯＫサービス株式会社,,株式会社,埼玉県,鴻巣市,北中野１１０,,11,217,3650058,,,,,,,2025-07-03,1,,,,,オーケーサービス,0
1598,8030003027105,新規,0,2025-07-03,2025-07-03,ＢＰＫ合同会社,,合同会社,埼玉県,さいたま市南区,曲本３丁目１５－２２－１０６,,11,108,3360033,,,,,,,2025-07-03,1,,,,,ビーピーケー,0
1599,8030003027121,新規,0,2025-07-03,2025-07-03,ＡＮ　ＰＨＡＴ合同会社,,合同会社,埼玉県,蕨市,南町３丁目２４番５号コーポ天野３０３,,11,223,3350003,,,,,,,2025-07-03,1,,,,,アンプアット,0
1607,8050001056822,新規,0,2025-07-03,2025-07-03,株式会社ＲＥＶＵＰ,,株式会社,茨城県,守谷市,ひがし野３丁目１番地１ＷＩＳＴＥＲＩＡ‐Ｔ２０３,,08,224,3020131,,,,,,,2025-07-03,1,,,,,レヴァップ,0
1608,8050001056913,新規,0,2025-07-03,2025-07-03,株式会社けやき不動産,,株式会社,茨城県,水戸市,千波町１９８９番地１鬼澤ビル２Ｆ－Ｒ,,08,201,3100851,,,,,,,2025-07-03,1,,,,,ケヤキフドウサン,0
1609,8050003009398,新規,0,2025-07-03,2025-07-03,Ｋｉｚｕｎａ　Ｇｒｏｕｐ合同会社,,合同会社,茨城県,取手市,東２丁目１－１０－２０２,,08,217,3020005,,,,,,,2025-07-03,1,,,,,キズナグループ,0
1613,8060001038357,新規,0,2025-07-03,2025-07-03,株式会社総合リフォーム美創,,株式会社,栃木県,さくら市,鷲宿１９４７番地,,09,214,3291411,,,,,,,2025-07-03,1,,,,,ソウゴウリフォームビソウ,0
1618,8080101025625,新規,0,2025-07-03,2025-07-03,株式会社ＦＵＤＡ　ＲＩＳＥ,,株式会社,静岡県,富士市,天間１５５０番地４,,22,210,4190205,,,,,,,2025-07-03,1,,,,,フューダライズ,0
1621,8100001038732,新規,0,2025-07-03,2025-07-03,株式会社ＮＴステップス,,株式会社,長野県,松本市,寿北７丁目２４番４号,,20,202,3990011,,,,,,,2025-07-03,1,,,,,エヌティステップス,0
1622,8100001038740,新規,0,2025-07-03,2025-07-03,美・光輝コーポレーション株式会社,,株式会社,長野県,安曇野市,穂高有明１０２２７番地６,,20,220,3998301,,,,,,,2025-07-03,1,,,,,ビコウキコーポレーション,0
1624,8100003008262,新規,0,2025-07-03,2025-07-03,速水技研合同会社,,合同会社,長野県,大町市,大町５３４６番地２雪宿,,20,212,3980002,,,,,,,2025-07-03,1,,,,,,0
1633,8120001277353,新規,0,2025-07-03,2025-07-03,株式会社ＦＵＦＵＴＩＥＴＩＥ　ＪＡＰＡＮ,,株式会社,大阪府,大阪市中央区,瓦町２丁目６番１号４階,,27,128,5410048,,,,,,,2025-07-03,1,,,,,フーフーテテジャパン,0
1634,8120001277444,新規,0,2025-07-03,2025-07-03,株式会社ユノ,,株式会社,大阪府,大阪市城東区,中央１丁目８番２０シャトー中央２０１,,27,118,5360005,,,,,,,2025-07-03,1,,,,,ユノ,0
1635,8120001277469,新規,0,2025-07-03,2025-07-03,株式会社ＦＡＳＡ,,株式会社,大阪府,大阪市北区,中崎西１丁目９番地２４号中崎ハウス２０２,,27,127,5300015,,,,,,,2025-07-03,1,,,,,ファサ,0
1636,8120003029892,新規,0,2025-07-03,2025-07-03,合同会社響の家,,合同会社,大阪府,大阪市中央区,南船場３丁目２番２２号おおきに南船場ビル２０５,,27,128,5420081,,,,,,,2025-07-03,1,,,,,ヒビキノイエ,0
1637,8120005025007,新規,0,2025-07-03,2025-07-03,一般社団法人セラピスト認定機構,,その他の設立登記法人,大阪府,大阪市住之江区,御崎８丁目２番２８－２０１号,,27,125,5590013,,,,,,,2025-07-03,1,,,,,セラピストニンテイキコウ,0
1647,8130001080079,新規,0,2025-07-03,2025-07-03,安寧キャピタル株式会社,,株式会社,京都府,京都市北区,西賀茂上庄田町１００番地,,26,101,6038802,,,,,,,2025-07-03,1,,,,,アンネイキャピタル,0
1651,8140001139114,新規,0,2025-07-03,2025-07-03,アイスタイル株式会社,,株式会社,兵庫県,神戸市須磨区,道正台１丁目１番３－７０４号,,28,107,6540122,,,,,,,2025-07-03,1,,,,,アイスタイル,0
1656,8150001028233,新規,0,2025-07-03,2025-07-03,株式会社八映,,株式会社,奈良県,奈良市,あやめ池南２丁目１番４５号,,29,201,6310033,,,,,,,2025-07-03,1,,,,,ヤエイ,0
1659,8160003003530,新規,0,2025-07-03,2025-07-03,合同会社ねりものお家,,合同会社,滋賀県,大津市,真野２丁目１９－２５,,25,201,5200232,,,,,,,2025-07-03,1,,,,,ネリモノオウチ,0
1670,8180001167532,新規,0,2025-07-03,2025-07-03,株式会社ヴェルチェ・カーサ,,株式会社,愛知県,名古屋市東区,泉１丁目１３番２５号プラウドタワー久屋大通２０４号,,23,102,4610001,,,,,,,2025-07-03,1,,,,,ヴェルチェカーサ,0
1671,8180001167557,新規,0,2025-07-03,2025-07-03,株式会社吉田畳店,,株式会社,愛知県,名古屋市西区,新道１丁目２１番９号,,23,104,4510043,,,,,,,2025-07-03,1,,,,,ヨシダタタミテン,0
1672,8180001167565,新規,0,2025-07-03,2025-07-03,株式会社幸田福祉事務所,,株式会社,愛知県,名古屋市中川区,押元町２丁目５３番地の６,,23,110,4540841,,,,,,,2025-07-03,1,,,,,コウダフクシジムショ,0
1673,8180003028708,新規,0,2025-07-03,2025-07-03,合同会社Ｐａｓｔｅｌ物流,,合同会社,愛知県,知多市,巽が丘２丁目２１３番地,,23,224,4780012,,,,,,,2025-07-03,1,,,,,パステルブツリュウ,0
1675,8180005021149,新規,0,2025-07-03,2025-07-03,一般社団法人いちか,,その他の設立登記法人,愛知県,春日井市,気噴町４丁目１１番地２神戸ハイツ１０１,,23,206,4870014,,,,,,,2025-07-03,1,,,,,イチカ,0
1680,8210003001933,新規,0,2025-07-03,2025-07-03,Ｆｓｔ合同会社,,合同会社,福井県,福井市,八ツ島１丁目３０５番地ディオハイム’Ｓ１０２号室,,18,201,9100066,,,,,,,2025-07-03,1,,,,,ファスト,0
1685,8230001020990,新規,0,2025-07-03,2025-07-03,ＴＫＹ株式会社,,株式会社,富山県,富山市,奥田町１２番３６‐１０１号セジュール奥田,,16,201,9300818,,,,,,,2025-07-03,1,,,,,テイケイワイ,0
1688,8240001065176,新規,0,2025-07-03,2025-07-03,株式会社カレンダリオ,,株式会社,広島県,広島市西区,新庄町２番８号グレイスコート新庄８０３号,,34,104,7330801,,,,,,,2025-07-03,1,,,,,カレンダリオ,0
1689,8250001021236,新規,0,2025-07-03,2025-07-03,株式会社Ｓｔｙｌｅ　Ｄｅｓｉｇｎ　Ｗｏｒｋｓ,,株式会社,山口県,宇部市,大字上宇部２５１７番地２０,,35,202,7550091,,,,,,,2025-07-03,1,,,,,スタイルデザインワークス,0
1690,8260001040318,新規,0,2025-07-03,2025-07-03,ウイッシュ株式会社,,株式会社,岡山県,岡山市北区,柳町１丁目１４番７号やよいビル３Ｆ,,33,101,7000904,,,,,,,2025-07-03,1,,,,,ウイッシュ,0
1694,8290001110588,新規,0,2025-07-03,2025-07-03,株式会社正和,,株式会社,福岡県,うきは市,吉井町６９５－７,,40,225,8391321,,,,,,,2025-07-03,1,,,,,セイワ,0
1702,8320001021187,新規,0,2025-07-03,2025-07-03,株式会社ＨＯＵＶＵＮ　ＴＲＥＥ,,株式会社,大分県,由布市,湯布院町川上２０８６番地１,,44,213,8795102,,,,,,,2025-07-03,1,,,,,ホウブンツリー,0
1703,8320001021204,新規,0,2025-07-03,2025-07-03,株式会社ＬＵＡＮＡ,,株式会社,大分県,大分市,明野西１丁目１１番３－１号,,44,201,8700164,,,,,,,2025-07-03,1,,,,,ルアーナ,0
1704,8330001033347,新規,0,2025-07-03,2025-07-03,株式会社ＲＹＵＫＡＮ,,株式会社,熊本県,熊本市中央区,保田窪１丁目２番１１号１０１号,,43,101,8620926,,,,,,,2025-07-03,1,,,,,リュウカン,0
1705,8330003011086,新規,0,2025-07-03,2025-07-03,合同会社ひまわり企画,,合同会社,熊本県,下益城郡美里町,永富１８７１番地,,43,348,8614722,,,,,,,2025-07-03,1,,,,,ヒマワリキカク,0
1706,8330003011094,新規,0,2025-07-03,2025-07-03,合同会社コンサルティングまつモン,,合同会社,熊本県,玉名郡玉東町,大字木葉９７９番地,,43,364,8690303,,,,,,,2025-07-03,1,,,,,コンサルティングマツモン,0
1718,8400001017086,新規,0,2025-07-03,2025-07-03,株式会社いちのせきウェルネスラボ,,株式会社,岩手県,一関市,川崎町薄衣字久伝３８－１（２階）,,03,209,0290202,,,,,,,2025-07-03,1,,,,,イチノセキウェルネスラボ,0
1719,8400001017094,新規,0,2025-07-03,2025-07-03,株式会社ＳＴＥＰ　ＯＮＥ,,株式会社,岩手県,盛岡市,南青山町１８番７号,,03,201,0200134,,,,,,,2025-07-03,1,,,,,ステップワン,0
1721,8420001019196,新規,0,2025-07-03,2025-07-03,株式会社Ｓ．Ｅ．Ｚｅｎｉｔｈ,,株式会社,青森県,青森市,橋本２丁目８番１０号,,02,201,0300823,,,,,,,2025-07-03,1,,,,,エスイーゼニス,0
1722,8430001094783,新規,0,2025-07-03,2025-07-03,株式会社もぐらトランスポート,,株式会社,北海道,札幌市清田区,美しが丘一条８丁目６番７号,,01,110,0040811,,,,,,,2025-07-03,1,,,,,モグラトランスポート,0
1723,8460303000874,新規,0,2025-07-03,2025-07-03,合同会社ＳＨＩＲＥＴＯＫＯ物語,,合同会社,北海道,斜里郡斜里町,字中斜里３９番地,,01,545,0994142,,,,,,,2025-07-03,1,,,,,シレトコモノガタリ,0
1725,8470001020785,新規,0,2025-07-03,2025-07-03,株式会社八箱,,株式会社,香川県,観音寺市,有明町５番３４号,,37,205,7680062,,,,,,,2025-07-03,1,,,,,ハチバコ,0
1726,8470003002914,新規,0,2025-07-03,2025-07-03,合同会社ミライフ,,合同会社,香川県,丸亀市,中府町１丁目１９番１号,,37,202,7630033,,,,,,,2025-07-03,1,,,,,ミライフ,0
1739,9010001256383,新規,0,2025-07-03,2025-07-03,株式会社Ｏｅｘｔ,,株式会社,東京都,千代田区,神田神保町１丁目１０－１、９Ｆ,,13,101,1010051,,,,,,,2025-07-03,1,,,,,オーエクスト,0
1740,9010001256417,新規,0,2025-07-03,2025-07-03,Ｅ電株式会社,,株式会社,東京都,千代田区,東神田１丁目３番２号ＢＩＧＳ東神田３階,,13,101,1010031,,,,,,,2025-07-03,1,,,,,イーデン,0
1743,9010003047863,新規,0,2025-07-03,2025-07-03,合同会社カフェインフォ,,合同会社,東京都,中央区,銀座１丁目２２－１１銀座大竹ビジデンス２Ｆ,,13,102,1040061,,,,,,,2025-07-03,1,,,,,カフェインフォ,0
1744,9010003047871,新規,0,2025-07-03,2025-07-03,ハーツクライシステム合同会社,,合同会社,東京都,千代田区,鍛冶町２丁目８番地１２号クリオ神田８０３,,13,101,1010044,,,,,,,2025-07-03,1,,,,,ハーツクライシステム,0
1755,9010401191453,新規,0,2025-07-03,2025-07-03,株式会社ＣＡＴＡＭＡＲＡＮ,,株式会社,東京都,港区,南青山５丁目１１番２４号グレイセス２Ｆ,,13,103,1070062,,,,,,,2025-07-03,1,,,,,カタマラン,0
1756,9010401191503,新規,0,2025-07-03,2025-07-03,株式会社ビーモ,,株式会社,東京都,港区,新橋６丁目２０番１１号,,13,103,1050004,,,,,,,2025-07-03,1,,,,,ビーモ,0
1757,9010403035476,新規,0,2025-07-03,2025-07-03,合同会社菅野屋ＢＬＵＥ,,合同会社,東京都,港区,浜松町２丁目２番１５号浜松町ダイヤビル２Ｆ,,13,103,1050013,,,,,,,2025-07-03,1,,,,,スガノヤブルー,0
1759,9010501054345,新規,0,2025-07-03,2025-07-03,陽翔プロジェクト株式会社,,株式会社,東京都,台東区,東上野５丁目１７－８－１０４中銀第２東上野マンション,,13,106,1100015,,,,,,,2025-07-03,1,,,,,ヨウショウプロジェクト,0
1760,9010601067544,新規,0,2025-07-03,2025-07-03,株式会社ＴＬＳＳ　ＪＡＰＡＮ,,株式会社,東京都,墨田区,錦糸１丁目２番１号アルカセントラル１４階,,13,107,1300013,,,,,,,2025-07-03,1,,,,,ティーエルエスエスジャパン,0
1762,9010703007786,新規,0,2025-07-03,2025-07-03,合同会社カーザ・ラナ,,合同会社,東京都,品川区,豊町６丁目５番６号,,13,109,1420042,,,,,,,2025-07-03,1,,,,,カーザラナ,0
1765,9010901057674,新規,0,2025-07-03,2025-07-03,Ｐｌｕｓ８１Ｔｏｋｙｏ株式会社,,株式会社,東京都,世田谷区,若林２丁目１９番２１号,,13,112,1540023,,,,,,,2025-07-03,1,,,,,プラスエイティーワントウキョウ,0
1771,9011001170426,新規,0,2025-07-03,2025-07-03,株式会社パワー,,株式会社,東京都,目黒区,中目黒１丁目８番１号,,13,110,1530061,,,,,,,2025-07-03,1,,,,,パワー,0
1774,9011005011064,新規,0,2025-07-03,2025-07-03,ＮＰＯ法人生活あんしんサポート,,その他の設立登記法人,東京都,渋谷区,東３丁目２３番５号石川ビル２Ｆ,,13,113,1500011,,,,,,,2025-07-03,1,,,,,セイカツアンシンサポート,0
1778,9011103016072,新規,0,2025-07-03,2025-07-03,合同会社Ｌｉｂｔｅｃｈ,,合同会社,東京都,新宿区,西新宿３丁目３番１３号西新宿水間ビル２Ｆ,,13,104,1600023,,,,,,,2025-07-03,1,,,,,リブテック,0
1779,9011103016080,新規,0,2025-07-03,2025-07-03,ＴＶ合同会社,,合同会社,東京都,新宿区,百人町２丁目１５番９号坂田ハイツ３０２,,13,104,1690073,,,,,,,2025-07-03,1,,,,,ティーブイ,0
1780,9011105011484,新規,0,2025-07-03,2025-07-03,一般社団法人日本ショート動画協会,,その他の設立登記法人,東京都,新宿区,新宿４丁目３番１５レイフラット新宿Ｂ棟３階,,13,104,1600022,,,,,,,2025-07-03,1,,,,,ニホンショートドウガキョウカイ,0
1782,9011403004743,新規,0,2025-07-03,2025-07-03,ＰＡＮＤＡ合同会社,,合同会社,東京都,板橋区,宮本町３９番１号,,13,119,1740054,,,,,,,2025-07-03,1,,,,,,0
1787,9011501032258,新規,0,2025-07-03,2025-07-03,株式会社ゲートワン,,株式会社,東京都,北区,浮間４丁目１９－１０－１階,,13,117,1150051,,,,,,,2025-07-03,1,,,,,,0
1788,9011501032282,新規,0,2025-07-03,2025-07-03,リベルタソリューションズ株式会社,,株式会社,東京都,北区,赤羽西２丁目５番３号,,13,117,1150055,,,,,,,2025-07-03,1,,,,,リベルタソリューションズ,0
1791,9011701028485,新規,0,2025-07-03,2025-07-03,Ｐａｘｔｈｅａ株式会社,,株式会社,東京都,江戸川区,南葛西７丁目２番３号なぎさニュータウン１２１５,,13,123,1340085,,,,,,,2025-07-03,1,,,,,パクシア,0
1794,9011803006942,新規,0,2025-07-03,2025-07-03,合同会社ｋｏｈａｋｕ,,合同会社,東京都,葛飾区,亀有３丁目１６－２セトビル２０４,,13,122,1250061,,,,,,,2025-07-03,1,,,,,コハク,0
1795,9012403007224,新規,0,2025-07-03,2025-07-03,合同会社ＨＫＫＳ,,合同会社,東京都,調布市,八雲台１丁目３７番地１４,,13,208,1820015,,,,,,,2025-07-03,1,,,,,エイチケイケイエス,0
1797,9020001163595,新規,0,2025-07-03,2025-07-03,株式会社Ｆ＆Ｆ,,株式会社,神奈川県,横浜市戸塚区,深谷町２３７－８,,14,110,2450067,,,,,,,2025-07-03,1,,,,,エフアンドエフ,0
1798,9020001163653,新規,0,2025-07-03,2025-07-03,株式会社星辰商事,,株式会社,神奈川県,横浜市中区,松影町２丁目７番地４クレハ・マネジメントビル４０３,,14,104,2310025,,,,,,,2025-07-03,1,,,,,ホシタツショウジ,0
1799,9020001163661,新規,0,2025-07-03,2025-07-03,株式会社いろとりどり,,株式会社,神奈川県,横浜市緑区,台村町１８６番地,,14,113,2260014,,,,,,,2025-07-03,1,,,,,イロトリドリ,0
1804,9020003028838,新規,0,2025-07-03,2025-07-03,合同会社ツギテラス,,合同会社,神奈川県,横浜市旭区,中白根１丁目３番１５号,,14,112,2410004,,,,,,,2025-07-03,1,,,,,ツギテラス,0
1805,9020003028854,新規,0,2025-07-03,2025-07-03,合同会社ＰＬＡＹ,,合同会社,神奈川県,横浜市中区,本牧宮原７－１５ベイコート本牧２０４,,14,104,2310804,,,,,,,2025-07-03,1,,,,,プレイ,0
1811,9021003016196,新規,0,2025-07-03,2025-07-03,ＧＴ合同会社,,合同会社,神奈川県,秦野市,平沢７３０－９サニーハウス草山２０１,,14,211,2570015,,,,,,,2025-07-03,1,,,,,ジティ,0
1817,9030001167356,新規,0,2025-07-03,2025-07-03,Ｋ‐Ｂｒｉｄｇｅ株式会社,,株式会社,埼玉県,和光市,本町１６－３７,,11,229,3510114,,,,,,,2025-07-03,1,,,,,ケイブリッジ,0
1818,9030001167389,新規,0,2025-07-03,2025-07-03,株式会社マナエステート,,株式会社,埼玉県,さいたま市大宮区,吉敷町２丁目１０５－４－４０６号,,11,103,3300843,,,,,,,2025-07-03,1,,,,,マナエステート,0
1819,9030001167414,新規,0,2025-07-03,2025-07-03,株式会社明和商事,,株式会社,埼玉県,川口市,西川口１丁目４１番５－３０２号,,11,203,3320021,,,,,,,2025-07-03,1,,,,,メイワショウジ,0
1820,9030001167422,新規,0,2025-07-03,2025-07-03,Ｋｉｎｄ　Ｐｏｒｔ株式会社,,株式会社,埼玉県,さいたま市西区,西大宮３丁目３３番地１２,,11,101,3310078,,,,,,,2025-07-03,1,,,,,カインドポート,0
1824,9040001139313,新規,0,2025-07-03,2025-07-03,株式会社Ｆｉｒｓｔ　Ｓｔｅｐ,,株式会社,千葉県,東金市,大沼田４３１番地５,,12,213,2830051,,,,,,,2025-07-03,1,,,,,ファーストステップ,0
1827,9040003027986,新規,0,2025-07-03,2025-07-03,合同会社ＬＩＶＥＮＴ,,合同会社,千葉県,千葉市若葉区,中野町１２４５番地,,12,104,2650051,,,,,,,2025-07-03,1,,,,,リベント,0
1828,9040005022812,新規,0,2025-07-03,2025-07-03,一般社団法人アル・カリマ・マスジド・マドラサ,,その他の設立登記法人,千葉県,佐倉市,瓜坪新田６３－４,,12,212,2850055,,,,,,,2025-07-03,1,,,,,アルカリママスジドマドラサ,0
1829,9050001056879,新規,0,2025-07-03,2025-07-03,株式会社ＯＮＥ　ＭＯＢ,,株式会社,茨城県,つくば市,島名１１２１番地１（香取台Ａ４０街区１１）,,08,220,3002655,,,,,,,2025-07-03,1,,,,,ワンモブ,0
1831,9060003005627,新規,0,2025-07-03,2025-07-03,合同会社水辺のカフェテラス,,合同会社,栃木県,日光市,鬼怒川温泉大原１４０９,,09,206,3212522,,,,,,,2025-07-03,1,,,,,ミズベノカフェテラス,0
1835,9080401028005,新規,0,2025-07-03,2025-07-03,エス・ケイ電気株式会社,,株式会社,静岡県,浜松市中央区,西丘町７７２番地,,22,138,4338116,,,,,,,2025-07-03,1,,,,,エスケイデンキ,0
1851,9120001277427,新規,0,2025-07-03,2025-07-03,株式会社ミトゥラ・リンク,,株式会社,大阪府,大阪市北区,西天満４丁目１５番１８号,,27,127,5300047,,,,,,,2025-07-03,1,,,,,ミトゥラリンク,0
1852,9120003029909,新規,0,2025-07-03,2025-07-03,合同会社Ｃａｒｙｏ,,合同会社,大阪府,大阪市北区,梅田１丁目１番３号大阪駅前第３ビル２３０７,,27,127,5300001,,,,,,,2025-07-03,1,,,,,キャリオ,0
1857,9122001039385,新規,0,2025-07-03,2025-07-03,丸栄化工株式会社,,株式会社,大阪府,東大阪市,衣摺５丁目１１番２０号,,27,227,5770827,,,,,,,2025-07-03,1,,,,,マルエイカコウ,0
1862,9140001139113,新規,0,2025-07-03,2025-07-03,株式会社ファンレスト,,株式会社,兵庫県,西脇市,下戸田４８番地の２,,28,213,6770043,,,,,,,2025-07-03,1,,,,,ファンレスト,0
1863,9140001139138,新規,0,2025-07-03,2025-07-03,株式会社リプラス,,株式会社,兵庫県,神戸市中央区,磯辺通１丁目１番１８号,,28,110,6510084,,,,,,,2025-07-03,1,,,,,リプラス,0
1864,9150001028224,新規,0,2025-07-03,2025-07-03,株式会社ＹＯＳＨＩＢＡ,,株式会社,奈良県,香芝市,狐井５３５－２,,29,210,6390234,,,,,,,2025-07-03,1,,,,,ヨシバ,0
1878,9210001020224,新規,0,2025-07-03,2025-07-03,株式会社五十嵐電工,,株式会社,福井県,坂井市,坂井町宮領第３７号１番地６,,18,210,9190512,,,,,,,2025-07-03,1,,,,,イガラシデンコウ,0
1879,9210003001932,新規,0,2025-07-03,2025-07-03,合同会社ＫＴクロス,,合同会社,福井県,福井市,田原２丁目２５番５号,,18,201,9100018,,,,,,,2025-07-03,1,,,,,ケーティークロス,0
1883,9240001065134,新規,0,2025-07-03,2025-07-03,ココロマルク株式会社,,株式会社,広島県,広島市安佐南区,上安１丁目１番８号,,34,105,7310154,,,,,,,2025-07-03,1,,,,,ココロマルク,0
1884,9240001065142,新規,0,2025-07-03,2025-07-03,一栄精工株式会社,,株式会社,広島県,呉市,川尻町森４丁目１８番６号,,34,202,7372602,,,,,,,2025-07-03,1,,,,,イチエイセイコウ,0
1885,9250001021210,新規,0,2025-07-03,2025-07-03,株式会社ＺＥＬＯ,,株式会社,山口県,長門市,西深川３３１８番地３,,35,211,7594102,,,,,,,2025-07-03,1,,,,,ゼロ,0
1886,9260001040317,新規,0,2025-07-03,2025-07-03,株式会社ｌｉａｉｓｏｎ,,株式会社,岡山県,岡山市南区,彦崎３１０４番地,,33,104,7091213,,,,,,,2025-07-03,1,,,,,リエゾン,0
1896,9290001110645,新規,0,2025-07-03,2025-07-03,株式会社サジェスト不動産鑑定,,株式会社,福岡県,大牟田市,大字宮崎２７８５番地１,,40,202,8370903,,,,,,,2025-07-03,1,,,,,サジェストフドウサンカンテイ,0
1898,9290003017062,新規,0,2025-07-03,2025-07-03,合同会社ＤＯＮ,,合同会社,福岡県,福津市,日蒔野３丁目６番地の１６,,40,224,8113209,,,,,,,2025-07-03,1,,,,,ドン,0
1899,9290003017079,新規,0,2025-07-03,2025-07-03,合同会社ライフフォワード,,合同会社,福岡県,福岡市博多区,上牟田１丁目２５番２５－８０１号,,40,132,8120006,,,,,,,2025-07-03,1,,,,,ライフフォワード,0
1900,9290005019783,新規,0,2025-07-03,2025-07-03,一般社団法人医療食品健康教育学会,,その他の設立登記法人,福岡県,宗像市,青葉台２丁目２番３号,,40,220,8114162,,,,,,,2025-07-03,1,,,,,イリョウショクヒンケンコウキョウイクガッカイ,0
1901,9310001019685,新規,0,2025-07-03,2025-07-03,株式会社タカヒラ板金,,株式会社,長崎県,長崎市,田中町１０７５番地,,42,201,8510134,,,,,,,2025-07-03,1,,,,,タカヒラバンキン,0
1921,9430003017832,新規,0,2025-07-03,2025-07-03,ＮＩＳＥＫＯ　ＷＡＴＥＲ合同会社,,合同会社,北海道,虻田郡倶知安町,北三条東１丁目１７番２Ｆ,,01,400,0440003,,,,,,,2025-07-03,1,,,,,ニセコウォーター,0
1923,9460001006017,新規,0,2025-07-03,2025-07-03,株式会社Ｒｙｋｅｙ　Ｓｐｏｒｔｓ　Ｅｄｇｅ,,株式会社,北海道,釧路市,星が浦南１丁目５番１２号リッキー・スポーツ,,01,206,0840913,,,,,,,2025-07-03,1,,,,,,0
1926,9460103001725,新規,0,2025-07-03,2025-07-03,合同会社肉のち肴,,合同会社,北海道,中川郡幕別町,札内文京町４０番地２６,,01,643,0890553,,,,,,,2025-07-03,1,,,,,ニクノチサカナ,0
1927,9470005006631,新規,0,2025-07-03,2025-07-03,社会保険労務士法人生駒人事コンサルティング,,その他の設立登記法人,香川県,高松市,亀井町４番地２,,37,201,7600050,,,,,,,2025-07-03,1,,,,,イコマジンジコンサルティング,0
