sequenceNumber,corporateNumber,process,correct,updateDate,changeDate,name,nameImageId,kind,prefectureName,cityName,streetNumber,addressImageId,prefectureCode,cityCode,postCode,addressOutside,addressOutsideImageId,closeDate,closeCause,successorCorporateNumber,changeCause,assignmentDate,latest,enName,enPrefectureName,enCityName,enAddressOutside,furigana,hihyoji
3,1010001150412,登記記録の閉鎖等,0,2023-10-25,2023-10-13,株式会社ＢＣＡＴ　ＪＡＰＡＮ,,株式会社,東京都,中央区,日本橋蛎殻町１丁目１０－７蛎殻町ビルヂング,,13,102,1030014,,,2023-10-13,清算の結了等,,,2015-10-05,1,,,,,ビーキャットジャパン,0
19,1010401020693,登記記録の閉鎖等,0,2023-10-25,2023-10-16,東京電装工業株式会社,,株式会社,東京都,港区,芝１丁目１５番３号,,13,103,1050014,,,2023-10-16,清算の結了等,,,2015-10-05,1,,,,,トウキョウデンソウコウギョウ,0
29,1010405001698,登記記録の閉鎖等,0,2023-10-25,2023-10-04,青南監査法人,,その他の設立登記法人,東京都,港区,南青山５丁目６番２６号青山２４６ビル１０階,,13,103,1070062,,,2023-10-04,合併による解散等,7010005005557,令和５年１０月２日東京都中央区日本橋室町四丁目４番３号ふじみ監査法人（7010005005557）に合併し解散,2015-10-05,1,,,,,セイナン,0
30,1010405019848,登記記録の閉鎖等,0,2023-10-25,2023-10-13,ＲＢソーラーノースホールディングス一般社団法人,,その他の設立登記法人,東京都,港区,虎ノ門３丁目２２番１０－２０１号,,13,103,1050001,,,2023-10-13,清算の結了等,,,2021-05-28,1,,,,,アールビーソーラーノースホールディングス,0
34,1010601012879,登記記録の閉鎖等,0,2023-10-25,2023-10-19,株式会社田島鉄工所,,株式会社,東京都,墨田区,東向島３丁目３７番７－９０２号,,13,107,1310032,,,2023-10-19,清算の結了等,,,2015-10-05,1,,,,,タジマテッコウショ,0
36,1010601015345,登記記録の閉鎖等,0,2023-10-25,2023-10-20,株式会社丸十繊維,,株式会社,東京都,墨田区,千歳１丁目５番８号,,13,107,1300025,,,2023-10-20,清算の結了等,,,2015-10-05,1,,,,,マルジュウセンイ,0
58,1011101062571,登記記録の閉鎖等,0,2023-10-25,2023-10-23,株式会社ふくちゃん,,株式会社,東京都,新宿区,市谷柳町２５番地,,13,104,1620061,,,2023-10-23,清算の結了等,,,2015-10-05,1,,,,,フクチャン,0
61,1011103000835,登記記録の閉鎖等,0,2023-10-25,2023-10-24,合資会社しんじゆく一色,,合資会社,東京都,新宿区,新宿３丁目１８番１号,,13,104,1600022,,,2023-10-24,清算の結了等,,,2015-10-05,1,,,,,シンジユクイッシキ,0
86,1021001013780,登記記録の閉鎖等,0,2023-10-25,2023-10-19,株式会社ファンコーポレーション,,株式会社,神奈川県,相模原市中央区,淵野辺本町３丁目２８番１号,,14,152,2520202,,,2023-10-19,合併による解散等,4130001041547,令和５年１０月１日京都府福知山市長田大野下２７３７番地１２株式会社ミストラルサービス（4130001041547）に合併し解散,2015-10-05,1,,,,,,0
94,1030001127425,登記記録の閉鎖等,0,2023-10-25,2023-10-11,株式会社ｅ－Ｓｕｐｐｏｒｔ,,株式会社,埼玉県,日高市,四本木１丁目２番地１７,,11,242,3501248,,,2023-10-11,清算の結了等,,,2018-09-14,1,,,,,イーサポート,0
104,1030002101296,登記記録の閉鎖等,0,2023-10-25,2023-10-20,有限会社岡藤,,有限会社,埼玉県,川口市,東領家１丁目１２番２２号,,11,203,3320003,,,2023-10-20,清算の結了等,,,2015-10-05,1,,,,,オカフジ,0
131,1060002006798,登記記録の閉鎖等,0,2023-10-25,2023-10-19,有限会社中里保温工業,,有限会社,栃木県,宇都宮市,平出工業団地４４番地２７,,09,201,3210905,,,2023-10-19,清算の結了等,,,2015-10-05,1,,,,,ナカザトホオンコウギョウ,0
188,1140001079267,登記記録の閉鎖等,0,2023-10-25,2023-10-10,川西能勢口振興開発株式会社,,株式会社,兵庫県,川西市,小戸１丁目５番２号,,28,217,6660014,,,2023-10-10,合併による解散等,3140001079265,令和５年１０月１日兵庫県川西市栄町２５番１号川西都市開発株式会社（3140001079265）に合併し解散,2015-10-05,1,,,,,カワニシノセグチシンコウカイハツ,0
199,1180005003129,登記記録の閉鎖等,0,2023-10-25,2023-10-04,名古屋監査法人,,その他の設立登記法人,愛知県,名古屋市中区,栄３丁目６番１号栄三丁目ビルディング,,23,106,4600008,,,2023-10-04,合併による解散等,7010005005557,令和５年１０月２日東京都中央区日本橋室町四丁目４番３号ふじみ監査法人（7010005005557）に合併し解散,2015-10-05,1,,,,,ナゴヤ,0
201,1180301029174,登記記録の閉鎖等,0,2023-10-25,2023-10-13,ラポール株式会社,,株式会社,愛知県,安城市,二本木新町１丁目１８番地６,,23,212,4460075,,,2023-10-13,清算の結了等,,,2016-05-10,1,,,,,ラポール,0
220,1260005008318,登記記録の閉鎖等,0,2023-10-25,2023-10-23,特定非営利活動法人ライフサポート玉野,,その他の設立登記法人,岡山県,玉野市,八浜町八浜９６０番地,,33,204,7060221,,,2023-10-23,清算の結了等,,,2015-10-05,1,,,,,ライフサポートタマノ,0
231,1290005008983,登記記録の閉鎖等,0,2023-10-25,2023-08-22,扶桑教天真教会,,その他の設立登記法人,福岡県,八女郡広川町,大字六田２８４番地,,40,544,8340103,,,2023-08-22,合併による解散等,1290005007630,令和５年８月２２日福岡県嘉穂郡桂川町土居１２８３－６扶桑教惟神高大社（1290005007630）に合併し解散,2015-10-05,1,,,,,フソウキョウテンシンキョウカイ,0
238,1310005007867,登記記録の閉鎖等,0,2023-10-25,2023-10-20,特定非営利活動法人ながさきエコネット,,その他の設立登記法人,長崎県,長崎市,五島町３番３号プレジデント長崎２０６号室,,42,201,8500036,,,2023-10-20,清算の結了等,,,2015-10-05,1,,,,,ナガサキエコネット,0
246,1340002004377,登記記録の閉鎖等,0,2023-10-25,2023-10-23,有限会社サン電工,,有限会社,鹿児島県,鹿児島市,大明丘２丁目２３番１４号,,46,201,8920872,,,2023-10-23,清算の結了等,,,2015-10-05,1,,,,,サンデンコウ,0
256,1370501000642,登記記録の閉鎖等,0,2023-10-25,2023-10-19,株式会社北星,,株式会社,宮城県,気仙沼市,古町１丁目３番３３号,,04,205,9880077,,,2023-10-19,清算の結了等,,,2015-10-05,1,,,,,ホクセイ,0
258,1380001015438,登記記録の閉鎖等,0,2023-10-25,2023-10-17,ＫＥＩ株式会社,,株式会社,福島県,いわき市,金山町東台１５８番地の３,,07,204,9748211,,,2023-10-17,清算の結了等,,,2015-10-05,1,,,,,ケイ,0
260,1380002001560,登記記録の閉鎖等,0,2023-10-25,2023-10-17,有限会社佐の藤,,有限会社,福島県,福島市,野田町１丁目１２番８３号,,07,201,9608055,,,2023-10-17,清算の結了等,,,2015-10-05,1,,,,,サノフジ,0
287,2010001020135,登記記録の閉鎖等,0,2023-10-25,2023-10-13,株式会社杉栄商会,,株式会社,東京都,千代田区,外神田６丁目１２番６号,,13,101,1010021,,,2023-10-13,清算の結了等,,,2015-10-05,1,,,,,スギエイショウカイ,0
301,2010002005770,登記記録の閉鎖等,0,2023-10-25,2023-10-13,有限会社丸信社,,有限会社,東京都,文京区,本郷５丁目１１番１３号,,13,105,1130033,,,2023-10-13,清算の結了等,,,2015-10-05,1,,,,,マルシンシャ,0
307,2010101012247,登記記録の閉鎖等,0,2023-10-25,2023-10-20,株式会社ほんだ建設,,株式会社,東京都,八王子市,石川町９３番地５グランドール宇津木台Ｃ－２０２号,,13,201,1920032,,,2023-10-20,清算の結了等,,,2016-03-14,1,,,,,,0
311,2010401073154,登記記録の閉鎖等,0,2023-10-25,2023-10-16,ＳＨパートナーズ株式会社,,株式会社,東京都,港区,北青山３丁目６番７号青山パラシオタワー１１階,,13,103,1070061,,,2023-10-16,清算の結了等,,,2015-10-05,1,,,,,エスエイチパートナーズ,0
324,2010403017191,登記記録の閉鎖等,0,2023-10-25,2023-10-16,合同会社ウイン・アクション,,合同会社,大阪府,大阪市西成区,花園北２丁目１８番１３－９０３号,,27,122,5570016,,,2023-10-16,清算の結了等,,,2017-09-06,1,,,,,ウインアクション,0
370,2012701016569,登記記録の閉鎖等,0,2023-10-25,2023-10-19,株式会社ジャストフォーム,,株式会社,東京都,清瀬市,下宿２丁目４５２番地３,,13,221,2040001,,,2023-10-19,清算の結了等,,,2021-07-09,1,,,,,ジャストフォーム,0
375,2020001050437,登記記録の閉鎖等,0,2023-10-25,2023-10-12,株式会社サーティーフォー,,株式会社,神奈川県,横浜市中区,山手町１８４番地２１,,14,104,2310862,,,2023-10-12,清算の結了等,,,2015-10-05,1,,,,,サーティーフォー,0
376,2020001084410,登記記録の閉鎖等,0,2023-10-25,2023-10-13,株式会社ライトパイプ,,株式会社,神奈川県,横浜市港北区,篠原台町２番１６号,,14,109,2220024,,,2023-10-13,清算の結了等,,,2015-10-05,1,,,,,ライトパイプ,0
404,2030005000387,登記記録の閉鎖等,0,2023-10-25,2023-10-02,天理教本渡分教会,00018332,その他の設立登記法人,埼玉県,さいたま市大宮区,東町１丁目１２９番地,,11,103,3300841,,,2023-10-02,合併による解散等,4010605000448,令和５年９月２７日東京都墨田区本所一丁目１３番１７号天理教東本大教会（4010605000448）に合併し解散,2015-10-05,1,,,,,,0
406,2040001059749,登記記録の閉鎖等,0,2023-10-25,2023-10-11,東総園株式会社,,株式会社,千葉県,茂原市,東茂原１番地１３,,12,210,2970032,,,2023-10-11,清算の結了等,,,2015-10-05,1,,,,,トウソウエン,0
407,2040001062050,登記記録の閉鎖等,0,2023-10-25,2023-10-12,川岸屋水産株式会社,,株式会社,千葉県,銚子市,東小川町２９７８番地,,12,202,2880032,,,2023-10-12,清算の結了等,,,2015-10-05,1,,,,,カワギシヤスイサン,0
408,2040001077643,登記記録の閉鎖等,0,2023-10-25,2023-10-11,株式会社日興,,株式会社,千葉県,袖ケ浦市,横田１１６２番地,,12,229,2990236,,,2023-10-11,清算の結了等,,,2015-10-05,1,,,,,ニッコウ,0
411,2040001101089,登記記録の閉鎖等,0,2023-10-25,2023-10-02,株式会社チョネダ,,株式会社,千葉県,山武市,板川１４４番地４２,,12,237,2891201,,,2023-10-02,清算の結了等,,,2017-07-21,1,,,,,チョネダ,0
419,2040005007506,登記記録の閉鎖等,0,2023-10-25,2023-10-06,医療法人社団野村外科医院,,その他の設立登記法人,千葉県,四街道市,千代田４丁目２５番４号,,12,228,2840015,,,2023-10-06,清算の結了等,,,2015-10-05,1,,,,,ノムラゲカイイン,0
422,2050002035962,登記記録の閉鎖等,0,2023-10-25,2023-10-18,有限会社シーナ工業,,有限会社,茨城県,久慈郡大子町,大字川山６７９番地,,08,364,3193556,,,2023-10-18,清算の結了等,,,2015-10-05,1,,,,,シーナコウギョウ,0
433,2080101011036,登記記録の閉鎖等,0,2023-10-25,2023-10-23,株式会社新興テクノ,,株式会社,静岡県,富士市,松岡２５９番地の４,,22,210,4160909,,,2023-10-23,清算の結了等,,,2015-10-05,1,,,,,シンコウテクノ,0
435,2080403003821,登記記録の閉鎖等,0,2023-10-25,2023-10-13,Ｈｉｌｌｓｏｎｇ　Ｍｕｓｉｃ　ａｎｄ　Ｒｅｓｏｕｒｃｅｓ　Ｊａｐａｎ合同会社,,合同会社,東京都,港区,北青山２丁目７番２０号猪瀬ビル２Ｆ,,13,103,1070061,,,2023-10-13,清算の結了等,,,2019-03-22,1,,,,,ヒルソングミュージックアンドリソーシズジャパン,0
444,2120001104950,登記記録の閉鎖等,0,2023-10-25,2023-10-23,アサヒエナジー株式会社,,株式会社,大阪府,大阪市西区,江戸堀２丁目１番１号江戸堀センタービル９Ｆ,,27,106,5500002,,,2023-10-23,合併による解散等,3130001051068,令和５年１０月１日京都府八幡市下奈良新下１１番１株式会社Ｇｏ‐ｔｏアサヒエナジー（3130001051068）に合併し解散,2015-10-05,1,,,,,アサヒエナジー,0
457,2120002058774,登記記録の閉鎖等,0,2023-10-25,2023-10-23,有限会社アグリ８長島,,有限会社,島根県,邑智郡美郷町,都賀西４３２番地１,,32,448,6960703,,,2023-10-23,清算の結了等,,,2015-10-05,1,,,,,アグリエイトナガシマ,0
469,2120901018853,登記記録の閉鎖等,0,2023-10-25,2023-10-16,株式会社フェアリーズビューティー,,株式会社,大阪府,高槻市,上田辺町２０－２６－４０３,,27,207,5690805,,,2023-10-16,清算の結了等,,,2015-10-05,1,,,,,フェアリーズビューティー,0
470,2120905003083,登記記録の閉鎖等,0,2023-10-25,2023-10-10,大阪生コン・セメント関連事業協同組合,,その他の設立登記法人,大阪府,摂津市,鳥飼上４丁目９番２９号,,27,224,5660062,,,2023-10-10,清算の結了等,,,2015-10-05,1,,,,,オオサカナマコンセメントカンレン,0
471,2122001029467,登記記録の閉鎖等,0,2023-10-25,2023-10-19,株式会社プラスティ,,株式会社,大阪府,東大阪市,中小阪２丁目１４番２３号,,27,227,5770804,,,2023-10-19,清算の結了等,,,2016-04-06,1,,,,,プラスティ,0
473,2122002002720,登記記録の閉鎖等,0,2023-10-25,2023-10-20,有限会社創プラ工芸,,有限会社,大阪府,東大阪市,西堤学園町２丁目１番１７号,,27,227,5770044,,,2023-10-20,清算の結了等,,,2015-10-05,1,,,,,ソウプラコウゲイ,0
475,2130001049682,登記記録の閉鎖等,0,2023-10-25,2023-10-23,株式会社ＴＥＣＨＮＯ,,株式会社,愛知県,一宮市,北方町北方字西金丸２０番地,,23,203,4938001,,,2023-10-23,清算の結了等,,,2015-10-05,1,,,,,テクノ,0
480,2130003004157,登記記録の閉鎖等,0,2023-10-25,2023-10-12,合同会社ＥＣＯＭ,,合同会社,京都府,京都市下京区,若宮通六条下る若宮町５４６番地２,,26,106,6008314,,,2023-10-12,清算の結了等,,,2015-10-05,1,,,,,イーコム,0
483,2140001129855,登記記録の閉鎖等,0,2023-10-25,2023-10-06,株式会社モデル・エレクトロニック,,株式会社,兵庫県,神戸市灘区,摩耶海岸通２丁目３番１３号,,28,102,6570855,,,2023-10-06,清算の結了等,,,2023-04-20,1,,,,,モデルエレクトロニック,0
497,2180001131345,登記記録の閉鎖等,0,2023-10-25,2023-10-02,株式会社ワークナビ大府,,株式会社,愛知県,大府市,横根町林新田１６４番地３,,23,223,4740011,,,2023-10-02,合併による解散等,9180001156567,令和５年１０月１日名古屋市中区栄四丁目１６番３３号日本経済新聞社名古屋支社ビル５階株式会社ワークナビ派遣（9180001156567）に合併し解散　,2018-02-28,1,,,,,ワークナビオオブ,0
501,2180002043366,登記記録の閉鎖等,0,2023-10-25,2023-10-20,有限会社エムズサービスコーポレーション,,有限会社,愛知県,名古屋市中川区,烏森町字四反畑１２１番地,,23,110,4540819,,,2023-10-20,清算の結了等,,,2015-10-05,1,,,,,エムズサービスコーポレーション,0
507,2190002015323,登記記録の閉鎖等,0,2023-10-25,2023-10-23,有限会社三重総合インダストリー,,有限会社,三重県,多気郡多気町,野中８３番地,,24,441,5192166,,,2023-10-23,清算の結了等,,,2015-10-05,1,,,,,ミエソウゴウインダストリー,0
510,2190005003911,登記記録の閉鎖等,0,2023-10-25,2023-09-25,天理教赤島分教会,,その他の設立登記法人,三重県,北牟婁郡紀北町,島原２７９４番地,,24,543,5193203,,,2023-09-25,合併による解散等,9190005003525,令和５年９月２５日三重県熊野市木本町３４６番地天理教南紀大教会（9190005003525）に合併し解散,2015-10-05,1,,,,,テンリキョウアカジマブンキョウカイ,0
518,2240001053707,登記記録の閉鎖等,0,2023-10-25,2023-10-20,株式会社アセアン西日本,,株式会社,広島県,広島市中区,上八丁堀８番２６号６０１,,34,101,7300012,,,2023-10-20,合併による解散等,9010501043686,令和５年１０月１日東京都台東区台東三丁目１５番３号ＭＡＲＫＳＱＵＡＲＥ御徒町７階株式会社アセアン（9010501043686）に合併し解散,2018-12-18,1,,,,,アセアンニシニホン,0
519,2240001059794,登記記録の閉鎖等,0,2023-10-25,2023-10-20,株式会社ＡＭＭｅ,,株式会社,広島県,広島市中区,幟町１３番１５号,,34,101,7300016,,,2023-10-20,清算の結了等,,,2022-05-23,1,,,,,アム,0
533,2290005013033,登記記録の閉鎖等,0,2023-10-25,2023-08-22,扶桑教浮羽教会,,その他の設立登記法人,福岡県,うきは市,吉井町橘田２７番地,,40,225,8391307,,,2023-08-22,合併による解散等,1290005007630,令和５年８月２２日福岡県嘉穂郡桂川町土居１２８３－６扶桑教惟神高大社（1290005007630）に合併し解散,2015-10-05,1,,,,,フソウキョウウキハキョウカイ,0
534,2290805001105,登記記録の閉鎖等,0,2023-10-25,2023-10-04,扶桑教大和教会,00094843,その他の設立登記法人,福岡県,北九州市戸畑区,幸町１２７９番地,,40,105,8040084,,,2023-10-04,合併による解散等,1290005007630,令和５年８月２２日福岡県嘉穂郡桂川町土居１２８３－６扶桑教惟神高大社（1290005007630）に合併し解散,2015-10-05,1,,,,,フソウキョウヤマトキョウカイ,0
536,2310001013397,登記記録の閉鎖等,0,2023-10-25,2023-10-24,みすな獣医科病院株式会社,,株式会社,長崎県,長崎市,城山町１３番４号,,42,201,8528021,,,2023-10-24,清算の結了等,,,2015-10-05,1,,,,,ミスナジュウイカビョウイン,0
538,2330001017925,登記記録の閉鎖等,0,2023-10-25,2023-10-16,株式会社楽陽開発,,株式会社,熊本県,熊本市北区,楡木２丁目１１番８９号,,43,105,8618083,,,2023-10-16,清算の結了等,,,2015-10-05,1,,,,,ラクヨウカイハツ,0
541,2340005001271,登記記録の閉鎖等,0,2023-10-25,2023-10-19,医療法人森下ひふ科,,その他の設立登記法人,鹿児島県,鹿児島市,原良１丁目１６番１６－７０３号,,46,201,8900026,,,2023-10-19,清算の結了等,,,2015-10-05,1,,,,,モリシタヒフカ,0
552,2370003005115,登記記録の閉鎖等,0,2023-10-25,2023-10-19,合同会社Ｏｆｆｉｃｅ　Ｍｙ　Ｄａｙ,,合同会社,宮城県,仙台市青葉区,堤町２丁目１５番２７号,,04,101,9810912,,,2023-10-19,清算の結了等,,,2021-02-17,1,,,,,オフィスマイデイ,0
563,2410001003891,登記記録の閉鎖等,0,2023-10-25,2023-10-18,株式会社アキタパークホテル・マネージメント,,株式会社,秋田県,秋田市,山王４丁目５番１０号,,05,201,0100951,,,2023-10-18,清算の結了等,,,2015-10-05,1,,,,,アキタパークホテルマネージメント,0
569,2430002003220,登記記録の閉鎖等,0,2023-10-25,2023-10-13,有限会社エヌ・エス・オート,,有限会社,北海道,札幌市北区,屯田五条２丁目６番８号,,01,102,0020855,,,2023-10-13,清算の結了等,,,2015-10-05,1,,,,,エヌエスオート,0
575,2470002005072,登記記録の閉鎖等,0,2023-10-25,2023-10-23,有限会社中西鉄工所,,有限会社,香川県,高松市,香西本町７４２番地７３,,37,201,7618012,,,2023-10-23,清算の結了等,,,2015-10-05,1,,,,,ナカニシテッコウショ,0
589,3010001185398,登記記録の閉鎖等,0,2023-10-25,2023-10-13,株式会社ミシェルベース,,株式会社,東京都,千代田区,九段南１丁目５番６号りそな九段ビル５階ＫＳフロア,,13,101,1020074,,,2023-10-13,清算の結了等,,,2017-08-07,1,,,,,ミシェルベース,0
594,3010002014390,登記記録の閉鎖等,0,2023-10-25,2023-10-13,有限会社ほり,,有限会社,東京都,千代田区,内神田１丁目５番９号,,13,101,1010047,,,2023-10-13,清算の結了等,,,2015-10-05,1,,,,,ホリ,0
598,3010005017804,登記記録の閉鎖等,0,2023-10-25,2023-10-19,一般財団法人竹村和子フェミニズム基金,,その他の設立登記法人,東京都,多摩市,聖ヶ丘２丁目２０番地の６,,13,224,2060022,,,2023-10-19,清算の結了等,,,2015-10-05,1,,,,,タケムラカズコフェミニズムキキン,0
600,3010101000250,登記記録の閉鎖等,0,2023-10-25,2023-10-20,株式会社アメニティーライフ,,株式会社,東京都,八王子市,上壱分方町７１番地２,,13,201,1930811,,,2023-10-20,合併による解散等,3010401095635,令和５年１０月１日東京都港区北青山二丁目７番１３号プラセオ青山ビル株式会社ＳＯＹＯＫＡＺＥ（3010401095635）に合併し解散,2015-10-05,1,,,,,アメニティーライフ,0
603,3010401005230,登記記録の閉鎖等,0,2023-10-25,2023-10-16,株式会社エム・エス・エス,,株式会社,東京都,港区,六本木３丁目６番９号,,13,103,1060032,,,2023-10-16,清算の結了等,,,2015-10-05,1,,,,,エムエスエス,0
611,3010401113628,登記記録の閉鎖等,0,2023-10-25,2023-10-20,ＧＥホールディングス株式会社,,株式会社,東京都,大田区,南蒲田２丁目１６番１号,,13,111,1440035,,,2023-10-20,清算の結了等,,,2015-10-05,1,,,,,ジーイーホールディングス,0
625,3010601051347,登記記録の閉鎖等,0,2023-10-25,2023-10-20,Ｓｈｉａｗａｓｅ株式会社,,株式会社,東京都,江東区,塩浜２丁目８番２９－４０７号,,13,108,1350043,,,2023-10-20,清算の結了等,,,2017-04-03,1,,,,,,0
640,3011001142018,登記記録の閉鎖等,0,2023-10-25,2023-10-11,株式会社Ｂｅｌｌａ　Ｂｅｌｌａ,,株式会社,東京都,渋谷区,恵比寿１丁目１５番９‐４０３号日宝恵比寿ビル,,13,113,1500013,,,2023-10-11,清算の結了等,,,2021-08-02,1,,,,,ベイラベイラ,0
650,3011101084309,登記記録の閉鎖等,0,2023-10-25,2023-10-17,香山株式会社,,株式会社,東京都,板橋区,大原町７－７－１Ｆ,,13,119,1740061,,,2023-10-17,清算の結了等,,,2018-05-31,1,,,,,カヤマ,0
671,3011805001402,登記記録の閉鎖等,0,2023-10-25,2023-10-18,台東ランドラーズ協同組合,,その他の設立登記法人,東京都,葛飾区,南水元１丁目２８番１４号,,13,122,1250035,,,2023-10-18,清算の結了等,,,2018-01-23,1,,,,,タイトウランドラーズ,0
687,3013301001539,登記記録の閉鎖等,0,2023-10-25,2023-10-12,エスカ設計事務所株式会社,,株式会社,千葉県,浦安市,富岡４丁目１３番９号,,12,227,2790021,,,2023-10-12,清算の結了等,,,2015-10-05,1,,,,,,0
709,3030003014677,登記記録の閉鎖等,0,2023-10-25,2023-10-11,ＴＯＭＩ合同会社,,合同会社,埼玉県,川口市,金山町１３番３０－１００５号コスモ川口サンスクエア,,11,203,3320014,,,2023-10-11,清算の結了等,,,2020-01-22,1,,,,,トミ,0
721,3040005019541,登記記録の閉鎖等,0,2023-10-25,2023-10-06,ＮＰＯ法人袖ケ浦ドローン協会,,その他の設立登記法人,千葉県,袖ケ浦市,百目木４７３番地,,12,229,2990213,,,2023-10-06,清算の結了等,,,2017-05-17,1,,,,,ソデガウラドローンキョウカイ,0
723,3050001013027,登記記録の閉鎖等,0,2023-10-25,2023-10-16,株式会社米家,,株式会社,茨城県,土浦市,中村南３丁目６番２号,,08,203,3000843,,,2023-10-16,清算の結了等,,,2015-10-05,1,,,,,ヨネヤ,0
732,3060003001516,登記記録の閉鎖等,0,2023-10-25,2023-10-20,Ｔｅｒｒａｓｅｅｋ合同会社,,合同会社,栃木県,宇都宮市,桜２丁目１番２６号桜町ハイツ１１０７号室,,09,201,3200043,,,2023-10-20,清算の結了等,,,2015-10-05,1,,,,,テラシーク,0
737,3080102001299,登記記録の閉鎖等,0,2023-10-25,2023-10-24,有限会社後藤地所,,有限会社,静岡県,沼津市,西条町１５７番地,,22,203,4100804,,,2023-10-24,清算の結了等,,,2015-10-05,1,,,,,ゴトウジショ,0
741,3100001006982,登記記録の閉鎖等,0,2023-10-25,2023-10-13,株式会社チャオ,,株式会社,長野県,長野市,南千歳町８５５番地３,,20,201,3810000,,,2023-10-13,清算の結了等,,,2015-10-05,1,,,,,チャオ,0
743,3100002028695,登記記録の閉鎖等,0,2023-10-25,2023-10-10,有限会社冨澤工務店,,有限会社,長野県,諏訪市,大字四賀１８８２番地６,,20,206,3920012,,,2023-10-10,清算の結了等,,,2015-10-05,1,,,,,トミザワコウムテン,0
757,3120001242667,登記記録の閉鎖等,0,2023-10-25,2023-10-17,株式会社Ｂｒｏａｄ,,株式会社,大阪府,枚方市,藤阪中町３４番８号,,27,210,5730152,,,2023-10-17,清算の結了等,,,2021-12-23,1,,,,,ブロード,0
767,3120002015452,登記記録の閉鎖等,0,2023-10-25,2023-10-23,有限会社クリックス,,有限会社,大阪府,大阪市港区,市岡３丁目３番１７号,,27,107,5520012,,,2023-10-23,清算の結了等,,,2015-10-05,1,,,,,クリックス,0
773,3120005000410,登記記録の閉鎖等,0,2023-10-25,2023-10-03,天理教阪新分教会,,その他の設立登記法人,大阪府,大阪市西区,新町４丁目３番１４号,,27,106,5500013,,,2023-10-03,合併による解散等,3170005005363,令和５年１０月２日和歌山県新宮市新宮５５１番地の３天理教新宮分教会（3170005005363）に合併し解散,2015-10-05,1,,,,,テンリキョウハンシンブンキョウカイ,0
785,3122005002675,登記記録の閉鎖等,0,2023-10-25,2023-10-24,一般社団法人ブルーコクーン,,その他の設立登記法人,大阪府,東大阪市,足代南１丁目２番８号,,27,227,5770842,,,2023-10-24,清算の結了等,,,2015-10-05,1,,,,,ブルーコクーン,0
791,3140001002631,登記記録の閉鎖等,0,2023-10-25,2023-10-19,株式会社メイクアップ,,株式会社,兵庫県,神戸市東灘区,魚崎南町６丁目２番１０号,,28,101,6580025,,,2023-10-19,清算の結了等,,,2015-10-05,1,,,,,メイクアップ,0
806,3180001149782,登記記録の閉鎖等,0,2023-10-25,2023-10-02,株式会社ワークナビ名駅西,,株式会社,愛知県,名古屋市中村区,豊国通１丁目２３番３号ポニーランドビル４階,,23,105,4530834,,,2023-10-02,合併による解散等,9180001156567,令和５年１０月１日名古屋市中区栄四丁目１６番３３号日本経済新聞社名古屋支社ビル５階株式会社ワークナビ派遣（9180001156567）に合併し解散　,2022-02-01,1,,,,,ワークナビメイエキニシ,0
807,3180001152828,登記記録の閉鎖等,0,2023-10-25,2023-10-02,株式会社ワークナビ春日井,,株式会社,愛知県,春日井市,瑞穂通５丁目６０番地平成ビル１階,,23,206,4860845,,,2023-10-02,合併による解散等,9180001156567,令和５年１０月１日名古屋市中区栄四丁目１６番３３号日本経済新聞社名古屋支社ビル５階株式会社ワークナビ派遣（9180001156567）に合併し解散　,2022-09-01,1,,,,,ワークナビカスガイ,0
814,3180301005116,登記記録の閉鎖等,0,2023-10-25,2023-10-16,株式会社犬塚運輸,,株式会社,愛知県,豊橋市,牛川町字ギロウ２９番地１,,23,201,4400016,,,2023-10-16,清算の結了等,,,2015-10-05,1,,,,,イヌヅカウンユ,0
826,3240001055933,登記記録の閉鎖等,0,2023-10-25,2023-10-20,株式会社Ｊｏｐｌｉｎ,,株式会社,広島県,広島市中区,幟町１３番１５号,,34,101,7300016,,,2023-10-20,清算の結了等,,,2020-04-03,1,,,,,ジョプリン,0
828,3240002035224,登記記録の閉鎖等,0,2023-10-25,2023-10-20,有限会社ハタ文具,,有限会社,広島県,呉市,川尻町西２丁目１６番６号,,34,202,7372603,,,2023-10-20,清算の結了等,,,2015-10-05,1,,,,,ハタブング,0
835,3260002025512,登記記録の閉鎖等,0,2023-10-25,2023-10-23,横島被服有限会社,,有限会社,岡山県,笠岡市,美の浜２８番地の１８,,33,205,7140042,,,2023-10-23,清算の結了等,,,2015-10-05,1,,,,,,0
844,3290002040797,登記記録の閉鎖等,0,2023-10-25,2023-10-10,有限会社サンセイ通商,,有限会社,福岡県,春日市,桜ヶ丘２丁目１９番地１,,40,218,8160872,,,2023-10-10,清算の結了等,,,2015-10-05,1,,,,,サンセイツウショウ,0
845,3290002043949,登記記録の閉鎖等,0,2023-10-25,2023-10-10,有限会社ワールドウイング,,有限会社,福岡県,朝倉市,入地２９０３番地の２,,40,228,8381315,,,2023-10-10,清算の結了等,,,2015-10-05,1,,,,,ワールドウイング,0
852,3310001018569,登記記録の閉鎖等,0,2023-10-25,2023-10-20,株式会社フィデスコ,,株式会社,長崎県,佐世保市,牧の地町９４５番地,,42,202,8570145,,,2023-10-20,清算の結了等,,,2023-08-21,1,,,,,フィデスコ,0
862,3350002005273,登記記録の閉鎖等,0,2023-10-25,2023-10-13,有限会社リバー産業,,有限会社,宮崎県,宮崎市,大坪町白砂野４１０９番地９０－１０,,45,201,8800933,,,2023-10-13,清算の結了等,,,2015-10-05,1,,,,,リバーサンギョウ,0
878,3400002009260,登記記録の閉鎖等,0,2023-10-25,2023-10-10,有限会社協同工業,,有限会社,岩手県,北上市,鬼柳町卯の木１４５番地６,,03,206,0240056,,,2023-10-10,清算の結了等,,,2015-10-05,1,,,,,キョウドウコウギョウ,0
879,3400602001360,登記記録の閉鎖等,0,2023-10-25,2023-10-12,有限会社おかる,,有限会社,岩手県,奥州市,前沢字七日町９１番地,,03,215,0294208,,,2023-10-12,清算の結了等,,,2015-10-05,1,,,,,,0
882,3420001017923,登記記録の閉鎖等,0,2023-10-25,2023-10-18,市岡商産株式会社,,株式会社,青森県,むつ市,大曲２丁目１４番３５号,,02,208,0350042,,,2023-10-18,清算の結了等,,,2022-07-13,1,,,,,イチオカショウサン,0
886,3430001011495,登記記録の閉鎖等,0,2023-10-25,2023-10-11,株式会社トータル,,株式会社,北海道,札幌市白石区,川下５８９番地２６５,,01,104,0030869,,,2023-10-11,清算の結了等,,,2015-10-05,1,,,,,トータル,0
890,3450001003292,登記記録の閉鎖等,0,2023-10-25,2023-10-23,山口繊維株式会社,,株式会社,北海道,旭川市,末広一条２丁目１番２５号,,01,204,0718131,,,2023-10-23,清算の結了等,,,2015-10-05,1,,,,,ヤマグチセンイ,0
891,3470005003725,登記記録の閉鎖等,0,2023-10-25,2023-10-24,三豊鉄工協同組合,,その他の設立登記法人,香川県,観音寺市,大野原町大野原２８３９番地,,37,205,7691611,,,2023-10-24,清算の結了等,,,2015-10-05,1,,,,,ミトヨテッコウ,0
913,4010003019207,登記記録の閉鎖等,0,2023-10-25,2023-10-12,合同会社つばきインベストメント,,合同会社,東京都,中央区,銀座１丁目６番１１号土志田ビルディング３Ｆ,,13,102,1040061,,,2023-10-12,清算の結了等,,,2015-10-05,1,,,,,ツバキインベストメント,0
930,4010401116761,登記記録の閉鎖等,0,2023-10-25,2023-10-16,株式会社シーズリンクス,,株式会社,東京都,港区,三田１丁目７番１号パークコート麻布十番,,13,103,1080073,,,2023-10-16,清算の結了等,,,2015-10-05,1,,,,,シーズリンクス,0
939,4010401159455,登記記録の閉鎖等,0,2023-10-25,2023-10-02,株式会社広済堂ＨＲソリューションズ,,株式会社,東京都,港区,芝浦１丁目２番３号シーバンスＳ館１３階,,13,103,1050023,,,2023-10-02,合併による解散等,6010001143691,令和５年１０月１日東京都港区芝浦一丁目２番３号シーバンスＳ館１３階株式会社広済堂ビジネスサポート（6010001143691）に合併し解散,2021-04-08,1,,,,,コウサイドウエイチアールソリューションズ,0
957,4011001155357,登記記録の閉鎖等,0,2023-10-25,2023-10-12,株式会社ｆｏｕｆｏｕ,,株式会社,東京都,国立市,東１丁目１６番地１７・４階,,13,215,1860002,,,2023-10-12,合併による解散等,9012801022543,令和５年１０月１日東京都国立市東一丁目１６番地１７・５階株式会社ｆｏｕｆｏｕ（9012801022543）に合併し解散,2023-06-30,1,,,,,フーフー,0
967,4011401023634,登記記録の閉鎖等,0,2023-10-25,2023-10-23,株式会社ごきっちょー,,株式会社,東京都,板橋区,向原２丁目２３番８号ベルアネックス２１２号室,,13,119,1730036,,,2023-10-23,清算の結了等,,,2021-08-31,1,,,,,ゴキッチョー,0
970,4011601001489,登記記録の閉鎖等,0,2023-10-25,2023-10-23,株式会社勝吉電機空調,,株式会社,東京都,練馬区,南大泉３丁目２８番４－１０６号,,13,120,1780064,,,2023-10-23,清算の結了等,,,2015-10-05,1,,,,,カツヨシデンキクウチョウ,0
971,4011701006909,登記記録の閉鎖等,0,2023-10-25,2023-10-19,株式会社深沢工務店,,株式会社,東京都,江戸川区,瑞江３丁目１２番１１号,,13,123,1320011,,,2023-10-19,清算の結了等,,,2015-10-05,1,,,,,フカザワコウムテン,0
980,4012802004330,登記記録の閉鎖等,0,2023-10-25,2023-10-16,有限会社共進工業,,有限会社,東京都,武蔵村山市,榎３丁目３１番地２,,13,223,2080022,,,2023-10-16,清算の結了等,,,2015-10-05,1,,,,,キョウシンコウギョウ,0
981,4013101003585,登記記録の閉鎖等,0,2023-10-25,2023-10-19,ケミコン精機株式会社,,株式会社,東京都,青梅市,東青梅１丁目７番地６,,13,205,1980042,,,2023-10-19,合併による解散等,7370201002512,令和５年１０月１日宮城県大崎市田尻沼部字加良屋敷１００番地１ケミコン東日本株式会社（7370201002512）に合併し解散,2015-10-05,1,,,,,ケミコンセイキ,0
984,4013401007088,登記記録の閉鎖等,0,2023-10-25,2023-10-19,株式会社テクネイジア,,株式会社,東京都,日野市,南平７丁目２２番地の５５,,13,212,1910041,,,2023-10-19,清算の結了等,,,2015-10-05,1,,,,,テクネイジア,0
986,4020001098103,登記記録の閉鎖等,0,2023-10-25,2023-10-12,株式会社ルーツ,,株式会社,神奈川県,横浜市都筑区,川和町８３８番地３０２号室,,14,118,2240057,,,2023-10-12,清算の結了等,,,2015-10-05,1,,,,,ルーツ,0
1017,4040001117199,登記記録の閉鎖等,0,2023-10-25,2023-10-11,株式会社ユニバーサルアグリテック,,株式会社,千葉県,君津市,久留里大谷６５４番地,,12,225,2920414,,,2023-10-11,清算の結了等,,,2021-02-22,1,,,,,ユニバーサルアグリテック,0
1050,4120001006781,登記記録の閉鎖等,0,2023-10-25,2023-10-23,大阪メヂカル・アーツ株式会社,,株式会社,大阪府,大阪市阿倍野区,丸山通２丁目４番１１号,,27,119,5450042,,,2023-10-23,清算の結了等,,,2015-10-05,1,,,,,オオサカメヂカルアーツ,0
1053,4120001087913,登記記録の閉鎖等,0,2023-10-25,2023-10-24,株式会社ビー・ホープ,,株式会社,大阪府,大阪市中央区,南本町２丁目１番１号本町サザンビル５０５号,,27,128,5410054,,,2023-10-24,清算の結了等,,,2015-10-05,1,,,,,ビーホープ,0
1084,4120102011648,登記記録の閉鎖等,0,2023-10-25,2023-10-20,ステディーディリヴァリイ有限会社,,有限会社,大阪府,堺市中区,堀上町３２番地の１,,27,142,5998261,,,2023-10-20,清算の結了等,,,2015-10-05,1,,,,,ステディーディリヴァリイ,0
1095,4130001001410,登記記録の閉鎖等,0,2023-10-25,2023-10-10,株式会社東洋エンタープライズ,,株式会社,京都府,京都市右京区,西院松井町６番地,,26,108,6150013,,,2023-10-10,清算の結了等,,,2015-10-05,1,,,,,トウヨウエンタープライズ,0
1100,4130005014326,登記記録の閉鎖等,0,2023-10-25,2023-10-10,一般社団法人五次元スクール,,その他の設立登記法人,京都府,京都市右京区,宇多野芝町５番地２セレッソ御室１０３号室,,26,108,6168209,,,2023-10-10,清算の結了等,,,2015-10-05,1,,,,,ゴジゲンスクール,0
1118,4180001125155,登記記録の閉鎖等,0,2023-10-25,2023-10-02,株式会社ワークナビ小牧,,株式会社,愛知県,小牧市,中央１丁目３７０番地サンハウス小牧駅,,23,219,4850029,,,2023-10-02,合併による解散等,9180001156567,令和５年１０月１日名古屋市中区栄四丁目１６番３３号日本経済新聞社名古屋支社ビル５階株式会社ワークナビ派遣（9180001156567）に合併し解散　,2016-10-17,1,,,,,ワークナビコマキ,0
1125,4180301001502,登記記録の閉鎖等,0,2023-10-25,2023-10-13,株式会社中根金型工業所,,株式会社,愛知県,岡崎市,北野町字畔北４３番地１０,,23,202,4440951,,,2023-10-13,清算の結了等,,,2015-10-05,1,,,,,ナカネカナガタコウギョウショ,0
1126,4180301022531,登記記録の閉鎖等,0,2023-10-25,2023-10-06,杉山合成樹脂株式会社,,株式会社,愛知県,西尾市,山下町西八幡山７０番地,,23,213,4450877,,,2023-10-06,清算の結了等,,,2015-10-05,1,,,,,スギヤマゴウセイジュシ,0
1133,4190001017285,登記記録の閉鎖等,0,2023-10-25,2023-10-18,株式会社共栄ファイン,,株式会社,三重県,四日市市,城西町３番８号,,24,202,5100829,,,2023-10-18,清算の結了等,,,2015-10-05,1,,,,,キョウエイファイン,0
1135,4190002017656,登記記録の閉鎖等,0,2023-10-25,2023-10-20,有限会社諸戸藤七商店,,有限会社,三重県,桑名郡木曽岬町,大字新加路戸１番地,,24,303,4980821,,,2023-10-20,合併による解散等,6190001012862,令和５年１０月２０日三重県桑名郡木曽岬町大字新加路戸１番地株式会社諸戸建材（6190001012862）に合併し解散,2015-10-05,1,,,,,モロトトウヒチショウテン,0
1149,4240001018559,登記記録の閉鎖等,0,2023-10-25,2023-10-19,株式会社ミィ・オフィス,,株式会社,広島県,広島市西区,庚午北４丁目６－７庚午ビル１階,,34,104,7330821,,,2023-10-19,清算の結了等,,,2015-10-05,1,,,,,ミィオフィス,0
1151,4240001055932,登記記録の閉鎖等,0,2023-10-25,2023-10-20,株式会社Ｃｏｏｐｅｒ,,株式会社,広島県,広島市中区,幟町１３番１５号,,34,101,7300016,,,2023-10-20,清算の結了等,,,2020-04-03,1,,,,,クーパー,0
1155,4240002016082,登記記録の閉鎖等,0,2023-10-25,2023-10-20,有限会社ミズタ事務所,,有限会社,広島県,広島市東区,矢賀３丁目８番８号,,34,102,7320042,,,2023-10-20,清算の結了等,,,2015-10-05,1,,,,,ミズタジムショ,0
1156,4240002021181,登記記録の閉鎖等,0,2023-10-25,2023-10-20,有限会社ガイソー技建,,有限会社,広島県,広島市佐伯区,観音台４丁目２６番２１号,,34,108,7315157,,,2023-10-20,清算の結了等,,,2015-10-05,1,,,,,ガイソーギケン,0
1165,4250002016016,登記記録の閉鎖等,0,2023-10-25,2023-10-19,有限会社上野土木,,有限会社,山口県,周南市,大字鹿野上３０１１番地の１,,35,215,7450302,,,2023-10-19,清算の結了等,,,2015-10-05,1,,,,,ウエノドボク,0
1172,4290005011836,登記記録の閉鎖等,0,2023-10-25,2023-08-22,扶桑教大川教会,,その他の設立登記法人,福岡県,大川市,大字酒見８４９番地の２,,40,212,8310016,,,2023-08-22,合併による解散等,1290005007630,令和５年８月２２日福岡県嘉穂郡桂川町土居１２８３－６扶桑教惟神高大社（1290005007630）に合併し解散,2015-10-05,1,,,,,フソウキョウオオカワキョウカイ,0
1187,4330002021040,登記記録の閉鎖等,0,2023-10-25,2023-10-16,谷崎企画有限会社,00097824,有限会社,熊本県,玉名市,立願寺５５８番地７,,43,206,8650061,,,2023-10-16,清算の結了等,,,2015-10-05,1,,,,,タニザキキカク,0
1200,4390002008643,登記記録の閉鎖等,0,2023-10-25,2023-10-20,ヤマサ菅原青果有限会社,,有限会社,山形県,酒田市,桜林興野５８番地,,06,204,9996706,,,2023-10-20,清算の結了等,,,2015-10-05,1,,,,,ヤマサスガワラセイカ,0
1202,4390002013387,登記記録の閉鎖等,0,2023-10-25,2023-10-02,有限会社丸忠太田商店,,有限会社,山形県,米沢市,大字川井３７８３番地の１,,06,202,9920117,,,2023-10-02,合併による解散等,5390001013718,令和５年１０月１日山形県米沢市成島町三丁目２７８０番地の５エムツーホールディングス株式会社（5390001013718）に合併し解散,2015-10-05,1,,,,,,0
1210,4430001031815,登記記録の閉鎖等,0,2023-10-25,2023-10-10,株式会社ノースフーズジャパン,,株式会社,北海道,札幌市中央区,大通西６丁目１０番地１,,01,101,0600042,,,2023-10-10,清算の結了等,,,2015-10-05,1,,,,,ノースフーズジャパン,0
1211,4430001060252,登記記録の閉鎖等,0,2023-10-25,2023-10-03,株式会社Ｈｏｋｕｔｏ　Ｆｏｏｄｓ　Ｃｏｒｐｏｒａｔｉｏｎ,,株式会社,北海道,室蘭市,中央町１丁目２番１７号,,01,205,0510011,,,2023-10-03,合併による解散等,6430001057866,令和５年９月２９日札幌市中央区南九条西四丁目２番１１号株式会社ホクト・デザインラボ（6430001057866）に合併し解散,2015-10-05,1,,,,,,0
1214,4430001070425,登記記録の閉鎖等,0,2023-10-25,2023-10-10,株式会社ケイエムプロジェクト,,株式会社,北海道,札幌市中央区,南八条西５丁目２８９番地１６８,,01,101,0640808,,,2023-10-10,清算の結了等,,,2015-12-11,1,,,,,ケイエムプロジェクト,0
1215,4430001071654,登記記録の閉鎖等,0,2023-10-25,2023-10-11,株式会社ナインワークス,,株式会社,北海道,札幌市中央区,南二条西２５丁目１番２号,,01,101,0640802,,,2023-10-11,清算の結了等,,,2016-05-26,1,,,,,ナインワークス,0
1221,4430002020107,登記記録の閉鎖等,0,2023-10-25,2023-10-10,有限会社元村鉄工,,有限会社,北海道,札幌市西区,発寒十七条１４丁目３番１１号,,01,107,0630837,,,2023-10-10,清算の結了等,,,2015-10-05,1,,,,,モトムラテッコウ,0
1222,4430002065556,登記記録の閉鎖等,0,2023-10-25,2023-10-05,有限会社サニープレイス,,有限会社,北海道,室蘭市,東町２丁目１６番地,,01,205,0500083,,,2023-10-05,合併による解散等,4440001008110,令和５年１０月１日北海道北斗市中央二丁目４番１号株式会社エミアスファーマシーズ（4440001008110）に合併し解散,2015-10-05,1,,,,,サニープレイス,0
1255,5010002037209,登記記録の閉鎖等,0,2023-10-25,2023-10-13,株式会社ＨＮＴ,,株式会社,東京都,港区,白金台５丁目１３番３号,,13,103,1080071,,,2023-10-13,清算の結了等,,,2015-10-05,1,,,,,エイチエヌティ,0
1260,5010102004629,登記記録の閉鎖等,0,2023-10-25,2023-10-24,有限会社電装,,有限会社,東京都,八王子市,泉町１９１１番地の５９,,13,201,1930814,,,2023-10-24,清算の結了等,,,2015-10-05,1,,,,,デンソウ,0
1265,5010403017230,登記記録の閉鎖等,0,2023-10-25,2023-10-16,Ｎａｚｕｎａ　Ｋｙｏｔｏ　Ｇｏｓｈｏ合同会社,,合同会社,東京都,港区,虎ノ門５丁目１番４号,,13,103,1050001,,,2023-10-16,清算の結了等,,,2017-09-15,1,,,,,ナズナキョウトゴショ,0
1266,5010403021513,登記記録の閉鎖等,0,2023-10-25,2023-10-13,合同会社ｎｏａ．ｈ,,合同会社,東京都,港区,元赤坂１丁目２番７号赤坂Ｋタワー４Ｆ,,13,103,1070051,,,2023-10-13,清算の結了等,,,2019-09-24,1,,,,,ノア,0
1276,5010801017286,登記記録の閉鎖等,0,2023-10-25,2023-10-20,株式会社エル・ワイフーズ,,株式会社,東京都,大田区,東海３丁目７番１号,,13,111,1430001,,,2023-10-20,清算の結了等,,,2015-10-05,1,,,,,エルワイフーズ,0
1281,5011001070191,登記記録の閉鎖等,0,2023-10-25,2023-10-13,株式会社ハライソ,,株式会社,東京都,港区,南青山６丁目６番２２号,,13,103,1070062,,,2023-10-13,清算の結了等,,,2015-10-05,1,,,,,ハライソ,0
1290,5011003012373,登記記録の閉鎖等,0,2023-10-25,2023-10-11,合同会社カワシマ,,合同会社,東京都,渋谷区,円山町２２－１７,,13,113,1500044,,,2023-10-11,清算の結了等,,,2021-03-03,1,,,,,カワシマ,0
1311,5011601019877,登記記録の閉鎖等,0,2023-10-25,2023-10-13,ＶＴＣ　ＪＡＰＡＮ株式会社,,株式会社,東京都,千代田区,神田須田町１丁目５翔和須田町ビル７階,,13,101,1010041,,,2023-10-13,清算の結了等,,,2015-10-05,1,,,,,ブイティーシージャパン,0
1317,5012301007032,登記記録の閉鎖等,0,2023-10-25,2023-10-20,株式会社インデス,,株式会社,東京都,町田市,原町田５丁目３番１０号,,13,209,1940013,,,2023-10-20,合併による解散等,9050001025289,令和５年１０月１日茨城県龍ケ崎市中根台四丁目１０番地１シナネンアクシア株式会社（9050001025289）に合併し解散,2015-10-05,1,,,,,インデス,0
1335,5021003003909,登記記録の閉鎖等,0,2023-10-25,2023-10-19,株式会社Ｖｉｖａｎｔグループ,,株式会社,神奈川県,相模原市中央区,鹿沼台２丁目１９番１３号,,14,152,2520233,,,2023-10-19,合併による解散等,4130001041547,令和５年１０月１日京都府福知山市長田大野下２７３７番地１２株式会社ミストラルサービス（4130001041547）に合併し解散,2015-10-05,1,,,,,ヴィヴァングループ,0
1342,5030001116515,登記記録の閉鎖等,0,2023-10-25,2023-10-02,株式会社タレントアジア,,株式会社,東京都,港区,芝浦１丁目２番３号シーバンスＳ館１３階,,13,103,1050023,,,2023-10-02,合併による解散等,6010001143691,令和５年１０月１日東京都港区芝浦一丁目２番３号シーバンスＳ館１３階株式会社広済堂ビジネスサポート（6010001143691）に合併し解散,2016-09-30,1,,,,,タレントアジア,0
1359,5040001028791,登記記録の閉鎖等,0,2023-10-25,2023-10-11,エフネット株式会社,,株式会社,千葉県,市川市,大野町２丁目６５６番地９,,12,203,2720805,,,2023-10-11,清算の結了等,,,2015-10-05,1,,,,,エフネット,0
1362,5040001119252,登記記録の閉鎖等,0,2023-10-25,2023-10-11,東世商事株式会社,,株式会社,千葉県,市川市,北国分３丁目５番９号,,12,203,2720836,,,2023-10-11,清算の結了等,,,2021-07-12,1,,,,,トウセショウジ,0
1368,5040002011532,登記記録の閉鎖等,0,2023-10-25,2023-10-10,有限会社ムカイツール,,有限会社,千葉県,千葉市若葉区,御成台３丁目１４番地の１５,,12,104,2650077,,,2023-10-10,清算の結了等,,,2015-10-05,1,,,,,ムカイツール,0
1369,5040002017934,登記記録の閉鎖等,0,2023-10-25,2023-10-11,有限会社アーク設計,,有限会社,千葉県,習志野市,実籾４丁目２７番３号,,12,216,2750002,,,2023-10-11,清算の結了等,,,2015-10-05,1,,,,,アークセッケイ,0
1370,5040002034285,登記記録の閉鎖等,0,2023-10-25,2023-10-11,有限会社三美商会,,有限会社,千葉県,市川市,大野町２丁目６５６番地９,,12,203,2720805,,,2023-10-11,清算の結了等,,,2015-10-05,1,,,,,サンビショウカイ,0
1371,5040002043385,登記記録の閉鎖等,0,2023-10-25,2023-10-11,ＭＹＡＮＭＡＲＣＬＯＴＨＥＳ有限会社,,有限会社,千葉県,浦安市,海楽２丁目３２番１１号,,12,227,2790003,,,2023-10-11,清算の結了等,,,2015-10-05,1,,,,,ミャンマークロスイズ,0
1380,5050005001983,登記記録の閉鎖等,0,2023-10-25,2023-10-11,農事組合法人東海村農業者クラブ,,その他の設立登記法人,茨城県,那珂郡東海村,大字白方８４番地,,08,341,3191106,,,2023-10-11,清算の結了等,,,2015-10-05,1,,,,,トウカイムラノウギョウシャクラブ,0
1395,5090005001947,登記記録の閉鎖等,0,2023-10-25,2023-10-19,特定非営利活動法人Ｓｍｉｌｅ住宅安心ネットワーク,,その他の設立登記法人,山梨県,南アルプス市,西南湖４０８７番地,,19,208,4000411,,,2023-10-19,清算の結了等,,,2015-10-05,1,,,,,スマイルジュウタクアンシンネットワーク,0
1404,5120001034963,登記記録の閉鎖等,0,2023-10-25,2023-10-20,株式会社小林軸受商店,,株式会社,大阪府,大阪市福島区,海老江５丁目３番１３号,,27,103,5530001,,,2023-10-20,清算の結了等,,,2015-10-05,1,,,,,コバヤシジクウケショウテン,0
1447,5170001003410,登記記録の閉鎖等,0,2023-10-25,2023-10-23,株式会社山長森本土木,,株式会社,和歌山県,和歌山市,加太１６４４番地,,30,201,6400103,,,2023-10-23,清算の結了等,,,2015-10-05,1,,,,,ヤマチョウモリモトドボク,0
1451,5180001133999,登記記録の閉鎖等,0,2023-10-25,2023-10-02,株式会社ワークナビ一宮,,株式会社,愛知県,一宮市,富士３丁目１番３４号２階,,23,203,4910024,,,2023-10-02,合併による解散等,9180001156567,令和５年１０月１日名古屋市中区栄四丁目１６番３３号日本経済新聞社名古屋支社ビル５階株式会社ワークナビ派遣（9180001156567）に合併し解散　,2018-10-09,1,,,,,ワークナビイチノミヤ,0
1452,5180001134584,登記記録の閉鎖等,0,2023-10-25,2023-10-20,株式会社ＧＬＷ,,株式会社,愛知県,春日井市,篠田町５３番地１,,23,206,4860922,,,2023-10-20,清算の結了等,,,2018-11-30,1,,,,,ジーエルダブリュー,0
1457,5180302013347,登記記録の閉鎖等,0,2023-10-25,2023-10-13,有限会社竹本養豚場,,有限会社,愛知県,豊川市,伊奈町佐脇原３３０番地,,23,207,4410105,,,2023-10-13,清算の結了等,,,2015-10-05,1,,,,,タケモトヨウトンジョウ,0
1464,5190002013349,登記記録の閉鎖等,0,2023-10-25,2023-10-20,有限会社和田商会,,有限会社,三重県,名張市,東田原２６４９番地の２０,,24,208,5180602,,,2023-10-20,清算の結了等,,,2015-10-05,1,,,,,ワダショウカイ,0
1465,5200001025517,登記記録の閉鎖等,0,2023-10-25,2023-10-23,株式会社神岡セラミック,,株式会社,岐阜県,飛騨市,神岡町東雲１１００番地,,21,217,5061147,,,2023-10-23,合併による解散等,7180001144160,令和５年１０月１日愛知県小牧市大字岩崎２８０８番地ＮＴＫカッティングツールズ株式会社（7180001144160）に合併し解散,2015-10-05,1,,,,,カミオカセラミック,0
1469,5210002008593,登記記録の閉鎖等,0,2023-10-25,2023-10-17,有限会社クラモト,,有限会社,福井県,福井市,東森田３丁目１５１４番地,,18,201,9100138,,,2023-10-17,清算の結了等,,,2015-10-05,1,,,,,クラモト,0
1474,5240002010836,登記記録の閉鎖等,0,2023-10-25,2023-10-20,有限会社デンキのハナオカ,,有限会社,広島県,広島市佐伯区,八幡１丁目２番２２号,,34,108,7315116,,,2023-10-20,清算の結了等,,,2015-10-05,1,,,,,デンキノハナオカ,0
1488,5290002036166,登記記録の閉鎖等,0,2023-10-25,2023-10-10,有限会社鹿毛商店,,有限会社,福岡県,糟屋郡志免町,別府東２丁目１０番１号亀山同友会住宅内,,40,343,8112231,,,2023-10-10,清算の結了等,,,2015-10-05,1,,,,,カゲショウテン,0
1489,5290002044103,登記記録の閉鎖等,0,2023-10-25,2023-10-10,有限会社西日本新聞エリアセンター朝倉町,,有限会社,福岡県,朝倉市,比良松６２７番地,,40,228,8381303,,,2023-10-10,清算の結了等,,,2015-10-05,1,,,,,ニシニホンシンブンエリアセンターアサクラマチ,0
1510,5320001003881,登記記録の閉鎖等,0,2023-10-25,2023-10-16,みのり産業株式会社,,株式会社,大分県,大分市,今津留３丁目１５３番地,,44,201,8700938,,,2023-10-16,清算の結了等,,,2015-10-30,1,,,,,ミノリサンギョウ,0
1512,5330002019331,登記記録の閉鎖等,0,2023-10-25,2023-10-16,有限会社友宝開発,,有限会社,熊本県,熊本市北区,植木町岩野３７２５番地の５,,43,105,8610136,,,2023-10-16,清算の結了等,,,2015-10-05,1,,,,,ユウホウカイハツ,0
1524,5370001022893,登記記録の閉鎖等,0,2023-10-25,2023-10-19,株式会社せきのした建設,,株式会社,宮城県,仙台市若林区,蒲町４０番１８号おふぃすＲａｔａｎ１０２,,04,103,9840037,,,2023-10-19,清算の結了等,,,2015-10-05,1,,,,,,0
1545,5460002005293,登記記録の閉鎖等,0,2023-10-25,2023-10-02,有限会社フクテイプランニング,,有限会社,北海道,釧路市,堀川町１番２５号,,01,206,0850007,,,2023-10-02,合併による解散等,6460001003594,令和５年１０月１日北海道釧路市堀川町１番２５号株式会社ふく亭（6460001003594）に合併し解散,2015-10-05,1,,,,,フクテイプランニング,0
1546,5480001006266,登記記録の閉鎖等,0,2023-10-25,2023-10-19,株式会社ＮＯＮＶＥＲＢＡＬ　ＣＯＭＭＵＮＩＣＡＴＩＯＮ,,株式会社,徳島県,徳島市,南田宮１丁目６番２５号,,36,201,7700004,,,2023-10-19,清算の結了等,,,2015-10-05,1,,,,,ノンバーバルコミュニケーション,0
1560,6010001095909,登記記録の閉鎖等,0,2023-10-25,2023-10-10,クリエイトプラスチック株式会社,,株式会社,千葉県,印西市,滝野２丁目６番２０号,,12,231,2702329,,,2023-10-10,清算の結了等,,,2015-10-05,1,,,,,クリエイトプラスチック,0
1561,6010001113637,登記記録の閉鎖等,0,2023-10-25,2023-10-13,株式会社ゼロ建築都市研究所,,株式会社,東京都,千代田区,神田錦町３丁目２１番地,,13,101,1010054,,,2023-10-13,清算の結了等,,,2015-10-05,1,,,,,ゼロケンチクトシケンキュウショ,0
1576,6010003034591,登記記録の閉鎖等,0,2023-10-25,2023-10-13,イプシロン合同会社,,合同会社,東京都,千代田区,丸の内３丁目１番１号東京共同会計事務所内,,13,101,1000005,,,2023-10-13,清算の結了等,,,2021-04-07,1,,,,,イプシロン,0
1577,6010003034757,登記記録の閉鎖等,0,2023-10-25,2023-10-13,イータＭＬ合同会社,,合同会社,東京都,千代田区,丸の内３丁目１番１号東京共同会計事務所内,,13,101,1000005,,,2023-10-13,清算の結了等,,,2021-05-06,1,,,,,イータエムエル,0
1580,6010401059315,登記記録の閉鎖等,0,2023-10-25,2023-10-13,株式会社ＰＨＳ,,株式会社,東京都,千代田区,内神田１丁目９番１２号,,13,101,1010047,,,2023-10-13,清算の結了等,,,2015-10-05,1,,,,,ピーエイチエス,0
1586,6010401157309,登記記録の閉鎖等,0,2023-10-25,2023-10-16,株式会社ウォールオブデス,,株式会社,東京都,世田谷区,代田２丁目２－１１－２０５,,13,112,1550033,,,2023-10-16,清算の結了等,,,2020-12-28,1,,,,,ウォールオブデス,0
1618,6011203000144,登記記録の閉鎖等,0,2023-10-25,2023-10-18,野中合名会社,,合名会社,東京都,中野区,本町６丁目２５番１号,,13,114,1640012,,,2023-10-18,清算の結了等,,,2015-10-05,1,,,,,ノナカ,0
1622,6011602002170,登記記録の閉鎖等,0,2023-10-25,2023-10-23,有限会社岡田設備冷熱工業,,有限会社,東京都,練馬区,高松６丁目３６番７号,,13,120,1790075,,,2023-10-23,清算の結了等,,,2015-10-05,1,,,,,,0
1643,6021002039804,登記記録の閉鎖等,0,2023-10-25,2023-10-17,有限会社愛装,,有限会社,神奈川県,大和市,中央７丁目６番１２号,,14,213,2420021,,,2023-10-17,清算の結了等,,,2015-10-05,1,,,,,アイソウ,0
1644,6021002050637,登記記録の閉鎖等,0,2023-10-25,2023-10-19,有限会社牧智商店,,有限会社,神奈川県,足柄下郡箱根町,仙石原９２８番地１,,14,382,2500631,,,2023-10-19,清算の結了等,,,2015-10-05,1,,,,,マキトモショウテン,0
1650,6030001079926,登記記録の閉鎖等,0,2023-10-25,2023-10-11,株式会社ＴＡＮＡＫＡ,,株式会社,埼玉県,川口市,末広１丁目１０番１７号,,11,203,3320006,,,2023-10-11,清算の結了等,,,2015-10-05,1,,,,,タナカ,0
1660,6040001027561,登記記録の閉鎖等,0,2023-10-25,2023-10-11,株式会社堀之内造園,,株式会社,千葉県,市川市,国分７丁目９番１９号,,12,203,2720834,,,2023-10-11,清算の結了等,,,2015-10-05,1,,,,,ホリノウチゾウエン,0
1679,6080102008011,登記記録の閉鎖等,0,2023-10-25,2023-10-13,有限会社いすゞ荘,,有限会社,静岡県,伊豆市,修善寺３４４８番地１,,22,222,4102416,,,2023-10-13,清算の結了等,,,2023-08-21,1,,,,,イスズソウ,0
1682,6100003004957,登記記録の閉鎖等,0,2023-10-25,2023-10-13,合同会社きりの実ダイニング,,合同会社,長野県,駒ヶ根市,東伊那５７８番地４,,20,210,3994321,,,2023-10-13,清算の結了等,,,2018-04-12,1,,,,,キリノミダイニング,0
1683,6100005005532,登記記録の閉鎖等,0,2023-10-25,2023-10-16,農事組合法人コスモラビットファーム,,その他の設立登記法人,長野県,中野市,大字間長瀬３５９番地３,,20,211,3830063,,,2023-10-16,清算の結了等,,,2015-10-05,1,,,,,コスモラビットファーム,0
1684,6100005012264,登記記録の閉鎖等,0,2023-10-25,2023-10-17,一般社団法人ＳＯＲＡへのかけはし,,その他の設立登記法人,長野県,上田市,常田３丁目１５番１号ＡＲＥＣ内,,20,203,3860018,,,2023-10-17,清算の結了等,,,2018-07-17,1,,,,,ソラヘノカケハシ,0
1687,6120001026241,登記記録の閉鎖等,0,2023-10-25,2023-10-18,関西補修工業株式会社,,株式会社,大阪府,大阪市此花区,春日出北１丁目１２番１１号,,27,104,5540021,,,2023-10-18,清算の結了等,,,2015-10-05,1,,,,,カンサイホシュウコウギョウ,0
1705,6120101006647,登記記録の閉鎖等,0,2023-10-25,2023-10-03,エムチューブ株式会社,,株式会社,和歌山県,橋本市,紀ノ光台３丁目３番１号,,30,203,6480007,,,2023-10-03,合併による解散等,2120101031979,令和５年１０月１日大阪府羽曳野市広瀬１５２番地関西伸銅工業株式会社（2120101031979）に合併し解散,2015-10-05,1,,,,,エムチューブ,0
1723,6140001079592,登記記録の閉鎖等,0,2023-10-25,2023-10-10,株式会社パルティ川西,,株式会社,兵庫県,川西市,栄町１０番５－２０９号,,28,217,6660033,,,2023-10-10,合併による解散等,3140001079265,令和５年１０月１日兵庫県川西市栄町２５番１号川西都市開発株式会社（3140001079265）に合併し解散,2015-10-05,1,,,,,パルティカワニシ,0
1737,6180001016245,登記記録の閉鎖等,0,2023-10-25,2023-10-16,エム・エス商事株式会社,,株式会社,愛知県,名古屋市東区,新出来２丁目１番８号,,23,102,4610038,,,2023-10-16,清算の結了等,,,2015-10-05,1,,,,,エムエスショウジ,0
1742,6180001137207,登記記録の閉鎖等,0,2023-10-25,2023-10-23,株式会社ヤモリコーポレーション,,株式会社,愛知県,名古屋市南区,明円町１２１番地１パルク明円１０２号,,23,112,4570022,,,2023-10-23,清算の結了等,,,2019-07-10,1,,,,,ヤモリコーポレーション,0
1751,6180302001805,登記記録の閉鎖等,0,2023-10-25,2023-10-12,有限会社高橋建材,,有限会社,愛知県,岡崎市,中村町字屋敷１５番地の２,,23,202,4440215,,,2023-10-12,清算の結了等,,,2015-10-05,1,,,,,タカハシケンザイ,0
1752,6180302012232,登記記録の閉鎖等,0,2023-10-25,2023-10-12,有限会社大弘電機,,有限会社,愛知県,豊橋市,野田町字野田１３０番地２,,23,201,4418001,,,2023-10-12,清算の結了等,,,2015-10-05,1,,,,,ダイコウデンキ,0
1758,6190002022217,登記記録の閉鎖等,0,2023-10-25,2023-10-20,有限会社ミカビューテイーサロン,,有限会社,三重県,四日市市,西浦１丁目８番２１号,,24,202,5100071,,,2023-10-20,清算の結了等,,,2015-10-05,1,,,,,ミカビューテイーサロン,0
1759,6200002028071,登記記録の閉鎖等,0,2023-10-25,2023-10-23,有限会社伊藤電建,,有限会社,岐阜県,郡上市,八幡町小野２丁目８番地の２９,,21,219,5014221,,,2023-10-23,清算の結了等,,,2015-10-05,1,,,,,イトウデンケン,0
1760,6210001012199,登記記録の閉鎖等,0,2023-10-25,2023-10-18,ニツセン工業株式会社,,株式会社,福井県,越前市,新在家町９号８番地,,18,209,9150232,,,2023-10-18,清算の結了等,,,2015-10-05,1,,,,,,0
1764,6230001016982,登記記録の閉鎖等,0,2023-10-25,2023-10-23,株式会社ＳＫ工業,,株式会社,富山県,高岡市,瑞穂町１７番５２号,,16,202,9330955,,,2023-10-23,清算の結了等,,,2017-05-22,1,,,,,エスケーコウギョウ,0
1775,6250002018852,登記記録の閉鎖等,0,2023-10-25,2023-10-24,有限会社岸田石油店,,有限会社,山口県,岩国市,錦町広瀬７９０９番地の１,,35,208,7400724,,,2023-10-24,清算の結了等,,,2015-10-05,1,,,,,キシダセキユテン,0
1813,6380002025919,登記記録の閉鎖等,0,2023-10-25,2023-10-18,有限会社芳志,,有限会社,福島県,いわき市,錦町大島１２番地の８,,07,204,9748232,,,2023-10-18,清算の結了等,,,2015-10-05,1,,,,,ホウシ,0
1835,6430005006150,登記記録の閉鎖等,0,2023-10-25,2023-10-11,特定非営利活動法人工房恵庭運営委員会,,その他の設立登記法人,北海道,恵庭市,桜町３丁目１－１０,,01,231,0611416,,,2023-10-11,清算の結了等,,,2015-10-05,1,,,,,コウボウエニワウンエイイインカイ,0
1838,6460001003768,登記記録の閉鎖等,0,2023-10-25,2023-10-02,株式会社エフジェイピー,,株式会社,北海道,釧路市,堀川町１番２５号,,01,206,0850007,,,2023-10-02,合併による解散等,4460002003604,令和５年１０月１日北海道釧路市堀川町１番２５株式会社とと魯（4460002003604）に合併し解散,2015-10-05,1,,,,,エフジェイピー,0
1839,6460102002834,登記記録の閉鎖等,0,2023-10-25,2023-10-23,有限会社フイツシング帯広,,有限会社,北海道,帯広市,西十条南８丁目３番地２３,,01,207,0800020,,,2023-10-23,清算の結了等,,,2015-10-05,1,,,,,フイツシングオビヒロ,0
1843,6500001002030,登記記録の閉鎖等,0,2023-10-25,2023-10-03,株式会社シード,,株式会社,愛媛県,松山市,土居田町８番地２,,38,201,7900056,,,2023-10-03,合併による解散等,7160001002114,令和５年１０月１日滋賀県大津市高砂町２２番１１号株式会社リフレ（7160001002114）に合併し解散,2015-10-05,1,,,,,シード,0
1845,6500005002844,登記記録の閉鎖等,0,2023-10-25,2023-10-02,長泉寺,,その他の設立登記法人,愛媛県,喜多郡内子町,川中２０３番地,,38,422,7913321,,,2023-10-02,合併による解散等,9500005002858,令和５年１０月２日愛媛県喜多郡内子町立山１４４８番地福成寺（9500005002858）に合併し解散,2015-10-05,1,,,,,チョウセンジ,0
1862,7010003027074,登記記録の閉鎖等,0,2023-10-25,2023-10-13,ケイラインネクストセンチュリー合同会社,,合同会社,東京都,千代田区,内幸町２丁目１番１号,,13,101,1000011,,,2023-10-13,清算の結了等,,,2018-03-05,1,,,,,ケイラインネクストセンチュリー,0
1863,7010003034590,登記記録の閉鎖等,0,2023-10-25,2023-10-13,イータ合同会社,,合同会社,東京都,千代田区,丸の内３丁目１番１号東京共同会計事務所内,,13,101,1000005,,,2023-10-13,清算の結了等,,,2021-04-07,1,,,,,イータ,0
1870,7010401169146,登記記録の閉鎖等,0,2023-10-25,2023-10-16,Ｌｕｎａｌｏｇ株式会社,,株式会社,東京都,港区,浜松町２丁目２－１５浜松町ダイヤビル２Ｆ,,13,103,1050013,,,2023-10-16,清算の結了等,,,2022-08-26,1,,,,,ルナログ,0
1871,7010401176134,登記記録の閉鎖等,0,2023-10-25,2023-10-03,株式会社リズム・エース,,株式会社,東京都,港区,新橋１丁目５番１号,,13,103,1050004,,,2023-10-03,清算の結了等,,,2023-08-09,1,,,,,リズムエース,0
1874,7010403014597,登記記録の閉鎖等,0,2023-10-25,2023-10-13,ＯＫＪ合同会社,,合同会社,東京都,港区,虎ノ門３丁目２２番１０－２０１号,,13,103,1050001,,,2023-10-13,清算の結了等,,,2016-03-22,1,,,,,オーケイジェイ,0
1882,7010703001915,登記記録の閉鎖等,0,2023-10-25,2023-10-12,株式会社ラムダファクトリー,,株式会社,埼玉県,川口市,金山町１２番１号,,11,203,3320014,,,2023-10-12,清算の結了等,,,2015-10-05,1,,,,,ラムダファクトリー,0
1890,7011001037998,登記記録の閉鎖等,0,2023-10-25,2023-10-20,株式会社東京ベイ舞浜ホテル,,株式会社,千葉県,浦安市,舞浜１番地の３４,,12,227,2790031,,,2023-10-20,合併による解散等,1010501033785,令和５年１０月１日東京都中央区日本橋小舟町１３番８号ヒューリックホテルマネジメント株式会社（1010501033785）に合併し解散,2015-10-05,1,,,,,トウキョウベイマイハマホテル,0
1927,7020005000177,登記記録の閉鎖等,0,2023-10-25,2023-10-02,宗教法人天理教東横濱分教会,,その他の設立登記法人,神奈川県,横浜市南区,堀ノ内町１丁目１１番地の７,,14,105,2320042,,,2023-10-02,合併による解散等,4080105001626,令和５年９月２８日静岡県伊豆の国市大仁２３０番地天理教北豆分教会（4080105001626）に合併し解散,2015-10-05,1,,,,,テンリキョウヒガシヨコハマブンキョウカイ,0
1936,7030001055224,登記記録の閉鎖等,0,2023-10-25,2023-10-12,株式会社グリーン・エコロジー,,株式会社,埼玉県,川越市,大字小仙波９２７番地２,,11,201,3500031,,,2023-10-12,清算の結了等,,,2015-10-05,1,,,,,グリーンエコロジー,0
1939,7030001117437,登記記録の閉鎖等,0,2023-10-25,2023-10-20,共伸物流株式会社,,株式会社,東京都,足立区,伊興３丁目２１番１７号アレーズ２０９,,13,121,1210823,,,2023-10-20,清算の結了等,,,2016-11-30,1,,,,,キョウシンブツリュウ,0
1952,7040002033335,登記記録の閉鎖等,0,2023-10-25,2023-10-11,有限会社加藤畳店,,有限会社,千葉県,市川市,南八幡４丁目４番２５号,,12,203,2720023,,,2023-10-11,清算の結了等,,,2015-10-05,1,,,,,カトウタタミテン,0
1958,7060001021909,登記記録の閉鎖等,0,2023-10-25,2023-10-20,株式会社ガゼル,,株式会社,栃木県,日光市,所野２８３５番地４,,09,206,3211421,,,2023-10-20,清算の結了等,,,2015-10-05,1,,,,,ガゼル,0
1969,7080002013820,登記記録の閉鎖等,0,2023-10-25,2023-10-23,有限会社中野タイル店,,有限会社,静岡県,島田市,元島田９２５７番地の４,,22,209,4270057,,,2023-10-23,清算の結了等,,,2015-10-05,1,,,,,ナカノタイルテン,0
1971,7080102002293,登記記録の閉鎖等,0,2023-10-25,2023-10-24,有限会社中央ガレージ,,有限会社,静岡県,沼津市,添地町２０１番地,,22,203,4100803,,,2023-10-24,清算の結了等,,,2015-10-05,1,,,,,チュウオウガレージ,0
1977,7110003001580,登記記録の閉鎖等,0,2023-10-25,2023-10-23,合同会社インデックス,,合同会社,新潟県,上越市,春日山町１丁目２４番４４号,,15,222,9430807,,,2023-10-23,清算の結了等,,,2015-10-05,1,,,,,インデックス,0
1997,7120105004695,登記記録の閉鎖等,0,2023-10-25,2023-10-23,農事組合法人河南西部農事組合,,その他の設立登記法人,大阪府,南河内郡河南町,大字白木１４０１番地,,27,382,5850014,,,2023-10-23,清算の結了等,,,2015-10-05,1,,,,,カナンセイブノウジクミアイ,0
2006,7130001046519,登記記録の閉鎖等,0,2023-10-25,2023-10-10,株式会社アスクレピオン,,株式会社,京都府,京都市中京区,三条通西洞院西入塩屋町５３番地オリザ三条西洞院３０１号,,26,104,6048247,,,2023-10-10,清算の結了等,,,2015-10-05,1,,,,,アスクレピオン,0
2010,7130002030430,登記記録の閉鎖等,0,2023-10-25,2023-10-06,有限会社ニット工房ナガカワ,,有限会社,京都府,八幡市,八幡山田１１番地１,,26,210,6148051,,,2023-10-06,清算の結了等,,,2015-10-05,1,,,,,ニットコウボウナガカワ,0
2020,7140002009969,登記記録の閉鎖等,0,2023-10-25,2023-10-18,有限会社三喜屋,,有限会社,兵庫県,神戸市北区,鈴蘭台西町３丁目１０番１６号,,28,109,6511114,,,2023-10-18,清算の結了等,,,2015-10-05,1,,,,,,0
2027,7170001007244,登記記録の閉鎖等,0,2023-10-25,2023-10-23,吉井コンクリート産業株式会社,,株式会社,和歌山県,有田郡有田川町,大字庄６１８番地の２,,30,366,6430811,,,2023-10-23,清算の結了等,,,2015-10-05,1,,,,,ヨシイコンクリートサンギョウ,0
2028,7170001010074,登記記録の閉鎖等,0,2023-10-25,2023-10-23,株式会社嶋造船所,,株式会社,和歌山県,御坊市,塩屋町南塩屋４５０番地２３,,30,205,6440024,,,2023-10-23,清算の結了等,,,2015-10-05,1,,,,,シマゾウセンショ,0
2031,7180001026747,登記記録の閉鎖等,0,2023-10-25,2023-10-20,株式会社白洋産業,,株式会社,愛知県,名古屋市西区,木前町２２番地,,23,104,4520834,,,2023-10-20,清算の結了等,,,2015-10-05,1,,,,,ハクヨウサンギョウ,0
2032,7180001066784,登記記録の閉鎖等,0,2023-10-25,2023-10-23,河合建設株式会社,,株式会社,愛知県,日進市,赤池３丁目１００７番地,,23,230,4700125,,,2023-10-23,清算の結了等,,,2015-10-05,1,,,,,カワイケンセツ,0
2034,7180001128857,登記記録の閉鎖等,0,2023-10-25,2023-10-02,株式会社ワークナビ熱田,,株式会社,愛知県,名古屋市港区,東海通３丁目２１番１号アマーレ東海通１階,,23,111,4550002,,,2023-10-02,合併による解散等,9180001156567,令和５年１０月１日名古屋市中区栄四丁目１６番３３号日本経済新聞社名古屋支社ビル５階株式会社ワークナビ派遣（9180001156567）に合併し解散　,2017-08-03,1,,,,,ワークナビアツタ,0
2041,7180305004960,登記記録の閉鎖等,0,2023-10-25,2023-10-13,医療法人そうだこどもクリニック,,その他の設立登記法人,愛知県,刈谷市,東刈谷町２丁目１３番地１８,,23,210,4480807,,,2023-10-13,清算の結了等,,,2015-10-05,1,,,,,ソウダコドモクリニック,0
2049,7220002004557,登記記録の閉鎖等,0,2023-10-25,2023-10-20,有限会社ノムラ,,有限会社,石川県,金沢市,諸江町中丁１４７番地１,,17,201,9200016,,,2023-10-20,清算の結了等,,,2015-10-05,1,,,,,ノムラ,0
2052,7240002032705,登記記録の閉鎖等,0,2023-10-25,2023-10-20,有限会社呉ボーシ,,有限会社,広島県,呉市,本通３丁目６番７号,,34,202,7370045,,,2023-10-20,清算の結了等,,,2015-10-05,1,,,,,クレボーシ,0
2058,7260001033685,登記記録の閉鎖等,0,2023-10-25,2023-10-23,株式会社藤運社,,株式会社,岡山県,浅口市,寄島町１２５３番地７,,33,216,7140101,,,2023-10-23,清算の結了等,,,2019-11-07,1,,,,,フジウンシャ,0
2066,7290002026479,登記記録の閉鎖等,0,2023-10-25,2023-10-10,有限会社マザー薬品,,有限会社,福岡県,福岡市博多区,住吉５丁目２番１３号旭西ビル２０２号,,40,132,8120018,,,2023-10-10,清算の結了等,,,2015-10-05,1,,,,,,0
2069,7290005000571,登記記録の閉鎖等,0,2023-10-25,2023-08-22,扶桑教港町教会,00093793,その他の設立登記法人,福岡県,福岡市中央区,荒戸１丁目４番１７号,,40,133,8100062,,,2023-08-22,合併による解散等,1290005007630,令和５年８月２２日福岡県嘉穂郡桂川町土居１２８３－６扶桑教惟神高大社（1290005007630）に合併し解散,2015-10-05,1,,,,,フソウキョウミナトチョウキョウカイ,0
2089,7370002017973,登記記録の閉鎖等,0,2023-10-25,2023-10-17,有限会社オフィス・パープルアイ,,有限会社,宮城県,仙台市太白区,砂押南町４番２３号,,04,104,9820024,,,2023-10-17,清算の結了等,,,2015-10-05,1,,,,,オフィスパープルアイ,0
2097,7380005010140,登記記録の閉鎖等,0,2023-10-25,2023-10-17,特定非営利活動法人あいづ関山倶楽部,,その他の設立登記法人,福島県,大沼郡会津美里町,氷玉字関山甲１１０４番地,,07,447,9696143,,,2023-10-17,清算の結了等,,,2015-10-05,1,,,,,アイヅセキヤマクラブ,0
2098,7390001009953,登記記録の閉鎖等,0,2023-10-25,2023-10-02,株式会社大丸石油店,,株式会社,山形県,米沢市,中央１丁目７番３０号,,06,202,9920045,,,2023-10-02,合併による解散等,5390001013718,令和５年１０月１日山形県米沢市成島町三丁目２７８０番地の５エムツーホールディングス株式会社（5390001013718）に合併し解散,2015-10-05,1,,,,,,0
2113,7462501000590,登記記録の閉鎖等,0,2023-10-25,2023-10-20,マルケイおおすみ水産株式会社,,株式会社,北海道,野付郡別海町,尾岱沼港町９５番地,,01,691,0861643,,,2023-10-20,清算の結了等,,,2015-10-05,1,,,,,,0
2123,8010001041729,登記記録の閉鎖等,0,2023-10-25,2023-10-18,桐村産業株式会社,,株式会社,東京都,墨田区,千歳３丁目３番１６号,,13,107,1300025,,,2023-10-18,清算の結了等,,,2015-10-05,1,,,,,キリムラサンギョウ,0
2133,8010003034045,登記記録の閉鎖等,0,2023-10-25,2023-10-12,合同会社もみぢ,,合同会社,東京都,中央区,日本橋１丁目４番１号,,13,102,1030027,,,2023-10-12,清算の結了等,,,2021-01-29,1,,,,,モミヂ,0
2140,8010102007190,登記記録の閉鎖等,0,2023-10-25,2023-10-23,有限会社ユーブレイン,,有限会社,山梨県,大月市,猿橋町藤崎２７３番地１９,,19,206,4090612,,,2023-10-23,清算の結了等,,,2015-10-05,1,,,,,ユーブレイン,0
2167,8011001065560,登記記録の閉鎖等,0,2023-10-25,2023-10-17,株式会社ＮＯＢＬＥ,,株式会社,東京都,渋谷区,渋谷３丁目６番２０号６Ｆ,,13,113,1500002,,,2023-10-17,清算の結了等,,,2015-10-05,1,,,,,ノーブル,0
2169,8011001093009,登記記録の閉鎖等,0,2023-10-25,2023-10-13,株式会社ＮｏｖｅｌＦｏｒｃｅ,,株式会社,東京都,港区,南青山２丁目１５番６号,,13,103,1070062,,,2023-10-13,清算の結了等,,,2015-10-05,1,,,,,ノベルフォース,0
2195,8011802019979,登記記録の閉鎖等,0,2023-10-25,2023-10-20,有限会社遊機通商,,有限会社,東京都,足立区,神明南２丁目３番１８号フォーラム北綾瀬２０４号,,13,121,1210057,,,2023-10-20,清算の結了等,,,2015-10-05,1,,,,,,0
2197,8012401018686,登記記録の閉鎖等,0,2023-10-25,2023-10-19,株式会社ＡＲＯ,,株式会社,東京都,武蔵野市,西久保１丁目６番２２号,,13,203,1800013,,,2023-10-19,清算の結了等,,,2015-10-05,1,,,,,アロ,0
2201,8012702012801,登記記録の閉鎖等,0,2023-10-25,2023-10-19,さくらトランス有限会社,,有限会社,東京都,西東京市,北原町１丁目３０番２号,,13,229,1880003,,,2023-10-19,清算の結了等,,,2015-10-05,1,,,,,サクラトランス,0
2205,8020001108510,登記記録の閉鎖等,0,2023-10-25,2023-09-29,ＧＲＥＧＯ国際協力株式会社,,株式会社,神奈川県,川崎市宮前区,鷺沼３丁目１２番地２８,,14,136,2160004,,,2023-09-29,清算の結了等,,,2015-10-05,1,,,,,グレゴコクサイキョウリョク,0
2219,8030001044317,登記記録の閉鎖等,0,2023-10-25,2023-10-10,株式会社ヒューマニティ,,株式会社,埼玉県,北足立郡伊奈町,中央２丁目１８９番地,,11,301,3620809,,,2023-10-10,清算の結了等,,,2015-10-05,1,,,,,ヒューマニティ,0
2228,8040001000649,登記記録の閉鎖等,0,2023-10-25,2023-10-11,市原設備工業株式会社,,株式会社,千葉県,千葉市花見川区,幕張町１丁目１２９３番地,,12,102,2620032,,,2023-10-11,清算の結了等,,,2015-10-05,1,,,,,イチハラセツビコウギョウ,0
2249,8070002012896,登記記録の閉鎖等,0,2023-10-25,2023-10-16,有限会社パルビット研究所,,有限会社,群馬県,高崎市,片岡町３丁目８番７号,,10,202,3700862,,,2023-10-16,清算の結了等,,,2015-10-05,1,,,,,パルビットケンキュウショ,0
2250,8080001012847,登記記録の閉鎖等,0,2023-10-25,2023-10-11,ＩＵＭＩアパレル株式会社,,株式会社,静岡県,静岡市駿河区,丸子３２３８番地の２,,22,102,4210103,,,2023-10-11,清算の結了等,,,2015-10-05,1,,,,,イウミアパレル,0
2258,8120001166366,登記記録の閉鎖等,0,2023-10-25,2023-10-16,アイシンク株式会社,,株式会社,大阪府,大阪市中央区,南船場３丁目７番２７号－７Ｆ,,27,128,5420081,,,2023-10-16,清算の結了等,,,2015-10-05,1,,,,,,0
2315,8180001082335,登記記録の閉鎖等,0,2023-10-25,2023-10-20,尾関商亊株式会社,,株式会社,愛知県,一宮市,北園通１丁目２１番地,,23,203,4910854,,,2023-10-20,清算の結了等,,,2015-10-05,1,,,,,オゼキショウジ,0
2316,8180001090131,登記記録の閉鎖等,0,2023-10-25,2023-10-20,株式会社アドヤ,,株式会社,愛知県,名古屋市中区,丸の内１丁目１０番１９号,,23,106,4600002,,,2023-10-20,清算の結了等,,,2015-10-05,1,,,,,アドヤ,0
2329,8180301019953,登記記録の閉鎖等,0,2023-10-25,2023-10-16,株式会社アサイ,,株式会社,愛知県,豊田市,足助町宮平１番地,,23,211,4442424,,,2023-10-16,清算の結了等,,,2015-10-05,1,,,,,アサイ,0
2345,8220001018805,登記記録の閉鎖等,0,2023-10-25,2023-10-23,株式会社マスト,,株式会社,石川県,金沢市,高柳町１３の１番地１９（プレミア東金沢駅前・１００２号）,,17,201,9200005,,,2023-10-23,清算の結了等,,,2015-10-05,1,,,,,マスト,0
2346,8220001021156,登記記録の閉鎖等,0,2023-10-25,2023-10-18,株式会社Ｈｏｎｅｓｔ　ｓｔｙｌｅ,,株式会社,石川県,金沢市,片町２丁目１０番３３号,,17,201,9200981,,,2023-10-18,清算の結了等,,,2016-08-03,1,,,,,オネストスタイル,0
2354,8270001003389,登記記録の閉鎖等,0,2023-10-25,2023-10-19,株式会社米子魚市場,,株式会社,鳥取県,米子市,旗ヶ崎２１０２番地,,31,202,6830845,,,2023-10-19,清算の結了等,,,2015-10-05,1,,,,,ヨナゴウオイチバ,0
2355,8270002001739,登記記録の閉鎖等,0,2023-10-25,2023-10-23,有限会社ハウジン濱,,有限会社,鳥取県,鳥取市,浜坂１丁目１番１７号,,31,201,6800001,,,2023-10-23,清算の結了等,,,2015-10-05,1,,,,,ハウジンハマ,0
2356,8290001021034,登記記録の閉鎖等,0,2023-10-25,2023-10-10,弘法建設株式会社,,株式会社,福岡県,福岡市南区,三宅１丁目１５番３６号,,40,134,8111344,,,2023-10-10,清算の結了等,,,2015-10-05,1,,,,,コウホウケンセツ,0
2359,8290002003080,登記記録の閉鎖等,0,2023-10-25,2023-10-10,日東商事有限会社,,有限会社,福岡県,福岡市南区,高宮２丁目２２番８－５０２号,,40,134,8150083,,,2023-10-10,清算の結了等,,,2015-10-05,1,,,,,ニットウショウジ,0
2364,8310001004663,登記記録の閉鎖等,0,2023-10-25,2023-10-24,株式会社マーヤ,,株式会社,長崎県,長崎市,京泊１丁目１番１８号,,42,201,8512211,,,2023-10-24,清算の結了等,,,2015-10-05,1,,,,,マーヤ,0
2369,8330001029766,登記記録の閉鎖等,0,2023-10-25,2023-10-17,グリット・カートレーディング株式会社,,株式会社,熊本県,熊本市中央区,下通１丁目３－８下通ＮＳビル６Ｆ,,43,101,8600807,,,2023-10-17,清算の結了等,,,2022-05-27,1,,,,,グリットカートレーディング,0
2374,8340001005543,登記記録の閉鎖等,0,2023-10-25,2023-10-12,株式会社有園,,株式会社,鹿児島県,日置市,吹上町湯之浦１１９４番地４,,46,216,8993303,,,2023-10-12,清算の結了等,,,2023-09-11,1,,,,,ユウエン,0
2383,8400002003515,登記記録の閉鎖等,0,2023-10-25,2023-10-11,有限会社やまなみ,,有限会社,岩手県,滝沢市,大釜外館１１４番地２,,03,216,0200762,,,2023-10-11,清算の結了等,,,2015-10-05,1,,,,,ヤマナミ,0
2390,8430002061972,登記記録の閉鎖等,0,2023-10-25,2023-10-06,有限会社我妻農場,,有限会社,北海道,新冠郡新冠町,字若園９７番地,,01,604,0592421,,,2023-10-06,清算の結了等,,,2015-10-05,1,,,,,ワガツマノウジョウ,0
2397,8480001001462,登記記録の閉鎖等,0,2023-10-25,2023-10-02,株式会社八興,,株式会社,徳島県,徳島市,金沢１丁目３番３号,,36,201,7700871,,,2023-10-02,合併による解散等,3480002003727,令和５年９月３０日徳島市新町橋一丁目３２番地八興商事株式会社（3480002003727）に合併し解散,2015-10-05,1,,,,,ハッコウ,0
2412,9010001141676,登記記録の閉鎖等,0,2023-10-25,2023-10-12,キャリア・ネットワーク株式会社,,株式会社,東京都,千代田区,飯田橋４丁目９番５号,,13,101,1020072,,,2023-10-12,清算の結了等,,,2015-10-05,1,,,,,キャリアネットワーク,0
2425,9010401147315,登記記録の閉鎖等,0,2023-10-25,2023-10-13,サンシティグループホールディングスジャパン株式会社,,株式会社,東京都,港区,六本木１丁目６番１号,,13,103,1060032,,,2023-10-13,清算の結了等,,,2019-08-08,1,,,,,サンシティグループホールディングスジャパン,0
2435,9010602015898,登記記録の閉鎖等,0,2023-10-25,2023-10-18,有限会社トモヱ工芸社,,有限会社,東京都,墨田区,立花１丁目５番８号,,13,107,1310043,,,2023-10-18,清算の結了等,,,2015-10-05,1,,,,,トモエコウゲイシャ,0
2443,9010901014007,登記記録の閉鎖等,0,2023-10-25,2023-10-20,株式会社ニューズフロント,,株式会社,東京都,世田谷区,弦巻３丁目１３番１０－２０５号,,13,112,1540016,,,2023-10-20,合併による解散等,8011301001208,令和５年１０月１日東京都江東区有明三丁目７番１１号有明パークビル２０Ｆ株式会社エミック（8011301001208）に合併し解散,2015-10-05,1,,,,,ニューズフロント,0
2452,9011001028822,登記記録の閉鎖等,0,2023-10-25,2023-10-20,株式会社レインボー・ジャパン,,株式会社,東京都,渋谷区,恵比寿１丁目３番１号,,13,113,1500013,,,2023-10-20,合併による解散等,4010401001245,令和５年１０月１日東京都港区海岸一丁目２番２０号株式会社プロネクサス（4010401001245）に合併し解散,2015-10-05,1,,,,,レインボージャパン,0
2461,9011102002453,登記記録の閉鎖等,0,2023-10-25,2023-10-23,有限会社王蘭,,有限会社,東京都,新宿区,四谷１丁目１８番地,,13,104,1600004,,,2023-10-23,清算の結了等,,,2015-10-05,1,,,,,,0
2473,9011301022946,登記記録の閉鎖等,0,2023-10-25,2023-10-16,グロービート株式会社,,株式会社,東京都,杉並区,上荻１丁目１４番５号,,13,115,1670043,,,2023-10-16,合併による解散等,8011301001562,令和５年１０月１日東京都杉並区上荻一丁目１４番５号グロービート・ジャパン株式会社（8011301001562）に合併し解散,2017-02-23,1,,,,,グロービート,0
2486,9011701021985,登記記録の閉鎖等,0,2023-10-25,2023-10-10,ＪＳＴＨ株式会社,,株式会社,埼玉県,川口市,飯塚２丁目３－３,,11,203,3320023,,,2023-10-10,清算の結了等,,,2018-08-10,1,,,,,ジェイエスティーエイチ,0
2487,9011801017009,登記記録の閉鎖等,0,2023-10-25,2023-10-20,電材商事株式会社,,株式会社,東京都,足立区,入谷４丁目１０番７号,,13,121,1210836,,,2023-10-20,清算の結了等,,,2015-10-05,1,,,,,デンザイショウジ,0
2496,9012802000250,登記記録の閉鎖等,0,2023-10-25,2023-10-16,有限会社イノウエコーポレーション,,有限会社,東京都,立川市,高松町１丁目５番２号,,13,202,1900011,,,2023-10-16,清算の結了等,,,2015-10-05,1,,,,,イノウエコーポレーション,0
2505,9020002020861,登記記録の閉鎖等,0,2023-10-25,2023-10-12,有限会社小県印刷所,,有限会社,神奈川県,横浜市旭区,上川井町３５７番地１,,14,112,2410802,,,2023-10-12,清算の結了等,,,2015-10-05,1,,,,,オガタインサツジョ,0
2524,9030002117839,登記記録の閉鎖等,0,2023-10-25,2023-10-06,有限会社シンワ電機,,有限会社,埼玉県,行田市,大字堤根１０８２番地２,,11,206,3610035,,,2023-10-06,清算の結了等,,,2015-10-05,1,,,,,シンワデンキ,0
2554,9120001017799,登記記録の閉鎖等,0,2023-10-25,2023-10-23,瑞晃金属株式会社,,株式会社,大阪府,大阪市生野区,巽東４丁目９番１７号,00131208,27,116,5440014,,,2023-10-23,清算の結了等,,,2023-07-31,1,,,,,ズイコウキンゾク,0
2577,9120002037078,登記記録の閉鎖等,0,2023-10-25,2023-10-13,有限会社筒井呉服店,,有限会社,大阪府,大阪市中央区,日本橋２丁目４番１６号,,27,128,5420073,,,2023-10-13,清算の結了等,,,2015-10-05,1,,,,,ツツイゴフクテン,0
2587,9120902022435,登記記録の閉鎖等,0,2023-10-25,2023-10-17,有限会社マナティ,,有限会社,大阪府,池田市,東山町７２０番地の３,,27,204,5630012,,,2023-10-17,清算の結了等,,,2015-10-05,1,,,,,マナティ,0
2610,9150001004349,登記記録の閉鎖等,0,2023-10-25,2023-10-23,株式会社アドバンス,,株式会社,奈良県,奈良市,高畑町７１４番地,,29,201,6308301,,,2023-10-23,清算の結了等,,,2015-10-05,1,,,,,アドバンス,0
2611,9160001010239,登記記録の閉鎖等,0,2023-10-25,2023-10-23,株式会社マルミヤ,,株式会社,滋賀県,蒲生郡日野町,大字大窪５８４番地,,25,383,5291603,,,2023-10-23,清算の結了等,,,2015-10-05,1,,,,,,0
2617,9160005005466,登記記録の閉鎖等,0,2023-10-25,2023-10-03,寳林寺,,その他の設立登記法人,滋賀県,彦根市,平田町１００９番地,,25,202,5220041,,,2023-10-03,合併による解散等,7160005005385,令和５年１０月３日滋賀県彦根市中央町４番２９号長松院（7160005005385）に合併し解散,2015-10-05,1,,,,,ホウリンジ,0
2634,9190002011844,登記記録の閉鎖等,0,2023-10-25,2023-10-19,有限会社大木薬局,,有限会社,三重県,志摩市,浜島町浜島１７８０番地１４,,24,215,5170404,,,2023-10-19,合併による解散等,3011201013506,令和５年１０月１日東京都中野区中央一丁目３８番１号ファーマライズ株式会社（3011201013506）に合併し解散,2015-10-05,1,,,,,,0
2639,9240001037975,登記記録の閉鎖等,0,2023-10-25,2023-10-18,株式会社川上建設,,株式会社,広島県,尾道市,高須町１６９７番地の２,,34,205,7290141,,,2023-10-18,清算の結了等,,,2015-10-05,1,,,,,カワカミケンセツ,0
2640,9240001054310,登記記録の閉鎖等,0,2023-10-25,2023-10-19,株式会社プラチナ,,株式会社,広島県,福山市,松浜町３丁目７番１３号,,34,207,7200802,,,2023-10-19,清算の結了等,,,2019-05-10,1,,,,,プラチナ,0
2646,9240002006871,登記記録の閉鎖等,0,2023-10-25,2023-10-20,有限会社ササキエンジニアリング,,有限会社,広島県,広島市南区,東雲３丁目１０番２３号,,34,103,7340022,,,2023-10-20,清算の結了等,,,2015-10-05,1,,,,,ササキエンジニアリング,0
2650,9250002006540,登記記録の閉鎖等,0,2023-10-25,2023-10-20,有限会社楠測量コンサルタント,,有限会社,山口県,宇部市,大字東万倉１６番地２,,35,202,7570215,,,2023-10-20,清算の結了等,,,2015-10-05,1,,,,,クスノキソクリョウコンサルタント,0
2651,9250002015434,登記記録の閉鎖等,0,2023-10-25,2023-10-18,有限会社山中ビル,,有限会社,山口県,周南市,千代田町５番３－２０１号,,35,215,7450044,,,2023-10-18,清算の結了等,,,2015-10-05,1,,,,,ヤマナカビル,0
2669,9290002049858,登記記録の閉鎖等,0,2023-10-25,2023-10-11,有限会社ひまわりランド,,有限会社,福岡県,久留米市,南２丁目２１番６６号,,40,203,8300051,,,2023-10-11,清算の結了等,,,2015-10-05,1,,,,,ヒマワリランド,0
2672,9290005007631,登記記録の閉鎖等,0,2023-10-25,2023-08-22,扶桑教冨士教会,,その他の設立登記法人,福岡県,朝倉市,柿原８０３番地,,40,228,8380026,,,2023-08-22,合併による解散等,1290005007630,令和５年８月２２日福岡県嘉穂郡桂川町土居１２８３－６扶桑教惟神高大社（1290005007630）に合併し解散,2015-10-05,1,,,,,フソウキョウフジキョウカイ,0
2692,9380002009126,登記記録の閉鎖等,0,2023-10-25,2023-10-18,有限会社興栄電機工業,,有限会社,福島県,郡山市,片平町字新蟻塚１３４番地の２,,07,203,9630211,,,2023-10-18,清算の結了等,,,2015-10-05,1,,,,,コウエイデンキコウギョウ,0
2696,9390001005439,登記記録の閉鎖等,0,2023-10-25,2023-10-20,株式会社セレソンハウス,,株式会社,山形県,天童市,南町３丁目１３番７号,,06,210,9940049,,,2023-10-20,清算の結了等,,,2015-10-05,1,,,,,セレソンハウス,0
2712,9500001023825,登記記録の閉鎖等,0,2023-10-25,2023-10-23,株式会社Ｐｒｏｐｅｌ,,株式会社,愛媛県,松山市,光洋台８番地４９,,38,201,7992469,,,2023-10-23,清算の結了等,,,2021-11-19,1,,,,,プロペル,0
