sequenceNumber,corporateNumber,process,correct,updateDate,changeDate,name,nameImageId,kind,prefectureName,cityName,streetNumber,addressImageId,prefectureCode,cityCode,postCode,addressOutside,addressOutsideImageId,closeDate,closeCause,successorCorporateNumber,changeCause,assignmentDate,latest,enName,enPrefectureName,enCityName,enAddressOutside,furigana,hihyoji
9,1010001227788,新規,0,2022-07-07,2022-07-07,ヤフーマートオペレーションズ株式会社,,株式会社,東京都,千代田区,紀尾井町１番３号,,13,101,1020094,,,,,,,2022-07-07,1,,,,,ヤフーマートオペレーションズ,0
10,1010001227846,新規,0,2022-07-07,2022-07-07,株式会社東京報道新聞社,,株式会社,東京都,中央区,銀座１丁目１２番４号Ｎ＆Ｅ・ＢＬＤ．６Ｆ,,13,102,1040061,,,,,,,2022-07-07,1,,,,,トウキョウホウドウシンブンシャ,0
11,1010001227870,新規,0,2022-07-07,2022-07-07,株式会社ライクスラック,,株式会社,東京都,千代田区,外神田４丁目４番９号松井ビル３階,,13,101,1010021,,,,,,,2022-07-07,1,,,,,ライクスラック,0
17,1010003038036,新規,0,2022-07-07,2022-07-07,ＴＭＧ合同会社,,合同会社,東京都,千代田区,内神田３丁目１２番４号,,13,101,1010047,,,,,,,2022-07-07,1,,,,,ティーエムジー,0
18,1010003038044,新規,0,2022-07-07,2022-07-07,合同会社かぐら屋,,合同会社,東京都,千代田区,神田三崎町２丁目１２番９－２０３号,,13,101,1010061,,,,,,,2022-07-07,1,,,,,カグラヤ,0
19,1010003038052,新規,0,2022-07-07,2022-07-07,合同会社Ｍｅｔａ　Ｄｉｇｉｔａｌ　Ｚ,,合同会社,東京都,中央区,月島２丁目１８番１１－６０４号,,13,102,1040052,,,,,,,2022-07-07,1,,,,,メタデジタルジィ,0
20,1010003038085,新規,0,2022-07-07,2022-07-07,合同会社ＴＡＢＡＭＩ,,合同会社,東京都,中央区,新川２丁目２１番１３号,,13,102,1040033,,,,,,,2022-07-07,1,,,,,タバミ,0
22,1010101015242,新規,0,2022-07-07,2022-07-07,株式会社松洋技建,,株式会社,東京都,八王子市,東中野２００４番地１ヴェルディーク京王堀之内６０３号,,13,201,1920351,,,,,,,2022-07-07,1,,,,,ショウヨウギケン,0
27,1010401168351,新規,0,2022-07-07,2022-07-07,株式会社ミネット,,株式会社,東京都,港区,赤坂２丁目２１番１号,,13,103,1070052,,,,,,,2022-07-07,1,,,,,ミネット,0
36,1010601061414,新規,0,2022-07-07,2022-07-07,ガブテック・ジャパン株式会社,,株式会社,東京都,江東区,富岡２丁目１１－１８,,13,108,1350047,,,,,,,2022-07-07,1,,,,,ガブテックジャパン,0
37,1010601061439,新規,0,2022-07-07,2022-07-07,メガトロン株式会社,,株式会社,東京都,墨田区,緑１丁目６番１号,,13,107,1300021,,,,,,,2022-07-07,1,,,,,メガトロン,0
38,1010601061447,新規,0,2022-07-07,2022-07-07,株式会社ＳＰＩＣＥ,,株式会社,東京都,墨田区,本所３丁目２９番１０号,,13,107,1300004,,,,,,,2022-07-07,1,,,,,スパイス,0
40,1010603009626,新規,0,2022-07-07,2022-07-07,ＪＳｔａｙ合同会社,,合同会社,東京都,墨田区,業平１丁目７番９号ＰＬＡＴ２９５,,13,107,1300002,,,,,,,2022-07-07,1,,,,,ジェイステイ,0
46,1010801033097,新規,0,2022-07-07,2022-07-07,株式会社Ｍａｉｓｏｎ　Ｈ,,株式会社,東京都,大田区,北馬込２丁目１０番２－８０２号,,13,111,1430021,,,,,,,2022-07-07,1,,,,,メゾンエイチ,0
48,1010803004229,新規,0,2022-07-07,2022-07-07,合同会社ＬＧ,,合同会社,東京都,大田区,東馬込２丁目５番８号フレンドリッチハウス東馬込１０３,,13,111,1430022,,,,,,,2022-07-07,1,,,,,エルジー,0
50,1010901051189,新規,0,2022-07-07,2022-07-07,株式会社ｍｏｎｏｎｏＦｕ,,株式会社,東京都,世田谷区,上祖師谷４丁目１７番５号,,13,112,1570065,,,,,,,2022-07-07,1,,,,,モノノフ,0
52,1010903007503,新規,0,2022-07-07,2022-07-07,ｍｅｍｅｍｏ合同会社,,合同会社,東京都,世田谷区,太子堂３丁目３６－１アイビーテラス三軒茶屋４１８号室,,13,112,1540004,,,,,,,2022-07-07,1,,,,,メメモ,0
55,1011003014976,新規,0,2022-07-07,2022-07-07,エコルファインアーツ合同会社,,合同会社,東京都,渋谷区,神宮前１丁目１５番１２号シャトーヒロ４０５号室,,13,113,1500001,,,,,,,2022-07-07,1,,,,,エコルファインアーツ,0
57,1011101099449,新規,0,2022-07-07,2022-07-07,クリスタル株式会社,,株式会社,東京都,新宿区,新宿４丁目１番２２号,,13,104,1600022,,,,,,,2022-07-07,1,,,,,クリスタル,0
58,1011101099473,新規,0,2022-07-07,2022-07-07,フォーミライ株式会社,,株式会社,東京都,新宿区,百人町２丁目１番４５号赤煉瓦２１８,,13,104,1690073,,,,,,,2022-07-07,1,,,,,フォーミライ,0
61,1011103011907,新規,0,2022-07-07,2022-07-07,合同会社松本,,合同会社,東京都,新宿区,住吉町４番１５－１０５号,,13,104,1620065,,,,,,,2022-07-07,1,,,,,マツモト,0
62,1011103011923,新規,0,2022-07-07,2022-07-07,合同会社ラムダコード,,合同会社,東京都,新宿区,西新宿３丁目３番１３号西新宿水間ビル２Ｆ,,13,104,1600023,,,,,,,2022-07-07,1,,,,,ラムダコード,0
64,1011301027911,新規,0,2022-07-07,2022-07-07,株式会社高崎企画,00127133,株式会社,東京都,杉並区,高円寺北２丁目３４番７号,,13,115,1660002,,,,,,,2022-07-07,1,,,,,タカサキキカク,0
66,1011401024387,新規,0,2022-07-07,2022-07-07,株式会社ｃｈａｍｐｌｏｏ,,株式会社,東京都,板橋区,高島平４丁目１番１３号フォルトゥーナ高島平２０１,,13,119,1750082,,,,,,,2022-07-07,1,,,,,チャンプルー,0
68,1011501028239,新規,0,2022-07-07,2022-07-07,ＷＧ株式会社,,株式会社,東京都,北区,東田端１丁目１２番１７号田端Ｅａｓｔ３０２室,,13,117,1140013,,,,,,,2022-07-07,1,,,,,ダブルジー,0
69,1011601026084,新規,0,2022-07-07,2022-07-07,株式会社イーサンク,,株式会社,東京都,練馬区,春日町２丁目５番３号,,13,120,1790074,,,,,,,2022-07-07,1,,,,,イーサンク,0
71,1011803005159,新規,0,2022-07-07,2022-07-07,合同会社Ｌｕｎａ　ｗｅｂ　ｓｙｓｔｅｍ,,合同会社,東京都,葛飾区,柴又２丁目５番２８－２１２号ガーデンプラザ柴又弐番館,,13,122,1250052,,,,,,,2022-07-07,1,,,,,ルナウェブシステム,0
73,1012401039367,新規,0,2022-07-07,2022-07-07,包昇デジタル文化株式会社,,株式会社,東京都,三鷹市,下連雀４丁目５番１７号,,13,204,1810013,,,,,,,2022-07-07,1,,,,,ホウショウデジタルブンカ,0
74,1012403005474,新規,0,2022-07-07,2022-07-07,エコシード合同会社,,合同会社,東京都,府中市,若松町２丁目１番地の６北松レジデンス８０４,,13,206,1830005,,,,,,,2022-07-07,1,,,,,エコシード,0
76,1012803002831,新規,0,2022-07-07,2022-07-07,合同会社ジーティー,,合同会社,東京都,立川市,錦町２丁目１番１０号エリア立川４０２号,,13,202,1900022,,,,,,,2022-07-07,1,,,,,ジーティー,0
82,1020001147218,新規,0,2022-07-07,2022-07-07,株式会社ＰＣａＬａｂ,,株式会社,神奈川県,川崎市宮前区,神木本町１丁目１４番３２号,,14,136,2160031,,,,,,,2022-07-07,1,,,,,ピーシーラボ,0
92,1021001076415,新規,0,2022-07-07,2022-07-07,株式会社齋木設備,,株式会社,神奈川県,横須賀市,大矢部４丁目３２－５,,14,201,2380024,,,,,,,2022-07-07,1,,,,,サイキセツビ,0
93,1021001076431,新規,0,2022-07-07,2022-07-07,株式会社安藤トラスト,,株式会社,神奈川県,秦野市,松原町３番３６号,,14,211,2591313,,,,,,,2022-07-07,1,,,,,アンドウトラスト,0
94,1021001076489,新規,0,2022-07-07,2022-07-07,株式会社Ｔｏｋａｉ　Ｋａｎｋｙｏ,,株式会社,神奈川県,秦野市,南矢名２１２９番地の４,,14,211,2570003,,,,,,,2022-07-07,1,,,,,トーカイカンキョー,0
99,1021003011923,新規,0,2022-07-07,2022-07-07,Ｆｅｓｔｉｎａ　ｌｅｎｔｅ合同会社,,合同会社,神奈川県,大和市,鶴間２丁目３番２２号ヴェルドミール南林間１０２,,14,213,2420004,,,,,,,2022-07-07,1,,,,,フェスティナレンテ,0
101,1030001149023,新規,0,2022-07-07,2022-07-07,株式会社ストリーク,,株式会社,埼玉県,さいたま市南区,南浦和３丁目６番１６号,,11,108,3360017,,,,,,,2022-07-07,1,,,,,ストリーク,0
102,1030001149048,新規,0,2022-07-07,2022-07-07,株式会社弥電工,,株式会社,埼玉県,越谷市,大字西新井３２２番地２,,11,222,3430855,,,,,,,2022-07-07,1,,,,,アマネデンコウ,0
103,1030001149097,新規,0,2022-07-07,2022-07-07,株式会社ＡＣＥ,,株式会社,埼玉県,ふじみ野市,福岡３丁目８番６号,,11,245,3560011,,,,,,,2022-07-07,1,,,,,エース,0
105,1030003019728,新規,0,2022-07-07,2022-07-07,神幸合同会社,,合同会社,埼玉県,ふじみ野市,苗間４１９番地１,,11,245,3560052,,,,,,,2022-07-07,1,,,,,シンコウ,0
107,1040001124058,新規,0,2022-07-07,2022-07-07,株式会社ｉｎｖｅｓｔｍｅｎｔ　ｓｙｓｔｅｍ,,株式会社,千葉県,市川市,新田３丁目１５番７号,,12,203,2720035,,,,,,,2022-07-07,1,,,,,インベストメントシステム,0
108,1040001124066,新規,0,2022-07-07,2022-07-07,株式会社リピアプロダクション,,株式会社,千葉県,流山市,江戸川台西２丁目１４１,,12,220,2700115,,,,,,,2022-07-07,1,,,,,リピアプロダクション,0
109,1040003020362,新規,0,2022-07-07,2022-07-07,合同会社ＪＵＮＬＡＯ,,合同会社,千葉県,山武郡横芝光町,宮川８６５８番地６６,,12,410,2891727,,,,,,,2022-07-07,1,,,,,ジュンラオ,0
113,1060001035047,新規,0,2022-07-07,2022-07-07,株式会社森田建匠,,株式会社,栃木県,足利市,板倉町６８番地,,09,202,3260102,,,,,,,2022-07-07,1,,,,,モリタケンショウ,0
115,1070003004544,新規,0,2022-07-07,2022-07-07,合同会社健康倶楽部,00127127,合同会社,群馬県,太田市,古戸町５１３番地１,,10,205,3730826,,,,,,,2022-07-07,1,,,,,ケンコウクラブ,0
119,1080001025070,新規,0,2022-07-07,2022-07-07,株式会社はなぐるま,,株式会社,静岡県,静岡市葵区,瀬名２丁目１８番１５号,,22,101,4200911,,,,,,,2022-07-07,1,,,,,ハナグルマ,0
123,1080103002620,新規,0,2022-07-07,2022-07-07,合同会社ＬＩＢＥＲＩＳＥ,,合同会社,静岡県,田方郡函南町,平井８９２－９,,22,325,4190107,,,,,,,2022-07-07,1,,,,,リベライズ,0
124,1080401025942,新規,0,2022-07-07,2022-07-07,株式会社アビリタ・ティ,,株式会社,静岡県,掛川市,掛川１０６７番地８,,22,213,4360079,,,,,,,2022-07-07,1,,,,,アビリタティ,0
126,1100003006611,新規,0,2022-07-07,2022-07-07,オフィスヨシザワ合同会社,,合同会社,長野県,松本市,大字島立１４２７番地２,,20,202,3900852,,,,,,,2022-07-07,1,,,,,オフィスヨシザワ,0
131,1110001036808,新規,0,2022-07-07,2022-07-07,株式会社ジェイドファクトリー,,株式会社,新潟県,上越市,大潟区下小船津浜１１６５番地９,,15,222,9493113,,,,,,,2022-07-07,1,,,,,ジェイドファクトリー,0
139,1120001247197,新規,0,2022-07-07,2022-07-07,株式会社キヨスル,,株式会社,大阪府,大阪市中央区,北浜３丁目２－１５京阪淀屋橋ビル８階,,27,128,5410041,,,,,,,2022-07-07,1,,,,,キヨスル,0
140,1120001247255,新規,0,2022-07-07,2022-07-07,フィジヘルケア株式会社,,株式会社,大阪府,大阪市阿倍野区,阪南町１丁目４６番１９号,,27,119,5450021,,,,,,,2022-07-07,1,,,,,フィジヘルケア,0
143,1120003022020,新規,0,2022-07-07,2022-07-07,合同会社Ｂｅｓｔ　Ｏｎｅ,,合同会社,大阪府,大阪市西区,新町１丁目１２－３,,27,106,5500013,,,,,,,2022-07-07,1,,,,,ベストワン,0
146,1120103004769,新規,0,2022-07-07,2022-07-07,Ｖｅｃｔｏｒｖｉｅｗ合同会社,,合同会社,大阪府,堺市北区,長曽根町１３０番地４２Ｓ－Ｃｕｂｅ２０３－２,,27,146,5918025,,,,,,,2022-07-07,1,,,,,ベクタービュー,0
150,1120903004217,新規,0,2022-07-07,2022-07-07,合同会社Ｍ・ＷＡＹ・ＪＡＰＡＮ,,合同会社,大阪府,高槻市,日吉台四番町１４番１９号,,27,207,5691022,,,,,,,2022-07-07,1,,,,,エムウエイジャパン,0
157,1140001126597,新規,0,2022-07-07,2022-07-07,株式会社７４,,株式会社,兵庫県,尼崎市,南武庫之荘３丁目２２番２号,,28,202,6610033,,,,,,,2022-07-07,1,,,,,ナナヨン,0
158,1140001126622,新規,0,2022-07-07,2022-07-07,株式会社メトロ板宿,,株式会社,兵庫県,神戸市須磨区,飛松町３丁目６番１２号,,28,107,6540012,,,,,,,2022-07-07,1,,,,,メトロイタヤド,0
165,1160001024329,新規,0,2022-07-07,2022-07-07,Ａｉｒ　Ｌｉｎｋ株式会社,,株式会社,滋賀県,草津市,矢橋町１２６１番地１７,,25,206,5250066,,,,,,,2022-07-07,1,,,,,エアーリンク,0
173,1180001151996,新規,0,2022-07-07,2022-07-07,株式会社ライズリンクス,,株式会社,愛知県,名古屋市北区,柳原３丁目６番７号（プレサンスグラン名城公園６０６号）,,23,103,4620845,,,,,,,2022-07-07,1,,,,,ライズリンクス,0
174,1180001152020,新規,0,2022-07-07,2022-07-07,株式会社Ｓｕｎ　Ｃａｒｅ　Ｌｉｎｋ,,株式会社,愛知県,一宮市,北方町曽根字村裏西１５番地,,23,203,4938002,,,,,,,2022-07-07,1,,,,,サンケアリンク,0
181,1190001029564,新規,0,2022-07-07,2022-07-07,株式会社彦坂鉄筋,,株式会社,三重県,松阪市,小黒田町６２９番地１６,,24,204,5150062,,,,,,,2022-07-07,1,,,,,ヒコサカテッキン,0
182,1190001029572,新規,0,2022-07-07,2022-07-07,株式会社茅花,,株式会社,三重県,桑名市,長島町福吉１１７番地,,24,205,5111137,,,,,,,2022-07-07,1,,,,,カヤハナ,0
183,1190001029580,新規,0,2022-07-07,2022-07-07,株式会社ＹＡＭＡＳＡＤＡ,,株式会社,三重県,伊賀市,丸柱３７２番地,,24,216,5181325,,,,,,,2022-07-07,1,,,,,ヤマサダ,0
184,1190001029589,新規,0,2022-07-07,2022-07-07,株式会社えぶりしんぐ,,株式会社,三重県,志摩市,阿児町鵜方１２２５番地,,24,215,5170501,,,,,,,2022-07-07,1,,,,,エブリシング,0
188,1200001040247,新規,0,2022-07-07,2022-07-07,株式会社Ｎｉｓｓｏ保険事務所,,株式会社,岐阜県,恵那市,大井町２０４番地１１,,21,210,5097201,,,,,,,2022-07-07,1,,,,,ニッソホケンジムショ,0
189,1200001040255,新規,0,2022-07-07,2022-07-07,株式会社ラスカルハウス,,株式会社,岐阜県,中津川市,蛭川５２８０番地８,,21,206,5098301,,,,,,,2022-07-07,1,,,,,ラスカルハウス,0
201,1250001019641,新規,0,2022-07-07,2022-07-07,株式会社浜部鉄工所,,株式会社,山口県,周南市,港町６番４２号,,35,215,7460028,,,,,,,2022-07-07,1,,,,,ハマベテッコウショ,0
207,1270001008584,新規,0,2022-07-07,2022-07-07,株式会社みらい保険事務所,,株式会社,鳥取県,境港市,明治町１８番地１,,31,204,6840022,,,,,,,2022-07-07,1,,,,,ミライホケンジムショ,0
208,1280001008740,新規,0,2022-07-07,2022-07-07,株式会社ＴＤＭテック,,株式会社,島根県,出雲市,里方町１９８番地９,,32,203,6930064,,,,,,,2022-07-07,1,,,,,ティーディーエムテック,0
209,1280003001628,新規,0,2022-07-07,2022-07-07,合同会社ＮＯＲＡｓ,,合同会社,島根県,出雲市,東福町２６９番地１５,,32,203,6910031,,,,,,,2022-07-07,1,,,,,ノラズ,0
212,1290001098203,新規,0,2022-07-07,2022-07-07,株式会社ハイライト,,株式会社,福岡県,福岡市南区,長丘２丁目１２番２４号,,40,134,8150075,,,,,,,2022-07-07,1,,,,,ハイライト,0
214,1290003012698,新規,0,2022-07-07,2022-07-07,合同会社６５４,,合同会社,福岡県,福岡市中央区,天神３丁目６番８号天神ミツヤマビル４階,,40,133,8100001,,,,,,,2022-07-07,1,,,,,ロクゴウヨン,0
215,1290003012715,新規,0,2022-07-07,2022-07-07,合同会社Ｂｅａｒ,,合同会社,福岡県,福岡市中央区,港３丁目４－２５－３階,,40,133,8100075,,,,,,,2022-07-07,1,,,,,ベアー,0
216,1290005018735,新規,0,2022-07-07,2022-07-07,一般社団法人福岡スケートボード協会,,その他の設立登記法人,福岡県,福岡市中央区,天神４丁目４番３０号天神西江ビル４Ｆ,,40,133,8100001,,,,,,,2022-07-07,1,,,,,フクオカスケートボードキョウカイ,0
224,1310003004404,新規,0,2022-07-07,2022-07-07,合同会社蒼,,合同会社,長崎県,南島原市,深江町丙１８４０番地１６,,42,214,8591503,,,,,,,2022-07-07,1,,,,,アオイ,0
225,1330001029905,新規,0,2022-07-07,2022-07-07,株式会社Ｎｉｓｈｉｙａｍａ　ｆａｒｍ,,株式会社,熊本県,上益城郡山都町,芦屋田２３０番地,00127134,43,447,8613541,,,,,,,2022-07-07,1,,,,,ニシヤマファーム,0
226,1330003009434,新規,0,2022-07-07,2022-07-07,合同会社宝幸電設,,合同会社,熊本県,熊本市南区,浜口町２２４番地１,,43,104,8615262,,,,,,,2022-07-07,1,,,,,ホウコウデンセツ,0
231,1360001030587,新規,0,2022-07-07,2022-07-07,株式会社ＵＭＩＯＴＯ,,株式会社,沖縄県,宮古島市,平良字西里１９２４番地１,,47,214,9060012,,,,,,,2022-07-07,1,,,,,ウミオト,0
232,1360003012146,新規,0,2022-07-07,2022-07-07,合同会社ＹＯＬＯ,,合同会社,沖縄県,中頭郡中城村,字南上原１０８２番地２,,47,328,9012424,,,,,,,2022-07-07,1,,,,,ヨーロー,0
233,1360003012154,新規,0,2022-07-07,2022-07-07,合同会社Ｉｖｙ　Ｂｌｕｅ,,合同会社,沖縄県,豊見城市,字高安５８２,,47,212,9010242,,,,,,,2022-07-07,1,,,,,アイビーブルー,0
234,1360005006690,新規,0,2022-07-07,2022-07-07,一般社団法人ＣＯＲＡＬ,,その他の設立登記法人,沖縄県,中頭郡読谷村,字高志保１５９０番地１,,47,324,9040323,,,,,,,2022-07-07,1,,,,,コーラル,0
241,1380001032945,新規,0,2022-07-07,2022-07-07,ウェルカム開発株式会社,,株式会社,福島県,福島市,中町５番１４号,,07,201,9608043,,,,,,,2022-07-07,1,,,,,ウェルカムカイハツ,0
242,1380001032961,新規,0,2022-07-07,2022-07-07,株式会社東凛建設,,株式会社,福島県,郡山市,土瓜１丁目７６番地の２,,07,203,9630204,,,,,,,2022-07-07,1,,,,,トウリンケンセツ,0
247,1410001013231,新規,0,2022-07-07,2022-07-07,株式会社ＤＥＭＯ,,株式会社,秋田県,大仙市,佐野町１７番７号,,05,212,0140017,,,,,,,2022-07-07,1,,,,,ディーイーエムオー,0
253,1440001009111,新規,0,2022-07-07,2022-07-07,株式会社Ｓｕｐｐｏｒｔ　ｅａｃｈ　Ｏｔｈｅｒ,,株式会社,北海道,亀田郡七飯町,大中山２丁目３７番２０－３０１号,,01,337,0411121,,,,,,,2022-07-07,1,,,,,サポートイーチアザー,0
257,1470001019140,新規,0,2022-07-07,2022-07-07,株式会社コアライン,,株式会社,香川県,高松市,国分寺町新名１８１４番地５,,37,201,7690104,,,,,,,2022-07-07,1,,,,,コアライン,0
259,1470003002210,新規,0,2022-07-07,2022-07-07,合同会社ｍ＆ｆ,,合同会社,香川県,坂出市,加茂町甲５８８番地２,,37,203,7620022,,,,,,,2022-07-07,1,,,,,エムアンドエフ,0
265,1700150109651,新規,0,2022-07-07,2022-06-14,宮崎企画,,その他,神奈川県,川崎市多摩区,生田８丁目２９－７,,14,135,2140038,,,,,,,2022-06-14,1,,,,,ミヤザキキカク,0
266,1700150109668,新規,0,2022-07-07,2022-06-14,ガーデン嵐山管理組合,,その他,京都府,京都市右京区,嵯峨天龍寺北造路町２１番地１,,26,108,6168374,,,,,,,2022-06-14,1,,,,,ガーデンアラシヤマカンリクミアイ,0
267,1700150110147,新規,0,2022-07-07,2022-06-21,屋号　河野知美　映画製作団体,,その他,東京都,世田谷区,羽根木１丁目８番１号羽根木マンション５０５,,13,112,1560042,,,,,,,2022-06-21,1,,,,,ヤゴウコウノトモミエイガセイサクダンタイ,0
268,1700150110452,新規,0,2022-07-07,2022-06-27,外国人ヘルプライン東海,,その他,愛知県,名古屋市中区,新栄町２丁目３ＹＷＣＡビル７階　名古屋ＮＧＯセンター　内,,23,106,4600004,,,,,,,2022-06-27,1,,,,,ガイコクジンヘルプライントウカイ,0
272,2010001227837,新規,0,2022-07-07,2022-07-07,株式会社ＪＰＮＦＴ,,株式会社,東京都,千代田区,大手町１丁目６番１号大手町ビル６階Ｉｎｓｐｉｒｅｄ．Ｌａｂ,,13,101,1000004,,,,,,,2022-07-07,1,,,,,ジェイピーエヌエフティー,0
273,2010001227853,新規,0,2022-07-07,2022-07-07,ダントーテクノロジーズ株式会社,,株式会社,東京都,中央区,銀座１丁目８番１６号,,13,102,1040061,,,,,,,2022-07-07,1,,,,,ダントーテクノロジーズ,0
274,2010001227878,新規,0,2022-07-07,2022-07-07,株式会社Ｃｒｅａｔｉｖｅ＆Ｃａｌｍ,,株式会社,東京都,千代田区,平河町２丁目５番３号永田町ＧＲＩＤ５階,,13,101,1020093,,,,,,,2022-07-07,1,,,,,クリエイティブアンドカーム,0
275,2010001227886,新規,0,2022-07-07,2022-07-07,株式会社ＣａＭｏｒｅ,,株式会社,東京都,千代田区,神田北乗物町１７番地,,13,101,1010036,,,,,,,2022-07-07,1,,,,,キャモア,0
276,2010001227928,新規,0,2022-07-07,2022-07-07,ＬＣ＆Ｐａｒｔｎｅｒｓ　Ｊａｐａｎ株式会社,,株式会社,東京都,千代田区,丸の内１丁目８番３号丸の内トラストタワー本館２０階,,13,101,1000005,,,,,,,2022-07-07,1,,,,,エルシーアンドパートナーズジャパン,0
278,2010003038043,新規,0,2022-07-07,2022-07-07,合同会社コネル,,合同会社,東京都,中央区,佃２丁目５番１１号,,13,102,1040051,,,,,,,2022-07-07,1,,,,,コネル,0
279,2010003038076,新規,0,2022-07-07,2022-07-07,合同会社ＺＥＮ,,合同会社,東京都,千代田区,神田東松下町２８番地,,13,101,1010042,,,,,,,2022-07-07,1,,,,,ゼン,0
281,2010401168268,新規,0,2022-07-07,2022-07-07,株式会社ｕｎｂｄ,,株式会社,東京都,港区,浜松町１丁目１９－５瀧山ビル２階,,13,103,1050013,,,,,,,2022-07-07,1,,,,,アンバウンド,0
282,2010403027505,新規,0,2022-07-07,2022-07-07,Ｂｒｉｌｌｉａｎｔ　Ｐｌａｎｓ合同会社,,合同会社,東京都,港区,南青山２丁目２番１５号,,13,103,1070062,,,,,,,2022-07-07,1,,,,,ブリリアントプランズ,0
283,2010405021134,新規,0,2022-07-07,2022-07-07,特定非営利活動法人心踊るあるまの木,,その他の設立登記法人,東京都,港区,浜松町２丁目２番１５号浜松町ダイヤビル２Ｆ,,13,103,1050013,,,,,,,2022-07-07,1,,,,,ココロオドルアルマノキ,0
286,2010505003321,新規,0,2022-07-07,2022-07-07,一般社団法人終活支援専門協会,,その他の設立登記法人,東京都,台東区,入谷１丁目５番６号,,13,106,1100013,,,,,,,2022-07-07,1,,,,,シュウカツシエンセンモンキョウカイ,0
288,2010601061438,新規,0,2022-07-07,2022-07-07,株式会社Ｅｐｓｉｌｏｎ,,株式会社,東京都,墨田区,江東橋５丁目１３番１０号,,13,107,1300022,,,,,,,2022-07-07,1,,,,,イプシロン,0
290,2010801033088,新規,0,2022-07-07,2022-07-07,株式会社住和,,株式会社,東京都,大田区,南蒲田２丁目４番１５号東邦本社ビル５階,,13,111,1440035,,,,,,,2022-07-07,1,,,,,ジュウワ,0
291,2010801033096,新規,0,2022-07-07,2022-07-07,ＴＲＥ株式会社,,株式会社,東京都,大田区,山王２丁目１番８号,,13,111,1430023,,,,,,,2022-07-07,1,,,,,ティーアールイー,0
300,2011001148494,新規,0,2022-07-07,2022-07-07,ちゃぶ台株式会社,,株式会社,東京都,目黒区,碑文谷６丁目７番１号碑文谷壱番館３１６,,13,110,1520003,,,,,,,2022-07-07,1,,,,,チャブダイ,0
301,2011001148544,新規,0,2022-07-07,2022-07-07,株式会社Ｔ．Ｄ　Ｌａｂｅｌ,,株式会社,東京都,渋谷区,恵比寿４丁目４番１５号６階,,13,113,1500013,,,,,,,2022-07-07,1,,,,,ティーディーレーベル,0
302,2011001148560,新規,0,2022-07-07,2022-07-07,Ｒｉｇｈｔ　Ｈａｎｄ株式会社,,株式会社,東京都,渋谷区,神南１丁目１３番１５号,,13,113,1500041,,,,,,,2022-07-07,1,,,,,ライトハンド,0
303,2011003014975,新規,0,2022-07-07,2022-07-07,ＴＡＣＴ合同会社,,合同会社,東京都,渋谷区,神宮前６丁目２３番４号桑野ビル２階,,13,113,1500001,,,,,,,2022-07-07,1,,,,,タクト,0
305,2011101099431,新規,0,2022-07-07,2022-07-07,株式会社メイク・アルファ,,株式会社,東京都,新宿区,西新宿３丁目３番１３号西新宿水間ビル６Ｆ,,13,104,1600023,,,,,,,2022-07-07,1,,,,,メイクアルファ,0
306,2011101099456,新規,0,2022-07-07,2022-07-07,株式会社米山不動産,,株式会社,東京都,新宿区,西新宿５丁目１５番１０－４０２号,,13,104,1600023,,,,,,,2022-07-07,1,,,,,ヨネヤマフドウサン,0
307,2011103011930,新規,0,2022-07-07,2022-07-07,合同会社福司商店,,合同会社,東京都,新宿区,西新宿３丁目３番１３号西新宿水間ビル２Ｆ,,13,104,1600023,,,,,,,2022-07-07,1,,,,,フクシショウテン,0
308,2011103011939,新規,0,2022-07-07,2022-07-07,合同会社Ｎｅｔ　ｉｎｃｏｍｅ,,合同会社,東京都,新宿区,大久保２丁目２５番２２号ＳＴＥＬＬＡ３０１,,13,104,1690072,,,,,,,2022-07-07,1,,,,,ネットインカム,0
309,2011103011947,新規,0,2022-07-07,2022-07-07,合同会社ＦＲＥＥ‐ＭＥＮカンパニー,,合同会社,東京都,新宿区,西新宿３丁目３－１３西新宿水間ビル６Ｆ,,13,104,1600023,,,,,,,2022-07-07,1,,,,,フリーメンカンパニー,0
310,2011301027910,新規,0,2022-07-07,2022-07-07,株式会社防災マネジメント,,株式会社,東京都,杉並区,方南１丁目１６番１１番,,13,115,1680062,,,,,,,2022-07-07,1,,,,,ボウサイマネジメント,0
312,2011501028238,新規,0,2022-07-07,2022-07-07,ＳＦＩＤＡ東尾久株式会社,,株式会社,東京都,荒川区,東尾久１丁目３２番１４号,,13,118,1160012,,,,,,,2022-07-07,1,,,,,スフィーダヒガシオグ,0
316,2011801040974,新規,0,2022-07-07,2022-07-07,株式会社フルフィル,,株式会社,東京都,足立区,西新井栄町３丁目１３番１４号,,13,121,1230843,,,,,,,2022-07-07,1,,,,,フルフィル,0
321,2012401039374,新規,0,2022-07-07,2022-07-07,株式会社牛かつもと村,,株式会社,東京都,武蔵野市,吉祥寺本町２丁目５番１０号,,13,203,1800004,,,,,,,2022-07-07,1,,,,,ギュウカツモトムラ,0
323,2012403005473,新規,0,2022-07-07,2022-07-07,ブライトナイト合同会社,,合同会社,東京都,多摩市,鶴牧３丁目５－２ジオ多摩センター５１６,,13,224,2060034,,,,,,,2022-07-07,1,,,,,ブライトナイト,0
324,2012803002830,新規,0,2022-07-07,2022-07-07,合同会社Ｌｉｎｏ,,合同会社,東京都,立川市,高松町３丁目２６番９号,,13,202,1900011,,,,,,,2022-07-07,1,,,,,リノ,0
325,2013301049356,新規,0,2022-07-07,2022-07-07,株式会社横綱,,株式会社,東京都,豊島区,高松２丁目３４番４号－２０２号,,13,116,1710042,,,,,,,2022-07-07,1,,,,,ヨコヅナ,0
332,2020001147241,新規,0,2022-07-07,2022-07-07,株式会社中見・マーケティング戦略研究所,,株式会社,神奈川県,横浜市港北区,日吉本町６丁目１０番１３号,,14,109,2230062,,,,,,,2022-07-07,1,,,,,ナカミマーケティングセンリャクケンキュウショ,0
340,2021001076422,新規,0,2022-07-07,2022-07-07,株式会社Ｔｒａｇｅｎ　ｂｅｎｉ,,株式会社,神奈川県,横須賀市,米が浜通２丁目４番地３ニューハイツ横須賀中央２０２,,14,201,2380011,,,,,,,2022-07-07,1,,,,,トラーゲンベニ,0
341,2021001076430,新規,0,2022-07-07,2022-07-07,モリシタ企画株式会社,,株式会社,神奈川県,相模原市中央区,上溝５４３２番地５ルミナス相模原６０３,,14,152,2520243,,,,,,,2022-07-07,1,,,,,モリシタキカク,0
342,2021001076447,新規,0,2022-07-07,2022-07-07,株式会社ＣＲＩＴＥＣ,,株式会社,神奈川県,横須賀市,大矢部３丁目４３番１９号,,14,201,2380024,,,,,,,2022-07-07,1,,,,,クリテック,0
343,2021001076455,新規,0,2022-07-07,2022-07-07,株式会社ＣＮＸ２４,,株式会社,神奈川県,横須賀市,大滝町２丁目１６番地,,14,201,2380008,,,,,,,2022-07-07,1,,,,,シーエヌエックストゥエンティーフォー,0
349,2030001149014,新規,0,2022-07-07,2022-07-07,株式会社キクサン,,株式会社,埼玉県,久喜市,本町６丁目１６番４４号,,11,232,3460005,,,,,,,2022-07-07,1,,,,,キクサン,0
350,2030001149039,新規,0,2022-07-07,2022-07-07,株式会社優進設備工業,,株式会社,埼玉県,加須市,南大桑６６１番地１,,11,210,3470015,,,,,,,2022-07-07,1,,,,,ユウシンセツビコウギョウ,0
351,2030001149047,新規,0,2022-07-07,2022-07-07,株式会社ＨＯＳＯＤＡ,,株式会社,埼玉県,川越市,大字藤間１５番地４６,,11,201,3501142,,,,,,,2022-07-07,1,,,,,ホソダ,0
355,2030003019735,新規,0,2022-07-07,2022-07-07,合同会社ｍａａ,,合同会社,埼玉県,新座市,石神２丁目２番２４号Ａ棟,,11,230,3520033,,,,,,,2022-07-07,1,,,,,エムエーエー,0
358,2040001124123,新規,0,2022-07-07,2022-07-07,株式会社ぽれぽれ,,株式会社,千葉県,船橋市,夏見２丁目１２番１６号,,12,204,2730865,,,,,,,2022-07-07,1,,,,,ポレポレ,0
363,2070003004543,新規,0,2022-07-07,2022-07-07,合同会社さいとう,,合同会社,群馬県,前橋市,元総社町１５７番地１,,10,201,3710846,,,,,,,2022-07-07,1,,,,,サイトウ,0
368,2100001035504,新規,0,2022-07-07,2022-07-07,株式会社朱鈴屋,,株式会社,長野県,安曇野市,豊科４９８３番地７,,20,220,3998205,,,,,,,2022-07-07,1,,,,,スズヤ,0
369,2110001036807,新規,0,2022-07-07,2022-07-07,Ｍ’ｓ　ＢＵＩＬＤ株式会社,,株式会社,新潟県,三条市,中新２２番４１－６号,,15,204,9550035,,,,,,,2022-07-07,1,,,,,エムズビルド,0
370,2110003004811,新規,0,2022-07-07,2022-07-07,合同会社レンズ,,合同会社,新潟県,新潟市中央区,西堀通５番町８５７－２野村ビル１階,,15,103,9518061,,,,,,,2022-07-07,1,,,,,レンズ,0
384,2120101065861,新規,0,2022-07-07,2022-07-07,ハローペット株式会社,,株式会社,大阪府,羽曳野市,南恵我之荘１丁目３番１７号,,27,222,5830885,,,,,,,2022-07-07,1,,,,,ハローペット,0
387,2120901046210,新規,0,2022-07-07,2022-07-07,株式会社ＲＩＳＥ　ＪＡＰＡＮ,,株式会社,大阪府,箕面市,小野原西３丁目２１番２０号,,27,220,5620032,,,,,,,2022-07-07,1,,,,,ライズジャパン,0
399,2140001126654,新規,0,2022-07-07,2022-07-07,株式会社Ｌ‐ＰＲＩＭＥ,,株式会社,兵庫県,神戸市中央区,浜辺通６丁目１番１－９０６号,,28,110,6510083,,,,,,,2022-07-07,1,,,,,エルプライム,0
406,2150005009409,新規,0,2022-07-07,2022-07-07,社会保険労務士法人まほろば労務経営事務所,,その他の設立登記法人,奈良県,橿原市,西池尻町１０７番地の１５,,29,205,6340821,,,,,,,2022-07-07,1,,,,,マホロバロウムケイエイジムショ,0
409,2180001152052,新規,0,2022-07-07,2022-07-07,株式会社日栄住宅,,株式会社,愛知県,一宮市,中町１丁目３番地３６,,23,203,4910913,,,,,,,2022-07-07,1,,,,,ニチエイジュウタク,0
410,2180001152069,新規,0,2022-07-07,2022-07-07,株式会社ラッキーリバーＴ＆Ｋ,,株式会社,愛知県,名古屋市中村区,椿町８番６号,,23,105,4530015,,,,,,,2022-07-07,1,,,,,ラッキーリバーティーアンドケィ,0
417,2180003024002,新規,0,2022-07-07,2022-07-07,合同会社ｇｉｖｅｒ,,合同会社,愛知県,名古屋市中川区,東春田３丁目１３４エレガンＢ１０３号,,23,110,4540983,,,,,,,2022-07-07,1,,,,,ギバー,0
419,2180005019834,新規,0,2022-07-07,2022-07-07,一般社団法人ＲＯＯＴＳ,,その他の設立登記法人,愛知県,名古屋市中川区,昭明町３丁目３番地の３,,23,110,4540855,,,,,,,2022-07-07,1,,,,,ルーツ,0
421,2190001029563,新規,0,2022-07-07,2022-07-07,株式会社坂倉エナジー,,株式会社,三重県,四日市市,富田３丁目１８番２３－４０６号ポレスター富田駅前,,24,202,5108014,,,,,,,2022-07-07,1,,,,,サカクラエナジー,0
422,2190001029571,新規,0,2022-07-07,2022-07-07,株式会社Ｇｌａｎｚ,,株式会社,三重県,四日市市,川北１丁目６番２号,,24,202,5108031,,,,,,,2022-07-07,1,,,,,グランツ,0
423,2190001029588,新規,0,2022-07-07,2022-07-07,株式会社南陽,,株式会社,三重県,四日市市,大字松本１２７７番地１８２,,24,202,5100836,,,,,,,2022-07-07,1,,,,,ナンヨウ,0
424,2190003004028,新規,0,2022-07-07,2022-07-07,合同会社ミル商事,,合同会社,三重県,尾鷲市,中央町１番１１号リベールビル中央２Ｆ,,24,209,5193615,,,,,,,2022-07-07,1,,,,,ミルショウジ,0
434,2210001018992,新規,0,2022-07-07,2022-07-07,株式会社ＴＭＭ,,株式会社,福井県,敦賀市,呉竹町２丁目３番１１号,,18,202,9140802,,,,,,,2022-07-07,1,,,,,ティーエムエム,0
443,2240001060050,新規,0,2022-07-07,2022-07-07,Ｉ，ｓ　ｐｌａｎ株式会社,,株式会社,広島県,広島市東区,温品５丁目１０番３０－Ｂ１０１号,,34,102,7320033,,,,,,,2022-07-07,1,,,,,アイズプラン,0
444,2240001060059,新規,0,2022-07-07,2022-07-07,５２０株式会社,,株式会社,広島県,福山市,南本庄３丁目５番８－８０１号,,34,207,7200077,,,,,,,2022-07-07,1,,,,,ウーアーリン,0
447,2250001019640,新規,0,2022-07-07,2022-07-07,株式会社Ｇｏｏｄｓ　Ｂｏｙ,,株式会社,山口県,山口市,道場門前１丁目２番２０号,,35,203,7530047,,,,,,,2022-07-07,1,,,,,グッズボーイ,0
451,2270001008575,新規,0,2022-07-07,2022-07-07,株式会社奥田内装計画,,株式会社,鳥取県,鳥取市,気高町酒津７０５番地３,,31,201,6890217,,,,,,,2022-07-07,1,,,,,オクダナイソウケイカク,0
452,2270001008583,新規,0,2022-07-07,2022-07-07,株式会社Ｒｅａｌｉｓｅｒ,,株式会社,鳥取県,倉吉市,国府１１５５番地,,31,203,6820942,,,,,,,2022-07-07,1,,,,,レアリゼ,0
455,2290001098128,新規,0,2022-07-07,2022-07-07,株式会社リンク,,株式会社,福岡県,糸島市,泊２７３番地３,,40,230,8191111,,,,,,,2022-07-07,1,,,,,リンク,0
456,2290001098136,新規,0,2022-07-07,2022-07-07,株式会社ジョウシン,,株式会社,福岡県,朝倉市,杷木久喜宮８４８番地６,,40,228,8381514,,,,,,,2022-07-07,1,,,,,ジョウシン,0
457,2290001098219,新規,0,2022-07-07,2022-07-07,株式会社ＡＭＡＳＵ,,株式会社,福岡県,飯塚市,忠隈２４９－５,,40,205,8200071,,,,,,,2022-07-07,1,,,,,アマス,0
462,2310001017943,新規,0,2022-07-07,2022-07-07,株式会社ミスズアグリ西海,,株式会社,長崎県,西海市,西彼町八木原郷２１番地２,,42,212,8513423,,,,,,,2022-07-07,1,,,,,ミスズアグリサイカイ,0
463,2320001019187,新規,0,2022-07-07,2022-07-07,株式会社別府塗装工業,,株式会社,大分県,別府市,駅前本町３番５号,,44,202,8740934,,,,,,,2022-07-07,1,,,,,ベップトソウコウギョウ,0
470,2360001030652,新規,0,2022-07-07,2022-07-07,ＳＭＳ株式会社,,株式会社,沖縄県,浦添市,城間４丁目３３－３－３０１,,47,208,9012133,,,,,,,2022-07-07,1,,,,,,0
475,2370003005759,新規,0,2022-07-07,2022-07-07,平戸産業合同会社,,合同会社,宮城県,柴田郡大河原町,大谷字稗田前１１番地１１,,04,321,9891201,,,,,,,2022-07-07,1,,,,,ヒラトサンギョウ,0
477,2380001032952,新規,0,2022-07-07,2022-07-07,株式会社ビーエス,,株式会社,福島県,岩瀬郡天栄村,大字飯豊字春日山１６番地１２,,07,344,9620512,,,,,,,2022-07-07,1,,,,,ビーエス,0
478,2380001032960,新規,0,2022-07-07,2022-07-07,株式会社Ａｒｔ　Ｍａｒｋｅｔｉｎｇ　Ｊａｐａｎ,,株式会社,福島県,相馬市,中村字川沼２７３番地,,07,209,9760042,,,,,,,2022-07-07,1,,,,,アートマーケティングジャパン,0
483,2410001013230,新規,0,2022-07-07,2022-07-07,株式会社マルゴ,,株式会社,秋田県,男鹿市,船川港比詰字餅ケ沢２９－１１,,05,206,0100502,,,,,,,2022-07-07,1,,,,,マルゴ,0
488,2470001019148,新規,0,2022-07-07,2022-07-07,株式会社ポライトカインド,,株式会社,香川県,高松市,天神前１０番５号高松セントラルスカイビル３階,,37,201,7600018,,,,,,,2022-07-07,1,,,,,ポライトカインド,0
494,2500001024326,新規,0,2022-07-07,2022-07-07,株式会社豪企画,,株式会社,愛媛県,松山市,北久米町３０８番地４,,38,201,7900923,,,,,,,2022-07-07,1,,,,,ゴウキカク,0
498,2700150108644,新規,0,2022-07-07,2022-05-12,ＫＵＭＡ　りとぴあくらぶ,,その他,大阪府,寝屋川市,成田東が丘４０－１９,,27,215,5720002,,,,,,,2022-05-12,1,,,,,クマリトピアクラブ,0
499,2700150109320,新規,0,2022-07-07,2022-06-09,「三浦章宏ヴァイオリンリサイタル」実行委員会,,その他,東京都,世田谷区,桜１丁目３１－８チェリーガーデン壱番館３１３,,13,112,1560053,,,,,,,2022-06-09,1,,,,,ミウラアキヒロヴアイオリンリサイタルジツコウイインカイ,0
500,2700150109808,新規,0,2022-07-07,2022-06-15,総合芸能センターキャッチ,,その他,大阪府,柏原市,円明町６－１５シャインエメラルド２０２,,27,221,5820027,,,,,,,2022-06-15,1,,,,,ソウゴウゲイノウセンターキヤツチ,0
501,2700150110162,新規,0,2022-07-07,2022-06-21,ムジークフェラインＡＳＡＭＡ,,その他,長野県,小諸市,大字柏木４９１－６７,,20,208,3840055,,,,,,,2022-06-21,1,,,,,ムジークフエラインアサマ,0
508,3010001227778,新規,0,2022-07-07,2022-07-07,株式会社ＣＴＤコンサルティング,,株式会社,東京都,中央区,新富１丁目４番１号ウィンド新富ビル２Ｆ,,13,102,1040041,,,,,,,2022-07-07,1,,,,,シーティーディーコンサルティング,0
509,3010001227803,新規,0,2022-07-07,2022-07-07,株式会社ｆａｍ　ｄｉｎｉｎｇ,,株式会社,東京都,千代田区,神田練塀町３番１２号富士ソフト秋葉原ビル１Ｆ,,13,101,1010022,,,,,,,2022-07-07,1,,,,,ファムダイニング,0
510,3010001227836,新規,0,2022-07-07,2022-07-07,櫻アドバイザリー株式会社,,株式会社,東京都,千代田区,一番町３番地１０号,,13,101,1020082,,,,,,,2022-07-07,1,,,,,サクラアドバイザリー,0
511,3010001227869,新規,0,2022-07-07,2022-07-07,株式会社ＹＨＴＧ,,株式会社,東京都,千代田区,九段南１丁目５番６号りそな九段ビル５階ＫＳフロア,,13,101,1020074,,,,,,,2022-07-07,1,,,,,ワイエイチティージー,0
512,3010001227910,新規,0,2022-07-07,2022-07-07,ビズチェーン株式会社,,株式会社,東京都,千代田区,麹町１丁目１０番地１３アルシュ麹町６０１,,13,101,1020083,,,,,,,2022-07-07,1,,,,,ビズチェーン,0
513,3010001227927,新規,0,2022-07-07,2022-07-07,株式会社ひとまちコーポレーション,,株式会社,東京都,千代田区,九段北１丁目１２－３井門九段北ビル４Ｆ,,13,101,1020073,,,,,,,2022-07-07,1,,,,,ヒトマチコーポレーション,0
515,3010003038075,新規,0,2022-07-07,2022-07-07,合同会社スター,,合同会社,東京都,千代田区,内神田３丁目１０－３神田ロイヤルビル４階,,13,101,1010047,,,,,,,2022-07-07,1,,,,,スター,0
521,3010401168325,新規,0,2022-07-07,2022-07-07,株式会社東風,,株式会社,東京都,港区,北青山２丁目１２－４２秀和第２北青山レジデンス４０１,,13,103,1070061,,,,,,,2022-07-07,1,,,,,コチ,0
524,3010403028031,新規,0,2022-07-07,2022-07-07,マベリコム合同会社,,合同会社,東京都,港区,南青山３丁目８番４０号青山センタービル２Ｆ,,13,103,1070062,,,,,,,2022-07-07,1,,,,,マベリコム,0
525,3010403028048,新規,0,2022-07-07,2022-07-07,合同会社ＢＥＲＵＮ,,合同会社,東京都,港区,浜松町２丁目２番１５号浜松町ダイヤビル２Ｆ,,13,103,1050013,,,,,,,2022-07-07,1,,,,,ベルン,0
526,3010405021174,新規,0,2022-07-07,2022-07-07,一般社団法人シルバーリーフ,,その他の設立登記法人,東京都,港区,虎ノ門３丁目２２番１０－２０１号,,13,103,1050001,,,,,,,2022-07-07,1,,,,,シルバーリーフ,0
527,3010601061412,新規,0,2022-07-07,2022-07-07,株式会社ファイブ・エイト,,株式会社,東京都,墨田区,太平３丁目１１番１号,,13,107,1300012,,,,,,,2022-07-07,1,,,,,ファイブエイト,0
528,3010601061429,新規,0,2022-07-07,2022-07-07,株式会社押上容器,,株式会社,東京都,墨田区,押上３丁目２２番８号,,13,107,1310045,,,,,,,2022-07-07,1,,,,,オシアゲヨウキ,0
530,3010701042915,新規,0,2022-07-07,2022-07-07,株式会社ＩＴＡＬＬ,,株式会社,東京都,品川区,西五反田３丁目１５番６号,,13,109,1410031,,,,,,,2022-07-07,1,,,,,イタール,0
531,3010803004219,新規,0,2022-07-07,2022-07-07,Ｋ‐１３合同会社,,合同会社,東京都,大田区,東矢口２丁目４－７,,13,111,1460094,,,,,,,2022-07-07,1,,,,,,0
533,3010901051179,新規,0,2022-07-07,2022-07-07,株式会社東京ＬＩＶＩＮＧ,,株式会社,東京都,世田谷区,三軒茶屋１丁目３５番３号,,13,112,1540024,,,,,,,2022-07-07,1,,,,,トウキョウリビング,0
534,3010901051187,新規,0,2022-07-07,2022-07-07,株式会社フォースピーク,,株式会社,東京都,世田谷区,代田２丁目３６番２号,,13,112,1550033,,,,,,,2022-07-07,1,,,,,フォースピーク,0
538,3011001148469,新規,0,2022-07-07,2022-07-07,株式会社たこやき,,株式会社,東京都,目黒区,下目黒１丁目６番５－６０２号,,13,110,1530064,,,,,,,2022-07-07,1,,,,,タコヤキ,0
539,3011001148485,新規,0,2022-07-07,2022-07-07,株式会社Ｍｏｍｅｎｔｏｒ,,株式会社,東京都,渋谷区,円山町２８番１号渋谷道玄坂スカイビル１１Ｆ,,13,113,1500044,,,,,,,2022-07-07,1,,,,,モーメンター,0
540,3011001148493,新規,0,2022-07-07,2022-07-07,株式会社篠田企画,,株式会社,東京都,目黒区,下目黒２丁目２０番１５号,,13,110,1530064,,,,,,,2022-07-07,1,,,,,シノダキカク,0
541,3011001148543,新規,0,2022-07-07,2022-07-07,エステナビューティコスメ株式会社,,株式会社,東京都,渋谷区,神宮前６丁目２３番４号桑野ビル２階,,13,113,1500001,,,,,,,2022-07-07,1,,,,,エステナビューティコスメ,0
542,3011003014974,新規,0,2022-07-07,2022-07-07,合同会社風狂,,合同会社,東京都,渋谷区,渋谷１丁目１５―１２ＬＡＩＤＯＵＴＳＨＩＢＵＹＡ２０４,,13,113,1500002,,,,,,,2022-07-07,1,,,,,フウキョウ,0
548,3011101099406,新規,0,2022-07-07,2022-07-07,株式会社アクシオンワースデザイン,,株式会社,東京都,新宿区,西早稲田２丁目４－２６昌平黌ビル６階,,13,104,1690051,,,,,,,2022-07-07,1,,,,,アクシオンワースデザイン,0
552,3011103011938,新規,0,2022-07-07,2022-07-07,合同会社Ｅｍｏｔｉｏｎ　Ｓｐａｃｅ,,合同会社,東京都,新宿区,馬場下町１０番地早稲田レストハイツ７０３,,13,104,1620045,,,,,,,2022-07-07,1,,,,,エモーションスペース,0
553,3011301027918,新規,0,2022-07-07,2022-07-07,恩野商事株式会社,,株式会社,東京都,杉並区,成田東５丁目５番１６号,,13,115,1660015,,,,,,,2022-07-07,1,,,,,オンノショウジ,0
554,3011401024385,新規,0,2022-07-07,2022-07-07,株式会社ＰｉｃＦｏｏｄ,,株式会社,東京都,板橋区,大山東町６０番１５号大島ビル２Ｆ,,13,119,1730014,,,,,,,2022-07-07,1,,,,,ピクフード,0
563,3011801040949,新規,0,2022-07-07,2022-07-07,株式会社酒井美創,,株式会社,東京都,足立区,谷中３丁目３番５号,,13,121,1200006,,,,,,,2022-07-07,1,,,,,サカイビソウ,0
564,3012301013049,新規,0,2022-07-07,2022-07-07,株式会社ＬＩＢ　ＦＡＣＴＯＲＹ,,株式会社,東京都,町田市,原町田６丁目２４－１０,,13,209,1940013,,,,,,,2022-07-07,1,,,,,リブファクトリー,0
568,3012401039365,新規,0,2022-07-07,2022-07-07,株式会社Ｎｏｂｌｅ　Ｌｅａｆ,,株式会社,東京都,小金井市,中町３丁目１５番１７号,,13,210,1840012,,,,,,,2022-07-07,1,,,,,ノーブルリーフ,0
569,3012401039373,新規,0,2022-07-07,2022-07-07,株式会社パンチョ,,株式会社,東京都,武蔵野市,吉祥寺本町２丁目５番１０号,,13,203,1800004,,,,,,,2022-07-07,1,,,,,パンチョ,0
570,3012401039381,新規,0,2022-07-07,2022-07-07,株式会社Ｌ３,,株式会社,東京都,府中市,寿町１丁目４番地の１７府中寿ビル５０１,,13,206,1830056,,,,,,,2022-07-07,1,,,,,エルスリー,0
572,3012403005472,新規,0,2022-07-07,2022-07-07,合同会社ＶＩＳＴＡ,,合同会社,東京都,小金井市,貫井北町５丁目１１番２３号,,13,210,1840015,,,,,,,2022-07-07,1,,,,,ヴィスタ,0
574,3013301049355,新規,0,2022-07-07,2022-07-07,株式会社セキュビット,,株式会社,東京都,豊島区,高松２丁目１５－３,,13,116,1710042,,,,,,,2022-07-07,1,,,,,セキュビット,0
581,3020001147100,新規,0,2022-07-07,2022-07-07,株式会社ＤＣＸ．ＯＲＩＧＩＮ,,株式会社,神奈川県,横浜市港南区,笹下６丁目３８－２－３,,14,111,2340052,,,,,,,2022-07-07,1,,,,,ディシエクスオリジン,0
582,3020001147232,新規,0,2022-07-07,2022-07-07,日本スマイル株式会社,,株式会社,神奈川県,川崎市川崎区,東扇島２４Ｄ棟６号,,14,131,2100869,,,,,,,2022-07-07,1,,,,,ニホンスマイル,0
583,3020001147249,新規,0,2022-07-07,2022-07-07,株式会社ソーレ,,株式会社,神奈川県,川崎市川崎区,東田町１０番地１５、１Ｆ,,14,131,2100005,,,,,,,2022-07-07,1,,,,,ソーレ,0
590,3021001076446,新規,0,2022-07-07,2022-07-07,株式会社島野興業,,株式会社,神奈川県,茅ヶ崎市,行谷１００４番地１,,14,207,2530007,,,,,,,2022-07-07,1,,,,,シマノコウギョウ,0
594,3030001149062,新規,0,2022-07-07,2022-07-07,株式会社トゥーファイブ,,株式会社,埼玉県,さいたま市見沼区,深作３丁目１４番地４０,,11,104,3370003,,,,,,,2022-07-07,1,,,,,トゥーファイブ,0
595,3030001149079,新規,0,2022-07-07,2022-07-07,株式会社マルＫ,,株式会社,埼玉県,越谷市,蒲生３丁目１５番３号,,11,222,3430838,,,,,,,2022-07-07,1,,,,,マルケー,0
602,3040001124056,新規,0,2022-07-07,2022-07-07,株式会社Ｅｎｎｏｖａｔｉｏｎ,,株式会社,千葉県,松戸市,古ケ崎７０－２０１,,12,207,2710068,,,,,,,2022-07-07,1,,,,,エノベーション,0
603,3040001124080,新規,0,2022-07-07,2022-07-07,株式会社千代田不動産,,株式会社,千葉県,千葉市若葉区,千城台東４丁目１９番２棟３０１号,,12,104,2640002,,,,,,,2022-07-07,1,,,,,チヨダフドウサン,0
611,3050005013106,新規,0,2022-07-07,2022-07-07,一般社団法人土浦駐車場駐輪場研究会,,その他の設立登記法人,茨城県,土浦市,川口１丁目１１番５号,,08,203,3000033,,,,,,,2022-07-07,1,,,,,ツチウラチュウシャジョウチュウリンジョウケンキュウカイ,0
613,3060001035053,新規,0,2022-07-07,2022-07-07,株式会社ＩＯ　ＴＥＣＨ,,株式会社,栃木県,足利市,八椚町１４３番地３,,09,202,3260015,,,,,,,2022-07-07,1,,,,,アイオーテック,0
615,3060003004130,新規,0,2022-07-07,2022-07-07,ＭＩＮＨ　ＨＡＮ合同会社,,合同会社,栃木県,宇都宮市,馬場通り２丁目３番９号,,09,201,3200026,,,,,,,2022-07-07,1,,,,,ミンハン,0
616,3070001039417,新規,0,2022-07-07,2022-07-07,匠ｗｅｌｄｉｎｇ　ｓｕｐｐｏｒｔ＆ｈｏｂｂｙ　ｂａｓｅ株式会社,,株式会社,群馬県,高崎市,吉井町黒熊３０２番地１,,10,202,3702112,,,,,,,2022-07-07,1,,,,,タクミウェルディングサポートアンドホビーベース,0
620,3080001025069,新規,0,2022-07-07,2022-07-07,株式会社相川組,,株式会社,静岡県,静岡市駿河区,青木８１７番地の２,,22,102,4210134,,,,,,,2022-07-07,1,,,,,アイカワグミ,0
626,3100001035503,新規,0,2022-07-07,2022-07-07,株式会社ＳＴＫ興業,,株式会社,長野県,小県郡長和町,古町６６８番地２,,20,350,3860603,,,,,,,2022-07-07,1,,,,,エスティーケーコウギョウ,0
627,3110001036806,新規,0,2022-07-07,2022-07-07,株式会社篠宮農場,,株式会社,新潟県,上越市,大字小猿屋５１７番地,,15,222,9420055,,,,,,,2022-07-07,1,,,,,シノミヤノウジョウ,0
628,3110003004810,新規,0,2022-07-07,2022-07-07,合同会社みどり,,合同会社,新潟県,新潟市秋葉区,新津４５３１番地２,,15,105,9560031,,,,,,,2022-07-07,1,,,,,ミドリ,0
637,3120001247121,新規,0,2022-07-07,2022-07-07,株式会社Ｙマネジメント,,株式会社,大阪府,枚方市,菊丘町３５番４３号,,27,210,5730091,,,,,,,2022-07-07,1,,,,,ワイマネジメント,0
638,3120001247229,新規,0,2022-07-07,2022-07-07,株式会社ジュムーン,,株式会社,大阪府,大阪市港区,港晴４丁目２番３号,,27,107,5520023,,,,,,,2022-07-07,1,,,,,ジュムーン,0
641,3120003022019,新規,0,2022-07-07,2022-07-07,合同会社ほがらか,,合同会社,大阪府,寝屋川市,河北中町２番３２号,,27,215,5720816,,,,,,,2022-07-07,1,,,,,ホガラカ,0
645,3120903004215,新規,0,2022-07-07,2022-07-07,合同会社ＧｉＵ,,合同会社,大阪府,吹田市,山田西１丁目２８番Ａ１５－３０２号,,27,205,5650824,,,,,,,2022-07-07,1,,,,,ジーアイユー,0
646,3120903004223,新規,0,2022-07-07,2022-07-07,合同会社森垣産業,,合同会社,大阪府,豊中市,東豊中町３丁目１１１番地の７,,27,203,5600003,,,,,,,2022-07-07,1,,,,,モリガキサンギョウ,0
647,3120905006341,新規,0,2022-07-07,2022-07-07,一般財団法人後見あしすと‐アルファ,,その他の設立登記法人,大阪府,高槻市,上田辺町３番２９号,,27,207,5690805,,,,,,,2022-07-07,1,,,,,コウケンアシストアルファ,0
652,3140003017875,新規,0,2022-07-07,2022-07-07,合同会社はち,,合同会社,兵庫県,神戸市灘区,稗原町２丁目２－２１ミレフィールド六甲道３階西,,28,102,6570054,,,,,,,2022-07-07,1,,,,,ハチ,0
653,3140005026230,新規,0,2022-07-07,2022-07-07,一般社団法人Ａｍｏｕｒ,,その他の設立登記法人,兵庫県,尼崎市,西御園町１１９番地３,,28,202,6600868,,,,,,,2022-07-07,1,,,,,アムール,0
655,3150001025672,新規,0,2022-07-07,2022-07-07,大和流スイーツ株式会社,,株式会社,奈良県,奈良市,下三条町４３番地１,,29,201,6308236,,,,,,,2022-07-07,1,,,,,ヤマトリュウスイーツ,0
656,3150005009408,新規,0,2022-07-07,2022-07-07,社会保険労務士法人グッド・フェイス・パートナーズ,,その他の設立登記法人,奈良県,奈良市,西大寺東町１丁目６番６号,,29,201,6310821,,,,,,,2022-07-07,1,,,,,グッドフェイスパートナーズ,0
659,3160001024335,新規,0,2022-07-07,2022-07-07,株式会社ユウセイ,,株式会社,滋賀県,湖南市,サイドタウン１丁目３番１０号,,25,211,5203244,,,,,,,2022-07-07,1,,,,,ユウセイ,0
670,3180001152010,新規,0,2022-07-07,2022-07-07,ＭＳコンサルティング株式会社,,株式会社,愛知県,名古屋市中村区,日ノ宮町３丁目１２８番地,,23,105,4530823,,,,,,,2022-07-07,1,,,,,エムエスコンサルティング,0
671,3180001152027,新規,0,2022-07-07,2022-07-07,株式会社Ｓａｎｊｅｔ,,株式会社,愛知県,一宮市,起字東茜屋７５,,23,203,4940006,,,,,,,2022-07-07,1,,,,,サンジェット,0
672,3180001152118,新規,0,2022-07-07,2022-07-07,商品企画考房株式会社,,株式会社,愛知県,長久手市,坊の後１０１５番地,,23,238,4801168,,,,,,,2022-07-07,1,,,,,ショウヒンキカクコウボウ,0
680,3190001029562,新規,0,2022-07-07,2022-07-07,株式会社ＣＯＮＥＴ,,株式会社,三重県,松阪市,大黒田町１６１２番地７,,24,204,5150063,,,,,,,2022-07-07,1,,,,,コネット,0
681,3190001029570,新規,0,2022-07-07,2022-07-07,株式会社藤井,,株式会社,三重県,名張市,西原町２２６４番地６,,24,208,5180603,,,,,,,2022-07-07,1,,,,,フジイ,0
682,3190001029587,新規,0,2022-07-07,2022-07-07,株式会社ｅｎ　ｐｌａｎｎｉｎｇ,,株式会社,三重県,四日市市,西浦１丁目７番７号尾西ビル２階,,24,202,5100071,,,,,,,2022-07-07,1,,,,,エンプランニング,0
683,3190003004035,新規,0,2022-07-07,2022-07-07,合同会社Ｙ．ＴＥＣ,,合同会社,三重県,津市,久居二ノ町１７０８番地１,,24,201,5141121,,,,,,,2022-07-07,1,,,,,ワイテック,0
684,3200001040253,新規,0,2022-07-07,2022-07-07,株式会社ａｏ,,株式会社,岐阜県,可児市,下恵土６３２番地４,,21,214,5090203,,,,,,,2022-07-07,1,,,,,エーオー,0
690,3210001018983,新規,0,2022-07-07,2022-07-07,ＨＡＩＲ　ＡＧＥ株式会社,,株式会社,福井県,勝山市,旭町２丁目４番１号,,18,206,9110803,,,,,,,2022-07-07,1,,,,,ヘアーエイジ,0
691,3210001018991,新規,0,2022-07-07,2022-07-07,株式会社Ｓｈｏｐｐｉｎｇ　ＧＯ,,株式会社,福井県,敦賀市,呉竹町２丁目３番１１号,,18,202,9140802,,,,,,,2022-07-07,1,,,,,ショッピングゴー,0
693,3220001024931,新規,0,2022-07-07,2022-07-07,株式会社Ｌ．Ｔ．Ｋ,,株式会社,石川県,金沢市,武蔵町１３番２０号,,17,201,9200855,,,,,,,2022-07-07,1,,,,,エルティーケー,0
694,3220005008682,新規,0,2022-07-07,2022-07-07,特定非営利活動法人北陸空き家問題相談センター,,その他の設立登記法人,石川県,金沢市,みずき３丁目６０番地,,17,201,9200201,,,,,,,2022-07-07,1,,,,,ホクリクアキヤモンダイソウダンセンター,0
700,3240001060025,新規,0,2022-07-07,2022-07-07,株式会社エスティホールディングス,,株式会社,広島県,広島市南区,段原南１丁目３番５３号,,34,103,7320814,,,,,,,2022-07-07,1,,,,,エスティホールディングス,0
706,3250003003113,新規,0,2022-07-07,2022-07-07,ミートショップまる合同会社,,合同会社,山口県,周南市,大字久米３２２０,,35,215,7450801,,,,,,,2022-07-07,1,,,,,ミートショップマル,0
711,3270001008574,新規,0,2022-07-07,2022-07-07,株式会社渡邊組,,株式会社,鳥取県,米子市,両三柳７４５番地４,,31,202,6830853,,,,,,,2022-07-07,1,,,,,ワタナベグミ,0
712,3270003001420,新規,0,2022-07-07,2022-07-07,合同会社Ｙ・Ｓ．ｃｏｎｎｅｃＴ,,合同会社,鳥取県,鳥取市,秋里７３７番地１,,31,201,6800902,,,,,,,2022-07-07,1,,,,,ワイエスコネクト,0
714,3280001008739,新規,0,2022-07-07,2022-07-07,株式会社ＭＩＲＡＩＹＡ,,株式会社,島根県,出雲市,白枝町１１７０番地１,,32,203,6930006,,,,,,,2022-07-07,1,,,,,ミライヤ,0
717,3290001098119,新規,0,2022-07-07,2022-07-07,株式会社豊昇プランテック,,株式会社,福岡県,福岡市中央区,天神２丁目３番１０号天神パインクレスト７１９号,,40,133,8100001,,,,,,,2022-07-07,1,,,,,ホウショウプランテック,0
718,3290001098226,新規,0,2022-07-07,2022-07-07,株式会社ＴＸ　ａｒｇｅｎｔ,,株式会社,福岡県,福岡市中央区,天神２丁目３－１０天神パインクレスト７１９号,,40,133,8100001,,,,,,,2022-07-07,1,,,,,ティーエックスエージェント,0
725,3290805009568,新規,0,2022-07-07,2022-07-07,司法書士法人アドボカシー法務事務所,,その他の設立登記法人,福岡県,遠賀郡岡垣町,松ケ台４丁目１６番１２号,,40,383,8114214,,,,,,,2022-07-07,1,,,,,アドボカシーホウムジムショ,0
730,3320001019186,新規,0,2022-07-07,2022-07-07,株式会社別府クロス工業,,株式会社,大分県,別府市,駅前本町３番５号,,44,202,8740934,,,,,,,2022-07-07,1,,,,,ベップクロスコウギョウ,0
736,3340001024878,新規,0,2022-07-07,2022-07-07,株式会社建真産業,,株式会社,鹿児島県,南さつま市,加世田内山田３０５１番地２,,46,220,8970004,,,,,,,2022-07-07,1,,,,,ケンシンサンギョウ,0
737,3360001030668,新規,0,2022-07-07,2022-07-07,株式会社Ｆｕｌｔｏ,,株式会社,沖縄県,うるま市,字江洲２１０５番地２３,,47,213,9042244,,,,,,,2022-07-07,1,,,,,フルト,0
738,3360003012136,新規,0,2022-07-07,2022-07-07,合同会社Ｆｕｌｌ　Ｖｏｉｃｅ,,合同会社,沖縄県,那覇市,繁多川４丁目９番９号,,47,201,9020071,,,,,,,2022-07-07,1,,,,,フルボイス,0
741,3380001032943,新規,0,2022-07-07,2022-07-07,株式会社一成,,株式会社,福島県,いわき市,小島町１丁目２番地の７,,07,204,9738411,,,,,,,2022-07-07,1,,,,,イッセイ,0
742,3380001032951,新規,0,2022-07-07,2022-07-07,株式会社Ｊ‐ｓｔｙｌｅ,,株式会社,福島県,会津若松市,東山町大字石山字院内２６９番地,,07,202,9650813,,,,,,,2022-07-07,1,,,,,ジェイスタイル,0
745,3400003002958,新規,0,2022-07-07,2022-07-07,合同会社ＨＩＲＯ,,合同会社,岩手県,下閉伊郡山田町,長崎２丁目８番地１４,,03,482,0281351,,,,,,,2022-07-07,1,,,,,ヒロ,0
763,3470001019139,新規,0,2022-07-07,2022-07-07,株式会社おあいこ,,株式会社,香川県,善通寺市,与北町３２２３番地１,,37,204,7650040,,,,,,,2022-07-07,1,,,,,オアイコ,0
764,3470003002209,新規,0,2022-07-07,2022-07-07,アトリエレトン合同会社,,合同会社,香川県,高松市,西山崎町３４３番地８,,37,201,7618045,,,,,,,2022-07-07,1,,,,,アトリエレトン,0
774,3700150109583,新規,0,2022-07-07,2022-06-14,劇団ＷＡＯ！,,その他,大阪府,大阪市中央区,北久宝寺町４丁目３－１２小原ビル６０１,,27,128,5410057,,,,,,,2022-06-14,1,,,,,ゲキダンワオ,0
775,3700150109600,新規,0,2022-07-07,2022-06-14,日本エアロゾル学会,,その他,東京都,新宿区,山吹町３５８－５,,13,104,1620801,,,,,,,2022-06-14,1,,,,,ニホンエアロゾルガツカイ,0
776,3700150109988,新規,0,2022-07-07,2022-06-17,埼玉県立川越工業高等学校　後援会,,その他,埼玉県,川越市,西小仙波町２丁目２８－１,,11,201,3500035,,,,,,,2022-06-17,1,,,,,サイタマケンリツカワゴエコウギヨウコウトウガツコウコウエンカイ,0
777,3700150109996,新規,0,2022-07-07,2022-06-17,劇団ＰＩＳ★ＴＯＬ,,その他,東京都,中野区,野方４丁目３５－１１パークサイドヴィラ１０３号,,13,114,1650027,,,,,,,2022-06-17,1,,,,,ゲキダンピストル,0
778,3700150110038,新規,0,2022-07-07,2022-06-17,Ｅｎｓｅｍｂｌｅ　Ｃｌａｓｓｉｃａ　Ｚｕｓｈｉ,,その他,神奈川県,逗子市,久木１丁目６－２７,,14,208,2490001,,,,,,,2022-06-17,1,,,,,アンサンブルクラシカズシ,0
779,3700150110079,新規,0,2022-07-07,2022-06-20,関ケ原町ソバ生産組合,,その他,岐阜県,不破郡関ケ原町,大字関ケ原８９４－５８,,21,362,5031501,,,,,,,2022-06-20,1,,,,,セキガハラチヨウソバセイサンクミアイ,0
780,3700150110293,新規,0,2022-07-07,2022-06-22,鼓舞志座,,その他,大阪府,泉佐野市,長滝１４９４－５,,27,213,5980034,,,,,,,2022-06-22,1,,,,,コブシザ,0
781,3700150110327,新規,0,2022-07-07,2022-06-23,グループ響,,その他,大阪府,大阪市福島区,海老江３丁目１３－３,,27,103,5530001,,,,,,,2022-06-23,1,,,,,グループヒビキ,0
782,3700150110418,新規,0,2022-07-07,2022-06-27,ＧＡＲＭＯＳＨＫＡ,,その他,神奈川県,横浜市青葉区,あざみ野１丁目１２－１３クリスタルハイツ４０２,,14,117,2250011,,,,,,,2022-06-27,1,,,,,ガルモーシカ,0
790,4010001227843,新規,0,2022-07-07,2022-07-07,株式会社ＩＮＡＳＥ,,株式会社,東京都,中央区,築地６丁目１８番４号,,13,102,1040045,,,,,,,2022-07-07,1,,,,,イナセ,0
791,4010001227892,新規,0,2022-07-07,2022-07-07,株式会社ＬＥＧＡ総合計画,,株式会社,東京都,千代田区,一番町１０番地８,,13,101,1020082,,,,,,,2022-07-07,1,,,,,リーガソウゴウケイカク,0
792,4010001227901,新規,0,2022-07-07,2022-07-07,株式会社アカウンティングマネジメント,,株式会社,東京都,千代田区,飯田橋１丁目４番８号アイルズＢＭビル,,13,101,1020072,,,,,,,2022-07-07,1,,,,,アカウンティングマネジメント,0
793,4010003038074,新規,0,2022-07-07,2022-07-07,合同会社シュール,,合同会社,東京都,千代田区,内神田３丁目１２－５渡辺住研ビル３階,,13,101,1010047,,,,,,,2022-07-07,1,,,,,シュール,0
794,4010105002168,新規,0,2022-07-07,2022-07-07,一般社団法人コモンフォレストジャパン,,その他の設立登記法人,東京都,八王子市,裏高尾町１３４３番地１,,13,201,1930841,,,,,,,2022-07-07,1,,,,,コモンフォレストジャパン,0
795,4010403028030,新規,0,2022-07-07,2022-07-07,合同会社福島太陽光発電所,,合同会社,東京都,港区,浜松町１丁目１９番５号瀧山ビル４階,,13,103,1050013,,,,,,,2022-07-07,1,,,,,フクシマタイヨウコウハツデンショ,0
798,4010501049052,新規,0,2022-07-07,2022-07-07,ＨＡＴＭＥ株式会社,,株式会社,東京都,台東区,池之端１丁目１番１５号南星上野ビル３Ｆ,,13,106,1100008,,,,,,,2022-07-07,1,,,,,ハットミー,0
799,4010503006646,新規,0,2022-07-07,2022-07-07,合同会社玉井興業,,合同会社,東京都,台東区,池之端２丁目１番３９号,,13,106,1100008,,,,,,,2022-07-07,1,,,,,タマイコウギョウ,0
802,4010601061436,新規,0,2022-07-07,2022-07-07,株式会社ＵＳＥＤ,,株式会社,東京都,墨田区,両国２丁目３番７－９０１号,,13,107,1300026,,,,,,,2022-07-07,1,,,,,ユーズド,0
803,4010601061444,新規,0,2022-07-07,2022-07-07,株式会社ＧＲＥＡＭ,,株式会社,東京都,江東区,東砂７丁目１７番１５－３０３号,,13,108,1360074,,,,,,,2022-07-07,1,,,,,グリーム,0
804,4010603009631,新規,0,2022-07-07,2022-07-07,合同会社優貫,,合同会社,東京都,江東区,東陽１丁目３１番３－１０１号,,13,108,1350016,,,,,,,2022-07-07,1,,,,,ユウキ,0
808,4010703006297,新規,0,2022-07-07,2022-07-07,合同会社Ｉｍａｇｅｏ,,合同会社,東京都,品川区,西中延３丁目１番７号,,13,109,1420054,,,,,,,2022-07-07,1,,,,,イマジオ,0
817,4011001148484,新規,0,2022-07-07,2022-07-07,株式会社ＫＩＮＯＭＡＭＡ,,株式会社,東京都,目黒区,碑文谷５丁目２番５号Ｔ＆Ａビル５階,,13,110,1520003,,,,,,,2022-07-07,1,,,,,キノママ,0
818,4011001148518,新規,0,2022-07-07,2022-07-07,株式会社モデラート,,株式会社,東京都,目黒区,大岡山１丁目２８番９号,,13,110,1520033,,,,,,,2022-07-07,1,,,,,モデラート,0
819,4011001148534,新規,0,2022-07-07,2022-07-07,株式会社ザ・リアルティ,,株式会社,東京都,渋谷区,恵比寿南１丁目２０番１５号,,13,113,1500022,,,,,,,2022-07-07,1,,,,,ザリアルティ,0
821,4011005009633,新規,0,2022-07-07,2022-07-07,一般社団法人Ｐｌａｙｆｉｅｌｄ,,その他の設立登記法人,東京都,渋谷区,道玄坂１丁目１０番８号渋谷道玄坂東急ビル２Ｆ－Ｃ,,13,113,1500043,,,,,,,2022-07-07,1,,,,,プレイフィールド,0
824,4011101099438,新規,0,2022-07-07,2022-07-07,ＧＬエンターテインメント株式会社,,株式会社,東京都,新宿区,歌舞伎町１丁目２３番１３号ＴＣ第３２大滝ビル３階,,13,104,1600021,,,,,,,2022-07-07,1,,,,,ジーエルエンターテインメント,0
825,4011101099454,新規,0,2022-07-07,2022-07-07,株式会社Ｌｉｎｋｒｙ,,株式会社,東京都,新宿区,西新宿３丁目３－１３西新宿水間ビル６Ｆ,,13,104,1600023,,,,,,,2022-07-07,1,,,,,リンクリー,0
826,4011103011953,新規,0,2022-07-07,2022-07-07,ＤｏＡＩ合同会社,,合同会社,東京都,新宿区,住吉町１４番６号ベルウッドビル１０２,,13,104,1620065,,,,,,,2022-07-07,1,,,,,ドゥエーアイ,0
831,4011301027917,新規,0,2022-07-07,2022-07-07,株式会社きずな,,株式会社,東京都,杉並区,高円寺南４丁目３０番１１号５０１号室第２日東ビル,,13,115,1660003,,,,,,,2022-07-07,1,,,,,キズナ,0
834,4011501028236,新規,0,2022-07-07,2022-07-07,株式会社ｂａｎｇｓ,,株式会社,東京都,北区,赤羽２丁目４番５号,,13,117,1150045,,,,,,,2022-07-07,1,,,,,バングス,0
835,4011503005217,新規,0,2022-07-07,2022-07-07,合同会社Ｓｙｎｃ　Ｄｅｓｉｇｎ,,合同会社,東京都,北区,堀船２丁目２４－３,,13,117,1140004,,,,,,,2022-07-07,1,,,,,シンクデザイン,0
838,4011603003640,新規,0,2022-07-07,2022-07-07,合同会社マイアム,,合同会社,東京都,練馬区,高松４丁目１４番８号,,13,120,1790075,,,,,,,2022-07-07,1,,,,,マイアム,0
842,4011801040964,新規,0,2022-07-07,2022-07-07,株式会社ＦｏｏＦ,,株式会社,東京都,葛飾区,柴又４丁目３５番１７号テラス新柴又２０２,,13,122,1250052,,,,,,,2022-07-07,1,,,,,フーフ,0
843,4012301013048,新規,0,2022-07-07,2022-07-07,マイティ・コンサルティング株式会社,,株式会社,東京都,町田市,忠生２丁目２６番９号,,13,209,1940035,,,,,,,2022-07-07,1,,,,,マイティコンサルティング,0
845,4012401039389,新規,0,2022-07-07,2022-07-07,株式会社アレス,,株式会社,東京都,武蔵野市,吉祥寺南町１丁目２８番８号,,13,203,1800003,,,,,,,2022-07-07,1,,,,,アレス,0
854,4020005015590,新規,0,2022-07-07,2022-07-07,協同組合ＮＡＣＡＭＡ,,その他の設立登記法人,神奈川県,横浜市都筑区,川向町８９０－１,,14,118,2240044,,,,,,,2022-07-07,1,,,,,ナカマ,0
856,4021001076429,新規,0,2022-07-07,2022-07-07,株式会社ティーアイメジャー,,株式会社,神奈川県,相模原市南区,相武台１丁目１６番１７号,,14,153,2520324,,,,,,,2022-07-07,1,,,,,ティーアイメジャー,0
857,4021001076445,新規,0,2022-07-07,2022-07-07,株式会社ＳＵＮ,,株式会社,神奈川県,横須賀市,大津町５丁目９番１６号１階,,14,201,2390808,,,,,,,2022-07-07,1,,,,,サン,0
861,4030001149020,新規,0,2022-07-07,2022-07-07,株式会社プロテア,,株式会社,埼玉県,本庄市,千代田３丁目２番１１号,,11,211,3670054,,,,,,,2022-07-07,1,,,,,プロテア,0
862,4030001149029,新規,0,2022-07-07,2022-07-07,株式会社アス,,株式会社,埼玉県,三郷市,早稲田４丁目２２番地１０,,11,237,3410018,,,,,,,2022-07-07,1,,,,,アス,0
863,4030001149061,新規,0,2022-07-07,2022-07-07,株式会社高松ブロック工業,00127136,株式会社,埼玉県,久喜市,原４５４番地１,,11,232,3460026,,,,,,,2022-07-07,1,,,,,タカマツブロックコウギョウ,0
864,4030001149078,新規,0,2022-07-07,2022-07-07,株式会社Ｔ．Ａ．Ｃ,,株式会社,埼玉県,三郷市,早稲田７丁目３番地１号棟１０３号,,11,237,3410018,,,,,,,2022-07-07,1,,,,,ティエーシー,0
865,4030001149094,新規,0,2022-07-07,2022-07-07,株式会社オズプランニング,,株式会社,埼玉県,和光市,白子１丁目２８番３４号,,11,229,3510101,,,,,,,2022-07-07,1,,,,,オズプランニング,0
867,4030003019725,新規,0,2022-07-07,2022-07-07,ＴＹＳリース合同会社,,合同会社,埼玉県,幸手市,北２丁目１４番４号,,11,240,3400111,,,,,,,2022-07-07,1,,,,,ティーワイエスリース,0
868,4030003019733,新規,0,2022-07-07,2022-07-07,合同会社エルイーカンパニー,,合同会社,埼玉県,鴻巣市,本町５丁目１番９号エクレール鴻巣６０４号室,,11,217,3650038,,,,,,,2022-07-07,1,,,,,エルイーカンパニー,0
869,4030003019758,新規,0,2022-07-07,2022-07-07,ブレーブハーツ合同会社,,合同会社,埼玉県,熊谷市,石原１２９５番地,,11,202,3600816,,,,,,,2022-07-07,1,,,,,ブレーブハーツ,0
870,4030005020912,新規,0,2022-07-07,2022-07-07,社会福祉法人翼希会,,その他の設立登記法人,埼玉県,さいたま市中央区,鈴谷６丁目１６８番１,,11,105,3380013,,,,,,,2022-07-07,1,,,,,ツバキカイ,0
881,4050001051331,新規,0,2022-07-07,2022-07-07,株式会社ｒａｎｔｏ,,株式会社,茨城県,古河市,上辺見２２２５番地,,08,204,3060234,,,,,,,2022-07-07,1,,,,,ラント,0
885,4060001035044,新規,0,2022-07-07,2022-07-07,株式会社サントスランチサービス,,株式会社,栃木県,佐野市,堀米町３８３４－８,,09,204,3270843,,,,,,,2022-07-07,1,,,,,サントスランチサービス,0
891,4070003004541,新規,0,2022-07-07,2022-07-07,合同会社ハシモト屋,,合同会社,群馬県,館林市,高根町１０００番地３１９,,10,207,3740074,,,,,,,2022-07-07,1,,,,,ハシモトヤ,0
895,4100001035502,新規,0,2022-07-07,2022-07-07,ＨＯＰＥ建築工房株式会社,,株式会社,長野県,長野市,安茂里小市３丁目３０番５号,,20,201,3800961,,,,,,,2022-07-07,1,,,,,ホープケンチクコウボウ,0
896,4110001036805,新規,0,2022-07-07,2022-07-07,株式会社ｔｈｅ　ＲＥＦＯＲＭＥＲ,,株式会社,新潟県,新潟市中央区,天神２丁目１番地２８アクシス駅南イースト２０３号,,15,103,9500917,,,,,,,2022-07-07,1,,,,,ザリフォーマー,0
904,4120001247194,新規,0,2022-07-07,2022-07-07,ＫＳＲカンパニー株式会社,,株式会社,大阪府,大阪市西区,北堀江１丁目１番７号,,27,106,5500014,,,,,,,2022-07-07,1,,,,,ケーエスアールカンパニー,0
905,4120001247236,新規,0,2022-07-07,2022-07-07,株式会社Ｔｈｉｎｋ,,株式会社,大阪府,大阪市住之江区,南港北１丁目３１番１７－１２０４号,,27,125,5590034,,,,,,,2022-07-07,1,,,,,シンク,0
911,4120901046209,新規,0,2022-07-07,2022-07-07,株式会社ＭＯＢＩＬＩＴＹ　ＪＡＰＡＮ,,株式会社,大阪府,箕面市,桜ケ丘２丁目３番３４号の５,,27,220,5620046,,,,,,,2022-07-07,1,,,,,モビリティジャパン,0
912,4120903004214,新規,0,2022-07-07,2022-07-07,健志合同会社,,合同会社,大阪府,茨木市,丑寅２丁目１番３９号の３,,27,211,5670877,,,,,,,2022-07-07,1,,,,,ケンシ,0
913,4122001036032,新規,0,2022-07-07,2022-07-07,Ｇｌａｎｚ株式会社,,株式会社,大阪府,大東市,氷野１丁目１６－４６,,27,218,5740062,,,,,,,2022-07-07,1,,,,,グランツ,0
915,4122003002370,新規,0,2022-07-07,2022-07-07,合同会社Ｐａｎｄｏｒａ,,合同会社,大阪府,東大阪市,中石切町３丁目３番１３号,,27,227,5798014,,,,,,,2022-07-07,1,,,,,パンドラ,0
920,4130005016520,新規,0,2022-07-07,2022-07-07,一般社団法人那瀾陀日本,,その他の設立登記法人,京都府,京都市左京区,上高野防山１番地７,,26,103,6060071,,,,,,,2022-07-07,1,,,,,ナランダニッポン,0
922,4140001126594,新規,0,2022-07-07,2022-07-07,株式会社オネスト,,株式会社,兵庫県,神戸市北区,有野町有野７２０－１,,28,109,6511312,,,,,,,2022-07-07,1,,,,,オネスト,0
926,4150003002727,新規,0,2022-07-07,2022-07-07,合同会社かのん,,合同会社,奈良県,五條市,須恵３丁目７番１３号,,29,207,6370005,,,,,,,2022-07-07,1,,,,,カノン,0
927,4150005009407,新規,0,2022-07-07,2022-07-07,社会保険労務士法人アシスト,,その他の設立登記法人,奈良県,奈良市,菅原東２丁目２９番１９号,,29,201,6310842,,,,,,,2022-07-07,1,,,,,アシスト,0
929,4160001024334,新規,0,2022-07-07,2022-07-07,株式会社モッズ,,株式会社,滋賀県,近江八幡市,若宮町５６４番地２,,25,204,5230034,,,,,,,2022-07-07,1,,,,,モッズ,0
930,4160001024342,新規,0,2022-07-07,2022-07-07,株式会社メタルヴィレッジ,,株式会社,滋賀県,草津市,野路３丁目２番１８号,,25,206,5250059,,,,,,,2022-07-07,1,,,,,メタルヴィレッジ,0
941,4180001152018,新規,0,2022-07-07,2022-07-07,Ｍｅｎｄｅｓ株式会社,,株式会社,愛知県,愛西市,本部田町茨塚７６番地１,,23,232,4960915,,,,,,,2022-07-07,1,,,,,メンデス,0
942,4180001152034,新規,0,2022-07-07,2022-07-07,株式会社渡辺ビル管理,,株式会社,愛知県,名古屋市北区,杉栄町５丁目１０８番地の２第６渡辺ビル７Ａ,,23,103,4620829,,,,,,,2022-07-07,1,,,,,ワタナベビルカンリ,0
943,4180001152042,新規,0,2022-07-07,2022-07-07,株式会社ＰｙＸｉｓ,,株式会社,愛知県,名古屋市西区,名駅２丁目３４番１７号セントラル名古屋１１０１号,,23,104,4510045,,,,,,,2022-07-07,1,,,,,ピクシス,0
944,4180001152059,新規,0,2022-07-07,2022-07-07,株式会社エムテク機工,,株式会社,愛知県,知多郡武豊町,字砂川２丁目９２番地４,,23,447,4702317,,,,,,,2022-07-07,1,,,,,エムテクキコウ,0
945,4180001152117,新規,0,2022-07-07,2022-07-07,株式会社サンクス,,株式会社,愛知県,春日井市,鳥居松町７丁目３１番３モア鳥居松２０５,,23,206,4860844,,,,,,,2022-07-07,1,,,,,サンクス,0
953,4190001029561,新規,0,2022-07-07,2022-07-07,サン浦島ホールディングス株式会社,,株式会社,三重県,鳥羽市,鳥羽３丁目７番７号,,24,211,5170011,,,,,,,2022-07-07,1,,,,,サンウラシマホールディングス,0
954,4190001029578,新規,0,2022-07-07,2022-07-07,株式会社近藤商店,,株式会社,三重県,桑名市,大字坂井２１２番地１４,,24,205,5110939,,,,,,,2022-07-07,1,,,,,コンドウショウテン,0
958,4200005013361,新規,0,2022-07-07,2022-07-07,一般社団法人一生涯サポートセンター岐阜,,その他の設立登記法人,岐阜県,本巣市,三橋１丁目６番地,,21,218,5010406,,,,,,,2022-07-07,1,,,,,イッショウガイサポートセンターギフ,0
960,4210001018990,新規,0,2022-07-07,2022-07-07,株式会社建善,,株式会社,福井県,坂井市,丸岡町一本田中１８番地,,18,210,9100253,,,,,,,2022-07-07,1,,,,,タテヨシ,0
963,4210003001532,新規,0,2022-07-07,2022-07-07,合同会社ＨＯＭＥＹ,,合同会社,福井県,福井市,種池町第３号３６番地,,18,201,9188031,,,,,,,2022-07-07,1,,,,,ホーミー,0
972,4240001060008,新規,0,2022-07-07,2022-07-07,株式会社ＲｅＣＲＳ,,株式会社,広島県,広島市中区,紙屋町１丁目６番９号,,34,101,7300031,,,,,,,2022-07-07,1,,,,,リクレス,0
973,4240001060057,新規,0,2022-07-07,2022-07-07,アミカルス株式会社,,株式会社,広島県,広島市西区,三滝本町１丁目２７番２－１１０２号,,34,104,7330802,,,,,,,2022-07-07,1,,,,,アミカルス,0
980,4250001019647,新規,0,2022-07-07,2022-07-07,株式会社ＡＮＥＬＡ,,株式会社,山口県,周南市,周陽１丁目３番１－１０１号,,35,215,7450823,,,,,,,2022-07-07,1,,,,,アネラ,0
982,4270001008581,新規,0,2022-07-07,2022-07-07,ＴＡＭＯＮ株式会社,,株式会社,鳥取県,米子市,彦名町４４７３番地２,,31,202,6830854,,,,,,,2022-07-07,1,,,,,タモン,0
985,4280005007488,新規,0,2022-07-07,2022-07-07,一般社団法人合板ＤＬ普及協会,,その他の設立登記法人,島根県,安来市,伯太町井尻２０４２番地,,32,206,6920213,,,,,,,2022-07-07,1,,,,,ゴウバンディーエルフキュウキョウカイ,0
987,4290001098068,新規,0,2022-07-07,2022-07-07,株式会社プランニング・アルファ,,株式会社,福岡県,小郡市,大板井６３７番地９０,,40,216,8380142,,,,,,,2022-07-07,1,,,,,プランニングアルファ,0
988,4290001098142,新規,0,2022-07-07,2022-07-07,株式会社ＩＰＰ,,株式会社,福岡県,久留米市,津福本町１７７９番地２６,,40,203,8300047,,,,,,,2022-07-07,1,,,,,アイピーピー,0
989,4290001098159,新規,0,2022-07-07,2022-07-07,株式会社コンセプト,,株式会社,福岡県,宗像市,冨地原１４８９番地,,40,220,8114154,,,,,,,2022-07-07,1,,,,,コンセプト,0
990,4290001098200,新規,0,2022-07-07,2022-07-07,株式会社豊工業,,株式会社,福岡県,福岡市南区,野多目５丁目１３番１５号,,40,134,8111347,,,,,,,2022-07-07,1,,,,,ユタカコウギョウ,0
991,4290001098217,新規,0,2022-07-07,2022-07-07,株式会社幸栄,,株式会社,福岡県,福岡市城南区,七隈７丁目３８番１５－２１６号,,40,136,8140133,,,,,,,2022-07-07,1,,,,,コウエイ,0
992,4290001098225,新規,0,2022-07-07,2022-07-07,株式会社レイバーエム,,株式会社,福岡県,福岡市西区,西の丘３丁目１７番５号,,40,135,8190046,,,,,,,2022-07-07,1,,,,,レイバーエム,0
994,4290005018740,新規,0,2022-07-07,2022-07-07,一般社団法人福岡県ソフトボール協会,,その他の設立登記法人,福岡県,福岡市博多区,東雲町４丁目２番１号,,40,132,8120871,,,,,,,2022-07-07,1,,,,,フクオカケンソフトボールキョウカイ,0
1001,4320001019185,新規,0,2022-07-07,2022-07-07,株式会社別府電気水道工業,,株式会社,大分県,別府市,駅前本町３番５号,,44,202,8740934,,,,,,,2022-07-07,1,,,,,ベップデンキスイドウコウギョウ,0
1002,4330001029919,新規,0,2022-07-07,2022-07-07,ＳＡＫＡＩＧＲＯＷＵＰ株式会社,,株式会社,熊本県,人吉市,紺屋町６７番地４,,43,203,8680003,,,,,,,2022-07-07,1,,,,,サカイグローアップ,0
1005,4360001030642,新規,0,2022-07-07,2022-07-07,株式会社Ｄｏ石垣島,,株式会社,沖縄県,石垣市,美崎町７番地１,,47,207,9070012,,,,,,,2022-07-07,1,,,,,ドゥイシガキジマ,0
1006,4360003012151,新規,0,2022-07-07,2022-07-07,Ｆａｉｔｈ合同会社,,合同会社,沖縄県,うるま市,みどり町５丁目１６番４号,,47,213,9042215,,,,,,,2022-07-07,1,,,,,フェイス,0
1012,4370003005765,新規,0,2022-07-07,2022-07-07,航和合同会社,,合同会社,宮城県,仙台市宮城野区,車町１０１番地の１,,04,102,9830863,,,,,,,2022-07-07,1,,,,,コウワ,0
1013,4380001032942,新規,0,2022-07-07,2022-07-07,株式会社エム・ワード,,株式会社,福島県,郡山市,清水台２丁目１０番１８号,,07,203,9638005,,,,,,,2022-07-07,1,,,,,エムワード,0
1014,4380001032950,新規,0,2022-07-07,2022-07-07,株式会社ヤナイ,,株式会社,福島県,いわき市,小名浜字吹松１４番地の１６,,07,204,9718101,,,,,,,2022-07-07,1,,,,,ヤナイ,0
1024,4410005006476,新規,0,2022-07-07,2022-07-07,医療法人鳩翔会,,その他の設立登記法人,秋田県,秋田市,南通亀の町５番７号,,05,201,0100011,,,,,,,2022-07-07,1,,,,,キュウショウカイ,0
1026,4430001047167,新規,0,2022-07-07,2022-07-07,株式会社伊藤木材店,,株式会社,北海道,岩見沢市,南町九条１丁目１番地,,01,210,0680809,,,,,,,2022-07-07,1,,,,,,0
1039,4450003002226,新規,0,2022-07-07,2022-07-07,合同会社Ｂｒａｍｅｔ,,合同会社,北海道,旭川市,春光三条７丁目６番２８号,,01,204,0700873,,,,,,,2022-07-07,1,,,,,ブラメット,0
1047,4470003002208,新規,0,2022-07-07,2022-07-07,未来図合同会社,,合同会社,香川県,高松市,円座町４９１番地,,37,201,7618044,,,,,,,2022-07-07,1,,,,,ミライズ,0
1049,4500001024332,新規,0,2022-07-07,2022-07-07,株式会社うおかつ,,株式会社,愛媛県,松山市,桑原４丁目１０番１０号,,38,201,7900911,,,,,,,2022-07-07,1,,,,,ウオカツ,0
1050,4700150088819,新規,0,2022-07-07,2018-05-16,下新城地区コミュニティセンター管理運営委員会,,その他,秋田県,秋田市,下新城笠岡字堰場１９３番地４,,05,201,0100145,,,,,,,2018-05-16,1,,,,,シモシンジヨウチクコミユニテイセンターカンリウンエイイインカイ,0
1051,4700150109046,新規,0,2022-07-07,2022-05-26,鳴門市地域公共交通活性化協議会,,その他,徳島県,鳴門市,撫養町南浜字東浜１７０,,36,202,7720003,,,,,,,2022-05-26,1,,,,,ナルトシチイキコウキヨウコウツウカツセイカキヨウギカイ,0
1052,4700150109500,新規,0,2022-07-07,2022-06-13,加東市社会福祉法人連絡協議会,,その他,兵庫県,加東市,社２６,,28,228,6731431,,,,,,,2022-06-13,1,,,,,カトウシシヤカイフクシホウジンレンラクキヨウギカイ,0
1053,4700150109814,新規,0,2022-07-07,2022-06-15,リビオ東京管理組合,,その他,東京都,千代田区,東神田１丁目８－４,,13,101,1010031,,,,,,,2022-06-15,1,,,,,リビオトウキヨウカンリクミアイ,0
1054,4700150110111,新規,0,2022-07-07,2022-06-20,北海道オホーツク地域等公共交通活性化協議会,,その他,北海道,網走市,北七条西３丁目北海道オホーツク総合振興局　地域政策課内,,01,211,0930077,,,,,,,2022-06-20,1,,,,,ホツカイドウオホーツクチイキトウコウキヨウコウツウカツセイカキヨウギカイ,0
1055,4700150110185,新規,0,2022-07-07,2022-06-21,ＦＯＲＭＯＳＡコンサート協会,,その他,東京都,江東区,塩浜２丁目５－２５－１０３,,13,108,1350043,,,,,,,2022-06-21,1,,,,,フオルモサコンサートキヨウカイ,0
1056,4700150110474,新規,0,2022-07-07,2022-06-27,ＭＵＳＩＣ　ＦＡＮ　Ｓ,,その他,神奈川県,横浜市中区,扇町１丁目１－２５キンガビル１Ｆ,,14,104,2310027,,,,,,,2022-06-27,1,,,,,ミユージツクフアンエス,0
1069,5010001227826,新規,0,2022-07-07,2022-07-07,株式会社ＢＵＺＺ　ＮＩＮＪＡ,,株式会社,東京都,中央区,晴海３丁目１０－１Ｄａｉｗａ晴海ビル２ＦＷｅＷｏｒｋ,,13,102,1040053,,,,,,,2022-07-07,1,,,,,バズニンジャ,0
1070,5010001227850,新規,0,2022-07-07,2022-07-07,ＴＴＡ株式会社,,株式会社,東京都,中央区,晴海３丁目１３番１－３４０６号,,13,102,1040053,,,,,,,2022-07-07,1,,,,,ティティエー,0
1071,5010001227909,新規,0,2022-07-07,2022-07-07,株式会社Ｍａｙ　Ｔｈｉｒｄ　Ｃａｐｉｔａｌ　Ｍａｎａｇｅｍｅｎｔ,,株式会社,東京都,文京区,小石川４丁目１０番６号,,13,105,1120002,,,,,,,2022-07-07,1,,,,,メイサードキャピタルマネジメント,0
1072,5010003038049,新規,0,2022-07-07,2022-07-07,ルミナス合同会社,,合同会社,東京都,千代田区,丸の内１丁目１１番１号,,13,101,1000005,,,,,,,2022-07-07,1,,,,,ルミナス,0
1073,5010003038073,新規,0,2022-07-07,2022-07-07,合同会社ダイヤ,,合同会社,東京都,千代田区,内神田３丁目８－９根本ビル２階,,13,101,1010047,,,,,,,2022-07-07,1,,,,,ダイヤ,0
1077,5010401168348,新規,0,2022-07-07,2022-07-07,ＳｕｐｅｒＹｅｌｌｏｗ株式会社,,株式会社,東京都,港区,芝浦２丁目１７番９号大友ビル２Ｆ－Ｃ,,13,103,1080023,,,,,,,2022-07-07,1,,,,,スーパーイエロー,0
1080,5010403028054,新規,0,2022-07-07,2022-07-07,合同会社シルバーリーフ,,合同会社,東京都,港区,虎ノ門３丁目２２番１０－２０１号,,13,103,1050001,,,,,,,2022-07-07,1,,,,,シルバーリーフ,0
1086,5010601061435,新規,0,2022-07-07,2022-07-07,株式会社東縁,,株式会社,東京都,墨田区,立花４丁目４番８－４０７号,,13,107,1310043,,,,,,,2022-07-07,1,,,,,トウエン,0
1087,5010601061443,新規,0,2022-07-07,2022-07-07,株式会社フィクターホールディングス,,株式会社,東京都,墨田区,文花２丁目１６番５号シ－アイマンションあずま百樹園４０１,,13,107,1310044,,,,,,,2022-07-07,1,,,,,フィクターホールディングス,0
1090,5010603009630,新規,0,2022-07-07,2022-07-07,Ｆｌｏｗｅｒ合同会社,,合同会社,東京都,江東区,豊洲４丁目１１番５号,,13,108,1350061,,,,,,,2022-07-07,1,,,,,フラワー,0
1094,5010901051177,新規,0,2022-07-07,2022-07-07,Ｈ＆Ｍコンサルティング株式会社,,株式会社,東京都,世田谷区,用賀２丁目４１番１８－２０２号,,13,112,1580097,,,,,,,2022-07-07,1,,,,,エイチアンドエムコンサルティング,0
1097,5011001148517,新規,0,2022-07-07,2022-07-07,株式会社Ｃａｓｔｏｒｄａｍ,,株式会社,東京都,渋谷区,恵比寿４丁目２０番３号恵比寿ガーデンプレイスタワー１８階,,13,113,1500013,,,,,,,2022-07-07,1,,,,,キャスターダム,0
1098,5011001148541,新規,0,2022-07-07,2022-07-07,株式会社ＴＯＮ,,株式会社,東京都,渋谷区,宇田川町１番１２－１１１５号,,13,113,1500042,,,,,,,2022-07-07,1,,,,,トン,0
1099,5011001148574,新規,0,2022-07-07,2022-07-07,株式会社Ｃｏｒｖｉｓ,,株式会社,東京都,目黒区,碑文谷５丁目２番５号Ｔ＆Ａビル５階,,13,110,1520003,,,,,,,2022-07-07,1,,,,,コルビス,0
1104,5011101099445,新規,0,2022-07-07,2022-07-07,株式会社ＳＳ,,株式会社,東京都,新宿区,新宿５丁目１０番１８号,,13,104,1600022,,,,,,,2022-07-07,1,,,,,エスエス,0
1108,5011301027908,新規,0,2022-07-07,2022-07-07,株式会社ＫＷＫ,,株式会社,東京都,杉並区,清水３丁目１１番２号,,13,115,1670033,,,,,,,2022-07-07,1,,,,,ケイダブリューケイ,0
1109,5011301027916,新規,0,2022-07-07,2022-07-07,株式会社Ｏｎｅ＆Ｏｎｌｙ,,株式会社,東京都,杉並区,松庵３丁目３９番１０号１Ｆ,,13,115,1670054,,,,,,,2022-07-07,1,,,,,ワンアンドオンリー,0
1112,5011401024383,新規,0,2022-07-07,2022-07-07,株式会社セイル,,株式会社,東京都,板橋区,小茂根４丁目２０番１７号,,13,119,1730037,,,,,,,2022-07-07,1,,,,,セイル,0
1122,5011601026089,新規,0,2022-07-07,2022-07-07,株式会社ＭＵＧＥＮ,,株式会社,東京都,練馬区,石神井町６丁目３２番１６号ベルテ楓１０１,,13,120,1770041,,,,,,,2022-07-07,1,,,,,ムゲン,0
1124,5011801040955,新規,0,2022-07-07,2022-07-07,株式会社正田塗装,,株式会社,東京都,葛飾区,東堀切１丁目１６番２４号,,13,122,1240004,,,,,,,2022-07-07,1,,,,,ショウダトソウ,0
1125,5012301013039,新規,0,2022-07-07,2022-07-07,株式会社佐藤午前五時,,株式会社,東京都,町田市,玉川学園２丁目１２番１７号,,13,209,1940041,,,,,,,2022-07-07,1,,,,,サトウゴゼンゴジ,0
1128,5012401039388,新規,0,2022-07-07,2022-07-07,株式会社ビーブルーム,,株式会社,東京都,調布市,仙川町１丁目１３－７山田ビル１階,,13,208,1820002,,,,,,,2022-07-07,1,,,,,ビーブルーム,0
1131,5013301049353,新規,0,2022-07-07,2022-07-07,株式会社ＨＩＴ,,株式会社,東京都,豊島区,池袋２丁目４３番３号田村ビル３階,,13,116,1710014,,,,,,,2022-07-07,1,,,,,ヒット,0
1137,5020001147222,新規,0,2022-07-07,2022-07-07,消防設備サービス株式会社,,株式会社,神奈川県,横浜市神奈川区,斎藤分町１７番１４号,,14,102,2210811,,,,,,,2022-07-07,1,,,,,ショウボウセツビサービス,0
1138,5020001147239,新規,0,2022-07-07,2022-07-07,株式会社福田,,株式会社,神奈川県,川崎市川崎区,宮本町３番地２２－４０２号,,14,131,2100004,,,,,,,2022-07-07,1,,,,,フクダ,0
1141,5020003022068,新規,0,2022-07-07,2022-07-07,合同会社ＳＡＷＡＮＤＯ,,合同会社,神奈川県,川崎市中原区,今井西町１７番３９－５０４号,,14,133,2110066,,,,,,,2022-07-07,1,,,,,サワンド,0
1150,5021001076428,新規,0,2022-07-07,2022-07-07,株式会社アーキテクトラボ,,株式会社,神奈川県,座間市,座間２丁目３１０１番地の２ピュアコートＺＡＭＡ２０１号室,,14,216,2520027,,,,,,,2022-07-07,1,,,,,アーキテクトラボ,0
1151,5021001076444,新規,0,2022-07-07,2022-07-07,株式会社Ｔ＆Ｐ,,株式会社,神奈川県,相模原市中央区,中央２丁目３番１４号,,14,152,2520239,,,,,,,2022-07-07,1,,,,,ティーアンドピー,0
1152,5021001076485,新規,0,2022-07-07,2022-07-07,株式会社ヒロプラ,,株式会社,神奈川県,座間市,南栗原１丁目６番４７号,,14,216,2520015,,,,,,,2022-07-07,1,,,,,ヒロプラ,0
1153,5021003011903,新規,0,2022-07-07,2022-07-07,ＨＵＮＧ　ＡＮＨ合同会社,,合同会社,神奈川県,厚木市,南町１２番１０号リバービル２０３,,14,212,2430015,,,,,,,2022-07-07,1,,,,,フンアン,0
1158,5030001149011,新規,0,2022-07-07,2022-07-07,株式会社茨城ヤマタ青果,,株式会社,埼玉県,八潮市,大字浮塚６１０番地１,,11,234,3400835,,,,,,,2022-07-07,1,,,,,イバラキヤマタセイカ,0
1159,5030001149028,新規,0,2022-07-07,2022-07-07,株式会社ＧＡＯＮＡＳ,,株式会社,埼玉県,志木市,下宗岡４丁目５番１９号,,11,228,3530003,,,,,,,2022-07-07,1,,,,,ガオナス,0
1160,5030001149052,新規,0,2022-07-07,2022-07-07,株式会社花みずき,,株式会社,埼玉県,さいたま市緑区,大字大門８３４番地,,11,109,3360963,,,,,,,2022-07-07,1,,,,,ハナミズキ,0
1161,5030001149060,新規,0,2022-07-07,2022-07-07,ＡＢＫ不動産株式会社,,株式会社,埼玉県,さいたま市大宮区,大門町２丁目２０番地２－３０１,,11,103,3300846,,,,,,,2022-07-07,1,,,,,エービーケーフドウサン,0
1162,5030001149093,新規,0,2022-07-07,2022-07-07,株式会社ストレインケア,,株式会社,埼玉県,越谷市,大間野町２丁目１番２号１階,,11,222,3430844,,,,,,,2022-07-07,1,,,,,ストレインケア,0
1165,5030003019732,新規,0,2022-07-07,2022-07-07,合同会社けあまねはうす心結色,,合同会社,埼玉県,春日部市,緑町６丁目１－４４,,11,214,3440063,,,,,,,2022-07-07,1,,,,,ケアマネハウスココイロ,0
1182,5060001035043,新規,0,2022-07-07,2022-07-07,株式会社ワイズプラン,,株式会社,栃木県,宇都宮市,下田原町６４５番地１,,09,201,3291115,,,,,,,2022-07-07,1,,,,,ワイズプラン,0
1183,5060001035051,新規,0,2022-07-07,2022-07-07,ＪＭＲ．株式会社,,株式会社,栃木県,那須塩原市,西朝日町２番２３号第一コーポシゲミツ１Ｆ４号室,,09,213,3292722,,,,,,,2022-07-07,1,,,,,ジェイエムアール,0
1184,5060003004129,新規,0,2022-07-07,2022-07-07,合同会社ＩｃｈｉｋａｉＢＡＳＥ,,合同会社,栃木県,芳賀郡市貝町,大字上根１５３２番地１,,09,344,3213424,,,,,,,2022-07-07,1,,,,,イチカイベース,0
1186,5070005010009,新規,0,2022-07-07,2022-07-07,一般社団法人オグナの森の守り人,,その他の設立登記法人,群馬県,利根郡片品村,大字花咲２７９７番地５８７,,10,443,3780408,,,,,,,2022-07-07,1,,,,,オグナノモリノマモリビト,0
1196,5100005012892,新規,0,2022-07-07,2022-07-07,一般社団法人ツキカラカエル,,その他の設立登記法人,長野県,諏訪郡富士見町,落合４５３９番地,,20,362,3990214,,,,,,,2022-07-07,1,,,,,ツキカラカエル,0
1202,5120001247193,新規,0,2022-07-07,2022-07-07,株式会社マドラス,,株式会社,大阪府,大阪市中央区,北久宝寺町１丁目１番２号１Ｆ,,27,128,5410057,,,,,,,2022-07-07,1,,,,,マドラス,0
1207,5120101065875,新規,0,2022-07-07,2022-07-07,株式会社Ａｎｙ,,株式会社,大阪府,高石市,綾園３丁目１４番２８号Ｆｅｌｉｚ高石１０６号,,27,225,5920014,,,,,,,2022-07-07,1,,,,,エニー,0
1208,5120103004773,新規,0,2022-07-07,2022-07-07,ｎａ‐ｌｕ合同会社,,合同会社,大阪府,堺市堺区,百舌鳥夕雲町１丁１０３番地８,,27,141,5900802,,,,,,,2022-07-07,1,,,,,ナルー,0
1209,5120901046208,新規,0,2022-07-07,2022-07-07,株式会社行陽サービス,,株式会社,大阪府,高槻市,天王町４番５号,,27,207,5690088,,,,,,,2022-07-07,1,,,,,コウヨウサービス,0
1222,5150001025670,新規,0,2022-07-07,2022-07-07,株式会社ｒａｋｕｒａｓｈｉ,,株式会社,奈良県,奈良市,あやめ池南１丁目１１番２１号,,29,201,6310033,,,,,,,2022-07-07,1,,,,,ラクラシ,0
1228,5180001152082,新規,0,2022-07-07,2022-07-07,株式会社サードアイ,,株式会社,愛知県,名古屋市中区,栄５丁目２６－３９ＧＳ栄ビル３Ｆ,,23,106,4600008,,,,,,,2022-07-07,1,,,,,サードアイ,0
1229,5180001152099,新規,0,2022-07-07,2022-07-07,株式会社クロサキコーポレーション,,株式会社,愛知県,春日井市,廻間町字落重６２,,23,206,4870031,,,,,,,2022-07-07,1,,,,,クロサキコーポレーション,0
1233,5190001029560,新規,0,2022-07-07,2022-07-07,ＧＫホールディングス株式会社,,株式会社,三重県,北牟婁郡紀北町,便ノ山５３９番地の４,,24,543,5193408,,,,,,,2022-07-07,1,,,,,ジーケイホールディングス,0
1234,5190001029569,新規,0,2022-07-07,2022-07-07,Ｃ．Ｍ．Ｓ．インターナショナル株式会社,,株式会社,三重県,桑名市,大字立田町８０番地１,,24,205,5110842,,,,,,,2022-07-07,1,,,,,シーエムエスインターナショナル,0
1235,5190001029577,新規,0,2022-07-07,2022-07-07,株式会社ヴィアティン三重ＢＢ,,株式会社,三重県,桑名市,大字和泉６８０番地,,24,205,5110838,,,,,,,2022-07-07,1,,,,,ヴィアティンミエビービー,0
1236,5190001029602,新規,0,2022-07-07,2022-07-07,株式会社ＳＴＫ．Ｇｒｏｗ　ｕｐ,,株式会社,三重県,鈴鹿市,神戸３丁目２番１０号,,24,207,5130801,,,,,,,2022-07-07,1,,,,,エスティケーグローアップ,0
1240,5210001018998,新規,0,2022-07-07,2022-07-07,株式会社ＧＥＮ気,,株式会社,福井県,鯖江市,つつじケ丘町６番１号,,18,207,9160011,,,,,,,2022-07-07,1,,,,,ゲンキ,0
1241,5210003001531,新規,0,2022-07-07,2022-07-07,合同会社ノーム自然環境教育事務所,,合同会社,福井県,大野市,南六呂師第１６９号１２４番地,,18,205,9120131,,,,,,,2022-07-07,1,,,,,ノームシゼンカンキョウキョウイクジムショ,0
1246,5240001060056,新規,0,2022-07-07,2022-07-07,ファイブスターサービス株式会社,,株式会社,広島県,広島市安佐北区,落合南４丁目４９番１５－１２号,,34,106,7391732,,,,,,,2022-07-07,1,,,,,ファイブスターサービス,0
1247,5240001060064,新規,0,2022-07-07,2022-07-07,株式会社クレシェンテ,,株式会社,広島県,安芸高田市,甲田町下小原２９５７番地,,34,214,7391103,,,,,,,2022-07-07,1,,,,,クレシェンテ,0
1250,5250001019638,新規,0,2022-07-07,2022-07-07,株式会社Ｂ‐ＳＩＤＥ,,株式会社,山口県,山口市,吉敷佐畑３丁目１２番１６号,,35,203,7530816,,,,,,,2022-07-07,1,,,,,ビーサイド,0
1251,5250001019646,新規,0,2022-07-07,2022-07-07,Ｌａｎｄ　ａｒｃ株式会社,,株式会社,山口県,防府市,寿町３番２０号,,35,206,7470809,,,,,,,2022-07-07,1,,,,,ランドアーク,0
1256,5290001098174,新規,0,2022-07-07,2022-07-07,株式会社鳥井製パン,,株式会社,福岡県,みやま市,高田町江浦町２５１番地,,40,229,8390212,,,,,,,2022-07-07,1,,,,,トリイセイパン,0
1257,5290001098224,新規,0,2022-07-07,2022-07-07,株式会社電來,,株式会社,福岡県,大牟田市,藤田町７２５番地２,,40,202,8360074,,,,,,,2022-07-07,1,,,,,デンクル,0
1258,5290003012694,新規,0,2022-07-07,2022-07-07,合同会社ＴｉａｒＡ,,合同会社,福岡県,福岡市中央区,清川３丁目２０番２７－３０１号,,40,133,8100005,,,,,,,2022-07-07,1,,,,,ティアラ,0
1260,5300001012991,新規,0,2022-07-07,2022-07-07,株式会社内倉建設,,株式会社,佐賀県,佐賀市,高木瀬東１丁目１１番１７号,,41,201,8490922,,,,,,,2022-07-07,1,,,,,ウチクラケンセツ,0
1269,5320001019184,新規,0,2022-07-07,2022-07-07,株式会社別府設備工業,,株式会社,大分県,別府市,駅前本町３番５号,,44,202,8740934,,,,,,,2022-07-07,1,,,,,ベップセツビコウギョウ,0
1278,5370003005764,新規,0,2022-07-07,2022-07-07,合同会社アカプリ社,,合同会社,宮城県,仙台市青葉区,一番町４丁目９番１７号イワマビル４階,,04,101,9800811,,,,,,,2022-07-07,1,,,,,アカプリシャ,0
1281,5380001032941,新規,0,2022-07-07,2022-07-07,株式会社ぶなの森,,株式会社,福島県,郡山市,並木１丁目１３番地の４,,07,203,9638026,,,,,,,2022-07-07,1,,,,,,0
1288,5410001013228,新規,0,2022-07-07,2022-07-07,株式会社小林林業,,株式会社,秋田県,北秋田郡上小阿仁村,五反沢字家ノ下３８番地,,05,327,0184412,,,,,,,2022-07-07,1,,,,,コバヤシリンギョウ,0
1289,5410005006475,新規,0,2022-07-07,2022-07-07,医療法人ＡＢＥ,,その他の設立登記法人,秋田県,秋田市,中通３丁目３番２８号,,05,201,0100001,,,,,,,2022-07-07,1,,,,,エービーイー,0
1303,5470001019153,新規,0,2022-07-07,2022-07-07,株式会社ダズル,,株式会社,香川県,丸亀市,川西町北５５２番地１,,37,202,7630091,,,,,,,2022-07-07,1,,,,,ダズル,0
1313,5700150108039,新規,0,2022-07-07,2022-04-15,劇団タルオルム,,その他,大阪府,東大阪市,御厨南３丁目１－８,,27,227,5770034,,,,,,,2022-04-15,1,,,,,ゲキダンタルオルム,0
1314,5700150109284,新規,0,2022-07-07,2022-06-07,西由木コミュニティパーク,,その他,東京都,八王子市,下柚木２丁目１２－４,,13,201,1920372,,,,,,,2022-06-07,1,,,,,ニシユギコミユニテイパーク,0
1315,5700150110267,新規,0,2022-07-07,2022-06-22,２３レコーズ,,その他,埼玉県,所沢市,御幸町１－１６－２３０９所沢スカイライズタワー,,11,208,3591115,,,,,,,2022-06-22,1,,,,,ニジユウサンレコーズ,0
1316,5700150110473,新規,0,2022-07-07,2022-06-27,Ｉｎｄｅｐｅｎｄｅｎｔ　Ｍｕｓｉｃ　Ｕｎｉｏｎ　Ｊａｐａｎ,,その他,千葉県,松戸市,六高台３丁目３５－２０６,,12,207,2702203,,,,,,,2022-06-27,1,,,,,インデペンデントミユージツクユニオンジヤパン,0
1317,5700150110647,新規,0,2022-07-07,2022-07-01,ｏｍｏ　ｐｒｏｇｅｔｔｏ,,その他,東京都,練馬区,東大泉７丁目３４－１１,,13,120,1780063,,,,,,,2022-07-01,1,,,,,オモプロジエツト,0
1328,6010001227791,新規,0,2022-07-07,2022-07-07,株式会社サクセスグロージャパン,,株式会社,東京都,千代田区,九段南２丁目２番１号エース九段ビル６階,,13,101,1020074,,,,,,,2022-07-07,1,,,,,サクセスグロージャパン,0
1329,6010001227866,新規,0,2022-07-07,2022-07-07,リリカパーソナルキャリア株式会社,,株式会社,東京都,千代田区,六番町９番地１０,,13,101,1020085,,,,,,,2022-07-07,1,,,,,リリカパーソナルキャリア,0
1330,6010001227874,新規,0,2022-07-07,2022-07-07,株式会社ｉｎｉｔｉｕｍ,,株式会社,東京都,中央区,銀座７丁目１３番６号パップスビル４階,,13,102,1040061,,,,,,,2022-07-07,1,,,,,イニティウム,0
1331,6010001227908,新規,0,2022-07-07,2022-07-07,株式会社Ｌｉｎｏ,,株式会社,東京都,中央区,築地３丁目１３番５号丸促築地ビル７階,,13,102,1040045,,,,,,,2022-07-07,1,,,,,リノ,0
1333,6010003038080,新規,0,2022-07-07,2022-07-07,ランプアップサービス合同会社,,合同会社,東京都,文京区,湯島３丁目２番９号ベスト御茶ノ水３０１号,,13,105,1130034,,,,,,,2022-07-07,1,,,,,ランプアップサービス,0
1334,6010003038089,新規,0,2022-07-07,2022-07-07,ＢＬＡＮＣ　ｅｔ　ＮｏｉＲ合同会社,,合同会社,東京都,千代田区,二番町１１番地９ダイアパレス二番町３１２号,,13,101,1020084,,,,,,,2022-07-07,1,,,,,ブランエノワール,0
1335,6010005035126,新規,0,2022-07-07,2022-07-07,Ｃｌｏｕｄ　Ｓｅｃｕｒｉｔｙ　ＡＩ技術研究組合,,その他の設立登記法人,東京都,千代田区,丸の内２丁目２番１号,,13,101,1000005,,,,,,,2022-07-07,1,,,,,クラウドセキュリティエーアイ,0
1347,6010403028029,新規,0,2022-07-07,2022-07-07,合同会社ＯＫＰ,,合同会社,東京都,港区,浜松町２丁目２番１５号浜松町ダイヤビル２Ｆ,,13,103,1050013,,,,,,,2022-07-07,1,,,,,オーケーピー,0
1349,6010501049075,新規,0,2022-07-07,2022-07-07,三ツ星商店株式会社,,株式会社,東京都,台東区,浅草１丁目１３－４,,13,106,1110032,,,,,,,2022-07-07,1,,,,,ミツボシショウテン,0
1351,6010601061434,新規,0,2022-07-07,2022-07-07,株式会社愛言社,,株式会社,東京都,江東区,亀戸６丁目３１－２－９１０,,13,108,1360071,,,,,,,2022-07-07,1,,,,,アイゲンシャ,0
1352,6010601061442,新規,0,2022-07-07,2022-07-07,株式会社ＴＯＫＳＴ,,株式会社,東京都,墨田区,八広３丁目２８番１号,,13,107,1310041,,,,,,,2022-07-07,1,,,,,トクスト,0
1366,6011001148466,新規,0,2022-07-07,2022-07-07,株式会社アセットルージュ,,株式会社,東京都,渋谷区,恵比寿西２丁目１５番１３号,,13,113,1500021,,,,,,,2022-07-07,1,,,,,アセットルージュ,0
1367,6011001148474,新規,0,2022-07-07,2022-07-07,ＢＥ　ＲＩＧＨＴ株式会社,,株式会社,東京都,渋谷区,代官山町８番１６号,,13,113,1500034,,,,,,,2022-07-07,1,,,,,ビーライト,0
1368,6011001148532,新規,0,2022-07-07,2022-07-07,Ｔｈｉｒｔｙ　ｎｉｎｅ株式会社,,株式会社,東京都,渋谷区,恵比寿西１丁目２番１号,,13,113,1500021,,,,,,,2022-07-07,1,,,,,サーティナイン,0
1369,6011005009648,新規,0,2022-07-07,2022-07-07,一般社団法人日本施工図協会,,その他の設立登記法人,東京都,渋谷区,恵比寿西１丁目１６番４号長谷戸ビル５階,,13,113,1500021,,,,,,,2022-07-07,1,,,,,ニホンセコウズキョウカイ,0
1372,6011103011943,新規,0,2022-07-07,2022-07-07,さくら資産設計合同会社,,合同会社,東京都,新宿区,新宿２丁目１２番１３号新宿アントレサロンビル２階,,13,104,1600022,,,,,,,2022-07-07,1,,,,,サクラシサンセッケイ,0
1375,6011303004466,新規,0,2022-07-07,2022-07-07,合同会社ジンクス,,合同会社,東京都,杉並区,高井戸東３丁目１９番８号,,13,115,1680072,,,,,,,2022-07-07,1,,,,,ジンクス,0
1376,6011401024374,新規,0,2022-07-07,2022-07-07,株式会社ＴＦＳ,,株式会社,東京都,板橋区,常盤台２丁目５番１号常盤台ビル本館３階,,13,119,1740071,,,,,,,2022-07-07,1,,,,,ティーエフエス,0
1377,6011401024382,新規,0,2022-07-07,2022-07-07,株式会社齊川工務店,,株式会社,東京都,板橋区,双葉町３８番１号,,13,119,1730011,,,,,,,2022-07-07,1,,,,,サイカワコウムテン,0
1379,6011601026088,新規,0,2022-07-07,2022-07-07,株式会社ＪＭＣ,,株式会社,東京都,練馬区,桜台４丁目６番２号ＫＭビル３階,,13,120,1760002,,,,,,,2022-07-07,1,,,,,ジェエムシ,0
1381,6011701025436,新規,0,2022-07-07,2022-07-07,株式会社ｍｉｃｒｏｃｏｓｍｏｓ,,株式会社,東京都,江戸川区,西小松川町１４番２１号,,13,123,1320032,,,,,,,2022-07-07,1,,,,,ミクロコスモス,0
1382,6011701025444,新規,0,2022-07-07,2022-07-07,株式会社美希,,株式会社,東京都,江戸川区,西葛西２丁目２２番４５－１４０３号,,13,123,1340088,,,,,,,2022-07-07,1,,,,,ミキ,0
1383,6011703003191,新規,0,2022-07-07,2022-07-07,合同会社東京トラストホールディングス,,合同会社,東京都,江戸川区,篠崎町７丁目１４番１３号メゾン・エム１０１,,13,123,1330061,,,,,,,2022-07-07,1,,,,,トウキョウトラストホールディングス,0
1386,6012301013046,新規,0,2022-07-07,2022-07-07,株式会社バニラシュガー,,株式会社,東京都,町田市,忠生４丁目９番地５,,13,209,1940035,,,,,,,2022-07-07,1,,,,,バニラシュガー,0
1387,6012401039387,新規,0,2022-07-07,2022-07-07,吉宮株式会社,,株式会社,東京都,稲城市,押立１７２０番地の７－１０２,,13,225,2060811,,,,,,,2022-07-07,1,,,,,ヨシミヤ,0
1389,6012703002489,新規,0,2022-07-07,2022-07-07,合同会社ＲＤＡ,,合同会社,東京都,東久留米市,下里５丁目１１番１６号,,13,222,2030043,,,,,,,2022-07-07,1,,,,,アールディーエー,0
1390,6013103001148,新規,0,2022-07-07,2022-07-07,合同会社ＧＷＹ,,合同会社,東京都,西多摩郡日の出町,大字大久野２９番地１,,13,305,1900181,,,,,,,2022-07-07,1,,,,,ギー,0
1394,6013301049336,新規,0,2022-07-07,2022-07-07,株式会社みけねこ,,株式会社,東京都,豊島区,北大塚２丁目７番４号ＳＲビル２０１,,13,116,1700004,,,,,,,2022-07-07,1,,,,,ミケネコ,0
1395,6013301049352,新規,0,2022-07-07,2022-07-07,ＥＳＳ株式会社,,株式会社,東京都,豊島区,南池袋２丁目２８番１４号大和証券池袋ビル８階,,13,116,1710022,,,,,,,2022-07-07,1,,,,,イーエスエス,0
1396,6013301049360,新規,0,2022-07-07,2022-07-07,株式会社ＦＩＴＯＮＬＩＮＥ,,株式会社,東京都,豊島区,東池袋３丁目１１番９号三島ビル４０２,,13,116,1700013,,,,,,,2022-07-07,1,,,,,フィットオンライン,0
1400,6020001147238,新規,0,2022-07-07,2022-07-07,株式会社４８ＬＡＮＤ,,株式会社,神奈川県,川崎市高津区,上作延９５８番地－１０５,,14,134,2130034,,,,,,,2022-07-07,1,,,,,ヨンハチランド,0
1406,6021001076427,新規,0,2022-07-07,2022-07-07,海福商店株式会社,,株式会社,神奈川県,相模原市南区,東林間３丁目１８番３号１Ｆ,,14,153,2520311,,,,,,,2022-07-07,1,,,,,ウミフクショウテン,0
1407,6021001076451,新規,0,2022-07-07,2022-07-07,株式会社ＯＮＧＲ,,株式会社,神奈川県,高座郡寒川町,一之宮１丁目８番１２号,,14,321,2530111,,,,,,,2022-07-07,1,,,,,オーエヌジーアール,0
1414,6030001148879,新規,0,2022-07-07,2022-07-07,株式会社小高商店,,株式会社,埼玉県,川越市,松江町２丁目１２番地５,,11,201,3500056,,,,,,,2022-07-07,1,,,,,オダカショウテン,0
1415,6030001149019,新規,0,2022-07-07,2022-07-07,株式会社ＵＮＥＬＩ,,株式会社,埼玉県,さいたま市桜区,桜田３丁目９番２５号,,11,106,3380833,,,,,,,2022-07-07,1,,,,,ウネリ,0
1416,6030001149027,新規,0,2022-07-07,2022-07-07,株式会社榎本フルーツファーム,,株式会社,埼玉県,白岡市,岡泉１０５０番地,,11,246,3490226,,,,,,,2022-07-07,1,,,,,エノモトフルーツファーム,0
1417,6030001149043,新規,0,2022-07-07,2022-07-07,株式会社豊野不動産,,株式会社,埼玉県,春日部市,六軒町４１３番地,,11,214,3440012,,,,,,,2022-07-07,1,,,,,トヨノフドウサン,0
1418,6030001149051,新規,0,2022-07-07,2022-07-07,和興工業株式会社,,株式会社,埼玉県,幸手市,北２丁目１４番２２号,,11,240,3400111,,,,,,,2022-07-07,1,,,,,ワコウコウギョウ,0
1419,6030001149084,新規,0,2022-07-07,2022-07-07,株式会社海老澤建設,,株式会社,埼玉県,川口市,大字里１００７番地,,11,203,3340005,,,,,,,2022-07-07,1,,,,,エビサワケンセツ,0
1420,6030003019723,新規,0,2022-07-07,2022-07-07,ＣＲＥＳＴ　ＨＯＭＥ合同会社,,合同会社,埼玉県,狭山市,中央３丁目６番Ｇ－４０８号,,11,215,3501308,,,,,,,2022-07-07,1,,,,,クレストホーム,0
1421,6030003019731,新規,0,2022-07-07,2022-07-07,合同会社ＳＴＥＰ　ＯＮＥ,,合同会社,埼玉県,春日部市,粕壁東１丁目９番９号,,11,214,3440062,,,,,,,2022-07-07,1,,,,,ステップワン,0
1442,6080401025938,新規,0,2022-07-07,2022-07-07,株式会社Ｆｉｒｓｔ　Ｌｉｌｙ,,株式会社,静岡県,浜松市浜北区,尾野２３１０番地の２,,22,136,4340002,,,,,,,2022-07-07,1,,,,,ファーストリリー,0
1443,6090001017657,新規,0,2022-07-07,2022-07-07,株式会社Ｓｉｅｌ,,株式会社,山梨県,山梨市,小原西１０５６番地２,,19,205,4050006,,,,,,,2022-07-07,1,,,,,シエル,0
1444,6100001035500,新規,0,2022-07-07,2022-07-07,株式会社ｗｉｔｈ　Ａ,,株式会社,長野県,長野市,大字南長野南石堂町１４２３番地４グラディス南石堂４０３,,20,201,3800824,,,,,,,2022-07-07,1,,,,,ウィズエー,0
1446,6110001036803,新規,0,2022-07-07,2022-07-07,株式会社早出川米穀,,株式会社,新潟県,五泉市,論瀬６０８５番地,,15,218,9591604,,,,,,,2022-07-07,1,,,,,ハイデガワベイコク,0
1461,6120001247176,新規,0,2022-07-07,2022-07-07,株式会社ビー・トラステッド・ワークス,,株式会社,大阪府,大阪市淀川区,宮原５丁目４番１８号シャトー新大阪４０５号室,,27,123,5320003,,,,,,,2022-07-07,1,,,,,ビートラステッドワークス,0
1462,6120001247184,新規,0,2022-07-07,2022-07-07,株式会社４ＤＥ,,株式会社,大阪府,大阪市西区,靱本町２丁目６－１３本町ＳＥビル４Ｆ,,27,106,5500004,,,,,,,2022-07-07,1,,,,,シーディーイー,0
1463,6120001247192,新規,0,2022-07-07,2022-07-07,株式会社アドフィールド,,株式会社,大阪府,大阪市北区,梅田１丁目１番３号大阪駅前第３ビル２５階,,27,127,5300001,,,,,,,2022-07-07,1,,,,,アドフィールド,0
1464,6120002074818,新規,0,2022-07-07,2022-07-07,有限会社長尾開発,,有限会社,大阪府,枚方市,長尾元町６丁目１番１５号,,27,210,5730163,,,,,,,2022-07-07,1,,,,,ナガオカイハツ,0
1466,6120003022032,新規,0,2022-07-07,2022-07-07,ジョゼット合同会社,,合同会社,大阪府,大阪市中央区,高津１丁目９番１０号インテリジェンスビル１Ｆ,,27,128,5420072,,,,,,,2022-07-07,1,,,,,ジョゼット,0
1468,6120101065866,新規,0,2022-07-07,2022-07-07,株式会社Ａｉｔｏ,,株式会社,大阪府,大阪狭山市,東茱萸木１丁目７４６－１,,27,231,5890012,,,,,,,2022-07-07,1,,,,,アイト,0
1471,6120103004772,新規,0,2022-07-07,2022-07-07,合同会社こぐま商店,,合同会社,大阪府,富田林市,寺池台３丁目２１番５号,,27,214,5840073,,,,,,,2022-07-07,1,,,,,コグマショウテン,0
1473,6120901046181,新規,0,2022-07-07,2022-07-07,株式会社ｅ‐ｐｌｕｓ,,株式会社,大阪府,豊中市,利倉東１丁目３番１６号,,27,203,5610846,,,,,,,2022-07-07,1,,,,,イープラス,0
1474,6120901046207,新規,0,2022-07-07,2022-07-07,株式会社Ｊ＆Ｎインターナショナル,,株式会社,大阪府,吹田市,青山台４丁目６番２号,,27,205,5650875,,,,,,,2022-07-07,1,,,,,ジェイアンドエヌインターナショナル,0
1476,6122001036030,新規,0,2022-07-07,2022-07-07,株式会社ＯＲＡＮＧＥＳＨＯＣＫ　ＪＡＰＡＮ,,株式会社,大阪府,東大阪市,小阪２丁目２－１１日光ビル１Ｆ,,27,227,5770801,,,,,,,2022-07-07,1,,,,,オレンジショックジャパン,0
1504,6210001018989,新規,0,2022-07-07,2022-07-07,株式会社高須,,株式会社,福井県,坂井市,坂井町木部東第１８号１６番地,,18,210,9190533,,,,,,,2022-07-07,1,,,,,タカス,0
1516,6240001060014,新規,0,2022-07-07,2022-07-07,株式会社籔田商店,,株式会社,広島県,福山市,住吉町６番４号,,34,207,7200809,,,,,,,2022-07-07,1,,,,,ヤブタショウテン,0
1522,6250001019645,新規,0,2022-07-07,2022-07-07,クリーンソリューション株式会社,,株式会社,山口県,周南市,楠木２丁目１５番１１号西村コーポ２０５号,,35,215,7450831,,,,,,,2022-07-07,1,,,,,クリーンソリューション,0
1527,6260003003976,新規,0,2022-07-07,2022-07-07,合同会社ＳＡＴＯＧＡＴＡ,,合同会社,岡山県,久米郡久米南町,里方１１５番地７,,33,663,7093602,,,,,,,2022-07-07,1,,,,,サトガタ,0
1531,6290001098140,新規,0,2022-07-07,2022-07-07,ＯＴＡＧＡＩ　ＢＵＳＩＮＥＳＳ　ＣＯＮＳＵＬＴＩＮＧ株式会社,,株式会社,福岡県,福岡市南区,井尻２丁目３５番１２－２０２号,,40,134,8111302,,,,,,,2022-07-07,1,,,,,オタガイビジネスコンサルティング,0
1532,6290001098215,新規,0,2022-07-07,2022-07-07,株式会社メディテラス,,株式会社,福岡県,福岡市城南区,飯倉１丁目６番２５号,,40,136,8140134,,,,,,,2022-07-07,1,,,,,メディテラス,0
1535,6290003012710,新規,0,2022-07-07,2022-07-07,合同会社ｗｉｓｔｅｒｉａ,,合同会社,福岡県,福岡市東区,香椎照葉１丁目３番５－３０３号,,40,131,8130017,,,,,,,2022-07-07,1,,,,,ウィステリア,0
1538,6300001012999,新規,0,2022-07-07,2022-07-07,株式会社ＥｘｔｅｎＤ,,株式会社,佐賀県,鳥栖市,萱方町２３０－２３,,41,203,8410081,,,,,,,2022-07-07,1,,,,,エクステンド,0
1541,6310003004408,新規,0,2022-07-07,2022-07-07,合同会社いきつき山海の四季,,合同会社,長崎県,平戸市,生月町山田免９３６番地３,,42,207,8595704,,,,,,,2022-07-07,1,,,,,,0
1545,6330001029917,新規,0,2022-07-07,2022-07-07,モトライドツアーズ株式会社,,株式会社,熊本県,熊本市中央区,保田窪２丁目６番２３号,,43,101,8620926,,,,,,,2022-07-07,1,,,,,モトライドツアーズ,0
1555,6360001030681,新規,0,2022-07-07,2022-07-07,株式会社わらばー,,株式会社,沖縄県,那覇市,字安里３８１番地１ＺＯＲＫＳ沖縄,,47,201,9020067,,,,,,,2022-07-07,1,,,,,ワラバー,0
1558,6370003005763,新規,0,2022-07-07,2022-07-07,パイロット商事合同会社,,合同会社,宮城県,仙台市宮城野区,銀杏町２９番２０号,,04,102,9830047,,,,,,,2022-07-07,1,,,,,パイロットショウジ,0
1561,6380001032940,新規,0,2022-07-07,2022-07-07,ドッドジー株式会社,,株式会社,福島県,郡山市,朝日２丁目２１－６、２Ｆ,,07,203,9638024,,,,,,,2022-07-07,1,,,,,,0
1562,6380001032949,新規,0,2022-07-07,2022-07-07,株式会社ＨＡＹＡＭＡ,,株式会社,福島県,相馬市,北飯渕１丁目１２番地の１８－２０２号,,07,209,9760014,,,,,,,2022-07-07,1,,,,,ハヤマ,0
1563,6380005012600,新規,0,2022-07-07,2022-07-07,行政書士法人いわき自動車登録サポート,,その他の設立登記法人,福島県,いわき市,内郷綴町舟場１番地の１３８,,07,204,9738403,,,,,,,2022-07-07,1,,,,,イワキジドウシャトウロクサポート,0
1569,6430001087038,新規,0,2022-07-07,2022-07-07,株式会社ｅｅｋ,,株式会社,北海道,札幌市中央区,大通西３丁目６番地、道新ビル２階ＤＲＩＶＥ内,,01,101,0600042,,,,,,,2022-07-07,1,,,,,イーク,0
1573,6470001019144,新規,0,2022-07-07,2022-07-07,株式会社ＭＵＳＡＳＨＩ,,株式会社,香川県,坂出市,高屋町１０４２番地４,,37,203,7620017,,,,,,,2022-07-07,1,,,,,ムサシ,0
1574,6470001019152,新規,0,2022-07-07,2022-07-07,株式会社Ｓａｎｕｋｉｔｅ,,株式会社,香川県,坂出市,西大浜南１丁目４番５号コーポラス秋山ＩＩ－５０１号,00127129,37,203,7620054,,,,,,,2022-07-07,1,,,,,サヌカイト,0
1579,6700150021967,新規,0,2022-07-07,2015-10-09,白馬八方尾根スキースクール,,その他,長野県,北安曇郡白馬村,大字北城八方３９０１,,20,485,3999301,,,,,,,2015-10-09,1,,,,,ハクバハツポウオネスキースクール,0
1582,6700150109011,新規,0,2022-07-07,2022-05-25,Ｕｚｕｍｅ,,その他,東京都,世田谷区,弦巻１丁目２７－８トーシンハイツ弦巻３０１,,13,112,1540016,,,,,,,2022-05-25,1,,,,,ウズメ,0
1583,6700150109408,新規,0,2022-07-07,2022-06-10,やまがた子ども文化クラブ,,その他,岐阜県,山県市,佐賀５８８の２高富中央公民館内,,21,215,5012114,,,,,,,2022-06-10,1,,,,,ヤマガタコドモブンカクラブ,0
1584,6700150109936,新規,0,2022-07-07,2022-06-16,しがスポーツボランティア協議会,,その他,滋賀県,大津市,におの浜４丁目７－５,,25,201,5200801,,,,,,,2022-06-16,1,,,,,シガスポーツボランテイアキヨウギカイ,0
1585,6700150110051,新規,0,2022-07-07,2022-06-20,カンムリプロデュース,,その他,神奈川県,川崎市高津区,溝口６丁目６－５７,,14,134,2130001,,,,,,,2022-06-20,1,,,,,カンムリプロデユース,0
1586,6700150110092,新規,0,2022-07-07,2022-06-20,シティハウス大塚管理組合,,その他,東京都,豊島区,北大塚１丁目３３－１６,,13,116,1700004,,,,,,,2022-06-20,1,,,,,シテイハウスオオツカカンリクミアイ,0
1587,6700150110290,新規,0,2022-07-07,2022-06-22,北海道作業遂行研究会,,その他,北海道,小樽市,銭函３丁目２９８札樽病院内,,01,203,0470261,,,,,,,2022-06-22,1,,,,,ホツカイドウサギヨウスイコウケンキユウカイ,0
1588,6700150110811,新規,0,2022-07-07,2022-07-07,Ｈｉｍａ　Ｈｏｌｄｉｎｇｓ　Ｐｖｔ　Ｌｔｄ,,外国会社等,千葉県,千葉市若葉区,金親町１８４番地４０,,12,104,2640001,スリランカ民主社会主義共和国、コロンボ、デヒワラ、カダワタロード、３１８,,,,,,2022-07-07,1,,,,,ヒマホールデイングスピーヴイテイエルテイデイ,0
1594,7010001227790,新規,0,2022-07-07,2022-07-07,株式会社ｓｉｍｂａ,,株式会社,東京都,中央区,銀座１丁目２７番８号,,13,102,1040061,,,,,,,2022-07-07,1,,,,,シンバ,0
1595,7010001227832,新規,0,2022-07-07,2022-07-07,株式会社メロボット,,株式会社,東京都,中央区,銀座１丁目１２番４号Ｎ＆ＥＢＬＤ．７階,,13,102,1040061,,,,,,,2022-07-07,1,,,,,メロボット,0
1596,7010001227840,新規,0,2022-07-07,2022-07-07,株式会社ホワイト,,株式会社,東京都,文京区,小石川１丁目１番１８－６１０号,,13,105,1120002,,,,,,,2022-07-07,1,,,,,ホワイト,0
1597,7010001227881,新規,0,2022-07-07,2022-07-07,ペイシャンスリアルティ株式会社,,株式会社,東京都,千代田区,丸の内２丁目２番２号丸の内三井ビルディング３階,,13,101,1000005,,,,,,,2022-07-07,1,,,,,ペイシャンスリアルティ,0
1598,7010001227898,新規,0,2022-07-07,2022-07-07,ＧＯホールディングス株式会社,,株式会社,東京都,千代田区,麹町３丁目２番地垣見麹町ビル別館４階,,13,101,1020083,,,,,,,2022-07-07,1,,,,,ジーオーホールディングス,0
1599,7010001227915,新規,0,2022-07-07,2022-07-07,株式会社Ａｒａｔａｂｉ,,株式会社,東京都,中央区,銀座４丁目８番２号,,13,102,1040061,,,,,,,2022-07-07,1,,,,,アラタビ,0
1600,7010001227923,新規,0,2022-07-07,2022-07-07,防災評価機構株式会社,,株式会社,東京都,中央区,日本橋３丁目６番２号,,13,102,1030027,,,,,,,2022-07-07,1,,,,,ボウサイヒョウカキコウ,0
1603,7010003038088,新規,0,2022-07-07,2022-07-07,合同会社ＫＥＮＺＵ,,合同会社,東京都,中央区,銀座７丁目６番１１号,,13,102,1040061,,,,,,,2022-07-07,1,,,,,ケンズ,0
1609,7010401168346,新規,0,2022-07-07,2022-07-07,ボーテ・キャピタル株式会社,,株式会社,東京都,港区,北青山２丁目７番１３号プラセオ青山ビル３階,,13,103,1070061,,,,,,,2022-07-07,1,,,,,ボーテキャピタル,0
1612,7010403028028,新規,0,2022-07-07,2022-07-07,ｄｔｏｃ．ｄｅｓｉｇｎ合同会社,,合同会社,東京都,港区,浜松町２丁目２番１５号浜松町ダイヤビル２Ｆ,,13,103,1050013,,,,,,,2022-07-07,1,,,,,ディートゥーシードットデザイン,0
1613,7010403028036,新規,0,2022-07-07,2022-07-07,合同会社神谷町インベストメント２４号,,合同会社,東京都,港区,虎ノ門５丁目１番４号,,13,103,1050001,,,,,,,2022-07-07,1,,,,,カミヤチョウインベストメントニジュウヨンゴウ,0
1614,7010403028052,新規,0,2022-07-07,2022-07-07,合同会社ｍａｍｅｒｉ,,合同会社,東京都,港区,南青山２丁目２番１５号,,13,103,1070062,,,,,,,2022-07-07,1,,,,,マメリ,0
1615,7010403028060,新規,0,2022-07-07,2022-07-07,谷田部ファシリティ２合同会社,,合同会社,東京都,港区,六本木１丁目６番１号泉ガーデンタワー,,13,103,1060032,,,,,,,2022-07-07,1,,,,,ヤタベファシリティツー,0
1618,7010603009629,新規,0,2022-07-07,2022-07-07,合同会社クロノコンサルティング,,合同会社,東京都,江東区,亀戸６丁目３１番２号,,13,108,1360071,,,,,,,2022-07-07,1,,,,,クロノコンサルティング,0
1621,7010801033100,新規,0,2022-07-07,2022-07-07,株式会社クレストヒルズ警備保障,,株式会社,東京都,大田区,東蒲田２丁目２９番１２号,,13,111,1440031,,,,,,,2022-07-07,1,,,,,クレストヒルズケイビホショウ,0
1624,7010901051183,新規,0,2022-07-07,2022-07-07,株式会社ＮＡＢＥＹＡ,,株式会社,東京都,世田谷区,野毛３丁目１３番１５号,,13,112,1580092,,,,,,,2022-07-07,1,,,,,ナベヤ,0
1626,7010903007506,新規,0,2022-07-07,2022-07-07,合同会社ＧＶＣＣ,,合同会社,東京都,世田谷区,深沢４丁目４８番２号ワイズ深沢２０１,,13,112,1580081,,,,,,,2022-07-07,1,,,,,ジーブイシーシー,0
1629,7011001148473,新規,0,2022-07-07,2022-07-07,株式会社Ｅｎｔｅｒｔａｉｎｍｅｎｔ　Ｎｅｘｔ,,株式会社,東京都,渋谷区,松濤１丁目５番３号,,13,113,1500046,,,,,,,2022-07-07,1,,,,,エンターテインメントネクスト,0
1630,7011001148515,新規,0,2022-07-07,2022-07-07,Ｐｉｖｏｔ株式会社,,株式会社,東京都,渋谷区,渋谷２丁目１９番１５号宮益坂ビルディング６０９,,13,113,1500002,,,,,,,2022-07-07,1,,,,,ピボット,0
1631,7011005009647,新規,0,2022-07-07,2022-07-07,一般社団法人モビリティ・イノベーション・アライアンス,,その他の設立登記法人,東京都,目黒区,駒場４丁目６番１号東京大学生産技術研究所Ｃｗ５０１,,13,110,1530041,,,,,,,2022-07-07,1,,,,,モビリティイノベーションアライアンス,0
1635,7011101099419,新規,0,2022-07-07,2022-07-07,サファイロス株式会社,,株式会社,東京都,新宿区,高田馬場４丁目１８番１５号第２中村ビル２０４号室,,13,104,1690075,,,,,,,2022-07-07,1,,,,,サファイロス,0
1636,7011101099427,新規,0,2022-07-07,2022-07-07,ＦｏｒＬｉｆｅ株式会社,,株式会社,東京都,新宿区,新小川町５番４号ＮＩＣビル５階,,13,104,1620814,,,,,,,2022-07-07,1,,,,,フォーライフ,0
1637,7011101099435,新規,0,2022-07-07,2022-07-07,株式会社ＢＡＢＡ,,株式会社,東京都,新宿区,高田馬場２丁目１８番１１号稲門ビル３Ｆ,,13,104,1690075,,,,,,,2022-07-07,1,,,,,ババ,0
1638,7011101099451,新規,0,2022-07-07,2022-07-07,スペスマーケティング株式会社,,株式会社,東京都,新宿区,高田馬場１丁目１６－３０ＫＩＫビル３０５号室,,13,104,1690075,,,,,,,2022-07-07,1,,,,,スペスマーケティング,0
1639,7011103011926,新規,0,2022-07-07,2022-07-07,ＩＮＤＯＲＡ合同会社,,合同会社,東京都,新宿区,新宿１丁目２４番２号長井ビル１Ｆ,,13,104,1600022,,,,,,,2022-07-07,1,,,,,インドラ,0
1640,7011103011950,新規,0,2022-07-07,2022-07-07,合同会社ディープ,,合同会社,東京都,新宿区,高田馬場２丁目１５－１０城北ビル３Ｂ,,13,104,1690075,,,,,,,2022-07-07,1,,,,,ディープ,0
1641,7011301027897,新規,0,2022-07-07,2022-07-07,株式会社Ｋ’ｓ　Ｆａｒｍ,,株式会社,東京都,杉並区,和泉２丁目１０番１８号,,13,115,1680063,,,,,,,2022-07-07,1,,,,,ケーズファーム,0
1642,7011301027906,新規,0,2022-07-07,2022-07-07,株式会社拓く未来,,株式会社,東京都,杉並区,今川２丁目１番８号,,13,115,1670035,,,,,,,2022-07-07,1,,,,,ヒラクミライ,0
1643,7011301027922,新規,0,2022-07-07,2022-07-07,株式会社ＳＴＡＲＤＩＳＨ,,株式会社,東京都,杉並区,西荻北２丁目３３番１９号,,13,115,1670042,,,,,,,2022-07-07,1,,,,,スターディッシュ,0
1653,7011701025443,新規,0,2022-07-07,2022-07-07,株式会社ＹＧサービス,,株式会社,東京都,江戸川区,松江５丁目１２－１－２１２,,13,123,1320025,,,,,,,2022-07-07,1,,,,,ワイジーサービス,0
1655,7011801040953,新規,0,2022-07-07,2022-07-07,風凛空調株式会社,,株式会社,東京都,葛飾区,南水元４丁目１０番２２号,,13,122,1250035,,,,,,,2022-07-07,1,,,,,フウリンクウチョウ,0
1656,7011801040961,新規,0,2022-07-07,2022-07-07,株式会社ＢｌｏｏｍＣｏｎｎｅｃｔ,,株式会社,東京都,足立区,神明南１丁目４番１７号,,13,121,1210057,,,,,,,2022-07-07,1,,,,,ブルームコネクト,0
1658,7012401039361,新規,0,2022-07-07,2022-07-07,ＪＵＫＩテクノソリューションズ株式会社,,株式会社,東京都,多摩市,鶴牧２丁目１１番地１,,13,224,2060034,,,,,,,2022-07-07,1,,,,,ジューキテクノソリューションズ,0
1659,7012401039394,新規,0,2022-07-07,2022-07-07,月ノ雨株式会社,,株式会社,東京都,武蔵野市,吉祥寺東町４丁目１５番１号,,13,203,1800002,,,,,,,2022-07-07,1,,,,,ツキノアメ,0
1665,7012701017141,新規,0,2022-07-07,2022-07-07,株式会社リブモノリス,,株式会社,東京都,小平市,天神町１丁目３番１４－２０３号メゾンドボヌール武蔵野,,13,211,1870004,,,,,,,2022-07-07,1,,,,,リブモノリス,0
1666,7012801021704,新規,0,2022-07-07,2022-07-07,株式会社ルミナス,,株式会社,東京都,国分寺市,南町２丁目１７番１号,,13,214,1850021,,,,,,,2022-07-07,1,,,,,ルミナス,0
1674,7013301049343,新規,0,2022-07-07,2022-07-07,株式会社田中商店,,株式会社,東京都,豊島区,巣鴨３丁目１８番３－４０２号,,13,116,1700002,,,,,,,2022-07-07,1,,,,,タナカショウテン,0
1682,7020001147229,新規,0,2022-07-07,2022-07-07,株式会社大幸物流,,株式会社,神奈川県,川崎市幸区,中幸町２丁目１２番地,,14,132,2120012,,,,,,,2022-07-07,1,,,,,ダイコウブツリュウ,0
1683,7020001147261,新規,0,2022-07-07,2022-07-07,株式会社アドバンスフィールド,,株式会社,神奈川県,横浜市都筑区,東山田町１２８番地４,,14,118,2240024,,,,,,,2022-07-07,1,,,,,アドバンスフィールド,0
1685,7020003022066,新規,0,2022-07-07,2022-07-07,合同会社ＢＢアセットマネジメント,,合同会社,神奈川県,川崎市中原区,新城中町５番２－１４０３号プロムナード新城,,14,133,2110043,,,,,,,2022-07-07,1,,,,,ビービーアセットマネジメント,0
1692,7021001076426,新規,0,2022-07-07,2022-07-07,株式会社ヤマキ,,株式会社,神奈川県,相模原市中央区,横山台１丁目１８番１７号,,14,152,2520241,,,,,,,2022-07-07,1,,,,,ヤマキ,0
1693,7021001076434,新規,0,2022-07-07,2022-07-07,株式会社ＨＭ建塗,,株式会社,神奈川県,小田原市,東大友２３０番地の４,,14,206,2500213,,,,,,,2022-07-07,1,,,,,エイチエムケント,0
1694,7021001076450,新規,0,2022-07-07,2022-07-07,株式会社ＭＫ,,株式会社,神奈川県,藤沢市,鵠沼松が岡２丁目５番２８号,00127135,14,205,2510038,,,,,,,2022-07-07,1,,,,,エムケー,0
1695,7021001076459,新規,0,2022-07-07,2022-07-07,株式会社リライズ,,株式会社,神奈川県,厚木市,妻田北２丁目１５番１２号,,14,212,2430812,,,,,,,2022-07-07,1,,,,,リライズ,0
1697,7021003011901,新規,0,2022-07-07,2022-07-07,ＴＵＤＯＩ合同会社,,合同会社,神奈川県,足柄上郡松田町,松田惣領３２１番地１,,14,363,2580003,,,,,,,2022-07-07,1,,,,,ツドイ,0
1702,7021005012559,新規,0,2022-07-07,2022-07-07,一般社団法人リーガルコート,,その他の設立登記法人,神奈川県,大和市,中央４丁目１－２３風の木ビル８階,,14,213,2420021,,,,,,,2022-07-07,1,,,,,リーガルコート,0
1705,7030001149018,新規,0,2022-07-07,2022-07-07,オークマプラス株式会社,,株式会社,埼玉県,八潮市,大字古新田１９９番地２,,11,234,3400823,,,,,,,2022-07-07,1,,,,,オークマプラス,0
1706,7030001149042,新規,0,2022-07-07,2022-07-07,株式会社ＵＮＥＲ,,株式会社,埼玉県,吉川市,大字三輪野江北２４２１,,11,243,3420027,,,,,,,2022-07-07,1,,,,,ウナー,0
1707,7030001149059,新規,0,2022-07-07,2022-07-07,株式会社ミルスペック,,株式会社,埼玉県,さいたま市大宮区,上小町１１９番地１,,11,103,3300855,,,,,,,2022-07-07,1,,,,,ミルスペック,0
1708,7030001149075,新規,0,2022-07-07,2022-07-07,パブリシンク株式会社,,株式会社,埼玉県,北本市,中央１丁目１０９－１０２,,11,233,3640031,,,,,,,2022-07-07,1,,,,,パブリシンク,0
1712,7030003019722,新規,0,2022-07-07,2022-07-07,合同会社ＨＥＡＲＳＥＮＴ,,合同会社,埼玉県,川口市,南鳩ヶ谷７丁目２３番１８号フラワーガーデンハウス２０１号,,11,203,3340013,,,,,,,2022-07-07,1,,,,,ハーセント,0
1713,7030003019730,新規,0,2022-07-07,2022-07-07,ピーエスサポート合同会社,,合同会社,埼玉県,さいたま市中央区,鈴谷７丁目６番３－１１０９号,,11,105,3380013,,,,,,,2022-07-07,1,,,,,ピーエスサポート,0
1722,7050003006660,新規,0,2022-07-07,2022-07-07,合同会社Ｎ,,合同会社,茨城県,つくばみらい市,谷井田２３９１番地１１,,08,235,3002337,,,,,,,2022-07-07,1,,,,,エヌ,0
1726,7060001035058,新規,0,2022-07-07,2022-07-07,株式会社早田工業,,株式会社,栃木県,宇都宮市,宝木町１丁目２５９２番地７２‐１０３号,,09,201,3200061,,,,,,,2022-07-07,1,,,,,ハヤタコウギョウ,0
1732,7080101023407,新規,0,2022-07-07,2022-07-07,株式会社ワタナベ板金,,株式会社,静岡県,富士市,一色２４１番地の１,,22,210,4170808,,,,,,,2022-07-07,1,,,,,ワタナベバンキン,0
1740,7110001036810,新規,0,2022-07-07,2022-07-07,株式会社Ｐｒｅｃｅｅｄ,,株式会社,新潟県,三条市,善久寺３００７番地１,,15,204,9591121,,,,,,,2022-07-07,1,,,,,プレシード,0
1760,7120001247134,新規,0,2022-07-07,2022-07-07,株式会社アルファデフィ,,株式会社,大阪府,枚方市,東香里元町８番１１号,,27,210,5730076,,,,,,,2022-07-07,1,,,,,アルファデフィ,0
1761,7120001247159,新規,0,2022-07-07,2022-07-07,株式会社プライムアカウンティングオフィス,,株式会社,大阪府,大阪市中央区,久太郎町３丁目４番３０号船場グランドビル４Ｆ,,27,128,5410056,,,,,,,2022-07-07,1,,,,,プライムアカウンティングオフィス,0
1762,7120001247183,新規,0,2022-07-07,2022-07-07,株式会社Ｔｒｕｓｔ　ｙｏｕｒ　ｘｘｘｘｘｘｘｘ,,株式会社,大阪府,大阪市北区,梅田１丁目１番３号大阪駅前第３ビル２９階１－１－１号室,,27,127,5300001,,,,,,,2022-07-07,1,,,,,トラストユア,0
1763,7120001247191,新規,0,2022-07-07,2022-07-07,株式会社エムズ・ファクトリー,,株式会社,大阪府,大阪市平野区,平野北２丁目７番１３号,,27,126,5470041,,,,,,,2022-07-07,1,,,,,エムズファクトリー,0
1764,7120001247241,新規,0,2022-07-07,2022-07-07,共生ビジネスサポート株式会社,,株式会社,大阪府,大阪市中央区,内平野町２丁目２－６ニューライフ大手前三番館７０６,,27,128,5400037,,,,,,,2022-07-07,1,,,,,キョウセイビジネスサポート,0
1766,7120005023028,新規,0,2022-07-07,2022-07-07,一般社団法人２０２５年日本国際博覧会大阪パビリオン,,その他の設立登記法人,大阪府,大阪市住之江区,南港北２丁目１番１０号ＡＴＣビルＯ’ｓ棟北館４階,,27,125,5590034,,,,,,,2022-07-07,1,,,,,ニセンニジュウゴネンニホンコクサイハクランカイオオサカパビリオン,0
1770,7120101065873,新規,0,2022-07-07,2022-07-07,株式会社メイユール,,株式会社,大阪府,堺市堺区,材木町西２丁２番７－４０４号,,27,141,5900941,,,,,,,2022-07-07,1,,,,,メイユール,0
1772,7120103004771,新規,0,2022-07-07,2022-07-07,合同会社ココリ,,合同会社,大阪府,堺市東区,白鷺町３丁８－５,,27,143,5998107,,,,,,,2022-07-07,1,,,,,ココリ,0
1775,7120901046214,新規,0,2022-07-07,2022-07-07,株式会社Ｇａｉｎ,,株式会社,大阪府,豊中市,小曽根１丁目２５番９号,,27,203,5610813,,,,,,,2022-07-07,1,,,,,ゲイン,0
1782,7130001072077,新規,0,2022-07-07,2022-07-07,株式会社ゆずプラス,,株式会社,京都府,京都市南区,吉祥院中島町３０番１３号,,26,107,6018313,,,,,,,2022-07-07,1,,,,,ユズプラス,0
1790,7150001025685,新規,0,2022-07-07,2022-07-07,佐紀電気株式会社,,株式会社,奈良県,奈良市,佐紀町２４６８番地の４,,29,201,6308003,,,,,,,2022-07-07,1,,,,,サキデンキ,0
1791,7150003002724,新規,0,2022-07-07,2022-07-07,合同会社ＴＡＫＥＧＡＷＡ,,合同会社,奈良県,吉野郡大淀町,大字北野３２番地の１６,,29,442,6393125,,,,,,,2022-07-07,1,,,,,タケガワ,0
1804,7180001151999,新規,0,2022-07-07,2022-07-07,株式会社バリューソフトネクスト,,株式会社,愛知県,名古屋市中区,栄１丁目１０番３号,,23,106,4600008,,,,,,,2022-07-07,1,,,,,バリューソフトネクスト,0
1805,7180001152097,新規,0,2022-07-07,2022-07-07,株式会社ＤｘＳ,,株式会社,愛知県,名古屋市西区,那古野２丁目１４番１号,,23,104,4510042,,,,,,,2022-07-07,1,,,,,デクス,0
1807,7190001029583,新規,0,2022-07-07,2022-07-07,成田建設株式会社,,株式会社,三重県,四日市市,南富田町１５番１１号,,24,202,5108013,,,,,,,2022-07-07,1,,,,,ナリタケンセツ,0
1810,7200001040258,新規,0,2022-07-07,2022-07-07,株式会社アクア工業,,株式会社,岐阜県,各務原市,那加野畑町２丁目５３番地,,21,213,5040025,,,,,,,2022-07-07,1,,,,,アクアコウギョウ,0
1812,7210001018988,新規,0,2022-07-07,2022-07-07,ＩＣＨＩＧＯＯＪＩ株式会社,,株式会社,福井県,坂井市,春江町石塚第２０号２番地,,18,210,9190483,,,,,,,2022-07-07,1,,,,,イチゴオウジ,0
1813,7210001018996,新規,0,2022-07-07,2022-07-07,株式会社アイビープロデュース,,株式会社,福井県,福井市,光陽１丁目２－１１,,18,201,9100026,,,,,,,2022-07-07,1,,,,,アイビープロデュース,0
1815,7230001019431,新規,0,2022-07-07,2022-07-07,大創たから株式会社,,株式会社,富山県,富山市,上冨居３丁目１番１号,,16,201,9300835,,,,,,,2022-07-07,1,,,,,ダイソウタカラ,0
1817,7230003001882,新規,0,2022-07-07,2022-07-07,合同会社みずき設計,,合同会社,富山県,砺波市,苗加４７７－１０,,16,208,9391333,,,,,,,2022-07-07,1,,,,,ミズキセッケイ,0
1831,7270001008579,新規,0,2022-07-07,2022-07-07,コバデン株式会社,,株式会社,鳥取県,鳥取市,鹿野町河内２６２１番地,,31,201,6890412,,,,,,,2022-07-07,1,,,,,コバデン,0
1837,7290001098156,新規,0,2022-07-07,2022-07-07,株式会社Ｓｐｉｒｉｔ,,株式会社,福岡県,福岡市中央区,大名１丁目５番７号ＫＫビル１Ｆ,,40,133,8100041,,,,,,,2022-07-07,1,,,,,スピリット,0
1838,7290001098197,新規,0,2022-07-07,2022-07-07,Ｆｌａｔ　ｒｉｃｅ　ｆｉｅｌｄ株式会社,,株式会社,福岡県,大野城市,大城４丁目１２番２号,,40,219,8160911,,,,,,,2022-07-07,1,,,,,フラットライスフィールド,0
1839,7290001098214,新規,0,2022-07-07,2022-07-07,株式会社プラスラブ,,株式会社,福岡県,福岡市東区,香椎照葉１丁目３－２－９０２,,40,131,8130017,,,,,,,2022-07-07,1,,,,,プラスラブ,0
1840,7290001098222,新規,0,2022-07-07,2022-07-07,株式会社福岡建連,,株式会社,福岡県,福岡市博多区,博多駅南３丁目２０番２７号,,40,132,8120016,,,,,,,2022-07-07,1,,,,,フクオカケンレン,0
1844,7290003012718,新規,0,2022-07-07,2022-07-07,合同会社ＥＸＰ,,合同会社,福岡県,福岡市中央区,清川２丁目５番３３－１１０２号,,40,133,8100005,,,,,,,2022-07-07,1,,,,,イーエックスピー,0
1845,7290005018738,新規,0,2022-07-07,2022-07-07,一般社団法人恵松会,,その他の設立登記法人,福岡県,福岡市中央区,大名２丁目６番３９号,,40,133,8100041,,,,,,,2022-07-07,1,,,,,ケイショウカイ,0
1846,7290801028717,新規,0,2022-07-07,2022-07-07,株式会社三共商会,,株式会社,福岡県,北九州市小倉南区,企救丘６丁目２０番４号,,40,107,8020981,,,,,,,2022-07-07,1,,,,,サンキョウショウカイ,0
1849,7310001017947,新規,0,2022-07-07,2022-07-07,株式会社Ａ　ｃｏｍｐａｎｙ,,株式会社,長崎県,対馬市,上対馬町古里１３番地３,,42,209,8171702,,,,,,,2022-07-07,1,,,,,エーカンパニー,0
1852,7320001019182,新規,0,2022-07-07,2022-07-07,株式会社小野石油,,株式会社,大分県,佐伯市,蒲江大字竹野浦河内２８５番地１,,44,205,8762301,,,,,,,2022-07-07,1,,,,,オノセキユ,0
1853,7330001029908,新規,0,2022-07-07,2022-07-07,株式会社正礼,,株式会社,熊本県,宇城市,不知火町高良１８７６－１,,43,213,8690552,,,,,,,2022-07-07,1,,,,,ショウレイ,0
1857,7350001017852,新規,0,2022-07-07,2022-07-07,株式会社オーエム,,株式会社,宮崎県,宮崎市,清武町加納甲１４５０番地１３６,,45,201,8891605,,,,,,,2022-07-07,1,,,,,オーエム,0
1860,7360001030664,新規,0,2022-07-07,2022-07-07,沖縄海洋ドローン機構株式会社,,株式会社,沖縄県,那覇市,銘苅１丁目１０番４１号,,47,201,9000004,,,,,,,2022-07-07,1,,,,,オキナワカイヨウドローンキコウ,0
1861,7360001030672,新規,0,2022-07-07,2022-07-07,株式会社ＨＡＩＳＡＩ,,株式会社,沖縄県,石垣市,美崎町１０番地１６－１階,,47,207,9070012,,,,,,,2022-07-07,1,,,,,ハイサイ,0
1866,7380001032948,新規,0,2022-07-07,2022-07-07,株式会社黒沢商店,,株式会社,福島県,相馬郡新地町,谷地小屋字萩崎１番地,,07,561,9792702,,,,,,,2022-07-07,1,,,,,クロサワショウテン,0
1867,7380001032956,新規,0,2022-07-07,2022-07-07,株式会社いなびし,,株式会社,福島県,耶麻郡猪苗代町,字新町４９３１－１,,07,408,9693122,,,,,,,2022-07-07,1,,,,,,0
1869,7380003005217,新規,0,2022-07-07,2022-07-07,合同会社ランバージャック,,合同会社,福島県,福島市,大波字岩巡２６番地の２,,07,201,9600811,,,,,,,2022-07-07,1,,,,,ランバージャック,0
1870,7380003005225,新規,0,2022-07-07,2022-07-07,合同会社ミライモ,,合同会社,福島県,福島市,本内字南町裏２１番１号１階,,07,201,9600103,,,,,,,2022-07-07,1,,,,,ミライモ,0
1871,7380005012599,新規,0,2022-07-07,2022-07-07,一般社団法人ＳＪＷ,,その他の設立登記法人,福島県,いわき市,内郷御厩町１丁目２２０番地の１,00127130,07,204,9738402,,,,,,,2022-07-07,1,,,,,エスジェイダブリュー,0
1880,7420001017936,新規,0,2022-07-07,2022-07-07,株式会社湘南,,株式会社,青森県,青森市,原別７丁目１０番１号,,02,201,0300921,,,,,,,2022-07-07,1,,,,,ショウナン,0
1881,7430001086988,新規,0,2022-07-07,2022-07-07,株式会社スペック・エス,,株式会社,北海道,江別市,東光町１０番地の２２,,01,217,0670023,,,,,,,2022-07-07,1,,,,,スペックエス,0
1882,7430001087020,新規,0,2022-07-07,2022-07-07,株式会社ＧＲＯＡＤ,,株式会社,北海道,札幌市豊平区,月寒西一条９丁目５番７－１０１号,,01,105,0620021,,,,,,,2022-07-07,1,,,,,グロード,0
1888,7470001019143,新規,0,2022-07-07,2022-07-07,株式会社大和フィールド,,株式会社,香川県,観音寺市,新田町１１５０番地１,,37,205,7680033,,,,,,,2022-07-07,1,,,,,ヤマトフィールド,0
1893,7500001024321,新規,0,2022-07-07,2022-07-07,株式会社大漁ホールディングス,,株式会社,愛媛県,宇和島市,築地町２丁目６番７号,,38,203,7980005,,,,,,,2022-07-07,1,,,,,ダイリョウホールディングス,0
1896,7700150109076,新規,0,2022-07-07,2022-05-27,Ｈｅｘａ　Ｂｅａｔ,,その他,東京都,練馬区,東大泉５丁目２７番５号コーポカトレア２０１,,13,120,1780063,,,,,,,2022-05-27,1,,,,,ヘキサビート,0
1897,7700150109258,新規,0,2022-07-07,2022-06-07,見瀬町自治会,,その他,奈良県,橿原市,見瀬町２０５０（見瀬町集会所）,,29,205,6340064,,,,,,,2022-06-07,1,,,,,ミセチヨウジチカイ,0
1898,7700150109605,新規,0,2022-07-07,2022-06-14,ふたばエイト,,その他,福島県,双葉郡楢葉町,大字北田字中満２６０番地,,07,542,9790604,,,,,,,2022-06-14,1,,,,,フタバエイト,0
1899,7700150109852,新規,0,2022-07-07,2022-06-16,大冠北自治連合会,,その他,大阪府,高槻市,永楽町１－１５大冠北第１コミュニティセンター内,,27,207,5690083,,,,,,,2022-06-16,1,,,,,オオカンムリキタジチレンゴウカイ,0
1908,8010001227757,新規,0,2022-07-07,2022-07-07,株式会社節,,株式会社,東京都,中央区,佃２丁目１番１‐３７０７号,,13,102,1040051,,,,,,,2022-07-07,1,,,,,フシ,0
1909,8010001227864,新規,0,2022-07-07,2022-07-07,株式会社あしたはれら,,株式会社,東京都,中央区,日本橋蛎殻町２丁目１５－９須磨マンション８０２号室,,13,102,1030014,,,,,,,2022-07-07,1,,,,,アシタハレラ,0
1911,8010003038046,新規,0,2022-07-07,2022-07-07,合同会社メディカルサプライ,,合同会社,東京都,文京区,小石川１丁目５番１－３５１１号,,13,105,1120002,,,,,,,2022-07-07,1,,,,,メディカルサプライ,0
1912,8010003038054,新規,0,2022-07-07,2022-07-07,合同会社Ｏｎｅ　Ｂａｓｋｅｔ,,合同会社,東京都,中央区,日本橋３丁目２番１４号新槇町ビル別館第一１階,,13,102,1030027,,,,,,,2022-07-07,1,,,,,,0
1913,8010003038079,新規,0,2022-07-07,2022-07-07,合同会社ワンフィールズ,,合同会社,東京都,千代田区,神田小川町３丁目２番地１０三光ビル４階,,13,101,1010052,,,,,,,2022-07-07,1,,,,,ワンフィールズ,0
1914,8010003038087,新規,0,2022-07-07,2022-07-07,合同会社ベラジータ,,合同会社,東京都,中央区,月島１丁目８番１－２１０４号,,13,102,1040052,,,,,,,2022-07-07,1,,,,,ベラジータ,0
1915,8010101015244,新規,0,2022-07-07,2022-07-07,ＮＫ防災設備株式会社,,株式会社,東京都,八王子市,南陽台２丁目８番４号,,13,201,1920371,,,,,,,2022-07-07,1,,,,,エヌケイボウサイセツビ,0
1924,8010403028035,新規,0,2022-07-07,2022-07-07,合同会社神谷町インベストメント２３号,,合同会社,東京都,港区,虎ノ門５丁目１番４号,,13,103,1050001,,,,,,,2022-07-07,1,,,,,カミヤチョウインベストメントニジュウサンゴウ,0
1929,8010601061432,新規,0,2022-07-07,2022-07-07,株式会社のりのりファンド,,株式会社,東京都,墨田区,東向島５丁目１９番４号,,13,107,1310032,,,,,,,2022-07-07,1,,,,,ノリノリファンド,0
1930,8010603009628,新規,0,2022-07-07,2022-07-07,合同会社１Ｄ,,合同会社,東京都,墨田区,錦糸１丁目２番１号,,13,107,1300013,,,,,,,2022-07-07,1,,,,,ワンディー,0
1933,8010703006302,新規,0,2022-07-07,2022-07-07,合同会社ＮＡＭＡＣＯ,,合同会社,東京都,品川区,大井５丁目１９番５号,,13,109,1400014,,,,,,,2022-07-07,1,,,,,ナマコ,0
1934,8010801033099,新規,0,2022-07-07,2022-07-07,婉美株式会社,,株式会社,東京都,大田区,西蒲田１丁目１番１５－１１２号,,13,111,1440051,,,,,,,2022-07-07,1,,,,,エンビ,0
1937,8010901051190,新規,0,2022-07-07,2022-07-07,ＳＰＡＲＫ　ＪＯＹ株式会社,,株式会社,東京都,世田谷区,玉堤１丁目２０番２３号,,13,112,1580087,,,,,,,2022-07-07,1,,,,,スパークジョイ,0
1943,8011103011933,新規,0,2022-07-07,2022-07-07,合同会社ＰＬＥＡＳＵＲＥ,,合同会社,東京都,新宿区,北新宿４丁目１６番１号天田ビル３０１,,13,104,1690074,,,,,,,2022-07-07,1,,,,,プレジャー,0
1948,8011301027921,新規,0,2022-07-07,2022-07-07,株式会社ＨＱＡ,,株式会社,東京都,杉並区,和泉３丁目５番４号嶋田ビル２０４,,13,115,1680063,,,,,,,2022-07-07,1,,,,,エイチキューエー,0
1949,8011605002463,新規,0,2022-07-07,2022-07-07,弁理士法人大山国際特許事務所,,その他の設立登記法人,東京都,練馬区,豊玉北５丁目２８番７－７０１号,,13,120,1760012,,,,,,,2022-07-07,1,,,,,オオヤマコクサイトッキョジムショ,0
1952,8011805003179,新規,0,2022-07-07,2022-07-07,ＮＰＯ法人日本三味線音楽協会,,その他の設立登記法人,東京都,葛飾区,亀有３丁目３番１１－２０５号ＮＩＣアーバンハイム亀有,,13,122,1250061,,,,,,,2022-07-07,1,,,,,ニホンシャミセンオンガクキョウカイ,0
1953,8012401039385,新規,0,2022-07-07,2022-07-07,株式会社Ｓ＆Ｃ,,株式会社,東京都,府中市,栄町３丁目２２番地の１,,13,206,1830051,,,,,,,2022-07-07,1,,,,,エスアンドシー,0
1957,8012801021703,新規,0,2022-07-07,2022-07-07,株式会社大慎建設,,株式会社,東京都,立川市,砂川町６丁目１８－２２,,13,202,1900031,,,,,,,2022-07-07,1,,,,,ダイシンケンセツ,0
1966,8020001147236,新規,0,2022-07-07,2022-07-07,株式会社アトリエプロメテウス,,株式会社,神奈川県,川崎市中原区,小杉町３丁目４３２番地キラクビル３階,,14,133,2110063,,,,,,,2022-07-07,1,,,,,アトリエプロメテウス,0
1968,8020003022065,新規,0,2022-07-07,2022-07-07,ＫｕｎｓｔＷｅｔ合同会社,,合同会社,神奈川県,横浜市青葉区,荏田西３丁目２９番地１４,,14,117,2250014,,,,,,,2022-07-07,1,,,,,クンストウエット,0
1970,8021001076425,新規,0,2022-07-07,2022-07-07,株式会社アケルソリューション,,株式会社,神奈川県,藤沢市,片瀬３丁目３番３２号,,14,205,2510032,,,,,,,2022-07-07,1,,,,,アケルソリューション,0
1971,8021001076441,新規,0,2022-07-07,2022-07-07,株式会社アオクリ,,株式会社,神奈川県,平塚市,中原２丁目１番６３－７０６号パークサイド湘南,,14,203,2540075,,,,,,,2022-07-07,1,,,,,アオクリ,0
1976,8030001149025,新規,0,2022-07-07,2022-07-07,ＴｉＥＳ株式会社,,株式会社,埼玉県,川口市,南鳩ヶ谷３丁目１８番３６－３１１号,,11,203,3340013,,,,,,,2022-07-07,1,,,,,タイズ,0
1977,8030001149074,新規,0,2022-07-07,2022-07-07,株式会社元,,株式会社,埼玉県,さいたま市見沼区,島町１１６６番地１１,,11,104,3370006,,,,,,,2022-07-07,1,,,,,ハジメ,0
1978,8030001149082,新規,0,2022-07-07,2022-07-07,株式会社Ｚａｗａ,,株式会社,埼玉県,川口市,大字東本郷９６８番地の１,,11,203,3340063,,,,,,,2022-07-07,1,,,,,ザワ,0
1979,8030001149090,新規,0,2022-07-07,2022-07-07,株式会社日創さいたま,,株式会社,埼玉県,さいたま市南区,曲本５丁目１番１９号コーポ・リヨン１０６号室,,11,108,3360033,,,,,,,2022-07-07,1,,,,,ニッソウサイタマ,0
1981,8030003019721,新規,0,2022-07-07,2022-07-07,合同会社ノースブランディング,,合同会社,埼玉県,越谷市,川柳町４丁目２４５番地１朝日プラザガーデンシティ新越谷９１８,,11,222,3430827,,,,,,,2022-07-07,1,,,,,ノースブランディング,0
1982,8030003019762,新規,0,2022-07-07,2022-07-07,おかゆき合同会社,,合同会社,埼玉県,川口市,栄町３丁目１２番８号柳屋ビル２０２号,,11,203,3320017,,,,,,,2022-07-07,1,,,,,オカユキ,0
1987,8040001124175,新規,0,2022-07-07,2022-07-07,株式会社ワイティー企画,,株式会社,千葉県,千葉市中央区,春日１丁目７番２号,,12,101,2600033,,,,,,,2022-07-07,1,,,,,ワイティーキカク,0
1994,8060001035040,新規,0,2022-07-07,2022-07-07,株式会社ＳＶＡ‐２,,株式会社,栃木県,足利市,寺岡町３５１番地,,09,202,3294213,,,,,,,2022-07-07,1,,,,,エスブイエーツー,0
1997,8070001039404,新規,0,2022-07-07,2022-07-07,株式会社旬農園,,株式会社,群馬県,みどり市,笠懸町鹿３６５９番地,,10,212,3792313,,,,,,,2022-07-07,1,,,,,シュンノウエン,0
2000,8080401025936,新規,0,2022-07-07,2022-07-07,株式会社ＣＵＰ,,株式会社,静岡県,浜松市西区,西鴨江町１７３番地の１,,22,133,4328067,,,,,,,2022-07-07,1,,,,,カップ,0
2002,8090003002127,新規,0,2022-07-07,2022-07-07,高橋商事合同会社,00127131,合同会社,山梨県,韮崎市,穂坂町宮久保５４４０,,19,207,4070175,,,,,,,2022-07-07,1,,,,,タカハシショウジ,0
2005,8100001035498,新規,0,2022-07-07,2022-07-07,株式会社Ｃｈａｉｎ　Ｌｉｎｋｓ,,株式会社,長野県,長野市,大字高田８６９番地,,20,201,3810034,,,,,,,2022-07-07,1,,,,,チェインリンクス,0
2006,8110001036801,新規,0,2022-07-07,2022-07-07,株式会社アーネストＴＧＰ,,株式会社,新潟県,三条市,福島新田丁８５８番地,,15,204,9591155,,,,,,,2022-07-07,1,,,,,アーネストティージーピー,0
2017,8120001247182,新規,0,2022-07-07,2022-07-07,ＣＲＥＷ株式会社,,株式会社,大阪府,大阪市北区,堂山町１－２Ｒ＆Ｅビル２階,,27,127,5300027,,,,,,,2022-07-07,1,,,,,クルー,0
2018,8120001247190,新規,0,2022-07-07,2022-07-07,株式会社サカタ工業,,株式会社,大阪府,枚方市,須山町６２番１２号,,27,210,5731164,,,,,,,2022-07-07,1,,,,,サカタコウギョウ,0
2027,8120103004770,新規,0,2022-07-07,2022-07-07,アルカナソリューション合同会社,,合同会社,大阪府,堺市西区,草部２７４番地９ディアス福泉Ｆ１０２号,,27,144,5938312,,,,,,,2022-07-07,1,,,,,アルカナソリューション,0
2028,8120903004219,新規,0,2022-07-07,2022-07-07,合同会社Ｐ＆Ｈコンサルティング,,合同会社,大阪府,高槻市,紺屋町７番８－３０１,,27,207,5690804,,,,,,,2022-07-07,1,,,,,ピーアンドエイチコンサルティング,0
2039,8140001126599,新規,0,2022-07-07,2022-07-07,株式会社ｍ＆ｍ,,株式会社,兵庫県,西宮市,櫨塚町３番２７号西宮センタービル２０４,,28,204,6620854,,,,,,,2022-07-07,1,,,,,エムアンドエム,0
2044,8160001024330,新規,0,2022-07-07,2022-07-07,株式会社ライジング,,株式会社,滋賀県,東近江市,市辺町２８６６番地,,25,213,5270074,,,,,,,2022-07-07,1,,,,,ライジング,0
2045,8160001024339,新規,0,2022-07-07,2022-07-07,株式会社ＯＴＥＣＨ,,株式会社,滋賀県,野洲市,比江８６１番地,,25,210,5202434,,,,,,,2022-07-07,1,,,,,オーテック,0
2047,8170001017184,新規,0,2022-07-07,2022-07-07,日野ＩＴソリューション株式会社,,株式会社,和歌山県,和歌山市,岩橋７４５番地３,,30,201,6408301,,,,,,,2022-07-07,1,,,,,ヒノアイティソリューション,0
2052,8180001152006,新規,0,2022-07-07,2022-07-07,株式会社リヴァイズ,,株式会社,愛知県,名古屋市守山区,新守西９１６番地,,23,113,4630069,,,,,,,2022-07-07,1,,,,,リヴァイズ,0
2053,8180001152047,新規,0,2022-07-07,2022-07-07,ｖｅｒｔｅｘ株式会社,,株式会社,愛知県,一宮市,北方町曽根字村東１１９番地３,,23,203,4938002,,,,,,,2022-07-07,1,,,,,ウェルテクス,0
2054,8180001152096,新規,0,2022-07-07,2022-07-07,株式会社ベクトルＶＯＩＣＥ,,株式会社,愛知県,尾張旭市,南原山町赤土２４０番地２５,,23,226,4880066,,,,,,,2022-07-07,1,,,,,ベクトルボイス,0
2057,8180003024013,新規,0,2022-07-07,2022-07-07,合同会社ＮＥＷ　ＭＡＬＩＫＡ,,合同会社,愛知県,名古屋市中村区,亀島２丁目２０番４号,,23,105,4530013,,,,,,,2022-07-07,1,,,,,ニューマリカ,0
2059,8190001029566,新規,0,2022-07-07,2022-07-07,三空工業株式会社,,株式会社,三重県,桑名市,大字五反田１３６０番地２,,24,205,5110946,,,,,,,2022-07-07,1,,,,,サンクウコウギョウ,0
2060,8190001029574,新規,0,2022-07-07,2022-07-07,株式会社アシスト,,株式会社,三重県,鈴鹿市,若松中２丁目１８番１２号,,24,207,5100224,,,,,,,2022-07-07,1,,,,,アシスト,0
2061,8190001029590,新規,0,2022-07-07,2022-07-07,株式会社イーアスラボ,,株式会社,三重県,伊勢市,大湊町８１２番地３,,24,203,5160001,,,,,,,2022-07-07,1,,,,,イーアスラボ,0
2064,8200001040257,新規,0,2022-07-07,2022-07-07,株式会社ＤＵＮＫ,,株式会社,岐阜県,岐阜市,羽根町２７番地玉井ビル２階,,21,201,5008834,,,,,,,2022-07-07,1,,,,,ダンク,0
2068,8210001018987,新規,0,2022-07-07,2022-07-07,中村建設株式会社,,株式会社,福井県,敦賀市,金山６５号１４１番地,,18,202,9140146,,,,,,,2022-07-07,1,,,,,ナカムラケンセツ,0
2069,8210001018995,新規,0,2022-07-07,2022-07-07,アフターグロウ株式会社,,株式会社,福井県,福井市,照手１丁目９－２０,,18,201,9100024,,,,,,,2022-07-07,1,,,,,アフターグロウ,0
2071,8220001024943,新規,0,2022-07-07,2022-07-07,ペイントテック株式会社,,株式会社,石川県,加賀市,別所町漆器団地１８番地４,,17,206,9220274,,,,,,,2022-07-07,1,,,,,ペイントテック,0
2072,8230001019430,新規,0,2022-07-07,2022-07-07,ワイドストリーム産業株式会社,,株式会社,富山県,高岡市,清水町２丁目３－２７－１１０１,,16,202,9330866,,,,,,,2022-07-07,1,,,,,ワイドストリームサンギョウ,0
2073,8230003001881,新規,0,2022-07-07,2022-07-07,合同会社山口建築設計事務所,,合同会社,富山県,黒部市,田家新８９９番地１,,16,207,9380045,,,,,,,2022-07-07,1,,,,,ヤマグチケンチクセッケイジムショ,0
2081,8240003005700,新規,0,2022-07-07,2022-07-07,合同会社ｉｍａｇｉｎｅ,,合同会社,広島県,福山市,横尾町２丁目１９番１号,,34,207,7200011,,,,,,,2022-07-07,1,,,,,イマジン,0
2084,8250001019635,新規,0,2022-07-07,2022-07-07,株式会社Ｔａｎｄ１,,株式会社,山口県,周南市,中畷町５番１３号,,35,215,7460052,,,,,,,2022-07-07,1,,,,,ティーアンドワン,0
2085,8250001019643,新規,0,2022-07-07,2022-07-07,株式会社ＵＳクリーン,,株式会社,山口県,防府市,桑山２丁目８番２３号,,35,206,7470808,,,,,,,2022-07-07,1,,,,,アスクリーン,0
2090,8280001008734,新規,0,2022-07-07,2022-07-07,ごうぎんエナジー株式会社,,株式会社,島根県,松江市,魚町１０番地,,32,201,6900062,,,,,,,2022-07-07,1,,,,,ゴウギンエナジー,0
2092,8290001098122,新規,0,2022-07-07,2022-07-07,株式会社誠,,株式会社,福岡県,福岡市西区,壱岐団地１３５番３０６号,,40,135,8190042,,,,,,,2022-07-07,1,,,,,マコト,0
2093,8290001098213,新規,0,2022-07-07,2022-07-07,株式会社カースキン,,株式会社,福岡県,福岡市西区,豊浜２丁目１４－１３,,40,135,8190014,,,,,,,2022-07-07,1,,,,,カースキン,0
2094,8290001098221,新規,0,2022-07-07,2022-07-07,千屋株式会社,,株式会社,福岡県,久留米市,長門石２丁目２番３４－５０１号,,40,203,8300027,,,,,,,2022-07-07,1,,,,,センヤ,0
2096,8290005018737,新規,0,2022-07-07,2022-07-07,一般社団法人福岡市うさぎ愛護センター,,その他の設立登記法人,福岡県,福岡市東区,名島３丁目１番５号ＫＵＣ　ＨＩＬＬＳ１０１号室,,40,131,8130043,,,,,,,2022-07-07,1,,,,,フクオカシウサギアイゴセンター,0
2097,8300003001866,新規,0,2022-07-07,2022-07-07,合同会社入船たまご,,合同会社,佐賀県,伊万里市,大坪町甲１５０７番地１,,41,205,8480021,,,,,,,2022-07-07,1,,,,,イリフネタマゴ,0
2104,8350001017851,新規,0,2022-07-07,2022-07-07,株式会社まる武不動産,,株式会社,宮崎県,延岡市,惣領町４番１８号,,45,203,8820857,,,,,,,2022-07-07,1,,,,,マルタケフドウサン,0
2108,8360001030639,新規,0,2022-07-07,2022-07-07,株式会社ガレージ８,,株式会社,沖縄県,島尻郡与那原町,字与那原１０５３番地ハイツリバーサイド３０５,,47,348,9011303,,,,,,,2022-07-07,1,,,,,ガレージエイト,0
2113,8370001048779,新規,0,2022-07-07,2022-07-07,株式会社とどく和,,株式会社,宮城県,仙台市青葉区,本町１丁目５番２８号カーニープレイス仙台駅前通６０３号室,,04,101,9800014,,,,,,,2022-07-07,1,,,,,トドクワ,0
2115,8370003005761,新規,0,2022-07-07,2022-07-07,Ｂｅａｔ　ｙｅｓｔｅｒｄａｙ合同会社,,合同会社,宮城県,仙台市宮城野区,榴岡４丁目６番２３号今野ビル２Ｆ,,04,102,9830852,,,,,,,2022-07-07,1,,,,,ビートイエスタデイ,0
2116,8380001032955,新規,0,2022-07-07,2022-07-07,テクノジャパン株式会社,,株式会社,福島県,福島市,佐倉下字前１番地の１０,,07,201,9602154,,,,,,,2022-07-07,1,,,,,,0
2119,8380003005224,新規,0,2022-07-07,2022-07-07,合同会社ＳＡＳ　Ｉｎｔｅｒｎａｔｉｏｎａｌ,,合同会社,福島県,郡山市,熱海町熱海２１６番Ａ室,,07,203,9630000,,,,,,,2022-07-07,1,,,,,エスエエスインターナショナル,0
2125,8410001013233,新規,0,2022-07-07,2022-07-07,株式会社ＡＣＥ,,株式会社,秋田県,秋田市,広面字近藤堰添３４番地３,,05,201,0100041,,,,,,,2022-07-07,1,,,,,エース,0
2129,8430001087052,新規,0,2022-07-07,2022-07-07,株式会社Ｔｓｐｏｔ,,株式会社,北海道,札幌市南区,澄川四条４丁目１１番３９号,,01,106,0050004,,,,,,,2022-07-07,1,,,,,ティースポット,0
2133,8430003014087,新規,0,2022-07-07,2022-07-07,合同会社ＥｎｎＣＯＵＮＴ,,合同会社,北海道,札幌市中央区,南一条西１１丁目３２７番地１２センターパーキングビル５階,,01,101,0600061,,,,,,,2022-07-07,1,,,,,エンカウント,0
2134,8430003014095,新規,0,2022-07-07,2022-07-07,合同会社ケイネクスト,,合同会社,北海道,札幌市中央区,南六条西２丁目５番２４－１００２号,,01,101,0640806,,,,,,,2022-07-07,1,,,,,ケイネクスト,0
2138,8460301005082,新規,0,2022-07-07,2022-07-07,株式会社Ｔｅｒｒａ‐ｃｏｔｔａ,,株式会社,北海道,紋別郡湧別町,中湧別中町５６８番地の２,,01,559,0996329,,,,,,,2022-07-07,1,,,,,テラコッタ,0
2140,8470001019142,新規,0,2022-07-07,2022-07-07,ＩＬＳｅａ不動産販売株式会社,,株式会社,香川県,高松市,西内町３番５号,,37,201,7600022,,,,,,,2022-07-07,1,,,,,アイエルシーフドウサンハンバイ,0
2141,8470001019150,新規,0,2022-07-07,2022-07-07,株式会社ＴＤ‐ｃｒａｆｔ,,株式会社,香川県,高松市,亀田町４４１番地２,,37,201,7610323,,,,,,,2022-07-07,1,,,,,ティーディークラフト,0
2143,8470003002212,新規,0,2022-07-07,2022-07-07,アートコミュニティー笑顔の花合同会社,,合同会社,香川県,高松市,由良町７５２－４－１,,37,201,7610441,,,,,,,2022-07-07,1,,,,,アートコミュニティーエガオノハナ,0
2144,8480003001849,新規,0,2022-07-07,2022-07-07,花瀬庵合同会社,,合同会社,徳島県,那賀郡那賀町,花瀬字花瀬７３番地,,36,368,7715532,,,,,,,2022-07-07,1,,,,,ハナゼアン,0
2148,8700150110272,新規,0,2022-07-07,2022-06-22,エスアイジー,,その他,東京都,墨田区,業平１丁目１０－８泰華マンション２Ｆ,,13,107,1300002,,,,,,,2022-06-22,1,,,,,エスアイジー,0
2149,8700150110792,新規,0,2022-07-07,2022-07-07,上野地区土地改良区,,その他,宮崎県,西臼杵郡高千穂町,大字上野４９６２番地１,,45,441,8821411,,,,,,,2022-07-07,1,,,,,カミノチクトチカイリョウク,0
2160,9010001227789,新規,0,2022-07-07,2022-07-07,株式会社日清製粉デリカフロンティア,,株式会社,東京都,千代田区,神田錦町１丁目２５番地,,13,101,1010054,,,,,,,2022-07-07,1,,,,,ニッシンセイフンデリカフロンティア,0
2161,9010001227814,新規,0,2022-07-07,2022-07-07,ＪＢＡサステナビリティ株式会社,,株式会社,東京都,千代田区,麹町１丁目３番,,13,101,1020083,,,,,,,2022-07-07,1,,,,,ジェービーエーサステナビリティ,0
2162,9010001227847,新規,0,2022-07-07,2022-07-07,株式会社いちか総合研究所,,株式会社,東京都,千代田区,九段南１丁目５番６号りそな九段ビル５階ＫＳフロア,,13,101,1020074,,,,,,,2022-07-07,1,,,,,イチカソウゴウケンキュウジョ,0
2163,9010001227871,新規,0,2022-07-07,2022-07-07,株式会社アルファシステム,,株式会社,東京都,中央区,銀座２丁目１１番１１号,,13,102,1040061,,,,,,,2022-07-07,1,,,,,アルファシステム,0
2166,9010003038045,新規,0,2022-07-07,2022-07-07,合同会社Ｇｒｏｕｎｄ　Ｕｐ,,合同会社,東京都,千代田区,神田三崎町２丁目１０－５土本ビル４０５,,13,101,1010061,,,,,,,2022-07-07,1,,,,,グラウンドアップ,0
2167,9010003038078,新規,0,2022-07-07,2022-07-07,大滝山ウィンドエナジー合同会社,,合同会社,東京都,千代田区,神田須田町１丁目２５番地,,13,101,1010041,,,,,,,2022-07-07,1,,,,,オオタキヤマウィンドエナジー,0
2171,9010005035230,新規,0,2022-07-07,2022-07-07,一般社団法人ロボット応援団,,その他の設立登記法人,東京都,中央区,銀座８丁目１４－９デュープレックス銀座５０２号,,13,102,1040061,,,,,,,2022-07-07,1,,,,,ロボットオウエンダン,0
2172,9010101015243,新規,0,2022-07-07,2022-07-07,株式会社Ｋ＆Ｃ,,株式会社,東京都,八王子市,みなみ野１丁目８番３－１１０３号,,13,201,1920916,,,,,,,2022-07-07,1,,,,,ケーアンドシー,0
2174,9010401168352,新規,0,2022-07-07,2022-07-07,ＤＯ．Ａｇｅｎｃｙ　Ｊａｐａｎ株式会社,,株式会社,東京都,港区,西新橋３丁目２４番８号山内ビル３階,,13,103,1050003,,,,,,,2022-07-07,1,,,,,ドゥーエージェンシー,0
2176,9010403027936,新規,0,2022-07-07,2022-07-07,合同会社ＰＲＥＺＥＮＴ,,合同会社,東京都,港区,南青山２丁目２番１５号,,13,103,1070062,,,,,,,2022-07-07,1,,,,,プレゼント,0
2177,9010403028001,新規,0,2022-07-07,2022-07-07,ＡＩ合同会社,,合同会社,東京都,港区,白金３丁目９－７ＣＲＥＡ白金高輪３０１,,13,103,1080072,,,,,,,2022-07-07,1,,,,,エーアイ,0
2178,9010403028034,新規,0,2022-07-07,2022-07-07,合同会社ｗｅｓｔ,,合同会社,東京都,港区,芝浦４丁目２番１５号田町住宅４０４,,13,103,1080023,,,,,,,2022-07-07,1,,,,,ウェスト,0
2179,9010403028059,新規,0,2022-07-07,2022-07-07,谷田部ファシリティ１合同会社,,合同会社,東京都,港区,六本木１丁目６番１号泉ガーデンタワー,,13,103,1060032,,,,,,,2022-07-07,1,,,,,ヤタベファシリティワン,0
2181,9010405021136,新規,0,2022-07-07,2022-07-07,一般社団法人全日本舞踊振付家協会,,その他の設立登記法人,東京都,港区,南青山３丁目１８番４－３０１号,,13,103,1070062,,,,,,,2022-07-07,1,,,,,ゼンニホンブヨウフリツケカキョウカイ,0
2186,9010501049072,新規,0,2022-07-07,2022-07-07,株式会社Ｂｒｏｗｎｙ,,株式会社,東京都,台東区,北上野２丁目２４－９ダイヤモンドレジデンス北上野４０２,,13,106,1100014,,,,,,,2022-07-07,1,,,,,ブラウニー,0
2194,9010603009627,新規,0,2022-07-07,2022-07-07,小青合同会社,,合同会社,東京都,江東区,亀戸８丁目１２－３,,13,108,1360071,,,,,,,2022-07-07,1,,,,,ショウセイ,0
2200,9010703006301,新規,0,2022-07-07,2022-07-07,冷泉合同会社,,合同会社,東京都,品川区,大崎１丁目１－１－４０７,,13,109,1410032,,,,,,,2022-07-07,1,,,,,レイゼイ,0
2207,9010903007504,新規,0,2022-07-07,2022-07-07,合同会社さくらベンチャーズ,,合同会社,東京都,世田谷区,大蔵１丁目１４番１６号,,13,112,1570074,,,,,,,2022-07-07,1,,,,,サクラベンチャーズ,0
2209,9011001148488,新規,0,2022-07-07,2022-07-07,株式会社フィオクラブ,,株式会社,東京都,渋谷区,渋谷２丁目１９番１５号宮益坂ビルディング６０９,,13,113,1500002,,,,,,,2022-07-07,1,,,,,フィオクラブ,0
2210,9011003014977,新規,0,2022-07-07,2022-07-07,ＭＡＤＥ　ＦＯＲ　ＥＹＥＳ合同会社,,合同会社,東京都,渋谷区,道玄坂１丁目１０番８号渋谷道玄坂東急ビル２Ｆ―Ｃ,,13,113,1500043,,,,,,,2022-07-07,1,,,,,メイドフォーアイズ,0
2211,9011003014993,新規,0,2022-07-07,2022-07-07,Ｋ　Ｇ　Ｌｉｇｈｔ合同会社,,合同会社,東京都,渋谷区,富ヶ谷１丁目２２番２号,,13,113,1510063,,,,,,,2022-07-07,1,,,,,ケージーライト,0
2216,9011101099433,新規,0,2022-07-07,2022-07-07,株式会社ペンギンファクトリー,,株式会社,東京都,新宿区,西新宿６丁目１６番６号,,13,104,1600023,,,,,,,2022-07-07,1,,,,,ペンギンファクトリー,0
2217,9011101099474,新規,0,2022-07-07,2022-07-07,株式会社ｆａｍｉｌｉａｒ,,株式会社,東京都,新宿区,中井１丁目１１番５号イアース新宿中井３０２号室,,13,104,1610035,,,,,,,2022-07-07,1,,,,,ファミリア,0
2219,9011301027912,新規,0,2022-07-07,2022-07-07,株式会社Ｉｎｉｔｉａｌｉ,,株式会社,東京都,杉並区,久我山３丁目８番１５号,,13,115,1680082,,,,,,,2022-07-07,1,,,,,イニシャリ,0
2220,9011301027920,新規,0,2022-07-07,2022-07-07,株式会社ケイワイパーク,,株式会社,東京都,杉並区,浜田山１丁目１８番１７－３０４号,,13,115,1680065,,,,,,,2022-07-07,1,,,,,ケイワイパーク,0
2224,9011501028223,新規,0,2022-07-07,2022-07-07,株式会社イーライフ,,株式会社,東京都,荒川区,西日暮里５丁目２１－６、３階,,13,118,1160013,,,,,,,2022-07-07,1,,,,,イーライフ,0
2225,9011601026077,新規,0,2022-07-07,2022-07-07,株式会社松本塗装,,株式会社,東京都,練馬区,谷原２丁目１６番８号,,13,120,1770032,,,,,,,2022-07-07,1,,,,,マツモトトソウ,0
2228,9012301013051,新規,0,2022-07-07,2022-07-07,株式会社ＲＥＭ,,株式会社,東京都,町田市,広袴町６６０番地１２,,13,209,1950052,,,,,,,2022-07-07,1,,,,,アールイーエム,0
2229,9012401039384,新規,0,2022-07-07,2022-07-07,株式会社Ｍｔ．Ｒｉｖｅｒ　Ａｒｔｓ,,株式会社,東京都,調布市,小島町１丁目３４番地１１,,13,208,1820026,,,,,,,2022-07-07,1,,,,,マウントリバーアーツ,0
2230,9012401039392,新規,0,2022-07-07,2022-07-07,株式会社ＳＮＯＷＩＮＧ,,株式会社,東京都,武蔵野市,吉祥寺北町３丁目１６－９,,13,203,1800001,,,,,,,2022-07-07,1,,,,,スノーウイング,0
2231,9012403005467,新規,0,2022-07-07,2022-07-07,合同会社エムケーイースト,,合同会社,東京都,武蔵野市,八幡町３丁目５番９－６１４号,,13,203,1800011,,,,,,,2022-07-07,1,,,,,エムケーイースト,0
2233,9012705002311,新規,0,2022-07-07,2022-07-07,ＮＰＯ法人栄味,,その他の設立登記法人,東京都,東久留米市,下里１丁目８番３３号,,13,222,2030043,,,,,,,2022-07-07,1,,,,,エイミ,0
2234,9012803002832,新規,0,2022-07-07,2022-07-07,合同会社七宝不動産,,合同会社,東京都,日野市,石田１丁目１９番地の９,,13,212,1910021,,,,,,,2022-07-07,1,,,,,シッポウフドウサン,0
2241,9013301049358,新規,0,2022-07-07,2022-07-07,ａｕｄｉｏコーパス株式会社,,株式会社,東京都,豊島区,東池袋４丁目３２－１５－５０３,,13,116,1700013,,,,,,,2022-07-07,1,,,,,オーディオコーパス,0
2250,9020001147251,新規,0,2022-07-07,2022-07-07,株式会社須藤工業,,株式会社,神奈川県,横浜市保土ケ谷区,坂本町１２８番地,,14,106,2400043,,,,,,,2022-07-07,1,,,,,スドウコウギョウ,0
2255,9020003022056,新規,0,2022-07-07,2022-07-07,合同会社Ａｔｔｏｎ,,合同会社,神奈川県,横浜市港北区,篠原町１５７６番地２３,,14,109,2220026,,,,,,,2022-07-07,1,,,,,アットン,0
2258,9021001076432,新規,0,2022-07-07,2022-07-07,株式会社アイコールド,,株式会社,神奈川県,海老名市,杉久保北４丁目３０番２２号,,14,215,2430410,,,,,,,2022-07-07,1,,,,,アイコールド,0
2259,9021001076449,新規,0,2022-07-07,2022-07-07,健身株式会社,,株式会社,神奈川県,藤沢市,本町４丁目７番１３号Ｔ－Ｒｉｓｅ１階,,14,205,2510053,,,,,,,2022-07-07,1,,,,,ケンシン,0
2262,9030001149032,新規,0,2022-07-07,2022-07-07,Ｙｅｓｃｏｍ株式会社,,株式会社,埼玉県,蕨市,中央５丁目３番８号,,11,223,3350004,,,,,,,2022-07-07,1,,,,,イエスコム,0
2263,9030001149040,新規,0,2022-07-07,2022-07-07,株式会社ディープラスクリエイション,,株式会社,埼玉県,さいたま市西区,大字佐知川６４９番地７,,11,101,3310064,,,,,,,2022-07-07,1,,,,,ディープラスクリエイション,0
2264,9030001149057,新規,0,2022-07-07,2022-07-07,株式会社小田川葬儀社,,株式会社,埼玉県,越谷市,大字大泊９１０番地,,11,222,3430044,,,,,,,2022-07-07,1,,,,,オダガワソウギシャ,0
2265,9030001149073,新規,0,2022-07-07,2022-07-07,株式会社Ｈｏｎｅｓｔ,,株式会社,埼玉県,川口市,大字峯８３１番地の７,,11,203,3340056,,,,,,,2022-07-07,1,,,,,オネスト,0
2266,9030001149098,新規,0,2022-07-07,2022-07-07,株式会社並木建窓,,株式会社,埼玉県,朝霞市,本町１丁目３８番４７号,,11,227,3510011,,,,,,,2022-07-07,1,,,,,ナミキケンソウ,0
2267,9030003019729,新規,0,2022-07-07,2022-07-07,ＤＲ合同会社,,合同会社,埼玉県,越谷市,新越谷１丁目２５番地１４,,11,222,3430857,,,,,,,2022-07-07,1,,,,,ディーアール,0
2268,9030003019737,新規,0,2022-07-07,2022-07-07,合同会社ＫＹＯＭＥＩ,,合同会社,埼玉県,北葛飾郡松伏町,大字松伏２１３４番地１２,,11,465,3430111,,,,,,,2022-07-07,1,,,,,キョーメイ,0
2269,9030003019753,新規,0,2022-07-07,2022-07-07,合同会社原価計算,,合同会社,埼玉県,さいたま市緑区,宮本１丁目９番２２号,,11,109,3360916,,,,,,,2022-07-07,1,,,,,ゲンカケイサン,0
2277,9040003020363,新規,0,2022-07-07,2022-07-07,アジアン貿易合同会社,,合同会社,千葉県,市原市,中高根１３４６番地５４,,12,219,2900242,,,,,,,2022-07-07,1,,,,,アジアンボウエキ,0
2279,9050001051351,新規,0,2022-07-07,2022-07-07,株式会社ドローン技団,,株式会社,茨城県,神栖市,平泉２８１番地２３チェリーブルームＢｌｏｃＫ７ネイルサロンロゼ内,,08,232,3140146,,,,,,,2022-07-07,1,,,,,ドローンギダン,0
2280,9060001035048,新規,0,2022-07-07,2022-07-07,株式会社第一自動車商会,,株式会社,栃木県,佐野市,石塚町５６８番地１４４,,09,204,3270103,,,,,,,2022-07-07,1,,,,,ダイイチジドウシャショウカイ,0
2284,9070001039411,新規,0,2022-07-07,2022-07-07,株式会社新生工業,,株式会社,群馬県,邑楽郡明和町,大佐貫１７４番地２,,10,522,3700715,,,,,,,2022-07-07,1,,,,,シンセイコウギョウ,0
2294,9100001035497,新規,0,2022-07-07,2022-07-07,株式会社山本商会,,株式会社,長野県,下高井郡山ノ内町,大字平穏２９３６番地２６,,20,561,3810401,,,,,,,2022-07-07,1,,,,,ヤマモトショウカイ,0
2295,9100003006612,新規,0,2022-07-07,2022-07-07,合同会社テゾロ,,合同会社,長野県,駒ヶ根市,赤穂９４５４番地１,,20,210,3994117,,,,,,,2022-07-07,1,,,,,テゾロ,0
2298,9110001036800,新規,0,2022-07-07,2022-07-07,株式会社Ｍｏｇ,,株式会社,新潟県,三条市,柳川新田９９７番地,,15,204,9550002,,,,,,,2022-07-07,1,,,,,モグ,0
2300,9110003004813,新規,0,2022-07-07,2022-07-07,合同会社ｔｗ‐ｒｕｎｎｉｎｇ,,合同会社,新潟県,柏崎市,西本町２丁目７番１１号,,15,205,9450066,,,,,,,2022-07-07,1,,,,,ティーダブルランニング,0
2310,9120001247124,新規,0,2022-07-07,2022-07-07,三ツ矢ホールディングス株式会社,,株式会社,大阪府,大阪市中央区,久太郎町２丁目２番７号,,27,128,5410056,,,,,,,2022-07-07,1,,,,,ミツヤホールディングス,0
2311,9120001247157,新規,0,2022-07-07,2022-07-07,富士薬業株式会社,,株式会社,大阪府,大阪市北区,東天満２丁目９番１号,,27,127,5300044,,,,,,,2022-07-07,1,,,,,フジヤクギョウ,0
2312,9120001247181,新規,0,2022-07-07,2022-07-07,栄商事株式会社,,株式会社,大阪府,大阪市中央区,内本町２丁目４番１０号ネオハイツ内本町２０９号,,27,128,5400026,,,,,,,2022-07-07,1,,,,,サカエショウジ,0
2313,9120001247256,新規,0,2022-07-07,2022-07-07,グレーシズ株式会社,,株式会社,大阪府,大阪市中央区,高津３丁目２番３１－４０３号,,27,128,5420072,,,,,,,2022-07-07,1,,,,,グレーシズ,0
2318,9120003022013,新規,0,2022-07-07,2022-07-07,合同会社泰平エンジニア,,合同会社,大阪府,大阪市都島区,中野町５丁目１３番３－１１０７号,,27,102,5340027,,,,,,,2022-07-07,1,,,,,タイヘイエンジニア,0
2320,9120901046212,新規,0,2022-07-07,2022-07-07,グリーンアセット株式会社,,株式会社,大阪府,茨木市,春日１丁目１４番１９号,,27,211,5670031,,,,,,,2022-07-07,1,,,,,グリーンアセット,0
2338,9160001024346,新規,0,2022-07-07,2022-07-07,株式会社地域リハデザイン研究所,,株式会社,滋賀県,甲賀市,水口町貴生川５６７番地５,,25,209,5280049,,,,,,,2022-07-07,1,,,,,チイキリハデザインケンキュウジョ,0
2339,9160003002614,新規,0,2022-07-07,2022-07-07,合同会社つぶて舎,,合同会社,滋賀県,米原市,梅ケ原１１８５番地,,25,214,5210013,,,,,,,2022-07-07,1,,,,,ツブテシャ,0
2340,9170001017183,新規,0,2022-07-07,2022-07-07,株式会社クワトロ,,株式会社,和歌山県,和歌山市,友田町２丁目４番地,,30,201,6408342,,,,,,,2022-07-07,1,,,,,クワトロ,0
2342,9170003001747,新規,0,2022-07-07,2022-07-07,スタイルエイド合同会社,,合同会社,和歌山県,岩出市,波分４８番地の１１,,30,209,6496241,,,,,,,2022-07-07,1,,,,,スタイルエイド,0
2348,9180001152005,新規,0,2022-07-07,2022-07-07,株式会社ミサリオ,,株式会社,愛知県,一宮市,住吉２丁目１番地２,,23,203,4910919,,,,,,,2022-07-07,1,,,,,ミサリオ,0
2349,9180001152070,新規,0,2022-07-07,2022-07-07,株式会社信大,,株式会社,愛知県,弥富市,鎌島２丁目２０番地１,,23,235,4980035,,,,,,,2022-07-07,1,,,,,シンダイ,0
2354,9180003024004,新規,0,2022-07-07,2022-07-07,合同会社レンタルバイク名古屋戸田,,合同会社,愛知県,名古屋市中川区,戸田５丁目７０２番地の２,,23,110,4540962,,,,,,,2022-07-07,1,,,,,レンタルバイクナゴヤトダ,0
2356,9190001029581,新規,0,2022-07-07,2022-07-07,株式会社エイト,,株式会社,三重県,伊勢市,竹ケ鼻町３８５番地,,24,203,5160005,,,,,,,2022-07-07,1,,,,,エイト,0
2357,9190001029598,新規,0,2022-07-07,2022-07-07,株式会社ニュートラル,,株式会社,三重県,鈴鹿市,道伯１丁目２番７号,,24,207,5130823,,,,,,,2022-07-07,1,,,,,ニュートラル,0
2363,9210001018986,新規,0,2022-07-07,2022-07-07,株式会社ヤマモト,,株式会社,福井県,福井市,豊岡１丁目４番１６号,,18,201,9100027,,,,,,,2022-07-07,1,,,,,ヤマモト,0
2370,9240001060052,新規,0,2022-07-07,2022-07-07,株式会社Ｌ‐Ｍｏｔｉｏｎ,,株式会社,広島県,福山市,千田町３丁目６５－１１,,34,207,7200017,,,,,,,2022-07-07,1,,,,,エルモーション,0
2376,9240003005699,新規,0,2022-07-07,2022-07-07,資産家税の相続軍師合同会社,,合同会社,広島県,広島市西区,三篠町１丁目１番３１－１３０６号,,34,104,7330003,,,,,,,2022-07-07,1,,,,,シサンカゼイノソウゾクグンシ,0
2380,9250001019642,新規,0,2022-07-07,2022-07-07,株式会社ファースト・リード,,株式会社,山口県,下関市,彦島塩浜町１丁目１０番１２号,,35,201,7500086,,,,,,,2022-07-07,1,,,,,ファーストリード,0
2385,9260005011108,新規,0,2022-07-07,2022-07-07,一般社団法人吉備中央町観光協会,,その他の設立登記法人,岡山県,加賀郡吉備中央町,吉川４８６０番地６,,33,681,7161241,,,,,,,2022-07-07,1,,,,,キビチュウオウチョウカンコウキョウカイ,0
2388,9280001008733,新規,0,2022-07-07,2022-07-07,株式会社エスト,,株式会社,島根県,大田市,大田町吉永１２６６番地,,32,205,6940063,,,,,,,2022-07-07,1,,,,,エスト,0
2389,9280003001629,新規,0,2022-07-07,2022-07-07,トラストサークルズ合同会社,,合同会社,島根県,松江市,東本町４丁目５４番地,,32,201,6900842,,,,,,,2022-07-07,1,,,,,,0
2390,9290001098138,新規,0,2022-07-07,2022-07-07,株式会社Ｉ．Ｇトラベル,,株式会社,福岡県,八女市,上陽町北川内６２番地１ＢＩＩ,00127132,40,210,8341102,,,,,,,2022-07-07,1,,,,,アイジートラベル,0
2391,9290001098212,新規,0,2022-07-07,2022-07-07,株式会社ＭＧコーポレーション,,株式会社,福岡県,大野城市,上大利２丁目１１番２７号,,40,219,8160955,,,,,,,2022-07-07,1,,,,,エムジーコーポレーション,0
2392,9290001098220,新規,0,2022-07-07,2022-07-07,Ｃｒｙｐｔｉｃ　Ｂｒａｉｎ株式会社,,株式会社,福岡県,福岡市博多区,東光２丁目８番８号,,40,132,8120008,,,,,,,2022-07-07,1,,,,,クリプティックブレーン,0
2394,9290003012708,新規,0,2022-07-07,2022-07-07,Ｆｉｃｔｉｏｎ合同会社,,合同会社,福岡県,福岡市東区,筥松３丁目８番１５－１０２号,,40,131,8120061,,,,,,,2022-07-07,1,,,,,フィクション,0
2395,9290003012716,新規,0,2022-07-07,2022-07-07,合同会社ＨＳＲ,,合同会社,福岡県,福岡市中央区,薬院１丁目１５－１３－１４０６,,40,133,8100022,,,,,,,2022-07-07,1,,,,,エイチエスアール,0
2396,9310003004405,新規,0,2022-07-07,2022-07-07,義通信合同会社,,合同会社,長崎県,諫早市,永昌東町１３番３３－５０１号,,42,204,8540071,,,,,,,2022-07-07,1,,,,,ヨシツウシン,0
2398,9330001029889,新規,0,2022-07-07,2022-07-07,株式会社ユナイト技建,,株式会社,熊本県,熊本市南区,富合町新１３８番地１,,43,104,8614152,,,,,,,2022-07-07,1,,,,,ユナイトギケン,0
2399,9330001029897,新規,0,2022-07-07,2022-07-07,株式会社佐藤商店,,株式会社,熊本県,菊池郡菊陽町,武蔵ヶ丘１丁目３番１号,,43,404,8691111,,,,,,,2022-07-07,1,,,,,サトウショウテン,0
2400,9330001029906,新規,0,2022-07-07,2022-07-07,株式会社美里まちづくり公社,,株式会社,熊本県,下益城郡美里町,三和４２０番地,,43,348,8614732,,,,,,,2022-07-07,1,,,,,ミサトマチヅクリコウシャ,0
2401,9330003009435,新規,0,2022-07-07,2022-07-07,合同会社河口土木,,合同会社,熊本県,熊本市南区,城南町島田７４４番地１,,43,104,8614236,,,,,,,2022-07-07,1,,,,,カワグチドボク,0
2406,9360003012097,新規,0,2022-07-07,2022-07-07,合同会社ＧＩＢＵＧＵＭＩ　ＪＡＰＡＮ,,合同会社,沖縄県,島尻郡与那原町,字板良敷８５番地の１,,47,348,9011301,,,,,,,2022-07-07,1,,,,,ギブグミジャパン,0
2408,9370001048778,新規,0,2022-07-07,2022-07-07,Ｌ’Ａｒｃ株式会社,,株式会社,宮城県,仙台市宮城野区,新田東１丁目８番４号クリアフォレスト１階,,04,102,9830039,,,,,,,2022-07-07,1,,,,,ラルク,0
2409,9370003005769,新規,0,2022-07-07,2022-07-07,合同会社アビスギルド,,合同会社,宮城県,仙台市青葉区,本町１丁目５番２８号カーニープレイス仙台駅前通６０３号室,,04,101,9800014,,,,,,,2022-07-07,1,,,,,アビスギルド,0
2412,9380001032946,新規,0,2022-07-07,2022-07-07,株式会社貴心,,株式会社,福島県,白河市,新白河１丁目８６番地丸昌ビューエクセル新白河７０１,,07,205,9610856,,,,,,,2022-07-07,1,,,,,キシン,0
2413,9380001032954,新規,0,2022-07-07,2022-07-07,株式会社Ｔｃ．,,株式会社,福島県,会津若松市,表町１番３１号リバティヒルズ１０３,,07,202,9650831,,,,,,,2022-07-07,1,,,,,ティーシー,0
2415,9380003005223,新規,0,2022-07-07,2022-07-07,合同会社誠和ＲＰ,,合同会社,福島県,南相馬市,原町区石神字川原田７５－３６シティハイムカナヤ２０１,,07,212,9750075,,,,,,,2022-07-07,1,,,,,,0
2425,9430001086978,新規,0,2022-07-07,2022-07-07,株式会社Ｅｌｅ　Ｃｒａｆｔ,,株式会社,北海道,千歳市,北陽５丁目１番１６号,,01,224,0660032,,,,,,,2022-07-07,1,,,,,エルクラフト,0
2426,9430001086986,新規,0,2022-07-07,2022-07-07,株式会社黒板熊五郎商店,,株式会社,北海道,樺戸郡月形町,字当別原野３８２番地１２５,,01,430,0610500,,,,,,,2022-07-07,1,,,,,クロイタクマゴロウショウテン,0
2427,9430001087010,新規,0,2022-07-07,2022-07-07,ＲＩ‐ＫＵＲＯＳＵ株式会社,,株式会社,北海道,札幌市北区,新川五条５丁目２番２０号,,01,102,0010925,,,,,,,2022-07-07,1,,,,,リクロス,0
2434,9460301005081,新規,0,2022-07-07,2022-07-07,株式会社躍寿,,株式会社,北海道,北見市,末広町１６３番地２３,,01,208,0900826,,,,,,,2022-07-07,1,,,,,ヤクジュ,0
2436,9470001019141,新規,0,2022-07-07,2022-07-07,株式会社高壱商運,00127128,株式会社,香川県,高松市,国分寺町新名１７２６番地６,,37,201,7690104,,,,,,,2022-07-07,1,,,,,タカイチショウウン,0
2437,9470003002211,新規,0,2022-07-07,2022-07-07,合同会社サークルシート,,合同会社,香川県,高松市,福岡町３丁目１３番３０号,,37,201,7600066,,,,,,,2022-07-07,1,,,,,サークルシート,0
2442,9500001024328,新規,0,2022-07-07,2022-07-07,株式会社グッドライド西四国,,株式会社,愛媛県,松山市,会津町２番２１号,,38,201,7918076,,,,,,,2022-07-07,1,,,,,グッドライドニシシコク,0
2444,9700150053512,新規,0,2022-07-07,2015-10-09,地域文化育成事業実行委員会,,その他,山口県,長門市,油谷新別名１０８３３番地,,35,211,7594503,,,,,,,2015-10-09,1,,,,,,0
2445,9700150106583,新規,0,2022-07-07,2022-01-12,琴引浜の鳴り砂を守る会,,その他,京都府,京丹後市,網野町掛津１２５０,,26,212,6293112,,,,,,,2022-01-12,1,,,,,コトビキハマノナリスナヲマモルカイ,0
2447,9700150109289,新規,0,2022-07-07,2022-06-08,高取小学校父母教師会,,その他,福岡県,福岡市早良区,昭代２丁目１５－５１,,40,137,8140012,,,,,,,2022-06-08,1,,,,,タカトリシヨウガツコウフボキヨウシカイ,0
2448,9700150110073,新規,0,2022-07-07,2022-06-20,Ｋｌｅｉｎｅ　Ｓｃｈｕｌｅ,,その他,神奈川県,逗子市,久木１丁目６－２７,,14,208,2490001,,,,,,,2022-06-20,1,,,,,クライネシユーレ,0
2449,9700150110338,新規,0,2022-07-07,2022-06-23,西部文化振興会,,その他,福岡県,福岡市南区,高宮２丁目１１－１２,,40,134,8150083,,,,,,,2022-06-23,1,,,,,セイブブンカシンコウカイ,0
2450,9700150110791,新規,0,2022-07-07,2022-07-07,芸術企画団体一茶企画,,その他,東京都,渋谷区,神宮前６丁目２３番４号桑野ビル２階,,13,113,1500001,,,,,,,2022-07-07,1,,,,,ゲイジュツキカクダンタイイッサキカク,0
2451,9700150110809,新規,0,2022-07-07,2022-07-07,Ｗｅｓｔｅｒｎ　Ｍｏｔｏｒ　Ｅｎｔｅｒｐｒｉｓｅｓ,,外国会社等,千葉県,千葉市若葉区,千城台西２丁目９番１１号,,12,104,2640004,スリランカ民主社会主義共和国、コロンボ２、ユニオンプレイス、１１６,,,,,,2022-07-07,1,,,,,ウエスタンモーターエンタープライズ,0
