sequenceNumber,corporateNumber,process,correct,updateDate,changeDate,name,nameImageId,kind,prefectureName,cityName,streetNumber,addressImageId,prefectureCode,cityCode,postCode,addressOutside,addressOutsideImageId,closeDate,closeCause,successorCorporateNumber,changeCause,assignmentDate,latest,enName,enPrefectureName,enCityName,enAddressOutside,furigana,hihyoji
17,1010001222938,新規,0,2021-12-06,2021-12-06,アルファプライムコンサルティング株式会社,,株式会社,東京都,千代田区,三崎町二丁目７番６号,,13,101,1000000,,,,,,,2021-12-06,1,,,,,アルファプライムコンサルティング,0
18,1010001222954,新規,0,2021-12-06,2021-12-06,株式会社かみさぎ,,株式会社,東京都,千代田区,平河町１丁目６－１５ＵＳビル８Ｆ,,13,101,1020093,,,,,,,2021-12-06,1,,,,,カミサギ,0
19,1010001222995,新規,0,2021-12-06,2021-12-06,株式会社暁ＮＥＸＴ,,株式会社,東京都,文京区,関口１丁目４４番４号,,13,105,1120014,,,,,,,2021-12-06,1,,,,,アカツキネクスト,0
24,1010401164086,新規,0,2021-12-06,2021-12-06,株式会社Ｎｅｐｔｕｎｅ,,株式会社,東京都,港区,南青山２丁目２番１５号,,13,103,1070062,,,,,,,2021-12-06,1,,,,,ネプチューン,0
25,1010403026631,新規,0,2021-12-06,2021-12-06,トラノモンＰＥ３ＧＰ合同会社,,合同会社,東京都,港区,虎ノ門３丁目２２番１０－２０１号,,13,103,1050001,,,,,,,2021-12-06,1,,,,,トラノモンピーイーサンジーピー,0
27,1010405020475,新規,0,2021-12-06,2021-12-06,一般社団法人フードイノベーション・ジャパン,,その他の設立登記法人,東京都,港区,南青山３丁目８番４０号青山センタービル２Ｆ,,13,103,1070062,,,,,,,2021-12-06,1,,,,,フードイノベーションジャパン,0
30,1010701041869,新規,0,2021-12-06,2021-12-06,株式会社Ｕ－ＰＯＷＥＲ,,株式会社,東京都,品川区,上大崎３丁目１番１号,,13,109,1410021,,,,,,,2021-12-06,1,,,,,ユーパワー,0
31,1010701041877,新規,0,2021-12-06,2021-12-06,株式会社カンケイ舎,,株式会社,東京都,品川区,大崎１丁目１１番２号ゲートシティ大崎イーストタワー４階,,13,109,1410032,,,,,,,2021-12-06,1,,,,,カンケイシャ,0
38,1010901049910,新規,0,2021-12-06,2021-12-06,ＲＫプロモーション株式会社,,株式会社,東京都,世田谷区,代沢３丁目５番１１号,,13,112,1550032,,,,,,,2021-12-06,1,,,,,アールケープロモーション,0
39,1010901049919,新規,0,2021-12-06,2021-12-06,株式会社Ｒａｄ　Ｒｏｃｋ,,株式会社,東京都,世田谷区,代田６丁目６番１５－１０３号,,13,112,1550033,,,,,,,2021-12-06,1,,,,,ラッドロック,0
40,1010903006983,新規,0,2021-12-06,2021-12-06,合同会社ケンコーポレーション,,合同会社,東京都,世田谷区,三宿１丁目１０番１０号,,13,112,1540005,,,,,,,2021-12-06,1,,,,,ケンコーポレーション,0
45,1011001144346,新規,0,2021-12-06,2021-12-06,株式会社エイトゼロ,,株式会社,東京都,渋谷区,恵比寿南１丁目２番９号岡田ビル５Ｆ,,13,113,1500022,,,,,,,2021-12-06,1,,,,,エイトゼロ,0
46,1011001144362,新規,0,2021-12-06,2021-12-06,株式会社ナチュラル,,株式会社,東京都,渋谷区,千駄ヶ谷４丁目２２番８－２０４号アンソレイユ代々木,,13,113,1510051,,,,,,,2021-12-06,1,,,,,ナチュラル,0
60,1011301027390,新規,0,2021-12-06,2021-12-06,Ｊｕｐｉｔｅｒ株式会社,,株式会社,東京都,杉並区,下井草２丁目５番１６号,,13,115,1670022,,,,,,,2021-12-06,1,,,,,ジュピター,0
61,1011305002794,新規,0,2021-12-06,2021-12-06,ＮＰＯ法人子どもアドボカシーをすすめる会ＴＯＫＹＯ,,その他の設立登記法人,東京都,杉並区,成田東５丁目３５番１５号ＴＨＥＰＬＡＺＡＦ２階,,13,115,1660015,,,,,,,2021-12-06,1,,,,,コドモアドボカシーヲススメルカイトウキョウ,0
65,1011501027546,新規,0,2021-12-06,2021-12-06,東羽株式会社,,株式会社,東京都,荒川区,東日暮里５丁目３番１１－１０２号,,13,118,1160014,,,,,,,2021-12-06,1,,,,,,0
66,1011603003461,新規,0,2021-12-06,2021-12-06,ＵＲＵ合同会社,,合同会社,東京都,練馬区,大泉学園町６丁目２番９号,,13,120,1780061,,,,,,,2021-12-06,1,,,,,ウル,0
70,1011801040034,新規,0,2021-12-06,2021-12-06,株式会社Ｍｉｉｉ,,株式会社,東京都,足立区,東和１丁目２番１２号タシロビル２号室,,13,121,1200003,,,,,,,2021-12-06,1,,,,,ミー,0
72,1012301012779,新規,0,2021-12-06,2021-12-06,株式会社タックス,,株式会社,東京都,町田市,成瀬が丘３丁目２９番地１０,,13,209,1940011,,,,,,,2021-12-06,1,,,,,タックス,0
87,1013303005936,新規,0,2021-12-06,2021-12-06,ＭＯＡ合同会社,,合同会社,東京都,豊島区,西池袋２丁目３６番１号,,13,116,1710021,,,,,,,2021-12-06,1,,,,,モア,0
88,1013305003285,新規,0,2021-12-06,2021-12-06,一般社団法人ファストステップ,,その他の設立登記法人,東京都,豊島区,池袋３丁目３０番２１号,,13,116,1710014,,,,,,,2021-12-06,1,,,,,ファストステップ,0
99,1020001144165,新規,0,2021-12-06,2021-12-06,株式会社Ｗ－ＮＥＸＴ,,株式会社,神奈川県,横浜市金沢区,鳥浜町１２番地５６,,14,108,2360002,,,,,,,2021-12-06,1,,,,,ダブルネクスト,0
100,1020001144181,新規,0,2021-12-06,2021-12-06,株式会社モスヌス,,株式会社,神奈川県,川崎市麻生区,王禅寺東５丁目５３番１５号,,14,137,2150018,,,,,,,2021-12-06,1,,,,,モスヌス,0
102,1020005015288,新規,0,2021-12-06,2021-12-06,一般社団法人タカナシ食と人を育む会,,その他の設立登記法人,神奈川県,横浜市旭区,本宿町５番地,,14,112,2410023,,,,,,,2021-12-06,1,,,,,タカナシショクトヒトヲハグクムカイ,0
104,1021001074658,新規,0,2021-12-06,2021-12-06,株式会社Ｂｏｄｙ　Ｈａｒｍｏｎｙ,,株式会社,神奈川県,横須賀市,平作５丁目１９番７号,,14,201,2380032,,,,,,,2021-12-06,1,,,,,ボディハーモニー,0
107,1021003011130,新規,0,2021-12-06,2021-12-06,Ｇｒａｎｄ　Ｓｐｅｃｔｒｕｍ合同会社,,合同会社,神奈川県,愛甲郡愛川町,三増３５０番地の８－Ｎｏ．５,,14,401,2430308,,,,,,,2021-12-06,1,,,,,グランドスペクトラム,0
113,1030001145690,新規,0,2021-12-06,2021-12-06,ＰＡＫ　ＴＲＡＤＩＮＧ株式会社,,株式会社,埼玉県,加須市,松永新田２８７番地,,11,210,3491141,,,,,,,2021-12-06,1,,,,,パークトレーディング,0
114,1030001145699,新規,0,2021-12-06,2021-12-06,株式会社梓希,,株式会社,埼玉県,朝霞市,本町１丁目３８番４５号アーバンライフ１０７,,11,227,3510011,,,,,,,2021-12-06,1,,,,,アズキ,0
115,1030001145716,新規,0,2021-12-06,2021-12-06,株式会社ＴＲＵＳＴ　ＡＣＥ,,株式会社,埼玉県,坂戸市,薬師町８番地６メゾンエクセレント２０１号室,,11,239,3500229,,,,,,,2021-12-06,1,,,,,トラストエース,0
120,1030003018408,新規,0,2021-12-06,2021-12-06,合同会社インフォックス,,合同会社,埼玉県,春日部市,緑町１丁目２番１６号,,11,214,3440063,,,,,,,2021-12-06,1,,,,,インフォックス,0
121,1030003018424,新規,0,2021-12-06,2021-12-06,合同会社ＴＲＵＳＴ,,合同会社,埼玉県,川口市,長蔵１丁目２３番１２号,,11,203,3330807,,,,,,,2021-12-06,1,,,,,トラスト,0
122,1030003018440,新規,0,2021-12-06,2021-12-06,合同会社ＡＮＤｅｆｉｎｅｄ,,合同会社,埼玉県,入間市,東町２丁目３番地２６号,,11,225,3580002,,,,,,,2021-12-06,1,,,,,アンディファインド,0
128,1040001121212,新規,0,2021-12-06,2021-12-06,株式会社伊藤熔接工業,,株式会社,千葉県,千葉市緑区,誉田町１丁目７７３番地２４メゾンプランドールＣ２０２号,,12,105,2660005,,,,,,,2021-12-06,1,,,,,イトウヨウセツコウギョウ,0
129,1040001121229,新規,0,2021-12-06,2021-12-06,株式会社アライズマネジメント,,株式会社,千葉県,柏市,根戸４６７番地の１５５,,12,217,2770831,,,,,,,2021-12-06,1,,,,,アライズマネジメント,0
130,1040001121245,新規,0,2021-12-06,2021-12-06,株式会社グローバルツリー,,株式会社,千葉県,八千代市,勝田台３丁目３番地４山下店舗２－Ａ号室,,12,221,2760023,,,,,,,2021-12-06,1,,,,,グローバルツリー,0
132,1040003019058,新規,0,2021-12-06,2021-12-06,合同会社山実,,合同会社,千葉県,市川市,香取２丁目１４番１７－１０３号,,12,203,2720141,,,,,,,2021-12-06,1,,,,,ヤマサネ,0
136,1050001050245,新規,0,2021-12-06,2021-12-06,株式会社ｅｔｏ,,株式会社,茨城県,つくば市,花室１０１７番地３,,08,220,3050025,,,,,,,2021-12-06,1,,,,,エト,0
146,1080001024618,新規,0,2021-12-06,2021-12-06,ＳＵＮＲＡＪ株式会社,,株式会社,静岡県,静岡市葵区,両替町１丁目４番地１２,,22,101,4200032,,,,,,,2021-12-06,1,,,,,サンラジ,0
150,1080101022959,新規,0,2021-12-06,2021-12-06,株式会社ホンダモビリティ静岡,,株式会社,静岡県,富士市,天間１３２２番地の２,,22,210,4190205,,,,,,,2021-12-06,1,,,,,ホンダモビリティシズオカ,0
151,1080101022967,新規,0,2021-12-06,2021-12-06,横和庭園株式会社,,株式会社,静岡県,御殿場市,竈７４８番地,,22,215,4120039,,,,,,,2021-12-06,1,,,,,ヨコワテイエン,0
154,1080401025505,新規,0,2021-12-06,2021-12-06,株式会社Ｋ－ＭＯＴＯＲＳ,,株式会社,静岡県,浜松市南区,米津町２０００番地,,22,134,4328056,,,,,,,2021-12-06,1,,,,,ケイモータース,0
156,1080403004424,新規,0,2021-12-06,2021-12-06,合同会社Ｍ＆Ｐ,,合同会社,静岡県,袋井市,高尾２１３番地の１オーチャード３０２号室,,22,216,4370023,,,,,,,2021-12-06,1,,,,,エムアンドピー,0
162,1110001036246,新規,0,2021-12-06,2021-12-06,株式会社ＬｉＢ,,株式会社,新潟県,新潟市南区,大通黄金６丁目４番地２,,15,106,9501203,,,,,,,2021-12-06,1,,,,,リブ,0
164,1110003004639,新規,0,2021-12-06,2021-12-06,合同会社ＴＹＳ,,合同会社,新潟県,新潟市西区,坂井東２丁目１番１号,,15,107,9502041,,,,,,,2021-12-06,1,,,,,ティーワイエス,0
177,1120001242280,新規,0,2021-12-06,2021-12-06,株式会社宮成,,株式会社,大阪府,大阪市浪速区,大国１丁目５番４号西田ビル２０１,,27,111,5560014,,,,,,,2021-12-06,1,,,,,ミヤナリ,0
178,1120001242322,新規,0,2021-12-06,2021-12-06,株式会社ＴＲＹ,,株式会社,大阪府,大阪市西区,立売堀１丁目９－１１ＫＳビル６０２号,,27,106,5500012,,,,,,,2021-12-06,1,,,,,ティーアールワイ,0
180,1120003020593,新規,0,2021-12-06,2021-12-06,合同会社Ｋ．Ｔ．ｃｏｍｐａｎｙ,,合同会社,大阪府,大阪市北区,西天満３丁目４番１４ー９０４号,,27,127,5300047,,,,,,,2021-12-06,1,,,,,ケーティーカンパニー,0
181,1120003020701,新規,0,2021-12-06,2021-12-06,合同会社紗鈴,,合同会社,大阪府,大阪市東成区,大今里３丁目１０番３号,,27,115,5370012,,,,,,,2021-12-06,1,,,,,サリ,0
188,1120101064732,新規,0,2021-12-06,2021-12-06,ゼファー冷空サービス株式会社,,株式会社,大阪府,南河内郡太子町,大字春日９８番地の３１３,,27,381,5830991,,,,,,,2021-12-06,1,,,,,ゼファーレイクウサービス,0
200,1130001070648,新規,0,2021-12-06,2021-12-06,株式会社ｃｈａｎｇｄａｎ,,株式会社,京都府,京都市左京区,田中玄京町１０６番地,,26,103,6068201,,,,,,,2021-12-06,1,,,,,チャンダン,0
203,1140001124023,新規,0,2021-12-06,2021-12-06,株式会社Ｏ－Ｇ　ＣＲＥＡＴＥ,,株式会社,兵庫県,揖保郡太子町,福地２８２番地２,,28,464,6711534,,,,,,,2021-12-06,1,,,,,オージークリエイト,0
207,1140003017076,新規,0,2021-12-06,2021-12-06,合同会社タイジュ,,合同会社,兵庫県,加古川市,米田町平津３７７－８,,28,210,6750054,,,,,,,2021-12-06,1,,,,,タイジュ,0
209,1150001025154,新規,0,2021-12-06,2021-12-06,Ａｎ・ｈｏｍｅ株式会社,,株式会社,奈良県,香芝市,上中５２８番地１,,29,210,6390265,,,,,,,2021-12-06,1,,,,,アンホーム,0
212,1160001023859,新規,0,2021-12-06,2021-12-06,株式会社三方よしまちづくり,,株式会社,滋賀県,草津市,西大路町２番２号,,25,206,5250037,,,,,,,2021-12-06,1,,,,,サンポウヨシマチヅクリ,0
223,1180005019538,新規,0,2021-12-06,2021-12-06,弁護士法人明永法律事務所,,その他の設立登記法人,愛知県,名古屋市中区,錦２丁目１９番１号名古屋鴻池ビル８階,,23,106,4600003,,,,,,,2021-12-06,1,,,,,アケナガホウリツジムショ,0
232,1200001039495,新規,0,2021-12-06,2021-12-06,株式会社ＫＭガレージ,,株式会社,岐阜県,岐阜市,春近古市場北１３２番地１,,21,201,5012524,,,,,,,2021-12-06,1,,,,,ケイエムガレージ,0
233,1220001024578,新規,0,2021-12-06,2021-12-06,株式会社ＳＯ　ＨＡＩＲＤＥＳＩＧＮ,,株式会社,石川県,小松市,津波倉町ワ２５番地１,,17,203,9230313,,,,,,,2021-12-06,1,,,,,ソーヘアデザイン,0
236,1220003003159,新規,0,2021-12-06,2021-12-06,合同会社Ｒｅｍ,,合同会社,石川県,羽咋市,石野町ホ８６番地１,,17,207,9250026,,,,,,,2021-12-06,1,,,,,レム,0
244,1240003005392,新規,0,2021-12-06,2021-12-06,Ｐｒｉｓｔｉｎｅ　Ａｓｓｅｔｓ合同会社,,合同会社,広島県,三次市,十日市東１丁目３番１号１階,,34,209,7280013,,,,,,,2021-12-06,1,,,,,プリスティーンアセッツ,0
249,1250001019286,新規,0,2021-12-06,2021-12-06,株式会社アタッチメントラボ,,株式会社,山口県,山口市,中央５丁目１５番１０号,,35,203,7530074,,,,,,,2021-12-06,1,,,,,アタッチメントラボ,0
261,1290803004003,新規,0,2021-12-06,2021-12-06,合同会社ＬＥＤＴＥＥ,,合同会社,福岡県,北九州市小倉北区,中津口１丁目１０番４５－６０７号,,40,106,8020018,,,,,,,2021-12-06,1,,,,,レッドティー,0
263,1300003001757,新規,0,2021-12-06,2021-12-06,ＧＯＮＩＮ　ＧＲＯＵＰ合同会社,,合同会社,佐賀県,鳥栖市,大正町７７８番地４,,41,203,8410032,,,,,,,2021-12-06,1,,,,,ゴニングループ,0
265,1310005008568,新規,0,2021-12-06,2021-12-06,特定非営利活動法人Ｈｕｍａｎ‐Ａｎｉｍａｌ　Ｗｅｌｆａｒｅ,,その他の設立登記法人,長崎県,佐世保市,大塔町８番地３０浦ビル２０１,,42,202,8571161,,,,,,,2021-12-06,1,,,,,ヒューマンアニマルウェルフェア,0
269,1320001018768,新規,0,2021-12-06,2021-12-06,株式会社齋藤建築,,株式会社,大分県,臼杵市,大字吉小野３５６５番地,,44,206,8750071,,,,,,,2021-12-06,1,,,,,サイトウケンチク,0
278,1360003011619,新規,0,2021-12-06,2021-12-06,合同会社オーディナリー,,合同会社,沖縄県,沖縄市,比屋根１丁目４番１０号オアシスモリシマ５０３,,47,211,9042173,,,,,,,2021-12-06,1,,,,,オーディナリー,0
279,1370001047878,新規,0,2021-12-06,2021-12-06,ブランドエクスプレス株式会社,,株式会社,宮城県,仙台市青葉区,三条町１６番６号,,04,101,9810935,,,,,,,2021-12-06,1,,,,,ブランドエクスプレス,0
283,1370005010394,新規,0,2021-12-06,2021-12-06,特定非営利活動法人ぴぃすかんぱにぃ,,その他の設立登記法人,宮城県,登米市,迫町佐沼字内町４２番地７,,04,212,9870511,,,,,,,2021-12-06,1,,,,,ピィスカンパニィ,0
284,1370005010403,新規,0,2021-12-06,2021-12-06,医療法人北仙会,,その他の設立登記法人,宮城県,仙台市青葉区,葉山町１番２６号萱場工業ビル１階,,04,101,9810917,,,,,,,2021-12-06,1,,,,,ホクセンカイ,0
292,1430001085491,新規,0,2021-12-06,2021-12-06,株式会社フェザーエンジニアリング,,株式会社,北海道,札幌市清田区,北野七条３丁目１８番２１号,,01,110,0040867,,,,,,,2021-12-06,1,,,,,フェザーエンジニアリング,0
293,1430001085517,新規,0,2021-12-06,2021-12-06,ＳＰｄｉｎｉｎｇ株式会社,,株式会社,北海道,札幌市白石区,本通３丁目北３－２６,,01,104,0030027,,,,,,,2021-12-06,1,,,,,エスピーダイニング,0
298,1470001018860,新規,0,2021-12-06,2021-12-06,株式会社ワークセンター香川,,株式会社,香川県,高松市,香川町浅野５１番地２,,37,201,7611703,,,,,,,2021-12-06,1,,,,,ワークセンターカガワ,0
300,1470003002086,新規,0,2021-12-06,2021-12-06,合同会社人生野遊,,合同会社,香川県,仲多度郡まんのう町,吉野下１３００番地２,,37,406,7660022,,,,,,,2021-12-06,1,,,,,ジンセイノアソビ,0
313,2010001222846,新規,0,2021-12-06,2021-12-06,株式会社ダブルオー・アート,,株式会社,東京都,中央区,銀座１丁目１２番４号Ｎ＆Ｅ・ＢＬＤ．７階,,13,102,1040061,,,,,,,2021-12-06,1,,,,,ダブルオーアート,0
314,2010001223002,新規,0,2021-12-06,2021-12-06,株式会社アイジークリエイト,,株式会社,東京都,千代田区,九段南１丁目５番６号りそな九段ビル５Ｆ・ＫＳフロア,,13,101,1020074,,,,,,,2021-12-06,1,,,,,アイジークリエイト,0
315,2010001223068,新規,0,2021-12-06,2021-12-06,英治株式会社,,株式会社,東京都,千代田区,内神田２丁目１４番４号,,13,101,1010047,,,,,,,2021-12-06,1,,,,,エイジ,0
327,2010401164192,新規,0,2021-12-06,2021-12-06,株式会社スズナリワーク,,株式会社,東京都,港区,三田２丁目９番９－４０３号,,13,103,1080073,,,,,,,2021-12-06,1,,,,,スズナリワーク,0
328,2010401164234,新規,0,2021-12-06,2021-12-06,株式会社ＧＲＡＣＩＳ９,,株式会社,東京都,港区,北青山２丁目７番１３号プラセオ青山ビル３Ｆ,,13,103,1070061,,,,,,,2021-12-06,1,,,,,,0
329,2010401164250,新規,0,2021-12-06,2021-12-06,Ｓｔａｒ　Ｉｎｔｅｒｎａｔｉｏｎａｌ　Ｔｒａｄｉｎｇ　Ｃｏｍｐａｎｙ株式会社,,株式会社,東京都,港区,芝浦３丁目４番２号グランパークハイツ２１０１,,13,103,1080023,,,,,,,2021-12-06,1,,,,,スターインターナショナルトレーディングカンパニー,0
330,2010401164275,新規,0,2021-12-06,2021-12-06,アルマダメディカルサービス株式会社,,株式会社,東京都,港区,南青山２丁目２３番８号,,13,103,1070062,,,,,,,2021-12-06,1,,,,,アルマダメディカルサービス,0
332,2010403026630,新規,0,2021-12-06,2021-12-06,合同会社神谷町インベストメント８号,,合同会社,東京都,港区,虎ノ門５丁目１番４号,,13,103,1050001,,,,,,,2021-12-06,1,,,,,カミヤチョウインベストメントハチゴウ,0
333,2010403026639,新規,0,2021-12-06,2021-12-06,ＲＰＳ合同会社,,合同会社,東京都,港区,南青山２丁目２番１５号,,13,103,1070062,,,,,,,2021-12-06,1,,,,,アールピーエス,0
335,2010501048171,新規,0,2021-12-06,2021-12-06,モリトオートパーツ株式会社,,株式会社,東京都,台東区,駒形２丁目４番８号,,13,106,1110043,,,,,,,2021-12-06,1,,,,,モリトオートパーツ,0
337,2010701041876,新規,0,2021-12-06,2021-12-06,株式会社フロンティア・ソニック,,株式会社,東京都,品川区,西五反田４丁目３０番６号キーフラット３０２,,13,109,1410031,,,,,,,2021-12-06,1,,,,,フロンティアソニック,0
339,2010801032494,新規,0,2021-12-06,2021-12-06,株式会社渡谷組,,株式会社,東京都,大田区,大森中３丁目１番１２号,,13,111,1430014,,,,,,,2021-12-06,1,,,,,ワタヤグミ,0
340,2010803003972,新規,0,2021-12-06,2021-12-06,合同会社アシスト,,合同会社,東京都,大田区,上池台２丁目１３番２号,,13,111,1450064,,,,,,,2021-12-06,1,,,,,アシスト,0
342,2010903006982,新規,0,2021-12-06,2021-12-06,合同会社Ｈａｓｈａｒｃ,,合同会社,東京都,世田谷区,北沢５丁目４２番８号,,13,112,1550031,,,,,,,2021-12-06,1,,,,,ハシャーク,0
349,2011001144361,新規,0,2021-12-06,2021-12-06,ＴＤＧホールディングス株式会社,,株式会社,東京都,目黒区,中根２丁目１２番２号,,13,110,1520031,,,,,,,2021-12-06,1,,,,,ティディジーホールディングス,0
350,2011001144444,新規,0,2021-12-06,2021-12-06,ネクストスイーツ株式会社,,株式会社,東京都,目黒区,自由が丘２丁目２２－６－１Ｆ,,13,110,1520035,,,,,,,2021-12-06,1,,,,,ネクストスイーツ,0
352,2011003013804,新規,0,2021-12-06,2021-12-06,合同会社４Ｏ２．ＩＯ,,合同会社,東京都,渋谷区,渋谷２丁目１９―１５宮益坂ビルディング６０９,,13,113,1500002,,,,,,,2021-12-06,1,,,,,フォズドットアイオー,0
353,2011003013820,新規,0,2021-12-06,2021-12-06,ＭＡ　Ｂａｎｄ合同会社,,合同会社,東京都,渋谷区,円山町５番５号Ｎａｖｉ渋谷Ｖ３階,00125050,13,113,1500044,,,,,,,2021-12-06,1,,,,,エムエーバンド,0
359,2011201023456,新規,0,2021-12-06,2021-12-06,株式会社クリート,,株式会社,東京都,中野区,松が丘１丁目５番４号,,13,114,1650024,,,,,,,2021-12-06,1,,,,,クリート,0
361,2011401023883,新規,0,2021-12-06,2021-12-06,株式会社日本尚景ロボット研究所,,株式会社,東京都,板橋区,板橋１丁目４２番６号,,13,119,1730004,,,,,,,2021-12-06,1,,,,,ニホンショウケイロボットケンキュウジョ,0
367,2011603003460,新規,0,2021-12-06,2021-12-06,ＶＥＲＩＴＡＳ　Ｊａｐａｎ合同会社,,合同会社,東京都,練馬区,上石神井２丁目５番３号,,13,120,1770044,,,,,,,2021-12-06,1,,,,,ベリタスジャパン,0
368,2011801040033,新規,0,2021-12-06,2021-12-06,大同フードコンサル株式会社,,株式会社,東京都,葛飾区,お花茶屋１丁目２３番２号,,13,122,1240003,,,,,,,2021-12-06,1,,,,,ダイドウフードコンサル,0
370,2012303001622,新規,0,2021-12-06,2021-12-06,オイリック合同会社,,合同会社,東京都,町田市,東玉川学園２丁目１３番３号,,13,209,1940042,,,,,,,2021-12-06,1,,,,,オイリック,0
388,2013303005935,新規,0,2021-12-06,2021-12-06,合同会社ＳＯＬＥＩＬ,,合同会社,東京都,豊島区,池袋３丁目３４番７号ビジネスパーク池袋２階,,13,116,1710014,,,,,,,2021-12-06,1,,,,,ソレイユ,0
391,2020001144172,新規,0,2021-12-06,2021-12-06,株式会社Ｒｏｍｉｏ,,株式会社,神奈川県,横浜市港北区,綱島西２丁目１３番３号中銀綱島マンシオン２０４,,14,109,2230053,,,,,,,2021-12-06,1,,,,,ロミオ,0
392,2020001144189,新規,0,2021-12-06,2021-12-06,ＨＡＰＳ美髪研究所株式会社,,株式会社,神奈川県,横浜市中区,伊勢佐木町１丁目６番地１伊勢佐木ＫＩＮＧビル２Ｆ,,14,104,2310045,,,,,,,2021-12-06,1,,,,,ハプスビハツケンキュウジョ,0
396,2020003020900,新規,0,2021-12-06,2021-12-06,合同会社鈴鹿ＥＲＩ１号,,合同会社,神奈川県,横浜市港北区,新横浜２丁目５番地２新横浜Ｕ・Ｕビル５階,,14,109,2220033,,,,,,,2021-12-06,1,,,,,スズカイーアールアイイチゴウ,0
397,2020003020933,新規,0,2021-12-06,2021-12-06,５０ＥＰ合同会社,,合同会社,神奈川県,横浜市磯子区,岡村４丁目９番３８号,,14,107,2350021,,,,,,,2021-12-06,1,,,,,フィフティーイーピー,0
402,2021001074665,新規,0,2021-12-06,2021-12-06,株式会社Ａｉｒ　Ｌｏｏｐ,,株式会社,神奈川県,横須賀市,大矢部１丁目２番１１－１０２号,,14,201,2380024,,,,,,,2021-12-06,1,,,,,エアーループ,0
403,2021001074698,新規,0,2021-12-06,2021-12-06,株式会社三柱,,株式会社,神奈川県,相模原市緑区,大島３２６８番地４－２０５号,,14,151,2520135,,,,,,,2021-12-06,1,,,,,ミツバシラ,0
405,2021003011154,新規,0,2021-12-06,2021-12-06,合同会社Ｙ’Ｚプラントサービス,,合同会社,神奈川県,藤沢市,長後１１７６番地の４－１０１,,14,205,2520801,,,,,,,2021-12-06,1,,,,,ワイゼットプラントサービス,0
411,2030001145640,新規,0,2021-12-06,2021-12-06,株式会社サンディオート,,株式会社,埼玉県,川口市,大字安行領根岸２９３４番地,,11,203,3330834,,,,,,,2021-12-06,1,,,,,サンディオート,0
412,2030001145657,新規,0,2021-12-06,2021-12-06,株式会社ビルマ,,株式会社,埼玉県,さいたま市桜区,大字神田６８９番地１,,11,106,3380812,,,,,,,2021-12-06,1,,,,,ビルマ,0
413,2030001145723,新規,0,2021-12-06,2021-12-06,ＩＮＦＩＮＩＴＹ株式会社,,株式会社,埼玉県,さいたま市大宮区,仲町２丁目５７番地ＡＸＩＳ仲町ビル２Ｆ,,11,103,3300845,,,,,,,2021-12-06,1,,,,,インフィニティー,0
420,2030003018431,新規,0,2021-12-06,2021-12-06,合同会社ティーエスアイ,,合同会社,埼玉県,児玉郡上里町,大字七本木１７６７番地８,,11,385,3690306,,,,,,,2021-12-06,1,,,,,ティーエスアイ,0
426,2040001121244,新規,0,2021-12-06,2021-12-06,仲田重設株式会社,,株式会社,千葉県,八千代市,勝田台５丁目３０番地１６,,12,221,2760023,,,,,,,2021-12-06,1,,,,,ナカタジュウセツ,0
430,2040003019073,新規,0,2021-12-06,2021-12-06,合同会社夢色,,合同会社,千葉県,柏市,塚崎９２５番地１８,,12,217,2770923,,,,,,,2021-12-06,1,,,,,ムショク,0
447,2080401025512,新規,0,2021-12-06,2021-12-06,株式会社ピーオーエム,,株式会社,静岡県,浜松市中区,蜆塚２丁目１０番９号エヴァグリーン２０１,,22,131,4328018,,,,,,,2021-12-06,1,,,,,ピーオーエム,0
448,2080403004423,新規,0,2021-12-06,2021-12-06,すばる工房合同会社,,合同会社,静岡県,浜松市中区,西伊場町９番地の２,,22,131,4328038,,,,,,,2021-12-06,1,,,,,スバルコウボウ,0
459,2120001242239,新規,0,2021-12-06,2021-12-06,株式会社ライフキャリアレインボー,,株式会社,大阪府,大阪市東成区,中本３丁目１０番６号,,27,115,5370022,,,,,,,2021-12-06,1,,,,,ライフキャリアレインボー,0
460,2120001242255,新規,0,2021-12-06,2021-12-06,アイセルグループ株式会社,,株式会社,大阪府,大阪市中央区,博労町３丁目５番１号御堂筋グランタワー１５階,,27,128,5410059,,,,,,,2021-12-06,1,,,,,アイセルグループ,0
461,2120001242263,新規,0,2021-12-06,2021-12-06,株式会社アーバン企画,,株式会社,大阪府,大阪市城東区,今福西６丁目２番１－６２２号,,27,118,5360004,,,,,,,2021-12-06,1,,,,,アーバンキカク,0
462,2120001242271,新規,0,2021-12-06,2021-12-06,株式会社徳勝会,,株式会社,大阪府,大阪市住之江区,北島２丁目６番２５号,,27,125,5590014,,,,,,,2021-12-06,1,,,,,トクショウカイ,0
463,2120001242313,新規,0,2021-12-06,2021-12-06,株式会社Ｃｈｅｒｙｌ,,株式会社,大阪府,大阪市東成区,玉津３丁目１－１４,,27,115,5370023,,,,,,,2021-12-06,1,,,,,シェリル,0
464,2120001242338,新規,0,2021-12-06,2021-12-06,株式会社宇多田,,株式会社,大阪府,大阪市西成区,北津守２丁目３番９号,,27,122,5570061,,,,,,,2021-12-06,1,,,,,ウタダ,0
466,2120003020691,新規,0,2021-12-06,2021-12-06,合同会社ＰＯＯＬ,,合同会社,大阪府,大阪市中央区,本町２丁目３番４号－４階,,27,128,5410053,,,,,,,2021-12-06,1,,,,,プール,0
467,2120003020700,新規,0,2021-12-06,2021-12-06,クライエール合同会社,,合同会社,大阪府,寝屋川市,香里南之町３６－３４－９１４,,27,215,5720084,,,,,,,2021-12-06,1,,,,,クライエール,0
468,2120003020709,新規,0,2021-12-06,2021-12-06,合同会社プレヴナンス,,合同会社,大阪府,大阪市西淀川区,歌島２丁目４番３９－９０３号,,27,113,5550021,,,,,,,2021-12-06,1,,,,,プレヴナンス,0
482,2130001070663,新規,0,2021-12-06,2021-12-06,株式会社京滋ハウジングサービス,,株式会社,京都府,城陽市,寺田新池３８番地１５,,26,207,6100121,,,,,,,2021-12-06,1,,,,,ケイジハウジングサービス,0
489,2140001124039,新規,0,2021-12-06,2021-12-06,株式会社ＭＳＤ,,株式会社,兵庫県,姫路市,豊富町豊富３９０３番地１０７,,28,201,6792123,,,,,,,2021-12-06,1,,,,,エムエスディー,0
490,2140001124047,新規,0,2021-12-06,2021-12-06,株式会社海山,,株式会社,兵庫県,宝塚市,中山台１丁目１４番２４号,,28,214,6650876,,,,,,,2021-12-06,1,,,,,ウミヤマ,0
491,2140001124055,新規,0,2021-12-06,2021-12-06,四鬼建設株式会社,,株式会社,兵庫県,西宮市,石在町５番３号,,28,204,6620928,,,,,,,2021-12-06,1,,,,,シキケンセツ,0
497,2140005025927,新規,0,2021-12-06,2021-12-06,医療法人社団ルアナ会,,その他の設立登記法人,兵庫県,明石市,二見町西二見駅前４丁目２０,,28,203,6740095,,,,,,,2021-12-06,1,,,,,ルアナカイ,0
501,2160001023858,新規,0,2021-12-06,2021-12-06,株式会社宇宙人,,株式会社,滋賀県,草津市,北山田町２８０番地７,,25,206,5250061,,,,,,,2021-12-06,1,,,,,ウチュウジン,0
503,2170001016893,新規,0,2021-12-06,2021-12-06,株式会社マッコイ,,株式会社,和歌山県,和歌山市,中之島３０３番地５,,30,201,6408392,,,,,,,2021-12-06,1,,,,,マッコイ,0
504,2170001016902,新規,0,2021-12-06,2021-12-06,株式会社トリート,,株式会社,和歌山県,東牟婁郡那智勝浦町,大字浜ノ宮８６２－２２,,30,421,6495314,,,,,,,2021-12-06,1,,,,,トリート,0
513,2180001148975,新規,0,2021-12-06,2021-12-06,株式会社ライトスタッフ東海,,株式会社,愛知県,春日井市,神屋町１３９８番地７０,,23,206,4800304,,,,,,,2021-12-06,1,,,,,ライトスタッフトウカイ,0
514,2180001148983,新規,0,2021-12-06,2021-12-06,株式会社Ｌｅａｄ　ｔｒｕｓｔ,,株式会社,愛知県,春日井市,若草通５丁目３番地２,,23,206,4860914,,,,,,,2021-12-06,1,,,,,リードトラスト,0
515,2180001149016,新規,0,2021-12-06,2021-12-06,株式会社ＪＩＢＵ,,株式会社,愛知県,名古屋市中区,栄３丁目１５番３３号,,23,106,4600008,,,,,,,2021-12-06,1,,,,,ジブ,0
520,2180003023251,新規,0,2021-12-06,2021-12-06,エスケーワイ合同会社,,合同会社,愛知県,名古屋市西区,香呑町６丁目５２番地の１（サンコート庄内２０６号）,,23,104,4510015,,,,,,,2021-12-06,1,,,,,エスケーワイ,0
522,2180005019537,新規,0,2021-12-06,2021-12-06,一般社団法人家事代行ベビーシッター協会,,その他の設立登記法人,愛知県,名古屋市名東区,八前３丁目１１１番地（メゾン八前４０５号）,,23,115,4650018,,,,,,,2021-12-06,1,,,,,カジダイコウベビーシッターキョウカイ,0
523,2180301035700,新規,0,2021-12-06,2021-12-06,株式会社心建エクステリア,,株式会社,愛知県,岡崎市,上地町字赤菱２３番地２,,23,202,4440824,,,,,,,2021-12-06,1,,,,,シンケンエクステリア,0
529,2210001018720,新規,0,2021-12-06,2021-12-06,Ｍ・Ｔコーポレーション株式会社,,株式会社,福井県,福井市,篠尾町第９６号５５番地,,18,201,9102148,,,,,,,2021-12-06,1,,,,,エムティーコーポレーション,0
533,2220001024577,新規,0,2021-12-06,2021-12-06,株式会社Ｔｕｒｆｒｉｄｅｒ,,株式会社,石川県,金沢市,福増町北７１番地,,17,201,9200376,,,,,,,2021-12-06,1,,,,,ターフライダー,0
535,2220003003158,新規,0,2021-12-06,2021-12-06,合同会社宮西,,合同会社,石川県,七尾市,万行２丁目９０番地,,17,202,9260017,,,,,,,2021-12-06,1,,,,,ミヤニシ,0
544,2240001059010,新規,0,2021-12-06,2021-12-06,株式会社ＳＨＵＷＡ,,株式会社,広島県,東広島市,高屋町稲木２９１番地１７,,34,212,7392106,,,,,,,2021-12-06,1,,,,,シュウワ,0
554,2260003003740,新規,0,2021-12-06,2021-12-06,合同会社ＭＡＩＳＯＮ,,合同会社,岡山県,岡山市北区,富原３９１０番地北村ビル１Ｆ,,33,101,7011153,,,,,,,2021-12-06,1,,,,,メゾン,0
556,2270003001371,新規,0,2021-12-06,2021-12-06,ＥｍｉＲｉｎｇＢｏｗＺｅｎ合同会社,,合同会社,鳥取県,米子市,博労町２丁目２番地１１,,31,202,6830052,,,,,,,2021-12-06,1,,,,,エミリングバウゼン,0
558,2280003001552,新規,0,2021-12-06,2021-12-06,合同会社ラベオン,,合同会社,島根県,益田市,飯浦町イ９７６番,,32,204,6993761,,,,,,,2021-12-06,1,,,,,ラベオン,0
565,2290001095645,新規,0,2021-12-06,2021-12-06,株式会社Ｄ．Ｃ．Ｔ,,株式会社,福岡県,福岡市博多区,千代２丁目２番２１－２９号,,40,132,8120044,,,,,,,2021-12-06,1,,,,,ディーシーティー,0
566,2290001095653,新規,0,2021-12-06,2021-12-06,株式会社ｇｅｍｓｔｏｎｅ,,株式会社,福岡県,福岡市中央区,荒戸１丁目１番１２号,,40,133,8100062,,,,,,,2021-12-06,1,,,,,ジェムストーン,0
575,2320003003668,新規,0,2021-12-06,2021-12-06,波津久電気工事合同会社,,合同会社,大分県,臼杵市,大字市浜６６２番地の３,,44,206,8750052,,,,,,,2021-12-06,1,,,,,ハツクデンキコウジ,0
577,2330001029243,新規,0,2021-12-06,2021-12-06,株式会社古木建設,,株式会社,熊本県,熊本市北区,楡木４丁目８番２１―３０１号パークマンション楡木Ａ,,43,105,8618083,,,,,,,2021-12-06,1,,,,,フルキケンセツ,0
587,2360003011618,新規,0,2021-12-06,2021-12-06,合同会社辰技建,,合同会社,沖縄県,名護市,字屋部４２０番地１ＳｍｉｌｅＧａｒｄｅｎＩＩ２０５号室,00125045,47,209,9050007,,,,,,,2021-12-06,1,,,,,シンギケン,0
589,2370001047893,新規,0,2021-12-06,2021-12-06,株式会社東北レックス,,株式会社,宮城県,富谷市,明石台４丁目４番地２４コンフォートＩＩ２０１,00125059,04,216,9813332,,,,,,,2021-12-06,1,,,,,トウホクレックス,0
590,2370001047902,新規,0,2021-12-06,2021-12-06,株式会社Ｈｈｃ,,株式会社,宮城県,多賀城市,高崎２丁目２９番８号コーポ高崎２０２号,,04,209,9850862,,,,,,,2021-12-06,1,,,,,エイチエイチシー,0
591,2370003005511,新規,0,2021-12-06,2021-12-06,国分町ＴＶ合同会社,,合同会社,宮城県,仙台市青葉区,大町２丁目１３－９幸田ビル４０２,,04,101,9800804,,,,,,,2021-12-06,1,,,,,,0
600,2400001015698,新規,0,2021-12-06,2021-12-06,株式会社ＴＬＣ,,株式会社,岩手県,奥州市,前沢駅東２丁目２番地１６,,03,215,0294211,,,,,,,2021-12-06,1,,,,,ティーエルシー,0
610,2430001085490,新規,0,2021-12-06,2021-12-06,株式会社ｉ　ｆａｒｍ,,株式会社,北海道,余市郡余市町,美園町１９８番地３４,,01,408,0460014,,,,,,,2021-12-06,1,,,,,アイファーム,0
611,2430001085508,新規,0,2021-12-06,2021-12-06,株式会社ＨＥＡＤ,,株式会社,北海道,札幌市東区,北十九条東２丁目３番３号,,01,103,0650019,,,,,,,2021-12-06,1,,,,,ヘッド,0
612,2430001085516,新規,0,2021-12-06,2021-12-06,株式会社Ｎ’ｓＦａｃｔｏｒｙ,,株式会社,北海道,札幌市南区,北ノ沢１７２７番１６号,,01,106,0050832,,,,,,,2021-12-06,1,,,,,エヌズファクトリー,0
621,2460301005022,新規,0,2021-12-06,2021-12-06,株式会社鹿柵創建,,株式会社,北海道,網走市,南二条東２丁目４番地の５,,01,211,0930002,,,,,,,2021-12-06,1,,,,,シカサクソウケン,0
623,2490001010047,新規,0,2021-12-06,2021-12-06,株式会社久保自動車,,株式会社,高知県,香南市,夜須町千切９３５番地６,,39,211,7815602,,,,,,,2021-12-06,1,,,,,クボジドウシャ,0
632,3010001222936,新規,0,2021-12-06,2021-12-06,株式会社盛嘉,,株式会社,東京都,中央区,日本橋中洲１番２－２０４号,,13,102,1030008,,,,,,,2021-12-06,1,,,,,セイカ,0
633,3010001222985,新規,0,2021-12-06,2021-12-06,株式会社サンケーシステムズ,,株式会社,東京都,千代田区,神田佐久間町１丁目８番４号,,13,101,1010025,,,,,,,2021-12-06,1,,,,,サンケーシステムズ,0
634,3010001223018,新規,0,2021-12-06,2021-12-06,株式会社ヴィクターズ,,株式会社,東京都,中央区,日本橋人形町２丁目１８番３号,,13,102,1030013,,,,,,,2021-12-06,1,,,,,ヴィクターズ,0
635,3010001223050,新規,0,2021-12-06,2021-12-06,株式会社モアコネクツ,,株式会社,東京都,千代田区,外神田３丁目６番４号,,13,101,1010021,,,,,,,2021-12-06,1,,,,,モアコネクツ,0
636,3010003036483,新規,0,2021-12-06,2021-12-06,オフィスサポート合同会社,,合同会社,東京都,中央区,日本橋人形町３丁目５番９号,,13,102,1030013,,,,,,,2021-12-06,1,,,,,オフィスサポート,0
637,3010005034287,新規,0,2021-12-06,2021-12-06,一般社団法人ＫＬＦ２,,その他の設立登記法人,東京都,千代田区,内幸町２丁目１番６号,,13,101,1000011,,,,,,,2021-12-06,1,,,,,ケーエルエフツー,0
640,3010401164200,新規,0,2021-12-06,2021-12-06,マーターポート株式会社,,株式会社,東京都,港区,虎ノ門１丁目１０番５号,,13,103,1050001,,,,,,,2021-12-06,1,,,,,マーターポート,0
641,3010401164217,新規,0,2021-12-06,2021-12-06,株式会社ＮＩＪＩＩＲＯ,,株式会社,東京都,港区,六本木４丁目３番１１号,,13,103,1060032,,,,,,,2021-12-06,1,,,,,ニジイロ,0
642,3010401164225,新規,0,2021-12-06,2021-12-06,株式会社ｅｎｏｇ,,株式会社,東京都,港区,港南２丁目１６－１品川イーストワンタワー７階,,13,103,1080075,,,,,,,2021-12-06,1,,,,,エノグ,0
643,3010401164233,新規,0,2021-12-06,2021-12-06,株式会社鉄板,,株式会社,東京都,港区,海岸１丁目２－２０汐留ビルディング３Ｆ,,13,103,1050022,,,,,,,2021-12-06,1,,,,,,0
644,3010401164258,新規,0,2021-12-06,2021-12-06,ユリシス株式会社,,株式会社,東京都,港区,南青山２丁目２番１５号ウィン青山１２１４号,,13,103,1070062,,,,,,,2021-12-06,1,,,,,ユリシス,0
650,3010403026662,新規,0,2021-12-06,2021-12-06,マウスファンディング合同会社,,合同会社,東京都,港区,虎ノ門３丁目２２番１０－２０１号,,13,103,1050001,,,,,,,2021-12-06,1,,,,,マウスファンディング,0
651,3010405020498,新規,0,2021-12-06,2021-12-06,一般社団法人日比谷メズワン,,その他の設立登記法人,東京都,港区,虎ノ門３丁目１８番１２－５０２号株式会社虎ノ門会計神谷町分室内,,13,103,1050001,,,,,,,2021-12-06,1,,,,,ヒビヤメズワン,0
652,3010501048170,新規,0,2021-12-06,2021-12-06,モリトアパレル株式会社,,株式会社,東京都,台東区,駒形２丁目４番８号,,13,106,1110043,,,,,,,2021-12-06,1,,,,,モリトアパレル,0
654,3010601060331,新規,0,2021-12-06,2021-12-06,株式会社ベストグルーヴ,,株式会社,東京都,墨田区,江東橋４丁目２１番６号錦糸町ハイタウン５１９号室,,13,107,1300022,,,,,,,2021-12-06,1,,,,,ベストグルーヴ,0
658,3010701041891,新規,0,2021-12-06,2021-12-06,株式会社ウィル,,株式会社,東京都,品川区,東品川３丁目２２番２０号ルネ東品川６０６,,13,109,1400002,,,,,,,2021-12-06,1,,,,,ウィル,0
659,3010803003971,新規,0,2021-12-06,2021-12-06,合同会社Ｙ・Ｓ・Ｔ,,合同会社,東京都,大田区,山王４丁目２４番３号,,13,111,1430023,,,,,,,2021-12-06,1,,,,,ワイエスティ,0
663,3010903006981,新規,0,2021-12-06,2021-12-06,合同会社ＴＥＳＨＩＭＡ,,合同会社,東京都,世田谷区,上馬５丁目３８番１０号キリンビル３０１,,13,112,1540011,,,,,,,2021-12-06,1,,,,,テシマ,0
668,3011001144336,新規,0,2021-12-06,2021-12-06,フヅクエ株式会社,,株式会社,東京都,渋谷区,初台１丁目３８番１号二名ビル２Ｆ,,13,113,1510061,,,,,,,2021-12-06,1,,,,,フヅクエ,0
669,3011001144352,新規,0,2021-12-06,2021-12-06,株式会社ＫＹＨ,,株式会社,東京都,渋谷区,広尾４丁目１番３１号広尾ガーデンフォレストＧ棟８０１,,13,113,1500012,,,,,,,2021-12-06,1,,,,,ケーワイエイチ,0
670,3011001144360,新規,0,2021-12-06,2021-12-06,株式会社Ａｒｔ　Ｙｉｒｉｓ,,株式会社,東京都,目黒区,碑文谷５丁目１５番６号,,13,110,1520003,,,,,,,2021-12-06,1,,,,,アートイーリス,0
671,3011001144369,新規,0,2021-12-06,2021-12-06,株式会社メドホック,,株式会社,東京都,渋谷区,上原２丁目１７番４号ＳハウスＢ,,13,113,1510064,,,,,,,2021-12-06,1,,,,,メドホック,0
672,3011001144393,新規,0,2021-12-06,2021-12-06,株式会社古川裕也事務所,,株式会社,東京都,渋谷区,神宮前５丁目２２番６号,,13,113,1500001,,,,,,,2021-12-06,1,,,,,フルカワユウヤジムショ,0
673,3011003013828,新規,0,2021-12-06,2021-12-06,合同会社Ｄｅｌｕｘｅ　Ｔｉｍｅ,,合同会社,東京都,渋谷区,神宮前６丁目２３番４号桑野ビル２階,,13,113,1500001,,,,,,,2021-12-06,1,,,,,デラックスタイム,0
677,3011101097095,新規,0,2021-12-06,2021-12-06,株式会社秀玲,,株式会社,東京都,新宿区,大久保２丁目２５番３５号,,13,104,1690072,,,,,,,2021-12-06,1,,,,,ミレイ,0
692,3012803002656,新規,0,2021-12-06,2021-12-06,ＴＨＡＮＨ　ＸＵＡＮ合同会社,,合同会社,東京都,日野市,程久保３丁目２０番７号,,13,212,1910042,,,,,,,2021-12-06,1,,,,,タンスアン,0
702,3020001144171,新規,0,2021-12-06,2021-12-06,株式会社ｌｏｗｐ,,株式会社,神奈川県,横浜市港北区,日吉本町１丁目２番７号・２Ｆ,,14,109,2230062,,,,,,,2021-12-06,1,,,,,ロープ,0
703,3020001144196,新規,0,2021-12-06,2021-12-06,株式会社ＣｏｌｌｅｃｔｉｏＮ,,株式会社,神奈川県,川崎市川崎区,東田町２番地１小泉ビル１Ｆ,,14,131,2100005,,,,,,,2021-12-06,1,,,,,コレクション,0
704,3020001144205,新規,0,2021-12-06,2021-12-06,株式会社Ｔｒｕｅ　ｍａｎａｇｅｍｅｎｔ,,株式会社,神奈川県,横浜市港北区,富士塚２丁目１７番２２－３号,,14,109,2220012,,,,,,,2021-12-06,1,,,,,トゥルーマネジメント,0
709,3020003020924,新規,0,2021-12-06,2021-12-06,合同会社ファナトリエ,,合同会社,神奈川県,横浜市港北区,大倉山１丁目２５番１６－４０４号,,14,109,2220037,,,,,,,2021-12-06,1,,,,,ファナトリエ,0
710,3020003020932,新規,0,2021-12-06,2021-12-06,合同会社クローバー紅,,合同会社,神奈川県,横浜市港北区,綱島西１丁目１－６ＬＯＬビル２Ｆ,,14,109,2230053,,,,,,,2021-12-06,1,,,,,クローバーベニ,0
715,3021001074664,新規,0,2021-12-06,2021-12-06,株式会社Ｓｉｎｇｕｌａｒ　Ｃａｐｉｔａｌ,,株式会社,神奈川県,足柄下郡湯河原町,宮下７６２番地の６,,14,384,2590304,,,,,,,2021-12-06,1,,,,,シンギュラーキャピタル,0
719,3021005012364,新規,0,2021-12-06,2021-12-06,一般社団法人中日本ガーデンシティ協会,,その他の設立登記法人,神奈川県,厚木市,寿町３丁目１番１号,,14,212,2430003,,,,,,,2021-12-06,1,,,,,ナカニホンガーデンシティキョウカイ,0
729,3030001145648,新規,0,2021-12-06,2021-12-06,フカイ塗装株式会社,,株式会社,埼玉県,越谷市,川柳町２丁目４４６番地,,11,222,3430827,,,,,,,2021-12-06,1,,,,,フカイトソウ,0
730,3030001145656,新規,0,2021-12-06,2021-12-06,株式会社ｍａｎｄａｒｉｎ,,株式会社,埼玉県,さいたま市岩槻区,本町４丁目１０番８号佐藤ビル１Ｆ,,11,110,3390057,,,,,,,2021-12-06,1,,,,,マンダリン,0
731,3030001145664,新規,0,2021-12-06,2021-12-06,株式会社英語多読アカデミア,,株式会社,埼玉県,富士見市,東みずほ台２丁目１５番地１１,,11,235,3540015,,,,,,,2021-12-06,1,,,,,エイゴタドクアカデミア,0
732,3030001145697,新規,0,2021-12-06,2021-12-06,株式会社ＰｌｕｓＲｉｎｇ,,株式会社,埼玉県,所沢市,東町１２番８－１７１３号ザ・パークハウス所沢,,11,208,3591116,,,,,,,2021-12-06,1,,,,,プラスリング,0
740,3030003018414,新規,0,2021-12-06,2021-12-06,カラーズ合同会社,,合同会社,埼玉県,春日部市,備後西３丁目１１番５２－６０２号,,11,214,3440033,,,,,,,2021-12-06,1,,,,,カラーズ,0
741,3030003018439,新規,0,2021-12-06,2021-12-06,若葉ひまわり総合コンサルタント合同会社,,合同会社,埼玉県,坂戸市,関間４丁目２－３２ひまわりビル４階,,11,239,3500215,,,,,,,2021-12-06,1,,,,,ワカバヒマワリソウゴウコンサルタント,0
742,3030003018447,新規,0,2021-12-06,2021-12-06,東京マリンバイオ合同会社,,合同会社,埼玉県,朝霞市,栄町５丁目３番３号,,11,227,3510012,,,,,,,2021-12-06,1,,,,,トウキョウマリンバイオ,0
747,3040001121235,新規,0,2021-12-06,2021-12-06,株式会社ＴＵＫＡＤＥＮ,,株式会社,千葉県,銚子市,前宿町８５９番地,,12,202,2880031,,,,,,,2021-12-06,1,,,,,ツカデン,0
748,3040001121243,新規,0,2021-12-06,2021-12-06,Ｍ＆Ｒ商事株式会社,,株式会社,千葉県,柏市,南増尾２丁目１４番４５号,,12,217,2770054,,,,,,,2021-12-06,1,,,,,エムアンドアールショウジ,0
749,3040001121251,新規,0,2021-12-06,2021-12-06,ＧＬＡＤＥＳ株式会社,,株式会社,千葉県,船橋市,山手２丁目３番３３－８０９号,,12,204,2730045,,,,,,,2021-12-06,1,,,,,グレイズ,0
751,3040003019048,新規,0,2021-12-06,2021-12-06,ＮＩＰＰＯＮ　ＪＩＴＨＵ　ＴＲＡＤＩＮＧ合同会社,,合同会社,千葉県,白井市,平塚３５８番地５,,12,232,2701402,,,,,,,2021-12-06,1,,,,,ニッポンジトゥトレーディング,0
752,3040003019072,新規,0,2021-12-06,2021-12-06,合同会社ＦＲコーポレーション,,合同会社,千葉県,いすみ市,岬町長者３１番地１９号ジェルミ長者１０２号,,12,238,2994616,,,,,,,2021-12-06,1,,,,,エフアールコーポレーション,0
753,3040005021456,新規,0,2021-12-06,2021-12-06,土地家屋調査士法人芽生測量,,その他の設立登記法人,千葉県,柏市,柏６丁目１０番２３号,,12,217,2770005,,,,,,,2021-12-06,1,,,,,メイソクリョウ,0
756,3050003006235,新規,0,2021-12-06,2021-12-06,合同会社ミトツクバ,,合同会社,茨城県,つくば市,上ノ室１４５６番地１,,08,220,3050023,,,,,,,2021-12-06,1,,,,,ミトツクバ,0
762,3060001034336,新規,0,2021-12-06,2021-12-06,株式会社まるごと新聞社,,株式会社,栃木県,小山市,城山町３丁目６番地２５号,,09,208,3230025,,,,,,,2021-12-06,1,,,,,マルゴトシンブンシャ,0
769,3080001024624,新規,0,2021-12-06,2021-12-06,株式会社トータル,,株式会社,静岡県,静岡市駿河区,南八幡町２１番１４号,,22,102,4228074,,,,,,,2021-12-06,1,,,,,トータル,0
770,3080101022965,新規,0,2021-12-06,2021-12-06,株式会社フジ・アソシエイト,,株式会社,静岡県,富士宮市,北山５２８５番地の５,,22,207,4180112,,,,,,,2021-12-06,1,,,,,フジアソシエイト,0
771,3080401025511,新規,0,2021-12-06,2021-12-06,株式会社開清館,,株式会社,静岡県,磐田市,森下７３２番地７,,22,211,4380834,,,,,,,2021-12-06,1,,,,,カイセイカン,0
776,3100003006312,新規,0,2021-12-06,2021-12-06,ＫＲＡＭ合同会社,,合同会社,長野県,茅野市,泉野５５４３－１,,20,214,3910214,,,,,,,2021-12-06,1,,,,,クラム,0
780,3110001036244,新規,0,2021-12-06,2021-12-06,株式会社インプルーブ,,株式会社,新潟県,魚沼市,佐梨５６９番地１０,,15,225,9460021,,,,,,,2021-12-06,1,,,,,インプルーブ,0
785,3110005016738,新規,0,2021-12-06,2021-12-06,社会保険労務士法人相馬事務所,,その他の設立登記法人,新潟県,新潟市中央区,美咲町１丁目７番５５号ソフィアミサキ２階Ｃ号,,15,103,9500954,,,,,,,2021-12-06,1,,,,,ソウマジムショ,0
797,3120001242221,新規,0,2021-12-06,2021-12-06,ＳＩＮＣＥＥＤ株式会社,,株式会社,大阪府,大阪市西区,新町１丁目１７番１７－７０６号,,27,106,5500013,,,,,,,2021-12-06,1,,,,,シンシード,0
798,3120001242238,新規,0,2021-12-06,2021-12-06,株式会社ナミキホーム,,株式会社,大阪府,大阪市城東区,東中浜２丁目４番２－５１６号,,27,118,5360023,,,,,,,2021-12-06,1,,,,,ナミキホーム,0
799,3120001242254,新規,0,2021-12-06,2021-12-06,株式会社Ｅ．Ｍ．ＪＡＰＡＮ,,株式会社,大阪府,大阪市中央区,久太郎町１丁目５番１３号富士ビル２１０号室,,27,128,5410056,,,,,,,2021-12-06,1,,,,,イーエムジャパン,0
800,3120001242262,新規,0,2021-12-06,2021-12-06,株式会社ＨＤＰ,,株式会社,大阪府,大阪市城東区,関目３丁目４番１号サトウビル１０１,,27,118,5360008,,,,,,,2021-12-06,1,,,,,エイチディピー,0
801,3120001242287,新規,0,2021-12-06,2021-12-06,株式会社シーユーペイント,,株式会社,大阪府,大阪市城東区,関目３丁目１４番２６－１０１１号,,27,118,5360008,,,,,,,2021-12-06,1,,,,,シーユーペイント,0
802,3120003020699,新規,0,2021-12-06,2021-12-06,合同会社ウィル,,合同会社,大阪府,大阪市天王寺区,逢阪２丁目５－１８号,00125058,27,109,5430062,,,,,,,2021-12-06,1,,,,,,0
803,3120003020708,新規,0,2021-12-06,2021-12-06,ひかる防災・田藤総合電気サービス合同会社,,合同会社,大阪府,大阪市鶴見区,諸口４丁目１４番９号シャイニングハイツ２０４号室,,27,124,5380051,,,,,,,2021-12-06,1,,,,,ヒカルボウサイタフジソウゴウデンキサービス,0
806,3120101064722,新規,0,2021-12-06,2021-12-06,株式会社ＢＢＡＮＤＳＢ＆ＣＯ．,,株式会社,大阪府,堺市北区,百舌鳥梅町３丁４３番地９,,27,146,5918032,,,,,,,2021-12-06,1,,,,,バンズアンドコー,0
807,3120101064730,新規,0,2021-12-06,2021-12-06,株式会社Ｇｒａｉｎ,,株式会社,大阪府,藤井寺市,国府３丁目４番４号,,27,226,5830006,,,,,,,2021-12-06,1,,,,,グレイン,0
808,3120101064739,新規,0,2021-12-06,2021-12-06,株式会社Ｗ,,株式会社,大阪府,堺市中区,福田８８０番地２０,,27,142,5998241,,,,,,,2021-12-06,1,,,,,ダブリュー,0
809,3120101064747,新規,0,2021-12-06,2021-12-06,株式会社三雄工業,,株式会社,大阪府,高石市,東羽衣５丁目２８番１２号,,27,225,5920003,,,,,,,2021-12-06,1,,,,,サンユウコウギョウ,0
819,3130001070646,新規,0,2021-12-06,2021-12-06,株式会社ウツミ土木,,株式会社,京都府,舞鶴市,字上福井５７８番地,,26,202,6240951,,,,,,,2021-12-06,1,,,,,ウツミドボク,0
820,3130001070662,新規,0,2021-12-06,2021-12-06,株式会社幸,,株式会社,京都府,京都市伏見区,淀本町２１７番地１０１号,,26,109,6130903,,,,,,,2021-12-06,1,,,,,サチ,0
826,3140001124079,新規,0,2021-12-06,2021-12-06,株式会社ＯＮＥ　ｆｌａｔ,,株式会社,兵庫県,西宮市,鳴尾町３丁目７番１５－２０２号,,28,204,6638184,,,,,,,2021-12-06,1,,,,,ワンフラット,0
827,3150001025144,新規,0,2021-12-06,2021-12-06,株式会社澪標,,株式会社,奈良県,大和高田市,片塩町６－１８,,29,202,6350085,,,,,,,2021-12-06,1,,,,,ミオツクシ,0
828,3150003002554,新規,0,2021-12-06,2021-12-06,六条エステート合同会社,,合同会社,奈良県,奈良市,六条２丁目８番１０号,,29,201,6308043,,,,,,,2021-12-06,1,,,,,ロクジョウエステート,0
835,3170001016892,新規,0,2021-12-06,2021-12-06,株式会社竹庄水産,,株式会社,和歌山県,和歌山市,新通７丁目４５番地２,,30,201,6408111,,,,,,,2021-12-06,1,,,,,タケショウスイサン,0
836,3170001016901,新規,0,2021-12-06,2021-12-06,株式会社幸旺,,株式会社,和歌山県,岩出市,東坂本１７３番地の１,,30,209,6496211,,,,,,,2021-12-06,1,,,,,ユキオ,0
851,3180001148966,新規,0,2021-12-06,2021-12-06,株式会社ヒロセコーポレーション,,株式会社,愛知県,北名古屋市,徳重東出１８番地１,,23,234,4810038,,,,,,,2021-12-06,1,,,,,ヒロセコーポレーション,0
852,3180001148990,新規,0,2021-12-06,2021-12-06,ａｓａワークス株式会社,,株式会社,愛知県,知多市,南粕谷新海４丁目２６０番地,,23,224,4780026,,,,,,,2021-12-06,1,,,,,エイエスエイワークス,0
853,3180001148999,新規,0,2021-12-06,2021-12-06,株式会社ハイジックス,,株式会社,愛知県,名古屋市緑区,緑花台８０８番地,,23,114,4598005,,,,,,,2021-12-06,1,,,,,ハイジックス,0
864,3180301035699,新規,0,2021-12-06,2021-12-06,株式会社エンジニアス,,株式会社,愛知県,刈谷市,大手町２丁目２９番地ＩＮＯビル３Ｆ－Ｂ,,23,210,4480857,,,,,,,2021-12-06,1,,,,,エンジニアス,0
867,3190001028894,新規,0,2021-12-06,2021-12-06,株式会社パティスリーコモノ,,株式会社,三重県,三重郡菰野町,大字菰野２２７７番地３,,24,341,5101233,,,,,,,2021-12-06,1,,,,,パティスリーコモノ,0
868,3190001028903,新規,0,2021-12-06,2021-12-06,川口クレーン株式会社,,株式会社,三重県,熊野市,久生屋町７９９番地３,,24,212,5194326,,,,,,,2021-12-06,1,,,,,カワグチクレーン,0
869,3190001028911,新規,0,2021-12-06,2021-12-06,株式会社Ｗｅｌｌｎｅｓｓ　Ｔｉｍｅ,,株式会社,三重県,津市,片田新町３７番地９,,24,201,5140083,,,,,,,2021-12-06,1,,,,,ウェルネスタイム,0
870,3190003003838,新規,0,2021-12-06,2021-12-06,合同会社ＲＩＳＥ,,合同会社,三重県,津市,藤方１６９９‐６コーポシーサイドＩＩＩ２０２号室,00125041,24,201,5140815,,,,,,,2021-12-06,1,,,,,ライズ,0
875,3200001039493,新規,0,2021-12-06,2021-12-06,株式会社トピー商事岐阜,,株式会社,岐阜県,羽島市,竹鼻町蜂尻４３２番地５,,21,209,5016235,,,,,,,2021-12-06,1,,,,,トピーショウジギフ,0
880,3220003003165,新規,0,2021-12-06,2021-12-06,合同会社ＮＡＴＳＵ　ＳＴＹＬＥ　ＰＬＵＳ,,合同会社,石川県,金沢市,七ツ屋町１８番ＢＲＡＮＺ金沢１０１,,17,201,9200021,,,,,,,2021-12-06,1,,,,,ナツスタイルプラス,0
886,3260001036295,新規,0,2021-12-06,2021-12-06,株式会社ａｃｉｅｓ,,株式会社,岡山県,総社市,福井２０９５番地エルコーポ１０１,,33,208,7191115,,,,,,,2021-12-06,1,,,,,アーチェス,0
897,3290001095586,新規,0,2021-12-06,2021-12-06,株式会社ヒカリファーマシー,,株式会社,福岡県,朝倉市,牛木７７番地１Ｋ’ｓ　ｓｔｙｌｅ　ｋａｌｏｔ　Ａ棟,,40,228,8380067,,,,,,,2021-12-06,1,,,,,ヒカリファーマシー,0
898,3290001095611,新規,0,2021-12-06,2021-12-06,株式会社ＡＯＢＡ,,株式会社,福岡県,久留米市,通町１１３番地２ニューライフ久留米ＩＩ６０７号,00125046,40,203,8300018,,,,,,,2021-12-06,1,,,,,アオバ,0
899,3290001095636,新規,0,2021-12-06,2021-12-06,株式会社宗輪,,株式会社,福岡県,福岡市西区,今宿東１丁目１８番９－３号Ｄ１０１,,40,135,8190161,,,,,,,2021-12-06,1,,,,,ソウワ,0
907,3290801028043,新規,0,2021-12-06,2021-12-06,株式会社アートクレフ,,株式会社,福岡県,北九州市八幡西区,瀬板２丁目５番１０号,,40,109,8070822,,,,,,,2021-12-06,1,,,,,アートクレフ,0
913,3320003003667,新規,0,2021-12-06,2021-12-06,合同会社メディウェル,,合同会社,大分県,速見郡日出町,３３５７番地１,,44,341,8791506,,,,,,,2021-12-06,1,,,,,メディウェル,0
914,3320005009951,新規,0,2021-12-06,2021-12-06,イデア行政書士法人,,その他の設立登記法人,大分県,大分市,王子北町５番８号フレスポ春日浦Ｆ棟２０２,,44,201,8700005,,,,,,,2021-12-06,1,,,,,イデア,0
923,3360003011609,新規,0,2021-12-06,2021-12-06,合同会社結月,,合同会社,沖縄県,うるま市,字宇堅８８０－１,,47,213,9042211,,,,,,,2021-12-06,1,,,,,ユヅキ,0
925,3370001047901,新規,0,2021-12-06,2021-12-06,株式会社ハタデン,,株式会社,宮城県,富谷市,太子堂２丁目１８番２１号,,04,216,9813303,,,,,,,2021-12-06,1,,,,,ハタデン,0
926,3370003005510,新規,0,2021-12-06,2021-12-06,合同会社ｉｍａ,,合同会社,宮城県,岩沼市,相の原１丁目１番２３号,,04,211,9892431,,,,,,,2021-12-06,1,,,,,アイマ,0
927,3370005010401,新規,0,2021-12-06,2021-12-06,医療法人ゆうき婦人科産科クリニック,,その他の設立登記法人,宮城県,仙台市太白区,あすと長町１丁目２番１号仙台長町メディカルプラザ３階,,04,104,9820007,,,,,,,2021-12-06,1,,,,,ユウキフジンカサンカクリニック,0
939,3430001085481,新規,0,2021-12-06,2021-12-06,株式会社セガ札幌スタジオ,,株式会社,北海道,札幌市北区,北十条西３丁目９番地２,,01,102,0010010,,,,,,,2021-12-06,1,,,,,セガサッポロスタジオ,0
945,3490001010046,新規,0,2021-12-06,2021-12-06,株式会社サブスティ,,株式会社,高知県,吾川郡いの町,八田４５８番地,,39,386,7812124,,,,,,,2021-12-06,1,,,,,サブスティ,0
948,3500001023855,新規,0,2021-12-06,2021-12-06,一誉総業株式会社,,株式会社,愛媛県,松山市,小坂５丁目１７番２６号,,38,201,7900963,,,,,,,2021-12-06,1,,,,,ヒヨシソウギョウ,0
949,3700150106077,新規,0,2021-12-06,2021-12-06,多摩川住宅ホ号棟マンション建替組合,,その他,東京都,調布市,染地３丁目１,,13,208,1820023,,,,,,,2021-12-06,1,,,,,タマガワジユウタクホゴウトウマンシヨンタテカエクミアイ,0
959,4010001223025,新規,0,2021-12-06,2021-12-06,ＲＥＣ株式会社,,株式会社,東京都,中央区,日本橋小網町１２番７号,,13,102,1030016,,,,,,,2021-12-06,1,,,,,レック,0
970,4010401164109,新規,0,2021-12-06,2021-12-06,ファンテック株式会社,,株式会社,東京都,港区,赤坂２丁目１３番２０号赤坂丸源２３ビル,,13,103,1070052,,,,,,,2021-12-06,1,,,,,ファンテック,0
971,4010401164166,新規,0,2021-12-06,2021-12-06,株式会社無題,,株式会社,東京都,港区,南青山２丁目２番１５号,,13,103,1070062,,,,,,,2021-12-06,1,,,,,ムダイ,0
972,4010401164182,新規,0,2021-12-06,2021-12-06,株式会社Ｏｓｈｉｃｏｃｏ,,株式会社,東京都,港区,白金１丁目６番１１号,,13,103,1080072,,,,,,,2021-12-06,1,,,,,オシココ,0
973,4010401164240,新規,0,2021-12-06,2021-12-06,株式会社ハルクオリア,,株式会社,東京都,港区,浜松町２丁目２番１５号浜松町ダイヤビル２Ｆ,,13,103,1050013,,,,,,,2021-12-06,1,,,,,ハルクオリア,0
974,4010401164265,新規,0,2021-12-06,2021-12-06,株式会社サブス,,株式会社,東京都,港区,白金２丁目５番５－４０３号,,13,103,1080072,,,,,,,2021-12-06,1,,,,,サブス,0
978,4010403026629,新規,0,2021-12-06,2021-12-06,合同会社神谷町インベストメント７号,,合同会社,東京都,港区,虎ノ門５丁目１番４号,,13,103,1050001,,,,,,,2021-12-06,1,,,,,カミヤチョウインベストメントナナゴウ,0
979,4010403026637,新規,0,2021-12-06,2021-12-06,合同会社ことぶき開発,,合同会社,東京都,港区,南青山２丁目２番１５号ウィン青山１２１４号,,13,103,1070062,,,,,,,2021-12-06,1,,,,,コトブキカイハツ,0
980,4010403026645,新規,0,2021-12-06,2021-12-06,合同会社強羅花壇京都,,合同会社,東京都,港区,虎ノ門５丁目１番４号,,13,103,1050001,,,,,,,2021-12-06,1,,,,,ゴウラカダンキョウト,0
981,4010403026653,新規,0,2021-12-06,2021-12-06,ＦＡＬＬＯＮ　Ｈｏｌｄｉｎｇｓ合同会社,,合同会社,東京都,港区,赤坂２丁目１７番５０号赤坂タワーレジデンストップオブザヒル１９１６号,,13,103,1070052,,,,,,,2021-12-06,1,,,,,ファロンホールディングス,0
983,4010601060322,新規,0,2021-12-06,2021-12-06,互助交通株式会社,,株式会社,東京都,墨田区,江東橋４丁目１４番７号,,13,107,1300022,,,,,,,2021-12-06,1,,,,,ゴジョコウツウ,0
984,4010601060330,新規,0,2021-12-06,2021-12-06,株式会社ＳＪ企画,,株式会社,東京都,墨田区,東向島１丁目３０番１４号,,13,107,1310032,,,,,,,2021-12-06,1,,,,,エスジェーキカク,0
986,4010701041866,新規,0,2021-12-06,2021-12-06,株式会社ネットリンクス,,株式会社,東京都,品川区,上大崎２丁目１５－１９ＭＧ目黒駅前９階,,13,109,1410021,,,,,,,2021-12-06,1,,,,,ネットリンクス,0
987,4010701041874,新規,0,2021-12-06,2021-12-06,株式会社北川建設,,株式会社,東京都,品川区,西大井６丁目６番３アーバンハイツ１０２号,,13,109,1400015,,,,,,,2021-12-06,1,,,,,キタガワケンセツ,0
992,4010801032542,新規,0,2021-12-06,2021-12-06,株式会社Ｔｈａｇｒａｄａ　Ａｉｒｌｉｎｅｓ,,株式会社,東京都,大田区,多摩川１丁目２１番９号,,13,111,1460095,,,,,,,2021-12-06,1,,,,,サグラーダエアラインズ,0
993,4010801032550,新規,0,2021-12-06,2021-12-06,株式会社ＡＮＴＩ－ＩＣＯＮ,,株式会社,東京都,大田区,田園調布５丁目１６－４,,13,111,1450071,,,,,,,2021-12-06,1,,,,,アンティアイコン,0
994,4010803003970,新規,0,2021-12-06,2021-12-06,合同会社オオタヤ,,合同会社,東京都,大田区,蒲田５丁目１９番１５号蒲田東口中央ビル地下１階,,13,111,1440052,,,,,,,2021-12-06,1,,,,,オオタヤ,0
996,4010901049899,新規,0,2021-12-06,2021-12-06,株式会社おおしろキッズ,,株式会社,東京都,世田谷区,太子堂１丁目１番１１号,,13,112,1540004,,,,,,,2021-12-06,1,,,,,オオシロキッズ,0
997,4010901049916,新規,0,2021-12-06,2021-12-06,株式会社ＲＥＳＨＡＦＴ,,株式会社,東京都,世田谷区,北沢２丁目２７番９号,,13,112,1550031,,,,,,,2021-12-06,1,,,,,リシャフト,0
998,4010901049932,新規,0,2021-12-06,2021-12-06,株式会社ジマ・プロ,,株式会社,東京都,世田谷区,桜１丁目２５番１５号,,13,112,1560053,,,,,,,2021-12-06,1,,,,,ジマプロ,0
1000,4010903006989,新規,0,2021-12-06,2021-12-06,Ａｒａｍｏｎｏ合同会社,,合同会社,東京都,世田谷区,鎌田３丁目２２番９号,,13,112,1570077,,,,,,,2021-12-06,1,,,,,アラモノ,0
1007,4011001144392,新規,0,2021-12-06,2021-12-06,株式会社ＲＥＤ　ＺＯＮＥ,,株式会社,東京都,渋谷区,松濤１丁目２８番２号,,13,113,1500046,,,,,,,2021-12-06,1,,,,,レッドゾーン,0
1008,4011003013810,新規,0,2021-12-06,2021-12-06,合同会社ハイパーエンタ,,合同会社,東京都,目黒区,目黒１丁目４番１６号目黒Ｇビル７Ｆ,,13,110,1530063,,,,,,,2021-12-06,1,,,,,ハイパーエンタ,0
1009,4011003013827,新規,0,2021-12-06,2021-12-06,ダブルアール合同会社,,合同会社,東京都,渋谷区,千駄ヶ谷１丁目２８番８号ニュー千駄ヶ谷マンション００５号室,,13,113,1510051,,,,,,,2021-12-06,1,,,,,ダブルアール,0
1011,4011101097086,新規,0,2021-12-06,2021-12-06,株式会社ＳｕｃｃｅｓｓＦｌｏｗ,,株式会社,東京都,新宿区,西新宿３丁目３番１３号西新宿水間ビル６階,,13,104,1600023,,,,,,,2021-12-06,1,,,,,,0
1012,4011101097103,新規,0,2021-12-06,2021-12-06,株式会社終活のまどぐち,,株式会社,東京都,新宿区,西新宿２丁目６番１号新宿住友ビル,,13,104,1600023,,,,,,,2021-12-06,1,,,,,シュウカツノマドグチ,0
1014,4011301027388,新規,0,2021-12-06,2021-12-06,株式会社ＳＯＵＮＥ,,株式会社,東京都,杉並区,永福１丁目４４番２号,,13,115,1680064,,,,,,,2021-12-06,1,,,,,ソウネ,0
1018,4011603003459,新規,0,2021-12-06,2021-12-06,合同会社ＳＡＮＡＧＥＭ,,合同会社,東京都,練馬区,練馬１丁目２０番８号日建練馬ビル２Ｆ,,13,120,1760001,,,,,,,2021-12-06,1,,,,,サナジェム,0
1023,4012703002359,新規,0,2021-12-06,2021-12-06,合同会社フジワラ,,合同会社,東京都,西東京市,ひばりが丘北４丁目８番４号,,13,229,2020002,,,,,,,2021-12-06,1,,,,,フジワラ,0
1028,4013301048372,新規,0,2021-12-06,2021-12-06,豊田通商株式会社,,株式会社,東京都,豊島区,西巣鴨２丁目５－２４大道工業ビル１０２,,13,116,1700001,,,,,,,2021-12-06,1,,,,,トヨタツウショウ,0
1033,4020001144187,新規,0,2021-12-06,2021-12-06,株式会社ＬＥＯＮ,,株式会社,神奈川県,横浜市戸塚区,川上町９１番地１ＢＥＬＩＳＴＡタワー東戸塚２２０９号,,14,110,2440805,,,,,,,2021-12-06,1,,,,,レオン,0
1034,4020001144195,新規,0,2021-12-06,2021-12-06,株式会社ＨＩＲＯ珈琲,,株式会社,神奈川県,横浜市中区,元町３丁目１４３番地アトリエ元町４０５,,14,104,2310861,,,,,,,2021-12-06,1,,,,,ヒロコーヒー,0
1035,4020001144253,新規,0,2021-12-06,2021-12-06,株式会社ただのねこ,,株式会社,神奈川県,横浜市中区,伊勢佐木町１丁目３番地１,,14,104,2310045,,,,,,,2021-12-06,1,,,,,タダノネコ,0
1036,4020001144261,新規,0,2021-12-06,2021-12-06,メビディア株式会社,,株式会社,神奈川県,横浜市西区,北幸１丁目１番８－５０３号,,14,103,2200004,,,,,,,2021-12-06,1,,,,,メビディア,0
1038,4020003020923,新規,0,2021-12-06,2021-12-06,合同会社ＴＹ’ｓ,,合同会社,神奈川県,横浜市中区,曙町１丁目３番,,14,104,2310057,,,,,,,2021-12-06,1,,,,,ティーズ,0
1039,4020005015293,新規,0,2021-12-06,2021-12-06,医療法人社団ＦＤＣ,,その他の設立登記法人,神奈川県,横浜市保土ケ谷区,和田２丁目７番４号１階,,14,106,2400065,,,,,,,2021-12-06,1,,,,,エフディーシー,0
1041,4021001074639,新規,0,2021-12-06,2021-12-06,株式会社ＶＥＲＤＥ,,株式会社,神奈川県,鎌倉市,長谷２丁目５番４１号,,14,204,2480016,,,,,,,2021-12-06,1,,,,,ベルデ,0
1042,4021001074688,新規,0,2021-12-06,2021-12-06,株式会社ＬＩＶＩＮＧ　ＡＲＴ,,株式会社,神奈川県,平塚市,片岡７９１番地の３７,,14,203,2591213,,,,,,,2021-12-06,1,,,,,リビングアート,0
1045,4021005012363,新規,0,2021-12-06,2021-12-06,医療法人心和会,,その他の設立登記法人,神奈川県,相模原市緑区,向原４丁目２番３号コピオ相模原インター内,,14,151,2520104,,,,,,,2021-12-06,1,,,,,シンワカイ,0
1052,4030001145655,新規,0,2021-12-06,2021-12-06,株式会社Ｃｕｒｅ　Ｒｅｃｏｖｅｒｙ,,株式会社,埼玉県,さいたま市南区,南浦和２丁目１８番１５号ＦＡＶＯ南浦和１０１,,11,108,3360017,,,,,,,2021-12-06,1,,,,,キュアリカバリー,0
1053,4030001145663,新規,0,2021-12-06,2021-12-06,株式会社ＣＨＩＮＣＨＯＧＥ,,株式会社,埼玉県,川越市,上野田町５２番地２,,11,201,3501112,,,,,,,2021-12-06,1,,,,,チンチョウゲ,0
1054,4030001145705,新規,0,2021-12-06,2021-12-06,株式会社アトウィル,,株式会社,埼玉県,鶴ヶ島市,脚折町４丁目１５番２５号,,11,241,3502211,,,,,,,2021-12-06,1,,,,,アトウィル,0
1055,4030001145721,新規,0,2021-12-06,2021-12-06,株式会社Ｓｉｎ－Ｗａ,,株式会社,埼玉県,坂戸市,大字石井２８６２番地７,,11,239,3500212,,,,,,,2021-12-06,1,,,,,,0
1067,4030003018438,新規,0,2021-12-06,2021-12-06,アカラ合同会社,,合同会社,埼玉県,さいたま市西区,三橋５丁目６２１番地１,,11,101,3310052,,,,,,,2021-12-06,1,,,,,アカラ,0
1068,4030003018446,新規,0,2021-12-06,2021-12-06,合同会社ＬＥ－ＱＵＩＯ,,合同会社,埼玉県,さいたま市大宮区,大門町２丁目２５－１１ＴＭＯ南棟２０２号室,,11,103,3300846,,,,,,,2021-12-06,1,,,,,レキオ,0
1071,4040001121226,新規,0,2021-12-06,2021-12-06,株式会社コスモテック,,株式会社,千葉県,松戸市,八ケ崎１丁目１６番地の７,,12,207,2700023,,,,,,,2021-12-06,1,,,,,コスモテック,0
1072,4040001121234,新規,0,2021-12-06,2021-12-06,アイスクリーン株式会社,,株式会社,千葉県,千葉市若葉区,千城台北１丁目１０番９号,,12,104,2640005,,,,,,,2021-12-06,1,,,,,アイスクリーン,0
1073,4040001121250,新規,0,2021-12-06,2021-12-06,株式会社ケーズフロンティアレーシング,,株式会社,千葉県,船橋市,湊町２丁目１１番９－７０１号,,12,204,2730011,,,,,,,2021-12-06,1,,,,,ケーズフロンティアレーシング,0
1075,4040003019047,新規,0,2021-12-06,2021-12-06,Ｒｅ．ｏｎ合同会社,,合同会社,千葉県,習志野市,津田沼４丁目１０番８－１０５号,,12,216,2750016,,,,,,,2021-12-06,1,,,,,レオン,0
1076,4040003019071,新規,0,2021-12-06,2021-12-06,Ｂ．Ｂ．Ｔ．Ｓ　ＡＵＴＯ合同会社,,合同会社,千葉県,富里市,新橋１９９番地２,,12,233,2860224,,,,,,,2021-12-06,1,,,,,ビービーティーエスオート,0
1079,4050001050242,新規,0,2021-12-06,2021-12-06,株式会社Ｋ－ｃｌａｎ,,株式会社,茨城県,龍ケ崎市,愛戸町６１番地３,,08,208,3010838,,,,,,,2021-12-06,1,,,,,ケークラン,0
1084,4060001034343,新規,0,2021-12-06,2021-12-06,Ｒｅａｃｈ　Ａｕｔｏｍｏｔｉｖｅ　Ｔｅｃｈｎｏｌｏｇｙ　Ｊａｐａｎ株式会社,,株式会社,栃木県,宇都宮市,東宿郷３丁目１番１号,,09,201,3210953,,,,,,,2021-12-06,1,,,,,リーチオートモーティブテクノロジージャパン,0
1088,4070003004319,新規,0,2021-12-06,2021-12-06,合同会社昌平,,合同会社,群馬県,前橋市,荒牧町１丁目５１番地１７,,10,201,3710044,,,,,,,2021-12-06,1,,,,,ショウヘイ,0
1095,4100001034867,新規,0,2021-12-06,2021-12-06,株式会社Ｃｈａｔｏｎ,,株式会社,長野県,長野市,大字高田１１１８番地２２,,20,201,3810034,,,,,,,2021-12-06,1,,,,,シャトン,0
1096,4100001034875,新規,0,2021-12-06,2021-12-06,株式会社Ａｎｏｙａｍａ,,株式会社,長野県,上水内郡飯綱町,大字赤塩２４８９番地,,20,590,3891203,,,,,,,2021-12-06,1,,,,,アノヤマ,0
1097,4100003006311,新規,0,2021-12-06,2021-12-06,合同会社ヒロ・プログレス,,合同会社,長野県,松本市,小屋南１丁目２番１２号,,20,202,3990038,,,,,,,2021-12-06,1,,,,,ヒロプログレス,0
1110,4120001242237,新規,0,2021-12-06,2021-12-06,インスタイル株式会社,,株式会社,大阪府,大阪市中央区,今橋２丁目２番１１号大和今橋ビル６階南,,27,128,5410042,,,,,,,2021-12-06,1,,,,,インスタイル,0
1111,4120001242278,新規,0,2021-12-06,2021-12-06,株式会社ＣｏｎｎｅｃＴｒｕｓｔ,,株式会社,大阪府,枚方市,楠葉並木１丁目３８－１１なみきビル３０１,,27,210,5731118,,,,,,,2021-12-06,1,,,,,コネクトラスト,0
1112,4120001242286,新規,0,2021-12-06,2021-12-06,株式会社エスパス,,株式会社,大阪府,大阪市平野区,加美東４丁目３－３３,,27,126,5470002,,,,,,,2021-12-06,1,,,,,エスパス,0
1116,4120003020707,新規,0,2021-12-06,2021-12-06,ＣＯ合同会社,,合同会社,大阪府,大阪市生野区,桃谷４丁目１９番２３号,,27,116,5440034,,,,,,,2021-12-06,1,,,,,シーオー,0
1119,4120101064721,新規,0,2021-12-06,2021-12-06,Ｋリフォーム株式会社,,株式会社,大阪府,堺市北区,北長尾町４丁５番８号協商ビル３階Ｂ号室,,27,146,5918043,,,,,,,2021-12-06,1,,,,,ケイリフォーム,0
1128,4130001070637,新規,0,2021-12-06,2021-12-06,株式会社ソフトマターシミュレーションズ,,株式会社,京都府,京都市左京区,吉田橘町３４番地９,,26,103,6068303,,,,,,,2021-12-06,1,,,,,ソフトマターシミュレーションズ,0
1129,4130001070645,新規,0,2021-12-06,2021-12-06,アルダ株式会社,,株式会社,京都府,京都市伏見区,醍醐南西裏町１８－５－２０１,,26,109,6011356,,,,,,,2021-12-06,1,,,,,アルダ,0
1141,4150001025151,新規,0,2021-12-06,2021-12-06,株式会社ヴァレイソーイングジャム,,株式会社,奈良県,北葛城郡上牧町,桜ケ丘１丁目９－６,,29,424,6390202,,,,,,,2021-12-06,1,,,,,ヴァレイソーイングジャム,0
1146,4170001016891,新規,0,2021-12-06,2021-12-06,株式会社彩葉,,株式会社,和歌山県,和歌山市,吉礼６２７番地１８,,30,201,6400351,,,,,,,2021-12-06,1,,,,,イロハ,0
1147,4170001016900,新規,0,2021-12-06,2021-12-06,株式会社社縁,,株式会社,和歌山県,岩出市,西国分５１５番地の２（９０１号）,,30,209,6496213,,,,,,,2021-12-06,1,,,,,エニシ,0
1154,4180001148949,新規,0,2021-12-06,2021-12-06,株式会社エイグループ,,株式会社,愛知県,名古屋市東区,新出来２丁目６番１５号,,23,102,4610038,,,,,,,2021-12-06,1,,,,,エイグループ,0
1155,4180001148957,新規,0,2021-12-06,2021-12-06,モンテ株式会社,,株式会社,愛知県,名古屋市西区,八筋町６２番地,,23,104,4520815,,,,,,,2021-12-06,1,,,,,モンテ,0
1156,4180001148973,新規,0,2021-12-06,2021-12-06,株式会社はんどライフサポート,,株式会社,愛知県,名古屋市北区,喜惣治２丁目１２５番地の３,,23,103,4620065,,,,,,,2021-12-06,1,,,,,ハンドライフサポート,0
1157,4180001149022,新規,0,2021-12-06,2021-12-06,スズキモールド株式会社,,株式会社,愛知県,稲沢市,大塚南９丁目１２７番地,,23,220,4928214,,,,,,,2021-12-06,1,,,,,スズキモールド,0
1162,4180003023258,新規,0,2021-12-06,2021-12-06,ＳＥＲＩＮＥＴ合同会社,,合同会社,愛知県,名古屋市西区,名駅２丁目３４番１７号セントラル名古屋１１０１号,,23,104,4510045,,,,,,,2021-12-06,1,,,,,セリネット,0
1168,4190001028910,新規,0,2021-12-06,2021-12-06,株式会社八鳥本家,,株式会社,三重県,四日市市,大字六呂見１１７９番地２,,24,202,5100881,,,,,,,2021-12-06,1,,,,,ハットリホンケ,0
1173,4220001024575,新規,0,2021-12-06,2021-12-06,株式会社ｙｏｃｔｏ,,株式会社,石川県,白山市,福増町３６５番地,,17,210,9240012,,,,,,,2021-12-06,1,,,,,ヨクト,0
1174,4220001024583,新規,0,2021-12-06,2021-12-06,株式会社Ｓコーポレーション,,株式会社,石川県,金沢市,福増町北７３３番地,,17,201,9200376,,,,,,,2021-12-06,1,,,,,エスコーポレーション,0
1175,4220003003164,新規,0,2021-12-06,2021-12-06,Ｗｅａｌｔｈ　Ｌａｂ合同会社,,合同会社,石川県,金沢市,昭和町２１‐１０ポレスターステーションシティ金沢２０６,,17,201,9200856,,,,,,,2021-12-06,1,,,,,ウェルスラボ,0
1178,4240001059025,新規,0,2021-12-06,2021-12-06,株式会社ＮＡＴＵＲＥ,,株式会社,広島県,安芸高田市,八千代町勝田５１７番地６,,34,214,7310302,,,,,,,2021-12-06,1,,,,,ネイチャー,0
1199,4290801028042,新規,0,2021-12-06,2021-12-06,株式会社ＤＲＡＷＥＲ,,株式会社,福岡県,北九州市八幡西区,町上津役西４丁目４番２４号,,40,109,8070074,,,,,,,2021-12-06,1,,,,,ドロワー,0
1203,4320001018773,新規,0,2021-12-06,2021-12-06,株式会社おあげや,,株式会社,大分県,大分市,上野丘西１０番９号,,44,201,8700834,,,,,,,2021-12-06,1,,,,,オアゲヤ,0
1212,4360003011616,新規,0,2021-12-06,2021-12-06,合同会社ＨＩＪ,,合同会社,沖縄県,那覇市,古波蔵３丁目７番２号ＹＷＡＶＥＣＯＵＲＴ２０２,,47,201,9000024,,,,,,,2021-12-06,1,,,,,エイチアイジェイ,0
1214,4370001047909,新規,0,2021-12-06,2021-12-06,株式会社エコウッド,,株式会社,宮城県,石巻市,北村字大日５１番地１,,04,202,9871103,,,,,,,2021-12-06,1,,,,,エコウッド,0
1221,4400001015696,新規,0,2021-12-06,2021-12-06,株式会社ヘルシーツリー,,株式会社,岩手県,久慈市,十八日町２丁目１２番,,03,207,0280065,,,,,,,2021-12-06,1,,,,,ヘルシーツリー,0
1223,4410001013030,新規,0,2021-12-06,2021-12-06,ＣＡＲＲＹ　ＧＲＯＵＰ株式会社,,株式会社,秋田県,秋田市,土崎港相染町字浜ナシ山２番地１２,,05,201,0110951,,,,,,,2021-12-06,1,,,,,,0
1225,4420001017666,新規,0,2021-12-06,2021-12-06,株式会社かまたホールディングス,,株式会社,青森県,弘前市,大字宮川２丁目１番地１１,,02,202,0368051,,,,,,,2021-12-06,1,,,,,カマタホールディングス,0
1228,4430001085506,新規,0,2021-12-06,2021-12-06,佐藤工業株式会社,,株式会社,北海道,札幌市白石区,菊水元町一条１丁目４番１－４０８号,,01,104,0030821,,,,,,,2021-12-06,1,,,,,サトウコウギョウ,0
1234,4480001011572,新規,0,2021-12-06,2021-12-06,Ｋｉｓｏｘ株式会社,,株式会社,徳島県,小松島市,田野町字溝ノ木１８３番地の２８,,36,203,7730008,,,,,,,2021-12-06,1,,,,,キソックス,0
1235,4490003001604,新規,0,2021-12-06,2021-12-06,三木塗装店合同会社,,合同会社,高知県,南国市,岡豊町滝本２２６番地１,,39,204,7830040,,,,,,,2021-12-06,1,,,,,ミキトソウテン,0
1238,4500001023854,新規,0,2021-12-06,2021-12-06,株式会社谷淵ボーリング,,株式会社,愛媛県,松山市,空港通６丁目２０番２号,,38,201,7910054,,,,,,,2021-12-06,1,,,,,タニブチボーリング,0
1259,5010001222876,新規,0,2021-12-06,2021-12-06,ＭＩＯパーソナル株式会社,,株式会社,東京都,中央区,銀座７丁目５－４毛利ビル５Ｆ・Ｓ,,13,102,1040061,,,,,,,2021-12-06,1,,,,,エムアイオーパーソナル,0
1260,5010001222950,新規,0,2021-12-06,2021-12-06,松井地所プロパティマネジメント株式会社,,株式会社,東京都,千代田区,丸の内２丁目２番３号丸の内仲通りビル７階,,13,101,1000005,,,,,,,2021-12-06,1,,,,,マツイジショプロパティマネジメント,0
1265,5010003036465,新規,0,2021-12-06,2021-12-06,合同会社フィリー,,合同会社,東京都,千代田区,丸の内１丁目１１番１号パシフィックセンチュリープレイス丸の内１３階,,13,101,1000005,,,,,,,2021-12-06,1,,,,,フィリー,0
1275,5010401164231,新規,0,2021-12-06,2021-12-06,ＴＲＡＭ株式会社,,株式会社,東京都,港区,南青山５丁目８番１０号,,13,103,1070062,,,,,,,2021-12-06,1,,,,,トラム,0
1276,5010401164248,新規,0,2021-12-06,2021-12-06,Ｊ．Ｉ　ＣＯＲＰＯＲＡＴＩＯＮ株式会社,,株式会社,東京都,港区,六本木４丁目９番２号俳優座ビル８０１号室,,13,103,1060032,,,,,,,2021-12-06,1,,,,,ジェイアイコーポレーション,0
1279,5010403026652,新規,0,2021-12-06,2021-12-06,合同会社三和,,合同会社,東京都,港区,海岸２丁目２番６号ＤＳ海岸ビル１００４号,,13,103,1050022,,,,,,,2021-12-06,1,,,,,サンワ,0
1287,5010701041881,新規,0,2021-12-06,2021-12-06,真技設備管理株式会社,,株式会社,東京都,品川区,南品川２丁目１０番９号,,13,109,1400004,,,,,,,2021-12-06,1,,,,,シンギセツビカンリ,0
1291,5010901049898,新規,0,2021-12-06,2021-12-06,株式会社ＫＫ　Ｐａｒｔｎｅｒｓ,,株式会社,東京都,世田谷区,太子堂３丁目３７番１－Ｂ９０２号,,13,112,1540004,,,,,,,2021-12-06,1,,,,,ケーケーパートナーズ,0
1292,5010901049915,新規,0,2021-12-06,2021-12-06,株式会社ハドウワークス,,株式会社,東京都,世田谷区,三宿２丁目１８番２号ベルソード・パル代沢１０１,,13,112,1540005,,,,,,,2021-12-06,1,,,,,ハドウワークス,0
1293,5010901049923,新規,0,2021-12-06,2021-12-06,株式会社ＲｅＩＴ,,株式会社,東京都,世田谷区,上馬３丁目１８番１３－２Ｆ,,13,112,1540011,,,,,,,2021-12-06,1,,,,,リット,0
1300,5011001144334,新規,0,2021-12-06,2021-12-06,株式会社ＬＡＮＤＤ,,株式会社,東京都,渋谷区,恵比寿１丁目２２番３－５０１号,,13,113,1500013,,,,,,,2021-12-06,1,,,,,ランドディー,0
1301,5011001144359,新規,0,2021-12-06,2021-12-06,株式会社マフィン,,株式会社,東京都,渋谷区,渋谷２丁目２４番１２号渋谷スクランブルスクエア,,13,113,1500002,,,,,,,2021-12-06,1,,,,,マフィン,0
1302,5011001144375,新規,0,2021-12-06,2021-12-06,株式会社クローバー,,株式会社,東京都,渋谷区,渋谷２丁目１２番１２号三貴ビル２階,,13,113,1500002,,,,,,,2021-12-06,1,,,,,クローバー,0
1307,5011003013818,新規,0,2021-12-06,2021-12-06,合同会社Ｊ’ｓ　Ｍａｎａｇｅｍｅｎｔ,,合同会社,東京都,渋谷区,代々木５丁目４６番１０号,,13,113,1510053,,,,,,,2021-12-06,1,,,,,ジェイズマネジメント,0
1312,5011101097119,新規,0,2021-12-06,2021-12-06,株式会社フロムディ,,株式会社,東京都,新宿区,新宿２丁目１１番７号５Ｆ,,13,104,1600022,,,,,,,2021-12-06,1,,,,,フロムディ,0
1314,5011105010069,新規,0,2021-12-06,2021-12-06,一般社団法人日本毒性病理学会,,その他の設立登記法人,東京都,新宿区,山吹町３５８番地５,,13,104,1620801,,,,,,,2021-12-06,1,,,,,ニホンドクセイビョウリガッカイ,0
1315,5011301027379,新規,0,2021-12-06,2021-12-06,株式会社あの日不動産,,株式会社,東京都,杉並区,久我山３丁目１７番２６号,,13,115,1680082,,,,,,,2021-12-06,1,,,,,アノヒフドウサン,0
1317,5011501027534,新規,0,2021-12-06,2021-12-06,株式会社家族想,,株式会社,東京都,北区,十条仲原１丁目２５番１５号,,13,117,1140031,,,,,,,2021-12-06,1,,,,,,0
1321,5011601025586,新規,0,2021-12-06,2021-12-06,株式会社ＢＡＳＫ,,株式会社,東京都,練馬区,豊玉中２丁目２８番１４号,,13,120,1760013,,,,,,,2021-12-06,1,,,,,バスク,0
1325,5011801040030,新規,0,2021-12-06,2021-12-06,忠和株式会社,,株式会社,東京都,足立区,新田２丁目１６－１６－３０１,,13,121,1230865,,,,,,,2021-12-06,1,,,,,チュウワ,0
1326,5011803004883,新規,0,2021-12-06,2021-12-06,合同会社リビング倶楽部,,合同会社,東京都,足立区,栗原４丁目２０－５－２０３,,13,121,1230842,,,,,,,2021-12-06,1,,,,,,0
1332,5012701016797,新規,0,2021-12-06,2021-12-06,株式会社ＲＩＣＨＥＮ,,株式会社,東京都,西東京市,北町１丁目２番３号,,13,229,2020003,,,,,,,2021-12-06,1,,,,,リッチェン,0
1333,5012801021251,新規,0,2021-12-06,2021-12-06,株式会社Ｍｏｖｉｒｅｘ,,株式会社,東京都,立川市,錦町１丁目４番４号サニービル２ＦＣｓ－１２４,,13,202,1900022,,,,,,,2021-12-06,1,,,,,ムビレックス,0
1334,5012803002654,新規,0,2021-12-06,2021-12-06,合同会社ＯＮＥＤＡＹ,,合同会社,東京都,国立市,北１丁目２－１８国立デュープレックスＩＩ７０４,00125049,13,215,1860001,,,,,,,2021-12-06,1,,,,,ワンデイ,0
1336,5013301048371,新規,0,2021-12-06,2021-12-06,ＲＳＩＥＧ株式会社,,株式会社,東京都,豊島区,池袋本町２丁目２５番１３号,,13,116,1700011,,,,,,,2021-12-06,1,,,,,アールジーク,0
1341,5020001144178,新規,0,2021-12-06,2021-12-06,株式会社フューチャーアカウンティング,,株式会社,神奈川県,横浜市港北区,新横浜３丁目１９番地１１加瀬ビル８８－１００２,,14,109,2220033,,,,,,,2021-12-06,1,,,,,フューチャーアカウンティング,0
1342,5020001144186,新規,0,2021-12-06,2021-12-06,株式会社眞企画,,株式会社,神奈川県,横浜市保土ケ谷区,初音ケ丘３８番７号,,14,106,2400016,,,,,,,2021-12-06,1,,,,,マコトキカク,0
1343,5020001144194,新規,0,2021-12-06,2021-12-06,株式会社ＹＢＫ,,株式会社,神奈川県,川崎市宮前区,五所塚１丁目１３番地２６,,14,136,2160021,,,,,,,2021-12-06,1,,,,,,0
1348,5021001074670,新規,0,2021-12-06,2021-12-06,株式会社シーズハブ,,株式会社,神奈川県,横須賀市,平成町１丁目６番地５ザ・トップアクシア６０３,,14,201,2380013,,,,,,,2021-12-06,1,,,,,シーズハブ,0
1349,5021001074679,新規,0,2021-12-06,2021-12-06,株式会社ＡＩ　ＰＬＡＮＮＩＮＧ,,株式会社,神奈川県,伊勢原市,善波１４２３番地,,14,214,2591106,,,,,,,2021-12-06,1,,,,,エーアイプランニング,0
1350,5021001074687,新規,0,2021-12-06,2021-12-06,株式会社Ｗｏｎｄｅｒ　Ｆｏｒｅｓｔ,,株式会社,神奈川県,横須賀市,長沢４丁目２２番７号,,14,201,2390842,,,,,,,2021-12-06,1,,,,,ワンダーフォレスト,0
1351,5021001074704,新規,0,2021-12-06,2021-12-06,利民国際株式会社,,株式会社,神奈川県,伊勢原市,西富岡１０２８番地の１コーポ坂本２０２号室,,14,214,2591111,,,,,,,2021-12-06,1,,,,,リミンコクサイ,0
1353,5021003011151,新規,0,2021-12-06,2021-12-06,合同会社ｕｋｋｏ,,合同会社,神奈川県,中郡大磯町,国府本郷４１９番地,,14,341,2590111,,,,,,,2021-12-06,1,,,,,ウッコ,0
1362,5030001145638,新規,0,2021-12-06,2021-12-06,吉盛産業株式会社,,株式会社,埼玉県,川口市,大字神戸５３３番地の１１,,11,203,3330832,,,,,,,2021-12-06,1,,,,,ヨシモリサンギョウ,0
1363,5030001145646,新規,0,2021-12-06,2021-12-06,株式会社山口工業,,株式会社,埼玉県,比企郡鳩山町,大字赤沼２７１５番地７,,11,348,3500321,,,,,,,2021-12-06,1,,,,,ヤマグチコウギョウ,0
1364,5030001145662,新規,0,2021-12-06,2021-12-06,株式会社Ｄｏｇ　Ｒｕｎｓ　Ｗｅｌｌ,,株式会社,埼玉県,幸手市,香日向４丁目１５番１０号,,11,240,3400164,,,,,,,2021-12-06,1,,,,,ドッグランズウェル,0
1365,5030001145670,新規,0,2021-12-06,2021-12-06,株式会社ｔｎｅｍｏｍ,,株式会社,埼玉県,川越市,脇田町１７番地３,,11,201,3501122,,,,,,,2021-12-06,1,,,,,トネモム,0
1366,5030001145695,新規,0,2021-12-06,2021-12-06,株式会社ＴＡＤホールディングス,,株式会社,埼玉県,さいたま市西区,西大宮１丁目２番地１,,11,101,3310078,,,,,,,2021-12-06,1,,,,,ティーエーディーホールディングス,0
1375,5030003018429,新規,0,2021-12-06,2021-12-06,蕪式合同会社,,合同会社,埼玉県,大里郡寄居町,大字赤浜２６６７番地１,,11,408,3691211,,,,,,,2021-12-06,1,,,,,カブシキ,0
1385,5040001121200,新規,0,2021-12-06,2021-12-06,株式会社ユニオン,,株式会社,千葉県,船橋市,西船４丁目８－１５西船ビル２０７,,12,204,2730031,,,,,,,2021-12-06,1,,,,,ユニオン,0
1386,5040001121233,新規,0,2021-12-06,2021-12-06,株式会社ＴＡＲＵＫＥＮ,,株式会社,千葉県,木更津市,請西１丁目２０番１１号,,12,206,2920801,,,,,,,2021-12-06,1,,,,,タルケン,0
1391,5040003019054,新規,0,2021-12-06,2021-12-06,合同会社マインズ千葉,,合同会社,千葉県,千葉市中央区,富士見２丁目１番１号,,12,101,2600015,,,,,,,2021-12-06,1,,,,,マインズチバ,0
1392,5040005021454,新規,0,2021-12-06,2021-12-06,一般社団法人西国吉共有地管理組合,,その他の設立登記法人,千葉県,市原市,西国吉６３３番地２７,,12,219,2900231,,,,,,,2021-12-06,1,,,,,ニシクニヨシキョウユウチカンリクミアイ,0
1394,5050001050241,新規,0,2021-12-06,2021-12-06,鶴崎建創株式会社,00125042,株式会社,茨城県,取手市,青柳４２１番地２９,,08,217,3020006,,,,,,,2021-12-06,1,,,,,ツルサキケンソウ,0
1396,5070001038714,新規,0,2021-12-06,2021-12-06,株式会社ヒプノラボ,,株式会社,群馬県,高崎市,芝塚町１９１３番地１アドニス芝塚３０７号,,10,202,3700064,,,,,,,2021-12-06,1,,,,,ヒプノラボ,0
1401,5080101022955,新規,0,2021-12-06,2021-12-06,株式会社千鳥観光汽船,,株式会社,静岡県,沼津市,内浦三津４３番地の７,,22,203,4100223,,,,,,,2021-12-06,1,,,,,チドリカンコウキセン,0
1402,5080101022963,新規,0,2021-12-06,2021-12-06,池農業開発株式会社,,株式会社,静岡県,伊東市,池３９０番地,,22,208,4130234,,,,,,,2021-12-06,1,,,,,イケノウギョウカイハツ,0
1403,5080103002476,新規,0,2021-12-06,2021-12-06,ＭＯＯＮ　ＰＨＡＳＥ合同会社,,合同会社,静岡県,三島市,梅名４７７番地の９,,22,206,4110816,,,,,,,2021-12-06,1,,,,,ムーンフェイズ,0
1408,5100001034866,新規,0,2021-12-06,2021-12-06,株式会社丸藤,,株式会社,長野県,茅野市,ちの２９２１番地１,,20,214,3910001,,,,,,,2021-12-06,1,,,,,マルフジ,0
1410,5100003006310,新規,0,2021-12-06,2021-12-06,合同会社なからいい,,合同会社,長野県,上高井郡小布施町,大字押羽４５１番地１１,,20,541,3810207,,,,,,,2021-12-06,1,,,,,ナカライイ,0
1422,5120001242236,新規,0,2021-12-06,2021-12-06,株式会社Ｄｒｅａｍ　ｏｎ,,株式会社,大阪府,大阪市都島区,東野田町３丁目１０番１９号,,27,102,5340024,,,,,,,2021-12-06,1,,,,,ドリームオン,0
1423,5120001242277,新規,0,2021-12-06,2021-12-06,株式会社白形組,,株式会社,大阪府,大阪市住吉区,山之内２丁目１６番１４号,,27,120,5580023,,,,,,,2021-12-06,1,,,,,シラカタグミ,0
1424,5120001242335,新規,0,2021-12-06,2021-12-06,株式会社ＯＭＯＳＨＩＲＯ　ｅ　ＰＲＯＪＥＣＴ,,株式会社,大阪府,大阪市住吉区,苅田５丁目３番２１号,,27,120,5580011,,,,,,,2021-12-06,1,,,,,オモシロイープロジェクト,0
1426,5120003020697,新規,0,2021-12-06,2021-12-06,合同会社南海住宅,,合同会社,大阪府,大阪市住吉区,長峡町５番２号,,27,120,5580044,,,,,,,2021-12-06,1,,,,,ナンカイジュウタク,0
1428,5120005022642,新規,0,2021-12-06,2021-12-06,弁護士法人丸山法律事務所,,その他の設立登記法人,大阪府,大阪市北区,西天満２丁目１０番２号幸田ビル１０階１００６号室,,27,127,5300047,,,,,,,2021-12-06,1,,,,,マルヤマホウリツジムショ,0
1430,5120101064720,新規,0,2021-12-06,2021-12-06,株式会社ｗａｋａｍｅ　ｍｏｎｓｔｅｒｓ,,株式会社,大阪府,堺市堺区,中瓦町１丁１番１３号,,27,141,5900077,,,,,,,2021-12-06,1,,,,,ワカメモンスターズ,0
1431,5120101064737,新規,0,2021-12-06,2021-12-06,株式会社八田,,株式会社,大阪府,松原市,田井城２丁目２番２－９２６号,,27,217,5800044,,,,,,,2021-12-06,1,,,,,ハッタ,0
1434,5120901045291,新規,0,2021-12-06,2021-12-06,株式会社ＳＰＥＥＤ　ＳＴＡＲ,,株式会社,大阪府,箕面市,彩都粟生南２丁目８番１号,,27,220,5620028,,,,,,,2021-12-06,1,,,,,スピードスター,0
1436,5120905006240,新規,0,2021-12-06,2021-12-06,土地家屋調査士法人なぎさ,,その他の設立登記法人,大阪府,吹田市,千里山西６丁目２９番１１５号,,27,205,5650851,,,,,,,2021-12-06,1,,,,,ナギサ,0
1439,5130001070636,新規,0,2021-12-06,2021-12-06,株式会社ビルドＡ,,株式会社,京都府,宇治市,槇島町薗場２３番地の１,,26,204,6110041,,,,,,,2021-12-06,1,,,,,ビルドエー,0
1440,5130001070644,新規,0,2021-12-06,2021-12-06,株式会社はら工務店,,株式会社,京都府,京都市伏見区,指物町５６０番地ハイム丹波橋２０２,,26,109,6128074,,,,,,,2021-12-06,1,,,,,ハラコウムテン,0
1461,5170001016899,新規,0,2021-12-06,2021-12-06,Ｆネクスト株式会社,,株式会社,和歌山県,海南市,小野田２９６番地４,,30,202,6420014,,,,,,,2021-12-06,1,,,,,エフネクスト,0
1469,5180001148948,新規,0,2021-12-06,2021-12-06,株式会社Ｂ　Ｒｉｓｅ,,株式会社,愛知県,弥富市,稲荷崎２丁目１番地２,,23,235,4980056,,,,,,,2021-12-06,1,,,,,ビーライズ,0
1470,5180001148972,新規,0,2021-12-06,2021-12-06,株式会社ＨＩＲＯ－ＳＰＥＣ,,株式会社,愛知県,豊明市,前後町仙人塚１７３６番地１６３,,23,229,4701152,,,,,,,2021-12-06,1,,,,,ヒロスペック,0
1471,5180001148980,新規,0,2021-12-06,2021-12-06,株式会社公塗装,,株式会社,愛知県,名古屋市西区,比良４丁目５６番地の８,,23,104,4520802,,,,,,,2021-12-06,1,,,,,キミトソウ,0
1472,5180001149005,新規,0,2021-12-06,2021-12-06,サクラ建工株式会社,,株式会社,愛知県,名古屋市中川区,富川町１丁目２番地,,23,110,4540037,,,,,,,2021-12-06,1,,,,,サクラケンコウ,0
1473,5180001149013,新規,0,2021-12-06,2021-12-06,株式会社いえのーと,,株式会社,愛知県,北名古屋市,熊之庄城ノ屋敷２９９３番地,,23,234,4810006,,,,,,,2021-12-06,1,,,,,イエノート,0
1476,5180005019542,新規,0,2021-12-06,2021-12-06,１２バン協同組合,,その他の設立登記法人,愛知県,大府市,東新町３丁目６８番地,,23,223,4740073,,,,,,,2021-12-06,1,,,,,ジュウニバン,0
1485,5190001028892,新規,0,2021-12-06,2021-12-06,株式会社ＳＲＣ,,株式会社,三重県,津市,榊原町１１０８４番地２,,24,201,5141251,,,,,,,2021-12-06,1,,,,,エスアールシー,0
1492,5200001039475,新規,0,2021-12-06,2021-12-06,株式会社ＰｅＰｅ,,株式会社,岐阜県,土岐市,妻木町５９３番１,,21,212,5095301,,,,,,,2021-12-06,1,,,,,ペペ,0
1494,5210001018718,新規,0,2021-12-06,2021-12-06,株式会社サニーフォレスト,,株式会社,福井県,敦賀市,櫛川９３号３０１番地の５,,18,202,9140821,,,,,,,2021-12-06,1,,,,,サニーフォレスト,0
1498,5220001024574,新規,0,2021-12-06,2021-12-06,株式会社ＨＥＡＲＴＳ,,株式会社,石川県,金沢市,片町１丁目１０番１８号,,17,201,9200981,,,,,,,2021-12-06,1,,,,,ハーツ,0
1502,5220003003163,新規,0,2021-12-06,2021-12-06,合同会社ファクターＦｉｎｅ,,合同会社,石川県,金沢市,窪１丁目８２番２,,17,201,9218151,,,,,,,2021-12-06,1,,,,,ファクターファイン,0
1506,5230003001769,新規,0,2021-12-06,2021-12-06,合同会社ＮＤ,,合同会社,富山県,射水市,中太閤山１７丁目１番地３２,,16,211,9390363,,,,,,,2021-12-06,1,,,,,,0
1509,5240001059008,新規,0,2021-12-06,2021-12-06,株式会社マイクロビルド,,株式会社,広島県,広島市安芸区,船越南３丁目２３番７号,,34,107,7360082,,,,,,,2021-12-06,1,,,,,マイクロビルド,0
1513,5240005015304,新規,0,2021-12-06,2021-12-06,協同組合ＮＥＸＵＳ,,その他の設立登記法人,広島県,福山市,元町６番２号,,34,207,7200063,,,,,,,2021-12-06,1,,,,,ネクサス,0
1514,5250003002955,新規,0,2021-12-06,2021-12-06,合同会社ＳＣＥＮＳＥ,,合同会社,山口県,山口市,七尾台１２番２号,,35,203,7530018,,,,,,,2021-12-06,1,,,,,センス,0
1516,5260003003738,新規,0,2021-12-06,2021-12-06,合同会社Ｍａｐｌｅ,,合同会社,岡山県,玉野市,築港１丁目１番３号産業振興ビル２Ｆ,,33,204,7060002,,,,,,,2021-12-06,1,,,,,メープル,0
1520,5270001008408,新規,0,2021-12-06,2021-12-06,株式会社Ｌｉｎｋ　Ｃｕｓｔｏｍｓ,,株式会社,鳥取県,鳥取市,古海３３０番地２,,31,201,6800921,,,,,,,2021-12-06,1,,,,,リンクカスタムズ,0
1527,5290001095634,新規,0,2021-12-06,2021-12-06,株式会社アイアンワークス,,株式会社,福岡県,大牟田市,大字手鎌２８９番地９,,40,202,8360004,,,,,,,2021-12-06,1,,,,,アイアンワークス,0
1531,5290003011894,新規,0,2021-12-06,2021-12-06,合同会社カレッジ,,合同会社,福岡県,大川市,大字大野島２１８６番地１,,40,212,8310045,,,,,,,2021-12-06,1,,,,,カレッジ,0
1534,5290801028041,新規,0,2021-12-06,2021-12-06,株式会社勲,,株式会社,福岡県,北九州市戸畑区,西大谷２丁目１２番１－３０４号,,40,105,8040032,,,,,,,2021-12-06,1,,,,,イサム,0
1535,5310001017619,新規,0,2021-12-06,2021-12-06,株式会社シムグロー,,株式会社,長崎県,佐世保市,高天町４番８号,,42,202,8570802,,,,,,,2021-12-06,1,,,,,シムグロー,0
1541,5320003003673,新規,0,2021-12-06,2021-12-06,ＪＫフーズ合同会社,,合同会社,大分県,臼杵市,大字臼杵８７－７,,44,206,8750041,,,,,,,2021-12-06,1,,,,,ジェイケイフーズ,0
1542,5340005009378,新規,0,2021-12-06,2021-12-06,一般社団法人Ｍ－ＳＭＩＬＥ,,その他の設立登記法人,鹿児島県,志布志市,志布志町安楽２３２０番地２５,,46,221,8997104,,,,,,,2021-12-06,1,,,,,エムスマイル,0
1550,5370001047899,新規,0,2021-12-06,2021-12-06,株式会社アズ・ワークス,,株式会社,宮城県,宮城郡松島町,北小泉字山神２０番地の６,,04,401,9810202,,,,,,,2021-12-06,1,,,,,アズワークス,0
1551,5370001047908,新規,0,2021-12-06,2021-12-06,株式会社ミンサンテック,,株式会社,宮城県,仙台市若林区,保春院前丁６番地の６,,04,103,9840811,,,,,,,2021-12-06,1,,,,,ミンサンテック,0
1558,5400001015687,新規,0,2021-12-06,2021-12-06,セイエイ株式会社,,株式会社,岩手県,滝沢市,葉の木沢山４９７番地１５,,03,216,0200625,,,,,,,2021-12-06,1,,,,,セイエイ,0
1567,5430001085488,新規,0,2021-12-06,2021-12-06,株式会社ＬＥＡＤ,,株式会社,北海道,札幌市南区,藤野三条７丁目６番１２号,,01,106,0612283,,,,,,,2021-12-06,1,,,,,リード,0
1570,5450001013546,新規,0,2021-12-06,2021-12-06,株式会社小野左官工業,,株式会社,北海道,雨竜郡妹背牛町,字妹背牛３７５番地の１５,,01,433,0790500,,,,,,,2021-12-06,1,,,,,オノサカンコウギョウ,0
1572,5470001018857,新規,0,2021-12-06,2021-12-06,株式会社ビッグスリーカンパニー,,株式会社,香川県,坂出市,寿町２丁目５番１号,,37,203,7620043,,,,,,,2021-12-06,1,,,,,ビッグスリーカンパニー,0
1584,6010001222917,新規,0,2021-12-06,2021-12-06,株式会社Ａｙａ．Ｇｌｏｂａｌ,,株式会社,東京都,中央区,銀座１丁目２２－１１－２ＦＲＥＳＯＮＡＮＣＥ銀座,,13,102,1040061,,,,,,,2021-12-06,1,,,,,アヤグローバル,0
1585,6010001223015,新規,0,2021-12-06,2021-12-06,株式会社九段衛生コンサルティング,,株式会社,東京都,千代田区,飯田橋２丁目１８番１－２１０８号,,13,101,1020072,,,,,,,2021-12-06,1,,,,,クダンエイセイコンサルティング,0
1586,6010001223023,新規,0,2021-12-06,2021-12-06,日本三洋株式会社,,株式会社,東京都,中央区,東日本橋２丁目２８番５号５０８,,13,102,1030004,,,,,,,2021-12-06,1,,,,,ニホンサンヨウ,0
1588,6010003036472,新規,0,2021-12-06,2021-12-06,トレフェリチタ合同会社,,合同会社,東京都,千代田区,五番町１２番地７－２号棟０５５,,13,101,1020076,,,,,,,2021-12-06,1,,,,,トレフェリチタ,0
1604,6010401164214,新規,0,2021-12-06,2021-12-06,東京国際貿易株式会社,,株式会社,東京都,港区,西新橋２丁目９番１号,,13,103,1050003,,,,,,,2021-12-06,1,,,,,トウキョウコクサイボウエキ,0
1605,6010403026577,新規,0,2021-12-06,2021-12-06,合同会社ａｗ－ｗｏｒｋｓ,,合同会社,東京都,港区,南青山２丁目２番１５号,,13,103,1070062,,,,,,,2021-12-06,1,,,,,エーダブリューワークス,0
1606,6010403026643,新規,0,2021-12-06,2021-12-06,マルダセナ合同会社,,合同会社,東京都,港区,南青山２丁目２番１５号ＷｉｎＡｏｙａｍａビルＵＣＦ６階,,13,103,1070062,,,,,,,2021-12-06,1,,,,,マルダセナ,0
1616,6010701041872,新規,0,2021-12-06,2021-12-06,卓越株式会社,,株式会社,東京都,品川区,西五反田２丁目１１番１５－６０３室,,13,109,1410031,,,,,,,2021-12-06,1,,,,,タクエツ,0
1620,6010801032557,新規,0,2021-12-06,2021-12-06,株式会社ＣＯＭＰ,,株式会社,東京都,大田区,千鳥２丁目２６番１２号Ｊ＆Ｖ１９９４－２０２,,13,111,1460083,,,,,,,2021-12-06,1,,,,,コンプ,0
1622,6010901049930,新規,0,2021-12-06,2021-12-06,日本美芝薬妝株式会社,,株式会社,東京都,世田谷区,世田谷１丁目４１番２号,,13,112,1540017,,,,,,,2021-12-06,1,,,,,ニホンビシヤクショウ,0
1626,6011001144366,新規,0,2021-12-06,2021-12-06,株式会社ＴＲＳ企画,,株式会社,東京都,目黒区,中目黒５丁目１０番１２号プレステージ中目黒１０３,,13,110,1530061,,,,,,,2021-12-06,1,,,,,ティーアールエスキカク,0
1627,6011001144374,新規,0,2021-12-06,2021-12-06,株式会社ＭＨｆｉｌｍｓ,,株式会社,東京都,渋谷区,神南１丁目１１番３号ＰＯＲＴＡＬＰＯＩＮＴＳＨＩＢＵＹＡＦＤ－１６,,13,113,1500041,,,,,,,2021-12-06,1,,,,,エムエイチフィルムズ,0
1628,6011001144390,新規,0,2021-12-06,2021-12-06,株式会社ｓｈｉｒｏｉｒｏ,,株式会社,東京都,渋谷区,代々木１丁目２５番５号,,13,113,1510053,,,,,,,2021-12-06,1,,,,,シロイロ,0
1629,6011003013817,新規,0,2021-12-06,2021-12-06,ＴｏｒｕＷａｋａ　Ｇｌｏｂａｌ　Ｃｏｎｓｕｌｔｉｎｇ合同会社,,合同会社,東京都,渋谷区,南平台町１６番２８号Ｄａｉｗａ渋谷スクエア６階,,13,113,1500036,,,,,,,2021-12-06,1,,,,,トオルワカグローバルコンサルティング,0
1632,6011101097101,新規,0,2021-12-06,2021-12-06,株式会社大川不動産,,株式会社,東京都,新宿区,西新宿６丁目２０番７－３４１０号,,13,104,1600023,,,,,,,2021-12-06,1,,,,,オオカワフドウサン,0
1633,6011101097118,新規,0,2021-12-06,2021-12-06,株式会社シラサキ,,株式会社,東京都,新宿区,新宿３丁目１１番６号エクレ新宿Ｂ１０５,,13,104,1600022,,,,,,,2021-12-06,1,,,,,シラサキ,0
1635,6011105010068,新規,0,2021-12-06,2021-12-06,一般社団法人神楽,,その他の設立登記法人,東京都,新宿区,新宿２丁目８番１号新宿セブンビル５０１,,13,104,1600022,,,,,,,2021-12-06,1,,,,,カグラ,0
1646,6011603003457,新規,0,2021-12-06,2021-12-06,合同会社ゴーロ,,合同会社,東京都,練馬区,練馬１丁目３４－１１,,13,120,1760001,,,,,,,2021-12-06,1,,,,,ゴーロ,0
1647,6011703003019,新規,0,2021-12-06,2021-12-06,合同会社ＨＳ,,合同会社,東京都,江戸川区,西葛西７丁目１４番７－２０３号,,13,123,1340088,,,,,,,2021-12-06,1,,,,,エッチエス,0
1654,6012401038620,新規,0,2021-12-06,2021-12-06,株式会社ＥＬ　ＣＡＳＴＥＬＬ,,株式会社,東京都,調布市,布田１丁目４０番地２アクシス調布５０３,,13,208,1820024,,,,,,,2021-12-06,1,,,,,エルカステル,0
1657,6012801021242,新規,0,2021-12-06,2021-12-06,株式会社カズ,,株式会社,東京都,昭島市,福島町３丁目１４番２２号,,13,207,1960031,,,,,,,2021-12-06,1,,,,,カズ,0
1669,6013301048370,新規,0,2021-12-06,2021-12-06,株式会社アラディン,,株式会社,東京都,豊島区,駒込１丁目３４番５号エスパス駒込駅前３０１号,,13,116,1700003,,,,,,,2021-12-06,1,,,,,アラディン,0
1671,6020001144177,新規,0,2021-12-06,2021-12-06,株式会社Ｂｅａｕｔｙ　Ｍｏｏｎ,,株式会社,神奈川県,横浜市瀬谷区,瀬谷５丁目１４番地１ブリッヂビル１Ｆ－Ｂ,,14,114,2460031,,,,,,,2021-12-06,1,,,,,ビューティムーン,0
1672,6020001144185,新規,0,2021-12-06,2021-12-06,株式会社Ｒｅａｌｉｚｅ,,株式会社,神奈川県,横浜市金沢区,並木１丁目１７番７－４０２号,,14,108,2360005,,,,,,,2021-12-06,1,,,,,リアライズ,0
1673,6020001144202,新規,0,2021-12-06,2021-12-06,株式会社マイン工業,,株式会社,神奈川県,川崎市幸区,戸手４丁目１０番１－７０３号フジトピア川崎,,14,132,2120005,,,,,,,2021-12-06,1,,,,,,0
1674,6020001144210,新規,0,2021-12-06,2021-12-06,株式会社クレインプラス,,株式会社,神奈川県,横浜市保土ケ谷区,新桜ケ丘１丁目３５番６号,,14,106,2400036,,,,,,,2021-12-06,1,,,,,クレインプラス,0
1676,6020003020921,新規,0,2021-12-06,2021-12-06,合同会社ｐｉｒｉｋａ．ｃｏｍ,,合同会社,神奈川県,横浜市青葉区,榎が丘５３番地６１,,14,117,2270063,,,,,,,2021-12-06,1,,,,,ピリカドットコム,0
1677,6020005015291,新規,0,2021-12-06,2021-12-06,医療法人青丹会,,その他の設立登記法人,神奈川県,横浜市瀬谷区,阿久和西４丁目２番地８,,14,114,2460025,,,,,,,2021-12-06,1,,,,,セイタンカイ,0
1681,6021001074645,新規,0,2021-12-06,2021-12-06,株式会社大和トリッキング教室,,株式会社,神奈川県,大和市,南林間２丁目１１番４号（杉浦ビル１Ｆ）,,14,213,2420006,,,,,,,2021-12-06,1,,,,,ヤマトトリッキングキョウシツ,0
1682,6021001074678,新規,0,2021-12-06,2021-12-06,Ｖ．Ａ．Ｎ　ｂｅａｕｔｙ株式会社,,株式会社,神奈川県,厚木市,栄町１丁目１１－１８－２,,14,212,2430017,,,,,,,2021-12-06,1,,,,,バンビューティー,0
1683,6021001074686,新規,0,2021-12-06,2021-12-06,株式会社ＣＵＳＴＯＭ,,株式会社,神奈川県,厚木市,上依知１３６９番地４上依知Ｍビル１階東,,14,212,2430801,,,,,,,2021-12-06,1,,,,,カスタム,0
1686,6021003011150,新規,0,2021-12-06,2021-12-06,合同会社タカハナ工業,,合同会社,神奈川県,愛甲郡愛川町,半原３８６２番地の１,,14,401,2430307,,,,,,,2021-12-06,1,,,,,タカハナコウギョウ,0
1696,6030001145629,新規,0,2021-12-06,2021-12-06,株式会社Ａ－Ｒｉｓｅ,,株式会社,埼玉県,本庄市,西富田４５４番地１ルシアンＡ１０１,,11,211,3670035,,,,,,,2021-12-06,1,,,,,エーライズ,0
1697,6030001145703,新規,0,2021-12-06,2021-12-06,桐花警備保障株式会社,,株式会社,埼玉県,北本市,二ツ家１丁目３７４番地,,11,233,3640014,,,,,,,2021-12-06,1,,,,,トウカケイビホショウ,0
1698,6030001145711,新規,0,2021-12-06,2021-12-06,株式会社ＮＯＭＭ,,株式会社,埼玉県,熊谷市,東別府６２３番地,,11,202,3600852,,,,,,,2021-12-06,1,,,,,ノム,0
1699,6030001145736,新規,0,2021-12-06,2021-12-06,株式会社ことり写真,,株式会社,埼玉県,上尾市,大字平方４０６５番地６,,11,219,3620059,,,,,,,2021-12-06,1,,,,,コトリシャシン,0
1707,6030003018428,新規,0,2021-12-06,2021-12-06,飯能ソフトウェア工房合同会社,,合同会社,埼玉県,飯能市,大字川寺４７番地３１,,11,209,3570044,,,,,,,2021-12-06,1,,,,,ハンノウソフトウェアコウボウ,0
1708,6030003018444,新規,0,2021-12-06,2021-12-06,ＰＴＮ合同会社,,合同会社,埼玉県,川口市,幸町２丁目５番６号,,11,203,3320016,,,,,,,2021-12-06,1,,,,,ピーティーエヌ,0
1714,6040001121199,新規,0,2021-12-06,2021-12-06,株式会社ＧＭＣグリル,,株式会社,千葉県,長生郡一宮町,一宮１００７２番地２,,12,421,2994301,,,,,,,2021-12-06,1,,,,,ジーエムシーグリル,0
1715,6040001121232,新規,0,2021-12-06,2021-12-06,株式会社Ａ－ｓｔ,,株式会社,千葉県,袖ケ浦市,奈良輪３３９番地５,,12,229,2990263,,,,,,,2021-12-06,1,,,,,アースト,0
1716,6040001121240,新規,0,2021-12-06,2021-12-06,株式会社フレンドリー,,株式会社,千葉県,市川市,本塩１７番９号,,12,203,2720104,,,,,,,2021-12-06,1,,,,,フレンドリー,0
1717,6040001121273,新規,0,2021-12-06,2021-12-06,グローバル・インダストリー株式会社,,株式会社,千葉県,千葉市美浜区,中瀬１丁目６番ｍＢＡＹＰＯＩＮＴ幕張５Ｆ,,12,106,2610023,,,,,,,2021-12-06,1,,,,,グローバルインダストリー,0
1719,6040005021453,新規,0,2021-12-06,2021-12-06,一般社団法人Ｌ．Ａ．ホールディングス,,その他の設立登記法人,千葉県,船橋市,古作３丁目６番１２号,,12,204,2730037,,,,,,,2021-12-06,1,,,,,エルエーホールディングス,0
1720,6050001050224,新規,0,2021-12-06,2021-12-06,株式会社石田丸冷凍,,株式会社,茨城県,神栖市,波崎６０９５番地３４,,08,232,3140408,,,,,,,2021-12-06,1,,,,,イシダマルレイトウ,0
1721,6050001050249,新規,0,2021-12-06,2021-12-06,ジョイパック株式会社,,株式会社,茨城県,結城市,大字結城作３８３番地１,,08,207,3070046,,,,,,,2021-12-06,1,,,,,,0
1722,6050003006240,新規,0,2021-12-06,2021-12-06,合同会社刑部少輔,,合同会社,茨城県,小美玉市,小岩戸１２５５番地,,08,236,3190107,,,,,,,2021-12-06,1,,,,,ギョウブショウユウ,0
1725,6060003003889,新規,0,2021-12-06,2021-12-06,合同会社トチオン大洗,,合同会社,栃木県,宇都宮市,鶴田町１２４０番地４,,09,201,3200851,,,,,,,2021-12-06,1,,,,,トチオンオオアライ,0
1733,6070001038713,新規,0,2021-12-06,2021-12-06,株式会社Ｃｌａｒｉｓ,,株式会社,群馬県,前橋市,千代田町５丁目１１番１号サン観光ビル１階,,10,201,3710022,,,,,,,2021-12-06,1,,,,,クラリス,0
1736,6080101022954,新規,0,2021-12-06,2021-12-06,株式会社Ｒｏｏｍｏｆ,,株式会社,静岡県,三島市,青木１４５番地の４,,22,206,4110811,,,,,,,2021-12-06,1,,,,,ルーモフ,0
1737,6080101022970,新規,0,2021-12-06,2021-12-06,株式会社ＹＡＭＡＤＡ５６１,,株式会社,静岡県,三島市,徳倉３丁目１９番１３号,,22,206,4110044,,,,,,,2021-12-06,1,,,,,ヤマダゴーロクイチ,0
1738,6080103002475,新規,0,2021-12-06,2021-12-06,つぐみ合同会社,,合同会社,静岡県,三島市,松本３２１‐８,,22,206,4110822,,,,,,,2021-12-06,1,,,,,ツグミ,0
1739,6080401025509,新規,0,2021-12-06,2021-12-06,株式会社エスジー,,株式会社,静岡県,浜松市東区,大瀬町２３８１番地の２,,22,132,4313113,,,,,,,2021-12-06,1,,,,,エスジー,0
1742,6100001034865,新規,0,2021-12-06,2021-12-06,ＧＲＯＷＴＨＩＣＫ．ＤＥＰＴ株式会社,,株式会社,長野県,諏訪郡富士見町,落合９９８４番地１１６,,20,362,3990214,,,,,,,2021-12-06,1,,,,,グロウシックデプト,0
1743,6100001034873,新規,0,2021-12-06,2021-12-06,株式会社ａｗａｉ,,株式会社,長野県,長野市,戸隠豊岡２３７４番地１,,20,201,3814102,,,,,,,2021-12-06,1,,,,,アワイ,0
1746,6100003006301,新規,0,2021-12-06,2021-12-06,合同会社エージェント,,合同会社,長野県,上田市,住吉６２番地２５,,20,203,3860002,,,,,,,2021-12-06,1,,,,,エージェント,0
1748,6110001036241,新規,0,2021-12-06,2021-12-06,ファインペット株式会社,,株式会社,新潟県,新潟市秋葉区,吉岡町３番４号,,15,105,9560837,,,,,,,2021-12-06,1,,,,,ファインペット,0
1762,6120001242227,新規,0,2021-12-06,2021-12-06,エムデザインアソシエイト株式会社,,株式会社,大阪府,枚方市,津田山手２丁目１０番１号,,27,210,5730128,,,,,,,2021-12-06,1,,,,,エムデザインアソシエイト,0
1763,6120001242342,新規,0,2021-12-06,2021-12-06,株式会社Ｄｅｇｒｏ,,株式会社,大阪府,大阪市平野区,喜連３丁目２番２０号ビダ・セグランサ２０１,,27,126,5470027,,,,,,,2021-12-06,1,,,,,ディグロ,0
1765,6120003020663,新規,0,2021-12-06,2021-12-06,合同会社和愛,,合同会社,大阪府,大阪市福島区,鷺洲２丁目６－１０－２０５,,27,103,5530002,,,,,,,2021-12-06,1,,,,,ワアイ,0
1767,6120101064752,新規,0,2021-12-06,2021-12-06,株式会社ＮＥＸＵＳ,,株式会社,大阪府,岸和田市,箕土路町２丁目８番４号,,27,202,5960801,,,,,,,2021-12-06,1,,,,,ネクサス,0
1779,6122001035412,新規,0,2021-12-06,2021-12-06,株式会社ケイテック,,株式会社,大阪府,東大阪市,本庄中２丁目３－３３,,27,227,5780957,,,,,,,2021-12-06,1,,,,,ケイテック,0
1783,6130001070643,新規,0,2021-12-06,2021-12-06,株式会社京都ダイケンビルサービス,,株式会社,京都府,京都市下京区,烏丸通仏光寺下る大政所町６８０番地１,,26,106,6008413,,,,,,,2021-12-06,1,,,,,キョウトダイケンビルサービス,0
1787,6130003007619,新規,0,2021-12-06,2021-12-06,合同会社ＭＥＴＥＯＲ　ＰＬＵＳ,,合同会社,京都府,京都市伏見区,桃山町山ノ下５３番地１３,,26,109,6128002,,,,,,,2021-12-06,1,,,,,ミーティアプラス,0
1792,6150001025141,新規,0,2021-12-06,2021-12-06,株式会社柳原電気,,株式会社,奈良県,北葛城郡河合町,久美ケ丘２丁目１番地７,,29,427,6360063,,,,,,,2021-12-06,1,,,,,ヤナギハラデンキ,0
1798,6170001016898,新規,0,2021-12-06,2021-12-06,株式会社ＫＹＯＮ　ｃｏｍｐａｎｙ,,株式会社,和歌山県,海南市,次ケ谷２４６番地１,,30,202,6401166,,,,,,,2021-12-06,1,,,,,キョンカンパニー,0
1800,6170003001667,新規,0,2021-12-06,2021-12-06,合同会社ＴｈｅｎＴｈｅ,,合同会社,和歌山県,和歌山市,中之島１８０９,,30,201,6408392,,,,,,,2021-12-06,1,,,,,ゼンザ,0
1809,6180001148963,新規,0,2021-12-06,2021-12-06,株式会社名草運送,,株式会社,愛知県,犬山市,字東北野２８７番地６,,23,215,4840868,,,,,,,2021-12-06,1,,,,,メイソウウンソウ,0
1810,6180001148971,新規,0,2021-12-06,2021-12-06,株式会社ＤＲ大橋商会,,株式会社,愛知県,名古屋市南区,元塩町４丁目１３番地,,23,112,4570823,,,,,,,2021-12-06,1,,,,,ディーアールオオハシショウカイ,0
1811,6180001148988,新規,0,2021-12-06,2021-12-06,株式会社田村工業,,株式会社,愛知県,大府市,横根町寺田５６番地の２,,23,223,4740011,,,,,,,2021-12-06,1,,,,,タムラコウギョウ,0
1812,6180001148996,新規,0,2021-12-06,2021-12-06,株式会社エネロ,,株式会社,愛知県,一宮市,時之島字日吉浦２７番地,,23,203,4910002,,,,,,,2021-12-06,1,,,,,エネロ,0
1813,6180001149004,新規,0,2021-12-06,2021-12-06,株式会社ユウケン,,株式会社,愛知県,名古屋市名東区,香流１丁目１５１１番地,,23,115,4650005,,,,,,,2021-12-06,1,,,,,ユウケン,0
1819,6180003023264,新規,0,2021-12-06,2021-12-06,合同会社ＲＯＹＧＢＩＶ,,合同会社,愛知県,瀬戸市,神川町９番地の８,,23,204,4890933,,,,,,,2021-12-06,1,,,,,ロイジービヴ,0
1823,6190001028900,新規,0,2021-12-06,2021-12-06,株式会社ｓｅｎｓｅ　ｏｆ　ｗｏｎｄｅｒ,,株式会社,三重県,四日市市,まきの木台２丁目１４１番地,,24,202,5121306,,,,,,,2021-12-06,1,,,,,センスオブワンダー,0
1824,6190001028909,新規,0,2021-12-06,2021-12-06,株式会社こてふ,,株式会社,三重県,松阪市,平成町８２番地１,,24,204,5150824,,,,,,,2021-12-06,1,,,,,コテフ,0
1828,6200005013285,新規,0,2021-12-06,2021-12-06,特定非営利活動法人Ｔｗｉｎｋｌｅ,,その他の設立登記法人,岐阜県,美濃加茂市,蜂屋町矢田２０番地１ハイツ矢田Ｃ２－Ｄ,,21,211,5050009,,,,,,,2021-12-06,1,,,,,トゥインクル,0
1835,6230001019119,新規,0,2021-12-06,2021-12-06,株式会社Ｔｗｅｌｖｅ,,株式会社,富山県,富山市,八尾町井田４９３６番地４,,16,201,9392306,,,,,,,2021-12-06,1,,,,,トゥエルブ,0
1841,6240001058990,新規,0,2021-12-06,2021-12-06,広島ヘイワ株式会社,,株式会社,広島県,広島市佐伯区,石内上１丁目７番１号,,34,108,7315107,,,,,,,2021-12-06,1,,,,,ヒロシマヘイワ,0
1842,6240001059031,新規,0,2021-12-06,2021-12-06,株式会社アリア,,株式会社,広島県,広島市中区,十日市町２丁目８番５－３０５号,,34,101,7300805,,,,,,,2021-12-06,1,,,,,アリア,0
1846,6240005015303,新規,0,2021-12-06,2021-12-06,一般社団法人アジア・パシフィック・レジデンシャル不動産協会,,その他の設立登記法人,広島県,広島市中区,幟町５番３号,,34,101,7300016,,,,,,,2021-12-06,1,,,,,アジアパシフィックレジデンシャルフドウサンキョウカイ,0
1853,6260003003737,新規,0,2021-12-06,2021-12-06,ふじさわ合同会社,,合同会社,岡山県,岡山市南区,万倍１２８番地３,,33,104,7000955,,,,,,,2021-12-06,1,,,,,,0
1861,6290001095609,新規,0,2021-12-06,2021-12-06,株式会社ジチタイワークス,,株式会社,福岡県,福岡市中央区,薬院１丁目１４番５号ＭＧ薬院ビル,,40,133,8100022,,,,,,,2021-12-06,1,,,,,ジチタイワークス,0
1862,6290001095617,新規,0,2021-12-06,2021-12-06,株式会社ＥＴＯＡ,,株式会社,福岡県,福岡市中央区,天神５丁目１番１５－８０６号,,40,133,8100001,,,,,,,2021-12-06,1,,,,,エトア,0
1863,6290001095625,新規,0,2021-12-06,2021-12-06,株式会社Ｍｅｔａｌ　Ｆａｒｍ,,株式会社,福岡県,糸島市,二丈深江１９３８番地５,,40,230,8191601,,,,,,,2021-12-06,1,,,,,メタルファーム,0
1866,6290003011885,新規,0,2021-12-06,2021-12-06,合同会社優基,,合同会社,福岡県,久留米市,北野町赤司字上町小路１７８８番地３,,40,203,8301127,,,,,,,2021-12-06,1,,,,,ユウキ,0
1872,6290803003999,新規,0,2021-12-06,2021-12-06,合同会社４Ｓｔａｇｅｓ,,合同会社,福岡県,北九州市八幡西区,森下町９番１号,,40,109,8060046,,,,,,,2021-12-06,1,,,,,フォーステージズ,0
1877,6300003001760,新規,0,2021-12-06,2021-12-06,袈裟丸マリン合同会社,,合同会社,佐賀県,唐津市,鎮西町串４１５番地１,,41,202,8470403,,,,,,,2021-12-06,1,,,,,ケサマルマリン,0
1879,6320003003672,新規,0,2021-12-06,2021-12-06,合同会社豊旅,,合同会社,大分県,豊後大野市,三重町市場６０６番地３,,44,212,8797131,,,,,,,2021-12-06,1,,,,,トヨタビ,0
1886,6340001024314,新規,0,2021-12-06,2021-12-06,株式会社エスエヌジー,,株式会社,鹿児島県,奄美市,名瀬鳩浜町９３番地,,46,222,8940004,,,,,,,2021-12-06,1,,,,,エスエヌジー,0
1890,6350001017449,新規,0,2021-12-06,2021-12-06,株式会社アングル,,株式会社,宮崎県,宮崎市,吉村町大町甲１９１９番地１３,,45,201,8800841,,,,,,,2021-12-06,1,,,,,アングル,0
1892,6360001029708,新規,0,2021-12-06,2021-12-06,株式会社Ｓｔｙｌｅ　ｂｏｒｎ,,株式会社,沖縄県,中頭郡北谷町,字宮城１番地８０,,47,326,9040113,,,,,,,2021-12-06,1,,,,,スタイルボーン,0
1893,6360001029716,新規,0,2021-12-06,2021-12-06,インターパシフィックトレード株式会社,,株式会社,沖縄県,宜野湾市,字大謝名２１５番地レキオススクエアビル２－Ｄ,,47,205,9012225,,,,,,,2021-12-06,1,,,,,インターパシフィックトレード,0
1894,6370001047898,新規,0,2021-12-06,2021-12-06,株式会社ａｎｔ,,株式会社,宮城県,仙台市青葉区,国分町２丁目５番１号ゴロク参番館ビルＢ１Ｆ,,04,101,9800803,,,,,,,2021-12-06,1,,,,,アント,0
1895,6370001047907,新規,0,2021-12-06,2021-12-06,株式会社ファーストライズ,,株式会社,宮城県,仙台市宮城野区,苦竹１丁目１－７,,04,102,9830036,,,,,,,2021-12-06,1,,,,,ファーストライズ,0
1905,6390005008928,新規,0,2021-12-06,2021-12-06,税理士法人プロゲート,,その他の設立登記法人,山形県,新庄市,鉄砲町９番１７号,,06,205,9960035,,,,,,,2021-12-06,1,,,,,プロゲート,0
1908,6410001013029,新規,0,2021-12-06,2021-12-06,株式会社Ｓａｎｅｉ　Ｈｏｌｄｉｎｇｓ,,株式会社,秋田県,大館市,字観音堂１９７番地,,05,204,0170042,,,,,,,2021-12-06,1,,,,,サンエイホールディングス,0
1913,6420003002417,新規,0,2021-12-06,2021-12-06,合同会社虹彩,,合同会社,青森県,八戸市,売市３丁目７番２５号ユートピア大西Ａ－２０１,,02,203,0310073,,,,,,,2021-12-06,1,,,,,ニジイロ,0
1915,6430001085487,新規,0,2021-12-06,2021-12-06,杉山建材株式会社,,株式会社,北海道,滝川市,有明町２丁目７番４３号,,01,225,0730045,,,,,,,2021-12-06,1,,,,,スギヤマケンザイ,0
1916,6430001085495,新規,0,2021-12-06,2021-12-06,株式会社日亮工業,,株式会社,北海道,苫小牧市,宮の森町１丁目５番１４号,,01,213,0530844,,,,,,,2021-12-06,1,,,,,ニチリョウコウギョウ,0
1917,6430001085512,新規,0,2021-12-06,2021-12-06,株式会社ｄｏｏｒｎｏｔ,,株式会社,北海道,札幌市中央区,南六条西４丁目５番地３３,,01,101,0640806,,,,,,,2021-12-06,1,,,,,ドアノット,0
1927,6700150106074,新規,0,2021-12-06,2021-12-06,アイマークス　Ｃｏ．，Ｌｔｄ．,,外国会社等,三重県,度会郡南伊勢町,木谷６１３番地２８,,24,472,5160106,アメリカ合衆国ハワイ州ホノルル市マカロア通り１６７０番２０４－３２５号,,,,,,2021-12-06,1,,,,,アイマークスコーポリミテツド,0
1939,7010001222965,新規,0,2021-12-06,2021-12-06,きまもり株式会社,,株式会社,東京都,千代田区,九段南１丁目５番６号りそな九段ビル５階ＫＳフロア,,13,101,1020074,,,,,,,2021-12-06,1,,,,,キマモリ,0
1940,7010001223022,新規,0,2021-12-06,2021-12-06,株式会社ＦＩＮＤｓ,,株式会社,東京都,中央区,日本橋３丁目２番１４号,,13,102,1030027,,,,,,,2021-12-06,1,,,,,ファインズ,0
1941,7010003036447,新規,0,2021-12-06,2021-12-06,合同会社仁庵,,合同会社,東京都,千代田区,一番町１３番地６,,13,101,1020082,,,,,,,2021-12-06,1,,,,,ジンアン,0
1943,7010005034283,新規,0,2021-12-06,2021-12-06,税理士法人トライデント,,その他の設立登記法人,東京都,千代田区,神田小川町３丁目６番地,,13,101,1010052,,,,,,,2021-12-06,1,,,,,トライデント,0
1944,7010005034291,新規,0,2021-12-06,2021-12-06,福崎ロジ一般社団法人,,その他の設立登記法人,東京都,中央区,銀座１丁目６番１１号アースタックス税理士法人内,,13,102,1040061,,,,,,,2021-12-06,1,,,,,フクサキロジ,0
1953,7010401164097,新規,0,2021-12-06,2021-12-06,株式会社ＣＴＣ,,株式会社,東京都,港区,南青山２丁目２番１５－９４２号,,13,103,1070062,,,,,,,2021-12-06,1,,,,,シーティーシー,0
1954,7010401164188,新規,0,2021-12-06,2021-12-06,株式会社ＡＢＣＤ,,株式会社,東京都,港区,南青山２丁目２－１５－９４２,,13,103,1070062,,,,,,,2021-12-06,1,,,,,エービーシーディー,0
1955,7010401164196,新規,0,2021-12-06,2021-12-06,株式会社ＷＨＩＴＥ,,株式会社,東京都,港区,東麻布１丁目１３－２ｈｅｓｔｉｎｈｉｇａｓｈｉａｚａｂｕ４０２,,13,103,1060044,,,,,,,2021-12-06,1,,,,,ホワイト,0
1956,7010401164238,新規,0,2021-12-06,2021-12-06,リモートロボティクス株式会社,,株式会社,東京都,港区,港南１丁目７番１号,,13,103,1080075,,,,,,,2021-12-06,1,,,,,リモートロボティクス,0
1958,7010403026642,新規,0,2021-12-06,2021-12-06,合同会社デルタワークス,,合同会社,東京都,港区,芝１丁目１５番１０号８階,,13,103,1050014,,,,,,,2021-12-06,1,,,,,デルタワークス,0
1959,7010403026659,新規,0,2021-12-06,2021-12-06,ＮＳＳＫ－ＶＶＶ合同会社,,合同会社,東京都,港区,愛宕２丁目５番１号愛宕グリーンヒルズＭＯＲＩタワー,,13,103,1050002,,,,,,,2021-12-06,1,,,,,エヌエスエスケーブイブイブイ,0
1962,7010501048159,新規,0,2021-12-06,2021-12-06,株式会社大自然,,株式会社,東京都,台東区,北上野２丁目１番１４号,,13,106,1100014,,,,,,,2021-12-06,1,,,,,ダイシゼン,0
1963,7010501048167,新規,0,2021-12-06,2021-12-06,株式会社ＭＡ,,株式会社,東京都,台東区,台東２丁目１３－１０ｌｕｘｅｎａａｋｉｈａｂａｒａ４０５,,13,106,1100016,,,,,,,2021-12-06,1,,,,,エムエー,0
1970,7010703006022,新規,0,2021-12-06,2021-12-06,合同会社バベル,,合同会社,東京都,品川区,西五反田１丁目２６番４号,,13,109,1410031,,,,,,,2021-12-06,1,,,,,バベル,0
1973,7010901049913,新規,0,2021-12-06,2021-12-06,ＺＩＴ株式会社,,株式会社,東京都,世田谷区,上馬２丁目１２番８号ポリフォニー１０１,,13,112,1540011,,,,,,,2021-12-06,1,,,,,ジット,0
1974,7010901049938,新規,0,2021-12-06,2021-12-06,株式会社ｅｑｕａｌ　Ｄ,,株式会社,東京都,世田谷区,祖師谷３丁目３３－３,,13,112,1570072,,,,,,,2021-12-06,1,,,,,イコールディー,0
1979,7011001144159,新規,0,2021-12-06,2021-12-06,株式会社ＭＡＢ,,株式会社,東京都,渋谷区,円山町５－５Ｎａｖｉ渋谷Ｖ３階,,13,113,1500044,,,,,,,2021-12-06,1,,,,,マブ,0
1980,7011001144357,新規,0,2021-12-06,2021-12-06,株式会社ＣＡ　Ｆｕｔｕｒｅ　Ｅｖｅｎｔ,,株式会社,東京都,渋谷区,渋谷２丁目２４番１２号,,13,113,1500002,,,,,,,2021-12-06,1,,,,,シーエーフューチャーイベント,0
1981,7011001144381,新規,0,2021-12-06,2021-12-06,株式会社ｆｌｉｎｔ,,株式会社,東京都,渋谷区,代々木２丁目２３－１ニューステイトメナー１３３９号室,,13,113,1510053,,,,,,,2021-12-06,1,,,,,フリント,0
1983,7011003013808,新規,0,2021-12-06,2021-12-06,合同会社ＫＯＮＮＥＫＴ　ＡＳＩＡ,,合同会社,東京都,渋谷区,松濤１丁目１７番１７号,,13,113,1500046,,,,,,,2021-12-06,1,,,,,コネクトアジア,0
1998,7011501027532,新規,0,2021-12-06,2021-12-06,東京マシン株式会社,,株式会社,東京都,北区,滝野川３丁目８０番１６号,,13,117,1140023,,,,,,,2021-12-06,1,,,,,トウキョウマシン,0
1999,7011501027540,新規,0,2021-12-06,2021-12-06,株式会社ｇｒｅｐｗｏｒｋｓ,,株式会社,東京都,北区,王子５丁目１番１－１２０３号,,13,117,1140002,,,,,,,2021-12-06,1,,,,,グレップワークス,0
2006,7011601025576,新規,0,2021-12-06,2021-12-06,株式会社明日葉,,株式会社,東京都,練馬区,練馬１丁目２５番７－１４０３号,,13,120,1760001,,,,,,,2021-12-06,1,,,,,アシタバ,0
2007,7011601025584,新規,0,2021-12-06,2021-12-06,株式会社ランコネクト,,株式会社,東京都,練馬区,関町南３丁目５番６号武蔵関アパート２号棟２０６号室,,13,120,1770053,,,,,,,2021-12-06,1,,,,,ランコネクト,0
2014,7011801040029,新規,0,2021-12-06,2021-12-06,株式会社Ｎ＆Ｙ　Ｌｏｇｉｓｔｉｃｓ,,株式会社,東京都,足立区,千住河原町２１番４号（株）和光建装３０１,,13,121,1200037,,,,,,,2021-12-06,1,,,,,エヌワイロジスティクス,0
2016,7012301012781,新規,0,2021-12-06,2021-12-06,株式会社ヨシオカワークス,,株式会社,東京都,町田市,金井１丁目３番５号,,13,209,1950072,,,,,,,2021-12-06,1,,,,,ヨシオカワークス,0
2018,7012401038561,新規,0,2021-12-06,2021-12-06,株式会社ｗｈｏｌｅｎｅｓｓ,,株式会社,東京都,多摩市,落合５丁目３番地２－１０２,,13,224,2060033,,,,,,,2021-12-06,1,,,,,ホールネス,0
2019,7012401038611,新規,0,2021-12-06,2021-12-06,株式会社エフエス,,株式会社,東京都,府中市,宮町１丁目４０番地,,13,206,1830023,,,,,,,2021-12-06,1,,,,,エフエス,0
2021,7012801021241,新規,0,2021-12-06,2021-12-06,株式会社ホライズン,,株式会社,東京都,立川市,曙町１丁目１５番３号曙ＹＳビル４階,00125047,13,202,1900012,,,,,,,2021-12-06,1,,,,,ホライズン,0
2025,7013303005939,新規,0,2021-12-06,2021-12-06,合同会社Ｒｕｂｙ,,合同会社,東京都,豊島区,高田３丁目６－１０三信マンション３０９,,13,116,1710033,,,,,,,2021-12-06,1,,,,,ルビー,0
2033,7020001144176,新規,0,2021-12-06,2021-12-06,有泉金属株式会社,,株式会社,神奈川県,横浜市保土ケ谷区,法泉２丁目２５番５号,,14,106,2400032,,,,,,,2021-12-06,1,,,,,アリイズミキンゾク,0
2034,7020001144184,新規,0,2021-12-06,2021-12-06,アクスオークション株式会社,,株式会社,神奈川県,横浜市鶴見区,下末吉４丁目２０番２１号１Ｆ,,14,101,2300012,,,,,,,2021-12-06,1,,,,,アクスオークション,0
2038,7020003020912,新規,0,2021-12-06,2021-12-06,東京ウォーキング合同会社,,合同会社,神奈川県,横浜市都筑区,南山田２丁目２９番１３号,,14,118,2240029,,,,,,,2021-12-06,1,,,,,トウキョウウォーキング,0
2039,7020003020929,新規,0,2021-12-06,2021-12-06,Ｎアシスト合同会社,,合同会社,神奈川県,横浜市緑区,いぶき野３３番地５,,14,113,2260028,,,,,,,2021-12-06,1,,,,,エヌアシスト,0
2046,7021001074660,新規,0,2021-12-06,2021-12-06,株式会社Ｓｋｙ－Ｈｉｇｈ,,株式会社,神奈川県,横須賀市,公郷町３丁目６９番地３パシフィックパレス北久里浜６０４,,14,201,2380022,,,,,,,2021-12-06,1,,,,,スカイハイ,0
2047,7021001074669,新規,0,2021-12-06,2021-12-06,株式会社フォーユー,,株式会社,神奈川県,鎌倉市,植木２２５番地２,,14,204,2470073,,,,,,,2021-12-06,1,,,,,フォーユー,0
2060,7030001145652,新規,0,2021-12-06,2021-12-06,ｍｅ・ｄｉ・ｕｍ株式会社,,株式会社,埼玉県,三郷市,高州１丁目７２番地２－Ａ,,11,237,3410037,,,,,,,2021-12-06,1,,,,,ミディアム,0
2061,7030001145685,新規,0,2021-12-06,2021-12-06,株式会社ＮＯＡ,,株式会社,埼玉県,越谷市,レイクタウン１丁目３番地２レイクピア１０３,,11,222,3430828,,,,,,,2021-12-06,1,,,,,ノア,0
2062,7030001145693,新規,0,2021-12-06,2021-12-06,株式会社吉田建窓,00125044,株式会社,埼玉県,行田市,大字小見１３１２番地４,,11,206,3610007,,,,,,,2021-12-06,1,,,,,ヨシダケンソウ,0
2063,7030001145702,新規,0,2021-12-06,2021-12-06,株式会社Ｙ’ｓ　Ｇａｒａｇｅ,,株式会社,埼玉県,さいたま市西区,大字二ツ宮４０６番地７,,11,101,3310065,,,,,,,2021-12-06,1,,,,,ワイズガレージ,0
2064,7030001145719,新規,0,2021-12-06,2021-12-06,株式会社ＨＡＬ,,株式会社,埼玉県,新座市,東北２丁目３９番８号永代ビル４Ｆ,,11,230,3520001,,,,,,,2021-12-06,1,,,,,ハル,0
2069,7030003018427,新規,0,2021-12-06,2021-12-06,合同会社サートステージ,,合同会社,埼玉県,狭山市,広瀬２丁目３３番２１号,,11,215,3501319,,,,,,,2021-12-06,1,,,,,サートステージ,0
2078,7040001121231,新規,0,2021-12-06,2021-12-06,トラストエンジニアリング株式会社,,株式会社,千葉県,山武郡横芝光町,木戸１０４８１番地３３,,12,410,2891726,,,,,,,2021-12-06,1,,,,,トラストエンジニアリング,0
2079,7040001121248,新規,0,2021-12-06,2021-12-06,アイデアプラス株式会社,,株式会社,千葉県,習志野市,津田沼１丁目５番５－１００１号,,12,216,2750016,,,,,,,2021-12-06,1,,,,,アイデアプラス,0
2080,7040001121272,新規,0,2021-12-06,2021-12-06,ＪＳ株式会社,,株式会社,千葉県,千葉市美浜区,高洲１丁目１６番１３－２０２号,,12,106,2610004,,,,,,,2021-12-06,1,,,,,ジェイエス,0
2082,7040003019044,新規,0,2021-12-06,2021-12-06,ＥＶＥＲ　ＰＬＵＳ合同会社,,合同会社,千葉県,成田市,土屋２９６番地１－１０２,,12,211,2860021,,,,,,,2021-12-06,1,,,,,エバープラス,0
2084,7050001050248,新規,0,2021-12-06,2021-12-06,株式会社ＩＴＯ工業,,株式会社,茨城県,神栖市,大野原２丁目２７番２号,,08,232,3140144,,,,,,,2021-12-06,1,,,,,イトウコウギョウ,0
2085,7050001050272,新規,0,2021-12-06,2021-12-06,株式会社Ｓｕｍｉｋａ,,株式会社,茨城県,結城郡八千代町,大字菅谷１２７３番地２,,08,521,3003572,,,,,,,2021-12-06,1,,,,,スミカ,0
2091,7060001034340,新規,0,2021-12-06,2021-12-06,株式会社こやさん,,株式会社,栃木県,那須塩原市,青木１００５番地,,09,213,3250103,,,,,,,2021-12-06,1,,,,,コヤサン,0
2093,7060003003888,新規,0,2021-12-06,2021-12-06,合同会社Ｌｉｎｏライフデザイン,,合同会社,栃木県,宇都宮市,雀の宮４丁目１６番３号,,09,201,3210132,,,,,,,2021-12-06,1,,,,,リノライフデザイン,0
2097,7070003004316,新規,0,2021-12-06,2021-12-06,合同会社まごころ,,合同会社,群馬県,伊勢崎市,間野谷町９０８番地,,10,204,3792201,,,,,,,2021-12-06,1,,,,,マゴコロ,0
2102,7080001024620,新規,0,2021-12-06,2021-12-06,株式会社Ｓ．Ｓ．Ｓｔｙｌｅ,,株式会社,静岡県,静岡市葵区,末広町１２６番地の３５,,22,101,4200004,,,,,,,2021-12-06,1,,,,,エスエススタイル,0
2103,7080005007415,新規,0,2021-12-06,2021-12-06,税理士法人杉井会計事務所,,その他の設立登記法人,静岡県,焼津市,三右衛門新田４２１番地の１,,22,212,4250046,,,,,,,2021-12-06,1,,,,,スギイカイケイジムショ,0
2105,7080101022953,新規,0,2021-12-06,2021-12-06,株式会社ＴＥＮ－ＰＯ,,株式会社,静岡県,賀茂郡南伊豆町,妻良１２２３番地,,22,304,4150533,,,,,,,2021-12-06,1,,,,,テンポー,0
2110,7080401025508,新規,0,2021-12-06,2021-12-06,株式会社エストペクト,,株式会社,静岡県,浜松市中区,肴町３２２番地の２０浜松松竹ビル７階７０８号室,,22,131,4300932,,,,,,,2021-12-06,1,,,,,エストペクト,0
2116,7100003006309,新規,0,2021-12-06,2021-12-06,合同会社Ｓｈｉｚｅｎ　Ｃｏｌｌｅｃｔｉｖｅ,,合同会社,長野県,下高井郡野沢温泉村,大字豊郷８８５８番地,,20,563,3892502,,,,,,,2021-12-06,1,,,,,シゼンコレクティブ,0
2118,7110001036240,新規,0,2021-12-06,2021-12-06,株式会社ＥＭＭＡ,,株式会社,新潟県,新潟市中央区,親松６５番地３５,,15,103,9500952,,,,,,,2021-12-06,1,,,,,イーエムエムエー,0
2127,7120001242250,新規,0,2021-12-06,2021-12-06,株式会社Ｌａ・Ｃｕｒａ,,株式会社,大阪府,大阪市阿倍野区,晴明通９番３５号,,27,119,5450032,,,,,,,2021-12-06,1,,,,,ラクーラ,0
2130,7120003020571,新規,0,2021-12-06,2021-12-06,合同会社ポゴナ,,合同会社,大阪府,大阪市中央区,糸屋町１丁目１－６エステムプラザ大手前エヴァース８０８,,27,128,5400022,,,,,,,2021-12-06,1,,,,,ポゴナ,0
2135,7120101064719,新規,0,2021-12-06,2021-12-06,株式会社ＮＥＷＧＡＴＥ,,株式会社,大阪府,堺市中区,深井畑山町２３６番地８－２０３号,,27,142,5998248,,,,,,,2021-12-06,1,,,,,ニューゲート,0
2136,7120101064735,新規,0,2021-12-06,2021-12-06,株式会社ＢＧｒ,,株式会社,大阪府,堺市北区,百舌鳥陵南町２丁６６９番地１,,27,146,5918034,,,,,,,2021-12-06,1,,,,,ビージーアール,0
2141,7120103004466,新規,0,2021-12-06,2021-12-06,合同会社ＪＩＮＺ,,合同会社,大阪府,羽曳野市,野々上１丁目１１番１５号,,27,222,5830871,,,,,,,2021-12-06,1,,,,,ジンズ,0
2148,7130001070626,新規,0,2021-12-06,2021-12-06,ＫＯＫＯＫＡＲＡ株式会社,,株式会社,京都府,京都市右京区,西京極堤下町３番地１イニシア桂大橋６１６号,,26,108,6150835,,,,,,,2021-12-06,1,,,,,ココカラ,0
2149,7130001070642,新規,0,2021-12-06,2021-12-06,株式会社京都革業,,株式会社,京都府,京都市左京区,下鴨森本町３番地フォーレフジタ１階Ａ号室,,26,103,6060805,,,,,,,2021-12-06,1,,,,,キョウトカワナリ,0
2150,7130001070650,新規,0,2021-12-06,2021-12-06,香野商会株式会社,,株式会社,京都府,京都市南区,久世東土川町３３０番地２５,,26,107,6018204,,,,,,,2021-12-06,1,,,,,コウノショウカイ,0
2156,7130005016328,新規,0,2021-12-06,2021-12-06,一般社団法人ＡＣ　Ｋｙоｔо,,その他の設立登記法人,京都府,京都市東山区,三条大橋東三町目６番地,,26,105,6050000,,,,,,,2021-12-06,1,,,,,エーシーキョウト,0
2159,7140001124067,新規,0,2021-12-06,2021-12-06,イーファス株式会社,,株式会社,兵庫県,尼崎市,塚口本町３丁目２２番６号,,28,202,6610001,,,,,,,2021-12-06,1,,,,,イーファス,0
2161,7140003017054,新規,0,2021-12-06,2021-12-06,合同会社Ｄｏｗｎ　ｆｉｒｓｔ,,合同会社,兵庫県,明石市,大久保町谷八木１４４２番地の２,,28,203,6740062,,,,,,,2021-12-06,1,,,,,ダウンファースト,0
2167,7170001016889,新規,0,2021-12-06,2021-12-06,株式会社菅野建設,,株式会社,和歌山県,和歌山市,福島８９８番地１,,30,201,6408401,,,,,,,2021-12-06,1,,,,,スガノケンセツ,0
2170,7170003001666,新規,0,2021-12-06,2021-12-06,合同会社ドレッセ,,合同会社,和歌山県,新宮市,緑ケ丘１丁目２番地４号メゾンドイ１階,,30,207,6470043,,,,,,,2021-12-06,1,,,,,ドレッセ,0
2180,7180001148979,新規,0,2021-12-06,2021-12-06,株式会社ＨＩＫＡＲＩ,,株式会社,愛知県,小牧市,大字小牧原新田１８２１番地１－１０２,,23,219,4850012,,,,,,,2021-12-06,1,,,,,ヒカリ,0
2181,7180001149011,新規,0,2021-12-06,2021-12-06,株式会社スロウス,,株式会社,愛知県,名古屋市熱田区,千年１丁目５番２０号,,23,109,4560054,,,,,,,2021-12-06,1,,,,,スロウス,0
2182,7180001149028,新規,0,2021-12-06,2021-12-06,株式会社加藤工作所,,株式会社,愛知県,春日井市,関田町３丁目９０番地,,23,206,4860855,,,,,,,2021-12-06,1,,,,,カトウコウサクショ,0
2185,7180003023247,新規,0,2021-12-06,2021-12-06,合同会社オフィススターサファイア,,合同会社,愛知県,北名古屋市,熊之庄石原１３３－２,,23,234,4810006,,,,,,,2021-12-06,1,,,,,オフィススターサファイア,0
2186,7180003023255,新規,0,2021-12-06,2021-12-06,ふきデンタルサポート合同会社,,合同会社,愛知県,知多郡美浜町,大字野間字若松１３８番地,,23,446,4703235,,,,,,,2021-12-06,1,,,,,フキデンタルサポート,0
2187,7180003023263,新規,0,2021-12-06,2021-12-06,合同会社Ｏｒｎｉｓ,,合同会社,愛知県,名古屋市中区,富士見町５番７号さくらＨｉＬＬｓ富士見１１０６号,,23,106,4600014,,,,,,,2021-12-06,1,,,,,オルニス,0
2194,7190001028908,新規,0,2021-12-06,2021-12-06,村中機工株式会社,,株式会社,三重県,鈴鹿市,小社町５２６番地の２,,24,207,5190324,,,,,,,2021-12-06,1,,,,,ムラナカキコウ,0
2198,7200001039498,新規,0,2021-12-06,2021-12-06,ジャパンパブリックプライベートパートナー機構株式会社,,株式会社,岐阜県,岐阜市,東興町２７番地中広ビル内,,21,201,5008137,,,,,,,2021-12-06,1,,,,,ジャパンパブリックプライベートパートナーキコウ,0
2201,7210001018716,新規,0,2021-12-06,2021-12-06,株式会社福井丸大ケンショク,,株式会社,福井県,福井市,大和田１丁目１０１番地,,18,201,9100836,,,,,,,2021-12-06,1,,,,,フクイマルダイケンショク,0
2203,7220001024572,新規,0,2021-12-06,2021-12-06,株式会社ＩＲＳ,,株式会社,石川県,金沢市,古府３丁目１５９番地,,17,201,9200362,,,,,,,2021-12-06,1,,,,,アイアールエス,0
2215,7240005015302,新規,0,2021-12-06,2021-12-06,みずの土地家屋調査士法人,,その他の設立登記法人,広島県,安芸郡府中町,柳ケ丘３７番１８号,,34,302,7350014,,,,,,,2021-12-06,1,,,,,ミズノ,0
2217,7250001019289,新規,0,2021-12-06,2021-12-06,株式会社ファーイースト,,株式会社,山口県,下関市,彦島西山町４丁目１１番９号,,35,201,7500093,,,,,,,2021-12-06,1,,,,,ファーイースト,0
2220,7260001036291,新規,0,2021-12-06,2021-12-06,株式会社ＹＳＥ,,株式会社,岡山県,倉敷市,北畝４丁目９番２０号,,33,202,7128032,,,,,,,2021-12-06,1,,,,,ワイエスイー,0
2233,7290001095608,新規,0,2021-12-06,2021-12-06,株式会社ジチタイアド,,株式会社,福岡県,福岡市中央区,薬院１丁目１４番５号ＭＧ薬院ビル,,40,133,8100022,,,,,,,2021-12-06,1,,,,,ジチタイアド,0
2234,7290001095657,新規,0,2021-12-06,2021-12-06,株式会社Ｆｉｒｓｔ　Ｃｒｅａｔｅ,,株式会社,福岡県,福岡市中央区,大名１丁目２番２０－２Ｂ,,40,133,8100041,,,,,,,2021-12-06,1,,,,,ファーストクリエイト,0
2238,7290003011901,新規,0,2021-12-06,2021-12-06,ＳＧＴ合同会社,,合同会社,福岡県,糟屋郡篠栗町,大字尾仲１０３２番地５,,40,342,8112413,,,,,,,2021-12-06,1,,,,,エスジーティー,0
2240,7300001012734,新規,0,2021-12-06,2021-12-06,株式会社フロンティア,,株式会社,佐賀県,佐賀市,呉服元町１番７号,,41,201,8400824,,,,,,,2021-12-06,1,,,,,フロンティア,0
2242,7320001018762,新規,0,2021-12-06,2021-12-06,株式会社Ｍｉｏｙａｍａ,,株式会社,大分県,日田市,大字有田１７２１番地５,,44,204,8770000,,,,,,,2021-12-06,1,,,,,ミオヤマ,0
2243,7320001018770,新規,0,2021-12-06,2021-12-06,株式会社ミウラ産業,,株式会社,大分県,大分市,三佐４丁目１０番２２号,,44,201,8700108,,,,,,,2021-12-06,1,,,,,ミウラサンギョウ,0
2244,7320003003671,新規,0,2021-12-06,2021-12-06,トーキョースタイル合同会社,,合同会社,大分県,大分市,中島東２丁目３番７号パールシャトー中島５０２,,44,201,8700043,,,,,,,2021-12-06,1,,,,,トーキョースタイル,0
2248,7330001029239,新規,0,2021-12-06,2021-12-06,成和工業株式会社,,株式会社,熊本県,荒尾市,高浜１８２５番地５,,43,204,8640025,,,,,,,2021-12-06,1,,,,,セイワコウギョウ,0
2249,7330001029255,新規,0,2021-12-06,2021-12-06,株式会社ケイズアップ,,株式会社,熊本県,上益城郡御船町,大字高木１９１９番地４,,43,441,8613203,,,,,,,2021-12-06,1,,,,,ケイズアップ,0
2252,7370001047897,新規,0,2021-12-06,2021-12-06,株式会社シンコー,,株式会社,宮城県,大崎市,鳴子温泉字中野１１番地８,,04,215,9896711,,,,,,,2021-12-06,1,,,,,シンコー,0
2253,7370005010397,新規,0,2021-12-06,2021-12-06,医療法人珀晴会,,その他の設立登記法人,宮城県,仙台市太白区,大野田４丁目３１番地の３,,04,104,9820014,,,,,,,2021-12-06,1,,,,,ハクセイカイ,0
2256,7380001032378,新規,0,2021-12-06,2021-12-06,十一興業株式会社,,株式会社,福島県,相馬郡新地町,駒ケ嶺字東善寺下１６番地,,07,561,9792611,,,,,,,2021-12-06,1,,,,,ジュウイチコウギョウ,0
2262,7400001015693,新規,0,2021-12-06,2021-12-06,株式会社ＡＰＰＬＯＴＵＳ,,株式会社,岩手県,盛岡市,向中野７丁目１９番３３－１０５号,,03,201,0200851,,,,,,,2021-12-06,1,,,,,アプロータス,0
2264,7430001085494,新規,0,2021-12-06,2021-12-06,株式会社クリプト,,株式会社,北海道,札幌市北区,北三十一条西２丁目１番８－７０３号,,01,102,0010031,,,,,,,2021-12-06,1,,,,,クリプト,0
2268,7430005014334,新規,0,2021-12-06,2021-12-06,惠弘寺,,その他の設立登記法人,北海道,札幌市北区,新琴似一条１１丁目３番１２号,,01,102,0010901,,,,,,,2021-12-06,1,,,,,エコウジ,0
2279,7500001023851,新規,0,2021-12-06,2021-12-06,株式会社力コーポレーション,,株式会社,愛媛県,松山市,来住町４０１番地１,,38,201,7911102,,,,,,,2021-12-06,1,,,,,リキコーポレーション,0
2294,8010001222956,新規,0,2021-12-06,2021-12-06,ＳＵＧライフデザイン株式会社,,株式会社,東京都,千代田区,平河町２丁目３番１０号ライオンズマンション平河町４１３号,,13,101,1020093,,,,,,,2021-12-06,1,,,,,エスユージーライフデザイン,0
2295,8010001222989,新規,0,2021-12-06,2021-12-06,株式会社ＪＰＸ総研,,株式会社,東京都,中央区,日本橋兜町２番１号,,13,102,1030026,,,,,,,2021-12-06,1,,,,,ジェイピーエックスソウケン,0
2298,8010003036462,新規,0,2021-12-06,2021-12-06,合同会社ネモフィラ,,合同会社,東京都,中央区,日本橋箱崎町１６番１１号ルミネ日本橋１１０４号,,13,102,1030015,,,,,,,2021-12-06,1,,,,,ネモフィラ,0
2304,8010401164170,新規,0,2021-12-06,2021-12-06,ＪＵＴ　Ｅｎｔｅｒｔａｉｎｍｅｎｔ株式会社,,株式会社,東京都,港区,芝浦１丁目１３番１０号,,13,103,1050023,,,,,,,2021-12-06,1,,,,,ジャットエンターテイメント,0
2305,8010401164245,新規,0,2021-12-06,2021-12-06,株式会社Ｈｅｇｅｍｏｎｙ,,株式会社,東京都,港区,赤坂４丁目１４番１４－１９１０号,,13,103,1070052,,,,,,,2021-12-06,1,,,,,ヘゲモニー,0
2306,8010401164253,新規,0,2021-12-06,2021-12-06,寿司バンク株式会社,,株式会社,東京都,港区,西新橋３丁目１４番８号パークリュクス虎ノ門９０３,,13,103,1050003,,,,,,,2021-12-06,1,,,,,スシバンク,0
2307,8010401164261,新規,0,2021-12-06,2021-12-06,名川株式会社,,株式会社,東京都,港区,三田１丁目１０番１０号,,13,103,1080073,,,,,,,2021-12-06,1,,,,,ナガワ,0
2308,8010401164278,新規,0,2021-12-06,2021-12-06,株式会社Ｌｅｂｅｘｃ,,株式会社,東京都,港区,南青山２丁目２番１５号,,13,103,1070062,,,,,,,2021-12-06,1,,,,,レベックス,0
2309,8010403026633,新規,0,2021-12-06,2021-12-06,合同会社共栄創造,,合同会社,東京都,港区,赤坂８丁目１２番１６号ＮＯＺＹ赤坂６０１,,13,103,1070052,,,,,,,2021-12-06,1,,,,,キョウエイソウゾウ,0
2310,8010403026658,新規,0,2021-12-06,2021-12-06,合同会社ＨＯＮＥＳＴ,,合同会社,東京都,港区,東麻布３丁目１０番１－６０１号,,13,103,1060044,,,,,,,2021-12-06,1,,,,,オネスト,0
2312,8010501048166,新規,0,2021-12-06,2021-12-06,ビックボス株式会社,,株式会社,東京都,台東区,松が谷３丁目８番６－３０２号,,13,106,1110036,,,,,,,2021-12-06,1,,,,,ビックボス,0
2316,8010601060327,新規,0,2021-12-06,2021-12-06,株式会社Ｍ．Ｙ．Ｒ,,株式会社,東京都,江東区,北砂２丁目３番８号,,13,108,1360073,,,,,,,2021-12-06,1,,,,,エムワイアール,0
2320,8010701041870,新規,0,2021-12-06,2021-12-06,株式会社縁束,,株式会社,東京都,品川区,東大井３丁目１３番１８号,,13,109,1400011,,,,,,,2021-12-06,1,,,,,エンソク,0
2322,8010801032539,新規,0,2021-12-06,2021-12-06,株式会社ヤシロ,,株式会社,東京都,大田区,西糀谷２丁目１４番７号,,13,111,1440034,,,,,,,2021-12-06,1,,,,,ヤシロ,0
2326,8010901049912,新規,0,2021-12-06,2021-12-06,株式会社ＳＡＡＴＣＨＩ,,株式会社,東京都,世田谷区,若林１丁目８番８号デンス河野２０１,,13,112,1540023,,,,,,,2021-12-06,1,,,,,サーチ,0
2327,8010903006993,新規,0,2021-12-06,2021-12-06,グロリアジャパン合同会社,,合同会社,東京都,世田谷区,駒沢４丁目１８番１７号,,13,112,1540012,,,,,,,2021-12-06,1,,,,,グロリアジャパン,0
2337,8011001144323,新規,0,2021-12-06,2021-12-06,株式会社ＮＯＹＺ,,株式会社,東京都,渋谷区,神宮前６丁目２３番４号桑野ビル２階,,13,113,1500001,,,,,,,2021-12-06,1,,,,,ノイズ,0
2338,8011001144356,新規,0,2021-12-06,2021-12-06,株式会社ＡＭＯＶＵ,,株式会社,東京都,渋谷区,神宮前５丁目３９番１号,,13,113,1500001,,,,,,,2021-12-06,1,,,,,アムーヴ,0
2339,8011001144364,新規,0,2021-12-06,2021-12-06,株式会社ＳＩＥ,,株式会社,東京都,目黒区,下目黒２丁目２０番２０号,,13,110,1530064,,,,,,,2021-12-06,1,,,,,エスアイイー,0
2340,8011001144372,新規,0,2021-12-06,2021-12-06,株式会社ボールドタイプ,,株式会社,東京都,渋谷区,千駄ヶ谷３丁目３番３２号,,13,113,1510051,,,,,,,2021-12-06,1,,,,,ボールドタイプ,0
2341,8011003013807,新規,0,2021-12-06,2021-12-06,合同会社ダイニングミュージック,,合同会社,東京都,渋谷区,恵比寿南１丁目２３番１号ＡＢＣ亜米利加橋ビル２Ｆ,,13,113,1500022,,,,,,,2021-12-06,1,,,,,ダイニングミュージック,0
2342,8011003013815,新規,0,2021-12-06,2021-12-06,合同会社代々木ホールディングス,,合同会社,東京都,渋谷区,代々木２丁目２５番７号,,13,113,1510053,,,,,,,2021-12-06,1,,,,,ヨヨギホールディングス,0
2345,8011101097108,新規,0,2021-12-06,2021-12-06,株式会社ｍａｍａｎｅ,,株式会社,東京都,新宿区,西新宿３丁目３番１３号西新宿水間ビル６階,,13,104,1600023,,,,,,,2021-12-06,1,,,,,ママネ,0
2348,8011501027531,新規,0,2021-12-06,2021-12-06,株式会社ＩＰＨ,,株式会社,東京都,荒川区,荒川５丁目１番１－１００１号,,13,118,1160002,,,,,,,2021-12-06,1,,,,,アイピーエイチ,0
2350,8011601025583,新規,0,2021-12-06,2021-12-06,株式会社日経専売所,,株式会社,東京都,練馬区,中村北１丁目１１番２号,,13,120,1760023,,,,,,,2021-12-06,1,,,,,ニッケイセンバイショ,0
2352,8011603003463,新規,0,2021-12-06,2021-12-06,合同会社ＫＡＴＹ,,合同会社,東京都,練馬区,高松５丁目１９番３２号サンモールＫＡ１０２,,13,120,1790075,,,,,,,2021-12-06,1,,,,,ケイティ,0
2353,8011703003017,新規,0,2021-12-06,2021-12-06,合同会社イマテック,,合同会社,東京都,江戸川区,南篠崎町３丁目３番７号,,13,123,1330065,,,,,,,2021-12-06,1,,,,,イマテック,0
2354,8011801040036,新規,0,2021-12-06,2021-12-06,ＴＡＫＥ株式会社,,株式会社,東京都,足立区,竹の塚７丁目５番１号アビタシオン２０４,,13,121,1210813,,,,,,,2021-12-06,1,,,,,テイク,0
2357,8012403005146,新規,0,2021-12-06,2021-12-06,合同会社松尾,,合同会社,東京都,武蔵野市,関前３丁目３８番１６号,,13,203,1800014,,,,,,,2021-12-06,1,,,,,マツオ,0
2358,8012703002363,新規,0,2021-12-06,2021-12-06,エキサイティングサポート合同会社,,合同会社,東京都,東村山市,久米川町４丁目３５番地４０,,13,213,1890003,,,,,,,2021-12-06,1,,,,,エキサイティングサポート,0
2359,8012801021249,新規,0,2021-12-06,2021-12-06,コンセプトメイク株式会社,,株式会社,東京都,立川市,錦町１丁目４－２０ＴＳＣビル５階,,13,202,1900022,,,,,,,2021-12-06,1,,,,,コンセプトメイク,0
2362,8013101008787,新規,0,2021-12-06,2021-12-06,三和アセット株式会社,,株式会社,東京都,青梅市,東青梅３丁目６番地の３,,13,205,1980042,,,,,,,2021-12-06,1,,,,,サンワアセット,0
2373,8020001144159,新規,0,2021-12-06,2021-12-06,田村精密機械株式会社,,株式会社,神奈川県,横浜市南区,花之木町２丁目２８番１号ハイツ花之木１０７号,,14,105,2320018,,,,,,,2021-12-06,1,,,,,タムラセイミツキカイ,0
2374,8020001144175,新規,0,2021-12-06,2021-12-06,株式会社シダー,,株式会社,神奈川県,横浜市都筑区,南山田２丁目１番３－１０５号,,14,118,2240029,,,,,,,2021-12-06,1,,,,,シダー,0
2375,8020001144191,新規,0,2021-12-06,2021-12-06,ユニクル株式会社,,株式会社,神奈川県,横浜市西区,北幸１丁目１１番１号水信ビル７階,,14,103,2200004,,,,,,,2021-12-06,1,,,,,ユニクル,0
2376,8020003020928,新規,0,2021-12-06,2021-12-06,合同会社ＡＰＵＡ,,合同会社,神奈川県,横浜市保土ケ谷区,岩井町２３番地坪内ハイツ１階,,14,106,2400023,,,,,,,2021-12-06,1,,,,,アプア,0
2379,8021001074627,新規,0,2021-12-06,2021-12-06,株式会社ＨＡＬＥＡＩＲＯ,,株式会社,神奈川県,茅ヶ崎市,東海岸北１丁目２番８号たかすなヴィレッジＡＮＮＥＸ,,14,207,2530053,,,,,,,2021-12-06,1,,,,,ハレアイロ,0
2380,8021001074676,新規,0,2021-12-06,2021-12-06,株式会社ロジヤマ,,株式会社,神奈川県,厚木市,毛利台２丁目１０番１号,,14,212,2430037,,,,,,,2021-12-06,1,,,,,ロジヤマ,0
2393,8030001145668,新規,0,2021-12-06,2021-12-06,株式会社神奈川トモノ,,株式会社,埼玉県,白岡市,篠津９５５番地１,,11,246,3490204,,,,,,,2021-12-06,1,,,,,カナガワトモノ,0
2394,8030001145692,新規,0,2021-12-06,2021-12-06,株式会社Ｍ－ＲＩＰＥＡ,,株式会社,埼玉県,白岡市,野牛１３９５番地１,,11,246,3490211,,,,,,,2021-12-06,1,,,,,エムリペア,0
2395,8030001145701,新規,0,2021-12-06,2021-12-06,株式会社パーフェクトウエーブ,,株式会社,埼玉県,日高市,大字原宿３４０番地５,,11,242,3501205,,,,,,,2021-12-06,1,,,,,パーフェクトウエーブ,0
2398,8030003018426,新規,0,2021-12-06,2021-12-06,オコスコ合同会社,,合同会社,埼玉県,さいたま市西区,三橋５丁目２２２６番地１３,,11,101,3310052,,,,,,,2021-12-06,1,,,,,オコスコ,0
2399,8030003018442,新規,0,2021-12-06,2021-12-06,合同会社Ｌ’ｅｎｔｉｅｒｅ,,合同会社,埼玉県,さいたま市見沼区,大和田町２丁目１５５３番地１－７０３号,,11,104,3370053,,,,,,,2021-12-06,1,,,,,ロンティエル,0
2405,8040001121230,新規,0,2021-12-06,2021-12-06,株式会社小出屋根工事店,,株式会社,千葉県,八街市,文違３０１番地４６５７サクラレジェンドＣ２０２,,12,230,2891104,,,,,,,2021-12-06,1,,,,,コイデヤネコウジテン,0
2406,8040001121247,新規,0,2021-12-06,2021-12-06,株式会社Ｍ’ｔｈａｎｋ,,株式会社,千葉県,白井市,冨士２２１番地の６２,,12,232,2701432,,,,,,,2021-12-06,1,,,,,エムサンク,0
2412,8040003019043,新規,0,2021-12-06,2021-12-06,合同会社ＹＡＨ　МＡＮ,,合同会社,千葉県,船橋市,本町４丁目４２番１１号,,12,204,2730005,,,,,,,2021-12-06,1,,,,,ヤーマン,0
2417,8050001050247,新規,0,2021-12-06,2021-12-06,株式会社北日本アクアエンジニアリング,,株式会社,茨城県,常総市,内守谷町２７４２番地,,08,211,3030043,,,,,,,2021-12-06,1,,,,,キタニホンアクアエンジニアリング,0
2418,8050001050255,新規,0,2021-12-06,2021-12-06,株式会社サカモト,,株式会社,茨城県,結城市,新福寺５丁目１６番地１ＡＤスクウェアビル１階Ｂ号室,,08,207,3070053,,,,,,,2021-12-06,1,,,,,サカモト,0
2420,8050003006230,新規,0,2021-12-06,2021-12-06,ＮＡＨＡＲ　ＧＲＯＵＰ合同会社,,合同会社,茨城県,猿島郡境町,２１８７番地１０,,08,546,3060433,,,,,,,2021-12-06,1,,,,,ナハルグループ,0
2426,8070001038703,新規,0,2021-12-06,2021-12-06,愛和ホールディングス株式会社,,株式会社,群馬県,桐生市,相生町５丁目１３８番地の１,,10,203,3760011,,,,,,,2021-12-06,1,,,,,アイワホールディングス,0
2432,8080005007414,新規,0,2021-12-06,2021-12-06,医療法人社団ＦＨＥＩ,,その他の設立登記法人,静岡県,静岡市清水区,神田町１８番２２号,,22,103,4240852,,,,,,,2021-12-06,1,,,,,エフエイチイーアイ,0
2433,8080101022952,新規,0,2021-12-06,2021-12-06,株式会社エーエムティ,,株式会社,静岡県,富士市,大渕２４９８番地の３,,22,210,4170000,,,,,,,2021-12-06,1,,,,,エーエムティ,0
2436,8100001034863,新規,0,2021-12-06,2021-12-06,やまと企画株式会社,,株式会社,長野県,諏訪市,大字中洲４４１６番地７,,20,206,3920015,,,,,,,2021-12-06,1,,,,,ヤマトキカク,0
2437,8100001034871,新規,0,2021-12-06,2021-12-06,ＩＮＯＹＡ株式会社,,株式会社,長野県,伊那市,富県３５２１番地１,,20,209,3960621,,,,,,,2021-12-06,1,,,,,イノヤ,0
2440,8100003006308,新規,0,2021-12-06,2021-12-06,合同会社ＨＥＬＩＯＴＲＯＰＥ,,合同会社,長野県,北佐久郡軽井沢町,軽井沢４６７－３０１階,,20,321,3890103,,,,,,,2021-12-06,1,,,,,ヘリオトロープ,0
2449,8120001242241,新規,0,2021-12-06,2021-12-06,ｇｒｏｏｖｅ株式会社,,株式会社,大阪府,大阪市東成区,東中本３丁目１２番３１号,,27,115,5370021,,,,,,,2021-12-06,1,,,,,グルーブ,0
2450,8120001242258,新規,0,2021-12-06,2021-12-06,株式会社リフォラル,,株式会社,大阪府,大阪市生野区,巽西４丁目２番２１号,00125048,27,116,5440012,,,,,,,2021-12-06,1,,,,,リフォラル,0
2460,8120101064726,新規,0,2021-12-06,2021-12-06,株式会社サンワテック,,株式会社,大阪府,堺市東区,八下町１丁１５７番地,,27,143,5998101,,,,,,,2021-12-06,1,,,,,サンワテック,0
2461,8120101064742,新規,0,2021-12-06,2021-12-06,株式会社ｏｎ－ｌｉｎｋ,,株式会社,大阪府,高石市,取石２丁目２番１６号,,27,225,5920013,,,,,,,2021-12-06,1,,,,,オンリンク,0
2462,8120103004465,新規,0,2021-12-06,2021-12-06,合同会社ｙｏｓｓｙ,,合同会社,大阪府,泉北郡忠岡町,馬瀬２丁目２番１３号,,27,341,5950804,,,,,,,2021-12-06,1,,,,,ヨッシー,0
2483,8140005025921,新規,0,2021-12-06,2021-12-06,一般社団法人日本成鶏処理流通協会,,その他の設立登記法人,兵庫県,加古郡稲美町,六分一１３６２番地の４０,,28,381,6751112,,,,,,,2021-12-06,1,,,,,ニホンセイケイショリリュウツウキョウカイ,0
2484,8150003002558,新規,0,2021-12-06,2021-12-06,オールオブワン合同会社,,合同会社,奈良県,北葛城郡広陵町,大字平尾６３８－１,,29,426,6350822,,,,,,,2021-12-06,1,,,,,オールオブワン,0
2485,8150005009353,新規,0,2021-12-06,2021-12-06,税理士法人谷野会計,,その他の設立登記法人,奈良県,奈良市,富雄元町２丁目３番１３号矢部ビル２階,,29,201,6310078,,,,,,,2021-12-06,1,,,,,タニノカイケイ,0
2488,8170001016896,新規,0,2021-12-06,2021-12-06,ＮＥＸＴＷＯＲＫ株式会社,,株式会社,和歌山県,和歌山市,友田町２丁目９７番地,,30,201,6408342,,,,,,,2021-12-06,1,,,,,ネクストワーク,0
2495,8180001148978,新規,0,2021-12-06,2021-12-06,株式会社オフィス西村,,株式会社,愛知県,東海市,荒尾町大恵毛１６番地,,23,222,4760003,,,,,,,2021-12-06,1,,,,,オフィスニシムラ,0
2496,8180001148994,新規,0,2021-12-06,2021-12-06,株式会社石川デザイン開発,,株式会社,愛知県,小牧市,大字三ツ渕２３５０番地１２５,,23,219,4850075,,,,,,,2021-12-06,1,,,,,イシカワデザインカイハツ,0
2497,8180001149002,新規,0,2021-12-06,2021-12-06,伊藤工業所株式会社,,株式会社,愛知県,春日井市,下市場町５丁目６番地１８,,23,206,4860852,,,,,,,2021-12-06,1,,,,,イトウコウギョウショ,0
2498,8180001149010,新規,0,2021-12-06,2021-12-06,株式会社万楽,,株式会社,愛知県,名古屋市中川区,伏屋２丁目１８１１番地,,23,110,4540996,,,,,,,2021-12-06,1,,,,,マンラク,0
2501,8180003023254,新規,0,2021-12-06,2021-12-06,アナザーストーリー合同会社,,合同会社,愛知県,名古屋市中区,大須１丁目７番１４号パークＩＭビル２Ｆ,,23,106,4600011,,,,,,,2021-12-06,1,,,,,アナザーストーリー,0
2506,8190001028907,新規,0,2021-12-06,2021-12-06,株式会社Ｂｅａｕ,,株式会社,三重県,三重郡川越町,大字豊田５１９番地１,,24,344,5108122,,,,,,,2021-12-06,1,,,,,ビュー,0
2509,8200001039497,新規,0,2021-12-06,2021-12-06,株式会社アーキガーデン,,株式会社,岐阜県,可児市,広見２２９８番地２,,21,214,5090214,,,,,,,2021-12-06,1,,,,,アーキガーデン,0
2510,8200001039506,新規,0,2021-12-06,2021-12-06,ＫＪコンテナー株式会社,,株式会社,岐阜県,羽島市,正木町須賀本村３６番地１,,21,209,5016218,,,,,,,2021-12-06,1,,,,,ケイジェイコンテナー,0
2514,8220001024571,新規,0,2021-12-06,2021-12-06,株式会社ＣＲＡＦＴＳ　ＭＡＮ　ＬＩＦＥ　ＷＯＲＫＳ,,株式会社,石川県,金沢市,北安江２丁目２８番１号,,17,201,9200022,,,,,,,2021-12-06,1,,,,,クラフトマンライフワークス,0
2519,8230001019125,新規,0,2021-12-06,2021-12-06,株式会社ＰＦＣ,,株式会社,富山県,富山市,中市２丁目８番５４号,,16,201,9398005,,,,,,,2021-12-06,1,,,,,ピーエフシー,0
2526,8240001058989,新規,0,2021-12-06,2021-12-06,株式会社ユウショウシステム,,株式会社,広島県,広島市安佐南区,八木９丁目２５番１０－２０４号,,34,105,7310101,,,,,,,2021-12-06,1,,,,,ユウショウシステム,0
2534,8260001036290,新規,0,2021-12-06,2021-12-06,株式会社ＳＴＥＡＬＴＨ　ＷＯＲＬＤ,,株式会社,岡山県,岡山市北区,表町３丁目１３番６号カワタビル,,33,101,7000822,,,,,,,2021-12-06,1,,,,,ステルスワールド,0
2537,8280003001555,新規,0,2021-12-06,2021-12-06,ｅ‐ｎｅｘｔＶｉｓｉｏｎ合同会社,,合同会社,島根県,松江市,竹矢町１７０２番地,,32,201,6900023,,,,,,,2021-12-06,1,,,,,イーネクストビジョン,0
2538,8290001021042,新規,0,2021-12-06,2021-12-06,福本建設株式会社,,株式会社,福岡県,福岡市東区,大字八田５９７番地,,40,131,8130031,,,,,,,2021-12-06,1,,,,,フクモトケンセツ,0
2542,8290001095615,新規,0,2021-12-06,2021-12-06,株式会社寿玉,,株式会社,福岡県,福岡市東区,多々良１丁目２０番２号,,40,131,8130033,,,,,,,2021-12-06,1,,,,,ヒサタマ,0
2543,8290001095648,新規,0,2021-12-06,2021-12-06,株式会社ＤＣＮ,,株式会社,福岡県,福岡市中央区,大名２丁目１番５１号４Ｆ,,40,133,8100041,,,,,,,2021-12-06,1,,,,,ディーシーエヌ,0
2545,8290801028047,新規,0,2021-12-06,2021-12-06,株式会社ＳＨＩＮＫＡ,,株式会社,福岡県,北九州市若松区,小敷ひびきの２丁目１２－４,,40,103,8080139,,,,,,,2021-12-06,1,,,,,シンカ,0
2552,8320003003670,新規,0,2021-12-06,2021-12-06,ＯＬＭ合同会社,,合同会社,大分県,大分市,府内町１丁目１番１１号,,44,201,8700021,,,,,,,2021-12-06,1,,,,,オーエルエム,0
2556,8340001024312,新規,0,2021-12-06,2021-12-06,株式会社ピアノ,,株式会社,鹿児島県,大島郡龍郷町,芦徳６５４番地,,46,527,8940412,,,,,,,2021-12-06,1,,,,,ピアノ,0
2574,8420001017670,新規,0,2021-12-06,2021-12-06,Ｔ‐Ａｃａｄｅｍｙ株式会社,,株式会社,青森県,弘前市,大字青山１丁目１１番地６,,02,202,0368062,,,,,,,2021-12-06,1,,,,,ティーアカデミー,0
2578,8430001085477,新規,0,2021-12-06,2021-12-06,ヤマト測量株式会社,,株式会社,北海道,江別市,東野幌町５３番地の２,,01,217,0690821,,,,,,,2021-12-06,1,,,,,ヤマトソクリョウ,0
2579,8430001085485,新規,0,2021-12-06,2021-12-06,ギガクル株式会社,,株式会社,北海道,札幌市豊平区,月寒中央通６丁目３番２８号,,01,105,0620020,,,,,,,2021-12-06,1,,,,,ギガクル,0
2580,8430001085502,新規,0,2021-12-06,2021-12-06,株式会社ハイフォークス,,株式会社,北海道,札幌市中央区,南十三条西７丁目２番１１号,,01,101,0640913,,,,,,,2021-12-06,1,,,,,ハイフォークス,0
2581,8430001085519,新規,0,2021-12-06,2021-12-06,環宙株式会社,,株式会社,北海道,札幌市西区,西野十一条９丁目１２－１１,,01,107,0630041,,,,,,,2021-12-06,1,,,,,カンチュウ,0
2585,8430003013428,新規,0,2021-12-06,2021-12-06,合同会社神林プロジェクト,,合同会社,北海道,札幌市清田区,里塚二条３丁目７－１０－２階,,01,110,0040802,,,,,,,2021-12-06,1,,,,,カンバヤシプロジェクト,0
2586,8430005014333,新規,0,2021-12-06,2021-12-06,弁護士法人橋本・大川合同法律事務所,,その他の設立登記法人,北海道,札幌市中央区,北四条西２０丁目１番２８号Ｎ４２０ビル,,01,101,0640824,,,,,,,2021-12-06,1,,,,,ハシモトオオカワゴウドウホウリツジムショ,0
2587,8450001013551,新規,0,2021-12-06,2021-12-06,株式会社Ｔｒｉｖｅｎｔｕｒｅ,,株式会社,北海道,旭川市,宮下通１９丁目１２５７番地２,,01,204,0788330,,,,,,,2021-12-06,1,,,,,トライベンチャー,0
2594,8480001011569,新規,0,2021-12-06,2021-12-06,ＣＴトラスト分割準備株式会社,,株式会社,徳島県,徳島市,論田町本浦下６７番地１,,36,201,7708011,,,,,,,2021-12-06,1,,,,,シーティートラストブンカツジュンビ,0
2609,9010001222988,新規,0,2021-12-06,2021-12-06,株式会社エスプールグローカル,,株式会社,東京都,千代田区,外神田１丁目１８番１３号,,13,101,1010021,,,,,,,2021-12-06,1,,,,,エスプールグローカル,0
2610,9010001223004,新規,0,2021-12-06,2021-12-06,株式会社ＡＢＲＩＣＯＴ,,株式会社,東京都,中央区,日本橋人形町１丁目２番１２号,,13,102,1030013,,,,,,,2021-12-06,1,,,,,アプリコット,0
2614,9010003036486,新規,0,2021-12-06,2021-12-06,合同会社ＫＥＹ　ＩＶ,,合同会社,東京都,中央区,銀座７丁目１３番６号サガミビル２階,,13,102,1040061,,,,,,,2021-12-06,1,,,,,ケイフォー,0
2621,9010401164194,新規,0,2021-12-06,2021-12-06,ＺｏｏＫｅｅｐ株式会社,,株式会社,東京都,港区,南麻布５丁目２番３２号興和広尾ビル５Ｆ,,13,103,1060047,,,,,,,2021-12-06,1,,,,,ズーキープ,0
2622,9010401164244,新規,0,2021-12-06,2021-12-06,株式会社ＴＨＩＳ　ＧＵＹ,,株式会社,東京都,港区,南青山２丁目２番１５号ウィン青山９４２,,13,103,1070062,,,,,,,2021-12-06,1,,,,,ディスガイ,0
2623,9010401164269,新規,0,2021-12-06,2021-12-06,株式会社ＡＫＩＲＡ,,株式会社,東京都,港区,南青山２丁目２番１５号ウィン青山１３０２,,13,103,1070062,,,,,,,2021-12-06,1,,,,,アキラ,0
2624,9010401164277,新規,0,2021-12-06,2021-12-06,株式会社ＳＯＳＨＩＫＩ,,株式会社,東京都,港区,浜松町２丁目２番１５号浜松町ダイヤビル２Ｆ,,13,103,1050013,,,,,,,2021-12-06,1,,,,,ソシキ,0
2628,9010403026649,新規,0,2021-12-06,2021-12-06,Ｎ．Ｅｓｔａｔｅ合同会社,,合同会社,東京都,港区,赤坂２丁目１４番５号Ｄａｉｗａ赤坂ビル７階（Ｎ．Ｇｒｏｕｐ株式会社内）,,13,103,1070052,,,,,,,2021-12-06,1,,,,,エヌドットエステート,0
2629,9010403026657,新規,0,2021-12-06,2021-12-06,合同会社あもり,,合同会社,東京都,港区,六本木４丁目３番１１－３１９号,,13,103,1060032,,,,,,,2021-12-06,1,,,,,アモリ,0
2630,9010405020492,新規,0,2021-12-06,2021-12-06,マウスファイナンスホールディングス一般社団法人,,その他の設立登記法人,東京都,港区,虎ノ門３丁目２２番１０－２０１号,,13,103,1050001,,,,,,,2021-12-06,1,,,,,マウスファイナンスホールディングス,0
2633,9010603009288,新規,0,2021-12-06,2021-12-06,Ｔｈａｉ　Ｎｉｈｏｎ　Ｃｏｍｍｅｒｃｅ合同会社,,合同会社,東京都,墨田区,東向島５丁目１２番８号,,13,107,1310032,,,,,,,2021-12-06,1,,,,,タイニホンコマース,0
2637,9010701041861,新規,0,2021-12-06,2021-12-06,南洋興発株式会社,,株式会社,東京都,品川区,南大井６丁目１１番２号,,13,109,1400013,,,,,,,2021-12-06,1,,,,,ナンヨウコウハツ,0
2638,9010701041878,新規,0,2021-12-06,2021-12-06,株式会社Ｇａｋｋｅｎ　ＬＥＡＰ,,株式会社,東京都,品川区,西五反田２丁目１１番８号,,13,109,1410031,,,,,,,2021-12-06,1,,,,,ガッケンリープ,0
2645,9010803003974,新規,0,2021-12-06,2021-12-06,合同会社ｉｓｔａｒｓｏｆｔ,,合同会社,東京都,大田区,西六郷３丁目２番１４－５２２号,,13,111,1440056,,,,,,,2021-12-06,1,,,,,アイスターソフト,0
2649,9010901049911,新規,0,2021-12-06,2021-12-06,株式会社高橋,,株式会社,東京都,世田谷区,太子堂３丁目２番８号,,13,112,1540004,,,,,,,2021-12-06,1,,,,,タカハシ,0
2661,9011001144347,新規,0,2021-12-06,2021-12-06,株式会社セジール,,株式会社,東京都,渋谷区,恵比寿南１丁目２番９号岡田ビル５Ｆ,,13,113,1500022,,,,,,,2021-12-06,1,,,,,セジール,0
2662,9011001144363,新規,0,2021-12-06,2021-12-06,株式会社ＦＥＥＫＡ,,株式会社,東京都,目黒区,柿の木坂１丁目３４番１６号－３０３,,13,110,1520022,,,,,,,2021-12-06,1,,,,,フィーカ,0
2663,9011001144396,新規,0,2021-12-06,2021-12-06,若草土地株式会社,,株式会社,東京都,目黒区,下目黒１丁目２番２２－８０９号,,13,110,1530064,,,,,,,2021-12-06,1,,,,,ワカクサトチ,0
2665,9011003013814,新規,0,2021-12-06,2021-12-06,合同会社つなぐ,,合同会社,東京都,渋谷区,渋谷３丁目７番３号第１野口ビル５階,,13,113,1500002,,,,,,,2021-12-06,1,,,,,ツナグ,0
2672,9011301027383,新規,0,2021-12-06,2021-12-06,株式会社名水デザイン,,株式会社,東京都,杉並区,高円寺南５丁目３６番２５号ヴァンテアンライフ高円寺弐番館１０１,,13,115,1660003,,,,,,,2021-12-06,1,,,,,メイスイデザイン,0
2674,9011401023885,新規,0,2021-12-06,2021-12-06,アピラメイト株式会社,,株式会社,東京都,板橋区,小茂根１丁目２５番２２－６０６号,,13,119,1730037,,,,,,,2021-12-06,1,,,,,アピラメイト,0
2687,9011801040027,新規,0,2021-12-06,2021-12-06,株式会社空間エンジニアリング,,株式会社,東京都,足立区,北加平町２１番６－５０１号,,13,121,1210056,,,,,,,2021-12-06,1,,,,,クウカンエンジニアリング,0
2696,9012701016810,新規,0,2021-12-06,2021-12-06,ＫＡＳＡＮＥ株式会社,,株式会社,東京都,東村山市,久米川町２丁目３８番地２８,,13,213,1890003,,,,,,,2021-12-06,1,,,,,カサネ,0
2711,9020001144182,新規,0,2021-12-06,2021-12-06,株式会社古友里,,株式会社,神奈川県,横浜市港南区,東永谷１丁目２８番９号,,14,111,2330011,,,,,,,2021-12-06,1,,,,,コトリ,0
2712,9020001144190,新規,0,2021-12-06,2021-12-06,株式会社ｊ－ｗｈｙ,,株式会社,神奈川県,横浜市青葉区,市ケ尾町１１５７番地１,,14,117,2250024,,,,,,,2021-12-06,1,,,,,ジェイホワイ,0
2713,9020001144208,新規,0,2021-12-06,2021-12-06,株式会社シバスタ,,株式会社,神奈川県,横浜市青葉区,鴨志田町８０２－９,,14,117,2270033,,,,,,,2021-12-06,1,,,,,シバスタ,0
2716,9020005015289,新規,0,2021-12-06,2021-12-06,医療法人社団華更会,,その他の設立登記法人,神奈川県,横浜市泉区,中田東３丁目１番５号第五ミキビル１０１号室,,14,116,2450013,,,,,,,2021-12-06,1,,,,,ハナサラカイ,0
2720,9021001074642,新規,0,2021-12-06,2021-12-06,株式会社ＫＩＫＵＨＯＤＯ,,株式会社,神奈川県,座間市,入谷西３丁目２０番１７号,,14,216,2520029,,,,,,,2021-12-06,1,,,,,キクホド,0
2721,9021001074659,新規,0,2021-12-06,2021-12-06,株式会社ＪＣ７２３,,株式会社,神奈川県,足柄下郡箱根町,元箱根９０番地の１３２,,14,382,2500522,,,,,,,2021-12-06,1,,,,,ジェーシーナナニイサン,0
2722,9021001074675,新規,0,2021-12-06,2021-12-06,株式会社ローカルファースト,,株式会社,神奈川県,鎌倉市,大町１丁目１番１４号,,14,204,2480007,,,,,,,2021-12-06,1,,,,,ローカルファースト,0
2726,9021003011148,新規,0,2021-12-06,2021-12-06,合同会社かいせい動物病院,,合同会社,神奈川県,足柄上郡開成町,吉田島４３５２番地９サンキ開成駅前ビル１０１,,14,366,2580021,,,,,,,2021-12-06,1,,,,,カイセイドウブツビョウイン,0
2727,9021003011156,新規,0,2021-12-06,2021-12-06,合同会社吉村寫眞商店,,合同会社,神奈川県,相模原市南区,上鶴間５丁目８番１－３０１号,,14,153,2520302,,,,,,,2021-12-06,1,,,,,,0
2729,9030001145642,新規,0,2021-12-06,2021-12-06,株式会社アイズインテリア,,株式会社,埼玉県,熊谷市,樋春１１２８番地７,00125043,11,202,3600112,,,,,,,2021-12-06,1,,,,,アイズインテリア,0
2730,9030001145659,新規,0,2021-12-06,2021-12-06,株式会社ＯＫＩアセットマネジメント,,株式会社,埼玉県,さいたま市北区,宮原町３丁目５９４番地４（２０１号）,,11,102,3310812,,,,,,,2021-12-06,1,,,,,オーケーアイアセットマネジメント,0
2731,9030001145675,新規,0,2021-12-06,2021-12-06,ＰＥＡ株式会社,,株式会社,埼玉県,富士見市,大字水子６３２７番地２４,,11,235,3540011,,,,,,,2021-12-06,1,,,,,ピーイーエー,0
2732,9030001145691,新規,0,2021-12-06,2021-12-06,株式会社Ｆｉｌｌｉｓｓ,,株式会社,埼玉県,さいたま市岩槻区,美園東２丁目３４番地１７,,11,110,3390028,,,,,,,2021-12-06,1,,,,,フィルリス,0
2733,9030001145700,新規,0,2021-12-06,2021-12-06,株式会社東日本アクアエンジニアリング,,株式会社,埼玉県,さいたま市桜区,桜田２丁目２番１８号,,11,106,3380833,,,,,,,2021-12-06,1,,,,,ヒガシニホンアクアエンジニアリング,0
2734,9030001145709,新規,0,2021-12-06,2021-12-06,ＧＫチャレンジ株式会社,,株式会社,埼玉県,さいたま市西区,大字中釘５７１－８,,11,101,3310077,,,,,,,2021-12-06,1,,,,,ジーケーチャレンジ,0
2735,9030001145717,新規,0,2021-12-06,2021-12-06,株式会社ｗｏｎｄｅｒ　ｓｔｙｌｅ,,株式会社,埼玉県,さいたま市見沼区,大字蓮沼１１５５番地５８,,11,104,3370015,,,,,,,2021-12-06,1,,,,,ワンダースタイル,0
2751,9040001121213,新規,0,2021-12-06,2021-12-06,株式会社ＲＹＫ,,株式会社,千葉県,佐倉市,ユーカリが丘４丁目１番１号スカイプラザ・モール３Ｆ,,12,212,2850858,,,,,,,2021-12-06,1,,,,,アールワイケイ,0
2752,9040001121246,新規,0,2021-12-06,2021-12-06,株式会社ＲＹＯＷＡ,,株式会社,千葉県,流山市,おおたかの森東４丁目１５番地の８,,12,220,2700138,,,,,,,2021-12-06,1,,,,,リョウワ,0
2756,9040003019042,新規,0,2021-12-06,2021-12-06,合同会社ＹＮＧ,,合同会社,千葉県,船橋市,海神５丁目１７番１４－３号,,12,204,2730021,,,,,,,2021-12-06,1,,,,,ワイエヌジー,0
2759,9050001050238,新規,0,2021-12-06,2021-12-06,株式会社Ａｒｔｙ,,株式会社,茨城県,取手市,井野４４８１番地２,,08,217,3020011,,,,,,,2021-12-06,1,,,,,アーティー,0
2778,9100001034854,新規,0,2021-12-06,2021-12-06,株式会社エビデント長野,,株式会社,長野県,上伊那郡辰野町,大字伊那富６６６６番地,,20,382,3990428,,,,,,,2021-12-06,1,,,,,エビデントナガノ,0
2779,9100001034862,新規,0,2021-12-06,2021-12-06,ルーフドクター株式会社,,株式会社,長野県,松本市,小屋北１丁目１５番１２号,,20,202,3990039,,,,,,,2021-12-06,1,,,,,ルーフドクター,0
2780,9100001034870,新規,0,2021-12-06,2021-12-06,株式会社ＢＡＲＩ　ＴＲＡＤＩＮＧ,,株式会社,長野県,南佐久郡佐久穂町,大字海瀬８０７番地１,,20,309,3840503,,,,,,,2021-12-06,1,,,,,バリトレーディング,0
2781,9100002006357,新規,0,2021-12-06,2021-12-06,有限会社コバヤシ建築設計事務所,,有限会社,長野県,長野市,信州新町弘崎８５３番地,,20,201,3812416,,,,,,,2021-12-06,1,,,,,コバヤシケンチクセッケイジムショ,0
2782,9100003006307,新規,0,2021-12-06,2021-12-06,合同会社アドバンス,,合同会社,長野県,松本市,征矢野２丁目１２番６号松谷コーポ２０１,,20,202,3900842,,,,,,,2021-12-06,1,,,,,アドバンス,0
2789,9120001242240,新規,0,2021-12-06,2021-12-06,三和株式会社,,株式会社,大阪府,大阪市東住吉区,駒川５丁目１３番１３号,,27,121,5460043,,,,,,,2021-12-06,1,,,,,サンワ,0
2790,9120001242257,新規,0,2021-12-06,2021-12-06,株式会社ＮＥＧＥＮＴＲＯＰＹ,,株式会社,大阪府,大阪市浪速区,日本橋３丁目８番２４号ビガーポリス日本橋一階,,27,111,5560005,,,,,,,2021-12-06,1,,,,,ネゲントロピー,0
2791,9120001242273,新規,0,2021-12-06,2021-12-06,株式会社稜河,,株式会社,大阪府,大阪市此花区,春日出南３丁目３－２８キングス夢咲シティひかりの街Ａ２１０号室,,27,104,5540023,,,,,,,2021-12-06,1,,,,,リョウガ,0
2792,9120001242281,新規,0,2021-12-06,2021-12-06,株式会社ＳＮＢ,,株式会社,大阪府,大阪市天王寺区,国分町１３番８号３Ｆ,,27,109,5430044,,,,,,,2021-12-06,1,,,,,エスエヌビー,0
2793,9120003020710,新規,0,2021-12-06,2021-12-06,合同会社Ｃｈｅｌｃｈｉｌｌ,,合同会社,大阪府,大阪市阿倍野区,昭和町１丁目１４－２９ボタン２階,,27,119,5450011,,,,,,,2021-12-06,1,,,,,,0
2794,9120101064733,新規,0,2021-12-06,2021-12-06,株式会社ＨＥＭ,,株式会社,大阪府,泉佐野市,下瓦屋２１１番地の１,,27,213,5980062,,,,,,,2021-12-06,1,,,,,エイチイーエム,0
2805,9130003007608,新規,0,2021-12-06,2021-12-06,合同会社エターナリア,,合同会社,京都府,京都市東山区,四条通花見小路上ル祇園町北側２７０番地２祇園ホワイトビル３階,,26,105,6050000,,,,,,,2021-12-06,1,,,,,エターナリア,0
2806,9130005016326,新規,0,2021-12-06,2021-12-06,一般社団法人ネクステージ,,その他の設立登記法人,京都府,京都市左京区,岩倉長谷町４５９番地谷川貸家４号室,,26,103,6060026,,,,,,,2021-12-06,1,,,,,ネクステージ,0
2812,9140001124057,新規,0,2021-12-06,2021-12-06,株式会社ＮＥＳＴ,,株式会社,兵庫県,尼崎市,武庫豊町２丁目１１番１５号３０２,,28,202,6610045,,,,,,,2021-12-06,1,,,,,ネスト,0
2813,9140001124073,新規,0,2021-12-06,2021-12-06,株式会社ＲＥＩ　ＧＥＭＳ,,株式会社,兵庫県,神戸市須磨区,月見山本町１丁目４番４号,,28,107,6540051,,,,,,,2021-12-06,1,,,,,レイジェムズ,0
2821,9140003017052,新規,0,2021-12-06,2021-12-06,Ｈｉｍｅ　ＤＴ　Ｇｒｏｕｐ合同会社,,合同会社,兵庫県,姫路市,南条１番地,,28,201,6700952,,,,,,,2021-12-06,1,,,,,ヒメディーティーグループ,0
2825,9160001023851,新規,0,2021-12-06,2021-12-06,株式会社ＦＩＴ　ＳＹＳＴＥＭ,,株式会社,滋賀県,草津市,桜ケ丘５丁目１－５０,,25,206,5250057,,,,,,,2021-12-06,1,,,,,フィットシステム,0
2827,9170001016887,新規,0,2021-12-06,2021-12-06,株式会社橋本紀北販売,,株式会社,和歌山県,橋本市,高野口町応其１６２番地の２,,30,203,6497201,,,,,,,2021-12-06,1,,,,,ハシモトキホクハンバイ,0
2835,9180001148944,新規,0,2021-12-06,2021-12-06,ＦＳプランニング株式会社,,株式会社,愛知県,稲沢市,稲沢町前田１９２番地３幸成ビル３階,,23,220,4928217,,,,,,,2021-12-06,1,,,,,エフエスプランニング,0
2836,9180001148952,新規,0,2021-12-06,2021-12-06,イコリティー株式会社,,株式会社,愛知県,尾張旭市,南栄町旭ケ丘６１番地３,,23,226,4880046,,,,,,,2021-12-06,1,,,,,イコリティー,0
2837,9180001148985,新規,0,2021-12-06,2021-12-06,フェイド株式会社,,株式会社,愛知県,名古屋市中川区,中須町１９４,,23,110,4540925,,,,,,,2021-12-06,1,,,,,フェイド,0
2838,9180001149018,新規,0,2021-12-06,2021-12-06,ｈｅｙ株式会社,,株式会社,愛知県,半田市,亀崎町７丁目５４番地,,23,205,4750023,,,,,,,2021-12-06,1,,,,,ヘイ,0
2840,9180003023253,新規,0,2021-12-06,2021-12-06,合同会社ＫＯ‐ＴＡ,,合同会社,愛知県,名古屋市中川区,西日置２丁目１５番８号,,23,110,4540004,,,,,,,2021-12-06,1,,,,,コータ,0
2843,9180005019539,新規,0,2021-12-06,2021-12-06,一般社団法人あいみんテラス,,その他の設立登記法人,愛知県,一宮市,北園通３丁目１５番地,,23,203,4910854,,,,,,,2021-12-06,1,,,,,アイミンテラス,0
2847,9190001028906,新規,0,2021-12-06,2021-12-06,株式会社風工房,,株式会社,三重県,津市,安濃町田端上野９２０番地３４,,24,201,5142325,,,,,,,2021-12-06,1,,,,,カゼコウボウ,0
2849,9200001039488,新規,0,2021-12-06,2021-12-06,株式会社ＢＢ,,株式会社,岐阜県,多治見市,上野町１丁目１００番地ロフティ多治見駅前９０１,,21,204,5070027,,,,,,,2021-12-06,1,,,,,ビービー,0
2850,9200001039496,新規,0,2021-12-06,2021-12-06,株式会社佐文建設,,株式会社,岐阜県,岐阜市,中４６１番地２４,,21,201,5011173,,,,,,,2021-12-06,1,,,,,サブンケンセツ,0
2855,9210001018714,新規,0,2021-12-06,2021-12-06,大屋ファクト株式会社,,株式会社,福井県,越前市,大屋町第７号５番地,,18,209,9150042,,,,,,,2021-12-06,1,,,,,オオヤファクト,0
2858,9220001024579,新規,0,2021-12-06,2021-12-06,株式会社秋吉山代店,,株式会社,石川県,加賀市,山代温泉山背台２丁目３７番地５,,17,206,9220245,,,,,,,2021-12-06,1,,,,,アキヨシヤマシロテン,0
2861,9230001019124,新規,0,2021-12-06,2021-12-06,ロジ不動産株式会社,,株式会社,富山県,南砺市,福光１６４９番地,,16,210,9391610,,,,,,,2021-12-06,1,,,,,ロジフドウサン,0
2866,9240001059004,新規,0,2021-12-06,2021-12-06,株式会社あゆま工業,,株式会社,広島県,呉市,焼山宮ヶ迫１丁目１０番１２号,,34,202,7370908,,,,,,,2021-12-06,1,,,,,アユマコウギョウ,0
2867,9240001059012,新規,0,2021-12-06,2021-12-06,新幸工業株式会社,,株式会社,広島県,広島市佐伯区,利松３丁目２０番４６号,,34,108,7315106,,,,,,,2021-12-06,1,,,,,シンコウコウギョウ,0
2868,9240001059020,新規,0,2021-12-06,2021-12-06,株式会社モリオカ,,株式会社,広島県,福山市,瀬戸町大字山北４８１番地１,,34,207,7200838,,,,,,,2021-12-06,1,,,,,,0
2870,9240005015300,新規,0,2021-12-06,2021-12-06,一般社団法人オ・ハナ,,その他の設立登記法人,広島県,尾道市,桜町２３番２号,,34,205,7220011,,,,,,,2021-12-06,1,,,,,オハナ,0
2872,9260001036281,新規,0,2021-12-06,2021-12-06,株式会社サクラ・カーサ,,株式会社,岡山県,岡山市北区,磨屋町４番１５号,,33,101,7000826,,,,,,,2021-12-06,1,,,,,サクラカーサ,0
2875,9260005011000,新規,0,2021-12-06,2021-12-06,一般社団法人岡山県キッチンカー協会,,その他の設立登記法人,岡山県,倉敷市,児島下の町２丁目１５８４番地３０,,33,202,7110906,,,,,,,2021-12-06,1,,,,,オカヤマケンキッチンカーキョウカイ,0
2876,9270001008404,新規,0,2021-12-06,2021-12-06,株式会社ｉＺｉＮ,,株式会社,鳥取県,米子市,加茂町１丁目７－５－２０１,,31,202,6830823,,,,,,,2021-12-06,1,,,,,イジン,0
2878,9280003001554,新規,0,2021-12-06,2021-12-06,合同会社Ｍ－Ｄ　ＢＡＳＥ,,合同会社,島根県,益田市,赤城町１１－４１,,32,204,6980034,,,,,,,2021-12-06,1,,,,,,0
2881,9290001095606,新規,0,2021-12-06,2021-12-06,株式会社アルバ,,株式会社,福岡県,春日市,星見ヶ丘１丁目５５番地,,40,218,8160849,,,,,,,2021-12-06,1,,,,,アルバ,0
2882,9290001095614,新規,0,2021-12-06,2021-12-06,ＮＲＳホールディングス株式会社,,株式会社,福岡県,福岡市東区,香椎照葉２丁目３番２６号,,40,131,8130017,,,,,,,2021-12-06,1,,,,,エヌアールエスホールディングス,0
2883,9290001095630,新規,0,2021-12-06,2021-12-06,株式会社タイズＧｒｏｕｐ,,株式会社,福岡県,筑後市,大字長浜８９２番地２,,40,211,8330005,,,,,,,2021-12-06,1,,,,,タイズグループ,0
2884,9290001095647,新規,0,2021-12-06,2021-12-06,株式会社きゅう,,株式会社,福岡県,福岡市中央区,春吉２丁目１３番２４号,,40,133,8100003,,,,,,,2021-12-06,1,,,,,キュウ,0
2885,9290001095663,新規,0,2021-12-06,2021-12-06,株式会社スイキ,,株式会社,福岡県,福岡市早良区,野芥２丁目５番１－４０１号,,40,137,8140171,,,,,,,2021-12-06,1,,,,,スイキ,0
2896,9300003001758,新規,0,2021-12-06,2021-12-06,合同会社内山家畜診療サービス,,合同会社,佐賀県,唐津市,菅牟田１７０番地２２,,41,202,8470882,,,,,,,2021-12-06,1,,,,,ウチヤマカチクシンリョウサービス,0
2911,9360001029705,新規,0,2021-12-06,2021-12-06,株式会社ハイドロプロジェクト,,株式会社,沖縄県,宜野湾市,字大謝名８５番５ＭＩＮＥＢｌｄｇ２－Ａ号室,,47,205,9012225,,,,,,,2021-12-06,1,,,,,ハイドロプロジェクト,0
2912,9360001029713,新規,0,2021-12-06,2021-12-06,株式会社スターティ,,株式会社,沖縄県,島尻郡八重瀬町,字屋宜原２３番地１９,,47,362,9010406,,,,,,,2021-12-06,1,,,,,スターティ,0
2918,9370001047904,新規,0,2021-12-06,2021-12-06,株式会社マル相水産,,株式会社,宮城県,牡鹿郡女川町,御前浜字大原道８番地の１０,,04,581,9862205,,,,,,,2021-12-06,1,,,,,マルアイスイサン,0
2919,9370003005505,新規,0,2021-12-06,2021-12-06,合同会社Ｇｒａｃｅ,,合同会社,宮城県,名取市,増田５丁目９番２７号ラ・コルダ２階,,04,207,9811224,,,,,,,2021-12-06,1,,,,,グレース,0
2935,9430001085476,新規,0,2021-12-06,2021-12-06,とまこまいコミュニティ放送株式会社,,株式会社,北海道,苫小牧市,王子町１丁目１番１９号,,01,213,0530027,,,,,,,2021-12-06,1,,,,,トマコマイコミュニティホウソウ,0
2936,9430001085484,新規,0,2021-12-06,2021-12-06,株式会社Ｓｕｒｆ　Ｃｌａｍ,,株式会社,北海道,苫小牧市,汐見町１丁目１番１４号,,01,213,0530012,,,,,,,2021-12-06,1,,,,,サーフクラム,0
2937,9430001085518,新規,0,2021-12-06,2021-12-06,株式会社ピコロ,,株式会社,北海道,札幌市中央区,旭ケ丘２丁目１番１０号,,01,101,0640941,,,,,,,2021-12-06,1,,,,,ピコロ,0
2940,9430003013427,新規,0,2021-12-06,2021-12-06,合同会社ＫＭＳ　ＴａｇＨｏｏｄ,,合同会社,北海道,札幌市中央区,南一条西１６丁目１番地３２３春野ビル３Ｆ,,01,101,0600061,,,,,,,2021-12-06,1,,,,,ケイエムエスタグフード,0
2941,9450001013550,新規,0,2021-12-06,2021-12-06,株式会社ＴＲＵＳＳ　ＧＡＲＡＧＥ,,株式会社,北海道,深川市,三条２４番２５号,,01,228,0740003,,,,,,,2021-12-06,1,,,,,トラスガレージ,0
2945,9470003002087,新規,0,2021-12-06,2021-12-06,合同会社ＳＮＳ,,合同会社,香川県,高松市,国分寺町福家甲３８０１－１５,,37,201,7690103,,,,,,,2021-12-06,1,,,,,,0
