sequenceNumber,corporateNumber,process,correct,updateDate,changeDate,name,nameImageId,kind,prefectureName,cityName,streetNumber,addressImageId,prefectureCode,cityCode,postCode,addressOutside,addressOutsideImageId,closeDate,closeCause,successorCorporateNumber,changeCause,assignmentDate,latest,enName,enPrefectureName,enCityName,enAddressOutside,furigana,hihyoji
4,1010001045769,登記記録の閉鎖等,0,2022-04-12,2022-04-01,株式会社新興機材,,株式会社,東京都,中央区,新富１丁目１２番７号新富ＨＪビル,,13,102,1040041,,,2022-04-01,合併による解散等,1010001036982,令和４年４月１日東京都中央区新川一丁目１５番３号株式会社イチエ（1010001036982）に合併し解散,2015-10-05,1,,,,,シンコウキザイ,0
5,1010001052963,登記記録の閉鎖等,0,2022-04-12,2022-04-01,ナスクリエート株式会社,,株式会社,東京都,中央区,日本橋大伝馬町１４番１７号,,13,102,1030011,,,2022-04-01,合併による解散等,2010001034977,令和４年４月１日東京都中央区京橋一丁目５番８号日本冶金工業株式会社（2010001034977）に合併し解散,2015-10-05,1,,,,,ナスクリエート,0
6,1010001060743,登記記録の閉鎖等,0,2022-04-12,2022-04-01,株式会社ロイヤルパークホテル,,株式会社,東京都,中央区,日本橋蛎殻町２丁目１番１号,,13,102,1030014,,,2022-04-01,合併による解散等,2010001008774,令和４年４月１日東京都千代田区大手町一丁目１番１号三菱地所株式会社（2010001008774）に合併し解散,2015-10-05,1,,,,,ロイヤルパークホテル,0
28,1010005028613,登記記録の閉鎖等,0,2022-04-12,2022-04-06,一般社団法人履修履歴活用コンソーシアム,,その他の設立登記法人,東京都,千代田区,飯田橋１丁目５番９号,,13,101,1020072,,,2022-04-06,清算の結了等,,,2018-06-05,1,,,,,リシュウリレキカツヨウコンソーシアム,0
50,1011001065815,登記記録の閉鎖等,0,2022-04-12,2022-03-31,スターフィールドカンパニー株式会社,,株式会社,東京都,渋谷区,神宮前６丁目２３番１７号,,13,113,1500001,,,2022-03-31,清算の結了等,,,2015-10-05,1,,,,,スターフィールドカンパニー,0
75,1012405002577,登記記録の閉鎖等,0,2022-04-12,2022-04-01,公益財団法人武蔵野文化事業団,,その他の設立登記法人,東京都,武蔵野市,中町３丁目９番１１号,,13,203,1800006,,,2022-04-01,合併による解散等,4012405002582,令和４年４月１日東京都武蔵野市吉祥寺北町五丁目１１番２０号武蔵野市立武蔵野総合体育館内公益財団法人武蔵野文化生涯学習事業団（4012405002582）に合併し解散,2015-10-05,1,,,,,ムサシノブンカジギョウダン,0
83,1020001075360,登記記録の閉鎖等,0,2022-04-12,2022-04-01,富士通ファシリティーズ株式会社,,株式会社,神奈川県,川崎市中原区,下小田中２丁目１２番５号,,14,133,2110041,,,2022-04-01,合併による解散等,2020001070096,令和４年４月１日川崎市中原区下小田中二丁目１２番５号富士通ホーム＆オフィスサービス株式会社（2020001070096）に合併し解散,2015-10-05,1,,,,,フジツウファシリティーズ,0
85,1020001112519,登記記録の閉鎖等,0,2022-04-12,2022-04-01,株式会社おもちゃ箱,,株式会社,神奈川県,横浜市中区,長者町４丁目１１番地１１－２階,,14,104,2310033,,,2022-04-01,合併による解散等,3020001091091,令和４年４月１日横浜市中区長者町四丁目１１番地１１－２階Ｆｉｔｓ横濱株式会社（3020001091091）に合併し解散,2015-10-05,1,,,,,オモチャバコ,0
93,1020002072035,登記記録の閉鎖等,0,2022-04-12,2022-04-04,有限会社成光興産,,有限会社,神奈川県,横浜市鶴見区,平安町２丁目２８番地１ヨコハマアイランドガーデン１１６号,,14,101,2300031,,,2022-04-04,清算の結了等,,,2015-10-05,1,,,,,,0
107,1030002071341,登記記録の閉鎖等,0,2022-04-12,2022-04-01,有限会社チューリップカンパニー,,有限会社,埼玉県,北葛飾郡杉戸町,高野台西２丁目７番地５,,11,464,3450045,,,2022-04-01,合併による解散等,9030001098907,令和４年４月１日埼玉県北葛飾郡杉戸町高野台西二丁目７番地５株式会社リンデン（9030001098907）に合併し解散,2015-10-05,1,,,,,チューリップカンパニー,0
158,1110005016129,登記記録の閉鎖等,0,2022-04-12,2022-03-31,生活協同組合コープクルコ,,その他の設立登記法人,新潟県,新潟市西区,流通１丁目５番地３,,15,107,9501125,,,2022-03-31,合併による解散等,9110005000439,令和４年３月２１日新潟県新潟市西区山田２３０９番地７生活協同組合コープデリにいがた（9110005000439）に合併し解散,2017-07-21,1,,,,,,0
160,1120001016429,登記記録の閉鎖等,0,2022-04-12,2022-04-07,八十島プロシード株式会社,,株式会社,大阪府,大阪市城東区,鴫野西５丁目１９番２６号,,27,118,5360014,,,2022-04-07,合併による解散等,1010001220974,令和４年４月１日東京都千代田区大手町一丁目５番１号八十島プロシード株式会社（1010001220974）に合併し解散,2015-10-05,1,,,,,,0
176,1120002006668,登記記録の閉鎖等,0,2022-04-12,2022-04-04,有限会社北中道温泉,,有限会社,大阪府,大阪市東成区,中道２丁目１１番６号,,27,115,5370025,,,2022-04-04,清算の結了等,,,2015-10-05,1,,,,,キタナカミチオンセン,0
184,1120102014174,登記記録の閉鎖等,0,2022-04-12,2022-04-04,有限会社栄町印刷,,有限会社,大阪府,松原市,小川６丁目６番３号,,27,217,5800002,,,2022-04-04,清算の結了等,,,2015-10-05,1,,,,,,0
193,1130001054080,登記記録の閉鎖等,0,2022-04-12,2022-04-01,株式会社エス・ティーホテルズ,,株式会社,京都府,京都市南区,東九条上殿田町３９番地,,26,107,6018002,,,2022-04-01,合併による解散等,3130001051365,令和４年４月１日京都市南区東九条烏丸町１番地１株式会社サクラテラス（3130001051365）に合併し解散,2015-10-05,1,,,,,エスティーホテルズ,0
196,1130002031211,登記記録の閉鎖等,0,2022-04-12,2022-04-04,有限会社ウチカタ,,有限会社,京都府,八幡市,橋本意足３２番地１１,,26,210,6148331,,,2022-04-04,清算の結了等,,,2015-10-05,1,,,,,ウチカタ,0
213,1140002068120,登記記録の閉鎖等,0,2022-04-12,2022-04-05,有限会社クリアコーポレーション,,有限会社,兵庫県,宝塚市,大吹町４番９号,,28,214,6650057,,,2022-04-05,清算の結了等,,,2015-10-05,1,,,,,クリアコーポレーション,0
218,1150001019420,登記記録の閉鎖等,0,2022-04-12,2022-04-08,株式会社フロンティア不動産販売,,株式会社,奈良県,奈良市,南京終町３丁目１５４３番地の１,,29,201,6308141,,,2022-04-08,合併による解散等,9120001177841,令和４年４月１日大阪府守口市南寺方東通二丁目１１番１号株式会社フロンティア不動産販売（9120001177841）に合併し解散,2015-10-05,1,,,,,フロンティアフドウサンハンバイ,0
237,1180003003378,登記記録の閉鎖等,0,2022-04-12,2022-04-04,アサヒ印刷合資会社,,合資会社,愛知県,名古屋市中川区,小本１丁目１４番２０号,,23,110,4540828,,,2022-04-04,清算の結了等,,,2015-10-05,1,,,,,アサヒインサツ,0
242,1180301014259,登記記録の閉鎖等,0,2022-04-12,2022-04-01,株式会社デンソー財経センター,,株式会社,愛知県,刈谷市,昭和町１丁目１番地,,23,210,4480029,,,2022-04-01,合併による解散等,7180301014261,令和４年４月１日愛知県刈谷市昭和町一丁目１番地株式会社デンソーシェアードサービス（7180301014261）に合併し解散,2015-10-05,1,,,,,デンソーザイケイセンター,0
249,1190002010449,登記記録の閉鎖等,0,2022-04-12,2022-04-01,有限会社尾崎製缶,,有限会社,三重県,鳥羽市,安楽島町５３６番地１,,24,211,5170021,,,2022-04-01,清算の結了等,,,2015-10-05,1,,,,,オザキセイカン,0
253,1200001002494,登記記録の閉鎖等,0,2022-04-12,2022-04-07,視聴覚システム株式会社,,株式会社,岐阜県,岐阜市,泉町４４番地,,21,201,5008073,,,2022-04-07,合併による解散等,6120001219167,令和４年４月１日広島市中区本通２番１０号聞こえの田中株式会社（6120001219167）に合併し解散,2015-10-05,1,,,,,,0
260,1210002008804,登記記録の閉鎖等,0,2022-04-12,2022-04-01,有限会社サプライズ,,有限会社,福井県,福井市,大宮１丁目１１番２７号,,18,201,9100016,,,2022-04-01,合併による解散等,9210001008839,令和４年４月１日福井市大宮一丁目１１番２７号株式会社ぼんた（9210001008839）に合併し解散,2015-10-05,1,,,,,サプライズ,0
275,1240005001654,登記記録の閉鎖等,0,2022-04-12,2022-04-01,社会福祉法人広島市東区社会福祉協議会,,その他の設立登記法人,広島県,広島市東区,東蟹屋町９番３４号,,34,102,7320055,,,2022-04-01,合併による解散等,5240005001650,令和４年４月１日広島市南区松原町５番１号社会福祉法人広島市社会福祉協議会（5240005001650）に合併し解散,2015-10-05,1,,,,,ヒロシマシヒガシクシャカイフクシキョウギカイ,0
276,1240005001662,登記記録の閉鎖等,0,2022-04-12,2022-04-01,社会福祉法人広島市佐伯区社会福祉協議会,,その他の設立登記法人,広島県,広島市佐伯区,海老園１丁目４番５号,,34,108,7315135,,,2022-04-01,合併による解散等,5240005001650,令和４年４月１日広島市南区松原町５番１号社会福祉法人広島市社会福祉協議会（5240005001650）に合併し解散,2015-10-05,1,,,,,ヒロシマシサエキクシャカイフクシキョウギカイ,0
280,1260005004127,登記記録の閉鎖等,0,2022-04-12,2022-03-24,天理教西王子分教会,,その他の設立登記法人,岡山県,倉敷市,八王寺町３５番地の４,,33,202,7100816,,,2022-03-24,合併による解散等,8260005004112,令和４年３月２４日岡山県倉敷市黒石６７７番地の２天理教松ヶ枝分教会（8260005004112）に合併し解散,2015-10-05,1,,,,,,0
296,1320001000263,登記記録の閉鎖等,0,2022-04-12,2022-04-08,大分ナブコ株式会社,,株式会社,大分県,大分市,広瀬町２丁目１番３６号,,44,201,8700847,,,2022-04-08,合併による解散等,8290001006745,令和４年４月１日福岡市中央区舞鶴一丁目４番１９号オリエント産業株式会社（8290001006745）に合併し解散,2015-10-05,1,,,,,オオイタナブコ,0
308,1340002021653,登記記録の閉鎖等,0,2022-04-12,2022-04-04,有限会社奄美養魚,,有限会社,鹿児島県,大島郡瀬戸内町,大字久根津字外浜原８番地,,46,525,8941746,,,2022-04-04,合併による解散等,5340001006585,令和４年４月１日鹿児島市黒神町２５８７番地４３株式会社マルハニチロＡＱＵＡ（5340001006585）に合併し解散,2015-10-05,1,,,,,アマミヨウギョ,0
313,1360001017056,登記記録の閉鎖等,0,2022-04-12,2022-04-06,ｇｌａｓｓ　ｓｐａｃｅ株式会社,,株式会社,沖縄県,那覇市,久米１丁目２番３号－１Ｆ,,47,201,9000033,,,2022-04-06,合併による解散等,6011101055934,令和４年３月３１日東京都新宿区西新宿３－１－５新宿嘉泉ビル７Ｆ株式会社フロントライン（6011101055934）に合併し解散,2015-10-05,1,,,,,,0
327,1420001008230,登記記録の閉鎖等,0,2022-04-12,2022-04-05,長利木材株式会社,,株式会社,青森県,北津軽郡中泊町,大字中里字紅葉坂１５番地４,,02,387,0370305,,,2022-04-05,清算の結了等,,,2015-10-05,1,,,,,オサリモクザイ,0
328,1420001009294,登記記録の閉鎖等,0,2022-04-12,2022-04-05,東北銘板鋳造株式会社,,株式会社,青森県,弘前市,大字神田２丁目４番地２０,,02,202,0368061,,,2022-04-05,清算の結了等,,,2015-10-05,1,,,,,トウホクメイバンチュウゾウ,0
332,1420002017750,登記記録の閉鎖等,0,2022-04-12,2022-04-05,有限会社玉川金物店,,有限会社,青森県,三沢市,大町２丁目４番２号,,02,207,0330041,,,2022-04-05,清算の結了等,,,2015-10-05,1,,,,,,0
333,1420003001431,登記記録の閉鎖等,0,2022-04-12,2022-04-06,合同会社スマイル,,合同会社,青森県,八戸市,湊高台７丁目１番６号エミナースＦ号室,,02,203,0310823,,,2022-04-06,清算の結了等,,,2015-10-05,1,,,,,スマイル,0
337,1430001020977,登記記録の閉鎖等,0,2022-04-12,2022-04-01,株式会社日本庭園カルテイヴエイト,,株式会社,北海道,札幌市南区,藤野五条４丁目６番１２号,,01,106,0612285,,,2022-04-01,清算の結了等,,,2015-10-05,1,,,,,ニホンテイエンカルテイヴエイト,0
342,1470001006881,登記記録の閉鎖等,0,2022-04-12,2022-04-05,株式会社綾南プラザ,,株式会社,香川県,綾歌郡綾川町,滝宮１５７８番地,,37,387,7612305,,,2022-04-05,清算の結了等,,,2015-10-05,1,,,,,リョウナンプラザ,0
356,2010001081268,登記記録の閉鎖等,0,2022-04-12,2022-04-01,株式会社ふしいち,,株式会社,東京都,中央区,日本橋室町２丁目３番１号,,13,102,1030022,,,2022-04-01,合併による解散等,7010001053907,令和４年４月１日東京都中央区日本橋室町二丁目３番１号株式会社にんべん（7010001053907）に合併し解散,2015-10-05,1,,,,,フシイチ,0
376,2010005030155,登記記録の閉鎖等,0,2022-04-12,2022-04-05,ＮＰＯ法人キレイゴト,,その他の設立登記法人,東京都,千代田区,麹町３丁目７番地２４東急ドエル・グラフィオ麹町４０７号,,13,101,1020083,,,2022-04-05,清算の結了等,,,2019-05-21,1,,,,,キレイゴト,0
378,2010401084069,登記記録の閉鎖等,0,2022-04-12,2022-04-01,株式会社ティーガイアリテールサービス,,株式会社,東京都,渋谷区,恵比寿４丁目１番１８号,,13,113,1500013,,,2022-04-01,合併による解散等,5011001061661,令和４年４月１日東京都渋谷区恵比寿四丁目１番１８号株式会社ティーガイア（5011001061661）に合併し解散,2015-10-05,1,,,,,ティーガイアリテールサービス,0
380,2010401138238,登記記録の閉鎖等,0,2022-04-12,2022-04-01,株式会社ＴＨＥ　ＰＩＧ　ＡＮＤ　ＴＨＥ　ＬＡＤＹ　ＪＡＰＡＮ,,株式会社,東京都,渋谷区,恵比寿４丁目２０番４号,,13,113,1500013,,,2022-04-01,合併による解散等,5010401098363,令和４年４月１日東京都渋谷区恵比寿四丁目２０番４号株式会社トランジットジェネラルオフィス（5010401098363）に合併し解散,2018-05-09,1,,,,,ザピッグアンドザレディジャパン,0
411,2011205000022,登記記録の閉鎖等,0,2022-04-12,2022-04-06,一般財団法人地域生活研究所,,その他の設立登記法人,東京都,中野区,中央５丁目４１番１８号,,13,114,1640011,,,2022-04-06,合併による解散等,5010005014428,令和４年３月３１日東京都千代田区六番町１５番地、主婦会館プラザエフ内公益財団法人生協総合研究所（5010005014428）に合併し解散,2015-10-05,1,,,,,チイキセイカツケンキュウジョ,0
428,2013301014343,登記記録の閉鎖等,0,2022-04-12,2022-04-01,株式会社アップル住宅販売,,株式会社,東京都,豊島区,東池袋１丁目４４番１号,,13,116,1700013,,,2022-04-01,合併による解散等,4013301002882,令和４年４月１日東京都豊島区東池袋一丁目４４番１号株式会社シティランド・クロサワ（4013301002882）に合併し解散,2015-10-05,1,,,,,アップルジュウタクハンバイ,0
439,2020002003732,登記記録の閉鎖等,0,2022-04-12,2022-04-04,有限会社アキ・コーポレーション,,有限会社,神奈川県,横浜市緑区,鴨居２丁目２８番３号,,14,113,2260003,,,2022-04-04,清算の結了等,,,2015-10-05,1,,,,,アキコーポレーション,0
440,2020002050469,登記記録の閉鎖等,0,2022-04-12,2022-04-04,有限会社間宮重機,,有限会社,神奈川県,横浜市青葉区,あかね台２丁目１５番地１４,,14,117,2270066,,,2022-04-04,清算の結了等,,,2015-10-05,1,,,,,マミヤジュウキ,0
442,2020002068528,登記記録の閉鎖等,0,2022-04-12,2022-04-04,有限会社ＦＩＢＯＮＡＣＣＩ．ＣＯ,,有限会社,神奈川県,横浜市中区,池袋１０番地１,,14,104,2310834,,,2022-04-04,清算の結了等,,,2015-10-05,1,,,,,,0
464,2030005000131,登記記録の閉鎖等,0,2022-04-12,2022-03-28,天理教本宿分教会,,その他の設立登記法人,埼玉県,さいたま市中央区,上峰２丁目４番１号,,11,105,3380014,,,2022-03-28,合併による解散等,4010605000448,令和４年３月２３日東京都墨田区本所一丁目１３番１７号天理教東本大教会（4010605000448）に合併し解散,2015-10-05,1,,,,,,0
466,2040001018671,登記記録の閉鎖等,0,2022-04-12,2022-04-01,株式会社ホンダクリオ総武,,株式会社,千葉県,船橋市,北本町１丁目９番１号,,12,204,2730864,,,2022-04-01,合併による解散等,5040001027546,令和４年４月１日千葉県市川市鬼高四丁目８番８号株式会社ホンダベルノ市川（5040001027546）に合併し解散,2015-10-05,1,,,,,ホンダクリオソウブ,0
467,2040001072504,登記記録の閉鎖等,0,2022-04-12,2022-04-01,キッコーマン飲料株式会社,,株式会社,千葉県,野田市,野田２５０番地,,12,208,2780037,,,2022-04-01,合併による解散等,3040001072503,令和４年４月１日千葉県野田市野田２５０番地キッコーマン食品株式会社（3040001072503）に合併し解散,2015-10-05,1,,,,,キッコーマンインリョウ,0
473,2040005016102,登記記録の閉鎖等,0,2022-04-12,2022-03-14,天理教總國分教会,00021716,その他の設立登記法人,千葉県,いすみ市,大原９３２５番地,,12,238,2980004,,,2022-03-14,合併による解散等,5040005000879,令和４年３月１４日千葉市中央区椿森二丁目１番４号天理教南總分教会（5040005000879）に合併し解散,2015-10-05,1,,,,,,0
478,2050002031185,登記記録の閉鎖等,0,2022-04-12,2022-04-05,有限会社蛮蛮,,有限会社,茨城県,日立市,小木津町４丁目２２番１号,,08,202,3191413,,,2022-04-05,清算の結了等,,,2015-10-05,1,,,,,バンバン,0
497,2100001026305,登記記録の閉鎖等,0,2022-04-12,2022-04-06,株式会社大鹿里山市場,,株式会社,長野県,下伊那郡大鹿村,大字鹿塩３６４番地１,,20,417,3993501,,,2022-04-06,清算の結了等,,,2015-10-05,1,,,,,オオシカサトヤマイチバ,0
513,2120001100611,登記記録の閉鎖等,0,2022-04-12,2022-04-04,株式会社楠コーポレーション,,株式会社,大阪府,大阪市中央区,博労町３丁目１番３号タイガービル８０３号,,27,128,5410059,,,2022-04-04,清算の結了等,,,2015-10-05,1,,,,,,0
516,2120001113902,登記記録の閉鎖等,0,2022-04-12,2022-04-07,株式会社日本経営ソフト,,株式会社,大阪府,大阪市中央区,本町２丁目２番５号,,27,128,5410053,,,2022-04-07,合併による解散等,8010001126018,令和４年４月１日大阪府豊中市寺内二丁目１３番３号ＮＫＧＲコンサルティング株式会社（8010001126018）に合併し解散,2015-10-05,1,,,,,,0
519,2120001212464,登記記録の閉鎖等,0,2022-04-12,2022-04-05,株式会社ＬＩＮＤＡ　ＨＯＴＥＬ　ＳＹＳＴＥＭ,,株式会社,大阪府,大阪市北区,浮田１丁目１番８号,,27,127,5300021,,,2022-04-05,清算の結了等,,,2018-04-09,1,,,,,リンダホテルシステム,0
532,2120102016351,登記記録の閉鎖等,0,2022-04-12,2022-04-07,有限会社ウィン・ウィン,,有限会社,大阪府,堺市南区,片蔵８３３番地,,27,145,5900121,,,2022-04-07,清算の結了等,,,2015-10-05,1,,,,,ウィンウィン,0
535,2120901015710,登記記録の閉鎖等,0,2022-04-12,2022-04-08,株式会社Ｕｎｉｔｙ,,株式会社,大阪府,吹田市,垂水町３丁目８－２８,,27,205,5640062,,,2022-04-08,清算の結了等,,,2015-10-05,1,,,,,ユニティ,0
557,2170001002290,登記記録の閉鎖等,0,2022-04-12,2022-04-01,東洋機械加工株式会社,,株式会社,和歌山県,和歌山市,湊１８５０番地,,30,201,6408404,,,2022-04-01,合併による解散等,5170001005051,令和４年４月１日和歌山市湊二丁目１２番２４号株式会社湊組（5170001005051）に合併し解散,2015-10-05,1,,,,,トウヨウキカイカコウ,0
558,2170001009113,登記記録の閉鎖等,0,2022-04-12,2022-04-05,株式会社南海測地設計,,株式会社,和歌山県,西牟婁郡白浜町,椿６３８番地,,30,401,6492326,,,2022-04-05,清算の結了等,,,2015-10-05,1,,,,,,0
569,2180301004151,登記記録の閉鎖等,0,2022-04-12,2022-04-04,株式会社東興,,株式会社,愛知県,岡崎市,福岡町字村前２２番地１,,23,202,4440825,,,2022-04-04,清算の結了等,,,2015-10-05,1,,,,,トウコウ,0
577,2200001015116,登記記録の閉鎖等,0,2022-04-12,2022-04-11,株式会社養老不動産,,株式会社,岐阜県,養老郡養老町,鷲巣１１０１番地の２,,21,341,5031261,,,2022-04-11,清算の結了等,,,2015-10-05,1,,,,,ヨウロウフドウサン,0
579,2200001026237,登記記録の閉鎖等,0,2022-04-12,2022-04-11,株式会社エイコー,,株式会社,岐阜県,高山市,松之木町２８６０番地８,,21,203,5060802,,,2022-04-11,清算の結了等,,,2015-10-05,1,,,,,エイコー,0
593,2240002042527,登記記録の閉鎖等,0,2022-04-12,2022-04-06,有限会社平井文具,,有限会社,広島県,福山市,沖野上町２丁目４番２４号,,34,207,7200825,,,2022-04-06,清算の結了等,,,2015-10-05,1,,,,,ヒライブング,0
594,2240005001661,登記記録の閉鎖等,0,2022-04-12,2022-04-01,社会福祉法人広島市中区社会福祉協議会,,その他の設立登記法人,広島県,広島市中区,大手町４丁目１番１号,,34,101,7300051,,,2022-04-01,合併による解散等,5240005001650,令和４年４月１日広島市南区松原町５番１号社会福祉法人広島市社会福祉協議会（5240005001650）に合併し解散,2015-10-05,1,,,,,ヒロシマシナカクシャカイフクシキョウギカイ,0
603,2280002000019,登記記録の閉鎖等,0,2022-04-12,2022-04-07,有限会社青山,,有限会社,島根県,松江市,東本町１丁目７８番地,,32,201,6900842,,,2022-04-07,清算の結了等,,,2015-10-05,1,,,,,,0
625,2320005001042,登記記録の閉鎖等,0,2022-04-12,2022-03-28,天理教戸次分教会,,その他の設立登記法人,大分県,大分市,大字下戸次１６７４番地の１,,44,201,8797763,,,2022-03-28,合併による解散等,8320205000235,令和４年３月２８日大分県臼杵市大字福良１９５６番地天理教理豊分教会（8320205000235）に合併し解散,2015-10-05,1,,,,,,0
656,2400002010649,登記記録の閉鎖等,0,2022-04-12,2022-04-11,有限会社沢田屋新泉閣,,有限会社,岩手県,宮古市,黒田町７番２号,,03,202,0270085,,,2022-04-11,清算の結了等,,,2015-10-05,1,,,,,サワダヤシンセンカク,0
659,2410002005334,登記記録の閉鎖等,0,2022-04-12,2022-04-01,有限会社秋田旅行サービス,,有限会社,秋田県,秋田市,下北手桜字守沢４６番地の１,,05,201,0100058,,,2022-04-01,清算の結了等,,,2015-10-05,1,,,,,アキタリョコウサービス,0
662,2430001012049,登記記録の閉鎖等,0,2022-04-12,2022-04-01,ナイスリース株式会社,,株式会社,北海道,札幌市白石区,栄通１丁目３番６号,,01,104,0030021,,,2022-04-01,合併による解散等,7430001012044,令和４年４月１日札幌市白石区栄通一丁目３番６号ナイスサービス株式会社（7430001012044）に合併し解散,2015-10-05,1,,,,,ナイスリース,0
675,2470001014685,登記記録の閉鎖等,0,2022-04-12,2022-04-01,株式会社四国スマートハウス,,株式会社,香川県,観音寺市,豊浜町姫浜字大平木１４８４番地２,,37,205,7691601,,,2022-04-01,合併による解散等,7470001013947,令和４年４月１日香川県高松市林町１９６４番地１日本エネルギー総合システム株式会社（7470001013947）に合併し解散,2015-10-05,1,,,,,,0
794,3030001041847,登記記録の閉鎖等,0,2022-04-12,2022-04-04,東邦設備株式会社,,株式会社,埼玉県,上尾市,中分１丁目１８番地３９,,11,219,3620067,,,2022-04-04,清算の結了等,,,2015-10-05,1,,,,,トウホウセツビ,0
799,3030001127729,登記記録の閉鎖等,0,2022-04-12,2022-04-01,株式会社山正,,株式会社,埼玉県,上尾市,東町２丁目９番２０号,,11,219,3620031,,,2022-04-01,合併による解散等,6030001092004,令和４年４月１日埼玉県上尾市東町二丁目９番２０号株式会社ヤマショウフーズ（6030001092004）に合併し解散,2018-10-09,1,,,,,ヤマショウ,0
808,3030003014487,登記記録の閉鎖等,0,2022-04-12,2022-04-05,合同会社遊和クラブ,,合同会社,埼玉県,草加市,松原２丁目３番７ソライエ草加松原シティテラス２２２号室,,11,221,3400041,,,2022-04-05,清算の結了等,,,2019-12-10,1,,,,,ユウワクラブ,0
835,3060002037908,登記記録の閉鎖等,0,2022-04-12,2022-04-05,有限会社ツクイ,,有限会社,栃木県,足利市,山下町９８１番地１,,09,202,3260846,,,2022-04-05,清算の結了等,,,2015-10-05,1,,,,,ツクイ,0
838,3070001028163,登記記録の閉鎖等,0,2022-04-12,2022-04-01,株式会社ＭＳＥシステムズ,,株式会社,群馬県,みどり市,笠懸町阿左美３１５８番地７,,10,212,3792311,,,2022-04-01,清算の結了等,,,2015-10-05,1,,,,,エムエスイーシステムズ,0
839,3070002009534,登記記録の閉鎖等,0,2022-04-12,2022-04-04,有限会社清塚タイル工業,,有限会社,群馬県,高崎市,本郷町１９８３番地１,,10,202,3703334,,,2022-04-04,清算の結了等,,,2015-10-05,1,,,,,キヨヅカタイルコウギョウ,0
849,3100002035056,登記記録の閉鎖等,0,2022-04-12,2022-04-06,有限会社吉崎製作所,00069722,有限会社,長野県,上伊那郡箕輪町,大字中箕輪１０３２０番地１３,,20,383,3994601,,,2022-04-06,清算の結了等,,,2015-10-05,1,,,,,ヨシザキセイサクショ,0
859,3120001048750,登記記録の閉鎖等,0,2022-04-12,2022-04-04,日本ナイロツク株式会社,,株式会社,大阪府,大阪市西区,南堀江４丁目２７番１５号,,27,106,5500015,,,2022-04-04,清算の結了等,,,2015-10-05,1,,,,,ニホンナイロツク,0
871,3120101055572,登記記録の閉鎖等,0,2022-04-12,2022-04-06,株式会社ワカマツ,,株式会社,大阪府,堺市南区,庭代台２丁３番１５号,,27,145,5900133,,,2022-04-06,清算の結了等,,,2016-10-31,1,,,,,ワカマツ,0
874,3120102010618,登記記録の閉鎖等,0,2022-04-12,2022-04-07,有限会社天野テック,,有限会社,大阪府,堺市堺区,南陵町４丁１番１号,,27,141,5900811,,,2022-04-07,清算の結了等,,,2015-10-05,1,,,,,アマノテック,0
904,3170001000509,登記記録の閉鎖等,0,2022-04-12,2022-04-01,大阪精機工作株式会社,,株式会社,和歌山県,和歌山市,梶取３６番地,,30,201,6408411,,,2022-04-01,合併による解散等,5170001005051,令和４年４月１日和歌山市湊二丁目１２番２４号株式会社湊組（5170001005051）に合併し解散,2015-10-05,1,,,,,オオサカセイキコウサク,0
937,3240001016175,登記記録の閉鎖等,0,2022-04-12,2022-04-06,株式会社ホンダドリーム中四国,,株式会社,広島県,広島市南区,東雲３丁目５番１５号,,34,103,7340022,,,2022-04-06,合併による解散等,1011801020861,令和４年４月１日東京都葛飾区柴又二丁目２１番１１号株式会社ホンダドリームジャパン（1011801020861）に合併し解散,2015-10-05,1,,,,,ホンダドリームチュウシコク,0
942,3240005001660,登記記録の閉鎖等,0,2022-04-12,2022-04-01,社会福祉法人広島市西区社会福祉協議会,,その他の設立登記法人,広島県,広島市西区,福島町２丁目２４番１号,,34,104,7330024,,,2022-04-01,合併による解散等,5240005001650,令和４年４月１日広島市南区松原町５番１号社会福祉法人広島市社会福祉協議会（5240005001650）に合併し解散,2015-10-05,1,,,,,ヒロシマシニシクシャカイフクシキョウギカイ,0
967,3290801020181,登記記録の閉鎖等,0,2022-04-12,2022-04-01,メディカルネットサービスホールディングス株式会社,,株式会社,福岡県,北九州市小倉北区,魚町３丁目２番１８号２階,,40,106,8020006,,,2022-04-01,合併による解散等,7290801007150,令和４年４月１日北九州市小倉北区京町三丁目７番１－２００７号メディカルネットサービス株式会社（7290801007150）に合併し解散,2015-10-05,1,,,,,メディカルネットサービスホールディングス,0
981,3340002009804,登記記録の閉鎖等,0,2022-04-12,2022-04-06,有限会社森田平司商店,,有限会社,鹿児島県,鹿児島市,下荒田１丁目４３番３７号,,46,201,8900056,,,2022-04-06,清算の結了等,,,2015-10-05,1,,,,,モリタヘイシショウテン,0
983,3340002022864,登記記録の閉鎖等,0,2022-04-12,2022-04-06,有限会社マスターズ・ワン,,有限会社,鹿児島県,出水市,上知識町７２５番地,,46,208,8990212,,,2022-04-06,清算の結了等,,,2015-10-05,1,,,,,マスターズワン,0
998,3380005006142,登記記録の閉鎖等,0,2022-04-12,2022-03-18,熊野神社,,その他の設立登記法人,福島県,いわき市,平字道匠小路６０番地,,07,204,9708026,,,2022-03-18,合併による解散等,4380005006091,令和４年３月１８日福島県いわき市平字八幡小路８４番地飯野八幡宮（4380005006091）に合併し解散,2015-10-05,1,,,,,クマノジンジャ,0
1010,3430005013356,登記記録の閉鎖等,0,2022-04-12,2022-04-01,特定非営利活動法人北海道動物ボランティア協議会,,その他の設立登記法人,北海道,余市郡余市町,黒川町９丁目６０番地１,,01,408,0460003,,,2022-04-01,清算の結了等,,,2018-03-30,1,,,,,ホッカイドウドウブツボランティアキョウギカイ,0
1014,3480001001995,登記記録の閉鎖等,0,2022-04-12,2022-04-11,文化商事株式会社,,株式会社,徳島県,徳島市,川内町上別宮南１９２番地５,,36,201,7710127,,,2022-04-11,清算の結了等,,,2015-10-05,1,,,,,,0
1020,4000020368652,登記記録の閉鎖等,0,2022-04-12,2022-03-31,板野西部青少年補導センター組合,,地方公共団体,徳島県,板野郡板野町,大寺字亀山西１６９－５町民センター内,,36,404,7790105,,,2022-03-31,その他の清算の結了等,,,2015-10-05,1,West Itano Youths Correctional Guidance Center Association,Tokushima,"169-5,Aza Kameyamanishi,Ootera, Itano cho,Itano gun",,イタノセイブセイショウネンホドウセンタークミアイ,0
1026,4010001197252,登記記録の閉鎖等,0,2022-04-12,2022-04-01,トキコホールディングス株式会社,,株式会社,神奈川県,横浜市鶴見区,鶴見中央３丁目９番２７号,,14,101,2300051,,,2022-04-01,合併による解散等,1020001033723,令和４年４月１日横浜市鶴見区鶴見中央三丁目９番２７号トキコシステムソリューションズ株式会社（1020001033723）に合併し解散,2018-12-19,1,,,,,トキコホールディングス,0
1034,4010005024799,登記記録の閉鎖等,0,2022-04-12,2022-04-05,ジニアスパートナーズ特定目的会社,,その他の設立登記法人,東京都,中央区,日本橋１丁目４番１号,,13,102,1030027,,,2022-04-05,清算の結了等,,,2016-01-04,1,,,,,ジニアスパートナーズ,0
1040,4010401126059,登記記録の閉鎖等,0,2022-04-12,2022-04-01,コミュニケーション・ブリッジ株式会社,,株式会社,東京都,千代田区,神田東松下町４１番地１,,13,101,1010042,,,2022-04-01,合併による解散等,3010001081135,令和４年４月１日東京都千代田区神田東松下町４１番地１アルファコム株式会社（3010001081135）に合併し解散,2016-07-27,1,,,,,コミュニケーションブリッジ,0
1043,4010401145224,登記記録の閉鎖等,0,2022-04-12,2022-04-04,株式会社皆の窓口,,株式会社,神奈川県,横浜市都筑区,荏田東３丁目１３番１１－３０３号,,14,118,2240006,,,2022-04-04,清算の結了等,,,2019-04-25,1,,,,,ミンナノマドグチ,0
1065,4011001115996,登記記録の閉鎖等,0,2022-04-12,2022-03-31,株式会社ＬＤＨ　ＡＳＩＡ,,株式会社,東京都,目黒区,東山１丁目２番２号,,13,110,1530043,,,2022-03-31,合併による解散等,5013201016536,令和４年３月３１日東京都目黒区東山一丁目２番２号株式会社ＬＤＨｍｕｓｉｃ＆ｐｕｂｌｉｓｈｉｎｇ（5013201016536）に合併し解散,2017-04-27,1,,,,,エルディーエイチアジア,0
1074,4011103005831,登記記録の閉鎖等,0,2022-04-12,2022-04-06,ＤＬ－ＯＮＥ合同会社,,合同会社,東京都,新宿区,歌舞伎町２丁目２７番８号アタミビル３０３,,13,104,1600021,,,2022-04-06,清算の結了等,,,2015-10-05,1,,,,,ディーエルワン,0
1083,4011602003559,登記記録の閉鎖等,0,2022-04-12,2022-04-07,有限会社小林パック,,有限会社,東京都,練馬区,谷原５丁目１番１４号,,13,120,1770032,,,2022-04-07,清算の結了等,,,2015-10-05,1,,,,,コバヤシパック,0
1084,4011602004937,登記記録の閉鎖等,0,2022-04-12,2022-04-08,有限会社下島衣料,,有限会社,東京都,練馬区,桜台５丁目３８番６号,,13,120,1760002,,,2022-04-08,清算の結了等,,,2015-10-05,1,,,,,シモジマイリョウ,0
1093,4012701001866,登記記録の閉鎖等,0,2022-04-12,2022-04-08,株式会社丸北,,株式会社,東京都,東村山市,本町３丁目１９番地１８,,13,213,1890014,,,2022-04-08,清算の結了等,,,2015-10-05,1,,,,,マルキタ,0
1097,4012802000817,登記記録の閉鎖等,0,2022-04-12,2022-04-01,有限会社興輝商事,,有限会社,東京都,立川市,曙町１丁目３２番６号,00059159,13,202,1900012,,,2022-04-01,合併による解散等,1012802002155,令和４年４月１日東京都立川市富士見町一丁目１２番４号立川昭和記念公園パーク・ホームズ１０６号株式会社興輝商事（1012802002155）に合併し解散,2015-10-05,1,,,,,コウキショウジ,0
1146,4050002026571,登記記録の閉鎖等,0,2022-04-12,2022-04-01,有限会社大福岡本ビル,,有限会社,茨城県,鹿嶋市,大字宮中字宮中野３８２４番地,,08,222,3140031,,,2022-04-01,清算の結了等,,,2015-10-05,1,,,,,ダイフクオカモトビル,0
1160,4080101003849,登記記録の閉鎖等,0,2022-04-12,2022-04-08,富士通ミッションクリティカルソフトウェア株式会社,,株式会社,静岡県,沼津市,宮本１４０番地,,22,203,4100301,,,2022-04-08,合併による解散等,1020001071491,令和４年４月１日川崎市中原区上小田中四丁目１番１号富士通株式会社（1020001071491）に合併し解散,2015-10-05,1,,,,,フジツウミッションクリティカルソフトウェア,0
1164,4090002011140,登記記録の閉鎖等,0,2022-04-12,2022-04-06,えのきや有限会社,,有限会社,山梨県,甲州市,塩山下於曽９０２番地,,19,213,4040043,,,2022-04-06,清算の結了等,,,2015-10-05,1,,,,,エノキヤ,0
1168,4110001020973,登記記録の閉鎖等,0,2022-04-12,2022-04-01,株式会社グリーンエース共和,,株式会社,新潟県,十日町市,高山３丁目７４５番地,,15,210,9480055,,,2022-04-01,合併による解散等,2110001021189,令和４年４月１日新潟県十日町市高山三丁目７４５番地新潟県南部青果株式会社（2110001021189）に合併し解散,2015-10-05,1,,,,,グリーンエースキョウワ,0
1195,4120102010617,登記記録の閉鎖等,0,2022-04-12,2022-04-07,有限会社ネイチャー・ユニオン,,有限会社,大阪府,堺市堺区,浅香山町３丁１０番１２号,,27,141,5900012,,,2022-04-07,清算の結了等,,,2015-10-05,1,,,,,ネイチャーユニオン,0
1222,4170001009747,登記記録の閉鎖等,0,2022-04-12,2022-04-01,株式会社アール・ヌーヴォー美術館,,株式会社,東京都,中央区,銀座６丁目５番１３号,,13,102,1040061,,,2022-04-01,合併による解散等,5013202008020,令和４年４月１日東京都中央区銀座六丁目５番１３号株式会社アモーチェ（5013202008020）に合併し解散,2015-10-05,1,,,,,アールヌーヴォービジュツカン,0
1226,4180001030108,登記記録の閉鎖等,0,2022-04-12,2022-04-01,栗山通産株式会社,,株式会社,愛知県,名古屋市中村区,向島町３丁目２６番地の５,,23,105,4530838,,,2022-04-01,清算の結了等,,,2015-10-05,1,,,,,クリヤマツウサン,0
1228,4180001061177,登記記録の閉鎖等,0,2022-04-12,2022-04-05,株式会社ドゥーブル,,株式会社,愛知県,名古屋市中区,丸の内１丁目１３番１１号,,23,106,4600002,,,2022-04-05,合併による解散等,8180001101648,令和４年４月１日名古屋市中区錦一丁目７番１５号株式会社エス・ワイ・トレード（8180001101648）に合併し解散,2015-10-05,1,,,,,ドゥーブル,0
1231,4180001083114,登記記録の閉鎖等,0,2022-04-12,2022-04-01,中部物流株式会社,,株式会社,愛知県,一宮市,猿海道１丁目３番４号,,23,203,4910838,,,2022-04-01,清算の結了等,,,2015-10-05,1,,,,,チュウブブツリュウ,0
1241,4180301016079,登記記録の閉鎖等,0,2022-04-12,2022-04-06,株式会社あミューズ,,株式会社,愛知県,刈谷市,半城土町大原１５７番地,,23,210,4480804,,,2022-04-06,合併による解散等,5010501004601,令和４年４月１日東京都台東区浅草三丁目２５番９号株式会社ｆｕｎｂｏｘ（5010501004601）に合併し解散,2015-10-05,1,,,,,アミューズ,0
1255,4210001018669,登記記録の閉鎖等,0,2022-04-12,2022-03-31,株式会社テラックス,,株式会社,福井県,福井市,松本４丁目６番１５号,,18,201,9100003,,,2022-03-31,清算の結了等,,,2021-11-01,1,,,,,テラックス,0
1269,4250001003989,登記記録の閉鎖等,0,2022-04-12,2022-04-04,船木観光株式会社,,株式会社,山口県,宇部市,大字船木９２番地,,35,202,7570216,,,2022-04-04,清算の結了等,,,2015-10-05,1,,,,,フナキカンコウ,0
1274,4260001008756,登記記録の閉鎖等,0,2022-04-12,2022-04-01,株式会社ウエニシ,,株式会社,岡山県,岡山市南区,西高崎９２番地１３,,33,104,7091204,,,2022-04-01,合併による解散等,7260001022110,令和４年４月１日岡山県玉野市築港五丁目７番３号株式会社瀬戸中央建設（7260001022110）に合併し解散,2015-10-05,1,,,,,ウエニシ,0
1284,4290001019973,登記記録の閉鎖等,0,2022-04-12,2022-04-07,株式会社レンタルシステム西日本,,株式会社,福岡県,福岡市博多区,博多駅前３丁目１９番５号,,40,132,8120011,,,2022-04-07,合併による解散等,6020001008241,令和４年４月１日川崎市川崎区南渡田町１番１号レンタルシステム株式会社（6020001008241）に合併し解散,2015-10-05,1,,,,,レンタルシステムニシニホン,0
1285,4290001038511,登記記録の閉鎖等,0,2022-04-12,2022-04-08,ビーオーケミカル株式会社,,株式会社,福岡県,糟屋郡粕屋町,長者原東３丁目１０番５号,,40,349,8112317,,,2022-04-08,合併による解散等,8010801017993,令和４年４月１日東京都港区芝一丁目６番１０号日塗化学株式会社（8010801017993）に合併し解散,2015-10-05,1,,,,,ビーオーケミカル,0
1331,4390002003347,登記記録の閉鎖等,0,2022-04-12,2022-04-04,有限会社森田運輸,,有限会社,山形県,東村山郡中山町,大字長崎３０８８番地の３,,06,302,9900401,,,2022-04-04,清算の結了等,,,2015-10-05,1,,,,,モリタウンユ,0
1332,4390002015334,登記記録の閉鎖等,0,2022-04-12,2022-04-04,有限会社三島木製材,,有限会社,山形県,西置賜郡小国町,大字栄町７８番地,,06,401,9991361,,,2022-04-04,清算の結了等,,,2015-10-05,1,,,,,ミシマキセイザイ,0
1351,4460302000425,登記記録の閉鎖等,0,2022-04-12,2022-04-11,有限会社技研工房タナカ,,有限会社,北海道,北見市,末広町３６６番地の７２,,01,208,0900826,,,2022-04-11,清算の結了等,,,2015-10-05,1,,,,,ギケンコウボウタナカ,0
1382,5010005025706,登記記録の閉鎖等,0,2022-04-12,2022-04-05,ＫＲＦ６５特定目的会社,,その他の設立登記法人,東京都,千代田区,内幸町２丁目１番６号,,13,101,1000011,,,2022-04-05,清算の結了等,,,2016-08-30,1,,,,,ケイアールエフシックスティファイブ,0
1391,5010401143978,登記記録の閉鎖等,0,2022-04-12,2022-03-31,ユナイテッドソリューションズ株式会社,,株式会社,東京都,港区,南青山３丁目１番３号スプライン青山東急ビル,,13,103,1070062,,,2022-03-31,合併による解散等,1010001098759,令和４年３月３１日東京都港区南青山三丁目１番３号スプライン青山東急ビルアウトルックコンサルティング株式会社（1010001098759）に合併し解散,2019-02-25,1,,,,,ユナイテッドソリューションズ,0
1403,5010602015712,登記記録の閉鎖等,0,2022-04-12,2022-04-04,有限会社緑や,,有限会社,東京都,多摩市,桜ヶ丘４丁目４５番地の９,,13,224,2060013,,,2022-04-04,清算の結了等,,,2015-10-05,1,,,,,ミドリヤ,0
1404,5010701004500,登記記録の閉鎖等,0,2022-04-12,2022-04-01,シモダトレーディング株式会社,,株式会社,大阪府,大阪市西淀川区,歌島３丁目３番６号,,27,113,5550021,,,2022-04-01,合併による解散等,4120001049731,令和４年４月１日大阪市西淀川区歌島三丁目３番６号下田工業株式会社（4120001049731）に合併し解散,2015-10-05,1,,,,,シモダトレーディング,0
1407,5010701036568,登記記録の閉鎖等,0,2022-04-12,2022-04-01,ＳＢバイオサイエンス株式会社,,株式会社,東京都,品川区,東品川２丁目５番８号,,13,109,1400002,,,2022-04-01,合併による解散等,9010701005073,令和４年４月１日東京都品川区東品川二丁目５番８号住友ベークライト株式会社（9010701005073）に合併し解散,2018-10-11,1,,,,,エスビーバイオサイエンス,0
1420,5011001107448,登記記録の閉鎖等,0,2022-04-12,2022-03-31,株式会社モーフ,,株式会社,東京都,目黒区,東山１丁目２番２号,,13,110,1530043,,,2022-03-31,合併による解散等,5013201016536,令和４年３月３１日東京都目黒区東山一丁目２番２号株式会社ＬＤＨｍｕｓｉｃ＆ｐｕｂｌｉｓｈｉｎｇ（5013201016536）に合併し解散,2015-10-05,1,,,,,モーフ,0
1426,5011001125945,登記記録の閉鎖等,0,2022-04-12,2022-04-01,株式会社セモア,,株式会社,東京都,目黒区,上目黒１丁目１０番２号,,13,110,1530051,,,2022-04-01,合併による解散等,3013201001564,令和４年４月１日東京都目黒区上目黒一丁目１０番２号株式会社カドリールインターナショナル（3013201001564）に合併し解散,2019-01-09,1,,,,,セモア,0
1427,5011001125961,登記記録の閉鎖等,0,2022-04-12,2022-03-31,ＳＴＡＲＫ　ＴＥＣＨ株式会社,,株式会社,東京都,港区,芝浦３丁目１３番３号,,13,103,1080023,,,2022-03-31,合併による解散等,7011001092969,令和４年３月３１日東京都港区芝浦三丁目１３番３号株式会社ＭＵＳＵＢＵ（7011001092969）に合併し解散,2019-01-18,1,,,,,スタークテック,0
1449,5011301004428,登記記録の閉鎖等,0,2022-04-12,2022-04-08,コムシスエンジニアリング株式会社,,株式会社,東京都,港区,港南５丁目４番３０号,,13,103,1080075,,,2022-04-08,合併による解散等,9030001023162,令和４年４月１日埼玉県戸田市美女木北二丁目１１番地の７コムシスエンジニアリング株式会社（9030001023162）に合併し解散,2015-10-05,1,,,,,コムシスエンジニアリング,0
1450,5011302006704,登記記録の閉鎖等,0,2022-04-12,2022-04-08,有限会社ナイトフッド,,有限会社,東京都,小平市,上水新町２丁目２８番９号,,13,211,1870023,,,2022-04-08,清算の結了等,,,2015-10-05,1,,,,,ナイトフッド,0
1457,5011602003054,登記記録の閉鎖等,0,2022-04-12,2022-04-08,有限会社共生舎,,有限会社,東京都,練馬区,大泉町２丁目２１番９号,,13,120,1780062,,,2022-04-08,合併による解散等,5010001123496,令和４年４月１日東京都世田谷区代沢五丁目２番１号株式会社ファーマみらい（5010001123496）に合併し解散,2015-10-05,1,,,,,キョウセイシャ,0
1473,5013405000947,登記記録の閉鎖等,0,2022-04-12,2022-04-04,特定非営利活動法人はっぴーらいふ,,その他の設立登記法人,東京都,日野市,豊田４丁目４３番地の６玉藻荘２０２号室,,13,212,1910053,,,2022-04-04,清算の結了等,,,2015-10-05,1,,,,,,0
1475,5020001063394,登記記録の閉鎖等,0,2022-04-12,2022-04-04,株式会社アクアエンジ,,株式会社,神奈川県,横浜市中区,相生町６丁目１０２番地,,14,104,2310012,,,2022-04-04,清算の結了等,,,2015-10-05,1,,,,,アクアエンジ,0
1496,5030001097169,登記記録の閉鎖等,0,2022-04-12,2022-04-01,株式会社光商事,,株式会社,埼玉県,春日部市,粕壁７００９番地６,,11,214,3440061,,,2022-04-01,合併による解散等,9030001051287,令和４年４月１日埼玉県春日部市粕壁７００９番地６株式会社光商事（9030001051287）に合併し解散,2015-10-05,1,,,,,ヒカリショウジ,0
1499,5030002028040,登記記録の閉鎖等,0,2022-04-12,2022-04-04,有限会社旭シート商会,,有限会社,埼玉県,所沢市,元町２５番１８号,,11,208,3591121,,,2022-04-04,清算の結了等,,,2015-10-05,1,,,,,アサヒシートショウカイ,0
1500,5030002047263,登記記録の閉鎖等,0,2022-04-12,2022-04-08,有限会社関根電設,,有限会社,埼玉県,八潮市,大字鶴ケ曽根１９０８番地４,,11,234,3400802,,,2022-04-08,清算の結了等,,,2015-10-05,1,,,,,セキネデンセツ,0
1512,5040005015638,登記記録の閉鎖等,0,2022-04-12,2022-03-31,鴨川食品協同組合,,その他の設立登記法人,千葉県,鴨川市,横渚３４３番地,,12,223,2960001,,,2022-03-31,清算の結了等,,,2015-10-05,1,,,,,カモガワショクヒン,0
1528,5060001011622,登記記録の閉鎖等,0,2022-04-12,2022-04-04,サン・ノーブル・ホーム株式会社,,株式会社,栃木県,那須郡那須町,大字高久甲４３００番地１,,09,407,3250001,,,2022-04-04,清算の結了等,,,2016-03-28,1,,,,,,0
1541,5080402021268,登記記録の閉鎖等,0,2022-04-12,2022-04-08,有限会社倉栄,,有限会社,静岡県,磐田市,中田１４４番地,,22,211,4380815,,,2022-04-08,清算の結了等,,,2015-10-05,1,,,,,ソウエイ,0
1544,5090002014539,登記記録の閉鎖等,0,2022-04-12,2022-04-06,有限会社ネイチャーイメージ,,有限会社,山梨県,北杜市,小淵沢町５５４５番地１,,19,209,4080044,,,2022-04-06,清算の結了等,,,2015-10-05,1,,,,,,0
1584,5120102023163,登記記録の閉鎖等,0,2022-04-12,2022-04-01,有限会社Ｌｅ　Ｐｅｒｅ,,有限会社,大阪府,岸和田市,新港町１６番地１,,27,202,5960012,,,2022-04-01,合併による解散等,1120101063131,令和４年４月１日大阪府泉佐野市長滝１８４１番地株式会社Ｌｅ　Ｐｅｒｅ（1120101063131）に合併し解散,2015-10-05,1,,,,,ルペール,0
1601,5140002010383,登記記録の閉鎖等,0,2022-04-12,2022-04-04,有限会社フットサービス,,有限会社,兵庫県,神戸市北区,筑紫が丘２丁目７番地の９,,28,109,6511212,,,2022-04-04,清算の結了等,,,2015-10-05,1,,,,,フットサービス,0
1610,5160001004806,登記記録の閉鎖等,0,2022-04-12,2022-04-08,日本スタッコ株式会社,,株式会社,滋賀県,湖南市,石部口３丁目１番１号,,25,211,5203114,,,2022-04-08,合併による解散等,9180001029938,令和４年４月１日名古屋市中区錦二丁目１９番２５号日本生命広小路ビル菊水化学工業株式会社（9180001029938）に合併し解散,2015-10-05,1,,,,,,0
1646,5230001009351,登記記録の閉鎖等,0,2022-04-12,2022-04-01,株式会社なぎさ交通,,株式会社,富山県,南砺市,岩屋２番地１,,16,210,9320203,,,2022-04-01,清算の結了等,,,2015-10-05,1,,,,,ナギサコウツウ,0
1650,5240001025463,登記記録の閉鎖等,0,2022-04-12,2022-04-06,株式会社喜遊,,株式会社,広島県,呉市,吉浦潭鼓町５番１８号,,34,202,7370843,,,2022-04-06,清算の結了等,,,2015-10-05,1,,,,,キユウ,0
1651,5240005001659,登記記録の閉鎖等,0,2022-04-12,2022-04-01,社会福祉法人広島市南区社会福祉協議会,,その他の設立登記法人,広島県,広島市南区,皆実町１丁目４番４６号,,34,103,7340007,,,2022-04-01,合併による解散等,5240005001650,令和４年４月１日広島市南区松原町５番１号社会福祉法人広島市社会福祉協議会（5240005001650）に合併し解散,2015-10-05,1,,,,,ヒロシマシミナミクシャカイフクシキョウギカイ,0
1660,5270005005260,登記記録の閉鎖等,0,2022-04-12,2022-03-29,特定非営利活動法人山陰エコライフ研究所,,その他の設立登記法人,鳥取県,鳥取市,南吉方３丁目１１０番地,,31,201,6800843,,,2022-03-29,清算の結了等,,,2017-01-12,1,,,,,サンインエコライフケンキュウショ,0
1673,5290801017309,登記記録の閉鎖等,0,2022-04-12,2022-04-01,北九州米酒流通センター株式会社,,株式会社,福岡県,北九州市小倉南区,大字志井９２５番地１,,40,107,8020985,,,2022-04-01,合併による解散等,4290801003549,令和４年４月１日北九州市小倉南区大字高津尾１２５番地２マルヨシ物産株式会社（4290801003549）に合併し解散,2015-10-05,1,,,,,キタキュウシュウコメサケリュウツウセンター,0
1697,5380001008966,登記記録の閉鎖等,0,2022-04-12,2022-04-08,株式会社ＭＡＲＵＷＡ　ＱＵＡＲＴＺ,,株式会社,福島県,田村郡三春町,大字熊耳字大平７番地１,,07,521,9637704,,,2022-04-08,合併による解散等,2180001079691,令和４年４月１日愛知県尾張旭市南本地ケ原町三丁目８３番地株式会社ＭＡＲＵＷＡ（2180001079691）に合併し解散,2015-10-05,1,,,,,マルワクオーツ,0
1698,5380001013198,登記記録の閉鎖等,0,2022-04-12,2022-04-04,株式会社綜合システム開発,,株式会社,大阪府,大阪市西区,西本町２丁目３番６号,,27,106,5500005,,,2022-04-04,清算の結了等,,,2015-10-05,1,,,,,,0
1706,5400001005746,登記記録の閉鎖等,0,2022-04-12,2022-04-07,東北日東工業株式会社,,株式会社,岩手県,花巻市,二枚橋第４地割３番地６,,03,205,0250312,,,2022-04-07,合併による解散等,9180001067905,令和４年４月１日愛知県長久手市蟹原２２０１番地日東工業株式会社（9180001067905）に合併し解散,2015-10-05,1,,,,,,0
1709,5420002008003,登記記録の閉鎖等,0,2022-04-12,2022-04-06,有限会社鳥谷建設,,有限会社,青森県,八戸市,大字沢里字二ツ屋３番地,,02,203,0391167,,,2022-04-06,清算の結了等,,,2015-10-05,1,,,,,トヤケンセツ,0
1720,5470001017157,登記記録の閉鎖等,0,2022-04-12,2022-04-01,株式会社ゼロカメ,,株式会社,香川県,高松市,林町２５３６番地１,,37,201,7610301,,,2022-04-01,合併による解散等,7470001013947,令和４年４月１日香川県高松市林町１９６４番地１日本エネルギー総合システム株式会社（7470001013947）に合併し解散,2018-11-12,1,,,,,ゼロカメ,0
1721,5490002000960,登記記録の閉鎖等,0,2022-04-12,2022-04-01,有限会社上森組,,有限会社,高知県,高知市,小石木町２２９番地,,39,201,7808032,,,2022-04-01,清算の結了等,,,2015-10-05,1,,,,,ウエモリグミ,0
1723,6010001140937,登記記録の閉鎖等,0,2022-04-12,2022-04-01,株式会社オークネット・セールスアンドサポート,,株式会社,東京都,港区,北青山２丁目５番８号,,13,103,1070061,,,2022-04-01,清算の結了等,,,2015-10-05,1,,,,,オークネットセールスアンドサポート,0
1725,6010001174175,登記記録の閉鎖等,0,2022-04-12,2022-04-01,板場ビジネスサービシズ株式会社,,株式会社,東京都,中央区,日本橋浜町２丁目５４番５号,,13,102,1030007,,,2022-04-01,合併による解散等,8010001152484,令和４年４月１日東京都中央区日本橋浜町二丁目５４番５－４Ａ号板場ビジネスコンサルタンツ株式会社（8010001152484）に合併し解散,2016-03-14,1,,,,,イタバビジネスサービシズ,0
1748,6010401012281,登記記録の閉鎖等,0,2022-04-12,2022-03-31,新栄印刷株式会社,,株式会社,東京都,港区,高輪１丁目２７番８号,,13,103,1080074,,,2022-03-31,清算の結了等,,,2015-10-05,1,,,,,シンエイインサツ,0
1751,6010401044894,登記記録の閉鎖等,0,2022-04-12,2022-04-07,ドクタープログラム株式会社,,株式会社,東京都,渋谷区,幡ヶ谷１丁目３４番１４号,,13,113,1510072,,,2022-04-07,合併による解散等,4013301006867,令和４年４月１日東京都豊島区高田三丁目２４番１号大正製薬株式会社（4013301006867）に合併し解散,2015-10-05,1,,,,,ドクタープログラム,0
1752,6010401086482,登記記録の閉鎖等,0,2022-04-12,2022-04-07,株式会社科学資料,,株式会社,東京都,板橋区,上板橋３丁目２３番１号,,13,119,1740076,,,2022-04-07,清算の結了等,,,2015-10-05,1,,,,,,0
1754,6010401099039,登記記録の閉鎖等,0,2022-04-12,2022-03-31,株式会社福岡グロースキャピタル,,株式会社,東京都,港区,赤坂２丁目１７番１２－２０３号,,13,103,1070052,,,2022-03-31,合併による解散等,8010401090350,令和４年３月３１日東京都港区赤坂二丁目１７番１２－２０３号株式会社東達朗事務所（8010401090350）に合併し解散,2015-10-05,1,,,,,フクオカグロースキャピタル,0
1777,6011001139713,登記記録の閉鎖等,0,2022-04-12,2022-03-22,株式会社インターコア,,株式会社,東京都,渋谷区,神宮前６丁目２３番４号桑野ビル２階,,13,113,1500001,,,2022-03-22,清算の結了等,,,2021-04-14,1,,,,,インターコア,0
1785,6011102011580,登記記録の閉鎖等,0,2022-04-12,2022-04-07,有限会社ペンハウス,,有限会社,東京都,新宿区,新小川町７番２３号,,13,104,1620814,,,2022-04-07,清算の結了等,,,2015-10-05,1,,,,,ペンハウス,0
1804,6012701000180,登記記録の閉鎖等,0,2022-04-12,2022-04-11,オネ工務株式会社,,株式会社,東京都,小平市,花小金井南町１丁目７番９号,,13,211,1870003,,,2022-04-11,清算の結了等,,,2015-10-05,1,,,,,オネコウム,0
1810,6020001032101,登記記録の閉鎖等,0,2022-04-12,2022-04-01,二ツ木株式会社,,株式会社,神奈川県,横浜市神奈川区,三ツ沢上町１番１３号,,14,102,2210856,,,2022-04-01,合併による解散等,2020001100852,令和４年４月１日川崎市川崎区田島町１番４号株式会社京浜総工（2020001100852）に合併し解散,2015-10-05,1,,,,,フタツギ,0
1816,6020003016259,登記記録の閉鎖等,0,2022-04-12,2022-04-04,ＰＡＺ．合同会社,,合同会社,神奈川県,横浜市港南区,丸山台４丁目４番３０－６０３号,,14,111,2330013,,,2022-04-04,清算の結了等,,,2019-06-24,1,,,,,パズ,0
1829,6030002019518,登記記録の閉鎖等,0,2022-04-12,2022-04-04,有限会社ＺＥＮ設備,,有限会社,埼玉県,さいたま市桜区,大字五関４５３番地２５,,11,106,3380815,,,2022-04-04,清算の結了等,,,2015-10-05,1,,,,,ゼンセツビ,0
1842,6060001022148,登記記録の閉鎖等,0,2022-04-12,2022-04-05,株式会社ＴＥＲＹ,,株式会社,栃木県,宇都宮市,双葉３丁目１６番１４号,,09,201,3210164,,,2022-04-05,清算の結了等,,,2015-10-05,1,,,,,テリー,0
1854,6080402001715,登記記録の閉鎖等,0,2022-04-12,2022-04-04,有限会社オオバモータープール,,有限会社,静岡県,浜松市西区,入野町８２８番地,,22,133,4328061,,,2022-04-04,清算の結了等,,,2015-10-05,1,,,,,オオバモータープール,0
1858,6090002015742,登記記録の閉鎖等,0,2022-04-12,2022-04-01,山梨食糧工業有限会社,,有限会社,山梨県,甲府市,住吉通り２８番地,,19,201,4000000,,,2022-04-01,清算の結了等,,,2022-02-24,1,,,,,ヤマナシショクリョウコウギョウ,0
1910,6160002014290,登記記録の閉鎖等,0,2022-04-12,2022-04-05,有限会社大栄水産,,有限会社,滋賀県,守山市,小浜町６８０番地２,,25,207,5240211,,,2022-04-05,清算の結了等,,,2015-10-05,1,,,,,,0
1911,6160002014729,登記記録の閉鎖等,0,2022-04-12,2022-04-05,キャスト・サービス有限会社,,有限会社,滋賀県,野洲市,栄２－８,,25,210,5202333,,,2022-04-05,清算の結了等,,,2015-10-05,1,,,,,キャストサービス,0
1924,6180002018819,登記記録の閉鎖等,0,2022-04-12,2022-03-31,有限会社内藤電気商会,,有限会社,愛知県,名古屋市中川区,百船町１４番１８号,,23,110,4540801,,,2022-03-31,清算の結了等,,,2015-10-05,1,,,,,ナイトウデンキショウカイ,0
1945,6260005008247,登記記録の閉鎖等,0,2022-04-12,2022-03-24,天理教高島分教会,,その他の設立登記法人,岡山県,玉野市,胸上１６９３番地,,33,204,7060305,,,2022-03-24,合併による解散等,5260005000659,令和４年３月２４日岡山市北区中仙道一丁目２０番２７号天理教南岡分教会（5260005000659）に合併し解散,2015-10-05,1,,,,,テンリキョウタカシマブンキョウカイ,0
1958,6290003007157,登記記録の閉鎖等,0,2022-04-12,2022-04-01,合同会社クローバー,,合同会社,福岡県,福岡市南区,塩原４丁目１０番２３－１号ＳＥＮＴ．ｂｌｄ３０２,,40,134,8150032,,,2022-04-01,清算の結了等,,,2017-04-17,1,,,,,クローバー,0
1962,6290801020179,登記記録の閉鎖等,0,2022-04-12,2022-04-01,メディカルネットサービスＫＮ株式会社,,株式会社,福岡県,北九州市小倉北区,魚町３丁目２番１８号２階,,40,106,8020006,,,2022-04-01,合併による解散等,7290801007150,令和４年４月１日北九州市小倉北区京町三丁目７番１－２００７号メディカルネットサービス株式会社（7290801007150）に合併し解散,2015-10-05,1,,,,,メディカルネットサービスケイエヌ,0
1964,6290802011326,登記記録の閉鎖等,0,2022-04-12,2022-04-04,有限会社カルク,,有限会社,福岡県,北九州市小倉北区,金鶏町６－１６－１０１号,,40,106,8030843,,,2022-04-04,清算の結了等,,,2015-10-05,1,,,,,,0
1972,6340001016344,登記記録の閉鎖等,0,2022-04-12,2022-03-22,株式会社アイビーソフト,,株式会社,鹿児島県,鹿児島市,山下町９番１号チャイムズビル７０１号室,,46,201,8920816,,,2022-03-22,合併による解散等,9340001006326,令和４年３月１日東京都港区芝二丁目２６番１１号ＫＱＲＭホールディングス株式会社（9340001006326）に合併し解散,2015-10-05,1,,,,,アイビーソフト,0
1976,6350002018198,登記記録の閉鎖等,0,2022-04-12,2022-04-05,有限会社徳永粘土瓦工業,,有限会社,宮崎県,西諸県郡高原町,大字西麓４４７番地,,45,361,8894412,,,2022-04-05,清算の結了等,,,2022-02-10,1,,,,,トクナガネンドカワラコウギョウ,0
1990,6400502000807,登記記録の閉鎖等,0,2022-04-12,2022-04-11,有限会社峰岸ファーム,,有限会社,岩手県,西磐井郡平泉町,平泉字南沖１２番地１,,03,402,0294102,,,2022-04-11,清算の結了等,,,2015-10-05,1,,,,,,0
2002,6430005005549,登記記録の閉鎖等,0,2022-04-12,2022-04-01,特定非営利活動法人ほっかいどう若者就労支援訓練センター,,その他の設立登記法人,北海道,札幌市西区,西野八条４丁目２０番８号,,01,107,0630038,,,2022-04-01,清算の結了等,,,2015-10-05,1,,,,,ホッカイドウワカモノシュウロウシエンクンレンセンター,0
2015,6480005005197,登記記録の閉鎖等,0,2022-04-12,2022-03-24,白人神社,,その他の設立登記法人,徳島県,美馬市,脇町字東赤谷１４５４番地,,36,207,7793600,,,2022-03-24,合併による解散等,2480005005192,徳島県美馬市脇町字東赤谷名６８８番地左王神社（2480005005192）に合併し解散,2015-10-05,1,,,,,シラヒトジンジャ,0
2028,7010001193918,登記記録の閉鎖等,0,2022-04-12,2022-04-01,株式会社Ｍｏｎｏｐｏｓ,,株式会社,東京都,文京区,水道１丁目３番３号,,13,105,1120005,,,2022-04-01,清算の結了等,,,2018-08-17,1,,,,,モノポス,0
2038,7010005011803,登記記録の閉鎖等,0,2022-04-12,2022-04-04,一般社団法人アルカディア２号,,その他の設立登記法人,東京都,新宿区,歌舞伎町２丁目２５番８号,,13,104,1600021,,,2022-04-04,清算の結了等,,,2015-10-05,1,,,,,アルカディアニゴウ,0
2058,7010501042244,登記記録の閉鎖等,0,2022-04-12,2022-04-08,ＱＦＭ株式会社,,株式会社,東京都,台東区,上野２丁目１１番１０号,,13,106,1100005,,,2022-04-08,清算の結了等,,,2018-02-27,1,,,,,キュウエフエム,0
2068,7010901019453,登記記録の閉鎖等,0,2022-04-12,2022-04-01,株式会社デイズジャパン,,株式会社,東京都,世田谷区,松原１丁目３７番１９号,,13,112,1560043,,,2022-04-01,清算の結了等,,,2015-10-05,1,,,,,デイズジャパン,0
2111,7013402000618,登記記録の閉鎖等,0,2022-04-12,2022-04-04,有限会社三芝,,有限会社,東京都,日野市,日野本町３丁目５番地の７,,13,212,1910011,,,2022-04-04,清算の結了等,,,2015-10-05,1,,,,,サンシバ,0
2112,7020001075108,登記記録の閉鎖等,0,2022-04-12,2022-04-08,オリンパスロジテックス株式会社,,株式会社,神奈川県,相模原市南区,麻溝台１丁目１３番１号,,14,153,2520328,,,2022-04-08,合併による解散等,5011001005222,令和４年４月１日東京都八王子市石川町２９５１番地オリンパス株式会社（5011001005222）に合併し解散,2015-10-05,1,,,,,オリンパスロジテックス,0
2114,7020001099866,登記記録の閉鎖等,0,2022-04-12,2022-04-06,横浜トナー株式会社,,株式会社,東京都,新宿区,西新宿１丁目２２番２号,,13,104,1600023,,,2022-04-06,合併による解散等,9011001044381,令和４年４月１日東京都新宿区西新宿一丁目２２番２号株式会社キュリエ（9011001044381）に合併し解散,2015-10-05,1,,,,,ヨコハマトナー,0
2123,7020003020433,登記記録の閉鎖等,0,2022-04-12,2022-04-07,合同会社三和本橋鉄工運輸,,合同会社,神奈川県,川崎市川崎区,藤崎３丁目５番１号,,14,131,2100804,,,2022-04-07,合併による解散等,5110001024536,令和４年４月１日新潟県長岡市寺泊北曽根２１８３番地１本橋鉄工運輸株式会社（5110001024536）に合併し解散,2021-09-06,1,,,,,サンワモトハシテッコウウンユ,0
2124,7021001041132,登記記録の閉鎖等,0,2022-04-12,2022-04-05,株式会社マルチ,,株式会社,神奈川県,横須賀市,内川１丁目７番１号,,14,201,2390836,,,2022-04-05,清算の結了等,,,2015-10-05,1,,,,,マルチ,0
2138,7030002030762,登記記録の閉鎖等,0,2022-04-12,2022-04-06,有限会社チップス,,有限会社,東京都,新宿区,西新宿１丁目２２番２号,,13,104,1600023,,,2022-04-06,合併による解散等,9011001044381,令和４年４月１日東京都新宿区西新宿一丁目２２番２号株式会社キュリエ（9011001044381）に合併し解散,2015-10-05,1,,,,,チップス,0
2139,7030002051981,登記記録の閉鎖等,0,2022-04-12,2022-04-05,有限会社ワン・リードケミカル,,有限会社,埼玉県,草加市,瀬崎５丁目５０番３号,,11,221,3400022,,,2022-04-05,清算の結了等,,,2015-10-05,1,,,,,ワンリードケミカル,0
2171,7080101012624,登記記録の閉鎖等,0,2022-04-12,2022-04-06,株式会社柏屋,,株式会社,静岡県,熱海市,和田浜南町７番４７号,,22,205,4130023,,,2022-04-06,清算の結了等,,,2015-10-05,1,,,,,カシワヤ,0
2186,7110001008074,登記記録の閉鎖等,0,2022-04-12,2022-04-07,株式会社レンタルシステム信越,,株式会社,新潟県,新潟市西蒲区,打越字沼乙１８６番地６,,15,108,9501348,,,2022-04-07,合併による解散等,6020001008241,令和４年４月１日川崎市川崎区南渡田町１番１号レンタルシステム株式会社（6020001008241）に合併し解散,2015-10-05,1,,,,,レンタルシステムシンエツ,0
2214,7130001063290,登記記録の閉鎖等,0,2022-04-12,2022-03-30,株式会社ワイエスサポート,,株式会社,京都府,京都市伏見区,横大路天王前１番地１日光ハイツ第二棟３１１号,,26,109,6128294,,,2022-03-30,清算の結了等,,,2018-11-06,1,,,,,ワイエスサポート,0
2229,7140002006628,登記記録の閉鎖等,0,2022-04-12,2022-04-01,有限会社松下,,有限会社,兵庫県,神戸市垂水区,五色山２丁目３番３１号,,28,108,6550035,,,2022-04-01,合併による解散等,6140001038185,令和４年４月１日神戸市垂水区五色山二丁目３番３１号株式会社舞子松下（6140001038185）に合併し解散,2015-10-05,1,,,,,マツシタ,0
2239,7170002005404,登記記録の閉鎖等,0,2022-04-12,2022-04-04,有限会社エイチ・アンド・エム,,有限会社,和歌山県,和歌山市,匠町２５番地ポポロビル３Ｆ,,30,201,6408028,,,2022-04-04,清算の結了等,,,2015-10-05,1,,,,,エイチアンドエム,0
2262,7190001006624,登記記録の閉鎖等,0,2022-04-12,2022-04-04,株式会社呉服のひがしむら,,株式会社,三重県,松阪市,駅部田町６８２番地５,,24,204,5150045,,,2022-04-04,清算の結了等,,,2015-10-05,1,,,,,ゴフクノヒガシムラ,0
2279,7240005001657,登記記録の閉鎖等,0,2022-04-12,2022-04-01,社会福祉法人広島市安佐北区社会福祉協議会,,その他の設立登記法人,広島県,広島市安佐北区,可部３丁目１９番２２号,,34,106,7310221,,,2022-04-01,合併による解散等,5240005001650,令和４年４月１日広島市南区松原町５番１号社会福祉法人広島市社会福祉協議会（5240005001650）に合併し解散,2015-10-05,1,,,,,ヒロシマシアサキタクシャカイフクシキョウギカイ,0
2287,7260002002342,登記記録の閉鎖等,0,2022-04-12,2022-04-11,有限会社小野田美術店,,有限会社,岡山県,岡山市北区,西崎本町６番２３号,,33,101,7000056,,,2022-04-11,清算の結了等,,,2015-10-05,1,,,,,オノダビジュツテン,0
2304,7290802017594,登記記録の閉鎖等,0,2022-04-12,2022-04-01,有限会社プラザカンパニー,,有限会社,福岡県,中間市,岩瀬西町３０番１号,,40,215,8090041,,,2022-04-01,合併による解散等,9290801024400,令和４年４月１日福岡県中間市岩瀬西町３０番１号株式会社プラザエステート（9290801024400）に合併し解散,2015-10-05,1,,,,,プラザカンパニー,0
2314,7310005008141,登記記録の閉鎖等,0,2022-04-12,2022-04-05,一般社団法人コンディショニングバス協会,,その他の設立登記法人,長崎県,長崎市,万屋町２番２０号,,42,201,8500852,,,2022-04-05,清算の結了等,,,2017-10-13,1,,,,,コンディショニングバスキョウカイ,0
2330,7340002007498,登記記録の閉鎖等,0,2022-04-12,2022-04-06,有限会社丹羽不動産,,有限会社,鹿児島県,鹿児島市,城山２丁目３２番１３号,,46,201,8920813,,,2022-04-06,清算の結了等,,,2015-10-05,1,,,,,ニワフドウサン,0
2334,7370001010558,登記記録の閉鎖等,0,2022-04-12,2022-04-04,株式会社ヒューマン・リソース・コンサルティング,,株式会社,宮城県,仙台市青葉区,本町１丁目１２番７号三共仙台ビル５Ｆ,,04,101,9800014,,,2022-04-04,清算の結了等,,,2015-10-05,1,,,,,,0
2335,7370001013288,登記記録の閉鎖等,0,2022-04-12,2022-04-04,協和商事株式会社,,株式会社,宮城県,仙台市青葉区,国分町２丁目１０番６号,,04,101,9800803,,,2022-04-04,合併による解散等,2370001015818,令和４年４月１日仙台市青葉区角五郎一丁目１番１２号大晃商事株式会社（2370001015818）に合併し解散,2015-10-05,1,,,,,キョウワショウジ,0
2338,7370002012553,登記記録の閉鎖等,0,2022-04-12,2022-04-11,東新興業有限会社,,有限会社,宮城県,仙台市青葉区,栗生５丁目１４番地の４,,04,101,9893122,,,2022-04-11,合併による解散等,7400002007178,令和４年３月３１日岩手県紫波郡矢巾町大字煙山第１３地割１００番地４東新工業株式会社（7400002007178）に合併し解散,2015-10-05,1,,,,,,0
2348,7390001010283,登記記録の閉鎖等,0,2022-04-12,2022-04-04,株式会社タス,,株式会社,山形県,米沢市,万世町片子２３５番地の１３,,06,202,9921125,,,2022-04-04,清算の結了等,,,2015-10-05,1,,,,,タス,0
2376,8000020238546,登記記録の閉鎖等,0,2022-04-12,2022-03-31,尾張旭市長久手市衛生組合,,地方公共団体,愛知県,長久手市,上川原１－１,,23,238,4801132,,,2022-03-31,その他の清算の結了等,,,2015-10-05,1,Owariasahi City and Nagakute City Sanitation Association,Aichi,"kamikawahara1-1, Nagakute",,オワリアサヒシナガクテシエイセイクミアイ,0
2379,8010001135621,登記記録の閉鎖等,0,2022-04-12,2022-03-18,株式会社アイネクスト,,株式会社,東京都,豊島区,東池袋１丁目３０番６号セイコーサンシャインビルＸＩＩ８階,00118232,13,116,1700013,,,2022-03-18,合併による解散等,1013301036743,令和４年２月２８日東京都豊島区東池袋一丁目３０番６号セイコーサンシャインビルＸＩＩ８階株式会社ファイズホールディングス（1013301036743）に合併し解散,2015-10-05,1,,,,,アイネクスト,0
2387,8010003028385,登記記録の閉鎖等,0,2022-04-12,2022-04-01,合同会社とおとうみ１,,合同会社,東京都,千代田区,丸の内３丁目１番１号東京共同会計事務所内,,13,101,1000005,,,2022-04-01,清算の結了等,,,2018-10-01,1,,,,,トオトウミイチ,0
2388,8010003031496,登記記録の閉鎖等,0,2022-04-12,2022-04-01,合同会社伊勢１,,合同会社,東京都,中央区,日本橋１丁目４番１号日本橋一丁目ビルディング,,13,102,1030027,,,2022-04-01,清算の結了等,,,2020-01-24,1,,,,,イセイチ,0
2390,8010005008526,登記記録の閉鎖等,0,2022-04-12,2022-04-06,一般社団法人ＮＭロジスティクス,,その他の設立登記法人,東京都,千代田区,丸の内３丁目１番１号東京共同会計事務所内,,13,101,1000005,,,2022-04-06,清算の結了等,,,2015-10-05,1,,,,,エヌエムロジスティクス,0
2391,8010005032212,登記記録の閉鎖等,0,2022-04-12,2022-04-05,一般社団法人ＫＲＦ９４,,その他の設立登記法人,東京都,千代田区,内幸町２丁目１番６号,,13,101,1000011,,,2022-04-05,清算の結了等,,,2020-08-31,1,,,,,ケイアールエフナインティフォー,0
2414,8011001012182,登記記録の閉鎖等,0,2022-04-12,2022-04-01,株式会社清泉ファミリー,,株式会社,東京都,渋谷区,宇田川町３３番７号,,13,113,1500042,,,2022-04-01,合併による解散等,7011001138961,令和４年４月１日東京都渋谷区宇田川町３３番７号アイ・アンド・イー株式会社（7011001138961）に合併し解散,2015-10-05,1,,,,,セイセンファミリー,0
2417,8011001110762,登記記録の閉鎖等,0,2022-04-12,2022-03-31,株式会社ＬＤＨｐｉｃｔｕｒｅｓ,,株式会社,東京都,目黒区,東山１丁目２番２号,,13,110,1530043,,,2022-03-31,合併による解散等,5013201016536,令和４年３月３１日東京都目黒区東山一丁目２番２号株式会社ＬＤＨｍｕｓｉｃ＆ｐｕｂｌｉｓｈｉｎｇ（5013201016536）に合併し解散,2016-05-06,1,,,,,エルディーエイチピクチャーズ,0
2425,8011101061237,登記記録の閉鎖等,0,2022-04-12,2022-04-01,ネットワングローバル株式会社,,株式会社,京都府,京都市北区,衣笠街道町３１番地,,26,101,6038372,,,2022-04-01,清算の結了等,,,2015-10-05,1,,,,,ネットワングローバル,0
2433,8011602001889,登記記録の閉鎖等,0,2022-04-12,2022-04-07,大泉三幸建設有限会社,,有限会社,東京都,練馬区,西大泉６丁目１１番３４号,,13,120,1780065,,,2022-04-07,清算の結了等,,,2020-06-03,1,,,,,オオイズミサンコウ,0
2435,8011701004603,登記記録の閉鎖等,0,2022-04-12,2022-04-06,第一ハウジングセンター株式会社,,株式会社,東京都,江戸川区,南小岩５丁目１８番１０号第一コーポ２０８号,,13,123,1330056,,,2022-04-06,清算の結了等,,,2015-10-05,1,,,,,ダイイチハウジングセンター,0
2452,8020001008181,登記記録の閉鎖等,0,2022-04-12,2022-04-04,株式会社米本設計,,株式会社,神奈川県,横浜市戸塚区,深谷町９６５番地,,14,110,2450067,,,2022-04-04,清算の結了等,,,2015-10-05,1,,,,,ヨネモトセッケイ,0
2470,8030001102173,登記記録の閉鎖等,0,2022-04-12,2022-04-01,株式会社ヤマショウフードサービス,,株式会社,埼玉県,上尾市,東町２丁目９番２０号,,11,219,3620031,,,2022-04-01,合併による解散等,6030001092004,令和４年４月１日埼玉県上尾市東町二丁目９番２０号株式会社ヤマショウフーズ（6030001092004）に合併し解散,2015-10-05,1,,,,,ヤマショウフードサービス,0
2477,8040001069437,登記記録の閉鎖等,0,2022-04-12,2022-04-04,株式会社北匠,,株式会社,千葉県,柏市,今谷上町４５番地１８,,12,217,2770074,,,2022-04-04,清算の結了等,,,2015-10-05,1,,,,,ホクショウ,0
2486,8040005008119,登記記録の閉鎖等,0,2022-04-12,2022-03-14,天理教君岡分教会,,その他の設立登記法人,千葉県,木更津市,茅野６２３番地の１,,12,206,2920204,,,2022-03-14,合併による解散等,5040005000879,令和４年３月１４日千葉市中央区椿森二丁目１番４号天理教南總分教会（5040005000879）に合併し解散,2015-10-05,1,,,,,,0
2487,8040005008622,登記記録の閉鎖等,0,2022-04-12,2022-03-14,天理教長狹分教会,,その他の設立登記法人,千葉県,君津市,久留里市場１８４番地２,,12,225,2920421,,,2022-03-14,合併による解散等,5040005000879,令和４年３月１４日千葉市中央区椿森二丁目１番４号天理教南總分教会（5040005000879）に合併し解散,2015-10-05,1,,,,,,0
2536,8120103000877,登記記録の閉鎖等,0,2022-04-12,2022-04-05,大亦合同会社,,合同会社,大阪府,堺市北区,中長尾町２丁２番８号,,27,146,5918044,,,2022-04-05,清算の結了等,,,2015-10-05,1,,,,,オオマタ,0
2572,8150001013540,登記記録の閉鎖等,0,2022-04-12,2022-04-08,株式会社明成,,株式会社,奈良県,大和高田市,大字大谷４６８番地の８,,29,202,6350076,,,2022-04-08,合併による解散等,2120001021007,令和４年４月１日大阪市中央区備後町二丁目４番６号東洋テックビルサービス株式会社（2120001021007）に合併し解散,2015-10-05,1,,,,,メイセイ,0
2585,8180001110541,登記記録の閉鎖等,0,2022-04-12,2022-04-06,株式会社ジーユーテック,,株式会社,東京都,新宿区,西新宿１丁目２２番２号,,13,104,1600023,,,2022-04-06,合併による解散等,9011001044381,令和４年４月１日東京都新宿区西新宿一丁目２２番２号株式会社キュリエ（9011001044381）に合併し解散,2015-10-05,1,,,,,ジーユーテック,0
2607,8240002001915,登記記録の閉鎖等,0,2022-04-12,2022-04-06,有限会社ウッドマン・クラブ,,有限会社,広島県,広島市佐伯区,五月が丘２丁目９番１８号,,34,108,7315101,,,2022-04-06,清算の結了等,,,2015-10-05,1,,,,,ウッドマンクラブ,0
2610,8240005001656,登記記録の閉鎖等,0,2022-04-12,2022-04-01,社会福祉法人広島市安佐南区社会福祉協議会,,その他の設立登記法人,広島県,広島市安佐南区,中須１丁目３８番１３号,,34,105,7310121,,,2022-04-01,合併による解散等,5240005001650,令和４年４月１日広島市南区松原町５番１号社会福祉法人広島市社会福祉協議会（5240005001650）に合併し解散,2015-10-05,1,,,,,ヒロシマシアサミナミクシャカイフクシキョウギカイ,0
2619,8260003002695,登記記録の閉鎖等,0,2022-04-12,2022-04-07,合同会社サンエイ,,合同会社,岡山県,倉敷市,平田９３０番地３,,33,202,7100003,,,2022-04-07,清算の結了等,,,2018-11-01,1,,,,,サンエイ,0
2626,8290002056062,登記記録の閉鎖等,0,2022-04-12,2022-04-07,有限会社ホンダフレンドリー,,有限会社,福岡県,大牟田市,大字手鎌１５２６番地の６,,40,202,8360004,,,2022-04-07,合併による解散等,1300001004662,令和４年４月１日佐賀市巨勢町大字牛島２０４番地７株式会社ホンダカーズ中央佐賀（1300001004662）に合併し解散,2015-10-05,1,,,,,ホンダフレンドリー,0
2636,8310001001446,登記記録の閉鎖等,0,2022-04-12,2022-04-08,長崎ナブコ株式会社,,株式会社,長崎県,長崎市,戸石町２５４０番地９,,42,201,8510113,,,2022-04-08,合併による解散等,8290001006745,令和４年４月１日福岡市中央区舞鶴一丁目４番１９号オリエント産業株式会社（8290001006745）に合併し解散,2015-10-05,1,,,,,ナガサキナブコ,0
2641,8330001001576,登記記録の閉鎖等,0,2022-04-12,2022-04-08,熊本ナブコ株式会社,,株式会社,熊本県,熊本市東区,戸島５丁目１０番８９号,,43,102,8618041,,,2022-04-08,合併による解散等,8290001006745,令和４年４月１日福岡市中央区舞鶴一丁目４番１９号オリエント産業株式会社（8290001006745）に合併し解散,2015-10-05,1,,,,,クマモトナブコ,0
2699,8450001001903,登記記録の閉鎖等,0,2022-04-12,2022-04-11,株式会社長栄商事,,株式会社,北海道,旭川市,豊岡七条６丁目４番９号,,01,204,0788237,,,2022-04-11,清算の結了等,,,2015-10-05,1,,,,,チョウエイショウジ,0
2703,8450002008311,登記記録の閉鎖等,0,2022-04-12,2022-04-08,有限会社オフィスＣ＆Ｓ,,有限会社,北海道,旭川市,末広東一条１１丁目６番４号,,01,204,0718121,,,2022-04-08,清算の結了等,,,2015-10-05,1,,,,,オフィスシーアンドエス,0
2705,8470001015918,登記記録の閉鎖等,0,2022-04-12,2022-04-01,株式会社太陽光管理センター,,株式会社,香川県,高松市,林町１９６４番地１,,37,201,7610301,,,2022-04-01,合併による解散等,3470001014148,令和４年４月１日香川県高松市六条町１５９番地１日本エネルギー工事システム株式会社（3470001014148）に合併し解散,2016-10-07,1,,,,,タイヨウコウカンリセンター,0
2708,8480005005253,登記記録の閉鎖等,0,2022-04-12,2022-03-24,山神社,,その他の設立登記法人,徳島県,美馬市,脇町字東赤谷６９４番地,,36,207,7793600,,,2022-03-24,合併による解散等,2480005005192,徳島県美馬市脇町字東赤谷名６８８番地左王神社（2480005005192）に合併し解散,2015-10-05,1,,,,,ヤマジンジャ,0
2709,8480005005402,登記記録の閉鎖等,0,2022-04-12,2022-03-24,山神社,,その他の設立登記法人,徳島県,美馬市,脇町字東赤谷６５６番地,,36,207,7793600,,,2022-03-24,合併による解散等,2480005005192,徳島県美馬市脇町字東赤谷名６８８番地左王神社（2480005005192）に合併し解散,2015-10-05,1,,,,,ヤマジンジャ,0
2741,9010801020518,登記記録の閉鎖等,0,2022-04-12,2022-04-01,富士通トラベランス株式会社,,株式会社,神奈川県,川崎市中原区,上小田中４丁目１番１号,,14,133,2110053,,,2022-04-01,合併による解散等,2020001070096,令和４年４月１日川崎市中原区下小田中二丁目１２番５号富士通ホーム＆オフィスサービス株式会社（2020001070096）に合併し解散,2015-10-05,1,,,,,フジツウトラベランス,0
2762,9011401015057,登記記録の閉鎖等,0,2022-04-12,2022-04-07,株式会社シーエスケー,,株式会社,東京都,板橋区,宮本町２１－５,,13,119,1740054,,,2022-04-07,清算の結了等,,,2015-10-05,1,,,,,,0
2767,9011603002729,登記記録の閉鎖等,0,2022-04-12,2022-04-08,合同会社トーラス,,合同会社,東京都,練馬区,桜台５丁目３１番１９号,,13,120,1760002,,,2022-04-08,清算の結了等,,,2019-09-17,1,,,,,トーラス,0
2770,9011702003140,登記記録の閉鎖等,0,2022-04-12,2022-04-08,有限会社カワムラ・コーポレーション,,有限会社,東京都,江戸川区,平井５丁目１６番４号川村ビル３Ｆ,,13,123,1320035,,,2022-04-08,清算の結了等,,,2015-10-05,1,,,,,カワムラコーポレーション,0
2780,9013201017092,登記記録の閉鎖等,0,2022-04-12,2022-03-31,株式会社ｄａｎｃｅ　ｅａｒｔｈ,,株式会社,東京都,目黒区,東山１丁目２番２号,,13,110,1530043,,,2022-03-31,合併による解散等,5013201016536,令和４年３月３１日東京都目黒区東山一丁目２番２号株式会社ＬＤＨｍｕｓｉｃ＆ｐｕｂｌｉｓｈｉｎｇ（5013201016536）に合併し解散,2015-10-05,1,,,,,ダンスアース,0
2793,9030001008758,登記記録の閉鎖等,0,2022-04-12,2022-04-01,株式会社吉川園,,株式会社,埼玉県,さいたま市浦和区,大東３丁目３７番６号,,11,107,3300043,,,2022-04-01,清算の結了等,,,2015-10-05,1,,,,,ヨシカワエン,0
2803,9030001129975,登記記録の閉鎖等,0,2022-04-12,2022-04-05,勝宇株式会社,,株式会社,埼玉県,川口市,西川口１丁目３番１１号,,11,203,3320021,,,2022-04-05,清算の結了等,,,2019-03-15,1,,,,,ショウウ,0
2809,9030005012310,登記記録の閉鎖等,0,2022-04-12,2022-03-28,天理教本神森分教会,,その他の設立登記法人,埼玉県,川口市,青木５丁目１４番２５号,,11,203,3320031,,,2022-03-28,合併による解散等,4010605000448,令和４年３月２３日東京都墨田区本所一丁目１３番１７号天理教東本大教会（4010605000448）に合併し解散,2015-10-05,1,,,,,テンリキョウホンジンモリブンキョウカイ,0
2820,9040001082661,登記記録の閉鎖等,0,2022-04-12,2022-04-04,株式会社レイ．コーポレーション,,株式会社,千葉県,千葉市花見川区,花見川６番９棟１０６号,,12,102,2620046,,,2022-04-04,清算の結了等,,,2015-10-05,1,,,,,レイコーポレーション,0
2834,9040003014646,登記記録の閉鎖等,0,2022-04-12,2022-04-04,イエローゲイト合同会社,,合同会社,千葉県,柏市,富里３丁目１番６－１号,,12,217,2770081,,,2022-04-04,清算の結了等,,,2020-01-17,1,,,,,イエローゲイト,0
2876,9110002006026,登記記録の閉鎖等,0,2022-04-12,2022-04-04,有限会社本間新聞店,,有限会社,新潟県,新潟市西区,坂井８６４番地１,,15,107,9502042,,,2022-04-04,清算の結了等,,,2015-10-05,1,,,,,ホンマシンブンテン,0
2885,9120001082315,登記記録の閉鎖等,0,2022-04-12,2022-04-01,エス・アイ・シー株式会社,,株式会社,東京都,品川区,北品川５丁目９番１１号大崎ＭＴビル１４Ｆ,,13,109,1410001,,,2022-04-01,合併による解散等,5011101014503,令和４年４月１日東京都品川区北品川五丁目９番１１号ＮＤＩソリューションズ株式会社（5011101014503）に合併し解散,2015-10-05,1,,,,,エスアイシー,0
2890,9120001184508,登記記録の閉鎖等,0,2022-04-12,2022-04-08,株式会社フロンティア不動産販売,,株式会社,大阪府,堺市北区,百舌鳥梅町１丁１５番地２,,27,146,5918032,,,2022-04-08,合併による解散等,9120001177841,令和４年４月１日大阪府守口市南寺方東通二丁目１１番１号株式会社フロンティア不動産販売（9120001177841）に合併し解散,2015-10-05,1,,,,,フロンティアフドウサンハンバイ,0
2891,9120001217993,登記記録の閉鎖等,0,2022-04-12,2022-04-01,アマノコンサルティング株式会社,,株式会社,大阪府,大阪市北区,中津６丁目６番１１号,,27,127,5310071,,,2022-04-01,合併による解散等,2120001217232,令和４年４月１日大阪市北区中津六丁目６番１１号アマノホールディングス株式会社（2120001217232）に合併し解散,2018-12-25,1,,,,,アマノコンサルティング,0
2915,9130001038860,登記記録の閉鎖等,0,2022-04-12,2022-04-06,パナソニックデバイス日東株式会社,,株式会社,京都府,京田辺市,大住浜５５番１２,,26,211,6100343,,,2022-04-06,合併による解散等,5120001235594,令和４年４月１日大阪府門真市大字門真１００６番地パナソニックインダストリー株式会社（5120001235594）に合併し解散,2015-10-05,1,,,,,パナソニックデバイスニットウ,0
2926,9140001061829,登記記録の閉鎖等,0,2022-04-12,2022-04-01,株式会社ミノル製作所,,株式会社,兵庫県,姫路市,山吹２丁目１２番２１号,,28,201,6700085,,,2022-04-01,合併による解散等,3140002005360,令和４年４月１日神戸市西区高塚台三丁目１番５１株式会社山崎工作所（3140002005360）に合併し解散,2015-10-05,1,,,,,ミノルセイサクショ,0
2946,9180001093257,登記記録の閉鎖等,0,2022-04-12,2022-04-01,日本モザイクタイル株式会社,,株式会社,愛知県,常滑市,字椎田口５１番地,,23,216,4790036,,,2022-04-01,合併による解散等,7180001100023,令和４年４月１日愛知県常滑市字椎田口５１番地日本モザイク株式会社（7180001100023）に合併し解散,2015-10-05,1,,,,,ニホンモザイクタイル,0
2957,9180301035504,登記記録の閉鎖等,0,2022-04-12,2022-04-01,株式会社エアコンプラザ,,株式会社,愛知県,安城市,高棚町茨池９番地５,,23,212,4460053,,,2022-04-01,合併による解散等,2180301000209,令和４年４月１日愛知県岡崎市矢作町字猫田１０番地１株式会社アルクス（2180301000209）に合併し解散,2021-10-12,1,,,,,エアコンプラザ,0
2973,9210005009131,登記記録の閉鎖等,0,2022-04-12,2022-04-04,一般社団法人日本トレーダーコーチング協会,,その他の設立登記法人,福井県,福井市,高柳２丁目６０３,,18,201,9100837,,,2022-04-04,清算の結了等,,,2015-10-05,1,,,,,ニホントレーダーコーチングキョウカイ,0
2985,9240005001655,登記記録の閉鎖等,0,2022-04-12,2022-04-01,社会福祉法人広島市安芸区社会福祉協議会,,その他の設立登記法人,広島県,広島市安芸区,船越南３丁目２番１６号,,34,107,7360082,,,2022-04-01,合併による解散等,5240005001650,令和４年４月１日広島市南区松原町５番１号社会福祉法人広島市社会福祉協議会（5240005001650）に合併し解散,2015-10-05,1,,,,,ヒロシマシアキクシャカイフクシキョウギカイ,0
2987,9260001014163,登記記録の閉鎖等,0,2022-04-12,2022-03-31,株式会社土倉商事,,株式会社,岡山県,倉敷市,水江１５９９番地,,33,202,7100802,,,2022-03-31,合併による解散等,6260001014158,令和４年３月３１日岡山県倉敷市水江１５９９番地株式会社トクラ（6260001014158）に合併し解散,2015-10-05,1,,,,,トクラショウジ,0
2998,9290001020844,登記記録の閉鎖等,0,2022-04-12,2022-04-08,株式会社サン・プラザホーム,,株式会社,福岡県,福岡市南区,桧原７丁目５６番１７号,,40,134,8111355,,,2022-04-08,合併による解散等,8012701004700,令和４年４月１日東京都新宿区高田馬場三丁目４６番２５号アイディホーム株式会社（8012701004700）に合併し解散,2015-10-05,1,,,,,サンプラザホーム,0
3007,9300002001684,登記記録の閉鎖等,0,2022-04-12,2022-04-05,有限会社若楠建設,,有限会社,佐賀県,佐賀市,高木瀬町大字長瀬２４５番地,,41,201,8490917,,,2022-04-05,清算の結了等,,,2015-10-05,1,,,,,ワカクスケンセツ,0
3010,9320002004454,登記記録の閉鎖等,0,2022-04-12,2022-04-01,有限会社玉井トーヨー住器,,有限会社,大分県,大分市,大字中戸次４７７４番地の４,,44,201,8797761,,,2022-04-01,合併による解散等,1320001002474,令和４年４月１日大分市大字中戸次５１７０番地の３タマイＭ＆Ｓ株式会社（1320001002474）に合併し解散,2015-10-05,1,,,,,タマイトーヨージュウキ,0
3023,9380001020728,登記記録の閉鎖等,0,2022-04-12,2022-04-04,株式会社いわきツールテクノ,,株式会社,福島県,いわき市,平字愛谷町一丁目４番地の１０,,07,204,9708026,,,2022-04-04,清算の結了等,,,2015-10-05,1,,,,,イワキツールテクノ,0
3050,9480005005252,登記記録の閉鎖等,0,2022-04-12,2022-03-24,山神社,,その他の設立登記法人,徳島県,美馬市,脇町字東赤谷６８３番地,,36,207,7793600,,,2022-03-24,合併による解散等,2480005005192,徳島県美馬市脇町字東赤谷名６８８番地左王神社（2480005005192）に合併し解散,2015-10-05,1,,,,,ヤマジンジャ,0
3051,9500002002984,登記記録の閉鎖等,0,2022-04-12,2022-04-06,有限会社さくら経営社,,有限会社,愛媛県,松山市,日の出町７番８号,,38,201,7900961,,,2022-04-06,清算の結了等,,,2015-10-05,1,,,,,サクラケイエイシャ,0
