sequenceNumber,corporateNumber,process,correct,updateDate,changeDate,name,nameImageId,kind,prefectureName,cityName,streetNumber,addressImageId,prefectureCode,cityCode,postCode,addressOutside,addressOutsideImageId,closeDate,closeCause,successorCorporateNumber,changeCause,assignmentDate,latest,enName,enPrefectureName,enCityName,enAddressOutside,furigana,hihyoji
4,1010001112271,登記記録の閉鎖等,0,2025-04-17,2025-04-01,フォーサイトリスクマネジメント株式会社,,株式会社,東京都,千代田区,丸の内１丁目４番１号丸の内永楽ビルディング２５階,,13,101,1000005,,,2025-04-01,合併による解散等,6010001205203,令和７年４月１日東京都千代田区丸の内一丁目４番１号丸の内永楽ビルディングフォーサイトリスクマネジメント株式会社（6010001205203）に合併し解散,2015-10-05,1,,,,,フォーサイトリスクマネジメント,0
9,1010001188972,登記記録の閉鎖等,0,2025-04-17,2025-04-14,株式会社ＳＤＧｓ,,株式会社,東京都,千代田区,外神田３丁目１２番８号,,13,101,1010021,,,2025-04-14,合併による解散等,4010001018053,令和７年４月１日東京都千代田区外神田三丁目１２番８号株式会社サードウェーブ（4010001018053）に合併し解散,2018-01-18,1,,,,,エスディージーズ,0
11,1010001234132,登記記録の閉鎖等,0,2025-04-17,2025-04-07,株式会社イーウェルヘルスケアサービス,,株式会社,東京都,千代田区,紀尾井町３番６号,,13,101,1020094,,,2025-04-07,合併による解散等,3010001071045,令和７年４月１日東京都千代田区紀尾井町３番６号株式会社イーウェル（3010001071045）に合併し解散,2023-04-05,1,,,,,イーウェルヘルスケアサービス,0
16,1010005034652,登記記録の閉鎖等,0,2025-04-17,2025-04-09,一般社団法人ＴＲＮ２,,その他の設立登記法人,東京都,中央区,日本橋１丁目４番１号,,13,102,1030027,,,2025-04-09,清算の結了等,,,2022-03-02,1,,,,,ティーアールエヌツー,0
18,1010401145945,登記記録の閉鎖等,0,2025-04-17,2025-03-31,株式会社発想ノベルティ,,株式会社,東京都,港区,西麻布４丁目１番１－５０７号,,13,103,1060031,,,2025-03-31,清算の結了等,,,2019-06-05,1,,,,,ハッソウノベルティ,0
57,1011703002165,登記記録の閉鎖等,0,2025-04-17,2025-04-07,合同会社ＴＯＤＯ,,合同会社,東京都,江戸川区,南小岩７丁目３７番６号,,13,123,1330056,,,2025-04-07,清算の結了等,,,2019-01-09,1,,,,,トード,0
61,1011803002949,登記記録の閉鎖等,0,2025-04-17,2025-03-31,合同会社発想会議,,合同会社,東京都,港区,西麻布４丁目１番１号♯５０７,,13,103,1060031,,,2025-03-31,清算の結了等,,,2017-06-22,1,,,,,ハッソウカイギ,0
75,1021002060467,登記記録の閉鎖等,0,2025-04-17,2025-04-16,有限会社湘南キャドテック,,有限会社,神奈川県,中郡大磯町,国府本郷２７０番地１,,14,341,2590111,,,2025-04-16,清算の結了等,,,2015-10-05,1,,,,,ショウナンキャドテック,0
85,1030002090523,登記記録の閉鎖等,0,2025-04-17,2025-04-11,有限会社平間重量工事,,有限会社,埼玉県,吉川市,大字飯島２１７番地５,,11,243,3420025,,,2025-04-11,清算の結了等,,,2015-10-05,1,,,,,ヒラマジュウリョウコウジ,0
93,1040005004917,登記記録の閉鎖等,0,2025-04-17,2025-04-02,医療法人社団陽総会,,その他の設立登記法人,千葉県,浦安市,今川２丁目１５番３８号,,12,227,2790022,,,2025-04-02,清算の結了等,,,2015-10-05,1,,,,,ヨウソウカイ,0
105,1080402017220,登記記録の閉鎖等,0,2025-04-17,2025-04-16,有限会社大蔵園,,有限会社,静岡県,掛川市,各和９０１番地の４,,22,213,4360113,,,2025-04-16,清算の結了等,,,2015-10-05,1,,,,,,0
107,1100002019366,登記記録の閉鎖等,0,2025-04-17,2025-04-10,有限会社エス・ディー・エス長野,,有限会社,長野県,松本市,大字芳川野溝５２６番地１,,20,202,3990003,,,2025-04-10,清算の結了等,,,2015-10-05,1,,,,,エスディーエスナガノ,0
119,1120003012153,登記記録の閉鎖等,0,2025-04-17,2025-03-31,Ｌｏｏｐ合同会社,,合同会社,大阪府,大阪市生野区,巽北１丁目９番１４号,,27,116,5440004,,,2025-03-31,清算の結了等,,,2016-11-09,1,,,,,ループ,0
150,1180001123938,登記記録の閉鎖等,0,2025-04-17,2025-04-02,ＢＡＬＺＡＮＯ　ＪＡＰＡＮ株式会社,,株式会社,福岡県,太宰府市,大佐野３丁目１番１１号,,40,221,8180134,,,2025-04-02,清算の結了等,,,2016-07-05,1,,,,,バルザーノジャパン,0
162,1240001001071,登記記録の閉鎖等,0,2025-04-17,2025-04-10,株式会社ウエダユニフオーム,,株式会社,広島県,広島市安佐南区,安東４丁目４番２１－１９号,,34,105,7310153,,,2025-04-10,清算の結了等,,,2015-10-05,1,,,,,ウエダユニフォーム,0
166,1240002021077,登記記録の閉鎖等,0,2025-04-17,2025-04-11,有限会社マリモ商事,,有限会社,広島県,広島市東区,温品６丁目１１番１３号,,34,102,7320033,,,2025-04-11,清算の結了等,,,2015-10-05,1,,,,,マリモショウジ,0
171,1280002006371,登記記録の閉鎖等,0,2025-04-17,2025-04-16,有限会社千歳本店,,有限会社,島根県,出雲市,斐川町上直江１５９２番地,,32,203,6990624,,,2025-04-16,清算の結了等,,,2015-10-05,1,,,,,,0
175,1290001101131,登記記録の閉鎖等,0,2025-04-17,2025-04-02,株式会社ＭＨメディカル,,株式会社,福岡県,筑後市,大字蔵数５２１－７－１０８号,,40,211,8330054,,,2025-04-02,清算の結了等,,,2023-04-10,1,,,,,エムエイチメディカル,0
176,1290001101890,登記記録の閉鎖等,0,2025-04-17,2025-04-02,鴻博商事株式会社,,株式会社,福岡県,大野城市,上大利４丁目４番５４－２号,,40,219,8160955,,,2025-04-02,清算の結了等,,,2023-06-09,1,,,,,コウハクショウジ,0
193,1340002022998,登記記録の閉鎖等,0,2025-04-17,2025-04-15,有限会社山門建材工業,,有限会社,鹿児島県,出水市,下鯖町５０１番地,00099777,46,208,8990123,,,2025-04-15,清算の結了等,,,2015-10-05,1,,,,,ヤマカドケンザイコウギョウ,0
204,1380001012237,登記記録の閉鎖等,0,2025-04-17,2025-04-04,荒川商事株式会社,,株式会社,福島県,いわき市,平字八幡小路８番地の５,,07,204,9708026,,,2025-04-04,清算の結了等,,,2015-10-05,1,,,,,アラカワショウジ,0
217,1500001017280,登記記録の閉鎖等,0,2025-04-17,2025-04-10,株式会社マルタカ,,株式会社,愛媛県,今治市,朝倉上甲２４４２番地５９,,38,202,7991607,,,2025-04-10,清算の結了等,,,2015-10-05,1,,,,,マルタカ,0
228,2010003044611,登記記録の閉鎖等,0,2025-04-17,2025-04-01,Ｔｅｓｉｓ　Ｊａｐａｎ　Ａｉｒ　Ｃａｒｇｏ　Ａｇｅｎｃｙ合同会社,,合同会社,東京都,千代田区,五番町１２番地７－２０４３,,13,101,1020076,,,2025-04-01,清算の結了等,,,2024-08-16,1,,,,,テシスジャパンエアカーゴエージェンシー,0
234,2010401155753,登記記録の閉鎖等,0,2025-04-17,2025-03-28,ＯｒＣａｍ株式会社,,株式会社,東京都,港区,赤坂１丁目１１番４４号赤坂インターシティ５階Ｍａｚａｒｓ・Ｊａｐａｎ株式会社内,,13,103,1070052,,,2025-03-28,清算の結了等,,,2020-10-09,1,,,,,オーカム,0
235,2010401170694,登記記録の閉鎖等,0,2025-04-17,2025-04-01,株式会社Ｊ．ＵＲＢＡＮＴＯＵＣＨ　ＪＡＰＡＮ,,株式会社,東京都,新宿区,歌舞伎町２丁目４５番５－７１２号,,13,104,1600021,,,2025-04-01,清算の結了等,,,2022-11-08,1,,,,,ジェイアーバンタッチジャパン,0
243,2010403030211,登記記録の閉鎖等,0,2025-04-17,2025-03-27,天王洲ＰＪ合同会社,,合同会社,東京都,港区,六本木１丁目６番１号泉ガーデンタワー,,13,103,1060032,,,2025-03-27,清算の結了等,,,2023-05-31,1,,,,,テンノウズピージェイ,0
245,2010405014955,登記記録の閉鎖等,0,2025-04-17,2025-04-01,一般社団法人全国在宅リハビリ支援推進機構,,その他の設立登記法人,神奈川県,横浜市中区,山下町６０－１プライマリーナ山下公園グレーシアタワー７０６号,,14,104,2310023,,,2025-04-01,清算の結了等,,,2016-07-12,1,,,,,ゼンコクザイタクリハビリシエンスイシンキコウ,0
246,2010405021927,登記記録の閉鎖等,0,2025-04-17,2025-03-28,一般社団法人東所沢インベストメント,,その他の設立登記法人,東京都,港区,西新橋１丁目２番９号メンターキャピタル税理士法人内,,13,103,1050003,,,2025-03-28,清算の結了等,,,2023-03-15,1,,,,,ヒガシトコロザワインベストメント,0
250,2010701012506,登記記録の閉鎖等,0,2025-04-17,2025-03-31,株式会社ビーマックス,,株式会社,東京都,品川区,西五反田７丁目１７番１号,,13,109,1410031,,,2025-03-31,清算の結了等,,,2015-10-05,1,,,,,,0
254,2010801015870,登記記録の閉鎖等,0,2025-04-17,2025-04-04,株式会社アサヒアルミ,,株式会社,東京都,大田区,大森東３丁目２７番１９号,,13,111,1430012,,,2025-04-04,清算の結了等,,,2015-10-05,1,,,,,アサヒアルミ,0
268,2011101014084,登記記録の閉鎖等,0,2025-04-17,2025-04-11,東芝インフラシステムズ株式会社,,株式会社,神奈川県,川崎市幸区,堀川町７２番地３４,,14,132,2120013,,,2025-04-11,合併による解散等,2010401044997,令和７年４月１日東京都港区芝浦一丁目１番１号株式会社東芝（2010401044997）に合併し解散,2015-10-05,1,,,,,トウシバインフラシステムズ,0
283,2011802019720,登記記録の閉鎖等,0,2025-04-17,2025-04-14,有限会社ヤナジ理容院,,有限会社,東京都,足立区,鹿浜７丁目１番１号,,13,121,1230864,,,2025-04-14,清算の結了等,,,2015-10-05,1,,,,,ヤナジリヨウイン,0
293,2020001073875,登記記録の閉鎖等,0,2025-04-17,2025-04-14,東洋サービス株式会社,,株式会社,神奈川県,川崎市川崎区,田町１丁目１０番２号,,14,131,2100822,,,2025-04-14,合併による解散等,3010401007466,令和７年４月１日東京都港区浜松町二丁目１３番１４号関東総業株式会社（3010401007466）に合併し解散,2015-10-05,1,,,,,トウヨウサービス,0
298,2020002081654,登記記録の閉鎖等,0,2025-04-17,2025-04-08,有限会社花井酒店,,有限会社,神奈川県,川崎市幸区,小倉３丁目１７番２９号,,14,132,2120054,,,2025-04-08,清算の結了等,,,2015-10-05,1,,,,,ハナイサケテン,0
302,2021001039767,登記記録の閉鎖等,0,2025-04-17,2025-04-11,モーダスリンクジャパン株式会社,,株式会社,神奈川県,厚木市,長谷６番地１９,,14,212,2430036,,,2025-04-11,清算の結了等,,,2015-10-05,1,,,,,モーダスリンクジャパン,0
309,2030002021097,登記記録の閉鎖等,0,2025-04-17,2025-04-11,有限会社晃和建装,,有限会社,埼玉県,さいたま市岩槻区,仲町２丁目１０番１３号,,11,110,3390054,,,2025-04-11,清算の結了等,,,2015-10-05,1,,,,,コウワケンソウ,0
310,2030002107251,登記記録の閉鎖等,0,2025-04-17,2025-04-11,マロン商事有限会社,,有限会社,埼玉県,川口市,大字東本郷１４９２番地の６,,11,203,3340063,,,2025-04-11,清算の結了等,,,2015-10-05,1,,,,,マロンショウジ,0
318,2060001015064,登記記録の閉鎖等,0,2025-04-17,2025-04-08,株式会社高山高平商店,,株式会社,栃木県,下野市,石橋２４０番地２,,09,216,3290511,,,2025-04-08,清算の結了等,,,2015-10-05,1,,,,,タカヤマタカヘイショウテン,0
330,2080402015834,登記記録の閉鎖等,0,2025-04-17,2025-04-07,有限会社エム・ティー産業,,有限会社,静岡県,浜松市浜名区,細江町気賀３０５１番地の３,,22,139,4311305,,,2025-04-07,清算の結了等,,,2015-10-05,1,,,,,エムティーサンギョウ,0
350,2120002003276,登記記録の閉鎖等,0,2025-04-17,2025-04-14,有限会社センター薬局,,有限会社,大阪府,大阪市阿倍野区,旭町１丁目２番７あべのメディックス１１０号,,27,119,5450051,,,2025-04-14,合併による解散等,7430001069398,令和７年４月１日札幌市白石区東札幌五条二丁目４番３０号株式会社アインファーマシーズ（7430001069398）に合併し解散,2015-10-05,1,,,,,センターヤッキョク,0
383,2190001017683,登記記録の閉鎖等,0,2025-04-17,2025-04-08,株式会社ファーストステップ,,株式会社,三重県,四日市市,三栄町３－１５コバヤシビル３Ａ,,24,202,5100068,,,2025-04-08,合併による解散等,7120001035464,令和７年４月１日大阪市港区磯路一丁目６番１９号フジアルテ株式会社（7120001035464）に合併し解散,2015-10-05,1,,,,,ファーストステップ,0
386,2210001000414,登記記録の閉鎖等,0,2025-04-17,2025-04-14,エコー繊維株式会社,,株式会社,福井県,坂井市,春江町江留上緑１０番地１,,18,210,9190461,,,2025-04-14,清算の結了等,,,2015-10-05,1,,,,,エコーセンイ,0
403,2290001039610,登記記録の閉鎖等,0,2025-04-17,2025-04-09,株式会社協友商会,,株式会社,福岡県,糟屋郡宇美町,神武原１丁目８番６号,,40,341,8112129,,,2025-04-09,清算の結了等,,,2015-10-05,1,,,,,キョウユウショウカイ,0
406,2290001092601,登記記録の閉鎖等,0,2025-04-17,2025-04-02,ＭＩＣ貿易株式会社,,株式会社,福岡県,福岡市西区,姪の浜５丁目５番６号,,40,135,8190002,,,2025-04-02,清算の結了等,,,2021-04-09,1,,,,,ミックボウエキ,0
413,2290801007246,登記記録の閉鎖等,0,2025-04-17,2025-04-14,グローバルリード株式会社,,株式会社,福岡県,北九州市小倉北区,中島１丁目１８番２４号,,40,106,8020076,,,2025-04-14,合併による解散等,5290001024015,令和７年４月１日福岡市東区多の津四丁目１２番１１号ＩＮＧ株式会社（5290001024015）に合併し解散,2015-10-05,1,,,,,グローバルリード,0
428,2360001023978,登記記録の閉鎖等,0,2025-04-17,2025-04-04,株式会社アクア・グランド沖縄,,株式会社,沖縄県,那覇市,曙３丁目１１番２６号徳村ビル３０１,,47,201,9000002,,,2025-04-04,清算の結了等,,,2018-05-16,1,,,,,,0
430,2370002013119,登記記録の閉鎖等,0,2025-04-17,2025-04-04,有限会社ファッション・オリーブ,,有限会社,宮城県,仙台市青葉区,台原２丁目１番１０号,,04,101,9810911,,,2025-04-04,清算の結了等,,,2015-10-05,1,,,,,ファッションオリーブ,0
435,2380001008936,登記記録の閉鎖等,0,2025-04-17,2025-04-08,株式会社石の清陵,,株式会社,福島県,郡山市,町東３丁目１３７番地,,07,203,9638046,,,2025-04-08,清算の結了等,,,2015-10-05,1,,,,,イシノセイリョウ,0
441,2380005008635,登記記録の閉鎖等,0,2025-04-17,2025-04-04,医療法人芳生会,,その他の設立登記法人,福島県,会津若松市,町北町大字中沢字新田２７番１,,07,202,9650058,,,2025-04-04,清算の結了等,,,2015-10-05,1,,,,,ホウセイカイ,0
442,2410001000105,登記記録の閉鎖等,0,2025-04-17,2025-04-02,株式会社秋電,,株式会社,秋田県,秋田市,泉北１丁目６番５６号,,05,201,0100916,,,2025-04-02,合併による解散等,5400001000292,令和７年３月２１日岩手県盛岡市開運橋通４番１０号株式会社岩電（5400001000292）に合併し解散,2015-10-05,1,,,,,アキデン,0
444,2410005000043,登記記録の閉鎖等,0,2025-04-17,2025-04-04,秋田紙工材料商業協同組合,,その他の設立登記法人,秋田県,秋田市,大町４丁目３番３５号,,05,201,0100921,,,2025-04-04,清算の結了等,,,2015-10-05,1,,,,,アキタシコウザイリョウショウギョウ,0
451,2430005000743,登記記録の閉鎖等,0,2025-04-17,2025-04-01,学校法人成徳学園,,その他の設立登記法人,北海道,札幌市中央区,南十一条西８丁目２番４７号,,01,101,0640811,,,2025-04-01,合併による解散等,1430005000769,令和７年４月１日札幌市西区西野四条六丁目１１番１５号学校法人西野学園（1430005000769）に合併し解散,2015-10-05,1,,,,,セイトクガクエン,0
462,3010001129363,登記記録の閉鎖等,0,2025-04-17,2025-03-28,株式会社ダイナトレック・インテリジェンス,,株式会社,東京都,港区,六本木５丁目１１番１６号国際文化会館,,13,103,1060032,,,2025-03-28,清算の結了等,,,2015-10-05,1,,,,,ダイナトレックインテリジェンス,0
465,3010001223694,登記記録の閉鎖等,0,2025-04-17,2025-04-09,株式会社瀬戸内コンサルティングオフィス,,株式会社,埼玉県,さいたま市岩槻区,本町５丁目６番４０号,,11,110,3390057,,,2025-04-09,清算の結了等,,,2022-01-07,1,,,,,セトウチコンサルティングオフィス,0
468,3010005034717,登記記録の閉鎖等,0,2025-04-17,2025-04-09,ＴＲＮ２特定目的会社,,その他の設立登記法人,東京都,中央区,日本橋１丁目４番１号,,13,102,1030027,,,2025-04-09,清算の結了等,,,2022-03-14,1,,,,,ティーアールエヌツー,0
472,3010401080760,登記記録の閉鎖等,0,2025-04-17,2025-03-26,株式会社アラナミ,,株式会社,東京都,港区,白金２丁目５番１２号,,13,103,1080072,,,2025-03-26,清算の結了等,,,2015-10-05,1,,,,,アラナミ,0
483,3010503001549,登記記録の閉鎖等,0,2025-04-17,2025-04-03,合資会社鈴木ゴム加工所,,合資会社,東京都,台東区,根岸５丁目１１番２９号,,13,106,1100003,,,2025-04-03,清算の結了等,,,2015-10-05,1,,,,,スズキゴムカコウショ,0
487,3010702015077,登記記録の閉鎖等,0,2025-04-17,2025-03-31,有限会社大詔精機,,有限会社,東京都,品川区,荏原５丁目９番１３号,,13,109,1420063,,,2025-03-31,清算の結了等,,,2015-10-05,1,,,,,タイショウセイキ,0
489,3010901024003,登記記録の閉鎖等,0,2025-04-17,2025-04-11,Ｄｅｃｏｒａ　Ｅｓｔ株式会社,,株式会社,兵庫県,神戸市西区,玉津町小山５９０,,28,111,6512144,,,2025-04-11,清算の結了等,,,2015-10-05,1,,,,,デコラエスト,0
514,3011602022436,登記記録の閉鎖等,0,2025-04-17,2025-04-04,有限会社後藤建築監理サービス,,有限会社,東京都,練馬区,大泉学園町５丁目３１番１３号,,13,120,1780061,,,2025-04-04,清算の結了等,,,2015-10-05,1,,,,,ゴトウケンチクカンリサービス,0
529,3020001069278,登記記録の閉鎖等,0,2025-04-17,2025-04-08,株式会社上山住宅,,株式会社,神奈川県,川崎市中原区,下小田中４丁目１１番８号,,14,133,2110041,,,2025-04-08,清算の結了等,,,2015-10-05,1,,,,,ウエヤマジュウタク,0
541,3021002050111,登記記録の閉鎖等,0,2025-04-17,2025-04-16,有限会社武井商店,,有限会社,神奈川県,足柄下郡湯河原町,土肥１丁目９番地の２０,,14,384,2590303,,,2025-04-16,清算の結了等,,,2015-10-05,1,,,,,タケイショウテン,0
550,3030002011403,登記記録の閉鎖等,0,2025-04-17,2025-04-11,有限会社富士七,,有限会社,埼玉県,さいたま市南区,別所５丁目１８番３０号,,11,108,3360021,,,2025-04-11,清算の結了等,,,2015-10-05,1,,,,,フジシチ,0
552,3030003012268,登記記録の閉鎖等,0,2025-04-17,2025-04-10,合同会社ユーユー,,合同会社,埼玉県,川口市,東領家４丁目２番３号,,11,203,3320003,,,2025-04-10,清算の結了等,,,2018-08-06,1,,,,,ユーユー,0
558,3050001019395,登記記録の閉鎖等,0,2025-04-17,2025-04-03,三和匠食品株式会社,,株式会社,茨城県,古河市,尾崎２６４７番地の１,,08,204,3060101,,,2025-04-03,清算の結了等,,,2015-10-05,1,,,,,サンワタクミショクヒン,0
569,3080401025098,登記記録の閉鎖等,0,2025-04-17,2025-04-14,株式会社ＦＯＣ,,株式会社,大阪府,大阪市西区,江戸堀２丁目１番１号江戸堀センタービル９階,,27,106,5500002,,,2025-04-14,清算の結了等,,,2021-06-14,1,,,,,エフオーシー,0
595,3122001028732,登記記録の閉鎖等,0,2025-04-17,2025-04-10,株式会社辻ステンレスクリーニング,00034618,株式会社,大阪府,八尾市,南植松町５丁目１２９番地の９,,27,212,5810091,,,2025-04-10,清算の結了等,,,2015-10-05,1,,,,,ツジステンレスクリーニング,0
598,3122005000299,登記記録の閉鎖等,0,2025-04-17,2025-04-11,医療法人有元会,,その他の設立登記法人,大阪府,東大阪市,下小阪５丁目１２番８号ヴィラ・アルタイル１階,,27,227,5770803,,,2025-04-11,清算の結了等,,,2015-10-05,1,,,,,ユウゲンカイ,0
629,3200001023398,登記記録の閉鎖等,0,2025-04-17,2025-04-01,株式会社ソーワテクニカ,,株式会社,岐阜県,中津川市,茄子川中垣外１６４６番地の４５,,21,206,5099132,,,2025-04-01,合併による解散等,8200001023468,令和７年４月１日岐阜県中津川市手賀野３番地の１メルコエアテクノロジー株式会社（8200001023468）に合併し解散,2015-10-05,1,,,,,ソーワテクニカ,0
632,3200005003371,登記記録の閉鎖等,0,2025-04-17,2025-04-09,友愛時装協同組合,,その他の設立登記法人,岐阜県,瑞穂市,牛牧３７８番地１,,21,216,5010234,,,2025-04-09,清算の結了等,,,2015-10-05,1,,,,,ユウアイジソウ,0
634,3220003002910,登記記録の閉鎖等,0,2025-04-17,2025-04-14,合同会社金澤万力商店,,合同会社,石川県,金沢市,窪７丁目３６４番地,,17,201,9218151,,,2025-04-14,清算の結了等,,,2020-10-09,1,,,,,,0
649,3270002008573,登記記録の閉鎖等,0,2025-04-17,2025-04-14,有限会社真島商事,,有限会社,鳥取県,西伯郡大山町,末長２４３番地６,,31,386,6893332,,,2025-04-14,清算の結了等,,,2015-10-05,1,,,,,,0
651,3290001066380,登記記録の閉鎖等,0,2025-04-17,2025-04-15,株式会社福岡創信,,株式会社,福岡県,北九州市八幡西区,池田２丁目３番９号,,40,109,8071125,,,2025-04-15,合併による解散等,5290001103909,令和７年４月１日福岡県糟屋郡志免町東公園台二丁目９番１８号株式会社ＳＯＵＳＨＩＮ（5290001103909）に合併し解散,2015-10-05,1,,,,,フクオカソウシン,0
654,3290002044518,登記記録の閉鎖等,0,2025-04-17,2025-04-02,有限会社つる屋,,有限会社,福岡県,嘉麻市,牛隈字六反田２６６２番地の２９,,40,227,8200301,,,2025-04-02,清算の結了等,,,2015-10-05,1,,,,,ツルヤ,0
657,3300005002611,登記記録の閉鎖等,0,2025-04-17,2025-04-04,藤川内生産森林組合,,その他の設立登記法人,佐賀県,多久市,西多久町大字板屋７０２９番地３,,41,204,8460041,,,2025-04-04,清算の結了等,,,2015-10-05,1,,,,,フジノカワチ,0
668,3340005007680,登記記録の閉鎖等,0,2025-04-17,2025-04-11,特定非営利活動法人農業と建設業を結ぶ会,,その他の設立登記法人,鹿児島県,鹿児島市,紫原３丁目１３番２６号,,46,201,8900082,,,2025-04-11,清算の結了等,,,2015-10-05,1,,,,,ノウギョウトケンセツギョウヲムスブカイ,0
670,3370001006452,登記記録の閉鎖等,0,2025-04-17,2025-04-02,東北メールサービス株式会社,,株式会社,宮城県,仙台市宮城野区,扇町２丁目２番３６号,,04,102,9830034,,,2025-04-02,清算の結了等,,,2015-10-05,1,,,,,トウホクメールサービス,0
672,3380002011186,登記記録の閉鎖等,0,2025-04-17,2025-04-04,有限会社中川電機,,有限会社,福島県,郡山市,日和田町字蛇ケ森４８番１８,,07,203,9630534,,,2025-04-04,清算の結了等,,,2015-10-05,1,,,,,ナカガワデンキ,0
673,3380002014544,登記記録の閉鎖等,0,2025-04-17,2025-04-04,有限会社パーツセンターヤマト,,有限会社,福島県,郡山市,中町１５番２７号,,07,203,9638004,,,2025-04-04,清算の結了等,,,2015-10-05,1,,,,,パーツセンターヤマト,0
674,3380002026655,登記記録の閉鎖等,0,2025-04-17,2025-04-04,有限会社横山デザインハウス,,有限会社,福島県,いわき市,平上荒川字安草４８番地,,07,204,9708034,,,2025-04-04,清算の結了等,,,2015-10-05,1,,,,,ヨコヤマデザインハウス,0
677,3420001005837,登記記録の閉鎖等,0,2025-04-17,2025-04-15,株式会社小芝商事,,株式会社,青森県,八戸市,根城５丁目９番８号,,02,203,0391166,,,2025-04-15,清算の結了等,,,2015-10-05,1,,,,,コシバショウジ,0
678,3430002028217,登記記録の閉鎖等,0,2025-04-17,2025-04-07,セーブ・ヒーティング有限会社,,有限会社,北海道,札幌市手稲区,富丘三条７丁目５番２２号,,01,109,0060013,,,2025-04-07,清算の結了等,,,2015-10-05,1,,,,,セーブヒーティング,0
680,3430002065549,登記記録の閉鎖等,0,2025-04-17,2025-04-04,有限会社長谷部配管工業,,有限会社,北海道,登別市,鷲別町３丁目２９番地４,,01,230,0590034,,,2025-04-04,清算の結了等,,,2015-10-05,1,,,,,ハセベハイカンコウギョウ,0
689,3480001009188,登記記録の閉鎖等,0,2025-04-17,2025-04-09,グッドワンホーム株式会社,,株式会社,徳島県,徳島市,春日１丁目６番４２号,,36,201,7700002,,,2025-04-09,清算の結了等,,,2015-10-05,1,,,,,グッドワンホーム,0
692,3480003001770,登記記録の閉鎖等,0,2025-04-17,2025-04-10,合同会社さくら組,,合同会社,徳島県,徳島市,川内町竹須賀１６１番地,,36,201,7710141,,,2025-04-10,清算の結了等,,,2021-12-09,1,,,,,サクラグミ,0
699,4010001161992,登記記録の閉鎖等,0,2025-04-17,2025-04-01,株式会社ＪＯＬＥＤ,,株式会社,東京都,千代田区,丸の内１丁目１番３号,,13,101,1000005,,,2025-04-01,清算の結了等,,,2015-10-05,1,JOLED Inc.,,,,ジェイオーレッド,0
721,4010401185022,登記記録の閉鎖等,0,2025-04-17,2025-03-28,誠株式会社,,株式会社,東京都,港区,浜松町１丁目１４番１０－６０３号,,13,103,1050013,,,2025-03-28,清算の結了等,,,2024-09-10,1,,,,,マコト,0
734,4010601047757,登記記録の閉鎖等,0,2025-04-17,2025-04-04,ソントン株式会社,,株式会社,東京都,江東区,東陽６丁目３番２号,,13,108,1350016,,,2025-04-04,合併による解散等,5010001034818,令和７年４月１日東京都江東区東陽六丁目３番２号ソントン食品工業株式会社（5010001034818）に合併し解散,2015-10-05,1,,,,,ソントン,0
750,4011001106145,登記記録の閉鎖等,0,2025-04-17,2025-04-04,Ｏｕｒ　Ｐｈｏｔｏ株式会社,,株式会社,東京都,中央区,晴海３丁目１２番１号ＫＤＸ晴海ビル９Ｆ,,13,102,1040053,,,2025-04-04,合併による解散等,6010001096659,令和７年４月１日東京都中央区晴海三丁目１２番１号ＫＤＸ晴海ビル９Ｆ株式会社うるる（6010001096659）に合併し解散,2015-10-05,1,,,,,アワーフォト,0
754,4011003018586,登記記録の閉鎖等,0,2025-04-17,2025-03-19,Ｈａｃｏｚｙ合同会社,,合同会社,東京都,渋谷区,道玄坂１丁目１０番８号渋谷道玄坂東急ビル２Ｆ－Ｃ,,13,113,1500043,,,2025-03-19,清算の結了等,,,2024-03-14,1,,,,,ハコージー,0
761,4011303004749,登記記録の閉鎖等,0,2025-04-17,2025-03-31,合同会社すずか,,合同会社,東京都,新宿区,西新宿３丁目３番１３号西新宿水間ビル２Ｆ,,13,104,1600023,,,2025-03-31,清算の結了等,,,2023-05-11,1,,,,,スズカ,0
763,4011402001969,登記記録の閉鎖等,0,2025-04-17,2025-04-11,有限会社岡部工業所,,有限会社,東京都,板橋区,坂下３丁目８番５－５０３号,,13,119,1740043,,,2025-04-11,清算の結了等,,,2015-10-05,1,,,,,オカベコウギョウショ,0
792,4021001005164,登記記録の閉鎖等,0,2025-04-17,2025-04-01,関根商事株式会社,,株式会社,神奈川県,藤沢市,下土棚２３３番地の１,,14,205,2520807,,,2025-04-01,合併による解散等,8021001001878,令和７年４月１日神奈川県藤沢市下土棚２３３番地の１７富士関株式会社（8021001001878）に合併し解散,2015-10-05,1,,,,,セキネショウジ,0
808,4040001042389,登記記録の閉鎖等,0,2025-04-17,2025-04-04,株式会社ブレインフィード,,株式会社,東京都,中央区,晴海３丁目１２番１号ＫＤＸ晴海ビル９Ｆ,,13,102,1040053,,,2025-04-04,合併による解散等,6010001096659,令和７年４月１日東京都中央区晴海三丁目１２番１号ＫＤＸ晴海ビル９Ｆ株式会社うるる（6010001096659）に合併し解散,2015-10-05,1,,,,,ブレインフィード,0
830,4110002009322,登記記録の閉鎖等,0,2025-04-17,2025-04-07,有限会社ドットリビング,,有限会社,新潟県,新潟市東区,太平３丁目２７９番９,,15,102,9500005,,,2025-04-07,清算の結了等,,,2015-10-05,1,,,,,ドットリビング,0
838,4120001231446,登記記録の閉鎖等,0,2025-04-17,2025-04-15,株式会社ＴＭカンパニー,,株式会社,鳥取県,西伯郡日吉津村,大字富吉１０２０番地,,31,384,6893552,,,2025-04-15,清算の結了等,,,2020-09-04,1,,,,,ティーエムカンパニー,0
855,4122001022197,登記記録の閉鎖等,0,2025-04-17,2025-04-14,株式会社オフィス・なかがわ,,株式会社,大阪府,八尾市,陽光園２丁目５番４号,,27,212,5810086,,,2025-04-14,清算の結了等,,,2015-10-05,1,,,,,オフィスナカガワ,0
861,4140001018718,登記記録の閉鎖等,0,2025-04-17,2025-04-11,株式会社春名工務店,,株式会社,兵庫県,神戸市西区,伊川谷町有瀬６９６番地４７,,28,111,6512113,,,2025-04-11,清算の結了等,,,2015-10-05,1,,,,,ハルナコウムテン,0
872,4180001077677,登記記録の閉鎖等,0,2025-04-17,2025-04-09,株式会社メディカル,,株式会社,愛知県,名古屋市中村区,名駅５丁目４番１４号花車ビル北館８階,,23,105,4500002,,,2025-04-09,合併による解散等,6180001086164,令和７年４月１日名古屋市中村区名駅五丁目４番１４号花車ビル北館８階株式会社コスモス調剤（6180001086164）に合併し解散,2015-10-05,1,,,,,メディカル,0
876,4180002018671,登記記録の閉鎖等,0,2025-04-17,2025-04-08,有限会社ツルマル水産設備,,有限会社,愛知県,名古屋市中川区,大塩町３丁目６８番地１,,23,110,4540863,,,2025-04-08,清算の結了等,,,2015-10-05,1,,,,,ツルマルスイサンセツビ,0
882,4200001023579,登記記録の閉鎖等,0,2025-04-17,2025-04-01,株式会社メルコエアテック,,株式会社,岐阜県,中津川市,駒場５２６番地の２,,21,206,5080011,,,2025-04-01,合併による解散等,8200001023468,令和７年４月１日岐阜県中津川市手賀野３番地の１メルコエアテクノロジー株式会社（8200001023468）に合併し解散,2015-10-05,1,,,,,メルコエアテック,0
883,4200001039492,登記記録の閉鎖等,0,2025-04-17,2025-04-11,株式会社ｒｉｃо,,株式会社,岐阜県,各務原市,鵜沼東町６丁目７６番地１,,21,213,5090126,,,2025-04-11,清算の結了等,,,2021-12-03,1,,,,,リコ,0
885,4200005010706,登記記録の閉鎖等,0,2025-04-17,2025-04-08,金山教会,,その他の設立登記法人,岐阜県,下呂市,金山町金山７４８番地の１,,21,220,5091622,,,2025-04-08,清算の結了等,,,2015-10-05,1,,,,,,0
890,4230001012934,登記記録の閉鎖等,0,2025-04-17,2025-04-11,新湊商業開発株式会社,,株式会社,富山県,射水市,本町３丁目１２番地の２８,,16,211,9340011,,,2025-04-11,清算の結了等,,,2015-10-05,1,,,,,シンミナトショウギョウカイハツ,0
905,4290801012434,登記記録の閉鎖等,0,2025-04-17,2025-04-08,株式会社三橋パーツ,,株式会社,福岡県,北九州市若松区,響町１丁目６２番地２６,,40,103,8080021,,,2025-04-08,清算の結了等,,,2015-10-05,1,,,,,ミハシパーツ,0
918,4430002011964,登記記録の閉鎖等,0,2025-04-17,2025-04-04,有限会社高川ホームデザイン,00089074,有限会社,東京都,大田区,大森西１丁目１９－１７,,13,111,1430015,,,2025-04-04,清算の結了等,,,2015-10-05,1,,,,,タカガワホームデザイン,0
919,4430005013363,登記記録の閉鎖等,0,2025-04-17,2025-04-01,社会福祉法人すずらん福祉会,,その他の設立登記法人,北海道,札幌市南区,藤野二条１２丁目２０番１号,,01,106,0612282,,,2025-04-01,合併による解散等,5430005000583,令和７年４月１日札幌市中央区北三条西二十八丁目２番１号社会福祉法人渓仁会（5430005000583）に合併し解散,2018-03-30,1,,,,,スズランフクシカイ,0
921,4440002009041,登記記録の閉鎖等,0,2025-04-17,2025-04-10,有限会社ヒルトップファーム,,有限会社,北海道,久遠郡せたな町,北檜山区豊岡１１４番地の７,,01,371,0494514,,,2025-04-10,清算の結了等,,,2015-10-05,1,,,,,ヒルトップファーム,0
947,5010403026108,登記記録の閉鎖等,0,2025-04-17,2025-03-27,一宮木曽川ＰＪ２合同会社,,合同会社,東京都,港区,六本木１丁目６番１号泉ガーデンタワー,,13,103,1060032,,,2025-03-27,清算の結了等,,,2021-09-13,1,,,,,イチノミヤキソガワピージェイツー,0
950,5010601060841,登記記録の閉鎖等,0,2025-04-17,2025-04-07,株式会社Ｂ．ｃｏａｓｔ,,株式会社,東京都,葛飾区,新小岩３丁目８－１モンシェール新小岩１０２,,13,122,1240024,,,2025-04-07,清算の結了等,,,2022-03-17,1,,,,,ビーコースト,0
951,5010602018194,登記記録の閉鎖等,0,2025-04-17,2025-04-04,有限会社シンエツサービス,,有限会社,東京都,江東区,大島８丁目７番５号,,13,108,1360072,,,2025-04-04,清算の結了等,,,2015-10-05,1,,,,,,0
956,5010801012386,登記記録の閉鎖等,0,2025-04-17,2025-04-03,株式会社ユメコム,,株式会社,東京都,大田区,中馬込１丁目１６番７号,,13,111,1430027,,,2025-04-03,清算の結了等,,,2015-10-05,1,,,,,ユメコム,0
957,5010902005842,登記記録の閉鎖等,0,2025-04-17,2025-04-08,有限会社コウリュー商事,,有限会社,東京都,世田谷区,上野毛１丁目２８番１５号,,13,112,1580093,,,2025-04-08,清算の結了等,,,2015-10-05,1,,,,,コウリューショウジ,0
958,5011001008381,登記記録の閉鎖等,0,2025-04-17,2025-03-19,小山総合建設株式会社,,株式会社,東京都,渋谷区,本町６丁目１８番２号,,13,113,1510071,,,2025-03-19,清算の結了等,,,2015-10-05,1,,,,,コヤマソウゴウケンセツ,0
964,5011001161552,登記記録の閉鎖等,0,2025-04-17,2025-03-19,株式会社プラズマキャピタル,,株式会社,東京都,渋谷区,神宮前６丁目２３番４号桑野ビル２階,,13,113,1500001,,,2025-03-19,清算の結了等,,,2024-04-19,1,,,,,プラズマキャピタル,0
978,5011603003697,登記記録の閉鎖等,0,2025-04-17,2025-04-04,ＣＧコンサルティング合同会社,,合同会社,東京都,練馬区,高松５丁目２３－４ヴィーブル光が丘２０１号室,,13,120,1790075,,,2025-04-04,清算の結了等,,,2022-09-16,1,,,,,シージーコンサルティング,0
984,5011801001379,登記記録の閉鎖等,0,2025-04-17,2025-04-14,株式会社見城商店,,株式会社,東京都,葛飾区,堀切３丁目１４番９号,,13,122,1240006,,,2025-04-14,清算の結了等,,,2015-10-05,1,,,,,ケンジョウショウテン,0
988,5013101001530,登記記録の閉鎖等,0,2025-04-17,2025-04-10,北総電子工業株式会社,,株式会社,東京都,西多摩郡瑞穂町,箱根ケ崎東松原２０番地５,,13,303,1901222,,,2025-04-10,清算の結了等,,,2015-10-05,1,,,,,ホクソウデンシコウギョウ,0
1026,5030003019798,登記記録の閉鎖等,0,2025-04-17,2025-04-14,彩の国未来サポート合同会社,,合同会社,埼玉県,さいたま市大宮区,桜木町２丁目３番地,,11,103,3300854,,,2025-04-14,清算の結了等,,,2022-07-13,1,,,,,サイノクニミライサポート,0
1043,5120001036745,登記記録の閉鎖等,0,2025-04-17,2025-04-15,山崎紙工株式会社,,株式会社,大阪府,大阪市福島区,福島８丁目１７番１０号,,27,103,5530003,,,2025-04-15,清算の結了等,,,2015-10-05,1,,,,,ヤマサキシコウ,0
1057,5120102022264,登記記録の閉鎖等,0,2025-04-17,2025-04-10,有限会社サンメディカル,,有限会社,大阪府,岸和田市,上松町６１０番地の５４,,27,202,5960827,,,2025-04-10,清算の結了等,,,2015-10-05,1,,,,,サンメディカル,0
1069,5140002054835,登記記録の閉鎖等,0,2025-04-17,2025-04-11,有限会社ママノ店シバノ,,有限会社,兵庫県,三田市,西相野１０１４番地,,28,219,6691341,,,2025-04-11,清算の結了等,,,2015-10-05,1,,,,,ママノミセシバノ,0
1080,5180002023786,登記記録の閉鎖等,0,2025-04-17,2025-04-08,大松興産有限会社,,有限会社,愛知県,名古屋市西区,清里町２５１番地,,23,104,4520801,,,2025-04-08,清算の結了等,,,2015-10-05,1,,,,,ダイマツコウサン,0
1088,5240001030109,登記記録の閉鎖等,0,2025-04-17,2025-04-01,上杉技建工業株式会社,,株式会社,広島県,福山市,箕沖町１１２番地１,,34,207,7210956,,,2025-04-01,合併による解散等,8240001029338,令和７年４月１日広島県福山市沼隈町大字常石１０８３番地ツネイシカムテックス株式会社（8240001029338）に合併し解散,2015-10-05,1,,,,,ウエスギギケンコウギョウ,0
1093,5260001015933,登記記録の閉鎖等,0,2025-04-17,2025-04-09,総社ガス株式会社,,株式会社,岡山県,総社市,総社１０３１番地の１,,33,208,7191126,,,2025-04-09,合併による解散等,3240001017355,令和７年４月１日東京都中央区日本橋堀留町二丁目２番１号伊藤忠エネクスホームライフ株式会社（3240001017355）に合併し解散,2015-10-05,1,,,,,ソウジャガス,0
1109,5340002011246,登記記録の閉鎖等,0,2025-04-17,2025-04-09,有限会社フジイ,,有限会社,鹿児島県,鹿児島市,伊敷５丁目５番４５号,,46,201,8900008,,,2025-04-09,清算の結了等,,,2015-10-05,1,,,,,フジイ,0
1120,5380002011820,登記記録の閉鎖等,0,2025-04-17,2025-04-03,有限会社福田建築設計事務所,,有限会社,福島県,郡山市,備前舘２丁目１７番地,,07,203,9638044,,,2025-04-03,清算の結了等,,,2015-10-05,1,,,,,フクダケンチクセッケイジムショ,0
1151,6010001217578,登記記録の閉鎖等,0,2025-04-17,2025-03-25,株式会社Ｓｋｅｌｅｔｏｎ,,株式会社,東京都,千代田区,外神田４丁目９番２号１階,,13,101,1010021,,,2025-03-25,清算の結了等,,,2021-04-19,1,,,,,スケルトン,0
1158,6010401056857,登記記録の閉鎖等,0,2025-04-17,2025-03-28,株式会社ティーエフシープラス,,株式会社,東京都,港区,赤坂４丁目８番１０号,,13,103,1070052,,,2025-03-28,清算の結了等,,,2015-10-05,1,,,,,ティーエフシープラス,0
1173,6010701017006,登記記録の閉鎖等,0,2025-04-17,2025-04-01,本多電機株式会社,,株式会社,東京都,品川区,上大崎４丁目５番３７号,,13,109,1410021,,,2025-04-01,合併による解散等,8010701009026,令和７年４月１日東京都品川区上大崎四丁目５番３７号ＨＤホールディングス株式会社（8010701009026）に合併し解散,2015-10-05,1,,,,,ホンダデンキ,0
1176,6010901027028,登記記録の閉鎖等,0,2025-04-17,2025-04-04,ソントンホールディングス株式会社,,株式会社,東京都,江東区,東陽６丁目３番２号,,13,108,1350016,,,2025-04-04,合併による解散等,5010001034818,令和７年４月１日東京都江東区東陽六丁目３番２号ソントン食品工業株式会社（5010001034818）に合併し解散,2015-10-05,1,,,,,ソントンホールディングス,0
1185,6011003019855,登記記録の閉鎖等,0,2025-04-17,2025-03-24,合同会社レンタ,,合同会社,東京都,渋谷区,神宮前６丁目２３番４号桑野ビル２階,,13,113,1500001,,,2025-03-24,清算の結了等,,,2024-08-26,1,,,,,レンタ,0
1206,6012703002043,登記記録の閉鎖等,0,2025-04-17,2025-03-31,株式会社ＩＤＥＸＩＡ,,株式会社,東京都,港区,海岸３丁目７－１８ＡＬＴＯ－Ｂ１１０１,,13,103,1080022,,,2025-03-31,清算の結了等,,,2020-09-09,1,,,,,イデシア,0
1235,6030002063706,登記記録の閉鎖等,0,2025-04-17,2025-04-11,マイズスタッフ有限会社,,有限会社,埼玉県,新座市,栄５丁目１２番１４号,,11,230,3520014,,,2025-04-11,清算の結了等,,,2015-10-05,1,,,,,マイズスタッフ,0
1242,6050001048805,登記記録の閉鎖等,0,2025-04-17,2025-04-01,株式会社ロジコムつくば,,株式会社,茨城県,つくばみらい市,狸穴１３８９番地,,08,235,3002302,,,2025-04-01,合併による解散等,6050001020929,令和７年４月１日茨城県神栖市南浜１番地１鹿島物流株式会社（6050001020929）に合併し解散,2021-03-02,1,,,,,ロジコムツクバ,0
1244,6050005012187,登記記録の閉鎖等,0,2025-04-17,2025-04-07,特定非営利活動法人鹿嶋省エネ研究会,,その他の設立登記法人,茨城県,鹿嶋市,大字宮中７８０番地６,,08,222,3140031,,,2025-04-07,清算の結了等,,,2017-10-18,1,,,,,カシマショウエネケンキュウカイ,0
1250,6080402008586,登記記録の閉鎖等,0,2025-04-17,2025-04-08,有限会社山本エンジニアリング,,有限会社,静岡県,浜松市中央区,新貝町８３４番地の８６,,22,138,4350023,,,2025-04-08,清算の結了等,,,2015-10-05,1,,,,,ヤマモトエンジニアリング,0
1253,6110002001509,登記記録の閉鎖等,0,2025-04-17,2025-04-07,有限会社オプティカルファースト,,有限会社,新潟県,新潟市中央区,八千代１丁目３番２６号,,15,103,9500909,,,2025-04-07,清算の結了等,,,2015-10-05,1,,,,,オプティカルフアースト,0
1256,6120001050753,登記記録の閉鎖等,0,2025-04-17,2025-04-14,株式会社村井,,株式会社,大阪府,大阪市中央区,本町４丁目７番４号,,27,128,5410053,,,2025-04-14,合併による解散等,8010001250718,令和７年３月３１日東京都千代田区丸の内一丁目９番２号グラントウキョウサウスタワー８階ＪＰｉＸ４号株式会社（8010001250718）に合併し解散,2015-10-05,1,,,,,ムライ,0
1278,6140001051584,登記記録の閉鎖等,0,2025-04-17,2025-04-11,株式会社村上電機製作所,,株式会社,兵庫県,尼崎市,戸ノ内町３丁目３１番１６号,,28,202,6610961,,,2025-04-11,清算の結了等,,,2015-10-05,1,,,,,ムラカミデンキセイサクショ,0
1284,6180001033067,登記記録の閉鎖等,0,2025-04-17,2025-04-02,まちほけ株式会社,,株式会社,愛知県,名古屋市中村区,名駅１丁目２番４号,,23,105,4500002,,,2025-04-02,合併による解散等,5180001122358,令和７年４月１日名古屋市中村区名駅一丁目２番４号１０階ＧＯＯＤ　ＡＩＤ株式会社（5180001122358）に合併し解散,2015-10-05,1,,,,,マチホケ,0
1285,6180001050483,登記記録の閉鎖等,0,2025-04-17,2025-04-07,株式会社明倫ゼミナール,,株式会社,愛知県,名古屋市昭和区,阿由知通４丁目２番地の２,,23,107,4660027,,,2025-04-07,合併による解散等,3180001066243,令和７年４月１日名古屋市中区栄一丁目２２番１６号ＣＫＣネットワーク株式会社（3180001066243）に合併し解散,2015-10-05,1,,,,,メイリンゼミナール,0
1287,6180001116433,登記記録の閉鎖等,0,2025-04-17,2025-04-01,株式会社煌生,,株式会社,愛知県,名古屋市西区,あし原町２１６番地西区あし原町倉庫付事務所１０２,,23,104,4520823,,,2025-04-01,合併による解散等,5180001126540,令和７年４月１日愛知県江南市東野町東神田９０番地４株式会社ひかり（5180001126540）に合併し解散,2015-10-05,1,,,,,コウキ,0
1299,6190001008332,登記記録の閉鎖等,0,2025-04-17,2025-04-08,株式会社池町板金,,株式会社,三重県,伊賀市,佐那具町５８５番地,,24,216,5180001,,,2025-04-08,清算の結了等,,,2015-10-05,1,,,,,イケマチバンキン,0
1303,6210001011903,登記記録の閉鎖等,0,2025-04-17,2025-04-09,株式会社藤谷商店,,株式会社,福井県,越前市,小野谷町第４号３番地の４,,18,209,9150054,,,2025-04-09,清算の結了等,,,2015-10-05,1,,,,,フジヤショウテン,0
1311,6240002052365,登記記録の閉鎖等,0,2025-04-17,2025-04-10,有限会社朝日商事,,有限会社,広島県,尾道市,瀬戸田町中野４０８番地の６,,34,205,7222415,,,2025-04-10,清算の結了等,,,2015-10-05,1,,,,,アサヒショウジ,0
1333,6380001020152,登記記録の閉鎖等,0,2025-04-17,2025-04-01,株式会社ライフプランアオタ,,株式会社,福島県,相馬市,沖ノ内２丁目１０番地の１ＫＭＳビル２０５号,,07,209,9760016,,,2025-04-01,清算の結了等,,,2015-10-05,1,,,,,ライフプランアオタ,0
1339,6430001013828,登記記録の閉鎖等,0,2025-04-17,2025-04-04,株式会社東日本計装社,,株式会社,北海道,札幌市厚別区,大谷地西５丁目５番１６号,,01,108,0040042,,,2025-04-04,清算の結了等,,,2015-10-05,1,,,,,ヒガシニホンケイソウシャ,0
1348,6430005000814,登記記録の閉鎖等,0,2025-04-17,2025-04-01,学校法人山の手学園,,その他の設立登記法人,北海道,札幌市西区,山の手二条３丁目３番地,,01,107,0630002,,,2025-04-01,合併による解散等,5430005000708,令和７年４月１日札幌市北区百合が原十一丁目１８５番地６学校法人高陽学園（5430005000708）に合併し解散,2015-10-05,1,,,,,ヤマノテガクエン,0
1350,6440001001559,登記記録の閉鎖等,0,2025-04-17,2025-04-11,ネッツトヨタ函館株式会社,,株式会社,北海道,函館市,美原２丁目７番２４号,,01,202,0410806,,,2025-04-11,合併による解散等,5430001012450,令和７年４月１日札幌市豊平区美園三条六丁目３番１０号ＡＧＨトヨタ札幌株式会社（5430001012450）に合併し解散,2015-10-05,1,,,,,ネッツトヨタハコダテ,0
1351,6440002001517,登記記録の閉鎖等,0,2025-04-17,2025-04-14,株式会社ＫＥＳ函館,,株式会社,北海道,函館市,北浜町２番１４号,,01,202,0400078,,,2025-04-14,合併による解散等,6430002060984,令和７年４月１日北海道苫小牧市元町三丁目８番１５号株式会社ＳＧテック（6430002060984）に合併し解散,2015-10-05,1,,,,,ケーイーエスハコダテ,0
1369,7000030270622,登記記録の閉鎖等,0,2025-04-17,2025-02-20,四条財産区,,地方公共団体,大阪府,東大阪市,荒本北１丁目１番１号（東大阪市　企画財政部資産経営室資産経営課）,,27,227,5770011,,,2025-02-20,その他の清算の結了等,,,2015-10-05,1,Sijou Zaisanku,Osaka,"1-1-1 Aramoto kita, Higashiosaka shi",,シジョウザイサンク,0
1370,7000030270655,登記記録の閉鎖等,0,2025-04-17,2024-12-31,能勢町歌垣財産区,,地方公共団体,大阪府,豊能郡能勢町,宿野２８番地,,27,322,5630341,,,2024-12-31,その他の清算の結了等,,,2015-10-05,1,Nose cho Utagaki Property Ward,Osaka,"28 Shukuno, Nose cho,Toyono gun",,ノセチョウウタガキザイサンク,0
1375,7010001054228,登記記録の閉鎖等,0,2025-04-17,2025-04-01,株式会社原利商店,,株式会社,東京都,中央区,日本橋横山町５－８－２Ｆ,,13,102,1030003,,,2025-04-01,清算の結了等,,,2015-10-05,1,,,,,ハラリショウテン,0
1377,7010001169876,登記記録の閉鎖等,0,2025-04-17,2025-04-07,佐伯バイオマスセンター株式会社,,株式会社,東京都,中央区,京橋２丁目２番１号,,13,102,1040031,,,2025-04-07,合併による解散等,2010001066839,令和７年４月１日東京都中央区京橋二丁目２番１号イーレックス株式会社（2010001066839）に合併し解散,2015-10-05,1,,,,,サイキバイオマスセンター,0
1385,7010401076342,登記記録の閉鎖等,0,2025-04-17,2025-03-27,株式会社Ｈ・Ｓ・Ｍ,,株式会社,東京都,港区,六本木６丁目８番２９号,,13,103,1060032,,,2025-03-27,清算の結了等,,,2015-10-05,1,,,,,,0
1403,7010902010601,登記記録の閉鎖等,0,2025-04-17,2025-04-14,有限会社東城商会,,有限会社,東京都,世田谷区,南烏山１丁目１２番１９号,,13,112,1570062,,,2025-04-14,清算の結了等,,,2015-10-05,1,,,,,トウジョウショウカイ,0
1408,7011001127444,登記記録の閉鎖等,0,2025-04-17,2025-03-19,株式会社ＴＲＩＬＡＢ　ＤＥＳＩＧＮ　ＡＳＳＯＣＩＡＴＥＳ,,株式会社,東京都,渋谷区,千駄ヶ谷４丁目１１番９－６０５号,,13,113,1510051,,,2025-03-19,清算の結了等,,,2019-04-09,1,,,,,トライラブデザインアソシエイツ,0
1413,7011003017379,登記記録の閉鎖等,0,2025-04-17,2025-03-19,ちゅらカンパニー合同会社,,合同会社,東京都,渋谷区,千駄ヶ谷４丁目９番３－２１７号,,13,113,1510051,,,2025-03-19,清算の結了等,,,2023-08-16,1,,,,,チュラカンパニー,0
1419,7011301029695,登記記録の閉鎖等,0,2025-04-17,2025-04-03,株式会社ＬＥＭＯＮ,,株式会社,東京都,杉並区,堀ノ内３丁目８番５号,,13,115,1660013,,,2025-04-03,清算の結了等,,,2024-05-23,1,,,,,レモン,0
1425,7011602011170,登記記録の閉鎖等,0,2025-04-17,2025-04-04,有限会社和田タイル,,有限会社,東京都,練馬区,西大泉４丁目４番２３号,,13,120,1780065,,,2025-04-04,清算の結了等,,,2015-10-05,1,,,,,,0
1436,7013103001361,登記記録の閉鎖等,0,2025-04-17,2025-04-10,アップステイアーズ合同会社,,合同会社,東京都,青梅市,東青梅３丁目１０番地の６サンライズシャトー東青梅１１２,,13,205,1980042,,,2025-04-10,清算の結了等,,,2024-07-26,1,,,,,アップステイアーズ,0
1474,7080002016856,登記記録の閉鎖等,0,2025-04-17,2025-04-10,有限会社エムエスケイ,,有限会社,静岡県,焼津市,浜当目９６３番地の１,,22,212,4250012,,,2025-04-10,清算の結了等,,,2015-10-05,1,,,,,エムエスケイ,0
1476,7080102013687,登記記録の閉鎖等,0,2025-04-17,2025-04-04,有限会社金子紙工,,有限会社,静岡県,富士市,伝法９２３番地の４,,22,210,4170061,,,2025-04-04,清算の結了等,,,2015-10-05,1,,,,,カネコシコウ,0
1478,7080401010212,登記記録の閉鎖等,0,2025-04-17,2025-04-07,株式会社グラット,,株式会社,静岡県,浜松市浜名区,染地台４丁目１７番２７号,,22,139,4340046,,,2025-04-07,清算の結了等,,,2015-10-05,1,,,,,グラット,0
1484,7100001015963,登記記録の閉鎖等,0,2025-04-17,2025-04-07,グリーンライン信州株式会社,,株式会社,長野県,松本市,笹部１丁目２番２６,,20,202,3900847,,,2025-04-07,清算の結了等,,,2015-10-05,1,,,,,グリーンラインシンシュウ,0
1493,7120001233547,登記記録の閉鎖等,0,2025-04-17,2025-04-15,株式会社Ｒｅｃｏｏｒｄｉｎａｔｉｏｎ,,株式会社,大阪府,大阪市中央区,難波１丁目８番１６号,,27,128,5420076,,,2025-04-15,合併による解散等,3120101027183,令和７年４月１日大阪府松原市大堀一丁目１番９号株式会社フェイス（3120101027183）に合併し解散,2020-12-04,1,,,,,アールイーコーディネーション,0
1516,7160002010859,登記記録の閉鎖等,0,2025-04-17,2025-04-14,有限会社ミズノアカウントセンター,,有限会社,滋賀県,近江八幡市,鷹飼町４５５番地,,25,204,5230891,,,2025-04-14,清算の結了等,,,2015-10-05,1,,,,,ミズノアカウントセンター,0
1527,7180003004098,登記記録の閉鎖等,0,2025-04-17,2025-04-08,合資会社新生ファーマシー,,合資会社,愛知県,名古屋市緑区,大高町字北平部１番地の６２,,23,114,4598001,,,2025-04-08,清算の結了等,,,2015-10-05,1,,,,,シンセイファーマシー,0
1539,7220001011538,登記記録の閉鎖等,0,2025-04-17,2025-04-14,株式会社スマイルラボ,,株式会社,石川県,金沢市,田上の里１丁目３８番,,17,201,9201156,,,2025-04-14,清算の結了等,,,2015-10-05,1,,,,,,0
1545,7240001021766,登記記録の閉鎖等,0,2025-04-17,2025-04-11,株式会社ＮＱ,,株式会社,広島県,広島市中区,住吉町１４番３－３０２号,,34,101,7300813,,,2025-04-11,清算の結了等,,,2015-10-05,1,,,,,,0
1562,7290002039373,登記記録の閉鎖等,0,2025-04-17,2025-04-03,鈴木基礎工業有限会社,,有限会社,福岡県,福岡市博多区,井相田３丁目１２－２７－１０５号,,40,132,8120881,,,2025-04-03,清算の結了等,,,2015-10-05,1,,,,,,0
1576,7340002018776,登記記録の閉鎖等,0,2025-04-17,2025-04-10,有限会社前田秀翠園,,有限会社,鹿児島県,指宿市,西方１０１８番地５,,46,210,8910311,,,2025-04-10,清算の結了等,,,2015-10-05,1,,,,,マエダシュウスイエン,0
1594,7410003003992,登記記録の閉鎖等,0,2025-04-17,2025-04-09,合同会社鈴木産業,,合同会社,秋田県,男鹿市,船越字根木３３０番地２９,,05,206,0100341,,,2025-04-09,清算の結了等,,,2024-10-03,1,,,,,スズキサンギョウ,0
1611,8010001190427,登記記録の閉鎖等,0,2025-04-17,2025-03-31,ＴＹダイニング株式会社,,株式会社,東京都,港区,新橋２丁目１５番５号新橋アバックビル３階,,13,103,1050004,,,2025-03-31,清算の結了等,,,2018-03-20,1,,,,,ティーワイダイニング,0
1632,8010403011429,登記記録の閉鎖等,0,2025-04-17,2025-03-27,ＯＲＥインベストメンツ合同会社,,合同会社,東京都,港区,六本木１丁目６番１号泉ガーデンタワー,,13,103,1060032,,,2025-03-27,清算の結了等,,,2015-10-05,1,,,,,オーアールイーインベストメンツ,0
1633,8010403025404,登記記録の閉鎖等,0,2025-04-17,2025-03-28,ＲＢソーラーセレナ合同会社,,合同会社,東京都,港区,虎ノ門３丁目２２番１０－２０１号,,13,103,1050001,,,2025-03-28,清算の結了等,,,2021-05-28,1,,,,,アールビーソーラーセレナ,0
1634,8010403028308,登記記録の閉鎖等,0,2025-04-17,2025-03-28,ＢｅＣＯＮＮＥＣＴ合同会社,,合同会社,東京都,港区,南青山３丁目１―３６青山丸竹ビル６Ｆ,,13,103,1070062,,,2025-03-28,清算の結了等,,,2022-08-26,1,,,,,ビコネクト,0
1644,8010801034980,登記記録の閉鎖等,0,2025-04-17,2025-04-04,株式会社ドリームゲートアジア,,株式会社,東京都,大田区,久が原２丁目２１番１３号,,13,111,1460085,,,2025-04-04,清算の結了等,,,2024-04-17,1,,,,,ドリームゲートアジア,0
1659,8011501008366,登記記録の閉鎖等,0,2025-04-17,2025-04-08,東日本商事株式会社,,株式会社,東京都,荒川区,南千住６丁目３７番１－２０３号,,13,118,1160003,,,2025-04-08,清算の結了等,,,2015-10-05,1,,,,,ヒガシニホンショウジ,0
1687,8021005007475,登記記録の閉鎖等,0,2025-04-17,2025-04-16,医療法人社団友康会,,その他の設立登記法人,神奈川県,横須賀市,上町２丁目４番地,,14,201,2380017,,,2025-04-16,清算の結了等,,,2015-10-05,1,,,,,ユウコウカイ,0
1689,8030001093677,登記記録の閉鎖等,0,2025-04-17,2025-04-01,株式会社サーティス,,株式会社,東京都,新宿区,西新宿６丁目２４番１号西新宿三井ビルディング１６階１６０１号室,,13,104,1600023,,,2025-04-01,合併による解散等,4011101007739,令和７年４月１日東京都新宿区西新宿二丁目１番１号損保ジャパンパートナーズ株式会社（4011101007739）に合併し解散,2015-10-05,1,,,,,サーティス,0
1692,8030001162300,登記記録の閉鎖等,0,2025-04-17,2025-04-10,株式会社ＭＵＳＥ,,株式会社,埼玉県,秩父市,大野原２２８０番地５,,11,207,3680005,,,2025-04-10,清算の結了等,,,2024-09-09,1,,,,,ミューズ,0
1699,8040001097512,登記記録の閉鎖等,0,2025-04-17,2025-04-11,株式会社丸一,,株式会社,埼玉県,三郷市,彦成３丁目８番５－３０４号,,11,237,3410003,,,2025-04-11,清算の結了等,,,2016-11-18,1,,,,,マルイチ,0
1718,8100001022026,登記記録の閉鎖等,0,2025-04-17,2025-04-10,株式会社ヴェテック,,株式会社,長野県,伊那市,境１６６３番地,,20,209,3960010,,,2025-04-10,清算の結了等,,,2015-10-05,1,,,,,ヴェテック,0
1719,8100001022637,登記記録の閉鎖等,0,2025-04-17,2025-04-10,長野緑化株式会社,,株式会社,長野県,飯田市,浜井町２７２番地１,,20,205,3950022,,,2025-04-10,清算の結了等,,,2015-10-05,1,,,,,ナガノリョッカ,0
1725,8120001165013,登記記録の閉鎖等,0,2025-04-17,2025-04-02,株式会社ドリームダイニング,,株式会社,大阪府,大阪市中央区,南船場４丁目１１番２８号,,27,128,5420081,,,2025-04-02,合併による解散等,1120001104852,令和７年４月１日大阪市中央区南船場四丁目１１番２８号株式会社ディースパーク（1120001104852）に合併し解散,2015-10-05,1,,,,,ドリームダイニング,0
1751,8140001075689,登記記録の閉鎖等,0,2025-04-17,2025-04-10,高田電通工業株式会社,,株式会社,兵庫県,多可郡多可町,中区中村町２７５番地の１,,28,365,6791113,,,2025-04-10,清算の結了等,,,2015-10-05,1,,,,,,0
1776,8200001025877,登記記録の閉鎖等,0,2025-04-17,2025-04-11,株式会社飛騨工務店,00076744,株式会社,岐阜県,下呂市,萩原町羽根４０４番地,,21,220,5092506,,,2025-04-11,清算の結了等,,,2015-10-05,1,,,,,,0
1785,8240002007821,登記記録の閉鎖等,0,2025-04-17,2025-04-11,有限会社下田呉服店,,有限会社,広島県,広島市安佐南区,伴東２丁目９番３号,,34,105,7313164,,,2025-04-11,清算の結了等,,,2015-10-05,1,,,,,,0
1791,8260002026794,登記記録の閉鎖等,0,2025-04-17,2025-04-03,有限会社高梁産業資材,,有限会社,岡山県,高梁市,落合町阿部３８２４番地の１,,33,209,7160061,,,2025-04-03,清算の結了等,,,2015-10-05,1,,,,,タカハシサンギョウシザイ,0
1804,8340001016937,登記記録の閉鎖等,0,2025-04-17,2025-04-10,株式会社喜楽,,株式会社,鹿児島県,熊毛郡南種子町,中之上３１８６番地８,,46,502,8913701,,,2025-04-10,清算の結了等,,,2015-10-05,1,,,,,キラク,0
1811,8370003003939,登記記録の閉鎖等,0,2025-04-17,2025-04-03,合同会社よあけのてがみ,,合同会社,宮城県,石巻市,泉町２丁目４番２５号,,04,202,9860832,,,2025-04-03,清算の結了等,,,2017-09-11,1,,,,,ヨアケノテガミ,0
1813,8380001031065,登記記録の閉鎖等,0,2025-04-17,2025-04-04,株式会社ＧＯＯＤＮＥＳＳ,,株式会社,福島県,郡山市,菜根１丁目１１番１１－２０３号,,07,203,9638862,,,2025-04-04,清算の結了等,,,2020-07-09,1,,,,,グッドネス,0
1816,8380005000371,登記記録の閉鎖等,0,2025-04-17,2025-04-02,福島たばこ販売協同組合,,その他の設立登記法人,福島県,福島市,本内字西町２８－５ファミール西町１０３号,,07,201,9600103,,,2025-04-02,清算の結了等,,,2015-10-05,1,,,,,フクシマタバコハンバイ,0
1817,8400001013564,登記記録の閉鎖等,0,2025-04-17,2025-04-01,株式会社エンジェル,,株式会社,岩手県,盛岡市,梨木町９番１７号,,03,201,0200064,,,2025-04-01,清算の結了等,,,2017-02-22,1,,,,,エンジェル,0
1818,8400602000647,登記記録の閉鎖等,0,2025-04-17,2025-04-01,有限会社マツモト工業,,有限会社,岩手県,奥州市,水沢字五千刈１０番地６,,03,215,0230015,,,2025-04-01,清算の結了等,,,2015-10-05,1,,,,,マツモトコウギョウ,0
1828,8470002003368,登記記録の閉鎖等,0,2025-04-17,2025-04-08,有限会社四国テクノファ,,有限会社,香川県,高松市,新田町甲２５８１番地１,,37,201,7610102,,,2025-04-08,清算の結了等,,,2015-10-05,1,,,,,シコクテクノファ,0
1829,8480001009407,登記記録の閉鎖等,0,2025-04-17,2025-04-10,川野コーポレーション株式会社,,株式会社,徳島県,徳島市,八万町夷山１０６番地の１,,36,201,7708077,,,2025-04-10,清算の結了等,,,2015-10-05,1,,,,,カワノコーポレーション,0
1832,8500002018668,登記記録の閉鎖等,0,2025-04-17,2025-04-14,有限会社玉川産業,,有限会社,愛媛県,今治市,玉川町大野甲３３番地１,,38,202,7940102,,,2025-04-14,清算の結了等,,,2015-10-05,1,,,,,タマガワサンギョウ,0
1834,9010001074629,登記記録の閉鎖等,0,2025-04-17,2025-04-01,株式会社コスモ,,株式会社,東京都,千代田区,神田三崎町２丁目６番２号,,13,101,1010061,,,2025-04-01,合併による解散等,7011101060173,令和７年４月１日東京都千代田区神田三崎町二丁目６番２号株式会社コスモアルファ（7011101060173）に合併し解散,2015-10-05,1,,,,,コスモ,0
1847,9010403026855,登記記録の閉鎖等,0,2025-04-17,2025-03-27,宇治田原ファシリティ１合同会社,,合同会社,東京都,港区,六本木１丁目６番１号泉ガーデンタワー,,13,103,1060032,,,2025-03-27,清算の結了等,,,2022-01-06,1,,,,,ウジタワラファシリティワン,0
1857,9010802016168,登記記録の閉鎖等,0,2025-04-17,2025-04-04,有限会社大塚家畜診療所,,有限会社,東京都,大田区,山王２丁目２５番２２号,,13,111,1430023,,,2025-04-04,清算の結了等,,,2015-10-05,1,,,,,オオツカカチクシンリョウジョ,0
1889,9020001011424,登記記録の閉鎖等,0,2025-04-17,2025-04-11,サンボード株式会社,,株式会社,神奈川県,高座郡寒川町,倉見１７３８番地１,,14,321,2530101,,,2025-04-11,合併による解散等,6030001056751,令和７年４月１日埼玉県入間郡三芳町大字上富字下饒８９０番地１ウッド建材株式会社（6030001056751）に合併し解散,2015-10-05,1,,,,,サンボード,0
1890,9020001059439,登記記録の閉鎖等,0,2025-04-17,2025-04-11,株式会社ＭＯＮＡＫＡ,,株式会社,東京都,中央区,日本橋２丁目１５番１０号,,13,102,1030027,,,2025-04-11,合併による解散等,4370001013217,令和７年４月１日仙台市泉区泉中央一丁目７番地の１シップヘルスケアファーマシー株式会社（4370001013217）に合併し解散,2015-10-05,1,,,,,モナカ,0
1906,9030001017321,登記記録の閉鎖等,0,2025-04-17,2025-04-07,株式会社レキュオス,,株式会社,埼玉県,さいたま市浦和区,常盤９丁目１９番８号６０１,,11,107,3300061,,,2025-04-07,清算の結了等,,,2015-10-05,1,,,,,レキュオス,0
1931,9050001045007,登記記録の閉鎖等,0,2025-04-17,2025-04-04,ハトホル株式会社,,株式会社,茨城県,東茨城郡大洗町,成田町４２４３番地の９,,08,309,3111313,,,2025-04-04,清算の結了等,,,2018-10-02,1,,,,,ハトホル,0
1953,9110002009730,登記記録の閉鎖等,0,2025-04-17,2025-04-04,有限会社ファッションカンダ,,有限会社,新潟県,新潟市秋葉区,新津本町３丁目７番２６号,,15,105,9560864,,,2025-04-04,清算の結了等,,,2015-10-05,1,,,,,ファッションカンダ,0
1988,9140002027275,登記記録の閉鎖等,0,2025-04-17,2025-04-11,有限会社ブイ・ウェーブ,,有限会社,兵庫県,神戸市北区,松が枝町１丁目１番地の２５,,28,109,6511232,,,2025-04-11,清算の結了等,,,2015-10-05,1,,,,,ブイウェーブ,0
1989,9140002028835,登記記録の閉鎖等,0,2025-04-17,2025-04-11,有限会社近藤機工,,有限会社,兵庫県,明石市,大久保町谷八木９０９番地の１プレステージ南大久保３０１号,,28,203,6740062,,,2025-04-11,清算の結了等,,,2015-10-05,1,,,,,コンドウキコウ,0
2003,9180003021843,登記記録の閉鎖等,0,2025-04-17,2025-04-07,合同会社奏音,,合同会社,愛知県,名古屋市千種区,希望ケ丘１丁目１３－３パークサイド希望ヶ丘２０１号,,23,101,4640016,,,2025-04-07,清算の結了等,,,2020-11-19,1,,,,,カノン,0
2004,9180301006505,登記記録の閉鎖等,0,2025-04-17,2025-04-07,東海日商ガス株式会社,,株式会社,愛知県,豊橋市,牟呂町字古田９番地,,23,201,4418087,,,2025-04-07,合併による解散等,9030001003544,令和７年４月１日埼玉県さいたま市大宮区桜木町一丁目１１番地５株式会社サイサン（9030001003544）に合併し解散,2015-10-05,1,,,,,トウカイニッショウガス,0
2015,9200002011603,登記記録の閉鎖等,0,2025-04-17,2025-04-08,ナワタ有限会社,,有限会社,岐阜県,羽島市,江吉良町１６８８番地,,21,209,5016236,,,2025-04-08,清算の結了等,,,2015-10-05,1,,,,,ナワタ,0
2028,9260001014997,登記記録の閉鎖等,0,2025-04-17,2025-04-08,室山運輸株式会社,,株式会社,岡山県,倉敷市,笹沖６７１番地３,,33,202,7100834,,,2025-04-08,合併による解散等,6010001164696,令和７年４月１日名古屋市中村区亀島二丁目２６番４号株式会社ジェイトップ（6010001164696）に合併し解散,2015-10-05,1,,,,,ムロヤマウンユ,0
2038,9300002006584,登記記録の閉鎖等,0,2025-04-17,2025-04-10,けんちく工房橘有限会社,,有限会社,佐賀県,武雄市,橘町大字片白１０５１１番地１,,41,206,8430012,,,2025-04-10,清算の結了等,,,2015-10-05,1,,,,,ケンチクコウボウタチバナ,0
2048,9370001009631,登記記録の閉鎖等,0,2025-04-17,2025-04-03,株式会社錦戸洋服店,,株式会社,宮城県,仙台市青葉区,一番町２丁目９番２８－２３１１号,,04,101,9800811,,,2025-04-03,清算の結了等,,,2015-10-05,1,,,,,ニシキドヨウフクテン,0
2049,9370001045321,登記記録の閉鎖等,0,2025-04-17,2025-04-01,株式会社Ｎ．ａｔｈｌｅｔｉｃｓ,,株式会社,宮城県,仙台市泉区,南中山１丁目２８番地の１８,,04,105,9813213,,,2025-04-01,合併による解散等,6370601002658,令和７年４月１日宮城県多賀城市町前二丁目２番５号株式会社ウェルフェアーフォレスト（6370601002658）に合併し解散,2020-01-23,1,,,,,エヌアスレチックス,0
2057,9490005000104,登記記録の閉鎖等,0,2025-04-17,2025-04-14,四鉄物資部高知ストアー出店協同組合,,その他の設立登記法人,高知県,高知市,若草南町５番２０号,,39,201,7808082,,,2025-04-14,清算の結了等,,,2015-10-05,1,,,,,シテツブッシブコウチストアーシュッテン,0
