sequenceNumber,corporateNumber,process,correct,updateDate,changeDate,name,nameImageId,kind,prefectureName,cityName,streetNumber,addressImageId,prefectureCode,cityCode,postCode,addressOutside,addressOutsideImageId,closeDate,closeCause,successorCorporateNumber,changeCause,assignmentDate,latest,enName,enPrefectureName,enCityName,enAddressOutside,furigana,hihyoji
11,1010001262059,新規,0,2026-01-21,2026-01-21,ＪＰＶ第４２号株式会社,,株式会社,東京都,千代田区,霞が関３丁目２番１号,,13,101,1000013,,,,,,,2026-01-21,1,,,,,ジェイピーブイダイヨンジュウニゴウ,0
12,1010001262083,新規,0,2026-01-21,2026-01-21,株式会社Ｄａｎａ,,株式会社,東京都,中央区,銀座６丁目１３番１６号銀座ＷａｌｌビルＵＣＦ５階,,13,102,1040061,,,,,,,2026-01-21,1,,,,,ダナ,0
13,1010001262109,新規,0,2026-01-21,2026-01-21,エクイタスメディカル株式会社,,株式会社,東京都,中央区,日本橋堀留町１丁目３－１６－１０１１号室,,13,102,1030012,,,,,,,2026-01-21,1,,,,,エクイタスメディカル,0
20,1010401195825,新規,0,2026-01-21,2026-01-21,クレール・パートナーズ株式会社,,株式会社,東京都,港区,北青山１丁目３番１号アールキューブ青山３階,,13,103,1070061,,,,,,,2026-01-21,1,,,,,クレールパートナーズ,0
21,1010401195858,新規,0,2026-01-21,2026-01-21,ルミヴィタエ株式会社,,株式会社,東京都,港区,六本木７丁目７番７号８階,,13,103,1060032,,,,,,,2026-01-21,1,,,,,ルミヴィタエ,0
22,1010401195882,新規,0,2026-01-21,2026-01-21,株式会社ＣＴＭ,,株式会社,東京都,港区,浜松町２丁目２番１５号,,13,103,1050013,,,,,,,2026-01-21,1,,,,,シーティーエム,0
23,1010401196014,新規,0,2026-01-21,2026-01-21,株式会社５７５７７,,株式会社,東京都,港区,北青山１丁目３－３三橋ビル３階,,13,103,1070061,,,,,,,2026-01-21,1,,,,,ゴーシチゴーシチシチ,0
27,1010403037034,新規,0,2026-01-21,2026-01-21,合同会社Ｔｏｔａｌ　Ｍａｉｓｏｎ,,合同会社,東京都,港区,芝５丁目２１－１５芝三勝ビル１０２,,13,103,1080014,,,,,,,2026-01-21,1,,,,,トータルメゾン,0
28,1010403037100,新規,0,2026-01-21,2026-01-21,合同会社バンビヒルズ,,合同会社,東京都,港区,高輪４丁目２４番２５－５０２号,,13,103,1080074,,,,,,,2026-01-21,1,,,,,バンビヒルズ,0
39,1010901058804,新規,0,2026-01-21,2026-01-21,株式会社Ｃｏ‐Ｃｒａｆｔ,,株式会社,東京都,世田谷区,桜新町１丁目１５－１９,,13,112,1540015,,,,,,,2026-01-21,1,,,,,コクラフト,0
41,1010903010564,新規,0,2026-01-21,2026-01-21,合同会社ルーアンドデコ,,合同会社,東京都,世田谷区,奥沢２丁目３７番７号廬山マンション１０５,,13,112,1580083,,,,,,,2026-01-21,1,,,,,ルーアンドデコ,0
51,1011001174896,新規,0,2026-01-21,2026-01-21,Ｌｅｆｔ　Ｒｉｖｅｒ　Ａｃｃｏｕｎｔｉｎｇ株式会社,,株式会社,東京都,渋谷区,広尾１丁目２番地１号ヒカリビル４階,,13,113,1500012,,,,,,,2026-01-21,1,,,,,レフトリバーアカウンティング,0
52,1011001175052,新規,0,2026-01-21,2026-01-21,株式会社ＣＯＮＦＩＮＩＴＹ,,株式会社,東京都,目黒区,平町２丁目１４番６号,,13,110,1520032,,,,,,,2026-01-21,1,,,,,コンフィニティ,0
53,1011001175127,新規,0,2026-01-21,2026-01-21,株式会社ＹＵＴＯＡ,,株式会社,東京都,渋谷区,上原１丁目３２番３号３０３ＣＡＢＯ,,13,113,1510064,,,,,,,2026-01-21,1,,,,,ユトア,0
55,1011003023374,新規,0,2026-01-21,2026-01-21,ＤＥ　ＭＡＩＯＲＥ合同会社,,合同会社,東京都,渋谷区,道玄坂１丁目１０番８号渋谷道玄坂東急ビル２Ｆ－Ｃ,,13,113,1500043,,,,,,,2026-01-21,1,,,,,デマイオレ,0
56,1011003023399,新規,0,2026-01-21,2026-01-21,メディテック・エージェント合同会社,,合同会社,東京都,渋谷区,道玄坂１丁目１６－６二葉ビル８Ｂ,,13,113,1500043,,,,,,,2026-01-21,1,,,,,メディテックエージェント,0
57,1011003023416,新規,0,2026-01-21,2026-01-21,合同会社Ｔｏ　Ｔｈｅ　Ｖｉｓｔａ　ｏｆ　Ａｒｔｓ　ａｎｄ　Ｔｅｃｈｎｏｌｏｇｙ,,合同会社,東京都,目黒区,青葉台１丁目１４－１０プラトー青葉台１０２,,13,110,1530042,,,,,,,2026-01-21,1,,,,,,0
58,1011003023432,新規,0,2026-01-21,2026-01-21,ＣＡＦＵＮＥ合同会社,,合同会社,東京都,目黒区,鷹番２丁目４－３ＫＤＸレジデンス学芸大学１０１,,13,110,1520004,,,,,,,2026-01-21,1,,,,,カフネ,0
65,1011405002422,新規,0,2026-01-21,2026-01-21,一般社団法人日本獣医歯科学会,,その他の設立登記法人,東京都,板橋区,小豆沢２丁目９番１９号,,13,119,1740051,,,,,,,2026-01-21,1,,,,,ニホンジュウイシカガッカイ,0
79,1012401044037,新規,0,2026-01-21,2026-01-21,株式会社サイドワークス,,株式会社,東京都,多摩市,永山２丁目１６番地の２３ライオンズモリス京王永山４０２,,13,224,2060025,,,,,,,2026-01-21,1,,,,,サイドワークス,0
107,1020001166572,新規,0,2026-01-21,2026-01-21,株式会社ＨＹＣＣ,,株式会社,神奈川県,横浜市栄区,尾月８番９号,,14,115,2470027,,,,,,,2026-01-21,1,,,,,エイチワイシーシー,0
108,1020001166688,新規,0,2026-01-21,2026-01-21,株式会社ワクドリ,,株式会社,神奈川県,横浜市西区,北幸１丁目１１番１号水信ビル７階,,14,103,2200004,,,,,,,2026-01-21,1,,,,,ワクドリ,0
109,1020001166696,新規,0,2026-01-21,2026-01-21,株式会社イッパク,,株式会社,神奈川県,横浜市港北区,高田東４丁目２４－３６サンビレッジ３０,,14,109,2230065,,,,,,,2026-01-21,1,,,,,イッパク,0
110,1020001166738,新規,0,2026-01-21,2026-01-21,株式会社セドナコンサルタント,,株式会社,神奈川県,横浜市瀬谷区,阿久和東３丁目５５番地１０,,14,114,2460023,,,,,,,2026-01-21,1,,,,,セドナコンサルタント,0
111,1020001166762,新規,0,2026-01-21,2026-01-21,株式会社ＬＤＣ　ＮＥＸＴ,,株式会社,神奈川県,横浜市西区,平沼１丁目４０番１号,,14,103,2200023,,,,,,,2026-01-21,1,,,,,エルディーシーネクスト,0
117,1020003030116,新規,0,2026-01-21,2026-01-21,創来合同会社,,合同会社,神奈川県,横浜市青葉区,奈良２丁目３８番１号ベイクレスト４０３号室,,14,117,2270038,,,,,,,2026-01-21,1,,,,,,0
118,1020003030149,新規,0,2026-01-21,2026-01-21,合同会社Ｌｉｂｅｒｔａ,,合同会社,神奈川県,横浜市港北区,新横浜１丁目１３－１０－５０１,,14,109,2220033,,,,,,,2026-01-21,1,,,,,リベルタ,0
119,1020003030157,新規,0,2026-01-21,2026-01-21,合同会社ＣＯＮＴＥＸＴＡＧＯ,,合同会社,神奈川県,横浜市戸塚区,戸塚町４１０５番地１ヒルクレスト横濱戸塚１００２号,,14,110,2440003,,,,,,,2026-01-21,1,,,,,コンテクスタゴ,0
120,1021001087288,新規,0,2026-01-21,2026-01-21,株式会社晃ホールディングス,,株式会社,神奈川県,茅ヶ崎市,高田２丁目１番２５号マルヤスビル,,14,207,2530002,,,,,,,2026-01-21,1,,,,,アキラホールディングス,0
123,1021003017004,新規,0,2026-01-21,2026-01-21,合同会社ＵＫＴ　Ｌａｂ,,合同会社,神奈川県,横須賀市,根岸町１丁目１－４５,,14,201,2390807,,,,,,,2026-01-21,1,,,,,ユーケーティーラボ,0
134,1030001170598,新規,0,2026-01-21,2026-01-21,株式会社ミライゲート,,株式会社,埼玉県,さいたま市岩槻区,大字平林寺６７９番地１,,11,110,3390076,,,,,,,2026-01-21,1,,,,,ミライゲート,0
135,1030001170656,新規,0,2026-01-21,2026-01-21,株式会社舘建設,,株式会社,埼玉県,狭山市,大字堀兼２１３１番地の９,,11,215,3501312,,,,,,,2026-01-21,1,,,,,タテケンセツ,0
136,1030001170664,新規,0,2026-01-21,2026-01-21,ＩｎｆｉｎｉｔｙＲｅｈａｂｉｌｉｔａｔｉｏｎ株式会社,,株式会社,埼玉県,本庄市,東台２丁目６－４７,,11,211,3670021,,,,,,,2026-01-21,1,,,,,インフィニティリハビリテーション,0
137,1030001170672,新規,0,2026-01-21,2026-01-21,株式会社ＭｏＮｅｑｕａｔｉｏｎ,,株式会社,埼玉県,北葛飾郡松伏町,ゆめみ野５丁目９－５,,11,465,3430113,,,,,,,2026-01-21,1,,,,,モンイクエイション,0
140,1030003028489,新規,0,2026-01-21,2026-01-21,シマザキジム合同会社,,合同会社,埼玉県,熊谷市,新堀９０９－２,,11,202,3600841,,,,,,,2026-01-21,1,,,,,シマザキジム,0
149,1040001142134,新規,0,2026-01-21,2026-01-21,アールエス株式会社,,株式会社,千葉県,市川市,行徳駅前１丁目１－１６,,12,203,2720133,,,,,,,2026-01-21,1,,,,,アールエス,0
150,1040001142159,新規,0,2026-01-21,2026-01-21,遠東ホールディングス株式会社,,株式会社,千葉県,野田市,岩名２丁目６３番地の１０,,12,208,2780055,,,,,,,2026-01-21,1,,,,,トウトウホールディングス,0
160,1070003006268,新規,0,2026-01-21,2026-01-21,ＭＡＲＴＩＮ合同会社,,合同会社,群馬県,太田市,由良町９５４番地１ハレエワＡ－２０５号,,10,205,3730036,,,,,,,2026-01-21,1,,,,,マーティン,0
176,1080003003636,新規,0,2026-01-21,2026-01-21,ＫＩＮＯＭＥ合同会社,,合同会社,静岡県,静岡市葵区,田町３丁目１０３番地の２１,,22,101,4200068,,,,,,,2026-01-21,1,,,,,キノメ,0
193,1080101026035,新規,0,2026-01-21,2026-01-21,株式会社エムコネクト,,株式会社,静岡県,伊豆市,熊坂３５４番地の１レジデンスカームリー２０２,,22,222,4102411,,,,,,,2026-01-21,1,,,,,エムコネクト,0
221,1100001039282,新規,0,2026-01-21,2026-01-21,株式会社ＳＧプロスパー,,株式会社,長野県,松本市,横田３丁目２６番８－２号,,20,202,3900804,,,,,,,2026-01-21,1,,,,,エスジープロスパー,0
235,1120001283300,新規,0,2026-01-21,2026-01-21,株式会社あきひな,,株式会社,大阪府,守口市,京阪本通２丁目３‐５リバティビル２０１,,27,209,5700083,,,,,,,2026-01-21,1,,,,,アキヒナ,0
236,1120001283473,新規,0,2026-01-21,2026-01-21,株式会社ＬＵＭＩＴＲＥＥ,,株式会社,大阪府,大阪市中央区,南船場３丁目２番２２号おおきに南船場ビル２０５,,27,128,5420081,,,,,,,2026-01-21,1,,,,,ルミツリー,0
237,1120001283531,新規,0,2026-01-21,2026-01-21,雅嵐株式会社,,株式会社,大阪府,大阪市中央区,島之内２丁目６－６－１０１ウーロ島之内,,27,128,5420082,,,,,,,2026-01-21,1,,,,,マサアラシ,0
238,1120001283614,新規,0,2026-01-21,2026-01-21,株式会社ＡＬＯＨＡ,,株式会社,大阪府,寝屋川市,太秦元町２０番２１号,,27,215,5720849,,,,,,,2026-01-21,1,,,,,アロハ,0
240,1120003031649,新規,0,2026-01-21,2026-01-21,合同会社いこ,,合同会社,大阪府,大阪市平野区,喜連西３丁目１７番１２号,,27,126,5470026,,,,,,,2026-01-21,1,,,,,イコ,0
241,1120003031707,新規,0,2026-01-21,2026-01-21,レムニスケート合同会社,,合同会社,大阪府,大阪市北区,梅田１丁目２番２号大阪駅前第２ビル１２－１２,,27,127,5300001,,,,,,,2026-01-21,1,,,,,レムニスケート,0
242,1120003031715,新規,0,2026-01-21,2026-01-21,合同会社ｅｍｐｏｗｅｒｍｅｎｔ,,合同会社,大阪府,大阪市北区,芝田２丁目８－１１共栄ビル３階,,27,127,5300012,,,,,,,2026-01-21,1,,,,,エンパワーメント,0
244,1120101073114,新規,0,2026-01-21,2026-01-21,株式会社ぽいんせちあ,,株式会社,大阪府,泉大津市,東豊中町３丁目１１番５号,,27,206,5950021,,,,,,,2026-01-21,1,,,,,ポインセチア,0
245,1120103006947,新規,0,2026-01-21,2026-01-21,合同会社一期一会,,合同会社,大阪府,大阪狭山市,半田６丁目１１７７番地の１１,,27,231,5890011,,,,,,,2026-01-21,1,,,,,イチゴイチエ,0
246,1120103006955,新規,0,2026-01-21,2026-01-21,ＳＵＰＥＲＡＳＯＬ　ＳＰＯＲＴＳ　ＣＬＵＢ合同会社,,合同会社,大阪府,堺市南区,泉田中２３５２番地５,,27,145,5900126,,,,,,,2026-01-21,1,,,,,スペラソルスポーツクラブ,0
247,1120105010113,新規,0,2026-01-21,2026-01-21,一般社団法人近畿聞き取り困難症・聴覚情報処理障害当事者会,,その他の設立登記法人,大阪府,富田林市,高辺台３丁目３番１３－３０２号,,27,214,5840072,,,,,,,2026-01-21,1,,,,,キンキキキトリコンナンショウチョウカクジョウホウショリショウガイトウジシャカイ,0
249,1120901052135,新規,0,2026-01-21,2026-01-21,株式会社東方国際,,株式会社,大阪府,茨木市,別院町７番５号,,27,211,5670817,,,,,,,2026-01-21,1,,,,,トウホウコクサイ,0
253,1122003003438,新規,0,2026-01-21,2026-01-21,合同会社Ｄｅａｉ,,合同会社,大阪府,東大阪市,吉田５丁目１２番１０号,,27,227,5780924,,,,,,,2026-01-21,1,,,,,デアイ,0
254,1130003011063,新規,0,2026-01-21,2026-01-21,合同会社鷹マサ,,合同会社,京都府,京都市中京区,壬生天池町４２－９ワイズハウス４０５,,26,104,6048874,,,,,,,2026-01-21,1,,,,,タカマサ,0
259,1140001141407,新規,0,2026-01-21,2026-01-21,Ｋ２ＰＲＳ株式会社,,株式会社,兵庫県,加古川市,加古川町寺家町６２１番地ＪＡビル２Ｆ,,28,210,6750066,,,,,,,2026-01-21,1,,,,,ケーツーピーアールエス,0
260,1140001141415,新規,0,2026-01-21,2026-01-21,株式会社エスゴル,,株式会社,兵庫県,尼崎市,昭和通１丁目８番１号山口マンション１Ｆ,,28,202,6600881,,,,,,,2026-01-21,1,,,,,エスゴル,0
265,1140003023074,新規,0,2026-01-21,2026-01-21,合同会社ＳＫ,,合同会社,兵庫県,尼崎市,武庫町３丁目１１番３０－２０２号,,28,202,6610044,,,,,,,2026-01-21,1,,,,,エスケー,0
268,1140005027775,新規,0,2026-01-21,2026-01-21,一般社団法人国際こども家庭福祉研究所,,その他の設立登記法人,兵庫県,神戸市北区,花山中尾台２丁目９番地の９,,28,109,6511202,,,,,,,2026-01-21,1,,,,,コクサイコドモカテイフクシケンキュウショ,0
269,1150001028677,新規,0,2026-01-21,2026-01-21,株式会社エスダイワ,,株式会社,奈良県,橿原市,今井町３丁目１０番６０号の１,,29,205,6340812,,,,,,,2026-01-21,1,,,,,エスダイワ,0
280,1180001170369,新規,0,2026-01-21,2026-01-21,福久科技株式会社,,株式会社,愛知県,名古屋市緑区,南大高４丁目１０６番地の１,,23,114,4598016,,,,,,,2026-01-21,1,,,,,フクキュウカギ,0
366,1200001044636,新規,0,2026-01-21,2026-01-21,ヨコタ工業株式会社,,株式会社,岐阜県,各務原市,鵜沼各務原町５丁目２７４番地,,21,213,5090141,,,,,,,2026-01-21,1,,,,,ヨコタコウギョウ,0
371,1240001066057,新規,0,2026-01-21,2026-01-21,株式会社ＴＡカンパニー,,株式会社,広島県,広島市中区,八丁堀１１番１２号ＫＭＭビル７階,,34,101,7300013,,,,,,,2026-01-21,1,,,,,ティーエーカンパニー,0
385,1290001112797,新規,0,2026-01-21,2026-01-21,株式会社ＩＬ　ＰＯＮＴＥ,,株式会社,福岡県,古賀市,天神１丁目４番３５号,,40,223,8113101,,,,,,,2026-01-21,1,,,,,イルポンテ,0
386,1290001112822,新規,0,2026-01-21,2026-01-21,株式会社ＷＥＬＴＥＣＨ,,株式会社,福岡県,福岡市西区,田尻東１丁目５番１０号,,40,135,8190380,,,,,,,2026-01-21,1,,,,,ウェルテック,0
476,1360001036287,新規,0,2026-01-21,2026-01-21,ホライゾングループ株式会社,,株式会社,沖縄県,八重山郡竹富町,字波照間３０２９,,47,381,9071751,,,,,,,2026-01-21,1,,,,,ホライゾングループ,0
495,1430001096092,新規,0,2026-01-21,2026-01-21,株式会社ノースハンディマン,,株式会社,北海道,札幌市東区,東雁来十二条２丁目１３番５号,,01,103,0070032,,,,,,,2026-01-21,1,,,,,ノースハンディマン,0
525,2010001261654,新規,0,2026-01-21,2026-01-21,ＧＯＤＰＡＹ株式会社,,株式会社,東京都,中央区,新富２丁目１２番７号ＶＭＤビルＢ１,,13,102,1040041,,,,,,,2026-01-21,1,,,,,ゴッドペイ,0
526,2010001261720,新規,0,2026-01-21,2026-01-21,株式会社ゼロセラ,,株式会社,東京都,中央区,日本橋人形町３丁目３番１５号大橋芳町ビル４Ｆ,,13,102,1030013,,,,,,,2026-01-21,1,,,,,ゼロセラ,0
527,2010001261794,新規,0,2026-01-21,2026-01-21,ＬＥＶＥＬ８株式会社,,株式会社,東京都,千代田区,霞が関３丁目２番６号東京倶楽部ビルディング１１階,,13,101,1000013,,,,,,,2026-01-21,1,,,,,レベルエイト,0
528,2010001261852,新規,0,2026-01-21,2026-01-21,株式会社ＨＳホテルマネジメント,,株式会社,東京都,千代田区,内神田２丁目３番４号,,13,101,1010047,,,,,,,2026-01-21,1,,,,,エイチエスホテルマネジメント,0
529,2010001261893,新規,0,2026-01-21,2026-01-21,株式会社言言堂,,株式会社,東京都,千代田区,麹町５丁目３番地第７秋山ビルディング８Ｆ,,13,101,1020083,,,,,,,2026-01-21,1,,,,,ゴンゴンドウ,0
530,2010001261976,新規,0,2026-01-21,2026-01-21,株式会社昂月,,株式会社,東京都,文京区,大塚６丁目２７番８号,,13,105,1120012,,,,,,,2026-01-21,1,,,,,コウゲツ,0
531,2010001262058,新規,0,2026-01-21,2026-01-21,ＪＰＶ第４１号株式会社,,株式会社,東京都,千代田区,霞が関３丁目２番１号,,13,101,1000013,,,,,,,2026-01-21,1,,,,,ジェイピーブイダイヨンジュウイチゴウ,0
536,2010003050048,新規,0,2026-01-21,2026-01-21,合同会社ビルディング,,合同会社,東京都,中央区,銀座５丁目１５―１南海東京ビルディングＢ１Ｆ,,13,102,1040061,,,,,,,2026-01-21,1,,,,,ビルディング,0
537,2010003050064,新規,0,2026-01-21,2026-01-21,ＪＰＳ第４５号合同会社,,合同会社,東京都,千代田区,霞が関３丁目２番１号,,13,101,1000013,,,,,,,2026-01-21,1,,,,,ジェイピーエスダイヨンジュウゴゴウ,0
540,2010103002741,新規,0,2026-01-21,2026-01-21,ＳＴＥＬＬＡ　ＬＩＮＫＥＲ合同会社,,合同会社,東京都,八王子市,上柚木２丁目５３番地８,,13,201,1920373,,,,,,,2026-01-21,1,,,,,,0
546,2010401195857,新規,0,2026-01-21,2026-01-21,アルバリッジ株式会社,,株式会社,東京都,港区,西麻布３丁目１２－１２－３１１,,13,103,1060031,,,,,,,2026-01-21,1,,,,,アルバリッジ,0
547,2010401195907,新規,0,2026-01-21,2026-01-21,Ｐｏｌｙｍｉｎｄ株式会社,,株式会社,東京都,港区,南青山３丁目１番３６号青山丸竹ビル６Ｆ,,13,103,1070062,,,,,,,2026-01-21,1,,,,,ポリマインド,0
548,2010401195972,新規,0,2026-01-21,2026-01-21,Ｚ３ｇｌｏｂａｌ株式会社,,株式会社,東京都,港区,南青山１丁目１－１新青山ビル東館７Ｆ,,13,103,1070062,,,,,,,2026-01-21,1,,,,,ゼットスリーグローバル,0
549,2010401196005,新規,0,2026-01-21,2026-01-21,株式会社Ａｒｉｓ,,株式会社,東京都,港区,東麻布１丁目４番２号ＴＨＥＷＯＲＫＥＲＳ＆ＣＯ５０２号,,13,103,1060044,,,,,,,2026-01-21,1,,,,,アリス,0
555,2010403037108,新規,0,2026-01-21,2026-01-21,ＭｕＬａｂ合同会社,,合同会社,東京都,港区,南青山２丁目２番１５号ウィン青山９４２,,13,103,1070062,,,,,,,2026-01-21,1,,,,,ミューラボ,0
560,2010601068607,新規,0,2026-01-21,2026-01-21,Ｓｕｍｉｄａ　Ｃｏｎｓｕｌｔｉｎｇ株式会社,,株式会社,東京都,墨田区,太平１丁目１４番１－４０８号,,13,107,1300012,,,,,,,2026-01-21,1,,,,,スミダコンサルティング,0
561,2010701048921,新規,0,2026-01-21,2026-01-21,株式会社ブロックデザイン,,株式会社,東京都,品川区,二葉３丁目１８番１９号ＦＵＴＡＢＡＨＯＵＳＥ３１３,,13,109,1420043,,,,,,,2026-01-21,1,,,,,ブロックデザイン,0
571,2010901058794,新規,0,2026-01-21,2026-01-21,株式会社サソール,,株式会社,東京都,世田谷区,祖師谷３丁目１１番１－３０４号,,13,112,1570072,,,,,,,2026-01-21,1,,,,,サソール,0
580,2011001174895,新規,0,2026-01-21,2026-01-21,株式会社ｗａｗａｗｗｗ,,株式会社,東京都,目黒区,五本木２丁目１１－１,,13,110,1530053,,,,,,,2026-01-21,1,,,,,ワワ,0
581,2011001174920,新規,0,2026-01-21,2026-01-21,株式会社ｆｕｎｓ　ｏｎｅ,,株式会社,東京都,渋谷区,東３丁目２４番２号恵比寿ＳＴビル２Ｆ,,13,113,1500011,,,,,,,2026-01-21,1,,,,,ファンズワン,0
582,2011001174937,新規,0,2026-01-21,2026-01-21,Ｗｉｄｅ　Ｎｅｓｔ株式会社,,株式会社,東京都,渋谷区,神南１丁目１１－４ＦＰＧリンクス神南５階,,13,113,1500041,,,,,,,2026-01-21,1,,,,,ワイドネスト,0
583,2011001175084,新規,0,2026-01-21,2026-01-21,株式会社アトリエステートアルファ,,株式会社,東京都,目黒区,大橋１丁目５番１－３７０８号,,13,110,1530044,,,,,,,2026-01-21,1,,,,,アトリエステートアルファ,0
584,2011001175118,新規,0,2026-01-21,2026-01-21,株式会社ＣＯＭＥＴＨＡＩ,,株式会社,東京都,渋谷区,恵比寿１丁目３１番５号,,13,113,1500013,,,,,,,2026-01-21,1,,,,,カムタイ,0
586,2011003023373,新規,0,2026-01-21,2026-01-21,Ｖａｌｕｅ　Ｎｅｘｕｓ合同会社,,合同会社,東京都,渋谷区,広尾１丁目２番地１号ヒカリビル４階,,13,113,1500012,,,,,,,2026-01-21,1,,,,,バリューネクサス,0
605,2011103016913,新規,0,2026-01-21,2026-01-21,合同会社アンモナイト,,合同会社,東京都,新宿区,北新宿２丁目１５番１５号サンライズマンション１０５,,13,104,1690074,,,,,,,2026-01-21,1,,,,,アンモナイト,0
606,2011103016970,新規,0,2026-01-21,2026-01-21,かん工房合同会社,,合同会社,東京都,新宿区,住吉町１４番６号ベルウッドビル１０２,,13,104,1620065,,,,,,,2026-01-21,1,,,,,カンコウボウ,0
607,2011105011697,新規,0,2026-01-21,2026-01-21,一般社団法人Ａｎｉｍａ　Ｈａｋｕｂａ　Ｇｒｏｕｐ,,その他の設立登記法人,東京都,新宿区,四谷２丁目９番地１５東京ユナイテッド綜合事務所内,,13,104,1600004,,,,,,,2026-01-21,1,,,,,アニマハクバグループ,0
612,2011501033015,新規,0,2026-01-21,2026-01-21,株式会社エレクトリカルタイムズ,,株式会社,東京都,北区,浮間２丁目５番１３号,,13,117,1150051,,,,,,,2026-01-21,1,,,,,エレクトリカルタイムズ,0
614,2011601029326,新規,0,2026-01-21,2026-01-21,株式会社一燈堂,,株式会社,東京都,練馬区,石神井台１丁目２番１７号,,13,120,1770045,,,,,,,2026-01-21,1,,,,,イットウドウ,0
615,2011603004987,新規,0,2026-01-21,2026-01-21,合同会社Ｅｎｅｒｇｙ　Ｏｎｅ,,合同会社,東京都,練馬区,南大泉５丁目３８番９号,,13,120,1780064,,,,,,,2026-01-21,1,,,,,エナジーワン,0
618,2011801047342,新規,0,2026-01-21,2026-01-21,株式会社ＮＯＦ,,株式会社,東京都,足立区,千住１丁目４－１東京芸術センター１０階,,13,121,1200034,,,,,,,2026-01-21,1,,,,,エヌオーエフ,0
640,2013301055610,新規,0,2026-01-21,2026-01-21,株式会社リージー,,株式会社,東京都,豊島区,東池袋２丁目７番３号柄澤ビル３Ｆ,,13,116,1700013,,,,,,,2026-01-21,1,,,,,リージー,0
644,2020001166679,新規,0,2026-01-21,2026-01-21,株式会社Ｔｏｍｏに．,,株式会社,神奈川県,横浜市青葉区,奈良３丁目１４番地１,,14,117,2270038,,,,,,,2026-01-21,1,,,,,トモニ,0
645,2020001166794,新規,0,2026-01-21,2026-01-21,藤和リテール株式会社,,株式会社,神奈川県,川崎市中原区,上小田中６丁目５１番１６号,,14,133,2110053,,,,,,,2026-01-21,1,,,,,トウワリテール,0
646,2020001166836,新規,0,2026-01-21,2026-01-21,株式会社ＫＭＲａｙＴｅｃｈ,,株式会社,神奈川県,横浜市南区,井土ケ谷中町３６オーチャードコート１―１３０１号室,,14,105,2320052,,,,,,,2026-01-21,1,,,,,ケーエムレイテック,0
652,2020003030206,新規,0,2026-01-21,2026-01-21,合同会社Ｐｒｏｔｏｔｙｐｅ　Ｌａｂｓ,,合同会社,神奈川県,横浜市神奈川区,金港町５―１４クアドリフォリオ８階,,14,102,2210056,,,,,,,2026-01-21,1,,,,,プロトタイプラボ,0
657,2021003017003,新規,0,2026-01-21,2026-01-21,クロスバウンダーズ合同会社,,合同会社,神奈川県,相模原市緑区,橋本３丁目２７番６号,,14,151,2520143,,,,,,,2026-01-21,1,,,,,クロスバウンダーズ,0
664,2030001170655,新規,0,2026-01-21,2026-01-21,ティーアイ株式会社,,株式会社,埼玉県,入間市,大字小谷田６０９番地６,,11,225,3580026,,,,,,,2026-01-21,1,,,,,ティーアイ,0
669,2040001142174,新規,0,2026-01-21,2026-01-21,株式会社ＫＭＳ　Ｐａｒｔｎｅｒ,,株式会社,千葉県,柏市,つくしが丘１丁目１３－１７,,12,217,2770072,,,,,,,2026-01-21,1,,,,,ケイエムエスパートナー,0
672,2040003029312,新規,0,2026-01-21,2026-01-21,合同会社ポポコム,,合同会社,千葉県,習志野市,実籾１丁目２８番２－３０５号,,12,216,2750002,,,,,,,2026-01-21,1,,,,,ポポコム,0
673,2040003029345,新規,0,2026-01-21,2026-01-21,ＭＴＭ合同会社,,合同会社,千葉県,市川市,妙典４丁目６番１－４０４号ザ・パークハウス市川妙典,,12,203,2720111,,,,,,,2026-01-21,1,,,,,エムティーエム,0
678,2050003009882,新規,0,2026-01-21,2026-01-21,合同会社ＫＯＫＵＡ,,合同会社,茨城県,つくば市,大角豆２０１２番地３８１アクアヒルズ２０１号,,08,220,3050043,,,,,,,2026-01-21,1,,,,,コークア,0
743,2090003002966,新規,0,2026-01-21,2026-01-21,ＡＬＰＳ　ＢＡＳＥ合同会社,,合同会社,山梨県,南アルプス市,藤田１０３－１,,19,208,4000334,,,,,,,2026-01-21,1,,,,,アルプスベース,0
765,2120001283489,新規,0,2026-01-21,2026-01-21,株式会社ＬＮＲ,,株式会社,大阪府,大阪市北区,西天満４丁目１５－１８プラザ梅新１０１２号室,,27,127,5300047,,,,,,,2026-01-21,1,,,,,エルエヌアール,0
766,2120001283514,新規,0,2026-01-21,2026-01-21,株式会社ＷＯＲＫ,,株式会社,大阪府,大阪市淀川区,西中島４丁目７番２０号日宝新大阪第１ビル７階３号室,,27,123,5320011,,,,,,,2026-01-21,1,,,,,ワーク,0
767,2120001283530,新規,0,2026-01-21,2026-01-21,株式会社スマイルファクトリー,,株式会社,大阪府,大阪市浪速区,立葉１丁目２番１２号,,27,111,5560020,,,,,,,2026-01-21,1,,,,,スマイルファクトリー,0
768,2120003031706,新規,0,2026-01-21,2026-01-21,合同会社Ｒｉｐｐｌｅ,,合同会社,大阪府,大阪市城東区,古市３丁目１２番７号,,27,118,5360001,,,,,,,2026-01-21,1,,,,,リップル,0
771,2120101073088,新規,0,2026-01-21,2026-01-21,株式会社サンカラフル,,株式会社,大阪府,堺市堺区,築港八幡町１番地１７１ＭＦＬＰ堺４Ｆ－４１２バース,,27,141,5900901,,,,,,,2026-01-21,1,,,,,サンカラフル,0
772,2120103006954,新規,0,2026-01-21,2026-01-21,合同会社フリード,,合同会社,大阪府,堺市中区,上之２１５番地５,,27,142,5998244,,,,,,,2026-01-21,1,,,,,フリード,0
773,2120105010112,新規,0,2026-01-21,2026-01-21,一般社団法人おりなす,,その他の設立登記法人,大阪府,堺市東区,西野５２７番地１０,,27,143,5998125,,,,,,,2026-01-21,1,,,,,オリナス,0
776,2120901052118,新規,0,2026-01-21,2026-01-21,株式会社ＩＬＳ,,株式会社,大阪府,吹田市,垂水町１丁目４８番６－１０３号,,27,205,5640062,,,,,,,2026-01-21,1,,,,,アイエルエス,0
779,2130001081438,新規,0,2026-01-21,2026-01-21,ｕｂｕ株式会社,,株式会社,京都府,京都市下京区,東洞院通七条下る塩小路町５２０番地三ツ林ビル２階,,26,106,6008212,,,,,,,2026-01-21,1,,,,,ウブ,0
788,2140001141439,新規,0,2026-01-21,2026-01-21,ＵＺＵ‐Ｌｉｇｈｔ株式会社,,株式会社,兵庫県,丹波篠山市,有居８０番地２,,28,221,6692354,,,,,,,2026-01-21,1,,,,,ウズライト,0
792,2140003023008,新規,0,2026-01-21,2026-01-21,合同会社Ｃｏｂｏ,,合同会社,兵庫県,小野市,河合中町５９５－３,,28,218,6751353,,,,,,,2026-01-21,1,,,,,コボ,0
795,2150001028651,新規,0,2026-01-21,2026-01-21,株式会社侑昌会,,株式会社,奈良県,橿原市,大谷町８２番地の１８,,29,205,6340815,,,,,,,2026-01-21,1,,,,,ユウショウカイ,0
813,2180001170368,新規,0,2026-01-21,2026-01-21,株式会社ＫＯＣＨＩ　ＫＯＣＨＩ,,株式会社,愛知県,一宮市,木曽川町門間字南島海１番地,,23,203,4930002,,,,,,,2026-01-21,1,,,,,コチコチ,0
814,2180001170384,新規,0,2026-01-21,2026-01-21,株式会社セブンスペース,,株式会社,愛知県,名古屋市東区,泉１丁目５－２２－７０２,,23,102,4610001,,,,,,,2026-01-21,1,,,,,セブンスペース,0
822,2180301040618,新規,0,2026-01-21,2026-01-21,ｅｇｇ卵ｏｍｐｒｏ株式会社,,株式会社,愛知県,岡崎市,羽根町字鰻池１１２番地３,,23,202,4440813,,,,,,,2026-01-21,1,,,,,エッグランオムプロ,0
892,2190003005331,新規,0,2026-01-21,2026-01-21,合同会社あかつきベース,,合同会社,三重県,四日市市,あかつき台１丁目１‐６,,24,202,5128046,,,,,,,2026-01-21,1,,,,,アカツキベース,0
895,2200003007202,新規,0,2026-01-21,2026-01-21,Ｇｉｆｕ　Ｍｏｔｏｒｓ合同会社,,合同会社,岐阜県,岐阜市,若福町８番２０－１０２号,,21,201,5020811,,,,,,,2026-01-21,1,,,,,ギフモータース,0
899,2240001066064,新規,0,2026-01-21,2026-01-21,株式会社Ｒｉｐｒｏｕｄ,,株式会社,広島県,広島市東区,福田６丁目２４４２番地２,,34,102,7320029,,,,,,,2026-01-21,1,,,,,リプラウド,0
911,2270001009375,新規,0,2026-01-21,2026-01-21,株式会社鳥取県芝,,株式会社,鳥取県,東伯郡琴浦町,大字中尾５０４番地１,,31,371,6892311,,,,,,,2026-01-21,1,,,,,トットリケンシバ,0
921,2290001112854,新規,0,2026-01-21,2026-01-21,株式会社岩高,,株式会社,福岡県,福岡市博多区,吉塚４丁目３－１８－Ｂ－３－１０２号,,40,132,8120041,,,,,,,2026-01-21,1,,,,,イワコウ,0
922,2290001112870,新規,0,2026-01-21,2026-01-21,Ａｓｉａｎ　Ｃａｒｅ　Ｌｉｎｋ株式会社,,株式会社,福岡県,福岡市早良区,荒江３丁目２３番１８号,,40,137,8140021,,,,,,,2026-01-21,1,,,,,アジアンケアリンク,0
926,2290801032194,新規,0,2026-01-21,2026-01-21,株式会社九州飛幡荘,,株式会社,福岡県,北九州市戸畑区,沖台２丁目６番４号,,40,105,8040064,,,,,,,2026-01-21,1,,,,,キュウシュウトビハタソウ,0
928,2300005007289,新規,0,2026-01-21,2026-01-21,医療法人口福歯福,,その他の設立登記法人,佐賀県,鳥栖市,萱方町１３６番地１,,41,203,8410081,,,,,,,2026-01-21,1,,,,,コウフクシフク,0
1008,2360001036286,新規,0,2026-01-21,2026-01-21,株式会社國照運輸,,株式会社,沖縄県,宜野湾市,宜野湾２丁目４番１４号ＡＵタウンハウスＡ－２,,47,205,9012211,,,,,,,2026-01-21,1,,,,,コクショウウンユ,0
1012,2380005013057,新規,0,2026-01-21,2026-01-21,一般社団法人ｇｏｏｄ　ｌａｂ,,その他の設立登記法人,福島県,福島市,飯野町字町１０番地,,07,201,9601301,,,,,,,2026-01-21,1,,,,,グッドラボ,0
1014,2420005007995,新規,0,2026-01-21,2026-01-21,特定非営利活動法人ＢＬＩＮＤ,,その他の設立登記法人,青森県,五所川原市,金木町朝日山４２７,,02,205,0370202,,,,,,,2026-01-21,1,,,,,ブラインド,0
1017,2430003018515,新規,0,2026-01-21,2026-01-21,合同会社ＳＬＤＬ,,合同会社,北海道,札幌市中央区,南四条西９丁目１００９番地２３Ｍａｐｌｅ２０１号室,,01,101,0640804,,,,,,,2026-01-21,1,,,,,エスエルディーエル,0
1022,2470001021062,新規,0,2026-01-21,2026-01-21,ｈｏｓｐｙ株式会社,,株式会社,香川県,高松市,磨屋町５－８,,37,201,7600026,,,,,,,2026-01-21,1,,,,,ホスピィ,0
1035,2500001026743,新規,0,2026-01-21,2026-01-21,株式会社シルトコメ,,株式会社,愛媛県,伊予市,米湊１１９５－４,,38,210,7993113,,,,,,,2026-01-21,1,,,,,シルトコメ,0
1036,2500005008845,新規,0,2026-01-21,2026-01-21,一般社団法人せとうちアクティビティ,,その他の設立登記法人,愛媛県,今治市,北宝来町２丁目１番地５,,38,202,7940028,,,,,,,2026-01-21,1,,,,,,0
1046,3010001261521,新規,0,2026-01-21,2026-01-21,ベルシティグループ株式会社,,株式会社,東京都,千代田区,丸の内２丁目６番１号丸の内パークビルディング８階,,13,101,1000005,,,,,,,2026-01-21,1,,,,,ベルシティグループ,0
1047,3010001262016,新規,0,2026-01-21,2026-01-21,株式会社天宝,,株式会社,東京都,中央区,銀座１丁目１２番４号Ｎ＆ＥＢＬＤ．６Ｆ,,13,102,1040061,,,,,,,2026-01-21,1,,,,,テンホウ,0
1048,3010001262057,新規,0,2026-01-21,2026-01-21,ＪＰＶ第４０号株式会社,,株式会社,東京都,千代田区,霞が関３丁目２番１号,,13,101,1000013,,,,,,,2026-01-21,1,,,,,ジェイピーブイダイヨンジュウゴウ,0
1049,3010001262065,新規,0,2026-01-21,2026-01-21,ＪＰＣ第６１号株式会社,,株式会社,東京都,千代田区,霞が関３丁目２番１号,,13,101,1000013,,,,,,,2026-01-21,1,,,,,ジェイピーシーダイロクジュウイチゴウ,0
1052,3010003050063,新規,0,2026-01-21,2026-01-21,ＪＰＳ第４４号合同会社,,合同会社,東京都,千代田区,霞が関３丁目２番１号,,13,101,1000013,,,,,,,2026-01-21,1,,,,,ジェイピーエスダイヨンジュウヨンゴウ,0
1057,3010401195880,新規,0,2026-01-21,2026-01-21,株式会社カミサンクチュアリ,,株式会社,東京都,港区,北青山３丁目６番７号青山パラシオタワー１１階,,13,103,1070061,,,,,,,2026-01-21,1,,,,,カミサンクチュアリ,0
1058,3010401195906,新規,0,2026-01-21,2026-01-21,ＬＩＲＡ　ＣＯＲＥ株式会社,,株式会社,東京都,港区,赤坂２丁目１７番６３号コンフォリア赤坂８０３,,13,103,1070052,,,,,,,2026-01-21,1,,,,,リラコア,0
1059,3010401195955,新規,0,2026-01-21,2026-01-21,Ｓｍａｒｔ　Ｂｕｉｌｄｉｎｇ　Ｘ株式会社,,株式会社,東京都,港区,海岸１丁目７番１号,,13,103,1050022,,,,,,,2026-01-21,1,,,,,スマートビルディングエックス,0
1063,3010403037073,新規,0,2026-01-21,2026-01-21,合同会社ＹＯＵ　Ｌｉｆｅ　Ｄｅｓｉｇｎ,,合同会社,東京都,港区,北青山１丁目３番１号アールキューブ青山３階,,13,103,1070061,,,,,,,2026-01-21,1,,,,,ユーライフデザイン,0
1064,3010403037115,新規,0,2026-01-21,2026-01-21,ＴｏｋｙｏＳＨ４合同会社,,合同会社,東京都,港区,虎ノ門５丁目１番４号,,13,103,1050001,,,,,,,2026-01-21,1,,,,,トウキョウエスエイチフォー,0
1068,3010601068523,新規,0,2026-01-21,2026-01-21,株式会社ＳＧ　Ｃｌｏｖｅｒ,,株式会社,東京都,江東区,永代２丁目１１番６号,,13,108,1350034,,,,,,,2026-01-21,1,,,,,エスジークローバー,0
1069,3010601068606,新規,0,2026-01-21,2026-01-21,株式会社中山商事,,株式会社,東京都,江東区,千田２０番５号,,13,108,1350013,,,,,,,2026-01-21,1,,,,,ナカヤマショウジ,0
1081,3010701048920,新規,0,2026-01-21,2026-01-21,株式会社ジンジブキャリア,,株式会社,東京都,品川区,大崎１丁目２番２号アートヴィレッジ大崎セントラルタワー６階,,13,109,1410032,,,,,,,2026-01-21,1,,,,,ジンジブキャリア,0
1085,3010801036981,新規,0,2026-01-21,2026-01-21,ＯＡＳ株式会社,,株式会社,東京都,大田区,大森南５丁目１番１２－４０９号,,13,111,1430013,,,,,,,2026-01-21,1,,,,,オアス,0
1086,3010903010562,新規,0,2026-01-21,2026-01-21,合同会社ＦＣＭｐｒｏｍｏｔｉｏｎ,,合同会社,東京都,世田谷区,北沢４丁目７番１５号,,13,112,1550031,,,,,,,2026-01-21,1,,,,,エフシーエムプロモーション,0
1093,3011001174614,新規,0,2026-01-21,2026-01-21,株式会社ＺｅｂｒａＸ,,株式会社,東京都,渋谷区,道玄坂１丁目１０番８号渋谷道玄坂東急ビル２Ｆ―Ｃ,,13,113,1500043,,,,,,,2026-01-21,1,,,,,ゼブラエックス,0
1094,3011001174903,新規,0,2026-01-21,2026-01-21,株式会社ＷＡＫＵＷＡＫＵ,,株式会社,東京都,渋谷区,道玄坂１丁目１０番８号渋谷道玄坂東急ビル２Ｆ―Ｃ,,13,113,1500043,,,,,,,2026-01-21,1,,,,,ワクワク,0
1095,3011001174936,新規,0,2026-01-21,2026-01-21,株式会社大野木事務所,,株式会社,東京都,渋谷区,恵比寿南１丁目４番２号紀伊國屋ビル４階,,13,113,1500022,,,,,,,2026-01-21,1,,,,,オオノギジムショ,0
1096,3011003023364,新規,0,2026-01-21,2026-01-21,合同会社ＵＰ　ＳＴＡＩＲＳ,,合同会社,東京都,目黒区,青葉台４丁目５番１５号クレスト青葉台２０１,,13,110,1530042,,,,,,,2026-01-21,1,,,,,アップステア,0
1097,3011003023397,新規,0,2026-01-21,2026-01-21,ＭＩｄｅｎｔ合同会社,,合同会社,東京都,渋谷区,道玄坂１丁目１０番８号渋谷道玄坂東急ビル２Ｆ－Ｃ,,13,113,1500043,,,,,,,2026-01-21,1,,,,,エムアイデント,0
1098,3011003023414,新規,0,2026-01-21,2026-01-21,ノート合同会社,,合同会社,東京都,渋谷区,本町２丁目４８番２号,,13,113,1510071,,,,,,,2026-01-21,1,,,,,ノート,0
1101,3011101114486,新規,0,2026-01-21,2026-01-21,ａｏｄａｍｏ　ｌａｂ株式会社,,株式会社,東京都,新宿区,新宿１丁目３６番２号新宿第七葉山ビル３Ｆ,,13,104,1600022,,,,,,,2026-01-21,1,,,,,アオダモラボ,0
1111,3011603004986,新規,0,2026-01-21,2026-01-21,きまじめ合同会社,,合同会社,東京都,練馬区,石神井町８丁目１５－１５,,13,120,1770041,,,,,,,2026-01-21,1,,,,,キマジメ,0
1112,3011801047341,新規,0,2026-01-21,2026-01-21,株式会社Ｒｉｚ　Ｔｏｋｙｏ,,株式会社,東京都,足立区,綾瀬１丁目２３番２９号,,13,121,1200005,,,,,,,2026-01-21,1,,,,,リズトウキョウ,0
1121,3012401044043,新規,0,2026-01-21,2026-01-21,文化創縁株式会社,,株式会社,東京都,多摩市,愛宕４丁目４１番地３－９０１,,13,224,2060041,,,,,,,2026-01-21,1,,,,,ブンカソウエン,0
1142,3020001166686,新規,0,2026-01-21,2026-01-21,株式会社インテグリスコンサルティング,,株式会社,神奈川県,横浜市神奈川区,金港町５－１４クアドリフォリオ８階,,14,102,2210056,,,,,,,2026-01-21,1,,,,,インテグリスコンサルティング,0
1143,3020001166760,新規,0,2026-01-21,2026-01-21,Ｍｐｌａｎｎｉｎｇ株式会社,,株式会社,神奈川県,横浜市南区,中村町４丁目２７３‐２８‐１Ｆ,,14,105,2320033,,,,,,,2026-01-21,1,,,,,エムプランニング,0
1144,3020001166793,新規,0,2026-01-21,2026-01-21,株式会社浜城,,株式会社,神奈川県,横浜市泉区,和泉中央北２丁目４５番３０号,,14,116,2450024,,,,,,,2026-01-21,1,,,,,ハマシロ,0
1147,3020003030147,新規,0,2026-01-21,2026-01-21,合同会社ＫＮカンパニー,,合同会社,神奈川県,川崎市川崎区,堀之内町１２－１,,14,131,2100003,,,,,,,2026-01-21,1,,,,,ケーエヌカンパニー,0
1148,3020003030205,新規,0,2026-01-21,2026-01-21,合同会社ＨＩＲＯＸ,,合同会社,神奈川県,横浜市西区,北幸２丁目１０番４８号むつみビル３階,,14,103,2200004,,,,,,,2026-01-21,1,,,,,ヒロックス,0
1154,3021001087204,新規,0,2026-01-21,2026-01-21,株式会社ＲＯＡＬＯＭ,,株式会社,神奈川県,高座郡寒川町,倉見９０２番地２,,14,321,2530101,,,,,,,2026-01-21,1,,,,,ロアロム,0
1155,3021001087212,新規,0,2026-01-21,2026-01-21,株式会社ファームランドデザイン,,株式会社,神奈川県,藤沢市,辻堂神台２丁目２－１アイクロス湘南５階Ｅ号Ｕ－ＰｏｒｔＳＨＯＮＡＮ内,,14,205,2510041,,,,,,,2026-01-21,1,,,,,ファームランドデザイン,0
1156,3021001087294,新規,0,2026-01-21,2026-01-21,株式会社Ｒｏｏｔｓ,,株式会社,神奈川県,藤沢市,辻堂１丁目１４番１号２Ｆ,,14,205,2510047,,,,,,,2026-01-21,1,,,,,ルーツ,0
1159,3021003017002,新規,0,2026-01-21,2026-01-21,合同会社ＪＹＴインターナショナル,,合同会社,神奈川県,大和市,南林間１丁目７番２号２階,,14,213,2420006,,,,,,,2026-01-21,1,,,,,ジェイワイティーインターナショナル,0
1166,3030001170571,新規,0,2026-01-21,2026-01-21,株式会社巨人,,株式会社,埼玉県,さいたま市岩槻区,大字釣上４４２,,11,110,3390024,,,,,,,2026-01-21,1,,,,,キョジン,0
1167,3030001170605,新規,0,2026-01-21,2026-01-21,株式会社シャンティー,,株式会社,埼玉県,川越市,大字並木２４１番地１シャンティービル５０１,,11,201,3500023,,,,,,,2026-01-21,1,,,,,シャンティー,0
1168,3030003028462,新規,0,2026-01-21,2026-01-21,合同会社絹村物流,,合同会社,埼玉県,加須市,不動岡９２９番地１４,,11,210,3470054,,,,,,,2026-01-21,1,,,,,キヌムラブツリュウ,0
1176,3050003009881,新規,0,2026-01-21,2026-01-21,合同会社サンフラワー,,合同会社,茨城県,守谷市,みずき野４丁目６番地３,,08,224,3020121,,,,,,,2026-01-21,1,,,,,サンフラワー,0
1218,3080101026033,新規,0,2026-01-21,2026-01-21,株式会社ＬＩＯＮ　ＨＥＡＲＴ,,株式会社,静岡県,御殿場市,杉名沢５５番地の５,,22,215,4120044,,,,,,,2026-01-21,1,,,,,ライオンハート,0
1249,3090003002965,新規,0,2026-01-21,2026-01-21,合同会社ニューステップ,,合同会社,山梨県,笛吹市,春日居町鎮目字御嶽８０４番１,,19,211,4060015,,,,,,,2026-01-21,1,,,,,ニューステップ,0
1254,3110001039858,新規,0,2026-01-21,2026-01-21,丸仙株式会社,,株式会社,新潟県,魚沼市,中家６８８番地,,15,225,9460063,,,,,,,2026-01-21,1,,,,,マルセン,0
1264,3120001283513,新規,0,2026-01-21,2026-01-21,株式会社Ｕ１,,株式会社,大阪府,大阪市西区,北堀江１丁目１０番１３号,,27,106,5500014,,,,,,,2026-01-21,1,,,,,ユーワン,0
1265,3120003031696,新規,0,2026-01-21,2026-01-21,合同会社ＤＡＨＬＩＡ,,合同会社,大阪府,大阪市生野区,鶴橋３丁目７－１６、２Ｆ,,27,116,5440031,,,,,,,2026-01-21,1,,,,,ダリア,0
1266,3120003031713,新規,0,2026-01-21,2026-01-21,合同会社アドオンサイト,,合同会社,大阪府,大阪市北区,梅田１丁目２番２号大阪駅前第２ビル１２－１２,,27,127,5300001,,,,,,,2026-01-21,1,,,,,アドオンサイト,0
1267,3120101073104,新規,0,2026-01-21,2026-01-21,株式会社小野,,株式会社,大阪府,河内長野市,木戸町６７９番地の３２,,27,216,5860001,,,,,,,2026-01-21,1,,,,,オノ,0
1269,3120105010111,新規,0,2026-01-21,2026-01-21,医療法人和真会,,その他の設立登記法人,大阪府,堺市東区,西野４４０番地４ドゥウェルプレシャス１階,,27,143,5998125,,,,,,,2026-01-21,1,,,,,ワシンカイ,0
1273,3120901052091,新規,0,2026-01-21,2026-01-21,ＩＴＯ株式会社,,株式会社,大阪府,箕面市,如意谷２丁目２番４１号,,27,220,5620011,,,,,,,2026-01-21,1,,,,,アイティオー,0
1274,3120901052109,新規,0,2026-01-21,2026-01-21,株式会社学習塾ステップ,,株式会社,大阪府,茨木市,真砂３丁目１２番２２号,,27,211,5670851,,,,,,,2026-01-21,1,,,,,ガクシュウジュクステップ,0
1278,3122003003436,新規,0,2026-01-21,2026-01-21,合同会社ＪＢＭ,,合同会社,大阪府,東大阪市,新喜多２丁目６番２７号４０３３,,27,227,5770052,,,,,,,2026-01-21,1,,,,,ジェービーエム,0
1281,3130001081437,新規,0,2026-01-21,2026-01-21,株式会社ＡＧ,,株式会社,京都府,京田辺市,宮津灰崎４７番地２,,26,211,6100314,,,,,,,2026-01-21,1,,,,,エージー,0
1285,3130003011086,新規,0,2026-01-21,2026-01-21,砂井運送合同会社,,合同会社,京都府,京都市中京区,西ノ京北壺井町８８番地１二条プラザ３１５号室,,26,104,6048472,,,,,,,2026-01-21,1,,,,,スナイウンソウ,0
1290,3140001141421,新規,0,2026-01-21,2026-01-21,Ｏｍｔ．Ｐ．Ｖ．Ｃ．株式会社,,株式会社,兵庫県,神戸市東灘区,本山中町３丁目１０番１５号,,28,101,6580016,,,,,,,2026-01-21,1,,,,,オムトピーブイシー,0
1291,3140001141446,新規,0,2026-01-21,2026-01-21,株式会社ｅｎ,,株式会社,兵庫県,多可郡多可町,中区岸上１４番地１,,28,365,6791114,,,,,,,2026-01-21,1,,,,,エン,0
1299,3150005009754,新規,0,2026-01-21,2026-01-21,医療法人令輪会,,その他の設立登記法人,奈良県,橿原市,四分町２番地の１うねびクリニックモール２Ｆ（Ｂ号室）,,29,205,6340074,,,,,,,2026-01-21,1,,,,,レイワカイ,0
1314,3180001170334,新規,0,2026-01-21,2026-01-21,株式会社亀友造園,,株式会社,愛知県,名古屋市守山区,大森５丁目２１０７番地エスポア大森１３０１号,,23,113,4630021,,,,,,,2026-01-21,1,,,,,カメトモゾウエン,0
1315,3180001170359,新規,0,2026-01-21,2026-01-21,株式会社ＧＬＡＮＺＥＥＤ,,株式会社,愛知県,名古屋市中村区,名駅３丁目４－１０アルティメイト名駅１ｓｔ２階,,23,105,4500002,,,,,,,2026-01-21,1,,,,,グランジード,0
1316,3180001170367,新規,0,2026-01-21,2026-01-21,株式会社星運商事,,株式会社,愛知県,名古屋市中川区,五女子町１丁目２４番地の２,,23,110,4540034,,,,,,,2026-01-21,1,,,,,セイウンショウジ,0
1317,3180001170375,新規,0,2026-01-21,2026-01-21,株式会社Ｓｉａｍｏ,,株式会社,愛知県,一宮市,緑４丁目１０番２５号,,23,203,4910862,,,,,,,2026-01-21,1,,,,,シアモ,0
1321,3180003029652,新規,0,2026-01-21,2026-01-21,合同会社ＣＩＢＡＹＩ,,合同会社,愛知県,名古屋市南区,観音町４丁目１９番地の１,,23,112,4570845,,,,,,,2026-01-21,1,,,,,シバジ,0
1322,3180005021392,新規,0,2026-01-21,2026-01-21,一般社団法人東海フラメンコ協会,,その他の設立登記法人,愛知県,豊明市,新栄町２丁目１８４番地,,23,229,4701154,,,,,,,2026-01-21,1,,,,,トウカイフラメンコキョウカイ,0
1326,3180301040625,新規,0,2026-01-21,2026-01-21,ＣＬＩＭＡＴＥＣ株式会社,,株式会社,愛知県,豊田市,保見ケ丘２丁目１３２番地,,23,211,4700353,,,,,,,2026-01-21,1,,,,,クリマテック,0
1395,3190001032847,新規,0,2026-01-21,2026-01-21,株式会社伊勢中川カントリークラブ,,株式会社,三重県,津市,一志町井生１７４３番地２,,24,201,5152523,,,,,,,2026-01-21,1,,,,,イセナカガワカントリークラブ,0
1399,3190003005297,新規,0,2026-01-21,2026-01-21,和夢合同会社,,合同会社,三重県,津市,稲葉町２３８６番地８７,,24,201,5141252,,,,,,,2026-01-21,1,,,,,カム,0
1404,3200001044634,新規,0,2026-01-21,2026-01-21,株式会社いろどりファーム,,株式会社,岐阜県,海津市,平田町高田１１３７番地,,21,221,5030313,,,,,,,2026-01-21,1,,,,,イロドリファーム,0
1416,3240001066071,新規,0,2026-01-21,2026-01-21,株式会社ＩＣＨＩＭＩ　ＨＤ,,株式会社,広島県,尾道市,浦崎町３４２３番地,,34,205,7200551,,,,,,,2026-01-21,1,,,,,イチミホールディングス,0
1429,3290001112795,新規,0,2026-01-21,2026-01-21,株式会社スリーエル,,株式会社,福岡県,福岡市博多区,吉塚２丁目２０番９－６０４号,,40,132,8120041,,,,,,,2026-01-21,1,,,,,スリーエル,0
1430,3290001112861,新規,0,2026-01-21,2026-01-21,株式会社村永筋肉製作所,,株式会社,福岡県,福岡市城南区,別府３丁目３番１４号第２三勇ビル２０１,,40,136,8140104,,,,,,,2026-01-21,1,,,,,ムラナガキンニクセイサクジョ,0
1433,3290003017910,新規,0,2026-01-21,2026-01-21,合同会社ｃｏｍｍｉｔ,,合同会社,福岡県,福岡市博多区,博多駅前１丁目２３番２号ＰａｒｋＦｒｏｎｔ博多駅前１丁目５Ｆ－Ｂ,,40,132,8120011,,,,,,,2026-01-21,1,,,,,コミット,0
1434,3290801032193,新規,0,2026-01-21,2026-01-21,ＬＩＮＫ株式会社,,株式会社,福岡県,中間市,通谷３丁目１０番１１号,,40,215,8090018,,,,,,,2026-01-21,1,,,,,リンク,0
1437,3300003002407,新規,0,2026-01-21,2026-01-21,合同会社ＫＭＨ,,合同会社,佐賀県,佐賀市,松原２丁目２－１３－７０６エバーライフ佐賀城内,,41,201,8400831,,,,,,,2026-01-21,1,,,,,ケイエムエイチ,0
1501,3330001033938,新規,0,2026-01-21,2026-01-21,株式会社花,,株式会社,熊本県,玉名市,岱明町下沖洲８３０番地,,43,206,8690212,,,,,,,2026-01-21,1,,,,,ハナ,0
1522,3400003003601,新規,0,2026-01-21,2026-01-21,ＷＩＺＥ合同会社,,合同会社,岩手県,一関市,滝沢字苦木１２７－４,,03,209,0290132,,,,,,,2026-01-21,1,,,,,,0
1524,3410001014376,新規,0,2026-01-21,2026-01-21,株式会社天鳳,,株式会社,秋田県,秋田市,河辺赤平字田中５５番地２,,05,201,0192623,,,,,,,2026-01-21,1,,,,,テンホウ,0
1525,3420001019399,新規,0,2026-01-21,2026-01-21,株式会社沖澤塗装工業,,株式会社,青森県,三沢市,美野原１丁目１８番地１４号,,02,207,0330033,,,,,,,2026-01-21,1,,,,,オキサワトソウコウギョウ,0
1528,3430001096074,新規,0,2026-01-21,2026-01-21,ＵＮＩＣＯ株式会社,,株式会社,北海道,札幌市東区,北七条東８丁目１番２０号,,01,103,0650007,,,,,,,2026-01-21,1,,,,,ユニコ,0
1529,3430001096090,新規,0,2026-01-21,2026-01-21,旭川警察庁舎整備事業ＰＦＩパートナーズ株式会社,,株式会社,北海道,札幌市東区,北四十二条東１７丁目６番１２号,,01,103,0070842,,,,,,,2026-01-21,1,,,,,アサヒカワケイサツチョウシャセイビジギョウピーエフアイパートナーズ,0
1531,3440001004358,新規,0,2026-01-21,2026-01-21,株式会社精養軒,,株式会社,北海道,函館市,元町２９番１４号,,01,202,0400054,,,,,,,2026-01-21,1,,,,,セイヨウケン,0
1543,3500001026742,新規,0,2026-01-21,2026-01-21,株式会社知財経営支援社中,,株式会社,愛媛県,四国中央市,寒川町１３３３番地１,,38,213,7990431,,,,,,,2026-01-21,1,,,,,チザイケイエイシエンシャチュ,0
1569,4010001262048,新規,0,2026-01-21,2026-01-21,ＸＡＺＥＬＬ　ＦＵＮＤ　Ｈｏｌｄｉｎｇｓ株式会社,,株式会社,東京都,千代田区,鍛冶町１丁目１０番４号,,13,101,1010044,,,,,,,2026-01-21,1,,,,,アゼルファンドホールディングス,0
1570,4010001262056,新規,0,2026-01-21,2026-01-21,ＪＰＶ第３９号株式会社,,株式会社,東京都,千代田区,霞が関３丁目２番１号,,13,101,1000013,,,,,,,2026-01-21,1,,,,,ジェイピーブイダイサンジュウキュウゴウ,0
1571,4010001262064,新規,0,2026-01-21,2026-01-21,ＪＰＣ第６０号株式会社,,株式会社,東京都,千代田区,霞が関３丁目２番１号,,13,101,1000013,,,,,,,2026-01-21,1,,,,,ジェイピーシーダイロクジュウゴウ,0
1572,4010001262072,新規,0,2026-01-21,2026-01-21,片石健康食品株式会社,,株式会社,東京都,中央区,銀座１丁目１２番４号Ｎ＆ＥＢＬＤ．６Ｆ,,13,102,1040061,,,,,,,2026-01-21,1,,,,,カタイシケンコウショクヒン,0
1573,4010001262106,新規,0,2026-01-21,2026-01-21,Ｃｒｙｐｔａｔｅ株式会社,,株式会社,東京都,千代田区,神田神保町１丁目１０番地１ＩＶＹＢＬＤＧ．９Ｆ,,13,101,1010051,,,,,,,2026-01-21,1,,,,,クリプテート,0
1574,4010001262196,新規,0,2026-01-21,2026-01-21,株式会社ＣＩＴＹ　ＳＬＩＣＫＥＲ,,株式会社,東京都,中央区,銀座１丁目２２番１１号銀座大竹ビジデンス２Ｆ,,13,102,1040061,,,,,,,2026-01-21,1,,,,,シティスリッカー,0
1581,4010003050062,新規,0,2026-01-21,2026-01-21,ＪＰＳ第４３号合同会社,,合同会社,東京都,千代田区,霞が関３丁目２番１号,,13,101,1000013,,,,,,,2026-01-21,1,,,,,ジェイピーエスダイヨンジュウサンゴウ,0
1583,4010101017038,新規,0,2026-01-21,2026-01-21,用友シンフシャ株式会社,,株式会社,東京都,八王子市,寺町４３－９中銀八王子マンシオン２０２Ｃ号室,,13,201,1920073,,,,,,,2026-01-21,1,,,,,ヨーユウシンフシャ,0
1589,4010401195599,新規,0,2026-01-21,2026-01-21,タンデムラボ株式会社,,株式会社,東京都,港区,北青山１丁目３－３,,13,103,1070061,,,,,,,2026-01-21,1,,,,,タンデムラボ,0
1590,4010401195789,新規,0,2026-01-21,2026-01-21,みなとカスタムズ・リンク株式会社,,株式会社,東京都,港区,高輪３丁目１１－５シルバーコーポ１０３,,13,103,1080074,,,,,,,2026-01-21,1,,,,,ミナトカスタムズリンク,0
1591,4010401195896,新規,0,2026-01-21,2026-01-21,株式会社罪無き,,株式会社,東京都,港区,西新橋２丁目１３番９号,,13,103,1050003,,,,,,,2026-01-21,1,,,,,ツミナキ,0
1592,4010401195962,新規,0,2026-01-21,2026-01-21,株式会社Ｌｕｘｉａ　Ｔｅｃｈ,,株式会社,東京都,港区,六本木６丁目１番２４号ラピロス六本木５Ｆ５－５３,,13,103,1060032,,,,,,,2026-01-21,1,,,,,ラグシアテック,0
1597,4010403037048,新規,0,2026-01-21,2026-01-21,合同会社パワーステーション,,合同会社,東京都,港区,芝大門１丁目４－４－４０８,,13,103,1050012,,,,,,,2026-01-21,1,,,,,パワーステーション,0
1598,4010403037072,新規,0,2026-01-21,2026-01-21,合同会社Ｒｅｌｉｅｒ　Ｔｉｓｓｅ,,合同会社,東京都,港区,浜松町１丁目２０番８号山市ビル５階,,13,103,1050013,,,,,,,2026-01-21,1,,,,,ルリエティセ,0
1599,4010403037106,新規,0,2026-01-21,2026-01-21,ＮＥＸＴ　ＩＮＮＯＶＡＴＩＯＮ合同会社,,合同会社,東京都,港区,新橋３丁目１６番９号エムエールビルＩＩ,00142267,13,103,1050004,,,,,,,2026-01-21,1,,,,,ネクストイノベーション,0
1601,4010405025174,新規,0,2026-01-21,2026-01-21,特定目的会社ＴＳＭＺ１９,,その他の設立登記法人,東京都,港区,元赤坂１丁目１番７号,,13,103,1070051,,,,,,,2026-01-21,1,,,,,ティーエスエムゼットナインティーン,0
1605,4010501055323,新規,0,2026-01-21,2026-01-21,株式会社ＮＥＸＴ　ＰＬＡＴＥ,,株式会社,東京都,台東区,浅草１丁目３２番１号,,13,106,1110032,,,,,,,2026-01-21,1,,,,,ネクストプレート,0
1619,4011001174662,新規,0,2026-01-21,2026-01-21,株式会社インサイトシンク,,株式会社,東京都,渋谷区,代々木１丁目４３‐１１ＺＥＲＯ代々木ビル,,13,113,1510053,,,,,,,2026-01-21,1,,,,,インサイトシンク,0
1620,4011001174919,新規,0,2026-01-21,2026-01-21,Ｐｒｏｓｐｅｒ３株式会社,,株式会社,東京都,渋谷区,恵比寿西２丁目８番４号ＥＸ恵比寿西ビル５階,,13,113,1500021,,,,,,,2026-01-21,1,,,,,プロスパースリー,0
1621,4011001174951,新規,0,2026-01-21,2026-01-21,株式会社ＣＨＡＮＣＥ　ＡＲＴ＆ＴＥＣＨＮＯＬＯＧＹ,,株式会社,東京都,目黒区,鷹番２丁目２０番２０号イニッゾ学芸大学,,13,110,1520004,,,,,,,2026-01-21,1,,,,,チャンスアートアンドテクノロジー,0
1622,4011001175017,新規,0,2026-01-21,2026-01-21,株式会社ＨＩＧＨＬＡＮＤ　ＢＡＳＥ,,株式会社,東京都,渋谷区,南平台町１２番１３ー１００５号,,13,113,1500036,,,,,,,2026-01-21,1,,,,,ハイランドベース,0
1623,4011001175025,新規,0,2026-01-21,2026-01-21,株式会社ＤＡＫＯＴＴ,,株式会社,東京都,目黒区,上目黒２丁目４９番１６号カーサプロスペリータＩＩ２階,00142277,13,110,1530051,,,,,,,2026-01-21,1,,,,,ダコット,0
1624,4011001175041,新規,0,2026-01-21,2026-01-21,株式会社ＰＩＮＳ１６,,株式会社,東京都,渋谷区,神宮前４丁目２６番２８号ヴレクール２Ｆ,,13,113,1500001,,,,,,,2026-01-21,1,,,,,ピンズイチロク,0
1625,4011001175090,新規,0,2026-01-21,2026-01-21,ＦｏｒｗａｒｄＤｅｐｌｏｙ　ＡＩ株式会社,,株式会社,東京都,渋谷区,道玄坂１丁目１０－８渋谷道玄坂東急ビル２Ｆ－Ｃ,,13,113,1500043,,,,,,,2026-01-21,1,,,,,フォワードデプロイエーアイ,0
1626,4011003023355,新規,0,2026-01-21,2026-01-21,合同会社Ａｌｉｚｅ,,合同会社,東京都,渋谷区,神泉町１０番１５号アネックス神泉３０１,,13,113,1500045,,,,,,,2026-01-21,1,,,,,アリゼ,0
1627,4011003023413,新規,0,2026-01-21,2026-01-21,合同会社ＭＹ　ＬＩＥＮ,,合同会社,東京都,渋谷区,広尾１丁目２－１ヒカリビル４階,,13,113,1500012,,,,,,,2026-01-21,1,,,,,エムワイリアン,0
1633,4011105011712,新規,0,2026-01-21,2026-01-21,行政書士法人穂,,その他の設立登記法人,東京都,新宿区,西新宿１丁目２６番２号新宿野村ビル２９階,,13,104,1600023,,,,,,,2026-01-21,1,,,,,ホノカ,0
1635,4011401027750,新規,0,2026-01-21,2026-01-21,Ｆｒｏｇｇｙ　Ｆｉｅｌｄ株式会社,,株式会社,東京都,板橋区,前野町２丁目４番９－４０３号,,13,119,1740063,,,,,,,2026-01-21,1,,,,,フロッギーフィールド,0
1637,4011601029332,新規,0,2026-01-21,2026-01-21,株式会社ＷＥＡＶＥ　ＣＡＲＥ,,株式会社,東京都,練馬区,高松６丁目３７番２号,,13,120,1790075,,,,,,,2026-01-21,1,,,,,ウィーブケア,0
1641,4011801047349,新規,0,2026-01-21,2026-01-21,アイエスピー株式会社,,株式会社,東京都,足立区,西新井５丁目３３番１号,,13,121,1230841,,,,,,,2026-01-21,1,,,,,アイエスピー,0
1655,4013301055600,新規,0,2026-01-21,2026-01-21,ＫａｎＰｏｎ１株式会社,,株式会社,東京都,豊島区,南池袋３丁目８番３－６０１号,,13,116,1710022,,,,,,,2026-01-21,1,,,,,カンポンワン,0
1662,4020001166677,新規,0,2026-01-21,2026-01-21,株式会社ＴＨＩＮＸ,,株式会社,神奈川県,横浜市青葉区,田奈町７番地２３,,14,117,2270064,,,,,,,2026-01-21,1,,,,,シンクス,0
1663,4020001166768,新規,0,2026-01-21,2026-01-21,株式会社鳥山ベースワン,,株式会社,神奈川県,横浜市旭区,万騎が原１４８番地５８,,14,112,2410836,,,,,,,2026-01-21,1,,,,,トリヤマベースワン,0
1665,4020003030138,新規,0,2026-01-21,2026-01-21,合同会社ＬＸＬ,,合同会社,神奈川県,横浜市神奈川区,台町１４番地１３,,14,102,2210834,,,,,,,2026-01-21,1,,,,,エルエクスエル,0
1666,4020003030170,新規,0,2026-01-21,2026-01-21,合同会社フリクシード,,合同会社,神奈川県,横浜市磯子区,磯子台２７Ｄ－７０７,,14,107,2350019,,,,,,,2026-01-21,1,,,,,フリクシード,0
1668,4021001087351,新規,0,2026-01-21,2026-01-21,株式会社スズキインシュアランス,,株式会社,神奈川県,相模原市緑区,相原２丁目１３番７号ウェルハウス２０１,,14,151,2520141,,,,,,,2026-01-21,1,,,,,スズキインシュアランス,0
1680,4030001170612,新規,0,2026-01-21,2026-01-21,科信株式会社,,株式会社,埼玉県,上尾市,大字領家１１１４－１,,11,219,3620066,,,,,,,2026-01-21,1,,,,,カシン,0
1681,4030001170637,新規,0,2026-01-21,2026-01-21,株式会社加藤リンクス,,株式会社,埼玉県,川口市,並木３丁目１２番１５号サーハンハウス３０１,,11,203,3320034,,,,,,,2026-01-21,1,,,,,カトウリンクス,0
1682,4030001170645,新規,0,2026-01-21,2026-01-21,株式会社ＪＤプロパティ,,株式会社,埼玉県,鴻巣市,鎌塚１丁目３番１号,,11,217,3690112,,,,,,,2026-01-21,1,,,,,ジェイディープロパティ,0
1683,4030001170653,新規,0,2026-01-21,2026-01-21,株式会社三樹パートナーズ,,株式会社,埼玉県,川口市,上青木西４丁目１４番７－６号,,11,203,3330845,,,,,,,2026-01-21,1,,,,,ミキパートナーズ,0
1687,4030003028387,新規,0,2026-01-21,2026-01-21,合同会社Ｆｅｒｉｏｎ,,合同会社,埼玉県,さいたま市緑区,原山１丁目５－９－５０１,,11,109,3360931,,,,,,,2026-01-21,1,,,,,ヘリン,0
1688,4030003028486,新規,0,2026-01-21,2026-01-21,ＲＭＫコンサルティング合同会社,,合同会社,埼玉県,和光市,下新倉４丁目１０番１９号,,11,229,3510111,,,,,,,2026-01-21,1,,,,,アールエムケイコンサルティング,0
1689,4030003028494,新規,0,2026-01-21,2026-01-21,合同会社ゼストラ,,合同会社,埼玉県,さいたま市大宮区,桜木町２丁目３番地大宮マルイ７階,,11,103,3300854,,,,,,,2026-01-21,1,,,,,ゼストラ,0
1696,4040003029335,新規,0,2026-01-21,2026-01-21,ＳＭＩＬＥ　ＢＲＩＤＧＥ合同会社,,合同会社,千葉県,船橋市,東中山１丁目２２番１２号,,12,204,2730036,,,,,,,2026-01-21,1,,,,,スマイルブリッジ,0
1699,4050001057881,新規,0,2026-01-21,2026-01-21,祐建株式会社,,株式会社,茨城県,つくばみらい市,福岡１４１６番地３,,08,235,3002406,,,,,,,2026-01-21,1,,,,,ユウケン,0
1702,4060001038939,新規,0,2026-01-21,2026-01-21,株式会社ＣＬＡＳＳ,,株式会社,栃木県,宇都宮市,兵庫塚町２９８番地２,,09,201,3210156,,,,,,,2026-01-21,1,,,,,クラス,0
1704,4070001043756,新規,0,2026-01-21,2026-01-21,株式会社Ｖｅｎｔｉ,,株式会社,群馬県,伊勢崎市,山王町１０７９‐１ヴィラプラシードＢ２０１,,10,204,3720831,,,,,,,2026-01-21,1,,,,,ヴェンティ,0
1737,4080003003633,新規,0,2026-01-21,2026-01-21,合同会社Ｓｍａｌｌ　ｍｏｕｎｔａｉｎ,,合同会社,静岡県,藤枝市,高岡３丁目７番４－１,,22,214,4260062,,,,,,,2026-01-21,1,,,,,スモールマウンテン,0
1771,4090003002964,新規,0,2026-01-21,2026-01-21,合同会社大久保商会,,合同会社,山梨県,北杜市,長坂町長坂上条２５３３－２３,,19,209,4080021,,,,,,,2026-01-21,1,,,,,オオクボショウカイ,0
1773,4100003008555,新規,0,2026-01-21,2026-01-21,合同会社ミトハ建築設計,,合同会社,長野県,諏訪郡下諏訪町,３１９４番地７,,20,361,3930000,,,,,,,2026-01-21,1,,,,,ミトハケンチクセッケイ,0
1788,4120001283462,新規,0,2026-01-21,2026-01-21,ＴＩＲＵＰＡＴＩ株式会社,,株式会社,大阪府,大阪市中央区,谷町２丁目５番４,,27,128,5400012,,,,,,,2026-01-21,1,,,,,ティルパティ,0
1789,4120001283470,新規,0,2026-01-21,2026-01-21,株式会社Ｍ‐ＴＲＵＳＴ,,株式会社,大阪府,大阪市東成区,東今里３丁目１４番２９号アクアパレス１階,,27,115,5370011,,,,,,,2026-01-21,1,,,,,エムトラスト,0
1790,4120001283495,新規,0,2026-01-21,2026-01-21,株式会社サニュリス,,株式会社,大阪府,大阪市住吉区,沢之町１丁目１－２６・４Ｆ４Ａ,,27,120,5580031,,,,,,,2026-01-21,1,,,,,サニュリス,0
1791,4120001283504,新規,0,2026-01-21,2026-01-21,株式会社ｅｔｈｏｓ,,株式会社,大阪府,大阪市大正区,三軒家東２丁目１２番６９－５２５号,,27,108,5510002,,,,,,,2026-01-21,1,,,,,エートス,0
1793,4120003031704,新規,0,2026-01-21,2026-01-21,合同会社Ｙ＆Ａ　Ｃｏｎｓｕｌｔｉｎｇ,,合同会社,大阪府,大阪市北区,本庄西１丁目１番７－１８０２号,,27,127,5310073,,,,,,,2026-01-21,1,,,,,ワイアンドエーコンサルティング,0
1795,4120101073111,新規,0,2026-01-21,2026-01-21,Ｉ＆Ｅ株式会社,,株式会社,大阪府,堺市南区,豊田８４４－１,,27,145,5900106,,,,,,,2026-01-21,1,,,,,アイアンドイー,0
1796,4120103006952,新規,0,2026-01-21,2026-01-21,合同会社フラック,,合同会社,大阪府,岸和田市,土生町８丁目１８－２,,27,202,5960825,,,,,,,2026-01-21,1,,,,,フラック,0
1799,4120901052124,新規,0,2026-01-21,2026-01-21,株式会社ミッションワークス,,株式会社,大阪府,茨木市,彩都やまぶき４丁目４－５,,27,211,5670086,,,,,,,2026-01-21,1,,,,,ミッションワークス,0
1803,4122005003870,新規,0,2026-01-21,2026-01-21,一般社団法人日本太陽光発電推奨協会,,その他の設立登記法人,大阪府,東大阪市,吉松１丁目８番１１号－２０２号,,27,227,5770821,,,,,,,2026-01-21,1,,,,,ニホンタイヨウコウハツデンスイショウキョウカイ,0
1808,4130001081436,新規,0,2026-01-21,2026-01-21,株式会社隆建,,株式会社,京都府,京都市北区,上賀茂岩ケ垣内町１４番地３,,26,101,6038053,,,,,,,2026-01-21,1,,,,,リュウケン,0
1809,4130001081444,新規,0,2026-01-21,2026-01-21,株式会社サラサ,,株式会社,京都府,京都市北区,紫野東舟岡町５３番地,,26,101,6038228,,,,,,,2026-01-21,1,,,,,サラサ,0
1810,4130001081460,新規,0,2026-01-21,2026-01-21,株式会社京臻居,,株式会社,京都府,京都市下京区,平居町６４番地ロイヤル河原町五条２０３号室,,26,106,6008118,,,,,,,2026-01-21,1,,,,,キョウシンキョ,0
1817,4140001141437,新規,0,2026-01-21,2026-01-21,株式会社ＡＳ,,株式会社,兵庫県,姫路市,広畑区才６９３－１,,28,201,6711104,,,,,,,2026-01-21,1,,,,,エイエス,0
1818,4140001141445,新規,0,2026-01-21,2026-01-21,株式会社ｕｓａｃｈａｎｎｏｈｅｙａ,,株式会社,兵庫県,神戸市西区,美賀多台２丁目１０番地の２,,28,111,6512277,,,,,,,2026-01-21,1,,,,,ウサチャンノヘヤ,0
1827,4180001170358,新規,0,2026-01-21,2026-01-21,株式会社ＷＡＤ,,株式会社,愛知県,名古屋市中村区,名駅４丁目２４－５第２森ビル４０１,,23,105,4500002,,,,,,,2026-01-21,1,,,,,ワッド,0
1828,4180001170366,新規,0,2026-01-21,2026-01-21,株式会社ｎｏ　ｒｏｏｔ,,株式会社,愛知県,名古屋市中区,大須３丁目２番１７号ｈａｓｅ－ｂｌｄｇ８・３階,,23,106,4600011,,,,,,,2026-01-21,1,,,,,ノールート,0
1829,4180001170374,新規,0,2026-01-21,2026-01-21,株式会社Ｃｉｎｑ,,株式会社,愛知県,名古屋市中区,松原２丁目１９番地３７号グランクラスト５０１号,,23,106,4600017,,,,,,,2026-01-21,1,,,,,サンク,0
1906,4200001044641,新規,0,2026-01-21,2026-01-21,株式会社Ｊユース,,株式会社,岐阜県,土岐市,土岐津町土岐口１番地の９,,21,212,5095122,,,,,,,2026-01-21,1,,,,,ジェイユース,0
1909,4200003007191,新規,0,2026-01-21,2026-01-21,合同会社ネクストメディア,,合同会社,岐阜県,多治見市,市倉町１３－８３－１４２,,21,204,5070000,,,,,,,2026-01-21,1,,,,,ネクストメディア,0
1910,4210001020468,新規,0,2026-01-21,2026-01-21,株式会社Ｒｅ‐８,,株式会社,福井県,福井市,引目町第９号４２７番地,,18,201,9188156,,,,,,,2026-01-21,1,,,,,リエイト,0
1914,4220005009036,新規,0,2026-01-21,2026-01-21,来光寺,,その他の設立登記法人,石川県,白山市,吉野三字３９番地,,17,210,9202321,,,,,,,2026-01-21,1,,,,,ライコウジ,0
1922,4250001021512,新規,0,2026-01-21,2026-01-21,株式会社ｃｏｌｏｒｅ,,株式会社,山口県,宇部市,大字際波９４番地,,35,202,7590207,,,,,,,2026-01-21,1,,,,,コロレ,0
1936,4290801032192,新規,0,2026-01-21,2026-01-21,株式会社杉翔,,株式会社,福岡県,行橋市,泉中央３丁目９番４３号,,40,213,8240034,,,,,,,2026-01-21,1,,,,,スギショウ,0
1937,4300001014485,新規,0,2026-01-21,2026-01-21,株式会社アルフレックス,,株式会社,佐賀県,佐賀市,兵庫北２丁目１７番７号,,41,201,8490919,,,,,,,2026-01-21,1,,,,,アルフレックス,0
1941,4320001021546,新規,0,2026-01-21,2026-01-21,ＯＩＴＡ　ＫＡＫＥＲＵ株式会社,,株式会社,大分県,大分市,下郡南１丁目４番１６号豊国倉庫Ａ棟,,44,201,8700955,,,,,,,2026-01-21,1,,,,,オオイタカケル,0
2033,4340001027913,新規,0,2026-01-21,2026-01-21,ＴＭロータス株式会社,,株式会社,鹿児島県,鹿児島市,平之町８番３８号２階,,46,201,8920848,,,,,,,2026-01-21,1,,,,,ティエムロータス,0
2044,4370001053411,新規,0,2026-01-21,2026-01-21,株式会社Ｃｏｍｐｌｉｃｉｔｅ,,株式会社,宮城県,仙台市泉区,南中山１丁目２８番地の１８輝ビル１階,,04,105,9813213,,,,,,,2026-01-21,1,,,,,コンプリシテ,0
2049,4410001014375,新規,0,2026-01-21,2026-01-21,株式会社拓実,,株式会社,秋田県,南秋田郡大潟村,字西４丁目９１番地,,05,368,0100445,,,,,,,2026-01-21,1,,,,,タクミ,0
2055,4460103001779,新規,0,2026-01-21,2026-01-21,鹿追教育まちづくり合同会社,,合同会社,北海道,河東郡鹿追町,仲町２丁目３２番地,,01,634,0810211,,,,,,,2026-01-21,1,,,,,シカオイキョウイクマチヅクリ,0
2056,4470003003057,新規,0,2026-01-21,2026-01-21,ノエルモンド合同会社,,合同会社,香川県,高松市,多肥上町１７１８番地１,,37,201,7618076,,,,,,,2026-01-21,1,,,,,ノエルモンド,0
2067,4500001026733,新規,0,2026-01-21,2026-01-21,アキタ株式会社,,株式会社,愛媛県,伊予郡松前町,大字西古泉５５０番地５,,38,401,7913134,,,,,,,2026-01-21,1,,,,,アキタ,0
2069,4700150134011,新規,0,2026-01-21,2026-01-21,ユニプレス健康保険組合,,その他,神奈川県,横浜市港北区,新横浜２丁目４番地１３　ＪＳ新横浜ビル８階,,14,109,2220033,,,,,,,2026-01-21,1,,,,,ユニプレスケンコウホケンクミアイ,0
2083,5010001262047,新規,0,2026-01-21,2026-01-21,ＷＯＲＬＤｉｎｇ　Ｃａｐｉｔａｌ株式会社,,株式会社,東京都,千代田区,鍛冶町１丁目１０番４号,,13,101,1010044,,,,,,,2026-01-21,1,,,,,ワールディングキャピタル,0
2084,5010001262055,新規,0,2026-01-21,2026-01-21,ＪＰＶ第３８号株式会社,,株式会社,東京都,千代田区,霞が関３丁目２番１号,,13,101,1000013,,,,,,,2026-01-21,1,,,,,ジェイピーブイダイサンジュウハチゴウ,0
2085,5010001262063,新規,0,2026-01-21,2026-01-21,ＪＰＣ第５９号株式会社,,株式会社,東京都,千代田区,霞が関３丁目２番１号,,13,101,1000013,,,,,,,2026-01-21,1,,,,,ジェイピーシーダイゴジュウキュウゴウ,0
2086,5010001262071,新規,0,2026-01-21,2026-01-21,株式会社ＳＬＩＳ第１号,,株式会社,東京都,千代田区,丸の内１丁目８番１号丸の内トラストタワーＮ館１８階,,13,101,1000005,,,,,,,2026-01-21,1,,,,,エスエルアイエスダイイチゴウ,0
2087,5010001262105,新規,0,2026-01-21,2026-01-21,ＣｏｎｎｅｃｔＪｏｂ株式会社,,株式会社,東京都,千代田区,神田須田町２丁目３番地１２,,13,101,1010041,,,,,,,2026-01-21,1,,,,,コネクトジョブ,0
2093,5010003050061,新規,0,2026-01-21,2026-01-21,ＪＰＳ第４２号合同会社,,合同会社,東京都,千代田区,霞が関３丁目２番１号,,13,101,1000013,,,,,,,2026-01-21,1,,,,,ジェイピーエスダイヨンジュウニゴウ,0
2105,5010401195788,新規,0,2026-01-21,2026-01-21,Ｐｏｌｙｍａｔｈ　Ｊａｐａｎ株式会社,,株式会社,東京都,港区,北青山１丁目３番１号アールキューブ青山３階,,13,103,1070061,,,,,,,2026-01-21,1,,,,,ポリマスジャパン,0
2106,5010401195846,新規,0,2026-01-21,2026-01-21,株式会社ＦＡＶＯＮ,,株式会社,東京都,港区,南青山４丁目１８－１１フォレストヒルズイーストウィング２Ｆ,,13,103,1070062,,,,,,,2026-01-21,1,,,,,ファボン,0
2115,5010403037039,新規,0,2026-01-21,2026-01-21,ｅｎｇｌ合同会社,,合同会社,東京都,港区,麻布十番１丁目５－１０アトラスビル４Ｆ,,13,103,1060045,,,,,,,2026-01-21,1,,,,,イングル,0
2116,5010403037071,新規,0,2026-01-21,2026-01-21,合同会社シーエスト,,合同会社,東京都,港区,北青山２丁目１２番４４号６０１,,13,103,1070061,,,,,,,2026-01-21,1,,,,,シーエスト,0
2122,5010703008086,新規,0,2026-01-21,2026-01-21,合同会社ＰｉｎｋＲｏｓｅ,,合同会社,東京都,品川区,北品川５丁目８番２６号プリマベーラ大崎２０１,,13,109,1410001,,,,,,,2026-01-21,1,,,,,ピンクローズ,0
2124,5010901058817,新規,0,2026-01-21,2026-01-21,ＣＯＡ株式会社,,株式会社,東京都,世田谷区,太子堂３丁目１８－５,,13,112,1540004,,,,,,,2026-01-21,1,,,,,コア,0
2125,5010903010560,新規,0,2026-01-21,2026-01-21,合同会社Ｌｕｓｈ‐Ｆｌｏｗ,,合同会社,東京都,世田谷区,桜新町１丁目２１番１４号,,13,112,1540015,,,,,,,2026-01-21,1,,,,,ラッシュフロウ,0
2130,5011001174835,新規,0,2026-01-21,2026-01-21,株式会社エム・ユー物産,,株式会社,東京都,渋谷区,神宮前１丁目９番１１号,,13,113,1500001,,,,,,,2026-01-21,1,,,,,エムユーブッサン,0
2131,5011001174868,新規,0,2026-01-21,2026-01-21,株式会社ＫａｌｅｉｄｏＬａｙｅｒ,,株式会社,東京都,渋谷区,円山町５番３号ＭＩＥＵＸ渋谷ビル８階,,13,113,1500044,,,,,,,2026-01-21,1,,,,,カレイドレイヤー,0
2132,5011001174926,新規,0,2026-01-21,2026-01-21,ルミエール・デュ・テロワール株式会社,,株式会社,東京都,渋谷区,元代々木町４９番１７号,,13,113,1510062,,,,,,,2026-01-21,1,,,,,ルミエールデュテロワール,0
2133,5011003023346,新規,0,2026-01-21,2026-01-21,合同会社ＭＡＰＧ,,合同会社,東京都,渋谷区,上原３丁目８番１号,,13,113,1510064,,,,,,,2026-01-21,1,,,,,エムエーピージー,0
2134,5011003023379,新規,0,2026-01-21,2026-01-21,Ｄｏｃｋｌａｎｄｓ合同会社,,合同会社,東京都,目黒区,中目黒２丁目７－１４ＮＩＣハイム中目黒８０８,,13,110,1530061,,,,,,,2026-01-21,1,,,,,ドックランズ,0
2135,5011003023404,新規,0,2026-01-21,2026-01-21,Ｓｔｅｌｌａ　Ｓｔａｔｅ　Ｓｔｒａｔｅｇｙ合同会社,,合同会社,東京都,渋谷区,道玄坂１丁目１０番８号渋谷道玄坂東急ビル２Ｆ－Ｃ,,13,113,1500043,,,,,,,2026-01-21,1,,,,,,0
2140,5011101114526,新規,0,2026-01-21,2026-01-21,ヨル株式会社,,株式会社,東京都,新宿区,西新宿３丁目３番１３号西新宿水間ビル１０階,,13,104,1600023,,,,,,,2026-01-21,1,,,,,ヨル,0
2149,5011601029323,新規,0,2026-01-21,2026-01-21,株式会社Ｆ・Ｄ・Ｈ　ＳＰＡＣＥ,,株式会社,東京都,練馬区,南大泉１丁目２２番４４号ガーデンハウス４号,,13,120,1780064,,,,,,,2026-01-21,1,,,,,エフディーエイチスペース,0
2151,5011701029099,新規,0,2026-01-21,2026-01-21,ラクショーセラミック株式会社,,株式会社,東京都,江戸川区,西小松川町８番４号コーポ吉田工場・北側敷地,,13,123,1320032,,,,,,,2026-01-21,1,,,,,ラクショーセラミック,0
2153,5012301014689,新規,0,2026-01-21,2026-01-21,佐野テクニカルワークス株式会社,,株式会社,東京都,町田市,忠生２丁目１２番地１７,,13,209,1940035,,,,,,,2026-01-21,1,,,,,サノテクニカルワークス,0
2156,5012303002270,新規,0,2026-01-21,2026-01-21,合同会社ほぐし手や,,合同会社,東京都,町田市,森野１丁目１５－１３パリオビル２階,,13,209,1940022,,,,,,,2026-01-21,1,,,,,ホグシテヤ,0
2159,5012401044033,新規,0,2026-01-21,2026-01-21,株式会社ＵＳＡＧＩ,,株式会社,東京都,多摩市,乞田１１５６番地の１フラワーマンションコヤタ２０５,,13,224,2060014,,,,,,,2026-01-21,1,,,,,ウサギ,0
2179,5020001166676,新規,0,2026-01-21,2026-01-21,株式会社ＡＰオート,,株式会社,神奈川県,横浜市都筑区,東山田町１５８２－３６,,14,118,2240024,,,,,,,2026-01-21,1,,,,,エーピーオート,0
2180,5020001166742,新規,0,2026-01-21,2026-01-21,株式会社エイニング,,株式会社,神奈川県,川崎市高津区,諏訪２丁目９－１３,,14,134,2130004,,,,,,,2026-01-21,1,,,,,エイニング,0
2181,5020001166759,新規,0,2026-01-21,2026-01-21,株式会社Ａｎｎｅｔａａｎ,,株式会社,神奈川県,横浜市神奈川区,金港町５‐１４クアドリフォリオ８階,,14,102,2210056,,,,,,,2026-01-21,1,,,,,アンネターン,0
2187,5021001087243,新規,0,2026-01-21,2026-01-21,株式会社Ｒｍｉｉ,,株式会社,神奈川県,逗子市,逗子３丁目２－３－６０１,,14,208,2490006,,,,,,,2026-01-21,1,,,,,アールミー,0
2188,5021001087276,新規,0,2026-01-21,2026-01-21,ハニードライクリーニング株式会社,,株式会社,神奈川県,厚木市,飯山南２丁目５番２７号,,14,212,2430218,,,,,,,2026-01-21,1,,,,,ハニードライクリーニング,0
2197,5030001170636,新規,0,2026-01-21,2026-01-21,株式会社Ｓｕｎｎｙ　Ｓｍｉｌｅ,,株式会社,埼玉県,戸田市,笹目３丁目４番地の３７,,11,224,3350034,,,,,,,2026-01-21,1,,,,,サニースマイル,0
2198,5030001170669,新規,0,2026-01-21,2026-01-21,日本思念株式会社,,株式会社,埼玉県,さいたま市南区,沼影１丁目１０番１号ラムザタワー７階,,11,108,3360027,,,,,,,2026-01-21,1,,,,,ニホンシネン,0
2199,5030001170685,新規,0,2026-01-21,2026-01-21,株式会社ｓｍｉｌｅｍ,,株式会社,埼玉県,越谷市,大字大里４１―４,,11,222,3430031,,,,,,,2026-01-21,1,,,,,スマイレム,0
2203,5030003028469,新規,0,2026-01-21,2026-01-21,合同会社ＥＮＧＥＮＥ電気,,合同会社,埼玉県,八潮市,大字大曽根５５６番地１,,11,234,3400834,,,,,,,2026-01-21,1,,,,,エンジンデンキ,0
2218,5040003029210,新規,0,2026-01-21,2026-01-21,合同会社コメゴマ,,合同会社,千葉県,市原市,小谷田６３８番地２,,12,219,2900529,,,,,,,2026-01-21,1,,,,,コメゴマ,0
2219,5040003029334,新規,0,2026-01-21,2026-01-21,合同会社堀昌興業,,合同会社,千葉県,柏市,大井２１２３番地２,,12,217,2770902,,,,,,,2026-01-21,1,,,,,ホリショウコウギョウ,0
2220,5040003029342,新規,0,2026-01-21,2026-01-21,ＥｖｅｒＧｒｅｅｎ合同会社,,合同会社,千葉県,浦安市,日の出４丁目２番１２号１０３,,12,227,2790013,,,,,,,2026-01-21,1,,,,,エバーグリーン,0
2221,5050001057880,新規,0,2026-01-21,2026-01-21,株式会社Ｃｏｕｎｔｒｙ　Ｆａｒｍ　ＩＳＨＩＤＡ,,株式会社,茨城県,稲敷市,境島６６２番地,,08,229,3000723,,,,,,,2026-01-21,1,,,,,カントリーファームイシダ,0
2222,5060001038921,新規,0,2026-01-21,2026-01-21,株式会社ＭｅｌｔｙＬｏｖｅ,,株式会社,栃木県,那須塩原市,豊浦１０―４４７,,09,213,3250023,,,,,,,2026-01-21,1,,,,,メルティーラブ,0
2227,5070001043747,新規,0,2026-01-21,2026-01-21,株式会社ＳｕｎＲｉｄｅ,,株式会社,群馬県,前橋市,総社町総社２０１９番地４,,10,201,3710852,,,,,,,2026-01-21,1,,,,,サンライド,0
2265,5080103003508,新規,0,2026-01-21,2026-01-21,合同会社ＹＮＲＫ,,合同会社,静岡県,駿東郡長泉町,下土狩２６８番地の１１,,22,342,4110943,,,,,,,2026-01-21,1,,,,,ワイエヌアールケー,0
2269,5080105006566,新規,0,2026-01-21,2026-01-21,一般社団法人ゆたんぽ,,その他の設立登記法人,静岡県,富士市,原田２２７３番地の１,,22,210,4170852,,,,,,,2026-01-21,1,,,,,ユタンポ,0
2287,5100001039279,新規,0,2026-01-21,2026-01-21,株式会社ｅｃｏ農,,株式会社,長野県,東御市,和５４４０番地１,,20,219,3890505,,,,,,,2026-01-21,1,,,,,エコノウ,0
2311,5120001283461,新規,0,2026-01-21,2026-01-21,エネルギーシステム分割準備株式会社,,株式会社,大阪府,門真市,大字門真１０４８番地,,27,223,5710050,,,,,,,2026-01-21,1,,,,,エネルギーシステムブンカツジュンビ,0
2312,5120001283486,新規,0,2026-01-21,2026-01-21,千里セントラル開発株式会社,,株式会社,大阪府,枚方市,御殿山町６番９－１０３号,,27,210,5731182,,,,,,,2026-01-21,1,,,,,センリセントラルカイハツ,0
2313,5120001283511,新規,0,2026-01-21,2026-01-21,ＶＮＡ株式会社,,株式会社,大阪府,大阪市中央区,南船場３丁目２番２８号,,27,128,5420081,,,,,,,2026-01-21,1,,,,,ブイエヌエー,0
2316,5120003031694,新規,0,2026-01-21,2026-01-21,合同会社近畿陸送サービス,,合同会社,大阪府,大阪市北区,曾根崎２丁目８番５号お初天神ＥＡＳＴＢＬＤＧ３Ｆ,,27,127,5300057,,,,,,,2026-01-21,1,,,,,キンキリクソウサービス,0
2317,5120003031711,新規,0,2026-01-21,2026-01-21,ＢＶＣ合同会社,,合同会社,大阪府,大阪市生野区,中川西２丁目２４番２９号２Ｆ,,27,116,5440032,,,,,,,2026-01-21,1,,,,,ビーブイシー,0
2318,5120005025364,新規,0,2026-01-21,2026-01-21,医療法人ＳＳＫ,,その他の設立登記法人,大阪府,大阪市此花区,西九条２丁目５番２０号,,27,104,5540012,,,,,,,2026-01-21,1,,,,,エスエスケイ,0
2319,5120103006951,新規,0,2026-01-21,2026-01-21,合同会社リーフライン,,合同会社,大阪府,堺市堺区,大浜北町２丁６番１０－６０８号,,27,141,5900974,,,,,,,2026-01-21,1,,,,,リーフライン,0
2322,5120901052123,新規,0,2026-01-21,2026-01-21,株式会社エレガン,,株式会社,大阪府,箕面市,牧落３丁目４番２０号クオリティ牧落３０２号室,,27,220,5620004,,,,,,,2026-01-21,1,,,,,エレガン,0
2323,5120901052131,新規,0,2026-01-21,2026-01-21,アシスト不動産株式会社,,株式会社,大阪府,吹田市,金田町２４－１０－２０３,,27,205,5640045,,,,,,,2026-01-21,1,,,,,アシストフドウサン,0
2327,5122001040108,新規,0,2026-01-21,2026-01-21,宋氏株式会社,,株式会社,大阪府,東大阪市,長田西２丁目１番２６号１０２号室,,27,227,5770016,,,,,,,2026-01-21,1,,,,,ソウシ,0
2333,5130001081435,新規,0,2026-01-21,2026-01-21,株式会社浅井工業,,株式会社,京都府,京都市山科区,西野野色町７３番地９,,26,110,6078353,,,,,,,2026-01-21,1,,,,,アサイコウギョウ,0
2341,5140001141411,新規,0,2026-01-21,2026-01-21,株式会社ゴリラのひざ,,株式会社,兵庫県,宍粟市,波賀町上野２４３番地１,,28,227,6714221,,,,,,,2026-01-21,1,,,,,ゴリラノヒザ,0
2342,5140001141428,新規,0,2026-01-21,2026-01-21,株式会社木久工務店,,株式会社,兵庫県,伊丹市,梅ノ木２丁目４番１４－１０１号,,28,207,6640856,,,,,,,2026-01-21,1,,,,,キクコウムテン,0
2343,5140001141436,新規,0,2026-01-21,2026-01-21,ＡｉｌｓｙｎＢｉｏ株式会社,,株式会社,兵庫県,神戸市中央区,港島南町６丁目７番６号,,28,110,6500047,,,,,,,2026-01-21,1,,,,,アイルシンバイオ,0
2344,5140005027771,新規,0,2026-01-21,2026-01-21,一般社団法人ひょうごユニバーサルツーリズムアソシエーション,,その他の設立登記法人,兵庫県,神戸市長田区,水笠通４丁目１番１２号,,28,106,6530842,,,,,,,2026-01-21,1,,,,,ヒョウゴユニバーサルツーリズムアソシエーション,0
2362,5180001170357,新規,0,2026-01-21,2026-01-21,株式会社ブライトホースダイニング,,株式会社,愛知県,名古屋市中区,錦１丁目１０番１１号ユーキホテル１階,,23,106,4600003,,,,,,,2026-01-21,1,,,,,ブライトホースダイニング,0
2363,5180001170373,新規,0,2026-01-21,2026-01-21,株式会社ＺＩＺＡＩ,,株式会社,愛知県,名古屋市千種区,内山１丁目４－１０,,23,101,4640075,,,,,,,2026-01-21,1,,,,,ジザイ,0
2369,5180003029634,新規,0,2026-01-21,2026-01-21,合同会社古川元一事務所,,合同会社,愛知県,愛知郡東郷町,大字諸輪字中木戸西２５４番地２,,23,302,4700151,,,,,,,2026-01-21,1,,,,,フルカワモトカズジムショ,0
2370,5180003029650,新規,0,2026-01-21,2026-01-21,今枝合同会社,,合同会社,愛知県,一宮市,佐千原字屋敷１‐１クオーレ佐千原２０３,,23,203,4910124,,,,,,,2026-01-21,1,,,,,イマエダ,0
2371,5180003029667,新規,0,2026-01-21,2026-01-21,合同会社ＮＴＷ,,合同会社,愛知県,名古屋市千種区,京命１丁目９番９号ＷＩＮＧ　ＣＫビル２０３号,,23,101,4640004,,,,,,,2026-01-21,1,,,,,エヌティーダブリュー,0
2372,5180003029675,新規,0,2026-01-21,2026-01-21,合同会社ｍｏｍｏｓｔｏｃｋ,,合同会社,愛知県,東海市,荒尾町天ノ根８４番地３,,23,222,4760003,,,,,,,2026-01-21,1,,,,,モモストック,0
2374,5180005021390,新規,0,2026-01-21,2026-01-21,行政書士法人ひより,,その他の設立登記法人,愛知県,名古屋市中川区,北江町１丁目７番地,,23,110,4540851,,,,,,,2026-01-21,1,,,,,ヒヨリ,0
2444,5190001032845,新規,0,2026-01-21,2026-01-21,ＮＯＫＥ　ＪＡＰＡＮ株式会社,,株式会社,三重県,いなべ市,員弁町上笠田２５０３番地４１３,,24,214,5110207,,,,,,,2026-01-21,1,,,,,ノークジャパン,0
2451,5200001044632,新規,0,2026-01-21,2026-01-21,ウッドエイト株式会社,,株式会社,岐阜県,瑞穂市,馬場春雨町２丁目２５番地,,21,216,5010204,,,,,,,2026-01-21,1,,,,,ウッドエイト,0
2454,5210001020467,新規,0,2026-01-21,2026-01-21,株式会社みらいのでざいん,,株式会社,福井県,鯖江市,西袋町第１４号３０番地１,,18,207,9161221,,,,,,,2026-01-21,1,,,,,ミライノデザイン,0
2463,5230001021257,新規,0,2026-01-21,2026-01-21,株式会社Ｎｏｗａｄａｙｓ,,株式会社,富山県,高岡市,中央町６２,,16,202,9330030,,,,,,,2026-01-21,1,,,,,ナワデイズ,0
2485,5290001112752,新規,0,2026-01-21,2026-01-21,株式会社クローズニット,,株式会社,福岡県,福岡市博多区,祇園町６－４３ギオン柴田ビル３Ｆ,,40,132,8120038,,,,,,,2026-01-21,1,,,,,クローズニット,0
2486,5290001112926,新規,0,2026-01-21,2026-01-21,株式会社Ｃｌｉｍｂｉｎｇ　Ｕｐ,,株式会社,福岡県,福岡市中央区,大名２丁目６番４号プラスゲート天神ビル４階,,40,133,8100041,,,,,,,2026-01-21,1,,,,,クライミングアップ,0
2490,5300003002405,新規,0,2026-01-21,2026-01-21,合同会社ｂｏｗｌ,,合同会社,佐賀県,西松浦郡有田町,本町丙１０５４,,41,401,8440018,,,,,,,2026-01-21,1,,,,,ボウル,0
2592,5360003015566,新規,0,2026-01-21,2026-01-21,合同会社Ｔｏｍｎａｂ,,合同会社,沖縄県,那覇市,おもろまち２丁目６－３９－２０２シャインマンション,,47,201,9000006,,,,,,,2026-01-21,1,,,,,トモナビ,0
2605,5410001014374,新規,0,2026-01-21,2026-01-21,株式会社ＢｅａｒＢｅｌｌ,,株式会社,秋田県,秋田市,雄和椿川字奥椿岱１９４番地２０つばきヴィレッジＥ１－０３,,05,201,0101211,,,,,,,2026-01-21,1,,,,,ベアベル,0
2630,5700150134010,新規,0,2026-01-21,2026-01-21,ＣＯＳＲＸ　ｉｎｃ．,,外国会社等,,,,,,,,５Ｆ　ＷＥＳＴ　Ｃｅｎｔｅｒｆｉｅｌｄ，２３１，Ｔｅｈｅｒａｎ－ｒｏ，Ｇａｎｇｎａｍ－ｇｕ，Ｓｅｏｕｌ　０６１４２，Ｒｅｐｕｂｌｉｃ　ｏｆ　Ｋｏｒｅａ,,,,,,2026-01-21,1,,,,,コスアールエックスインコーポレイテッド,0
2639,6010001261741,新規,0,2026-01-21,2026-01-21,株式会社Ｖｉａｌｉｆｅ　Ｇｌｏｂａｌ,,株式会社,東京都,千代田区,平河町２丁目１３番１号,,13,101,1020093,,,,,,,2026-01-21,1,,,,,ビアライフグローバル,0
2640,6010001262046,新規,0,2026-01-21,2026-01-21,株式会社ＶＩＴＡＬ　Ｚ,,株式会社,東京都,中央区,銀座１丁目１２－４Ｎ＆ＥＢＬＤ．７階,,13,102,1040061,,,,,,,2026-01-21,1,,,,,バイタルゼット,0
2641,6010001262054,新規,0,2026-01-21,2026-01-21,ＪＰＶ第３７号株式会社,,株式会社,東京都,千代田区,霞が関３丁目２番１号,,13,101,1000013,,,,,,,2026-01-21,1,,,,,ジェイピーブイダイサンジュウナナゴウ,0
2642,6010001262062,新規,0,2026-01-21,2026-01-21,ＪＰＣ第５８号株式会社,,株式会社,東京都,千代田区,霞が関３丁目２番１号,,13,101,1000013,,,,,,,2026-01-21,1,,,,,ジェイピーシーダイゴジュウハチゴウ,0
2646,6010003049920,新規,0,2026-01-21,2026-01-21,合同会社クイルズ,,合同会社,東京都,千代田区,飯田橋４丁目７－４飯田橋グランプラス２階,,13,101,1020072,,,,,,,2026-01-21,1,,,,,クイルズ,0
2647,6010003050060,新規,0,2026-01-21,2026-01-21,ＪＰＳ第４１号合同会社,,合同会社,東京都,千代田区,霞が関３丁目２番１号,,13,101,1000013,,,,,,,2026-01-21,1,,,,,ジェイピーエスダイヨンジュウイチゴウ,0
2654,6010401195837,新規,0,2026-01-21,2026-01-21,株式会社インサーキュレート,,株式会社,東京都,港区,南青山１丁目１番１号新青山ビル東館７階,,13,103,1070062,,,,,,,2026-01-21,1,,,,,インサーキュレート,0
2655,6010401195861,新規,0,2026-01-21,2026-01-21,道口投資株式会社,,株式会社,東京都,港区,新橋６丁目８番１号４０３号室,,13,103,1050004,,,,,,,2026-01-21,1,,,,,ミチグチトウシ,0
2656,6010401195903,新規,0,2026-01-21,2026-01-21,ハンドメイドマルシェ株式会社,,株式会社,東京都,港区,南青山２丁目２６－３２セイザンＩ－６０１,00142278,13,103,1070062,,,,,,,2026-01-21,1,,,,,ハンドメイドマルシェ,0
2657,6010401195960,新規,0,2026-01-21,2026-01-21,ミライサービスホールディングス株式会社,,株式会社,東京都,港区,六本木１丁目９番９号,,13,103,1060032,,,,,,,2026-01-21,1,,,,,ミライサービスホールディングス,0
2664,6010405025263,新規,0,2026-01-21,2026-01-21,東京銀座特定目的会社,,その他の設立登記法人,東京都,港区,西新橋１丁目２番９号メンターキャピタル税理士法人内,,13,103,1050003,,,,,,,2026-01-21,1,,,,,トウキョウギンザ,0
2674,6010801036987,新規,0,2026-01-21,2026-01-21,ＫＯＫＩ．ｃｏｒｐ．株式会社,,株式会社,東京都,大田区,西馬込２丁目２７番１９号サンハイムＩ２０１号室,00142266,13,111,1430026,,,,,,,2026-01-21,1,,,,,コウキコープ,0
2675,6010901058816,新規,0,2026-01-21,2026-01-21,株式会社Ｋｕｖｅｒｔ,,株式会社,東京都,世田谷区,太子堂４丁目１８番１５号３Ｆ－３,,13,112,1540004,,,,,,,2026-01-21,1,,,,,クーヴェルト,0
2677,6011001174900,新規,0,2026-01-21,2026-01-21,株式会社ブライトシード,,株式会社,東京都,渋谷区,円山町５－３ＭＩＥＵＸ渋谷ビル８階,,13,113,1500044,,,,,,,2026-01-21,1,,,,,ブライトシード,0
2678,6011001174941,新規,0,2026-01-21,2026-01-21,株式会社Ｓｕｉ,,株式会社,東京都,渋谷区,恵比寿西２丁目４－８ウィンド恵比寿ビル８Ｆ,,13,113,1500021,,,,,,,2026-01-21,1,,,,,スイ,0
2679,6011001175007,新規,0,2026-01-21,2026-01-21,株式会社Ｃｏｃｏ　Ｌａ　ｖｉｅ,,株式会社,東京都,渋谷区,恵比寿南１丁目４番２号紀伊國屋ビル４階,,13,113,1500022,,,,,,,2026-01-21,1,,,,,ココラヴィ,0
2680,6011001175139,新規,0,2026-01-21,2026-01-21,株式会社まくらと広告,,株式会社,東京都,渋谷区,神南１丁目１１－４ＦＰＧリンクス神南５階,,13,113,1500041,,,,,,,2026-01-21,1,,,,,マクラトコウコク,0
2683,6011003023353,新規,0,2026-01-21,2026-01-21,灯合同会社,,合同会社,東京都,渋谷区,恵比寿西２丁目８番４号ＥＸ恵比寿西ビル５階,,13,113,1500021,,,,,,,2026-01-21,1,,,,,トモリ,0
2684,6011003023378,新規,0,2026-01-21,2026-01-21,合同会社Ｈａｒｍｏｎｙ　Ｐｉｌａｔｅｓ,,合同会社,東京都,渋谷区,広尾５丁目１５－２日計広尾コーポ３０２,,13,113,1500012,,,,,,,2026-01-21,1,,,,,ハーモニーピラティス,0
2688,6011103016901,新規,0,2026-01-21,2026-01-21,合同会社Ａｎｉｍａ　Ｈａｋｕｂａ　Ｇｒｏｕｐ,,合同会社,東京都,新宿区,四谷２丁目９番地１５東京ユナイテッド綜合事務所内,,13,104,1600004,,,,,,,2026-01-21,1,,,,,アニマハクバグループ,0
2689,6011203004938,新規,0,2026-01-21,2026-01-21,合同会社キャピタルノード,,合同会社,東京都,中野区,江原町１丁目２５－２江原マンション,,13,114,1650023,,,,,,,2026-01-21,1,,,,,キャピタルノード,0
2691,6011301031207,新規,0,2026-01-21,2026-01-21,株式会社Ｍｂｕｄｄｙ,,株式会社,東京都,杉並区,天沼１丁目３番４－３０２号,,13,115,1670032,,,,,,,2026-01-21,1,,,,,エムバディ,0
2696,6011603004983,新規,0,2026-01-21,2026-01-21,合同会社バリューセレクト,,合同会社,東京都,練馬区,富士見台４丁目１番１１号パセオガーデン１０１号室,,13,120,1770034,,,,,,,2026-01-21,1,,,,,バリューセレクト,0
2721,6012803003973,新規,0,2026-01-21,2026-01-21,合同会社壱発,,合同会社,東京都,日野市,高幡６５２番地の２エルム高幡Ｂ２１６,,13,212,1910031,,,,,,,2026-01-21,1,,,,,イッパツ,0
2722,6012803003981,新規,0,2026-01-21,2026-01-21,ＭｉＺＵｉＲＯ合同会社,,合同会社,東京都,立川市,若葉町２丁目１７番地の１４,,13,202,1900001,,,,,,,2026-01-21,1,,,,,ミズイロ,0
2731,6020001166691,新規,0,2026-01-21,2026-01-21,三愛トラスト株式会社,,株式会社,神奈川県,横浜市中区,太田町４丁目４８番地川島ビル２階,,14,104,2310011,,,,,,,2026-01-21,1,,,,,サンアイトラスト,0
2732,6020001166741,新規,0,2026-01-21,2026-01-21,株式会社田口金属工業,,株式会社,神奈川県,川崎市高津区,新作１丁目１７番４号,,14,134,2130014,,,,,,,2026-01-21,1,,,,,タグチキンゾクコウギョウ,0
2733,6020003030136,新規,0,2026-01-21,2026-01-21,合同会社絹子と房二朗の夢工房,,合同会社,神奈川県,横浜市西区,北幸１丁目１１番１号水信ビル７階,,14,103,2200004,,,,,,,2026-01-21,1,,,,,キヌコトフサジロウノユメコウボウ,0
2734,6020003030144,新規,0,2026-01-21,2026-01-21,合同会社ＡＧＥＹＡ,,合同会社,神奈川県,川崎市麻生区,下麻生３丁目１９番２２－４１０号,,14,137,2150022,,,,,,,2026-01-21,1,,,,,アゲヤ,0
2735,6020003030193,新規,0,2026-01-21,2026-01-21,合同会社Ａｐｅｉｒｏｎ,,合同会社,神奈川県,横浜市神奈川区,金港町５番地１４クアドリフォリオ８階,,14,102,2210056,,,,,,,2026-01-21,1,,,,,アペイロン,0
2741,6021003017024,新規,0,2026-01-21,2026-01-21,合同会社エスビー設備,,合同会社,神奈川県,藤沢市,用田５２５番地の６,,14,205,2520821,,,,,,,2026-01-21,1,,,,,エスビーセツビ,0
2752,6030001170643,新規,0,2026-01-21,2026-01-21,ＦＵＮ株式会社,,株式会社,埼玉県,所沢市,日吉町３番５号ＫＲＰＡｖｅ１階,,11,208,3591123,,,,,,,2026-01-21,1,,,,,ファン,0
2755,6030003028435,新規,0,2026-01-21,2026-01-21,Ｔｒｉｐｉｎｅｓｓ合同会社,,合同会社,埼玉県,川越市,伊勢原町１丁目１７番地５,,11,201,3501108,,,,,,,2026-01-21,1,,,,,トリピネス,0
2756,6030003028484,新規,0,2026-01-21,2026-01-21,山六開発合同会社,,合同会社,埼玉県,坂戸市,鶴舞３丁目９番１号,,11,239,3500241,,,,,,,2026-01-21,1,,,,,サブロクカイハツ,0
2757,6030003028492,新規,0,2026-01-21,2026-01-21,合同会社ＩＳＩ,,合同会社,埼玉県,さいたま市緑区,東浦和２丁目１３番地４４,,11,109,3360926,,,,,,,2026-01-21,1,,,,,アイエスアイ,0
2758,6030005022394,新規,0,2026-01-21,2026-01-21,レトワール社会保険労務士法人,,その他の設立登記法人,埼玉県,さいたま市北区,土呂町１丁目２４番地１５西口高安ビル１Ｆ,,11,102,3310804,,,,,,,2026-01-21,1,,,,,レトワール,0
2762,6040001142162,新規,0,2026-01-21,2026-01-21,ノートブランク株式会社,,株式会社,千葉県,市川市,妙典４丁目９番２１－４０６号,,12,203,2720111,,,,,,,2026-01-21,1,,,,,ノートブランク,0
2763,6040001142170,新規,0,2026-01-21,2026-01-21,バースホールディングス株式会社,,株式会社,千葉県,松戸市,和名ケ谷１０１９番地２,,12,207,2702232,,,,,,,2026-01-21,1,,,,,バースホールディングス,0
2766,6040003029250,新規,0,2026-01-21,2026-01-21,合同会社Ｉ,,合同会社,千葉県,松戸市,五香２丁目５－４斉藤ビル２０２,,12,207,2702213,,,,,,,2026-01-21,1,,,,,アイ,0
2767,6040003029317,新規,0,2026-01-21,2026-01-21,リテールワンコンサルティング合同会社,,合同会社,千葉県,習志野市,奏の杜１丁目９－３３ブランズシティ津田沼５０１号室,,12,216,2750028,,,,,,,2026-01-21,1,,,,,リテールワンコンサルティング,0
2772,6070001043754,新規,0,2026-01-21,2026-01-21,株式会社Ｍｉｎｔｓｔａｔｅ,,株式会社,群馬県,渋川市,半田８２６－２,,10,208,3770004,,,,,,,2026-01-21,1,,,,,ミントステート,0
2826,6080401028395,新規,0,2026-01-21,2026-01-21,株式会社イーメンテナンス,,株式会社,静岡県,浜松市中央区,増楽町１５８６番地の１,,22,138,4328062,,,,,,,2026-01-21,1,,,,,イーメンテナンス,0
2832,6090001019703,新規,0,2026-01-21,2026-01-21,グリーンファクトリーつる株式会社,,株式会社,山梨県,富士吉田市,上吉田５４２３－２,,19,202,4030005,,,,,,,2026-01-21,1,,,,,グリーンファクトリーツル,0
2835,6110002018750,新規,0,2026-01-21,2026-01-21,有限会社エムツー企画,,有限会社,新潟県,三条市,西本成寺２丁目２６番２号,,15,204,9550845,,,,,,,2026-01-21,1,,,,,,0
2838,6120001062278,新規,0,2026-01-21,2026-01-21,カネボウベルタッチ株式会社,,株式会社,大阪府,大阪市北区,梅田１丁目２番２号,,27,127,5300001,,,,,,,2026-01-21,1,,,,,カネボウベルタッチ,0
2852,6120001283510,新規,0,2026-01-21,2026-01-21,株式会社万吉,,株式会社,大阪府,大阪市中央区,内本町２丁目２－１４ＧＳハイム内本町７０５,,27,128,5400026,,,,,,,2026-01-21,1,,,,,マンキチ,0
2853,6120001283535,新規,0,2026-01-21,2026-01-21,ロイヤルインサイト株式会社,,株式会社,大阪府,大阪市中央区,南船場３丁目２番２２号おおきに南船場ビル２０５,,27,128,5420081,,,,,,,2026-01-21,1,,,,,ロイヤルインサイト,0
2855,6120003031719,新規,0,2026-01-21,2026-01-21,合同会社にじく,,合同会社,大阪府,大阪市中央区,道修町４丁目１番１号武田御堂筋ビル２Ｆ,,27,128,5410045,,,,,,,2026-01-21,1,,,,,ニジク,0
2857,6120105010109,新規,0,2026-01-21,2026-01-21,一般社団法人Ｃ‐ｌｏｖｅｒ,,その他の設立登記法人,大阪府,和泉市,はつが野５丁目１６番８号,,27,219,5941106,,,,,,,2026-01-21,1,,,,,クローバー,0
2865,6120901052130,新規,0,2026-01-21,2026-01-21,株式会社ｂｉｒｔｈ　ｐｈｏｔｏ,,株式会社,大阪府,茨木市,上中条１丁目９－１７－２Ｆ,,27,211,5670881,,,,,,,2026-01-21,1,,,,,バースフォト,0
2867,6122001040107,新規,0,2026-01-21,2026-01-21,株式会社ｅポス,,株式会社,大阪府,東大阪市,岩田町５丁目３番１４号,,27,227,5780941,,,,,,,2026-01-21,1,,,,,イーポス,0
2880,6140001141468,新規,0,2026-01-21,2026-01-21,株式会社ＷＡＴＡＲＵ　ＨＯＭＭＡ,,株式会社,兵庫県,神戸市北区,南五葉３丁目５番１５－４１５号,,28,109,6511132,,,,,,,2026-01-21,1,,,,,ワタルホンマ,0
2887,6150003003814,新規,0,2026-01-21,2026-01-21,合同会社ＬｉｎｏＨｏｍｅ,,合同会社,奈良県,奈良市,中登美ヶ丘６丁目１２番８－９１０号,,29,201,6310003,,,,,,,2026-01-21,1,,,,,リノホーム,0
2900,6180001170364,新規,0,2026-01-21,2026-01-21,株式会社ＧＲＡＲＴ,,株式会社,愛知県,名古屋市守山区,西城２丁目１番４号西城住宅４－２１２,,23,113,4630084,,,,,,,2026-01-21,1,,,,,グラート,0
2902,6180003029641,新規,0,2026-01-21,2026-01-21,合同会社八吋,,合同会社,愛知県,北名古屋市,久地野安田１３番地５,,23,234,4810012,,,,,,,2026-01-21,1,,,,,ハチインチ,0
2972,6190001032852,新規,0,2026-01-21,2026-01-21,セルコスメティックジャパン株式会社,,株式会社,三重県,北牟婁郡紀北町,長島１６９番地,,24,543,5193205,,,,,,,2026-01-21,1,,,,,セルコスメティックジャパン,0
2982,6200003007198,新規,0,2026-01-21,2026-01-21,合同会社ＨＹ,,合同会社,岐阜県,高山市,片野町３丁目６５番地メゾンエヌ１０１号,,21,203,5060824,,,,,,,2026-01-21,1,,,,,エイチワイ,0
2988,6220001027130,新規,0,2026-01-21,2026-01-21,株式会社ＳＵＮＳＯＵ,,株式会社,石川県,七尾市,能登島曲町２部乙２番地５,,17,202,9260216,,,,,,,2026-01-21,1,,,,,サンソウ,0
3009,6290001112859,新規,0,2026-01-21,2026-01-21,クライス株式会社,,株式会社,福岡県,福岡市博多区,竹下１丁目３番７－２０１号,,40,132,8120895,,,,,,,2026-01-21,1,,,,,クライス,0
3010,6290001112883,新規,0,2026-01-21,2026-01-21,株式会社Ｃｒｏｓｓ　Ｃｕｂｅ,,株式会社,福岡県,福岡市博多区,博多駅前４丁目２３番２８－９０５号,,40,132,8120011,,,,,,,2026-01-21,1,,,,,クロスキューブ,0
3015,6290801032190,新規,0,2026-01-21,2026-01-21,株式会社ＩＮＣＬＡＳＳ,,株式会社,福岡県,北九州市小倉北区,黄金１丁目１０番１８号,,40,106,8020071,,,,,,,2026-01-21,1,,,,,インクラス,0
3017,6300001014483,新規,0,2026-01-21,2026-01-21,いやさか株式会社,,株式会社,佐賀県,杵島郡白石町,大字遠江６１４４番地２,,41,425,8491105,,,,,,,2026-01-21,1,,,,,イヤサカ,0
3123,6430001096096,新規,0,2026-01-21,2026-01-21,株式会社真誠,,株式会社,北海道,岩内郡岩内町,字大浜１２番地２,,01,402,0450001,,,,,,,2026-01-21,1,,,,,シンセイ,0
3146,6700150134026,新規,0,2026-01-21,2026-01-21,めいらくグループ健康保険組合,,その他,愛知県,名古屋市天白区,中砂町３１０番地,,23,116,4680065,,,,,,,2026-01-21,1,,,,,メイラクグループケンコウホケンクミアイ,0
3147,7000020398861,新規,0,2026-01-21,2026-01-21,須崎斎場運営一部事務組合,,地方公共団体,高知県,須崎市,山手町１番７号,,39,206,7850031,,,,,,,2026-01-21,1,,,,,スサキサイジョウウンエイイチブジムクミアイ,0
3160,7010001261625,新規,0,2026-01-21,2026-01-21,金田屋創菓株式会社,,株式会社,東京都,中央区,銀座５丁目７番１０号,,13,102,1040061,,,,,,,2026-01-21,1,,,,,カナダヤソウカ,0
3161,7010001262053,新規,0,2026-01-21,2026-01-21,ＪＰＶ第３６号株式会社,,株式会社,東京都,千代田区,霞が関３丁目２番１号,,13,101,1000013,,,,,,,2026-01-21,1,,,,,ジェイピーブイダイサンジュウロクゴウ,0
3162,7010001262061,新規,0,2026-01-21,2026-01-21,ＪＰＣ第５７号株式会社,,株式会社,東京都,千代田区,霞が関３丁目２番１号,,13,101,1000013,,,,,,,2026-01-21,1,,,,,ジェイピーシーダイゴジュウナナゴウ,0
3163,7010001262111,新規,0,2026-01-21,2026-01-21,株式会社ＦＵＬＬＣＯＮＴＡＣＴ,,株式会社,東京都,中央区,日本橋堀留町２丁目３番３－１１０１号,,13,102,1030012,,,,,,,2026-01-21,1,,,,,フルコンタクト,0
3164,7010001262160,新規,0,2026-01-21,2026-01-21,株式会社スマートロボット,,株式会社,東京都,千代田区,神田佐久間町１丁目８番地４アルテール秋葉原７０８,,13,101,1010025,,,,,,,2026-01-21,1,,,,,スマートロボット,0
3168,7010005041247,新規,0,2026-01-21,2026-01-21,ＮＴＴグローバルデータセンターＳＨＲ３‐Ｆ特定目的会社,,その他の設立登記法人,東京都,中央区,日本橋１丁目４番１号日本橋一丁目ビルディング,,13,102,1030027,,,,,,,2026-01-21,1,,,,,エヌティティグローバルデータセンターエスエイチアールスリーエフ,0
3170,7010401035100,新規,0,2026-01-21,2026-01-21,株式会社時創社,,株式会社,東京都,港区,西新橋３丁目４番１号,,13,103,1050003,,,,,,,2026-01-21,1,,,,,,0
3174,7010401195869,新規,0,2026-01-21,2026-01-21,Ｓｏｎｓ　Ｊａｐａｎ株式会社,,株式会社,東京都,港区,浜松町２丁目２番１５号浜松町ダイヤビル２Ｆ,,13,103,1050013,,,,,,,2026-01-21,1,,,,,サンズジャパン,0
3175,7010401195927,新規,0,2026-01-21,2026-01-21,サクセション・アセットマネジメント株式会社,,株式会社,東京都,港区,台場２丁目２番２号,,13,103,1350091,,,,,,,2026-01-21,1,,,,,サクセションアセットマネジメント,0
3182,7010403037053,新規,0,2026-01-21,2026-01-21,ブレントウッド合同会社,,合同会社,東京都,港区,高輪２丁目１番１３号－３０９号,,13,103,1080074,,,,,,,2026-01-21,1,,,,,ブレントウッド,0
3183,7010405025262,新規,0,2026-01-21,2026-01-21,一般社団法人弥生,,その他の設立登記法人,東京都,港区,元赤坂１丁目１番７号,,13,103,1070051,,,,,,,2026-01-21,1,,,,,ヤヨイ,0
3184,7010405025270,新規,0,2026-01-21,2026-01-21,一般社団法人ＴｏｋｙｏＳＨ４,,その他の設立登記法人,東京都,港区,虎ノ門５丁目１番４号,,13,103,1050001,,,,,,,2026-01-21,1,,,,,トウキョウエスエイチフォー,0
3192,7010803005667,新規,0,2026-01-21,2026-01-21,合同会社６６９９,,合同会社,東京都,大田区,大森西６丁目１７－１７,,13,111,1430015,,,,,,,2026-01-21,1,,,,,ウズマキ,0
3201,7011001174833,新規,0,2026-01-21,2026-01-21,株式会社Ｆｉｔ　Ｖａｌｌｅｙ　Ｔｏｋｙｏ,,株式会社,東京都,目黒区,鷹番２丁目１３番９号シャングリラヒロ１０２,,13,110,1520004,,,,,,,2026-01-21,1,,,,,フィットバレートウキョウ,0
3202,7011001174899,新規,0,2026-01-21,2026-01-21,ＡＩリサーチサービス株式会社,,株式会社,東京都,渋谷区,千駄ヶ谷５丁目２番１０号,,13,113,1510051,,,,,,,2026-01-21,1,,,,,エーアイリサーチサービス,0
3203,7011001175138,新規,0,2026-01-21,2026-01-21,株式会社Ａｒｒａｙ,,株式会社,東京都,渋谷区,広尾１丁目２番地１号ヒカリビル４階,,13,113,1500012,,,,,,,2026-01-21,1,,,,,アレイ,0
3212,7011101114474,新規,0,2026-01-21,2026-01-21,大樹サポートシステムズ株式会社,,株式会社,東京都,新宿区,高田馬場１丁目２７番１３号,,13,104,1690075,,,,,,,2026-01-21,1,,,,,タイジュサポートシステムズ,0
3213,7011101114482,新規,0,2026-01-21,2026-01-21,ＤｉａＧｒｏｗ株式会社,,株式会社,東京都,新宿区,西新宿３丁目３番１３号西新宿水間ビル２Ｆ,,13,104,1600023,,,,,,,2026-01-21,1,,,,,ダイアグロウ,0
3214,7011101114557,新規,0,2026-01-21,2026-01-21,株式会社ＧＯＡＴＩＳＴ,,株式会社,東京都,新宿区,西新宿３丁目３番１３号西新宿水間ビル６階,,13,104,1600023,,,,,,,2026-01-21,1,,,,,ゴーティスト,0
3247,7012401044048,新規,0,2026-01-21,2026-01-21,株式会社長崎薬局,,株式会社,東京都,多摩市,聖ヶ丘１丁目１―８,,13,224,2060022,,,,,,,2026-01-21,1,,,,,ナガサキヤッキョク,0
3262,7012803003980,新規,0,2026-01-21,2026-01-21,合同会社ルーツ,,合同会社,東京都,国立市,青柳１丁目２８番地の３０,,13,215,1860013,,,,,,,2026-01-21,1,,,,,ルーツ,0
3263,7012805003384,新規,0,2026-01-21,2026-01-21,一般社団法人ギルド・クラブ・ジャポン,,その他の設立登記法人,東京都,国立市,中１丁目１６番地の７,,13,215,1860004,,,,,,,2026-01-21,1,,,,,ギルドクラブジャポン,0
3269,7013303008058,新規,0,2026-01-21,2026-01-21,ｓｔｕｄｉｏ　ｃｉｅ合同会社,,合同会社,東京都,豊島区,東池袋２丁目６０番２号池袋パークハイツ２Ｆ,,13,116,1700013,,,,,,,2026-01-21,1,,,,,スタジオシエー,0
3279,7020001166682,新規,0,2026-01-21,2026-01-21,株式会社ＥａｒｔｈＷＩＳＥ,,株式会社,神奈川県,横浜市都筑区,茅ケ崎南２丁目１９番１号,,14,118,2240037,,,,,,,2026-01-21,1,,,,,アースワイズ,0
3280,7020001166831,新規,0,2026-01-21,2026-01-21,株式会社Ｋｉｗｉ　ＭｅｄＴｅｃｈ,,株式会社,神奈川県,横浜市青葉区,鴨志田町５５９―３８,,14,117,2270033,,,,,,,2026-01-21,1,,,,,キウイメドテック,0
3287,7021001087209,新規,0,2026-01-21,2026-01-21,株式会社Ｌｕｍｉｎｏｕｓ,,株式会社,神奈川県,相模原市中央区,淵野辺４丁目２７番２１号,,14,152,2520206,,,,,,,2026-01-21,1,,,,,ルミナス,0
3288,7021001087282,新規,0,2026-01-21,2026-01-21,株式会社インテリューム,,株式会社,神奈川県,平塚市,めぐみが丘２丁目２６番１１号,,14,203,2591220,,,,,,,2026-01-21,1,,,,,インテリューム,0
3306,7030003028483,新規,0,2026-01-21,2026-01-21,合同会社ｍｉｒｅｖｉａ,,合同会社,埼玉県,さいたま市大宮区,北袋町１丁目６０１番地１Ｅ６６０,,11,103,3300835,,,,,,,2026-01-21,1,,,,,ミレヴィア,0
3307,7030003028500,新規,0,2026-01-21,2026-01-21,億恒合同会社,,合同会社,埼玉県,川口市,西川口４丁目６－３－１０２号室,,11,203,3320021,,,,,,,2026-01-21,1,,,,,オクコウ,0
3316,7050001057879,新規,0,2026-01-21,2026-01-21,株式会社つくば塗装,,株式会社,茨城県,つくば市,上菅間７６－１,,08,220,3004241,,,,,,,2026-01-21,1,,,,,ツクバトソウ,0
3327,7070001043753,新規,0,2026-01-21,2026-01-21,株式会社Ｋ＆Ｙコンサルティング,,株式会社,群馬県,伊勢崎市,境下武士１０２４番地１,,10,204,3700126,,,,,,,2026-01-21,1,,,,,,0
3393,7090001019693,新規,0,2026-01-21,2026-01-21,クロームテック株式会社,,株式会社,山梨県,北杜市,大泉町西井出８２４０－２５７９,,19,209,4091501,,,,,,,2026-01-21,1,,,,,クロームテック,0
3420,7120001283336,新規,0,2026-01-21,2026-01-21,ＴＲＩＯＮホールディングス株式会社,,株式会社,大阪府,大阪市中央区,安土町２丁目５番１０号,,27,128,5410052,,,,,,,2026-01-21,1,,,,,トライオンホールディングス,0
3421,7120001283427,新規,0,2026-01-21,2026-01-21,株式会社セールスリンク,,株式会社,大阪府,大阪市北区,梅田３丁目２番１２３号,,27,127,5300001,,,,,,,2026-01-21,1,,,,,セールスリンク,0
3422,7120001283501,新規,0,2026-01-21,2026-01-21,株式会社Ｈｅａｄ　Ｏｆ　Ｔｈｅ　Ｓｔｏｒｅ,,株式会社,大阪府,大阪市阿倍野区,阿倍野筋２丁目３番１１号コーティアス阿倍野５０１号,,27,119,5450052,,,,,,,2026-01-21,1,,,,,ヘッドオブザストア,0
3423,7120001283534,新規,0,2026-01-21,2026-01-21,滬阪通株式会社,,株式会社,大阪府,大阪市中央区,島之内２丁目６－６－１０１ウーロ島之内,,27,128,5420082,,,,,,,2026-01-21,1,,,,,コハンツウ,0
3424,7120001283625,新規,0,2026-01-21,2026-01-21,Ｔｈｒｅｅ株式会社,,株式会社,大阪府,大阪市北区,梅田１丁目２番２号大阪駅前第２ビル１２－１２,,27,127,5300001,,,,,,,2026-01-21,1,,,,,スリー,0
3430,7120003031701,新規,0,2026-01-21,2026-01-21,フィルムジャパン合同会社,,合同会社,大阪府,大阪市都島区,東野田町３丁目７番１７－２０５号,,27,102,5340024,,,,,,,2026-01-21,1,,,,,フィルムジャパン,0
3442,7122005003868,新規,0,2026-01-21,2026-01-21,一般社団法人ＬＩＦＥ　ＣＹＣＬＥ,,その他の設立登記法人,大阪府,東大阪市,荒本北１丁目２番３６－１００８号,,27,227,5770011,,,,,,,2026-01-21,1,,,,,ライフサイクル,0
3446,7130005017565,新規,0,2026-01-21,2026-01-21,一般社団法人ＪＡＰＡＮ’Ｓ　ＧＬＯＢＡＬ　ＴＡＰＥＳＴＲＹ,,その他の設立登記法人,京都府,京都市左京区,下鴨西本町３６番地２,,26,103,6060826,,,,,,,2026-01-21,1,,,,,ジャパンズグローバルタペストリー,0
3454,7140001141351,新規,0,2026-01-21,2026-01-21,株式会社Ｄ８,,株式会社,兵庫県,神戸市北区,有野町有野６６５番地の２,,28,109,6511312,,,,,,,2026-01-21,1,,,,,ディーエイト,0
3455,7140001141418,新規,0,2026-01-21,2026-01-21,ＤａｉｃｈｉＨｏｍｅ株式会社,,株式会社,兵庫県,神戸市長田区,大橋町７丁目１番１号ファインレジデンス神戸新長田,,28,106,6530037,,,,,,,2026-01-21,1,,,,,ダイチホーム,0
3473,7180001170371,新規,0,2026-01-21,2026-01-21,株式会社ニュートラル,,株式会社,愛知県,名古屋市緑区,松が根台１３３,,23,114,4580843,,,,,,,2026-01-21,1,,,,,ニュートラル,0
3480,7180003029657,新規,0,2026-01-21,2026-01-21,合同会社キティー,,合同会社,愛知県,名古屋市中区,錦３丁目１４－１０Ｈｅｒｉｔｅｒ栄大津通５Ｆ,,23,106,4600003,,,,,,,2026-01-21,1,,,,,キティー,0
3481,7180003029665,新規,0,2026-01-21,2026-01-21,Ｊｏｕｒｎｅｙ　Ｗａｙｓ合同会社,,合同会社,愛知県,名古屋市北区,黒川本通５丁目１８番地の１総合住宅ビル４０１号,,23,103,4620841,,,,,,,2026-01-21,1,,,,,ジャーニーウェイズ,0
3488,7180305009761,新規,0,2026-01-21,2026-01-21,行政書士法人さやかオフィス,,その他の設立登記法人,愛知県,豊橋市,魚町１１６番地ウエスビル２０３号室,,23,201,4400894,,,,,,,2026-01-21,1,,,,,サヤカオフィス,0
3582,7290001112825,新規,0,2026-01-21,2026-01-21,株式会社ＣＥＮＴＲＯＺ,,株式会社,福岡県,福岡市中央区,桜坂１丁目１５－８－３０２,,40,133,8100024,,,,,,,2026-01-21,1,,,,,セントロ,0
3586,7290003017948,新規,0,2026-01-21,2026-01-21,Ｓｅａ　Ｏｆ　Ｉｎｆｉｎｉｔｅ合同会社,,合同会社,福岡県,宗像市,上八字浜の上８２３－６,,40,220,8113513,,,,,,,2026-01-21,1,,,,,シーオブインフィニティー,0
3655,7330001033934,新規,0,2026-01-21,2026-01-21,うししフーズ株式会社,,株式会社,熊本県,八代市,鏡町鏡３６６,,43,202,8694203,,,,,,,2026-01-21,1,,,,,ウシシフーズ,0
3690,7470001021033,新規,0,2026-01-21,2026-01-21,株式会社ｎａｇｈｉ,,株式会社,香川県,高松市,東植田町１３６１,,37,201,7610446,,,,,,,2026-01-21,1,,,,,ナギ,0
3706,7700150134017,新規,0,2026-01-21,2026-01-21,主計土地改良区,,その他,福井県,福井市,浅水町１０７－１２－１,,18,201,9188181,,,,,,,2026-01-21,1,,,,,カズエトチカイリヨウク,0
3707,7700150134025,新規,0,2026-01-21,2026-01-21,ｘｉａｍｅｎｓｈｉｓｈｕｏｙｅｈｕｗａｉｙｏｎｇｐｉｎｙｏｕｘｉａｎｇｏｎｇｓｉ,,外国会社等,,,,,,,,Ｒｏｏｍ　６０２－２，ＸｉｎＹｕａｎ　Ｒｏａｄ　Ｎｏ．３２－５，ｊｉｍｅｉ　Ｄｉｓｔｒｉｃｔ，Ｘｉａｍｅｎ，Ｃｈｉｎａ,,,,,,2026-01-21,1,,,,,シアメンシショウイェフワイヨンピンユウゲンコウシ,0
3722,8010001262052,新規,0,2026-01-21,2026-01-21,ＪＰＶ第３５号株式会社,,株式会社,東京都,千代田区,霞が関３丁目２番１号,,13,101,1000013,,,,,,,2026-01-21,1,,,,,ジェイピーブイダイサンジュウゴゴウ,0
3723,8010001262060,新規,0,2026-01-21,2026-01-21,ＪＰＶ第４３号株式会社,,株式会社,東京都,千代田区,霞が関３丁目２番１号,,13,101,1000013,,,,,,,2026-01-21,1,,,,,ジェイピーブイダイヨンジュウサンゴウ,0
3724,8010001262135,新規,0,2026-01-21,2026-01-21,株式会社ワンダーフォレスト,,株式会社,東京都,中央区,銀座１丁目２２番１１号銀座大竹ビジデンス２階,,13,102,1040061,,,,,,,2026-01-21,1,,,,,ワンダーフォレスト,0
3726,8010003050050,新規,0,2026-01-21,2026-01-21,ＮＴＴ　ＴＥＰＣＯデータセンター合同会社,,合同会社,東京都,中央区,京橋２丁目１２番６号ＡＯＪ税理士法人内,,13,102,1040031,,,,,,,2026-01-21,1,,,,,エヌティティテプコデータセンター,0
3729,8010005041238,新規,0,2026-01-21,2026-01-21,東品川特定目的会社,,その他の設立登記法人,東京都,千代田区,飯田橋４丁目７番１号結和税理士法人内,,13,101,1020072,,,,,,,2026-01-21,1,,,,,ヒガシシナガワ,0
3730,8010005041246,新規,0,2026-01-21,2026-01-21,ＮＴＴグローバルデータセンターＳＨＲ３‐Ｅ特定目的会社,,その他の設立登記法人,東京都,中央区,日本橋１丁目４番１号日本橋一丁目ビルディング,,13,102,1030027,,,,,,,2026-01-21,1,,,,,エヌティティグローバルデータセンターエスエイチアールスリーイー,0
3731,8010101017042,新規,0,2026-01-21,2026-01-21,Ａ．Ｙ．Ａ株式会社,,株式会社,東京都,八王子市,横山町１８番１９号芙蓉ギャラリービル２Ｆ,,13,201,1920081,,,,,,,2026-01-21,1,,,,,エーワイエー,0
3741,8010401195934,新規,0,2026-01-21,2026-01-21,ｖｏｉｃｅ　ｆｏｒｗａｒｄ株式会社,,株式会社,東京都,港区,北青山１丁目３番１号アールキューブ青山３階,,13,103,1070061,,,,,,,2026-01-21,1,,,,,ヴォイスフォワード,0
3742,8010401195942,新規,0,2026-01-21,2026-01-21,株式会社余白,,株式会社,東京都,港区,北青山１丁目３番１号アールキューブ青山３階,,13,103,1070061,,,,,,,2026-01-21,1,,,,,ヨハク,0
3743,8010401195975,新規,0,2026-01-21,2026-01-21,ＩＡＰＦ３株式会社,,株式会社,東京都,港区,虎ノ門５丁目１３番１号虎ノ門４０ＭＴビル５階,,13,103,1050001,,,,,,,2026-01-21,1,,,,,アイエーピーエフスリー,0
3755,8010403036987,新規,0,2026-01-21,2026-01-21,セントラルウォーカー合同会社,,合同会社,東京都,港区,六本木７丁目２１番２１号ウォーカー２１,,13,103,1060032,,,,,,,2026-01-21,1,,,,,セントラルウォーカー,0
3756,8010403037052,新規,0,2026-01-21,2026-01-21,Ｌｉｆｅ　Ｌａｂ　Ｊａｐａｎ合同会社,,合同会社,東京都,港区,港南２丁目１６－１品川イーストワンタワー４Ｆ,,13,103,1080075,,,,,,,2026-01-21,1,,,,,ライフラボジャパン,0
3757,8010403037069,新規,0,2026-01-21,2026-01-21,豊アセットマネジメント合同会社,,合同会社,東京都,港区,芝浦４丁目２２番１－９１３号,,13,103,1080023,,,,,,,2026-01-21,1,,,,,ユタカアセットマネジメント,0
3758,8010405025261,新規,0,2026-01-21,2026-01-21,エス・ユー・イー一般社団法人,,その他の設立登記法人,東京都,港区,六本木１丁目６番１号泉ガーデンタワー,,13,103,1060032,,,,,,,2026-01-21,1,,,,,エスユーイー,0
3760,8010603012029,新規,0,2026-01-21,2026-01-21,ＳＹマネジメント合同会社,,合同会社,東京都,墨田区,千歳３丁目９番９－９０２号アスコットパーク森下,,13,107,1300025,,,,,,,2026-01-21,1,,,,,エスワイマネジメント,0
3766,8010901058806,新規,0,2026-01-21,2026-01-21,武居商店株式会社,,株式会社,東京都,世田谷区,上祖師谷２丁目１７番１５号,,13,112,1570065,,,,,,,2026-01-21,1,,,,,タケイショウテン,0
3767,8010901058830,新規,0,2026-01-21,2026-01-21,株式会社パピリオ,,株式会社,東京都,世田谷区,奥沢１丁目４５番７号,,13,112,1580083,,,,,,,2026-01-21,1,,,,,パピリオ,0
3768,8010903010566,新規,0,2026-01-21,2026-01-21,合同会社Ａｓａｈｉｎａ,,合同会社,東京都,世田谷区,千歳台４丁目３０番６号メゾンセザール３２－１０５号室,,13,112,1570071,,,,,,,2026-01-21,1,,,,,アサヒナ,0
3772,8011001174816,新規,0,2026-01-21,2026-01-21,株式会社Ｓｐｉｒａｌｖｅｒｓｅ,,株式会社,東京都,渋谷区,円山町５番３号ＭＩＥＵＸ渋谷ビル８階,,13,113,1500044,,,,,,,2026-01-21,1,,,,,スパイラルバース,0
3773,8011001174898,新規,0,2026-01-21,2026-01-21,ＢｌｉｓｓＷａｖｅ　Ｃｏｌｌｅｖｔｉｖｅ株式会社,,株式会社,東京都,渋谷区,円山町５番３号ＭＩＥＵＸ渋谷ビル８階,,13,113,1500044,,,,,,,2026-01-21,1,,,,,ブリスウェーブコレクティブ,0
3774,8011001174907,新規,0,2026-01-21,2026-01-21,株式会社ｅｍｚ,,株式会社,東京都,渋谷区,西原１丁目３８番４号,,13,113,1510066,,,,,,,2026-01-21,1,,,,,エムズ,0
3775,8011001174923,新規,0,2026-01-21,2026-01-21,株式会社ＬＵＥＵＲ　ＧＲＯＵＰ,,株式会社,東京都,渋谷区,本町２丁目４０－１３フラッツみやま２０５,,13,113,1510071,,,,,,,2026-01-21,1,,,,,リュールグループ,0
3776,8011001175054,新規,0,2026-01-21,2026-01-21,千百合株式会社,,株式会社,東京都,渋谷区,恵比寿南１丁目４番２号紀伊國屋ビル４階,,13,113,1500022,,,,,,,2026-01-21,1,,,,,チユリ,0
3777,8011001175087,新規,0,2026-01-21,2026-01-21,株式会社ホビープラザ,,株式会社,東京都,渋谷区,道玄坂１丁目１０番８号２Ｆ－Ｃ,,13,113,1500043,,,,,,,2026-01-21,1,,,,,ホビープラザ,0
3782,8011003023368,新規,0,2026-01-21,2026-01-21,合同会社ＲＩＮＤＯ　Ｌａｂｏ,,合同会社,東京都,目黒区,下目黒１丁目１番１４号コノトラビル,,13,110,1530064,,,,,,,2026-01-21,1,,,,,,0
3783,8011003023434,新規,0,2026-01-21,2026-01-21,ＦＹＢ　ＪＡＰＡＮ．合同会社,,合同会社,東京都,渋谷区,広尾１丁目２番地１号ヒカリビル４階,,13,113,1500012,,,,,,,2026-01-21,1,,,,,エフワイビージャパン,0
3791,8011401027747,新規,0,2026-01-21,2026-01-21,株式会社Ｍ’ｓ　ｔｒｅｅ,,株式会社,東京都,板橋区,志村１丁目３５番１０号,,13,119,1740056,,,,,,,2026-01-21,1,,,,,エムズツリー,0
3805,8012403007571,新規,0,2026-01-21,2026-01-21,合同会社ＳＵＮ,,合同会社,東京都,府中市,府中町２丁目１４番地の１０,,13,206,1830055,,,,,,,2026-01-21,1,,,,,サン,0
3806,8012703003452,新規,0,2026-01-21,2026-01-21,ネクサス合同会社,,合同会社,東京都,小平市,喜平町２丁目８番２－３１５号,,13,211,1870044,,,,,,,2026-01-21,1,,,,,ネクサス,0
3819,8013301055638,新規,0,2026-01-21,2026-01-21,株式会社ペイロジ,,株式会社,東京都,豊島区,大塚一丁目１８－２作田ビル３０２号室,,13,116,1700000,,,,,,,2026-01-21,1,,,,,ペイロジ,0
3829,8020001166657,新規,0,2026-01-21,2026-01-21,株式会社Ｓｔｏｒｙｔｈｒｉｌｌ,,株式会社,神奈川県,横浜市青葉区,美しが丘西２丁目４７番３１号,,14,117,2250001,,,,,,,2026-01-21,1,,,,,ストーリースリル,0
3830,8020001166748,新規,0,2026-01-21,2026-01-21,株式会社伊藤住設,,株式会社,神奈川県,横浜市金沢区,富岡東２丁目６番地２８テラス横浜富岡３２０号室,,14,108,2360051,,,,,,,2026-01-21,1,,,,,イトウジュウセツ,0
3832,8020003030142,新規,0,2026-01-21,2026-01-21,乃木坂工業合同会社,,合同会社,神奈川県,横浜市西区,北幸２丁目１０番４８号むつみビル３階,,14,103,2200004,,,,,,,2026-01-21,1,,,,,ノギザカコウギョウ,0
3833,8020003030175,新規,0,2026-01-21,2026-01-21,合同会社ブーケ,,合同会社,神奈川県,横浜市中区,宮川町２丁目２７番２号　第３前田ビル１階２号室,,14,104,2310065,,,,,,,2026-01-21,1,,,,,ブーケ,0
3834,8020005017121,新規,0,2026-01-21,2026-01-21,一般社団法人ネオアカデミア,,その他の設立登記法人,神奈川県,横浜市金沢区,柴町３６８番地グランマーレ横浜・八景島Ｃ３０５号,,14,108,2360012,,,,,,,2026-01-21,1,,,,,ネオアカデミア,0
3851,8030003028474,新規,0,2026-01-21,2026-01-21,合同会社リペアカーズ,,合同会社,埼玉県,八潮市,大字鶴ケ曽根４６６番地５,,11,234,3400802,,,,,,,2026-01-21,1,,,,,リペアカーズ,0
3852,8030003028482,新規,0,2026-01-21,2026-01-21,合同会社ＴＴＰＣ,,合同会社,埼玉県,さいたま市大宮区,天沼町１丁目１７５番地５,,11,103,3300834,,,,,,,2026-01-21,1,,,,,ティーティーピーシィ,0
3857,8040001142086,新規,0,2026-01-21,2026-01-21,株式会社エナジム,,株式会社,千葉県,千葉市中央区,弁天２丁目２３弁天プラザ,,12,101,2600045,,,,,,,2026-01-21,1,,,,,エナジム,0
3858,8040001142160,新規,0,2026-01-21,2026-01-21,株式会社ＧＲＯＯＶＥ　ＲＡＣＩＮＧ,,株式会社,千葉県,市原市,西国吉６５８番地大東牧場内東社宅,,12,219,2900231,,,,,,,2026-01-21,1,,,,,グルーヴレーシング,0
3862,8040003029307,新規,0,2026-01-21,2026-01-21,合同会社ひまわり,,合同会社,千葉県,富津市,上１５７０番地,,12,226,2930041,,,,,,,2026-01-21,1,,,,,ヒマワリ,0
3892,8080005007752,新規,0,2026-01-21,2026-01-21,特定非営利活動法人わんずふりー,,その他の設立登記法人,静岡県,焼津市,藤守１４３０番地,,22,212,4210203,,,,,,,2026-01-21,1,,,,,ワンズフリー,0
3905,8080101026037,新規,0,2026-01-21,2026-01-21,株式会社ホープウェル・スプリングス・ジャパン,,株式会社,静岡県,駿東郡長泉町,上土狩４８８番地の２３,,22,342,4110941,,,,,,,2026-01-21,1,,,,,ホープウェルスプリングスジャパン,0
3946,8120001283509,新規,0,2026-01-21,2026-01-21,株式会社エグゼフォーラム,,株式会社,大阪府,大阪市中央区,南久宝寺町４丁目４番１２号ＩＢセンタービル２ＦＣ,,27,128,5410058,,,,,,,2026-01-21,1,,,,,エグゼフォーラム,0
3947,8120001283525,新規,0,2026-01-21,2026-01-21,株式会社ＦＲＩＥＳ　ＣＨＩＣＫＥＮ　ＳＨＯＰ,,株式会社,大阪府,大阪市生野区,桃谷４丁目１番４３号,,27,116,5440034,,,,,,,2026-01-21,1,,,,,フライズチキンショップ,0
3948,8120001283533,新規,0,2026-01-21,2026-01-21,煙月株式会社,,株式会社,大阪府,大阪市中央区,島之内２丁目６－６－１０１ウーロ島之内,,27,128,5420082,,,,,,,2026-01-21,1,,,,,ケムゲツ,0
3952,8120003031700,新規,0,2026-01-21,2026-01-21,愉躍国際合同会社,,合同会社,大阪府,大阪市阿倍野区,阿倍野筋５丁目８番９号,,27,119,5450052,,,,,,,2026-01-21,1,,,,,ユヤクコクサイ,0
3953,8120003031717,新規,0,2026-01-21,2026-01-21,合同会社モデライフ,,合同会社,大阪府,大阪市北区,野崎町６－８－８０５,,27,127,5300055,,,,,,,2026-01-21,1,,,,,モデライフ,0
3954,8120101073099,新規,0,2026-01-21,2026-01-21,株式会社誉めて育てる研究所,,株式会社,大阪府,富田林市,若松町２丁目２番１３号２Ｆ,,27,214,5840024,,,,,,,2026-01-21,1,,,,,ホメテソダテルケンキュウジョ,0
3955,8120103006949,新規,0,2026-01-21,2026-01-21,合同会社ＶＩＮＥ,,合同会社,大阪府,南河内郡河南町,大字東山８４９番地,,27,382,5850001,,,,,,,2026-01-21,1,,,,,ヴィネ,0
3956,8120105010107,新規,0,2026-01-21,2026-01-21,医療法人博陽会,,その他の設立登記法人,大阪府,岸和田市,土生町４１６９番地,,27,202,5960825,,,,,,,2026-01-21,1,,,,,ハクヨウカイ,0
3957,8120901052120,新規,0,2026-01-21,2026-01-21,株式会社ＳＡＴＳＵＫＩ,,株式会社,大阪府,池田市,神田３丁目７番１２号,,27,204,5630043,,,,,,,2026-01-21,1,,,,,サツキ,0
3974,8140001141350,新規,0,2026-01-21,2026-01-21,そら株式会社,,株式会社,兵庫県,淡路市,大谷１１６４番地１,,28,226,6562224,,,,,,,2026-01-21,1,,,,,ソラ,0
3977,8140003023068,新規,0,2026-01-21,2026-01-21,みのりファーム合同会社,,合同会社,兵庫県,たつの市,揖西町前地４７８番地２,,28,229,6794012,,,,,,,2026-01-21,1,,,,,ミノリファーム,0
3982,8150001028662,新規,0,2026-01-21,2026-01-21,株式会社本澤家,,株式会社,奈良県,生駒市,谷田町１２６６番地１４,,29,209,6300251,,,,,,,2026-01-21,1,,,,,ホンザワヤ,0
3983,8150001028679,新規,0,2026-01-21,2026-01-21,株式会社飛鳥エンタテインメント,,株式会社,奈良県,高市郡明日香村,大字岡１２１８番地,,29,402,6340111,,,,,,,2026-01-21,1,,,,,アスカエンタテインメント,0
3996,8180001170362,新規,0,2026-01-21,2026-01-21,株式会社梛の木,,株式会社,愛知県,名古屋市中区,大須１丁目３４番１３号Ｗｉｎ大須５０３,,23,106,4600011,,,,,,,2026-01-21,1,,,,,ナギノキ,0
3997,8180001170387,新規,0,2026-01-21,2026-01-21,株式会社ｍｅｌｌｏｗ,,株式会社,愛知県,名古屋市東区,徳川２丁目９番１８号,,23,102,4610025,,,,,,,2026-01-21,1,,,,,メロウ,0
3999,8180003029656,新規,0,2026-01-21,2026-01-21,ＭＳリンク合同会社,,合同会社,愛知県,愛西市,大井町浦田面５０２番地,,23,232,4960921,,,,,,,2026-01-21,1,,,,,エムエスリンク,0
4004,8180305009760,新規,0,2026-01-21,2026-01-21,一般社団法人三遠キッチンカー災害支援ネットワーク,,その他の設立登記法人,愛知県,豊橋市,岩屋町字岩屋下２番地５７（Ａ）,,23,201,4400842,,,,,,,2026-01-21,1,,,,,サンエンキッチンカーサイガイシエンネットワーク,0
4076,8200001044638,新規,0,2026-01-21,2026-01-21,株式会社愛成,,株式会社,岐阜県,瑞浪市,山田町１１４番地の５２,,21,208,5096104,,,,,,,2026-01-21,1,,,,,アイセイ,0
4103,8290001112717,新規,0,2026-01-21,2026-01-21,株式会社Ｗａｋｏ,,株式会社,福岡県,福岡市博多区,銀天町３丁目１－２１新見ビル,,40,132,8120879,,,,,,,2026-01-21,1,,,,,ワコー,0
4104,8290001112824,新規,0,2026-01-21,2026-01-21,株式会社よかよか,,株式会社,福岡県,太宰府市,白川４番１１号,,40,221,8180102,,,,,,,2026-01-21,1,,,,,ヨカヨカ,0
4105,8290001112865,新規,0,2026-01-21,2026-01-21,まどかホールディングス株式会社,,株式会社,福岡県,春日市,紅葉ヶ丘東３丁目９３番地,,40,218,8160833,,,,,,,2026-01-21,1,,,,,マドカホールディングス,0
4109,8300003002402,新規,0,2026-01-21,2026-01-21,合同会社Ｍａｈａｅ,,合同会社,佐賀県,三養基郡みやき町,大字白壁４２８４―１,,41,346,8490111,,,,,,,2026-01-21,1,,,,,マハエ,0
4111,8320001021550,新規,0,2026-01-21,2026-01-21,株式会社清永カンパニー,,株式会社,大分県,別府市,北浜１丁目４番９号つるみプレザンビル１Ｆ,,44,202,8740920,,,,,,,2026-01-21,1,,,,,キヨナガカンパニー,0
4112,8320003004883,新規,0,2026-01-21,2026-01-21,合同会社ナガハマ・インベスターリレーションズ,,合同会社,大分県,大分市,大字大平５４５番地,,44,201,8792114,,,,,,,2026-01-21,1,,,,,ナガハマインベスターリレイーションズ,0
4184,8330001033941,新規,0,2026-01-21,2026-01-21,株式会社ＬＩＥＮ,,株式会社,熊本県,熊本市東区,東野１丁目９番１号,,43,102,8612106,,,,,,,2026-01-21,1,,,,,ライエン,0
4200,8370001053408,新規,0,2026-01-21,2026-01-21,株式会社フォースクエア,,株式会社,宮城県,仙台市宮城野区,萩野町１丁目２０番地の５,,04,102,9830043,,,,,,,2026-01-21,1,,,,,フォースクエア,0
4216,8500001026738,新規,0,2026-01-21,2026-01-21,株式会社トンボ屋,,株式会社,愛媛県,西条市,三津屋１６３番地１,,38,206,7991351,,,,,,,2026-01-21,1,,,,,トンボヤ,0
4217,8700150134008,新規,0,2026-01-21,2026-01-21,Ｃａｔｓｉｇｈｔｓ　Ｔｅｃｈｎｏｌｏｇｙ　Ｃｏ．，Ｌｉｍｉｔｅｄ,,外国会社等,,,,,,,,ＲＭ　１２０９，１２／Ｆ　ＩＮＴＥＲ－ＣＯＮＴＩＮＥＮＴＡＬ　ＰＬＡＺＡ　９４　ＧＲＡＮＶＩＬＬＥ　ＲＯＡＤ　ＴＳＩＭ　ＳＨＡ　ＴＳＵＩ　ＨＫ,,,,,,2026-01-21,1,,,,,キャットサイツテクノロジーカンパニーリミテッド,0
4218,8700150134024,新規,0,2026-01-21,2026-01-21,Ｍａｏｍｉｎｇ　Ｙｕｎｌｕ　Ｔｒａｄｉｎｇ　Ｃｏ．，Ｌｔｄ,,外国会社等,,,,,,,,Ｎｏ．１，Ｌｉｕ’ａｎ　Ｒｏａｄ　Ｉｎｔｅｒｓｅｃｔｉｏｎ，Ｃａｏｊｉａｎｇ　Ｔｏｗｎ，Ｇａｏｚｈｏｕ　Ｃｉｔｙ（Ｒｅｓｉｄｅｎｃｅ　Ｄｅｃｌａｒａｔｉｏｎ），Ｃｈｉｎａ,,,,,,2026-01-21,1,,,,,マオミングユンルートレーディングカンパニーリミテッド,0
4229,9010001262051,新規,0,2026-01-21,2026-01-21,ＪＰＶ第３４号株式会社,,株式会社,東京都,千代田区,霞が関３丁目２番１号,,13,101,1000013,,,,,,,2026-01-21,1,,,,,ジェイピーブイダイサンジュウヨンゴウ,0
4230,9010001262167,新規,0,2026-01-21,2026-01-21,森寅株式会社,,株式会社,東京都,中央区,八丁堀３丁目１８－１０－８階,,13,102,1040032,,,,,,,2026-01-21,1,,,,,モリイン,0
4231,9010003050058,新規,0,2026-01-21,2026-01-21,合同会社ＪＦアセット,,合同会社,東京都,中央区,佃１丁目１１番７号,,13,102,1040051,,,,,,,2026-01-21,1,,,,,ジェイエフアセット,0
4242,9010401195818,新規,0,2026-01-21,2026-01-21,株式会社ＫＫＭ　Ｇｒｏｕｐ,,株式会社,東京都,港区,南青山１丁目１７番１４号,,13,103,1070062,,,,,,,2026-01-21,1,,,,,ケイケイエムグループ,0
4243,9010401195859,新規,0,2026-01-21,2026-01-21,ディー・ハート株式会社,,株式会社,東京都,港区,北青山１丁目３番１号アールキューブ青山３階,,13,103,1070061,,,,,,,2026-01-21,1,,,,,ディーハート,0
4251,9010403037101,新規,0,2026-01-21,2026-01-21,合同会社サザンヒルズ,,合同会社,東京都,港区,高輪４丁目２４番２５－５０２号,,13,103,1080074,,,,,,,2026-01-21,1,,,,,サザンヒルズ,0
4257,9010701048915,新規,0,2026-01-21,2026-01-21,ＡＲＥＴＩＳ株式会社,,株式会社,東京都,品川区,西五反田３丁目６番２３－１４０２号,,13,109,1410031,,,,,,,2026-01-21,1,,,,,アレティス,0
4258,9010701048923,新規,0,2026-01-21,2026-01-21,ＡＵＲＡ　ＬＩＶＥ．Ｉｎｃ株式会社,,株式会社,東京都,品川区,上大崎２丁目５番２号ツルキレジデンス恵比寿１０６,,13,109,1410021,,,,,,,2026-01-21,1,,,,,オーラライブドットインク,0
4267,9011001174906,新規,0,2026-01-21,2026-01-21,株式会社ｍｅｌａｔｅｔｏ,,株式会社,東京都,渋谷区,宇田川町１番１２－２００５号パークコート渋谷ザタワー,,13,113,1500042,,,,,,,2026-01-21,1,,,,,メラテト,0
4268,9011001174930,新規,0,2026-01-21,2026-01-21,株式会社ご縁,,株式会社,東京都,目黒区,目黒３丁目２０番２１号,,13,110,1530063,,,,,,,2026-01-21,1,,,,,ゴエン,0
4269,9011001174988,新規,0,2026-01-21,2026-01-21,株式会社Ｌｉｖｉｎｇ　Ｂｅａｔｓ,,株式会社,東京都,渋谷区,桜丘町４番１４号ＶＯＲＴ渋谷桜丘５階,,13,113,1500031,,,,,,,2026-01-21,1,,,,,リビングビーツ,0
4270,9011001175004,新規,0,2026-01-21,2026-01-21,株式会社ＧＭＨ,,株式会社,東京都,渋谷区,道玄坂１丁目１０番８号渋谷道玄坂東急ビル２Ｆ－Ｃ,,13,113,1500043,,,,,,,2026-01-21,1,,,,,ジーエムエイチ,0
4271,9011001175053,新規,0,2026-01-21,2026-01-21,株式会社Ｗａｉｎａ,,株式会社,東京都,渋谷区,神山町４２番３号,,13,113,1500047,,,,,,,2026-01-21,1,,,,,ワイナ,0
4272,9011001175136,新規,0,2026-01-21,2026-01-21,株式会社Ｓａｋｕｒａ‐Ｂａｏｂａｂ　Ａｕｔｏ,,株式会社,東京都,渋谷区,渋谷２丁目１９番１９号ワコー宮益坂ビル５階,,13,113,1500002,,,,,,,2026-01-21,1,,,,,サクラバオバブオート,0
4279,9011103016709,新規,0,2026-01-21,2026-01-21,合同会社二馬力,,合同会社,東京都,新宿区,高田馬場４丁目３３番９号,,13,104,1690075,,,,,,,2026-01-21,1,,,,,ニバリキ,0
4280,9011103016948,新規,0,2026-01-21,2026-01-21,ＦＡＭＢＯＮＤ合同会社,,合同会社,東京都,新宿区,四谷４丁目１８番２号,,13,104,1600004,,,,,,,2026-01-21,1,,,,,ファムボンド,0
4302,9012401044038,新規,0,2026-01-21,2026-01-21,株式会社なないろ,,株式会社,東京都,府中市,武蔵台３丁目７番地の２０,,13,206,1830042,,,,,,,2026-01-21,1,,,,,ナナイロ,0
4316,9012803003979,新規,0,2026-01-21,2026-01-21,合同会社かなでパーク,,合同会社,東京都,東大和市,芋窪６丁目１３１９番地の６,,13,220,2070033,,,,,,,2026-01-21,1,,,,,カナデパーク,0
4326,9020001166656,新規,0,2026-01-21,2026-01-21,株式会社ＳＳＳ,,株式会社,神奈川県,横浜市青葉区,美しが丘２丁目２１番地１２アロービルたまプラーザ４Ｆ,,14,117,2250002,,,,,,,2026-01-21,1,,,,,スリーエス,0
4327,9020001166664,新規,0,2026-01-21,2026-01-21,株式会社Ｍａｃｈｉｎｅ　Ｆｒｅａｋ,,株式会社,神奈川県,横浜市西区,みなとみらい２丁目３番５号クイーンズタワーＣ棟１４Ｆ,,14,103,2200012,,,,,,,2026-01-21,1,,,,,マシンフリーク,0
4328,9020001166763,新規,0,2026-01-21,2026-01-21,ビーグロース株式会社,,株式会社,神奈川県,横浜市西区,北幸１丁目５番１０号ＪＰＲ横浜ビル８階,,14,103,2200004,,,,,,,2026-01-21,1,,,,,ビーグロース,0
4334,9020003030133,新規,0,2026-01-21,2026-01-21,スライムパートナーズ合同会社,,合同会社,神奈川県,横浜市西区,北幸２丁目１０番４８号むつみビル３階,,14,103,2200004,,,,,,,2026-01-21,1,,,,,スライムパートナーズ,0
4335,9020003030141,新規,0,2026-01-21,2026-01-21,豊商合同会社,,合同会社,神奈川県,横浜市中区,山下町４６ＢＬＯＣＫＳＹＡＭＡＳＨＩＴＡＰＡＲＫ３１６,,14,104,2310023,,,,,,,2026-01-21,1,,,,,トヨショー,0
4340,9021001087264,新規,0,2026-01-21,2026-01-21,芦子工房株式会社,,株式会社,神奈川県,小田原市,池上１５０番地の１４,,14,206,2500041,,,,,,,2026-01-21,1,,,,,アシココウボウ,0
4341,9021001087280,新規,0,2026-01-21,2026-01-21,株式会社ライズ,,株式会社,神奈川県,鎌倉市,玉縄１丁目３番地７,,14,204,2470071,,,,,,,2026-01-21,1,,,,,ライズ,0
4352,9030001170632,新規,0,2026-01-21,2026-01-21,株式会社ＴＥＲＡＮＯ,,株式会社,埼玉県,さいたま市西区,西大宮１丁目４６番地９,,11,101,3310078,,,,,,,2026-01-21,1,,,,,テラノ,0
4353,9030001170665,新規,0,2026-01-21,2026-01-21,和創ＤＸ株式会社,,株式会社,埼玉県,八潮市,緑町４丁目２－１２－２Ｆ,,11,234,3400808,,,,,,,2026-01-21,1,,,,,ワソウディーエックス,0
4356,9030003028440,新規,0,2026-01-21,2026-01-21,合同会社ＣＩＥＬＩＡ,,合同会社,埼玉県,朝霞市,三原２丁目４番２８号サンマリノ三原２０１号,,11,227,3510025,,,,,,,2026-01-21,1,,,,,シエリア,0
4357,9030003028498,新規,0,2026-01-21,2026-01-21,合同会社幸和,,合同会社,埼玉県,さいたま市大宮区,桜木町４丁目８１３番地１６,,11,103,3300854,,,,,,,2026-01-21,1,,,,,コウワ,0
4359,9040001072316,新規,0,2026-01-21,2026-01-21,株式会社アトコ,,株式会社,千葉県,野田市,日の出町２７番地１８,,12,208,2700234,,,,,,,2026-01-21,1,,,,,アトコ,0
4365,9040001142119,新規,0,2026-01-21,2026-01-21,株式会社ＴＯＰ,,株式会社,千葉県,柏市,東山１丁目３番７－６号,,12,217,2770064,,,,,,,2026-01-21,1,,,,,トップ,0
4367,9040003029330,新規,0,2026-01-21,2026-01-21,合同会社春夏冬,,合同会社,千葉県,木更津市,潮見５丁目１番地１０,,12,206,2920834,,,,,,,2026-01-21,1,,,,,アキナイ,0
4371,9050001057869,新規,0,2026-01-21,2026-01-21,伊吹ホールディングス株式会社,,株式会社,茨城県,龍ケ崎市,川原代町５８４７番地の７,,08,208,3010005,,,,,,,2026-01-21,1,,,,,イブキホールディングス,0
4383,9070003006269,新規,0,2026-01-21,2026-01-21,光彩堂合同会社,,合同会社,群馬県,高崎市,和田多中町６－１５,,10,202,3700844,,,,,,,2026-01-21,1,,,,,,0
4384,9070005010459,新規,0,2026-01-21,2026-01-21,一般社団法人コーエィ会,,その他の設立登記法人,群馬県,前橋市,上小出町１丁目９番地１２,,10,201,3710037,,,,,,,2026-01-21,1,,,,,コーエィカイ,0
4415,9080103003504,新規,0,2026-01-21,2026-01-21,合同会社ＰａｎａＢｅａｎ,,合同会社,静岡県,富士市,中丸５０５－６,,22,210,4160933,,,,,,,2026-01-21,1,,,,,パナビーン,0
4445,9110001039860,新規,0,2026-01-21,2026-01-21,パナコスモスヒロカワ株式会社,,株式会社,新潟県,新潟市中央区,営所通１番町３０２番地２,,15,103,9518114,,,,,,,2026-01-21,1,,,,,パナコスモスヒロカワ,0
4446,9110003006041,新規,0,2026-01-21,2026-01-21,アルピニストジャパン合同会社,,合同会社,新潟県,妙高市,大字田切２１８番地５８,,15,217,9492102,,,,,,,2026-01-21,1,,,,,アルピニストジャパン,0
4460,9120001283326,新規,0,2026-01-21,2026-01-21,株式会社ライフサポート弁天,,株式会社,大阪府,大阪市港区,弁天２丁目３番１号土居マンション２０１号,,27,107,5520007,,,,,,,2026-01-21,1,,,,,ライフサポートベンテン,0
4461,9120001283458,新規,0,2026-01-21,2026-01-21,株式会社クニカ・ドア,,株式会社,大阪府,大阪市住吉区,帝塚山西２丁目１３番１４号,00142279,27,120,5580052,,,,,,,2026-01-21,1,,,,,クニカドア,0
4462,9120001283482,新規,0,2026-01-21,2026-01-21,ＣａｒｒｏｔＢｅｔａ株式会社,,株式会社,大阪府,大阪市淀川区,宮原１丁目１９番２３の１１０９,,27,123,5320003,,,,,,,2026-01-21,1,,,,,キャロットベータ,0
4463,9120001283532,新規,0,2026-01-21,2026-01-21,梅子貿易株式会社,,株式会社,大阪府,大阪市中央区,島之内２丁目６－６－１０１ウーロ島之内,,27,128,5420082,,,,,,,2026-01-21,1,,,,,ウメコボウエキ,0
4470,9120905006831,新規,0,2026-01-21,2026-01-21,医療法人翔雀会,,その他の設立登記法人,大阪府,摂津市,正雀本町１丁目２１番４号,,27,224,5660024,,,,,,,2026-01-21,1,,,,,ショウジャクカイ,0
4477,9130001081456,新規,0,2026-01-21,2026-01-21,株式会社Ｎ．ｗｏｒｋｓ,,株式会社,京都府,八幡市,上津屋浜垣内１２６番地２,,26,210,6148181,,,,,,,2026-01-21,1,,,,,エヌワークス,0
4479,9130003011080,新規,0,2026-01-21,2026-01-21,合同会社リヴィ・サポ,,合同会社,京都府,京都市左京区,二条通川端東入大菊町９８番地５,,26,103,6068376,,,,,,,2026-01-21,1,,,,,リヴィサポ,0
4487,9140001141317,新規,0,2026-01-21,2026-01-21,株式会社Ｐａｓｓｉｏｎ,,株式会社,兵庫県,芦屋市,西山町４－８－２０２号,,28,206,6590083,,,,,,,2026-01-21,1,,,,,パッション,0
4488,9140001141408,新規,0,2026-01-21,2026-01-21,株式会社ＮＥＸＩＡ,,株式会社,兵庫県,加古川市,東神吉町天下原７３番地の１,,28,210,6750058,,,,,,,2026-01-21,1,,,,,ネクシア,0
4490,9140003023091,新規,0,2026-01-21,2026-01-21,合同会社Ｇｒｅｅｎｆｌｏｗ,,合同会社,兵庫県,神戸市西区,池上３丁目１－３シャトル池上ビル１Ｆ,,28,111,6512111,,,,,,,2026-01-21,1,,,,,グリーンフロー,0
4493,9160001027332,新規,0,2026-01-21,2026-01-21,株式会社新裕建設,,株式会社,滋賀県,彦根市,戸賀町１５３番地４,,25,202,5220042,,,,,,,2026-01-21,1,,,,,シンユウケンセツ,0
4510,9180003029647,新規,0,2026-01-21,2026-01-21,合同会社ＫＵＵ,,合同会社,愛知県,名古屋市東区,東桜２丁目１７番２５号レジディア東桜ＩＩ２０７号,00142263,23,102,4610005,,,,,,,2026-01-21,1,,,,,クウ,0
4511,9180003029655,新規,0,2026-01-21,2026-01-21,合同会社ワンシックスオペレーション,,合同会社,愛知県,江南市,寄木町天道１３番地,,23,217,4838184,,,,,,,2026-01-21,1,,,,,ワンシックスオペレーション,0
4605,9250001021508,新規,0,2026-01-21,2026-01-21,株式会社古海産業,,株式会社,山口県,周南市,大字久米２７４９番地の１１,,35,215,7450801,,,,,,,2026-01-21,1,,,,,フルミサンギョウ,0
4609,9260001040911,新規,0,2026-01-21,2026-01-21,株式会社蒼元,,株式会社,岡山県,勝田郡奈義町,西原９１８－１,,33,623,7081306,,,,,,,2026-01-21,1,,,,,ソウゲン,0
4634,9290005019973,新規,0,2026-01-21,2026-01-21,一般財団法人豊村・米文化財保存支援機構,,その他の設立登記法人,福岡県,福津市,津屋崎４丁目１４番１８号,,40,224,8113304,,,,,,,2026-01-21,1,,,,,トヨムラヨネブンカザイホゾンシエンキコウ,0
4636,9290801032188,新規,0,2026-01-21,2026-01-21,株式会社ｄｏｔｔｏ　ｐｌｕｓ,,株式会社,福岡県,北九州市戸畑区,千防３丁目６－２４,,40,105,8040081,,,,,,,2026-01-21,1,,,,,ドットプラス,0
4637,9290803005258,新規,0,2026-01-21,2026-01-21,合同会社リガーレ,,合同会社,福岡県,北九州市八幡西区,小嶺２丁目１６－２０,,40,109,8070081,,,,,,,2026-01-21,1,,,,,リガーレ,0
4638,9300001014480,新規,0,2026-01-21,2026-01-21,Ｔエレクトリックソリューション株式会社,,株式会社,佐賀県,鳥栖市,宿町１０１９番地１,,41,203,8410052,,,,,,,2026-01-21,1,,,,,ティエレクトリックソリューション,0
4719,9330003011399,新規,0,2026-01-21,2026-01-21,合同会社ＲＫアセットマネジメント,,合同会社,熊本県,熊本市東区,健軍１丁目１２番２－６０１号,,43,102,8620911,,,,,,,2026-01-21,1,,,,,アールケーアセットマネジメント,0
4732,9370003007451,新規,0,2026-01-21,2026-01-21,合同会社すずの木,,合同会社,宮城県,仙台市青葉区,錦ケ丘７丁目１３番地の１０,,04,101,9893123,,,,,,,2026-01-21,1,,,,,スズノキ,0
4748,9430001096093,新規,0,2026-01-21,2026-01-21,株式会社じき,,株式会社,北海道,余市郡余市町,登町１３５０番地３,,01,408,0460002,,,,,,,2026-01-21,1,,,,,ジキ,0
