sequenceNumber,corporateNumber,process,correct,updateDate,changeDate,name,nameImageId,kind,prefectureName,cityName,streetNumber,addressImageId,prefectureCode,cityCode,postCode,addressOutside,addressOutsideImageId,closeDate,closeCause,successorCorporateNumber,changeCause,assignmentDate,latest,enName,enPrefectureName,enCityName,enAddressOutside,furigana,hihyoji
8,1010001197247,登記記録の閉鎖等,0,2021-12-10,2021-12-01,エクイスジオエネルギー・ジャパン株式会社,,株式会社,東京都,中央区,京橋２丁目２番１号京橋エドグラン,,13,102,1040031,,,2021-12-01,合併による解散等,4010001207176,令和３年１２月１日東京都中央区京橋二丁目２番１号京橋エドグランエクイスエネルギー・ジャパン株式会社（4010001207176）に合併し解散,2018-12-20,1,,,,,,0
10,1010001211998,登記記録の閉鎖等,0,2021-12-10,2021-12-07,株式会社Ｍｅｄｉｃａｌ　Ｓｑｕａｒｅ　Ｔｏｋｙｏ,,株式会社,東京都,千代田区,内神田２丁目５番３号,,13,101,1010047,,,2021-12-07,清算の結了等,,,2020-08-31,1,,,,,メディカルスクエアートウキョウ,0
15,1010003025422,登記記録の閉鎖等,0,2021-12-10,2021-12-07,合同会社アポロン,,合同会社,東京都,中央区,日本橋１丁目４番１号日本橋一丁目ビルディング,,13,102,1030027,,,2021-12-07,清算の結了等,,,2017-05-31,1,,,,,アポロン,0
23,1010401128058,登記記録の閉鎖等,0,2021-12-10,2021-12-01,株式会社ｈｕｇｍｏ,,株式会社,東京都,港区,海岸１丁目７番１号,,13,103,1050022,,,2021-12-01,清算の結了等,,,2016-11-08,1,,,,,ハグモー,0
32,1010601035822,登記記録の閉鎖等,0,2021-12-10,2021-12-06,オーケーテック株式会社,,株式会社,東京都,江東区,亀戸５丁目４番６－２０１号,,13,108,1360071,,,2021-12-06,清算の結了等,,,2015-10-05,1,,,,,オーケーテック,0
53,1011101089937,登記記録の閉鎖等,0,2021-12-10,2021-12-01,株式会社ｔｒｉｅｎｔ,,株式会社,東京都,新宿区,新宿４丁目３番１７号,,13,104,1600022,,,2021-12-01,合併による解散等,9011101076787,令和３年１２月１日東京都新宿区西新宿七丁目７番６号株式会社アシロ（9011101076787）に合併し解散,2019-12-23,1,,,,,トリエント,0
61,1011402001724,登記記録の閉鎖等,0,2021-12-10,2021-12-07,有限会社エルスズキ・カンパニー,,有限会社,東京都,板橋区,坂下２丁目２６番１９－１０１２号,,13,119,1740043,,,2021-12-07,清算の結了等,,,2015-10-05,1,,,,,エルスズキカンパニー,0
96,1021002030817,登記記録の閉鎖等,0,2021-12-10,2021-12-07,有限会社井上麹店,,有限会社,神奈川県,厚木市,三田南３丁目３番１５号,,14,212,2430217,,,2021-12-07,清算の結了等,,,2015-10-05,1,,,,,イノウエコウジテン,0
106,1030001138629,登記記録の閉鎖等,0,2021-12-10,2021-12-08,株式会社ＲＥＲＡＩＳＥ,,株式会社,埼玉県,さいたま市大宮区,下町２丁目７３番地コンフォートマンション下町７１８号室,,11,103,3300844,,,2021-12-08,清算の結了等,,,2020-10-07,1,,,,,リレイズ,0
133,1050002028810,登記記録の閉鎖等,0,2021-12-10,2021-12-06,有限会社永峰プレス工業,,有限会社,茨城県,行方市,麻生５００番地,,08,233,3113832,,,2021-12-06,清算の結了等,,,2015-10-05,1,,,,,ナガミネプレス,0
135,1060001011626,登記記録の閉鎖等,0,2021-12-10,2021-12-06,株式会社ジョエル．エム,,株式会社,栃木県,那須郡那須町,大字寺子乙３９２１番地,,09,407,3293215,,,2021-12-06,清算の結了等,,,2015-10-05,1,,,,,ジョエルエム,0
136,1060001014967,登記記録の閉鎖等,0,2021-12-10,2021-12-07,株式会社鯉沼工業,,株式会社,栃木県,下野市,三王山１１９７番地１,,09,216,3230101,,,2021-12-07,清算の結了等,,,2015-10-05,1,,,,,コイヌマコウギョウ,0
137,1060001019933,登記記録の閉鎖等,0,2021-12-10,2021-12-06,エビスオート株式会社,,株式会社,栃木県,足利市,朝倉町３丁目８番地３２,,09,202,3260823,,,2021-12-06,清算の結了等,,,2015-10-05,1,,,,,エビスオート,0
138,1060002006526,登記記録の閉鎖等,0,2021-12-10,2021-12-06,有限会社栃木住機サービス,,有限会社,栃木県,宇都宮市,兵庫塚３丁目３１番３号,,09,201,3210138,,,2021-12-06,清算の結了等,,,2015-10-05,1,,,,,トチギジュウキサービス,0
140,1060002033735,登記記録の閉鎖等,0,2021-12-10,2021-12-06,有限会社磯崎建商,00024755,有限会社,栃木県,栃木市,都賀町合戦場６４２番地３,,09,203,3280113,,,2021-12-06,清算の結了等,,,2015-10-05,1,,,,,イソザキケンショウ,0
152,1110005016442,登記記録の閉鎖等,0,2021-12-10,2021-12-06,特定非営利活動法人アトリエＫａＦｕＫａ,,その他の設立登記法人,新潟県,三条市,月岡６２０－１,,15,204,9550803,,,2021-12-06,清算の結了等,,,2019-09-13,1,,,,,アトリエカフカ,0
170,1120002017566,登記記録の閉鎖等,0,2021-12-10,2021-12-03,有限会社三恒テクノス,,有限会社,大阪府,大阪市住吉区,長居東３丁目１番２９－４０１号,,27,120,5580004,,,2021-12-03,清算の結了等,,,2015-10-05,1,,,,,サンコウテクノス,0
180,1120901019299,登記記録の閉鎖等,0,2021-12-10,2021-12-08,株式会社Ｐｒｉｓｏｌａインターナショナル,,株式会社,大阪府,吹田市,古江台５丁目１番２７－１０１号,,27,205,5650874,,,2021-12-08,清算の結了等,,,2015-10-05,1,,,,,プリソラインターナショナル,0
181,1120901028754,登記記録の閉鎖等,0,2021-12-10,2021-11-26,株式会社ヒロテック,,株式会社,大阪府,豊中市,名神口３丁目１番１８号Ｂ４,,27,203,5610841,,,2021-11-26,清算の結了等,,,2015-10-05,1,,,,,ヒロテック,0
186,1130001065375,登記記録の閉鎖等,0,2021-12-10,2021-12-09,株式会社京都タッチスクール,,株式会社,京都府,京都市伏見区,深草小久保町１５０,,26,109,6128437,,,2021-12-09,清算の結了等,,,2019-10-04,1,,,,,キョウトタッチスクール,0
201,1180001068209,登記記録の閉鎖等,0,2021-12-10,2021-12-07,株式会社清建,,株式会社,愛知県,北名古屋市,宇福寺天神２８９番地,,23,234,4810035,,,2021-12-07,清算の結了等,,,2015-10-05,1,,,,,,0
230,1280005005503,登記記録の閉鎖等,0,2021-12-10,2021-12-07,内正寺,,その他の設立登記法人,島根県,鹿足郡津和野町,相撲ヶ原４２７番地２,,32,501,6995203,,,2021-12-07,清算の結了等,,,2015-10-05,1,,,,,ナイショウジ,0
248,1290802019068,登記記録の閉鎖等,0,2021-12-10,2021-12-07,有限会社西部設備工業,,有限会社,福岡県,北九州市若松区,高須北３丁目５番１０号,,40,103,8080147,,,2021-12-07,清算の結了等,,,2015-10-05,1,,,,,サイブセツビコウギョウ,0
289,1430001046502,登記記録の閉鎖等,0,2021-12-10,2021-12-08,株式会社スタジオ富士,,株式会社,北海道,岩見沢市,六条西６丁目,,01,210,0680026,,,2021-12-08,清算の結了等,,,2015-10-05,1,,,,,スタジオフジ,0
317,2010001150163,登記記録の閉鎖等,0,2021-12-10,2021-12-01,ＹＭＫ　ＩＮＴＥＲＮＡＴＩＯＮＡＬ　ＪＡＰＡＮ株式会社,,株式会社,東京都,港区,赤坂９丁目６番１２号イワキビル１階,,13,103,1070052,,,2021-12-01,清算の結了等,,,2015-10-05,1,,,,,ワイエムケイインターナショナルジャパン,0
356,2010901027898,登記記録の閉鎖等,0,2021-12-10,2021-12-08,株式会社桜丘在宅サービスセンター赤とんぼ,,株式会社,東京都,世田谷区,桜丘２丁目２４番１９－２０５号,,13,112,1560054,,,2021-12-08,清算の結了等,,,2015-10-05,1,,,,,サクラガオカザイタクサービスセンターアカトンボ,0
359,2010903004202,登記記録の閉鎖等,0,2021-12-10,2021-12-08,ＴＨＡＮＨ　ＬＯＩ合同会社,,合同会社,東京都,世田谷区,千歳台１丁目１番８－１０１号,,13,112,1570071,,,2021-12-08,清算の結了等,,,2018-03-26,1,,,,,タンロイ,0
377,2011401013521,登記記録の閉鎖等,0,2021-12-10,2021-12-09,アクトエンジニアリング株式会社,,株式会社,東京都,板橋区,上板橋３丁目１１番地９,,13,119,1740076,,,2021-12-09,清算の結了等,,,2015-10-05,1,,,,,,0
378,2011401015179,登記記録の閉鎖等,0,2021-12-10,2021-12-08,株式会社アプリコット,,株式会社,東京都,板橋区,赤塚新町３丁目２０番１３－３０５号,00065789,13,119,1750093,,,2021-12-08,清算の結了等,,,2015-10-05,1,,,,,アプリコット,0
380,2011501017364,登記記録の閉鎖等,0,2021-12-10,2021-12-06,株式会社時計修理マルヤマウォッチサービス,,株式会社,東京都,北区,豊島４丁目１３番９号,,13,117,1140003,,,2021-12-06,清算の結了等,,,2015-10-05,1,,,,,トケイシュウリマルヤマウォッチサービス,0
392,2020001068859,登記記録の閉鎖等,0,2021-12-10,2021-12-01,株式会社石文,,株式会社,神奈川県,川崎市中原区,小杉陣屋町２丁目７番３号,,14,133,2110062,,,2021-12-01,合併による解散等,4020002082931,令和３年１２月１日川崎市中原区小杉陣屋町二丁目７番３号株式会社石橋醤油店（4020002082931）に合併し解散,2015-10-05,1,,,,,イシブン,0
404,2020002092370,登記記録の閉鎖等,0,2021-12-10,2021-12-08,有限会社スカイ測量,,有限会社,神奈川県,川崎市多摩区,登戸２８６５番地,,14,135,2140014,,,2021-12-08,清算の結了等,,,2015-10-05,1,,,,,スカイソクリョウ,0
408,2020005010783,登記記録の閉鎖等,0,2021-12-10,2021-12-01,ＮＰＯ法人イマジネーションビューロー,,その他の設立登記法人,千葉県,市原市,瀬又５９０－２３,,12,219,2900151,,,2021-12-01,清算の結了等,,,2015-10-05,1,,,,,イマジネーションビューロー,0
427,2030003007839,登記記録の閉鎖等,0,2021-12-10,2021-12-07,合同会社ＪＭＭ,,合同会社,埼玉県,深谷市,新戒２５８番地２,,11,218,3660019,,,2021-12-07,清算の結了等,,,2015-10-05,1,,,,,ジェイエムエム,0
429,2040001005926,登記記録の閉鎖等,0,2021-12-10,2021-12-07,日本機販株式会社,,株式会社,千葉県,千葉市中央区,宮崎町７２３番地７０,,12,101,2600805,,,2021-12-07,清算の結了等,,,2015-10-05,1,,,,,ニホンキハン,0
430,2040001022616,登記記録の閉鎖等,0,2021-12-10,2021-12-03,株式会社栄和コンサルティング,,株式会社,千葉県,鎌ケ谷市,東中沢２丁目５番１７号,,12,224,2730112,,,2021-12-03,清算の結了等,,,2015-10-05,1,,,,,エイワコンサルティング,0
432,2040001049584,登記記録の閉鎖等,0,2021-12-10,2021-12-08,株式会社昌益商事,,株式会社,千葉県,四街道市,大日１２１３番５,,12,228,2840001,,,2021-12-08,清算の結了等,,,2015-10-05,1,,,,,,0
433,2040001062141,登記記録の閉鎖等,0,2021-12-10,2021-12-06,三徳電気株式会社,,株式会社,千葉県,銚子市,愛宕町２９６７番地,,12,202,2880007,,,2021-12-06,清算の結了等,,,2015-10-05,1,,,,,サントクデンキ,0
441,2060002014296,登記記録の閉鎖等,0,2021-12-10,2021-12-03,有限会社山本建設,,有限会社,栃木県,那須郡那珂川町,小川４１８番地６,,09,411,3240501,,,2021-12-03,清算の結了等,,,2015-10-05,1,,,,,ヤマモトケンセツ,0
457,2110002009654,登記記録の閉鎖等,0,2021-12-10,2021-12-06,有限会社タナベ,,有限会社,新潟県,新潟市秋葉区,美幸町３丁目２番４－３号,,15,105,9560023,,,2021-12-06,清算の結了等,,,2015-10-05,1,,,,,タナベ,0
460,2110002011742,登記記録の閉鎖等,0,2021-12-10,2021-12-08,有限会社匠巧芸,,有限会社,新潟県,新潟市西蒲区,仁箇１０４５番地４,,15,108,9530022,,,2021-12-08,清算の結了等,,,2015-10-05,1,,,,,タクミコウゲイ,0
462,2110003002303,登記記録の閉鎖等,0,2021-12-10,2021-12-06,合資会社関友建設,,合資会社,新潟県,魚沼市,小出島２３３番地,,15,225,9460011,,,2021-12-06,清算の結了等,,,2015-10-05,1,,,,,セキトモケンセツ,0
471,2120001237239,登記記録の閉鎖等,0,2021-12-10,2021-12-06,大進住宅株式会社,,株式会社,大阪府,枚方市,香里園桜木町１２番１号,,27,210,5730088,,,2021-12-06,清算の結了等,,,2021-05-11,1,,,,,ダイシンジュウタク,0
491,2140001006889,登記記録の閉鎖等,0,2021-12-10,2021-12-07,カンジ貿易株式会社,,株式会社,兵庫県,神戸市中央区,播磨町４９番地,,28,110,6500036,,,2021-12-07,清算の結了等,,,2015-10-05,1,,,,,カンジボウエキ,0
493,2140001067502,登記記録の閉鎖等,0,2021-12-10,2021-12-06,株式会社仕事屋,,株式会社,兵庫県,神戸市東灘区,岡本２丁目１１番８号,,28,101,6580072,,,2021-12-06,清算の結了等,,,2015-10-05,1,,,,,シゴトヤ,0
501,2140005023419,登記記録の閉鎖等,0,2021-12-10,2021-12-07,一般社団法人共に生きる建築職人組合,,その他の設立登記法人,兵庫県,川西市,久代１丁目１０番６号,,28,217,6660024,,,2021-12-07,清算の結了等,,,2017-03-07,1,,,,,トモニイキルケンチクショクニンクミアイ,0
507,2180001133119,登記記録の閉鎖等,0,2021-12-10,2021-12-06,株式会社ネクストイノベーション,,株式会社,愛知県,名古屋市千種区,内山３丁目２２番１１号森島ビル３Ｂ,,23,101,4640075,,,2021-12-06,清算の結了等,,,2018-07-30,1,,,,,ネクストイノベーション,0
511,2180301005942,登記記録の閉鎖等,0,2021-12-10,2021-12-08,株式会社鈴木武商店,,株式会社,愛知県,豊橋市,魚町５９番地,,23,201,4400894,,,2021-12-08,清算の結了等,,,2015-10-05,1,,,,,スズキタケシショウテン,0
517,2200001031468,登記記録の閉鎖等,0,2021-12-10,2021-12-06,株式会社ルテラ,,株式会社,岐阜県,瑞穂市,穂積１８１４番地１,,21,216,5010223,,,2021-12-06,清算の結了等,,,2015-10-05,1,,,,,ルテラ,0
519,2200005012448,登記記録の閉鎖等,0,2021-12-10,2021-12-09,特定非営利活動法人スマイル,,その他の設立登記法人,岐阜県,岐阜市,北一色６丁目１番地１２,,21,201,5008227,,,2021-12-09,清算の結了等,,,2016-03-25,1,,,,,スマイル,0
543,2290001010645,登記記録の閉鎖等,0,2021-12-10,2021-12-06,株式会社水野宏建築事務所,,株式会社,福岡県,福岡市南区,屋形原１丁目１１番８号,,40,134,8111351,,,2021-12-06,清算の結了等,,,2015-10-05,1,,,,,ミズノヒロシケンチクジムショ,0
545,2290001037069,登記記録の閉鎖等,0,2021-12-10,2021-12-06,ヒサノホームシステム株式会社,,株式会社,福岡県,宗像市,武丸１１８９番地１,,40,220,8114152,,,2021-12-06,清算の結了等,,,2015-10-05,1,,,,,ヒサノホームシステム,0
552,2330002010532,登記記録の閉鎖等,0,2021-12-10,2021-12-08,有限会社村上百工務店,,有限会社,熊本県,熊本市南区,出仲間４丁目２番１５号,,43,104,8620963,,,2021-12-08,清算の結了等,,,2015-10-05,1,,,,,ムラカミモモコウムテン,0
590,2470001003309,登記記録の閉鎖等,0,2021-12-10,2021-12-03,株式会社ニチブツ,,株式会社,香川県,高松市,朝日新町２３番２４号,,37,201,7600064,,,2021-12-03,合併による解散等,1470001002484,令和３年１２月１日香川県高松市朝日新町２３番２４号高松臨港倉庫株式会社（1470001002484）に合併し解散,2015-10-05,1,,,,,ニチブツ,0
592,2470001010602,登記記録の閉鎖等,0,2021-12-10,2021-12-03,株式会社渡辺組,,株式会社,香川県,三豊市,詫間町詫間２０９３番地,,37,208,7691101,,,2021-12-03,清算の結了等,,,2015-10-05,1,,,,,ワタナベグミ,0
597,2500001016208,登記記録の閉鎖等,0,2021-12-10,2021-12-07,株式会社Ｋサポート,,株式会社,愛媛県,松山市,東石井６丁目２番１号グラン・パレコート・ドール４０３号,,38,201,7900932,,,2021-12-07,清算の結了等,,,2015-10-05,1,,,,,,0
631,3010501033379,登記記録の閉鎖等,0,2021-12-10,2021-12-08,株式会社アプリコット,,株式会社,東京都,台東区,三筋１丁目１５番３－１００２号,,13,106,1110055,,,2021-12-08,清算の結了等,,,2015-10-05,1,,,,,アプリコット,0
635,3010601041513,登記記録の閉鎖等,0,2021-12-10,2021-12-07,株式会社ルミテック,,株式会社,東京都,江東区,清澄３丁目６番１４号町井ビル２Ｆ,,13,108,1350024,,,2021-12-07,清算の結了等,,,2015-10-05,1,,,,,ルミテック,0
646,3010801028517,登記記録の閉鎖等,0,2021-12-10,2021-12-07,株式会社ＪＹＯコーポレーション,,株式会社,東京都,品川区,北品川１丁目１３番７号長栄ビル８Ｆ（株）アプライズ内,,13,109,1400001,,,2021-12-07,清算の結了等,,,2018-02-02,1,,,,,ジョーコーポレーション,0
652,3011001130096,登記記録の閉鎖等,0,2021-12-10,2021-12-09,株式会社ＭＴＳ,,株式会社,東京都,渋谷区,初台１丁目２８番８号,,13,113,1510061,,,2021-12-09,清算の結了等,,,2019-09-27,1,,,,,エムティエス,0
666,3011803002022,登記記録の閉鎖等,0,2021-12-10,2021-12-09,合同会社ＤＥＳＴＩＮＹ　ＥＦＣ,,合同会社,東京都,足立区,青井２丁目１６番４号,,13,121,1200012,,,2021-12-09,清算の結了等,,,2015-10-05,1,,,,,デスティニーイーエフシー,0
671,3020001004838,登記記録の閉鎖等,0,2021-12-10,2021-12-08,株式会社枝村商会,,株式会社,神奈川県,横浜市泉区,上飯田町４６６８番地１３,,14,116,2450018,,,2021-12-08,清算の結了等,,,2015-10-05,1,,,,,エダムラショウカイ,0
679,3020002013961,登記記録の閉鎖等,0,2021-12-10,2021-12-06,有限会社上和田商事,,有限会社,神奈川県,横浜市青葉区,あざみ野１丁目１６番地６,,14,117,2250011,,,2021-12-06,清算の結了等,,,2015-10-05,1,,,,,カミワダショウジ,0
689,3021002034502,登記記録の閉鎖等,0,2021-12-10,2021-12-06,有限会社安達自動車工業,,有限会社,神奈川県,伊勢原市,石田３１３番地の１,,14,214,2591116,,,2021-12-06,清算の結了等,,,2015-10-05,1,,,,,アダチジドウシャコウギョウ,0
717,3050002032273,登記記録の閉鎖等,0,2021-12-10,2021-12-03,有限会社秋山建設,,有限会社,茨城県,北茨城市,磯原町木皿１２３３番地の２３,,08,215,3191545,,,2021-12-03,清算の結了等,,,2015-10-05,1,,,,,アキヤマケンセツ,0
723,3060002011573,登記記録の閉鎖等,0,2021-12-10,2021-12-07,有限会社いわもとリスクレイダース,,有限会社,栃木県,宇都宮市,横山３丁目２７番２０号,,09,201,3200005,,,2021-12-07,清算の結了等,,,2015-10-05,1,,,,,イワモトリスクレイダース,0
733,3080402014166,登記記録の閉鎖等,0,2021-12-10,2021-12-06,有限会社阿部通信,,有限会社,静岡県,浜松市南区,法枝町７５３番地の１,,22,134,4328053,,,2021-12-06,清算の結了等,,,2015-10-05,1,,,,,アベツウシン,0
743,3110001009539,登記記録の閉鎖等,0,2021-12-10,2021-12-07,株式会社山義工務店,,株式会社,新潟県,新潟市西蒲区,松野尾２５５１番,,15,108,9530015,,,2021-12-07,清算の結了等,,,2015-10-05,1,,,,,ヤマヨシコウムテン,0
745,3110001032227,登記記録の閉鎖等,0,2021-12-10,2021-11-25,Ｈｉｋ　Ｐｏｌｙｍｅｒ　Ｒｅｓｅａｒｃｈ株式会社,,株式会社,石川県,能美市,旭台２丁目５番地１,,17,211,9231211,,,2021-11-25,清算の結了等,,,2017-03-14,1,,,,,ハイポリマーリサーチ,0
762,3120001195493,登記記録の閉鎖等,0,2021-12-10,2021-12-07,株式会社トライト,,株式会社,大阪府,大阪市北区,曾根崎２丁目１２番７号,,27,127,5300057,,,2021-12-07,合併による解散等,2010401143717,令和３年１２月１日東京都港区六本木六丁目１０番１号六本木ヒルズ森タワー３７階株式会社トライト（2010401143717）に合併し解散,2016-01-08,1,,,,,,0
772,3120005018493,登記記録の閉鎖等,0,2021-12-10,2021-12-08,一般社団法人菊月保存会,,その他の設立登記法人,千葉県,匝瑳市,八日市場イ２８９９－２,,12,235,2892144,,,2021-12-08,清算の結了等,,,2016-02-10,1,,,,,キクヅキホゾンカイ,0
788,3130005012082,登記記録の閉鎖等,0,2021-12-10,2021-12-07,ＭＫグループ労働組合連合会京都西ＭＫ労働組合,,その他の設立登記法人,京都府,京都市伏見区,竹田西段川原町９６,,26,109,6128429,,,2021-12-07,清算の結了等,,,2015-10-05,1,,,,,エムケイグループレンゴウカイキョウトニシエムケイロウドウクミアイ,0
822,3190003003128,登記記録の閉鎖等,0,2021-12-10,2021-12-09,合同会社伊能忠敬ｅ史料センター,,合同会社,三重県,名張市,百合が丘西２番町８３番地,,24,208,5180482,,,2021-12-09,清算の結了等,,,2019-05-29,1,,,,,イノウタダタカイーシリョウセンター,0
839,3260002031064,登記記録の閉鎖等,0,2021-12-10,2021-12-06,有限会社居樹工業所,,有限会社,岡山県,和気郡和気町,福富２１９番地,,33,346,7090442,,,2021-12-06,清算の結了等,,,2015-10-05,1,,,,,スエキコウギョウショ,0
841,3270002000860,登記記録の閉鎖等,0,2021-12-10,2021-12-08,有限会社サンパイ,,有限会社,鳥取県,鳥取市,湖山町西１丁目６９２番地,,31,201,6800947,,,2021-12-08,清算の結了等,,,2015-10-05,1,,,,,サンパイ,0
867,3360001017351,登記記録の閉鎖等,0,2021-12-10,2021-12-01,株式会社明新建設,,株式会社,沖縄県,石垣市,字真栄里８５２番地１,,47,207,9070002,,,2021-12-01,清算の結了等,,,2015-10-05,1,,,,,メイシンケンセツ,0
882,3370003000395,登記記録の閉鎖等,0,2021-12-10,2021-12-01,株式会社東北興新商事,,株式会社,宮城県,仙台市青葉区,堤町３丁目２６番１５号,,04,101,9810912,,,2021-12-01,合併による解散等,5370001007969,令和３年１２月１日仙台市宮城野区日の出町一丁目１番３５号株式会社興盛工業所（5370001007969）に合併し解散,2015-10-05,1,,,,,トウホクコウシンショウジ,0
883,3370003001113,登記記録の閉鎖等,0,2021-12-10,2021-12-03,合資会社元気堂,,合資会社,宮城県,仙台市泉区,長命ケ丘４丁目１２番地の５,,04,105,9813212,,,2021-12-03,清算の結了等,,,2015-10-05,1,,,,,ゲンキドウ,0
898,3430001059196,登記記録の閉鎖等,0,2021-12-10,2021-12-08,株式会社プレステージ住宅建築設計事務所,,株式会社,北海道,札幌市清田区,平岡三条３丁目２７－１０－２０２,,01,110,0040873,,,2021-12-08,清算の結了等,,,2015-10-05,1,,,,,プレステージジュウタクケンチクセッケイジムショ,0
912,4010001052795,登記記録の閉鎖等,0,2021-12-10,2021-12-08,株式会社中村総合研究所,,株式会社,東京都,板橋区,常盤台１丁目１１番１７号,,13,119,1740071,,,2021-12-08,清算の結了等,,,2015-10-05,1,,,,,ナカムラソウゴウケンキュウショ,0
928,4010401046950,登記記録の閉鎖等,0,2021-12-10,2021-12-03,株式会社ブル・コーポレーション,,株式会社,東京都,港区,赤坂２丁目１２番１５号,,13,103,1070052,,,2021-12-03,清算の結了等,,,2015-10-05,1,,,,,,0
931,4010401122256,登記記録の閉鎖等,0,2021-12-10,2021-11-29,株式会社ＬＡＷＰ,,株式会社,東京都,目黒区,下目黒２丁目２０－２２－３０５,,13,110,1530064,,,2021-11-29,清算の結了等,,,2015-12-24,1,,,,,ロープ,0
946,4010701002901,登記記録の閉鎖等,0,2021-12-10,2021-12-06,株式会社グロフィス,,株式会社,東京都,品川区,東五反田１丁目４番９号,,13,109,1410022,,,2021-12-06,清算の結了等,,,2015-10-05,1,,,,,グロフィス,0
1005,4020002043289,登記記録の閉鎖等,0,2021-12-10,2021-12-08,有限会社須藤海苔店,,有限会社,神奈川県,横浜市中区,本牧元町１番２０号,,14,104,2310822,,,2021-12-08,清算の結了等,,,2015-10-05,1,,,,,スドウノリテン,0
1054,4110001024504,登記記録の閉鎖等,0,2021-12-10,2021-12-06,株式会社降下機開発,,株式会社,新潟県,長岡市,寺泊竹森２６２番地,,15,202,9590161,,,2021-12-06,清算の結了等,,,2015-10-05,1,,,,,コウカキカイハツ,0
1079,4120003008000,登記記録の閉鎖等,0,2021-12-10,2021-12-06,合同会社新和梱包配送,,合同会社,大阪府,大阪市住吉区,我孫子東３丁目１１番１５号,,27,120,5580013,,,2021-12-06,清算の結了等,,,2015-10-05,1,,,,,シンワコンポウハイソウ,0
1082,4120901023050,登記記録の閉鎖等,0,2021-12-10,2021-12-07,エムジェイプラン株式会社,,株式会社,大阪府,豊中市,少路２丁目３番１７号,,27,203,5600004,,,2021-12-07,清算の結了等,,,2015-10-05,1,,,,,エムジェイプラン,0
1087,4130001046125,登記記録の閉鎖等,0,2021-12-10,2021-12-06,三興テック株式会社,,株式会社,京都府,相楽郡精華町,大字祝園小字中ノ町１４番地の３２,,26,366,6190241,,,2021-12-06,清算の結了等,,,2015-10-05,1,,,,,サンコウテック,0
1095,4140001081947,登記記録の閉鎖等,0,2021-12-10,2021-12-07,ファーメリージャパン株式会社,,株式会社,兵庫県,宝塚市,花屋敷荘園３丁目１２番３２号,,28,214,6650802,,,2021-12-07,清算の結了等,,,2015-10-05,1,,,,,ファーメリージャパン,0
1112,4180001132647,登記記録の閉鎖等,0,2021-12-10,2021-12-06,Ｎｉｃｏスタッフィング株式会社,,株式会社,愛知県,名古屋市中区,栄５丁目２６番３９号ＧＳ栄ビル３Ｆ,,23,106,4600008,,,2021-12-06,清算の結了等,,,2018-06-11,1,,,,,ニコスタッフィング,0
1128,4200005007165,登記記録の閉鎖等,0,2021-12-10,2021-12-08,一般財団法人可児市公共施設振興公社,,その他の設立登記法人,岐阜県,可児市,広見１丁目１番地,,21,214,5090214,,,2021-12-08,清算の結了等,,,2015-10-05,1,,,,,カニシコウキョウシセツシンコウコウシャ,0
1131,4220001022034,登記記録の閉鎖等,0,2021-12-10,2021-12-08,株式会社アシスト設計,,株式会社,石川県,金沢市,湊２丁目１１４番地１６,,17,201,9200211,,,2021-12-08,清算の結了等,,,2017-12-20,1,,,,,アシストセッケイ,0
1139,4250001004970,登記記録の閉鎖等,0,2021-12-10,2021-12-08,株式会社友喜興業,,株式会社,山口県,山口市,徳地上村７８番地２,,35,203,7470523,,,2021-12-08,清算の結了等,,,2015-10-05,1,,,,,ユウキコウギョウ,0
1144,4270002005198,登記記録の閉鎖等,0,2021-12-10,2021-12-06,有限会社アルファセクション,,有限会社,鳥取県,米子市,皆生新田３丁目１１番２０号,,31,202,6830002,,,2021-12-06,清算の結了等,,,2015-10-05,1,,,,,アルファセクション,0
1153,4290002013117,登記記録の閉鎖等,0,2021-12-10,2021-12-06,有限会社丸正商事,,有限会社,福岡県,福岡市中央区,六本松１丁目４－１１－１０１,,40,133,8100044,,,2021-12-06,清算の結了等,,,2015-10-05,1,,,,,マルショウショウジ,0
1155,4290005008741,登記記録の閉鎖等,0,2021-12-10,2021-12-07,筑後地区浄化槽保守点検業協同組合,,その他の設立登記法人,福岡県,八女市,本町２番地６９０,,40,210,8340031,,,2021-12-07,清算の結了等,,,2015-10-05,1,,,,,チクゴチクジョウカソウホシュテンケンギョウ,0
1158,4290801023101,登記記録の閉鎖等,0,2021-12-10,2021-12-07,株式会社リクリエイト,,株式会社,福岡県,北九州市八幡東区,川淵町８－２４,,40,108,8050012,,,2021-12-07,清算の結了等,,,2016-12-09,1,,,,,リクリエイト,0
1161,4290805008214,登記記録の閉鎖等,0,2021-12-10,2021-12-01,ＮＰＯ法人情報教育支援研究会,,その他の設立登記法人,福岡県,北九州市小倉北区,宇佐町１丁目８番１７号,,40,106,8020016,,,2021-12-01,清算の結了等,,,2015-10-05,1,,,,,エヌピーオーホウジンジョウホウキョウイクシエンケンキュウカイ,0
1187,4370302002513,登記記録の閉鎖等,0,2021-12-10,2021-12-03,有限会社やました,,有限会社,宮城県,石巻市,雄勝町下雄勝１丁目７０番地,,04,202,9861335,,,2021-12-03,清算の結了等,,,2015-10-05,1,,,,,ヤマシタ,0
1194,4380003003735,登記記録の閉鎖等,0,2021-12-10,2021-12-06,ケアトップ合同会社,,合同会社,福島県,西白河郡矢吹町,八幡町１０１番地,,07,466,9690222,,,2021-12-06,清算の結了等,,,2016-11-02,1,,,,,ケアトップ,0
1202,4400002003898,登記記録の閉鎖等,0,2021-12-10,2021-12-09,有限会社クオリティマツダ,,有限会社,岩手県,滝沢市,巣子７２３番地９２,,03,216,0200611,,,2021-12-09,清算の結了等,,,2015-10-05,1,,,,,クオリティマツダ,0
1205,4400502000791,登記記録の閉鎖等,0,2021-12-10,2021-12-07,有限会社平泉電器,,有限会社,岩手県,西磐井郡平泉町,平泉字志羅山１３４番地７,,03,402,0294102,,,2021-12-07,清算の結了等,,,2015-10-05,1,,,,,ヒライズミデンキ,0
1214,4470003001960,登記記録の閉鎖等,0,2021-12-10,2021-12-08,Ｌａｎａ合同会社,,合同会社,香川県,木田郡三木町,大字池戸２５４４番地７,,37,341,7610701,,,2021-12-08,清算の結了等,,,2021-05-19,1,,,,,ラナ,0
1240,5010003027555,登記記録の閉鎖等,0,2021-12-10,2021-12-03,合同会社ＭＹＧＫ３号,,合同会社,東京都,千代田区,丸の内３丁目１番１号東京共同会計事務所内,,13,101,1000005,,,2021-12-03,清算の結了等,,,2018-05-21,1,,,,,マイジーケーサンゴウ,0
1265,5010702007824,登記記録の閉鎖等,0,2021-12-10,2021-12-07,有限会社松浦精機製作所,,有限会社,東京都,品川区,西中延２丁目１８番１１号,,13,109,1420054,,,2021-12-07,清算の結了等,,,2015-10-05,1,,,,,マツウラセイキセイサクショ,0
1266,5010801015752,登記記録の閉鎖等,0,2021-12-10,2021-12-03,西山敷商業建築研究所株式会社,,株式会社,東京都,目黒区,大橋１丁目１０番１号１６０６,,13,110,1530044,,,2021-12-03,合併による解散等,2010801018196,令和３年１２月１日東京都世田谷区梅丘一丁目４番１号株式会社商業建築（2010801018196）に合併し解散,2015-10-05,1,,,,,ニシヤマヒロシショウギョウケンチクケンキュウジョ,0
1288,5011401018526,登記記録の閉鎖等,0,2021-12-10,2021-12-08,アルピコ交通東京株式会社,,株式会社,東京都,板橋区,東坂下２丁目１７番７号,,13,119,1740042,,,2021-12-08,合併による解散等,1100001014104,令和３年１２月１日長野県松本市井川城二丁目１番１号アルピコ交通株式会社（1100001014104）に合併し解散,2015-10-05,1,,,,,アルピココウツウトウキョウ,0
1290,5011502011306,登記記録の閉鎖等,0,2021-12-10,2021-12-06,有限会社ミカワヤ平田,,有限会社,東京都,荒川区,荒川７丁目３９番４号,,13,118,1160002,,,2021-12-06,清算の結了等,,,2015-10-05,1,,,,,ミカワヤヒラタ,0
1302,5012402019141,登記記録の閉鎖等,0,2021-12-10,2021-12-06,有限会社タイガードラマスタジオ,,有限会社,東京都,武蔵野市,吉祥寺本町２丁目３１番２４号,,13,203,1800004,,,2021-12-06,清算の結了等,,,2015-10-05,1,,,,,タイガードラマスタジオ,0
1317,5020001137933,登記記録の閉鎖等,0,2021-12-10,2021-12-07,株式会社キーストーン,,株式会社,神奈川県,横浜市緑区,長津田６丁目１番１８ロングフィールド２０５号,,14,113,2260027,,,2021-12-07,清算の結了等,,,2020-10-06,1,,,,,キーストーン,0
1326,5021001060118,登記記録の閉鎖等,0,2021-12-10,2021-12-07,アミーエムティ介護フレンドリーサービス株式会社,,株式会社,神奈川県,相模原市南区,麻溝台８丁目１８番５８号,,14,153,2520328,,,2021-12-07,清算の結了等,,,2016-08-24,1,,,,,アミーエムティカイゴフレンドリーサービス,0
1328,5021003001012,登記記録の閉鎖等,0,2021-12-10,2021-12-07,合同会社山五商店,,合同会社,神奈川県,鎌倉市,小町２丁目７番３５号,,14,204,2480006,,,2021-12-07,清算の結了等,,,2015-10-05,1,,,,,ヤマゴショウテン,0
1331,5030002026069,登記記録の閉鎖等,0,2021-12-10,2021-12-07,有限会社タケオ,,有限会社,埼玉県,蕨市,中央３丁目２１番１２号,,11,223,3350004,,,2021-12-07,清算の結了等,,,2015-10-05,1,,,,,タケオ,0
1345,5050001022546,登記記録の閉鎖等,0,2021-12-10,2021-12-06,株式会社アシスト,,株式会社,茨城県,鹿嶋市,大字平井５９５番地,,08,222,3140012,,,2021-12-06,清算の結了等,,,2015-10-05,1,,,,,アシスト,0
1355,5060001001540,登記記録の閉鎖等,0,2021-12-10,2021-12-06,株式会社ケーケーコーポレーション,,株式会社,栃木県,宇都宮市,陽東５丁目２１番２７号,,09,201,3210904,,,2021-12-06,清算の結了等,,,2015-10-05,1,,,,,ケーケーコーポレーション,0
1356,5060001008255,登記記録の閉鎖等,0,2021-12-10,2021-12-06,南那須精工株式会社,,株式会社,栃木県,那須烏山市,野上７１５番地,,09,215,3210634,,,2021-12-06,清算の結了等,,,2015-10-05,1,,,,,ミナミナスセイコウ,0
1367,5080102001058,登記記録の閉鎖等,0,2021-12-10,2021-12-07,協電工業有限会社,,有限会社,静岡県,沼津市,西沢田４３９番地の６,,22,203,4100007,,,2021-12-07,清算の結了等,,,2015-10-05,1,,,,,キョウデンコウギョウ,0
1371,5080402020204,登記記録の閉鎖等,0,2021-12-10,2021-12-06,寺田精工有限会社,,有限会社,静岡県,磐田市,森本５７７番地の３,,22,211,4380825,,,2021-12-06,清算の結了等,,,2015-10-05,1,,,,,テラダセイコウ,0
1427,5140001079841,登記記録の閉鎖等,0,2021-12-10,2021-12-07,株式会社ケイジーエス,,株式会社,兵庫県,川辺郡猪名川町,白金１丁目１１６番地４,,28,301,6660257,,,2021-12-07,清算の結了等,,,2015-10-05,1,,,,,ケイジーエス,0
1436,5140002029705,登記記録の閉鎖等,0,2021-12-10,2021-12-07,有限会社前田自動車,,有限会社,兵庫県,明石市,魚住町清水１３６番地の９,,28,203,6740074,,,2021-12-07,清算の結了等,,,2015-10-05,1,,,,,マエダジドウシャ,0
1441,5170001010233,登記記録の閉鎖等,0,2021-12-10,2021-12-09,株式会社神田建設,,株式会社,和歌山県,日高郡日高町,大字萩原８９７番地,,30,382,6491202,,,2021-12-09,清算の結了等,,,2015-10-05,1,,,,,カンダケンセツ,0
1444,5180001111914,登記記録の閉鎖等,0,2021-12-10,2021-12-07,株式会社ＮＯＡ,,株式会社,愛知県,名古屋市中区,錦３丁目１３番４号,,23,106,4600003,,,2021-12-07,清算の結了等,,,2015-10-05,1,,,,,ノア,0
1461,5200002010229,登記記録の閉鎖等,0,2021-12-10,2021-12-09,桐山急送有限会社,,有限会社,岐阜県,瑞穂市,牛牧５７４番地１,,21,216,5010234,,,2021-12-09,清算の結了等,,,2015-10-05,1,,,,,,0
1472,5260001005323,登記記録の閉鎖等,0,2021-12-10,2021-12-09,ハウスエステイト株式会社,,株式会社,岡山県,岡山市中区,平井５丁目４番２５号,,33,102,7038282,,,2021-12-09,清算の結了等,,,2015-10-05,1,,,,,ハウスエステイト,0
1473,5280002008158,登記記録の閉鎖等,0,2021-12-10,2021-12-08,有限会社太田保商店,,有限会社,島根県,浜田市,朝日町５２番地１,,32,202,6970033,,,2021-12-08,清算の結了等,,,2015-10-05,1,,,,,オオタタモツショウテン,0
1480,5290002009832,登記記録の閉鎖等,0,2021-12-10,2021-12-06,有限会社エグチ測量,,有限会社,福岡県,福岡市中央区,舞鶴３丁目６番２３号,,40,133,8100073,,,2021-12-06,清算の結了等,,,2015-10-05,1,,,,,エグチソクリョウ,0
1491,5320005007466,登記記録の閉鎖等,0,2021-12-10,2021-12-06,農事組合法人万葉しいたけ,,その他の設立登記法人,大分県,玖珠郡九重町,大字菅原８４１番地,,44,461,8794724,,,2021-12-06,清算の結了等,,,2015-10-05,1,,,,,マンヨウシイタケ,0
1507,5370002002622,登記記録の閉鎖等,0,2021-12-10,2021-12-06,有限会社亀井塗装店,,有限会社,宮城県,仙台市太白区,茂庭字新組４４番地の３,,04,104,9820251,,,2021-12-06,清算の結了等,,,2015-10-05,1,,,,,カメイトソウテン,0
1523,5420005004049,登記記録の閉鎖等,0,2021-12-10,2021-11-19,農事組合法人中村増反組合,,その他の設立登記法人,青森県,西津軽郡鰺ヶ沢町,大字中村町字中山ノ井２４８番地１,,02,321,0382711,,,2021-11-19,清算の結了等,,,2015-10-05,1,,,,,ナカムラゾウタンクミアイ,0
1537,5470001016258,登記記録の閉鎖等,0,2021-12-10,2021-12-06,フォーチュン・コールズ株式会社,,株式会社,香川県,丸亀市,福島町３０番地１,,37,202,7630044,,,2021-12-06,清算の結了等,,,2017-04-24,1,,,,,フォーチュンコールズ,0
1550,6010001185560,登記記録の閉鎖等,0,2021-12-10,2021-12-06,フレセッツ株式会社,,株式会社,東京都,文京区,本郷７丁目３番１号東京大学南研究棟３６０号,,13,105,1130033,,,2021-12-06,清算の結了等,,,2017-08-14,1,,,,,フレセッツ,0
1555,6010003025632,登記記録の閉鎖等,0,2021-12-10,2021-12-06,合同会社ＡＰＡ　ＪＡＰＡＮ,,合同会社,東京都,中央区,佃１丁目８番９号坂ビル５０２,,13,102,1040051,,,2021-12-06,清算の結了等,,,2017-07-10,1,,,,,エーピーエージャパン,0
1599,6011503004332,登記記録の閉鎖等,0,2021-12-10,2021-11-09,合同会社ｂｏａｌ,,合同会社,東京都,世田谷区,若林１丁目３７－１２ターナ三軒茶屋２０１,,13,112,1540023,,,2021-11-09,清算の結了等,,,2020-03-23,1,,,,,ボアール,0
1610,6012402023497,登記記録の閉鎖等,0,2021-12-10,2021-12-08,大興貿易販売有限会社,,有限会社,東京都,武蔵野市,西久保２丁目６番５－３０６号,,13,203,1800013,,,2021-12-08,清算の結了等,,,2015-10-05,1,,,,,ダイコウボウエキハンバイ,0
1613,6013202002897,登記記録の閉鎖等,0,2021-12-10,2021-11-29,有限会社佐藤綜合企画,,有限会社,東京都,目黒区,駒場４丁目６番８号,,13,110,1530041,,,2021-11-29,清算の結了等,,,2015-10-05,1,,,,,サトウソウゴウキカク,0
1616,6013402000016,登記記録の閉鎖等,0,2021-12-10,2021-12-06,有限会社ナツトレーディング,,有限会社,東京都,稲城市,若葉台３丁目１番地の１若葉台ワルツの杜Ｄ棟１０４号室,,13,225,2060824,,,2021-12-06,清算の結了等,,,2015-10-05,1,,,,,ナツトレーディング,0
1630,6021002019351,登記記録の閉鎖等,0,2021-12-10,2021-12-07,有限会社岸製作所,,有限会社,神奈川県,相模原市中央区,淵野辺２丁目２５番２２号,,14,152,2520206,,,2021-12-07,清算の結了等,,,2015-10-05,1,,,,,キシセイサクショ,0
1639,6030002015491,登記記録の閉鎖等,0,2021-12-10,2021-12-08,有限会社グランエスト,,有限会社,埼玉県,さいたま市浦和区,大東１丁目２３番２７号,,11,107,3300043,,,2021-12-08,清算の結了等,,,2015-10-05,1,,,,,グランエスト,0
1644,6030002086723,登記記録の閉鎖等,0,2021-12-10,2021-12-07,有限会社セキ製作所,,有限会社,埼玉県,越谷市,新川町１丁目１１０番地,,11,222,3430852,,,2021-12-07,清算の結了等,,,2015-10-05,1,,,,,セキセイサクジョ,0
1645,6030002092738,登記記録の閉鎖等,0,2021-12-10,2021-12-07,有限会社日商サイサン,,有限会社,埼玉県,坂戸市,緑町１３番８号,,11,239,3500234,,,2021-12-07,清算の結了等,,,2015-10-05,1,,,,,,0
1646,6030002105409,登記記録の閉鎖等,0,2021-12-10,2021-12-07,有限会社友栄工機製作所,,有限会社,埼玉県,川口市,朝日３丁目１３番２９号,,11,203,3320001,,,2021-12-07,清算の結了等,,,2015-10-05,1,,,,,ユウエイコウキセイサクショ,0
1660,6060002015984,登記記録の閉鎖等,0,2021-12-10,2021-12-06,有限会社伊勢屋商店,,有限会社,栃木県,日光市,川治温泉高原４４番地,,09,206,3212612,,,2021-12-06,清算の結了等,,,2015-10-05,1,,,,,イセヤショウテン,0
1661,6060002030595,登記記録の閉鎖等,0,2021-12-10,2021-12-03,有限会社関東鳥居旅行社,,有限会社,栃木県,下野市,大光寺２丁目７番２号,,09,216,3290516,,,2021-12-03,清算の結了等,,,2015-10-05,1,,,,,カントウトリイリョコウシャ,0
1662,6060002039406,登記記録の閉鎖等,0,2021-12-10,2021-12-03,有限会社ビッグイーグル,,有限会社,栃木県,佐野市,馬門町１６４８番地,,09,204,3270824,,,2021-12-03,清算の結了等,,,2015-10-05,1,,,,,ビッグイーグル,0
1663,6060003001182,登記記録の閉鎖等,0,2021-12-10,2021-12-06,合資会社小野機工,,合資会社,栃木県,佐野市,植上町１５３４番地の２,,09,204,3270832,,,2021-12-06,清算の結了等,,,2015-10-05,1,,,,,,0
1673,6100002005584,登記記録の閉鎖等,0,2021-12-10,2021-12-07,有限会社吉田桐山製作所,,有限会社,長野県,長野市,吉田３丁目１５番１５号,,20,201,3810043,,,2021-12-07,清算の結了等,,,2015-10-05,1,,,,,ヨシダキリヤマセイサクジョ,0
1676,6110001008439,登記記録の閉鎖等,0,2021-12-10,2021-12-08,白南運輸建設株式会社,,株式会社,新潟県,新潟市南区,東萱場１９８５番地１,,15,106,9501467,,,2021-12-08,清算の結了等,,,2015-10-05,1,,,,,ハクナンウンユケンセツ,0
1679,6110002019187,登記記録の閉鎖等,0,2021-12-10,2021-12-06,有限会社キタムラ・アカウントサービス,,有限会社,新潟県,燕市,花見１２２４番地２,,15,213,9591280,,,2021-12-06,清算の結了等,,,2015-10-05,1,,,,,キタムラアカウントサービス,0
1714,6140001051808,登記記録の閉鎖等,0,2021-12-10,2021-12-08,株式会社豊製作所,,株式会社,兵庫県,尼崎市,道意町７丁目１９番地の１１,,28,202,6600083,,,2021-12-08,清算の結了等,,,2015-10-05,1,,,,,,0
1735,6180301033361,登記記録の閉鎖等,0,2021-12-10,2021-12-08,株式会社Ｗａｙサポート,,株式会社,愛知県,知立市,谷田町上空池２５番地７,,23,225,4720013,,,2021-12-08,清算の結了等,,,2020-01-29,1,,,,,ウェイサポート,0
1759,6270002002870,登記記録の閉鎖等,0,2021-12-10,2021-12-08,有限会社エルゴン,,有限会社,鳥取県,鳥取市,東今在家１２５番地８,,31,201,6800852,,,2021-12-08,清算の結了等,,,2015-10-05,1,,,,,エルゴン,0
1766,6290003010391,登記記録の閉鎖等,0,2021-12-10,2021-12-06,合同会社コンタクトバリュー,,合同会社,福岡県,福岡市中央区,大名１丁目２番２０―２―Ｂ,,40,133,8100041,,,2021-12-06,清算の結了等,,,2020-09-09,1,,,,,コンタクトバリュー,0
1777,6350002012878,登記記録の閉鎖等,0,2021-12-10,2021-12-08,有限会社ワールド・メディア,,有限会社,宮崎県,延岡市,恒富町２丁目３番地７,,45,203,8820836,,,2021-12-08,清算の結了等,,,2015-10-05,1,,,,,,0
1792,6380005005942,登記記録の閉鎖等,0,2021-12-10,2021-12-03,農事組合法人味噌野施設園芸組合,,その他の設立登記法人,福島県,いわき市,小川町上小川字伊吾内１０番地,,07,204,9793124,,,2021-12-03,清算の結了等,,,2015-10-05,1,,,,,ミソノシセツエンゲイクミアイ,0
1798,6400002004985,登記記録の閉鎖等,0,2021-12-10,2021-12-08,福徳設備有限会社,00085581,有限会社,岩手県,滝沢市,巣子９９０番地４,,03,216,0200611,,,2021-12-08,清算の結了等,,,2015-10-05,1,,,,,フクトクゼツビ,0
1799,6420002002483,登記記録の閉鎖等,0,2021-12-10,2021-12-07,有限会社フジイ薬局,,有限会社,青森県,青森市,奥野３丁目１０番２７号,,02,201,0300841,,,2021-12-07,清算の結了等,,,2015-10-05,1,,,,,フジイヤッキョク,0
1815,7010001175148,登記記録の閉鎖等,0,2021-12-10,2021-12-06,セールスブレーン株式会社,,株式会社,東京都,中央区,銀座１丁目１５番７号ＭＡＣ銀座ビル３階,,13,102,1040061,,,2021-12-06,清算の結了等,,,2016-04-28,1,,,,,セールスブレーン,0
1843,7010702007657,登記記録の閉鎖等,0,2021-12-10,2021-12-07,有限会社マスワーク,,有限会社,東京都,品川区,荏原５丁目１１番７号,,13,109,1420063,,,2021-12-07,清算の結了等,,,2015-10-05,1,,,,,マスワーク,0
1851,7011001096111,登記記録の閉鎖等,0,2021-12-10,2021-11-19,株式会社ＤＥＮＤＥＳＩＧＮ,,株式会社,東京都,渋谷区,桜丘町１５－１４フジビル４０・７階,,13,113,1500031,,,2021-11-19,清算の結了等,,,2015-10-05,1,,,,,デンデザイン,0
1865,7011501016460,登記記録の閉鎖等,0,2021-12-10,2021-12-03,株式会社ＬＡＮＴＥＲＮ　ＲＯＯＭＳ,,株式会社,東京都,練馬区,豊玉北５丁目１４番６号新練馬ビル,,13,120,1760012,,,2021-12-03,合併による解散等,7011601006147,令和３年１２月１日東京都練馬区豊玉北五丁目１４番６号新練馬ビル株式会社ブロッコリー（7011601006147）に合併し解散,2015-10-05,1,,,,,ランタンルームス,0
1867,7011501024216,登記記録の閉鎖等,0,2021-12-10,2021-12-02,株式会社グリット,,株式会社,東京都,北区,赤羽２丁目４９番１号浅沼ビル１０１,,13,117,1150045,,,2021-12-02,清算の結了等,,,2018-11-13,1,,,,,グリット,0
1875,7011801026077,登記記録の閉鎖等,0,2021-12-10,2021-12-06,株式会社Ｒ・Ｓ・Ｅｃｏｎｓｔｒｕｃｔｉｏｎ,,株式会社,東京都,葛飾区,新小岩２丁目２６番７号,,13,122,1240024,,,2021-12-06,清算の結了等,,,2015-10-05,1,,,,,アールエスイーコンストラクション,0
1877,7011802010617,登記記録の閉鎖等,0,2021-12-10,2021-12-09,有限会社枝利商事,,有限会社,東京都,足立区,保木間５丁目１０番３号,,13,121,1210064,,,2021-12-09,清算の結了等,,,2015-10-05,1,,,,,エリショウジ,0
1894,7020002008306,登記記録の閉鎖等,0,2021-12-10,2021-12-07,有限会社芹沢商店,,有限会社,神奈川県,横浜市金沢区,寺前１丁目１８番１７号,,14,108,2360014,,,2021-12-07,清算の結了等,,,2015-10-05,1,,,,,セリザワショウテン,0
1899,7021002030935,登記記録の閉鎖等,0,2021-12-10,2021-12-07,有限会社エイ・ワイ企画,,有限会社,神奈川県,厚木市,旭町２丁目１１番１６号,,14,212,2430014,,,2021-12-07,清算の結了等,,,2015-10-05,1,,,,,エイワイキカク,0
1906,7030001004494,登記記録の閉鎖等,0,2021-12-10,2021-12-08,株式会社スズキ,,株式会社,埼玉県,さいたま市大宮区,桜木町２丁目４番地２６,,11,103,3300854,,,2021-12-08,清算の結了等,,,2015-10-05,1,,,,,スズキ,0
1913,7030001129837,登記記録の閉鎖等,0,2021-12-10,2021-12-03,安久トレード株式会社,,株式会社,東京都,豊島区,巣鴨１丁目１４－１２東洋巣鴨コーポ１０２,,13,116,1700002,,,2021-12-03,清算の結了等,,,2019-03-08,1,,,,,アンキュウトレード,0
1915,7030002077903,登記記録の閉鎖等,0,2021-12-10,2021-12-07,有限会社クイック,,有限会社,埼玉県,川越市,田町３番地９,,11,201,3501113,,,2021-12-07,清算の結了等,,,2015-10-05,1,,,,,クイック,0
1933,7040002005672,登記記録の閉鎖等,0,2021-12-10,2021-12-06,有限会社上州屋飯島正夫商店,,有限会社,千葉県,千葉市中央区,汐見丘町１３番１２号,,12,101,2600034,,,2021-12-06,清算の結了等,,,2015-10-05,1,,,,,ジョウシュウヤイイジママサオショウテン,0
1942,7050001047509,登記記録の閉鎖等,0,2021-12-10,2021-12-03,Ｓ．Ｅ．Ｐ．株式会社,,株式会社,茨城県,つくば市,竹園１丁目５番地３エスペリアつくば竹園４０６号,,08,220,3050032,,,2021-12-03,清算の結了等,,,2020-05-14,1,,,,,エスイーピー,0
1954,7080101021740,登記記録の閉鎖等,0,2021-12-10,2021-12-07,アリスドッグサポート株式会社,,株式会社,静岡県,駿東郡長泉町,本宿２４９番地の３５,,22,342,4110945,,,2021-12-07,清算の結了等,,,2020-04-07,1,,,,,アリスドッグサポート,0
1995,7140005004760,登記記録の閉鎖等,0,2021-12-10,2021-12-07,特定非営利活動法人三栄絆の会,,その他の設立登記法人,兵庫県,神戸市東灘区,本庄町２丁目８番１３号,,28,101,6580012,,,2021-12-07,清算の結了等,,,2015-10-05,1,,,,,サンエイキズナノカイ,0
2012,7190001024064,登記記録の閉鎖等,0,2021-12-10,2021-12-07,株式会社スカイワーカー,,株式会社,三重県,南牟婁郡御浜町,大字阿田和３４２２番地２０,,24,561,5195204,,,2021-12-07,清算の結了等,,,2016-10-14,1,,,,,スカイワーカー,0
2019,7220001006703,登記記録の閉鎖等,0,2021-12-10,2021-12-06,株式会社マルカ食器,,株式会社,石川県,金沢市,古府西１丁目１０番地,,17,201,9200000,,,2021-12-06,清算の結了等,,,2015-10-05,1,,,,,マルカショッキ,0
2034,7240002046606,登記記録の閉鎖等,0,2021-12-10,2021-12-08,有限会社荒川紙店,,有限会社,広島県,府中市,元町４８３番地,,34,208,7260003,,,2021-12-08,清算の結了等,,,2015-10-05,1,,,,,アラカワカミテン,0
2048,7290001045942,登記記録の閉鎖等,0,2021-12-10,2021-12-08,株式会社ファイン,,株式会社,福岡県,飯塚市,新立岩４番４号,,40,205,8200004,,,2021-12-08,合併による解散等,5290801000074,令和３年１２月１日北九州市小倉北区堺町一丁目９番１０号６Ｆ株式会社アースコーポレーション（5290801000074）に合併し解散,2015-10-05,1,,,,,ファイン,0
2054,7290002009087,登記記録の閉鎖等,0,2021-12-10,2021-12-06,有限会社森河調剤薬局,,有限会社,福岡県,福岡市早良区,室見１丁目５番９号,,40,137,8140015,,,2021-12-06,清算の結了等,,,2015-10-05,1,,,,,モリカワチョウザイヤッキョク,0
2056,7290002026438,登記記録の閉鎖等,0,2021-12-10,2021-12-03,有限会社福岡石油供給センター,,有限会社,福岡県,福岡市中央区,荒津１丁目１番７号,,40,133,8100076,,,2021-12-03,清算の結了等,,,2015-10-05,1,,,,,フクオカセキユキョウキュウセンター,0
2063,7300002009382,登記記録の閉鎖等,0,2021-12-10,2021-12-07,有限会社一ノ瀬プラスチック,,有限会社,佐賀県,三養基郡みやき町,大字白壁３９５８番地,,41,346,8490111,,,2021-12-07,清算の結了等,,,2015-10-05,1,,,,,イチノセプラスチック,0
2067,7330002029130,登記記録の閉鎖等,0,2021-12-10,2021-12-07,有限会社丸信卸センター,,有限会社,熊本県,天草市,南新町４番地の８,,43,215,8630031,,,2021-12-07,清算の結了等,,,2015-10-05,1,,,,,マルシンオロシセンター,0
2081,7380002033482,登記記録の閉鎖等,0,2021-12-10,2021-12-06,レンタリース新日本有限会社,,有限会社,福島県,会津若松市,神指町大字中四合字村添１番３,,07,202,9650065,,,2021-12-06,合併による解散等,3380001030757,令和３年１１月１日福島県大沼郡会津美里町米田字沢北乙１５０５番地株式会社ｉＳ　ｐｌａｎｎｉｎｇ（3380001030757）に合併し解散,2015-10-05,1,,,,,,0
2085,7410003003324,登記記録の閉鎖等,0,2021-12-10,2021-12-06,合同会社Ｈ２,,合同会社,秋田県,秋田市,八橋本町５丁目８－３１　２階,,05,201,0100973,,,2021-12-06,清算の結了等,,,2019-12-26,1,,,,,エイチツー,0
2086,7430001017464,登記記録の閉鎖等,0,2021-12-10,2021-12-06,山鐵北都工業株式会社,,株式会社,北海道,札幌市白石区,川下２１６５番地,,01,104,0030869,,,2021-12-06,清算の結了等,,,2015-10-05,1,,,,,ヤマテツホクトコウギョウ,0
2087,7430001076683,登記記録の閉鎖等,0,2021-12-10,2021-12-09,株式会社北海道きのこ生産総合研究所,,株式会社,北海道,札幌市手稲区,新発寒七条２丁目５番１２号,,01,109,0060807,,,2021-12-09,清算の結了等,,,2018-05-30,1,,,,,ホッカイドウキノコセイサンソウゴウケンキュウジョ,0
2106,8010001113461,登記記録の閉鎖等,0,2021-12-10,2021-12-07,株式会社増岡組リノベーション,,株式会社,東京都,千代田区,鍛冶町１丁目５番７号,,13,101,1010044,,,2021-12-07,合併による解散等,6240001018193,令和３年１２月１日広島市中区鶴見町４番２５号株式会社増岡マテリアルズ＆リノベーション（6240001018193）に合併し解散,2015-10-05,1,,,,,マスオカグミリノベーション,0
2113,8010001189717,登記記録の閉鎖等,0,2021-12-10,2021-12-03,Ｍａｌｏｎｇ　Ｔｅｃｈｎｏｌｏｇｉｅｓ　Ｊａｐａｎ株式会社,,株式会社,東京都,千代田区,大手町２丁目１番１号大手町野村ビル１６階ＡＸＥＳＳ内,,13,101,1000004,,,2021-12-03,清算の結了等,,,2018-02-19,1,,,,,マロンテクノロジーズジャパン,0
2119,8010005011117,登記記録の閉鎖等,0,2021-12-10,2021-12-07,久米税理士法人,,その他の設立登記法人,東京都,千代田区,内神田３丁目２１番６号,,13,101,1010047,,,2021-12-07,清算の結了等,,,2015-10-05,1,,,,,クメ,0
2120,8010401004021,登記記録の閉鎖等,0,2021-12-10,2021-12-02,株式会社衛星ネットワーク,,株式会社,東京都,港区,赤坂１丁目１２番３２号,,13,103,1070052,,,2021-12-02,合併による解散等,7010401072259,令和３年１２月１日東京都港区赤坂一丁目８番１号スカパーＪＳＡＴ株式会社（7010401072259）に合併し解散,2015-10-05,1,,,,,エイセイネットワーク,0
2126,8010403010208,登記記録の閉鎖等,0,2021-12-10,2021-12-01,ニウヴァレーキャピタル合同会社,,合同会社,東京都,港区,赤坂１丁目１４番５－Ｓ４０２号,,13,103,1070052,,,2021-12-01,合併による解散等,3010601023593,令和３年１２月１日東京都港区赤坂一丁目１４番５－Ｓ４０２号株式会社ラムーン（3010601023593）に合併し解散,2015-10-05,1,,,,,ニウヴァレーキャピタル,0
2130,8010602024735,登記記録の閉鎖等,0,2021-12-10,2021-12-08,有限会社ペリーニ,,有限会社,東京都,江東区,新大橋２丁目８番８号,,13,108,1350007,,,2021-12-08,合併による解散等,9380001012782,令和３年１２月１日福島県いわき市川前町川前字中ノ萱１１９番地株式会社クロステージ（9380001012782）に合併し解散,2015-10-05,1,,,,,ペリーニ,0
2137,8011105006023,登記記録の閉鎖等,0,2021-12-10,2021-12-07,一般社団法人都市再開発推進協議会,,その他の設立登記法人,東京都,新宿区,西新宿６丁目５番１号,,13,104,1600023,,,2021-12-07,清算の結了等,,,2015-10-05,1,,,,,トシサイカイハツスイシンキョウギカイ,0
2151,8012801003313,登記記録の閉鎖等,0,2021-12-10,2021-12-07,株式会社キムラ,,株式会社,東京都,東大和市,南街１丁目３７番地の３８,,13,220,2070014,,,2021-12-07,清算の結了等,,,2015-10-05,1,,,,,,0
2157,8020001029104,登記記録の閉鎖等,0,2021-12-10,2021-11-22,瑞穂交易株式会社,,株式会社,神奈川県,横浜市中区,新山下３丁目１５新山下ベイシティ１－６０３,,14,104,2310801,,,2021-11-22,清算の結了等,,,2015-10-05,1,,,,,,0
2161,8020001064159,登記記録の閉鎖等,0,2021-12-10,2021-12-08,齋藤スレート株式会社,,株式会社,神奈川県,川崎市多摩区,枡形２丁目２３番４号,,14,135,2140032,,,2021-12-08,清算の結了等,,,2015-10-05,1,,,,,サイトウスレート,0
2175,8021001007578,登記記録の閉鎖等,0,2021-12-10,2021-12-06,株式会社ヒット,,株式会社,静岡県,御殿場市,東田中８５６番地の１８,,22,215,4120026,,,2021-12-06,清算の結了等,,,2015-10-05,1,,,,,ヒット,0
2179,8021002034497,登記記録の閉鎖等,0,2021-12-10,2021-12-07,有限会社かしわ商事,,有限会社,神奈川県,伊勢原市,小稲葉５７８番地,,14,214,2591122,,,2021-12-07,清算の結了等,,,2015-10-05,1,,,,,,0
2185,8030001019806,登記記録の閉鎖等,0,2021-12-10,2021-12-08,株式会社Ｙｕｉライフサポート,,株式会社,埼玉県,さいたま市見沼区,大字蓮沼９８１番地１２,,11,104,3370015,,,2021-12-08,清算の結了等,,,2015-10-05,1,,,,,ユイライフサポート,0
2190,8030001110085,登記記録の閉鎖等,0,2021-12-10,2021-12-09,株式会社パセット,,株式会社,埼玉県,さいたま市北区,宮原町２丁目３３番地８,,11,102,3310812,,,2021-12-09,清算の結了等,,,2015-10-05,1,,,,,パセット,0
2191,8030002062144,登記記録の閉鎖等,0,2021-12-10,2021-12-08,有限会社ビック電飾,,有限会社,埼玉県,新座市,中野１丁目４番１９号,,11,230,3520005,,,2021-12-08,清算の結了等,,,2015-10-05,1,,,,,ビックデンショク,0
2201,8040002051583,登記記録の閉鎖等,0,2021-12-10,2021-12-07,有限会社サンスイ精密,,有限会社,千葉県,流山市,駒木台２８番地の１,,12,220,2700113,,,2021-12-07,清算の結了等,,,2015-10-05,1,,,,,サンスイセイミツ,0
2208,8050001032567,登記記録の閉鎖等,0,2021-12-10,2021-12-03,太成工業株式会社,,株式会社,茨城県,結城市,大字小田林２５９１番地の４０,,08,207,3070007,,,2021-12-03,清算の結了等,,,2015-10-05,1,,,,,タイセイコウギョウ,0
2212,8050003005769,登記記録の閉鎖等,0,2021-12-10,2021-12-03,合同会社サカイリ企画,,合同会社,茨城県,つくば市,上郷１４００番地２,,08,220,3002645,,,2021-12-03,清算の結了等,,,2021-04-09,1,,,,,サカイリキカク,0
2216,8060002030932,登記記録の閉鎖等,0,2021-12-10,2021-12-03,有限会社パティオ,,有限会社,栃木県,下野市,笹原６４番地３,,09,216,3290402,,,2021-12-03,清算の結了等,,,2015-10-05,1,,,,,パティオ,0
2231,8100005011768,登記記録の閉鎖等,0,2021-12-10,2021-12-09,ＰＳ流通協同組合,,その他の設立登記法人,長野県,佐久市,北川５２５番地８,,20,217,3840304,,,2021-12-09,清算の結了等,,,2015-12-28,1,,,,,ピーエスリュウツウ,0
2246,8120101007800,登記記録の閉鎖等,0,2021-12-10,2021-12-06,株式会社和合,,株式会社,大阪府,堺市堺区,市之町西３丁２番１４号,,27,141,5900951,,,2021-12-06,清算の結了等,,,2015-10-05,1,,,,,ワゴウ,0
2251,8120901033822,登記記録の閉鎖等,0,2021-12-10,2021-12-08,株式会社ＭＯＣ,,株式会社,大阪府,茨木市,中穂積１丁目６番４１号,,27,211,5670034,,,2021-12-08,清算の結了等,,,2015-10-05,1,,,,,,0
2268,8140001104217,登記記録の閉鎖等,0,2021-12-10,2021-12-07,シロン株式会社,,株式会社,神奈川県,平塚市,明石町２５番１１－９０７号サンヴェール湘南平塚,,14,203,2540042,,,2021-12-07,清算の結了等,,,2016-12-01,1,,,,,シロン,0
2279,8160001019792,登記記録の閉鎖等,0,2021-12-10,2021-12-03,梅丘珈琲株式会社,,株式会社,東京都,渋谷区,鉢山町３番１８号３０３,,13,113,1500035,,,2021-12-03,合併による解散等,2010801018196,令和３年１２月１日東京都世田谷区梅丘一丁目４番１号株式会社商業建築（2010801018196）に合併し解散,2016-10-17,1,,,,,ウメガオカコーヒー,0
2282,8180001052882,登記記録の閉鎖等,0,2021-12-10,2021-12-07,Ｋ’Ｓマシナリー株式会社,,株式会社,愛知県,名古屋市千種区,春岡１丁目３番４号,,23,101,4640848,,,2021-12-07,清算の結了等,,,2015-10-05,1,,,,,ケイズマシナリー,0
2284,8180001095519,登記記録の閉鎖等,0,2021-12-10,2021-12-07,株式会社ヤマテック,,株式会社,愛知県,東海市,名和町後酉２２番地の２,,23,222,4760002,,,2021-12-07,清算の結了等,,,2015-10-05,1,,,,,ヤマテック,0
2298,8180303003187,登記記録の閉鎖等,0,2021-12-10,2021-12-08,合同会社ＤＡＩＫＯＫＵ,,合同会社,愛知県,豊田市,大林町１６丁目１６番地５エコルデパリス７０３,,23,211,4730902,,,2021-12-08,清算の結了等,,,2015-10-05,1,,,,,ダイコク,0
2306,8220001022022,登記記録の閉鎖等,0,2021-12-10,2021-12-07,株式会社西棲,,株式会社,石川県,河北郡津幡町,字太田ほ１７７番地３５,,17,361,9290345,,,2021-12-07,清算の結了等,,,2017-12-15,1,,,,,サイセイ,0
2310,8230005007398,登記記録の閉鎖等,0,2021-12-10,2021-12-03,射水薬品協同組合,,その他の設立登記法人,富山県,射水市,三ケ３９７８番地の２,,16,211,9390341,,,2021-12-03,清算の結了等,,,2015-10-05,1,,,,,イミズヤクヒン,0
2317,8270001002812,登記記録の閉鎖等,0,2021-12-10,2021-12-02,株式会社環境リサイクル美建,,株式会社,鳥取県,鳥取市,下味野４２２番地１,,31,201,6801165,,,2021-12-02,清算の結了等,,,2015-10-05,1,,,,,カンキョウリサイクルビケン,0
2322,8290001023336,登記記録の閉鎖等,0,2021-12-10,2021-11-30,株式会社タカチ,,株式会社,福岡県,福岡市早良区,重留４丁目２番４８号,,40,137,8111101,,,2021-11-30,清算の結了等,,,2015-10-05,1,,,,,タカチ,0
2338,8330005003610,登記記録の閉鎖等,0,2021-12-10,2021-12-07,ＮＰＯ法人熊本にプロバスケットボールチームをみんなで創ろう会,,その他の設立登記法人,熊本県,熊本市東区,健軍本町８番１９号,,43,102,8620910,,,2021-12-07,清算の結了等,,,2015-10-05,1,,,,,クマモトニプロバスケットボールチームヲミンナデツクロウカイ,0
2351,8370002020563,登記記録の閉鎖等,0,2021-12-10,2021-12-06,有限会社ケーズプランニング,,有限会社,宮城県,富谷市,日吉台２丁目１９番地２２,,04,216,9813362,,,2021-12-06,清算の結了等,,,2015-10-05,1,,,,,ケーズプランニング,0
2362,8420001010122,登記記録の閉鎖等,0,2021-12-10,2021-12-01,第一産業株式会社,,株式会社,青森県,南津軽郡田舎館村,大字川部字中西田９５番地１,,02,367,0381141,,,2021-12-01,清算の結了等,,,2015-10-05,1,,,,,ダイイチサンギョウ,0
2363,8420002007605,登記記録の閉鎖等,0,2021-12-10,2021-12-07,有限会社エイブル,,有限会社,青森県,八戸市,是川５丁目２番６号,,02,203,0310023,,,2021-12-07,清算の結了等,,,2015-10-05,1,,,,,エイブル,0
2364,8430001005773,登記記録の閉鎖等,0,2021-12-10,2021-12-07,株式会社幸田,,株式会社,北海道,札幌市中央区,北四条東４丁目５番地６６,,01,101,0600034,,,2021-12-07,清算の結了等,,,2015-10-05,1,,,,,コウダ,0
2386,9010001191127,登記記録の閉鎖等,0,2021-12-10,2021-12-08,株式会社ＣＯＮＴＩＮＥＮＴ,,株式会社,東京都,足立区,西新井栄町１丁目１８番１－１１２２号,,13,121,1230843,,,2021-12-08,清算の結了等,,,2018-04-18,1,,,,,コンチネント,0
2398,9010401132250,登記記録の閉鎖等,0,2021-12-10,2021-12-07,株式会社ＮＴ．ワールドプランニング,,株式会社,東京都,千代田区,一番町１０－８一番町ウェストビル５階,,13,101,1020082,,,2021-12-07,清算の結了等,,,2017-06-27,1,,,,,エヌティワールドプランニング,0
2417,9011001010540,登記記録の閉鎖等,0,2021-12-10,2021-12-09,ジニアス株式会社,,株式会社,東京都,渋谷区,千駄ヶ谷２丁目１０番６号,,13,113,1510051,,,2021-12-09,清算の結了等,,,2015-10-05,1,,,,,ジニアス,0
2419,9011001048845,登記記録の閉鎖等,0,2021-12-10,2021-11-30,株式会社ケイ・シー・クリエイト,,株式会社,東京都,渋谷区,円山町１４番３号日興パレスビル４０３,,13,113,1500044,,,2021-11-30,清算の結了等,,,2015-10-05,1,,,,,ケイシークリエイト,0
2435,9011202004028,登記記録の閉鎖等,0,2021-12-10,2021-12-02,有限会社天盛,,有限会社,東京都,中野区,野方３丁目４番１１号,,13,114,1650027,,,2021-12-02,清算の結了等,,,2015-10-05,1,,,,,テンモリ,0
2472,9030001051295,登記記録の閉鎖等,0,2021-12-10,2021-12-07,株式会社東友住宅,,株式会社,埼玉県,春日部市,粕壁１丁目５番地５,,11,214,3440061,,,2021-12-07,清算の結了等,,,2015-10-05,1,,,,,トウユウジュウタク,0
2489,9050002011932,登記記録の閉鎖等,0,2021-12-10,2021-12-03,有限会社つくば知的所有権センター,,有限会社,茨城県,土浦市,湖北１丁目６番１号,,08,203,3000032,,,2021-12-03,清算の結了等,,,2015-10-05,1,,,,,ツクバチテキショユウケンセンター,0
2491,9060002039361,登記記録の閉鎖等,0,2021-12-10,2021-12-06,有限会社半田商店,,有限会社,栃木県,佐野市,若松町３５６番地,,09,204,3270846,,,2021-12-06,清算の結了等,,,2015-10-05,1,,,,,ハンダショウテン,0
2493,9080102009147,登記記録の閉鎖等,0,2021-12-10,2021-12-07,有限会社ボギーホームサービス,,有限会社,静岡県,伊豆の国市,寺家７３５番地の８,,22,225,4102122,,,2021-12-07,清算の結了等,,,2015-10-05,1,,,,,ボギーホームサービス,0
2505,9120001034563,登記記録の閉鎖等,0,2021-12-10,2021-12-08,株式会社岡本興産,,株式会社,奈良県,奈良市,鳥見町３丁目２５番地の２,,29,201,6310065,,,2021-12-08,清算の結了等,,,2015-10-05,1,,,,,オカモトコウサン,0
2533,9130001013343,登記記録の閉鎖等,0,2021-12-10,2021-12-06,株式会社ますクラフト,,株式会社,京都府,京都市山科区,大宅棧敷１番地,,26,110,6070000,,,2021-12-06,清算の結了等,,,2015-10-05,1,,,,,マスクラフト,0
2563,9180302020042,登記記録の閉鎖等,0,2021-12-10,2021-12-08,有限会社真清,,有限会社,愛知県,碧南市,源氏町４丁目８番地,,23,209,4470886,,,2021-12-08,清算の結了等,,,2015-10-05,1,,,,,シンセイ,0
2571,9200002006850,登記記録の閉鎖等,0,2021-12-10,2021-12-08,株式会社ゼウス,,株式会社,岐阜県,岐阜市,則武中２丁目３２番１６号,,21,201,5020932,,,2021-12-08,清算の結了等,,,2015-10-05,1,,,,,ゼウス,0
2574,9220001005331,登記記録の閉鎖等,0,2021-12-10,2021-12-06,株式会社橋本ミートコントラクター,,株式会社,石川県,金沢市,才田町戊３３７番地,,17,201,9203101,,,2021-12-06,清算の結了等,,,2015-10-05,1,,,,,ハシモトミートコントラクター,0
2594,9280002006950,登記記録の閉鎖等,0,2021-12-10,2021-12-08,有限会社エアル,,有限会社,島根県,出雲市,上塩冶町２６２０番地３,,32,203,6930022,,,2021-12-08,清算の結了等,,,2015-10-05,1,,,,,エアル,0
2597,9290001034596,登記記録の閉鎖等,0,2021-12-10,2021-12-03,鵬翔株式会社,,株式会社,福岡県,糟屋郡志免町,桜丘１丁目４番９号,,40,343,8112201,,,2021-12-03,清算の結了等,,,2015-10-05,1,,,,,,0
2613,9320002003885,登記記録の閉鎖等,0,2021-12-10,2021-12-08,有限会社総合インテリアオガタ,,有限会社,大分県,大分市,大津町１丁目２３番２４号,,44,201,8700907,,,2021-12-08,清算の結了等,,,2015-10-05,1,,,,,ソウゴウインテリアオガタ,0
2625,9360005004464,登記記録の閉鎖等,0,2021-12-10,2021-12-06,医療法人せいゆう会,,その他の設立登記法人,沖縄県,うるま市,字塩屋４０２番地１,,47,213,9042231,,,2021-12-06,清算の結了等,,,2015-10-05,1,,,,,セイユウカイ,0
2634,9380002008474,登記記録の閉鎖等,0,2021-12-10,2021-12-06,有限会社落合酒店,,有限会社,福島県,郡山市,桃見台５番１号,,07,203,9638018,,,2021-12-06,清算の結了等,,,2015-10-05,1,,,,,,0
