sequenceNumber,corporateNumber,process,correct,updateDate,changeDate,name,nameImageId,kind,prefectureName,cityName,streetNumber,addressImageId,prefectureCode,cityCode,postCode,addressOutside,addressOutsideImageId,closeDate,closeCause,successorCorporateNumber,changeCause,assignmentDate,latest,enName,enPrefectureName,enCityName,enAddressOutside,furigana,hihyoji
5,1010003042533,登記記録の閉鎖等,0,2024-11-07,2024-10-31,合同会社ブライトネスアンドオンリー,,合同会社,東京都,中央区,銀座７丁目１３番６号サガミビル２階０１号室,,13,102,1040061,,,2024-10-31,清算の結了等,,,2023-12-26,1,,,,,ブライトネスアンドオンリー,0
24,1010102001877,登記記録の閉鎖等,0,2024-11-07,2024-11-05,有限会社菅野鈑金工業所,,有限会社,東京都,八王子市,絹ケ丘２丁目３６番８号,,13,201,1920912,,,2024-11-05,清算の結了等,,,2015-10-05,1,,,,,カンノバンキンコウギョウショ,0
25,1010401145276,登記記録の閉鎖等,0,2024-11-07,2024-10-30,極東デジタル株式会社,,株式会社,東京都,品川区,西五反田２丁目１１番１５－６０３室,,13,109,1410031,,,2024-10-30,清算の結了等,,,2019-05-09,1,,,,,キョクトウデジタル,0
40,1010805002890,登記記録の閉鎖等,0,2024-11-07,2024-10-22,一般財団法人こんどＢ,,その他の設立登記法人,東京都,大田区,萩中２丁目１番１５号,,13,111,1440047,,,2024-10-22,清算の結了等,,,2021-10-15,1,,,,,コンドビー,0
51,1010902008824,登記記録の閉鎖等,0,2024-11-07,2024-10-08,有限会社都事務所,,有限会社,東京都,目黒区,目黒本町１丁目１３番９号－００７,,13,110,1520002,,,2024-10-08,清算の結了等,,,2015-10-05,1,,,,,ミヤコジムショ,0
73,1011801001548,登記記録の閉鎖等,0,2024-11-07,2024-10-31,後藤運輸株式会社,,株式会社,東京都,葛飾区,四つ木２丁目６番２７号,,13,122,1240011,,,2024-10-31,清算の結了等,,,2015-10-05,1,,,,,ゴトウウンユ,0
85,1020002037830,登記記録の閉鎖等,0,2024-11-07,2024-10-22,有限会社久保弘栄堂薬局,,有限会社,神奈川県,横浜市鶴見区,市場上町１番５号,,14,101,2300021,,,2024-10-22,清算の結了等,,,2024-10-16,1,,,,,クボコウエイドウヤッキョク,0
91,1021003010157,登記記録の閉鎖等,0,2024-11-07,2024-11-05,合同会社ＳＱＵＡＲＥＳ,,合同会社,神奈川県,鎌倉市,大町２丁目１４番２７号,,14,204,2480007,,,2024-11-05,清算の結了等,,,2021-02-18,1,,,,,スクエアズ,0
122,1080105006363,登記記録の閉鎖等,0,2024-11-07,2024-11-01,一般社団法人ふじ山リンク,,その他の設立登記法人,静岡県,富士宮市,万野原新田３３２７番地の１,,22,207,4180001,,,2024-11-01,清算の結了等,,,2023-09-19,1,,,,,フジヤマリンク,0
131,1120001010803,登記記録の閉鎖等,0,2024-11-07,2024-11-01,株式会社日向屋,,株式会社,大阪府,大阪市東住吉区,今林１丁目２番６８号大阪市中央卸売市場東部市場内,,27,121,5460001,,,2024-11-01,清算の結了等,,,2015-10-05,1,,,,,ヒュウガヤ,0
139,1120005018280,登記記録の閉鎖等,0,2024-11-07,2024-11-05,一般社団法人銀行交渉研究会,,その他の設立登記法人,大阪府,大阪市西区,西本町１丁目５番７号,,27,106,5500005,,,2024-11-05,清算の結了等,,,2015-11-19,1,,,,,ギンコウコウショウケンキュウカイ,0
140,1120101063255,登記記録の閉鎖等,0,2024-11-07,2024-11-05,関西ＷＡ株式会社,,株式会社,大阪府,岸和田市,大沢町８０２番地の３,,27,202,5960114,,,2024-11-05,清算の結了等,,,2021-03-19,1,,,,,カンサイダブリュエー,0
152,1140001011700,登記記録の閉鎖等,0,2024-11-07,2024-11-01,和商株式会社,,株式会社,兵庫県,神戸市須磨区,高倉台１丁目６番４６号,,28,107,6540081,,,2024-11-01,清算の結了等,,,2015-10-05,1,,,,,ワショウ,0
167,1160005007528,登記記録の閉鎖等,0,2024-11-07,2024-10-01,海津漁業協同組合,,その他の設立登記法人,滋賀県,高島市,マキノ町西浜４２番地,,25,212,5201812,,,2024-10-01,合併による解散等,7160005011350,令和６年１０月１日堅田漁業協同組合（2160005000399）、大津漁業協同組合（5160005000396）、湖南漁業協同組合（9160005000401）、瀬田町漁業協同組合（5160005000405）、山田漁業協同組合（8160005008429）、志那漁業協同組合（9160005008428）、玉津小津漁業協同組合（7160005008867）、中主漁業協同組合（6160005008868）、近江八幡漁業協同組合（6160005006830）、彦根市松原漁業協同組合（7160005004858）、広野漁業協同組合（5160005004868）、長浜漁業協同組合（5160005003250）、南浜漁業協同組合（4160005003251）、浜分漁業協同組合（6160005007531）、三和漁業協同組合（1160005007536）と合併して滋賀びわ湖漁業協同組合（7160005011350）を設立し解散,2015-10-05,1,,,,,カイヅ,0
169,1160005007536,登記記録の閉鎖等,0,2024-11-07,2024-10-01,三和漁業協同組合,,その他の設立登記法人,滋賀県,高島市,安曇川町四津川７５２番地１地先,,25,212,5201234,,,2024-10-01,合併による解散等,7160005011350,令和６年１０月１日堅田漁業協同組合（2160005000399）、大津漁業協同組合（5160005000396）、湖南漁業協同組合（9160005000401）、瀬田町漁業協同組合（5160005000405）、山田漁業協同組合（8160005008429）、志那漁業協同組合（9160005008428）、玉津小津漁業協同組合（7160005008867）、中主漁業協同組合（6160005008868）、近江八幡漁業協同組合（6160005006830）、彦根市松原漁業協同組合（7160005004858）、広野漁業協同組合（5160005004868）、長浜漁業協同組合（5160005003250）、南浜漁業協同組合（4160005003251）、海津漁業協同組合（1160005007528）、浜分漁業協同組合（6160005007531）と合併して滋賀びわ湖漁業協同組合（7160005011350）を設立し解散,2015-10-05,1,,,,,サンワ,0
173,1180001089840,登記記録の閉鎖等,0,2024-11-07,2024-10-28,株式会社ショウエイ,,株式会社,愛知県,名古屋市名東区,猪子石原２丁目６０９番地,,23,115,4650008,,,2024-10-28,清算の結了等,,,2015-10-05,1,,,,,ショウエイ,0
174,1180001106232,登記記録の閉鎖等,0,2024-11-07,2024-10-24,株式会社クランテ,,株式会社,愛知県,海部郡大治町,大字東條字砂島４番地,,23,424,4901134,,,2024-10-24,清算の結了等,,,2015-10-05,1,,,,,クランテ,0
176,1180001137450,登記記録の閉鎖等,0,2024-11-07,2024-10-31,花菱株式会社,,株式会社,愛知県,大府市,梶田町６丁目１７９番地,,23,223,4740071,,,2024-10-31,清算の結了等,,,2019-07-19,1,,,,,ハナビシ,0
181,1180002061930,登記記録の閉鎖等,0,2024-11-07,2024-10-31,有限会社ティ・ワイ・ティ化工,,有限会社,愛知県,愛知郡東郷町,北山台４丁目１０番地の１４スペクトル東郷北山台２１０,,23,302,4700152,,,2024-10-31,清算の結了等,,,2015-10-05,1,,,,,ティワイティカコウ,0
202,1240001035680,登記記録の閉鎖等,0,2024-11-07,2024-10-31,株式会社Ｈａｉｒ＆Ｆａｃｅ　ｍｅｒｃｉ,,株式会社,広島県,福山市,元町６番７号,,34,207,7200063,,,2024-10-31,清算の結了等,,,2015-10-05,1,,,,,ヘアーアンドフェイスメルシイ,0
208,1250002004915,登記記録の閉鎖等,0,2024-11-07,2024-11-01,有限会社システム・グローバル,,有限会社,山口県,宇部市,寿町２丁目１０番８号,,35,202,7550032,,,2024-11-01,清算の結了等,,,2015-10-05,1,,,,,システムグローバル,0
232,1320003002423,登記記録の閉鎖等,0,2024-11-07,2024-11-06,０１２８ｍｙ合同会社,,合同会社,大分県,由布市,挾間町内成３９０３番地３,,44,213,8795517,,,2024-11-06,清算の結了等,,,2016-06-03,1,,,,,ゼロイチニハチマイ,0
240,1360001017477,登記記録の閉鎖等,0,2024-11-07,2024-10-29,株式会社沖縄エコ産業,,株式会社,沖縄県,那覇市,曙２丁目１０番９号,,47,201,9000002,,,2024-10-29,清算の結了等,,,2015-10-05,1,,,,,オキナワエコサンギョウ,0
243,1360003008441,登記記録の閉鎖等,0,2024-11-07,2024-11-05,合同会社エコラトップサービス,,合同会社,沖縄県,那覇市,与儀２丁目１８番８号,,47,201,9020076,,,2024-11-05,清算の結了等,,,2017-09-26,1,,,,,エコラトップサービス,0
253,1410001003851,登記記録の閉鎖等,0,2024-11-07,2024-10-31,秋田総合保険サービス株式会社,,株式会社,秋田県,秋田市,山王６丁目９番２５号,,05,201,0100951,,,2024-10-31,清算の結了等,,,2015-10-05,1,,,,,アキタソウゴウホケンサービス,0
254,1410001003876,登記記録の閉鎖等,0,2024-11-07,2024-11-01,株式会社高橋建設,,株式会社,秋田県,秋田市,太平中関字川原９８番地１３,,05,201,0101103,,,2024-11-01,清算の結了等,,,2015-10-05,1,,,,,,0
255,1420001013635,登記記録の閉鎖等,0,2024-11-07,2024-11-01,株式会社アップルエステート,,株式会社,沖縄県,石垣市,字野底６９８番地１,,47,207,9070333,,,2024-11-01,合併による解散等,8420002010435,令和６年１１月１日沖縄県石垣市字野底６９８番地１株式会社ＩＳＳ（8420002010435）に合併し解散,2015-10-05,1,,,,,アップルエステート,0
275,2010001212938,登記記録の閉鎖等,0,2024-11-07,2024-10-16,ＨＹ　Ｃａｐｉｔａｌ株式会社,,株式会社,東京都,渋谷区,恵比寿１丁目７番４号ハイライフ恵比寿３１０,,13,113,1500013,,,2024-10-16,清算の結了等,,,2020-10-14,1,,,,,エイチワイキャピタル,0
280,2010003040412,登記記録の閉鎖等,0,2024-11-07,2024-10-23,合同会社静岡御殿場太陽光発電１号,,合同会社,東京都,千代田区,大手町１丁目１番１号大手町パークビルディング７階,,13,101,1000004,,,2024-10-23,清算の結了等,,,2023-04-24,1,,,,,シズオカゴテンバタイヨウコウハツデンイチゴウ,0
310,2010402033636,登記記録の閉鎖等,0,2024-11-07,2024-10-18,トーレンスコーポレーション有限会社,,有限会社,東京都,港区,新橋２丁目１６番１号,,13,103,1050004,,,2024-10-18,清算の結了等,,,2015-10-05,1,,,,,,0
311,2010403025632,登記記録の閉鎖等,0,2024-11-07,2024-10-21,ＣＯＮＳＴＥＬＬＡＲ　ＪＡＰＡＮ合同会社,,合同会社,東京都,港区,赤坂２丁目１４番５号Ｄａｉｗａ赤坂ビル４階,,13,103,1070052,,,2024-10-21,清算の結了等,,,2021-07-01,1,,,,,コンステラージャパン,0
325,2010901045925,登記記録の閉鎖等,0,2024-11-07,2024-10-30,株式会社ＳＨＥＹＥＳ,,株式会社,東京都,世田谷区,砧６丁目３６番６号ＦＬＡＰビル３Ｆ,,13,112,1570073,,,2024-10-30,清算の結了等,,,2020-03-23,1,,,,,シェイズ,0
327,2011001009003,登記記録の閉鎖等,0,2024-11-07,2024-10-09,株式会社佐倉商事,,株式会社,東京都,渋谷区,桜丘町６番６号シティベース桜丘３０５,,13,113,1500031,,,2024-10-09,清算の結了等,,,2015-10-05,1,,,,,サクラショウジ,0
349,2011602006456,登記記録の閉鎖等,0,2024-11-07,2024-10-29,有限会社辰己屋米店,,有限会社,東京都,練馬区,練馬１丁目７番４号,,13,120,1760001,,,2024-10-29,清算の結了等,,,2015-10-05,1,,,,,タツミヤコメテン,0
356,2012701009977,登記記録の閉鎖等,0,2024-11-07,2024-10-25,株式会社日本奇術連盟,00058353,株式会社,東京都,西東京市,住吉町１丁目４番１５号,,13,229,2020005,,,2024-10-25,清算の結了等,,,2015-10-05,1,,,,,ニホンキジュツレンメイ,0
358,2013201013206,登記記録の閉鎖等,0,2024-11-07,2024-10-25,株式会社都市建築設計機構,,株式会社,東京都,目黒区,目黒１丁目３番３１号パビオン目黒２０１,,13,110,1530063,,,2024-10-25,清算の結了等,,,2015-10-05,1,,,,,トシケンチクセッケイキコウ,0
373,2021001044882,登記記録の閉鎖等,0,2024-11-07,2024-11-01,株式会社ミューズ,,株式会社,神奈川県,大和市,下鶴間３２８番地１,,14,213,2420001,,,2024-11-01,合併による解散等,4021001025336,令和６年１１月１日神奈川県大和市桜森二丁目２６番１３号株式会社システム企画（4021001025336）に合併し解散,2015-10-05,1,,,,,ミューズ,0
383,2030001138801,登記記録の閉鎖等,0,2024-11-07,2024-10-31,株式会社ＴＴＳ,,株式会社,埼玉県,熊谷市,末広４丁目８番１７号,,11,202,3600031,,,2024-10-31,清算の結了等,,,2020-10-19,1,,,,,ティーティーエス,0
398,2050002030583,登記記録の閉鎖等,0,2024-11-07,2024-10-28,有限会社佐藤紙器店,,有限会社,茨城県,日立市,多賀町１丁目１１番１４号,,08,202,3160003,,,2024-10-28,清算の結了等,,,2015-10-05,1,,,,,サトウシキテン,0
399,2060001031524,登記記録の閉鎖等,0,2024-11-07,2024-10-09,株式会社Ｇｌｏｂａｌ　Ｏｐｐｏｒｔｕｎｉｔｙ,,株式会社,東京都,渋谷区,渋谷１丁目７－５,,13,113,1500002,,,2024-10-09,清算の結了等,,,2019-04-24,1,,,,,グローバルオポチュニティ,0
412,2100005001469,登記記録の閉鎖等,0,2024-11-07,2024-11-05,東北信間知ブロック事業協同組合,,その他の設立登記法人,長野県,上高井郡小布施町,大字雁田１２６２番地１,,20,541,3810211,,,2024-11-05,清算の結了等,,,2015-10-05,1,,,,,トウホクシンケンチブロック,0
443,2120102020642,登記記録の閉鎖等,0,2024-11-07,2024-11-05,有限会社３－ＡＣＥ－ＳＹＳＴＥＭ,,有限会社,大阪府,藤井寺市,藤井寺２丁目６番１２号,,27,226,5830024,,,2024-11-05,清算の結了等,,,2015-10-05,1,,,,,,0
454,2140001087954,登記記録の閉鎖等,0,2024-11-07,2024-11-01,株式会社双立,,株式会社,兵庫県,川辺郡猪名川町,つつじが丘５丁目３５番地１８,,28,301,6660245,,,2024-11-01,清算の結了等,,,2015-10-05,1,,,,,ソウリツ,0
468,2160005000399,登記記録の閉鎖等,0,2024-11-07,2024-10-01,堅田漁業協同組合,,その他の設立登記法人,滋賀県,大津市,本堅田２丁目１３番１３号,,25,201,5200242,,,2024-10-01,合併による解散等,7160005011350,令和６年１０月１日大津漁業協同組合（5160005000396）、湖南漁業協同組合（9160005000401）、瀬田町漁業協同組合（5160005000405）、山田漁業協同組合（8160005008429）、志那漁業協同組合（9160005008428）、玉津小津漁業協同組合（7160005008867）、中主漁業協同組合（6160005008868）、近江八幡漁業協同組合（6160005006830）、彦根市松原漁業協同組合（7160005004858）、広野漁業協同組合（5160005004868）、長浜漁業協同組合（5160005003250）、南浜漁業協同組合（4160005003251）、海津漁業協同組合（1160005007528）、浜分漁業協同組合（6160005007531）、三和漁業協同組合（1160005007536）と合併して滋賀びわ湖漁業協同組合（7160005011350）を設立し解散,2015-10-05,1,,,,,カタタ,0
473,2180001093767,登記記録の閉鎖等,0,2024-11-07,2024-10-21,株式会社メイナン,,株式会社,愛知県,大府市,横根町狐山１１７番地の９,,23,223,4740011,,,2024-10-21,清算の結了等,,,2015-10-05,1,,,,,メイナン,0
482,2180002044240,登記記録の閉鎖等,0,2024-11-07,2024-10-28,有限会社プロトン,,有限会社,愛知県,名古屋市中川区,三ツ屋町１丁目４７番地,,23,110,4540831,,,2024-10-28,清算の結了等,,,2015-10-05,1,,,,,プロトン,0
483,2180002061335,登記記録の閉鎖等,0,2024-11-07,2024-10-28,有限会社Ｋ・トラスト,,有限会社,愛知県,名古屋市熱田区,旗屋２丁目２６番１４号,,23,109,4560027,,,2024-10-28,清算の結了等,,,2015-10-05,1,,,,,ケイトラスト,0
485,2180003023565,登記記録の閉鎖等,0,2024-11-07,2024-10-28,モンスプレッド合同会社,,合同会社,愛知県,瀬戸市,新郷町２５番地の１２,,23,204,4890873,,,2024-10-28,清算の結了等,,,2022-03-04,1,,,,,モンスプレッド,0
493,2180302009125,登記記録の閉鎖等,0,2024-11-07,2024-11-01,有限会社野田屋米穀店,,有限会社,愛知県,豊橋市,東雲町９３番地,,23,201,4400051,,,2024-11-01,清算の結了等,,,2015-10-05,1,,,,,ノダヤベイコクテン,0
499,2190005003812,登記記録の閉鎖等,0,2024-11-07,2024-09-27,天理教須賀利分教会,,その他の設立登記法人,三重県,尾鷲市,須賀利町２９７番地の１７,,24,209,5193421,,,2024-09-27,合併による解散等,5190005003859,令和６年９月２７日三重県北牟婁郡紀北町相賀６６番地天理教相賀分教会（5190005003859）に合併し解散,2015-10-05,1,,,,,テンリキョウスガリブンキョウカイ,0
545,2360003002476,登記記録の閉鎖等,0,2024-11-07,2024-11-01,合資会社与那原ゴルフセンター,,合資会社,沖縄県,島尻郡与那原町,字板良敷１０３０番地,,47,348,9011301,,,2024-11-01,合併による解散等,8360001009393,令和６年１１月１日沖縄県浦添市内間五丁目１０番１５号株式会社クリードゴルフマネジメント（8360001009393）に合併し解散,2015-10-05,1,,,,,ヨナバルゴルフセンター,0
549,2380001024529,登記記録の閉鎖等,0,2024-11-07,2024-10-23,アルク保険代理店株式会社,,株式会社,福島県,会津若松市,高野町上沼１９番地,,07,202,9650073,,,2024-10-23,清算の結了等,,,2015-10-05,1,,,,,アルクホケンダイリテン,0
551,2390001017416,登記記録の閉鎖等,0,2024-11-07,2024-11-01,株式会社自然満喫屋,,株式会社,山形県,山形市,江俣４丁目１８番４３号,,06,201,9900861,,,2024-11-01,合併による解散等,7390001017287,令和６年１１月１日山形市江俣四丁目１８番４３号株式会社白飛（7390001017287）に合併し解散,2023-11-06,1,,,,,シゼンマンキツヤ,0
555,2400001013173,登記記録の閉鎖等,0,2024-11-07,2024-10-28,株式会社新みらい,,株式会社,岩手県,花巻市,石鳥谷町新堀第４９地割５０番地４,,03,205,0283111,,,2024-10-28,清算の結了等,,,2016-05-12,1,,,,,シンミライ,0
556,2400001013999,登記記録の閉鎖等,0,2024-11-07,2024-11-01,株式会社ＪＡライフサポート,,株式会社,岩手県,岩手郡雫石町,町裏７５番地１,,03,301,0200554,,,2024-11-01,合併による解散等,2400001009642,令和６年１１月１日岩手県滝沢市鵜飼向新田７番地７５株式会社ＪＡライフセレモ（2400001009642）に合併し解散,2018-01-12,1,,,,,ジェイエイライフサポート,0
565,2430001011538,登記記録の閉鎖等,0,2024-11-07,2024-11-01,東邦工業株式会社,,株式会社,北海道,札幌市東区,東苗穂三条１丁目１２番１８号,,01,103,0070803,,,2024-11-01,合併による解散等,6430001007656,令和６年１１月１日札幌市東区東苗穂三条一丁目１２番１８号株式会社柴田ベニヤ商会（6430001007656）に合併し解散,2015-10-05,1,,,,,トウホウコウギョウ,0
570,2470002003687,登記記録の閉鎖等,0,2024-11-07,2024-10-31,有限会社じゃんけんぽん,,有限会社,香川県,高松市,中野町２７番２８号,,37,201,7600008,,,2024-10-31,清算の結了等,,,2015-10-05,1,,,,,ジャンケンポン,0
571,2480002003835,登記記録の閉鎖等,0,2024-11-07,2024-11-05,フェニックス海運有限会社,,有限会社,徳島県,徳島市,八万町下福万１２０番地の７,,36,201,7708074,,,2024-11-05,清算の結了等,,,2015-10-05,1,,,,,フェニックスカイウン,0
582,3010003040411,登記記録の閉鎖等,0,2024-11-07,2024-10-23,合同会社静岡御殿場太陽光発電２号,,合同会社,東京都,千代田区,大手町１丁目１番１号大手町パークビルディング７階,,13,101,1000004,,,2024-10-23,清算の結了等,,,2023-04-24,1,,,,,シズオカゴテンバタイヨウコウハツデンニゴウ,0
609,3010401010627,登記記録の閉鎖等,0,2024-11-07,2024-10-31,株式会社ＩＡＳ,,株式会社,東京都,千代田区,丸の内３丁目４番１号新国際ビル８２２号,,13,101,1000005,,,2024-10-31,合併による解散等,2010401151133,令和６年９月２０日東京都港区麻布台一丁目１１番１０－８０４号日総第２２ビルグローネットジャパン株式会社（2010401151133）に合併し解散,2015-10-05,1,,,,,,0
624,3010703004145,登記記録の閉鎖等,0,2024-11-07,2024-10-30,合同会社ティーライブ,,合同会社,東京都,品川区,北品川１丁目９番７号トップルーム品川１０１５号,,13,109,1400001,,,2024-10-30,清算の結了等,,,2018-03-09,1,,,,,ティーライブ,0
639,3011001012856,登記記録の閉鎖等,0,2024-11-07,2024-10-25,株式会社ソコロウ,,株式会社,東京都,渋谷区,神宮前６丁目３２番７号,,13,113,1500001,,,2024-10-25,清算の結了等,,,2024-05-31,1,,,,,,0
641,3011001103622,登記記録の閉鎖等,0,2024-11-07,2024-10-25,株式会社ｕｎｓｍ,,株式会社,東京都,渋谷区,上原２丁目４３番７号モリグチハイツ３０１,,13,113,1510064,,,2024-10-25,清算の結了等,,,2015-10-05,1,,,,,ウンズム,0
675,3021001024000,登記記録の閉鎖等,0,2024-11-07,2024-11-01,株式会社陣,,株式会社,神奈川県,愛甲郡愛川町,中津７５６－３－２Ｆ,,14,401,2430303,,,2024-11-01,合併による解散等,8021001020845,令和６年１１月１日神奈川県愛甲郡愛川町中津７５６－３－２Ｆ株式会社藤光（8021001020845）に合併し解散,2015-10-05,1,,,,,ジン,0
677,3021002068351,登記記録の閉鎖等,0,2024-11-07,2024-11-05,有限会社茶楽,,有限会社,神奈川県,逗子市,逗子６丁目２番６号,,14,208,2490006,,,2024-11-05,清算の結了等,,,2015-10-05,1,,,,,サラク,0
678,3030001019769,登記記録の閉鎖等,0,2024-11-07,2024-11-01,サイエンス・パートナーズ株式会社,,株式会社,埼玉県,さいたま市中央区,鈴谷７丁目１０番２３号,,11,105,3380013,,,2024-11-01,清算の結了等,,,2015-10-05,1,,,,,サイエンスパートナーズ,0
684,3030002063469,登記記録の閉鎖等,0,2024-11-07,2024-10-25,滑川物産有限会社,,有限会社,東京都,清瀬市,松山１丁目２番２３号,,13,221,2040022,,,2024-10-25,清算の結了等,,,2015-10-05,1,,,,,ナメリカワブッサン,0
689,3040001080183,登記記録の閉鎖等,0,2024-11-07,2024-11-01,株式会社エル,,株式会社,千葉県,鴨川市,貝渚２４３１番地６,,12,223,2960004,,,2024-11-01,清算の結了等,,,2015-10-05,1,,,,,エル,0
725,3110002024272,登記記録の閉鎖等,0,2024-11-07,2024-10-31,有限会社大栄商事,,有限会社,新潟県,上越市,南本町２丁目８番４５号,,15,222,9430841,,,2024-10-31,清算の結了等,,,2015-10-05,1,,,,,ダイエイショウジ,0
740,3120102026647,登記記録の閉鎖等,0,2024-11-07,2024-11-05,有限会社Ａ・Ｒ・Ｔ,,有限会社,大阪府,和泉市,内田町２丁目１２番１９号,,27,219,5941156,,,2024-11-05,清算の結了等,,,2015-10-05,1,,,,,,0
742,3120901031054,登記記録の閉鎖等,0,2024-11-07,2024-11-05,株式会社ネプレル,,株式会社,大阪府,豊中市,上野坂１丁目１６番２４号,,27,203,5600012,,,2024-11-05,清算の結了等,,,2015-10-05,1,,,,,ネプレル,0
749,3122001030028,登記記録の閉鎖等,0,2024-11-07,2024-11-05,株式会社古川興業,,株式会社,大阪府,東大阪市,末広町１６番２号,,27,227,5798055,,,2024-11-05,清算の結了等,,,2016-10-18,1,,,,,フルカワコウギョウ,0
775,3160001007901,登記記録の閉鎖等,0,2024-11-07,2024-11-05,株式会社しがナビ,,株式会社,滋賀県,長浜市,谷口町１０番地,,25,203,5260271,,,2024-11-05,清算の結了等,,,2015-10-05,1,,,,,シガナビ,0
776,3160002002174,登記記録の閉鎖等,0,2024-11-07,2024-10-30,有限会社和邇自動車整備工場,,有限会社,滋賀県,大津市,小野平野３１８番地の３,,25,201,5200525,,,2024-10-30,清算の結了等,,,2024-07-23,1,,,,,ワニジドウシャセイビコウジョウ,0
779,3180001004954,登記記録の閉鎖等,0,2024-11-07,2024-10-25,株式会社ナガラ,,株式会社,愛知県,名古屋市千種区,猫洞通２丁目７番地,,23,101,4640032,,,2024-10-25,清算の結了等,,,2015-10-05,1,,,,,ナガラ,0
781,3180001037054,登記記録の閉鎖等,0,2024-11-07,2024-10-28,シンヨー興業株式会社,,株式会社,愛知県,名古屋市中区,錦１丁目２０番８号,,23,106,4600003,,,2024-10-28,清算の結了等,,,2015-10-05,1,,,,,シンヨーコウギョウ,0
783,3180001105075,登記記録の閉鎖等,0,2024-11-07,2024-10-28,株式会社コウキ,,株式会社,愛知県,名古屋市中川区,打出１丁目１３５番地,,23,110,4540926,,,2024-10-28,清算の結了等,,,2015-10-05,1,,,,,コウキ,0
794,3180002078337,登記記録の閉鎖等,0,2024-11-07,2024-10-25,有限会社廣川工業,00073435,有限会社,愛知県,一宮市,起字東茜屋９４番地の６,,23,203,4940006,,,2024-10-25,清算の結了等,,,2015-10-05,1,,,,,ヒロカワコウギョウ,0
803,3190003004745,登記記録の閉鎖等,0,2024-11-07,2024-11-05,ＢＩＧＢＯＭＭＡＲＫＥＴ合同会社,,合同会社,三重県,伊賀市,印代３３３番地,,24,216,5180008,,,2024-11-05,清算の結了等,,,2024-07-18,1,,,,,ビッグボンマーケット,0
806,3200005012199,登記記録の閉鎖等,0,2024-11-07,2024-11-05,ＴＯＭ協同組合,,その他の設立登記法人,岐阜県,海津市,海津町高須町城跡１１９０番地８,,21,221,5030653,,,2024-11-05,清算の結了等,,,2015-10-05,1,,,,,トム,0
852,3370302002332,登記記録の閉鎖等,0,2024-11-07,2024-10-28,有限会社ミハル,,有限会社,宮城県,石巻市,蛇田字新下前沼１１９番地の２３,,04,202,9860861,,,2024-10-28,清算の結了等,,,2015-10-05,1,,,,,ミハル,0
853,3370402000269,登記記録の閉鎖等,0,2024-11-07,2024-10-25,有限会社勝又興業,,有限会社,宮城県,登米市,豊里町久寿田７６番地,,04,212,9870351,,,2024-10-25,清算の結了等,,,2015-10-05,1,,,,,カツマタコウギョウ,0
855,3370602000498,登記記録の閉鎖等,0,2024-11-07,2024-10-22,有限会社菊富商店,,有限会社,宮城県,塩竈市,本町２番１３号,,04,203,9850052,,,2024-10-22,清算の結了等,,,2015-10-05,1,,,,,ククトミショウテン,0
867,3420002012213,登記記録の閉鎖等,0,2024-11-07,2024-11-01,有限会社信紀,,有限会社,青森県,五所川原市,字敷島町４９番地７,,02,205,0370067,,,2024-11-01,清算の結了等,,,2015-10-05,1,,,,,シンキ,0
868,3430002047209,登記記録の閉鎖等,0,2024-11-07,2024-11-01,有限会社青山園芸,,有限会社,北海道,恵庭市,島松本町３丁目１４番１４号,,01,231,0611353,,,2024-11-01,清算の結了等,,,2015-10-05,1,,,,,アオヤマエンゲイ,0
880,3480001007753,登記記録の閉鎖等,0,2024-11-07,2024-11-05,株式会社四国防災,,株式会社,徳島県,小松島市,横須町９番２８号,,36,203,7730006,,,2024-11-05,清算の結了等,,,2015-10-05,1,,,,,シコクボウサイ,0
894,4010003040410,登記記録の閉鎖等,0,2024-11-07,2024-10-23,合同会社静岡御殿場太陽光発電３号,,合同会社,東京都,千代田区,大手町１丁目１番１号大手町パークビルディング７階,,13,101,1000004,,,2024-10-23,清算の結了等,,,2023-04-24,1,,,,,シズオカゴテンバタイヨウコウハツデンサンゴウ,0
895,4010005025582,登記記録の閉鎖等,0,2024-11-07,2024-10-31,一般社団法人アセットファイナンス南船場,,その他の設立登記法人,東京都,中央区,京橋１丁目１１番１号,,13,102,1040031,,,2024-10-31,清算の結了等,,,2016-07-21,1,,,,,アセットファイナンスミナミセンバ,0
914,4010401058319,登記記録の閉鎖等,0,2024-11-07,2024-11-01,株式会社イムコア,,株式会社,東京都,港区,東新橋２丁目４番６号,,13,103,1050021,,,2024-11-01,合併による解散等,2010401023712,令和６年１１月１日東京都港区三田一丁目３番３０号アイ・エル・ジャパン株式会社（2010401023712）に合併し解散,2015-10-05,1,,,,,イムコア,0
936,4010902007071,登記記録の閉鎖等,0,2024-11-07,2024-10-30,ライブウェル株式会社,,株式会社,東京都,世田谷区,砧６丁目９－３ハーモニーハイツ４０４号室,,13,112,1570073,,,2024-10-30,清算の結了等,,,2015-10-05,1,,,,,ライブウェル,0
946,4011001153906,登記記録の閉鎖等,0,2024-11-07,2024-10-09,株式会社側,,株式会社,東京都,渋谷区,宇田川町１９番５号,,13,113,1500042,,,2024-10-09,清算の結了等,,,2023-04-19,1,,,,,ガワ,0
951,4011101096922,登記記録の閉鎖等,0,2024-11-07,2024-11-06,株式会社Ｅｌｍｏ,,株式会社,東京都,多摩市,鶴牧１丁目１３番１号ｂｌａｎｃａｃｃｕｅｉｌ３０３,,13,224,2060034,,,2024-11-06,清算の結了等,,,2021-11-17,1,,,,,エルモ,0
962,4011701004565,登記記録の閉鎖等,0,2024-11-07,2024-10-30,高橋鉄工株式会社,,株式会社,東京都,江戸川区,平井４丁目１８番１１号,,13,123,1320035,,,2024-10-30,清算の結了等,,,2015-10-05,1,,,,,タカハシテッコウ,0
964,4011802026772,登記記録の閉鎖等,0,2024-11-07,2024-10-30,有限会社シルクロード,,有限会社,東京都,足立区,千住４丁目２２番２号,,13,121,1200034,,,2024-10-30,清算の結了等,,,2015-10-05,1,,,,,シルクロード,0
995,4030002008745,登記記録の閉鎖等,0,2024-11-07,2024-11-05,有限会社高橋薬局,,有限会社,埼玉県,さいたま市見沼区,大字東宮下２０２０番地,,11,104,3370012,,,2024-11-05,合併による解散等,9080002013736,令和６年１１月１日静岡県島田市４５３５番地の２株式会社高橋調剤薬局（9080002013736）に合併し解散,2015-10-05,1,,,,,タカハシヤッキョク,0
1028,4120001143030,登記記録の閉鎖等,0,2024-11-07,2024-11-05,ＰＦＩ京大桂物理系研究棟株式会社,,株式会社,大阪府,大阪市中央区,北浜３丁目５番２９号,,27,128,5410041,,,2024-11-05,清算の結了等,,,2015-10-05,1,,,,,ピーエフアイキョウダイカツラブツリケイケンキュウトウ,0
1042,4120005000467,登記記録の閉鎖等,0,2024-11-07,2024-09-30,天理教本博分教会,,その他の設立登記法人,大阪府,大阪市東住吉区,山坂１丁目１１番１６号,,27,121,5460035,,,2024-09-30,合併による解散等,4010605000448,令和６年９月２４日東京都墨田区本所一丁目１３番１７号天理教東本大教会（4010605000448）に合併し解散,2015-10-05,1,,,,,,0
1046,4120901023447,登記記録の閉鎖等,0,2024-11-07,2024-10-31,株式会社木田農薬店,,株式会社,大阪府,豊中市,本町１丁目６番２３号,,27,203,5600021,,,2024-10-31,合併による解散等,6120902018130,令和６年１０月３１日大阪府豊中市本町一丁目６番２３号株式会社木田興産（6120902018130）に合併し解散,2015-10-05,1,,,,,キダノウヤクテン,0
1068,4160005003251,登記記録の閉鎖等,0,2024-11-07,2024-10-01,南浜漁業協同組合,,その他の設立登記法人,滋賀県,長浜市,南浜町９０４番地,,25,203,5260113,,,2024-10-01,合併による解散等,7160005011350,令和６年１０月１日堅田漁業協同組合（2160005000399）、大津漁業協同組合（5160005000396）、湖南漁業協同組合（9160005000401）、瀬田町漁業協同組合（5160005000405）、山田漁業協同組合（8160005008429）、志那漁業協同組合（9160005008428）、玉津小津漁業協同組合（7160005008867）、中主漁業協同組合（6160005008868）、近江八幡漁業協同組合（6160005006830）、彦根市松原漁業協同組合（7160005004858）、広野漁業協同組合（5160005004868）、長浜漁業協同組合（5160005003250）、海津漁業協同組合（1160005007528）、浜分漁業協同組合（6160005007531）、三和漁業協同組合（1160005007536）と合併して滋賀びわ湖漁業協同組合（7160005011350）を設立し解散,2015-10-05,1,,,,,ミナミハマ,0
1095,4240002052755,登記記録の閉鎖等,0,2024-11-07,2024-10-09,有限会社長谷川百貨店,,有限会社,広島県,世羅郡世羅町,大字伊尾１９４８番地の１,,34,462,7293307,,,2024-10-09,清算の結了等,,,2015-10-05,1,,,,,ハセガワヒャッカテン,0
1098,4250002018292,登記記録の閉鎖等,0,2024-11-07,2024-10-31,有限会社ディースペース,,有限会社,山口県,岩国市,室の木町３丁目１番４８号,,35,208,7400021,,,2024-10-31,清算の結了等,,,2015-10-05,1,,,,,ディースペース,0
1114,4320005001379,登記記録の閉鎖等,0,2024-11-07,2024-11-05,大分工業団地協同組合連合会,,その他の設立登記法人,大分県,大分市,大字下郡３１３６番地の６,,44,201,8700951,,,2024-11-05,清算の結了等,,,2015-10-05,1,,,,,オオイタコウギョウダンチキョウドウクミアイレンゴウカイ,0
1128,4360001029817,登記記録の閉鎖等,0,2024-11-07,2024-11-01,株式会社Ｓ企画,,株式会社,沖縄県,石垣市,字野底６９８番地１,,47,207,9070333,,,2024-11-01,合併による解散等,8420002010435,令和６年１１月１日沖縄県石垣市字野底６９８番地１株式会社ＩＳＳ（8420002010435）に合併し解散,2021-12-28,1,,,,,エスキカク,0
1134,4370002012572,登記記録の閉鎖等,0,2024-11-07,2024-10-29,株式会社東映イー・ヴィ・エス,,株式会社,宮城県,仙台市泉区,加茂４丁目３２番地の７,,04,105,9813122,,,2024-10-29,清算の結了等,,,2015-10-05,1,,,,,トウエイイーヴィエス,0
1155,4470005002668,登記記録の閉鎖等,0,2024-11-07,2024-09-30,天理教綾歌分教会,,その他の設立登記法人,香川県,丸亀市,川西町北６６５番地,,37,202,7630091,,,2024-09-30,合併による解散等,8500005005795,令和６年９月１９日愛媛県四国中央市川之江町１０８０番地天理教川之江大教会（8500005005795）に合併し解散,2015-10-05,1,,,,,,0
1156,4480001009591,登記記録の閉鎖等,0,2024-11-07,2024-11-05,アンビック株式会社,,株式会社,大阪府,大阪市北区,梅田１丁目１番３号大阪駅前第３ビル２９階１－１－１号室,,27,127,5300001,,,2024-11-05,清算の結了等,,,2016-04-01,1,,,,,アンビック,0
1160,5010001023721,登記記録の閉鎖等,0,2024-11-07,2024-10-23,株式会社デンソホールディングス,,株式会社,東京都,千代田区,外神田２丁目３番６号,,13,101,1010021,,,2024-10-23,清算の結了等,,,2015-10-05,1,,,,,デンソホールディングス,0
1167,5010003041853,登記記録の閉鎖等,0,2024-11-07,2024-10-23,合同会社クリーンエナジー太陽光発電,,合同会社,東京都,千代田区,大手町１丁目１番１号大手町パークビルディング７階,,13,101,1000004,,,2024-10-23,清算の結了等,,,2023-10-11,1,,,,,クリーンエナジータイヨウコウハツデン,0
1203,5010403025506,登記記録の閉鎖等,0,2024-11-07,2024-10-21,東京商事合同会社,,合同会社,東京都,港区,南青山２丁目２番１５号ウィン青山内,,13,103,1070062,,,2024-10-21,清算の結了等,,,2021-06-15,1,,,,,トウキョウショウジ,0
1209,5010701007775,登記記録の閉鎖等,0,2024-11-07,2024-09-09,日本デーツエンタープライズ株式会社,,株式会社,東京都,港区,芝５丁目１３番１８号いちご三田ビル９階,,13,103,1080014,,,2024-09-09,合併による解散等,1010001065387,令和６年９月１日東京都港区芝五丁目十三番十八号いちご三田ビル九階ディテックス商会株式会社（1010001065387）に合併し解散,2015-10-05,1,,,,,ニホンデーツエンタープライズ,0
1221,5011002011772,登記記録の閉鎖等,0,2024-11-07,2024-10-09,有限会社マッチボックス,,有限会社,東京都,渋谷区,富ヶ谷１丁目４４番１６号,,13,113,1510063,,,2024-10-09,清算の結了等,,,2015-10-05,1,,,,,マッチボックス,0
1245,5012701013183,登記記録の閉鎖等,0,2024-11-07,2024-10-24,株式会社ＣＲＥＡＴＩＶＥ　ＴＥＫＯ,,株式会社,東京都,西東京市,向台町２丁目３番３２号,,13,229,1880013,,,2024-10-24,清算の結了等,,,2015-10-05,1,,,,,クリエイティブテコ,0
1257,5020002028355,登記記録の閉鎖等,0,2024-11-07,2024-10-22,有限会社村山工業,,有限会社,神奈川県,横浜市神奈川区,松見町２丁目６２０番地の６,,14,102,2210005,,,2024-10-22,清算の結了等,,,2015-10-05,1,,,,,ムラヤマコウギョウ,0
1266,5021002038419,登記記録の閉鎖等,0,2024-11-07,2024-11-05,西秦野製畳有限会社,,有限会社,神奈川県,秦野市,弥生町２番１３号,,14,211,2591311,,,2024-11-05,清算の結了等,,,2015-10-05,1,,,,,ニシハダノセイジョウ,0
1279,5040001032892,登記記録の閉鎖等,0,2024-11-07,2024-11-01,アイ・エイ・アイ・コンサルティング株式会社,,株式会社,千葉県,市川市,国府台３丁目１１番４６号,,12,203,2720827,,,2024-11-01,清算の結了等,,,2015-10-05,1,,,,,アイエイアイコンサルティング,0
1287,5060002000608,登記記録の閉鎖等,0,2024-11-07,2024-10-31,有限会社アイフロント,,有限会社,栃木県,宇都宮市,上野町６０９９番地１３,,09,201,3210981,,,2024-10-31,清算の結了等,,,2015-10-05,1,,,,,アイフロント,0
1298,5070002026635,登記記録の閉鎖等,0,2024-11-07,2024-11-05,中村電設有限会社,,有限会社,群馬県,渋川市,赤城町三原田６１８番地２２２,,10,208,3791126,,,2024-11-05,清算の結了等,,,2015-10-05,1,,,,,ナカムラデンセツ,0
1305,5100001009562,登記記録の閉鎖等,0,2024-11-07,2024-10-25,株式会社アンドー,,株式会社,長野県,上田市,中央３丁目８番３号,,20,203,3860012,,,2024-10-25,清算の結了等,,,2015-10-05,1,,,,,アンドー,0
1312,5120001021689,登記記録の閉鎖等,0,2024-11-07,2024-11-01,株式会社まつや植松,,株式会社,大阪府,大阪市平野区,西脇１丁目７番２３号,,27,126,5470035,,,2024-11-01,清算の結了等,,,2015-10-05,1,,,,,マツヤウエマツ,0
1324,5120002015491,登記記録の閉鎖等,0,2024-11-07,2024-11-05,有限会社光洋舎,,有限会社,大阪府,大阪市港区,市岡２丁目７番１０号,,27,107,5520012,,,2024-11-05,清算の結了等,,,2015-10-05,1,,,,,コウヨウシャ,0
1339,5130001033155,登記記録の閉鎖等,0,2024-11-07,2024-11-05,株式会社モリモト,,株式会社,京都府,宇治市,小倉町南浦１２番地の６,,26,204,6110042,,,2024-11-05,清算の結了等,,,2015-10-05,1,,,,,モリモト,0
1345,5140002043037,登記記録の閉鎖等,0,2024-11-07,2024-10-31,有限会社友進商事,,有限会社,兵庫県,尼崎市,神田中通２丁目２７番地の１４,,28,202,6600884,,,2024-10-31,清算の結了等,,,2015-10-05,1,,,,,ユウシンショウジ,0
1352,5150001015580,登記記録の閉鎖等,0,2024-11-07,2024-11-01,株式会社藤井孝治商店,,株式会社,奈良県,五條市,須恵１丁目８番１５号,,29,207,6370005,,,2024-11-01,清算の結了等,,,2015-10-05,1,,,,,フジイコウジショウテン,0
1361,5160005000396,登記記録の閉鎖等,0,2024-11-07,2024-10-01,大津漁業協同組合,,その他の設立登記法人,滋賀県,大津市,下阪本６丁目４番１６号,,25,201,5200105,,,2024-10-01,合併による解散等,7160005011350,令和６年１０月１日堅田漁業協同組合（2160005000399）、湖南漁業協同組合（9160005000401）、瀬田町漁業協同組合（5160005000405）、山田漁業協同組合（8160005008429）、志那漁業協同組合（9160005008428）、玉津小津漁業協同組合（7160005008867）、中主漁業協同組合（6160005008868）、近江八幡漁業協同組合（6160005006830）、彦根市松原漁業協同組合（7160005004858）、広野漁業協同組合（5160005004868）、長浜漁業協同組合（5160005003250）、南浜漁業協同組合（4160005003251）、海津漁業協同組合（1160005007528）、浜分漁業協同組合（6160005007531）、三和漁業協同組合（1160005007536）と合併して滋賀びわ湖漁業協同組合（7160005011350）を設立し解散,2015-10-05,1,,,,,オオツ,0
1362,5160005000405,登記記録の閉鎖等,0,2024-11-07,2024-10-01,瀬田町漁業協同組合,,その他の設立登記法人,滋賀県,大津市,瀬田１丁目２１番１９号,,25,201,5202134,,,2024-10-01,合併による解散等,7160005011350,令和６年１０月１日堅田漁業協同組合（2160005000399）、大津漁業協同組合（5160005000396）、湖南漁業協同組合（9160005000401）、山田漁業協同組合（8160005008429）、志那漁業協同組合（9160005008428）、玉津小津漁業協同組合（7160005008867）、中主漁業協同組合（6160005008868）、近江八幡漁業協同組合（6160005006830）、彦根市松原漁業協同組合（7160005004858）、広野漁業協同組合（5160005004868）、長浜漁業協同組合（5160005003250）、南浜漁業協同組合（4160005003251）、海津漁業協同組合（1160005007528）、浜分漁業協同組合（6160005007531）、三和漁業協同組合（1160005007536）と合併して滋賀びわ湖漁業協同組合（7160005011350）を設立し解散,2015-10-05,1,,,,,セタチョウ,0
1363,5160005003250,登記記録の閉鎖等,0,2024-11-07,2024-10-01,長浜漁業協同組合,,その他の設立登記法人,滋賀県,長浜市,小沢町３９１番地,,25,203,5260004,,,2024-10-01,合併による解散等,7160005011350,令和６年１０月１日堅田漁業協同組合（2160005000399）、大津漁業協同組合（5160005000396）、湖南漁業協同組合（9160005000401）、瀬田町漁業協同組合（5160005000405）、山田漁業協同組合（8160005008429）、志那漁業協同組合（9160005008428）、玉津小津漁業協同組合（7160005008867）、中主漁業協同組合（6160005008868）、近江八幡漁業協同組合（6160005006830）、彦根市松原漁業協同組合（7160005004858）、広野漁業協同組合（5160005004868）、南浜漁業協同組合（4160005003251）、海津漁業協同組合（1160005007528）、浜分漁業協同組合（6160005007531）、三和漁業協同組合（1160005007536）と合併して滋賀びわ湖漁業協同組合（7160005011350）を設立し解散,2015-10-05,1,,,,,ナガハマ,0
1365,5160005004868,登記記録の閉鎖等,0,2024-11-07,2024-10-01,広野漁業協同組合,,その他の設立登記法人,滋賀県,彦根市,宇尾町５０４番地の２４,,25,202,5220045,,,2024-10-01,合併による解散等,7160005011350,令和６年１０月１日堅田漁業協同組合（2160005000399）、大津漁業協同組合（5160005000396）、湖南漁業協同組合（9160005000401）、瀬田町漁業協同組合（5160005000405）、山田漁業協同組合（8160005008429）、志那漁業協同組合（9160005008428）、玉津小津漁業協同組合（7160005008867）、中主漁業協同組合（6160005008868）、近江八幡漁業協同組合（6160005006830）、彦根市松原漁業協同組合（7160005004858）、長浜漁業協同組合（5160005003250）、南浜漁業協同組合（4160005003251）、海津漁業協同組合（1160005007528）、浜分漁業協同組合（6160005007531）、三和漁業協同組合（1160005007536）と合併して滋賀びわ湖漁業協同組合（7160005011350）を設立し解散,2015-10-05,1,,,,,コウノ,0
1370,5180001071679,登記記録の閉鎖等,0,2024-11-07,2024-10-28,株式会社ＧＣパートナーズ,,株式会社,愛知県,名古屋市中川区,月島町１２番２５号,,23,110,4540804,,,2024-10-28,清算の結了等,,,2015-10-05,1,,,,,ジーシーパートナーズ,0
1381,5180002025411,登記記録の閉鎖等,0,2024-11-07,2024-10-31,大島工業有限会社,,有限会社,愛知県,名古屋市緑区,鳴海町字京田２４番地,,23,114,4580801,,,2024-10-31,清算の結了等,,,2015-10-05,1,,,,,オオシマコウギョウ,0
1382,5180301004495,登記記録の閉鎖等,0,2024-11-07,2024-11-05,株式会社ドリーム・ダブル,,株式会社,愛知県,岡崎市,大西町字奥長入３７番地１,,23,202,4440811,,,2024-11-05,清算の結了等,,,2015-10-05,1,,,,,ドリームダブル,0
1388,5190005011143,登記記録の閉鎖等,0,2024-11-07,2024-11-01,一般社団法人縁,,その他の設立登記法人,三重県,津市,高茶屋小森町４１４１番地１４サウスウエストタウン内,,24,201,5140817,,,2024-11-01,清算の結了等,,,2018-01-12,1,,,,,エン,0
1406,5260002025262,登記記録の閉鎖等,0,2024-11-07,2024-10-30,有限会社南国船舶設計,,有限会社,岡山県,笠岡市,吉浜２４８１番地の２,,33,205,7140074,,,2024-10-30,清算の結了等,,,2015-10-05,1,,,,,ナンゴクセンパクセッケイ,0
1409,5290001079975,登記記録の閉鎖等,0,2024-11-07,2024-10-03,ｅＮＯＶＡＴＩＯＮ　Ｊａｐａｎ株式会社,,株式会社,福岡県,福岡市中央区,平尾２丁目８番９－１６０２号,,40,133,8100014,,,2024-10-03,清算の結了等,,,2017-12-20,1,,,,,イノベーションジャパン,0
1421,5360001010065,登記記録の閉鎖等,0,2024-11-07,2024-11-05,株式会社エムズ,,株式会社,沖縄県,浦添市,勢理客２丁目２３番１号,,47,208,9012122,,,2024-11-05,清算の結了等,,,2015-10-05,1,,,,,エムズ,0
1426,5370305000224,登記記録の閉鎖等,0,2024-11-07,2024-09-10,天理教登米分教会,,その他の設立登記法人,宮城県,牡鹿郡女川町,竹浦字月浜３６番地,,04,581,9862203,,,2024-09-10,合併による解散等,8370305000221,令和６年９月１０日宮城県石巻市泉町二丁目７番４２号天理教石巻分教会（8370305000221）に合併し解散,2015-10-05,1,,,,,,0
1433,5430001040311,登記記録の閉鎖等,0,2024-11-07,2024-11-05,サンエナジー株式会社,,株式会社,北海道,札幌市北区,あいの里四条５丁目２３番１８号,,01,102,0028074,,,2024-11-05,清算の結了等,,,2015-10-05,1,,,,,サンエナジー,0
1434,5430001043883,登記記録の閉鎖等,0,2024-11-07,2024-10-31,株式会社ハーテイ,,株式会社,北海道,千歳市,北栄２丁目３１番１０号,,01,224,0660036,,,2024-10-31,清算の結了等,,,2015-10-05,1,,,,,ハーテイ,0
1443,5480002001530,登記記録の閉鎖等,0,2024-11-07,2024-10-28,有限会社栄寿司,,有限会社,徳島県,徳島市,秋田町１丁目１５番地１,,36,201,7700934,,,2024-10-28,清算の結了等,,,2015-10-05,1,,,,,サカエスシ,0
1450,6010001236124,登記記録の閉鎖等,0,2024-11-07,2024-10-24,株式会社レバ,,株式会社,東京都,千代田区,神田猿楽町２丁目１番２号鎌形ビル４階,,13,101,1010064,,,2024-10-24,清算の結了等,,,2023-06-14,1,,,,,レバ,0
1451,6010001238780,登記記録の閉鎖等,0,2024-11-07,2024-10-24,株式会社ジャパニス,,株式会社,東京都,千代田区,神田神保町１丁目２６番地ＣＫ１２６－４０２号,,13,101,1010051,,,2024-10-24,清算の結了等,,,2023-09-27,1,,,,,ジャパニス,0
1454,6010003040409,登記記録の閉鎖等,0,2024-11-07,2024-10-23,合同会社静岡御殿場太陽光発電４号,,合同会社,東京都,千代田区,大手町１丁目１番１号大手町パークビルディング７階,,13,101,1000004,,,2024-10-23,清算の結了等,,,2023-04-24,1,,,,,シズオカゴテンバタイヨウコウハツデンヨンゴウ,0
1496,6010701029653,登記記録の閉鎖等,0,2024-11-07,2024-10-31,株式会社サンライト,,株式会社,東京都,品川区,西中延２丁目１６番１６号,,13,109,1420054,,,2024-10-31,清算の結了等,,,2015-10-05,1,,,,,サンライト,0
1501,6011001132247,登記記録の閉鎖等,0,2024-11-07,2024-10-28,ｉＮＡクリエイティブスタジオ株式会社,,株式会社,東京都,目黒区,五本木１丁目４０番１９号ＡＬＢＡ五本木３０２,,13,110,1530053,,,2024-10-28,清算の結了等,,,2020-02-10,1,,,,,アイナクリエイティブスタジオ,0
1508,6011203003444,登記記録の閉鎖等,0,2024-11-07,2024-11-01,響合同会社,,合同会社,東京都,中野区,江原町２丁目２１番７－５０４号,,13,114,1650023,,,2024-11-01,合併による解散等,8011203003624,令和６年１１月１日東京都中野区江原町二丁目２１番７－５０４号松山合同会社（8011203003624）に合併し解散,2020-12-10,1,,,,,ヒビキ,0
1512,6011502005315,登記記録の閉鎖等,0,2024-11-07,2024-11-05,有限会社平和ベーカリー,,有限会社,東京都,北区,十条仲原１丁目１０番２号,,13,117,1140031,,,2024-11-05,清算の結了等,,,2015-10-05,1,,,,,ヘイワベーカリー,0
1517,6012402016039,登記記録の閉鎖等,0,2024-11-07,2024-11-06,有限会社アート企画,,有限会社,東京都,武蔵野市,吉祥寺本町１丁目７番１号,,13,203,1800004,,,2024-11-06,清算の結了等,,,2015-10-05,1,,,,,アートキカク,0
1543,6040001079594,登記記録の閉鎖等,0,2024-11-07,2024-11-01,株式会社ＵＬＴＲＡ．Ｃ,,株式会社,千葉県,木更津市,潮見５丁目１番地３０,,12,206,2920834,,,2024-11-01,清算の結了等,,,2015-10-05,1,,,,,,0
1559,6060001027741,登記記録の閉鎖等,0,2024-11-07,2024-10-31,株式会社サイトウ商事,,株式会社,栃木県,宇都宮市,立伏町９４８番地４１２,,09,201,3291116,,,2024-10-31,清算の結了等,,,2015-12-03,1,,,,,サイトウショウジ,0
1572,6100003005567,登記記録の閉鎖等,0,2024-11-07,2024-10-29,合同会社エバーグリーン,,合同会社,長野県,長野市,若穂綿内６８５３番地３,,20,201,3810101,,,2024-10-29,清算の結了等,,,2020-02-04,1,,,,,エバーグリーン,0
1576,6120001085782,登記記録の閉鎖等,0,2024-11-07,2024-11-05,株式会社トーヨーアールアンドデー,,株式会社,大阪府,大阪市中央区,南久宝寺町４丁目４番１号,,27,128,5410058,,,2024-11-05,清算の結了等,,,2015-10-05,1,,,,,トーヨーアールアンドデー,0
1599,6120101059496,登記記録の閉鎖等,0,2024-11-07,2024-11-05,株式会社三谷加工,,株式会社,大阪府,泉大津市,北豊中町１丁目３番２８号,,27,206,5950012,,,2024-11-05,清算の結了等,,,2019-03-04,1,,,,,ミタニカコウ,0
1605,6122001018763,登記記録の閉鎖等,0,2024-11-07,2024-11-05,書胤都市開発株式会社,,株式会社,大阪府,八尾市,本町１丁目４番１号ＹＬＢ谷村,,27,212,5810003,,,2024-11-05,清算の結了等,,,2015-10-05,1,,,,,ショイントシカイハツ,0
1606,6130001050141,登記記録の閉鎖等,0,2024-11-07,2024-11-05,株式会社ＫＲＣ,,株式会社,大阪府,堺市堺区,三国ヶ丘御幸通１番地１,,27,141,5900028,,,2024-11-05,清算の結了等,,,2015-10-05,1,,,,,,0
1614,6140002039843,登記記録の閉鎖等,0,2024-11-07,2024-10-31,有限会社新井商事,,有限会社,兵庫県,尼崎市,東園田町５丁目１１７番地の５,,28,202,6610953,,,2024-10-31,清算の結了等,,,2015-10-05,1,,,,,アライショウジ,0
1615,6140002069485,登記記録の閉鎖等,0,2024-11-07,2024-10-31,有限会社ホクダン精密,,有限会社,兵庫県,淡路市,室津２７１０番地,,28,226,6561606,,,2024-10-31,清算の結了等,,,2015-10-05,1,,,,,ホクダンセイミツ,0
1619,6160005006830,登記記録の閉鎖等,0,2024-11-07,2024-10-01,近江八幡漁業協同組合,,その他の設立登記法人,滋賀県,近江八幡市,長命寺町２９－４,,25,204,5230808,,,2024-10-01,合併による解散等,7160005011350,令和６年１０月１日堅田漁業協同組合（2160005000399）、大津漁業協同組合（5160005000396）、湖南漁業協同組合（9160005000401）、瀬田町漁業協同組合（5160005000405）、山田漁業協同組合（8160005008429）、志那漁業協同組合（9160005008428）、玉津小津漁業協同組合（7160005008867）、中主漁業協同組合（6160005008868）、彦根市松原漁業協同組合（7160005004858）、広野漁業協同組合（5160005004868）、長浜漁業協同組合（5160005003250）、南浜漁業協同組合（4160005003251）、海津漁業協同組合（1160005007528）、浜分漁業協同組合（6160005007531）、三和漁業協同組合（1160005007536）と合併して滋賀びわ湖漁業協同組合（7160005011350）を設立し解散,2015-10-05,1,,,,,オウミハチマン,0
1620,6160005007531,登記記録の閉鎖等,0,2024-11-07,2024-10-01,浜分漁業協同組合,,その他の設立登記法人,滋賀県,高島市,今津町浜分２５１番地１,,25,212,5201604,,,2024-10-01,合併による解散等,7160005011350,令和６年１０月１日堅田漁業協同組合（2160005000399）、大津漁業協同組合（5160005000396）、湖南漁業協同組合（9160005000401）、瀬田町漁業協同組合（5160005000405）、山田漁業協同組合（8160005008429）、志那漁業協同組合（9160005008428）、玉津小津漁業協同組合（7160005008867）、中主漁業協同組合（6160005008868）、近江八幡漁業協同組合（6160005006830）、彦根市松原漁業協同組合（7160005004858）、広野漁業協同組合（5160005004868）、長浜漁業協同組合（5160005003250）、南浜漁業協同組合（4160005003251）、海津漁業協同組合（1160005007528）、三和漁業協同組合（1160005007536）と合併して滋賀びわ湖漁業協同組合（7160005011350）を設立し解散,2015-10-05,1,,,,,ハマブン,0
1621,6160005008868,登記記録の閉鎖等,0,2024-11-07,2024-10-01,中主漁業協同組合,,その他の設立登記法人,滋賀県,野洲市,吉川１６４５番地の５,,25,210,5202401,,,2024-10-01,合併による解散等,7160005011350,令和６年１０月１日堅田漁業協同組合（2160005000399）、大津漁業協同組合（5160005000396）、湖南漁業協同組合（9160005000401）、瀬田町漁業協同組合（5160005000405）、山田漁業協同組合（8160005008429）、志那漁業協同組合（9160005008428）、玉津小津漁業協同組合（7160005008867）、近江八幡漁業協同組合（6160005006830）、彦根市松原漁業協同組合（7160005004858）、広野漁業協同組合（5160005004868）、長浜漁業協同組合（5160005003250）、南浜漁業協同組合（4160005003251）、海津漁業協同組合（1160005007528）、浜分漁業協同組合（6160005007531）、三和漁業協同組合（1160005007536）と合併して滋賀びわ湖漁業協同組合（7160005011350）を設立し解散,2015-10-05,1,,,,,チュウズ,0
1625,6180001155448,登記記録の閉鎖等,0,2024-11-07,2024-10-25,株式会社木漏れ日,,株式会社,愛知県,一宮市,起字堤町５２番地,,23,203,4940006,,,2024-10-25,清算の結了等,,,2023-03-22,1,,,,,コモレビ,0
1627,6180002026813,登記記録の閉鎖等,0,2024-11-07,2024-10-22,有限会社山本塗装店,,有限会社,愛知県,名古屋市緑区,鳴海町字清水寺２６番地,,23,114,4580801,,,2024-10-22,清算の結了等,,,2015-10-05,1,,,,,ヤマモトトソウテン,0
1628,6180002036168,登記記録の閉鎖等,0,2024-11-07,2024-10-28,有限会社大野スプリング,,有限会社,愛知県,名古屋市南区,南野３丁目１７５番地,,23,112,4570068,,,2024-10-28,清算の結了等,,,2015-10-05,1,,,,,オオノスプリング,0
1629,6180002082600,登記記録の閉鎖等,0,2024-11-07,2024-10-25,有限会社マルパ,,有限会社,愛知県,江南市,村久野町平野１６０番地の１０,,23,217,4838327,,,2024-10-25,清算の結了等,,,2015-10-05,1,,,,,マルパ,0
1630,6180003019097,登記記録の閉鎖等,0,2024-11-07,2024-10-31,合同会社エッセンス,,合同会社,愛知県,尾張旭市,長坂町南山２８７４番地１４５ラポール旭Ｃ棟５０５,,23,226,4880821,,,2024-10-31,清算の結了等,,,2018-07-10,1,,,,,エッセンス,0
1647,6240002045006,登記記録の閉鎖等,0,2024-11-07,2024-11-01,有限会社ティアンドワイコレクション,,有限会社,広島県,福山市,引野町２丁目３６番１９号,,34,207,7210942,,,2024-11-01,清算の結了等,,,2015-10-05,1,,,,,ティアンドワイコレクション,0
1667,6320005001204,登記記録の閉鎖等,0,2024-11-07,2024-11-05,大分家具建材工業協同組合,,その他の設立登記法人,大分県,大分市,大字下郡３１３６番地の６,,44,201,8700951,,,2024-11-05,清算の結了等,,,2015-10-05,1,,,,,オオイタタカグケンザイコウギョウキョウドウクミアイ,0
1682,6360003009229,登記記録の閉鎖等,0,2024-11-07,2024-11-05,合同会社ＫＩＹＯＩＦＬＡＭＥ．沖縄,,合同会社,沖縄県,那覇市,樋川２丁目３番１号のうれんプラザ２０９－１,,47,201,9000022,,,2024-11-05,清算の結了等,,,2018-12-12,1,,,,,キヨイフレイムドットオキナワ,0
1684,6370001022793,登記記録の閉鎖等,0,2024-11-07,2024-10-17,株式会社ウィード,,株式会社,宮城県,宮城郡利府町,赤沼字井戸尻１３１番地１６,,04,406,9810101,,,2024-10-17,清算の結了等,,,2015-10-05,1,,,,,ウィード,0
1692,6420005003768,登記記録の閉鎖等,0,2024-11-07,2024-10-31,農事組合法人川倉きのこ栽培組合,,その他の設立登記法人,青森県,五所川原市,金木町川倉七夕野８４番地５１１,,02,205,0370201,,,2024-10-31,清算の結了等,,,2015-10-05,1,,,,,カワクラキノコサイバイクミアイ,0
1698,6430002005527,登記記録の閉鎖等,0,2024-11-07,2024-11-01,有限会社川村吉利商店,,有限会社,北海道,札幌市豊平区,月寒東一条５丁目１番４号,,01,105,0620051,,,2024-11-01,清算の結了等,,,2015-10-05,1,,,,,カワムラヨシトシショウテン,0
1700,6440002008041,登記記録の閉鎖等,0,2024-11-07,2024-11-01,有限会社臥龍建設,,有限会社,北海道,亀田郡七飯町,大中山８丁目６４１番地３,,01,337,0411121,,,2024-11-01,清算の結了等,,,2015-10-05,1,,,,,ガリュウケンセツ,0
1701,6450002003058,登記記録の閉鎖等,0,2024-11-07,2024-10-31,有限会社杉山製作所,,有限会社,北海道,旭川市,新富二条１丁目１０番３０号,,01,204,0700002,,,2024-10-31,清算の結了等,,,2015-10-05,1,,,,,スギヤマセイサクショ,0
1703,7010001163045,登記記録の閉鎖等,0,2024-11-07,2024-10-24,株式会社ワイヤージャパン,,株式会社,東京都,千代田区,神田神保町１丁目５２番地４,,13,101,1010051,,,2024-10-24,清算の結了等,,,2015-10-05,1,,,,,ワイヤージャパン,0
1704,7010001240604,登記記録の閉鎖等,0,2024-11-07,2024-10-21,ＦＲＥＳＨ　ＭＡＲＫＥＴ　ＸＣＨＡＮＧＥ株式会社,,株式会社,東京都,港区,浜松町２丁目７番１７号イーグル浜松町天翔オフィス浜松町大門５階５０４号室,,13,103,1050013,,,2024-10-21,清算の結了等,,,2023-12-12,1,,,,,フレッシュマーケットエクスチェンジ,0
1706,7010003040408,登記記録の閉鎖等,0,2024-11-07,2024-10-23,合同会社静岡裾野太陽光発電１号,,合同会社,東京都,千代田区,大手町１丁目１番１号大手町パークビルディング７階,,13,101,1000004,,,2024-10-23,清算の結了等,,,2023-04-24,1,,,,,シズオカスソノタイヨウコウハツデンイチゴウ,0
1729,7010102001120,登記記録の閉鎖等,0,2024-11-07,2024-11-01,有限会社エクステリア双葉,,有限会社,東京都,八王子市,大楽寺町６１２番地の１３,,13,201,1930816,,,2024-11-01,清算の結了等,,,2015-10-05,1,,,,,エクステリアフタバ,0
1736,7010405022103,登記記録の閉鎖等,0,2024-11-07,2024-10-21,一般社団法人ＩＲシステム協議会,,その他の設立登記法人,東京都,港区,赤坂９丁目７番１号ミッドタウン・タワー,,13,103,1070052,,,2024-10-21,清算の結了等,,,2023-05-17,1,,,,,アイアールシステムキョウギカイ,0
1755,7011001134127,登記記録の閉鎖等,0,2024-11-07,2024-10-09,株式会社Ａｕｒａ,,株式会社,東京都,渋谷区,渋谷２丁目１番１号,,13,113,1500002,,,2024-10-09,清算の結了等,,,2020-06-08,1,,,,,アウラ,0
1760,7011002022859,登記記録の閉鎖等,0,2024-11-07,2024-10-28,有限会社コスモスヘルパーステーション,,有限会社,東京都,渋谷区,桜丘町７番１０号,,13,113,1500031,,,2024-10-28,清算の結了等,,,2015-10-05,1,,,,,コスモスヘルパーステーション,0
1763,7011101076839,登記記録の閉鎖等,0,2024-11-07,2024-10-24,株式会社ネクタアル,,株式会社,東京都,文京区,本郷２丁目２０番１号,,13,105,1130033,,,2024-10-24,清算の結了等,,,2016-04-27,1,,,,,ネクタアル,0
1764,7011101097505,登記記録の閉鎖等,0,2024-11-07,2024-10-29,株式会社Ｗａｉｐｕｎａ,,株式会社,東京都,新宿区,西新宿３丁目７番１号新宿パークタワーＮ３０階,,13,104,1600023,,,2024-10-29,清算の結了等,,,2022-01-18,1,,,,,ワイプナ,0
1773,7011702004677,登記記録の閉鎖等,0,2024-11-07,2024-11-01,有限会社三広社,,有限会社,東京都,江戸川区,東葛西３丁目２番３号,,13,123,1340084,,,2024-11-01,清算の結了等,,,2015-10-05,1,,,,,サンコウシャ,0
1785,7020001141719,登記記録の閉鎖等,0,2024-11-07,2024-10-21,株式会社ムナカタ,,株式会社,神奈川県,横浜市旭区,鶴ケ峰本町３丁目２６番１５号,,14,112,2410021,,,2024-10-21,清算の結了等,,,2021-06-09,1,,,,,ムナカタ,0
1802,7040001119432,登記記録の閉鎖等,0,2024-11-07,2024-11-01,株式会社梵まる,,株式会社,千葉県,鴨川市,横渚１６２５番地１,,12,223,2960001,,,2024-11-01,合併による解散等,5040001009214,令和６年１１月１日千葉市稲毛区稲毛三丁目５番８号株式会社オオクシ（5040001009214）に合併し解散,2021-07-20,1,,,,,ボンマル,0
1809,7050001024111,登記記録の閉鎖等,0,2024-11-07,2024-10-29,株式会社石井建設,,株式会社,茨城県,北茨城市,関本町関本中１１３番地の１,,08,215,3191723,,,2024-10-29,清算の結了等,,,2015-10-05,1,,,,,イシイケンセツ,0
1817,7070001012733,登記記録の閉鎖等,0,2024-11-07,2024-11-01,デーシーエス株式会社,,株式会社,群馬県,藤岡市,中１６１番地５,,10,209,3750005,,,2024-11-01,清算の結了等,,,2015-10-05,1,,,,,デーシーエス,0
1823,7090001015131,登記記録の閉鎖等,0,2024-11-07,2024-10-31,コネクトｂ株式会社,,株式会社,山梨県,笛吹市,御坂町金川原８０４番地,,19,211,4060802,,,2024-10-31,清算の結了等,,,2017-06-07,1,,,,,コネクトビー,0
1833,7100005011884,登記記録の閉鎖等,0,2024-11-07,2024-11-01,一般社団法人ハピネス,,その他の設立登記法人,長野県,松本市,大字和田２０７５番地１,,20,202,3901242,,,2024-11-01,清算の結了等,,,2016-06-21,1,,,,,ハピネス,0
1838,7120001158562,登記記録の閉鎖等,0,2024-11-07,2024-11-05,株式会社不二トータルシステム,,株式会社,大阪府,守口市,早苗町６番１４号,,27,209,5700072,,,2024-11-05,清算の結了等,,,2015-10-05,1,,,,,フジトータルシステム,0
1863,7140001048051,登記記録の閉鎖等,0,2024-11-07,2024-10-25,株式会社大庭商店,,株式会社,兵庫県,尼崎市,武庫町１丁目１５番１５号,,28,202,6610044,,,2024-10-25,清算の結了等,,,2015-10-05,1,,,,,オオバショウテン,0
1868,7140002040602,登記記録の閉鎖等,0,2024-11-07,2024-10-31,有限会社共栄商事,,有限会社,兵庫県,尼崎市,神田中通２丁目２３番地,,28,202,6600884,,,2024-10-31,清算の結了等,,,2015-10-05,1,,,,,キョウエイショウジ,0
1869,7140002044462,登記記録の閉鎖等,0,2024-11-07,2024-11-01,有限会社ヤスジ,,有限会社,兵庫県,尼崎市,西立花町３丁目１番１８号,,28,202,6600054,,,2024-11-01,清算の結了等,,,2015-10-05,1,,,,,ヤスジ,0
1871,7140003014992,登記記録の閉鎖等,0,2024-11-07,2024-11-01,合同会社ｇｅｎｋｅｅｓ,,合同会社,兵庫県,神戸市須磨区,高尾台３丁目４番８号,,28,107,6540061,,,2024-11-01,清算の結了等,,,2020-05-26,1,,,,,ゲンキーズ,0
1876,7150002001900,登記記録の閉鎖等,0,2024-11-07,2024-11-01,有限会社友和,,有限会社,奈良県,奈良市,東向北町２９番地,,29,201,6308214,,,2024-11-01,清算の結了等,,,2015-10-05,1,,,,,ユウワ,0
1878,7160005004858,登記記録の閉鎖等,0,2024-11-07,2024-10-01,彦根市松原漁業協同組合,,その他の設立登記法人,滋賀県,彦根市,松原２丁目無番地,,25,202,5220002,,,2024-10-01,合併による解散等,7160005011350,令和６年１０月１日堅田漁業協同組合（2160005000399）、大津漁業協同組合（5160005000396）、湖南漁業協同組合（9160005000401）、瀬田町漁業協同組合（5160005000405）、山田漁業協同組合（8160005008429）、志那漁業協同組合（9160005008428）、玉津小津漁業協同組合（7160005008867）、中主漁業協同組合（6160005008868）、近江八幡漁業協同組合（6160005006830）、広野漁業協同組合（5160005004868）、長浜漁業協同組合（5160005003250）、南浜漁業協同組合（4160005003251）、海津漁業協同組合（1160005007528）、浜分漁業協同組合（6160005007531）、三和漁業協同組合（1160005007536）と合併して滋賀びわ湖漁業協同組合（7160005011350）を設立し解散,2015-10-05,1,,,,,ヒコネシマツバラ,0
1879,7160005008867,登記記録の閉鎖等,0,2024-11-07,2024-10-01,玉津小津漁業協同組合,,その他の設立登記法人,滋賀県,守山市,赤野井町２１４７番地１,,25,207,5240061,,,2024-10-01,合併による解散等,7160005011350,令和６年１０月１日堅田漁業協同組合（2160005000399）、大津漁業協同組合（5160005000396）、湖南漁業協同組合（9160005000401）、瀬田町漁業協同組合（5160005000405）、山田漁業協同組合（8160005008429）、志那漁業協同組合（9160005008428）、中主漁業協同組合（6160005008868）、近江八幡漁業協同組合（6160005006830）、彦根市松原漁業協同組合（7160005004858）、広野漁業協同組合（5160005004868）、長浜漁業協同組合（5160005003250）、南浜漁業協同組合（4160005003251）、海津漁業協同組合（1160005007528）、浜分漁業協同組合（6160005007531）、三和漁業協同組合（1160005007536）と合併して滋賀びわ湖漁業協同組合（7160005011350）を設立し解散,2015-10-05,1,,,,,タマツオヅ,0
1885,7180001059763,登記記録の閉鎖等,0,2024-11-07,2024-10-28,株式会社東洋プライム,,株式会社,愛知県,名古屋市中川区,小本本町１丁目３５番地,,23,110,4540826,,,2024-10-28,清算の結了等,,,2015-10-05,1,,,,,トウヨウプライム,0
1888,7180001069928,登記記録の閉鎖等,0,2024-11-07,2024-10-31,株式会社シバタ商事,,株式会社,愛知県,名古屋市名東区,山の手３丁目１８１６番地,,23,115,4650011,,,2024-10-31,清算の結了等,,,2015-10-05,1,,,,,シバタショウジ,0
1891,7180001134137,登記記録の閉鎖等,0,2024-11-07,2024-10-28,株式会社ＴＯＳＨＩ　Ｓ,,株式会社,愛知県,名古屋市北区,楠味鋺５丁目２１４－１ＧＬＡＭＢ３　Ａ,,23,103,4620014,,,2024-10-28,清算の結了等,,,2018-10-22,1,,,,,トシエス,0
1910,7220002010043,登記記録の閉鎖等,0,2024-11-07,2024-10-31,有限会社Ｔ・Ａ・Ｍ,,有限会社,石川県,金沢市,高岡町７番２２号,,17,201,9200864,,,2024-10-31,清算の結了等,,,2015-10-05,1,,,,,ティーエーエム,0
1918,7250002004587,登記記録の閉鎖等,0,2024-11-07,2024-11-01,有限会社協和鉄工,,有限会社,山口県,宇部市,大字西岐波３１６番地の１８２,,35,202,7550151,,,2024-11-01,清算の結了等,,,2015-10-05,1,,,,,キョウワテッコウ,0
1926,7310002017509,登記記録の閉鎖等,0,2024-11-07,2024-10-31,有限会社野田林産,,有限会社,長崎県,大村市,中里町２６８番地,,42,205,8560842,,,2024-10-31,清算の結了等,,,2015-10-05,1,,,,,ノダリンサン,0
1929,7340002026622,登記記録の閉鎖等,0,2024-11-07,2024-11-01,有限会社森元建設,,有限会社,鹿児島県,鹿屋市,横山町１８６３番地３,,46,203,8930046,,,2024-11-01,清算の結了等,,,2015-10-05,1,,,,,モリモトケンセツ,0
1931,7360001009799,登記記録の閉鎖等,0,2024-11-07,2024-11-01,トキワ広貫堂株式会社,,株式会社,沖縄県,浦添市,伊祖１丁目２４番１号,,47,208,9012132,,,2024-11-01,合併による解散等,1230001004620,令和６年１０月３１日富山市梅沢町二丁目９番１号広貫堂薬品販売株式会社（1230001004620）に合併し解散,2015-10-05,1,,,,,トキワコウカンドウ,0
1933,7370302003376,登記記録の閉鎖等,0,2024-11-07,2024-10-28,有限会社東松島ケアサポート,,有限会社,宮城県,東松島市,根古字今泉１３番地６,,04,214,9810309,,,2024-10-28,清算の結了等,,,2015-10-05,1,,,,,,0
1941,7420005005920,登記記録の閉鎖等,0,2024-11-07,2024-10-31,むつ小川原砂採取協同組合,,その他の設立登記法人,青森県,上北郡六ヶ所村,大字倉内字芋ケ崎３２４番地２,,02,411,0393215,,,2024-10-31,清算の結了等,,,2015-10-05,1,,,,,ムツオガワラスナサイシュ,0
1942,7430001034880,登記記録の閉鎖等,0,2024-11-07,2024-11-05,どさんこファクトリー北海道株式会社,,株式会社,北海道,札幌市白石区,南郷通２丁目北１番１－８０２号,,01,104,0030023,,,2024-11-05,清算の結了等,,,2015-10-05,1,,,,,ドサンコファクトリーホッカイドウ,0
1952,7440002001524,登記記録の閉鎖等,0,2024-11-07,2024-11-05,有限会社厚生会売店,,有限会社,北海道,函館市,東雲町４番１３号凾館市役所職員厚生会内,,01,202,0400036,,,2024-11-05,清算の結了等,,,2015-10-05,1,,,,,コウセイカイバイテン,0
1960,8010001187968,登記記録の閉鎖等,0,2024-11-07,2024-10-09,株式会社徳勝,,株式会社,東京都,渋谷区,東２丁目１７番９号,,13,113,1500011,,,2024-10-09,清算の結了等,,,2017-11-29,1,,,,,トクカツ,0
1963,8010003023031,登記記録の閉鎖等,0,2024-11-07,2024-10-23,アクシオマ・ジャパン合同会社,,合同会社,東京都,千代田区,丸の内１丁目６番５号丸の内北口ビルディング２７階ＳＴＯＸＸ　Ｌｉｍｉｔｅｄ内,,13,101,1000005,,,2024-10-23,清算の結了等,,,2016-02-05,1,,,,,アクシオマジャパン,0
1964,8010003040407,登記記録の閉鎖等,0,2024-11-07,2024-10-23,合同会社静岡函南太陽光発電１号,,合同会社,東京都,千代田区,大手町１丁目１番１号大手町パークビルディング７階,,13,101,1000004,,,2024-10-23,清算の結了等,,,2023-04-24,1,,,,,シズオカカンナミタイヨウコウハツデンイチゴウ,0
2043,8012403001946,登記記録の閉鎖等,0,2024-11-07,2024-11-01,合同会社ウェザリア,,合同会社,東京都,府中市,紅葉丘１丁目１０－５－１０１,,13,206,1830004,,,2024-11-01,合併による解散等,2010803002116,令和６年１１月１日東京都府中市緑町二丁目３－１－１０３号Ｆａｍｉｌｊ合同会社（2010803002116）に合併し解散,2015-10-05,1,,,,,ウェザリア,0
2046,8013201007532,登記記録の閉鎖等,0,2024-11-07,2024-10-10,三立警備株式会社,,株式会社,東京都,目黒区,南１丁目２番１２号,,13,110,1520013,,,2024-10-10,清算の結了等,,,2015-10-05,1,,,,,サンリツケイビ,0
2059,8020002022272,登記記録の閉鎖等,0,2024-11-07,2024-10-21,有限会社ファースト薬品,,有限会社,神奈川県,横浜市旭区,市沢町９９５番地の３１,,14,112,2410014,,,2024-10-21,清算の結了等,,,2015-10-05,1,,,,,ファーストヤクヒン,0
2062,8021002030661,登記記録の閉鎖等,0,2024-11-07,2024-11-05,厚木建材有限会社,00013296,有限会社,神奈川県,厚木市,棚沢字市島５９２番地,,14,212,2430205,,,2024-11-05,清算の結了等,,,2015-10-05,1,,,,,アツギケンザイ,0
2065,8030001004675,登記記録の閉鎖等,0,2024-11-07,2024-11-05,株式会社宣興,,株式会社,埼玉県,さいたま市大宮区,上小町３０４番地の１,,11,103,3300855,,,2024-11-05,清算の結了等,,,2015-10-05,1,,,,,センコウ,0
2084,8050002003377,登記記録の閉鎖等,0,2024-11-07,2024-10-30,有限会社山本製＿所,00022573,有限会社,茨城県,水戸市,新荘３丁目２番４０号,,08,201,3100036,,,2024-10-30,清算の結了等,,,2015-10-05,1,,,,,ヤマモトセイアンショ,0
2093,8080402005029,登記記録の閉鎖等,0,2024-11-07,2024-11-01,有限会社中日テープ,,有限会社,静岡県,浜松市中央区,半田山５丁目１６番３９号,,22,138,4313125,,,2024-11-01,清算の結了等,,,2015-10-05,1,,,,,チュウニチテープ,0
2109,8120001122443,登記記録の閉鎖等,0,2024-11-07,2024-11-01,株式会社Ｃｒａｆｔｓｍａｎ,,株式会社,大阪府,大阪市北区,天神橋５丁目６番３３号,,27,127,5300041,,,2024-11-01,合併による解散等,8120001097578,令和６年１１月１日大阪市北区天神橋五丁目６番３３号株式会社元気ファクトリー（8120001097578）に合併し解散,2015-10-05,1,,,,,クラフツマン,0
2128,8120102025636,登記記録の閉鎖等,0,2024-11-07,2024-11-01,ヤマニ産業有限会社,,有限会社,大阪府,和泉市,仏並町７８０番地,,27,219,5941136,,,2024-11-01,清算の結了等,,,2015-10-05,1,,,,,ヤマニサンギョウ,0
2136,8122002004728,登記記録の閉鎖等,0,2024-11-07,2024-11-05,有限会社Ｔｉｎｉｓ,,有限会社,大阪府,東大阪市,森河内東２丁目１番３号,,27,227,5770062,,,2024-11-05,清算の結了等,,,2015-10-05,1,,,,,テニーズ,0
2138,8130001067423,登記記録の閉鎖等,0,2024-11-07,2024-10-31,株式会社よかよか,,株式会社,京都府,与謝郡与謝野町,字男山４４１番地２,,26,465,6292261,,,2024-10-31,清算の結了等,,,2020-08-07,1,,,,,ヨカヨカ,0
2158,8160005008429,登記記録の閉鎖等,0,2024-11-07,2024-10-01,山田漁業協同組合,,その他の設立登記法人,滋賀県,草津市,北山田町３１３０番地,,25,206,5250061,,,2024-10-01,合併による解散等,7160005011350,令和６年１０月１日堅田漁業協同組合（2160005000399）、大津漁業協同組合（5160005000396）、湖南漁業協同組合（9160005000401）、瀬田町漁業協同組合（5160005000405）、志那漁業協同組合（9160005008428）、玉津小津漁業協同組合（7160005008867）、中主漁業協同組合（6160005008868）、近江八幡漁業協同組合（6160005006830）、彦根市松原漁業協同組合（7160005004858）、広野漁業協同組合（5160005004868）、長浜漁業協同組合（5160005003250）、南浜漁業協同組合（4160005003251）、海津漁業協同組合（1160005007528）、浜分漁業協同組合（6160005007531）、三和漁業協同組合（1160005007536）と合併して滋賀びわ湖漁業協同組合（7160005011350）を設立し解散,2015-10-05,1,,,,,ヤマダ,0
2162,8170002008281,登記記録の閉鎖等,0,2024-11-07,2024-11-06,有限会社紀北レンタル,,有限会社,和歌山県,紀の川市,杉原１番地の１,,30,208,6496565,,,2024-11-06,清算の結了等,,,2015-10-05,1,,,,,キホクレンタル,0
2168,8180001144944,登記記録の閉鎖等,0,2024-11-07,2024-10-28,株式会社ＡＬＰＨＡ,,株式会社,愛知県,名古屋市港区,小割通２丁目２０番地,,23,111,4550077,,,2024-10-28,清算の結了等,,,2021-02-26,1,,,,,アルファ,0
2183,8190005004409,登記記録の閉鎖等,0,2024-11-07,2024-11-05,医療法人良仁会,,その他の設立登記法人,三重県,鈴鹿市,道伯１丁目６番１号,,24,207,5130823,,,2024-11-05,清算の結了等,,,2015-10-05,1,,,,,リョウジンカイ,0
2184,8190005006685,登記記録の閉鎖等,0,2024-11-07,2024-11-05,株式会社三重きのこ園,,株式会社,三重県,松阪市,高須町３２１４番地,,24,204,5150104,,,2024-11-05,清算の結了等,,,2015-10-05,1,,,,,,0
2187,8220002010488,登記記録の閉鎖等,0,2024-11-07,2024-11-01,共栄自工有限会社,,有限会社,石川県,小松市,幸町１丁目７４番地,,17,203,9230867,,,2024-11-01,清算の結了等,,,2015-10-05,1,,,,,キョウエイジコウ,0
2189,8230001019190,登記記録の閉鎖等,0,2024-11-07,2024-11-01,株式会社荒木工業,,株式会社,富山県,富山市,秋吉１９９番地１ビエントプラーサ４０２号,,16,201,9300953,,,2024-11-01,清算の結了等,,,2022-01-17,1,,,,,アラキコウギョウ,0
2197,8240005011886,登記記録の閉鎖等,0,2024-11-07,2024-11-01,備後創造事業協同組合,,その他の設立登記法人,広島県,三原市,城町１丁目２１番１５号,,34,204,7230014,,,2024-11-01,清算の結了等,,,2015-10-05,1,,,,,ビンゴソウゾウジギョウ,0
2203,8290001054380,登記記録の閉鎖等,0,2024-11-07,2024-10-01,大牟田丸善運輸株式会社,,株式会社,福岡県,大牟田市,四山町８０番地５９,,40,202,8360067,,,2024-10-01,合併による解散等,6290001047774,令和６年１０月１日福岡県八女郡広川町大字藤田１４００番地２大善運輸倉庫株式会社（6290001047774）に合併し解散,2015-10-05,1,,,,,オオムタマルゼンウンユ,0
2206,8290001075154,登記記録の閉鎖等,0,2024-11-07,2024-10-03,株式会社サンセレモネット,,株式会社,福岡県,久留米市,諏訪野町２７０４番地２,,40,203,8300037,,,2024-10-03,清算の結了等,,,2016-09-09,1,,,,,サンセレモネット,0
2212,8290002046708,登記記録の閉鎖等,0,2024-11-07,2024-10-02,フジカ有限会社,,有限会社,福岡県,飯塚市,堀池１番地１,,40,205,8200070,,,2024-10-02,清算の結了等,,,2015-10-05,1,,,,,フジカ,0
2216,8300005004974,登記記録の閉鎖等,0,2024-11-07,2024-11-05,特定非営利活動法人身体障害者鳥栖作業所,,その他の設立登記法人,佐賀県,鳥栖市,古野町６７６番地２,,41,203,8410038,,,2024-11-05,清算の結了等,,,2015-10-05,1,,,,,シンタイショウガイシャトスサギョウショ,0
2221,8340002014898,登記記録の閉鎖等,0,2024-11-07,2024-10-31,有限会社神田電子,,有限会社,鹿児島県,姶良郡湧水町,木場１０８３番地,,46,452,8996201,,,2024-10-31,清算の結了等,,,2015-10-05,1,,,,,カンダデンシ,0
2237,8400002009660,登記記録の閉鎖等,0,2024-11-07,2024-10-28,有限会社ふちさわビル,,有限会社,岩手県,北上市,さくら通り５丁目２０番２７号,,03,206,0240084,,,2024-10-28,清算の結了等,,,2015-10-05,1,,,,,フチサワビル,0
2252,8460402000370,登記記録の閉鎖等,0,2024-11-07,2024-11-05,有限会社マルナ漁東水産,,有限会社,北海道,根室市,花咲港２４２番地,,01,223,0870032,,,2024-11-05,清算の結了等,,,2015-10-05,1,,,,,マルナリョウトウスイサン,0
2254,8470005002771,登記記録の閉鎖等,0,2024-11-07,2024-09-30,天理教高見島分教会,00005674,その他の設立登記法人,香川県,仲多度郡多度津町,高見１３８１番地,,37,404,7640050,,,2024-09-30,合併による解散等,8500005005795,令和６年９月１９日愛媛県四国中央市川之江町１０８０番地天理教川之江大教会（8500005005795）に合併し解散,2015-10-05,1,,,,,,0
2256,8500002010179,登記記録の閉鎖等,0,2024-11-07,2024-11-05,有限会社ヴォルカニックカンパニー,,有限会社,愛媛県,松山市,樽味２丁目２番３５号,,38,201,7900905,,,2024-11-05,清算の結了等,,,2015-10-05,1,,,,,,0
2272,9010003040406,登記記録の閉鎖等,0,2024-11-07,2024-10-23,合同会社栃木足利太陽光発電１号,,合同会社,東京都,千代田区,大手町１丁目１番１号大手町パークビルディング７階,,13,101,1000004,,,2024-10-23,清算の結了等,,,2023-04-24,1,,,,,トチギアシカガタイヨウコウハツデンイチゴウ,0
2315,9010801001212,登記記録の閉鎖等,0,2024-11-07,2024-10-30,株式会社ウエストウッドモーターズ,,株式会社,東京都,品川区,南大井６丁目２６番３号大森ベルポート,,13,109,1400013,,,2024-10-30,清算の結了等,,,2015-10-05,1,,,,,ウエストウッドモーターズ,0
2327,9011001010128,登記記録の閉鎖等,0,2024-11-07,2024-10-28,株式会社シンク,,株式会社,東京都,渋谷区,渋谷１丁目９番４号トーカン渋谷キャステール５１０,,13,113,1500002,,,2024-10-28,清算の結了等,,,2015-10-05,1,,,,,,0
2342,9011203003821,登記記録の閉鎖等,0,2024-11-07,2024-11-01,葛城合同会社,,合同会社,東京都,中野区,江原町２丁目２１番７－５０４号,,13,114,1650023,,,2024-11-01,合併による解散等,8011203003624,令和６年１１月１日東京都中野区江原町二丁目２１番７－５０４号松山合同会社（8011203003624）に合併し解散,2022-05-27,1,,,,,カツラギ,0
2358,9011803003031,登記記録の閉鎖等,0,2024-11-07,2024-10-30,合同会社ふじきよ,,合同会社,東京都,足立区,新田３丁目２番７号,,13,121,1230865,,,2024-10-30,清算の結了等,,,2017-09-15,1,,,,,フジキヨ,0
2361,9012402023593,登記記録の閉鎖等,0,2024-11-07,2024-10-08,有限会社地盤エンジニアリング,,有限会社,東京都,目黒区,目黒本町１丁目１３番９号－００７,,13,110,1520002,,,2024-10-08,清算の結了等,,,2015-10-05,1,,,,,ジバンエンジニアリング,0
2365,9012802000614,登記記録の閉鎖等,0,2024-11-07,2024-10-23,有限会社カネコ靴店,,有限会社,東京都,日野市,大字日野７７７３番地の１６９,,13,212,1910012,,,2024-10-23,清算の結了等,,,2015-10-05,1,,,,,カネコクツテン,0
2373,9020002013205,登記記録の閉鎖等,0,2024-11-07,2024-10-18,有限会社米山鍍金工業,,有限会社,神奈川県,横浜市戸塚区,柏尾町４２８番地,,14,110,2440812,,,2024-10-18,清算の結了等,,,2015-10-05,1,,,,,,0
2386,9050002022302,登記記録の閉鎖等,0,2024-11-07,2024-10-22,有限会社ロイヤル・ケイ企画,,有限会社,茨城県,つくば市,柴崎４８１番地,,08,220,3050004,,,2024-10-22,清算の結了等,,,2015-10-05,1,,,,,ロイヤルケイキカク,0
2387,9050002038959,登記記録の閉鎖等,0,2024-11-07,2024-10-30,有限会社オカダ貿易,,有限会社,茨城県,守谷市,薬師台３丁目８番地６,,08,224,3020105,,,2024-10-30,清算の結了等,,,2015-10-05,1,,,,,オカダボウエキ,0
2391,9060002032283,登記記録の閉鎖等,0,2024-11-07,2024-10-31,有限会社高久総合研究所,,有限会社,栃木県,栃木市,千塚町２２３番地,,09,203,3280135,,,2024-10-31,清算の結了等,,,2015-10-05,1,,,,,タカクソウゴウケンキュウジョ,0
2401,9080402018368,登記記録の閉鎖等,0,2024-11-07,2024-11-05,有限会社リバーＵＰ,,有限会社,静岡県,掛川市,城下４番地の６,,22,213,4360091,,,2024-11-05,清算の結了等,,,2015-10-05,1,,,,,リバーアップ,0
2410,9110001024747,登記記録の閉鎖等,0,2024-11-07,2024-11-01,株式会社生活情報新聞社,,株式会社,新潟県,長岡市,喜多町３８６番地,,15,202,9402121,,,2024-11-01,合併による解散等,4110001024784,令和６年１１月１日新潟県長岡市喜多町３８６番地株式会社まるごとメディア新潟（4110001024784）に合併し解散,2015-10-05,1,,,,,セイカツジョウホウシンブンシャ,0
2436,9120102014497,登記記録の閉鎖等,0,2024-11-07,2024-11-01,有限会社ヒロ精機,,有限会社,大阪府,松原市,北新町３丁目２番４３号,,27,217,5800025,,,2024-11-01,清算の結了等,,,2015-10-05,1,,,,,ヒロセイキ,0
2444,9130001036261,登記記録の閉鎖等,0,2024-11-07,2024-11-01,株式会社オータ製作所,,株式会社,京都府,宇治市,槇島町千足４３番地,,26,204,6110041,,,2024-11-01,清算の結了等,,,2015-10-05,1,,,,,オータセイサクショ,0
2455,9140002027589,登記記録の閉鎖等,0,2024-11-07,2024-10-31,有限会社あつすみフーズ,,有限会社,兵庫県,神戸市灘区,楠丘町４丁目５番８号,,28,102,6570024,,,2024-10-31,清算の結了等,,,2015-10-05,1,,,,,アツスミフーズ,0
2459,9150001016971,登記記録の閉鎖等,0,2024-11-07,2024-10-10,ハピラボ株式会社,,株式会社,東京都,渋谷区,神宮前３丁目３５番１９号バティマン・イケダ４Ｆ,,13,113,1500001,,,2024-10-10,清算の結了等,,,2015-10-05,1,,,,,ハピラボ,0
2465,9160005000401,登記記録の閉鎖等,0,2024-11-07,2024-10-01,湖南漁業協同組合,,その他の設立登記法人,滋賀県,大津市,栄町２２番１５号,,25,201,5200855,,,2024-10-01,合併による解散等,7160005011350,令和６年１０月１日堅田漁業協同組合（2160005000399）、大津漁業協同組合（5160005000396）、瀬田町漁業協同組合（5160005000405）、山田漁業協同組合（8160005008429）、志那漁業協同組合（9160005008428）、玉津小津漁業協同組合（7160005008867）、中主漁業協同組合（6160005008868）、近江八幡漁業協同組合（6160005006830）、彦根市松原漁業協同組合（7160005004858）、広野漁業協同組合（5160005004868）、長浜漁業協同組合（5160005003250）、南浜漁業協同組合（4160005003251）、海津漁業協同組合（1160005007528）、浜分漁業協同組合（6160005007531）、三和漁業協同組合（1160005007536）と合併して滋賀びわ湖漁業協同組合（7160005011350）を設立し解散,2015-10-05,1,,,,,コナン,0
2467,9160005008428,登記記録の閉鎖等,0,2024-11-07,2024-10-01,志那漁業協同組合,,その他の設立登記法人,滋賀県,草津市,志那町１４３６番地の２,,25,206,5250005,,,2024-10-01,合併による解散等,7160005011350,令和６年１０月１日堅田漁業協同組合（2160005000399）、大津漁業協同組合（5160005000396）、湖南漁業協同組合（9160005000401）、瀬田町漁業協同組合（5160005000405）、山田漁業協同組合（8160005008429）、玉津小津漁業協同組合（7160005008867）、中主漁業協同組合（6160005008868）、近江八幡漁業協同組合（6160005006830）、彦根市松原漁業協同組合（7160005004858）、広野漁業協同組合（5160005004868）、長浜漁業協同組合（5160005003250）、南浜漁業協同組合（4160005003251）、海津漁業協同組合（1160005007528）、浜分漁業協同組合（6160005007531）、三和漁業協同組合（1160005007536）と合併して滋賀びわ湖漁業協同組合（7160005011350）を設立し解散,2015-10-05,1,,,,,シナ,0
2470,9180001120993,登記記録の閉鎖等,0,2024-11-07,2024-10-25,森本商會株式会社,,株式会社,愛知県,稲沢市,増田西町５１番地アムール宮崎３０１,,23,220,4928429,,,2024-10-25,清算の結了等,,,2015-11-17,1,,,,,モリモトショウカイ,0
2474,9180002022875,登記記録の閉鎖等,0,2024-11-07,2024-10-31,有限会社エリアサービスやまだ,,有限会社,愛知県,名古屋市西区,枇杷島３丁目１９番３０号,,23,104,4510053,,,2024-10-31,清算の結了等,,,2015-10-05,1,,,,,エリアサービスヤマダ,0
2480,9180302000449,登記記録の閉鎖等,0,2024-11-07,2024-11-01,有限会社エス．ビー．ケー,,有限会社,愛知県,岡崎市,洞町字五位原５９番地,,23,202,4440008,,,2024-11-01,合併による解散等,3180302001601,令和６年１１月１日愛知県岡崎市藤川町字黒土６６番地株式会社エス・ビー・ケー（3180302001601）に合併し解散,2015-10-05,1,,,,,エスビーケー,0
2493,9220005002309,登記記録の閉鎖等,0,2024-11-07,2024-09-24,宗教法人エホバの証人の野々市町横宮会衆,,その他の設立登記法人,石川県,金沢市,八日市１丁目７６４番地,,17,201,9218064,,,2024-09-24,合併による解散等,3220005004426,令和６年９月２４日石川県野々市市新庄一丁目７９番地２宗教法人エホバの証人の石川県白山市鶴来会衆（3220005004426）に合併し解散,2015-10-05,1,,,,,エホバノショウニンノノノイチマチヨコミヤカイシュウ,0
2494,9230001007491,登記記録の閉鎖等,0,2024-11-07,2024-11-01,興和建設株式会社,,株式会社,富山県,下新川郡入善町,上飯野１２２８番地,,16,342,9390653,,,2024-11-01,合併による解散等,4230002008361,令和６年１１月１日富山県下新川郡入善町板屋１７１番地２日本海建設運輸株式会社（4230002008361）に合併し解散,2015-10-05,1,,,,,コウワケンセツ,0
2510,9290002037763,登記記録の閉鎖等,0,2024-11-07,2024-11-05,有限会社テイケン,,有限会社,福岡県,福岡市早良区,西新１丁目７番１０号,,40,137,8140002,,,2024-11-05,合併による解散等,3290001091643,令和６年１１月２日福岡市早良区曙一丁目１番１３－１０１号ヴィレッジヒルズＡ棟株式会社マインズ（3290001091643）に合併し解散,2015-10-05,1,,,,,テイケン,0
2513,9300005004998,登記記録の閉鎖等,0,2024-11-07,2024-11-05,特定非営利活動法人たんぽぽ,,その他の設立登記法人,佐賀県,三養基郡みやき町,大字東尾２７５１番地２,,41,346,8490113,,,2024-11-05,清算の結了等,,,2015-10-05,1,,,,,タンポポ,0
2515,9320005001168,登記記録の閉鎖等,0,2024-11-07,2024-11-05,府内金属加工協同組合,,その他の設立登記法人,大分県,大分市,大字下郡３１３６番地の６,,44,201,8700951,,,2024-11-05,清算の結了等,,,2015-10-05,1,,,,,フナイキンゾクカコウキョウドウクミアイ,0
2536,9430002051881,登記記録の閉鎖等,0,2024-11-07,2024-10-31,有限会社大友商会,,有限会社,北海道,空知郡奈井江町,字奈江原野２２５４番地４２,,01,424,0790300,,,2024-10-31,清算の結了等,,,2015-10-05,1,,,,,オオトモショウカイ,0
2537,9430002061690,登記記録の閉鎖等,0,2024-11-07,2024-10-31,有限会社日本砂利工業,,有限会社,北海道,日高郡新ひだか町,静内御幸町４丁目２番１０号,,01,610,0560017,,,2024-10-31,清算の結了等,,,2015-10-05,1,,,,,ニホンジャリコウギョウ,0
