sequenceNumber,corporateNumber,process,correct,updateDate,changeDate,name,nameImageId,kind,prefectureName,cityName,streetNumber,addressImageId,prefectureCode,cityCode,postCode,addressOutside,addressOutsideImageId,closeDate,closeCause,successorCorporateNumber,changeCause,assignmentDate,latest,enName,enPrefectureName,enCityName,enAddressOutside,furigana,hihyoji
4,1010001107247,登記記録の閉鎖等,0,2021-12-08,2021-12-01,株式会社エー・エム・ファンド・マネジメント,,株式会社,東京都,千代田区,内幸町１丁目５番２号,,13,101,1000011,,,2021-12-01,清算の結了等,,,2015-10-05,1,,,,,エーエムファンドマネジメント,0
28,1010805002577,登記記録の閉鎖等,0,2021-12-08,2021-12-01,一般社団法人農産物パレット推進協議会,,その他の設立登記法人,東京都,大田区,東海３丁目２番１号,,13,111,1430001,,,2021-12-01,清算の結了等,,,2018-08-07,1,,,,,ノウサンブツパレットスイシンキョウギカイ,0
48,1011101045460,登記記録の閉鎖等,0,2021-12-08,2021-12-02,株式会社ピーアールビジョン,,株式会社,東京都,新宿区,西新宿６丁目５番１号新宿アイランドタワーモバフ２０Ｆ,,13,104,1600023,,,2021-12-02,清算の結了等,,,2015-10-05,1,,,,,ピーアールビジョン,0
54,1011301014199,登記記録の閉鎖等,0,2021-12-08,2021-12-02,株式会社アトランティス,,株式会社,東京都,杉並区,宮前３丁目１５番２４－１２０号,,13,115,1680081,,,2021-12-02,清算の結了等,,,2015-10-05,1,,,,,アトランティス,0
65,1012401021473,登記記録の閉鎖等,0,2021-12-08,2021-12-03,コムクリエイト株式会社,,株式会社,東京都,国立市,西１丁目７番地の８,,13,215,1860005,,,2021-12-03,清算の結了等,,,2015-10-05,1,,,,,,0
91,1021002066092,登記記録の閉鎖等,0,2021-12-08,2021-12-03,日東プレス工業有限会社,,有限会社,神奈川県,横須賀市,内川１丁目８番２０号,,14,201,2390836,,,2021-12-03,清算の結了等,,,2015-10-05,1,,,,,ニットウプレスコウギョウ,0
96,1030001041353,登記記録の閉鎖等,0,2021-12-08,2021-12-03,株式会社三愛,,株式会社,埼玉県,上尾市,大字領家６１番地１,,11,219,3620066,,,2021-12-03,清算の結了等,,,2015-10-05,1,,,,,サンアイ,0
110,1030002041798,登記記録の閉鎖等,0,2021-12-08,2021-12-02,有限会社高鳥製作所,,有限会社,埼玉県,羽生市,大字須影４３７番地,,11,216,3480033,,,2021-12-02,清算の結了等,,,2015-10-05,1,,,,,タカトリセイサクショ,0
121,1050001000241,登記記録の閉鎖等,0,2021-12-08,2021-12-01,株式会社茨城新聞アドセンター,,株式会社,茨城県,水戸市,笠原町９７８番２５茨城県開発公社ビル,,08,201,3100852,,,2021-12-01,合併による解散等,6050001037106,令和３年１２月１日茨城県水戸市笠原町９７８番地２５茨城県開発公社ビル株式会社茨城新聞社（6050001037106）に合併し解散,2015-10-05,1,,,,,イバラキシンブンシャアドセンター,0
135,1080402016107,登記記録の閉鎖等,0,2021-12-08,2021-12-02,有限会社相澤建築,,有限会社,静岡県,浜松市北区,三ヶ日町都筑１０３番地,,22,135,4311402,,,2021-12-02,清算の結了等,,,2015-10-05,1,,,,,アイザワケンチク,0
157,1120002011494,登記記録の閉鎖等,0,2021-12-08,2021-12-02,有限会社谷山製作所,,有限会社,大阪府,大阪市平野区,長吉出戸７丁目３番１２号,,27,126,5470011,,,2021-12-02,清算の結了等,,,2015-10-05,1,,,,,タニヤマセイサクジョ,0
168,1140001015395,登記記録の閉鎖等,0,2021-12-08,2021-12-06,株式会社ホーム,,株式会社,兵庫県,神戸市北区,惣山町５丁目９番地の６,,28,109,6511145,,,2021-12-06,合併による解散等,1120001103433,令和３年１２月１日大阪市北区豊崎三丁目３番１３号株式会社ニチホス（1120001103433）に合併し解散,2015-10-05,1,,,,,ホーム,0
198,1190002007255,登記記録の閉鎖等,0,2021-12-08,2021-12-06,有限会社山中建設,,有限会社,三重県,鈴鹿市,国府町２２００番地の１９４,,24,207,5130836,,,2021-12-06,清算の結了等,,,2015-10-05,1,,,,,ヤマナカケンセツ,0
220,1300002008068,登記記録の閉鎖等,0,2021-12-08,2021-12-03,有限会社藤森石油,,有限会社,佐賀県,伊万里市,波多津町辻５２１番地３,00095353,41,205,8480101,,,2021-12-03,清算の結了等,,,2015-10-05,1,,,,,フジモリセキユ,0
264,1430001075807,登記記録の閉鎖等,0,2021-12-08,2021-12-06,株式会社リード,,株式会社,北海道,札幌市中央区,南一条西１丁目１５番地３,,01,101,0600061,,,2021-12-06,清算の結了等,,,2018-01-29,1,,,,,リード,0
269,1430002065030,登記記録の閉鎖等,0,2021-12-08,2021-12-02,有限会社めもりある,,有限会社,北海道,室蘭市,寿町３丁目３番２号,,01,205,0500082,,,2021-12-02,合併による解散等,5430001053461,令和３年１２月１日北海道苫小牧市双葉町三丁目２５番１３号株式会社めもりある雲上閣（5430001053461）に合併し解散,2015-10-05,1,,,,,メモリアル,0
271,1430003005002,登記記録の閉鎖等,0,2021-12-08,2021-12-03,合同会社グレイスミル麻生,,合同会社,北海道,札幌市中央区,南五条西１１丁目１２８８番地１３,,01,101,0640805,,,2021-12-03,合併による解散等,1430003004895,令和３年１２月１日札幌市豊平区西岡一条四丁目４番１３号合同会社山森マザーファンド（1430003004895）に合併し解散,2015-10-05,1,,,,,グレイスミルアサオ,0
298,2010002027261,登記記録の閉鎖等,0,2021-12-08,2021-12-03,有限会社ティーアンドシープランニング,,有限会社,神奈川県,横浜市緑区,十日市場町１５０１番地,,14,113,2260025,,,2021-12-03,清算の結了等,,,2015-10-05,1,,,,,ティーアンドシープランニング,0
328,2010903000589,登記記録の閉鎖等,0,2021-12-08,2021-12-06,合資会社エイ・エス・メディカルサービス,,合資会社,東京都,世田谷区,代田５丁目１６番８号,,13,112,1550033,,,2021-12-06,清算の結了等,,,2015-10-05,1,,,,,エイエスメディカルサービス,0
346,2011101079474,登記記録の閉鎖等,0,2021-12-08,2021-12-06,ボンドジョブ株式会社,,株式会社,東京都,豊島区,池袋２丁目４７番５号,,13,116,1710014,,,2021-12-06,合併による解散等,3011101071876,令和３年１２月１日東京都新宿区新宿一丁目８番１号株式会社ＡＭＩＣＵＳ（3011101071876）に合併し解散,2017-02-06,1,,,,,ボンドジョブ,0
349,2011102018877,登記記録の閉鎖等,0,2021-12-08,2021-12-06,有限会社メディカルネットコム,,有限会社,東京都,世田谷区,成城６丁目１７番１４号,,13,112,1570066,,,2021-12-06,清算の結了等,,,2015-10-05,1,,,,,メディカルネットコム,0
356,2011302009742,登記記録の閉鎖等,0,2021-12-08,2021-12-02,有限会社吉原会計,,有限会社,東京都,杉並区,上荻１丁目１１番３号,,13,115,1670043,,,2021-12-02,清算の結了等,,,2015-10-05,1,,,,,ヨシハラカイケイ,0
365,2012401038517,登記記録の閉鎖等,0,2021-12-08,2021-12-01,プラネットエアコン株式会社,,株式会社,東京都,調布市,深大寺町２５６２番地,,13,208,,,,2021-12-01,清算の結了等,,,2021-11-16,1,,,,,プラネットエアコン,0
373,2020002034059,登記記録の閉鎖等,0,2021-12-08,2021-12-02,シーアイイー有限会社,,有限会社,神奈川県,横浜市港北区,篠原西町３６番５号,,14,109,2220025,,,2021-12-02,清算の結了等,,,2015-10-05,1,,,,,シーアイイー,0
374,2020002092585,登記記録の閉鎖等,0,2021-12-08,2021-12-03,有限会社多摩菅工業所,,有限会社,神奈川県,川崎市多摩区,菅北浦５丁目１番３５号,,14,135,2140008,,,2021-12-03,清算の結了等,,,2015-10-05,1,,,,,タマスゲコウギョウショ,0
378,2021001037713,登記記録の閉鎖等,0,2021-12-08,2021-12-03,株式会社内海工務店,,株式会社,神奈川県,中郡二宮町,二宮１０５６番地の１,,14,342,2590123,,,2021-12-03,清算の結了等,,,2015-10-05,1,,,,,ウツミコウムテン,0
390,2030001133083,登記記録の閉鎖等,0,2021-12-08,2021-12-03,株式会社篠田アセットマネジメント,,株式会社,埼玉県,越谷市,相模町５丁目１６番地,,11,222,3430823,,,2021-12-03,清算の結了等,,,2019-10-04,1,,,,,シノダアセットマネジメント,0
401,2040001068659,登記記録の閉鎖等,0,2021-12-08,2021-12-02,株式会社ビー・エス・コンサルティング,,株式会社,千葉県,柏市,塚崎９７７番地４２,,12,217,2770923,,,2021-12-02,清算の結了等,,,2015-10-05,1,,,,,ビーエスコンサルティング,0
413,2040002067197,登記記録の閉鎖等,0,2021-12-08,2021-12-02,有限会社拓建,,有限会社,千葉県,木更津市,八幡台５丁目１１番９号,,12,206,2920814,,,2021-12-02,清算の結了等,,,2015-10-05,1,,,,,タクケン,0
436,2070001006533,登記記録の閉鎖等,0,2021-12-08,2021-12-06,株式会社金井経営研究所,,株式会社,群馬県,高崎市,八千代町１丁目１２番５号,,10,202,3700861,,,2021-12-06,清算の結了等,,,2015-10-05,1,,,,,カナイケイエイケンキュウショ,0
449,2090001000377,登記記録の閉鎖等,0,2021-12-08,2021-12-06,株式会社長田電業社,,株式会社,山梨県,甲府市,七沢町５０２番地１７,,19,201,4000825,,,2021-12-06,清算の結了等,,,2015-10-05,1,,,,,オサダデンギョウシャ,0
459,2110002033860,登記記録の閉鎖等,0,2021-12-08,2021-12-02,有限会社リンクス,,有限会社,新潟県,魚沼市,青島１７３番地,,15,225,9460043,,,2021-12-02,清算の結了等,,,2015-10-05,1,,,,,リンクス,0
489,2140001035277,登記記録の閉鎖等,0,2021-12-08,2021-11-30,日栄産業株式会社,,株式会社,兵庫県,明石市,相生町２丁目８番２号,,28,203,6730882,,,2021-11-30,清算の結了等,,,2021-08-17,1,,,,,,0
524,2180301015446,登記記録の閉鎖等,0,2021-12-08,2021-12-01,西三河運輸株式会社,,株式会社,愛知県,碧南市,明石町７番地１９,,23,209,4470866,,,2021-12-01,合併による解散等,3180301015073,令和３年１２月１日愛知県碧南市山神町二丁目７２番地石橋建設興業株式会社（3180301015073）に合併し解散,2015-10-05,1,,,,,ニシミカワウンユ,0
534,2220001013778,登記記録の閉鎖等,0,2021-12-08,2021-12-03,株式会社あさひホーム,,株式会社,石川県,能美市,湯谷町甲３６番地,,17,211,9231104,,,2021-12-03,清算の結了等,,,2015-10-05,1,,,,,アサヒホーム,0
539,2220002016986,登記記録の閉鎖等,0,2021-12-08,2021-12-06,有限会社竹雄鉄工所,,有限会社,石川県,かほく市,高松ヲ２９番地３,,17,209,9291215,,,2021-12-06,清算の結了等,,,2015-10-05,1,,,,,タケオテッコウショ,0
550,2240002042007,登記記録の閉鎖等,0,2021-12-08,2021-12-06,有限会社冨田興業,,有限会社,広島県,福山市,手城町４丁目７番２－２０２,,34,207,7210966,,,2021-12-06,清算の結了等,,,2015-10-05,1,,,,,トミタコウギョウ,0
584,2390001001535,登記記録の閉鎖等,0,2021-12-08,2021-12-06,株式会社野村呉服店,,株式会社,山形県,山形市,七日町１丁目４番１６号,,06,201,9900042,,,2021-12-06,清算の結了等,,,2015-10-05,1,,,,,ノムラゴフクテン,0
605,3010001198458,登記記録の閉鎖等,0,2021-12-08,2021-12-01,株式会社ゼットウィル,,株式会社,東京都,中央区,八丁堀４丁目１４番７号,,13,102,1040032,,,2021-12-01,清算の結了等,,,2019-02-13,1,,,,,ゼットウィル,0
608,3010002024497,登記記録の閉鎖等,0,2021-12-08,2021-12-01,有限会社フィロインターナショナル,,有限会社,東京都,中央区,東日本橋２丁目２８番３号,,13,102,1030004,,,2021-12-01,清算の結了等,,,2015-10-05,1,,,,,フィロインターナショナル,0
615,3010401028966,登記記録の閉鎖等,0,2021-12-08,2021-11-26,宮本設備工事株式会社,,株式会社,東京都,港区,浜松町２丁目１番８号,,13,103,1050013,,,2021-11-26,清算の結了等,,,2015-10-05,1,,,,,ミヤモトセツビコウジ,0
655,3011701012239,登記記録の閉鎖等,0,2021-12-08,2021-12-03,富士急行観光株式会社,,株式会社,東京都,江戸川区,本一色２丁目２４番２６号,,13,123,1330044,,,2021-12-03,合併による解散等,8010401035990,令和３年１２月１日東京都港区芝浦四丁目２０番４７号株式会社フジエクスプレス（8010401035990）に合併し解散,2015-10-05,1,,,,,フジキュウコウカンコウ,0
664,3012402019011,登記記録の閉鎖等,0,2021-12-08,2021-12-03,有限会社尚美堂,,有限会社,東京都,三鷹市,井口４丁目１０番１１号,,13,204,1810011,,,2021-12-03,清算の結了等,,,2015-10-05,1,,,,,ショウビドウ,0
667,3012801004456,登記記録の閉鎖等,0,2021-12-08,2021-12-03,光洋商事株式会社,,株式会社,東京都,立川市,上砂町２丁目４３番地の１１キドビル４階,,13,202,1900032,,,2021-12-03,清算の結了等,,,2015-10-05,1,,,,,コウヨウショウジ,0
701,3030002033265,登記記録の閉鎖等,0,2021-12-08,2021-12-03,有限会社上原設備工業,,有限会社,埼玉県,狭山市,大字南入曽６９０番地の５,,11,215,3501316,,,2021-12-03,清算の結了等,,,2015-10-05,1,,,,,ウエハラセツビコウギョウ,0
709,3040001092336,登記記録の閉鎖等,0,2021-12-08,2021-12-03,株式会社ジーコット,,株式会社,千葉県,松戸市,松戸６１８番地の１,,12,207,2710092,,,2021-12-03,清算の結了等,,,2015-10-05,1,,,,,ジーコット,0
733,3100001026403,登記記録の閉鎖等,0,2021-12-08,2021-12-02,東信ガス株式会社,,株式会社,長野県,北佐久郡軽井沢町,大字追分５５６番地２,,20,321,3890115,,,2021-12-02,清算の結了等,,,2015-10-05,1,,,,,トウシンガス,0
741,3120001034206,登記記録の閉鎖等,0,2021-12-08,2021-12-03,アラタニ技建株式会社,,株式会社,大阪府,大阪市中央区,北浜東１番１２号,,27,128,5400031,,,2021-12-03,清算の結了等,,,2015-10-05,1,,,,,アラタニギケン,0
750,3120001156545,登記記録の閉鎖等,0,2021-12-08,2021-12-02,株式会社ヒノー技研,,株式会社,大阪府,守口市,東光町３丁目２番１５号,,27,209,5700035,,,2021-12-02,清算の結了等,,,2015-10-05,1,,,,,ヒノーギケン,0
770,3120101044039,登記記録の閉鎖等,0,2021-12-08,2021-12-02,角丸石油ガス株式会社,00032526,株式会社,大阪府,泉南市,樽井６丁目７番３号,,27,228,5900521,,,2021-12-02,清算の結了等,,,2015-10-05,1,,,,,カクマルセキユガス,0
791,3140001047833,登記記録の閉鎖等,0,2021-12-08,2021-12-06,株式会社エーシー,,株式会社,兵庫県,尼崎市,東大物町１丁目５番３０号,,28,202,6600828,,,2021-12-06,合併による解散等,1120001103433,令和３年１２月１日大阪市北区豊崎三丁目３番１３号株式会社ニチホス（1120001103433）に合併し解散,2015-10-05,1,,,,,エーシー,0
803,3180001021066,登記記録の閉鎖等,0,2021-12-08,2021-12-02,名木運輸株式会社,,株式会社,愛知県,名古屋市中川区,山王２丁目６番４１号,,23,110,4540011,,,2021-12-02,合併による解散等,9180001020450,令和３年１２月１日名古屋市中川区山王二丁目６番４１号名古屋木材株式会社（9180001020450）に合併し解散,2015-10-05,1,,,,,メイボクウンユ,0
822,3180305008833,登記記録の閉鎖等,0,2021-12-08,2021-12-02,一般社団法人ＢＬＯＯＭ,,その他の設立登記法人,愛知県,岡崎市,柱曙２丁目８番地３２ケントハイツＢ棟１０２,,23,202,4440833,,,2021-12-02,清算の結了等,,,2018-10-02,1,,,,,ブルーム,0
835,3230002010566,登記記録の閉鎖等,0,2021-12-08,2021-12-02,有限会社朝日マネジメント,,有限会社,富山県,高岡市,井口本江４９８番地の７,,16,202,9330807,,,2021-12-02,清算の結了等,,,2015-10-05,1,,,,,アサヒマネジメント,0
837,3240002001060,登記記録の閉鎖等,0,2021-12-08,2021-12-06,有限会社池商,,有限会社,広島県,広島市西区,中広町１丁目２０番８号,,34,104,7330012,,,2021-12-06,清算の結了等,,,2015-10-05,1,,,,,イケショウ,0
842,3250002017114,登記記録の閉鎖等,0,2021-12-08,2021-12-06,ひろの呉服店有限会社,,有限会社,山口県,光市,中央３丁目２番９号,,35,210,7430013,,,2021-12-06,清算の結了等,,,2015-10-05,1,,,,,ヒロノゴフクテン,0
846,3270001000374,登記記録の閉鎖等,0,2021-12-08,2021-11-29,第一道路施設株式会社,,株式会社,鳥取県,鳥取市,湖山町東３丁目６６番地,,31,201,6800942,,,2021-11-29,清算の結了等,,,2015-10-05,1,,,,,ダイイチドウロシセツ,0
855,3290003006178,登記記録の閉鎖等,0,2021-12-08,2021-12-01,合同会社Ｍ．Ｔコネクション,,合同会社,福岡県,糸島市,浦志１丁目５番１２号１Ｆ,,40,230,8191112,,,2021-12-01,合併による解散等,2290003008027,令和３年１２月１日福岡市中央区六本松二丁目６番５号２Ｆ合同会社Ｍ．Ｔグループ（2290003008027）に合併し解散,2015-12-08,1,,,,,エムティコネクション,0
861,3300002006391,登記記録の閉鎖等,0,2021-12-08,2021-12-02,有限会社杵島会館,,有限会社,佐賀県,佐賀市,久保田町大字徳万１６４７番地,,41,201,8490201,,,2021-12-02,清算の結了等,,,2015-10-05,1,,,,,キシマカイカン,0
883,3400002013345,登記記録の閉鎖等,0,2021-12-08,2021-12-06,有限会社中田社寺工匠,,有限会社,岩手県,九戸郡洋野町,種市第３５地割１０４番地５,,03,507,0287912,,,2021-12-06,清算の結了等,,,2015-10-05,1,,,,,ナカタシャジコウショウ,0
886,3420002014358,登記記録の閉鎖等,0,2021-12-08,2021-12-03,有限会社三上無線電気,,有限会社,青森県,弘前市,大字悪戸字中野３０番地１,,02,202,0368264,,,2021-12-03,清算の結了等,,,2015-10-05,1,,,,,ミカミムセンデンキ,0
887,3430001015182,登記記録の閉鎖等,0,2021-12-08,2021-12-03,ホクヤク株式会社,,株式会社,北海道,札幌市西区,山の手一条１丁目１番３７号,,01,107,0630001,,,2021-12-03,合併による解散等,3180301006221,令和３年１２月１日愛知県豊橋市白河町１００番地株式会社アスコ（3180301006221）に合併し解散,2015-10-05,1,,,,,ホクヤク,0
888,3430001057142,登記記録の閉鎖等,0,2021-12-08,2021-12-02,株式会社室蘭市民斎場雲上閣,,株式会社,北海道,室蘭市,寿町３丁目３番２号,,01,205,0500082,,,2021-12-02,合併による解散等,5430001053461,令和３年１２月１日北海道苫小牧市双葉町三丁目２５番１３号株式会社めもりある雲上閣（5430001053461）に合併し解散,2015-10-05,1,,,,,ムロランシミンサイジョウウンジョウカク,0
896,3430003005025,登記記録の閉鎖等,0,2021-12-08,2021-12-03,合同会社コリーナフォレスタ,,合同会社,北海道,札幌市中央区,南五条西１１丁目１２８８番地１３,,01,101,0640805,,,2021-12-03,合併による解散等,4430003005024,令和３年１２月１日札幌市中央区南五条西十一丁目１２８８番地１３合同会社サンテモンターニュ（4430003005024）に合併し解散,2015-10-05,1,,,,,コリーナフォレスタ,0
901,3460302004237,登記記録の閉鎖等,0,2021-12-08,2021-12-03,有限会社オグラ,,有限会社,北海道,網走市,潮見９丁目１４番３号,,01,211,0930042,,,2021-12-03,清算の結了等,,,2015-10-05,1,,,,,オグラ,0
905,3500002012411,登記記録の閉鎖等,0,2021-12-08,2021-12-06,有限会社三好工務店,,有限会社,愛媛県,西予市,宇和町稲生１４４番地,,38,214,7970013,,,2021-12-06,清算の結了等,,,2015-10-05,1,,,,,ミヨシコウムテン,0
923,4010401105434,登記記録の閉鎖等,0,2021-12-08,2021-12-01,Ｃｉｇａｒｒｏ　Ｊａｐａｎ株式会社,,株式会社,東京都,港区,港南２丁目１３番３４号,,13,103,1080075,,,2021-12-01,合併による解散等,9021001023252,令和３年１２月１日東京都港区港南二丁目１３番３４号Ｓｏｎｏｔａｓ株式会社（9021001023252）に合併し解散,2015-10-05,1,,,,,シガロジャパン,0
927,4010401134152,登記記録の閉鎖等,0,2021-12-08,2021-12-01,株式会社ＦＡＳＴＥＣＨ＆ＳＯＬＵＴＩＯＮＳ,,株式会社,東京都,港区,北青山３丁目５番１０号,,13,103,1070061,,,2021-12-01,清算の結了等,,,2017-10-10,1,,,,,ファステックアンドソリューションズ,0
935,4010503003908,登記記録の閉鎖等,0,2021-12-08,2021-12-03,バイオテック・ジャパン合同会社,,合同会社,東京都,台東区,台東２丁目７番１号,,13,106,1100016,,,2021-12-03,合併による解散等,4010101000191,令和３年１２月１日東京都八王子市高倉町９番１号アジレント・テクノロジー株式会社（4010101000191）に合併し解散,2015-10-05,1,,,,,バイオテックジャパン,0
947,4010801012627,登記記録の閉鎖等,0,2021-12-08,2021-12-02,株式会社璃夢,,株式会社,東京都,大田区,上池台４丁目２番１４号,,13,111,1450064,,,2021-12-02,清算の結了等,,,2015-10-05,1,,,,,リム,0
948,4010802009688,登記記録の閉鎖等,0,2021-12-08,2021-12-02,有限会社テーラーロイヤル,,有限会社,東京都,大田区,田園調布５丁目４０番３号,,13,111,1450071,,,2021-12-02,清算の結了等,,,2015-10-05,1,,,,,テーラーロイヤル,0
969,4011401016976,登記記録の閉鎖等,0,2021-12-08,2021-11-29,株式会社柴崎電器商会,,株式会社,東京都,板橋区,向原１丁目１１番６号,,13,119,1730036,,,2021-11-29,清算の結了等,,,2015-10-05,1,,,,,シバザキデンキショウカイ,0
974,4011602002800,登記記録の閉鎖等,0,2021-12-08,2021-12-06,有限会社河上自動車,,有限会社,東京都,練馬区,土支田１丁目１３番１２号,,13,120,1790076,,,2021-12-06,清算の結了等,,,2015-10-05,1,,,,,カワカミジドウシャ,0
982,4011801031484,登記記録の閉鎖等,0,2021-12-08,2021-11-30,株式会社ＣＳＭ　ＭＡＲＣＯ,,株式会社,東京都,墨田区,太平１丁目２０番７号太平町ビル６階,,13,107,1300012,,,2021-11-30,清算の結了等,,,2016-03-07,1,,,,,シーエスエムマルコ,0
998,4020001061077,登記記録の閉鎖等,0,2021-12-08,2021-12-03,ＨＡＮＡ２１株式会社,,株式会社,神奈川県,横浜市中区,新山下１丁目１４番１－６３３号,,14,104,2310801,,,2021-12-03,清算の結了等,,,2015-10-05,1,,,,,ハナニジュウイチ,0
1017,4030001119626,登記記録の閉鎖等,0,2021-12-08,2021-12-02,株式会社ファング,,株式会社,埼玉県,熊谷市,曙町４丁目１０１番地曙町第三ビル３階,,11,202,3600033,,,2021-12-02,清算の結了等,,,2017-04-11,1,,,,,ファング,0
1018,4030001121870,登記記録の閉鎖等,0,2021-12-08,2021-12-02,株式会社伽羅,,株式会社,埼玉県,本庄市,小島１丁目８番２７号,,11,211,3670061,,,2021-12-02,清算の結了等,,,2017-08-23,1,,,,,キャラ,0
1021,4030002049517,登記記録の閉鎖等,0,2021-12-08,2021-12-01,有限会社中村コーポレーション,,有限会社,埼玉県,三郷市,新和５丁目１４１番地,,11,237,3410034,,,2021-12-01,清算の結了等,,,2015-10-05,1,,,,,ナカムラコーポレーション,0
1022,4030002066875,登記記録の閉鎖等,0,2021-12-08,2021-12-03,有限会社Ｉ　ｃｏｒｐｏｒａｔｉｏｎ,,有限会社,埼玉県,新座市,栗原３丁目６番２７号,,11,230,3520035,,,2021-12-03,清算の結了等,,,2015-10-05,1,,,,,,0
1023,4030002112902,登記記録の閉鎖等,0,2021-12-08,2021-12-03,有限会社大倉家具店,,有限会社,埼玉県,熊谷市,弥生２丁目６２番地,,11,202,3600044,,,2021-12-03,清算の結了等,,,2015-10-05,1,,,,,ダイクラカグテン,0
1032,4040002059936,登記記録の閉鎖等,0,2021-12-08,2021-12-03,有限会社シオメテクノプラン,,有限会社,千葉県,四街道市,鷹の台４丁目１９番９号,,12,228,2840033,,,2021-12-03,清算の結了等,,,2015-10-05,1,,,,,シオメテクノプラン,0
1048,4100003004967,登記記録の閉鎖等,0,2021-12-08,2021-12-03,合同会社結乃心,,合同会社,長野県,岡谷市,長地源２丁目７－１９チェリーハイツ１０３,,20,204,3940086,,,2021-12-03,清算の結了等,,,2018-04-17,1,,,,,ユイノココロ,0
1052,4120001003151,登記記録の閉鎖等,0,2021-12-08,2021-12-06,株式会社金谷鉄工所,,株式会社,大阪府,大阪市西成区,南津守６丁目５番１３号,,27,122,5570063,,,2021-12-06,清算の結了等,,,2015-10-05,1,,,,,カナヤテッコウショ,0
1070,4120002022729,登記記録の閉鎖等,0,2021-12-08,2021-12-03,有限会社ネクストワン,,有限会社,大阪府,大阪市西区,北堀江１丁目１６番７号,,27,106,5500014,,,2021-12-03,清算の結了等,,,2015-10-05,1,,,,,ネクストワン,0
1083,4140001011994,登記記録の閉鎖等,0,2021-12-08,2021-12-06,株式会社神戸新通,,株式会社,兵庫県,神戸市中央区,多聞通２丁目４番４号,,28,110,6500015,,,2021-12-06,合併による解散等,6130001021167,令和３年１１月３０日京都市中京区車屋町通夷川上ル少将井御旅町３６３番地株式会社新通（6130001021167）に合併し解散,2015-10-05,1,,,,,コウベシンツウ,0
1085,4140001069406,登記記録の閉鎖等,0,2021-12-08,2021-12-03,株式会社多田アパレル,,株式会社,兵庫県,西宮市,鷲林寺１丁目３番３号,,28,204,6620004,,,2021-12-03,清算の結了等,,,2015-10-05,1,,,,,タダアパレル,0
1086,4140001070776,登記記録の閉鎖等,0,2021-12-08,2021-12-03,株式会社ラ・フィーネ,,株式会社,兵庫県,西宮市,鷲林寺１丁目３番３号,,28,204,6620004,,,2021-12-03,清算の結了等,,,2015-10-05,1,,,,,ラフィーネ,0
1092,4150001015342,登記記録の閉鎖等,0,2021-12-08,2021-12-06,株式会社エステイトライズ,,株式会社,奈良県,北葛城郡広陵町,大字弁財天１９番１,,29,426,6350811,,,2021-12-06,清算の結了等,,,2015-10-05,1,,,,,エステイトライズ,0
1116,4200002001559,登記記録の閉鎖等,0,2021-12-08,2021-12-06,有限会社グリーンライン,,有限会社,岐阜県,岐阜市,中問屋町四丁目３番地,,21,201,5011173,,,2021-12-06,清算の結了等,,,2015-10-05,1,,,,,グリーンライン,0
1119,4210002001145,登記記録の閉鎖等,0,2021-12-08,2021-12-01,有限会社共栄タクシー,,有限会社,福井県,福井市,月見４丁目２番１２号,,18,201,9188011,,,2021-12-01,合併による解散等,3210001014041,令和３年１２月１日福井県小浜市千種二丁目１番１３号三福タクシー株式会社（3210001014041）に合併し解散,2015-10-05,1,,,,,キョウエイタクシー,0
1122,4220001018247,登記記録の閉鎖等,0,2021-12-08,2021-12-03,株式会社のとじまファーム,,株式会社,石川県,七尾市,能登島閨町壱壱３番１,,17,202,9260222,,,2021-12-03,清算の結了等,,,2015-10-05,1,,,,,ノトジマファーム,0
1124,4240001035686,登記記録の閉鎖等,0,2021-12-08,2021-12-03,株式会社笑顔と真・報連相センター,,株式会社,広島県,福山市,西町２丁目１０番１号福山商工会議所ビル６階,,34,207,7200067,,,2021-12-03,清算の結了等,,,2015-10-05,1,,,,,エガオトシンホウレンソウセンター,0
1152,4300001003793,登記記録の閉鎖等,0,2021-12-08,2021-12-02,株式会社杉山鉱業,,株式会社,佐賀県,佐賀市,富士町大字杉山１９６番地の１,,41,201,8400502,,,2021-12-02,清算の結了等,,,2015-10-05,1,,,,,スギヤマコウギョウ,0
1154,4310002014748,登記記録の閉鎖等,0,2021-12-08,2021-12-06,エムアンドワイ有限会社,,有限会社,長崎県,佐世保市,横尾町４８番地,,42,202,8570018,,,2021-12-06,清算の結了等,,,2015-10-05,1,,,,,エムアンドワイ,0
1180,4430001024752,登記記録の閉鎖等,0,2021-12-08,2021-12-06,株式会社佐藤宝石研究所,,株式会社,北海道,札幌市白石区,北郷二条４丁目４６８番地２６４,,01,104,0030832,,,2021-12-06,清算の結了等,,,2015-10-05,1,,,,,サトウホウセキケンキュウジョ,0
1182,4430001051490,登記記録の閉鎖等,0,2021-12-08,2021-12-06,株式会社ＦＵＪＩＢＯ,,株式会社,北海道,小樽市,桜１丁目１９番１１号,,01,203,0470156,,,2021-12-06,清算の結了等,,,2015-10-05,1,,,,,フジボ,0
1189,4430003005008,登記記録の閉鎖等,0,2021-12-08,2021-12-03,合同会社イーストポルトＮ１４,,合同会社,北海道,札幌市中央区,南五条西１１丁目１２８８番地１３,,01,101,0640805,,,2021-12-03,合併による解散等,1430003004895,令和３年１２月１日札幌市豊平区西岡一条四丁目４番１３号合同会社山森マザーファンド（1430003004895）に合併し解散,2015-10-05,1,,,,,イーストポルトエヌジュウヨン,0
1192,4470001008702,登記記録の閉鎖等,0,2021-12-08,2021-12-03,株式会社ナノテック,,株式会社,香川県,丸亀市,綾歌町富熊５０５０番地１５,,37,202,7612407,,,2021-12-03,清算の結了等,,,2015-10-05,1,,,,,,0
1193,4500001000036,登記記録の閉鎖等,0,2021-12-08,2021-12-06,株式会社ビッグマート,,株式会社,愛媛県,松山市,中島大浦１６１３番地８,,38,201,7914501,,,2021-12-06,清算の結了等,,,2015-10-05,1,,,,,ビッグマート,0
1198,5010001023044,登記記録の閉鎖等,0,2021-12-08,2021-12-01,株式会社エフアンドビー,,株式会社,東京都,千代田区,神田錦町３丁目１７番地,,13,101,1010054,,,2021-12-01,清算の結了等,,,2015-10-05,1,,,,,エフアンドビー,0
1201,5010001041970,登記記録の閉鎖等,0,2021-12-08,2021-12-01,株式会社グランドウエアー,,株式会社,東京都,中央区,日本橋馬喰町２丁目３番１１号,,13,102,1030002,,,2021-12-01,合併による解散等,7010001220903,令和３年１２月１日東京都中央区日本橋馬喰町二丁目３番１１号穂高ホールディングス株式会社（7010001220903）に合併し解散,2015-10-05,1,,,,,グランドウエアー,0
1208,5010101007616,登記記録の閉鎖等,0,2021-12-08,2021-12-01,株式会社Ｅｉｇｈｔ－ＯＧ,,株式会社,東京都,八王子市,長沼町１０７７番地２０,,13,201,1920907,,,2021-12-01,合併による解散等,5010101009843,令和３年１２月１日東京都八王子市長沼町１０７７番地２０株式会社無限（5010101009843）に合併し解散,2015-10-05,1,,,,,エイトオージー,0
1234,5010901011412,登記記録の閉鎖等,0,2021-12-08,2021-12-06,株式会社マネー・マーケット社,,株式会社,東京都,世田谷区,等々力４丁目１１番１号,,13,112,1580082,,,2021-12-06,清算の結了等,,,2015-10-05,1,,,,,マネーマーケットシャ,0
1235,5010901015306,登記記録の閉鎖等,0,2021-12-08,2021-12-06,武総株式会社,,株式会社,東京都,世田谷区,松原１丁目４６番９号,,13,112,1560043,,,2021-12-06,清算の結了等,,,2015-10-05,1,,,,,ブソウ,0
1254,5011103009385,登記記録の閉鎖等,0,2021-12-08,2021-12-03,住環境開発合同会社,,合同会社,東京都,中央区,銀座１丁目８番７号,,13,102,1040061,,,2021-12-03,清算の結了等,,,2020-01-15,1,,,,,ジュウカンキョウカイハツ,0
1260,5011303003155,登記記録の閉鎖等,0,2021-12-08,2021-12-01,ｋｍ５合同会社,,合同会社,東京都,杉並区,高円寺南５丁目４０番２２号,,13,115,1660003,,,2021-12-01,清算の結了等,,,2018-10-29,1,,,,,ケイエムファイブ,0
1267,5012401021445,登記記録の閉鎖等,0,2021-12-08,2021-12-06,株式会社リンバーズ,,株式会社,東京都,三鷹市,牟礼２丁目１４番１２号パークレジデンス三鷹Ｃ－１,,13,204,1810002,,,2021-12-06,清算の結了等,,,2015-10-05,1,,,,,,0
1270,5012402003153,登記記録の閉鎖等,0,2021-12-08,2021-11-24,有限会社石佳和有建設,,有限会社,東京都,国分寺市,泉町３丁目３５番１－１１０３号西国分寺レガ,,13,214,1850024,,,2021-11-24,清算の結了等,,,2015-10-05,1,,,,,イシカワユウケンセツ,0
1286,5020002003630,登記記録の閉鎖等,0,2021-12-08,2021-12-03,有限会社横浜ガス器具サービス,,有限会社,神奈川県,横浜市泉区,和泉町６２０５番地１グリーンハイムいずみ野３６棟２０５号,,14,116,2450016,,,2021-12-03,清算の結了等,,,2015-10-05,1,,,,,ヨコハマガスキグサービス,0
1287,5020002094323,登記記録の閉鎖等,0,2021-12-08,2021-12-03,有限会社コクリン,,有限会社,神奈川県,川崎市麻生区,金程３丁目９番５号,,14,137,2150006,,,2021-12-03,清算の結了等,,,2015-10-05,1,,,,,コクリン,0
1290,5020003017456,登記記録の閉鎖等,0,2021-12-08,2021-12-03,合同会社ＳＴＯＣＫ,,合同会社,神奈川県,横浜市磯子区,森１丁目１５番１号第一磯子ハイツ４１７,,14,107,2350023,,,2021-12-03,清算の結了等,,,2020-03-06,1,,,,,ストック,0
1296,5021001008620,登記記録の閉鎖等,0,2021-12-08,2021-12-01,株式会社第一ホールディングス,,株式会社,神奈川県,茅ヶ崎市,元町３番２号,,14,207,2530043,,,2021-12-01,合併による解散等,2021001007063,令和３年１２月１日神奈川県茅ヶ崎市元町３番２号第一商亊株式会社（2021001007063）に合併し解散,2015-10-05,1,,,,,ダイイチホールディングス,0
1300,5021001044137,登記記録の閉鎖等,0,2021-12-08,2021-12-03,株式会社機能安全ネットワーク,,株式会社,神奈川県,横須賀市,小原台１０番８号,,14,201,2390812,,,2021-12-03,清算の結了等,,,2015-10-05,1,,,,,キノウアンゼンネットワーク,0
1303,5021002034987,登記記録の閉鎖等,0,2021-12-08,2021-12-03,サンアンドサン有限会社,,有限会社,神奈川県,伊勢原市,池端１８１番地,,14,214,2591144,,,2021-12-03,清算の結了等,,,2015-10-05,1,,,,,サンアンドサン,0
1309,5030001028990,登記記録の閉鎖等,0,2021-12-08,2021-12-03,株式会社Ｗ・ＷＩＮＤ,,株式会社,埼玉県,所沢市,大字山口７５７番地の５,,11,208,3591145,,,2021-12-03,清算の結了等,,,2015-10-05,1,,,,,ダブルウインド,0
1326,5040001045135,登記記録の閉鎖等,0,2021-12-08,2021-12-01,株式会社海豊水産,,株式会社,千葉県,市川市,幸２丁目１番２－１１１２号,,12,203,2720123,,,2021-12-01,清算の結了等,,,2015-10-05,1,,,,,,0
1358,5080101007502,登記記録の閉鎖等,0,2021-12-08,2021-12-03,ＩＣプラント株式会社,,株式会社,栃木県,宇都宮市,宝木本町１１８８番地８,,09,201,3200075,,,2021-12-03,清算の結了等,,,2015-10-05,1,,,,,アイシープラント,0
1359,5080401023975,登記記録の閉鎖等,0,2021-12-08,2021-12-02,株式会社ゼロイチ,,株式会社,静岡県,浜松市北区,細江町三和１３０番地の１６,,22,135,4311303,,,2021-12-02,清算の結了等,,,2019-11-07,1,,,,,ゼロイチ,0
1383,5120002059869,登記記録の閉鎖等,0,2021-12-08,2021-12-02,有限会社遠藤放射線,,有限会社,大阪府,大阪市淀川区,西宮原３丁目３番４の１５０８号,,27,123,5320004,,,2021-12-02,清算の結了等,,,2015-10-05,1,,,,,エンドウホウシャセン,0
1389,5120101037073,登記記録の閉鎖等,0,2021-12-08,2021-12-01,太陽精工株式会社,,株式会社,大阪府,岸和田市,臨海町１２番地の１９,,27,202,5960013,,,2021-12-01,合併による解散等,8120101036849,令和３年１２月１日大阪府岸和田市臨海町２０番地の２昭和精工株式会社（8120101036849）に合併し解散,2015-10-05,1,,,,,タイヨウセイコウ,0
1416,5180001058750,登記記録の閉鎖等,0,2021-12-08,2021-12-03,株式会社クリエイト,,株式会社,愛知県,名古屋市中区,丸の内３丁目８番３号,,23,106,4600002,,,2021-12-03,清算の結了等,,,2015-10-05,1,,,,,クリエイト,0
1419,5180001104892,登記記録の閉鎖等,0,2021-12-08,2021-12-03,株式会社ノアール,,株式会社,愛知県,丹羽郡扶桑町,大字高雄字下山４５８番地,,23,362,4800102,,,2021-12-03,清算の結了等,,,2015-10-05,1,,,,,ノアール,0
1423,5180002000380,登記記録の閉鎖等,0,2021-12-08,2021-12-03,有限会社勝田商店,,有限会社,愛知県,名古屋市守山区,西城１丁目２番５号,,23,113,4630084,,,2021-12-03,清算の結了等,,,2015-10-05,1,,,,,カツタショウテン,0
1424,5180002008762,登記記録の閉鎖等,0,2021-12-08,2021-12-03,有限会社ほがみ建設,,有限会社,愛知県,名古屋市千種区,千代田橋２丁目５番６－５０４号,,23,101,4640011,,,2021-12-03,清算の結了等,,,2015-10-05,1,,,,,ホガミケンセツ,0
1434,5190001007005,登記記録の閉鎖等,0,2021-12-08,2021-12-07,株式会社丸榮商店,,株式会社,三重県,伊勢市,宮後１丁目１番２４号,,24,203,5160072,,,2021-12-07,清算の結了等,,,2015-10-05,1,,,,,,0
1448,5250002014522,登記記録の閉鎖等,0,2021-12-08,2021-12-06,瓦谷運輸有限会社,,有限会社,山口県,周南市,大字徳山２７６５番地の３,,35,215,7450851,,,2021-12-06,清算の結了等,,,2015-10-05,1,,,,,カワラダニウンユ,0
1456,5290801020023,登記記録の閉鎖等,0,2021-12-08,2021-12-01,株式会社ネクスエイト,,株式会社,福岡県,北九州市小倉北区,京町３丁目１１番７号,,40,106,8020002,,,2021-12-01,合併による解散等,2290801002338,令和３年１２月１日北九州市小倉北区京町三丁目１１番２２号大八株式会社（2290801002338）に合併し解散,2015-10-05,1,,,,,ネクスエイト,0
1458,5300001003792,登記記録の閉鎖等,0,2021-12-08,2021-12-02,株式会社スギヤマ,,株式会社,佐賀県,佐賀市,富士町大字杉山１９６番地の１,,41,201,8400502,,,2021-12-02,清算の結了等,,,2015-10-05,1,,,,,スギヤマ,0
1459,5300002001168,登記記録の閉鎖等,0,2021-12-08,2021-12-02,有限会社原岡,,有限会社,佐賀県,佐賀市,東佐賀町２０番１７号,,41,201,8400821,,,2021-12-02,清算の結了等,,,2015-10-05,1,,,,,ハラオカ,0
1488,5430001043108,登記記録の閉鎖等,0,2021-12-08,2021-12-03,株式会社カネヨシビーフファクトリー,,株式会社,北海道,江別市,上江別西町３６番地２１,,01,217,0670063,,,2021-12-03,清算の結了等,,,2015-10-05,1,,,,,カネヨシビーフファクトリー,0
1503,5470001012257,登記記録の閉鎖等,0,2021-12-08,2021-12-03,株式会社ＯＢＳ,,株式会社,香川県,小豆郡小豆島町,古江甲２６番地の１,,37,324,7614422,,,2021-12-03,清算の結了等,,,2015-10-05,1,,,,,オービーエス,0
1506,5480001007586,登記記録の閉鎖等,0,2021-12-08,2021-12-06,丸横建設株式会社,,株式会社,徳島県,三好市,池田町シンマチ１３６９番地の３,,36,208,7780004,,,2021-12-06,清算の結了等,,,2015-10-05,1,,,,,マルヨコケンセツ,0
1518,5500002008746,登記記録の閉鎖等,0,2021-12-08,2021-12-06,有限会社シーサイドふたみ,,有限会社,愛媛県,伊予市,双海町高岸甲２３２６番地,,38,210,7993207,,,2021-12-06,清算の結了等,,,2015-10-05,1,,,,,シーサイドフタミ,0
1519,5500002009050,登記記録の閉鎖等,0,2021-12-08,2021-12-06,有限会社松山中央商業協同会,,有限会社,愛媛県,松山市,三番町２丁目３番地３,,38,201,7900003,,,2021-12-06,清算の結了等,,,2015-10-05,1,,,,,マツヤマチュウオウショウギョウキョウドウカイ,0
1526,6010003017349,登記記録の閉鎖等,0,2021-12-08,2021-12-02,合同会社セルマート,,合同会社,東京都,中央区,銀座１丁目３番３号Ｇ１ビル７階５８０号,,13,102,1040061,,,2021-12-02,清算の結了等,,,2015-10-05,1,,,,,セルマート,0
1537,6010502019077,登記記録の閉鎖等,0,2021-12-08,2021-12-03,有限会社ゼン,,有限会社,東京都,台東区,松が谷２丁目２番２号２０１,,13,106,1110036,,,2021-12-03,清算の結了等,,,2015-10-05,1,,,,,ゼン,0
1545,6010903006392,登記記録の閉鎖等,0,2021-12-08,2021-12-06,合同会社Ｍａｐｌｅ,,合同会社,東京都,世田谷区,三宿１丁目１４－８三宿バドスクエア２１５号室,,13,112,1540005,,,2021-12-06,清算の結了等,,,2021-03-24,1,,,,,メイプル,0
1560,6011102003388,登記記録の閉鎖等,0,2021-12-08,2021-12-06,有限会社川鍋会計研究所,,有限会社,東京都,世田谷区,成城６丁目１７番１４号,,13,112,1570066,,,2021-12-06,清算の結了等,,,2015-10-05,1,,,,,カワナベカイケイケンキュウジョ,0
1562,6011105009556,登記記録の閉鎖等,0,2021-12-08,2021-12-01,一般社団法人ペガサス・リンク．,,その他の設立登記法人,東京都,新宿区,山吹町３１５番地グリーンキャピタル神楽坂３０６,,13,104,1620801,,,2021-12-01,清算の結了等,,,2020-10-22,1,,,,,ペガサスリンク,0
1569,6011601005728,登記記録の閉鎖等,0,2021-12-08,2021-12-06,株式会社ビー・ハイブ,,株式会社,東京都,練馬区,春日町２丁目８番２３号グランドヴィラ春日町１０１号,,13,120,1790074,,,2021-12-06,清算の結了等,,,2015-10-05,1,,,,,,0
1575,6011602008622,登記記録の閉鎖等,0,2021-12-08,2021-12-06,有限会社葡萄家,,有限会社,東京都,練馬区,豊玉上２丁目２２番１３号,,13,120,1760011,,,2021-12-06,清算の結了等,,,2015-10-05,1,,,,,ブドウヤ,0
1577,6011702000132,登記記録の閉鎖等,0,2021-12-08,2021-12-06,有限会社アイ・ジィ・エス,,有限会社,東京都,江戸川区,東葛西９丁目１３番８号,,13,123,1340084,,,2021-12-06,清算の結了等,,,2015-10-05,1,,,,,アイジィエス,0
1578,6011702004653,登記記録の閉鎖等,0,2021-12-08,2021-12-03,有限会社境工務店,,有限会社,東京都,江戸川区,船堀１丁目１番２－５１０号,,13,123,1340091,,,2021-12-03,清算の結了等,,,2015-10-05,1,,,,,サカイコウムテン,0
1587,6012802002910,登記記録の閉鎖等,0,2021-12-08,2021-12-06,有限会社開沼電気商会,,有限会社,東京都,昭島市,拝島町４丁目１７番１２号,,13,207,1960002,,,2021-12-06,清算の結了等,,,2015-10-05,1,,,,,カイヌマデンキショウカイ,0
1588,6012802006556,登記記録の閉鎖等,0,2021-12-08,2021-12-03,有限会社ライツウェル,,有限会社,東京都,武蔵村山市,大南４丁目２１番地の１,,13,223,2080013,,,2021-12-03,清算の結了等,,,2015-10-05,1,,,,,ライツウェル,0
1593,6013303005196,登記記録の閉鎖等,0,2021-12-08,2021-12-01,税務ブレインコンサルティング合同会社,,合同会社,東京都,豊島区,池袋２丁目３６番１号,,13,116,1710014,,,2021-12-01,清算の結了等,,,2020-07-03,1,,,,,ゼイムブレインコンサルティング,0
1596,6020001009108,登記記録の閉鎖等,0,2021-12-08,2021-12-03,株式会社西村コーティング,,株式会社,神奈川県,横浜市都筑区,川和町６２９番地,,14,118,2240057,,,2021-12-03,清算の結了等,,,2015-10-05,1,,,,,,0
1602,6020001118833,登記記録の閉鎖等,0,2021-12-08,2021-12-03,ＴＲＡＶＥＬ２１株式会社,,株式会社,神奈川県,横浜市中区,蓬莱町２丁目６番地３ＫＯＹＯ関内ビル２０８,00108560,14,104,2310048,,,2021-12-03,清算の結了等,,,2016-12-01,1,,,,,トラベルニジュウイチ,0
1609,6021001029252,登記記録の閉鎖等,0,2021-12-08,2021-12-02,フジ精機株式会社,,株式会社,神奈川県,綾瀬市,吉岡東３丁目４番３１号,,14,218,2521125,,,2021-12-02,清算の結了等,,,2015-10-05,1,,,,,,0
1643,6040001049218,登記記録の閉鎖等,0,2021-12-08,2021-12-03,ＮＵＳＥ株式会社,,株式会社,千葉県,印旛郡酒々井町,中央台２丁目１３番３,,12,322,2850922,,,2021-12-03,清算の結了等,,,2015-10-05,1,,,,,ニュース,0
1655,6070002037334,登記記録の閉鎖等,0,2021-12-08,2021-12-03,有限会社メディキュア,,有限会社,栃木県,小山市,大字神鳥谷２２５１番地８,,09,208,3230827,,,2021-12-03,合併による解散等,3380001007177,令和３年１２月１日福島県郡山市駅前一丁目９番１号松風堂ビル３階ウインファーマ株式会社（3380001007177）に合併し解散,2015-10-05,1,,,,,メディキュア,0
1667,6110002000758,登記記録の閉鎖等,0,2021-12-08,2021-12-02,有限会社石藤,,有限会社,新潟県,新潟市江南区,北山８４７番地１,,15,104,9500116,,,2021-12-02,合併による解散等,1110001001258,令和３年１２月１日新潟市江南区北山８４７番地１石本酒造株式会社（1110001001258）に合併し解散,2015-10-05,1,,,,,イシトウ,0
1709,6140001069412,登記記録の閉鎖等,0,2021-12-08,2021-12-03,多田産業株式会社,,株式会社,兵庫県,西宮市,鷲林寺１丁目３番３号,,28,204,6620004,,,2021-12-03,清算の結了等,,,2015-10-05,1,,,,,タダサンギョウ,0
1728,6180001021113,登記記録の閉鎖等,0,2021-12-08,2021-12-02,名木施工株式会社,,株式会社,愛知県,名古屋市中川区,山王２丁目６番４１号,,23,110,4540011,,,2021-12-02,合併による解散等,9180001020450,令和３年１２月１日名古屋市中川区山王二丁目６番４１号名古屋木材株式会社（9180001020450）に合併し解散,2015-10-05,1,,,,,メイボクセコウ,0
1734,6180001071620,登記記録の閉鎖等,0,2021-12-08,2021-11-11,株式会社ジェネックス,,株式会社,愛知県,名古屋市中村区,平池町４丁目６０番１２号,,23,105,4530872,,,2021-11-11,合併による解散等,7010001213972,令和３年１１月１日東京都千代田区丸の内三丁目４番１号株式会社ジェネックス（7010001213972）に合併し解散,2015-10-05,1,,,,,ジェネックス,0
1744,6180002023959,登記記録の閉鎖等,0,2021-12-08,2021-12-03,有限会社司商会,,有限会社,愛知県,名古屋市西区,名西１丁目８番３３号,,23,104,4510064,,,2021-12-03,清算の結了等,,,2015-10-05,1,,,,,ツカサショウカイ,0
1749,6190002004504,登記記録の閉鎖等,0,2021-12-08,2021-12-07,有限会社ヤマハラ萩原商店,,有限会社,三重県,津市,港町１２番１７号,,24,201,5140014,,,2021-12-07,清算の結了等,,,2015-10-05,1,,,,,,0
1783,6290001066642,登記記録の閉鎖等,0,2021-12-08,2021-12-01,株式会社Ｅ－Ｃｕｂｅ,,株式会社,福岡県,大牟田市,浜田町３番地３,,40,202,8360026,,,2021-12-01,清算の結了等,,,2015-10-05,1,,,,,イーキューブ,0
1805,6380001006408,登記記録の閉鎖等,0,2021-12-08,2021-12-02,フレアーユニバーサル株式会社,,株式会社,福島県,郡山市,横塚３丁目４番２１号,,07,203,9638803,,,2021-12-02,清算の結了等,,,2015-10-05,1,,,,,フレアーユニバーサル,0
1822,6430001082781,登記記録の閉鎖等,0,2021-12-08,2021-12-01,株式会社アクアフーズ,,株式会社,北海道,札幌市西区,八軒十条東４丁目２番１８号アクア八軒東ビル２階,,01,107,0630870,,,2021-12-01,合併による解散等,9430001065833,令和３年１２月１日札幌市西区八軒十条東四丁目２番１８号アクア八軒東ビル２階株式会社アクアケア（9430001065833）に合併し解散,2020-11-19,1,,,,,アクアフーズフーズ,0
1823,6430002016821,登記記録の閉鎖等,0,2021-12-08,2021-12-06,有限会社ファクト,,有限会社,北海道,札幌市西区,西町南１３丁目１番１０号,,01,107,0630062,,,2021-12-06,清算の結了等,,,2015-10-05,1,,,,,ファクト,0
1827,6430003005022,登記記録の閉鎖等,0,2021-12-08,2021-12-03,合同会社マハトゥール伏見,,合同会社,北海道,札幌市中央区,南五条西１１丁目１２８８番地１３,,01,101,0640805,,,2021-12-03,合併による解散等,2430003005034,令和３年１２月１日札幌市中央区南五条西十一丁目１２８８番地１３合同会社デュペールＮ２８（2430003005034）に合併し解散,2015-10-05,1,,,,,マハトゥールフシミ,0
1834,6480002009201,登記記録の閉鎖等,0,2021-12-08,2021-12-06,有限会社スミヨシ,,有限会社,徳島県,吉野川市,鴨島町敷地３０２番地４,,36,205,7760031,,,2021-12-06,清算の結了等,,,2015-10-05,1,,,,,スミヨシ,0
1886,7011001124160,登記記録の閉鎖等,0,2021-12-08,2021-11-26,株式会社ＡＭＬ,,株式会社,東京都,渋谷区,渋谷１丁目２番５号,,13,113,1500002,,,2021-11-26,清算の結了等,,,2018-09-10,1,,,,,エーエムエル,0
1906,7011801016648,登記記録の閉鎖等,0,2021-12-08,2021-12-07,サイクル２４株式会社,,株式会社,東京都,足立区,千住３丁目６６番地１６,,13,121,1200034,,,2021-12-07,清算の結了等,,,2015-10-05,1,,,,,サイクルニジュウヨン,0
1907,7012401012236,登記記録の閉鎖等,0,2021-12-08,2021-11-26,株式会社エー・エム・エス,,株式会社,東京都,三鷹市,牟礼４丁目２２番３８号,,13,204,1810002,,,2021-11-26,清算の結了等,,,2015-10-05,1,,,,,,0
1921,7020001068978,登記記録の閉鎖等,0,2021-12-08,2021-12-06,株式会社永松堂,,株式会社,神奈川県,川崎市中原区,小杉町１丁目５２８番地,,14,133,2110063,,,2021-12-06,清算の結了等,,,2015-10-05,1,,,,,エイショウドウ,0
1928,7021001036727,登記記録の閉鎖等,0,2021-12-08,2021-12-02,尚和工業株式会社,,株式会社,神奈川県,平塚市,富士見町１番１５号,,14,203,2540062,,,2021-12-02,清算の結了等,,,2015-10-05,1,,,,,ショウワコウギョウ,0
1929,7021001066617,登記記録の閉鎖等,0,2021-12-08,2021-12-03,株式会社ＭＡＧＩＣＯ,,株式会社,神奈川県,厚木市,旭町１丁目２１－８あさひビル３０１,,14,212,2430014,,,2021-12-03,清算の結了等,,,2019-02-25,1,,,,,マジコ,0
1950,7040001006795,登記記録の閉鎖等,0,2021-12-08,2021-12-02,株式会社平和ハウジング,,株式会社,千葉県,千葉市若葉区,みつわ台５丁目１番８７号,,12,104,2640032,,,2021-12-02,清算の結了等,,,2015-10-05,1,,,,,ヘイワハウジング,0
2005,7120901000922,登記記録の閉鎖等,0,2021-12-08,2021-11-25,三主株式会社,,株式会社,大阪府,吹田市,山田南２９番３－６０２号,,27,205,5650823,,,2021-11-25,清算の結了等,,,2015-10-05,1,,,,,サンシュ,0
2012,7140001004525,登記記録の閉鎖等,0,2021-12-08,2021-12-02,株式会社エム・ケィ・エム,,株式会社,兵庫県,神戸市西区,今寺５番地の１,,28,111,6512114,,,2021-12-02,清算の結了等,,,2015-10-05,1,,,,,エムケィエム,0
2015,7140001110298,登記記録の閉鎖等,0,2021-12-08,2021-12-03,摩耶海運株式会社,,株式会社,兵庫県,南あわじ市,潮美台１丁目８番地１７,,28,224,6560521,,,2021-12-03,清算の結了等,,,2018-06-06,1,,,,,マヤカイウン,0
2017,7140001117830,登記記録の閉鎖等,0,2021-12-08,2021-12-03,株式会社ニチリン・サポート,,株式会社,兵庫県,神戸市中央区,栄町通２丁目４番地の１３神栄ビル,,28,110,6500023,,,2021-12-03,清算の結了等,,,2020-06-24,1,,,,,ニチリンサポート,0
2019,7140002047630,登記記録の閉鎖等,0,2021-12-08,2021-12-03,有限会社栄光社,,有限会社,兵庫県,姫路市,東辻井１丁目１３番３５号,00041125,28,201,6700084,,,2021-12-03,清算の結了等,,,2015-10-05,1,,,,,エイコウシャ,0
2021,7160001007022,登記記録の閉鎖等,0,2021-12-08,2021-12-06,株式会社冨久や,,株式会社,滋賀県,長浜市,大戌亥町６６５番地の３,,25,203,5260043,,,2021-12-06,清算の結了等,,,2015-10-05,1,,,,,フクヤ,0
2034,7180002011368,登記記録の閉鎖等,0,2021-12-08,2021-12-02,有限会社小島電設,,有限会社,愛知県,名古屋市北区,柳原２丁目１３番６号,,23,103,4620845,,,2021-12-02,清算の結了等,,,2015-10-05,1,,,,,コジマデンセツ,0
2035,7180002043337,登記記録の閉鎖等,0,2021-12-08,2021-12-03,有限会社共和美装サービス,,有限会社,愛知県,名古屋市天白区,平針南３丁目３０４番地,,23,116,4680020,,,2021-12-03,清算の結了等,,,2015-10-05,1,,,,,キョウワビソウサービス,0
2036,7180002046257,登記記録の閉鎖等,0,2021-12-08,2021-12-02,有限会社氏江業務店,,有限会社,愛知県,名古屋市中川区,小本１丁目１８番１８号,,23,110,4540828,,,2021-12-02,清算の結了等,,,2015-10-05,1,,,,,ウジエギョウムテン,0
2082,7310001016874,登記記録の閉鎖等,0,2021-12-08,2021-12-03,株式会社Ｍｅｄｉｃａｌ　Ｈｏｌｄｉｎｇｓ　Ｊａｐａｎ,,株式会社,長崎県,五島市,東浜町１丁目１６番３－５０１号,,42,211,8530015,,,2021-12-03,清算の結了等,,,2020-09-23,1,,,,,メディカルホールディングスジャパン,0
2104,7400001007039,登記記録の閉鎖等,0,2021-12-08,2021-12-06,株式会社カネゼン商店,,株式会社,岩手県,下閉伊郡山田町,大沢第６地割１５番地６,,03,482,0281311,,,2021-12-06,清算の結了等,,,2015-10-05,1,,,,,カネゼンショウテン,0
2111,7430001003183,登記記録の閉鎖等,0,2021-12-08,2021-12-01,株式会社岡田花香仙,,株式会社,北海道,札幌市中央区,南二条西２丁目２４番地,,01,101,0600062,,,2021-12-01,合併による解散等,8430002004130,令和３年１２月１日札幌市中央区南二条西二丁目２３番地の１株式会社オカダビル（8430002004130）に合併し解散,2015-10-05,1,,,,,オカダカコウセン,0
2118,7430002056230,登記記録の閉鎖等,0,2021-12-08,2021-12-02,有限会社池内自動車整備工場,,有限会社,北海道,古平郡古平町,大字浜町１７６番地の１,,01,406,0460121,,,2021-12-02,清算の結了等,,,2015-10-05,1,,,,,イケウチジドウシャセイビコウジョウ,0
2125,7480005000619,登記記録の閉鎖等,0,2021-12-08,2021-12-03,農事組合法人徳島県植木生産組合,,その他の設立登記法人,徳島県,徳島市,入田町春日１０８番地１,,36,201,7793133,,,2021-12-03,清算の結了等,,,2015-10-05,1,,,,,トクシマケンウエキセイサンクミアイ,0
2167,8010401155673,登記記録の閉鎖等,0,2021-12-08,2021-11-26,ベジファンデーション株式会社,,株式会社,東京都,港区,元赤坂１丁目６番２－２００６号,,13,103,1070051,,,2021-11-26,清算の結了等,,,2020-10-09,1,,,,,ベジファンデーション,0
2187,8010901029856,登記記録の閉鎖等,0,2021-12-08,2021-12-01,株式会社プロビンチャ,,株式会社,栃木県,足利市,大沼田町４００番２,,09,202,3260011,,,2021-12-01,合併による解散等,6011001127742,令和３年１２月１日栃木県宇都宮市本町１番１９号シン株式会社（6011001127742）に合併し解散,2015-10-05,1,,,,,プロビンチャ,0
2189,8010902025359,登記記録の閉鎖等,0,2021-12-08,2021-12-03,有限会社ジャストポイント,,有限会社,東京都,杉並区,浜田山３丁目１２番７－１０８号,,13,115,1680065,,,2021-12-03,合併による解散等,2010801018196,令和３年１２月１日東京都世田谷区梅丘一丁目４番１号株式会社商業建築（2010801018196）に合併し解散,2015-10-05,1,,,,,,0
2229,8012405004006,登記記録の閉鎖等,0,2021-12-08,2021-12-01,一般社団法人分身ロボットコミュニケーション協会,,その他の設立登記法人,東京都,港区,芝５丁目１番１３号,,13,103,1080014,,,2021-12-01,清算の結了等,,,2017-03-07,1,,,,,ブンシンロボットコミュニケーションキョウカイ,0
2232,8013202006186,登記記録の閉鎖等,0,2021-12-08,2021-11-26,有限会社ミツノ書店,,有限会社,東京都,目黒区,上目黒２丁目１６番１２号,,13,110,1530051,,,2021-11-26,清算の結了等,,,2015-10-05,1,,,,,ミツノショテン,0
2239,8020001084561,登記記録の閉鎖等,0,2021-12-08,2021-12-03,ＫＥｉエクスプレス株式会社,,株式会社,神奈川県,横浜市鶴見区,江ケ崎町３番１６－７３４号,,14,101,2300002,,,2021-12-03,清算の結了等,,,2015-10-05,1,,,,,ケイエクスプレス,0
2285,8040002045024,登記記録の閉鎖等,0,2021-12-08,2021-12-03,有限会社カズユウ工業,,有限会社,千葉県,松戸市,河原塚２３４番地３,,12,207,2702254,,,2021-12-03,清算の結了等,,,2015-10-05,1,,,,,カズユウコウギョウ,0
2304,8080002014446,登記記録の閉鎖等,0,2021-12-08,2021-11-26,有限会社横田建材,,有限会社,静岡県,榛原郡吉田町,片岡１５６１番地の１,,22,424,4210303,,,2021-11-26,清算の結了等,,,2015-10-05,1,,,,,ヨコタケンザイ,0
2308,8090001009743,登記記録の閉鎖等,0,2021-12-08,2021-11-29,株式会社桜井商店,,株式会社,山梨県,南都留郡忍野村,内野５４７番地,,19,424,4010512,,,2021-11-29,清算の結了等,,,2015-10-05,1,,,,,サクライショウテン,0
2310,8100005001876,登記記録の閉鎖等,0,2021-12-08,2021-12-03,信濃町土地開発公社,,その他の設立登記法人,長野県,上水内郡信濃町,大字柏原４２８番地,,20,583,3891305,,,2021-12-03,清算の結了等,,,2015-10-05,1,,,,,シナノマチ,0
2323,8120001227176,登記記録の閉鎖等,0,2021-12-08,2021-12-02,株式会社映像無双,,株式会社,大阪府,大阪市中央区,淡路町２丁目２－２タケウチアバクスビル４Ｆ,,27,128,5410047,,,2021-12-02,清算の結了等,,,2020-02-14,1,,,,,エイゾウムソウ,0
2353,8140002052217,登記記録の閉鎖等,0,2021-12-08,2021-12-01,有限会社プライムホーム,,有限会社,兵庫県,姫路市,福中町７９番地,,28,201,6700017,,,2021-12-01,清算の結了等,,,2015-10-05,1,,,,,プライムホーム,0
2377,8180003011201,登記記録の閉鎖等,0,2021-12-08,2021-11-30,合資会社伊藤製作所,,合資会社,愛知県,犬山市,大字犬山字西古券１１７番地,,23,215,4840085,,,2021-11-30,清算の結了等,,,2015-10-05,1,,,,,イトウセイサクショ,0
2382,8180005015290,登記記録の閉鎖等,0,2021-12-08,2021-12-02,一般財団法人サン基金,,その他の設立登記法人,愛知県,名古屋市昭和区,丸屋町６丁目７５番地２,,23,107,4660045,,,2021-12-02,清算の結了等,,,2015-10-05,1,,,,,サンキキン,0
2384,8190001019311,登記記録の閉鎖等,0,2021-12-08,2021-12-07,株式会社美富,,株式会社,三重県,四日市市,三ツ谷町１３番３号,,24,202,5100802,,,2021-12-07,清算の結了等,,,2015-10-05,1,,,,,ミトミ,0
2386,8200001016736,登記記録の閉鎖等,0,2021-12-08,2021-12-06,株式会社ダイドウ．,,株式会社,岐阜県,揖斐郡池田町,片山２１番地,,21,404,5032428,,,2021-12-06,清算の結了等,,,2015-10-05,1,,,,,ダイドウ,0
2392,8230001001867,登記記録の閉鎖等,0,2021-12-08,2021-12-03,株式会社トクエー,,株式会社,富山県,富山市,開発２４３番地,,16,201,9398137,,,2021-12-03,清算の結了等,,,2015-10-05,1,,,,,トクエー,0
2393,8240001025106,登記記録の閉鎖等,0,2021-12-08,2021-12-06,和田産業株式会社,,株式会社,広島県,庄原市,東城町塩原８３７番地,,34,210,7295505,,,2021-12-06,清算の結了等,,,2015-10-05,1,,,,,ワダサンギョウ,0
2395,8240001049914,登記記録の閉鎖等,0,2021-12-08,2021-12-06,タワ電工株式会社,,株式会社,広島県,広島市東区,福田５丁目１９３１番地２２,,34,102,7320029,,,2021-12-06,清算の結了等,,,2016-09-07,1,,,,,タワデンコウ,0
2398,8240003004537,登記記録の閉鎖等,0,2021-12-08,2021-12-06,合同会社和ごころ,,合同会社,広島県,広島市中区,広瀬北町３番１１号,,34,101,7300803,,,2021-12-06,清算の結了等,,,2020-01-21,1,,,,,ワゴコロ,0
2403,8260002033295,登記記録の閉鎖等,0,2021-12-08,2021-12-06,有限会社ミヤタプラント,,有限会社,岡山県,玉野市,玉原２丁目２０番９号,,33,204,7060014,,,2021-12-06,清算の結了等,,,2015-10-05,1,,,,,ミヤタプラント,0
2411,8290002054033,登記記録の閉鎖等,0,2021-12-08,2021-12-02,有限会社宮崎水産,00093595,有限会社,福岡県,大川市,大字向島２８５番地の１,,40,212,8310005,,,2021-12-02,清算の結了等,,,2015-10-05,1,,,,,,0
2417,8290802007025,登記記録の閉鎖等,0,2021-12-08,2021-12-02,有限会社ロコビス,,有限会社,福岡県,北九州市門司区,西新町２丁目５番３４－３０２号,,40,101,8000056,,,2021-12-02,清算の結了等,,,2015-10-05,1,,,,,ロコビス,0
2424,8320002017011,登記記録の閉鎖等,0,2021-12-08,2021-12-06,有限会社常盤自動車,,有限会社,大分県,佐伯市,中の島２丁目２１番３７号,,44,205,8760843,,,2021-12-06,清算の結了等,,,2015-10-05,1,,,,,トキワジドウシャ,0
2425,8330001014388,登記記録の閉鎖等,0,2021-12-08,2021-12-02,株式会社みなまた環境テクノセンター,,株式会社,熊本県,水俣市,浜松町５番９８号,,43,205,8670068,,,2021-12-02,清算の結了等,,,2015-10-05,1,,,,,ミナマタカンキョウテクノセンター,0
2428,8350002003545,登記記録の閉鎖等,0,2021-12-08,2021-12-03,有限会社ニューズメディカル,,有限会社,宮崎県,宮崎市,清武町今泉甲８４６番地９,,45,201,8891602,,,2021-12-03,清算の結了等,,,2015-10-05,1,,,,,ニューズメディカル,0
2437,8400005007835,登記記録の閉鎖等,0,2021-12-08,2021-12-07,岩手ソーシャルネットワーク協同組合,,その他の設立登記法人,岩手県,滝沢市,大釜風林３番地２４,,03,216,0200757,,,2021-12-07,清算の結了等,,,2017-09-11,1,,,,,イワテソーシャルネットワーク,0
2444,8430001084685,登記記録の閉鎖等,0,2021-12-08,2021-12-06,株式会社アクト,,株式会社,北海道,札幌市中央区,北三条西７丁目１番地１,,01,101,0600003,,,2021-12-06,清算の結了等,,,2021-08-02,1,,,,,アクト,0
2450,8470002010067,登記記録の閉鎖等,0,2021-12-08,2021-12-07,有限会社藤田,,有限会社,香川県,高松市,国分寺町国分４８９番地１,,37,201,7690102,,,2021-12-07,清算の結了等,,,2015-10-05,1,,,,,フジタ,0
2455,8500002001319,登記記録の閉鎖等,0,2021-12-08,2021-12-07,有限会社愛媛新聞味生専売所,00007714,有限会社,愛媛県,松山市,北斎院町４５８番地２,,38,201,7918031,,,2021-12-07,清算の結了等,,,2015-10-05,1,,,,,エヒメシンブンミブセンバイショ,0
2463,9010001130596,登記記録の閉鎖等,0,2021-12-08,2021-12-02,株式会社ＪＳＥ,,株式会社,東京都,千代田区,内神田１丁目１２番１２号,,13,101,1010047,,,2021-12-02,清算の結了等,,,2015-10-05,1,,,,,ジェイエスイー,0
2475,9010102011290,登記記録の閉鎖等,0,2021-12-08,2021-12-03,有限会社栄健,,有限会社,東京都,多摩市,聖ヶ丘３丁目１番地の１,,13,224,2060022,,,2021-12-03,合併による解散等,2010102011289,令和３年１２月１日東京都八王子市打越町３４４番地４北野シティプラザ２０４株式会社齋藤組（2010102011289）に合併し解散,2015-10-05,1,,,,,,0
2476,9010401048678,登記記録の閉鎖等,0,2021-12-08,2021-12-02,株式会社プランニング．アイ．東京,,株式会社,東京都,港区,西新橋１丁目１８番８号,,13,103,1050003,,,2021-12-02,清算の結了等,,,2015-10-05,1,,,,,プランニングアイトウキョウ,0
2484,9010401121872,登記記録の閉鎖等,0,2021-12-08,2021-12-01,株式会社エムズポーター,,株式会社,東京都,港区,浜松町２丁目２番１５号,,13,103,1050013,,,2021-12-01,合併による解散等,4010401149191,令和３年１２月１日東京都港区浜松町二丁目２番１５号株式会社トップス（4010401149191）に合併し解散,2015-12-04,1,,,,,エムズポーター,0
2486,9010401132374,登記記録の閉鎖等,0,2021-12-08,2021-12-02,Ｓ．Ｍ．　Ｆ＆Ｂ　ＤＥＶＥＬＯＰＭＥＮＴ　ＪＡＰＡＮ株式会社,,株式会社,東京都,港区,六本木３丁目２番１号住友不動産六本木グランドタワー２１階,,13,103,1060032,,,2021-12-02,合併による解散等,8010401060106,令和３年１２月１日東京都港区六本木三丁目２番１号住友不動産六本木グランドタワー２１階株式会社エスエム・エンタテインメント・ジャパン（8010401060106）に合併し解散,2017-07-12,1,,,,,,0
2492,9010405017984,登記記録の閉鎖等,0,2021-12-08,2021-12-03,一般社団法人ポートランド,,その他の設立登記法人,東京都,中央区,日本橋１丁目４番１号,,13,102,1030027,,,2021-12-03,清算の結了等,,,2019-08-29,1,,,,,ポートランド,0
2495,9010501031071,登記記録の閉鎖等,0,2021-12-08,2021-12-01,株式会社リィンクス,,株式会社,東京都,台東区,台東４丁目８番７号,,13,106,1100016,,,2021-12-01,合併による解散等,2010501016269,令和３年１２月１日東京都台東区台東四丁目８番７号株式会社エクミス（2010501016269）に合併し解散,2015-10-05,1,,,,,リィンクス,0
2499,9010601041664,登記記録の閉鎖等,0,2021-12-08,2021-12-01,株式会社小島,,株式会社,東京都,墨田区,両国１丁目１７番１０号,,13,107,1300026,,,2021-12-01,合併による解散等,4010601041652,令和３年１２月１日東京都墨田区両国一丁目１７番１０号株式会社ストック小島（4010601041652）に合併し解散,2015-10-05,1,,,,,コジマ,0
2514,9011001110217,登記記録の閉鎖等,0,2021-12-08,2021-11-26,株式会社ヘルスクエスト,,株式会社,東京都,目黒区,目黒１丁目１４番１２号,,13,110,1530063,,,2021-11-26,清算の結了等,,,2016-04-08,1,,,,,,0
2527,9011101080681,登記記録の閉鎖等,0,2021-12-08,2021-12-03,株式会社バークレープロジェクトグループ,,株式会社,東京都,新宿区,四谷三栄町１６番１６号,,13,104,1600008,,,2021-12-03,清算の結了等,,,2017-09-11,1,,,,,バークレープロジェクトグループ,0
2538,9011401015701,登記記録の閉鎖等,0,2021-12-08,2021-12-07,株式会社アシスト,,株式会社,東京都,板橋区,小豆沢１丁目２３番９号,,13,119,1740051,,,2021-12-07,清算の結了等,,,2015-10-05,1,,,,,アシスト,0
2561,9020001047781,登記記録の閉鎖等,0,2021-12-08,2021-12-06,株式会社イリオスコーポレーション,,株式会社,神奈川県,横浜市戸塚区,舞岡町３０６７番地一４０２号,,14,110,2440813,,,2021-12-06,清算の結了等,,,2015-10-05,1,,,,,イリオスコーポレーション,0
2572,9020002097925,登記記録の閉鎖等,0,2021-12-08,2021-12-06,有限会社大黒屋北川商店,,有限会社,神奈川県,川崎市川崎区,殿町１丁目１４番１９号,,14,131,2100821,,,2021-12-06,清算の結了等,,,2015-10-05,1,,,,,ダイコクヤキタガワショウテン,0
2582,9021001057564,登記記録の閉鎖等,0,2021-12-08,2021-12-03,けりあ株式会社,,株式会社,神奈川県,伊勢原市,石田７２２番地の１リーフィアレジデンス愛甲石田３１２号,,14,214,2591116,,,2021-12-03,清算の結了等,,,2015-10-16,1,,,,,ケリア,0
2591,9030003009713,登記記録の閉鎖等,0,2021-12-08,2021-12-03,合同会社ＳＨＫＭ,,合同会社,埼玉県,さいたま市南区,辻３丁目２番３号,00108812,11,108,3360026,,,2021-12-03,清算の結了等,,,2016-12-28,1,,,,,エスエイチケーエム,0
2595,9040001076317,登記記録の閉鎖等,0,2021-12-08,2021-12-02,株式会社インテグラスピア,,株式会社,千葉県,八千代市,勝田台５丁目１１番９号,,12,221,2760023,,,2021-12-02,清算の結了等,,,2015-10-05,1,,,,,インテグラスピア,0
2606,9060002037976,登記記録の閉鎖等,0,2021-12-08,2021-12-02,有限会社サイトウ工業,,有限会社,栃木県,足利市,千歳町７５番地,,09,202,3260045,,,2021-12-02,清算の結了等,,,2015-10-05,1,,,,,サイトウコウギョウ,0
2611,9080001004694,登記記録の閉鎖等,0,2021-12-08,2021-12-06,豊榮建設株式会社,,株式会社,静岡県,静岡市駿河区,稲川３丁目１２番２－８０４号,,22,102,4228062,,,2021-12-06,清算の結了等,,,2015-10-05,1,,,,,ホウエイケンセツ,0
2625,9110005004670,登記記録の閉鎖等,0,2021-12-08,2021-12-03,下館生産森林組合,,その他の設立登記法人,新潟県,胎内市,下館１７４番地１,,15,227,9592805,,,2021-12-03,清算の結了等,,,2015-10-05,1,,,,,シモダテ,0
2626,9120001037228,登記記録の閉鎖等,0,2021-12-08,2021-12-01,株式会社アルン,,株式会社,大阪府,大東市,新田本町１３番３６号,,27,218,5740055,,,2021-12-01,合併による解散等,8122001015049,令和３年１２月１日大阪府大東市新田本町１３番３６号株式会社イクス（8122001015049）に合併し解散,2015-10-05,1,,,,,アルン,0
2668,9140002024306,登記記録の閉鎖等,0,2021-12-08,2021-12-01,有限会社アプローズ,,有限会社,兵庫県,神戸市垂水区,五色山３丁目２番１０－２０４号,,28,108,6550035,,,2021-12-01,清算の結了等,,,2015-10-05,1,,,,,アプローズ,0
2693,9200001013303,登記記録の閉鎖等,0,2021-12-08,2021-12-06,株式会社大月金型製作所,,株式会社,岐阜県,大垣市,三本木２丁目３１番地の１,,21,202,5030813,,,2021-12-06,清算の結了等,,,2015-10-05,1,,,,,オオツキカナガタセイサクショ,0
2695,9200001030117,登記記録の閉鎖等,0,2021-12-08,2021-12-03,株式会社コムレイド,,株式会社,岐阜県,加茂郡川辺町,下麻生１６６番地,,21,503,5090301,,,2021-12-03,清算の結了等,,,2015-10-05,1,,,,,コムレイド,0
2702,9240002052684,登記記録の閉鎖等,0,2021-12-08,2021-12-06,有限会社世羅ふじ園,,有限会社,広島県,世羅郡世羅町,大字安田４７８番地の８２,,34,462,7221202,,,2021-12-06,清算の結了等,,,2015-10-05,1,,,,,セラフジエン,0
2705,9270001007546,登記記録の閉鎖等,0,2021-12-08,2021-12-03,株式会社景和コーポレーション,,株式会社,鳥取県,鳥取市,西町３丁目３０６番地,,31,201,6800022,,,2021-12-03,清算の結了等,,,2018-06-22,1,,,,,ケイワコーポレーション,0
2719,9290802012619,登記記録の閉鎖等,0,2021-12-08,2021-12-03,有限会社坂根建設,,有限会社,福岡県,北九州市八幡東区,神山町４番７号,,40,108,8050055,,,2021-12-03,清算の結了等,,,2015-10-05,1,,,,,サカネケンセツ,0
2721,9300002010719,登記記録の閉鎖等,0,2021-12-08,2021-12-03,有限会社宮副塗装,,有限会社,佐賀県,唐津市,西唐津３丁目６４２８番地の１,,41,202,8470875,,,2021-12-03,清算の結了等,,,2015-10-05,1,,,,,ミヤゾエトソウ,0
2748,9380002016262,登記記録の閉鎖等,0,2021-12-08,2021-12-03,有限会社國分商事,,有限会社,福島県,二本松市,亀谷１丁目１４５番地,,07,210,9640911,,,2021-12-03,清算の結了等,,,2015-10-05,1,,,,,,0
2763,9430001005319,登記記録の閉鎖等,0,2021-12-08,2021-12-02,建衛工業株式会社,,株式会社,北海道,札幌市中央区,南一条西１１丁目１番地,,01,101,0600061,,,2021-12-02,合併による解散等,5470001000435,令和３年１２月１日香川県高松市紺屋町３番地６株式会社穴吹ハウジングサービス（5470001000435）に合併し解散,2015-10-05,1,,,,,ケンエイコウギョウ,0
2771,9450001001646,登記記録の閉鎖等,0,2021-12-08,2021-12-07,株式会社層雲峡観光ビル,,株式会社,北海道,上川郡上川町,字層雲峡末定番地,,01,457,0781701,,,2021-12-07,清算の結了等,,,2015-10-05,1,,,,,ソウウンキョウカンコウビル,0
2773,9450005002640,登記記録の閉鎖等,0,2021-12-08,2021-12-06,医療法人社団松塚医院,00090866,その他の設立登記法人,北海道,士別市,東一条８丁目２７５番地５３,,01,220,0950011,,,2021-12-06,清算の結了等,,,2015-10-05,1,,,,,マツヅカイイン,0
