sequenceNumber,corporateNumber,process,correct,updateDate,changeDate,name,nameImageId,kind,prefectureName,cityName,streetNumber,addressImageId,prefectureCode,cityCode,postCode,addressOutside,addressOutsideImageId,closeDate,closeCause,successorCorporateNumber,changeCause,assignmentDate,latest,enName,enPrefectureName,enCityName,enAddressOutside,furigana,hihyoji
21,1010405001244,登記記録の閉鎖等,0,2023-09-22,2023-09-01,一般財団法人水と緑の惑星保全機構,,その他の設立登記法人,東京都,港区,芝公園３丁目３番１号,,13,103,1050011,,,2023-09-01,清算の結了等,,,2015-10-05,1,,,,,ミズトミドリノワクセイホゼンキコウ,0
23,1010601041060,登記記録の閉鎖等,0,2023-09-22,2023-09-19,株式会社アスミトラスト,,株式会社,東京都,江東区,大島８丁目２８番２４－８２１号,,13,108,1360072,,,2023-09-19,清算の結了等,,,2015-10-05,1,,,,,アスミトラスト,0
32,1011001129306,登記記録の閉鎖等,0,2023-09-22,2023-09-07,株式会社Ｒｅ－Ｔｅｃｈ　ＲａａＳ,,株式会社,東京都,渋谷区,神宮前２丁目３４番１７号住友不動産原宿ビル１８階,,13,113,1500001,,,2023-09-07,合併による解散等,4011001072940,令和５年８月３０日東京都渋谷区神宮前二丁目３４番１７号住友不動産原宿ビル１８階株式会社アンビションＤＸホールディングス（4011001072940）に合併し解散,2019-08-07,1,,,,,リテックラース,0
39,1011203001972,登記記録の閉鎖等,0,2023-09-22,2023-09-21,合同会社ダイジュ,,合同会社,東京都,中野区,沼袋４丁目１６番９号,,13,114,1650025,,,2023-09-21,清算の結了等,,,2015-10-05,1,,,,,ダイジュ,0
47,1012701010416,登記記録の閉鎖等,0,2023-09-22,2023-09-20,株式会社ＢＥＡＴ　ＥＭＯＴＩＯＮ,,株式会社,東京都,中野区,野方５丁目３－１野方ＷＩＺＡＸＩＳ１３０４,,13,114,1650027,,,2023-09-20,清算の結了等,,,2015-10-05,1,,,,,ビートエモーション,0
51,1013201012316,登記記録の閉鎖等,0,2023-09-22,2023-09-14,株式会社ＳＡＭＵＲＡＩ　Ｄｉｍｅｎｓｉｏｎ,,株式会社,東京都,目黒区,中目黒１丁目１番３２－２０１号,,13,110,1530061,,,2023-09-14,清算の結了等,,,2015-10-05,1,,,,,サムライディメンション,0
64,1030001067290,登記記録の閉鎖等,0,2023-09-22,2023-08-28,株式会社グラント,,株式会社,埼玉県,越谷市,赤山町１丁目２２１番地２０５,,11,222,3430807,,,2023-08-28,清算の結了等,,,2015-10-05,1,,,,,グラント,0
69,1030001133662,登記記録の閉鎖等,0,2023-09-22,2023-08-31,トラソナスジャパン株式会社,,株式会社,埼玉県,越谷市,川柳町１丁目３番地３,,11,222,3430827,,,2023-08-31,清算の結了等,,,2019-11-11,1,,,,,トラソナスジャパン,0
74,1030002062992,登記記録の閉鎖等,0,2023-09-22,2023-08-30,有限会社北口塗装,,有限会社,埼玉県,川越市,大字久下戸３２９７番地６,,11,201,3500011,,,2023-08-30,清算の結了等,,,2015-10-05,1,,,,,キタグチトソウ,0
76,1040001010274,登記記録の閉鎖等,0,2023-09-22,2023-09-06,株式会社エム・ケーテック,,株式会社,千葉県,千葉市花見川区,幕張町６丁目７７番地の１８,,12,102,2620032,,,2023-09-06,清算の結了等,,,2015-10-05,1,,,,,エムケーテック,0
84,1040005017200,登記記録の閉鎖等,0,2023-09-22,2023-09-06,特定非営利活動法人ＫＡＮＡＹＡ,,その他の設立登記法人,千葉県,富津市,金谷２１８５番地,,12,226,2991861,,,2023-09-06,清算の結了等,,,2015-10-05,1,,,,,カナヤ,0
87,1050002034271,登記記録の閉鎖等,0,2023-09-22,2023-09-14,有限会社鴻野菓子店,,有限会社,茨城県,稲敷市,堀之内３５８番地１,,08,229,3000635,,,2023-09-14,清算の結了等,,,2015-10-05,1,,,,,コウノカシテン,0
89,1070001000504,登記記録の閉鎖等,0,2023-09-22,2023-09-20,株式会社大谷人形,,株式会社,群馬県,前橋市,総社町植野５５９番地の５,,10,201,3710851,,,2023-09-20,清算の結了等,,,2015-10-05,1,,,,,オオタニニンギョウ,0
92,1080005005168,登記記録の閉鎖等,0,2023-09-22,2023-09-19,特定非営利活動法人いこいの広場,,その他の設立登記法人,静岡県,島田市,身成４８番地の３,,22,209,4270233,,,2023-09-19,清算の結了等,,,2015-10-05,1,,,,,イコイノヒロバ,0
98,1110003002031,登記記録の閉鎖等,0,2023-09-22,2023-09-19,合資会社穂刈組,,合資会社,新潟県,長岡市,沖田３丁目３７番地,,15,202,9400857,,,2023-09-19,清算の結了等,,,2015-10-05,1,,,,,ホカリグミ,0
106,1120001131319,登記記録の閉鎖等,0,2023-09-22,2023-09-08,株式会社クランク・イン,,株式会社,大阪府,大阪市中央区,南船場３丁目８番１５号,,27,128,5420081,,,2023-09-08,清算の結了等,,,2015-10-05,1,,,,,クランクイン,0
120,1120101030668,登記記録の閉鎖等,0,2023-09-22,2023-09-21,アロマ工業株式会社,,株式会社,大阪府,富田林市,錦織東１丁目３０番１号,,27,214,5840069,,,2023-09-21,清算の結了等,,,2015-10-05,1,,,,,アロマコウギョウ,0
128,1140001088598,登記記録の閉鎖等,0,2023-09-22,2023-09-14,株式会社仁友不動産,,株式会社,兵庫県,姫路市,土山２丁目１３番２６号八秀ビル１０５号,,28,201,6700996,,,2023-09-14,清算の結了等,,,2015-10-05,1,,,,,ジンユウフドウサン,0
135,1140005007488,登記記録の閉鎖等,0,2023-09-22,2023-09-19,特定非営利活動法人花菖蒲とふるさとづくりの会,,その他の設立登記法人,兵庫県,宍粟市,山崎町高所６２１番地,,28,227,6712532,,,2023-09-19,清算の結了等,,,2015-10-05,1,,,,,ハナショウブトフルサトヅクリノカイ,0
152,1180002079948,登記記録の閉鎖等,0,2023-09-22,2023-09-15,有限会社尚ヘルスケアリース,,有限会社,愛知県,一宮市,小信中島字郷南３４番地１,,23,203,4940007,,,2023-09-15,清算の結了等,,,2015-10-05,1,,,,,ショウヘルスケアリース,0
157,1180301004359,登記記録の閉鎖等,0,2023-09-22,2023-09-11,株式会社エスユー技研,,株式会社,愛知県,岡崎市,針崎２丁目１番地１,,23,202,4440828,,,2023-09-11,清算の結了等,,,2015-10-05,1,,,,,エスユーギケン,0
163,1230002004058,登記記録の閉鎖等,0,2023-09-22,2023-09-20,有限会社イケダオフィス,,有限会社,富山県,富山市,赤田１３７番地の４０,,16,201,9398064,,,2023-09-20,清算の結了等,,,2015-10-05,1,,,,,イケダオフィス,0
167,1240002011805,登記記録の閉鎖等,0,2023-09-22,2023-09-14,有限会社中野冷熱工業,,有限会社,広島県,広島市安佐北区,深川１丁目３４番１８号,,34,106,7391751,,,2023-09-14,清算の結了等,,,2015-10-05,1,,,,,ナカノレイネツコウギョウ,0
170,1250001004908,登記記録の閉鎖等,0,2023-09-22,2023-09-15,デイリーボーノ株式会社,,株式会社,山口県,宇部市,西平原３丁目１番２５号,,35,202,7550808,,,2023-09-15,清算の結了等,,,2015-10-05,1,,,,,デイリーボーノ,0
182,1300005005392,登記記録の閉鎖等,0,2023-09-22,2023-09-20,萬賀里川生産森林組合,,その他の設立登記法人,佐賀県,唐津市,肥前町万賀里川２９１番地１５,,41,202,8471515,,,2023-09-20,清算の結了等,,,2015-10-05,1,,,,,マガリカワ,0
209,1470002000140,登記記録の閉鎖等,0,2023-09-22,2023-09-20,有限会社新栄,,有限会社,香川県,高松市,庵治町５８２４番地７,,37,201,7610130,,,2023-09-20,清算の結了等,,,2015-10-05,1,,,,,シンエイ,0
226,2010001195290,登記記録の閉鎖等,0,2023-09-22,2023-09-13,株式会社東洋経済メディアテクノロジー,,株式会社,東京都,中央区,日本橋本石町１丁目２番１号,,13,102,1030021,,,2023-09-13,清算の結了等,,,2018-10-05,1,,,,,トウヨウケイザイメディアテクノロジー,0
240,2010401110832,登記記録の閉鎖等,0,2023-09-22,2023-09-01,株式会社ＲＤ観光ソリューションズ,,株式会社,東京都,港区,港南２丁目１５番３号,,13,103,1080075,,,2023-09-01,清算の結了等,,,2015-10-05,1,,,,,アールディーカンコウソリューションズ,0
267,2011001007320,登記記録の閉鎖等,0,2023-09-22,2023-09-15,道玄坂管理株式会社,,株式会社,東京都,世田谷区,若林２丁目９番７号,,13,112,1540023,,,2023-09-15,清算の結了等,,,2015-10-05,1,,,,,ドウゲンザカカンリ,0
269,2011003015899,登記記録の閉鎖等,0,2023-09-22,2023-09-15,ＢＯＮＤ　ＡＸＩＳ合同会社,,合同会社,東京都,目黒区,上目黒３丁目１番１０号ヴェルデナポリ２０３,,13,110,1530051,,,2023-09-15,清算の結了等,,,2022-12-12,1,,,,,ボンドアクシス,0
271,2011005001360,登記記録の閉鎖等,0,2023-09-22,2023-09-20,秀和青山レジデンス管理組合法人,,その他の設立登記法人,東京都,渋谷区,渋谷３丁目３番１０号１階管理室,,13,113,1500002,,,2023-09-20,清算の結了等,,,2015-10-05,1,,,,,シュウワアオヤマレジデンス,0
283,2011802020257,登記記録の閉鎖等,0,2023-09-22,2023-09-20,有限会社米川工芸,,有限会社,東京都,足立区,足立１丁目３４番１４号,,13,121,1200015,,,2023-09-20,合併による解散等,4120001143492,令和５年８月１日埼玉県所沢市美原町一丁目２９２８番地の８９株式会社スパークル（4120001143492）に合併し解散,2015-10-05,1,,,,,ヨネカワコウゲイ,0
285,2012402012982,登記記録の閉鎖等,0,2023-09-22,2023-09-21,石倉建設有限会社,,有限会社,東京都,狛江市,岩戸南３丁目１４番４号,,13,219,2010005,,,2023-09-21,清算の結了等,,,2015-10-05,1,,,,,イシクラケンセツ,0
294,2013305001263,登記記録の閉鎖等,0,2023-09-22,2023-09-14,特定非営利活動法人子どもから高齢者までの教育を行う会,,その他の設立登記法人,東京都,豊島区,北大塚１丁目１９番１２号７階,,13,116,1700004,,,2023-09-14,清算の結了等,,,2015-10-05,1,,,,,コドモカラコウレイシャマデノキョウイクヲオコナウカイ,0
306,2020003018060,登記記録の閉鎖等,0,2023-09-22,2023-09-13,Ｊ・Ｔｒｉｄｅｎｔ合同会社,,合同会社,神奈川県,横浜市西区,高島２丁目１１番２号スカイメナー横浜５１９,,14,103,2200011,,,2023-09-13,清算の結了等,,,2020-06-24,1,,,,,ジェイトライデント,0
316,2021002058865,登記記録の閉鎖等,0,2023-09-22,2023-09-14,有限会社テクノプリント,,有限会社,神奈川県,平塚市,桃浜町１９番２号,,14,203,2540815,,,2023-09-14,清算の結了等,,,2015-10-05,1,,,,,テクノプリント,0
338,2060002041191,登記記録の閉鎖等,0,2023-09-22,2023-09-11,有限会社長島工業,,有限会社,栃木県,足利市,丸山町６９３番地１,,09,202,3260057,,,2023-09-11,清算の結了等,,,2023-01-06,1,,,,,ナガシマコウギョウ,0
340,2080002007496,登記記録の閉鎖等,0,2023-09-22,2023-09-19,有限会社ジェイサプライ,,有限会社,静岡県,静岡市駿河区,豊田１丁目１－３４,,22,102,4228027,,,2023-09-19,合併による解散等,9240001038081,令和５年９月１日広島県尾道市西藤町２２６番地佐藤産業株式会社（9240001038081）に合併し解散,2015-10-05,1,,,,,ジェイサプライ,0
350,2110002027045,登記記録の閉鎖等,0,2023-09-22,2023-09-19,有限会社恩栄商店,,有限会社,新潟県,長岡市,中島２丁目２番３６号,,15,202,9400094,,,2023-09-19,清算の結了等,,,2015-10-05,1,,,,,オンエイショウテン,0
352,2120001032664,登記記録の閉鎖等,0,2023-09-22,2023-09-19,堺大港建設株式会社,,株式会社,大阪府,富田林市,寺池台５丁目４番２６号,,27,214,5840073,,,2023-09-19,清算の結了等,,,2015-10-05,1,,,,,サカイダイコウケンセツ,0
359,2120001205591,登記記録の閉鎖等,0,2023-09-22,2023-09-08,株式会社ＢＲＡＲＩＮ,,株式会社,大阪府,大阪市中央区,北浜１丁目８番１６号大阪証券取引所ビル地下１階,,27,128,5410041,,,2023-09-08,清算の結了等,,,2017-05-12,1,,,,,,0
366,2120001248780,登記記録の閉鎖等,0,2023-09-22,2023-09-11,株式会社Ｏ＆Ｏ,,株式会社,大阪府,大阪市中央区,淡路町３丁目５番１３号創建御堂筋ビル２階,,27,128,5410047,,,2023-09-11,清算の結了等,,,2022-09-12,1,,,,,オーアンドオー,0
374,2120002033562,登記記録の閉鎖等,0,2023-09-22,2023-09-11,有限会社アモア企画,,有限会社,大阪府,大阪市中央区,谷町１丁目３番１号,,27,128,5400012,,,2023-09-11,清算の結了等,,,2015-10-05,1,,,,,アモアキカク,0
379,2120005014931,登記記録の閉鎖等,0,2023-09-22,2023-09-14,特定非営利活動法人大阪を元気にする会,,その他の設立登記法人,大阪府,大阪市東住吉区,湯里２丁目２番８号,,27,121,5460013,,,2023-09-14,清算の結了等,,,2015-10-05,1,,,,,オオサカヲゲンキニスルカイ,0
390,2140001046910,登記記録の閉鎖等,0,2023-09-22,2023-09-13,ヤナセヒフク株式会社,,株式会社,兵庫県,朝来市,山東町末歳６７８番地,,28,225,6695104,,,2023-09-13,清算の結了等,,,2015-10-05,1,,,,,ヤナセヒフク,0
400,2150001005171,登記記録の閉鎖等,0,2023-09-22,2023-09-19,株式会社フィル,,株式会社,奈良県,生駒市,鹿ノ台南２丁目３番地２,,29,209,6300113,,,2023-09-19,清算の結了等,,,2015-10-05,1,,,,,フィル,0
414,2180302025015,登記記録の閉鎖等,0,2023-09-22,2023-09-13,有限会社東,,有限会社,愛知県,豊田市,山之手４丁目１０８番地,,23,211,4710833,,,2023-09-13,清算の結了等,,,2015-10-05,1,,,,,アズマ,0
417,2200001030957,登記記録の閉鎖等,0,2023-09-22,2023-09-20,株式会社オンリーワンネット,,株式会社,岐阜県,岐阜市,宇佐３丁目１６番８号,,21,201,5008368,,,2023-09-20,合併による解散等,4200001035384,令和５年９月２０日岐阜市西鶉二丁目３５番地の２株式会社ＲＳＰ道の駅（4200001035384）に合併し解散,2015-10-05,1,,,,,オンリーワンネット,0
439,2300002009569,登記記録の閉鎖等,0,2023-09-22,2023-09-19,有限会社レクス,,有限会社,佐賀県,鳥栖市,鎗田町６２０番地４,,41,203,8410031,,,2023-09-19,清算の結了等,,,2015-10-05,1,,,,,レクス,0
443,2330003006678,登記記録の閉鎖等,0,2023-09-22,2023-09-15,合同会社ＭＪコンサルティング,,合同会社,熊本県,熊本市西区,春日７丁目５番３０－３０７号,,43,103,8600047,,,2023-09-15,清算の結了等,,,2016-04-12,1,,,,,エムジェイコンサルティング,0
463,2390001014891,登記記録の閉鎖等,0,2023-09-22,2023-09-15,株式会社テラ陶板浴タケダ,,株式会社,山形県,山形市,あかねケ丘３丁目１８番２号,,06,201,9902481,,,2023-09-15,清算の結了等,,,2017-04-20,1,,,,,,0
482,2500003001100,登記記録の閉鎖等,0,2023-09-22,2023-09-21,合資会社七五三,,合資会社,愛媛県,西予市,宇和町岡山１０８番地,,38,214,7970033,,,2023-09-21,清算の結了等,,,2015-10-05,1,,,,,シメ,0
492,3010001206484,登記記録の閉鎖等,0,2023-09-22,2023-09-13,妙高開発株式会社,,株式会社,東京都,中央区,銀座１丁目６番１１号土志田ビルディング３Ｆ,,13,102,1040061,,,2023-09-13,清算の結了等,,,2020-01-14,1,,,,,ミョウコウカイハツ,0
493,3010001207879,登記記録の閉鎖等,0,2023-09-22,2023-09-14,柏株式会社,,株式会社,東京都,中央区,日本橋本町３丁目３番６号,,13,102,1030023,,,2023-09-14,清算の結了等,,,2020-03-03,1,,,,,カシワ,0
496,3010003026996,登記記録の閉鎖等,0,2023-09-22,2023-09-14,合同会社トライブリッジ,,合同会社,東京都,千代田区,丸の内３丁目１番１号東京共同会計事務所内,,13,101,1000005,,,2023-09-14,清算の結了等,,,2018-02-20,1,,,,,トライブリッジ,0
508,3010401124047,登記記録の閉鎖等,0,2023-09-22,2023-09-01,株式会社ＯＮＥ　Ｔｅｃｈ　Ｊａｐａｎ,,株式会社,東京都,港区,海岸１丁目２番２０号,,13,103,1050022,,,2023-09-01,清算の結了等,,,2016-04-07,1,,,,,ワンテックジャパン,0
515,3010403028048,登記記録の閉鎖等,0,2023-09-22,2023-09-13,合同会社ＢＥＲＵＮ,,合同会社,広島県,豊田郡大崎上島町,中野２３９８番地３松本方,,34,431,7250301,,,2023-09-13,清算の結了等,,,2022-07-07,1,,,,,ベルン,0
527,3010902016049,登記記録の閉鎖等,0,2023-09-22,2023-09-19,有限会社与田,,有限会社,東京都,世田谷区,北沢４丁目２２番１３号,,13,112,1550031,,,2023-09-19,清算の結了等,,,2015-10-05,1,,,,,ヨダ,0
530,3010905002459,登記記録の閉鎖等,0,2023-09-22,2023-09-14,特定非営利活動法人日本高齢者介護協会,,その他の設立登記法人,東京都,世田谷区,弦巻５丁目１番－３３弦巻ハイツ６０２号,,13,112,1540016,,,2023-09-14,清算の結了等,,,2015-10-05,1,,,,,ニホンコウレイシャカイゴキョウカイ,0
566,3013402006288,登記記録の閉鎖等,0,2023-09-22,2023-09-19,有限会社有恒,,有限会社,東京都,練馬区,富士見台４丁目３３番８号,,13,120,1770034,,,2023-09-19,清算の結了等,,,2015-10-05,1,,,,,ユウコウ,0
574,3020002086883,登記記録の閉鎖等,0,2023-09-22,2023-09-13,有限会社轟合成,,有限会社,神奈川県,横浜市都筑区,早渕１丁目２５番１５号,,14,118,2240025,,,2023-09-13,清算の結了等,,,2015-10-05,1,,,,,トドロキゴウセイ,0
597,3040003012886,登記記録の閉鎖等,0,2023-09-22,2023-09-06,合同会社リバティ,,合同会社,千葉県,富津市,小久保２８７番地の１,,12,226,2930042,,,2023-09-06,清算の結了等,,,2019-02-13,1,,,,,リバティ,0
602,3050001017829,登記記録の閉鎖等,0,2023-09-22,2023-09-14,株式会社アイランド,,株式会社,茨城県,つくば市,小白硲６７２番地２９２,,08,220,3050844,,,2023-09-14,清算の結了等,,,2015-10-05,1,,,,,アイランド,0
635,3120002039195,登記記録の閉鎖等,0,2023-09-22,2023-09-11,有限会社夢城,,有限会社,大阪府,大阪市中央区,谷町１丁目３番１号,,27,128,5400012,,,2023-09-11,清算の結了等,,,2015-10-05,1,,,,,ムジョウ,0
637,3120002064846,登記記録の閉鎖等,0,2023-09-22,2023-09-20,有限会社ブランドネットワーク,,有限会社,兵庫県,宝塚市,武庫川町５番４５－４０５号,,28,214,6650844,,,2023-09-20,清算の結了等,,,2015-10-05,1,,,,,ブランドネットワーク,0
666,3160001019046,登記記録の閉鎖等,0,2023-09-22,2023-09-20,株式会社ユニオン,,株式会社,滋賀県,近江八幡市,安土町上出５６０番地１,,25,204,5211342,,,2023-09-20,清算の結了等,,,2015-10-19,1,,,,,ユニオン,0
690,3210001012276,登記記録の閉鎖等,0,2023-09-22,2023-09-20,株式会社梅木工業,,株式会社,福井県,南条郡南越前町,西大道第１５号１７番地,,18,404,9190224,,,2023-09-20,清算の結了等,,,2015-10-05,1,,,,,ウメキコウギョウ,0
710,3290002042793,登記記録の閉鎖等,0,2023-09-22,2023-09-11,有限会社Ｐ．メンテナンスサービス,,有限会社,福岡県,春日市,松ヶ丘５丁目２６番地４,,40,218,8160843,,,2023-09-11,清算の結了等,,,2015-10-05,1,,,,,ピーメンテナンスサービス,0
717,3310003002777,登記記録の閉鎖等,0,2023-09-22,2023-09-20,合同会社佐世保市母子寡婦福祉会,,合同会社,長崎県,佐世保市,八幡町１番１０号,,42,202,8570028,,,2023-09-20,清算の結了等,,,2015-10-05,1,,,,,サセボシボシカフフクシカイ,0
718,3320001011011,登記記録の閉鎖等,0,2023-09-22,2023-09-19,若松物流株式会社,,株式会社,大分県,中津市,大字高瀬８４２番地１,,44,203,8710026,,,2023-09-19,清算の結了等,,,2015-10-05,1,,,,,ワカマツブツリュウ,0
725,3350002004127,登記記録の閉鎖等,0,2023-09-22,2023-09-13,有限会社フラワーコーポレーション,,有限会社,宮崎県,宮崎市,田代町７０番地１３,,45,201,8800855,,,2023-09-13,清算の結了等,,,2015-10-05,1,,,,,フラワーコーポレーション,0
727,3370001010792,登記記録の閉鎖等,0,2023-09-22,2023-09-15,ランプ株式会社,,株式会社,宮城県,仙台市青葉区,一番町１丁目１３番１４号,,04,101,9800811,,,2023-09-15,清算の結了等,,,2015-10-05,1,,,,,ランプ,0
747,3470001006715,登記記録の閉鎖等,0,2023-09-22,2023-09-19,株式会社ラウンドマウンテン,,株式会社,香川県,高松市,伏石町２０４６番１サーパス伏石中央公園２０４号室,,37,201,7618071,,,2023-09-19,清算の結了等,,,2015-10-05,1,,,,,ラウンドマウンテン,0
790,4011001052802,登記記録の閉鎖等,0,2023-09-22,2023-09-19,丸紅ファッションプラニング株式会社,,株式会社,東京都,渋谷区,代々木１丁目２２番１号,,13,113,1510053,,,2023-09-19,清算の結了等,,,2015-10-05,1,,,,,マルベニファッションプラニング,0
791,4011001061679,登記記録の閉鎖等,0,2023-09-22,2023-09-01,株式会社フューチャーコミックス,,株式会社,東京都,港区,六本木３丁目２番１号,,13,103,1060032,,,2023-09-01,合併による解散等,3010401167624,令和５年９月１日東京都港区六本木三丁目２番１号株式会社ＣＬＬＥＮＮ（3010401167624）に合併し解散,2015-10-05,1,,,,,フューチャーコミックス,0
810,4011601000879,登記記録の閉鎖等,0,2023-09-22,2023-09-13,栄喜建設株式会社,,株式会社,東京都,練馬区,羽沢２丁目１番７号,,13,120,1760003,,,2023-09-13,清算の結了等,,,2023-05-23,1,,,,,エイキケンセツ,0
811,4011601012791,登記記録の閉鎖等,0,2023-09-22,2023-09-19,株式会社エム・ケイマネジメントリサーチ,,株式会社,東京都,練馬区,小竹町２丁目７７番８号,,13,120,1760004,,,2023-09-19,清算の結了等,,,2015-10-05,1,,,,,エムケイマネジメントリサーチ,0
830,4020002003020,登記記録の閉鎖等,0,2023-09-22,2023-09-13,有限会社セキエイ工業,,有限会社,神奈川県,横浜市泉区,和泉中央南３丁目７番１２号,,14,116,2450023,,,2023-09-13,清算の結了等,,,2015-10-05,1,,,,,セキエイコウギョウ,0
836,4020003013043,登記記録の閉鎖等,0,2023-09-22,2023-09-12,合同会社ｅＳｐａｃｅ,,合同会社,神奈川県,横浜市中区,寺久保４１番地１,,14,104,2310855,,,2023-09-12,清算の結了等,,,2017-07-11,1,,,,,イースペース,0
862,4030002032951,登記記録の閉鎖等,0,2023-09-22,2023-08-28,有限会社エイチ・ピー・エフ,,有限会社,埼玉県,所沢市,緑町２丁目７番１７号１階,,11,208,3591111,,,2023-08-28,清算の結了等,,,2015-10-05,1,,,,,エイチピーエフ,0
879,4040003018734,登記記録の閉鎖等,0,2023-09-22,2023-09-06,合同会社コネクティングワーク,,合同会社,千葉県,千葉市美浜区,高洲２丁目７番１８棟１０３号,,12,106,2610004,,,2023-09-06,清算の結了等,,,2021-10-13,1,,,,,コネクティングワーク,0
888,4100001012740,登記記録の閉鎖等,0,2023-09-22,2023-09-08,伊藤硝子総業株式会社,,株式会社,長野県,塩尻市,大字広丘野村１８３８番地,,20,215,3990702,,,2023-09-08,清算の結了等,,,2015-10-05,1,,,,,イトウガラスソウギョウ,0
889,4100001025627,登記記録の閉鎖等,0,2023-09-22,2023-09-11,株式会社アゲイン,,株式会社,長野県,長野市,北石堂町１４２９番地１,,20,201,3810000,,,2023-09-11,清算の結了等,,,2015-10-05,1,,,,,アゲイン,0
892,4110002015114,登記記録の閉鎖等,0,2023-09-22,2023-09-19,有限会社新発田インテリア,,有限会社,新潟県,新発田市,本町４丁目１０番２号,,15,206,9570054,,,2023-09-19,清算の結了等,,,2015-10-05,1,,,,,シバタインテリア,0
895,4120001013068,登記記録の閉鎖等,0,2023-09-22,2023-09-19,東海油機実業株式会社,,株式会社,奈良県,香芝市,北今市４丁目２４３番地７,,29,210,6390242,,,2023-09-19,清算の結了等,,,2015-10-05,1,,,,,トウカイユキジツギョウ,0
920,4120005015382,登記記録の閉鎖等,0,2023-09-22,2023-09-15,弁護士法人御堂筋中央法律事務所,,その他の設立登記法人,大阪府,大阪市中央区,平野町３丁目６番１号あいおいニッセイ同和損保御堂筋ビル１０階,,27,128,5410046,,,2023-09-15,清算の結了等,,,2015-10-05,1,,,,,ミドウスジチュウオウホウリツジムショ,0
921,4120101032959,登記記録の閉鎖等,0,2023-09-22,2023-09-20,株式会社ニッコー楽器,,株式会社,大阪府,藤井寺市,藤井寺１丁目６番２０号,,27,226,5830024,,,2023-09-20,清算の結了等,,,2015-10-05,1,,,,,ニッコーガッキ,0
932,4130001032406,登記記録の閉鎖等,0,2023-09-22,2023-09-07,株式会社大久保薬局,,株式会社,京都府,宇治市,広野町西裏９９番地,,26,204,6110031,,,2023-09-07,清算の結了等,,,2015-10-05,1,,,,,オオクボヤッキョク,0
950,4180002074839,登記記録の閉鎖等,0,2023-09-22,2023-09-15,光陽電子有限会社,,有限会社,愛知県,犬山市,富岡新町５丁目７番地,,23,215,4840099,,,2023-09-15,清算の結了等,,,2015-10-05,1,,,,,コウヨウデンシ,0
951,4180002080110,登記記録の閉鎖等,0,2023-09-22,2023-09-15,有限会社ガーデンフジ,,有限会社,愛知県,一宮市,泉１丁目１４番１６号,,23,203,4910861,,,2023-09-15,清算の結了等,,,2015-10-05,1,,,,,ガーデンフジ,0
956,4180303001327,登記記録の閉鎖等,0,2023-09-22,2023-09-05,合資会社睦基住宅,,合資会社,愛知県,豊橋市,飽海町３７番地,,23,201,4400061,,,2023-09-05,清算の結了等,,,2015-10-05,1,,,,,ムツモトジュウタク,0
960,4200001031276,登記記録の閉鎖等,0,2023-09-22,2023-09-15,飛騨ミート株式会社,,株式会社,岐阜県,高山市,八日町３２７番地,,21,203,5060047,,,2023-09-15,清算の結了等,,,2015-10-05,1,,,,,ヒダミート,0
963,4200005001300,登記記録の閉鎖等,0,2023-09-22,2023-09-20,東邦衣料企業組合,,その他の設立登記法人,岐阜県,岐阜市,忠節町１丁目１８番地,,21,201,5008801,,,2023-09-20,清算の結了等,,,2015-10-05,1,,,,,トウホウイリョウ,0
966,4240001033145,登記記録の閉鎖等,0,2023-09-22,2023-09-15,サンキョウハウジング株式会社,,株式会社,広島県,福山市,南蔵王町２丁目４番５号,,34,207,7210973,,,2023-09-15,清算の結了等,,,2015-10-05,1,,,,,,0
973,4250002001307,登記記録の閉鎖等,0,2023-09-22,2023-09-15,有限会社藤家,,有限会社,山口県,山口市,平井７０番地,,35,203,7530831,,,2023-09-15,清算の結了等,,,2015-10-05,1,,,,,フジケ,0
977,4260002005835,登記記録の閉鎖等,0,2023-09-22,2023-09-20,有限会社大欽商会,,有限会社,岡山県,岡山市北区,富田町１丁目１０番４号,,33,101,7000816,,,2023-09-20,清算の結了等,,,2015-10-05,1,,,,,ダイキンショウカイ,0
988,4290005016595,登記記録の閉鎖等,0,2023-09-22,2023-09-14,一般社団法人ファミリーワーク相談室ニシハラ,,その他の設立登記法人,福岡県,嘉麻市,上西郷５９０番地,,40,227,8200306,,,2023-09-14,清算の結了等,,,2017-10-12,1,,,,,ファミリーワークソウダンシツニシハラ,0
1008,4350002016526,登記記録の閉鎖等,0,2023-09-22,2023-09-08,有限会社川畑鉄工所,,有限会社,宮崎県,日南市,瀬貝２丁目１番４５号,,45,204,8870011,,,2023-09-08,清算の結了等,,,2015-10-05,1,,,,,カワバタテッコウショ,0
1018,4370402002289,登記記録の閉鎖等,0,2023-09-22,2023-09-14,有限会社中田サン・ファーム,,有限会社,宮城県,登米市,中田町上沼字境前１２番地の１,,04,212,9870602,,,2023-09-14,清算の結了等,,,2015-10-05,1,,,,,,0
1059,5010401079082,登記記録の閉鎖等,0,2023-09-22,2023-09-13,株式会社ウィプロ・アピリオ,,株式会社,神奈川県,横浜市西区,みなとみらい２丁目２番１号,,14,103,2200012,,,2023-09-13,清算の結了等,,,2015-10-05,1,,,,,ウィプロアピリオ,0
1061,5010401124136,登記記録の閉鎖等,0,2023-09-22,2023-09-01,株式会社ＫＵＲＯＵＴＯ,,株式会社,東京都,港区,西新橋１丁目１４番９号西新橋ビル５階,,13,103,1050003,,,2023-09-01,合併による解散等,1010401117135,令和５年９月１日東京都港区西新橋一丁目１４番９号西新橋ビル４階株式会社フロネシス（1010401117135）に合併し解散,2016-04-13,1,,,,,クロウト,0
1071,5010601011423,登記記録の閉鎖等,0,2023-09-22,2023-09-15,株式会社鈴伊材木店,,株式会社,東京都,墨田区,東駒形４丁目２１番１２号,,13,107,1300005,,,2023-09-15,清算の結了等,,,2015-10-05,1,,,,,スズイザイモクテン,0
1073,5010701034308,登記記録の閉鎖等,0,2023-09-22,2023-09-01,株式会社ＮＡＧＡＹＯＳＨＩ,,株式会社,東京都,品川区,大井１丁目２３－１カクタビル８Ｆ,,13,109,1400014,,,2023-09-01,合併による解散等,1010701009552,令和５年９月１日東京都品川区大井１－２３－１カクタビル８Ｆ株式会社ＮＡＧＡＹＯＳＨＩ（1010701009552）に合併し解散,2017-06-14,1,,,,,ナガヨシ,0
1101,5012402010521,登記記録の閉鎖等,0,2023-09-22,2023-09-20,有限会社越国屋,,有限会社,東京都,調布市,菊野台１丁目４９番地４６,,13,208,1820007,,,2023-09-20,清算の結了等,,,2015-10-05,1,,,,,エッコクヤ,0
1107,5020001061596,登記記録の閉鎖等,0,2023-09-22,2023-09-01,株式会社ＧＩＧＡＴＯＯＮ　Ｓｔｕｄｉｏ,,株式会社,東京都,港区,六本木３丁目２番１号,,13,103,1060032,,,2023-09-01,合併による解散等,3010401167624,令和５年９月１日東京都港区六本木三丁目２番１号株式会社ＣＬＬＥＮＮ（3010401167624）に合併し解散,2015-10-05,1,,,,,ギガトゥーンスタジオ,0
1122,5030001014545,登記記録の閉鎖等,0,2023-09-22,2023-08-31,株式会社センチュリス化学,,株式会社,埼玉県,さいたま市南区,松本１丁目１３番２号,,11,108,3360035,,,2023-08-31,清算の結了等,,,2015-10-05,1,,,,,センチュリスカガク,0
1134,5030002041976,登記記録の閉鎖等,0,2023-09-22,2023-08-28,有限会社丸高,00016579,有限会社,埼玉県,羽生市,大字上岩瀬１３１６番地,,11,216,3480044,,,2023-08-28,清算の結了等,,,2015-10-05,1,,,,,マルタカ,0
1136,5030003017232,登記記録の閉鎖等,0,2023-09-22,2023-08-28,合同会社ＥＡＲＴＨ,,合同会社,埼玉県,川越市,脇田本町１０番１７伊勢原七番館１１０４号室,,11,201,3501123,,,2023-08-28,清算の結了等,,,2021-05-10,1,,,,,アース,0
1137,5030003017348,登記記録の閉鎖等,0,2023-09-22,2023-08-28,合同会社ダンクス,,合同会社,埼玉県,川越市,岸町１丁目９番１８号カーサラルゴ２０３号室,,11,201,3501131,,,2023-08-28,清算の結了等,,,2021-06-02,1,,,,,ダンクス,0
1144,5050001046586,登記記録の閉鎖等,0,2023-09-22,2023-09-13,株式会社ＷＡＹＦＯＯＬ,,株式会社,茨城県,水戸市,平須町１９５５番地の１,,08,201,3100853,,,2023-09-13,清算の結了等,,,2019-10-03,1,,,,,ウェイフール,0
1148,5060002013527,登記記録の閉鎖等,0,2023-09-22,2023-09-11,有限会社ＨＫＳコンサルティング,,有限会社,栃木県,宇都宮市,石井町３１６７－２吉澤倉庫ビル２０２号,,09,201,3210912,,,2023-09-11,清算の結了等,,,2015-10-05,1,,,,,エイチケイエスコンサルティング,0
1165,5100003004603,登記記録の閉鎖等,0,2023-09-22,2023-09-08,あさがお合同会社,,合同会社,長野県,諏訪郡原村,１０３９６番地,,20,363,3910100,,,2023-09-08,清算の結了等,,,2017-02-20,1,,,,,アサガオ,0
1166,5110002019089,登記記録の閉鎖等,0,2023-09-22,2023-09-19,有限会社片山化研工業,,有限会社,新潟県,燕市,小高１４５６番地,,15,213,9591241,,,2023-09-19,清算の結了等,,,2015-10-05,1,,,,,カタヤマカケンコウギョウ,0
1178,5120001184164,登記記録の閉鎖等,0,2023-09-22,2023-09-11,井上清福祉サービス株式会社,,株式会社,大阪府,大阪市中央区,谷町２丁目４番３号,,27,128,5400012,,,2023-09-11,清算の結了等,,,2015-10-05,1,,,,,イノウエセイフクシサービス,0
1181,5120001200276,登記記録の閉鎖等,0,2023-09-22,2023-09-20,株式会社ヒューマンキャピタル・カンパニー,,株式会社,大阪府,大阪市中央区,難波１丁目８番１号,,27,128,5420076,,,2023-09-20,清算の結了等,,,2016-08-22,1,,,,,ヒューマンキャピタルカンパニー,0
1192,5120002039375,登記記録の閉鎖等,0,2023-09-22,2023-09-11,有限会社リオス岸和田,,有限会社,大阪府,大阪市中央区,谷町１丁目３番１号,,27,128,5400012,,,2023-09-11,清算の結了等,,,2015-10-05,1,,,,,リオスキシワダ,0
1222,5180002037258,登記記録の閉鎖等,0,2023-09-22,2023-09-15,太田商事有限会社,,有限会社,愛知県,名古屋市南区,三条１丁目４番１３号,,23,112,4570866,,,2023-09-15,清算の結了等,,,2015-10-05,1,,,,,オオタショウジ,0
1231,5230001006381,登記記録の閉鎖等,0,2023-09-22,2023-09-13,共進興業株式会社,,株式会社,東京都,中央区,日本橋兜町１７番２号兜町第６葉山ビル４階,,13,102,1030026,,,2023-09-13,清算の結了等,,,2015-10-05,1,,,,,キョウシンコウギョウ,0
1233,5240001021108,登記記録の閉鎖等,0,2023-09-22,2023-09-19,株式会社ネクスト,,株式会社,広島県,広島市南区,段原２丁目１４番１１号,,34,103,7320811,,,2023-09-19,清算の結了等,,,2015-10-05,1,,,,,ネクスト,0
1242,5250003003078,登記記録の閉鎖等,0,2023-09-22,2023-09-13,ＮＥＳＴ合同会社,,合同会社,山口県,山陽小野田市,新生１丁目１番１４号,,35,216,7560092,,,2023-09-13,清算の結了等,,,2022-06-07,1,,,,,ネスト,0
1248,5290005005705,登記記録の閉鎖等,0,2023-09-22,2023-09-13,医療法人山口皮フ・泌尿器科医院,,その他の設立登記法人,福岡県,宗像市,東郷３丁目１番１３号,,40,220,8113436,,,2023-09-13,清算の結了等,,,2015-10-05,1,,,,,ヤマグチヒフヒニョウキカイイン,0
1256,5330001026320,登記記録の閉鎖等,0,2023-09-22,2023-09-13,株式会社Ｅ－ｍｅｄｉｃａｌ　ｃｒｅａｔｅ,,株式会社,熊本県,熊本市中央区,南熊本５丁目６－６サザンウイング１Ｆ,,43,101,8600812,,,2023-09-13,清算の結了等,,,2019-04-26,1,,,,,イーメディカルクリエイト,0
1273,5370102000518,登記記録の閉鎖等,0,2023-09-22,2023-09-15,有限会社フジメディカルアイランド,,有限会社,宮城県,柴田郡大河原町,字新南３７番地の５,,04,321,9891245,,,2023-09-15,清算の結了等,,,2015-10-05,1,,,,,フジメディカルアイランド,0
1282,5430001026938,登記記録の閉鎖等,0,2023-09-22,2023-09-07,株式会社アルミック,,株式会社,北海道,札幌市北区,新川８０２番地１４,,01,102,0010930,,,2023-09-07,清算の結了等,,,2015-10-05,1,,,,,アルミック,0
1283,5430001027457,登記記録の閉鎖等,0,2023-09-22,2023-09-07,株式会社エム・トキココーポレーション,,株式会社,北海道,札幌市豊平区,月寒中央通１１丁目１番３号,,01,105,0620020,,,2023-09-07,清算の結了等,,,2015-10-05,1,,,,,エムトキココーポレーション,0
1290,5470002005004,登記記録の閉鎖等,0,2023-09-22,2023-09-20,有限会社ナガオ,,有限会社,香川県,高松市,兵庫町３番地の６,,37,201,7600024,,,2023-09-20,清算の結了等,,,2015-10-05,1,,,,,ナガオ,0
1292,5500002015552,登記記録の閉鎖等,0,2023-09-22,2023-09-20,有限会社佐伯測量設計,,有限会社,愛媛県,西条市,丹原町北田野７３７番地１,,38,206,7910523,,,2023-09-20,清算の結了等,,,2015-10-05,1,,,,,サイキソクリョウセッケイ,0
1315,6010401132162,登記記録の閉鎖等,0,2023-09-22,2023-09-01,Ｌｉｆｔｏｆｆ　Ｍｏｂｉｌｅ株式会社,,株式会社,東京都,港区,西新橋３丁目４番２号ＳＳビル８階,,13,103,1050003,,,2023-09-01,清算の結了等,,,2017-06-22,1,,,,,リフトオフモバイル,0
1316,6010401155592,登記記録の閉鎖等,0,2023-09-22,2023-09-13,日本ＧＬＰキャピタル・パートナーズ株式会社,,株式会社,東京都,中央区,八重洲２丁目２番１号,,13,102,1040028,,,2023-09-13,清算の結了等,,,2020-10-06,1,,,,,ニホンジーエルピーキャピタルパートナーズ,0
1317,6010401159247,登記記録の閉鎖等,0,2023-09-22,2023-09-01,株式会社ＶＡＴＩＱＵＥ,,株式会社,東京都,港区,北青山２丁目７番１３号プラセオ青山ビル３階,,13,103,1070061,,,2023-09-01,清算の結了等,,,2021-04-06,1,,,,,ヴァティーク,0
1332,6010603006478,登記記録の閉鎖等,0,2023-09-22,2023-09-15,紗をりオフィス合同会社,,合同会社,東京都,墨田区,八広５丁目４番２－３０１号久保田ハイツ,,13,107,1310041,,,2023-09-15,清算の結了等,,,2016-10-25,1,,,,,サヲリオフィス,0
1334,6010701010183,登記記録の閉鎖等,0,2023-09-22,2023-09-19,吉田興業株式会社,00051886,株式会社,東京都,品川区,南大井４丁目１９番１２－１００２号,,13,109,1400013,,,2023-09-19,清算の結了等,,,2015-10-05,1,,,,,ヨシダコウギョウ,0
1335,6010701013459,登記記録の閉鎖等,0,2023-09-22,2023-09-14,株式会社ゼータ・ブリッジ,,株式会社,東京都,品川区,大崎２丁目１１番１号,,13,109,1410032,,,2023-09-14,合併による解散等,3010701021828,令和５年９月１日東京都品川区大崎二丁目１１番１号ＳＭＮ株式会社（3010701021828）に合併し解散,2015-10-05,1,,,,,ゼータブリッジ,0
1336,6010701039909,登記記録の閉鎖等,0,2023-09-22,2023-09-14,ＳＭＮメディアデザイン株式会社,,株式会社,東京都,品川区,大崎２丁目１１番１号,,13,109,1410032,,,2023-09-14,合併による解散等,3010701021828,令和５年９月１日東京都品川区大崎二丁目１１番１号ＳＭＮ株式会社（3010701021828）に合併し解散,2020-10-08,1,,,,,エスエムエヌメディアデザイン,0
1347,6011101003323,登記記録の閉鎖等,0,2023-09-22,2023-09-19,株式会社エヌ・ユーケー建築計画事務所,,株式会社,東京都,新宿区,高田馬場４丁目１８番１５号,,13,104,1690075,,,2023-09-19,清算の結了等,,,2015-10-05,1,,,,,エヌユーケーケンチクケイカクジムショ,0
1364,6011801006848,登記記録の閉鎖等,0,2023-09-22,2023-09-19,株式会社カンコー,,株式会社,東京都,足立区,舎人５丁目１９番６号,,13,121,1210831,,,2023-09-19,清算の結了等,,,2015-10-05,1,,,,,カンコー,0
1365,6011801014628,登記記録の閉鎖等,0,2023-09-22,2023-09-19,株式会社浜匠,,株式会社,東京都,足立区,西伊興４丁目７番５号,,13,121,1210824,,,2023-09-19,清算の結了等,,,2015-10-05,1,,,,,ハマショウ,0
1369,6012401002832,登記記録の閉鎖等,0,2023-09-22,2023-09-21,株式会社大沢園芸,,株式会社,東京都,小金井市,前原町４丁目２０番３６号,,13,210,1840013,,,2023-09-21,清算の結了等,,,2015-10-05,1,,,,,オオサワエンゲイ,0
1389,6030001113800,登記記録の閉鎖等,0,2023-09-22,2023-08-28,株式会社アラキ,,株式会社,埼玉県,さいたま市桜区,大字五関４５３番地１４,,11,106,3380815,,,2023-08-28,清算の結了等,,,2016-04-13,1,,,,,アラキ,0
1397,6030002061775,登記記録の閉鎖等,0,2023-09-22,2023-08-28,有限会社日本ケイタリング,,有限会社,埼玉県,新座市,野火止８丁目２３番５号,,11,230,3520011,,,2023-08-28,清算の結了等,,,2015-10-05,1,,,,,ニホンケイタリング,0
1399,6030002096193,登記記録の閉鎖等,0,2023-09-22,2023-08-28,有限会社林精機,,有限会社,埼玉県,東松山市,大字宮鼻１０２３番地の２,,11,212,3550045,,,2023-08-28,清算の結了等,,,2015-10-05,1,,,,,ハヤシセイキ,0
1405,6040001061503,登記記録の閉鎖等,0,2023-09-22,2023-09-06,株式会社萬谷製氷,,株式会社,千葉県,銚子市,川口町１丁目２０５９番地,,12,202,2880001,,,2023-09-06,清算の結了等,,,2015-10-05,1,,,,,ヨロズヤセイヒョウ,0
1427,6100001006823,登記記録の閉鎖等,0,2023-09-22,2023-09-11,フラワーワンストップ株式会社,,株式会社,長野県,長野市,若里６丁目７番１８号,,20,201,3800928,,,2023-09-11,清算の結了等,,,2015-10-05,1,,,,,フラワーワンストップ,0
1428,6100002002697,登記記録の閉鎖等,0,2023-09-22,2023-09-11,有限会社セブン,,有限会社,長野県,長野市,北石堂町１４３２番地,,20,201,3810000,,,2023-09-11,清算の結了等,,,2015-10-05,1,,,,,セブン,0
1429,6100002004669,登記記録の閉鎖等,0,2023-09-22,2023-09-11,有限会社マエザワ,,有限会社,長野県,長野市,松代町松代１７６番地の９,,20,201,3811231,,,2023-09-11,清算の結了等,,,2015-10-05,1,,,,,マエザワ,0
1430,6110003001581,登記記録の閉鎖等,0,2023-09-22,2023-09-19,合同会社コムオン,,合同会社,新潟県,上越市,栄町４番１号,,15,222,9430827,,,2023-09-19,清算の結了等,,,2015-10-05,1,,,,,コムオン,0
1431,6110005015522,登記記録の閉鎖等,0,2023-09-22,2023-09-14,農事組合法人きようせい,,その他の設立登記法人,新潟県,新潟市江南区,早通１丁目５番１６号,,15,104,9500168,,,2023-09-14,清算の結了等,,,2015-10-05,1,,,,,キヨウセイ,0
1432,6120001014915,登記記録の閉鎖等,0,2023-09-22,2023-09-20,株式会社サンイディ,,株式会社,大阪府,富田林市,富田林町２０番１７号,,27,214,5840033,,,2023-09-20,清算の結了等,,,2015-10-05,1,,,,,サンイディ,0
1434,6120001112297,登記記録の閉鎖等,0,2023-09-22,2023-09-08,モリソンランゲージズ株式会社,,株式会社,大阪府,大阪市中央区,北浜３丁目１－１４タカラ淀屋橋ビル３０２,,27,128,5410041,,,2023-09-08,清算の結了等,,,2015-10-05,1,,,,,モリソンランゲージズ,0
1441,6120002004601,登記記録の閉鎖等,0,2023-09-22,2023-09-20,有限会社中尾商店,,有限会社,大阪府,大阪市都島区,片町１丁目６番２３号,,27,102,5340025,,,2023-09-20,清算の結了等,,,2015-10-05,1,,,,,ナカオショウテン,0
1458,6140001112725,登記記録の閉鎖等,0,2023-09-22,2023-09-15,株式会社エムアート,,株式会社,兵庫県,たつの市,新宮町新宮４７０番地１,,28,229,6794313,,,2023-09-15,清算の結了等,,,2019-02-12,1,,,,,エムアート,0
1469,6150001024589,登記記録の閉鎖等,0,2023-09-22,2023-09-20,株式会社イノウエ空調,,株式会社,奈良県,奈良市,学園大和町４丁目２６８番地の９,,29,201,6310041,,,2023-09-20,清算の結了等,,,2021-04-23,1,,,,,イノウエクウチョウ,0
1483,6180002044708,登記記録の閉鎖等,0,2023-09-22,2023-09-14,有限会社名晃,,有限会社,愛知県,名古屋市中川区,元中野町３丁目９５番地,,23,110,4540048,,,2023-09-14,清算の結了等,,,2015-10-05,1,,,,,メイコウ,0
1484,6180002061843,登記記録の閉鎖等,0,2023-09-22,2023-09-15,有限会社白鳥不動産,,有限会社,愛知県,愛知郡東郷町,北山台１丁目１２番地の３,,23,302,4700152,,,2023-09-15,清算の結了等,,,2015-10-05,1,,,,,シラトリフドウサン,0
1503,6240002030404,登記記録の閉鎖等,0,2023-09-22,2023-09-19,有限会社三次クリニカルサービス,,有限会社,広島県,三次市,三次町１５７７番地の２,,34,209,7280021,,,2023-09-19,清算の結了等,,,2015-10-05,1,,,,,ミヨシクリニカルサービス,0
1509,6250002010693,登記記録の閉鎖等,0,2023-09-22,2023-09-13,有限会社福田兄弟商会,,有限会社,山口県,下関市,彦島江の浦町６丁目４番１５号,,35,201,7500075,,,2023-09-13,清算の結了等,,,2015-10-05,1,,,,,フクダキョウダイショウカイ,0
1510,6250002016212,登記記録の閉鎖等,0,2023-09-22,2023-09-14,有限会社ユーキコーポレーション,,有限会社,山口県,周南市,城ケ丘３丁目１５番２３号,,35,215,7450807,,,2023-09-14,清算の結了等,,,2015-10-05,1,,,,,ユーキコーポレーション,0
1512,6290001045803,登記記録の閉鎖等,0,2023-09-22,2023-09-08,株式会社渡辺測研,,株式会社,福岡県,飯塚市,横田５６７番地１,,40,205,8200044,,,2023-09-08,清算の結了等,,,2015-10-05,1,,,,,ワタナベソクケン,0
1516,6290002046065,登記記録の閉鎖等,0,2023-09-22,2023-09-08,有限会社安田測量設計社,,有限会社,福岡県,飯塚市,大日寺４３５番地,,40,205,8200046,,,2023-09-08,清算の結了等,,,2015-10-05,1,,,,,ヤスダソクリョウセッケイシャ,0
1524,6300001011431,登記記録の閉鎖等,0,2023-09-22,2023-09-15,株式会社大竜,,株式会社,佐賀県,佐賀市,大財２丁目７番５号,,41,201,8400811,,,2023-09-15,清算の結了等,,,2018-09-19,1,,,,,ダイリュウ,0
1535,6340002025039,登記記録の閉鎖等,0,2023-09-22,2023-09-20,小倉建材有限会社,,有限会社,鹿児島県,鹿屋市,笠之原町３５８７番地１３,,46,203,8930023,,,2023-09-20,清算の結了等,,,2015-10-05,1,,,,,オグラケンザイ,0
1550,6390001013428,登記記録の閉鎖等,0,2023-09-22,2023-09-19,株式会社トライ工業,,株式会社,山形県,米沢市,金池７丁目５番２１号,,06,202,9920012,,,2023-09-19,清算の結了等,,,2015-10-05,1,,,,,トライコウギョウ,0
1554,6410002009265,登記記録の閉鎖等,0,2023-09-22,2023-09-15,有限会社興安,,有限会社,秋田県,北秋田市,米内沢字諏訪岱３１番地の８,,05,213,0184301,,,2023-09-15,清算の結了等,,,2015-10-05,1,,,,,コウアン,0
1556,6420002019809,登記記録の閉鎖等,0,2023-09-22,2023-09-14,有限会社北斗測量,,有限会社,青森県,むつ市,大字中野沢字上山道８番地７２,,02,208,0350012,,,2023-09-14,清算の結了等,,,2015-10-05,1,,,,,ホクトソクリョウ,0
1576,7010003027652,登記記録の閉鎖等,0,2023-09-22,2023-09-13,ＥＳＲ茅ヶ崎合同会社,,合同会社,東京都,中央区,日本橋１丁目４番１号日本橋一丁目ビルディング,,13,102,1030027,,,2023-09-13,清算の結了等,,,2018-06-08,1,,,,,,0
1597,7010803003828,登記記録の閉鎖等,0,2023-09-22,2023-09-19,合同会社コスメ・グランビューＫＴ,,合同会社,東京都,大田区,北千束３丁目２８番１号パークホームズ大岡山ラビィアンコート２０５,,13,111,1450062,,,2023-09-19,清算の結了等,,,2021-07-26,1,,,,,コスメグランビューケーティー,0
1640,7020001016879,登記記録の閉鎖等,0,2023-09-22,2023-08-09,越智精機株式会社,,株式会社,神奈川県,横浜市鶴見区,元宮１丁目９番１５号,,14,101,2300004,,,2023-08-09,清算の結了等,,,2015-10-05,1,,,,,オチセイキ,0
1641,7020001115326,登記記録の閉鎖等,0,2023-09-22,2023-09-13,ライフスタンダード株式会社,,株式会社,神奈川県,藤沢市,湘南台１丁目１６番地の２,,14,205,2520804,,,2023-09-13,清算の結了等,,,2016-03-18,1,,,,,ライフスタンダード,0
1682,7080402000344,登記記録の閉鎖等,0,2023-09-22,2023-09-21,有限会社アステック,,有限会社,静岡県,浜松市中区,細島町１４番地の２,,22,131,4350045,,,2023-09-21,清算の結了等,,,2015-10-05,1,,,,,アステック,0
1684,7110001034426,登記記録の閉鎖等,0,2023-09-22,2023-09-19,アクトライフ株式会社,,株式会社,新潟県,新潟市中央区,鳥屋野１丁目３７番７号,,15,103,9500951,,,2023-09-19,清算の結了等,,,2019-11-11,1,,,,,アクトライフ,0
1720,7180001020023,登記記録の閉鎖等,0,2023-09-22,2023-09-19,谷口鋳工株式会社,,株式会社,愛知県,名古屋市中川区,福川町４丁目１番地ノ１,,23,110,4540059,,,2023-09-19,清算の結了等,,,2015-10-05,1,,,,,タニグチチュウコウ,0
1725,7180001119971,登記記録の閉鎖等,0,2023-09-22,2023-09-19,株式会社ケリー,,株式会社,愛知県,名古屋市中川区,万場５丁目１６０９番地５,,23,110,4540997,,,2023-09-19,清算の結了等,,,2015-10-05,1,,,,,ケリー,0
1728,7180001146603,登記記録の閉鎖等,0,2023-09-22,2023-09-15,株式会社ＭＩＺＫＩ,,株式会社,愛知県,名古屋市熱田区,千年１丁目２６番１３号,,23,109,4560054,,,2023-09-15,清算の結了等,,,2021-06-21,1,,,,,ミズキ,0
1734,7180002037495,登記記録の閉鎖等,0,2023-09-22,2023-09-15,有限会社エムテック,,有限会社,愛知県,名古屋市南区,三吉町１丁目２７番地,,23,112,4570805,,,2023-09-15,清算の結了等,,,2015-10-05,1,,,,,エムテック,0
1737,7180005003734,登記記録の閉鎖等,0,2023-09-22,2023-09-20,名古屋文具福祉協同組合,,その他の設立登記法人,愛知県,名古屋市中区,丸の内２丁目１４番４号,,23,106,4600002,,,2023-09-20,清算の結了等,,,2015-10-05,1,,,,,ナゴヤブングフクシ,0
1750,7200002014665,登記記録の閉鎖等,0,2023-09-22,2023-09-15,有限会社美濃紙工,,有限会社,岐阜県,海津市,海津町高須町１１６３番地の１,,21,221,5030653,,,2023-09-15,清算の結了等,,,2015-10-05,1,,,,,ミノシコウ,0
1751,7200002026066,登記記録の閉鎖等,0,2023-09-22,2023-09-15,有限会社やまきち建築工房,,有限会社,岐阜県,高山市,清見町夏厩７１３番地の５５,00077123,21,203,5060205,,,2023-09-15,清算の結了等,,,2015-10-05,1,,,,,ヤマキチケンチクコウボウ,0
1753,7220002010299,登記記録の閉鎖等,0,2023-09-22,2023-09-19,有限会社宇野商店,,有限会社,石川県,小松市,飴屋町１２番地の２,00078466,17,203,9230922,,,2023-09-19,清算の結了等,,,2015-10-05,1,,,,,ウノショウテン,0
1765,7270002005179,登記記録の閉鎖等,0,2023-09-22,2023-09-20,有限会社アクアリウムペア,,有限会社,鳥取県,境港市,岬町４５番地２９,,31,204,6840017,,,2023-09-20,清算の結了等,,,2015-10-05,1,,,,,アクアリウムペア,0
1795,7430001002508,登記記録の閉鎖等,0,2023-09-22,2023-09-06,株式会社エダモト,,株式会社,北海道,札幌市豊平区,月寒中央通１１丁目７番２２－７０１号,,01,105,0620020,,,2023-09-06,清算の結了等,,,2015-10-05,1,,,,,エダモト,0
1819,8010002011945,登記記録の閉鎖等,0,2023-09-22,2023-09-13,有限会社太陽堂印房,,有限会社,東京都,千代田区,東神田２丁目４番７号,,13,101,1010031,,,2023-09-13,清算の結了等,,,2015-10-05,1,,,,,タイヨウドウインボウ,0
1820,8010002019848,登記記録の閉鎖等,0,2023-09-22,2023-09-11,有限会社コメケン水産,,有限会社,東京都,江東区,豊洲６丁目５番１号,,13,108,1350061,,,2023-09-11,清算の結了等,,,2015-10-05,1,,,,,コメケンスイサン,0
1830,8010401117467,登記記録の閉鎖等,0,2023-09-22,2023-09-20,株式会社ＪＢＭコンサルタント,,株式会社,大阪府,大阪市北区,東天満１丁目１１番９号和氣ビル６階,,27,127,5300044,,,2023-09-20,合併による解散等,1013301028815,令和５年９月１日東京都豊島区東池袋三丁目１番１号株式会社セゾンパーソナルプラス（1013301028815）に合併し解散,2015-10-05,1,,,,,ジェイビーエムコンサルタント,0
1839,8010701035864,登記記録の閉鎖等,0,2023-09-22,2023-09-14,ネクスジェンデジタル株式会社,,株式会社,東京都,品川区,大崎２丁目１１番１号,,13,109,1410032,,,2023-09-14,合併による解散等,3010701021828,令和５年９月１日東京都品川区大崎二丁目１１番１号ＳＭＮ株式会社（3010701021828）に合併し解散,2018-05-25,1,,,,,ネクスジェンデジタル,0
1845,8011001059785,登記記録の閉鎖等,0,2023-09-22,2023-09-19,甲府パブリックサービス株式会社,,株式会社,東京都,渋谷区,千駄ヶ谷４丁目２５番２号,,13,113,1510051,,,2023-09-19,清算の結了等,,,2015-10-05,1,,,,,コウフパブリックサービス,0
1875,8012702009112,登記記録の閉鎖等,0,2023-09-22,2023-09-20,有限会社スワン,,有限会社,東京都,清瀬市,野塩１丁目３２８番地サンプラザ秋津１０７号,,13,221,2040004,,,2023-09-20,清算の結了等,,,2015-10-05,1,,,,,スワン,0
1890,8030001108856,登記記録の閉鎖等,0,2023-09-22,2023-08-28,株式会社福永企画,,株式会社,埼玉県,桶川市,上日出谷南１丁目６１番地の１,,11,231,3630020,,,2023-08-28,清算の結了等,,,2015-10-05,1,,,,,フクナガキカク,0
1912,8090002010568,登記記録の閉鎖等,0,2023-09-22,2023-09-20,有限会社横山金物店,,有限会社,山梨県,都留市,中央３丁目７番３号,,19,204,4020052,,,2023-09-20,清算の結了等,,,2015-10-05,1,,,,,ヨコヤマカナモノテン,0
1935,8120105000603,登記記録の閉鎖等,0,2023-09-22,2023-09-20,堺一条事業協同組合,,その他の設立登記法人,大阪府,堺市堺区,一条通９番２１号,,27,141,5900048,,,2023-09-20,清算の結了等,,,2015-10-05,1,,,,,サカイイチジョウ,0
1955,8170003001748,登記記録の閉鎖等,0,2023-09-22,2023-09-21,合同会社ヘルパーステーションとわ,,合同会社,和歌山県,和歌山市,直川１９１２番地３－２０２,,30,201,6408481,,,2023-09-21,清算の結了等,,,2022-07-08,1,,,,,ヘルパーステーショントワ,0
1960,8180001139052,登記記録の閉鎖等,0,2023-09-22,2023-09-08,株式会社ｓｍａｒｔ,,株式会社,愛知県,江南市,東野町神上１２９番地パークシティ江南四番街１３０２号,,23,217,4838422,,,2023-09-08,清算の結了等,,,2019-11-29,1,,,,,スマート,0
1970,8200002001423,登記記録の閉鎖等,0,2023-09-22,2023-09-19,有限会社協栄建材,,有限会社,岐阜県,岐阜市,茜部大川２丁目７２番地,,21,201,5008282,,,2023-09-19,清算の結了等,,,2015-10-05,1,,,,,キョウエイケンザイ,0
1971,8240001021856,登記記録の閉鎖等,0,2023-09-22,2023-09-15,ゼンジ株式会社,,株式会社,広島県,広島市安佐南区,山本２丁目３番１３号,,34,105,7310137,,,2023-09-15,清算の結了等,,,2015-10-05,1,,,,,ゼンジ,0
1976,8240002016962,登記記録の閉鎖等,0,2023-09-22,2023-09-19,有限会社矢川産業,,有限会社,広島県,広島市安佐南区,伴西６丁目３０８番地,,34,105,7313169,,,2023-09-19,清算の結了等,,,2015-10-05,1,,,,,ヤガワサンギョウ,0
1978,8240003004611,登記記録の閉鎖等,0,2023-09-22,2023-09-14,合同会社ニュートラル,,合同会社,広島県,福山市,光南町１丁目２－３４,,34,207,7200814,,,2023-09-14,清算の結了等,,,2020-03-24,1,,,,,ニュートラル,0
1981,8260001036324,登記記録の閉鎖等,0,2023-09-22,2023-09-20,Ｓｉｍｐｌｅ株式会社,,株式会社,岡山県,倉敷市,新田３２９２番地１,,33,202,7100038,,,2023-09-20,清算の結了等,,,2021-12-17,1,,,,,シンプル,0
2007,8370002009235,登記記録の閉鎖等,0,2023-09-22,2023-09-13,有限会社東北ニツポー,,有限会社,宮城県,黒川郡大和町,落合相川字塚越４７番地,,04,421,9813404,,,2023-09-13,清算の結了等,,,2015-10-05,1,,,,,トウホクニツポー,0
2010,8380001020803,登記記録の閉鎖等,0,2023-09-22,2023-09-15,株式会社カエラ,,株式会社,福島県,耶麻郡猪苗代町,字本町１７番地,,07,408,9693122,,,2023-09-15,清算の結了等,,,2015-10-05,1,,,,,カエラ,0
2013,8390002011701,登記記録の閉鎖等,0,2023-09-22,2023-09-20,有限会社原田工機,,有限会社,山形県,村山市,大字名取４２３番地の１,,06,208,9950052,,,2023-09-20,清算の結了等,,,2015-10-05,1,,,,,ハラダコウキ,0
2021,8430003014434,登記記録の閉鎖等,0,2023-09-22,2023-09-06,ＳＨＩＮＫＯ合同会社,,合同会社,北海道,岩見沢市,幌向南三条１丁目２１５番地５２,,01,210,0690373,,,2023-09-06,清算の結了等,,,2022-11-04,1,,,,,シンコー,0
2023,8462502001281,登記記録の閉鎖等,0,2023-09-22,2023-09-20,有限会社松原ファーム,,有限会社,北海道,野付郡別海町,中西別２２番地５４,,01,691,0860345,,,2023-09-20,清算の結了等,,,2015-10-05,1,,,,,マツバラファーム,0
2026,8500002004404,登記記録の閉鎖等,0,2023-09-22,2023-09-20,有限会社中央不動産,,有限会社,愛媛県,松山市,東長戸２丁目２番２３号,,38,201,7918005,,,2023-09-20,清算の結了等,,,2015-10-05,1,,,,,チュウオウフドウサン,0
2045,9010401155004,登記記録の閉鎖等,0,2023-09-22,2023-09-01,株式会社ベリートラスト,,株式会社,東京都,港区,浜松町１丁目２７番９号,,13,103,1050013,,,2023-09-01,合併による解散等,6010401011671,令和５年９月１日東京都港区浜松町一丁目２７番９号株式会社サンビルベリートラスト（6010401011671）に合併し解散,2020-09-04,1,,,,,ベリートラスト,0
2088,9011401001404,登記記録の閉鎖等,0,2023-09-22,2023-09-15,株式会社神田建設,,株式会社,東京都,板橋区,上板橋２丁目１６番２号,,13,119,1740076,,,2023-09-15,清算の結了等,,,2015-10-05,1,,,,,カンダケンセツ,0
2102,9020001087308,登記記録の閉鎖等,0,2023-09-22,2023-09-12,株式会社Ｓｔｅｐ５,,株式会社,神奈川県,横浜市戸塚区,下倉田町５６３番地１,,14,110,2440815,,,2023-09-12,清算の結了等,,,2015-10-05,1,,,,,ステップファイブ,0
2108,9020003013022,登記記録の閉鎖等,0,2023-09-22,2023-09-12,アクシアパートナーズ合同会社,,合同会社,神奈川県,横浜市南区,六ツ川１丁目４０４番地,,14,105,2320066,,,2023-09-12,清算の結了等,,,2017-07-14,1,,,,,アクシアパートナーズ,0
2110,9021002020050,登記記録の閉鎖等,0,2023-09-22,2023-09-14,有限会社小菅工務店,,有限会社,神奈川県,相模原市中央区,田名５６６９番地,,14,152,2520244,,,2023-09-14,清算の結了等,,,2015-10-05,1,,,,,コスゲコウムテン,0
2122,9030002099276,登記記録の閉鎖等,0,2023-09-22,2023-08-28,有限会社ハイマウント・スポーツ,,有限会社,埼玉県,川口市,鳩ヶ谷本町３丁目１０番９号,,11,203,3340002,,,2023-08-28,清算の結了等,,,2015-10-05,1,,,,,ハイマウントスポーツ,0
2127,9040001026627,登記記録の閉鎖等,0,2023-09-22,2023-09-07,株式会社セイリン,,株式会社,千葉県,市川市,中山１丁目６番５号,,12,203,2720813,,,2023-09-07,清算の結了等,,,2015-10-05,1,,,,,セイリン,0
2130,9040002047795,登記記録の閉鎖等,0,2023-09-22,2023-09-05,有限会社日月造園工房,,有限会社,千葉県,松戸市,下矢切９０番地の３,,12,207,2710096,,,2023-09-05,清算の結了等,,,2015-10-05,1,,,,,ニチゲツゾウエンコウボウ,0
2132,9040003006783,登記記録の閉鎖等,0,2023-09-22,2023-09-07,合同会社宮古川井太陽の郷,,合同会社,千葉県,千葉市中央区,松波２丁目４番１８号,,12,101,2600044,,,2023-09-07,清算の結了等,,,2015-10-05,1,,,,,ミヤコカワイタイヨウノサト,0
2138,9060002028232,登記記録の閉鎖等,0,2023-09-22,2023-09-11,有限会社熊野,,有限会社,栃木県,小山市,城東２丁目２０番１号,,09,208,3230807,,,2023-09-11,清算の結了等,,,2015-10-05,1,,,,,クマノ,0
2142,9070002035153,登記記録の閉鎖等,0,2023-09-22,2023-09-19,有限会社松屋家具店,,有限会社,群馬県,沼田市,栄町４９５番地１,,10,206,3780014,,,2023-09-19,清算の結了等,,,2015-10-05,1,,,,,マツヤカグテン,0
2146,9080102016754,登記記録の閉鎖等,0,2023-09-22,2023-09-20,有限会社佐野冷熱,,有限会社,静岡県,富士宮市,大中里７１６番地の４１,,22,207,4180044,,,2023-09-20,清算の結了等,,,2015-10-05,1,,,,,サノレイネツ,0
2150,9100002000764,登記記録の閉鎖等,0,2023-09-22,2023-09-11,有限会社江戸屋,,有限会社,長野県,長野市,篠ノ井布施高田８６２番地４,,20,201,3888007,,,2023-09-11,清算の結了等,,,2015-10-05,1,,,,,エドヤ,0
2151,9100002023625,登記記録の閉鎖等,0,2023-09-22,2023-09-11,有限会社柴田自動車販売,,有限会社,長野県,安曇野市,豊科４１８番地２,,20,220,3998205,,,2023-09-11,清算の結了等,,,2015-10-05,1,,,,,シバタジドウシャハンバイ,0
2157,9120001166811,登記記録の閉鎖等,0,2023-09-22,2023-09-20,株式会社さいとう,,株式会社,大阪府,大阪市天王寺区,小橋町１２番１５－８０４号,,27,109,5430028,,,2023-09-20,清算の結了等,,,2015-10-05,1,,,,,サイトウ,0
2174,9130001008269,登記記録の閉鎖等,0,2023-09-22,2023-09-08,株式会社清水漬物商会,,株式会社,京都府,京都市西京区,大枝東新林町２丁目６番地２,,26,111,6101142,,,2023-09-08,清算の結了等,,,2015-10-05,1,,,,,,0
2193,9160001009215,登記記録の閉鎖等,0,2023-09-22,2023-09-19,株式会社八昇コーポレーション,,株式会社,滋賀県,彦根市,犬方町８４５－２３,,25,202,5220236,,,2023-09-19,清算の結了等,,,2015-10-05,1,,,,,ハッショウコーポレーション,0
2216,9200002003864,登記記録の閉鎖等,0,2023-09-22,2023-09-19,有限会社廣瀬鉄工,00076849,有限会社,岐阜県,岐阜市,又丸町畑３３番地の５,,21,201,5011153,,,2023-09-19,清算の結了等,,,2015-10-05,1,,,,,ヒロセテッコウ,0
2217,9200002005051,登記記録の閉鎖等,0,2023-09-22,2023-09-19,有限会社ユーロピアン,,有限会社,岐阜県,岐阜市,明神町１丁目６３番地の２,,21,201,5020922,,,2023-09-19,清算の結了等,,,2015-10-05,1,,,,,ユーロピアン,0
2218,9200002026403,登記記録の閉鎖等,0,2023-09-22,2023-09-21,ヒダシコー有限会社,,有限会社,岐阜県,高山市,松之木町１０４０番地６,,21,203,5060802,,,2023-09-21,清算の結了等,,,2015-10-05,1,,,,,ヒダシコー,0
2229,9240002016846,登記記録の閉鎖等,0,2023-09-22,2023-09-20,有限会社森下外装店,,有限会社,広島県,広島市安佐南区,古市３丁目１６番５号,,34,105,7310123,,,2023-09-20,清算の結了等,,,2015-10-05,1,,,,,モリシタガイソウテン,0
2253,9320002005337,登記記録の閉鎖等,0,2023-09-22,2023-09-19,有限会社ハイツしようざん,,有限会社,大分県,大分市,萩原３丁目５番１３号,,44,201,8700921,,,2023-09-19,清算の結了等,,,2015-10-05,1,,,,,,0
2254,9330001015699,登記記録の閉鎖等,0,2023-09-22,2023-09-13,株式会社ヨシムラ産業,,株式会社,熊本県,天草郡苓北町,内田２２９番地８,,43,531,8632505,,,2023-09-13,清算の結了等,,,2015-10-05,1,,,,,ヨシムラサンギョウ,0
2259,9330002010567,登記記録の閉鎖等,0,2023-09-22,2023-09-13,有限会社むらもり,,有限会社,熊本県,熊本市中央区,白山３丁目６番７号,,43,101,8620959,,,2023-09-13,清算の結了等,,,2015-10-05,1,,,,,ムラモリ,0
2270,9370002000960,登記記録の閉鎖等,0,2023-09-22,2023-09-14,有限会社白江電気商会,,有限会社,宮城県,仙台市泉区,南光台２丁目８番１３号,,04,105,9818003,,,2023-09-14,清算の結了等,,,2015-10-05,1,,,,,シラエデンキショウカイ,0
