sequenceNumber,corporateNumber,process,correct,updateDate,changeDate,name,nameImageId,kind,prefectureName,cityName,streetNumber,addressImageId,prefectureCode,cityCode,postCode,addressOutside,addressOutsideImageId,closeDate,closeCause,successorCorporateNumber,changeCause,assignmentDate,latest,enName,enPrefectureName,enCityName,enAddressOutside,furigana,hihyoji
2,1010001030192,登記記録の閉鎖等,0,2024-04-19,2024-04-05,株式会社ミハラ,,株式会社,東京都,千代田区,外神田６丁目１５番１４号外神田ストークビル４階,,13,101,1010021,,,2024-04-05,清算の結了等,,,2015-10-05,1,,,,,ミハラ,0
68,1011003011346,登記記録の閉鎖等,0,2024-04-19,2024-04-04,合同会社ＣｏｃｏａｎｄＢｏｕｑｕｅｔ一輪のツキミソウ,,合同会社,東京都,港区,南青山７丁目９番２号ラクーラ南青山２０３号室,,13,103,1070062,,,2024-04-04,清算の結了等,,,2020-07-03,1,,,,,ココアンドブーケットイチリンノツキミソウ,0
72,1011101063545,登記記録の閉鎖等,0,2024-04-19,2024-04-16,株式会社Ｊａｃｕｚｚｉ,,株式会社,東京都,新宿区,歌舞伎町１丁目１番１９号,,13,104,1600021,,,2024-04-16,清算の結了等,,,2015-10-05,1,,,,,ジャグジー,0
82,1011501002490,登記記録の閉鎖等,0,2024-04-19,2024-04-09,添田印刷株式会社,,株式会社,東京都,北区,栄町４７番５号,,13,117,1140005,,,2024-04-09,清算の結了等,,,2015-10-05,1,,,,,ソエダインサツ,0
85,1011601005864,登記記録の閉鎖等,0,2024-04-19,2024-04-11,株式会社藤エンジニアリング,,株式会社,東京都,練馬区,三原台１丁目１２番７号,,13,120,1770031,,,2024-04-11,清算の結了等,,,2015-10-05,1,,,,,フジエンジニアリング,0
89,1011802011538,登記記録の閉鎖等,0,2024-04-19,2024-04-16,有限会社川井硝子建材,,有限会社,東京都,足立区,保木間３丁目７番２０号,,13,121,1210064,,,2024-04-16,清算の結了等,,,2015-10-05,1,,,,,カワイガラスケンザイ,0
90,1011802019127,登記記録の閉鎖等,0,2024-04-19,2024-04-16,有限会社ミック,,有限会社,東京都,足立区,綾瀬３丁目１４番６－４０１号,,13,121,1200005,,,2024-04-16,清算の結了等,,,2015-10-05,1,,,,,,0
100,1020001033236,登記記録の閉鎖等,0,2024-04-19,2024-04-05,株式会社アルテサロンホールディングス,,株式会社,神奈川県,横浜市中区,翁町１丁目４番１号,,14,104,2310028,,,2024-04-05,合併による解散等,3020001144790,令和６年４月１日横浜市中区翁町一丁目４番１号株式会社アルテジェネシス（3020001144790）に合併し解散,2015-10-05,1,,,,,アルテサロンホールディングス,0
118,1021002033398,登記記録の閉鎖等,0,2024-04-19,2024-04-17,有限会社村田建材土木,,有限会社,神奈川県,厚木市,三田２８０５番地の３,,14,212,2430211,,,2024-04-17,清算の結了等,,,2015-10-05,1,,,,,ムラタケンザイドボク,0
119,1021003008143,登記記録の閉鎖等,0,2024-04-19,2024-04-10,合同会社雅也－ｉ,,合同会社,神奈川県,藤沢市,藤沢５４５番地の４８パーク・ノヴァ藤沢９０３号室,,14,205,2510052,,,2024-04-10,清算の結了等,,,2019-02-08,1,,,,,マサヤアイ,0
134,1030005003985,登記記録の閉鎖等,0,2024-04-19,2024-04-01,学校法人吉野学園,,その他の設立登記法人,埼玉県,入間市,大字野田字滝ノ上１５８５番地,,11,225,3580054,,,2024-04-01,合併による解散等,7030005014762,令和６年４月１日埼玉県飯能市大字中山２９２番地学校法人聖望学園（7030005014762）に合併し解散,2015-10-05,1,,,,,ヨシノガクエン,0
153,1070001015551,登記記録の閉鎖等,0,2024-04-19,2024-04-15,株式会社アテナ工芸,,株式会社,群馬県,桐生市,菱町１丁目４７０番地,,10,203,3760001,,,2024-04-15,清算の結了等,,,2015-10-05,1,,,,,アテナコウゲイ,0
172,1110002027871,登記記録の閉鎖等,0,2024-04-19,2024-04-12,有限会社システムレモラ,,有限会社,新潟県,長岡市,中沢２丁目１１０２番地１９,,15,202,9400853,,,2024-04-12,清算の結了等,,,2015-10-05,1,,,,,システムレモラ,0
181,1120001232117,登記記録の閉鎖等,0,2024-04-19,2024-04-08,惠騰国際株式会社,,株式会社,大阪府,大阪市中央区,島之内２丁目１１番６号３０２号室,,27,128,5420082,,,2024-04-08,清算の結了等,,,2020-10-02,1,,,,,ケイトウコクサイ,0
193,1120101065185,登記記録の閉鎖等,0,2024-04-19,2024-04-12,株式会社ＲＡＮ,,株式会社,大阪府,羽曳野市,高鷲５丁目４２２番地の４５,,27,222,5830882,,,2024-04-12,清算の結了等,,,2022-03-07,1,,,,,ラン,0
201,1130001012617,登記記録の閉鎖等,0,2024-04-19,2024-04-08,株式会社クワケン,,株式会社,京都府,京都市山科区,椥辻東潰町９番地東英ビル３階３０２号,00035426,26,110,6078163,,,2024-04-08,合併による解散等,2130001013606,令和６年４月１日京都市山科区大宅御供田町１２番地レジデンス山科２０３号株式会社関西メデイカルプラン（2130001013606）に合併し解散,2015-10-05,1,,,,,クワケン,0
208,1140001031946,登記記録の閉鎖等,0,2024-04-19,2024-04-16,チーム名谷株式会社,,株式会社,兵庫県,神戸市垂水区,名谷町字春日手２２５９番地の１,,28,108,6550852,,,2024-04-16,清算の結了等,,,2015-10-05,1,,,,,チームミョウダニ,0
213,1140001119452,登記記録の閉鎖等,0,2024-04-19,2024-04-15,株式会社イマージェンシー,,株式会社,兵庫県,神戸市長田区,御蔵通４丁目２０１－１－１０１,,28,106,6530014,,,2024-04-15,清算の結了等,,,2020-11-16,1,,,,,イマージェンシー,0
240,1200001034091,登記記録の閉鎖等,0,2024-04-19,2024-04-17,株式会社ＨＮＯＴ,,株式会社,岐阜県,岐阜市,鶴舞町２丁目５番地,,21,201,5008163,,,2024-04-17,清算の結了等,,,2017-06-01,1,,,,,エイチノット,0
242,1200002014084,登記記録の閉鎖等,0,2024-04-19,2024-04-16,有限会社棚橋鉄工,,有限会社,岐阜県,安八郡輪之内町,楡俣１２７番地,,21,382,5030201,,,2024-04-16,清算の結了等,,,2015-10-05,1,,,,,タナハシテッコウ,0
244,1210001019281,登記記録の閉鎖等,0,2024-04-19,2024-04-12,株式会社Ｓｕｎ,,株式会社,福井県,福井市,大手３丁目１番１３号大手門ビル７階,,18,201,9100005,,,2024-04-12,清算の結了等,,,2023-04-21,1,,,,,サン,0
245,1210002002419,登記記録の閉鎖等,0,2024-04-19,2024-04-16,寺尾設備工業有限会社,,有限会社,福井県,坂井市,春江町寄安第２８号９番地,,18,210,9190442,,,2024-04-16,清算の結了等,,,2015-10-05,1,,,,,テラオセツビコウギョウ,0
256,1240005007750,登記記録の閉鎖等,0,2024-04-19,2024-04-16,医療法人社団高橋クリニック,,その他の設立登記法人,広島県,福山市,延広町１番２５号明治生命福山駅前ビル５階,,34,207,7200064,,,2024-04-16,清算の結了等,,,2015-10-05,1,,,,,タカハシクリニック,0
257,1260001032156,登記記録の閉鎖等,0,2024-04-19,2024-04-05,結ファーム株式会社,,株式会社,岡山県,玉野市,山田１７５９番地３,,33,204,7060314,,,2024-04-05,合併による解散等,6260001038025,令和６年４月１日岡山市北区大内田８２０番地７株式会社グランパークせとうち農園（6260001038025）に合併し解散,2018-06-27,1,,,,,ユイファーム,0
263,1290001032847,登記記録の閉鎖等,0,2024-04-19,2024-03-29,株式会社エイチディー,,株式会社,福岡県,宗像市,田熊１丁目５番２７－２０４号,,40,220,8113431,,,2024-03-29,清算の結了等,,,2015-10-05,1,,,,,エイチディー,0
287,1350005001957,登記記録の閉鎖等,0,2024-04-19,2024-04-01,西都農業協同組合,,その他の設立登記法人,宮崎県,西都市,大字右松２０７１番地,,45,208,8810003,,,2024-04-01,合併による解散等,6350005000698,令和６年４月１日宮崎市霧島一丁目１番地１宮崎県農業協同組合（6350005000698）に合併し解散,2015-10-05,1,,,,,サイト,0
288,1350005003284,登記記録の閉鎖等,0,2024-04-19,2024-04-01,高千穂地区農業協同組合,,その他の設立登記法人,宮崎県,西臼杵郡高千穂町,大字三田井１番地,,45,441,8821101,,,2024-04-01,合併による解散等,6350005000698,令和６年４月１日宮崎市霧島一丁目１番地１宮崎県農業協同組合（6350005000698）に合併し解散,2015-10-05,1,,,,,タカチホチク,0
289,1350005004274,登記記録の閉鎖等,0,2024-04-19,2024-04-01,はまゆう農業協同組合,,その他の設立登記法人,宮崎県,日南市,吾田東２丁目５番１５号,,45,204,8870041,,,2024-04-01,合併による解散等,6350005000698,令和６年４月１日宮崎市霧島一丁目１番地１宮崎県農業協同組合（6350005000698）に合併し解散,2015-10-05,1,,,,,ハマユウ,0
290,1350005004299,登記記録の閉鎖等,0,2024-04-19,2024-04-01,串間市大束農業協同組合,,その他の設立登記法人,宮崎県,串間市,大字奈留５２３７番地１,,45,207,8893531,,,2024-04-01,合併による解散等,6350005000698,令和６年４月１日宮崎市霧島一丁目１番地１宮崎県農業協同組合（6350005000698）に合併し解散,2015-10-05,1,,,,,クシマシオオツカ,0
306,1410002011531,登記記録の閉鎖等,0,2024-04-19,2024-04-05,有限会社鈴木淳耕建築設計事務所,,有限会社,秋田県,大仙市,大曲白金町４番１２号,,05,212,0140015,,,2024-04-05,清算の結了等,,,2015-10-05,1,,,,,スズキジュンコウケンチクセッケイジムショ,0
311,1430005000760,登記記録の閉鎖等,0,2024-04-19,2024-04-01,学校法人天使学園,,その他の設立登記法人,北海道,札幌市東区,北十三条東３丁目１番３０号天使大学内,,01,103,0650013,,,2024-04-01,合併による解散等,4430005000782,令和６年４月１日札幌市北区北十六条西二丁目１番１号学校法人藤天使学園（4430005000782）に合併し解散,2015-10-05,1,,,,,テンシガクエン,0
312,1450001006529,登記記録の閉鎖等,0,2024-04-19,2024-04-01,北央レンタカー株式会社,,株式会社,北海道,富良野市,字西扇山の１,,01,229,0760006,,,2024-04-01,合併による解散等,7450001006531,令和６年４月１日北海道富良野市字西扇山の１北央貨物運輸株式会社（7450001006531）に合併し解散,2015-10-05,1,,,,,ホクオウレンタカー,0
330,2010001099293,登記記録の閉鎖等,0,2024-04-19,2024-04-16,株式会社ユーワ,,株式会社,東京都,品川区,上大崎３丁目１番１号目黒セントラルスクエア１５階,,13,109,1410021,,,2024-04-16,合併による解散等,4010703006966,令和６年４月１６日東京都品川区上大崎三丁目１番１号目黒セントラルスクエア１５階ユーワホールディングス合同会社（4010703006966）に合併し解散,2015-10-05,1,,,,,ユーワ,0
331,2010001131832,登記記録の閉鎖等,0,2024-04-19,2024-04-05,ＧＰＣホールディングス株式会社,,株式会社,東京都,中央区,日本橋３丁目１番４号日本橋さくらビル,,13,102,1030027,,,2024-04-05,合併による解散等,7010001124947,令和６年４月１日東京都中央区日本橋三丁目１番４号日本橋さくらビル７階グローカルペットケア株式会社（7010001124947）に合併し解散,2015-10-05,1,,,,,ジーピーシーホールディングス,0
343,2010003038324,登記記録の閉鎖等,0,2024-04-19,2024-04-05,ＨＩＴＯＴＳＵＭＥ合同会社,,合同会社,東京都,千代田区,六番町４番地５,,13,101,1020085,,,2024-04-05,清算の結了等,,,2022-08-04,1,,,,,ヒトツメ,0
367,2010501015543,登記記録の閉鎖等,0,2024-04-19,2024-04-10,株式会社渡辺製作所,,株式会社,東京都,台東区,竜泉２丁目１２番１４号,,13,106,1100012,,,2024-04-10,清算の結了等,,,2015-10-05,1,,,,,ワタナベセイサクショ,0
371,2010502009511,登記記録の閉鎖等,0,2024-04-19,2024-04-09,有限会社比護生活デザイン事務所,,有限会社,東京都,台東区,鳥越１丁目７番２号,,13,106,1110054,,,2024-04-09,清算の結了等,,,2015-10-05,1,,,,,ヒゴセイカツデザインジムショ,0
419,2011701012339,登記記録の閉鎖等,0,2024-04-19,2024-04-10,株式会社ジャスティム,,株式会社,東京都,江戸川区,東小岩５丁目５番８号,,13,123,1330052,,,2024-04-10,清算の結了等,,,2015-10-05,1,,,,,ジャスティム,0
436,2013301039209,登記記録の閉鎖等,0,2024-04-19,2024-04-05,株式会社ＥＰＡＲＫライフスタイル,,株式会社,東京都,港区,芝浦４丁目１６番２５号,,13,103,1080023,,,2024-04-05,合併による解散等,9011101063125,令和６年４月１日東京都港区芝浦四丁目１６番２５号株式会社ＥＰＡＲＫモール（9011101063125）に合併し解散,2016-08-01,1,,,,,イーパークライフスタイル,0
439,2013302019507,登記記録の閉鎖等,0,2024-04-19,2024-04-08,ＵＷＴＢ有限会社,,有限会社,東京都,豊島区,駒込３丁目１２番１４号,,13,116,1700003,,,2024-04-08,清算の結了等,,,2015-10-05,1,,,,,ユーダブルティービー,0
443,2020001098022,登記記録の閉鎖等,0,2024-04-19,2024-04-05,株式会社コンフィデンス,,株式会社,神奈川県,横浜市金沢区,能見台通７－１９,,14,108,2360053,,,2024-04-05,清算の結了等,,,2015-10-05,1,,,,,コンフィデンス,0
450,2021001065128,登記記録の閉鎖等,0,2024-04-19,2024-04-18,株式会社ＤＬＥＳＳ,,株式会社,神奈川県,平塚市,紅谷町２番２４号,,14,203,2540043,,,2024-04-18,清算の結了等,,,2018-07-10,1,,,,,ドレス,0
458,2021002021419,登記記録の閉鎖等,0,2024-04-19,2024-04-17,有限会社鈴木建材,,有限会社,神奈川県,相模原市南区,麻溝台７丁目１６番２－１０１号,,14,153,2520328,,,2024-04-17,清算の結了等,,,2015-10-05,1,,,,,スズキケンザイ,0
477,2040001028489,登記記録の閉鎖等,0,2024-04-19,2024-04-04,高周波精密株式会社,,株式会社,東京都,千代田区,岩本町１丁目１０番５号ＴＭＭビル８階,,13,101,1010032,,,2024-04-04,合併による解散等,1010001016852,令和６年４月１日東京都千代田区岩本町一丁目１０番５号日本高周波鋼業株式会社（1010001016852）に合併し解散,2015-10-05,1,,,,,ニホンコウシュウハコウギョウ,0
482,2040002025592,登記記録の閉鎖等,0,2024-04-19,2024-04-09,有限会社三咲オートグラス,,有限会社,千葉県,船橋市,大穴北４丁目１５番３号,,12,204,2740068,,,2024-04-09,清算の結了等,,,2015-10-05,1,,,,,ミサキオートグラス,0
485,2040002077048,登記記録の閉鎖等,0,2024-04-19,2024-04-10,有限会社のっぽ,,有限会社,千葉県,市原市,郡本４丁目１４１番地,,12,219,2900013,,,2024-04-10,清算の結了等,,,2015-10-05,1,,,,,ノッポ,0
492,2050005012686,登記記録の閉鎖等,0,2024-04-19,2024-04-12,一般社団法人篠田守男現代アート研究会,,その他の設立登記法人,茨城県,つくば市,小野崎８８番地２２,,08,220,3050034,,,2024-04-12,清算の結了等,,,2020-04-17,1,,,,,シノダモリオアートケンキュウカイ,0
510,2100001024952,登記記録の閉鎖等,0,2024-04-19,2024-04-05,株式会社スマイルワン,,株式会社,長野県,北安曇郡白馬村,大字北城１２７８５番地,,20,485,3999301,,,2024-04-05,清算の結了等,,,2015-10-05,1,,,,,スマイルワン,0
516,2110002021741,登記記録の閉鎖等,0,2024-04-19,2024-04-15,有限会社本間商事,,有限会社,新潟県,村上市,桑川８０７番地,,15,212,9593665,,,2024-04-15,清算の結了等,,,2015-10-05,1,,,,,ホンマショウジ,0
519,2120001072660,登記記録の閉鎖等,0,2024-04-19,2024-04-09,大阪メルテック空調株式会社,,株式会社,大阪府,大阪市北区,天満橋１丁目８番３０号,,27,127,5300042,,,2024-04-09,合併による解散等,3120001062652,令和６年４月１日大阪市北区曽根崎二丁目１２番７号関西ビルテクノサービス株式会社（3120001062652）に合併し解散,2015-10-05,1,,,,,オオサカメルテッククウチョウ,0
525,2120001191898,登記記録の閉鎖等,0,2024-04-19,2024-04-11,株式会社ザイマックストラベルデザイン,,株式会社,大阪府,大阪市北区,堂島１丁目１番５号,,27,127,5300003,,,2024-04-11,清算の結了等,,,2015-10-05,1,,,,,ザイマックストラベルデザイン,0
552,2120005024063,登記記録の閉鎖等,0,2024-04-19,2024-04-01,一般社団法人四天王寺個人タクシー協会,,その他の設立登記法人,大阪府,大阪市天王寺区,大道２丁目１１番１０号共和ビル３階,,27,109,5430052,,,2024-04-01,合併による解散等,1120005024254,令和６年４月１日大阪市都島区友渕町三丁目４番２２号高倉第三コーポ２０２号室一般社団法人新和個人タクシー協会（5120005021537）と合併して大阪市北区東天満二丁目２番１４号Ｔ．Ｙビル３階一般社団法人新王個人タクシー協会（1120005024254）を設立し解散,2024-01-05,1,,,,,シテンノウジコジンタクシーキョウカイ,0
565,2130001075324,登記記録の閉鎖等,0,2024-04-19,2024-04-17,株式会社京都朱雀乃匠,,株式会社,京都府,京都市右京区,西京極東側町３９番地,,26,108,6150844,,,2024-04-17,清算の結了等,,,2023-10-03,1,,,,,キョウトスザクノタクミ,0
567,2130002005412,登記記録の閉鎖等,0,2024-04-19,2024-04-15,有限会社市場企画,,有限会社,京都府,京都市左京区,一乗寺梅ノ木町５５番地エクセレント・ビュー高野１Ｆ,,26,103,6068173,,,2024-04-15,清算の結了等,,,2015-10-05,1,,,,,,0
585,2180001083520,登記記録の閉鎖等,0,2024-04-19,2024-04-01,橋本毛織株式会社,,株式会社,愛知県,一宮市,萩原町萩原字松山５３１番地２７,,23,203,4910353,,,2024-04-01,合併による解散等,9180001084272,令和６年３月２５日愛知県一宮市萩原町萩原字松山５３１番地２７ダイセーエブリー二十四株式会社（9180001084272）に合併し解散　,2015-10-05,1,,,,,ハシモトケオリ,0
600,2180305007992,登記記録の閉鎖等,0,2024-04-19,2024-04-09,特定非営利活動法人障害者支援わっ,,その他の設立登記法人,愛知県,刈谷市,池田町２丁目３０３番地,,23,210,4480044,,,2024-04-09,清算の結了等,,,2015-10-05,1,,,,,ショウガイシャシエンワッ,0
631,2290801010431,登記記録の閉鎖等,0,2024-04-19,2024-04-17,西本建設工業株式会社,,株式会社,福岡県,北九州市八幡西区,青山１丁目８番４号,,40,109,8060043,,,2024-04-17,合併による解散等,9290001002693,令和６年４月１日福岡市東区原田三丁目５番６号株式会社栄住産業（9290001002693）に合併し解散,2015-10-05,1,,,,,ニシモトケンセツコウギョウ,0
645,2350005002046,登記記録の閉鎖等,0,2024-04-19,2024-04-01,尾鈴農業協同組合,,その他の設立登記法人,宮崎県,児湯郡川南町,大字川南１３６５８番地１,,45,405,8891301,,,2024-04-01,合併による解散等,6350005000698,令和６年４月１日宮崎市霧島一丁目１番地１宮崎県農業協同組合（6350005000698）に合併し解散,2015-10-05,1,,,,,オスズ,0
646,2350005002913,登記記録の閉鎖等,0,2024-04-19,2024-04-01,延岡農業協同組合,,その他の設立登記法人,宮崎県,延岡市,川原崎町２８１番地１,,45,203,8820033,,,2024-04-01,合併による解散等,6350005000698,令和６年４月１日宮崎市霧島一丁目１番地１宮崎県農業協同組合（6350005000698）に合併し解散,2015-10-05,1,,,,,ノベオカ,0
657,2380002022845,登記記録の閉鎖等,0,2024-04-19,2024-04-09,有限会社小田桐新聞店,,有限会社,福島県,いわき市,泉玉露２丁目１２番地の６,,07,204,9718172,,,2024-04-09,清算の結了等,,,2015-10-05,1,,,,,オダギリシンブンテン,0
660,2410001001813,登記記録の閉鎖等,0,2024-04-19,2024-04-05,東京塗料株式会社,,株式会社,秋田県,秋田市,八橋本町１丁目１番３０号,,05,201,0100973,,,2024-04-05,清算の結了等,,,2015-10-05,1,,,,,トウキョウトリョウ,0
665,2430002030743,登記記録の閉鎖等,0,2024-04-19,2024-04-15,有限会社喜多郎,,有限会社,北海道,札幌市清田区,美しが丘三条５丁目８番１－３０２号,,01,110,0040813,,,2024-04-15,清算の結了等,,,2015-10-05,1,,,,,キタロウ,0
675,2480003001185,登記記録の閉鎖等,0,2024-04-19,2024-04-11,三橋合同会社,,合同会社,徳島県,阿波市,市場町市場字町筋５２４番地２,,36,206,7711604,,,2024-04-11,清算の結了等,,,2018-02-14,1,,,,,ミツハシ,0
688,3010001207128,登記記録の閉鎖等,0,2024-04-19,2024-04-05,株式会社Ｇｏｌｄ　Ｓｈｉｐ,,株式会社,東京都,千代田区,平河町１丁目６番１５号ＵＳビル８Ｆ,,13,101,1020093,,,2024-04-05,清算の結了等,,,2020-01-31,1,,,,,ゴールドシップ,0
705,3010401113495,登記記録の閉鎖等,0,2024-04-19,2024-04-05,上北送電株式会社,,株式会社,東京都,千代田区,霞が関３丁目２番５号,,13,101,1000013,,,2024-04-05,清算の結了等,,,2015-10-05,1,,,,,カミキタソウデン,0
719,3010501037248,登記記録の閉鎖等,0,2024-04-19,2024-04-10,株式会社スパンドール,,株式会社,東京都,台東区,蔵前１丁目５番５号,,13,106,1110051,,,2024-04-10,清算の結了等,,,2015-10-05,1,,,,,スパンドール,0
725,3010801019714,登記記録の閉鎖等,0,2024-04-19,2024-04-17,株式会社エクシオモバイル,,株式会社,東京都,大田区,平和島４丁目１番２３号,,13,111,1430006,,,2024-04-17,合併による解散等,9011401002831,令和６年４月１日東京都板橋区南町３６番３号エクシオ・エンジニアリング株式会社（9011401002831）に合併し解散,2015-10-05,1,,,,,エクシオモバイル,0
729,3010902018367,登記記録の閉鎖等,0,2024-04-19,2024-04-15,有限会社トゥモローランド,,有限会社,東京都,調布市,多摩川３丁目６２番１－６０１号,,13,208,1820025,,,2024-04-15,清算の結了等,,,2015-10-05,1,,,,,トゥモローランド,0
734,3011001147405,登記記録の閉鎖等,0,2024-04-19,2024-04-16,株式会社Ｇａｔｅ　Ｗｉｎ,,株式会社,東京都,渋谷区,渋谷２丁目２１番１号渋谷ヒカリエ２７階,,13,113,1500002,,,2024-04-16,合併による解散等,1050001002254,令和６年３月１日茨城県水戸市泉町三丁目１番２７号株式会社アダストリア（1050001002254）に合併し解散,2022-05-11,1,,,,,ゲートウィン,0
749,3011302008347,登記記録の閉鎖等,0,2024-04-19,2024-04-11,有限会社ペルマ・ビューテイーサロン,,有限会社,東京都,杉並区,永福３丁目４０番１１号,,13,115,1680064,,,2024-04-11,清算の結了等,,,2015-10-05,1,,,,,ペルマビューテイーサロン,0
771,3013301045172,登記記録の閉鎖等,0,2024-04-19,2024-04-10,御友株式会社,,株式会社,東京都,北区,王子５丁目２番２－７４１号,,13,117,1140002,,,2024-04-10,清算の結了等,,,2020-02-07,1,,,,,オトモ,0
777,3013302005596,登記記録の閉鎖等,0,2024-04-19,2024-04-08,有限会社第一桂建築設計事務所,,有限会社,東京都,豊島区,東池袋３丁目１５番１４号,,13,116,1700013,,,2024-04-08,清算の結了等,,,2015-10-05,1,,,,,ダイイチカツラケンチクセッケイジムショ,0
795,3030002005280,登記記録の閉鎖等,0,2024-04-19,2024-04-12,有限会社小山オート,,有限会社,埼玉県,さいたま市見沼区,大字中川８３９番地の２,,11,104,3370043,,,2024-04-12,清算の結了等,,,2015-10-05,1,,,,,コヤマオート,0
796,3030002045814,登記記録の閉鎖等,0,2024-04-19,2024-04-12,有限会社松原水産,,有限会社,埼玉県,草加市,松原４丁目１番２号,,11,221,3400041,,,2024-04-12,清算の結了等,,,2015-10-05,1,,,,,マツバラスイサン,0
805,3040002028628,登記記録の閉鎖等,0,2024-04-19,2024-04-18,有限会社エーワーク,,有限会社,千葉県,八千代市,八千代台西１０丁目１３番１号,,12,221,2760034,,,2024-04-18,清算の結了等,,,2015-10-05,1,,,,,エーワーク,0
820,3070002018469,登記記録の閉鎖等,0,2024-04-19,2024-04-15,有限会社岩井田洋品店,,有限会社,群馬県,伊勢崎市,本町１６番地９,,10,204,3720047,,,2024-04-15,清算の結了等,,,2015-10-05,1,,,,,イワイダヨウヒンテン,0
837,3110001012773,登記記録の閉鎖等,0,2024-04-19,2024-04-12,株式会社綿半林業,,株式会社,新潟県,北蒲原郡聖籠町,大字三賀２８８番地,,15,307,9570122,,,2024-04-12,合併による解散等,4110001012987,令和６年４月１日新潟県北蒲原郡聖籠町大字三賀２８８番地株式会社綿半林業（4110001012987）に合併し解散,2015-10-05,1,,,,,ワタハンリンギョウ,0
869,3120101041218,登記記録の閉鎖等,0,2024-04-19,2024-04-15,株式会社和泉ユニフォーム販売,,株式会社,大阪府,和泉市,青葉台２丁目２２番７号,,27,219,5941153,,,2024-04-15,清算の結了等,,,2015-10-05,1,,,,,イズミユニフォームハンバイ,0
879,3120905005302,登記記録の閉鎖等,0,2024-04-19,2024-04-03,医療法人輝星会,,その他の設立登記法人,大阪府,高槻市,栄町４丁目１５番１号ロイヤル暁ビル１階,,27,207,5690825,,,2024-04-03,合併による解散等,7120005016741,令和６年４月１日大阪市淀川区三国本町二丁目１３番２号マックスバリュ淀川三国店２階医療法人光慈会（7120005016741）に合併し解散,2015-12-07,1,,,,,キセイカイ,0
889,3140001007614,登記記録の閉鎖等,0,2024-04-19,2024-04-11,皇蘭フーズ株式会社,,株式会社,兵庫県,神戸市灘区,大石南町２丁目２番２号,,28,102,6570852,,,2024-04-11,合併による解散等,4140001004032,令和６年４月１１日神戸市灘区大石南町二丁目２番２号株式会社皇蘭（4140001004032）に合併し解散,2015-10-05,1,,,,,コウランフーズ,0
890,3140001026110,登記記録の閉鎖等,0,2024-04-19,2024-04-15,株式会社カン研究所,,株式会社,兵庫県,神戸市中央区,港島南町６丁目８番地２,,28,110,6500047,,,2024-04-15,合併による解散等,6010001000001,令和６年４月１日東京都文京区小石川四丁目６番１０号エーザイ株式会社（6010001000001）に合併し解散,2015-10-05,1,,,,,カンケンキュウショ,0
912,3180001145658,登記記録の閉鎖等,0,2024-04-19,2024-04-05,株式会社８ＡＧＥＮＴ,,株式会社,愛知県,名古屋市北区,上飯田南町５丁目１１６番地ディーズコート１１、１Ｆ,,23,103,4620804,,,2024-04-05,清算の結了等,,,2021-04-20,1,,,,,エイトエージェント,0
925,3180302013935,登記記録の閉鎖等,0,2024-04-19,2024-04-08,有限会社藤彫,,有限会社,愛知県,豊川市,小田渕町２丁目３７番地の２,,23,207,4420844,,,2024-04-08,清算の結了等,,,2015-10-05,1,,,,,フジチョウ,0
929,3190005005270,登記記録の閉鎖等,0,2024-04-19,2024-04-16,医療法人弘仁会,,その他の設立登記法人,三重県,鳥羽市,安楽島町１３２５番地１５,,24,211,5170021,,,2024-04-16,清算の結了等,,,2015-10-05,1,,,,,コウジンカイ,0
947,3280002009777,登記記録の閉鎖等,0,2024-04-19,2024-04-17,有限会社愛工,,有限会社,島根県,益田市,あけぼの本町６番地３,,32,204,6980026,,,2024-04-17,清算の結了等,,,2015-10-05,1,,,,,アイコウ,0
968,3320002006695,登記記録の閉鎖等,0,2024-04-19,2024-04-11,有限会社三原商店,,有限会社,大分県,大分市,南太平寺２丁目８番２３号,,44,201,8700885,,,2024-04-11,清算の結了等,,,2015-10-05,1,,,,,ミハラショウテン,0
976,3330003007956,登記記録の閉鎖等,0,2024-04-19,2024-04-10,Ｌａ　ｎａｔｕｒｅ合同会社,,合同会社,熊本県,玉名郡和水町,内田２１７１番地２,,43,369,8650104,,,2024-04-10,清算の結了等,,,2019-06-05,1,,,,,ラナチュール,0
980,3350005002417,登記記録の閉鎖等,0,2024-04-19,2024-04-01,日向農業協同組合,,その他の設立登記法人,宮崎県,日向市,鶴町４番地,,45,206,8830052,,,2024-04-01,合併による解散等,6350005000698,令和６年４月１日宮崎市霧島一丁目１番地１宮崎県農業協同組合（6350005000698）に合併し解散,2015-10-05,1,,,,,ヒュウガ,0
981,3350005003547,登記記録の閉鎖等,0,2024-04-19,2024-04-01,都城農業協同組合,,その他の設立登記法人,宮崎県,都城市,高木町６２２２番地１,,45,202,8850003,,,2024-04-01,合併による解散等,6350005000698,令和６年４月１日宮崎市霧島一丁目１番地１宮崎県農業協同組合（6350005000698）に合併し解散,2015-10-05,1,,,,,ミヤコノジョウ,0
985,3380001026342,登記記録の閉鎖等,0,2024-04-19,2024-04-09,株式会社プライド・ワン,,株式会社,福島県,会津若松市,神指町東城戸１００番地,,07,202,9650089,,,2024-04-09,清算の結了等,,,2016-01-08,1,,,,,プライドワン,0
989,3380002017308,登記記録の閉鎖等,0,2024-04-19,2024-04-10,リベルトライン株式会社,,株式会社,福島県,安達郡大玉村,玉井字中山２２番地１,,07,322,9691302,,,2024-04-10,清算の結了等,,,2015-10-05,1,,,,,リベルトライン,0
991,3390005004979,登記記録の閉鎖等,0,2024-04-19,2024-04-09,特定非営利活動法人鶴岡淡水魚夢童の会,,その他の設立登記法人,山形県,鶴岡市,砂田町７番２号,,06,203,9970839,,,2024-04-09,清算の結了等,,,2015-10-05,1,,,,,ツルオカタンスイギョユメワラベノカイ,0
993,3430001005365,登記記録の閉鎖等,0,2024-04-19,2024-04-15,ケージーセントラルスポーツ株式会社,,株式会社,北海道,札幌市中央区,南二十二条西１２丁目プロム山鼻,,01,101,0640922,,,2024-04-15,合併による解散等,5010001048124,令和６年４月１日東京都中央区新川一丁目２１番２号セントラルスポーツ株式会社（5010001048124）に合併し解散,2015-10-05,1,,,,,ケージーセントラルスポーツ,0
998,3430002063073,登記記録の閉鎖等,0,2024-04-19,2024-04-05,有限会社三石橋本牧場,,有限会社,北海道,日高郡新ひだか町,三石美野和１５２番地の１２,,01,610,0593232,,,2024-04-05,清算の結了等,,,2015-10-05,1,,,,,ミツイシハシモトボクジョウ,0
1003,3460003000568,登記記録の閉鎖等,0,2024-04-19,2024-04-17,トレランス商会合資会社,,合資会社,北海道,釧路市,桜ケ岡６丁目９番１６号２階,,01,206,0850805,,,2024-04-17,清算の結了等,,,2015-10-05,1,,,,,トレランスショウカイ,0
1007,3480005006743,登記記録の閉鎖等,0,2024-04-19,2024-04-01,医療法人杏和医院,,その他の設立登記法人,徳島県,吉野川市,鴨島町西麻植字麻植市４０番地６,,36,205,7760020,,,2024-04-01,合併による解散等,3480005003583,令和６年４月１日徳島県鳴門市撫養町立岩字元地２８０番地医療法人うずしお会（3480005003583）に合併し解散,2019-12-25,1,,,,,キョウワイイン,0
1018,4010001221870,登記記録の閉鎖等,0,2024-04-19,2024-04-17,株式会社ＴＨＥ　ＨＯＴＥＬ　ＬＩＶＩＮＧ,,株式会社,愛知県,名古屋市名東区,牧の原３丁目８０２番地,,23,115,4650072,,,2024-04-17,清算の結了等,,,2021-10-19,1,,,,,ザホテルリビング,0
1038,4010401107083,登記記録の閉鎖等,0,2024-04-19,2024-04-03,株式会社ＭＳ工業,,株式会社,栃木県,日光市,文挟町１６番地１２,,09,206,3211200,,,2024-04-03,清算の結了等,,,2015-10-05,1,,,,,エムエスコウギョウ,0
1058,4010903007310,登記記録の閉鎖等,0,2024-04-19,2024-04-12,合同会社Ｗｅｌｌｅｎ,,合同会社,東京都,世田谷区,奥沢６丁目２８－１７－１０１,,13,112,1580083,,,2024-04-12,清算の結了等,,,2022-04-27,1,,,,,ウェレン,0
1063,4011001071182,登記記録の閉鎖等,0,2024-04-19,2024-04-03,株式会社ＳＰＭＳ　Ｃｒｅａｔｉｏｎ,,株式会社,東京都,目黒区,緑が丘１丁目７番１３－４０３号,,13,110,1520034,,,2024-04-03,清算の結了等,,,2015-10-05,1,,,,,エスピーエムエスクリエーション,0
1094,4012401038119,登記記録の閉鎖等,0,2024-04-19,2024-04-15,株式会社ショウケイ,,株式会社,東京都,武蔵野市,吉祥寺本町２丁目８番４号ｉ－ｏｆｆｉｃｅ吉祥寺,,13,203,1800004,,,2024-04-15,清算の結了等,,,2021-07-20,1,,,,,ショウケイ,0
1096,4012403005901,登記記録の閉鎖等,0,2024-04-19,2024-04-15,合同会社ＳＫＮザンクト・ペルテン,,合同会社,東京都,調布市,深大寺元町２丁目１３番地１３,,13,208,1820017,,,2024-04-15,清算の結了等,,,2023-03-29,1,,,,,エスケーエヌザンクトペルテン,0
1097,4012701012558,登記記録の閉鎖等,0,2024-04-19,2024-04-08,オフィスｎｏｍｅ株式会社,,株式会社,東京都,東村山市,多摩湖町１丁目３０番地４２,,13,213,1890026,,,2024-04-08,清算の結了等,,,2015-10-05,1,,,,,,0
1110,4020001129923,登記記録の閉鎖等,0,2024-04-19,2024-04-15,株式会社スリーエス,,株式会社,東京都,葛飾区,奥戸３丁目１５番１４号,,13,122,1240022,,,2024-04-15,清算の結了等,,,2019-02-15,1,,,,,スリーエス,0
1118,4030001011808,登記記録の閉鎖等,0,2024-04-19,2024-04-12,株式会社ひかりのくに吉田教材,,株式会社,埼玉県,さいたま市桜区,町谷４丁目１９番１４号,,11,106,3380836,,,2024-04-12,清算の結了等,,,2015-10-05,1,,,,,ヒカリノクニヨシダキョウザイ,0
1129,4030002104214,登記記録の閉鎖等,0,2024-04-19,2024-04-11,有限会社千伸,,有限会社,埼玉県,川口市,中青木４丁目５番４号,,11,203,3320032,,,2024-04-11,合併による解散等,8030001076475,令和６年４月１１日埼玉県川口市中青木四丁目５番４号長堀伸鉄鋼業株式会社（8030001076475）に合併し解散,2015-10-05,1,,,,,センシン,0
1130,4030002121696,登記記録の閉鎖等,0,2024-04-19,2024-04-11,有限会社藤原水道,,有限会社,埼玉県,秩父市,野坂町１丁目６番４号,,11,207,3680033,,,2024-04-11,清算の結了等,,,2015-10-05,1,,,,,フジワラスイドウ,0
1144,4050001026820,登記記録の閉鎖等,0,2024-04-19,2024-04-18,株式会社中電工,,株式会社,茨城県,常陸大宮市,野中町３１２０番地の１１,,08,225,3192255,,,2024-04-18,清算の結了等,,,2015-10-05,1,,,,,ナカデンコウ,0
1148,4080102021692,登記記録の閉鎖等,0,2024-04-19,2024-04-17,有限会社サカンヤ,,有限会社,静岡県,賀茂郡松崎町,江奈２２５番地の４,,22,305,4103624,,,2024-04-17,清算の結了等,,,2015-10-05,1,,,,,サカンヤ,0
1167,4120001053709,登記記録の閉鎖等,0,2024-04-19,2024-04-16,アルミ冷熱株式会社,,株式会社,大阪府,大阪市中央区,道修町４丁目６番５号,,27,128,5410045,,,2024-04-16,合併による解散等,8010701008812,令和６年４月１日東京都港区新橋一丁目１番１３号日軽パネルシステム株式会社（8010701008812）に合併し解散,2015-10-05,1,,,,,アルミレイネツ,0
1184,4120102020533,登記記録の閉鎖等,0,2024-04-19,2024-04-15,有限会社キンキ速記社,,有限会社,大阪府,河内長野市,栄町９番２０号,,27,216,5860032,,,2024-04-15,清算の結了等,,,2015-10-05,1,,,,,キンキソッキシャ,0
1187,4122001027031,登記記録の閉鎖等,0,2024-04-19,2024-04-15,ナガタベーカリー株式会社,,株式会社,大阪府,八尾市,曙町４丁目５０番地の１曙フラッツ４０５号,,27,212,5810026,,,2024-04-15,清算の結了等,,,2015-10-05,1,,,,,,0
1189,4130001030013,登記記録の閉鎖等,0,2024-04-19,2024-04-17,京菱ケミカル株式会社,,株式会社,京都府,長岡京市,神足橋本１５番地,,26,209,6170833,,,2024-04-17,合併による解散等,8010001008769,令和６年４月１日東京都墨田区両国二丁目１０番１４号三菱製紙株式会社（8010001008769）に合併し解散,2015-10-05,1,,,,,キョウリョウケミカル,0
1199,4140003019722,登記記録の閉鎖等,0,2024-04-19,2024-04-15,合同会社ウエシマペイント,,合同会社,兵庫県,姫路市,的形町的形２４５７番地１４,,28,201,6710111,,,2024-04-15,清算の結了等,,,2023-10-25,1,,,,,ウエシマペイント,0
1219,4180002028308,登記記録の閉鎖等,0,2024-04-19,2024-04-08,有限会社中日加藤新聞店,,有限会社,愛知県,名古屋市中村区,太閤通６丁目２６番地,,23,105,4530811,,,2024-04-08,清算の結了等,,,2015-10-05,1,,,,,チュウニチカトウシンブンテン,0
1225,4180301037216,登記記録の閉鎖等,0,2024-04-19,2024-04-08,株式会社ＨＯＮＥＳＴＹ,,株式会社,愛知県,豊橋市,駅前大通２丁目７１番地,,23,201,4400888,,,2024-04-08,清算の結了等,,,2023-03-22,1,,,,,オネスティ,0
1226,4180302021581,登記記録の閉鎖等,0,2024-04-19,2024-04-08,有限会社エムケーシー,,有限会社,愛知県,豊田市,梅坪町１丁目１８番地６,,23,211,4710064,,,2024-04-08,清算の結了等,,,2015-10-05,1,,,,,エムケーシー,0
1232,4210001007267,登記記録の閉鎖等,0,2024-04-19,2024-04-16,株式会社平尾自動車,,株式会社,福井県,あわら市,玉木第３号１３番地,,18,208,9104141,,,2024-04-16,清算の結了等,,,2015-10-05,1,,,,,ヒラオジドウシャ,0
1267,4380002024609,登記記録の閉鎖等,0,2024-04-19,2024-04-10,台湾茶芸貿易有限会社,,有限会社,福島県,いわき市,鹿島町御代字大一田６番１,,07,204,9718146,,,2024-04-10,清算の結了等,,,2015-10-05,1,,,,,タイワンシャゲイボウエキ,0
1278,4430001038769,登記記録の閉鎖等,0,2024-04-19,2024-04-05,株式会社キャスト,,株式会社,北海道,千歳市,美々９８７番地７６,,01,224,0660012,,,2024-04-05,合併による解散等,5430001043990,令和６年４月１日北海道千歳市美々９８７番地２２北海道空港株式会社（5430001043990）に合併し解散,2015-10-05,1,,,,,キャスト,0
1286,4470001014997,登記記録の閉鎖等,0,2024-04-19,2024-04-15,株式会社フソウメンテック,,株式会社,香川県,高松市,郷東町７９２番地８,,37,201,7618031,,,2024-04-15,合併による解散等,9010001055694,令和６年４月１日東京都中央区日本橋室町二丁目３番１号株式会社フソウ（9010001055694）に合併し解散,2015-10-05,1,,,,,フソウメンテック,0
1287,4480005000175,登記記録の閉鎖等,0,2024-04-19,2024-04-01,医療法人正徳会,,その他の設立登記法人,徳島県,徳島市,南出来島町１丁目３０番地,,36,201,7700824,,,2024-04-01,合併による解散等,3480005003583,令和６年４月１日徳島県鳴門市撫養町立岩字元地２８０番地医療法人うずしお会（3480005003583）に合併し解散,2015-10-05,1,,,,,セイトクカイ,0
1289,4500002014506,登記記録の閉鎖等,0,2024-04-19,2024-04-01,有限会社ＨＲウェルス,,有限会社,愛媛県,西条市,大町１１７６番地１サンシャイン西条８１３,,38,206,7930030,,,2024-04-01,合併による解散等,8500001009032,令和６年４月１日愛媛県西条市西田甲５９０番地２株式会社大屋（8500001009032）に合併し解散,2015-10-05,1,,,,,エイチアールウェルス,0
1290,4500002021519,登記記録の閉鎖等,0,2024-04-19,2024-04-11,石川板金工業有限会社,,有限会社,愛媛県,四国中央市,金生町山田井乙３３番地２０,,38,213,7990112,,,2024-04-11,清算の結了等,,,2015-10-05,1,,,,,イシカワバンキンコウギョウ,0
1309,5010002008639,登記記録の閉鎖等,0,2024-04-19,2024-04-05,有限会社オフィス．アムズ,,有限会社,東京都,文京区,大塚２丁目１１番７号,,13,105,1120012,,,2024-04-05,清算の結了等,,,2015-10-05,1,,,,,オフィスアムズ,0
1314,5010401016878,登記記録の閉鎖等,0,2024-04-19,2024-04-04,株式会社オフィスマネジメントシステム,,株式会社,東京都,品川区,南大井６丁目１７番１４号,,13,109,1400013,,,2024-04-04,清算の結了等,,,2015-10-05,1,,,,,オフィスマネジメントシステム,0
1315,5010401060190,登記記録の閉鎖等,0,2024-04-19,2024-04-01,株式会社シグナル,,株式会社,東京都,港区,北青山３丁目１０番１４号,,13,103,1070061,,,2024-04-01,合併による解散等,7010401001556,令和６年４月１日東京都港区赤坂一丁目８番１号アクセンチュア株式会社（7010401001556）に合併し解散,2015-10-05,1,,,,,シグナル,0
1323,5010502005846,登記記録の閉鎖等,0,2024-04-19,2024-04-01,有限会社鈴本食品,,有限会社,東京都,台東区,上野２丁目７番１２号,,13,106,1100005,,,2024-04-01,合併による解散等,7010502005836,令和６年４月１日東京都台東区上野二丁目７番１２号株式会社鈴本演芸場（7010502005836）に合併し解散,2015-10-05,1,,,,,スズモトショクヒン,0
1371,5011703003606,登記記録の閉鎖等,0,2024-04-19,2024-04-08,合同会社Ｗｒａｉｔｈ,,合同会社,東京都,豊島区,南大塚２丁目１１－１０ミモザビル３階,,13,116,1700005,,,2024-04-08,清算の結了等,,,2023-09-28,1,,,,,レイス,0
1374,5011801019157,登記記録の閉鎖等,0,2024-04-19,2024-04-16,株式会社エヌ・オー・ビー,,株式会社,東京都,足立区,神明南２丁目１７番２０－１０６号,,13,121,1210057,,,2024-04-16,清算の結了等,,,2015-10-05,1,,,,,エヌオービー,0
1384,5013301013441,登記記録の閉鎖等,0,2024-04-19,2024-04-12,株式会社羽深隆雄・栴工房設計事務所,,株式会社,埼玉県,比企郡ときがわ町,大字雲河原５４５番地１,,11,349,3550351,,,2024-04-12,清算の結了等,,,2015-10-05,1,,,,,ハブカタカオセンコウボウセッケイジムショ,0
1387,5013303006278,登記記録の閉鎖等,0,2024-04-19,2024-04-08,Ｇｂｏｙｓ合同会社,,合同会社,東京都,豊島区,池袋本町１丁目７－１０－１１０１,,13,116,1700011,,,2024-04-08,清算の結了等,,,2022-08-31,1,,,,,ジーボーイズ,0
1393,5020001146364,登記記録の閉鎖等,0,2024-04-19,2024-04-10,オリオンイノテックジャパン株式会社,,株式会社,神奈川県,横浜市都筑区,茅ケ崎南２丁目１４番１１－２０２号,,14,118,2240037,,,2024-04-10,清算の結了等,,,2022-05-10,1,,,,,オリオンイノテックジャパン,0
1397,5020003020740,登記記録の閉鎖等,0,2024-04-19,2024-04-10,合同会社コルベガ,,合同会社,神奈川県,横浜市西区,北幸１丁目１１番１号水信ビル７階,,14,103,2200004,,,2024-04-10,清算の結了等,,,2021-11-04,1,,,,,コルベガ,0
1415,5030002083746,登記記録の閉鎖等,0,2024-04-19,2024-04-11,有限会社宇原工務店,,有限会社,埼玉県,鴻巣市,袋２７５番地,,11,217,3690131,,,2024-04-11,清算の結了等,,,2015-10-05,1,,,,,ウハラコウムテン,0
1417,5030002107711,登記記録の閉鎖等,0,2024-04-19,2024-04-11,モクシ工業有限会社,,有限会社,埼玉県,川口市,戸塚南５丁目１５番２５号,,11,203,3330817,,,2024-04-11,清算の結了等,,,2015-10-05,1,,,,,モクシコウギョウ,0
1422,5040002000015,登記記録の閉鎖等,0,2024-04-19,2024-04-09,株式会社愛生クリーニング,,株式会社,千葉県,千葉市若葉区,愛生町１１５番地１０,,12,104,2640031,,,2024-04-09,合併による解散等,6040001084545,令和６年４月１日千葉県八街市文違３０１番地１８２１株式会社白光舎クリーニング（6040001084545）に合併し解散,2015-10-05,1,,,,,アイオイクリーニング,0
1423,5040002009130,登記記録の閉鎖等,0,2024-04-19,2024-04-10,株式会社Ｍａｎａｉ　Ｅｎｔｅｒｐｒｉｓｅ,,株式会社,東京都,新宿区,市谷田町２丁目７番１５号,,13,104,1620843,,,2024-04-10,清算の結了等,,,2015-10-05,1,,,,,マナイエンタープライズ,0
1428,5050001008578,登記記録の閉鎖等,0,2024-04-19,2024-04-16,オプトエナジー株式会社,,株式会社,千葉県,佐倉市,六崎１４４０番地,,12,212,2850812,,,2024-04-16,合併による解散等,2010601007861,令和６年４月１日東京都江東区木場一丁目５番１号株式会社フジクラ（2010601007861）に合併し解散,2015-10-05,1,,,,,オプトエナジー,0
1440,5050005005877,登記記録の閉鎖等,0,2024-04-19,2024-04-15,古河市三和地区自動車協同組合,,その他の設立登記法人,茨城県,古河市,東諸川１６２番地７,,08,204,3060124,,,2024-04-15,清算の結了等,,,2015-10-05,1,,,,,コガシサンワチクジドウシャ,0
1441,5060002000211,登記記録の閉鎖等,0,2024-04-19,2024-04-12,有限会社三代建鉄,,有限会社,栃木県,宇都宮市,下岡本町３７５４番地５,,09,201,3291104,,,2024-04-12,清算の結了等,,,2015-10-05,1,,,,,ミシロケンテツ,0
1444,5070001037658,登記記録の閉鎖等,0,2024-04-19,2024-04-15,株式会社エスディーワイ,,株式会社,群馬県,太田市,新田上中町４１０番地３,,10,205,3700353,,,2024-04-15,清算の結了等,,,2021-02-05,1,,,,,エスディーワイ,0
1449,5080401003135,登記記録の閉鎖等,0,2024-04-19,2024-04-18,タムラハウス株式会社,,株式会社,静岡県,浜松市中央区,高丘西３丁目１２番３号,,22,138,4338118,,,2024-04-18,清算の結了等,,,2015-10-05,1,,,,,タムラハウス,0
1475,5120002075008,登記記録の閉鎖等,0,2024-04-19,2024-04-12,有限会社フナビキ,,有限会社,大阪府,摂津市,鳥飼本町３丁目２番３１号,,27,224,5660052,,,2024-04-12,清算の結了等,,,2015-10-05,1,,,,,フナビキ,0
1477,5120005021537,登記記録の閉鎖等,0,2024-04-19,2024-04-01,一般社団法人新和個人タクシー協会,,その他の設立登記法人,大阪府,大阪市都島区,友渕町３丁目４番２２号高倉第三コーポ２０２号室,,27,102,5340016,,,2024-04-01,合併による解散等,1120005024254,令和６年４月１日大阪市天王寺区大道二丁目１１番１０号共和ビル３階一般社団法人四天王寺個人タクシー協会（2120005024063）と合併して大阪市北区東天満二丁目２番１４号Ｔ．Ｙビル３階一般社団法人新王個人タクシー協会（1120005024254）を設立し解散,2020-04-07,1,,,,,シンワコジンタクシーキョウカイ,0
1481,5120102011102,登記記録の閉鎖等,0,2024-04-19,2024-04-15,有限会社ニシハラエデュキャン,,有限会社,大阪府,堺市中区,上之６３０番地の７３,,27,142,5998244,,,2024-04-15,清算の結了等,,,2015-10-05,1,,,,,ニシハラエデュキャン,0
1487,5130003002760,登記記録の閉鎖等,0,2024-04-19,2024-04-17,合同会社上利工場,,合同会社,京都府,与謝郡与謝野町,字岩滝１７８４番地,,26,465,6292262,,,2024-04-17,清算の結了等,,,2015-10-05,1,,,,,ウエリコウジョウ,0
1495,5140002050322,登記記録の閉鎖等,0,2024-04-19,2024-04-12,姫路紙管有限会社,,有限会社,兵庫県,姫路市,新在家本町２丁目３番６号,,28,201,6700092,,,2024-04-12,清算の結了等,,,2015-10-05,1,,,,,ヒメジシカン,0
1513,5180003023521,登記記録の閉鎖等,0,2024-04-19,2024-04-08,合同会社ＰｒｅｖｅｎＳｈａｌｌ,,合同会社,愛知県,春日井市,高蔵寺町５丁目１３番１５,,23,206,4870013,,,2024-04-08,清算の結了等,,,2022-03-01,1,,,,,プレベンシャル,0
1516,5180302021242,登記記録の閉鎖等,0,2024-04-19,2024-04-08,有限会社アンクル・トム,,有限会社,愛知県,豊田市,百々町１丁目１４３番地,,23,211,4710008,,,2024-04-08,清算の結了等,,,2015-10-05,1,,,,,アンクルトム,0
1517,5180302024063,登記記録の閉鎖等,0,2024-04-19,2024-04-08,有限会社金丸工業,,有限会社,愛知県,みよし市,福田町中屋敷８２番地,,23,236,4700225,,,2024-04-08,清算の結了等,,,2015-10-05,1,,,,,カナマルコウギョウ,0
1518,5180305000672,登記記録の閉鎖等,0,2024-04-19,2024-04-09,高田教会,00075349,その他の設立登記法人,愛知県,岡崎市,福岡町字西後田４６番地の３,,23,202,4440825,,,2024-04-09,清算の結了等,,,2015-10-05,1,,,,,タカダキョウカイ,0
1530,5230001003057,登記記録の閉鎖等,0,2024-04-19,2024-04-11,クリタ北陸株式会社,,株式会社,富山県,富山市,蓮町１丁目１１番１２号,00078810,16,201,9318333,,,2024-04-11,合併による解散等,2140001031573,令和６年４月１日神戸市兵庫区水木通四丁目１番６号クリタ西日本株式会社（2140001031573）に合併し解散,2015-10-05,1,,,,,クリタホクリク,0
1534,5240001011281,登記記録の閉鎖等,0,2024-04-19,2024-04-18,丸本酒販株式会社,,株式会社,広島県,広島市南区,段原２丁目１８番１３号,,34,103,7320811,,,2024-04-18,清算の結了等,,,2015-10-05,1,,,,,マルモトシュハン,0
1535,5240001038333,登記記録の閉鎖等,0,2024-04-19,2024-04-16,東福汽船株式会社,,株式会社,広島県,尾道市,東御所町９番１号,,34,205,7220036,,,2024-04-16,合併による解散等,8010001021796,令和６年４月１日東京都千代田区神田小川町一丁目３番地１太平洋沿海汽船株式会社（8010001021796）に合併し解散,2015-10-05,1,,,,,トウフクキセン,0
1553,5290001082112,登記記録の閉鎖等,0,2024-04-19,2024-04-01,マイソリューションズ株式会社,,株式会社,福岡県,八女市,国武１３番地,,40,210,8340046,,,2024-04-01,清算の結了等,,,2018-07-20,1,,,,,,0
1566,5310001018468,登記記録の閉鎖等,0,2024-04-19,2024-04-11,株式会社福家ながさき不動産,,株式会社,長崎県,大村市,富の原１丁目１１８３番地１,,42,205,8560806,,,2024-04-11,清算の結了等,,,2023-06-16,1,,,,,フクヤナガサキフドウサン,0
1570,5330001009853,登記記録の閉鎖等,0,2024-04-19,2024-04-11,株式会社三和鉄工,,株式会社,熊本県,菊池郡菊陽町,大字辛川６４１番地２,,43,404,8691107,,,2024-04-11,清算の結了等,,,2015-10-05,1,,,,,サンワテッコウ,0
1580,5350005001805,登記記録の閉鎖等,0,2024-04-19,2024-04-01,児湯農業協同組合,,その他の設立登記法人,宮崎県,児湯郡高鍋町,大字北高鍋９９番地１,,45,401,8840002,,,2024-04-01,合併による解散等,6350005000698,令和６年４月１日宮崎市霧島一丁目１番地１宮崎県農業協同組合（6350005000698）に合併し解散,2015-10-05,1,,,,,コユ,0
1581,5360001004843,登記記録の閉鎖等,0,2024-04-19,2024-04-11,あん美ら社株式会社,,株式会社,沖縄県,那覇市,東町１５番地１５号,,47,201,9000034,,,2024-04-11,清算の結了等,,,2015-10-05,1,,,,,,0
1588,5370202000178,登記記録の閉鎖等,0,2024-04-19,2024-04-10,有限会社大坂企画,,有限会社,宮城県,大崎市,古川諏訪２丁目１１番２７号インブレイスオーク２０２号,,04,215,9896175,,,2024-04-10,清算の結了等,,,2015-10-05,1,,,,,オオサカキカク,0
1597,5430001057108,登記記録の閉鎖等,0,2024-04-19,2024-04-15,株式会社ムロランスズキ,,株式会社,北海道,室蘭市,仲町１２番地,,01,205,0500087,,,2024-04-15,合併による解散等,9010001020095,令和６年４月１日東京都千代田区丸の内一丁目９番１号日鉄ＳＧワイヤ株式会社（9010001020095）に合併し解散,2015-10-05,1,,,,,ムロランスズキ,0
1612,5500003000173,登記記録の閉鎖等,0,2024-04-19,2024-04-10,合資会社ハラダ洋傘店,,合資会社,愛媛県,松山市,湊町３丁目５番地１８,,38,201,7900012,,,2024-04-10,清算の結了等,,,2015-10-05,1,,,,,ハラダヨウガサテン,0
1630,6010005032800,登記記録の閉鎖等,0,2024-04-19,2024-04-16,パキラ一般社団法人,,その他の設立登記法人,東京都,千代田区,丸の内３丁目１番１号東京共同会計事務所内,,13,101,1000005,,,2024-04-16,清算の結了等,,,2021-01-20,1,,,,,パキラ,0
1636,6010405016329,登記記録の閉鎖等,0,2024-04-19,2024-04-05,一般社団法人日本ブライダル司会者協会,,その他の設立登記法人,東京都,港区,南青山２丁目２番８号,,13,103,1070062,,,2024-04-05,清算の結了等,,,2017-12-25,1,,,,,,0
1646,6010601064230,登記記録の閉鎖等,0,2024-04-19,2024-04-09,株式会社Ｗｅｌｌｎｅｓｓ　Ｖｅｎｔｕｒｅｓ,,株式会社,東京都,江東区,青海２丁目７番４号ｔｈｅＳＯＨＯ５２４,,13,108,1350064,,,2024-04-09,清算の結了等,,,2023-11-30,1,,,,,ウェルネスヴェンチャーズ,0
1700,6012403003416,登記記録の閉鎖等,0,2024-04-19,2024-04-11,合同会社Ａ＆Ｔ,,合同会社,東京都,武蔵野市,吉祥寺南町１丁目５番９号くまもとビル４階,,13,203,1800003,,,2024-04-11,清算の結了等,,,2018-04-05,1,,,,,エーアンドティー,0
1709,6020001151644,登記記録の閉鎖等,0,2024-04-19,2024-04-11,株式会社ステラ,,株式会社,神奈川県,横浜市青葉区,市ケ尾町５２９番地３,,14,117,2250024,,,2024-04-11,清算の結了等,,,2023-05-17,1,,,,,ステラ,0
1728,6030002095484,登記記録の閉鎖等,0,2024-04-19,2024-04-12,有限会社吾野屋商店,,有限会社,埼玉県,東松山市,大字毛塚９８６番地１,,11,212,3550064,,,2024-04-12,清算の結了等,,,2015-10-05,1,,,,,アガノヤショウテン,0
1753,6060002003345,登記記録の閉鎖等,0,2024-04-19,2024-04-12,有限会社クリエイトシステム,,有限会社,栃木県,宇都宮市,上横田町１４７１番２,,09,201,3210106,,,2024-04-12,清算の結了等,,,2015-10-05,1,,,,,クリエイトシステム,0
1754,6070001008410,登記記録の閉鎖等,0,2024-04-19,2024-04-16,株式会社マツモト,,株式会社,群馬県,高崎市,上豊岡町５６０番地１２,,10,202,3700871,,,2024-04-16,清算の結了等,,,2015-10-05,1,,,,,マツモト,0
1756,6070002020661,登記記録の閉鎖等,0,2024-04-19,2024-04-15,有限会社小保形時計店,,有限会社,群馬県,佐波郡玉村町,大字下新田４８４番地の２,,10,464,3701132,,,2024-04-15,清算の結了等,,,2015-10-05,1,,,,,オボカタトケイテン,0
1761,6080403000088,登記記録の閉鎖等,0,2024-04-19,2024-04-18,合資会社カネタ澤根商店,,合資会社,静岡県,浜松市中央区,東若林町４４番地の８,,22,138,4328052,,,2024-04-18,清算の結了等,,,2015-10-05,1,,,,,,0
1771,6120001017100,登記記録の閉鎖等,0,2024-04-19,2024-04-09,近畿メルテック株式会社,,株式会社,大阪府,大阪市浪速区,難波中２丁目１０番７０号（パークスタワー内）,,27,111,5560011,,,2024-04-09,合併による解散等,3120001062652,令和６年４月１日大阪市北区曽根崎二丁目１２番７号関西ビルテクノサービス株式会社（3120001062652）に合併し解散,2015-10-05,1,,,,,キンキメルテック,0
1783,6120005021668,登記記録の閉鎖等,0,2024-04-19,2024-04-12,一般社団法人日本疾病診断技術研究所,,その他の設立登記法人,大阪府,箕面市,今宮３丁目２３番１５号,,27,220,5620033,,,2024-04-12,清算の結了等,,,2020-07-06,1,,,,,ニホンシッペイシンダンギジュツケンキュウショ,0
1786,6120101005104,登記記録の閉鎖等,0,2024-04-19,2024-04-17,南海バール・サービス株式会社,,株式会社,大阪府,堺市堺区,市之町西３丁２番３号,,27,141,5900951,,,2024-04-17,清算の結了等,,,2015-10-05,1,,,,,ナンカイバールサービス,0
1787,6120101047410,登記記録の閉鎖等,0,2024-04-19,2024-04-12,株式会社インフィニート,,株式会社,大阪府,茨木市,園田町１８番２１号,,27,211,5670825,,,2024-04-12,清算の結了等,,,2015-10-05,1,,,,,インフィニート,0
1795,6120103004079,登記記録の閉鎖等,0,2024-04-19,2024-04-17,ネオグリーン合同会社,,合同会社,大阪府,羽曳野市,野々上５丁目１６番９号,,27,222,5830871,,,2024-04-17,清算の結了等,,,2021-03-05,1,,,,,,0
1808,6130002000698,登記記録の閉鎖等,0,2024-04-19,2024-04-15,有限会社さが,,有限会社,京都府,京都市右京区,嵯峨明星町５番地の３,,26,108,6168337,,,2024-04-15,清算の結了等,,,2015-10-05,1,,,,,サガ,0
1809,6130003007461,登記記録の閉鎖等,0,2024-04-19,2024-04-15,合同会社ＥＨＩＱＵ,,合同会社,京都府,京都市山科区,椥辻中在家町２８番地３５０,00124143,26,110,6078161,,,2024-04-15,清算の結了等,,,2021-09-06,1,,,,,エヒク,0
1810,6140001007553,登記記録の閉鎖等,0,2024-04-19,2024-04-12,コウベ・サコム株式会社,,株式会社,兵庫県,神戸市中央区,元町通３丁目１０番２号,,28,110,6500022,,,2024-04-12,合併による解散等,1140001013151,令和６年４月１日神戸市中央区元町通六丁目１番８号株式会社エムシーシステム（1140001013151）に合併し解散,2015-10-05,1,,,,,コウベサコム,0
1818,6140002065781,登記記録の閉鎖等,0,2024-04-19,2024-04-15,有限会社上田マリン,,有限会社,兵庫県,伊丹市,池尻２丁目４５番地ヨークベル武庫川４０２号,,28,207,6640027,,,2024-04-15,清算の結了等,,,2015-10-05,1,,,,,ウエダマリン,0
1830,6180002036548,登記記録の閉鎖等,0,2024-04-19,2024-04-08,有限会社ハイブリッジ,,有限会社,愛知県,名古屋市東区,徳川町２５０２番地,,23,102,4610023,,,2024-04-08,清算の結了等,,,2015-10-05,1,,,,,ハイブリッジ,0
1853,6260002007631,登記記録の閉鎖等,0,2024-04-19,2024-04-08,有限会社納所商店,,有限会社,岡山県,岡山市南区,市場１丁目１番地,,33,104,7028052,,,2024-04-08,清算の結了等,,,2015-10-05,1,,,,,ノウショショウテン,0
1868,6290802004726,登記記録の閉鎖等,0,2024-04-19,2024-04-10,有限会社なみまつ商店,,有限会社,福岡県,北九州市小倉北区,下富野２丁目５番４４号,,40,106,8020023,,,2024-04-10,清算の結了等,,,2015-10-05,1,,,,,ナミマツショウテン,0
1876,6330005000898,登記記録の閉鎖等,0,2024-04-19,2024-04-09,熊本県商工業経営安定事業協同組合,,その他の設立登記法人,熊本県,熊本市中央区,安政町３番１３号熊本県商工会館内,,43,101,8600801,,,2024-04-09,清算の結了等,,,2015-10-05,1,,,,,クマモトケンショウコウギョウケイエイアンテイ,0
1884,6350005001440,登記記録の閉鎖等,0,2024-04-19,2024-04-01,綾町農業協同組合,,その他の設立登記法人,宮崎県,東諸県郡綾町,大字南俣４８０番地１,,45,383,8801303,,,2024-04-01,合併による解散等,6350005000698,令和６年４月１日宮崎市霧島一丁目１番地１宮崎県農業協同組合（6350005000698）に合併し解散,2015-10-05,1,,,,,アヤチョウ,0
1889,6370001008124,登記記録の閉鎖等,0,2024-04-19,2024-04-10,株式会社三榮,,株式会社,宮城県,仙台市泉区,高森１丁目１番地の２３４,,04,105,9813203,,,2024-04-10,清算の結了等,,,2015-10-05,1,,,,,ミツエイ,0
1893,6370002009096,登記記録の閉鎖等,0,2024-04-19,2024-04-15,有限会社宮城野,,有限会社,宮城県,仙台市宮城野区,安養寺３丁目１３番３号,,04,102,9830832,,,2024-04-15,清算の結了等,,,2015-10-05,1,,,,,ミヤギノ,0
1909,6430001006154,登記記録の閉鎖等,0,2024-04-19,2024-04-10,五城商事株式会社,,株式会社,北海道,札幌市白石区,南郷通６丁目北４番３号,,01,104,0030023,,,2024-04-10,清算の結了等,,,2015-10-05,1,,,,,ゴジョウショウジ,0
1910,6430001018439,登記記録の閉鎖等,0,2024-04-19,2024-04-12,株式会社リクルート北海道じゃらん,,株式会社,北海道,札幌市中央区,北四条西５丁目１番地,,01,101,0600004,,,2024-04-12,合併による解散等,5010001149426,令和６年４月１日東京都千代田区丸の内一丁目９番２号株式会社リクルート（5010001149426）に合併し解散,2015-10-05,1,,,,,リクルートホッカイドウジャラン,0
1912,6430001040236,登記記録の閉鎖等,0,2024-04-19,2024-04-10,株式会社Ａｃｋｅｒｍａｎ記念札幌皮膚病理研究所,,株式会社,北海道,札幌市北区,北十八条西３丁目１番３０－５０１号,,01,102,0010018,,,2024-04-10,清算の結了等,,,2015-10-05,1,,,,,アッカーマンキネンサッポロヒフビョウリケンキュウジョ,0
1913,6430001054054,登記記録の閉鎖等,0,2024-04-19,2024-04-17,株式会社リカーランドサトウ,,株式会社,北海道,勇払郡むかわ町,洋光６７番地,,01,586,0540061,,,2024-04-17,清算の結了等,,,2015-10-05,1,,,,,リカーランドサトウ,0
1920,6462501000484,登記記録の閉鎖等,0,2024-04-19,2024-04-15,株式会社一印水産,,株式会社,北海道,目梨郡羅臼町,知昭町４１番地８,,01,694,0861836,,,2024-04-15,清算の結了等,,,2015-10-05,1,,,,,イチジルシスイサン,0
1932,7010001163821,登記記録の閉鎖等,0,2024-04-19,2024-04-12,株式会社アズケア,,株式会社,大阪府,大阪市浪速区,湊町２丁目１番３４号,,27,111,5560017,,,2024-04-12,清算の結了等,,,2015-10-05,1,,,,,アズケア,0
1986,7011203003393,登記記録の閉鎖等,0,2024-04-19,2024-04-16,合同会社セリーンライフ,,合同会社,東京都,中野区,新井３丁目３０番８号ｏｍｂｒａｇｅ３０１,,13,114,1650026,,,2024-04-16,清算の結了等,,,2020-09-11,1,,,,,セリーンライフ,0
2040,7030002089312,登記記録の閉鎖等,0,2024-04-19,2024-04-11,有限会社ＫＹＯＥＩ,,有限会社,埼玉県,越谷市,千間台西１丁目１３番地１,,11,222,3430041,,,2024-04-11,清算の結了等,,,2015-10-05,1,,,,,,0
2050,7040001127641,登記記録の閉鎖等,0,2024-04-19,2024-04-09,ノーサイド株式会社,,株式会社,千葉県,市原市,八幡２０１４番地－Ｂ２０１,,12,219,2900062,,,2024-04-09,清算の結了等,,,2023-03-27,1,,,,,ノーサイド,0
2066,7080002000091,登記記録の閉鎖等,0,2024-04-19,2024-04-09,有限会社アイデアル産業,,有限会社,静岡県,静岡市駿河区,青木２２９番地,,22,102,4210134,,,2024-04-09,清算の結了等,,,2015-10-05,1,,,,,アイデアルサンギョウ,0
2067,7080002012038,登記記録の閉鎖等,0,2024-04-19,2024-04-10,有限会社スタジオジン,,有限会社,静岡県,静岡市清水区,船越３丁目１１番３６号,,22,103,4240866,,,2024-04-10,清算の結了等,,,2015-10-05,1,,,,,スタジオジン,0
2075,7100003007232,登記記録の閉鎖等,0,2024-04-19,2024-04-04,合資会社沢井商店,,合資会社,長野県,佐久市,望月６番地,,20,217,3842202,,,2024-04-04,清算の結了等,,,2023-11-22,1,,,,,サワイショウテン,0
2081,7120001146658,登記記録の閉鎖等,0,2024-04-19,2024-04-10,株式会社ティップス,,株式会社,大阪府,大阪市中央区,千日前１丁目４番８号,,27,128,5420074,,,2024-04-10,清算の結了等,,,2015-10-05,1,,,,,ティップス,0
2100,7120901010888,登記記録の閉鎖等,0,2024-04-19,2024-04-12,光洋塗装工業株式会社,,株式会社,大阪府,高槻市,宮之川原５丁目１０番３号,,27,207,5691032,,,2024-04-12,清算の結了等,,,2015-10-05,1,,,,,コウヨウトソウコウギョウ,0
2108,7130001012776,登記記録の閉鎖等,0,2024-04-19,2024-04-08,株式会社シー・シー・エス,,株式会社,京都府,京都市山科区,音羽野田町１番地の４音羽マンションＢ－８０９,,26,110,6078075,,,2024-04-08,合併による解散等,2130001013606,令和６年４月１日京都市山科区大宅御供田町１２番地レジデンス山科２０３号株式会社関西メデイカルプラン（2130001013606）に合併し解散,2015-10-05,1,,,,,シーシーエス,0
2125,7140005001923,登記記録の閉鎖等,0,2024-04-19,2024-04-05,医療法人社団小林内科,,その他の設立登記法人,兵庫県,神戸市灘区,倉石通２丁目２番２７号,,28,102,6570826,,,2024-04-05,清算の結了等,,,2015-10-05,1,,,,,コバヤシナイカ,0
2147,7180301009443,登記記録の閉鎖等,0,2024-04-19,2024-04-08,株式会社はならぼ,,株式会社,愛知県,田原市,八王子町道上１２７番地,,23,231,4413602,,,2024-04-08,清算の結了等,,,2015-10-05,1,,,,,ハナラボ,0
2163,7240001049023,登記記録の閉鎖等,0,2024-04-19,2024-04-15,トータルセールスプロモーション広島株式会社,,株式会社,広島県,広島市南区,段原３丁目９番２５－２０１号,,34,103,7320811,,,2024-04-15,清算の結了等,,,2016-03-14,1,,,,,トータルセールスプロモーションヒロシマ,0
2165,7260001000792,登記記録の閉鎖等,0,2024-04-19,2024-04-16,エスケイ・イシショウ株式会社,,株式会社,山口県,山陽小野田市,大字西高泊１２３７番地の３,,35,216,7560057,,,2024-04-16,合併による解散等,2010701012943,令和６年４月１日東京都品川区大崎二丁目１番１号住友建機販売株式会社（2010701012943）に合併し解散,2015-10-05,1,,,,,エスケイイシショウ,0
2168,7260002031886,登記記録の閉鎖等,0,2024-04-19,2024-04-04,有限会社中村商店,,有限会社,岡山県,備前市,日生町日生８９１番地の１,,33,211,7013204,,,2024-04-04,清算の結了等,,,2015-10-05,1,,,,,ナカムラショウテン,0
2173,7290001041917,登記記録の閉鎖等,0,2024-04-19,2024-04-01,悠香ホールディングス株式会社,,株式会社,福岡県,大野城市,御笠川５丁目１１番１７号,,40,219,8160912,,,2024-04-01,合併による解散等,2290001084788,令和６年４月１日福岡県大野城市御笠川五丁目１１番１７号株式会社悠香（2290001084788）に合併し解散,2015-10-05,1,,,,,ユウカホールディングス,0
2177,7290002031396,登記記録の閉鎖等,0,2024-04-19,2024-04-01,有限会社エス・オー・エスカンパニー,,有限会社,福岡県,福岡市西区,愛宕浜２丁目１番３－６０５号,,40,135,8190013,,,2024-04-01,清算の結了等,,,2015-10-05,1,,,,,エスオーエスカンパニ,0
2186,7310002019050,登記記録の閉鎖等,0,2024-04-19,2024-04-15,有限会社壱岐フラワー,,有限会社,長崎県,壱岐市,郷ノ浦町渡良西触１１５８番地,,42,210,8115153,,,2024-04-15,清算の結了等,,,2015-10-05,1,,,,,イキフラワー,0
2194,7350005004517,登記記録の閉鎖等,0,2024-04-19,2024-04-01,こばやし農業協同組合,,その他の設立登記法人,宮崎県,小林市,細野１３２１番地,,45,205,8860004,,,2024-04-01,合併による解散等,6350005000698,令和６年４月１日宮崎市霧島一丁目１番地１宮崎県農業協同組合（6350005000698）に合併し解散,2015-10-05,1,,,,,コバヤシ,0
2201,7370002020291,登記記録の閉鎖等,0,2024-04-19,2024-04-11,有限会社バイオ企画,,有限会社,宮城県,富谷市,東向陽台３丁目１１番１６号,,04,216,9813331,,,2024-04-11,清算の結了等,,,2015-10-05,1,,,,,バイオキカク,0
2203,7380001022610,登記記録の閉鎖等,0,2024-04-19,2024-04-10,株式会社リベルトアレア,,株式会社,福島県,安達郡大玉村,玉井字中山２８番地,,07,322,9691302,,,2024-04-10,清算の結了等,,,2015-10-05,1,,,,,リベルトアレア,0
2234,7470002017988,登記記録の閉鎖等,0,2024-04-19,2024-04-11,有限会社六車薬局,,有限会社,香川県,さぬき市,志度４１３９番地２０２,,37,206,7692101,,,2024-04-11,清算の結了等,,,2015-10-05,1,,,,,ムグルマヤッキョク,0
2241,7500002021078,登記記録の閉鎖等,0,2024-04-19,2024-04-11,コスモメディカルサービス有限会社,,有限会社,愛媛県,四国中央市,三島中央３丁目１１番６号,,38,213,7990405,,,2024-04-11,清算の結了等,,,2015-10-05,1,,,,,コスモメディカルサービス,0
2250,8010001132767,登記記録の閉鎖等,0,2024-04-19,2024-04-16,株式会社エフェステップ,,株式会社,東京都,千代田区,富士見１丁目５番５号,,13,101,1020071,,,2024-04-16,合併による解散等,2010501003267,令和６年４月１日東京都台東区浅草橋一丁目３４番９号クレシード株式会社（2010501003267）に合併し解散,2015-10-05,1,,,,,エフェステップ,0
2255,8010003039985,登記記録の閉鎖等,0,2024-04-19,2024-04-05,エスティファンドフォー合同会社,,合同会社,東京都,千代田区,丸の内３丁目１番１号東京共同会計事務所内,,13,101,1000005,,,2024-04-05,清算の結了等,,,2023-03-07,1,,,,,エスティファンドフォー,0
2262,8010401046963,登記記録の閉鎖等,0,2024-04-19,2024-04-08,株式会社マルハニチロアセット,,株式会社,東京都,江東区,豊洲３丁目２番２０号,,13,108,1350061,,,2024-04-08,合併による解散等,2010601040697,令和６年４月１日東京都江東区豊洲三丁目２番２０号マルハニチロ株式会社（2010601040697）に合併し解散,2015-10-05,1,,,,,マルハニチロアセット,0
2283,8010502005827,登記記録の閉鎖等,0,2024-04-19,2024-04-01,有限会社鈴本演芸場,,有限会社,東京都,台東区,上野２丁目７番１２号,,13,106,1100005,,,2024-04-01,合併による解散等,7010502005836,令和６年４月１日東京都台東区上野二丁目７番１２号株式会社鈴本演芸場（7010502005836）に合併し解散,2015-10-05,1,,,,,スズモトエンゲイジョウ,0
2284,8010502005918,登記記録の閉鎖等,0,2024-04-19,2024-04-11,有限会社すゞむら,,有限会社,東京都,台東区,谷中３丁目１３番２０号,,13,106,1100001,,,2024-04-11,清算の結了等,,,2015-10-05,1,,,,,スズムラ,0
2297,8011001105878,登記記録の閉鎖等,0,2024-04-19,2024-04-05,株式会社ハイブ,,株式会社,東京都,港区,虎ノ門４丁目１番１３号２階,,13,103,1050001,,,2024-04-05,合併による解散等,4011001072890,令和６年４月１日東京都港区虎ノ門四丁目１番１３号２階株式会社みらいワークス（4011001072890）に合併し解散,2015-10-05,1,,,,,ハイブ,0
2315,8011103007782,登記記録の閉鎖等,0,2024-04-19,2024-04-10,キャレット合同会社,,合同会社,東京都,新宿区,新宿２丁目５番５号新宿土地建物第１１ビル４階,,13,104,1600022,,,2024-04-10,清算の結了等,,,2018-03-27,1,,,,,キャレット,0
2379,8050001025810,登記記録の閉鎖等,0,2024-04-19,2024-04-12,パナソニックＳＰＴ部品株式会社,,株式会社,茨城県,稲敷市,下太田４５７４番地２,,08,229,3001424,,,2024-04-12,合併による解散等,3010401061216,令和６年４月１日東京都港区東新橋一丁目５番１号パナソニックＳＰＴ株式会社（3010401061216）に合併し解散,2015-10-05,1,,,,,,0
2413,8122001009281,登記記録の閉鎖等,0,2024-04-19,2024-04-16,グローバル化工株式会社,,株式会社,大阪府,東大阪市,衣摺４丁目１９番２１号,00034373,27,227,5770827,,,2024-04-16,清算の結了等,,,2015-10-05,1,,,,,,0
2425,8140001080722,登記記録の閉鎖等,0,2024-04-19,2024-04-15,株式会社ゆみのコーポレーション,,株式会社,兵庫県,川西市,栄町２５－１－１１１,,28,217,6660033,,,2024-04-15,清算の結了等,,,2015-10-05,1,,,,,ユミノコーポレーション,0
2432,8140002002733,登記記録の閉鎖等,0,2024-04-19,2024-04-15,有限会社アートヒルコーポレーション,,有限会社,兵庫県,神戸市灘区,篠原北町２丁目５番６号,,28,102,6570068,,,2024-04-15,清算の結了等,,,2015-10-05,1,,,,,アートヒルコーポレーション,0
2445,8180002092952,登記記録の閉鎖等,0,2024-04-19,2024-04-08,有限会社ばんのインテリアサービス,,有限会社,愛知県,津島市,南本町２丁目２３番地,,23,208,4960834,,,2024-04-08,清算の結了等,,,2015-10-05,1,,,,,バンノインテリアサービス,0
2453,8200001008989,登記記録の閉鎖等,0,2024-04-19,2024-04-11,株式会社めしあがっ亭,,株式会社,岐阜県,岐阜市,橋本町１丁目１０番地美濃味匠内,,21,201,5008856,,,2024-04-11,合併による解散等,8200001013997,令和６年３月３０日岐阜県大垣市加賀野四丁目１番地２０株式会社デリカスイト（8200001013997）に合併し解散,2015-10-05,1,,,,,メシアガッテイ,0
2456,8200002009912,登記記録の閉鎖等,0,2024-04-19,2024-04-18,有限会社下村組,,有限会社,岐阜県,本巣市,日当１１３０番地の２,,21,218,5011231,,,2024-04-18,清算の結了等,,,2015-10-05,1,,,,,シモムラグミ,0
2458,8200003004169,登記記録の閉鎖等,0,2024-04-19,2024-04-09,合同会社ＮＳインフォテック,,合同会社,岐阜県,岐阜市,本荘西４丁目８１番地,,21,201,5008361,,,2024-04-09,清算の結了等,,,2018-04-17,1,,,,,エヌエスインフォテック,0
2472,8260002007035,登記記録の閉鎖等,0,2024-04-19,2024-04-08,有限会社トマトコンタクトレンズ,,有限会社,岡山県,岡山市北区,津高７０８番地の１,,33,101,7011152,,,2024-04-08,清算の結了等,,,2015-10-05,1,,,,,トマトコンタクトレンズ,0
2476,8280005000670,登記記録の閉鎖等,0,2024-04-19,2024-04-17,茶町商店街振興組合,,その他の設立登記法人,島根県,松江市,西茶町３０番地,,32,201,6900845,,,2024-04-17,清算の結了等,,,2015-10-05,1,,,,,チャマチ,0
2483,8290801021497,登記記録の閉鎖等,0,2024-04-19,2024-04-16,日鉄鋼構造株式会社,,株式会社,福岡県,北九州市若松区,大字安瀬６４番地,,40,103,8080022,,,2024-04-16,合併による解散等,7010701022491,令和６年４月１日東京都品川区大崎一丁目５番１号大崎センタービル日鉄エンジニアリング株式会社（7010701022491）に合併し解散,2015-10-05,1,,,,,ニッテツコウコウゾウ,0
2484,8290801023139,登記記録の閉鎖等,0,2024-04-19,2024-04-10,株式会社ＦＡＲＳＡ,,株式会社,福岡県,北九州市小倉北区,香春口２丁目１０番８－３０４号,,40,106,8020084,,,2024-04-10,清算の結了等,,,2016-12-21,1,,,,,ファルサ,0
2491,8330005008246,登記記録の閉鎖等,0,2024-04-19,2024-04-09,川尻キリスト教会,,その他の設立登記法人,熊本県,熊本市南区,八幡９丁目２番５３号,,43,104,8614113,,,2024-04-09,清算の結了等,,,2015-10-05,1,,,,,,0
2492,8340001003638,登記記録の閉鎖等,0,2024-04-19,2024-04-16,株式会社フォーエム,,株式会社,鹿児島県,鹿児島市,吉野町２１５８番地１６,,46,201,8920871,,,2024-04-16,清算の結了等,,,2015-10-05,1,,,,,フォーエム,0
2506,8370001047681,登記記録の閉鎖等,0,2024-04-19,2024-04-12,Ｙｅｓｍａｒｔ東北株式会社,,株式会社,宮城県,柴田郡大河原町,字新桜町２番地１１,,04,321,9891274,,,2024-04-12,清算の結了等,,,2021-10-06,1,,,,,イエスマートトウホク,0
2508,8370202000753,登記記録の閉鎖等,0,2024-04-19,2024-04-08,有限会社司板金工業,,有限会社,宮城県,大崎市,古川小泉字大小４１５番地１,,04,215,9896224,,,2024-04-08,清算の結了等,,,2015-10-05,1,,,,,ツカサバンキンコウギョウ,0
2524,8470002010983,登記記録の閉鎖等,0,2024-04-19,2024-04-08,有限会社中部クリーンセンター,,有限会社,香川県,綾歌郡綾川町,枌所東８６７番地８,,37,387,7612201,,,2024-04-08,合併による解散等,2470001002772,令和６年４月１日香川県高松市香川町大野２６０４番地１中央環境整備株式会社（2470001002772）に合併し解散,2015-10-05,1,,,,,チュウブクリーンセンター,0
2526,8490002004042,登記記録の閉鎖等,0,2024-04-19,2024-04-17,有限会社奴田原経営研究所,,有限会社,高知県,高知市,中宝永町８番１１号,,39,201,7800817,,,2024-04-17,清算の結了等,,,2015-10-05,1,,,,,,0
2531,8500005005572,登記記録の閉鎖等,0,2024-04-19,2024-04-11,特定非営利活動法人ＮＰＯしまなみアイランド・スピリット,,その他の設立登記法人,愛媛県,今治市,大三島町宮浦５７０９番地,,38,202,7941304,,,2024-04-11,清算の結了等,,,2015-10-05,1,,,,,シマナミアイランドスピリット,0
2543,9010001164909,登記記録の閉鎖等,0,2024-04-19,2024-04-12,株式会社笑顔の食卓,,株式会社,大阪府,大阪市浪速区,湊町２丁目１番３４号,,27,111,5560017,,,2024-04-12,清算の結了等,,,2015-10-05,1,,,,,エガオノショクタク,0
2546,9010003036008,登記記録の閉鎖等,0,2024-04-19,2024-04-05,合同会社ＤＳＢ－８,,合同会社,東京都,千代田区,丸の内３丁目１番１号東京共同会計事務所内,,13,101,1000005,,,2024-04-05,清算の結了等,,,2021-10-13,1,,,,,ディーエスビーエイト,0
2581,9010902021282,登記記録の閉鎖等,0,2024-04-19,2024-04-12,有限会社ビンチェロ,,有限会社,東京都,世田谷区,成城８丁目２３番２１－５１２号,,13,112,1570066,,,2024-04-12,清算の結了等,,,2015-10-05,1,,,,,ビンチェロ,0
2631,9020002078231,登記記録の閉鎖等,0,2024-04-19,2024-04-10,夫婦経営研究所株式会社,,株式会社,神奈川県,横浜市神奈川区,栄町１番地１ＫＤＸ横浜ビル６Ｆ,,14,102,2210052,,,2024-04-10,清算の結了等,,,2015-10-05,1,,,,,フウフケイエイケンキュウジョ,0
2657,9040001043944,登記記録の閉鎖等,0,2024-04-19,2024-04-16,株式会社フクダ物流センター,,株式会社,千葉県,白井市,中３０５番地１,,12,232,2701406,,,2024-04-16,合併による解散等,7010001006880,令和６年４月１日東京都文京区本郷三丁目３９番４号フクダ電子株式会社（7010001006880）に合併し解散,2015-10-05,1,,,,,フクダブツリュウセンター,0
2662,9040002043506,登記記録の閉鎖等,0,2024-04-19,2024-04-09,有限会社エイチケイ,,有限会社,千葉県,白井市,根１０２９番地１７,,12,232,2701431,,,2024-04-09,清算の結了等,,,2015-10-05,1,,,,,エイチケイ,0
2664,9040003012245,登記記録の閉鎖等,0,2024-04-19,2024-04-11,ＧＩＧＡＢＩＤ合同会社,,合同会社,神奈川県,横浜市港南区,日限山２丁目５番１３号１Ｆ,,14,111,2330015,,,2024-04-11,合併による解散等,9020001141262,令和６年４月１０日神奈川県横浜市中区西竹之丸１０６－２２ＲＣＢ　ＪＡＰＡＮ株式会社（9020001141262）に合併し解散,2018-10-03,1,,,,,ギガビッド,0
2667,9050001018342,登記記録の閉鎖等,0,2024-04-19,2024-04-01,共和電通株式会社,,株式会社,茨城県,古河市,牧野地１６３番地の３,,08,204,3060046,,,2024-04-01,合併による解散等,6050001018337,令和６年４月１日茨城県古河市牧野地１６３番地の３共和電設株式会社（6050001018337）に合併し解散,2015-10-05,1,,,,,キョウワデンツウ,0
2676,9070001032432,登記記録の閉鎖等,0,2024-04-19,2024-04-15,株式会社ＭＯＳ,,株式会社,兵庫県,神戸市中央区,北長狭通２丁目５－１２－６０４,,28,110,6500012,,,2024-04-15,清算の結了等,,,2016-07-20,1,,,,,,0
2690,9110002001729,登記記録の閉鎖等,0,2024-04-19,2024-04-15,有限会社グレイス,,有限会社,新潟県,新潟市中央区,西大畑町６２０番地４３ハイツ日本海５０５,,15,103,9518104,,,2024-04-15,清算の結了等,,,2015-10-05,1,,,,,グレイス,0
2697,9120001163585,登記記録の閉鎖等,0,2024-04-19,2024-04-08,株式会社Ａ・Ｊ,,株式会社,大阪府,門真市,北岸和田１丁目７番１２号,,27,223,5710007,,,2024-04-08,清算の結了等,,,2015-10-05,1,,,,,エージェイ,0
2716,9120003008391,登記記録の閉鎖等,0,2024-04-19,2024-04-10,合同会社ホスピタリティ,,合同会社,大阪府,枚方市,楠葉美咲３丁目２２番６号ＲＢビル３０１,,27,210,5731112,,,2024-04-10,清算の結了等,,,2015-10-05,1,,,,,ホスピタリティ,0
2719,9120005011204,登記記録の閉鎖等,0,2024-04-19,2024-04-16,弁護士法人昴法律事務所,,その他の設立登記法人,大阪府,大阪市北区,西天満４丁目８番２号北ビル本館６０２,,27,127,5300047,,,2024-04-16,清算の結了等,,,2015-10-05,1,,,,,スバルホウリツジムショ,0
2725,9122002010782,登記記録の閉鎖等,0,2024-04-19,2024-04-18,有限会社リュウセイ物流,,有限会社,大阪府,東大阪市,大蓮北４丁目６番４１号,,27,227,5770826,,,2024-04-18,清算の結了等,,,2015-10-05,1,,,,,リュウセイブツリュウ,0
2728,9130001073296,登記記録の閉鎖等,0,2024-04-19,2024-04-17,ＴＡＣＨＡ　ＳＴＵＤＩＯ株式会社,,株式会社,京都府,京都市東山区,大仏馬町伏見街道東入一丁目北棟梁町３１７番地４,,26,105,6050000,,,2024-04-17,清算の結了等,,,2022-12-16,1,,,,,タチャスタジオ,0
2734,9140001024075,登記記録の閉鎖等,0,2024-04-19,2024-04-11,株式会社神戸点心,,株式会社,兵庫県,神戸市灘区,大石南町２丁目２番２号,,28,102,6570852,,,2024-04-11,合併による解散等,4140001004032,令和６年４月１１日神戸市灘区大石南町二丁目２番２号株式会社皇蘭（4140001004032）に合併し解散,2015-10-05,1,,,,,コウベテンシン,0
2745,9170001000949,登記記録の閉鎖等,0,2024-04-19,2024-04-15,エア・ウォーター薬化株式会社,,株式会社,茨城県,鹿嶋市,大字光３番地,,08,222,3140014,,,2024-04-15,合併による解散等,6120001236559,令和６年４月１日大阪市中央区南船場二丁目１２番８号エア・ウォーター・ガスプロダクツ株式会社（6120001236559）に合併し解散,2015-10-05,1,,,,,エアウォーターヤッカ,0
2760,9180302015281,登記記録の閉鎖等,0,2024-04-19,2024-03-27,有限会社鹿島居宅介護支援事業所,,有限会社,愛知県,蒲郡市,鹿島町浜田８番地２,,23,214,4430037,,,2024-03-27,清算の結了等,,,2015-10-05,1,,,,,カシマキョタクカイゴシエンジギョウショ,0
2764,9190005004614,登記記録の閉鎖等,0,2024-04-19,2024-04-16,医療法人鷲見内科,,その他の設立登記法人,三重県,伊勢市,宮後１丁目８番４号,,24,203,5160072,,,2024-04-16,清算の結了等,,,2015-10-05,1,,,,,スミナイカ,0
2772,9210002013037,登記記録の閉鎖等,0,2024-04-19,2024-04-15,有限会社サンエスホーム,,有限会社,福井県,鯖江市,水落町３丁目１３番３０号,,18,207,9160022,,,2024-04-15,清算の結了等,,,2015-10-05,1,,,,,サンエスホーム,0
2776,9220001016601,登記記録の閉鎖等,0,2024-04-19,2024-04-11,輪島観光開発株式会社,,株式会社,石川県,輪島市,塚田町２字３１番６,,17,204,9280003,,,2024-04-11,合併による解散等,4360001012475,令和６年４月１日東京都中央区日本橋小網町６番１号ホテルマネージメントインターナショナル株式会社（4360001012475）に合併し解散,2015-10-05,1,,,,,,0
2779,9240001029262,登記記録の閉鎖等,0,2024-04-19,2024-04-18,株式会社ＫＬＰｒｉｎｔｉｎｇ,,株式会社,広島県,広島市安佐南区,祇園３丁目１４番１９号,,34,105,7310138,,,2024-04-18,清算の結了等,,,2015-10-05,1,,,,,ケーエルプリンティング,0
2802,9330002015269,登記記録の閉鎖等,0,2024-04-19,2024-04-05,有限会社ＣＰＣ,,有限会社,熊本県,熊本市南区,八幡６丁目６番１５号,,43,104,8614113,,,2024-04-05,清算の結了等,,,2015-10-05,1,,,,,シーピーシー,0
2815,9350005004696,登記記録の閉鎖等,0,2024-04-19,2024-04-01,えびの市農業協同組合,,その他の設立登記法人,宮崎県,えびの市,大字大明司１０６１番地１,,45,209,8894311,,,2024-04-01,合併による解散等,6350005000698,令和６年４月１日宮崎市霧島一丁目１番地１宮崎県農業協同組合（6350005000698）に合併し解散,2015-10-05,1,,,,,エビノシ,0
2818,9370001042459,登記記録の閉鎖等,0,2024-04-19,2024-04-01,エスエスロジ株式会社,,株式会社,宮城県,仙台市青葉区,西花苑１丁目６番１号,,04,101,9820262,,,2024-04-01,合併による解散等,2370001031311,令和６年４月１日仙台市青葉区西花苑一丁目６番１号株式会社エスエスプランニング（2370001031311）に合併し解散,2017-12-27,1,,,,,エスエスロジ,0
2819,9370002005695,登記記録の閉鎖等,0,2024-04-19,2024-04-09,有限会社トリイ,,有限会社,宮城県,仙台市若林区,霞目２丁目２６番１０号,,04,103,9840035,,,2024-04-09,清算の結了等,,,2015-10-05,1,,,,,トリイ,0
2821,9380001019308,登記記録の閉鎖等,0,2024-04-19,2024-04-11,株式会社弓田ゴム工業,,株式会社,福島県,南会津郡下郷町,大字音金字家ノ下５番地１,,07,362,9695342,,,2024-04-11,清算の結了等,,,2015-10-05,1,,,,,ユミタゴムコウギョウ,0
2827,9420002012406,登記記録の閉鎖等,0,2024-04-19,2024-04-08,有限会社木造電子,,有限会社,青森県,つがる市,木造藤田３１番地１０,,02,209,0383123,,,2024-04-08,清算の結了等,,,2015-10-05,1,,,,,キヅクリデンシ,0
