sequenceNumber,corporateNumber,process,correct,updateDate,changeDate,name,nameImageId,kind,prefectureName,cityName,streetNumber,addressImageId,prefectureCode,cityCode,postCode,addressOutside,addressOutsideImageId,closeDate,closeCause,successorCorporateNumber,changeCause,assignmentDate,latest,enName,enPrefectureName,enCityName,enAddressOutside,furigana,hihyoji
9,1010001247935,新規,0,2024-09-02,2024-09-02,株式会社都共同施工社,,株式会社,東京都,中央区,勝どき３丁目４番６号,,13,102,1040054,,,,,,,2024-09-02,1,,,,,ミヤコキョウドウセコウシャ,0
10,1010101016298,新規,0,2024-09-02,2024-09-02,ＪＳＰ　Ｊａｐａｎ株式会社,,株式会社,東京都,八王子市,子安町１丁目４８番９号２０２号室,,13,201,1920904,,,,,,,2024-09-02,1,,,,,ジェーエスピージャパン,0
14,1010401184852,新規,0,2024-09-02,2024-09-02,ファイナンス株式会社,,株式会社,東京都,港区,白金４丁目３番２２号３０２,,13,103,1080072,,,,,,,2024-09-02,1,,,,,ファイナンス,0
15,1010403033339,新規,0,2024-09-02,2024-09-02,合同会社ライジング,,合同会社,東京都,港区,虎ノ門３丁目１９番１０－７０４号,,13,103,1050001,,,,,,,2024-09-02,1,,,,,ライジング,0
16,1010501052810,新規,0,2024-09-02,2024-09-02,株式会社東京ジュエルズ,,株式会社,東京都,台東区,東上野１丁目１９番１号,,13,106,1100015,,,,,,,2024-09-02,1,,,,,トウキョウジュエルズ,0
17,1010501052843,新規,0,2024-09-02,2024-09-02,株式会社ｈｏｐｅ,,株式会社,東京都,台東区,小島２丁目１４－６ダイアパレス御徒町第２－６０２号室,,13,106,1110056,,,,,,,2024-09-02,1,,,,,ホープ,0
36,1011001164303,新規,0,2024-09-02,2024-09-02,ＴｏＣｏ株式会社,,株式会社,東京都,渋谷区,桜丘町２３番１７号シティコート桜丘４０８,,13,113,1500031,,,,,,,2024-09-02,1,,,,,トーコ,0
37,1011001164402,新規,0,2024-09-02,2024-09-02,ＧＰバイアウトＭ株式会社,,株式会社,東京都,目黒区,自由が丘２丁目１６‐１２ＲＪ３,,13,110,1520035,,,,,,,2024-09-02,1,,,,,ジーピーバイアウトエム,0
39,1011005010643,新規,0,2024-09-02,2024-09-02,一般社団法人日中伝承工芸協会,,その他の設立登記法人,東京都,渋谷区,千駄ヶ谷３丁目１３－２２,,13,113,1510051,,,,,,,2024-09-02,1,,,,,ニッチュウデンショウコウゲイキョウカイ,0
45,1011103014843,新規,0,2024-09-02,2024-09-02,合同会社つむぎ,,合同会社,東京都,新宿区,市谷左内町２９番地２２市ケ谷ハウス２Ｂ,,13,104,1620846,,,,,,,2024-09-02,1,,,,,ツムギ,0
47,1011301029965,新規,0,2024-09-02,2024-09-02,ミナミ株式会社,,株式会社,東京都,杉並区,荻窪５丁目１７－１１テイジン荻窪スカイレジデンス３０２号室,,13,115,1670051,,,,,,,2024-09-02,1,,,,,,0
51,1011503006201,新規,0,2024-09-02,2024-09-02,合同会社ｌｉｂｅｒｅ　ｖｉｖｅｒｅ,,合同会社,東京都,荒川区,荒川２丁目５－１１,,13,118,1160002,,,,,,,2024-09-02,1,,,,,リブレビブレ,0
52,1011601028023,新規,0,2024-09-02,2024-09-02,株式会社ＪＩＮ,,株式会社,東京都,練馬区,高野台３丁目３３番１３号,,13,120,1770033,,,,,,,2024-09-02,1,,,,,ジン,0
53,1011603004443,新規,0,2024-09-02,2024-09-02,合同会社３ｋｎｏｃｋｓ,,合同会社,東京都,練馬区,豊玉北４丁目２－４,,13,120,1760012,,,,,,,2024-09-02,1,,,,,スリーノックス,0
54,1011703003956,新規,0,2024-09-02,2024-09-02,合同会社ＹＬ設備設計事務所,,合同会社,東京都,江戸川区,東葛西５丁目３０番７－１０４号,,13,123,1340084,,,,,,,2024-09-02,1,,,,,ワイエルセツビセッケイジムショ,0
55,1011801044786,新規,0,2024-09-02,2024-09-02,株式会社アトランティカ,,株式会社,東京都,葛飾区,東四つ木２丁目２２番２１号,,13,122,1240014,,,,,,,2024-09-02,1,,,,,アトランティカ,0
58,1012803003499,新規,0,2024-09-02,2024-09-02,サクシード２１合同会社,,合同会社,東京都,立川市,羽衣町２丁目４４番地２０,,13,202,1900021,,,,,,,2024-09-02,1,,,,,サクシードニジュウイチ,0
70,1020001158818,新規,0,2024-09-02,2024-09-02,株式会社Ｄｉｖｅ,,株式会社,神奈川県,横浜市港北区,日吉２丁目５－７,,14,109,2230061,,,,,,,2024-09-02,1,,,,,ダイブ,0
71,1020001158842,新規,0,2024-09-02,2024-09-02,株式会社イノシシワークス,,株式会社,神奈川県,横浜市中区,相生町３丁目６１泰生ビル２ＦさくらＷＯＲＫＳ,,14,104,2310012,,,,,,,2024-09-02,1,,,,,イノシシワークス,0
72,1020001158982,新規,0,2024-09-02,2024-09-02,Ａｒｔｓ　Ｐｒｏｖｉｄｅｒ株式会社,,株式会社,神奈川県,横浜市鶴見区,上の宮１丁目２３番２８号,,14,101,2300075,,,,,,,2024-09-02,1,,,,,アーツプロバイダー,0
80,1021001083130,新規,0,2024-09-02,2024-09-02,株式会社ＵＮＬＯＣＫＥＲ,,株式会社,神奈川県,相模原市南区,新戸２０７０番地３,,14,153,2520326,,,,,,,2024-09-02,1,,,,,アンロッカー,0
81,1021001083139,新規,0,2024-09-02,2024-09-02,株式会社東海教育機材,,株式会社,神奈川県,小田原市,栢山２６６５番地の２,,14,206,2500852,,,,,,,2024-09-02,1,,,,,トウカイキョウイクキザイ,0
88,1030001162240,新規,0,2024-09-02,2024-09-02,株式会社結,,株式会社,埼玉県,川越市,大字笠幡９３３番地,,11,201,3501175,,,,,,,2024-09-02,1,,,,,ムスビ,0
112,1080401027402,新規,0,2024-09-02,2024-09-02,株式会社リライズ,,株式会社,静岡県,掛川市,沖之須１３２０番地,,22,213,4371303,,,,,,,2024-09-02,1,,,,,リライズ,0
120,1100003007667,新規,0,2024-09-02,2024-09-02,合同会社ＮｉｐｐｏｎＧｒａｐｅＣｏｍｐａｎｙｆｏｒＨａｐｐｉｎｅｓｓ,,合同会社,長野県,塩尻市,大字下西条３４７番地１,,20,215,3990726,,,,,,,2024-09-02,1,,,,,ニッポングレープカンパニーフォーハピネス,0
133,1120001268177,新規,0,2024-09-02,2024-09-02,ＭＯＳ設計事務所株式会社,,株式会社,大阪府,大阪市阿倍野区,阿倍野筋５丁目１１番２６号,,27,119,5450052,,,,,,,2024-09-02,1,,,,,モスセッケイジムショ,0
134,1120001268185,新規,0,2024-09-02,2024-09-02,余韻株式会社,,株式会社,大阪府,大阪市天王寺区,伶人町２－３１ＳｔａｒＯｆｆｉｃｅ大阪天王寺北４０８号室,,27,109,5430061,,,,,,,2024-09-02,1,,,,,ヨイン,0
135,1120001268210,新規,0,2024-09-02,2024-09-02,株式会社ＲＯＵＴＥ　Ｍ,,株式会社,大阪府,大阪市北区,堂島２丁目４－４－１５１３,,27,127,5300003,,,,,,,2024-09-02,1,,,,,ルートエム,0
136,1120001268219,新規,0,2024-09-02,2024-09-02,レイジー株式会社,,株式会社,大阪府,大阪市旭区,清水４丁目５番１７号４０１室,,27,117,5350021,,,,,,,2024-09-02,1,,,,,レイジー,0
139,1120003027309,新規,0,2024-09-02,2024-09-02,合同会社タカコーポレーション,,合同会社,大阪府,大阪市東淀川区,瑞光３丁目９－２,,27,114,5330005,,,,,,,2024-09-02,1,,,,,タカコーポレーション,0
140,1120003027366,新規,0,2024-09-02,2024-09-02,合同会社ＨＯＲＩＳ,,合同会社,大阪府,大阪市阿倍野区,北畠３丁目３番４４号,,27,119,5450035,,,,,,,2024-09-02,1,,,,,ホリス,0
141,1120003027399,新規,0,2024-09-02,2024-09-02,合同会社ワンフォーオール,,合同会社,大阪府,大阪市西区,九条南２丁目６番１０－２１０号,,27,106,5500025,,,,,,,2024-09-02,1,,,,,ワンフォーオール,0
145,1122001038411,新規,0,2024-09-02,2024-09-02,株式会社スケルトンサーカス,,株式会社,大阪府,東大阪市,長堂３丁目２２番４号,,27,227,5770056,,,,,,,2024-09-02,1,,,,,スケルトンサーカス,0
152,1130001077800,新規,0,2024-09-02,2024-09-02,サン開発株式会社,,株式会社,京都府,京都市中京区,麸屋町通姉小路上る中白山町２７７番地,,26,104,6040000,,,,,,,2024-09-02,1,,,,,サンカイハツ,0
153,1130001077841,新規,0,2024-09-02,2024-09-02,Ｅｓｐａｄａ株式会社,,株式会社,京都府,京都市下京区,茶磨屋町２３６番地Ａ－Ｔｅｒｒａｃｅ４Ｂ,,26,106,6008045,,,,,,,2024-09-02,1,,,,,エスパーダ,0
175,1200003006485,新規,0,2024-09-02,2024-09-02,合同会社ＴＲＩＮＩＴＹ,,合同会社,岐阜県,岐阜市,八坂町４７番地１,,21,201,5008256,,,,,,,2024-09-02,1,,,,,トリニティ,0
184,1230001020510,新規,0,2024-09-02,2024-09-02,株式会社アザーン貿易,,株式会社,富山県,射水市,草岡町２丁目１２番地５,,16,211,9330225,,,,,,,2024-09-02,1,,,,,アザーンボウエキ,0
195,1290001107120,新規,0,2024-09-02,2024-09-02,株式会社ＺＥＲＯ．ＬＡＢ,,株式会社,福岡県,福岡市中央区,天神２丁目３番１０号天神パインクレスト１００４号,,40,133,8100001,,,,,,,2024-09-02,1,,,,,ゼロラボ,0
200,1290003015767,新規,0,2024-09-02,2024-09-02,合同会社石原商会,,合同会社,福岡県,大川市,大字幡保７２番地９,,40,212,8310033,,,,,,,2024-09-02,1,,,,,イシハラショウカイ,0
204,1330001032396,新規,0,2024-09-02,2024-09-02,株式会社双希,,株式会社,熊本県,熊本市中央区,花畑町１０－７、４階,,43,101,8600806,,,,,,,2024-09-02,1,,,,,ソウキ,0
208,1340003004590,新規,0,2024-09-02,2024-09-02,西日本電子遊戯開発合同会社,,合同会社,鹿児島県,鹿児島市,西陵２丁目１８番７号,,46,201,8900032,,,,,,,2024-09-02,1,,,,,ニシニホンデンシユウギカイハツ,0
213,1370005010832,新規,0,2024-09-02,2024-09-02,一般社団法人ビジブリッジ,,その他の設立登記法人,宮城県,仙台市青葉区,中央４丁目４番１９号アーバンネット仙台中央ビル２階,,04,101,9800021,,,,,,,2024-09-02,1,,,,,ビジブリッジ,0
217,1420005007922,新規,0,2024-09-02,2024-09-02,南黒広域清掃協同組合,,その他の設立登記法人,青森県,黒石市,大字東馬場尻字八幡田９番地４,,02,204,0360501,,,,,,,2024-09-02,1,,,,,ナンクロコウイキセイソウ,0
219,1430001092570,新規,0,2024-09-02,2024-09-02,豊國食品株式会社,,株式会社,北海道,小樽市,稲穂３丁目９番３０２号プレミスト小樽ステーションタワー,,01,203,0470032,,,,,,,2024-09-02,1,,,,,ホウコクショクヒン,0
220,1430003016726,新規,0,2024-09-02,2024-09-02,合同会社Ｍａｔｈ　Ａｒｔ,,合同会社,北海道,札幌市中央区,南十四条西８丁目５番３２－７０４号,,01,101,0640914,,,,,,,2024-09-02,1,,,,,マスアート,0
221,1430005015057,新規,0,2024-09-02,2024-09-02,一般社団法人ＥＤＦ,,その他の設立登記法人,北海道,北広島市,南町３丁目１０－１６,,01,234,0611143,,,,,,,2024-09-02,1,,,,,イーディーエフ,0
222,1440001009490,新規,0,2024-09-02,2024-09-02,株式会社つかさ商店,,株式会社,北海道,奥尻郡奥尻町,字奥尻４５６番地,,01,367,0431401,,,,,,,2024-09-02,1,,,,,ツカサショウテン,0
227,1500003003320,新規,0,2024-09-02,2024-09-02,合同会社アメイク,,合同会社,愛媛県,今治市,玉川町長谷甲９５０番地７,,38,202,7940109,,,,,,,2024-09-02,1,,,,,アメイク,0
235,2010001247934,新規,0,2024-09-02,2024-09-02,美巨思株式会社,,株式会社,東京都,文京区,白山１丁目６－４同栄マンション２階文京ＶＥＮＴＵＲＥＢＡＳＥ２０５号室,,13,105,1130001,,,,,,,2024-09-02,1,,,,,ビキョシ,0
236,2010001247959,新規,0,2024-09-02,2024-09-02,株式会社ＥＰＩＣ,,株式会社,東京都,千代田区,神田須田町１丁目７番８号ＶＯＲＴ秋葉原ＩＶ２Ｆ,00136143,13,101,1010041,,,,,,,2024-09-02,1,,,,,エピック,0
242,2010401184827,新規,0,2024-09-02,2024-09-02,株式会社Ｍａｐｌｅｇｅｍ,,株式会社,東京都,港区,南青山６丁目１２番４号骨董通りビル３０４,,13,103,1070062,,,,,,,2024-09-02,1,,,,,メイプルジェム,0
254,2010901055866,新規,0,2024-09-02,2024-09-02,河川株式会社,,株式会社,東京都,世田谷区,上北沢４丁目３４番１２号３０２,,13,112,1560057,,,,,,,2024-09-02,1,,,,,カセン,0
255,2010901055899,新規,0,2024-09-02,2024-09-02,株式会社ＷＯＮＤＥＲ　ＬＩＶＥ,,株式会社,東京都,世田谷区,奥沢４丁目１３番１２号,,13,112,1580083,,,,,,,2024-09-02,1,,,,,ワンダーライブ,0
266,2011103014850,新規,0,2024-09-02,2024-09-02,合同会社ビーポジティブ,,合同会社,東京都,新宿区,西新宿３丁目３番１３号西新宿水間ビル２Ｆ,,13,104,1600023,,,,,,,2024-09-02,1,,,,,ビーポジティブ,0
267,2011103014859,新規,0,2024-09-02,2024-09-02,合同会社Ｋ．Ｓ．Ｐ,,合同会社,東京都,新宿区,原町２丁目５ＫＥＮビル２１ビル２０１号室,,13,104,1620053,,,,,,,2024-09-02,1,,,,,ケイエスピー,0
275,2011601028022,新規,0,2024-09-02,2024-09-02,株式会社ＫＥＮ,,株式会社,東京都,練馬区,高野台３丁目３３番１３号,,13,120,1770033,,,,,,,2024-09-02,1,,,,,ケン,0
276,2011605002601,新規,0,2024-09-02,2024-09-02,一般社団法人凪咲,,その他の設立登記法人,東京都,練馬区,南田中３丁目１７番２５号コンフォートレジデンス４０６,,13,120,1770035,,,,,,,2024-09-02,1,,,,,ナギサ,0
278,2011801044785,新規,0,2024-09-02,2024-09-02,ＢＮＷ株式会社,,株式会社,東京都,足立区,西新井２丁目４番６号ＡｎｄＰｌｕｓ西新井ビル,,13,121,1230841,,,,,,,2024-09-02,1,,,,,ビーエヌダブリュー,0
279,2012303002042,新規,0,2024-09-02,2024-09-02,ヤマトインダス合同会社,,合同会社,東京都,町田市,常磐町３５８４番地５,,13,209,1940000,,,,,,,2024-09-02,1,,,,,ヤマトインダス,0
284,2013301053052,新規,0,2024-09-02,2024-09-02,天星株式会社,,株式会社,東京都,豊島区,池袋３丁目６９番１５号,,13,116,1710014,,,,,,,2024-09-02,1,,,,,ソラボシ,0
290,2020001158791,新規,0,2024-09-02,2024-09-02,シリウスインタナショナル株式会社,,株式会社,神奈川県,横浜市中区,伊勢佐木町２丁目６６－６０２,,14,104,2310045,,,,,,,2024-09-02,1,,,,,シリウスインタナショナル,0
291,2020001158858,新規,0,2024-09-02,2024-09-02,メディサポート株式会社,,株式会社,神奈川県,横浜市神奈川区,鶴屋町２丁目２１－１ダイヤビル３０３,,14,102,2210835,,,,,,,2024-09-02,1,,,,,メディサポート,0
292,2020001158882,新規,0,2024-09-02,2024-09-02,株式会社ＬＩＦ,,株式会社,神奈川県,横浜市保土ケ谷区,瀬戸ケ谷町１５１番地１,,14,106,2400024,,,,,,,2024-09-02,1,,,,,リフ,0
293,2020001158932,新規,0,2024-09-02,2024-09-02,株式会社ＲＲＫ,,株式会社,神奈川県,横浜市中区,本牧和田２番９号,,14,104,2310827,,,,,,,2024-09-02,1,,,,,アールアールケー,0
294,2020001158957,新規,0,2024-09-02,2024-09-02,株式会社Ａｔｅｌｉｅｒ　Ｃｈｉｓａｔｏ,,株式会社,神奈川県,川崎市中原区,新丸子町７４９番地,,14,133,2110005,,,,,,,2024-09-02,1,,,,,アトリエチサト,0
296,2020003026823,新規,0,2024-09-02,2024-09-02,合同会社ＣａｒｅＴｒａｃｋ,,合同会社,神奈川県,横浜市神奈川区,金港町５－１４クアドリフォリオ８階,,14,102,2210056,,,,,,,2024-09-02,1,,,,,ケアトラック,0
300,2021005013173,新規,0,2024-09-02,2024-09-02,特定非営利活動法人ホームアップ２０,,その他の設立登記法人,神奈川県,茅ヶ崎市,小和田２丁目７番１６号,,14,207,2530012,,,,,,,2024-09-02,1,,,,,ホームアップニジュウ,0
302,2030001162231,新規,0,2024-09-02,2024-09-02,株式会社秋山商店,,株式会社,埼玉県,草加市,花栗４丁目２０番３５－５１１号,,11,221,3400044,,,,,,,2024-09-02,1,,,,,アキヤマショウテン,0
303,2030001162248,新規,0,2024-09-02,2024-09-02,Ｇｏｌｄｅｎ　Ｗｉｎｎｅｒ　Ｉｎｖｅｓｔｍｅｎｔ株式会社,,株式会社,埼玉県,草加市,手代１丁目５番５号,,11,221,3400021,,,,,,,2024-09-02,1,,,,,ゴールデンウィナーインベストメント,0
313,2040001135228,新規,0,2024-09-02,2024-09-02,永成商事株式会社,,株式会社,千葉県,野田市,鶴奉３渡辺ビル２０３号室,,12,208,2780003,,,,,,,2024-09-02,1,,,,,エイセイショウジ,0
325,2050001055342,新規,0,2024-09-02,2024-09-02,ＧＲＭ　ＧＲＯＵＰ株式会社,,株式会社,茨城県,常総市,大生郷町１０３６－１,,08,211,3002521,,,,,,,2024-09-02,1,,,,,ジーアールエムグループ,0
327,2060001037447,新規,0,2024-09-02,2024-09-02,ホドク株式会社,,株式会社,栃木県,宇都宮市,睦町９番２７号ナイスアーバン中央公園１１０４,,09,201,3200865,,,,,,,2024-09-02,1,,,,,ホドク,0
328,2060003005229,新規,0,2024-09-02,2024-09-02,合同会社エミ設計,,合同会社,栃木県,宇都宮市,鶴田町２０１６番地１,,09,201,3200851,,,,,,,2024-09-02,1,,,,,エミセッケイ,0
335,2110003005504,新規,0,2024-09-02,2024-09-02,合同会社ＡＫ　Ｔｒａｄｉｎｇ,,合同会社,新潟県,上越市,大字上曽根２３５番地１,,15,222,9430424,,,,,,,2024-09-02,1,,,,,エーケートレーディング,0
350,2120001268168,新規,0,2024-09-02,2024-09-02,株式会社スーパースピード,,株式会社,大阪府,大阪市住之江区,南港北２丁目１番１０号ＡＴＣビル,,27,125,5590034,,,,,,,2024-09-02,1,,,,,スーパースピード,0
351,2120001268184,新規,0,2024-09-02,2024-09-02,ツバメフラワー株式会社,,株式会社,大阪府,大阪市天王寺区,伶人町２－３１ＳｔａｒＯｆｆｉｃｅ大阪天王寺北２０８号室,,27,109,5430061,,,,,,,2024-09-02,1,,,,,ツバメフラワー,0
352,2120001268218,新規,0,2024-09-02,2024-09-02,百利株式会社,,株式会社,大阪府,大阪市港区,八幡屋３丁目５番１－３０１号,,27,107,5520014,,,,,,,2024-09-02,1,,,,,ヒャクリ,0
359,2120101070234,新規,0,2024-09-02,2024-09-02,株式会社Ａｌｌｏｎｓ,,株式会社,大阪府,泉大津市,豊中町２丁目８－１３,,27,206,5950023,,,,,,,2024-09-02,1,,,,,アロン,0
360,2120901049709,新規,0,2024-09-02,2024-09-02,株式会社千花,,株式会社,大阪府,茨木市,南安威２丁目２番１０－２０４号,00136146,27,211,5670007,,,,,,,2024-09-02,1,,,,,センカ,0
376,2180001163082,新規,0,2024-09-02,2024-09-02,株式会社ＫＭＫ,,株式会社,愛知県,名古屋市昭和区,川名町２丁目１０番地の９,,23,107,4660856,,,,,,,2024-09-02,1,,,,,ケーエムケー,0
378,2180003027302,新規,0,2024-09-02,2024-09-02,合同会社パラス,,合同会社,愛知県,名古屋市守山区,西城２丁目１番１－３０４号,,23,113,4630084,,,,,,,2024-09-02,1,,,,,パラス,0
380,2180005020750,新規,0,2024-09-02,2024-09-02,一般社団法人ふくし第三者評価機関みらい,,その他の設立登記法人,愛知県,小牧市,久保一色東１丁目２０番地,,23,219,4850001,,,,,,,2024-09-02,1,,,,,フクシダイサンシャヒョウカキカンミライ,0
382,2180303006245,新規,0,2024-09-02,2024-09-02,合同会社新栞,,合同会社,愛知県,岡崎市,江口３丁目３番地１６,,23,202,4440843,,,,,,,2024-09-02,1,,,,,シンカン,0
387,2200003006484,新規,0,2024-09-02,2024-09-02,合同会社ＯＩＭ,,合同会社,岐阜県,岐阜市,五反田町１０番地オフィスＫＯ－ＫＥＮ２１０－１５,,21,201,5008328,,,,,,,2024-09-02,1,,,,,オーアイエム,0
398,2290001107103,新規,0,2024-09-02,2024-09-02,株式会社Ｃｏｎｒａｄ,,株式会社,福岡県,福岡市博多区,築港本町１番９号,,40,132,8120021,,,,,,,2024-09-02,1,,,,,コンラッド,0
399,2290001107111,新規,0,2024-09-02,2024-09-02,聖ビル株式会社,,株式会社,福岡県,福岡市中央区,天神５丁目４番１号７０１号室,,40,133,8100001,,,,,,,2024-09-02,1,,,,,セイビル,0
407,2290803004836,新規,0,2024-09-02,2024-09-02,合同会社Ｎｏ　ＮＡＭＥ,,合同会社,福岡県,田川郡川崎町,大字川崎１５９８番地の１,,40,605,8270003,,,,,,,2024-09-02,1,,,,,ノーネーム,0
414,2350003004738,新規,0,2024-09-02,2024-09-02,合同会社ｔｅｔｅ．,,合同会社,宮崎県,宮崎市,月見ケ丘５丁目１８－１１,,45,201,8800926,,,,,,,2024-09-02,1,,,,,テテピリオド,0
415,2360001034125,新規,0,2024-09-02,2024-09-02,株式会社カナタコンサルタント,,株式会社,沖縄県,宮古島市,平良字東仲宗根５５９番地６,,47,214,9060007,,,,,,,2024-09-02,1,,,,,カナタコンサルタント,0
421,2380001034759,新規,0,2024-09-02,2024-09-02,ワタナベホールディングス株式会社,,株式会社,福島県,いわき市,泉町下川字大剣１番地７０,,07,204,9718183,,,,,,,2024-09-02,1,,,,,ワタナベホールディングス,0
423,2390003002275,新規,0,2024-09-02,2024-09-02,まえむき合同会社,,合同会社,山形県,飽海郡遊佐町,遊佐字高砂２２番地１,,06,461,9998301,,,,,,,2024-09-02,1,,,,,マエムキ,0
427,2420001018848,新規,0,2024-09-02,2024-09-02,株式会社丸真設備,,株式会社,青森県,青森市,大字新町野字薄井３４番地２,,02,201,0300135,,,,,,,2024-09-02,1,,,,,マルシンセツビ,0
431,2430001092578,新規,0,2024-09-02,2024-09-02,株式会社村中工業,,株式会社,北海道,岩見沢市,志文町９８６番地２３,,01,210,0680833,,,,,,,2024-09-02,1,,,,,ムラナカコウギョウ,0
432,2430005015056,新規,0,2024-09-02,2024-09-02,一般社団法人クロス＆愛,,その他の設立登記法人,北海道,札幌市清田区,里塚二条４丁目７番１６－５号,,01,110,0040802,,,,,,,2024-09-02,1,,,,,クロスアンドアイ,0
437,2470003002705,新規,0,2024-09-02,2024-09-02,合同会社ａｎｄ　ｙｏｕ,,合同会社,香川県,高松市,元山町６５７番地２２,,37,201,7610311,,,,,,,2024-09-02,1,,,,,アンドユー,0
447,3010001247925,新規,0,2024-09-02,2024-09-02,ＴＡＩＭ株式会社,,株式会社,東京都,千代田区,飯田橋３丁目４番３－１００１号,,13,101,1020072,,,,,,,2024-09-02,1,,,,,タイム,0
449,3010003044726,新規,0,2024-09-02,2024-09-02,合同会社ＪＲＷＤファンド第１０号,,合同会社,東京都,中央区,日本橋１丁目４番１号日本橋一丁目ビルディング,,13,102,1030027,,,,,,,2024-09-02,1,,,,,ジェイアールダブリューディーファンドダイジュウゴウ,0
453,3010401184818,新規,0,2024-09-02,2024-09-02,株式会社ＳＵＮ　ＳＥＥＤ,,株式会社,東京都,港区,海岸１丁目１４番１７－１４０２号,,13,103,1050022,,,,,,,2024-09-02,1,,,,,サンシード,0
454,3010401184834,新規,0,2024-09-02,2024-09-02,株式会社トラスティッド・アドバイザリー,,株式会社,東京都,港区,白金台５丁目１２番２号,,13,103,1080071,,,,,,,2024-09-02,1,,,,,トラスティッドアドバイザリー,0
472,3011101108604,新規,0,2024-09-02,2024-09-02,株式会社Ｃｏｎｄｉｔｉｏｎｉｎｇ　Ｄｉｆｆｕｓｉｏｎ,,株式会社,東京都,新宿区,四谷坂町４番１８号,,13,104,1600002,,,,,,,2024-09-02,1,,,,,コンディショニングディフュージョン,0
473,3011101108612,新規,0,2024-09-02,2024-09-02,株式会社綿花山,,株式会社,東京都,新宿区,百人町１丁目２０－３バラードハイム新宿渡辺ビル７０２号,,13,104,1690073,,,,,,,2024-09-02,1,,,,,メンカヤマ,0
474,3011101108629,新規,0,2024-09-02,2024-09-02,株式会社Ｂｅｓｔｉｍｕｌａｔｅ,,株式会社,東京都,新宿区,西新宿３丁目３－１３西新宿水間ビル６Ｆ,,13,104,1600023,,,,,,,2024-09-02,1,,,,,ベスティムレイト,0
475,3011103014858,新規,0,2024-09-02,2024-09-02,合同会社Ｃｌｉｍｂ,,合同会社,東京都,新宿区,高田馬場１丁目１７－１６,,13,104,1690075,,,,,,,2024-09-02,1,,,,,クライム,0
477,3011801044784,新規,0,2024-09-02,2024-09-02,株式会社ＲＵＩ,,株式会社,東京都,足立区,西新井２丁目４番６号ＡｎｄＰｌｕｓ西新井ビル,,13,121,1230841,,,,,,,2024-09-02,1,,,,,アールユーアイ,0
480,3012701018424,新規,0,2024-09-02,2024-09-02,株式会社ＡＫＴ,,株式会社,東京都,西東京市,芝久保町２丁目２番１５号,,13,229,1880014,,,,,,,2024-09-02,1,,,,,エーケーティー,0
490,3020001158972,新規,0,2024-09-02,2024-09-02,株式会社酒本工業,,株式会社,神奈川県,横浜市南区,六ツ川２丁目２３番地２３ＨＡＬ横濱２０２,,14,105,2320066,,,,,,,2024-09-02,1,,,,,サケモトコウギョウ,0
491,3020001158997,新規,0,2024-09-02,2024-09-02,Ｔａｃｋ　Ｉｎｔｅｒｎａｔｉｏｎａｌ株式会社,,株式会社,神奈川県,横浜市港北区,新横浜３丁目９－５新横浜第３東昇ビル,,14,109,2220033,,,,,,,2024-09-02,1,,,,,タックインターナショナル,0
494,3020003026814,新規,0,2024-09-02,2024-09-02,Ｌａｐｉｓ合同会社,,合同会社,神奈川県,川崎市中原区,丸子通２丁目４３９－４,,14,133,2110006,,,,,,,2024-09-02,1,,,,,ラピ,0
495,3020003026822,新規,0,2024-09-02,2024-09-02,合同会社Ｎｏｒｔｈａｄｗｉｓｔｅｒｉａ,,合同会社,神奈川県,川崎市幸区,小倉２丁目１６番２８号ソフィス小倉１０３,,14,132,2120054,,,,,,,2024-09-02,1,,,,,ノーサッドウィステリア,0
500,3021001083120,新規,0,2024-09-02,2024-09-02,株式会社ＥＭＡ,,株式会社,神奈川県,相模原市中央区,下九沢１１８３番地６０,,14,152,2520254,,,,,,,2024-09-02,1,,,,,イーエムエー,0
501,3021001083129,新規,0,2024-09-02,2024-09-02,株式会社ＹＭ企画,,株式会社,神奈川県,小田原市,中村原６９７番地の２４,,14,206,2560803,,,,,,,2024-09-02,1,,,,,ワイエムキカク,0
502,3021001083137,新規,0,2024-09-02,2024-09-02,株式会社アールエス,,株式会社,神奈川県,大和市,福田５５０８番地グレイス桜ケ丘参番館５０２,,14,213,2420024,,,,,,,2024-09-02,1,,,,,アールエス,0
509,3030001162255,新規,0,2024-09-02,2024-09-02,株式会社スライトリー,,株式会社,埼玉県,さいたま市大宮区,桜木町３９８－１アドグレイス大宮７Ｆ,,11,103,3300800,,,,,,,2024-09-02,1,,,,,スライトリー,0
511,3030003025030,新規,0,2024-09-02,2024-09-02,合同会社ＨＲデザインパートナーズ,,合同会社,埼玉県,上尾市,本町２丁目１３番地１０－２０１,,11,219,3620014,,,,,,,2024-09-02,1,,,,,エイチアールデザインパートナーズ,0
517,3050003008636,新規,0,2024-09-02,2024-09-02,合同会社ＳＤＴ,,合同会社,茨城県,取手市,清水１３７０,,08,217,3001535,,,,,,,2024-09-02,1,,,,,エスディティ,0
518,3050003008644,新規,0,2024-09-02,2024-09-02,合同会社国頭マース,,合同会社,茨城県,石岡市,旭台３丁目４番１号,,08,205,3150038,,,,,,,2024-09-02,1,,,,,クニガミマース,0
520,3060003005228,新規,0,2024-09-02,2024-09-02,合同会社ＭＡＮＡＫＡＭＡＮＡ　ＴＲＡＤＥＲＳ,,合同会社,栃木県,栃木市,大平町富田３７４番地２－１階,,09,203,3294404,,,,,,,2024-09-02,1,,,,,マナカマナトレーダーズ,0
521,3070003005565,新規,0,2024-09-02,2024-09-02,ジェルスポーツ合同会社,,合同会社,群馬県,沼田市,高橋場町２０６１番地,,10,206,3780056,,,,,,,2024-09-02,1,,,,,ジェルスポーツ,0
524,3080001026471,新規,0,2024-09-02,2024-09-02,株式会社ＲＴＡＭマネジメント,,株式会社,静岡県,焼津市,城之腰１９０番地の３,,22,212,4250025,,,,,,,2024-09-02,1,,,,,ルタマネジメント,0
528,3080401027400,新規,0,2024-09-02,2024-09-02,株式会社シャルリエ,,株式会社,静岡県,掛川市,上西郷１８１８－５,,22,213,4360342,,,,,,,2024-09-02,1,,,,,シャルリエ,0
529,3080405007662,新規,0,2024-09-02,2024-09-02,一般社団法人中田島砂丘観光協会,,その他の設立登記法人,静岡県,浜松市中央区,中田島町１６０９番地の４,,22,138,4300845,,,,,,,2024-09-02,1,,,,,ナカタジマサキュウカンコウキョウカイ,0
536,3120001268200,新規,0,2024-09-02,2024-09-02,株式会社モブランド,,株式会社,大阪府,大阪市西区,南堀江３丁目９番１３号堀江家具ＷＥＳＴビル３Ｆ,,27,106,5500015,,,,,,,2024-09-02,1,,,,,モブランド,0
537,3120001268209,新規,0,2024-09-02,2024-09-02,徳勤国際供応鏈株式会社,00136149,株式会社,大阪府,大阪市城東区,関目５丁目１９番９号関目花博公館２１２Ａ,,27,118,5360008,,,,,,,2024-09-02,1,,,,,トクキンコクサイキョウオウレン,0
541,3120003027439,新規,0,2024-09-02,2024-09-02,合同会社ドロップス,,合同会社,大阪府,大阪市淀川区,東三国１丁目３３番１４－５０４号,,27,123,5320002,,,,,,,2024-09-02,1,,,,,ドロップス,0
544,3120103006037,新規,0,2024-09-02,2024-09-02,合同会社ＧＭＣイノベーションマネジメント,,合同会社,大阪府,堺市南区,高倉台２丁３４－５,,27,145,5900117,,,,,,,2024-09-02,1,,,,,ジーエムシーイノベーションマネジメント,0
549,3120903005312,新規,0,2024-09-02,2024-09-02,合同会社岩谷造園,,合同会社,大阪府,池田市,八王寺２丁目１－６－１０２,,27,204,5630037,,,,,,,2024-09-02,1,,,,,イワタニゾウエン,0
550,3130001077807,新規,0,2024-09-02,2024-09-02,株式会社ｇｏｒｏｈａｃｈｉ,,株式会社,京都府,京都市下京区,西七条石井町１番地８,,26,106,6008875,,,,,,,2024-09-02,1,,,,,ゴロハチ,0
551,3130003009824,新規,0,2024-09-02,2024-09-02,合同会社ＧＯＤＡ,,合同会社,京都府,京都市上京区,黒門通一条上る東入横神明町７９６番地,,26,102,6028223,,,,,,,2024-09-02,1,,,,,ゴウダ,0
552,3140001135670,新規,0,2024-09-02,2024-09-02,ＭＪ技研株式会社,,株式会社,兵庫県,高砂市,高砂町東宮町１５３番地,,28,216,6760043,,,,,,,2024-09-02,1,,,,,エムジェイギケン,0
558,3180001163057,新規,0,2024-09-02,2024-09-02,株式会社Ｓｅｐ,,株式会社,愛知県,名古屋市中村区,八社２丁目１１２番地ラ・ルーチェ１０３号室,,23,105,4530863,,,,,,,2024-09-02,1,,,,,セップ,0
562,3180301039007,新規,0,2024-09-02,2024-09-02,岩崎三興株式会社,,株式会社,愛知県,豊田市,折平町西屋敷５５３番地１０,,23,211,4700464,,,,,,,2024-09-02,1,,,,,イワサキサンコウ,0
571,3230001020509,新規,0,2024-09-02,2024-09-02,ＳＡＮ株式会社,,株式会社,富山県,射水市,沖塚原２０番地１,,16,211,9340055,,,,,,,2024-09-02,1,,,,,サン,0
574,3250001020787,新規,0,2024-09-02,2024-09-02,株式会社Ｔｅｎｂｉｌ,,株式会社,山口県,宇部市,相生町９－１０－３Ｆ,,35,202,7550043,,,,,,,2024-09-02,1,,,,,テンビル,0
577,3260001039414,新規,0,2024-09-02,2024-09-02,株式会社ＬＥＡＤ,,株式会社,岡山県,岡山市北区,北長瀬表町２丁目１７－８０,,33,101,7000962,,,,,,,2024-09-02,1,,,,,リード,0
588,3290803004835,新規,0,2024-09-02,2024-09-02,合同会社ＮＹＨ,,合同会社,福岡県,北九州市若松区,塩屋４丁目８番３号,,40,103,8080131,,,,,,,2024-09-02,1,,,,,エヌワイエイチ,0
595,3330003010530,新規,0,2024-09-02,2024-09-02,高宜合同会社,,合同会社,熊本県,菊池郡大津町,大字引水８８８－１６,,43,403,8691234,,,,,,,2024-09-02,1,,,,,タカギ,0
597,3340001026767,新規,0,2024-09-02,2024-09-02,株式会社ＪＯＩＮＴ,,株式会社,鹿児島県,鹿児島市,西伊敷７丁目３４番１２号,,46,201,8911202,,,,,,,2024-09-02,1,,,,,ジョイント,0
599,3360001034132,新規,0,2024-09-02,2024-09-02,株式会社クローバー,,株式会社,沖縄県,那覇市,首里真和志町１丁目２６番地,,47,201,9030816,,,,,,,2024-09-02,1,,,,,クローバー,0
614,3430001092569,新規,0,2024-09-02,2024-09-02,株式会社３Ｌｉｖｅｓ,,株式会社,北海道,札幌市中央区,南五条西１５丁目２番地３リズム医大前５０３号室,,01,101,0640805,,,,,,,2024-09-02,1,,,,,スリーブス,0
617,3430003016740,新規,0,2024-09-02,2024-09-02,合同会社ホリスティックライフケアパートナーズ,,合同会社,北海道,札幌市豊平区,月寒東三条６丁目１－１リーベスト月寒中央ＩＩ５０２,00136141,01,105,0620053,,,,,,,2024-09-02,1,,,,,ホリスティックライフケアパートナーズ,0
621,3500003003319,新規,0,2024-09-02,2024-09-02,合同会社パグス,,合同会社,愛媛県,四国中央市,妻鳥町２０３５番地４,,38,213,7990113,,,,,,,2024-09-02,1,,,,,パグス,0
636,4010001247858,新規,0,2024-09-02,2024-09-02,タルデジャパン株式会社,,株式会社,東京都,中央区,京橋２丁目２番１号,,13,102,1040031,,,,,,,2024-09-02,1,,,,,タルデジャパン,0
637,4010001247874,新規,0,2024-09-02,2024-09-02,Ｋａｒｉｈ株式会社,,株式会社,東京都,中央区,新富１丁目８番１１号ＴＲＵＳＴＶＡＬＵＥ新富町ビル６Ｆ,,13,102,1040041,,,,,,,2024-09-02,1,,,,,カリィ,0
643,4010003044725,新規,0,2024-09-02,2024-09-02,ＮＧＰ１合同会社,,合同会社,東京都,中央区,日本橋１丁目４番１号日本橋一丁目ビルディング,,13,102,1030027,,,,,,,2024-09-02,1,,,,,エヌジーピーワン,0
644,4010003044741,新規,0,2024-09-02,2024-09-02,合同会社バッテリースクエア１,,合同会社,東京都,千代田区,大手町１丁目９番２号大手町フィナンシャルシティグランキューブ１８階１８１２号室,,13,101,1000004,,,,,,,2024-09-02,1,,,,,バッテリースクエアワン,0
646,4010101016304,新規,0,2024-09-02,2024-09-02,株式会社ＹｏｕＴＡＫＡホールディングス,,株式会社,東京都,八王子市,台町２丁目１４番３６号,,13,201,1930931,,,,,,,2024-09-02,1,,,,,ユタカホールディングス,0
647,4010401184809,新規,0,2024-09-02,2024-09-02,東京青平貿易株式会社,,株式会社,東京都,港区,西新橋３丁目１８－２オダヤビル２階,,13,103,1050003,,,,,,,2024-09-02,1,,,,,トウキョウアオヒラボウエキ,0
648,4010401184833,新規,0,2024-09-02,2024-09-02,ＧｒａｄｉｅｎｔＢｌｕｅ株式会社,,株式会社,東京都,港区,赤坂２丁目２１番４号,,13,103,1070052,,,,,,,2024-09-02,1,,,,,グラデーションブルー,0
649,4010401184841,新規,0,2024-09-02,2024-09-02,株式会社青南管財,,株式会社,東京都,港区,南青山４丁目１７番３１－２０４号,,13,103,1070062,,,,,,,2024-09-02,1,,,,,セイナンカンザイ,0
651,4010403033294,新規,0,2024-09-02,2024-09-02,ＴＡＳＳＴＡ　ＮＩＰＰＯＮ合同会社,,合同会社,東京都,港区,浜松町２丁目７番１７号イーグル浜松町天翔オフィス浜松町大門５階５２５号室,,13,103,1050013,,,,,,,2024-09-02,1,,,,,タスタニッポン,0
652,4010505003550,新規,0,2024-09-02,2024-09-02,一般社団法人ＣＣＦ　Ｊａｐａｎ,,その他の設立登記法人,東京都,台東区,上野３丁目２－１－３Ｆ,,13,106,1100005,,,,,,,2024-09-02,1,,,,,シーシーエフジャパン,0
658,4010901055897,新規,0,2024-09-02,2024-09-02,株式会社ＲＥＸＡＲＴＥ,,株式会社,東京都,世田谷区,上北沢４丁目３３番２１号ヴィラ・ロンド００８,,13,112,1560057,,,,,,,2024-09-02,1,,,,,レキサルト,0
678,4011005010640,新規,0,2024-09-02,2024-09-02,一般社団法人世界標準の経営理論実践研究会,,その他の設立登記法人,東京都,渋谷区,渋谷２丁目１９番１５号宮益坂ビルディング６０９,,13,113,1500002,,,,,,,2024-09-02,1,,,,,セカイヒョウジュンノケイエイリロンジッセンケンキュウカイ,0
683,4011101108603,新規,0,2024-09-02,2024-09-02,株式会社セレクトビジョン,,株式会社,東京都,新宿区,高田馬場２丁目１７番３号,,13,104,1690075,,,,,,,2024-09-02,1,,,,,セレクトビジョン,0
684,4011103014857,新規,0,2024-09-02,2024-09-02,合同会社コトノワ,,合同会社,東京都,新宿区,西新宿３丁目３番１３号西新宿水間ビル２Ｆ,,13,104,1600023,,,,,,,2024-09-02,1,,,,,コトノワ,0
685,4011103014865,新規,0,2024-09-02,2024-09-02,合同会社ＹＮ　Ｓｔｕｄｉｏ,,合同会社,東京都,新宿区,西新宿３丁目３番１３号西新宿水間ビル６階,,13,104,1600023,,,,,,,2024-09-02,1,,,,,ワイエヌスタジオ,0
687,4011301029962,新規,0,2024-09-02,2024-09-02,株式会社トラヴィスカンパニー,,株式会社,東京都,杉並区,清水１丁目２３番２３号,,13,115,1670033,,,,,,,2024-09-02,1,,,,,,0
693,4011501031099,新規,0,2024-09-02,2024-09-02,株式会社Ｎｉｃｌｅａｆ,,株式会社,東京都,北区,堀船１丁目１７番５－７０１号,,13,117,1140004,,,,,,,2024-09-02,1,,,,,ニックリーフ,0
706,4020001158963,新規,0,2024-09-02,2024-09-02,株式会社ベネディクション,,株式会社,神奈川県,川崎市川崎区,駅前本町１１番地２川崎フロンティアビル４階,,14,131,2100007,,,,,,,2024-09-02,1,,,,,ベネディクション,0
713,4020003026846,新規,0,2024-09-02,2024-09-02,合同会社ＡＸＩＳ,,合同会社,神奈川県,横浜市港北区,篠原町１２６６番地１６,,14,109,2220026,,,,,,,2024-09-02,1,,,,,,0
718,4021003014964,新規,0,2024-09-02,2024-09-02,ＶＩＥＴ　ＦＯＯＤ合同会社,,合同会社,神奈川県,小田原市,浜町１丁目１４番３０号,,14,206,2500004,,,,,,,2024-09-02,1,,,,,ヴィットフード,0
721,4030001162205,新規,0,2024-09-02,2024-09-02,株式会社エコーグリマースタジオ,,株式会社,埼玉県,所沢市,大字山口５０４１番地３９－６－５０７,,11,208,3591145,,,,,,,2024-09-02,1,,,,,エコーグリマースタジオ,0
722,4030001162246,新規,0,2024-09-02,2024-09-02,エン・グループ株式会社,,株式会社,埼玉県,志木市,本町５丁目２３－７第５ナカタビル２０１,,11,228,3530004,,,,,,,2024-09-02,1,,,,,エングループ,0
726,4030003025038,新規,0,2024-09-02,2024-09-02,合同会社シン,,合同会社,埼玉県,川口市,大字安行領根岸５４９番地の１・２Ｆ,,11,203,3330834,,,,,,,2024-09-02,1,,,,,シン,0
738,4080101024985,新規,0,2024-09-02,2024-09-02,法務オフィス・協友測量株式会社,,株式会社,静岡県,富士宮市,万野原新田２８７２番地の１４,,22,207,4180001,,,,,,,2024-09-02,1,,,,,ホウムオフィスキョウユウソクリョウ,0
744,4100001037820,新規,0,2024-09-02,2024-09-02,株式会社丸池ホテル,,株式会社,長野県,下高井郡山ノ内町,大字平穏７１４８番地,,20,561,3810401,,,,,,,2024-09-02,1,,,,,マルイケホテル,0
751,4120001055606,新規,0,2024-09-02,2024-09-02,株式会社三創,,株式会社,大阪府,大阪市淀川区,野中南１丁目５番１４号,,27,123,5320022,,,,,,,2024-09-02,1,,,,,サンソー,0
760,4120001268166,新規,0,2024-09-02,2024-09-02,株式会社エテルナ,,株式会社,大阪府,守口市,梶町３丁目１４番７号,,27,209,5700015,,,,,,,2024-09-02,1,,,,,エテルナ,0
761,4120001268190,新規,0,2024-09-02,2024-09-02,湘原産業株式会社,,株式会社,大阪府,大阪市東淀川区,瑞光１丁目２－１１－３０４,,27,114,5330005,,,,,,,2024-09-02,1,,,,,ショウゲンサンギョウ,0
762,4120001268216,新規,0,2024-09-02,2024-09-02,歸善ホールディングス株式会社,,株式会社,大阪府,大阪市中央区,島之内２丁目１０－１２－７Ｆ,,27,128,5420082,,,,,,,2024-09-02,1,,,,,キゼンホールディングス,0
763,4120003027438,新規,0,2024-09-02,2024-09-02,合同会社ＲＹＫＴ,,合同会社,大阪府,大阪市中央区,島町１丁目２－１２－４０８号,,27,128,5400034,,,,,,,2024-09-02,1,,,,,アールワイケーティー,0
766,4120901049707,新規,0,2024-09-02,2024-09-02,如家株式会社,,株式会社,大阪府,吹田市,江坂町５丁目１１番１０号サンシャイン緑地公園２０５号室,,27,205,5640063,,,,,,,2024-09-02,1,,,,,ジョカ,0
773,4140001135678,新規,0,2024-09-02,2024-09-02,株式会社ＨＫＭ,,株式会社,兵庫県,加東市,南山２丁目４番地８－１０５号,,28,228,6731341,,,,,,,2024-09-02,1,,,,,エッチケイエム,0
776,4170001018293,新規,0,2024-09-02,2024-09-02,株式会社Ａｌｉｃｅ,,株式会社,和歌山県,和歌山市,吉田８１６パルファンビル１階,,30,201,6408343,,,,,,,2024-09-02,1,,,,,アリス,0
781,4180001163080,新規,0,2024-09-02,2024-09-02,株式会社緑サービス,,株式会社,愛知県,名古屋市西区,樋の口町１‐１５ホーワビル３階１４号,,23,104,4510034,,,,,,,2024-09-02,1,,,,,ミドリサービス,0
786,4200003006482,新規,0,2024-09-02,2024-09-02,合同会社ＷＳオート,,合同会社,岐阜県,大垣市,桧町８３３番地１,,21,202,5030981,,,,,,,2024-09-02,1,,,,,ダブリューエスオート,0
791,4230001020508,新規,0,2024-09-02,2024-09-02,株式会社Ｈａｂｉｂｉ　Ｔｒａｄｉｎｇ,,株式会社,富山県,射水市,庄西町１丁目１５番６号,,16,211,9340001,,,,,,,2024-09-02,1,,,,,ハビビトレーディング,0
793,4240001063761,新規,0,2024-09-02,2024-09-02,株式会社ＬＣＩＣホールディングス,,株式会社,広島県,広島市安佐南区,大町東３丁目１２番３５号,,34,105,7310124,,,,,,,2024-09-02,1,,,,,エルシーアイシーホールディングス,0
796,4250005008943,新規,0,2024-09-02,2024-09-02,一般社団法人やまぐちＲＥ１００,,その他の設立登記法人,山口県,山口市,赤妻町３番１３号,,35,203,7530067,,,,,,,2024-09-02,1,,,,,ヤマグチアールイーヒャク,0
798,4260003004877,新規,0,2024-09-02,2024-09-02,合同会社フェリアン,,合同会社,岡山県,岡山市東区,金岡東町２丁目７番１０号カーサ金岡２０３,,33,103,7048194,,,,,,,2024-09-02,1,,,,,フェリアン,0
807,4290001107101,新規,0,2024-09-02,2024-09-02,株式会社イグニーズ・コンサルティング,,株式会社,福岡県,福岡市中央区,地行２丁目３番１４号,,40,133,8100064,,,,,,,2024-09-02,1,,,,,イグニーズコンサルティング,0
817,4290801030840,新規,0,2024-09-02,2024-09-02,株式会社ＯＦＦＩＣＥ　ＺＥＮ,,株式会社,福岡県,北九州市小倉南区,上石田１丁目４番７号,,40,107,8020833,,,,,,,2024-09-02,1,,,,,オフィスゼン,0
818,4290803004834,新規,0,2024-09-02,2024-09-02,むぎちゃん合同会社,,合同会社,福岡県,北九州市小倉南区,志井４丁目１５番１６号,,40,107,8020985,,,,,,,2024-09-02,1,,,,,ムギチャン,0
829,4390001017728,新規,0,2024-09-02,2024-09-02,株式会社光洋ホールディングス,,株式会社,山形県,鶴岡市,宝田３丁目３番２７号,,06,203,9970011,,,,,,,2024-09-02,1,,,,,コウヨウホールディングス,0
834,4420001018846,新規,0,2024-09-02,2024-09-02,株式会社Ｔｂｒｉｄｇｅ,,株式会社,青森県,むつ市,海老川町５番７号,,02,208,0350054,,,,,,,2024-09-02,1,,,,,ティーブリッジ,0
845,4500001025850,新規,0,2024-09-02,2024-09-02,株式会社まどをひらく,,株式会社,愛媛県,東温市,北方海上１４７―１,,38,215,7910303,,,,,,,2024-09-02,1,,,,,マドヲヒラク,0
858,5010003044740,新規,0,2024-09-02,2024-09-02,合同会社バッテリーファーム２,,合同会社,東京都,千代田区,大手町１丁目９番２号大手町フィナンシャルシティグランキューブ１８階１８１２号室,,13,101,1000004,,,,,,,2024-09-02,1,,,,,バッテリーファームツー,0
859,5010003044749,新規,0,2024-09-02,2024-09-02,合同会社Ｐｒｅｃｉｏｕｓ　ｔｉｍｅ,,合同会社,東京都,中央区,銀座１丁目２２番１１号銀座大竹ビジデンス２Ｆ,,13,102,1040061,,,,,,,2024-09-02,1,,,,,プレシャスタイム,0
860,5010003044781,新規,0,2024-09-02,2024-09-02,気診ナチュラルラボ合同会社,,合同会社,東京都,中央区,銀座７丁目１３番２０号銀座ＴＨビル９階,,13,102,1040061,,,,,,,2024-09-02,1,,,,,キシンナチュラルラボ,0
861,5010005038732,新規,0,2024-09-02,2024-09-02,一般社団法人ステップフォワードジャパン,,その他の設立登記法人,東京都,中央区,日本橋室町１丁目１１番１２号日本橋水野ビル７階,,13,102,1030022,,,,,,,2024-09-02,1,,,,,ステップフォワードジャパン,0
865,5010401184824,新規,0,2024-09-02,2024-09-02,株式会社ＮＡＷＡ,,株式会社,東京都,港区,海岸１丁目４番２２号ＳＮビル８階９階１０階,,13,103,1050022,,,,,,,2024-09-02,1,,,,,ナワ,0
866,5010401184840,新規,0,2024-09-02,2024-09-02,株式会社ビューティーナレッジ,,株式会社,東京都,港区,芝公園３丁目１番１３号アーバン芝公園２階,,13,103,1050011,,,,,,,2024-09-02,1,,,,,ビューティーナレッジ,0
880,5010903009330,新規,0,2024-09-02,2024-09-02,スマートソリューションズ合同会社,,合同会社,東京都,世田谷区,松原４丁目７番６号,,13,112,1560043,,,,,,,2024-09-02,1,,,,,スマートソリューションズ,0
883,5011001164381,新規,0,2024-09-02,2024-09-02,株式会社八角,,株式会社,東京都,渋谷区,恵比寿西２丁目８番４号,,13,113,1500021,,,,,,,2024-09-02,1,,,,,ハッカク,0
885,5011101108602,新規,0,2024-09-02,2024-09-02,株式会社ＮＯＲＯＳＨＩ,,株式会社,東京都,新宿区,左門町９番地６,,13,104,1600017,,,,,,,2024-09-02,1,,,,,ノロシ,0
886,5011103014856,新規,0,2024-09-02,2024-09-02,ＰＵＲＯＴＥＡ合同会社,,合同会社,東京都,新宿区,早稲田鶴巻町５２０番地１０新宿早稲田レーベル１Ｆ・Ｂ１Ｆ,,13,104,1620041,,,,,,,2024-09-02,1,,,,,プロテア,0
887,5011103014864,新規,0,2024-09-02,2024-09-02,合同会社ｓｕｉｚｕ　ａｔｅｌｉｅｒ,,合同会社,東京都,新宿区,二十騎町１番３５－１０６号,,13,104,1620855,,,,,,,2024-09-02,1,,,,,スイヅアトリエ,0
888,5011103014889,新規,0,2024-09-02,2024-09-02,合同会社ヴィアエージェンシー,,合同会社,東京都,新宿区,新宿１丁目３６―２新宿第七葉山ビル３Ｆ,,13,104,1600022,,,,,,,2024-09-02,1,,,,,ヴィアエージェンシー,0
892,5011801044758,新規,0,2024-09-02,2024-09-02,杉海株式会社,,株式会社,東京都,足立区,西新井本町１丁目２７番６号太平ビル３０４号室,,13,121,1230845,,,,,,,2024-09-02,1,,,,,スギウミ,0
893,5011801044790,新規,0,2024-09-02,2024-09-02,アイ・フィールド株式会社,,株式会社,東京都,葛飾区,柴又１丁目３７－２,,13,122,1250052,,,,,,,2024-09-02,1,,,,,アイフィールド,0
909,5020001158905,新規,0,2024-09-02,2024-09-02,株式会社横沢造園,,株式会社,神奈川県,横浜市戸塚区,俣野町１２２４番地,,14,110,2450066,,,,,,,2024-09-02,1,,,,,ヨコザワゾウエン,0
910,5020001158913,新規,0,2024-09-02,2024-09-02,株式会社ＭｅＧＬＡＭ,,株式会社,神奈川県,横浜市中区,伊勢佐木町４番地１１２ウィルビー横浜１ｓｔビル１０１,,14,104,2310000,,,,,,,2024-09-02,1,,,,,メグラム,0
911,5020001158938,新規,0,2024-09-02,2024-09-02,株式会社おかたけ,,株式会社,神奈川県,川崎市高津区,新作４丁目７番２８号,,14,134,2130014,,,,,,,2024-09-02,1,,,,,オカタケ,0
912,5020001158954,新規,0,2024-09-02,2024-09-02,株式会社和田電設,,株式会社,神奈川県,川崎市高津区,北野川２番３４号,,14,134,2130028,,,,,,,2024-09-02,1,,,,,ワダデンセツ,0
913,5020001158979,新規,0,2024-09-02,2024-09-02,株式会社ＭＳＹコーポレーション,,株式会社,神奈川県,横浜市都筑区,すみれが丘３０番地の６,,14,118,2240013,,,,,,,2024-09-02,1,,,,,エムエスワイコーポレーション,0
914,5020001158987,新規,0,2024-09-02,2024-09-02,Ｆｉｒｓｔ　ｓｐａｃｅ株式会社,,株式会社,神奈川県,川崎市川崎区,港町５番１－２５０６号,,14,131,2100807,,,,,,,2024-09-02,1,,,,,ファーストスペース,0
916,5020003026837,新規,0,2024-09-02,2024-09-02,合同会社ＨＩＭＡＷＡＲＩ,,合同会社,神奈川県,横浜市青葉区,美しが丘西３丁目５４番地９,,14,117,2250001,,,,,,,2024-09-02,1,,,,,ヒマワリ,0
919,5021001083119,新規,0,2024-09-02,2024-09-02,莫比株式会社,,株式会社,神奈川県,秦野市,南矢名２２２３番地の４東海ビル１０１Ａ,,14,211,2570003,,,,,,,2024-09-02,1,,,,,バクヒ,0
922,5030001162229,新規,0,2024-09-02,2024-09-02,株式会社ａｍｉｃｏ,,株式会社,埼玉県,富士見市,鶴瀬東２丁目６番２０号ローズガーデンＩ２０２,00136138,11,235,3540024,,,,,,,2024-09-02,1,,,,,アミコ,0
926,5030003025020,新規,0,2024-09-02,2024-09-02,ラクルールココ合同会社,,合同会社,埼玉県,川口市,戸塚２丁目２２－３３エスポワール４１０,,11,203,3330811,,,,,,,2024-09-02,1,,,,,ラクルールココ,0
929,5040003025713,新規,0,2024-09-02,2024-09-02,Ｚ・Ｙ合同会社,,合同会社,千葉県,市川市,市川南２丁目９番３２－２０３号,,12,203,2720033,,,,,,,2024-09-02,1,,,,,ズィーワイ,0
942,5100001037811,新規,0,2024-09-02,2024-09-02,株式会社ＸＬＥＩＺ,,株式会社,長野県,上田市,諏訪形１７２４,,20,203,3860032,,,,,,,2024-09-02,1,,,,,クレイズ,0
956,5120001268157,新規,0,2024-09-02,2024-09-02,株式会社Ｎｏｕｒｉｓｈ,,株式会社,大阪府,大阪市天王寺区,上本町５丁目７番２５号３０７号室,,27,109,5430001,,,,,,,2024-09-02,1,,,,,ナリッシュ,0
957,5120001268181,新規,0,2024-09-02,2024-09-02,清水優品株式会社,,株式会社,大阪府,大阪市旭区,生江１丁目８番２－８０２号,,27,117,5350004,,,,,,,2024-09-02,1,,,,,シミズユウヒン,0
959,5120003027412,新規,0,2024-09-02,2024-09-02,大阪瑞雪貿易合同会社,,合同会社,大阪府,大阪市住之江区,御崎１丁目１１番１９－２０５号,,27,125,5590013,,,,,,,2024-09-02,1,,,,,オオサカズイセツボウエキ,0
960,5120003027429,新規,0,2024-09-02,2024-09-02,日本クエスト合同会社,,合同会社,大阪府,大阪市北区,梅田１丁目２番２号大阪駅前第２ビル１２－１２,,27,127,5300001,,,,,,,2024-09-02,1,,,,,ニホンクエスト,0
965,5120901049697,新規,0,2024-09-02,2024-09-02,株式会社龍海,,株式会社,大阪府,吹田市,広芝町９番２８号,,27,205,5640052,,,,,,,2024-09-02,1,,,,,リュウカイ,0
969,5130001077838,新規,0,2024-09-02,2024-09-02,ＭＩＮＡＳＡ生活株式会社,,株式会社,京都府,京都市伏見区,深草川久保町１１番地３５,,26,109,6128402,,,,,,,2024-09-02,1,,,,,ミナサセイカツ,0
970,5130001077846,新規,0,2024-09-02,2024-09-02,株式会社Ｍａｔｅ,,株式会社,京都府,京都市下京区,七条通油小路東入大黒町２２７番地第２キョートビル４０２,,26,106,6008223,,,,,,,2024-09-02,1,,,,,メイト,0
972,5130003009822,新規,0,2024-09-02,2024-09-02,合同会社まんまる,,合同会社,京都府,京田辺市,大住関屋９番地１０,,26,211,6100343,,,,,,,2024-09-02,1,,,,,マンマル,0
979,5140001135660,新規,0,2024-09-02,2024-09-02,株式会社ＶＬＴ　ＧＲＯＵＰ,,株式会社,兵庫県,西宮市,上ケ原十番町２－３０－５０３,,28,204,6620884,,,,,,,2024-09-02,1,,,,,ブイエルティグループ,0
980,5140001135669,新規,0,2024-09-02,2024-09-02,株式会社ＦＪネット,,株式会社,兵庫県,明石市,大久保町山手台４丁目１８１番地の７,,28,203,6740056,,,,,,,2024-09-02,1,,,,,エフジェイネット,0
981,5150001027527,新規,0,2024-09-02,2024-09-02,エムズオート株式会社,,株式会社,奈良県,葛城市,林堂１６７番地４,,29,211,6392131,,,,,,,2024-09-02,1,,,,,エムズオート,0
984,5180001163030,新規,0,2024-09-02,2024-09-02,協栄ホールディングス株式会社,,株式会社,愛知県,名古屋市緑区,大清水５丁目１１０５番地の１,,23,114,4580805,,,,,,,2024-09-02,1,,,,,キョウエイホールディングス,0
994,5230001020507,新規,0,2024-09-02,2024-09-02,富山環境リサーチ株式会社,,株式会社,富山県,富山市,新根塚町２丁目１０番地１３,,16,201,9398205,,,,,,,2024-09-02,1,,,,,トヤマカンキョウリサーチ,0
999,5250003003557,新規,0,2024-09-02,2024-09-02,合同会社本田,,合同会社,山口県,防府市,大字西浦２３３５番地,,35,206,7470835,,,,,,,2024-09-02,1,,,,,ホンダ,0
1000,5250005008942,新規,0,2024-09-02,2024-09-02,医療法人晴誉会,,その他の設立登記法人,山口県,下関市,形山町一丁目２３番地１０,,35,201,7510888,,,,,,,2024-09-02,1,,,,,ハルヨシカイ,0
1004,5260003004876,新規,0,2024-09-02,2024-09-02,合同会社クオール,,合同会社,岡山県,岡山市東区,城東台西２丁目１４番１号,,33,103,7090624,,,,,,,2024-09-02,1,,,,,クオール,0
1010,5290001107075,新規,0,2024-09-02,2024-09-02,ＡＮＣＨＯＲ株式会社,,株式会社,福岡県,福岡市南区,長丘５丁目１９番１５長丘フラッツ３０５号,,40,134,8150075,,,,,,,2024-09-02,1,,,,,アンカー,0
1015,5350001019165,新規,0,2024-09-02,2024-09-02,株式会社ハピネスウェーブ,,株式会社,宮崎県,都城市,上水流町９６４番地６,,45,202,8851103,,,,,,,2024-09-02,1,,,,,ハピネスウェーブ,0
1023,5370001051686,新規,0,2024-09-02,2024-09-02,ＨＯＬＯＭＵＡ株式会社,,株式会社,宮城県,仙台市青葉区,五橋２丁目６番１２－２０４号,,04,101,9800022,,,,,,,2024-09-02,1,,,,,ホロムア,0
1060,6010005038748,新規,0,2024-09-02,2024-09-02,ＧＬ　ＪＲＥ　Ｅ特定目的会社,,その他の設立登記法人,東京都,千代田区,永田町２丁目１７番５号,,13,101,1000014,,,,,,,2024-09-02,1,,,,,ジーエルジェーアールイーイー,0
1063,6010401184781,新規,0,2024-09-02,2024-09-02,株式会社ＴＯＲＩＳＡＷＡインターナショナル,,株式会社,東京都,港区,赤坂９丁目７番１号ミッドタウン・タワー１８階,,13,103,1070052,,,,,,,2024-09-02,1,,,,,トリサワインターナショナル,0
1064,6010401184848,新規,0,2024-09-02,2024-09-02,株式会社おうち,,株式会社,東京都,港区,麻布十番１丁目１１番１３号５０１,,13,103,1060045,,,,,,,2024-09-02,1,,,,,オウチ,0
1073,6010603011057,新規,0,2024-09-02,2024-09-02,合同会社カカポ,,合同会社,東京都,江東区,北砂６丁目１２番６号,,13,108,1360073,,,,,,,2024-09-02,1,,,,,カカポ,0
1086,6011003019847,新規,0,2024-09-02,2024-09-02,青山中央合同会社,,合同会社,東京都,渋谷区,恵比寿１丁目１８－４ＮａｄｉｆｆＡｐａｒｔ２Ｆ・Ｐｅｏｐｌｅ,,13,113,1500013,,,,,,,2024-09-02,1,,,,,アオヤマチュウオウ,0
1088,6011101108618,新規,0,2024-09-02,2024-09-02,株式会社ノヴァリス,,株式会社,東京都,新宿区,戸塚町１丁目１０１－１７ワセダ相建ビル３０３,00136139,13,104,1690071,,,,,,,2024-09-02,1,,,,,ノヴァリス,0
1089,6011201025746,新規,0,2024-09-02,2024-09-02,Ｇ＆Ｄ株式会社,,株式会社,東京都,中野区,中野４丁目１０番２号中野セントラルパークサウス２階,,13,114,1640001,,,,,,,2024-09-02,1,,,,,ジーアンドディー,0
1090,6011205002618,新規,0,2024-09-02,2024-09-02,特定非営利活動法人動画の窓口クリエイティブスクール,,その他の設立登記法人,東京都,中野区,中野３丁目２７番地１９号アルカディア中野２０６,,13,114,1640001,,,,,,,2024-09-02,1,,,,,ドウガノマドグチクリエイティブスクール,0
1100,6011701027580,新規,0,2024-09-02,2024-09-02,アイラノン株式会社,,株式会社,東京都,江戸川区,篠崎町１丁目２０番４号,,13,123,1330061,,,,,,,2024-09-02,1,,,,,アイラノン,0
1101,6011701027589,新規,0,2024-09-02,2024-09-02,会源株式会社,,株式会社,東京都,江戸川区,瑞江１丁目１６－６－１Ｆ,,13,123,1320011,,,,,,,2024-09-02,1,,,,,カイゲン,0
1104,6011801044773,新規,0,2024-09-02,2024-09-02,仁溪株式会社,,株式会社,東京都,葛飾区,新宿５丁目２４番１３号,,13,122,1250051,,,,,,,2024-09-02,1,,,,,ジンケイ,0
1108,6012405005039,新規,0,2024-09-02,2024-09-02,医療法人社団ＢＯＢ,,その他の設立登記法人,東京都,小金井市,本町５丁目１２番１５号陽栄小金井ビル３階,,13,210,1840004,,,,,,,2024-09-02,1,,,,,ビーオービー,0
1116,6020001158722,新規,0,2024-09-02,2024-09-02,株式会社サークルプラス,,株式会社,神奈川県,横浜市港北区,新横浜３丁目２０番地８ベネックスＳ－３ビル６階,,14,109,2220033,,,,,,,2024-09-02,1,,,,,サークルプラス,0
1117,6020001158929,新規,0,2024-09-02,2024-09-02,新明管理株式会社,,株式会社,神奈川県,横浜市鶴見区,鶴見中央４丁目２２番１号,,14,101,2300051,,,,,,,2024-09-02,1,,,,,シンメイカンリ,0
1118,6020001159002,新規,0,2024-09-02,2024-09-02,株式会社ＭＡＸ,,株式会社,神奈川県,川崎市幸区,南加瀬４丁目１０番３１－５０５号室,,14,132,2120055,,,,,,,2024-09-02,1,,,,,マックス,0
1121,6021001083118,新規,0,2024-09-02,2024-09-02,諾天株式会社,,株式会社,神奈川県,秦野市,南矢名２２２３番地の４東海ビル１０１Ｂ,,14,211,2570003,,,,,,,2024-09-02,1,,,,,ダクテン,0
1122,6021001083126,新規,0,2024-09-02,2024-09-02,ＳＮ　ＴＲＡＤＩＮＧ株式会社,,株式会社,神奈川県,厚木市,下依知２丁目１８７番地１,,14,212,2430806,,,,,,,2024-09-02,1,,,,,エスエヌトレーディング,0
1123,6021001083134,新規,0,2024-09-02,2024-09-02,ナシデラ株式会社,,株式会社,神奈川県,厚木市,下古沢２４２番地３,,14,212,2430214,,,,,,,2024-09-02,1,,,,,ナシデラ,0
1129,6030003025036,新規,0,2024-09-02,2024-09-02,ＮＩＫＫＯ合同会社,,合同会社,埼玉県,さいたま市見沼区,東大宮４丁目２７番地１０,,11,104,3370051,,,,,,,2024-09-02,1,,,,,ニッコ,0
1142,6080101024983,新規,0,2024-09-02,2024-09-02,ＢｌｕｅＴｒｅｅ株式会社,,株式会社,静岡県,駿東郡長泉町,下土狩１１９４番地の７４,,22,342,4110943,,,,,,,2024-09-02,1,,,,,ブルーツリー,0
1144,6100001037810,新規,0,2024-09-02,2024-09-02,株式会社ＡＳＣ,,株式会社,長野県,松本市,大字笹賀４３２５－２アンソレイエＩＩ号棟,00136144,20,202,3990033,,,,,,,2024-09-02,1,,,,,エーエスシー,0
1155,6120001268180,新規,0,2024-09-02,2024-09-02,株式会社ホームラック,,株式会社,大阪府,大阪市東住吉区,公園南矢田４丁目３番７号,,27,121,5460024,,,,,,,2024-09-02,1,,,,,ホームラック,0
1156,6120001268206,新規,0,2024-09-02,2024-09-02,漢方和韻株式会社,,株式会社,大阪府,大阪市中央区,島之内１丁目２番１８号ビラアツミ３０１号室,,27,128,5420082,,,,,,,2024-09-02,1,,,,,カンポウワイン,0
1157,6120001268214,新規,0,2024-09-02,2024-09-02,莱隆株式会社,,株式会社,大阪府,大阪市旭区,清水４丁目５番１７号２０２室,,27,117,5350021,,,,,,,2024-09-02,1,,,,,ライリュウ,0
1161,6120003027436,新規,0,2024-09-02,2024-09-02,合同会社チェイスドリーム,,合同会社,大阪府,枚方市,伊加賀西町５５－７,,27,210,5730066,,,,,,,2024-09-02,1,,,,,チェイスドリーム,0
1162,6120003027444,新規,0,2024-09-02,2024-09-02,合同会社ニーヨ,,合同会社,大阪府,大阪市北区,梅田１丁目２番２号大阪駅前第２ビル１２－１２,,27,127,5300001,,,,,,,2024-09-02,1,,,,,ニーヨ,0
1165,6120101070222,新規,0,2024-09-02,2024-09-02,ＨＳエンジニアリング株式会社,,株式会社,大阪府,堺市堺区,旭ヶ丘北町４丁１番７号,,27,141,5900809,,,,,,,2024-09-02,1,,,,,エイチエスエンジニアリング,0
1171,6130001077837,新規,0,2024-09-02,2024-09-02,ビックバイ株式会社,,株式会社,京都府,乙訓郡大山崎町,字大山崎小字上ノ田３１,,26,303,6180071,,,,,,,2024-09-02,1,,,,,ビックバイ,0
1181,6150001027534,新規,0,2024-09-02,2024-09-02,株式会社ＤＥＮＴＡＬ　ＦＩＮＥＳＳＥ,,株式会社,奈良県,奈良市,あやめ池南２丁目２番９号,,29,201,6310033,,,,,,,2024-09-02,1,,,,,デンタルフィネス,0
1188,6180001163054,新規,0,2024-09-02,2024-09-02,株式会社星空教育,,株式会社,愛知県,名古屋市緑区,元徳重１丁目１００１番地プレイズ徳重３１５号,,23,114,4580852,,,,,,,2024-09-02,1,,,,,ホシゾラキョウイク,0
1189,6180001163062,新規,0,2024-09-02,2024-09-02,株式会社ＫＵＭＵＲＡ,,株式会社,愛知県,知多郡武豊町,字西門６７番地５６,,23,447,4702345,,,,,,,2024-09-02,1,,,,,クムラ,0
1190,6180001163070,新規,0,2024-09-02,2024-09-02,平和オートリビング株式会社,,株式会社,愛知県,名古屋市守山区,西新１番１号,,23,113,4630055,,,,,,,2024-09-02,1,,,,,ヘイワオートリビング,0
1192,6180301039012,新規,0,2024-09-02,2024-09-02,株式会社ウィステリアコンストラクション,,株式会社,愛知県,刈谷市,矢場町１丁目３１４番地,,23,210,4480035,,,,,,,2024-09-02,1,,,,,ウィステリアコンストラクション,0
1193,6190001031598,新規,0,2024-09-02,2024-09-02,株式会社フェリア,,株式会社,三重県,伊勢市,小俣町本町２９３番地,,24,203,5190505,,,,,,,2024-09-02,1,,,,,フェリア,0
1200,6210005010158,新規,0,2024-09-02,2024-09-02,一般社団法人ふくまちマネジメント,,その他の設立登記法人,福井県,福井市,中央１丁目３番５号,,18,201,9100006,,,,,,,2024-09-02,1,,,,,フクマチマネジメント,0
1202,6240003006832,新規,0,2024-09-02,2024-09-02,合同会社しあわせの家系図一燈庵,,合同会社,広島県,広島市佐伯区,屋代３丁目１８番３１－９号,,34,108,7315146,,,,,,,2024-09-02,1,,,,,シアワセノカケイズイットウアン,0
1203,6280001009247,新規,0,2024-09-02,2024-09-02,株式会社Ａｄｅｌｏ,,株式会社,島根県,浜田市,金城町波佐イ４０７―１,,32,202,6970211,,,,,,,2024-09-02,1,,,,,アデロ,0
1210,6290001107074,新規,0,2024-09-02,2024-09-02,株式会社藤成,,株式会社,福岡県,福岡市東区,松崎１丁目４２番５０号,,40,131,8130035,,,,,,,2024-09-02,1,,,,,フジナリ,0
1211,6290001107108,新規,0,2024-09-02,2024-09-02,株式会社Ｌｉｎｏ,,株式会社,福岡県,飯塚市,目尾５番地５,,40,205,8200062,,,,,,,2024-09-02,1,,,,,リノ,0
1214,6290801030839,新規,0,2024-09-02,2024-09-02,株式会社ＺＥＮ　ＡＲＴ,,株式会社,福岡県,北九州市小倉南区,上石田１丁目４番７号,,40,107,8020833,,,,,,,2024-09-02,1,,,,,ゼンアート,0
1215,6310003004853,新規,0,2024-09-02,2024-09-02,合同会社ヨケア,,合同会社,長崎県,長崎市,網場町４８７－１,,42,201,8510123,,,,,,,2024-09-02,1,,,,,ヨケア,0
1219,6340001026764,新規,0,2024-09-02,2024-09-02,株式会社Ｋ‐ＰＨＯＥＮＩＸ,,株式会社,鹿児島県,志布志市,志布志町帖６５１４番地,,46,221,8997102,,,,,,,2024-09-02,1,,,,,ケーフェニックス,0
1220,6350001019164,新規,0,2024-09-02,2024-09-02,オサムカンパニー株式会社,,株式会社,宮崎県,宮崎市,吉村町江田原甲２１７番地５,,45,201,8800841,,,,,,,2024-09-02,1,,,,,オサムカンパニー,0
1231,6420001018852,新規,0,2024-09-02,2024-09-02,オープンドアーズ株式会社,,株式会社,青森県,青森市,大字三内字沢部４４０番地７,,02,201,0380031,,,,,,,2024-09-02,1,,,,,オープンドアーズ,0
1232,6430001092574,新規,0,2024-09-02,2024-09-02,株式会社８Ｈｅａｌｉｎｇ,,株式会社,北海道,札幌市北区,北六条西６丁目２－３アストリアＮ６－６０２号室,,01,102,0600806,,,,,,,2024-09-02,1,,,,,エイトヒーリング,0
1234,6430002066965,新規,0,2024-09-02,2024-09-02,有限会社忠こだま商店,,有限会社,北海道,恵庭市,末広町１５３番地の２,,01,231,0611446,,,,,,,2024-09-02,1,,,,,チュウコダマショウテン,0
1250,7010001247938,新規,0,2024-09-02,2024-09-02,株式会社ＺＥＮ　ＰＬＡＣＥ　ＨＯＬＤＩＮＧＳ,,株式会社,東京都,千代田区,大手町１丁目６番１号,,13,101,1000004,,,,,,,2024-09-02,1,,,,,ゼンプレイスホールディングス,0
1251,7010001247946,新規,0,2024-09-02,2024-09-02,ＴＪ１株式会社,,株式会社,東京都,千代田区,霞が関３丁目２番５号,,13,101,1000013,,,,,,,2024-09-02,1,,,,,ティージェーワン,0
1257,7010003044739,新規,0,2024-09-02,2024-09-02,合同会社バッテリーパーク３,,合同会社,東京都,千代田区,大手町１丁目９番２号大手町フィナンシャルシティグランキューブ１８階１８１２号室,,13,101,1000004,,,,,,,2024-09-02,1,,,,,バッテリーパークスリー,0
1258,7010003044771,新規,0,2024-09-02,2024-09-02,合同会社ベース・マウンテン,,合同会社,東京都,文京区,関口１丁目１２－２クレイシアアイズ江戸川橋４０２,,13,105,1120014,,,,,,,2024-09-02,1,,,,,ベースマウンテン,0
1263,7010401184830,新規,0,2024-09-02,2024-09-02,株式会社大栄ベジフル,,株式会社,東京都,港区,新橋１丁目１６番９号,,13,103,1050004,,,,,,,2024-09-02,1,,,,,ダイエイベジフル,0
1264,7010401184855,新規,0,2024-09-02,2024-09-02,株式会社グリーン・コンサルティング,,株式会社,東京都,港区,芝５丁目２９番２０号クロスオフィス三田,,13,103,1080014,,,,,,,2024-09-02,1,,,,,グリーンコンサルティング,0
1269,7010403033333,新規,0,2024-09-02,2024-09-02,Ｍ＆Ｔテクノロジズ合同会社,,合同会社,東京都,港区,南青山３丁目１番３６号青山丸竹ビル６Ｆ,,13,103,1070062,,,,,,,2024-09-02,1,,,,,エムアンドティテクノロジズ,0
1275,7010603011056,新規,0,2024-09-02,2024-09-02,小丸子合同会社,,合同会社,東京都,江東区,亀戸３丁目２番１１ライオンズマンション亀戸第６ビル９階,,13,108,1360071,,,,,,,2024-09-02,1,,,,,ショウマルコ,0
1278,7010701046458,新規,0,2024-09-02,2024-09-02,株式会社ＬＡＶＩＥ　ＧＲＡＮＤ　ＤＥＳＩＧＮ,,株式会社,東京都,品川区,西五反田１丁目１７番７号第１９高橋ビル４階,,13,109,1410031,,,,,,,2024-09-02,1,,,,,ラヴィグランドデザイン,0
1283,7010903009329,新規,0,2024-09-02,2024-09-02,合同会社ＯＮＥ,,合同会社,東京都,世田谷区,代田１丁目３２番２号アルビソンハウス３０３,,13,112,1550033,,,,,,,2024-09-02,1,,,,,ワン,0
1295,7011101108617,新規,0,2024-09-02,2024-09-02,ＢｅｙｏｎｄＬｅａｐ株式会社,,株式会社,東京都,新宿区,新宿２丁目１２番１３号新宿アントレサロンビル２階,,13,104,1600022,,,,,,,2024-09-02,1,,,,,ビヨンドリープ,0
1296,7011101108625,新規,0,2024-09-02,2024-09-02,株式会社ＶＯＩＣＥ　ＩＮＮＯＶＡＴＩＯＮ,,株式会社,東京都,新宿区,西新宿３丁目３番１３号西新宿水間ビル２Ｆ,,13,104,1600023,,,,,,,2024-09-02,1,,,,,ヴォイスイノベーション,0
1302,7011701027588,新規,0,2024-09-02,2024-09-02,ＡＩｃｏｍｅ国際株式会社,,株式会社,東京都,江戸川区,瑞江２丁目５番３号２Ｆ－０７,,13,123,1320011,,,,,,,2024-09-02,1,,,,,アイコムコクサイ,0
1303,7011703003950,新規,0,2024-09-02,2024-09-02,オープンホライゾン合同会社,,合同会社,東京都,江戸川区,西葛西３丁目２２－２９グラード３０３号,,13,123,1340088,,,,,,,2024-09-02,1,,,,,オープンホライゾン,0
1306,7011801044756,新規,0,2024-09-02,2024-09-02,力克達株式会社,,株式会社,東京都,足立区,竹の塚２丁目２９番１３号,,13,121,1210813,,,,,,,2024-09-02,1,,,,,リコタ,0
1307,7011801044780,新規,0,2024-09-02,2024-09-02,株式会社ＴＳＵＢＡＫＩ,,株式会社,東京都,葛飾区,高砂６丁目１４番５号,,13,122,1250054,,,,,,,2024-09-02,1,,,,,ツバキ,0
1308,7011801044797,新規,0,2024-09-02,2024-09-02,Ｃ．ＬＩＦＥ株式会社,,株式会社,東京都,足立区,千住仲町１２－１１シティポート北千住１０１号,,13,121,1200036,,,,,,,2024-09-02,1,,,,,,0
1312,7012401042241,新規,0,2024-09-02,2024-09-02,Ｖｉｎｃｅｎｔ　Ｒｅｔａｉｌ株式会社,,株式会社,東京都,武蔵野市,中町１丁目２６番地５号,,13,203,1800006,,,,,,,2024-09-02,1,,,,,ビンセントリセール,0
1319,7020001158820,新規,0,2024-09-02,2024-09-02,株式会社ＹＯＲＯＺＵＹＡ,,株式会社,神奈川県,横浜市磯子区,中原３丁目９－１５ｃａｆｅ・ｄｅ・ｙｏｒｏｚｕｙａ,,14,107,2350036,,,,,,,2024-09-02,1,,,,,ヨロズヤ,0
1320,7020001158952,新規,0,2024-09-02,2024-09-02,株式会社移住計画,,株式会社,神奈川県,横浜市西区,北幸２丁目１０番４８号むつみビル３階,,14,103,2200004,,,,,,,2024-09-02,1,,,,,イジュウケイカク,0
1321,7020001158977,新規,0,2024-09-02,2024-09-02,内海建設株式会社,,株式会社,神奈川県,横浜市港南区,日限山１丁目６０番１５－９号,,14,111,2330015,,,,,,,2024-09-02,1,,,,,ウツミケンセツ,0
1322,7020001159018,新規,0,2024-09-02,2024-09-02,株式会社中山園,,株式会社,神奈川県,横浜市都筑区,池辺町２０８８番地,,14,118,2240053,,,,,,,2024-09-02,1,,,,,ナカヤマエン,0
1325,7020003026728,新規,0,2024-09-02,2024-09-02,Ｖ．Ｅ．Ｃ合同会社,,合同会社,神奈川県,横浜市西区,楠町１３番地１０アーバンフォート横浜５０１号,,14,103,2200003,,,,,,,2024-09-02,1,,,,,ブイイーシー,0
1330,7021001083117,新規,0,2024-09-02,2024-09-02,凡漾株式会社,,株式会社,神奈川県,秦野市,南矢名２２２３番地の４東海ビル１０３Ａ,,14,211,2570003,,,,,,,2024-09-02,1,,,,,ハンヨウ,0
1331,7021001083133,新規,0,2024-09-02,2024-09-02,株式会社金一建設,,株式会社,神奈川県,平塚市,明石町１２番２１号Ｓｉｍｓビル４Ａ,,14,203,2540042,,,,,,,2024-09-02,1,,,,,カネイチケンセツ,0
1338,7030001162219,新規,0,2024-09-02,2024-09-02,ブライトブリッジ株式会社,,株式会社,埼玉県,川口市,芝新町４－８ＵＲＢＡＮＦＯＲＵＭ蕨６階７号,,11,203,3330851,,,,,,,2024-09-02,1,,,,,ブライトブリッジ,0
1339,7030001162235,新規,0,2024-09-02,2024-09-02,株式会社ＭＲＡ,,株式会社,埼玉県,さいたま市岩槻区,大字笹久保８１７番地５,,11,110,3390034,,,,,,,2024-09-02,1,,,,,エムアールエー,0
1340,7030001162243,新規,0,2024-09-02,2024-09-02,Ｖｉｓｉｏｎａｒｙ　Ａｒｃｈｉｔｅｃｔｓ株式会社,,株式会社,埼玉県,さいたま市大宮区,桜木町１丁目７番地５,,11,103,3300854,,,,,,,2024-09-02,1,,,,,ヴイジヨナリーアーキテクツ,0
1341,7030001162251,新規,0,2024-09-02,2024-09-02,株式会社Ｆｕｎ　Ｃｏｎｓｕｌｔｉｎｇ,,株式会社,埼玉県,さいたま市見沼区,大字染谷１４４４－７,,11,104,3370026,,,,,,,2024-09-02,1,,,,,ファンコンサルティング,0
1343,7030003025035,新規,0,2024-09-02,2024-09-02,日本のミカタ合同会社,,合同会社,埼玉県,さいたま市中央区,下落合６丁目１２番２０号,,11,105,3380002,,,,,,,2024-09-02,1,,,,,ニッポンノミカタ,0
1352,7060003005174,新規,0,2024-09-02,2024-09-02,ＦｉｒｓｔＬｉｆｅ合同会社,,合同会社,栃木県,佐野市,堀米町６３３－２,,09,204,3270843,,,,,,,2024-09-02,1,,,,,ファーストライフ,0
1355,7080401027405,新規,0,2024-09-02,2024-09-02,株式会社ドッグランド,,株式会社,静岡県,菊川市,河東１２０７番地の６,,22,224,4371506,,,,,,,2024-09-02,1,,,,,ドッグランド,0
1359,7110001038674,新規,0,2024-09-02,2024-09-02,東陽株式会社,,株式会社,新潟県,柏崎市,大字新道１１９８,,15,205,9451122,,,,,,,2024-09-02,1,,,,,トウヨウ,0
1363,7120001268163,新規,0,2024-09-02,2024-09-02,株式会社ハイグッド,,株式会社,大阪府,大阪市中央区,南船場３丁目２番２２－２０５号,,27,128,5420081,,,,,,,2024-09-02,1,,,,,ハイグッド,0
1364,7120001268171,新規,0,2024-09-02,2024-09-02,株式会社カーラカインド,,株式会社,大阪府,大阪市中央区,日本橋１丁目１７番１７号ピカソ日本一ビル６０４号室,,27,128,5420073,,,,,,,2024-09-02,1,,,,,カーラカインド,0
1365,7120001268188,新規,0,2024-09-02,2024-09-02,大河商事株式会社,,株式会社,大阪府,大阪市西成区,北津守４丁目５－４８,,27,122,5570061,,,,,,,2024-09-02,1,,,,,タイガショウジ,0
1366,7120001268213,新規,0,2024-09-02,2024-09-02,株式会社シンオン,,株式会社,大阪府,大阪市北区,堂山町６番９号,,27,127,5300027,,,,,,,2024-09-02,1,,,,,シンオン,0
1367,7120001268221,新規,0,2024-09-02,2024-09-02,株式会社ＶＩＡ,,株式会社,大阪府,大阪市阿倍野区,西田辺町１丁目４番２１号ＦｕＭｏＳｅ西田辺５０２号,,27,119,5450014,,,,,,,2024-09-02,1,,,,,ビア,0
1378,7130001077844,新規,0,2024-09-02,2024-09-02,株式会社Ｍｉｎａｍｏ,,株式会社,京都府,京都市中京区,壬生朱雀町３７－１クレヴィア京都二条２０２,,26,104,6048871,,,,,,,2024-09-02,1,,,,,ミナモ,0
1384,7150001027525,新規,0,2024-09-02,2024-09-02,かつらぎホールディングス株式会社,,株式会社,奈良県,磯城郡田原本町,大字西竹田１４番地１,,29,363,6360306,,,,,,,2024-09-02,1,,,,,カツラギホールディングス,0
1391,7180001163094,新規,0,2024-09-02,2024-09-02,株式会社冨岡企画,,株式会社,愛知県,名古屋市守山区,大森２丁目２５０５番地の１,,23,113,4630021,,,,,,,2024-09-02,1,,,,,トミオカキカク,0
1393,7180003027297,新規,0,2024-09-02,2024-09-02,合同会社ｓｅａｔｒｅｅ,,合同会社,愛知県,豊明市,三崎町三崎８番地１１,,23,229,4701124,,,,,,,2024-09-02,1,,,,,シーツリー,0
1395,7180303006249,新規,0,2024-09-02,2024-09-02,合同会社あわわい,,合同会社,愛知県,岡崎市,滝町字入山４３番地２０,,23,202,4443173,,,,,,,2024-09-02,1,,,,,アワワイ,0
1399,7220003003830,新規,0,2024-09-02,2024-09-02,エステック能登復興１号合同会社,,合同会社,石川県,金沢市,新神田５丁目５番地,,17,201,9218013,,,,,,,2024-09-02,1,,,,,エステックノトフッコウイチゴウ,0
1400,7230001020496,新規,0,2024-09-02,2024-09-02,株式会社ＫＵＲＯＭＯＪＩ　ＰＲＯＤＵＣＴＩＯＮＳ,,株式会社,富山県,富山市,愛宕町１丁目２番１１‐２０１号第２グレースビル,,16,201,9300091,,,,,,,2024-09-02,1,,,,,クロモジプロダクションズ,0
1419,7290003015761,新規,0,2024-09-02,2024-09-02,３９りんくらんど合同会社,,合同会社,福岡県,福岡市城南区,別府６丁目１０番５号,,40,136,8140104,,,,,,,2024-09-02,1,,,,,サンキューリンクランド,0
1423,7330005010822,新規,0,2024-09-02,2024-09-02,一般社団法人ふるさと元気村,,その他の設立登記法人,熊本県,熊本市東区,戸島町１１７７番地３,,43,102,8618031,,,,,,,2024-09-02,1,,,,,フルサトゲンキムラ,0
1424,7340003004593,新規,0,2024-09-02,2024-09-02,合同会社栄工業,,合同会社,鹿児島県,霧島市,霧島永水５１１４番地２６,,46,218,8994202,,,,,,,2024-09-02,1,,,,,サカエコウギョウ,0
1426,7350001019163,新規,0,2024-09-02,2024-09-02,株式会社九州ベース,,株式会社,宮崎県,宮崎市,和知川原１丁目２４番地２,,45,201,8800023,,,,,,,2024-09-02,1,,,,,キュウシュウベース,0
1429,7370005010835,新規,0,2024-09-02,2024-09-02,税理士法人結,,その他の設立登記法人,宮城県,仙台市青葉区,二日町１６番１号４－Ｂ,,04,101,9800802,,,,,,,2024-09-02,1,,,,,ユイ,0
1433,7430001092573,新規,0,2024-09-02,2024-09-02,株式会社エネケン,,株式会社,北海道,美唄市,西一条南２丁目１番７,,01,215,0720024,,,,,,,2024-09-02,1,,,,,エネケン,0
1434,7430003016720,新規,0,2024-09-02,2024-09-02,合同会社ＡＬＩＣＥ,,合同会社,北海道,札幌市中央区,北九条西２３丁目２番８－２０１号,,01,101,0600009,,,,,,,2024-09-02,1,,,,,アリス,0
1435,7430003016729,新規,0,2024-09-02,2024-09-02,合同会社ＬａＦｒａｎｃｅ,,合同会社,北海道,札幌市中央区,南十八条西１４丁目１－２３－１０２,,01,101,0640918,,,,,,,2024-09-02,1,,,,,ラフランス,0
1458,8010003044738,新規,0,2024-09-02,2024-09-02,合同会社バッテリーランド１,,合同会社,東京都,千代田区,大手町１丁目９番２号大手町フィナンシャルシティグランキューブ１８階１８１２号室,,13,101,1000004,,,,,,,2024-09-02,1,,,,,バッテリーランドワン,0
1459,8010003044754,新規,0,2024-09-02,2024-09-02,合同会社デデデザイン,,合同会社,東京都,千代田区,神田須田町１丁目７番８号ＶＯＲＴ秋葉原ＩＶ２Ｆ,00136142,13,101,1010041,,,,,,,2024-09-02,1,,,,,デデデザイン,0
1465,8010401184838,新規,0,2024-09-02,2024-09-02,火商株式会社,,株式会社,東京都,港区,新橋５丁目３１番８－１００１号,,13,103,1050004,,,,,,,2024-09-02,1,,,,,カショウ,0
1466,8010401184854,新規,0,2024-09-02,2024-09-02,ＧＴＲｉｄｅ　Ｔｏｋｙｏ株式会社,,株式会社,東京都,港区,港南１丁目８番１５号,,13,103,1080075,,,,,,,2024-09-02,1,,,,,ジーティーライドトウキョウ,0
1467,8010401184870,新規,0,2024-09-02,2024-09-02,株式会社ＩＳＯＶ　ＪＡＰＡＮ,,株式会社,東京都,港区,六本木３丁目３番２７号,,13,103,1060032,,,,,,,2024-09-02,1,,,,,アイソブジャパン,0
1470,8010403033340,新規,0,2024-09-02,2024-09-02,アクアグレイ合同会社,,合同会社,東京都,港区,南青山２丁目２番１５号ウィン青山１１１３号,,13,103,1070062,,,,,,,2024-09-02,1,,,,,アクアグレイ,0
1477,8010901055902,新規,0,2024-09-02,2024-09-02,翔成株式会社,,株式会社,東京都,世田谷区,三軒茶屋２丁目３９番１８号,,13,112,1540024,,,,,,,2024-09-02,1,,,,,ショウセイ,0
1480,8011001164057,新規,0,2024-09-02,2024-09-02,株式会社タニノクチ,,株式会社,東京都,目黒区,青葉台４丁目４番５－９０２号コンフォリア渋谷ＷＥＳＴ,,13,110,1530042,,,,,,,2024-09-02,1,,,,,タニノクチ,0
1481,8011005010645,新規,0,2024-09-02,2024-09-02,渋谷コープ管理組合法人,,その他の設立登記法人,東京都,渋谷区,桜丘町１４番１０,,13,113,1500031,,,,,,,2024-09-02,1,,,,,シブヤコープ,0
1484,8011101108599,新規,0,2024-09-02,2024-09-02,株式会社ヒルウラ,,株式会社,東京都,新宿区,西早稲田２丁目５番１３号ＨＪＰＬＡＣＥＮＩＳＨＩＷＡＳＥＤＡ２０１,,13,104,1690051,,,,,,,2024-09-02,1,,,,,ヒルウラ,0
1488,8011103014853,新規,0,2024-09-02,2024-09-02,合同会社ＫＭＧ,,合同会社,東京都,新宿区,西新宿３丁目９番７－１２０７号,,13,104,1600023,,,,,,,2024-09-02,1,,,,,ケイエムジー,0
1492,8011401026393,新規,0,2024-09-02,2024-09-02,株式会社ＡＷＡＫＥ,,株式会社,東京都,板橋区,徳丸７丁目２７番１１－５０２号,,13,119,1750083,,,,,,,2024-09-02,1,,,,,アウェイク,0
1493,8011501031104,新規,0,2024-09-02,2024-09-02,デュコロボットジャパン株式会社,,株式会社,東京都,北区,滝野川１丁目６８番７号早稲田ビル３階,,13,117,1140023,,,,,,,2024-09-02,1,,,,,デュコロボットジャパン,0
1497,8011601028025,新規,0,2024-09-02,2024-09-02,株式会社Ｖｏｄｃａ,,株式会社,東京都,練馬区,下石神井４丁目１９番１５号,,13,120,1770042,,,,,,,2024-09-02,1,,,,,ボッカ,0
1498,8011603004445,新規,0,2024-09-02,2024-09-02,ＡＭＡ合同会社,,合同会社,東京都,練馬区,大泉学園町５丁目２８－１２フローラ大泉１６号室,,13,120,1780061,,,,,,,2024-09-02,1,,,,,アマ,0
1500,8011703003933,新規,0,2024-09-02,2024-09-02,星際商事合同会社,,合同会社,東京都,江戸川区,平井４丁目２３番４号,,13,123,1320035,,,,,,,2024-09-02,1,,,,,セイサイショウジ,0
1506,8013303007281,新規,0,2024-09-02,2024-09-02,合同会社ルウリエ,,合同会社,東京都,豊島区,南池袋３丁目１８番３４－７０２号,,13,116,1710022,,,,,,,2024-09-02,1,,,,,ルウリエ,0
1524,8020001158935,新規,0,2024-09-02,2024-09-02,アンビエント株式会社,,株式会社,神奈川県,横浜市神奈川区,片倉５丁目１９番３２号,,14,102,2210865,,,,,,,2024-09-02,1,,,,,アンビエント,0
1525,8020001158951,新規,0,2024-09-02,2024-09-02,ＷＡＮＳ株式会社,,株式会社,神奈川県,横浜市栄区,飯島町１３４７番地２,,14,115,2440842,,,,,,,2024-09-02,1,,,,,ワンズ,0
1526,8020001158984,新規,0,2024-09-02,2024-09-02,株式会社ロジプライム,,株式会社,神奈川県,川崎市川崎区,江川１丁目１２番４－６１２号,,14,131,2100823,,,,,,,2024-09-02,1,,,,,ロジプライム,0
1528,8020003026834,新規,0,2024-09-02,2024-09-02,合同会社一康晶,,合同会社,神奈川県,川崎市麻生区,上麻生７丁目１７番５号,,14,137,2150021,,,,,,,2024-09-02,1,,,,,イチコウショウ,0
1530,8021001083074,新規,0,2024-09-02,2024-09-02,株式会社ホテルと宿のコンサル,,株式会社,神奈川県,足柄下郡箱根町,仙石原１０９５番地１５,,14,382,2500631,,,,,,,2024-09-02,1,,,,,ホテルトヤドノコンサル,0
1537,8030003025034,新規,0,2024-09-02,2024-09-02,ＫＩＮＧ　ＧＲＯＵＰ合同会社,,合同会社,埼玉県,さいたま市見沼区,東大宮４丁目１５番９号１Ｆ,,11,104,3370051,,,,,,,2024-09-02,1,,,,,キンググループ,0
1546,8040005022482,新規,0,2024-09-02,2024-09-02,特定非営利活動法人富里ふくろうプレーパーク,,その他の設立登記法人,千葉県,富里市,高野３５１番地１,,12,233,2860216,,,,,,,2024-09-02,1,,,,,トミサトフクロウプレーパーク,0
1548,8050003008648,新規,0,2024-09-02,2024-09-02,合同会社ＨＡＬ,,合同会社,茨城県,つくば市,千現１丁目２０番地１９,,08,220,3050047,,,,,,,2024-09-02,1,,,,,ハル,0
1549,8080001026475,新規,0,2024-09-02,2024-09-02,株式会社橋谷田,,株式会社,静岡県,焼津市,本町３丁目９‐１３,,22,212,4250022,,,,,,,2024-09-02,1,,,,,,0
1559,8120001268179,新規,0,2024-09-02,2024-09-02,ＡｓｉａＰｒｏ　Ｅｘｐｏ株式会社,,株式会社,大阪府,大阪市西成区,花園北１丁目７番４号ナニワＩＩＩ番館３０４,00136136,27,122,5570016,,,,,,,2024-09-02,1,,,,,アジアプロエキスポ,0
1560,8120001268212,新規,0,2024-09-02,2024-09-02,ＫＡフーズ株式会社,,株式会社,大阪府,大阪市中央区,森ノ宮中央１丁目１６番２３号,,27,128,5400003,,,,,,,2024-09-02,1,,,,,ケーエーフーズ,0
1561,8120001268220,新規,0,2024-09-02,2024-09-02,大豊運輸株式会社,,株式会社,大阪府,大阪市生野区,巽中１丁目８番１３号野本マンション１０２,,27,116,5440013,,,,,,,2024-09-02,1,,,,,タイホウウンユ,0
1563,8120003027376,新規,0,2024-09-02,2024-09-02,合同会社ＢＩＴ　ＺＩＴ,,合同会社,大阪府,大阪市中央区,谷町６丁目４番３８号大宝谷六ロイヤルハイツ２０５,,27,128,5420012,,,,,,,2024-09-02,1,,,,,ビットジット,0
1564,8120003027426,新規,0,2024-09-02,2024-09-02,合同会社おしんランカＴｒａｄｉｎｇ,,合同会社,大阪府,大阪市生野区,小路３丁目５番１６－１０５号,,27,116,5440002,,,,,,,2024-09-02,1,,,,,オシンランカトレーディング,0
1565,8120003027442,新規,0,2024-09-02,2024-09-02,合同会社ＬＩＮＸ　ＩＮＮＯＶＡＴＩＯＮ,,合同会社,大阪府,大阪市中央区,高麗橋２丁目３番２号,,27,128,5410043,,,,,,,2024-09-02,1,,,,,リンクスイノベーション,0
1567,8120901049694,新規,0,2024-09-02,2024-09-02,株式会社ブルーム,,株式会社,大阪府,豊中市,桜の町６丁目８番２０－９０１号,,27,203,5600054,,,,,,,2024-09-02,1,,,,,ブルーム,0
1568,8120901049703,新規,0,2024-09-02,2024-09-02,株式会社エンズテックホーム,,株式会社,大阪府,茨木市,天王２丁目８番２１号天王ビル５０２,,27,211,5670876,,,,,,,2024-09-02,1,,,,,エンズテックホーム,0
1569,8120901049711,新規,0,2024-09-02,2024-09-02,株式会社とよなか流,,株式会社,大阪府,豊中市,本町３丁目７番７５号,,27,203,5600021,,,,,,,2024-09-02,1,,,,,トヨナカリュウ,0
1576,8140001135666,新規,0,2024-09-02,2024-09-02,株式会社信頼,,株式会社,兵庫県,南あわじ市,中条中筋７８１番地,,28,224,6560143,,,,,,,2024-09-02,1,,,,,シンライ,0
1587,8180001163077,新規,0,2024-09-02,2024-09-02,株式会社Ｒｅ,,株式会社,愛知県,小牧市,元町３丁目５２番地,,23,219,4850072,,,,,,,2024-09-02,1,,,,,リ,0
1588,8180001163085,新規,0,2024-09-02,2024-09-02,株式会社リンケージ,,株式会社,愛知県,名古屋市西区,南川町１５２番地エルフィー南川Ｂ号,,23,104,4520814,,,,,,,2024-09-02,1,,,,,リンケージ,0
1593,8180003027288,新規,0,2024-09-02,2024-09-02,片色合同会社,,合同会社,愛知県,知多市,岡田字下中田５番地の１（レインボー第２知多長浦６０８）,,23,224,4780021,,,,,,,2024-09-02,1,,,,,カタイロ,0
1595,8180301039010,新規,0,2024-09-02,2024-09-02,株式会社アリス,,株式会社,愛知県,豊田市,清水町５丁目４８番地１,,23,211,4710843,,,,,,,2024-09-02,1,,,,,アリス,0
1600,8180303006248,新規,0,2024-09-02,2024-09-02,ＮＩＨＯＮ　ＴＥＣＨＮＯＬＯＧＹ合同会社,,合同会社,愛知県,碧南市,松江町５丁目５番地松江町社宅１０２号室,,23,209,4470868,,,,,,,2024-09-02,1,,,,,ニホンテクノロジー,0
1605,8200003006479,新規,0,2024-09-02,2024-09-02,合同会社ＭＡＮＡＢＵ,,合同会社,岐阜県,関市,神野１８４０番地,,21,205,5013203,,,,,,,2024-09-02,1,,,,,マナブ,0
1609,8230003002285,新規,0,2024-09-02,2024-09-02,合同会社ｐａｒｋＬａｂ　Ｉｎｃ．,,合同会社,富山県,富山市,丸の内３丁目２番６号,,16,201,9300085,,,,,,,2024-09-02,1,,,,,パークラブインク,0
1618,8290001107106,新規,0,2024-09-02,2024-09-02,株式会社ヴィバン,,株式会社,福岡県,福岡市博多区,博多駅前２丁目１番１号福岡朝日ビル１Ｆ・２Ｆ,,40,132,8120011,,,,,,,2024-09-02,1,,,,,ヴィバン,0
1625,8290003015769,新規,0,2024-09-02,2024-09-02,合同会社ｓｏｉ　ｐｌｕｓ,,合同会社,福岡県,糟屋郡篠栗町,大字津波黒７３番地６,,40,342,8112415,,,,,,,2024-09-02,1,,,,,ソアプラス,0
1629,8340003004592,新規,0,2024-09-02,2024-09-02,合同会社Ｎｅｘｔ　Ｃｈａｎｃｅ,,合同会社,鹿児島県,薩摩川内市,都町７２７６－１,,46,215,8950043,,,,,,,2024-09-02,1,,,,,ネクストチャンス,0
1632,8370003006735,新規,0,2024-09-02,2024-09-02,合同会社ＬＡＮＳＥＳＴ,,合同会社,宮城県,仙台市青葉区,川平１丁目８番２号－２０６号室,,04,101,9810954,,,,,,,2024-09-02,1,,,,,ランセスト,0
1644,8500001025814,新規,0,2024-09-02,2024-09-02,さんけい商事株式会社,,株式会社,愛媛県,松山市,石手４丁目３番３２号,,38,201,7900852,,,,,,,2024-09-02,1,,,,,サンケイショウジ,0
1645,8500001025855,新規,0,2024-09-02,2024-09-02,株式会社キエラジ,,株式会社,愛媛県,松山市,平和通１丁目５番地３５,,38,201,7900807,,,,,,,2024-09-02,1,,,,,キエラジ,0
1647,8700150126946,新規,0,2024-09-02,2024-09-02,ＡＰＰＣＨＡＲＧＥ，ＩＮＣ．,,外国会社等,,,,,,,,４０１　Ｅａｓｔ　Ｌａｓ　Ｏｌａｓ　Ｂｏｕｌｅｖａｒｄ，Ｓｕｉｔｅ　１４００，Ｆｏｒｔ　Ｌａｕｄｅｒｄａｌｅ，ＦＬ，３３３０１，ＵＳＡ,,,,,,2024-09-02,1,,,,,アップチャージインク,0
1653,9010001247580,新規,0,2024-09-02,2024-09-02,株式会社Ｂ４Ｂ,,株式会社,東京都,千代田区,有楽町１丁目５－２東宝日比谷プロムナードビル１１階,,13,101,1000006,,,,,,,2024-09-02,1,,,,,ビーフォービー,0
1654,9010001247820,新規,0,2024-09-02,2024-09-02,アヤカシコネ株式会社,,株式会社,東京都,中央区,銀座３丁目１２番１７号久富ビル２階,,13,102,1040061,,,,,,,2024-09-02,1,,,,,アヤカシコネ,0
1655,9010001247944,新規,0,2024-09-02,2024-09-02,株式会社ＢＰ,,株式会社,東京都,中央区,銀座１丁目１２番４号Ｎ＆ＥＢＬＤ．６Ｆ,,13,102,1040061,,,,,,,2024-09-02,1,,,,,ビーピー,0
1660,9010003044737,新規,0,2024-09-02,2024-09-02,合同会社パワープラスワン,,合同会社,東京都,千代田区,大手町１丁目９番２号大手町フィナンシャルシティグランキューブ１８階１８１２号室,,13,101,1000004,,,,,,,2024-09-02,1,,,,,パワープラスワン,0
1661,9010003044761,新規,0,2024-09-02,2024-09-02,合同会社Ｐｅｒｓｉｍｍｏｎ　ＩＴ　Ｓｅｒｖｉｃｅｓ,,合同会社,東京都,中央区,日本橋室町１丁目１１番１２号日本橋水野ビル７階,,13,102,1030022,,,,,,,2024-09-02,1,,,,,パーシモンアイティーサービス,0
1662,9010003044778,新規,0,2024-09-02,2024-09-02,合同会社エクラ,,合同会社,東京都,中央区,日本橋馬喰町２丁目２番１５号,,13,102,1030002,,,,,,,2024-09-02,1,,,,,エクラ,0
1666,9010105002295,新規,0,2024-09-02,2024-09-02,一般社団法人やどかり,,その他の設立登記法人,東京都,八王子市,高尾町１６４８番地１０,,13,201,1930844,,,,,,,2024-09-02,1,,,,,ヤドカリ,0
1681,9010701046480,新規,0,2024-09-02,2024-09-02,株式会社Ｌａ　ｖｉｅ　ｅｓｔ　ｂｅｌｌｅ,,株式会社,東京都,品川区,勝島１丁目５－２１,,13,109,1400012,,,,,,,2024-09-02,1,,,,,ラヴィエベル,0
1684,9010901055901,新規,0,2024-09-02,2024-09-02,株式会社ＳＵＮ,,株式会社,東京都,世田谷区,用賀２丁目３２番１２号,,13,112,1580097,,,,,,,2024-09-02,1,,,,,サン,0
1686,9010905004664,新規,0,2024-09-02,2024-09-02,医療法人社団進誠会,,その他の設立登記法人,東京都,世田谷区,豪徳寺２丁目３１番８号ハイム和泉１０２号室,,13,112,1540021,,,,,,,2024-09-02,1,,,,,シンセイカイ,0
1690,9011005010644,新規,0,2024-09-02,2024-09-02,一般社団法人Ａｃｔｉｎｇ＆Ｖｏｉｃｅコーチ協会,,その他の設立登記法人,東京都,渋谷区,東１丁目２６－３２,,13,113,1500011,,,,,,,2024-09-02,1,,,,,アクティングアンドヴォイスコーチキョウカイ,0
1693,9011101108623,新規,0,2024-09-02,2024-09-02,星耀株式会社,,株式会社,東京都,新宿区,百人町２丁目２６－７－４０１,,13,104,1690073,,,,,,,2024-09-02,1,,,,,セイヨウ,0
1696,9011401026384,新規,0,2024-09-02,2024-09-02,株式会社ＢＲＩＧＨＴＮＥＳＳ　ＤＥＳＩＧＮ,,株式会社,東京都,板橋区,赤塚７丁目８番２６号,,13,119,1750092,,,,,,,2024-09-02,1,,,,,ブライトネスデザイン,0
1697,9011401026392,新規,0,2024-09-02,2024-09-02,株式会社宜江,,株式会社,東京都,板橋区,大山東町３２番１８号ルイ・ステージ大山６０１,,13,119,1730014,,,,,,,2024-09-02,1,,,,,ヨウコウ,0
1701,9011701027495,新規,0,2024-09-02,2024-09-02,株式会社美虎,,株式会社,東京都,江戸川区,南葛西６丁目１０－３,,13,123,1340085,,,,,,,2024-09-02,1,,,,,ミトラ,0
1703,9011703003957,新規,0,2024-09-02,2024-09-02,亮亮合同会社,,合同会社,東京都,江戸川区,松江２丁目１番１３－３０７,,13,123,1320025,,,,,,,2024-09-02,1,,,,,リョウリョウ,0
1706,9011801044787,新規,0,2024-09-02,2024-09-02,株式会社Ｍ．Ｙ．Ｃ,,株式会社,東京都,足立区,千住緑町２丁目２４番１５号,,13,121,1200044,,,,,,,2024-09-02,1,,,,,エムワイシー,0
1717,9020001158983,新規,0,2024-09-02,2024-09-02,株式会社Ｍｅｉｎ,,株式会社,神奈川県,横浜市都筑区,高山１０番１１号モンテアルタ１０１,,14,118,2240065,,,,,,,2024-09-02,1,,,,,メイン,0
1719,9020003026791,新規,0,2024-09-02,2024-09-02,アルゴマーケティング研究所合同会社,,合同会社,神奈川県,横浜市中区,本牧和田１番１－５０１号,,14,104,2310827,,,,,,,2024-09-02,1,,,,,アルゴマーケティングケンキュウショ,0
1720,9020003026817,新規,0,2024-09-02,2024-09-02,合同会社Ｌｏｏｋｉｎｇ　ｆｏｒ,,合同会社,神奈川県,横浜市港北区,大曽根台２４番２号,,14,109,2220004,,,,,,,2024-09-02,1,,,,,ルッキングフォー,0
1721,9020003026825,新規,0,2024-09-02,2024-09-02,合同会社ＵＳＴＧ,,合同会社,神奈川県,川崎市麻生区,下麻生２丁目２６番７号,,14,137,2150022,,,,,,,2024-09-02,1,,,,,アステージ,0
1722,9020003026833,新規,0,2024-09-02,2024-09-02,合同会社ＲｉｓｅＷａｖｅ啓,,合同会社,神奈川県,横浜市南区,吉野町１丁目１番地６－２０３,,14,105,2320014,,,,,,,2024-09-02,1,,,,,ライズウェイブケイ,0
1753,9050003008630,新規,0,2024-09-02,2024-09-02,ＩＳＨＡ　ＥＮＴＥＲＰＲＩＳＥ合同会社,,合同会社,茨城県,下妻市,小島９７８番地３－５,,08,210,3040051,,,,,,,2024-09-02,1,,,,,イシャエンタープライズ,0
1754,9060001037449,新規,0,2024-09-02,2024-09-02,株式会社ありあ,,株式会社,栃木県,大田原市,美原１丁目１６－３８,,09,210,3240047,,,,,,,2024-09-02,1,,,,,アリア,0
1759,9080001026474,新規,0,2024-09-02,2024-09-02,株式会社金魚,,株式会社,静岡県,焼津市,本町３丁目９‐１３,,22,212,4250022,,,,,,,2024-09-02,1,,,,,キンギョ,0
1761,9080401027403,新規,0,2024-09-02,2024-09-02,株式会社Ｒ＆Ａ,,株式会社,静岡県,袋井市,湊３７１８番地の３,,22,216,4371115,,,,,,,2024-09-02,1,,,,,アールアンドエー,0
1766,9100001037808,新規,0,2024-09-02,2024-09-02,株式会社＿圓商事,00136145,株式会社,長野県,須坂市,大字沼目町２５０番地２,,20,207,3820000,,,,,,,2024-09-02,1,,,,,シンエンショウジ,0
1768,9100003007750,新規,0,2024-09-02,2024-09-02,合同会社ＳＲＡＭ,,合同会社,長野県,長野市,小島田町５５５番地１４,,20,201,3812212,,,,,,,2024-09-02,1,,,,,エスラム,0
1786,9120001268203,新規,0,2024-09-02,2024-09-02,株式会社徳次郎,,株式会社,大阪府,大阪市西区,江戸堀１丁目４番２１－４０６号,,27,106,5500002,,,,,,,2024-09-02,1,,,,,トクジロウ,0
1793,9120003027417,新規,0,2024-09-02,2024-09-02,ａｍｏｕｒ合同会社,,合同会社,大阪府,大阪市福島区,福島１丁目１－４８,,27,103,5530003,,,,,,,2024-09-02,1,,,,,アムール,0
1794,9120003027441,新規,0,2024-09-02,2024-09-02,合同会社プルトラ,,合同会社,大阪府,大阪市西区,新町２丁目１９番９－７０３号,,27,106,5500013,,,,,,,2024-09-02,1,,,,,プルトラ,0
1809,9130001077834,新規,0,2024-09-02,2024-09-02,西城株式会社,,株式会社,京都府,京都市左京区,田中樋ノ口町５番地３０２,,26,103,6068222,,,,,,,2024-09-02,1,,,,,セイジョウ,0
1812,9140001135673,新規,0,2024-09-02,2024-09-02,株式会社ハーバーグルメ,,株式会社,兵庫県,神戸市中央区,旭通５丁目３番４号,,28,110,6510095,,,,,,,2024-09-02,1,,,,,ハーバーグルメ,0
1817,9170001018289,新規,0,2024-09-02,2024-09-02,ＫＩＭＩＮＯ　ＳＴＵＤＩＥＳ株式会社,,株式会社,和歌山県,海草郡紀美野町,毛原宮５３０番地,,30,304,6401473,,,,,,,2024-09-02,1,,,,,キミノスタディーズ,0
1822,9180001163043,新規,0,2024-09-02,2024-09-02,株式会社アポロモバイルサポート,,株式会社,愛知県,犬山市,字若宮１３９番地１,,23,215,4840861,,,,,,,2024-09-02,1,,,,,アポロモバイルサポート,0
1824,9180003027287,新規,0,2024-09-02,2024-09-02,合同会社Ｌｉｃ,,合同会社,愛知県,清須市,西枇杷島町城並１丁目４番地３,,23,233,4520011,,,,,,,2024-09-02,1,,,,,エルアイシー,0
1828,9200001042863,新規,0,2024-09-02,2024-09-02,株式会社ＧｒｅｅｎＬｉｇｈｔ,,株式会社,岐阜県,大垣市,久徳町７番地１,,21,202,5030982,,,,,,,2024-09-02,1,,,,,グリーンライト,0
1830,9220001026187,新規,0,2024-09-02,2024-09-02,ＬＵＸＵＲＹ　Ｎ　ＪＡＰＡＮ株式会社,,株式会社,石川県,加賀市,小坂町ト甲７番地２,,17,206,9220266,,,,,,,2024-09-02,1,,,,,ラグジュアリーエヌジャパン,0
1852,9290805009769,新規,0,2024-09-02,2024-09-02,一般社団法人まなび舎,,その他の設立登記法人,福岡県,中間市,岩瀬西町１番１０号,,40,215,8090041,,,,,,,2024-09-02,1,,,,,マナビヤ,0
1855,9320001020691,新規,0,2024-09-02,2024-09-02,株式会社渡部興業,,株式会社,大分県,豊後大野市,三重町百枝２０１２番地１,,44,212,8797152,,,,,,,2024-09-02,1,,,,,ワタベコウギョウ,0
1860,9360001034127,新規,0,2024-09-02,2024-09-02,株式会社ＴＷＥＮＴＹＥＩＧＨＴ２８,,株式会社,沖縄県,沖縄市,仲宗根町９番１号サウスアイランドマンション４０６,,47,211,9040014,,,,,,,2024-09-02,1,,,,,トゥエンティエイト,0
1867,9380003005850,新規,0,2024-09-02,2024-09-02,合同会社義建,,合同会社,福島県,伊達郡川俣町,飯坂字工ミ堂３番地の３,,07,308,9601401,,,,,,,2024-09-02,1,,,,,ギケン,0
1877,9430005015058,新規,0,2024-09-02,2024-09-02,一般社団法人サステナの森,,その他の設立登記法人,北海道,札幌市白石区,本通２丁目北７番２７号,,01,104,0030027,,,,,,,2024-09-02,1,,,,,サステナノモリ,0
1880,9460005001583,新規,0,2024-09-02,2024-09-02,特定非営利活動法人ほくさんれぼ,,その他の設立登記法人,北海道,釧路市,東川町１３番７号,,01,206,0850056,,,,,,,2024-09-02,1,,,,,ホクサンレボ,0
