sequenceNumber,corporateNumber,process,correct,updateDate,changeDate,name,nameImageId,kind,prefectureName,cityName,streetNumber,addressImageId,prefectureCode,cityCode,postCode,addressOutside,addressOutsideImageId,closeDate,closeCause,successorCorporateNumber,changeCause,assignmentDate,latest,enName,enPrefectureName,enCityName,enAddressOutside,furigana,hihyoji
13,1010005026039,登記記録の閉鎖等,0,2023-08-03,2023-07-28,一般社団法人サポートホールディングスＪＲＥ土浦,,その他の設立登記法人,東京都,千代田区,丸の内３丁目１番１号東京共同会計事務所内,,13,101,1000005,,,2023-07-28,清算の結了等,,,2016-11-24,1,,,,,サポートホールディングスジェイアールイーツチウラ,0
28,1010502018281,登記記録の閉鎖等,0,2023-08-03,2023-07-28,有限会社オークラ商会,,有限会社,東京都,台東区,花川戸２丁目３番１０号,,13,106,1110033,,,2023-07-28,清算の結了等,,,2015-10-05,1,,,,,オークラショウカイ,0
36,1010901014955,登記記録の閉鎖等,0,2023-08-03,2023-07-28,株式会社ネットデザイン研究所,,株式会社,東京都,世田谷区,松原６丁目３９番１８号,,13,112,1560043,,,2023-07-28,清算の結了等,,,2015-10-05,1,,,,,ネットデザインケンキュウショ,0
37,1010901048739,登記記録の閉鎖等,0,2023-08-03,2023-07-28,株式会社Ｍｉｃａ－ＮＣ,,株式会社,東京都,世田谷区,世田谷２丁目１９番３号,,13,112,1540017,,,2023-07-28,清算の結了等,,,2021-05-24,1,,,,,ミキャエヌシー,0
60,1012301012036,登記記録の閉鎖等,0,2023-08-03,2023-08-01,株式会社シンデレラエージェンシー,,株式会社,東京都,町田市,原町田６丁目２４番１７号町田ムセンビル２Ｃ,,13,209,1940013,,,2023-08-01,清算の結了等,,,2020-03-09,1,,,,,シンデレラエージェンシー,0
66,1013201011581,登記記録の閉鎖等,0,2023-08-03,2023-08-01,株式会社アイウィル,,株式会社,東京都,目黒区,東が丘１丁目５番５号,,13,110,1520021,,,2023-08-01,清算の結了等,,,2015-10-05,1,,,,,アイウィル,0
68,1013202008404,登記記録の閉鎖等,0,2023-08-03,2023-07-26,有限会社カラー,,有限会社,東京都,目黒区,緑が丘１丁目１６番７号,,13,110,1520034,,,2023-07-26,清算の結了等,,,2015-10-05,1,,,,,カラー,0
87,1030002038266,登記記録の閉鎖等,0,2023-08-03,2023-07-11,有限会社並木塗装,,有限会社,埼玉県,久喜市,本町８丁目４番１２号,,11,232,3460005,,,2023-07-11,清算の結了等,,,2015-10-05,1,,,,,ナミキトソウ,0
89,1030002083080,登記記録の閉鎖等,0,2023-08-03,2023-07-06,有限会社アトリエ・オーパ,,有限会社,埼玉県,北本市,荒井２丁目３６番地,,11,233,3640026,,,2023-07-06,清算の結了等,,,2015-10-05,1,,,,,アトリエオーパ,0
92,1030003009282,登記記録の閉鎖等,0,2023-08-03,2023-07-10,合同会社サイエンスシーズ,,合同会社,埼玉県,さいたま市桜区,田島２丁目１２番５－１０６号,,11,106,3380837,,,2023-07-10,清算の結了等,,,2016-08-31,1,,,,,サイエンスシーズ,0
97,1040002085539,登記記録の閉鎖等,0,2023-08-03,2023-07-10,有限会社沢田建設,,有限会社,千葉県,銚子市,豊里台１丁目１０４４番地の６１,,12,202,2880874,,,2023-07-10,清算の結了等,,,2015-10-05,1,,,,,サワダケンセツ,0
99,1050001029132,登記記録の閉鎖等,0,2023-08-03,2023-07-28,株式会社服部,,株式会社,茨城県,牛久市,田宮２丁目４０番地３,,08,219,3001237,,,2023-07-28,清算の結了等,,,2015-10-05,1,,,,,ハットリ,0
101,1050001047010,登記記録の閉鎖等,0,2023-08-03,2023-07-28,株式会社さぽーと・らいふ,,株式会社,茨城県,土浦市,沢辺１８２９番地３,,08,203,3004104,,,2023-07-28,清算の結了等,,,2020-01-09,1,,,,,サポートライフ,0
117,1080001018355,登記記録の閉鎖等,0,2023-08-03,2023-07-31,株式会社ＴＪＳビジネスサポート,,株式会社,静岡県,静岡市駿河区,曲金５丁目１番３２号,,22,102,4228006,,,2023-07-31,清算の結了等,,,2015-10-05,1,,,,,ティージェイエスビジネスサポート,0
120,1080402007915,登記記録の閉鎖等,0,2023-08-03,2023-08-01,有限会社丸山住宅資材,,有限会社,静岡県,浜松市南区,小沢渡町１１３３番地,,22,134,4328063,,,2023-08-01,清算の結了等,,,2015-10-05,1,,,,,マルヤマジュウタクシザイ,0
121,1100001023922,登記記録の閉鎖等,0,2023-08-03,2023-07-26,株式会社東煌,,株式会社,長野県,東御市,和８２７１番地８,,20,219,3890505,,,2023-07-26,清算の結了等,,,2015-10-05,1,,,,,トウコウ,0
153,1130001043637,登記記録の閉鎖等,0,2023-08-03,2023-07-20,本田商事株式会社,,株式会社,京都府,舞鶴市,字福来５８３番地,,26,202,6240905,,,2023-07-20,清算の結了等,,,2015-10-05,1,,,,,ホンダショウジ,0
159,1140001098564,登記記録の閉鎖等,0,2023-08-03,2023-08-01,株式会社ラミール・ホラータ,,株式会社,兵庫県,神戸市中央区,京町７６番地の１,,28,110,6500034,,,2023-08-01,合併による解散等,2140001019726,令和５年８月１日神戸市中央区京町７６番地の１株式会社ラミール（2140001019726）に合併し解散,2015-10-05,1,,,,,ラミールホラータ,0
166,1160001010857,登記記録の閉鎖等,0,2023-08-03,2023-08-01,株式会社寺岡製作所,,株式会社,滋賀県,近江八幡市,出町１７３番地,,25,204,5230892,,,2023-08-01,清算の結了等,,,2015-10-05,1,,,,,テラオカセイサクショ,0
170,1180001087852,登記記録の閉鎖等,0,2023-08-03,2023-07-31,株式会社ケイエムケイ,,株式会社,愛知県,岩倉市,下本町天神塚４８番地の１,,23,228,4820005,,,2023-07-31,清算の結了等,,,2015-10-05,1,,,,,ケイエムケイ,0
198,1250002013387,登記記録の閉鎖等,0,2023-08-03,2023-07-19,有限会社ベーカリーヨシダ,,有限会社,山口県,萩市,大字御許町４２番地の１,,35,204,7580042,,,2023-07-19,清算の結了等,,,2015-10-05,1,,,,,ベーカリーヨシダ,0
247,1380001025123,登記記録の閉鎖等,0,2023-08-03,2023-07-31,株式会社サンキ,,株式会社,福島県,福島市,方木田字谷地１７番地の１４ベルトピア福島５０５、１０１号室,,07,201,9608163,,,2023-07-31,清算の結了等,,,2015-10-05,1,,,,,サンキ,0
289,2010001220833,登記記録の閉鎖等,0,2023-08-03,2023-07-31,ＫＤＸ証券設立準備株式会社,,株式会社,東京都,港区,新橋２丁目２番９号,,13,103,1050004,,,2023-07-31,清算の結了等,,,2021-09-02,1,,,,,ケーディーエックスショウケンセツリツジュンビ,0
293,2010002011158,登記記録の閉鎖等,0,2023-08-03,2023-07-25,有限会社シントウ,,有限会社,東京都,千代田区,岩本町２丁目１３番６号,,13,101,1010032,,,2023-07-25,清算の結了等,,,2015-10-05,1,,,,,シントウ,0
294,2010002021891,登記記録の閉鎖等,0,2023-08-03,2023-07-31,有限会社第二築地製麺所,00049803,有限会社,東京都,江東区,白河２丁目５番５号,,13,108,1350021,,,2023-07-31,清算の結了等,,,2015-10-05,1,,,,,ダイニツキジセイメンジョ,0
295,2010002025174,登記記録の閉鎖等,0,2023-08-03,2023-08-01,有限会社丸西水産,,有限会社,東京都,江東区,豊洲６丁目５番１号,,13,108,1350061,,,2023-08-01,清算の結了等,,,2015-10-05,1,,,,,マルニシスイサン,0
298,2010005025411,登記記録の閉鎖等,0,2023-08-03,2023-07-28,一般社団法人サポートホールディングスＪＲＥ能代三種,,その他の設立登記法人,東京都,千代田区,丸の内３丁目１番１号東京共同会計事務所内,,13,101,1000005,,,2023-07-28,清算の結了等,,,2016-06-07,1,,,,,サポートホールディングスジェイアールイーノシロミタネ,0
353,2013303005588,登記記録の閉鎖等,0,2023-08-03,2023-07-27,合同会社ありがとう,,合同会社,東京都,豊島区,東池袋１丁目３９番１５－２０２号,,13,116,1700013,,,2023-07-27,清算の結了等,,,2021-03-19,1,,,,,アリガトウ,0
358,2020001087660,登記記録の閉鎖等,0,2023-08-03,2023-07-24,株式会社ｉｐｐｏｃａｍｐｏ,,株式会社,神奈川県,横浜市中区,元町３丁目１２７番地,,14,104,2310861,,,2023-07-24,清算の結了等,,,2015-10-05,1,,,,,イッポカンポ,0
363,2021002023613,登記記録の閉鎖等,0,2023-08-03,2023-07-31,ひょっとこや有限会社ノムラ,,有限会社,神奈川県,相模原市南区,大野台７丁目６番１５号,,14,153,2520331,,,2023-07-31,清算の結了等,,,2015-10-05,1,,,,,ヒョットコヤノムラ,0
367,2030001093336,登記記録の閉鎖等,0,2023-08-03,2023-07-10,株式会社ココアドネット,,株式会社,埼玉県,さいたま市北区,日進町１丁目４９１番地２８,,11,102,3310823,,,2023-07-10,清算の結了等,,,2015-10-05,1,,,,,ココアドネット,0
385,2070002032710,登記記録の閉鎖等,0,2023-08-03,2023-08-01,有限会社リアライズ,,有限会社,群馬県,太田市,東矢島町１２６０番地１,,10,205,3730816,,,2023-08-01,清算の結了等,,,2015-10-05,1,,,,,,0
394,2100002027938,登記記録の閉鎖等,0,2023-08-03,2023-07-31,有限会社河西家具店,,有限会社,長野県,諏訪市,諏訪１丁目４番５号,,20,206,3920004,,,2023-07-31,清算の結了等,,,2015-10-05,1,,,,,カサイカグテン,0
395,2110001004301,登記記録の閉鎖等,0,2023-08-03,2023-07-12,日本プロシード株式会社,,株式会社,新潟県,新潟市中央区,近江３丁目４番１４号,,15,103,9500971,,,2023-07-12,清算の結了等,,,2015-10-05,1,,,,,ニホンプロシード,0
396,2110002007187,登記記録の閉鎖等,0,2023-08-03,2023-07-26,有限会社渡義地所,,有限会社,新潟県,新潟市中央区,長潟２丁目１９番６号,,15,103,9500932,,,2023-07-26,清算の結了等,,,2015-10-05,1,,,,,ワタヨシチショ,0
398,2110005011327,登記記録の閉鎖等,0,2023-08-03,2023-07-25,長岡アパレル工業協同組合,,その他の設立登記法人,新潟県,長岡市,西千手３丁目１番１１号,,15,202,9400086,,,2023-07-25,清算の結了等,,,2015-10-05,1,,,,,ナガオカアパレルコウギョウ,0
399,2120001103837,登記記録の閉鎖等,0,2023-08-03,2023-07-28,株式会社ケイズファクトリー,,株式会社,東京都,千代田区,神田三崎町２丁目２１番２号,,13,101,1010061,,,2023-07-28,合併による解散等,8010001133856,令和５年７月１日埼玉県川口市大字新堀６２９番地株式会社太陽技報堂（8010001133856）に合併し解散,2015-10-05,1,,,,,ケイズファクトリー,0
400,2120001141085,登記記録の閉鎖等,0,2023-08-03,2023-08-01,株式会社ウエコーポレーション,,株式会社,大阪府,大阪市住之江区,新北島５丁目２番１号,,27,125,5590024,,,2023-08-01,清算の結了等,,,2015-10-05,1,,,,,ウエコーポレーション,0
423,2140001098563,登記記録の閉鎖等,0,2023-08-03,2023-08-01,株式会社ラミール・ライカ,,株式会社,兵庫県,神戸市中央区,京町７６番地の１,,28,110,6500034,,,2023-08-01,合併による解散等,2140001019726,令和５年８月１日神戸市中央区京町７６番地の１株式会社ラミール（2140001019726）に合併し解散,2015-10-05,1,,,,,ラミールライカ,0
436,2160001012571,登記記録の閉鎖等,0,2023-08-03,2023-08-01,森杜産業株式会社,,株式会社,滋賀県,彦根市,安清東町９５番地（８０９号）,,25,202,5220008,,,2023-08-01,清算の結了等,,,2015-10-05,1,,,,,モリモリサンギョウ,0
437,2160001019732,登記記録の閉鎖等,0,2023-08-03,2023-07-31,株式会社エムジー産業,,株式会社,滋賀県,守山市,播磨田町６３０番地,,25,207,5240012,,,2023-07-31,清算の結了等,,,2016-09-09,1,,,,,エムジーサンギョウ,0
445,2180001134819,登記記録の閉鎖等,0,2023-08-03,2023-07-31,株式会社マンガダイア,,株式会社,愛知県,名古屋市中区,丸の内３丁目６番２７号,,23,106,4600002,,,2023-07-31,合併による解散等,5190001022061,令和５年７月３１日名古屋市中区丸の内三丁目６番２７号株式会社サザンダイア（5190001022061）に合併し解散,2018-12-14,1,,,,,マンガダイア,0
448,2180002073207,登記記録の閉鎖等,0,2023-08-03,2023-07-31,有限会社ティーオーディーエイ,,有限会社,愛知県,瀬戸市,小空町１５５番地,,23,204,4890842,,,2023-07-31,清算の結了等,,,2015-10-05,1,,,,,ティーオーディーエイ,0
450,2180002081358,登記記録の閉鎖等,0,2023-08-03,2023-08-01,名北通信建設有限会社,,有限会社,愛知県,稲沢市,井之口町大宮前５５６３番地,,23,220,4928153,,,2023-08-01,清算の結了等,,,2015-10-05,1,,,,,メイホクツウシンケンセツ,0
455,2180302001008,登記記録の閉鎖等,0,2023-08-03,2023-07-26,有限会社ギフトコジマ,,有限会社,愛知県,岡崎市,大平町字中道５２,,23,202,4440007,,,2023-07-26,清算の結了等,,,2015-10-05,1,,,,,ギフトコジマ,0
461,2190002021197,登記記録の閉鎖等,0,2023-08-03,2023-07-25,有限会社東邦電装,,有限会社,三重県,四日市市,昌栄町２２番８号,,24,202,5100057,,,2023-07-25,清算の結了等,,,2015-10-05,1,,,,,トウホウデンソウ,0
471,2230005007032,登記記録の閉鎖等,0,2023-08-03,2023-07-07,氷見市建築設計監理協同組合,,その他の設立登記法人,富山県,氷見市,幸町３２番４１号,,16,205,9350021,,,2023-07-07,清算の結了等,,,2015-10-05,1,,,,,ヒミシケンチクセッケイカンリ,0
474,2240001051207,登記記録の閉鎖等,0,2023-08-03,2023-08-01,株式会社ＢＢＡフーズ,,株式会社,広島県,安芸郡府中町,瀬戸ハイム２丁目１１番２０号,,34,302,7350011,,,2023-08-01,清算の結了等,,,2017-06-06,1,,,,,ビービーエーフーズ,0
476,2240002002126,登記記録の閉鎖等,0,2023-08-03,2023-07-31,有限会社エオニックソフトウエア,,有限会社,広島県,広島市南区,皆実町５丁目１４番１号,,34,103,7340007,,,2023-07-31,清算の結了等,,,2015-10-05,1,,,,,,0
482,2250002001977,登記記録の閉鎖等,0,2023-08-03,2023-07-20,有限会社クリニカプラン,,有限会社,山口県,山口市,秋穂東５１８番地,,35,203,7541101,,,2023-07-20,清算の結了等,,,2015-10-05,1,,,,,クリニカプラン,0
513,2370301001105,登記記録の閉鎖等,0,2023-08-03,2023-07-26,株式会社福田材木店,,株式会社,宮城県,石巻市,福地字町１３１番地,,04,202,9860115,,,2023-07-26,清算の結了等,,,2015-10-05,1,,,,,フクダザイモクテン,0
517,2390002015170,登記記録の閉鎖等,0,2023-08-03,2023-07-31,有限会社竹田石材,,有限会社,山形県,西置賜郡白鷹町,大字萩野２６３３番地,,06,402,9920811,,,2023-07-31,清算の結了等,,,2015-10-05,1,,,,,タケダセキザイ,0
531,2440002009456,登記記録の閉鎖等,0,2023-08-03,2023-07-31,有限会社成田商会,,有限会社,北海道,茅部郡森町,字赤井川１９７番地１,,01,345,0492142,,,2023-07-31,清算の結了等,,,2015-10-05,1,,,,,ナリタショウカイ,0
532,2470001017374,登記記録の閉鎖等,0,2023-08-03,2023-07-31,会合株式会社,,株式会社,香川県,高松市,西宝町１丁目１４番２０号,,37,201,7600004,,,2023-07-31,清算の結了等,,,2019-04-11,1,,,,,カイゴウ,0
541,2500002011067,登記記録の閉鎖等,0,2023-08-03,2023-08-01,有限会社タカハシ,,有限会社,愛媛県,東温市,樋口４７８番地,,38,215,7910202,,,2023-08-01,合併による解散等,2500001007149,令和５年８月１日愛媛県東温市樋口４７８番地長曽我部糖化工業株式会社（2500001007149）に合併し解散,2015-10-05,1,,,,,タカハシ,0
567,3010005027324,登記記録の閉鎖等,0,2023-08-03,2023-07-28,一般社団法人サポートホールディングスＪＲＥ上駒月,,その他の設立登記法人,東京都,千代田区,丸の内３丁目１番１号東京共同会計事務所内,,13,101,1000005,,,2023-07-28,清算の結了等,,,2017-08-22,1,,,,,サポートホールディングスジェイアールイーカミコマヅキ,0
571,3010102006890,登記記録の閉鎖等,0,2023-08-03,2023-07-31,有限会社最上テント,,有限会社,東京都,八王子市,上川町２２４０番地の５,,13,201,1920151,,,2023-07-31,清算の結了等,,,2015-10-05,1,,,,,,0
573,3010401091246,登記記録の閉鎖等,0,2023-08-03,2023-07-31,株式会社野菜基地,,株式会社,兵庫県,神戸市須磨区,横尾２丁目１８番地の１,,28,107,6540131,,,2023-07-31,清算の結了等,,,2015-10-05,1,,,,,ヤサイキチ,0
577,3010403010682,登記記録の閉鎖等,0,2023-08-03,2023-07-12,Ｌｏｍｏｎｄ　ＩＢＬＰ合同会社,,合同会社,東京都,港区,西新橋１丁目１番１号ＥＰコンサルティングサービス内,,13,103,1050003,,,2023-07-12,清算の結了等,,,2015-10-05,1,,,,,ローモンドアイビーエルピー,0
599,3011001106443,登記記録の閉鎖等,0,2023-08-03,2023-07-03,株式会社グローバルマーケティング,,株式会社,千葉県,松戸市,二十世紀が丘丸山町３５番地源七第三コーポラス５０２号,,12,207,2710084,,,2023-07-03,清算の結了等,,,2015-10-05,1,,,,,グローバルマーケティング,0
600,3011001110528,登記記録の閉鎖等,0,2023-08-03,2023-07-27,株式会社ＳＴＳ,,株式会社,東京都,渋谷区,桜丘町２３番地１７,,13,113,1500031,,,2023-07-27,清算の結了等,,,2016-04-15,1,,,,,エスティーエス,0
603,3011001119602,登記記録の閉鎖等,0,2023-08-03,2023-07-31,株式会社ハーツオブクローバー,,株式会社,東京都,世田谷区,代沢２丁目１２番１０号,,13,112,1550032,,,2023-07-31,清算の結了等,,,2017-12-07,1,,,,,ハーツオブクローバー,0
622,3011501012249,登記記録の閉鎖等,0,2023-08-03,2023-07-27,株式会社山崎工務店,,株式会社,東京都,北区,豊島３丁目２４番９号,,13,117,1140003,,,2023-07-27,清算の結了等,,,2015-10-05,1,,,,,ヤマザキコウムテン,0
628,3011702011693,登記記録の閉鎖等,0,2023-08-03,2023-08-01,有限会社森田金型,,有限会社,東京都,江戸川区,上篠崎４丁目１５番１４号,,13,123,1330054,,,2023-08-01,清算の結了等,,,2015-10-05,1,,,,,モリタカナガタ,0
633,3012301009220,登記記録の閉鎖等,0,2023-08-03,2023-07-31,株式会社プレミアムエスコートサービス,,株式会社,東京都,大田区,仲池上１丁目４番８号Ｒｅｓｉｄｅｎｃｅｌｉｌａｓ,,13,111,1460081,,,2023-07-31,清算の結了等,,,2015-10-05,1,,,,,プレミアムエスコートサービス,0
653,3020002069839,登記記録の閉鎖等,0,2023-08-03,2023-07-21,グローバルビジネスパートナーズ有限会社,,有限会社,神奈川県,横浜市栄区,飯島町１８７９番地の１５２,,14,115,2440842,,,2023-07-21,清算の結了等,,,2015-10-05,1,,,,,グローバルビジネスパートナーズ,0
655,3020002090695,登記記録の閉鎖等,0,2023-08-03,2023-07-21,有限会社眞島製作所,,有限会社,神奈川県,川崎市高津区,下野毛２丁目９番１６号,,14,134,2130006,,,2023-07-21,清算の結了等,,,2015-10-05,1,,,,,,0
657,3020003014513,登記記録の閉鎖等,0,2023-08-03,2023-07-21,合同会社クラシカハウス,,合同会社,神奈川県,横浜市旭区,西川島町１２０番地２０,,14,112,2410012,,,2023-07-21,清算の結了等,,,2018-06-20,1,,,,,クラシカハウス,0
660,3021002053353,登記記録の閉鎖等,0,2023-08-03,2023-07-31,有限会社柳川鈑金工業,,有限会社,神奈川県,小田原市,中里３６５番地４,,14,206,2500872,,,2023-07-31,清算の結了等,,,2015-10-05,1,,,,,,0
661,3021005003215,登記記録の閉鎖等,0,2023-08-03,2023-08-01,特定非営利活動法人相模原保育サポートポッポくらぶ,,その他の設立登記法人,神奈川県,相模原市緑区,相原２丁目５番５３号,,14,151,2520141,,,2023-08-01,清算の結了等,,,2015-10-05,1,,,,,サガミハラホイクサポートポッポクラブ,0
668,3030001106253,登記記録の閉鎖等,0,2023-08-03,2023-07-28,株式会社住まいるリフォーム,,株式会社,東京都,北区,滝野川７丁目２７番６号,,13,117,1140023,,,2023-07-28,清算の結了等,,,2015-10-05,1,,,,,スマイルリフォーム,0
670,3030002061547,登記記録の閉鎖等,0,2023-08-03,2023-07-07,有限会社高橋コーポレーション,00016903,有限会社,埼玉県,新座市,野火止８丁目１１番２１号高橋コーポ２０１,,11,230,3520011,,,2023-07-07,清算の結了等,,,2015-10-05,1,,,,,タカハシコーポレーション,0
676,3040001061679,登記記録の閉鎖等,0,2023-08-03,2023-07-10,株式会社向後金物店,,株式会社,千葉県,旭市,ニの６５４８番地,,12,215,2892504,,,2023-07-10,清算の結了等,,,2015-10-05,1,,,,,コウゴカナモノテン,0
677,3040001073740,登記記録の閉鎖等,0,2023-08-03,2023-07-10,株式会社江戸屋,,株式会社,千葉県,館山市,湊３７番地の２,,12,205,2940054,,,2023-07-10,清算の結了等,,,2015-10-05,1,,,,,エドヤ,0
678,3040002078714,登記記録の閉鎖等,0,2023-08-03,2023-07-10,有限会社村越設備,,有限会社,千葉県,大網白里市,南横川３１４２番地１８,,12,239,2993223,,,2023-07-10,清算の結了等,,,2015-10-05,1,,,,,ムラコシセツビ,0
689,3070002023650,登記記録の閉鎖等,0,2023-08-03,2023-07-31,新幸製材有限会社,,有限会社,群馬県,桐生市,広沢町１丁目２５２６番地２,,10,203,3760013,,,2023-07-31,清算の結了等,,,2015-10-05,1,,,,,シンコウセイザイ,0
700,3100002017351,登記記録の閉鎖等,0,2023-08-03,2023-07-31,有限会社丸信電機商会,,有限会社,長野県,飯山市,大字照里１１７０番地５,,20,213,3892413,,,2023-07-31,清算の結了等,,,2015-10-05,1,,,,,マルシンデンキショウカイ,0
708,3120001144418,登記記録の閉鎖等,0,2023-08-03,2023-08-01,株式会社こづち,,株式会社,大阪府,大阪市浪速区,大国１丁目９番７号生駒屋ビル,,27,111,5560014,,,2023-08-01,合併による解散等,8120001144421,令和５年８月１日大阪市浪速区大国一丁目９番７号生駒屋ビル生駒屋株式会社（8120001144421）に合併し解散,2015-10-05,1,,,,,コヅチ,0
723,3120002080728,登記記録の閉鎖等,0,2023-08-03,2023-07-31,有限会社マーク・スペース,,有限会社,大阪府,守口市,梶町４丁目２５番７号,,27,209,5700015,,,2023-07-31,清算の結了等,,,2015-10-05,1,,,,,マークスペース,0
736,3130001064672,登記記録の閉鎖等,0,2023-08-03,2023-07-20,Ｏｕｔｂｒｅａｋ株式会社,,株式会社,京都府,京都市南区,吉祥院観音堂南町１番１,,26,107,6018347,,,2023-07-20,清算の結了等,,,2019-06-11,1,,,,,アウトブレイク,0
742,3140002058383,登記記録の閉鎖等,0,2023-08-03,2023-07-28,有限会社美化工房,,有限会社,兵庫県,西宮市,南甲子園２丁目１４番８号,,28,204,6638153,,,2023-07-28,清算の結了等,,,2015-10-05,1,,,,,ビカコウボウ,0
743,3140005007998,登記記録の閉鎖等,0,2023-08-03,2023-07-31,医療法人社団岩崎医院,,その他の設立登記法人,兵庫県,丹波市,山南町和田２６８番地,,28,223,6693157,,,2023-07-31,清算の結了等,,,2015-10-05,1,,,,,イワサキイイン,0
757,3180001072308,登記記録の閉鎖等,0,2023-08-03,2023-08-01,株式会社ＨＯＳＡＫＡ,,株式会社,愛知県,名古屋市千種区,星が丘元町１番４号,,23,101,4640802,,,2023-08-01,合併による解散等,1180001003909,令和５年８月１日名古屋市千種区星が丘元町１番１５号株式会社マ・メゾン（1180001003909）に合併し解散,2015-10-05,1,,,,,ホサカ,0
766,3180003010447,登記記録の閉鎖等,0,2023-08-03,2023-07-31,合資会社美濃利本店,,合資会社,愛知県,瀬戸市,西谷町１３番地,,23,204,4890047,,,2023-07-31,清算の結了等,,,2015-10-05,1,,,,,ミノリホンテン,0
768,3180301015131,登記記録の閉鎖等,0,2023-08-03,2023-07-26,株式会社オーエムハウジング,,株式会社,愛知県,碧南市,三度山町４丁目５番地２,,23,209,4470061,,,2023-07-26,清算の結了等,,,2015-10-05,1,,,,,オーエムハウジング,0
769,3180302004026,登記記録の閉鎖等,0,2023-08-03,2023-07-26,有限会社ワンアップ工業,,有限会社,愛知県,岡崎市,井田町字３丁目９１番地２,,23,202,4440076,,,2023-07-26,清算の結了等,,,2015-10-05,1,,,,,ワンアップコウギョウ,0
770,3180303004990,登記記録の閉鎖等,0,2023-08-03,2023-07-27,合同会社モリコウ,,合同会社,愛知県,高浜市,田戸町３丁目２番地３８,,23,227,4441323,,,2023-07-27,清算の結了等,,,2021-05-14,1,,,,,モリコウ,0
785,3240001017413,登記記録の閉鎖等,0,2023-08-03,2023-07-31,株式会社カイ,,株式会社,広島県,広島市中区,大手町５丁目２１番１５－８０３号,,34,101,7300051,,,2023-07-31,清算の結了等,,,2015-10-05,1,,,,,カイ,0
786,3240001045307,登記記録の閉鎖等,0,2023-08-03,2023-07-31,株式会社フォーユー,,株式会社,広島県,広島市安佐北区,口田南９丁目１３番２３号,,34,106,7391733,,,2023-07-31,清算の結了等,,,2015-10-05,1,,,,,,0
791,3250002009210,登記記録の閉鎖等,0,2023-08-03,2023-07-19,三和土木有限会社,,有限会社,山口県,下関市,王司南町５番１９号,,35,201,7520924,,,2023-07-19,清算の結了等,,,2015-10-05,1,,,,,サンワドボク,0
792,3260001013410,登記記録の閉鎖等,0,2023-08-03,2023-07-27,山陽ドラム罐工業株式会社,,株式会社,岡山県,倉敷市,中島１２３０番地,,33,202,7100803,,,2023-07-27,合併による解散等,1010601022853,令和５年７月１日東京都江東区亀戸一丁目５番７号日鉄ドラム株式会社（1010601022853）に合併し解散,2015-10-05,1,,,,,サンヨウドラムカンコウギョウ,0
817,3330001008849,登記記録の閉鎖等,0,2023-08-03,2023-07-14,株式会社シック,,株式会社,熊本県,熊本市西区,河内町河内２６０７番地,,43,103,8615346,,,2023-07-14,清算の結了等,,,2015-10-05,1,,,,,シック,0
840,3450002007490,登記記録の閉鎖等,0,2023-08-03,2023-07-28,有限会社笹渕厨器店,,有限会社,北海道,深川市,西町１１番３３号,,01,228,0740012,,,2023-07-28,合併による解散等,6430001001576,令和５年７月１日札幌市中央区南八条西六丁目１０３６番地株式会社いちたかガスワン（6430001001576）に合併し解散,2015-10-05,1,,,,,ササブチチュウキテン,0
860,4010005025673,登記記録の閉鎖等,0,2023-08-03,2023-07-28,一般社団法人サポートホールディングスＪＲＥ七戸鶴児平,,その他の設立登記法人,東京都,千代田区,丸の内３丁目１番１号東京共同会計事務所内,,13,101,1000005,,,2023-07-28,清算の結了等,,,2016-08-18,1,,,,,サポートホールディングスジェイアールイーシチノヘツルノコタイ,0
861,4010005033734,登記記録の閉鎖等,0,2023-08-03,2023-07-28,一般社団法人サポートホールディングスＪＲＥアルバ,,その他の設立登記法人,東京都,千代田区,丸の内３丁目１番１号東京共同会計事務所内,,13,101,1000005,,,2023-07-28,清算の結了等,,,2021-08-06,1,,,,,サポートホールディングスジェイアールイーアルバ,0
862,4010101006899,登記記録の閉鎖等,0,2023-08-03,2023-07-28,株式会社谷合,,株式会社,東京都,八王子市,北野町１４３番地,,13,201,1920906,,,2023-07-28,清算の結了等,,,2015-10-05,1,,,,,タニアイ,0
867,4010401144523,登記記録の閉鎖等,0,2023-08-03,2023-08-01,株式会社ＨＥＡＶＥＮ,,株式会社,東京都,中央区,銀座８丁目１９番２号銀座ハウス１Ｆ,,13,102,1040061,,,2023-08-01,合併による解散等,3011101068807,令和５年８月１日東京都中央区銀座八丁目１９番１号株式会社ＨＩＲＡ（3011101068807）に合併し解散,2019-03-20,1,,,,,ヘブン,0
871,4010403025622,登記記録の閉鎖等,0,2023-08-03,2023-07-11,合同会社ノルディクス機構,,合同会社,東京都,港区,元赤坂１丁目１番８号赤坂コミュニティビル４階,,13,103,1070051,,,2023-07-11,清算の結了等,,,2021-06-28,1,,,,,ノルディクスキコウ,0
890,4010901049107,登記記録の閉鎖等,0,2023-08-03,2023-07-05,たびスル株式会社,,株式会社,東京都,世田谷区,大原１丁目１３番１０号,,13,112,1560041,,,2023-07-05,合併による解散等,7010001220325,令和５年７月１日東京都千代田区麹町三丁目２番地垣見麹町ビル別館４階ＴＳホールディングス株式会社（7010001220325）に合併し解散,2021-07-30,1,,,,,タビスル,0
891,4010902025668,登記記録の閉鎖等,0,2023-08-03,2023-07-28,有限会社フーズフリークス,,有限会社,東京都,世田谷区,成城６丁目６番３－５０３号,,13,112,1570066,,,2023-07-28,清算の結了等,,,2015-10-05,1,,,,,フーズフリークス,0
907,4011201024320,登記記録の閉鎖等,0,2023-08-03,2023-08-01,株式会社スリージェイ,,株式会社,東京都,中野区,中野４丁目３番１号サンクオーレタワー１１０７,,13,114,1640001,,,2023-08-01,清算の結了等,,,2023-01-10,1,,,,,スリージェイ,0
911,4011303004146,登記記録の閉鎖等,0,2023-08-03,2023-07-27,合同会社ＨＡＧＩＲＥ,,合同会社,東京都,杉並区,南荻窪４丁目３２番４号伊東ハイツ２０１,,13,115,1670052,,,2023-07-27,清算の結了等,,,2021-08-26,1,,,,,ハギレ,0
924,4012705001243,登記記録の閉鎖等,0,2023-08-03,2023-08-01,特定非営利活動法人東京どんぐり自然学校,,その他の設立登記法人,東京都,小平市,小川町１丁目５０２番地の２５,,13,211,1870032,,,2023-08-01,清算の結了等,,,2015-10-05,1,,,,,トウキョウドングリシゼンガッコウ,0
940,4020002020313,登記記録の閉鎖等,0,2023-08-03,2023-07-18,有限会社渡辺設計事務所,,有限会社,神奈川県,横浜市港南区,港南台９丁目２４番１７号,,14,111,2340054,,,2023-07-18,清算の結了等,,,2015-10-05,1,,,,,ワタナベセッケイジムショ,0
945,4020005015277,登記記録の閉鎖等,0,2023-08-03,2023-07-20,一般社団法人ゆうゆうスマイルクラブ,,その他の設立登記法人,神奈川県,横浜市西区,北幸１丁目１１番１号水信ビル７階,,14,103,2200004,,,2023-07-20,清算の結了等,,,2021-11-17,1,,,,,ユウユウスマイルクラブ,0
947,4021002018025,登記記録の閉鎖等,0,2023-08-03,2023-08-01,有限会社稲井設計,,有限会社,神奈川県,相模原市南区,麻溝台５丁目７番１３号,,14,153,2520328,,,2023-08-01,清算の結了等,,,2015-10-05,1,,,,,イナイセッケイ,0
974,4060001015665,登記記録の閉鎖等,0,2023-08-03,2023-07-19,株式会社ソフトエンジンワン,,株式会社,栃木県,小山市,東城南５丁目３５番地２３,,09,208,3230829,,,2023-07-19,清算の結了等,,,2015-10-05,1,,,,,ソフトエンジンワン,0
985,4080002017329,登記記録の閉鎖等,0,2023-08-03,2023-08-01,有限会社ゑび寿亭,,有限会社,静岡県,藤枝市,高柳１丁目１９番５号,,22,214,4260041,,,2023-08-01,清算の結了等,,,2015-10-05,1,,,,,エビステイ,0
987,4080401019355,登記記録の閉鎖等,0,2023-08-03,2023-08-01,株式会社メディカルアキシス,,株式会社,静岡県,浜松市中区,早出町１２１２番地の１１,,22,131,4350054,,,2023-08-01,清算の結了等,,,2015-10-05,1,,,,,メディカルアキシス,0
1001,4120001128015,登記記録の閉鎖等,0,2023-08-03,2023-07-31,株式会社ＰＥＡＣＥ,,株式会社,兵庫県,西宮市,甲子園口４丁目２１－２７,,28,204,6638113,,,2023-07-31,清算の結了等,,,2015-10-05,1,,,,,ピース,0
1032,4140001051867,登記記録の閉鎖等,0,2023-08-03,2023-07-31,株式会社米田,,株式会社,大阪府,東大阪市,長栄寺２番８号東大阪米田ビル,,27,227,5770055,,,2023-07-31,清算の結了等,,,2015-10-05,1,,,,,ヨネダ,0
1036,4140002027354,登記記録の閉鎖等,0,2023-08-03,2023-07-31,有限会社みずかみ,,有限会社,兵庫県,神戸市兵庫区,湊町３丁目２番５－１２１７,,28,105,6520812,,,2023-07-31,清算の結了等,,,2015-10-05,1,,,,,ミズカミ,0
1047,4180001105644,登記記録の閉鎖等,0,2023-08-03,2023-07-31,株式会社日比コーポレーション,,株式会社,愛知県,小牧市,多気東町１１番地,,23,219,4850035,,,2023-07-31,清算の結了等,,,2015-10-05,1,,,,,ヒビコーポレーション,0
1057,4180303001376,登記記録の閉鎖等,0,2023-08-03,2023-07-26,合資会社みどりビルクリーナー,,合資会社,愛知県,田原市,田原町南晩田１７番地１,,23,231,4413421,,,2023-07-26,清算の結了等,,,2015-10-05,1,,,,,ミドリビルクリーナー,0
1058,4180303002300,登記記録の閉鎖等,0,2023-08-03,2023-07-26,ＤＯ合資会社,,合資会社,愛知県,刈谷市,日高町３丁目６０９番地,,23,210,4480046,,,2023-07-26,清算の結了等,,,2015-10-05,1,,,,,ドゥ,0
1075,4240001018600,登記記録の閉鎖等,0,2023-08-03,2023-07-28,株式会社エンジェルハート,,株式会社,広島県,広島市南区,段原山崎２丁目１４番１３－１００１号,,34,103,7320819,,,2023-07-28,清算の結了等,,,2015-10-05,1,,,,,エンジェルハート,0
1086,4260001000721,登記記録の閉鎖等,0,2023-08-03,2023-07-31,株式会社エーゼツト,,株式会社,岡山県,岡山市北区,白石５７５番地１４,,33,101,7010143,,,2023-07-31,清算の結了等,,,2015-10-05,1,,,,,エーゼット,0
1094,4290001053972,登記記録の閉鎖等,0,2023-08-03,2023-07-20,株式会社永井慎吾商店,,株式会社,福岡県,大牟田市,橋口町４番地の６,,40,202,8360043,,,2023-07-20,清算の結了等,,,2015-10-05,1,,,,,ナガイシンゴショウテン,0
1121,4370001041969,登記記録の閉鎖等,0,2023-08-03,2023-07-31,株式会社キリュウ,,株式会社,福島県,相馬市,中村字桜ケ丘１８９番地１エクセルコート１０１号,,07,209,9760042,,,2023-07-31,清算の結了等,,,2017-08-24,1,,,,,キリュウ,0
1129,4410005005478,登記記録の閉鎖等,0,2023-08-03,2023-07-19,特定非営利活動法人油谷これくしょん,,その他の設立登記法人,秋田県,秋田市,千秋城下町１番１３号,,05,201,0100873,,,2023-07-19,清算の結了等,,,2015-10-05,1,,,,,アブラヤコレクション,0
1165,5010005023420,登記記録の閉鎖等,0,2023-08-03,2023-07-28,一般社団法人サポートホールディングスＪＲＥ姫路,,その他の設立登記法人,東京都,千代田区,丸の内３丁目１番１号東京共同会計事務所内,,13,101,1000005,,,2023-07-28,清算の結了等,,,2015-10-05,1,,,,,サポートホールディングスジェイアールイーヒメジ,0
1166,5010005024897,登記記録の閉鎖等,0,2023-08-03,2023-07-28,一般社団法人サポートホールディングスＪＲＥ稲敷佐倉,,その他の設立登記法人,東京都,千代田区,丸の内３丁目１番１号東京共同会計事務所内,,13,101,1000005,,,2023-07-28,清算の結了等,,,2016-01-26,1,,,,,サポートホールディングスジェイアールイーイナシキサクラ,0
1167,5010005028551,登記記録の閉鎖等,0,2023-08-03,2023-07-28,一般社団法人サポートホールディングスＪＲＥ志賀西海,,その他の設立登記法人,東京都,千代田区,丸の内３丁目１番１号東京共同会計事務所内,,13,101,1000005,,,2023-07-28,清算の結了等,,,2018-05-21,1,,,,,サポートホールディングスジェイアールイーシカサイカイ,0
1168,5010103001303,登記記録の閉鎖等,0,2023-08-03,2023-07-31,ＣＲＣ合同会社,,合同会社,東京都,八王子市,大塚６２３番地３,,13,201,1920352,,,2023-07-31,清算の結了等,,,2018-09-07,1,,,,,シーアールシー,0
1179,5010601056055,登記記録の閉鎖等,0,2023-08-03,2023-07-11,アルティメトリックジャパン株式会社,,株式会社,東京都,港区,虎ノ門４丁目３番１号城山トラストタワー東京赤坂法律事務所内,,13,103,1050001,,,2023-07-11,清算の結了等,,,2019-09-09,1,,,,,アルティメトリックジャパン,0
1187,5010701023137,登記記録の閉鎖等,0,2023-08-03,2023-07-31,株式会社鷲見,,株式会社,東京都,品川区,大崎１丁目２０番１９－１０１号,,13,109,1410032,,,2023-07-31,清算の結了等,,,2015-10-05,1,,,,,スミ,0
1193,5011001123288,登記記録の閉鎖等,0,2023-08-03,2023-07-26,ｉＰａｙＬｉｎｋｓ株式会社,,株式会社,東京都,渋谷区,神宮前１丁目２３番２８号,,13,113,1500001,,,2023-07-26,清算の結了等,,,2018-07-20,1,,,,,アイペイリンクス,0
1202,5011101084364,登記記録の閉鎖等,0,2023-08-03,2023-08-01,ＬＩＮＥ　Ｇｒｏｗｔｈ　Ｔｅｃｈｎｏｌｏｇｙ株式会社,,株式会社,東京都,新宿区,四谷１丁目６番１号,,13,104,1600004,,,2023-08-01,合併による解散等,2011101089911,令和５年８月１日東京都新宿区四谷一丁目６番１号ＬＩＮＥ株式会社（2011101089911）に合併し解散,2018-06-07,1,,,,,,0
1205,5011301007802,登記記録の閉鎖等,0,2023-08-03,2023-07-26,株式会社ヒューマンマネジメント,,株式会社,東京都,杉並区,成田西１丁目２１番２１号,,13,115,1660016,,,2023-07-26,清算の結了等,,,2015-10-05,1,,,,,ヒューマンマネジメント,0
1220,5012701002616,登記記録の閉鎖等,0,2023-08-03,2023-07-31,愛三工業株式会社,,株式会社,東京都,西東京市,北町２丁目１５番２３号,,13,229,2020003,,,2023-07-31,清算の結了等,,,2015-10-05,1,,,,,アイミコウギョウ,0
1245,5030001014314,登記記録の閉鎖等,0,2023-08-03,2023-07-27,株式会社３Ｒホールディングス,,株式会社,東京都,中央区,八重洲２丁目６番５号八重洲五の五ビル,,13,102,1040028,,,2023-07-27,清算の結了等,,,2015-10-05,1,,,,,スリーアールホールディングス,0
1248,5030001039204,登記記録の閉鎖等,0,2023-08-03,2023-07-10,株式会社Ｓｈｏ,,株式会社,埼玉県,草加市,稲荷２丁目１番１７号,,11,221,3400003,,,2023-07-10,清算の結了等,,,2015-10-05,1,,,,,ショー,0
1255,5040001048674,登記記録の閉鎖等,0,2023-08-03,2023-08-01,株式会社ＳｕＺｕＫｉ,,株式会社,千葉県,八街市,八街い６９番地,,12,230,2891143,,,2023-08-01,清算の結了等,,,2015-10-05,1,,,,,スズキ,0
1299,5120002070405,登記記録の閉鎖等,0,2023-08-03,2023-07-31,有限会社ＲＥＲＵＮ,,有限会社,大阪府,大阪市西淀川区,千舟２丁目１４番３２－５０５号,,27,113,5550013,,,2023-07-31,清算の結了等,,,2015-10-05,1,,,,,,0
1326,5180001143759,登記記録の閉鎖等,0,2023-08-03,2023-07-31,株式会社Ｍａｒｒｉａｇｅ　ｇａｔｅ,,株式会社,愛知県,名古屋市西区,城西３丁目１９番１号,,23,104,4510031,,,2023-07-31,清算の結了等,,,2020-11-26,1,,,,,マリッジゲート,0
1328,5180002023654,登記記録の閉鎖等,0,2023-08-03,2023-07-31,有限会社水仙屋,,有限会社,愛知県,名古屋市西区,笠取町２丁目７５番地,,23,104,4510072,,,2023-07-31,清算の結了等,,,2015-10-05,1,,,,,スイセンヤ,0
1333,5180305007908,登記記録の閉鎖等,0,2023-08-03,2023-07-26,公益財団法人高橋記念美術文化振興財団,,その他の設立登記法人,愛知県,豊田市,小坂本町８丁目５番地１,,23,211,4710034,,,2023-07-26,清算の結了等,,,2015-10-05,1,,,,,タカハシキネンビジュツブンカシンコウザイダン,0
1353,5250001003798,登記記録の閉鎖等,0,2023-08-03,2023-07-19,興亜商事株式会社,,株式会社,山口県,山陽小野田市,大字小野田６３３１番地の３,,35,216,7560817,,,2023-07-19,清算の結了等,,,2015-10-05,1,,,,,コウアショウジ,0
1361,5290001028404,登記記録の閉鎖等,0,2023-08-03,2023-07-19,株式会社西崎電器,,株式会社,福岡県,福岡市西区,生の松原２丁目９番６号,,40,135,8190055,,,2023-07-19,清算の結了等,,,2015-10-05,1,,,,,ニシザキデンキ,0
1365,5290001076626,登記記録の閉鎖等,0,2023-08-03,2023-07-21,福岡新電力株式会社,,株式会社,福岡県,福岡市南区,桧原４丁目２番２０号,,40,134,8111355,,,2023-07-21,清算の結了等,,,2017-02-06,1,,,,,フクオカシンデンリョク,0
1382,5310002020051,登記記録の閉鎖等,0,2023-08-03,2023-07-31,庄野火薬有限会社,,有限会社,長崎県,対馬市,厳原町今屋敷６９４番地２,,42,209,8170021,,,2023-07-31,清算の結了等,,,2015-10-05,1,,,,,ショウノカヤク,0
1391,5340002006361,登記記録の閉鎖等,0,2023-08-03,2023-07-31,有限会社ティ・エー企画,,有限会社,鹿児島県,鹿児島市,東坂元３丁目１７番１４号,,46,201,8920861,,,2023-07-31,清算の結了等,,,2015-10-05,1,,,,,ティエーキカク,0
1407,5420003001411,登記記録の閉鎖等,0,2023-08-03,2023-07-19,合同会社ＵＭＩＴ,,合同会社,青森県,青森市,花園１丁目１８番２０号,,02,201,0300966,,,2023-07-19,清算の結了等,,,2015-10-05,1,,,,,ユミット,0
1429,6010001124989,登記記録の閉鎖等,0,2023-08-03,2023-07-27,株式会社タブイースト,,株式会社,東京都,中央区,築地２丁目２番８号,,13,102,1040045,,,2023-07-27,清算の結了等,,,2015-10-05,1,,,,,タブイースト,0
1430,6010001143650,登記記録の閉鎖等,0,2023-08-03,2023-07-10,ファイブスターエレメンツ株式会社,,株式会社,埼玉県,越谷市,レイクタウン８丁目１番地Ｂ５１１号室,,11,222,3430828,,,2023-07-10,清算の結了等,,,2015-10-05,1,,,,,ファイブスターエレメンツ,0
1433,6010002053659,登記記録の閉鎖等,0,2023-08-03,2023-08-01,有限会社美翔,,有限会社,東京都,足立区,綾瀬２丁目２８番１１－７０２号,,13,121,1200005,,,2023-08-01,清算の結了等,,,2015-10-05,1,,,,,ビショウ,0
1438,6010005023477,登記記録の閉鎖等,0,2023-08-03,2023-07-28,一般社団法人サポートホールディングスＪＲＥ南伊勢,,その他の設立登記法人,東京都,千代田区,丸の内３丁目１番１号東京共同会計事務所内,,13,101,1000005,,,2023-07-28,清算の結了等,,,2015-10-05,1,,,,,サポートホールディングスジェイアールイーミナミイセ,0
1444,6010403014318,登記記録の閉鎖等,0,2023-08-03,2023-07-12,本栖湖ＩＢＬＰ合同会社,,合同会社,東京都,港区,虎ノ門５丁目１番４号グローバル・ソリューションズ・コンサルティング株式会社内,,13,103,1050001,,,2023-07-12,清算の結了等,,,2016-01-18,1,,,,,,0
1453,6010602018912,登記記録の閉鎖等,0,2023-08-03,2023-07-31,有限会社一星紙工,,有限会社,東京都,江東区,牡丹３丁目２９番１号,,13,108,1350046,,,2023-07-31,清算の結了等,,,2015-10-05,1,,,,,イッセイシコウ,0
1457,6010901044816,登記記録の閉鎖等,0,2023-08-03,2023-07-28,株式会社ＧＭＹ,,株式会社,東京都,世田谷区,太子堂１丁目１２番２７－１００５号,,13,112,1540004,,,2023-07-28,清算の結了等,,,2019-09-05,1,,,,,ジーエムワイ,0
1459,6010902013712,登記記録の閉鎖等,0,2023-08-03,2023-07-31,有限会社ベルヴァ,,有限会社,東京都,世田谷区,上用賀２丁目３番１号,,13,112,1580098,,,2023-07-31,清算の結了等,,,2015-10-05,1,,,,,ベルヴァ,0
1460,6010902014025,登記記録の閉鎖等,0,2023-08-03,2023-07-31,マイクス有限会社,,有限会社,東京都,世田谷区,世田谷１丁目９番３号,,13,112,1540017,,,2023-07-31,清算の結了等,,,2015-10-05,1,,,,,マイクス,0
1465,6011001102662,登記記録の閉鎖等,0,2023-08-03,2023-07-26,株式会社スクランブル,,株式会社,東京都,渋谷区,千駄ヶ谷４丁目２３番５号ＪＰＲ千駄ヶ谷ビル,,13,113,1510051,,,2023-07-26,合併による解散等,7011001129374,令和５年７月１日東京都渋谷区千駄ヶ谷四丁目２３番５号ＪＰＲ千駄ヶ谷ビル株式会社サニーサイドアップ（7011001129374）に合併し解散,2015-10-05,1,,,,,スクランブル,0
1480,6011301012883,登記記録の閉鎖等,0,2023-08-03,2023-07-25,株式会社一本の木,,株式会社,東京都,杉並区,宮前３丁目２４番６号,,13,115,1680081,,,2023-07-25,清算の結了等,,,2015-10-05,1,,,,,イッポンノキ,0
1498,6011801015502,登記記録の閉鎖等,0,2023-08-03,2023-07-03,株式会社ピーアーク神奈川,,株式会社,東京都,足立区,竹の塚６丁目８番１５号,,13,121,1210813,,,2023-07-03,合併による解散等,1011801016694,令和５年７月１日東京都足立区竹の塚六丁目８番１５号株式会社ピーアーク千葉・神奈川（1011801016694）に合併し解散,2015-10-05,1,,,,,ピーアークカナガワ,0
1505,6013202008399,登記記録の閉鎖等,0,2023-08-03,2023-08-01,有限会社東山訪問看護ステーション,,有限会社,東京都,目黒区,東山１丁目９番１１号,,13,110,1530043,,,2023-08-01,清算の結了等,,,2015-10-05,1,,,,,ヒガシヤマホウモンカンゴステーション,0
1523,6030002105318,登記記録の閉鎖等,0,2023-08-03,2023-07-07,有限会社藤和機工,,有限会社,埼玉県,川口市,飯塚４丁目９番３号,,11,203,3320023,,,2023-07-07,清算の結了等,,,2015-10-05,1,,,,,トウワキコウ,0
1527,6040001070826,登記記録の閉鎖等,0,2023-08-03,2023-07-11,株式会社ＳＵＮ,,株式会社,千葉県,柏市,柏３丁目１０番２０－２０１号,,12,217,2770005,,,2023-07-11,清算の結了等,,,2015-10-05,1,,,,,サン,0
1539,6050002034762,登記記録の閉鎖等,0,2023-08-03,2023-07-28,有限会社ティー・エム・イー,,有限会社,茨城県,稲敷市,蒲ケ山３１７番地の８,,08,229,3000522,,,2023-07-28,清算の結了等,,,2015-10-05,1,,,,,ティーエムイー,0
1556,6080401022233,登記記録の閉鎖等,0,2023-08-03,2023-08-01,株式会社富士スプラウト,,株式会社,静岡県,御前崎市,御前崎５８番地の６７,,22,223,4371621,,,2023-08-01,清算の結了等,,,2017-06-05,1,,,,,フジスプラウト,0
1557,6100001001493,登記記録の閉鎖等,0,2023-08-03,2023-07-31,株式会社匠電舎,,株式会社,長野県,長野市,大字高田２０９１番地,,20,201,3810034,,,2023-07-31,清算の結了等,,,2015-10-05,1,,,,,ショウデンシャ,0
1560,6110002031679,登記記録の閉鎖等,0,2023-08-03,2023-07-26,有限会社鈴木葬祭造花店,,有限会社,新潟県,見附市,今町５丁目３０番３４号,,15,211,9540111,,,2023-07-26,清算の結了等,,,2015-10-05,1,,,,,スズキソウサイゾウカテン,0
1572,6120101059752,登記記録の閉鎖等,0,2023-08-03,2023-08-01,株式会社ＮＥＯ,,株式会社,大阪府,堺市南区,深阪南３４３番地１１,,27,145,5900103,,,2023-08-01,合併による解散等,3120101053477,令和５年８月１日大阪府堺市西区浜寺船尾町東四丁５３番地１株式会社ＤＥＮＴＲＥＤ（3120101053477）に合併し解散,2019-04-24,1,,,,,ネオ,0
1581,6130001004130,登記記録の閉鎖等,0,2023-08-03,2023-07-18,株式会社レディースホテル西陣,,株式会社,京都府,京都市上京区,寺之内通大宮東入妙蓮寺前町３５５番地,,26,102,6028418,,,2023-07-18,清算の結了等,,,2015-10-05,1,,,,,レディースホテルニシジン,0
1582,6130001008197,登記記録の閉鎖等,0,2023-08-03,2023-07-11,株式会社コンパスコーポレーション,,株式会社,京都府,京都市西京区,山田南山田町２２番地５,,26,111,6158266,,,2023-07-11,清算の結了等,,,2015-10-05,1,,,,,コンパスコーポレーション,0
1583,6130001041058,登記記録の閉鎖等,0,2023-08-03,2023-07-20,株式会社山陰テクノサービス,,株式会社,京都府,福知山市,字大門４４番地１１１,,26,201,6200952,,,2023-07-20,清算の結了等,,,2015-10-05,1,,,,,サンインテクノサービス,0
1604,6180001032424,登記記録の閉鎖等,0,2023-08-03,2023-07-31,株式会社文化堂,,株式会社,愛知県,名古屋市中区,栄１丁目１７番１６号藤和シティコープ栄６０３号,,23,106,4600008,,,2023-07-31,清算の結了等,,,2015-10-05,1,,,,,ブンカドウ,0
1607,6180001037051,登記記録の閉鎖等,0,2023-08-03,2023-07-31,株式会社シルクライン,,株式会社,愛知県,名古屋市千種区,大島町１丁目２０番地,,23,101,4640833,,,2023-07-31,清算の結了等,,,2015-10-05,1,,,,,シルクライン,0
1616,6180002024742,登記記録の閉鎖等,0,2023-08-03,2023-08-01,有限会社丸和,,有限会社,愛知県,名古屋市西区,城町１１６番地,,23,104,4520842,,,2023-08-01,合併による解散等,8180002043170,令和５年８月１日名古屋市西区城町１４４番地株式会社さくら商事（8180002043170）に合併し解散,2015-10-05,1,,,,,マルワ,0
1638,6240001032780,登記記録の閉鎖等,0,2023-08-03,2023-07-31,株式会社福山不動,,株式会社,広島県,福山市,駅家町大字弥生ケ丘１０番地の５１３,,34,207,7201135,,,2023-07-31,清算の結了等,,,2015-10-05,1,,,,,フクヤマフドウ,0
1646,6240002037481,登記記録の閉鎖等,0,2023-08-03,2023-07-31,有限会社オータム,,有限会社,広島県,廿日市市,阿品台５丁目７番２０号,,34,213,7380053,,,2023-07-31,清算の結了等,,,2015-10-05,1,,,,,オータム,0
1655,6280005005127,登記記録の閉鎖等,0,2023-08-03,2023-07-28,学校法人六日市学園,,その他の設立登記法人,島根県,鹿足郡吉賀町,真田１１２０番地,,32,505,6995521,,,2023-07-28,清算の結了等,,,2015-10-05,1,,,,,ムイカイチガクエン,0
1679,6370003001985,登記記録の閉鎖等,0,2023-08-03,2023-07-24,合同会社ＦＲＯＮＴ　ＬＩＮＥ,,合同会社,秋田県,秋田市,飯島字坂道端２８番地６,,05,201,0110911,,,2023-07-24,清算の結了等,,,2015-10-05,1,,,,,フロントライン,0
1680,6370602000628,登記記録の閉鎖等,0,2023-08-03,2023-07-27,有限会社コーポレート・デザイン,,有限会社,宮城県,宮城郡利府町,春日字勝負沢６２番地の２２,,04,406,9810102,,,2023-07-27,清算の結了等,,,2015-10-05,1,,,,,コーポレートデザイン,0
1685,6420003002672,登記記録の閉鎖等,0,2023-08-03,2023-07-21,合同会社ＡｄｖａｎｃｅｄＷｏｒｋｓ,,合同会社,青森県,八戸市,大字新井田字石動木平４４番地４１ハイカムールＳＴ秀３０６号室,,02,203,0310813,,,2023-07-21,清算の結了等,,,2023-03-01,1,,,,,アドバンスワークス,0
1691,6460101000335,登記記録の閉鎖等,0,2023-08-03,2023-07-28,帯広プロパン株式会社,,株式会社,北海道,帯広市,西十六条南４丁目３９番１０号,,01,207,0800026,,,2023-07-28,合併による解散等,6430001001576,令和５年７月１日札幌市中央区南八条西六丁目１０３６番地株式会社いちたかガスワン（6430001001576）に合併し解散,2015-10-05,1,,,,,オビヒロプロパン,0
1696,6500001008440,登記記録の閉鎖等,0,2023-08-03,2023-08-01,株式会社丸商サービス,,株式会社,愛媛県,八幡浜市,１５８１番地２２,,38,204,7960088,,,2023-08-01,合併による解散等,2500001008436,令和５年８月１日愛媛県八幡浜市字沖新田１５８１番地２２丸回企業株式会社（2500001008436）に合併し解散,2015-10-05,1,,,,,マルショウサービス,0
1701,6500002012177,登記記録の閉鎖等,0,2023-08-03,2023-08-01,長浜陸運有限会社,,有限会社,愛媛県,大洲市,長浜町拓海３番地２６,,38,207,7993413,,,2023-08-01,合併による解散等,2500001008436,令和５年８月１日愛媛県八幡浜市字沖新田１５８１番地２２丸回企業株式会社（2500001008436）に合併し解散,2015-10-05,1,,,,,ナガハマリクウン,0
1717,7010005019771,登記記録の閉鎖等,0,2023-08-03,2023-07-28,一般社団法人サポートホールディングス１０号,,その他の設立登記法人,東京都,千代田区,丸の内３丁目１番１号東京共同会計事務所内,,13,101,1000005,,,2023-07-28,清算の結了等,,,2015-10-05,1,,,,,サポートホールディングスジュウゴウ,0
1720,7010005026438,登記記録の閉鎖等,0,2023-08-03,2023-07-28,一般社団法人サポートホールディングスＪＲＥ福智,,その他の設立登記法人,東京都,千代田区,丸の内３丁目１番１号東京共同会計事務所内,,13,101,1000005,,,2023-07-28,清算の結了等,,,2017-02-17,1,,,,,サポートホールディングスジェイアールイーフクチ,0
1725,7010401130520,登記記録の閉鎖等,0,2023-08-03,2023-07-10,株式会社スキャンラインズデジタル,,株式会社,東京都,港区,南青山４丁目１６番１１号アールスクエア南青山２１１,,13,103,1070062,,,2023-07-10,清算の結了等,,,2017-03-30,1,,,,,スキャンラインズデジタル,0
1729,7010403015091,登記記録の閉鎖等,0,2023-08-03,2023-07-10,ｗＡｔｅｌｉｅｒ合同会社,,合同会社,東京都,港区,南麻布２丁目９番１１－４０３号,,13,103,1060047,,,2023-07-10,清算の結了等,,,2016-08-17,1,,,,,ワトリエ,0
1737,7010701032284,登記記録の閉鎖等,0,2023-08-03,2023-08-01,ヘルメス株式会社,,株式会社,東京都,品川区,荏原６丁目１８番１６号,,13,109,1420063,,,2023-08-01,合併による解散等,3010001134529,令和５年８月１日東京都品川区荏原六丁目１８番１６号ウェルス・インベストメンツ株式会社（3010001134529）に合併し解散,2016-04-15,1,,,,,ヘルメス,0
1742,7010902023462,登記記録の閉鎖等,0,2023-08-03,2023-07-31,有限会社ファンタジスタ,,有限会社,東京都,世田谷区,深沢２丁目２番１６号,,13,112,1580081,,,2023-07-31,清算の結了等,,,2015-10-05,1,,,,,ファンタジスタ,0
1764,7011702010650,登記記録の閉鎖等,0,2023-08-03,2023-07-31,有限会社真下工務店,,有限会社,東京都,江戸川区,西小岩１丁目５番１９号,,13,123,1330057,,,2023-07-31,清算の結了等,,,2015-10-05,1,,,,,マシモコウムテン,0
1786,7021001074099,登記記録の閉鎖等,0,2023-08-03,2023-07-31,モリマーテックラボ株式会社,,株式会社,神奈川県,相模原市中央区,宮下１丁目２番２７号,,14,152,2520212,,,2023-07-31,清算の結了等,,,2021-10-06,1,,,,,モリマーテックラボ,0
1788,7021002065411,登記記録の閉鎖等,0,2023-08-03,2023-07-31,有限会社たかのや,,有限会社,神奈川県,横須賀市,長井３丁目３０番３０号,,14,201,2380316,,,2023-07-31,清算の結了等,,,2015-10-05,1,,,,,タカノヤ,0
1793,7030002022339,登記記録の閉鎖等,0,2023-08-03,2023-07-11,有限会社タカノ,,有限会社,埼玉県,蓮田市,関山２丁目６番１３号,,11,238,3490121,,,2023-07-11,清算の結了等,,,2015-10-05,1,,,,,タカノ,0
1811,7080101012970,登記記録の閉鎖等,0,2023-08-03,2023-07-31,株式会社北前船,,株式会社,静岡県,熱海市,伊豆山２６２番地２４の１１０２号,,22,205,4130002,,,2023-07-31,清算の結了等,,,2015-10-05,1,,,,,キタマエブネ,0
1815,7100002002498,登記記録の閉鎖等,0,2023-08-03,2023-07-31,有限会社純正堂,,有限会社,長野県,長野市,大字鶴賀字腰巻２３７３番イ－１,,20,201,3800907,,,2023-07-31,清算の結了等,,,2015-10-05,1,,,,,ジュンセイドウ,0
1816,7100002017926,登記記録の閉鎖等,0,2023-08-03,2023-07-31,有限会社三信電業社,,有限会社,長野県,中野市,大字中野２８８番地１,,20,211,3830013,,,2023-07-31,清算の結了等,,,2015-10-05,1,,,,,サンシンデンギョウシャ,0
1821,7110001029995,登記記録の閉鎖等,0,2023-08-03,2023-07-26,日本刀剣株式会社,,株式会社,新潟県,三条市,荒町２丁目２６番７号,,15,204,9550083,,,2023-07-26,清算の結了等,,,2015-10-05,1,,,,,ニホントウケン,0
1826,7120001081681,登記記録の閉鎖等,0,2023-08-03,2023-07-21,昭和化成株式会社,,株式会社,大阪府,大阪市中央区,谷町２丁目３番６－５０３号,,27,128,5400012,,,2023-07-21,清算の結了等,,,2015-10-05,1,,,,,ショウワカセイ,0
1828,7120001156038,登記記録の閉鎖等,0,2023-08-03,2023-08-02,株式会社清風印刷,,株式会社,大阪府,守口市,神木町７番１２－１０２号,,27,209,5700024,,,2023-08-02,清算の結了等,,,2015-10-05,1,,,,,セイフウインサツ,0
1829,7120001164065,登記記録の閉鎖等,0,2023-08-03,2023-08-01,株式会社シンデレラ,,株式会社,大阪府,大阪市中央区,南船場１丁目１３番１５号長堀三栄プラザ３１０号,,27,128,5420081,,,2023-08-01,清算の結了等,,,2015-10-05,1,,,,,シンデレラ,0
1831,7120001172241,登記記録の閉鎖等,0,2023-08-03,2023-07-31,株式会社日本オンリーフェイス協会,,株式会社,大阪府,大阪市住吉区,上住吉１丁目６番２１－４０６号,,27,120,5580046,,,2023-07-31,清算の結了等,,,2015-10-05,1,,,,,ニホンオンリーフェイスキョウカイ,0
1845,7120101067705,登記記録の閉鎖等,0,2023-08-03,2023-07-19,近畿産業株式会社,,株式会社,大阪府,貝塚市,近木９６０番地,,27,208,5970001,,,2023-07-19,清算の結了等,,,2023-06-13,1,,,,,キンキサンギョウ,0
1860,7140001109035,登記記録の閉鎖等,0,2023-08-03,2023-07-28,株式会社米兵衛,,株式会社,兵庫県,神戸市北区,道場町生野４５２番地,,28,109,6511503,,,2023-07-28,清算の結了等,,,2018-02-05,1,,,,,コメベイ,0
1875,7160001021485,登記記録の閉鎖等,0,2023-08-03,2023-07-31,株式会社森野エンジニアリング,,株式会社,滋賀県,大津市,真野６丁目３番８号,,25,201,5200232,,,2023-07-31,清算の結了等,,,2019-02-15,1,,,,,モリノエンジニアリング,0
1881,7180001051134,登記記録の閉鎖等,0,2023-08-03,2023-07-31,株式会社ブレイングループドットコム,,株式会社,愛知県,名古屋市中区,栄３丁目２番３号,,23,106,4600008,,,2023-07-31,清算の結了等,,,2015-10-05,1,,,,,ブレイングループドットコム,0
1887,7180001110096,登記記録の閉鎖等,0,2023-08-03,2023-08-01,株式会社ビアジャポン,,株式会社,愛知県,名古屋市西区,笠取町２丁目１３１番地,,23,104,4510072,,,2023-08-01,合併による解散等,4180001153321,令和５年８月１日愛知県北名古屋市九之坪天下地１５８番地コーポアリオン１０６号室サングラン株式会社（4180001153321）に合併し解散,2015-10-05,1,,,,,ビアジャポン,0
1903,7190002014436,登記記録の閉鎖等,0,2023-08-03,2023-07-24,有限会社松田屋家具店,,有限会社,三重県,松阪市,本町２１６６番地,,24,204,5150081,,,2023-07-24,清算の結了等,,,2015-10-05,1,,,,,マツダヤカグテン,0
1906,7190002023998,登記記録の閉鎖等,0,2023-08-03,2023-07-25,有限会社湯の山パーキングセンター,,有限会社,三重県,三重郡菰野町,大字菰野８５１９番地の１,,24,341,5101233,,,2023-07-25,清算の結了等,,,2015-10-05,1,,,,,ユノヤマパーキングセンター,0
1914,7210001008221,登記記録の閉鎖等,0,2023-08-03,2023-07-11,株式会社サイバービジョン,,株式会社,福井県,福井市,田原２丁目１６番１７号,,18,201,9100018,,,2023-07-11,合併による解散等,1210001015660,令和５年７月１日福井市田原二丁目１６番１７号株式会社ＣＶ（1210001015660）に合併し解散,2015-10-05,1,,,,,サイバービジョン,0
1920,7240001001231,登記記録の閉鎖等,0,2023-08-03,2023-07-31,株式会社英,,株式会社,広島県,広島市中区,本通９番６－３号,,34,101,7300035,,,2023-07-31,清算の結了等,,,2015-10-05,1,,,,,エイ,0
1924,7240002041961,登記記録の閉鎖等,0,2023-08-03,2023-07-28,有限会社トータス設計,,有限会社,広島県,福山市,西町３丁目１４番１１号１１２,,34,207,7200067,,,2023-07-28,清算の結了等,,,2015-10-05,1,,,,,トータスセッケイ,0
1948,7290002051147,登記記録の閉鎖等,0,2023-08-03,2023-07-19,有限会社東久留米商事,,有限会社,福岡県,久留米市,善導寺町飯田５６６番地,,40,203,8390824,,,2023-07-19,清算の結了等,,,2015-10-05,1,,,,,ヒガシクルメショウジ,0
1980,7460003000837,登記記録の閉鎖等,0,2023-08-03,2023-07-28,合同会社ニーナ福祉会,,合同会社,北海道,釧路市,昭和中央６丁目５番２０号,,01,206,0840910,,,2023-07-28,清算の結了等,,,2021-04-21,1,,,,,ニーナフクシカイ,0
1986,7490002010198,登記記録の閉鎖等,0,2023-08-03,2023-08-01,有限会社ひこうきぐも,,有限会社,高知県,高岡郡日高村,岩目地６９３番地１,,39,410,7812154,,,2023-08-01,清算の結了等,,,2015-10-05,1,,,,,ヒコウキグモ,0
2009,8010005022915,登記記録の閉鎖等,0,2023-08-03,2023-07-28,一般社団法人サポートホールディングスＪＲＥ福岡赤村,,その他の設立登記法人,東京都,千代田区,丸の内３丁目１番１号東京共同会計事務所内,,13,101,1000005,,,2023-07-28,清算の結了等,,,2015-10-05,1,,,,,サポートホールディングスジェイアールイーフクオカアカムラ,0
2010,8010005026718,登記記録の閉鎖等,0,2023-08-03,2023-07-28,一般社団法人サポートホールディングスＪＲＥ高島,,その他の設立登記法人,東京都,千代田区,丸の内３丁目１番１号東京共同会計事務所内,,13,101,1000005,,,2023-07-28,清算の結了等,,,2017-04-11,1,,,,,サポートホールディングスジェイアールイータカシマ,0
2013,8010101010179,登記記録の閉鎖等,0,2023-08-03,2023-07-27,東和建設株式会社,,株式会社,東京都,八王子市,子安町１丁目９番４号,,13,201,1920904,,,2023-07-27,清算の結了等,,,2015-10-05,1,,,,,トウワケンセツ,0
2022,8010401147811,登記記録の閉鎖等,0,2023-08-03,2023-07-10,株式会社カナエグループ,,株式会社,東京都,港区,高輪４丁目１５番７－４０７号,,13,103,1080074,,,2023-07-10,清算の結了等,,,2019-09-04,1,,,,,カナエグループ,0
2048,8011001068621,登記記録の閉鎖等,0,2023-08-03,2023-07-31,株式会社ソーシャルマーケティングリサーチ,,株式会社,東京都,品川区,東五反田２丁目１０番１－８０１号,,13,109,1410022,,,2023-07-31,清算の結了等,,,2015-10-05,1,,,,,ソーシャルマーケティングリサーチ,0
2057,8011005001520,登記記録の閉鎖等,0,2023-08-03,2023-07-24,特定非営利活動法人表装文化伝承支援協会,,その他の設立登記法人,東京都,渋谷区,神宮前６丁目１７番１４号,,13,113,1500001,,,2023-07-24,清算の結了等,,,2015-10-05,1,,,,,ヒョウソウブンカデンショウシエンキョウカイ,0
2065,8011103011792,登記記録の閉鎖等,0,2023-08-03,2023-08-01,合同会社ジェイ・エス・エイチ,,合同会社,東京都,新宿区,下宮比町１番４号,,13,104,1620822,,,2023-08-01,清算の結了等,,,2022-05-27,1,,,,,ジェイエスエイチ,0
2079,8011705001167,登記記録の閉鎖等,0,2023-08-03,2023-07-31,一般社団法人日本ビューティウェルネス育成機構,,その他の設立登記法人,東京都,江戸川区,小松川３丁目１３番１－８０４号,,13,123,1320034,,,2023-07-31,清算の結了等,,,2015-10-05,1,,,,,ニホンビューティウェルネスイクセイキコウ,0
2099,8020001147302,登記記録の閉鎖等,0,2023-08-03,2023-07-21,フェニックス株式会社,,株式会社,神奈川県,横浜市鶴見区,生麦４丁目６番１５－２０４号,,14,101,2300052,,,2023-07-21,清算の結了等,,,2022-07-12,1,,,,,フェニックス,0
2109,8021001075303,登記記録の閉鎖等,0,2023-08-03,2023-07-31,シーベル株式会社,,株式会社,神奈川県,三浦郡葉山町,長柄１３９４番地の６,,14,301,2400113,,,2023-07-31,清算の結了等,,,2022-03-08,1,,,,,シーベル,0
2111,8021002023830,登記記録の閉鎖等,0,2023-08-03,2023-07-31,有限会社藤野電業,,有限会社,神奈川県,相模原市南区,上鶴間本町９丁目１６番５－４０７号,,14,153,2520318,,,2023-07-31,清算の結了等,,,2015-10-05,1,,,,,,0
2116,8030005009638,登記記録の閉鎖等,0,2023-08-03,2023-07-07,特定非営利活動法人地域生活支援協会,,その他の設立登記法人,埼玉県,本庄市,四季の里１丁目１５番１１号,,11,211,3670039,,,2023-07-07,清算の結了等,,,2015-10-05,1,,,,,チイキセイカツシエンキョウカイ,0
2126,8070002033174,登記記録の閉鎖等,0,2023-08-03,2023-07-27,有限会社大日製作所,,有限会社,群馬県,館林市,台宿町５番１８号,,10,207,3740068,,,2023-07-27,清算の結了等,,,2015-10-05,1,,,,,オオニチセイサクジョ,0
2130,8080401013412,登記記録の閉鎖等,0,2023-08-03,2023-08-01,株式会社プラティス,,株式会社,静岡県,浜松市西区,大平台２丁目３０番４３号,,22,133,4328068,,,2023-08-01,合併による解散等,9080401004963,令和５年８月１日静岡県浜松市西区入野町２０００２番地の２８株式会社マストレ（9080401004963）に合併し解散,2015-10-05,1,,,,,プラティス,0
2139,8120001041750,登記記録の閉鎖等,0,2023-08-03,2023-08-01,株式会社エスメット,,株式会社,大阪府,大阪市西区,南堀江１丁目１８番２７号,,27,106,5500015,,,2023-08-01,清算の結了等,,,2015-10-05,1,,,,,エスメット,0
2151,8120002007346,登記記録の閉鎖等,0,2023-08-03,2023-08-02,有限会社増井刃物研磨所,,有限会社,大阪府,大阪市東成区,中道２丁目２番２１号,,27,115,5370025,,,2023-08-02,清算の結了等,,,2015-10-05,1,,,,,マスイハモノケンマショ,0
2165,8130003002691,登記記録の閉鎖等,0,2023-08-03,2023-07-19,日本紅日合資会社,,合資会社,京都府,綴喜郡宇治田原町,大字郷之口小字畷之浦９番地,,26,344,6100255,,,2023-07-19,清算の結了等,,,2015-10-05,1,,,,,ニホンコウニチ,0
2172,8140002042894,登記記録の閉鎖等,0,2023-08-03,2023-07-05,有限会社モリデン,,有限会社,兵庫県,尼崎市,大庄中通３丁目８番１１号,,28,202,6600075,,,2023-07-05,清算の結了等,,,2015-10-05,1,,,,,モリデン,0
2184,8180001081931,登記記録の閉鎖等,0,2023-08-03,2023-07-27,アイ電子工業株式会社,,株式会社,愛知県,一宮市,和光２丁目１０番１号,,23,203,4910026,,,2023-07-27,清算の結了等,,,2015-10-05,1,,,,,アイデンシコウギョウ,0
2189,8180002088364,登記記録の閉鎖等,0,2023-08-03,2023-07-31,新美殖産有限会社,,有限会社,愛知県,知多市,長浦１丁目１５３番地,,23,224,4780042,,,2023-07-31,清算の結了等,,,2015-10-05,1,,,,,ニイミショクサン,0
2194,8180301022890,登記記録の閉鎖等,0,2023-08-03,2023-07-26,古川グリーンサービス株式会社,,株式会社,愛知県,西尾市,笹曽根町寺前３７番地,,23,213,4450053,,,2023-07-26,清算の結了等,,,2015-10-05,1,,,,,フルカワグリーンサービス,0
2223,8290001086820,登記記録の閉鎖等,0,2023-08-03,2023-07-19,株式会社サクセス美百,,株式会社,福岡県,久留米市,大善寺町宮本６８５番地１,,40,203,8300073,,,2023-07-19,清算の結了等,,,2019-10-11,1,,,,,サクセスビヒャク,0
2225,8290002049520,登記記録の閉鎖等,0,2023-08-03,2023-07-19,有限会社テイ・アンド・エス,,有限会社,福岡県,久留米市,梅満町１１２７番地の３新生マンション花畑西５０５号,,40,203,8300048,,,2023-07-19,清算の結了等,,,2015-10-05,1,,,,,テイアンドエス,0
2244,8340002016382,登記記録の閉鎖等,0,2023-08-03,2023-07-31,有限会社ロード物流,,有限会社,鹿児島県,薩摩川内市,中郷町２２８３番地,,46,215,8950072,,,2023-07-31,清算の結了等,,,2015-10-05,1,,,,,ロードブツリュウ,0
2259,8380002031584,登記記録の閉鎖等,0,2023-08-03,2023-07-26,有限会社川崎会計センター,00084154,有限会社,福島県,会津若松市,花春町７番１２号,,07,202,9650804,,,2023-07-26,清算の結了等,,,2015-10-05,1,,,,,カワサキカイケイセンター,0
2261,8390001005480,登記記録の閉鎖等,0,2023-08-03,2023-07-31,株式会社メディアセンス,,株式会社,山形県,山形市,本町１丁目７番１７号,,06,201,9900043,,,2023-07-31,清算の結了等,,,2015-10-05,1,,,,,メディアセンス,0
2266,8430005001463,登記記録の閉鎖等,0,2023-08-03,2023-07-03,医療法人白石中央病院,,その他の設立登記法人,北海道,札幌市白石区,平和通３丁目北２番３号,,01,104,0030029,,,2023-07-03,合併による解散等,5430005001516,令和５年７月３日札幌市豊平区月寒東一条十五丁目７番２０号社会医療法人柏葉会（5430005001516）に合併し解散,2015-10-05,1,,,,,シロイシチュウオウビョウイン,0
2276,8500002018783,登記記録の閉鎖等,0,2023-08-03,2023-07-31,鳥生建設有限会社,,有限会社,愛媛県,今治市,野間甲５６番地,,38,202,7940082,,,2023-07-31,清算の結了等,,,2015-10-05,1,,,,,トリウケンセツ,0
2290,9010001210316,登記記録の閉鎖等,0,2023-08-03,2023-07-25,株式会社ＴＯＬＥＤＯ,,株式会社,東京都,中央区,東日本橋２丁目２８番４号日本橋ＣＥＴビル２階,,13,102,1030004,,,2023-07-25,清算の結了等,,,2020-06-17,1,,,,,トレド,0
2299,9010005022889,登記記録の閉鎖等,0,2023-08-03,2023-07-28,一般社団法人サポートホールディングスＪＲＥ日高川,,その他の設立登記法人,東京都,千代田区,丸の内３丁目１番１号東京共同会計事務所内,,13,101,1000005,,,2023-07-28,清算の結了等,,,2015-10-05,1,,,,,サポートホールディングスジェイアールイーヒダカガワ,0
2301,9010102004674,登記記録の閉鎖等,0,2023-08-03,2023-07-31,有限会社東京広栄,,有限会社,東京都,八王子市,打越町２０１３番地の７,,13,201,1920911,,,2023-07-31,清算の結了等,,,2015-10-05,1,,,,,トウキョウコウエイ,0
2309,9010403015809,登記記録の閉鎖等,0,2023-08-03,2023-07-31,合同会社ハセガワリアルエステート,,合同会社,東京都,世田谷区,太子堂５丁目２２番５号,,13,112,1540004,,,2023-07-31,合併による解散等,7010903003182,令和５年７月３１日東京都世田谷区太子堂五丁目２２番５号合同会社ハセガワコンサルティング（7010903003182）に合併し解散,2016-12-22,1,,,,,ハセガワリアルエステート,0
2312,9010405012820,登記記録の閉鎖等,0,2023-08-03,2023-07-27,一般社団法人ウィメンズ・エンパワメント・イン・ファッション,,その他の設立登記法人,東京都,港区,元赤坂１丁目１番７号オリエント赤坂モートサイド１２０３号室,,13,103,1070051,,,2023-07-27,清算の結了等,,,2015-10-05,1,,,,,ウィメンズエンパワメントインファッション,0
2322,9011001128762,登記記録の閉鎖等,0,2023-08-03,2023-07-31,株式会社リブラ企画,,株式会社,東京都,府中市,東芝町１番地の６４エフユニバース１５０４,,13,206,1830043,,,2023-07-31,清算の結了等,,,2019-07-02,1,,,,,リブラキカク,0
2335,9011305000683,登記記録の閉鎖等,0,2023-08-03,2023-07-24,特定非営利活動法人グリーンフォーラム,,その他の設立登記法人,東京都,杉並区,善福寺４丁目５番２１号,,13,115,1670041,,,2023-07-24,清算の結了等,,,2015-10-05,1,,,,,グリーンフォーラム,0
2339,9011801021308,登記記録の閉鎖等,0,2023-08-03,2023-07-31,石井眼鏡製作所株式会社,,株式会社,東京都,葛飾区,堀切４丁目４３番８号,,13,122,1240006,,,2023-07-31,清算の結了等,,,2015-10-05,1,,,,,イシイガンキョウセイサクショ,0
2354,9020001059843,登記記録の閉鎖等,0,2023-08-03,2023-07-28,株式会社ＣＨＣ＆ＯＩＭ,,株式会社,東京都,世田谷区,池尻３丁目３番１号キドビル７Ｆ,,13,112,1540001,,,2023-07-28,清算の結了等,,,2015-10-05,1,,,,,シーエイチシーアンドオーアイエム,0
2371,9030002017898,登記記録の閉鎖等,0,2023-08-03,2023-07-10,株式会社宮企画,,株式会社,埼玉県,さいたま市大宮区,桜木町４丁目８８３番地１,,11,103,3300854,,,2023-07-10,合併による解散等,3030001000431,令和５年７月１日さいたま市中央区円阿弥五丁目８番４０号株式会社ＡＱ　Ｇｒｏｕｐ（3030001000431）に合併し解散,2015-10-05,1,,,,,ミヤキカク,0
2383,9040005010940,登記記録の閉鎖等,0,2023-08-03,2023-06-19,妙泉寺,,その他の設立登記法人,千葉県,長生郡長柄町,鴇谷６２３番地,,12,426,2970215,,,2023-06-19,合併による解散等,4040005010929,令和５年６月１９日千葉県長生郡長柄町鴇谷５０８番地日輪寺（4040005010929）に合併し解散,2015-10-05,1,,,,,,0
2391,9080002002169,登記記録の閉鎖等,0,2023-08-03,2023-08-01,有限会社サイハン,,有限会社,静岡県,静岡市葵区,大岩３丁目８番２０号,,22,101,4200886,,,2023-08-01,清算の結了等,,,2015-10-05,1,,,,,サイハン,0
2425,9130005013604,登記記録の閉鎖等,0,2023-08-03,2023-07-03,一般社団法人太陽光発電検査協会,,その他の設立登記法人,京都府,京都市南区,上鳥羽金仏１３番地２,,26,107,6018175,,,2023-07-03,清算の結了等,,,2015-10-05,1,,,,,タイヨウコウハツデンケンサキョウカイ,0
2427,9140001017302,登記記録の閉鎖等,0,2023-08-03,2023-07-28,浦川電気工事株式会社,,株式会社,兵庫県,神戸市須磨区,東白川台５丁目４番地の６,,28,107,6540102,,,2023-07-28,清算の結了等,,,2015-10-05,1,,,,,ウラカワデンキコウジ,0
2429,9140001055780,登記記録の閉鎖等,0,2023-08-03,2023-08-01,株式会社ミーツ,,株式会社,奈良県,奈良市,あやめ池北２丁目５番２７号,,29,201,6310032,,,2023-08-01,清算の結了等,,,2015-10-05,1,,,,,ミーツ,0
2430,9140001098565,登記記録の閉鎖等,0,2023-08-03,2023-08-01,株式会社ラミール・エトワル,,株式会社,兵庫県,神戸市中央区,京町７６番地の１,,28,110,6500034,,,2023-08-01,合併による解散等,2140001019726,令和５年８月１日神戸市中央区京町７６番地の１株式会社ラミール（2140001019726）に合併し解散,2015-10-05,1,,,,,ラミールエトワル,0
2439,9150001015593,登記記録の閉鎖等,0,2023-08-03,2023-08-01,丸紅林業株式会社,,株式会社,奈良県,五條市,二見６丁目２番１７号,,29,207,6370071,,,2023-08-01,清算の結了等,,,2015-10-05,1,,,,,マルベニリンギョウ,0
2449,9180001080692,登記記録の閉鎖等,0,2023-08-03,2023-07-31,株式会社石田鉄工所,,株式会社,愛知県,犬山市,大字犬山字西古券２１９番地,,23,215,4840085,,,2023-07-31,清算の結了等,,,2015-10-05,1,,,,,イシダテッコウショ,0
2451,9180001149323,登記記録の閉鎖等,0,2023-08-03,2023-07-26,リソナンス株式会社,,株式会社,愛知県,名古屋市名東区,にじが丘１丁目１２番地の２－７０８号,,23,115,4650078,,,2023-07-26,清算の結了等,,,2022-01-05,1,,,,,リソナンス,0
2461,9190001017446,登記記録の閉鎖等,0,2023-08-03,2023-07-25,株式会社東海ハウス,,株式会社,三重県,三重郡菰野町,大字竹成１２１１番地の７,,24,341,5101312,,,2023-07-25,清算の結了等,,,2015-10-05,1,,,,,トウカイハウス,0
2464,9200001041279,登記記録の閉鎖等,0,2023-08-03,2023-07-31,株式会社カネ政製陶所,,株式会社,岐阜県,多治見市,滝呂町９丁目６７番地,,21,204,5070813,,,2023-07-31,清算の結了等,,,2023-05-22,1,,,,,カネマサセイトウショ,0
2466,9200002004276,登記記録の閉鎖等,0,2023-08-03,2023-07-31,有限会社マキクレーン,,有限会社,岐阜県,岐阜市,日野東３丁目１２番１９号,,21,201,5008211,,,2023-07-31,清算の結了等,,,2015-10-05,1,,,,,マキクレーン,0
2475,9230002010494,登記記録の閉鎖等,0,2023-08-03,2023-08-01,有限会社ＡＴシステム開発,,有限会社,富山県,小矢部市,西福町１１番１３号,,16,209,9320042,,,2023-08-01,清算の結了等,,,2015-10-05,1,,,,,エーティーシステムカイハツ,0
2496,9290801019978,登記記録の閉鎖等,0,2023-08-03,2023-08-01,株式会社Ｋ＆Ｉ,,株式会社,福岡県,北九州市小倉北区,堺町１丁目９番１０号,,40,106,8020005,,,2023-08-01,合併による解散等,5290801000074,令和５年８月１日北九州市小倉北区堺町一丁目９番１０号６Ｆ株式会社アースコーポレーション（5290801000074）に合併し解散,2015-10-05,1,,,,,ケイアンドアイ,0
2498,9290802009920,登記記録の閉鎖等,0,2023-08-03,2023-08-01,有限会社加納工務店,,有限会社,福岡県,北九州市小倉南区,葛原東５丁目１０番２号,,40,107,8000206,,,2023-08-01,合併による解散等,7290801005105,令和５年８月１日北九州市門司区大字伊川１９５１番地の２株式会社イワイ工業（7290801005105）に合併し解散,2015-10-05,1,,,,,カノウコウムテン,0
2499,9290802013039,登記記録の閉鎖等,0,2023-08-03,2023-08-01,有限会社村井電気,,有限会社,福岡県,北九州市八幡西区,引野２丁目７番１７号,,40,109,8060067,,,2023-08-01,合併による解散等,1290801010746,令和５年８月１日北九州市八幡西区割子川二丁目１５番３４号株式会社山電（1290801010746）に合併し解散,2015-10-05,1,,,,,ムライデンキ,0
2502,9300002008052,登記記録の閉鎖等,0,2023-08-03,2023-08-01,有限会社イマリ美装工業,,有限会社,佐賀県,伊万里市,東山代町長浜字勝田一１８５０番地１,,41,205,8494271,,,2023-08-01,清算の結了等,,,2015-10-05,1,,,,,イマリビソウコウギョウ,0
2508,9370302000710,登記記録の閉鎖等,0,2023-08-03,2023-07-26,有限会社カネイ運送,,有限会社,宮城県,牡鹿郡女川町,浦宿浜字折下１番地,,04,581,9862231,,,2023-07-26,清算の結了等,,,2015-10-05,1,,,,,カネイウンソウ,0
2519,9390003001956,登記記録の閉鎖等,0,2023-08-03,2023-07-31,合同会社いえる,,合同会社,山形県,天童市,老野森２丁目７番２３号,,06,210,9940013,,,2023-07-31,清算の結了等,,,2022-05-17,1,,,,,イエル,0
2531,9440001006324,登記記録の閉鎖等,0,2023-08-03,2023-07-31,株式会社メタルズ函館,,株式会社,北海道,茅部郡森町,字駒ケ岳４３５番地,,01,345,0492141,,,2023-07-31,清算の結了等,,,2015-10-05,1,,,,,メタルズハコダテ,0
2534,9470001006668,登記記録の閉鎖等,0,2023-08-03,2023-07-31,高松管工株式会社,,株式会社,香川県,高松市,成合町８３０番地１８,,37,201,7618081,,,2023-07-31,清算の結了等,,,2015-10-05,1,,,,,タカマツカンコウ,0
