sequenceNumber,corporateNumber,process,correct,updateDate,changeDate,name,nameImageId,kind,prefectureName,cityName,streetNumber,addressImageId,prefectureCode,cityCode,postCode,addressOutside,addressOutsideImageId,closeDate,closeCause,successorCorporateNumber,changeCause,assignmentDate,latest,enName,enPrefectureName,enCityName,enAddressOutside,furigana,hihyoji
7,1010001232053,新規,0,2023-01-11,2023-01-11,株式会社ＤＯＳＣＡ,,株式会社,東京都,中央区,入船１丁目９番８号ピエノアーク入船１Ｆ,,13,102,1040042,,,,,,,2023-01-11,1,,,,,ドスカ,0
8,1010001232086,新規,0,2023-01-11,2023-01-11,株式会社キャノピー,,株式会社,東京都,千代田区,神田和泉町１－１－１４パシフィックビル１００１,,13,101,1010024,,,,,,,2023-01-11,1,,,,,キャノピー,0
10,1010003039496,新規,0,2023-01-11,2023-01-11,合同会社保証２３０１,,合同会社,東京都,中央区,日本橋１丁目４番１号日本橋一丁目ビルディング,,13,102,1030027,,,,,,,2023-01-11,1,,,,,ホショウニサンゼロイチ,0
11,1010005036054,新規,0,2023-01-11,2023-01-11,一般社団法人日本キッチンカー経営審議会,,その他の設立登記法人,東京都,千代田区,平河町１丁目７－５ヴィラロイヤル平河８０２,,13,101,1020093,,,,,,,2023-01-11,1,,,,,ニホンキッチンカーケイエイシンギカイ,0
12,1010005036062,新規,0,2023-01-11,2023-01-11,司法書士法人レキオリーガル,,その他の設立登記法人,東京都,中央区,銀座８丁目１８番７－３０６号,,13,102,1040061,,,,,,,2023-01-11,1,,,,,レキオリーガル,0
13,1010005036104,新規,0,2023-01-11,2023-01-11,一般社団法人日本心理セラピスト協会,,その他の設立登記法人,東京都,中央区,銀座１丁目２２番１１号銀座大竹ビジデンス２階,,13,102,1040061,,,,,,,2023-01-11,1,,,,,ニホンシンリセラピストキョウカイ,0
14,1010005036112,新規,0,2023-01-11,2023-01-11,一般社団法人百道浜開発,,その他の設立登記法人,東京都,千代田区,丸の内３丁目１番１号東京共同会計事務所内,,13,101,1000005,,,,,,,2023-01-11,1,,,,,モモチハマカイハツ,0
22,1010401171693,新規,0,2023-01-11,2023-01-11,株式会社ＲＯＷ,,株式会社,東京都,港区,南青山２丁目７番２４号,,13,103,1070062,,,,,,,2023-01-11,1,,,,,ロウ,0
23,1010401171719,新規,0,2023-01-11,2023-01-11,川嵐商事株式会社,,株式会社,東京都,港区,芝１丁目２番１－９０２号,,13,103,1050014,,,,,,,2023-01-11,1,,,,,カワアラシショウジ,0
24,1010401171727,新規,0,2023-01-11,2023-01-11,株式会社メディカルフロンティアホールディングス,,株式会社,東京都,港区,西新橋３丁目２５－３３フロンティア御成門６Ｆ,,13,103,1050003,,,,,,,2023-01-11,1,,,,,メディカルフロンティアホールディングス,0
25,1010401171735,新規,0,2023-01-11,2023-01-11,株式会社Ｆ１Ａｕｔｏ,,株式会社,東京都,港区,赤坂７丁目５－３４－４２７,,13,103,1070052,,,,,,,2023-01-11,1,,,,,エフワンオート,0
28,1010403029246,新規,0,2023-01-11,2023-01-11,合同会社Ｍａｎａｓｌｕ,,合同会社,東京都,港区,赤坂６丁目８番８－３０３号,,13,103,1070052,,,,,,,2023-01-11,1,,,,,マナスル,0
29,1010403029295,新規,0,2023-01-11,2023-01-11,Ｆｉｏ合同会社,,合同会社,東京都,港区,浜松町２丁目２－１５浜松町ダイヤビル２Ｆ,,13,103,1050013,,,,,,,2023-01-11,1,,,,,フィオ,0
32,1010501049831,新規,0,2023-01-11,2023-01-11,株式会社キヨスミ研究所,,株式会社,東京都,台東区,千束２丁目２７番４号,,13,106,1110031,,,,,,,2023-01-11,1,,,,,キヨスミケンキュウショ,0
33,1010501049848,新規,0,2023-01-11,2023-01-11,株式会社プロフェッショナルコンサルティング,,株式会社,東京都,台東区,小島２丁目２０－１１ＬＩＧビル１Ｆ,,13,106,1110056,,,,,,,2023-01-11,1,,,,,プロフェッショナルコンサルティング,0
35,1010601062404,新規,0,2023-01-11,2023-01-11,陸愛果株式会社,,株式会社,東京都,墨田区,両国２丁目１７番１７号両国ダイヤハイツ２０２－Ｊ,,13,107,1300026,,,,,,,2023-01-11,1,,,,,リクアイカ,0
37,1010801033576,新規,0,2023-01-11,2023-01-11,ＳｋｙＣｒｅｓｔホールディングス株式会社,,株式会社,東京都,大田区,田園調布１丁目３１番６号,,13,111,1450071,,,,,,,2023-01-11,1,,,,,スカイクレストホールディングス,0
38,1010801033584,新規,0,2023-01-11,2023-01-11,中華大元株式会社,,株式会社,東京都,大田区,西六郷１丁目４２番７号,,13,111,1440056,,,,,,,2023-01-11,1,,,,,チュウカダイゲン,0
42,1010803004419,新規,0,2023-01-11,2023-01-11,合同会社ｓｏｄａｔｅ,,合同会社,東京都,大田区,池上６丁目２４番９号,,13,111,1460082,,,,,,,2023-01-11,1,,,,,ソダテ,0
44,1010901052286,新規,0,2023-01-11,2023-01-11,ＳＴＴトラベル株式会社,,株式会社,東京都,世田谷区,経堂１丁目１９番７号セントラル経堂２１６号,,13,112,1560052,,,,,,,2023-01-11,1,,,,,エスティーティートラベル,0
47,1011003016031,新規,0,2023-01-11,2023-01-11,アイス・ゼブラ・アソシエイツ合同会社,,合同会社,東京都,目黒区,中目黒４丁目３番１４号ｃｏｃａｓａ－３０１,,13,110,1530061,,,,,,,2023-01-11,1,,,,,アイスゼブラアソシエイツ,0
48,1011003016048,新規,0,2023-01-11,2023-01-11,合同会社ＰＲ　Ｂｏａｒｄ,,合同会社,東京都,渋谷区,道玄坂１丁目１０番８号渋谷道玄坂東急ビル２Ｆ－Ｃ,,13,113,1500043,,,,,,,2023-01-11,1,,,,,ピーアールボード,0
56,1011101101420,新規,0,2023-01-11,2023-01-11,ＰｏｗｅｒＸｕｓ株式会社,,株式会社,東京都,新宿区,若葉１丁目９番地,,13,104,1600011,,,,,,,2023-01-11,1,,,,,パワーエクサス,0
58,1011203003977,新規,0,2023-01-11,2023-01-11,合同会社おばほる,,合同会社,東京都,中野区,中野２丁目２１番１６号,,13,114,1640001,,,,,,,2023-01-11,1,,,,,オバホル,0
59,1011205002531,新規,0,2023-01-11,2023-01-11,一般社団法人ＧＡＬＡＸＹ,,その他の設立登記法人,東京都,中野区,本町５丁目３４番４号,,13,114,1640012,,,,,,,2023-01-11,1,,,,,ギャラクシー,0
61,1011401024825,新規,0,2023-01-11,2023-01-11,株式会社アーリー・バード,,株式会社,東京都,板橋区,西台２丁目２８番２３号ゼファー西台２０３,,13,119,1750045,,,,,,,2023-01-11,1,,,,,アーリーバード,0
62,1011501028817,新規,0,2023-01-11,2023-01-11,株式会社かずまるーむ,,株式会社,東京都,北区,中十条３丁目３番１８号観空ＳＯＵＮＤＨＩＬＬ－２０２号,,13,117,1140032,,,,,,,2023-01-11,1,,,,,カズマルーム,0
70,1012403005763,新規,0,2023-01-11,2023-01-11,合同会社大野管財,,合同会社,東京都,稲城市,矢野口２０１２番地の１２,,13,225,2060812,,,,,,,2023-01-11,1,,,,,オオノカンザイ,0
84,1020001149635,新規,0,2023-01-11,2023-01-11,株式会社エアフォルク,,株式会社,神奈川県,横浜市鶴見区,豊岡町２８番６－１０１号,,14,101,2300062,,,,,,,2023-01-11,1,,,,,エアフォルク,0
85,1020001149668,新規,0,2023-01-11,2023-01-11,株式会社アステラス,,株式会社,神奈川県,横浜市金沢区,瀬戸１６番１号光栄堂ビル２階,,14,108,2360027,,,,,,,2023-01-11,1,,,,,アステラス,0
86,1020001149684,新規,0,2023-01-11,2023-01-11,ＴＯＦＷＥＲＫ株式会社,,株式会社,神奈川県,横浜市中区,元町４丁目１６８番地ＢＩＺｃｏｍｆｏｒｔ元町ビル,,14,104,2310861,,,,,,,2023-01-11,1,,,,,トフヴェルク,0
87,1020001149692,新規,0,2023-01-11,2023-01-11,株式会社ｍｅｒｉｄａ,,株式会社,神奈川県,横浜市神奈川区,栄町５－１,,14,102,2210052,,,,,,,2023-01-11,1,,,,,メリダ,0
88,1020001149718,新規,0,2023-01-11,2023-01-11,株式会社孝設,,株式会社,神奈川県,横浜市旭区,上川井町１７７番地２０,,14,112,2410802,,,,,,,2023-01-11,1,,,,,コウセツ,0
89,1020001149726,新規,0,2023-01-11,2023-01-11,株式会社リライズ,,株式会社,神奈川県,横浜市神奈川区,台町１番地８ウェイサイドビル９０４,,14,102,2210834,,,,,,,2023-01-11,1,,,,,リライズ,0
90,1020001149750,新規,0,2023-01-11,2023-01-11,株式会社未来,,株式会社,神奈川県,横浜市都筑区,佐江戸町３８７番地,,14,118,2240054,,,,,,,2023-01-11,1,,,,,ミライ,0
91,1020001149759,新規,0,2023-01-11,2023-01-11,株式会社ＭＯＳＴ,,株式会社,神奈川県,横浜市西区,北幸１丁目１－８エキニア横浜５階ＨａｍａＰｏｒｔ内,,14,103,2200004,,,,,,,2023-01-11,1,,,,,モスト,0
97,1020003023012,新規,0,2023-01-11,2023-01-11,合同会社ブレイズ,,合同会社,神奈川県,横浜市神奈川区,片倉５丁目１６番１号カサベルダ片倉町１階,,14,102,2210865,,,,,,,2023-01-11,1,,,,,ブレイズ,0
98,1020003023029,新規,0,2023-01-11,2023-01-11,合同会社ＫＧＡ‐Ｌａｂ,,合同会社,神奈川県,横浜市神奈川区,三枚町５０７番地１１,,14,102,2210862,,,,,,,2023-01-11,1,,,,,ケージーエーラボ,0
99,1020003023037,新規,0,2023-01-11,2023-01-11,カインドワイン合同会社,,合同会社,神奈川県,横浜市鶴見区,東寺尾４丁目９－４１,,14,101,2300077,,,,,,,2023-01-11,1,,,,,カインドワイン,0
100,1020003023053,新規,0,2023-01-11,2023-01-11,合同会社花方冷暖,,合同会社,神奈川県,横浜市金沢区,釜利谷西３丁目２５番１３号,,14,108,2360046,,,,,,,2023-01-11,1,,,,,ハナガタレイダン,0
101,1020003023078,新規,0,2023-01-11,2023-01-11,合同会社ＰＵＭＰ　ＩＴ　ＵＰ,,合同会社,神奈川県,横浜市神奈川区,西寺尾３丁目２７番９－３０３号,,14,102,2210001,,,,,,,2023-01-11,1,,,,,パンプイットアップ,0
111,1021001077867,新規,0,2023-01-11,2023-01-11,株式会社あおば沖縄九州,,株式会社,神奈川県,鎌倉市,大船１丁目１１番２３号上木ビル５Ｆ,,14,204,2470056,,,,,,,2023-01-11,1,,,,,アオバオキナワキュウシュウ,0
116,1021003012574,新規,0,2023-01-11,2023-01-11,合同会社百蘭,,合同会社,神奈川県,藤沢市,本鵠沼４丁目１１番５～２０２号,,14,205,2510028,,,,,,,2023-01-11,1,,,,,ビャクラン,0
117,1021003012582,新規,0,2023-01-11,2023-01-11,合同会社Ｓｗｉｔｃｈ,,合同会社,神奈川県,逗子市,小坪２丁目４番１２号,,14,208,2490008,,,,,,,2023-01-11,1,,,,,スイッチ,0
124,1030001151747,新規,0,2023-01-11,2023-01-11,株式会社ＮＴＣ,,株式会社,埼玉県,さいたま市見沼区,大和田町２丁目６７２番地,,11,104,3370053,,,,,,,2023-01-11,1,,,,,エヌティシー,0
125,1030001151813,新規,0,2023-01-11,2023-01-11,株式会社武蔵,,株式会社,埼玉県,上尾市,仲町２丁目１番１８号,,11,219,3620035,,,,,,,2023-01-11,1,,,,,ムサシ,0
126,1030001151821,新規,0,2023-01-11,2023-01-11,株式会社相続財産経営埼玉,,株式会社,埼玉県,所沢市,緑町４丁目７番１７号ＴＭビル２階,,11,208,3591111,,,,,,,2023-01-11,1,,,,,ソウゾクザイサンケイエイサイタマ,0
127,1030001151862,新規,0,2023-01-11,2023-01-11,株式会社ｉｅｍｏｒｉ,,株式会社,埼玉県,さいたま市桜区,田島４丁目１０番１６－２号,,11,106,3380837,,,,,,,2023-01-11,1,,,,,イエモリ,0
137,1030003020891,新規,0,2023-01-11,2023-01-11,合同会社カヌヌ,,合同会社,埼玉県,さいたま市見沼区,春岡１丁目３２番地１,,11,104,3370008,,,,,,,2023-01-11,1,,,,,カヌヌ,0
138,1030003020909,新規,0,2023-01-11,2023-01-11,合同会社仁王,,合同会社,埼玉県,所沢市,榎町２１－１７,,11,208,3591104,,,,,,,2023-01-11,1,,,,,ニオウ,0
139,1030003020925,新規,0,2023-01-11,2023-01-11,合同会社ＧＲＡＮＴＺ,,合同会社,埼玉県,春日部市,栄町１丁目２５７番地２伊藤ハイツ２０２,,11,214,3440058,,,,,,,2023-01-11,1,,,,,グランツ,0
140,1030003020933,新規,0,2023-01-11,2023-01-11,合同会社たけのこｐｒｏｊｅｃｔ,,合同会社,埼玉県,さいたま市緑区,大字三室２４００－８,,11,109,3360911,,,,,,,2023-01-11,1,,,,,タケノコプロジェクト,0
143,1040001126558,新規,0,2023-01-11,2023-01-11,株式会社宏繁,,株式会社,千葉県,千葉市若葉区,西都賀１丁目１７番１号サンスクエア都賀２０２号,,12,104,2640026,,,,,,,2023-01-11,1,,,,,ヒロシゲ,0
144,1040001126599,新規,0,2023-01-11,2023-01-11,株式会社グランレーヴ,,株式会社,千葉県,館山市,沼７７５,,12,205,2940034,,,,,,,2023-01-11,1,,,,,グランレーヴ,0
150,1040003021617,新規,0,2023-01-11,2023-01-11,ＡＲ　ＡＵＴＯ合同会社,,合同会社,千葉県,千葉市若葉区,富田町１０８０番地１８,,12,104,2650041,,,,,,,2023-01-11,1,,,,,エーアールオート,0
152,1040005021862,新規,0,2023-01-11,2023-01-11,弁護士法人千葉志法律事務所,,その他の設立登記法人,千葉県,千葉市中央区,登戸１丁目１５－３２キャピタル登戸３Ｆ,,12,101,2600032,,,,,,,2023-01-11,1,,,,,チバココロザシホウリツジムショ,0
154,1050001052200,新規,0,2023-01-11,2023-01-11,株式会社ワタナベグリーンシステムズ,,株式会社,茨城県,桜川市,上野原地新田１５７番地５,,08,231,3091226,,,,,,,2023-01-11,1,,,,,ワタナベグリーンシステムズ,0
160,1060001035583,新規,0,2023-01-11,2023-01-11,株式会社横尾電気,,株式会社,栃木県,那須塩原市,下厚崎２６４番地８９,,09,213,3250025,,,,,,,2023-01-11,1,,,,,ヨコオデンキ,0
164,1060003004371,新規,0,2023-01-11,2023-01-11,合同会社クリビア,,合同会社,栃木県,宇都宮市,御幸町７０番地５３,,09,201,3210984,,,,,,,2023-01-11,1,,,,,クリビア,0
168,1080001025392,新規,0,2023-01-11,2023-01-11,株式会社ＴＭコンサルタンツ,,株式会社,静岡県,静岡市葵区,紺屋町１７番地の１葵タワー１Ｆ,,22,101,4200852,,,,,,,2023-01-11,1,,,,,ティエムコンサルタンツ,0
169,1080101023742,新規,0,2023-01-11,2023-01-11,株式会社ラフィエンタープライズ,,株式会社,静岡県,富士市,平垣本町２番１１号２階,,22,210,4160913,,,,,,,2023-01-11,1,,,,,ラフィエンタープライズ,0
172,1080403004688,新規,0,2023-01-11,2023-01-11,天空ファーム合同会社,,合同会社,静岡県,浜松市天竜区,佐久間町川合３７１,,22,137,4313907,,,,,,,2023-01-11,1,,,,,テンクウファーム,0
173,1090003002224,新規,0,2023-01-11,2023-01-11,合同会社ＭＡ・Ｌ,,合同会社,山梨県,上野原市,上野原１９１８番地２,,19,212,4090112,,,,,,,2023-01-11,1,,,,,エムエーエル,0
175,1100001036024,新規,0,2023-01-11,2023-01-11,株式会社メンテピーク,,株式会社,長野県,諏訪郡原村,６１７５番地１６,,20,363,3910100,,,,,,,2023-01-11,1,,,,,メンテピーク,0
177,1100003006834,新規,0,2023-01-11,2023-01-11,稗田リゾート開発合同会社,,合同会社,長野県,北安曇郡白馬村,大字北城８３０－３１,,20,485,3999301,,,,,,,2023-01-11,1,,,,,ヒエダリゾートカイハツ,0
182,1110001037236,新規,0,2023-01-11,2023-01-11,株式会社フィルイスト,,株式会社,新潟県,新潟市西区,小針南台８番３号,,15,107,9502026,,,,,,,2023-01-11,1,,,,,フィルイスト,0
186,1120001075994,新規,0,2023-01-11,2023-01-11,株式会社エル,,株式会社,大阪府,大阪市中央区,淡路町２丁目３番９号,,27,128,5410047,,,,,,,2023-01-11,1,,,,,エル,0
192,1120001251538,新規,0,2023-01-11,2023-01-11,ヨシミツＰ＆Ｃ株式会社,,株式会社,大阪府,大阪市中央区,本町橋５番１４号オージービル本町橋５０１号,,27,128,5400029,,,,,,,2023-01-11,1,,,,,ヨシミツピーアンドシー,0
193,1120001251570,新規,0,2023-01-11,2023-01-11,株式会社アルベプラス,,株式会社,大阪府,大阪市福島区,福島５丁目６番３８－１５０２号,,27,103,5530003,,,,,,,2023-01-11,1,,,,,アルベプラス,0
194,1120001251587,新規,0,2023-01-11,2023-01-11,Ｈ＆Ｒ電通株式会社,,株式会社,大阪府,大阪市西成区,天下茶屋東２丁目９番８－７号,,27,122,5570011,,,,,,,2023-01-11,1,,,,,エイチアンドアールデンツウ,0
195,1120001251629,新規,0,2023-01-11,2023-01-11,オスカージャパン株式会社,,株式会社,大阪府,大阪市北区,角田町８番４７号阪急グランドビル２０階,,27,127,5300017,,,,,,,2023-01-11,1,,,,,オスカージャパン,0
196,1120001251678,新規,0,2023-01-11,2023-01-11,株式会社家根川,,株式会社,大阪府,大阪市東住吉区,今林１丁目２番６８号大阪市中央卸売市場東部市場内,,27,121,5460001,,,,,,,2023-01-11,1,,,,,ヤネカワ,0
198,1120003023183,新規,0,2023-01-11,2023-01-11,関電エコスタイル太陽光発電ホールディングス合同会社,,合同会社,大阪府,大阪市北区,中之島３丁目６番１６号,,27,127,5300005,,,,,,,2023-01-11,1,,,,,カンデンエコスタイルタイヨウコウハツデンホールディングス,0
199,1120003023191,新規,0,2023-01-11,2023-01-11,合同会社Ｍｅｒｃｕｒｉｕｓ,,合同会社,大阪府,大阪市淀川区,西宮原２丁目７番５３号,,27,123,5320004,,,,,,,2023-01-11,1,,,,,メルクリウス,0
201,1120101066786,新規,0,2023-01-11,2023-01-11,株式会社ハルタス,,株式会社,大阪府,堺市中区,陶器北４８９番地５,,27,142,5998242,,,,,,,2023-01-11,1,,,,,ハルタス,0
202,1120101066794,新規,0,2023-01-11,2023-01-11,ＢｌｕｅＣｒｅｓｔ株式会社,,株式会社,大阪府,堺市堺区,北波止町１０番地,,27,141,5900986,,,,,,,2023-01-11,1,,,,,ブルークレスト,0
205,1120103005008,新規,0,2023-01-11,2023-01-11,合同会社平川防災,,合同会社,大阪府,堺市北区,黒土町１４番地８,,27,146,5918024,,,,,,,2023-01-11,1,,,,,ヒラカワボウサイ,0
206,1120103005024,新規,0,2023-01-11,2023-01-11,合同会社Ｓｅｒｅｎｉｔｅ,,合同会社,大阪府,堺市北区,長曽根町１２５１番地パークサイド新金岡１０５号,,27,146,5918025,,,,,,,2023-01-11,1,,,,,セレニテ,0
214,1130001073436,新規,0,2023-01-11,2023-01-11,株式会社ハジメ印刷,,株式会社,京都府,京都市中京区,西ノ京車坂町１－６,,26,104,6048405,,,,,,,2023-01-11,1,,,,,ハジメインサツ,0
223,1140001128619,新規,0,2023-01-11,2023-01-11,株式会社Ａｎｇｅ,,株式会社,兵庫県,宝塚市,末成町１９番２４号,,28,214,6650044,,,,,,,2023-01-11,1,,,,,アンジュ,0
224,1140001128627,新規,0,2023-01-11,2023-01-11,株式会社Ｅ‐ｌａｂｏ,,株式会社,兵庫県,西宮市,甲風園１丁目５－５増田ビル４Ｆ,,28,204,6620832,,,,,,,2023-01-11,1,,,,,イーラボ,0
225,1140001128651,新規,0,2023-01-11,2023-01-11,グッドストック株式会社,,株式会社,兵庫県,神崎郡福崎町,福崎新２２０番地３,,28,443,6792214,,,,,,,2023-01-11,1,,,,,グッドストック,0
226,1140001128668,新規,0,2023-01-11,2023-01-11,株式会社松一,,株式会社,兵庫県,神戸市須磨区,大黒町２丁目３番１４号,,28,107,6540022,,,,,,,2023-01-11,1,,,,,マツイチ,0
229,1140003018529,新規,0,2023-01-11,2023-01-11,ラ・グレース合同会社,,合同会社,兵庫県,西宮市,美作町２番１７号,,28,204,6620095,,,,,,,2023-01-11,1,,,,,ラグレース,0
230,1140003018545,新規,0,2023-01-11,2023-01-11,ｋｏｋｕａ．合同会社,,合同会社,兵庫県,芦屋市,茶屋之町６番８－６０５号,,28,206,6590067,,,,,,,2023-01-11,1,,,,,コクア,0
232,1140005026439,新規,0,2023-01-11,2023-01-11,医療法人社団ＩＭＣ,,その他の設立登記法人,兵庫県,神戸市中央区,脇浜海岸通２丁目３番５号１階,,28,110,6510073,,,,,,,2023-01-11,1,,,,,アイエムシー,0
239,1160001024766,新規,0,2023-01-11,2023-01-11,株式会社トップアスリート,,株式会社,滋賀県,長浜市,平方町６６８－９エクセルハイツ弐番館１Ｆ西,,25,203,5260033,,,,,,,2023-01-11,1,,,,,トップアスリート,0
240,1170001017430,新規,0,2023-01-11,2023-01-11,株式会社村中兄弟,,株式会社,和歌山県,有田郡有田川町,大字西丹生図４５４番地,,30,366,6430813,,,,,,,2023-01-11,1,,,,,ムラナカキョウダイ,0
241,1170003001820,新規,0,2023-01-11,2023-01-11,イチマル合同会社,,合同会社,和歌山県,和歌山市,和歌浦東３丁目４番１６号,,30,201,6410021,,,,,,,2023-01-11,1,,,,,イチマル,0
249,1190001030084,新規,0,2023-01-11,2023-01-11,株式会社ファシリティコネクト,,株式会社,三重県,津市,芸濃町椋本５０４２番地７,,24,201,5142211,,,,,,,2023-01-11,1,,,,,ファシリティコネクト,0
250,1190001030092,新規,0,2023-01-11,2023-01-11,株式会社まえそば空調設備,,株式会社,三重県,四日市市,釆女が丘２丁目２３番地,,24,202,5100953,,,,,,,2023-01-11,1,,,,,マエソバクウチョウセツビ,0
253,1200001040809,新規,0,2023-01-11,2023-01-11,株式会社ＣＲＥＳＴ,,株式会社,岐阜県,多治見市,音羽町５丁目４５番地音羽プラザ２０２,,21,204,5070037,,,,,,,2023-01-11,1,,,,,クレスト,0
254,1200001040841,新規,0,2023-01-11,2023-01-11,株式会社ＢＦスタイル,,株式会社,岐阜県,多治見市,笠原町２０４１番地の５,,21,204,5070901,,,,,,,2023-01-11,1,,,,,ビーエフスタイル,0
256,1210003001601,新規,0,2023-01-11,2023-01-11,合同会社Ｃｈａｍｅｒ,,合同会社,福井県,福井市,大手２丁目２２番３０号プレミスト大手１００２,,18,201,9100005,,,,,,,2023-01-11,1,,,,,シャルメ,0
263,1230001019668,新規,0,2023-01-11,2023-01-11,株式会社ＳｙｓｔｅｍＡＴ,,株式会社,富山県,富山市,古志町３丁目５８番地,,16,201,9318417,,,,,,,2023-01-11,1,,,,,,0
268,1240003005954,新規,0,2023-01-11,2023-01-11,合同会社たつき,,合同会社,広島県,東広島市,西条町田口２９１１番地１２,,34,212,7390036,,,,,,,2023-01-11,1,,,,,タツキ,0
271,1250001019906,新規,0,2023-01-11,2023-01-11,株式会社カナタ,,株式会社,山口県,山陽小野田市,大字小野田４７番地２,,35,216,7560817,,,,,,,2023-01-11,1,,,,,カナタ,0
272,1250001019914,新規,0,2023-01-11,2023-01-11,株式会社柿本産業,,株式会社,山口県,岩国市,周東町下久原１１０９番地５,,35,208,7420417,,,,,,,2023-01-11,1,,,,,カキモトサンギョウ,0
274,1260001037551,新規,0,2023-01-11,2023-01-11,泰樹テクノ株式会社,,株式会社,岡山県,倉敷市,平田１５５番地１４８,,33,202,7100003,,,,,,,2023-01-11,1,,,,,タイジュテクノ,0
277,1260003004145,新規,0,2023-01-11,2023-01-11,合同会社ｗａｒｍ,,合同会社,岡山県,岡山市北区,錦町８‐２２（１Ｆ）,,33,101,7000902,,,,,,,2023-01-11,1,,,,,ウォーム,0
278,1270001008700,新規,0,2023-01-11,2023-01-11,株式会社Ｔ‐ＳＴＹＬＥ,,株式会社,鳥取県,米子市,彦名町１４６５番地２,,31,202,6830854,,,,,,,2023-01-11,1,,,,,ティースタイル,0
283,1280003001685,新規,0,2023-01-11,2023-01-11,合同会社ティーディーライフサポート,,合同会社,島根県,松江市,南田町２３番地Ａビル２Ｆ,,32,201,6900884,,,,,,,2023-01-11,1,,,,,ティーディーライフサポート,0
288,1290001100158,新規,0,2023-01-11,2023-01-11,株式会社ＹＭ素彩画亭,,株式会社,福岡県,福岡市城南区,南片江２丁目１８番１９号,,40,136,8140143,,,,,,,2023-01-11,1,,,,,ワイエムソサエティ,0
289,1290001100166,新規,0,2023-01-11,2023-01-11,株式会社つくしコンサルティング,,株式会社,福岡県,福岡市博多区,比恵町１８番２６－４０５号,,40,132,8120014,,,,,,,2023-01-11,1,,,,,ツクシコンサルティング,0
291,1290801029191,新規,0,2023-01-11,2023-01-11,マーチ株式会社,,株式会社,福岡県,北九州市小倉南区,徳吉東３丁目８番１３号,,40,107,8030277,,,,,,,2023-01-11,1,,,,,マーチ,0
292,1290801029200,新規,0,2023-01-11,2023-01-11,株式会社魁真,,株式会社,福岡県,北九州市八幡西区,池田１丁目５番１１号マウンテンビュー池田１０３,,40,109,8071125,,,,,,,2023-01-11,1,,,,,カイシン,0
295,1300001013184,新規,0,2023-01-11,2023-01-11,株式会社松ちゃんファーム,,株式会社,佐賀県,伊万里市,南波多町古里３３８８番地,,41,205,8480003,,,,,,,2023-01-11,1,,,,,マツチャンファーム,0
296,1300003001922,新規,0,2023-01-11,2023-01-11,合同会社みどりまる,,合同会社,佐賀県,佐賀市,金立町大字千布２１０９番地１,,41,201,8490905,,,,,,,2023-01-11,1,,,,,ミドリマル,0
297,1310001018216,新規,0,2023-01-11,2023-01-11,株式会社エミプラス,,株式会社,長崎県,長崎市,葉山１丁目２８番１５号Ｓ＆Ｂ葉山ショッピングプラザ２Ｆ,,42,201,8528053,,,,,,,2023-01-11,1,,,,,エミプラス,0
298,1310003004503,新規,0,2023-01-11,2023-01-11,信達合同会社,,合同会社,長崎県,長崎市,樺島町５番７号田島ビル２０１号室,,42,201,8500034,,,,,,,2023-01-11,1,,,,,シンタツ,0
301,1320003003982,新規,0,2023-01-11,2023-01-11,合同会社Ｔｈｅ　ＦＩＲＳＴ,,合同会社,大分県,佐伯市,常盤東町８番１３号,,44,205,8760851,,,,,,,2023-01-11,1,,,,,ザファースト,0
303,1330003009665,新規,0,2023-01-11,2023-01-11,合同会社ＭＴデザインズ,,合同会社,熊本県,熊本市北区,植木町滴水１０５６番地６,,43,105,8610133,,,,,,,2023-01-11,1,,,,,エムティデザインズ,0
304,1330003009673,新規,0,2023-01-11,2023-01-11,ＫＵＲＥＮＡＩ合同会社,,合同会社,熊本県,菊池市,泗水町吉富２０５番地８５,,43,210,8611201,,,,,,,2023-01-11,1,,,,,クレナイ,0
308,1340001025291,新規,0,2023-01-11,2023-01-11,ＮＵＫＫＡＢＥＳＴ株式会社,,株式会社,鹿児島県,鹿児島市,川上町２７５０番地１７８,,46,201,8920875,,,,,,,2023-01-11,1,,,,,ヌッカベスト,0
309,1340003004013,新規,0,2023-01-11,2023-01-11,義海工業合同会社,,合同会社,鹿児島県,志布志市,有明町原田１２３０番地,,46,221,8997511,,,,,,,2023-01-11,1,,,,,ヨシミコウギョウ,0
310,1350001018105,新規,0,2023-01-11,2023-01-11,株式会社ミヤザキテクニカル,,株式会社,宮崎県,宮崎市,中村西２丁目５番７号,,45,201,8800905,,,,,,,2023-01-11,1,,,,,ミヤザキテクニカル,0
312,1370001049412,新規,0,2023-01-11,2023-01-11,株式会社ＥＳＴ,,株式会社,宮城県,仙台市青葉区,国分町２丁目１－９,,04,101,9800803,,,,,,,2023-01-11,1,,,,,イーエスティー,0
317,1410001013363,新規,0,2023-01-11,2023-01-11,株式会社リゾック,,株式会社,秋田県,大館市,御成町３丁目６－５４金ビル３Ｆ,,05,204,0170044,,,,,,,2023-01-11,1,,,,,リゾック,0
318,1410005006495,新規,0,2023-01-11,2023-01-11,医療法人湊幸会,,その他の設立登記法人,秋田県,雄勝郡羽後町,字川原田３１番地,,05,463,0121100,,,,,,,2023-01-11,1,,,,,ソウコウカイ,0
322,1430003014622,新規,0,2023-01-11,2023-01-11,合同会社きたりん,,合同会社,北海道,札幌市豊平区,西岡五条１２丁目１２番１６号,,01,105,0620035,,,,,,,2023-01-11,1,,,,,キタリン,0
325,1460001005760,新規,0,2023-01-11,2023-01-11,阿寒エゾシカ工房株式会社,,株式会社,北海道,釧路市,阿寒町仲町１丁目１５番１号,,01,206,0850213,,,,,,,2023-01-11,1,,,,,アカンエゾシカコウボウ,0
326,1460101007310,新規,0,2023-01-11,2023-01-11,株式会社たたみの宮崎,,株式会社,北海道,河東郡音更町,木野大通東８丁目９番地５,,01,631,0800111,,,,,,,2023-01-11,1,,,,,タタミノミヤザキ,0
335,1470003002326,新規,0,2023-01-11,2023-01-11,合同会社アゲバｙａ,,合同会社,香川県,観音寺市,出作町１０６０－１,,37,205,7680011,,,,,,,2023-01-11,1,,,,,アゲバヤ,0
339,1490001010378,新規,0,2023-01-11,2023-01-11,株式会社Ｏｎｗａｒｄａ,,株式会社,高知県,高知市,新本町１丁目１番１６号,,39,201,7800062,,,,,,,2023-01-11,1,,,,,オンワーダ,0
346,1700150112416,新規,0,2023-01-11,2022-10-31,旭ヶ丘自治会,,その他,岩手県,北上市,村崎野１４地割３５４,,03,206,0240004,,,,,,,2022-10-31,1,,,,,アサヒガオカジチカイ,0
352,2010001231987,新規,0,2023-01-11,2023-01-11,株式会社光コーポレーション,,株式会社,東京都,中央区,日本橋人形町１丁目１２番１１－３４０１号,,13,102,1030013,,,,,,,2023-01-11,1,,,,,ヒカリコーポレーション,0
353,2010001232060,新規,0,2023-01-11,2023-01-11,株式会社ＨＯＴプラン,,株式会社,東京都,中央区,銀座１丁目１２番４号,,13,102,1040061,,,,,,,2023-01-11,1,,,,,ホットプラン,0
354,2010001232110,新規,0,2023-01-11,2023-01-11,株式会社ＦＡＮＴＧ,,株式会社,東京都,千代田区,外神田５丁目６番１５号,,13,101,1010021,,,,,,,2023-01-11,1,,,,,ファング,0
355,2010001232135,新規,0,2023-01-11,2023-01-11,Ｋａｌｏｎ　Ｓｋｙ株式会社,,株式会社,東京都,中央区,日本橋堀留町２丁目４－１４,,13,102,1030012,,,,,,,2023-01-11,1,,,,,,0
369,2010401171692,新規,0,2023-01-11,2023-01-11,株式会社Ｃａｌｆ　ｒａｉｓｅ,,株式会社,東京都,港区,芝大門２丁目１番１号第二境野ビル２階,,13,103,1050012,,,,,,,2023-01-11,1,,,,,カーフレイズ,0
370,2010401171701,新規,0,2023-01-11,2023-01-11,株式会社ハイロン・テクノロジー,,株式会社,東京都,港区,西新橋２丁目１１番６号,,13,103,1050003,,,,,,,2023-01-11,1,,,,,ハイロンテクノロジー,0
371,2010401171718,新規,0,2023-01-11,2023-01-11,株式会社ＡＢＥＡＵＴＯＭＯＢＩＬＥ,,株式会社,東京都,港区,東麻布１丁目１０番１１号,,13,103,1060044,,,,,,,2023-01-11,1,,,,,アベオートモービル,0
372,2010401171742,新規,0,2023-01-11,2023-01-11,株式会社Ｐｅｇａ　Ｐｌａｎｎｉｎｇ,,株式会社,東京都,港区,芝３丁目３２番１０号,,13,103,1050014,,,,,,,2023-01-11,1,,,,,ペガプラニング,0
373,2010401171750,新規,0,2023-01-11,2023-01-11,株式会社ＢＲＡ,,株式会社,東京都,港区,新橋４丁目２７番１号セントラルビル７階,,13,103,1050004,,,,,,,2023-01-11,1,,,,,ビーアールエー,0
374,2010401171775,新規,0,2023-01-11,2023-01-11,ＡＲＳＴＥＣＨ　ＧＵＩＬＤ株式会社,,株式会社,東京都,港区,芝公園１丁目１番１号住友不動産御成門タワー,,13,103,1050011,,,,,,,2023-01-11,1,,,,,アルステックギルド,0
377,2010403029245,新規,0,2023-01-11,2023-01-11,Ｐｉｘｅｌｏｇｉｃ　Ｊａｐａｎ合同会社,,合同会社,東京都,港区,海岸１丁目１４番２号,,13,103,1050022,,,,,,,2023-01-11,1,,,,,ピクセロジックジャパン,0
378,2010403029261,新規,0,2023-01-11,2023-01-11,にゅうＬＡＢＯ合同会社,,合同会社,東京都,港区,南青山２丁目２番１５号,,13,103,1070062,,,,,,,2023-01-11,1,,,,,ニュウラボ,0
380,2010405021687,新規,0,2023-01-11,2023-01-11,一般社団法人高度先進医療連絡協議会,,その他の設立登記法人,東京都,港区,北青山３丁目６番７号青山パラシオタワー１１階,,13,103,1070061,,,,,,,2023-01-11,1,,,,,コウドセンシンイリョウレンラクキョウギカイ,0
381,2010501049847,新規,0,2023-01-11,2023-01-11,株式会社Ｏｋｉｂｉ,,株式会社,東京都,台東区,蔵前２丁目１－２３立沢ビル,,13,106,1110051,,,,,,,2023-01-11,1,,,,,オキビ,0
383,2010601062394,新規,0,2023-01-11,2023-01-11,ｅＲＯＤ　Ｊａｐａｎ株式会社,,株式会社,東京都,墨田区,本所１丁目４番７号栗本ビル,,13,107,1300004,,,,,,,2023-01-11,1,,,,,イーロードジャパン,0
384,2010601062411,新規,0,2023-01-11,2023-01-11,株式会社Ｃｈｅｂｌｏ,,株式会社,東京都,江東区,東雲１丁目９番１７－４０６号,,13,108,1350062,,,,,,,2023-01-11,1,,,,,チェブロ,0
386,2010703006530,新規,0,2023-01-11,2023-01-11,合同会社Ｒｈｉｎｏ,,合同会社,東京都,品川区,二葉４丁目１０番５号,,13,109,1420043,,,,,,,2023-01-11,1,,,,,ライノ,0
387,2010801033559,新規,0,2023-01-11,2023-01-11,株式会社アライ空設,,株式会社,東京都,大田区,池上６丁目２３番６号２０２,,13,111,1460082,,,,,,,2023-01-11,1,,,,,アライクウセツ,0
388,2010801033575,新規,0,2023-01-11,2023-01-11,ホワイトスターズ株式会社,,株式会社,東京都,大田区,大森東２丁目１１番１号,,13,111,1430012,,,,,,,2023-01-11,1,,,,,ホワイトスターズ,0
389,2010801033583,新規,0,2023-01-11,2023-01-11,Ｒｉｓｉｎｇ株式会社,,株式会社,東京都,大田区,南六郷１丁目２９番２－７０８号,,13,111,1440045,,,,,,,2023-01-11,1,,,,,ライジング,0
391,2010901052269,新規,0,2023-01-11,2023-01-11,株式会社Ｗｉｌｌｙ,,株式会社,東京都,世田谷区,岡本１丁目１７－２,,13,112,1570076,,,,,,,2023-01-11,1,,,,,ウィリー,0
392,2010905004415,新規,0,2023-01-11,2023-01-11,一般社団法人俳句文芸協会,,その他の設立登記法人,東京都,世田谷区,三宿１丁目８番１４ー２０７号,,13,112,1540005,,,,,,,2023-01-11,1,,,,,ハイクブンゲイキョウカイ,0
396,2011001151795,新規,0,2023-01-11,2023-01-11,株式会社ｍｏｏｔｈ,,株式会社,東京都,渋谷区,桜丘町２３番１７号シティコート桜丘４０８,,13,113,1500031,,,,,,,2023-01-11,1,,,,,ムース,0
398,2011101101411,新規,0,2023-01-11,2023-01-11,株式会社ＥＸＣＥＥＤ,,株式会社,東京都,新宿区,北新宿１丁目６番２１号,,13,104,1690074,,,,,,,2023-01-11,1,,,,,エクシード,0
400,2011103012557,新規,0,2023-01-11,2023-01-11,合同会社Ｓ　Ｐｒａｎ,,合同会社,東京都,新宿区,西新宿７丁目１２番１号新宿平和ビル１階新宿ミーティングタワー,,13,104,1600023,,,,,,,2023-01-11,1,,,,,エスプラン,0
401,2011203003976,新規,0,2023-01-11,2023-01-11,エー・エス・プラス合同会社,,合同会社,東京都,中野区,鷺宮４丁目１６番１６号２１２,,13,114,1650032,,,,,,,2023-01-11,1,,,,,エーエスプラス,0
402,2011203003984,新規,0,2023-01-11,2023-01-11,孔明合同会社,,合同会社,東京都,中野区,江古田３丁目１４－１３－１０１４,,13,114,1650022,,,,,,,2023-01-11,1,,,,,コウメイ,0
403,2011205002530,新規,0,2023-01-11,2023-01-11,税理士法人横田会計,,その他の設立登記法人,東京都,中野区,中野４丁目７番１号野口ビル５階,,13,114,1640001,,,,,,,2023-01-11,1,,,,,ヨコタカイケイ,0
407,2011403003867,新規,0,2023-01-11,2023-01-11,合同会社森森,,合同会社,東京都,板橋区,高島平７丁目１２番１－１０６号,,13,119,1750082,,,,,,,2023-01-11,1,,,,,モリモリ,0
409,2011501028824,新規,0,2023-01-11,2023-01-11,株式会社眞鍋工業,,株式会社,東京都,荒川区,南千住６丁目３７番２－７０４号,,13,118,1160003,,,,,,,2023-01-11,1,,,,,マナベコウギョウ,0
416,2011703003352,新規,0,2023-01-11,2023-01-11,ＳＨＲ合同会社,,合同会社,東京都,江戸川区,東葛西５丁目１番１４号第７片田ビル４０２,,13,123,1340084,,,,,,,2023-01-11,1,,,,,エスエイチアール,0
420,2012401040035,新規,0,2023-01-11,2023-01-11,株式会社小林商事,,株式会社,東京都,狛江市,駒井町３丁目６番７号,,13,219,2010016,,,,,,,2023-01-11,1,,,,,コバヤシショウジ,0
422,2012801022062,新規,0,2023-01-11,2023-01-11,株式会社吉樹園,,株式会社,東京都,昭島市,上川原町２丁目７番１０号,,13,207,1960011,,,,,,,2023-01-11,1,,,,,ヨシジュエン,0
423,2013101009097,新規,0,2023-01-11,2023-01-11,Ｊ．Ｂ　Ｊｏｉｎｔ　Ｖｅｎｔｕｒｅ株式会社,,株式会社,東京都,青梅市,東青梅５丁目６番地の１５,,13,205,1980042,,,,,,,2023-01-11,1,,,,,ジェイビージョイントベンチャー,0
424,2013103001201,新規,0,2023-01-11,2023-01-11,合同会社モノリス,,合同会社,東京都,羽村市,羽加美１丁目３８番地２銀杏台マンション３０１,,13,227,2050016,,,,,,,2023-01-11,1,,,,,モノリス,0
426,2013301050165,新規,0,2023-01-11,2023-01-11,株式会社ＰＯＩＮＴ,,株式会社,東京都,豊島区,南大塚１丁目３２番１９号後藤ビル１Ｆ,,13,116,1700005,,,,,,,2023-01-11,1,,,,,ポイント,0
427,2013303006446,新規,0,2023-01-11,2023-01-11,ＣｔｏＰ合同会社,,合同会社,東京都,豊島区,北大塚１丁目３３番１６号シティハウス大塚１２０１号,,13,116,1700004,,,,,,,2023-01-11,1,,,,,シートゥピー,0
434,2020001149709,新規,0,2023-01-11,2023-01-11,株式会社コイカープ,,株式会社,神奈川県,川崎市宮前区,宮前平１丁目２番地５６カーサ宮崎台２０２,,14,136,2160006,,,,,,,2023-01-11,1,,,,,コイカープ,0
435,2020001149717,新規,0,2023-01-11,2023-01-11,天使の樹株式会社,,株式会社,神奈川県,横浜市都筑区,茅ケ崎中央６３番９号,,14,118,2240032,,,,,,,2023-01-11,1,,,,,テンシノキ,0
436,2020001149733,新規,0,2023-01-11,2023-01-11,株式会社ＹＮＧ,,株式会社,神奈川県,横浜市緑区,長津田みなみ台７丁目２９番地７,,14,113,2260018,,,,,,,2023-01-11,1,,,,,ワイエヌジー,0
441,2020003023011,新規,0,2023-01-11,2023-01-11,合同会社ＴＭＣ,,合同会社,神奈川県,川崎市多摩区,宿河原３丁目１４番５－１０１号,,14,135,2140021,,,,,,,2023-01-11,1,,,,,ティエムシー,0
442,2020003023036,新規,0,2023-01-11,2023-01-11,Ａ＆Ｋ合同会社,,合同会社,神奈川県,横浜市西区,浅間町１丁目４番３号ウィザードビル４０２,,14,103,2200072,,,,,,,2023-01-11,1,,,,,エーアンドケー,0
443,2020005015799,新規,0,2023-01-11,2023-01-11,弁理士法人ｉＸ,,その他の設立登記法人,神奈川県,横浜市中区,桜木町１丁目１番地８,,14,104,2310062,,,,,,,2023-01-11,1,,,,,アイエックス,0
447,2021001077866,新規,0,2023-01-11,2023-01-11,株式会社あおばＨＤ,,株式会社,神奈川県,鎌倉市,大船１丁目１１番２３号上木ビル５Ｆ,,14,204,2470056,,,,,,,2023-01-11,1,,,,,アオバホールディングス,0
448,2021001077882,新規,0,2023-01-11,2023-01-11,株式会社ＡＷＥＳＯＭＥＳ,,株式会社,神奈川県,鎌倉市,小町１丁目７番１号小町銅ビル１Ｆ,,14,204,2480006,,,,,,,2023-01-11,1,,,,,オーサムズ,0
449,2021001077890,新規,0,2023-01-11,2023-01-11,株式会社伊藤組,,株式会社,神奈川県,藤沢市,高倉２２８２番地の２２,,14,205,2520802,,,,,,,2023-01-11,1,,,,,イトウグミ,0
457,2021003012573,新規,0,2023-01-11,2023-01-11,合同会社Ａｐｒｉｒｅ,,合同会社,神奈川県,小田原市,栄町２丁目１２－１０－Ｓｑｕａｒｅ－０２－１階,,14,206,2500011,,,,,,,2023-01-11,1,,,,,アプリーレ,0
469,2030001151746,新規,0,2023-01-11,2023-01-11,株式会社アライワークス,,株式会社,埼玉県,春日部市,大枝３１０番地３,,11,214,3440023,,,,,,,2023-01-11,1,,,,,アライワークス,0
470,2030001151762,新規,0,2023-01-11,2023-01-11,株式会社Ｃ‐Ｓカンパニー,,株式会社,埼玉県,越谷市,大字弥十郎２６２番地５,,11,222,3430047,,,,,,,2023-01-11,1,,,,,シーエスカンパニー,0
471,2030001151787,新規,0,2023-01-11,2023-01-11,株式会社ビルメンパートナーズ,,株式会社,埼玉県,朝霞市,膝折町１丁目１０番６号２階,,11,227,3510014,,,,,,,2023-01-11,1,,,,,ビルメンパートナーズ,0
472,2030001151795,新規,0,2023-01-11,2023-01-11,株式会社Ａｎｔｅｌｌｉｊａｎ,,株式会社,埼玉県,さいたま市大宮区,大門町３丁目１９７番地星野第二ビル６０１室,,11,103,3300846,,,,,,,2023-01-11,1,,,,,アンテリジャン,0
473,2030001151812,新規,0,2023-01-11,2023-01-11,株式会社ブリッジエアーサービス,,株式会社,埼玉県,ふじみ野市,大井７９４番地５,,11,245,3560053,,,,,,,2023-01-11,1,,,,,ブリッジエアーサービス,0
474,2030001151837,新規,0,2023-01-11,2023-01-11,株式会社かんばんや中嶋,,株式会社,埼玉県,大里郡寄居町,大字西ノ入２８７４番地,,11,408,3691225,,,,,,,2023-01-11,1,,,,,カンバンヤナカジマ,0
475,2030001151853,新規,0,2023-01-11,2023-01-11,株式会社埼京ビケ,,株式会社,埼玉県,川越市,大字小ケ谷８８３番地１,,11,201,3501104,,,,,,,2023-01-11,1,,,,,サイキョウビケ,0
476,2030001151878,新規,0,2023-01-11,2023-01-11,株式会社ドローンブリス,,株式会社,埼玉県,さいたま市桜区,道場１丁目４番１２号,,11,106,3380835,,,,,,,2023-01-11,1,,,,,ドローンブリス,0
480,2030003020908,新規,0,2023-01-11,2023-01-11,合同会社Ｋｉｉｔｏｓ,,合同会社,埼玉県,草加市,金明町３５７番地１２－１０１号,,11,221,3400052,,,,,,,2023-01-11,1,,,,,キートス,0
481,2030003020924,新規,0,2023-01-11,2023-01-11,アドツクル合同会社,,合同会社,埼玉県,所沢市,北有楽町１番２－１００１号所沢メゾンドパルク,,11,208,3591114,,,,,,,2023-01-11,1,,,,,アドツクル,0
482,2040001126474,新規,0,2023-01-11,2023-01-11,株式会社プレイスクリエイション,,株式会社,千葉県,千葉市緑区,誉田町２丁目２１番地４９２,,12,105,2660005,,,,,,,2023-01-11,1,,,,,プレイスクリエイション,0
483,2040001126524,新規,0,2023-01-11,2023-01-11,株式会社ＢＥＳＴ　ＨＯＰＥ,,株式会社,千葉県,印西市,師戸２９５６番地２,,12,231,2701615,,,,,,,2023-01-11,1,,,,,ベストホープ,0
484,2040001126540,新規,0,2023-01-11,2023-01-11,株式会社ＳＰＥＣ,,株式会社,千葉県,野田市,清水６６７－６メゾン愛宕２０１,,12,208,2780043,,,,,,,2023-01-11,1,,,,,スペック,0
485,2040001126557,新規,0,2023-01-11,2023-01-11,次世代株式会社,,株式会社,千葉県,千葉市若葉区,西都賀４丁目２番１０号,,12,104,2640026,,,,,,,2023-01-11,1,,,,,ジセダイ,0
486,2040001126581,新規,0,2023-01-11,2023-01-11,株式会社ＶＥＲＤＡＤ,,株式会社,千葉県,船橋市,夏見５丁目３０番２８号,,12,204,2730865,,,,,,,2023-01-11,1,,,,,ベルダ,0
487,2040001126615,新規,0,2023-01-11,2023-01-11,株式会社Ａｍｂｉｔｉｏｕｓ　ａｇｒｉ,,株式会社,千葉県,千葉市若葉区,下田町１２１０番地,,12,104,2650076,,,,,,,2023-01-11,1,,,,,アンビシャスアグリ,0
491,2040003021582,新規,0,2023-01-11,2023-01-11,合同会社エスアンドワイ,,合同会社,千葉県,千葉市中央区,富士見２丁目２２番８号東方ビル２階２０１号室,,12,101,2600015,,,,,,,2023-01-11,1,,,,,エスアンドワイ,0
492,2040003021616,新規,0,2023-01-11,2023-01-11,ＳＲＮ　ＴＲＡＤＩＮＧ合同会社,,合同会社,千葉県,山武市,大木６８９番地８６ハッピーハイツ－Ｂ,,12,237,2891211,,,,,,,2023-01-11,1,,,,,エスアールエヌトレーディング,0
493,2040003021640,新規,0,2023-01-11,2023-01-11,合同会社スズキ農産,,合同会社,千葉県,匝瑳市,八日市場ハ１２６２番地,,12,235,2892141,,,,,,,2023-01-11,1,,,,,スズキノウサン,0
494,2040003021649,新規,0,2023-01-11,2023-01-11,Ｂｅｌｌ　Ｄｅｓｉｇｎ合同会社,,合同会社,千葉県,四街道市,旭ケ丘２丁目１８番８号,,12,228,2840024,,,,,,,2023-01-11,1,,,,,ベルデザイン,0
497,2050001052199,新規,0,2023-01-11,2023-01-11,株式会社山一ファーム,,株式会社,茨城県,鉾田市,冷水１２０６番地１,,08,234,3111413,,,,,,,2023-01-11,1,,,,,ヤマイチファーム,0
498,2050001052216,新規,0,2023-01-11,2023-01-11,株式会社佑住環,,株式会社,茨城県,水戸市,開江町７４６番地の２,,08,201,3114144,,,,,,,2023-01-11,1,,,,,タスクジュウカン,0
508,2080001025400,新規,0,2023-01-11,2023-01-11,株式会社セグランサ,,株式会社,静岡県,静岡市駿河区,下川原６丁目２６番１号,,22,102,4210113,,,,,,,2023-01-11,1,,,,,セグランサ,0
510,2080101023741,新規,0,2023-01-11,2023-01-11,株式会社ＳＥＳＫ,,株式会社,静岡県,富士市,厚原１４３２番地の１１,,22,210,4190201,,,,,,,2023-01-11,1,,,,,エスイーエスケー,0
512,2080401026246,新規,0,2023-01-11,2023-01-11,株式会社河合コーポレーション,,株式会社,静岡県,浜松市東区,天王町６６８番地の１,,22,132,4350052,,,,,,,2023-01-11,1,,,,,カワイコーポレーション,0
513,2090001017933,新規,0,2023-01-11,2023-01-11,株式会社リクチル,,株式会社,山梨県,甲府市,南口町６番６号,,19,201,4000863,,,,,,,2023-01-11,1,,,,,リクチル,0
516,2100001036023,新規,0,2023-01-11,2023-01-11,株式会社８２６Ｃｏｒｐｏｒａｔｉｏｎ,,株式会社,長野県,諏訪郡下諏訪町,４３５９番地７,,20,361,3930000,,,,,,,2023-01-11,1,,,,,ハチニロクコーポレーション,0
518,2100003006833,新規,0,2023-01-11,2023-01-11,合同会社オフィスエム,,合同会社,長野県,北佐久郡軽井沢町,大字長倉３３９１番地８,,20,321,3890111,,,,,,,2023-01-11,1,,,,,オフィスエム,0
528,2120001251470,新規,0,2023-01-11,2023-01-11,株式会社ダハイム,,株式会社,大阪府,大阪市北区,長柄東２丁目４番１１－８０３号,,27,127,5310063,,,,,,,2023-01-11,1,,,,,ダハイム,0
529,2120001251504,新規,0,2023-01-11,2023-01-11,株式会社ＲＡＣＥ,,株式会社,大阪府,門真市,打越町２０番１６－２０３号,,27,223,5710029,,,,,,,2023-01-11,1,,,,,レイス,0
530,2120001251512,新規,0,2023-01-11,2023-01-11,株式会社ＥＸ０,,株式会社,大阪府,大阪市住之江区,住之江１丁目１－２１－２０３,,27,125,5590004,,,,,,,2023-01-11,1,,,,,イーエックスゼロ,0
531,2120001251594,新規,0,2023-01-11,2023-01-11,道端エステート株式会社,,株式会社,大阪府,大阪市鶴見区,鶴見４丁目１１番４５－１５０９号,,27,124,5380053,,,,,,,2023-01-11,1,,,,,ミチバタエステート,0
532,2120001251603,新規,0,2023-01-11,2023-01-11,株式会社デジタルポスティング,,株式会社,大阪府,大阪市西区,南堀江１丁目１８番２７号四ツ橋セントラルハイツ２０６,,27,106,5500015,,,,,,,2023-01-11,1,,,,,デジタルポスティング,0
534,2120003023216,新規,0,2023-01-11,2023-01-11,合同会社ＢｕＺＺ　Ｌａｂｏ,,合同会社,大阪府,大阪市中央区,東心斎橋２丁目７番７号日宝セントラルビル３Ｆ,,27,128,5420083,,,,,,,2023-01-11,1,,,,,バズラボ,0
537,2120101066777,新規,0,2023-01-11,2023-01-11,株式会社北村設備,,株式会社,大阪府,富田林市,津々山台１丁目１番１－５０２号,,27,214,5840086,,,,,,,2023-01-11,1,,,,,キタムラセツビ,0
538,2120101066810,新規,0,2023-01-11,2023-01-11,株式会社アール,,株式会社,大阪府,松原市,阿保７丁目１１番１６号,,27,217,5800043,,,,,,,2023-01-11,1,,,,,アール,0
540,2120901046929,新規,0,2023-01-11,2023-01-11,株式会社ＫＡＭＩＳＨＩＴＡ,,株式会社,大阪府,茨木市,星見町１番１号,,27,211,5670843,,,,,,,2023-01-11,1,,,,,カミシタ,0
541,2120901046978,新規,0,2023-01-11,2023-01-11,株式会社Ｔａｋ,,株式会社,大阪府,豊中市,新千里西町２丁目３番１－４０６号,,27,203,5600083,,,,,,,2023-01-11,1,,,,,タック,0
545,2122001036554,新規,0,2023-01-11,2023-01-11,中西産業株式会社,,株式会社,大阪府,東大阪市,中新開２丁目９－２,,27,227,5780911,,,,,,,2023-01-11,1,,,,,ナカニシサンギョウ,0
547,2122003002488,新規,0,2023-01-11,2023-01-11,合同会社Ｒｏｕｇｅ,,合同会社,大阪府,東大阪市,喜里川町１１番３号,,27,227,5798041,,,,,,,2023-01-11,1,,,,,ルージュ,0
550,2130001073443,新規,0,2023-01-11,2023-01-11,株式会社デンソンムラタ,,株式会社,京都府,城陽市,寺田東ノ口６番地２,,26,207,6100121,,,,,,,2023-01-11,1,,,,,デンソンムラタ,0
551,2130001073451,新規,0,2023-01-11,2023-01-11,株式会社ｂａｔａｉｄｅａ,,株式会社,京都府,京都市下京区,仏光寺通室町東入釘隠町２４６番地西脇ビル３階Ａ号,,26,106,6008423,,,,,,,2023-01-11,1,,,,,バタイデア,0
554,2130003008414,新規,0,2023-01-11,2023-01-11,合同会社ＦＮＡ　ＢＡＳＥ,,合同会社,京都府,福知山市,字大呂２９８‐５,,26,201,6200077,,,,,,,2023-01-11,1,,,,,エフエヌエーベース,0
555,2130003008430,新規,0,2023-01-11,2023-01-11,合同会社ＴＲＩＮＩＴＹ,,合同会社,京都府,城陽市,久世里ノ西２０番地の９０,,26,207,6100102,,,,,,,2023-01-11,1,,,,,トリニティ,0
556,2130005016662,新規,0,2023-01-11,2023-01-11,特定非営利活動法人あぽろん舎,,その他の設立登記法人,京都府,京都市右京区,常盤草木町８番地３,,26,108,6168227,,,,,,,2023-01-11,1,,,,,アポロンシャ,0
563,2140001128601,新規,0,2023-01-11,2023-01-11,株式会社ウェスト,,株式会社,兵庫県,多可郡多可町,中区森本３１１番地１,,28,365,6791124,,,,,,,2023-01-11,1,,,,,ウェスト,0
564,2140001128618,新規,0,2023-01-11,2023-01-11,株式会社ＺＥＲＯ４,,株式会社,兵庫県,豊岡市,日高町松岡１０３番地の１,,28,209,6695307,,,,,,,2023-01-11,1,,,,,ゼロヨン,0
565,2140001128650,新規,0,2023-01-11,2023-01-11,株式会社Ｂ．Ｈ,,株式会社,兵庫県,姫路市,岡田１５０番地４,,28,201,6700982,,,,,,,2023-01-11,1,,,,,ビーエイチ,0
570,2140003018536,新規,0,2023-01-11,2023-01-11,合同会社ＨＩＥＵＧＩＡ,,合同会社,兵庫県,神戸市西区,神出町勝成１１６番地の１５,,28,111,6512301,,,,,,,2023-01-11,1,,,,,ヒュウジャー,0
572,2140005026438,新規,0,2023-01-11,2023-01-11,医療法人雅,,その他の設立登記法人,兵庫県,神戸市中央区,中山手通１丁目２４番４号４階,,28,110,6500004,,,,,,,2023-01-11,1,,,,,ミヤビ,0
578,2160001024765,新規,0,2023-01-11,2023-01-11,株式会社彩食美,,株式会社,滋賀県,近江八幡市,安土町下豊浦８７２３番地９,,25,204,5211311,,,,,,,2023-01-11,1,,,,,サイショクビ,0
584,2180001154379,新規,0,2023-01-11,2023-01-11,株式会社Ｌｉｂｅｒｔｙ,,株式会社,愛知県,名古屋市西区,名駅２丁目３４番１７号セントラル名古屋１１０１号,,23,104,4510045,,,,,,,2023-01-11,1,,,,,リバティ,0
587,2180005020065,新規,0,2023-01-11,2023-01-11,医療法人山悦会ＣＣクリニック,,その他の設立登記法人,愛知県,名古屋市東区,泉３丁目２１番１５号Ｌｉｅｎ　ｄｅ　ｉｚｕｍｉ１階,,23,102,4610001,,,,,,,2023-01-11,1,,,,,サンエツカイシーシークリニック,0
591,2190001030091,新規,0,2023-01-11,2023-01-11,株式会社Ｌｕｘｉａ,,株式会社,三重県,松阪市,荒木町１９４番地１,,24,204,5150007,,,,,,,2023-01-11,1,,,,,ルクシア,0
593,2200001040832,新規,0,2023-01-11,2023-01-11,株式会社プー,,株式会社,岐阜県,多治見市,滝呂町１７丁目１５番地の８,,21,204,5070813,,,,,,,2023-01-11,1,,,,,プー,0
594,2200001040840,新規,0,2023-01-11,2023-01-11,株式会社Ｒｅａｌ　Ｇ,,株式会社,岐阜県,羽島市,福寿町平方４丁目３５番地,,21,209,5016257,,,,,,,2023-01-11,1,,,,,リアルジー,0
595,2200001040849,新規,0,2023-01-11,2023-01-11,株式会社Ｓｐｉｆａ,,株式会社,岐阜県,美濃加茂市,太田町２８８９番地,,21,211,5050041,,,,,,,2023-01-11,1,,,,,スフィファ,0
596,2200003005791,新規,0,2023-01-11,2023-01-11,合同会社和良鮎カンパニー,,合同会社,岐阜県,郡上市,和良町沢９８７番地１,,21,219,5014517,,,,,,,2023-01-11,1,,,,,ワラアユカンパニー,0
602,2220005008725,新規,0,2023-01-11,2023-01-11,一般社団法人石川県建団連,,その他の設立登記法人,石川県,金沢市,問屋町１丁目２７番１,,17,201,9200061,,,,,,,2023-01-11,1,,,,,イシカワケンケンダンレン,0
604,2230003001953,新規,0,2023-01-11,2023-01-11,合同会社健,,合同会社,富山県,南砺市,やかた２１３番地ＦＣＣハイムＩＩ１０３号,00128991,16,210,9391576,,,,,,,2023-01-11,1,,,,,ケン,0
608,2240001060950,新規,0,2023-01-11,2023-01-11,株式会社ｈｉｔｏｌｉｇｈｔ,,株式会社,広島県,広島市西区,小河内町２丁目２４－１８第５山肩ビル１０１号,,34,104,7330025,,,,,,,2023-01-11,1,,,,,ヒトライト,0
612,2250001019905,新規,0,2023-01-11,2023-01-11,株式会社ＳＵＮ分割準備会社,,株式会社,山口県,周南市,新地１丁目６番１号,,35,215,7450861,,,,,,,2023-01-11,1,,,,,サンブンカツジュンビカイシャ,0
613,2250003003205,新規,0,2023-01-11,2023-01-11,Ｎａｍｅ　Ｓｈｉｎ合同会社,,合同会社,山口県,下関市,安岡町５丁目１５番１０号,,35,201,7596603,,,,,,,2023-01-11,1,,,,,ネームシン,0
616,2260001037542,新規,0,2023-01-11,2023-01-11,株式会社ＭＯＫＫ,,株式会社,岡山県,瀬戸内市,長船町西須恵１５１４番地１,,33,212,7014263,,,,,,,2023-01-11,1,,,,,モック,0
617,2260001037550,新規,0,2023-01-11,2023-01-11,Ｄｉｖａ株式会社,,株式会社,岡山県,岡山市北区,東古松２丁目１０番３７号－６０１号室,,33,101,7000921,,,,,,,2023-01-11,1,,,,,ディーバ,0
618,2260001037575,新規,0,2023-01-11,2023-01-11,株式会社ＪＤＣ,,株式会社,岡山県,倉敷市,児島下の町３丁目１３番８号,,33,202,7110906,,,,,,,2023-01-11,1,,,,,ジェイディシー,0
620,2270005005536,新規,0,2023-01-11,2023-01-11,医療法人葵会,,その他の設立登記法人,鳥取県,鳥取市,富安３３０番地１,,31,201,6800845,,,,,,,2023-01-11,1,,,,,アオイカイ,0
627,2290001100132,新規,0,2023-01-11,2023-01-11,株式会社オーガスタ,,株式会社,福岡県,福岡市中央区,舞鶴３丁目２番１３－６０１号,,40,133,8100073,,,,,,,2023-01-11,1,,,,,オーガスタ,0
628,2290001100149,新規,0,2023-01-11,2023-01-11,株式会社はなまる,,株式会社,福岡県,福岡市西区,福重５丁目４番１１号－２Ｆ,,40,135,8190022,,,,,,,2023-01-11,1,,,,,ハナマル,0
633,2290005018899,新規,0,2023-01-11,2023-01-11,弁護士法人堤＆パートナーズ法律事務所,,その他の設立登記法人,福岡県,福岡市中央区,薬院４丁目１０番４０号,,40,133,8100022,,,,,,,2023-01-11,1,,,,,ツツミアンドパートナーズホウリツジムショ,0
634,2290005018908,新規,0,2023-01-11,2023-01-11,一般社団法人九州リトリート協会,,その他の設立登記法人,福岡県,福岡市中央区,警固２丁目１８番１７号,,40,133,8100023,,,,,,,2023-01-11,1,,,,,キュウシュウリトリートキョウカイ,0
637,2290801029190,新規,0,2023-01-11,2023-01-11,株式会社メンテバンク,,株式会社,福岡県,北九州市小倉北区,米町１丁目１－１小倉駅前ひびきビル６階,,40,106,8020003,,,,,,,2023-01-11,1,,,,,メンテバンク,0
638,2290801029199,新規,0,2023-01-11,2023-01-11,株式会社縁人,,株式会社,福岡県,行橋市,西宮市５丁目３０番３号,,40,213,8240031,,,,,,,2023-01-11,1,,,,,エント,0
639,2290801029208,新規,0,2023-01-11,2023-01-11,株式会社平野組,,株式会社,福岡県,鞍手郡鞍手町,大字中山３４５９番地２,,40,402,8071312,,,,,,,2023-01-11,1,,,,,ヒラノグミ,0
646,2340005009546,新規,0,2023-01-11,2023-01-11,一般社団法人日本人英語講師協会,,その他の設立登記法人,鹿児島県,鹿児島市,新照院町２番１２－９０３号,,46,201,8900016,,,,,,,2023-01-11,1,,,,,ニホンジンエイゴコウシキョウカイ,0
647,2350001018120,新規,0,2023-01-11,2023-01-11,株式会社とびしょう,,株式会社,宮崎県,宮崎市,月見ケ丘２丁目１２番６号,,45,201,8800926,,,,,,,2023-01-11,1,,,,,トビショウ,0
648,2360001031394,新規,0,2023-01-11,2023-01-11,株式会社レクル,,株式会社,沖縄県,国頭郡今帰仁村,字古宇利４０８－１,,47,306,9050406,,,,,,,2023-01-11,1,,,,,レクル,0
650,2370003005940,新規,0,2023-01-11,2023-01-11,合同会社作,,合同会社,宮城県,仙台市青葉区,国分町１丁目４番地９ｅｎｓｐａｃｅ,,04,101,9800803,,,,,,,2023-01-11,1,,,,,,0
657,2380005012661,新規,0,2023-01-11,2023-01-11,特定非営利活動法人まち・ひと・みらい,,その他の設立登記法人,福島県,東白川郡矢祭町,大字東舘字石田２２番地,,07,482,9635118,,,,,,,2023-01-11,1,,,,,マチヒトミライ,0
658,2400001016119,新規,0,2023-01-11,2023-01-11,株式会社浩成商事,,株式会社,岩手県,奥州市,前沢古城字姥沢１０５番地５,,03,215,0294201,,,,,,,2023-01-11,1,,,,,コウセイショウジ,0
659,2400001016127,新規,0,2023-01-11,2023-01-11,株式会社ｍｕｋｕ,,株式会社,岩手県,北上市,諏訪町２丁目６番２０号ウィスタリア諏訪町１０１,,03,206,0240034,,,,,,,2023-01-11,1,,,,,ムク,0
660,2410001013370,新規,0,2023-01-11,2023-01-11,株式会社新喜建設,,株式会社,秋田県,男鹿市,脇本脇本字前野１３１番地３,,05,206,0100342,,,,,,,2023-01-11,1,,,,,シンキケンセツ,0
661,2430001088122,新規,0,2023-01-11,2023-01-11,株式会社雅商事,,株式会社,北海道,苫小牧市,字糸井１４９番地７５,,01,213,0530814,,,,,,,2023-01-11,1,,,,,ミヤビショウジ,0
662,2430001088139,新規,0,2023-01-11,2023-01-11,北岡工業株式会社,,株式会社,北海道,伊達市,向有珠町１８４番地,,01,233,0590157,,,,,,,2023-01-11,1,,,,,キタオカコウギョウ,0
663,2430001088147,新規,0,2023-01-11,2023-01-11,株式会社Ｃｏｃｏ‐ｈａｋｕ,,株式会社,北海道,札幌市東区,北二十一条東１５丁目１番８号サンクレスト元町ＩＩ１０１号,00129002,01,103,0650021,,,,,,,2023-01-11,1,,,,,ココハク,0
664,2430001088155,新規,0,2023-01-11,2023-01-11,株式会社ｔＲｕｓｔｉｅ,,株式会社,北海道,札幌市厚別区,青葉町３丁目３番２－７０８号,,01,108,0040021,,,,,,,2023-01-11,1,,,,,トラスティー,0
665,2430001088163,新規,0,2023-01-11,2023-01-11,株式会社Ｎｅｏ・ＧＲｏｗ,,株式会社,北海道,石狩郡当別町,当別太２０９５番地,,01,303,0613773,,,,,,,2023-01-11,1,,,,,ネオグロウ,0
666,2430001088171,新規,0,2023-01-11,2023-01-11,株式会社マサ建築,,株式会社,北海道,小樽市,幸４丁目３６番２１号,,01,203,0470037,,,,,,,2023-01-11,1,,,,,マサケンチク,0
670,2460103001500,新規,0,2023-01-11,2023-01-11,合同会社長田農場,,合同会社,北海道,中川郡幕別町,字駒畠４８１番地の５,,01,643,0890783,,,,,,,2023-01-11,1,,,,,ナガタノウジョウ,0
671,2460301005121,新規,0,2023-01-11,2023-01-11,株式会社柵や禾几,,株式会社,北海道,北見市,美山町東１丁目６４番地５,,01,208,0900069,,,,,,,2023-01-11,1,,,,,サクヤアワキ,0
677,2470001019420,新規,0,2023-01-11,2023-01-11,株式会社コーシュカ,,株式会社,香川県,高松市,上林町５１０番地３９エニシア高松内,,37,201,7610302,,,,,,,2023-01-11,1,,,,,コーシュカ,0
684,2470003002325,新規,0,2023-01-11,2023-01-11,ハレイワ工務店合同会社,,合同会社,香川県,高松市,円座町１７３２番地１６,,37,201,7618044,,,,,,,2023-01-11,1,,,,,ハレイワコウムテン,0
685,2500001024706,新規,0,2023-01-11,2023-01-11,株式会社ナリー,,株式会社,愛媛県,今治市,大西町宮脇甲１１１８番地,,38,202,7992205,,,,,,,2023-01-11,1,,,,,ナリー,0
687,2700150080050,新規,0,2023-01-11,2017-01-17,みどり持株会,,その他,神奈川県,海老名市,上郷４丁目３－１,,14,215,2430434,,,,,,,2017-01-17,1,,,,,ミドリモチカブカイ,0
688,2700150110286,新規,0,2023-01-11,2022-06-22,劇団アンゲルス,,その他,石川県,金沢市,長土塀３丁目２４－２８,,17,201,9200867,,,,,,,2022-06-22,1,,,,,ゲキダンアンゲルス,0
698,3010001232084,新規,0,2023-01-11,2023-01-11,株式会社９ｉｎｅｖｅｒｓｅ,,株式会社,東京都,中央区,銀座８丁目５番４号,,13,102,1040061,,,,,,,2023-01-11,1,,,,,ナインバース,0
699,3010001232134,新規,0,2023-01-11,2023-01-11,株式会社辰易,,株式会社,東京都,千代田区,神田須田町１丁目１４番１号ヒューリック神田須田町ビル３１４号室,,13,101,1010041,,,,,,,2023-01-11,1,,,,,シンイ,0
700,3010001232142,新規,0,2023-01-11,2023-01-11,株式会社トミクル,,株式会社,東京都,中央区,東日本橋２丁目２８番４号日本橋ＣＥＴビル２階,,13,102,1030004,,,,,,,2023-01-11,1,,,,,トミクル,0
702,3010003039445,新規,0,2023-01-11,2023-01-11,Ｃｒｕｍｂｌ　Ｊａｐａｎ合同会社,,合同会社,東京都,中央区,日本橋室町４丁目３番９号,,13,102,1030022,,,,,,,2023-01-11,1,,,,,クランブルジャパン,0
706,3010005036052,新規,0,2023-01-11,2023-01-11,一般社団法人アウェア,,その他の設立登記法人,東京都,千代田区,神田三崎町２丁目２番１２号エコービル１階梨の木舎内,,13,101,1010061,,,,,,,2023-01-11,1,,,,,アウェア,0
708,3010401171691,新規,0,2023-01-11,2023-01-11,ＷＥＰＬＯＹ株式会社,,株式会社,東京都,港区,浜松町２丁目２－１５浜松町ダイヤビル２Ｆ,,13,103,1050013,,,,,,,2023-01-11,1,,,,,ウェプロイ,0
709,3010401171700,新規,0,2023-01-11,2023-01-11,ケーオーシー株式会社,,株式会社,東京都,港区,南青山２丁目２番１５号ウィン青山９４２,,13,103,1070062,,,,,,,2023-01-11,1,,,,,ケーオーシー,0
710,3010401171709,新規,0,2023-01-11,2023-01-11,株式会社ｅ．ｍ．ｃ．Ｐｒｏｄｕｃｔｓ,,株式会社,東京都,港区,三田１丁目１１番１９号小宮ビル２Ｆ,,13,103,1080073,,,,,,,2023-01-11,1,,,,,イーエムシープロダクツ,0
711,3010401171774,新規,0,2023-01-11,2023-01-11,株式会社ＯＦＦＩＣＥＯＢＡＴＡ,,株式会社,東京都,港区,西麻布３丁目１５番３号,,13,103,1060031,,,,,,,2023-01-11,1,,,,,オフィスオバタ,0
712,3010401171816,新規,0,2023-01-11,2023-01-11,Ｎｕｍｓｐｅｃｔ株式会社,,株式会社,東京都,港区,虎ノ門１丁目１６番６号虎ノ門ＲＡＰＯ－ＴＯビルＵＣＦ７階,,13,103,1050001,,,,,,,2023-01-11,1,,,,,ナムスペクト,0
719,3010403029252,新規,0,2023-01-11,2023-01-11,合同会社ＮＯＳＡＴＯ,,合同会社,東京都,港区,白金６丁目１６番２５号－１９０５,,13,103,1080072,,,,,,,2023-01-11,1,,,,,ノウサト,0
720,3010403029260,新規,0,2023-01-11,2023-01-11,Ｐｌｕｍ　Ｔｒｅｅ　Ｐａｒｔｎｅｒｓ合同会社,,合同会社,東京都,港区,赤坂７丁目６番４５－４０４号,,13,103,1070052,,,,,,,2023-01-11,1,,,,,プラムツリーパートナーズ,0
721,3010403029269,新規,0,2023-01-11,2023-01-11,合同会社Ｙ,,合同会社,東京都,港区,南青山１丁目２０番１５号,,13,103,1070062,,,,,,,2023-01-11,1,,,,,ワイ,0
722,3010405021686,新規,0,2023-01-11,2023-01-11,税理士法人Ｌｉｓ,,その他の設立登記法人,東京都,港区,愛宕２丁目５番１号愛宕グリーンヒルズＭＯＲＩタワー２４階,,13,103,1050002,,,,,,,2023-01-11,1,,,,,リズ,0
728,3010501049846,新規,0,2023-01-11,2023-01-11,株式会社ビッグストーン,,株式会社,東京都,台東区,元浅草３丁目１４番１号,,13,106,1110041,,,,,,,2023-01-11,1,,,,,ビッグストーン,0
730,3010703006521,新規,0,2023-01-11,2023-01-11,未来合同会社,,合同会社,東京都,品川区,中延２丁目８番２号,,13,109,1420053,,,,,,,2023-01-11,1,,,,,ミライ,0
731,3010801033574,新規,0,2023-01-11,2023-01-11,株式会社オーアールジーアドバンス,,株式会社,東京都,大田区,南蒲田１丁目６番１０号,,13,111,1440035,,,,,,,2023-01-11,1,,,,,オーアールジーアドバンス,0
732,3010803004417,新規,0,2023-01-11,2023-01-11,合同会社ＨｅａｌＴｃｋｒ,,合同会社,東京都,大田区,多摩川２丁目２２番１７号エバーグレイス３０２,,13,111,1460095,,,,,,,2023-01-11,1,,,,,ヘルトッカー,0
734,3010901052268,新規,0,2023-01-11,2023-01-11,株式会社ＡＬＯＮＳＯ,,株式会社,東京都,世田谷区,松原２丁目２０－８ルネサンスコート明大前１０４,,13,112,1560043,,,,,,,2023-01-11,1,,,,,アロンソ,0
735,3010901052284,新規,0,2023-01-11,2023-01-11,株式会社Ｙ’ｓｍａ,,株式会社,東京都,世田谷区,池尻３丁目１６番２４－２０９号,,13,112,1540001,,,,,,,2023-01-11,1,,,,,イスマ,0
736,3010901052292,新規,0,2023-01-11,2023-01-11,株式会社Ｒｏｏｔｕ,,株式会社,東京都,世田谷区,南烏山５丁目１２番１１号宮本ビル１０２,,13,112,1570062,,,,,,,2023-01-11,1,,,,,ルーツ,0
738,3010903007889,新規,0,2023-01-11,2023-01-11,合同会社ＡＹＨｏｕｓｅ,,合同会社,東京都,世田谷区,深沢５丁目１９番２号,,13,112,1580081,,,,,,,2023-01-11,1,,,,,エーワイハウス,0
742,3011001151712,新規,0,2023-01-11,2023-01-11,ｅｓｓ　ｍａｒｋｅｔｉｎｇ株式会社,,株式会社,東京都,目黒区,三田２丁目３番１６号,,13,110,1530062,,,,,,,2023-01-11,1,,,,,エスマーケティング,0
743,3011001151778,新規,0,2023-01-11,2023-01-11,ＭＡＬＬＳ株式会社,,株式会社,東京都,渋谷区,道玄坂１丁目１２－１渋谷マークシティ２２階,,13,113,1500043,,,,,,,2023-01-11,1,,,,,モールズ,0
744,3011001151844,新規,0,2023-01-11,2023-01-11,株式会社岡田,,株式会社,東京都,目黒区,目黒３丁目１４番１０号,,13,110,1530063,,,,,,,2023-01-11,1,,,,,オカダ,0
745,3011001151860,新規,0,2023-01-11,2023-01-11,株式会社ＪＪ　ＣＯＮＮＥＣＴ,,株式会社,東京都,目黒区,下目黒１丁目２番２２号セザール目黒５０３号室,,13,110,1530064,,,,,,,2023-01-11,1,,,,,ジェージェーコネクト,0
746,3011001151893,新規,0,2023-01-11,2023-01-11,株式会社ＩＴＯ,,株式会社,東京都,渋谷区,道玄坂１丁目１０番８号渋谷道玄坂東急ビル２Ｆ－Ｃ,,13,113,1500043,,,,,,,2023-01-11,1,,,,,イト,0
749,3011003016021,新規,0,2023-01-11,2023-01-11,合同会社テュケ,,合同会社,東京都,渋谷区,道玄坂１丁目１０番８号渋谷道玄坂東急ビル２Ｆ－Ｃ,,13,113,1500043,,,,,,,2023-01-11,1,,,,,テュケ,0
750,3011003016062,新規,0,2023-01-11,2023-01-11,合同会社わたなべ,,合同会社,東京都,目黒区,中央町１丁目９番６号,,13,110,1520001,,,,,,,2023-01-11,1,,,,,,0
759,3011101101187,新規,0,2023-01-11,2023-01-11,株式会社ＫＯＳＯＡ,,株式会社,東京都,新宿区,西新宿３丁目３番１３号西新宿水間ビル２Ｆ,,13,104,1600023,,,,,,,2023-01-11,1,,,,,コソア,0
760,3011101101369,新規,0,2023-01-11,2023-01-11,株式会社エイティエイト８８,,株式会社,東京都,新宿区,西新宿３丁目９番７－１８０１号,,13,104,1600023,,,,,,,2023-01-11,1,,,,,エイティエイト,0
761,3011101101377,新規,0,2023-01-11,2023-01-11,株式会社ＵＮＩＯＮ,,株式会社,東京都,新宿区,西新宿３丁目２番９号新宿ワシントンビル本館２Ｆ,,13,104,1600023,,,,,,,2023-01-11,1,,,,,ユニオン,0
762,3011101101393,新規,0,2023-01-11,2023-01-11,Ｆｉｖｅｖｅｒ株式会社,,株式会社,東京都,新宿区,新宿５丁目２番２３号,,13,104,1600022,,,,,,,2023-01-11,1,,,,,ファイブエバー,0
764,3011103012564,新規,0,2023-01-11,2023-01-11,合同会社ＩＮＳＴＡ,,合同会社,東京都,新宿区,歌舞伎町２丁目４５番７号,,13,104,1600021,,,,,,,2023-01-11,1,,,,,インスタ,0
765,3011103012572,新規,0,2023-01-11,2023-01-11,ＭＩＫＡＮ合同会社,,合同会社,東京都,新宿区,西落合２丁目２５―４,,13,104,1610031,,,,,,,2023-01-11,1,,,,,ミカン,0
768,3011203003975,新規,0,2023-01-11,2023-01-11,合同会社伊東内装店,,合同会社,東京都,中野区,本町２丁目３４－１１,,13,114,1640012,,,,,,,2023-01-11,1,,,,,イトウナイソウテン,0
773,3011401024815,新規,0,2023-01-11,2023-01-11,株式会社ＳＡＫＵＲＡ数学教育企画,,株式会社,東京都,板橋区,成増１丁目１４番１７－４０４号リベール成増,,13,119,1750094,,,,,,,2023-01-11,1,,,,,サクラスウガクキョウイクキカク,0
774,3011401024823,新規,0,2023-01-11,2023-01-11,株式会社クサカベ,,株式会社,東京都,板橋区,坂下２丁目３１番３号,,13,119,1740043,,,,,,,2023-01-11,1,,,,,クサカベ,0
775,3011403003866,新規,0,2023-01-11,2023-01-11,合同会社優建,,合同会社,東京都,板橋区,大山東町２８番２号原田ビル３Ｆ,,13,119,1730014,,,,,,,2023-01-11,1,,,,,ユウケン,0
776,3011501028815,新規,0,2023-01-11,2023-01-11,株式会社晴川,,株式会社,東京都,北区,中十条１丁目１３－１２－２０１,,13,117,1140032,,,,,,,2023-01-11,1,,,,,ハルカワ,0
778,3011601026462,新規,0,2023-01-11,2023-01-11,株式会社レジーナ,,株式会社,東京都,練馬区,豊玉中２丁目２１－２１－５０８,,13,120,1760013,,,,,,,2023-01-11,1,,,,,レジーナ,0
781,3011801041757,新規,0,2023-01-11,2023-01-11,株式会社小林油店,,株式会社,東京都,足立区,青井６丁目８番２０号,,13,121,1210012,,,,,,,2023-01-11,1,,,,,コバヤシアブラテン,0
784,3012401040026,新規,0,2023-01-11,2023-01-11,株式会社大晴商事,,株式会社,東京都,稲城市,矢野口２９４７番地の７,,13,225,2060812,,,,,,,2023-01-11,1,,,,,タイセイショウジ,0
785,3012401040034,新規,0,2023-01-11,2023-01-11,株式会社Ｒｅｖａｌｕｔｙ,,株式会社,東京都,稲城市,東長沼１０３９,,13,225,2060802,,,,,,,2023-01-11,1,,,,,リバルティー,0
786,3012401040050,新規,0,2023-01-11,2023-01-11,ジーンパーク株式会社,,株式会社,東京都,多摩市,関戸５丁目２０番地の８,,13,224,2060011,,,,,,,2023-01-11,1,,,,,ジーンパーク,0
790,3012703002616,新規,0,2023-01-11,2023-01-11,Ｃｒｅａｔｉｏｎｓ合同会社,,合同会社,東京都,東村山市,萩山町１丁目２４番地７０,,13,213,1890012,,,,,,,2023-01-11,1,,,,,クリエーションズ,0
797,3013301050164,新規,0,2023-01-11,2023-01-11,ストラテック株式会社,,株式会社,東京都,豊島区,南池袋４丁目２２番１０号,,13,116,1710022,,,,,,,2023-01-11,1,,,,,ストラテック,0
799,3013303006445,新規,0,2023-01-11,2023-01-11,合同会社のぞみプランニング,,合同会社,東京都,豊島区,高田３丁目６番７－３０３号,,13,116,1710033,,,,,,,2023-01-11,1,,,,,ノゾミプランニング,0
807,3020001149690,新規,0,2023-01-11,2023-01-11,株式会社末広,,株式会社,神奈川県,横浜市青葉区,鉄町５７３番地,,14,117,2250025,,,,,,,2023-01-11,1,,,,,スエヒロ,0
808,3020001149716,新規,0,2023-01-11,2023-01-11,源輝株式会社,,株式会社,神奈川県,横浜市鶴見区,市場下町１１番３７号ナイスクオリティス横濱鶴見７３９,,14,101,2300024,,,,,,,2023-01-11,1,,,,,ゲンキ,0
809,3020001149740,新規,0,2023-01-11,2023-01-11,株式会社ＰＧＣ,,株式会社,神奈川県,横浜市港北区,新横浜２丁目２番地１３ジェナルニューヨコハマ１００５,,14,109,2220033,,,,,,,2023-01-11,1,,,,,ピージーシー,0
814,3020003023010,新規,0,2023-01-11,2023-01-11,合同会社インペカブル,,合同会社,神奈川県,横浜市都筑区,中川中央１丁目２１－３－２０１,,14,118,2240003,,,,,,,2023-01-11,1,,,,,インペカブル,0
815,3020003023035,新規,0,2023-01-11,2023-01-11,合同会社沼田,,合同会社,神奈川県,横浜市緑区,長津田みなみ台１丁目９番地１ライオンズ長津田マークスフォート４２８号,,14,113,2260018,,,,,,,2023-01-11,1,,,,,ヌマタ,0
816,3020003023043,新規,0,2023-01-11,2023-01-11,合同会社料理屋臼井,,合同会社,神奈川県,川崎市高津区,梶ケ谷２丁目１２番地１梶が谷パークホームズ１１６,,14,134,2130015,,,,,,,2023-01-11,1,,,,,リョウリヤウスイ,0
822,3021001077873,新規,0,2023-01-11,2023-01-11,株式会社キタジマ,,株式会社,神奈川県,鎌倉市,大町４丁目３番１８号,,14,204,2480007,,,,,,,2023-01-11,1,,,,,キタジマ,0
823,3021003012572,新規,0,2023-01-11,2023-01-11,合同会社ｅｔｅｒｎｉｔｙ,,合同会社,神奈川県,藤沢市,辻堂２丁目５番１３号コンフォートシュー１０４号,,14,205,2510047,,,,,,,2023-01-11,1,,,,,エタニティ,0
825,3030001151786,新規,0,2023-01-11,2023-01-11,株式会社ペップＪＡＰＡＮ,,株式会社,埼玉県,さいたま市緑区,大字大間木３７８番地４,,11,109,3360923,,,,,,,2023-01-11,1,,,,,ペップジャパン,0
826,3030001151794,新規,0,2023-01-11,2023-01-11,メディナイトパートナーズ株式会社,,株式会社,埼玉県,北葛飾郡杉戸町,高野台西１丁目１０番地２９,,11,464,3450045,,,,,,,2023-01-11,1,,,,,メディナイトパートナーズ,0
827,3030001151803,新規,0,2023-01-11,2023-01-11,グローバル・コネクト株式会社,,株式会社,埼玉県,所沢市,緑町４丁目３３番２１号１Ｆ,,11,208,3591111,,,,,,,2023-01-11,1,,,,,グローバルコネクト,0
828,3030001151836,新規,0,2023-01-11,2023-01-11,オラノコーポレーション株式会社,,株式会社,埼玉県,新座市,東北１丁目１４番１号,,11,230,3520001,,,,,,,2023-01-11,1,,,,,オラノコーポレーション,0
829,3030001151844,新規,0,2023-01-11,2023-01-11,株式会社アールアイル,,株式会社,埼玉県,日高市,大字旭ケ丘３００番地３８,,11,242,3501203,,,,,,,2023-01-11,1,,,,,アールアイル,0
830,3030001151902,新規,0,2023-01-11,2023-01-11,株式会社リンクサポート,,株式会社,埼玉県,さいたま市見沼区,大字大谷１２４５番地３,,11,104,3370014,,,,,,,2023-01-11,1,,,,,リンクサポート,0
836,3030003020898,新規,0,2023-01-11,2023-01-11,合同会社スタートライン,,合同会社,埼玉県,さいたま市桜区,大字白鍬１７１番地６,,11,106,3380811,,,,,,,2023-01-11,1,,,,,スタートライン,0
837,3030003020907,新規,0,2023-01-11,2023-01-11,合同会社ＳＶＣ,,合同会社,埼玉県,越谷市,大間野町１丁目３２番地７,,11,222,3430844,,,,,,,2023-01-11,1,,,,,エスブイシー,0
843,3040001126366,新規,0,2023-01-11,2023-01-11,Ｈ＆Ｊ株式会社,,株式会社,千葉県,千葉市若葉区,小倉町８５９番地２２,,12,104,2640007,,,,,,,2023-01-11,1,,,,,エイチアンドジェイ,0
844,3040001126531,新規,0,2023-01-11,2023-01-11,株式会社道の樹,,株式会社,千葉県,野田市,上三ケ尾６５６番地,,12,208,2780013,,,,,,,2023-01-11,1,,,,,ミチノキ,0
845,3040001126548,新規,0,2023-01-11,2023-01-11,株式会社かがやき,,株式会社,千葉県,千葉市中央区,富士見２丁目７番９号富士見ビル６０９号,,12,101,2600015,,,,,,,2023-01-11,1,,,,,カガヤキ,0
850,3050001052215,新規,0,2023-01-11,2023-01-11,株式会社山建,,株式会社,茨城県,つくば市,並木３丁目１８番地７,,08,220,3050044,,,,,,,2023-01-11,1,,,,,ヤマケン,0
851,3050001052231,新規,0,2023-01-11,2023-01-11,ＢＥＬＬ　ＦＬＡＴ株式会社,,株式会社,茨城県,小美玉市,佐才８３７番地４,,08,236,3113402,,,,,,,2023-01-11,1,,,,,ベルフラット,0
857,3070001039978,新規,0,2023-01-11,2023-01-11,株式会社福島電装,,株式会社,群馬県,前橋市,龍蔵寺町３１３番地１,,10,201,3710057,,,,,,,2023-01-11,1,,,,,フクシマデンソウ,0
858,3070003004781,新規,0,2023-01-11,2023-01-11,合同会社ＨｕｂＦｕｎ,,合同会社,群馬県,高崎市,根小屋町２２３７番地３,,10,202,3701214,,,,,,,2023-01-11,1,,,,,ハブファン,0
859,3080001025390,新規,0,2023-01-11,2023-01-11,株式会社佐右ヱ門,,株式会社,静岡県,静岡市清水区,御門台１４番１３号,,22,103,4240878,,,,,,,2023-01-11,1,,,,,サウエモン,0
860,3080001025399,新規,0,2023-01-11,2023-01-11,株式会社望月建装,,株式会社,静岡県,静岡市葵区,山崎２丁目４番地の１２,,22,101,4211213,,,,,,,2023-01-11,1,,,,,モチヅキケンソウ,0
864,3080403004694,新規,0,2023-01-11,2023-01-11,幸合同会社,,合同会社,静岡県,磐田市,立野１２５７番地１,,22,211,4380821,,,,,,,2023-01-11,1,,,,,サイワイ,0
866,3100001036022,新規,0,2023-01-11,2023-01-11,株式会社エランクルール,,株式会社,長野県,松本市,出川町１５番１２号,,20,202,3900826,,,,,,,2023-01-11,1,,,,,エランクルール,0
869,3100003006832,新規,0,2023-01-11,2023-01-11,合同会社高山食堂,,合同会社,長野県,松本市,桐２丁目２番２５号,,20,202,3900871,,,,,,,2023-01-11,1,,,,,タカヤマショクドウ,0
885,3120001251585,新規,0,2023-01-11,2023-01-11,株式会社Ｓｈｅｌｌｂｅ,,株式会社,大阪府,大阪市中央区,南船場２丁目４番２０号,,27,128,5420081,,,,,,,2023-01-11,1,,,,,シェルビー,0
886,3120001251602,新規,0,2023-01-11,2023-01-11,株式会社三立架設工業,,株式会社,大阪府,寝屋川市,下神田町１３番１０－２０２号,,27,215,5720054,,,,,,,2023-01-11,1,,,,,サンリツカセツコウギョウ,0
887,3120001251676,新規,0,2023-01-11,2023-01-11,株式会社小林組,,株式会社,大阪府,大阪市港区,弁天１丁目３番１３－４５０８号,,27,107,5520007,,,,,,,2023-01-11,1,,,,,コバヤシグミ,0
893,3120003023173,新規,0,2023-01-11,2023-01-11,合同会社Ｃｈｉｆｆｏｎ,,合同会社,大阪府,大阪市北区,中津１丁目１２番１１ー６０１号,,27,127,5310071,,,,,,,2023-01-11,1,,,,,シフォン,0
894,3120003023215,新規,0,2023-01-11,2023-01-11,Ｙｏｉ合同会社,,合同会社,大阪府,大阪市城東区,鴫野西１丁目１６番８号,,27,118,5360014,,,,,,,2023-01-11,1,,,,,ヨイ,0
898,3120005023386,新規,0,2023-01-11,2023-01-11,一般社団法人珀巡会,,その他の設立登記法人,大阪府,大阪市中央区,谷町３丁目１番１７号高田屋大手前ビル６Ｆ,,27,128,5400012,,,,,,,2023-01-11,1,,,,,ハクジュンカイ,0
899,3120101066776,新規,0,2023-01-11,2023-01-11,株式会社ＰＲＯＳＴＡＴＵＳ,,株式会社,大阪府,堺市堺区,百舌鳥夕雲町２丁２１８番地８アーク百舌鳥２０６号,,27,141,5900802,,,,,,,2023-01-11,1,,,,,プロステータス,0
900,3120101066792,新規,0,2023-01-11,2023-01-11,株式会社神彩,,株式会社,大阪府,和泉市,府中町３丁目８番８号,,27,219,5940071,,,,,,,2023-01-11,1,,,,,シンサイ,0
902,3120103005006,新規,0,2023-01-11,2023-01-11,合同会社ＫＣＹ,,合同会社,大阪府,富田林市,南旭ケ丘町１番２号,,27,214,5840007,,,,,,,2023-01-11,1,,,,,ケーシーワイ,0
903,3120901046960,新規,0,2023-01-11,2023-01-11,株式会社ＬＡＱＳＭＩＬＥ,,株式会社,大阪府,吹田市,千里山西６丁目６２番Ｃ－２１３号,,27,205,5650851,,,,,,,2023-01-11,1,,,,,ラクスマイル,0
904,3120901046977,新規,0,2023-01-11,2023-01-11,株式会社エコ・２４,,株式会社,大阪府,豊中市,本町２丁目６番２７号,,27,203,5600021,,,,,,,2023-01-11,1,,,,,エコニジュウヨン,0
906,3122001036553,新規,0,2023-01-11,2023-01-11,株式会社貝畑工業,,株式会社,大阪府,東大阪市,若江東町５丁目３番２０号,,27,227,5780935,,,,,,,2023-01-11,1,,,,,カイハタコウギョウ,0
907,3122003002487,新規,0,2023-01-11,2023-01-11,下田原ファーム合同会社,,合同会社,大阪府,四條畷市,大字下田原１２６５番地,,27,229,5750012,,,,,,,2023-01-11,1,,,,,シモタワラファーム,0
911,3130001073368,新規,0,2023-01-11,2023-01-11,株式会社福生,,株式会社,京都府,京都市下京区,飴屋町２３８－１－８０３,,26,106,6008148,,,,,,,2023-01-11,1,,,,,フッサ,0
912,3130001073392,新規,0,2023-01-11,2023-01-11,ハートフル株式会社,,株式会社,京都府,京都市下京区,西松屋町５７１番地１－３０５号,,26,106,6000000,,,,,,,2023-01-11,1,,,,,ハートフル,0
913,3130001073434,新規,0,2023-01-11,2023-01-11,株式会社ネオシステム,,株式会社,京都府,宇治市,槇島町大幡３９番地の２０,,26,204,6110041,,,,,,,2023-01-11,1,,,,,ネオシステム,0
920,3140001128600,新規,0,2023-01-11,2023-01-11,株式会社岩口工務店,,株式会社,兵庫県,三木市,口吉川町蓮花寺１６６番地,,28,215,6730734,,,,,,,2023-01-11,1,,,,,イワグチコウムテン,0
921,3140001128617,新規,0,2023-01-11,2023-01-11,株式会社赤松,,株式会社,兵庫県,姫路市,青山西１丁目４番５号ヒョウゴナカムラ本社ビル１０５,,28,201,6712224,,,,,,,2023-01-11,1,,,,,アカマツ,0
922,3140001128625,新規,0,2023-01-11,2023-01-11,清水建設株式会社,,株式会社,兵庫県,南あわじ市,阿万上町３９９番地３,,28,224,6560541,,,,,,,2023-01-11,1,,,,,シミズケンセツ,0
923,3140001128658,新規,0,2023-01-11,2023-01-11,株式会社コムレイズ,,株式会社,兵庫県,神戸市中央区,小野柄通３丁目２番２３号１Ｆ,,28,110,6510088,,,,,,,2023-01-11,1,,,,,コムレイズ,0
924,3140001128674,新規,0,2023-01-11,2023-01-11,株式会社友舞,,株式会社,兵庫県,西脇市,野村町１８１５番地の４,,28,213,6770054,,,,,,,2023-01-11,1,,,,,ユウマイ,0
925,3140001128749,新規,0,2023-01-11,2023-01-11,株式会社ロジアシスト,,株式会社,兵庫県,神戸市中央区,琴ノ緒町５丁目７番１８号４Ｆ,,28,110,6510094,,,,,,,2023-01-11,1,,,,,,0
926,3140003018543,新規,0,2023-01-11,2023-01-11,合同会社なんくる,,合同会社,兵庫県,伊丹市,中野東１丁目２９４番地４,,28,207,6640022,,,,,,,2023-01-11,1,,,,,ナンクル,0
928,3140005026437,新規,0,2023-01-11,2023-01-11,特定非営利活動法人西脇てとて広場,,その他の設立登記法人,兵庫県,多可郡多可町,八千代区大屋１２１番地,,28,365,6770101,,,,,,,2023-01-11,1,,,,,ニシワキテトテヒロバ,0
929,3140005026445,新規,0,2023-01-11,2023-01-11,一般社団法人叶和,,その他の設立登記法人,兵庫県,淡路市,仮屋３８１番地,,28,226,6562331,,,,,,,2023-01-11,1,,,,,キョウワ,0
937,3160001024748,新規,0,2023-01-11,2023-01-11,株式会社モリワキ印刷,,株式会社,滋賀県,東近江市,上南町３１３番地１,,25,213,5291535,,,,,,,2023-01-11,1,,,,,モリワキインサツ,0
938,3160001024756,新規,0,2023-01-11,2023-01-11,株式会社柴田製作所,,株式会社,滋賀県,彦根市,立花町６番３６号,,25,202,5220062,,,,,,,2023-01-11,1,,,,,シバタセイサクショ,0
939,3160001024764,新規,0,2023-01-11,2023-01-11,株式会社ＳＨＵＭＩＣＯＬＯＲ,,株式会社,滋賀県,草津市,野路東１丁目１－１立命館大学ＢＫＣインキュベータ１０８号室,,25,206,5250058,,,,,,,2023-01-11,1,,,,,シュミカラー,0
946,3180003024686,新規,0,2023-01-11,2023-01-11,合同会社アーバン佐々木３６,,合同会社,愛知県,名古屋市昭和区,天神町３丁目６番地（アーバン佐々木３６　４Ａ号）,,23,107,4660032,,,,,,,2023-01-11,1,,,,,アーバンササキサンジュウロク,0
949,3190001030082,新規,0,2023-01-11,2023-01-11,丸源住田製茶株式会社,,株式会社,三重県,鈴鹿市,山本町１５５２番地の２,,24,207,5190315,,,,,,,2023-01-11,1,,,,,マルゲンスミタセイチャ,0
950,3190003004191,新規,0,2023-01-11,2023-01-11,ＡｓａｎｏＪａｐａｎ合同会社,,合同会社,三重県,桑名市,大字赤須賀１８１７番地５５,,24,205,5110033,,,,,,,2023-01-11,1,,,,,アサノジャパン,0
951,3200001040856,新規,0,2023-01-11,2023-01-11,株式会社下本農園,,株式会社,岐阜県,高山市,一之宮町１０８２番地２,,21,203,5093505,,,,,,,2023-01-11,1,,,,,シモモトノウエン,0
954,3220001025211,新規,0,2023-01-11,2023-01-11,株式会社ＥＶ北陸,,株式会社,石川県,白山市,田中町１７６番地の１,,17,210,9240801,,,,,,,2023-01-11,1,,,,,イーブイホクリク,0
956,3230001019666,新規,0,2023-01-11,2023-01-11,株式会社ツーマネカ,,株式会社,富山県,富山市,寺町４区１１２０番地１２,,16,201,9300874,,,,,,,2023-01-11,1,,,,,ツーマネカ,0
958,3240001060933,新規,0,2023-01-11,2023-01-11,株式会社白市新聞店,,株式会社,広島県,東広島市,高屋町高屋東２３８５番地３,,34,212,7392113,,,,,,,2023-01-11,1,,,,,シライチシンブンテン,0
960,3250001019912,新規,0,2023-01-11,2023-01-11,ＡＭＥ設計株式会社,,株式会社,山口県,周南市,室尾１丁目７番１０号,,35,215,7460053,,,,,,,2023-01-11,1,,,,,エーエムイーセッケイ,0
961,3250003003204,新規,0,2023-01-11,2023-01-11,ＴＮＧ合同会社,,合同会社,山口県,光市,和田町２５番１１号,,35,210,7430044,,,,,,,2023-01-11,1,,,,,ティーエヌジー,0
963,3260001037566,新規,0,2023-01-11,2023-01-11,株式会社光工業,,株式会社,岡山県,倉敷市,児島上の町４丁目１３番１２－１号,,33,202,7110907,,,,,,,2023-01-11,1,,,,,ヒカリコウギョウ,0
964,3260003004143,新規,0,2023-01-11,2023-01-11,合同会社オーマイキッチン,,合同会社,岡山県,岡山市北区,奥田南町５番１４号,,33,101,7000934,,,,,,,2023-01-11,1,,,,,オーマイキッチン,0
969,3290001100131,新規,0,2023-01-11,2023-01-11,株式会社ＷＯＲＬＤ　ＯＲＤＥＲ,,株式会社,福岡県,福岡市中央区,平尾２丁目３番３５－２０５号,,40,133,8100014,,,,,,,2023-01-11,1,,,,,ワールドオーダー,0
970,3290001100148,新規,0,2023-01-11,2023-01-11,株式会社Ｎｉｃｅ　Ｋｉｃｋ,,株式会社,福岡県,飯塚市,目尾１１４番地１６,,40,205,8200062,,,,,,,2023-01-11,1,,,,,ナイスキック,0
971,3290001100172,新規,0,2023-01-11,2023-01-11,株式会社ＡＭＰＥＲＳＡＮＤ７２,,株式会社,福岡県,福岡市中央区,警固１丁目３番１２号,,40,133,8100023,,,,,,,2023-01-11,1,,,,,アンパサンドナナジュウニ,0
975,3290005018907,新規,0,2023-01-11,2023-01-11,医療法人一粒会,,その他の設立登記法人,福岡県,大牟田市,原山町２番地８,,40,202,8360862,,,,,,,2023-01-11,1,,,,,イチリュウカイ,0
977,3290801029198,新規,0,2023-01-11,2023-01-11,ＢＡＢＯＯ株式会社,,株式会社,福岡県,直方市,大字感田３４６８番地１,,40,204,8220001,,,,,,,2023-01-11,1,,,,,バブー,0
978,3290801029207,新規,0,2023-01-11,2023-01-11,株式会社モリソッキ,,株式会社,福岡県,遠賀郡岡垣町,高陽台２丁目３番５号,,40,383,8114227,,,,,,,2023-01-11,1,,,,,モリソッキ,0
981,3300001013182,新規,0,2023-01-11,2023-01-11,株式会社Ｆｓｅｌｅｃｔ,,株式会社,佐賀県,唐津市,浜玉町横田下８０１番地,,41,202,8495122,,,,,,,2023-01-11,1,,,,,エフセレクト,0
982,3310001018214,新規,0,2023-01-11,2023-01-11,株式会社ＧＲＥＥＮＴＥＣ,,株式会社,長崎県,東彼杵郡東彼杵町,彼杵宿郷４４２番地２,,42,321,8593807,,,,,,,2023-01-11,1,,,,,グリーンテック,0
987,3330001030480,新規,0,2023-01-11,2023-01-11,株式会社エス・ケイ開発,,株式会社,熊本県,熊本市北区,八景水谷４丁目５番３３－３０２号,,43,105,8618064,,,,,,,2023-01-11,1,,,,,エスケイカイハツ,0
994,3370001049468,新規,0,2023-01-11,2023-01-11,株式会社ＣＲＥＥＴ　ｓｔａｇｅ,,株式会社,宮城県,仙台市青葉区,花京院２丁目１番６１号,,04,101,9800013,,,,,,,2023-01-11,1,,,,,クリートステージ,0
995,3370001049476,新規,0,2023-01-11,2023-01-11,株式会社うらしま清掃店,,株式会社,宮城県,気仙沼市,川原崎１３４番地６,,04,205,9880824,,,,,,,2023-01-11,1,,,,,ウラシマセイソウテン,0
1001,3400001016118,新規,0,2023-01-11,2023-01-11,株式会社ＧＩＦＴＩＭＥ,,株式会社,岩手県,一関市,山目字三反田２３２番地１,,03,209,0210051,,,,,,,2023-01-11,1,,,,,ギフタイム,0
1002,3400001016126,新規,0,2023-01-11,2023-01-11,株式会社熊谷施工,,株式会社,岩手県,盛岡市,桜台１丁目８番２号,,03,201,0200002,,,,,,,2023-01-11,1,,,,,クマガイセコウ,0
1003,3400003003015,新規,0,2023-01-11,2023-01-11,合同会社自然共生建築樹楽,,合同会社,岩手県,北上市,口内町長洞１５４番地１,,03,206,0240211,,,,,,,2023-01-11,1,,,,,シゼンキョウセイケンチクキラク,0
1004,3420001018120,新規,0,2023-01-11,2023-01-11,六三社株式会社,,株式会社,青森県,青森市,東造道２丁目５番２５号,,02,201,0300913,,,,,,,2023-01-11,1,,,,,ロクサンシャ,0
1009,3430001088154,新規,0,2023-01-11,2023-01-11,株式会社サケロール,,株式会社,北海道,札幌市厚別区,もみじ台西５丁目６番６号,,01,108,0040013,,,,,,,2023-01-11,1,,,,,サケロール,0
1010,3430001088179,新規,0,2023-01-11,2023-01-11,株式会社エヌ・セカンド,,株式会社,北海道,札幌市東区,北二十三条東２１丁目１番２号,,01,103,0650023,,,,,,,2023-01-11,1,,,,,エヌセカンド,0
1011,3430001088195,新規,0,2023-01-11,2023-01-11,株式会社リプレーション,,株式会社,北海道,札幌市南区,南二十八条西十二丁目２番１５号,,01,106,0050000,,,,,,,2023-01-11,1,,,,,リプレーション,0
1012,3430003014620,新規,0,2023-01-11,2023-01-11,ＴＳＤ合同会社,,合同会社,北海道,札幌市豊平区,美園八条３丁目４番７号,,01,105,0620008,,,,,,,2023-01-11,1,,,,,ティーエスディー,0
1013,3460301005120,新規,0,2023-01-11,2023-01-11,株式会社大芽,,株式会社,北海道,北見市,北光３２３番地１０,,01,208,0900824,,,,,,,2023-01-11,1,,,,,タイガ,0
1026,3490001010376,新規,0,2023-01-11,2023-01-11,株式会社龍盛,,株式会社,高知県,高知市,神田６８７番地５ＫＵＲＯＤＡＩＩＩ２階２０２号室,00128993,39,201,7808040,,,,,,,2023-01-11,1,,,,,リュウセイ,0
1027,3500001024705,新規,0,2023-01-11,2023-01-11,株式会社藤原モータース,,株式会社,愛媛県,伊予郡砥部町,総津１７３番地,,38,402,7912205,,,,,,,2023-01-11,1,,,,,フジワラモータース,0
1028,3700150007795,新規,0,2023-01-11,2015-10-09,東京都電気工事工業組合　世田谷地区本部,,その他,東京都,世田谷区,若林１丁目１５－１０,,13,112,1540023,,,,,,,2015-10-09,1,,,,,トウキヨウトデンキコウジコウギヨウクミアイセタガヤチクホンブ,0
1029,3700150036357,新規,0,2023-01-11,2015-10-09,岩手県議会森林・林業政策研究会,,その他,岩手県,盛岡市,内丸１０－１,,03,201,0200023,,,,,,,2015-10-09,1,,,,,イワテケンギカイシンリンリンギヨウセイサクケンキユウカイ,0
1038,4010001232050,新規,0,2023-01-11,2023-01-11,ユニオンファクター株式会社,,株式会社,東京都,千代田区,九段南４丁目７番２２－４０４号,,13,101,1020074,,,,,,,2023-01-11,1,,,,,ユニオンファクター,0
1039,4010001232067,新規,0,2023-01-11,2023-01-11,株式会社シップパートナーズ,,株式会社,東京都,中央区,日本橋茅場町１丁目１０番６号マルテービル,,13,102,1030025,,,,,,,2023-01-11,1,,,,,シップパートナーズ,0
1040,4010001232091,新規,0,2023-01-11,2023-01-11,株式会社ＹＵＺＵＭＥ,,株式会社,東京都,中央区,日本橋蛎殻町１丁目９番７号大間知ビル３階,,13,102,1030014,,,,,,,2023-01-11,1,,,,,ユヅメ,0
1041,4010001232109,新規,0,2023-01-11,2023-01-11,Ｆａｍｉｉｅ株式会社,,株式会社,東京都,中央区,銀座１丁目１２－４Ｎ＆ＥＢＬＤ．７階,,13,102,1040061,,,,,,,2023-01-11,1,,,,,ファミー,0
1044,4010003039493,新規,0,2023-01-11,2023-01-11,ＸＰＬＭ合同会社,,合同会社,東京都,千代田区,丸の内１丁目１１番１号,,13,101,1000005,,,,,,,2023-01-11,1,,,,,エックスピーエルエム,0
1045,4010003039502,新規,0,2023-01-11,2023-01-11,サステナブルローンファンド１２号合同会社,,合同会社,東京都,中央区,八丁堀４丁目２番１０号ＡＯＪ税理士法人内,,13,102,1040032,,,,,,,2023-01-11,1,,,,,サステナブルローンファンドジュウニゴウ,0
1046,4010003039510,新規,0,2023-01-11,2023-01-11,合同会社ＡＫ,,合同会社,東京都,中央区,日本橋箱崎町１９番７－１４０４号,,13,102,1030015,,,,,,,2023-01-11,1,,,,,エーケー,0
1054,4010401171690,新規,0,2023-01-11,2023-01-11,株式会社スペクトル,,株式会社,東京都,港区,南青山３丁目１番３６号青山丸竹ビル６Ｆ,,13,103,1070062,,,,,,,2023-01-11,1,,,,,スペクトル,0
1055,4010401171699,新規,0,2023-01-11,2023-01-11,株式会社沖縄アクターズスクール,,株式会社,東京都,港区,赤坂１丁目１２番２０号パークコート赤坂桜坂７０４,,13,103,1070052,,,,,,,2023-01-11,1,,,,,オキナワアクターズスクール,0
1056,4010401171740,新規,0,2023-01-11,2023-01-11,株式会社Ｌｏｖｅ＆Ｈｕｍａｎ,,株式会社,東京都,港区,赤坂３丁目１１番１９号,,13,103,1070052,,,,,,,2023-01-11,1,,,,,ラブアンドヒューマン,0
1060,4010403029251,新規,0,2023-01-11,2023-01-11,ｗｅａｌｔｈ合同会社,,合同会社,東京都,港区,新橋３丁目１１－８,,13,103,1050004,,,,,,,2023-01-11,1,,,,,ウェルス,0
1062,4010601062384,新規,0,2023-01-11,2023-01-11,トラステッド・パートナーズ株式会社,,株式会社,東京都,江東区,有明３丁目７番２６号有明フロンティアビルＢ棟９階,,13,108,1350063,,,,,,,2023-01-11,1,,,,,トラステッドパートナーズ,0
1063,4010601062401,新規,0,2023-01-11,2023-01-11,株式会社Ｆｌｕｇｅｌ,,株式会社,東京都,江東区,平野４丁目５番１１号,,13,108,1350023,,,,,,,2023-01-11,1,,,,,フューグ,0
1064,4010701043697,新規,0,2023-01-11,2023-01-11,日本リンクテック株式会社,,株式会社,東京都,品川区,荏原２丁目１７番１４号,,13,109,1420063,,,,,,,2023-01-11,1,,,,,ニホンリンクテック,0
1066,4010801033581,新規,0,2023-01-11,2023-01-11,株式会社イニフィー,,株式会社,東京都,大田区,南馬込４丁目１番２２号,,13,111,1430025,,,,,,,2023-01-11,1,,,,,イニフィー,0
1067,4010803004416,新規,0,2023-01-11,2023-01-11,合同会社Ｉｎｖｅｓｔｍｅｎｔ,,合同会社,東京都,大田区,西糀谷４丁目２番１２号,,13,111,1440034,,,,,,,2023-01-11,1,,,,,インベストメント,0
1068,4010805002995,新規,0,2023-01-11,2023-01-11,一般社団法人Ｒｉｓ．Ｍ＆Ｃｏｍｐａｎｉｔｙ,,その他の設立登記法人,東京都,大田区,大森南１丁目１６番３号マンション奥島１０１,,13,111,1430013,,,,,,,2023-01-11,1,,,,,リズエムアンドカンパニティー,0
1069,4010901052267,新規,0,2023-01-11,2023-01-11,株式会社ＧＡＮＭＡ,,株式会社,東京都,世田谷区,新町２丁目２８番８号,,13,112,1540014,,,,,,,2023-01-11,1,,,,,ガンマ,0
1070,4010901052283,新規,0,2023-01-11,2023-01-11,Ｐｌｕｓ　Ｕｌｔｒａ株式会社,,株式会社,東京都,世田谷区,上馬５丁目３９番２１－２０２号,,13,112,1540011,,,,,,,2023-01-11,1,,,,,プラスウルトラ,0
1084,4011001151819,新規,0,2023-01-11,2023-01-11,株式会社Ｒｅｌｅｖｅ,,株式会社,東京都,渋谷区,渋谷２丁目１９－１５宮益坂ビルディング６０９,,13,113,1500002,,,,,,,2023-01-11,1,,,,,ルルベ,0
1085,4011001151868,新規,0,2023-01-11,2023-01-11,株式会社マロプラス,,株式会社,東京都,渋谷区,恵比寿１丁目１５番９号日宝恵比寿ビル４０３,,13,113,1500013,,,,,,,2023-01-11,1,,,,,マロプラス,0
1090,4011101101376,新規,0,2023-01-11,2023-01-11,株式会社インテグリティ・ラーニング,,株式会社,東京都,新宿区,住吉町２番１８－１１０９号,,13,104,1620065,,,,,,,2023-01-11,1,,,,,インテグリティラーニング,0
1091,4011101101384,新規,0,2023-01-11,2023-01-11,株式会社３ＲＤ　ＧＥＡＲ,,株式会社,東京都,新宿区,西新宿８丁目１７番１号,,13,104,1600023,,,,,,,2023-01-11,1,,,,,サードギア,0
1092,4011101101418,新規,0,2023-01-11,2023-01-11,株式会社ＨＵＴ,,株式会社,東京都,新宿区,歌舞伎町２丁目２１番５号,,13,104,1600021,,,,,,,2023-01-11,1,,,,,ハット,0
1096,4011103012555,新規,0,2023-01-11,2023-01-11,ステラシオ合同会社,,合同会社,東京都,新宿区,西新宿３丁目３番１３号西新宿水間ビル６階,,13,104,1600023,,,,,,,2023-01-11,1,,,,,ステラシオ,0
1097,4011103012563,新規,0,2023-01-11,2023-01-11,合同会社イマジンノート,,合同会社,東京都,新宿区,西新宿３丁目３番１３号西新宿水間ビル６階,,13,104,1600023,,,,,,,2023-01-11,1,,,,,イマジンノート,0
1099,4011401024822,新規,0,2023-01-11,2023-01-11,株式会社ＮＡＺＯＮＥ,,株式会社,東京都,板橋区,中丸町１１番２号ワコーレ要町ビル７階,,13,119,1730026,,,,,,,2023-01-11,1,,,,,ナゾーン,0
1107,4011601026494,新規,0,2023-01-11,2023-01-11,株式会社かなう,,株式会社,東京都,練馬区,東大泉７丁目３番３号,,13,120,1780063,,,,,,,2023-01-11,1,,,,,カナウ,0
1109,4011801041756,新規,0,2023-01-11,2023-01-11,株式会社ＳＡＬＶＯ,,株式会社,東京都,葛飾区,新小岩４丁目２５番３－２０２号マートルコート新小岩,,13,122,1240024,,,,,,,2023-01-11,1,,,,,シャルボ,0
1112,4012401040041,新規,0,2023-01-11,2023-01-11,株式会社ＫＳＫ,,株式会社,東京都,調布市,下石原３丁目１番地３０,,13,208,1820034,,,,,,,2023-01-11,1,,,,,ケーエスケー,0
1115,4012403005769,新規,0,2023-01-11,2023-01-11,遠軒合同会社,,合同会社,東京都,武蔵野市,中町１丁目２５－７スカイコート三鷹１０３,,13,203,1800006,,,,,,,2023-01-11,1,,,,,エンケン,0
1116,4012405004819,新規,0,2023-01-11,2023-01-11,特定非営利活動法人Ｈａｐｐｙ　Ｆａｍｉｌｙ　Ｃｏｌｌｅｇｅ,,その他の設立登記法人,東京都,三鷹市,牟礼７丁目２番４号,,13,204,1810002,,,,,,,2023-01-11,1,,,,,ハッピーファミリーカレッジ,0
1117,4012701017417,新規,0,2023-01-11,2023-01-11,株式会社ＮＡＭＩＤＡ　Ｘ,,株式会社,東京都,清瀬市,元町１丁目１３番２１号エメラルドハイツ１０１－１０１号室－Ｄ,,13,221,2040021,,,,,,,2023-01-11,1,,,,,ナミダエックス,0
1118,4012701017425,新規,0,2023-01-11,2023-01-11,株式会社Ｒ４,,株式会社,東京都,清瀬市,上清戸２丁目９番１７号,,13,221,2040013,,,,,,,2023-01-11,1,,,,,アールフォー,0
1120,4012801022069,新規,0,2023-01-11,2023-01-11,株式会社朱鷺,,株式会社,東京都,国立市,谷保６７６５番地の１,,13,215,1860011,,,,,,,2023-01-11,1,,,,,トキ,0
1121,4013101009095,新規,0,2023-01-11,2023-01-11,瑞穂マシナリー株式会社,,株式会社,東京都,西多摩郡瑞穂町,大字長岡長谷部中平３７２番地２１,,13,303,1901231,,,,,,,2023-01-11,1,,,,,ミズホマシナリー,0
1127,4020001149707,新規,0,2023-01-11,2023-01-11,株式会社ＢＲＥＡＳＴ,,株式会社,神奈川県,横浜市保土ケ谷区,釜台町５番２－６０７号,,14,106,2400066,,,,,,,2023-01-11,1,,,,,ブレスト,0
1128,4020001149723,新規,0,2023-01-11,2023-01-11,インプレッジ株式会社,,株式会社,神奈川県,横浜市西区,北幸１丁目１１番１号水信ビル７階,,14,103,2200004,,,,,,,2023-01-11,1,,,,,インプレッジ,0
1129,4020001149731,新規,0,2023-01-11,2023-01-11,株式会社エヌジーシー,,株式会社,神奈川県,横浜市緑区,鴨居２丁目７番地,,14,113,2260003,,,,,,,2023-01-11,1,,,,,エヌジーシー,0
1132,4020003023018,新規,0,2023-01-11,2023-01-11,合同会社ハルノヒエッセ,,合同会社,神奈川県,川崎市麻生区,はるひ野２丁目１１番３号プレシャスアボードＤ１０１,,14,137,2150036,,,,,,,2023-01-11,1,,,,,ハルノヒエッセ,0
1133,4020003023026,新規,0,2023-01-11,2023-01-11,エウレカモーメントジャパン合同会社,,合同会社,神奈川県,横浜市緑区,竹山３丁目１番地８竹山団地３１０１棟１２５号,,14,113,2260005,,,,,,,2023-01-11,1,,,,,エウレカモーメントジャパン,0
1134,4020003023042,新規,0,2023-01-11,2023-01-11,合同会社ライト＆リード,,合同会社,神奈川県,横浜市青葉区,もえぎ野１３番地４藤和シティホームズ青葉台もえぎ野壱番館３０４号,,14,117,2270044,,,,,,,2023-01-11,1,,,,,ライトアンドリード,0
1144,4021001077889,新規,0,2023-01-11,2023-01-11,株式会社Ａｚ’ｓ　ｒｉｎｇｓ,,株式会社,神奈川県,座間市,ひばりが丘５丁目４４番７号,,14,216,2520003,,,,,,,2023-01-11,1,,,,,アズノリングス,0
1146,4021003012571,新規,0,2023-01-11,2023-01-11,合同会社原井武志公認会計士事務所,,合同会社,神奈川県,茅ヶ崎市,矢畑１７番地３,,14,207,2530085,,,,,,,2023-01-11,1,,,,,ハライタケシコウニンカイケイシジムショ,0
1150,4030001151785,新規,0,2023-01-11,2023-01-11,庭屋玄株式会社,,株式会社,埼玉県,さいたま市見沼区,大字御蔵２５番地２６,,11,104,3370033,,,,,,,2023-01-11,1,,,,,ニワヤゲン,0
1151,4030001151793,新規,0,2023-01-11,2023-01-11,株式会社ｆｏｃｉｔ,,株式会社,埼玉県,さいたま市岩槻区,美園東２丁目２４番地１,,11,110,3390028,,,,,,,2023-01-11,1,,,,,フォーサイト,0
1152,4030001151802,新規,0,2023-01-11,2023-01-11,株式会社幹マネジメント,,株式会社,埼玉県,越谷市,レイクタウン１丁目２５番地３,,11,222,3430828,,,,,,,2023-01-11,1,,,,,ミキマネジメント,0
1153,4030001151810,新規,0,2023-01-11,2023-01-11,株式会社台和商事,,株式会社,埼玉県,本庄市,児玉町児玉１６６０番地１,,11,211,3670212,,,,,,,2023-01-11,1,,,,,ダイワショウジ,0
1154,4030001151827,新規,0,2023-01-11,2023-01-11,達磨工業株式会社,,株式会社,埼玉県,加須市,礼羽２４９番地２,,11,210,3470044,,,,,,,2023-01-11,1,,,,,ダルマコウギョウ,0
1155,4030001151835,新規,0,2023-01-11,2023-01-11,株式会社インターナルコンサルティング,,株式会社,埼玉県,さいたま市中央区,下落合６丁目１２番２０号,,11,105,3380002,,,,,,,2023-01-11,1,,,,,インターナルコンサルティング,0
1156,4030001151843,新規,0,2023-01-11,2023-01-11,株式会社良縁,,株式会社,埼玉県,川口市,栄町３丁目２番２１号２Ｆ,,11,203,3320017,,,,,,,2023-01-11,1,,,,,リョウエン,0
1157,4030001151851,新規,0,2023-01-11,2023-01-11,株式会社Ｏｔｔｏ,,株式会社,埼玉県,さいたま市北区,本郷町９０７－１ヴィアレットＩ－１０１号室,,11,102,3310802,,,,,,,2023-01-11,1,,,,,オット,0
1158,4030001151892,新規,0,2023-01-11,2023-01-11,株式会社下釜塗工,,株式会社,埼玉県,久喜市,青葉５丁目２３番地７クレストタウンズＡ２０２号,,11,232,3460013,,,,,,,2023-01-11,1,,,,,シモガマトコウ,0
1160,4030003020880,新規,0,2023-01-11,2023-01-11,合同会社ｌａｓｏｌ,,合同会社,埼玉県,さいたま市浦和区,高砂４丁目６番１４号,,11,107,3300063,,,,,,,2023-01-11,1,,,,,ラソル,0
1161,4030003020889,新規,0,2023-01-11,2023-01-11,ＳＨＩＮＥ合同会社,,合同会社,埼玉県,越谷市,大字袋山１５１３－１－８０３,,11,222,3430032,,,,,,,2023-01-11,1,,,,,シャイン,0
1162,4030003020897,新規,0,2023-01-11,2023-01-11,合同会社千恵,,合同会社,埼玉県,さいたま市桜区,大字宿１１７番地２,,11,106,3380814,,,,,,,2023-01-11,1,,,,,チエ,0
1163,4030003020914,新規,0,2023-01-11,2023-01-11,合同会社アドミライ,,合同会社,埼玉県,草加市,北谷１丁目１８－１５,,11,221,3400046,,,,,,,2023-01-11,1,,,,,アドミライ,0
1168,4040001126588,新規,0,2023-01-11,2023-01-11,株式会社１２ヴェスタ,,株式会社,千葉県,千葉市美浜区,打瀬１丁目７番地１パティオス・グランアクシブ２番館１０１号,,12,106,2610013,,,,,,,2023-01-11,1,,,,,ワンツーヴェスタ,0
1172,4040003021647,新規,0,2023-01-11,2023-01-11,豊昇合同会社,,合同会社,千葉県,千葉市美浜区,稲毛海岸３丁目３番２６棟４０４号,,12,106,2610005,,,,,,,2023-01-11,1,,,,,ホウショウ,0
1174,4050001052189,新規,0,2023-01-11,2023-01-11,ＹＡＳＨＩＯホールディングス株式会社,,株式会社,茨城県,守谷市,百合ケ丘１丁目２４３８番地の１,,08,224,3020110,,,,,,,2023-01-11,1,,,,,ヤシオホールディングス,0
1175,4050001052197,新規,0,2023-01-11,2023-01-11,株式会社川畑プロパン,,株式会社,茨城県,神栖市,波崎９４６５番地５,,08,232,3140408,,,,,,,2023-01-11,1,,,,,カワバタプロパン,0
1176,4050001052214,新規,0,2023-01-11,2023-01-11,コスフル株式会社,,株式会社,茨城県,つくば市,島名３０８５番地２,,08,220,3002655,,,,,,,2023-01-11,1,,,,,コスフル,0
1177,4050003007141,新規,0,2023-01-11,2023-01-11,合同会社みどりの会,,合同会社,茨城県,つくば市,谷田部３９７９番地１－５棟２０４号,,08,220,3050861,,,,,,,2023-01-11,1,,,,,ミドリノカイ,0
1179,4060001035589,新規,0,2023-01-11,2023-01-11,株式会社スペアミント,,株式会社,栃木県,足利市,通３丁目２７７７番地（２Ｆ）,,09,202,3260814,,,,,,,2023-01-11,1,,,,,スペアミント,0
1181,4070001039985,新規,0,2023-01-11,2023-01-11,株式会社ＡＬＯＨＡ　ＧＡＲＡＧＥ,,株式会社,群馬県,高崎市,旭町４７番地レーベン高崎フレシア４０２号,,10,202,3700052,,,,,,,2023-01-11,1,,,,,アロハガレージ,0
1182,4080001025373,新規,0,2023-01-11,2023-01-11,新静岡開発株式会社,,株式会社,静岡県,静岡市葵区,御幸町１０番地の１,,22,101,4200857,,,,,,,2023-01-11,1,,,,,シンシズオカカイハツ,0
1185,4080401026244,新規,0,2023-01-11,2023-01-11,大山ソフトウェア株式会社,,株式会社,静岡県,浜松市北区,新都田３丁目１８番６号,,22,135,4312103,,,,,,,2023-01-11,1,,,,,オオヤマソフトウェア,0
1187,4080403004693,新規,0,2023-01-11,2023-01-11,合同会社ユウセイ,,合同会社,静岡県,浜松市東区,市野町１７５１番地の１,,22,132,4350051,,,,,,,2023-01-11,1,,,,,ユウセイ,0
1193,4100003006831,新規,0,2023-01-11,2023-01-11,合同会社牧田工業,,合同会社,長野県,下伊那郡喬木村,１５８９１番地１,,20,415,3951100,,,,,,,2023-01-11,1,,,,,マキタコウギョウ,0
1195,4110001037209,新規,0,2023-01-11,2023-01-11,株式会社Ｎｅｑｌｉａｓ,,株式会社,新潟県,新発田市,佐々木２６１１番地６,,15,206,9570082,,,,,,,2023-01-11,1,,,,,ネクリアス,0
1196,4110001037233,新規,0,2023-01-11,2023-01-11,株式会社キワイド,,株式会社,新潟県,新潟市中央区,笹口３丁目１４番地６,,15,103,9500911,,,,,,,2023-01-11,1,,,,,キワイド,0
1197,4110003004958,新規,0,2023-01-11,2023-01-11,合同会社ＲＪ’ｓリサーチ・アンド・アドバイザリー,,合同会社,新潟県,新潟市西区,五十嵐２の町８０５０番地新潟大学「ＮＯＴ　ＴＨＥ　ＵＮＩＶＥＲＳＩＴＹ」内,,15,107,9502102,,,,,,,2023-01-11,1,,,,,アールジェイズリサーチアンドアドバイザリー,0
1208,4120001251659,新規,0,2023-01-11,2023-01-11,株式会社ＡＢ　ｂａｎｋ,,株式会社,大阪府,大阪市浪速区,元町２丁目４番１３号Ａ．Ａ．Ｏ・ＢＬＤＧ．ＮＡＭＢＡ２０１,,27,111,5560016,,,,,,,2023-01-11,1,,,,,エビバンク,0
1213,4120003023197,新規,0,2023-01-11,2023-01-11,Ｂ‐Ｗｅｓｔ合同会社,,合同会社,大阪府,大阪市鶴見区,放出東２丁目３番６号,,27,124,5380044,,,,,,,2023-01-11,1,,,,,ビーウエスト,0
1214,4120003023214,新規,0,2023-01-11,2023-01-11,合同会社ＡＳＳＥＭＢＬＥ,,合同会社,大阪府,枚方市,長尾元町１丁目２２番６号,,27,210,5730163,,,,,,,2023-01-11,1,,,,,アッセンブル,0
1215,4120103005013,新規,0,2023-01-11,2023-01-11,大塚運送合同会社,00128997,合同会社,大阪府,堺市美原区,北余部西４丁目１５９番２,,27,147,5870053,,,,,,,2023-01-11,1,,,,,オオツカウンソウ,0
1216,4120103005021,新規,0,2023-01-11,2023-01-11,合同会社さかい職業能力開発センター,,合同会社,大阪府,堺市東区,日置荘原寺町１８５－５２,,27,143,5998112,,,,,,,2023-01-11,1,,,,,サカイショクギョウノウリョクカイハツセンター,0
1224,4130001073425,新規,0,2023-01-11,2023-01-11,エムエアーシステム株式会社,,株式会社,京都府,福知山市,和久市町１２１番地の４,,26,201,6200062,,,,,,,2023-01-11,1,,,,,エムエアーシステム,0
1225,4130005016660,新規,0,2023-01-11,2023-01-11,一般社団法人ＳＨＩＮＰＡ,,その他の設立登記法人,京都府,京都市下京区,東塩小路町５７６番地２大橋ビル３階,,26,106,6000000,,,,,,,2023-01-11,1,,,,,シンパ,0
1229,4140001128599,新規,0,2023-01-11,2023-01-11,株式会社ｇａｒｄｅｎ　ｂａｓｅ,,株式会社,兵庫県,神戸市垂水区,清水が丘３丁目２番６号,,28,108,6550031,,,,,,,2023-01-11,1,,,,,ガーデンベース,0
1230,4140001128616,新規,0,2023-01-11,2023-01-11,株式会社ｕｎｉｃｏｒｎ,,株式会社,兵庫県,姫路市,福中町４番地,,28,201,6700017,,,,,,,2023-01-11,1,,,,,ユニコーン,0
1231,4140001128624,新規,0,2023-01-11,2023-01-11,株式会社ＵＴＯ,,株式会社,兵庫県,西宮市,高須町１丁目１番２－２２０８号,,28,204,6638141,,,,,,,2023-01-11,1,,,,,ユーティーオー,0
1232,4140001128632,新規,0,2023-01-11,2023-01-11,株式会社大地造園緑化,,株式会社,兵庫県,丹波市,山南町和田３３６番地１,,28,223,6693157,,,,,,,2023-01-11,1,,,,,オオチゾウエンリョクカ,0
1233,4140003018526,新規,0,2023-01-11,2023-01-11,合同会社クレア,,合同会社,兵庫県,尼崎市,東難波町５丁目２２番３２号,,28,202,6600892,,,,,,,2023-01-11,1,,,,,クレア,0
1234,4140003018550,新規,0,2023-01-11,2023-01-11,合同会社Ｂｅ　Ａｍｂｉｔｉｏｕｓ,,合同会社,兵庫県,川西市,大和西１丁目６６番地の３大橋ビル３階Ｊ号室,,28,217,6660112,,,,,,,2023-01-11,1,,,,,ビアンビシャス,0
1236,4140005026436,新規,0,2023-01-11,2023-01-11,一般社団法人ｗｈｅｒｅａｂｏｕｔｓ,,その他の設立登記法人,兵庫県,姫路市,勝原区朝日谷１８番地４,,28,201,6711204,,,,,,,2023-01-11,1,,,,,ウェアラバウツ,0
1246,4160001024763,新規,0,2023-01-11,2023-01-11,株式会社１ＴＥＡＭ,,株式会社,滋賀県,近江八幡市,千僧供町４２２番１号,,25,204,5230016,,,,,,,2023-01-11,1,,,,,ワンチーム,0
1249,4170001017436,新規,0,2023-01-11,2023-01-11,陽光建設株式会社,,株式会社,和歌山県,東牟婁郡那智勝浦町,大字宇久井１７３０番地１６０,,30,421,6495312,,,,,,,2023-01-11,1,,,,,ヨウコウケンセツ,0
1250,4170005006988,新規,0,2023-01-11,2023-01-11,医療法人輝和会,,その他の設立登記法人,和歌山県,和歌山市,加納１２２番１２,,30,201,6408391,,,,,,,2023-01-11,1,,,,,キワカイ,0
1258,4180003024702,新規,0,2023-01-11,2023-01-11,合同会社ひよ企画,,合同会社,愛知県,長久手市,岩作落合３１３フォーシーズンＢ－２０１,,23,238,4801103,,,,,,,2023-01-11,1,,,,,ヒヨキカク,0
1260,4190003004190,新規,0,2023-01-11,2023-01-11,合同会社ＲＥＧＡＬＯ,,合同会社,三重県,鈴鹿市,大池１丁目１３番３５号,,24,207,5130827,,,,,,,2023-01-11,1,,,,,レガロ,0
1261,4200001040847,新規,0,2023-01-11,2023-01-11,株式会社ＣＲＡＦＴ　ＯＵＴ,,株式会社,岐阜県,郡上市,八幡町新町９３９番地町家玄麟２Ｆ,,21,219,5014226,,,,,,,2023-01-11,1,,,,,クラフトアウト,0
1266,4220005008723,新規,0,2023-01-11,2023-01-11,特定非営利活動法人シンママ応援団,,その他の設立登記法人,石川県,金沢市,小金町１４‐８山下ビル,,17,201,9200805,,,,,,,2023-01-11,1,,,,,シンママオウエンダン,0
1272,4240001060949,新規,0,2023-01-11,2023-01-11,株式会社ベルデ,,株式会社,広島県,広島市中区,住吉町１１番１６号,,34,101,7300813,,,,,,,2023-01-11,1,,,,,ベルデ,0
1273,4250001019903,新規,0,2023-01-11,2023-01-11,株式会社ハシモト,,株式会社,山口県,山口市,大内千坊６丁目９番１号ゆめタウン山口１Ｆ,,35,203,7530251,,,,,,,2023-01-11,1,,,,,ハシモト,0
1275,4250003003203,新規,0,2023-01-11,2023-01-11,合同会社Ｓｅｅ１ｅ,,合同会社,山口県,宇部市,大字上宇部５３１番地,,35,202,7550091,,,,,,,2023-01-11,1,,,,,ゼーレ,0
1278,4260001037549,新規,0,2023-01-11,2023-01-11,株式会社ＭＥＲＫＳ,,株式会社,岡山県,玉野市,日比２丁目２番７号,,33,204,7060027,,,,,,,2023-01-11,1,,,,,マークス,0
1279,4260003004150,新規,0,2023-01-11,2023-01-11,合同会社Ｎ４,,合同会社,岡山県,岡山市北区,青江５丁目１７番１９号,,33,101,7000941,,,,,,,2023-01-11,1,,,,,エヌフォー,0
1289,4290001100122,新規,0,2023-01-11,2023-01-11,株式会社Ｔ’ｓ　Ｒｏｏｍ,,株式会社,福岡県,福岡市中央区,地行３丁目２６番２５－４１０号,,40,133,8100064,,,,,,,2023-01-11,1,,,,,ティーズルーム,0
1290,4290001100139,新規,0,2023-01-11,2023-01-11,株式会社野元建設,,株式会社,福岡県,那珂川市,大字山田５８０番地６,,40,231,8111244,,,,,,,2023-01-11,1,,,,,ノモトケンセツ,0
1291,4290001100155,新規,0,2023-01-11,2023-01-11,株式会社橘,,株式会社,福岡県,福岡市中央区,天神３丁目１０番３２号ロゼ天神９０１号,,40,133,8100001,,,,,,,2023-01-11,1,,,,,タチバナ,0
1292,4290003013396,新規,0,2023-01-11,2023-01-11,合同会社ｈａｍｍａｒ’ｓ,,合同会社,福岡県,福岡市城南区,鳥飼６丁目１６番６号,,40,136,8140103,,,,,,,2023-01-11,1,,,,,ハマーズ,0
1293,4290801029197,新規,0,2023-01-11,2023-01-11,株式会社金川,,株式会社,福岡県,田川郡川崎町,大字田原２９９番地１,,40,605,8270004,,,,,,,2023-01-11,1,,,,,カネガワ,0
1294,4290803004306,新規,0,2023-01-11,2023-01-11,合同会社野村印刷,,合同会社,福岡県,豊前市,大字今市１３１番地２,,40,214,8280062,,,,,,,2023-01-11,1,,,,,ノムラインサツ,0
1300,4330003009654,新規,0,2023-01-11,2023-01-11,住サービス合同会社,,合同会社,熊本県,上益城郡御船町,大字豊秋２０１０番地３,,43,441,8613131,,,,,,,2023-01-11,1,,,,,ジュウサービス,0
1301,4340001025289,新規,0,2023-01-11,2023-01-11,株式会社カンパネラ,,株式会社,鹿児島県,鹿児島市,荒田１丁目３３‐１７カシータ荒田１０１,,46,201,8900054,,,,,,,2023-01-11,1,,,,,カンパネラ,0
1306,4350001018119,新規,0,2023-01-11,2023-01-11,株式会社萩野板金工業,,株式会社,宮崎県,宮崎市,高岡町高浜２５番地１０,,45,201,8802215,,,,,,,2023-01-11,1,,,,,ハギノバンキンコウギョウ,0
1307,4350005006128,新規,0,2023-01-11,2023-01-11,医療法人和英雅会,,その他の設立登記法人,宮崎県,宮崎市,大字熊野４８１番地１,,45,201,8892151,,,,,,,2023-01-11,1,,,,,ワエイミヤビカイ,0
1308,4360005006770,新規,0,2023-01-11,2023-01-11,一般社団法人はなしろ共栄会,,その他の設立登記法人,沖縄県,名護市,大北３丁目１９番２２号,,47,209,9050019,,,,,,,2023-01-11,1,,,,,ハナシロキョウエイカイ,0
1311,4370001049467,新規,0,2023-01-11,2023-01-11,株式会社ＡｒｔｉｓａｎＭａｔｅｒｉａｌ,,株式会社,宮城県,仙台市青葉区,一番町２丁目６番１号シティハウス一番町中央２Ｆ,,04,101,9800811,,,,,,,2023-01-11,1,,,,,アーティザンマテリアル,0
1314,4370003005947,新規,0,2023-01-11,2023-01-11,エヌクリエイト合同会社,,合同会社,宮城県,仙台市太白区,柳生２丁目２４番４号ナイスアーバンステイツ南仙台７０５,,04,104,9811106,,,,,,,2023-01-11,1,,,,,エヌクリエイト,0
1327,4400001016117,新規,0,2023-01-11,2023-01-11,株式会社フォーシーズ,,株式会社,岩手県,宮古市,高浜４丁目１２９番地２,,03,202,0270032,,,,,,,2023-01-11,1,,,,,フォーシーズ,0
1336,4430001088112,新規,0,2023-01-11,2023-01-11,北海道吉田屋株式会社,,株式会社,北海道,余市郡余市町,梅川町６７８番地,,01,408,0460023,,,,,,,2023-01-11,1,,,,,ホッカイドウヨシダヤ,0
1340,4440001009208,新規,0,2023-01-11,2023-01-11,株式会社えむ,,株式会社,北海道,函館市,大縄町１６番２０号,,01,202,0400062,,,,,,,2023-01-11,1,,,,,エム,0
1355,4470003002323,新規,0,2023-01-11,2023-01-11,合同会社ＫＯＭＯ,,合同会社,香川県,坂出市,江尻町１５８９番地９,,37,203,7620011,,,,,,,2023-01-11,1,,,,,コモ,0
1360,4490001010375,新規,0,2023-01-11,2023-01-11,株式会社デルタワークス,,株式会社,高知県,高知市,東石立町３０番地１,,39,201,7808039,,,,,,,2023-01-11,1,,,,,デルタワークス,0
1361,4500001024704,新規,0,2023-01-11,2023-01-11,株式会社裕建創,,株式会社,愛媛県,松山市,北土居１丁目１番１－４号,,38,201,7911104,,,,,,,2023-01-11,1,,,,,ユウケンソウ,0
1362,4500003002947,新規,0,2023-01-11,2023-01-11,宝和合同会社,,合同会社,愛媛県,四国中央市,下柏町８７１番地１,,38,213,7990411,,,,,,,2023-01-11,1,,,,,ホウワ,0
1364,4700150110350,新規,0,2023-01-11,2022-06-24,大河原教育事務所管内社会教育委員連絡協議会,,その他,宮城県,柴田郡大河原町,字町１９６,,04,321,9891241,,,,,,,2022-06-24,1,,,,,オオガワラキヨウイクジムシヨカンナイシヤカイキヨウイクイインレンラクキヨウギカイ,0
1365,4700150110400,新規,0,2023-01-11,2022-06-24,ＫＥＮプロデュース,,その他,東京都,練馬区,旭丘１丁目６７－５,,13,120,1760005,,,,,,,2022-06-24,1,,,,,ケンプロデユース,0
1366,4700150112710,新規,0,2023-01-11,2022-11-10,弦楽四重奏を楽しむ会,,その他,神奈川県,川崎市麻生区,千代ケ丘７丁目１３－１３,,14,137,2150005,,,,,,,2022-11-10,1,,,,,ゲンガクシジユウソウヲタノシムカイ,0
1367,4700150112850,新規,0,2023-01-11,2022-11-14,Ｗ．Ｍ．Ｃ．,,その他,大阪府,大阪市浪速区,恵美須西２丁目１１－１１ＲｉｔｚＳＱＵＡＲＥＧａｔｅＱｂｅ３０１号室,,27,111,5560003,,,,,,,2022-11-14,1,,,,,ダブリユーエムシー,0
1368,4700150113295,新規,0,2023-01-11,2022-12-07,真岡にら組合,,その他,栃木県,真岡市,下大田和５９６,,09,209,3214413,,,,,,,2022-12-07,1,,,,,モオカニラクミアイ,0
1375,5010001232017,新規,0,2023-01-11,2023-01-11,株式会社Ｔｏｙｏ　Ｇｒｏｕｐ,,株式会社,東京都,千代田区,神田三崎町２丁目７番６号,,13,101,1010061,,,,,,,2023-01-11,1,,,,,トーヨーグループ,0
1376,5010001232082,新規,0,2023-01-11,2023-01-11,株式会社ＪＩＮＥＮＮ,,株式会社,東京都,千代田区,九段南１丁目５番６号りそな九段ビル５Ｆ・ＫＳフロア,,13,101,1020074,,,,,,,2023-01-11,1,,,,,ジネン,0
1377,5010001232090,新規,0,2023-01-11,2023-01-11,株式会社Ｂ・ＭＡＫＥＰＲＯ,,株式会社,東京都,文京区,千石４丁目１６番１２号Ｍ．５ｔｈ２０３,,13,105,1120011,,,,,,,2023-01-11,1,,,,,ビーメイクプロ,0
1379,5010003039526,新規,0,2023-01-11,2023-01-11,合同会社ＬＳ２,,合同会社,東京都,千代田区,丸の内３丁目１番１号東京共同会計事務所内,,13,101,1000005,,,,,,,2023-01-11,1,,,,,エルエスツー,0
1380,5010003039542,新規,0,2023-01-11,2023-01-11,ＨＵＩＴ合同会社,,合同会社,東京都,中央区,築地２丁目１５番１５号,,13,102,1040045,,,,,,,2023-01-11,1,,,,,ユイット,0
1381,5010003039550,新規,0,2023-01-11,2023-01-11,合同会社ＭＯＶＥ,,合同会社,東京都,中央区,銀座１丁目１２－４Ｎ＆ＥＢＬＤ．７階,,13,102,1040061,,,,,,,2023-01-11,1,,,,,ムーヴ,0
1383,5010005036067,新規,0,2023-01-11,2023-01-11,弁護士法人谷井綜合法律事務所,,その他の設立登記法人,東京都,中央区,新富２丁目５番１０号新富ビル３階,,13,102,1040041,,,,,,,2023-01-11,1,,,,,タニイソウゴウホウリツジムショ,0
1388,5010401171698,新規,0,2023-01-11,2023-01-11,株式会社行動科学研究所,,株式会社,東京都,港区,南麻布１丁目１２番７－３０５号,,13,103,1060047,,,,,,,2023-01-11,1,,,,,コウドウカガクケンキュウジョ,0
1389,5010401171707,新規,0,2023-01-11,2023-01-11,株式会社ゼロ・ミリオン,,株式会社,東京都,港区,浜松町２丁目２－１５浜松町ダイヤビル２階,,13,103,1050013,,,,,,,2023-01-11,1,,,,,ゼロミリオン,0
1390,5010401171715,新規,0,2023-01-11,2023-01-11,ビュージックスジャパン株式会社,,株式会社,東京都,港区,赤坂４丁目１番１号ＳＨＩＭＡ赤坂ビル,,13,103,1070052,,,,,,,2023-01-11,1,,,,,ビュージックスジャパン,0
1391,5010401171723,新規,0,2023-01-11,2023-01-11,Ｉｃｈｉｚｏｋｕ株式会社,,株式会社,東京都,港区,南麻布２丁目１０番１－１００２号,,13,103,1060047,,,,,,,2023-01-11,1,,,,,イチゾク,0
1392,5010401171764,新規,0,2023-01-11,2023-01-11,株式会社ＢＬＵＥ,,株式会社,東京都,港区,南青山６丁目５番５５号,,13,103,1070062,,,,,,,2023-01-11,1,,,,,ブルー,0
1396,5010403029250,新規,0,2023-01-11,2023-01-11,合同会社Ｌｉｆｅｍａｔｅ　Ｒｅａｌ　Ｅｓｔａｔｅ,,合同会社,東京都,港区,南青山１丁目１番１号新青山ビル東館１０階,,13,103,1070062,,,,,,,2023-01-11,1,,,,,ライフメイトリアルエステート,0
1397,5010403029259,新規,0,2023-01-11,2023-01-11,合同会社ピタゴラス,,合同会社,東京都,港区,東麻布１丁目２３番７号,,13,103,1060044,,,,,,,2023-01-11,1,,,,,ピタゴラス,0
1400,5010601062400,新規,0,2023-01-11,2023-01-11,樹想新社株式会社,,株式会社,東京都,江東区,南砂２丁目３６番１０号,,13,108,1360076,,,,,,,2023-01-11,1,,,,,キソウシンシャ,0
1403,5010803004415,新規,0,2023-01-11,2023-01-11,合同会社ＲＥＩＴ,,合同会社,東京都,大田区,西糀谷４丁目２番１２号,,13,111,1440034,,,,,,,2023-01-11,1,,,,,リート,0
1405,5010901052258,新規,0,2023-01-11,2023-01-11,ＧＩＶＥＲ株式会社,,株式会社,東京都,世田谷区,池尻４丁目１０番１－６０９号,,13,112,1540001,,,,,,,2023-01-11,1,,,,,ギバー,0
1406,5010901052266,新規,0,2023-01-11,2023-01-11,株式会社ＩＢＩＴ,,株式会社,東京都,世田谷区,野沢２丁目３１番１０－３０８号,,13,112,1540003,,,,,,,2023-01-11,1,,,,,イビット,0
1408,5010903007879,新規,0,2023-01-11,2023-01-11,合同会社バルト,,合同会社,東京都,世田谷区,三軒茶屋１丁目４０－１０－３０８,,13,112,1540024,,,,,,,2023-01-11,1,,,,,バルト,0
1409,5010903007887,新規,0,2023-01-11,2023-01-11,合同会社Ｍｕｎｅ,,合同会社,東京都,世田谷区,玉川３丁目１１番６号ファミールつばめ３Ｆ,,13,112,1580094,,,,,,,2023-01-11,1,,,,,ムネ,0
1411,5011001039609,新規,0,2023-01-11,2023-01-11,日産チエリー渋谷西販売株式会社,,株式会社,東京都,渋谷区,富ヶ谷２丁目７番３号,,13,113,1510063,,,,,,,2023-01-11,1,,,,,,0
1420,5011001151842,新規,0,2023-01-11,2023-01-11,ＥＵＣＡＬＹ株式会社,,株式会社,東京都,渋谷区,恵比寿１丁目２４番１４号ステラメゾン恵比寿１４０２,,13,113,1500013,,,,,,,2023-01-11,1,,,,,ユーカリー,0
1421,5011001151850,新規,0,2023-01-11,2023-01-11,株式会社音響演出高寺たけし,,株式会社,東京都,渋谷区,西原１丁目２１番３－７０６号パークリュクス渋谷西原,,13,113,1510066,,,,,,,2023-01-11,1,,,,,オンキョウエンシュツタカデラタケシ,0
1422,5011001151867,新規,0,2023-01-11,2023-01-11,株式会社ＳＥＮＳＥ,,株式会社,東京都,渋谷区,宇田川町１３番１１号ＫＮ渋谷１ビル中２階,,13,113,1500042,,,,,,,2023-01-11,1,,,,,センス,0
1423,5011001151891,新規,0,2023-01-11,2023-01-11,株式会社ｎｅｗｇｏｌｄ,,株式会社,東京都,渋谷区,道玄坂１丁目１０番８号渋谷道玄坂東急ビル２Ｆ－Ｃ,,13,113,1500043,,,,,,,2023-01-11,1,,,,,ニューゴールド,0
1426,5011003015962,新規,0,2023-01-11,2023-01-11,ＭＯＪＯ　ＯＲＩＥＮＴＡＬ合同会社,,合同会社,東京都,目黒区,駒場１丁目１－１,,13,110,1530041,,,,,,,2023-01-11,1,,,,,モジョオリエンタル,0
1428,5011101101375,新規,0,2023-01-11,2023-01-11,株式会社ＵＰＲ,,株式会社,東京都,新宿区,北新宿１丁目２８番１７号,,13,104,1690074,,,,,,,2023-01-11,1,,,,,ユーピーアール,0
1429,5011101101400,新規,0,2023-01-11,2023-01-11,株式会社カナリア舎,,株式会社,東京都,新宿区,下宮比町２番２８号,,13,104,1620822,,,,,,,2023-01-11,1,,,,,カナリアシャ,0
1434,5011401024821,新規,0,2023-01-11,2023-01-11,株式会社Ｊ不動産,,株式会社,東京都,板橋区,板橋２丁目１９番５－１５０５号,,13,119,1730004,,,,,,,2023-01-11,1,,,,,ジェイフドウサン,0
1438,5011601026493,新規,0,2023-01-11,2023-01-11,株式会社縁起門,,株式会社,東京都,練馬区,石神井町６丁目３２番２４号,,13,120,1770041,,,,,,,2023-01-11,1,,,,,エンギモン,0
1440,5011801041755,新規,0,2023-01-11,2023-01-11,株式会社ミナモト,,株式会社,東京都,足立区,中川４丁目３３番４号亀有中川マンション３０３号,,13,121,1200002,,,,,,,2023-01-11,1,,,,,ミナモト,0
1441,5011801041763,新規,0,2023-01-11,2023-01-11,株式会社ｍａ１５,,株式会社,東京都,葛飾区,立石５丁目２５番８号,,13,122,1240012,,,,,,,2023-01-11,1,,,,,マイゴ,0
1442,5011801041771,新規,0,2023-01-11,2023-01-11,株式会社泰電通,,株式会社,東京都,足立区,花畑６丁目２８番１１号,,13,121,1210061,,,,,,,2023-01-11,1,,,,,タイデンツウ,0
1443,5012305002038,新規,0,2023-01-11,2023-01-11,一般社団法人日本ボディワーク協会,,その他の設立登記法人,東京都,町田市,鶴川２丁目１４－１５－２Ｆ,,13,209,1950061,,,,,,,2023-01-11,1,,,,,ニッポンボディワークキョウカイ,0
1446,5012401040032,新規,0,2023-01-11,2023-01-11,株式会社ＤＡＮ,,株式会社,東京都,調布市,入間町２丁目２８番地１６－８０２号,,13,208,1820004,,,,,,,2023-01-11,1,,,,,ダン,0
1447,5012401040049,新規,0,2023-01-11,2023-01-11,だいだい株式会社,,株式会社,東京都,三鷹市,牟礼４丁目２０番５－１０１号,,13,204,1810002,,,,,,,2023-01-11,1,,,,,ダイダイ,0
1448,5012401040057,新規,0,2023-01-11,2023-01-11,株式会社処々や,,株式会社,東京都,府中市,片町１丁目１１番地の３,,13,206,1830021,,,,,,,2023-01-11,1,,,,,ココヤ,0
1449,5012403005768,新規,0,2023-01-11,2023-01-11,合同会社メゾン・ド・ベル,,合同会社,東京都,三鷹市,野崎２丁目２０番１４号メゾン・ド・ラピュタ３０１,,13,204,1810014,,,,,,,2023-01-11,1,,,,,メゾンドベル,0
1452,5012803002976,新規,0,2023-01-11,2023-01-11,合同会社Ｍ＆Ｈ,,合同会社,東京都,国立市,中１丁目７－８７,,13,215,1860004,,,,,,,2023-01-11,1,,,,,エムアンドエイチ,0
1453,5013101009094,新規,0,2023-01-11,2023-01-11,株式会社ＭＯＭＡ,,株式会社,東京都,青梅市,新町２丁目９番地の１３,,13,205,1980024,,,,,,,2023-01-11,1,,,,,モマ,0
1463,5020001149623,新規,0,2023-01-11,2023-01-11,株式会社ＫＪ,,株式会社,神奈川県,川崎市宮前区,宮崎２丁目１番地２２,,14,136,2160033,,,,,,,2023-01-11,1,,,,,ケイジェイ,0
1464,5020001149714,新規,0,2023-01-11,2023-01-11,株式会社エビスマイル,,株式会社,神奈川県,川崎市中原区,上小田中２丁目３６番７－３０１号フラットディスカバリー,,14,133,2110053,,,,,,,2023-01-11,1,,,,,エビスマイル,0
1471,5020003023033,新規,0,2023-01-11,2023-01-11,合同会社ＰＩＣＬＩ,,合同会社,神奈川県,川崎市高津区,蟹ケ谷２６４番地３グレイス日吉第５・４０５,,14,134,2130025,,,,,,,2023-01-11,1,,,,,ピクリ,0
1473,5021001077847,新規,0,2023-01-11,2023-01-11,株式会社ＰＯＲＴＥ,,株式会社,神奈川県,藤沢市,鵠沼海岸２丁目４番９号２Ｆ,,14,205,2510037,,,,,,,2023-01-11,1,,,,,ポルテ,0
1474,5021001077938,新規,0,2023-01-11,2023-01-11,株式会社ＦｅＬｉｃｉｔｙ,,株式会社,神奈川県,海老名市,下今泉１丁目５－１９,,14,215,2430435,,,,,,,2023-01-11,1,,,,,,0
1476,5021003012570,新規,0,2023-01-11,2023-01-11,Ｍ＆Ｊ合同会社,,合同会社,神奈川県,茅ヶ崎市,中海岸４丁目１５番１９－４０８号ザ・テラス茅ヶ崎サザンビーチ,,14,207,2530055,,,,,,,2023-01-11,1,,,,,エムアンドジェイ,0
1478,5030001151719,新規,0,2023-01-11,2023-01-11,株式会社Ｔ・Ｌ・Ｔ,,株式会社,埼玉県,戸田市,大字新曽２０３９－１０１号室,,11,224,3350021,,,,,,,2023-01-11,1,,,,,ティーエルティー,0
1479,5030001151735,新規,0,2023-01-11,2023-01-11,株式会社ＪＫＥコーポレーション,,株式会社,埼玉県,川口市,大字赤山３０９番地ベルドゥムール川口東８０１号,,11,203,3330825,,,,,,,2023-01-11,1,,,,,ジェイケーイーコーポレーション,0
1480,5030001151743,新規,0,2023-01-11,2023-01-11,株式会社Ｍｉｒｒｏｒ,,株式会社,埼玉県,さいたま市浦和区,高砂２丁目１０番３号,,11,107,3300063,,,,,,,2023-01-11,1,,,,,ミラー,0
1481,5030001151768,新規,0,2023-01-11,2023-01-11,株式会社ＡＤＣ,,株式会社,埼玉県,坂戸市,大字石井２８７２番地５,,11,239,3500212,,,,,,,2023-01-11,1,,,,,エーディーシー,0
1482,5030001151784,新規,0,2023-01-11,2023-01-11,株式会社ＴＭ‐ｗｏｒｋｓ,,株式会社,埼玉県,新座市,道場１丁目６番１５号,,11,230,3520024,,,,,,,2023-01-11,1,,,,,ティーエムワークス,0
1483,5030001151801,新規,0,2023-01-11,2023-01-11,株式会社グラスシア,,株式会社,埼玉県,北足立郡伊奈町,大字小室字池堤７０４９番地１,,11,301,3620806,,,,,,,2023-01-11,1,,,,,グラスシア,0
1484,5030001151826,新規,0,2023-01-11,2023-01-11,株式会社ＴＲＡＤＩＦＯＯＤ,,株式会社,埼玉県,川越市,的場北１丁目１５番地７川越エムズビル１Ｆ,,11,201,3501102,,,,,,,2023-01-11,1,,,,,トラデイフード,0
1485,5030001151850,新規,0,2023-01-11,2023-01-11,Ｃ＆Ｔデザイン株式会社,,株式会社,埼玉県,川口市,大字安行慈林７９８番地の７,,11,203,3340071,,,,,,,2023-01-11,1,,,,,シーアンドティーデザイン,0
1488,5030003020888,新規,0,2023-01-11,2023-01-11,合同会社ビューティーガーデン村岡,,合同会社,埼玉県,加須市,日出安８９３番地５,,11,210,3470102,,,,,,,2023-01-11,1,,,,,ビューティーガーデンムラオカ,0
1489,5030003020896,新規,0,2023-01-11,2023-01-11,合同会社ＳＥＶＥＮ,,合同会社,埼玉県,三郷市,早稲田２丁目１７番地１ジュネス第３トヨダビル３Ｆ,,11,237,3410018,,,,,,,2023-01-11,1,,,,,セブン,0
1490,5030003020905,新規,0,2023-01-11,2023-01-11,合同会社ココサス,,合同会社,埼玉県,さいたま市中央区,鈴谷２丁目７９３－３０４,,11,105,3380013,,,,,,,2023-01-11,1,,,,,ココサス,0
1491,5030003020913,新規,0,2023-01-11,2023-01-11,合同会社Ｓｕｇａｒ,,合同会社,埼玉県,蕨市,中央３丁目２３番７号,,11,223,3350004,,,,,,,2023-01-11,1,,,,,シュガー,0
1494,5040003021654,新規,0,2023-01-11,2023-01-11,合同会社エスアンドエス,,合同会社,千葉県,市川市,伊勢宿３－１１フェリシア行徳ＩＩ１０４,00128992,12,203,2720106,,,,,,,2023-01-11,1,,,,,エスアンドエス,0
1498,5050001052196,新規,0,2023-01-11,2023-01-11,株式会社大祐興業,,株式会社,茨城県,神栖市,知手１０４番地１４,,08,232,3140115,,,,,,,2023-01-11,1,,,,,ダイユウコウギョウ,0
1500,5050003007132,新規,0,2023-01-11,2023-01-11,合同会社ＴＭＣ　ＬＡＢ,,合同会社,茨城県,坂東市,矢作２９４４番地,,08,228,3060624,,,,,,,2023-01-11,1,,,,,ティーエムシーラボ,0
1501,5060001035588,新規,0,2023-01-11,2023-01-11,株式会社ホットスタッフ大田原,,株式会社,栃木県,大田原市,本町１丁目２７０５番地１１,,09,210,3240041,,,,,,,2023-01-11,1,,,,,ホットスタッフオオタワラ,0
1504,5070001039992,新規,0,2023-01-11,2023-01-11,株式会社ホットスタッフ太田,,株式会社,群馬県,太田市,下浜田町１００４番地１,,10,205,3730821,,,,,,,2023-01-11,1,,,,,ホットスタッフオオタ,0
1505,5080001025389,新規,0,2023-01-11,2023-01-11,株式会社ＫＧＳ,,株式会社,静岡県,島田市,横岡新田２１番地の５,,22,209,4280005,,,,,,,2023-01-11,1,,,,,ケージーエス,0
1508,5080101023739,新規,0,2023-01-11,2023-01-11,株式会社わかせ建設,,株式会社,静岡県,富士市,今泉２８６０番地の３今泉ビル１Ｆ南側,,22,210,4170001,,,,,,,2023-01-11,1,,,,,ワカセケンセツ,0
1510,5080401026243,新規,0,2023-01-11,2023-01-11,株式会社ＳＳＲカンパニー,,株式会社,静岡県,浜松市中区,花川町１３１７番地の５,,22,131,4338109,,,,,,,2023-01-11,1,,,,,エスエスアールカンパニー,0
1512,5090001017922,新規,0,2023-01-11,2023-01-11,株式会社岡村一級建築士事務所,,株式会社,山梨県,北杜市,白州町白須１６３０番地３１,,19,209,4080315,,,,,,,2023-01-11,1,,,,,オカムライッキュウケンチクシジムショ,0
1513,5100001036004,新規,0,2023-01-11,2023-01-11,株式会社ＭＯＤＳ　ＢＡＳＥ,,株式会社,長野県,上伊那郡辰野町,大字樋口１６０６番地２,,20,382,3990425,,,,,,,2023-01-11,1,,,,,モッズベース,0
1514,5100001036029,新規,0,2023-01-11,2023-01-11,株式会社ＣＵＮＴＡＭ５２５,,株式会社,長野県,木曽郡木曽町,日義４６７４番地１,,20,432,3996101,,,,,,,2023-01-11,1,,,,,カンタムゴニゴ,0
1516,5100003006830,新規,0,2023-01-11,2023-01-11,Ｙａｍａｍｏｔｏ　Ａｔｈｌｅｔｅ　Ｆａｒｍ合同会社,,合同会社,長野県,松本市,大字里山辺１４１４番地４,,20,202,3900221,,,,,,,2023-01-11,1,,,,,ヤマモトアスリートファーム,0
1517,5110001037232,新規,0,2023-01-11,2023-01-11,株式会社ＭＯＫＡ,,株式会社,新潟県,上越市,板倉区高野４９５番地２,,15,222,9440142,,,,,,,2023-01-11,1,,,,,モカ,0
1518,5110003004957,新規,0,2023-01-11,2023-01-11,合同会社ＪＴシステム,,合同会社,新潟県,上越市,大字岩木２２０１番地７９,,15,222,9430814,,,,,,,2023-01-11,1,,,,,ジェイティシステム,0
1532,5120001251583,新規,0,2023-01-11,2023-01-11,リングナース株式会社,,株式会社,大阪府,大阪市東淀川区,大道南１丁目２０番１３号,,27,114,5330012,,,,,,,2023-01-11,1,,,,,リングナース,0
1533,5120001251625,新規,0,2023-01-11,2023-01-11,ｔｒｉｐｌｅ　ｃｒｏｗｎ　ｔｒａｄｉｎｇｓ株式会社,,株式会社,大阪府,大阪市中央区,安堂寺町２丁目３番５号第１８松屋ビル９０６号,,27,128,5420061,,,,,,,2023-01-11,1,,,,,トリプルクラウントレーディングス,0
1534,5120001251641,新規,0,2023-01-11,2023-01-11,株式会社ヒロシ,,株式会社,大阪府,大阪市福島区,大開２丁目１７番２７－５０８号,,27,103,5530007,,,,,,,2023-01-11,1,,,,,ヒロシ,0
1535,5120001251674,新規,0,2023-01-11,2023-01-11,株式会社Ｌｉｎｋ,,株式会社,大阪府,大阪市北区,中津１丁目６番２９－３４０８号,,27,127,5310071,,,,,,,2023-01-11,1,,,,,リンク,0
1540,5120005023384,新規,0,2023-01-11,2023-01-11,行政書士法人クローバー法務事務所,,その他の設立登記法人,大阪府,大阪市中央区,伏見町３丁目１番１－６０６号,,27,128,5410044,,,,,,,2023-01-11,1,,,,,クローバーホウムジムショ,0
1541,5120101066782,新規,0,2023-01-11,2023-01-11,はりの測量株式会社,,株式会社,大阪府,泉佐野市,日根野７００１番地の２（１００２）,,27,213,5980021,,,,,,,2023-01-11,1,,,,,ハリノソクリョウ,0
1542,5120101066808,新規,0,2023-01-11,2023-01-11,株式会社ペスカ,,株式会社,大阪府,和泉市,室堂町１２２０番地の６４,,27,219,5941101,,,,,,,2023-01-11,1,,,,,ペスカ,0
1544,5120103005004,新規,0,2023-01-11,2023-01-11,合同会社リファテック,,合同会社,大阪府,堺市西区,浜寺石津町東４丁２番２４号,,27,144,5928335,,,,,,,2023-01-11,1,,,,,リファテック,0
1545,5120103005020,新規,0,2023-01-11,2023-01-11,合同会社花,,合同会社,大阪府,河内長野市,あかしあ台１丁目１５番４号,,27,216,5860095,,,,,,,2023-01-11,1,,,,,ハナ,0
1548,5120901046975,新規,0,2023-01-11,2023-01-11,株式会社リーファン,,株式会社,大阪府,高槻市,芥川町２丁目２４番１１号高槻パークレジデンス６０５号,,27,207,5691123,,,,,,,2023-01-11,1,,,,,リーファン,0
1550,5122001036568,新規,0,2023-01-11,2023-01-11,株式会社ジーイーエヌ,,株式会社,大阪府,東大阪市,新家西町４番２０号Ｄ号室,,27,227,5770028,,,,,,,2023-01-11,1,,,,,ジーイーエヌ,0
1554,5130001073416,新規,0,2023-01-11,2023-01-11,株式会社ＲＢＣ,,株式会社,京都府,城陽市,富野乾垣内３１番地の２９,,26,207,6100111,,,,,,,2023-01-11,1,,,,,アールビーシー,0
1556,5130003008411,新規,0,2023-01-11,2023-01-11,Ｎ＆Ａ　Ｗｅｌｌｂｅｉｎｇ合同会社,,合同会社,京都府,京都市下京区,七条通油小路東入大黒町２２７番地第２キョートビル４０２,,26,106,6008223,,,,,,,2023-01-11,1,,,,,エヌアンドエーウェルビーイング,0
1562,5140001128615,新規,0,2023-01-11,2023-01-11,株式会社笑店,,株式会社,兵庫県,加古川市,尾上町養田１５４５番地の２,,28,210,6750025,,,,,,,2023-01-11,1,,,,,ショウテン,0
1563,5140001128648,新規,0,2023-01-11,2023-01-11,Ｅ‐ｌｅｃ株式会社,,株式会社,兵庫県,伊丹市,寺本６丁目１６番地,,28,207,6640026,,,,,,,2023-01-11,1,,,,,イーレック,0
1566,5140005026443,新規,0,2023-01-11,2023-01-11,医療法人社団書写西村内科,,その他の設立登記法人,兵庫県,姫路市,書写１０１９番６２０,,28,201,6712201,,,,,,,2023-01-11,1,,,,,ショシャニシムラナイカ,0
1572,5150001026066,新規,0,2023-01-11,2023-01-11,株式会社ＲＳ‐ＳＡＳＡＯ,,株式会社,奈良県,奈良市,杣ノ川町１５番地,,29,201,6302152,,,,,,,2023-01-11,1,,,,,アールエスササオ,0
1574,5160001024754,新規,0,2023-01-11,2023-01-11,株式会社さんさん,,株式会社,滋賀県,近江八幡市,鷹飼町南４丁目５番地２０,,25,204,5230898,,,,,,,2023-01-11,1,,,,,サンサン,0
1575,5160003002774,新規,0,2023-01-11,2023-01-11,合同会社瑳流,,合同会社,滋賀県,守山市,勝部１丁目１６番３５－６０７号,,25,207,5240041,,,,,,,2023-01-11,1,,,,,サリュウ,0
1576,5170001017435,新規,0,2023-01-11,2023-01-11,株式会社ｎｉｋｏｐｌｕｓ,,株式会社,和歌山県,御坊市,塩屋町北塩屋１８９１－２,,30,205,6440025,,,,,,,2023-01-11,1,,,,,ニコプラス,0
1584,5180001154459,新規,0,2023-01-11,2023-01-11,株式会社浅利商店,,株式会社,愛知県,岩倉市,北島町三反田２１番１,,23,228,4820017,,,,,,,2023-01-11,1,,,,,アサリショウテン,0
1587,5180003024692,新規,0,2023-01-11,2023-01-11,合同会社アレーテイア,,合同会社,愛知県,名古屋市千種区,法王町２丁目５番地,,23,101,4640057,,,,,,,2023-01-11,1,,,,,アレーテイア,0
1593,5190001030080,新規,0,2023-01-11,2023-01-11,株式会社法面テック,,株式会社,三重県,津市,豊が丘１丁目３０番１３号,,24,201,5142222,,,,,,,2023-01-11,1,,,,,ノリメンテック,0
1594,5190001030089,新規,0,2023-01-11,2023-01-11,株式会社音の羽,,株式会社,三重県,津市,久居野村町７６０番地２,,24,201,5141113,,,,,,,2023-01-11,1,,,,,オトノハ,0
1596,5200001040846,新規,0,2023-01-11,2023-01-11,株式会社富士Ｔｒｅｅ,,株式会社,岐阜県,瑞浪市,稲津町小里５０４番地の７,,21,208,5096103,,,,,,,2023-01-11,1,,,,,フジツリー,0
1607,5240001060898,新規,0,2023-01-11,2023-01-11,株式会社ＨＩＲＯＫＥＮ,,株式会社,広島県,福山市,神辺町大字川南５０９番地２,,34,207,7202124,,,,,,,2023-01-11,1,,,,,ヒロケン,0
1608,5240001060948,新規,0,2023-01-11,2023-01-11,株式会社ＫＡＤ,,株式会社,広島県,広島市安佐北区,白木町秋山１６８０番地７,,34,106,7391700,,,,,,,2023-01-11,1,,,,,ケーエーディー,0
1609,5250001019910,新規,0,2023-01-11,2023-01-11,株式会社福一,,株式会社,山口県,宇部市,則貞４丁目１５番７号,,35,202,7550003,,,,,,,2023-01-11,1,,,,,フクイチ,0
1610,5250003003202,新規,0,2023-01-11,2023-01-11,合同会社Ｗｅｖｅｅ,,合同会社,山口県,周南市,住崎町１３番１０－１０１号,,35,215,7450026,,,,,,,2023-01-11,1,,,,,ウィービー,0
1612,5260001037564,新規,0,2023-01-11,2023-01-11,株式会社ｍｏｔｏ,,株式会社,岡山県,岡山市南区,福田４９０番地２５,,33,104,7028021,,,,,,,2023-01-11,1,,,,,モト,0
1622,5290001100146,新規,0,2023-01-11,2023-01-11,株式会社新栄工業,,株式会社,福岡県,春日市,松ヶ丘５丁目５番地２,,40,218,8160843,,,,,,,2023-01-11,1,,,,,シンエイコウギョウ,0
1623,5290001100204,新規,0,2023-01-11,2023-01-11,株式会社インサイトフル,,株式会社,福岡県,福岡市中央区,天神４丁目６番２８号天神ファーストビル７階,,40,133,8100001,,,,,,,2023-01-11,1,,,,,インサイトフル,0
1628,5290801029188,新規,0,2023-01-11,2023-01-11,株式会社ユウダイ商事,,株式会社,福岡県,北九州市小倉北区,霧ケ丘２丁目１番８－１号,,40,106,8020052,,,,,,,2023-01-11,1,,,,,ユウダイショウジ,0
1629,5290801029196,新規,0,2023-01-11,2023-01-11,株式会社ＴＨＫウェルネクスト,,株式会社,福岡県,田川郡香春町,大字香春１７００番地１－Ｂ２０１号,,40,601,8221406,,,,,,,2023-01-11,1,,,,,ティーエイチケーウェルネクスト,0
1630,5290803004305,新規,0,2023-01-11,2023-01-11,合同会社ＢＥＳＴ　ＬＩＦＥ,,合同会社,福岡県,北九州市若松区,片山２丁目６－６,,40,103,8080106,,,,,,,2023-01-11,1,,,,,ベストライフ,0
1631,5300005007121,新規,0,2023-01-11,2023-01-11,社会保険労務士法人人事労務中村事務所,,その他の設立登記法人,佐賀県,唐津市,町田１丁目１７番７３号,,41,202,8470821,,,,,,,2023-01-11,1,,,,,ジンジロウムナカムラジムショ,0
1632,5310001018220,新規,0,2023-01-11,2023-01-11,株式会社友ステーション,,株式会社,長崎県,長崎市,横尾１丁目１１番８号,,42,201,8528065,,,,,,,2023-01-11,1,,,,,ユウステーション,0
1634,5320001019498,新規,0,2023-01-11,2023-01-11,株式会社石橋アグリビジネス,,株式会社,大分県,日田市,大字小迫字大茶園４１番地２,,44,204,8770000,,,,,,,2023-01-11,1,,,,,イシバシアグリビジネス,0
1635,5320001019507,新規,0,2023-01-11,2023-01-11,ＹＫグループ株式会社,,株式会社,大分県,臼杵市,大字江無田９０６番地,,44,206,8750023,,,,,,,2023-01-11,1,,,,,ワイケーグループ,0
1640,5330003009653,新規,0,2023-01-11,2023-01-11,ファクトリアル合同会社,,合同会社,熊本県,熊本市北区,飛田３丁目５―８,,43,105,8615514,,,,,,,2023-01-11,1,,,,,ファクトリアル,0
1645,5340005009535,新規,0,2023-01-11,2023-01-11,特定非営利活動法人ＨＯＭＥＴＯＷＮ,,その他の設立登記法人,鹿児島県,大島郡瀬戸内町,大字古仁屋字大湊４‐４,,46,525,8941503,,,,,,,2023-01-11,1,,,,,ホームタウン,0
1646,5350001018118,新規,0,2023-01-11,2023-01-11,株式会社源総合,,株式会社,宮崎県,宮崎市,大字有田８３４番地,,45,201,8802102,,,,,,,2023-01-11,1,,,,,ミナモトソウゴウ,0
1648,5350005006127,新規,0,2023-01-11,2023-01-11,医療法人かがやき,,その他の設立登記法人,宮崎県,宮崎市,和知川原１丁目５３番地１,,45,201,8800023,,,,,,,2023-01-11,1,,,,,カガヤキ,0
1650,5360003012613,新規,0,2023-01-11,2023-01-11,合同会社電信堂,,合同会社,沖縄県,石垣市,新栄町２５番地１５,,47,207,9070014,,,,,,,2023-01-11,1,,,,,デンシンドウ,0
1651,5360003012621,新規,0,2023-01-11,2023-01-11,合同会社ＫｅｎｔｏＣｏｍｐａｎｙ,,合同会社,沖縄県,名護市,字宇茂佐１６１６番地,,47,209,9050006,,,,,,,2023-01-11,1,,,,,ケントカンパニー,0
1653,5370001049466,新規,0,2023-01-11,2023-01-11,株式会社トータル・ビル管理・システム,,株式会社,宮城県,仙台市太白区,長町南３丁目１０番２２号－Ａ１１,,04,104,9820012,,,,,,,2023-01-11,1,,,,,トータルビルカンリシステム,0
1661,5400001016124,新規,0,2023-01-11,2023-01-11,株式会社ファイブ,,株式会社,岩手県,岩手郡葛巻町,葛巻第３０地割１番地４,,03,302,0285402,,,,,,,2023-01-11,1,,,,,ファイブ,0
1665,5420001018110,新規,0,2023-01-11,2023-01-11,株式会社道太,,株式会社,青森県,青森市,浪岡大字女鹿沢字東種本２４番地２,,02,201,0381331,,,,,,,2023-01-11,1,,,,,トウタ,0
1666,5420001018119,新規,0,2023-01-11,2023-01-11,株式会社モリタ,,株式会社,青森県,青森市,松森１丁目１５番５号,,02,201,0300965,,,,,,,2023-01-11,1,,,,,モリタ,0
1668,5430001088185,新規,0,2023-01-11,2023-01-11,株式会社ＵＲＵＨＡ,,株式会社,北海道,札幌市中央区,南六条西４丁目１番地３ＡＰＲ６４ビル４階,,01,101,0640806,,,,,,,2023-01-11,1,,,,,ウルハ,0
1670,5430003014602,新規,0,2023-01-11,2023-01-11,合同会社シンクラボ,,合同会社,北海道,札幌市豊平区,豊平三条６丁目１番２７号,,01,105,0620903,,,,,,,2023-01-11,1,,,,,シンクラボ,0
1680,5470001019418,新規,0,2023-01-11,2023-01-11,株式会社香西,,株式会社,香川県,高松市,西春日町１０８３番地１,,37,201,7618051,,,,,,,2023-01-11,1,,,,,コウザイ,0
1691,5470003002314,新規,0,2023-01-11,2023-01-11,合同会社ｐａｔｔｅｒｎ,,合同会社,香川県,高松市,楠上町２丁目６番４５－５０２号アルファステイツ桜町,,37,201,7600075,,,,,,,2023-01-11,1,,,,,パターン,0
1694,5490001010374,新規,0,2023-01-11,2023-01-11,株式会社ＰＲＯＯＦ,,株式会社,高知県,高知市,本町２丁目４番３０－９０５号,,39,201,7800870,,,,,,,2023-01-11,1,,,,,プルーフ,0
1696,5700150052682,新規,0,2023-01-11,2015-10-09,二島留守家庭児童学級運営委員会,,その他,山口県,山口市,秋穂二島５５２－１,,35,203,7540893,,,,,,,2015-10-09,1,,,,,フタジマルスカテイジドウガツキユウウンエイイインカイ,0
1697,5700150112809,新規,0,2023-01-11,2022-12-19,労働保険事務組合　飛翔会,,その他,和歌山県,岩出市,清水４４６番地の７,,30,209,6496227,,,,,,,2022-12-19,1,,,,,ロウドウホケンジムクミアイヒシヨウカイ,0
1705,6010001232057,新規,0,2023-01-11,2023-01-11,Ｅｕｒｏｆｉｎｓ　Ｃｌｉｎｉｃａｌ　Ｔｅｓｔｉｎｇ　Ｓｅｒｖｉｃｅｓ　Ｊａｐａｎ株式会社,,株式会社,東京都,千代田区,西神田３丁目８番１号,,13,101,1010065,,,,,,,2023-01-11,1,,,,,ユーロフィンクリニカルテスティングサービシーズジャパン,0
1706,6010001232065,新規,0,2023-01-11,2023-01-11,株式会社篠原自動車工場,,株式会社,東京都,大島町,元町字北の山１８２番４,,13,361,1000101,,,,,,,2023-01-11,1,,,,,シノハラジドウシャコウジョウ,0
1707,6010001232081,新規,0,2023-01-11,2023-01-11,ＩＮＶＩＧＯＲＡＴＥ株式会社,,株式会社,東京都,中央区,銀座１丁目１２－４Ｎ＆ＥＢＬＤ．７階,,13,102,1040061,,,,,,,2023-01-11,1,,,,,インビゴレイト,0
1708,6010001232131,新規,0,2023-01-11,2023-01-11,アンドレジリエンス株式会社,,株式会社,東京都,中央区,日本橋室町３丁目２番１号,,13,102,1030022,,,,,,,2023-01-11,1,,,,,アンドレジリエンス,0
1709,6010003039483,新規,0,2023-01-11,2023-01-11,合同会社Ｍｉｌｌｅ‐ｆｅｕｉｌｌｅ,,合同会社,東京都,中央区,銀座７丁目１５番８号タウンハイツ銀座４０６,,13,102,1040061,,,,,,,2023-01-11,1,,,,,ミルフィーユ,0
1710,6010003039500,新規,0,2023-01-11,2023-01-11,トレードテックジャパン合同会社,,合同会社,東京都,中央区,八丁堀２丁目３０番１５号東海ビル３Ｆ３０３号,,13,102,1040032,,,,,,,2023-01-11,1,,,,,トレードテックジャパン,0
1711,6010003039525,新規,0,2023-01-11,2023-01-11,Ｍａｚａｒｉｎｅ　Ｒｅｎｅｗａｂｌｅｓ合同会社,,合同会社,東京都,千代田区,丸の内３丁目１番１号東京共同会計事務所内,,13,101,1000005,,,,,,,2023-01-11,1,,,,,マザリンリニューアブルズ,0
1714,6010005036074,新規,0,2023-01-11,2023-01-11,弁護士法人小杉法律事務所,,その他の設立登記法人,東京都,中央区,晴海３丁目１３番１号,,13,102,1040053,,,,,,,2023-01-11,1,,,,,コスギホウリツジムショ,0
1715,6010005036099,新規,0,2023-01-11,2023-01-11,ＹＤＫ行政書士法人,,その他の設立登記法人,東京都,中央区,日本橋室町１丁目１番３号紅花ビル６階,,13,102,1030022,,,,,,,2023-01-11,1,,,,,ワイディーケー,0
1716,6010005036108,新規,0,2023-01-11,2023-01-11,一般社団法人日本中医薬膳協会,,その他の設立登記法人,東京都,中央区,銀座７丁目１３番６号サガミビル２階,,13,102,1040061,,,,,,,2023-01-11,1,,,,,ニホンチュウイヤクゼンキョウカイ,0
1721,6010401171689,新規,0,2023-01-11,2023-01-11,株式会社イーストスター,,株式会社,東京都,港区,西麻布１丁目５番２３号,,13,103,1060031,,,,,,,2023-01-11,1,,,,,イーストスター,0
1722,6010401171706,新規,0,2023-01-11,2023-01-11,株式会社ポテンシャル,,株式会社,東京都,港区,六本木１丁目６番１号,,13,103,1060032,,,,,,,2023-01-11,1,,,,,ポテンシャル,0
1723,6010401171714,新規,0,2023-01-11,2023-01-11,株式会社アイギステック,,株式会社,東京都,港区,海岸１丁目７－１東京ポートシティ竹芝１０階,,13,103,1050022,,,,,,,2023-01-11,1,,,,,アイギステック,0
1724,6010401171730,新規,0,2023-01-11,2023-01-11,永双合株式会社,,株式会社,東京都,港区,高輪３丁目７番１０号,,13,103,1080074,,,,,,,2023-01-11,1,,,,,エイソウゴウ,0
1725,6010401171739,新規,0,2023-01-11,2023-01-11,株式会社ｈａｉＢｏ,,株式会社,東京都,港区,南麻布２丁目１５番５号,,13,103,1060047,,,,,,,2023-01-11,1,,,,,ハイボ,0
1726,6010401171747,新規,0,2023-01-11,2023-01-11,ＳＯＨＯ　Ｌｉｖｅ株式会社,,株式会社,東京都,港区,虎ノ門４丁目２番６号,,13,103,1050001,,,,,,,2023-01-11,1,,,,,ソーホーライブ,0
1730,6010403029241,新規,0,2023-01-11,2023-01-11,ＪＡＩＯＴＳＯＬＵＴＩＯＮ合同会社,,合同会社,東京都,港区,虎ノ門１丁目１６番６号虎ノ門ＲＡＰＯ－ＴＯビルＵＣＦ７階,,13,103,1050001,,,,,,,2023-01-11,1,,,,,ジェーアイオーティーソリューション,0
1731,6010403029258,新規,0,2023-01-11,2023-01-11,合同会社ホルスアデプト,,合同会社,東京都,港区,南青山３丁目１番３６号青山丸竹ビル６Ｆ,,13,103,1070062,,,,,,,2023-01-11,1,,,,,ホルスアデプト,0
1733,6010501049843,新規,0,2023-01-11,2023-01-11,株式会社みみっきゅぷりん,,株式会社,東京都,台東区,元浅草１丁目６－１２ＧＯＧＯオフィス御徒町２１４号,,13,106,1110041,,,,,,,2023-01-11,1,,,,,ミミッキュプリン,0
1734,6010601062399,新規,0,2023-01-11,2023-01-11,株式会社丸基ゴム工業,,株式会社,東京都,墨田区,八広２丁目３２番１号,,13,107,1310041,,,,,,,2023-01-11,1,,,,,マルキゴムコウギョウ,0
1736,6010603009935,新規,0,2023-01-11,2023-01-11,合同会社豊竹,,合同会社,東京都,江東区,東陽４丁目６－１４トーカンマンション東陽町３０９,,13,108,1350016,,,,,,,2023-01-11,1,,,,,トヨタケ,0
1737,6010803004414,新規,0,2023-01-11,2023-01-11,合同会社尾上商店,,合同会社,東京都,大田区,南馬込２丁目２３番７号,,13,111,1430025,,,,,,,2023-01-11,1,,,,,オノウエショウテン,0
1739,6010901052265,新規,0,2023-01-11,2023-01-11,株式会社ＭＡＫＡＮＡＩ,,株式会社,東京都,世田谷区,松原４丁目２２番１０号マーレ明大前３０４,,13,112,1560043,,,,,,,2023-01-11,1,,,,,マカナイ,0
1740,6010903007878,新規,0,2023-01-11,2023-01-11,合同会社ａｏ’Ｄａ,,合同会社,東京都,世田谷区,池尻３丁目１８－１０－１０１,,13,112,1540001,,,,,,,2023-01-11,1,,,,,アオダ,0
1741,6010903007894,新規,0,2023-01-11,2023-01-11,合同会社Ｌａｐｉｎ,,合同会社,東京都,世田谷区,若林２丁目３７番９－４０３号,,13,112,1540023,,,,,,,2023-01-11,1,,,,,ラパン,0
1748,6011001151800,新規,0,2023-01-11,2023-01-11,ＤｉＧＲＩＴ　Ｔｅｃｈｎｏｌｏｇｉｅｓ株式会社,,株式会社,東京都,渋谷区,円山町５番５号Ｎａｖｉ渋谷Ｖ３階,,13,113,1500044,,,,,,,2023-01-11,1,,,,,ディグリットテクノロジーズ,0
1749,6011001151817,新規,0,2023-01-11,2023-01-11,ＧＩＮＫＧＯ株式会社,,株式会社,東京都,目黒区,三田２丁目１番１０号,,13,110,1530062,,,,,,,2023-01-11,1,,,,,ギンコ,0
1750,6011001151841,新規,0,2023-01-11,2023-01-11,株式会社Ｒｅｅ　Ｐｌｕｓ,,株式会社,東京都,目黒区,目黒本町５丁目２０番１４号,,13,110,1520002,,,,,,,2023-01-11,1,,,,,リープラス,0
1753,6011101101366,新規,0,2023-01-11,2023-01-11,株式会社オープン・リンク,,株式会社,東京都,新宿区,西新宿３丁目３－１３西新宿水間ビル６Ｆ,,13,104,1600023,,,,,,,2023-01-11,1,,,,,オープンリンク,0
1754,6011101101408,新規,0,2023-01-11,2023-01-11,株式会社ＨＡＭＡＫＩＴＡ　ＣＩＴＹ,,株式会社,東京都,新宿区,西新宿３丁目３番１３号西新宿水間ビル６階,,13,104,1600023,,,,,,,2023-01-11,1,,,,,ハマキタシティ,0
1756,6011103012553,新規,0,2023-01-11,2023-01-11,合同会社ＶＬＧｗｏｒｋｓ,,合同会社,東京都,新宿区,西新宿３丁目３番１３号西新宿水間ビル２Ｆ,,13,104,1600023,,,,,,,2023-01-11,1,,,,,ブイエルジーワークス,0
1757,6011103012561,新規,0,2023-01-11,2023-01-11,ＹＡＳＨＩＭＡ　Ｃｏｎｓｕｌｔｉｎｇ合同会社,,合同会社,東京都,新宿区,西新宿１丁目４番１１号全研プラザビルＳＰＡＣＥＳ新宿,,13,104,1600023,,,,,,,2023-01-11,1,,,,,ヤシマコンサルティング,0
1758,6011103012594,新規,0,2023-01-11,2023-01-11,若月工房合同会社,,合同会社,東京都,新宿区,西新宿３丁目３番１３号西新宿水間ビル６Ｆ,,13,104,1600023,,,,,,,2023-01-11,1,,,,,ワカツキコウボウ,0
1763,6011403003871,新規,0,2023-01-11,2023-01-11,立花工業合同会社,,合同会社,東京都,板橋区,赤塚１丁目３番８－１０２号,,13,119,1750092,,,,,,,2023-01-11,1,,,,,タチバナコウギョウ,0
1767,6011801041721,新規,0,2023-01-11,2023-01-11,株式会社ハウスクリーニング東京,,株式会社,東京都,足立区,興野２丁目３０番１１号,,13,121,1230844,,,,,,,2023-01-11,1,,,,,ハウスクリーニングトウキョウ,0
1770,6013301050137,新規,0,2023-01-11,2023-01-11,株式会社ｓｍｐｒｉｍｅｒｏ,,株式会社,東京都,豊島区,東池袋１丁目１８番１号ＨａｒｅｚａＴｏｗｅｒ２０Ｆ,,13,116,1700013,,,,,,,2023-01-11,1,,,,,エスエムプリメーロ,0
1776,6020001149630,新規,0,2023-01-11,2023-01-11,株式会社サウスイースト,,株式会社,神奈川県,横浜市戸塚区,柏尾町８２１番地,,14,110,2440812,,,,,,,2023-01-11,1,,,,,サウスイースト,0
1777,6020001149713,新規,0,2023-01-11,2023-01-11,株式会社エルモレナータ,,株式会社,神奈川県,川崎市麻生区,万福寺２丁目４番７－１０４号,,14,137,2150004,,,,,,,2023-01-11,1,,,,,エルモレナータ,0
1778,6020001149721,新規,0,2023-01-11,2023-01-11,株式会社土竜設備,,株式会社,神奈川県,横浜市神奈川区,菅田町１６７４番地４－１０１,,14,102,2210864,,,,,,,2023-01-11,1,,,,,モグラセツビ,0
1779,6020001149738,新規,0,2023-01-11,2023-01-11,株式会社Ｆｕｌｔｕｍ,,株式会社,神奈川県,横浜市中区,山下町３７番地８グローリオタワー横浜元町１５０７号室,,14,104,2310023,,,,,,,2023-01-11,1,,,,,フルタム,0
1780,6020003023016,新規,0,2023-01-11,2023-01-11,コマーシャルプランニング合同会社,,合同会社,神奈川県,横浜市青葉区,荏田町９０２番地１０－１０２号,,14,117,2250013,,,,,,,2023-01-11,1,,,,,コマーシャルプランニング,0
1781,6020003023024,新規,0,2023-01-11,2023-01-11,Ａｐｒｉｌ　Ｓｋｉｅｓ合同会社,,合同会社,神奈川県,横浜市栄区,長尾台町１４５４番地６ＴＯＰ大船Ｎｏ．１－４０１,,14,115,2440843,,,,,,,2023-01-11,1,,,,,エイプリルスカイズ,0
1782,6020003023049,新規,0,2023-01-11,2023-01-11,合同会社ＡＴＬＡＳ,,合同会社,神奈川県,川崎市高津区,千年１４５番地フライハイト２０２,,14,134,2130022,,,,,,,2023-01-11,1,,,,,アトラス,0
1793,6021001077887,新規,0,2023-01-11,2023-01-11,株式会社ＩＩＤＡ　Ｐｌａｎｎｉｎｇ,,株式会社,神奈川県,横須賀市,公郷町１丁目５３番地３１,,14,201,2380022,,,,,,,2023-01-11,1,,,,,イイダプランニング,0
1794,6021001077895,新規,0,2023-01-11,2023-01-11,株式会社ＡＲＴＩＳＡＮ　ＣＯＭＰＡＮＹ,,株式会社,神奈川県,相模原市緑区,太井２６６番地６,,14,151,2520152,,,,,,,2023-01-11,1,,,,,アルチザンカンパニー,0
1803,6030001151718,新規,0,2023-01-11,2023-01-11,楷博株式会社,,株式会社,埼玉県,川口市,赤井３丁目４番６号,,11,203,3340073,,,,,,,2023-01-11,1,,,,,カイハク,0
1804,6030001151750,新規,0,2023-01-11,2023-01-11,株式会社スナケン,,株式会社,埼玉県,越谷市,千間台東２丁目１４番地５,,11,222,3430042,,,,,,,2023-01-11,1,,,,,スナケン,0
1805,6030001151809,新規,0,2023-01-11,2023-01-11,株式会社ＳＵＮＰＬＡＺＡ,,株式会社,埼玉県,戸田市,氷川町２丁目７番１号,,11,224,3350027,,,,,,,2023-01-11,1,,,,,サンプラザ,0
1806,6030001151825,新規,0,2023-01-11,2023-01-11,株式会社レグミンアグリサービス,,株式会社,埼玉県,深谷市,上柴町西７丁目１６番地１６,,11,218,3660052,,,,,,,2023-01-11,1,,,,,レグミンアグリサービス,0
1807,6030001151858,新規,0,2023-01-11,2023-01-11,株式会社偕楽,,株式会社,埼玉県,さいたま市大宮区,三橋２丁目６０６番地,,11,103,3300856,,,,,,,2023-01-11,1,,,,,カイラク,0
1808,6030001151866,新規,0,2023-01-11,2023-01-11,東建株式会社,,株式会社,埼玉県,八潮市,大字西袋７７０番地１４号,,11,234,3400833,,,,,,,2023-01-11,1,,,,,トウケン,0
1809,6030001151874,新規,0,2023-01-11,2023-01-11,株式会社Ｃ．Ｃｒｅａｔｅ,,株式会社,埼玉県,上尾市,本町６丁目３番３７号,,11,219,3620014,,,,,,,2023-01-11,1,,,,,シークリエイト,0
1810,6030001151890,新規,0,2023-01-11,2023-01-11,ソーシャルアシスタント株式会社,,株式会社,埼玉県,行田市,長野３丁目１９番７号,,11,206,3610023,,,,,,,2023-01-11,1,,,,,ソーシャルアシスタント,0
1813,6030003020895,新規,0,2023-01-11,2023-01-11,合同会社ＳＴＯＲＥ　ＰＲＯ　ＯＮＥ,,合同会社,埼玉県,ふじみ野市,亀久保４丁目９番５２号,,11,245,3560051,,,,,,,2023-01-11,1,,,,,ストアプロワン,0
1814,6030003020904,新規,0,2023-01-11,2023-01-11,合同会社ゼロフィフティ,,合同会社,埼玉県,所沢市,弥生町２９９６番地の５アクアプールス１０２,,11,208,3590043,,,,,,,2023-01-11,1,,,,,ゼロフィフティ,0
1815,6030003020912,新規,0,2023-01-11,2023-01-11,ＲＮＳ　Ｔｒａｄｉｎｇ合同会社,,合同会社,埼玉県,熊谷市,下奈良１３４０番地３,,11,202,3600802,,,,,,,2023-01-11,1,,,,,アールエヌエストレーディング,0
1826,6040001126529,新規,0,2023-01-11,2023-01-11,株式会社あじ亭,,株式会社,千葉県,香取市,玉造６５１－７,,12,236,2870041,,,,,,,2023-01-11,1,,,,,アジテイ,0
1827,6040001126594,新規,0,2023-01-11,2023-01-11,株式会社ブルームビジョン,,株式会社,千葉県,浦安市,当代島２丁目６番４９号マンション千葉浦安５０２,,12,227,2790001,,,,,,,2023-01-11,1,,,,,ブルームビジョン,0
1828,6040001126611,新規,0,2023-01-11,2023-01-11,株式会社陽の手,,株式会社,千葉県,船橋市,印内町６０３番地の１,,12,204,2730025,,,,,,,2023-01-11,1,,,,,ヒナタノテ,0
1831,6040005021858,新規,0,2023-01-11,2023-01-11,司法書士法人進藤事務所,,その他の設立登記法人,千葉県,袖ケ浦市,神納２丁目４番地３０,,12,229,2990257,,,,,,,2023-01-11,1,,,,,シンドウジムショ,0
1835,6050001052179,新規,0,2023-01-11,2023-01-11,株式会社ムニールトレーディングカンパニー,,株式会社,茨城県,筑西市,樋口６７４番地１,,08,227,3080001,,,,,,,2023-01-11,1,,,,,ムニールトレーディングカンパニー,0
1836,6050001052195,新規,0,2023-01-11,2023-01-11,株式会社さくらホールディングス,,株式会社,茨城県,鹿嶋市,大字宮中２０７番地,,08,222,3140031,,,,,,,2023-01-11,1,,,,,サクラホールディングス,0
1837,6050001052204,新規,0,2023-01-11,2023-01-11,萩原不動産株式会社,,株式会社,茨城県,鹿嶋市,大字大船津２３１８番地,,08,222,3140036,,,,,,,2023-01-11,1,,,,,ハギワラフドウサン,0
1838,6050001052220,新規,0,2023-01-11,2023-01-11,株式会社山口会計,,株式会社,茨城県,結城郡八千代町,大字太田１１２７番地２,,08,521,3003534,,,,,,,2023-01-11,1,,,,,ヤマグチカイケイ,0
1839,6050001052229,新規,0,2023-01-11,2023-01-11,株式会社Ｒｅｕｓｓｉｔｅ,,株式会社,茨城県,結城市,大字新宿新田１８８番地,,08,207,3070034,,,,,,,2023-01-11,1,,,,,レユシット,0
1842,6060001035595,新規,0,2023-01-11,2023-01-11,株式会社ミノワ,,株式会社,栃木県,宇都宮市,下栗１丁目１３番地１,,09,201,3210924,,,,,,,2023-01-11,1,,,,,ミノワ,0
1843,6060001035604,新規,0,2023-01-11,2023-01-11,株式会社Ｊｏｙ＆Ａｃｔｉｏｎ,,株式会社,栃木県,宇都宮市,中央３丁目２番４号,,09,201,3200806,,,,,,,2023-01-11,1,,,,,ジョイアンドアクション,0
1847,6070001040000,新規,0,2023-01-11,2023-01-11,株式会社カポノ,,株式会社,群馬県,桐生市,元宿町９番２０号,,10,203,3760027,,,,,,,2023-01-11,1,,,,,カポノ,0
1852,6080101023738,新規,0,2023-01-11,2023-01-11,株式会社ファースト,,株式会社,静岡県,駿東郡清水町,伏見６４５番地の２２,,22,341,4110907,,,,,,,2023-01-11,1,,,,,ファースト,0
1854,6080401026242,新規,0,2023-01-11,2023-01-11,株式会社アウルオート,,株式会社,静岡県,浜松市東区,笠井町１２１３番地,,22,132,4313107,,,,,,,2023-01-11,1,,,,,アウルオート,0
1856,6100001036028,新規,0,2023-01-11,2023-01-11,株式会社セカンドステージ,,株式会社,長野県,北佐久郡御代田町,大字馬瀬口１８６０番地３９内電ビル２階,,20,323,3890207,,,,,,,2023-01-11,1,,,,,セカンドステージ,0
1864,6110001037215,新規,0,2023-01-11,2023-01-11,株式会社クラフトワーク,,株式会社,新潟県,新潟市中央区,高志１丁目２２番１０号,,15,103,9500926,,,,,,,2023-01-11,1,,,,,クラフトワーク,0
1865,6110001037223,新規,0,2023-01-11,2023-01-11,株式会社未来サポート,,株式会社,新潟県,長岡市,春日２丁目５番５号,,15,202,9400096,,,,,,,2023-01-11,1,,,,,ミライサポート,0
1866,6110001037231,新規,0,2023-01-11,2023-01-11,株式会社開成,,株式会社,新潟県,新潟市秋葉区,新津東町２丁目９番２２号,,15,105,9560816,,,,,,,2023-01-11,1,,,,,カイセイ,0
1867,6110003004956,新規,0,2023-01-11,2023-01-11,合同会社長岡自立教育,,合同会社,新潟県,長岡市,四郎丸２丁目４番９号,,15,202,9400046,,,,,,,2023-01-11,1,,,,,ナガオカジリツキョウイク,0
1883,6120001251541,新規,0,2023-01-11,2023-01-11,シンケア株式会社,,株式会社,大阪府,大阪市中央区,平野町３丁目１番６－８０４号,,27,128,5410046,,,,,,,2023-01-11,1,,,,,シンケア,0
1884,6120001251566,新規,0,2023-01-11,2023-01-11,えくぼ株式会社,,株式会社,大阪府,大阪市中央区,平野町２丁目２－７－北浜コンソール７０４,,27,128,5410046,,,,,,,2023-01-11,1,,,,,エクボ,0
1885,6120001251649,新規,0,2023-01-11,2023-01-11,株式会社Ｓｑｕａｒｅ,,株式会社,大阪府,大阪市天王寺区,清水谷町１３番５－５０１号,,27,109,5430011,,,,,,,2023-01-11,1,,,,,スクエアー,0
1886,6120001251707,新規,0,2023-01-11,2023-01-11,株式会社Ｋｅｙ＆Ｌｉｎｋ,,株式会社,大阪府,大阪市西区,北堀江１丁目２３番２５－１２０３号,,27,106,5500014,,,,,,,2023-01-11,1,,,,,キーアンドリンク,0
1887,6120005023391,新規,0,2023-01-11,2023-01-11,一般社団法人心宮会,,その他の設立登記法人,大阪府,大阪市中央区,道修町２丁目２番１１号ベルロード道修町６階,,27,128,5410045,,,,,,,2023-01-11,1,,,,,シングウカイ,0
1890,6120101066773,新規,0,2023-01-11,2023-01-11,株式会社建志工業,,株式会社,大阪府,堺市北区,常磐町２丁３番地１４－１号,,27,146,5918001,,,,,,,2023-01-11,1,,,,,ケンシコウギョウ,0
1891,6120103005011,新規,0,2023-01-11,2023-01-11,合同会社Ｎｅｘｔ　Ｂｅａｕｔｙ,,合同会社,大阪府,堺市堺区,翁橋町１丁６－１６,,27,141,5900061,,,,,,,2023-01-11,1,,,,,ネクストビューティー,0
1895,6120901046917,新規,0,2023-01-11,2023-01-11,大興商事株式会社,,株式会社,大阪府,高槻市,紺屋町１番１号,,27,207,5690804,,,,,,,2023-01-11,1,,,,,ダイコウショウジ,0
1896,6120903004451,新規,0,2023-01-11,2023-01-11,ＩＢＳ　Ｊａｐａｎ合同会社,,合同会社,大阪府,箕面市,森町中３丁目２５番２２号,,27,220,5630257,,,,,,,2023-01-11,1,,,,,アイビーエスジャパン,0
1900,6130003008427,新規,0,2023-01-11,2023-01-11,日勝情報サービス合同会社,,合同会社,京都府,京丹後市,網野町浅茂川３２５番地,,26,212,6293104,,,,,,,2023-01-11,1,,,,,ニッショウジョウホウサービス,0
1905,6140001128572,新規,0,2023-01-11,2023-01-11,株式会社コメット,,株式会社,兵庫県,神戸市兵庫区,駅南通５丁目４番１５号,,28,105,6520897,,,,,,,2023-01-11,1,,,,,コメット,0
1906,6140001128606,新規,0,2023-01-11,2023-01-11,株式会社輝商事,,株式会社,兵庫県,南あわじ市,八木新庄３２１番地８,,28,224,6560436,,,,,,,2023-01-11,1,,,,,カガヤキショウジ,0
1907,6140001128614,新規,0,2023-01-11,2023-01-11,株式会社ＴＫＣ,,株式会社,兵庫県,姫路市,夢前町護持１３６４番地１６３,,28,201,6712136,,,,,,,2023-01-11,1,,,,,ティーケーシー,0
1908,6140001128671,新規,0,2023-01-11,2023-01-11,七瀬事務所株式会社,,株式会社,兵庫県,高砂市,曽根町６５３番地の３,,28,216,6760082,,,,,,,2023-01-11,1,,,,,ナナセジムショ,0
1912,6140003018532,新規,0,2023-01-11,2023-01-11,ことのは合同会社,,合同会社,兵庫県,加古川市,別府町新野辺８１２番地の１,,28,210,6750131,,,,,,,2023-01-11,1,,,,,コトノハ,0
1913,6140003018540,新規,0,2023-01-11,2023-01-11,合同会社ニュークロップ,,合同会社,兵庫県,神戸市西区,丸塚１丁目５番４号,,28,111,6512143,,,,,,,2023-01-11,1,,,,,ニュークロップ,0
1914,6140003018549,新規,0,2023-01-11,2023-01-11,オルタシア合同会社,,合同会社,兵庫県,南あわじ市,広田中筋８１５－２,,28,224,6560131,,,,,,,2023-01-11,1,,,,,オルタシア,0
1915,6140005026442,新規,0,2023-01-11,2023-01-11,医療法人ほんわか,,その他の設立登記法人,兵庫県,川西市,火打２丁目２番１４号,,28,217,6660017,,,,,,,2023-01-11,1,,,,,ホンワカ,0
1926,6160003002773,新規,0,2023-01-11,2023-01-11,合同会社ＴＲＩａｉｒ,,合同会社,滋賀県,草津市,矢橋町１２２４－１５,,25,206,5250066,,,,,,,2023-01-11,1,,,,,トライエアー,0
1927,6160005011153,新規,0,2023-01-11,2023-01-11,一般社団法人日野里山フリースクール,,その他の設立登記法人,滋賀県,蒲生郡日野町,大字蔵王４９０番地,,25,383,5291625,,,,,,,2023-01-11,1,,,,,ヒノサトヤマフリースクール,0
1935,6190003004189,新規,0,2023-01-11,2023-01-11,ＮＯＮＫＩ合同会社,,合同会社,三重県,度会郡南伊勢町,五ケ所浦９４１番地１５,,24,472,5160101,,,,,,,2023-01-11,1,,,,,ノンキ,0
1937,6200001040853,新規,0,2023-01-11,2023-01-11,株式会社フルッタロッサ,,株式会社,岐阜県,多治見市,姫町６丁目１１７番地１１,,21,204,5070061,,,,,,,2023-01-11,1,,,,,フルッタロッサ,0
1945,6210005010075,新規,0,2023-01-11,2023-01-11,一般社団法人地域サステイナビリティ総合研究所,,その他の設立登記法人,福井県,福井市,栂野町第１５号１番地２,,18,201,9102178,,,,,,,2023-01-11,1,,,,,チイキサステイナビリティソウゴウケンキュウショ,0
1948,6240001060947,新規,0,2023-01-11,2023-01-11,ユグドラシル株式会社,,株式会社,広島県,広島市佐伯区,五日市４丁目１８番７号,,34,108,7315127,,,,,,,2023-01-11,1,,,,,ユグドラシル,0
1949,6250001019901,新規,0,2023-01-11,2023-01-11,大興商事株式会社,,株式会社,山口県,防府市,開出西町２４番８号,,35,206,7470054,,,,,,,2023-01-11,1,,,,,ダイコウショウジ,0
1959,6290001100129,新規,0,2023-01-11,2023-01-11,株式会社ＡＤＬＩＬ,,株式会社,福岡県,福岡市中央区,天神２丁目３番１０号天神パインクレスト７１９号,,40,133,8100001,,,,,,,2023-01-11,1,,,,,アドリル,0
1960,6290001100145,新規,0,2023-01-11,2023-01-11,株式会社ワンプライム,,株式会社,福岡県,福岡市中央区,舞鶴３丁目１番２３号,,40,133,8100073,,,,,,,2023-01-11,1,,,,,ワンプライム,0
1963,6290003013403,新規,0,2023-01-11,2023-01-11,合同会社ＦＴ,,合同会社,福岡県,福岡市博多区,井相田３丁目５番３１－４０２号,,40,132,8120881,,,,,,,2023-01-11,1,,,,,エフティー,0
1967,6290801029170,新規,0,2023-01-11,2023-01-11,清水物産丸鳳株式会社,,株式会社,福岡県,北九州市若松区,大字安瀬１７番地１,,40,103,8080022,,,,,,,2023-01-11,1,,,,,シミズブッサンマルホウ,0
1968,6290801029204,新規,0,2023-01-11,2023-01-11,株式会社Ｍｙ　Ｆａｖ,,株式会社,福岡県,行橋市,大字大谷２０７４番地３,,40,213,8240045,,,,,,,2023-01-11,1,,,,,マイファボ,0
1970,6290803004304,新規,0,2023-01-11,2023-01-11,合同会社ＡＳＥ,,合同会社,福岡県,北九州市小倉南区,徳力新町１丁目２５番６－１０２号,,40,107,8020979,,,,,,,2023-01-11,1,,,,,エーエスイー,0
1971,6310001018203,新規,0,2023-01-11,2023-01-11,株式会社甫木工業所,,株式会社,長崎県,佐世保市,東浜町５５４番地,,42,202,8571172,,,,,,,2023-01-11,1,,,,,ホキコウギョウショ,0
1972,6310001018211,新規,0,2023-01-11,2023-01-11,三伍八金属株式会社,,株式会社,長崎県,大村市,沖田町４３９番地２,,42,205,8560809,,,,,,,2023-01-11,1,,,,,ミツゴヤキンゾク,0
1977,6320001019497,新規,0,2023-01-11,2023-01-11,三好コーポレーション株式会社,,株式会社,大分県,佐伯市,鶴見大字地松浦５５０番地３０,,44,205,8761202,,,,,,,2023-01-11,1,,,,,ミヨシコーポレーション,0
1982,6330001030486,新規,0,2023-01-11,2023-01-11,はうすのとりこ株式会社,,株式会社,熊本県,熊本市北区,清水亀井町２７番６号,,43,105,8618066,,,,,,,2023-01-11,1,,,,,ハウスノトリコ,0
1987,6340003004017,新規,0,2023-01-11,2023-01-11,合同会社辰己,,合同会社,鹿児島県,鹿屋市,笠之原町４１番１５－１号,,46,203,8930023,,,,,,,2023-01-11,1,,,,,タツミ,0
1990,6350001018125,新規,0,2023-01-11,2023-01-11,株式会社クレア,,株式会社,宮崎県,西都市,大字穂北９０９番地３,,45,208,8810026,,,,,,,2023-01-11,1,,,,,クレア,0
1991,6350003004263,新規,0,2023-01-11,2023-01-11,合同会社Ｓｏｕｔｈｅｒｎ　Ｗｉｎｄ．２３８,,合同会社,宮崎県,宮崎市,大字田吉１３７０番地５,,45,201,8800911,,,,,,,2023-01-11,1,,,,,サザンウインドドットニサンハチ,0
1993,6360001031416,新規,0,2023-01-11,2023-01-11,株式会社Ｇｒｏｗ　Ａｒｏｕｎｄ,,株式会社,沖縄県,沖縄市,胡屋１丁目５－７０丸金アパート１階,,47,211,9040021,,,,,,,2023-01-11,1,,,,,グロウアラウンド,0
1994,6360003012612,新規,0,2023-01-11,2023-01-11,合同会社富士介護サービス,,合同会社,沖縄県,中頭郡中城村,字北上原２７１番地１,,47,328,9012423,,,,,,,2023-01-11,1,,,,,フジカイゴサービス,0
1995,6370001049473,新規,0,2023-01-11,2023-01-11,株式会社明和,,株式会社,宮城県,仙台市泉区,桂４丁目３番地の３,,04,105,9813134,,,,,,,2023-01-11,1,,,,,メイワ,0
2006,6430001088135,新規,0,2023-01-11,2023-01-11,株式会社ＡｕｔｏＨａｉｍｉＳｈ,,株式会社,北海道,札幌市東区,伏古二条３丁目３番２０号,,01,103,0070862,,,,,,,2023-01-11,1,,,,,オートハイミッシュ,0
2007,6430001088143,新規,0,2023-01-11,2023-01-11,株式会社Ｇｒａｃｉｏｕｓ　ｍｏｔｏｒｓ,,株式会社,北海道,札幌市清田区,里塚緑ケ丘７丁目１３番３号,,01,110,0040805,,,,,,,2023-01-11,1,,,,,グレイシャスモータース,0
2008,6430001088168,新規,0,2023-01-11,2023-01-11,株式会社中塚装蹄所,,株式会社,北海道,千歳市,春日町４丁目１番３号,,01,224,0660065,,,,,,,2023-01-11,1,,,,,ナカツカソウテイショ,0
2009,6430001088176,新規,0,2023-01-11,2023-01-11,株式会社Ｋフロント,,株式会社,北海道,札幌市西区,二十四軒四条３丁目４番３５号,,01,107,0630804,,,,,,,2023-01-11,1,,,,,ケーフロント,0
2010,6430001088184,新規,0,2023-01-11,2023-01-11,株式会社Ａｕｔｏ　Ｗｏｒｋｓ　ＭＫ,,株式会社,北海道,札幌市手稲区,手稲山口８０８番地１６２,,01,109,0060860,,,,,,,2023-01-11,1,,,,,オートワークスエムケイ,0
2011,6430001088218,新規,0,2023-01-11,2023-01-11,グレイステージ株式会社,,株式会社,北海道,札幌市北区,屯田七条７丁目１番２４号,,01,102,0020857,,,,,,,2023-01-11,1,,,,,グレイステージ,0
2020,6480005006939,新規,0,2023-01-11,2023-01-11,一般社団法人ふぁみぃゆ,,その他の設立登記法人,徳島県,板野郡北島町,北村字壱町四反地７１番地７,,36,402,7710201,,,,,,,2023-01-11,1,,,,,ファミィユ,0
2021,6490001010373,新規,0,2023-01-11,2023-01-11,さくら株式会社,,株式会社,高知県,高知市,吉田町５番２０－２０２号,,39,201,7800048,,,,,,,2023-01-11,1,,,,,サクラ,0
2023,6700150113013,新規,0,2023-01-11,2022-12-13,九谷焼彩匠会,,その他,石川県,能美市,泉台町南１３番地,,17,211,9231111,,,,,,,2022-12-13,1,,,,,クタニヤキサイシヨウカイ,0
2032,7010001232089,新規,0,2023-01-11,2023-01-11,株式会社ａｎｄ　Ｃａｐｉｔａｌ,,株式会社,東京都,千代田区,平河町２丁目４番５号,,13,101,1020093,,,,,,,2023-01-11,1,,,,,アンドキャピタル,0
2033,7010003039508,新規,0,2023-01-11,2023-01-11,ＬａｌａＣｒｅａｔｅ合同会社,,合同会社,東京都,中央区,銀座６丁目１３番１６号銀座ＷａｌｌビルＵＣＦ５階,,13,102,1040061,,,,,,,2023-01-11,1,,,,,ララクリエイト,0
2034,7010003039549,新規,0,2023-01-11,2023-01-11,ＢＢＢＲＡ合同会社,,合同会社,東京都,中央区,八丁堀３丁目１番７－８０３号,,13,102,1040032,,,,,,,2023-01-11,1,,,,,ビービーブラ,0
2036,7010005036073,新規,0,2023-01-11,2023-01-11,ＦＡＬ　Ｎｏ．２ＴＭＫ特定目的会社,,その他の設立登記法人,東京都,千代田区,丸の内２丁目３番２号郵船ビルアルタードムス・ジャパン株式会社内,,13,101,1000005,,,,,,,2023-01-11,1,,,,,エフエーエルナンバーツーティーエムケー,0
2037,7010005036098,新規,0,2023-01-11,2023-01-11,一般社団法人日本害獣対策ガイドライン協会,,その他の設立登記法人,東京都,中央区,銀座３丁目１４番１５号第二厚生館ビル５階,,13,102,1040061,,,,,,,2023-01-11,1,,,,,ニホンガイジュウタイサクガイドラインキョウカイ,0
2038,7010101015484,新規,0,2023-01-11,2023-01-11,株式会社ジャスティス,,株式会社,東京都,八王子市,松木２番地２エフォートＩＩ１０５号,00129008,13,201,1920362,,,,,,,2023-01-11,1,,,,,ジャスティス,0
2049,7010401171688,新規,0,2023-01-11,2023-01-11,株式会社ＦＲＥＥ　ＭＡＮ,,株式会社,東京都,港区,芝大門２丁目３番１５号,,13,103,1050012,,,,,,,2023-01-11,1,,,,,フリーマン,0
2050,7010401171705,新規,0,2023-01-11,2023-01-11,株式会社いまじんプラス,,株式会社,東京都,港区,南青山３丁目１番３６号青山丸竹ビル６Ｆ,,13,103,1070062,,,,,,,2023-01-11,1,,,,,イマジンプラス,0
2051,7010401171713,新規,0,2023-01-11,2023-01-11,デキる男のための株式会社,,株式会社,東京都,港区,芝大門１丁目７番１２号宮本ビル２階,,13,103,1050012,,,,,,,2023-01-11,1,,,,,デキルオトコノタメノ,0
2052,7010401171787,新規,0,2023-01-11,2023-01-11,株式会社エンリッチ,,株式会社,東京都,港区,麻布十番２丁目１３番５号６０１,,13,103,1060045,,,,,,,2023-01-11,1,,,,,エンリッチ,0
2055,7010403029249,新規,0,2023-01-11,2023-01-11,Ｗ合同会社,,合同会社,東京都,港区,南青山４丁目２６番６号,,13,103,1070062,,,,,,,2023-01-11,1,,,,,ダブリュ,0
2056,7010403029257,新規,0,2023-01-11,2023-01-11,ＨａｒｍｏｎｙＡｒｔｓ和美術合同会社,,合同会社,東京都,港区,南青山３丁目１０番４１号ジュエル青山ビル２０２号,,13,103,1070062,,,,,,,2023-01-11,1,,,,,ハーモニーアーツワビジュツ,0
2057,7010403029265,新規,0,2023-01-11,2023-01-11,合同会社Ｋｎｏｔ　Ａｄｖｉｓｏｒｙ,,合同会社,東京都,港区,麻布台３丁目５－５,,13,103,1060041,,,,,,,2023-01-11,1,,,,,ノットアドバイザリー,0
2058,7010501049834,新規,0,2023-01-11,2023-01-11,株式会社サニーテック,,株式会社,東京都,台東区,上野７丁目３番９号,,13,106,1100005,,,,,,,2023-01-11,1,,,,,サニーテック,0
2061,7010601062398,新規,0,2023-01-11,2023-01-11,株式会社ＤＥＡＲ　ＦＥＥＬＩＮＧ,,株式会社,東京都,墨田区,業平５丁目１４番７号フラーリシ押上１Ｆ,,13,107,1300002,,,,,,,2023-01-11,1,,,,,ディアフィーリング,0
2062,7010601062407,新規,0,2023-01-11,2023-01-11,Ａｌｔｅａ　Ｆｒｕｔｅｘ株式会社,,株式会社,東京都,江東区,枝川３丁目１番１７－１３０２号,,13,108,1350051,,,,,,,2023-01-11,1,,,,,アルテアフルテックス,0
2066,7010701043703,新規,0,2023-01-11,2023-01-11,株式会社ノブレスオブリージュ,,株式会社,東京都,品川区,西品川２丁目１０番１３号,,13,109,1410033,,,,,,,2023-01-11,1,,,,,ノブレスオブリージュ,0
2067,7010703006526,新規,0,2023-01-11,2023-01-11,合同会社Ｍａｒｅ　Ｆｉｏｒｅ,,合同会社,東京都,品川区,北品川１丁目２３番２４号,,13,109,1400001,,,,,,,2023-01-11,1,,,,,マレフィオーレ,0
2068,7010703006534,新規,0,2023-01-11,2023-01-11,合同会社ＴＳＵＢＡＫＩ,,合同会社,東京都,品川区,大井７丁目４番２４号,,13,109,1400014,,,,,,,2023-01-11,1,,,,,ツバキ,0
2069,7010803004413,新規,0,2023-01-11,2023-01-11,コピパ合同会社,,合同会社,東京都,大田区,東雪谷３丁目９番１３号,,13,111,1450065,,,,,,,2023-01-11,1,,,,,コピパ,0
2074,7010903007885,新規,0,2023-01-11,2023-01-11,合同会社ＰＯＢ,,合同会社,東京都,世田谷区,奥沢６丁目９番１５号,,13,112,1580083,,,,,,,2023-01-11,1,,,,,ピーオービー,0
2081,7011001151832,新規,0,2023-01-11,2023-01-11,株式会社ピクセルフォワード,,株式会社,東京都,渋谷区,道玄坂１丁目１０番８号渋谷道玄坂東急ビル２Ｆ－Ｃ,,13,113,1500043,,,,,,,2023-01-11,1,,,,,ピクセルフォワード,0
2082,7011001151898,新規,0,2023-01-11,2023-01-11,株式会社Ｆｉｎｅ　Ｆｕｔｕｒｅ,,株式会社,東京都,渋谷区,恵比寿１丁目１５番９号日宝恵比寿ビル４０３,,13,113,1500013,,,,,,,2023-01-11,1,,,,,ファインフューチャー,0
2083,7011003016042,新規,0,2023-01-11,2023-01-11,合同会社ＯＮＥ　ＨＥＡＲＴ,,合同会社,東京都,渋谷区,道玄坂１丁目１０番８号渋谷道玄坂東急ビル２Ｆ－Ｃ,,13,113,1500043,,,,,,,2023-01-11,1,,,,,ワンハート,0
2084,7011005009903,新規,0,2023-01-11,2023-01-11,一般社団法人ＪａｐａｎＢｌｏｃｋｃｈａｉｎＷｅｅｋ,,その他の設立登記法人,東京都,渋谷区,南平台町１６番２８号Ｄａｉｗａ渋谷スクエア６Ｆ,,13,113,1500036,,,,,,,2023-01-11,1,,,,,ジャパンブロックチェーンウィーク,0
2092,7011101101398,新規,0,2023-01-11,2023-01-11,ＲＣＭソリューションイノベータ株式会社,,株式会社,東京都,新宿区,新宿６丁目２９－１１新宿イーストクロスタワー６Ｆ,,13,104,1600022,,,,,,,2023-01-11,1,,,,,アールシーエムソリューションイノベータ,0
2093,7011101101407,新規,0,2023-01-11,2023-01-11,株式会社ＳＣＲ　Ｐｒｏｊｅｃｔ,,株式会社,東京都,新宿区,大京町７番地１パークコート四谷２０１,,13,104,1600015,,,,,,,2023-01-11,1,,,,,エスシーアールプロジェクト,0
2095,7011103012552,新規,0,2023-01-11,2023-01-11,合同会社ＬＡＲＡ,,合同会社,東京都,新宿区,西新宿３丁目３番１３号西新宿水間ビル２Ｆ,,13,104,1600023,,,,,,,2023-01-11,1,,,,,ララ,0
2097,7011403003870,新規,0,2023-01-11,2023-01-11,合同会社むすび,,合同会社,東京都,板橋区,大谷口１丁目１６番７号,,13,119,1730035,,,,,,,2023-01-11,1,,,,,ムスビ,0
2105,7011701025939,新規,0,2023-01-11,2023-01-11,株式会社大翔工業,,株式会社,東京都,江戸川区,松江５丁目１３番６号サンシティ松江１０２,,13,123,1320025,,,,,,,2023-01-11,1,,,,,タイショウコウギョウ,0
2107,7012401040039,新規,0,2023-01-11,2023-01-11,株式会社ＴＡＤＳ建築設計事務所,,株式会社,東京都,武蔵野市,西久保１丁目５番８号,,13,203,1800013,,,,,,,2023-01-11,1,,,,,タッズケンチクセッケイジムショ,0
2109,7012403005766,新規,0,2023-01-11,2023-01-11,合同会社サンフューチャー,,合同会社,東京都,府中市,新町１丁目５２番地の１府中フジビルＡ号室,,13,206,1830052,,,,,,,2023-01-11,1,,,,,サンフューチャー,0
2114,7012801022066,新規,0,2023-01-11,2023-01-11,株式会社ｙｏｋｅ,,株式会社,東京都,立川市,錦町１丁目２番１２号ア－バンアネックス立川１Ｆ,,13,202,1900022,,,,,,,2023-01-11,1,,,,,ヨーク,0
2115,7013301050160,新規,0,2023-01-11,2023-01-11,株式会社Ｈ‐ＡＣＴＩＯＮ,,株式会社,東京都,豊島区,東池袋１丁目７番１０号鳥駒第一ビル２階,,13,116,1700013,,,,,,,2023-01-11,1,,,,,エイチアクション,0
2116,7013303006441,新規,0,2023-01-11,2023-01-11,合同会社ＫＩＳＳＡ,,合同会社,東京都,豊島区,南大塚３丁目５５－１Ａ１ビル２Ｆ,,13,116,1700005,,,,,,,2023-01-11,1,,,,,キサ,0
2117,7013305003429,新規,0,2023-01-11,2023-01-11,一般社団法人任意後見・死後事務・遺言執行・士業協会,,その他の設立登記法人,東京都,豊島区,巣鴨２丁目１１番４号,,13,116,1700002,,,,,,,2023-01-11,1,,,,,ニンイコウケンシゴジムイゴンシッコウシギョウキョウカイ,0
2122,7020001149662,新規,0,2023-01-11,2023-01-11,株式会社ＫＮｉｎｆ,,株式会社,神奈川県,横浜市鶴見区,岸谷２丁目１３番３６号ヒルズ生麦ＩＩ,00129001,14,101,2300078,,,,,,,2023-01-11,1,,,,,ケイエヌインフ,0
2123,7020001149695,新規,0,2023-01-11,2023-01-11,株式会社ｙ‐ｊｉｍｕｓｈｏ,,株式会社,神奈川県,横浜市緑区,東本郷４丁目２７番１１号,,14,113,2260002,,,,,,,2023-01-11,1,,,,,ワイジムショ,0
2124,7020001149704,新規,0,2023-01-11,2023-01-11,株式会社ＬｅａＢｅａｃｈ,,株式会社,神奈川県,横浜市都筑区,仲町台１丁目２－３２ロイヤルシティ２０１,,14,118,2240041,,,,,,,2023-01-11,1,,,,,,0
2125,7020001149712,新規,0,2023-01-11,2023-01-11,Ｆｕｎａｚｕｍｉ　Ｅｘｐｒｅｓｓ株式会社,,株式会社,神奈川県,横浜市神奈川区,子安台１丁目９番１３号,,14,102,2210012,,,,,,,2023-01-11,1,,,,,フナヅミエクスプレス,0
2126,7020001149745,新規,0,2023-01-11,2023-01-11,わがけねホールディングス株式会社,,株式会社,神奈川県,横浜市保土ケ谷区,常盤台８６番地１,,14,106,2400067,,,,,,,2023-01-11,1,,,,,ワガケネホールディングス,0
2129,7020003023023,新規,0,2023-01-11,2023-01-11,合同会社ＤｒｅａｍＨｅａｒｔ,,合同会社,神奈川県,横浜市港南区,日野４丁目１８－３－４,,14,111,2340051,,,,,,,2023-01-11,1,,,,,ドリームハート,0
2130,7020003023056,新規,0,2023-01-11,2023-01-11,合同会社８ＡＲＩＳＥ,,合同会社,神奈川県,横浜市神奈川区,神之木台２５番４－２号,,14,102,2210011,,,,,,,2023-01-11,1,,,,,エイトアライズ,0
2139,7021001077886,新規,0,2023-01-11,2023-01-11,株式会社文通信,,株式会社,神奈川県,綾瀬市,上土棚中６丁目１２番２８号,,14,218,2521113,,,,,,,2023-01-11,1,,,,,ブンツウシン,0
2140,7021001077894,新規,0,2023-01-11,2023-01-11,株式会社ミーナ,,株式会社,神奈川県,横須賀市,久里浜４丁目９番４号,,14,201,2390831,,,,,,,2023-01-11,1,,,,,ミーナ,0
2145,7021003012569,新規,0,2023-01-11,2023-01-11,合同会社Ｖｉｅｒ　Ｓ,,合同会社,神奈川県,横須賀市,汐見台２丁目１３番２号,,14,201,2380054,,,,,,,2023-01-11,1,,,,,フィーアズ,0
2146,7021003012577,新規,0,2023-01-11,2023-01-11,合同会社Ａｙｌ　Ｂｅｌｌ,,合同会社,神奈川県,茅ヶ崎市,十間坂３丁目７番１－２号,,14,207,2530045,,,,,,,2023-01-11,1,,,,,エイワイエルベル,0
2147,7021005012708,新規,0,2023-01-11,2023-01-11,一般社団法人賢草日本語研究会,,その他の設立登記法人,神奈川県,茅ヶ崎市,室田２丁目２番２２号,,14,207,2530018,,,,,,,2023-01-11,1,,,,,ケンソウニホンゴケンキュウカイ,0
2154,7030001151725,新規,0,2023-01-11,2023-01-11,香心株式会社,,株式会社,埼玉県,さいたま市岩槻区,大字笹久保１７４番地３,,11,110,3390034,,,,,,,2023-01-11,1,,,,,コウシン,0
2155,7030001151733,新規,0,2023-01-11,2023-01-11,株式会社三協,,株式会社,埼玉県,さいたま市大宮区,吉敷町２丁目１０８番地４吉敷スカイハイツ６０９,,11,103,3300843,,,,,,,2023-01-11,1,,,,,サンキョウ,0
2156,7030001151758,新規,0,2023-01-11,2023-01-11,株式会社エムシーワークス,,株式会社,埼玉県,さいたま市西区,大字佐知川１２５１番地１０,,11,101,3310064,,,,,,,2023-01-11,1,,,,,エムシーワークス,0
2157,7030001151766,新規,0,2023-01-11,2023-01-11,株式会社萩原,,株式会社,埼玉県,戸田市,笹目５丁目１２番地の７,,11,224,3350034,,,,,,,2023-01-11,1,,,,,ハギワラ,0
2158,7030001151824,新規,0,2023-01-11,2023-01-11,株式会社ＶＯＬＴＥＸ,,株式会社,埼玉県,熊谷市,野原１０３７番地１,,11,202,3600101,,,,,,,2023-01-11,1,,,,,ボルテックス,0
2159,7030001151840,新規,0,2023-01-11,2023-01-11,アークシード株式会社,,株式会社,埼玉県,川口市,戸塚６丁目１６番１１号,,11,203,3330811,,,,,,,2023-01-11,1,,,,,アークシード,0
2169,7030003020878,新規,0,2023-01-11,2023-01-11,合同会社スプリング,,合同会社,埼玉県,春日部市,粕壁６７０２番地１セントラルコート春日部２０７号,,11,214,3440061,,,,,,,2023-01-11,1,,,,,スプリング,0
2170,7030003020886,新規,0,2023-01-11,2023-01-11,合同会社ＴｅｃｈｎｏＫｕＲｏ,,合同会社,埼玉県,熊谷市,石原１１２番地４,,11,202,3600816,,,,,,,2023-01-11,1,,,,,テクノクロ,0
2171,7030003020894,新規,0,2023-01-11,2023-01-11,合同会社ＡＵＫ,,合同会社,埼玉県,川口市,大字西立野４００番地の１１,,11,203,3330813,,,,,,,2023-01-11,1,,,,,オーク,0
2172,7030003020903,新規,0,2023-01-11,2023-01-11,合同会社日比技建,,合同会社,埼玉県,所沢市,東所沢２丁目３５番地の３シティハイムベルメゾン２０１,,11,208,3590021,,,,,,,2023-01-11,1,,,,,ヒビギケン,0
2173,7030003020928,新規,0,2023-01-11,2023-01-11,合同会社オプチュリー,,合同会社,埼玉県,さいたま市北区,宮原町４丁目５２番地１４,,11,102,3310812,,,,,,,2023-01-11,1,,,,,オプチュリー,0
2175,7030005021107,新規,0,2023-01-11,2023-01-11,税理士法人真下会計,,その他の設立登記法人,埼玉県,東松山市,箭弓町１丁目１８番２０号,,11,212,3550028,,,,,,,2023-01-11,1,,,,,マシタカイケイ,0
2179,7040001126536,新規,0,2023-01-11,2023-01-11,株式会社共栄保温,,株式会社,千葉県,四街道市,下志津新田２５４５番地８２,,12,228,2840006,,,,,,,2023-01-11,1,,,,,キョウエイホオン,0
2180,7040001126544,新規,0,2023-01-11,2023-01-11,株式会社ＩＰＰＯ,,株式会社,千葉県,八千代市,緑が丘１丁目２－１０－８０２号,,12,221,2760049,,,,,,,2023-01-11,1,,,,,イッポウ,0
2181,7040001126585,新規,0,2023-01-11,2023-01-11,Ｊｕｍｐ設計株式会社,,株式会社,千葉県,船橋市,二宮１丁目６６番７－２１０号,,12,204,2740823,,,,,,,2023-01-11,1,,,,,ジャンプセッケイ,0
2192,7050001052203,新規,0,2023-01-11,2023-01-11,株式会社ＩＫＵＧＹ,,株式会社,茨城県,つくば市,二の宮３丁目２３番地４３,,08,220,3050051,,,,,,,2023-01-11,1,,,,,イクジー,0
2194,7050003007139,新規,0,2023-01-11,2023-01-11,合同会社真岡,,合同会社,茨城県,水戸市,堀町２１０５番地の３０,,08,201,3100903,,,,,,,2023-01-11,1,,,,,マオカ,0
2203,7080101023737,新規,0,2023-01-11,2023-01-11,池田工業株式会社,,株式会社,静岡県,駿東郡長泉町,下土狩４３０番地の１６,,22,342,4110943,,,,,,,2023-01-11,1,,,,,イケダコウギョウ,0
2204,7080103002722,新規,0,2023-01-11,2023-01-11,合同会社ＥｎｄｌｅｓｓＥｆｆｏｒｔ,,合同会社,静岡県,富士市,吉原４丁目２４番１４－５０４号,,22,210,4170051,,,,,,,2023-01-11,1,,,,,エンドレスエフォート,0
2208,7080403004690,新規,0,2023-01-11,2023-01-11,合同会社ギブリ,,合同会社,静岡県,浜松市中区,高丘西２丁目２６番８号,,22,131,4338118,,,,,,,2023-01-11,1,,,,,ギブリ,0
2209,7100001036027,新規,0,2023-01-11,2023-01-11,株式会社前田塗装,,株式会社,長野県,松本市,波田５８６４番地１２,,20,202,3901401,,,,,,,2023-01-11,1,,,,,マエダトソウ,0
2212,7100005012957,新規,0,2023-01-11,2023-01-11,税理士法人大沢会計事務所,,その他の設立登記法人,長野県,松本市,北深志２丁目３番３５号,,20,202,3900872,,,,,,,2023-01-11,1,,,,,オオサワカイケイジムショ,0
2214,7110003004955,新規,0,2023-01-11,2023-01-11,合同会社ヘルスート,,合同会社,新潟県,三条市,興野２丁目３番７号,,15,204,9550046,,,,,,,2023-01-11,1,,,,,ヘルスート,0
2221,7120001251508,新規,0,2023-01-11,2023-01-11,ＫＵＭＵ株式会社,,株式会社,大阪府,大阪市北区,曾根崎新地１丁目３－１６京富ビル,,27,127,5300002,,,,,,,2023-01-11,1,,,,,クム,0
2222,7120001251581,新規,0,2023-01-11,2023-01-11,株式会社Ａｔｈｅｎａ,,株式会社,大阪府,大阪市中央区,島之内２丁目６番５号第三エクセルビル１７号,,27,128,5420082,,,,,,,2023-01-11,1,,,,,アテーナー,0
2230,7120003023186,新規,0,2023-01-11,2023-01-11,合同会社ＩＤＭ　Ｍａｒｋｅｔｉｎｇ,,合同会社,大阪府,枚方市,岡本町７番１号,,27,210,5730031,,,,,,,2023-01-11,1,,,,,アイディーエムマーケティング,0
2231,7120003023211,新規,0,2023-01-11,2023-01-11,合同会社ｒ・ｓｔａｆｆ,,合同会社,大阪府,大阪市東淀川区,西淡路１丁目１－９ビジネス新大阪２階,,27,114,5330031,,,,,,,2023-01-11,1,,,,,アールスタッフ,0
2232,7120003023228,新規,0,2023-01-11,2023-01-11,合同会社ファイブステージ,,合同会社,大阪府,大阪市中央区,上本町西４丁目１番１２－１４０５号,,27,128,5420062,,,,,,,2023-01-11,1,,,,,ファイブステージ,0
2235,7120101066789,新規,0,2023-01-11,2023-01-11,ＲＹＴ株式会社,,株式会社,大阪府,堺市西区,草部２０８－１,,27,144,5938312,,,,,,,2023-01-11,1,,,,,アールワイティー,0
2236,7120103005019,新規,0,2023-01-11,2023-01-11,合同会社さくら信拓,,合同会社,大阪府,富田林市,寺池台５丁目２１番１９号,,27,214,5840073,,,,,,,2023-01-11,1,,,,,サクラシンタク,0
2238,7120901046965,新規,0,2023-01-11,2023-01-11,ＣＬＩＯ株式会社,,株式会社,大阪府,吹田市,津雲台３丁目７番１７号,,27,205,5650862,,,,,,,2023-01-11,1,,,,,クリオ,0
2239,7120901046973,新規,0,2023-01-11,2023-01-11,株式会社ルーチェ,,株式会社,大阪府,高槻市,奈佐原２丁目１４番１５－５０９号,,27,207,5691041,,,,,,,2023-01-11,1,,,,,ルーチェ,0
2247,7130003008426,新規,0,2023-01-11,2023-01-11,合同会社オー,,合同会社,京都府,京都市中京区,御池通東洞院東入笹屋町４３６永和御池ビル６０６号,,26,104,6048187,,,,,,,2023-01-11,1,,,,,オー,0
2253,7140001128596,新規,0,2023-01-11,2023-01-11,株式会社ＮＳ商事,,株式会社,兵庫県,姫路市,東山３５７番地１４,,28,201,6728014,,,,,,,2023-01-11,1,,,,,エヌエスショウジ,0
2254,7140001128613,新規,0,2023-01-11,2023-01-11,株式会社Ｐｕｓｈｉｎｇ　ｆｏｒｗａｒｄ,,株式会社,兵庫県,姫路市,北原５６８番地１－６０６,,28,201,6728002,,,,,,,2023-01-11,1,,,,,プッシングフォワード,0
2255,7140001128621,新規,0,2023-01-11,2023-01-11,株式会社まるてつ,,株式会社,兵庫県,西脇市,西脇１０９番地の３,,28,213,6770015,,,,,,,2023-01-11,1,,,,,マルテツ,0
2256,7140001128654,新規,0,2023-01-11,2023-01-11,株式会社花ｉｃｈｉｂａ,,株式会社,兵庫県,神戸市東灘区,深江浜町１番地の１東部市場内Ｃ棟１１,,28,101,6580023,,,,,,,2023-01-11,1,,,,,ハナイチバ,0
2257,7140001128670,新規,0,2023-01-11,2023-01-11,株式会社川西麺業,,株式会社,兵庫県,川西市,栄町２５番１号アステ川西２０４,,28,217,6660033,,,,,,,2023-01-11,1,,,,,カワニシメンギョウ,0
2258,7140001128679,新規,0,2023-01-11,2023-01-11,株式会社ＲＫエステート,,株式会社,兵庫県,姫路市,三左衛門堀西の町６１番地ＫＭ８８ビル２０１,,28,201,6700940,,,,,,,2023-01-11,1,,,,,アールケーエステート,0
2269,7160001024752,新規,0,2023-01-11,2023-01-11,株式会社げんき,,株式会社,滋賀県,彦根市,後三条町３５２番地１エルミナフラット後三条１０６号,,25,202,5220086,,,,,,,2023-01-11,1,,,,,ゲンキ,0
2270,7160001024769,新規,0,2023-01-11,2023-01-11,株式会社ＬＩＮＯ　ＬＩＦＥ,,株式会社,滋賀県,野洲市,南櫻２４９７番地１,,25,210,5202322,,,,,,,2023-01-11,1,,,,,リノライフ,0
2273,7170003001815,新規,0,2023-01-11,2023-01-11,合同会社ＴＡＳ,,合同会社,和歌山県,田辺市,南新町１６６番地銀座ビル３Ｆ,,30,206,6460042,,,,,,,2023-01-11,1,,,,,タス,0
2278,7180001154341,新規,0,2023-01-11,2023-01-11,株式会社ＬＡＺＯ,,株式会社,愛知県,名古屋市港区,春田野１丁目２４０２番地の３,,23,111,4550873,,,,,,,2023-01-11,1,,,,,ラソ,0
2279,7180001154358,新規,0,2023-01-11,2023-01-11,株式会社ジョイラインスポーツネット,,株式会社,愛知県,名古屋市天白区,中平２丁目１１０５番地ブレイクスルー中平１０１号,,23,116,4680014,,,,,,,2023-01-11,1,,,,,ジョイラインスポーツネット,0
2280,7180001154424,新規,0,2023-01-11,2023-01-11,株式会社新井工業,,株式会社,愛知県,名古屋市南区,六条町４丁目１０９番地５,,23,112,4570853,,,,,,,2023-01-11,1,,,,,アライコウギョウ,0
2281,7180001154432,新規,0,2023-01-11,2023-01-11,三愛サービス株式会社,,株式会社,愛知県,一宮市,新生２丁目１２番１０号,,23,203,4910912,,,,,,,2023-01-11,1,,,,,サンアイサービス,0
2282,7180001154465,新規,0,2023-01-11,2023-01-11,クオッカ株式会社,,株式会社,愛知県,名古屋市瑞穂区,東栄町４丁目２２番地の３,,23,108,4670017,,,,,,,2023-01-11,1,,,,,クオッカ,0
2283,7180005020077,新規,0,2023-01-11,2023-01-11,一般社団法人ツイン,,その他の設立登記法人,愛知県,名古屋市南区,松池町１丁目１９番地,,23,112,4570046,,,,,,,2023-01-11,1,,,,,ツイン,0
2286,7200001040844,新規,0,2023-01-11,2023-01-11,株式会社ユタカコンサルタント,,株式会社,岐阜県,本巣市,仏生寺７００番地２,,21,218,5010407,,,,,,,2023-01-11,1,,,,,ユタカコンサルタント,0
2289,7200003005804,新規,0,2023-01-11,2023-01-11,合同会社ツボスタ,,合同会社,岐阜県,羽島郡笠松町,北及２０２９番地の８,,21,303,5016064,,,,,,,2023-01-11,1,,,,,ツボスタ,0
2290,7220001025216,新規,0,2023-01-11,2023-01-11,株式会社ワイズアトリエ,,株式会社,石川県,金沢市,横川４丁目１３９番地２,,17,201,9218163,,,,,,,2023-01-11,1,,,,,ワイズアトリエ,0
2291,7220003003434,新規,0,2023-01-11,2023-01-11,ＵＮＩＴＥＤ　ＢＡＳＥ　ＪＡＰＡＮ合同会社,,合同会社,石川県,七尾市,和倉タ１番地１,,17,202,9260000,,,,,,,2023-01-11,1,,,,,ユナイテッドベースジャパン,0
2295,7240001060921,新規,0,2023-01-11,2023-01-11,株式会社ＳｋｉｌｌＨｕｎｔｅｒ,,株式会社,広島県,広島市南区,宇品西５丁目１２番２－１８０７号,,34,103,7340014,,,,,,,2023-01-11,1,,,,,スキルハンター,0
2296,7240005015500,新規,0,2023-01-11,2023-01-11,一般社団法人広島県精神保健福祉士協会,,その他の設立登記法人,広島県,安芸郡熊野町,呉地４丁目１１番５号,,34,307,7314222,,,,,,,2023-01-11,1,,,,,ヒロシマケンセイシンホケンフクシシキョウカイ,0
2297,7250001019909,新規,0,2023-01-11,2023-01-11,株式会社プロテック松宮,,株式会社,山口県,下関市,垢田町１丁目６番３５号,,35,201,7510841,,,,,,,2023-01-11,1,,,,,プロテックマツミヤ,0
2301,7260001037554,新規,0,2023-01-11,2023-01-11,株式会社縁‐ＥＮｉＳＨｉ,,株式会社,岡山県,津山市,上河原１９３番地１４,,33,203,7080002,,,,,,,2023-01-11,1,,,,,エニシ,0
2302,7260001037570,新規,0,2023-01-11,2023-01-11,株式会社Ｍ‐Ｆｌｕｋｅ,,株式会社,岡山県,岡山市中区,山崎２８４番地１０,,33,102,7038267,,,,,,,2023-01-11,1,,,,,エムフルーク,0
2304,7260003004148,新規,0,2023-01-11,2023-01-11,合同会社ゆいまーる,,合同会社,岡山県,倉敷市,船穂町船穂５５１４番地３,,33,202,7100261,,,,,,,2023-01-11,1,,,,,ユイマール,0
2305,7260005011183,新規,0,2023-01-11,2023-01-11,特定非営利活動法人岡山ランニングラボ,,その他の設立登記法人,岡山県,岡山市東区,浅川１５８番地２,,33,103,7090605,,,,,,,2023-01-11,1,,,,,オカヤマランニングラボ,0
2307,7280005007527,新規,0,2023-01-11,2023-01-11,一般社団法人おくいずもん,,その他の設立登記法人,島根県,仁多郡奥出雲町,三沢５０１番地１,,32,343,6991513,,,,,,,2023-01-11,1,,,,,オクイズモン,0
2315,7290001100111,新規,0,2023-01-11,2023-01-11,株式会社でんずサトウ,,株式会社,福岡県,久留米市,御井町４９４番地１２,,40,203,8390851,,,,,,,2023-01-11,1,,,,,デンズサトウ,0
2316,7290001100128,新規,0,2023-01-11,2023-01-11,株式会社別府熔接所,,株式会社,福岡県,大牟田市,大字岬１００６番地１,,40,202,8360002,,,,,,,2023-01-11,1,,,,,ベップヨウセツジョ,0
2317,7290001100144,新規,0,2023-01-11,2023-01-11,株式会社ＴＡＩＧＡ,,株式会社,福岡県,福岡市西区,野方５丁目６２番６号,,40,135,8190043,,,,,,,2023-01-11,1,,,,,タイガ,0
2318,7290001100152,新規,0,2023-01-11,2023-01-11,株式会社福岡インケリ,,株式会社,福岡県,福津市,東福間６丁目１番１号,,40,224,8113225,,,,,,,2023-01-11,1,,,,,フクオカインケリ,0
2319,7290001100160,新規,0,2023-01-11,2023-01-11,株式会社ＡＳＡＰ　ｄｅｓｉｇｎ,,株式会社,福岡県,福岡市中央区,春吉１丁目１１番３６号,,40,133,8100003,,,,,,,2023-01-11,1,,,,,エーサップデザイン,0
2320,7290001100169,新規,0,2023-01-11,2023-01-11,株式会社ボイスクリエイト,,株式会社,福岡県,福岡市博多区,吉塚３丁目１６番１２－３０４号,,40,132,8120041,,,,,,,2023-01-11,1,,,,,ボイスクリエイト,0
2321,7290001100177,新規,0,2023-01-11,2023-01-11,株式会社たなまち農園,,株式会社,福岡県,福岡市早良区,内野４丁目１３－２,,40,137,8111123,,,,,,,2023-01-11,1,,,,,タナマチノウエン,0
2323,7290801029203,新規,0,2023-01-11,2023-01-11,株式会社大地緑化,,株式会社,福岡県,田川郡大任町,大字今任原３６３８番地４,,40,608,8240511,,,,,,,2023-01-11,1,,,,,ダイチリョクカ,0
2325,7290803004303,新規,0,2023-01-11,2023-01-11,佐香合同会社,,合同会社,福岡県,北九州市八幡西区,星ケ丘２丁目１８番５号,,40,109,8071264,,,,,,,2023-01-11,1,,,,,サコウ,0
2326,7310001018210,新規,0,2023-01-11,2023-01-11,株式会社ａｎｄ　ｔ．,,株式会社,長崎県,大村市,水計町９６８番地３,,42,205,8560034,,,,,,,2023-01-11,1,,,,,アンドティ,0
2327,7310001018219,新規,0,2023-01-11,2023-01-11,株式会社マスラガレージ,,株式会社,長崎県,大村市,雄ケ原町１３１３番地７２,,42,205,8560022,,,,,,,2023-01-11,1,,,,,マスラガレージ,0
2330,7320001019505,新規,0,2023-01-11,2023-01-11,株式会社イナケン,,株式会社,大分県,別府市,大字鶴見５７０番地の６,,44,202,8740840,,,,,,,2023-01-11,1,,,,,イナケン,0
2332,7330001030485,新規,0,2023-01-11,2023-01-11,株式会社ＯＮＥ‐ＳＴＥＰ,,株式会社,熊本県,熊本市南区,護藤町９３７番地３,,43,104,8614117,,,,,,,2023-01-11,1,,,,,ワンステップ,0
2333,7330003009668,新規,0,2023-01-11,2023-01-11,合同会社Ｋ’ｓ　ＰＬＵＳ,,合同会社,熊本県,熊本市中央区,本山町２２２番地２（１１０６号）,,43,101,8600822,,,,,,,2023-01-11,1,,,,,ケーズプラス,0
2336,7350001018132,新規,0,2023-01-11,2023-01-11,株式会社ユニバーサルエージェンシー,,株式会社,宮崎県,宮崎市,橘通東４丁目１番４号,,45,201,8800805,,,,,,,2023-01-11,1,,,,,ユニバーサルエージェンシー,0
2337,7360001031415,新規,0,2023-01-11,2023-01-11,石垣島水耕栽培研究所株式会社,,株式会社,沖縄県,石垣市,字宮良１１３番地１,,47,207,9070243,,,,,,,2023-01-11,1,,,,,イシガキジマスイコウサイバイケンキュウジョ,0
2339,7360005006768,新規,0,2023-01-11,2023-01-11,特定非営利活動法人フクシカケル,,その他の設立登記法人,沖縄県,那覇市,首里石嶺町４丁目２２４番地マルＫアパート２０２,,47,201,9030804,,,,,,,2023-01-11,1,,,,,フクシカケル,0
2343,7370001049456,新規,0,2023-01-11,2023-01-11,株式会社シェルフ,,株式会社,宮城県,仙台市宮城野区,原町３丁目７－１８,,04,102,9830841,,,,,,,2023-01-11,1,,,,,シェルフ,0
2344,7370001049472,新規,0,2023-01-11,2023-01-11,株式会社Ｇｒｏｏｖｅ　Ｉｎｖｅｓｔｍｅｎｔ,,株式会社,宮城県,仙台市青葉区,宮町３丁目２番２２号,,04,101,9800004,,,,,,,2023-01-11,1,,,,,グルーヴインベストメント,0
2352,7410001013358,新規,0,2023-01-11,2023-01-11,日健ファーム株式会社,,株式会社,秋田県,横手市,大森町上溝字船沢１９６番地,,05,203,0130552,,,,,,,2023-01-11,1,,,,,ニッケンファーム,0
2354,7420001018109,新規,0,2023-01-11,2023-01-11,株式会社まるたか屋,,株式会社,青森県,青森市,浪岡大字女鹿沢字平野５番地１３,,02,201,0381331,,,,,,,2023-01-11,1,,,,,マルタカヤ,0
2356,7430001088134,新規,0,2023-01-11,2023-01-11,株式会社ｅ‐ｎａｔ’ｓ,,株式会社,北海道,札幌市東区,東雁来町２９８番地２６６,,01,103,0070820,,,,,,,2023-01-11,1,,,,,イーナッツ,0
2357,7430001088142,新規,0,2023-01-11,2023-01-11,株式会社さの・かーふさぽーと,,株式会社,北海道,白老郡白老町,栄町２丁目１番４８号,,01,578,0590914,,,,,,,2023-01-11,1,,,,,サノカーフサポート,0
2358,7430001088159,新規,0,2023-01-11,2023-01-11,株式会社サンライズ,,株式会社,北海道,札幌市中央区,南四条東２丁目１２番地３,,01,101,0600054,,,,,,,2023-01-11,1,,,,,サンライズ,0
2359,7450001013882,新規,0,2023-01-11,2023-01-11,株式会社あきちゃんカンパニー,,株式会社,北海道,深川市,西町１０番１９号,,01,228,0740012,,,,,,,2023-01-11,1,,,,,アキチャンカンパニー,0
2360,7460003000936,新規,0,2023-01-11,2023-01-11,合同会社ともに釧路,,合同会社,北海道,釧路市,弥生２丁目１０番３号,,01,206,0850834,,,,,,,2023-01-11,1,,,,,トモニクシロ,0
2365,7470001019416,新規,0,2023-01-11,2023-01-11,株式会社エスコート・ランナー,,株式会社,香川県,綾歌郡綾川町,羽床下２３２番地１（５１８）,,37,387,7612308,,,,,,,2023-01-11,1,,,,,エスコートランナー,0
2378,7480001011974,新規,0,2023-01-11,2023-01-11,株式会社ＣＨＡＲＭＡＮＴ,,株式会社,徳島県,徳島市,山城西２丁目５７番地ＣｌａｓｓｅＹａｍａｓｈｉｒｏ１０３,,36,201,7708054,,,,,,,2023-01-11,1,,,,,シャルマン,0
2379,7480005006938,新規,0,2023-01-11,2023-01-11,一般社団法人吉野川スポーツクラブ,,その他の設立登記法人,徳島県,吉野川市,川島町桑村２３２１番地,,36,205,7793303,,,,,,,2023-01-11,1,,,,,ヨシノガワスポーツクラブ,0
2382,7500001024701,新規,0,2023-01-11,2023-01-11,株式会社増栄水産,,株式会社,愛媛県,宇和島市,遊子２９８１番地,,38,203,7980103,,,,,,,2023-01-11,1,,,,,マスエイスイサン,0
2392,8010001231965,新規,0,2023-01-11,2023-01-11,シーレックス・ファシリティーズ株式会社,,株式会社,東京都,千代田区,岩本町１丁目３番９号,,13,101,1010032,,,,,,,2023-01-11,1,,,,,シーレックスファシリティーズ,0
2397,8010005036097,新規,0,2023-01-11,2023-01-11,弁護士法人かがやき総合,,その他の設立登記法人,東京都,千代田区,内幸町２丁目２番１号日本プレスセンタービル６階,,13,101,1000011,,,,,,,2023-01-11,1,,,,,カガヤキソウゴウ,0
2403,8010401171695,新規,0,2023-01-11,2023-01-11,株式会社栄億,,株式会社,東京都,港区,南青山１丁目２６番１６号５Ｆ,,13,103,1070062,,,,,,,2023-01-11,1,,,,,ロンイー,0
2404,8010401171704,新規,0,2023-01-11,2023-01-11,株式会社セレン,,株式会社,東京都,港区,浜松町２丁目２番１５号浜松町ダイヤビル２Ｆ,,13,103,1050013,,,,,,,2023-01-11,1,,,,,セレン,0
2405,8010401171720,新規,0,2023-01-11,2023-01-11,株式会社ＬＡＭ,,株式会社,東京都,港区,新橋３丁目１１－８オーイズミ新橋第２ビル,,13,103,1050004,,,,,,,2023-01-11,1,,,,,エルエイエム,0
2406,8010401171729,新規,0,2023-01-11,2023-01-11,株式会社Ｃｌｏｕｄｆｌｅｅｋ,,株式会社,東京都,港区,赤坂８丁目４－１４青山タワープレイス８Ｆ,,13,103,1070052,,,,,,,2023-01-11,1,,,,,クラウドフリーク,0
2407,8010401171737,新規,0,2023-01-11,2023-01-11,日本遺伝子生命科学研究所株式会社,,株式会社,東京都,港区,芝浦１丁目６番４１－２１２４号,,13,103,1050023,,,,,,,2023-01-11,1,,,,,ニホンイデンシセイメイカガクケンキュウジョ,0
2410,8010403029256,新規,0,2023-01-11,2023-01-11,札幌北３条合同会社,,合同会社,東京都,港区,元赤坂１丁目１番８号株式会社赤坂国際会計内,,13,103,1070051,,,,,,,2023-01-11,1,,,,,サッポロキタサンジョウ,0
2411,8010403029272,新規,0,2023-01-11,2023-01-11,合同会社ＳＴＥＰＰＥＲＳ　ＳＴＡＴＥ,,合同会社,東京都,港区,南青山２丁目２番１５号,,13,103,1070062,,,,,,,2023-01-11,1,,,,,ステッパーズステイト,0
2418,8010601062397,新規,0,2023-01-11,2023-01-11,キラリアハイジーン株式会社,,株式会社,東京都,墨田区,文花２丁目１番３号,,13,107,1310044,,,,,,,2023-01-11,1,,,,,キラリアハイジーン,0
2419,8010701043710,新規,0,2023-01-11,2023-01-11,株式会社Ｒ,,株式会社,東京都,品川区,南品川３丁目６番６－８０１号,,13,109,1400004,,,,,,,2023-01-11,1,,,,,アール,0
2420,8010801033578,新規,0,2023-01-11,2023-01-11,株式会社Ｔｒｉｇｇｅｒ,,株式会社,東京都,大田区,大森西１丁目１９番１－４０２号,,13,111,1430015,,,,,,,2023-01-11,1,,,,,トリガー,0
2432,8011001151823,新規,0,2023-01-11,2023-01-11,宮崎アセットマネジメント株式会社,,株式会社,東京都,渋谷区,渋谷１丁目１－１０－１００３,,13,113,1500002,,,,,,,2023-01-11,1,,,,,ミヤザキアセットマネジメント,0
2433,8011001151889,新規,0,2023-01-11,2023-01-11,株式会社デジタル翻訳カンパニー,,株式会社,東京都,渋谷区,道玄坂１丁目１０番８号渋谷道玄坂東急ビル２Ｆ－Ｃ,,13,113,1500043,,,,,,,2023-01-11,1,,,,,デジタルホンヤクカンパニー,0
2439,8011101101397,新規,0,2023-01-11,2023-01-11,ＲＣＭプロパティ株式会社,,株式会社,東京都,新宿区,新宿６丁目２９－１１新宿イーストクロスタワー６Ｆ,,13,104,1600022,,,,,,,2023-01-11,1,,,,,アールシーエムプロパティ,0
2440,8011101101422,新規,0,2023-01-11,2023-01-11,株式会社ＬＩＶＩＤＡ,,株式会社,東京都,新宿区,新宿５丁目８番１４号新宿オービル５Ｆ,,13,104,1600022,,,,,,,2023-01-11,1,,,,,リヴィーダ,0
2443,8011301028366,新規,0,2023-01-11,2023-01-11,株式会社Ｄｉｏｓ,,株式会社,東京都,杉並区,和田１丁目１３－１１,,13,115,1660012,,,,,,,2023-01-11,1,,,,,ディオス,0
2445,8011401024819,新規,0,2023-01-11,2023-01-11,株式会社ワンスコート,,株式会社,東京都,板橋区,舟渡１丁目１８番８－１２４号,,13,119,1740041,,,,,,,2023-01-11,1,,,,,ワンスコート,0
2446,8011501028819,新規,0,2023-01-11,2023-01-11,株式会社ＫＹスタイル,,株式会社,東京都,北区,上中里２丁目３３番１０号,,13,117,1140016,,,,,,,2023-01-11,1,,,,,ケーワイスタイル,0
2447,8011701025938,新規,0,2023-01-11,2023-01-11,株式会社彩り,,株式会社,東京都,江戸川区,平井４丁目１３番１１－９０２号,,13,123,1320035,,,,,,,2023-01-11,1,,,,,イロドリ,0
2448,8011703003347,新規,0,2023-01-11,2023-01-11,合同会社ＧＬＣ,,合同会社,東京都,江戸川区,西葛西６丁目１６番７号,,13,123,1340088,,,,,,,2023-01-11,1,,,,,ジーエルシー,0
2449,8011703003355,新規,0,2023-01-11,2023-01-11,合同会社Ｇｅｎｃｏｎｅ,,合同会社,東京都,江戸川区,北小岩１丁目１２－５メゾンパーク北小岩６０３,,13,123,1330051,,,,,,,2023-01-11,1,,,,,ジェンコーネ,0
2450,8011801041760,新規,0,2023-01-11,2023-01-11,株式会社亀平設備,,株式会社,東京都,足立区,関原２丁目２番４号,,13,121,1230852,,,,,,,2023-01-11,1,,,,,カメヒラセツビ,0
2456,8012401040062,新規,0,2023-01-11,2023-01-11,株式会社ポンテック,,株式会社,東京都,府中市,美好町３丁目３３番地１４号リベルティ２、１０１号室,,13,206,1830045,,,,,,,2023-01-11,1,,,,,ポンテック,0
2458,8012403005765,新規,0,2023-01-11,2023-01-11,合同会社Ａｉｒｉｅ,,合同会社,東京都,多摩市,落合１丁目３６番地ザ・パークハウス多摩センター６０４号,,13,224,2060033,,,,,,,2023-01-11,1,,,,,アイリー,0
2459,8012801022057,新規,0,2023-01-11,2023-01-11,アーキフィールド株式会社,,株式会社,東京都,立川市,羽衣町２丁目４６番２１号,,13,202,1900021,,,,,,,2023-01-11,1,,,,,アーキフィールド,0
2460,8012801022065,新規,0,2023-01-11,2023-01-11,株式会社レミシンク,,株式会社,東京都,昭島市,玉川町１丁目８番１号,,13,207,1960034,,,,,,,2023-01-11,1,,,,,レミシンク,0
2466,8020001149653,新規,0,2023-01-11,2023-01-11,株式会社Ｂｌｕｅ　Ｂｕｌｌｅｔ,,株式会社,神奈川県,横浜市中区,上野町４丁目１４９番地２ローゼンガーテン２０１,,14,104,2310842,,,,,,,2023-01-11,1,,,,,ブルーバレット,0
2467,8020001149694,新規,0,2023-01-11,2023-01-11,株式会社おおえ企画,,株式会社,神奈川県,横浜市泉区,弥生台４７番地１５,,14,116,2450008,,,,,,,2023-01-11,1,,,,,オオエキカク,0
2468,8020001149703,新規,0,2023-01-11,2023-01-11,Ａ．Ｋマリン株式会社,,株式会社,神奈川県,横浜市保土ケ谷区,新井町４０８番地１－３０１,,14,106,2400053,,,,,,,2023-01-11,1,,,,,エーケーマリン,0
2471,8020003023039,新規,0,2023-01-11,2023-01-11,合同会社ｔｏｒｃｈ,,合同会社,神奈川県,川崎市高津区,上作延１１３２番地１－２０４,,14,134,2130034,,,,,,,2023-01-11,1,,,,,トーチ,0
2472,8020003023063,新規,0,2023-01-11,2023-01-11,合同会社ＭＡＴＳＵＰＬＡ,,合同会社,神奈川県,横浜市栄区,小菅ケ谷１丁目２８番６号レフィナード３０１,,14,115,2470007,,,,,,,2023-01-11,1,,,,,マツプラ,0
2474,8020005015802,新規,0,2023-01-11,2023-01-11,司法書士法人さとう事務所,,その他の設立登記法人,神奈川県,横浜市青葉区,美しが丘２丁目１番地２７第５正美ビル３０３,,14,117,2250002,,,,,,,2023-01-11,1,,,,,サトウジムショ,0
2480,8021001077869,新規,0,2023-01-11,2023-01-11,株式会社あおば札幌,,株式会社,神奈川県,鎌倉市,大船１丁目１１番２３号上木ビル５Ｆ,,14,204,2470056,,,,,,,2023-01-11,1,,,,,アオバサッポロ,0
2481,8021001077877,新規,0,2023-01-11,2023-01-11,株式会社平林建設,,株式会社,神奈川県,厚木市,山際３２６番地４,,14,212,2430803,,,,,,,2023-01-11,1,,,,,ヒラバヤシケンセツ,0
2482,8021001077885,新規,0,2023-01-11,2023-01-11,株式会社ＮＥＸＴ　Ｈｏｍｉｅ,,株式会社,神奈川県,小田原市,栄町２丁目１番２１号椎野ビル３階,,14,206,2500011,,,,,,,2023-01-11,1,,,,,ネクストホーミー,0
2483,8021001077893,新規,0,2023-01-11,2023-01-11,株式会社田中住建,,株式会社,神奈川県,高座郡寒川町,岡田２丁目１３番２２号益田店舗,,14,321,2530105,,,,,,,2023-01-11,1,,,,,タナカジュウケン,0
2484,8021003012568,新規,0,2023-01-11,2023-01-11,南葉Ｔ．Ｓ．合同会社,,合同会社,神奈川県,三浦郡葉山町,下山口１５６８番地の５,,14,301,2400116,,,,,,,2023-01-11,1,,,,,ナンヨウティーエス,0
2485,8021003012576,新規,0,2023-01-11,2023-01-11,合同会社Ｆｏｒ　Ｗｏｒｌｄ,,合同会社,神奈川県,相模原市南区,東林間４丁目１９番１－１０４号,,14,153,2520311,,,,,,,2023-01-11,1,,,,,フォーワールド,0
2492,8030001151749,新規,0,2023-01-11,2023-01-11,株式会社ジュバナ,,株式会社,埼玉県,川越市,大字笠幡２３１０番地１,,11,201,3501175,,,,,,,2023-01-11,1,,,,,ジュバナ,0
2493,8030001151757,新規,0,2023-01-11,2023-01-11,株式会社４１レーシング,,株式会社,埼玉県,越谷市,新越谷１丁目４０番地６,,11,222,3430857,,,,,,,2023-01-11,1,,,,,フォティーワンレーシング,0
2494,8030001151765,新規,0,2023-01-11,2023-01-11,株式会社医修館,,株式会社,埼玉県,鶴ヶ島市,大字上広谷３８２番地１－２０２号,,11,241,3502203,,,,,,,2023-01-11,1,,,,,イシュウカン,0
2495,8030001151773,新規,0,2023-01-11,2023-01-11,株式会社夢現,,株式会社,埼玉県,越谷市,大字袋山２５７番地１０,,11,222,3430032,,,,,,,2023-01-11,1,,,,,,0
2496,8030001151781,新規,0,2023-01-11,2023-01-11,株式会社ＭＳＣ,,株式会社,埼玉県,春日部市,豊町６丁目３番地２,,11,214,3440066,,,,,,,2023-01-11,1,,,,,エムエスシー,0
2497,8030001151807,新規,0,2023-01-11,2023-01-11,株式会社ｐａｉｎ　ｆｒｅｅ,,株式会社,埼玉県,久喜市,鷲宮４丁目１０－３６,,11,232,3400217,,,,,,,2023-01-11,1,,,,,ペインフリー,0
2498,8030001151815,新規,0,2023-01-11,2023-01-11,株式会社ＰＲＯＰＥＬＬＥＲ,,株式会社,埼玉県,さいたま市浦和区,北浦和１丁目１１－２－１０２,,11,107,3300074,,,,,,,2023-01-11,1,,,,,プロペラ,0
2499,8030001151831,新規,0,2023-01-11,2023-01-11,株式会社小林総建,,株式会社,埼玉県,草加市,谷塚上町６７４番地３,,11,221,3400024,,,,,,,2023-01-11,1,,,,,コバヤシソウケン,0
2500,8030001151906,新規,0,2023-01-11,2023-01-11,ＭＷ商事株式会社,,株式会社,埼玉県,川口市,西川口１丁目３０番２０－５階Ｆ,,11,203,3320021,,,,,,,2023-01-11,1,,,,,エムダブリューショウジ,0
2505,8030003020860,新規,0,2023-01-11,2023-01-11,ＣＲＡＺＹＤＯＧ合同会社,,合同会社,埼玉県,和光市,丸山台１丁目１１番１３号コーポ宮嶋２０１,,11,229,3510112,,,,,,,2023-01-11,1,,,,,クレイジードッグ,0
2506,8030003020877,新規,0,2023-01-11,2023-01-11,合同会社ＳＹＵＳＹＵ,,合同会社,埼玉県,戸田市,本町４丁目３番１１－２０２号,,11,224,3350023,,,,,,,2023-01-11,1,,,,,シュシュ,0
2507,8030003020902,新規,0,2023-01-11,2023-01-11,合同会社Ｒ．Ｙ．ＡＧＥＮＣＹ,,合同会社,埼玉県,飯能市,本町１９－４,,11,209,3570032,,,,,,,2023-01-11,1,,,,,アールワイエージェンシー,0
2508,8030005021106,新規,0,2023-01-11,2023-01-11,社会保険労務士法人カワタ事務所,,その他の設立登記法人,埼玉県,さいたま市浦和区,高砂２丁目４番３号内田ビル２Ｆ,,11,107,3300063,,,,,,,2023-01-11,1,,,,,カワタジムショ,0
2509,8040001126592,新規,0,2023-01-11,2023-01-11,株式会社ＥＭＯＲＥ,,株式会社,千葉県,千葉市花見川区,花園１丁目１０番２０号ブラン、ノワール２０１号,,12,102,2620025,,,,,,,2023-01-11,1,,,,,エモア,0
2514,8040003021577,新規,0,2023-01-11,2023-01-11,領希合同会社,,合同会社,千葉県,いすみ市,大原９５３１－２,,12,238,2980004,,,,,,,2023-01-11,1,,,,,リョウキ,0
2515,8040003021643,新規,0,2023-01-11,2023-01-11,合同会社ビレッジ・コンサル,,合同会社,千葉県,船橋市,西船２丁目１７番６号ルネサンスヴィラズフォート５０５,,12,204,2730031,,,,,,,2023-01-11,1,,,,,ビレッジコンサル,0
2516,8040003021651,新規,0,2023-01-11,2023-01-11,合同会社深山建築,,合同会社,千葉県,千葉市中央区,南生実町８３１番地１,,12,101,2600814,,,,,,,2023-01-11,1,,,,,ミヤマケンチク,0
2521,8050001052193,新規,0,2023-01-11,2023-01-11,株式会社あやとり,,株式会社,茨城県,下妻市,鬼怒１８２番地１１,,08,210,3040818,,,,,,,2023-01-11,1,,,,,アヤトリ,0
2522,8050001052202,新規,0,2023-01-11,2023-01-11,株式会社ＳＡＫＵＲＡ　Ｇｒｏｕｐ,,株式会社,茨城県,水戸市,五軒町３丁目１－１６オークタウンビル１Ｆ,,08,201,3100063,,,,,,,2023-01-11,1,,,,,サクラグループ,0
2525,8050003007138,新規,0,2023-01-11,2023-01-11,ルイサ合同会社,,合同会社,茨城県,古河市,水海２２５１番地３,,08,204,3060215,,,,,,,2023-01-11,1,,,,,ルイサ,0
2526,8050003007146,新規,0,2023-01-11,2023-01-11,Ｒｏｂｅｒｔｏ　Ｗｏｒｋｓ合同会社,,合同会社,茨城県,つくば市,谷田部１１７８番地２（陣場Ｇ２３街区３）,,08,220,3050861,,,,,,,2023-01-11,1,,,,,ロベルトワークス,0
2527,8060001035577,新規,0,2023-01-11,2023-01-11,株式会社Ｈｕｉｔ,,株式会社,栃木県,大田原市,大輪１８０７番地,,09,210,3240236,,,,,,,2023-01-11,1,,,,,ユイット,0
2528,8060001035593,新規,0,2023-01-11,2023-01-11,株式会社ヤブキ,,株式会社,栃木県,那須塩原市,三島５丁目１番地１３９,,09,213,3292752,,,,,,,2023-01-11,1,,,,,ヤブキ,0
2529,8070001039965,新規,0,2023-01-11,2023-01-11,株式会社山本商運,,株式会社,群馬県,太田市,大舘町１３２８番地３,,10,205,3700423,,,,,,,2023-01-11,1,,,,,ヤマモトショウウン,0
2530,8070001039973,新規,0,2023-01-11,2023-01-11,株式会社ＷＡＴＡＮＡＢＥ,,株式会社,群馬県,伊勢崎市,西久保町３丁目７２３番地６,,10,204,3792204,,,,,,,2023-01-11,1,,,,,ワタナベ,0
2531,8070001039998,新規,0,2023-01-11,2023-01-11,株式会社美助ライフ＆サポート,,株式会社,群馬県,邑楽郡大泉町,大字寄木戸９７７番地の１１,,10,524,3700535,,,,,,,2023-01-11,1,,,,,,0
2534,8080101023736,新規,0,2023-01-11,2023-01-11,中央工販株式会社,,株式会社,静岡県,沼津市,杉崎町２番１９号,,22,203,4100033,,,,,,,2023-01-11,1,,,,,チュウオウコウハン,0
2535,8080103002721,新規,0,2023-01-11,2023-01-11,合同会社エレックス,,合同会社,静岡県,沼津市,西島町２番１３号ビューフォート２０３,,22,203,4100835,,,,,,,2023-01-11,1,,,,,エレックス,0
2537,8080401026240,新規,0,2023-01-11,2023-01-11,株式会社ＨＣ,,株式会社,静岡県,浜松市東区,大島町６１０番地,,22,132,4313112,,,,,,,2023-01-11,1,,,,,エイチシー,0
2538,8090001017911,新規,0,2023-01-11,2023-01-11,株式会社フェイバー,,株式会社,山梨県,南アルプス市,藤田２３８５番地５,,19,208,4000334,,,,,,,2023-01-11,1,,,,,フェイバー,0
2546,8110001037238,新規,0,2023-01-11,2023-01-11,株式会社テンテコ,,株式会社,新潟県,新潟市中央区,八千代１丁目７番２０号,,15,103,9500909,,,,,,,2023-01-11,1,,,,,テンテコ,0
2548,8110003004954,新規,0,2023-01-11,2023-01-11,合同会社ＵＳＴ,,合同会社,新潟県,新潟市東区,東明２丁目５番地１マンション・アイビス４１１号,,15,102,9500853,,,,,,,2023-01-11,1,,,,,ユーエスティー,0
2560,8120001251531,新規,0,2023-01-11,2023-01-11,株式会社中崎塗装店,,株式会社,大阪府,門真市,島頭１丁目１番２５号,,27,223,5710016,,,,,,,2023-01-11,1,,,,,ナカザキトソウテン,0
2561,8120001251614,新規,0,2023-01-11,2023-01-11,ＣＨＥＣＫＩＮ株式会社,,株式会社,大阪府,大阪市中央区,南船場１丁目７番８－７０２号,,27,128,5420081,,,,,,,2023-01-11,1,,,,,チェックイン,0
2562,8120001251647,新規,0,2023-01-11,2023-01-11,株式会社アーチェス・ジャパン,,株式会社,大阪府,大阪市阿倍野区,帝塚山１丁目１９番１５号,,27,119,5450037,,,,,,,2023-01-11,1,,,,,アーチェスジャパン,0
2566,8120003023210,新規,0,2023-01-11,2023-01-11,エイチ・プラン・マネジメント合同会社,,合同会社,大阪府,寝屋川市,桜木町５番１号シバタビル２階東,,27,215,5720041,,,,,,,2023-01-11,1,,,,,エイチプランマネジメント,0
2569,8120101066788,新規,0,2023-01-11,2023-01-11,カーム・グリーン株式会社,,株式会社,大阪府,堺市中区,小阪西町３番４９号,,27,142,5998264,,,,,,,2023-01-11,1,,,,,カームグリーン,0
2570,8120101066805,新規,0,2023-01-11,2023-01-11,株式会社美渡里,,株式会社,大阪府,泉南郡熊取町,小谷南３丁目１３番８号,,27,361,5900435,,,,,,,2023-01-11,1,,,,,ミドリ,0
2579,8122001036573,新規,0,2023-01-11,2023-01-11,シマ空調株式会社,,株式会社,大阪府,八尾市,上之島町南５丁目１４番地の１６,,27,212,5810846,,,,,,,2023-01-11,1,,,,,シマクウチョウ,0
2582,8130001073405,新規,0,2023-01-11,2023-01-11,株式会社ＳＹＦホーム,,株式会社,京都府,京都市山科区,東野舞台町７番地４,,26,110,6078146,,,,,,,2023-01-11,1,,,,,エスワイエフホーム,0
2584,8130005016673,新規,0,2023-01-11,2023-01-11,税理士法人リライオン,,その他の設立登記法人,京都府,長岡京市,泉が丘６番地７,,26,209,6170846,,,,,,,2023-01-11,1,,,,,リライオン,0
2588,8140001128562,新規,0,2023-01-11,2023-01-11,瀛石商社株式会社,,株式会社,兵庫県,川西市,栄根１丁目７番１３号トサキビルＦ２,,28,217,6660021,,,,,,,2023-01-11,1,,,,,エイセキショウシャ,0
2589,8140001128604,新規,0,2023-01-11,2023-01-11,株式会社おかもと農園,,株式会社,兵庫県,姫路市,兼田５９５番地,,28,201,6728001,,,,,,,2023-01-11,1,,,,,オカモトノウエン,0
2590,8140001128620,新規,0,2023-01-11,2023-01-11,株式会社Ｐｅａ　Ｂｅｒｒｙ,,株式会社,兵庫県,加古川市,平岡町土山６０番地の２リベール土山Ｉ－３１１号,00129010,28,210,6750104,,,,,,,2023-01-11,1,,,,,ピーベリー,0
2591,8140001128645,新規,0,2023-01-11,2023-01-11,株式会社ライフ・リフォーム,,株式会社,兵庫県,尼崎市,武庫之荘８丁目１８－１５,,28,202,6610035,,,,,,,2023-01-11,1,,,,,ライフリフォーム,0
2592,8140001128653,新規,0,2023-01-11,2023-01-11,株式会社ＲＡＩＴＯ,,株式会社,兵庫県,神戸市中央区,北長狭通１丁目１０番６号ムーンライトビルＩＩ４Ｆ,00129011,28,110,6500012,,,,,,,2023-01-11,1,,,,,ライト,0
2593,8140001128678,新規,0,2023-01-11,2023-01-11,Ｋｎｏｗｌｅｄｇｅ　Ｂａｎｋ株式会社,,株式会社,兵庫県,明石市,二見町西二見３６１番地の２,,28,203,6740094,,,,,,,2023-01-11,1,,,,,ナレッジバンク,0
2596,8140003018547,新規,0,2023-01-11,2023-01-11,安田合同会社,,合同会社,兵庫県,神戸市中央区,海岸通３丁目１－１ＫＣＣビル４Ｆ,,28,110,6500024,,,,,,,2023-01-11,1,,,,,ヤスダ,0
2597,8140003018563,新規,0,2023-01-11,2023-01-11,マサナ合同会社,,合同会社,兵庫県,淡路市,生田畑７７１番地,,28,226,6561604,,,,,,,2023-01-11,1,,,,,マサナ,0
2618,8190001030086,新規,0,2023-01-11,2023-01-11,株式会社ＳＡＱＸｉＡ,,株式会社,三重県,鈴鹿市,郡山町２０６３－１２,,24,207,5100263,,,,,,,2023-01-11,1,,,,,サクシア,0
2619,8190003004187,新規,0,2023-01-11,2023-01-11,合同会社ＳＵＧＡＲ,,合同会社,三重県,桑名市,大字播磨６２５番地,,24,205,5110862,,,,,,,2023-01-11,1,,,,,シュガー,0
2621,8200001040843,新規,0,2023-01-11,2023-01-11,株式会社３ａｒｒｏｗｓ,,株式会社,岐阜県,岐阜市,北島９丁目９番１１号,,21,201,5020911,,,,,,,2023-01-11,1,,,,,スリーアローズ,0
2627,8220001025215,新規,0,2023-01-11,2023-01-11,Ｓｕｎ　ｌａｂｅｌ株式会社,,株式会社,石川県,金沢市,畝田東２丁目２３６番地,,17,201,9200344,,,,,,,2023-01-11,1,,,,,サンレーベル,0
2629,8220003003433,新規,0,2023-01-11,2023-01-11,合同会社Ｏｎｄｅ,,合同会社,石川県,金沢市,幸町２番２号金沢ビューシャトウ２階２０１号室,,17,201,9200968,,,,,,,2023-01-11,1,,,,,オンド,0
2634,8240001060929,新規,0,2023-01-11,2023-01-11,株式会社ＺＥＲＯ　ＰＯＩＮＴ,,株式会社,広島県,安芸郡府中町,青崎中７番２－１号,,34,302,7350016,,,,,,,2023-01-11,1,,,,,ゼロポイント,0
2635,8240001060945,新規,0,2023-01-11,2023-01-11,オリジンクリエイト株式会社,,株式会社,広島県,広島市安佐南区,大町東１丁目１１番１８号,,34,105,7310124,,,,,,,2023-01-11,1,,,,,オリジンクリエイト,0
2637,8250001019916,新規,0,2023-01-11,2023-01-11,株式会社ｂｅａｕｔｙ　ｈｅａｌｔｈ　ｐｈａｒｍａｃｙ　Ｌｉｅｎ,,株式会社,山口県,防府市,大字江泊１９２番地３９,,35,206,7470014,,,,,,,2023-01-11,1,,,,,ビューティーヘルスファーマシーエン,0
2647,8290001100052,新規,0,2023-01-11,2023-01-11,株式会社キュン,,株式会社,福岡県,福岡市東区,香椎駅前１丁目２０番２８号,,40,131,8130013,,,,,,,2023-01-11,1,,,,,キュン,0
2648,8290001100102,新規,0,2023-01-11,2023-01-11,株式会社まとばフォレスト動物病院,,株式会社,福岡県,福岡市南区,的場２丁目１２番８号,,40,134,8111314,,,,,,,2023-01-11,1,,,,,マトバフォレストドウブツビョウイン,0
2649,8290001100127,新規,0,2023-01-11,2023-01-11,株式会社ｓｉｇｈ,,株式会社,福岡県,福岡市中央区,港１丁目４番６－１３０１号,,40,133,8100075,,,,,,,2023-01-11,1,,,,,サイ,0
2650,8290001100135,新規,0,2023-01-11,2023-01-11,株式会社ｅ‐ｃｒａｆｔ,,株式会社,福岡県,糟屋郡須惠町,大字須恵１３２番地１７,,40,344,8112100,,,,,,,2023-01-11,1,,,,,イークラフト,0
2656,8290003013401,新規,0,2023-01-11,2023-01-11,ＬＩＮＯＸＩＡ合同会社,,合同会社,福岡県,糟屋郡須惠町,大字佐谷１４１６番地４高木ハイツ１０３号,,40,344,8112115,,,,,,,2023-01-11,1,,,,,リノシア,0
2660,8290005018910,新規,0,2023-01-11,2023-01-11,一般社団法人ほうせつ,,その他の設立登記法人,福岡県,福岡市早良区,西新６丁目１０番１０－１０３号,,40,137,8140002,,,,,,,2023-01-11,1,,,,,ホウセツ,0
2661,8290801029202,新規,0,2023-01-11,2023-01-11,島袋土建株式会社,,株式会社,福岡県,北九州市小倉北区,熊谷２丁目２８番２８号（サンリマーレ１０２）,,40,106,8030864,,,,,,,2023-01-11,1,,,,,シマブクロドケン,0
2662,8290803004302,新規,0,2023-01-11,2023-01-11,合同会社ファイナンシャルＦｒｅｅｄｏｍ,,合同会社,福岡県,北九州市若松区,高須北１丁目１３番２５号,,40,103,8080147,,,,,,,2023-01-11,1,,,,,ファイナンシャルフリーダム,0
2664,8310001018218,新規,0,2023-01-11,2023-01-11,株式会社ファレス,,株式会社,長崎県,長崎市,蚊焼町２２１６番地７,,42,201,8510401,,,,,,,2023-01-11,1,,,,,ファレス,0
2665,8320001019504,新規,0,2023-01-11,2023-01-11,株式会社桜建Ｇｒｏｕｐ,,株式会社,大分県,杵築市,大字杵築６６５番地６２３シーサイドタウンＳＥＮ　Ｉ棟２０１,00128996,44,210,8730001,,,,,,,2023-01-11,1,,,,,オウケングループ,0
2670,8340003004015,新規,0,2023-01-11,2023-01-11,合同会社Ｌｅ’Ｇ,,合同会社,鹿児島県,霧島市,隼人町内４５４番地,,46,218,8995116,,,,,,,2023-01-11,1,,,,,レッグ,0
2673,8360001031406,新規,0,2023-01-11,2023-01-11,株式会社ＴＨＥ　ＦＡＳＨＩＯＮ,,株式会社,沖縄県,国頭郡国頭村,字辺土名２１４０番地６,,47,301,9051411,,,,,,,2023-01-11,1,,,,,ザファッション,0
2675,8370001049471,新規,0,2023-01-11,2023-01-11,株式会社Ｄａｙｓコンサルティング,,株式会社,宮城県,仙台市青葉区,本町１丁目５番２８号カーニープレイス仙台駅前通６０３号室,,04,101,9800014,,,,,,,2023-01-11,1,,,,,デイズコンサルティング,0
2676,8380001033367,新規,0,2023-01-11,2023-01-11,会津葵防災株式会社,,株式会社,福島県,会津若松市,城東町１３番８号城下町ビル１階,,07,202,9650807,,,,,,,2023-01-11,1,,,,,アイヅアオイボウサイ,0
2677,8380001033383,新規,0,2023-01-11,2023-01-11,株式会社白岩商事,,株式会社,福島県,西白河郡西郷村,大字羽太字原田２２番地,,07,461,9618001,,,,,,,2023-01-11,1,,,,,シライワショウジ,0
2678,8380003005356,新規,0,2023-01-11,2023-01-11,合同会社樹,,合同会社,福島県,いわき市,泉町滝尻字前坪４６番地の２,,07,204,9718182,,,,,,,2023-01-11,1,,,,,イツキ,0
2695,8410001013365,新規,0,2023-01-11,2023-01-11,株式会社マツヤマ,,株式会社,秋田県,大館市,釈迦内字稲荷山下１２７番地１０,00128994,05,204,0170012,,,,,,,2023-01-11,1,,,,,マツヤマ,0
2696,8420001018116,新規,0,2023-01-11,2023-01-11,株式会社ＡＮＤＥＮ,,株式会社,青森県,八戸市,大字鮫町字金屎４５番地９９,,02,203,0310841,,,,,,,2023-01-11,1,,,,,アンデン,0
2697,8420003002646,新規,0,2023-01-11,2023-01-11,合同会社ノヴェレッテ,,合同会社,青森県,青森市,中佃２丁目９番３号,,02,201,0300963,,,,,,,2023-01-11,1,,,,,ノヴェレッテ,0
2699,8430001088166,新規,0,2023-01-11,2023-01-11,澤田工業株式会社,,株式会社,北海道,札幌市東区,東雁来九条２丁目６番１５号,,01,103,0070829,,,,,,,2023-01-11,1,,,,,サワダコウギョウ,0
2700,8430001088174,新規,0,2023-01-11,2023-01-11,ＪＳ株式会社,,株式会社,北海道,札幌市中央区,南八条西１０丁目１２７７番地３６－２０７号室,,01,101,0640808,,,,,,,2023-01-11,1,,,,,ジェイエス,0
2704,8450001013873,新規,0,2023-01-11,2023-01-11,株式会社フジ・ファーム,,株式会社,北海道,雨竜郡妹背牛町,字妹背牛６５６２番地,,01,433,0790500,,,,,,,2023-01-11,1,,,,,フジファーム,0
2705,8450001013881,新規,0,2023-01-11,2023-01-11,株式会社赤川ファーム,,株式会社,北海道,深川市,一已町字一已７６７６番地２,,01,228,0740028,,,,,,,2023-01-11,1,,,,,アカガワファーム,0
2716,8470003002328,新規,0,2023-01-11,2023-01-11,合同会社エール,,合同会社,香川県,高松市,太田上町２４７番地１－２－６０４,,37,201,7618074,,,,,,,2023-01-11,1,,,,,エール,0
2717,8500001024700,新規,0,2023-01-11,2023-01-11,株式会社谷口塗装工業,,株式会社,愛媛県,今治市,祇園町３丁目２番２８号,00129000,38,202,7940804,,,,,,,2023-01-11,1,,,,,タニグチトソウコウギョウ,0
2718,8500001024709,新規,0,2023-01-11,2023-01-11,株式会社ＷＩＴＨ　ＧＲＯＷ,,株式会社,愛媛県,松山市,枝松６丁目５番２５号,,38,201,7900962,,,,,,,2023-01-11,1,,,,,ウィズグロー,0
2723,9010001231997,新規,0,2023-01-11,2023-01-11,株式会社スーパーポジション,,株式会社,東京都,中央区,新川１丁目２２番６－８０２号,,13,102,1040033,,,,,,,2023-01-11,1,,,,,スーパーポジション,0
2724,9010001232104,新規,0,2023-01-11,2023-01-11,株式会社シンセス,,株式会社,東京都,千代田区,神田和泉町一丁目６番１６号ヤマトビル４０５,,13,101,1010024,,,,,,,2023-01-11,1,,,,,シンセス,0
2725,9010001232145,新規,0,2023-01-11,2023-01-11,株式会社Ｌｅｍｏｎ　Ｇａｒｄｅｎ,,株式会社,東京都,中央区,湊２丁目１５番１４－１１１２号,,13,102,1040043,,,,,,,2023-01-11,1,,,,,レモンガーデン,0
2726,9010003039530,新規,0,2023-01-11,2023-01-11,合同会社未来承継,,合同会社,東京都,千代田区,麹町１丁目６番地９,,13,101,1020083,,,,,,,2023-01-11,1,,,,,ミライショウケイ,0
2727,9010003039547,新規,0,2023-01-11,2023-01-11,ＴＦＳ合同会社,,合同会社,東京都,中央区,日本橋浜町３丁目２番７号,,13,102,1030007,,,,,,,2023-01-11,1,,,,,ティーエフエス,0
2728,9010005036071,新規,0,2023-01-11,2023-01-11,ＱＵＡＬＩＡ税理士法人,,その他の設立登記法人,東京都,文京区,白山１丁目１３番７号アクア白山ビル７Ｆ－１５,,13,105,1130001,,,,,,,2023-01-11,1,,,,,クオリア,0
2729,9010101015474,新規,0,2023-01-11,2023-01-11,株式会社住建,,株式会社,東京都,八王子市,小宮町７８２番地８,,13,201,1920031,,,,,,,2023-01-11,1,,,,,スミケン,0
2734,9010401171728,新規,0,2023-01-11,2023-01-11,株式会社ｉＣｕｒａｔｅ,,株式会社,東京都,港区,港南３丁目５番１０－２９０２,,13,103,1080075,,,,,,,2023-01-11,1,,,,,アイキュレート,0
2735,9010401171752,新規,0,2023-01-11,2023-01-11,株式会社ｆｌｏｏｒ’ｓ　ｙｏｕｒｓ,,株式会社,東京都,港区,南青山６丁目２番２－３０４号南青山ホームズ,,13,103,1070062,,,,,,,2023-01-11,1,,,,,フロアーズユアーズ,0
2738,9010403029239,新規,0,2023-01-11,2023-01-11,ｃｌｕｇｕｅ合同会社,,合同会社,東京都,港区,東麻布１丁目１３番１号,,13,103,1060044,,,,,,,2023-01-11,1,,,,,クルーグ,0
2739,9010403029247,新規,0,2023-01-11,2023-01-11,合同会社ＨＡＭ,,合同会社,東京都,港区,元麻布１丁目３番１－２４０４号,,13,103,1060046,,,,,,,2023-01-11,1,,,,,エイチエイエム,0
2740,9010403029263,新規,0,2023-01-11,2023-01-11,Ｋｚｅｍｏｓ　Ｊａｐａｎ合同会社,,合同会社,東京都,港区,西新橋１丁目１番１号日比谷フォートタワー１０階,,13,103,1050003,,,,,,,2023-01-11,1,,,,,ケゼモスジャパン,0
2743,9010405021722,新規,0,2023-01-11,2023-01-11,弁護士法人法律事務所ａｍａｎｅｋｕ,,その他の設立登記法人,東京都,港区,海岸３丁目２番３号３０２号室,,13,103,1080022,,,,,,,2023-01-11,1,,,,,ホウリツジムショアマネク,0
2745,9010501049832,新規,0,2023-01-11,2023-01-11,株式会社Ｉｒｉｙａ　Ｓｙｓｔｅｍ　ｗｏｒｋｓ,,株式会社,東京都,台東区,入谷１丁目１４番７号,,13,106,1100013,,,,,,,2023-01-11,1,,,,,イリヤシステムワークス,0
2746,9010501049840,新規,0,2023-01-11,2023-01-11,株式会社Ｄｉｃａ,,株式会社,東京都,台東区,浅草３丁目３８番７号,,13,106,1110032,,,,,,,2023-01-11,1,,,,,ダイカ,0
2748,9010601062405,新規,0,2023-01-11,2023-01-11,株式会社ＹＯＵＲＤＥＬＴ,,株式会社,東京都,江東区,東陽３丁目２４－１８ＴＯＭビル２Ｆ,,13,108,1350016,,,,,,,2023-01-11,1,,,,,ユアデルト,0
2749,9010601062421,新規,0,2023-01-11,2023-01-11,株式会社タニーク,,株式会社,東京都,江東区,枝川２丁目１番１号,,13,108,1350051,,,,,,,2023-01-11,1,,,,,タニーク,0
2752,9010901052270,新規,0,2023-01-11,2023-01-11,株式会社ラビットラン,,株式会社,東京都,世田谷区,松原３丁目２０番４号１０１,,13,112,1560043,,,,,,,2023-01-11,1,,,,,ラビットラン,0
2764,9011001151707,新規,0,2023-01-11,2023-01-11,株式会社ベルモット,,株式会社,東京都,目黒区,八雲３丁目９番１９号,,13,110,1520023,,,,,,,2023-01-11,1,,,,,ベルモット,0
2765,9011001151806,新規,0,2023-01-11,2023-01-11,株式会社ＭＥＳｈｉ,,株式会社,東京都,目黒区,上目黒３丁目３４番１号第２上目黒シティハウス３,,13,110,1530051,,,,,,,2023-01-11,1,,,,,メシ,0
2766,9011001151822,新規,0,2023-01-11,2023-01-11,株式会社Ｐａｖｅ　Ｕｐ,,株式会社,東京都,渋谷区,渋谷２丁目１９－１５宮益坂ビルディング６０９,,13,113,1500002,,,,,,,2023-01-11,1,,,,,ペイブアップ,0
2767,9011001151863,新規,0,2023-01-11,2023-01-11,ディープアンドグレイス株式会社,,株式会社,東京都,渋谷区,代官山町６番８号,,13,113,1500034,,,,,,,2023-01-11,1,,,,,ディープアンドグレイス,0
2768,9011001151905,新規,0,2023-01-11,2023-01-11,株式会社コアバリュー,,株式会社,東京都,渋谷区,渋谷２丁目１９番１５号宮益坂ビルディング６０９,,13,113,1500002,,,,,,,2023-01-11,1,,,,,コアバリュー,0
2769,9011005009901,新規,0,2023-01-11,2023-01-11,夏の川企画一般社団法人,,その他の設立登記法人,東京都,渋谷区,松濤２丁目１番１５号,,13,113,1500046,,,,,,,2023-01-11,1,,,,,ナツノカワキカク,0
2773,9011101101396,新規,0,2023-01-11,2023-01-11,株式会社ＩＳＨ,,株式会社,東京都,新宿区,中落合４丁目２４番２１号,,13,104,1610032,,,,,,,2023-01-11,1,,,,,アイエスエイチ,0
2778,9011103012559,新規,0,2023-01-11,2023-01-11,合同会社楽梗,,合同会社,東京都,新宿区,榎町３４－３榎町ビル７階－２室,,13,104,1620806,,,,,,,2023-01-11,1,,,,,ラクコウ,0
2779,9011103012567,新規,0,2023-01-11,2023-01-11,Ｕｐｓｉｄｅ　Ｃｒｙｐｔｏ　Ｒｅｓｅａｒｃｈ合同会社,,合同会社,東京都,新宿区,西新宿７丁目２番６号西新宿Ｋ－１ビル３階,,13,104,1600023,,,,,,,2023-01-11,1,,,,,アップサイドクリプトリサーチ,0
2780,9011103012575,新規,0,2023-01-11,2023-01-11,Ｍｉｉ合同会社,,合同会社,東京都,新宿区,大久保３丁目７番３３－８０６号,,13,104,1690072,,,,,,,2023-01-11,1,,,,,ミイ,0
2781,9011105010511,新規,0,2023-01-11,2023-01-11,シグマライズ社会保険労務士法人,,その他の設立登記法人,東京都,新宿区,若松町３５－１５第一村田ビル２０１号室,,13,104,1620056,,,,,,,2023-01-11,1,,,,,シグマライズ,0
2783,9011401024818,新規,0,2023-01-11,2023-01-11,株式会社ＢｒｏＣｒｅａｔｉｏｎ,,株式会社,東京都,板橋区,板橋１丁目４１番１２号ビュール板橋２０１,,13,119,1730004,,,,,,,2023-01-11,1,,,,,ブロクリエーション,0
2792,9012301013274,新規,0,2023-01-11,2023-01-11,株式会社マイアカ,,株式会社,東京都,町田市,玉川学園２丁目７番１０号Ｔ－ＦＬＡＴＳ２０１,,13,209,1940041,,,,,,,2023-01-11,1,,,,,マイアカ,0
2793,9012303001772,新規,0,2023-01-11,2023-01-11,合同会社Ｄｏ　Ｐｌａｎ,,合同会社,東京都,町田市,南大谷７０５番地６ユニヴェルシオール学園の丘２４５,,13,209,1940031,,,,,,,2023-01-11,1,,,,,ドゥプラン,0
2799,9012403005772,新規,0,2023-01-11,2023-01-11,合同会社Ｆ,,合同会社,東京都,府中市,寿町１丁目８－１０府中チェリー４０１,,13,206,1830056,,,,,,,2023-01-11,1,,,,,エフ,0
2800,9012405004822,新規,0,2023-01-11,2023-01-11,税理士法人谷合会計,,その他の設立登記法人,東京都,府中市,宮西町２丁目４番地の３アイスバーグビル４Ｆ,,13,206,1830022,,,,,,,2023-01-11,1,,,,,タニアイカイケイ,0
2803,9012705002336,新規,0,2023-01-11,2023-01-11,一般社団法人コドモインタレスト,,その他の設立登記法人,東京都,小平市,小川町１丁目９３０番地の８,,13,211,1870032,,,,,,,2023-01-11,1,,,,,コドモインタレスト,0
2804,9012801022072,新規,0,2023-01-11,2023-01-11,株式会社東和鑑定所,,株式会社,東京都,東大和市,桜が丘１丁目１４４９番地の６２,,13,220,2070022,,,,,,,2023-01-11,1,,,,,トウワカンテイジョ,0
2814,9020001149561,新規,0,2023-01-11,2023-01-11,株式会社Ｌｏｔｕｓ　Ｗｏｒｋ,,株式会社,神奈川県,川崎市高津区,千年３６７番地１２,,14,134,2130022,,,,,,,2023-01-11,1,,,,,ロータスワーク,0
2815,9020001149628,新規,0,2023-01-11,2023-01-11,株式会社マーキュリー,,株式会社,神奈川県,横浜市鶴見区,生麦３丁目８番９号,,14,101,2300052,,,,,,,2023-01-11,1,,,,,マーキュリー,0
2816,9020001149652,新規,0,2023-01-11,2023-01-11,零株式会社,,株式会社,神奈川県,横浜市保土ケ谷区,西久保町３０番地９,,14,106,2400022,,,,,,,2023-01-11,1,,,,,レイ,0
2817,9020001149693,新規,0,2023-01-11,2023-01-11,株式会社ＸＳＴＲＩＤＥ,,株式会社,神奈川県,横浜市鶴見区,上の宮２丁目２１番１４号,,14,101,2300075,,,,,,,2023-01-11,1,,,,,エクストライド,0
2818,9020001149792,新規,0,2023-01-11,2023-01-11,ＷＥ　ＬＩＮＥ株式会社,,株式会社,神奈川県,横浜市青葉区,大場町１１４番地２２,,14,117,2250023,,,,,,,2023-01-11,1,,,,,ウィーライン,0
2824,9020003023046,新規,0,2023-01-11,2023-01-11,合同会社ｋｅｙｓ,,合同会社,神奈川県,川崎市宮前区,野川本町１丁目２６－４３,,14,136,2160041,,,,,,,2023-01-11,1,,,,,キーズ,0
2826,9021001077835,新規,0,2023-01-11,2023-01-11,株式会社ケイティ,,株式会社,神奈川県,綾瀬市,上土棚中２丁目１４番３５号,,14,218,2521113,,,,,,,2023-01-11,1,,,,,ケイティ,0
2827,9021001077868,新規,0,2023-01-11,2023-01-11,株式会社あおば東海,,株式会社,神奈川県,鎌倉市,大船１丁目１１番２３号上木ビル５Ｆ,,14,204,2470056,,,,,,,2023-01-11,1,,,,,アオバトウカイ,0
2828,9021001077876,新規,0,2023-01-11,2023-01-11,株式会社ＯＫＩ,,株式会社,神奈川県,大和市,深見３３４２番地,,14,213,2420011,,,,,,,2023-01-11,1,,,,,オキ,0
2829,9021001077884,新規,0,2023-01-11,2023-01-11,株式会社三共技研サービス,,株式会社,神奈川県,相模原市南区,相武台１丁目１１番１４号,,14,153,2520324,,,,,,,2023-01-11,1,,,,,サンキョウギケンサービス,0
2832,9021003012575,新規,0,2023-01-11,2023-01-11,シーエヌアイ・アイティ・アドバイザリ合同会社,,合同会社,神奈川県,藤沢市,辻堂新町３丁目２番３２－７０２号,,14,205,2510042,,,,,,,2023-01-11,1,,,,,シーエヌアイアイティアドバイザリ,0
2844,9030001151756,新規,0,2023-01-11,2023-01-11,スイストラベルコンサルタンツ株式会社,,株式会社,埼玉県,富士見市,鶴瀬西３丁目３７３１番地５５,,11,235,3540026,,,,,,,2023-01-11,1,,,,,スイストラベルコンサルタンツ,0
2845,9030001151764,新規,0,2023-01-11,2023-01-11,株式会社みらい企画,,株式会社,埼玉県,川越市,大字小ケ谷７９番地８,,11,201,3501104,,,,,,,2023-01-11,1,,,,,ミライキカク,0
2846,9030001151772,新規,0,2023-01-11,2023-01-11,株式会社Ｒｉｒｉ,,株式会社,埼玉県,新座市,東北２丁目２９番６号ボディメイクサロンＲｉｒｉ,,11,230,3520001,,,,,,,2023-01-11,1,,,,,リリ,0
2847,9030001151780,新規,0,2023-01-11,2023-01-11,株式会社ＭＫＳ,,株式会社,埼玉県,所沢市,北原町１３４６番地の１セザール所沢航空公園３０６,,11,208,3590004,,,,,,,2023-01-11,1,,,,,エムケーエス,0
2848,9030001151789,新規,0,2023-01-11,2023-01-11,株式会社Ｂｅマネジメント,,株式会社,埼玉県,さいたま市見沼区,大字南中野４４番地１,,11,104,3370042,,,,,,,2023-01-11,1,,,,,ビーマネジメント,0
2849,9030001151797,新規,0,2023-01-11,2023-01-11,株式会社鎌拳工業,,株式会社,埼玉県,越谷市,大字野島２４,,11,222,3430801,,,,,,,2023-01-11,1,,,,,カマケンコウギョウ,0
2850,9030001151806,新規,0,2023-01-11,2023-01-11,井上通信株式会社,,株式会社,埼玉県,所沢市,大字荒幡１８１番地の５,,11,208,3591133,,,,,,,2023-01-11,1,,,,,イノウエツウシン,0
2851,9030001151814,新規,0,2023-01-11,2023-01-11,株式会社ＭＣＣ‐ＨＯＬＤＩＮＧＳ,,株式会社,埼玉県,熊谷市,佐谷田１００１番地２,,11,202,3600023,,,,,,,2023-01-11,1,,,,,エムシーシーホールディングス,0
2852,9030001151822,新規,0,2023-01-11,2023-01-11,株式会社ＧＩＦＴ,,株式会社,埼玉県,川越市,脇田町１７番地２０,,11,201,3501122,,,,,,,2023-01-11,1,,,,,ギフト,0
2853,9030001151839,新規,0,2023-01-11,2023-01-11,ユニサ株式会社,,株式会社,埼玉県,川口市,青木２丁目３番２６号川口第２ローヤルコーポ３０４号,,11,203,3320031,,,,,,,2023-01-11,1,,,,,ユニサ,0
2857,9030003020892,新規,0,2023-01-11,2023-01-11,スミシステム合同会社,,合同会社,埼玉県,加須市,旗井２０６番地２,,11,210,3491132,,,,,,,2023-01-11,1,,,,,スミシステム,0
2863,9040001126534,新規,0,2023-01-11,2023-01-11,株式会社ＥＣグロース,,株式会社,千葉県,佐倉市,井野１５８６番地２５Ａ棟１０９号,,12,212,2850855,,,,,,,2023-01-11,1,,,,,,0
2864,9040001126550,新規,0,2023-01-11,2023-01-11,ＮＩＳＨＯ　ＩＮＴＥＲＮＡＴＩＯＮＡＬ　ＪＡＰＡＮ株式会社,,株式会社,千葉県,山武郡横芝光町,新井６６４番地,,12,410,2891707,,,,,,,2023-01-11,1,,,,,ニショーインターナショナルジャパン,0
2865,9040001126559,新規,0,2023-01-11,2023-01-11,株式会社ゆしのけデザイン,,株式会社,千葉県,袖ケ浦市,のぞみ野２６番地９,,12,229,2990251,,,,,,,2023-01-11,1,,,,,ユシノケデザイン,0
2866,9040001126583,新規,0,2023-01-11,2023-01-11,株式会社ジャパン不動産,,株式会社,千葉県,茂原市,七渡３４４５－４,,12,210,2970001,,,,,,,2023-01-11,1,,,,,ジャパンフドウサン,0
2867,9040003021618,新規,0,2023-01-11,2023-01-11,ＡＧコーポレーション合同会社,,合同会社,千葉県,市原市,五井東１丁目１３番地７,,12,219,2900055,,,,,,,2023-01-11,1,,,,,エージーコーポレーション,0
2868,9040003021634,新規,0,2023-01-11,2023-01-11,ＷＥＳＴＥＮＤＯＲＦ　ＥＮＧＩＮＥＥＲＩＮＧ合同会社,,合同会社,千葉県,いすみ市,岬町榎沢６５２番地１,,12,238,2994508,,,,,,,2023-01-11,1,,,,,ヴェステンドルフエンジニアリング,0
2870,9050001052184,新規,0,2023-01-11,2023-01-11,株式会社ＴＲＳＴ,,株式会社,茨城県,つくば市,下大島７４７番地,,08,220,3004222,,,,,,,2023-01-11,1,,,,,トラスト,0
2871,9050001052201,新規,0,2023-01-11,2023-01-11,株式会社喜絡堂,,株式会社,茨城県,つくば市,倉掛８２８番地４,,08,220,3050024,,,,,,,2023-01-11,1,,,,,キラクドウ,0
2874,9050003007129,新規,0,2023-01-11,2023-01-11,ＴＳＫ合同会社,,合同会社,茨城県,稲敷市,伊佐部１７９３番地,,08,229,3000603,,,,,,,2023-01-11,1,,,,,ティーエスケー,0
2875,9050005013190,新規,0,2023-01-11,2023-01-11,一般社団法人茨城生活サポート,,その他の設立登記法人,茨城県,鉾田市,串挽１０８０番地１０,,08,234,3111523,,,,,,,2023-01-11,1,,,,,イバラキセイカツサポート,0
2879,9060003004372,新規,0,2023-01-11,2023-01-11,合同会社ＺＥＮＲＹＯＫＵ,,合同会社,栃木県,宇都宮市,戸祭町２２２９番地,,09,201,3200053,,,,,,,2023-01-11,1,,,,,ゼンリョク,0
2881,9070001039997,新規,0,2023-01-11,2023-01-11,株式会社桐染,,株式会社,群馬県,桐生市,東５丁目１０番１８号,,10,203,3760034,,,,,,,2023-01-11,1,,,,,キリセン,0
2883,9070005010070,新規,0,2023-01-11,2023-01-11,税理士法人有田事務所,,その他の設立登記法人,群馬県,高崎市,八千代町３丁目６番３号,,10,202,3700861,,,,,,,2023-01-11,1,,,,,アリタジムショ,0
2884,9080001025369,新規,0,2023-01-11,2023-01-11,株式会社エムシェアリング,,株式会社,静岡県,焼津市,三ケ名９６１番地の８,,22,212,4250071,,,,,,,2023-01-11,1,,,,,エムシェアリング,0
2885,9080001025402,新規,0,2023-01-11,2023-01-11,株式会社ジャパンクリノベーション,,株式会社,静岡県,静岡市葵区,安倍口新田５１９番地の３,,22,101,4212114,,,,,,,2023-01-11,1,,,,,ジャパンクリノベーション,0
2886,9080005007504,新規,0,2023-01-11,2023-01-11,一般社団法人ままｏｎｅアカデミー,,その他の設立登記法人,静岡県,静岡市駿河区,中吉田４－１６－１サニーハイツ落合１０４,,22,102,4228001,,,,,,,2023-01-11,1,,,,,ママワンアカデミー,0
2894,9100003006835,新規,0,2023-01-11,2023-01-11,合同会社ｉＢｒｅｅｄ,,合同会社,長野県,伊那市,美原７４４８番地１９８,,20,209,3960113,,,,,,,2023-01-11,1,,,,,アイブリード,0
2896,9110001037212,新規,0,2023-01-11,2023-01-11,株式会社レガミｌｅｇａｍｅ,,株式会社,新潟県,妙高市,大字関山１４８４番地,,15,217,9492235,,,,,,,2023-01-11,1,,,,,レガミ,0
2897,9110001037220,新規,0,2023-01-11,2023-01-11,株式会社伊藤,,株式会社,新潟県,燕市,水道町３丁目１９番２１号,,15,213,9591262,,,,,,,2023-01-11,1,,,,,イトウ,0
2898,9110001037229,新規,0,2023-01-11,2023-01-11,てぷろ株式会社,,株式会社,新潟県,新潟市中央区,南多門町２３０９番地１第５ロイヤル礎４０５号,,15,103,9518047,,,,,,,2023-01-11,1,,,,,テプロ,0
2900,9110003004961,新規,0,2023-01-11,2023-01-11,合同会社Ｃａｕｓａ,,合同会社,新潟県,新潟市西区,五十嵐３の町西７番２４号,,15,107,9502174,,,,,,,2023-01-11,1,,,,,カウサ,0
2915,9120001251613,新規,0,2023-01-11,2023-01-11,株式会社西岡電気,,株式会社,大阪府,寝屋川市,池田本町２０番３２号,,27,215,5720030,,,,,,,2023-01-11,1,,,,,ニシオカデンキ,0
2916,9120001251621,新規,0,2023-01-11,2023-01-11,株式会社ポリゴン,,株式会社,大阪府,大阪市鶴見区,緑３丁目５番２７号,,27,124,5380054,,,,,,,2023-01-11,1,,,,,ポリゴン,0
2917,9120001251646,新規,0,2023-01-11,2023-01-11,株式会社プランメンタルライフジャンプ,,株式会社,大阪府,大阪市北区,梅田１丁目１番３号大阪駅前第３ビル２９階１－１－１号室,,27,127,5300001,,,,,,,2023-01-11,1,,,,,プランメンタルライフジャンプ,0
2918,9120001251687,新規,0,2023-01-11,2023-01-11,株式会社リグジット,,株式会社,大阪府,大阪市北区,長柄西１丁目３番２２号,,27,127,5310061,,,,,,,2023-01-11,1,,,,,リグジット,0
2919,9120001251695,新規,0,2023-01-11,2023-01-11,株式会社ＬＧ,,株式会社,大阪府,大阪市中央区,東心斎橋１丁目１１番１３号９階,,27,128,5420083,,,,,,,2023-01-11,1,,,,,エルジー,0
2928,9120101066762,新規,0,2023-01-11,2023-01-11,北大宅工務店株式会社,,株式会社,大阪府,河内長野市,高向１６９番地の２,,27,216,5860036,,,,,,,2023-01-11,1,,,,,キタオオヤコウムテン,0
2929,9120101066787,新規,0,2023-01-11,2023-01-11,株式会社藤井製作所,,株式会社,大阪府,羽曳野市,野７６番地の７,,27,222,5830884,,,,,,,2023-01-11,1,,,,,フジイセイサクショ,0
2930,9120101066795,新規,0,2023-01-11,2023-01-11,株式会社智建工,,株式会社,大阪府,岸和田市,三田町９７７番地,,27,202,5960808,,,,,,,2023-01-11,1,,,,,トモケンコウ,0
2931,9120103005009,新規,0,2023-01-11,2023-01-11,アニカ合同会社,,合同会社,大阪府,堺市中区,東八田２９番地１アーモンドアイ３０５号,,27,142,5998275,,,,,,,2023-01-11,1,,,,,アニカ,0
2935,9120901046971,新規,0,2023-01-11,2023-01-11,株式会社ｆｒｉｅｎｄ　ｃｏｕｎｔｒｙ,,株式会社,大阪府,吹田市,新芦屋下１５－１０－１５１１,00128995,27,205,5650803,,,,,,,2023-01-11,1,,,,,フレンドカントリー,0
2940,9130001073395,新規,0,2023-01-11,2023-01-11,ｗｏｎｄｅｒｉｎｇ株式会社,,株式会社,京都府,京都市下京区,四条通東洞院東入立売西町６６番地,,26,106,6008007,,,,,,,2023-01-11,1,,,,,ワンダリング,0
2943,9130003008416,新規,0,2023-01-11,2023-01-11,合同会社吉田瓦店,,合同会社,京都府,京都市北区,上賀茂本山２番地６５,,26,101,6038047,,,,,,,2023-01-11,1,,,,,ヨシダカワラテン,0
2944,9130003008424,新規,0,2023-01-11,2023-01-11,合同会社神原モータース,,合同会社,京都府,八幡市,八幡神原１０９番地１３,,26,210,6148087,,,,,,,2023-01-11,1,,,,,カミハラモータース,0
2947,9140001128594,新規,0,2023-01-11,2023-01-11,株式会社トーエン,,株式会社,兵庫県,姫路市,北条宮の町２５７番地キノシタビル２０２,,28,201,6700948,,,,,,,2023-01-11,1,,,,,トーエン,0
2948,9140001128628,新規,0,2023-01-11,2023-01-11,株式会社ＳＴＥＬＬＡ,,株式会社,兵庫県,西宮市,新甲陽町６－１０,,28,204,6620013,,,,,,,2023-01-11,1,,,,,ステラ,0
2949,9140001128636,新規,0,2023-01-11,2023-01-11,株式会社Ｋ．Ｍ技研,,株式会社,兵庫県,西宮市,樋之池町２０番１８－１号,,28,204,6620084,,,,,,,2023-01-11,1,,,,,ケイエムギケン,0
2950,9140001128644,新規,0,2023-01-11,2023-01-11,フロンティア株式会社,,株式会社,兵庫県,神戸市北区,八多町屏風９６５番地,,28,109,6511344,,,,,,,2023-01-11,1,,,,,フロンティア,0
2951,9140001128652,新規,0,2023-01-11,2023-01-11,万福来商事株式会社,,株式会社,兵庫県,神戸市中央区,元町通２丁目２番１号,,28,110,6500022,,,,,,,2023-01-11,1,,,,,マンプクライショウジ,0
2952,9140001128660,新規,0,2023-01-11,2023-01-11,株式会社ＲｅｖｏＣｏｍｉ,,株式会社,兵庫県,伊丹市,荒牧１丁目７番１１－２号,,28,207,6640001,,,,,,,2023-01-11,1,,,,,レボコミ,0
2958,9150001026070,新規,0,2023-01-11,2023-01-11,株式会社メリードッグ,,株式会社,奈良県,桜井市,大字高家８２７番地の２,,29,206,6330044,,,,,,,2023-01-11,1,,,,,メリードッグ,0
2960,9160003002779,新規,0,2023-01-11,2023-01-11,合同会社ケイオス,,合同会社,滋賀県,大津市,滋賀里２丁目４－６コーポフレグランス２０７,,25,201,5200006,,,,,,,2023-01-11,1,,,,,ケイオス,0
2967,9180005020067,新規,0,2023-01-11,2023-01-11,弁護士法人後藤・鈴木法律事務所,,その他の設立登記法人,愛知県,名古屋市中区,丸の内２丁目９番１４号丸の内服部ビル２０６号,,23,106,4600002,,,,,,,2023-01-11,1,,,,,ゴトウスズキホウリツジムショ,0
2970,9190001030069,新規,0,2023-01-11,2023-01-11,株式会社ユニバーサル３３,,株式会社,三重県,津市,河辺町３５０６番地４,,24,201,5140065,,,,,,,2023-01-11,1,,,,,ユニバーサルサンジュウサン,0
2978,9200001040842,新規,0,2023-01-11,2023-01-11,株式会社あんず,,株式会社,岐阜県,岐阜市,福光東１丁目７番５号,,21,201,5020813,,,,,,,2023-01-11,1,,,,,アンズ,0
2983,9220001025222,新規,0,2023-01-11,2023-01-11,ＡＭトレーディング株式会社,,株式会社,石川県,珠洲市,上戸町北方４字１７７番地３,,17,205,9271215,,,,,,,2023-01-11,1,,,,,エーエムトレーディング,0
2986,9220003003432,新規,0,2023-01-11,2023-01-11,合同会社ＭＡＲＥ　ＣＵＯＲＥ,,合同会社,石川県,小松市,寺町４８番地,,17,203,9230932,,,,,,,2023-01-11,1,,,,,マーレクオレ,0
2989,9240001060837,新規,0,2023-01-11,2023-01-11,株式会社ＡＲＴクリエイティブ,,株式会社,広島県,神石郡神石高原町,小畠１５５０番地,,34,545,7201522,,,,,,,2023-01-11,1,,,,,アートクリエイティブ,0
2992,9280003001686,新規,0,2023-01-11,2023-01-11,合同会社Ｍａｓａｙａｈ　ａｉｒ,,合同会社,島根県,松江市,西谷町１８５番地,,32,201,6900142,,,,,,,2023-01-11,1,,,,,マサヤーエア,0
2996,9290001100126,新規,0,2023-01-11,2023-01-11,株式会社ユーウィズ,,株式会社,福岡県,福岡市博多区,光丘町１丁目２番５号,,40,132,8120874,,,,,,,2023-01-11,1,,,,,ユーウィズ,0
2997,9290001100142,新規,0,2023-01-11,2023-01-11,株式会社野口建設,,株式会社,福岡県,小郡市,上西鯵坂２２９番地２１,00129007,40,216,8380136,,,,,,,2023-01-11,1,,,,,ノグチケンセツ,0
2998,9290001100159,新規,0,2023-01-11,2023-01-11,株式会社ＹＫ,,株式会社,福岡県,福岡市西区,今宿西１丁目３０番１３号,,40,135,8190169,,,,,,,2023-01-11,1,,,,,ワイケー,0
2999,9290001100175,新規,0,2023-01-11,2023-01-11,株式会社ＥＭＭＡ,,株式会社,福岡県,福津市,日蒔野３丁目１番１１３号,,40,224,8113209,,,,,,,2023-01-11,1,,,,,エマ,0
3006,9290003013359,新規,0,2023-01-11,2023-01-11,合同会社Ａｌｃ　ＯＮＥ,,合同会社,福岡県,福津市,中央６丁目１７番６－３０５号,,40,224,8113217,,,,,,,2023-01-11,1,,,,,アルクワン,0
3007,9290003013391,新規,0,2023-01-11,2023-01-11,合同会社ＮＯＳＵＫＥ,,合同会社,福岡県,福岡市早良区,高取２丁目３－２１レジデンス藤崎２０３,,40,137,8140011,,,,,,,2023-01-11,1,,,,,,0
3010,9290801029201,新規,0,2023-01-11,2023-01-11,株式会社ＫＥＹ,,株式会社,福岡県,北九州市小倉北区,霧ケ丘１丁目１３－８,,40,106,8020052,,,,,,,2023-01-11,1,,,,,キー,0
3011,9300001013185,新規,0,2023-01-11,2023-01-11,株式会社嘉建,,株式会社,佐賀県,唐津市,見借３５１０番地１,,41,202,8470825,,,,,,,2023-01-11,1,,,,,ヨシケン,0
3016,9320003003983,新規,0,2023-01-11,2023-01-11,合同会社ＪＴアカデミー,,合同会社,大分県,大分市,中鶴崎１丁目７番１８号船木ビル２Ｆ,,44,201,8700101,,,,,,,2023-01-11,1,,,,,ジェイティーアカデミー,0
3022,9350001018122,新規,0,2023-01-11,2023-01-11,株式会社ＤＡＲＵＭＡＤ,,株式会社,宮崎県,宮崎市,大字浮田２８８８番地３,,45,201,8802104,,,,,,,2023-01-11,1,,,,,ダルマッド,0
3023,9350001018130,新規,0,2023-01-11,2023-01-11,株式会社宮古不動産,,株式会社,宮崎県,宮崎市,花ケ島町三反田７０５番地６,,45,201,8800036,,,,,,,2023-01-11,1,,,,,ミヤコフドウサン,0
3024,9360001031388,新規,0,2023-01-11,2023-01-11,Ｏｋｉ　Ｂｌｕｅｓ株式会社,,株式会社,沖縄県,国頭郡恩納村,字真栄田９３２番地２,,47,311,9040417,,,,,,,2023-01-11,1,,,,,オキブルース,0
3026,9360003012634,新規,0,2023-01-11,2023-01-11,合同会社ＡＲＲＩＶＡＬ沖縄,,合同会社,沖縄県,那覇市,泊１丁目１５番１６号３Ｆ,,47,201,9000012,,,,,,,2023-01-11,1,,,,,アライバルオキナワ,0
3030,9370001049454,新規,0,2023-01-11,2023-01-11,株式会社ＧＵＬＵＴＴＯ,,株式会社,宮城県,大崎市,古川七日町１０－２,,04,215,9896153,,,,,,,2023-01-11,1,,,,,グルット,0
3031,9370001049470,新規,0,2023-01-11,2023-01-11,株式会社ＫＥＹＡＫＩ　ＣＯＦＦＥＥ,,株式会社,宮城県,仙台市若林区,なないろの里２丁目２７番地の１５,,04,103,9840017,,,,,,,2023-01-11,1,,,,,ケヤキコーヒー,0
3036,9380001033374,新規,0,2023-01-11,2023-01-11,株式会社ＳＷＥ　ｉｎｎｏｖａｔｉｏｎ,,株式会社,福島県,郡山市,横塚６丁目１番６号大東地所ビル２０２,,07,203,9638803,,,,,,,2023-01-11,1,,,,,エスダブルイーイノベーション,0
3039,9400001016120,新規,0,2023-01-11,2023-01-11,株式会社ＮＩＫＫＡ,,株式会社,岩手県,久慈市,十八日町２丁目１３番地１,,03,207,0280065,,,,,,,2023-01-11,1,,,,,ニッカ,0
3043,9410001013364,新規,0,2023-01-11,2023-01-11,株式会社菊谷ファーム,,株式会社,秋田県,横手市,平鹿町浅舞字野々助２３４番地,,05,203,0130105,,,,,,,2023-01-11,1,,,,,キクヤファーム,0
3044,9410003003735,新規,0,2023-01-11,2023-01-11,豊後ファーム合同会社,,合同会社,秋田県,大仙市,太田町斉内字豊後町１８３番地,,05,212,0191611,,,,,,,2023-01-11,1,,,,,ブンゴファーム,0
3045,9410003003743,新規,0,2023-01-11,2023-01-11,合同会社カーボランド,,合同会社,秋田県,男鹿市,脇本富永字大倉３０番地３,,05,206,0100344,,,,,,,2023-01-11,1,,,,,カーボランド,0
3048,9430001088140,新規,0,2023-01-11,2023-01-11,北海道ファーマライズ株式会社,,株式会社,北海道,札幌市中央区,大通東７丁目１２番４８号ノースシティーペンシルビル７階,,01,101,0600041,,,,,,,2023-01-11,1,,,,,ホッカイドウファーマライズ,0
3049,9430001088149,新規,0,2023-01-11,2023-01-11,株式会社空間さぽーと,,株式会社,北海道,札幌市中央区,南四条西１３丁目１番１１－２０６号,,01,101,0640804,,,,,,,2023-01-11,1,,,,,クウカンサポート,0
3050,9430001088173,新規,0,2023-01-11,2023-01-11,株式会社Ｃｌｅａｎヒーティング,,株式会社,北海道,江別市,大麻北町５２３番地の７２,,01,217,0690861,,,,,,,2023-01-11,1,,,,,クリーンヒーティング,0
3053,9430005014621,新規,0,2023-01-11,2023-01-11,一般社団法人ｈｕｇ　ｃａｆｅ　ｃｌｕｂ,,その他の設立登記法人,北海道,札幌市西区,西町北９丁目１－１９ソールズベリー１階,,01,107,0630061,,,,,,,2023-01-11,1,,,,,ハグカフェクラブ,0
3056,9450001013880,新規,0,2023-01-11,2023-01-11,株式会社Ｒｅｓｔ　Ｄａｉｒｙ　Ｆａｒｍ,,株式会社,北海道,紋別郡興部町,字北興５６０番地の１,,01,561,0981622,,,,,,,2023-01-11,1,,,,,レストデーリィファーム,0
3064,9700150113349,新規,0,2023-01-11,2022-12-13,やまなしスポーツエンジン,,その他,山梨県,甲府市,丸の内１丁目６－１,,19,201,4000031,,,,,,,2022-12-13,1,,,,,ヤマナシスポーツエンジン,0
