sequenceNumber,corporateNumber,process,correct,updateDate,changeDate,name,nameImageId,kind,prefectureName,cityName,streetNumber,addressImageId,prefectureCode,cityCode,postCode,addressOutside,addressOutsideImageId,closeDate,closeCause,successorCorporateNumber,changeCause,assignmentDate,latest,enName,enPrefectureName,enCityName,enAddressOutside,furigana,hihyoji
5,1010001070222,登記記録の閉鎖等,0,2024-07-23,2024-07-08,ラシヌ・サンク株式会社,,株式会社,東京都,文京区,本郷２丁目１３番１０号,,13,105,1130033,,,2024-07-08,清算の結了等,,,2015-10-05,1,,,,,ラシヌサンク,0
17,1010003035231,登記記録の閉鎖等,0,2024-07-23,2024-07-08,合同会社タイチミセ,,合同会社,東京都,中央区,日本橋小舟町１番４号ヤマサンビル１階,,13,102,1030024,,,2024-07-08,清算の結了等,,,2021-07-08,1,,,,,タイチミセ,0
27,1010501011329,登記記録の閉鎖等,0,2024-07-23,2024-06-24,東台金属株式会社,,株式会社,東京都,台東区,東浅草１丁目３番１０号,,13,106,1110025,,,2024-06-24,清算の結了等,,,2015-10-05,1,,,,,トウダイキンゾク,0
30,1010801025318,登記記録の閉鎖等,0,2024-07-23,2024-07-10,株式会社仁和工業,,株式会社,東京都,大田区,東矢口２丁目１８番１３号,,13,111,1460094,,,2024-07-10,清算の結了等,,,2015-10-05,1,,,,,ニンワコウギョウ,0
37,1011001019993,登記記録の閉鎖等,0,2024-07-23,2024-07-04,ファーベスト化成株式会社,,株式会社,東京都,渋谷区,東３丁目２３番５号,,13,113,1500011,,,2024-07-04,清算の結了等,,,2015-10-05,1,,,,,ファーベストカセイ,0
54,1011801008196,登記記録の閉鎖等,0,2024-07-23,2024-07-19,ザットセキュリティサービス株式会社,,株式会社,東京都,足立区,千住２丁目５番地第３小泉ビル２階,,13,121,1200034,,,2024-07-19,清算の結了等,,,2015-10-05,1,,,,,ザットセキュリティサービス,0
68,1013102007183,登記記録の閉鎖等,0,2024-07-23,2024-07-18,株式会社西川建創,,株式会社,東京都,福生市,本町９６番地２セレクト福生３０２,,13,218,1970022,,,2024-07-18,清算の結了等,,,2015-10-05,1,,,,,ニシカワケンソウ,0
91,1030001015299,登記記録の閉鎖等,0,2024-07-23,2024-07-22,コスモ建築株式会社,,株式会社,埼玉県,さいたま市北区,日進町１丁目５７２番地４,,11,102,3310823,,,2024-07-22,清算の結了等,,,2015-10-05,1,,,,,コスモケンチク,0
115,1040002038240,登記記録の閉鎖等,0,2024-07-23,2024-07-04,有限会社トミナガコーポレーション,,有限会社,千葉県,鎌ケ谷市,粟野６３３番地コスモ鎌ヶ谷ＩＩ６１３号,00020106,12,224,2730132,,,2024-07-04,清算の結了等,,,2015-10-05,1,,,,,トミナガコーポレーション,0
119,1050001046004,登記記録の閉鎖等,0,2024-07-23,2024-07-01,株式会社Ｉ　ｔｅｃｈｎｏｌｏｇｙ,,株式会社,茨城県,牛久市,東猯穴町１０７５番地,,08,219,3001201,,,2024-07-01,合併による解散等,1050001028084,令和６年７月１日茨城県牛久市東猯穴町１０７５番地株式会社セ・ラ・ヴィー（1050001028084）に合併し解散,2019-05-22,1,,,,,アイテクノロジー,0
128,1080002013594,登記記録の閉鎖等,0,2024-07-23,2024-07-08,有限会社コバヤシ建築,,有限会社,静岡県,島田市,野田８２６番地の２,,22,209,4270007,,,2024-07-08,清算の結了等,,,2015-10-05,1,,,,,,0
129,1080002015319,登記記録の閉鎖等,0,2024-07-23,2024-07-08,有限会社ネクストライフサービス,,有限会社,静岡県,牧之原市,仁田５６９番地の１,,22,226,4210413,,,2024-07-08,清算の結了等,,,2015-10-05,1,,,,,ネクストライフサービス,0
130,1080101004321,登記記録の閉鎖等,0,2024-07-23,2024-07-18,藪田石材店株式会社,,株式会社,静岡県,御殿場市,東山５０１番地の３,,22,215,4120024,,,2024-07-18,清算の結了等,,,2015-10-05,1,,,,,ヤブタセキザイテン,0
139,1110002011784,登記記録の閉鎖等,0,2024-07-23,2024-07-09,有限会社ハッタ保険サービス,,有限会社,新潟県,新潟市西蒲区,巻甲４４７０番地７,,15,108,9530041,,,2024-07-09,清算の結了等,,,2015-10-05,1,,,,,ハッタホケンサービス,0
152,1120002053784,登記記録の閉鎖等,0,2024-07-23,2024-07-22,有限会社海苔,,有限会社,大阪府,大阪市東成区,玉津２丁目１４番２３号,,27,115,5370023,,,2024-07-22,清算の結了等,,,2015-10-05,1,,,,,ノリ,0
162,1130001035849,登記記録の閉鎖等,0,2024-07-23,2024-07-16,メイセイ測量株式会社,,株式会社,京都府,亀岡市,千代川町小林西芝１００番７,,26,206,6210043,,,2024-07-16,清算の結了等,,,2015-10-05,1,,,,,メイセイソクリョウ,0
169,1140001028876,登記記録の閉鎖等,0,2024-07-23,2024-07-17,株式会社みらい総合会計事務所,,株式会社,兵庫県,神戸市中央区,伊藤町１０６番地,,28,110,6500032,,,2024-07-17,清算の結了等,,,2015-10-05,1,,,,,ミライソウゴウカイケイジムショ,0
176,1140003014825,登記記録の閉鎖等,0,2024-07-23,2024-07-18,Ｆｌｏｒａ－Ｌ合同会社,,合同会社,兵庫県,芦屋市,平田町２番８号５０８号室,,28,206,6590074,,,2024-07-18,清算の結了等,,,2020-03-27,1,,,,,フローラエル,0
179,1150001019759,登記記録の閉鎖等,0,2024-07-23,2024-07-19,株式会社シンプル,,株式会社,奈良県,磯城郡川西町,大字結崎５９８番地１,,29,361,6360202,,,2024-07-19,清算の結了等,,,2015-10-05,1,,,,,,0
180,1150001024387,登記記録の閉鎖等,0,2024-07-23,2024-07-18,イソップス株式会社,,株式会社,奈良県,大和高田市,大字市場１４４番地２,,29,202,6350074,,,2024-07-18,清算の結了等,,,2021-02-12,1,,,,,イソップス,0
181,1150005006299,登記記録の閉鎖等,0,2024-07-23,2024-07-18,医療法人藤田会,,その他の設立登記法人,奈良県,香芝市,逢坂７丁目１３０番地の１号,00044031,29,210,6390251,,,2024-07-18,清算の結了等,,,2015-10-05,1,,,,,フジタカイ,0
182,1160001017324,登記記録の閉鎖等,0,2024-07-23,2024-07-16,株式会社ほけんのながみ,,株式会社,滋賀県,大津市,湖青２丁目９番１１号,,25,201,5200532,,,2024-07-16,清算の結了等,,,2015-10-05,1,,,,,ホケンノナガミ,0
186,1180001010698,登記記録の閉鎖等,0,2024-07-23,2024-07-04,常磐産業株式会社,,株式会社,愛知県,名古屋市瑞穂区,石川町３丁目８番地の２,,23,108,4670005,,,2024-07-04,清算の結了等,,,2015-10-05,1,,,,,トキワサンギョウ,0
191,1180001155782,登記記録の閉鎖等,0,2024-07-23,2024-07-05,株式会社Ａｇｎｅｓ,,株式会社,愛知県,海部郡蟹江町,城１丁目３０１番地,,23,425,4970040,,,2024-07-05,清算の結了等,,,2023-04-11,1,,,,,アグネス,0
197,1180301005605,登記記録の閉鎖等,0,2024-07-23,2024-07-08,株式会社コヤマ,,株式会社,愛知県,豊橋市,広小路２丁目３４番地,,23,201,4400881,,,2024-07-08,清算の結了等,,,2015-10-05,1,,,,,コヤマ,0
198,1180302003459,登記記録の閉鎖等,0,2024-07-23,2024-07-09,有限会社ホンダ自動車,,有限会社,愛知県,額田郡幸田町,大字横落字長根１６１番地１,,23,501,4440114,,,2024-07-09,清算の結了等,,,2015-10-05,1,,,,,ホンダジドウシャ,0
208,1210002012459,登記記録の閉鎖等,0,2024-07-23,2024-07-18,港屋産業有限会社,,有限会社,福井県,越前市,岩内町３０号２番地２６,,18,209,9150016,,,2024-07-18,合併による解散等,6220001023567,令和６年７月１日富山県南砺市蓑谷７１０番地１ＩＫＥＤＡホールディングス株式会社（6220001023567）に合併し解散,2015-10-05,1,,,,,ミナトヤサンギョウ,0
209,1230002008901,登記記録の閉鎖等,0,2024-07-23,2024-07-22,有限会社寿産業,,有限会社,富山県,滑川市,改養寺１４１番地,,16,206,9360836,,,2024-07-22,清算の結了等,,,2015-10-05,1,,,,,コトブキサンギョウ,0
215,1260002008808,登記記録の閉鎖等,0,2024-07-23,2024-07-09,有限会社藤原自動車整備工場,,有限会社,岡山県,岡山市東区,金岡西町６６９番地の５,,33,103,7048193,,,2024-07-09,清算の結了等,,,2015-10-05,1,,,,,フジワラジドウシャセイビコウジョウ,0
223,1290003005917,登記記録の閉鎖等,0,2024-07-23,2024-07-01,合同会社ポラリス,,合同会社,福岡県,福岡市中央区,薬院３丁目３番２９号ライオンズマンション薬院駅南２０９号,,40,133,8100022,,,2024-07-01,合併による解散等,5290001082203,令和６年７月１日福岡市中央区薬院三丁目３番２９号ライオンズマンション薬院駅南２０９号オーナーズスタイル福岡株式会社（5290001082203）に合併し解散,2015-10-05,1,,,,,ポラリス,0
242,1330003004732,登記記録の閉鎖等,0,2024-07-23,2024-07-08,合同会社幸山設備設計,,合同会社,熊本県,熊本市北区,龍田２丁目３１番１５６号,,43,105,8618006,,,2024-07-08,清算の結了等,,,2015-10-05,1,,,,,コウザンセツビセッケイ,0
253,1380001013425,登記記録の閉鎖等,0,2024-07-23,2024-07-11,株式会社東一,,株式会社,福島県,いわき市,平字北目町９１番地の２,,07,204,9708026,,,2024-07-11,清算の結了等,,,2015-10-05,1,,,,,トウイチ,0
267,1410005004623,登記記録の閉鎖等,0,2024-07-23,2024-07-11,農事組合法人太田きのこセンター,,その他の設立登記法人,秋田県,大仙市,太田町国見字高橋２０２番地,,05,212,0191605,,,2024-07-11,清算の結了等,,,2015-10-05,1,,,,,オオタキノコセンター,0
275,1450001005935,登記記録の閉鎖等,0,2024-07-23,2024-07-16,株式会社ベイシン,,株式会社,北海道,上川郡愛別町,字愛別１３７７番地,,01,456,0781401,,,2024-07-16,清算の結了等,,,2015-10-05,1,,,,,ベイシン,0
298,2010401158277,登記記録の閉鎖等,0,2024-07-23,2024-07-03,株式会社ｔｏｋｏｔｏｗａ,,株式会社,東京都,渋谷区,恵比寿２丁目３６番１３号,,13,113,1500013,,,2024-07-03,清算の結了等,,,2021-02-15,1,,,,,トコトワ,0
306,2010701024344,登記記録の閉鎖等,0,2024-07-23,2024-07-02,ヴィ・ネットワーク・システムズ株式会社,,株式会社,東京都,目黒区,目黒１丁目１１番７号,,13,110,1530063,,,2024-07-02,清算の結了等,,,2015-10-05,1,,,,,ヴィネットワークシステムズ,0
324,2011101088450,登記記録の閉鎖等,0,2024-07-23,2024-07-09,株式会社ダイマチー,,株式会社,東京都,新宿区,市谷八幡町８番地,,13,104,1620844,,,2024-07-09,清算の結了等,,,2019-07-31,1,,,,,ダイマチー,0
336,2011701017726,登記記録の閉鎖等,0,2024-07-23,2024-07-04,株式会社エバーリットラボコーポレーション,,株式会社,愛知県,名古屋市西区,那古野１丁目１４番１８号那古野ビル北館２１８号,,23,104,4510042,,,2024-07-04,清算の結了等,,,2015-10-05,1,,,,,エバーリットラボコーポレーション,0
340,2011801003808,登記記録の閉鎖等,0,2024-07-23,2024-07-18,株式会社ニチデン,,株式会社,東京都,葛飾区,水元１丁目１５番２０号,,13,122,1250032,,,2024-07-18,清算の結了等,,,2015-10-05,1,,,,,ニチデン,0
347,2013301003370,登記記録の閉鎖等,0,2024-07-23,2024-07-11,株式会社協同広運,,株式会社,東京都,豊島区,目白３丁目１番３８号,,13,116,1710031,,,2024-07-11,清算の結了等,,,2015-10-05,1,,,,,キョウドウコウウン,0
348,2020001067729,登記記録の閉鎖等,0,2024-07-23,2024-07-02,株式会社コムネット,,株式会社,神奈川県,横浜市青葉区,美しが丘１丁目８番地１－Ｃ９０４,,14,117,2250002,,,2024-07-02,清算の結了等,,,2015-10-05,1,,,,,コムネット,0
371,2030001150979,登記記録の閉鎖等,0,2024-07-23,2024-07-12,株式会社はるみつ工務店,,株式会社,山梨県,甲府市,善光寺１丁目２３番１４号ハイツアンソレイエ１０１,,19,201,4000806,,,2024-07-12,清算の結了等,,,2022-11-09,1,,,,,,0
382,2040001097484,登記記録の閉鎖等,0,2024-07-23,2024-07-08,イーエムイー建設株式会社,,株式会社,千葉県,鴨川市,坂東２３番地１,,12,223,2960016,,,2024-07-08,清算の結了等,,,2016-11-07,1,,,,,イーエムイーケンセツ,0
387,2040003020700,登記記録の閉鎖等,0,2024-07-23,2024-07-08,Ｔ’ＡＣＴ合同会社,,合同会社,千葉県,東金市,田間２丁目４４－９,,12,213,2830005,,,2024-07-08,清算の結了等,,,2022-08-25,1,,,,,タクト,0
398,2090001006886,登記記録の閉鎖等,0,2024-07-23,2024-07-09,株式会社笛吹製作所,,株式会社,山梨県,笛吹市,石和町四日市場１６０４番地,,19,211,4060032,,,2024-07-09,清算の結了等,,,2015-10-05,1,,,,,フエフキセイサクショ,0
401,2110002010637,登記記録の閉鎖等,0,2024-07-23,2024-07-10,有限会社小林建築工業,,有限会社,新潟県,新潟市北区,高森５２８番地４,,15,101,9503367,,,2024-07-10,清算の結了等,,,2015-10-05,1,,,,,コバヤシケンチクコウギョウ,0
403,2110003004720,登記記録の閉鎖等,0,2024-07-23,2024-07-10,合同会社土の学校・水の学校,,合同会社,新潟県,新潟市江南区,亀田工業団地１丁目３番５号,,15,104,9500141,,,2024-07-10,清算の結了等,,,2022-03-18,1,,,,,ツチノガッコウミズノガッコウ,0
429,2122001014907,登記記録の閉鎖等,0,2024-07-23,2024-07-22,株式会社ケイ・ファクトリー,,株式会社,大阪府,東大阪市,宝町１８番１１号,,27,227,5798025,,,2024-07-22,清算の結了等,,,2015-10-05,1,,,,,ケイファクトリー,0
438,2140001117372,登記記録の閉鎖等,0,2024-07-23,2024-07-16,株式会社アイ．エイ．エム,,株式会社,兵庫県,尼崎市,七松町１丁目３番２フェスタ立花南館ウェスト２２０２号,,28,202,6600052,,,2024-07-16,清算の結了等,,,2020-05-19,1,,,,,アイエイエム,0
455,2180002056962,登記記録の閉鎖等,0,2024-07-23,2024-07-05,有限会社プラスハート,,有限会社,愛知県,名古屋市緑区,鳴海町字伝治山１番地の２,,23,114,4580844,,,2024-07-05,清算の結了等,,,2015-10-05,1,,,,,プラスハート,0
472,2240003004071,登記記録の閉鎖等,0,2024-07-23,2024-07-16,森の川国際貿易合同会社,,合同会社,広島県,東広島市,西条町寺家５４６６－７,,34,212,7390041,,,2024-07-16,清算の結了等,,,2018-11-29,1,,,,,モリノカワコクサイボウエキ,0
473,2250001001631,登記記録の閉鎖等,0,2024-07-23,2024-07-16,株式会社空海月,,株式会社,山口県,山口市,湯田温泉４丁目３番１９号,,35,203,7530056,,,2024-07-16,清算の結了等,,,2015-10-05,1,,,,,クウカイゲツ,0
477,2260001037468,登記記録の閉鎖等,0,2024-07-23,2024-07-11,株式会社浩洋貿易,,株式会社,岡山県,岡山市北区,清心町１番７号アルファ清心町ＩＩ１０３,00128663,33,101,7000027,,,2024-07-11,清算の結了等,,,2022-12-02,1,,,,,コウヨウボウエキ,0
497,2300002006038,登記記録の閉鎖等,0,2024-07-23,2024-07-18,有限会社ブック・レビュー,,有限会社,佐賀県,武雄市,北方町大字志久２２７８番地２０,,41,206,8492201,,,2024-07-18,清算の結了等,,,2015-10-05,1,,,,,ブックレビュー,0
499,2320001013702,登記記録の閉鎖等,0,2024-07-23,2024-07-18,株式会社ハウジングエース,,株式会社,大分県,大分市,坂ノ市中央１丁目７番３３号,,44,201,8700307,,,2024-07-18,清算の結了等,,,2015-10-05,1,,,,,ハウジングエース,0
502,2330002023765,登記記録の閉鎖等,0,2024-07-23,2024-07-08,有限会社天風,,有限会社,熊本県,荒尾市,野原字西原８８番地,,43,204,8640163,,,2024-07-08,清算の結了等,,,2015-10-05,1,,,,,テンプウ,0
510,2370001042457,登記記録の閉鎖等,0,2024-07-23,2024-07-03,ＫＴＭ株式会社,,株式会社,宮城県,仙台市若林区,伊在１丁目５番地の１４風見館１０２,,04,103,9840038,,,2024-07-03,清算の結了等,,,2017-12-26,1,,,,,ケーティーエム,0
513,2370002010462,登記記録の閉鎖等,0,2024-07-23,2024-07-04,有限会社菅野宗男商店,,有限会社,宮城県,仙台市青葉区,宮町１丁目３番２４号薄木ビル１０２号,,04,101,9800004,,,2024-07-04,清算の結了等,,,2015-10-05,1,,,,,,0
530,2450002005685,登記記録の閉鎖等,0,2024-07-23,2024-07-16,有限会社ヤマタネ,,有限会社,北海道,旭川市,一条通１０丁目左３号,,01,204,0700031,,,2024-07-16,清算の結了等,,,2015-10-05,1,,,,,ヤマタネ,0
532,2470001006690,登記記録の閉鎖等,0,2024-07-23,2024-07-11,トーアケミカル株式会社,,株式会社,香川県,高松市,神在川窪町２０３番地２,,37,201,7618003,,,2024-07-11,清算の結了等,,,2015-10-05,1,,,,,トーアケミカル,0
534,2480002013933,登記記録の閉鎖等,0,2024-07-23,2024-07-19,有限会社県南ギフト,,有限会社,徳島県,阿南市,橘町大浦１３５番地,,36,204,7740023,,,2024-07-19,清算の結了等,,,2015-10-05,1,,,,,ケンナンギフト,0
574,3010801007660,登記記録の閉鎖等,0,2024-07-23,2024-07-10,株式会社寺崎プレス工業所,,株式会社,東京都,大田区,東馬込１丁目２１番２号,,13,111,1430022,,,2024-07-10,清算の結了等,,,2015-10-05,1,,,,,テラサキプレスコウギョウショ,0
610,3012402015902,登記記録の閉鎖等,0,2024-07-23,2024-07-19,有限会社東洋住設,,有限会社,東京都,府中市,宮町１丁目９番地の８ミオカステーロ府中宮町９０７,,13,206,1830023,,,2024-07-19,清算の結了等,,,2015-10-05,1,,,,,トウヨウジュウセツ,0
632,3021001055929,登記記録の閉鎖等,0,2024-07-23,2024-07-17,不動産センター株式会社,,株式会社,神奈川県,横須賀市,三春町１丁目１５番地１,,14,201,2380014,,,2024-07-17,合併による解散等,9030001025514,令和６年６月３０日埼玉県所沢市大字松郷１５１番地５１リングアンドリンク株式会社（9030001025514）に合併し解散,2015-10-05,1,,,,,フドウサンセンター,0
638,3030001063494,登記記録の閉鎖等,0,2024-07-23,2024-07-16,株式会社アクロス・コンサルタンツ,,株式会社,埼玉県,越谷市,千間台西３丁目１番地パークタウン２－７０１,,11,222,3430041,,,2024-07-16,清算の結了等,,,2015-10-05,1,,,,,アクロスコンサルタンツ,0
660,3050002003002,登記記録の閉鎖等,0,2024-07-23,2024-07-12,有限会社水戸ソニック,,有限会社,茨城県,水戸市,栄町２丁目１番８号,,08,201,3100064,,,2024-07-12,清算の結了等,,,2015-10-05,1,,,,,ミトソニック,0
661,3050002032810,登記記録の閉鎖等,0,2024-07-23,2024-07-11,有限会社ウィンプロ,,有限会社,茨城県,日立市,水木町１丁目２９番４３号,,08,202,3160024,,,2024-07-11,清算の結了等,,,2015-10-05,1,,,,,ウィンプロ,0
666,3070001015822,登記記録の閉鎖等,0,2024-07-23,2024-07-19,株式会社桐生さくらや,,株式会社,群馬県,桐生市,本町５丁目５８番地１,,10,203,3760031,,,2024-07-19,清算の結了等,,,2015-10-05,1,,,,,,0
667,3070001034871,登記記録の閉鎖等,0,2024-07-23,2024-07-19,株式会社ヒコテクノシステム,,株式会社,群馬県,前橋市,前箱田町１２５番地２,,10,201,3710835,,,2024-07-19,清算の結了等,,,2018-07-04,1,,,,,,0
668,3070001040317,登記記録の閉鎖等,0,2024-07-23,2024-07-17,株式会社田舎リゾート,,株式会社,群馬県,桐生市,広沢町４丁目２４３０番地,,10,203,3760013,,,2024-07-17,清算の結了等,,,2023-04-12,1,,,,,イナカリゾート,0
686,3110005008181,登記記録の閉鎖等,0,2024-07-23,2024-07-08,協同組合ウッドワーク,,その他の設立登記法人,新潟県,上越市,五智２丁目１０２番地１,,15,222,9420081,,,2024-07-08,清算の結了等,,,2015-10-05,1,,,,,ウッドワーク,0
718,3130003002465,登記記録の閉鎖等,0,2024-07-23,2024-07-02,合同会社京都ＦＴＲファシリティーズ,,合同会社,京都府,京都市中京区,御供町３００番地４０５号,,26,104,6048331,,,2024-07-02,合併による解散等,8130001031081,令和６年７月１日京都市山科区御陵別所町１３８－１３株式会社京都ＦＴＲ（8130001031081）に合併し解散,2015-10-05,1,,,,,キョウトエフティーアールファシリティーズ,0
719,3130005012355,登記記録の閉鎖等,0,2024-07-23,2024-07-12,特定非営利活動法人えがく,,その他の設立登記法人,京都府,京都市右京区,西院平町６番地３三喜ビル,,26,108,6150022,,,2024-07-12,清算の結了等,,,2015-10-05,1,,,,,エガク,0
721,3140001007317,登記記録の閉鎖等,0,2024-07-23,2024-07-17,株式会社クリスコーポレーション,,株式会社,兵庫県,神戸市灘区,箕岡通２丁目２番８号,,28,102,6570812,,,2024-07-17,清算の結了等,,,2015-10-05,1,,,,,クリスコーポレーション,0
740,3180002063033,登記記録の閉鎖等,0,2024-07-23,2024-07-08,有限会社新世サポート,,有限会社,愛知県,日進市,浅田町笹原８番地５２,,23,230,4700124,,,2024-07-08,清算の結了等,,,2015-10-05,1,,,,,シンセイサポート,0
748,3240001054134,登記記録の閉鎖等,0,2024-07-23,2024-07-16,アオイ調査設計株式会社,,株式会社,広島県,広島市安佐南区,相田１丁目１番２６号,,34,105,7310141,,,2024-07-16,清算の結了等,,,2019-04-03,1,,,,,アオイチョウサセッケイ,0
753,3260002002040,登記記録の閉鎖等,0,2024-07-23,2024-07-11,有限会社オー・ピー・コーポレーション,,有限会社,岡山県,岡山市東区,藤井１６２番地１,,33,103,7038213,,,2024-07-11,清算の結了等,,,2015-10-05,1,,,,,オーピーコーポレーション,0
770,3300001003951,登記記録の閉鎖等,0,2024-07-23,2024-07-19,株式会社ＯＺ．ＳｔｅａｄＦａｓｔ．Ａｓｓｏｃｉａｔｉｏｎ,,株式会社,佐賀県,佐賀市,本庄町大字袋４０５番地７,,41,201,8400023,,,2024-07-19,清算の結了等,,,2015-10-05,1,,,,,,0
782,3360003011402,登記記録の閉鎖等,0,2024-07-23,2024-07-19,合同会社テルヤ飲料,,合同会社,沖縄県,名護市,字我部祖河９８番地１,,47,209,9051155,,,2024-07-19,清算の結了等,,,2021-08-30,1,,,,,テルヤインリョウ,0
786,3370001010652,登記記録の閉鎖等,0,2024-07-23,2024-07-01,株式会社八百重,,株式会社,宮城県,仙台市青葉区,国分町２丁目８番２号,,04,101,9800803,,,2024-07-01,合併による解散等,4370001050482,令和６年７月１日仙台市若林区土樋１０４番地株式会社フェスティーナ・ロイテ（4370001050482）に合併し解散,2015-10-05,1,,,,,ヤオジュウ,0
802,3460101000585,登記記録の閉鎖等,0,2024-07-23,2024-07-19,株式会社コマバ,,株式会社,北海道,河東郡音更町,駒場南二条通２番地,,01,631,0800566,,,2024-07-19,清算の結了等,,,2015-10-05,1,,,,,コマバ,0
825,4010003031756,登記記録の閉鎖等,0,2024-07-23,2024-07-08,フォーチュンキャット合同会社,,合同会社,東京都,中央区,八重洲１丁目８番１７号,,13,102,1030028,,,2024-07-08,清算の結了等,,,2020-03-05,1,,,,,フォーチュンキャット,0
826,4010005031705,登記記録の閉鎖等,0,2024-07-23,2024-07-08,一般社団法人食の未来システム創造協議会,,その他の設立登記法人,東京都,中央区,東日本橋２丁目２８番４号日本橋ＣＥＴビル２階,,13,102,1030004,,,2024-07-08,清算の結了等,,,2020-04-13,1,,,,,ショクノミライシステムソウゾウキョウギカイ,0
841,4010601008817,登記記録の閉鎖等,0,2024-07-23,2024-07-18,株式会社新井繊維,,株式会社,東京都,墨田区,石原４丁目１５番７号,,13,107,1300011,,,2024-07-18,清算の結了等,,,2015-10-05,1,,,,,アライセンイ,0
859,4011005002274,登記記録の閉鎖等,0,2024-07-23,2024-07-22,特定非営利活動法人ライフデザインサポーティングアカデミー,,その他の設立登記法人,東京都,調布市,東つつじケ丘２丁目３５番地９,,13,208,1820005,,,2024-07-22,清算の結了等,,,2015-10-05,1,,,,,ライフデザインサポーティングアカデミー,0
891,4012701009050,登記記録の閉鎖等,0,2024-07-23,2024-07-12,株式会社城西,,株式会社,東京都,西東京市,芝久保町５丁目４番５５号,,13,229,1880014,,,2024-07-12,合併による解散等,9010801000057,令和６年７月１日東京都中央区日本橋浜町二丁目１３番６号ＭＵＴＯＨ浜町ビル４階旭段ボール株式会社（9010801000057）に合併し解散,2015-10-05,1,,,,,ジョウサイ,0
926,4050003005756,登記記録の閉鎖等,0,2024-07-23,2024-07-12,合同会社ケイアイコンサルティング,,合同会社,茨城県,龍ケ崎市,佐貫町１１１８番地２,,08,208,3010033,,,2024-07-12,清算の結了等,,,2021-04-05,1,,,,,ケイアイコンサルティング,0
937,4120001045714,登記記録の閉鎖等,0,2024-07-23,2024-07-19,東海通商株式会社,,株式会社,大阪府,大阪市西区,西本町１丁目１５番８号,,27,106,5500005,,,2024-07-19,清算の結了等,,,2015-10-05,1,,,,,トウカイツウショウ,0
938,4120001140325,登記記録の閉鎖等,0,2024-07-23,2024-07-19,エルテックフット株式会社,,株式会社,大阪府,大阪市西区,立売堀１丁目９番１１号,,27,106,5500012,,,2024-07-19,清算の結了等,,,2015-10-05,1,,,,,エルテックフット,0
951,4120905003503,登記記録の閉鎖等,0,2024-07-23,2024-07-12,豊能郡環境事業協同組合,,その他の設立登記法人,大阪府,豊能郡豊能町,ときわ台４丁目１７番１９号,,27,321,5630102,,,2024-07-12,清算の結了等,,,2015-10-05,1,,,,,トヨノグンカンキョウジギョウ,0
954,4122002015992,登記記録の閉鎖等,0,2024-07-23,2024-07-16,有限会社なるほ堂薬店,,有限会社,大阪府,八尾市,南木の本２丁目２１番地の４５,,27,212,5810042,,,2024-07-16,清算の結了等,,,2015-10-05,1,,,,,ナルホドウヤクテン,0
956,4130001040788,登記記録の閉鎖等,0,2024-07-23,2024-07-09,大京土木工事株式会社,,株式会社,京都府,宮津市,字上司４９０番地の５,,26,205,6260074,,,2024-07-09,清算の結了等,,,2015-10-05,1,,,,,ダイキョウドボクコウジ,0
989,4180302026242,登記記録の閉鎖等,0,2024-07-23,2024-07-08,有限会社イワセ,,有限会社,愛知県,西尾市,住崎町経塚１７番地６,00075234,23,213,4450876,,,2024-07-08,清算の結了等,,,2015-10-05,1,,,,,イワセ,0
994,4210001004157,登記記録の閉鎖等,0,2024-07-23,2024-07-16,株式会社ヤマトインターナショナルアイウエア,,株式会社,福井県,福井市,江端町第７号７番地,,18,201,9188016,,,2024-07-16,清算の結了等,,,2015-10-05,1,,,,,ヤマトインターナショナルアイウエア,0
998,4220002011234,登記記録の閉鎖等,0,2024-07-23,2024-07-17,有限会社みやもと,,有限会社,石川県,小松市,大和町８２番地,,17,203,9230952,,,2024-07-17,清算の結了等,,,2015-10-05,1,,,,,,0
1002,4220005000647,登記記録の閉鎖等,0,2024-07-23,2024-07-10,専光寺直江教会,,その他の設立登記法人,石川県,金沢市,直江町ホ８６番地,,17,201,9208216,,,2024-07-10,清算の結了等,,,2015-10-05,1,,,,,センコウジナオエキョウカイ,0
1006,4240001043986,登記記録の閉鎖等,0,2024-07-23,2024-07-17,株式会社ＫＯＵ設計,,株式会社,広島県,広島市安佐北区,落合南１丁目１８番１４号,,34,106,7391732,,,2024-07-17,清算の結了等,,,2015-10-05,1,,,,,コウセッケイ,0
1013,4280001004225,登記記録の閉鎖等,0,2024-07-23,2024-07-17,株式会社ＬＰＣホテル＆リゾート,,株式会社,島根県,出雲市,渡橋町１２２７番地,,32,203,6930004,,,2024-07-17,合併による解散等,5280001003696,令和６年７月１７日島根県出雲市渡橋町７０６番地１株式会社丸三（5280001003696）に合併し解散,2015-10-05,1,,,,,エルピーシーホテルアンドリゾート,0
1031,4300001011037,登記記録の閉鎖等,0,2024-07-23,2024-07-19,株式会社ｍａｎａｖｉｅｗ,,株式会社,佐賀県,多久市,北多久町小侍１０８８番地２,,41,204,8460001,,,2024-07-19,清算の結了等,,,2017-10-30,1,,,,,マナビュー,0
1041,4330002005877,登記記録の閉鎖等,0,2024-07-23,2024-07-05,有限会社泉水,,有限会社,熊本県,熊本市南区,野田２丁目２３番１２号,,43,104,8614114,,,2024-07-05,清算の結了等,,,2015-10-05,1,,,,,センスイ,0
1044,4350003003226,登記記録の閉鎖等,0,2024-07-23,2024-07-10,合同会社サンアーブ,,合同会社,宮崎県,宮崎市,大塚町天神後２６７３番地１,,45,201,8800951,,,2024-07-10,清算の結了等,,,2018-11-08,1,,,,,サンアーブ,0
1069,4420001016528,登記記録の閉鎖等,0,2024-07-23,2024-07-11,株式会社タック,,株式会社,青森県,青森市,本町５丁目１０番１号２Ｆ,,02,201,0300802,,,2024-07-11,清算の結了等,,,2019-03-25,1,,,,,タック,0
1073,4480003000284,登記記録の閉鎖等,0,2024-07-23,2024-07-16,合同会社朝日新聞徳島販売開発,,合同会社,香川県,高松市,天神前２番１号朝日新聞高松ビル４階,,37,201,7600018,,,2024-07-16,清算の結了等,,,2015-10-05,1,,,,,アサヒシンブントクシマハンバイカイハツ,0
1082,5010001165761,登記記録の閉鎖等,0,2024-07-23,2024-07-08,株式会社勝本,,株式会社,東京都,千代田区,神田三崎町２丁目１５－５三崎町ＳＳビル４階,,13,101,1010061,,,2024-07-08,清算の結了等,,,2015-10-05,1,,,,,カツモト,0
1084,5010001210716,登記記録の閉鎖等,0,2024-07-23,2024-07-08,アルケブラン・ジャパン株式会社,,株式会社,東京都,中央区,築地４丁目４番１５号,,13,102,1040045,,,2024-07-08,清算の結了等,,,2020-07-06,1,,,,,アルケブランジャパン,0
1085,5010001226803,登記記録の閉鎖等,0,2024-07-23,2024-07-08,ＳｃａｌｅＨｕｂ　Ｊａｐａｎ株式会社,,株式会社,東京都,千代田区,丸の内１丁目６番５号,,13,101,1000005,,,2024-07-08,清算の結了等,,,2022-05-24,1,,,,,スケールハブジャパン,0
1107,5010901041649,登記記録の閉鎖等,0,2024-07-23,2024-07-02,株式会社クロスパシフィック・インテリジェンス,,株式会社,東京都,世田谷区,奥沢４丁目１４番３号,,13,112,1580083,,,2024-07-02,合併による解散等,6010901041210,令和６年７月１日東京都世田谷区奥沢四丁目１４番３号株式会社ライトハウス・ホールディングス（6010901041210）に合併し解散,2018-03-05,1,,,,,クロスパシフィックインテリジェンス,0
1122,5011302015077,登記記録の閉鎖等,0,2024-07-23,2024-07-17,有限会社広作室,,有限会社,東京都,杉並区,高井戸東４丁目２番１２号,,13,115,1680072,,,2024-07-17,清算の結了等,,,2015-10-05,1,,,,,コウサクシツ,0
1126,5011501023987,登記記録の閉鎖等,0,2024-07-23,2024-07-17,スピンジョイ株式会社,,株式会社,東京都,足立区,六月１丁目１５番７号２０４室,,13,121,1210814,,,2024-07-17,清算の結了等,,,2018-08-13,1,,,,,スピンジョイ,0
1134,5011801000430,登記記録の閉鎖等,0,2024-07-23,2024-07-17,株式会社イノウエパッケージ,,株式会社,東京都,葛飾区,東新小岩８丁目３８番６号,,13,122,1240023,,,2024-07-17,清算の結了等,,,2015-10-05,1,,,,,イノウエパッケージ,0
1157,5030001042595,登記記録の閉鎖等,0,2024-07-23,2024-07-17,マイクロビジネス株式会社,,株式会社,埼玉県,桶川市,北１丁目２５番２９号－３０９,,11,231,3630011,,,2024-07-17,清算の結了等,,,2015-10-05,1,,,,,マイクロビジネス,0
1170,5030002117677,登記記録の閉鎖等,0,2024-07-23,2024-07-17,有限会社絹屋質店,,有限会社,埼玉県,行田市,忍１丁目４番１４号,,11,206,3610077,,,2024-07-17,清算の結了等,,,2015-10-05,1,,,,,キヌヤシチテン,0
1194,5080001010011,登記記録の閉鎖等,0,2024-07-23,2024-07-10,アオノミート株式会社,,株式会社,静岡県,静岡市葵区,城北２丁目９番２１号,,22,101,4200805,,,2024-07-10,清算の結了等,,,2015-10-05,1,,,,,アオノミート,0
1196,5080002009903,登記記録の閉鎖等,0,2024-07-23,2024-07-10,有限会社サイトー木型,,有限会社,静岡県,静岡市清水区,北脇新田３４５番地の２,,22,103,4240051,,,2024-07-10,清算の結了等,,,2015-10-05,1,,,,,サイトーキガタ,0
1201,5080403003117,登記記録の閉鎖等,0,2024-07-23,2024-07-12,合同会社河合農園,,合同会社,静岡県,浜松市浜名区,新原５２６０番地,,22,139,4340003,,,2024-07-12,清算の結了等,,,2015-10-05,1,,,,,カワイノウエン,0
1216,5120002004156,登記記録の閉鎖等,0,2024-07-23,2024-07-22,有限会社おかべ工務店,,有限会社,大阪府,大阪市都島区,中野町４丁目１８番１４号,,27,102,5340027,,,2024-07-22,清算の結了等,,,2015-10-05,1,,,,,オカベコウムテン,0
1217,5120002057625,登記記録の閉鎖等,0,2024-07-23,2024-07-17,有限会社アイデックスアート,,有限会社,大阪府,大阪市北区,松ケ枝町６番３号,,27,127,5300037,,,2024-07-17,清算の結了等,,,2015-10-05,1,,,,,アイデックスアート,0
1229,5130001000262,登記記録の閉鎖等,0,2024-07-23,2024-07-16,株式会社上野工務店,,株式会社,京都府,京都市北区,紫野上野町８６番地,,26,101,6038242,,,2024-07-16,清算の結了等,,,2015-10-05,1,,,,,ウエノコウムテン,0
1231,5130001072269,登記記録の閉鎖等,0,2024-07-23,2024-07-01,にしかわ商事株式会社,,株式会社,京都府,京都市東山区,下河原通八坂鳥居前下る下河原町４７３番地,,26,105,6050825,,,2024-07-01,合併による解散等,6130001057087,令和６年７月１日京都市下京区不明門通五条上る玉屋町５０４番地祇園にしかわ株式会社（6130001057087）に合併し解散,2022-07-28,1,,,,,ニシカワショウジ,0
1238,5130003003494,登記記録の閉鎖等,0,2024-07-23,2024-07-12,合同会社ＫＲＡワダ,,合同会社,京都府,京都市山科区,上花山坂尻１０６花山シティーホール３Ｆ,,26,110,6078465,,,2024-07-12,清算の結了等,,,2015-10-05,1,,,,,ケイアールエイワダ,0
1247,5160002014300,登記記録の閉鎖等,0,2024-07-23,2024-07-16,有限会社デンデン,,有限会社,滋賀県,野洲市,市三宅９４７番地の１,,25,210,5202362,,,2024-07-16,清算の結了等,,,2015-10-05,1,,,,,デンデン,0
1252,5180003022993,登記記録の閉鎖等,0,2024-07-23,2024-07-05,インクルーシブ・インベストメント合同会社,,合同会社,愛知県,名古屋市南区,平子１丁目２番１０号ライオンズ新瑞橋グランゲート３０８号,,23,112,4570001,,,2024-07-05,清算の結了等,,,2021-09-24,1,,,,,インクルーシブインベストメント,0
1271,5240005007433,登記記録の閉鎖等,0,2024-07-23,2024-07-16,医療法人社団碧会井口産婦人科小児科医院,,その他の設立登記法人,広島県,福山市,神辺町大字新湯野７１番地の４,,34,207,7202122,,,2024-07-16,清算の結了等,,,2015-10-05,1,,,,,ミドリカイイグチサンフジンカショウニカイイン,0
1272,5250001005241,登記記録の閉鎖等,0,2024-07-23,2024-07-16,神田運送株式会社,,株式会社,山口県,下関市,宮田町１丁目１５番８号,,35,201,7500002,,,2024-07-16,清算の結了等,,,2015-10-05,1,,,,,カンダウンソウ,0
1291,5290801023827,登記記録の閉鎖等,0,2024-07-23,2024-07-08,株式会社エリアプラス,,株式会社,福岡県,直方市,大字感田２６８５番地３,,40,204,8220001,,,2024-07-08,清算の結了等,,,2017-07-25,1,,,,,,0
1294,5310003002511,登記記録の閉鎖等,0,2024-07-23,2024-07-05,合同会社介護輸送昭和,,合同会社,長崎県,長崎市,昭和１丁目３番２４号,,42,201,8528145,,,2024-07-05,清算の結了等,,,2015-10-05,1,,,,,カイゴユソウショウワ,0
1300,5350003003332,登記記録の閉鎖等,0,2024-07-23,2024-07-10,合同会社アマテラス宮崎,,合同会社,宮崎県,延岡市,行縢町１０３９番地,,45,203,8820077,,,2024-07-10,清算の結了等,,,2019-04-10,1,,,,,アマテラスミヤザキ,0
1320,5470001000360,登記記録の閉鎖等,0,2024-07-23,2024-07-16,株式会社メディアコア香川,,株式会社,香川県,高松市,天神前２番１号,,37,201,7600018,,,2024-07-16,清算の結了等,,,2015-10-05,1,,,,,メディアコアカガワ,0
1321,5470001017792,登記記録の閉鎖等,0,2024-07-23,2024-07-11,株式会社アイコニックスコーポレーション,,株式会社,香川県,綾歌郡宇多津町,浜五番丁６５番地,,37,386,7690205,,,2024-07-11,清算の結了等,,,2019-12-25,1,,,,,アイコニックスコーポレーション,0
1332,6010001060326,登記記録の閉鎖等,0,2024-07-23,2024-07-08,理研眞空工業株式会社,,株式会社,東京都,中央区,八重洲１丁目３番８号,,13,102,1030028,,,2024-07-08,清算の結了等,,,2015-10-05,1,,,,,リケンシンクウコウギョウ,0
1368,6011001049391,登記記録の閉鎖等,0,2024-07-23,2024-07-03,株式会社シス,,株式会社,東京都,目黒区,平町１丁目１６番１７号,,13,110,1520032,,,2024-07-03,合併による解散等,6020002072559,令和６年７月３日東京都渋谷区神泉町４番３号株式会社ハイフォード（6020002072559）に合併し解散,2015-10-05,1,,,,,シス,0
1380,6011101037107,登記記録の閉鎖等,0,2024-07-23,2022-07-16,国際技術サービス株式会社,,株式会社,東京都,新宿区,信濃町１２番地の１,,13,104,1600016,,,2022-07-16,合併による解散等,5010801018061,令和６年６月２８日神奈川県横浜市中区山下町９８番地国際技術サービス株式会社（5010801018061）に合併し解散,2015-10-05,1,,,,,コクサイギジュツサービス,0
1384,6011103010284,登記記録の閉鎖等,0,2024-07-23,2024-07-08,ＳＮＺファンディング合同会社,,合同会社,東京都,新宿区,四谷２丁目９番地１５東京ユナイテッド綜合事務所内,,13,104,1600004,,,2024-07-08,清算の結了等,,,2020-12-24,1,,,,,エスエヌゼットファンディング,0
1386,6011301013139,登記記録の閉鎖等,0,2024-07-23,2024-07-17,株式会社共栄企画設計,,株式会社,東京都,杉並区,今川３丁目９番３号,,13,115,1670035,,,2024-07-17,清算の結了等,,,2015-10-05,1,,,,,キョウエイキカクセッケイ,0
1406,6012402022061,登記記録の閉鎖等,0,2024-07-23,2024-07-18,有限会社ゼロフラッシュ,,有限会社,東京都,武蔵野市,吉祥寺南町５丁目８番２６号,,13,203,1800003,,,2024-07-18,清算の結了等,,,2015-10-05,1,,,,,ゼロフラッシュ,0
1425,6021002066880,登記記録の閉鎖等,0,2024-07-23,2024-07-19,有限会社松浦建具,,有限会社,神奈川県,横須賀市,武３丁目１１番６号,,14,201,2380313,,,2024-07-19,清算の結了等,,,2015-10-05,1,,,,,マツウラタテグ,0
1471,6110002029392,登記記録の閉鎖等,0,2024-07-23,2024-07-10,有限会社安田製作所,,有限会社,新潟県,長岡市,摂田屋町２７０８番地２７,,15,202,9401104,,,2024-07-10,清算の結了等,,,2015-10-05,1,,,,,ヤスダセイサクショ,0
1483,6120001251847,登記記録の閉鎖等,0,2024-07-23,2024-07-16,株式会社ＮＥＸＴＪＡＰＡＮホールディングス,,株式会社,大阪府,大阪市北区,梅田１丁目１番３号大阪駅前第３ビル２５階,,27,127,5300001,,,2024-07-16,清算の結了等,,,2023-02-01,1,,,,,ネクストジャパンホールディングス,0
1486,6120002024269,登記記録の閉鎖等,0,2024-07-23,2024-07-17,有限会社フレッシュ,,有限会社,大阪府,大阪市西淀川区,御幣島２丁目９番９号,,27,113,5550012,,,2024-07-17,清算の結了等,,,2015-10-05,1,,,,,フレッシュ,0
1513,6140001025299,登記記録の閉鎖等,0,2024-07-23,2024-07-16,株式会社日本サプライズ社,,株式会社,兵庫県,神戸市中央区,磯上通８丁目１番２９号カサベラビルＣ＆Ｍ４０３号室,,28,110,6510086,,,2024-07-16,清算の結了等,,,2015-10-05,1,,,,,ニホンサプライズシャ,0
1520,6140003018854,登記記録の閉鎖等,0,2024-07-23,2024-07-18,合同会社Ａｎｄ　Ｌｉｆｅ,,合同会社,兵庫県,川西市,鼓が滝２丁目４番６９号,,28,217,6660123,,,2024-07-18,清算の結了等,,,2023-03-22,1,,,,,アンドライフ,0
1562,6280002007126,登記記録の閉鎖等,0,2024-07-23,2024-07-19,有限会社坂本造船所,,有限会社,島根県,出雲市,小伊津町１６３０番地,,32,203,6910052,,,2024-07-19,清算の結了等,,,2015-10-05,1,,,,,サカモトゾウセンショ,0
1566,6290001041249,登記記録の閉鎖等,0,2024-07-23,2024-06-24,株式会社八尋物産,,株式会社,福岡県,筑紫野市,大字阿志岐１１７３番地の２,,40,217,8180011,,,2024-06-24,清算の結了等,,,2015-10-05,1,,,,,ヤヒロブッサン,0
1575,6290805005201,登記記録の閉鎖等,0,2024-07-23,2024-07-16,若戸船舶協同組合,,その他の設立登記法人,福岡県,北九州市若松区,本町１丁目６番２４号,,40,103,8080034,,,2024-07-16,清算の結了等,,,2015-10-05,1,,,,,ワカトセンパク,0
1578,6320001007106,登記記録の閉鎖等,0,2024-07-23,2024-07-05,株式会社三恵興産,,株式会社,大分県,別府市,亀川中央町２３番２号,,44,202,8740021,,,2024-07-05,清算の結了等,,,2015-10-05,1,,,,,サンケイコウサン,0
1580,6320002019538,登記記録の閉鎖等,0,2024-07-23,2024-07-19,有限会社ホテル山,,有限会社,大分県,日田市,天瀬町桜竹４５８番地,,44,204,8794201,,,2024-07-19,清算の結了等,,,2015-10-05,1,,,,,,0
1595,6390001015192,登記記録の閉鎖等,0,2024-07-23,2024-07-04,クオリティスタッフサービス株式会社,,株式会社,山形県,西置賜郡白鷹町,大字十王２８６１番地１,,06,402,9920821,,,2024-07-04,清算の結了等,,,2018-02-08,1,,,,,クオリティスタッフサービス,0
1620,6500001020866,登記記録の閉鎖等,0,2024-07-23,2024-07-10,愛媛フーズ株式会社,,株式会社,愛媛県,大洲市,八多喜町甲１４７番地１,,38,207,7950041,,,2024-07-10,清算の結了等,,,2017-09-14,1,,,,,,0
1631,7010003023429,登記記録の閉鎖等,0,2024-07-23,2024-07-08,合同会社大晴,,合同会社,東京都,文京区,湯島３丁目２番２号,,13,105,1130034,,,2024-07-08,清算の結了等,,,2016-04-22,1,,,,,タイセイ,0
1632,7010003034822,登記記録の閉鎖等,0,2024-07-23,2024-07-08,トラストチェーン合同会社,,合同会社,東京都,千代田区,神田佐久間町１丁目１６番地大橋ビル５０３,,13,101,1010025,,,2024-07-08,清算の結了等,,,2021-05-19,1,,,,,トラストチェーン,0
1648,7010701026476,登記記録の閉鎖等,0,2024-07-23,2024-07-12,日本ホワイトファーム新潟株式会社,,株式会社,新潟県,新発田市,藤塚浜３３１０番地８,,15,206,9570231,,,2024-07-12,合併による解散等,4420001012667,令和６年７月１日青森県上北郡横浜町字林尻１０２番地１００日本ホワイトファーム株式会社（4420001012667）に合併し解散,2015-10-05,1,,,,,ニッポンホワイトファームニイガタ,0
1653,7011001136461,登記記録の閉鎖等,0,2024-07-23,2024-07-18,株式会社ＲＡＩ　ＪＡＰＡＮ,,株式会社,東京都,渋谷区,渋谷１丁目１番３号,,13,113,1500002,,,2024-07-18,清算の結了等,,,2020-10-19,1,,,,,ライジャパン,0
1654,7011001147302,登記記録の閉鎖等,0,2024-07-23,2024-07-18,株式会社シーラバイオテック,,株式会社,東京都,渋谷区,広尾１丁目１番３９号,,13,113,1500012,,,2024-07-18,合併による解散等,4180001110768,令和６年７月１日名古屋市中区丸の内二丁目１８番１４号株式会社シーラソーラー（4180001110768）に合併し解散,2022-05-09,1,,,,,シーラバイオテック,0
1661,7011701008638,登記記録の閉鎖等,0,2024-07-23,2024-07-12,株式会社スクリーンポップ,,株式会社,東京都,江戸川区,北小岩３丁目１９番７号,,13,123,1330051,,,2024-07-12,清算の結了等,,,2015-10-05,1,,,,,スクリーンポップ,0
1669,7020001109658,登記記録の閉鎖等,0,2024-07-23,2024-07-08,ＴＯＭＫＯ株式会社,,株式会社,東京都,文京区,本郷３丁目３７－８－８階,,13,105,1130033,,,2024-07-08,清算の結了等,,,2015-10-05,1,,,,,トムコ,0
1677,7021001020648,登記記録の閉鎖等,0,2024-07-23,2024-07-18,渡辺建工株式会社,,株式会社,神奈川県,厚木市,下荻野８５２番地,,14,212,2430203,,,2024-07-18,清算の結了等,,,2015-10-05,1,,,,,ワタナベケンコウ,0
1679,7021002056204,登記記録の閉鎖等,0,2024-07-23,2024-07-18,有限会社中井緑化産業,,有限会社,神奈川県,足柄上郡中井町,境１３１４番地の４,,14,361,2590157,,,2024-07-18,清算の結了等,,,2015-10-05,1,,,,,ナカイリョクカサンギョウ,0
1689,7030003004880,登記記録の閉鎖等,0,2024-07-23,2024-07-16,合資会社ノグデザイン,,合資会社,埼玉県,飯能市,大字小瀬戸４１４番地,,11,209,3570067,,,2024-07-16,清算の結了等,,,2015-10-05,1,,,,,ノグデザイン,0
1695,7040003008583,登記記録の閉鎖等,0,2024-07-23,2024-07-08,合同会社なの花経営研究所,,合同会社,千葉県,千葉市若葉区,みつわ台２丁目４４番７号,,12,104,2640032,,,2024-07-08,清算の結了等,,,2016-06-02,1,,,,,,0
1700,7060001018368,登記記録の閉鎖等,0,2024-07-23,2024-07-08,株式会社えいしん商事,,株式会社,栃木県,足利市,伊勢南町８番地の２２,,09,202,3260054,,,2024-07-08,清算の結了等,,,2015-10-05,1,,,,,エイシンショウジ,0
1712,7080102017705,登記記録の閉鎖等,0,2024-07-23,2024-07-18,有限会社天成,,有限会社,静岡県,富士宮市,原１１４０番地の１４,,22,207,4180105,,,2024-07-18,清算の結了等,,,2015-10-05,1,,,,,テンセイ,0
1724,7120001094766,登記記録の閉鎖等,0,2024-07-23,2024-07-16,株式会社エスジー,,株式会社,大阪府,大阪市鶴見区,横堤４丁目２０番２９号,,27,124,5380052,,,2024-07-16,清算の結了等,,,2015-10-05,1,,,,,エスジー,0
1756,7140001013179,登記記録の閉鎖等,0,2024-07-23,2024-07-17,新栄石油株式会社,,株式会社,兵庫県,神戸市兵庫区,浜中町１丁目７番５－５０７号,,28,105,6520875,,,2024-07-17,清算の結了等,,,2015-10-05,1,,,,,シンエイセキユ,0
1757,7140001042442,登記記録の閉鎖等,0,2024-07-23,2024-07-18,株式会社アサヒヤ,,株式会社,兵庫県,加古川市,加古川町寺家町３４０番地の１,,28,210,6750066,,,2024-07-18,清算の結了等,,,2015-10-05,1,,,,,アサヒヤ,0
1758,7140001049735,登記記録の閉鎖等,0,2024-07-23,2024-07-17,株式会社大八塩澤商店,,株式会社,兵庫県,尼崎市,潮江４丁目４番１号,,28,202,6610976,,,2024-07-17,清算の結了等,,,2015-10-05,1,,,,,ダイハチシオザワショウテン,0
1764,7140003013400,登記記録の閉鎖等,0,2024-07-23,2024-07-17,合同会社ナユタ,,合同会社,兵庫県,神戸市西区,井吹台西町４丁目４１番地の５,,28,111,6512243,,,2024-07-17,清算の結了等,,,2018-10-23,1,,,,,ナユタ,0
1773,7180001095577,登記記録の閉鎖等,0,2024-07-23,2024-07-04,中部リフォーム株式会社,,株式会社,愛知県,知多郡武豊町,字祠峯２丁目３８番地,00072489,23,447,4702303,,,2024-07-04,清算の結了等,,,2015-10-05,1,,,,,チュウブリフォーム,0
1779,7180002059770,登記記録の閉鎖等,0,2024-07-23,2024-07-04,有限会社新澤運送,,有限会社,愛知県,海部郡大治町,大字東條字砂島２７番地の２,,23,424,4901134,,,2024-07-04,清算の結了等,,,2015-10-05,1,,,,,シンザワウンソウ,0
1781,7180002089644,登記記録の閉鎖等,0,2024-07-23,2024-07-08,水谷鉄工有限会社,,有限会社,愛知県,津島市,大字古川字金前９４番地,,23,208,4960043,,,2024-07-08,清算の結了等,,,2015-10-05,1,,,,,ミズタニテッコウ,0
1800,7270001005535,登記記録の閉鎖等,0,2024-07-23,2024-07-22,株式会社漁師中村,,株式会社,鳥取県,西伯郡大山町,樋口１４１番地,00004269,31,386,6893103,,,2024-07-22,清算の結了等,,,2015-10-05,1,,,,,リョウシナカムラ,0
1802,7280001007902,登記記録の閉鎖等,0,2024-07-23,2024-07-22,株式会社こづち建築,,株式会社,島根県,出雲市,塩冶神前１丁目５番１６号,,32,203,6930024,,,2024-07-22,清算の結了等,,,2019-02-06,1,,,,,,0
1803,7280002000492,登記記録の閉鎖等,0,2024-07-23,2024-07-22,有限会社オフィス・サム,,有限会社,島根県,松江市,浜乃木６丁目１５番１３号,,32,201,6900044,,,2024-07-22,清算の結了等,,,2015-10-05,1,,,,,オフィスサム,0
1804,7280002002968,登記記録の閉鎖等,0,2024-07-23,2024-07-22,有限会社月森電気設備,,有限会社,島根県,松江市,八雲町西岩坂３４０番地５,,32,201,6902103,,,2024-07-22,清算の結了等,,,2015-10-05,1,,,,,,0
1822,7390001012833,登記記録の閉鎖等,0,2024-07-23,2024-07-04,株式会社ＣＯＬＡＢＰＬＡＮ,,株式会社,山形県,山形市,大字松原４２８番地３８,,06,201,9902313,,,2024-07-04,清算の結了等,,,2015-10-05,1,,,,,コラボプラン,0
1832,7420003002300,登記記録の閉鎖等,0,2024-07-23,2024-07-08,合同会社加寿,,合同会社,青森県,弘前市,大字城南４丁目５番地１,,02,202,0368232,,,2024-07-08,清算の結了等,,,2021-04-28,1,,,,,カズ,0
1838,7450001012595,登記記録の閉鎖等,0,2024-07-23,2024-07-16,株式会社サントーシャ,,株式会社,北海道,旭川市,春光七条７丁目５番３５号春光７０７マンション２０２号室,,01,204,0700877,,,2024-07-16,清算の結了等,,,2018-12-20,1,,,,,サントーシャ,0
1839,7450002009707,登記記録の閉鎖等,0,2024-07-23,2024-07-12,有限会社ノースワンフラノ,,有限会社,北海道,富良野市,南麻町６番２号,,01,229,0760052,,,2024-07-12,清算の結了等,,,2015-10-05,1,,,,,,0
1843,7480002015223,登記記録の閉鎖等,0,2024-07-23,2024-07-19,エムエムジー有限会社,,有限会社,徳島県,美馬市,脇町大字猪尻字西分２番地の２,,36,207,7793602,,,2024-07-19,清算の結了等,,,2015-10-05,1,,,,,エムエムジー,0
1865,8010005032550,登記記録の閉鎖等,0,2024-07-23,2024-07-03,一般社団法人ＢＥＡＮＳ,,その他の設立登記法人,東京都,港区,虎ノ門５丁目１番４号,,13,103,1050001,,,2024-07-03,清算の結了等,,,2020-11-13,1,,,,,ビーンズ,0
1877,8010601059006,登記記録の閉鎖等,0,2024-07-23,2024-07-19,りすセンター統括株式会社,,株式会社,東京都,江東区,新木場４丁目６番１３号,,13,108,1360082,,,2024-07-19,合併による解散等,9010601039700,令和６年６月１８日東京都江戸川区中葛西五丁目３９番２号株式会社りすネット（9010601039700）に合併し解散,2021-03-25,1,,,,,リスセンタートウカツ,0
1879,8010603004083,登記記録の閉鎖等,0,2024-07-23,2024-07-16,合資会社ＴＭコミューン,,合資会社,東京都,江東区,大島２丁目９番１０号ノーブル猿江恩賜公園ＷＥＳＴ４０４,,13,108,1360072,,,2024-07-16,清算の結了等,,,2015-10-05,1,,,,,ティーエムコミューン,0
1886,8010901017002,登記記録の閉鎖等,0,2024-07-23,2024-07-12,サティスファクション株式会社,,株式会社,東京都,世田谷区,太子堂４丁目５番３２号,,13,112,1540004,,,2024-07-12,清算の結了等,,,2015-10-05,1,,,,,サティスファクション,0
1892,8010902002093,登記記録の閉鎖等,0,2024-07-23,2024-07-16,有限会社内村工務店,,有限会社,東京都,世田谷区,粕谷４丁目１１番１３号,,13,112,1570063,,,2024-07-16,清算の結了等,,,2015-10-05,1,,,,,ウチムラコウムテン,0
1895,8010903005161,登記記録の閉鎖等,0,2024-07-23,2024-07-16,松原真知子財産管理合同会社,,合同会社,東京都,世田谷区,北沢４丁目２６番１号,,13,112,1550031,,,2024-07-16,清算の結了等,,,2019-08-21,1,,,,,マツバラマチコザイサンカンリ,0
1915,8011702010963,登記記録の閉鎖等,0,2024-07-23,2024-07-11,有限会社丸善製麺,00056712,有限会社,東京都,江戸川区,中葛西８丁目１２番３号,,13,123,1340083,,,2024-07-11,清算の結了等,,,2015-10-05,1,,,,,マルゼンセイメン,0
1919,8011803002050,登記記録の閉鎖等,0,2024-07-23,2024-07-18,鍵猫合同会社,,合同会社,東京都,足立区,谷中１丁目３２番４号,,13,121,1200006,,,2024-07-18,清算の結了等,,,2015-10-05,1,,,,,,0
1931,8020002097595,登記記録の閉鎖等,0,2024-07-23,2024-07-16,有限会社菅野商事,,有限会社,神奈川県,鎌倉市,山ノ内１０７５番地２,,14,204,2470062,,,2024-07-16,清算の結了等,,,2015-10-05,1,,,,,カンノショウジ,0
1969,8050002018359,登記記録の閉鎖等,0,2024-07-23,2024-07-10,有限会社釜八,,有限会社,茨城県,猿島郡境町,７４８番地,,08,546,3060433,,,2024-07-10,清算の結了等,,,2015-10-05,1,,,,,カマハチ,0
1971,8060001032574,登記記録の閉鎖等,0,2024-07-23,2024-07-08,株式会社朝日商事,,株式会社,栃木県,宇都宮市,泉が丘６丁目１１番５号,,09,201,3210952,,,2024-07-08,清算の結了等,,,2020-05-08,1,,,,,アサヒショウジ,0
1984,8080402004872,登記記録の閉鎖等,0,2024-07-23,2024-07-16,有限会社建完,,有限会社,静岡県,浜松市中央区,上島１丁目８番５９号,,22,138,4338122,,,2024-07-16,清算の結了等,,,2015-10-05,1,,,,,タテカン,0
1988,8100001024328,登記記録の閉鎖等,0,2024-07-23,2024-07-03,株式会社スマート・サイン,,株式会社,長野県,長野市,稲里町中央１丁目９番１１号,,20,201,3812217,,,2024-07-03,清算の結了等,,,2015-10-05,1,,,,,スマートサイン,0
1989,8110002026413,登記記録の閉鎖等,0,2024-07-23,2024-07-10,有限会社はたの,,有限会社,新潟県,糸魚川市,大字今村新田７２０番地,,15,216,9490302,,,2024-07-10,清算の結了等,,,2015-10-05,1,,,,,ハタノ,0
2005,8120101005127,登記記録の閉鎖等,0,2024-07-23,2024-07-17,長澤石油株式会社,,株式会社,大阪府,堺市堺区,大仙中町２番１３号,,27,141,5900801,,,2024-07-17,清算の結了等,,,2015-10-05,1,,,,,ナガサワセキユ,0
2010,8130001055592,登記記録の閉鎖等,0,2024-07-23,2024-07-12,株式会社レスポンシブコンサルティング,,株式会社,京都府,京都市左京区,岡崎天王町２４番地４マルベリー岡崎２０２,,26,103,6068335,,,2024-07-12,清算の結了等,,,2015-10-05,1,,,,,レスポンシブコンサルティング,0
2011,8130001060808,登記記録の閉鎖等,0,2024-07-23,2024-07-08,株式会社呂色,,株式会社,東京都,千代田区,神田三崎町２丁目１５－５三崎町ＳＳビル４階,,13,101,1010061,,,2024-07-08,清算の結了等,,,2017-10-24,1,,,,,ロイロ,0
2013,8130002011297,登記記録の閉鎖等,0,2024-07-23,2024-07-12,有限会社西島光正堂,,有限会社,京都府,京都市南区,唐橋羅城門町４０番地,,26,107,6018453,,,2024-07-12,清算の結了等,,,2015-10-05,1,,,,,ニシジマコウセイドウ,0
2016,8140001055906,登記記録の閉鎖等,0,2024-07-23,2024-07-16,株式会社ＧＢ商事,,株式会社,兵庫県,豊岡市,若松町５番４３号,,28,209,6680027,,,2024-07-16,清算の結了等,,,2015-10-05,1,,,,,ジービーショウジ,0
2020,8140003010561,登記記録の閉鎖等,0,2024-07-23,2024-07-12,合同会社アソシエｋｏｂｅ,,合同会社,兵庫県,神戸市西区,狩場台２丁目８番地の９,,28,111,6512272,,,2024-07-12,清算の結了等,,,2015-10-05,1,,,,,アソシエコウベ,0
2021,8160001015577,登記記録の閉鎖等,0,2024-07-23,2024-07-17,株式会社キヤンデイス,,株式会社,滋賀県,野洲市,冨波甲９０３番地１,,25,210,5202351,,,2024-07-17,清算の結了等,,,2015-10-05,1,,,,,キヤンデイス,0
2022,8160005010830,登記記録の閉鎖等,0,2024-07-23,2024-06-19,ＮＰＯ法人ＡＥＳ,,その他の設立登記法人,滋賀県,彦根市,八坂町１８９３番地７１,,25,202,5220057,,,2024-06-19,清算の結了等,,,2020-05-29,1,,,,,エーイーエス,0
2029,8180302024928,登記記録の閉鎖等,0,2024-07-23,2024-07-08,有限会社マルヨ硝子,,有限会社,愛知県,豊田市,小坂町５丁目５６番地１,,23,211,4710035,,,2024-07-08,清算の結了等,,,2015-10-05,1,,,,,マルヨガラス,0
2031,8190002016258,登記記録の閉鎖等,0,2024-07-23,2024-07-19,有限会社渥美工作所,,有限会社,三重県,桑名市,大字播磨２４６３番地,,24,205,5110862,,,2024-07-19,清算の結了等,,,2015-10-05,1,,,,,アツミコウサクショ,0
2036,8200002014078,登記記録の閉鎖等,0,2024-07-23,2024-07-18,有限会社にしみのサービス,,有限会社,岐阜県,大垣市,中野町３丁目４３番地,,21,202,5030022,,,2024-07-18,清算の結了等,,,2015-10-05,1,,,,,ニシミノサービス,0
2041,8210001000037,登記記録の閉鎖等,0,2024-07-23,2024-07-16,株式会社アイシー観光,,株式会社,福井県,福井市,寺前町１８字１２番地,,18,201,9100801,,,2024-07-16,清算の結了等,,,2015-10-05,1,,,,,アイシーカンコウ,0
2056,8280005000910,登記記録の閉鎖等,0,2024-07-23,2024-07-19,天照圓納教,,その他の設立登記法人,島根県,松江市,北田町４９番地,,32,201,6900883,,,2024-07-19,清算の結了等,,,2015-10-05,1,,,,,,0
2059,8290001062755,登記記録の閉鎖等,0,2024-07-23,2024-06-24,株式会社Ｅデンタルラボ,,株式会社,福岡県,糟屋郡志免町,志免１丁目３番３９号,,40,343,8112202,,,2024-06-24,清算の結了等,,,2015-10-05,1,,,,,イーデンタルラボ,0
2062,8290002048992,登記記録の閉鎖等,0,2024-07-23,2024-06-21,有限会社後藤商店,,有限会社,福岡県,久留米市,梅満町２６８番地１の１アーバンルミナス２０６号,,40,203,8300048,,,2024-06-21,清算の結了等,,,2015-10-05,1,,,,,ゴトウショウテン,0
2064,8290801024269,登記記録の閉鎖等,0,2024-07-23,2024-07-05,株式会社マスターズサポート,,株式会社,福岡県,田川市,大字伊田２７３９番地,,40,206,8250002,,,2024-07-05,清算の結了等,,,2018-01-10,1,,,,,マスターズサポート,0
2076,8350002014699,登記記録の閉鎖等,0,2024-07-23,2024-07-10,有限会社花むら,,有限会社,宮崎県,都城市,庄内町１２３０９番地１,,45,202,8850114,,,2024-07-10,清算の結了等,,,2015-10-05,1,,,,,ハナムラ,0
2077,8350002015508,登記記録の閉鎖等,0,2024-07-23,2024-07-10,有限会社赤塚建設,,有限会社,宮崎県,都城市,高崎町大牟田６３１６番地,,45,202,8894505,,,2024-07-10,清算の結了等,,,2015-10-05,1,,,,,アカツカケンセツ,0
2088,8390005004000,登記記録の閉鎖等,0,2024-07-23,2024-07-04,医療法人渡部泌尿器科内科医院,,その他の設立登記法人,山形県,鶴岡市,本町２丁目１６番４号,,06,203,9970034,,,2024-07-04,清算の結了等,,,2015-10-05,1,,,,,ワタナベヒニョウキカナイカイイン,0
2099,8460001003056,登記記録の閉鎖等,0,2024-07-23,2024-07-18,高橋建設株式会社,00090925,株式会社,北海道,厚岸郡厚岸町,光栄２４６番地,,01,662,0881129,,,2024-07-18,清算の結了等,,,2015-10-05,1,,,,,タカハシケンセツ,0
2100,8460102007575,登記記録の閉鎖等,0,2024-07-23,2024-07-19,有限会社サポートひだまり,,有限会社,北海道,帯広市,西十八条南４丁目６０番８号,,01,207,0800028,,,2024-07-19,清算の結了等,,,2015-10-05,1,,,,,サポートヒダマリ,0
2102,8470005005618,登記記録の閉鎖等,0,2024-07-23,2024-07-08,特定非営利活動法人ＨＭＳ,,その他の設立登記法人,香川県,仲多度郡琴平町,五條６２５番地７,,37,403,7660003,,,2024-07-08,清算の結了等,,,2015-10-05,1,,,,,エイチエムエス,0
2116,9010001170691,登記記録の閉鎖等,0,2024-07-23,2024-07-19,株式会社クニ・ケミカル,,株式会社,大阪府,大阪市西区,江戸堀１丁目９番１号,,27,106,5500002,,,2024-07-19,合併による解散等,4010703003039,令和６年７月１日東京都新宿区西新宿二丁目７番１号ＩＭＣＤジャパン合同会社（4010703003039）に合併し解散,2015-10-05,1,,,,,クニケミカル,0
2139,9010601030948,登記記録の閉鎖等,0,2024-07-23,2024-07-18,サイダーパートナーズ株式会社,,株式会社,東京都,江東区,東陽４丁目２番６号,,13,108,1350016,,,2024-07-18,清算の結了等,,,2015-10-05,1,,,,,,0
2140,9010601035451,登記記録の閉鎖等,0,2024-07-23,2024-07-18,株式会社淺野,,株式会社,東京都,江東区,扇橋２丁目５番１０号,,13,108,1350011,,,2024-07-18,清算の結了等,,,2015-10-05,1,,,,,,0
2146,9010701003688,登記記録の閉鎖等,0,2024-07-23,2024-07-16,佐々木産業株式会社,,株式会社,東京都,品川区,大井１丁目４６番２号,,13,109,1400014,,,2024-07-16,清算の結了等,,,2015-10-05,1,,,,,ササキサンギョウ,0
2147,9010701017804,登記記録の閉鎖等,0,2024-07-23,2024-07-19,大勇建設株式会社,,株式会社,東京都,品川区,大井１丁目２３番２号,,13,109,1400014,,,2024-07-19,合併による解散等,9011001042724,令和６年７月１日東京都渋谷区恵比寿西一丁目１２番１４号株式会社エイビス（9011001042724）に合併し解散,2015-10-05,1,,,,,ダイユウケンセツ,0
2150,9010802002779,登記記録の閉鎖等,0,2024-07-23,2024-07-12,有限会社オーディックスコーポレーション,,有限会社,東京都,大田区,久が原３丁目２９番２号,,13,111,1460085,,,2024-07-12,清算の結了等,,,2015-10-05,1,,,,,オーディックスコーポレーション,0
2152,9010802017604,登記記録の閉鎖等,0,2024-07-23,2024-07-09,有限会社松本商会,,有限会社,東京都,大田区,南雪谷２丁目１番７号,,13,111,1450066,,,2024-07-09,清算の結了等,,,2015-10-05,1,,,,,マツモトショウカイ,0
2160,9011001066244,登記記録の閉鎖等,0,2024-07-23,2024-07-02,音工房タック株式会社,,株式会社,神奈川県,川崎市宮前区,有馬３丁目３番８号,,14,136,2160003,,,2024-07-02,清算の結了等,,,2015-10-05,1,,,,,オトコウボウタック,0
2189,9021002064733,登記記録の閉鎖等,0,2024-07-23,2024-07-19,有限会社品川文化堂,,有限会社,神奈川県,横須賀市,大滝町１丁目９番地,,14,201,2380008,,,2024-07-19,清算の結了等,,,2015-10-05,1,,,,,シナガワブンカドウ,0
2215,9040003003491,登記記録の閉鎖等,0,2024-07-23,2024-07-08,合資会社松月呉服店,,合資会社,千葉県,銚子市,松岸町２丁目８３番地の１,,12,202,2880836,,,2024-07-08,清算の結了等,,,2015-10-05,1,,,,,,0
2217,9050001044495,登記記録の閉鎖等,0,2024-07-23,2024-07-11,株式会社スタイルワークス,,株式会社,茨城県,龍ケ崎市,久保台４丁目１番地５ライフヒルズ星の郷西２番館２０２号室,,08,208,3010001,,,2024-07-11,清算の結了等,,,2018-06-06,1,,,,,スタイルワークス,0
2221,9050002039998,登記記録の閉鎖等,0,2024-07-23,2024-07-12,有限会社武藏設備,00023224,有限会社,茨城県,常総市,大崎町１２２番地,,08,211,3030012,,,2024-07-12,清算の結了等,,,2015-10-05,1,,,,,ムサシセツビ,0
2233,9090001014008,登記記録の閉鎖等,0,2024-07-23,2024-07-04,株式会社Ｇａｔｔｙ,,株式会社,愛知県,名古屋市中区,丸の内１丁目５番２６号,,23,106,4600002,,,2024-07-04,清算の結了等,,,2015-10-05,1,,,,,ガッティ,0
2234,9100001017033,登記記録の閉鎖等,0,2024-07-23,2024-07-03,株式会社ハウジングカフェ,,株式会社,長野県,松本市,市場９番７号,,20,202,3990004,,,2024-07-03,清算の結了等,,,2015-10-05,1,,,,,ハウジングカフェ,0
2248,9120002015769,登記記録の閉鎖等,0,2024-07-23,2024-07-19,阪神サンプリング有限会社,,有限会社,大阪府,大阪市港区,築港１丁目７番１８号日本海事検定協会内,,27,107,5520021,,,2024-07-19,清算の結了等,,,2015-10-05,1,,,,,,0
2258,9120902010935,登記記録の閉鎖等,0,2024-07-23,2024-07-18,有限会社二宮マンション,,有限会社,大阪府,高槻市,古曽部町１丁目２５番１０号,,27,207,5691115,,,2024-07-18,清算の結了等,,,2015-10-05,1,,,,,ニノミヤマンション,0
2262,9122003002143,登記記録の閉鎖等,0,2024-07-23,2024-07-18,ウイングス合同会社,,合同会社,大阪府,東大阪市,日下町６丁目５番３６号Ａ１号室,,27,227,5798003,,,2024-07-18,清算の結了等,,,2021-07-28,1,,,,,ウイングス,0
2263,9122005003478,登記記録の閉鎖等,0,2024-07-23,2024-07-18,一般社団法人プレティホム,,その他の設立登記法人,大阪府,八尾市,太田２丁目１７４番地,,27,212,5810037,,,2024-07-18,清算の結了等,,,2020-01-31,1,,,,,プレティホム,0
2271,9140002024000,登記記録の閉鎖等,0,2024-07-23,2024-07-18,有限会社スリーエンジェル,,有限会社,兵庫県,神戸市垂水区,小束山本町２丁目２１番１－１０２号,,28,108,6550003,,,2024-07-18,清算の結了等,,,2015-10-05,1,,,,,スリーエンジェル,0
2284,9180001084306,登記記録の閉鎖等,0,2024-07-23,2024-07-05,ツーオー株式会社,,株式会社,愛知県,一宮市,東五城字中通り西３番地,,23,203,4940008,,,2024-07-05,清算の結了等,,,2015-10-05,1,,,,,ツーオー,0
2285,9180001142154,登記記録の閉鎖等,0,2024-07-23,2024-07-04,Ｔ＆Ｒ株式会社,,株式会社,愛知県,名古屋市東区,主税町２丁目３９ローレルコート主税町１２０１,,23,102,4610018,,,2024-07-04,清算の結了等,,,2020-07-30,1,,,,,トレードアンドリサーチ,0
2288,9180002002019,登記記録の閉鎖等,0,2024-07-23,2024-07-04,有限会社オカ巧芸,,有限会社,愛知県,名古屋市名東区,高針１丁目２１２番地,,23,115,4650061,,,2024-07-04,清算の結了等,,,2015-10-05,1,,,,,オカコウゲイ,0
2292,9180003000715,登記記録の閉鎖等,0,2024-07-23,2024-07-08,合資会社御器所クリーニング店,,合資会社,愛知県,名古屋市昭和区,滝子町１０番９号,,23,107,4660053,,,2024-07-08,清算の結了等,,,2015-10-05,1,,,,,ゴキショクリーニングテン,0
2294,9180301033482,登記記録の閉鎖等,0,2024-07-23,2024-07-11,株式会社Ｒｅｉｇｎ,,株式会社,愛知県,みよし市,黒笹１丁目１番地７ラ・ガールＫＡＴＯＨ３３３号,,23,236,4700231,,,2024-07-11,清算の結了等,,,2020-03-10,1,,,,,レイン,0
2298,9180302019943,登記記録の閉鎖等,0,2024-07-23,2024-07-08,有限会社加藤装備,,有限会社,愛知県,碧南市,権田町１丁目３４番地,,23,209,4470838,,,2024-07-08,清算の結了等,,,2015-10-05,1,,,,,カトウソウビ,0
2314,9230002000644,登記記録の閉鎖等,0,2024-07-23,2024-07-22,有限会社大久保木工所,,有限会社,富山県,富山市,三郷１４番地,,16,201,9390000,,,2024-07-22,清算の結了等,,,2024-02-19,1,,,,,オオクボモッコウショ,0
2324,9290001012346,登記記録の閉鎖等,0,2024-07-23,2024-06-25,九州アサヒ産業株式会社,,株式会社,福岡県,福岡市南区,鶴田４丁目１番２８号,,40,134,8111352,,,2024-06-25,清算の結了等,,,2015-10-05,1,,,,,キュウシュウアサヒサンギョウ,0
2342,9340002002646,登記記録の閉鎖等,0,2024-07-23,2024-07-17,有限会社神村不動産,,有限会社,鹿児島県,鹿児島市,下荒田１丁目９番１６号松田ビル１Ｆ,,46,201,8900056,,,2024-07-17,清算の結了等,,,2015-10-05,1,,,,,カミムラフドウサン,0
2352,9380001005662,登記記録の閉鎖等,0,2024-07-23,2024-07-11,株式会社第一不動産鑑定所,,株式会社,福島県,郡山市,桑野２丁目３１番７号,,07,203,9638025,,,2024-07-11,清算の結了等,,,2015-10-05,1,,,,,ダイイチフドウサンカンテイショ,0
2363,9420001002143,登記記録の閉鎖等,0,2024-07-23,2024-07-10,株式会社ヤマキ木村商店,,株式会社,青森県,青森市,久須志１丁目１番２０号,,02,201,0380013,,,2024-07-10,清算の結了等,,,2015-10-05,1,,,,,ヤマキキムラショウテン,0
2365,9430001031711,登記記録の閉鎖等,0,2024-07-23,2024-07-11,株式会社ＮｅｗｓＴ研究所,,株式会社,北海道,札幌市中央区,南二条東２丁目１６番地,,01,101,0600052,,,2024-07-11,清算の結了等,,,2015-10-05,1,,,,,ニュースティーケンキュウジョ,0
