sequenceNumber,corporateNumber,process,correct,updateDate,changeDate,name,nameImageId,kind,prefectureName,cityName,streetNumber,addressImageId,prefectureCode,cityCode,postCode,addressOutside,addressOutsideImageId,closeDate,closeCause,successorCorporateNumber,changeCause,assignmentDate,latest,enName,enPrefectureName,enCityName,enAddressOutside,furigana,hihyoji
3,1010001248165,新規,0,2024-09-11,2024-09-11,株式会社間下経営相談所,,株式会社,東京都,文京区,本駒込２丁目２８番３０号,,13,105,1130021,,,,,,,2024-09-11,1,,,,,マシモケイエイソウダンジョ,0
4,1010001248181,新規,0,2024-09-11,2024-09-11,株式会社ＯＫコンサルティング,,株式会社,東京都,千代田区,富士見２丁目１０番３－２６１３号,,13,101,1020071,,,,,,,2024-09-11,1,,,,,オーケーコンサルティング,0
5,1010001248198,新規,0,2024-09-11,2024-09-11,酒井総業株式会社,,株式会社,東京都,中央区,日本橋馬喰町１丁目４番１４号,,13,102,1030002,,,,,,,2024-09-11,1,,,,,サカイソウギョウ,0
6,1010001248215,新規,0,2024-09-11,2024-09-11,ＦＤ株式会社,,株式会社,東京都,中央区,晴海１丁目８－８晴海トリトンスクエアオフィスＷ棟４０３,,13,102,1040053,,,,,,,2024-09-11,1,,,,,エフディー,0
7,1010001248231,新規,0,2024-09-11,2024-09-11,株式会社グロースアクセラレーター,,株式会社,東京都,千代田区,神田須田町１丁目７番８号ＶＯＲＴ秋葉原ＩＶ２Ｆ,00136258,13,101,1010041,,,,,,,2024-09-11,1,,,,,グロースアクセラレーター,0
9,1010003044777,新規,0,2024-09-11,2024-09-11,宮島開発合同会社,,合同会社,東京都,千代田区,永田町２丁目１７番５号,,13,101,1000014,,,,,,,2024-09-11,1,,,,,ミヤジマカイハツ,0
30,1010401185009,新規,0,2024-09-11,2024-09-11,株式会社サウンド＆ヴィジョンテクノロジーズ,,株式会社,東京都,港区,南青山３丁目１番３６号青山丸竹ビル６階,,13,103,1070062,,,,,,,2024-09-11,1,,,,,サウンドアンドヴィジョンテクノロジーズ,0
41,1010501052892,新規,0,2024-09-11,2024-09-11,株式会社三羽,,株式会社,東京都,台東区,上野６丁目７番７号,,13,106,1100005,,,,,,,2024-09-11,1,,,,,ミハネ,0
46,1010601065902,新規,0,2024-09-11,2024-09-11,リックキッズグループ株式会社,,株式会社,東京都,江東区,東陽３丁目２３番２４号ＶＯＲＴ東陽町ビル８Ｆ,,13,108,1350016,,,,,,,2024-09-11,1,,,,,リックキッズグループ,0
48,1010603011078,新規,0,2024-09-11,2024-09-11,合同会社マリン,,合同会社,東京都,墨田区,江東橋３丁目７番９号ＣＤビル２階,,13,107,1300022,,,,,,,2024-09-11,1,,,,,マリン,0
53,1010901055974,新規,0,2024-09-11,2024-09-11,株式会社ＬＵＮＬＥ　ＨＯＵＳＥ,,株式会社,東京都,世田谷区,北烏山１丁目３０番５号１０１,,13,112,1570061,,,,,,,2024-09-11,1,,,,,ルナールハウス,0
58,1011001164625,新規,0,2024-09-11,2024-09-11,株式会社ノークス,,株式会社,東京都,渋谷区,神南１丁目５番６号,,13,113,1500041,,,,,,,2024-09-11,1,,,,,ノークス,0
59,1011003020000,新規,0,2024-09-11,2024-09-11,合同会社ブルーオーシャン,,合同会社,東京都,渋谷区,神宮前６丁目２３番４号桑野ビル２階,,13,113,1500001,,,,,,,2024-09-11,1,,,,,ブルーオーシャン,0
60,1011003020009,新規,0,2024-09-11,2024-09-11,合同会社イノウエ企画,,合同会社,東京都,目黒区,駒場３丁目５番８号ＥＸＡＭ駒場東大前４０３,,13,110,1530041,,,,,,,2024-09-11,1,,,,,イノウエキカク,0
63,1011101108630,新規,0,2024-09-11,2024-09-11,株式会社キャンリブ,,株式会社,東京都,新宿区,富久町１５番１－１６１０号,,13,104,1620067,,,,,,,2024-09-11,1,,,,,キャンリブ,0
65,1011103014918,新規,0,2024-09-11,2024-09-11,合同会社ＴＵ３６,,合同会社,東京都,新宿区,四谷２丁目９番地１５東京ユナイテッド綜合事務所内,,13,104,1600004,,,,,,,2024-09-11,1,,,,,ティーユーサンジュウロク,0
69,1011401026417,新規,0,2024-09-11,2024-09-11,株式会社ジンフリー,,株式会社,東京都,板橋区,大和町２３番１３号,,13,119,1730012,,,,,,,2024-09-11,1,,,,,ジンフリー,0
75,1011603004451,新規,0,2024-09-11,2024-09-11,ブルー・アンド合同会社,,合同会社,東京都,練馬区,栄町６番１６号第２江古田マンション２０１,,13,120,1760006,,,,,,,2024-09-11,1,,,,,ブルーアンド,0
81,1012801023458,新規,0,2024-09-11,2024-09-11,栗原総業株式会社,,株式会社,東京都,武蔵村山市,三ツ藤１丁目８番地の１７,,13,223,2080021,,,,,,,2024-09-11,1,,,,,クリハラソウギョウ,0
95,1020003026857,新規,0,2024-09-11,2024-09-11,ＣＥＶＵ　ＤＥＳＩＧＮ　ＳＴＵＤＩＯ合同会社,,合同会社,神奈川県,川崎市中原区,今井上町１０番１－８４２号ガーデンティアラ武蔵小杉,,14,133,2110067,,,,,,,2024-09-11,1,,,,,セブデザインスタジオ,0
96,1020003026865,新規,0,2024-09-11,2024-09-11,東横材料応用合同会社,,合同会社,神奈川県,横浜市瀬谷区,阿久和西２丁目２５番２,,14,114,2460025,,,,,,,2024-09-11,1,,,,,トウヨコザイリョウオウヨウ,0
97,1020003026873,新規,0,2024-09-11,2024-09-11,合同会社ＤＥＳＡＫＩ,,合同会社,神奈川県,横浜市泉区,岡津町２１３３番地１,,14,116,2450003,,,,,,,2024-09-11,1,,,,,デサキ,0
108,1030001162249,新規,0,2024-09-11,2024-09-11,株式会社ＪＹＱ,,株式会社,埼玉県,蕨市,南町４丁目２７番５号,,11,223,3350003,,,,,,,2024-09-11,1,,,,,ジェイワイキュー,0
109,1030001162447,新規,0,2024-09-11,2024-09-11,株式会社木舎屋,,株式会社,埼玉県,深谷市,宿根６４１番地５,,11,218,3660810,,,,,,,2024-09-11,1,,,,,キオクヤ,0
121,1040001135344,新規,0,2024-09-11,2024-09-11,ありおかコンサルティング株式会社,,株式会社,千葉県,千葉市中央区,富士見１丁目１４番１３号千葉大栄ビル８Ｆ,,12,101,2600015,,,,,,,2024-09-11,1,,,,,アリオカコンサルティング,0
122,1040001135352,新規,0,2024-09-11,2024-09-11,株式会社１８,,株式会社,千葉県,浦安市,猫実５丁目２番１号,,12,227,2790004,,,,,,,2024-09-11,1,,,,,ジュウハチ,0
123,1040001135369,新規,0,2024-09-11,2024-09-11,株式会社超,,株式会社,千葉県,流山市,木１丁目２０番地の１１,,12,220,2700162,,,,,,,2024-09-11,1,,,,,チョウ,0
130,1040003025774,新規,0,2024-09-11,2024-09-11,合同会社紅翔,,合同会社,千葉県,袖ケ浦市,蔵波台６丁目３３番地４,,12,229,2990245,,,,,,,2024-09-11,1,,,,,コウショウ,0
131,1040003025782,新規,0,2024-09-11,2024-09-11,合同会社ＴｒａｎＳｐｏｔ,,合同会社,千葉県,市川市,高谷１丁目１３番９ー２０１号（ラディアフラッツ）,,12,203,2720013,,,,,,,2024-09-11,1,,,,,トランスポット,0
132,1040005022497,新規,0,2024-09-11,2024-09-11,ＮＰＯ法人ウォーキングフットボール振興会,,その他の設立登記法人,千葉県,市川市,南八幡２丁目１７番５号,,12,203,2720023,,,,,,,2024-09-11,1,,,,,ウォーキングフットボールシンコウカイ,0
135,1060001037456,新規,0,2024-09-11,2024-09-11,株式会社ＯＭＯＤＡＫＡ,,株式会社,栃木県,小山市,大字網戸７９１番地４,,09,208,3290215,,,,,,,2024-09-11,1,,,,,オモダカ,0
136,1060003005238,新規,0,2024-09-11,2024-09-11,合同会社Ｄａｎｕ　Ｓｏｌｕｔｉｏｎｓ,,合同会社,栃木県,足利市,田中町９２０－９－１０１,,09,202,3260822,,,,,,,2024-09-11,1,,,,,ダヌソリューションズ,0
173,1120001268383,新規,0,2024-09-11,2024-09-11,三益建築設計株式会社,,株式会社,大阪府,大阪市大正区,三軒家西３丁目４番１６号中山ビル４０６Ａ,,27,108,5510001,,,,,,,2024-09-11,1,,,,,サンエキケンチクセッケイ,0
174,1120001268466,新規,0,2024-09-11,2024-09-11,株式会社ＳＴＥＥＬ　ＮＥＳＴ　ＳＸ,,株式会社,大阪府,大阪市中央区,西心斎橋１丁目１３番１５号,,27,128,5420086,,,,,,,2024-09-11,1,,,,,スティールネストエスエックス,0
178,1120003027507,新規,0,2024-09-11,2024-09-11,合同会社ＫＲ企画,,合同会社,大阪府,大阪市北区,堂島２丁目４番４－１８０５号,,27,127,5300003,,,,,,,2024-09-11,1,,,,,ケイアールキカク,0
179,1120003027515,新規,0,2024-09-11,2024-09-11,ＮＩＮＨ　ＡＮＨ合同会社,,合同会社,大阪府,大阪市西成区,花園北２丁目１０番１０号,,27,122,5570016,,,,,,,2024-09-11,1,,,,,ニンアン,0
185,1120101070276,新規,0,2024-09-11,2024-09-11,ＮＵＯＪ医療技術株式会社,,株式会社,大阪府,泉佐野市,高松北２丁目３番２７－６１１号,,27,213,5980011,,,,,,,2024-09-11,1,,,,,エヌユーオージェイイリョウギジュツ,0
187,1120901049767,新規,0,2024-09-11,2024-09-11,株式会社エレＱＣ,,株式会社,大阪府,茨木市,主原町６番１－１０２号,,27,211,5670897,,,,,,,2024-09-11,1,,,,,エレキューシー,0
192,1130001077916,新規,0,2024-09-11,2024-09-11,株式会社Ｙ’ｚ　Ｃｏｍｐａｎｙ,,株式会社,京都府,京都市伏見区,久我御旅町３番地２１,,26,109,6128493,,,,,,,2024-09-11,1,,,,,ワイズカンパニー,0
193,1130003009842,新規,0,2024-09-11,2024-09-11,合同会社キッコジー,,合同会社,京都府,向日市,寺戸町八反田１３番地の１グローバル洛西口１０１号,,26,208,6170002,,,,,,,2024-09-11,1,,,,,キッコジー,0
194,1130005017174,新規,0,2024-09-11,2024-09-11,一般社団法人みやこ子ども家庭福祉会,,その他の設立登記法人,京都府,京都市下京区,七条御所ノ内中町６４－１,,26,106,6008862,,,,,,,2024-09-11,1,,,,,ミヤココドモカテイフクシカイ,0
198,1140001135763,新規,0,2024-09-11,2024-09-11,ＦＰ６５株式会社,,株式会社,兵庫県,西宮市,津門仁辺町２－１フローラルＩ３０１,00136257,28,204,6638246,,,,,,,2024-09-11,1,,,,,エフピーロッコウ,0
199,1140001135771,新規,0,2024-09-11,2024-09-11,株式会社住田商店東店,,株式会社,兵庫県,加古川市,平岡町高畑１５７番地の１,,28,210,6750103,,,,,,,2024-09-11,1,,,,,スミダショウテンヒガシテン,0
202,1140003021061,新規,0,2024-09-11,2024-09-11,Ｊ＆Ｈ合同会社,,合同会社,兵庫県,西宮市,千歳町１番１２－５０８号,,28,204,6620046,,,,,,,2024-09-11,1,,,,,ジェイアンドエイチ,0
203,1140003021078,新規,0,2024-09-11,2024-09-11,合同会社北摂中央企画,,合同会社,兵庫県,川西市,小花１丁目９番１号あさのビル２階,,28,217,6660015,,,,,,,2024-09-11,1,,,,,ホクセツチュウオウキカク,0
206,1150003003364,新規,0,2024-09-11,2024-09-11,田中通信合同会社,,合同会社,奈良県,生駒郡三郷町,東信貴ケ丘３丁目４－６０,,29,343,6360803,,,,,,,2024-09-11,1,,,,,タナカツウシン,0
207,1170001018305,新規,0,2024-09-11,2024-09-11,株式会社理陽,,株式会社,和歌山県,和歌山市,西小二里３丁目３番３０号３０３号,,30,201,6410031,,,,,,,2024-09-11,1,,,,,リヨウ,0
214,1180001163091,新規,0,2024-09-11,2024-09-11,株式会社誠,,株式会社,愛知県,春日井市,藤山台１丁目４番地２（１１６号棟４０５号室）,,23,206,4870035,,,,,,,2024-09-11,1,,,,,マコト,0
215,1180001163216,新規,0,2024-09-11,2024-09-11,株式会社ＭＯＬＤ　ＷＡＹ　ＪＡＰＡＮ,,株式会社,愛知県,稲沢市,井之口大坪町７４番地シャトレ愛松稲沢ＩＩＩ－７０２,00136270,23,220,4928164,,,,,,,2024-09-11,1,,,,,モールドウェイジャパン,0
227,1200001042912,新規,0,2024-09-11,2024-09-11,株式会社幸江,,株式会社,岐阜県,各務原市,蘇原希望町４丁目４番地３,,21,213,5040829,,,,,,,2024-09-11,1,,,,,サチエ,0
241,1290001107244,新規,0,2024-09-11,2024-09-11,明和ソリューション株式会社,,株式会社,福岡県,太宰府市,観世音寺５丁目１４番４２号,,40,221,8180101,,,,,,,2024-09-11,1,,,,,メイワソリューション,0
242,1290001107252,新規,0,2024-09-11,2024-09-11,株式会社ＤＯＣ　ｆ．ｃ．,,株式会社,福岡県,福岡市早良区,西新３丁目１１番２７号,,40,137,8140002,,,,,,,2024-09-11,1,,,,,ディーオーシーエフシー,0
243,1290001107260,新規,0,2024-09-11,2024-09-11,株式会社Ｕ‐Ｔｅｃｈ‐Ｍｏｔｏｒｓ,,株式会社,福岡県,筑後市,大字庄島６４７番地,,40,211,8330043,,,,,,,2024-09-11,1,,,,,ユーテックモータース,0
251,1300001013903,新規,0,2024-09-11,2024-09-11,株式会社モントディダンス,,株式会社,佐賀県,鳥栖市,弥生が丘５丁目２７７番地,,41,203,8410005,,,,,,,2024-09-11,1,,,,,モントディダンス,0
252,1300003002177,新規,0,2024-09-11,2024-09-11,モロオカ商店合同会社,,合同会社,佐賀県,佐賀市,本庄町大字本庄８１８番地１,,41,201,8400027,,,,,,,2024-09-11,1,,,,,モロオカショウテン,0
256,1330001032454,新規,0,2024-09-11,2024-09-11,株式会社Ｓｕｎ　Ｆｏｒｅｓｔ,,株式会社,熊本県,熊本市北区,武蔵ケ丘９丁目６番８２号,,43,105,8618001,,,,,,,2024-09-11,1,,,,,サンフォレスト,0
257,1330003010557,新規,0,2024-09-11,2024-09-11,合同会社ｎｕｉ．,,合同会社,熊本県,玉名市,築地１９８２番地１,,43,206,8650065,,,,,,,2024-09-11,1,,,,,ヌイ,0
262,1360001034183,新規,0,2024-09-11,2024-09-11,株式会社泊総合開発,,株式会社,沖縄県,那覇市,泊１丁目４番地８号,,47,201,9000012,,,,,,,2024-09-11,1,,,,,トマリソウゴウカイハツ,0
265,1370001051715,新規,0,2024-09-11,2024-09-11,株式会社ＮＫＣ,,株式会社,宮城県,仙台市青葉区,一番町１丁目１６－２３,,04,101,9800811,,,,,,,2024-09-11,1,,,,,エヌケーシー,0
273,1430001092661,新規,0,2024-09-11,2024-09-11,株式会社剛健サプライ,,株式会社,北海道,札幌市東区,北四十八条東７丁目１番１０号,,01,103,0070848,,,,,,,2024-09-11,1,,,,,ゴウケンサプライ,0
276,1430003016775,新規,0,2024-09-11,2024-09-11,合同会社ジェーリンク,,合同会社,北海道,札幌市手稲区,手稲本町二条４丁目４番３０－３０５号,,01,109,0060022,,,,,,,2024-09-11,1,,,,,ジェーリンク,0
282,1700150127125,新規,0,2024-09-11,2024-09-11,ｘｉａｍｅｎｙｏｕｚｈｉｑｉｎｇｎｉａｎｄｉａｎｚｉｓｈａｎｇｗｕｙｏｕｘｉａｎｇｏｎｇｓｉ,,外国会社等,,,,,,,,２２８，Ｆｌｏｏｒ　４，Ｕｎｉｔ　０２，Ｎｏ．４５，Ｓｅａ　Ｓｏｕｔｈ　Ｒｏａｄ　Ｆｒｅｅ　Ｔｒａｄｅ　Ｚｏｎｅ　Ｘｉａｍｅｎ　Ｆｕｊｉａｎ　３６１０２１　ＣＮ,,,,,,2024-09-11,1,,,,,シャアメンヨウジーチンニェンディエンズーシャンウヨウシェンゴンスー,0
288,2010001248164,新規,0,2024-09-11,2024-09-11,株式会社ＳＫＹＬＩＮＥ,,株式会社,東京都,千代田区,平河町１丁目９番１号メゾン平河町３０１号室,,13,101,1020093,,,,,,,2024-09-11,1,,,,,スカイライン,0
294,2010003044818,新規,0,2024-09-11,2024-09-11,ＨＬＢ２０号合同会社,,合同会社,東京都,千代田区,霞が関３丁目２番５号,,13,101,1000013,,,,,,,2024-09-11,1,,,,,エイチエルビーニジュウゴウ,0
295,2010003044867,新規,0,2024-09-11,2024-09-11,合同会社ＷＳ,,合同会社,東京都,中央区,日本橋室町１丁目１１番１２号日本橋水野ビル７階,,13,102,1030022,,,,,,,2024-09-11,1,,,,,ダブリューエス,0
296,2010003044875,新規,0,2024-09-11,2024-09-11,合同会社Ｔｏｋｙｏ　ＳＥＯ　Ｗｉｚａｒｄ,,合同会社,東京都,中央区,銀座１丁目１２－４Ｎ＆ＥＢＬＤ．７,,13,102,1040061,,,,,,,2024-09-11,1,,,,,トーキョーエスイーオーウィザード,0
297,2010003044883,新規,0,2024-09-11,2024-09-11,合同会社雲孫,,合同会社,東京都,千代田区,神田須田町１丁目７番８号ＶＯＲＴ秋葉原ＩＶ２Ｆ,00136259,13,101,1010041,,,,,,,2024-09-11,1,,,,,ウンソン,0
308,2010405023519,新規,0,2024-09-11,2024-09-11,弁護士法人ジェノア法律事務所,,その他の設立登記法人,東京都,港区,南青山２丁目２２番１７号１１階,,13,103,1070062,,,,,,,2024-09-11,1,,,,,ジェノアホウリツジムショ,0
310,2010501052859,新規,0,2024-09-11,2024-09-11,ＳＴＦ株式会社,,株式会社,東京都,台東区,柳橋２丁目１６－１８柳橋ビル１０１室,,13,106,1110052,,,,,,,2024-09-11,1,,,,,エスティーエフ,0
311,2010501052891,新規,0,2024-09-11,2024-09-11,株式会社ＤＵＯ,,株式会社,東京都,台東区,西浅草２丁目２５番７号ＣＳ浅草ビル３Ｆ,,13,106,1110035,,,,,,,2024-09-11,1,,,,,デュオ,0
315,2010701046504,新規,0,2024-09-11,2024-09-11,やさいジョブ株式会社,,株式会社,東京都,品川区,大井１丁目４７－１ＮＴビル８階,,13,109,1400014,,,,,,,2024-09-11,1,,,,,ヤサイジョブ,0
317,2010901055965,新規,0,2024-09-11,2024-09-11,高輪メディカルデータバンク株式会社,,株式会社,東京都,世田谷区,代田４丁目３２番７号,,13,112,1550033,,,,,,,2024-09-11,1,,,,,タカナワメディカルデータバンク,0
318,2010901055973,新規,0,2024-09-11,2024-09-11,株式会社ワイズ,,株式会社,東京都,世田谷区,玉川台２丁目８番５号,,13,112,1580096,,,,,,,2024-09-11,1,,,,,ワイズ,0
327,2011001164500,新規,0,2024-09-11,2024-09-11,株式会社ＮＯＡＨ　ｃａｐｉｔａｌ　ｍａｎａｇｅｍｅｎｔ,,株式会社,東京都,渋谷区,恵比寿西２丁目４番８号ウィンド恵比寿ビル８Ｆ,,13,113,1500021,,,,,,,2024-09-11,1,,,,,ノアキャピタルマネジメント,0
328,2011001164509,新規,0,2024-09-11,2024-09-11,株式会社ＡＤＮＥＳＳ,,株式会社,東京都,渋谷区,神宮前６丁目７番３号ネスト原宿パートＩＩ３０１号室,00136264,13,113,1500001,,,,,,,2024-09-11,1,,,,,アドネス,0
329,2011001164632,新規,0,2024-09-11,2024-09-11,株式会社ｐｕｅｒｉｓｏｍｎｉａ,,株式会社,東京都,渋谷区,道玄坂１丁目１０番８号渋谷道玄坂東急ビル２Ｆ‐Ｃ,,13,113,1500043,,,,,,,2024-09-11,1,,,,,プエリソムニア,0
330,2011001164640,新規,0,2024-09-11,2024-09-11,株式会社ＬｅａｐＡＩ,,株式会社,東京都,渋谷区,円山町５番５号Ｎａｖｉ渋谷Ｖ３階,,13,113,1500044,,,,,,,2024-09-11,1,,,,,リープエーアイ,0
331,2011001164649,新規,0,2024-09-11,2024-09-11,ｘｔｏ株式会社,,株式会社,東京都,渋谷区,代々木１丁目３０番１５号天翔代々木ビル１階Ｓ１０９,,13,113,1510053,,,,,,,2024-09-11,1,,,,,クロストゥー,0
332,2011003019958,新規,0,2024-09-11,2024-09-11,ＳＨＯＰＩＸ合同会社,,合同会社,東京都,渋谷区,道玄坂１丁目１０番８号渋谷道玄坂東急ビル２Ｆ‐Ｃ,,13,113,1500043,,,,,,,2024-09-11,1,,,,,ショッピックス,0
333,2011003019982,新規,0,2024-09-11,2024-09-11,合同会社ＧＯＡＴ,,合同会社,東京都,渋谷区,広尾２丁目３番５号,,13,113,1500012,,,,,,,2024-09-11,1,,,,,ジーオーエイティー,0
334,2011003019990,新規,0,2024-09-11,2024-09-11,合同会社ＲｉＮ,,合同会社,東京都,目黒区,目黒２丁目１０番１８－１００２号,,13,110,1530063,,,,,,,2024-09-11,1,,,,,リン,0
339,2011101108729,新規,0,2024-09-11,2024-09-11,ブレインＡＩジャパン株式会社,,株式会社,東京都,新宿区,喜久井町６２番地３－３１０号,,13,104,1620044,,,,,,,2024-09-11,1,,,,,ブレインエーアイジャパン,0
341,2011103014917,新規,0,2024-09-11,2024-09-11,合同会社ＴＵ３５,,合同会社,東京都,新宿区,四谷２丁目９番地１５東京ユナイテッド綜合事務所内,,13,104,1600004,,,,,,,2024-09-11,1,,,,,ティーユーサンジュウゴ,0
349,2011601028047,新規,0,2024-09-11,2024-09-11,エイキョー株式会社,,株式会社,東京都,練馬区,東大泉７丁目１２番３８号,,13,120,1780063,,,,,,,2024-09-11,1,,,,,エイキョー,0
352,2011801044819,新規,0,2024-09-11,2024-09-11,株式会社ＺｉＺｉｙ,,株式会社,東京都,葛飾区,白鳥３丁目３１番６号,,13,122,1250063,,,,,,,2024-09-11,1,,,,,ジジー,0
356,2012405005042,新規,0,2024-09-11,2024-09-11,労働者協同組合ワーカーズ・コレクティブＲａｉｎｂｏｗ,,その他の設立登記法人,東京都,調布市,国領町３丁目３番地５ＫＣプレイス１Ｆ,,13,208,1820022,,,,,,,2024-09-11,1,,,,,ワーカーズコレクティブレインボー,0
359,2012703003086,新規,0,2024-09-11,2024-09-11,合同会社ベースマネジメント,,合同会社,東京都,東久留米市,神宝町１丁目４番１０号,,13,222,2030002,,,,,,,2024-09-11,1,,,,,ベースマネジメント,0
360,2012801023449,新規,0,2024-09-11,2024-09-11,Ｓ＆Ｄフィナンシャルサービス株式会社,,株式会社,東京都,立川市,緑町３番地１Ｅ１,,13,202,1900014,,,,,,,2024-09-11,1,,,,,エスアンドディーフィナンシャルサービス,0
371,2020001159039,新規,0,2024-09-11,2024-09-11,株式会社光商事,,株式会社,神奈川県,川崎市川崎区,京町２丁目４番１９－３号,,14,131,2100848,,,,,,,2024-09-11,1,,,,,ヒカリショウジ,0
375,2020003026864,新規,0,2024-09-11,2024-09-11,合同会社エースコーポレーション,,合同会社,神奈川県,横浜市鶴見区,馬場１丁目９番４号,,14,101,2300076,,,,,,,2024-09-11,1,,,,,エースコーポレーション,0
378,2021001083170,新規,0,2024-09-11,2024-09-11,株式会社志村樹脂,,株式会社,神奈川県,伊勢原市,上粕屋２２６番地の５,,14,214,2591141,,,,,,,2024-09-11,1,,,,,シムラジュシ,0
379,2021001083212,新規,0,2024-09-11,2024-09-11,株式会社Ｉｎｉｔｉａｌ,,株式会社,神奈川県,藤沢市,藤沢５７２番地の７ＬａｊｏｌｌａＦｕｊｉｓａｗａ７０１,,14,205,2510052,,,,,,,2024-09-11,1,,,,,イニシャル,0
380,2021001083220,新規,0,2024-09-11,2024-09-11,株式会社ｄ・ｔ,,株式会社,神奈川県,秦野市,菖蒲５８番地の４３,,14,211,2591332,,,,,,,2024-09-11,1,,,,,ドット,0
383,2021003014999,新規,0,2024-09-11,2024-09-11,ＡＮ合同会社,,合同会社,神奈川県,相模原市中央区,田名１９０３番地２０,,14,152,2520244,,,,,,,2024-09-11,1,,,,,アン,0
386,2030001162446,新規,0,2024-09-11,2024-09-11,株式会社ｋｉｎｄｎｅｓｓ,,株式会社,埼玉県,川口市,前川３丁目４５番２５号,,11,203,3330842,,,,,,,2024-09-11,1,,,,,カインドネス,0
394,2030003025080,新規,0,2024-09-11,2024-09-11,合同会社エムシード,,合同会社,埼玉県,さいたま市中央区,上峰２丁目１９番２号,,11,105,3380014,,,,,,,2024-09-11,1,,,,,エムシード,0
402,2040001135368,新規,0,2024-09-11,2024-09-11,株式会社ＡＩ‐ＴＲＡＤＩＮＧ,,株式会社,千葉県,八街市,沖９７５,,12,230,2891126,,,,,,,2024-09-11,1,,,,,エーアイトレーディング,0
411,2060001037455,新規,0,2024-09-11,2024-09-11,株式会社蘇中アンテナ,,株式会社,栃木県,宇都宮市,東宿郷４丁目２－２０,,09,201,3210953,,,,,,,2024-09-11,1,,,,,ソチュウアンテナ,0
412,2060003005237,新規,0,2024-09-11,2024-09-11,合同会社ｋｉｉｔａなすまち,,合同会社,栃木県,那須郡那須町,大字富岡７７８－３,,09,407,3293212,,,,,,,2024-09-11,1,,,,,キータナスマチ,0
413,2070001042116,新規,0,2024-09-11,2024-09-11,株式会社オーワン,,株式会社,群馬県,高崎市,沖町１０３番地,,10,202,3700086,,,,,,,2024-09-11,1,,,,,オーワン,0
414,2070001042173,新規,0,2024-09-11,2024-09-11,株式会社ＳＥＩＷＡ,,株式会社,群馬県,渋川市,有馬１６５７番地２,,10,208,3770005,,,,,,,2024-09-11,1,,,,,セイワ,0
415,2070003005574,新規,0,2024-09-11,2024-09-11,はがねや合同会社,,合同会社,群馬県,前橋市,上泉町１８０１番地２,,10,201,3710007,,,,,,,2024-09-11,1,,,,,ハガネヤ,0
431,2120001268457,新規,0,2024-09-11,2024-09-11,株式会社ｇｏｏｄ,,株式会社,大阪府,枚方市,高田１丁目１－６３,,27,210,5730073,,,,,,,2024-09-11,1,,,,,グッド,0
432,2120001268465,新規,0,2024-09-11,2024-09-11,東華株式会社,,株式会社,大阪府,大阪市中央区,内久宝寺町４丁目１－１９リンクスタイル中央ビル２階,,27,128,5400013,,,,,,,2024-09-11,1,,,,,トウカ,0
433,2120001268498,新規,0,2024-09-11,2024-09-11,株式会社Ｌｅｉｎｓ,,株式会社,大阪府,大阪市中央区,南久宝寺町２丁目３番６号Ｙｏｎｅｚａｗａ船場ビル６０１,,27,128,5410058,,,,,,,2024-09-11,1,,,,,レインズ,0
434,2120001268515,新規,0,2024-09-11,2024-09-11,ネクストイノベーション燕株式会社,,株式会社,大阪府,大阪市港区,池島１丁目２－１６－２Ｆ,,27,107,5520015,,,,,,,2024-09-11,1,,,,,ネクストイノベーションエン,0
435,2120003027472,新規,0,2024-09-11,2024-09-11,合同会社Ｅｘｉｔｏ,,合同会社,大阪府,寝屋川市,対馬江西町１５番３号,,27,215,5720065,,,,,,,2024-09-11,1,,,,,エキスト,0
436,2120003027514,新規,0,2024-09-11,2024-09-11,ワールドネクストデザイン合同会社,,合同会社,大阪府,大阪市中央区,島之内１丁目１６－１８ブルーノ長堀１階,,27,128,5420082,,,,,,,2024-09-11,1,,,,,ワールドネクストデザイン,0
437,2120003027530,新規,0,2024-09-11,2024-09-11,合同会社ＨＵＧ,,合同会社,大阪府,大阪市北区,梅田１丁目２番２号大阪駅前第２ビル１２‐１２,,27,127,5300001,,,,,,,2024-09-11,1,,,,,ハグ,0
441,2120101070267,新規,0,2024-09-11,2024-09-11,株式会社ＫＡＭＡＫＵＲＡ,,株式会社,大阪府,堺市北区,新金岡町５丁７番３１２号,,27,146,5918021,,,,,,,2024-09-11,1,,,,,カマクラ,0
442,2120101070275,新規,0,2024-09-11,2024-09-11,株式会社ひとは,,株式会社,大阪府,泉佐野市,大西１丁目１７－４コワーキング＆シェアオフィスＣＯＭＭＵＮＥ,,27,213,5980043,,,,,,,2024-09-11,1,,,,,ヒトハ,0
446,2120103006046,新規,0,2024-09-11,2024-09-11,Ａｃｔｉｖｅ　Ｄｒｉｖｅ合同会社,,合同会社,大阪府,羽曳野市,島泉７丁目１０番１６号,,27,222,5830881,,,,,,,2024-09-11,1,,,,,アクティブドライブ,0
453,2130001077840,新規,0,2024-09-11,2024-09-11,株式会社京弥栄,,株式会社,京都府,京都市中京区,二条通柳馬場東入晴明町６７０番地７,,26,104,6040951,,,,,,,2024-09-11,1,,,,,キョウイヤサカ,0
454,2130001077898,新規,0,2024-09-11,2024-09-11,株式会社ＨＩＪＩ３,,株式会社,京都府,京都市中京区,西ノ京西中合町３９番地１チェルシーハウス３０３,,26,104,6048441,,,,,,,2024-09-11,1,,,,,ヒジスリー,0
455,2130001077915,新規,0,2024-09-11,2024-09-11,株式会社グランマーレ,,株式会社,京都府,京都市上京区,一条通新町西入元真如堂町３７４番地２グランマーレ御所西２０１号,,26,102,6020926,,,,,,,2024-09-11,1,,,,,グランマーレ,0
460,2140001135754,新規,0,2024-09-11,2024-09-11,株式会社Ｒａｙ,,株式会社,兵庫県,尼崎市,西本町３丁目５番地,,28,202,6600874,,,,,,,2024-09-11,1,,,,,レイ,0
461,2140001135762,新規,0,2024-09-11,2024-09-11,株式会社ヤマト,,株式会社,兵庫県,高砂市,阿弥陀町阿弥陀８１８番地の２,,28,216,6760827,,,,,,,2024-09-11,1,,,,,ヤマト,0
462,2140001135779,新規,0,2024-09-11,2024-09-11,株式会社セブンオー,,株式会社,兵庫県,西宮市,上甲子園４丁目３番４号,,28,204,6638114,,,,,,,2024-09-11,1,,,,,セブンオー,0
472,2180001163173,新規,0,2024-09-11,2024-09-11,株式会社丸善スクエア,,株式会社,愛知県,名古屋市名東区,大針２丁目５３番地の２,,23,115,4650064,,,,,,,2024-09-11,1,,,,,マルゼンスクエア,0
473,2180001163215,新規,0,2024-09-11,2024-09-11,株式会社オリーブ,,株式会社,愛知県,丹羽郡大口町,高橋２丁目１４４番地,,23,361,4800131,,,,,,,2024-09-11,1,,,,,オリーブ,0
474,2180001163231,新規,0,2024-09-11,2024-09-11,ゴトウアンドカンパニー株式会社,,株式会社,愛知県,名古屋市中区,丸の内２丁目１８番２２号三博ビル２階,,23,106,4600002,,,,,,,2024-09-11,1,,,,,ゴトウアンドカンパニー,0
476,2180003027327,新規,0,2024-09-11,2024-09-11,合同会社ＳＣ,,合同会社,愛知県,あま市,甚目寺権現１１１番地６,,23,237,4901111,,,,,,,2024-09-11,1,,,,,エスシー,0
477,2180005020759,新規,0,2024-09-11,2024-09-11,一般財団法人愛知大学野球連盟,,その他の設立登記法人,愛知県,名古屋市瑞穂区,北原町２丁目１９番地サン・ヴィラ北原１０２,,23,108,4670811,,,,,,,2024-09-11,1,,,,,アイチダイガクヤキュウレンメイ,0
484,2200001042911,新規,0,2024-09-11,2024-09-11,株式会社フォレストプラス,,株式会社,岐阜県,中津川市,茄子川１３２番地の７,,21,206,5099132,,,,,,,2024-09-11,1,,,,,フォレストプラス,0
486,2200003006501,新規,0,2024-09-11,2024-09-11,合同会社てんから,,合同会社,岐阜県,大野郡白川村,大字鳩谷２９６番地の１,,21,604,5015629,,,,,,,2024-09-11,1,,,,,テンカラ,0
493,2240001063805,新規,0,2024-09-11,2024-09-11,株式会社ｌｉｖｅｓ,,株式会社,広島県,広島市南区,宇品海岸２丁目２３番３６号広島海上ビル４０３,,34,103,7340011,,,,,,,2024-09-11,1,,,,,リブズ,0
494,2240003006844,新規,0,2024-09-11,2024-09-11,合同会社Ｃｌｏｕｄ,,合同会社,広島県,山県郡北広島町,木次１１７２番地,,34,369,7311524,,,,,,,2024-09-11,1,,,,,クラウド,0
495,2240005015827,新規,0,2024-09-11,2024-09-11,医療法人あおい会,,その他の設立登記法人,広島県,安芸郡海田町,南大正町３番２５号,,34,304,7360042,,,,,,,2024-09-11,1,,,,,アオイカイ,0
504,2290001107235,新規,0,2024-09-11,2024-09-11,株式会社板とと,,株式会社,福岡県,福岡市早良区,西新１丁目９－２２,,40,137,8140002,,,,,,,2024-09-11,1,,,,,イタトト,0
508,2290005019501,新規,0,2024-09-11,2024-09-11,一般財団法人渡辺与八郎記念財団,,その他の設立登記法人,福岡県,福岡市中央区,天神１丁目１２番１４号,,40,133,8100001,,,,,,,2024-09-11,1,,,,,ワタナベヨハチロウキネンザイダン,0
509,2290801030875,新規,0,2024-09-11,2024-09-11,株式会社エイト,,株式会社,福岡県,北九州市八幡西区,日吉台２丁目２１番１４号,,40,109,8070866,,,,,,,2024-09-11,1,,,,,エイト,0
513,2300001013902,新規,0,2024-09-11,2024-09-11,株式会社グローバルサポート,,株式会社,佐賀県,鳥栖市,立石町１８５５番地１グリーンタウン鳥栖Ｈ,,41,203,8410075,,,,,,,2024-09-11,1,,,,,グローバルサポート,0
514,2310001019205,新規,0,2024-09-11,2024-09-11,株式会社松永住設,,株式会社,長崎県,佐世保市,萩坂町１７８３番地１,,42,202,8593232,,,,,,,2024-09-11,1,,,,,マツナガジュウセツ,0
516,2310005008798,新規,0,2024-09-11,2024-09-11,一般社団法人ＢＳＫプレディジョン九州,,その他の設立登記法人,長崎県,長崎市,かき道３丁目１７番１０号,,42,201,8510115,,,,,,,2024-09-11,1,,,,,ビーエスケイプレディジョンキュウシュウ,0
517,2330003010556,新規,0,2024-09-11,2024-09-11,合同会社ノンブル社,,合同会社,熊本県,熊本市北区,池田３丁目２番６号,,43,105,8600082,,,,,,,2024-09-11,1,,,,,ノンブルシャ,0
526,2360001034182,新規,0,2024-09-11,2024-09-11,Ｓｅｅｂｕｎ株式会社,,株式会社,沖縄県,那覇市,牧志３丁目２１番１号ソリオ牧志２０３,,47,201,9000013,,,,,,,2024-09-11,1,,,,,シーブン,0
527,2370001051706,新規,0,2024-09-11,2024-09-11,株式会社齋清,,株式会社,宮城県,仙台市宮城野区,新田４丁目３番１０号,,04,102,9830038,,,,,,,2024-09-11,1,,,,,サイセイ,0
532,2380001034783,新規,0,2024-09-11,2024-09-11,株式会社マフネ工業,,株式会社,福島県,いわき市,泉町３丁目１５番地の１,,07,204,9718185,,,,,,,2024-09-11,1,,,,,マフネコウギョウ,0
533,2390001017738,新規,0,2024-09-11,2024-09-11,株式会社セラヴィ,,株式会社,山形県,山形市,本町２丁目１番１６号,,06,201,9900043,,,,,,,2024-09-11,1,,,,,セラヴィ,0
536,2400003003321,新規,0,2024-09-11,2024-09-11,合同会社ＶＩＳＩＯＮＳ,,合同会社,岩手県,盛岡市,紺屋町４番２９号,,03,201,0200885,,,,,,,2024-09-11,1,,,,,ビジョン,0
539,2430005015064,新規,0,2024-09-11,2024-09-11,一般社団法人煌,,その他の設立登記法人,北海道,江別市,一番町２５番地の１１,,01,217,0670072,,,,,,,2024-09-11,1,,,,,キラメキ,0
549,2500001025869,新規,0,2024-09-11,2024-09-11,エムケイトレーディング株式会社,,株式会社,愛媛県,宇和島市,祝森甲１３５２番地,,38,203,7980078,,,,,,,2024-09-11,1,,,,,エムケイトレーディング,0
552,2700150126745,新規,0,2024-09-11,2024-08-16,ビブリカルチャーチ・グレイスホーム,,その他,千葉県,松戸市,五香西５丁目３４－１０,,12,207,2702218,,,,,,,2024-08-16,1,,,,,ビブリカルチヤーチグレイスホーム,0
553,2700150127124,新規,0,2024-09-11,2024-09-11,ＮＸＴ　ＥＣＯＭＭＥＲＣＥ　ＳＯＬＵＴＩＯＮＳ　ＩＮＤＩＡ　ＰＲＩＶＡＴＥ　ＬＩＭＩＴＥＤ,,外国会社等,,,,,,,,５ｔｈ　Ｆｌｏｏｒ，Ｔｒｉｆｅｃｔａ　Ａｄａｔｔｏ，２１，ＩＴＰＬ　Ｍａｉｎ　Ｒｏａｄ，Ｇａｒｕｄａｃｈａｒ　Ｐａｌｙａ，Ｍａｈａｄｅｖａｐｕｒａ，Ｂａｎｇａｌｏｒｅ，Ｂａｎｇａｌｏｒｅ，Ｋａｒｎａｔａｋａ，Ｉｎｄｉａ，５６００４８,,,,,,2024-09-11,1,,,,,ネクストイーコマースソリューションインディアプライベートリミテッド,0
564,3010001248089,新規,0,2024-09-11,2024-09-11,南京兆友電器設備株式会社,,株式会社,東京都,中央区,銀座１丁目２２番１１号銀座大竹ビジデンス２Ｆ,,13,102,1040061,,,,,,,2024-09-11,1,,,,,ナンキンチョウユウデンキセツビ,0
568,3010003044817,新規,0,2024-09-11,2024-09-11,ＨＳ１熊本合同会社,,合同会社,東京都,千代田区,霞が関３丁目２番５号,,13,101,1000013,,,,,,,2024-09-11,1,,,,,エイチエスワンクマモト,0
570,3010005038809,新規,0,2024-09-11,2024-09-11,一般社団法人伏見オフィスマネジメント,,その他の設立登記法人,東京都,千代田区,霞が関３丁目２番５号,,13,101,1000013,,,,,,,2024-09-11,1,,,,,フシミオフィスマネジメント,0
573,3010101016313,新規,0,2024-09-11,2024-09-11,株式会社ジーメディックス,,株式会社,東京都,八王子市,小比企町１１３０番地５,,13,201,1930934,,,,,,,2024-09-11,1,,,,,ジーメディックス,0
578,3010401185056,新規,0,2024-09-11,2024-09-11,株式会社ｔｅｎ　ｇｒｏｗｔｈ,,株式会社,東京都,港区,六本木１丁目１番２７号アークヒルズサイド１階,,13,103,1060032,,,,,,,2024-09-11,1,,,,,テングロウス,0
589,3010801035389,新規,0,2024-09-11,2024-09-11,株式会社イプリザアグリフューチャー,,株式会社,東京都,大田区,蒲田２丁目１２－２－２０１号,,13,111,1440052,,,,,,,2024-09-11,1,,,,,イプリザアグリフューチャー,0
597,3010901055964,新規,0,2024-09-11,2024-09-11,クロノポリス株式会社,,株式会社,東京都,世田谷区,上馬２丁目５番５号駒沢コンフォートレジデンス３０２,,13,112,1540011,,,,,,,2024-09-11,1,,,,,クロノポリス,0
600,3010903009349,新規,0,2024-09-11,2024-09-11,合同会社風薫る,,合同会社,東京都,世田谷区,弦巻１丁目３０番９号,,13,112,1540016,,,,,,,2024-09-11,1,,,,,カゼカオル,0
604,3011001164499,新規,0,2024-09-11,2024-09-11,ＴＧＲ株式会社,,株式会社,東京都,渋谷区,神宮前６丁目２３－４桑野ビル２Ｆ,,13,113,1500001,,,,,,,2024-09-11,1,,,,,ティージーアール,0
605,3011001164581,新規,0,2024-09-11,2024-09-11,株式会社ｃｒｅａｔｅ　ｔｈｅ　ｆｕｔｕｒｅ,,株式会社,東京都,渋谷区,道玄坂１丁目１０番８号渋谷道玄坂東急ビル２Ｆ－Ｃ,,13,113,1500043,,,,,,,2024-09-11,1,,,,,クリエイトザフューチャー,0
606,3011001164598,新規,0,2024-09-11,2024-09-11,株式会社Ｃｏａｄｅｘ,,株式会社,東京都,渋谷区,道玄坂１丁目１０番８号渋谷道玄坂東急ビル２Ｆ－Ｃ,,13,113,1500043,,,,,,,2024-09-11,1,,,,,コーデックス,0
607,3011003019940,新規,0,2024-09-11,2024-09-11,柳田商事合同会社,,合同会社,東京都,目黒区,青葉台１丁目１８－７カスタリア中目黒３０４,,13,110,1530042,,,,,,,2024-09-11,1,,,,,ヤナギタショウジ,0
608,3011003019965,新規,0,2024-09-11,2024-09-11,ｍｏｃａ　ｄｅｓｉｇｎ　ｏｆｆｉｃｅ合同会社,,合同会社,東京都,目黒区,五本木１丁目１５番１４号１０１,,13,110,1530053,,,,,,,2024-09-11,1,,,,,モカデザインオフィス,0
619,3011101108752,新規,0,2024-09-11,2024-09-11,Ｖｅｌｔｉｏｓｏｆｔ株式会社,,株式会社,東京都,新宿区,西新宿３丁目３番１３号西新宿水間ビル２Ｆ,,13,104,1600023,,,,,,,2024-09-11,1,,,,,ヴェルティオソフト,0
622,3011103014916,新規,0,2024-09-11,2024-09-11,合同会社ＴＵ３４,,合同会社,東京都,新宿区,四谷２丁目９番地１５東京ユナイテッド綜合事務所内,,13,104,1600004,,,,,,,2024-09-11,1,,,,,ティーユーサンジュウヨン,0
624,3011301029988,新規,0,2024-09-11,2024-09-11,株式会社ＤＲＡＧＯ,,株式会社,東京都,杉並区,松ノ木３丁目２４－１３ＯＡビル４０１,,13,115,1660014,,,,,,,2024-09-11,1,,,,,トラゴ,0
625,3011303005285,新規,0,2024-09-11,2024-09-11,くらたや合同会社,,合同会社,東京都,杉並区,成田東１丁目２６番９号,,13,115,1660015,,,,,,,2024-09-11,1,,,,,クラタヤ,0
626,3011401026415,新規,0,2024-09-11,2024-09-11,碩明ジャパン株式会社,,株式会社,東京都,板橋区,蓮根２丁目２７－１２板橋西台オフィス３Ｆ－０９,,13,119,1740046,,,,,,,2024-09-11,1,,,,,セキメイジャパン,0
627,3011501031125,新規,0,2024-09-11,2024-09-11,株式会社中野屋,,株式会社,東京都,荒川区,西日暮里３丁目２番５号,,13,118,1160013,,,,,,,2024-09-11,1,,,,,ナカノヤ,0
628,3011503006224,新規,0,2024-09-11,2024-09-11,合同会社ＡＡＡ　ＢＵＳＩＮＥＳＳ　ＰＡＲＴＮＥＲＳ,,合同会社,東京都,北区,滝野川６丁目８６番地４メゾン・ド・ぺぺ２０１,,13,117,1140023,,,,,,,2024-09-11,1,,,,,スリーエービジネスパートナーズ,0
631,3011801044818,新規,0,2024-09-11,2024-09-11,Ｋｅｎｚａｎ株式会社,,株式会社,東京都,足立区,西新井本町５丁目２番４－１０６号,,13,121,1230845,,,,,,,2024-09-11,1,,,,,ケンザン,0
635,3012801023456,新規,0,2024-09-11,2024-09-11,株式会社あいだ,,株式会社,東京都,立川市,曙町３丁目１８番２２号シティコート立川曙町２２０号,,13,202,1900012,,,,,,,2024-09-11,1,,,,,アイダ,0
640,3020001158790,新規,0,2024-09-11,2024-09-11,十方古代美術株式会社,,株式会社,神奈川県,横浜市中区,仲尾台１番地３金の風見鶏館１０２,,14,104,2310839,,,,,,,2024-09-11,1,,,,,ジュウホウコダイビジュツ,0
641,3020001159062,新規,0,2024-09-11,2024-09-11,株式会社ＣＯＡＳＴ,,株式会社,神奈川県,川崎市川崎区,大島３丁目１５番９号第２東ビル１階,,14,131,2100834,,,,,,,2024-09-11,1,,,,,コースト,0
642,3020001159095,新規,0,2024-09-11,2024-09-11,株式会社アカウンティング丸井,,株式会社,神奈川県,川崎市川崎区,宮前町８番１４号竹原ビル宮前カーネル１００３,,14,131,2100012,,,,,,,2024-09-11,1,,,,,アカウンティングマルイ,0
643,3020001159104,新規,0,2024-09-11,2024-09-11,株式会社レプルス,,株式会社,神奈川県,横浜市神奈川区,金港町５－１４クアドリフォリオ８階,,14,102,2210056,,,,,,,2024-09-11,1,,,,,レプルス,0
644,3020001159137,新規,0,2024-09-11,2024-09-11,ＡＢＣ民泊株式会社,,株式会社,神奈川県,横浜市西区,藤棚町２丁目２１７番地２,,14,103,2200053,,,,,,,2024-09-11,1,,,,,エイビーシーミンパク,0
659,3030001162420,新規,0,2024-09-11,2024-09-11,ＫＧＣ株式会社,,株式会社,埼玉県,さいたま市大宮区,三橋１丁目３３８番地６,,11,103,3300856,,,,,,,2024-09-11,1,,,,,ケイジーシー,0
660,3030001162429,新規,0,2024-09-11,2024-09-11,株式会社モビ・スタイル,,株式会社,埼玉県,新座市,大和田２丁目１番１９号,,11,230,3520004,,,,,,,2024-09-11,1,,,,,モビスタイル,0
665,3030003025088,新規,0,2024-09-11,2024-09-11,合同会社ホワイトロード,,合同会社,埼玉県,熊谷市,大麻生２１７６番地２２,,11,202,3600835,,,,,,,2024-09-11,1,,,,,ホワイトロード,0
669,3040001135342,新規,0,2024-09-11,2024-09-11,株式会社Ｄｏｇ　Ｇａｒｄｅｎ,,株式会社,千葉県,富里市,日吉倉２７６番地,,12,233,2860202,,,,,,,2024-09-11,1,,,,,ドッグガーデン,0
670,3040001135350,新規,0,2024-09-11,2024-09-11,ＣＵＣフードサービス株式会社,,株式会社,千葉県,市川市,国府台１丁目３番１号,,12,203,2720827,,,,,,,2024-09-11,1,,,,,シーユーシーフードサービス,0
671,3040001135359,新規,0,2024-09-11,2024-09-11,株式会社ＩＮＴＥＲＥＡＬ,,株式会社,千葉県,四街道市,さちが丘１丁目１３番４号,,12,228,2840025,,,,,,,2024-09-11,1,,,,,インテリアル,0
672,3040001135383,新規,0,2024-09-11,2024-09-11,株式会社小川,,株式会社,千葉県,柏市,大室１８６番地１,,12,217,2770813,,,,,,,2024-09-11,1,,,,,オガワ,0
675,3060001037479,新規,0,2024-09-11,2024-09-11,佳鴻株式会社,,株式会社,栃木県,宇都宮市,東宿郷５丁目１番２１号ポレスター駅東公園ザ・タワー７０６号,,09,201,3210953,,,,,,,2024-09-11,1,,,,,カコウ,0
676,3070001042172,新規,0,2024-09-11,2024-09-11,株式会社フォーコルノ,,株式会社,群馬県,前橋市,富士見町米野６７１番地１,,10,201,3710111,,,,,,,2024-09-11,1,,,,,フォーコルノ,0
684,3090001018897,新規,0,2024-09-11,2024-09-11,ＨＯＦＦＥ　ＥＡＳＴ株式会社,,株式会社,山梨県,中巨摩郡昭和町,上河東５４０番地２細田店舗Ｂ－１,,19,384,4093862,,,,,,,2024-09-11,1,,,,,ホーフイースト,0
689,3110003005511,新規,0,2024-09-11,2024-09-11,ＴＲＥＥＴＵＡＬ　ＣＯＭＰＡＮＹ合同会社,,合同会社,新潟県,新潟市中央区,南笹口１丁目１番３８号コープオリンピア８０８,,15,103,9500912,,,,,,,2024-09-11,1,,,,,トゥリーチュアルカンパニー,0
696,3120001268456,新規,0,2024-09-11,2024-09-11,株式会社ＥＬ　ｗｏｒｋｓ,,株式会社,大阪府,守口市,寺方本通１丁目５番２１号,,27,209,5700048,,,,,,,2024-09-11,1,,,,,エルワークス,0
697,3120001268464,新規,0,2024-09-11,2024-09-11,株式会社アオイホーム,,株式会社,大阪府,大阪市中央区,日本橋１丁目４番１２号,,27,128,5420073,,,,,,,2024-09-11,1,,,,,アオイホーム,0
701,3120003027496,新規,0,2024-09-11,2024-09-11,初見合同会社,,合同会社,大阪府,大阪市西淀川区,佃２丁目１番３１号２０２号室,,27,113,5550001,,,,,,,2024-09-11,1,,,,,ハツミ,0
705,3120901049765,新規,0,2024-09-11,2024-09-11,株式会社ＤＨＫ,,株式会社,大阪府,高槻市,富田丘町１０番１号,,27,207,5691145,,,,,,,2024-09-11,1,,,,,ディーエイチケイ,0
711,3130001077889,新規,0,2024-09-11,2024-09-11,劉氏ホールディンググループ株式会社,,株式会社,京都府,京都市伏見区,深草小久保町２３９番地８号室,,26,109,6128437,,,,,,,2024-09-11,1,,,,,リュウシホールディンググループ,0
721,3140001135753,新規,0,2024-09-11,2024-09-11,株式会社ルークス,,株式会社,兵庫県,尼崎市,西本町３丁目５番地,,28,202,6600874,,,,,,,2024-09-11,1,,,,,ルークス,0
722,3140001135761,新規,0,2024-09-11,2024-09-11,株式会社ＶＡＮＡ,,株式会社,兵庫県,朝来市,山東町柊木２６９,00136256,28,225,6695131,,,,,,,2024-09-11,1,,,,,ヴァナ,0
725,3150001027561,新規,0,2024-09-11,2024-09-11,株式会社柳原総建,00136263,株式会社,奈良県,磯城郡川西町,大字結崎５５０番地の１,,29,361,6360202,,,,,,,2024-09-11,1,,,,,ヤナギハラソウケン,0
730,3180001163197,新規,0,2024-09-11,2024-09-11,株式会社Ｆｉｒｓｔ,,株式会社,愛知県,海部郡大治町,大字西條字松下１５２番地の１,,23,424,4901144,,,,,,,2024-09-11,1,,,,,ファースト,0
731,3180001163239,新規,0,2024-09-11,2024-09-11,株式会社ＳＫＹ,,株式会社,愛知県,稲沢市,治郎丸大角町２６番地１,,23,220,4928134,,,,,,,2024-09-11,1,,,,,スカイ,0
740,3200003006500,新規,0,2024-09-11,2024-09-11,合同会社ＬＩＥＰ,,合同会社,岐阜県,飛騨市,神岡町寺林９５１番地,,21,217,5061152,,,,,,,2024-09-11,1,,,,,リープ,0
745,3240001063804,新規,0,2024-09-11,2024-09-11,株式会社白鷺,,株式会社,広島県,三原市,鷺浦町須波２６１０番地１０,,34,204,7230021,,,,,,,2024-09-11,1,,,,,ハクロ,0
746,3240003006851,新規,0,2024-09-11,2024-09-11,合同会社ＭＡＴＥ倶楽部,,合同会社,広島県,広島市南区,出汐２丁目１番１７－６０３号,,34,103,7340001,,,,,,,2024-09-11,1,,,,,メイトクラブ,0
747,3250001020804,新規,0,2024-09-11,2024-09-11,株式会社ＥＣＯ総合サポート,,株式会社,山口県,防府市,美和町四丁目２９番地１０３,,35,206,7470025,,,,,,,2024-09-11,1,,,,,エコソウゴウサポート,0
748,3250001020812,新規,0,2024-09-11,2024-09-11,株式会社ＦＩＥＴ投資コンサル,,株式会社,山口県,周南市,権現町４－１６－２Ｆ,,35,215,7450046,,,,,,,2024-09-11,1,,,,,ファイエットトウシコンサル,0
754,3260003004886,新規,0,2024-09-11,2024-09-11,合同会社Ｋ‐ＣＯＮＮＥＣＴＩＯＮ,,合同会社,岡山県,笠岡市,西大島新田１０９番地２,,33,205,7140031,,,,,,,2024-09-11,1,,,,,ケーコネクション,0
766,3290001107234,新規,0,2024-09-11,2024-09-11,株式会社Ｉｓｈｉｔｓｕｋａ　Ｐｌａｎｎｉｎｇ,,株式会社,福岡県,福岡市南区,清水２丁目８番１４号,,40,134,8150031,,,,,,,2024-09-11,1,,,,,イシツカプランニング,0
767,3290005019475,新規,0,2024-09-11,2024-09-11,一般社団法人日本デジタル生活支援協会,,その他の設立登記法人,福岡県,福岡市早良区,干隈３丁目４番７－２０２号,,40,137,8140163,,,,,,,2024-09-11,1,,,,,ニホンデジタルセイカツシエンキョウカイ,0
770,3290801030874,新規,0,2024-09-11,2024-09-11,株式会社ＴＦＣ,,株式会社,福岡県,北九州市八幡西区,引野３丁目１８番２３号,,40,109,8060067,,,,,,,2024-09-11,1,,,,,ティーエフシー,0
772,3300001013901,新規,0,2024-09-11,2024-09-11,株式会社松屋,,株式会社,佐賀県,多久市,北多久町大字小侍６９２番地４２,,41,204,8460002,,,,,,,2024-09-11,1,,,,,マツヤ,0
774,3310001019204,新規,0,2024-09-11,2024-09-11,株式会社イシダ電業,,株式会社,長崎県,佐世保市,母ケ浦町２００１番地２３,,42,202,8580912,,,,,,,2024-09-11,1,,,,,イシダデンギョウ,0
775,3320001020706,新規,0,2024-09-11,2024-09-11,株式会社ルナ・ラルム,,株式会社,大分県,大分市,原新町２番２８号カトレアビル１Ｆ,,44,201,8700912,,,,,,,2024-09-11,1,,,,,ルナラルム,0
779,3330003010555,新規,0,2024-09-11,2024-09-11,合同会社Ａｌｍａ,,合同会社,熊本県,阿蘇郡南阿蘇村,大字河陽３０６４番地１,,43,433,8691404,,,,,,,2024-09-11,1,,,,,アルマ,0
783,3370001051705,新規,0,2024-09-11,2024-09-11,株式会社アオイ,,株式会社,宮城県,角田市,梶賀字高畑北２８７番地１,,04,208,9811523,,,,,,,2024-09-11,1,,,,,アオイ,0
784,3370001051713,新規,0,2024-09-11,2024-09-11,七十七ビジネスウィズ株式会社,,株式会社,宮城県,仙台市青葉区,木町通２丁目１番１２号,,04,101,9800801,,,,,,,2024-09-11,1,,,,,シチジュウシチビジネスウィズ,0
789,3380001034782,新規,0,2024-09-11,2024-09-11,Ｋ＆Ｋ福島株式会社,,株式会社,福島県,郡山市,三穂田町鍋山字前原１番地の２４２,,07,203,9630123,,,,,,,2024-09-11,1,,,,,ケーアンドケーフクシマ,0
796,3410001013931,新規,0,2024-09-11,2024-09-11,株式会社ＩＸわん,,株式会社,秋田県,秋田市,保戸野千代田町１３番１号セレクトビル２階,,05,201,0100914,,,,,,,2024-09-11,1,,,,,イックスワン,0
799,3430001092643,新規,0,2024-09-11,2024-09-11,レイトブルーム株式会社,,株式会社,北海道,小樽市,銭函２丁目３０番８号,,01,203,0470261,,,,,,,2024-09-11,1,,,,,レイトブルーム,0
804,3480001012588,新規,0,2024-09-11,2024-09-11,株式会社はなぶさ工務店,,株式会社,徳島県,徳島市,北矢三町４丁目１－１１,,36,201,7700006,,,,,,,2024-09-11,1,,,,,ハナブサコウムテン,0
808,3500001025868,新規,0,2024-09-11,2024-09-11,株式会社聡明興産,,株式会社,愛媛県,今治市,馬越町４丁目６番３３号,,38,202,7940062,,,,,,,2024-09-11,1,,,,,ソウメイコウサン,0
810,3500003003327,新規,0,2024-09-11,2024-09-11,合同会社ｍａｐｓ,,合同会社,愛媛県,松山市,二番町２丁目５番１ＯＳビル１Ｆ,,38,201,7900002,,,,,,,2024-09-11,1,,,,,マップス,0
817,4010001248146,新規,0,2024-09-11,2024-09-11,株式会社イースリーホールディングス,,株式会社,東京都,千代田区,神田駿河台３丁目１－７－５Ｆ,,13,101,1010062,,,,,,,2024-09-11,1,,,,,イースリーホールディングス,0
818,4010001248170,新規,0,2024-09-11,2024-09-11,株式会社ＫＡＺＡＭＩＤＯＲＩ,,株式会社,東京都,千代田区,神田和泉町１番地６－１６,,13,101,1010024,,,,,,,2024-09-11,1,,,,,カザミドリ,0
819,4010001248204,新規,0,2024-09-11,2024-09-11,株式会社Ｎｏｒｔｈｇｏ　Ｊａｐａｎ,,株式会社,東京都,中央区,八重洲２丁目１番１号ＹａｎｍａｒＴｏｋｙｏ１２階,,13,102,1040028,,,,,,,2024-09-11,1,,,,,ノースゴージャパン,0
820,4010001248237,新規,0,2024-09-11,2024-09-11,株式会社ＳＡＫＩＧＡＫＥ,,株式会社,東京都,中央区,銀座１丁目１２－４Ｎ＆ＥＢＬＤ．７階,,13,102,1040061,,,,,,,2024-09-11,1,,,,,サキガケ,0
823,4010003044782,新規,0,2024-09-11,2024-09-11,合同会社ＧＨプロパティ３,,合同会社,東京都,千代田区,神田錦町１丁目２１番１号,,13,101,1010054,,,,,,,2024-09-11,1,,,,,ジーエイチプロパティスリー,0
824,4010003044790,新規,0,2024-09-11,2024-09-11,合同会社ＷＳ１,,合同会社,東京都,千代田区,永田町２丁目１７番５号,,13,101,1000014,,,,,,,2024-09-11,1,,,,,ダブリュエスワン,0
825,4010003044849,新規,0,2024-09-11,2024-09-11,釧路ソーラー合同会社,,合同会社,東京都,千代田区,内神田１丁目３番７号４０１あすな会計事務所内,,13,101,1010047,,,,,,,2024-09-11,1,,,,,クシロソーラー,0
826,4010003044857,新規,0,2024-09-11,2024-09-11,サステナブルローンファンド２９号合同会社,,合同会社,東京都,中央区,京橋２丁目１２番６号ＡＯＪ税理士法人内,,13,102,1040031,,,,,,,2024-09-11,1,,,,,サステナブルローンファンドニジュウキュウゴウ,0
837,4010405023509,新規,0,2024-09-11,2024-09-11,Ｓａｇｉｔｔａｒｉｕｓ特定目的会社,,その他の設立登記法人,東京都,港区,虎ノ門５丁目１番４号,,13,103,1050001,,,,,,,2024-09-11,1,,,,,サジタリウス,0
839,4010601065908,新規,0,2024-09-11,2024-09-11,株式会社ｔ．ｅｓｐｒｉｔ,,株式会社,東京都,墨田区,吾妻橋１丁目２３番３０号,,13,107,1300001,,,,,,,2024-09-11,1,,,,,テエスプリ,0
843,4010603011083,新規,0,2024-09-11,2024-09-11,合同会社ＧＦＳ,,合同会社,東京都,江東区,大島８丁目２８番２４－１１１６号,,13,108,1360072,,,,,,,2024-09-11,1,,,,,ジーエフエス,0
851,4010903009348,新規,0,2024-09-11,2024-09-11,合同会社ハートバル,,合同会社,東京都,世田谷区,松原４丁目２０番１１号,,13,112,1560043,,,,,,,2024-09-11,1,,,,,ハートバル,0
859,4011001164564,新規,0,2024-09-11,2024-09-11,株式会社ＡＳＴＥＲ,,株式会社,東京都,渋谷区,神南１丁目１２番１６号アジアビル５階,,13,113,1500041,,,,,,,2024-09-11,1,,,,,アスター,0
860,4011001164606,新規,0,2024-09-11,2024-09-11,株式会社てむ．ｃｏｍ,,株式会社,東京都,渋谷区,恵比寿西２丁目８番４号ＥＸ恵比寿西ビル５階,,13,113,1500021,,,,,,,2024-09-11,1,,,,,テムドットコム,0
867,4011101108727,新規,0,2024-09-11,2024-09-11,株式会社ＢｏｔＢａｓｅ,,株式会社,東京都,新宿区,西新宿４丁目２９－１０エクセルワン４０３,,13,104,1600023,,,,,,,2024-09-11,1,,,,,ボットベース,0
869,4011103014931,新規,0,2024-09-11,2024-09-11,合同会社しくみさんじょうぷろじぇくと,,合同会社,東京都,新宿区,西新宿１丁目４番１１号,,13,104,1600023,,,,,,,2024-09-11,1,,,,,シクミサンジョウプロジェクト,0
870,4011105011159,新規,0,2024-09-11,2024-09-11,一般社団法人青葉電力,,その他の設立登記法人,東京都,新宿区,新宿４丁目１番６号ＪＲ新宿ミライナタワー２８階,,13,104,1600022,,,,,,,2024-09-11,1,,,,,アオバパワー,0
876,4011303005284,新規,0,2024-09-11,2024-09-11,冒険クラブ合同会社,,合同会社,東京都,杉並区,堀ノ内２丁目３５番６号,,13,115,1660013,,,,,,,2024-09-11,1,,,,,,0
879,4011401026414,新規,0,2024-09-11,2024-09-11,株式会社２２ＨＯＭＥ,,株式会社,東京都,板橋区,富士見町１４番５－２０３号,,13,119,1740062,,,,,,,2024-09-11,1,,,,,ツジホーム,0
883,4011501031132,新規,0,2024-09-11,2024-09-11,株式会社ＭＯＬＩＹＯＳＨＩ,,株式会社,東京都,北区,中十条３丁目３２番１１－３０５号富士見ビル,,13,117,1140032,,,,,,,2024-09-11,1,,,,,モリヨシ,0
884,4011501031140,新規,0,2024-09-11,2024-09-11,株式会社システムイノベーションジャパン,,株式会社,東京都,北区,中里１丁目２１番２号中里ビル１Ｆ,,13,117,1140015,,,,,,,2024-09-11,1,,,,,システムイノベーションジャパン,0
886,4011701027566,新規,0,2024-09-11,2024-09-11,ウラヒガシ株式会社,,株式会社,東京都,江戸川区,北葛西２丁目２７番２６号,,13,123,1340081,,,,,,,2024-09-11,1,,,,,ウラヒガシ,0
895,4012401042277,新規,0,2024-09-11,2024-09-11,きずなキャピタル株式会社,,株式会社,東京都,三鷹市,井の頭３丁目３０番１０号,,13,204,1810001,,,,,,,2024-09-11,1,,,,,キズナキャピタル,0
897,4012801023447,新規,0,2024-09-11,2024-09-11,Ｕｒｂａｒｕｓ株式会社,,株式会社,東京都,立川市,高松町２丁目７番１０－１０３号,,13,202,1900011,,,,,,,2024-09-11,1,,,,,ウルバーヌス,0
898,4012801023455,新規,0,2024-09-11,2024-09-11,株式会社Ｐｒａｉｓｅ,,株式会社,東京都,武蔵村山市,神明２丁目２９番地の７,,13,223,2080002,,,,,,,2024-09-11,1,,,,,プレイズ,0
908,4020001159111,新規,0,2024-09-11,2024-09-11,株式会社ＬＬＰ．ＳＥＲＶＩＣＥ,,株式会社,神奈川県,横浜市鶴見区,鶴見中央２丁目１４番１２－６０１号,,14,101,2300051,,,,,,,2024-09-11,1,,,,,エルエルピーサービス,0
911,4020003026862,新規,0,2024-09-11,2024-09-11,合同会社Ｂｕｄｄｙ,,合同会社,神奈川県,横浜市南区,大岡５丁目１７番１６号クレスパット大岡第５－１０２,,14,105,2320061,,,,,,,2024-09-11,1,,,,,バディ,0
912,4020003026870,新規,0,2024-09-11,2024-09-11,インフルート合同会社,,合同会社,神奈川県,横浜市西区,浅間町１丁目４番３号ウィザードビル４０２,,14,103,2200072,,,,,,,2024-09-11,1,,,,,インフルート,0
914,4021001083202,新規,0,2024-09-11,2024-09-11,株式会社スタービレッジ,,株式会社,神奈川県,厚木市,七沢２３８番地２３,,14,212,2430121,,,,,,,2024-09-11,1,,,,,スタービレッジ,0
915,4021001083210,新規,0,2024-09-11,2024-09-11,株式会社ケーズ,,株式会社,神奈川県,横須賀市,鴨居３丁目７１番１５号,,14,201,2390813,,,,,,,2024-09-11,1,,,,,ケーズ,0
920,4030003025079,新規,0,2024-09-11,2024-09-11,ＢＯＬＯＲ合同会社,,合同会社,埼玉県,坂戸市,伊豆の山町２１番地４７ＫＩＶオフィス伊豆の山１号棟Ｂ号室,,11,239,3500275,,,,,,,2024-09-11,1,,,,,ボリラ,0
921,4030003025087,新規,0,2024-09-11,2024-09-11,合同会社雨宮徹事務所,,合同会社,埼玉県,川越市,大字笠幡１７２５番地６,,11,201,3501175,,,,,,,2024-09-11,1,,,,,アメミヤトオルジムショ,0
926,4040001135366,新規,0,2024-09-11,2024-09-11,アークス株式会社,,株式会社,千葉県,木更津市,清見台南１丁目５番２０号,,12,206,2920042,,,,,,,2024-09-11,1,,,,,アークス,0
933,4070001042171,新規,0,2024-09-11,2024-09-11,株式会社ヘルスケアキリュウ,,株式会社,群馬県,桐生市,川内町２丁目字宮原２８７番地１,,10,203,3760041,,,,,,,2024-09-11,1,,,,,ヘルスケアキリュウ,0
934,4070003005580,新規,0,2024-09-11,2024-09-11,合同会社ブルーオーシャン,,合同会社,群馬県,高崎市,下佐野町２０７番地２８,,10,202,3700855,,,,,,,2024-09-11,1,,,,,,0
944,4100001037829,新規,0,2024-09-11,2024-09-11,株式会社Ｐｒｏｐｅｒｔｙ　Ｍａｎａｇｅｍｅｎｔ　Ｈａｋｕｂａ,,株式会社,長野県,北安曇郡白馬村,大字北城２９３７番地３８４,,20,485,3999301,,,,,,,2024-09-11,1,,,,,プロパティマネジメントハクバ,0
956,4120001268439,新規,0,2024-09-11,2024-09-11,ＲＯＫＫＥＮ株式会社,,株式会社,大阪府,大阪市淀川区,西中島３丁目１２番１５号,,27,123,5320011,,,,,,,2024-09-11,1,,,,,ロッケン,0
957,4120001268447,新規,0,2024-09-11,2024-09-11,株式会社ＢＬＵＥ　ＳＫＹ,,株式会社,大阪府,大阪市中央区,島之内２丁目２番２０号,,27,128,5420082,,,,,,,2024-09-11,1,,,,,ブルースカイ,0
958,4120001268455,新規,0,2024-09-11,2024-09-11,株式会社リザーブ,,株式会社,大阪府,守口市,八雲西町１丁目２０番２－１０３号,,27,209,5700006,,,,,,,2024-09-11,1,,,,,リザーブ,0
959,4120001268471,新規,0,2024-09-11,2024-09-11,株式会社フレマケ,,株式会社,大阪府,大阪市都島区,友渕町３丁目１０番５－５０２号,,27,102,5340016,,,,,,,2024-09-11,1,,,,,フレマケ,0
960,4120001268488,新規,0,2024-09-11,2024-09-11,東盛株式会社,,株式会社,大阪府,大阪市中央区,島之内２丁目１０番５号２０３号室,,27,128,5420082,,,,,,,2024-09-11,1,,,,,トウセイ,0
961,4120001268496,新規,0,2024-09-11,2024-09-11,株式会社ＹＳＫ,,株式会社,大阪府,大阪市住吉区,帝塚山東１丁目５番６号かね宗ビル２０２号,,27,120,5580054,,,,,,,2024-09-11,1,,,,,ワイエスケー,0
970,4120101070265,新規,0,2024-09-11,2024-09-11,もなかのこだわり株式会社,,株式会社,大阪府,松原市,阿保５丁目１４番２０号,,27,217,5800043,,,,,,,2024-09-11,1,,,,,モナカノコダワリ,0
972,4120105009904,新規,0,2024-09-11,2024-09-11,一般社団法人みらい・ぷろじぇくと,,その他の設立登記法人,大阪府,泉南郡岬町,淡輪９５４番地の３,,27,366,5990301,,,,,,,2024-09-11,1,,,,,ミライプロジェクト,0
975,4120901049756,新規,0,2024-09-11,2024-09-11,フジ不動産賃貸株式会社,,株式会社,大阪府,豊中市,上新田２丁目２２番５－５０４号,,27,203,5600085,,,,,,,2024-09-11,1,,,,,フジフドウサンチンタイ,0
978,4130001077905,新規,0,2024-09-11,2024-09-11,Ｂｌｉｓｘｉａ株式会社,,株式会社,京都府,京都市下京区,玉津島町２９４番地,,26,106,6008427,,,,,,,2024-09-11,1,,,,,ブリシア,0
979,4130001077921,新規,0,2024-09-11,2024-09-11,株式会社ＳＴＵＤＩＯＭＡＲＵ,,株式会社,京都府,京都市中京区,西ノ京笠殿町３９番地２,,26,104,6048482,,,,,,,2024-09-11,1,,,,,スタジオマル,0
982,4130003009856,新規,0,2024-09-11,2024-09-11,Ｂｕｓｔｌｉｎｋ合同会社,,合同会社,京都府,京都市伏見区,横大路草津町５２番地,,26,109,6128483,,,,,,,2024-09-11,1,,,,,バスリンク,0
992,4140001135744,新規,0,2024-09-11,2024-09-11,株式会社白川建築,,株式会社,兵庫県,神崎郡神河町,高朝田３２番地,,28,446,6793122,,,,,,,2024-09-11,1,,,,,シラカワケンチク,0
993,4140001135752,新規,0,2024-09-11,2024-09-11,エーティステム株式会社,,株式会社,兵庫県,姫路市,北条口３丁目８８－１Ｆ,,28,201,6700935,,,,,,,2024-09-11,1,,,,,エーティステム,0
994,4140001135777,新規,0,2024-09-11,2024-09-11,株式会社一真,,株式会社,兵庫県,姫路市,町坪１９番地５,,28,201,6700984,,,,,,,2024-09-11,1,,,,,イッシン,0
996,4140003021067,新規,0,2024-09-11,2024-09-11,合同会社周技研,,合同会社,兵庫県,赤穂市,片浜町１５７番地,,28,212,6780249,,,,,,,2024-09-11,1,,,,,アマネギケン,0
997,4150001027560,新規,0,2024-09-11,2024-09-11,株式会社ＢＥＣＯＤＥ,,株式会社,奈良県,磯城郡川西町,大字結崎３３０番地の５０,,29,361,6360202,,,,,,,2024-09-11,1,,,,,ビコード,0
1002,4180001163163,新規,0,2024-09-11,2024-09-11,康合株式会社,,株式会社,愛知県,名古屋市中区,錦２丁目１６番４号,,23,106,4600003,,,,,,,2024-09-11,1,,,,,コウゴウ,0
1003,4180001163171,新規,0,2024-09-11,2024-09-11,株式会社テンアップ,,株式会社,愛知県,名古屋市中村区,名駅４丁目２４番５号第２森ビル４０１,,23,105,4500002,,,,,,,2024-09-11,1,,,,,テンアップ,0
1004,4180001163221,新規,0,2024-09-11,2024-09-11,株式会社ＰｒｉｍｅＣｏｒｅ,,株式会社,愛知県,名古屋市中区,東桜２丁目２２番１８号日興ビルディング４階３号,,23,106,4600005,,,,,,,2024-09-11,1,,,,,プライムコア,0
1005,4180001163262,新規,0,2024-09-11,2024-09-11,ＳＴ株式会社,,株式会社,愛知県,岩倉市,大山寺町前畑１０番地プランドール２０２,,23,228,4820014,,,,,,,2024-09-11,1,,,,,エスティー,0
1008,4180003027325,新規,0,2024-09-11,2024-09-11,合同会社ワタナベストア,,合同会社,愛知県,常滑市,樽水町２丁目１８番地,,23,216,4790826,,,,,,,2024-09-11,1,,,,,ワタナベストア,0
1009,4180005020757,新規,0,2024-09-11,2024-09-11,一般社団法人サンフレック,,その他の設立登記法人,愛知県,一宮市,萩原町花井方字西天神２８番地５,,23,203,4910351,,,,,,,2024-09-11,1,,,,,サンフレック,0
1011,4180305009608,新規,0,2024-09-11,2024-09-11,一般社団法人ＡＣＴ日本メンタルアロマ協会,,その他の設立登記法人,愛知県,安城市,赤松町隅田川３１番地４,,23,212,4460046,,,,,,,2024-09-11,1,,,,,エーシーティーニホンメンタルアロマキョウカイ,0
1021,4210001019907,新規,0,2024-09-11,2024-09-11,株式会社たかしま商店,,株式会社,福井県,坂井市,丸岡町猪爪第１２号１２番地１,,18,210,9100303,,,,,,,2024-09-11,1,,,,,タカシマショウテン,0
1028,4250001020803,新規,0,2024-09-11,2024-09-11,株式会社Ｈ．Ａ,,株式会社,山口県,下関市,稗田西町１５番８号,,35,201,7510855,,,,,,,2024-09-11,1,,,,,エイチエイ,0
1041,4290001107241,新規,0,2024-09-11,2024-09-11,Ｂｅｅグループ株式会社,,株式会社,福岡県,福岡市東区,多の津４丁目５番１２号,,40,131,8130034,,,,,,,2024-09-11,1,,,,,ビーグループ,0
1043,4290003015797,新規,0,2024-09-11,2024-09-11,合同会社恭香,,合同会社,福岡県,福岡市早良区,田隈３丁目８番３１号,,40,137,8140174,,,,,,,2024-09-11,1,,,,,キョウカ,0
1045,4290801030865,新規,0,2024-09-11,2024-09-11,株式会社三九商事,,株式会社,福岡県,北九州市八幡東区,荒生田２丁目２番２９号（２階）,,40,108,8050015,,,,,,,2024-09-11,1,,,,,サンキュウショウジ,0
1047,4300001013900,新規,0,2024-09-11,2024-09-11,株式会社スマイルハートジャパン,,株式会社,佐賀県,武雄市,武雄町大字昭和３番地６,,41,206,8430023,,,,,,,2024-09-11,1,,,,,スマイルハートジャパン,0
1050,4310001019203,新規,0,2024-09-11,2024-09-11,株式会社いのうえ鮮魚,,株式会社,長崎県,島原市,有明町湯江丙４番地３,,42,203,8591403,,,,,,,2024-09-11,1,,,,,イノウエセンギョ,0
1054,4350001019174,新規,0,2024-09-11,2024-09-11,株式会社児玉菓子工房,,株式会社,宮崎県,西都市,中央町１丁目４０番地１,,45,208,8810035,,,,,,,2024-09-11,1,,,,,コダマカシコウボウ,0
1055,4360001034189,新規,0,2024-09-11,2024-09-11,株式会社ＢＡＨＡＮＡ,,株式会社,沖縄県,国頭郡本部町,字備瀬５１８番地,,47,308,9050207,,,,,,,2024-09-11,1,,,,,バハナ,0
1056,4360003014263,新規,0,2024-09-11,2024-09-11,合同会社ＳＴＡＲプラス,,合同会社,沖縄県,うるま市,喜仲３丁目１８－１７,,47,213,9042236,,,,,,,2024-09-11,1,,,,,スタープラス,0
1057,4360003014288,新規,0,2024-09-11,2024-09-11,匠ノ創合同会社,,合同会社,沖縄県,宮古島市,平良字松原１５９番地,,47,214,9060014,,,,,,,2024-09-11,1,,,,,タクミノソウ,0
1059,4370001051704,新規,0,2024-09-11,2024-09-11,株式会社太田,,株式会社,宮城県,角田市,横倉字柿手１６番地１０,,04,208,9811512,,,,,,,2024-09-11,1,,,,,オオタ,0
1061,4380001034781,新規,0,2024-09-11,2024-09-11,株式会社会津光輝,,株式会社,福島県,会津若松市,一箕町大字八幡字滝沢２６番地,,07,202,9650003,,,,,,,2024-09-11,1,,,,,アイヅコウキ,0
1073,4430001092650,新規,0,2024-09-11,2024-09-11,株式会社ＺＥＲＯ,,株式会社,北海道,札幌市豊平区,西岡五条１４丁目１９番１１号コーポ吉田Ｂ－１０１号,,01,105,0620035,,,,,,,2024-09-11,1,,,,,ゼロ,0
1080,4470001020376,新規,0,2024-09-11,2024-09-11,株式会社Ｌｉｃｏｍｏ,,株式会社,香川県,高松市,常磐町２丁目６番地１７松原ビル３Ｆ,,37,201,7600054,,,,,,,2024-09-11,1,,,,,リコモ,0
1082,4480001012587,新規,0,2024-09-11,2024-09-11,株式会社Ｃｅｌｅｓｔｅ　Ｌｉｎｋｓ,,株式会社,徳島県,阿南市,羽ノ浦町宮倉南浦１９番地１ライフ館羽ノ浦ＩＩ２０２号室,00136261,36,204,7791102,,,,,,,2024-09-11,1,,,,,セレストリンクス,0
1084,4500001025867,新規,0,2024-09-11,2024-09-11,株式会社花いかだ,,株式会社,愛媛県,喜多郡内子町,内子７５３番地,,38,422,7913301,,,,,,,2024-09-11,1,,,,,ハナイカダ,0
1085,4700150127130,新規,0,2024-09-11,2024-09-11,ｓｈｅｎｚｈｅｎｈｏｎｇｌｉａｎｄａｋｅｊｉｙｏｕｘｉａｎｇｏｎｇｓｉ,,外国会社等,,,,,,,,Ｒｏｏｍ　Ｎｏ．４０２，Ｂｌｄｇ　Ｎｏ．６，Ｘｉｎｇ　ｈｕｉ　Ｉｎｄｕｓｔｒｉａｌ　Ｃｉｔｙ，Ｎｏ．９０，Ｙａｎｌｕｏ　Ｒｄ，Ｙａｎｃｈｕａｎ　Ｃｏｍｍｕｎｉｔｙ，Ｙａｎｌｕｏ　Ｓｔ，Ｂａｏ’ａｎ　Ｄｉｓｔｒｉｃｔ，ｓｈｅｎｚｈｅｎ，ｇｕａｎｇｄｏｎｇ,,,,,,2024-09-11,1,,,,,シェンジェンホーンリエンダーコーァジーヨウシエンゴーンスー,0
1097,5010001248161,新規,0,2024-09-11,2024-09-11,ＮＹＣＩ１１株式会社,,株式会社,東京都,中央区,新川１丁目６番１１号,,13,102,1040033,,,,,,,2024-09-11,1,,,,,エヌワイシーアイイレブン,0
1098,5010003044864,新規,0,2024-09-11,2024-09-11,合同会社ＨＧＢ,,合同会社,東京都,千代田区,岩本町１丁目５番１３－１２０４号,,13,101,1010032,,,,,,,2024-09-11,1,,,,,エイチジービー,0
1108,5010501052897,新規,0,2024-09-11,2024-09-11,Ｐａｒｔｓ　Ｓｔｕｄｉｏ株式会社,,株式会社,東京都,台東区,寿３丁目９番３号丸大ビル２階０９,,13,106,1110042,,,,,,,2024-09-11,1,,,,,パーツスタジオ,0
1109,5010601065898,新規,0,2024-09-11,2024-09-11,株式会社関根内装,,株式会社,東京都,江東区,東砂８丁目６番９号メイプルガーデン東砂２０１,,13,108,1360074,,,,,,,2024-09-11,1,,,,,セキネナイソウ,0
1112,5010603011074,新規,0,2024-09-11,2024-09-11,合同会社ＤａｙＯｎｅ,,合同会社,東京都,墨田区,向島３丁目４４番１０－４０３号,,13,107,1310033,,,,,,,2024-09-11,1,,,,,デイワン,0
1113,5010701046518,新規,0,2024-09-11,2024-09-11,株式会社ＡＧＷ,,株式会社,東京都,品川区,西五反田１丁目３２番６号吉野屋ビル３Ｂ,,13,109,1410031,,,,,,,2024-09-11,1,,,,,エージーダブリュー,0
1114,5010703007344,新規,0,2024-09-11,2024-09-11,ＮＯＷｘＷＥＳＴ合同会社,,合同会社,東京都,品川区,南大井３丁目２２番２－７０３号,,13,109,1400013,,,,,,,2024-09-11,1,,,,,ナウウエスト,0
1117,5010901055962,新規,0,2024-09-11,2024-09-11,株式会社ＡＨＡＨＡ,,株式会社,東京都,世田谷区,世田谷４丁目２番１２号瑞雲,,13,112,1540017,,,,,,,2024-09-11,1,,,,,アハハ,0
1122,5011001164472,新規,0,2024-09-11,2024-09-11,Ｒｅａｄｙ株式会社,,株式会社,東京都,渋谷区,渋谷２丁目１９－１５,,13,113,1500002,,,,,,,2024-09-11,1,,,,,レディ,0
1123,5011001164506,新規,0,2024-09-11,2024-09-11,株式会社Ｍｉｍｉ　Ｂｅａｕｔｙ,,株式会社,東京都,渋谷区,東３丁目１６番３号,,13,113,1500011,,,,,,,2024-09-11,1,,,,,ミミビューティー,0
1124,5011001164588,新規,0,2024-09-11,2024-09-11,ｔａｌｅｎｔａｌ株式会社,,株式会社,東京都,渋谷区,渋谷２丁目１９‐１５宮益坂ビルディング６０９,,13,113,1500002,,,,,,,2024-09-11,1,,,,,タレンタル,0
1125,5011001164605,新規,0,2024-09-11,2024-09-11,株式会社Ｓｙｎｃ,,株式会社,東京都,目黒区,下目黒２丁目２０番５号ＢＯＴ７３３－Ｙ３,,13,110,1530064,,,,,,,2024-09-11,1,,,,,シンク,0
1126,5011003019939,新規,0,2024-09-11,2024-09-11,合同会社ＬＩＧＨＴＨＯＵＳＥ,,合同会社,東京都,渋谷区,恵比寿西２丁目８番４号ＥＸ恵比寿西ビル５階,,13,113,1500021,,,,,,,2024-09-11,1,,,,,ライトハウス,0
1127,5011003019947,新規,0,2024-09-11,2024-09-11,合同会社茶飯商会,,合同会社,東京都,目黒区,中目黒２丁目１０番１０－３０４号セザール第２中目黒,,13,110,1530061,,,,,,,2024-09-11,1,,,,,サハンショウカイ,0
1128,5011003019996,新規,0,2024-09-11,2024-09-11,合同会社Ｃｌｅａｒ　Ｖｉｅｗ,,合同会社,東京都,渋谷区,神宮前６丁目２３番４号桑野ビル２階,,13,113,1500001,,,,,,,2024-09-11,1,,,,,クリアビュー,0
1134,5011101108734,新規,0,2024-09-11,2024-09-11,株式会社おしょう,,株式会社,東京都,新宿区,新宿１丁目１３番８号葵ビルＢ０２,,13,104,1600022,,,,,,,2024-09-11,1,,,,,オショウ,0
1135,5011105011158,新規,0,2024-09-11,2024-09-11,一般社団法人リチャージャブルエナジー,,その他の設立登記法人,東京都,新宿区,新宿４丁目１番６号ＪＲ新宿ミライナタワー２８階,,13,104,1600022,,,,,,,2024-09-11,1,,,,,リチャージャブルエナジー,0
1137,5011401026413,新規,0,2024-09-11,2024-09-11,株式会社Ｋ．Ｋ．ＢＡＫＥＲ,,株式会社,東京都,板橋区,上板橋１丁目２５－８バガテルエム２階,,13,119,1740076,,,,,,,2024-09-11,1,,,,,ケーケーベイカー,0
1139,5011503006222,新規,0,2024-09-11,2024-09-11,合同会社ＴＲＵＴＨ,,合同会社,東京都,北区,赤羽南１丁目５番７－２０８号,,13,117,1150044,,,,,,,2024-09-11,1,,,,,トゥルース,0
1145,5011801044816,新規,0,2024-09-11,2024-09-11,株式会社スマイル,,株式会社,東京都,足立区,千住緑町１丁目１６番１－３０３号,,13,121,1200044,,,,,,,2024-09-11,1,,,,,スマイル,0
1147,5011803006442,新規,0,2024-09-11,2024-09-11,合同会社紫,,合同会社,東京都,足立区,南花畑２丁目２９番３号,,13,121,1210062,,,,,,,2024-09-11,1,,,,,ムラサキ,0
1149,5013101009508,新規,0,2024-09-11,2024-09-11,株式会社ＩＵ,,株式会社,東京都,あきる野市,引田６２６番地７,,13,228,1970834,,,,,,,2024-09-11,1,,,,,,0
1163,5020001159052,新規,0,2024-09-11,2024-09-11,株式会社Ｋ．Ｓｅｎｓｅ,,株式会社,神奈川県,横浜市鶴見区,上末吉３丁目２番８号ハーモニープラザルチア１０３,,14,101,2300011,,,,,,,2024-09-11,1,,,,,ケイセンス,0
1164,5020001159069,新規,0,2024-09-11,2024-09-11,ポーラスターコンサルティング株式会社,,株式会社,神奈川県,川崎市宮前区,鷺沼４丁目１４番地２ドレッセ鷺沼の杜プライムフォレストＥ－４０９,,14,136,2160004,,,,,,,2024-09-11,1,,,,,ポーラスターコンサルティング,0
1165,5020001159102,新規,0,2024-09-11,2024-09-11,株式会社ボンプレゾン,,株式会社,神奈川県,川崎市高津区,末長１丁目３７－３４ロワール末長台５０２,,14,134,2130013,,,,,,,2024-09-11,1,,,,,ボンプレゾン,0
1166,5020001159143,新規,0,2024-09-11,2024-09-11,株式会社Ｓｔｕｎｎｉｎｇ　ｐｌａｃｅ,,株式会社,神奈川県,横浜市中区,長者町５丁目７５番地１スクエア長者町８１６,,14,104,2310033,,,,,,,2024-09-11,1,,,,,スタニングプレイス,0
1168,5020003026754,新規,0,2024-09-11,2024-09-11,合同会社ＳＴ・ｃｌａｎ,,合同会社,神奈川県,横浜市中区,長者町７丁目１１４,,14,104,2310033,,,,,,,2024-09-11,1,,,,,エスティークラン,0
1173,5021005013179,新規,0,2024-09-11,2024-09-11,特定非営利活動法人ＳＡＧＡＭＩ　ＰａｒａＳｐｏｒｔｓ　Ｃｌｕｂ,,その他の設立登記法人,神奈川県,相模原市緑区,大島１６３７番地２,,14,151,2520135,,,,,,,2024-09-11,1,,,,,サガミパラスポーツクラブ,0
1177,5030001162427,新規,0,2024-09-11,2024-09-11,水菓し株式会社,,株式会社,埼玉県,さいたま市緑区,宮本２丁目１０番地１５,,11,109,3360916,,,,,,,2024-09-11,1,,,,,ミズカシ,0
1178,5030001162443,新規,0,2024-09-11,2024-09-11,Ｉｎｎｏｖａ　Ｖｉｓｉｏｎ株式会社,,株式会社,埼玉県,吉川市,中央１丁目３番地１０グリナージュ２０３号室,,11,243,3420061,,,,,,,2024-09-11,1,,,,,イノヴァビジョン,0
1181,5030003025045,新規,0,2024-09-11,2024-09-11,ケイサンコネクト合同会社,,合同会社,埼玉県,比企郡川島町,八幡３丁目９番地９,,11,346,3500151,,,,,,,2024-09-11,1,,,,,ケイサンコネクト,0
1182,5030003025086,新規,0,2024-09-11,2024-09-11,合同会社みやび,,合同会社,埼玉県,入間市,大字寺竹８１６－１グリーンコーポ１０７号室,,11,225,3580045,,,,,,,2024-09-11,1,,,,,ミヤビ,0
1187,5040001135340,新規,0,2024-09-11,2024-09-11,＿能株式会社,00136272,株式会社,千葉県,野田市,関宿台町９５８番地２,,12,208,2700202,,,,,,,2024-09-11,1,,,,,シンノウ,0
1188,5040001135349,新規,0,2024-09-11,2024-09-11,株式会社ＹＫアドバイザリー,,株式会社,千葉県,印西市,戸神台１丁目１１番地２３,,12,231,2701349,,,,,,,2024-09-11,1,,,,,ワイケイアドバイザリー,0
1189,5040001135365,新規,0,2024-09-11,2024-09-11,株式会社大多和自動車,,株式会社,千葉県,長生郡白子町,中里４７１９,,12,424,2994215,,,,,,,2024-09-11,1,,,,,,0
1190,5040001135381,新規,0,2024-09-11,2024-09-11,株式会社ＫＧＭ,,株式会社,千葉県,千葉市稲毛区,作草部２丁目１０番４５号,,12,103,2630015,,,,,,,2024-09-11,1,,,,,ケージーエム,0
1191,5040003025688,新規,0,2024-09-11,2024-09-11,ＳＰＡＨＡ　ＭＯＭＥＮＴＳ合同会社,,合同会社,千葉県,印旛郡栄町,南ケ丘２丁目１－１,,12,329,2701533,,,,,,,2024-09-11,1,,,,,スパハモーメンツ,0
1195,5060001037477,新規,0,2024-09-11,2024-09-11,株式会社ＡＫ　ＴＯＫＹＯ　ＴＲＡＤＩＮＧ,,株式会社,栃木県,小山市,大字東野田５４７番地１,,09,208,3230817,,,,,,,2024-09-11,1,,,,,エーケートーキョートレーディング,0
1196,5060001037485,新規,0,2024-09-11,2024-09-11,株式会社ウェルビテック,,株式会社,栃木県,宇都宮市,西川田町８８０番地９２,,09,201,3210151,,,,,,,2024-09-11,1,,,,,ウェルビテック,0
1197,5070001042170,新規,0,2024-09-11,2024-09-11,株式会社ＴＤコーポレーション,,株式会社,群馬県,館林市,成島町１１６２番地の９,,10,207,3740055,,,,,,,2024-09-11,1,,,,,ティーディーコーポレーション,0
1200,5080001026486,新規,0,2024-09-11,2024-09-11,株式会社スマイルリフォーム不動産,,株式会社,静岡県,静岡市葵区,昭府２丁目１５番２５号,,22,101,4200871,,,,,,,2024-09-11,1,,,,,スマイルリフォームフドウサン,0
1204,5080403005096,新規,0,2024-09-11,2024-09-11,ＶＱ３５６合同会社,,合同会社,静岡県,浜松市中央区,大平台３丁目３４番２７号レオパレスドリーム大平台Ａ１０４号,,22,138,4328068,,,,,,,2024-09-11,1,,,,,ヴイキューバーナムサオ,0
1209,5100001037836,新規,0,2024-09-11,2024-09-11,株式会社相棒,,株式会社,長野県,上伊那郡飯島町,本郷２４０６番地３８３,,20,384,3993704,,,,,,,2024-09-11,1,,,,,アイボウ,0
1222,5120001268438,新規,0,2024-09-11,2024-09-11,株式会社英知,,株式会社,大阪府,大阪市生野区,小路３丁目４番２号,,27,116,5440002,,,,,,,2024-09-11,1,,,,,エイチ,0
1223,5120001268446,新規,0,2024-09-11,2024-09-11,株式会社優,,株式会社,大阪府,大阪市平野区,長吉出戸４丁目３番５－２０１号,,27,126,5470011,,,,,,,2024-09-11,1,,,,,ユウ,0
1224,5120001268454,新規,0,2024-09-11,2024-09-11,人事制度設計株式会社,,株式会社,大阪府,大阪市都島区,都島北通２丁目１８番２７－７０１号,,27,102,5340014,,,,,,,2024-09-11,1,,,,,ジンジセイドセッケイ,0
1225,5120001268462,新規,0,2024-09-11,2024-09-11,株式会社ＦＳＳＴ,,株式会社,大阪府,大阪市浪速区,湊町２丁目２－２２－８０９,,27,111,5560017,,,,,,,2024-09-11,1,,,,,エフエスエスティ,0
1226,5120001268487,新規,0,2024-09-11,2024-09-11,大東株式会社,,株式会社,大阪府,大阪市城東区,東中浜９丁目８番２６号、１０８号室,,27,118,5360023,,,,,,,2024-09-11,1,,,,,ダイトウ,0
1227,5120001268520,新規,0,2024-09-11,2024-09-11,ＦＯＳＭＥＴ株式会社,,株式会社,大阪府,大阪市北区,西天満６丁目７－４大阪弁護士ビル２階,,27,127,5300047,,,,,,,2024-09-11,1,,,,,フォスメット,0
1229,5120003027437,新規,0,2024-09-11,2024-09-11,ＴＯＲＡＳＯ合同会社,,合同会社,大阪府,大阪市北区,梅田１丁目１－３大阪駅前第３ビル２９階１－１－１号室,,27,127,5300001,,,,,,,2024-09-11,1,,,,,トラソ,0
1230,5120003027503,新規,0,2024-09-11,2024-09-11,合同会社健康堂,,合同会社,大阪府,大阪市此花区,春日出北１丁目２番１号,,27,104,5540021,,,,,,,2024-09-11,1,,,,,ケンコウドウ,0
1233,5120901049763,新規,0,2024-09-11,2024-09-11,華英株式会社,,株式会社,大阪府,豊中市,玉井町４丁目３番２号,,27,203,5600026,,,,,,,2024-09-11,1,,,,,カイン,0
1235,5120903005335,新規,0,2024-09-11,2024-09-11,ＦＵＲＵＴＡＳ合同会社,,合同会社,大阪府,高槻市,清福寺町２７－２裕和ビルＩ１Ｆ,,27,207,5691132,,,,,,,2024-09-11,1,,,,,フルータス,0
1243,5130001077912,新規,0,2024-09-11,2024-09-11,株式会社京都商事,,株式会社,京都府,京都市東山区,上人町４３５－２、３Ｆ,,26,105,6050903,,,,,,,2024-09-11,1,,,,,キョウトショウジ,0
1244,5130001077920,新規,0,2024-09-11,2024-09-11,株式会社ＳＮＯＷ,,株式会社,京都府,城陽市,富野堀口１４７番地の２,,26,207,6100111,,,,,,,2024-09-11,1,,,,,スノー,0
1246,5130003009855,新規,0,2024-09-11,2024-09-11,合同会社リトルブランチ,,合同会社,京都府,京都市上京区,宮垣町９１－１０２,,26,102,6020853,,,,,,,2024-09-11,1,,,,,リトルブランチ,0
1254,5140001135743,新規,0,2024-09-11,2024-09-11,株式会社Ｒａｎｋ’ｓ,,株式会社,兵庫県,明石市,朝霧北町３７７７－１６－１０７,,28,203,6730851,,,,,,,2024-09-11,1,,,,,ランクス,0
1255,5140001135751,新規,0,2024-09-11,2024-09-11,株式会社エルタス,,株式会社,兵庫県,神戸市北区,上津台４丁目１２番１７号,,28,109,6511515,,,,,,,2024-09-11,1,,,,,エルタス,0
1256,5140001135768,新規,0,2024-09-11,2024-09-11,ジョイフル・クリード株式会社,,株式会社,兵庫県,尼崎市,武庫町２丁目１９番２０号,,28,202,6610044,,,,,,,2024-09-11,1,,,,,ジョイフルクリード,0
1257,5140001135776,新規,0,2024-09-11,2024-09-11,株式会社Ｗｈｉｔｅ　ｓｕｎカンパニー,,株式会社,兵庫県,神戸市垂水区,上高丸１丁目６番４６－４０１号,,28,108,6550017,,,,,,,2024-09-11,1,,,,,ホワイトサンカンパニー,0
1261,5160001026214,新規,0,2024-09-11,2024-09-11,アークリンク株式会社,,株式会社,滋賀県,草津市,矢橋町１５４５－７,,25,206,5250066,,,,,,,2024-09-11,1,,,,,アークリンク,0
1271,5180001163170,新規,0,2024-09-11,2024-09-11,株式会社Ｃｒａｆｔ　Ｌｉｎｋ,,株式会社,愛知県,大府市,共和町４丁目６０８番地,,23,223,4740061,,,,,,,2024-09-11,1,,,,,クラフトリンク,0
1272,5180001163229,新規,0,2024-09-11,2024-09-11,株式会社セントラル,,株式会社,愛知県,名古屋市西区,五才美町６メゾンヤスフク１０３号,,23,104,4520806,,,,,,,2024-09-11,1,,,,,セントラル,0
1279,5180003027340,新規,0,2024-09-11,2024-09-11,合同会社ソララ,,合同会社,愛知県,知多郡南知多町,大字片名字浜山１番地４２チッタ・ナポリＡ棟１０１,,23,445,4703502,,,,,,,2024-09-11,1,,,,,ソララ,0
1283,5190001031640,新規,0,2024-09-11,2024-09-11,パインランド株式会社,,株式会社,三重県,津市,久居新町２８１２ウイズハピネス２Ｆ,,24,201,5141118,,,,,,,2024-09-11,1,,,,,パインランド,0
1299,5250001020802,新規,0,2024-09-11,2024-09-11,株式会社マルックス,,株式会社,山口県,防府市,西仁井令２丁目２２番１９号,,35,206,7470849,,,,,,,2024-09-11,1,,,,,マルックス,0
1300,5250001020810,新規,0,2024-09-11,2024-09-11,株式会社ＲＥＦＩＸ,,株式会社,山口県,山口市,朝田１６０２番地１アンジュール朝田６０２号,,35,203,7530871,,,,,,,2024-09-11,1,,,,,リフィックス,0
1306,5270001009050,新規,0,2024-09-11,2024-09-11,株式会社ＰＯＣ,,株式会社,鳥取県,米子市,西町８６番地,,31,202,6830826,,,,,,,2024-09-11,1,,,,,ピーオーシー,0
1308,5290001107240,新規,0,2024-09-11,2024-09-11,株式会社和喜,,株式会社,福岡県,那珂川市,片縄北３丁目２番７号,,40,231,8111203,,,,,,,2024-09-11,1,,,,,カズキ,0
1310,5290003015796,新規,0,2024-09-11,2024-09-11,合資会社かなた,,合資会社,福岡県,福岡市東区,香椎台５丁目１５番１０号,,40,131,8130014,,,,,,,2024-09-11,1,,,,,カナタ,0
1312,5290803004841,新規,0,2024-09-11,2024-09-11,合同会社グリーン総合開発,,合同会社,福岡県,遠賀郡遠賀町,虫生津南１番２３号,,40,384,8114324,,,,,,,2024-09-11,1,,,,,グリーンソウゴウカイハツ,0
1317,5320001020704,新規,0,2024-09-11,2024-09-11,株式会社ＫＡＲＴＥ,,株式会社,大分県,大分市,大字勢家１０９８番地２８３,,44,201,8700100,,,,,,,2024-09-11,1,,,,,カルテ,0
1319,5330001032459,新規,0,2024-09-11,2024-09-11,株式会社光実,,株式会社,熊本県,熊本市中央区,本荘５丁目１２番６号２Ｆ２０１,,43,101,8600811,,,,,,,2024-09-11,1,,,,,ヒカリミ,0
1320,5330003010553,新規,0,2024-09-11,2024-09-11,合同会社フューチャークリエイションズ,,合同会社,熊本県,熊本市南区,城南町宮地１２４０番５号,,43,104,8614202,,,,,,,2024-09-11,1,,,,,フューチャークリエイションズ,0
1323,5360003014287,新規,0,2024-09-11,2024-09-11,合同会社ＵＰａｓｓｉｏｎ,,合同会社,沖縄県,名護市,字宮里１４９９番地ガーデンエビス５０１号室,,47,209,9050011,,,,,,,2024-09-11,1,,,,,アッパッション,0
1327,5380001034780,新規,0,2024-09-11,2024-09-11,株式会社ＳＡＫＵＹＯ,,株式会社,福島県,郡山市,虎丸町１１番５号アネックス郡山４１１号,,07,203,9638014,,,,,,,2024-09-11,1,,,,,サクヨ,0
1339,5430001092658,新規,0,2024-09-11,2024-09-11,株式会社ａｃｅ,,株式会社,北海道,札幌市豊平区,平岸三条１３丁目７番１８号,,01,105,0620933,,,,,,,2024-09-11,1,,,,,エース,0
1342,5440003001624,新規,0,2024-09-11,2024-09-11,合同会社かしわや学習会,,合同会社,北海道,函館市,石川町３５３番地１０,,01,202,0410802,,,,,,,2024-09-11,1,,,,,カシワヤガクシュウカイ,0
1343,5470001020375,新規,0,2024-09-11,2024-09-11,株式会社小畑タイヤ,,株式会社,香川県,観音寺市,植田町７０８番地,,37,205,7680012,,,,,,,2024-09-11,1,,,,,オバタタイヤ,0
1345,5480001012586,新規,0,2024-09-11,2024-09-11,株式会社アクトホーム,,株式会社,徳島県,徳島市,川内町沖島８４番地１１,,36,201,7710142,,,,,,,2024-09-11,1,,,,,アクトホーム,0
1350,5500001025866,新規,0,2024-09-11,2024-09-11,株式会社Ｂｒｉｃｋｓ,,株式会社,愛媛県,松山市,柳井町２丁目１６番地,,38,201,7900014,,,,,,,2024-09-11,1,,,,,ブリックス,0
1351,5500001025874,新規,0,2024-09-11,2024-09-11,株式会社ＵＭＡＴＥＣ,,株式会社,愛媛県,松山市,宮田町１８３番地６イケダビル１階,,38,201,7900066,,,,,,,2024-09-11,1,,,,,ウマテック,0
1353,5500003003325,新規,0,2024-09-11,2024-09-11,合同会社ビーサイト,,合同会社,愛媛県,松山市,二番町２丁目７番地１５ＹＯＳＨＩＤＡビル５Ｆ,,38,201,7900002,,,,,,,2024-09-11,1,,,,,ビーサイト,0
1362,6010001248128,新規,0,2024-09-11,2024-09-11,ステアズコンサルティング株式会社,,株式会社,東京都,中央区,銀座７丁目１３番２０号銀座ＴＨビル９階,,13,102,1040061,,,,,,,2024-09-11,1,,,,,ステアズコンサルティング,0
1363,6010001248193,新規,0,2024-09-11,2024-09-11,株式会社グリーンフィールド・インベストメント,,株式会社,東京都,中央区,勝どき４丁目６番１－２１１７号,,13,102,1040054,,,,,,,2024-09-11,1,,,,,グリーンフィールドインベストメント,0
1364,6010001248202,新規,0,2024-09-11,2024-09-11,株式会社ミル,,株式会社,東京都,中央区,月島３丁目２６番８号,,13,102,1040052,,,,,,,2024-09-11,1,,,,,ミル,0
1366,6010003044780,新規,0,2024-09-11,2024-09-11,合同会社アン,,合同会社,東京都,中央区,銀座１丁目１２番４号Ｎ＆ＥＢＬＤ．６Ｆ,,13,102,1040061,,,,,,,2024-09-11,1,,,,,アン,0
1367,6010003044863,新規,0,2024-09-11,2024-09-11,合同会社カーチスファンド１０号,,合同会社,東京都,千代田区,六番町２番地８番町Ｍビル３Ｆ,,13,101,1020085,,,,,,,2024-09-11,1,,,,,カーチスファンドジュウゴウ,0
1369,6010005038806,新規,0,2024-09-11,2024-09-11,一般社団法人スサノオ,,その他の設立登記法人,東京都,千代田区,丸の内１丁目４番１号東京共同会計事務所内,,13,101,1000005,,,,,,,2024-09-11,1,,,,,スサノオ,0
1380,6010501052888,新規,0,2024-09-11,2024-09-11,株式会社Ｊｕｎｏ,,株式会社,東京都,台東区,上野３丁目１９番７号,,13,106,1100005,,,,,,,2024-09-11,1,,,,,ジュノ,0
1381,6010601065889,新規,0,2024-09-11,2024-09-11,株式会社Ｅａｇｌｅ　ｉｎｎｏｖａｔｉｏｎ,,株式会社,東京都,墨田区,向島３丁目２９番４－７０３号,,13,107,1310033,,,,,,,2024-09-11,1,,,,,イーグルイノベーション,0
1382,6010603011081,新規,0,2024-09-11,2024-09-11,合同会社Ｙ＆Ｙ,,合同会社,東京都,墨田区,墨田３丁目１４番５号,,13,107,1310031,,,,,,,2024-09-11,1,,,,,ワイアンドワイ,0
1383,6010703007310,新規,0,2024-09-11,2024-09-11,合同会社Ｎａ４,,合同会社,東京都,品川区,大井２丁目３―１２―２０２,,13,109,1400014,,,,,,,2024-09-11,1,,,,,エヌエーフォー,0
1384,6010703007335,新規,0,2024-09-11,2024-09-11,大江堂合同会社,,合同会社,東京都,品川区,東五反田１丁目２番３６－３０４号,,13,109,1410022,,,,,,,2024-09-11,1,,,,,オオエドウ,0
1385,6010703007343,新規,0,2024-09-11,2024-09-11,合同会社アイドゥ,,合同会社,東京都,品川区,旗の台６丁目３番１５号,,13,109,1420064,,,,,,,2024-09-11,1,,,,,アイドゥ,0
1386,6010803005098,新規,0,2024-09-11,2024-09-11,ＴＡＧ合同会社,,合同会社,東京都,大田区,仲六郷３丁目４番４号,,13,111,1440055,,,,,,,2024-09-11,1,,,,,タッグ,0
1394,6011001164281,新規,0,2024-09-11,2024-09-11,Ｌｏｏｐ　Ｍｏｔｉｏｎ　Ｐｉｃｔｕｒｅｓ株式会社,,株式会社,東京都,渋谷区,恵比寿南２丁目３番３－３０６号,,13,113,1500022,,,,,,,2024-09-11,1,,,,,ループモーションピクチャーズ,0
1395,6011001164463,新規,0,2024-09-11,2024-09-11,株式会社ＲＳ　Ｓｙｓｔｅｍ,,株式会社,東京都,渋谷区,渋谷３丁目１３番９号エトワールＵビル３Ｆ,,13,113,1500002,,,,,,,2024-09-11,1,,,,,アールエスシステム,0
1401,6011101108725,新規,0,2024-09-11,2024-09-11,株式会社ＯｐｅｎＭｅｄｉａ,,株式会社,東京都,新宿区,西新宿３丁目３番１３号西新宿水間ビル６階,,13,104,1600023,,,,,,,2024-09-11,1,,,,,オープンメディア,0
1409,6011501031139,新規,0,2024-09-11,2024-09-11,株式会社ジャパンＩＴソリューション,,株式会社,東京都,北区,中里１丁目２１番２号中里ビル１Ｆ,,13,117,1140015,,,,,,,2024-09-11,1,,,,,ジャパンアイティーソリューション,0
1418,6020001159084,新規,0,2024-09-11,2024-09-11,株式会社パラメディックサポート,,株式会社,神奈川県,横浜市中区,花咲町１丁目１６番地１イーグルズネスト１０１号,,14,104,2310063,,,,,,,2024-09-11,1,,,,,パラメディックサポート,0
1420,6021001083217,新規,0,2024-09-11,2024-09-11,株式会社Ｅｔｅｒｎａｌ　Ｆｒｅｅｄｏｍ,,株式会社,神奈川県,相模原市南区,古淵２丁目１６番３号１０１号室,,14,153,2520344,,,,,,,2024-09-11,1,,,,,エターナルフリーダム,0
1427,6030001162153,新規,0,2024-09-11,2024-09-11,株式会社Ａｎｙ　Ａｒｔｓ,,株式会社,埼玉県,越谷市,南越谷１丁目１５－１南越谷ラクーン４Ｆ,,11,222,3430845,,,,,,,2024-09-11,1,,,,,エニーアーツ,0
1428,6030001162426,新規,0,2024-09-11,2024-09-11,株式会社米弘工業,,株式会社,埼玉県,三郷市,戸ケ崎２丁目６８０番地６,,11,237,3410044,,,,,,,2024-09-11,1,,,,,ヨネヒロコウギョウ,0
1433,6030003025069,新規,0,2024-09-11,2024-09-11,まごころ不動産合同会社,,合同会社,埼玉県,幸手市,東２丁目４０番３０号,,11,240,3400114,,,,,,,2024-09-11,1,,,,,マゴコロフドウサン,0
1434,6030003025085,新規,0,2024-09-11,2024-09-11,合同会社とみおか美術,,合同会社,埼玉県,和光市,新倉１丁目４番５３号,,11,229,3510115,,,,,,,2024-09-11,1,,,,,トミオカビジュツ,0
1435,6030003025093,新規,0,2024-09-11,2024-09-11,合同会社ＳＥＮＳＥ,,合同会社,埼玉県,所沢市,大字下富７１０番地の１２,,11,208,3590001,,,,,,,2024-09-11,1,,,,,センス,0
1436,6040001135348,新規,0,2024-09-11,2024-09-11,尾崎建設工業株式会社,,株式会社,千葉県,佐倉市,宮ノ台２丁目１７番１５号,,12,212,2850857,,,,,,,2024-09-11,1,,,,,オザキケンセツコウギョウ,0
1437,6040001135364,新規,0,2024-09-11,2024-09-11,株式会社マルタケ,,株式会社,千葉県,袖ケ浦市,奈良輪２３１０番地２,,12,229,2990263,,,,,,,2024-09-11,1,,,,,マルタケ,0
1440,6060001037476,新規,0,2024-09-11,2024-09-11,株式会社手塚農園,,株式会社,栃木県,宇都宮市,今里町１８１８番地,,09,201,3210402,,,,,,,2024-09-11,1,,,,,テツカノウエン,0
1445,6080001026485,新規,0,2024-09-11,2024-09-11,株式会社三森,,株式会社,静岡県,静岡市葵区,建穂２丁目７番１６号,,22,101,4211214,,,,,,,2024-09-11,1,,,,,ミツモリ,0
1453,6080401027397,新規,0,2024-09-11,2024-09-11,ＧＥＮＮＡＩ株式会社,,株式会社,静岡県,浜松市中央区,入野町４９２３番地の７,,22,138,4328061,,,,,,,2024-09-11,1,,,,,ゲンナイ,0
1455,6100003007761,新規,0,2024-09-11,2024-09-11,合同会社ＴＲＥＳＳＥ,,合同会社,長野県,諏訪市,大字豊田１２２５番地１０,,20,206,3920016,,,,,,,2024-09-11,1,,,,,トレス,0
1460,6120001268453,新規,0,2024-09-11,2024-09-11,株式会社ＩＭＰＲＥＳＳＥＤ,,株式会社,大阪府,大阪市中央区,日本橋１丁目７－４－５Ｆ,,27,128,5420073,,,,,,,2024-09-11,1,,,,,インプレスト,0
1461,6120001268478,新規,0,2024-09-11,2024-09-11,龍国際大阪倉貿置業株式会社,,株式会社,大阪府,大阪市住之江区,南港北２丁目１番１０号,,27,125,5590034,,,,,,,2024-09-11,1,,,,,リュウコクサイオオサカソウボウチギョウ,0
1462,6120001268511,新規,0,2024-09-11,2024-09-11,ＩＫＴ智能株式会社,,株式会社,大阪府,大阪市中央区,森ノ宮中央２丁目１１－６シュライン森ノ宮２０７室,,27,128,5400003,,,,,,,2024-09-11,1,,,,,アイケーティーチノウ,0
1465,6120003027510,新規,0,2024-09-11,2024-09-11,合同会社ＶｅｎｔＦｌｅｕｒ,,合同会社,大阪府,大阪市住吉区,長居東４丁目１１－５ＮＡＶＹＢＵＬＬＩＩ６０１,00136255,27,120,5580004,,,,,,,2024-09-11,1,,,,,ヴァンフルール,0
1466,6120101070255,新規,0,2024-09-11,2024-09-11,株式会社ＨＫＮ,,株式会社,大阪府,堺市堺区,中田出井町３丁２番８号,,27,141,5900016,,,,,,,2024-09-11,1,,,,,エイチケーエヌ,0
1467,6120101070263,新規,0,2024-09-11,2024-09-11,こじか派遣センター株式会社,,株式会社,大阪府,河内長野市,荘園町３９番６号,,27,216,5860093,,,,,,,2024-09-11,1,,,,,コジカハケンセンター,0
1468,6120101070271,新規,0,2024-09-11,2024-09-11,株式会社ガストロノミーアンドウェルフェア,,株式会社,大阪府,和泉市,鶴山台４丁目９番１号,,27,219,5940013,,,,,,,2024-09-11,1,,,,,ガストロノミーアンドウェルフェア,0
1471,6122001038431,新規,0,2024-09-11,2024-09-11,株式会社キャットウォーク,,株式会社,大阪府,八尾市,山本町南４丁目３番２１号,,27,212,5810013,,,,,,,2024-09-11,1,,,,,キャットウォーク,0
1472,6122003002988,新規,0,2024-09-11,2024-09-11,合同会社ＯｆＡ,,合同会社,大阪府,大東市,北条１丁目１０番２３号,,27,218,5740011,,,,,,,2024-09-11,1,,,,,オーエフエー,0
1478,6130003009854,新規,0,2024-09-11,2024-09-11,エンパワーコミュニティ合同会社,,合同会社,京都府,舞鶴市,字南田辺１２６－５,,26,202,6240853,,,,,,,2024-09-11,1,,,,,エンパワーコミュニティ,0
1488,6140001135742,新規,0,2024-09-11,2024-09-11,株式会社マース,,株式会社,兵庫県,神戸市中央区,磯辺通１丁目１番２０号４３９号室,,28,110,6510084,,,,,,,2024-09-11,1,,,,,マース,0
1489,6140001135775,新規,0,2024-09-11,2024-09-11,ＦＫＲ株式会社,,株式会社,兵庫県,神戸市西区,井吹台西町６丁目１７番地の１,,28,111,6512243,,,,,,,2024-09-11,1,,,,,エフケーアール,0
1490,6140001135783,新規,0,2024-09-11,2024-09-11,株式会社５１０,,株式会社,兵庫県,神戸市灘区,友田町４丁目１番２３号ライオンズマンション六甲道２０３,,28,102,6570035,,,,,,,2024-09-11,1,,,,,ゴトウ,0
1493,6140003021065,新規,0,2024-09-11,2024-09-11,ｆｕｋｕｊｕ合同会社,,合同会社,兵庫県,尼崎市,上坂部１丁目２番１号,,28,202,6610979,,,,,,,2024-09-11,1,,,,,フクジュ,0
1494,6140003021073,新規,0,2024-09-11,2024-09-11,阿邁欣貿易合同会社,,合同会社,兵庫県,神戸市中央区,加納町２丁目７番２０号２０８号室,,28,110,6500001,,,,,,,2024-09-11,1,,,,,アマイキンボウエキ,0
1496,6150001027559,新規,0,2024-09-11,2024-09-11,関西解体技工株式会社,,株式会社,奈良県,葛城市,染野２５２－１,,29,211,6390273,,,,,,,2024-09-11,1,,,,,カンサイカイタイギコウ,0
1514,6180001163186,新規,0,2024-09-11,2024-09-11,愛和管財株式会社,,株式会社,愛知県,名古屋市北区,若葉通２丁目１０番地（ローレルコート志賀本通１１０１号）,,23,103,4620854,,,,,,,2024-09-11,1,,,,,アイワカンザイ,0
1528,6240001063792,新規,0,2024-09-11,2024-09-11,株式会社ＳＯＲＡ,,株式会社,広島県,広島市南区,翠３丁目１１番１７－２０４号,,34,103,7340005,,,,,,,2024-09-11,1,,,,,ソラ,0
1533,6260001039452,新規,0,2024-09-11,2024-09-11,株式会社和工業,,株式会社,岡山県,津山市,院庄７５８番地１０,,33,203,7080014,,,,,,,2024-09-11,1,,,,,カノウコウギョウ,0
1543,6290001107223,新規,0,2024-09-11,2024-09-11,株式会社ウェルアセット,,株式会社,福岡県,福岡市中央区,大名１丁目７－３ｍｏｄｅｒｎｐａｌａｚｚｏ大名３０２,,40,133,8100041,,,,,,,2024-09-11,1,,,,,ウェルアセット,0
1548,6300001013907,新規,0,2024-09-11,2024-09-11,株式会社Ｏｐｐｏｒｔｕｎｉｔｙ,,株式会社,佐賀県,佐賀市,田代２丁目７番２６号,,41,201,8400051,,,,,,,2024-09-11,1,,,,,オポチュニティ,0
1554,6330001032458,新規,0,2024-09-11,2024-09-11,ＭＹ・テック株式会社,,株式会社,熊本県,熊本市南区,八分字町１５８３番地１６,,43,104,8615253,,,,,,,2024-09-11,1,,,,,エムワイテック,0
1556,6330003010552,新規,0,2024-09-11,2024-09-11,合同会社Ｕｎｉｔｅｄ,,合同会社,熊本県,熊本市東区,上南部２丁目２１番１９号,,43,102,8618010,,,,,,,2024-09-11,1,,,,,ユナイテッド,0
1558,6360001034187,新規,0,2024-09-11,2024-09-11,ＭＡＫ　Ｔｉｅｓ株式会社,,株式会社,沖縄県,那覇市,天久２丁目９番１号,,47,201,9000005,,,,,,,2024-09-11,1,,,,,マックタイズ,0
1561,6360003014294,新規,0,2024-09-11,2024-09-11,合同会社ワンステップ,,合同会社,沖縄県,中頭郡西原町,字兼久２４８番地の１－１０５号,,47,329,9030104,,,,,,,2024-09-11,1,,,,,ワンステップ,0
1563,6370001051702,新規,0,2024-09-11,2024-09-11,株式会社おざし興産,,株式会社,宮城県,石巻市,大街道西３丁目４番１３号,,04,202,9860859,,,,,,,2024-09-11,1,,,,,オザシコウサン,0
1564,6370001051710,新規,0,2024-09-11,2024-09-11,株式会社Ｋｉ,,株式会社,宮城県,宮城郡七ヶ浜町,松ヶ浜字祝口３番地の１,,04,404,9850812,,,,,,,2024-09-11,1,,,,,ケーアイ,0
1571,6390001017734,新規,0,2024-09-11,2024-09-11,株式会社Ａｉｎａ,,株式会社,山形県,酒田市,みずほ１丁目１３番地の１４,,06,204,9980853,,,,,,,2024-09-11,1,,,,,アイナ,0
1572,6390005009083,新規,0,2024-09-11,2024-09-11,一般社団法人倫成会,,その他の設立登記法人,山形県,山形市,幸町１番２号駅南ビル地下１階,,06,201,9900038,,,,,,,2024-09-11,1,,,,,リンセイカイ,0
1575,6420003002994,新規,0,2024-09-11,2024-09-11,合同会社Ｈａｐｐｙ　Ｈｏｕｒｓ,,合同会社,青森県,八戸市,大字十三日町１番地ヴィアノヴァＢ１Ｆ,,02,203,0310042,,,,,,,2024-09-11,1,,,,,ハッピーアワーズ,0
1581,6430001092673,新規,0,2024-09-11,2024-09-11,株式会社スリーワン,,株式会社,北海道,札幌市厚別区,厚別北一条１丁目１番１号,,01,108,0040071,,,,,,,2024-09-11,1,,,,,スリーワン,0
1588,6490001010860,新規,0,2024-09-11,2024-09-11,有彩ステーブル株式会社,,株式会社,高知県,高知市,長浜１６４５番地１,,39,201,7810270,,,,,,,2024-09-11,1,,,,,ユウサイステーブル,0
1590,6490003001932,新規,0,2024-09-11,2024-09-11,合同会社翔幸建設,,合同会社,高知県,高知市,針木本町３９番３４号,,39,201,7808088,,,,,,,2024-09-11,1,,,,,ショウコウ,0
1592,6500001025865,新規,0,2024-09-11,2024-09-11,ｎｅｗｔｒａｌ株式会社,,株式会社,愛媛県,松山市,千舟町４丁目３番地５千舟第２ビル４階,,38,201,7900011,,,,,,,2024-09-11,1,,,,,ニュートラル,0
1593,6500001025873,新規,0,2024-09-11,2024-09-11,株式会社Ａｓａｈｉエージェント,,株式会社,愛媛県,松山市,祇園町５－２２Ｄ－ＲＡＴＩＯ１０３,,38,201,7900965,,,,,,,2024-09-11,1,,,,,アサヒエージェント,0
1596,6700150127129,新規,0,2024-09-11,2024-09-11,Ｓｈｅｎｚｈｅｎｓｈｉｚｈｉｍａｉｙｕｎｘｉｋｅｊｉｙｏｕｘｉａｎｇｏｎｇｓｉ,,外国会社等,,,,,,,,ｍｉｎｚｈｉｊｉｅｄａｏ，ｍｉｎｌｅｓｈｅｑｖ，ｍｉｎｌｅｇｏｎｇｙｅｑｖ　５ｄｏｎｇ　２１９，ｓｈｅｎｚｈｅｎｓｈｉ，ｌｏｎｇｈｕａ，ｇｕａｎｇｄｏｎｇ,,,,,,2024-09-11,1,,,,,シェンジェンシージーマイユインシイコーァジーヨウシエンゴーンスー,0
1606,7010001248119,新規,0,2024-09-11,2024-09-11,株式会社Ｕｌｕ,,株式会社,東京都,中央区,八丁堀３丁目２７番２号一ノ瀬ビル１Ｆ,,13,102,1040032,,,,,,,2024-09-11,1,,,,,ウル,0
1608,7010005038805,新規,0,2024-09-11,2024-09-11,一般社団法人ＳＲＥ,,その他の設立登記法人,東京都,千代田区,丸の内１丁目４番１号東京共同会計事務所内,,13,101,1000005,,,,,,,2024-09-11,1,,,,,エスアールイー,0
1610,7010103002415,新規,0,2024-09-11,2024-09-11,合同会社ＬＡＬＡ　ｐｌｕｓ,,合同会社,東京都,八王子市,横山町８番６－５０２号,,13,201,1920081,,,,,,,2024-09-11,1,,,,,ララプラス,0
1619,7010501052887,新規,0,2024-09-11,2024-09-11,株式会社熊本アクセス,,株式会社,東京都,台東区,台東１丁目１０番６号,,13,106,1100016,,,,,,,2024-09-11,1,,,,,クマモトアクセス,0
1621,7010601065888,新規,0,2024-09-11,2024-09-11,株式会社ｂｒｉｇｈｔ,,株式会社,東京都,墨田区,錦糸１丁目２番１号アルカセントラル１４Ｆ,,13,107,1300013,,,,,,,2024-09-11,1,,,,,ブライト,0
1622,7010601065896,新規,0,2024-09-11,2024-09-11,スカーレット株式会社,,株式会社,東京都,江東区,東雲１丁目９番５０－２８１１号,,13,108,1350062,,,,,,,2024-09-11,1,,,,,スカーレット,0
1623,7010601065905,新規,0,2024-09-11,2024-09-11,エレクトリカ株式会社,,株式会社,東京都,江東区,平野１丁目２番２－６０２号,,13,108,1350023,,,,,,,2024-09-11,1,,,,,エレクトリカ,0
1624,7010603011072,新規,0,2024-09-11,2024-09-11,永安合同会社,,合同会社,東京都,墨田区,墨田１丁目１４－８サンシャインハイツ１０６号室,,13,107,1310031,,,,,,,2024-09-11,1,,,,,エイアン,0
1626,7010701046524,新規,0,2024-09-11,2024-09-11,株式会社ＳＩＫ,,株式会社,東京都,品川区,上大崎３丁目１番３０－２５０７号,,13,109,1410021,,,,,,,2024-09-11,1,,,,,エスアイケー,0
1629,7010805003132,新規,0,2024-09-11,2024-09-11,一般社団法人サンクスリヴ,,その他の設立登記法人,東京都,大田区,北馬込２丁目３６番１７号,,13,111,1430021,,,,,,,2024-09-11,1,,,,,サンクスリヴ,0
1630,7010901055960,新規,0,2024-09-11,2024-09-11,株式会社ＭＡＳＴ,,株式会社,東京都,世田谷区,松原２丁目２５番１６号,,13,112,1560043,,,,,,,2024-09-11,1,,,,,マスト,0
1631,7010903009345,新規,0,2024-09-11,2024-09-11,合同会社グレースペック,,合同会社,東京都,世田谷区,太子堂４丁目１８番１５号マガザン三軒茶屋２－３Ｆ－３,,13,112,1540004,,,,,,,2024-09-11,1,,,,,グレースペック,0
1632,7010903009353,新規,0,2024-09-11,2024-09-11,彌榮３６９合同会社,,合同会社,東京都,世田谷区,奥沢８丁目１３－８メゾン奥沢１０１,,13,112,1580083,,,,,,,2024-09-11,1,,,,,イヤーサカミロク,0
1639,7011001164586,新規,0,2024-09-11,2024-09-11,ＫＳプランニング株式会社,,株式会社,東京都,渋谷区,恵比寿１丁目３４番１１－１８０６号,,13,113,1500013,,,,,,,2024-09-11,1,,,,,ケーエスプランニング,0
1640,7011003019937,新規,0,2024-09-11,2024-09-11,合同会社Ｏｔｏｎｏｅ,,合同会社,東京都,渋谷区,道玄坂１丁目１０番８号渋谷道玄坂東急ビル２Ｆ－Ｃ,,13,113,1500043,,,,,,,2024-09-11,1,,,,,オトノエ,0
1642,7011101108724,新規,0,2024-09-11,2024-09-11,ｈａｎｄｓ　ｄｅｓｉｇｎ株式会社,,株式会社,東京都,新宿区,新宿１丁目３６－２新宿第七葉山ビル３Ｆ,,13,104,1600022,,,,,,,2024-09-11,1,,,,,ハンズデザイン,0
1643,7011101108740,新規,0,2024-09-11,2024-09-11,ＣＩＯ株式会社,,株式会社,東京都,新宿区,大久保１丁目１６番１９号３階,,13,104,1690072,,,,,,,2024-09-11,1,,,,,シアイオ,0
1645,7011103014937,新規,0,2024-09-11,2024-09-11,合同会社わくわくたぬき,,合同会社,東京都,新宿区,西新宿７丁目５番５号Ｐｌａｚａ西新宿ＵＣＦ４階,,13,104,1600023,,,,,,,2024-09-11,1,,,,,ワクワクタヌキ,0
1647,7011203004482,新規,0,2024-09-11,2024-09-11,ＶＡＮＴＣＧ合同会社,,合同会社,東京都,中野区,東中野１丁目３６番９号トマルヤビル４０１,,13,114,1640003,,,,,,,2024-09-11,1,,,,,ヴァンティーシージー,0
1648,7011205002625,新規,0,2024-09-11,2024-09-11,土地家屋調査士法人石黒事務所,,その他の設立登記法人,東京都,中野区,本町４丁目４８番１３号栗原ビル４階,,13,114,1640012,,,,,,,2024-09-11,1,,,,,イシグロジムショ,0
1649,7011301029992,新規,0,2024-09-11,2024-09-11,株式会社オオゲツ,,株式会社,東京都,杉並区,堀ノ内３丁目１番２３号スペーシア高円寺１－１００４号,,13,115,1660013,,,,,,,2024-09-11,1,,,,,オオゲツ,0
1650,7011303005281,新規,0,2024-09-11,2024-09-11,ＡＮＭＹ　ＪＡＰＡＮ合同会社,,合同会社,東京都,杉並区,高円寺南２丁目３８番１５号大生高円寺南マンション１０５号,,13,115,1660003,,,,,,,2024-09-11,1,,,,,アンミジャパン,0
1653,7011501031138,新規,0,2024-09-11,2024-09-11,株式会社システムプロダクトジャパン,,株式会社,東京都,北区,中里１丁目２１番２号中里ビル１Ｆ,,13,117,1140015,,,,,,,2024-09-11,1,,,,,システムプロダクトジャパン,0
1654,7011503006220,新規,0,2024-09-11,2024-09-11,合同会社ウイング,,合同会社,東京都,荒川区,荒川２丁目５４番１号,,13,118,1160002,,,,,,,2024-09-11,1,,,,,ウイング,0
1655,7011601028050,新規,0,2024-09-11,2024-09-11,逸家株式会社,,株式会社,東京都,練馬区,南大泉５丁目３８番９号ツインリーフ南大泉１０２,,13,120,1780064,,,,,,,2024-09-11,1,,,,,イッカ,0
1656,7011605002605,新規,0,2024-09-11,2024-09-11,一般社団法人防人と歩む会,,その他の設立登記法人,東京都,練馬区,光が丘２丁目１０番５号１４０３号,,13,120,1790072,,,,,,,2024-09-11,1,,,,,サキモリトアユムカイ,0
1661,7012303002046,新規,0,2024-09-11,2024-09-11,合同会社ＫＥＩ探偵社,,合同会社,東京都,町田市,玉川学園１丁目２２－１２クレール玉川学園前２０２,,13,209,1940041,,,,,,,2024-09-11,1,,,,,ケイタンテイシャ,0
1666,7012803003510,新規,0,2024-09-11,2024-09-11,ＳＡＭＵＲＡＩ　ＡＲＴＳ合同会社,,合同会社,東京都,国分寺市,光町１丁目４１番地５ソフトタウン武蔵野１０５,,13,214,1850034,,,,,,,2024-09-11,1,,,,,サムライアーツ,0
1676,7020001159050,新規,0,2024-09-11,2024-09-11,株式会社ＧＲ設備,,株式会社,神奈川県,川崎市川崎区,大島４丁目５－３喜美代コーポ大島２０１,,14,131,2100834,,,,,,,2024-09-11,1,,,,,ジーアールセツビ,0
1677,7020001159083,新規,0,2024-09-11,2024-09-11,株式会社ヘルツ,,株式会社,神奈川県,川崎市幸区,小倉１丁目３番２３号ソニューム１０２,,14,132,2120054,,,,,,,2024-09-11,1,,,,,ヘルツ,0
1678,7020001159158,新規,0,2024-09-11,2024-09-11,株式会社４ＫＤＯ１０,,株式会社,神奈川県,横浜市青葉区,荏田町４４９－２９,,14,117,2250013,,,,,,,2024-09-11,1,,,,,フォアケドテン,0
1683,7020003026851,新規,0,2024-09-11,2024-09-11,合同会社ＳＤＫＨ,,合同会社,神奈川県,横浜市旭区,白根６丁目２２－１５,,14,112,2410005,,,,,,,2024-09-11,1,,,,,エスディケーエイチ,0
1684,7020003026876,新規,0,2024-09-11,2024-09-11,合同会社Ｃ７ｉｎｆｏｒｍａｔｉｃｓ,,合同会社,神奈川県,横浜市戸塚区,前田町２３８番地１サンリヤン東戸塚６２０号,,14,110,2440804,,,,,,,2024-09-11,1,,,,,シーセブンインフォマティクス,0
1692,7030003025092,新規,0,2024-09-11,2024-09-11,合同会社みらい,,合同会社,埼玉県,さいたま市緑区,大字間宮７１５番地７,,11,109,3360965,,,,,,,2024-09-11,1,,,,,ミライ,0
1698,7040001135339,新規,0,2024-09-11,2024-09-11,株式会社Ｒｅａｌｅｄｇｅ,,株式会社,千葉県,袖ケ浦市,のぞみ野６８番地１３,,12,229,2990251,,,,,,,2024-09-11,1,,,,,リアレッジ,0
1699,7040001135347,新規,0,2024-09-11,2024-09-11,株式会社縁人,,株式会社,千葉県,習志野市,谷津５丁目３６番１８－２０２号,,12,216,2750026,,,,,,,2024-09-11,1,,,,,エンジン,0
1700,7040001135355,新規,0,2024-09-11,2024-09-11,株式会社ジーファクトリー,,株式会社,千葉県,八千代市,大和田新田４５番地５,,12,221,2760046,,,,,,,2024-09-11,1,,,,,ジーファクトリー,0
1701,7040001135371,新規,0,2024-09-11,2024-09-11,株式会社ｆｏｏｌ,,株式会社,千葉県,鎌ケ谷市,粟野７５１番２２,,12,224,2730132,,,,,,,2024-09-11,1,,,,,フール,0
1705,7040005022491,新規,0,2024-09-11,2024-09-11,司法書士法人クレスタ,,その他の設立登記法人,千葉県,柏市,若柴３４１番地５,,12,217,2770871,,,,,,,2024-09-11,1,,,,,クレスタ,0
1710,7070001042169,新規,0,2024-09-11,2024-09-11,株式会社ＴＥＫＩＳＥ,,株式会社,群馬県,前橋市,総社町２丁目８番８号メゾン吉沢Ｂ１０１,,10,201,3710853,,,,,,,2024-09-11,1,,,,,テキセ,0
1713,7070003005578,新規,0,2024-09-11,2024-09-11,Ｓ＆Ｃｏ．合同会社,,合同会社,群馬県,安中市,松井田町新堀３９６番地１,,10,211,3790221,,,,,,,2024-09-11,1,,,,,エスアンドコー,0
1717,7080003003291,新規,0,2024-09-11,2024-09-11,合同会社ム・ラージ不動産,,合同会社,静岡県,焼津市,塩津２５５番地,,22,212,4250085,,,,,,,2024-09-11,1,,,,,ムラージフドウサン,0
1740,7120001268452,新規,0,2024-09-11,2024-09-11,椿川株式会社,,株式会社,大阪府,大阪市港区,南市岡１丁目８番２２号内田文化１０１Ｄ,,27,107,5520011,,,,,,,2024-09-11,1,,,,,ツバキカワ,0
1741,7120001268460,新規,0,2024-09-11,2024-09-11,株式会社Ｄ‐ＰＬＡＮＮＩＮＧ,,株式会社,大阪府,大阪市浪速区,難波中３丁目７番２号,,27,111,5560011,,,,,,,2024-09-11,1,,,,,ディープランニング,0
1742,7120001268477,新規,0,2024-09-11,2024-09-11,株式会社ＴＯＭＯ,,株式会社,大阪府,大阪市平野区,喜連東１丁目７番３６－３０１号,,27,126,5470021,,,,,,,2024-09-11,1,,,,,トモ,0
1745,7120003027501,新規,0,2024-09-11,2024-09-11,非凡合同会社,,合同会社,大阪府,大阪市東成区,大今里南１丁目１８番７号大宝今里ロイヤルハイツ２０５号室,,27,115,5370013,,,,,,,2024-09-11,1,,,,,ヒボン,0
1746,7120003027526,新規,0,2024-09-11,2024-09-11,合同会社Ｐｒｏ．Ｐｏ,,合同会社,大阪府,大阪市中央区,南久宝寺町４丁目６番１０号,,27,128,5410058,,,,,,,2024-09-11,1,,,,,プロポ,0
1750,7120101070262,新規,0,2024-09-11,2024-09-11,株式会社ＣＡＬＭＡ　ＡＲＴ,,株式会社,大阪府,堺市堺区,石津町２丁１ー１２,,27,141,5900814,,,,,,,2024-09-11,1,,,,,カルマアート,0
1754,7130001077893,新規,0,2024-09-11,2024-09-11,株式会社ＥＮｉＳＨｉ’Ｓ,,株式会社,京都府,京都市南区,東九条南河辺町２８番地,,26,107,6018034,,,,,,,2024-09-11,1,,,,,エニシス,0
1755,7130001077910,新規,0,2024-09-11,2024-09-11,株式会社ＲｅＳｔｏｒｙ,,株式会社,京都府,京都市南区,東九条西山王町３１番地,,26,107,6018003,,,,,,,2024-09-11,1,,,,,リストーリー,0
1756,7130001077919,新規,0,2024-09-11,2024-09-11,宇野印刷株式会社,,株式会社,京都府,京都市上京区,中立売通裏門東入多門町４３４番地コスモ星の子ハイツ７０７号室,,26,102,6028261,,,,,,,2024-09-11,1,,,,,ウノインサツ,0
1760,7130003009845,新規,0,2024-09-11,2024-09-11,合同会社ルーリィ,,合同会社,京都府,長岡京市,開田４丁目２６番１１号,,26,209,6170826,,,,,,,2024-09-11,1,,,,,ルーリィ,0
1761,7130003009853,新規,0,2024-09-11,2024-09-11,合同会社ｉｎｏｒｅｅ,,合同会社,京都府,京都市下京区,七条通油小路東入大黒町２２７番地第２キョートビル４０２,,26,106,6008223,,,,,,,2024-09-11,1,,,,,イノリー,0
1768,7140001135659,新規,0,2024-09-11,2024-09-11,株式会社Ｔ＆Ｆ,,株式会社,兵庫県,尼崎市,田能２丁目２番８－２０１号,,28,202,6610951,,,,,,,2024-09-11,1,,,,,ティーアンドエフ,0
1769,7140001135741,新規,0,2024-09-11,2024-09-11,ＳＡＮＡ株式会社,,株式会社,兵庫県,神戸市垂水区,小束山手１丁目１番２号,,28,108,6550009,,,,,,,2024-09-11,1,,,,,サナ,0
1770,7140001135782,新規,0,2024-09-11,2024-09-11,ＨａｒｂｏｒＮｅｔ株式会社,,株式会社,兵庫県,神戸市中央区,加納町４丁目９－１３ＴＡＫＡＩＢ．Ｌ．Ｄ１階,,28,110,6500001,,,,,,,2024-09-11,1,,,,,ハーバーネット,0
1773,7150001027558,新規,0,2024-09-11,2024-09-11,株式会社カジュレア,,株式会社,奈良県,橿原市,中曽司町３０９番地の６,,29,205,6340845,,,,,,,2024-09-11,1,,,,,カジュレア,0
1776,7160001026212,新規,0,2024-09-11,2024-09-11,株式会社ＡＳＡＰ２４,,株式会社,滋賀県,草津市,平井２丁目１１番４号,,25,206,5250023,,,,,,,2024-09-11,1,,,,,アサップトゥエンティフォー,0
1778,7170003002103,新規,0,2024-09-11,2024-09-11,山芝柑橘合同会社,,合同会社,和歌山県,海草郡紀美野町,動木５４３番地,,30,304,6401131,,,,,,,2024-09-11,1,,,,,ヤマシバカンキツ,0
1782,7180001163235,新規,0,2024-09-11,2024-09-11,株式会社ｕｌｕ,,株式会社,愛知県,名古屋市名東区,貴船３丁目３０６番地サンビューマンション中京１－Ｃ,,23,115,4650058,,,,,,,2024-09-11,1,,,,,ウル,0
1790,7200001042915,新規,0,2024-09-11,2024-09-11,株式会社マルケイ工務店,,株式会社,岐阜県,下呂市,金山町大船渡５９３番地６,,21,220,5091614,,,,,,,2024-09-11,1,,,,,マルケイコウムテン,0
1797,7240001063809,新規,0,2024-09-11,2024-09-11,株式会社ミサキ出版,,株式会社,広島県,広島市中区,本川町２丁目１番１３号和光パレス２１－１階,,34,101,7300802,,,,,,,2024-09-11,1,,,,,ミサキシュッパン,0
1798,7240003006848,新規,0,2024-09-11,2024-09-11,合同会社Ｏｃｈｉ　Ｌａｂ．,,合同会社,広島県,広島市安芸区,矢野南３丁目８番８号,,34,107,7360086,,,,,,,2024-09-11,1,,,,,オチラボ,0
1802,7250001020809,新規,0,2024-09-11,2024-09-11,株式会社ＹＡＢＩＳ,,株式会社,山口県,山口市,小郡御幸町２番３号和田ビル,,35,203,7540011,,,,,,,2024-09-11,1,,,,,ヤビス,0
1805,7260001039451,新規,0,2024-09-11,2024-09-11,ＲＥ７株式会社,,株式会社,岡山県,津山市,中北上７９８番地,,33,203,7094606,,,,,,,2024-09-11,1,,,,,アールイーセブン,0
1807,7280001009254,新規,0,2024-09-11,2024-09-11,株式会社ＯＭクリエーション,,株式会社,島根県,出雲市,国富町１２６番地,,32,203,6910011,,,,,,,2024-09-11,1,,,,,オーエムクリエーション,0
1811,7290001107222,新規,0,2024-09-11,2024-09-11,株式会社ローゼガーランド,,株式会社,福岡県,福岡市中央区,清川１丁目１２番１３号ネストピア渡辺通１４０１号,,40,133,8100005,,,,,,,2024-09-11,1,,,,,ローゼガーランド,0
1813,7310001019209,新規,0,2024-09-11,2024-09-11,株式会社Ｓ．Ｋ．コーポレーション,,株式会社,長崎県,諫早市,八坂町５番３号,,42,204,8540025,,,,,,,2024-09-11,1,,,,,エスケイコーポレーション,0
1823,7340001026788,新規,0,2024-09-11,2024-09-11,株式会社竹創,,株式会社,鹿児島県,曽於市,末吉町二之方５１３４番地１,,46,217,8998605,,,,,,,2024-09-11,1,,,,,タケソウ,0
1832,7380005012863,新規,0,2024-09-11,2024-09-11,一般社団法人エミーズ,,その他の設立登記法人,福島県,郡山市,大槻町字原田東１０番地の１,,07,203,9630201,,,,,,,2024-09-11,1,,,,,エミーズ,0
1836,7390003002279,新規,0,2024-09-11,2024-09-11,日本自動車合同会社,,合同会社,山形県,東根市,大字沼沢２１３０番地２,,06,211,9993725,,,,,,,2024-09-11,1,,,,,ニッポンジドウシャ,0
1839,7420005007925,新規,0,2024-09-11,2024-09-11,土地家屋調査士法人コガワ登記測量事務所,,その他の設立登記法人,青森県,五所川原市,大字姥萢字船橋４５番地３０,00136262,02,205,0370015,,,,,,,2024-09-11,1,,,,,コガワトウキソクリョウジムショ,0
1841,7430001092648,新規,0,2024-09-11,2024-09-11,株式会社創再,,株式会社,北海道,江別市,見晴台１番地の５５,,01,217,0670042,,,,,,,2024-09-11,1,,,,,ソウサイ,0
1845,7430003016761,新規,0,2024-09-11,2024-09-11,ＥＶＥＲ　ＰＲＩＮＣＥ合同会社,,合同会社,北海道,虻田郡倶知安町,南四条西２丁目２番５８号,,01,400,0440034,,,,,,,2024-09-11,1,,,,,エバープリンス,0
1850,7470001020373,新規,0,2024-09-11,2024-09-11,株式会社Ａｎｓｗｅｒ,,株式会社,香川県,綾歌郡綾川町,羽床下１８０６番地１,,37,387,7612308,,,,,,,2024-09-11,1,,,,,アンサー,0
1852,7480003002179,新規,0,2024-09-11,2024-09-11,合同会社Ｆｕｔｕｒｅ,,合同会社,徳島県,海部郡牟岐町,大字中村字大谷９４番地４,,36,383,7750006,,,,,,,2024-09-11,1,,,,,フューチャー,0
1854,7500001025872,新規,0,2024-09-11,2024-09-11,株式会社Ｈｉｇｈ‐Ｌｉｎｅ,,株式会社,愛媛県,東温市,見奈良１５２６番地１,,38,215,7910211,,,,,,,2024-09-11,1,,,,,ハイライン,0
1855,7700150127128,新規,0,2024-09-11,2024-09-11,ＬＥＡＤＥＲＯＲ　ＢＩＯＴＥＣＨＮＯＬＯＧＹ　ＣＯ．，ＬＴＤ．,,外国会社等,,,,,,,,１３　Ｆ．，Ｎｏ．９６，Ｘｉｎｇｄｅ　Ｒｄ．，Ｓａｎｃｈｏｎｇ　Ｄｉｓｔ．，Ｎｅｗ　Ｔａｉｐｅｉ　Ｃｉｔｙ　２４１５８，Ｔａｉｗａｎ（Ｒ．Ｏ．Ｃ．）,,,,,,2024-09-11,1,,,,,リーダーローンバイオテクノロジーカンパニーリミテッド,0
1869,8010001248118,新規,0,2024-09-11,2024-09-11,第一生命株式会社,,株式会社,東京都,文京区,白山１丁目６番４号文京ＶｅｎｔｕｒｅＢａｓｅ２１７,,13,105,1130001,,,,,,,2024-09-11,1,,,,,ダイイチセイメイ,0
1870,8010001248183,新規,0,2024-09-11,2024-09-11,株式会社白瑛,,株式会社,東京都,中央区,銀座１丁目１２－４Ｎ＆ＥＢＬＤ．７階,,13,102,1040061,,,,,,,2024-09-11,1,,,,,ハクエイ,0
1871,8010001248191,新規,0,2024-09-11,2024-09-11,株式会社ＣＬＥＡＲ,,株式会社,東京都,中央区,日本橋兜町９－５兜町平和ビル０２１２号室,,13,102,1030026,,,,,,,2024-09-11,1,,,,,クリア,0
1872,8010001248200,新規,0,2024-09-11,2024-09-11,株式会社ハコブネ,,株式会社,東京都,中央区,銀座７丁目１３番２１号銀座ｓｉｎｒｏｋｕｓｙｕビル２階,,13,102,1040061,,,,,,,2024-09-11,1,,,,,ハコブネ,0
1873,8010001248209,新規,0,2024-09-11,2024-09-11,Ｆｕｔｕｒｅ　Ｗｅａｌｔｈ　Ｉｎｖｅｓｔｍｅｎｔ　Ｈｏｌｄｉｎｇｓ株式会社,,株式会社,東京都,千代田区,神田東松下町２６－１－２階,,13,101,1010042,,,,,,,2024-09-11,1,,,,,フューチャーウェルスインベストメントホールディングス,0
1875,8010003044861,新規,0,2024-09-11,2024-09-11,鬼高資産所有合同会社,,合同会社,東京都,千代田区,平河町１丁目６番１５号シルスフィア会計事務所内,,13,101,1020093,,,,,,,2024-09-11,1,,,,,オニダカシサンショユウ,0
1877,8010101016317,新規,0,2024-09-11,2024-09-11,ＩＴプロジェクトプロフェッショナル株式会社,,株式会社,東京都,八王子市,明神町３丁目１１番２ー５０６号,,13,201,1920046,,,,,,,2024-09-11,1,,,,,アイティープロジェクトプロフェッショナル,0
1886,8010405023562,新規,0,2024-09-11,2024-09-11,Ｈｉｍｅ‐Ｉ一般社団法人,,その他の設立登記法人,東京都,港区,虎ノ門１丁目２番３号虎ノ門清和ビル５階,,13,103,1050001,,,,,,,2024-09-11,1,,,,,ヒメワン,0
1887,8010501052886,新規,0,2024-09-11,2024-09-11,三靖株式会社,,株式会社,東京都,台東区,松が谷２丁目９番１－３０３号,,13,106,1110036,,,,,,,2024-09-11,1,,,,,サンセイ,0
1888,8010601065895,新規,0,2024-09-11,2024-09-11,株式会社ＨＯ商店,,株式会社,東京都,江東区,亀戸２丁目６番４－７０３号,,13,108,1360071,,,,,,,2024-09-11,1,,,,,ホショウテン,0
1891,8010603011071,新規,0,2024-09-11,2024-09-11,合同会社Ｓａｌｏｎ　Ｋ,,合同会社,東京都,江東区,豊洲３丁目６番５－３７１１号,,13,108,1350061,,,,,,,2024-09-11,1,,,,,サロンケイ,0
1895,8010803005096,新規,0,2024-09-11,2024-09-11,ＦＵＡＮ合同会社,,合同会社,東京都,大田区,鵜の木２丁目２番２号オーチャードアルファ３０１号室,,13,111,1460091,,,,,,,2024-09-11,1,,,,,フアン,0
1903,8011001164511,新規,0,2024-09-11,2024-09-11,株式会社ＲＡＮＫＬ,,株式会社,東京都,渋谷区,道玄坂１丁目１０番８号渋谷道玄坂東急ビル２Ｆ－Ｃ,,13,113,1500043,,,,,,,2024-09-11,1,,,,,ランクル,0
1904,8011001164619,新規,0,2024-09-11,2024-09-11,日本小売電力取引株式会社,,株式会社,東京都,渋谷区,神南１丁目１９番４号,,13,113,1500041,,,,,,,2024-09-11,1,,,,,ニホンコウリデンリョクトリヒキ,0
1906,8011003019936,新規,0,2024-09-11,2024-09-11,Ｓｕｅｒｔｅ合同会社,,合同会社,東京都,目黒区,大岡山１丁目１番１０号,,13,110,1520033,,,,,,,2024-09-11,1,,,,,,0
1907,8011003019985,新規,0,2024-09-11,2024-09-11,合同会社ａｒｔｈｏｌｉｃ,,合同会社,東京都,渋谷区,恵比寿西２丁目４番８号ウィンド恵比寿ビル８Ｆ,,13,113,1500021,,,,,,,2024-09-11,1,,,,,アースホリック,0
1915,8011103014928,新規,0,2024-09-11,2024-09-11,合同会社ＫＯＺＹ,,合同会社,東京都,新宿区,西新宿３丁目３番１３号西新宿水間ビル６階,,13,104,1600023,,,,,,,2024-09-11,1,,,,,コジー,0
1916,8011103014936,新規,0,2024-09-11,2024-09-11,合同会社青葉電力,,合同会社,東京都,新宿区,新宿４丁目１番６号ＪＲ新宿ミライナタワー２８階,,13,104,1600022,,,,,,,2024-09-11,1,,,,,アオバパワー,0
1927,8011803006448,新規,0,2024-09-11,2024-09-11,合同会社ＪＶＳ,,合同会社,東京都,葛飾区,西新小岩４丁目２５番２３号エルマンション１Ｂ－３０３,,13,122,1240025,,,,,,,2024-09-11,1,,,,,ゼヴィエス,0
1928,8011805003393,新規,0,2024-09-11,2024-09-11,医療法人社団恵琉会,,その他の設立登記法人,東京都,葛飾区,宝町２丁目２３番３号宝町第３ハルビル２階,,13,122,1240005,,,,,,,2024-09-11,1,,,,,ケイリュウカイ,0
1932,8012403006739,新規,0,2024-09-11,2024-09-11,合同会社クラッチマントウキョウ,,合同会社,東京都,調布市,飛田給２丁目２８－４１,,13,208,1820036,,,,,,,2024-09-11,1,,,,,クラッチマントウキョウ,0
1934,8012703003089,新規,0,2024-09-11,2024-09-11,合同会社８８８,,合同会社,東京都,東村山市,栄町２丁目１０番５号エルム久米川ビル５Ｆ,,13,213,1890013,,,,,,,2024-09-11,1,,,,,スリーエイト,0
1943,8020001159058,新規,0,2024-09-11,2024-09-11,株式会社エクステック,,株式会社,神奈川県,川崎市麻生区,細山６丁目１番１５号,,14,137,2150001,,,,,,,2024-09-11,1,,,,,エクステック,0
1944,8020001159074,新規,0,2024-09-11,2024-09-11,株式会社エール総合不動産,,株式会社,神奈川県,横浜市港北区,日吉７丁目１番４号メゾンタチバナＡ棟１０３号室,,14,109,2230061,,,,,,,2024-09-11,1,,,,,エールソウゴウフドウサン,0
1945,8020001159090,新規,0,2024-09-11,2024-09-11,株式会社ベアーズ東日本,,株式会社,神奈川県,横浜市中区,宮川町３丁目１０６－３－２Ｆ,,14,104,2310065,,,,,,,2024-09-11,1,,,,,ベアーズヒガシニホン,0
1948,8020003026859,新規,0,2024-09-11,2024-09-11,横浜ソリューションズ合同会社,,合同会社,神奈川県,横浜市瀬谷区,阿久和西４丁目３２番１１号,,14,114,2460025,,,,,,,2024-09-11,1,,,,,ヨコハマソリューションズ,0
1949,8020003026875,新規,0,2024-09-11,2024-09-11,合同会社カンガルーＢＬＳ,,合同会社,神奈川県,川崎市川崎区,桜本１丁目２番１９－１号,,14,131,2100833,,,,,,,2024-09-11,1,,,,,カンガルービーエルエス,0
1952,8021001083223,新規,0,2024-09-11,2024-09-11,株式会社Ｊａｃｋ９,,株式会社,神奈川県,足柄上郡大井町,上大井９１８番地１,,14,362,2580016,,,,,,,2024-09-11,1,,,,,ジャックナイン,0
1958,8030001162408,新規,0,2024-09-11,2024-09-11,株式会社マーナビ,,株式会社,埼玉県,三郷市,戸ケ崎１丁目７９番地８,,11,237,3410044,,,,,,,2024-09-11,1,,,,,マーナビ,0
1959,8030001162416,新規,0,2024-09-11,2024-09-11,株式会社Ｓ＆Ｃパートナーズ,,株式会社,埼玉県,さいたま市大宮区,桜木町１丁目１９５－１大宮ソラミチＫＯＺ４階,,11,103,3300854,,,,,,,2024-09-11,1,,,,,エスアンドシーパートナーズ,0
1960,8030001162432,新規,0,2024-09-11,2024-09-11,ケーエムアール株式会社,,株式会社,埼玉県,志木市,柏町１丁目２０－４７－４０５,,11,228,3530007,,,,,,,2024-09-11,1,,,,,ケーエムアール,0
1966,8030005021832,新規,0,2024-09-11,2024-09-11,農事組合法人アサイー,,その他の設立登記法人,埼玉県,春日部市,藤塚１９３２番地１４エスポワール２０２号室,,11,214,3440011,,,,,,,2024-09-11,1,,,,,アサイー,0
1977,8040001135222,新規,0,2024-09-11,2024-09-11,株式会社ロジックコム,,株式会社,千葉県,松戸市,松飛台５４３－１３,,12,207,2702214,,,,,,,2024-09-11,1,,,,,ロジックコム,0
1978,8040001135370,新規,0,2024-09-11,2024-09-11,株式会社にわのにわ,,株式会社,千葉県,柏市,柏２丁目１０－２－１４０３,,12,217,2770005,,,,,,,2024-09-11,1,,,,,ニワノニワ,0
1985,8060001037482,新規,0,2024-09-11,2024-09-11,株式会社ＮＯＮＩ,,株式会社,栃木県,那須郡那須町,大字大島１７７３番地２,,09,407,3293223,,,,,,,2024-09-11,1,,,,,ノニ,0
1987,8070001042176,新規,0,2024-09-11,2024-09-11,株式会社ヤマザキ建設,,株式会社,群馬県,高崎市,井野町６２２番地３,,10,202,3700004,,,,,,,2024-09-11,1,,,,,ヤマザキケンセツ,0
1995,8080101025006,新規,0,2024-09-11,2024-09-11,株式会社主任,,株式会社,静岡県,沼津市,市道町１９番地の１,,22,203,4100866,,,,,,,2024-09-11,1,,,,,,0
2000,8090003002639,新規,0,2024-09-11,2024-09-11,合同会社明生,,合同会社,山梨県,山梨市,上之割１０８番地の５,,19,205,4050004,,,,,,,2024-09-11,1,,,,,メイセイ,0
2005,8100003007768,新規,0,2024-09-11,2024-09-11,合同会社総建,,合同会社,長野県,南佐久郡小海町,大字小海３７０５番地２,,20,303,3841102,,,,,,,2024-09-11,1,,,,,ソウケン,0
2019,8120001268336,新規,0,2024-09-11,2024-09-11,株式会社ＧｏｌｄＳｈｉｐ,,株式会社,大阪府,大阪市中央区,南船場３丁目２番２２号おおきに南船場ビル２０５,,27,128,5420081,,,,,,,2024-09-11,1,,,,,ゴールドシップ,0
2020,8120001268427,新規,0,2024-09-11,2024-09-11,株式会社ｉｒｉｓ,,株式会社,大阪府,大阪市北区,梅田１丁目２番２号１２－１２,,27,127,5300001,,,,,,,2024-09-11,1,,,,,アイリス,0
2021,8120001268492,新規,0,2024-09-11,2024-09-11,トラストコード株式会社,,株式会社,大阪府,大阪市生野区,巽中４丁目３番１６号リアライズ南巽１００１,00136273,27,116,5440013,,,,,,,2024-09-11,1,,,,,トラストコード,0
2022,8120001268501,新規,0,2024-09-11,2024-09-11,株式会社スクルージ,,株式会社,大阪府,大阪市西成区,千本南２丁目７－４,,27,122,5570055,,,,,,,2024-09-11,1,,,,,スクルージ,0
2030,8120003027500,新規,0,2024-09-11,2024-09-11,林澤合同会社,,合同会社,大阪府,大阪市中央区,谷町６丁目４番８号新空堀ビル２０５－２Ｂ号室,,27,128,5420012,,,,,,,2024-09-11,1,,,,,リンサワ,0
2031,8120003027509,新規,0,2024-09-11,2024-09-11,ＭＩＡ合同会社,,合同会社,大阪府,大阪市阿倍野区,共立通１丁目１２番１２号,,27,119,5450041,,,,,,,2024-09-11,1,,,,,ミア,0
2033,8120101070261,新規,0,2024-09-11,2024-09-11,株式会社双美,,株式会社,大阪府,堺市東区,日置荘北町３丁２７番８号,,27,143,5998111,,,,,,,2024-09-11,1,,,,,ソウミ,0
2034,8120103006049,新規,0,2024-09-11,2024-09-11,合同会社ＫＣＣ,,合同会社,大阪府,堺市南区,鴨谷台１丁４４番１７－１０１号,,27,145,5900138,,,,,,,2024-09-11,1,,,,,ケィシィシィ,0
2039,8122003002994,新規,0,2024-09-11,2024-09-11,Ｓｔａｐｌｅ合同会社,,合同会社,大阪府,東大阪市,河内町１０－２ＧＲＡＮＤＩＲ瓢箪山１０３号室,,27,227,5798044,,,,,,,2024-09-11,1,,,,,ステープル,0
2042,8130001077918,新規,0,2024-09-11,2024-09-11,株式会社未来アスリートプロジェクト,,株式会社,京都府,京都市伏見区,肥後町３７７番地１,,26,109,6128352,,,,,,,2024-09-11,1,,,,,ミライアスリートプロジェクト,0
2051,8140001135749,新規,0,2024-09-11,2024-09-11,株式会社Ｒ‐ｍａｋｅ,,株式会社,兵庫県,姫路市,別所町家具町１７０番地,,28,201,6710225,,,,,,,2024-09-11,1,,,,,アールメイク,0
2052,8140001135757,新規,0,2024-09-11,2024-09-11,株式会社ヒロイング,,株式会社,兵庫県,神戸市東灘区,魚崎北町１丁目６番１２号,,28,101,6580082,,,,,,,2024-09-11,1,,,,,ヒロイング,0
2053,8140001135781,新規,0,2024-09-11,2024-09-11,株式会社Ｌ．Ｔ．Ｐ　ｍａｉｎｔｅｎａｎｃｅ,,株式会社,兵庫県,神戸市垂水区,千代が丘１丁目７番５０号,,28,108,6550018,,,,,,,2024-09-11,1,,,,,エルティーピーメンテナンス,0
2055,8150001027557,新規,0,2024-09-11,2024-09-11,株式会社フレイトアドバイザー,,株式会社,奈良県,奈良市,押熊町１５７６番地の１４,,29,201,6310011,,,,,,,2024-09-11,1,,,,,フレイトアドバイザー,0
2057,8160001026211,新規,0,2024-09-11,2024-09-11,株式会社三晃,,株式会社,滋賀県,米原市,春照２８８番地,,25,214,5210314,,,,,,,2024-09-11,1,,,,,サンコウ,0
2060,8170003002102,新規,0,2024-09-11,2024-09-11,リプル合同会社,,合同会社,和歌山県,岩出市,吉田２９７番地の４（４１０号）,00136260,30,209,6496246,,,,,,,2024-09-11,1,,,,,リプル,0
2070,8180001163110,新規,0,2024-09-11,2024-09-11,株式会社Ｉｎｆｉｎｉｔｙ,,株式会社,愛知県,一宮市,浅野字白山４７番地１,,23,203,4910871,,,,,,,2024-09-11,1,,,,,インフィニティ,0
2071,8180001163184,新規,0,2024-09-11,2024-09-11,株式会社Ｌｉｌｙ　ｏｆ　ｔｈｅ　ｖａｌｌｅｙ,,株式会社,愛知県,一宮市,泉２丁目２１番１９号,,23,203,4910861,,,,,,,2024-09-11,1,,,,,リリーオブザバリー,0
2072,8180001163250,新規,0,2024-09-11,2024-09-11,ＣＬＷ株式会社,,株式会社,愛知県,東海市,名和町奥小松揃１３番地１ビラ名和１０１号,,23,222,4760002,,,,,,,2024-09-11,1,,,,,シーエルダブリュー,0
2075,8180003027338,新規,0,2024-09-11,2024-09-11,ａｐｔｌｙ合同会社,,合同会社,愛知県,名古屋市中区,千代田４丁目２３番２２号プラセシオン東別院９０４号,,23,106,4600012,,,,,,,2024-09-11,1,,,,,アプトリー,0
2077,8190001031638,新規,0,2024-09-11,2024-09-11,ＭＪＣ株式会社,,株式会社,三重県,四日市市,西日野町４０５９番地,,24,202,5100943,,,,,,,2024-09-11,1,,,,,エムジェーシー,0
2087,8240001063799,新規,0,2024-09-11,2024-09-11,塩田ホールディングス株式会社,,株式会社,広島県,広島市南区,東雲２丁目１４番６号,,34,103,7340022,,,,,,,2024-09-11,1,,,,,シオタホールディングス,0
2088,8240001063808,新規,0,2024-09-11,2024-09-11,株式会社Ｓｈｅｅｐｅｒｓ,,株式会社,広島県,大竹市,南栄１丁目１５－２,,34,211,7390602,,,,,,,2024-09-11,1,,,,,シーパーズ,0
2097,8290001107196,新規,0,2024-09-11,2024-09-11,株式会社Ａｂｅｍａｋｉ,,株式会社,福岡県,大牟田市,山下町３９番地,,40,202,8360053,,,,,,,2024-09-11,1,,,,,アベマキ,0
2104,8290801030878,新規,0,2024-09-11,2024-09-11,株式会社Ｒ．Ｔ‐ｓｔｙｌｅ,,株式会社,福岡県,北九州市小倉北区,鍛冶町１丁目１番８号,,40,106,8020004,,,,,,,2024-09-11,1,,,,,アールティスタイル,0
2106,8300001013905,新規,0,2024-09-11,2024-09-11,株式会社ＰＬＵＳ．,,株式会社,佐賀県,多久市,北多久町小侍５７８７－２Ｆ,,41,204,8460001,,,,,,,2024-09-11,1,,,,,プラス,0
2111,8310005008801,新規,0,2024-09-11,2024-09-11,神崎稲荷神社,,その他の設立登記法人,長崎県,長崎市,八幡町７番３号,,42,201,8500801,,,,,,,2024-09-11,1,,,,,コウザキイナリジンジャ,0
2114,8350005006256,新規,0,2024-09-11,2024-09-11,行政書士法人ミヤトヨ事務所,,その他の設立登記法人,宮崎県,宮崎市,大字芳士字谷口６９２番地１７,,45,201,8800123,,,,,,,2024-09-11,1,,,,,ミヤトヨジムショ,0
2120,8370001051709,新規,0,2024-09-11,2024-09-11,株式会社ＲＵＮＤＹ,,株式会社,宮城県,仙台市宮城野区,榴岡４丁目６番２３号今野ビル２Ｆ,,04,102,9830852,,,,,,,2024-09-11,1,,,,,ランディ,0
2125,8380001034778,新規,0,2024-09-11,2024-09-11,株式会社四季木,,株式会社,福島県,いわき市,山田町谷沼井３５番地の１,,07,204,9748241,,,,,,,2024-09-11,1,,,,,シキモク,0
2126,8380001034786,新規,0,2024-09-11,2024-09-11,株式会社ｔｅｎｋｉ,,株式会社,福島県,いわき市,中央台高久３丁目３１番地の５,,07,204,9708047,,,,,,,2024-09-11,1,,,,,テンキ,0
2132,8430001092671,新規,0,2024-09-11,2024-09-11,株式会社ＩＶＹ　ｃａｒｅ,,株式会社,北海道,札幌市豊平区,美園八条６丁目１－２２,,01,105,0620008,,,,,,,2024-09-11,1,,,,,アイビーケア,0
2137,8430003016769,新規,0,2024-09-11,2024-09-11,合同会社ＫＡＷＡＭＵＲＡ,,合同会社,北海道,恵庭市,恵み野西１丁目８番３－１０１,,01,231,0611373,,,,,,,2024-09-11,1,,,,,カワムラ,0
2138,8430005015059,新規,0,2024-09-11,2024-09-11,一般社団法人日本レーザー医学研究所,,その他の設立登記法人,北海道,札幌市北区,北九条西３丁目１番地,,01,102,0600809,,,,,,,2024-09-11,1,,,,,ニホンレーザーイガクケンキュウジョ,0
2143,8480003002178,新規,0,2024-09-11,2024-09-11,合同会社２４７,,合同会社,徳島県,徳島市,名東町２丁目３４５番地の６,,36,201,7700047,,,,,,,2024-09-11,1,,,,,トゥエンティーフォーセブン,0
2147,8500001025863,新規,0,2024-09-11,2024-09-11,株式会社三島環境,,株式会社,愛媛県,四国中央市,三島中央５丁目１１番１１号,,38,213,7990405,,,,,,,2024-09-11,1,,,,,ミシマカンキョウ,0
2148,8500001025871,新規,0,2024-09-11,2024-09-11,株式会社山本興業,,株式会社,愛媛県,今治市,湊町１丁目２番３１号,,38,202,7940003,,,,,,,2024-09-11,1,,,,,ヤマモトコウギョウ,0
2150,8700150127127,新規,0,2024-09-11,2024-09-11,ＫＡＶＥＥＮ　ＴＯＫＹＯ　ＴＲＡＤＩＮＧ,,外国会社等,栃木県,足利市,今福町２９８番地３サンシティビル５号,,09,202,3260842,スリランカ民主社会主義共和国、マタラ、ポルヘナ、アルスマワタ、Ｎｏ．１／１３,,,,,,2024-09-11,1,,,,,カビーントウキヨウトレーデイング,0
2157,9010001248190,新規,0,2024-09-11,2024-09-11,株式会社ＢＣＪ‐８６,,株式会社,東京都,千代田区,丸の内１丁目１番１号パレスビル５階,,13,101,1000005,,,,,,,2024-09-11,1,,,,,ビーシージェイエイティーシックス,0
2158,9010001248216,新規,0,2024-09-11,2024-09-11,株式会社１１,,株式会社,東京都,中央区,日本橋浜町１丁目２番４号浜町ビル３０２,,13,102,1030007,,,,,,,2024-09-11,1,,,,,イチイチ,0
2159,9010003044852,新規,0,2024-09-11,2024-09-11,栃木リゾート合同会社,,合同会社,東京都,中央区,築地４丁目３－８登喜和ビル５階,,13,102,1040045,,,,,,,2024-09-11,1,,,,,トチギリゾート,0
2160,9010003044877,新規,0,2024-09-11,2024-09-11,合同会社茨城ＰＰＡ１号,,合同会社,東京都,中央区,八丁堀２丁目７－１八丁堀サンケイビル,,13,102,1040032,,,,,,,2024-09-11,1,,,,,イバラキピーピーエーイチゴウ,0
2172,9010501052893,新規,0,2024-09-11,2024-09-11,株式会社大熊労働衛生コンサルティング,,株式会社,東京都,台東区,上野２丁目１２番１８号池之端ヒロハイツ２階,,13,106,1100005,,,,,,,2024-09-11,1,,,,,オオクマロウドウエイセイコンサルティング,0
2173,9010503007565,新規,0,2024-09-11,2024-09-11,合同会社ロイヤルオリエンタル,,合同会社,東京都,台東区,下谷３丁目１番２４号,,13,106,1100004,,,,,,,2024-09-11,1,,,,,ロイヤルオリエンタル,0
2177,9010601065903,新規,0,2024-09-11,2024-09-11,ＡＣ株式会社,,株式会社,東京都,江東区,亀戸７丁目１６番２号,,13,108,1360071,,,,,,,2024-09-11,1,,,,,エーシー,0
2179,9010603011079,新規,0,2024-09-11,2024-09-11,ＤＲＥＡＭ　ＵＰ合同会社,,合同会社,東京都,墨田区,八広１丁目３４番１８号,,13,107,1310041,,,,,,,2024-09-11,1,,,,,ドリームアップ,0
2181,9010701046522,新規,0,2024-09-11,2024-09-11,株式会社Ａｒｃｏｂａｌｅｎｏ,,株式会社,東京都,品川区,東五反田５丁目２５番１６号ＭＬＪ五反田ビル８階,,13,109,1410022,,,,,,,2024-09-11,1,,,,,アルコバレーノ,0
2185,9010901055967,新規,0,2024-09-11,2024-09-11,株式会社Ｃｏｎｎｅｃｔ　Ｅｖｅｒｙｏｎｅ,,株式会社,東京都,世田谷区,上用賀１丁目１４番８号,,13,112,1580098,,,,,,,2024-09-11,1,,,,,コネクトエブリワン,0
2186,9010901055975,新規,0,2024-09-11,2024-09-11,株式会社ＡＳＩ,,株式会社,東京都,世田谷区,上馬５丁目３番７号,,13,112,1540011,,,,,,,2024-09-11,1,,,,,エーエスアイ,0
2191,9011001164601,新規,0,2024-09-11,2024-09-11,Ｃｏｏ株式会社,,株式会社,東京都,渋谷区,上原３丁目３４番９号,,13,113,1510064,,,,,,,2024-09-11,1,,,,,クー,0
2192,9011003019927,新規,0,2024-09-11,2024-09-11,合同会社プロップアドバイザリー,,合同会社,東京都,目黒区,南１丁目８番１６号,,13,110,1520013,,,,,,,2024-09-11,1,,,,,プロップアドバイザリー,0
2193,9011003020018,新規,0,2024-09-11,2024-09-11,生活保護ドットコム合同会社,,合同会社,東京都,渋谷区,渋谷２丁目１９‐１５宮益坂ビルディング,,13,113,1500002,,,,,,,2024-09-11,1,,,,,セイカツホゴドットコム,0
2201,9011103014935,新規,0,2024-09-11,2024-09-11,合同会社リチャージャブルエナジー,,合同会社,東京都,新宿区,新宿４丁目１番６号ＪＲ新宿ミライナタワー２８階,,13,104,1600022,,,,,,,2024-09-11,1,,,,,リチャージャブルエナジー,0
2210,9011301029990,新規,0,2024-09-11,2024-09-11,株式会社ラオンジェナ,,株式会社,東京都,杉並区,荻窪５丁目３０番６号福村産業荻窪ビル３１１号室,,13,115,1670051,,,,,,,2024-09-11,1,,,,,ラオンジェナ,0
2211,9011401026418,新規,0,2024-09-11,2024-09-11,株式会社ＹＫＨ　ＭＯＢＩＬＥ,,株式会社,東京都,板橋区,板橋４丁目６２番６－３０２号,,13,119,1730004,,,,,,,2024-09-11,1,,,,,ワイケーエイチモバイル,0
2214,9011601028049,新規,0,2024-09-11,2024-09-11,株式会社ＳｏｌＢｅａｔ,,株式会社,東京都,練馬区,大泉町４丁目１１番４号,,13,120,1780062,,,,,,,2024-09-11,1,,,,,ソルビート,0
2216,9011603004452,新規,0,2024-09-11,2024-09-11,合同会社ｗｉｎｗｉｎ,,合同会社,東京都,練馬区,田柄２丁目３６－１８三光ハイツ１０５,,13,120,1790073,,,,,,,2024-09-11,1,,,,,ウィンウィン,0
2218,9011805003392,新規,0,2024-09-11,2024-09-11,医療法人社団Ｓ＆Ｄ,,その他の設立登記法人,東京都,足立区,千住３丁目３３番地三鈴ビル１階,,13,121,1200034,,,,,,,2024-09-11,1,,,,,エスアンドディー,0
2219,9012303002044,新規,0,2024-09-11,2024-09-11,合同会社ＨＷＭ,,合同会社,東京都,町田市,小野路町３００５番地５,,13,209,1950064,,,,,,,2024-09-11,1,,,,,エイチダブリューエム,0
2221,9012801023418,新規,0,2024-09-11,2024-09-11,和光堂株式会社,,株式会社,東京都,日野市,南平４丁目４１－１－Ｂ１,,13,212,1910041,,,,,,,2024-09-11,1,,,,,ワコウドウ,0
2222,9012801023450,新規,0,2024-09-11,2024-09-11,株式会社タクセル建築企画,,株式会社,東京都,昭島市,松原町２丁目６－３富士コーポ１階,,13,207,1960003,,,,,,,2024-09-11,1,,,,,タクセルケンチクキカク,0
2226,9013301053062,新規,0,2024-09-11,2024-09-11,ＡｒｋＭＳ株式会社,,株式会社,東京都,豊島区,東池袋３丁目１番３号,,13,116,1700013,,,,,,,2024-09-11,1,,,,,アークメディカルソリューションズ,0
2229,9020001159049,新規,0,2024-09-11,2024-09-11,ボディＳＩＮＫＡ株式会社,,株式会社,神奈川県,横浜市神奈川区,金港町５番１４号８階,,14,102,2210056,,,,,,,2024-09-11,1,,,,,ボディシンカ,0
2230,9020001159081,新規,0,2024-09-11,2024-09-11,株式会社アマナ・クリエイツ,,株式会社,神奈川県,横浜市港北区,鳥山町２７４番地１,,14,109,2220035,,,,,,,2024-09-11,1,,,,,アマナクリエイツ,0
2235,9021001083206,新規,0,2024-09-11,2024-09-11,株式会社カムホーム,,株式会社,神奈川県,平塚市,諏訪町１４番２１－１号,,14,203,2540063,,,,,,,2024-09-11,1,,,,,カムホーム,0
2236,9021001083222,新規,0,2024-09-11,2024-09-11,Ｄｒｅａｍ　Ｇｒｏｕｐ株式会社,,株式会社,神奈川県,平塚市,西八幡２丁目１０番２３－４号,,14,203,2540073,,,,,,,2024-09-11,1,,,,,ドリームグループ,0
2246,9030003025082,新規,0,2024-09-11,2024-09-11,合同会社照栄,,合同会社,埼玉県,越谷市,蒲生旭町９番３号中野ビル４０６,,11,222,3430842,,,,,,,2024-09-11,1,,,,,ショウエイ,0
2251,9040001134842,新規,0,2024-09-11,2024-09-11,ＳＢＧジャパン株式会社,,株式会社,千葉県,野田市,岡田６３９－３,,12,208,2700223,,,,,,,2024-09-11,1,,,,,エスビージージャパン,0
2252,9040001135353,新規,0,2024-09-11,2024-09-11,株式会社タカザワ,,株式会社,千葉県,市原市,門前２丁目４１８番地,,12,219,2900016,,,,,,,2024-09-11,1,,,,,タカザワ,0
2253,9040001135378,新規,0,2024-09-11,2024-09-11,株式会社Ｆａｉｒｙ　Ｇｏｄｍｏｔｈｅｒ,,株式会社,千葉県,千葉市中央区,白旗３丁目１３番１号,,12,101,2600841,,,,,,,2024-09-11,1,,,,,フェアリーゴッドマザー,0
2256,9040003025783,新規,0,2024-09-11,2024-09-11,Ａ’ｅｒａ合同会社,,合同会社,千葉県,市原市,青柳北３丁目５番地１２,,12,219,2990101,,,,,,,2024-09-11,1,,,,,エーエラ,0
2259,9060003005239,新規,0,2024-09-11,2024-09-11,ＥＶＥＲ　ＬＡＮＫＡ合同会社,,合同会社,栃木県,足利市,山下町１０５９－１スマイルビーム３０３,,09,202,3260846,,,,,,,2024-09-11,1,,,,,エバーランカ,0
2262,9070003005576,新規,0,2024-09-11,2024-09-11,合同会社ｌｏｉｎｔａｉｎ,,合同会社,群馬県,伊勢崎市,茂呂町２丁目３５２９－３,,10,204,3720034,,,,,,,2024-09-11,1,,,,,ロワンタン,0
2263,9080005007644,新規,0,2024-09-11,2024-09-11,労働者協同組合イドバタカイギ,,その他の設立登記法人,静岡県,静岡市葵区,瀬名中央１丁目７－７８,,22,101,4200916,,,,,,,2024-09-11,1,,,,,イドバタカイギ,0
2270,9100001037832,新規,0,2024-09-11,2024-09-11,株式会社令和サービス,,株式会社,長野県,駒ヶ根市,赤穂８２３９番地９,,20,210,3994117,,,,,,,2024-09-11,1,,,,,レイワサービス,0
2285,9120001268434,新規,0,2024-09-11,2024-09-11,株式会社エイチエスリサーチ,,株式会社,大阪府,大阪市東成区,中本３丁目１５番１６号フィェルメンテ１番館６０２号,,27,115,5370022,,,,,,,2024-09-11,1,,,,,エイチエスリサーチ,0
2286,9120001268459,新規,0,2024-09-11,2024-09-11,株式会社Ｃｈａｔｔｙ　Ｃｉｒｃｌｅ,,株式会社,大阪府,大阪市北区,東天満２丁目１０番１９号,,27,127,5300044,,,,,,,2024-09-11,1,,,,,チャッティサークル,0
2287,9120001268517,新規,0,2024-09-11,2024-09-11,日本ＬＩＯＮ株式会社,,株式会社,大阪府,大阪市北区,天満２丁目９番１７号天満双葉ビル５０２号室,,27,127,5300043,,,,,,,2024-09-11,1,,,,,ニホンライオン,0
2289,9120003027516,新規,0,2024-09-11,2024-09-11,合同会社ＳｘＳ,,合同会社,大阪府,大阪市浪速区,大国２丁目１番７号サンエイハイツ大国２－９０１号,,27,111,5560014,,,,,,,2024-09-11,1,,,,,エスバイエス,0
2290,9120101070260,新規,0,2024-09-11,2024-09-11,ハウジング工房エムツープラス株式会社,,株式会社,大阪府,岸和田市,池尻町３８４番地の３,,27,202,5960813,,,,,,,2024-09-11,1,,,,,ハウジングコウボウエムツープラス,0
2291,9120101070277,新規,0,2024-09-11,2024-09-11,Ｇｒａｃｅ株式会社,,株式会社,大阪府,堺市堺区,新在家町東２丁１－２２プレアール御陵前４０２号室,,27,141,5900964,,,,,,,2024-09-11,1,,,,,グレイス,0
2292,9120101070285,新規,0,2024-09-11,2024-09-11,株式会社Ｎｏｖａ,,株式会社,大阪府,堺市南区,逆瀬川８４４－８７,,27,145,5900123,,,,,,,2024-09-11,1,,,,,ノヴァ,0
2301,9130001077909,新規,0,2024-09-11,2024-09-11,株式会社Ｋ２プラス,,株式会社,京都府,京都市左京区,高野西開町３６,,26,103,6068103,,,,,,,2024-09-11,1,,,,,ケイツープラス,0
2302,9130003009851,新規,0,2024-09-11,2024-09-11,Ｋｉｓｅｌｅｖ　ＪＰ合同会社,,合同会社,京都府,京都市中京区,河原町通御池下る下丸屋町３９０番地２ＱＵＥＳＴＩＯＮ内,,26,104,6048006,,,,,,,2024-09-11,1,,,,,キセリョフジェイピー,0
2308,9140001135748,新規,0,2024-09-11,2024-09-11,株式会社丸義,,株式会社,兵庫県,丹波市,柏原町上小倉９０４番地１,,28,223,6693304,,,,,,,2024-09-11,1,,,,,マルヨシ,0
2310,9140003021062,新規,0,2024-09-11,2024-09-11,合同会社ＫＩＫＩ,,合同会社,兵庫県,尼崎市,開明町３丁目６番地スヴニールイグレック３Ｅ－１,,28,202,6600862,,,,,,,2024-09-11,1,,,,,キキ,0
2314,9150001027556,新規,0,2024-09-11,2024-09-11,株式会社吉野勝造商店,,株式会社,奈良県,吉野郡天川村,大字洞川５１番地,,29,446,6380431,,,,,,,2024-09-11,1,,,,,ヨシノカツゾウショウテン,0
2327,9180001163200,新規,0,2024-09-11,2024-09-11,株式会社望月鈑金塗装,,株式会社,愛知県,江南市,古知野町広見６８番地,,23,217,4838274,,,,,,,2024-09-11,1,,,,,モチヅキバンキントソウ,0
2328,9180001163241,新規,0,2024-09-11,2024-09-11,株式会社ＺＥＲＯＩＣＨＩ,,株式会社,愛知県,名古屋市中区,大須４丁目１１番５０号カミヤビル６Ｆ,,23,106,4600011,,,,,,,2024-09-11,1,,,,,ゼロイチ,0
2334,9180003027304,新規,0,2024-09-11,2024-09-11,合同会社ＯＫＩＨＡＲＡ,,合同会社,愛知県,名古屋市中区,千代田１丁目１３－１６プレサンス久屋大通公園セラフィ６０１,,23,106,4600012,,,,,,,2024-09-11,1,,,,,オキハラ,0
2348,9210001019910,新規,0,2024-09-11,2024-09-11,株式会社ナノワン,,株式会社,福井県,坂井市,丸岡町八ツ口第２号４番地５ベルソレイユＩ２０２号室,00136271,18,210,9100371,,,,,,,2024-09-11,1,,,,,ナノワン,0
2367,9290001107237,新規,0,2024-09-11,2024-09-11,株式会社ＬｕｌｉａｎＡｇｅｎｃｙ,,株式会社,福岡県,福岡市博多区,博多駅南３丁目１０－１３エンクレスト博多駅南ＧＲＡＣＥ８０７,,40,132,8120016,,,,,,,2024-09-11,1,,,,,ルリアンエージェンシー,0
2372,9300001013904,新規,0,2024-09-11,2024-09-11,株式会社大誠,,株式会社,佐賀県,三養基郡上峰町,大字坊所６６７番地７,,41,345,8490123,,,,,,,2024-09-11,1,,,,,タイセイ,0
2373,9300003002178,新規,0,2024-09-11,2024-09-11,合同会社かむら,,合同会社,佐賀県,西松浦郡有田町,下本乙２５０４番地,,41,401,8494172,,,,,,,2024-09-11,1,,,,,カムラ,0
2385,9420003002991,新規,0,2024-09-11,2024-09-11,佐藤商事合同会社,,合同会社,青森県,上北郡七戸町,字笊田３４番地１,,02,402,0392512,,,,,,,2024-09-11,1,,,,,サトウショウジ,0
2388,9430001092662,新規,0,2024-09-11,2024-09-11,株式会社モトズキッチン,,株式会社,北海道,札幌市手稲区,富丘五条６丁目２番１４号,,01,109,0060015,,,,,,,2024-09-11,1,,,,,モトズキッチン,0
2393,9470003002715,新規,0,2024-09-11,2024-09-11,合同会社ａｕｒａ,,合同会社,香川県,高松市,牟礼町牟礼２８２３－１,,37,201,7610121,,,,,,,2024-09-11,1,,,,,オーラ,0
2396,9500001025862,新規,0,2024-09-11,2024-09-11,株式会社Ｔ＆Ａ,,株式会社,愛媛県,新居浜市,清水町１５番４２号,,38,205,7920861,,,,,,,2024-09-11,1,,,,,ティアンドエー,0
2397,9700150124544,新規,0,2024-09-11,2024-03-26,東京ＭＩＮＡＴＯ　ＣＩＴＹ国際音楽コンクール＆ワークショップ,,その他,東京都,中央区,日本橋人形町１丁目５－６ナカハナビル４階　プランナーズ２１ＳＹＪ内,,13,102,1030013,,,,,,,2024-03-26,1,,,,,トウキヨウミナトシテイコクサイオンガクコンクールアンドワークシヨツプ,0
2398,9700150127126,新規,0,2024-09-11,2024-09-11,ｄｏｎｇｇｕａｎｓｈｉｊｉｎｒｉｗｕｊｉｎｚｈｉｐｉｎｙｏｕｘｉａｎｇｏｎｇｓｉ,,外国会社等,,,,,,,,ｑｉｓｈｉｚｈｅｎｚｈｅｎｈｕａｇｏｎｇｙｅｑｕｓａｎｈｅｎｇｌｕ,,,,,,2024-09-11,1,,,,,トウカンキンニチカナモノセイヒンユウゲンコウシ,0
