sequenceNumber,corporateNumber,process,correct,updateDate,changeDate,name,nameImageId,kind,prefectureName,cityName,streetNumber,addressImageId,prefectureCode,cityCode,postCode,addressOutside,addressOutsideImageId,closeDate,closeCause,successorCorporateNumber,changeCause,assignmentDate,latest,enName,enPrefectureName,enCityName,enAddressOutside,furigana,hihyoji
6,1010001254254,新規,0,2025-04-21,2025-04-21,太平洋産商株式会社,,株式会社,東京都,千代田区,大手町１丁目６番１号,,13,101,1000004,,,,,,,2025-04-21,1,,,,,タイヘイヨウサンショウ,0
7,1010001254304,新規,0,2025-04-21,2025-04-21,株式会社ＫＯＡ　ＣＲＥＡＴＩＶＥ,,株式会社,東京都,中央区,銀座６丁目６番１号銀座風月堂ビル５Ｆ,,13,102,1040061,,,,,,,2025-04-21,1,,,,,コアクリエイティブ,0
8,1010001254329,新規,0,2025-04-21,2025-04-21,株式会社ヘリテック,,株式会社,東京都,中央区,銀座８丁目１５番２号ＡＣＮ銀座ビル５階,,13,102,1040061,,,,,,,2025-04-21,1,,,,,ヘリテック,0
9,1010001254361,新規,0,2025-04-21,2025-04-21,株式会社シンフォニー・パートナーズ,,株式会社,東京都,千代田区,九段南１丁目５番６号りそな九段ビル５ＦＫＳフロア,,13,101,1020074,,,,,,,2025-04-21,1,,,,,,0
11,1010003047078,新規,0,2025-04-21,2025-04-21,合同会社ＢＶＳＣコンサルティング,,合同会社,東京都,中央区,銀座１丁目１２番４号Ｎ＆ＥＢＬＤ．６Ｆ,,13,102,1040061,,,,,,,2025-04-21,1,,,,,ビーブイエスシーコンサルティング,0
17,1010401189637,新規,0,2025-04-21,2025-04-21,遠藤総合コンサルティング株式会社,,株式会社,東京都,港区,赤坂３丁目５番５号ストロング赤坂ビル４Ｆ,,13,103,1070052,,,,,,,2025-04-21,1,,,,,エンドウソウゴウコンサルティング,0
18,1010401189744,新規,0,2025-04-21,2025-04-21,株式会社オハナ,,株式会社,東京都,港区,海岸２丁目３番７号デルックス東京ベイ１００２,,13,103,1050022,,,,,,,2025-04-21,1,,,,,オハナ,0
19,1010401189760,新規,0,2025-04-21,2025-04-21,株式会社Ｔｒｉｐｌｅ　Ｂｒｉｄｇｅ　Ｐａｒｔｎｅｒｓ,,株式会社,東京都,港区,海岸１丁目２番２０号,,13,103,1050022,,,,,,,2025-04-21,1,,,,,トリプルブリッジパートナーズ,0
20,1010401189777,新規,0,2025-04-21,2025-04-21,シェルファンズ株式会社,,株式会社,東京都,港区,元赤坂１丁目２番７号赤坂Ｋタワー,,13,103,1070051,,,,,,,2025-04-21,1,,,,,シェルファンズ,0
21,1010401189785,新規,0,2025-04-21,2025-04-21,トゥーオルソ株式会社,,株式会社,東京都,港区,南青山３丁目１番３６号青山丸竹ビル６Ｆ,,13,103,1070062,,,,,,,2025-04-21,1,,,,,トゥーオルソ,0
22,1010401189793,新規,0,2025-04-21,2025-04-21,株式会社ＧＡホールディングス,,株式会社,東京都,港区,南麻布２丁目１４番１３号,,13,103,1060047,,,,,,,2025-04-21,1,,,,,ジーエーホールディングス,0
23,1010403034923,新規,0,2025-04-21,2025-04-21,ＩＮＦＴＹ合同会社,,合同会社,東京都,港区,南青山３丁目１番３６号青山丸竹ビル６Ｆ,,13,103,1070062,,,,,,,2025-04-21,1,,,,,インフティ,0
25,1010501053957,新規,0,2025-04-21,2025-04-21,安合株式会社,,株式会社,東京都,台東区,清川２丁目３５－９ＬＵＭＥＥＤ１００２室,,13,106,1110022,,,,,,,2025-04-21,1,,,,,アンゴウ,0
27,1010601067163,新規,0,2025-04-21,2025-04-21,オケアノス株式会社,,株式会社,東京都,江東区,亀戸７丁目３９番１４－１３０２号,,13,108,1360071,,,,,,,2025-04-21,1,,,,,オケアノス,0
28,1010603011524,新規,0,2025-04-21,2025-04-21,合同会社ＴＩＴＡＮ,,合同会社,東京都,墨田区,亀沢２丁目２０番７号天田第５ビル４階,,13,107,1300014,,,,,,,2025-04-21,1,,,,,タイタン,0
32,1010801036067,新規,0,2025-04-21,2025-04-21,Ａ＆Ｋ株式会社,,株式会社,東京都,大田区,石川町２丁目２番６－１０２号,,13,111,1450061,,,,,,,2025-04-21,1,,,,,エイアンドケイ,0
33,1010803005350,新規,0,2025-04-21,2025-04-21,合同会社Ｃｉａｏ,,合同会社,東京都,大田区,北千束２丁目１１番６号エリュシオンキタセンゾク３０４,,13,111,1450062,,,,,,,2025-04-21,1,,,,,チャオ,0
48,1011001168980,新規,0,2025-04-21,2025-04-21,株式会社ＳＩＲ,,株式会社,東京都,渋谷区,広尾１丁目１０番４号越山ＬＫビル４階,,13,113,1500012,,,,,,,2025-04-21,1,,,,,サー,0
49,1011001169005,新規,0,2025-04-21,2025-04-21,シンクレア株式会社,,株式会社,東京都,渋谷区,道玄坂１丁目１２番１号渋谷マークシティＷ２２階,,13,113,1500043,,,,,,,2025-04-21,1,,,,,シンクレア,0
50,1011001169186,新規,0,2025-04-21,2025-04-21,株式会社創友建設,,株式会社,東京都,渋谷区,渋谷３丁目１１番１１号ＩＶＹイーストビル３Ｆ,,13,113,1500002,,,,,,,2025-04-21,1,,,,,ソウユウケンセツ,0
61,1011101111238,新規,0,2025-04-21,2025-04-21,株式会社ムウラン,,株式会社,東京都,新宿区,西新宿３丁目３－１３西新宿水間ビル６階,,13,104,1600023,,,,,,,2025-04-21,1,,,,,ムウラン,0
62,1011101111386,新規,0,2025-04-21,2025-04-21,株式会社ＡＩｄｏｌｌａｒｇａｍｅ,,株式会社,東京都,新宿区,北新宿１丁目７番２０号アルテビル北新宿,,13,104,1690074,,,,,,,2025-04-21,1,,,,,アイドルゲーム,0
63,1011101111444,新規,0,2025-04-21,2025-04-21,株式会社ＳＯＵ,,株式会社,東京都,新宿区,西新宿３丁目３番１３号６Ｆ,,13,104,1600023,,,,,,,2025-04-21,1,,,,,エスオーユー,0
65,1011103015817,新規,0,2025-04-21,2025-04-21,合同会社ＡｉｉｉＬｏ,,合同会社,東京都,新宿区,上落合２丁目２１－２３,,13,104,1610034,,,,,,,2025-04-21,1,,,,,アイロ,0
70,1011503006498,新規,0,2025-04-21,2025-04-21,合同会社タキビ,,合同会社,東京都,北区,王子１丁目２２番１１－９０１号,,13,117,1140002,,,,,,,2025-04-21,1,,,,,タキビ,0
73,1011803006818,新規,0,2025-04-21,2025-04-21,合同会社ＭＩＰＵＬ,,合同会社,東京都,足立区,東六月町１１番１号,,13,121,1210071,,,,,,,2025-04-21,1,,,,,ミプル,0
78,1012801023904,新規,0,2025-04-21,2025-04-21,株式会社なんでも屋林商会,,株式会社,東京都,立川市,高松町３丁目４番１５号,,13,202,1900011,,,,,,,2025-04-21,1,,,,,ナンデモヤハヤシショウカイ,0
87,1020001162415,新規,0,2025-04-21,2025-04-21,株式会社ガーディアンライフ,,株式会社,神奈川県,横浜市港南区,日野中央２丁目３７－１０－１０８,,14,111,2340053,,,,,,,2025-04-21,1,,,,,ガーディアンライフ,0
93,1030001166068,新規,0,2025-04-21,2025-04-21,ＭＡＴＯＩ株式会社,,株式会社,埼玉県,久喜市,栗橋東１丁目７番３７－４号,,11,232,3491103,,,,,,,2025-04-21,1,,,,,マトイ,0
94,1030001166092,新規,0,2025-04-21,2025-04-21,株式会社ＲｅｍａｋｅＲ,,株式会社,埼玉県,川口市,芝下３丁目１９番６号,,11,203,3330848,,,,,,,2025-04-21,1,,,,,リメイカー,0
95,1030001166134,新規,0,2025-04-21,2025-04-21,株式会社瑞光,,株式会社,埼玉県,草加市,中根２丁目２０番１９－２号,,11,221,3400005,,,,,,,2025-04-21,1,,,,,ミズコウ,0
108,1040001138363,新規,0,2025-04-21,2025-04-21,宏茂株式会社,,株式会社,千葉県,香取市,神生５９７番地９,,12,236,2890408,,,,,,,2025-04-21,1,,,,,ヒロシゲ,0
116,1040003027374,新規,0,2025-04-21,2025-04-21,合同会社吉建,,合同会社,千葉県,大網白里市,みどりが丘２丁目３０－１６,,12,239,2993255,,,,,,,2025-04-21,1,,,,,ヨシケン,0
117,1040003027399,新規,0,2025-04-21,2025-04-21,ＧＳ合同会社,,合同会社,千葉県,市川市,市川３丁目２６－１,,12,203,2720034,,,,,,,2025-04-21,1,,,,,ジーエス,0
118,1040003027432,新規,0,2025-04-21,2025-04-21,合同会社カーポート,,合同会社,千葉県,柏市,布施１２３９－３,,12,217,2770825,,,,,,,2025-04-21,1,,,,,カーポート,0
120,1040005022729,新規,0,2025-04-21,2025-04-21,一般社団法人伝統江戸前漁業を未来につなぐ会,,その他の設立登記法人,千葉県,船橋市,湊町３丁目２０番７－２０３号,,12,204,2730011,,,,,,,2025-04-21,1,,,,,デントウエドマエギョギョウヲミライニツナグカイ,0
124,1050001056498,新規,0,2025-04-21,2025-04-21,沢銘株式会社,,株式会社,茨城県,古河市,中央町１丁目５番４５号３Ｆ,,08,204,3060033,,,,,,,2025-04-21,1,,,,,サワメイ,0
125,1050003009198,新規,0,2025-04-21,2025-04-21,合同会社Ｓｉｔｏａ,,合同会社,茨城県,水戸市,笠原町１６８４番地の４ルモンド水戸Ｂ棟,,08,201,3100852,,,,,,,2025-04-21,1,,,,,シトア,0
127,1060001038124,新規,0,2025-04-21,2025-04-21,株式会社ビーアイ栃木,,株式会社,栃木県,小山市,大字出井９３６番地７,,09,208,3230808,,,,,,,2025-04-21,1,,,,,ビーアイトチギ,0
129,1070003005880,新規,0,2025-04-21,2025-04-21,合同会社一の湯,,合同会社,群馬県,桐生市,本町１丁目４番３５号,,10,203,3760031,,,,,,,2025-04-21,1,,,,,イチノユ,0
131,1080001026886,新規,0,2025-04-21,2025-04-21,プロモデザイン株式会社,,株式会社,静岡県,静岡市清水区,江尻東２丁目４番１１－３０４号,,22,103,4240815,,,,,,,2025-04-21,1,,,,,プロモデザイン,0
142,1100001038516,新規,0,2025-04-21,2025-04-21,株式会社すずらん,,株式会社,長野県,諏訪郡富士見町,落合１０７８７番地１,,20,362,3990214,,,,,,,2025-04-21,1,,,,,スズラン,0
143,1100001038524,新規,0,2025-04-21,2025-04-21,株式会社ＵＴ　ＳＴＵＤＩＯ,,株式会社,長野県,松本市,大手３丁目３番９号ＮＴＴ東日本大名町ビル１Ｆ,,20,202,3900874,,,,,,,2025-04-21,1,,,,,ユーティースタジオ,0
165,1120001274200,新規,0,2025-04-21,2025-04-21,正善株式会社,,株式会社,大阪府,大阪市生野区,生野西２丁目１番３３－２０６号,,27,116,5440024,,,,,,,2025-04-21,1,,,,,ショウゼン,0
166,1120001274646,新規,0,2025-04-21,2025-04-21,株式会社木之源,,株式会社,大阪府,大阪市旭区,中宮２丁目１９番５号ルベール公園前２０１号室,,27,117,5350003,,,,,,,2025-04-21,1,,,,,キノゲン,0
167,1120001274745,新規,0,2025-04-21,2025-04-21,株式会社ＳＵＯ,,株式会社,大阪府,大阪市中央区,東心斎橋２丁目８番２３号イケダ会館ビルＢ１,,27,128,5420083,,,,,,,2025-04-21,1,,,,,スオウ,0
170,1120003029148,新規,0,2025-04-21,2025-04-21,合同会社日龍,,合同会社,大阪府,大阪市福島区,福島５丁目１６番２０号,,27,103,5530003,,,,,,,2025-04-21,1,,,,,ニチリュウ,0
172,1120101071506,新規,0,2025-04-21,2025-04-21,株式会社ＴＥＲＲＡ,,株式会社,大阪府,堺市西区,上野芝町６丁６番２２号,,27,144,5938301,,,,,,,2025-04-21,1,,,,,テラ,0
175,1122001039112,新規,0,2025-04-21,2025-04-21,株式会社Ｔａｂ‐Ｔｅｃ,,株式会社,大阪府,大東市,新田中町２番５０号,,27,218,5740056,,,,,,,2025-04-21,1,,,,,タブテック,0
182,1140001138031,新規,0,2025-04-21,2025-04-21,千鉞商事株式会社,,株式会社,兵庫県,南あわじ市,湊１１２９番地,,28,224,6560332,,,,,,,2025-04-21,1,,,,,センエツショウジ,0
183,1140003021945,新規,0,2025-04-21,2025-04-21,合同会社知床,,合同会社,兵庫県,芦屋市,三条南町４番４号,,28,206,6590086,,,,,,,2025-04-21,1,,,,,シレトコ,0
184,1140005027486,新規,0,2025-04-21,2025-04-21,医療法人社団畑野歯科クリニック,,その他の設立登記法人,兵庫県,姫路市,飯田３丁目１２１番地,,28,201,6700974,,,,,,,2025-04-21,1,,,,,ハタノシカクリニック,0
186,1150003003570,新規,0,2025-04-21,2025-04-21,合同会社プラチナ,,合同会社,奈良県,奈良市,三条町４７５松田ビル２Ｆ,,29,201,6308244,,,,,,,2025-04-21,1,,,,,プラチナ,0
196,1180001166466,新規,0,2025-04-21,2025-04-21,株式会社カナデセラピューティクス,,株式会社,愛知県,名古屋市天白区,表山２丁目３１３番地の１,,23,116,4680069,,,,,,,2025-04-21,1,,,,,カナデセラピューティクス,0
202,1180301039735,新規,0,2025-04-21,2025-04-21,株式会社ｚｅｎＵ,,株式会社,愛知県,岡崎市,上地町字宮脇１４番地１,,23,202,4440824,,,,,,,2025-04-21,1,,,,,ゼンユー,0
209,1230005009459,新規,0,2025-04-21,2025-04-21,一般社団法人南砺文化芸術振興機構,,その他の設立登記法人,富山県,南砺市,井波３０７５番地,,16,210,9320211,,,,,,,2025-04-21,1,,,,,ナントブンカゲイジュツシンコウキコウ,0
213,1280005007656,新規,0,2025-04-21,2025-04-21,農事組合法人山峡の里かみよしだ,,その他の設立登記法人,島根県,安来市,上吉田町８２３番地,,32,206,6920043,,,,,,,2025-04-21,1,,,,,ヤマカイノサトカミヨシダ,0
220,1290005019717,新規,0,2025-04-21,2025-04-21,特定非営利活動法人猫つくし,,その他の設立登記法人,福岡県,宗像市,城西ヶ丘４丁目１番地１８,,40,220,8113404,,,,,,,2025-04-21,1,,,,,ネコツクシ,0
222,1290803005034,新規,0,2025-04-21,2025-04-21,合同会社ＢＤＡＴＣＧ,,合同会社,福岡県,北九州市小倉北区,清水３丁目９番１９号,,40,106,8030841,,,,,,,2025-04-21,1,,,,,ビディエイティシジ,0
224,1320005010234,新規,0,2025-04-21,2025-04-21,一般社団法人大分ヘルスクラウド普及促進会議,,その他の設立登記法人,大分県,由布市,挾間町医大ヶ丘１丁目１番地,,44,213,8795503,,,,,,,2025-04-21,1,,,,,オオイタヘルスクラウドフキュウソクシンカイギ,0
225,1330001033106,新規,0,2025-04-21,2025-04-21,株式会社Ｕｒｏｍｉｃｓ,,株式会社,熊本県,熊本市中央区,黒髪２丁目３９番１号,,43,101,8600862,,,,,,,2025-04-21,1,,,,,ユーロミクス,0
229,1340003004822,新規,0,2025-04-21,2025-04-21,合同会社ホノホシ,,合同会社,鹿児島県,大島郡瀬戸内町,大字蘇刈８８５番地３,,46,525,8941523,,,,,,,2025-04-21,1,,,,,ホノホシ,0
234,1360001035066,新規,0,2025-04-21,2025-04-21,株式会社ＣｈｕｒａＶｉｓｉｏｎ,,株式会社,沖縄県,豊見城市,字高安５４８－２パルミラ豊見台２０２,,47,212,9010242,,,,,,,2025-04-21,1,,,,,チュラビジョン,0
243,1390001017961,新規,0,2025-04-21,2025-04-21,株式会社ＧＯ‐ｉ,,株式会社,山形県,村山市,大字大久保甲２０５番地－第１,,06,208,9950111,,,,,,,2025-04-21,1,,,,,ゴウアイ,0
251,1430005015214,新規,0,2025-04-21,2025-04-21,一般社団法人事業継続力強化計画サポートセンター札幌,,その他の設立登記法人,北海道,札幌市中央区,北三条東３丁目１番３０,,01,101,0600033,,,,,,,2025-04-21,1,,,,,ジギョウケイゾクリョクキョウカケイカクサポートセンターサッポロ,0
254,1460003001048,新規,0,2025-04-21,2025-04-21,合同会社グロース,,合同会社,北海道,釧路市,美原１丁目３１番１号,,01,206,0850065,,,,,,,2025-04-21,1,,,,,,0
259,1700150130062,新規,0,2025-04-21,2025-04-21,Ｋ．Ｔ．ＬＡＮＫＡ　ＭＯＴＯＲＳ,,外国会社等,千葉県,山武市,木原１４００番地オフィス６Ａ,,12,237,2891212,スリランカ民主社会主義共和国、クルネガラ、パラガハデニヤ、Ｎｏ．１２／３,,,,,,2025-04-21,1,,,,,ケーテイランカモータース,0
284,2010001254303,新規,0,2025-04-21,2025-04-21,アイリスサポートホールディングス株式会社,,株式会社,東京都,中央区,日本橋堀留町１丁目１０番１１号,,13,102,1030012,,,,,,,2025-04-21,1,,,,,アイリスサポートホールディングス,0
285,2010401189652,新規,0,2025-04-21,2025-04-21,株式会社アマデウス・データ・ワークス,,株式会社,東京都,港区,三田３丁目７番３０号パークリッジ三田５０５,,13,103,1080073,,,,,,,2025-04-21,1,,,,,アマデウスデータワークス,0
286,2010401189776,新規,0,2025-04-21,2025-04-21,株式会社和,,株式会社,東京都,港区,北青山１丁目３番１号アールキューブ青山３階,,13,103,1070061,,,,,,,2025-04-21,1,,,,,ヤマト,0
287,2010401189792,新規,0,2025-04-21,2025-04-21,株式会社ＶＩＥＩＬＬＥ　ＶＩＧＮＥ,,株式会社,東京都,港区,南青山３丁目１番３６号青山丸竹ビル６Ｆ,,13,103,1070062,,,,,,,2025-04-21,1,,,,,ヴィエイユヴィーニュ,0
288,2010401189826,新規,0,2025-04-21,2025-04-21,株式会社ミライズ,,株式会社,東京都,港区,六本木４丁目９番２号俳優座ビル９Ｆ,,13,103,1060032,,,,,,,2025-04-21,1,,,,,ミライズ,0
290,2010403034864,新規,0,2025-04-21,2025-04-21,合同会社シトリンパートナーズ,,合同会社,東京都,港区,南麻布２丁目３－１１－１２１９,,13,103,1060047,,,,,,,2025-04-21,1,,,,,シトリンパートナーズ,0
291,2010403034872,新規,0,2025-04-21,2025-04-21,合同会社Ｒｉｎａｓｃｅ,,合同会社,東京都,港区,浜松町２丁目２番１５号浜松町ダイヤビル２階,,13,103,1050013,,,,,,,2025-04-21,1,,,,,リナーシェ,0
293,2010405024277,新規,0,2025-04-21,2025-04-21,弁理士法人岩木特許事務所,,その他の設立登記法人,東京都,港区,西新橋１丁目５番１０号新橋アマノビル５階,,13,103,1050003,,,,,,,2025-04-21,1,,,,,イワキトッキョジムショ,0
294,2010405024335,新規,0,2025-04-21,2025-04-21,恵那山一般社団法人,,その他の設立登記法人,東京都,港区,六本木１丁目６番１号泉ガーデンタワーＫＰＭＧ税理士法人内,,13,103,1060032,,,,,,,2025-04-21,1,,,,,エナサン,0
296,2010501053948,新規,0,2025-04-21,2025-04-21,株式会社コリーブ,,株式会社,東京都,台東区,台東４丁目８番１号いいじまビル３Ｆ,,13,106,1100016,,,,,,,2025-04-21,1,,,,,,0
305,2010901057202,新規,0,2025-04-21,2025-04-21,株式会社Ｆｕｔｕｒｅ　Ｃｏｎｓｕｌｔｉｎｇ,,株式会社,東京都,世田谷区,宇奈根２丁目５番２１号,,13,112,1570068,,,,,,,2025-04-21,1,,,,,フューチャーコンサルティング,0
310,2011001168988,新規,0,2025-04-21,2025-04-21,株式会社ＳＨＵＨＡＲｉ,,株式会社,東京都,渋谷区,桜丘町４番１４号ＶＯＲＴ渋谷桜丘４Ｆ,,13,113,1500031,,,,,,,2025-04-21,1,,,,,シュハリ,0
311,2011001169004,新規,0,2025-04-21,2025-04-21,株式会社ＣＵＢＬＵＺ,,株式会社,東京都,渋谷区,代々木１丁目２５番５号,,13,113,1510053,,,,,,,2025-04-21,1,,,,,クーブルス,0
321,2011101111427,新規,0,2025-04-21,2025-04-21,株式会社ｈｙａｐｐｏ,,株式会社,東京都,新宿区,百人町２丁目１２番１６号,,13,104,1690073,,,,,,,2025-04-21,1,,,,,ヒャッポ,0
322,2011101111435,新規,0,2025-04-21,2025-04-21,株式会社ＧＵＧＵＳ　ＪＡＰＡＮ,,株式会社,東京都,新宿区,新宿７丁目２６番３７－７０１号,,13,104,1600022,,,,,,,2025-04-21,1,,,,,ググスジャパン,0
323,2011101111443,新規,0,2025-04-21,2025-04-21,Ｂｉｓｈｉｎａｒｉ株式会社,,株式会社,東京都,新宿区,内藤町１番地２フォルム内藤町１３０３号,,13,104,1600014,,,,,,,2025-04-21,1,,,,,ビシナリ,0
332,2011501031910,新規,0,2025-04-21,2025-04-21,株式会社モニカゼ,,株式会社,東京都,北区,志茂３丁目４３番１６－１２２４号,,13,117,1150042,,,,,,,2025-04-21,1,,,,,モニカゼ,0
333,2011501031976,新規,0,2025-04-21,2025-04-21,ソウダイケンコウ株式会社,,株式会社,東京都,北区,浮間１丁目７－２３兆豊浮間ビル５０２号室,,13,117,1150051,,,,,,,2025-04-21,1,,,,,ソウダイケンコウ,0
342,2012401042997,新規,0,2025-04-21,2025-04-21,株式会社ライトオペレーション,,株式会社,東京都,調布市,菊野台１丁目２５番地７,,13,208,1820007,,,,,,,2025-04-21,1,,,,,ライトオペレーション,0
343,2012401043005,新規,0,2025-04-21,2025-04-21,株式会社Ｒｉｂｂｏｎ,,株式会社,東京都,調布市,深大寺南町３丁目１７－１深大寺レジデンスＦ７１８,,13,208,1820013,,,,,,,2025-04-21,1,,,,,リボン,0
352,2020001162430,新規,0,2025-04-21,2025-04-21,株式会社ハグベース,,株式会社,神奈川県,横浜市神奈川区,鶴屋町３丁目３２番地１３,,14,102,2210835,,,,,,,2025-04-21,1,,,,,ハグベース,0
353,2020001162455,新規,0,2025-04-21,2025-04-21,株式会社キラリー,,株式会社,神奈川県,横浜市港南区,日野中央１丁目１７番１号,,14,111,2340053,,,,,,,2025-04-21,1,,,,,キラリー,0
354,2020001162463,新規,0,2025-04-21,2025-04-21,株式会社メゾンドボワ,,株式会社,神奈川県,横浜市都筑区,牛久保東１丁目３６番２４号,,14,118,2240014,,,,,,,2025-04-21,1,,,,,メゾンドボワ,0
355,2020001162471,新規,0,2025-04-21,2025-04-21,湘南乃工務店株式会社,,株式会社,神奈川県,横浜市中区,山下町８４番地５メトロタワー山下町５Ｆ,,14,104,2310023,,,,,,,2025-04-21,1,,,,,ショウナンノコウムテン,0
358,2020003028299,新規,0,2025-04-21,2025-04-21,合同会社ＲｅＬｉｎｋ,,合同会社,神奈川県,川崎市多摩区,南生田７丁目２３－１２,,14,135,2140036,,,,,,,2025-04-21,1,,,,,リリンク,0
359,2020003028324,新規,0,2025-04-21,2025-04-21,合同会社ネモフィラ,,合同会社,神奈川県,横浜市西区,北幸２丁目１０番４８号むつみビル３階,,14,103,2200004,,,,,,,2025-04-21,1,,,,,ネモフィラ,0
360,2020005016814,新規,0,2025-04-21,2025-04-21,一般社団法人参整会,,その他の設立登記法人,神奈川県,川崎市多摩区,宿河原４丁目２８番８号エスポワール宿河原１階,,14,135,2140021,,,,,,,2025-04-21,1,,,,,サンセイカイ,0
362,2021003015881,新規,0,2025-04-21,2025-04-21,合同会社パインヒル,,合同会社,神奈川県,茅ヶ崎市,浜竹４丁目２番５９号,,14,207,2530021,,,,,,,2025-04-21,1,,,,,パインヒル,0
367,2030001166109,新規,0,2025-04-21,2025-04-21,展馳株式会社,,株式会社,埼玉県,川口市,大字榛松８４２,,11,203,3340062,,,,,,,2025-04-21,1,,,,,テンチ,0
368,2030001166133,新規,0,2025-04-21,2025-04-21,さむらい株式会社,,株式会社,埼玉県,さいたま市大宮区,東町１丁目１０３番地５,,11,103,3300841,,,,,,,2025-04-21,1,,,,,サムライ,0
380,2040001137835,新規,0,2025-04-21,2025-04-21,株式会社ＳＨＩＮＥＩ,,株式会社,千葉県,匝瑳市,田久保１７０番地,,12,235,2892165,,,,,,,2025-04-21,1,,,,,シンエイ,0
383,2050001056530,新規,0,2025-04-21,2025-04-21,農研ワンヘルス株式会社,,株式会社,茨城県,つくば市,池の台２番地,,08,220,3001240,,,,,,,2025-04-21,1,,,,,ノウケンワンヘルス,0
384,2050001056539,新規,0,2025-04-21,2025-04-21,文博商事株式会社,,株式会社,茨城県,常陸大宮市,石沢１６２３番地５,,08,225,3192135,,,,,,,2025-04-21,1,,,,,ブンハクショウジ,0
385,2050001056555,新規,0,2025-04-21,2025-04-21,株式会社ＬＡＳＩＫＵ,,株式会社,茨城県,常総市,坂手町５３４番地,,08,211,3030042,,,,,,,2025-04-21,1,,,,,ラシク,0
388,2050003009197,新規,0,2025-04-21,2025-04-21,ＨＡＷＷＡ　ＴＲＡＤＩＮＧ合同会社,,合同会社,茨城県,東茨城郡茨城町,大字秋葉７３１番地３,,08,302,3113147,,,,,,,2025-04-21,1,,,,,ハウワトレーディング,0
395,2070001042867,新規,0,2025-04-21,2025-04-21,株式会社パレス,,株式会社,群馬県,伊勢崎市,宮前町７－１,,10,204,3720026,,,,,,,2025-04-21,1,,,,,パレス,0
399,2080105006503,新規,0,2025-04-21,2025-04-21,一般社団法人門池地区地域振興プロジェクトチーム,,その他の設立登記法人,静岡県,沼津市,大岡３５７５番地の８,,22,203,4100022,,,,,,,2025-04-21,1,,,,,,0
403,2100001038531,新規,0,2025-04-21,2025-04-21,株式会社ノーマンズ,,株式会社,長野県,南佐久郡小海町,大字小海３９７３番地１,,20,303,3841102,,,,,,,2025-04-21,1,,,,,ノーマンズ,0
422,2120001274645,新規,0,2025-04-21,2025-04-21,摩鼎株式会社,,株式会社,大阪府,大阪市東住吉区,住道矢田７丁目９番１１－２０２号,,27,121,5460022,,,,,,,2025-04-21,1,,,,,マタイ,0
423,2120001274744,新規,0,2025-04-21,2025-04-21,株式会社アシスト,,株式会社,大阪府,大阪市中央区,島之内１丁目２２番２２－７０２号,,27,128,5420082,,,,,,,2025-04-21,1,,,,,アシスト,0
424,2120001274769,新規,0,2025-04-21,2025-04-21,玖月株式会社,,株式会社,大阪府,大阪市生野区,巽中１丁目８番１３号野本マンション１０２号,00138846,27,116,5440013,,,,,,,2025-04-21,1,,,,,キョウゲツ,0
425,2120001275107,新規,0,2025-04-21,2025-04-21,株式会社アスター関西,,株式会社,大阪府,門真市,末広町４０番３－４０１号,,27,223,5710030,,,,,,,2025-04-21,1,,,,,アスターカンサイ,0
441,2130001079473,新規,0,2025-04-21,2025-04-21,ピュアフィールド株式会社,,株式会社,京都府,船井郡京丹波町,粟野町４６,,26,407,6220301,,,,,,,2025-04-21,1,,,,,ピュアフィールド,0
442,2130001079481,新規,0,2025-04-21,2025-04-21,ＡＮＴＩ　ＭＯＲＡＬ　ＳＣＨＯＯＬ株式会社,,株式会社,京都府,京都市左京区,浄土寺上馬場町１１２番地,,26,103,6068416,,,,,,,2025-04-21,1,,,,,アンチモラルスクール,0
448,2140001138212,新規,0,2025-04-21,2025-04-21,株式会社ＣＴＹＳ　ＬＡＢＯ,,株式会社,兵庫県,洲本市,本町７丁目４番１３号,,28,205,6560025,,,,,,,2025-04-21,1,,,,,シーティーワイエスラボ,0
449,2140001138220,新規,0,2025-04-21,2025-04-21,株式会社福和金属,,株式会社,兵庫県,朝来市,山東町大月１３５５番地１,,28,225,6695153,,,,,,,2025-04-21,1,,,,,フクワキンゾク,0
450,2140001138229,新規,0,2025-04-21,2025-04-21,千秋国際株式会社,,株式会社,兵庫県,神戸市中央区,北長狭通７丁目１番８号,,28,110,6500012,,,,,,,2025-04-21,1,,,,,センシュウコクサイ,0
453,2140005027485,新規,0,2025-04-21,2025-04-21,一般社団法人大空への未来の翼,,その他の設立登記法人,兵庫県,宝塚市,逆瀬川２丁目１０番６２号,,28,214,6650035,,,,,,,2025-04-21,1,,,,,オオゾラヘノミライノツバサ,0
459,2170001018584,新規,0,2025-04-21,2025-04-21,株式会社ＤＲＥＡＭＳ,,株式会社,和歌山県,田辺市,末広町７番１５－１０３号,,30,206,6460038,,,,,,,2025-04-21,1,,,,,ドリームス,0
471,2180003028358,新規,0,2025-04-21,2025-04-21,ＰＳ　ＬＵＸＥＬＩＮＥ　ＧＲＯＵＰ合同会社,,合同会社,愛知県,名古屋市千種区,上野２丁目１２－１７－１号室,,23,101,4640082,,,,,,,2025-04-21,1,,,,,ピーエスラクシライングループ,0
475,2190001032162,新規,0,2025-04-21,2025-04-21,株式会社吉川労働衛生コンサルタント産業医三重事務所,,株式会社,三重県,多気郡明和町,大字斎宮３６０８,,24,442,5150321,,,,,,,2025-04-21,1,,,,,ヨシカワロウドウエイセイコンサルタントサンギョウイミエジムショ,0
481,2230001020856,新規,0,2025-04-21,2025-04-21,はやぶさレンタリース株式会社,,株式会社,富山県,射水市,小島３３０３‐２,,16,211,9390274,,,,,,,2025-04-21,1,,,,,ハヤブサレンタリース,0
489,2240001064828,新規,0,2025-04-21,2025-04-21,株式会社ワンエイティー,,株式会社,広島県,広島市西区,己斐上４丁目１－３６,,34,104,7330815,,,,,,,2025-04-21,1,,,,,ワンエイティー,0
490,2240001064836,新規,0,2025-04-21,2025-04-21,みさと不動産株式会社,,株式会社,広島県,広島市南区,旭２丁目２番２号,,34,103,7340036,,,,,,,2025-04-21,1,,,,,ミサトフドウサン,0
502,2290803005033,新規,0,2025-04-21,2025-04-21,合同会社第一ミヨシ,,合同会社,福岡県,北九州市八幡西区,浅川２丁目１４番３６号,,40,109,8070872,,,,,,,2025-04-21,1,,,,,ダイイチミヨシ,0
508,2330003010960,新規,0,2025-04-21,2025-04-21,合同会社クロッシング,,合同会社,熊本県,熊本市東区,桜木５丁目５－３５ハイカムール桜木Ｂ２０１,,43,102,8612101,,,,,,,2025-04-21,1,,,,,クロッシング,0
514,2360001035073,新規,0,2025-04-21,2025-04-21,株式会社ａｎｄＭＥ,,株式会社,沖縄県,宜野湾市,愛知３丁目１番３５号,,47,205,9012206,,,,,,,2025-04-21,1,,,,,アンドミー,0
515,2360005007218,新規,0,2025-04-21,2025-04-21,一般財団法人沖縄県北部医療財団,,その他の設立登記法人,沖縄県,名護市,字宇茂佐１７１０番地２５,,47,209,9050006,,,,,,,2025-04-21,1,,,,,オキナワケンホクブイリョウザイダン,0
520,2370001052497,新規,0,2025-04-21,2025-04-21,株式会社Ｏｉｔｅｃ,,株式会社,宮城県,仙台市若林区,沖野３丁目１６番５８号,,04,103,9840831,,,,,,,2025-04-21,1,,,,,オイテック,0
525,2380001035253,新規,0,2025-04-21,2025-04-21,株式会社かぜの子,,株式会社,福島県,福島市,浜田町２番１号,,07,201,9608107,,,,,,,2025-04-21,1,,,,,カゼノコ,0
526,2390001017960,新規,0,2025-04-21,2025-04-21,株式会社エスエスケイ,,株式会社,山形県,山形市,大字吉野宿５３番地６,,06,201,9900883,,,,,,,2025-04-21,1,,,,,エスエスケイ,0
532,2440001009597,新規,0,2025-04-21,2025-04-21,佐藤商店株式会社,,株式会社,北海道,函館市,桔梗町３７９番地２４,,01,202,0410801,,,,,,,2025-04-21,1,,,,,サトウショウテン,0
538,2500001026248,新規,0,2025-04-21,2025-04-21,株式会社和コンサルタント,,株式会社,愛媛県,東温市,西岡１３５２番地,,38,215,7910205,,,,,,,2025-04-21,1,,,,,ナゴミコンサルタント,0
540,2700150130061,新規,0,2025-04-21,2025-04-21,ＤＴ　ＭＯＴＯＲＳ,,外国会社等,千葉県,山武市,雨坪６５番地１０１ビジネスオフィス２号,,12,237,2891213,スリランカ民主社会主義共和国、キャンディ、アンクンブラ、アラワトゥゴダロード、Ｎｏ．１３,,,,,,2025-04-21,1,,,,,デイテイモータース,0
549,3010001254062,新規,0,2025-04-21,2025-04-21,練馬株式会社,,株式会社,東京都,文京区,本郷５丁目３０番１３－２０２号,,13,105,1130033,,,,,,,2025-04-21,1,,,,,ネリマ,0
550,3010001254277,新規,0,2025-04-21,2025-04-21,人事ラボラトリー株式会社,,株式会社,東京都,中央区,日本橋２丁目１番１７号丹生ビル２階,,13,102,1030027,,,,,,,2025-04-21,1,,,,,ジンジラボラトリー,0
551,3010001254368,新規,0,2025-04-21,2025-04-21,ミルンダ株式会社,,株式会社,東京都,中央区,日本橋堀留町１丁目９－１０,,13,102,1030012,,,,,,,2025-04-21,1,,,,,ミルンダ,0
552,3010001254376,新規,0,2025-04-21,2025-04-21,日本産業承継株式会社,,株式会社,東京都,中央区,築地２丁目１１－１０－２０５,,13,102,1040045,,,,,,,2025-04-21,1,,,,,ニホンサンギョウショウケイ,0
554,3010003047118,新規,0,2025-04-21,2025-04-21,Ｈｕｎｄｒｅｄ合同会社,,合同会社,東京都,千代田区,丸の内２丁目２番３号丸の内仲通りビル６階,,13,101,1000005,,,,,,,2025-04-21,1,,,,,ハンドレッド,0
555,3010003047134,新規,0,2025-04-21,2025-04-21,合同会社ｅｙｅｂｅａｍ,,合同会社,東京都,文京区,本郷４丁目１２番１６―３０２号,,13,105,1130033,,,,,,,2025-04-21,1,,,,,アイビーム,0
558,3010101016635,新規,0,2025-04-21,2025-04-21,株式会社一縁,,株式会社,東京都,八王子市,大和田町７丁目１７番１６号,,13,201,1920045,,,,,,,2025-04-21,1,,,,,イチヨスガ,0
559,3010103002542,新規,0,2025-04-21,2025-04-21,ＢＩＶＩＳＯＮ　ＤＥＶＥＬＯＰＭＥＮＴ合同会社,,合同会社,東京都,八王子市,子安町１丁目４８番９号２０２室,,13,201,1920904,,,,,,,2025-04-21,1,,,,,ビビソンデベロップメント,0
568,3010401189627,新規,0,2025-04-21,2025-04-21,きづきＥｘｅｃｕｔｉｖｅ　Ｃｏｎｃｉｅｒｇｅ　Ｓｅｒｖｉｃｅｓ株式会社,,株式会社,東京都,港区,北青山１丁目３番１号,,13,103,1070061,,,,,,,2025-04-21,1,,,,,キヅキエグゼクティブコンシェルジュサービシズ,0
569,3010401189643,新規,0,2025-04-21,2025-04-21,株式会社スカイル,,株式会社,東京都,港区,赤坂３丁目１１番１４号赤坂ベルゴ３０１号室,,13,103,1070052,,,,,,,2025-04-21,1,,,,,スカイル,0
570,3010401189684,新規,0,2025-04-21,2025-04-21,株式会社マーケティングプランナー,,株式会社,東京都,港区,南青山２丁目２番１５号,,13,103,1070062,,,,,,,2025-04-21,1,,,,,マーケティングプランナー,0
571,3010403034871,新規,0,2025-04-21,2025-04-21,Ｃａｓｔｌｅクレイン合同会社,,合同会社,東京都,港区,虎ノ門５丁目１１番１２号虎ノ門ＡＣＴビル４階,,13,103,1050001,,,,,,,2025-04-21,1,,,,,キャッスルクレイン,0
572,3010405024342,新規,0,2025-04-21,2025-04-21,弁護士法人赤坂ユスト法律事務所,,その他の設立登記法人,東京都,港区,元赤坂１丁目２番７号赤坂Ｋタワー４階,,13,103,1070051,,,,,,,2025-04-21,1,,,,,アカサカユストホウリツジムショ,0
574,3010601067145,新規,0,2025-04-21,2025-04-21,株式会社あおはな,,株式会社,東京都,江東区,亀戸９丁目３４番１－１６２８号,,13,108,1360071,,,,,,,2025-04-21,1,,,,,アオハナ,0
589,3011101111426,新規,0,2025-04-21,2025-04-21,ＳＵアセットラボ株式会社,,株式会社,東京都,新宿区,新宿４丁目３番１７号ＦＯＲＥＣＡＳＴ新宿ＳＯＵＴＨ７Ｆ,,13,104,1600022,,,,,,,2025-04-21,1,,,,,エスユーアッセットラボ,0
590,3011101111434,新規,0,2025-04-21,2025-04-21,株式会社ココフィー,,株式会社,東京都,新宿区,西新宿１丁目１５－４第二セイコービル６０２,,13,104,1600023,,,,,,,2025-04-21,1,,,,,ココフィー,0
593,3011201026292,新規,0,2025-04-21,2025-04-21,株式会社ＡＫＡテック,,株式会社,東京都,中野区,江原町２丁目２番１号第２江原ハイツ２０５,,13,114,1650023,,,,,,,2025-04-21,1,,,,,アカテック,0
604,3011801045980,新規,0,2025-04-21,2025-04-21,Ｄｅａｌｚ株式会社,,株式会社,東京都,足立区,中央本町３丁目５－３ＴＦビルＢ棟１階,,13,121,1210011,,,,,,,2025-04-21,1,,,,,ディールズ,0
605,3011801045997,新規,0,2025-04-21,2025-04-21,株式会社ＭＩＴＥＲＵＮＥ,,株式会社,東京都,足立区,加平２丁目１９番５－３０９号,,13,121,1210055,,,,,,,2025-04-21,1,,,,,ミテルネ,0
607,3011803006816,新規,0,2025-04-21,2025-04-21,アリストレーディング合同会社,,合同会社,東京都,葛飾区,西新小岩４丁目３０－２ユネックスビル２０１号室,,13,122,1240025,,,,,,,2025-04-21,1,,,,,アリストレーディング,0
608,3012401042996,新規,0,2025-04-21,2025-04-21,株式会社グッドスリースマイル,,株式会社,東京都,調布市,仙川町１丁目８番地１１,,13,208,1820002,,,,,,,2025-04-21,1,,,,,グッドスリースマイル,0
617,3020001162388,新規,0,2025-04-21,2025-04-21,エスコート企画株式会社,,株式会社,神奈川県,川崎市多摩区,登戸新町１１５－１３,,14,135,2140013,,,,,,,2025-04-21,1,,,,,エスコートキカク,0
618,3020001162470,新規,0,2025-04-21,2025-04-21,株式会社Ｖｅｒｓａｔｉｌｅ　Ａｃｃｏｍｐａｎｉｓｔ,,株式会社,神奈川県,横浜市港北区,師岡町１１２８番地９８,,14,109,2220002,,,,,,,2025-04-21,1,,,,,バーサタイルアカンパニスト,0
621,3020003028307,新規,0,2025-04-21,2025-04-21,合同会社アームズパートナーズ,,合同会社,神奈川県,横浜市都筑区,茅ケ崎南１丁目８－３リバーサイドテラス２０１,,14,118,2240037,,,,,,,2025-04-21,1,,,,,アームズパートナーズ,0
622,3020003028323,新規,0,2025-04-21,2025-04-21,合同会社ドライブキャリア,,合同会社,神奈川県,横浜市瀬谷区,阿久和東４丁目１４番地１,,14,114,2460023,,,,,,,2025-04-21,1,,,,,ドライブキャリア,0
628,3021001085026,新規,0,2025-04-21,2025-04-21,拓基産業株式会社,,株式会社,神奈川県,大和市,福田３８９番地８,,14,213,2420024,,,,,,,2025-04-21,1,,,,,タクキサンギョウ,0
631,3030001166066,新規,0,2025-04-21,2025-04-21,株式会社ケーワイケー,,株式会社,埼玉県,草加市,氷川町１５００番地５ｌｅ－ｃｉｅｌ－１０１号,,11,221,3400034,,,,,,,2025-04-21,1,,,,,ケーワイケー,0
632,3030001166074,新規,0,2025-04-21,2025-04-21,株式会社Ｋ．Ｇ．ＬＡＢＯ,,株式会社,埼玉県,さいたま市岩槻区,本町２丁目１２番１１号,,11,110,3390057,,,,,,,2025-04-21,1,,,,,ケイジーラボ,0
645,3040001138254,新規,0,2025-04-21,2025-04-21,千葉みらい創造株式会社,,株式会社,千葉県,船橋市,坪井町７７９番地１,,12,204,2740062,,,,,,,2025-04-21,1,,,,,チバミライソウゾウ,0
646,3040001138378,新規,0,2025-04-21,2025-04-21,新敏産業株式会社,,株式会社,千葉県,松戸市,根本１６３－２羽黒ビル１０１,,12,207,2710077,,,,,,,2025-04-21,1,,,,,シンミンサンギョウ,0
647,3040001138403,新規,0,2025-04-21,2025-04-21,株式会社新勇建設,,株式会社,千葉県,千葉市若葉区,小倉台７丁目１８番２号,,12,104,2640006,,,,,,,2025-04-21,1,,,,,シンユウケンセツ,0
652,3040003027380,新規,0,2025-04-21,2025-04-21,合同会社Ｓｏｌｅ,,合同会社,千葉県,千葉市緑区,あすみが丘４丁目２２－３ファンメゾンＢ－１,,12,105,2670066,,,,,,,2025-04-21,1,,,,,ソーレ,0
654,3050001056554,新規,0,2025-04-21,2025-04-21,株式会社晃士インテリア,,株式会社,茨城県,笠間市,大田町２０８番地２９８,,08,216,3091738,,,,,,,2025-04-21,1,,,,,コウシインテリア,0
658,3070001042858,新規,0,2025-04-21,2025-04-21,株式会社いざなぎ,,株式会社,群馬県,高崎市,問屋町３丁目７番地１,,10,202,3700006,,,,,,,2025-04-21,1,,,,,イザナギ,0
663,3090001019227,新規,0,2025-04-21,2025-04-21,ＫＭＣ‐ＳＭＩＬＥ株式会社,,株式会社,山梨県,南アルプス市,下宮地１９番地１１,,19,208,4000405,,,,,,,2025-04-21,1,,,,,ケイエムシースマイル,0
664,3090001019235,新規,0,2025-04-21,2025-04-21,株式会社マツキ,,株式会社,山梨県,甲府市,池田３丁目７番１５号,,19,201,4000062,,,,,,,2025-04-21,1,,,,,,0
671,3100001038530,新規,0,2025-04-21,2025-04-21,株式会社日向総商保険事務所,,株式会社,長野県,佐久市,中込３１１１番地８,,20,217,3850051,,,,,,,2025-04-21,1,,,,,ヒナタソウショウホケンジムショ,0
678,3110005017224,新規,0,2025-04-21,2025-04-21,一般社団法人えがお,,その他の設立登記法人,新潟県,新潟市東区,大山２丁目１１番８号,,15,102,9500067,,,,,,,2025-04-21,1,,,,,エガオ,0
690,3120001274677,新規,0,2025-04-21,2025-04-21,株式会社ＵＮＩＱＵＥ,,株式会社,大阪府,門真市,大池町１５番２２号,,27,223,5710076,,,,,,,2025-04-21,1,,,,,ユニーク,0
691,3120001274727,新規,0,2025-04-21,2025-04-21,株式会社Ｃｅｓ,,株式会社,大阪府,大阪市淀川区,西宮原１丁目５番３３号新大阪飯田ビル１階,,27,123,5320004,,,,,,,2025-04-21,1,,,,,セス,0
692,3120001274735,新規,0,2025-04-21,2025-04-21,株式会社壱原,,株式会社,大阪府,大阪市福島区,福島２丁目１０－１９メガロコープ福島１００１号,,27,103,5530003,,,,,,,2025-04-21,1,,,,,イチハラ,0
693,3120001274784,新規,0,2025-04-21,2025-04-21,ＤＮＳＮ株式会社,,株式会社,大阪府,大阪市北区,西天満５丁目１３番１１号Ｃｉｅｌ・Ｄ東梅田４０３号室,,27,127,5300047,,,,,,,2025-04-21,1,,,,,ディーエヌエスエヌ,0
695,3120003029113,新規,0,2025-04-21,2025-04-21,メコン合同会社,,合同会社,大阪府,大阪市西成区,橘３丁目１５番２０号,,27,122,5570051,,,,,,,2025-04-21,1,,,,,メコン,0
696,3120003029146,新規,0,2025-04-21,2025-04-21,合同会社Ｔｒｕｓｖｉａ,,合同会社,大阪府,大阪市鶴見区,放出東３丁目３０,,27,124,5380044,,,,,,,2025-04-21,1,,,,,トラスヴィア,0
701,3120101071520,新規,0,2025-04-21,2025-04-21,株式会社アルボル,,株式会社,大阪府,堺市堺区,榎元町２丁２番１８号,,27,141,5900027,,,,,,,2025-04-21,1,,,,,アルボル,0
702,3122001039110,新規,0,2025-04-21,2025-04-21,株式会社本明商店,,株式会社,大阪府,東大阪市,南荘町１３番３７号むつみハイツ２０３号,,27,227,5798024,,,,,,,2025-04-21,1,,,,,モトアキショウテン,0
709,3130003010360,新規,0,2025-04-21,2025-04-21,平安合同会社,,合同会社,京都府,京都市左京区,岩倉花園町４８４番地２１,,26,103,6060024,,,,,,,2025-04-21,1,,,,,ヘイアン,0
715,3140001138211,新規,0,2025-04-21,2025-04-21,株式会社Ｋ,,株式会社,兵庫県,加古郡稲美町,蛸草９５１番地の１,,28,381,6751116,,,,,,,2025-04-21,1,,,,,ケー,0
716,3140001138228,新規,0,2025-04-21,2025-04-21,株式会社ヤマガミ,,株式会社,兵庫県,神戸市中央区,北長狭通７丁目２番４号,,28,110,6500012,,,,,,,2025-04-21,1,,,,,ヤマガミ,0
718,3150001028056,新規,0,2025-04-21,2025-04-21,株式会社岩本工業,,株式会社,奈良県,橿原市,大谷町１１８－１,,29,205,6340815,,,,,,,2025-04-21,1,,,,,イワモトコウギョウ,0
735,3180003028340,新規,0,2025-04-21,2025-04-21,ＳＧ　Ｍｏｔｏｒ　Ｔｒａｄｉｎｇ合同会社,,合同会社,愛知県,海部郡飛島村,大字新政成４丁目２２番地,,23,427,4901443,,,,,,,2025-04-21,1,,,,,エスジーモータートレーディング,0
736,3180003028357,新規,0,2025-04-21,2025-04-21,合同会社Ｓｔｒａｄａ,,合同会社,愛知県,江南市,古知野町瑞穂４０番地江南ＴＥＲＲＡＣＥ２０１号,,23,217,4838212,,,,,,,2025-04-21,1,,,,,ストラーダ,0
738,3200001043660,新規,0,2025-04-21,2025-04-21,ホープ株式会社,,株式会社,岐阜県,羽島市,正木町三ツ柳１７番地１,,21,209,5016226,,,,,,,2025-04-21,1,,,,,ホープ,0
742,3210003001913,新規,0,2025-04-21,2025-04-21,合同会社クルール,,合同会社,福井県,鯖江市,平井町第５１号４番地２１,,18,207,9160061,,,,,,,2025-04-21,1,,,,,クルール,0
751,3290005019715,新規,0,2025-04-21,2025-04-21,ツナグ社会保険労務士法人,,その他の設立登記法人,福岡県,福岡市中央区,薬院４丁目８番２８号チサンマンション第５博多２０３号,,40,133,8100022,,,,,,,2025-04-21,1,,,,,ツナグ,0
754,3290803005032,新規,0,2025-04-21,2025-04-21,合同会社第二ミヨシ,,合同会社,福岡県,北九州市八幡西区,浅川２丁目１４番３６号,,40,109,8070872,,,,,,,2025-04-21,1,,,,,ダイニミヨシ,0
767,3340001027278,新規,0,2025-04-21,2025-04-21,株式会社コムエースプランニング,,株式会社,鹿児島県,日置市,伊集院町郡２４０６番地５,,46,216,8992504,,,,,,,2025-04-21,1,,,,,コムエースプランニング,0
769,3340003004820,新規,0,2025-04-21,2025-04-21,合同会社ＨＯＡ,,合同会社,鹿児島県,西之表市,西之表１００３７番地,,46,213,8913101,,,,,,,2025-04-21,1,,,,,ホア,0
770,3340005009850,新規,0,2025-04-21,2025-04-21,瑞光山興栄寺,,その他の設立登記法人,鹿児島県,鹿児島市,田上町４４７４番地,,46,201,8900035,,,,,,,2025-04-21,1,,,,,ズイコウザンコウエイジ,0
782,3360003014859,新規,0,2025-04-21,2025-04-21,合同会社ｙｅｌｌ,,合同会社,沖縄県,那覇市,前島２丁目１９番１３号サントピア泊高橋９０１,,47,201,9000016,,,,,,,2025-04-21,1,,,,,エール,0
783,3360005007209,新規,0,2025-04-21,2025-04-21,医療法人栄千会,,その他の設立登記法人,沖縄県,糸満市,字潮平７９８番地４オアシス當銘１Ｆ,,47,210,9010302,,,,,,,2025-04-21,1,,,,,エイチカイ,0
791,3380001035269,新規,0,2025-04-21,2025-04-21,株式会社晃大,,株式会社,福島県,福島市,瀬上町字幸町６４番地の１,,07,201,9600101,,,,,,,2025-04-21,1,,,,,コウダイ,0
797,3400001017009,新規,0,2025-04-21,2025-04-21,株式会社ＳＴＫ,,株式会社,岩手県,下閉伊郡山田町,川向町１２番１５号,,03,482,0281342,,,,,,,2025-04-21,1,,,,,エスティーケー,0
798,3400003003436,新規,0,2025-04-21,2025-04-21,合同会社ニノツギ,,合同会社,岩手県,二戸市,釜沢字高瀬２０番地,,03,213,0285713,,,,,,,2025-04-21,1,,,,,ニノツギ,0
800,3420005007953,新規,0,2025-04-21,2025-04-21,一般社団法人くれよんの木,,その他の設立登記法人,青森県,南津軽郡藤崎町,大字西豊田２丁目７番地１,,02,361,0383803,,,,,,,2025-04-21,1,,,,,クレヨンノキ,0
810,3500001026247,新規,0,2025-04-21,2025-04-21,ＦＯＣＬ株式会社,,株式会社,愛媛県,松山市,高岡町３７０番地２,,38,201,7918036,,,,,,,2025-04-21,1,,,,,フォッシル,0
812,3700150130060,新規,0,2025-04-21,2025-04-21,Ｓｈｅｎｚｈｅｎｙｉｗａｃｈｕａｎｇｘｉｎｋｅｊｉｙｏｕｘｉａｎｇｏｎｇｓｉ,,外国会社等,,,,,,,,８０２，Ｏｆｆｉｃｅ　Ｂｕｉｌｄｉｎｇ　４，Ｃｈｏｎｇｗｅｎ　Ｇａｒｄｅｎ，Ｎｏ．１　Ｔａｎｇｌｉｎｇ　Ｒｏａｄ，Ｆｕｇｕａｎｇ　Ｃｏｍｍｕｎｉｔｙ，Ｔａｏｙｕａｎ　Ｓｔｒｅｅｔ，Ｎａｎｓｈａｎ　Ｄｉｓｔｒｉｃｔ，Ｓｈｅｎｚｈｅｎ，Ｇｕａｎｇｄｏｎｇ,,,,,,2025-04-21,1,,,,,シェンジェンイーワーチュワーンシンコーァジーヨウシエンゴーンスー,0
829,4010003047100,新規,0,2025-04-21,2025-04-21,Ｔｒａｎｓｆｅｒ　Ａｎｄ　Ｎｅｔｗｏｒｋ　Ａｓｉａ合同会社,,合同会社,東京都,中央区,晴海４丁目６番５号,,13,102,1040053,,,,,,,2025-04-21,1,,,,,トランスファーアンドネットワークアジア,0
830,4010003047117,新規,0,2025-04-21,2025-04-21,ＣａｐｉｔａＬａｎｄ　Ｈｕｎｄｒｅｄ　Ｖｅｎｔｕｒｅｓ合同会社,,合同会社,東京都,千代田区,丸の内２丁目２番３号丸の内仲通りビル６階,,13,101,1000005,,,,,,,2025-04-21,1,,,,,キャピタランドハンドレッドベンチャーズ,0
833,4010005039946,新規,0,2025-04-21,2025-04-21,一般社団法人ＧＰＥＣＯＭ,,その他の設立登記法人,東京都,中央区,勝どき６丁目３番２－４１１３号,,13,102,1040054,,,,,,,2025-04-21,1,,,,,ジペコム,0
839,4010401189634,新規,0,2025-04-21,2025-04-21,マリンバ株式会社,,株式会社,東京都,港区,南麻布１丁目７－４１パークアベニュー麻布４０３,,13,103,1060047,,,,,,,2025-04-21,1,,,,,マリンバ,0
840,4010401189790,新規,0,2025-04-21,2025-04-21,ＡＶＡ１ＨＤ株式会社,,株式会社,東京都,港区,虎ノ門５丁目１１番１号オランダヒルズ森タワーＲｏＰ９０３号,,13,103,1050001,,,,,,,2025-04-21,1,,,,,エーブイエーワンホールディングス,0
841,4010403034920,新規,0,2025-04-21,2025-04-21,合同会社スリット,,合同会社,東京都,港区,港南１丁目９番３６号アレア品川１３階８０１号室,,13,103,1080075,,,,,,,2025-04-21,1,,,,,スリット,0
842,4010403034929,新規,0,2025-04-21,2025-04-21,恵那山合同会社,,合同会社,東京都,港区,六本木１丁目６番１号泉ガーデンタワーＫＰＭＧ税理士法人内,,13,103,1060032,,,,,,,2025-04-21,1,,,,,エナサン,0
844,4010501053938,新規,0,2025-04-21,2025-04-21,株式会社ローブ,,株式会社,東京都,台東区,浅草４丁目９番６号,,13,106,1110032,,,,,,,2025-04-21,1,,,,,ローブ,0
848,4010601067160,新規,0,2025-04-21,2025-04-21,株式会社ユーアイエム,,株式会社,東京都,江東区,豊洲６丁目２番３１－３８２０号,,13,108,1350061,,,,,,,2025-04-21,1,,,,,ユーアイエム,0
849,4010601067169,新規,0,2025-04-21,2025-04-21,ＭＥＩＫＯ投資＆人材株式会社,,株式会社,東京都,江東区,東砂４丁目７番１１号ヒロハイム１０１,,13,108,1360074,,,,,,,2025-04-21,1,,,,,メイコトウシアンドジンザイ,0
850,4010601067177,新規,0,2025-04-21,2025-04-21,株式会社勝丸,,株式会社,東京都,墨田区,立川２丁目１―１８千葉ビル,,13,107,1300023,,,,,,,2025-04-21,1,,,,,マサマル,0
856,4010901057200,新規,0,2025-04-21,2025-04-21,株式会社ＪＡＹ,,株式会社,東京都,世田谷区,下馬１丁目３４番１２－２１９号,,13,112,1540002,,,,,,,2025-04-21,1,,,,,ジェイ,0
865,4011001168986,新規,0,2025-04-21,2025-04-21,Ｐ．Ｒ．Ｇ株式会社,,株式会社,東京都,渋谷区,神宮前２丁目６番６－６０３号,,13,113,1500001,,,,,,,2025-04-21,1,,,,,ピーアールジー,0
867,4011003021417,新規,0,2025-04-21,2025-04-21,合同会社パームトゥーパーム,,合同会社,東京都,渋谷区,広尾１丁目７－２０ＤＯＴビル,,13,113,1500012,,,,,,,2025-04-21,1,,,,,パームトゥーパーム,0
873,4011101111409,新規,0,2025-04-21,2025-04-21,株式会社ウィンマックス,,株式会社,東京都,新宿区,山吹町３３７－５都住創山吹町ビル６０４Ｏ,,13,104,1620801,,,,,,,2025-04-21,1,,,,,ウィンマックス,0
874,4011101111425,新規,0,2025-04-21,2025-04-21,株式会社京誠諾信,,株式会社,東京都,新宿区,榎町３４－３榎町ビル７階－１６室,,13,104,1620806,,,,,,,2025-04-21,1,,,,,キョセイダクシン,0
875,4011101111516,新規,0,2025-04-21,2025-04-21,株式会社ＵＰＰＥＲ,,株式会社,東京都,新宿区,富久町３番１７号ハウス秀和４０１,,13,104,1620067,,,,,,,2025-04-21,1,,,,,アッパー,0
877,4011401027032,新規,0,2025-04-21,2025-04-21,株式会社アリオカ,,株式会社,東京都,板橋区,小茂根３丁目４番５－７０４号コスモ小竹向原ガーデンフォルム,,13,119,1730037,,,,,,,2025-04-21,1,,,,,アリオカ,0
878,4011403004681,新規,0,2025-04-21,2025-04-21,合同会社オフィスＯＨＴＡＮＩ,,合同会社,東京都,板橋区,桜川３丁目２６－１３パークヒルズ７０４号,,13,119,1740075,,,,,,,2025-04-21,1,,,,,オフィスオオタニ,0
880,4011501031966,新規,0,2025-04-21,2025-04-21,翡麗国際株式会社,,株式会社,東京都,荒川区,南千住７丁目１５番１８－５１１号,,13,118,1160003,,,,,,,2025-04-21,1,,,,,フェイリコクサイ,0
888,4011801045996,新規,0,2025-04-21,2025-04-21,株式会社扇雅,,株式会社,東京都,葛飾区,柴又６丁目１番３－３０３号,,13,122,1250052,,,,,,,2025-04-21,1,,,,,センガ,0
900,4020001162429,新規,0,2025-04-21,2025-04-21,株式会社ビズラッシュ,,株式会社,神奈川県,横浜市中区,羽衣町２丁目８番地１パークハビオ６０１,,14,104,2310047,,,,,,,2025-04-21,1,,,,,ビズラッシュ,0
901,4020001162437,新規,0,2025-04-21,2025-04-21,株式会社エコホームシステム,,株式会社,神奈川県,横浜市港南区,東永谷３丁目５５－８Ｂ－２０１,,14,111,2330011,,,,,,,2025-04-21,1,,,,,エコホームシステム,0
902,4020001162461,新規,0,2025-04-21,2025-04-21,森源株式会社,,株式会社,神奈川県,横浜市西区,浜松町２－３２大森ビル４Ｆ,,14,103,2200055,,,,,,,2025-04-21,1,,,,,モリゲン,0
905,4020003028207,新規,0,2025-04-21,2025-04-21,合同会社アシストアイ,,合同会社,神奈川県,川崎市幸区,柳町１,,14,132,2120015,,,,,,,2025-04-21,1,,,,,アシストアイ,0
906,4020003028314,新規,0,2025-04-21,2025-04-21,合同会社Ｌｅｏ,,合同会社,神奈川県,川崎市多摩区,宿河原４丁目２１番１５－１１８号,,14,135,2140021,,,,,,,2025-04-21,1,,,,,レオ,0
907,4020003028330,新規,0,2025-04-21,2025-04-21,怜明会合同会社,,合同会社,神奈川県,川崎市高津区,千年６３７番地４グランドゥールチトセ１階,,14,134,2130022,,,,,,,2025-04-21,1,,,,,レイメイカイ,0
908,4020005016795,新規,0,2025-04-21,2025-04-21,特定非営利活動法人ヨコハマエンターテインメントサポーティング,,その他の設立登記法人,神奈川県,横浜市都筑区,加賀原１丁目２４番１１－２０６号,,14,118,2240055,,,,,,,2025-04-21,1,,,,,ヨコハマエンターテインメントサポーティング,0
909,4020005016804,新規,0,2025-04-21,2025-04-21,一般社団法人ソーシャるＬａｂ,,その他の設立登記法人,神奈川県,横浜市神奈川区,金港町５番地１４クアドリフォリオ８階,,14,102,2210056,,,,,,,2025-04-21,1,,,,,,0
910,4020005016812,新規,0,2025-04-21,2025-04-21,一般社団法人ＤＩＯ,,その他の設立登記法人,神奈川県,横浜市青葉区,たちばな台１丁目１１－４カドリル青葉台１０２,,14,117,2270046,,,,,,,2025-04-21,1,,,,,ディオ,0
915,4030001165686,新規,0,2025-04-21,2025-04-21,ＯＶＯ芸術科学株式会社,,株式会社,埼玉県,川口市,芝１丁目３０番２号,,11,203,3330866,,,,,,,2025-04-21,1,,,,,オーヴィーオーゲイジュツカガク,0
916,4030001166107,新規,0,2025-04-21,2025-04-21,ＭＯＦＴＪａｐａｎ株式会社,,株式会社,埼玉県,さいたま市北区,吉野町１丁目４１１番地９,,11,102,3310811,,,,,,,2025-04-21,1,,,,,モフトジャパン,0
917,4030001166115,新規,0,2025-04-21,2025-04-21,株式会社ＺＵＬＵ,,株式会社,埼玉県,川越市,岸町１丁目２６―１１,,11,201,3501131,,,,,,,2025-04-21,1,,,,,ズル,0
921,4030005022140,新規,0,2025-04-21,2025-04-21,一般社団法人Ｂｅ　Ｙｏｕｒｓｅｌｆ,,その他の設立登記法人,埼玉県,新座市,東北２丁目２９番３０－６０３号,,11,230,3520001,,,,,,,2025-04-21,1,,,,,ビーユアセルフ,0
929,4040001138393,新規,0,2025-04-21,2025-04-21,株式会社Ｓｏｒｉ,,株式会社,千葉県,柏市,中央２丁目２―６レジェンド柏３０２,,12,217,2770023,,,,,,,2025-04-21,1,,,,,ソリ,0
930,4040001138402,新規,0,2025-04-21,2025-04-21,株式会社ｆａｇｉａｎｏ,,株式会社,千葉県,千葉市若葉区,みつわ台５丁目２９番５棟５０３号,,12,104,2640032,,,,,,,2025-04-21,1,,,,,ファジアーノ,0
937,4040005022718,新規,0,2025-04-21,2025-04-21,行政書士法人パートナーズ・アルク,,その他の設立登記法人,千葉県,柏市,柏２丁目７番２３号コササビル２階,,12,217,2770005,,,,,,,2025-04-21,1,,,,,パートナーズアルク,0
939,4050001056537,新規,0,2025-04-21,2025-04-21,株式会社ＡｓｔｒｏＷａｖｅＴｅｃｈｎｏｌｏｇｉｅｓ,,株式会社,茨城県,つくば市,千現２丁目１番１,,08,220,3050047,,,,,,,2025-04-21,1,,,,,アストロウェーブテクノロジーズ,0
940,4060003005516,新規,0,2025-04-21,2025-04-21,合同会社真和機工,,合同会社,栃木県,佐野市,天神町９４０番地エトワール天神３０１,,09,204,3270847,,,,,,,2025-04-21,1,,,,,シンワキコウ,0
942,4070001042857,新規,0,2025-04-21,2025-04-21,株式会社ＭＯＡ,,株式会社,群馬県,沼田市,戸鹿野町６９７番地２０,,10,206,3780015,,,,,,,2025-04-21,1,,,,,モア,0
947,4080401027861,新規,0,2025-04-21,2025-04-21,株式会社Ｓｍｉｌｅ　Ｌｉｆｅ,,株式会社,静岡県,磐田市,大久保６３番地１,,22,211,4380002,,,,,,,2025-04-21,1,,,,,スマイルライフ,0
951,4090005007697,新規,0,2025-04-21,2025-04-21,一般社団法人山梨県バレーボール協会,,その他の設立登記法人,山梨県,甲府市,中央４丁目１２番２１号,,19,201,4000032,,,,,,,2025-04-21,1,,,,,ヤマナシケンバレーボールキョウカイ,0
958,4110005017207,新規,0,2025-04-21,2025-04-21,魚沼市商工会,,その他の設立登記法人,新潟県,魚沼市,小出島１２０９番地１１,,15,225,9460011,,,,,,新潟県魚沼市堀之内１３０番地堀之内商工会（7110005013590）と新潟県魚沼市小出島１２０９番地１１小出商工会（8110005013581）と新潟県魚沼市吉田１１４８番地湯之谷商工会（3110005013586）と新潟県魚沼市今泉１４７７番地１広神商工会（2110005013587）の合併により設立,2025-04-21,1,,,,,ウオヌマシ,0
967,4120001274635,新規,0,2025-04-21,2025-04-21,潤澤株式会社,,株式会社,大阪府,大阪市生野区,小路東５丁目１番１８－１０１号,,27,116,5440003,,,,,,,2025-04-21,1,,,,,ジュンタク,0
968,4120001274734,新規,0,2025-04-21,2025-04-21,株式会社ナチュラルコーポレーション,,株式会社,大阪府,大阪市福島区,福島３丁目１番６５－２５０９号,,27,103,5530003,,,,,,,2025-04-21,1,,,,,ナチュラルコーポレーション,0
969,4120001274767,新規,0,2025-04-21,2025-04-21,株式会社Ｐｕｍｅｈａｎａ,,株式会社,大阪府,大阪市淀川区,西宮原１丁目６番６０－５２０号,,27,123,5320004,,,,,,,2025-04-21,1,,,,,プメハナ,0
970,4120001274809,新規,0,2025-04-21,2025-04-21,株式会社Ｍａｎａｂｉ,,株式会社,大阪府,大阪市東成区,中道３丁目１７番９－１２０２号,,27,115,5370025,,,,,,,2025-04-21,1,,,,,マナビ,0
978,4120101071528,新規,0,2025-04-21,2025-04-21,株式会社ＬｉｔｔｌｅＢｏｙ,,株式会社,大阪府,藤井寺市,国府３丁目６番５１号,,27,226,5830006,,,,,,,2025-04-21,1,,,,,リトルボーイ,0
983,4120901050739,新規,0,2025-04-21,2025-04-21,株式会社トリプルアイ,,株式会社,大阪府,茨木市,山手台４丁目４番１７０号,,27,211,5670009,,,,,,,2025-04-21,1,,,,,トリプルアイ,0
990,4140001138210,新規,0,2025-04-21,2025-04-21,株式会社Ｌｕｃｋ‐Ｒｅ,,株式会社,兵庫県,神戸市西区,伊川谷町有瀬７３３－１４ＣＡＲМＩТＡＧＥ２号室,,28,111,6512113,,,,,,,2025-04-21,1,,,,,ラクレ,0
993,4140003021950,新規,0,2025-04-21,2025-04-21,Ｍ’ｓ　ｐｌａｎｎｉｎｇ合同会社,,合同会社,兵庫県,芦屋市,潮見町５番４－２号,,28,206,6590043,,,,,,,2025-04-21,1,,,,,エムズプランニング,0
995,4140005027475,新規,0,2025-04-21,2025-04-21,摩耶山再生ワーカーズコープ労働者協同組合,,その他の設立登記法人,兵庫県,神戸市灘区,倉石通２丁目２－２９,,28,102,6570826,,,,,,,2025-04-21,1,,,,,マヤサンサイセイワーカーズコープ,0
1002,4180001166389,新規,0,2025-04-21,2025-04-21,株式会社Ｋｏｋｕａ,,株式会社,愛知県,名古屋市守山区,大字上志段味字東谷２０８６番地の２６９,,23,113,4630001,,,,,,,2025-04-21,1,,,,,コクア,0
1003,4180001166488,新規,0,2025-04-21,2025-04-21,株式会社幹建業,,株式会社,愛知県,日進市,赤池南２丁目１９０８番地７,,23,230,4700127,,,,,,,2025-04-21,1,,,,,ミキケンギョウ,0
1007,4180005021061,新規,0,2025-04-21,2025-04-21,一般社団法人Ｎａｎｚａｎ．Ｓ,,その他の設立登記法人,愛知県,名古屋市西区,名駅２丁目３４番１７号セントラル名古屋１１０１号,,23,104,4510045,,,,,,,2025-04-21,1,,,,,ナンザンドットエス,0
1010,4190001032160,新規,0,2025-04-21,2025-04-21,株式会社アテンド,,株式会社,三重県,伊勢市,御薗町長屋２６１２番地１,,24,203,5160804,,,,,,,2025-04-21,1,,,,,アテンド,0
1011,4190001032177,新規,0,2025-04-21,2025-04-21,株式会社ミエコーポレーション,,株式会社,三重県,津市,久居小野辺町１５７３番地２,,24,201,5141112,,,,,,,2025-04-21,1,,,,,ミエコーポレーション,0
1015,4200001043668,新規,0,2025-04-21,2025-04-21,柳ヶ瀬技研株式会社,,株式会社,岐阜県,岐阜市,金宝町１丁目１５番地,,21,201,5008847,,,,,,,2025-04-21,1,,,,,ヤナガセギケン,0
1020,4220003003998,新規,0,2025-04-21,2025-04-21,シルバーアークス合同会社,,合同会社,石川県,七尾市,古府町笠松七,,17,202,9260031,,,,,,,2025-04-21,1,,,,,シルバーアークス,0
1022,4230001020854,新規,0,2025-04-21,2025-04-21,オーエム設備工業株式会社,,株式会社,富山県,富山市,つばめ野３丁目４８番地,,16,201,9302239,,,,,,,2025-04-21,1,,,,,オーエムセツビコウギョウ,0
1023,4230001020862,新規,0,2025-04-21,2025-04-21,ＲＡＯ　ＴＲＡＤＩＮＧ株式会社,,株式会社,富山県,射水市,作道２１４０番地１グローバル３０４,,16,211,9340042,,,,,,,2025-04-21,1,,,,,ラオトレーディング,0
1028,4250001021108,新規,0,2025-04-21,2025-04-21,株式会社Ｔｅａｍ　ｙａｍａｓａｎ,,株式会社,山口県,山口市,秋穂東５６０７番地,,35,203,7541101,,,,,,,2025-04-21,1,,,,,チームヤマサン,0
1032,4260001040131,新規,0,2025-04-21,2025-04-21,株式会社平田工業,,株式会社,岡山県,岡山市南区,大福６３５－７,,33,104,7010204,,,,,,,2025-04-21,1,,,,,ヒラタコウギョウ,0
1033,4260003005124,新規,0,2025-04-21,2025-04-21,合同会社ｍｕｒａｔａｔｏ,,合同会社,岡山県,岡山市北区,高松原古才８,,33,101,7011334,,,,,,,2025-04-21,1,,,,,ムラタト,0
1041,4290001109700,新規,0,2025-04-21,2025-04-21,株式会社陽月,,株式会社,福岡県,福岡市東区,香椎２丁目２９番４号,,40,131,8130011,,,,,,,2025-04-21,1,,,,,ヒヅキ,0
1042,4290001109774,新規,0,2025-04-21,2025-04-21,株式会社ＰｕｒｐｌｅＰｒｏｄｕｃｔｉｏｎｓ,,株式会社,福岡県,福岡市中央区,大手門３丁目４番１５－７０５号,,40,133,8100074,,,,,,,2025-04-21,1,,,,,パープルプロダクションズ,0
1050,4310001019558,新規,0,2025-04-21,2025-04-21,株式会社ＭＡＲＵＫＯＵ,,株式会社,長崎県,雲仙市,南串山町丙１０２５０番地１,,42,213,8540703,,,,,,,2025-04-21,1,,,,,マルコウ,0
1064,4380001035227,新規,0,2025-04-21,2025-04-21,ＢＡＮＢＡＮＰＲＯ株式会社,,株式会社,福島県,会津若松市,表町６番５９号,,07,202,9650831,,,,,,,2025-04-21,1,,,,,バンバンプロ,0
1067,4400001017008,新規,0,2025-04-21,2025-04-21,株式会社ＺＥＲＯ　ＢＡＳＥ,,株式会社,岩手県,北上市,若宮町１丁目２番１０号,,03,206,0240064,,,,,,,2025-04-21,1,,,,,ゼロベース,0
1074,4430005015211,新規,0,2025-04-21,2025-04-21,一般社団法人ＧｏｖＴｅｃｈ美唄,,その他の設立登記法人,北海道,美唄市,西二条南２丁目５番１号コアびばいＰＩＴＡＡＡＮ！,,01,215,0720025,,,,,,,2025-04-21,1,,,,,ガブテックビバイ,0
1078,4470001020673,新規,0,2025-04-21,2025-04-21,株式会社ネオインパルス,,株式会社,香川県,丸亀市,城東町２丁目６－１７,,37,202,7630013,,,,,,,2025-04-21,1,,,,,,0
1093,5010001254093,新規,0,2025-04-21,2025-04-21,株式会社ＬｉｖｅＤｒｅａｍ,,株式会社,東京都,中央区,銀座１丁目１２－４Ｎ＆ＥＢＬＤ．７階,,13,102,1040061,,,,,,,2025-04-21,1,,,,,ライブドリーム,0
1094,5010001254218,新規,0,2025-04-21,2025-04-21,おかじ株式会社,,株式会社,東京都,文京区,千石４丁目３５番１６号,,13,105,1120011,,,,,,,2025-04-21,1,,,,,オカジ,0
1097,5010005039945,新規,0,2025-04-21,2025-04-21,一般社団法人ＧＥＭインターナショナル,,その他の設立登記法人,東京都,中央区,日本橋３丁目９番１号,,13,102,1030027,,,,,,,2025-04-21,1,,,,,ジーイーエムインターナショナル,0
1107,5010401189369,新規,0,2025-04-21,2025-04-21,ＶＩＢＩＡ　ＪＡＰＡＮ株式会社,,株式会社,東京都,港区,東麻布１丁目２３番５号ＰＭＣビル４Ｆ,,13,103,1060044,,,,,,,2025-04-21,1,,,,,ヴィビアジャパン,0
1111,5010403034812,新規,0,2025-04-21,2025-04-21,合同会社ＧＨＩＩ,,合同会社,東京都,港区,赤坂５丁目２－３３,,13,103,1070052,,,,,,,2025-04-21,1,,,,,ジーエイチアイアイ,0
1112,5010403034911,新規,0,2025-04-21,2025-04-21,合同会社スマートエナジーインベストメント,,合同会社,東京都,港区,西新橋１丁目１８番１７号,,13,103,1050003,,,,,,,2025-04-21,1,,,,,スマートエナジーインベストメント,0
1113,5010403034928,新規,0,2025-04-21,2025-04-21,合同会社Ｐｈａｒｅ,,合同会社,東京都,港区,芝５丁目２６番２４号田町スクエア２階,,13,103,1080014,,,,,,,2025-04-21,1,,,,,ファール,0
1114,5010403034952,新規,0,2025-04-21,2025-04-21,プロダプトジャパン合同会社,,合同会社,東京都,港区,赤坂１丁目１２番３２号アーク森ビル東京国際法律事務所内,,13,103,1070052,,,,,,,2025-04-21,1,,,,,プロダプトジャパン,0
1117,5010501053929,新規,0,2025-04-21,2025-04-21,株式会社天の門,,株式会社,東京都,台東区,東上野３丁目１０番４－２０１室,,13,106,1100015,,,,,,,2025-04-21,1,,,,,テンノモン,0
1118,5010501053945,新規,0,2025-04-21,2025-04-21,株式会社ＡＫＡＴＳＵＫＩ　ＧＲ０１ＵＰ,,株式会社,東京都,台東区,今戸２丁目９－７－１２０６ジェノヴィア浅草ＶＩスカイガーデン,,13,106,1110024,,,,,,,2025-04-21,1,,,,,アカツキグループ,0
1119,5010503007791,新規,0,2025-04-21,2025-04-21,合同会社ＵＰＴ,,合同会社,東京都,台東区,下谷２丁目１３番１３－４０２号,,13,106,1100004,,,,,,,2025-04-21,1,,,,,ユーピーティー,0
1123,5010601067151,新規,0,2025-04-21,2025-04-21,株式会社仲富,,株式会社,東京都,江東区,豊洲５丁目６番４５号グランアルト３１５,,13,108,1350061,,,,,,,2025-04-21,1,,,,,ナカトミ,0
1133,5010805003167,新規,0,2025-04-21,2025-04-21,おおたみらい労働者協同組合,,その他の設立登記法人,東京都,大田区,蒲田２丁目６番３号,,13,111,1440052,,,,,,,2025-04-21,1,,,,,オオタミライ,0
1134,5010901057208,新規,0,2025-04-21,2025-04-21,株式会社ｋｏｌｅ,,株式会社,東京都,世田谷区,野沢３丁目２０番２３－４０２号,,13,112,1540003,,,,,,,2025-04-21,1,,,,,コール,0
1135,5010901057216,新規,0,2025-04-21,2025-04-21,ＪＣ　Ｎｏｍａｓ株式会社,,株式会社,東京都,世田谷区,桜新町２丁目１１番９号オープンレジデンシア４０５室,,13,112,1540015,,,,,,,2025-04-21,1,,,,,ジェーシーノーマス,0
1144,5011001168845,新規,0,2025-04-21,2025-04-21,ぴあライブクリエイティブ株式会社,,株式会社,東京都,渋谷区,東１丁目２番２０号,,13,113,1500011,,,,,,,2025-04-21,1,,,,,ピアライブクリエイティブ,0
1145,5011001168985,新規,0,2025-04-21,2025-04-21,株式会社Ｃｌａｒｋ,,株式会社,東京都,渋谷区,渋谷３丁目２２番１１号サンクスプライムビル４Ｆ－Ａ,,13,113,1500002,,,,,,,2025-04-21,1,,,,,クラーク,0
1146,5011001169001,新規,0,2025-04-21,2025-04-21,株式会社Ｄｒｅａｄ　Ｙａｍａｄａ,,株式会社,東京都,渋谷区,神宮前１丁目２３番２８号神宮前一丁目ビル１Ｆ,,13,113,1500001,,,,,,,2025-04-21,1,,,,,ドレッドヤマダ,0
1149,5011101111424,新規,0,2025-04-21,2025-04-21,ＮｏａＮｏａ株式会社,,株式会社,東京都,新宿区,西新宿３丁目３番１３号西新宿水間ビル６階,,13,104,1600023,,,,,,,2025-04-21,1,,,,,ノアノア,0
1150,5011101111432,新規,0,2025-04-21,2025-04-21,ＷＢＰＯ株式会社,,株式会社,東京都,新宿区,市谷田町３丁目２５パームハウスＢ２号室,,13,104,1620843,,,,,,,2025-04-21,1,,,,,ダブリュービーピーオー,0
1152,5011201026290,新規,0,2025-04-21,2025-04-21,三曜商事株式会社,,株式会社,東京都,中野区,弥生町５丁目８番４号,,13,114,1640013,,,,,,,2025-04-21,1,,,,,サンヨウショウジ,0
1159,5011501031965,新規,0,2025-04-21,2025-04-21,株式会社Ｖｉｔｔｏ　Ｓｔｙｌｅ　Ｊａｐａｎ,,株式会社,東京都,北区,岸町２丁目６番１４号ベルメゾン岸町１０２,,13,117,1140021,,,,,,,2025-04-21,1,,,,,ヴィットスタイルジャパン,0
1165,5011803006806,新規,0,2025-04-21,2025-04-21,出雲創安合同会社,,合同会社,東京都,葛飾区,東立石４丁目３７－８,,13,122,1240013,,,,,,,2025-04-21,1,,,,,イズモソウアン,0
1166,5012301014342,新規,0,2025-04-21,2025-04-21,株式会社グリーシア,,株式会社,東京都,町田市,南成瀬８丁目１９番地４１,,13,209,1940045,,,,,,,2025-04-21,1,,,,,グリーシア,0
1167,5012401043002,新規,0,2025-04-21,2025-04-21,株式会社Ａｓｔｒａ,,株式会社,東京都,三鷹市,大沢４丁目１８番１９号,,13,204,1810015,,,,,,,2025-04-21,1,,,,,アストラ,0
1168,5012403007054,新規,0,2025-04-21,2025-04-21,合同会社ルーキュー,,合同会社,東京都,調布市,布田２丁目３０番地２６,,13,208,1820024,,,,,,,2025-04-21,1,,,,,ルーキュー,0
1169,5012403007079,新規,0,2025-04-21,2025-04-21,合同会社ラックアイデザイン,,合同会社,東京都,多摩市,馬引沢１丁目１４番地の１２,,13,224,2060023,,,,,,,2025-04-21,1,,,,,ラックアイデザイン,0
1185,5020001162452,新規,0,2025-04-21,2025-04-21,株式会社ＪＲＣ,,株式会社,神奈川県,横浜市港北区,新羽町１７４番地２,,14,109,2230057,,,,,,,2025-04-21,1,,,,,ジェイアールシー,0
1186,5020001162469,新規,0,2025-04-21,2025-04-21,株式会社ワークスＩｎｔ,,株式会社,神奈川県,横浜市保土ケ谷区,狩場町４２２番地１５７キャッスル保土ケ谷９０１号,,14,106,2400025,,,,,,,2025-04-21,1,,,,,ワークスアイエヌティ,0
1187,5020001162477,新規,0,2025-04-21,2025-04-21,株式会社Ｇ‐ｔｅｃ,,株式会社,神奈川県,横浜市神奈川区,白幡上町３８番２８－１号,,14,102,2210075,,,,,,,2025-04-21,1,,,,,ジーテック,0
1191,5020003028321,新規,0,2025-04-21,2025-04-21,合同会社Ｓ．Ｈ,,合同会社,神奈川県,横浜市南区,平楽１３７番地１８,,14,105,2320035,,,,,,,2025-04-21,1,,,,,エスエイチ,0
1193,5020005016811,新規,0,2025-04-21,2025-04-21,一般社団法人山研山荘の会,,その他の設立登記法人,神奈川県,川崎市幸区,戸手本町２丁目３９６番地１川崎ハイライズ４０９,,14,132,2120023,,,,,,,2025-04-21,1,,,,,ヤマケンサンソウノカイ,0
1200,5030001166056,新規,0,2025-04-21,2025-04-21,株式会社千祥舎,,株式会社,埼玉県,志木市,柏町１丁目６番１７号,,11,228,3530007,,,,,,,2025-04-21,1,,,,,センショウシャ,0
1201,5030001166080,新規,0,2025-04-21,2025-04-21,株式会社ＭＴ　Ｈｏｌｄｉｎｇｓ,,株式会社,埼玉県,さいたま市浦和区,仲町１丁目４番１０－１８０２号,,11,107,3300062,,,,,,,2025-04-21,1,,,,,エムティーホールディングス,0
1202,5030001166089,新規,0,2025-04-21,2025-04-21,愛瑞康株式会社,,株式会社,埼玉県,川口市,川口５丁目８番１５－２１０号室,,11,203,3320015,,,,,,,2025-04-21,1,,,,,アイズイコウ,0
1203,5030001166155,新規,0,2025-04-21,2025-04-21,株式会社喜多山特殊清掃,,株式会社,埼玉県,川越市,上戸新町９番地７,,11,201,3500817,,,,,,,2025-04-21,1,,,,,キタヤマトクシュセイソウ,0
1211,5040003027387,新規,0,2025-04-21,2025-04-21,合同会社ユニ通,,合同会社,千葉県,柏市,船戸１丁目２番３６号,,12,217,2770802,,,,,,,2025-04-21,1,,,,,ユニツウ,0
1213,5040005022758,新規,0,2025-04-21,2025-04-21,医療法人社団ナチュラルバランスヘルス促進会,,その他の設立登記法人,千葉県,長生郡白子町,古所３２７９番地１,,12,424,2994212,,,,,,,2025-04-21,1,,,,,シャダンナチュラルバランスヘルスソクシンカイ,0
1214,5050001056494,新規,0,2025-04-21,2025-04-21,株式会社丸真,,株式会社,茨城県,龍ケ崎市,光順田２９９１番地,,08,208,3010822,,,,,,,2025-04-21,1,,,,,マルシン,0
1215,5050001056528,新規,0,2025-04-21,2025-04-21,南田園株式会社,,株式会社,茨城県,石岡市,山崎３０９０番地４,,08,205,3150125,,,,,,,2025-04-21,1,,,,,ナンデンエン,0
1216,5050001056544,新規,0,2025-04-21,2025-04-21,株式会社ゲームルート,,株式会社,茨城県,高萩市,大字下手綱１７３８番地,,08,214,3180003,,,,,,,2025-04-21,1,,,,,ゲームルート,0
1217,5050003009211,新規,0,2025-04-21,2025-04-21,ＢＯＯＴＡ　Ｇ　ＴＲＡＤＩＮＧ合同会社,,合同会社,茨城県,古河市,東山田５８１－８フラップタウンＣ－１４棟２階Ａ号室,,08,204,3060112,,,,,,,2025-04-21,1,,,,,ブタジトレーディング,0
1219,5050005013608,新規,0,2025-04-21,2025-04-21,一般社団法人つくば脳神経疾患研究センター,,その他の設立登記法人,茨城県,つくば市,天王台１丁目１番１号,,08,220,3050006,,,,,,,2025-04-21,1,,,,,ツクバノウシンケイシッカンケンキュウセンター,0
1225,5060003005515,新規,0,2025-04-21,2025-04-21,合同会社ＵＮＬＹＣＳ,,合同会社,栃木県,栃木市,柳橋町２３番１号Ｍｉｒａｉｎｇ１０１,,09,203,3280051,,,,,,,2025-04-21,1,,,,,アンリクス,0
1228,5070003005885,新規,0,2025-04-21,2025-04-21,アンビシャス合同会社,,合同会社,群馬県,桐生市,川内町１丁目１３９番地,,10,203,3760041,,,,,,,2025-04-21,1,,,,,アンビシャス,0
1232,5080101025454,新規,0,2025-04-21,2025-04-21,かんきつ商社Ａｑｕａｍａｒｉｎｅ株式会社,,株式会社,静岡県,沼津市,西浦久連６２５,,22,203,4100233,,,,,,,2025-04-21,1,,,,,カンキツショウシャアクアマリン,0
1250,5120001274700,新規,0,2025-04-21,2025-04-21,提克特克株式会社,,株式会社,大阪府,大阪市城東区,関目５丁目１９番９号関目花博公館６０３Ｂ,,27,118,5360008,,,,,,,2025-04-21,1,,,,,テイコクトクコク,0
1251,5120001274709,新規,0,2025-04-21,2025-04-21,株式会社ＥａｓｔＴＥＮ,,株式会社,大阪府,大阪市住吉区,東粉浜２丁目１０番９号３Ｆ－Ａ,,27,120,5580051,,,,,,,2025-04-21,1,,,,,イーストテン,0
1252,5120001274824,新規,0,2025-04-21,2025-04-21,株式会社Ｌｕｘｉａ,,株式会社,大阪府,大阪市中央区,心斎橋筋２丁目３番７号ロイヤル北川ビル４Ｆ,,27,128,5420085,,,,,,,2025-04-21,1,,,,,ルクシア,0
1254,5120005024903,新規,0,2025-04-21,2025-04-21,一般社団法人Ｂｒｉｄｇｅ　Ｈｅａｒｔ,,その他の設立登記法人,大阪府,大阪市中央区,南本町２丁目１－１本町サザンビルＴＤフロア１Ｆ,,27,128,5410054,,,,,,,2025-04-21,1,,,,,ブリッジハート,0
1257,5120903005624,新規,0,2025-04-21,2025-04-21,Ｍｕｓａ　Ｔｒａｄｅｒｓ合同会社,,合同会社,大阪府,茨木市,西駅前町８－４－Ａ－３号室,,27,211,5670032,,,,,,,2025-04-21,1,,,,,ムサトレーダース,0
1260,5122003003178,新規,0,2025-04-21,2025-04-21,合同会社Ｕｉｎ,,合同会社,大阪府,東大阪市,渋川町２丁目５－３５,,27,227,5770836,,,,,,,2025-04-21,1,,,,,ユーイン,0
1261,5122005003812,新規,0,2025-04-21,2025-04-21,特定非営利活動法人Ｅ‐ｃｏｌｏｒ,,その他の設立登記法人,大阪府,大東市,御領４丁目１－３３,,27,218,5740064,,,,,,,2025-04-21,1,,,,,イーカラー,0
1270,5140001138291,新規,0,2025-04-21,2025-04-21,株式会社グリーンフォックステール,,株式会社,兵庫県,明石市,上ノ丸２丁目５番１４号,,28,203,6730846,,,,,,,2025-04-21,1,,,,,グリーンフォックステール,0
1271,5140003021941,新規,0,2025-04-21,2025-04-21,合同会社グラン,,合同会社,兵庫県,神戸市中央区,中山手通１丁目１１番５号三友ビル２Ｆ－Ａ,,28,110,6500004,,,,,,,2025-04-21,1,,,,,グラン,0
1290,5240001064825,新規,0,2025-04-21,2025-04-21,株式会社オフィスＡ＆Ｃパートナーズ,,株式会社,広島県,広島市安佐南区,古市４丁目１２－１－２０２号,,34,105,7310123,,,,,,,2025-04-21,1,,,,,オフィスエーアンドシーパートナーズ,0
1291,5240001064833,新規,0,2025-04-21,2025-04-21,株式会社胡桃不動産,,株式会社,広島県,広島市南区,丹那町２６番１５号,,34,103,7340034,,,,,,,2025-04-21,1,,,,,クルミフドウサン,0
1297,5260001040130,新規,0,2025-04-21,2025-04-21,株式会社Ｒｅｓｔａｒｔ,,株式会社,岡山県,岡山市南区,藤田４１３－９,,33,104,7010221,,,,,,,2025-04-21,1,,,,,リスタート,0
1306,5290005019705,新規,0,2025-04-21,2025-04-21,一般社団法人カタリスト九州,,その他の設立登記法人,福岡県,福岡市中央区,渡辺通５丁目１４－１２南天神ビル３Ｆ,,40,133,8100004,,,,,,,2025-04-21,1,,,,,,0
1312,5320003004639,新規,0,2025-04-21,2025-04-21,合同会社軌翔,,合同会社,大分県,国東市,安岐町下原２１６２番地２,,44,214,8730231,,,,,,,2025-04-21,1,,,,,キショウ,0
1313,5330001033110,新規,0,2025-04-21,2025-04-21,株式会社高嶋自動車ガラス,00138849,株式会社,熊本県,山鹿市,鹿本町来民２３１５番地１,,43,208,8610331,,,,,,,2025-04-21,1,,,,,タカシマジドウシャガラス,0
1319,5350001019495,新規,0,2025-04-21,2025-04-21,藤建設株式会社,,株式会社,宮崎県,児湯郡都農町,大字川北１７００５番地,,45,406,8891201,,,,,,,2025-04-21,1,,,,,フジケンセツ,0
1326,5360005007215,新規,0,2025-04-21,2025-04-21,一般社団法人地域活性化ＡＧＡＲＩプロジェクト,,その他の設立登記法人,沖縄県,沖縄市,諸見里２丁目２３番１号エスペランサ諸見里２－Ｄ,,47,211,9040032,,,,,,,2025-04-21,1,,,,,,0
1331,5390001017966,新規,0,2025-04-21,2025-04-21,株式会社エムズ・サポート,,株式会社,山形県,東根市,大字東根甲５９９６番地,,06,211,9993701,,,,,,,2025-04-21,1,,,,,エムズサポート,0
1334,5410001014135,新規,0,2025-04-21,2025-04-21,株式会社ＲＵＮＰＬＡＮ,,株式会社,秋田県,秋田市,山手台３丁目１３番地６,,05,201,0101429,,,,,,,2025-04-21,1,,,,,ランプラン,0
1340,5440003001681,新規,0,2025-04-21,2025-04-21,合同会社パッソ・ア・パッソ,,合同会社,北海道,函館市,日吉町３丁目３９番６－３０１号,,01,202,0410841,,,,,,,2025-04-21,1,,,,,パッソアパッソ,0
1342,5450003002646,新規,0,2025-04-21,2025-04-21,合同会社エヌ・エス・サービス,,合同会社,北海道,旭川市,永山五条１４丁目２番２号,,01,204,0798415,,,,,,,2025-04-21,1,,,,,エヌエスサービス,0
1344,5700150130059,新規,0,2025-04-21,2025-04-21,ｄｏｎｇｇｕａｎｐａｏｐａｏｒｉｚｈｉｗｅｎｈｕａｃｈｕａｎｇｙｉｙｏｕｘｉａｎｇｏｎｇｓｉ,,外国会社等,,,,,,,,Ｒｏｏｍ　１６０２，Ｎｏ．１９５，Ｈｏｕｊｉｅ　Ｓｅｃｔｉｏｎ，Ｇｕａｎｔａｉ　Ｒｏａｄ，Ｈｏｕｊｉｅ，Ｄｏｎｇｇｕａｎ，Ｇｕａｎｇｄｏｎｇ,,,,,,2025-04-21,1,,,,,ドーングワンパオパオゥリージーウエンホワチュワーンイーヨウシエンゴーンスー,0
1352,6010001254233,新規,0,2025-04-21,2025-04-21,Ｓ＆Ｙグロース・パートナーズ株式会社,,株式会社,東京都,文京区,小石川３丁目２４番３－３２５号,,13,105,1120002,,,,,,,2025-04-21,1,,,,,エスアンドワイグロースパートナーズ,0
1353,6010001254241,新規,0,2025-04-21,2025-04-21,株式会社ＨＥＬＰＵＳＨ,,株式会社,東京都,文京区,白山２丁目２２番２０号,,13,105,1120001,,,,,,,2025-04-21,1,,,,,ヘルプッシュ,0
1354,6010001254290,新規,0,2025-04-21,2025-04-21,株式会社ＮＥＸＴ‐ＯＮＥ,,株式会社,東京都,中央区,新川２丁目７番７号,,13,102,1040033,,,,,,,2025-04-21,1,,,,,ネクストワン,0
1355,6010001254365,新規,0,2025-04-21,2025-04-21,株式会社日本リフレッシングサービス,,株式会社,東京都,中央区,銀座６丁目９番１４号方圓ビル,,13,102,1040061,,,,,,,2025-04-21,1,,,,,ニホンリフレッシングサービス,0
1356,6010003047115,新規,0,2025-04-21,2025-04-21,合同会社ガネーシャ,,合同会社,東京都,中央区,日本橋室町１丁目１１番１２号日本橋水野ビル７階,,13,102,1030022,,,,,,,2025-04-21,1,,,,,ガネーシャ,0
1363,6010401189252,新規,0,2025-04-21,2025-04-21,Ｙ’ｓランディングー株式会社,,株式会社,東京都,港区,三田４丁目１番７号広栄ビル５０１号,,13,103,1080073,,,,,,,2025-04-21,1,,,,,ワイズランディングー,0
1364,6010401189608,新規,0,2025-04-21,2025-04-21,株式会社エム・セキュリティ・マネジメント,,株式会社,東京都,港区,浜松町２丁目２番１５号浜松町ダイヤビル２Ｆ,,13,103,1050013,,,,,,,2025-04-21,1,,,,,エムセキュリティマネジメント,0
1365,6010401189616,新規,0,2025-04-21,2025-04-21,株式会社カタリネ,,株式会社,東京都,港区,白金台５丁目９－５ｂａｒｒｅｓ１０２,,13,103,1080071,,,,,,,2025-04-21,1,,,,,カタリネ,0
1366,6010401189748,新規,0,2025-04-21,2025-04-21,株式会社エフシーテクノ,,株式会社,東京都,港区,芝２丁目１番２５－３０８号,,13,103,1050014,,,,,,,2025-04-21,1,,,,,エフシーテクノ,0
1367,6010401189756,新規,0,2025-04-21,2025-04-21,株式会社リンクエッジ,,株式会社,東京都,港区,北青山１丁目３－３三橋ビル３階,,13,103,1070061,,,,,,,2025-04-21,1,,,,,リンクエッジ,0
1368,6010401189789,新規,0,2025-04-21,2025-04-21,オーマイグラスＨＤ株式会社,,株式会社,東京都,港区,虎ノ門５丁目１１番１号オランダヒルズ森タワーＲｏＰ９０３号,,13,103,1050001,,,,,,,2025-04-21,1,,,,,オーマイグラスホールディングス,0
1371,6010403034794,新規,0,2025-04-21,2025-04-21,ハートストリーム・ジャパン合同会社,,合同会社,東京都,港区,麻布台１丁目３－１麻布台ヒルズ森ＪＰタワー１５階,,13,103,1060041,,,,,,,2025-04-21,1,,,,,ハートストリームジャパン,0
1372,6010403034910,新規,0,2025-04-21,2025-04-21,合同会社八百歌,,合同会社,東京都,港区,西麻布１丁目１４番８号第２ひろしまビル２階,,13,103,1060031,,,,,,,2025-04-21,1,,,,,ヤオウタ,0
1373,6010403034919,新規,0,2025-04-21,2025-04-21,ＬＢクリーニングジャパン合同会社,,合同会社,東京都,港区,港南１丁目９番３６号アレア品川１３階,,13,103,1080075,,,,,,,2025-04-21,1,,,,,エルビークリーニングジャパン,0
1374,6010403034935,新規,0,2025-04-21,2025-04-21,新今宮ホスピタリティ合同会社,,合同会社,東京都,港区,赤坂４丁目１番３１号,,13,103,1070052,,,,,,,2025-04-21,1,,,,,シンイマミヤホスピタリティ,0
1375,6010501053952,新規,0,2025-04-21,2025-04-21,星辰国際株式会社,,株式会社,東京都,台東区,台東２丁目６番６号,,13,106,1100016,,,,,,,2025-04-21,1,,,,,セイシンコクサイ,0
1376,6010501053969,新規,0,2025-04-21,2025-04-21,株式会社ＧＦＺ,,株式会社,東京都,台東区,竜泉３丁目１４番５号,,13,106,1100012,,,,,,,2025-04-21,1,,,,,ジーエフズィー,0
1378,6010601067167,新規,0,2025-04-21,2025-04-21,株式会社モノランド,,株式会社,東京都,江東区,北砂５丁目１９番６－１４０２号,,13,108,1360073,,,,,,,2025-04-21,1,,,,,モノランド,0
1389,6011001168976,新規,0,2025-04-21,2025-04-21,株式会社ＲＥＤ,,株式会社,東京都,渋谷区,代々木１丁目２８番１号,,13,113,1510053,,,,,,,2025-04-21,1,,,,,レッド,0
1390,6011001169017,新規,0,2025-04-21,2025-04-21,株式会社Ｕｍｅｗａｋａ　Ｎｏｈ,,株式会社,東京都,渋谷区,西原１丁目４番２号,,13,113,1510066,,,,,,,2025-04-21,1,,,,,ウメワカノウ,0
1391,6011003021448,新規,0,2025-04-21,2025-04-21,Ｓｔｅｌｌｅｒ合同会社,,合同会社,東京都,目黒区,大橋２丁目４番１６－１０１号プライムアーバン目黒大橋ヒルズ,,13,110,1530044,,,,,,,2025-04-21,1,,,,,ステラー,0
1392,6011005010985,新規,0,2025-04-21,2025-04-21,一般社団法人みんなのランド,,その他の設立登記法人,東京都,目黒区,鷹番１丁目４－９小山ハイツ１階,,13,110,1520004,,,,,,,2025-04-21,1,,,,,ミンナノランド,0
1396,6011101111308,新規,0,2025-04-21,2025-04-21,株式会社ニサコヤ,,株式会社,東京都,新宿区,西新宿３丁目３番１３号,,13,104,1600023,,,,,,,2025-04-21,1,,,,,ニサコヤ,0
1397,6011101111456,新規,0,2025-04-21,2025-04-21,シンジダイ広報局株式会社,,株式会社,東京都,新宿区,新宿４丁目３－１５レイフラット新宿Ｂ棟３Ｆ,,13,104,1600022,,,,,,,2025-04-21,1,,,,,シンジダイコウホウキョク,0
1398,6011105011405,新規,0,2025-04-21,2025-04-21,一般社団法人日本産婦人科超音波学会,,その他の設立登記法人,東京都,新宿区,箪笥町４３,,13,104,1620833,,,,,,,2025-04-21,1,,,,,ニホンサンフジンカチョウオンパガッカイ,0
1400,6011301030497,新規,0,2025-04-21,2025-04-21,株式会社Ｎｅｗ　Ｍｅｔａ,,株式会社,東京都,杉並区,松ノ木１丁目２番９号,,13,115,1660014,,,,,,,2025-04-21,1,,,,,ニューメタ,0
1401,6011301030522,新規,0,2025-04-21,2025-04-21,株式会社ビジネスマトリクス,,株式会社,東京都,杉並区,桃井２丁目１７番３－２０２号,,13,115,1670034,,,,,,,2025-04-21,1,,,,,ビジネスマトリクス,0
1423,6020001162162,新規,0,2025-04-21,2025-04-21,株式会社ロジコム横浜,,株式会社,神奈川県,横浜市鶴見区,生麦２丁目２番２６号ＧＬＰ横浜２階,,14,101,2300052,,,,,,,2025-04-21,1,,,,,ロジコムヨコハマ,0
1424,6020001162278,新規,0,2025-04-21,2025-04-21,株式会社ＫＯＤＯＨ,,株式会社,神奈川県,横浜市港北区,日吉本町３丁目３１番３２号,,14,109,2230062,,,,,,,2025-04-21,1,,,,,コドウ,0
1428,6020005016810,新規,0,2025-04-21,2025-04-21,ＮＰＯ法人神奈川県ゴールボール協会,,その他の設立登記法人,神奈川県,横浜市瀬谷区,橋戸３丁目６３番地３９,,14,114,2460037,,,,,,,2025-04-21,1,,,,,カナガワケンゴールボールキョウカイ,0
1429,6021005013343,新規,0,2025-04-21,2025-04-21,医療法人社団芽ばえ会,,その他の設立登記法人,神奈川県,平塚市,松風町２３番５１－１号－１階,,14,203,2540812,,,,,,,2025-04-21,1,,,,,メバエカイ,0
1432,6030001166088,新規,0,2025-04-21,2025-04-21,株式会社アースコンフォート,,株式会社,埼玉県,さいたま市見沼区,東大宮４丁目２８番地４７氷川ビル３０１,,11,104,3370051,,,,,,,2025-04-21,1,,,,,アースコンフォート,0
1433,6030001166096,新規,0,2025-04-21,2025-04-21,株式会社ＢｉｏＣｈｅｍ　Ｐｒｏｄｕｃｔ,,株式会社,埼玉県,川越市,大字平塚８４－３,,11,201,3500814,,,,,,,2025-04-21,1,,,,,バイオケムプロダクト,0
1434,6030001166162,新規,0,2025-04-21,2025-04-21,Ｍｉｒａｃｌｅ　Ｔｅｃｈｎｏｌｏｇｙ株式会社,,株式会社,埼玉県,川越市,富士見町３１－３８ウィンベルソロ川越第六・３１２号室,,11,201,3500033,,,,,,,2025-04-21,1,,,,,ミラクルテクノロジー,0
1445,6040003027386,新規,0,2025-04-21,2025-04-21,ＮＩＰＰＯＮ　ＳＡＫＩＨＡＮＡ合同会社,,合同会社,千葉県,大網白里市,南今泉３３１６番地３,,12,239,2993202,,,,,,,2025-04-21,1,,,,,ニッポンサキハナ,0
1453,6050001056543,新規,0,2025-04-21,2025-04-21,樹造園株式会社,,株式会社,茨城県,龍ケ崎市,５１９３番地,,08,208,3010000,,,,,,,2025-04-21,1,,,,,イツキゾウエン,0
1455,6050003009202,新規,0,2025-04-21,2025-04-21,ＹｕＧｒａｃｅ合同会社,,合同会社,茨城県,ひたちなか市,大字津田２０３１－７４８,,08,221,3120032,,,,,,,2025-04-21,1,,,,,ユーグレース,0
1456,6050005013615,新規,0,2025-04-21,2025-04-21,一般社団法人Ｇ．Ｖ．Ｊ,,その他の設立登記法人,茨城県,水戸市,笠原町１２３１番地の６－２Ｆ,,08,201,3100852,,,,,,,2025-04-21,1,,,,,ジーヴイジェイ,0
1459,6060001038128,新規,0,2025-04-21,2025-04-21,株式会社Ｔｅｅ　ｓｔｅｐ,,株式会社,栃木県,宇都宮市,南大通り４丁目１番１号,,09,201,3210963,,,,,,,2025-04-21,1,,,,,ティーステップ,0
1461,6070003005876,新規,0,2025-04-21,2025-04-21,イイダ工業合同会社,,合同会社,群馬県,邑楽郡板倉町,大字除川１６４８番地３,,10,521,3740101,,,,,,,2025-04-21,1,,,,,イイダコウギョウ,0
1462,6070003005884,新規,0,2025-04-21,2025-04-21,合同会社Ｃｏｎｎｅｃｔｉｏｎ,,合同会社,群馬県,伊勢崎市,三和町１４２７,,10,204,3720011,,,,,,,2025-04-21,1,,,,,コネクション,0
1464,6080401027868,新規,0,2025-04-21,2025-04-21,株式会社Ｗｅｌｌ‐Ｂｅｅ,,株式会社,静岡県,浜松市浜名区,小松３５１７番地の２,,22,139,4340042,,,,,,,2025-04-21,1,,,,,ウェルビー,0
1482,6120001274617,新規,0,2025-04-21,2025-04-21,株式会社Ｇ’ＧＲＡＣＥ,,株式会社,大阪府,大阪市西区,靱本町３丁目２番６号,,27,106,5500004,,,,,,,2025-04-21,1,,,,,ジーグレイス,0
1485,6120003029168,新規,0,2025-04-21,2025-04-21,阪福商事合同会社,,合同会社,大阪府,大阪市中央区,南本町３丁目２番１１号２階２ＦＢ号室,,27,128,5410054,,,,,,,2025-04-21,1,,,,,ハンフクショウジ,0
1487,6122003003169,新規,0,2025-04-21,2025-04-21,Ｙａｍａｍｏｔｏ　Ｂｌｏｏｍ合同会社,,合同会社,大阪府,八尾市,山本町１丁目６番２号,,27,212,5810867,,,,,,,2025-04-21,1,,,,,ヤマモトブルーム,0
1492,6140001138209,新規,0,2025-04-21,2025-04-21,Ｍａｒｓ　Ｌｉｎｋｓ株式会社,,株式会社,兵庫県,尼崎市,昭和通２丁目７番１号アルカイックビル９Ｆ,,28,202,6600881,,,,,,,2025-04-21,1,,,,,マーズリンクス,0
1493,6150001028053,新規,0,2025-04-21,2025-04-21,株式会社ピカット,,株式会社,奈良県,北葛城郡広陵町,大字疋相６１番地１８,,29,426,6350824,,,,,,,2025-04-21,1,,,,,ピカット,0
1505,6180001166404,新規,0,2025-04-21,2025-04-21,株式会社極東調査,,株式会社,愛知県,名古屋市中区,松原１丁目１２番９号,,23,106,4600017,,,,,,,2025-04-21,1,,,,,キョクトウチョウサ,0
1506,6180001166511,新規,0,2025-04-21,2025-04-21,株式会社ココロザシゴト,,株式会社,愛知県,名古屋市中村区,名駅３丁目４－１０アルティメイト名駅１ｓｔ２階,,23,105,4500002,,,,,,,2025-04-21,1,,,,,ココロザシゴト,0
1507,6180001166536,新規,0,2025-04-21,2025-04-21,株式会社Ａｖａｎｔｇｒａｄｅ　Ｍｏｔｏｒｓ,,株式会社,愛知県,名古屋市港区,十一屋３丁目７０番地の１・２階,,23,111,4550831,,,,,,,2025-04-21,1,,,,,アバントグレードモータース,0
1511,6180003028362,新規,0,2025-04-21,2025-04-21,合同会社コフレ,,合同会社,愛知県,名古屋市東区,矢田１丁目３番２５号マロニエビル２０２号室,,23,102,4610040,,,,,,,2025-04-21,1,,,,,コフレ,0
1512,6180005021068,新規,0,2025-04-21,2025-04-21,一般社団法人自賠責請求推進協会,,その他の設立登記法人,愛知県,名古屋市中区,丸の内３丁目５番１０号,,23,106,4600002,,,,,,,2025-04-21,1,,,,,ジバイセキセイキュウスイシンキョウカイ,0
1513,6190003005006,新規,0,2025-04-21,2025-04-21,合同会社ＡＴＭ,,合同会社,三重県,松阪市,五十鈴町１５番地,,24,204,5150086,,,,,,,2025-04-21,1,,,,,アトム,0
1537,6280003001945,新規,0,2025-04-21,2025-04-21,合同会社結,,合同会社,島根県,松江市,嫁島町１１番９号,,32,201,6900047,,,,,,,2025-04-21,1,,,,,ユイ,0
1544,6290003016728,新規,0,2025-04-21,2025-04-21,合同会社野田電気,,合同会社,福岡県,糟屋郡粕屋町,酒殿２丁目１１番７号,,40,349,8112303,,,,,,,2025-04-21,1,,,,,ノダデンキ,0
1545,6290003016744,新規,0,2025-04-21,2025-04-21,合同会社インヴェスト・ワン,,合同会社,福岡県,福岡市博多区,博多駅前１丁目２３番２号,,40,132,8120011,,,,,,,2025-04-21,1,,,,,インヴェストワン,0
1546,6310001019564,新規,0,2025-04-21,2025-04-21,ＧＯＬＤ　ＰＡＲＫ株式会社,,株式会社,長崎県,長崎市,船大工町５番１号荒瀬ビル２Ｆ,,42,201,8500904,,,,,,,2025-04-21,1,,,,,ゴールドパーク,0
1549,6310003004993,新規,0,2025-04-21,2025-04-21,福源合同会社,,合同会社,長崎県,長崎市,戸石町５００番地２４７,,42,201,8510113,,,,,,,2025-04-21,1,,,,,フクゲン,0
1553,6330003010965,新規,0,2025-04-21,2025-04-21,合同会社長岡フーズ,,合同会社,熊本県,山鹿市,山鹿１４６５番地,,43,208,8610501,,,,,,,2025-04-21,1,,,,,ナガオカフーズ,0
1557,6340005009856,新規,0,2025-04-21,2025-04-21,一般社団法人Ｒｅ．Ａｒｉｓｅ,,その他の設立登記法人,鹿児島県,鹿児島市,牟礼岡３丁目１７番１８号,,46,201,8911306,,,,,,,2025-04-21,1,,,,,リアライズ,0
1566,6390001017965,新規,0,2025-04-21,2025-04-21,株式会社しかの,,株式会社,山形県,山形市,香澄町１丁目６番１号,,06,201,9900039,,,,,,,2025-04-21,1,,,,,シカノ,0
1568,6410001014134,新規,0,2025-04-21,2025-04-21,ネクスタ株式会社,,株式会社,秋田県,秋田市,御所野地蔵田５丁目２８番１３号,,05,201,0101413,,,,,,,2025-04-21,1,,,,,ネクスタ,0
1569,6420001019090,新規,0,2025-04-21,2025-04-21,株式会社ＴＡＭＵＲＡ,,株式会社,青森県,上北郡六戸町,大字犬落瀬字七百５３番地,,02,405,0330071,,,,,,,2025-04-21,1,,,,,タムラ,0
1570,6420001019099,新規,0,2025-04-21,2025-04-21,株式会社やなぎ通商,,株式会社,青森県,上北郡おいらせ町,松原２丁目１３２番地２４,,02,412,0392206,,,,,,,2025-04-21,1,,,,,ヤナギツウショウ,0
1582,6470003002866,新規,0,2025-04-21,2025-04-21,合同会社由良環境技術,,合同会社,香川県,高松市,太田上町８番地１,,37,201,7618074,,,,,,,2025-04-21,1,,,,,,0
1585,6700150130033,新規,0,2025-04-21,2025-04-21,Ｍａｓｓｅｎｉ　Ｌｉｍｉｔｅｄ,,外国会社等,,,,,,,,ＦＬＡＴ　Ｃ，６ＴＨ　ＦＬＯＯＲ，ＴＯＷＥＲ　１，ＣＯＵＲＴ　Ｄ，ＤＲＡＧＯＮＳ　ＲＡＮＧＥ，３３　ＬＡＩ　ＰＩＮＧ　ＲＤ，ＳＨＡ　ＴＩＮ　ＨＯＮＧ　ＫＯＮＧ,,,,,,2025-04-21,1,,,,,マッセニリミテッド,0
1586,6700150130058,新規,0,2025-04-21,2025-04-21,ｓｈｅｎｚｈｅｎｓｈｉｊｉｅｅｒｌｕｎｍａｏｙｉｙｏｕｘｉａｎｇｏｎｇｓｉ,,外国会社等,,,,,,,,ｂａｎｔｉａｎｊｉｅｄａｏｎａｎｋｅｎｇｓｈｅｑｕｗｕｈｅｄａｄａｏ（ｎａｎ）４７ｈａｏｄａｎｇｎａｌｉｚｏｎｇｈｅｌｏｕ１０２－２１７ｓｈｉ，ｌｏｎｇｇａｎｇｑｕ，ｓｈｅｎｚｈｅｎｓｈｉ,,,,,,2025-04-21,1,,,,,シェンジェンシージエオーァルンマオイーヨウシエンゴーンスー,0
1599,7010001254257,新規,0,2025-04-21,2025-04-21,株式会社プルナス,,株式会社,東京都,中央区,銀座１丁目１２番４号,,13,102,1040061,,,,,,,2025-04-21,1,,,,,プルナス,0
1600,7010001254273,新規,0,2025-04-21,2025-04-21,雅群国際株式会社,,株式会社,東京都,文京区,白山１丁目６番４－Ａ１５,,13,105,1130001,,,,,,,2025-04-21,1,,,,,アグンコクサイ,0
1601,7010003047114,新規,0,2025-04-21,2025-04-21,合同会社ＳＬパートナーズ,,合同会社,東京都,中央区,銀座１丁目１２－４Ｎ＆ＥＢＬＤ．６Ｆ,,13,102,1040061,,,,,,,2025-04-21,1,,,,,エスエルパートナーズ,0
1606,7010401189689,新規,0,2025-04-21,2025-04-21,株式会社Ｒｉｄｇｅｆｏｒｄ,,株式会社,東京都,港区,六本木５丁目１６－５－５０９,,13,103,1060032,,,,,,,2025-04-21,1,,,,,リッジフォード,0
1612,7010501053927,新規,0,2025-04-21,2025-04-21,株式会社Ｋ＆Ｃ,,株式会社,東京都,台東区,下谷２丁目７番８,,13,106,1100004,,,,,,,2025-04-21,1,,,,,ケイアンドシー,0
1613,7010501053943,新規,0,2025-04-21,2025-04-21,ＳｙｎＢｉｏｔｅｃｈ株式会社,,株式会社,東京都,台東区,浅草橋１丁目１３番６号,,13,106,1110053,,,,,,,2025-04-21,1,,,,,シンバイオテック,0
1614,7010503007807,新規,0,2025-04-21,2025-04-21,合同会社ＡＩＳ,,合同会社,東京都,台東区,上野２丁目４番４号信水ビル５階,,13,106,1100005,,,,,,,2025-04-21,1,,,,,エーアイエス,0
1616,7010601067166,新規,0,2025-04-21,2025-04-21,株式会社オシロサ,,株式会社,東京都,江東区,亀戸４丁目１３番１５号フルハウス水神２Ｆ,,13,108,1360071,,,,,,,2025-04-21,1,,,,,オシロサ,0
1617,7010603011485,新規,0,2025-04-21,2025-04-21,しらとり合同会社,,合同会社,東京都,墨田区,緑１丁目２８番２－９０１号アルテール両国,,13,107,1300021,,,,,,,2025-04-21,1,,,,,シラトリ,0
1631,7010903009865,新規,0,2025-04-21,2025-04-21,合同会社ｓｔｕｄｉｏ３２,,合同会社,東京都,世田谷区,玉川３丁目２０番２号マノア玉川第３ビル５０１号室,,13,112,1580094,,,,,,,2025-04-21,1,,,,,スタジオサーティーツー,0
1636,7011003021348,新規,0,2025-04-21,2025-04-21,合同会社ＲＥＫＵＴＡ,,合同会社,東京都,渋谷区,神南１丁目１１―４ＦＰＧリンクス神南５階,,13,113,1500041,,,,,,,2025-04-21,1,,,,,レクタ,0
1637,7011003021414,新規,0,2025-04-21,2025-04-21,合同会社リトルビットアセットマネジメント,,合同会社,東京都,渋谷区,道玄坂１丁目１０番８号渋谷道玄坂東急ビル２ＦーＣ,,13,113,1500043,,,,,,,2025-04-21,1,,,,,リトルビットアセットマネジメント,0
1640,7011101111232,新規,0,2025-04-21,2025-04-21,炬募株式会社,,株式会社,東京都,新宿区,四谷三栄町１１番１６号,,13,104,1600008,,,,,,,2025-04-21,1,,,,,キョボ,0
1641,7011101111422,新規,0,2025-04-21,2025-04-21,株式会社ｍａｒｍｅｌ,,株式会社,東京都,新宿区,西新宿３丁目３番１３号西新宿水間ビル６階,,13,104,1600023,,,,,,,2025-04-21,1,,,,,マーメル,0
1642,7011101111430,新規,0,2025-04-21,2025-04-21,Ｒｅ　Ｈｏｌｄｉｎｇｓ株式会社,,株式会社,東京都,新宿区,西新宿１丁目３－３品川ステーションビル新宿６階,,13,104,1600023,,,,,,,2025-04-21,1,,,,,アールイーホールディングス,0
1643,7011101111455,新規,0,2025-04-21,2025-04-21,Ｍ＆Ａギルド株式会社,,株式会社,東京都,新宿区,西新宿３丁目３番１３号西新宿水間ビル６階,,13,104,1600023,,,,,,,2025-04-21,1,,,,,エムアンドエーギルド,0
1644,7011101111513,新規,0,2025-04-21,2025-04-21,株式会社フィデス,,株式会社,東京都,新宿区,新宿２丁目１２番１３号新宿アントレサロンビル２階,,13,104,1600022,,,,,,,2025-04-21,1,,,,,フィデス,0
1646,7011103015794,新規,0,2025-04-21,2025-04-21,レベルアップ合同会社,,合同会社,東京都,新宿区,西新宿３丁目３－１３西新宿水間ビル２Ｆ,,13,104,1600023,,,,,,,2025-04-21,1,,,,,レベルアップ,0
1647,7011103015811,新規,0,2025-04-21,2025-04-21,合同会社ＭＹＶ,,合同会社,東京都,新宿区,北新宿４丁目１番６－５０９号,,13,104,1690074,,,,,,,2025-04-21,1,,,,,エムワイブイ,0
1656,7011501031939,新規,0,2025-04-21,2025-04-21,株式会社インプルーブ,,株式会社,東京都,北区,赤羽１丁目７番９号赤羽第一葉山ビル４Ｆ,,13,117,1150045,,,,,,,2025-04-21,1,,,,,インプルーブ,0
1659,7011503006501,新規,0,2025-04-21,2025-04-21,Ｏｍ　Ｇａｎｅｓｈａ合同会社,,合同会社,東京都,北区,浮間４丁目６番５号１階,,13,117,1150051,,,,,,,2025-04-21,1,,,,,オームガネシャ,0
1664,7011801045993,新規,0,2025-04-21,2025-04-21,Ａｘｅｌ株式会社,,株式会社,東京都,葛飾区,亀有５丁目４５番８号森駅前ビル３階,,13,122,1250061,,,,,,,2025-04-21,1,,,,,アクセル,0
1667,7012401043000,新規,0,2025-04-21,2025-04-21,角田佳瑞彰建築設計事務所株式会社,,株式会社,東京都,武蔵野市,吉祥寺東町４丁目１６番２号,,13,203,1800002,,,,,,,2025-04-21,1,,,,,カクタカズアキケンチクセッケイジムショ,0
1675,7013301054112,新規,0,2025-04-21,2025-04-21,株式会社ビーワーキング,,株式会社,東京都,豊島区,目白３丁目１７番２１号,,13,116,1710031,,,,,,,2025-04-21,1,,,,,ビーワーキング,0
1685,7020001162434,新規,0,2025-04-21,2025-04-21,株式会社ＥＬＺＡ　Ｇｒｏｕｐ,,株式会社,神奈川県,横浜市緑区,長津田２丁目１番１－３０７号,,14,113,2260027,,,,,,,2025-04-21,1,,,,,エルザグループ,0
1686,7020001162442,新規,0,2025-04-21,2025-04-21,株式会社クレストヒル,,株式会社,神奈川県,横浜市磯子区,岡村７丁目１６番２７号,,14,107,2350021,,,,,,,2025-04-21,1,,,,,クレストヒル,0
1687,7020001162467,新規,0,2025-04-21,2025-04-21,株式会社Ａ‐Ｒｅａｌｔｙ,,株式会社,神奈川県,川崎市麻生区,高石３丁目１３４８番地１１,,14,137,2150003,,,,,,,2025-04-21,1,,,,,エーリアルティー,0
1688,7020001162475,新規,0,2025-04-21,2025-04-21,株式会社桜帝,,株式会社,神奈川県,川崎市中原区,苅宿３番５８号,,14,133,2110022,,,,,,,2025-04-21,1,,,,,オウテイ,0
1689,7020001162483,新規,0,2025-04-21,2025-04-21,株式会社ヒィ氏,,株式会社,神奈川県,横浜市中区,北仲通５丁目５７番地２ＫＩＴＡＮＡＫＡ・ＢＲＩＣＫ＆ＷＨＩＴＥ・ＢＲＩＣＫｓｏｕｔｈニサンカイＩ－１,,14,104,2310003,,,,,,,2025-04-21,1,,,,,ヒィシ,0
1694,7021003015885,新規,0,2025-04-21,2025-04-21,合同会社ビレイク,,合同会社,神奈川県,茅ヶ崎市,松浪２丁目２番２２号,,14,207,2530022,,,,,,,2025-04-21,1,,,,,ビレイク,0
1701,7030001166087,新規,0,2025-04-21,2025-04-21,株式会社青みらい,,株式会社,埼玉県,所沢市,西所沢２丁目８番５号メゾン並木Ａ－２０２,,11,208,3591144,,,,,,,2025-04-21,1,,,,,アオミライ,0
1702,7030001166095,新規,0,2025-04-21,2025-04-21,くまＦＩＴ株式会社,,株式会社,埼玉県,熊谷市,銀座３丁目１０５番地１サーパス熊谷銀座セントマークス１００４,,11,202,3600032,,,,,,,2025-04-21,1,,,,,クマフィット,0
1703,7030001166137,新規,0,2025-04-21,2025-04-21,株式会社Ｈａｒｉ’ｓ　Ｋｉｔｃｈｅｎ,,株式会社,埼玉県,越谷市,東越谷４丁目２９番地５８,,11,222,3430023,,,,,,,2025-04-21,1,,,,,ハリズキッチン,0
1704,7030003026462,新規,0,2025-04-21,2025-04-21,合同会社サムライＢＬＵＥ,,合同会社,埼玉県,川口市,元郷３丁目９－１０－３,,11,203,3320011,,,,,,,2025-04-21,1,,,,,サムライブルー,0
1705,7030003026611,新規,0,2025-04-21,2025-04-21,合同会社結,,合同会社,埼玉県,さいたま市大宮区,桜木町２丁目３番地大宮マルイ７階,,11,103,3300854,,,,,,,2025-04-21,1,,,,,ユイ,0
1710,7040001137888,新規,0,2025-04-21,2025-04-21,株式会社クロシェット,,株式会社,千葉県,千葉市中央区,新千葉１丁目７番地２,,12,101,2600031,,,,,,,2025-04-21,1,,,,,クロシェット,0
1711,7040001138399,新規,0,2025-04-21,2025-04-21,福高国際貿易株式会社,,株式会社,千葉県,船橋市,湊町２丁目１５－２１翁ビル２階,,12,204,2730011,,,,,,,2025-04-21,1,,,,,フクコウコクサイボウエキ,0
1712,7040001138498,新規,0,2025-04-21,2025-04-21,株式会社振動・洗浄研究所,,株式会社,千葉県,柏市,若柴１７８番地４柏の葉キャンパス１４８街区２ショップ＆オフィス棟６階,,12,217,2770871,,,,,,,2025-04-21,1,,,,,シンドウセンジョウケンキュウショ,0
1714,7040003027402,新規,0,2025-04-21,2025-04-21,ＢｅｅＬａｎｄ合同会社,,合同会社,千葉県,千葉市緑区,おゆみ野３丁目３６番地６,,12,105,2660031,,,,,,,2025-04-21,1,,,,,ビーランド,0
1718,7050001056518,新規,0,2025-04-21,2025-04-21,陽光セレクト株式会社,,株式会社,茨城県,つくば市,吾妻１丁目５番地７ダイワロイネットホテルつくばビル２Ｆ２０４室,,08,220,3050031,,,,,,,2025-04-21,1,,,,,ヨウコウセレクト,0
1719,7050001056534,新規,0,2025-04-21,2025-04-21,株式会社Ｒｅｃｒｕｉｔｍｅｎｔ,,株式会社,茨城県,坂東市,鵠戸４３４番地３５,,08,228,3060641,,,,,,,2025-04-21,1,,,,,リクルートメント,0
1720,7050001056559,新規,0,2025-04-21,2025-04-21,株式会社稲葉酒造,,株式会社,茨城県,つくば市,沼田１４８５番地,,08,220,3004353,,,,,,,2025-04-21,1,,,,,イナバシュゾウ,0
1721,7050001056567,新規,0,2025-04-21,2025-04-21,株式会社ハーモネクス,,株式会社,茨城県,水戸市,城南２丁目５－１９黄門ビル２Ｆ,,08,201,3100803,,,,,,,2025-04-21,1,,,,,ハーモネクス,0
1723,7050005013614,新規,0,2025-04-21,2025-04-21,一般社団法人石岡市民エネルギー,,その他の設立登記法人,茨城県,石岡市,瓦谷３１３９番地３,,08,205,3150111,,,,,,,2025-04-21,1,,,,,イシオカシミンエネルギー,0
1727,7070001042862,新規,0,2025-04-21,2025-04-21,ＶＩＤＡＬ　ＳＯＬＵＴＩＯＮＳ株式会社,,株式会社,群馬県,邑楽郡大泉町,東小泉３丁目２１番１１号ラ・ポールＫ１－１０１号,,10,524,3700513,,,,,,,2025-04-21,1,,,,,ビダルソリューションズ,0
1730,7080101025452,新規,0,2025-04-21,2025-04-21,株式会社Ｇｅｎｓｅｎ＆Ｃｏ,,株式会社,静岡県,熱海市,銀座町１０番１９号,,22,205,4130013,,,,,,,2025-04-21,1,,,,,ゲンセンアンドコー,0
1732,7080401027850,新規,0,2025-04-21,2025-04-21,株式会社トイレタイム,,株式会社,静岡県,浜松市浜名区,西美薗３４２３番地,,22,139,4340033,,,,,,,2025-04-21,1,,,,,トイレタイム,0
1743,7110005017220,新規,0,2025-04-21,2025-04-21,一般社団法人バリアフリーライブプロジェクト,,その他の設立登記法人,新潟県,新潟市西蒲区,馬堀６３０２番地２,,15,108,9530061,,,,,,,2025-04-21,1,,,,,バリアフリーライブプロジェクト,0
1747,7120001274822,新規,0,2025-04-21,2025-04-21,中祥洲商貿株式会社,,株式会社,大阪府,大阪市住吉区,杉本１丁目９番１６－１０３号,,27,120,5580022,,,,,,,2025-04-21,1,,,,,チュウショウシュウショウボウ,0
1748,7120001275192,新規,0,2025-04-21,2025-04-21,ＫＡＩＮ株式会社,,株式会社,大阪府,大阪市西成区,山王３丁目６‐１７,,27,122,5570001,,,,,,,2025-04-21,1,,,,,カイン,0
1751,7120003029233,新規,0,2025-04-21,2025-04-21,合同会社岡裕也,,合同会社,大阪府,大阪市北区,曾根崎１丁目７‐１５曽根崎ムーンビル５Ｅ号室,,27,127,5300057,,,,,,,2025-04-21,1,,,,,オカユウヤ,0
1756,7120101071500,新規,0,2025-04-21,2025-04-21,株式会社大浦工業,,株式会社,大阪府,和泉市,伏屋町３丁目２２番８１－６０１号,,27,219,5940031,,,,,,,2025-04-21,1,,,,,オオウラコウギョウ,0
1757,7120101071517,新規,0,2025-04-21,2025-04-21,株式会社コスモス,,株式会社,大阪府,堺市北区,中百舌鳥町４丁１５番地１,,27,146,5918023,,,,,,,2025-04-21,1,,,,,コスモス,0
1758,7120103006413,新規,0,2025-04-21,2025-04-21,合同会社Ｔ＆Ｐ,,合同会社,大阪府,松原市,田井城１丁目１２６番地,,27,217,5800044,,,,,,,2025-04-21,1,,,,,ティアンドピー,0
1759,7120901050744,新規,0,2025-04-21,2025-04-21,株式会社９１７ｅｄｉｔｏｒ’ｓ,,株式会社,大阪府,豊中市,南桜塚２丁目９番７号ブランズ南桜塚５０３,,27,203,5610882,,,,,,,2025-04-21,1,,,,,キュウイチナナエディターズ,0
1761,7120903005622,新規,0,2025-04-21,2025-04-21,合同会社ＶＡＭＯＳ,,合同会社,大阪府,吹田市,朝日町１５－１３－１０１,,27,205,5640027,,,,,,,2025-04-21,1,,,,,バモス,0
1769,7140001137985,新規,0,2025-04-21,2025-04-21,株式会社ＳｔｏｒｅＧｒｏｗ,,株式会社,兵庫県,尼崎市,武庫の里２丁目３番２号,,28,202,6610041,,,,,,,2025-04-21,1,,,,,ストアグロー,0
1770,7140001138208,新規,0,2025-04-21,2025-04-21,株式会社Ｅａｓｔｕｐ,,株式会社,兵庫県,神戸市北区,鈴蘭台西町３丁目７番２号,,28,109,6511114,,,,,,,2025-04-21,1,,,,,イーストアップ,0
1773,7140003021948,新規,0,2025-04-21,2025-04-21,合同会社ゼットフラッグ,,合同会社,兵庫県,神戸市北区,山田町上谷上字上ノ山６番２号,,28,109,6511242,,,,,,,2025-04-21,1,,,,,ゼットフラッグ,0
1776,7140005027480,新規,0,2025-04-21,2025-04-21,一般社団法人ＵＫＲＡＩＮＥ　ＨＯＵＳＥ　ＫＯＢＥ,,その他の設立登記法人,兵庫県,神戸市中央区,栄町通２丁目９番７号翔貴南京町ビル,,28,110,6500023,,,,,,,2025-04-21,1,,,,,ウクライナハウスコウベ,0
1778,7150001028044,新規,0,2025-04-21,2025-04-21,イーリス株式会社,,株式会社,奈良県,奈良市,西大寺竜王町１丁目２番１０号,,29,201,6310836,,,,,,,2025-04-21,1,,,,,イーリス,0
1781,7180001166485,新規,0,2025-04-21,2025-04-21,Ｄａｎｆｅ　Ｉｎｔｅｒｎａｔｉｏｎａｌ株式会社,,株式会社,愛知県,名古屋市東区,泉２丁目２６－１ホウコクビル２０２号,,23,102,4610001,,,,,,,2025-04-21,1,,,,,ダンフェインターナショナル,0
1783,7180003028353,新規,0,2025-04-21,2025-04-21,ＣＯＮＴＵＤＥ合同会社,,合同会社,愛知県,名古屋市中村区,名駅３丁目４－１０アルティメイト名駅１ｓｔ２階,,23,105,4500002,,,,,,,2025-04-21,1,,,,,コンチュード,0
1798,7220005008951,新規,0,2025-04-21,2025-04-21,一般社団法人ＮＯＴＯにじのひかり,,その他の設立登記法人,石川県,珠洲市,三崎町小泊３４部５３番地,,17,205,9271462,,,,,,,2025-04-21,1,,,,,ノトニジノヒカリ,0
1802,7260001040129,新規,0,2025-04-21,2025-04-21,フジワラ商事株式会社,,株式会社,岡山県,高梁市,成羽町佐々木２１０番地,,33,209,7160113,,,,,,,2025-04-21,1,,,,,フジワラショウジ,0
1803,7270001009189,新規,0,2025-04-21,2025-04-21,株式会社元勝,,株式会社,鳥取県,米子市,米原５丁目１番３－５０５号,,31,202,6830804,,,,,,,2025-04-21,1,,,,,ゲンショウ,0
1805,7280003001944,新規,0,2025-04-21,2025-04-21,ＰＬＵＳ　ＣＯＮＮＥＣＴ合同会社,,合同会社,島根県,邑智郡美郷町,粕渕３５５－１,,32,448,6994621,,,,,,,2025-04-21,1,,,,,プラスコネクト,0
1815,7310001019563,新規,0,2025-04-21,2025-04-21,株式会社いかが,,株式会社,長崎県,長崎市,出島町４－７－１００１,,42,201,8500862,,,,,,,2025-04-21,1,,,,,,0
1817,7310003004992,新規,0,2025-04-21,2025-04-21,合同会社ハウスクリーニングマスター,,合同会社,長崎県,長崎市,本原町２３番１号,,42,201,8528133,,,,,,,2025-04-21,1,,,,,ハウスクリーニングマスター,0
1840,7390001017956,新規,0,2025-04-21,2025-04-21,トライベント株式会社,,株式会社,山形県,東村山郡山辺町,大字根際２１９５番地１,,06,301,9900321,,,,,,,2025-04-21,1,,,,,トライベント,0
1844,7410001014141,新規,0,2025-04-21,2025-04-21,株式会社本質,,株式会社,秋田県,大館市,上代野５‐１／２Ｆ・ＭＯＲＫ,,05,204,0170031,,,,,,,2025-04-21,1,,,,,ホンシツ,0
1847,7420001019098,新規,0,2025-04-21,2025-04-21,アサヒ株式会社,,株式会社,青森県,五所川原市,字旭町４５番地１,,02,205,0370062,,,,,,,2025-04-21,1,,,,,アサヒ,0
1850,7430005015225,新規,0,2025-04-21,2025-04-21,一般社団法人ソシオリラクゼーション協会,,その他の設立登記法人,北海道,札幌市中央区,南二条西１０丁目４番地５プレミアム２１０、１００２号室,,01,101,0600062,,,,,,,2025-04-21,1,,,,,ソシオリラクゼーションキョウカイ,0
1858,7700150130057,新規,0,2025-04-21,2025-04-21,西尾寺小南土地区画整理組合,,その他,愛知県,西尾市,住崎１丁目１０１番地,,23,213,4450879,,,,,,,2025-04-21,1,,,,,ニシオテラシヨウミナミトチクカクセイリクミアイ,0
1859,7700150130065,新規,0,2025-04-21,2025-04-21,Ｊ　Ｋ　ＴＲＡＤＩＮＧ　ＥＮＴＥＲＰＲＩＳＥＳ,,外国会社等,千葉県,大網白里市,北吉田３８２番地４－Ａ,,12,239,2993216,スリランカ民主社会主義共和国、カトゥガストタ、マダワラロード、Ｎｏ．１５７,,,,,,2025-04-21,1,,,,,ジエーケートレーデイングエンタープライズ,0
1871,8010001254207,新規,0,2025-04-21,2025-04-21,吉利株式会社,,株式会社,東京都,中央区,日本橋兜町１７番１の３０３号,,13,102,1030026,,,,,,,2025-04-21,1,,,,,キチリ,0
1872,8010001254231,新規,0,2025-04-21,2025-04-21,ＳＯＦＵ　ＴＥＣＨＮＯＬＯＧＹ　ＪＡＰＡＮ株式会社,,株式会社,東京都,千代田区,神田佐久間町３丁目２８星野ビル４階４３号,,13,101,1010025,,,,,,,2025-04-21,1,,,,,ソフテクノロジージャパン,0
1873,8010001254314,新規,0,2025-04-21,2025-04-21,株式会社フレンテライフ,,株式会社,東京都,千代田区,神田富山町２４－１１,,13,101,1010043,,,,,,,2025-04-21,1,,,,,,0
1874,8010001254347,新規,0,2025-04-21,2025-04-21,江戸株式会社,,株式会社,東京都,千代田区,神田佐久間町１丁目８－４アルテール秋葉原８０３,,13,101,1010025,,,,,,,2025-04-21,1,,,,,エド,0
1880,8010401189705,新規,0,2025-04-21,2025-04-21,青山運輸株式会社,,株式会社,東京都,港区,南青山２丁目２番１５号ＷｉｎＡｏｙａｍａビルＵＣＦ６３５,,13,103,1070062,,,,,,,2025-04-21,1,,,,,アオヤマウンユ,0
1881,8010401189804,新規,0,2025-04-21,2025-04-21,株式会社ＪＧ３０,,株式会社,東京都,港区,虎ノ門１丁目３番１号,,13,103,1050001,,,,,,,2025-04-21,1,,,,,ジェージーサンジュウ,0
1884,8010403034909,新規,0,2025-04-21,2025-04-21,Ｆｉｖｅ　Ｐｅａｋｓ合同会社,,合同会社,東京都,港区,南麻布４丁目１１番６５号ＡＧＵＮＧ２０３,,13,103,1060047,,,,,,,2025-04-21,1,,,,,ファイブピークス,0
1891,8010803005352,新規,0,2025-04-21,2025-04-21,ＧＰＳ合同会社,,合同会社,東京都,大田区,大森本町２丁目２８番５号ヒロエヤマグチビル１Ｆ,,13,111,1430011,,,,,,,2025-04-21,1,,,,,ジーピーエス,0
1905,8011001169015,新規,0,2025-04-21,2025-04-21,株式会社レクト,,株式会社,東京都,渋谷区,宇田川町３番７号ヒューリック渋谷公園通りビル５Ｆ－１１８,,13,113,1500042,,,,,,,2025-04-21,1,,,,,レクト,0
1906,8011003021462,新規,0,2025-04-21,2025-04-21,合同会社マイア・リゾート,,合同会社,東京都,渋谷区,宇田川町６番２０号パラシオン渋谷６０１号,,13,113,1500042,,,,,,,2025-04-21,1,,,,,マイアリゾート,0
1909,8011101111446,新規,0,2025-04-21,2025-04-21,株式会社Ｒａｉｎ,,株式会社,東京都,新宿区,北新宿４丁目１７番７号プレールドゥーク北新宿７０３,,13,104,1690074,,,,,,,2025-04-21,1,,,,,レイン,0
1910,8011101111512,新規,0,2025-04-21,2025-04-21,株式会社コアブリッジＩＴ,,株式会社,東京都,新宿区,新宿１丁目１５番５－８０４号,,13,104,1600022,,,,,,,2025-04-21,1,,,,,コアブリッジアイティ,0
1912,8011103015802,新規,0,2025-04-21,2025-04-21,合同会社イノウエ,,合同会社,東京都,新宿区,西新宿３丁目３番１３号西新宿水間ビル２Ｆ,,13,104,1600023,,,,,,,2025-04-21,1,,,,,イノウエ,0
1913,8011303005512,新規,0,2025-04-21,2025-04-21,アズーナブル・レーシング合同会社,,合同会社,東京都,杉並区,宮前３丁目７番２５号メゾン・ド・フォレスト１０５,,13,115,1680081,,,,,,,2025-04-21,1,,,,,アズーナブルレーシング,0
1917,8011503006500,新規,0,2025-04-21,2025-04-21,ＤＢＬ合同会社,,合同会社,東京都,荒川区,西日暮里２丁目２６番６号ツカハラビル２０２号室,,13,118,1160013,,,,,,,2025-04-21,1,,,,,ディービーエル,0
1918,8011601028594,新規,0,2025-04-21,2025-04-21,Ｋｅｌｌｙ’ｓ　Ｅｎｔｅｒｔａｉｎｍｅｎｔ株式会社,,株式会社,東京都,練馬区,谷原６丁目２０－２９,,13,120,1770032,,,,,,,2025-04-21,1,,,,,ケリーズエンターテインメント,0
1923,8012701018816,新規,0,2025-04-21,2025-04-21,株式会社Ｐｌｕｍｅｒｉａ,,株式会社,東京都,西東京市,新町１丁目１２番１１号,,13,229,2020023,,,,,,,2025-04-21,1,,,,,プルメリア,0
1933,8020001162342,新規,0,2025-04-21,2025-04-21,株式会社ゼネラル・ブレインズ・コンサルティング,,株式会社,神奈川県,横浜市港北区,新横浜３丁目１８番１５号Ｉ’ｓビル６階,,14,109,2220033,,,,,,,2025-04-21,1,,,,,ゼネラルブレインズコンサルティング,0
1934,8020001162433,新規,0,2025-04-21,2025-04-21,株式会社猫のいる風景,,株式会社,神奈川県,川崎市宮前区,野川本町３丁目３番１２号,,14,136,2160041,,,,,,,2025-04-21,1,,,,,ネコノイルフウケイ,0
1935,8020001162490,新規,0,2025-04-21,2025-04-21,Ｍｏｏｎｌｉｇｈｔ　Ｔｅｃｈｎｏｌｏｇｉｅｓ株式会社,,株式会社,神奈川県,横浜市青葉区,美しが丘２丁目６番地２レリーフ美しが丘１０６,,14,117,2250002,,,,,,,2025-04-21,1,,,,,ムーンライトテクノロジースインク,0
1939,8020003028269,新規,0,2025-04-21,2025-04-21,合同会社キャンバス,,合同会社,神奈川県,川崎市高津区,千年８０８番地８ＤＡＹＬＩＧＨＴ１－１０１,,14,134,2130022,,,,,,,2025-04-21,1,,,,,キャンバス,0
1940,8020003028310,新規,0,2025-04-21,2025-04-21,合同会社ベース,,合同会社,神奈川県,横浜市西区,中央２丁目３９番７－７０１号,,14,103,2200051,,,,,,,2025-04-21,1,,,,,ベース,0
1941,8020003028319,新規,0,2025-04-21,2025-04-21,合同会社ｋｏｔｉｎｉ,,合同会社,神奈川県,横浜市青葉区,つつじが丘５番地９サンマンション青葉台３０５号,,14,117,2270055,,,,,,,2025-04-21,1,,,,,コティニ,0
1942,8020003028327,新規,0,2025-04-21,2025-04-21,合同会社ひらめき舎,,合同会社,神奈川県,横浜市中区,住吉町６丁目７８－１－１４０１,,14,104,2310013,,,,,,,2025-04-21,1,,,,,ヒラメキシャ,0
1945,8021001084989,新規,0,2025-04-21,2025-04-21,ＰＲＩＭＥ　ＪＡＰＡＮ株式会社,,株式会社,神奈川県,厚木市,愛名１３０５番地１,,14,212,2430038,,,,,,,2025-04-21,1,,,,,プライムジャパン,0
1950,8030003026593,新規,0,2025-04-21,2025-04-21,合同会社ＸＳＴＡＲ,,合同会社,埼玉県,川越市,霞ケ関北２丁目７－９,,11,201,3501109,,,,,,,2025-04-21,1,,,,,クロスター,0
1951,8030003026602,新規,0,2025-04-21,2025-04-21,合同会社ｍｏｎｏｋａｉ,,合同会社,埼玉県,桶川市,坂田東３丁目１５－１エルディム寿２－２０３,,11,231,3630009,,,,,,,2025-04-21,1,,,,,モノカイ,0
1961,8040001138209,新規,0,2025-04-21,2025-04-21,株式会社ＰＲＯＪＥＣＴ．Ｄ,,株式会社,千葉県,市川市,原木１丁目１６番２３号,,12,203,2720004,,,,,,,2025-04-21,1,,,,,プロジェクトディー,0
1966,8050001056541,新規,0,2025-04-21,2025-04-21,株式会社ペトラ,,株式会社,茨城県,つくば市,小白硲６７２番地１５３,,08,220,3050844,,,,,,,2025-04-21,1,,,,,ペトラ,0
1967,8050001056558,新規,0,2025-04-21,2025-04-21,株式会社Ｄｅｅｖｅｃ,,株式会社,茨城県,つくば市,千現２丁目１－６,,08,220,3050047,,,,,,,2025-04-21,1,,,,,ディーベック,0
1972,8070001042861,新規,0,2025-04-21,2025-04-21,株式会社ユートピアＫＴ,,株式会社,群馬県,前橋市,女屋町１７８番地,,10,201,3792163,,,,,,,2025-04-21,1,,,,,ユートピアケイティ,0
1996,8120001274771,新規,0,2025-04-21,2025-04-21,川一株式会社,,株式会社,大阪府,大阪市西成区,長橋２丁目６番２７号４０２号室,,27,122,5570025,,,,,,,2025-04-21,1,,,,,カワイチ,0
1997,8120001274788,新規,0,2025-04-21,2025-04-21,株式会社ショウケン,,株式会社,大阪府,大阪市淀川区,田川北３丁目１番６号,,27,123,5320021,,,,,,,2025-04-21,1,,,,,ショウケン,0
1999,8120101071474,新規,0,2025-04-21,2025-04-21,株式会社ＡＮＨ　ＤＵＯＮＧ　ＧＲＯＵＰ,,株式会社,大阪府,堺市東区,日置荘西町１丁９番１８号,,27,143,5998114,,,,,,,2025-04-21,1,,,,,アインヅウオングループ,0
2007,8140001138215,新規,0,2025-04-21,2025-04-21,株式会社アルティメット,,株式会社,兵庫県,西宮市,甲陽園西山町３番４３号,,28,204,6620017,,,,,,,2025-04-21,1,,,,,アルティメット,0
2008,8140001138264,新規,0,2025-04-21,2025-04-21,株式会社新航,,株式会社,兵庫県,神戸市垂水区,神陵台８丁目１番３５号,,28,108,6550041,,,,,,,2025-04-21,1,,,,,シンコウ,0
2014,8150003003572,新規,0,2025-04-21,2025-04-21,ＷｉＮａＭ合同会社,,合同会社,奈良県,奈良市,西登美ヶ丘２丁目Ｆ４番２０６号,,29,201,6310006,,,,,,,2025-04-21,1,,,,,ウイナム,0
2017,8160003003456,新規,0,2025-04-21,2025-04-21,ＭＮ合同会社,,合同会社,滋賀県,甲賀市,水口町水口６２２番地３,,25,209,5280005,,,,,,,2025-04-21,1,,,,,エムエヌ,0
2031,8180303006520,新規,0,2025-04-21,2025-04-21,嘉興合同会社,,合同会社,愛知県,新城市,市場台２丁目８番地１３,,23,221,4411348,,,,,,,2025-04-21,1,,,,,カコウ,0
2034,8190003005004,新規,0,2025-04-21,2025-04-21,合同会社ダムイット,,合同会社,三重県,四日市市,諏訪栄町４番１０号アピカビル３階,,24,202,5100086,,,,,,,2025-04-21,1,,,,,ダムイット,0
2042,8240001064830,新規,0,2025-04-21,2025-04-21,株式会社はれのひ,,株式会社,広島県,広島市佐伯区,海老山町８番７－４０２号,,34,108,7315134,,,,,,,2025-04-21,1,,,,,ハレノヒ,0
2046,8250001021095,新規,0,2025-04-21,2025-04-21,ＡＺＥＭＩＣＨＩ‐８８株式会社,,株式会社,山口県,宇部市,大字船木２２６８番地７,,35,202,7570216,,,,,,,2025-04-21,1,,,,,アゼミチハチジュウハチ,0
2055,8290001109795,新規,0,2025-04-21,2025-04-21,５５クラフト株式会社,,株式会社,福岡県,大野城市,仲畑２丁目１４番３０号,,40,219,8160921,,,,,,,2025-04-21,1,,,,,ゴーゴークラフト,0
2062,8310001019562,新規,0,2025-04-21,2025-04-21,株式会社西村水産,00138847,株式会社,長崎県,佐世保市,針尾東町３２８３番地２,,42,202,8593451,,,,,,,2025-04-21,1,,,,,ニシムラスイサン,0
2067,8340001027273,新規,0,2025-04-21,2025-04-21,株式会社ＯＶＥＲＬＯＲＤ,,株式会社,鹿児島県,鹿児島市,吉野町１２９１番地４,,46,201,8920871,,,,,,,2025-04-21,1,,,,,オーバーロード,0
2068,8340001027281,新規,0,2025-04-21,2025-04-21,株式会社ｔａｓｓ,,株式会社,鹿児島県,鹿児島市,薬師２丁目４３番２９号－１０１号,,46,201,8900042,,,,,,,2025-04-21,1,,,,,タス,0
2073,8340005009854,新規,0,2025-04-21,2025-04-21,一般社団法人南西農産業振興機構,,その他の設立登記法人,鹿児島県,大島郡伊仙町,大字伊仙２９４５番地３,,46,532,8918201,,,,,,,2025-04-21,1,,,,,ナンセイノウサンギョウシンコウキコウ,0
2078,8360001035076,新規,0,2025-04-21,2025-04-21,株式会社照らす家,,株式会社,沖縄県,名護市,字屋部２６８番地,,47,209,9050007,,,,,,,2025-04-21,1,,,,,テラスヤ,0
2079,8360003014862,新規,0,2025-04-21,2025-04-21,Ｈｉｄｄｅｎ　Ｖａｕｌｔ合同会社,,合同会社,沖縄県,石垣市,字白保１４－２,,47,207,9070242,,,,,,,2025-04-21,1,,,,,ヒドゥンヴォルト,0
2081,8360005007212,新規,0,2025-04-21,2025-04-21,医療法人かふぅ,,その他の設立登記法人,沖縄県,那覇市,久茂地２丁目１１番１８号当山久茂地川医邸２階・３階,,47,201,9000015,,,,,,,2025-04-21,1,,,,,カフゥ,0
2086,8380001035256,新規,0,2025-04-21,2025-04-21,株式会社バックオフィスチアー,,株式会社,福島県,郡山市,駅前２丁目１－７－２階,,07,203,9638002,,,,,,,2025-04-21,1,,,,,バックオフィスチアー,0
2094,8450001014599,新規,0,2025-04-21,2025-04-21,株式会社バイフェル,,株式会社,北海道,上川郡鷹栖町,９線西２号,,01,452,0711249,,,,,,,2025-04-21,1,,,,,バイフェル,0
2097,8460303000866,新規,0,2025-04-21,2025-04-21,合同会社ミートアップ,,合同会社,北海道,北見市,とん田西町３１１番地１７,,01,208,0900834,,,,,,,2025-04-21,1,,,,,ミートアップ,0
2098,8470003002864,新規,0,2025-04-21,2025-04-21,合同会社Ｃｌａｉｒ,,合同会社,香川県,高松市,古馬場町９番地３０三野ビル２階北,,37,201,7600045,,,,,,,2025-04-21,1,,,,,クレール,0
2101,8500001026250,新規,0,2025-04-21,2025-04-21,株式会社英和建設工業,,株式会社,愛媛県,松山市,上伊台町甲９３９番地１,,38,201,7910111,,,,,,,2025-04-21,1,,,,,エイワケンセツコウギョウ,0
2102,8700150130064,新規,0,2025-04-21,2025-04-21,Ｌａｘｍａｎ　Ｉｎｔｅｒｎａｔｉｏｎａｌ,,外国会社等,千葉県,大網白里市,大網２６９番地１－２階,,12,239,2993251,スリランカ民主社会主義共和国、キャンディ、ヤティヌワラストリート、Ｎｏ．３１／２,,,,,,2025-04-21,1,,,,,ラツクスマンインターナシヨナル,0
2118,9010001253752,新規,0,2025-04-21,2025-04-21,株式会社ＬｕｄｅｎｓＭａｎ,,株式会社,東京都,中央区,日本橋室町１丁目１１番１２号日本橋水野ビル７階,,13,102,1030022,,,,,,,2025-04-21,1,,,,,ルーデンスマン,0
2119,9010001254206,新規,0,2025-04-21,2025-04-21,銭源株式会社,,株式会社,東京都,中央区,日本橋兜町１７番１の３１１号,,13,102,1030026,,,,,,,2025-04-21,1,,,,,ゼニモト,0
2120,9010001254230,新規,0,2025-04-21,2025-04-21,株式会社ＦＡＳ　Ｃｏｍｐａｓｓ,,株式会社,東京都,中央区,新川１丁目７番１号天翔日本橋茅場町ビル３階３１３号室,,13,102,1040033,,,,,,,2025-04-21,1,,,,,ファスコンパス,0
2121,9010001254255,新規,0,2025-04-21,2025-04-21,東アジア産商株式会社,,株式会社,東京都,千代田区,大手町１丁目６番１号,,13,101,1000004,,,,,,,2025-04-21,1,,,,,ヒガシアジアサンショウ,0
2122,9010001254313,新規,0,2025-04-21,2025-04-21,株式会社ケリーマネジメント,,株式会社,東京都,中央区,銀座１丁目２２番１１号銀座大竹ビジデンス２Ｆ,,13,102,1040061,,,,,,,2025-04-21,1,,,,,ケリーマネジメント,0
2125,9010003047079,新規,0,2025-04-21,2025-04-21,にぎとん合同会社,,合同会社,東京都,千代田区,神田佐久間河岸９１－３０１,,13,101,1010026,,,,,,,2025-04-21,1,,,,,ニギトン,0
2126,9010003047095,新規,0,2025-04-21,2025-04-21,合同会社トーチク,,合同会社,東京都,文京区,千石１丁目１５番１号,,13,105,1120011,,,,,,,2025-04-21,1,,,,,トーチク,0
2127,9010003047112,新規,0,2025-04-21,2025-04-21,合同会社ｔｔｒｓｐ,,合同会社,東京都,千代田区,神田佐久間町４丁目２１ＱＵＡＬＩＴＡＳ秋葉原４０１,,13,101,1010025,,,,,,,2025-04-21,1,,,,,ティーティーアールエスピー,0
2129,9010005039941,新規,0,2025-04-21,2025-04-21,一般社団法人ツーリズム・フォー・オール,,その他の設立登記法人,東京都,文京区,白山２丁目２２番２０号,,13,105,1120001,,,,,,,2025-04-21,1,,,,,ツーリズムフォーオール,0
2134,9010401189794,新規,0,2025-04-21,2025-04-21,東京桜陽エレクトロニクス株式会社,,株式会社,東京都,港区,港南２丁目１５番１号品川インターシティＡ棟２８階,,13,103,1080075,,,,,,,2025-04-21,1,,,,,トウキョウオウヨウエレクトロニクス,0
2135,9010401189803,新規,0,2025-04-21,2025-04-21,株式会社ＪＧ２８,,株式会社,東京都,港区,虎ノ門１丁目３番１号,,13,103,1050001,,,,,,,2025-04-21,1,,,,,ジェージーニジュウハチ,0
2139,9010501053958,新規,0,2025-04-21,2025-04-21,株式会社ＪＪ,,株式会社,東京都,台東区,上野２丁目１番３号８８ビル７階Ｂ,,13,106,1100005,,,,,,,2025-04-21,1,,,,,ジェイジェイ,0
2143,9010603011517,新規,0,2025-04-21,2025-04-21,合同会社クラウドワークス,,合同会社,東京都,江東区,深川２丁目５番１－３０３号,,13,108,1350033,,,,,,,2025-04-21,1,,,,,クラウドワークス,0
2144,9010605004444,新規,0,2025-04-21,2025-04-21,一般社団法人クオリアシフト,,その他の設立登記法人,東京都,墨田区,菊川１丁目２番１号,,13,107,1300024,,,,,,,2025-04-21,1,,,,,クオリアシフト,0
2151,9010901057204,新規,0,2025-04-21,2025-04-21,株式会社ｍｉｒｅｉ,,株式会社,東京都,世田谷区,世田谷１丁目３番８号２０２号室,,13,112,1540017,,,,,,,2025-04-21,1,,,,,ミレイ,0
2155,9011003021420,新規,0,2025-04-21,2025-04-21,合同会社Ｏ＆Ｄ　Ｗｏｒｌｄ,,合同会社,東京都,渋谷区,渋谷２丁目１９番１９号ワコー宮益坂ビル５階渋谷宮益坂アントレサロン,,13,113,1500002,,,,,,,2025-04-21,1,,,,,オーアンドディーワールド,0
2159,9011101111445,新規,0,2025-04-21,2025-04-21,株式会社ｓｏｒａｌａ,,株式会社,東京都,新宿区,新宿２丁目１２－１３新宿アントレサロンビル２階,,13,104,1600022,,,,,,,2025-04-21,1,,,,,ソララ,0
2160,9011101111453,新規,0,2025-04-21,2025-04-21,ＩｎｎｏＶａｌｕｅ　Ｓｏｌｕｔｉｏｎｓ株式会社,,株式会社,東京都,新宿区,四谷２丁目２番５号小谷田ビル４階,,13,104,1600004,,,,,,,2025-04-21,1,,,,,イノバリューソリューションズ,0
2164,9011201026304,新規,0,2025-04-21,2025-04-21,アンバー＆ジェイドロースターズ株式会社,,株式会社,東京都,中野区,新井５丁目１３番３号,,13,114,1650026,,,,,,,2025-04-21,1,,,,,アンバーアンドジェイドロースターズ,0
2169,9011501031961,新規,0,2025-04-21,2025-04-21,宏志株式会社,,株式会社,東京都,荒川区,町屋３丁目２４番２号面川ビル３１５号室,,13,118,1160001,,,,,,,2025-04-21,1,,,,,コウシ,0
2171,9011801045991,新規,0,2025-04-21,2025-04-21,株式会社くまくま王国,,株式会社,東京都,葛飾区,高砂５丁目４４番１３号,,13,122,1250054,,,,,,,2025-04-21,1,,,,,クマクマオウコク,0
2172,9011803006810,新規,0,2025-04-21,2025-04-21,ｕｐＰＵ合同会社,,合同会社,東京都,足立区,綾瀬４丁目１６－６,,13,121,1200005,,,,,,,2025-04-21,1,,,,,アップップ,0
2173,9012801023913,新規,0,2025-04-21,2025-04-21,Ｘｅｎｏｐｈｏｒｉａ株式会社,,株式会社,東京都,日野市,南平１丁目３５－８フラワーハイム１１５,,13,212,1910041,,,,,,,2025-04-21,1,,,,,ゼノフォリア,0
2181,9020001162465,新規,0,2025-04-21,2025-04-21,小島建装株式会社,,株式会社,神奈川県,横浜市南区,南太田１丁目３８番１０号,,14,105,2320006,,,,,,,2025-04-21,1,,,,,コジマケンソウ,0
2182,9020001162473,新規,0,2025-04-21,2025-04-21,ＳｔａｒｔＢｒｉｄｇｅ株式会社,,株式会社,神奈川県,横浜市西区,北幸１丁目５―１０ＪＰＲ横浜ビル８階,,14,103,2200004,,,,,,,2025-04-21,1,,,,,スタートブリッジ,0
2186,9020003028268,新規,0,2025-04-21,2025-04-21,合同会社Ｂｌａｚｅ　Ｆｉｔ,,合同会社,神奈川県,横浜市西区,中央１丁目２３番１０－５０２,,14,103,2200051,,,,,,,2025-04-21,1,,,,,ブレイズフィット,0
2194,9021003015867,新規,0,2025-04-21,2025-04-21,合同会社ブライトホープ,,合同会社,神奈川県,茅ヶ崎市,甘沼６８４番地,,14,207,2530004,,,,,,,2025-04-21,1,,,,,ブライトホープ,0
2202,9030001166044,新規,0,2025-04-21,2025-04-21,株式会社ＴＲＵＮＫ,,株式会社,埼玉県,深谷市,西大沼３１４番地９ウェストハイム２０１,,11,218,3660829,,,,,,,2025-04-21,1,,,,,トランク,0
2203,9030001166127,新規,0,2025-04-21,2025-04-21,ヤマム企画株式会社,,株式会社,埼玉県,熊谷市,佐谷田６９７番地１,,11,202,3600023,,,,,,,2025-04-21,1,,,,,ヤマムキカク,0
2207,9030003026618,新規,0,2025-04-21,2025-04-21,合同会社Ｊｏｉｎｔ　ＩＥ,,合同会社,埼玉県,秩父郡東秩父村,大字御堂４１７番地３,,11,369,3550375,,,,,,,2025-04-21,1,,,,,ジョイントアイイー,0
2213,9040001138422,新規,0,2025-04-21,2025-04-21,株式会社燈,,株式会社,千葉県,千葉市美浜区,高洲３丁目１４－３ドレミビル６０１,,12,106,2610004,,,,,,,2025-04-21,1,,,,,トモシビ,0
2220,9040003027441,新規,0,2025-04-21,2025-04-21,ＢＮ合同会社,,合同会社,千葉県,銚子市,清水町１４１３―４,,12,202,2880063,,,,,,,2025-04-21,1,,,,,ビーエヌ,0
2224,9050001056540,新規,0,2025-04-21,2025-04-21,株式会社ＴＥＮＳＨＡ,,株式会社,茨城県,水戸市,渡里町２９２１番地の１,,08,201,3100902,,,,,,,2025-04-21,1,,,,,テンシャ,0
2227,9060003005511,新規,0,2025-04-21,2025-04-21,合同会社Ｇａｙａｎ　ｉｎｔｅｒｎａｔｉｏｎａｌ,,合同会社,栃木県,足利市,福居町４５８‐７,,09,202,3260338,,,,,,,2025-04-21,1,,,,,ガヤンインターナショナル,0
2228,9070003005881,新規,0,2025-04-21,2025-04-21,合同会社ｏｍｏｎａｇａ,,合同会社,群馬県,前橋市,下新田町２４２番地７,,10,201,3710822,,,,,,,2025-04-21,1,,,,,オモナガ,0
2232,9080001026887,新規,0,2025-04-21,2025-04-21,株式会社ムーブオン,,株式会社,静岡県,焼津市,東小川７丁目１４番地の８,,22,212,4250035,,,,,,,2025-04-21,1,,,,,ムーブオン,0
2243,9110001039200,新規,0,2025-04-21,2025-04-21,株式会社トライピッド,,株式会社,新潟県,新潟市中央区,南笹口１丁目１番３８号コープオリンピア８０８,,15,103,9500912,,,,,,,2025-04-21,1,,,,,トライピッド,0
2256,9120001274548,新規,0,2025-04-21,2025-04-21,ＷＩＬＬＩＡＭＳ　ＰＲＯＰＥＲＴＹ　ＭＡＮＡＧＥＭＥＮＴ株式会社,,株式会社,大阪府,大阪市北区,西天満２丁目６番８号堂島ビルヂング６Ｆ新東京国際リーガル内,,27,127,5300047,,,,,,,2025-04-21,1,,,,,ウィリアムプロパティーマネジメント,0
2257,9120001274647,新規,0,2025-04-21,2025-04-21,和創株式会社,,株式会社,大阪府,大阪市東淀川区,上新庄２丁目４番４４－１０１号,,27,114,5330006,,,,,,,2025-04-21,1,,,,,ワソウ,0
2258,9120001274746,新規,0,2025-04-21,2025-04-21,百信株式会社,,株式会社,大阪府,大阪市住之江区,西加賀屋３丁目２０番１０－２０５号室,,27,125,5590016,,,,,,,2025-04-21,1,,,,,ヒャクシン,0
2262,9120003029165,新規,0,2025-04-21,2025-04-21,合同会社ＡＬＬＯＮ,,合同会社,大阪府,大阪市阿倍野区,昭和町１丁目２０番２２－１０１号,,27,119,5450011,,,,,,,2025-04-21,1,,,,,アロン,0
2272,9140003021946,新規,0,2025-04-21,2025-04-21,合同会社ＳｃａｌｅＰｒｏ,,合同会社,兵庫県,高砂市,米田町米田９５７－３荒木ハイツ２０３,,28,216,6760805,,,,,,,2025-04-21,1,,,,,スケールプロ,0
2282,9200003006783,新規,0,2025-04-21,2025-04-21,合同会社フレア,,合同会社,岐阜県,大垣市,静里町５９０番地１７サンシャインハヤシ１０５,,21,202,5030983,,,,,,,2025-04-21,1,,,,,フレア,0
2287,9240001064838,新規,0,2025-04-21,2025-04-21,一誠不動産株式会社,,株式会社,広島県,広島市南区,段原南２丁目１番１５－３０１号,,34,103,7320814,,,,,,,2025-04-21,1,,,,,イッセイフドウサン,0
2292,9260001040127,新規,0,2025-04-21,2025-04-21,株式会社松藤,,株式会社,岡山県,岡山市南区,泉田４丁目４番３６－６号,,33,104,7000944,,,,,,,2025-04-21,1,,,,,マツトウ,0
2297,9270001009187,新規,0,2025-04-21,2025-04-21,株式会社此処彼処,,株式会社,鳥取県,米子市,西福原２０－２,,31,202,6830805,,,,,,,2025-04-21,1,,,,,ココカシコ,0
2298,9270003001737,新規,0,2025-04-21,2025-04-21,合同会社Ｔ＆Ａ,,合同会社,鳥取県,鳥取市,吉方温泉１丁目６５７番地,,31,201,6800841,,,,,,,2025-04-21,1,,,,,ティーアンドエー,0
2301,9290001109712,新規,0,2025-04-21,2025-04-21,株式会社テン・テン・ソリューションズ,,株式会社,福岡県,福岡市中央区,天神２丁目２番１２号Ｔ＆Ｊビルディング７Ｆ,,40,133,8100001,,,,,,,2025-04-21,1,,,,,テンテンソリューションズ,0
2302,9290001109745,新規,0,2025-04-21,2025-04-21,株式会社ワイズプランズ,,株式会社,福岡県,小郡市,希みが丘３丁目１番地１３,,40,216,8380107,,,,,,,2025-04-21,1,,,,,ワイズプランズ,0
2303,9290001109778,新規,0,2025-04-21,2025-04-21,株式会社ＤＧＮＦＩ,,株式会社,福岡県,福岡市中央区,大名２丁目１２番８号,,40,133,8100041,,,,,,,2025-04-21,1,,,,,ディジーエヌエフアイ,0
2312,9330001033107,新規,0,2025-04-21,2025-04-21,株式会社Ｏ．Ｓ,,株式会社,熊本県,熊本市南区,馬渡２丁目４番２号ＨＩＬＬＳＡＩＴ１Ｆ,,43,104,8620968,,,,,,,2025-04-21,1,,,,,オーエス,0
2315,9330005010903,新規,0,2025-04-21,2025-04-21,一般社団法人熊本県福祉介護用品協会,,その他の設立登記法人,熊本県,熊本市東区,新外３丁目１番８３号,,43,102,8620921,,,,,,,2025-04-21,1,,,,,クマモトケンフクシカイゴヨウヒンキョウカイ,0
2320,9350005006305,新規,0,2025-04-21,2025-04-21,医療法人社団健大会,,その他の設立登記法人,宮崎県,都城市,久保原町９街区３の１号,,45,202,8850086,,,,,,,2025-04-21,1,,,,,ケンオウカイ,0
2326,9370003007055,新規,0,2025-04-21,2025-04-21,合同会社岩住総合研究所,,合同会社,宮城県,遠田郡美里町,北浦字船入２番地１０７,,04,505,9870005,,,,,,,2025-04-21,1,,,,,イワズミソウゴウケンキュウジョ,0
2336,9400001017011,新規,0,2025-04-21,2025-04-21,株式会社キッズピース,,株式会社,岩手県,釜石市,大平町３丁目９番１号,,03,211,0260002,,,,,,,2025-04-21,1,,,,,キッズピース,0
2340,9460303000865,新規,0,2025-04-21,2025-04-21,合同会社ＢＵＺＺ,,合同会社,北海道,北見市,川東６６番地１７１,,01,208,0900807,,,,,,,2025-04-21,1,,,,,バズ,0
2343,9700150130063,新規,0,2025-04-21,2025-04-21,Ｍ．Ｔ．ＭＯＴＯＲＳ,,外国会社等,千葉県,山武市,木原１４００番地オフィス５Ａ,,12,237,2891212,スリランカ民主社会主義共和国、キャンディ、カトゥガストタ、ラナワナロード、Ｎｏ．９０／７Ｂ,,,,,,2025-04-21,1,,,,,エムテイモータース,0
