sequenceNumber,corporateNumber,process,correct,updateDate,changeDate,name,nameImageId,kind,prefectureName,cityName,streetNumber,addressImageId,prefectureCode,cityCode,postCode,addressOutside,addressOutsideImageId,closeDate,closeCause,successorCorporateNumber,changeCause,assignmentDate,latest,enName,enPrefectureName,enCityName,enAddressOutside,furigana,hihyoji
4,1010001140909,登記記録の閉鎖等,0,2023-07-20,2023-07-12,Ｅｌｉｔｅ株式会社,,株式会社,東京都,江東区,木場５丁目８番４１－６０６号,,13,108,1350042,,,2023-07-12,清算の結了等,,,2015-10-05,1,,,,,エリート,0
20,1010401122812,登記記録の閉鎖等,0,2023-07-20,2023-07-14,株式会社大将軍,,株式会社,千葉県,千葉市中央区,都町２丁目３３番１８号,,12,101,2600001,,,2023-07-14,合併による解散等,9180001008132,令和５年７月１日名古屋市昭和区白金三丁目１８番１３号株式会社木曽路（9180001008132）に合併し解散,2016-01-28,1,,,,,ダイショウグン,0
29,1010701020848,登記記録の閉鎖等,0,2023-07-20,2023-07-03,株式会社オーネット,,株式会社,東京都,中央区,晴海１丁目８番１２号,,13,102,1040053,,,2023-07-03,合併による解散等,5010001196567,令和５年７月１日東京都千代田区丸の内一丁目９番１号ＯＮＴホールディングス株式会社（5010001196567）に合併し解散,2015-10-05,1,,,,,オーネット,0
62,1011801033979,登記記録の閉鎖等,0,2023-07-20,2023-07-18,株式会社ケーエムティーコネクト,,株式会社,東京都,足立区,梅島１丁目３１番４号,,13,121,1210816,,,2023-07-18,清算の結了等,,,2017-10-17,1,,,,,ケーエムティーコネクト,0
89,1021001065896,登記記録の閉鎖等,0,2023-07-20,2023-07-12,株式会社ジェイエムコーポレーション,,株式会社,神奈川県,相模原市南区,麻溝台１４３５番地１,,14,153,2520328,,,2023-07-12,清算の結了等,,,2018-10-24,1,,,,,ジェイエムコーポレーション,0
92,1021002024901,登記記録の閉鎖等,0,2023-07-20,2023-07-12,有限会社森田組,,有限会社,神奈川県,相模原市中央区,横山４丁目４番７号,,14,152,2520242,,,2023-07-12,清算の結了等,,,2015-10-05,1,,,,,モリタグミ,0
107,1040002057703,登記記録の閉鎖等,0,2023-07-20,2023-06-27,有限会社ナチュラル・ハッピー,,有限会社,千葉県,印西市,木刈１丁目１番地１棟３０２号,,12,231,2701359,,,2023-06-27,清算の結了等,,,2015-10-05,1,,,,,ナチュラルハッピー,0
108,1040002093418,登記記録の閉鎖等,0,2023-07-20,2023-06-26,有限会社コアエステート,,有限会社,千葉県,柏市,高柳９２９番地２,,12,217,2770941,,,2023-06-26,清算の結了等,,,2015-10-05,1,,,,,コアエステート,0
118,1080101020582,登記記録の閉鎖等,0,2023-07-20,2023-07-18,株式会社寺牛工業,,株式会社,静岡県,駿東郡清水町,伏見５３８番地の２９,,22,341,4110907,,,2023-07-18,清算の結了等,,,2018-07-04,1,,,,,テラウシコウギョウ,0
121,1100002017956,登記記録の閉鎖等,0,2023-07-20,2023-07-10,有限会社伸幸板ガラス,,有限会社,長野県,中野市,東山８番１３号,,20,211,3830024,,,2023-07-10,清算の結了等,,,2023-03-29,1,,,,,シンコウイタガラス,0
125,1110005005585,登記記録の閉鎖等,0,2023-07-20,2023-07-06,さかえ給食サービス協同組合,,その他の設立登記法人,新潟県,三条市,安代９１２番地,,15,204,9591112,,,2023-07-06,清算の結了等,,,2015-10-05,1,,,,,サカエキュウショクサービス,0
129,1120001019588,登記記録の閉鎖等,0,2023-07-20,2023-07-18,株式会社石田鈑金製作所,,株式会社,大阪府,大阪市平野区,西脇１丁目１３番３３号,,27,126,5470035,,,2023-07-18,清算の結了等,,,2015-10-05,1,,,,,イシダバンキンセイサクショ,0
131,1120001046624,登記記録の閉鎖等,0,2023-07-20,2023-07-18,株式会社パル,,株式会社,大阪府,大阪市西区,江戸堀１丁目２３番１９号,,27,106,5500002,,,2023-07-18,清算の結了等,,,2015-10-05,1,,,,,パル,0
140,1120001220014,登記記録の閉鎖等,0,2023-07-20,2023-07-18,株式会社アリヤマ,,株式会社,大阪府,枚方市,北中振４丁目１０番３号,,27,210,5730064,,,2023-07-18,清算の結了等,,,2019-04-05,1,,,,,アリヤマ,0
145,1120101026740,登記記録の閉鎖等,0,2023-07-20,2023-07-18,株式会社ヤマガサ,,株式会社,大阪府,大阪狭山市,池之原３丁目６６６番地の２,,27,231,5890031,,,2023-07-18,清算の結了等,,,2015-10-05,1,,,,,,0
147,1120101058478,登記記録の閉鎖等,0,2023-07-20,2023-07-18,株式会社菊本保険事務所,,株式会社,大阪府,和泉市,伯太町６丁目１１番７号,,27,219,5940023,,,2023-07-18,合併による解散等,8130001032055,令和５年７月１日京都市中京区錦小路通室町西入天神山町２７７番地Ｋ－ａｎ４階Ｂ号室株式会社コンシェルジュ（8130001032055）に合併し解散,2018-07-09,1,,,,,キクモトホケンジムショ,0
151,1120103003473,登記記録の閉鎖等,0,2023-07-20,2023-07-14,イーノタウン合同会社,,合同会社,大阪府,岸和田市,別所町１丁目５番２４号サンセジュール２０３号室,,27,202,5960045,,,2023-07-14,清算の結了等,,,2019-10-03,1,,,,,イーノタウン,0
158,1140001000538,登記記録の閉鎖等,0,2023-07-20,2023-07-12,株式会社辰新,,株式会社,兵庫県,芦屋市,山手町７番４号,,28,206,6590096,,,2023-07-12,清算の結了等,,,2015-10-05,1,,,,,タツシン,0
166,1150003002382,登記記録の閉鎖等,0,2023-07-20,2023-07-18,ＰＨＫＡ合同会社,,合同会社,奈良県,天理市,柳本町１１９２番地５,,29,204,6320052,,,2023-07-18,清算の結了等,,,2021-05-14,1,,,,,ピーエイチケーエイ,0
170,1170001009312,登記記録の閉鎖等,0,2023-07-20,2023-07-18,株式会社木村工務店,,株式会社,和歌山県,西牟婁郡上富田町,岩田１５２９番地の１３,,30,404,6492102,,,2023-07-18,清算の結了等,,,2015-10-05,1,,,,,キムラコウムテン,0
191,1200001041278,登記記録の閉鎖等,0,2023-07-20,2023-07-06,信和繊維株式会社,,株式会社,岐阜県,岐阜市,中鶉２丁目２８番地の２,,21,201,5008288,,,2023-07-06,清算の結了等,,,2023-05-12,1,,,,,シンワセンイ,0
197,1220002012417,登記記録の閉鎖等,0,2023-07-20,2023-07-10,有限会社坂上自動車,,有限会社,石川県,加賀市,分校町い２５番地１,,17,206,9220304,,,2023-07-10,清算の結了等,,,2015-10-05,1,,,,,サカガミジドウシャ,0
199,1230002009189,登記記録の閉鎖等,0,2023-07-20,2023-07-14,有限会社安念土石工業,,有限会社,富山県,小矢部市,水島１０５０１番地,,16,209,9320102,,,2023-07-14,清算の結了等,,,2015-10-05,1,,,,,アンネンドセキコウギョウ,0
207,1260001036636,登記記録の閉鎖等,0,2023-07-20,2023-06-29,株式会社イーデザイン,,株式会社,岡山県,総社市,北溝手４０８番地４７,,33,208,7191117,,,2023-06-29,清算の結了等,,,2022-03-14,1,,,,,イーデザイン,0
208,1270001006919,登記記録の閉鎖等,0,2023-07-20,2023-07-07,ＴＴＳ株式会社,,株式会社,鳥取県,鳥取市,永楽温泉町３０１番地５号,,31,201,6800834,,,2023-07-07,清算の結了等,,,2016-03-25,1,,,,,ティーティーエス,0
209,1280002004169,登記記録の閉鎖等,0,2023-07-20,2023-07-07,有限会社トム住環技研,,有限会社,島根県,松江市,西川津町６２６番地２,,32,201,6900823,,,2023-07-07,清算の結了等,,,2015-10-05,1,,,,,トムジュウカンギケン,0
218,1290002031278,登記記録の閉鎖等,0,2023-07-20,2023-07-05,有限会社ＮＴＢシステム,,有限会社,福岡県,福岡市中央区,赤坂２丁目２番５号,,40,133,8100042,,,2023-07-05,清算の結了等,,,2015-10-05,1,,,,,エヌティビーシステム,0
226,1330002023337,登記記録の閉鎖等,0,2023-07-20,2023-07-05,有限会社市原タクシー,,有限会社,熊本県,阿蘇郡南小国町,大字赤馬場１８８２番地の３,,43,423,8692401,,,2023-07-05,清算の結了等,,,2015-10-05,1,,,,,イチハラタクシー,0
250,1380005002333,登記記録の閉鎖等,0,2023-07-20,2023-07-07,特定非営利活動法人光が丘福祉会ドリームワークス,,その他の設立登記法人,福島県,福島市,仲間町５番１５号,,07,201,9608105,,,2023-07-07,清算の結了等,,,2015-10-05,1,,,,,ヒカリガオカフクシカイドリームワークス,0
257,1410002010203,登記記録の閉鎖等,0,2023-07-20,2023-07-06,有限会社北ハウス,,有限会社,秋田県,能代市,河戸川字上長沼布８番地２,,05,202,0160171,,,2023-07-06,清算の結了等,,,2015-10-05,1,,,,,キタハウス,0
274,1500001015739,登記記録の閉鎖等,0,2023-07-20,2023-07-18,サンパール観光株式会社,,株式会社,愛媛県,南宇和郡愛南町,御荘平城６８１番地,,38,506,7984110,,,2023-07-18,清算の結了等,,,2015-10-05,1,,,,,サンパールカンコウ,0
275,1500001021035,登記記録の閉鎖等,0,2023-07-20,2023-07-18,株式会社ＫＡＭＲＡＩ’Ｓ－ＪＡＰＡＮ,,株式会社,愛媛県,西条市,大町７０８番地５,,38,206,7930030,,,2023-07-18,清算の結了等,,,2017-12-06,1,,,,,,0
287,2010001190787,登記記録の閉鎖等,0,2023-07-20,2023-07-06,株式会社ＭＤＦ,,株式会社,東京都,千代田区,大手町１丁目２番１号,,13,101,1000004,,,2023-07-06,清算の結了等,,,2018-04-05,1,,,,,エムディーエフ,0
342,2011401024824,登記記録の閉鎖等,0,2023-07-20,2023-07-14,キリシマ産業株式会社,,株式会社,東京都,板橋区,大和町１３番２０号山崎ビル,,13,119,1730012,,,2023-07-14,清算の結了等,,,2023-01-17,1,,,,,キリシマサンギョウ,0
346,2012401001185,登記記録の閉鎖等,0,2023-07-20,2023-07-14,トヨフレックス株式会社,,株式会社,東京都,新宿区,西新宿１丁目２４番１号,,13,104,1600023,,,2023-07-14,合併による解散等,8180001049706,令和５年７月１日愛知県瀬戸市暁町３番地１００朝日インテック株式会社（8180001049706）に合併し解散,2015-10-05,1,,,,,トヨフレックス,0
357,2021001044676,登記記録の閉鎖等,0,2023-07-20,2023-07-12,株式会社湘南物産,,株式会社,神奈川県,横須賀市,森崎２丁目２３番７号,,14,201,2380023,,,2023-07-12,清算の結了等,,,2015-10-05,1,,,,,ショウナンブッサン,0
369,2040001045996,登記記録の閉鎖等,0,2023-07-20,2023-06-27,三島美建株式会社,,株式会社,千葉県,富里市,十倉５２６番地４６２,,12,233,2860212,,,2023-06-27,清算の結了等,,,2015-10-05,1,,,,,ミシマビケン,0
376,2040003017473,登記記録の閉鎖等,0,2023-07-20,2023-06-27,合同会社福田ファーマ,,合同会社,千葉県,市川市,妙典２丁目１５番２１－１２０６号,,12,203,2720111,,,2023-06-27,清算の結了等,,,2021-04-08,1,,,,,フクダファーマ,0
385,2080001020211,登記記録の閉鎖等,0,2023-07-20,2023-07-12,株式会社フォレスト,,株式会社,静岡県,静岡市駿河区,馬渕４丁目５番３０号,,22,102,4228063,,,2023-07-12,清算の結了等,,,2015-10-05,1,,,,,フォレスト,0
399,2080102013535,登記記録の閉鎖等,0,2023-07-20,2023-07-18,オースズ工業有限会社,,有限会社,静岡県,富士市,石坂１３４番地の１,,22,210,4170862,,,2023-07-18,清算の結了等,,,2015-10-05,1,,,,,オースズコウギョウ,0
421,2120001232173,登記記録の閉鎖等,0,2023-07-20,2023-07-18,レホボテ株式会社,,株式会社,大阪府,大阪市福島区,福島３丁目１－６５クレヴィアタワー中之島７０１号,,27,103,5530003,,,2023-07-18,清算の結了等,,,2020-10-02,1,,,,,レホボテ,0
424,2120001245349,登記記録の閉鎖等,0,2023-07-20,2023-07-14,潤生株式会社,,株式会社,大阪府,大阪市天王寺区,上汐３丁目３－２３ライオンズマンション上六第二６０５号室,,27,109,5430002,,,2023-07-14,清算の結了等,,,2022-04-21,1,,,,,ジュンセイ,0
452,2150001007746,登記記録の閉鎖等,0,2023-07-20,2023-07-14,メリーランド株式会社,,株式会社,奈良県,奈良市,西大寺新町２丁目１番６号,,29,201,6310815,,,2023-07-14,清算の結了等,,,2015-10-05,1,,,,,メリーランド,0
467,2200001022979,登記記録の閉鎖等,0,2023-07-20,2023-07-13,株式会社あおばコーポレーション,,株式会社,岐阜県,土岐市,下石町２０７４番地の５,,21,212,5095202,,,2023-07-13,清算の結了等,,,2015-10-05,1,,,,,アオバコーポレーション,0
475,2240001061404,登記記録の閉鎖等,0,2023-07-20,2023-07-07,株式会社結ホールディングス,,株式会社,広島県,広島市南区,東駅町１番６－６,,34,103,7320801,,,2023-07-07,合併による解散等,2240001021390,令和５年７月７日広島市南区東駅町１番６－６株式会社結義肢製作所（2240001021390）に合併し解散,2023-04-20,1,,,,,ユイホールディングス,0
485,2290001021972,登記記録の閉鎖等,0,2023-07-20,2023-07-18,株式会社ヒムロコーポレーション,,株式会社,福岡県,福岡市南区,大橋３丁目１３番５号,,40,134,8150033,,,2023-07-18,清算の結了等,,,2015-10-05,1,,,,,ヒムロコーポレーション,0
518,2390005008254,登記記録の閉鎖等,0,2023-07-20,2023-07-10,農事組合法人日向台畑作生産組合,,その他の設立登記法人,山形県,飽海郡遊佐町,藤崎字日向台７２番地,,06,461,9998437,,,2023-07-10,清算の結了等,,,2015-10-05,1,,,,,ニッコウダイハタサクセイサンクミアイ,0
524,2420001009038,登記記録の閉鎖等,0,2023-07-20,2023-07-05,株式会社小栗山運送,,株式会社,青森県,弘前市,大字小栗山字小松ケ沢１２７番地,,02,202,0368127,,,2023-07-05,清算の結了等,,,2015-10-05,1,,,,,コグリヤマウンソウ,0
534,2440002002774,登記記録の閉鎖等,0,2023-07-20,2023-07-13,有限会社チョーケン,,有限会社,北海道,函館市,追分町５番６６号,,01,202,0400071,,,2023-07-13,清算の結了等,,,2015-10-05,1,,,,,チョーケン,0
540,2480003000906,登記記録の閉鎖等,0,2023-07-20,2023-07-18,四国地質調査合同会社,,合同会社,徳島県,勝浦郡勝浦町,大字星谷字宮原６３番地,,36,301,7714304,,,2023-07-18,清算の結了等,,,2015-10-05,1,,,,,シコクチシツチョウサ,0
559,3010401156552,登記記録の閉鎖等,0,2023-07-20,2023-06-30,惠生テクノロジー株式会社,,株式会社,東京都,港区,西新橋２丁目８番１１号７東洋海事ビル２階Ａ室,,13,103,1050003,,,2023-06-30,清算の結了等,,,2020-11-18,1,,,,,ケイセイテクノロジー,0
583,3011001016535,登記記録の閉鎖等,0,2023-07-20,2023-07-18,株式会社ＴＭＳ,,株式会社,東京都,渋谷区,道玄坂１丁目１５番３号,,13,113,1500043,,,2023-07-18,合併による解散等,7010001081230,令和５年７月１日東京都中央区銀座七丁目５番５号株式会社アスム（7010001081230）に合併し解散,2015-10-05,1,,,,,ティーエムエス,0
585,3011001035816,登記記録の閉鎖等,0,2023-07-20,2023-07-18,株式会社バタフライ,,株式会社,東京都,渋谷区,神宮前４丁目１９番８号,,13,113,1500001,,,2023-07-18,清算の結了等,,,2015-10-05,1,,,,,バタフライ,0
618,3012702002501,登記記録の閉鎖等,0,2023-07-20,2023-07-14,有限会社川合建設,,有限会社,東京都,東村山市,青葉町２丁目２９番地２４,,13,213,1890002,,,2023-07-14,清算の結了等,,,2015-10-05,1,,,,,カワイケンセツ,0
639,3021001050178,登記記録の閉鎖等,0,2023-07-20,2023-07-11,日豪商事株式会社,,株式会社,神奈川県,厚木市,岡田５丁目５番１２号,,14,212,2430021,,,2023-07-11,清算の結了等,,,2015-10-05,1,,,,,ニチゴウショウジ,0
649,3040001083252,登記記録の閉鎖等,0,2023-07-20,2023-07-18,シナリーだいず株式会社,,株式会社,千葉県,木更津市,ほたる野２丁目２７番地１０,,12,206,2920038,,,2023-07-18,清算の結了等,,,2015-10-05,1,,,,,シナリーダイズ,0
707,3180003016221,登記記録の閉鎖等,0,2023-07-20,2023-07-06,合同会社ＫＰＣ,,合同会社,愛知県,一宮市,木曽川町黒田九ノ通り８６番地,,23,203,4930001,,,2023-07-06,清算の結了等,,,2015-10-05,1,,,,,ケーピーシー,0
728,3260001005449,登記記録の閉鎖等,0,2023-07-20,2023-07-11,株式会社林田商会,,株式会社,岡山県,岡山市北区,福崎７７番地,,33,101,7011357,,,2023-07-11,清算の結了等,,,2015-10-05,1,,,,,ハヤシダショウカイ,0
743,3310001006887,登記記録の閉鎖等,0,2023-07-20,2023-07-14,九州興産株式会社,,株式会社,長崎県,佐世保市,高天町８番３号,,42,202,8570802,,,2023-07-14,合併による解散等,4300001005864,令和５年７月１日佐賀県伊万里市大坪町甲６８１番地４株式会社ジパング（4300001005864）に合併し解散,2015-10-05,1,,,,,キュウシュウコウサン,0
765,3400002007611,登記記録の閉鎖等,0,2023-07-20,2023-06-30,有限会社ワシントンコーポレイション,,有限会社,岩手県,八幡平市,大更第２５地割１１７番地２０,,03,214,0287111,,,2023-06-30,清算の結了等,,,2015-10-05,1,,,,,ワシントンコーポレイション,0
771,3420003001801,登記記録の閉鎖等,0,2023-07-20,2023-07-04,成田塗装店合同会社,,合同会社,青森県,青森市,浪岡大字女鹿沢字西増田３４番地１,,02,201,0381331,,,2023-07-04,清算の結了等,,,2017-12-06,1,,,,,ナリタトソウテン,0
777,3440001007121,登記記録の閉鎖等,0,2023-07-20,2023-07-13,株式会社超建,,株式会社,北海道,函館市,美原１丁目２０番１１号,,01,202,0410806,,,2023-07-13,清算の結了等,,,2015-10-05,1,,,,,チョウケン,0
780,4010001089292,登記記録の閉鎖等,0,2023-07-20,2023-07-06,株式会社サンレイサンライズ,,株式会社,東京都,中央区,日本橋本町３丁目４番６号ニューカワイビル２階,,13,102,1030023,,,2023-07-06,清算の結了等,,,2015-10-05,1,,,,,サンレイサンライズ,0
809,4010501047262,登記記録の閉鎖等,0,2023-07-20,2023-07-19,株式会社ＴＯＳ,,株式会社,東京都,台東区,北上野２丁目１１番５号,,13,106,1100014,,,2023-07-19,清算の結了等,,,2021-04-26,1,,,,,トス,0
810,4010501048806,登記記録の閉鎖等,0,2023-07-20,2023-07-18,株式会社ＭｅｄＰａｙ,,株式会社,東京都,台東区,柳橋２丁目５番６号ＴＯＭビル２階,,13,106,1110052,,,2023-07-18,清算の結了等,,,2022-05-10,1,,,,,メドペイ,0
812,4010601004824,登記記録の閉鎖等,0,2023-07-20,2023-07-03,株式会社ティーシーエス,,株式会社,東京都,江東区,亀戸１丁目４２番１８号,,13,108,1360071,,,2023-07-03,清算の結了等,,,2015-10-05,1,,,,,ティーシーエス,0
830,4011101023430,登記記録の閉鎖等,0,2023-07-20,2023-07-14,株式会社ワイエムセンター,,株式会社,東京都,新宿区,西新宿７丁目１８番１８号,,13,104,1600023,,,2023-07-14,清算の結了等,,,2015-10-05,1,,,,,ワイエムセンター,0
850,4020001008838,登記記録の閉鎖等,0,2023-07-20,2023-07-06,成和物流株式会社,,株式会社,神奈川県,横浜市都筑区,富士見が丘１４番地６,,14,118,2240051,,,2023-07-06,清算の結了等,,,2015-10-05,1,,,,,セイワブツリュウ,0
854,4020002078582,登記記録の閉鎖等,0,2023-07-20,2023-07-06,有限会社栄心,,有限会社,神奈川県,横浜市戸塚区,鳥が丘２４番地５,,14,110,2440001,,,2023-07-06,清算の結了等,,,2015-10-05,1,,,,,エイシン,0
860,4021002034484,登記記録の閉鎖等,0,2023-07-20,2023-07-11,有限会社山口工務店,,有限会社,神奈川県,愛甲郡清川村,煤ヶ谷２９９３番地,,14,402,2430112,,,2023-07-11,清算の結了等,,,2015-10-05,1,,,,,ヤマグチコウムテン,0
864,4030001121227,登記記録の閉鎖等,0,2023-07-20,2023-06-29,リアル商事株式会社,,株式会社,埼玉県,さいたま市中央区,円阿弥４丁目１２番６号,,11,105,3380007,,,2023-06-29,清算の結了等,,,2017-07-11,1,,,,,リアルショウジ,0
869,4030003018446,登記記録の閉鎖等,0,2023-07-20,2023-06-29,合同会社ＬＥ－ＱＵＩＯ,,合同会社,埼玉県,さいたま市大宮区,桜木町２丁目３番地大宮マルイ７階,,11,103,3300854,,,2023-06-29,清算の結了等,,,2021-12-06,1,,,,,レキオ,0
872,4030005011903,登記記録の閉鎖等,0,2023-07-20,2023-06-29,一般社団法人超意識之会,,その他の設立登記法人,埼玉県,比企郡吉見町,大字大串１２６６番地,,11,347,3550134,,,2023-06-29,清算の結了等,,,2015-10-05,1,,,,,チョウイシキノカイ,0
888,4070001015136,登記記録の閉鎖等,0,2023-07-20,2023-07-18,株式会社エクシード,,株式会社,群馬県,伊勢崎市,市場町２丁目１１４１番地,,10,204,3792211,,,2023-07-18,清算の結了等,,,2015-10-05,1,,,,,エクシード,0
893,4080001021001,登記記録の閉鎖等,0,2023-07-20,2023-07-18,株式会社真通商,,株式会社,静岡県,静岡市清水区,原１０４番地１,,22,103,4240113,,,2023-07-18,清算の結了等,,,2016-06-28,1,,,,,,0
903,4110003004198,登記記録の閉鎖等,0,2023-07-20,2023-07-03,ザナックス合同会社,,合同会社,新潟県,小千谷市,城内３丁目１８５８番１,,15,208,9470028,,,2023-07-03,清算の結了等,,,2020-06-17,1,,,,,ザナックス,0
905,4120001089315,登記記録の閉鎖等,0,2023-07-20,2023-07-14,株式会社ホックス,,株式会社,大阪府,大阪市中央区,東平２丁目３番９号ＲＳビル上六１Ｆ,,27,128,5420063,,,2023-07-14,清算の結了等,,,2015-10-05,1,,,,,ホックス,0
906,4120001131167,登記記録の閉鎖等,0,2023-07-20,2023-07-13,株式会社ＪＵＮＯＮ,,株式会社,大阪府,大阪市中央区,北久宝寺町１丁目２番１４号トチノビル３階,,27,128,5410057,,,2023-07-13,清算の結了等,,,2015-10-05,1,,,,,ジュノン,0
907,4120001139516,登記記録の閉鎖等,0,2023-07-20,2023-07-18,株式会社コア・システム,,株式会社,大阪府,大阪市西区,江戸堀１丁目２０番１１号,,27,106,5500002,,,2023-07-18,清算の結了等,,,2015-10-05,1,,,,,コアシステム,0
961,4220003002067,登記記録の閉鎖等,0,2023-07-20,2023-07-10,トラスト・マネジメント合同会社,,合同会社,石川県,金沢市,高尾南３丁目８６番地,,17,201,9218154,,,2023-07-10,清算の結了等,,,2015-10-22,1,,,,,トラストマネジメント,0
965,4240005010074,登記記録の閉鎖等,0,2023-07-20,2023-07-06,協同組合広島流通センター,,その他の設立登記法人,広島県,安芸郡坂町,北新地４丁目２番３３号,,34,309,7314311,,,2023-07-06,清算の結了等,,,2015-10-05,1,,,,,ヒロシマリュウツウセンター,0
967,4280002009090,登記記録の閉鎖等,0,2023-07-20,2023-06-30,有限会社小川屋旅館,,有限会社,島根県,江津市,有福温泉町６９１番地,,32,207,6950156,,,2023-06-30,清算の結了等,,,2015-10-05,1,,,,,オガワヤリョカン,0
982,4340002004119,登記記録の閉鎖等,0,2023-07-20,2023-07-11,西都工業有限会社,,有限会社,鹿児島県,鹿児島市,自由ヶ丘１丁目２４番１１号,,46,201,8910106,,,2023-07-11,清算の結了等,,,2015-10-05,1,,,,,サイトコウギョウ,0
983,4340002026906,登記記録の閉鎖等,0,2023-07-20,2023-07-12,有限会社大栄,,有限会社,鹿児島県,鹿屋市,東原町６０３３番地７,,46,203,8930021,,,2023-07-12,清算の結了等,,,2015-10-05,1,,,,,ダイエイ,0
1006,4420002007427,登記記録の閉鎖等,0,2023-07-20,2023-07-03,有限会社すずらんホーム,,有限会社,青森県,八戸市,湊高台３丁目１６番２号,,02,203,0310823,,,2023-07-03,清算の結了等,,,2015-10-05,1,,,,,スズランホーム,0
1007,4430001081629,登記記録の閉鎖等,0,2023-07-20,2023-07-07,株式会社親和,,株式会社,北海道,札幌市北区,篠路五条８丁目５番６号,,01,102,0028025,,,2023-07-07,清算の結了等,,,2020-06-05,1,,,,,シンワ,0
1035,5010501044993,登記記録の閉鎖等,0,2023-07-20,2023-07-18,株式会社Ｅｋｋｌｅｓｉａ,,株式会社,東京都,台東区,西浅草３丁目２番１２号,,13,106,1110035,,,2023-07-18,清算の結了等,,,2019-12-06,1,,,,,エクレシア,0
1036,5010601015928,登記記録の閉鎖等,0,2023-07-20,2023-07-11,平和鉱産株式会社,,株式会社,東京都,墨田区,向島１丁目２２番４号,,13,107,1310033,,,2023-07-11,清算の結了等,,,2015-10-05,1,,,,,ヘイワコウサン,0
1048,5011001046852,登記記録の閉鎖等,0,2023-07-20,2023-07-13,株式会社ファッションプラザ・サンローゼ,,株式会社,東京都,世田谷区,玉川３丁目１７番１号,,13,112,1580094,,,2023-07-13,清算の結了等,,,2015-10-05,1,,,,,ファッションプラザサンローゼ,0
1050,5011001055655,登記記録の閉鎖等,0,2023-07-20,2023-07-18,株式会社ＰＲＡＩＳＥ,,株式会社,東京都,渋谷区,神宮前４丁目１９番８号アロープラザ原宿２０６,,13,113,1500001,,,2023-07-18,清算の結了等,,,2015-10-05,1,,,,,,0
1089,5021002067038,登記記録の閉鎖等,0,2023-07-20,2023-07-12,有限会社丸山工業,,有限会社,神奈川県,横須賀市,公郷町２丁目２２番地,,14,201,2380022,,,2023-07-12,清算の結了等,,,2015-10-05,1,,,,,マルヤマコウギョウ,0
1110,5070001032114,登記記録の閉鎖等,0,2023-07-20,2023-07-14,株式会社佐藤産業,,株式会社,群馬県,安中市,中秋間３６０番地６,,10,211,3790103,,,2023-07-14,清算の結了等,,,2016-05-06,1,,,,,サトウサンギョウ,0
1118,5080402000247,登記記録の閉鎖等,0,2023-07-20,2023-07-14,有限会社アクセント,,有限会社,静岡県,浜松市東区,小池町８８４番地の２,,22,132,4350056,,,2023-07-14,清算の結了等,,,2015-10-05,1,,,,,アクセント,0
1148,5160005001304,登記記録の閉鎖等,0,2023-07-20,2023-07-13,医療法人青志会,,その他の設立登記法人,滋賀県,大津市,馬場１丁目１２－１２,,25,201,5200802,,,2023-07-13,清算の結了等,,,2015-10-05,1,,,,,セイシカイ,0
1154,5180001152198,登記記録の閉鎖等,0,2023-07-20,2023-07-11,株式会社ティーエス,,株式会社,愛知県,名古屋市中川区,松葉町４丁目２５番地,,23,110,4540818,,,2023-07-11,清算の結了等,,,2022-07-19,1,,,,,ティーエス,0
1157,5180002061968,登記記録の閉鎖等,0,2023-07-20,2023-07-12,有限会社長尾製作所,,有限会社,愛知県,愛知郡東郷町,大字春木字小坂６０番地,,23,302,4700162,,,2023-07-12,清算の結了等,,,2015-10-05,1,,,,,ナガオセイサクジョ,0
1158,5180002064186,登記記録の閉鎖等,0,2023-07-20,2023-07-13,有限会社長谷木型製作所,,有限会社,愛知県,豊明市,栄町大根１番地１５２５,,23,229,4701166,,,2023-07-13,清算の結了等,,,2015-10-05,1,,,,,ナガヤキガタセイサクショ,0
1160,5180003001444,登記記録の閉鎖等,0,2023-07-20,2023-07-12,合資会社辰己温泉,,合資会社,愛知県,名古屋市港区,九番町５丁目１３番地,,23,111,4550008,,,2023-07-12,清算の結了等,,,2015-10-05,1,,,,,タツミオンセン,0
1161,5180003003886,登記記録の閉鎖等,0,2023-07-20,2023-07-12,合資会社日野雄早川商店,,合資会社,愛知県,名古屋市西区,名西２丁目６番４号,,23,104,4510064,,,2023-07-12,清算の結了等,,,2015-10-05,1,,,,,ヒノユウハヤカワショウテン,0
1169,5200001027133,登記記録の閉鎖等,0,2023-07-20,2023-07-13,株式会社フォースマイル,,株式会社,岐阜県,各務原市,那加緑町２丁目１６番地１０２号,,21,213,5040944,,,2023-07-13,清算の結了等,,,2015-10-05,1,,,,,フォースマイル,0
1171,5230002011587,登記記録の閉鎖等,0,2023-07-20,2023-07-14,有限会社ティ・ディ・ワィ,,有限会社,富山県,高岡市,野村双葉町１３７番地の４,,16,202,9330014,,,2023-07-14,清算の結了等,,,2015-10-05,1,,,,,ティディワィ,0
1196,5290003013189,登記記録の閉鎖等,0,2023-07-20,2023-07-05,さくら合同会社,,合同会社,福岡県,福津市,須多田４８１,,40,224,8113303,,,2023-07-05,清算の結了等,,,2022-11-15,1,,,,,サクラ,0
1212,5370202000970,登記記録の閉鎖等,0,2023-07-20,2023-07-10,有限会社藤本会計ビル,,有限会社,宮城県,大崎市,古川十日町４番８号,,04,215,9896165,,,2023-07-10,清算の結了等,,,2015-10-05,1,,,,,フジモトカイケイビル,0
1242,6010001154540,登記記録の閉鎖等,0,2023-07-20,2023-07-03,株式会社プルーデント・ファイナンシャル・パートナーズ,,株式会社,東京都,中央区,新川１丁目１７番２２号,,13,102,1040033,,,2023-07-03,合併による解散等,6010001101138,令和５年７月１日東京都中央区新川一丁目１７番２２号プルーデント・ジャパン・ファイナンシャル・サービス株式会社（6010001101138）に合併し解散,2015-10-05,1,,,,,プルーデントファイナンシャルパートナーズ,0
1246,6010001192086,登記記録の閉鎖等,0,2023-07-20,2023-07-14,パラダイスダイナシティ株式会社,,株式会社,東京都,中央区,銀座３丁目２番１５号,,13,102,1040061,,,2023-07-14,合併による解散等,8010802020245,令和５年７月１日東京都大田区蒲田四丁目２２番７号株式会社エンジェルズ（8010802020245）に合併し解散,2018-05-29,1,,,,,パラダイスダイナシティ,0
1278,6011001060571,登記記録の閉鎖等,0,2023-07-20,2023-07-07,株式会社ホワイトスポーザジャパン,,株式会社,東京都,渋谷区,千駄ヶ谷５丁目２６番５号,,13,113,1510051,,,2023-07-07,清算の結了等,,,2015-10-05,1,,,,,ホワイトスポーザジャパン,0
1318,6020001052413,登記記録の閉鎖等,0,2023-07-20,2023-07-06,株式会社アクティブノア,,株式会社,神奈川県,横浜市西区,北幸２丁目１番２２号,,14,103,2200004,,,2023-07-06,清算の結了等,,,2015-10-05,1,,,,,アクティブノア,0
1331,6021002069355,登記記録の閉鎖等,0,2023-07-20,2023-07-12,有限会社ツカダ保険サービス,,有限会社,神奈川県,横須賀市,阿部倉２２番９号,,14,201,2380033,,,2023-07-12,清算の結了等,,,2015-10-05,1,,,,,ツカダホケンサービス,0
1344,6040001094627,登記記録の閉鎖等,0,2023-07-20,2023-06-27,株式会社あんしん工房,,株式会社,千葉県,千葉市花見川区,検見川町１丁目７２０番地５,,12,102,2620023,,,2023-06-27,清算の結了等,,,2016-03-31,1,,,,,アンシンコウボウ,0
1368,6110001003472,登記記録の閉鎖等,0,2023-07-20,2023-07-06,株式会社東新工業所,,株式会社,新潟県,新潟市中央区,見方町２５２１番地,,15,103,9518032,,,2023-07-06,清算の結了等,,,2015-10-05,1,,,,,トウシンコウギョウショ,0
1370,6110005014755,登記記録の閉鎖等,0,2023-07-20,2023-07-05,一般財団法人新潟経済社会リサーチセンター,,その他の設立登記法人,新潟県,新潟市中央区,東大通２丁目１番１８号,,15,103,9500087,,,2023-07-05,清算の結了等,,,2015-10-05,1,,,,,ニイガタケイザイシャカイリサーチセンター,0
1387,6130001049547,登記記録の閉鎖等,0,2023-07-20,2023-07-04,株式会社帯の井がき,,株式会社,京都府,京都市山科区,上花山久保町６６番地の７,,26,110,6078464,,,2023-07-04,清算の結了等,,,2015-10-05,1,,,,,オビノイガキ,0
1400,6180001151315,登記記録の閉鎖等,0,2023-07-20,2023-07-12,株式会社ウリト,,株式会社,愛知県,稲沢市,下津北山１丁目１番地エムズシティ稲沢１３０５,,23,220,4928094,,,2023-07-12,清算の結了等,,,2022-05-16,1,,,,,ウリト,0
1408,6200001025714,登記記録の閉鎖等,0,2023-07-20,2023-07-05,山之村観光株式会社,,株式会社,岐阜県,飛騨市,神岡町森茂１９４０番地,,21,217,5061104,,,2023-07-05,清算の結了等,,,2015-10-05,1,,,,,ヤマノムラカンコウ,0
1419,6240002051383,登記記録の閉鎖等,0,2023-07-20,2023-07-06,有限会社福治＿工所,00001683,有限会社,広島県,尾道市,因島田熊町甲４１８２番地の５,,34,205,7222324,,,2023-07-06,清算の結了等,,,2015-10-05,1,,,,,フクジテッコウショ,0
1429,6290001059745,登記記録の閉鎖等,0,2023-07-20,2023-07-05,株式会社リンク,,株式会社,福岡県,福岡市中央区,那の津２丁目１０番７号オフィスパレア天神北ＩＢ－４,00119501,40,133,8100071,,,2023-07-05,清算の結了等,,,2015-10-05,1,,,,,リンク,0
1436,6290803002984,登記記録の閉鎖等,0,2023-07-20,2023-07-11,合同会社ＹＨ神力,,合同会社,福岡県,田川市,番田町４番１４号,,40,206,8250018,,,2023-07-11,清算の結了等,,,2017-08-24,1,,,,,ワイエイチシンリキ,0
1446,6340002015700,登記記録の閉鎖等,0,2023-07-20,2023-07-11,有限会社蒲生ドライ,,有限会社,鹿児島県,姶良市,東餅田２８１番地４,00099320,46,225,8995421,,,2023-07-11,清算の結了等,,,2015-10-05,1,,,,,カモウドライ,0
1448,6360001027190,登記記録の閉鎖等,0,2023-07-20,2023-07-13,沖縄メディエス株式会社,,株式会社,沖縄県,豊見城市,字豊崎３番地１０３,,47,212,9010225,,,2023-07-13,合併による解散等,8120001240848,令和５年７月１日大阪市中央区南船場四丁目４番２１号エア・ウォーター西日本メディエス株式会社（8120001240848）に合併し解散,2020-05-14,1,,,,,オキナワメディエス,0
1449,6360002018271,登記記録の閉鎖等,0,2023-07-20,2023-07-07,有限会社テルヤインベスターズ,,有限会社,沖縄県,浦添市,牧港３丁目１４番５号,,47,208,9012131,,,2023-07-07,清算の結了等,,,2015-10-05,1,,,,,テルヤインベスターズ,0
1453,6380002016653,登記記録の閉鎖等,0,2023-07-20,2023-07-05,有限会社大和,,有限会社,福島県,二本松市,橋本１７７番地８,,07,210,9640948,,,2023-07-05,合併による解散等,4380001009536,令和５年７月３日福島県二本松市橋本１７７番地８株式会社アステック（4380001009536）に合併し解散,2015-10-05,1,,,,,ダイワ,0
1462,6420003002532,登記記録の閉鎖等,0,2023-07-20,2023-07-04,合同会社下北自然環境センター,,合同会社,青森県,むつ市,大湊浜町１３番１３号,,02,208,0350085,,,2023-07-04,清算の結了等,,,2022-06-03,1,,,,,シモキタシゼンカンキョウセンター,0
1485,7010001205350,登記記録の閉鎖等,0,2023-07-20,2023-07-06,株式会社サモスリンク,,株式会社,東京都,千代田区,平河町１丁目６－１５ＵＳビル８Ｆ,,13,101,1020093,,,2023-07-06,清算の結了等,,,2019-11-14,1,,,,,サモスリンク,0
1503,7010601006207,登記記録の閉鎖等,0,2023-07-20,2023-07-10,丸吉建興株式会社,,株式会社,東京都,江東区,平野１丁目２番８号吉村アパート,,13,108,1350023,,,2023-07-10,清算の結了等,,,2015-10-05,1,,,,,マルヨシケンコウ,0
1506,7010701025453,登記記録の閉鎖等,0,2023-07-20,2023-07-10,株式会社ティーズコーポレーション,,株式会社,東京都,品川区,南大井４丁目９番１２号,,13,109,1400013,,,2023-07-10,清算の結了等,,,2015-10-05,1,,,,,ティーズコーポレーション,0
1507,7010701037845,登記記録の閉鎖等,0,2023-07-20,2023-06-30,株式会社Ｂａｓｓｅｔ,,株式会社,東京都,港区,六本木６丁目１０番１号,,13,103,1060032,,,2023-06-30,合併による解散等,4010401159950,令和５年６月３０日東京都港区六本木六丁目１０番１号株式会社メルコイン（4010401159950）に合併し解散,2019-07-11,1,Basset Inc.,,,,バセット,0
1521,7011101041693,登記記録の閉鎖等,0,2023-07-20,2023-07-14,株式会社ノブプランニング,,株式会社,東京都,新宿区,四谷４丁目２２番地８３,,13,104,1600004,,,2023-07-14,清算の結了等,,,2015-10-05,1,,,,,ノブプランニング,0
1527,7011101095921,登記記録の閉鎖等,0,2023-07-20,2023-07-18,株式会社Ｓｔａｌｌｉｏｎ,,株式会社,東京都,中野区,鷺宮４丁目２０番１４号Ｔｉｖｏｌｉ鷺宮２０３,,13,114,1650032,,,2023-07-18,清算の結了等,,,2021-08-06,1,,,,,スタリオン,0
1556,7020001101474,登記記録の閉鎖等,0,2023-07-20,2023-07-03,株式会社Ｓ．Ａ．Ｒ．プランニング,,株式会社,神奈川県,横浜市港北区,富士塚１丁目１番３９号,00009997,14,109,2220012,,,2023-07-03,合併による解散等,2020001148355,令和５年７月１日横浜市港北区富士塚一丁目１番３９号株式会社ＳＡＲ（2020001148355）に合併し解散,2015-10-05,1,,,,,エスエーアールプランニング,0
1558,7020002029558,登記記録の閉鎖等,0,2023-07-20,2023-07-06,有限会社菊池型工,,有限会社,神奈川県,横浜市南区,大岡４丁目３３番２５号,,14,105,2320061,,,2023-07-06,清算の結了等,,,2015-10-05,1,,,,,,0
1561,7021001036066,登記記録の閉鎖等,0,2023-07-20,2023-07-12,株式会社アクセプト,,株式会社,神奈川県,平塚市,代官町１１番４１号,,14,203,2540807,,,2023-07-12,清算の結了等,,,2015-10-05,1,,,,,アクセプト,0
1568,7030001072104,登記記録の閉鎖等,0,2023-07-20,2023-06-27,株式会社わかば,,株式会社,埼玉県,比企郡小川町,大字小川４３２番地２,,11,343,3550321,,,2023-06-27,清算の結了等,,,2015-10-05,1,,,,,ワカバ,0
1575,7040001027453,登記記録の閉鎖等,0,2023-07-20,2023-07-13,藤田鋼板運輸株式会社,,株式会社,千葉県,市川市,高谷２０２３番地,,12,203,2720013,,,2023-07-13,合併による解散等,7010001055655,令和５年７月１日東京都中央区新川一丁目１１番１１号藤田鋼板リース株式会社（7010001055655）に合併し解散,2015-10-05,1,,,,,フジタコウハンウンユ,0
1587,7080001008953,登記記録の閉鎖等,0,2023-07-20,2023-07-18,ハラストアー株式会社,,株式会社,静岡県,静岡市清水区,宮下町１番９号,,22,103,4240803,,,2023-07-18,清算の結了等,,,2015-10-05,1,,,,,ハラストアー,0
1588,7080001021188,登記記録の閉鎖等,0,2023-07-20,2023-07-18,株式会社ケイネットカンパニー,,株式会社,静岡県,静岡市葵区,羽鳥４丁目１８番３号,,22,101,4211215,,,2023-07-18,清算の結了等,,,2016-10-11,1,,,,,ケイネットカンパニー,0
1599,7110001022224,登記記録の閉鎖等,0,2023-07-20,2023-07-05,株式会社大井ガラス,,株式会社,新潟県,長岡市,表町２丁目３番地１５,,15,202,9400071,,,2023-07-05,清算の結了等,,,2015-10-05,1,,,,,オオイガラス,0
1602,7120001008214,登記記録の閉鎖等,0,2023-07-20,2023-07-18,株式会社長田工業所,,株式会社,大阪府,大阪市都島区,網島町８番２号,,27,102,5340026,,,2023-07-18,清算の結了等,,,2015-10-05,1,,,,,オサダコウギョウショ,0
1606,7120001207237,登記記録の閉鎖等,0,2023-07-20,2023-07-07,株式会社ＹＭ,,株式会社,大阪府,大阪市北区,西天満２丁目１０番１０号ＢＲＡＶＥ西天満７階,,27,127,5300047,,,2023-07-07,清算の結了等,,,2017-07-24,1,,,,,ワイエム,0
1617,7120101041610,登記記録の閉鎖等,0,2023-07-20,2023-07-19,大栄織物株式会社,,株式会社,大阪府,和泉市,池田下町１５９０番地の１,,27,219,5940032,,,2023-07-19,清算の結了等,,,2015-10-05,1,,,,,ダイエイオリモノ,0
1619,7120101066228,登記記録の閉鎖等,0,2023-07-20,2023-07-18,７９ＰＨＵＯＮＧＤＯＮＧ株式会社,,株式会社,大阪府,堺市堺区,大浜北町２丁２－８,,27,141,5900974,,,2023-07-18,清算の結了等,,,2022-09-14,1,,,,,ナナジュウキュウフォンドン,0
1627,7130005011997,登記記録の閉鎖等,0,2023-07-20,2023-06-30,特定非営利活動法人宇治大好きネット,,その他の設立登記法人,京都府,宇治市,五ケ庄野添５３番地の２,,26,204,6110011,,,2023-06-30,清算の結了等,,,2015-10-05,1,,,,,ウジダイスキネット,0
1652,7180002011186,登記記録の閉鎖等,0,2023-07-20,2023-07-13,川上設備有限会社,,有限会社,愛知県,名古屋市北区,楠味鋺３丁目１４０５番地,,23,103,4620014,,,2023-07-13,清算の結了等,,,2015-10-05,1,,,,,カワカミセツビ,0
1655,7180301019962,登記記録の閉鎖等,0,2023-07-20,2023-07-14,株式会社あなたの健康社,,株式会社,滋賀県,高島市,安曇川町南船木１９２番地７,,25,212,5201233,,,2023-07-14,清算の結了等,,,2015-10-05,1,,,,,アナタノケンコウシャ,0
1699,7310002012765,登記記録の閉鎖等,0,2023-07-20,2023-07-07,有限会社環境ガード,,有限会社,長崎県,佐世保市,指方町１８６６番地１,,42,202,8593242,,,2023-07-07,清算の結了等,,,2015-10-05,1,,,,,,0
1706,7340002018149,登記記録の閉鎖等,0,2023-07-20,2023-07-11,有限会社松田工業,,有限会社,鹿児島県,いちき串木野市,生福９０３４番地１,,46,219,8960078,,,2023-07-11,清算の結了等,,,2015-10-05,1,,,,,マツダコウギョウ,0
1708,7350005002875,登記記録の閉鎖等,0,2023-07-20,2023-07-05,学校法人ミウラ学園,,その他の設立登記法人,宮崎県,延岡市,須崎町４番地６,,45,203,8820825,,,2023-07-05,清算の結了等,,,2015-10-05,1,,,,,ミウラガクエン,0
1722,7400001015470,登記記録の閉鎖等,0,2023-07-20,2023-07-03,株式会社清高,,株式会社,岩手県,盛岡市,馬場町４番８－２０１号,,03,201,0200876,,,2023-07-03,清算の結了等,,,2021-06-08,1,,,,,セイコウ,0
1735,7440001008297,登記記録の閉鎖等,0,2023-07-20,2023-07-13,株式会社メイケン,,株式会社,北海道,函館市,吉川町７番２２号,,01,202,0400077,,,2023-07-13,清算の結了等,,,2018-04-13,1,,,,,メイケン,0
1762,8010501039215,登記記録の閉鎖等,0,2023-07-20,2023-06-28,株式会社フィフティ,,株式会社,東京都,荒川区,西日暮里２丁目４０番３号横山ビル７階,,13,118,1160013,,,2023-06-28,清算の結了等,,,2016-03-02,1,,,,,フィフティ,0
1774,8011001068530,登記記録の閉鎖等,0,2023-07-20,2023-07-13,ドームシステム株式会社,,株式会社,東京都,渋谷区,神泉町１６番１１－３０５号,,13,113,1500045,,,2023-07-13,清算の結了等,,,2015-10-05,1,,,,,ドームシステム,0
1780,8011003010829,登記記録の閉鎖等,0,2023-07-20,2023-07-13,合同会社海夢,,合同会社,東京都,渋谷区,代々木１丁目２１－１６アジリア代々木１００３,,13,113,1510053,,,2023-07-13,清算の結了等,,,2020-01-30,1,,,,,カイム,0
1796,8011503004768,登記記録の閉鎖等,0,2023-07-20,2023-07-13,ＭＲＯＡＤ合同会社,,合同会社,東京都,北区,赤羽西１丁目１７番６号,,13,117,1150055,,,2023-07-13,清算の結了等,,,2021-05-24,1,,,,,エムロード,0
1809,8013301012688,登記記録の閉鎖等,0,2023-07-20,2023-07-18,松ヶ谷商事株式会社,,株式会社,東京都,板橋区,東山町２９番２号,,13,119,1740073,,,2023-07-18,清算の結了等,,,2015-10-05,1,,,,,マツガヤショウジ,0
1817,8021001045677,登記記録の閉鎖等,0,2023-07-20,2023-07-07,株式会社創謙エンターテインメント,,株式会社,東京都,豊島区,東池袋１丁目４７番１号,,13,116,1700013,,,2023-07-07,清算の結了等,,,2015-10-05,1,,,,,ソウケンエンターテインメント,0
1828,8030001057962,登記記録の閉鎖等,0,2023-07-20,2023-06-29,株式会社イノベイト,,株式会社,埼玉県,川越市,大字笠幡４６番地１,,11,201,3501175,,,2023-06-29,清算の結了等,,,2015-10-05,1,,,,,イノベイト,0
1839,8050001039050,登記記録の閉鎖等,0,2023-07-20,2023-07-11,株式会社メディカルプログレス,,株式会社,茨城県,水戸市,けやき台３丁目２６,,08,201,3100842,,,2023-07-11,清算の結了等,,,2015-10-05,1,,,,,メディカルプログレス,0
1876,8120002063983,登記記録の閉鎖等,0,2023-07-20,2023-07-14,ケーアイプラニング有限会社,,有限会社,大阪府,大阪市東住吉区,桑津５丁目１０番１８号,,27,121,5460041,,,2023-07-14,清算の結了等,,,2015-10-05,1,,,,,ケーアイプラニング,0
1877,8120002081408,登記記録の閉鎖等,0,2023-07-20,2023-07-07,サイクル・リペア有限会社,,有限会社,大阪府,門真市,舟田町１５番２４号,,27,223,5710021,,,2023-07-07,清算の結了等,,,2015-10-05,1,,,,,サイクルリペア,0
1881,8120101041452,登記記録の閉鎖等,0,2023-07-20,2023-07-18,株式会社コーヨープリンティング,,株式会社,大阪府,和泉市,光明台２丁目２５番４号,,27,219,5941111,,,2023-07-18,清算の結了等,,,2015-10-05,1,,,,,コーヨープリンティング,0
1900,8180001039731,登記記録の閉鎖等,0,2023-07-20,2023-07-12,ノベエンジニアリング株式会社,,株式会社,愛知県,名古屋市熱田区,金山町１丁目６番１６号,,23,109,4560002,,,2023-07-12,清算の結了等,,,2015-10-05,1,,,,,ノベエンジニアリング,0
1903,8180001073986,登記記録の閉鎖等,0,2023-07-20,2023-07-12,株式会社キシン,,株式会社,愛知県,春日井市,柏原町２丁目１３６番地,,23,206,4860913,,,2023-07-12,清算の結了等,,,2015-10-05,1,,,,,キシン,0
1904,8180001076931,登記記録の閉鎖等,0,2023-07-20,2023-07-13,株式会社エス・エス産業,,株式会社,愛知県,小牧市,中央２丁目１５２番地,,23,219,4850029,,,2023-07-13,合併による解散等,3180001115628,令和５年７月１日名古屋市中村区名駅南一丁目２４番３０号株式会社ＰＥＯ（3180001115628）に合併し解散,2015-10-05,1,,,,,エスエスサンギョウ,0
1918,8240001043438,登記記録の閉鎖等,0,2023-07-20,2023-07-07,株式会社クロスポイント,,株式会社,広島県,三次市,三次町２６６８番地,,34,209,7280021,,,2023-07-07,合併による解散等,9240001024899,令和５年７月７日広島県三次市三次町２６６９番地広島クリーンサポートサービス株式会社（9240001024899）に合併し解散,2015-10-05,1,,,,,クロスポイント,0
1922,8240002025369,登記記録の閉鎖等,0,2023-07-20,2023-07-07,有限会社カーペイントエムズ,,有限会社,広島県,広島市中区,江波南２丁目１０番１８号,,34,101,7300835,,,2023-07-07,清算の結了等,,,2015-10-05,1,,,,,,0
1941,8340001005023,登記記録の閉鎖等,0,2023-07-20,2023-07-13,株式会社大井建設,,株式会社,鹿児島県,鹿児島市,郡山町３９４６番地２,,46,201,8911105,,,2023-07-13,清算の結了等,,,2015-10-05,1,,,,,オオイケンセツ,0
1955,8420001010857,登記記録の閉鎖等,0,2023-07-20,2023-07-04,株式会社オフィス隆,,株式会社,青森県,弘前市,大字黒滝字一ノ川瀬４０番地,,02,202,0361502,,,2023-07-04,清算の結了等,,,2015-10-05,1,,,,,オフィスタカ,0
1958,8420001013711,登記記録の閉鎖等,0,2023-07-20,2023-07-05,株式会社九堂興業,,株式会社,青森県,青森市,大字三内字丸山２７８番地５５,,02,201,0380031,,,2023-07-05,清算の結了等,,,2015-10-05,1,,,,,クドウコウギョウ,0
1983,9010005029224,登記記録の閉鎖等,0,2023-07-20,2023-07-12,一般社団法人ハウス２０,,その他の設立登記法人,東京都,千代田区,丸の内３丁目１番１号東京共同会計事務所内,,13,101,1000005,,,2023-07-12,清算の結了等,,,2018-10-17,1,,,,,ハウスニジュウ,0
1991,9010501022005,登記記録の閉鎖等,0,2023-07-20,2023-07-14,株式会社アドヴァンス,,株式会社,東京都,府中市,新町１丁目４４番地の８,,13,206,1830052,,,2023-07-14,清算の結了等,,,2015-10-05,1,,,,,,0
2027,9011602001178,登記記録の閉鎖等,0,2023-07-20,2023-07-12,ヴェガ・ホームズ有限会社,,有限会社,東京都,練馬区,豊玉中３丁目１３番６号,,13,120,1760013,,,2023-07-12,清算の結了等,,,2015-10-05,1,,,,,ヴェガホームズ,0
2045,9020001039011,登記記録の閉鎖等,0,2023-07-20,2023-07-06,株式会社エヌティシステムズ,,株式会社,神奈川県,横浜市西区,北幸２丁目１番２２号,,14,103,2200004,,,2023-07-06,清算の結了等,,,2015-10-05,1,,,,,エヌティシステムズ,0
2047,9020001131825,登記記録の閉鎖等,0,2023-07-20,2023-07-06,平林株式会社,,株式会社,神奈川県,横浜市港北区,菊名４丁目２番４号,,14,109,2220011,,,2023-07-06,清算の結了等,,,2019-07-02,1,,,,,ヒラバヤシ,0
2058,9030001077101,登記記録の閉鎖等,0,2023-07-20,2023-06-28,別当商工株式会社,,株式会社,埼玉県,川口市,上青木３丁目１３番２３号,,11,203,3330844,,,2023-06-28,清算の結了等,,,2015-10-05,1,,,,,ベットウショウコウ,0
2066,9030005010009,登記記録の閉鎖等,0,2023-07-20,2023-06-29,特定非営利活動法人荒川藁の会,,その他の設立登記法人,埼玉県,北本市,二ツ家４丁目１０番５号シティハウス北本１－１０９号室,,11,233,3640014,,,2023-06-29,清算の結了等,,,2015-10-05,1,,,,,アラカワワラノカイ,0
2072,9040002068998,登記記録の閉鎖等,0,2023-07-20,2023-06-27,有限会社かずさ計装,,有限会社,千葉県,木更津市,大久保５丁目５番１１号,,12,206,2920815,,,2023-06-27,清算の結了等,,,2015-10-05,1,,,,,カズサケイソウ,0
2073,9050001000102,登記記録の閉鎖等,0,2023-07-20,2023-07-11,株式会社アキ,,株式会社,茨城県,水戸市,笠原町１０７５番地８,,08,201,3100852,,,2023-07-11,清算の結了等,,,2015-10-05,1,,,,,アキ,0
2077,9060002019149,登記記録の閉鎖等,0,2023-07-20,2023-07-05,有限会社コイケトレード,,有限会社,栃木県,真岡市,上大田和３９９番地,,09,209,3214411,,,2023-07-05,清算の結了等,,,2015-10-05,1,,,,,コイケトレード,0
2091,9110002018640,登記記録の閉鎖等,0,2023-07-20,2023-07-06,有限会社ＴＥＣタカノ,,有限会社,新潟県,南蒲原郡田上町,大字羽生田乙５９０番地,,15,361,9591512,,,2023-07-06,清算の結了等,,,2015-10-05,1,,,,,テックタカノ,0
2099,9120001148652,登記記録の閉鎖等,0,2023-07-20,2023-07-18,マキノ設備工業株式会社,,株式会社,大阪府,寝屋川市,萱島南町１３番２８号,,27,215,5720825,,,2023-07-18,清算の結了等,,,2023-03-27,1,,,,,マキノセツビコウギョウ,0
2100,9120001178526,登記記録の閉鎖等,0,2023-07-20,2023-07-13,三恵エナジー株式会社,,株式会社,大阪府,大阪市中央区,本町橋２番１５号三恵ビル,,27,128,5400029,,,2023-07-13,清算の結了等,,,2015-10-05,1,,,,,サンケイエナジー,0
2115,9130001027277,登記記録の閉鎖等,0,2023-07-20,2023-07-03,株式会社人財バンク,,株式会社,京都府,京都市南区,吉祥院九条町３０番地１江後経営ビル,,26,107,6018328,,,2023-07-03,合併による解散等,2130001010099,令和５年７月１日京都市南区吉祥院九条町３０番地１江後経営ビル株式会社江後経営（2130001010099）に合併し解散,2015-10-05,1,,,,,ジンザイバンク,0
2169,9260001022892,登記記録の閉鎖等,0,2023-07-20,2023-07-12,株式会社蒜山農機,,株式会社,岡山県,真庭市,蒜山上長田５２１番地１,,33,214,7170505,,,2023-07-12,清算の結了等,,,2015-10-05,1,,,,,ヒルゼンノウキ,0
2171,9290001029241,登記記録の閉鎖等,0,2023-07-20,2023-07-05,株式会社ディール,,株式会社,福岡県,福岡市中央区,那の津２丁目１０－７オフィスパレア天神北ＩＢ－３,00105829,40,133,8100071,,,2023-07-05,清算の結了等,,,2015-10-05,1,,,,,ディール,0
2178,9300001005645,登記記録の閉鎖等,0,2023-07-20,2023-07-07,株式会社松添測量設計,,株式会社,佐賀県,伊万里市,脇田町３２４６番地６,,41,205,8480028,,,2023-07-07,清算の結了等,,,2015-10-05,1,,,,,マツゾエソクリョウセッケイ,0
2185,9310002020675,登記記録の閉鎖等,0,2023-07-20,2023-07-06,有限会社淡路屋,,有限会社,長崎県,五島市,富江町富江３０１番地,,42,211,8530201,,,2023-07-06,清算の結了等,,,2015-10-05,1,,,,,アワジヤ,0
2201,9370003004572,登記記録の閉鎖等,0,2023-07-20,2023-07-10,合同会社ＣＢＦ,,合同会社,宮城県,仙台市青葉区,花京院２丁目１番６１号タカノボル第５ビル１階,,04,101,9800013,,,2023-07-10,清算の結了等,,,2019-09-04,1,,,,,,0
2220,9450001007924,登記記録の閉鎖等,0,2023-07-20,2023-07-12,株式会社エイベック,,株式会社,北海道,枝幸郡枝幸町,本町２６１番地１,,01,514,0985807,,,2023-07-12,清算の結了等,,,2015-10-05,1,,,,,エイベック,0
2224,9470002017755,登記記録の閉鎖等,0,2023-07-20,2023-07-11,ライン有限会社,,有限会社,香川県,さぬき市,寒川町神前２５９番地,,37,206,7692323,,,2023-07-11,清算の結了等,,,2015-10-05,1,,,,,ライン,0
