sequenceNumber,corporateNumber,process,correct,updateDate,changeDate,name,nameImageId,kind,prefectureName,cityName,streetNumber,addressImageId,prefectureCode,cityCode,postCode,addressOutside,addressOutsideImageId,closeDate,closeCause,successorCorporateNumber,changeCause,assignmentDate,latest,enName,enPrefectureName,enCityName,enAddressOutside,furigana,hihyoji
11,1010001225602,新規,0,2022-04-11,2022-04-11,東京食品流通センター株式会社,,株式会社,東京都,千代田区,西神田２丁目６番１号,,13,101,1010065,,,,,,,2022-04-11,1,,,,,トウキョウショクヒンリュウツウセンター,0
12,1010001225759,新規,0,2022-04-11,2022-04-11,株式会社Ｏ．Ｓ．Ｕ,,株式会社,東京都,中央区,晴海３丁目１３番１号ｄｅｕｘ．ｔｏｗｅｒｓ．ｅａｓｔ３６１１,,13,102,1040053,,,,,,,2022-04-11,1,,,,,オーエスユー,0
18,1010003037434,新規,0,2022-04-11,2022-04-11,ジェイコアレジ６合同会社１,,合同会社,東京都,千代田区,丸の内３丁目１番１号東京共同会計事務所内,,13,101,1000005,,,,,,,2022-04-11,1,,,,,ジェイコアレジシックスイチ,0
19,1010003037442,新規,0,2022-04-11,2022-04-11,ジェイコアレジ６合同会社９,,合同会社,東京都,千代田区,丸の内３丁目１番１号東京共同会計事務所内,,13,101,1000005,,,,,,,2022-04-11,1,,,,,ジェイコアレジシックスキュー,0
20,1010003037450,新規,0,2022-04-11,2022-04-11,ジェイコアレジ６合同会社１７,,合同会社,東京都,千代田区,丸の内３丁目１番１号東京共同会計事務所内,,13,101,1000005,,,,,,,2022-04-11,1,,,,,ジェイコアレジシックスイチナナ,0
24,1010005034826,新規,0,2022-04-11,2022-04-11,一般社団法人ウーマンエンパワー協会,,その他の設立登記法人,東京都,中央区,銀座７丁目１３番６号サガミビル２階,,13,102,1040061,,,,,,,2022-04-11,1,,,,,ウーマンエンパワーキョウカイ,0
25,1010005034834,新規,0,2022-04-11,2022-04-11,一般社団法人秋葉原ＤＸエンターテインメント協会,,その他の設立登記法人,東京都,千代田区,神田佐久間町１丁目１０番,,13,101,1010025,,,,,,,2022-04-11,1,,,,,アキハバラディーエックスエンターテインメントキョウカイ,0
31,1010401166636,新規,0,2022-04-11,2022-04-11,株式会社ＳＰ　ＥＸＰＥＲＴ’Ｓ,,株式会社,東京都,港区,赤坂５丁目３番１号,,13,103,1070052,,,,,,,2022-04-11,1,,,,,エスピーエキスパーツ,0
32,1010401166677,新規,0,2022-04-11,2022-04-11,株式会社ふりー,,株式会社,東京都,港区,北青山２丁目７番１３号プラセオ青山ビル３階,,13,103,1070061,,,,,,,2022-04-11,1,,,,,フリー,0
33,1010401166693,新規,0,2022-04-11,2022-04-11,株式会社ロボット小売社会実装研究機構,,株式会社,東京都,港区,西新橋１丁目１８番１２号ＣＯＭＳ虎ノ門７階,,13,103,1050003,,,,,,,2022-04-11,1,,,,,ロボットコウリシャカイジッソウケンキュウキコウ,0
34,1010401166702,新規,0,2022-04-11,2022-04-11,株式会社先端教育事業,,株式会社,東京都,港区,南青山３丁目１３番１８号,,13,103,1070062,,,,,,,2022-04-11,1,,,,,センタンキョウイクジギョウ,0
36,1010403027431,新規,0,2022-04-11,2022-04-11,Ｓｕｄｙ＆Ｃｏ．合同会社,,合同会社,東京都,港区,港南１丁目９番３６号アレア品川１３Ｆ,,13,103,1080075,,,,,,,2022-04-11,1,,,,,シュディアンドカンパニー,0
37,1010403027448,新規,0,2022-04-11,2022-04-11,Ｓｅｃｏｎｄ　Ｈｕｂ合同会社,,合同会社,東京都,港区,赤坂７丁目６番４５－５０２号,,13,103,1070052,,,,,,,2022-04-11,1,,,,,セカンドハブ,0
38,1010405020913,新規,0,2022-04-11,2022-04-11,一般社団法人Ｋｉｒｏｇｉ,,その他の設立登記法人,東京都,港区,虎ノ門５丁目１番４号,,13,103,1050001,,,,,,,2022-04-11,1,,,,,キロギー,0
40,1010501048651,新規,0,2022-04-11,2022-04-11,日本明体株式会社,,株式会社,東京都,台東区,上野３丁目１１番５号,,13,106,1100005,,,,,,,2022-04-11,1,,,,,ニホンメイタイ,0
45,1010603009485,新規,0,2022-04-11,2022-04-11,芽面都合同会社,,合同会社,東京都,江東区,豊洲４丁目１０番６－６０９号,,13,108,1350061,,,,,,,2022-04-11,1,,,,,メメント,0
51,1010801032883,新規,0,2022-04-11,2022-04-11,ＦＲＯＮＴ　ＬＩＮＥ株式会社,,株式会社,東京都,大田区,田園調布１丁目３３番１９号,,13,111,1450071,,,,,,,2022-04-11,1,,,,,フロントライン,0
52,1010901050678,新規,0,2022-04-11,2022-04-11,ＦＹＮＤ株式会社,,株式会社,東京都,世田谷区,北沢２丁目１１番１５号ミカン下北Ａ街区４Ｆ,,13,112,1550031,,,,,,,2022-04-11,1,,,,,ファインド,0
53,1010903007239,新規,0,2022-04-11,2022-04-11,合同会社ＦＢＦＬＯＯＲ,,合同会社,東京都,世田谷区,喜多見５丁目１６番１９号,,13,112,1570067,,,,,,,2022-04-11,1,,,,,エフビーフロア,0
54,1010903007296,新規,0,2022-04-11,2022-04-11,合同会社ｅｇｇｌｅ,,合同会社,東京都,世田谷区,弦巻５丁目９番１４－５０１号,,13,112,1540016,,,,,,,2022-04-11,1,,,,,エッグル,0
59,1011001146813,新規,0,2022-04-11,2022-04-11,株式会社ａａｋ　ｉｎｃ．,,株式会社,東京都,目黒区,中央町２丁目３番９号,,13,110,1520001,,,,,,,2022-04-11,1,,,,,アアクインク,0
72,1011101098459,新規,0,2022-04-11,2022-04-11,株式会社ＡＬＴ　ＧＡＲＤＥＮ　ＴＯＫＹＯ,,株式会社,東京都,新宿区,四谷４丁目２１番地４２カルロ四谷１Ｆ,,13,104,1600004,,,,,,,2022-04-11,1,,,,,オルトガーデントウキョウ,0
73,1011101098467,新規,0,2022-04-11,2022-04-11,株式会社ＮＥＯ,,株式会社,東京都,新宿区,西早稲田２丁目２番３－９０２号,,13,104,1690051,,,,,,,2022-04-11,1,,,,,ネオ,0
75,1011103011650,新規,0,2022-04-11,2022-04-11,合同会社Ｌ＆Ｎ,,合同会社,東京都,新宿区,百人町２丁目１８番１５号パレスマンション１０１号,,13,104,1690073,,,,,,,2022-04-11,1,,,,,エルアンドエヌ,0
76,1011105010213,新規,0,2022-04-11,2022-04-11,一般財団法人高度人材育成機構,,その他の設立登記法人,東京都,新宿区,西新宿７丁目２番４号新宿喜楓ビル３階,,13,104,1600023,,,,,,,2022-04-11,1,,,,,コウドジンザイイクセイキコウ,0
87,1011603003569,新規,0,2022-04-11,2022-04-11,ＳＢＰＳ合同会社,,合同会社,東京都,練馬区,石神井台５丁目２７番１７号,,13,120,1770045,,,,,,,2022-04-11,1,,,,,エスビーピーエス,0
94,1011703003114,新規,0,2022-04-11,2022-04-11,合同会社民間福祉,,合同会社,東京都,江戸川区,大杉４丁目１３番９号フローラルビュー１０５,,13,123,1320022,,,,,,,2022-04-11,1,,,,,ミンカンフクシ,0
96,1011705001727,新規,0,2022-04-11,2022-04-11,特定非営利活動法人境界工学研究会,,その他の設立登記法人,東京都,江戸川区,西瑞江４丁目１６番地,,13,123,1340015,,,,,,,2022-04-11,1,,,,,,0
97,1011801040554,新規,0,2022-04-11,2022-04-11,株式会社Ｐ‐ＵＰ　ｎｅｏ,,株式会社,東京都,足立区,千住１丁目４番１号,,13,121,1200034,,,,,,,2022-04-11,1,,,,,ピーアップネオ,0
98,1011801040562,新規,0,2022-04-11,2022-04-11,株式会社ＳＹＵＵＳＥＩ,,株式会社,東京都,足立区,鹿浜６丁目１４番１６号,,13,121,1230864,,,,,,,2022-04-11,1,,,,,シュウセイ,0
99,1011801040570,新規,0,2022-04-11,2022-04-11,株式会社高測,00126242,株式会社,東京都,足立区,六町３丁目５番２８－３０２号セイプリート,,13,121,1210073,,,,,,,2022-04-11,1,,,,,コウソク,0
100,1012305002000,新規,0,2022-04-11,2022-04-11,一般社団法人相原地域総合スポーツクラブ,,その他の設立登記法人,東京都,町田市,相原町１７９１番地２２,,13,209,1940211,,,,,,,2022-04-11,1,,,,,アイハラチイキソウゴウスポーツクラブ,0
110,1020001146021,新規,0,2022-04-11,2022-04-11,Ｔｅｄｏ　Ｉｎｔｅｒｎａｔｉｏｎａｌ　Ｃｏｒｐｏｒａｔｉｏｎ株式会社,,株式会社,神奈川県,横浜市港北区,富士塚２丁目１４番３３－１０２号,,14,109,2220012,,,,,,,2022-04-11,1,,,,,テドインターナショナルコーポレーション,0
111,1020001146038,新規,0,2022-04-11,2022-04-11,株式会社北杜工業,,株式会社,神奈川県,横浜市緑区,長津田６丁目５番５号ニッショーＩＩ１－Ｆ,00126222,14,113,2260027,,,,,,,2022-04-11,1,,,,,ホクトコウギョウ,0
112,1020001146054,新規,0,2022-04-11,2022-04-11,株式会社Ｇｒａｃｅ,,株式会社,神奈川県,横浜市西区,みなとみらい４丁目９番２号,,14,103,2200012,,,,,,,2022-04-11,1,,,,,グレイス,0
113,1020003021569,新規,0,2022-04-11,2022-04-11,ＤＧＭディストリビューション・ジャパン合同会社,,合同会社,神奈川県,横浜市戸塚区,上倉田町１５８２－２８,,14,110,2440816,,,,,,,2022-04-11,1,,,,,デージーエムディストリビューションジャパン,0
114,1020005015478,新規,0,2022-04-11,2022-04-11,特定非営利活動法人横浜金沢国際交流の会,,その他の設立登記法人,神奈川県,横浜市金沢区,釜利谷南２丁目２６番１２号,,14,108,2360045,,,,,,,2022-04-11,1,,,,,ヨコハマカナザワコクサイコウリュウノカイ,0
118,1021001075664,新規,0,2022-04-11,2022-04-11,株式会社ＩＸＩ　Ｃａｐｉｔａｌ,,株式会社,神奈川県,南足柄市,広町７７９,,14,217,2500121,,,,,,,2022-04-11,1,,,,,イクシィキャピタル,0
119,1021001075672,新規,0,2022-04-11,2022-04-11,株式会社Ｗａｇｏエンジニアリング,,株式会社,神奈川県,藤沢市,鵠沼海岸５丁目６番２７号１階,,14,205,2510037,,,,,,,2022-04-11,1,,,,,ワゴエンジニアリング,0
120,1021001075706,新規,0,2022-04-11,2022-04-11,株式会社湘南総業,,株式会社,神奈川県,藤沢市,鵠沼海岸５丁目４番２１－２０１号,,14,205,2510037,,,,,,,2022-04-11,1,,,,,ショウナンソウギョウ,0
126,1021003011568,新規,0,2022-04-11,2022-04-11,合同会社ＢＥＳＴ　ＷＩＳＨＥＳ,,合同会社,神奈川県,藤沢市,長後１４３２番地の４６,,14,205,2520801,,,,,,,2022-04-11,1,,,,,ベストウイッシーズ,0
138,1030001147646,新規,0,2022-04-11,2022-04-11,株式会社エバークリーン,,株式会社,埼玉県,鶴ヶ島市,大字中新田１０１番地１,,11,241,3502226,,,,,,,2022-04-11,1,,,,,エバークリーン,0
139,1030001147662,新規,0,2022-04-11,2022-04-11,ヒラソル株式会社,,株式会社,埼玉県,狭山市,富士見１丁目２５番２号,,11,215,3501306,,,,,,,2022-04-11,1,,,,,ヒラソル,0
140,1030001147687,新規,0,2022-04-11,2022-04-11,ＶＮＢ株式会社,,株式会社,埼玉県,草加市,谷塚町５１２番地４,,11,221,3400023,,,,,,,2022-04-11,1,,,,,ヴィーエヌビー,0
144,1030003019199,新規,0,2022-04-11,2022-04-11,星野総合研究所合同会社,,合同会社,埼玉県,さいたま市見沼区,大字風渡野２８６番地６,,11,104,3370017,,,,,,,2022-04-11,1,,,,,,0
145,1030003019208,新規,0,2022-04-11,2022-04-11,合同会社ＵＳ設計,,合同会社,埼玉県,桶川市,坂田西２丁目４７番地の１,,11,231,3630018,,,,,,,2022-04-11,1,,,,,ユーエスセッケイ,0
146,1030005020790,新規,0,2022-04-11,2022-04-11,医療法人社団葵ウィメンズクリニック,,その他の設立登記法人,埼玉県,上尾市,壱丁目東１４番地５,,11,219,3620082,,,,,,,2022-04-11,1,,,,,アオイウィメンズクリニック,0
158,1040003019850,新規,0,2022-04-11,2022-04-11,合同会社サードウィン,,合同会社,千葉県,柏市,南逆井４丁目１０番２０号,,12,217,2770043,,,,,,,2022-04-11,1,,,,,サードウィン,0
168,1060003004025,新規,0,2022-04-11,2022-04-11,Ｃｏｃｏｒｏ合同会社,,合同会社,栃木県,栃木市,箱森町１３番９－２号,,09,203,3280075,,,,,,,2022-04-11,1,,,,,ココロ,0
169,1060005009963,新規,0,2022-04-11,2022-04-11,社会福祉法人令和会,,その他の設立登記法人,栃木県,小山市,大字荒井６番地２,,09,208,3230013,,,,,,,2022-04-11,1,,,,,レイワカイ,0
173,1070001039138,新規,0,2022-04-11,2022-04-11,ＴＭＧ不動産販売株式会社,,株式会社,群馬県,高崎市,寺尾町１０１番地６,,10,202,3700865,,,,,,,2022-04-11,1,,,,,ティーエムジーフドウサンハンバイ,0
180,1080401025744,新規,0,2022-04-11,2022-04-11,ニシムラＲ＆Ｄ株式会社,,株式会社,静岡県,浜松市東区,小池町１３８番地の１,,22,132,4350056,,,,,,,2022-04-11,1,,,,,ニシムラアールアンドディ,0
182,1080403004515,新規,0,2022-04-11,2022-04-11,合同会社あおぞら,,合同会社,静岡県,浜松市中区,高丘東１丁目５番３２号,,22,131,4338117,,,,,,,2022-04-11,1,,,,,アオゾラ,0
185,1100001035216,新規,0,2022-04-11,2022-04-11,アルピコ蓼科高原リゾート株式会社,,株式会社,長野県,茅野市,北山４０３５番地２０１６,,20,214,3910301,,,,,,,2022-04-11,1,,,,,アルピコタテシナコウゲンリゾート,0
186,1100001035249,新規,0,2022-04-11,2022-04-11,ハーブアグリチェーン株式会社,,株式会社,長野県,千曲市,大字鋳物師屋６１３番地２,,20,218,3870015,,,,,,,2022-04-11,1,,,,,ハーブアグリチェーン,0
206,1120001244855,新規,0,2022-04-11,2022-04-11,株式会社ＳＰＡＲＫＹ,,株式会社,大阪府,交野市,星田６丁目２６番３－２０１号,,27,230,5760016,,,,,,,2022-04-11,1,,,,,スパーキー,0
207,1120001244995,新規,0,2022-04-11,2022-04-11,ＩＣＨＩＷＡ警備株式会社,,株式会社,大阪府,大阪市住吉区,清水丘２丁目９番１６－４０９号,,27,120,5580033,,,,,,,2022-04-11,1,,,,,イチワケイビ,0
208,1120001245036,新規,0,2022-04-11,2022-04-11,株式会社ｓａｌｏｍｂ,,株式会社,大阪府,大阪市中央区,南船場３丁目８番７号三栄ムアビル３０２,,27,128,5420081,,,,,,,2022-04-11,1,,,,,サロム,0
209,1120001245077,新規,0,2022-04-11,2022-04-11,ＴｘＢＲＩＧＨＴ株式会社,,株式会社,大阪府,交野市,私部６丁目１番５号,,27,230,5760052,,,,,,,2022-04-11,1,,,,,ティーブライト,0
210,1120001245085,新規,0,2022-04-11,2022-04-11,バトルクライ株式会社,,株式会社,大阪府,大阪市阿倍野区,阿倍野筋１丁目１番４３号あべのハルカス３１階,,27,119,5450052,,,,,,,2022-04-11,1,,,,,バトルクライ,0
212,1120003021410,新規,0,2022-04-11,2022-04-11,合同会社ハッピースマイル,,合同会社,大阪府,大阪市中央区,東心斎橋１丁目８番１１号１００５,,27,128,5420083,,,,,,,2022-04-11,1,,,,,ハッピースマイル,0
220,1120101065359,新規,0,2022-04-11,2022-04-11,株式会社クラウドナイン,,株式会社,大阪府,羽曳野市,南恵我之荘４丁目１番１５号,,27,222,5830885,,,,,,,2022-04-11,1,,,,,クラウドナイン,0
231,1120901045824,新規,0,2022-04-11,2022-04-11,株式会社Ｊ‐Ｌｉｎｅ測量,,株式会社,大阪府,豊能郡能勢町,山辺４８番地の２,,27,322,5630372,,,,,,,2022-04-11,1,,,,,ジェイラインソクリョウ,0
234,1120905006310,新規,0,2022-04-11,2022-04-11,一般社団法人ＡＩＯＩ,,その他の設立登記法人,大阪府,吹田市,豊津町９番１５号日本興業ビル４０６号,,27,205,5640051,,,,,,,2022-04-11,1,,,,,アイオイ,0
235,1122001035747,新規,0,2022-04-11,2022-04-11,株式会社総合折込一広社,,株式会社,大阪府,大東市,太子田１丁目５番４７号,,27,218,5740045,,,,,,,2022-04-11,1,,,,,ソウゴウオリコミイッコウシャ,0
240,1130001071497,新規,0,2022-04-11,2022-04-11,ｂｌｕｅ　ａｎｄ　ｔｅｃｈ株式会社,,株式会社,京都府,京都市中京区,御池通東洞院東入笹屋町４３６永和御池ビル６０６号,,26,104,6048187,,,,,,,2022-04-11,1,,,,,ブルーアンドテック,0
241,1130001071506,新規,0,2022-04-11,2022-04-11,Ｓ．ｉ株式会社,,株式会社,京都府,京都市下京区,坂東屋町２８３シゲトシビル２Ｆ－Ａ,,26,106,6008439,,,,,,,2022-04-11,1,,,,,エスアイ,0
244,1130005016432,新規,0,2022-04-11,2022-04-11,行政書士法人太田事務所,,その他の設立登記法人,京都府,舞鶴市,字野村寺８６番地２,,26,202,6240833,,,,,,,2022-04-11,1,,,,,オオタジムショ,0
246,1140001125450,新規,0,2022-04-11,2022-04-11,株式会社ＡＳＵＷＡＹ,,株式会社,兵庫県,姫路市,飾磨区山崎１７３番地,,28,201,6728097,,,,,,,2022-04-11,1,,,,,アスウェイ,0
247,1140001125491,新規,0,2022-04-11,2022-04-11,株式会社マルアイ店舗保有,,株式会社,兵庫県,加古川市,神野町神野２２５番地１,,28,210,6750003,,,,,,,2022-04-11,1,,,,,,0
248,1140001125590,新規,0,2022-04-11,2022-04-11,株式会社ＫＩＮＡＳＳＥ　ＫＯＢＥ,,株式会社,兵庫県,神戸市東灘区,北青木１丁目２番地青木高層住宅７棟１０２,,28,101,6580014,,,,,,,2022-04-11,1,,,,,キナッセコウベ,0
249,1140001125599,新規,0,2022-04-11,2022-04-11,株式会社想侑,,株式会社,兵庫県,高砂市,伊保崎６丁目９番１４号,,28,216,6760076,,,,,,,2022-04-11,1,,,,,ソウ,0
252,1140005026141,新規,0,2022-04-11,2022-04-11,一般社団法人甲南通信情報研究所,,その他の設立登記法人,兵庫県,神戸市東灘区,西岡本３丁目２３番６号,,28,101,6580073,,,,,,,2022-04-11,1,,,,,コウナンツウシンジョウホウケンキュウショ,0
254,1160005011075,新規,0,2022-04-11,2022-04-11,特定非営利活動法人信楽エコビレッジ研究会,,その他の設立登記法人,滋賀県,甲賀市,信楽町長野３０６番地１４,,25,209,5291851,,,,,,,2022-04-11,1,,,,,シガラキエコビレッジケンキュウカイ,0
259,1180001150718,新規,0,2022-04-11,2022-04-11,名和海運ホールディングス株式会社,,株式会社,愛知県,名古屋市中区,栄２丁目６番１号,,23,106,4600008,,,,,,,2022-04-11,1,,,,,メイワカイウンホールディングス,0
260,1180001150750,新規,0,2022-04-11,2022-04-11,株式会社エニシア,,株式会社,愛知県,あま市,森３丁目９番地２２,,23,237,4901107,,,,,,,2022-04-11,1,,,,,エニシア,0
261,1180001150825,新規,0,2022-04-11,2022-04-11,株式会社ＲＥＸ,,株式会社,愛知県,名古屋市天白区,中砂町５２８番地,,23,116,4680065,,,,,,,2022-04-11,1,,,,,レックス,0
262,1180001150833,新規,0,2022-04-11,2022-04-11,株式会社Ｈａｐｐｉｎｅｓｓ,,株式会社,愛知県,名古屋市港区,西蟹田１５１２番地,,23,111,4550872,,,,,,,2022-04-11,1,,,,,ハピネス,0
263,1180001150866,新規,0,2022-04-11,2022-04-11,株式会社ＷＣＰ,,株式会社,愛知県,名古屋市瑞穂区,釜塚町一丁目３１番地,00126243,23,108,4670000,,,,,,,2022-04-11,1,,,,,ダブリューシーピー,0
272,1180003023698,新規,0,2022-04-11,2022-04-11,アップ合同会社,,合同会社,愛知県,名古屋市名東区,上菅２丁目３０７番地,,23,115,4650014,,,,,,,2022-04-11,1,,,,,アップ,0
277,1190001029283,新規,0,2022-04-11,2022-04-11,株式会社ＰＯＷ,,株式会社,三重県,桑名市,大字蓮花寺１０３７番地パストラルＡ棟２０１号,,24,205,5110854,,,,,,,2022-04-11,1,,,,,パウ,0
278,1190001029291,新規,0,2022-04-11,2022-04-11,Ｓａｔｉｓｆｙ株式会社,,株式会社,三重県,四日市市,楠町北五味塚３９２番地１,,24,202,5100103,,,,,,,2022-04-11,1,,,,,サティスファイ,0
279,1190001029300,新規,0,2022-04-11,2022-04-11,株式会社ＧＲＡＮＤＥＳ,,株式会社,三重県,桑名市,殿町１８番地,,24,205,5110015,,,,,,,2022-04-11,1,,,,,グランディーズ,0
280,1190001029309,新規,0,2022-04-11,2022-04-11,株式会社ジャパンクリエーション,,株式会社,三重県,四日市市,鵜の森１丁目１番１９号太平洋鵜の森ビル４Ｆ,,24,202,5100074,,,,,,,2022-04-11,1,,,,,ジャパンクリエーション,0
283,1190003003947,新規,0,2022-04-11,2022-04-11,合同会社しろくろ,,合同会社,三重県,松阪市,田原町６番地３,,24,204,5150032,,,,,,,2022-04-11,1,,,,,シロクロ,0
284,1190005011691,新規,0,2022-04-11,2022-04-11,一般社団法人いろえんぴつ,,その他の設立登記法人,三重県,伊勢市,中村町桜が丘１８３番地１２,,24,203,5160028,,,,,,,2022-04-11,1,,,,,イロエンピツ,0
287,1210003001493,新規,0,2022-04-11,2022-04-11,匠カワラ合同会社,,合同会社,福井県,勝山市,郡町２丁目２番２３号,,18,206,9110035,,,,,,,2022-04-11,1,,,,,タクミカワラ,0
291,1220005008651,新規,0,2022-04-11,2022-04-11,特定非営利活動法人グリーンメーカー,,その他の設立登記法人,石川県,金沢市,高畠２丁目３０‐１０１,,17,201,9218001,,,,,,,2022-04-11,1,,,,,グリーンメーカー,0
299,1230003001830,新規,0,2022-04-11,2022-04-11,合同会社青い空,,合同会社,富山県,黒部市,植木２１番地５,,16,207,9380014,,,,,,,2022-04-11,1,,,,,アオイソラ,0
301,1240001059580,新規,0,2022-04-11,2022-04-11,株式会社Ｙｅｓ,,株式会社,広島県,東広島市,西条町寺家６６８６番地１フォレストコートＡ１０３号,,34,212,7390041,,,,,,,2022-04-11,1,,,,,イエス,0
302,1240001059606,新規,0,2022-04-11,2022-04-11,株式会社ナインプラン,,株式会社,広島県,広島市南区,段原２丁目１０番１３－５０１号,,34,103,7320811,,,,,,,2022-04-11,1,,,,,ナインプラン,0
306,1280001008674,新規,0,2022-04-11,2022-04-11,株式会社Ｅｍｅｒ,,株式会社,島根県,浜田市,京町８１番地,,32,202,6970045,,,,,,,2022-04-11,1,,,,,,0
308,1290001097023,新規,0,2022-04-11,2022-04-11,株式会社フクイトワークス,,株式会社,福岡県,那珂川市,片縄８丁目６５番地,,40,231,8111201,,,,,,,2022-04-11,1,,,,,フクイトワークス,0
314,1290003012384,新規,0,2022-04-11,2022-04-11,合同会社くろいち,,合同会社,福岡県,福岡市博多区,博多駅前３丁目７番３５号博多ハイテックビル５０５,,40,132,8120011,,,,,,,2022-04-11,1,,,,,クロイチ,0
318,1290801028433,新規,0,2022-04-11,2022-04-11,株式会社ヘルドックスビューティープロ,,株式会社,福岡県,北九州市小倉北区,京町２丁目４番２７号ＫＤビル５Ｆ,,40,106,8020002,,,,,,,2022-04-11,1,,,,,ヘルドックスビューティープロ,0
325,1310005008601,新規,0,2022-04-11,2022-04-11,一般社団法人Ｂｅｌｉｅｖｅ,,その他の設立登記法人,長崎県,島原市,片町５６９番地１,,42,203,8550042,,,,,,,2022-04-11,1,,,,,,0
327,1320001019007,新規,0,2022-04-11,2022-04-11,ボーンレックス沸く沸く大分株式会社,,株式会社,大分県,大分市,高崎２丁目１番５号,,44,201,8700872,,,,,,,2022-04-11,1,,,,,ボーンレックスワクワクオオイタ,0
328,1320003003768,新規,0,2022-04-11,2022-04-11,合同会社明倫堂,,合同会社,大分県,大分市,萩原３丁目１番２７号,,44,201,8700921,,,,,,,2022-04-11,1,,,,,メイリンドウ,0
339,1360001030199,新規,0,2022-04-11,2022-04-11,株式会社Ｖｏｌａｒｅ,,株式会社,沖縄県,中頭郡北谷町,字宮城１番１号アルトゥーレ美浜５１３,,47,326,9040113,,,,,,,2022-04-11,1,,,,,ヴォラーレ,0
340,1360001030216,新規,0,2022-04-11,2022-04-11,株式会社ＯＫライフプラン,,株式会社,沖縄県,宜野湾市,嘉数２丁目１番３号,,47,205,9012226,,,,,,,2022-04-11,1,,,,,オーケーライフプラン,0
341,1360001030273,新規,0,2022-04-11,2022-04-11,株式会社大栄,,株式会社,沖縄県,糸満市,西崎町３丁目７番地７,,47,210,9010306,,,,,,,2022-04-11,1,,,,,ダイエイ,0
343,1360003011908,新規,0,2022-04-11,2022-04-11,合同会社ファーストスター,,合同会社,沖縄県,中頭郡読谷村,字伊良皆３６０番地１９,,47,324,9040303,,,,,,,2022-04-11,1,,,,,ファーストスター,0
344,1360003011916,新規,0,2022-04-11,2022-04-11,合同会社グレートペガサス,,合同会社,沖縄県,南城市,佐敷字津波古４００番地４５,,47,215,9011414,,,,,,,2022-04-11,1,,,,,グレートペガサス,0
346,1370001048422,新規,0,2022-04-11,2022-04-11,株式会社遠寿梅,,株式会社,宮城県,仙台市泉区,上谷刈４丁目８番２１号,,04,105,9813121,,,,,,,2022-04-11,1,,,,,エンジュバイ,0
347,1370001048430,新規,0,2022-04-11,2022-04-11,株式会社ＡＲＩＡＮＥ,,株式会社,宮城県,仙台市泉区,七北田字古内９６番地,,04,105,9813131,,,,,,,2022-04-11,1,,,,,アリアンヌ,0
348,1370001048439,新規,0,2022-04-11,2022-04-11,株式会社はやでん,,株式会社,宮城県,仙台市泉区,向陽台３丁目１８－１４,,04,105,9813102,,,,,,,2022-04-11,1,,,,,ハヤデン,0
349,1370005010469,新規,0,2022-04-11,2022-04-11,社会福祉法人東北みらい樹,,その他の設立登記法人,宮城県,亘理郡亘理町,逢隈田沢字早川６８番地２,00126238,04,361,9892383,,,,,,,2022-04-11,1,,,,,トウホクミライキ,0
355,1380005012563,新規,0,2022-04-11,2022-04-11,一般社団法人自転車キャンプツーリズム協会,,その他の設立登記法人,福島県,二本松市,下川崎字七色山１番地,,07,210,9691511,,,,,,,2022-04-11,1,,,,,ジテンシャキャンプツーリズムキョウカイ,0
358,1410001013149,新規,0,2022-04-11,2022-04-11,株式会社フラクタス,,株式会社,秋田県,由利本荘市,表尾崎町２３番地８グランデール親和５０３号室,,05,210,0150802,,,,,,,2022-04-11,1,,,,,フラクタス,0
360,1410003003643,新規,0,2022-04-11,2022-04-11,合同会社ＨＵＮＴ,,合同会社,秋田県,北秋田市,阿仁幸屋渡字沢越２３番地２,,05,213,0184742,,,,,,,2022-04-11,1,,,,,ハント,0
361,1410005006462,新規,0,2022-04-11,2022-04-11,農事組合法人めぶき,,その他の設立登記法人,秋田県,横手市,大雄字東桜森１８６－１,,05,203,0130473,,,,,,,2022-04-11,1,,,,,メブキ,0
364,1420001017792,新規,0,2022-04-11,2022-04-11,株式会社ロハス,,株式会社,青森県,上北郡東北町,字上笹橋３番地１８,,02,408,0392661,,,,,,,2022-04-11,1,,,,,ロハス,0
367,1430003013780,新規,0,2022-04-11,2022-04-11,合同会社ＷＴＰ,,合同会社,北海道,札幌市北区,新琴似十二条８丁目１番２５号,,01,102,0010912,,,,,,,2022-04-11,1,,,,,ダブルューティーピー,0
374,1470001019033,新規,0,2022-04-11,2022-04-11,前堀精工株式会社,,株式会社,香川県,丸亀市,綾歌町富熊２８３１番地３,,37,202,7612407,,,,,,,2022-04-11,1,,,,,マエボリセイコウ,0
375,1470005006432,新規,0,2022-04-11,2022-04-11,一般社団法人三木町観光協会,,その他の設立登記法人,香川県,木田郡三木町,大字鹿伏３１０番地ベルシティ内,,37,341,7610703,,,,,,,2022-04-11,1,,,,,ミキチョウカンコウキョウカイ,0
383,1700150107845,新規,0,2022-04-11,2022-04-11,中ノ橋通一丁目地区市街地再開発組合,,その他,岩手県,盛岡市,肴町４－５,,03,201,0200878,,,,,,,2022-04-11,1,,,,,ナカノハシドオリイツチヨウメチクシガイチサイカイハツクミアイ,0
391,2010001225717,新規,0,2022-04-11,2022-04-11,株式会社ＩＣＨＩ‐ＹＯＵ,,株式会社,東京都,文京区,大塚４丁目１１－１０－８０２,,13,105,1120012,,,,,,,2022-04-11,1,,,,,イチユー,0
392,2010001225725,新規,0,2022-04-11,2022-04-11,株式会社ＬＡＵＧＨ＆ＲＯＵＧＨ,,株式会社,東京都,中央区,銀座７丁目１３番６号サガミビル２階,,13,102,1040061,,,,,,,2022-04-11,1,,,,,ラフラフ,0
400,2010003037409,新規,0,2022-04-11,2022-04-11,合同会社デブリーズ,,合同会社,東京都,中央区,勝どき６丁目３番１－５１１７号,,13,102,1040054,,,,,,,2022-04-11,1,,,,,デブリーズ,0
401,2010003037441,新規,0,2022-04-11,2022-04-11,ジェイコアレジ６合同会社８,,合同会社,東京都,千代田区,丸の内３丁目１番１号東京共同会計事務所内,,13,101,1000005,,,,,,,2022-04-11,1,,,,,ジェイコアレジシックスハチ,0
404,2010005034825,新規,0,2022-04-11,2022-04-11,弁理士法人テクノピア国際特許事務所,,その他の設立登記法人,東京都,千代田区,岩本町１丁目３番９号,,13,101,1010032,,,,,,,2022-04-11,1,,,,,テクノピアコクサイトッキョジムショ,0
405,2010005034833,新規,0,2022-04-11,2022-04-11,社会保険労務士法人野尻事務所,,その他の設立登記法人,東京都,文京区,千石４丁目１６番２号小林ビル２０２,,13,105,1120011,,,,,,,2022-04-11,1,,,,,ノジリジムショ,0
409,2010401166651,新規,0,2022-04-11,2022-04-11,株式会社ＬＩＯＬ,,株式会社,東京都,港区,南青山２丁目２番１５号,,13,103,1070062,,,,,,,2022-04-11,1,,,,,ライオル,0
410,2010401166676,新規,0,2022-04-11,2022-04-11,ｃｒｅＮＡｗｏ株式会社,,株式会社,東京都,港区,芝５丁目３２番１２号シャーメゾンステージ田町３Ｆ,,13,103,1080014,,,,,,,2022-04-11,1,,,,,クレナウォー,0
411,2010401166692,新規,0,2022-04-11,2022-04-11,株式会社Ａｒｋ‐Ｈｉｖｅ,,株式会社,東京都,港区,南青山２丁目２－８ＤＦビル５Ｆ,,13,103,1070062,,,,,,,2022-04-11,1,,,,,アーカイヴ,0
412,2010401166701,新規,0,2022-04-11,2022-04-11,アセットクリエーションズ株式会社,,株式会社,東京都,港区,北青山２丁目７番１３号プラセオ青山ビル３Ｆ青山アラマンダワークコート,,13,103,1070061,,,,,,,2022-04-11,1,,,,,アセットクリエーションズ,0
413,2010401166775,新規,0,2022-04-11,2022-04-11,ＰＴＷ　Ｊａｐａｎ株式会社,,株式会社,東京都,港区,赤坂２丁目１４番５号Ｄａｉｗａ赤坂ビル４階,,13,103,1070052,,,,,,,2022-04-11,1,,,,,ピーティーダブリュージャパン,0
415,2010403027439,新規,0,2022-04-11,2022-04-11,合同会社ｂｒｅａｋ９,,合同会社,東京都,港区,南青山２丁目２番１５号,,13,103,1070062,,,,,,,2022-04-11,1,,,,,ブレイクナイン,0
416,2010405020912,新規,0,2022-04-11,2022-04-11,一般社団法人Ｈａｉｋｕｉ,,その他の設立登記法人,東京都,港区,虎ノ門５丁目１番４号,,13,103,1050001,,,,,,,2022-04-11,1,,,,,ハイクイ,0
421,2010601060943,新規,0,2022-04-11,2022-04-11,ズノン株式会社,,株式会社,東京都,墨田区,堤通２丁目７番３８号,,13,107,1310034,,,,,,,2022-04-11,1,,,,,ズノン,0
422,2010601060968,新規,0,2022-04-11,2022-04-11,株式会社フォーグッドライフ,,株式会社,東京都,墨田区,立花５丁目１９番４号,,13,107,1310043,,,,,,,2022-04-11,1,,,,,フォーグッドライフ,0
426,2010603009484,新規,0,2022-04-11,2022-04-11,合同会社Ｗｉｎｄｓ　Ｊａｐａｎ,,合同会社,東京都,墨田区,江東橋５丁目７－９－４０４,,13,107,1300022,,,,,,,2022-04-11,1,,,,,ウィンズジャパン,0
428,2010701042486,新規,0,2022-04-11,2022-04-11,株式会社ＵＲＳＵＳ,,株式会社,東京都,品川区,西五反田１丁目１１－９、９Ｆ,,13,109,1410031,,,,,,,2022-04-11,1,,,,,ウルスス,0
429,2010701042494,新規,0,2022-04-11,2022-04-11,エムケイ株式会社,,株式会社,東京都,品川区,西五反田１丁目２６番２号五反田サンハイツビルディング２階,,13,109,1410031,,,,,,,2022-04-11,1,,,,,エムケイ,0
431,2010801032866,新規,0,2022-04-11,2022-04-11,株式会社ヨシヒロ,,株式会社,東京都,大田区,東蒲田１丁目１２番５号ハイツ桂,,13,111,1440031,,,,,,,2022-04-11,1,,,,,ヨシヒロ,0
433,2010803004129,新規,0,2022-04-11,2022-04-11,合同会社山口,,合同会社,東京都,大田区,東雪谷４丁目１４番１６号,,13,111,1450065,,,,,,,2022-04-11,1,,,,,ヤマグチ,0
438,2010903007295,新規,0,2022-04-11,2022-04-11,合同会社メイプル,,合同会社,東京都,世田谷区,三宿２丁目２８番２９号,,13,112,1540005,,,,,,,2022-04-11,1,,,,,メイプル,0
444,2011001146787,新規,0,2022-04-11,2022-04-11,株式会社代官山アイクリニック,,株式会社,東京都,渋谷区,恵比寿西１丁目３０番１３号,,13,113,1500021,,,,,,,2022-04-11,1,,,,,ダイカンヤマアイクリニック,0
445,2011001146829,新規,0,2022-04-11,2022-04-11,株式会社康和,,株式会社,東京都,渋谷区,元代々木町６番１号すずやビル１階,,13,113,1510062,,,,,,,2022-04-11,1,,,,,コウワ,0
446,2011001146853,新規,0,2022-04-11,2022-04-11,株式会社ＬＩＮＫ,,株式会社,東京都,渋谷区,神宮前６丁目２３番４号桑野ビル２Ｆ,,13,113,1500001,,,,,,,2022-04-11,1,,,,,リンク,0
448,2011003014455,新規,0,2022-04-11,2022-04-11,合同会社和牛の神様,,合同会社,東京都,渋谷区,道玄坂２丁目２９番１８号清水ビル２階,,13,113,1500043,,,,,,,2022-04-11,1,,,,,ワギュウノカミサマ,0
449,2011003014505,新規,0,2022-04-11,2022-04-11,合同会社ＢＥＡＲＳ,,合同会社,東京都,目黒区,中根１丁目２１番１６－３０１号,,13,110,1520031,,,,,,,2022-04-11,1,,,,,ベアーズ,0
450,2011005009536,新規,0,2022-04-11,2022-04-11,一般社団法人ＭＣＴ‐Ｊネットワーク,,その他の設立登記法人,東京都,渋谷区,渋谷２丁目１９番１５－６０９号宮益坂ビルディング,,13,113,1500002,,,,,,,2022-04-11,1,,,,,エムシーティージェイネットワーク,0
456,2011201023753,新規,0,2022-04-11,2022-04-11,株式会社シード,,株式会社,東京都,中野区,東中野１丁目５２番１８号,,13,114,1640003,,,,,,,2022-04-11,1,,,,,シード,0
459,2011301027704,新規,0,2022-04-11,2022-04-11,株式会社ａｔ’Ｓｅｎｓｅ,,株式会社,東京都,杉並区,高円寺南２丁目３７番１７－９０２号,,13,115,1660003,,,,,,,2022-04-11,1,,,,,アットセンス,0
477,2012401039060,新規,0,2022-04-11,2022-04-11,Ａｓｐｉ株式会社,,株式会社,東京都,小金井市,東町４丁目１番９号,,13,210,1840011,,,,,,,2022-04-11,1,,,,,アスピ,0
478,2012401039069,新規,0,2022-04-11,2022-04-11,株式会社Ｔｗｏｂｙｓ,,株式会社,東京都,武蔵野市,吉祥寺南町１丁目５番１１号,,13,203,1800003,,,,,,,2022-04-11,1,,,,,トゥーバイス,0
484,2013301048928,新規,0,2022-04-11,2022-04-11,株式会社ＳｏＬｉｄ,,株式会社,東京都,豊島区,池袋２丁目１７番８号,,13,116,1710014,,,,,,,2022-04-11,1,,,,,ソリッド,0
495,2020001146020,新規,0,2022-04-11,2022-04-11,ＡＬＨ株式会社,,株式会社,神奈川県,横浜市鶴見区,駒岡４丁目２３番１７－３号,,14,101,2300071,,,,,,,2022-04-11,1,,,,,,0
496,2020001146029,新規,0,2022-04-11,2022-04-11,株式会社フューラ,,株式会社,神奈川県,横浜市都筑区,中川中央１丁目２４番２０号,,14,118,2240003,,,,,,,2022-04-11,1,,,,,フューラ,0
497,2020001146045,新規,0,2022-04-11,2022-04-11,株式会社クロスラボ,,株式会社,神奈川県,横浜市泉区,中田北３丁目２４番１３号,,14,116,2450012,,,,,,,2022-04-11,1,,,,,クロスラボ,0
498,2020003021576,新規,0,2022-04-11,2022-04-11,Ｌａｋｉ　Ｐｌａｎｎｉｎｇ合同会社,,合同会社,神奈川県,横浜市都筑区,仲町台４丁目１８番１２号,,14,118,2240041,,,,,,,2022-04-11,1,,,,,ラキプランニング,0
499,2020003021592,新規,0,2022-04-11,2022-04-11,合同会社エムティービィー,,合同会社,神奈川県,川崎市宮前区,宮崎１３２番地１９マイキャッスル宮崎台グランヒルズ１１１,,14,136,2160033,,,,,,,2022-04-11,1,,,,,エムティービィー,0
500,2020005015477,新規,0,2022-04-11,2022-04-11,みなと横浜中央行政書士法人,,その他の設立登記法人,神奈川県,横浜市南区,山王町３丁目２４番地８港横浜ビル５階,,14,105,2320013,,,,,,,2022-04-11,1,,,,,ミナトヨコハマチュウオウ,0
505,2021001075688,新規,0,2022-04-11,2022-04-11,株式会社リーフヒルズ,,株式会社,神奈川県,相模原市中央区,相模原１丁目２番５号好月堂ビル２Ｆ,,14,152,2520231,,,,,,,2022-04-11,1,,,,,リーフヒルズ,0
507,2021003011567,新規,0,2022-04-11,2022-04-11,ＡＲＩＳ　ＧＬＯＢＡＬ　ＩＮＶＥＳＴＭＥＮＴ合同会社,,合同会社,神奈川県,座間市,相模が丘５丁目８番８号グリーンハイツ１０６号,,14,216,2520001,,,,,,,2022-04-11,1,,,,,アリスグローバルインベストメント,0
508,2021003011583,新規,0,2022-04-11,2022-04-11,Ｎ．Ｓ．Ｋ合同会社,,合同会社,神奈川県,相模原市中央区,星が丘３丁目１５番２２号フェリス星が丘５０１,,14,152,2520238,,,,,,,2022-04-11,1,,,,,エヌエスケー,0
515,2030001147661,新規,0,2022-04-11,2022-04-11,株式会社マカナインターナショナル,,株式会社,埼玉県,さいたま市南区,別所３丁目６番２号,,11,108,3360021,,,,,,,2022-04-11,1,,,,,マカナインターナショナル,0
516,2030001147678,新規,0,2022-04-11,2022-04-11,おうちＩＲＯＨＡ株式会社,,株式会社,埼玉県,川口市,大字東本郷８３７メゾンキューブキュービック２０３,,11,203,3340063,,,,,,,2022-04-11,1,,,,,オウチイロハ,0
517,2030001147686,新規,0,2022-04-11,2022-04-11,株式会社Ｔ・Ｍエステート,,株式会社,埼玉県,八潮市,大字木曽根１４３５番地,,11,234,3400813,,,,,,,2022-04-11,1,,,,,ティーエムエステート,0
524,2030003019198,新規,0,2022-04-11,2022-04-11,合同会社一工房,,合同会社,埼玉県,さいたま市緑区,大字中尾２０７１番地１,,11,109,3360932,,,,,,,2022-04-11,1,,,,,,0
529,2040001122936,新規,0,2022-04-11,2022-04-11,株式会社東宝ハウス松戸,,株式会社,千葉県,松戸市,本町７番地の１０,,12,207,2710091,,,,,,,2022-04-11,1,,,,,トウホウハウスマツド,0
530,2040001122969,新規,0,2022-04-11,2022-04-11,株式会社ディークルーシステム,,株式会社,千葉県,柏市,高田１００９番地６ワイズビル１０３,,12,217,2770861,,,,,,,2022-04-11,1,,,,,ディークルーシステム,0
540,2040005021564,新規,0,2022-04-11,2022-04-11,一般社団法人よつかいどう野外保育さとのたね,,その他の設立登記法人,千葉県,四街道市,下志津新田２５３６番地２３,,12,228,2840006,,,,,,,2022-04-11,1,,,,,ヨツカイドウヤガイホイクサトノタネ,0
547,2050001050938,新規,0,2022-04-11,2022-04-11,グリーンファーム株式会社,,株式会社,茨城県,つくば市,研究学園５丁目１２番地１０研究学園スクウェアビル４Ｆ,,08,220,3050817,,,,,,,2022-04-11,1,,,,,グリーンファーム,0
549,2050005013040,新規,0,2022-04-11,2022-04-11,医療法人社団あゆな,,その他の設立登記法人,茨城県,下妻市,長塚３８番地３,00126237,08,210,3040056,,,,,,,2022-04-11,1,,,,,アユナ,0
551,2060001034741,新規,0,2022-04-11,2022-04-11,株式会社ｔｅｓａｋｕｒｉ,,株式会社,栃木県,栃木市,西方町金井９１２番地３,,09,203,3220602,,,,,,,2022-04-11,1,,,,,テサクリ,0
559,2070005009978,新規,0,2022-04-11,2022-04-11,一般社団法人キッズベース,,その他の設立登記法人,群馬県,伊勢崎市,山王町１１４２番地６,,10,204,3720831,,,,,,,2022-04-11,1,,,,,キッズベース,0
562,2080103002495,新規,0,2022-04-11,2022-04-11,Ｚｏｎｏ合同会社,,合同会社,静岡県,沼津市,錦町３番地の２０、２Ｆ,,22,203,4100807,,,,,,,2022-04-11,1,,,,,ゾノ,0
565,2080401025743,新規,0,2022-04-11,2022-04-11,ＡＧ‐ＴｒａｎＳ株式会社,,株式会社,静岡県,菊川市,高橋１０６５番地の１,,22,224,4371505,,,,,,,2022-04-11,1,,,,,エージートランス,0
570,2100001035248,新規,0,2022-04-11,2022-04-11,Ｒ‐ｏｎｅ株式会社,,株式会社,長野県,諏訪市,清水１丁目３番１６号秀栄ビル１Ｆ,,20,206,3920007,,,,,,,2022-04-11,1,,,,,アールワン,0
579,2110001036575,新規,0,2022-04-11,2022-04-11,株式会社ＡＮＡＶＥＶＥ,,株式会社,新潟県,三条市,東裏館２丁目２２番３８号メゾン富士見１号室,,15,204,9550081,,,,,,,2022-04-11,1,,,,,アナベベ,0
580,2110001036583,新規,0,2022-04-11,2022-04-11,株式会社ナカシマ,,株式会社,新潟県,長岡市,宝地町１５９番地７,,15,202,9402031,,,,,,,2022-04-11,1,,,,,ナカシマ,0
594,2120001244904,新規,0,2022-04-11,2022-04-11,雅工業株式会社,,株式会社,大阪府,大阪市浪速区,下寺２丁目６－２１－３Ｄ,,27,111,5560001,,,,,,,2022-04-11,1,,,,,ミヤビコウギョウ,0
595,2120001245118,新規,0,2022-04-11,2022-04-11,卓悦株式会社,,株式会社,大阪府,大阪市東成区,中道３丁目３番３１号中村ハイツ４０１,,27,115,5370025,,,,,,,2022-04-11,1,,,,,タクエツ,0
596,2120001245126,新規,0,2022-04-11,2022-04-11,株式会社イーモック,,株式会社,大阪府,大阪市中央区,本町４丁目２番１２号９階,,27,128,5410053,,,,,,,2022-04-11,1,,,,,イーモック,0
597,2120001245134,新規,0,2022-04-11,2022-04-11,株式会社ＲＡＲＡ,,株式会社,大阪府,大阪市中央区,北久宝寺町３丁目３番１－４０２号,,27,128,5410057,,,,,,,2022-04-11,1,,,,,ララ,0
598,2120001245159,新規,0,2022-04-11,2022-04-11,受験生版Ｔｉｇｅｒ　Ｆｕｎｄｉｎｇ株式会社,,株式会社,大阪府,大阪市北区,東天満１丁目１０番１２号,,27,127,5300044,,,,,,,2022-04-11,1,,,,,ジュケンセイバンタイガーファンディング,0
599,2120003021434,新規,0,2022-04-11,2022-04-11,合同会社マツオカ,,合同会社,大阪府,大阪市東淀川区,井高野４丁目７番１０１号,,27,114,5330001,,,,,,,2022-04-11,1,,,,,マツオカ,0
605,2120901045781,新規,0,2022-04-11,2022-04-11,株式会社オーク,,株式会社,大阪府,吹田市,山田東１丁目１５番１５－２号,,27,205,5650821,,,,,,,2022-04-11,1,,,,,オーク,0
606,2120903004100,新規,0,2022-04-11,2022-04-11,合同会社ＩＨＢ,,合同会社,大阪府,三島郡島本町,桜井３丁目１０番３８－１０号,,27,301,6180022,,,,,,,2022-04-11,1,,,,,アイエイチビー,0
608,2122001035754,新規,0,2022-04-11,2022-04-11,山中総建株式会社,,株式会社,大阪府,東大阪市,花園西町１丁目１３－１１－１０６,,27,227,5780936,,,,,,,2022-04-11,1,,,,,ヤマナカソウケン,0
615,2130001071455,新規,0,2022-04-11,2022-04-11,株式会社タカシマプラス,,株式会社,京都府,京丹後市,丹後町平１５７１番地の２,,26,212,6270233,,,,,,,2022-04-11,1,,,,,タカシマプラス,0
616,2130001071496,新規,0,2022-04-11,2022-04-11,株式会社ＤＭＬ,,株式会社,京都府,京都市左京区,下鴨宮崎町１１９‐１,,26,103,6060802,,,,,,,2022-04-11,1,,,,,ディーエムエル,0
617,2130003007861,新規,0,2022-04-11,2022-04-11,東栄商務合同会社,,合同会社,京都府,八幡市,八幡園内６３－１８,,26,210,6148038,,,,,,,2022-04-11,1,,,,,トウエイショウム,0
620,2130005016431,新規,0,2022-04-11,2022-04-11,一般財団法人栗和田福祉財団,,その他の設立登記法人,京都府,京都市下京区,北小路通油小路東入文覚町３６９番地,,26,106,6008222,,,,,,,2022-04-11,1,,,,,クリワダフクシザイダン,0
639,2150005009383,新規,0,2022-04-11,2022-04-11,一般社団法人ＶＡＭＯｐｒｏｊｅｃｔ,,その他の設立登記法人,奈良県,葛城市,北道穗１９４番地７,,29,211,6392142,,,,,,,2022-04-11,1,,,,,バモプロジェクト,0
641,2160001024113,新規,0,2022-04-11,2022-04-11,株式会社ふじ愛菜農園,,株式会社,滋賀県,草津市,下笠町５５６番地,,25,206,5250029,,,,,,,2022-04-11,1,,,,,フジアイサイノウエン,0
645,2180001150725,新規,0,2022-04-11,2022-04-11,株式会社ウエダ管理,,株式会社,愛知県,名古屋市天白区,植田西３丁目４０２番地,,23,116,4680058,,,,,,,2022-04-11,1,,,,,ウエダカンリ,0
646,2180001150741,新規,0,2022-04-11,2022-04-11,株式会社セーブクオリティサービス,,株式会社,愛知県,名古屋市中川区,法華西町５丁目３６番地,,23,110,4540937,,,,,,,2022-04-11,1,,,,,セーブクオリティサービス,0
647,2180001150782,新規,0,2022-04-11,2022-04-11,株式会社リフロコ,,株式会社,愛知県,名古屋市中区,大須１丁目７番１４号パークＩＭビル２階,,23,106,4600011,,,,,,,2022-04-11,1,,,,,リフロコ,0
648,2180001150799,新規,0,2022-04-11,2022-04-11,株式会社レイアップ,,株式会社,愛知県,春日井市,牛山町９０８番地１０,,23,206,4860901,,,,,,,2022-04-11,1,,,,,レイアップ,0
649,2180001150832,新規,0,2022-04-11,2022-04-11,株式会社コイッシュ,,株式会社,愛知県,小牧市,小牧原４丁目７５番地,,23,219,4850829,,,,,,,2022-04-11,1,,,,,コイッシュ,0
650,2180001150840,新規,0,2022-04-11,2022-04-11,株式会社ＩＴＳホールディングス,,株式会社,愛知県,名古屋市緑区,元徳重２丁目１００１番地の１,,23,114,4580852,,,,,,,2022-04-11,1,,,,,アイティエスホールディングス,0
651,2180001150849,新規,0,2022-04-11,2022-04-11,株式会社サクシードコーポレーション,,株式会社,愛知県,名古屋市中区,錦２丁目５番５号,,23,106,4600003,,,,,,,2022-04-11,1,,,,,サクシードコーポレーション,0
652,2180001150873,新規,0,2022-04-11,2022-04-11,株式会社Ｌｉｔｔｌｅ　Ｂｒａｖｅｒ,,株式会社,愛知県,名古屋市中区,丸の内２丁目９番２４号,,23,106,4600002,,,,,,,2022-04-11,1,,,,,リトルブレイバー,0
656,2180003023706,新規,0,2022-04-11,2022-04-11,合同会社エクシーズ,,合同会社,愛知県,名古屋市中区,栄５丁目２６番３９号ＧＳ栄ビル３Ｆ,,23,106,4600008,,,,,,,2022-04-11,1,,,,,エクシーズ,0
657,2180003023722,新規,0,2022-04-11,2022-04-11,合同会社Ｔ‐ｗｉｎｓ．,,合同会社,愛知県,名古屋市昭和区,広路町字松風園６５番地,,23,107,4660834,,,,,,,2022-04-11,1,,,,,ティーウインズ,0
661,2190001029266,新規,0,2022-04-11,2022-04-11,三立興業株式会社,,株式会社,三重県,四日市市,六名町９７８番地１,,24,202,5121116,,,,,,,2022-04-11,1,,,,,サンリツコウギョウ,0
662,2190001029290,新規,0,2022-04-11,2022-04-11,セントラル硝子プロダクツ株式会社,,株式会社,三重県,松阪市,大口町１５２１番地２,,24,204,5150001,,,,,,,2022-04-11,1,,,,,セントラルガラスプロダクツ,0
663,2190001029299,新規,0,2022-04-11,2022-04-11,株式会社山本電工,,株式会社,三重県,尾鷲市,中川４番２８号,,24,209,5193639,,,,,,,2022-04-11,1,,,,,ヤマモトデンコウ,0
664,2190001029308,新規,0,2022-04-11,2022-04-11,ワカショクワカヤマショクヒン株式会社,,株式会社,三重県,四日市市,千代田町１８９番地,,24,202,5128065,,,,,,,2022-04-11,1,,,,,ワカショクワカヤマショクヒン,0
669,2200001039965,新規,0,2022-04-11,2022-04-11,株式会社ＭＰＨ,,株式会社,岐阜県,可児市,下恵土宮前５６１９番地２,,21,214,5090203,,,,,,,2022-04-11,1,,,,,エムピーエイチ,0
675,2210003001492,新規,0,2022-04-11,2022-04-11,合同会社ウェルマーチ,,合同会社,福井県,今立郡池田町,板垣第５３号１５番地,,18,382,9102527,,,,,,,2022-04-11,1,,,,,ウェルマーチ,0
676,2210005010021,新規,0,2022-04-11,2022-04-11,医療法人清遥会,,その他の設立登記法人,福井県,福井市,開発２丁目１３０７番地,,18,201,9100842,,,,,,,2022-04-11,1,,,,,セイヨウカイ,0
691,2290001097146,新規,0,2022-04-11,2022-04-11,アグフル株式会社,,株式会社,福岡県,大牟田市,大字岩本２３０９,,40,202,8370913,,,,,,,2022-04-11,1,,,,,アグフル,0
692,2290003012375,新規,0,2022-04-11,2022-04-11,合同会社田島企画,,合同会社,福岡県,福岡市城南区,田島２丁目２６番３４号,,40,136,8140113,,,,,,,2022-04-11,1,,,,,タシマキカク,0
693,2290003012383,新規,0,2022-04-11,2022-04-11,合同会社ｌ’ａｎｄ,,合同会社,福岡県,福岡市南区,井尻３丁目２５番３１号ＹＭビル,,40,134,8111302,,,,,,,2022-04-11,1,,,,,ランド,0
695,2300001012879,新規,0,2022-04-11,2022-04-11,株式会社三角州,,株式会社,佐賀県,佐賀市,川副町大字大詫間３０１５番地,,41,201,8402211,,,,,,,2022-04-11,1,,,,,サンカクス,0
706,2340001024648,新規,0,2022-04-11,2022-04-11,株式会社サツマワークス,,株式会社,鹿児島県,鹿児島市,南新町２７番４７号,,46,201,8900085,,,,,,,2022-04-11,1,,,,,サツマワークス,0
707,2340005009447,新規,0,2022-04-11,2022-04-11,一般社団法人ＪＵＭＩ　Ｃｏｒｐｏｒａｔｉｏｎ,,その他の設立登記法人,鹿児島県,枕崎市,港町８１番地,,46,204,8980004,,,,,,,2022-04-11,1,,,,,ジュミコーポレーション,0
709,2360001030198,新規,0,2022-04-11,2022-04-11,株式会社フェザー,,株式会社,沖縄県,沖縄市,中央１丁目３２番１７号,,47,211,9040004,,,,,,,2022-04-11,1,,,,,フェザー,0
710,2360001030207,新規,0,2022-04-11,2022-04-11,ＴＲＵＳＳ株式会社,,株式会社,沖縄県,宜野湾市,伊佐３丁目１５番１２号,,47,205,9012221,,,,,,,2022-04-11,1,,,,,トラス,0
711,2360001030223,新規,0,2022-04-11,2022-04-11,株式会社ＮＤＴ沖縄,,株式会社,沖縄県,うるま市,与那城平安座１１３７番地１,,47,213,9042426,,,,,,,2022-04-11,1,,,,,エヌディティオキナワ,0
712,2360003011915,新規,0,2022-04-11,2022-04-11,合同会社あだお,,合同会社,沖縄県,石垣市,字新川２３５７番地２１７,,47,207,9070024,,,,,,,2022-04-11,1,,,,,アダオ,0
713,2360005006632,新規,0,2022-04-11,2022-04-11,一般社団法人正道スマイリークラブ,,その他の設立登記法人,沖縄県,島尻郡南風原町,字兼城１３４番地（２階）,,47,350,9011111,,,,,,,2022-04-11,1,,,,,セイドウスマイリークラブ,0
714,2370005010468,新規,0,2022-04-11,2022-04-11,一般社団法人美来みやぎの,,その他の設立登記法人,宮城県,仙台市宮城野区,苦竹１丁目７番２５－４０７号,,04,102,9830036,,,,,,,2022-04-11,1,,,,,ミライミヤギノ,0
731,2420001017800,新規,0,2022-04-11,2022-04-11,株式会社タカ自動車,,株式会社,青森県,つがる市,富萢町藪分３４番地,00126223,02,209,0383301,,,,,,,2022-04-11,1,,,,,タカジドウシャ,0
734,2430001086365,新規,0,2022-04-11,2022-04-11,株式会社遠藤鋼業,,株式会社,北海道,室蘭市,日の出町２丁目２４番７－１０２号,,01,205,0500081,,,,,,,2022-04-11,1,,,,,エンドウコウギョウ,0
736,2430003013796,新規,0,2022-04-11,2022-04-11,合同会社カレブ,,合同会社,北海道,札幌市手稲区,前田五条９丁目５番１３号,,01,109,0060815,,,,,,,2022-04-11,1,,,,,カレブ,0
753,2490001010154,新規,0,2022-04-11,2022-04-11,株式会社ＴＨＥＴＡ,,株式会社,高知県,高知市,若松町２１９番地８シュエットＢ,,39,201,7810812,,,,,,,2022-04-11,1,,,,,シータ,0
754,2500003002809,新規,0,2022-04-11,2022-04-11,合同会社Ｖａｌｏｕｒ　Ｓｕｎ,,合同会社,愛媛県,西条市,飯岡３８１番地１０７,,38,206,7930010,,,,,,,2022-04-11,1,,,,,ベイラーサン,0
758,2700150107844,新規,0,2022-04-11,2022-04-11,ＯＳＡＫＡ　ＳＡＨＡＮ　ＩＮＴＥＲＮＡＴＩＯＮＡＬ　ＴＲＡＤＥＲＳ　ＰＲＩＶＡＴＥ　ＬＩＭＩＴＥＤ,,外国会社等,千葉県,匝瑳市,高野９０９－９１０－１－３,,12,235,2892135,スリランカ民主社会主義共和国、ヒリワドゥンナ、コロンガラ、トゥトゥティリヘナワラワッタ、Ｎｏ．Ｂ／３６／５,,,,,,2022-04-11,1,,,,,オオサカサハンインターナシヨナルトレーダーズプライベートリミテツド,0
765,3010001225872,新規,0,2022-04-11,2022-04-11,株式会社ＦＲＥＥＣ,,株式会社,東京都,中央区,銀座１丁目２２番１１号銀座大竹ビジデンス２階,,13,102,1040061,,,,,,,2022-04-11,1,,,,,フリーク,0
772,3010003037440,新規,0,2022-04-11,2022-04-11,ジェイコアレジ６合同会社７,,合同会社,東京都,千代田区,丸の内３丁目１番１号東京共同会計事務所内,,13,101,1000005,,,,,,,2022-04-11,1,,,,,ジェイコアレジシックスナナ,0
773,3010003037449,新規,0,2022-04-11,2022-04-11,ジェイコアレジ６合同会社１６,,合同会社,東京都,千代田区,丸の内３丁目１番１号東京共同会計事務所内,,13,101,1000005,,,,,,,2022-04-11,1,,,,,ジェイコアレジシックスイチロク,0
774,3010003037473,新規,0,2022-04-11,2022-04-11,Ｈｅａｌｔｈ　Ｅｘｐｅｒｔｓ　Ａｌｌｉａｎｃｅ合同会社,,合同会社,東京都,千代田区,丸の内１丁目８番３号丸の内トラストタワー本館２０階,,13,101,1000005,,,,,,,2022-04-11,1,,,,,ヘルスエキスパーツアライアンス,0
779,3010005034816,新規,0,2022-04-11,2022-04-11,司法書士法人サニーサイド,,その他の設立登記法人,東京都,千代田区,神田淡路町１丁目９番地７,,13,101,1010063,,,,,,,2022-04-11,1,,,,,サニーサイド,0
780,3010005034840,新規,0,2022-04-11,2022-04-11,エイグ２一般社団法人,,その他の設立登記法人,東京都,中央区,日本橋１丁目４番１号日本橋一丁目ビルディング,,13,102,1030027,,,,,,,2022-04-11,1,,,,,エイグニ,0
783,3010401166683,新規,0,2022-04-11,2022-04-11,株式会社ティッカートーク,,株式会社,東京都,港区,芝４丁目７番６号芝ビルディング７０４,,13,103,1080014,,,,,,,2022-04-11,1,,,,,ティッカートーク,0
784,3010401166709,新規,0,2022-04-11,2022-04-11,株式会社アヴェークプラス,,株式会社,東京都,港区,南麻布５丁目１２－１６アリスガワハウス２０１,,13,103,1060047,,,,,,,2022-04-11,1,,,,,アヴェークプラス,0
785,3010401166725,新規,0,2022-04-11,2022-04-11,株式会社ＳＰＥＳ,,株式会社,東京都,港区,赤坂２丁目１６番６号,,13,103,1070052,,,,,,,2022-04-11,1,,,,,スペス,0
786,3010401166741,新規,0,2022-04-11,2022-04-11,株式会社松澤ホールディングス,,株式会社,東京都,港区,西新橋１丁目１７番１１号新橋東栄ビル６階,,13,103,1050003,,,,,,,2022-04-11,1,,,,,マツザワホールディングス,0
787,3010401166758,新規,0,2022-04-11,2022-04-11,ポリマーテクノロジー株式会社,,株式会社,東京都,港区,六本木２丁目３番８号４Ｆ,,13,103,1060032,,,,,,,2022-04-11,1,,,,,ポリマーテクノロジー,0
788,3010403027470,新規,0,2022-04-11,2022-04-11,合同会社Ｈａｓｈ静岡呉服町,,合同会社,東京都,港区,元赤坂１丁目１番８号赤坂コミュニティビル４階,,13,103,1070051,,,,,,,2022-04-11,1,,,,,ハッシュシズオカゴフクチョウ,0
789,3010403027479,新規,0,2022-04-11,2022-04-11,ＴＢＳ・ＪＮＮ　ＮＥＷＳ　ＤＩＧ合同会社,,合同会社,東京都,港区,赤坂５丁目３番６号,,13,103,1070052,,,,,,,2022-04-11,1,,,,,ティービーエスジェイエヌエヌニュースディグ,0
796,3010603009483,新規,0,2022-04-11,2022-04-11,クラブハウス合同会社,,合同会社,東京都,江東区,清澄１丁目３番１号,,13,108,1350024,,,,,,,2022-04-11,1,,,,,クラブハウス,0
801,3010701042485,新規,0,2022-04-11,2022-04-11,株式会社ＦＢＤゼロ,,株式会社,東京都,品川区,荏原１丁目５番２０号（株）北斗製作所３０１,,13,109,1420063,,,,,,,2022-04-11,1,,,,,エフビーディーゼロ,0
809,3010901050643,新規,0,2022-04-11,2022-04-11,株式会社ＸＬ,,株式会社,東京都,世田谷区,代田６丁目８番２６号サニープレイス代田２０３,,13,112,1550033,,,,,,,2022-04-11,1,,,,,エックスエル,0
810,3010901050684,新規,0,2022-04-11,2022-04-11,株式会社Ｇｅｎ．,,株式会社,東京都,世田谷区,東玉川１丁目６番１１号,,13,112,1580084,,,,,,,2022-04-11,1,,,,,ゲンテン,0
811,3010903007278,新規,0,2022-04-11,2022-04-11,合同会社スウィッシュ,,合同会社,東京都,世田谷区,船橋３丁目２１番１－６１２号,,13,112,1560055,,,,,,,2022-04-11,1,,,,,スウィッシュ,0
812,3010903007294,新規,0,2022-04-11,2022-04-11,Ｙｅｕｘ合同会社,,合同会社,東京都,世田谷区,玉川２丁目２８－７パレ二子玉川５０９,,13,112,1580094,,,,,,,2022-04-11,1,,,,,イユ,0
817,3011001146712,新規,0,2022-04-11,2022-04-11,株式会社モソモソ,,株式会社,東京都,渋谷区,神宮前６丁目２３番４号,,13,113,1500001,,,,,,,2022-04-11,1,,,,,モソモソ,0
818,3011001146811,新規,0,2022-04-11,2022-04-11,株式会社Ｉｎｔｅｒｒｕｄｅ,,株式会社,東京都,渋谷区,神宮前６丁目２３番４号桑野ビル２Ｆ,,13,113,1500001,,,,,,,2022-04-11,1,,,,,インタールード,0
819,3011001146828,新規,0,2022-04-11,2022-04-11,株式会社プロセスデザインエデュケーション,,株式会社,東京都,渋谷区,桜丘町２６番１号セルリアンタワー１５Ｆ,,13,113,1500031,,,,,,,2022-04-11,1,,,,,プロセスデザインエデュケーション,0
820,3011001146836,新規,0,2022-04-11,2022-04-11,社長チップス株式会社,,株式会社,東京都,渋谷区,千駄ヶ谷３丁目１７番１１号,,13,113,1510051,,,,,,,2022-04-11,1,,,,,シャチョウチップス,0
821,3011001146852,新規,0,2022-04-11,2022-04-11,株式会社ＡＴＴＲＡＣＴ　ＪＡＰＡＮ,,株式会社,東京都,渋谷区,円山町５番４号フィールＡ２０６,,13,113,1500044,,,,,,,2022-04-11,1,,,,,アトラクトジャパン,0
822,3011001146860,新規,0,2022-04-11,2022-04-11,株式会社ＭＳアセットマネジメント,,株式会社,東京都,目黒区,中根１丁目２１番１２号,,13,110,1520031,,,,,,,2022-04-11,1,,,,,エムエスアセットマネジメント,0
824,3011003014479,新規,0,2022-04-11,2022-04-11,合同会社新しい箱,,合同会社,東京都,渋谷区,道玄坂１丁目１０番８号渋谷道玄坂東急ビル２Ｆ－Ｃ,,13,113,1500043,,,,,,,2022-04-11,1,,,,,アタラシイハコ,0
825,3011003014495,新規,0,2022-04-11,2022-04-11,ウィズアーク合同会社,,合同会社,東京都,渋谷区,渋谷２丁目１９番１５号,,13,113,1500002,,,,,,,2022-04-11,1,,,,,ウィズアーク,0
826,3011005009535,新規,0,2022-04-11,2022-04-11,一般社団法人全国遺品整理業協会,,その他の設立登記法人,東京都,渋谷区,渋谷２丁目２番５号クルクスビル６階,,13,113,1500002,,,,,,,2022-04-11,1,,,,,ゼンコクイヒンセイリギョウキョウカイ,0
830,3011101098449,新規,0,2022-04-11,2022-04-11,全研ケア株式会社,,株式会社,東京都,新宿区,西新宿６丁目１８番１号住友不動産新宿セントラルパークタワー,,13,104,1600023,,,,,,,2022-04-11,1,,,,,ゼンケンケア,0
834,3011103011657,新規,0,2022-04-11,2022-04-11,ＭＩＬＩＯＮ合同会社,,合同会社,東京都,新宿区,弁天町１５０番地牛込中央マンション２０６,,13,104,1620851,,,,,,,2022-04-11,1,,,,,ミライオン,0
841,3011401024154,新規,0,2022-04-11,2022-04-11,コーシン・メタ株式会社,,株式会社,東京都,板橋区,板橋２丁目２８番８号コーシンビル３Ｆ,,13,119,1730004,,,,,,,2022-04-11,1,,,,,コーシンメタ,0
846,3011603003567,新規,0,2022-04-11,2022-04-11,合同会社新拓,,合同会社,東京都,練馬区,関町北２丁目２３番１１号キャニオンマンション武蔵関７０２,,13,120,1770051,,,,,,,2022-04-11,1,,,,,アラタク,0
849,3011701025190,新規,0,2022-04-11,2022-04-11,株式会社サンマルティーノ東麻布,,株式会社,東京都,江戸川区,船堀６丁目１１番２５－１０１号,,13,123,1340091,,,,,,,2022-04-11,1,,,,,サンマルティーノヒガシアザブ,0
850,3011701025216,新規,0,2022-04-11,2022-04-11,株式会社游Ｂｅ,,株式会社,東京都,江戸川区,一之江３丁目８番６号ブリリアント・アイＩＩ２０３,00126240,13,123,1320024,,,,,,,2022-04-11,1,,,,,アソビ,0
856,3011803005041,新規,0,2022-04-11,2022-04-11,エタンセルエンタテインメント合同会社,,合同会社,東京都,足立区,小台２丁目５番地１号１１０３号,,13,121,1200046,,,,,,,2022-04-11,1,,,,,エタンセルエンタテインメント,0
857,3012301012942,新規,0,2022-04-11,2022-04-11,株式会社みやのもり,,株式会社,東京都,町田市,根岸町１００８番地３２,,13,209,1940034,,,,,,,2022-04-11,1,,,,,ミヤノモリ,0
858,3012305001999,新規,0,2022-04-11,2022-04-11,一般社団法人桜美林大学校友会,,その他の設立登記法人,東京都,町田市,常盤町３７５８番地,,13,209,1940213,,,,,,,2022-04-11,1,,,,,オウビリンダイガクコウユウカイ,0
862,3012701017013,新規,0,2022-04-11,2022-04-11,株式会社リコストーリー,,株式会社,東京都,小平市,中島町２６番１７－１０１号,,13,211,1870033,,,,,,,2022-04-11,1,,,,,リコストーリー,0
873,3013301048902,新規,0,2022-04-11,2022-04-11,ＳＡＩＴＯ＆パートナーズ株式会社,,株式会社,東京都,豊島区,千川１丁目５番１号,,13,116,1710041,,,,,,,2022-04-11,1,,,,,サイトウアンドパートナーズ,0
875,3013303006107,新規,0,2022-04-11,2022-04-11,Ｎｏｒｔｈ　Ｓｕｎ合同会社,,合同会社,東京都,豊島区,南大塚３丁目３６番７号Ｔ＆Ｔビル６階,,13,116,1700005,,,,,,,2022-04-11,1,,,,,ノースサン,0
883,3020001146044,新規,0,2022-04-11,2022-04-11,ＥＣテックジャパン株式会社,,株式会社,神奈川県,横浜市港北区,新横浜１丁目３番地１新横浜アーバンスクエア３０３,,14,109,2220033,,,,,,,2022-04-11,1,,,,,イーシーテックジャパン,0
884,3020001146052,新規,0,2022-04-11,2022-04-11,株式会社ハイベルク,,株式会社,神奈川県,横浜市西区,紅葉ケ丘１番地１ー２ー５０５号,,14,103,2200044,,,,,,,2022-04-11,1,,,,,ハイベルク,0
886,3020003021559,新規,0,2022-04-11,2022-04-11,Ｂｅｔｔｅｒ　Ｂｕｓｉｎｅｓｓ，Ｌｉｆｅ＆ｔｈｅ　Ｗｏｒｌｄ合同会社,,合同会社,神奈川県,川崎市麻生区,栗木１丁目九番十七号,,14,137,2150033,,,,,,,2022-04-11,1,,,,,ベタービジネスライフアンドザワールド,0
887,3020003021567,新規,0,2022-04-11,2022-04-11,合同会社パングル,,合同会社,神奈川県,川崎市高津区,梶ケ谷２丁目１１番地１ヴィークコート梶ヶ谷２０９,,14,134,2130015,,,,,,,2022-04-11,1,,,,,パングル,0
888,3020003021575,新規,0,2022-04-11,2022-04-11,合同会社Ｍフルーツ,,合同会社,神奈川県,横浜市保土ケ谷区,坂本町２０５番地１２４,,14,106,2400043,,,,,,,2022-04-11,1,,,,,エムフルーツ,0
894,3021001075613,新規,0,2022-04-11,2022-04-11,株式会社Ｒｅｓｐｅｋｔ　Ｈｏｌｄｉｎｇｓ,,株式会社,神奈川県,横須賀市,久里浜１丁目２０００番地,,14,201,2390831,,,,,,,2022-04-11,1,,,,,レスペクトホールディングス,0
895,3021001075654,新規,0,2022-04-11,2022-04-11,株式会社茅ヶ崎香料,,株式会社,神奈川県,茅ヶ崎市,浜之郷１１８４番地６１,,14,207,2530086,,,,,,,2022-04-11,1,,,,,チガサキコウリョウ,0
896,3021001075687,新規,0,2022-04-11,2022-04-11,株式会社リーフキャスト,,株式会社,神奈川県,相模原市中央区,相模原１丁目２番５号好月堂ビル２Ｆ,,14,152,2520231,,,,,,,2022-04-11,1,,,,,リーフキャスト,0
907,3030001147685,新規,0,2022-04-11,2022-04-11,株式会社エコーズ,,株式会社,埼玉県,春日部市,藤塚２４９番地７,,11,214,3440011,,,,,,,2022-04-11,1,,,,,エコーズ,0
909,3030003019172,新規,0,2022-04-11,2022-04-11,合同会社嶋商,,合同会社,埼玉県,比企郡鳩山町,大字赤沼１６００番地,,11,348,3500321,,,,,,,2022-04-11,1,,,,,シマショウ,0
911,3030005020789,新規,0,2022-04-11,2022-04-11,社会保険労務士法人Ｆｏｒ　ｔｈｅ　ｏｔｈｅｒｓ,,その他の設立登記法人,埼玉県,さいたま市浦和区,仲町２丁目９番６号加来ビル４０３,,11,107,3300062,,,,,,,2022-04-11,1,,,,,フォーディアザーズ,0
912,3030005020797,新規,0,2022-04-11,2022-04-11,一般社団法人埼玉県域再生可能エネルギー推進機構,,その他の設立登記法人,埼玉県,川越市,氷川町３０番地１,,11,201,3500851,,,,,,,2022-04-11,1,,,,,サイタマケンイキサイセイカノウエネルギースイシンキコウ,0
916,3040001122836,新規,0,2022-04-11,2022-04-11,維昭精密株式会社,,株式会社,千葉県,流山市,大字中野久木４６１番地の６,,12,220,2700116,,,,,,,2022-04-11,1,,,,,イショウセイミツ,0
917,3040001122943,新規,0,2022-04-11,2022-04-11,株式会社優ホーム,,株式会社,千葉県,松戸市,南花島３丁目５２番地の１９,,12,207,2710065,,,,,,,2022-04-11,1,,,,,ユウホーム,0
918,3040003019816,新規,0,2022-04-11,2022-04-11,合同会社みそら商店,,合同会社,千葉県,四街道市,みそら２丁目４番１１号,,12,228,2840023,,,,,,,2022-04-11,1,,,,,ミソラショウテン,0
919,3040003019849,新規,0,2022-04-11,2022-04-11,ワールド・コネクト・イノベーション合同会社,,合同会社,千葉県,印西市,西の原４丁目４番地４８,,12,231,2701334,,,,,,,2022-04-11,1,,,,,ワールドコネクトイノベーション,0
920,3040003019865,新規,0,2022-04-11,2022-04-11,５９３４合同会社,,合同会社,千葉県,市川市,八幡５丁目９番３４号,,12,203,2720021,,,,,,,2022-04-11,1,,,,,ゴキュサンヨン,0
925,3050001050904,新規,0,2022-04-11,2022-04-11,株式会社ＢＲＯＴＨＥＲＳ　ＴＲＡＤＩＮＧ,,株式会社,茨城県,猿島郡五霞町,大字冬木３１１３番地２,,08,542,3060305,,,,,,,2022-04-11,1,,,,,ブラザーズトレーディング,0
926,3050001050912,新規,0,2022-04-11,2022-04-11,株式会社ＳＥＫＩＮＥ,,株式会社,茨城県,土浦市,真鍋町六丁目１番１４号,,08,203,3000051,,,,,,,2022-04-11,1,,,,,セキネ,0
927,3050001050937,新規,0,2022-04-11,2022-04-11,株式会社一工業,,株式会社,茨城県,つくば市,田倉４７３３番地６,,08,220,3002615,,,,,,,2022-04-11,1,,,,,イチコウギョウ,0
931,3060001034749,新規,0,2022-04-11,2022-04-11,ニットーケミカル株式会社,,株式会社,栃木県,宇都宮市,下砥上町１５０６番地１０,,09,201,3200852,,,,,,,2022-04-11,1,,,,,ニットーケミカル,0
932,3070005009977,新規,0,2022-04-11,2022-04-11,一般社団法人とりのはね,,その他の設立登記法人,群馬県,太田市,藪塚町３９４９番地１,,10,205,3792301,,,,,,,2022-04-11,1,,,,,トリノハネ,0
938,3080401025742,新規,0,2022-04-11,2022-04-11,イーエス工業株式会社,,株式会社,静岡県,浜松市西区,西山町１８４３－１５,,22,133,4328001,,,,,,,2022-04-11,1,,,,,イーエスコウギョウ,0
940,3080403004513,新規,0,2022-04-11,2022-04-11,合同会社ベターザン,,合同会社,静岡県,浜松市天竜区,二俣町鹿島１９５番地の７,,22,137,4313313,,,,,,,2022-04-11,1,,,,,ベターザン,0
946,3110001036574,新規,0,2022-04-11,2022-04-11,株式会社たかはし住宅設計事務所,,株式会社,新潟県,新潟市中央区,京王２丁目１４番１３号,,15,103,9500921,,,,,,,2022-04-11,1,,,,,タカハシジュウタクセッケイジムショ,0
967,3120001245133,新規,0,2022-04-11,2022-04-11,株式会社チーム,,株式会社,大阪府,大阪市中央区,南本町３丁目２番２号,,27,128,5410054,,,,,,,2022-04-11,1,,,,,チーム,0
968,3120001245141,新規,0,2022-04-11,2022-04-11,センターハウス電工株式会社,,株式会社,大阪府,交野市,妙見東４丁目１番２３号,,27,230,5760012,,,,,,,2022-04-11,1,,,,,センターハウスデンコウ,0
974,3120005022891,新規,0,2022-04-11,2022-04-11,ＧＴＮ協同組合,,その他の設立登記法人,大阪府,大阪市天王寺区,上本町６丁目９番１９号,,27,109,5430001,,,,,,,2022-04-11,1,,,,,ジーティーエヌ,0
981,3120901045797,新規,0,2022-04-11,2022-04-11,株式会社モイヨンデザインワークス,,株式会社,大阪府,高槻市,南芥川町８番１－２１４号,,27,207,5691124,,,,,,,2022-04-11,1,,,,,モイヨンデザインワークス,0
983,3120905006309,新規,0,2022-04-11,2022-04-11,特定非営利活動法人主婦キャリア,,その他の設立登記法人,大阪府,茨木市,豊原町９番７１１号,,27,211,5670053,,,,,,,2022-04-11,1,,,,,シュフキャリア,0
985,3122001035720,新規,0,2022-04-11,2022-04-11,株式会社トップクラス,,株式会社,大阪府,八尾市,南植松町５丁目１８２－４Ｆ,,27,212,5810091,,,,,,,2022-04-11,1,,,,,トップクラス,0
986,3122001035753,新規,0,2022-04-11,2022-04-11,株式会社おりーぶ,,株式会社,大阪府,東大阪市,足代２丁目３－６橋本ビル５Ｆ－Ａ,,27,227,5770841,,,,,,,2022-04-11,1,,,,,オリーブ,0
990,3130001071454,新規,0,2022-04-11,2022-04-11,株式会社草刈本舗,,株式会社,京都府,京丹後市,峰山町矢田１３７５番地,,26,212,6270002,,,,,,,2022-04-11,1,,,,,クサカリホンポ,0
991,3130001071495,新規,0,2022-04-11,2022-04-11,ＭＥＭＯ株式会社,,株式会社,京都府,京都市下京区,寺町通松原下る植松町７１４番地,,26,106,6008028,,,,,,,2022-04-11,1,,,,,メモ,0
992,3130001071504,新規,0,2022-04-11,2022-04-11,株式会社フレグラン事務所,,株式会社,京都府,京都市北区,小山下総町４１番地,,26,101,6038151,,,,,,,2022-04-11,1,,,,,フレグランジムショ,0
994,3130003007852,新規,0,2022-04-11,2022-04-11,大北電気設備合資会社,,合資会社,京都府,京田辺市,同志社山手２丁目３番地１３４,,26,211,6100315,,,,,,,2022-04-11,1,,,,,オオキタデンキセツビ,0
1003,3140001125473,新規,0,2022-04-11,2022-04-11,西明石カウンセリングオフィス株式会社,,株式会社,兵庫県,明石市,和坂１４番地の５－３０３,,28,203,6730012,,,,,,,2022-04-11,1,,,,,ニシアカシカウンセリングオフィス,0
1004,3140001125572,新規,0,2022-04-11,2022-04-11,クルーエンス株式会社,,株式会社,兵庫県,西宮市,鷲林寺１丁目８番１７号,,28,204,6620004,,,,,,,2022-04-11,1,,,,,クルーエンス,0
1012,3160001024112,新規,0,2022-04-11,2022-04-11,株式会社小寺電設,,株式会社,滋賀県,東近江市,北菩提寺町７０５番地１,,25,213,5270138,,,,,,,2022-04-11,1,,,,,コテラデンセツ,0
1020,3180001150724,新規,0,2022-04-11,2022-04-11,株式会社ハナイＨＤ,,株式会社,愛知県,名古屋市中区,富士見町１２番１号,,23,106,4600014,,,,,,,2022-04-11,1,,,,,ハナイエイチディー,0
1021,3180001150781,新規,0,2022-04-11,2022-04-11,株式会社ＨＩＫＯＮＩＲＡ,,株式会社,愛知県,小牧市,桜井３９番地,,23,219,4850042,,,,,,,2022-04-11,1,,,,,ヒコニラ,0
1022,3180001150798,新規,0,2022-04-11,2022-04-11,株式会社グッジョブ,,株式会社,愛知県,常滑市,金山字石田２６番地の４,,23,216,4790003,,,,,,,2022-04-11,1,,,,,グッジョブ,0
1023,3180001150815,新規,0,2022-04-11,2022-04-11,コミュニケイト株式会社,,株式会社,愛知県,名古屋市東区,東桜２丁目９番３４号成田ビル１階,,23,102,4610005,,,,,,,2022-04-11,1,,,,,コミュニケイト,0
1024,3180001150823,新規,0,2022-04-11,2022-04-11,株式会社ＳＴプロジェクト,,株式会社,愛知県,名古屋市緑区,古鳴海１丁目２３０番地の３,,23,114,4580047,,,,,,,2022-04-11,1,,,,,エスティプロジェクト,0
1025,3180001150856,新規,0,2022-04-11,2022-04-11,株式会社Ｒｅｐｌｕｓ,,株式会社,愛知県,名古屋市中川区,小本本町３丁目４０番地ファミリアーレ荒子６０４号,,23,110,4540826,,,,,,,2022-04-11,1,,,,,リプラス,0
1026,3180001150864,新規,0,2022-04-11,2022-04-11,株式会社テクスコム,,株式会社,愛知県,名古屋市千種区,今池２丁目１番１６号,,23,101,4640850,,,,,,,2022-04-11,1,,,,,テクスコム,0
1029,3180003023548,新規,0,2022-04-11,2022-04-11,コミットベース合同会社,,合同会社,愛知県,名古屋市西区,那古野２丁目１４番１号なごのキャンパス３－９,,23,104,4510042,,,,,,,2022-04-11,1,,,,,コミットベース,0
1033,3180305009328,新規,0,2022-04-11,2022-04-11,一般社団法人このき,,その他の設立登記法人,愛知県,豊田市,下市場町８丁目３８番地２,,23,211,4710875,,,,,,,2022-04-11,1,,,,,コノキ,0
1036,3190001029281,新規,0,2022-04-11,2022-04-11,サヤキッチンインターナショナル株式会社,,株式会社,三重県,いなべ市,北勢町阿下喜１９５番地３,,24,214,5110428,,,,,,,2022-04-11,1,,,,,サヤキッチンインターナショナル,0
1037,3190001029315,新規,0,2022-04-11,2022-04-11,イナバ調査設計株式会社,,株式会社,三重県,松阪市,大津町１０３５番地１８,,24,204,5150031,,,,,,,2022-04-11,1,,,,,イナバチョウサセッケイ,0
1039,3190003003953,新規,0,2022-04-11,2022-04-11,合同会社ロク,,合同会社,三重県,桑名市,参宮通５４番地２,,24,205,5110007,,,,,,,2022-04-11,1,,,,,ロク,0
1078,3330001029630,新規,0,2022-04-11,2022-04-11,ＳＧＳ株式会社,,株式会社,熊本県,熊本市北区,打越町４２番７号,,43,105,8600086,,,,,,,2022-04-11,1,,,,,エスジーエス,0
1084,3340001024647,新規,0,2022-04-11,2022-04-11,キリシマギルド株式会社,,株式会社,鹿児島県,霧島市,国分中央２丁目１６番１２号,,46,218,8994332,,,,,,,2022-04-11,1,,,,,キリシマギルド,0
1085,3340003003756,新規,0,2022-04-11,2022-04-11,合同会社鹿屋管理,,合同会社,鹿児島県,鹿屋市,笠之原町１９３０番地１,,46,203,8930023,,,,,,,2022-04-11,1,,,,,カノヤカンリ,0
1087,3350001017699,新規,0,2022-04-11,2022-04-11,株式会社シャインピュア,,株式会社,宮崎県,宮崎市,大坪東３丁目１１番１０号,,45,201,8800934,,,,,,,2022-04-11,1,,,,,シャインピュア,0
1091,3360001030214,新規,0,2022-04-11,2022-04-11,株式会社広光建設,,株式会社,沖縄県,宮古島市,平良字下里５１０番地７,,47,214,9060013,,,,,,,2022-04-11,1,,,,,ヒロミツケンセツ,0
1092,3360001030222,新規,0,2022-04-11,2022-04-11,トリアエズ株式会社,,株式会社,沖縄県,浦添市,伊祖５丁目３番１５号,,47,208,9012132,,,,,,,2022-04-11,1,,,,,トリアエズ,0
1094,3370001048412,新規,0,2022-04-11,2022-04-11,株式会社タカヤマ,,株式会社,宮城県,岩沼市,桑原２丁目３番３号,,04,211,9892445,,,,,,,2022-04-11,1,,,,,タカヤマ,0
1095,3370001048420,新規,0,2022-04-11,2022-04-11,株式会社ＢＥＳＴ,,株式会社,宮城県,塩竈市,海岸通４番１３号本塩釜駅前ビル３０１号,,04,203,9850002,,,,,,,2022-04-11,1,,,,,ベスト,0
1096,3370001048429,新規,0,2022-04-11,2022-04-11,株式会社みやぎ登米開発,,株式会社,宮城県,登米市,東和町米谷字福平３３番地２,,04,212,9870902,,,,,,,2022-04-11,1,,,,,ミヤギトメカイハツ,0
1097,3370003005650,新規,0,2022-04-11,2022-04-11,合同会社ＣＡＥ,,合同会社,宮城県,気仙沼市,岩月宝ヶ沢３２,,04,205,9880207,,,,,,,2022-04-11,1,,,,,シーエーイー,0
1109,3390003001945,新規,0,2022-04-11,2022-04-11,兵藤建築合同会社,,合同会社,山形県,酒田市,宮野浦２丁目１０番２０号,,06,204,9980054,,,,,,,2022-04-11,1,,,,,ヒョウドウケンチク,0
1113,3410005006460,新規,0,2022-04-11,2022-04-11,一般社団法人秋田市手をつなぐ育成会,,その他の設立登記法人,秋田県,秋田市,将軍野青山町１番４３号,,05,201,0110932,,,,,,,2022-04-11,1,,,,,アキタシテヲツナグイクセイカイ,0
1114,3420003002493,新規,0,2022-04-11,2022-04-11,村上住建合同会社,,合同会社,青森県,黒石市,大字上十川字大野七番１番地３,,02,204,0360323,,,,,,,2022-04-11,1,,,,,ムラカミジュウケン,0
1125,3450001013671,新規,0,2022-04-11,2022-04-11,加藤塗建株式会社,,株式会社,北海道,上川郡東神楽町,北二条東２丁目４番３号,,01,453,0711514,,,,,,,2022-04-11,1,,,,,カトウトケン,0
1128,3470001019031,新規,0,2022-04-11,2022-04-11,株式会社ＰＯＬＩＴＥＮＥＳＳ,,株式会社,香川県,高松市,桜町１丁目１６番地１９,,37,201,7600074,,,,,,,2022-04-11,1,,,,,ポライトネス,0
1138,3700150107843,新規,0,2022-04-11,2022-04-11,ＮＥＸＷＡＲＥ　ＴＥＣＨＮＯＬＯＧＩＥＳ　ＰＲＩＶＡＴＥ　ＬＩＭＩＴＥＤ,,外国会社等,東京都,江戸川区,北葛西１丁目２４番１８号,,13,123,1340081,インド共和国タミールナードゥ州チェンナイ市シタラパカム、カマーラッジアヴェニュー、ブロックＡ、アムダスクエア、Ｓ２、２階１６１＆１６２,,,,,,2022-04-11,1,,,,,ネクスウエアテクノロジーズプライベートリミテツド,0
1150,4010001225707,新規,0,2022-04-11,2022-04-11,株式会社ＭＥＳＨ,,株式会社,東京都,中央区,日本橋室町２丁目３番１号コレド室町２地下１階Ｂ０４,,13,102,1030022,,,,,,,2022-04-11,1,,,,,メッシュ,0
1151,4010001225715,新規,0,2022-04-11,2022-04-11,株式会社ＳＭＢＣファミリーワークス,,株式会社,東京都,千代田区,丸の内１丁目３番２号,,13,101,1000005,,,,,,,2022-04-11,1,,,,,エスエムビーシーファミリーワークス,0
1152,4010001225756,新規,0,2022-04-11,2022-04-11,株式会社ＲＩＳＥ,,株式会社,東京都,中央区,銀座１丁目２２番１１号,,13,102,1040061,,,,,,,2022-04-11,1,,,,,ライズ,0
1153,4010003037407,新規,0,2022-04-11,2022-04-11,ＶａｎｔａｇｅＰｏｉｎｔ　Ｃｏｎｓｕｌｔｉｎｇ合同会社,,合同会社,東京都,中央区,勝どき１丁目１３－６プラザタワー勝どき２７１２,,13,102,1040054,,,,,,,2022-04-11,1,,,,,バンテージポイントコンサルティング,0
1154,4010003037415,新規,0,2022-04-11,2022-04-11,ＦＵＮａｇａｉｎ合同会社,,合同会社,東京都,文京区,千駄木３丁目４８番２号,,13,105,1130022,,,,,,,2022-04-11,1,,,,,ファンアゲイン,0
1155,4010003037431,新規,0,2022-04-11,2022-04-11,ＴＳ青森合同会社,,合同会社,東京都,千代田区,有楽町１丁目２番２号,,13,101,1000006,,,,,,,2022-04-11,1,,,,,ティーエスアオモリ,0
1156,4010003037448,新規,0,2022-04-11,2022-04-11,ジェイコアレジ６合同会社１５,,合同会社,東京都,千代田区,丸の内３丁目１番１号東京共同会計事務所内,,13,101,1000005,,,,,,,2022-04-11,1,,,,,ジェイコアレジシックスイチゴー,0
1158,4010005034815,新規,0,2022-04-11,2022-04-11,Ｏｎｅアカウンティング税理士法人,,その他の設立登記法人,東京都,中央区,日本橋本石町２丁目１番１号,,13,102,1030021,,,,,,,2022-04-11,1,,,,,ワンアカウンティング,0
1159,4010005034831,新規,0,2022-04-11,2022-04-11,一般社団法人ＫＫアソシエイツ,,その他の設立登記法人,東京都,文京区,本郷１丁目３０番２７－３０７号,,13,105,1130033,,,,,,,2022-04-11,1,,,,,ケイケイアソシエイツ,0
1167,4010401166674,新規,0,2022-04-11,2022-04-11,株式会社Ｏｎｅ　Ｐｏｗｅｒ,,株式会社,東京都,港区,三田３丁目４番１８号,,13,103,1080073,,,,,,,2022-04-11,1,,,,,ワンパワー,0
1168,4010401166682,新規,0,2022-04-11,2022-04-11,株式会社麻布ストア,,株式会社,東京都,港区,麻布十番１丁目２番７－７０１号ラフィネ麻布十番,,13,103,1060045,,,,,,,2022-04-11,1,,,,,アザブストア,0
1169,4010401166690,新規,0,2022-04-11,2022-04-11,株式会社ＴＯＭ・ホールディングス,,株式会社,東京都,港区,芝２丁目１０番６号ツカサビル５階,,13,103,1050014,,,,,,,2022-04-11,1,,,,,トムホールディングス,0
1170,4010401166716,新規,0,2022-04-11,2022-04-11,株式会社ＡＩ　ＧｌｏＡ,,株式会社,東京都,港区,南青山２丁目２番１５号ウィン青山９４２,,13,103,1070062,,,,,,,2022-04-11,1,,,,,エーアイグローア,0
1171,4010401166724,新規,0,2022-04-11,2022-04-11,ＫＩＳＡＩ　ＷＯＲＫＳ株式会社,,株式会社,東京都,港区,南青山２丁目２番１５号,,13,103,1070062,,,,,,,2022-04-11,1,,,,,キサイワークス,0
1172,4010401166732,新規,0,2022-04-11,2022-04-11,株式会社マーロンランド,,株式会社,東京都,港区,南青山５丁目６番２４号Ｂａｒｂｉｚｏｎ２３ＡＮＮＥＸ,,13,103,1070062,,,,,,,2022-04-11,1,,,,,マーロンランド,0
1173,4010403027429,新規,0,2022-04-11,2022-04-11,合同会社音楽で君を守る,,合同会社,東京都,港区,南青山２丁目２番１５号,,13,103,1070062,,,,,,,2022-04-11,1,,,,,オンガクデキミヲマモル,0
1174,4010503006563,新規,0,2022-04-11,2022-04-11,合同会社ＮＥＯ,,合同会社,東京都,台東区,上野２丁目１２番１５号ＹＫビル２階,,13,106,1100005,,,,,,,2022-04-11,1,,,,,ネオ,0
1179,4010601060925,新規,0,2022-04-11,2022-04-11,株式会社ＫＩＢＯ,,株式会社,東京都,江東区,猿江１丁目２３番９号１０１,,13,108,1350003,,,,,,,2022-04-11,1,,,,,キボウ,0
1185,4010701042476,新規,0,2022-04-11,2022-04-11,トリュフラボ株式会社,,株式会社,東京都,品川区,西大井４丁目１３番１２号,,13,109,1400015,,,,,,,2022-04-11,1,,,,,トリュフラボ,0
1186,4010701042492,新規,0,2022-04-11,2022-04-11,株式会社ＴｈｒｅｅＰｏｉｎｔ,,株式会社,東京都,品川区,西五反田２丁目４番６号ハイホーム五反田７０１号室,,13,109,1410031,,,,,,,2022-04-11,1,,,,,スリーポイント,0
1190,4010901050642,新規,0,2022-04-11,2022-04-11,株式会社Ｐｉｎｋ　Ｖａｎｇｕａｒｄ,,株式会社,東京都,世田谷区,上馬１丁目１０番４号,,13,112,1540011,,,,,,,2022-04-11,1,,,,,ピンクヴァンガード,0
1191,4010901050659,新規,0,2022-04-11,2022-04-11,株式会社ＷＡＮＤＥＲＢＯＷ,,株式会社,東京都,世田谷区,池尻３丁目１６－２９ミタケレジデンス１階,,13,112,1540001,,,,,,,2022-04-11,1,,,,,ワンダボー,0
1192,4010901050667,新規,0,2022-04-11,2022-04-11,株式会社ｉ　Ｂｅａｕｔｅ,,株式会社,東京都,世田谷区,弦巻４丁目２１番１－１０１号,,13,112,1540016,,,,,,,2022-04-11,1,,,,,アイボーテ,0
1194,4010903007293,新規,0,2022-04-11,2022-04-11,合同会社Ａｌｐｅｎｇｌｏｗ,,合同会社,東京都,世田谷区,駒沢３丁目１２番１７号ＫＯＭＡＺＡＷＡ－ＨＥＩＧＨＴＳ１０１,,13,112,1540012,,,,,,,2022-04-11,1,,,,,,0
1196,4011001146777,新規,0,2022-04-11,2022-04-11,エンキャリア株式会社,,株式会社,東京都,渋谷区,代々木１丁目４３番７号,,13,113,1510053,,,,,,,2022-04-11,1,,,,,エンキャリア,0
1197,4011001146802,新規,0,2022-04-11,2022-04-11,ｎｏｎ　ｍｅｒｉｄｉｅｍ株式会社,,株式会社,東京都,渋谷区,神宮前６丁目２３番４号桑野ビル２階,,13,113,1500001,,,,,,,2022-04-11,1,,,,,ノンメリディイム,0
1198,4011001146810,新規,0,2022-04-11,2022-04-11,ＧＮＯ株式会社,,株式会社,東京都,渋谷区,桜丘町２９番３６号,,13,113,1500031,,,,,,,2022-04-11,1,,,,,ジーエヌオー,0
1199,4011001146835,新規,0,2022-04-11,2022-04-11,株式会社Ｍ‐ｃｏｍｐａｎｙ,,株式会社,東京都,渋谷区,神宮前４丁目１７番１７号,,13,113,1500001,,,,,,,2022-04-11,1,,,,,エムカンパニー,0
1203,4011005009534,新規,0,2022-04-11,2022-04-11,一般社団法人グローバル・コネクター協会,,その他の設立登記法人,東京都,渋谷区,富ヶ谷１丁目１０番２号,,13,113,1510063,,,,,,,2022-04-11,1,,,,,グローバルコネクターキョウカイ,0
1207,4011101098464,新規,0,2022-04-11,2022-04-11,株式会社Ｌ．Ｔ．Ｓ,,株式会社,東京都,新宿区,西新宿３丁目３番１３号西新宿水間ビル６階,,13,104,1600023,,,,,,,2022-04-11,1,,,,,エルティーエス,0
1208,4011101098480,新規,0,2022-04-11,2022-04-11,株式会社ＡＸＬｉｎｋ,,株式会社,東京都,新宿区,大久保２丁目１－８－１１０５,,13,104,1690072,,,,,,,2022-04-11,1,,,,,アクセルリンク,0
1209,4011101098489,新規,0,2022-04-11,2022-04-11,株式会社フローレンス,,株式会社,東京都,新宿区,西新宿６丁目１５番１－１５０１号,,13,104,1600023,,,,,,,2022-04-11,1,,,,,,0
1210,4011101098506,新規,0,2022-04-11,2022-04-11,株式会社Ｊｕｎｑｔｉｏｎ,,株式会社,東京都,新宿区,下落合３丁目１７番４４号ドムス目白１０２,,13,104,1610033,,,,,,,2022-04-11,1,,,,,ジャンクション,0
1217,4011301027702,新規,0,2022-04-11,2022-04-11,株式会社Ｃｒａｎｅｓ,,株式会社,東京都,杉並区,阿佐谷北２丁目１３番４号,,13,115,1660001,,,,,,,2022-04-11,1,,,,,クレインズ,0
1232,4011801040551,新規,0,2022-04-11,2022-04-11,株式会社ＣｕｔＭａｎ,,株式会社,東京都,足立区,保木間５丁目２７番７号,,13,121,1210064,,,,,,,2022-04-11,1,,,,,カットマン,0
1233,4011803005040,新規,0,2022-04-11,2022-04-11,合同会社ヒカルメディア,,合同会社,東京都,葛飾区,新宿１丁目９－４レオネクスト１０４,,13,122,1250051,,,,,,,2022-04-11,1,,,,,ヒカルメディア,0
1235,4012401039059,新規,0,2022-04-11,2022-04-11,ＡｒＥｘ　Ｊａｐａｎ株式会社,,株式会社,東京都,小金井市,前原町１丁目６番１５号（１９）,,13,210,1840013,,,,,,,2022-04-11,1,,,,,アレックスジャパン,0
1236,4012401039083,新規,0,2022-04-11,2022-04-11,株式会社Ｔｏｕｒｓ,,株式会社,東京都,府中市,若松町４丁目２番５号,,13,206,1830005,,,,,,,2022-04-11,1,,,,,ツアーズ,0
1237,4012403005315,新規,0,2022-04-11,2022-04-11,合同会社ユリイカ,,合同会社,東京都,三鷹市,井の頭５丁目２０番２２号,,13,204,1810001,,,,,,,2022-04-11,1,,,,,ユリイカ,0
1252,4020001146019,新規,0,2022-04-11,2022-04-11,株式会社ラビット,,株式会社,神奈川県,横浜市南区,二葉町３丁目２８番２７号１０３,,14,105,2320026,,,,,,,2022-04-11,1,,,,,ラビット,0
1253,4020001146027,新規,0,2022-04-11,2022-04-11,ＲＥＷＡＴＩ株式会社,,株式会社,神奈川県,川崎市幸区,南幸町３丁目１２８メゾン妙諦１０１,,14,132,2120016,,,,,,,2022-04-11,1,,,,,リワティ,0
1254,4020001146035,新規,0,2022-04-11,2022-04-11,株式会社Ｋ．Ｎｅｔｗｏｒｋ,,株式会社,神奈川県,川崎市中原区,下新城３丁目１０－２０,,14,133,2110042,,,,,,,2022-04-11,1,,,,,ケイネットワーク,0
1255,4020001146043,新規,0,2022-04-11,2022-04-11,日本システム開発研究所株式会社,,株式会社,神奈川県,横浜市栄区,飯島町５７７番地の３４,,14,115,2440842,,,,,,,2022-04-11,1,,,,,ニホンシステムカイハツケンキュウジョ,0
1256,4020001146068,新規,0,2022-04-11,2022-04-11,カイシンホーム株式会社,,株式会社,神奈川県,横浜市南区,大岡４丁目１３番１－２１１,,14,105,2320061,,,,,,,2022-04-11,1,,,,,カイシンホーム,0
1257,4020001146076,新規,0,2022-04-11,2022-04-11,株式会社ＨＡＮＡ雪,,株式会社,神奈川県,横浜市旭区,東希望が丘７９番地１０,,14,112,2410826,,,,,,,2022-04-11,1,,,,,ハナユキ,0
1263,4020003021566,新規,0,2022-04-11,2022-04-11,合同会社八田政玄写真事務所,,合同会社,神奈川県,横浜市鶴見区,生麦３丁目１１番２０号東ビル２０１号,,14,101,2300052,,,,,,,2022-04-11,1,,,,,ハッタマサハルシャシンジムショ,0
1266,4021001075579,新規,0,2022-04-11,2022-04-11,大成商事株式会社,,株式会社,神奈川県,藤沢市,藤沢５８１番地コムーネ湘南藤沢５０３号,,14,205,2510052,,,,,,,2022-04-11,1,,,,,,0
1267,4021001075661,新規,0,2022-04-11,2022-04-11,株式会社ケイズエイト,,株式会社,神奈川県,相模原市中央区,淵野辺本町４丁目３６番１４号リブリＪバレル２０１,,14,152,2520202,,,,,,,2022-04-11,1,,,,,ケイズエイト,0
1268,4021001075678,新規,0,2022-04-11,2022-04-11,株式会社５ＳＥＮＳＥ,,株式会社,神奈川県,秦野市,曲松１丁目１番３号,,14,211,2591321,,,,,,,2022-04-11,1,,,,,ファイブセンス,0
1269,4021001075686,新規,0,2022-04-11,2022-04-11,株式会社ＳＵＮ　ＳＨＩＮＥ　ＴＲＡＤＩＮＧ,,株式会社,神奈川県,相模原市南区,磯部字勝坂４４８３番地１,,14,153,2520327,,,,,,,2022-04-11,1,,,,,,0
1270,4021001075694,新規,0,2022-04-11,2022-04-11,株式会社Ｔｅｒａｓｕ,,株式会社,神奈川県,大和市,中央４丁目１番２３号風の木ビル４階,,14,213,2420021,,,,,,,2022-04-11,1,,,,,テラス,0
1275,4021003011573,新規,0,2022-04-11,2022-04-11,ザ・トゥルーヘブン合同会社,,合同会社,神奈川県,茅ヶ崎市,浜見平１４番２－７０１号,,14,207,2530062,,,,,,,2022-04-11,1,,,,,ザトゥルーヘブン,0
1276,4021003011581,新規,0,2022-04-11,2022-04-11,合同会社秦野システム,,合同会社,神奈川県,藤沢市,本町２丁目７－１０,,14,205,2510053,,,,,,,2022-04-11,1,,,,,ハタノシステム,0
1284,4030001147528,新規,0,2022-04-11,2022-04-11,フローガ株式会社,,株式会社,埼玉県,鴻巣市,松原３丁目６番２２号,,11,217,3650042,,,,,,,2022-04-11,1,,,,,フローガ,0
1285,4030001147651,新規,0,2022-04-11,2022-04-11,株式会社ＭＳ．ＡＰ,,株式会社,埼玉県,八潮市,大字木曽根６５７番地５,,11,234,3400813,,,,,,,2022-04-11,1,,,,,エムエスエーピー,0
1286,4030001147684,新規,0,2022-04-11,2022-04-11,株式会社アイティースイフト,,株式会社,埼玉県,志木市,宗岡五丁目１２番３６号,,11,228,3530008,,,,,,,2022-04-11,1,,,,,アイティースイフト,0
1287,4030001147692,新規,0,2022-04-11,2022-04-11,株式会社小林工業,,株式会社,埼玉県,深谷市,武川２５６番地,,11,218,3691111,,,,,,,2022-04-11,1,,,,,コバヤシコウギョウ,0
1291,4030003019139,新規,0,2022-04-11,2022-04-11,ケムロウモニター合同会社,,合同会社,埼玉県,草加市,住吉２丁目１１番１０号,,11,221,3400014,,,,,,,2022-04-11,1,,,,,ケムロウモニター,0
1292,4030005020796,新規,0,2022-04-11,2022-04-11,医療法人健口会,,その他の設立登記法人,埼玉県,本庄市,朝日町３丁目７番３８号,,11,211,3670026,,,,,,,2022-04-11,1,,,,,ケンコウカイ,0
1299,4040001122934,新規,0,2022-04-11,2022-04-11,株式会社共栄,,株式会社,千葉県,千葉市花見川区,長作町１２８４,,12,102,2620044,,,,,,,2022-04-11,1,,,,,キョウエイ,0
1300,4040001122967,新規,0,2022-04-11,2022-04-11,株式会社瑞季,,株式会社,千葉県,松戸市,松戸１３１５番地の４写真館ビル２１３,,12,207,2710092,,,,,,,2022-04-11,1,,,,,ミヅキ,0
1301,4040001122975,新規,0,2022-04-11,2022-04-11,株式会社福永加工,,株式会社,千葉県,流山市,鰭ケ崎１１－９ＳＫＡ南流山３０２,,12,220,2700161,,,,,,,2022-04-11,1,,,,,フクナガカコウ,0
1306,4040003019848,新規,0,2022-04-11,2022-04-11,合同会社ＦＬＯＷＥＲ,,合同会社,千葉県,船橋市,本町１丁目８番２号,,12,204,2730005,,,,,,,2022-04-11,1,,,,,フラワー,0
1309,4040005021562,新規,0,2022-04-11,2022-04-11,一般社団法人フードロスゼロシステムズ,,その他の設立登記法人,千葉県,白井市,笹塚２丁目５番１棟１４１２号,,12,232,2701426,,,,,,,2022-04-11,1,,,,,フードロスゼロシステムズ,0
1318,4050005013047,新規,0,2022-04-11,2022-04-11,特定非営利活動法人取手文化倶楽部,,その他の設立登記法人,茨城県,取手市,西２丁目２番Ｇ－４１２号,,08,217,3020025,,,,,,,2022-04-11,1,,,,,トリデブンカクラブ,0
1319,4050005013055,新規,0,2022-04-11,2022-04-11,ＵＭＩ　ｏｆｆｉｃｅ社会保険労務士法人,,その他の設立登記法人,茨城県,常総市,古間木字大山１９２３番地４１,,08,211,3002724,,,,,,,2022-04-11,1,,,,,ウミオフィス,0
1324,4060001034715,新規,0,2022-04-11,2022-04-11,株式会社Ｒｉｌｍ,,株式会社,栃木県,宇都宮市,西川田本町４丁目９番１５号,,09,201,3210158,,,,,,,2022-04-11,1,,,,,リルム,0
1325,4060001034723,新規,0,2022-04-11,2022-04-11,株式会社澤商,,株式会社,栃木県,足利市,松田町２１８６番地１,,09,202,3260101,,,,,,,2022-04-11,1,,,,,サワショウ,0
1326,4060001034748,新規,0,2022-04-11,2022-04-11,株式会社パイプライン,,株式会社,栃木県,小山市,大字神鳥谷６９８番地１,,09,208,3230827,,,,,,,2022-04-11,1,,,,,パイプライン,0
1328,4060003004022,新規,0,2022-04-11,2022-04-11,ふみとよ合同会社,,合同会社,栃木県,足利市,旭町８５１番地１０メゾン・ローレル１０１,,09,202,3260802,,,,,,,2022-04-11,1,,,,,フミトヨ,0
1330,4070001039085,新規,0,2022-04-11,2022-04-11,株式会社Ｇｏｌｍｏ,,株式会社,群馬県,前橋市,南町２丁目４７番地１ＳＯＬＡＮＡ２Ｇ号,,10,201,3710805,,,,,,,2022-04-11,1,,,,,ゴルモ,0
1331,4070001039143,新規,0,2022-04-11,2022-04-11,ＳＢＵガレージ株式会社,,株式会社,群馬県,北群馬郡榛東村,大字新井１８６５－２－１０１,,10,344,3703503,,,,,,,2022-04-11,1,,,,,サブガレージ,0
1335,4080403004512,新規,0,2022-04-11,2022-04-11,合同会社ＧＯＬＤ,,合同会社,静岡県,磐田市,見付３０６７番地Ｃ号室,,22,211,4380086,,,,,,,2022-04-11,1,,,,,ゴールド,0
1338,4100003006501,新規,0,2022-04-11,2022-04-11,合同会社トビチカンパニー,,合同会社,長野県,上伊那郡辰野町,大字辰野１７０４,,20,382,3990421,,,,,,,2022-04-11,1,,,,,トビチカンパニー,0
1341,4110001036581,新規,0,2022-04-11,2022-04-11,平山産業株式会社,,株式会社,新潟県,村上市,切田３１９番地,,15,212,9593106,,,,,,,2022-04-11,1,,,,,ヒラマササンギョウ,0
1352,4120001245058,新規,0,2022-04-11,2022-04-11,株式会社ＴＲＵＴＨ,,株式会社,大阪府,大阪市北区,梅田１丁目１番３号大阪駅前第３ビルＢ１－１４号,,27,127,5300001,,,,,,,2022-04-11,1,,,,,トゥルース,0
1353,4120001245149,新規,0,2022-04-11,2022-04-11,シナト株式会社,,株式会社,大阪府,大阪市平野区,瓜破東３丁目４番５号,,27,126,5470022,,,,,,,2022-04-11,1,,,,,シナト,0
1354,4120001245157,新規,0,2022-04-11,2022-04-11,株式会社クロス,,株式会社,大阪府,門真市,桑才新町１２番９号,,27,223,5710043,,,,,,,2022-04-11,1,,,,,クロス,0
1358,4120003021465,新規,0,2022-04-11,2022-04-11,クロスリンク合同会社,,合同会社,大阪府,大阪市天王寺区,小橋町１２番１５－１４０２号,,27,109,5430028,,,,,,,2022-04-11,1,,,,,クロスリンク,0
1359,4120005022866,新規,0,2022-04-11,2022-04-11,一般社団法人日本インターネットセキュリティ協会,,その他の設立登記法人,大阪府,大阪市西区,阿波座１丁目１４番１５号,,27,106,5500011,,,,,,,2022-04-11,1,,,,,ニホンインターネットセキュリティキョウカイ,0
1365,4120101065356,新規,0,2022-04-11,2022-04-11,株式会社Ｅ．Ｓ．Ｕ,,株式会社,大阪府,松原市,阿保４丁目１－３５,,27,217,5800043,,,,,,,2022-04-11,1,,,,,エス,0
1366,4122001035744,新規,0,2022-04-11,2022-04-11,株式会社ＯＲＥＺ,,株式会社,大阪府,東大阪市,高井田１番１０号サングランデ永和３０７,,27,227,5770053,,,,,,,2022-04-11,1,,,,,オレズ,0
1367,4122001035752,新規,0,2022-04-11,2022-04-11,株式会社金城商店,,株式会社,大阪府,東大阪市,新家西町３番１４号,,27,227,5770028,,,,,,,2022-04-11,1,,,,,カネシロショウテン,0
1368,4122001035760,新規,0,2022-04-11,2022-04-11,株式会社ａｍａｌ,,株式会社,大阪府,柏原市,今町２丁目６番４号,,27,221,5820002,,,,,,,2022-04-11,1,,,,,アマル,0
1369,4122003002313,新規,0,2022-04-11,2022-04-11,合同会社ワイズカンパニー,,合同会社,大阪府,八尾市,太田新町５丁目２８番地の１,,27,212,5810039,,,,,,,2022-04-11,1,,,,,ワイズカンパニー,0
1372,4130001071453,新規,0,2022-04-11,2022-04-11,株式会社丸ＨＡＮ,,株式会社,京都府,京都市中京区,錦小路通堀川東入三文字町５７１,,26,104,6048236,,,,,,,2022-04-11,1,,,,,マルハン,0
1373,4130001071494,新規,0,2022-04-11,2022-04-11,日月株式会社,,株式会社,京都府,京都市左京区,上高野稲荷町１８番地,,26,103,6060087,,,,,,,2022-04-11,1,,,,,ヒツキ,0
1374,4130001071503,新規,0,2022-04-11,2022-04-11,株式会社ＢＲＯＷＮＳ,,株式会社,京都府,京都市左京区,修学院高部町６番地９,,26,103,6068022,,,,,,,2022-04-11,1,,,,,ブラウンズ,0
1375,4130001071511,新規,0,2022-04-11,2022-04-11,株式会社花鳴,,株式会社,京都府,京都市右京区,鳴滝本町１３８番地２,,26,108,6168242,,,,,,,2022-04-11,1,,,,,カナリ,0
1376,4130003007851,新規,0,2022-04-11,2022-04-11,合同会社みやざき,,合同会社,京都府,京都市北区,小山下花ノ木町２８番地１,,26,101,6038123,,,,,,,2022-04-11,1,,,,,ミヤザキ,0
1388,4140001125588,新規,0,2022-04-11,2022-04-11,株式会社橋本土建,,株式会社,兵庫県,明石市,西新町３丁目６番８号,,28,203,6730023,,,,,,,2022-04-11,1,,,,,ハシモトドケン,0
1389,4140001125596,新規,0,2022-04-11,2022-04-11,株式会社ＺＥＲＯＬＩＮＥ　Ｇ,,株式会社,兵庫県,姫路市,山吹１丁目１番２７号,,28,201,6700085,,,,,,,2022-04-11,1,,,,,ゼロラインジー,0
1393,4140005026139,新規,0,2022-04-11,2022-04-11,医療法人とよなが歯科医院,,その他の設立登記法人,兵庫県,伊丹市,梅ノ木２丁目３番３１号,,28,207,6640856,,,,,,,2022-04-11,1,,,,,トヨナガシカイイン,0
1404,4180001150599,新規,0,2022-04-11,2022-04-11,ｋａｍｉｌａｓ４ａｍ株式会社,,株式会社,愛知県,名古屋市中村区,平池町４丁目平池町６０－１２グローバルゲート１１階,,23,105,4530872,,,,,,,2022-04-11,1,,,,,カミラズフォーエーエム,0
1405,4180001150673,新規,0,2022-04-11,2022-04-11,株式会社彩美,,株式会社,愛知県,日進市,米野木町北山７１番地２,,23,230,4700111,,,,,,,2022-04-11,1,,,,,サイビ,0
1406,4180001150822,新規,0,2022-04-11,2022-04-11,渡邉建築株式会社,,株式会社,愛知県,知多郡美浜町,大字奥田字儀路３０４番地８２,,23,446,4703233,,,,,,,2022-04-11,1,,,,,ワタナベケンチク,0
1407,4180001150830,新規,0,2022-04-11,2022-04-11,株式会社マイダイニングテーブル,,株式会社,愛知県,名古屋市中区,栄３丁目１番１９号ソフランビル２Ｆ,,23,106,4600008,,,,,,,2022-04-11,1,,,,,マイダイニングテーブル,0
1408,4180001150847,新規,0,2022-04-11,2022-04-11,株式会社グリーンライフ,,株式会社,愛知県,名古屋市中川区,伏屋２丁目１６１７番地・４０３号,,23,110,4540996,,,,,,,2022-04-11,1,,,,,グリーンライフ,0
1415,4190001029280,新規,0,2022-04-11,2022-04-11,株式会社木崎電気,00126230,株式会社,三重県,亀山市,和田町１２３６番地１０６,,24,210,5190102,,,,,,,2022-04-11,1,,,,,キザキデンキ,0
1416,4190001029289,新規,0,2022-04-11,2022-04-11,ＡＤ　ｈｏｌｄｉｎｇｓ株式会社,,株式会社,三重県,津市,栄町３丁目１２３番地１,,24,201,5140004,,,,,,,2022-04-11,1,,,,,エーディーホールディングス,0
1417,4190001029297,新規,0,2022-04-11,2022-04-11,スズカ電装株式会社,,株式会社,三重県,鈴鹿市,三日市２丁目２８番４号,,24,207,5130807,,,,,,,2022-04-11,1,,,,,スズカデンソウ,0
1418,4190001029306,新規,0,2022-04-11,2022-04-11,株式会社タカスイ,,株式会社,三重県,度会郡南伊勢町,迫間浦１３９６番地９,,24,472,5160116,,,,,,,2022-04-11,1,,,,,,0
1422,4190005011689,新規,0,2022-04-11,2022-04-11,弁護士法人シンフォニア法律事務所,,その他の設立登記法人,三重県,津市,羽所町７００番地アスト津ビル８階,,24,201,5140009,,,,,,,2022-04-11,1,,,,,シンフォニアホウリツジムショ,0
1426,4210001018883,新規,0,2022-04-11,2022-04-11,ルシェル株式会社,,株式会社,福井県,福井市,八重巻東町７－８,,18,201,9100157,,,,,,,2022-04-11,1,,,,,ルシェル,0
1438,4260001036740,新規,0,2022-04-11,2022-04-11,玉ノ井金属株式会社,,株式会社,岡山県,玉野市,玉２丁目１８番４号,,33,204,7060012,,,,,,,2022-04-11,1,,,,,タマノイキンゾク,0
1443,4280003001600,新規,0,2022-04-11,2022-04-11,合同会社ｗａｋａｍａｉ,,合同会社,島根県,出雲市,湖陵町二部１４２８－１,,32,203,6990812,,,,,,,2022-04-11,1,,,,,,0
1457,4300005007064,新規,0,2022-04-11,2022-04-11,医療法人正島脳神経外科,,その他の設立登記法人,佐賀県,佐賀市,鍋島１丁目３番１０号,,41,201,8490937,,,,,,,2022-04-11,1,,,,,ショウジマノウシンケイゲカ,0
1464,4330003009324,新規,0,2022-04-11,2022-04-11,合同会社３ｒｄロジコン,,合同会社,熊本県,熊本市中央区,花畑町１番１４号Ａ＆Ｍ・ＨＡＮＡＢＡＴＡ３０１号,,43,101,8600806,,,,,,,2022-04-11,1,,,,,サードロジコン,0
1466,4350001017698,新規,0,2022-04-11,2022-04-11,株式会社高橋,00126241,株式会社,宮崎県,宮崎市,田野町南原３丁目７番地３,,45,201,8891704,,,,,,,2022-04-11,1,,,,,タカハシ,0
1469,4360001030213,新規,0,2022-04-11,2022-04-11,株式会社久総業,,株式会社,沖縄県,石垣市,字白保２６８番地２５９,,47,207,9070242,,,,,,,2022-04-11,1,,,,,ヒサソウギョウ,0
1470,4360001030238,新規,0,2022-04-11,2022-04-11,株式会社宇根商店Ｔｈｅ　Ｇｌｏｗ　ｏｆ　Ｐａｓｓｉｏｎ　Ｒｏａｄ,,株式会社,沖縄県,石垣市,美崎町８番地１階東,,47,207,9070012,,,,,,,2022-04-11,1,,,,,ウネショウテンザグロウオブパッションロード,0
1471,4360003011913,新規,0,2022-04-11,2022-04-11,合同会社ほのぼの,,合同会社,沖縄県,国頭郡本部町,字渡久地９１番地３,,47,308,9050214,,,,,,,2022-04-11,1,,,,,ホノボノ,0
1473,4370001048411,新規,0,2022-04-11,2022-04-11,株式会社ＣＡＮＮＯＮ,,株式会社,宮城県,仙台市太白区,長町１丁目５番地１プラージュ長町５０５号室,,04,104,9820011,,,,,,,2022-04-11,1,,,,,キャノン,0
1477,4380001032728,新規,0,2022-04-11,2022-04-11,株式会社海のあきんど,,株式会社,福島県,いわき市,泉滝尻１丁目２０番地の２４,,07,204,9718189,,,,,,,2022-04-11,1,,,,,,0
1482,4430001086371,新規,0,2022-04-11,2022-04-11,株式会社ザ・ノース,,株式会社,北海道,北広島市,大曲末広２丁目１２番地１５,,01,234,0611272,,,,,,,2022-04-11,1,,,,,,0
1483,4430003013778,新規,0,2022-04-11,2022-04-11,ＬＵＸＴＥＲＩＡ合同会社,,合同会社,北海道,虻田郡ニセコ町,字福井４１５番地３４,,01,395,0481561,,,,,,,2022-04-11,1,,,,,ルクステリア,0
1484,4430005014436,新規,0,2022-04-11,2022-04-11,税理士法人中川会計,,その他の設立登記法人,北海道,札幌市白石区,栄通３丁目３番２４号太田ビル２階,,01,104,0030021,,,,,,,2022-04-11,1,,,,,ナカガワカイケイ,0
1487,4450001013670,新規,0,2022-04-11,2022-04-11,株式会社Ｌｏｃｃａ　Ｌｕｂｅ,,株式会社,北海道,旭川市,神楽岡四条４丁目１番１３号,,01,204,0788314,,,,,,,2022-04-11,1,,,,,ロッカルーブ,0
1503,4490003001645,新規,0,2022-04-11,2022-04-11,ｅ‐Ｌｉｎｋ　ＭＯＲＩＹＡＭＡ合同会社,,合同会社,高知県,吾川郡仁淀川町,森山１９３番地,,39,387,7811755,,,,,,,2022-04-11,1,,,,,イーリンクモリヤマ,0
1505,4700150107834,新規,0,2022-04-11,2022-04-11,ＡＰＰＬＥ　ＴＯＵＣＨ　ＥＮＴＥＲＰＲＩＳＥＳ,,外国会社等,千葉県,山武市,木原深作１４０２オフィスＮｏ．３Ａ,,12,237,2891212,スリランカ民主社会主義共和国、コロンボ１１、オルコットマワサ、Ｎｏ．９４,,,,,,2022-04-11,1,,,,,アツプルタツチエンタープライセス,0
1515,5010001225598,新規,0,2022-04-11,2022-04-11,電力創世システム株式会社,,株式会社,東京都,千代田区,神田和泉町一丁目６番１号インターナショナルビル４０２,,13,101,1010024,,,,,,,2022-04-11,1,,,,,デンリョクソウセイシステム,0
1523,5010003037406,新規,0,2022-04-11,2022-04-11,メタコラム合同会社,,合同会社,東京都,中央区,銀座１丁目十二番四号Ｎ＆ＥＢＬＤ．七階,,13,102,1040061,,,,,,,2022-04-11,1,,,,,メタコラム,0
1524,5010003037439,新規,0,2022-04-11,2022-04-11,ジェイコアレジ６合同会社６,,合同会社,東京都,千代田区,丸の内３丁目１番１号東京共同会計事務所内,,13,101,1000005,,,,,,,2022-04-11,1,,,,,ジェイコアレジシックスロク,0
1525,5010003037447,新規,0,2022-04-11,2022-04-11,ジェイコアレジ６合同会社１４,,合同会社,東京都,千代田区,丸の内３丁目１番１号東京共同会計事務所内,,13,101,1000005,,,,,,,2022-04-11,1,,,,,ジェイコアレジシックスイチヨン,0
1528,5010005034814,新規,0,2022-04-11,2022-04-11,一般社団法人リアルヘブン２,,その他の設立登記法人,東京都,千代田区,丸の内３丁目１番１号東京共同会計事務所内,,13,101,1000005,,,,,,,2022-04-11,1,,,,,リアルヘブンツー,0
1529,5010005034822,新規,0,2022-04-11,2022-04-11,社会保険労務士法人Ｓｏｕｔｈｅｒｎ　Ｃｒｏｓｓ　Ｃｏｎｓｕｌｔｉｎｇ,,その他の設立登記法人,東京都,千代田区,丸の内１丁目８番３号丸の内トラストタワー本館２０階,,13,101,1000005,,,,,,,2022-04-11,1,,,,,サザンクロスコンサルティング,0
1538,5010401166649,新規,0,2022-04-11,2022-04-11,ＧＤＳ株式会社,,株式会社,東京都,港区,六本木７丁目１８番１８号住友不動産六本木通ビル,,13,103,1060032,,,,,,,2022-04-11,1,,,,,ジーディーエス,0
1539,5010401166731,新規,0,2022-04-11,2022-04-11,Ｊａｐａｎ　ＮＦＴ　Ｍａｒｋｅｔ株式会社,,株式会社,東京都,港区,海岸３丁目６－３２レグノオンザベイ８０５,,13,103,1080022,,,,,,,2022-04-11,1,,,,,ジャパンエヌエフティーマーケット,0
1547,5010601060965,新規,0,2022-04-11,2022-04-11,ＬＩＥＲＩＫ株式会社,,株式会社,東京都,江東区,木場５丁目８番４１－６０６号,,13,108,1350042,,,,,,,2022-04-11,1,,,,,リリック,0
1551,5010701042459,新規,0,2022-04-11,2022-04-11,株式会社みんちが,,株式会社,東京都,品川区,旗の台４丁目６番５号シルバーハイツ２０１,,13,109,1420064,,,,,,,2022-04-11,1,,,,,ミンチガ,0
1552,5010701042475,新規,0,2022-04-11,2022-04-11,ＭｅｔａＭｏｍｅｎｔ株式会社,,株式会社,東京都,品川区,西大井１丁目１－２,,13,109,1400015,,,,,,,2022-04-11,1,,,,,メタモメント,0
1558,5010901050666,新規,0,2022-04-11,2022-04-11,メディテクス株式会社,,株式会社,東京都,世田谷区,代沢１丁目２２番７号,,13,112,1550032,,,,,,,2022-04-11,1,,,,,メディテクス,0
1559,5010901050674,新規,0,2022-04-11,2022-04-11,渡辺建設株式会社,,株式会社,東京都,世田谷区,等々力５丁目５番１２号グレース尾山台４０２,,13,112,1580082,,,,,,,2022-04-11,1,,,,,ワタナベケンセツ,0
1560,5010901050690,新規,0,2022-04-11,2022-04-11,株式会社ＪＭＲ,,株式会社,東京都,世田谷区,駒沢２丁目１８番３号,,13,112,1540012,,,,,,,2022-04-11,1,,,,,ジェイエムアール,0
1562,5010903007292,新規,0,2022-04-11,2022-04-11,合同会社ＲｏｋａＬａｂｏ,,合同会社,東京都,世田谷区,南烏山１丁目１４番４号,,13,112,1570062,,,,,,,2022-04-11,1,,,,,ロカラボ,0
1563,5011001146751,新規,0,2022-04-11,2022-04-11,ＹＯＡＲＣ株式会社,,株式会社,東京都,渋谷区,松濤１丁目２８番２号,,13,113,1500046,,,,,,,2022-04-11,1,,,,,ヨーアーク,0
1564,5011001146826,新規,0,2022-04-11,2022-04-11,フィフティフレーバーズ株式会社,,株式会社,東京都,目黒区,下目黒２丁目１２番３号,,13,110,1530064,,,,,,,2022-04-11,1,,,,,フィフティフレーバーズ,0
1565,5011001146834,新規,0,2022-04-11,2022-04-11,株式会社Ｈ．Ｉ．Ｐ．ＢＲＡＮＤＳ,,株式会社,東京都,渋谷区,神宮前２丁目６番１０号,,13,113,1500001,,,,,,,2022-04-11,1,,,,,エイチアイピイブランズ,0
1566,5011001146875,新規,0,2022-04-11,2022-04-11,株式会社クレバレンス,,株式会社,東京都,渋谷区,松濤１丁目２８番２号,,13,113,1500046,,,,,,,2022-04-11,1,,,,,クレバレンス,0
1569,5011003014493,新規,0,2022-04-11,2022-04-11,合同会社ＮＯＭＢ,,合同会社,東京都,渋谷区,幡ヶ谷２丁目１０番３号,,13,113,1510072,,,,,,,2022-04-11,1,,,,,ノム,0
1570,5011005009533,新規,0,2022-04-11,2022-04-11,一般社団法人しぶや糸をつむぐ会,,その他の設立登記法人,東京都,渋谷区,代々木３丁目３３番１０号メゾンヨーラク３０４号,,13,113,1510053,,,,,,,2022-04-11,1,,,,,シブヤイトヲツムグカイ,0
1571,5011005009541,新規,0,2022-04-11,2022-04-11,一般社団法人マンションあんしんセンター,,その他の設立登記法人,東京都,渋谷区,桜丘町２９番３３号渋谷三信マンション６０３号室,,13,113,1500031,,,,,,,2022-04-11,1,,,,,マンションアンシンセンター,0
1579,5011101098455,新規,0,2022-04-11,2022-04-11,株式会社三宅,,株式会社,東京都,新宿区,四谷３丁目１３番地ＳＥＡＢＩＲＤビル２階,,13,104,1600004,,,,,,,2022-04-11,1,,,,,ミヤケ,0
1580,5011101098488,新規,0,2022-04-11,2022-04-11,株式会社リンクソルウ,,株式会社,東京都,新宿区,西新宿１丁目５－１２ニューセントラルビル８－９Ｆ,,13,104,1600023,,,,,,,2022-04-11,1,,,,,リンクソルウ,0
1583,5011105010218,新規,0,2022-04-11,2022-04-11,一般社団法人パーソナルプロファイリング協会,,その他の設立登記法人,東京都,新宿区,余丁町９番９号クレアール余丁町７０３,,13,104,1620055,,,,,,,2022-04-11,1,,,,,パーソナルプロファイリングキョウカイ,0
1595,5011801040559,新規,0,2022-04-11,2022-04-11,株式会社ＮＫ,,株式会社,東京都,足立区,千住曙町３－１６－２０２,,13,121,1200023,,,,,,,2022-04-11,1,,,,,,0
1596,5011801040567,新規,0,2022-04-11,2022-04-11,株式会社オーツカ工務店,,株式会社,東京都,足立区,中央本町５丁目８－２,,13,121,1210011,,,,,,,2022-04-11,1,,,,,オーツカコウムテン,0
1600,5012403005314,新規,0,2022-04-11,2022-04-11,合同会社Ｎｅｘｔ　ｐｌｕｓ,,合同会社,東京都,府中市,是政２丁目３番地の１５,,13,206,1830014,,,,,,,2022-04-11,1,,,,,ネクストプラス,0
1607,5013301048925,新規,0,2022-04-11,2022-04-11,株式会社プラネット,,株式会社,東京都,豊島区,西池袋１丁目４１番６号,,13,116,1710021,,,,,,,2022-04-11,1,,,,,プラネット,0
1613,5020003021565,新規,0,2022-04-11,2022-04-11,合同会社Ｃｒｅａｔｉｖｅ　ＩＴ’ｓ,,合同会社,神奈川県,横浜市泉区,下和泉４丁目２３番８号,,14,116,2450021,,,,,,,2022-04-11,1,,,,,クリエイティブイッツ,0
1621,5021001075677,新規,0,2022-04-11,2022-04-11,株式会社エルクラシア,,株式会社,神奈川県,茅ヶ崎市,平和町９番３６号,,14,207,2530024,,,,,,,2022-04-11,1,,,,,エルクラシア,0
1622,5021001075685,新規,0,2022-04-11,2022-04-11,株式会社小野住宅,,株式会社,神奈川県,座間市,相模が丘４丁目５６番１５号,,14,216,2520001,,,,,,,2022-04-11,1,,,,,オノジュウタク,0
1623,5021003011580,新規,0,2022-04-11,2022-04-11,合同会社藤沢シーケンス工房,,合同会社,神奈川県,藤沢市,本町２丁目７－１０マンション蔵１０３,,14,205,2510053,,,,,,,2022-04-11,1,,,,,フジサワシーケンスコウボウ,0
1624,5021003011589,新規,0,2022-04-11,2022-04-11,伊藤投信合同会社,,合同会社,神奈川県,秦野市,平沢７６０番地の１サンシャインプラザ１０３号,,14,211,2570015,,,,,,,2022-04-11,1,,,,,イトウトウシン,0
1633,5030001147634,新規,0,2022-04-11,2022-04-11,株式会社流喜,,株式会社,埼玉県,新座市,本多１丁目１３番３１号１Ｆ,,11,230,3520022,,,,,,,2022-04-11,1,,,,,リュウキ,0
1634,5030001147650,新規,0,2022-04-11,2022-04-11,株式会社八ツ井電気,,株式会社,埼玉県,草加市,北谷２丁目２８番３０号,,11,221,3400046,,,,,,,2022-04-11,1,,,,,ヤツイデンキ,0
1635,5030001147725,新規,0,2022-04-11,2022-04-11,株式会社カミュウ,,株式会社,埼玉県,川口市,戸塚東１丁目２５番２８－２０５号東急クリエール川口戸塚,,11,203,3330802,,,,,,,2022-04-11,1,,,,,カミュウ,0
1641,5030003019204,新規,0,2022-04-11,2022-04-11,Ｔｗｉｎ　Ｐｒｏｐｅｒｔｉｅｓ合同会社,,合同会社,埼玉県,鴻巣市,糠田１４０８番地２５,,11,217,3650059,,,,,,,2022-04-11,1,,,,,ツインプロパティズ,0
1642,5030005020787,新規,0,2022-04-11,2022-04-11,医療法人社団博秀会,,その他の設立登記法人,埼玉県,川口市,大字長蔵新田２８８番地１ブラックパイン２階,,11,203,3330808,,,,,,,2022-04-11,1,,,,,ハクシュウカイ,0
1647,5040001122883,新規,0,2022-04-11,2022-04-11,株式会社ジェネシス,,株式会社,千葉県,市川市,行徳駅前２丁目３番１号,,12,203,2720133,,,,,,,2022-04-11,1,,,,,ジェネシス,0
1648,5040001122925,新規,0,2022-04-11,2022-04-11,株式会社ＥＳＳ　ＣＯＮＳＵＬＴＩＮＧ,,株式会社,千葉県,市川市,菅野５丁目４番２１号,,12,203,2720824,,,,,,,2022-04-11,1,,,,,イーエスエスコンサルティング,0
1649,5040001122933,新規,0,2022-04-11,2022-04-11,株式会社Ｓ＆Ａコミュニケーションズ,,株式会社,千葉県,我孫子市,泉１３番８号井上ビル３０２,,12,222,2701142,,,,,,,2022-04-11,1,,,,,エスアンドエーコミュニケーションズ,0
1654,5040003019822,新規,0,2022-04-11,2022-04-11,合同会社Ｓｏｕｔｈｅｒｎ　Ｃｒｏｓｓ,,合同会社,千葉県,千葉市若葉区,小倉町１７６４番地１ル・グラン小倉台３０９,,12,104,2640007,,,,,,,2022-04-11,1,,,,,サザンクロス,0
1655,5040003019830,新規,0,2022-04-11,2022-04-11,Ｔ‐ｗｏｒｋｓ合同会社,,合同会社,千葉県,鎌ケ谷市,東初富１丁目１５番２２号,,12,224,2730122,,,,,,,2022-04-11,1,,,,,,0
1656,5040003019855,新規,0,2022-04-11,2022-04-11,合同会社ＳＫ・Ｍａｌｚｅｎ,,合同会社,千葉県,柏市,柏６丁目４番２６号,,12,217,2770005,,,,,,,2022-04-11,1,,,,,エスケーマルゼン,0
1657,5040003019863,新規,0,2022-04-11,2022-04-11,合同会社ファーミングクラフト,,合同会社,千葉県,木更津市,高柳９８４番地２,,12,206,2920014,,,,,,,2022-04-11,1,,,,,ファーミングクラフト,0
1658,5040005021561,新規,0,2022-04-11,2022-04-11,一般社団法人みらいあさひ,,その他の設立登記法人,千葉県,旭市,ニの２１１９番地１,,12,215,2892504,,,,,,,2022-04-11,1,,,,,ミライアサヒ,0
1661,5050001050927,新規,0,2022-04-11,2022-04-11,株式会社Ｒ　ＧＡＲＡＧＥ,,株式会社,茨城県,かすみがうら市,下稲吉１８８７番地１８,,08,230,3150052,,,,,,,2022-04-11,1,,,,,アールガレージ,0
1662,5050001050935,新規,0,2022-04-11,2022-04-11,株式会社高砂屋グループ,,株式会社,茨城県,鉾田市,阿玉１４５３番地,,08,234,3112118,,,,,,,2022-04-11,1,,,,,タカサゴヤグループ,0
1668,5050005013054,新規,0,2022-04-11,2022-04-11,一般社団法人古河市観光協会,,その他の設立登記法人,茨城県,古河市,長谷町３８番１８号,,08,204,3060034,,,,,,,2022-04-11,1,,,,,コガシカンコウキョウカイ,0
1674,5070001039092,新規,0,2022-04-11,2022-04-11,株式会社ＲＳ,,株式会社,群馬県,太田市,由良町６４３番地２,,10,205,3730036,,,,,,,2022-04-11,1,,,,,アールエス,0
1681,5080105006244,新規,0,2022-04-11,2022-04-11,富士美芋協同組合,,その他の設立登記法人,静岡県,富士市,大淵９０５７番地の１,,22,210,4170801,,,,,,,2022-04-11,1,,,,,フジビイモ,0
1682,5080403004511,新規,0,2022-04-11,2022-04-11,合同会社つたき,,合同会社,静岡県,浜松市中区,早出町２３４番地の３,,22,131,4350054,,,,,,,2022-04-11,1,,,,,ツタキ,0
1683,5080405007446,新規,0,2022-04-11,2022-04-11,一般社団法人グラウンドラボラトリーズ,,その他の設立登記法人,静岡県,浜松市中区,伝馬町３１２番２１号カメヤビル南館３階,,22,131,4300935,,,,,,,2022-04-11,1,,,,,グラウンドラボラトリーズ,0
1687,5100001035245,新規,0,2022-04-11,2022-04-11,株式会社ＳＨＩＶＡ　ＡＧＳ,,株式会社,長野県,松本市,南原１丁目３番１０号,,20,202,3900846,,,,,,,2022-04-11,1,,,,,シバエージーエス,0
1706,5120001244819,新規,0,2022-04-11,2022-04-11,株式会社ゼストグループＨＬＤ,,株式会社,大阪府,大阪市福島区,福島７丁目３番１８号,,27,103,5530003,,,,,,,2022-04-11,1,,,,,ゼストグループホールディングス,0
1707,5120001245131,新規,0,2022-04-11,2022-04-11,スロウ株式会社,,株式会社,大阪府,大阪市北区,曾根崎新地１丁目３－１６京富ビル８１４号,,27,127,5300002,,,,,,,2022-04-11,1,,,,,スロウ,0
1722,5122005003614,新規,0,2022-04-11,2022-04-11,一般社団法人東大阪市布施薬剤師会,,その他の設立登記法人,大阪府,東大阪市,足代２丁目３番６号,,27,227,5770841,,,,,,,2022-04-11,1,,,,,ヒガシオオサカシフセヤクザイシカイ,0
1723,5130001071493,新規,0,2022-04-11,2022-04-11,株式会社ＴＯＮＧＬＡＮ,,株式会社,京都府,京都市中京区,蛸薬師通烏丸西入橋弁慶町２２２番地ヒライビル３Ｆ,,26,104,6048151,,,,,,,2022-04-11,1,,,,,トングラン,0
1724,5130001071502,新規,0,2022-04-11,2022-04-11,株式会社ナカヨフラワー,,株式会社,京都府,京都市伏見区,中島宮ノ前町９２番地,,26,109,6128457,,,,,,,2022-04-11,1,,,,,ナカヨフラワー,0
1732,5140001125538,新規,0,2022-04-11,2022-04-11,ウォーターワークスイヌイ株式会社,,株式会社,兵庫県,加古川市,平岡町一色西１丁目３５番地,,28,210,6750117,,,,,,,2022-04-11,1,,,,,ウォーターワークスイヌイ,0
1733,5140001125612,新規,0,2022-04-11,2022-04-11,株式会社東亜マネジメント,,株式会社,兵庫県,姫路市,白浜町寺家２丁目１５２番地１,,28,201,6728012,,,,,,,2022-04-11,1,,,,,トウアマネジメント,0
1756,5180001150763,新規,0,2022-04-11,2022-04-11,株式会社井上電工,,株式会社,愛知県,稲沢市,平和町下起中１９０番地７,,23,220,4901323,,,,,,,2022-04-11,1,,,,,イノウエデンコウ,0
1757,5180001150813,新規,0,2022-04-11,2022-04-11,株式会社モノ・クマ,,株式会社,愛知県,名古屋市守山区,四軒家２丁目５４８番地の１,,23,113,4630034,,,,,,,2022-04-11,1,,,,,モノクマ,0
1758,5180001150821,新規,0,2022-04-11,2022-04-11,株式会社ＫＡＺＵＭＩ,,株式会社,愛知県,小牧市,大字上末２９６５番地,,23,219,4850822,,,,,,,2022-04-11,1,,,,,カズミ,0
1759,5180001150846,新規,0,2022-04-11,2022-04-11,株式会社サステナライフ,,株式会社,愛知県,名古屋市天白区,八事天道２０３ＨＡＲＡＸ八事６０１,,23,116,4680061,,,,,,,2022-04-11,1,,,,,サステナライフ,0
1760,5180001150854,新規,0,2022-04-11,2022-04-11,株式会社Ｆｉｌｍ　Ｗｏｒｋｓ　Ｊａｐａｎ,,株式会社,愛知県,名古屋市中区,栄５丁目２６番３９号,,23,106,4600008,,,,,,,2022-04-11,1,,,,,フィルムワークスジャパン,0
1761,5180001150879,新規,0,2022-04-11,2022-04-11,株式会社ルピナス,,株式会社,愛知県,名古屋市中区,大井町１番２４号,,23,106,4600015,,,,,,,2022-04-11,1,,,,,ルピナス,0
1763,5180003023653,新規,0,2022-04-11,2022-04-11,合同会社ミライズＩＴソリューションズ,,合同会社,愛知県,名古屋市中区,古渡町１８番９号,,23,106,4600025,,,,,,,2022-04-11,1,,,,,ミライズアイティソリューションズ,0
1766,5180005019708,新規,0,2022-04-11,2022-04-11,社会保険労務士法人江口労務管理総合事務所,,その他の設立登記法人,愛知県,名古屋市中区,富士見町１３番１９号ヤギビル５０１号,,23,106,4600014,,,,,,,2022-04-11,1,,,,,エグチロウムカンリソウゴウジムショ,0
1771,5190001029296,新規,0,2022-04-11,2022-04-11,株式会社ＲＥＧＥＮＣＹ,,株式会社,三重県,桑名市,大字和泉３６４番地２,,24,205,5110838,,,,,,,2022-04-11,1,,,,,レジェンシー,0
1772,5190001029305,新規,0,2022-04-11,2022-04-11,サーモリポ株式会社,,株式会社,三重県,鈴鹿市,岸岡町１６４１番地の３３,,24,207,5100226,,,,,,,2022-04-11,1,,,,,サーモリポ,0
1774,5190003003951,新規,0,2022-04-11,2022-04-11,ＭＩＮＩ合同会社,,合同会社,三重県,津市,栄町４丁目１２７番,,24,201,5140004,,,,,,,2022-04-11,1,,,,,ミニ,0
1776,5210005010019,新規,0,2022-04-11,2022-04-11,特定非営利活動法人革新的原子炉推進協議会,,その他の設立登記法人,福井県,福井市,問屋町１丁目１２８番地１,,18,201,9188231,,,,,,,2022-04-11,1,,,,,カクシンテキゲンシロスイシンキョウギカイ,0
1785,5240001059585,新規,0,2022-04-11,2022-04-11,薬研堀株式会社,,株式会社,広島県,広島市中区,薬研堀９番６号,,34,101,7300027,,,,,,,2022-04-11,1,,,,,ヤゲンボリ,0
1786,5240001059602,新規,0,2022-04-11,2022-04-11,デンコー株式会社,,株式会社,広島県,広島市西区,大宮１丁目４番１５号,,34,104,7330007,,,,,,,2022-04-11,1,,,,,デンコー,0
1795,5260001036731,新規,0,2022-04-11,2022-04-11,株式会社颯栄,,株式会社,岡山県,岡山市中区,門田本町２丁目２番８号,,33,102,7038274,,,,,,,2022-04-11,1,,,,,ソウエイ,0
1796,5260003003878,新規,0,2022-04-11,2022-04-11,合同会社まび竹工房,,合同会社,岡山県,倉敷市,真備町市場３９１０番地,,33,202,7101305,,,,,,,2022-04-11,1,,,,,マビタケコウボウ,0
1805,5290003012389,新規,0,2022-04-11,2022-04-11,合同会社心リンク,,合同会社,福岡県,福岡市東区,土井１丁目２２番２９号吉村ビル３０１,,40,131,8130032,,,,,,,2022-04-11,1,,,,,ココロリンク,0
1810,5320003003772,新規,0,2022-04-11,2022-04-11,合同会社ナナラ,,合同会社,大分県,速見郡日出町,３９１５番地５,,44,341,8791506,,,,,,,2022-04-11,1,,,,,ナナラ,0
1813,5330001029637,新規,0,2022-04-11,2022-04-11,株式会社ノエル不動産,,株式会社,熊本県,熊本市中央区,水前寺６丁目７番２６号,,43,101,8620950,,,,,,,2022-04-11,1,,,,,ノエルフドウサン,0
1814,5330003009323,新規,0,2022-04-11,2022-04-11,熊本シンショウ合同会社,,合同会社,熊本県,菊池郡菊陽町,光の森１丁目１番地１０,,43,404,8691108,,,,,,,2022-04-11,1,,,,,クマモトシンショウ,0
1818,5360001030212,新規,0,2022-04-11,2022-04-11,株式会社プレゼンス,,株式会社,沖縄県,那覇市,おもろまち２丁目１１番２号,,47,201,9000006,,,,,,,2022-04-11,1,,,,,プレゼンス,0
1819,5360001030220,新規,0,2022-04-11,2022-04-11,株式会社ＡＬＩＶＩＯ,,株式会社,沖縄県,那覇市,辻２丁目８番１６号１Ｆ,00126228,47,201,9000037,,,,,,,2022-04-11,1,,,,,アリビオ,0
1820,5370001048435,新規,0,2022-04-11,2022-04-11,株式会社コントリビュート,,株式会社,宮城県,仙台市青葉区,支倉町１番２３－１１０５号,,04,101,9800824,,,,,,,2022-04-11,1,,,,,コントリビュート,0
1825,5380001032727,新規,0,2022-04-11,2022-04-11,株式会社川崎建装,00126239,株式会社,福島県,福島市,笹谷字中條１８番地の８,,07,201,9600241,,,,,,,2022-04-11,1,,,,,,0
1826,5380001032735,新規,0,2022-04-11,2022-04-11,株式会社Ｋａｂｕｒａビジネス．マネージメント,,株式会社,福島県,須賀川市,山寺町３５番地なんぶビル,,07,207,9620062,,,,,,,2022-04-11,1,,,,,カブラビジネスマネージメント,0
1829,5390001016860,新規,0,2022-04-11,2022-04-11,株式会社板金工草島,,株式会社,山形県,東田川郡庄内町,狩川字玉坂１１７番地２,,06,428,9996601,,,,,,,2022-04-11,1,,,,,バンキンコウクサジマ,0
1832,5410001013153,新規,0,2022-04-11,2022-04-11,株式会社Ｃｏｃｏｒｏ．ｐｒｏｊｅｃｔ,,株式会社,秋田県,秋田市,泉南１丁目６番７号,,05,201,0100918,,,,,,,2022-04-11,1,,,,,ココロプロジェクト,0
1842,5450005004335,新規,0,2022-04-11,2022-04-11,医療法人ＭｅＲＩＳＥ,,その他の設立登記法人,北海道,旭川市,一条通１０丁目２０６９－１,,01,204,0700031,,,,,,,2022-04-11,1,,,,,ミライズ,0
1843,5460001005682,新規,0,2022-04-11,2022-04-11,株式会社ＬＩＮＫ‐Ｓ,,株式会社,北海道,釧路市,昭和中央１丁目２番１６号,,01,206,0840910,,,,,,,2022-04-11,1,,,,,リンクス,0
1847,5470003002165,新規,0,2022-04-11,2022-04-11,合同会社ＬＣＬａｂｏ,,合同会社,香川県,三豊市,豊中町笠田笠岡２５８７番地１,,37,208,7691502,,,,,,,2022-04-11,1,,,,,エルシーラボ,0
1851,5480005006898,新規,0,2022-04-11,2022-04-11,一般社団法人美波町観光協会,,その他の設立登記法人,徳島県,海部郡美波町,奥河内字寺前４９３－６,,36,387,7792305,,,,,,,2022-04-11,1,,,,,ミナミチョウカンコウキョウカイ,0
1852,5490003001644,新規,0,2022-04-11,2022-04-11,合同会社きんた,,合同会社,高知県,高知市,追手筋１丁目８番８号５５番街エノテカ・キンタ２階,,39,201,7800842,,,,,,,2022-04-11,1,,,,,キンタ,0
1858,5500005008479,新規,0,2022-04-11,2022-04-11,特定非営利活動法人松山さかのうえ日本語学校,,その他の設立登記法人,愛媛県,松山市,久米窪田町３３７番地１,,38,201,7911101,,,,,,,2022-04-11,1,,,,,マツヤマサカノウエニホンゴガッコウ,0
1863,5700150107742,新規,0,2022-04-11,2022-04-11,森永健康保険組合,,その他,東京都,港区,芝浦４丁目１３－２３ＭＳ芝浦ビル９Ｆ,,13,103,1080023,,,,,,,2022-04-11,1,,,,,モリナガケンコウホケンクミアイ,0
1868,6010001225630,新規,0,2022-04-11,2022-04-11,月島水エンジニアリング分割準備株式会社,,株式会社,東京都,中央区,晴海３丁目５番１号,,13,102,1040053,,,,,,,2022-04-11,1,,,,,ツキシマミズエンジニアリングブンカツジュンビ,0
1869,6010001225655,新規,0,2022-04-11,2022-04-11,株式会社スマートプラスクレジット,,株式会社,東京都,千代田区,九段北１丁目８番１０号住友不動産九段ビル９階,,13,101,1020073,,,,,,,2022-04-11,1,,,,,スマートプラスクレジット,0
1870,6010001225671,新規,0,2022-04-11,2022-04-11,ビズシア株式会社,,株式会社,東京都,千代田区,九段南１丁目５番６号りそな九段ビル５Ｆ、ＫＳフロア,,13,101,1020074,,,,,,,2022-04-11,1,,,,,ビズシア,0
1871,6010001225721,新規,0,2022-04-11,2022-04-11,株式会社ＲＥＧＡＬＯ,,株式会社,東京都,文京区,本郷３丁目１８番１１号ＴＹビル１Ｆ,,13,105,1130033,,,,,,,2022-04-11,1,,,,,レガロ,0
1877,6010003037438,新規,0,2022-04-11,2022-04-11,ジェイコアレジ６合同会社５,,合同会社,東京都,千代田区,丸の内３丁目１番１号東京共同会計事務所内,,13,101,1000005,,,,,,,2022-04-11,1,,,,,ジェイコアレジシックスゴ,0
1878,6010003037446,新規,0,2022-04-11,2022-04-11,ジェイコアレジ６合同会社１３,,合同会社,東京都,千代田区,丸の内３丁目１番１号東京共同会計事務所内,,13,101,1000005,,,,,,,2022-04-11,1,,,,,ジェイコアレジシックスイチサン,0
1881,6010105002158,新規,0,2022-04-11,2022-04-11,一般社団法人セラス,,その他の設立登記法人,東京都,八王子市,上恩方町１５８番,,13,201,1920156,,,,,,,2022-04-11,1,,,,,セラス,0
1895,6010401166722,新規,0,2022-04-11,2022-04-11,青山トラン・ブルー株式会社,,株式会社,東京都,港区,南青山３丁目１番３号スプライン青山東急ビル６Ｆ,,13,103,1070062,,,,,,,2022-04-11,1,,,,,アオヤマトランブルー,0
1896,6010401166730,新規,0,2022-04-11,2022-04-11,株式会社ＧＲＣクラウド,,株式会社,東京都,港区,南麻布３丁目４番５号エスセナーリオ１０１号,,13,103,1060047,,,,,,,2022-04-11,1,,,,,ジーアールシークラウド,0
1897,6010403027402,新規,0,2022-04-11,2022-04-11,Ｔｈｅ　Ｒｏａｄ　Ｎｏｔ　Ｔａｋｅｎ合同会社,,合同会社,東京都,港区,三田１丁目２番２０号ＢＩＲＴＨＩＮＲＥＳＩＤＥＮＣＥ麻布十番４０２号室,,13,103,1080073,,,,,,,2022-04-11,1,,,,,ヨリミチ,0
1898,6010403027435,新規,0,2022-04-11,2022-04-11,合同会社ＴＨＲＥＥ‐Ｒ,,合同会社,東京都,港区,東麻布２丁目３５番１号ＫＣビル６Ｆ,,13,103,1060044,,,,,,,2022-04-11,1,,,,,スリーアール,0
1900,6010601060956,新規,0,2022-04-11,2022-04-11,株式会社Ｏｆｆｉｃｅ　Ｋｏｄａｍａ,,株式会社,東京都,江東区,亀戸６丁目６番４号,,13,108,1360071,,,,,,,2022-04-11,1,,,,,オフィスコダマ,0
1908,6010701042482,新規,0,2022-04-11,2022-04-11,インテルシップ株式会社,,株式会社,東京都,品川区,南大井６丁目１２番１０号,,13,109,1400013,,,,,,,2022-04-11,1,,,,,インテルシップ,0
1909,6010701042490,新規,0,2022-04-11,2022-04-11,株式会社ウィルディ,,株式会社,東京都,品川区,東大井１丁目１５番５－２０２号,,13,109,1400011,,,,,,,2022-04-11,1,,,,,ウィルディ,0
1912,6010705003340,新規,0,2022-04-11,2022-04-11,一般財団法人土佐幡多の会,,その他の設立登記法人,東京都,品川区,大井４丁目１０番１号,,13,109,1400014,,,,,,,2022-04-11,1,,,,,トサハタノカイ,0
1913,6010901050673,新規,0,2022-04-11,2022-04-11,株式会社ＦＯＲＥＳＴ,,株式会社,東京都,世田谷区,千歳台１丁目２番４号,,13,112,1570071,,,,,,,2022-04-11,1,,,,,フォレスト,0
1914,6010901050681,新規,0,2022-04-11,2022-04-11,株式会社ＰＯＳＴ　ＳＣＲＩＰＴ,,株式会社,東京都,世田谷区,用賀１丁目１３番２３－５１０号,,13,112,1580097,,,,,,,2022-04-11,1,,,,,ポストスクリプト,0
1917,6010903007283,新規,0,2022-04-11,2022-04-11,合同会社ａｄｓ,,合同会社,東京都,世田谷区,松原３丁目２７番３５号,,13,112,1560043,,,,,,,2022-04-11,1,,,,,エーディーエス,0
1918,6010903007291,新規,0,2022-04-11,2022-04-11,リバトン合同会社,,合同会社,東京都,世田谷区,三宿１丁目１４番１７号,,13,112,1540005,,,,,,,2022-04-11,1,,,,,リバトン,0
1919,6010905004295,新規,0,2022-04-11,2022-04-11,司法書士法人そらオフィス,,その他の設立登記法人,東京都,世田谷区,代田５丁目２番２２－２０１号,,13,112,1550033,,,,,,,2022-04-11,1,,,,,ソラオフィス,0
1927,6011001146742,新規,0,2022-04-11,2022-04-11,株式会社Ｇ・Ｏ・Ｐ,,株式会社,東京都,渋谷区,恵比寿１丁目１９番１９号,,13,113,1500013,,,,,,,2022-04-11,1,,,,,ジーオーピー,0
1928,6011001146833,新規,0,2022-04-11,2022-04-11,株式会社ａｔｅ,,株式会社,東京都,渋谷区,渋谷２丁目５－１４ミュゼ表参道２０１,,13,113,1500002,,,,,,,2022-04-11,1,,,,,エイト,0
1929,6011001146858,新規,0,2022-04-11,2022-04-11,Ａｙ　ａｎｄ　Ｃｏｍｐａｎｙ株式会社,,株式会社,東京都,渋谷区,円山町５番５号Ｎａｖｉ渋谷Ｖ３階,,13,113,1500044,,,,,,,2022-04-11,1,,,,,アイアンドカンパニー,0
1930,6011001146882,新規,0,2022-04-11,2022-04-11,株式会社地球元気村サービス,,株式会社,東京都,渋谷区,広尾１丁目９番１８号北村ビル２階,,13,113,1500012,,,,,,,2022-04-11,1,,,,,チキュウゲンキムラサービス,0
1934,6011003014468,新規,0,2022-04-11,2022-04-11,ＢＢＴＣＬＵＢ合同会社,,合同会社,東京都,渋谷区,代々木５丁目５５－６コンフォール参宮橋２０７,,13,113,1510053,,,,,,,2022-04-11,1,,,,,ビービーティクラブ,0
1935,6011003014501,新規,0,2022-04-11,2022-04-11,ＱＰ合同会社,,合同会社,東京都,渋谷区,渋谷３丁目１番１－４１２号ＰＭＯ渋谷ＩＩ,00126229,13,113,1500002,,,,,,,2022-04-11,1,,,,,キューピー,0
1938,6011005009532,新規,0,2022-04-11,2022-04-11,一般社団法人６５Ｓ　Ｔｏｋｙｏ,,その他の設立登記法人,東京都,渋谷区,神山町３８番１３号,,13,113,1500047,,,,,,,2022-04-11,1,,,,,ロクジュウゴエストウキョウ,0
1939,6011005009540,新規,0,2022-04-11,2022-04-11,一般社団法人ＫＮＯＴ　ｏｎｌｉｎｅ　ｃｏｎｔｅｓｔ,,その他の設立登記法人,東京都,渋谷区,渋谷２丁目６番１２号ベルデ青山ビル２階,,13,113,1500002,,,,,,,2022-04-11,1,,,,,ノットオンラインコンテスト,0
1941,6011101098487,新規,0,2022-04-11,2022-04-11,株式会社ＳＹＮＣ．,,株式会社,東京都,新宿区,高田馬場４丁目４番１３号ＡＬＰＳビル３Ｆ,,13,104,1690075,,,,,,,2022-04-11,1,,,,,シンク,0
1943,6011105010217,新規,0,2022-04-11,2022-04-11,一般社団法人日本健康アンチエイジング協会,,その他の設立登記法人,東京都,新宿区,北新宿１丁目３６番５号,,13,104,1690074,,,,,,,2022-04-11,1,,,,,ニホンケンコウアンチエイジングキョウカイ,0
1945,6011203003790,新規,0,2022-04-11,2022-04-11,リペアラー合同会社,,合同会社,東京都,中野区,南台１丁目６番１４号,,13,114,1640014,,,,,,,2022-04-11,1,,,,,リペアラー,0
1946,6011301027700,新規,0,2022-04-11,2022-04-11,株式会社Ｌｅｏ　Ｖｅｎｕｓ,,株式会社,東京都,杉並区,松ノ木３丁目２４番１３号ＭＡＹＢＯＣＨ・ＯＮＥ１０１号室,,13,115,1660014,,,,,,,2022-04-11,1,,,,,レオヴィーナス,0
1947,6011303004375,新規,0,2022-04-11,2022-04-11,合同会社杉並美装,,合同会社,東京都,杉並区,下井草５丁目２３番９号ヴェルデ井荻２０２,,13,115,1670022,,,,,,,2022-04-11,1,,,,,スギナミビソウ,0
1949,6011401024151,新規,0,2022-04-11,2022-04-11,株式会社オフィスレアレア,,株式会社,東京都,板橋区,中丸町２９番１号サンビュー北池袋８０１号室,,13,119,1730026,,,,,,,2022-04-11,1,,,,,オフィスレアレア,0
1952,6011601025866,新規,0,2022-04-11,2022-04-11,ｍａｍａ　ｓａｌｏｎ　ａｏｙａｍａ株式会社,,株式会社,東京都,練馬区,練馬４丁目２０番３号ミヤマビル１０３,,13,120,1760001,,,,,,,2022-04-11,1,,,,,ママサロンアオヤマ,0
1960,6011801040558,新規,0,2022-04-11,2022-04-11,歓和工業株式会社,,株式会社,東京都,足立区,花畑４丁目６番９号,,13,121,1210061,,,,,,,2022-04-11,1,,,,,,0
1962,6012301012948,新規,0,2022-04-11,2022-04-11,深沢工務店株式会社,,株式会社,東京都,町田市,南大谷１３９４番地,,13,209,1940031,,,,,,,2022-04-11,1,,,,,フカサワコウムテン,0
1963,6012305002004,新規,0,2022-04-11,2022-04-11,一般社団法人町田・相模原経済同友会,,その他の設立登記法人,東京都,町田市,原町田５丁目３－５リシェール町田２１１,,13,209,1940013,,,,,,,2022-04-11,1,,,,,マチダサガミハラケイザイドウユウカイ,0
1964,6012401039040,新規,0,2022-04-11,2022-04-11,株式会社ＹＲＭ,,株式会社,東京都,調布市,下石原２丁目３７番地４,,13,208,1820034,,,,,,,2022-04-11,1,,,,,ワイアールエム,0
1965,6012401039057,新規,0,2022-04-11,2022-04-11,株式会社農業ふれあい村企画マネージメント,,株式会社,東京都,武蔵野市,吉祥寺北町４丁目１３番１８－３０２号コート吉祥寺,,13,203,1800001,,,,,,,2022-04-11,1,,,,,ノウギョウフレアイムラキカクマネージメント,0
1974,6013303006120,新規,0,2022-04-11,2022-04-11,合同会社プランチャ,,合同会社,東京都,豊島区,東池袋４丁目３７番６号コーポ織茂１－２０１,,13,116,1700013,,,,,,,2022-04-11,1,,,,,プランチャ,0
1980,6020001146017,新規,0,2022-04-11,2022-04-11,株式会社なべや,,株式会社,神奈川県,横浜市都筑区,折本町１８７０番地,,14,118,2240043,,,,,,,2022-04-11,1,,,,,ナベヤ,0
1981,6020001146025,新規,0,2022-04-11,2022-04-11,株式会社フィールド十,,株式会社,神奈川県,横浜市瀬谷区,阿久和南３丁目３番地５９,,14,114,2460026,,,,,,,2022-04-11,1,,,,,フィールドプラス,0
1982,6020001146033,新規,0,2022-04-11,2022-04-11,株式会社プライマーズ,,株式会社,神奈川県,横浜市西区,北幸１丁目１１番１号水信ビル７階,,14,103,2200004,,,,,,,2022-04-11,1,,,,,プライマーズ,0
1983,6020003021564,新規,0,2022-04-11,2022-04-11,合同会社Ｈｉｎａｔａ,,合同会社,神奈川県,川崎市中原区,木月１丁目３０番２７－３０６号,,14,133,2110025,,,,,,,2022-04-11,1,,,,,ヒナタ,0
1987,6021001075610,新規,0,2022-04-11,2022-04-11,株式会社Ｄ‐ｓｉｘ,,株式会社,神奈川県,厚木市,三田２丁目２２番１０号,,14,212,2430211,,,,,,,2022-04-11,1,,,,,ディーシックス,0
1988,6021001075668,新規,0,2022-04-11,2022-04-11,株式会社ｆｌｏｗ,,株式会社,神奈川県,相模原市中央区,緑が丘１丁目２７番１３号,,14,152,2520225,,,,,,,2022-04-11,1,,,,,フロウ,0
1989,6021001075692,新規,0,2022-04-11,2022-04-11,株式会社ビーコン,,株式会社,神奈川県,藤沢市,鵠沼海岸６丁目１７－１７,,14,205,2510037,,,,,,,2022-04-11,1,,,,,ビーコン,0
1993,6021003011571,新規,0,2022-04-11,2022-04-11,合同会社Ｃｏｓｔａ,,合同会社,神奈川県,逗子市,久木８丁目１１番３９号,,14,208,2490001,,,,,,,2022-04-11,1,,,,,コスタ,0
1996,6030001147658,新規,0,2022-04-11,2022-04-11,株式会社ＴＯＷＡ　ｆｉｅｌｄ,,株式会社,埼玉県,草加市,青柳６丁目１１番４０号,,11,221,3400002,,,,,,,2022-04-11,1,,,,,トーワフィールド,0
1997,6030001147690,新規,0,2022-04-11,2022-04-11,株式会社ＨＫＴ,,株式会社,埼玉県,新座市,野火止１丁目１２－１２,,11,230,3520011,,,,,,,2022-04-11,1,,,,,,0
1998,6030001147716,新規,0,2022-04-11,2022-04-11,株式会社ＴＨＥ　ＳＩＭＰＬＥ,,株式会社,埼玉県,桶川市,北１丁目２１－５,,11,231,3630011,,,,,,,2022-04-11,1,,,,,ザシンプル,0
2003,6030003019153,新規,0,2022-04-11,2022-04-11,みらいかぞく合同会社,,合同会社,埼玉県,鶴ヶ島市,大字脚折１５０１番地２,,11,241,3502213,,,,,,,2022-04-11,1,,,,,ミライカゾク,0
2004,6030003019178,新規,0,2022-04-11,2022-04-11,合同会社玉藻亭,,合同会社,埼玉県,さいたま市岩槻区,大字釣上新田１１０８番地１,,11,110,3390025,,,,,,,2022-04-11,1,,,,,タマモテイ,0
2005,6030005020811,新規,0,2022-04-11,2022-04-11,医療法人水谷会,,その他の設立登記法人,埼玉県,川口市,柳崎４丁目２８番地３２オアシス２号館Ｅ,,11,203,3330861,,,,,,,2022-04-11,1,,,,,ミズタニカイ,0
2010,6040001122924,新規,0,2022-04-11,2022-04-11,株式会社アイジーインベストメント,,株式会社,千葉県,白井市,根１２９番地,,12,232,2701431,,,,,,,2022-04-11,1,,,,,アイジーインベストメント,0
2011,6040001122949,新規,0,2022-04-11,2022-04-11,株式会社ｓｏｌａｎａ,,株式会社,千葉県,柏市,みどり台３丁目１番６－２号,,12,217,2770884,,,,,,,2022-04-11,1,,,,,ソラナ,0
2012,6040001122957,新規,0,2022-04-11,2022-04-11,株式会社Ｋｅｔｅｒ,,株式会社,千葉県,柏市,十余二２９７番地５４７,,12,217,2770872,,,,,,,2022-04-11,1,,,,,ケテル,0
2013,6040001122965,新規,0,2022-04-11,2022-04-11,株式会社＿志,00126227,株式会社,千葉県,松戸市,古ケ崎２丁目３１９１番地の６,,12,207,2710068,,,,,,,2022-04-11,1,,,,,カツシ,0
2014,6040003019846,新規,0,2022-04-11,2022-04-11,合同会社ＭＳ　Ｄ＆Ｄ,,合同会社,千葉県,柏市,西山２丁目７番７号,,12,217,2770063,,,,,,,2022-04-11,1,,,,,エムエスディアンドディ,0
2024,6050003006496,新規,0,2022-04-11,2022-04-11,Ｒ．Ａ．ＭＯＴＯＲＳ合同会社,,合同会社,茨城県,稲敷郡美浦村,郷中２８３８番地２８,,08,442,3000420,,,,,,,2022-04-11,1,,,,,アールエーモータース,0
2029,6050005013045,新規,0,2022-04-11,2022-04-11,一般社団法人まちのこ団,,その他の設立登記法人,茨城県,久慈郡大子町,大字大子６６１番地２,,08,364,3193526,,,,,,,2022-04-11,1,,,,,マチノコダン,0
2033,6060001034754,新規,0,2022-04-11,2022-04-11,株式会社ｃｌａｓｓｉｋａ,,株式会社,栃木県,宇都宮市,下戸祭２丁目９番５号レジデンス元町１０１,,09,201,3200055,,,,,,,2022-04-11,1,,,,,クラシカ,0
2037,6070001039133,新規,0,2022-04-11,2022-04-11,株式会社ＳＧＩ　ＪＡＰＡＮ,,株式会社,群馬県,館林市,緑町２丁目１８番３号沢浦マンション２０３号室,,10,207,3740025,,,,,,,2022-04-11,1,,,,,エスジーアイジャパン,0
2038,6070001039141,新規,0,2022-04-11,2022-04-11,株式会社ＴＡＳＫ,,株式会社,群馬県,北群馬郡吉岡町,大字漆原１３７９番地６,,10,345,3703601,,,,,,,2022-04-11,1,,,,,タスク,0
2039,6070003004449,新規,0,2022-04-11,2022-04-11,チェーゴ合同会社,,合同会社,群馬県,高崎市,東貝沢町２丁目３‐６,,10,202,3700041,,,,,,,2022-04-11,1,,,,,チェーゴ,0
2040,6070005009974,新規,0,2022-04-11,2022-04-11,一般社団法人日本ビデオアルバム協会,,その他の設立登記法人,群馬県,前橋市,石倉町５丁目２２番３号ＢＬＩＳＳ－Ｂ,,10,201,3710841,,,,,,,2022-04-11,1,,,,,ニホンビデオアルバムキョウカイ,0
2045,6090001017517,新規,0,2022-04-11,2022-04-11,神宮司株式会社,,株式会社,山梨県,甲府市,朝気１丁目１番１８号,,19,201,4000862,,,,,,,2022-04-11,1,,,,,ジングウジ,0
2055,6120001244925,新規,0,2022-04-11,2022-04-11,株式会社Ｓ１,,株式会社,大阪府,大阪市北区,梅田１丁目１１番４－１１００号,,27,127,5300001,,,,,,,2022-04-11,1,,,,,エスワン,0
2056,6120001245080,新規,0,2022-04-11,2022-04-11,株式会社和田硝子工業,,株式会社,大阪府,大阪市城東区,諏訪３丁目６番２１号カインド諏訪,,27,118,5360021,,,,,,,2022-04-11,1,,,,,ワダガラスコウギョウ,0
2075,6122001035750,新規,0,2022-04-11,2022-04-11,Ｍ’ｓシステム株式会社,,株式会社,大阪府,四條畷市,美田町２番１号,,27,229,5750033,,,,,,,2022-04-11,1,,,,,エムズシステム,0
2081,6130001071476,新規,0,2022-04-11,2022-04-11,株式会社万事屋まつもと,,株式会社,京都府,八幡市,戸津北小路７４番地,,26,210,6148207,,,,,,,2022-04-11,1,,,,,ヨロズヤマツモト,0
2082,6130005016428,新規,0,2022-04-11,2022-04-11,一般社団法人京都府自閉症協会,,その他の設立登記法人,京都府,京都市上京区,丸太町黒門東入る藁屋町５３６－１,,26,102,6020000,,,,,,,2022-04-11,1,,,,,キョウトフジヘイショウキョウカイ,0
2083,6130005016436,新規,0,2022-04-11,2022-04-11,特定非営利活動法人Ｊａｐａｎ　Ｔａｘ　Ｐａｙｅｒ　Ｓｕｐｐｏｒｔｅｒｓ,,その他の設立登記法人,京都府,京都市中京区,錦小路通室町西入天神山町２８０石勘ビル４階,,26,104,6048221,,,,,,,2022-04-11,1,,,,,ジャパンタックスペイヤーサポーターズ,0
2090,6140003017559,新規,0,2022-04-11,2022-04-11,合同会社ｏｆｆｉｃｅ　Ａｒｃａｄｉａ,,合同会社,兵庫県,神戸市垂水区,西舞子４丁目２番２１号,,28,108,6550048,,,,,,,2022-04-11,1,,,,,オフィスアルカディア,0
2091,6140003017567,新規,0,2022-04-11,2022-04-11,合同会社あわじちゃんカフェ,,合同会社,兵庫県,南あわじ市,八木養宜上１４０８,,28,224,6560443,,,,,,,2022-04-11,1,,,,,アワジチャンカフェ,0
2096,6160001024118,新規,0,2022-04-11,2022-04-11,株式会社甚太郎,,株式会社,滋賀県,高島市,安曇川町北船木１８１２番地１,,25,212,5201232,,,,,,,2022-04-11,1,,,,,ジンタロウ,0
2104,6180001150721,新規,0,2022-04-11,2022-04-11,株式会社スリースカイ,,株式会社,愛知県,半田市,山崎町８番地,,23,205,4750875,,,,,,,2022-04-11,1,,,,,スリースカイ,0
2105,6180001150762,新規,0,2022-04-11,2022-04-11,株式会社ナベセツ,,株式会社,愛知県,一宮市,東出町３８番地３,,23,203,4910056,,,,,,,2022-04-11,1,,,,,ナベセツ,0
2106,6180001150770,新規,0,2022-04-11,2022-04-11,株式会社リペアワーク,,株式会社,愛知県,名古屋市名東区,猪子石１丁目４０７番地,,23,115,4650021,,,,,,,2022-04-11,1,,,,,リペアワーク,0
2107,6180001150853,新規,0,2022-04-11,2022-04-11,アジアあんしんサポート株式会社,,株式会社,愛知県,名古屋市中区,丸の内２丁目１２番８号,,23,106,4600002,,,,,,,2022-04-11,1,,,,,アジアアンシンサポート,0
2109,6180005019715,新規,0,2022-04-11,2022-04-11,特定非営利活動法人ｄｅｅｐｅｄｇｅ,,その他の設立登記法人,愛知県,名古屋市中区,栄５丁目１１番２０号オープンレジデンシア名古屋栄ｅｓｔ３０２号,,23,106,4600008,,,,,,,2022-04-11,1,,,,,ディープエッジ,0
2110,6180005019731,新規,0,2022-04-11,2022-04-11,一般社団法人ｃａｔ　ｆｏｒｕｍ,,その他の設立登記法人,愛知県,日進市,平子一丁目３番地,,23,230,4700100,,,,,,,2022-04-11,1,,,,,キャットフォーラム,0
2115,6190001029270,新規,0,2022-04-11,2022-04-11,株式会社８８ＦＡＲＭ,,株式会社,三重県,いなべ市,北勢町南中津原７７０番地,,24,214,5110424,,,,,,,2022-04-11,1,,,,,ハチハチファーム,0
2116,6190001029279,新規,0,2022-04-11,2022-04-11,株式会社はぐみ,,株式会社,三重県,四日市市,赤堀新町４番８号,,24,202,5100825,,,,,,,2022-04-11,1,,,,,ハグミ,0
2117,6190001029295,新規,0,2022-04-11,2022-04-11,株式会社ケイトウ,,株式会社,三重県,三重郡菰野町,大字潤田９８９番地７,,24,341,5101253,,,,,,,2022-04-11,1,,,,,ケイトウ,0
2119,6190003003942,新規,0,2022-04-11,2022-04-11,合同会社ミヤハラ工業,,合同会社,三重県,松阪市,久保町７７６番地５,,24,204,5150044,,,,,,,2022-04-11,1,,,,,ミヤハラコウギョウ,0
2120,6190003003950,新規,0,2022-04-11,2022-04-11,合同会社Ｂｅｙｏｎｄ,,合同会社,三重県,鈴鹿市,岸岡町２７００番地の５,,24,207,5100226,,,,,,,2022-04-11,1,,,,,ビヨンド,0
2121,6190005011695,新規,0,2022-04-11,2022-04-11,司法書士法人ききょう,,その他の設立登記法人,三重県,名張市,さつき台２番町４８番地,,24,208,5180604,,,,,,,2022-04-11,1,,,,,,0
2126,6220003003261,新規,0,2022-04-11,2022-04-11,合同会社アイテックス,,合同会社,石川県,金沢市,直江南２丁目６４番地,,17,201,9208214,,,,,,,2022-04-11,1,,,,,アイテックス,0
2132,6250005008735,新規,0,2022-04-11,2022-04-11,映像制作エーカッコシー協同組合,,その他の設立登記法人,山口県,柳井市,南浜１丁目３番１８号,,35,212,7420023,,,,,,,2022-04-11,1,,,,,エイゾウセイサクエーカッコシー,0
2139,6290001096978,新規,0,2022-04-11,2022-04-11,株式会社ＳＯＲＡ．,,株式会社,福岡県,福岡市中央区,大手門３丁目１４－２７ラフォーレ大濠パークアベニュー６０４号,,40,133,8100074,,,,,,,2022-04-11,1,,,,,ソラ,0
2140,6290001097150,新規,0,2022-04-11,2022-04-11,株式会社ＨＳエンターテイメント,,株式会社,福岡県,福岡市中央区,天神２丁目４番１９号第８ラインビル２階,,40,133,8100001,,,,,,,2022-04-11,1,,,,,エイチエスエンターテイメント,0
2142,6290005018631,新規,0,2022-04-11,2022-04-11,一般社団法人ハートメルツ,,その他の設立登記法人,福岡県,久留米市,荒木町荒木３８５３番地１,,40,203,8300063,,,,,,,2022-04-11,1,,,,,ハートメルツ,0
2143,6290801028420,新規,0,2022-04-11,2022-04-11,株式会社ＮＯ．９,,株式会社,福岡県,田川市,大字奈良１５５３番５８号,,40,206,8260043,,,,,,,2022-04-11,1,,,,,ナンバーナイン,0
2146,6300001012859,新規,0,2022-04-11,2022-04-11,株式会社ミアゼスト,,株式会社,佐賀県,多久市,多久町３２４８－１,,41,204,8460031,,,,,,,2022-04-11,1,,,,,ミアゼスト,0
2147,6310003004325,新規,0,2022-04-11,2022-04-11,合同会社まるかく,,合同会社,長崎県,長崎市,岩川町５－１１,,42,201,8528106,,,,,,,2022-04-11,1,,,,,マルカク,0
2153,6330001029628,新規,0,2022-04-11,2022-04-11,株式会社楠商事,,株式会社,熊本県,熊本市南区,海路口町４０６５番地,,43,104,8614124,,,,,,,2022-04-11,1,,,,,クスノキショウジ,0
2159,6350003004057,新規,0,2022-04-11,2022-04-11,合同会社たがみ,,合同会社,宮崎県,日南市,戸高４丁目１７番地１,,45,204,8870031,,,,,,,2022-04-11,1,,,,,タガミ,0
2161,6360001030244,新規,0,2022-04-11,2022-04-11,株式会社Ｋ’ｓＣｏｍｐａｎｙ,,株式会社,沖縄県,中頭郡北中城村,字島袋１３５８番地３,,47,327,9012301,,,,,,,2022-04-11,1,,,,,ケーズカンパニー,0
2163,6360005006629,新規,0,2022-04-11,2022-04-11,一般社団法人日本総合医療福祉学院,,その他の設立登記法人,沖縄県,豊見城市,字豊崎３番地２６,,47,212,9010225,,,,,,,2022-04-11,1,,,,,ニホンソウゴウイリョウフクシガクイン,0
2166,6370001048434,新規,0,2022-04-11,2022-04-11,株式会社ＳＨＯＫＥＮ,,株式会社,宮城県,石巻市,小船越字堤下６４番地１,,04,202,9860132,,,,,,,2022-04-11,1,,,,,ショーケン,0
2167,6370001048442,新規,0,2022-04-11,2022-04-11,Ｔ．Ｍ．Ａ　ＴＲＡＤＩＮＧ．ＣＯ．ＬＴＤ株式会社,,株式会社,宮城県,登米市,迫町佐沼字中江５丁目８番地１１東北住販ビル３－Ｂ,,04,212,9870511,,,,,,,2022-04-11,1,,,,,ティーエムエートレーディングカンパニーリミテッド,0
2172,6380001032726,新規,0,2022-04-11,2022-04-11,株式会社東日本ホームテック,,株式会社,福島県,郡山市,桑野４丁目４番地の５２,,07,203,9638025,,,,,,,2022-04-11,1,,,,,ヒガシニホンホームテック,0
2173,6380001032734,新規,0,2022-04-11,2022-04-11,株式会社Ｌａｖｉｅ,,株式会社,福島県,いわき市,小名浜大原字甲新地６０番地サンシャインスクウェアー小名浜Ｃ,,07,204,9718111,,,,,,,2022-04-11,1,,,,,ラビィ,0
2178,6380005012567,新規,0,2022-04-11,2022-04-11,一般社団法人ＭＯＴＨＥＲ　ＴＥＲＲＡＣＥ,,その他の設立登記法人,福島県,福島市,宮代字家原毛内７番地の１６,,07,201,9600116,,,,,,,2022-04-11,1,,,,,,0
2179,6400003002922,新規,0,2022-04-11,2022-04-11,合同会社ロータイド,,合同会社,岩手県,釜石市,大平町３丁目９－１,,03,211,0260002,,,,,,,2022-04-11,1,,,,,ロウタイド,0
2180,6410001013144,新規,0,2022-04-11,2022-04-11,株式会社継田農産,,株式会社,秋田県,仙北郡美郷町,金沢西根字本笹巻６０番地,,05,434,0191235,,,,,,,2022-04-11,1,,,,,ツギタノウサン,0
2181,6410005006458,新規,0,2022-04-11,2022-04-11,特定非営利活動法人民事信託普及協会,,その他の設立登記法人,秋田県,能代市,字寿域長根４８番地１８１,,05,202,0160862,,,,,,,2022-04-11,1,,,,,ミンジシンタクフキュウキョウカイ,0
2187,6420001017805,新規,0,2022-04-11,2022-04-11,株式会社ＮＯＡ,,株式会社,青森県,青森市,大字左堰字大科１番地１４,,02,201,0301273,,,,,,,2022-04-11,1,,,,,ノア,0
2194,6470001019029,新規,0,2022-04-11,2022-04-11,株式会社日本縫製,,株式会社,香川県,三豊市,高瀬町比地中９２番地２,,37,208,7670003,,,,,,,2022-04-11,1,,,,,ニホンホウセイ,0
2197,6500001024140,新規,0,2022-04-11,2022-04-11,ＪＣＲエンジニアリング株式会社,,株式会社,愛媛県,西条市,喜多台４８５番地１７,,38,206,7991343,,,,,,,2022-04-11,1,,,,,ジェイシーアールエンジニアリング,0
2214,7010001225670,新規,0,2022-04-11,2022-04-11,株式会社ＵＰ　ＳＰＩＣＥ,,株式会社,東京都,千代田区,外神田５丁目１番５号国際ビルディング８階,,13,101,1010021,,,,,,,2022-04-11,1,,,,,アップスパイス,0
2215,7010001225695,新規,0,2022-04-11,2022-04-11,大和ホールディングス株式会社,,株式会社,東京都,千代田区,内幸町１丁目１番１号帝国ホテルタワー１６階,,13,101,1000011,,,,,,,2022-04-11,1,,,,,ダイワホールディングス,0
2216,7010001225704,新規,0,2022-04-11,2022-04-11,株式会社凛,,株式会社,東京都,文京区,目白台２丁目１０番６号,,13,105,1120015,,,,,,,2022-04-11,1,,,,,リン,0
2217,7010001225745,新規,0,2022-04-11,2022-04-11,株式会社タイコーエステート,,株式会社,東京都,中央区,築地１丁目１３番１０号サクセス銀座東ビル７階,,13,102,1040045,,,,,,,2022-04-11,1,,,,,タイコーエステート,0
2218,7010001225869,新規,0,2022-04-11,2022-04-11,株式会社和ふら,,株式会社,東京都,中央区,日本橋大伝馬町１３番地７日本橋大富ビル２階ｉ－０２号室,,13,102,1030011,,,,,,,2022-04-11,1,,,,,ワフラ,0
2226,7010003037437,新規,0,2022-04-11,2022-04-11,ジェイコアレジ６合同会社４,,合同会社,東京都,千代田区,丸の内３丁目１番１号東京共同会計事務所内,,13,101,1000005,,,,,,,2022-04-11,1,,,,,ジェイコアレジシックスヨン,0
2227,7010003037445,新規,0,2022-04-11,2022-04-11,ジェイコアレジ６合同会社１２,,合同会社,東京都,千代田区,丸の内３丁目１番１号東京共同会計事務所内,,13,101,1000005,,,,,,,2022-04-11,1,,,,,ジェイコアレジシックスイチニー,0
2229,7010005034829,新規,0,2022-04-11,2022-04-11,一般社団法人全国デューデリジェンス協会,,その他の設立登記法人,東京都,中央区,日本橋２丁目１番３号アーバンネット日本橋二丁目ビル１０Ｆ,,13,102,1030027,,,,,,,2022-04-11,1,,,,,ゼンコクデューデリジェンスキョウカイ,0
2230,7010005034845,新規,0,2022-04-11,2022-04-11,高槻開発特定目的会社,,その他の設立登記法人,東京都,千代田区,飯田橋４丁目７番１号結和税理士法人内,,13,101,1020072,,,,,,,2022-04-11,1,,,,,タカツキカイハツ,0
2231,7010101015138,新規,0,2022-04-11,2022-04-11,ＳＯＵＬ　ＰＡＲＴＮＥＲＳ株式会社,,株式会社,東京都,八王子市,三崎町５－４ユーポートビル４Ｆ－Ｂ,,13,201,1920084,,,,,,,2022-04-11,1,,,,,ソウルパートナーズ,0
2238,7010401166671,新規,0,2022-04-11,2022-04-11,リーダーズアカデミー株式会社,,株式会社,東京都,港区,西麻布４丁目１５番２－１４０３号,,13,103,1060031,,,,,,,2022-04-11,1,,,,,リーダーズアカデミー,0
2239,7010401166738,新規,0,2022-04-11,2022-04-11,Ｔ‐ＲＩＳＥ株式会社,,株式会社,東京都,港区,新橋２丁目１６番１号ニュー新橋ビル９０３号,,13,103,1050004,,,,,,,2022-04-11,1,,,,,ティーライズ,0
2240,7010403027426,新規,0,2022-04-11,2022-04-11,ｃａｆｅｌａｔｔｅ合同会社,,合同会社,東京都,港区,南青山２丁目２番１５号,,13,103,1070062,,,,,,,2022-04-11,1,,,,,カフェラテ,0
2241,7010403027475,新規,0,2022-04-11,2022-04-11,ＫＹＣ合同会社,,合同会社,東京都,港区,東新橋１丁目６番３号ザロイヤルパークホテルアイコニック東京汐留２４Ｆ,,13,103,1050021,,,,,,,2022-04-11,1,,,,,ケーワイシー,0
2243,7010501048687,新規,0,2022-04-11,2022-04-11,株式会社Ｓｉｎ　Ｃｏｎｃｅｐｔ,,株式会社,東京都,台東区,上野１丁目７番４－１００１号ライオンズタワー上野黒門町,,13,106,1100005,,,,,,,2022-04-11,1,,,,,シンコンセプト,0
2246,7010601060947,新規,0,2022-04-11,2022-04-11,ＲＯＯＭ株式会社,,株式会社,東京都,江東区,豊洲２丁目５番２－１１０２号,,13,108,1350061,,,,,,,2022-04-11,1,,,,,ルーム,0
2255,7010901050680,新規,0,2022-04-11,2022-04-11,株式会社宮田事務所,,株式会社,東京都,世田谷区,三軒茶屋１丁目８番１５－３０６号,,13,112,1540024,,,,,,,2022-04-11,1,,,,,ミヤタジムショ,0
2257,7010903007299,新規,0,2022-04-11,2022-04-11,１０ｇ合同会社,,合同会社,東京都,世田谷区,桜２丁目２番１４号,,13,112,1560053,,,,,,,2022-04-11,1,,,,,テングラムス,0
2260,7011001146799,新規,0,2022-04-11,2022-04-11,株式会社ｆｒｅｅ　ｓｐａｃｅ,,株式会社,東京都,目黒区,下目黒２丁目１６番６－２０３号,,13,110,1530064,,,,,,,2022-04-11,1,,,,,フリースペース,0
2261,7011001146816,新規,0,2022-04-11,2022-04-11,株式会社ａｔｅｋａｔａ,,株式会社,東京都,渋谷区,道玄坂１丁目１０－８渋谷道玄坂東急ビル２Ｆ－Ｃ,,13,113,1500043,,,,,,,2022-04-11,1,,,,,アテカタ,0
2262,7011001146840,新規,0,2022-04-11,2022-04-11,株式会社ＣｏＤｉｇｉｔａｌ,,株式会社,東京都,渋谷区,神宮前６丁目２３番４号桑野ビル２階,,13,113,1500001,,,,,,,2022-04-11,1,,,,,コデジタル,0
2263,7011001146857,新規,0,2022-04-11,2022-04-11,株式会社イーマットインターナショナル,,株式会社,東京都,渋谷区,渋谷２丁目８番４号東和青山ビル３０３,,13,113,1500002,,,,,,,2022-04-11,1,,,,,イーマットインターナショナル,0
2264,7011003014467,新規,0,2022-04-11,2022-04-11,合同会社アズベリーパーク,,合同会社,東京都,目黒区,鷹番２丁目９－７,,13,110,1520004,,,,,,,2022-04-11,1,,,,,アズベリーパーク,0
2269,7011101098486,新規,0,2022-04-11,2022-04-11,株式会社リベルテ,,株式会社,東京都,新宿区,西新宿７丁目９番１５号新宿ダイカンプラザビジネス清田ビル７０５,,13,104,1600023,,,,,,,2022-04-11,1,,,,,リベルテ,0
2272,7011301027699,新規,0,2022-04-11,2022-04-11,株式会社ＢＬＯＷ,,株式会社,東京都,杉並区,和田３丁目５１番３号,,13,115,1660012,,,,,,,2022-04-11,1,,,,,ブロウ,0
2273,7011403003623,新規,0,2022-04-11,2022-04-11,合同会社ストーンルーツ,,合同会社,東京都,板橋区,高島平７丁目１８－４,,13,119,1750082,,,,,,,2022-04-11,1,,,,,ストーンルーツ,0
2277,7011701025212,新規,0,2022-04-11,2022-04-11,両国商事株式会社,,株式会社,東京都,江戸川区,中央４丁目１１番地９号中央ビル２階,,13,123,1320021,,,,,,,2022-04-11,1,,,,,リョウゴクショウジ,0
2282,7011801040565,新規,0,2022-04-11,2022-04-11,情報可視化株式会社,,株式会社,東京都,葛飾区,南水元３丁目４番２－１０１号,,13,122,1250035,,,,,,,2022-04-11,1,,,,,ジョウホウカシカ,0
2285,7012401039015,新規,0,2022-04-11,2022-04-11,株式会社ＨＡＣＨＩ,,株式会社,東京都,武蔵野市,吉祥寺本町１丁目１３番２号５階シラカバビル,,13,203,1800004,,,,,,,2022-04-11,1,,,,,ハチ,0
2286,7012401039064,新規,0,2022-04-11,2022-04-11,株式会社ＥＮＦＹ,,株式会社,東京都,武蔵野市,境南町２丁目２８番２４号,,13,203,1800023,,,,,,,2022-04-11,1,,,,,エンフィー,0
2287,7012403005320,新規,0,2022-04-11,2022-04-11,クーカン合同会社,,合同会社,東京都,稲城市,大丸１３９番地の４稲城ハイコーポ１２０８号,,13,225,2060801,,,,,,,2022-04-11,1,,,,,クーカン,0
2299,7020001146024,新規,0,2022-04-11,2022-04-11,ディオン株式会社,,株式会社,神奈川県,横浜市中区,麦田町４丁目９６番７号,,14,104,2310849,,,,,,,2022-04-11,1,,,,,ディオン,0
2300,7020001146032,新規,0,2022-04-11,2022-04-11,ＡＳＴＥＣ株式会社,,株式会社,神奈川県,川崎市川崎区,東田町１０番２－１００５号,,14,131,2100005,,,,,,,2022-04-11,1,,,,,アステック,0
2311,7021001075667,新規,0,2022-04-11,2022-04-11,株式会社ポラリス,,株式会社,神奈川県,横須賀市,安浦町２丁目１６番地,,14,201,2380012,,,,,,,2022-04-11,1,,,,,ポラリス,0
2312,7021001075675,新規,0,2022-04-11,2022-04-11,株式会社ＣＯＣＯ,,株式会社,神奈川県,横須賀市,粟田２丁目２３番１１号,,14,201,2390845,,,,,,,2022-04-11,1,,,,,ココ,0
2313,7021001075683,新規,0,2022-04-11,2022-04-11,アマニ株式会社,,株式会社,神奈川県,相模原市南区,栄町１４番４号,,14,153,2520306,,,,,,,2022-04-11,1,,,,,アマニ,0
2315,7021003011587,新規,0,2022-04-11,2022-04-11,ワタナベエンジ合同会社,,合同会社,神奈川県,藤沢市,本町２丁目７－１０マンション蔵１０３,,14,205,2510053,,,,,,,2022-04-11,1,,,,,ワタナベエンジ,0
2322,7030001147533,新規,0,2022-04-11,2022-04-11,株式会社三和商事,,株式会社,埼玉県,越谷市,大間野町５丁目７５－１,,11,222,3430844,,,,,,,2022-04-11,1,,,,,サンワショウジ,0
2327,7030003019169,新規,0,2022-04-11,2022-04-11,合同会社ＦＯＲＣＥ,,合同会社,埼玉県,鶴ヶ島市,大字下新田２２－１１,,11,241,3502222,,,,,,,2022-04-11,1,,,,,フォース,0
2328,7030003019202,新規,0,2022-04-11,2022-04-11,合同会社ＳＴＡＲＴ　ＵＰ,,合同会社,埼玉県,北本市,宮内２丁目９７番地,,11,233,3640002,,,,,,,2022-04-11,1,,,,,スタートアップ,0
2330,7030005020785,新規,0,2022-04-11,2022-04-11,医療法人奏心会,,その他の設立登記法人,埼玉県,さいたま市南区,文蔵２丁目５番１９号太田ビル１０２号室,,11,108,3360025,,,,,,,2022-04-11,1,,,,,ソウシンカイ,0
2331,7030005020793,新規,0,2022-04-11,2022-04-11,一般社団法人ＱＲＥＡＴＥ学院,,その他の設立登記法人,埼玉県,川越市,大字上松原３２５番地,,11,201,3501154,,,,,,,2022-04-11,1,,,,,クリエイトガクイン,0
2333,7040001122964,新規,0,2022-04-11,2022-04-11,株式会社惣菜デリＴＩ,,株式会社,千葉県,八千代市,下市場２丁目２番３５号,,12,221,2760026,,,,,,,2022-04-11,1,,,,,ソウザイデリティーアイ,0
2334,7040001122972,新規,0,2022-04-11,2022-04-11,スパイスレモンコーポレーション株式会社,,株式会社,千葉県,柏市,南逆井３丁目２－２７,,12,217,2770043,,,,,,,2022-04-11,1,,,,,スパイスレモンコーポレーション,0
2340,7040003019853,新規,0,2022-04-11,2022-04-11,合同会社ＨＩＫＯ,,合同会社,千葉県,千葉市中央区,宮崎町５４６番地２２,,12,101,2600805,,,,,,,2022-04-11,1,,,,,ヒコ,0
2342,7040005021568,新規,0,2022-04-11,2022-04-11,一般社団法人にじいろはうす,,その他の設立登記法人,千葉県,鴨川市,天津１７０番地,,12,223,2995503,,,,,,,2022-04-11,1,,,,,ニジイロハウス,0
2343,7050003006495,新規,0,2022-04-11,2022-04-11,すまいるアグリ合同会社,,合同会社,茨城県,龍ケ崎市,佐貫町３６８３番地６,,08,208,3010033,,,,,,,2022-04-11,1,,,,,スマイルアグリ,0
2344,7050005013044,新規,0,2022-04-11,2022-04-11,一般社団法人水戸市青色申告会,,その他の設立登記法人,茨城県,水戸市,城南３丁目９番８号,,08,201,3100803,,,,,,,2022-04-11,1,,,,,ミトシアオイロシンコクカイ,0
2345,7050005013052,新規,0,2022-04-11,2022-04-11,一般社団法人スポーツプロモーションいばらき,,その他の設立登記法人,茨城県,稲敷市,江戸崎乙１５８３番地川尻住宅３号室,,08,229,3000509,,,,,,,2022-04-11,1,,,,,スポーツプロモーションイバラキ,0
2352,7070005009973,新規,0,2022-04-11,2022-04-11,一般社団法人群馬県ソフトボール協会,,その他の設立登記法人,群馬県,高崎市,南大類町乙３５番地,,10,202,3700036,,,,,,,2022-04-11,1,,,,,グンマケンソフトボールキョウカイ,0
2357,7080405007444,新規,0,2022-04-11,2022-04-11,一般社団法人湖西・新居観光協会,,その他の設立登記法人,静岡県,湖西市,新居町新居無番地,,22,221,4310302,,,,,,,2022-04-11,1,,,,,コサイアライカンコウキョウカイ,0
2358,7090001017516,新規,0,2022-04-11,2022-04-11,株式会社ラステート,,株式会社,山梨県,南都留郡山中湖村,山中２９番地６,,19,425,4010501,,,,,,,2022-04-11,1,,,,,ラステート,0
2359,7100001035243,新規,0,2022-04-11,2022-04-11,ミライエ建築工房株式会社,,株式会社,長野県,上伊那郡中川村,片桐２３２８,,20,386,3993802,,,,,,,2022-04-11,1,,,,,ミライエケンチクコウボウ,0
2374,7120001245071,新規,0,2022-04-11,2022-04-11,株式会社ＦＳコネクト,,株式会社,大阪府,大阪市北区,豊崎２丁目１－９Ｇ＆Ｒビル３０４号室,,27,127,5310072,,,,,,,2022-04-11,1,,,,,エフエスコネクト,0
2375,7120001245162,新規,0,2022-04-11,2022-04-11,株式会社いろは,,株式会社,大阪府,大阪市中央区,伏見町４丁目４番９号淀屋橋東洋ビル３階,,27,128,5410044,,,,,,,2022-04-11,1,,,,,イロハ,0
2376,7120001245170,新規,0,2022-04-11,2022-04-11,株式会社ＧＲＩＴ,,株式会社,大阪府,大阪市中央区,博労町４丁目５番１号,,27,128,5410059,,,,,,,2022-04-11,1,,,,,グリット,0
2382,7120101065378,新規,0,2022-04-11,2022-04-11,株式会社笹屋,,株式会社,大阪府,岸和田市,下野町５丁目２１番１６号,,27,202,5960041,,,,,,,2022-04-11,1,,,,,ササヤ,0
2387,7120901045835,新規,0,2022-04-11,2022-04-11,株式会社ダイワホーム,,株式会社,大阪府,吹田市,山手町４丁目２４番１５,,27,205,5640073,,,,,,,2022-04-11,1,,,,,ダイワホーム,0
2389,7122001035733,新規,0,2022-04-11,2022-04-11,小山・ファクトリー株式会社,,株式会社,大阪府,八尾市,美園町３丁目７８番地の８,,27,212,5810818,,,,,,,2022-04-11,1,,,,,コヤマファクトリー,0
2390,7122001035758,新規,0,2022-04-11,2022-04-11,阪神株式会社,,株式会社,大阪府,東大阪市,吉田本町３丁目５番１２－１３０２号,,27,227,5780982,,,,,,,2022-04-11,1,,,,,ハンシン,0
2395,7130001071475,新規,0,2022-04-11,2022-04-11,株式会社ＣＨＯ　ＣＨＯ,,株式会社,京都府,京都市右京区,嵯峨苅分町１６番地３,,26,108,6168342,,,,,,,2022-04-11,1,,,,,チョウチョウ,0
2396,7130003007857,新規,0,2022-04-11,2022-04-11,合同会社エンボカ京都,,合同会社,京都府,京都市中京区,西洞院通六角下る池須町４０６番地,,26,104,6048216,,,,,,,2022-04-11,1,,,,,エンボカキョウト,0
2400,7130005016443,新規,0,2022-04-11,2022-04-11,医療法人社団山崎デンタルクリニック,,その他の設立登記法人,京都府,京都市下京区,東洞院通七条下る二丁目東塩小路町７１９番地ＳＫビル４階,,26,106,6000000,,,,,,,2022-04-11,1,,,,,ヤマザキデンタルクリニック,0
2405,7140001125593,新規,0,2022-04-11,2022-04-11,株式会社エムズ,,株式会社,兵庫県,芦屋市,岩園町４９番５８号,,28,206,6590013,,,,,,,2022-04-11,1,,,,,エムズ,0
2412,7160001024117,新規,0,2022-04-11,2022-04-11,株式会社ＰＲＯＳＰＥＲ,,株式会社,滋賀県,守山市,播磨田町１６６番地５９,,25,207,5240012,,,,,,,2022-04-11,1,,,,,プロスパー,0
2422,7180001150662,新規,0,2022-04-11,2022-04-11,株式会社ビートラスト,,株式会社,愛知県,名古屋市名東区,高針台１丁目３０１番地,,23,115,4650054,,,,,,,2022-04-11,1,,,,,ビートラスト,0
2423,7180001150794,新規,0,2022-04-11,2022-04-11,株式会社フィデリティＨＤ,,株式会社,愛知県,犬山市,天神町１丁目１３番地１,,23,215,4840073,,,,,,,2022-04-11,1,,,,,フィデリティホールディングス,0
2424,7180001150828,新規,0,2022-04-11,2022-04-11,株式会社ＴＲＡＤ,,株式会社,愛知県,稲沢市,下津土山町６３番地,,23,220,4928077,,,,,,,2022-04-11,1,,,,,トラッド,0
2425,7180001150836,新規,0,2022-04-11,2022-04-11,レアリスタ株式会社,,株式会社,愛知県,名古屋市昭和区,台町１丁目３番地の２,,23,107,4660033,,,,,,,2022-04-11,1,,,,,レアリスタ,0
2426,7180001150844,新規,0,2022-04-11,2022-04-11,株式会社ケアプラス,,株式会社,愛知県,名古屋市東区,東大曽根町２９番１１号共栄ビル西棟４０４号,,23,102,4610022,,,,,,,2022-04-11,1,,,,,ケアプラス,0
2427,7180001150852,新規,0,2022-04-11,2022-04-11,株式会社ＪＩＭ,,株式会社,愛知県,春日井市,白山町８丁目２０番地７－３０８号,,23,206,4870034,,,,,,,2022-04-11,1,,,,,ジム,0
2428,7180001150877,新規,0,2022-04-11,2022-04-11,株式会社ブリッジ,,株式会社,愛知県,あま市,新居屋郷１０７番地１,,23,237,4901105,,,,,,,2022-04-11,1,,,,,ブリッジ,0
2429,7180001150893,新規,0,2022-04-11,2022-04-11,イーエムサポートアンドテクノロジー株式会社,,株式会社,愛知県,尾張旭市,東栄町２丁目５番地２０号,,23,226,4880011,,,,,,,2022-04-11,1,,,,,イーエムサポートアンドテクノロジー,0
2435,7190001029286,新規,0,2022-04-11,2022-04-11,株式会社雪岡建設,,株式会社,三重県,名張市,青蓮寺９０１番地,,24,208,5180443,,,,,,,2022-04-11,1,,,,,ユキオカケンセツ,0
2436,7190001029294,新規,0,2022-04-11,2022-04-11,株式会社Ｐｉｎ‐ｈｅａｒｔｓ,,株式会社,三重県,鈴鹿市,神戸１丁目１９番２５号北栄ビル４０８,,24,207,5130801,,,,,,,2022-04-11,1,,,,,ピンハーツ,0
2437,7190001029303,新規,0,2022-04-11,2022-04-11,桑名エリアマネジメント株式会社,,株式会社,三重県,桑名市,太一丸１８番地,,24,205,5110005,,,,,,,2022-04-11,1,,,,,クワナエリアマネジメント,0
2441,7190003003941,新規,0,2022-04-11,2022-04-11,合同会社リアン,,合同会社,三重県,亀山市,栄町１４９６番地２,,24,210,5190111,,,,,,,2022-04-11,1,,,,,リアン,0
2443,7190005011694,新規,0,2022-04-11,2022-04-11,特定非営利活動法人桃太郎,,その他の設立登記法人,三重県,津市,小舟３９３番地１,,24,201,5140072,,,,,,,2022-04-11,1,,,,,モモタロウ,0
2448,7230001019316,新規,0,2022-04-11,2022-04-11,株式会社大沼燃料店,,株式会社,富山県,小矢部市,中央町２番３０号,,16,209,9320045,,,,,,,2022-04-11,1,,,,,オオヌマネンリョウテン,0
2454,7240005015368,新規,0,2022-04-11,2022-04-11,一般社団法人ふるさと資源開発研究会,,その他の設立登記法人,広島県,広島市安佐北区,落合３丁目３番９号,,34,106,7391731,,,,,,,2022-04-11,1,,,,,,0
2459,7250005008734,新規,0,2022-04-11,2022-04-11,一般社団法人山口県溶接協会,,その他の設立登記法人,山口県,下松市,大字東豊井１５４７番地２,,35,207,7440002,,,,,,,2022-04-11,1,,,,,ヤマグチケンヨウセツキョウカイ,0
2468,7290001097042,新規,0,2022-04-11,2022-04-11,Ｒｅｆｌｅｃｈｉｒ株式会社,,株式会社,福岡県,福岡市中央区,渡辺通２丁目７番７－１１０１号,,40,133,8100004,,,,,,,2022-04-11,1,,,,,レフレシル,0
2469,7290001097117,新規,0,2022-04-11,2022-04-11,株式会社ｆｌａｔ,,株式会社,福岡県,三潴郡大木町,大字横溝１７７番地,,40,522,8300405,,,,,,,2022-04-11,1,,,,,フラット,0
2470,7290001097133,新規,0,2022-04-11,2022-04-11,株式会社エスカルイン,,株式会社,福岡県,福岡市早良区,賀茂４丁目３４番４号,,40,137,8140164,,,,,,,2022-04-11,1,,,,,エスカルイン,0
2473,7290003012379,新規,0,2022-04-11,2022-04-11,合同会社ＴＲＹＶＥ,,合同会社,福岡県,筑紫野市,天拝坂２丁目１番地４,,40,217,8180053,,,,,,,2022-04-11,1,,,,,トライブ,0
2475,7290801028436,新規,0,2022-04-11,2022-04-11,株式会社九十九建設,,株式会社,福岡県,北九州市小倉南区,横代東町３丁目８番３号,,40,107,8020822,,,,,,,2022-04-11,1,,,,,ツクモケンセツ,0
2477,7310001017815,新規,0,2022-04-11,2022-04-11,アンテナコンサルティング株式会社,,株式会社,長崎県,長崎市,幸町４番５号ブランシエラ幸町リバーサイド５階,,42,201,8500046,,,,,,,2022-04-11,1,,,,,アンテナコンサルティング,0
2489,7350001017662,新規,0,2022-04-11,2022-04-11,Ａｇｒｉ　ｅｎｅｒｇｙ株式会社,,株式会社,宮崎県,児湯郡新富町,大字日置７６０番地１,,45,402,8891401,,,,,,,2022-04-11,1,,,,,アグリエナジー,0
2490,7350001017695,新規,0,2022-04-11,2022-04-11,株式会社Ｉｎｆｉｎｉｔｙ　Ｇｒｏｗｔｈ,,株式会社,宮崎県,宮崎市,大字赤江１３６９番地１セントヒルズマリーナ宮崎弐番館４０８号,,45,201,8800912,,,,,,,2022-04-11,1,,,,,インフィニティーグロース,0
2492,7360001030227,新規,0,2022-04-11,2022-04-11,株式会社ＵＬＵ,,株式会社,沖縄県,国頭郡恩納村,字前兼久８９番地,,47,311,9040414,,,,,,,2022-04-11,1,,,,,ウル,0
2493,7360001030251,新規,0,2022-04-11,2022-04-11,株式会社沖縄不動産サポート,,株式会社,沖縄県,中頭郡読谷村,字大木２７９番地１,,47,324,9040316,,,,,,,2022-04-11,1,,,,,オキナワフドウサンサポート,0
2494,7360003011910,新規,0,2022-04-11,2022-04-11,合同会社栄施工,,合同会社,沖縄県,宜野湾市,赤道２丁目２番５号協伸アパート１Ｆ,,47,205,9012205,,,,,,,2022-04-11,1,,,,,サカエセコウ,0
2495,7360003011919,新規,0,2022-04-11,2022-04-11,合同会社童翔,,合同会社,沖縄県,名護市,大南２丁目１６番２６号大南公民館内,,47,209,9050015,,,,,,,2022-04-11,1,,,,,ドウショウ,0
2496,7360005006628,新規,0,2022-04-11,2022-04-11,一般社団法人Ｆａｍｉｌｉａ,,その他の設立登記法人,沖縄県,沖縄市,泡瀬３丁目３５番１０号,,47,211,9042172,,,,,,,2022-04-11,1,,,,,ファミリア,0
2497,7370001048409,新規,0,2022-04-11,2022-04-11,株式会社アフェクトワン,,株式会社,宮城県,仙台市青葉区,本町１丁目５番２８号カーニープレイス仙台駅前通６０３号室,,04,101,9800014,,,,,,,2022-04-11,1,,,,,アフェクトワン,0
2503,7380001032725,新規,0,2022-04-11,2022-04-11,Ｌａ　ｔｅｒｒｅ株式会社,,株式会社,福島県,いわき市,山田町大津２７番地の２,,07,204,9748241,,,,,,,2022-04-11,1,,,,,ラテール,0
2504,7380001032733,新規,0,2022-04-11,2022-04-11,株式会社オーシャン,,株式会社,福島県,郡山市,並木１丁目２番地の１５,,07,203,9638026,,,,,,,2022-04-11,1,,,,,オーシャン,0
2505,7380003005150,新規,0,2022-04-11,2022-04-11,合同会社Ｎａｔｕｒａｌ,,合同会社,福島県,福島市,渡利字天神２７－１７ロケットビル１Ｆ,,07,201,9608141,,,,,,,2022-04-11,1,,,,,,0
2506,7390001016859,新規,0,2022-04-11,2022-04-11,株式会社Ｅｖｏｌｖｅ,,株式会社,山形県,東根市,さくらんぼ駅前３丁目６番１２号瑞祥館２０３,,06,211,9993720,,,,,,,2022-04-11,1,,,,,エヴォルブ,0
2510,7420005007801,新規,0,2022-04-11,2022-04-11,一般社団法人平川市西地区まちづくり委員会,,その他の設立登記法人,青森県,平川市,館山上扇田５６番地,,02,210,0360162,,,,,,,2022-04-11,1,,,,,ヒラカワシニシチクマチヅクリイインカイ,0
2521,7470001019028,新規,0,2022-04-11,2022-04-11,ティーズ株式会社,,株式会社,香川県,高松市,松縄町１１３３番地６,,37,201,7600079,,,,,,,2022-04-11,1,,,,,ティーズ,0
2525,7470003002163,新規,0,2022-04-11,2022-04-11,合同会社ＧＯＤＡ　ＦＯＯＤＳ＆ＥＮＥＲＧＹ,,合同会社,香川県,高松市,新田町甲１２０５番地２,,37,201,7610102,,,,,,,2022-04-11,1,,,,,ゴウダフーズアンドエナジー,0
2527,7490005006838,新規,0,2022-04-11,2022-04-11,一般社団法人幡多地域森づくり推進センター,,その他の設立登記法人,高知県,四万十市,上ノ土居１５４４番地,,39,210,7870776,,,,,,,2022-04-11,1,,,,,ハタチイキモリヅクリスイシンセンター,0
2529,7700150107848,新規,0,2022-04-11,2022-04-11,天岩戸土地改良区,,その他,宮崎県,西臼杵郡高千穂町,大字岩戸１０６５－２,,45,441,8821621,,,,,,,2022-04-11,1,,,,,アマノイワトトチカイリョウク,0
2541,8010001225694,新規,0,2022-04-11,2022-04-11,株式会社ラウンド,,株式会社,東京都,中央区,勝どき１丁目４番２－１２０１号,,13,102,1040054,,,,,,,2022-04-11,1,,,,,ラウンド,0
2542,8010001225736,新規,0,2022-04-11,2022-04-11,アイグス保険サービス株式会社,,株式会社,東京都,中央区,日本橋１丁目４番１号日本橋一丁目ビルディング１６Ｆ,,13,102,1030027,,,,,,,2022-04-11,1,,,,,アイグスホケンサービス,0
2550,8010003037394,新規,0,2022-04-11,2022-04-11,ジェネシスワン合同会社,,合同会社,東京都,千代田区,丸の内３丁目１番１号東京共同会計事務所内,,13,101,1000005,,,,,,,2022-04-11,1,,,,,ジェネシスワン,0
2551,8010003037436,新規,0,2022-04-11,2022-04-11,ジェイコアレジ６合同会社３,,合同会社,東京都,千代田区,丸の内３丁目１番１号東京共同会計事務所内,,13,101,1000005,,,,,,,2022-04-11,1,,,,,ジェイコアレジシックスサン,0
2552,8010003037444,新規,0,2022-04-11,2022-04-11,ジェイコアレジ６合同会社１１,,合同会社,東京都,千代田区,丸の内３丁目１番１号東京共同会計事務所内,,13,101,1000005,,,,,,,2022-04-11,1,,,,,ジェイコアレジシックスイチイチ,0
2553,8010003037452,新規,0,2022-04-11,2022-04-11,ジェイコアレジ６合同会社１９,,合同会社,東京都,千代田区,丸の内３丁目１番１号東京共同会計事務所内,,13,101,1000005,,,,,,,2022-04-11,1,,,,,ジェイコアレジシックスイチキュー,0
2554,8010003037469,新規,0,2022-04-11,2022-04-11,みらいＬＤ研究所合同会社,,合同会社,東京都,中央区,日本橋小伝馬町１３番１２号,,13,102,1030001,,,,,,,2022-04-11,1,,,,,ミライライフデザインケンキュウジョ,0
2559,8010005034828,新規,0,2022-04-11,2022-04-11,一般社団法人日本家族看護学会,,その他の設立登記法人,東京都,千代田区,一ツ橋１丁目１番１号パレスサイドビル株式会社毎日学術フォーラム内,,13,101,1000003,,,,,,,2022-04-11,1,,,,,ニホンカゾクカンゴガッカイ,0
2574,8010401166670,新規,0,2022-04-11,2022-04-11,株式会社Ａｓｉａｒｔ,,株式会社,東京都,港区,高輪２丁目１１－２１－１０３,,13,103,1080074,,,,,,,2022-04-11,1,,,,,アジアート,0
2575,8010401166679,新規,0,2022-04-11,2022-04-11,株式会社ＧＡＺＥＮ,,株式会社,東京都,港区,六本木６丁目７番１０号簗場ビル４Ｆ,,13,103,1060032,,,,,,,2022-04-11,1,,,,,ガゼン,0
2576,8010401166704,新規,0,2022-04-11,2022-04-11,株式会社ＷＥＳＴ,,株式会社,東京都,港区,南麻布３丁目２１番１４号,,13,103,1060047,,,,,,,2022-04-11,1,,,,,ウエスト,0
2577,8010401166712,新規,0,2022-04-11,2022-04-11,株式会社ｐｉｕｐｉａｎｏ,,株式会社,東京都,港区,白金台４丁目２０番９－６０６号,,13,103,1080071,,,,,,,2022-04-11,1,,,,,ピウピアノ,0
2579,8010403027433,新規,0,2022-04-11,2022-04-11,アートアクト合同会社,,合同会社,東京都,港区,南青山２丁目２番１５号,,13,103,1070062,,,,,,,2022-04-11,1,,,,,アートアクト,0
2580,8010405020881,新規,0,2022-04-11,2022-04-11,一般社団法人ビノベーションコーチング協会,,その他の設立登記法人,東京都,港区,西新橋１丁目２番９号,,13,103,1050003,,,,,,,2022-04-11,1,,,,,ビノベーションコーチングキョウカイ,0
2581,8010501048686,新規,0,2022-04-11,2022-04-11,株式会社レタス,,株式会社,東京都,台東区,浅草橋３丁目１０番６号,,13,106,1110053,,,,,,,2022-04-11,1,,,,,レタス,0
2585,8010603009487,新規,0,2022-04-11,2022-04-11,合同会社ＡＲＩＳＥ,,合同会社,東京都,江東区,北砂３丁目２２番２２号の６０７,,13,108,1360073,,,,,,,2022-04-11,1,,,,,アライズ,0
2586,8010605004065,新規,0,2022-04-11,2022-04-11,医療法人社団慎誠会,,その他の設立登記法人,東京都,江東区,富岡２丁目２番６号プロスペアー門前仲町２０２号,,13,108,1350047,,,,,,,2022-04-11,1,,,,,シンセイカイ,0
2589,8010701042480,新規,0,2022-04-11,2022-04-11,株式会社ｗｉｎｎｅｒｓ,,株式会社,東京都,品川区,大崎３丁目１－５ルミネ五反田第二５０４,,13,109,1410032,,,,,,,2022-04-11,1,,,,,ウィナーズ,0
2590,8010701042489,新規,0,2022-04-11,2022-04-11,株式会社ナカタ,,株式会社,東京都,品川区,東品川１丁目６番２６号,,13,109,1400002,,,,,,,2022-04-11,1,,,,,ナカタ,0
2593,8010703006186,新規,0,2022-04-11,2022-04-11,合同会社Ｌｕｃｉａｚ,,合同会社,東京都,品川区,荏原２丁目４－１６アンジェリハイツ１０２,,13,109,1420063,,,,,,,2022-04-11,1,,,,,ルシアス,0
2594,8010705003339,新規,0,2022-04-11,2022-04-11,一般社団法人パラリンビクス協会,,その他の設立登記法人,東京都,品川区,東品川４丁目１０番１８－４１１号,,13,109,1400002,,,,,,,2022-04-11,1,,,,,パラリンビクスキョウカイ,0
2600,8010903007298,新規,0,2022-04-11,2022-04-11,合同会社Ｂｒｕｖ,,合同会社,東京都,世田谷区,北烏山７丁目１０－２２,,13,112,1570061,,,,,,,2022-04-11,1,,,,,ブラヴ,0
2610,8011001146690,新規,0,2022-04-11,2022-04-11,株式会社ＢＲＩＤＧｅｓｔ,,株式会社,東京都,渋谷区,道玄坂１丁目１０番８号渋谷道玄坂東急ビル２Ｆ－Ｃ,,13,113,1500043,,,,,,,2022-04-11,1,,,,,ブリジェスト,0
2611,8011001146708,新規,0,2022-04-11,2022-04-11,ＣＨＩＧＩＲＩ株式会社,,株式会社,東京都,渋谷区,代々木２丁目４４番２－１０１号,,13,113,1510053,,,,,,,2022-04-11,1,,,,,チギリ,0
2612,8011001146807,新規,0,2022-04-11,2022-04-11,株式会社Ｒｅｆｕ,,株式会社,東京都,渋谷区,神宮前６丁目２３番４号,,13,113,1500001,,,,,,,2022-04-11,1,,,,,リフ,0
2613,8011001146831,新規,0,2022-04-11,2022-04-11,株式会社ｍｏｃｈｉｍｏ,,株式会社,東京都,渋谷区,元代々木町５４番１号,,13,113,1510062,,,,,,,2022-04-11,1,,,,,モチモ,0
2619,8011003014375,新規,0,2022-04-11,2022-04-11,アイプロリッシュ合同会社,,合同会社,東京都,渋谷区,神宮前６丁目２３番４号桑野ビル２階,,13,113,1500001,,,,,,,2022-04-11,1,,,,,アイプロリッシュ,0
2621,8011005009539,新規,0,2022-04-11,2022-04-11,一般社団法人さくら咲く,,その他の設立登記法人,東京都,渋谷区,桜丘町２９番１６号セルフィスタ渋谷２０３,,13,113,1500031,,,,,,,2022-04-11,1,,,,,サクラサク,0
2626,8011101098460,新規,0,2022-04-11,2022-04-11,丸木株式会社,,株式会社,東京都,新宿区,大久保１丁目１番９－８０１号,,13,104,1690072,,,,,,,2022-04-11,1,,,,,マルキ,0
2627,8011101098469,新規,0,2022-04-11,2022-04-11,株式会社ＺＥＡＬ,,株式会社,東京都,新宿区,中落合１丁目１番１６号城見マンション５０４号,,13,104,1610032,,,,,,,2022-04-11,1,,,,,ゼール,0
2628,8011101098502,新規,0,2022-04-11,2022-04-11,株式会社ＬＩＴＴＬＥ　ＳＰＩＣＥ,,株式会社,東京都,新宿区,新宿２丁目１２番１３号,,13,104,1600022,,,,,,,2022-04-11,1,,,,,リトルスパイス,0
2632,8011105010215,新規,0,2022-04-11,2022-04-11,一般社団法人東京グレイス・ロード,,その他の設立登記法人,東京都,新宿区,西新宿８丁目５番３号アクセス西新宿９Ｆ,,13,104,1600023,,,,,,,2022-04-11,1,,,,,トウキョウグレイスロード,0
2633,8011105010223,新規,0,2022-04-11,2022-04-11,一般社団法人ダンサーズ・キャリア・サポート,,その他の設立登記法人,東京都,新宿区,高田馬場１丁目３１番８号,,13,104,1690075,,,,,,,2022-04-11,1,,,,,ダンサーズキャリアサポート,0
2634,8011201023748,新規,0,2022-04-11,2022-04-11,株式会社イクナル,,株式会社,東京都,中野区,東中野５丁目１番１号ユニゾンタワー,,13,114,1640003,,,,,,,2022-04-11,1,,,,,イクナル,0
2645,8011603003570,新規,0,2022-04-11,2022-04-11,合同会社ＭＩＹＵ,,合同会社,東京都,練馬区,下石神井６丁目４３番６号,,13,120,1770042,,,,,,,2022-04-11,1,,,,,ミユ,0
2648,8012401039063,新規,0,2022-04-11,2022-04-11,Ｃａｓａ　Ｃｒｅａｔｉｖａ株式会社,,株式会社,東京都,府中市,清水が丘３丁目５０番地の５,,13,206,1830015,,,,,,,2022-04-11,1,,,,,カサクレアティーバ,0
2654,8013301048914,新規,0,2022-04-11,2022-04-11,ＳＤ　Ｒｅｓｅａｒｃｈ　ａｎｄ　Ｄｅｖｅｌｏｐｍｅｎｔ株式会社,,株式会社,東京都,豊島区,池袋２丁目５３番５号,,13,116,1710014,,,,,,,2022-04-11,1,,,,,エスディリサーチアンドデベロップメント,0
2663,8020001146031,新規,0,2022-04-11,2022-04-11,株式会社アファーマティブシステム,,株式会社,神奈川県,横浜市緑区,鴨居４丁目４５番８号,,14,113,2260003,,,,,,,2022-04-11,1,,,,,アファーマティブシステム,0
2664,8020001146056,新規,0,2022-04-11,2022-04-11,ＪＭＡ　Ｇｌｏｂａｌ　Ｈｏｌｄｉｎｇｓ株式会社,,株式会社,神奈川県,横浜市港南区,日野南１丁目５番５号,,14,111,2340055,,,,,,,2022-04-11,1,,,,,ジェーエムエーグローバルホールディングス,0
2665,8020001146064,新規,0,2022-04-11,2022-04-11,株式会社ルノン,,株式会社,神奈川県,横浜市神奈川区,高島台１番地６－２０２,,14,102,2210833,,,,,,,2022-04-11,1,,,,,ルノン,0
2667,8020003021570,新規,0,2022-04-11,2022-04-11,ｅｍｏｔｉｏｎ合同会社,,合同会社,神奈川県,横浜市中区,花咲町１丁目４８番３号ロゼ桜木町４０６号,,14,104,2310063,,,,,,,2022-04-11,1,,,,,エモーション,0
2674,8021001075518,新規,0,2022-04-11,2022-04-11,株式会社ｒｅ　Ｌｉｇｈｔ,,株式会社,神奈川県,鎌倉市,岩瀬９２５番地レーベンハイム鎌倉マナーハウス６１２号室,,14,204,2470051,,,,,,,2022-04-11,1,,,,,リライト,0
2675,8021001075658,新規,0,2022-04-11,2022-04-11,株式会社半透明,,株式会社,神奈川県,逗子市,逗子２丁目９番２７号,,14,208,2490006,,,,,,,2022-04-11,1,,,,,ハントウメイ,0
2676,8021001075682,新規,0,2022-04-11,2022-04-11,株式会社マリン,,株式会社,神奈川県,相模原市緑区,下九沢１４４３番地,,14,151,2520134,,,,,,,2022-04-11,1,,,,,マリン,0
2677,8021001075690,新規,0,2022-04-11,2022-04-11,株式会社Ｇｉｖｉｎｇ　ｂａｃｋ,,株式会社,神奈川県,厚木市,岡田２丁目１番１号１Ｆ,,14,212,2430021,,,,,,,2022-04-11,1,,,,,ギビングバック,0
2678,8021003011578,新規,0,2022-04-11,2022-04-11,合同会社多摩ランドリー,,合同会社,神奈川県,相模原市緑区,東橋本２丁目２３番２号,,14,151,2520144,,,,,,,2022-04-11,1,,,,,,0
2679,8021003011586,新規,0,2022-04-11,2022-04-11,ＷＡＶＥ合同会社,,合同会社,神奈川県,鎌倉市,腰越１１７５番地５ヴィラ笠原２０１,,14,204,2480033,,,,,,,2022-04-11,1,,,,,,0
2687,8030001147532,新規,0,2022-04-11,2022-04-11,株式会社ａｗＯｒｄ,,株式会社,埼玉県,さいたま市大宮区,宮町５丁目２９番地プルムドール大宮１０１,,11,103,3300802,,,,,,,2022-04-11,1,,,,,アワード,0
2693,8030003019201,新規,0,2022-04-11,2022-04-11,フルムーン合同会社,,合同会社,埼玉県,熊谷市,新堀３４７番地３,,11,202,3600841,,,,,,,2022-04-11,1,,,,,フルムーン,0
2695,8030005020792,新規,0,2022-04-11,2022-04-11,社会福祉法人あみくるＤａｙｓ,,その他の設立登記法人,埼玉県,川口市,本町４丁目９番１４号,,11,203,3320012,,,,,,,2022-04-11,1,,,,,アミクルデイズ,0
2699,8040001122864,新規,0,2022-04-11,2022-04-11,株式会社ＡＴＳ,,株式会社,千葉県,千葉市若葉区,みつわ台５丁目３９番５－１号,,12,104,2640032,,,,,,,2022-04-11,1,,,,,エーティーエス,0
2700,8040001122906,新規,0,2022-04-11,2022-04-11,株式会社ＫＡＭＥＤＥＮ,,株式会社,千葉県,富里市,七栄７２５番地８３,,12,233,2860221,,,,,,,2022-04-11,1,,,,,カメデン,0
2701,8040001122947,新規,0,2022-04-11,2022-04-11,株式会社ＥＮＡ,,株式会社,千葉県,船橋市,金杉９丁目１７番２７号,,12,204,2730853,,,,,,,2022-04-11,1,,,,,エナ,0
2702,8040001122963,新規,0,2022-04-11,2022-04-11,株式会社大樹,,株式会社,千葉県,流山市,向小金１丁目３７８番地の１南柏パークハウスＢ－６０５,,12,220,2700143,,,,,,,2022-04-11,1,,,,,ダイキ,0
2710,8040003019860,新規,0,2022-04-11,2022-04-11,ゴッドバレー合同会社,,合同会社,千葉県,柏市,今谷上町３１－１０ヴィアーレ１０６号,,12,217,2770074,,,,,,,2022-04-11,1,,,,,ゴッドバレー,0
2724,8050005013043,新規,0,2022-04-11,2022-04-11,医療法人メディカルＧＰ,,その他の設立登記法人,茨城県,那珂市,横堀１２９１番地２９,,08,226,3110103,,,,,,,2022-04-11,1,,,,,メディカルジーピー,0
2726,8060003004019,新規,0,2022-04-11,2022-04-11,ランタン合同会社,,合同会社,栃木県,那須塩原市,上塩原１４５番地１００第一自然郷９９,,09,213,3292923,,,,,,,2022-04-11,1,,,,,ランタン,0
2728,8070001039131,新規,0,2022-04-11,2022-04-11,株式会社システムプラス,,株式会社,群馬県,前橋市,大利根町２丁目４７番地５,,10,201,3710825,,,,,,,2022-04-11,1,,,,,システムプラス,0
2729,8070003004447,新規,0,2022-04-11,2022-04-11,合同会社アグリフィールズ,,合同会社,群馬県,桐生市,堤町１丁目１８番７号,,10,203,3760042,,,,,,,2022-04-11,1,,,,,アグリフィールズ,0
2747,8120001245145,新規,0,2022-04-11,2022-04-11,株式会社ＥＮＳＥＭＢＬＥ,,株式会社,大阪府,大阪市西区,南堀江１丁目２１番１４号Ｍ．ｈｉｌｌｓ南堀江ｓｏｕｔｈ８０２,,27,106,5500015,,,,,,,2022-04-11,1,,,,,アンサンブル,0
2752,8120003021445,新規,0,2022-04-11,2022-04-11,合同会社ａｍｅ,,合同会社,大阪府,大阪市中央区,平野町２丁目２番１２号,,27,128,5410046,,,,,,,2022-04-11,1,,,,,アメ,0
2761,8120901045801,新規,0,2022-04-11,2022-04-11,株式会社ＹＫＣ,,株式会社,大阪府,茨木市,中河原町３番２３号シェリール河崎３０４号,,27,211,5670063,,,,,,,2022-04-11,1,,,,,ワイケイシー,0
2763,8120903004103,新規,0,2022-04-11,2022-04-11,合同会社Ｌｉｎｋ　Ｍｏｏｎ,,合同会社,大阪府,摂津市,千里丘新町４番１０－８０３号,,27,224,5660002,,,,,,,2022-04-11,1,,,,,リンクムーン,0
2764,8122001035749,新規,0,2022-04-11,2022-04-11,株式会社ＳＨＩＲＡＨＯ　ＰＬＵＳ,,株式会社,大阪府,東大阪市,若江本町１丁目４番２１号,,27,227,5780942,,,,,,,2022-04-11,1,,,,,シラホプラス,0
2765,8122001035757,新規,0,2022-04-11,2022-04-11,株式会社ＭＯＮＥＹＶＡＴ,,株式会社,大阪府,四條畷市,田原台６丁目７番２４号,,27,229,5750013,,,,,,,2022-04-11,1,,,,,マニベート,0
2771,8130001071482,新規,0,2022-04-11,2022-04-11,Ｅｙｅ‐ｃｏｎｎｅｃｔ株式会社,,株式会社,京都府,京都市北区,紫竹上緑町１９番地９,,26,101,6038427,,,,,,,2022-04-11,1,,,,,アイコネクト,0
2782,8140001125568,新規,0,2022-04-11,2022-04-11,株式会社プラスダブル,,株式会社,兵庫県,芦屋市,船戸町５番２６号,,28,206,6590093,,,,,,,2022-04-11,1,,,,,プラスダブル,0
2783,8140001125584,新規,0,2022-04-11,2022-04-11,株式会社マスタ建築設計室,,株式会社,兵庫県,加古郡稲美町,野寺９９３番地の８,,28,381,6751104,,,,,,,2022-04-11,1,,,,,マスタケンチクセッケイシツ,0
2789,8140005026110,新規,0,2022-04-11,2022-04-11,一般社団法人ＭＪワールド,,その他の設立登記法人,兵庫県,神戸市兵庫区,菊水町１０丁目３７番５号岩本ビル２Ｆ,,28,105,6520058,,,,,,,2022-04-11,1,,,,,エムジェイワールド,0
2794,8170001017036,新規,0,2022-04-11,2022-04-11,株式会社ＦＮｃａｐｉｔａｌ,,株式会社,和歌山県,岩出市,中島９２８番地,,30,209,6496245,,,,,,,2022-04-11,1,,,,,エフエヌキャピタル,0
2801,8180001150793,新規,0,2022-04-11,2022-04-11,株式会社ホットホットＨＤ,,株式会社,愛知県,犬山市,天神町１丁目１３番地１,,23,215,4840073,,,,,,,2022-04-11,1,,,,,ホットホットホールディングス,0
2802,8180001150827,新規,0,2022-04-11,2022-04-11,ヒメユリ電気株式会社,,株式会社,愛知県,大府市,共西町６丁目５１１番地,,23,223,4740062,,,,,,,2022-04-11,1,,,,,ヒメユリデンキ,0
2803,8180001150835,新規,0,2022-04-11,2022-04-11,株式会社ＷＦＣ,,株式会社,愛知県,名古屋市北区,城見通１丁目３番地,,23,103,4620046,,,,,,,2022-04-11,1,,,,,ダブリューエフシー,0
2804,8180001150843,新規,0,2022-04-11,2022-04-11,修建サービス株式会社,,株式会社,愛知県,名古屋市南区,港東通１丁目２２番地の２,,23,112,4570834,,,,,,,2022-04-11,1,,,,,シュウケンサービス,0
2807,8180003023683,新規,0,2022-04-11,2022-04-11,こさぶろう合同会社,,合同会社,愛知県,あま市,中橋廻間６４－３１,,23,237,4901226,,,,,,,2022-04-11,1,,,,,コサブロウ,0
2811,8180005019705,新規,0,2022-04-11,2022-04-11,医療法人誠彰会,,その他の設立登記法人,愛知県,名古屋市瑞穂区,柳ケ枝町１丁目３４番地１階,,23,108,4670825,,,,,,,2022-04-11,1,,,,,ジョウショウカイ,0
2816,8190001029277,新規,0,2022-04-11,2022-04-11,三共リース株式会社,,株式会社,三重県,津市,あのつ台２丁目２番１２,,24,201,5140131,,,,,,,2022-04-11,1,,,,,サンキョウリース,0
2817,8190001029285,新規,0,2022-04-11,2022-04-11,龍華貿易株式会社,,株式会社,三重県,四日市市,山田町字野田ノ谷９７５番１,,24,202,5121111,,,,,,,2022-04-11,1,,,,,リュウカボウエキ,0
2818,8190001029293,新規,0,2022-04-11,2022-04-11,株式会社トリプルシーホールディングス,,株式会社,三重県,桑名市,松ノ木１丁目１０番地の４,,24,205,5110902,,,,,,,2022-04-11,1,,,,,トリプルシーホールディングス,0
2819,8190001029302,新規,0,2022-04-11,2022-04-11,株式会社スマートピット,,株式会社,三重県,四日市市,鵜の森１丁目８番１３号,,24,202,5100074,,,,,,,2022-04-11,1,,,,,スマートレンタカーピット,0
2820,8190001029310,新規,0,2022-04-11,2022-04-11,株式会社横井トラクター,,株式会社,三重県,桑名郡木曽岬町,大字和泉１３８番地,,24,303,4980803,,,,,,,2022-04-11,1,,,,,ヨコイトラクター,0
2821,8190001029319,新規,0,2022-04-11,2022-04-11,株式会社Ｓ．Ｐ．Ｃ．ＦＡＲＭ,,株式会社,三重県,伊賀市,白樫３６００番地,,24,216,5181151,,,,,,,2022-04-11,1,,,,,エスピーシーファーム,0
2822,8190003003949,新規,0,2022-04-11,2022-04-11,合同会社しきそう,,合同会社,三重県,三重郡菰野町,大字菰野８４７６－１１,,24,341,5101233,,,,,,,2022-04-11,1,,,,,シキソウ,0
2830,8230003001832,新規,0,2022-04-11,2022-04-11,合同会社ＳＮＯＷ‐ＤＯ,,合同会社,富山県,高岡市,木津１４５２番地２０,,16,202,9330857,,,,,,,2022-04-11,1,,,,,スノードゥ,0
2843,8250003003042,新規,0,2022-04-11,2022-04-11,Ｒｅ．ｓｔｅｐ合同会社,,合同会社,山口県,山口市,吉敷佐畑２丁目４－７,,35,203,7530816,,,,,,,2022-04-11,1,,,,,リステップ,0
2844,8250005008733,新規,0,2022-04-11,2022-04-11,特定非営利活動法人厚保地区の子どもを支援する会,,その他の設立登記法人,山口県,美祢市,西厚保町本郷４１２番地,,35,213,7592151,,,,,,,2022-04-11,1,,,,,アツチクノコドモヲシエンスルカイ,0
2850,8290001097124,新規,0,2022-04-11,2022-04-11,株式会社Ｔｒａｎｓｆｅｒｓ,,株式会社,福岡県,福岡市中央区,天神２丁目３－１０天神パインクレスト,,40,133,8100001,,,,,,,2022-04-11,1,,,,,トランスファーズ,0
2851,8290001097140,新規,0,2022-04-11,2022-04-11,株式会社ＲＩＳＴＯＲＯ,,株式会社,福岡県,福岡市博多区,中洲３丁目４番７博多バッカス館３０８,,40,132,8100801,,,,,,,2022-04-11,1,,,,,リストロ,0
2852,8290001097181,新規,0,2022-04-11,2022-04-11,株式会社そうしーず,,株式会社,福岡県,福岡市中央区,薬院１丁目６－５－５０９,,40,133,8100022,,,,,,,2022-04-11,1,,,,,ソウシーズ,0
2864,8300003001817,新規,0,2022-04-11,2022-04-11,合同会社ＭＵＰＯ,,合同会社,佐賀県,武雄市,北方町大字志久１０４５番地１・Ａ１０２,,41,206,8492201,,,,,,,2022-04-11,1,,,,,エムユーピーオー,0
2872,8330001029634,新規,0,2022-04-11,2022-04-11,株式会社Ｋ’ｓ　ｇａｒｄｅｎ,,株式会社,熊本県,熊本市東区,水源２丁目１７番５号,,43,102,8620907,,,,,,,2022-04-11,1,,,,,ケイズガーデン,0
2876,8350001017694,新規,0,2022-04-11,2022-04-11,株式会社ＬＩＧ,,株式会社,宮崎県,宮崎市,橘通西３丁目１０－２４竹原第３ビル６Ｆ,,45,201,8800001,,,,,,,2022-04-11,1,,,,,エルアイジー,0
2880,8360001030226,新規,0,2022-04-11,2022-04-11,株式会社ソニックオートサービス,,株式会社,沖縄県,那覇市,小禄１丁目５番７号,,47,201,9010152,,,,,,,2022-04-11,1,,,,,ソニックオートサービス,0
2881,8360001030234,新規,0,2022-04-11,2022-04-11,ＧＯＯＳＥ株式会社,,株式会社,沖縄県,国頭郡本部町,字健堅１０８５番地２,,47,308,9050226,,,,,,,2022-04-11,1,,,,,,0
2884,8360003011918,新規,0,2022-04-11,2022-04-11,合同会社ウリテン,,合同会社,沖縄県,那覇市,天久２丁目８番１０－２０２号,,47,201,9000005,,,,,,,2022-04-11,1,,,,,ウリテン,0
2895,8390001016858,新規,0,2022-04-11,2022-04-11,株式会社ＥＡＴＦＯＬＫＳ,,株式会社,山形県,山形市,城南町１丁目１番１号霞城セントラル２階,,06,201,9900827,,,,,,,2022-04-11,1,,,,,イートフォルクス,0
2898,8400003002920,新規,0,2022-04-11,2022-04-11,合同会社グローハニー,,合同会社,岩手県,盛岡市,西下台町８番２５号,,03,201,0200065,,,,,,,2022-04-11,1,,,,,グローハニー,0
2901,8420003002497,新規,0,2022-04-11,2022-04-11,合同会社ＯＮＥ　ＯＲ　ＥＩＧＨＴ,,合同会社,青森県,十和田市,稲生町１５番２４号,,02,206,0340011,,,,,,,2022-04-11,1,,,,,ワンオアエイト,0
2904,8430003013790,新規,0,2022-04-11,2022-04-11,合同会社ＨＹコンサルティング,,合同会社,北海道,苫小牧市,しらかば町４丁目２１番３号,,01,213,0530821,,,,,,,2022-04-11,1,,,,,エイチワイコンサルティング,0
2909,8470003002162,新規,0,2022-04-11,2022-04-11,合同会社禅進,,合同会社,香川県,三豊市,三野町吉津甲２４９７番地１,,37,208,7670033,,,,,,,2022-04-11,1,,,,,ゼンシン,0
2915,8500005008484,新規,0,2022-04-11,2022-04-11,一般財団法人えひめ西条つながり基金,,その他の設立登記法人,愛媛県,西条市,大町１６６３番地サカエマチＨＯＬＩＣ内,,38,206,7930030,,,,,,,2022-04-11,1,,,,,エヒメサイジョウツナガリキキン,0
2928,9010001225636,新規,0,2022-04-11,2022-04-11,名鉄ワールドトランスポート株式会社,,株式会社,東京都,中央区,日本橋室町１丁目６番３号,,13,102,1030022,,,,,,,2022-04-11,1,,,,,メイテツワールドトランスポート,0
2929,9010001225644,新規,0,2022-04-11,2022-04-11,株式会社ジャパン・チェーン・ホールディングス,,株式会社,東京都,千代田区,丸の内３丁目４番１号,,13,101,1000005,,,,,,,2022-04-11,1,,,,,ジャパンチェーンホールディングス,0
2930,9010001225710,新規,0,2022-04-11,2022-04-11,ＴＵＳ都市開発株式会社,,株式会社,東京都,千代田区,飯田橋１丁目５番６号,,13,101,1020072,,,,,,,2022-04-11,1,,,,,ティーユーエストシカイハツ,0
2931,9010001225727,新規,0,2022-04-11,2022-04-11,株式会社ユニコーンテクノロジー,,株式会社,東京都,中央区,湊３丁目８番１号,,13,102,1040043,,,,,,,2022-04-11,1,,,,,ユニコーンテクノロジー,0
2935,9010003037435,新規,0,2022-04-11,2022-04-11,ジェイコアレジ６合同会社２,,合同会社,東京都,千代田区,丸の内３丁目１番１号東京共同会計事務所内,,13,101,1000005,,,,,,,2022-04-11,1,,,,,ジェイコアレジシックスニ,0
2936,9010003037443,新規,0,2022-04-11,2022-04-11,ジェイコアレジ６合同会社１０,,合同会社,東京都,千代田区,丸の内３丁目１番１号東京共同会計事務所内,,13,101,1000005,,,,,,,2022-04-11,1,,,,,ジェイコアレジシックスイチゼロ,0
2937,9010003037451,新規,0,2022-04-11,2022-04-11,ジェイコアレジ６合同会社１８,,合同会社,東京都,千代田区,丸の内３丁目１番１号東京共同会計事務所内,,13,101,1000005,,,,,,,2022-04-11,1,,,,,ジェイコアレジシックスイチハチ,0
2939,9010005034835,新規,0,2022-04-11,2022-04-11,社会保険労務士法人トーヨーレイバーコンサルタント,,その他の設立登記法人,東京都,千代田区,飯田橋１丁目７番１０号山京別館,,13,101,1020072,,,,,,,2022-04-11,1,,,,,トーヨーレイバーコンサルタント,0
2943,9010401166694,新規,0,2022-04-11,2022-04-11,ノウタス株式会社,,株式会社,東京都,港区,南青山２丁目１５番５号ＦＡＲＯ青山１階,,13,103,1070062,,,,,,,2022-04-11,1,,,,,ノウタス,0
2947,9010403027440,新規,0,2022-04-11,2022-04-11,合同会社ラビットゲート,,合同会社,東京都,港区,南青山２丁目２番１５号ウィン青山９４２,,13,103,1070062,,,,,,,2022-04-11,1,,,,,ラビットゲート,0
2948,9010405020914,新規,0,2022-04-11,2022-04-11,一般社団法人Ｄａｍｒｅｙ,,その他の設立登記法人,東京都,港区,虎ノ門５丁目１番４号,,13,103,1050001,,,,,,,2022-04-11,1,,,,,ダムレイ,0
2951,9010601060953,新規,0,2022-04-11,2022-04-11,株式会社ＮＯＴＢＡＤ,,株式会社,東京都,江東区,南砂３丁目４番１２号,,13,108,1360076,,,,,,,2022-04-11,1,,,,,ノットバッド,0
2952,9010603009486,新規,0,2022-04-11,2022-04-11,合同会社アールアンドエス,,合同会社,東京都,江東区,北砂４丁目２３番２号,,13,108,1360073,,,,,,,2022-04-11,1,,,,,アールアンドエス,0
2958,9010701042496,新規,0,2022-04-11,2022-04-11,株式会社ｐｌｕｍ,,株式会社,東京都,品川区,北品川５丁目５番１５号,,13,109,1410001,,,,,,,2022-04-11,1,,,,,プラム,0
2960,9010703006185,新規,0,2022-04-11,2022-04-11,合同会社マキカンパニー,,合同会社,東京都,品川区,西五反田８丁目２番１２号アール五反田７Ａ,,13,109,1410031,,,,,,,2022-04-11,1,,,,,マキカンパニー,0
2961,9010901050654,新規,0,2022-04-11,2022-04-11,株式会社カタパルト,,株式会社,東京都,世田谷区,祖師谷３丁目２２番３０号,,13,112,1570072,,,,,,,2022-04-11,1,,,,,カタパルト,0
2962,9010901050670,新規,0,2022-04-11,2022-04-11,株式会社ｋｅｅｐｒａｙ,,株式会社,東京都,世田谷区,北沢２丁目３４番３号,,13,112,1550031,,,,,,,2022-04-11,1,,,,,キープレイ,0
2969,9011001146715,新規,0,2022-04-11,2022-04-11,株式会社ヘーリオスエネルギー,,株式会社,東京都,渋谷区,神南１丁目５番４号,,13,113,1500041,,,,,,,2022-04-11,1,,,,,ヘーリオスエネルギー,0
2970,9011001146731,新規,0,2022-04-11,2022-04-11,サーフィス株式会社,,株式会社,東京都,渋谷区,道玄坂１丁目１０番８号渋谷道玄坂東急ビル２Ｆ－Ｃ,,13,113,1500043,,,,,,,2022-04-11,1,,,,,サーフィス,0
2971,9011001146806,新規,0,2022-04-11,2022-04-11,株式会社ＲＵＣＯＬＡ,,株式会社,東京都,渋谷区,神宮前６丁目２３番４号桑野ビル２階,,13,113,1500001,,,,,,,2022-04-11,1,,,,,ルッコラ,0
2972,9011001146822,新規,0,2022-04-11,2022-04-11,株式会社ＦＧＩ,,株式会社,東京都,渋谷区,代々木２丁目２６番５号バロール代々木３２０,,13,113,1510053,,,,,,,2022-04-11,1,,,,,エフジーアイ,0
2973,9011001146830,新規,0,2022-04-11,2022-04-11,株式会社ｒｉｖｅｒｓ,,株式会社,東京都,渋谷区,恵比寿西１丁目３３－１８コート代官山３０１,,13,113,1500021,,,,,,,2022-04-11,1,,,,,リバーズ,0
2974,9011001146839,新規,0,2022-04-11,2022-04-11,ＭＡＲＴ株式会社,,株式会社,東京都,渋谷区,恵比寿西１丁目３６番２号,,13,113,1500021,,,,,,,2022-04-11,1,,,,,マート,0
2975,9011001146863,新規,0,2022-04-11,2022-04-11,株式会社Ａｕｔｏｍａｔｉｃａ,,株式会社,東京都,渋谷区,道玄坂１丁目１０番８号渋谷道玄坂東急ビル２Ｆ－Ｃ,,13,113,1500043,,,,,,,2022-04-11,1,,,,,オートマティカ,0
2976,9011001146871,新規,0,2022-04-11,2022-04-11,株式会社エトアスタジオ,,株式会社,東京都,渋谷区,神宮前６丁目２９番４号原宿ｋｏｍｉｙａビル６Ｆ,,13,113,1500001,,,,,,,2022-04-11,1,,,,,エトアスタジオ,0
2977,9011003014507,新規,0,2022-04-11,2022-04-11,ＴＨＥ　ＮＩＮＥ　ＪＡＰＡＮ合同会社,,合同会社,東京都,目黒区,中町２丁目４８番９ー３０８号クオリア目黒祐天寺,,13,110,1530065,,,,,,,2022-04-11,1,,,,,ザナインジャパン,0
2981,9011101098443,新規,0,2022-04-11,2022-04-11,株式会社ＲＩＴＺ,,株式会社,東京都,新宿区,四谷３丁目１３ＳＥＡＢＩＲＤビル２Ｆ,,13,104,1600004,,,,,,,2022-04-11,1,,,,,リッツ,0
2982,9011101098492,新規,0,2022-04-11,2022-04-11,株式会社ＫＵＢＯＤＥＮ,,株式会社,東京都,新宿区,北町１１番地パークハウス牛込北町２０３,,13,104,1620834,,,,,,,2022-04-11,1,,,,,クボデン,0
2983,9011101098501,新規,0,2022-04-11,2022-04-11,株式会社Ｐａｓｓｉｏｎａｔｅ　Ｐａｒｔｎｅｒ,,株式会社,東京都,新宿区,百人町２丁目７番９－３０３号,,13,104,1690073,,,,,,,2022-04-11,1,,,,,パッショネイトパートナー,0
2986,9011105010214,新規,0,2022-04-11,2022-04-11,一般社団法人ホスピタルサービス研究会,,その他の設立登記法人,東京都,新宿区,西新宿３丁目３番１３号西新宿水間ビル６階,,13,104,1600023,,,,,,,2022-04-11,1,,,,,ホスピタルサービスケンキュウカイ,0
2996,9011801040563,新規,0,2022-04-11,2022-04-11,株式会社環境トータルサポート,,株式会社,東京都,足立区,南花畑３丁目２１番４－３０６号,,13,121,1210062,,,,,,,2022-04-11,1,,,,,カンキョウトータルサポート,0
2998,9011803005036,新規,0,2022-04-11,2022-04-11,合同会社ヤマグチ,,合同会社,東京都,足立区,谷中５丁目２番１６号山口ビル７Ｆ,,13,121,1200006,,,,,,,2022-04-11,1,,,,,ヤマグチ,0
2999,9012401039070,新規,0,2022-04-11,2022-04-11,株式会社雅,,株式会社,東京都,稲城市,平尾１丁目３２番地の９リンジュドゥプリムＧ－３,,13,225,2060823,,,,,,,2022-04-11,1,,,,,ミヤビ,0
3013,9020003021578,新規,0,2022-04-11,2022-04-11,合同会社ＲＩＳＴ,,合同会社,神奈川県,横浜市西区,浅間町１丁目６－１１,,14,103,2200072,,,,,,,2022-04-11,1,,,,,リスト,0
3014,9021001075649,新規,0,2022-04-11,2022-04-11,ジャム株式会社,,株式会社,神奈川県,茅ヶ崎市,菱沼海岸４番５８号,,14,207,2530037,,,,,,,2022-04-11,1,,,,,ジャム,0
3015,9021001075681,新規,0,2022-04-11,2022-04-11,フリースタイル株式会社,,株式会社,神奈川県,大和市,上和田３４１８番地１,,14,213,2420014,,,,,,,2022-04-11,1,,,,,フリースタイル,0
3019,9021005012482,新規,0,2022-04-11,2022-04-11,医療法人社団ライフサイエンス,,その他の設立登記法人,神奈川県,藤沢市,鵠沼東１番１号玉半ビル２Ｆ,,14,205,2510026,,,,,,,2022-04-11,1,,,,,ライフサイエンス,0
3024,9030001147597,新規,0,2022-04-11,2022-04-11,シトラスパートナー株式会社,,株式会社,埼玉県,さいたま市大宮区,桜木町４丁目４１９番８号アストライズ大宮ビル５階,,11,103,3300854,,,,,,,2022-04-11,1,,,,,シトラスパートナー,0
3025,9030001147696,新規,0,2022-04-11,2022-04-11,株式会社イデアハウス,,株式会社,埼玉県,草加市,氷川町４５８番地３,,11,221,3400034,,,,,,,2022-04-11,1,,,,,,0
3026,9030001147713,新規,0,2022-04-11,2022-04-11,株式会社シャフト,,株式会社,埼玉県,さいたま市大宮区,宮町４丁目１２３番地３階,,11,103,3300802,,,,,,,2022-04-11,1,,,,,シャフト,0
3030,9030005020783,新規,0,2022-04-11,2022-04-11,医療法人舞柳,,その他の設立登記法人,埼玉県,さいたま市大宮区,桜木町１丁目３番地３スワンビル２階,,11,103,3300854,,,,,,,2022-04-11,1,,,,,ブリュウ,0
3038,9040001122970,新規,0,2022-04-11,2022-04-11,株式会社目黒工務店,,株式会社,千葉県,千葉市若葉区,東寺山町５０番地１４,,12,104,2640035,,,,,,,2022-04-11,1,,,,,メグロコウムテン,0
3039,9040001122979,新規,0,2022-04-11,2022-04-11,ゼンショー株式会社,,株式会社,千葉県,市原市,青柳５２４番地１,,12,219,2990102,,,,,,,2022-04-11,1,,,,,ゼンショー,0
3044,9040003019819,新規,0,2022-04-11,2022-04-11,合同会社Ａｎｏｔｈｅｒ　ｄｏｏｒｓ,,合同会社,千葉県,木更津市,吾妻２４３番地１,,12,206,2920065,,,,,,,2022-04-11,1,,,,,アナザードアーズ,0
3045,9040003019827,新規,0,2022-04-11,2022-04-11,合同会社イミリカ,,合同会社,千葉県,松戸市,樋野口６８５番地の１,,12,207,2710067,,,,,,,2022-04-11,1,,,,,イミリカ,0
3046,9050003006469,新規,0,2022-04-11,2022-04-11,アールケイ企画合同会社,,合同会社,茨城県,小美玉市,西郷地８８４―１,,08,236,3190102,,,,,,,2022-04-11,1,,,,,アールケイキカク,0
3048,9050005013042,新規,0,2022-04-11,2022-04-11,一般社団法人はるはる福祉会,,その他の設立登記法人,茨城県,古河市,本町１丁目４番１０号,,08,204,3060023,,,,,,,2022-04-11,1,,,,,ハルハルフクシカイ,0
3054,9060003004026,新規,0,2022-04-11,2022-04-11,合同会社フォーカス,,合同会社,栃木県,宇都宮市,五代３丁目１０番７号,,09,201,3210135,,,,,,,2022-04-11,1,,,,,フォーカス,0
3057,9070001039139,新規,0,2022-04-11,2022-04-11,株式会社ティーアーム,,株式会社,群馬県,太田市,東今泉町７６番地１,,10,205,3730021,,,,,,,2022-04-11,1,,,,,ティーアーム,0
3060,9080001024874,新規,0,2022-04-11,2022-04-11,株式会社グラモード,,株式会社,静岡県,静岡市駿河区,中野新田１２６番地昭和貿易ビル２Ｆ,,22,102,4228051,,,,,,,2022-04-11,1,,,,,グラモード,0
3063,9080403004516,新規,0,2022-04-11,2022-04-11,合同会社いっちょやらざあ,,合同会社,静岡県,掛川市,東山１１９０番地,,22,213,4360001,,,,,,,2022-04-11,1,,,,,イッチョヤラザア,0
3065,9090001017522,新規,0,2022-04-11,2022-04-11,イーネオプランニング株式会社,,株式会社,山梨県,甲府市,塩部１丁目７番８号,,19,201,4000026,,,,,,,2022-04-11,1,,,,,イーネオプランニング,0
3083,9120001244914,新規,0,2022-04-11,2022-04-11,株式会社日ノ下商店,,株式会社,大阪府,大阪市中央区,玉造２丁目２番１号,,27,128,5400004,,,,,,,2022-04-11,1,,,,,ヒノシタショウテン,0
3084,9120001244996,新規,0,2022-04-11,2022-04-11,真導警備保障株式会社,,株式会社,大阪府,大阪市浪速区,恵美須東１丁目５番１５－２０２号,,27,111,5560002,,,,,,,2022-04-11,1,,,,,シンドウケイビホショウ,0
3085,9120001245094,新規,0,2022-04-11,2022-04-11,ユナイト北関東株式会社,,株式会社,大阪府,大阪市中央区,南船場２丁目４番２３号,,27,128,5420081,,,,,,,2022-04-11,1,,,,,ユナイトキタカントウ,0
3086,9120001245103,新規,0,2022-04-11,2022-04-11,株式会社もへい動物病院,,株式会社,大阪府,大阪市淀川区,宮原１丁目１６番２３号アジュール新大阪１階北側,,27,123,5320003,,,,,,,2022-04-11,1,,,,,モヘイドウブツビョウイン,0
3087,9120001245160,新規,0,2022-04-11,2022-04-11,株式会社ＩＦＳ,,株式会社,大阪府,大阪市北区,梅田１丁目１番３号大阪駅前第３ビル２３０７号室,,27,127,5300001,,,,,,,2022-04-11,1,,,,,アイエフエス,0
3101,9120103004646,新規,0,2022-04-11,2022-04-11,合同会社Ｌｉａｍ,,合同会社,大阪府,富田林市,旭ヶ丘１２番１４号,,27,214,5840000,,,,,,,2022-04-11,1,,,,,リアム,0
3105,9120105009544,新規,0,2022-04-11,2022-04-11,一般社団法人東よりこう,,その他の設立登記法人,大阪府,羽曳野市,軽里３丁目７番１８号軽里公民館内,,27,222,5830854,,,,,,,2022-04-11,1,,,,,ヒガシヨリコウ,0
3106,9120901045833,新規,0,2022-04-11,2022-04-11,株式会社ＫＧ,,株式会社,大阪府,箕面市,小野原東５丁目８－１１,,27,220,5620031,,,,,,,2022-04-11,1,,,,,ケージー,0
3109,9122001035748,新規,0,2022-04-11,2022-04-11,株式会社プラスワン,,株式会社,大阪府,東大阪市,永和１丁目９番９号コスモフリー永和１０３号,,27,227,5770809,,,,,,,2022-04-11,1,,,,,プラスワン,0
3115,9130001071465,新規,0,2022-04-11,2022-04-11,株式会社シフト,,株式会社,京都府,宇治市,広野町西裏５７－１、２階２－１号室,,26,204,6110031,,,,,,,2022-04-11,1,,,,,シフト,0
3116,9130001071498,新規,0,2022-04-11,2022-04-11,エヌデン株式会社,,株式会社,京都府,城陽市,中百度２番地の１,,26,207,6100113,,,,,,,2022-04-11,1,,,,,エヌデン,0
3122,9140001125591,新規,0,2022-04-11,2022-04-11,株式会社狛デザイン一級建築士事務所,,株式会社,兵庫県,神戸市垂水区,舞子坂２丁目７番１５号,,28,108,6550044,,,,,,,2022-04-11,1,,,,,コマデザインイッキュウケンチクシジムショ,0
3129,9140003017572,新規,0,2022-04-11,2022-04-11,ＬＯＴＵＳ合同会社,,合同会社,兵庫県,姫路市,忍町３番地,,28,201,6700917,,,,,,,2022-04-11,1,,,,,ロータス,0
3130,9140005026134,新規,0,2022-04-11,2022-04-11,Ｍａｓｕｄａ社会保険労務士法人,,その他の設立登記法人,兵庫県,姫路市,北条宮の町４１１番地,,28,201,6700948,,,,,,,2022-04-11,1,,,,,マスダ,0
3131,9150001025452,新規,0,2022-04-11,2022-04-11,株式会社ｍａｓｈｉｃｈｏｉ,,株式会社,奈良県,生駒郡平群町,若葉台５丁目９番１６号,,29,342,6360938,,,,,,,2022-04-11,1,,,,,マシチョイ,0
3132,9150003002656,新規,0,2022-04-11,2022-04-11,合同会社ゼメスタン,,合同会社,奈良県,奈良市,あやめ池南８丁目１－２９－４,,29,201,6310033,,,,,,,2022-04-11,1,,,,,ゼメスタン,0
3133,9150003002664,新規,0,2022-04-11,2022-04-11,合同会社ｆｌｕｏｒｉｔｅ,,合同会社,奈良県,橿原市,和田町１５番３５号,,29,205,6340041,,,,,,,2022-04-11,1,,,,,フローライト,0
3146,9180001150792,新規,0,2022-04-11,2022-04-11,株式会社アクティス,,株式会社,愛知県,犬山市,天神町１丁目１３番地１,,23,215,4840073,,,,,,,2022-04-11,1,,,,,アクティス,0
3147,9180001150826,新規,0,2022-04-11,2022-04-11,株式会社グッドライフサポート,,株式会社,愛知県,名古屋市瑞穂区,洲山町２丁目７番地,,23,108,4670066,,,,,,,2022-04-11,1,,,,,グッドライフサポート,0
3148,9180001150834,新規,0,2022-04-11,2022-04-11,株式会社結,,株式会社,愛知県,名古屋市中区,錦２丁目８番２５号ｈｉｄｅビル４Ｆ,,23,106,4600003,,,,,,,2022-04-11,1,,,,,ユイ,0
3149,9180001150850,新規,0,2022-04-11,2022-04-11,株式会社ＡｌｔｅｒｎＡ,,株式会社,愛知県,名古屋市南区,呼続４丁目２番１８号,,23,112,4570014,,,,,,,2022-04-11,1,,,,,オルタナ,0
3150,9180001150859,新規,0,2022-04-11,2022-04-11,株式会社Ａ‐ＴＩＢ,,株式会社,愛知県,あま市,小路２丁目６番地２８,,23,237,4901106,,,,,,,2022-04-11,1,,,,,エイティブ,0
3156,9180003023682,新規,0,2022-04-11,2022-04-11,合同会社Ｐｌｕｓ,,合同会社,愛知県,名古屋市守山区,長栄１３番１５号,,23,113,4630062,,,,,,,2022-04-11,1,,,,,プラス,0
3159,9180005019729,新規,0,2022-04-11,2022-04-11,一般社団法人愛知県軽貨物協議会,,その他の設立登記法人,愛知県,大府市,東新町１丁目１５８番地,,23,223,4740073,,,,,,,2022-04-11,1,,,,,アイチケンケイカモツキョウギカイ,0
3165,9190001029276,新規,0,2022-04-11,2022-04-11,信藤ホールディングス株式会社,,株式会社,三重県,四日市市,川合町２番地,,24,202,5100853,,,,,,,2022-04-11,1,,,,,シンドウホールディングス,0
3166,9190001029292,新規,0,2022-04-11,2022-04-11,エレサービス明和株式会社,,株式会社,三重県,多気郡明和町,大字有爾中１１５５番地１,,24,442,5150316,,,,,,,2022-04-11,1,,,,,エレサービスメイワ,0
3167,9190001029301,新規,0,2022-04-11,2022-04-11,伊勢志摩企画株式会社,,株式会社,三重県,志摩市,阿児町鵜方２１６４,,24,215,5170501,,,,,,,2022-04-11,1,,,,,イセシマキカク,0
3168,9190003003948,新規,0,2022-04-11,2022-04-11,合同会社アスカルトレーディング,,合同会社,三重県,桑名郡木曽岬町,大字見入流作７９番,,24,303,4980822,,,,,,,2022-04-11,1,,,,,アスカルトレーディング,0
3169,9190005011692,新規,0,2022-04-11,2022-04-11,特定非営利活動法人アートタウンプロジェクト,,その他の設立登記法人,三重県,津市,栗真町屋町５４５番地３,,24,201,5140102,,,,,,,2022-04-11,1,,,,,アートタウンプロジェクト,0
3178,9220005008644,新規,0,2022-04-11,2022-04-11,饗のこめ事業協同組合,,その他の設立登記法人,石川県,羽咋郡宝達志水町,柳瀬ヨ９番地１,,17,386,9291411,,,,,,,2022-04-11,1,,,,,アエノコメ,0
3185,9240003005583,新規,0,2022-04-11,2022-04-11,Ｔａｋｅｃｈｉ　ｃｒｅａｔｅ合同会社,,合同会社,広島県,廿日市市,沖塩屋２丁目１０番１０－４号,,34,213,7390443,,,,,,,2022-04-11,1,,,,,タケチクリエイト,0
3189,9260005011058,新規,0,2022-04-11,2022-04-11,一般社団法人ファジアーノ岡山スポーツクラブ,,その他の設立登記法人,岡山県,岡山市北区,厚生町３丁目１番１５号岡山商工会議所ビル６Ｆ,,33,101,7000985,,,,,,,2022-04-11,1,,,,,ファジアーノオカヤマスポーツクラブ,0
3190,9280001008675,新規,0,2022-04-11,2022-04-11,エムエス株式会社,,株式会社,島根県,鹿足郡吉賀町,立戸２０５番地１,,32,505,6995511,,,,,,,2022-04-11,1,,,,,,0
3199,9290005018629,新規,0,2022-04-11,2022-04-11,医療法人つちや内科循環器内科クリニック,,その他の設立登記法人,福岡県,福岡市南区,大橋２丁目２番１７号大橋駅南クリニックビル２Ｆ,,40,134,8150033,,,,,,,2022-04-11,1,,,,,ツチヤナイカジュンカンキナイカクリニック,0
3202,9290801028434,新規,0,2022-04-11,2022-04-11,株式会社リエール,,株式会社,福岡県,北九州市若松区,青葉台南２丁目４番１２号,,40,103,8080142,,,,,,,2022-04-11,1,,,,,リエール,0
3203,9290805009538,新規,0,2022-04-11,2022-04-11,一般社団法人北九州市立大学同窓会,,その他の設立登記法人,福岡県,北九州市小倉南区,北方４丁目２番１号,,40,107,8020841,,,,,,,2022-04-11,1,,,,,キタキュウシュウシリツダイガクドウソウカイ,0
3208,9330001029625,新規,0,2022-04-11,2022-04-11,株式会社真愛,,株式会社,熊本県,熊本市北区,植木町平井９８７番地１,,43,105,8610121,,,,,,,2022-04-11,1,,,,,シンアイ,0
3209,9330001029633,新規,0,2022-04-11,2022-04-11,株式会社ライフ,,株式会社,熊本県,熊本市東区,小山３丁目８番７７号,,43,102,8618045,,,,,,,2022-04-11,1,,,,,ライフ,0
3212,9330005010498,新規,0,2022-04-11,2022-04-11,一般社団法人くまもと再エネ利用推進協会,,その他の設立登記法人,熊本県,熊本市東区,石原３丁目６番１３号,,43,102,8618046,,,,,,,2022-04-11,1,,,,,クマモトサイエネリヨウスイシンキョウカイ,0
3215,9360001030183,新規,0,2022-04-11,2022-04-11,株式会社やまねこ座,,株式会社,沖縄県,那覇市,泉崎２丁目２２番１－１５０２号,,47,201,9000021,,,,,,,2022-04-11,1,,,,,ヤマネコザ,0
3216,9360001030209,新規,0,2022-04-11,2022-04-11,ディーエスプレパーツ株式会社,,株式会社,沖縄県,糸満市,西崎町５丁目１２番地４,,47,210,9010306,,,,,,,2022-04-11,1,,,,,ディーエスプレパーツ,0
3217,9360003011917,新規,0,2022-04-11,2022-04-11,合同会社カープロデュース,,合同会社,沖縄県,名護市,字為又４１番地１８,,47,209,9050005,,,,,,,2022-04-11,1,,,,,カープロデュース,0
3218,9360003011925,新規,0,2022-04-11,2022-04-11,合同会社成和,,合同会社,沖縄県,島尻郡与那原町,字上与那原４７４番地,,47,348,9011302,,,,,,,2022-04-11,1,,,,,セイワ,0
3219,9360005006634,新規,0,2022-04-11,2022-04-11,医療法人琉心,,その他の設立登記法人,沖縄県,沖縄市,美原４丁目７番９号,,47,211,9042155,,,,,,,2022-04-11,1,,,,,リュウシン,0
3230,9380001032731,新規,0,2022-04-11,2022-04-11,株式会社ティーズネクスト,,株式会社,福島県,いわき市,中央台鹿島１丁目４２番地の１,,07,204,9708043,,,,,,,2022-04-11,1,,,,,,0
3238,9380005012564,新規,0,2022-04-11,2022-04-11,一般社団法人日本乳幼児精神保健学会,,その他の設立登記法人,福島県,郡山市,本町１丁目１３番１７号,,07,203,9638871,,,,,,,2022-04-11,1,,,,,ニホンニュウヨウジセイシンホケンガッカイ,0
3248,9410003003644,新規,0,2022-04-11,2022-04-11,合同会社８ＴＥＣＨ,,合同会社,秋田県,仙北市,田沢湖岡崎字大屋敷７０番地,,05,215,0141111,,,,,,,2022-04-11,1,,,,,エイトテック,0
3250,9420001017793,新規,0,2022-04-11,2022-04-11,株式会社白神良品工房,,株式会社,青森県,弘前市,大字小栗山字川合１８番地,,02,202,0368127,,,,,,,2022-04-11,1,,,,,シラカミリョウヒンコウボウ,0
3259,9430003013798,新規,0,2022-04-11,2022-04-11,合同会社かいりゅう,,合同会社,北海道,札幌市西区,西野三条８丁目６番３号,,01,107,0630033,,,,,,,2022-04-11,1,,,,,カイリュウ,0
3260,9460003000892,新規,0,2022-04-11,2022-04-11,合同会社ダヴィンチ・アドバイザーズ,,合同会社,北海道,釧路市,文苑１丁目４３番７号,,01,206,0850063,,,,,,,2022-04-11,1,,,,,ダヴィンチアドバイザーズ,0
3262,9470001019026,新規,0,2022-04-11,2022-04-11,株式会社千真組,,株式会社,香川県,丸亀市,三条町３８０番地１,,37,202,7630094,,,,,,,2022-04-11,1,,,,,センマグミ,0
