sequenceNumber,corporateNumber,process,correct,updateDate,changeDate,name,nameImageId,kind,prefectureName,cityName,streetNumber,addressImageId,prefectureCode,cityCode,postCode,addressOutside,addressOutsideImageId,closeDate,closeCause,successorCorporateNumber,changeCause,assignmentDate,latest,enName,enPrefectureName,enCityName,enAddressOutside,furigana,hihyoji
11,1010001240816,新規,0,2023-12-15,2023-12-15,株式会社鈴木雑貨店,,株式会社,東京都,中央区,銀座７丁目１３番２１号銀座ｓｉｎｒｏｋｕｓｙｕビル２階,,13,102,1040061,,,,,,,2023-12-15,1,,,,,スズキザッカテン,0
12,1010001240832,新規,0,2023-12-15,2023-12-15,株式会社Ｎｏｒｄｆｕｓｉｏｎｅ,,株式会社,東京都,中央区,日本橋室町１丁目１１－１２,,13,102,1030022,,,,,,,2023-12-15,1,,,,,ノルドフィジョーネ,0
17,1010003042442,新規,0,2023-12-15,2023-12-15,Ｇｏｉｎｇ　Ｃｌｏｕｄ　Ｊａｐａｎ合同会社,,合同会社,東京都,中央区,日本橋３丁目９番１号日本橋三丁目スクエア１１階,,13,102,1030027,,,,,,,2023-12-15,1,,,,,ゴーイングクラウドジャパン,0
32,1010401179101,新規,0,2023-12-15,2023-12-15,株式会社Ｙフィールド,,株式会社,東京都,港区,芝公園１丁目２番１７－３０１号,,13,103,1050011,,,,,,,2023-12-15,1,,,,,ワイフィールド,0
33,1010401179167,新規,0,2023-12-15,2023-12-15,Ｊａｙｏｎ　Ｊａｐａｎ株式会社,,株式会社,東京都,港区,港南２丁目１５番１号品川インターシティＡ棟２８階,,13,103,1080075,,,,,,,2023-12-15,1,,,,,ジェイオンジャパン,0
34,1010401179200,新規,0,2023-12-15,2023-12-15,株式会社ＰｏｐＡｐｐ,,株式会社,東京都,港区,六本木５丁目１８番１９号,,13,103,1060032,,,,,,,2023-12-15,1,,,,,ポップアップ,0
35,1010401179225,新規,0,2023-12-15,2023-12-15,ＩＴ‐Ｏｐｔｉｍｉｚａｔｉｏｎ株式会社,,株式会社,東京都,港区,高輪４丁目２３番６号ハイホーム高輪７０８,,13,103,1080074,,,,,,,2023-12-15,1,,,,,アイティーオプティマイゼーション,0
36,1010403031573,新規,0,2023-12-15,2023-12-15,Ａｒｃｈｅｓ　Ｊａｐａｎ合同会社,,合同会社,東京都,港区,虎ノ門３丁目２２番８号,,13,103,1050001,,,,,,,2023-12-15,1,,,,,アーチズジャパン,0
37,1010403031598,新規,0,2023-12-15,2023-12-15,合同会社乾電池,,合同会社,東京都,港区,東麻布１丁目２８－５－３０１,,13,103,1060044,,,,,,,2023-12-15,1,,,,,カンデンチ,0
38,1010405022777,新規,0,2023-12-15,2023-12-15,東京芝監査法人,,その他の設立登記法人,東京都,港区,新橋２丁目１６番１号,,13,103,1050004,,,,,,,2023-12-15,1,,,,,トウキョウシバ,0
40,1010501051515,新規,0,2023-12-15,2023-12-15,株式会社有馬,,株式会社,東京都,台東区,浅草５丁目２９番１号,,13,106,1110032,,,,,,,2023-12-15,1,,,,,アリマ,0
48,1010801034608,新規,0,2023-12-15,2023-12-15,東京澤文株式会社,,株式会社,東京都,大田区,東海３丁目７番３号,,13,111,1430001,,,,,,,2023-12-15,1,,,,,トウキョウタクブン,0
50,1010803004781,新規,0,2023-12-15,2023-12-15,Ｙ‐ＭＡｐｒｏｄｕｃｔ合同会社,,合同会社,東京都,大田区,上池台１丁目１番地１号ケーズ上池台２０６,,13,111,1450064,,,,,,,2023-12-15,1,,,,,ワイマプロダクト,0
53,1011001158800,新規,0,2023-12-15,2023-12-15,株式会社Ｌａｎａ,,株式会社,東京都,渋谷区,桜丘町７番３号ベラコート渋谷２０３,,13,113,1500031,,,,,,,2023-12-15,1,,,,,ラナ,0
56,1011101105512,新規,0,2023-12-15,2023-12-15,株式会社ｐｉｅｃｅ　ｏｆ　ｃａｋｅ,,株式会社,東京都,新宿区,西新宿３丁目３番１３号西新宿水間ビル２階,,13,104,1600023,,,,,,,2023-12-15,1,,,,,ピースオブケイク,0
57,1011103013861,新規,0,2023-12-15,2023-12-15,合同会社Ｂｅｓｉｄｅ,,合同会社,東京都,新宿区,新宿７丁目２６番７号,,13,104,1600022,,,,,,,2023-12-15,1,,,,,ビサイド,0
60,1011201025115,新規,0,2023-12-15,2023-12-15,株式会社アスタリスク,,株式会社,東京都,中野区,中野５丁目６７番７号プラザ中野８０１,,13,114,1640001,,,,,,,2023-12-15,1,,,,,アスタリスク,0
65,1011703003691,新規,0,2023-12-15,2023-12-15,合同会社誠,,合同会社,東京都,江戸川区,西小松川町５番８号サンファスト小松川１０３,,13,123,1320032,,,,,,,2023-12-15,1,,,,,マコト,0
66,1011801043490,新規,0,2023-12-15,2023-12-15,リズムブロス株式会社,,株式会社,東京都,足立区,南花畑２丁目４７番１３号,,13,121,1210062,,,,,,,2023-12-15,1,,,,,リズムブロス,0
67,1011801043499,新規,0,2023-12-15,2023-12-15,一和株式会社,,株式会社,東京都,足立区,西新井２丁目４番６号ＡｎｄＰｌｕｓ西新井ビル,,13,121,1230841,,,,,,,2023-12-15,1,,,,,イチワ,0
68,1011801043508,新規,0,2023-12-15,2023-12-15,株式会社Ｌｉｍ,,株式会社,東京都,葛飾区,西新小岩４丁目３－１６,,13,122,1240025,,,,,,,2023-12-15,1,,,,,リム,0
70,1012305002074,新規,0,2023-12-15,2023-12-15,一般社団法人日本体芯力協会,,その他の設立登記法人,東京都,町田市,本町田２１１１－１８,,13,209,1940032,,,,,,,2023-12-15,1,,,,,ニホンタイシンリョクキョウカイ,0
74,1012403006332,新規,0,2023-12-15,2023-12-15,ウェスネ合同会社,,合同会社,東京都,三鷹市,井の頭３丁目３２番１６号,,13,204,1810001,,,,,,,2023-12-15,1,,,,,ウェスネ,0
87,1020001154908,新規,0,2023-12-15,2023-12-15,株式会社ＮＡ,,株式会社,神奈川県,川崎市宮前区,神木本町２丁目１１番１５号ホワイトオークＦ２０１,,14,136,2160031,,,,,,,2023-12-15,1,,,,,エヌエー,0
88,1020001154932,新規,0,2023-12-15,2023-12-15,株式会社ｇａｔｈｅｒ,,株式会社,神奈川県,横浜市保土ケ谷区,仏向町２３５番地１,,14,106,2400044,,,,,,,2023-12-15,1,,,,,ギャザー,0
89,1020001154940,新規,0,2023-12-15,2023-12-15,株式会社ＫＯＪＩ,,株式会社,神奈川県,横浜市南区,東蒔田町１５番地の３,,14,105,2320045,,,,,,,2023-12-15,1,,,,,コージ,0
94,1020003025198,新規,0,2023-12-15,2023-12-15,合同会社平沼工務店,,合同会社,神奈川県,横浜市西区,北幸２丁目１０番２８号むつみビル３Ｆ,,14,103,2200004,,,,,,,2023-12-15,1,,,,,ヒラヌマコウムテン,0
97,1021001080978,新規,0,2023-12-15,2023-12-15,Ａｇｏｒａ株式会社,,株式会社,神奈川県,藤沢市,大鋸９９０－５ラテル湘南１０１,,14,205,2510002,,,,,,,2023-12-15,1,,,,,アゴラ,0
99,1021003013911,新規,0,2023-12-15,2023-12-15,合同会社吉光,,合同会社,神奈川県,横須賀市,大矢部５丁目１０番１号Ｂｙａｋｋｏビル３Ｆ,,14,201,2380024,,,,,,,2023-12-15,1,,,,,ヨシミツ,0
107,1030001157711,新規,0,2023-12-15,2023-12-15,株式会社うちプラス,,株式会社,埼玉県,戸田市,新曽南３丁目６番１－１２３号,,11,224,3350026,,,,,,,2023-12-15,1,,,,,ウチプラス,0
108,1030001157744,新規,0,2023-12-15,2023-12-15,株式会社まるだい商事,,株式会社,埼玉県,桶川市,坂田西２丁目２１番地の７,,11,231,3630018,,,,,,,2023-12-15,1,,,,,マルダイショウジ,0
112,1030003023201,新規,0,2023-12-15,2023-12-15,合同会社エクストレイジ,,合同会社,埼玉県,川口市,幸町１丁目９番２０号,,11,203,3320016,,,,,,,2023-12-15,1,,,,,エクストレイジ,0
123,1040001131376,新規,0,2023-12-15,2023-12-15,株式会社ＬｉｆｅＳｔｏｒｙ,,株式会社,千葉県,成田市,西三里塚１番地１０５メゾンロレーヌ１０３号室,,12,211,2860115,,,,,,,2023-12-15,1,,,,,ライフストーリー,0
124,1040001131384,新規,0,2023-12-15,2023-12-15,株式会社Ｒｅｚ,,株式会社,千葉県,習志野市,津田沼３丁目１３－４－１０３,,12,216,2750016,,,,,,,2023-12-15,1,,,,,レズ,0
125,1040001131401,新規,0,2023-12-15,2023-12-15,ＯＮＥ　ＰＬＵＳ株式会社,,株式会社,千葉県,船橋市,旭町５丁目５番３１号,,12,204,2730041,,,,,,,2023-12-15,1,,,,,ワンプラス,0
133,1060001036598,新規,0,2023-12-15,2023-12-15,株式会社エバース,,株式会社,栃木県,宇都宮市,二荒町５番７号,,09,201,3200804,,,,,,,2023-12-15,1,,,,,エバース,0
134,1060001036631,新規,0,2023-12-15,2023-12-15,ＬＩＢＡＮ株式会社,,株式会社,栃木県,足利市,松田町１６４３番地３,,09,202,3260101,,,,,,,2023-12-15,1,,,,,リバン,0
135,1070001041192,新規,0,2023-12-15,2023-12-15,株式会社システムクリエイターズ,,株式会社,群馬県,高崎市,福島町７８７番地１９,,10,202,3703523,,,,,,,2023-12-15,1,,,,,,0
137,1070003005195,新規,0,2023-12-15,2023-12-15,合同会社はりまえ,,合同会社,群馬県,前橋市,箱田町１４９番地１３,,10,201,3710837,,,,,,,2023-12-15,1,,,,,,0
152,1120001260547,新規,0,2023-12-15,2023-12-15,ＣＡＲＯＮ国際貿易株式会社,,株式会社,大阪府,大阪市中央区,瓦屋町３丁目４番９号サンシャイン瓦屋町４０３号室,,27,128,5420066,,,,,,,2023-12-15,1,,,,,カロンコクサイボウエキ,0
153,1120001260588,新規,0,2023-12-15,2023-12-15,鈴開興産株式会社,,株式会社,大阪府,大阪市都島区,友渕町１丁目６番４－５０２号,,27,102,5340016,,,,,,,2023-12-15,1,,,,,スズヒラコウサン,0
154,1120001260638,新規,0,2023-12-15,2023-12-15,株式会社Ｃｒｅａ,,株式会社,大阪府,大阪市淀川区,新高３丁目４－６,,27,123,5320033,,,,,,,2023-12-15,1,,,,,クレア,0
158,1120003025510,新規,0,2023-12-15,2023-12-15,永喜合同会社,,合同会社,大阪府,大阪市淀川区,三津屋南２丁目５番１５号,,27,123,5320035,,,,,,,2023-12-15,1,,,,,エイキ,0
159,1120003025527,新規,0,2023-12-15,2023-12-15,ＩＭＥＲＥＳ合同会社,,合同会社,大阪府,大阪市阿倍野区,阪南町５丁目２１番１０号阪南Ｆ２ビル１階,,27,119,5450021,,,,,,,2023-12-15,1,,,,,イメレス,0
165,1120101068700,新規,0,2023-12-15,2023-12-15,ＫＴＮ　ＧＡＲＡＧＥ株式会社,,株式会社,大阪府,堺市美原区,平尾４５４番地７,,27,147,5870022,,,,,,,2023-12-15,1,,,,,ケーティーエヌガレージ,0
166,1120101068709,新規,0,2023-12-15,2023-12-15,あき商事株式会社,,株式会社,大阪府,松原市,田井城１丁目６－２２－５ＦＣ,,27,217,5800044,,,,,,,2023-12-15,1,,,,,アキショウジ,0
168,1120103005585,新規,0,2023-12-15,2023-12-15,Ｍ．Ｄ．Ｌ合同会社,,合同会社,大阪府,松原市,天美西３丁目２０９番地の２５,,27,217,5800034,,,,,,,2023-12-15,1,,,,,エムディーエル,0
170,1120901048471,新規,0,2023-12-15,2023-12-15,株式会社ＧＲＡＮＲＥＶＥ,,株式会社,大阪府,高槻市,城北町２丁目３－６,,27,207,5690071,,,,,,,2023-12-15,1,,,,,グランレーヴ,0
176,1140001132703,新規,0,2023-12-15,2023-12-15,Ｙｏｓｅｍｉｔｅ株式会社,,株式会社,兵庫県,神戸市中央区,栄町通２丁目４番１３神栄ビル,,28,110,6500023,,,,,,,2023-12-15,1,,,,,ヨセミテ,0
179,1140003019931,新規,0,2023-12-15,2023-12-15,合同会社Ｋ＆Ｓ,,合同会社,兵庫県,神戸市中央区,下山手通８丁目６－２,,28,110,6500011,,,,,,,2023-12-15,1,,,,,ケーアンドエス,0
183,1170003001960,新規,0,2023-12-15,2023-12-15,ＹＳ合同会社,,合同会社,和歌山県,和歌山市,新中通４丁目１２番地グラシエール和歌山４０２号,,30,201,6408376,,,,,,,2023-12-15,1,,,,,ワイエス,0
187,1180001159321,新規,0,2023-12-15,2023-12-15,リモア株式会社,,株式会社,愛知県,名古屋市東区,東桜１丁目１０番２９号,,23,102,4610005,,,,,,,2023-12-15,1,,,,,リモア,0
190,1180003026115,新規,0,2023-12-15,2023-12-15,合同会社Ａｃｅ’ｓ,,合同会社,愛知県,常滑市,北汐見坂１丁目７６番地フラット北汐見,,23,216,4790867,,,,,,,2023-12-15,1,,,,,エーシーズ,0
191,1180003026123,新規,0,2023-12-15,2023-12-15,鴻成合同会社,,合同会社,愛知県,名古屋市中区,栄４丁目４番９号西新ビル１０１号室,,23,106,4600008,,,,,,,2023-12-15,1,,,,,コウセイ,0
193,1180005020462,新規,0,2023-12-15,2023-12-15,一般社団法人日本国再建研究会,,その他の設立登記法人,愛知県,名古屋市千種区,城山町１丁目３５番地,,23,101,4640045,,,,,,,2023-12-15,1,,,,,ニッポンコクサイケンケンキュウカイ,0
194,1180301038118,新規,0,2023-12-15,2023-12-15,株式会社Ｍ‐ＳＰＡＣＥ,,株式会社,愛知県,豊田市,浄水町原山３９０番地６,,23,211,4700343,,,,,,,2023-12-15,1,,,,,エムスペース,0
195,1180301038126,新規,0,2023-12-15,2023-12-15,豊田製薬株式会社,,株式会社,愛知県,豊田市,小坂本町１丁目５番地５ＹＡＭＡＴＯ・ＢＬＤＧ２階,,23,211,4710034,,,,,,,2023-12-15,1,,,,,トヨタセイヤク,0
196,1180301038134,新規,0,2023-12-15,2023-12-15,株式会社ジョブスター,,株式会社,愛知県,岡崎市,稲熊町字滝道２３番地１,,23,202,4440071,,,,,,,2023-12-15,1,,,,,ジョブスター,0
199,1180305009536,新規,0,2023-12-15,2023-12-15,医療法人美心研,,その他の設立登記法人,愛知県,安城市,住吉町５丁目１５番地１,,23,212,4460072,,,,,,,2023-12-15,1,,,,,ビシンケン,0
202,1200001041988,新規,0,2023-12-15,2023-12-15,大勝金属株式会社,,株式会社,岐阜県,大垣市,河間町２丁目３６７－４,,21,202,5030021,,,,,,,2023-12-15,1,,,,,タイショウキンゾク,0
205,1210001019579,新規,0,2023-12-15,2023-12-15,株式会社明灯,,株式会社,福井県,小浜市,松ヶ崎２丁目６番２１号,,18,204,9170018,,,,,,,2023-12-15,1,,,,,メイトウ,0
217,1260001038566,新規,0,2023-12-15,2023-12-15,株式会社人材エージェント,,株式会社,岡山県,岡山市南区,小串２４３６番地,,33,104,7028016,,,,,,,2023-12-15,1,,,,,ジンザイエージェント,0
218,1260003004525,新規,0,2023-12-15,2023-12-15,合同会社ＳＫＹ　ＷＡＬＫ　ＦＲＥＥＤＯＭ,,合同会社,岡山県,岡山市北区,西古松２丁目２０番１２号,,33,101,7000927,,,,,,,2023-12-15,1,,,,,スカイウォークフリーダム,0
227,1290801030141,新規,0,2023-12-15,2023-12-15,株式会社ブレークニニ,,株式会社,福岡県,田川市,大字伊加利６７番地,,40,206,8250001,,,,,,,2023-12-15,1,,,,,ブレークニニ,0
237,1320003004254,新規,0,2023-12-15,2023-12-15,人の夢コーポレーション合同会社,,合同会社,大分県,大分市,府内町１丁目６番３３－５０３号,,44,201,8700021,,,,,,,2023-12-15,1,,,,,ヒトノユメコーポレーション,0
238,1320005010119,新規,0,2023-12-15,2023-12-15,特定非営利活動法人こんぺいとう企画,,その他の設立登記法人,大分県,別府市,弓ケ浜町１番２８号別府コージェマンション３０１号,,44,202,8740927,,,,,,,2023-12-15,1,,,,,コンペイトウキカク,0
245,1340001026141,新規,0,2023-12-15,2023-12-15,株式会社心幸建設,,株式会社,鹿児島県,姶良郡湧水町,木場６３４０番地１９３,,46,452,8996201,,,,,,,2023-12-15,1,,,,,シンコウケンセツ,0
248,1350003004524,新規,0,2023-12-15,2023-12-15,合同会社ＺＥＲＯ　ＳＨＯＴ,,合同会社,宮崎県,北諸県郡三股町,大字長田３０４０―１,,45,341,8891911,,,,,,,2023-12-15,1,,,,,ゼロショット,0
251,1360001032939,新規,0,2023-12-15,2023-12-15,株式会社Ａｎａ‐Ｓｔｙｌｅ,,株式会社,沖縄県,那覇市,首里石嶺町３丁目８３番地１アナガーデン２０２,,47,201,9030804,,,,,,,2023-12-15,1,,,,,アナスタイル,0
252,1360001032963,新規,0,2023-12-15,2023-12-15,株式会社ＳＭＺ沖縄,,株式会社,沖縄県,那覇市,おもろまち３丁目７番１５号グランドヒル新都心ビル１－Ｂ号,,47,201,9000006,,,,,,,2023-12-15,1,,,,,エスエムゼットオキナワ,0
253,1360003013557,新規,0,2023-12-15,2023-12-15,合同会社ピエノマ,,合同会社,沖縄県,豊見城市,宜保２丁目１－１１コーポ・パークサイド３－Ｂ,,47,212,9010244,,,,,,,2023-12-15,1,,,,,ピエノマ,0
255,1370001050709,新規,0,2023-12-15,2023-12-15,株式会社ＷｉｌｌＸ,,株式会社,宮城県,仙台市泉区,南光台南３丁目２番１８－２号,,04,105,9818002,,,,,,,2023-12-15,1,,,,,ウィルクス,0
256,1370001050733,新規,0,2023-12-15,2023-12-15,株式会社ＰＬポリリンク,,株式会社,宮城県,仙台市宮城野区,幸町２丁目１７番７－５１３号,,04,102,9830836,,,,,,,2023-12-15,1,,,,,ピーエルポリリンク,0
257,1370001050741,新規,0,2023-12-15,2023-12-15,株式会社マルイチ水産,,株式会社,宮城県,石巻市,渡波字新釜１番２２,,04,202,9862135,,,,,,,2023-12-15,1,,,,,マルイチスイサン,0
261,1380003005643,新規,0,2023-12-15,2023-12-15,合同会社ＬＬＴ,,合同会社,福島県,郡山市,安積町日出山３丁目１５９番地ソレイユ・ルヴァンＡ棟,,07,203,9630101,,,,,,,2023-12-15,1,,,,,エルエルティー,0
264,1400005008369,新規,0,2023-12-15,2023-12-15,一般社団法人ゆいまーる,,その他の設立登記法人,岩手県,一関市,山目字中野７４番地Ｆ棟,,03,209,0210053,,,,,,,2023-12-15,1,,,,,,0
265,1400005008377,新規,0,2023-12-15,2023-12-15,特定非営利活動法人くらしとすまいプロディゴ,,その他の設立登記法人,岩手県,盛岡市,高松４丁目２番４７号モンブラン２０３号,,03,201,0200114,,,,,,,2023-12-15,1,,,,,クラシトスマイプロディゴ,0
266,1420003002850,新規,0,2023-12-15,2023-12-15,合同会社みきち,,合同会社,青森県,八戸市,大字大久保字浜長根６番地２４,,02,203,0310833,,,,,,,2023-12-15,1,,,,,ミキチ,0
269,1430001090541,新規,0,2023-12-15,2023-12-15,株式会社豊丘オーチャード,,株式会社,北海道,余市郡余市町,豊丘町１５４７番地,,01,408,0460013,,,,,,,2023-12-15,1,,,,,トヨオカオーチャード,0
270,1430001090624,新規,0,2023-12-15,2023-12-15,株式会社Ｍ・ＡＬＩ　ＴＲＡＤＩＮＧ,,株式会社,北海道,赤平市,美園町５丁目７番地赤平オフィスビルＢ－１,,01,218,0791144,,,,,,,2023-12-15,1,,,,,エムアリトレーディング,0
271,1430001090649,新規,0,2023-12-15,2023-12-15,Ｔ．Ｅ．Ｃホールディングス株式会社,,株式会社,北海道,札幌市中央区,南七条西１丁目２０番地１－１４０２号室,,01,101,0640807,,,,,,,2023-12-15,1,,,,,ティーイーシーホールディングス,0
272,1430003015752,新規,0,2023-12-15,2023-12-15,ＡＱＵＡ　ＲＩＡＮＡ合同会社,,合同会社,北海道,石狩市,花川南五条４丁目２０３番地,,01,235,0613205,,,,,,,2023-12-15,1,,,,,アクアリアナ,0
273,1430003015760,新規,0,2023-12-15,2023-12-15,ＪＵＳＴ　ＤＯ　ＩＴ合同会社,,合同会社,北海道,札幌市豊平区,月寒中央通７丁目２番１０－１３０２号,,01,105,0620020,,,,,,,2023-12-15,1,,,,,ジャストドゥイット,0
274,1450001014176,新規,0,2023-12-15,2023-12-15,株式会社カムイファーム,,株式会社,北海道,旭川市,神居町上雨紛３８２番地,,01,204,0708034,,,,,,,2023-12-15,1,,,,,カムイファーム,0
275,1460103001583,新規,0,2023-12-15,2023-12-15,合同会社笑ふく,,合同会社,北海道,帯広市,西二十五条南３丁目３７番地１,,01,207,0802475,,,,,,,2023-12-15,1,,,,,フクフク,0
281,1500005008664,新規,0,2023-12-15,2023-12-15,一般社団法人スピリチュアル心理カウンセラー愛協会,,その他の設立登記法人,愛媛県,松山市,雄郡１丁目１２番８号,,38,201,7900031,,,,,,,2023-12-15,1,,,,,スピリチュアルシンリカウンセラーアイキョウカイ,0
282,1700150122761,新規,0,2023-12-15,2023-12-15,ＳＭＢＣコンシューマーファイナンス健康保険組合,,その他,東京都,江東区,豊洲２丁目２番３１号,,13,108,1350061,,,,,,,2023-12-15,1,,,,,エスエムビーシーコンシューマーファイナンスケンコウホケンクミアイ,0
296,2010401179208,新規,0,2023-12-15,2023-12-15,株式会社ＺｅｎＣａｒｄ,,株式会社,東京都,港区,新橋１丁目１７番８号ＴＫＫ新橋ビル８Ｆ,,13,103,1050004,,,,,,,2023-12-15,1,,,,,ゼンカード,0
297,2010401179216,新規,0,2023-12-15,2023-12-15,株式会社ＴＨＮＴ,,株式会社,東京都,港区,南青山７丁目４番１５号４０５,,13,103,1070062,,,,,,,2023-12-15,1,,,,,ティーエイチエヌティー,0
298,2010401179232,新規,0,2023-12-15,2023-12-15,株式会社Ａｍａｎｏｕｚｕｍｅ．,,株式会社,東京都,港区,南青山５丁目１７番２号,,13,103,1070062,,,,,,,2023-12-15,1,,,,,アマノウズメ,0
299,2010401179249,新規,0,2023-12-15,2023-12-15,ＡＳＵＭＩ　ＪＡＰＡＮ株式会社,,株式会社,東京都,港区,白金台５丁目２２－１２前田道路白金ビル４Ｆ,,13,103,1080071,,,,,,,2023-12-15,1,,,,,アスミジャパン,0
306,2010403031589,新規,0,2023-12-15,2023-12-15,合同会社夏夏夏,,合同会社,東京都,港区,芝５丁目２６番２４号ビジネスエアポート２階,,13,103,1080014,,,,,,,2023-12-15,1,,,,,ゲゲゲ,0
307,2010403031597,新規,0,2023-12-15,2023-12-15,合同会社Ｋｅｙｎｅｓ,,合同会社,東京都,港区,南青山３丁目１番３６号青山丸竹ビル６Ｆ,,13,103,1070062,,,,,,,2023-12-15,1,,,,,ケインズ,0
313,2010601064333,新規,0,2023-12-15,2023-12-15,株式会社ＣＲＯＷＮ,,株式会社,東京都,墨田区,江東橋２丁目６番１０号ＯＴＩＡＭＵビル１Ｆ,,13,107,1300022,,,,,,,2023-12-15,1,,,,,クラウン,0
314,2010601064341,新規,0,2023-12-15,2023-12-15,株式会社８Ｓ,,株式会社,東京都,墨田区,本所１丁目３番１１－１２０３号,,13,107,1300004,,,,,,,2023-12-15,1,,,,,エイツ,0
315,2010603010525,新規,0,2023-12-15,2023-12-15,合同会社フォリア,,合同会社,東京都,墨田区,八広６丁目２３番８－６０４号アイルプレミアム東向島,,13,107,1310041,,,,,,,2023-12-15,1,,,,,フォリア,0
318,2010801034607,新規,0,2023-12-15,2023-12-15,光正株式会社,,株式会社,東京都,大田区,東海３丁目７番３号,,13,111,1430001,,,,,,,2023-12-15,1,,,,,コウセイ,0
320,2010803004780,新規,0,2023-12-15,2023-12-15,合同会社この花四重奏,,合同会社,東京都,大田区,田園調布１丁目２３番４号,,13,111,1450071,,,,,,,2023-12-15,1,,,,,コノハナカルテット,0
331,2011001158799,新規,0,2023-12-15,2023-12-15,Ｔｈｅ　Ｓｉｇｎａｇｅ株式会社,,株式会社,東京都,渋谷区,恵比寿１丁目１９番１９号恵比寿ビジネスタワー１０Ｆ,,13,113,1500013,,,,,,,2023-12-15,1,,,,,ザサイネージ,0
332,2011001158808,新規,0,2023-12-15,2023-12-15,ＳＯ４ＹＯＵ株式会社,,株式会社,東京都,渋谷区,渋谷２丁目１９－１５宮益坂ビルディング６０９,,13,113,1500002,,,,,,,2023-12-15,1,,,,,ソフォユー,0
333,2011001158824,新規,0,2023-12-15,2023-12-15,株式会社ＧＲＯＯＶＹ　ＣＲＥＷ,,株式会社,東京都,渋谷区,恵比寿南１丁目７番８－６０５号,,13,113,1500022,,,,,,,2023-12-15,1,,,,,グルービークルー,0
335,2011101105453,新規,0,2023-12-15,2023-12-15,株式会社ＵｔｏＰｅｅｒ．,,株式会社,東京都,新宿区,西新宿３丁目３番１３号西新宿水間ビル６階,,13,104,1600023,,,,,,,2023-12-15,1,,,,,ユートピア,0
336,2011101105494,新規,0,2023-12-15,2023-12-15,株式会社Ａａｌ　Ｉｚｚ　Ｗｅｌｌ,,株式会社,東京都,新宿区,新宿５丁目１２番１１－９０６号,,13,104,1600022,,,,,,,2023-12-15,1,,,,,オールイズウェル,0
337,2011103013860,新規,0,2023-12-15,2023-12-15,合同会社Ｗｉｌｌｍａｔｅ,,合同会社,東京都,新宿区,西新宿３丁目３番１３号西新宿水間ビル６階,,13,104,1600023,,,,,,,2023-12-15,1,,,,,ウィルメイト,0
345,2011701026859,新規,0,2023-12-15,2023-12-15,ＧＮＤ株式会社,,株式会社,東京都,江戸川区,南小岩３丁目２０－１７小岩ウエストリバー１０１室,,13,123,1330056,,,,,,,2023-12-15,1,,,,,ジーエヌデー,0
346,2011801043498,新規,0,2023-12-15,2023-12-15,ＴＣＳ株式会社,,株式会社,東京都,足立区,千住５丁目１３－１－２０３室,,13,121,1200034,,,,,,,2023-12-15,1,,,,,ティシーエス,0
347,2011801043507,新規,0,2023-12-15,2023-12-15,株式会社有馬建設,,株式会社,東京都,葛飾区,四つ木１丁目６番２０号,,13,122,1240011,,,,,,,2023-12-15,1,,,,,アリマケンセツ,0
349,2012305002073,新規,0,2023-12-15,2023-12-15,一般社団法人森遊クラブ,,その他の設立登記法人,東京都,町田市,上小山田町２６４８番地６,,13,209,1940201,,,,,,,2023-12-15,1,,,,,シンユウクラブ,0
351,2012401041289,新規,0,2023-12-15,2023-12-15,株式会社Ｂｅｒｒｙ　ｃｏｃｏ,,株式会社,東京都,武蔵野市,吉祥寺南町２丁目６番２号末広ビル１Ｆ,,13,203,1800003,,,,,,,2023-12-15,1,,,,,ベリーココ,0
364,2020001154915,新規,0,2023-12-15,2023-12-15,株式会社未来和堂,,株式会社,神奈川県,川崎市宮前区,土橋２丁目１２番地３ファミール鷺沼パークフロント５０６,,14,136,2160005,,,,,,,2023-12-15,1,,,,,ミライワドウ,0
368,2020003025197,新規,0,2023-12-15,2023-12-15,合同会社高杉装飾,00133014,合同会社,神奈川県,横浜市保土ケ谷区,法泉２丁目６番９号,,14,106,2400032,,,,,,,2023-12-15,1,,,,,タカスギソウショク,0
369,2020005016228,新規,0,2023-12-15,2023-12-15,特定非営利活動法人ＲＩＡＺ,,その他の設立登記法人,神奈川県,横浜市青葉区,つつじが丘１８番地１０,,14,117,2270055,,,,,,,2023-12-15,1,,,,,リアズ,0
370,2021001080985,新規,0,2023-12-15,2023-12-15,株式会社すぎな,,株式会社,神奈川県,座間市,東原１丁目２番４１－１号,,14,216,2520004,,,,,,,2023-12-15,1,,,,,スギナ,0
371,2021001081001,新規,0,2023-12-15,2023-12-15,株式会社オールマイン,,株式会社,神奈川県,相模原市南区,上鶴間本町１丁目３０番９号,,14,153,2520318,,,,,,,2023-12-15,1,,,,,オールマイン,0
374,2021003013910,新規,0,2023-12-15,2023-12-15,合同会社ウイズポート,,合同会社,神奈川県,厚木市,妻田東３丁目２１番３１号,,14,212,2430813,,,,,,,2023-12-15,1,,,,,ウイズポート,0
377,2030001157669,新規,0,2023-12-15,2023-12-15,株式会社流鹿,,株式会社,埼玉県,所沢市,大字山口１７２０番地,,11,208,3591145,,,,,,,2023-12-15,1,,,,,ルシカ,0
378,2030001157710,新規,0,2023-12-15,2023-12-15,株式会社ＣＶ　Ｂｕｓｉｎｅｓｓ　Ｌａｂｏ．,,株式会社,埼玉県,川口市,金山町１２番１号サウスゲートタワー川口２Ｆ,,11,203,3320014,,,,,,,2023-12-15,1,,,,,シーブイビジネスラボ,0
379,2030001157719,新規,0,2023-12-15,2023-12-15,株式会社Ｌｕｃｉｕｓ,,株式会社,埼玉県,川口市,金山町４番１２－２号,,11,203,3320014,,,,,,,2023-12-15,1,,,,,ルシアス,0
388,2040001131342,新規,0,2023-12-15,2023-12-15,株式会社隆生,,株式会社,千葉県,市原市,君塚２丁目２１番地４,,12,219,2900051,,,,,,,2023-12-15,1,,,,,タカショウ,0
389,2040001131383,新規,0,2023-12-15,2023-12-15,株式会社ジェイ環境ファクトリー,,株式会社,千葉県,船橋市,二子町６００番地１,,12,204,2730034,,,,,,,2023-12-15,1,,,,,ジェイカンキョウファクトリー,0
392,2040003023926,新規,0,2023-12-15,2023-12-15,合同会社Ｍａｍ,,合同会社,千葉県,山武郡横芝光町,篠本１４１６番地,,12,410,2891701,,,,,,,2023-12-15,1,,,,,マム,0
402,2070001041183,新規,0,2023-12-15,2023-12-15,竹宏堂株式会社,,株式会社,群馬県,太田市,西新町３番２,,10,205,3730847,,,,,,,2023-12-15,1,,,,,タケヒロドウ,0
407,2080001026035,新規,0,2023-12-15,2023-12-15,株式会社Ｌｉｆｅ　Ｒｅｓｔａｒｔ,,株式会社,静岡県,静岡市駿河区,さつき町２番１３号,,22,102,4228078,,,,,,,2023-12-15,1,,,,,ライフリスタート,0
408,2090001018460,新規,0,2023-12-15,2023-12-15,株式会社Ｒｅｆｉｎｅ　Ｃｒｅａｔｉｏｎ,,株式会社,山梨県,西八代郡市川三郷町,市川大門５２３番地３,,19,346,4093601,,,,,,,2023-12-15,1,,,,,リファインクリエーション,0
414,2100003007303,新規,0,2023-12-15,2023-12-15,リスの家合同会社,,合同会社,長野県,諏訪郡原村,１７２１７番地２３９,,20,363,3910100,,,,,,,2023-12-15,1,,,,,リスノイエ,0
415,2100003007311,新規,0,2023-12-15,2023-12-15,合同会社大にし屋,,合同会社,長野県,下高井郡山ノ内町,大字夜間瀬８２３１番地２,,20,561,3810405,,,,,,,2023-12-15,1,,,,,オオニシヤ,0
416,2110001038035,新規,0,2023-12-15,2023-12-15,Ｆｕｓｉｏｎ　Ｍｉｎｄ株式会社,,株式会社,新潟県,村上市,田端町１４番７号きどビル１階,,15,212,9580854,,,,,,,2023-12-15,1,,,,,フュージョンマインド,0
430,2120001260562,新規,0,2023-12-15,2023-12-15,株式会社Ｎｏｖｅｌｔｙ　Ｃｉｒｃｌｅ,,株式会社,大阪府,大阪市浪速区,難波中１丁目３番１号ＲＥ－０１６ビル６０２号室,,27,111,5560011,,,,,,,2023-12-15,1,,,,,ノベルティサークル,0
431,2120001260579,新規,0,2023-12-15,2023-12-15,ＶＯＯＴＩＣ　ＪＡＰＡＮ株式会社,,株式会社,大阪府,大阪市北区,梅田１丁目２番２号大阪駅前第２ビル１２－１２,,27,127,5300001,,,,,,,2023-12-15,1,,,,,ブティックジャパン,0
432,2120001260587,新規,0,2023-12-15,2023-12-15,松和住建株式会社,,株式会社,大阪府,大阪市北区,天神西町三丁目６番２２号,,27,127,5300045,,,,,,,2023-12-15,1,,,,,ショウワジュウケン,0
433,2120001260595,新規,0,2023-12-15,2023-12-15,株式会社ｂｌｕｅ,,株式会社,大阪府,大阪市中央区,船越町１丁目１番１－６０３号,,27,128,5400036,,,,,,,2023-12-15,1,,,,,ブルー,0
434,2120001260629,新規,0,2023-12-15,2023-12-15,韓在堂株式会社,,株式会社,大阪府,大阪市大正区,三軒家西３丁目４番１６号中山ビル１０５１,,27,108,5510001,,,,,,,2023-12-15,1,,,,,カンザイトウ,0
435,2120001260678,新規,0,2023-12-15,2023-12-15,Ｓｃｈｗａｎｚ株式会社,,株式会社,大阪府,大阪市北区,梅田１丁目２番２号大阪駅前第２ビル１２－１２,,27,127,5300001,,,,,,,2023-12-15,1,,,,,シュヴァンツ,0
436,2120001260744,新規,0,2023-12-15,2023-12-15,株式会社エムツー,,株式会社,大阪府,大阪市住之江区,粉浜１丁目１５番１８－９０５号,,27,125,5590001,,,,,,,2023-12-15,1,,,,,エムツー,0
440,2120003025518,新規,0,2023-12-15,2023-12-15,合同会社きずなグループ無限,,合同会社,大阪府,大阪市浪速区,恵美須西２丁目１１－１７－４０１号,,27,111,5560003,,,,,,,2023-12-15,1,,,,,キズナグループムゲン,0
441,2120003025534,新規,0,2023-12-15,2023-12-15,カサ・フィナ合同会社,,合同会社,大阪府,大阪市西区,西本町２丁目１番２８号,,27,106,5500005,,,,,,,2023-12-15,1,,,,,カサフィナ,0
444,2120101068708,新規,0,2023-12-15,2023-12-15,株式会社成功,,株式会社,大阪府,岸和田市,土生町７丁目４番３９号,,27,202,5960825,,,,,,,2023-12-15,1,,,,,セイコウ,0
447,2122001037668,新規,0,2023-12-15,2023-12-15,株式会社翔彩,,株式会社,大阪府,東大阪市,永和１丁目４番１号,,27,227,5770809,,,,,,,2023-12-15,1,,,,,トイロ,0
453,2130001075927,新規,0,2023-12-15,2023-12-15,一帆株式会社,,株式会社,京都府,京都市東山区,福稲下高松町１２番地１５,,26,105,6050982,,,,,,,2023-12-15,1,,,,,イチホ,0
455,2130005016951,新規,0,2023-12-15,2023-12-15,医療法人岩崎歯科クリニック,,その他の設立登記法人,京都府,京都市西京区,川島尻堀町５３番地の５,,26,111,6158196,,,,,,,2023-12-15,1,,,,,イワサキシカクリニック,0
463,2140001132693,新規,0,2023-12-15,2023-12-15,株式会社ＭＨＳ,,株式会社,兵庫県,伊丹市,荒牧南４丁目１番８号,,28,207,6640008,,,,,,,2023-12-15,1,,,,,エムエイチエス,0
466,2160005011256,新規,0,2023-12-15,2023-12-15,一般社団法人田中小晴後援会,,その他の設立登記法人,滋賀県,大津市,雄琴３丁目１１番１号,,25,201,5200101,,,,,,,2023-12-15,1,,,,,タナカコハルコウエンカイ,0
473,2180001159386,新規,0,2023-12-15,2023-12-15,株式会社ＭＲＨＹ７‐８,,株式会社,愛知県,岩倉市,大山寺元町７番地８,,23,228,4820007,,,,,,,2023-12-15,1,,,,,エムアールエイチワイナナノハチ,0
476,2180003026122,新規,0,2023-12-15,2023-12-15,紀尾井町電力合同会社,,合同会社,愛知県,名古屋市中区,栄２丁目９番２６号ポーラ名古屋ビル６階,,23,106,4600008,,,,,,,2023-12-15,1,,,,,キオイチョウデンリョク,0
477,2180301038125,新規,0,2023-12-15,2023-12-15,株式会社ｕｐｓｔａｔｅ,,株式会社,愛知県,岡崎市,福岡町字下荒追３９番地４,,23,202,4440825,,,,,,,2023-12-15,1,,,,,アップステイト,0
485,2240001062567,新規,0,2023-12-15,2023-12-15,株式会社アクセス・フードラボ,,株式会社,広島県,広島市中区,十日市町２丁目２番３０号,,34,101,7300805,,,,,,,2023-12-15,1,,,,,アクセスフードラボ,0
500,2290001103977,新規,0,2023-12-15,2023-12-15,株式会社エストレージャ,,株式会社,福岡県,福岡市西区,愛宕浜４丁目６番１２号,,40,135,8190013,,,,,,,2023-12-15,1,,,,,エストレージャ,0
501,2290001104018,新規,0,2023-12-15,2023-12-15,馬伊商事株式会社,,株式会社,福岡県,福岡市東区,香椎浜３丁目３番５－２６０４号,,40,131,8130016,,,,,,,2023-12-15,1,,,,,ウマイショウジ,0
510,2320005010118,新規,0,2023-12-15,2023-12-15,一般社団法人オレンジ共同福祉会,,その他の設立登記法人,大分県,大分市,萩原１丁目２番４７号第２南セメントビル７号室,,44,201,8700921,,,,,,,2023-12-15,1,,,,,オレンジキョウドウフクシカイ,0
516,2340001026140,新規,0,2023-12-15,2023-12-15,株式会社ＴＳＶ,,株式会社,鹿児島県,鹿児島市,西田３丁目２６番１９号,,46,201,8900046,,,,,,,2023-12-15,1,,,,,ティエスブイ,0
534,2430001090648,新規,0,2023-12-15,2023-12-15,株式会社Ｔｇｒａｃｅ,,株式会社,北海道,札幌市中央区,南三条東２丁目４番地二条ＧＣビル１００１号室,,01,101,0600053,,,,,,,2023-12-15,1,,,,,ティーグレイス,0
535,2460103001582,新規,0,2023-12-15,2023-12-15,合同会社ユメカル,,合同会社,北海道,帯広市,川西町西２線５７番地２９,,01,207,0891182,,,,,,,2023-12-15,1,,,,,ユメカル,0
537,2470001019940,新規,0,2023-12-15,2023-12-15,仏生山インベストメント株式会社,,株式会社,香川県,東かがわ市,白鳥７８番地１,,37,207,7692705,,,,,,,2023-12-15,1,,,,,ブッショウザンインベストメント,0
545,2500005008663,新規,0,2023-12-15,2023-12-15,一般社団法人神霊療法協会,,その他の設立登記法人,愛媛県,松山市,粟井河原２４５番地１３,,38,201,7992463,,,,,,,2023-12-15,1,,,,,シンレイリョウホウキョウカイ,0
546,2700150120995,新規,0,2023-12-15,2023-12-15,ＳｈｅｎＺｈｅｎＳｈｉ　ＱｉａｎＸｕＨｅｎｇ　Ｔｒａｄｉｎｇ　Ｃｏ．，Ｌｔｄ,,外国会社等,,,,,,,,ｌｏｎｇｇａｎｇｑｕｌｏｎｇｇａｎｇｊｉｅｄａｏｓｈｕｉｔｉａｎｙｉｌｕ１１ｈａｏＤｄｏｎｇｙｕｎｃａｎｇｄａｓ　ｈａ６ｌ　ｇｕａｎｇｄｏｎｇ　ｓｈｅｎｚｈｅｎ　５１８０００　ＣＮ,,,,,,2023-12-15,1,,,,,シェンジェンシチェンシュイホントレーディングカンパニーリミテッド,0
547,2700150122752,新規,0,2023-12-15,2023-12-15,Ｑｉａｎ　Ｓｈａｎ　Ｃｈｕｎ　Ｍｅｎｇ　Ｆｕ　Ｓｈｉ　ＥＣｏｍｍｅｒｃｅ　Ｃｏ．，Ｌｔｄ,,外国会社等,,,,,,,,Ｎｏ．１　Ｑｉａｎｙａｎｇ　Ｒｏａｄ，Ｑｉａｎｓｈａｎ　Ｃｏｕｎｔｙ　Ｅｃｏｎｏｍｉｃ　Ｄｅｖｅｌｏｐｍｅｎｔ　Ｚｏｎｅ，Ａｎｑｉｎｇ　Ｃｉｔｙ，Ａｎｈｕｉ　Ｐｒｏｖｉｎｃｅ,,,,,,2023-12-15,1,,,,,チエンシャンチュンモンフーシーディエンズーシャンウーヨウシエンゴンスー,0
558,3010001240847,新規,0,2023-12-15,2023-12-15,株式会社岩田ホールディングス,,株式会社,東京都,文京区,本郷３丁目３１番１５号ＪＮＧ本郷ビル２階,,13,105,1130033,,,,,,,2023-12-15,1,,,,,イワタホールディングス,0
560,3010003042457,新規,0,2023-12-15,2023-12-15,合同会社Ｂｅ　Ｍｏｒｅ　Ｓｏｕｎｄｓ,,合同会社,東京都,中央区,銀座１丁目２２番１１号,,13,102,1040061,,,,,,,2023-12-15,1,,,,,ビーモアサウンズ,0
561,3010003042465,新規,0,2023-12-15,2023-12-15,ブリエ合同会社,,合同会社,東京都,千代田区,富士見２丁目１２－１６－２０７,,13,101,1020071,,,,,,,2023-12-15,1,,,,,ブリエ,0
570,3010401179132,新規,0,2023-12-15,2023-12-15,株式会社ＴＲＩＢＵＴＥ,,株式会社,東京都,港区,西新橋１丁目２２番２号２Ｆ,,13,103,1050003,,,,,,,2023-12-15,1,,,,,トリビュート,0
572,3010403031547,新規,0,2023-12-15,2023-12-15,ルピナス不動産合同会社,,合同会社,東京都,港区,六本木７丁目７番７号トライセブンロッポンギ８Ｆ,,13,103,1060032,,,,,,,2023-12-15,1,,,,,ルピナスフドウサン,0
577,3010501051513,新規,0,2023-12-15,2023-12-15,株式会社ＩＤＣ,,株式会社,東京都,台東区,竜泉２丁目７－７東京ビューマークス１４０３号室,,13,106,1100012,,,,,,,2023-12-15,1,,,,,アイディーシー,0
579,3010701045249,新規,0,2023-12-15,2023-12-15,株式会社ＶＯＬＶＥ　ＣＲＥＡＴＩＶＥ,,株式会社,東京都,品川区,大崎５丁目４－１２八重苅ビル１Ｆ,,13,109,1410032,,,,,,,2023-12-15,1,,,,,ヴォルブクリエイティブ,0
580,3010701045265,新規,0,2023-12-15,2023-12-15,株式会社おはようおひさま,,株式会社,東京都,品川区,荏原３丁目５番２０－１１０３号,,13,109,1420063,,,,,,,2023-12-15,1,,,,,オハヨウオヒサマ,0
583,3010705003574,新規,0,2023-12-15,2023-12-15,一般社団法人アジアボディボーディング連盟,,その他の設立登記法人,東京都,品川区,上大崎４丁目４番８号ダイナミックアート館２階,,13,109,1410021,,,,,,,2023-12-15,1,,,,,アジアボディボーディングレンメイ,0
590,3011001158807,新規,0,2023-12-15,2023-12-15,株式会社エストネーション,,株式会社,東京都,渋谷区,千駄ヶ谷２丁目１１番１号,,13,113,1510051,,,,,,,2023-12-15,1,,,,,エストネーション,0
591,3011001158831,新規,0,2023-12-15,2023-12-15,株式会社ＨＯＴＡＲＵ,,株式会社,東京都,渋谷区,道玄坂１丁目１０番８号渋谷道玄坂東急ビル２Ｆ－Ｃ,,13,113,1500043,,,,,,,2023-12-15,1,,,,,ホタル,0
596,3011101105452,新規,0,2023-12-15,2023-12-15,株式会社ＦｏｒＲａｍ．,,株式会社,東京都,新宿区,西新宿３丁目３番１３号西新宿水間ビル６階,,13,104,1600023,,,,,,,2023-12-15,1,,,,,フォーラム,0
597,3011101105502,新規,0,2023-12-15,2023-12-15,株式会社Ａｇｏｇ,,株式会社,東京都,新宿区,西新宿４丁目２番１５－５０２号,,13,104,1600023,,,,,,,2023-12-15,1,,,,,アゴッグ,0
598,3011101105510,新規,0,2023-12-15,2023-12-15,株式会社ＤＥＡＲＭＹＮＭ,,株式会社,東京都,新宿区,矢来町４７番地１,,13,104,1620805,,,,,,,2023-12-15,1,,,,,ディアマイエヌエム,0
599,3011103013843,新規,0,2023-12-15,2023-12-15,Ａｌａｃｅｒ　Ｗｈｏｌｅ合同会社,,合同会社,東京都,新宿区,榎町３４－３榎町ビル５階－０４室,,13,104,1620806,,,,,,,2023-12-15,1,,,,,アラケルホール,0
604,3011301029212,新規,0,2023-12-15,2023-12-15,株式会社Ｗｉｎｋｌｅ,,株式会社,東京都,杉並区,高円寺南１丁目７番２号東高円寺フジステーションプラザ２０１,,13,115,1660003,,,,,,,2023-12-15,1,,,,,ウィンクル,0
605,3011303004997,新規,0,2023-12-15,2023-12-15,合同会社ＳＵＺＵ,,合同会社,東京都,杉並区,方南１丁目５２－６,,13,115,1680062,,,,,,,2023-12-15,1,,,,,スズ,0
609,3011401025706,新規,0,2023-12-15,2023-12-15,東京エールワークス株式会社,,株式会社,東京都,板橋区,板橋１丁目８番４号,,13,119,1730004,,,,,,,2023-12-15,1,,,,,トウキョウエールワークス,0
612,3011801043489,新規,0,2023-12-15,2023-12-15,ツリーベル株式会社,,株式会社,東京都,足立区,入谷７丁目７番２６号,,13,121,1210836,,,,,,,2023-12-15,1,,,,,ツリーベル,0
613,3011801043506,新規,0,2023-12-15,2023-12-15,ＢＭＲ株式会社,,株式会社,東京都,葛飾区,新小岩２丁目４１番３‐７０１号,,13,122,1240024,,,,,,,2023-12-15,1,,,,,ビーエムアール,0
616,3012401041313,新規,0,2023-12-15,2023-12-15,株式会社ノア,,株式会社,東京都,三鷹市,下連雀３丁目９番６号三鷹ダイカンプラザ８０５,,13,204,1810013,,,,,,,2023-12-15,1,,,,,ノア,0
633,3020001154930,新規,0,2023-12-15,2023-12-15,ＭＴ株式会社,,株式会社,神奈川県,横浜市西区,高島２丁目１１番２号スカイメナー横浜５１９,,14,103,2200011,,,,,,,2023-12-15,1,,,,,エムティ,0
634,3020001154939,新規,0,2023-12-15,2023-12-15,株式会社ＧＲ,,株式会社,神奈川県,横浜市都筑区,加賀原２丁目７番９号,,14,118,2240055,,,,,,,2023-12-15,1,,,,,ジーアール,0
635,3020001154947,新規,0,2023-12-15,2023-12-15,共成株式会社,,株式会社,神奈川県,横浜市鶴見区,元宮１丁目１５番１９号,,14,101,2300004,,,,,,,2023-12-15,1,,,,,キョウセイ,0
640,3020003025196,新規,0,2023-12-15,2023-12-15,ねこパンチ合同会社,,合同会社,神奈川県,横浜市中区,北仲通３丁目３３番地関内フューチャーセンター,,14,104,2310003,,,,,,,2023-12-15,1,,,,,ネコパンチ,0
641,3020003025205,新規,0,2023-12-15,2023-12-15,グローバルハッピー合同会社,,合同会社,神奈川県,横浜市中区,南仲通１丁目１３番地アールケープラザ横浜関内ポートサイドビュー６１１,,14,104,2310006,,,,,,,2023-12-15,1,,,,,グローバルハッピー,0
653,3030001157619,新規,0,2023-12-15,2023-12-15,株式会社フラット,,株式会社,埼玉県,北葛飾郡杉戸町,杉戸１丁目４番１０号,,11,464,3450036,,,,,,,2023-12-15,1,,,,,フラット,0
654,3030001157742,新規,0,2023-12-15,2023-12-15,株式会社ヒダノ工業,,株式会社,埼玉県,草加市,両新田西町１０番地２２,,11,221,3400027,,,,,,,2023-12-15,1,,,,,ヒダノコウギョウ,0
667,3040001131399,新規,0,2023-12-15,2023-12-15,株式会社Ｃｒｅｅｄ,,株式会社,千葉県,袖ケ浦市,蔵波１２５９番地９４,,12,229,2990243,,,,,,,2023-12-15,1,,,,,クリード,0
670,3040003023925,新規,0,2023-12-15,2023-12-15,合同会社ニシナヤ,,合同会社,千葉県,山武郡九十九里町,西野１３６番地,,12,403,2830116,,,,,,,2023-12-15,1,,,,,ニシナヤ,0
671,3040003023933,新規,0,2023-12-15,2023-12-15,合同会社開誠建工,,合同会社,千葉県,市川市,行徳駅前２丁目２１番２２－６０３４号（行徳マンション）,,12,203,2720133,,,,,,,2023-12-15,1,,,,,カイセイケンコウ,0
672,3050001053948,新規,0,2023-12-15,2023-12-15,株式会社エムケーアイ,,株式会社,茨城県,土浦市,小松１丁目１１番９号,,08,203,3000823,,,,,,,2023-12-15,1,,,,,エムケーアイ,0
673,3050001053964,新規,0,2023-12-15,2023-12-15,株式会社ＢＯＮＤ,,株式会社,茨城県,牛久市,中央１丁目５番２号,,08,219,3001234,,,,,,,2023-12-15,1,,,,,ボンド,0
674,3050001053989,新規,0,2023-12-15,2023-12-15,株式会社ＮＥＧＡＩ,,株式会社,茨城県,取手市,新町１丁目９－１リボンとりで５階Ｋ１４,,08,217,3020024,,,,,,,2023-12-15,1,,,,,ネガイ,0
680,3060003004840,新規,0,2023-12-15,2023-12-15,合同会社ワークサポート,,合同会社,栃木県,下野市,駅東１丁目１番３号ウィンビューティー１０１,,09,216,3290413,,,,,,,2023-12-15,1,,,,,ワークサポート,0
682,3070003005193,新規,0,2023-12-15,2023-12-15,合同会社フルートフル・ライフ,,合同会社,群馬県,前橋市,富士見町時沢１８０４番地９,,10,201,3710104,,,,,,,2023-12-15,1,,,,,,0
684,3080401026897,新規,0,2023-12-15,2023-12-15,株式会社ちとせ,,株式会社,静岡県,浜松市中区,千歳町７６コネクト第一ビル３階,,22,131,4300934,,,,,,,2023-12-15,1,,,,,チトセ,0
685,3080403004926,新規,0,2023-12-15,2023-12-15,合同会社アールズ・ルーチェ,,合同会社,静岡県,湖西市,鷲津３３６番地の１３,,22,221,4310431,,,,,,,2023-12-15,1,,,,,アールズルーチェ,0
708,3120001260561,新規,0,2023-12-15,2023-12-15,三春暉株式会社,,株式会社,大阪府,大阪市天王寺区,生玉前町５番３１号アンビション三和ＩＩ－１１０１号室,00133017,27,109,5430072,,,,,,,2023-12-15,1,,,,,サンシュンキ,0
709,3120001260594,新規,0,2023-12-15,2023-12-15,株式会社ＷＨＡＴ　Ａ　ＷＯＮＤＥＲＦＵＬ　ＷＯＲＬＤ,,株式会社,大阪府,大阪市浪速区,敷津東２丁目１番２４－１００８号,,27,111,5560012,,,,,,,2023-12-15,1,,,,,ホワットアワンダフルワールド,0
710,3120001260628,新規,0,2023-12-15,2023-12-15,ＨＡＲＶＥＳＴ　ＨＩＧＨ株式会社,,株式会社,大阪府,大阪市中央区,松屋町９番２０号ローレルステート松屋町７０２Ｂ,,27,128,5420067,,,,,,,2023-12-15,1,,,,,ハーベストハイ,0
711,3120001260644,新規,0,2023-12-15,2023-12-15,株式会社ＯＮＣＡＲＥ,,株式会社,大阪府,大阪市平野区,背戸口１丁目３番２２号,,27,126,5470034,,,,,,,2023-12-15,1,,,,,オンケア,0
712,3120001260685,新規,0,2023-12-15,2023-12-15,新日本電工グループ株式会社,,株式会社,大阪府,大阪市中央区,本町２丁目３－４アソルティ本町４Ｆ,,27,128,5410053,,,,,,,2023-12-15,1,,,,,シンニホンデンコウグループ,0
724,3120101068715,新規,0,2023-12-15,2023-12-15,株式会社到来,,株式会社,大阪府,岸和田市,土生町７丁目９－２－２０２,,27,202,5960825,,,,,,,2023-12-15,1,,,,,トウライ,0
734,3130001075926,新規,0,2023-12-15,2023-12-15,株式会社ＢＲＡＶＥ,,株式会社,京都府,京都市南区,東九条河西町１６番地シティハウス鴨川３０６,,26,107,6018014,,,,,,,2023-12-15,1,,,,,ブレイブ,0
756,3180001159385,新規,0,2023-12-15,2023-12-15,株式会社スール,,株式会社,愛知県,名古屋市中村区,豊国通１丁目２６番地の１,,23,105,4530834,,,,,,,2023-12-15,1,,,,,スール,0
759,3180005020460,新規,0,2023-12-15,2023-12-15,医療法人ＯＤＯ,,その他の設立登記法人,愛知県,半田市,乙川内山町１７番地,,23,205,4750053,,,,,,,2023-12-15,1,,,,,オーディーオー,0
766,3240001062558,新規,0,2023-12-15,2023-12-15,株式会社ＷＯＬＶＥＲＩＮＥ,,株式会社,広島県,広島市中区,白島中町１７番７号,,34,101,7300002,,,,,,,2023-12-15,1,,,,,ウルヴァリン,0
767,3240001062566,新規,0,2023-12-15,2023-12-15,株式会社ＬｉＢ,,株式会社,広島県,広島市西区,庚午北２丁目１５番１５号コ－ポキタムラ１０１,,34,104,7330821,,,,,,,2023-12-15,1,,,,,リブ,0
770,3250001020432,新規,0,2023-12-15,2023-12-15,ＨＡＬ株式会社,,株式会社,山口県,周南市,政所２丁目３番５号第１０松本ビル３階,,35,215,7460012,,,,,,,2023-12-15,1,,,,,ハル,0
773,3260003004523,新規,0,2023-12-15,2023-12-15,合同会社Ｏｌｉｖｅ,,合同会社,岡山県,岡山市中区,清水１丁目１４番２号,,33,102,7038243,,,,,,,2023-12-15,1,,,,,オリーブ,0
776,3280001009084,新規,0,2023-12-15,2023-12-15,株式会社わたなべツーリスト,,株式会社,島根県,松江市,乃白町１４２５番地,,32,201,6900045,,,,,,,2023-12-15,1,,,,,ワタナベツーリスト,0
781,3290001104066,新規,0,2023-12-15,2023-12-15,株式会社フジ,,株式会社,福岡県,朝倉郡筑前町,久光９２７番地１０,,40,447,8380802,,,,,,,2023-12-15,1,,,,,フジ,0
782,3290001104082,新規,0,2023-12-15,2023-12-15,株式会社藤田設備,,株式会社,福岡県,糟屋郡須惠町,大字植木１９６４番地１８,,40,344,8112112,,,,,,,2023-12-15,1,,,,,フジタセツビ,0
783,3290001104090,新規,0,2023-12-15,2023-12-15,ＥｄｕＰｏｒｔｅ株式会社,,株式会社,福岡県,福岡市東区,塩浜１丁目３１番７号,,40,131,8110203,,,,,,,2023-12-15,1,,,,,エデュポルテ,0
785,3290003014734,新規,0,2023-12-15,2023-12-15,佐渡ヶ島バイオマス発電所合同会社,,合同会社,福岡県,福岡市早良区,百道浜２丁目４番２７号ＡＩビル６Ｆ,,40,137,8140001,,,,,,,2023-12-15,1,,,,,サドガシマバイオマスハツデンショ,0
786,3290003014750,新規,0,2023-12-15,2023-12-15,合同会社Ｆｕｔｕｒｅ　Ｌｅａｄ,,合同会社,福岡県,福岡市東区,三苫５丁目６番３１－８０６号,,40,131,8110201,,,,,,,2023-12-15,1,,,,,フューチャーリード,0
792,3330001031561,新規,0,2023-12-15,2023-12-15,株式会社ミツヤ,,株式会社,熊本県,玉名市,築地９５５番地２３,,43,206,8650065,,,,,,,2023-12-15,1,,,,,ミツヤ,0
803,3360001032929,新規,0,2023-12-15,2023-12-15,株式会社インフィニティイメージ,,株式会社,沖縄県,中頭郡読谷村,字宇座１８６１番地,,47,324,9040328,,,,,,,2023-12-15,1,,,,,インフィニティイメージ,0
804,3360001032937,新規,0,2023-12-15,2023-12-15,株式会社ＣＲＵＩＳＥ,,株式会社,沖縄県,石垣市,美崎町９番地５プレイビル２Ｆ,,47,207,9070012,,,,,,,2023-12-15,1,,,,,クルーズ,0
805,3370001050723,新規,0,2023-12-15,2023-12-15,株式会社いいくらしグループ,,株式会社,宮城県,白石市,郡山字観音崎１８６番地１,,04,206,9890203,,,,,,,2023-12-15,1,,,,,イイクラシグループ,0
806,3370001050731,新規,0,2023-12-15,2023-12-15,株式会社ＤＡＴＥＹＡ　ｃｏｒｐｏｒａｔｉｏｎ,,株式会社,宮城県,仙台市宮城野区,幸町３丁目４番２５号,,04,102,9830836,,,,,,,2023-12-15,1,,,,,ダテヤコーポレーション,0
817,3430001090647,新規,0,2023-12-15,2023-12-15,株式会社ＹＵＳＨＵＮ,,株式会社,北海道,札幌市手稲区,曙八条１丁目２番８号,00133004,01,109,0060838,,,,,,,2023-12-15,1,,,,,ユウシュン,0
818,3430001090663,新規,0,2023-12-15,2023-12-15,明徳商事株式会社,,株式会社,北海道,札幌市北区,北十一条西３丁目２番２３－１１２７号,,01,102,0010011,,,,,,,2023-12-15,1,,,,,メイトクショウジ,0
819,3430001090671,新規,0,2023-12-15,2023-12-15,品田重機株式会社,,株式会社,北海道,札幌市西区,西野六条１０丁目１２番１６号,,01,107,0630036,,,,,,,2023-12-15,1,,,,,シナダジュウキ,0
823,3460103001581,新規,0,2023-12-15,2023-12-15,合同会社ライト商事,,合同会社,北海道,河東郡音更町,木野大通東１３丁目１番地４０タネットＮ館３０３号,,01,631,0800111,,,,,,,2023-12-15,1,,,,,ライトショウジ,0
826,3470003002539,新規,0,2023-12-15,2023-12-15,合同会社ＯＭＳＥＥＤ,,合同会社,香川県,坂出市,林田町２９３３番地５,,37,203,7620012,,,,,,,2023-12-15,1,,,,,オムシード,0
829,3470005006538,新規,0,2023-12-15,2023-12-15,一般社団法人ビビット,,その他の設立登記法人,香川県,丸亀市,山北町８８５番地１２,,37,202,7630072,,,,,,,2023-12-15,1,,,,,ビビット,0
831,3500001025364,新規,0,2023-12-15,2023-12-15,株式会社セブンフォーワンオートゥーナイン,,株式会社,愛媛県,今治市,東鳥生町２丁目６番１４号,,38,202,7940801,,,,,,,2023-12-15,1,,,,,セブンフォーワンオートゥーナイン,0
832,3700150120689,新規,0,2023-12-15,2023-12-15,Ｂｅｉｊｉｎｇ　ｊｉｎｎｉｕｋａｉｙｕａｎ　ｋｅｊｉ　ｙｏｕｘｉａｎｇｏｎｇｓｉ,,外国会社等,,,,,,,,ｈｕｉｌｏｎｇｇｕａｎ　ｊｉａｎｃａｉｃｈｅｎｇｘｉｌｕ　８７ｈａｏ　２ｈａｏｌｏｕ　７ｃｅｎｇ　２ｄａｎｙｕａｎ　７０５　ｃｈａｎｇｐｉｎｇｑｕ　Ｂｅｉｊｉｎｇｓｈｉ,,,,,,2023-12-15,1,,,,,ベイジンジンニューカイユエンカージヨウシェンゴンス,0
833,3700150121885,新規,0,2023-12-15,2023-11-07,京都市立中学校長会,,その他,京都府,京都市中京区,西ノ京中保町１－４,,26,104,6048461,,,,,,,2023-11-07,1,,,,,キヨウトシリツチユウガツコウチヨウカイ,0
834,3700150122751,新規,0,2023-12-15,2023-12-15,Ｓｈｅｎｚｈｅｎ　Ｊｉａｙｕ　Ｏｕｔｄｏｏｒ　Ｐｒｏｄｕｃｔｓ　Ｃｏ．Ｌｔｄ．,,外国会社等,,,,,,,,２０１，Ｎｏ．３４８－３５０，Ｂｏｔａｎｉｃａｌ　Ｇａｒｄｅｎ　Ｒｏａｄ，Ｐｉｎｇｎａｎ　Ｃｏｍｍｕｎｉｔｙ，ｓｈｅｎｚｈｅｎ　ｌｏｎｇｇａｎｇ　５１８１００　ＣＮ,,,,,,2023-12-15,1,,,,,シェンジェンジャーイーフーワイヨンピンヨウシエンゴンスー,0
837,4010001240846,新規,0,2023-12-15,2023-12-15,株式会社ａｉｍ　ｂｅａｕｔｙ,,株式会社,東京都,千代田区,九段北４丁目３番２０号,,13,101,1020073,,,,,,,2023-12-15,1,,,,,エイムビューティー,0
841,4010003042398,新規,0,2023-12-15,2023-12-15,合同会社メディカルケア,,合同会社,東京都,文京区,本郷１丁目４番４号,,13,105,1130033,,,,,,,2023-12-15,1,,,,,メディカルケア,0
845,4010005037628,新規,0,2023-12-15,2023-12-15,社会保険労務士法人建設労務パートナーズ,,その他の設立登記法人,東京都,千代田区,西神田２丁目５番７－４０５号室,,13,101,1010065,,,,,,,2023-12-15,1,,,,,ケンセツロウムパートナーズ,0
846,4010005037636,新規,0,2023-12-15,2023-12-15,一般社団法人湯屋安心協会,,その他の設立登記法人,東京都,千代田区,九段南１丁目５番６号りそな九段ビル５ＦＫＳフロア,,13,101,1020074,,,,,,,2023-12-15,1,,,,,ユヤアンシンキョウカイ,0
861,4010401179189,新規,0,2023-12-15,2023-12-15,株式会社ＵＬＢＯ,,株式会社,東京都,港区,西麻布１丁目２番１３号,,13,103,1060031,,,,,,,2023-12-15,1,,,,,アルボ,0
862,4010401179197,新規,0,2023-12-15,2023-12-15,緑光量子株式会社,,株式会社,東京都,港区,北青山３丁目２番２号７階,,13,103,1070061,,,,,,,2023-12-15,1,,,,,リョッコウリョウシ,0
863,4010401179206,新規,0,2023-12-15,2023-12-15,天健商事株式会社,,株式会社,東京都,港区,南青山２丁目４番１５号Ｓ－３０９号,,13,103,1070062,,,,,,,2023-12-15,1,,,,,テンケンショウジ,0
864,4010403031554,新規,0,2023-12-15,2023-12-15,グラウンドワーク・プラス合同会社,,合同会社,東京都,港区,芝３丁目２５番２号,,13,103,1050014,,,,,,,2023-12-15,1,,,,,グラウンドワークプラス,0
865,4010403031587,新規,0,2023-12-15,2023-12-15,ｕｌｔｒａ　ｃｈｅｍ　ｌａｂｓ　Ｊａｐａｎ合同会社,,合同会社,東京都,港区,高輪１丁目５番５０号高輪ビル８０２,,13,103,1080074,,,,,,,2023-12-15,1,,,,,ウルトラケムラブジャパン,0
866,4010403031604,新規,0,2023-12-15,2023-12-15,合同会社粋,,合同会社,東京都,港区,新橋２丁目１５番１６号ル・グランシエルビル２９２階,,13,103,1050004,,,,,,,2023-12-15,1,,,,,スイ,0
871,4010601064331,新規,0,2023-12-15,2023-12-15,株式会社セレンディピティ,,株式会社,東京都,江東区,豊洲５丁目１番１３号３８Ｆ,,13,108,1350061,,,,,,,2023-12-15,1,,,,,セレンディピティ,0
881,4010701045264,新規,0,2023-12-15,2023-12-15,株式会社Ａ１,,株式会社,東京都,品川区,大井６丁目４番４号,,13,109,1400014,,,,,,,2023-12-15,1,,,,,エーワン,0
883,4010801034613,新規,0,2023-12-15,2023-12-15,Ｍｏｏｎｇｌｏｗ　Ｊａｐａｎ株式会社,,株式会社,東京都,大田区,上池台５丁目３７－２,,13,111,1450064,,,,,,,2023-12-15,1,,,,,ムーングロウジャパン,0
889,4011001158806,新規,0,2023-12-15,2023-12-15,株式会社リトルリーグ,,株式会社,東京都,渋谷区,千駄ヶ谷２丁目１１番１号,,13,113,1510051,,,,,,,2023-12-15,1,,,,,リトルリーグ,0
901,4011301029260,新規,0,2023-12-15,2023-12-15,株式会社Ｏｃｅａｎ,,株式会社,東京都,杉並区,上井草４丁目１４番９号グランドール西山１０４,,13,115,1670023,,,,,,,2023-12-15,1,,,,,オーシャン,0
904,4011401025688,新規,0,2023-12-15,2023-12-15,株式会社電建技術,,株式会社,東京都,板橋区,中台１丁目４２番８号,,13,119,1740064,,,,,,,2023-12-15,1,,,,,デンケンギジュツ,0
905,4011405002270,新規,0,2023-12-15,2023-12-15,一般社団法人日本獣医インターベンショナルラジオロジー学会,,その他の設立登記法人,東京都,板橋区,小豆沢２丁目９番１９号,,13,119,1740051,,,,,,,2023-12-15,1,,,,,ニホンジュウイインターベンショナルラジオロジーガッカイ,0
910,4011801043488,新規,0,2023-12-15,2023-12-15,元亨株式会社,,株式会社,東京都,足立区,竹の塚２丁目２９－１３大徳ビル３０４室,,13,121,1210813,,,,,,,2023-12-15,1,,,,,ゲンキョウ,0
911,4011801043505,新規,0,2023-12-15,2023-12-15,東京縫製工業株式会社,,株式会社,東京都,足立区,保木間１丁目１１番７号,,13,121,1210064,,,,,,,2023-12-15,1,,,,,トウキョウホウセイコウギョウ,0
913,4012401041312,新規,0,2023-12-15,2023-12-15,株式会社Ｎｏｒｓｃｈ,,株式会社,東京都,三鷹市,下連雀３丁目４２番１３号２０７号室,,13,204,1810013,,,,,,,2023-12-15,1,,,,,ノルシェ,0
914,4012401041329,新規,0,2023-12-15,2023-12-15,株式会社メタコンシャス,,株式会社,東京都,三鷹市,上連雀３丁目１０番２１－３２３号,,13,204,1810012,,,,,,,2023-12-15,1,,,,,メタコンシャス,0
916,4012801022829,新規,0,2023-12-15,2023-12-15,株式会社タイラコーポレーション,,株式会社,東京都,昭島市,中神町１１６０番地１,,13,207,1960022,,,,,,,2023-12-15,1,,,,,タイラコーポレーション,0
917,4013101009310,新規,0,2023-12-15,2023-12-15,株式会社クローバームーン,,株式会社,東京都,青梅市,河辺町４丁目２１番地の２１アネックスパレス河辺５０２,,13,205,1980036,,,,,,,2023-12-15,1,,,,,クローバームーン,0
926,4020001154913,新規,0,2023-12-15,2023-12-15,株式会社Ｂｕｄｄｙ,,株式会社,神奈川県,横浜市中区,小港町１丁目１番地２ビューコート小港３号棟１００１号室,,14,104,2310802,,,,,,,2023-12-15,1,,,,,バディ,0
927,4020001154962,新規,0,2023-12-15,2023-12-15,株式会社ハッピー,,株式会社,神奈川県,横浜市青葉区,市ケ尾町１１７１－１９,,14,117,2250024,,,,,,,2023-12-15,1,,,,,ハッピー,0
930,4020003025146,新規,0,2023-12-15,2023-12-15,ＶＥＮＴＵＲＥ　ＳＨＩＦＴ合同会社,,合同会社,神奈川県,横浜市中区,本牧原４番１－４０１号,,14,104,2310821,,,,,,,2023-12-15,1,,,,,ベンチャーシフト,0
931,4020003025204,新規,0,2023-12-15,2023-12-15,ワイ・エスリアルエステート合同会社,,合同会社,神奈川県,横浜市磯子区,中原２丁目１４－１６,,14,107,2350036,,,,,,,2023-12-15,1,,,,,ワイエスリアルエステート,0
932,4020005016226,新規,0,2023-12-15,2023-12-15,医療法人社団リウマチ膠原病ＳＤＭ,,その他の設立登記法人,神奈川県,川崎市麻生区,万福寺１丁目８番７号パストラル新百合ヶ丘１階,,14,137,2150004,,,,,,,2023-12-15,1,,,,,リウマチコウゲンビョウエスディーエム,0
939,4021003013900,新規,0,2023-12-15,2023-12-15,アトリエ・ガジュ合同会社,,合同会社,神奈川県,三浦郡葉山町,一色１２５７番地の１６,,14,301,2400111,,,,,,,2023-12-15,1,,,,,アトリエガジュ,0
942,4030001157733,新規,0,2023-12-15,2023-12-15,株式会社ひとみず,,株式会社,埼玉県,川口市,南鳩ヶ谷８丁目２番１７号,,11,203,3340013,,,,,,,2023-12-15,1,,,,,ヒトミズ,0
956,4040003023924,新規,0,2023-12-15,2023-12-15,合同会社ｓｏｌａｒｉｓ,,合同会社,千葉県,印西市,牧の原４丁目１９番地２４６,,12,231,2701331,,,,,,,2023-12-15,1,,,,,ソラリス,0
962,4050001053947,新規,0,2023-12-15,2023-12-15,株式会社カナ,,株式会社,茨城県,つくば市,谷田部２０５１番地１,,08,220,3050861,,,,,,,2023-12-15,1,,,,,カナ,0
963,4050001053971,新規,0,2023-12-15,2023-12-15,株式会社ＡＬＩＺＥＢ　ＴＲＡＤＩＮＧ,,株式会社,茨城県,坂東市,沓掛２１０１番地２,,08,228,3060515,,,,,,,2023-12-15,1,,,,,アリゼブトレーディング,0
967,4070001041198,新規,0,2023-12-15,2023-12-15,ＡＣＩＥＳ株式会社,,株式会社,群馬県,前橋市,高井町１丁目２６番地６－３Ｆ,,10,201,3710857,,,,,,,2023-12-15,1,,,,,アーチェス,0
969,4070003005192,新規,0,2023-12-15,2023-12-15,ｎａｔｕｒｅ　ｏｒｉｅｎｔｅｄ合同会社,,合同会社,群馬県,桐生市,広沢町３丁目４２００番地の６,,10,203,3760013,,,,,,,2023-12-15,1,,,,,,0
971,4080001026033,新規,0,2023-12-15,2023-12-15,株式会社Ｌｉｂｅｌｕｌａ,,株式会社,静岡県,静岡市駿河区,広野６丁目１５番７号,,22,102,4210121,,,,,,,2023-12-15,1,,,,,リベルラ,0
975,4080401026896,新規,0,2023-12-15,2023-12-15,株式会社伊藤,,株式会社,静岡県,磐田市,上新屋７４８番地,,22,211,4380831,,,,,,,2023-12-15,1,,,,,イトウ,0
992,4120001260577,新規,0,2023-12-15,2023-12-15,株式会社樹龍,,株式会社,大阪府,大阪市住之江区,新北島１丁目２番１８－１３０１号,,27,125,5590024,,,,,,,2023-12-15,1,,,,,キリュウ,0
993,4120001260593,新規,0,2023-12-15,2023-12-15,シンフォニア株式会社,,株式会社,大阪府,大阪市北区,梅田１丁目２番２号大阪駅前第２ビル１２－１２,,27,127,5300001,,,,,,,2023-12-15,1,,,,,シンフォニア,0
994,4120001260651,新規,0,2023-12-15,2023-12-15,株式会社Ａｗａｋｅ,,株式会社,大阪府,大阪市城東区,中央３丁目２番５－６０３号,,27,118,5360005,,,,,,,2023-12-15,1,,,,,アウェイク,0
995,4120001260692,新規,0,2023-12-15,2023-12-15,義経ＩＴクラブ株式会社,,株式会社,大阪府,大阪市生野区,勝山北１丁目１８番２１号,,27,116,5440033,,,,,,,2023-12-15,1,,,,,ヨシツネアイティークラブ,0
996,4120001260734,新規,0,2023-12-15,2023-12-15,株式会社フロム東大阪,,株式会社,大阪府,大阪市西区,京町堀１丁目１０番８号６階,,27,106,5500003,,,,,,,2023-12-15,1,,,,,フロムヒガシオオサカ,0
998,4120005024045,新規,0,2023-12-15,2023-12-15,一般社団法人海外移住協会,,その他の設立登記法人,大阪府,大阪市中央区,南本町４丁目５－７東亜ビル１２０５Ａ号室,,27,128,5410054,,,,,,,2023-12-15,1,,,,,カイガイイジュウキョウカイ,0
1000,4120101068706,新規,0,2023-12-15,2023-12-15,株式会社安明建装工業,,株式会社,大阪府,羽曳野市,南恵我之荘４丁目５番１８号,,27,222,5830885,,,,,,,2023-12-15,1,,,,,ヤスアキケンソウコウギョウ,0
1001,4120103005582,新規,0,2023-12-15,2023-12-15,合同会社ジャミン,,合同会社,大阪府,堺市堺区,北庄町１丁６番２７号,,27,141,5900007,,,,,,,2023-12-15,1,,,,,ジャミン,0
1005,4122001037666,新規,0,2023-12-15,2023-12-15,ＥＩＳ株式会社,,株式会社,大阪府,東大阪市,下小阪４丁目９番８号アヴニールＫＩＴ１０２号,,27,227,5770803,,,,,,,2023-12-15,1,,,,,イーアイエス,0
1019,4140005026840,新規,0,2023-12-15,2023-12-15,医療法人社団ＫＤＣ,,その他の設立登記法人,兵庫県,三田市,貴志１４０－１,,28,219,6691541,,,,,,,2023-12-15,1,,,,,ケーディーシ,0
1026,4180003026087,新規,0,2023-12-15,2023-12-15,ＭＲＴコンサルティングジャパン合同会社,,合同会社,愛知県,名古屋市中川区,横堀町３丁目１０番地の２,,23,110,4540021,,,,,,,2023-12-15,1,,,,,エムアールティーコンサルティングジャパン,0
1033,4200001041985,新規,0,2023-12-15,2023-12-15,株式会社幾何,,株式会社,岐阜県,羽島郡岐南町,三宅５丁目１８０番地,,21,302,5016002,,,,,,,2023-12-15,1,,,,,イクバク,0
1036,4240003006454,新規,0,2023-12-15,2023-12-15,合同会社ＮＯＵｚＵＯＮ,,合同会社,広島県,福山市,春日町７丁目５－３５,,34,207,7210907,,,,,,,2023-12-15,1,,,,,ノウズオン,0
1038,4250001020431,新規,0,2023-12-15,2023-12-15,株式会社将惺,,株式会社,山口県,宇部市,大字中宇部１８５７番地６,,35,202,7550086,,,,,,,2023-12-15,1,,,,,ショウセイ,0
1039,4250003003401,新規,0,2023-12-15,2023-12-15,デッカーズジャパン合同会社,,合同会社,山口県,防府市,大字台道１３５４番地の８２県住Ｃ棟２０２号,,35,206,7471232,,,,,,,2023-12-15,1,,,,,デッカーズジャパン,0
1054,4290003014741,新規,0,2023-12-15,2023-12-15,郎建合同会社,,合同会社,福岡県,春日市,白水池３丁目１６３番地,,40,218,8160848,,,,,,,2023-12-15,1,,,,,,0
1059,4330001031569,新規,0,2023-12-15,2023-12-15,株式会社ＳＮＣ,,株式会社,熊本県,熊本市東区,戸島７丁目１４番３９号,,43,102,8618041,,,,,,,2023-12-15,1,,,,,エスエヌシー,0
1063,4360001032928,新規,0,2023-12-15,2023-12-15,株式会社三木,,株式会社,沖縄県,宜野湾市,宇地泊３丁目１１番１０号,,47,205,9012227,,,,,,,2023-12-15,1,,,,,ミツキ,0
1064,4360001032960,新規,0,2023-12-15,2023-12-15,株式会社ルーミー商事,,株式会社,沖縄県,中頭郡北谷町,字宮城３番地２２０シャトーラメールＰ－ＩＩ５０１,00133009,47,326,9040113,,,,,,,2023-12-15,1,,,,,ルーミーショウジ,0
1065,4360003013538,新規,0,2023-12-15,2023-12-15,合同会社うくり屋,,合同会社,沖縄県,浦添市,伊祖４丁目２番２０－２０１,,47,208,9012132,,,,,,,2023-12-15,1,,,,,ウクリヤ,0
1066,4360003013554,新規,0,2023-12-15,2023-12-15,伊良部トラック組合合同会社,,合同会社,沖縄県,宮古島市,伊良部字長浜８５番地１,,47,214,9060506,,,,,,,2023-12-15,1,,,,,イラブトラッククミアイ,0
1071,4390001017447,新規,0,2023-12-15,2023-12-15,株式会社Ｅｌｅｃｔｒｉｃａｌ　Ｗｏｒｋ,,株式会社,山形県,酒田市,東大町２丁目２４番地の２,,06,204,9980851,,,,,,,2023-12-15,1,,,,,エレクトリカルワーク,0
1078,4430001090646,新規,0,2023-12-15,2023-12-15,株式会社新苫産業,,株式会社,北海道,苫小牧市,新開町１丁目１７番５号,,01,213,0530052,,,,,,,2023-12-15,1,,,,,シンセンサンギョウ,0
1079,4430001090662,新規,0,2023-12-15,2023-12-15,株式会社Ｊ．Ｕホールディングス,,株式会社,北海道,札幌市南区,南三十九条西１０丁目１番３号,,01,106,0050039,,,,,,,2023-12-15,1,,,,,ジェイユーホールディングス,0
1084,4470005006537,新規,0,2023-12-15,2023-12-15,特定非営利活動法人ＲＥ．ＫＮＯＴ,,その他の設立登記法人,香川県,高松市,東植田町２０１４番地２,,37,201,7610446,,,,,,,2023-12-15,1,,,,,リノット,0
1086,4480001012323,新規,0,2023-12-15,2023-12-15,株式会社志楽カンパニー,,株式会社,徳島県,徳島市,昭和町６丁目９－７,,36,201,7700942,,,,,,,2023-12-15,1,,,,,シラクカンパニー,0
1087,4490001010656,新規,0,2023-12-15,2023-12-15,海礼株式会社,,株式会社,高知県,幡多郡黒潮町,入野３８７１番地バレーノＩ棟３０２号,00133005,39,428,7891931,,,,,,,2023-12-15,1,,,,,ミライ,0
1090,4700150120688,新規,0,2023-12-15,2023-12-15,Ｊｉｕｊｉａｎｇｊｉｔａｎｇｈｅｍａｏｙｉｙｏｕｘｉａｎｇｏｎｇｓｉ,,外国会社等,,,,,,,,Ｘｉｙａｎｇｌｏｎｇａｎｚｈｉｘｉａｏｑｕ８ｄｏｎｇ６ｈａｏｍｅｎｍｉａｎ　Ｊｉｕｊｉａｎｇ　Ｊｉａｎｇｘｉ　Ｘｉｌｉａｎ　３３２００５,,,,,,2023-12-15,1,,,,,ジュージャンジータンホーマオイーヨウシエンゴンス,0
1091,4700150120993,新規,0,2023-12-15,2023-12-15,ｓｈｅｎｚｈｅｎ　ｄａｚｈａｎｈｏｎｇｙｕ　ｍａｏｙｉ　ｙｏｕｘｉａｎｇｏｎｇｓｉ,,外国会社等,,,,,,,,ｐｉｎｇｈｕｊｉｅｄａｏｋｅｙｕａｎｘｉｌｕ１００ｈａｏ２ｄｏｎｇ５ｌｏｕ５０９ｓｈｉ　ｓｈｅｎｚｈｅｎｓｈｉ　ｇｕａｎｇｄｏｎｇｓｈｅｎｇ,,,,,,2023-12-15,1,,,,,シェンジェンダージャンホンユィマオイーヨウシエンゴンス,0
1092,4700150122750,新規,0,2023-12-15,2023-12-15,ＡＶＡＮＴＲＯＮＩＣＳ　ＬＩＭＩＴＥＤ,,外国会社等,,,,,,,,ＦＬＡＴ／ＲＭ　０８Ａ　ＢＬＫ　Ｅ　１５／Ｆ　ＷＡＨ　ＬＯＫ　ＩＮＤＵＳＴＲＩＡＬ　ＣＥＮＴＲＥ　ＮＯＳ　３１－３５　ＳＨＡＮ　ＭＥＩ　ＳＴＲＥＥＴ　ＳＨＡＴＩＮ　ＮＴ,,,,,,2023-12-15,1,,,,,アウアントニスリミティッド,0
1101,5010001240820,新規,0,2023-12-15,2023-12-15,ロンディー株式会社,,株式会社,東京都,中央区,銀座１丁目２２番１１号銀座大竹ビジデンス２Ｆ,,13,102,1040061,,,,,,,2023-12-15,1,,,,,ロンディー,0
1102,5010001240853,新規,0,2023-12-15,2023-12-15,株式会社１２,,株式会社,東京都,千代田区,永田町２丁目１２－８永田町ＳＲビル８階,,13,101,1000014,,,,,,,2023-12-15,1,,,,,トゥエルブ,0
1107,5010003042397,新規,0,2023-12-15,2023-12-15,合同会社ウェルケア,,合同会社,東京都,文京区,本郷１丁目４番４号,,13,105,1130033,,,,,,,2023-12-15,1,,,,,ウェルケア,0
1108,5010003042439,新規,0,2023-12-15,2023-12-15,合同会社晴海コンサルティング,,合同会社,東京都,中央区,築地２丁目１５番１９号ミレニアム築地６Ｆ,,13,102,1040045,,,,,,,2023-12-15,1,,,,,ハルミコンサルティング,0
1109,5010005037619,新規,0,2023-12-15,2023-12-15,一般社団法人スロスポ健全推進機構,,その他の設立登記法人,東京都,千代田区,二番町１－２番町ハイム４０４,,13,101,1020084,,,,,,,2023-12-15,1,,,,,スロスポケンゼンスイシンキコウ,0
1118,5010401179196,新規,0,2023-12-15,2023-12-15,株式会社トランスポジション,,株式会社,東京都,港区,北青山１丁目３番１号アールキューブ青山３階,,13,103,1070061,,,,,,,2023-12-15,1,,,,,トランスポジション,0
1120,5010403031603,新規,0,2023-12-15,2023-12-15,合同会社Ｌｕｃｋｙ,,合同会社,東京都,港区,新橋２丁目１５番１６号ル・グランシエルビル２９６階,,13,103,1050004,,,,,,,2023-12-15,1,,,,,ラッキー,0
1123,5010501051511,新規,0,2023-12-15,2023-12-15,クラウドプロ株式会社,,株式会社,東京都,台東区,柳橋１丁目４番３号ツイントラスＩＩビル７階,00133024,13,106,1110052,,,,,,,2023-12-15,1,,,,,クラウドプロ,0
1127,5010601064347,新規,0,2023-12-15,2023-12-15,リバイブ・システム株式会社,,株式会社,東京都,江東区,扇橋１丁目２‐９‐７０１,,13,108,1350011,,,,,,,2023-12-15,1,,,,,リバイブシステム,0
1128,5010603010530,新規,0,2023-12-15,2023-12-15,Ｈａｗｋ合同会社,,合同会社,東京都,江東区,白河１丁目７番１７号栄和ハイム４０２号,,13,108,1350021,,,,,,,2023-12-15,1,,,,,ホーク,0
1134,5010801034612,新規,0,2023-12-15,2023-12-15,ＺＯＮＯ　ＢＡＳＥ株式会社,,株式会社,東京都,大田区,山王２丁目３０番１１号,,13,111,1430023,,,,,,,2023-12-15,1,,,,,ゾノベース,0
1136,5010803004786,新規,0,2023-12-15,2023-12-15,アールジーシー合同会社,,合同会社,東京都,大田区,中央１丁目１６番８－５０１号,,13,111,1430024,,,,,,,2023-12-15,1,,,,,アールジーシー,0
1140,5010903008662,新規,0,2023-12-15,2023-12-15,合同会社ＪＣＲ,,合同会社,東京都,世田谷区,玉川３丁目１１－１－３１２,,13,112,1580094,,,,,,,2023-12-15,1,,,,,ジェーシーアール,0
1147,5011001158805,新規,0,2023-12-15,2023-12-15,アイビーカンパニー株式会社,,株式会社,東京都,渋谷区,千駄ヶ谷２丁目１１番１号,,13,113,1510051,,,,,,,2023-12-15,1,,,,,アイビーカンパニー,0
1148,5011001158813,新規,0,2023-12-15,2023-12-15,株式会社モッフン,,株式会社,東京都,渋谷区,道玄坂１丁目１０番８号,,13,113,1500043,,,,,,,2023-12-15,1,,,,,モッフン,0
1149,5011001158846,新規,0,2023-12-15,2023-12-15,ＮＩＥＬ株式会社,,株式会社,東京都,渋谷区,宇田川町３６－６ワールド宇田川ビル２Ｆ,,13,113,1500042,,,,,,,2023-12-15,1,,,,,ニエル,0
1150,5011001158887,新規,0,2023-12-15,2023-12-15,株式会社ｓｈｏｒｔ　ｐｌｕｓ,,株式会社,東京都,目黒区,青葉台３丁目１３番１１号Ｂ１階,,13,110,1530042,,,,,,,2023-12-15,1,,,,,ショートプラス,0
1152,5011003018081,新規,0,2023-12-15,2023-12-15,合同会社Ｒｉｋｓ,,合同会社,東京都,渋谷区,神宮前６丁目２３番４号桑野ビル２階,,13,113,1500001,,,,,,,2023-12-15,1,,,,,リックス,0
1157,5011101105491,新規,0,2023-12-15,2023-12-15,株式会社ウオトリエ,,株式会社,東京都,新宿区,百人町１丁目２２番１７号,,13,104,1690073,,,,,,,2023-12-15,1,,,,,ウオトリエ,0
1158,5011103013858,新規,0,2023-12-15,2023-12-15,パワーグリッド合同会社,,合同会社,東京都,新宿区,西新宿３丁目７番１号新宿パークタワーＮ棟３０階,,13,104,1600023,,,,,,,2023-12-15,1,,,,,パワーグリッド,0
1161,5011303005003,新規,0,2023-12-15,2023-12-15,合同会社Ｓ．Ｙ．グループ,,合同会社,東京都,杉並区,荻窪３丁目２９番４号,,13,115,1670051,,,,,,,2023-12-15,1,,,,,エスワイグループ,0
1163,5011703003688,新規,0,2023-12-15,2023-12-15,合同会社ゼロワン,,合同会社,東京都,江戸川区,中葛西５丁目４１－１０ＢＰＲプレイス葛西７Ｆ２１,,13,123,1340083,,,,,,,2023-12-15,1,,,,,ゼロワン,0
1164,5011801043504,新規,0,2023-12-15,2023-12-15,株式会社ｔｏｃｏｔｏｗａ,,株式会社,東京都,足立区,千住寿町２０－２,,13,121,1200033,,,,,,,2023-12-15,1,,,,,トコトワ,0
1165,5011805003322,新規,0,2023-12-15,2023-12-15,特定非営利活動法人育縁,,その他の設立登記法人,東京都,葛飾区,亀有５丁目２７番１２－１００１号イニシア亀有,,13,122,1250061,,,,,,,2023-12-15,1,,,,,イクエン,0
1167,5012403006329,新規,0,2023-12-15,2023-12-15,東京ＫＩＣＨＩコンサルタンツ合同会社,,合同会社,東京都,武蔵野市,吉祥寺本町１丁目１３番２号５階Ｃ４２,,13,203,1800004,,,,,,,2023-12-15,1,,,,,トウキョウキチコンサルタンツ,0
1181,5020001154912,新規,0,2023-12-15,2023-12-15,株式会社レッドショート,,株式会社,神奈川県,横浜市神奈川区,松本町２丁目１９番地１４,,14,102,2210841,,,,,,,2023-12-15,1,,,,,レッドショート,0
1183,5020003025194,新規,0,2023-12-15,2023-12-15,合同会社みらいプランナー,,合同会社,神奈川県,横浜市金沢区,朝比奈町４６９番地２,,14,108,2360034,,,,,,,2023-12-15,1,,,,,ミライプランナー,0
1184,5020003025203,新規,0,2023-12-15,2023-12-15,合同会社にしたから,,合同会社,神奈川県,川崎市多摩区,登戸７９５番地三平コーポ２０１,,14,135,2140014,,,,,,,2023-12-15,1,,,,,ニシタカラ,0
1185,5020005016225,新規,0,2023-12-15,2023-12-15,医療法人社団悠愛会,,その他の設立登記法人,神奈川県,川崎市多摩区,中野島６丁目２６番２号Ｆ＆Ｆハイム１階,,14,135,2140012,,,,,,,2023-12-15,1,,,,,ユウアイカイ,0
1186,5021001080990,新規,0,2023-12-15,2023-12-15,株式会社ＫａＳｈｉＳｈｏ,,株式会社,神奈川県,小田原市,上曽我７３１番地,,14,206,2500202,,,,,,,2023-12-15,1,,,,,カシショウ,0
1191,5021003013908,新規,0,2023-12-15,2023-12-15,合同会社ＲＢ,,合同会社,神奈川県,相模原市南区,上鶴間２丁目９番７－５０号,,14,153,2520302,,,,,,,2023-12-15,1,,,,,アールビー,0
1199,5030001157708,新規,0,2023-12-15,2023-12-15,株式会社ＭＹ　ＳＴＡＮＤＡＲＤ,,株式会社,埼玉県,さいたま市中央区,上落合９丁目１１番８－３０３号,,11,105,3380001,,,,,,,2023-12-15,1,,,,,マイスタンダード,0
1200,5030001157724,新規,0,2023-12-15,2023-12-15,株式会社ＭＡＴＥＹ,,株式会社,埼玉県,さいたま市南区,南浦和２丁目４２番６号日東ビル３Ａ,,11,108,3360017,,,,,,,2023-12-15,1,,,,,メイティ,0
1201,5030001157732,新規,0,2023-12-15,2023-12-15,株式会社ＰＡＲＡＤＡＩＳＥ,,株式会社,埼玉県,和光市,南１丁目１３番５３号,,11,229,3510104,,,,,,,2023-12-15,1,,,,,パラダイス,0
1202,5030001157749,新規,0,2023-12-15,2023-12-15,モーダル株式会社,,株式会社,埼玉県,東松山市,大字上野本１９８０番地４,,11,212,3550073,,,,,,,2023-12-15,1,,,,,モーダル,0
1217,5050001053954,新規,0,2023-12-15,2023-12-15,株式会社ベル・フォレ,,株式会社,茨城県,かすみがうら市,下稲吉２７７９番地１,,08,230,3150052,,,,,,,2023-12-15,1,,,,,ベルフォレ,0
1218,5050003008007,新規,0,2023-12-15,2023-12-15,三国志ＪＡＰＡＮ合同会社,,合同会社,茨城県,下妻市,黒駒１０５３－４,,08,210,3040007,,,,,,,2023-12-15,1,,,,,サンゴクシジャパン,0
1225,5070003005200,新規,0,2023-12-15,2023-12-15,合同会社Ｋａｒａ’ｓ,,合同会社,群馬県,佐波郡玉村町,大字福島１３４９－１メゾンエスポワールＩＩ２０３,00133007,10,464,3701105,,,,,,,2023-12-15,1,,,,,カラス,0
1227,5080401026895,新規,0,2023-12-15,2023-12-15,浜松ブルーウェーブ株式会社,,株式会社,静岡県,浜松市西区,篠原町２３９８２番地１,,22,133,4310201,,,,,,,2023-12-15,1,,,,,ハママツブルーウェーブ,0
1231,5090003002443,新規,0,2023-12-15,2023-12-15,ｉｄｅｙａ合同会社,,合同会社,山梨県,南アルプス市,飯野２５６５－６,,19,208,4000222,,,,,,,2023-12-15,1,,,,,イデヤ,0
1241,5100001037051,新規,0,2023-12-15,2023-12-15,信州マーケティングパートナー株式会社,,株式会社,長野県,北佐久郡立科町,大字芦田２６１２番地１,,20,324,3842305,,,,,,,2023-12-15,1,,,,,シンシュウマーケティングパートナー,0
1243,5100003007309,新規,0,2023-12-15,2023-12-15,ＳＥＩＮＡＮ　Ａｕｔｏ　Ｌａｂｏ合同会社,,合同会社,長野県,松本市,大字笹賀７０７７番地６,,20,202,3990033,,,,,,,2023-12-15,1,,,,,セイナンオートラボ,0
1245,5110001038040,新規,0,2023-12-15,2023-12-15,アシストイン・ヘルスケア株式会社,,株式会社,新潟県,新潟市中央区,新光町１９番８パブリシティフレックスビル２０２Ａ号室,,15,103,9500965,,,,,,,2023-12-15,1,,,,,アシストインヘルスケア,0
1253,5120001260510,新規,0,2023-12-15,2023-12-15,穿越株式会社,,株式会社,大阪府,大阪市浪速区,下寺３丁目１９－３－３０１,,27,111,5560001,,,,,,,2023-12-15,1,,,,,センエツ,0
1254,5120001260626,新規,0,2023-12-15,2023-12-15,府右株式会社,,株式会社,大阪府,大阪市大正区,三軒家西３丁目４番１６号中山ビル１０５０,,27,108,5510001,,,,,,,2023-12-15,1,,,,,フウ,0
1255,5120001260634,新規,0,2023-12-15,2023-12-15,信益商事株式会社,,株式会社,大阪府,大阪市西成区,萩之茶屋３丁目３－１１－３０２,,27,122,5570004,,,,,,,2023-12-15,1,,,,,シンエキショウジ,0
1256,5120001260650,新規,0,2023-12-15,2023-12-15,株式会社ｒｅａｃｈ,,株式会社,大阪府,寝屋川市,東香里園町１３番１０号,,27,215,5720081,,,,,,,2023-12-15,1,,,,,リーチ,0
1257,5120001260659,新規,0,2023-12-15,2023-12-15,株式会社ａｓｏｎｏｖａ,,株式会社,大阪府,大阪市西区,本田３丁目５番１０号１０２,,27,106,5500022,,,,,,,2023-12-15,1,,,,,アソノバ,0
1258,5120001260675,新規,0,2023-12-15,2023-12-15,株式会社ダムフォールズ,,株式会社,大阪府,交野市,森北１丁目６－１エトワール岩船２０４号,,27,230,5760036,,,,,,,2023-12-15,1,,,,,ダムフォールズ,0
1259,5120001260683,新規,0,2023-12-15,2023-12-15,株式会社Ｅ．Ｙ．Ｒ,,株式会社,大阪府,大阪市西淀川区,佃３丁目１８番１６－１０３号,,27,113,5550001,,,,,,,2023-12-15,1,,,,,イーワイアール,0
1261,5120003025457,新規,0,2023-12-15,2023-12-15,ドロニー合同会社,,合同会社,大阪府,大阪市阿倍野区,阪南町１丁目２４‐２９‐２０２,,27,119,5450021,,,,,,,2023-12-15,1,,,,,ドロニー,0
1262,5120003025498,新規,0,2023-12-15,2023-12-15,合同会社ユニヴェルセ,,合同会社,大阪府,大阪市北区,梅田１丁目１－３大阪駅前第３ビル２９階１－１－１号室,,27,127,5300001,,,,,,,2023-12-15,1,,,,,ユニヴェルセ,0
1263,5120003025515,新規,0,2023-12-15,2023-12-15,合同会社ストラ,,合同会社,大阪府,大阪市西区,北堀江１丁目２番１０号菊屋ビル５階,,27,106,5500014,,,,,,,2023-12-15,1,,,,,ストラ,0
1264,5120005024052,新規,0,2023-12-15,2023-12-15,一般社団法人雅,,その他の設立登記法人,大阪府,大阪市西区,南堀江１丁目２１－４ＪＳビル９階,,27,106,5500015,,,,,,,2023-12-15,1,,,,,ミヤビ,0
1270,5130005016949,新規,0,2023-12-15,2023-12-15,一般財団法人蟷螂山保存会,,その他の設立登記法人,京都府,京都市中京区,西洞院通錦小路下る蟷螂山町４６４番地１,,26,104,6048225,,,,,,,2023-12-15,1,,,,,トウロウヤマホゾンカイ,0
1276,5140001132658,新規,0,2023-12-15,2023-12-15,岸本建築工房株式会社,,株式会社,兵庫県,伊丹市,西野１丁目２９９番地２５,,28,207,6640028,,,,,,,2023-12-15,1,,,,,キシモトケンチクコウボウ,0
1277,5140001132666,新規,0,2023-12-15,2023-12-15,株式会社Ｎａｒｒａｋ,,株式会社,兵庫県,西宮市,西宮浜４丁目１１番４－１４０１号,,28,204,6620934,,,,,,,2023-12-15,1,,,,,ナーラック,0
1278,5140003019936,新規,0,2023-12-15,2023-12-15,合同会社衣蔵,,合同会社,兵庫県,姫路市,田寺東４丁目２６番３号,,28,201,6700081,,,,,,,2023-12-15,1,,,,,イゾウ,0
1280,5150003003146,新規,0,2023-12-15,2023-12-15,合同会社バルクネス,,合同会社,奈良県,生駒市,東旭ケ丘３番２１号,,29,209,6300254,,,,,,,2023-12-15,1,,,,,バルクネス,0
1282,5160003003062,新規,0,2023-12-15,2023-12-15,合同会社ＹＯＭＯＤＡ,,合同会社,滋賀県,大津市,本堅田３丁目１１－２２テナントコート４号,,25,201,5200242,,,,,,,2023-12-15,1,,,,,ヨモダ,0
1291,5180001159292,新規,0,2023-12-15,2023-12-15,株式会社インテック,,株式会社,愛知県,名古屋市天白区,久方１丁目１４９番地,,23,116,4680034,,,,,,,2023-12-15,1,,,,,インテック,0
1292,5180001159375,新規,0,2023-12-15,2023-12-15,カシワギホールディングス株式会社,,株式会社,愛知県,名古屋市東区,東桜２丁目３番２２号,,23,102,4610005,,,,,,,2023-12-15,1,,,,,カシワギホールディングス,0
1297,5180301038139,新規,0,2023-12-15,2023-12-15,株式会社サンクリアン,,株式会社,愛知県,安城市,上条町東組１２番地１,,23,212,4460023,,,,,,,2023-12-15,1,,,,,サンクリアン,0
1299,5180303005946,新規,0,2023-12-15,2023-12-15,合同会社ＲＡＨＡ‐ＭＡＲＫ,,合同会社,愛知県,豊橋市,東小浜町６番地５,,23,201,4418062,,,,,,,2023-12-15,1,,,,,ラハマーク,0
1302,5200001041992,新規,0,2023-12-15,2023-12-15,ミライテラス株式会社,,株式会社,岐阜県,大垣市,古宮町１３４１番地１,,21,202,5030848,,,,,,,2023-12-15,1,,,,,ミライテラス,0
1303,5200003006184,新規,0,2023-12-15,2023-12-15,合同会社後藤建具店,,合同会社,岐阜県,可児郡御嵩町,上恵土１２５６番地,,21,521,5050126,,,,,,,2023-12-15,1,,,,,ゴトウタテグテン,0
1304,5200005013550,新規,0,2023-12-15,2023-12-15,特定非営利活動法人萬相談所,,その他の設立登記法人,岐阜県,大垣市,本今６丁目３３番地,,21,202,5030931,,,,,,,2023-12-15,1,,,,,ヨロズソウダンジョ,0
1307,5230001020143,新規,0,2023-12-15,2023-12-15,株式会社ＯＳＲ,,株式会社,富山県,富山市,内幸町７番６号桝山ビル２階,,16,201,9300093,,,,,,,2023-12-15,1,,,,,オーエスアール,0
1318,5290001104089,新規,0,2023-12-15,2023-12-15,株式会社ＬＩＴ,,株式会社,福岡県,太宰府市,吉松２丁目１４番１－３０５号,,40,221,8180138,,,,,,,2023-12-15,1,,,,,リット,0
1327,5290003014740,新規,0,2023-12-15,2023-12-15,合同会社ＮＥＳＴＥＡ,,合同会社,福岡県,糟屋郡新宮町,下府７丁目１０－７ビバーチェ１０１,,40,345,8110112,,,,,,,2023-12-15,1,,,,,,0
1328,5290003014749,新規,0,2023-12-15,2023-12-15,合同会社緒方,,合同会社,福岡県,糟屋郡新宮町,花立花２丁目５番１号,,40,345,8110103,,,,,,,2023-12-15,1,,,,,オガタ,0
1330,5290803004560,新規,0,2023-12-15,2023-12-15,合同会社ＹＳＷ,,合同会社,福岡県,豊前市,大字八屋３２２番地７７の１,,40,214,8280021,,,,,,,2023-12-15,1,,,,,ワイエスダブル,0
1338,5360001032919,新規,0,2023-12-15,2023-12-15,株式会社ＯＮＩＩＭＡＮ,,株式会社,沖縄県,中頭郡読谷村,字長浜１４３６番地,,47,324,9040324,,,,,,,2023-12-15,1,,,,,オニイマン,0
1339,5360001032927,新規,0,2023-12-15,2023-12-15,株式会社天華,,株式会社,沖縄県,那覇市,おもろまち１丁目１番２５－２７０１号,,47,201,9000006,,,,,,,2023-12-15,1,,,,,テンカ,0
1340,5360001032943,新規,0,2023-12-15,2023-12-15,株式会社ＭＡＨＩＮＡＬＵ,,株式会社,沖縄県,那覇市,久茂地２丁目２番２号タイムスビル２Ｆ,,47,201,9000015,,,,,,,2023-12-15,1,,,,,マヒナル,0
1346,5370001050721,新規,0,2023-12-15,2023-12-15,株式会社石沢ファーム,,株式会社,宮城県,登米市,石越町南郷字愛宕５６番地１,,04,212,9894703,,,,,,,2023-12-15,1,,,,,イシザワファーム,0
1347,5370001050738,新規,0,2023-12-15,2023-12-15,マルメグラスノ株式会社,,株式会社,宮城県,加美郡加美町,字上野目西野々１７番地２,,04,445,9814374,,,,,,,2023-12-15,1,,,,,マルメグラスノ,0
1348,5370003006416,新規,0,2023-12-15,2023-12-15,合同会社ＬＣＵ,,合同会社,宮城県,仙台市青葉区,本町１丁目５番２８号カーニープレイス仙台駅前通６０３号室,,04,101,9800014,,,,,,,2023-12-15,1,,,,,エルシーユー,0
1355,5430001090637,新規,0,2023-12-15,2023-12-15,株式会社ルクマ,,株式会社,北海道,札幌市白石区,東米里２０３４番地,,01,104,0030876,,,,,,,2023-12-15,1,,,,,ルクマ,0
1356,5430001090645,新規,0,2023-12-15,2023-12-15,ｉ‐ｒｅ．ｃｒｅａｔｅ株式会社,,株式会社,北海道,札幌市中央区,南十二条西８丁目１－３パークレジデンス１０２号室,,01,101,0640912,,,,,,,2023-12-15,1,,,,,アイリクリエイト,0
1357,5430001090661,新規,0,2023-12-15,2023-12-15,キャミールネオ株式会社,,株式会社,北海道,札幌市中央区,南六条西１８丁目１番７号ファクター愛ＩＩ１０３号,00133023,01,101,0640806,,,,,,,2023-12-15,1,,,,,キャミールネオ,0
1358,5430003015765,新規,0,2023-12-15,2023-12-15,合同会社ＷａｎｎａＢｅ,,合同会社,北海道,苫小牧市,双葉町２丁目９番１９‐１０４号,,01,213,0530045,,,,,,,2023-12-15,1,,,,,ワナビー,0
1359,5430005014848,新規,0,2023-12-15,2023-12-15,一般社団法人Ｓｉｎｇｉｎｇ　Ｇｌａｓｓ青木美歌,,その他の設立登記法人,北海道,札幌市中央区,南四条西５丁目１０番地第四藤井ビル１Ｆ,,01,101,0640804,,,,,,,2023-12-15,1,,,,,シンギンググラスアオキミカ,0
1362,5490001010655,新規,0,2023-12-15,2023-12-15,株式会社ＪＡＭ,,株式会社,高知県,南国市,大＿甲１２１５番地１１－１Ｆ,00133006,39,204,7830004,,,,,,,2023-12-15,1,,,,,ジャム,0
1363,5490003001842,新規,0,2023-12-15,2023-12-15,合同会社藤原商店,,合同会社,高知県,幡多郡黒潮町,上川口１１３４番地４３,,39,428,7891901,,,,,,,2023-12-15,1,,,,,フジワラノショウテン,0
1364,5490005006914,新規,0,2023-12-15,2023-12-15,一般社団法人須崎海のまち公社,00133025,その他の設立登記法人,高知県,須崎市,東古市町１番３０－１号,,39,206,7850005,,,,,,,2023-12-15,1,,,,,スサキウミノマチコウシャ,0
1379,6010001240828,新規,0,2023-12-15,2023-12-15,永佳投資株式会社,,株式会社,東京都,文京区,湯島３丁目１２番７号ＹＵＳＨＩＭＡ・ＬＡＢＥＬ４０３,,13,105,1130034,,,,,,,2023-12-15,1,,,,,エイカトウシ,0
1380,6010001240860,新規,0,2023-12-15,2023-12-15,株式会社Ｆａｓｔ　ｂａｌｌ,,株式会社,東京都,中央区,東日本橋３丁目３番１７号Ｒｅ－Ｋｎｏｗ東日本橋３Ｄ,,13,102,1030004,,,,,,,2023-12-15,1,,,,,ファストボール,0
1381,6010003042438,新規,0,2023-12-15,2023-12-15,合同会社中原水産,,合同会社,東京都,中央区,築地４丁目１６番２号,,13,102,1040045,,,,,,,2023-12-15,1,,,,,ナカハラスイサン,0
1382,6010003042454,新規,0,2023-12-15,2023-12-15,合同会社ラスカル,,合同会社,東京都,中央区,晴海５丁目５０４－パークビレッジＣ棟１６０２,,13,102,1040053,,,,,,,2023-12-15,1,,,,,ラスカル,0
1385,6010005037634,新規,0,2023-12-15,2023-12-15,かがやき事業協同組合,,その他の設立登記法人,東京都,中央区,東日本橋２丁目２８番８号,,13,102,1030004,,,,,,,2023-12-15,1,,,,,カガヤキジギョウ,0
1393,6010401179146,新規,0,2023-12-15,2023-12-15,ＡＭＡＲＩＳ株式会社,,株式会社,東京都,港区,南青山３丁目１番３６号青山丸竹ビル６Ｆ,,13,103,1070062,,,,,,,2023-12-15,1,,,,,アマリス,0
1394,6010401179204,新規,0,2023-12-15,2023-12-15,ＨＡＮＡＳＡＫＵ株式会社,,株式会社,東京都,港区,新橋２丁目２０－１５新橋駅前ビル１号館５０９－１,,13,103,1050004,,,,,,,2023-12-15,1,,,,,ハナサク,0
1395,6010401179212,新規,0,2023-12-15,2023-12-15,ＡＩｔｅｃ　ｅｎｔｅｒｔａｉｎｍｅｎｔ株式会社,,株式会社,東京都,港区,赤坂４丁目２番６号住友不動産新赤坂ビル５階,,13,103,1070052,,,,,,,2023-12-15,1,,,,,アイテックエンターテイメント,0
1396,6010401179237,新規,0,2023-12-15,2023-12-15,株式会社クランクアーム,,株式会社,東京都,港区,赤坂２丁目２１番５号ＡＢＣ－Ｂ８,,13,103,1070052,,,,,,,2023-12-15,1,,,,,,0
1397,6010401179245,新規,0,2023-12-15,2023-12-15,株式会社マミアナトレード,,株式会社,東京都,港区,虎ノ門５丁目３番２０号仙石山アネックス４１５,,13,103,1050001,,,,,,,2023-12-15,1,,,,,マミアナトレード,0
1398,6010403031602,新規,0,2023-12-15,2023-12-15,合同会社Ｌｉｅｎ,,合同会社,東京都,港区,新橋４丁目１９番１２号東ビル地下１階,,13,103,1050004,,,,,,,2023-12-15,1,,,,,リヤン,0
1402,6010601064346,新規,0,2023-12-15,2023-12-15,力治株式会社,,株式会社,東京都,江東区,東陽２丁目３番６－１００５号,,13,108,1350016,,,,,,,2023-12-15,1,,,,,チチ,0
1405,6010701045270,新規,0,2023-12-15,2023-12-15,株式会社Ｓａｋｅ　Ｔｒｅａｓｕｒｅｓ,,株式会社,東京都,品川区,西五反田１丁目２６番２号五反田サンハイツ９１１,,13,109,1410031,,,,,,,2023-12-15,1,,,,,サケトレジャーズ,0
1410,6010903008653,新規,0,2023-12-15,2023-12-15,合同会社Ｃｅｄａｒｗｉｓｅ,,合同会社,東京都,世田谷区,北沢１丁目２５―９,,13,112,1550031,,,,,,,2023-12-15,1,,,,,シーダワイズ,0
1414,6011001158804,新規,0,2023-12-15,2023-12-15,株式会社サザビーリーグＩＲＩＳ,,株式会社,東京都,渋谷区,千駄ヶ谷２丁目１１番１号,,13,113,1510051,,,,,,,2023-12-15,1,,,,,サザビーリーグアイリス,0
1416,6011003018106,新規,0,2023-12-15,2023-12-15,合同会社ＣＤ,,合同会社,東京都,渋谷区,円山町５番５号Ｎａｖｉ渋谷Ｖ３階,,13,113,1500044,,,,,,,2023-12-15,1,,,,,シーディー,0
1419,6011101105458,新規,0,2023-12-15,2023-12-15,Ｒａｙｇｌｉｎｔ株式会社,,株式会社,東京都,新宿区,新宿２丁目５番１２号,,13,104,1600022,,,,,,,2023-12-15,1,,,,,レイグリント,0
1420,6011101105490,新規,0,2023-12-15,2023-12-15,株式会社学生支援ＧＬＯＢＡＬ,,株式会社,東京都,新宿区,西新宿６丁目５番１号新宿アイランドタワー２階,,13,104,1600023,,,,,,,2023-12-15,1,,,,,ガクセイシエングローバル,0
1421,6011101105499,新規,0,2023-12-15,2023-12-15,株式会社Ｃｕｍ　Ｃｒｅａｔｅ,,株式会社,東京都,新宿区,新宿１丁目３６番１２号サンカテリーナビル６Ｆ,,13,104,1600022,,,,,,,2023-12-15,1,,,,,クムクリエイト,0
1422,6011101105508,新規,0,2023-12-15,2023-12-15,株式会社ドリームウィング,,株式会社,東京都,新宿区,北新宿４丁目４番１３－４０４号,,13,104,1690074,,,,,,,2023-12-15,1,,,,,ドリームウィング,0
1424,6011103013857,新規,0,2023-12-15,2023-12-15,合同会社スピナ,,合同会社,東京都,新宿区,北新宿１丁目３０番３０－８０１号,,13,104,1690074,,,,,,,2023-12-15,1,,,,,スピナ,0
1430,6011401025694,新規,0,2023-12-15,2023-12-15,株式会社パスク,,株式会社,東京都,板橋区,大山金井町７番１６号,,13,119,1730024,,,,,,,2023-12-15,1,,,,,,0
1434,6011501030108,新規,0,2023-12-15,2023-12-15,株式会社Ａｉｎｆｉｎｉｔｙ,,株式会社,東京都,北区,赤羽台３丁目１５番３３号,,13,117,1150053,,,,,,,2023-12-15,1,,,,,アインフィニティ,0
1438,6011801043494,新規,0,2023-12-15,2023-12-15,株式会社ＥＶＡ,,株式会社,東京都,足立区,中川３丁目６番５号１階,,13,121,1200002,,,,,,,2023-12-15,1,,,,,エヴァ,0
1439,6011801043503,新規,0,2023-12-15,2023-12-15,株式会社東京山本,,株式会社,東京都,足立区,綾瀬４丁目１９－１５－３１０,,13,121,1200005,,,,,,,2023-12-15,1,,,,,トウキョウヤマモト,0
1440,6011803005988,新規,0,2023-12-15,2023-12-15,合同会社Ｎｕｒｔｕｒｅ,,合同会社,東京都,葛飾区,西新小岩５丁目２番１９号,,13,122,1240025,,,,,,,2023-12-15,1,,,,,ナーチュア,0
1445,6012801022835,新規,0,2023-12-15,2023-12-15,株式会社ＣＲＥＡＲＥ,,株式会社,東京都,日野市,南平６丁目２７番４４号,,13,212,1910041,,,,,,,2023-12-15,1,,,,,クレアーレ,0
1446,6013101009309,新規,0,2023-12-15,2023-12-15,株式会社ゼルーム,,株式会社,東京都,羽村市,神明台３丁目２７番５号,,13,227,2050023,,,,,,,2023-12-15,1,,,,,,0
1463,6020001154928,新規,0,2023-12-15,2023-12-15,株式会社モデスト,,株式会社,神奈川県,横浜市港北区,日吉本町２丁目３１番２－Ｂ１０３号,,14,109,2230062,,,,,,,2023-12-15,1,,,,,モデスト,0
1464,6020001154952,新規,0,2023-12-15,2023-12-15,株式会社ＧＳ総業,,株式会社,神奈川県,横浜市磯子区,丸山１丁目２７番２号,,14,107,2350011,,,,,,,2023-12-15,1,,,,,,0
1468,6020003025202,新規,0,2023-12-15,2023-12-15,大石メディ企画合同会社,,合同会社,神奈川県,横浜市磯子区,栗木３丁目３４番４８－２号,,14,107,2350041,,,,,,,2023-12-15,1,,,,,オオイシメディキカク,0
1469,6020005016224,新規,0,2023-12-15,2023-12-15,一般社団法人いきいき,,その他の設立登記法人,神奈川県,川崎市幸区,堀川町５８０番地ソリッドスクエア西館１１階,,14,132,2120013,,,,,,,2023-12-15,1,,,,,イキイキ,0
1479,6030001157698,新規,0,2023-12-15,2023-12-15,株式会社ハルケンサービス,,株式会社,埼玉県,越谷市,千間台西６丁目１６番地２０,,11,222,3430041,,,,,,,2023-12-15,1,,,,,ハルケンサービス,0
1480,6030001157715,新規,0,2023-12-15,2023-12-15,株式会社ブライトアイ,,株式会社,埼玉県,さいたま市南区,南本町２丁目１４番３ザ・パークハウス南浦和ガーデン１３０３,,11,108,3360018,,,,,,,2023-12-15,1,,,,,ブライトアイ,0
1481,6030001157723,新規,0,2023-12-15,2023-12-15,株式会社Ｔフレア,,株式会社,埼玉県,上尾市,菅谷３丁目１２４番地８,,11,219,3620003,,,,,,,2023-12-15,1,,,,,ティーフレア,0
1482,6030001157748,新規,0,2023-12-15,2023-12-15,マメトラ株式会社,,株式会社,埼玉県,桶川市,西２丁目９番３７号,,11,231,3630017,,,,,,,2023-12-15,1,,,,,マメトラ,0
1494,6040003023897,新規,0,2023-12-15,2023-12-15,合同会社かんだたみ,,合同会社,千葉県,佐倉市,寺崎２６４４－２,,12,212,2850818,,,,,,,2023-12-15,1,,,,,カンダタミ,0
1495,6040003023939,新規,0,2023-12-15,2023-12-15,合同会社ＡＯ,,合同会社,千葉県,柏市,根戸４７０番地５８Ｔｓｇａｒｄｅｎ１－８０２,,12,217,2770831,,,,,,,2023-12-15,1,,,,,アオ,0
1499,6060001036619,新規,0,2023-12-15,2023-12-15,株式会社ＭＰＰ,,株式会社,栃木県,栃木市,片柳町２丁目１５番３４－７号,,09,203,3280053,,,,,,,2023-12-15,1,,,,,エムピーピー,0
1502,6070003005199,新規,0,2023-12-15,2023-12-15,ｍｏｒｅ　ｂｅａｕｔｙ　ｌｌｃ合同会社,,合同会社,群馬県,沼田市,高橋場町２１９６番地１３,,10,206,3780056,,,,,,,2023-12-15,1,,,,,モアビューティーエルエルシー,0
1506,6080401026894,新規,0,2023-12-15,2023-12-15,株式会社ユアーズブロッサム,,株式会社,静岡県,浜松市中区,曳馬４丁目２０番３８号,,22,131,4300901,,,,,,,2023-12-15,1,,,,,ユアーズブロッサム,0
1517,6120001260591,新規,0,2023-12-15,2023-12-15,株式会社ｋｙｋｌｏｓ,,株式会社,大阪府,大阪市中央区,南船場１丁目１－１２－８階,,27,128,5420081,,,,,,,2023-12-15,1,,,,,キュクロス,0
1518,6120001260609,新規,0,2023-12-15,2023-12-15,株式会社アドバンス・レジデンシャル,,株式会社,大阪府,大阪市中央区,城見１丁目３番７号,,27,128,5400001,,,,,,,2023-12-15,1,,,,,アドバンスレジデンシャル,0
1519,6120001260617,新規,0,2023-12-15,2023-12-15,株式会社ＭＡＣＭ,,株式会社,大阪府,大阪市阿倍野区,王子町２丁目１７番２３－２０１号,,27,119,5450023,,,,,,,2023-12-15,1,,,,,エムエーシーエム,0
1520,6120001260625,新規,0,2023-12-15,2023-12-15,株式会社輝メディカルサービス,,株式会社,大阪府,大阪市北区,西天満５丁目１５番１８号,,27,127,5300047,,,,,,,2023-12-15,1,,,,,カガヤキメディカルサービス,0
1521,6120001260674,新規,0,2023-12-15,2023-12-15,東美商事株式会社,,株式会社,大阪府,大阪市中央区,島之内２丁目１１番１０号８０１室,,27,128,5420082,,,,,,,2023-12-15,1,,,,,トウビショウジ,0
1522,6120001260682,新規,0,2023-12-15,2023-12-15,株式会社Ｄａｉｅｎ,,株式会社,大阪府,大阪市西区,北堀江１丁目２番２７号,,27,106,5500014,,,,,,,2023-12-15,1,,,,,ダイエン,0
1529,6120003025514,新規,0,2023-12-15,2023-12-15,合同会社ｋｙｋｌｏｓ,,合同会社,大阪府,大阪市中央区,南船場１丁目１－１２－８階,,27,128,5420081,,,,,,,2023-12-15,1,,,,,キュクロス,0
1530,6120105009794,新規,0,2023-12-15,2023-12-15,特定非営利活動法人ＦＬＡＴ,,その他の設立登記法人,大阪府,和泉市,王子町２丁目１番５２号,,27,219,5940004,,,,,,,2023-12-15,1,,,,,フラット,0
1531,6120901048483,新規,0,2023-12-15,2023-12-15,株式会社Ｅｎ構造設計事務所,,株式会社,大阪府,豊中市,上野東３丁目１６番２８号,,27,203,5600013,,,,,,,2023-12-15,1,,,,,エンコウゾウセッケイジムショ,0
1536,6130001075931,新規,0,2023-12-15,2023-12-15,株式会社ＷＯＬＦＴＥＡ,,株式会社,京都府,京都市上京区,中猪熊町３１２－３,,26,102,6028493,,,,,,,2023-12-15,1,,,,,ウルフティー,0
1550,6140003019935,新規,0,2023-12-15,2023-12-15,合同会社ＶＩＧＯＲ,,合同会社,兵庫県,姫路市,田寺東４丁目２６番３号,,28,201,6700081,,,,,,,2023-12-15,1,,,,,ヴィグォア,0
1558,6180001159358,新規,0,2023-12-15,2023-12-15,株式会社Ｇ‐ＵＰ,,株式会社,愛知県,名古屋市天白区,野並２丁目５３番地,,23,116,4680045,,,,,,,2023-12-15,1,,,,,ジーアップ,0
1559,6180001159366,新規,0,2023-12-15,2023-12-15,株式会社ＴＡＭＩＤＥＮ,,株式会社,愛知県,津島市,上新田町３丁目１０９番地４,,23,208,4960871,,,,,,,2023-12-15,1,,,,,タミデン,0
1560,6180001159390,新規,0,2023-12-15,2023-12-15,Ｄ＆Ｓ　ＧＲＯＵＰ株式会社,,株式会社,愛知県,北名古屋市,西之保宮前１番地,,23,234,4810033,,,,,,,2023-12-15,1,,,,,ディーエスグループ,0
1564,6180301038113,新規,0,2023-12-15,2023-12-15,ビー・スタイル株式会社,,株式会社,愛知県,安城市,城南町１丁目１番地１,,23,212,4460043,,,,,,,2023-12-15,1,,,,,ビースタイル,0
1565,6180301038121,新規,0,2023-12-15,2023-12-15,Ｅｎｉｃｉ株式会社,,株式会社,愛知県,岡崎市,矢作町字末広１０番地１－２０３,,23,202,4440943,,,,,,,2023-12-15,1,,,,,エニシ,0
1566,6180303005937,新規,0,2023-12-15,2023-12-15,ＡＳＡコミュニケーションズ合同会社,,合同会社,愛知県,豊橋市,大村町字大賀里１１番地,,23,201,4400081,,,,,,,2023-12-15,1,,,,,エーエスエーコミュニケーションズ,0
1578,6240001062563,新規,0,2023-12-15,2023-12-15,株式会社ＹａｇａＴＥＣ,,株式会社,広島県,広島市中区,光南１丁目４番２３‐９０１号,,34,101,7300825,,,,,,,2023-12-15,1,,,,,ヤガテック,0
1579,6240003006460,新規,0,2023-12-15,2023-12-15,合同会社チケット広場,,合同会社,広島県,福山市,伏見町１－２,,34,207,7200062,,,,,,,2023-12-15,1,,,,,チケットヒロバ,0
1582,6250003003399,新規,0,2023-12-15,2023-12-15,合同会社シイナ,,合同会社,山口県,岩国市,三笠町３丁目１２番３６号,,35,208,7400016,,,,,,,2023-12-15,1,,,,,シイナ,0
1583,6250005008883,新規,0,2023-12-15,2023-12-15,一般社団法人厚南こどもクラブ,,その他の設立登記法人,山口県,宇部市,大字際波４１２番地１８,,35,202,7590207,,,,,,,2023-12-15,1,,,,,コウナンコドモクラブ,0
1596,6290001104063,新規,0,2023-12-15,2023-12-15,株式会社ＣＲＡＦＴＳＭＡＮＳＨＩＰ,,株式会社,福岡県,福岡市博多区,堅粕５丁目３番７－５０７号クリムゾン博多ＩＩ,00133026,40,132,8120043,,,,,,,2023-12-15,1,,,,,クラフトマンシップ,0
1597,6290001104071,新規,0,2023-12-15,2023-12-15,株式会社ＹＵＧＥＮ,,株式会社,福岡県,福岡市早良区,田村２丁目８番１５－１号,,40,137,8140175,,,,,,,2023-12-15,1,,,,,ユウゲン,0
1598,6290001104088,新規,0,2023-12-15,2023-12-15,株式会社ひさご薬局,,株式会社,福岡県,福岡市中央区,警固２丁目１６番８号,,40,133,8100023,,,,,,,2023-12-15,1,,,,,ヒサゴヤッキョク,0
1602,6290805009689,新規,0,2023-12-15,2023-12-15,農事組合法人伊方ファーム,,その他の設立登記法人,福岡県,田川郡福智町,伊方３３００番地１,,40,610,8221211,,,,,,,2023-12-15,1,,,,,イカタファーム,0
1604,6300001013551,新規,0,2023-12-15,2023-12-15,株式会社生島,,株式会社,佐賀県,神埼市,神埼町田道ヶ里２２２０番地２－２Ｆ,,41,210,8420002,,,,,,,2023-12-15,1,,,,,ショウジマ,0
1608,6330001031575,新規,0,2023-12-15,2023-12-15,ＣＳネクスト株式会社,,株式会社,熊本県,熊本市西区,中島町１９１５番地４,,43,103,8615272,,,,,,,2023-12-15,1,,,,,シーエスネクスト,0
1610,6340001026137,新規,0,2023-12-15,2023-12-15,株式会社アイアンドアイクリエイションズ,,株式会社,鹿児島県,阿久根市,本町７７番地,,46,206,8991621,,,,,,,2023-12-15,1,,,,,アイアンドアイクリエイションズ,0
1614,6360001032934,新規,0,2023-12-15,2023-12-15,ＴＨＲＥＥ　ＷＩＮ株式会社,,株式会社,沖縄県,糸満市,西崎町５丁目１２番１１号,,47,210,9010306,,,,,,,2023-12-15,1,,,,,スリーウィン,0
1615,6360003013536,新規,0,2023-12-15,2023-12-15,合同会社風雅,,合同会社,沖縄県,那覇市,宇栄原６丁目９番１２号,,47,201,9010153,,,,,,,2023-12-15,1,,,,,フウガ,0
1616,6370001050737,新規,0,2023-12-15,2023-12-15,株式会社ＨＹＧＧＥ,,株式会社,宮城県,仙台市太白区,八木山南５丁目２番地の１,,04,104,9820807,,,,,,,2023-12-15,1,,,,,ヒュッゲ,0
1619,6390003002180,新規,0,2023-12-15,2023-12-15,合同会社Ｅｖｏｌｕｔｉｏｎ　Ｐｒｏｊｅｃｔ,,合同会社,山形県,米沢市,春日２丁目７番８号,,06,202,9920044,,,,,,,2023-12-15,1,,,,,エボリューションプロジェクト,0
1625,6430001090644,新規,0,2023-12-15,2023-12-15,ルフレ株式会社,,株式会社,北海道,札幌市中央区,大通西１６丁目１番地１３,,01,101,0600042,,,,,,,2023-12-15,1,,,,,ルフレ,0
1626,6430001090652,新規,0,2023-12-15,2023-12-15,株式会社ＧＭ,,株式会社,北海道,札幌市中央区,北四条東１丁目３番地１,,01,101,0600034,,,,,,,2023-12-15,1,,,,,ジーエム,0
1629,6430003015731,新規,0,2023-12-15,2023-12-15,Ｙｏｕｒ　Ｎｉｓｅｋｏ　Ｈｏｍｅ合同会社,,合同会社,北海道,虻田郡ニセコ町,字豊里１６３番地８,,01,395,0481543,,,,,,,2023-12-15,1,,,,,ユアニセコホーム,0
1630,6430005014847,新規,0,2023-12-15,2023-12-15,一般社団法人北海道ｅスポーツ連絡協議会,,その他の設立登記法人,北海道,札幌市中央区,南一条西２丁目１８番地,,01,101,0600061,,,,,,,2023-12-15,1,,,,,ホッカイドウイースポーツレンラクキョウギカイ,0
1639,6700150118565,新規,0,2023-12-15,2023-12-15,Ｓｈｅｎｚｈｅｎ　Ｍｅｉｇａｏ　Ｅｌｅｃｔｒｏｎｉｃ　Ｅｑｕｉｐｍｅｎｔ　Ｃｏ．，Ｌｔｄ,,外国会社等,,,,,,,,２１７－２２２　Ｎｏ．６，Ｆｕｋａｎｇ　Ｒｏａｄ，Ｗｏｈｕａ　Ｃｏｍｍｕｎｉｔｙ，Ｐｉｎｇｈｕ　Ｓｔｒｅｅｔ，Ｌｏｎｇｇａｎｇ　Ｄｉｓｔｒｉｃｔ　Ｓｈｅｎｚｈｅｎ　Ｇｕａｎｇｄｏｎｇ　Ｃｈｉｎａ,,,,,,2023-12-15,1,,,,,シェンジェンシメイガオエレクトロニックイクイップメントカンパニーリミテッド,0
1640,6700150122047,新規,0,2023-12-15,2023-12-15,ｈａｎｇｚｈｏｕｃｈｅｎｋｅｄｉａｎｚｉｋｅｊｉｙｏｕｘｉａｎｇｏｎｇｓｉ,,外国会社等,,,,,,,,Ｃ１００２ｓｈｉ　１ｈａｏｌｏｕ　ｈｕｉｆｅｎｇｇｕｏｊｉｓｈａｎｇｗｕｚｈｏｎｇｘｉｎ　ｊｉｎｓｈａｎｌｉｎｇｌｕ２ｈａｏ　ｘｉｈｕｑｕ　ｌｉｕｘｉａｊｉｅｄａｏ　ｈａｎｇｚｈｏｕ　ｚｈｅｊｉａｎｇ,,,,,,2023-12-15,1,,,,,ハンジョウチェンカーディエンズーカージヨウシエンゴンス,0
1641,6700150122749,新規,0,2023-12-15,2023-12-15,ｚｈｏｎｇｓｈａｎ　ｓｈｉ　ｂａｉｌｉｎａ　ｚｈａｏｍｉｎｇ　ｄｉａｎｑｉｙｏｕｘｉａｎｇｏｎｇｓｉ,,外国会社等,,,,,,,,ｚｈｏｎｇｓｈａｎｓｈｉ　ｈｅｎｇｌａｎｚｈｅｎ　ｘｉｎａｍａｏｇｏｎｇｙｅｄａｄａｏ　１３ｈａｏ　Ｂｄｏｎｇ５ｌｏｕｚｈｉｙｉ,,,,,,2023-12-15,1,,,,,チュウサンシパクリナショウメイデンキユウゲンコウシ,0
1659,7010001240694,新規,0,2023-12-15,2023-12-15,株式会社Ｔｈｅ　Ｇｒａｃｅ,,株式会社,東京都,中央区,八丁堀３丁目２４番１号,,13,102,1040032,,,,,,,2023-12-15,1,,,,,ザグレイス,0
1660,7010001240819,新規,0,2023-12-15,2023-12-15,大同Ｔグループ株式会社,,株式会社,東京都,千代田区,二番町１番地２・番町ハイム４３７,,13,101,1020084,,,,,,,2023-12-15,1,,,,,ダイドウティーグループ,0
1661,7010001240851,新規,0,2023-12-15,2023-12-15,株式会社となりの編プロ,,株式会社,東京都,中央区,新川１丁目６番１２号,,13,102,1040033,,,,,,,2023-12-15,1,,,,,トナリノヘンプロ,0
1666,7010101015930,新規,0,2023-12-15,2023-12-15,株式会社オカベ,,株式会社,東京都,八王子市,中野町２６０８番地３６,,13,201,1920015,,,,,,,2023-12-15,1,,,,,オカベ,0
1676,7010401179087,新規,0,2023-12-15,2023-12-15,ＡＩＮＯＴＥ株式会社,,株式会社,東京都,港区,芝５丁目１９番７－３０８号,,13,103,1080014,,,,,,,2023-12-15,1,,,,,アイノテ,0
1677,7010401179095,新規,0,2023-12-15,2023-12-15,株式会社ＴＢＭ　Ｃｏｎｓｔｒｕｃｔｉｏｎ　Ｅｎｇｉｎｅｅｒｉｎｇ　Ｐａｒｔｎｅｒｓ,,株式会社,東京都,港区,赤坂１丁目３番５号赤坂アビタシオンビル,,13,103,1070052,,,,,,,2023-12-15,1,,,,,ティービーエムコンストラクションエンジニアリングパートナーズ,0
1678,7010401179203,新規,0,2023-12-15,2023-12-15,ＪＰＮ　Ｄｙｎａｍｉｘ株式会社,,株式会社,東京都,港区,南青山３丁目１番３６号青山丸竹ビル６Ｆ,,13,103,1070062,,,,,,,2023-12-15,1,,,,,ジェイピーエヌダイナミックス,0
1679,7010401179211,新規,0,2023-12-15,2023-12-15,ＫｅｙＰａｔｈ株式会社,,株式会社,東京都,港区,新橋１丁目１８番２１号第一日比谷ビル,,13,103,1050004,,,,,,,2023-12-15,1,,,,,キーパス,0
1681,7010601064337,新規,0,2023-12-15,2023-12-15,ＭｃＦｌｙ株式会社,,株式会社,東京都,江東区,南砂２丁目３番１１号,,13,108,1360076,,,,,,,2023-12-15,1,,,,,マクフライ,0
1682,7010605004272,新規,0,2023-12-15,2023-12-15,一般社団法人尖閣を守る千田千人の会,,その他の設立登記法人,東京都,江東区,清澄２丁目１２番１７号２Ｆ,,13,108,1350024,,,,,,,2023-12-15,1,,,,,センカクヲマモルセンダセンニンノカイ,0
1685,7010801034602,新規,0,2023-12-15,2023-12-15,カミゥ株式会社,,株式会社,東京都,大田区,大森東１丁目９番１３号,,13,111,1430012,,,,,,,2023-12-15,1,,,,,カミゥ,0
1693,7011101105481,新規,0,2023-12-15,2023-12-15,徳業エネルギー日本株式会社,,株式会社,東京都,新宿区,百人町２丁目４－５及川ビル５Ｆ,,13,104,1690073,,,,,,,2023-12-15,1,,,,,トクギョウエネルギーニホン,0
1694,7011101105498,新規,0,2023-12-15,2023-12-15,ＫＭＤ株式会社,,株式会社,東京都,新宿区,西新宿３丁目３番１３号西新宿水間ビル２Ｆ,,13,104,1600023,,,,,,,2023-12-15,1,,,,,ケーエムディー,0
1695,7011101105507,新規,0,2023-12-15,2023-12-15,株式会社ナッツ,,株式会社,東京都,新宿区,西新宿１丁目１９番１１号西新宿甲州ビル８Ｆ,,13,104,1600023,,,,,,,2023-12-15,1,,,,,ナッツ,0
1696,7011103013856,新規,0,2023-12-15,2023-12-15,Ｃｉｔｒｏｎ　Ｖｉｏｌｅｔ合同会社,,合同会社,東京都,新宿区,歌舞伎町２丁目２５番８号１１１号室,,13,104,1600021,,,,,,,2023-12-15,1,,,,,シトロンバイオレット,0
1703,7011301029258,新規,0,2023-12-15,2023-12-15,株式会社ハーベストン・マーケティング,,株式会社,東京都,杉並区,松庵１丁目６番５号,,13,115,1670054,,,,,,,2023-12-15,1,,,,,ハーベストンマーケティング,0
1705,7011501030115,新規,0,2023-12-15,2023-12-15,株式会社東京皮膚医学研究所,,株式会社,東京都,北区,浮間１丁目７－２３兆豊浮間ビル５０３号室,,13,117,1150051,,,,,,,2023-12-15,1,,,,,トウキョウヒフイガクケンキュウジョ,0
1709,7011801043502,新規,0,2023-12-15,2023-12-15,ｍｏｎｏｍｏｓ株式会社,,株式会社,東京都,足立区,千住１丁目１０番１１号酒販会館ビル２階,,13,121,1200034,,,,,,,2023-12-15,1,,,,,モノモス,0
1710,7011801043510,新規,0,2023-12-15,2023-12-15,天一健康株式会社,,株式会社,東京都,葛飾区,新小岩４丁目１４番４号,,13,122,1240024,,,,,,,2023-12-15,1,,,,,テンイチケンコウ,0
1714,7012403006335,新規,0,2023-12-15,2023-12-15,合同会社ＶＯＬＵＮＴＡＳ,,合同会社,東京都,調布市,仙川町１丁目３２番地４３,,13,208,1820002,,,,,,,2023-12-15,1,,,,,ウォランタス,0
1722,7020001154935,新規,0,2023-12-15,2023-12-15,株式会社ＲＥＡＬ‐ＤＥＳＩＧＮ,,株式会社,神奈川県,横浜市港南区,大久保２丁目１９番２号,,14,111,2330007,,,,,,,2023-12-15,1,,,,,リアルデザイン,0
1727,7020003025192,新規,0,2023-12-15,2023-12-15,合同会社クレール,,合同会社,神奈川県,川崎市幸区,北加瀬２丁目１０番３７号,,14,132,2120057,,,,,,,2023-12-15,1,,,,,クレール,0
1729,7021001080989,新規,0,2023-12-15,2023-12-15,株式会社ＲＥＢＩＲＴＨ,,株式会社,神奈川県,平塚市,四之宮１丁目３番２５－２号,,14,203,2540014,,,,,,,2023-12-15,1,,,,,リバース,0
1734,7021005012971,新規,0,2023-12-15,2023-12-15,一般社団法人ＹＯＬＯずや,,その他の設立登記法人,神奈川県,横須賀市,大津町１丁目２番３号,,14,201,2390808,,,,,,,2023-12-15,1,,,,,ヨロズヤ,0
1738,7030001157697,新規,0,2023-12-15,2023-12-15,株式会社１６８工務店,,株式会社,埼玉県,川口市,坂下町３丁目１５番３号,,11,203,3340003,,,,,,,2023-12-15,1,,,,,イロハコウムテン,0
1739,7030001157747,新規,0,2023-12-15,2023-12-15,プラスモーゲージ株式会社,,株式会社,埼玉県,さいたま市大宮区,大成町３丁目４０８番地（３Ｆ）,,11,103,3300852,,,,,,,2023-12-15,1,,,,,プラスモーゲージ,0
1745,7030003023237,新規,0,2023-12-15,2023-12-15,合同会社ＢＩＷＡＰＬＵＳ,,合同会社,埼玉県,入間市,東町１丁目７番５号,,11,225,3580002,,,,,,,2023-12-15,1,,,,,ビワプラス,0
1749,7040001131362,新規,0,2023-12-15,2023-12-15,株式会社ＯＮＥ’Ｓ,,株式会社,千葉県,銚子市,新生町１丁目４１番地の４マークタワー銚子銀座１２０２,,12,202,2880056,,,,,,,2023-12-15,1,,,,,ワンズ,0
1750,7040001131379,新規,0,2023-12-15,2023-12-15,株式会社エタニティ,,株式会社,千葉県,千葉市中央区,富士見１丁目１４番１３号８階,,12,101,2600015,,,,,,,2023-12-15,1,,,,,エタニティ,0
1751,7040001131387,新規,0,2023-12-15,2023-12-15,株式会社できタノ,,株式会社,千葉県,千葉市中央区,中央港１丁目２４番１４号シースケープ千葉みなと１Ｆ－７,,12,101,2600024,,,,,,,2023-12-15,1,,,,,デキタノ,0
1752,7040001131395,新規,0,2023-12-15,2023-12-15,株式会社リレア,,株式会社,千葉県,千葉市緑区,誉田町２丁目２番地３８１,,12,105,2660005,,,,,,,2023-12-15,1,,,,,リレア,0
1757,7040003023921,新規,0,2023-12-15,2023-12-15,合同会社アロー,,合同会社,千葉県,木更津市,太田４丁目２０－１,,12,206,2920044,,,,,,,2023-12-15,1,,,,,アロー,0
1758,7040003023938,新規,0,2023-12-15,2023-12-15,合同会社岩堀未来長尾亜子・ＢＡＳＩＣ　ＤＥＳＩＧＮ　ＡＲＣＨＩＴＥＣＴＳ,,合同会社,千葉県,我孫子市,つくし野３丁目２番１０２号,,12,222,2701164,,,,,,,2023-12-15,1,,,,,イワホリヒデキナガオアコベーシックデザインアーキテクツ,0
1765,7050001053878,新規,0,2023-12-15,2023-12-15,Ｎｅｗｔｕｎｅ株式会社,,株式会社,茨城県,つくば市,栗原３６１３,,08,220,3050001,,,,,,,2023-12-15,1,,,,,ニューテューン,0
1766,7050001053952,新規,0,2023-12-15,2023-12-15,Ｉｈｓａｎ　Ｅｎｔｅｒｐｒｉｓｅｓ株式会社,,株式会社,茨城県,常総市,岡田３９９番地６,,08,211,3002743,,,,,,,2023-12-15,1,,,,,イサンエンタープライズ,0
1781,7070003005198,新規,0,2023-12-15,2023-12-15,美鈴合同会社,,合同会社,群馬県,伊勢崎市,境伊与久７０５－２,,10,204,3700105,,,,,,,2023-12-15,1,,,,,,0
1808,7120001260608,新規,0,2023-12-15,2023-12-15,株式会社アイランドグロース,,株式会社,大阪府,大阪市住吉区,長居東１丁目１９番２０号,,27,120,5580004,,,,,,,2023-12-15,1,,,,,アイランドグロース,0
1809,7120001260698,新規,0,2023-12-15,2023-12-15,株式会社栄昌商事,,株式会社,大阪府,大阪市中央区,博労町２丁目３番１５号,,27,128,5410059,,,,,,,2023-12-15,1,,,,,エイショウショウジ,0
1817,7122001037663,新規,0,2023-12-15,2023-12-15,五円建設株式会社,,株式会社,大阪府,東大阪市,楠根２丁目７番２９号,,27,227,5770006,,,,,,,2023-12-15,1,,,,,ゴエンケンセツ,0
1820,7130001075930,新規,0,2023-12-15,2023-12-15,京都ＰＪ株式会社,,株式会社,京都府,京都市左京区,福本町４２５番地,,26,103,6068361,,,,,,,2023-12-15,1,,,,,キョウトピージェイ,0
1828,7140001132664,新規,0,2023-12-15,2023-12-15,株式会社アットホップ,,株式会社,兵庫県,神戸市西区,学園東町６丁目１番地の１、６１３号,,28,111,6512102,,,,,,,2023-12-15,1,,,,,アットホップ,0
1829,7140001132697,新規,0,2023-12-15,2023-12-15,株式会社ＨＩＢＩＫＩ,,株式会社,兵庫県,尼崎市,浜田町３丁目８７番地の２,,28,202,6600062,,,,,,,2023-12-15,1,,,,,,0
1834,7160001025552,新規,0,2023-12-15,2023-12-15,ポワソン株式会社,,株式会社,滋賀県,東近江市,北坂町７０３番地,,25,213,5270145,,,,,,,2023-12-15,1,,,,,ポワソン,0
1836,7160003003060,新規,0,2023-12-15,2023-12-15,合同会社ＤＥＲＩＶＥ,,合同会社,滋賀県,大津市,大物６３２番地の３１,,25,201,5200512,,,,,,,2023-12-15,1,,,,,ディライヴ,0
1842,7180001159381,新規,0,2023-12-15,2023-12-15,宝ＢＯＸ株式会社,,株式会社,愛知県,名古屋市中村区,名駅５丁目１６番１７号花車ビル南館５１１号,,23,105,4500002,,,,,,,2023-12-15,1,,,,,タカラボックス,0
1845,7180003026126,新規,0,2023-12-15,2023-12-15,合同会社家族のやすらぎショップ,,合同会社,愛知県,名古屋市中村区,名駅３丁目４番１０号アルティメイト名駅１ｓｔ２階,,23,105,4500002,,,,,,,2023-12-15,1,,,,,カゾクノヤスラギショップ,0
1859,7210003001728,新規,0,2023-12-15,2023-12-15,ＴＥＴＳＵＪＩＮ合同会社,,合同会社,福井県,福井市,菅谷２丁目１１－２５,,18,201,9100034,,,,,,,2023-12-15,1,,,,,テツジン,0
1862,7210005010124,新規,0,2023-12-15,2023-12-15,一般社団法人ＰＬＡＹ　ＣＩＴＹ,,その他の設立登記法人,福井県,福井市,中央３丁目５番１２号ＣＲＡＦＴＢＲＩＤＧＥ,,18,201,9100006,,,,,,,2023-12-15,1,,,,,プレイシティ,0
1864,7220003003640,新規,0,2023-12-15,2023-12-15,合同会社レガロプロパティ,,合同会社,石川県,小松市,土居原町１３‐１８Ｋｏｍａｔｓｕ九コワーキングエリア内,,17,203,9230921,,,,,,,2023-12-15,1,,,,,レガロプロパティ,0
1870,7230001020141,新規,0,2023-12-15,2023-12-15,株式会社ラプラス,,株式会社,富山県,富山市,町村５３番地１２,,16,201,9300952,,,,,,,2023-12-15,1,,,,,ラプラス,0
1880,7290001104062,新規,0,2023-12-15,2023-12-15,株式会社Ｓａｉ　Ｖｅｔｅｒｉｎａｒｙ　Ｐｌａｎｎｉｎｇ,,株式会社,福岡県,福岡市中央区,天神２丁目３番１０号,,40,133,8100001,,,,,,,2023-12-15,1,,,,,サイベテリナリープランニング,0
1883,7290801030144,新規,0,2023-12-15,2023-12-15,九洋株式会社,,株式会社,福岡県,北九州市小倉北区,片野３丁目１１番１－２０３号,,40,106,8020064,,,,,,,2023-12-15,1,,,,,,0
1884,7290803004559,新規,0,2023-12-15,2023-12-15,合同会社Ｒｅｌａｔｉｏｎ　Ｍａｎａｇｅｍｅｎｔ,,合同会社,福岡県,北九州市門司区,港町１－１２,,40,101,8010852,,,,,,,2023-12-15,1,,,,,リレーションマネジメント,0
1888,7310001018747,新規,0,2023-12-15,2023-12-15,株式会社ＮＥＳＰＲＯＪＥＣＴ,,株式会社,長崎県,東彼杵郡川棚町,栄町２－１０,,42,322,8593608,,,,,,,2023-12-15,1,,,,,エヌイーエスプロジェクト,0
1891,7340001026144,新規,0,2023-12-15,2023-12-15,株式会社Ｅ‐ＳＴＯＲＹ,,株式会社,鹿児島県,鹿児島市,常盤２丁目１７番３５号,,46,201,8900047,,,,,,,2023-12-15,1,,,,,イーストーリー,0
1894,7350001018710,新規,0,2023-12-15,2023-12-15,株式会社なぎ,,株式会社,宮崎県,宮崎市,大字本郷南方２７６２番地１,,45,201,8800921,,,,,,,2023-12-15,1,,,,,ナギ,0
1897,7360001032941,新規,0,2023-12-15,2023-12-15,株式会社ＫＳ　Ｃｏｒｐｏｒａｔｉｏｎ,,株式会社,沖縄県,沖縄市,嘉間良１丁目１７番３７号,,47,211,9040005,,,,,,,2023-12-15,1,,,,,ケイエスコーポレーション,0
1898,7360003013543,新規,0,2023-12-15,2023-12-15,ひかさく会合同会社,,合同会社,沖縄県,那覇市,首里寒川町２丁目１３番地カーサ・パシフィカ首里寒川２－Ｂ,,47,201,9030826,,,,,,,2023-12-15,1,,,,,ヒカサクカイ,0
1899,7360003013551,新規,0,2023-12-15,2023-12-15,ブロードアソシエイト合同会社,,合同会社,沖縄県,中頭郡西原町,字翁長６４４番地,,47,329,9030117,,,,,,,2023-12-15,1,,,,,ブロードアソシエイト,0
1906,7380003005646,新規,0,2023-12-15,2023-12-15,合同会社彩弦,,合同会社,福島県,福島市,松川町下川崎字上ノ内４０番地,,07,201,9601232,,,,,,,2023-12-15,1,,,,,サイゲン,0
1910,7420001018513,新規,0,2023-12-15,2023-12-15,株式会社ＡＬＢＡ,,株式会社,青森県,青森市,大字筒井字八ツ橋１３８０番地３,,02,201,0300944,,,,,,,2023-12-15,1,,,,,アルバ,0
1913,7430003015763,新規,0,2023-12-15,2023-12-15,レジリエントメディカル合同会社,,合同会社,北海道,札幌市北区,北十条西３丁目２３番１号,,01,102,0010010,,,,,,,2023-12-15,1,,,,,レジリエントメディカル,0
1916,7500001025369,新規,0,2023-12-15,2023-12-15,株式会社西の栗,,株式会社,愛媛県,西予市,城川町下相１３１０,,38,214,7971717,,,,,,,2023-12-15,1,,,,,ニシノクリ,0
1917,7700150118564,新規,0,2023-12-15,2023-12-15,Ｔａｉｙｕａｎｓｈｉｘｕｎｔａｏｄｉａｎｚｉｋｅｊｉｙｏｕｘｉａｎｇｏｎｇｓｉ,,外国会社等,,,,,,,,Ｓｈａｎｘｉｓｈｅｎｇｔａｉｙｕａｎｓｈｉｘｉａｏｄｉａｎｑｕｊｉｎｙａｎｊｉｅ８４ｈａｏＢｚｕｏ１４、１５ｃｅｎｇ,,,,,,2023-12-15,1,,,,,タイユエンシシュンタオディエンズカージヨウシエンゴンス,0
1918,7700150122748,新規,0,2023-12-15,2023-12-15,ａｎｈｕｉｒｉｌｕｗａｎｇｌｕｏｋｅｊｉｙｏｕｘｉａｎｇｏｎｇｓｉ,,外国会社等,,,,,,,,ａｎｈｕｉｓｈｅｎｇｉｈｕａｎｇｓｈａｎｓｈｉ　ｈｕｉｚｈｏｕｑｕｙａｎｓｉｚｈｅｎｃｈｅｎｇｂｅｉｇｏｎｇｙｅｙｕａｎｈｕａｎｃｈｅｎｇｘｉｌｕ３３ｈａｏｈｕｉｚｈｏｕｄｉａｎｓｈａｎｇｋｕａｊｉｎｇｃｈａｎｙｅｙｕａｎｎｅｉ,,,,,,2023-12-15,1,,,,,アンキモウカラカギユウゲンコウシ,0
1927,8010001240850,新規,0,2023-12-15,2023-12-15,株式会社高村ビル,00133011,株式会社,東京都,文京区,湯島３丁目１４番７号高村ビル,00133012,13,105,1130034,,,,,,,2023-12-15,1,,,,,タカムラビル,0
1931,8010003042444,新規,0,2023-12-15,2023-12-15,合同会社シフトゼロホールディングス,,合同会社,東京都,文京区,千石３丁目２９番１３号,,13,105,1120011,,,,,,,2023-12-15,1,,,,,シフトゼロホールディングス,0
1932,8010003042460,新規,0,2023-12-15,2023-12-15,合同会社ＳＨＩＶＥＲＳ,,合同会社,東京都,中央区,日本橋室町１丁目１１番１２号日本橋水野ビル７階,,13,102,1030022,,,,,,,2023-12-15,1,,,,,シバーズ,0
1933,8010003042469,新規,0,2023-12-15,2023-12-15,合同会社Ｍｉｇａｋ,,合同会社,東京都,中央区,日本橋箱崎町１－２ＴＨＥＳＨＯＲＥ日本橋茅場町２Ｆ,,13,102,1030015,,,,,,,2023-12-15,1,,,,,ミガク,0
1944,8010401179185,新規,0,2023-12-15,2023-12-15,株式会社Ｒｉｌ．,,株式会社,東京都,港区,北青山１丁目３番１号アールキューブ青山３階,,13,103,1070061,,,,,,,2023-12-15,1,,,,,リルドット,0
1945,8010401179227,新規,0,2023-12-15,2023-12-15,ＩＮＮＯＶＡＴＩＯＮＳＴＹＬＥ株式会社,,株式会社,東京都,港区,海岸１丁目２番２０号汐留ビルディング３Ｆ,,13,103,1050022,,,,,,,2023-12-15,1,,,,,イノベーションスタイル,0
1947,8010503007252,新規,0,2023-12-15,2023-12-15,合同会社ＢＯＮｆｏｏｔ,,合同会社,東京都,台東区,台東２丁目７番６号第二桜田ビル１Ｆ,,13,106,1100016,,,,,,,2023-12-15,1,,,,,ボンフット,0
1950,8010605004271,新規,0,2023-12-15,2023-12-15,特定非営利活動法人中皮腫・じん肺・アスベストセンター,,その他の設立登記法人,東京都,江東区,亀戸７丁目１０番１号,,13,108,1360071,,,,,,,2023-12-15,1,,,,,チュウヒシュジンパイアスベストセンター,0
1951,8010801034601,新規,0,2023-12-15,2023-12-15,株式会社ＪＥＳ,,株式会社,東京都,大田区,西蒲田６丁目２５番１２号,,13,111,1440051,,,,,,,2023-12-15,1,,,,,ジェーイーエス,0
1952,8010803004783,新規,0,2023-12-15,2023-12-15,ｆｉｒｍｓｈｉｐ合同会社,,合同会社,東京都,大田区,仲六郷１丁目２３－２,,13,111,1440055,,,,,,,2023-12-15,1,,,,,フィルムシップ,0
1955,8010805003081,新規,0,2023-12-15,2023-12-15,一般社団法人日本自動車レストレーション協会,,その他の設立登記法人,東京都,大田区,多摩川２丁目２１番２４号,,13,111,1460095,,,,,,,2023-12-15,1,,,,,ニホンジドウシャレストレーションキョウカイ,0
1960,8011001158793,新規,0,2023-12-15,2023-12-15,ヒトトバデザイン株式会社,,株式会社,東京都,渋谷区,渋谷２丁目１９番１５号宮益坂ビルディング６０９,,13,113,1500002,,,,,,,2023-12-15,1,,,,,ヒトトバデザイン,0
1961,8011001158810,新規,0,2023-12-15,2023-12-15,株式会社ＳＨ,,株式会社,東京都,渋谷区,道玄坂１丁目１０番８号渋谷道玄坂東急ビル２Ｆ－Ｃ,,13,113,1500043,,,,,,,2023-12-15,1,,,,,エスエイチ,0
1964,8011101105464,新規,0,2023-12-15,2023-12-15,慶成地所株式会社,,株式会社,東京都,新宿区,新宿２丁目１５番２５号小倉ビル１０２,,13,104,1600022,,,,,,,2023-12-15,1,,,,,ケイセイジショ,0
1965,8011101105506,新規,0,2023-12-15,2023-12-15,エトス株式会社,,株式会社,東京都,新宿区,西新宿３丁目３番１３号西新宿水間ビル６Ｆ,,13,104,1600023,,,,,,,2023-12-15,1,,,,,エトス,0
1967,8011103013855,新規,0,2023-12-15,2023-12-15,合同会社ＣＣＲ,,合同会社,東京都,新宿区,西新宿３丁目３番１３号西新宿水間ビル６階,,13,104,1600023,,,,,,,2023-12-15,1,,,,,シーシーアール,0
1969,8011205002582,新規,0,2023-12-15,2023-12-15,一般社団法人絆つながるマーケット推進協会,,その他の設立登記法人,東京都,中野区,新井１丁目１４番３号久栄マンション２Ａ,,13,114,1650026,,,,,,,2023-12-15,1,,,,,キズナツナガルマーケットスイシンキョウカイ,0
1972,8011301029257,新規,0,2023-12-15,2023-12-15,株式会社ｒｅｌｉｋｕ,,株式会社,東京都,杉並区,南荻窪４丁目３９－１９,,13,115,1670052,,,,,,,2023-12-15,1,,,,,リライク,0
1974,8011401025692,新規,0,2023-12-15,2023-12-15,株式会社Ｋ　Ｇｒｏｕｐ,,株式会社,東京都,板橋区,板橋１丁目１３－８協立コーポレーション第３,,13,119,1730004,,,,,,,2023-12-15,1,,,,,,0
1977,8011705001811,新規,0,2023-12-15,2023-12-15,ＮＰＯ法人んごろんごろ,,その他の設立登記法人,東京都,江戸川区,北葛西４丁目１番２９号,,13,123,1340081,,,,,,,2023-12-15,1,,,,,ンゴロンゴロ,0
1979,8011801043492,新規,0,2023-12-15,2023-12-15,小魚株式会社,,株式会社,東京都,足立区,栗原３丁目２６番１号２Ｆ,,13,121,1230842,,,,,,,2023-12-15,1,,,,,コザカナ,0
1981,8012403006334,新規,0,2023-12-15,2023-12-15,Ｒｏｈａｕｓ合同会社,,合同会社,東京都,三鷹市,大沢１丁目１０番１号,,13,204,1810015,,,,,,,2023-12-15,1,,,,,ロハウス,0
1991,8020001154835,新規,0,2023-12-15,2023-12-15,株式会社ＳＡＲＡＸ,,株式会社,神奈川県,横浜市緑区,長津田２丁目１番１－７０８号,,14,113,2260027,,,,,,,2023-12-15,1,,,,,サラックス,0
1992,8020001154843,新規,0,2023-12-15,2023-12-15,株式会社横濱ネイル,,株式会社,神奈川県,横浜市神奈川区,青木町３番地１５ＳＳビル２０５,,14,102,2210057,,,,,,,2023-12-15,1,,,,,ヨコハマネイル,0
1993,8020001154926,新規,0,2023-12-15,2023-12-15,株式会社幻想価値,,株式会社,神奈川県,横浜市中区,長者町４丁目１０番地８エルスタンザ関内大通公園６０１,,14,104,2310033,,,,,,,2023-12-15,1,,,,,ゲンソウカチ,0
1994,8020001154934,新規,0,2023-12-15,2023-12-15,株式会社ＳＴＹＬＥ,,株式会社,神奈川県,横浜市戸塚区,原宿５丁目１６番１８号,,14,110,2450063,,,,,,,2023-12-15,1,,,,,スタイル,0
1997,8020003025200,新規,0,2023-12-15,2023-12-15,Ｒｅｉｔｏ　ＬＬＣ合同会社,,合同会社,神奈川県,横浜市神奈川区,金港町５―１４クアドリフォリオ８階,,14,102,2210056,,,,,,,2023-12-15,1,,,,,レイトエルエルシー,0
1999,8020005016222,新規,0,2023-12-15,2023-12-15,医療法人社団定敬会,,その他の設立登記法人,神奈川県,横浜市港北区,新横浜２丁目６番地１６・３６７新横浜２階,,14,109,2220033,,,,,,,2023-12-15,1,,,,,テイケイカイ,0
2002,8021003013839,新規,0,2023-12-15,2023-12-15,合同会社ＵＰ‐ＷＩＮＤ,,合同会社,神奈川県,逗子市,小坪５丁目２３番１０－２１６号,,14,208,2490008,,,,,,,2023-12-15,1,,,,,アップウインド,0
2003,8021003013913,新規,0,2023-12-15,2023-12-15,合同会社ＬＵＮＡ,,合同会社,神奈川県,茅ヶ崎市,中海岸１丁目１番５９号,,14,207,2530055,,,,,,,2023-12-15,1,,,,,ルナ,0
2004,8021005012970,新規,0,2023-12-15,2023-12-15,一般社団法人マルク,,その他の設立登記法人,神奈川県,厚木市,関口３９７－２,,14,212,2430804,,,,,,,2023-12-15,1,,,,,マルク,0
2008,8030001157713,新規,0,2023-12-15,2023-12-15,株式会社ＮＫ,,株式会社,埼玉県,所沢市,けやき台２丁目２８番地の１７,,11,208,3591118,,,,,,,2023-12-15,1,,,,,エヌケー,0
2009,8030001157721,新規,0,2023-12-15,2023-12-15,株式会社プロニック,,株式会社,埼玉県,春日部市,上蛭田３８７番地２,,11,214,3440046,,,,,,,2023-12-15,1,,,,,プロニック,0
2010,8030001157738,新規,0,2023-12-15,2023-12-15,ツクッタ株式会社,,株式会社,埼玉県,さいたま市北区,日進町３丁目６９０番地７,,11,102,3310823,,,,,,,2023-12-15,1,,,,,ツクッタ,0
2011,8030001157746,新規,0,2023-12-15,2023-12-15,株式会社木島電機,,株式会社,埼玉県,川口市,北園町１７番３１号,,11,203,3330862,,,,,,,2023-12-15,1,,,,,キジマデンキ,0
2012,8030001157754,新規,0,2023-12-15,2023-12-15,株式会社アークスプラス,,株式会社,埼玉県,川口市,赤井４丁目１番１８号,,11,203,3340073,,,,,,,2023-12-15,1,,,,,アークスプラス,0
2018,8030003023228,新規,0,2023-12-15,2023-12-15,合同会社Ｅｔｅｒｎｉｔｙ,,合同会社,埼玉県,坂戸市,末広町１番地２北坂戸駅２Ｆ－Ｂ,,11,239,3500272,,,,,,,2023-12-15,1,,,,,エターニティー,0
2021,8040001131386,新規,0,2023-12-15,2023-12-15,株式会社ＫＹＯＹＡ,,株式会社,千葉県,東金市,西福俵１２番地１２,,12,213,2830816,,,,,,,2023-12-15,1,,,,,キョウヤ,0
2023,8050001053935,新規,0,2023-12-15,2023-12-15,ルークライズ株式会社,,株式会社,茨城県,稲敷郡阿見町,大字青宿８４３番地２,,08,443,3000301,,,,,,,2023-12-15,1,,,,,,0
2024,8050001053951,新規,0,2023-12-15,2023-12-15,株式会社ＫＯＵＥＩ,,株式会社,茨城県,鹿嶋市,大字平井１１２８―３２１,,08,222,3140012,,,,,,,2023-12-15,1,,,,,コウエイ,0
2025,8050001053968,新規,0,2023-12-15,2023-12-15,ＪＶファシリティーズ株式会社,,株式会社,茨城県,常総市,水海道本町２６１２番地３ＪＶビル３０２号,,08,211,3030026,,,,,,,2023-12-15,1,,,,,,0
2027,8050005013340,新規,0,2023-12-15,2023-12-15,一般社団法人ナカノエンタープライズ,,その他の設立登記法人,茨城県,水戸市,千波町２０６７番地の１０１,,08,201,3100851,,,,,,,2023-12-15,1,,,,,ナカノエンタープライズ,0
2028,8060001036633,新規,0,2023-12-15,2023-12-15,株式会社住幸企画,,株式会社,栃木県,宇都宮市,上横田町１４７２番地１,,09,201,3210106,,,,,,,2023-12-15,1,,,,,スミコウキカク,0
2037,8090003002449,新規,0,2023-12-15,2023-12-15,ＭｉＭｉｃｒｏＲｅｓｅａｒｃｈ合同会社,,合同会社,山梨県,中央市,東花輪３６番地,,19,214,4093842,,,,,,,2023-12-15,1,,,,,ミミクロリサーチ,0
2038,8100001037049,新規,0,2023-12-15,2023-12-15,株式会社エコパワーとうみ,,株式会社,長野県,東御市,県２８１番地２,,20,219,3890517,,,,,,,2023-12-15,1,,,,,エコパワートウミ,0
2041,8110001038038,新規,0,2023-12-15,2023-12-15,株式会社ココキハナ,,株式会社,新潟県,新発田市,緑町３丁目１番９号,,15,206,9570018,,,,,,,2023-12-15,1,,,,,ココキハナ,0
2049,8120001260615,新規,0,2023-12-15,2023-12-15,イトミ工業株式会社,,株式会社,大阪府,大阪市平野区,長吉長原３丁目１７番２７号,,27,126,5470016,,,,,,,2023-12-15,1,,,,,イトミコウギョウ,0
2050,8120001260623,新規,0,2023-12-15,2023-12-15,株式会社ニーズ,,株式会社,大阪府,門真市,四宮３丁目１番４４号,,27,223,5710017,,,,,,,2023-12-15,1,,,,,ニーズ,0
2051,8120001260631,新規,0,2023-12-15,2023-12-15,鴻越天株式会社,,株式会社,大阪府,大阪市大正区,三軒家西３丁目４番１６号中山ビル１０５６,,27,108,5510001,,,,,,,2023-12-15,1,,,,,コウエツテン,0
2052,8120001260648,新規,0,2023-12-15,2023-12-15,ドゥ・メドゥサン株式会社,,株式会社,大阪府,大阪市生野区,桃谷５丁目３番３０号,,27,116,5440034,,,,,,,2023-12-15,1,,,,,ドゥメドゥサン,0
2053,8120001260664,新規,0,2023-12-15,2023-12-15,ＤＭＤ株式会社,,株式会社,大阪府,大阪市淀川区,西三国１丁目２１－４３サンマンション４０２号室,,27,123,5320006,,,,,,,2023-12-15,1,,,,,ディーエムディー,0
2054,8120001260706,新規,0,2023-12-15,2023-12-15,株式会社グランドホーム,,株式会社,大阪府,大阪市北区,西天満３丁目１番１３号清洲西天満ビル３０３号室,,27,127,5300047,,,,,,,2023-12-15,1,,,,,グランドホーム,0
2055,8120003025470,新規,0,2023-12-15,2023-12-15,塩川相続・経営支援合同会社,,合同会社,大阪府,大阪市生野区,小路東３丁目６番４号,,27,116,5440003,,,,,,,2023-12-15,1,,,,,シオカワソウゾクケイエイシエン,0
2056,8120003025537,新規,0,2023-12-15,2023-12-15,ジャパンサライ合同会社,,合同会社,大阪府,大阪市浪速区,戎本町１丁目４番１９号グランパシフィックパークス通り南８０１,,27,111,5560013,,,,,,,2023-12-15,1,,,,,ジャパンサライ,0
2059,8120101068702,新規,0,2023-12-15,2023-12-15,株式会社宇野,,株式会社,大阪府,堺市西区,浜寺元町６丁８６３番地１,,27,144,5928343,,,,,,,2023-12-15,1,,,,,ウノ,0
2060,8120101068710,新規,0,2023-12-15,2023-12-15,まきのホールディングス株式会社,,株式会社,大阪府,堺市堺区,香ヶ丘町２丁１番１１号,,27,141,5900011,,,,,,,2023-12-15,1,,,,,マキノホールディングス,0
2068,8130001075946,新規,0,2023-12-15,2023-12-15,株式会社松井組,,株式会社,京都府,京都市伏見区,深草直違橋北１丁目４５９,,26,109,6120869,,,,,,,2023-12-15,1,,,,,マツイグミ,0
2075,8140001132696,新規,0,2023-12-15,2023-12-15,株式会社平山ビルディング,,株式会社,兵庫県,神戸市中央区,中町通２丁目１－１６,,28,110,6500027,,,,,,,2023-12-15,1,,,,,ヒラヤマビルディング,0
2077,8140003019917,新規,0,2023-12-15,2023-12-15,７ｔｈ合同会社,,合同会社,兵庫県,神戸市中央区,御幸通６丁目１番１５号,,28,110,6510087,,,,,,,2023-12-15,1,,,,,セブンス,0
2078,8140003019933,新規,0,2023-12-15,2023-12-15,合同会社ＴＭＣ,,合同会社,兵庫県,明石市,小久保２丁目１番地の１４－５０２号,,28,203,6730005,,,,,,,2023-12-15,1,,,,,ティエムシィ,0
2079,8140005026837,新規,0,2023-12-15,2023-12-15,税理士法人高橋会計事務所,,その他の設立登記法人,兵庫県,加古川市,平岡町一色西２丁目１番地,,28,210,6750117,,,,,,,2023-12-15,1,,,,,タカハシカイケイジムショ,0
2080,8150001026939,新規,0,2023-12-15,2023-12-15,株式会社永利,,株式会社,奈良県,橿原市,白橿町６丁目１６番１５号,,29,205,6340051,,,,,,,2023-12-15,1,,,,,エイリ,0
2099,8210001019580,新規,0,2023-12-15,2023-12-15,Ｋ’ｓホールディング株式会社,,株式会社,福井県,福井市,問屋町４丁目３１１番地１,,18,201,9188231,,,,,,,2023-12-15,1,,,,,ケイズホールディング,0
2120,8290001103781,新規,0,2023-12-15,2023-12-15,敬雅軒株式会社,,株式会社,福岡県,福岡市博多区,神屋町７－１８－７１０室朝日プラザ博多ＶＩＩＩ,00133022,40,132,8120022,,,,,,,2023-12-15,1,,,,,ケイガケン,0
2121,8290001104037,新規,0,2023-12-15,2023-12-15,株式会社大福,,株式会社,福岡県,福岡市城南区,干隈１丁目２番４号,,40,136,8140132,,,,,,,2023-12-15,1,,,,,ダイフク,0
2133,8290003014738,新規,0,2023-12-15,2023-12-15,合同会社ライライ,,合同会社,福岡県,福岡市博多区,博多駅東１丁目１番３３号,,40,132,8120013,,,,,,,2023-12-15,1,,,,,ライライ,0
2136,8310001018746,新規,0,2023-12-15,2023-12-15,ＯＮＥ　ＤＥＪＩＭＡ株式会社,,株式会社,長崎県,長崎市,大黒町１４番５号,,42,201,8500057,,,,,,,2023-12-15,1,,,,,ワンデジマ,0
2149,8350003004526,新規,0,2023-12-15,2023-12-15,合同会社ＱＴＭ,,合同会社,宮崎県,宮崎市,江南３丁目５番１４号ＴＰＣＶＩＩＩ２０３号,00133013,45,201,8800944,,,,,,,2023-12-15,1,,,,,キューティーエム,0
2151,8360001032932,新規,0,2023-12-15,2023-12-15,Ｏｋｉｎａｗａ　Ｐｌａｙｇｒｏｕｎｄ株式会社,,株式会社,沖縄県,那覇市,山下町３番１６号ＯＡＳ航空ビル４階,,47,201,9000027,,,,,,,2023-12-15,1,,,,,オキナワプレイグランド,0
2153,8360003013542,新規,0,2023-12-15,2023-12-15,合同会社城レンタカー,,合同会社,沖縄県,豊見城市,字長堂３６９番地,,47,212,9010203,,,,,,,2023-12-15,1,,,,,グスクレンタカー,0
2154,8360003013550,新規,0,2023-12-15,2023-12-15,合同会社ぱり友,,合同会社,沖縄県,宮古島市,下地字上地４３５番地１,,47,214,9060304,,,,,,,2023-12-15,1,,,,,パリトモ,0
2157,8370001050710,新規,0,2023-12-15,2023-12-15,株式会社種,,株式会社,宮城県,石巻市,恵み野５丁目１０番２４号,,04,202,9860868,,,,,,,2023-12-15,1,,,,,タネ,0
2158,8370001050735,新規,0,2023-12-15,2023-12-15,株式会社後藤工務店,,株式会社,宮城県,大崎市,古川金五輪１丁目２番３７号,,04,215,9896131,,,,,,,2023-12-15,1,,,,,ゴトウコウムテン,0
2168,8430001090626,新規,0,2023-12-15,2023-12-15,株式会社３７,,株式会社,北海道,札幌市北区,太平十二条４丁目３番３号,,01,102,0028012,,,,,,,2023-12-15,1,,,,,サンナナ,0
2169,8430001090634,新規,0,2023-12-15,2023-12-15,株式会社アルファモビリティ,,株式会社,北海道,千歳市,富士３丁目３番７号,,01,224,0660039,,,,,,,2023-12-15,1,,,,,アルファモビリティ,0
2171,8430003015754,新規,0,2023-12-15,2023-12-15,合同会社ＴｗｉＬｉｇｈｔ,,合同会社,北海道,室蘭市,八丁平４丁目２８－１１,,01,205,0500061,,,,,,,2023-12-15,1,,,,,トワイライト,0
2178,8500005008666,新規,0,2023-12-15,2023-12-15,特定非営利活動法人美腸フローラ倶楽部,,その他の設立登記法人,愛媛県,松山市,古三津２丁目２番７号,,38,201,7918067,,,,,,,2023-12-15,1,,,,,ビチョウフローラクラブ,0
2179,8700150118563,新規,0,2023-12-15,2023-12-15,Ｊｉｕｊｉａｎｇｍｉｎｇｄｉｚｈｉｍａｏｙｉｙｏｕｘｉａｎｇｏｎｇｓｉ,,外国会社等,,,,,,,,Ｗｕｌｉｊｉｅｄａｏｈｅｔａｎｇｘｉｎｃｕｎｓｈｅｑｕ　ｈｅｈｕａｌｏｎｇａｎｚｈｉｘｉａｏｑｕｅｒｑｉ２ｈａｏｌｏｕ１１０２　Ｊｉｕｊｉａｎｇ　Ｊｉａｎｇｘｉ　Ｘｉａｎｘｉｑｕ　Ｃｈｉｎａ　３３２１９９,,,,,,2023-12-15,1,,,,,ジウジアンミンディージーマオイーヨウシエンゴンス,0
2180,8700150122747,新規,0,2023-12-15,2023-12-15,ＴＷＳ　Ｔｅｃｈｎｏｌｏｇｙ　ＬＬＣ,,外国会社等,,,,,,,,１３００　Ａｂｉｎｇｔｏｎ　Ｃａｍｂｓ　Ｄｒ．Ｌａｋｅ　Ｆｏｒｅｓｔ，ＩＬ　６００４５,,,,,,2023-12-15,1,,,,,ティーダブリューエステクノロジーエルエルシー,0
2181,8700150122755,新規,0,2023-12-15,2023-12-15,ＲＭ耐震補強工法協会,,その他,大阪府,大阪市福島区,吉野４丁目２２－９,,27,103,5530006,,,,,,,2023-12-15,1,,,,,アールエムタイシンホキョウコウホウキョウカイ,0
2189,9010001240866,新規,0,2023-12-15,2023-12-15,株式会社ＴＥＡ,,株式会社,東京都,中央区,銀座１丁目２２番１１号銀座大竹ビジデンス２階,,13,102,1040061,,,,,,,2023-12-15,1,,,,,ティー,0
2197,9010005037648,新規,0,2023-12-15,2023-12-15,一般社団法人熊肉活用研究所,,その他の設立登記法人,東京都,中央区,日本橋人形町３丁目７番１１号,,13,102,1030013,,,,,,,2023-12-15,1,,,,,クマニクカツヨウケンキュウジョ,0
2198,9010101015929,新規,0,2023-12-15,2023-12-15,株式会社ＡＫＲ,,株式会社,東京都,八王子市,西寺方町９６８番地,,13,201,1920153,,,,,,,2023-12-15,1,,,,,エーケーアール,0
2204,9010401179119,新規,0,2023-12-15,2023-12-15,株式会社ＥＬＵＭＩＯＲＡ,,株式会社,東京都,港区,北青山１丁目３番１号アールキューブ青山３階,,13,103,1070061,,,,,,,2023-12-15,1,,,,,エルミオーラ,0
2205,9010401179192,新規,0,2023-12-15,2023-12-15,株式会社Ｊ＆Ｇコンサルティング,,株式会社,東京都,港区,南青山２丁目２－１５,,13,103,1070062,,,,,,,2023-12-15,1,,,,,ジェーアンドジーコンサルティング,0
2206,9010401179201,新規,0,2023-12-15,2023-12-15,ＱＢｉｔセミコンダクタージャパン株式会社,,株式会社,東京都,港区,港南２丁目１６番１号品川イーストワンタワー４階,,13,103,1080075,,,,,,,2023-12-15,1,,,,,キュビットセミコンダクタージャパン,0
2207,9010401179226,新規,0,2023-12-15,2023-12-15,２４ＬｆＴ株式会社,,株式会社,東京都,港区,浜松町２丁目２番１５号浜松町ダイヤビル２Ｆ,,13,103,1050013,,,,,,,2023-12-15,1,,,,,ニイヨンエルエフティ,0
2209,9010405022778,新規,0,2023-12-15,2023-12-15,一般社団法人ＮＦＴ認定講師協会,,その他の設立登記法人,東京都,港区,新橋２丁目１６番１号,,13,103,1050004,,,,,,,2023-12-15,1,,,,,エヌエフティーニンテイコウシキョウカイ,0
2218,9010801034609,新規,0,2023-12-15,2023-12-15,株式会社祐健機工,,株式会社,東京都,大田区,大森西３丁目５番２号,,13,111,1430015,,,,,,,2023-12-15,1,,,,,ユウケンキコウ,0
2222,9011001158875,新規,0,2023-12-15,2023-12-15,株式会社ゾック,,株式会社,東京都,目黒区,大橋１丁目５番１－１１１７号,,13,110,1530044,,,,,,,2023-12-15,1,,,,,ゾック,0
2228,9011101105447,新規,0,2023-12-15,2023-12-15,株式会社ＰＡＤＡ,,株式会社,東京都,新宿区,西新宿４丁目５番４号９０１,,13,104,1600023,,,,,,,2023-12-15,1,,,,,パダ,0
2229,9011103013846,新規,0,2023-12-15,2023-12-15,合同会社ｂｒｉｄｇｅｉｗａｌｋ,,合同会社,東京都,新宿区,河田町９－１９－２２０８,,13,104,1620054,,,,,,,2023-12-15,1,,,,,ブリッジイウォーク,0
2230,9011103013854,新規,0,2023-12-15,2023-12-15,合同会社Ｔｒｉｂｕｔｅ,,合同会社,東京都,新宿区,市谷本村町７番４－１８０７号,,13,104,1620845,,,,,,,2023-12-15,1,,,,,トリビュート,0
2231,9011103013862,新規,0,2023-12-15,2023-12-15,合同会社朝一,,合同会社,東京都,新宿区,高田馬場４丁目３－７ＫＳビル１０２号室,,13,104,1690075,,,,,,,2023-12-15,1,,,,,アサイチ,0
2232,9011201025116,新規,0,2023-12-15,2023-12-15,株式会社あさひキャピタルパートナーズ,,株式会社,東京都,中野区,東中野２丁目１番６号東中野ＮＨビル,,13,114,1640003,,,,,,,2023-12-15,1,,,,,アサヒキャピタルパートナーズ,0
2237,9011801043491,新規,0,2023-12-15,2023-12-15,小前塗装株式会社,,株式会社,東京都,葛飾区,東水元４丁目１５番２号,,13,122,1250033,,,,,,,2023-12-15,1,,,,,コマエトソウ,0
2238,9011801043500,新規,0,2023-12-15,2023-12-15,株式会社インテルシステム,,株式会社,東京都,足立区,日ノ出町２４番９号,,13,121,1200021,,,,,,,2023-12-15,1,,,,,インテルシステム,0
2239,9011801043509,新規,0,2023-12-15,2023-12-15,株式会社クロスピリナ,,株式会社,東京都,足立区,千住東１丁目３０番２１号,,13,121,1200025,,,,,,,2023-12-15,1,,,,,クロスピリナ,0
2241,9012301013695,新規,0,2023-12-15,2023-12-15,トライデント株式会社,,株式会社,東京都,町田市,南成瀬１丁目１９番１８号,,13,209,1940045,,,,,,,2023-12-15,1,,,,,,0
2244,9012803003252,新規,0,2023-12-15,2023-12-15,合同会社下田園芸,,合同会社,東京都,武蔵村山市,三ツ木２丁目２０番地の５,,13,223,2080032,,,,,,,2023-12-15,1,,,,,シモダエンゲイ,0
2249,9020001154842,新規,0,2023-12-15,2023-12-15,Ｔｈｕｇ　Ｌｉｆｅ株式会社,,株式会社,神奈川県,横浜市中区,末吉町１丁目６番地４コーポＫ２０３号室,,14,104,2310055,,,,,,,2023-12-15,1,,,,,サグライフ,0
2250,9020001154917,新規,0,2023-12-15,2023-12-15,株式会社建正,,株式会社,神奈川県,横浜市港南区,笹下３丁目７番２－１０８号,,14,111,2340052,,,,,,,2023-12-15,1,,,,,ケンショウ,0
2251,9020001154925,新規,0,2023-12-15,2023-12-15,株式会社ＳＴＩ,,株式会社,神奈川県,横浜市瀬谷区,中屋敷１丁目６番地４ファミーユハイツ高橋Ｂ１０２,,14,114,2460004,,,,,,,2023-12-15,1,,,,,エスティーアイ,0
2252,9020001154933,新規,0,2023-12-15,2023-12-15,株式会社ＭＡＳＡ,,株式会社,神奈川県,横浜市中区,常盤町３丁目２４サンビル７Ｆ,,14,104,2310014,,,,,,,2023-12-15,1,,,,,マサ,0
2253,9020001154941,新規,0,2023-12-15,2023-12-15,株式会社ＡＳＬＥＡＤＣＯＭ,,株式会社,神奈川県,横浜市港北区,新横浜１丁目２７番地３クレストフォルム新横浜９０３,,14,109,2220033,,,,,,,2023-12-15,1,,,,,アスリードコム,0
2258,9020003025199,新規,0,2023-12-15,2023-12-15,合同会社ソフィアエージェンシー,,合同会社,神奈川県,川崎市宮前区,土橋２丁目１３－８菱興マンション２１２,,14,136,2160005,,,,,,,2023-12-15,1,,,,,ソフィアエージェンシー,0
2259,9020005016221,新規,0,2023-12-15,2023-12-15,医療法人社団Ｒｅｌｉｅｒ,,その他の設立登記法人,神奈川県,横浜市港北区,菊名６丁目１７番１号藤和菊名ビル２０２号室,,14,109,2220011,,,,,,,2023-12-15,1,,,,,ルリエ,0
2266,9021001080987,新規,0,2023-12-15,2023-12-15,株式会社千寿園,,株式会社,神奈川県,相模原市南区,下溝１７６９番地１０,,14,153,2520335,,,,,,,2023-12-15,1,,,,,センジュエン,0
2268,9021003013912,新規,0,2023-12-15,2023-12-15,合同会社大同流通,,合同会社,神奈川県,横須賀市,平作５丁目２９番６号,,14,201,2380032,,,,,,,2023-12-15,1,,,,,ダイドウリュウツウ,0
2272,9030001157704,新規,0,2023-12-15,2023-12-15,株式会社小林舞台照明,,株式会社,埼玉県,川口市,西川口３丁目２８番８－４０３号ライオンズガーデン西川口,,11,203,3320021,,,,,,,2023-12-15,1,,,,,コバヤシブタイショウメイ,0
2273,9030001157712,新規,0,2023-12-15,2023-12-15,タムデン株式会社,,株式会社,埼玉県,さいたま市岩槻区,本丸１丁目７番１１号,,11,110,3390058,,,,,,,2023-12-15,1,,,,,タムデン,0
2274,9030001157729,新規,0,2023-12-15,2023-12-15,アップルホーム株式会社,,株式会社,埼玉県,新座市,野火止６丁目３番１２－１０５号,,11,230,3520011,,,,,,,2023-12-15,1,,,,,アップルホーム,0
2275,9030001157737,新規,0,2023-12-15,2023-12-15,株式会社ＫＹＯＧＯ,,株式会社,埼玉県,さいたま市浦和区,常盤５丁目９番１６号,,11,107,3300061,,,,,,,2023-12-15,1,,,,,キョウゴウ,0
2281,9030003023227,新規,0,2023-12-15,2023-12-15,日興商事合同会社,,合同会社,埼玉県,戸田市,喜沢１丁目３２－８アルファータワー西川口１１０１号室,,11,224,3350013,,,,,,,2023-12-15,1,,,,,ニッコウショウジ,0
2288,9040005022226,新規,0,2023-12-15,2023-12-15,医療法人社団みつば会,,その他の設立登記法人,千葉県,千葉市稲毛区,小仲台６丁目１９番２８号ＦＹＳＩＩＩビル１階,00133010,12,103,2630043,,,,,,,2023-12-15,1,,,,,ミツバカイ,0
2289,9050001053950,新規,0,2023-12-15,2023-12-15,ＡＲＴ’ｓ　ＭＥＴＡＬ株式会社,,株式会社,茨城県,常陸太田市,天神林町１２２５番地の１０２,,08,212,3130049,,,,,,,2023-12-15,1,,,,,アーツメタル,0
2290,9050001053959,新規,0,2023-12-15,2023-12-15,株式会社ｋｉｒｉｈａｒａ,,株式会社,茨城県,ひたちなか市,大字稲田１４３４番地１４サンシャインＡ棟２０３号,,08,221,3120061,,,,,,,2023-12-15,1,,,,,キリハラ,0
2291,9050001053967,新規,0,2023-12-15,2023-12-15,ＪＶライフサポート株式会社,,株式会社,茨城県,常総市,水海道本町２６１２番地３ＪＶビル３０１号,,08,211,3030026,,,,,,,2023-12-15,1,,,,,ジェイブイライフサポート,0
2294,9050003008011,新規,0,2023-12-15,2023-12-15,シナジル合同会社,,合同会社,茨城県,高萩市,大字福平２７０番地,,08,214,3180025,,,,,,,2023-12-15,1,,,,,シナジル,0
2298,9060003004843,新規,0,2023-12-15,2023-12-15,合同会社Ｉｎｉｃｉｏ,,合同会社,栃木県,宇都宮市,石井町２８００－１６３サーパスシティ石井町一番館２０９,,09,201,3210912,,,,,,,2023-12-15,1,,,,,イニシオ,0
2305,9070003005188,新規,0,2023-12-15,2023-12-15,Ｑ＆Ｎ合同会社,,合同会社,群馬県,伊勢崎市,大正寺町３４４－１リーベハイツ１０２,,10,204,3720841,,,,,,,2023-12-15,1,,,,,,0
2316,9100003007313,新規,0,2023-12-15,2023-12-15,合同会社ＬＡＮＤＰ,,合同会社,長野県,下高井郡木島平村,大字往郷５６２２番地３,,20,562,3892302,,,,,,,2023-12-15,1,,,,,ランドップ,0
2319,9110005017029,新規,0,2023-12-15,2023-12-15,一般社団法人ながおか自然エネルギー,,その他の設立登記法人,新潟県,長岡市,宮内５丁目４番４号,,15,202,9401106,,,,,,,2023-12-15,1,,,,,ナガオカシゼンエネルギー,0
2323,9120001260531,新規,0,2023-12-15,2023-12-15,株式会社Ｘｆｏｒｃｅ,,株式会社,大阪府,大阪市中央区,材木町２－３－１１０３,,27,128,5400010,,,,,,,2023-12-15,1,,,,,エクスフォース,0
2324,9120001260622,新規,0,2023-12-15,2023-12-15,上甲グループ株式会社,,株式会社,大阪府,大阪市中央区,北久宝寺町１丁目７番７－６０３号,,27,128,5410057,,,,,,,2023-12-15,1,,,,,ジョウコウグループ,0
2325,9120001260630,新規,0,2023-12-15,2023-12-15,日本平安假日旅游株式会社,,株式会社,大阪府,大阪市中央区,松屋町９番２０号ローレルステート松屋町１１０７Ａ,,27,128,5420067,,,,,,,2023-12-15,1,,,,,ニホンヘイアンカジツリョヨウ,0
2326,9120001260639,新規,0,2023-12-15,2023-12-15,株式会社ＪＴＳ,,株式会社,大阪府,大阪市西成区,天神ノ森１丁目１４番１８号,,27,122,5570013,,,,,,,2023-12-15,1,,,,,ジェーティーエス,0
2327,9120001260663,新規,0,2023-12-15,2023-12-15,株式会社恒怡,,株式会社,大阪府,大阪市北区,中之島６丁目１－３８ザ・パークハウス中之島タワー３３１０号室,,27,127,5300005,,,,,,,2023-12-15,1,,,,,コウタイ,0
2328,9120001260671,新規,0,2023-12-15,2023-12-15,株式会社Ｓｅｒｉｏ,,株式会社,大阪府,大阪市中央区,宗右衛門町４番６号ＣｒｉｃｅＮｉｋｋｏ宗右衛門町ＩＩ３階,00133021,27,128,5420084,,,,,,,2023-12-15,1,,,,,セリオ,0
2330,9120003025412,新規,0,2023-12-15,2023-12-15,合同会社バンブー,,合同会社,大阪府,守口市,金田町１丁目２０番６号,,27,209,5700011,,,,,,,2023-12-15,1,,,,,バンブー,0
2336,9120901048497,新規,0,2023-12-15,2023-12-15,株式会社キャリアウェルビーイング,,株式会社,大阪府,吹田市,広芝町１０番８号江坂薫友ビル２４２号室,,27,205,5640052,,,,,,,2023-12-15,1,,,,,キャリアウェルビーイング,0
2344,9130001075961,新規,0,2023-12-15,2023-12-15,株式会社イノリ・Ｕ,,株式会社,京都府,宇治市,木幡御蔵山３９番地の１３９７,,26,204,6110002,,,,,,,2023-12-15,1,,,,,イノリユー,0
2348,9130005016953,新規,0,2023-12-15,2023-12-15,特定非営利活動法人ｕｒｉｃｏｎｎｅｃｔ,,その他の設立登記法人,京都府,京都市中京区,小結棚町４３５番地ジェイ・プライド四条烏丸８０３号室,,26,104,6048223,,,,,,,2023-12-15,1,,,,,ウリコネクト,0
2360,9140001132687,新規,0,2023-12-15,2023-12-15,株式会社Ｏｎｃｅ　Ｅｓｔａｔｅ,,株式会社,兵庫県,神戸市東灘区,岡本４丁目９番３０号岡本センチュリーマンション４０１号室,,28,101,6580072,,,,,,,2023-12-15,1,,,,,ワンスエステート,0
2373,9180003026124,新規,0,2023-12-15,2023-12-15,合同会社Ａｌｕｃｅ,,合同会社,愛知県,名古屋市中区,錦３丁目１３番１０号,,23,106,4600003,,,,,,,2023-12-15,1,,,,,アルーチェ,0
2376,9180303005934,新規,0,2023-12-15,2023-12-15,合同会社ＥＤＥＩ,,合同会社,愛知県,豊田市,小坂本町４丁目６番地７,,23,211,4710034,,,,,,,2023-12-15,1,,,,,エデイ,0
2384,9240001062560,新規,0,2023-12-15,2023-12-15,宇環国際株式会社,,株式会社,広島県,広島市東区,牛田早稲田２丁目８番５号,,34,102,7320062,,,,,,,2023-12-15,1,,,,,ウカンコクサイ,0
2385,9240001062569,新規,0,2023-12-15,2023-12-15,株式会社森田工業,,株式会社,広島県,東広島市,黒瀬町小多田１４４番地２８,,34,212,7392501,,,,,,,2023-12-15,1,,,,,モリタコウギョウ,0
2392,9270001008890,新規,0,2023-12-15,2023-12-15,株式会社真栄運輸,,株式会社,鳥取県,鳥取市,卯垣１３０番地９,,31,201,6800074,,,,,,,2023-12-15,1,,,,,シンエイウンユ,0
2400,9290001104069,新規,0,2023-12-15,2023-12-15,株式会社ＨＫ,,株式会社,福岡県,春日市,宝町４丁目１８番地３コロナール春日ＩＩ・６０１号,00133016,40,218,8160807,,,,,,,2023-12-15,1,,,,,エイチケイ,0
2401,9290001104077,新規,0,2023-12-15,2023-12-15,株式会社火山の杜,,株式会社,福岡県,糸島市,志摩稲留１０４６番地１,,40,230,8191313,,,,,,,2023-12-15,1,,,,,ヒヤマノモリ,0
2403,9290801030134,新規,0,2023-12-15,2023-12-15,株式会社Ｂｒａｔ,,株式会社,福岡県,行橋市,泉中央２丁目７番２７号,,40,213,8240034,,,,,,,2023-12-15,1,,,,,ブラット,0
2407,9320001020188,新規,0,2023-12-15,2023-12-15,株式会社栄斗工業,,株式会社,大分県,大分市,大字中戸次５８５３番地の２,,44,201,8797761,,,,,,,2023-12-15,1,,,,,エイトコウギョウ,0
2416,9340001026142,新規,0,2023-12-15,2023-12-15,スグクル株式会社,,株式会社,鹿児島県,霧島市,隼人町松永１丁目２１１番地,,46,218,8995112,,,,,,,2023-12-15,1,,,,,スグクル,0
2418,9350001018709,新規,0,2023-12-15,2023-12-15,株式会社さとう不動産,,株式会社,宮崎県,宮崎市,中西町１６７番地１,,45,201,8800853,,,,,,,2023-12-15,1,,,,,サトウフドウサン,0
2420,9350003004525,新規,0,2023-12-15,2023-12-15,合同会社ＴＭＣ,,合同会社,宮崎県,宮崎市,大字恒久９７８番地４,,45,201,8800916,,,,,,,2023-12-15,1,,,,,ティーエムシー,0
2421,9360001032948,新規,0,2023-12-15,2023-12-15,Ｔｈｅ　Ｆａｂｕｌｏｕｓ株式会社,,株式会社,沖縄県,沖縄市,比屋根６丁目６番６号,,47,211,9042173,,,,,,,2023-12-15,1,,,,,ザファビュラス,0
2422,9370001050726,新規,0,2023-12-15,2023-12-15,株式会社Ｇｒｏｗ　Ｗｉｔｈ,,株式会社,宮城県,仙台市青葉区,宮町３丁目９番２７レゾンデートル３０１,,04,101,9800004,,,,,,,2023-12-15,1,,,,,グローウィズ,0
2423,9370001050734,新規,0,2023-12-15,2023-12-15,株式会社Ｂ．Ｃｈａｎｃｅ,,株式会社,宮城県,石巻市,中央２丁目４番２３号デュオヒルズ石巻マークス１０１,,04,202,9860822,,,,,,,2023-12-15,1,,,,,,0
2430,9390003002178,新規,0,2023-12-15,2023-12-15,天順合同会社,,合同会社,山形県,村山市,楯岡中町４－３３,,06,208,9950036,,,,,,,2023-12-15,1,,,,,テンジュン,0
2435,9420003002851,新規,0,2023-12-15,2023-12-15,合同会社花田鉄工,,合同会社,青森県,黒石市,緑町４丁目１８０番地１,,02,204,0360383,,,,,,,2023-12-15,1,,,,,ハナダテッコウ,0
2438,9430001090625,新規,0,2023-12-15,2023-12-15,ＩＬＹＡＳ　ＴＲＡＤＩＮＧ株式会社,,株式会社,北海道,赤平市,美園町５丁目７番地赤平オフィスビルＡ－１,,01,218,0791144,,,,,,,2023-12-15,1,,,,,イリヤストレーディング,0
2439,9430001090641,新規,0,2023-12-15,2023-12-15,株式会社Ｏｍａｓｉ,,株式会社,北海道,札幌市白石区,平和通８丁目南１番２４－１号,,01,104,0030028,,,,,,,2023-12-15,1,,,,,オマスィー,0
2440,9430001090666,新規,0,2023-12-15,2023-12-15,株式会社ＣＯＧＩＴＥＲＡ,,株式会社,北海道,札幌市中央区,南九条西３丁目１－８－１０１１,,01,101,0640809,,,,,,,2023-12-15,1,,,,,コギテラ,0
2444,9430003015761,新規,0,2023-12-15,2023-12-15,合同会社彩,,合同会社,北海道,札幌市中央区,北五条東五丁目５番地７０エフュート北３条４０６号,,01,101,0600000,,,,,,,2023-12-15,1,,,,,イロドリ,0
2449,9470003002533,新規,0,2023-12-15,2023-12-15,合同会社アサノ,,合同会社,香川県,丸亀市,三条町字黒嶋１５１４番地１９,,37,202,7630094,,,,,,,2023-12-15,1,,,,,アサノ,0
2457,9500001025367,新規,0,2023-12-15,2023-12-15,株式会社大街道不動産,,株式会社,愛媛県,松山市,大街道２丁目１番地３ＯＫＤ２１３ビル,,38,201,7900004,,,,,,,2023-12-15,1,,,,,オオカイドウフドウサン,0
2458,9500003003156,新規,0,2023-12-15,2023-12-15,合同会社ＦＵＮ　ＢＡＳＥ,,合同会社,愛媛県,喜多郡内子町,内子１９７３番地,,38,422,7913301,,,,,,,2023-12-15,1,,,,,ファンベース,0
2461,9500005008665,新規,0,2023-12-15,2023-12-15,一般社団法人永代先祖供養協会,,その他の設立登記法人,愛媛県,宇和島市,吉田町法花津６番耕地５６番地１,,38,203,7993742,,,,,,,2023-12-15,1,,,,,エイタイセンゾクヨウキョウカイ,0
2462,9700150122746,新規,0,2023-12-15,2023-12-15,Ｓｈｅｎｚｈｅｎｓｈｉ　Ｊｉｓｕ　Ｋｅｊｉ　Ｙｏｕｘｉａｎｇｏｎｇｓｉ,,外国会社等,,,,,,,,Ｌｏｎｇｇａｎｇ　Ｄｉｓｔｒｉｃｔ，Ｙｕａｎｓｈａｎ　Ｓｔｒｅｅｔ　Ｒｏｏｍ　３０１　Ｂｕｉｌｄｉｎｇ　Ａ，Ｃｈａｎｇｊｉａｎｇ　Ｐｕ　Ｎｏ．２　Ｒｏａｄ，Ｈｅａｏ　Ａｒｅａ　Ｓｈｅｎｚｈｅｎ　Ｇｕａｎｇｄｏｎｇ　５１８１１６　ＣＮ,,,,,,2023-12-15,1,,,,,シェンジェンシジースーカージヨウシエンゴンス,0
