sequenceNumber,corporateNumber,process,correct,updateDate,changeDate,name,nameImageId,kind,prefectureName,cityName,streetNumber,addressImageId,prefectureCode,cityCode,postCode,addressOutside,addressOutsideImageId,closeDate,closeCause,successorCorporateNumber,changeCause,assignmentDate,latest,enName,enPrefectureName,enCityName,enAddressOutside,furigana,hihyoji
2,1010001112115,登記記録の閉鎖等,0,2023-10-16,2023-10-10,ＫＳアソシエイツ株式会社,,株式会社,東京都,大田区,多摩川２丁目２４番６２号,,13,111,1460095,,,2023-10-10,清算の結了等,,,2015-10-05,1,,,,,ケーエスアソシエイツ,0
21,1010003031569,登記記録の閉鎖等,0,2023-10-16,2023-09-29,杜の都合同会社,,合同会社,東京都,港区,虎ノ門５丁目１番４号,,13,103,1050001,,,2023-09-29,清算の結了等,,,2020-02-04,1,,,,,モリノミヤコ,0
38,1010403027068,登記記録の閉鎖等,0,2023-10-16,2023-10-10,Ａｓｌａｎ合同会社,,合同会社,東京都,港区,虎ノ門４丁目１番２８号,,13,103,1050001,,,2023-10-10,清算の結了等,,,2022-02-09,1,,,,,アスラン,0
39,1010601009454,登記記録の閉鎖等,0,2023-10-16,2023-10-06,株式会社エリーゼ片岡,,株式会社,東京都,墨田区,向島１丁目１８番６号,,13,107,1310033,,,2023-10-06,清算の結了等,,,2015-10-05,1,,,,,,0
71,1011501019766,登記記録の閉鎖等,0,2023-10-16,2023-10-02,株式会社伸栄,,株式会社,東京都,荒川区,荒川１丁目１２番６号,,13,118,1160002,,,2023-10-02,清算の結了等,,,2015-10-05,1,,,,,シンエイ,0
73,1011801006547,登記記録の閉鎖等,0,2023-10-16,2023-10-11,大杉産業株式会社,,株式会社,東京都,足立区,皿沼１丁目２２番９号,,13,121,1230862,,,2023-10-11,清算の結了等,,,2015-10-05,1,,,,,オオスギサンギョウ,0
93,1020003004532,登記記録の閉鎖等,0,2023-10-16,2023-10-03,エイシャント・ウェルフェア合同会社,,合同会社,神奈川県,横浜市港北区,篠原西町２番３５号,,14,109,2220025,,,2023-10-03,清算の結了等,,,2015-10-05,1,,,,,エイシャントウェルフェア,0
103,1030001048324,登記記録の閉鎖等,0,2023-10-16,2023-09-27,株式会社ヤザワ電研,,株式会社,埼玉県,新座市,栄５丁目２番２５号,,11,230,3520014,,,2023-09-27,清算の結了等,,,2015-10-05,1,,,,,ヤザワデンケン,0
108,1030002030132,登記記録の閉鎖等,0,2023-10-16,2023-10-02,有限会社舘野製本所,,有限会社,埼玉県,所沢市,大字南永井４４１番地,,11,208,3590011,,,2023-10-02,清算の結了等,,,2015-10-05,1,,,,,タテノセイホンジョ,0
109,1030003005249,登記記録の閉鎖等,0,2023-10-16,2023-10-11,ライフテーブル合同会社,,合同会社,東京都,清瀬市,竹丘２丁目１４番１５号,,13,221,2040023,,,2023-10-11,清算の結了等,,,2015-10-05,1,,,,,ライフテーブル,0
110,1030005011088,登記記録の閉鎖等,0,2023-10-16,2023-09-27,特定非営利活動法人いきいき市民連絡会,,その他の設立登記法人,埼玉県,坂戸市,溝端町２番地１３ラミュール１０１号室,,11,239,3500274,,,2023-09-27,清算の結了等,,,2015-10-05,1,,,,,イキイキシミンレンラクカイ,0
111,1040001080508,登記記録の閉鎖等,0,2023-10-16,2023-09-29,株式会社髪型相談所,,株式会社,千葉県,印西市,結縁寺５２５－３浅海ビル１階,,12,231,2701343,,,2023-09-29,清算の結了等,,,2015-10-05,1,,,,,カミガタソウダンジョ,0
122,1050002009091,登記記録の閉鎖等,0,2023-10-16,2023-10-05,有限会社ヨコヤマ電器,,有限会社,茨城県,ひたちなか市,西大島２丁目１２番３２号,,08,221,3120041,,,2023-10-05,清算の結了等,,,2015-10-05,1,,,,,ヨコヤマデンキ,0
135,1070002026928,登記記録の閉鎖等,0,2023-10-16,2023-10-11,ＭＳ清算準備株式会社,,株式会社,群馬県,渋川市,伊香保町水沢２３３番地８,,10,208,3770103,,,2023-10-11,清算の結了等,,,2015-10-05,1,,,,,,0
139,1080102021183,登記記録の閉鎖等,0,2023-10-16,2023-10-11,有限会社ヤマモト楽器店,,有限会社,静岡県,下田市,西本郷１丁目１４番１７号,,22,219,4150036,,,2023-10-11,清算の結了等,,,2015-10-05,1,,,,,ヤマモトガッキテン,0
140,1080105005836,登記記録の閉鎖等,0,2023-10-16,2023-10-12,特定非営利活動法人わ・く・ら,,その他の設立登記法人,静岡県,沼津市,原２３９番地の２,,22,203,4100312,,,2023-10-12,清算の結了等,,,2018-03-09,1,,,,,ワクラ,0
153,1110002032112,登記記録の閉鎖等,0,2023-10-16,2023-10-12,有限会社折田電機商会,,有限会社,新潟県,小千谷市,城内１丁目６番１２号,,15,208,9470028,,,2023-10-12,清算の結了等,,,2015-10-05,1,,,,,オリタデンキショウカイ,0
195,1140003011698,登記記録の閉鎖等,0,2023-10-16,2023-10-06,合同会社麻布プロパティマネジメント,,合同会社,兵庫県,西宮市,甲陽園西山町３番１８－４０１号,,28,204,6620017,,,2023-10-06,清算の結了等,,,2016-10-27,1,,,,,アザブプロパティマネジメント,0
200,1180001025275,登記記録の閉鎖等,0,2023-10-16,2023-10-10,桐村工業株式会社,,株式会社,愛知県,名古屋市西区,野南町８３番地,,23,104,4520847,,,2023-10-10,清算の結了等,,,2015-10-05,1,,,,,キリムラコウギョウ,0
206,1180001141320,登記記録の閉鎖等,0,2023-10-16,2023-09-29,株式会社エスツェット,,株式会社,愛知県,名古屋市中区,丸の内２丁目１２番１３号,,23,106,4600002,,,2023-09-29,合併による解散等,8180001113338,令和５年９月２９日名古屋市中区丸の内二丁目１２番１３号丸の内プラザビル４階住まいのグループ株式会社（8180001113338）に合併し解散,2020-05-26,1,,,,,エスツェット,0
214,1180003022320,登記記録の閉鎖等,0,2023-10-16,2023-10-10,ＡＹサポートサービス合同会社,,合同会社,愛知県,名古屋市港区,油屋町３丁目３５番地１,,23,111,4550815,,,2023-10-10,清算の結了等,,,2021-04-07,1,,,,,エーワイサポートサービス,0
219,1180301001389,登記記録の閉鎖等,0,2023-10-16,2023-10-03,中日住宅株式会社,,株式会社,愛知県,岡崎市,上里２丁目５番地５,,23,202,4442136,,,2023-10-03,清算の結了等,,,2015-10-05,1,,,,,チュウニチジュウタク,0
220,1180301032797,登記記録の閉鎖等,0,2023-10-16,2023-10-02,株式会社イーチャプター,,株式会社,愛知県,豊田市,山之手２丁目９０番地,,23,211,4710833,,,2023-10-02,合併による解散等,6180301021845,令和５年１０月１日愛知県豊田市山之手二丁目９０番地株式会社ＧＳＰ（6180301021845）に合併し解散,2019-07-25,1,,,,,イーチャプター,0
221,1180302001256,登記記録の閉鎖等,0,2023-10-16,2023-10-03,有限会社小林化成,,有限会社,愛知県,岡崎市,在家町字上五反田８番地２,,23,202,4440245,,,2023-10-03,清算の結了等,,,2015-10-05,1,,,,,コバヤシカセイ,0
234,1220001014513,登記記録の閉鎖等,0,2023-10-16,2023-10-11,リスクマネジメントパートナーズ株式会社,,株式会社,石川県,金沢市,笠舞３丁目２２番２３号ペンシオーノケイ１０８,,17,201,9200965,,,2023-10-11,清算の結了等,,,2015-10-05,1,,,,,リスクマネジメントパートナーズ,0
236,1220001018290,登記記録の閉鎖等,0,2023-10-16,2023-10-13,株式会社ウロッカー,,株式会社,石川県,金沢市,福増町北１１０３番地,,17,201,9200376,,,2023-10-13,清算の結了等,,,2015-10-05,1,,,,,,0
239,1220001025056,登記記録の閉鎖等,0,2023-10-16,2023-10-11,丸福株式会社,,株式会社,石川県,白山市,漆島町１１３７番地,,17,210,9240835,,,2023-10-11,合併による解散等,7120001088660,令和５年１０月１日滋賀県蒲生郡日野町北脇日野第二工業団地５の２富士丸福株式会社（7120001088660）に合併し解散,2022-10-05,1,,,,,マルフク,0
244,1240001026052,登記記録の閉鎖等,0,2023-10-16,2023-10-11,株式会社繊商,,株式会社,広島県,呉市,仁方桟橋通８番６号,,34,202,7370154,,,2023-10-11,清算の結了等,,,2015-10-05,1,,,,,センショウ,0
245,1240001057469,登記記録の閉鎖等,0,2023-10-16,2023-10-10,Ｘ　ＢＡＮＫ株式会社,,株式会社,東京都,品川区,北品川２丁目６番５号,,13,109,1400001,,,2023-10-10,清算の結了等,,,2021-02-25,1,,,,,エックスバンク,0
250,1240002053500,登記記録の閉鎖等,0,2023-10-16,2023-10-10,有限会社白馬車,,有限会社,広島県,三原市,港町３丁目２０番１２号,,34,204,7230017,,,2023-10-10,清算の結了等,,,2015-10-05,1,,,,,シロバシャ,0
251,1250001020203,登記記録の閉鎖等,0,2023-10-16,2023-09-12,宇部製鋼株式会社,,株式会社,山口県,宇部市,西本町１丁目１２番３２号,,35,202,7550052,,,2023-09-12,清算の結了等,,,2023-08-21,1,,,,,ウベセイコウ,0
254,1260002030480,登記記録の閉鎖等,0,2023-10-16,2023-10-10,有限会社山陽林業,,有限会社,岡山県,美作市,中山８００番地９,,33,215,7070061,,,2023-10-10,清算の結了等,,,2015-10-05,1,,,,,サンヨウリンギョウ,0
258,1290001071507,登記記録の閉鎖等,0,2023-10-16,2023-10-02,エネ・シードウィンド株式会社,,株式会社,福岡県,福岡市博多区,千代１丁目１７番１号,,40,132,8120044,,,2023-10-02,合併による解散等,7290001059158,令和５年１０月１日福岡市博多区千代一丁目１７番１号エネ・シード株式会社（7290001059158）に合併し解散,2015-10-05,1,,,,,エネシードウィンド,0
261,1290001091117,登記記録の閉鎖等,0,2023-10-16,2023-10-02,株式会社アンティークの庭,,株式会社,福岡県,八女市,岩崎１４３番地３,,40,210,8340062,,,2023-10-02,清算の結了等,,,2020-12-15,1,,,,,アンティークノニワ,0
306,1410001010559,登記記録の閉鎖等,0,2023-10-16,2023-10-05,株式会社仙北技研工業,,株式会社,秋田県,仙北市,西木町上桧木内字大地田２７番地２,,05,215,0140601,,,2023-10-05,清算の結了等,,,2015-10-05,1,,,,,センボクギケンコウギョウ,0
309,1430002048704,登記記録の閉鎖等,0,2023-10-16,2023-10-02,有限会社東洋商事,,有限会社,北海道,苫小牧市,新開町３丁目１１番４号,,01,213,0530052,,,2023-10-02,清算の結了等,,,2015-10-05,1,,,,,トウヨウショウジ,0
317,1470002008150,登記記録の閉鎖等,0,2023-10-16,2023-10-12,有限会社渡辺産業,,有限会社,香川県,高松市,浜ノ町６０番６７－５１３号,,37,201,7600011,,,2023-10-12,清算の結了等,,,2015-10-05,1,,,,,,0
318,1480002015377,登記記録の閉鎖等,0,2023-10-16,2023-10-12,有限会社石川,,有限会社,徳島県,三好市,池田町佐野佐太恵６８８番地,,36,208,7785253,,,2023-10-12,清算の結了等,,,2015-10-05,1,,,,,イシカワ,0
343,2010401011031,登記記録の閉鎖等,0,2023-10-16,2023-10-02,株式会社サンケイエンジニアサービス,,株式会社,東京都,港区,東麻布３丁目６番５号麻布ビル１０２号,,13,103,1060044,,,2023-10-02,清算の結了等,,,2015-10-05,1,,,,,サンケイエンジニアサービス,0
344,2010401052604,登記記録の閉鎖等,0,2023-10-16,2023-10-05,西郷エンタープライズ株式会社,,株式会社,東京都,世田谷区,瀬田４丁目１１番２９号,,13,112,1580095,,,2023-10-05,清算の結了等,,,2015-10-05,1,,,,,サイゴウエンタープライズ,0
349,2010401083987,登記記録の閉鎖等,0,2023-10-16,2023-09-28,インプレサリオ株式会社,,株式会社,東京都,港区,南青山２丁目２番１５号ウィン青山１３１７号,,13,103,1070062,,,2023-09-28,清算の結了等,,,2015-10-05,1,,,,,インプレサリオ,0
358,2010701008074,登記記録の閉鎖等,0,2023-10-16,2023-10-10,株式会社八興,,株式会社,東京都,品川区,西大井１丁目１番１－１０１号,,13,109,1400015,,,2023-10-10,清算の結了等,,,2015-10-05,1,,,,,ハッコウ,0
384,2011101036310,登記記録の閉鎖等,0,2023-10-16,2023-10-12,株式会社ヤック,,株式会社,東京都,新宿区,西新宿１丁目１１番１１号河野ビル１階,,13,104,1600023,,,2023-10-12,清算の結了等,,,2015-10-05,1,,,,,ヤック,0
395,2011305002141,登記記録の閉鎖等,0,2023-10-16,2023-10-05,特定非営利活動法人杉並ポプラの会,,その他の設立登記法人,東京都,杉並区,方南１丁目１１番６号,,13,115,1680062,,,2023-10-05,清算の結了等,,,2015-10-05,1,,,,,スギナミポプラノカイ,0
402,2011803003228,登記記録の閉鎖等,0,2023-10-16,2023-10-12,合同会社ｗｉｎｆｉｎｉｔｙ,,合同会社,東京都,足立区,中川４丁目２３番１９号,,13,121,1200002,,,2023-10-12,清算の結了等,,,2018-03-19,1,,,,,ウィンフィニティ,0
404,2012401010319,登記記録の閉鎖等,0,2023-10-16,2023-10-03,日本宝飾株式会社,,株式会社,神奈川県,川崎市多摩区,菅北浦３丁目１３番３４号,,14,135,2140008,,,2023-10-03,清算の結了等,,,2015-10-05,1,,,,,ニホンホウショク,0
408,2012402002967,登記記録の閉鎖等,0,2023-10-16,2023-10-10,有限会社ワークス,,有限会社,東京都,府中市,新町１丁目７５番２０号,,13,206,1830052,,,2023-10-10,清算の結了等,,,2015-10-05,1,,,,,ワークス,0
427,2020002018037,登記記録の閉鎖等,0,2023-10-16,2023-10-04,有限会社石村屋,,有限会社,神奈川県,横浜市港南区,上大岡西１丁目１８番５号,,14,111,2330002,,,2023-10-04,清算の結了等,,,2015-10-05,1,,,,,イシムラヤ,0
432,2021001006858,登記記録の閉鎖等,0,2023-10-16,2023-10-05,相模緑生株式会社,,株式会社,神奈川県,高座郡寒川町,中瀬８番２５号ＴＲＡＤサンリバーＣ－２０２号,,14,321,2530112,,,2023-10-05,清算の結了等,,,2015-10-05,1,,,,,サガミリョクセイ,0
478,2070001002813,登記記録の閉鎖等,0,2023-10-16,2023-10-11,ＦＳ清算準備株式会社,,株式会社,群馬県,前橋市,泉沢町１２５０番地２,,10,201,3792101,,,2023-10-11,清算の結了等,,,2015-10-05,1,,,,,,0
487,2080102011720,登記記録の閉鎖等,0,2023-10-16,2023-10-11,有限会社水口,,有限会社,静岡県,三島市,一番町４番６号,,22,206,4110036,,,2023-10-11,清算の結了等,,,2015-10-05,1,,,,,ミズグチ,0
488,2080102017429,登記記録の閉鎖等,0,2023-10-16,2023-10-10,有限会社ヨネヤマヒヤリングセンター,,有限会社,静岡県,富士宮市,中原町１４５番地,,22,207,4180002,,,2023-10-10,清算の結了等,,,2015-10-05,1,,,,,ヨネヤマヒヤリングセンター,0
489,2080401002239,登記記録の閉鎖等,0,2023-10-16,2023-10-13,株式会社ＪＳ,,株式会社,静岡県,浜松市中区,神田町５１８番地,,22,131,4328047,,,2023-10-13,清算の結了等,,,2015-10-05,1,,,,,ジェイエス,0
491,2100001025884,登記記録の閉鎖等,0,2023-10-16,2023-10-03,株式会社日ラボ,,株式会社,長野県,北佐久郡軽井沢町,大字軽井沢１３７２番地２００,,20,321,3890102,,,2023-10-03,清算の結了等,,,2015-10-05,1,,,,,ニチラボ,0
502,2120001216738,登記記録の閉鎖等,0,2023-10-16,2023-10-03,株式会社ＧｒｏｕｎｄＷｏｒｋｓ,,株式会社,大阪府,吹田市,江の木町１７番２０号２階,,27,205,5640053,,,2023-10-03,清算の結了等,,,2018-10-25,1,,,,,グラウンドワークス,0
507,2120002034214,登記記録の閉鎖等,0,2023-10-16,2023-10-03,有限会社インク・アンド・カンパニー,,有限会社,大阪府,大阪市中央区,釣鐘町２丁目１番４－４０２号,,27,128,5400035,,,2023-10-03,清算の結了等,,,2015-10-05,1,,,,,インクアンドカンパニー,0
508,2120002073245,登記記録の閉鎖等,0,2023-10-16,2023-10-06,有限会社ヤマタカ,,有限会社,大阪府,寝屋川市,香里本通町６番２５号,,27,215,5720082,,,2023-10-06,清算の結了等,,,2015-10-05,1,,,,,ヤマタカ,0
521,2130001021014,登記記録の閉鎖等,0,2023-10-16,2023-10-03,株式会社ジェイ・ワーク,,株式会社,京都府,京都市中京区,東洞院御池下ル笹屋町４３６番地,,26,104,6040000,,,2023-10-03,清算の結了等,,,2015-10-05,1,,,,,ジェイワーク,0
524,2130003002854,登記記録の閉鎖等,0,2023-10-16,2023-10-03,合同会社隼希,,合同会社,京都府,京丹後市,峰山町荒山２１１５番地,,26,212,6270004,,,2023-10-03,清算の結了等,,,2015-10-05,1,,,,,,0
529,2140002020402,登記記録の閉鎖等,0,2023-10-16,2023-10-10,有限会社紳晨,,有限会社,兵庫県,神戸市垂水区,高丸７丁目３番１０－１０８号,,28,108,6550016,,,2023-10-10,清算の結了等,,,2015-10-05,1,,,,,シンシン,0
531,2140002035895,登記記録の閉鎖等,0,2023-10-16,2023-10-10,眞鋭産業有限会社,,有限会社,兵庫県,高砂市,高砂町栄町３７３－１３高砂ハイツ８０６号,,28,216,6760038,,,2023-10-10,清算の結了等,,,2015-10-05,1,,,,,シンエイサンギョウ,0
534,2140002056041,登記記録の閉鎖等,0,2023-10-16,2023-10-10,有限会社回生,,有限会社,兵庫県,西宮市,苦楽園一番町１番２７－２０６号,,28,204,6620083,,,2023-10-10,清算の結了等,,,2015-10-05,1,,,,,カイセイ,0
536,2180001013155,登記記録の閉鎖等,0,2023-10-16,2023-10-10,株式会社ニューオート東新,,株式会社,愛知県,名古屋市北区,辻町３丁目１番地,00071865,23,103,4620032,,,2023-10-10,清算の結了等,,,2015-10-05,1,,,,,ニューオートトウシン,0
537,2180001024838,登記記録の閉鎖等,0,2023-10-16,2023-10-10,株式会社梅本,,株式会社,愛知県,名古屋市西区,歌里町２９２番地の２,,23,104,4520807,,,2023-10-10,清算の結了等,,,2015-10-05,1,,,,,ウメモト,0
540,2180001079304,登記記録の閉鎖等,0,2023-10-16,2023-09-26,株式会社美美蘭,,株式会社,愛知県,瀬戸市,下半田川町１２３番地,,23,204,4801202,,,2023-09-26,清算の結了等,,,2015-10-05,1,,,,,ミミラン,0
546,2180001128481,登記記録の閉鎖等,0,2023-10-16,2023-09-29,住まいのコンサルティング株式会社,,株式会社,愛知県,名古屋市中区,丸の内２丁目１２番１３号丸の内プラザビル４階,,23,106,4600002,,,2023-09-29,合併による解散等,8180001113338,令和５年９月２９日名古屋市中区丸の内二丁目１２番１３号丸の内プラザビル４階住まいのグループ株式会社（8180001113338）に合併し解散,2017-07-04,1,,,,,スマイノコンサルティング,0
554,2180003005679,登記記録の閉鎖等,0,2023-10-16,2023-10-05,株式会社萬代,,株式会社,愛知県,名古屋市昭和区,向山町２丁目５３番地,,23,107,4660829,,,2023-10-05,合併による解散等,8180001040879,令和５年１０月１日名古屋市昭和区向山町二丁目５３番地萬代インテリア株式会社（8180001040879）に合併し解散,2015-10-05,1,,,,,バンダイ,0
556,2180003020819,登記記録の閉鎖等,0,2023-10-16,2023-10-10,合同会社テラ,,合同会社,愛知県,名古屋市千種区,内山３丁目１３番１２号シャンボール千種３０１号,,23,101,4640075,,,2023-10-10,清算の結了等,,,2020-02-06,1,,,,,テラ,0
557,2190002008698,登記記録の閉鎖等,0,2023-10-16,2023-10-11,有限会社イー・サイド,,有限会社,三重県,伊勢市,船江４丁目１０番１１号,,24,203,5160008,,,2023-10-11,清算の結了等,,,2015-10-05,1,,,,,イーサイド,0
568,2290001071836,登記記録の閉鎖等,0,2023-10-16,2023-10-02,株式会社リプロ,,株式会社,福岡県,福岡市中央区,大手門３丁目８番１６号,,40,133,8100074,,,2023-10-02,合併による解散等,3290001058155,令和５年１０月１日福岡市中央区大手門三丁目８番１６号株式会社アパックスホーム（3290001058155）に合併し解散,2015-11-05,1,,,,,,0
576,2290002046903,登記記録の閉鎖等,0,2023-10-16,2023-10-02,有限会社グリーンエアー,,有限会社,福岡県,飯塚市,楽市１５６番地,,40,205,8200074,,,2023-10-02,清算の結了等,,,2015-10-05,1,,,,,グリーンエアー,0
587,2330002020457,登記記録の閉鎖等,0,2023-10-16,2023-10-04,有限会社秀邦社,,有限会社,熊本県,上益城郡益城町,大字古閑５１番地８,,43,443,8612234,,,2023-10-04,清算の結了等,,,2015-10-05,1,,,,,シュウホウシャ,0
626,2470001006427,登記記録の閉鎖等,0,2023-10-16,2023-10-11,西川不動産高松株式会社,,株式会社,香川県,高松市,新北町１０番１８－６０１号,,37,201,7600001,,,2023-10-11,清算の結了等,,,2015-10-05,1,,,,,ニシカワフドウサンタカマツ,0
630,2470003000279,登記記録の閉鎖等,0,2023-10-16,2023-10-03,合資会社ライズ,,合資会社,香川県,木田郡三木町,大字氷上２６７９番地２,,37,341,7610612,,,2023-10-03,清算の結了等,,,2015-10-05,1,,,,,ライズ,0
658,3010005023769,登記記録の閉鎖等,0,2023-10-16,2023-10-11,一般社団法人ＦｉＭＡ,,その他の設立登記法人,東京都,文京区,小日向４丁目５－１６ツインヒルズ茗荷谷２階株式会社ｓｍａｒｔ－ＦＯＡ社内,,13,105,1120006,,,2023-10-11,清算の結了等,,,2015-10-05,1,,,,,フィーマ,0
689,3011001065937,登記記録の閉鎖等,0,2023-10-16,2023-10-03,株式会社アイティーシー,,株式会社,東京都,北区,田端６丁目１番１号,,13,117,1140014,,,2023-10-03,合併による解散等,6013301007533,令和５年９月３０日東京都北区田端六丁目１番１号株式会社ティー・アイ・エル（6013301007533）に合併し解散,2015-10-05,1,,,,,,0
698,3011003016517,登記記録の閉鎖等,0,2023-10-16,2023-10-10,合同会社ひなりゅう,,合同会社,東京都,渋谷区,円山町５番５号Ｎａｖｉ渋谷Ｖ３階,,13,113,1500044,,,2023-10-10,清算の結了等,,,2023-03-27,1,,,,,ヒナリュウ,0
709,3011501006399,登記記録の閉鎖等,0,2023-10-16,2023-10-05,小島産業株式会社,,株式会社,東京都,荒川区,東尾久１丁目１９番１０号,,13,118,1160012,,,2023-10-05,清算の結了等,,,2015-10-05,1,,,,,,0
745,3030001115163,登記記録の閉鎖等,0,2023-10-16,2023-09-22,株式会社フレア,,株式会社,埼玉県,所沢市,大字松郷２３０番地の１０,,11,208,3590027,,,2023-09-22,清算の結了等,,,2016-07-05,1,,,,,フレア,0
748,3030001129403,登記記録の閉鎖等,0,2023-10-16,2023-10-02,株式会社ケーエスプロジェクト,,株式会社,埼玉県,日高市,大字高富５１番地８,,11,242,3501223,,,2023-10-02,清算の結了等,,,2019-02-08,1,,,,,ケーエスプロジェクト,0
752,3030002067726,登記記録の閉鎖等,0,2023-10-16,2023-09-27,有限会社アローメンテナンス,,有限会社,埼玉県,春日部市,備後西２丁目９番３４号,,11,214,3440033,,,2023-09-27,清算の結了等,,,2015-10-05,1,,,,,アローメンテナンス,0
753,3030002093433,登記記録の閉鎖等,0,2023-10-16,2023-10-02,有限会社ダズリング,,有限会社,埼玉県,鶴ヶ島市,大字脚折１５２０番地４１,,11,241,3502213,,,2023-10-02,清算の結了等,,,2015-10-05,1,,,,,ダズリング,0
778,3060002029442,登記記録の閉鎖等,0,2023-10-16,2023-10-10,有限会社武藤商会,,有限会社,栃木県,小山市,大字松沼５１８番地８,,09,208,3230007,,,2023-10-10,清算の結了等,,,2015-10-05,1,,,,,ムトウショウカイ,0
783,3070001033948,登記記録の閉鎖等,0,2023-10-16,2023-10-11,株式会社ＮＥＯ　ＫＩＣＫ,,株式会社,群馬県,前橋市,西善町６７６番地１,,10,201,3792131,,,2023-10-11,清算の結了等,,,2017-09-19,1,,,,,,0
784,3070002030787,登記記録の閉鎖等,0,2023-10-16,2023-10-10,有限会社フジテープ,,有限会社,群馬県,太田市,新井町５１３番地の４,,10,205,3730852,,,2023-10-10,清算の結了等,,,2015-10-05,1,,,,,フジテープ,0
797,3100001014688,登記記録の閉鎖等,0,2023-10-16,2023-10-02,インディ株式会社,,株式会社,長野県,安曇野市,穂高有明９９７３番地１,,20,220,3998301,,,2023-10-02,合併による解散等,1100001015069,令和５年１０月１日長野県安曇野市穂高有明９９７３番地１株式会社印出（1100001015069）に合併し解散,2015-10-05,1,,,,,インディ,0
810,3120001206110,登記記録の閉鎖等,0,2023-10-16,2023-10-10,株式会社カラーズ,,株式会社,大阪府,大阪市浪速区,難波中１丁目３番１７号,,27,111,5560011,,,2023-10-10,清算の結了等,,,2017-06-01,1,,,,,カラーズ,0
829,3140001023264,登記記録の閉鎖等,0,2023-10-16,2023-10-10,株式会社オフィス遊夢,,株式会社,兵庫県,神戸市北区,藤原台北町５丁目３番４－１０３号,,28,109,6511301,,,2023-10-10,清算の結了等,,,2015-10-05,1,,,,,オフィスユウム,0
833,3140001054499,登記記録の閉鎖等,0,2023-10-16,2023-10-06,株式会社Ｙ＆Ｓ　ＪＡＰＡＮ,,株式会社,兵庫県,尼崎市,東難波町３丁目１９番２３号,,28,202,6600892,,,2023-10-06,清算の結了等,,,2015-10-05,1,,,,,ワイアンドエスジャパン,0
840,3140002005807,登記記録の閉鎖等,0,2023-10-16,2023-10-10,有限会社キングカメラ,,有限会社,兵庫県,神戸市垂水区,天ノ下町１番１－１６８号,,28,108,6550029,,,2023-10-10,清算の結了等,,,2015-10-05,1,,,,,キングカメラ,0
841,3140002015673,登記記録の閉鎖等,0,2023-10-16,2023-10-10,有限会社フキアイ薬品,,有限会社,兵庫県,神戸市中央区,南本町通６丁目２番２０号,,28,110,6510074,,,2023-10-10,清算の結了等,,,2015-10-05,1,,,,,フキアイヤクヒン,0
846,3170002008518,登記記録の閉鎖等,0,2023-10-16,2023-10-12,有限会社サンサール,,有限会社,和歌山県,紀の川市,粉河６２２番地９０,,30,208,6496531,,,2023-10-12,清算の結了等,,,2015-10-05,1,,,,,サンサール,0
849,3180001055733,登記記録の閉鎖等,0,2023-10-16,2023-10-05,バンガード株式会社,,株式会社,愛知県,名古屋市昭和区,向山町２丁目５３番地,,23,107,4660829,,,2023-10-05,合併による解散等,8180001040879,令和５年１０月１日名古屋市昭和区向山町二丁目５３番地萬代インテリア株式会社（8180001040879）に合併し解散,2015-10-05,1,,,,,バンガード,0
855,3180001149493,登記記録の閉鎖等,0,2023-10-16,2023-10-05,株式会社ＲＵＮ,,株式会社,愛知県,名古屋市千種区,田代本通２丁目１,,23,101,4640827,,,2023-10-05,清算の結了等,,,2022-01-14,1,,,,,ラン,0
864,3180003016023,登記記録の閉鎖等,0,2023-10-16,2023-10-06,合同会社リサイクルトラスト,,合同会社,愛知県,名古屋市西区,長先町２,,23,104,4520838,,,2023-10-06,清算の結了等,,,2015-10-05,1,,,,,リサイクルトラスト,0
871,3200005001160,登記記録の閉鎖等,0,2023-10-16,2023-10-13,協同組合岐阜長良縫製技術協会,,その他の設立登記法人,岐阜県,岐阜市,忠節町１丁目１８番地,,21,201,5008801,,,2023-10-13,清算の結了等,,,2015-10-05,1,,,,,ギフナガラホウセイギジュツキョウカイ,0
890,3290801026815,登記記録の閉鎖等,0,2023-10-16,2023-10-10,株式会社Ｂｅｓｔ　Ｐｏｒｋ,,株式会社,福岡県,遠賀郡水巻町,古賀２丁目２番７号,,40,382,8070012,,,2023-10-10,合併による解散等,5290802016350,令和５年１０月１日福岡県遠賀郡水巻町古賀二丁目２番７号株式会社おんどる（5290802016350）に合併し解散,2020-09-16,1,,,,,ベストポーク,0
899,3350003004002,登記記録の閉鎖等,0,2023-10-16,2023-10-06,合同会社ダイワハウジング,,合同会社,宮崎県,宮崎市,大字新名爪８番地９２,,45,201,8800124,,,2023-10-06,清算の結了等,,,2022-01-07,1,,,,,ダイワハウジング,0
921,3380002028172,登記記録の閉鎖等,0,2023-10-16,2023-10-05,エフ・デー・エイ有限会社,,有限会社,福島県,南相馬市,原町区牛来字石橋１番地の２,,07,212,9750051,,,2023-10-05,清算の結了等,,,2015-10-05,1,,,,,エフデーエイ,0
926,3430001079772,登記記録の閉鎖等,0,2023-10-16,2023-10-02,北海道電力コクリエーション株式会社,,株式会社,北海道,札幌市中央区,北一条東３丁目１番地の１,,01,101,0600031,,,2023-10-02,合併による解散等,4430001022351,令和５年１０月１日札幌市中央区大通東一丁目２番地北海道電力株式会社（4430001022351）に合併し解散,2019-09-04,1,,,,,ホッカイドウデンリョクコクリエーション,0
929,3430002000126,登記記録の閉鎖等,0,2023-10-16,2023-10-02,有限会社青木商事,,有限会社,北海道,札幌市中央区,大通西１２丁目４番地,,01,101,0600042,,,2023-10-02,合併による解散等,8430001029863,令和５年１０月１日札幌市中央区大通西十丁目４番地ダンロップＳＫビル株式会社ハイチエイジェント（8430001029863）に合併し解散,2015-10-05,1,,,,,アオキショウジ,0
930,3430002030817,登記記録の閉鎖等,0,2023-10-16,2023-10-02,有限会社アーバンビュー,,有限会社,北海道,札幌市白石区,北郷二条７丁目６番８号,,01,104,0030832,,,2023-10-02,清算の結了等,,,2015-10-05,1,,,,,アーバンビュー,0
939,3500005007301,登記記録の閉鎖等,0,2023-10-16,2023-10-13,特定非営利活動法人えひめリソースセンター,,その他の設立登記法人,愛媛県,松山市,東一万町２番地,,38,201,7900871,,,2023-10-13,清算の結了等,,,2015-10-05,1,,,,,エヒメリソースセンター,0
954,4010003026772,登記記録の閉鎖等,0,2023-10-16,2023-10-02,合同会社クリスタ,,合同会社,東京都,中央区,日本橋１丁目４番１号日本橋一丁目ビルディング,,13,102,1030027,,,2023-10-02,清算の結了等,,,2018-01-16,1,,,,,クリスタ,0
959,4010005023727,登記記録の閉鎖等,0,2023-10-16,2023-10-12,一般社団法人日本ワークライフバランスサポート協会,,その他の設立登記法人,東京都,千代田区,九段南１丁目５－６りそな九段ビル５Ｆ,,13,101,1020074,,,2023-10-12,清算の結了等,,,2015-10-05,1,,,,,ニホンワークライフバランスサポートキョウカイ,0
961,4010401020864,登記記録の閉鎖等,0,2023-10-16,2023-10-11,株式会社東京フイルム・メート,,株式会社,東京都,港区,赤坂７丁目１番１６号オーク赤坂ビル７階,,13,103,1070052,,,2023-10-11,合併による解散等,7010401067853,令和５年１０月１日東京都江東区青海一丁目１番２０号株式会社フジ・メディア・テクノロジー（7010401067853）に合併し解散,2015-10-05,1,,,,,トウキョウフイルムメート,0
967,4010401124434,登記記録の閉鎖等,0,2023-10-16,2023-10-02,スター・マイカ・アセット・パートナーズ２株式会社,,株式会社,東京都,港区,虎ノ門４丁目３番１号,,13,103,1050001,,,2023-10-02,合併による解散等,9010401128562,令和５年１０月１日東京都港区虎ノ門四丁目３番１号スター・マイカ・アセット・パートナーズ株式会社（9010401128562）に合併し解散,2016-05-02,1,,,,,スターマイカアセットパートナーズツー,0
969,4010401150678,登記記録の閉鎖等,0,2023-10-16,2023-09-29,株式会社ｓｐｒ－ａｉ,,株式会社,東京都,港区,南青山２丁目２－１５Ｗｉｎ－ａｏｙａｍａビルＵＣＦ６３５,,13,103,1070062,,,2023-09-29,清算の結了等,,,2020-01-29,1,,,,,スプレー,0
975,4010501024880,登記記録の閉鎖等,0,2023-10-16,2023-10-10,株式会社福田ゴム,,株式会社,東京都,台東区,東上野１丁目９番１号,,13,106,1100015,,,2023-10-10,清算の結了等,,,2015-10-05,1,,,,,フクダゴム,0
990,4011001040947,登記記録の閉鎖等,0,2023-10-16,2023-10-06,株式会社ナック,,株式会社,東京都,渋谷区,恵比寿西２丁目３番９号,,13,113,1500021,,,2023-10-06,清算の結了等,,,2015-10-05,1,,,,,ナック,0
1002,4011001144979,登記記録の閉鎖等,0,2023-10-16,2023-10-06,生薬ラボ株式会社,,株式会社,東京都,渋谷区,道玄坂１丁目１０番８号渋谷道玄坂東急ビル２Ｆ－Ｃ,,13,113,1500043,,,2023-10-06,清算の結了等,,,2022-01-14,1,,,,,ショウヤクラボ,0
1012,4011101091774,登記記録の閉鎖等,0,2023-10-16,2023-10-11,株式会社コンサルタント,,株式会社,東京都,新宿区,百人町２丁目２１番２８号クラ３３ビル１０１号室,,13,104,1690073,,,2023-10-11,清算の結了等,,,2020-07-07,1,,,,,コンサルタント,0
1023,4011502015571,登記記録の閉鎖等,0,2023-10-16,2023-10-05,有限会社ときわ食品,,有限会社,東京都,荒川区,南千住７丁目２３番５号,,13,118,1160003,,,2023-10-05,清算の結了等,,,2015-10-05,1,,,,,,0
1024,4011601006884,登記記録の閉鎖等,0,2023-10-16,2023-10-11,株式会社メッツ,,株式会社,東京都,練馬区,関町南２丁目３番２０号サザンクロスプラザ５０１号室,,13,120,1770053,,,2023-10-11,清算の結了等,,,2015-10-05,1,,,,,メッツ,0
1047,4020002082329,登記記録の閉鎖等,0,2023-10-16,2023-10-03,有限会社正木屋金物店,,有限会社,神奈川県,川崎市幸区,鹿島田３丁目７番７号,,14,132,2120058,,,2023-10-03,清算の結了等,,,2015-10-05,1,,,,,マサキヤカナモノテン,0
1051,4021001044658,登記記録の閉鎖等,0,2023-10-16,2023-10-05,株式会社ＲＥＴＥＣ,,株式会社,神奈川県,横須賀市,長井３丁目４５番７号,,14,201,2380316,,,2023-10-05,清算の結了等,,,2015-10-05,1,,,,,リテック,0
1077,4040001083680,登記記録の閉鎖等,0,2023-10-16,2023-09-29,株式会社島商,,株式会社,千葉県,大網白里市,上貝塚４４５番地２０,,12,239,2993265,,,2023-09-29,清算の結了等,,,2015-10-05,1,,,,,シマショウ,0
1080,4040001118239,登記記録の閉鎖等,0,2023-10-16,2023-09-29,株式会社おゆみ野工房,,株式会社,千葉県,千葉市緑区,辺田町１５２番地１,,12,105,2660007,,,2023-09-29,清算の結了等,,,2021-04-30,1,,,,,オユミノコウボウ,0
1094,4050001019122,登記記録の閉鎖等,0,2023-10-16,2023-10-04,三和技研株式会社,,株式会社,茨城県,古河市,東山田１５９０番地,,08,204,3060112,,,2023-10-04,清算の結了等,,,2015-10-05,1,,,,,サンワギケン,0
1096,4050002025474,登記記録の閉鎖等,0,2023-10-16,2023-10-05,有限会社鵜沼樹脂工業,,有限会社,茨城県,古河市,諸川２２０２番地の４,,08,204,3060126,,,2023-10-05,清算の結了等,,,2015-10-05,1,,,,,ウヌマジュシコウギョウ,0
1101,4080001019813,登記記録の閉鎖等,0,2023-10-16,2023-10-03,株式会社アイーラ,,株式会社,神奈川県,横浜市青葉区,美しが丘１丁目１３番地１０吉村ビル１０７号,,14,117,2250002,,,2023-10-03,清算の結了等,,,2015-10-05,1,,,,,アイーラ,0
1108,4100001010389,登記記録の閉鎖等,0,2023-10-16,2023-10-04,吉岡建設株式会社,,株式会社,長野県,上田市,上塩尻３２０番地,,20,203,3860042,,,2023-10-04,清算の結了等,,,2015-10-05,1,,,,,ヨシオカケンセツ,0
1109,4100003000784,登記記録の閉鎖等,0,2023-10-16,2023-10-04,東信商事合同会社,,合同会社,長野県,佐久市,御馬寄２番地,,20,217,3842103,,,2023-10-04,清算の結了等,,,2015-10-05,1,,,,,トウシンショウジ,0
1115,4120001041886,登記記録の閉鎖等,0,2023-10-16,2023-10-05,株式会社エムアンドエヌ企画,,株式会社,大阪府,大阪市中央区,平野町２丁目２番１４号,,27,128,5410046,,,2023-10-05,清算の結了等,,,2015-10-05,1,,,,,エムアンドエヌキカク,0
1117,4120001076718,登記記録の閉鎖等,0,2023-10-16,2023-10-10,オリオン興業株式会社,,株式会社,東京都,武蔵野市,吉祥寺本町１丁目８番３号,,13,203,1800004,,,2023-10-10,清算の結了等,,,2015-10-05,1,,,,,オリオンコウギョウ,0
1128,4120002052750,登記記録の閉鎖等,0,2023-10-16,2023-10-11,有限会社邦実興産,,有限会社,大阪府,大阪市港区,夕凪１丁目１６番２９号ビ・アット夕凪２０３号,,27,107,5520004,,,2023-10-11,清算の結了等,,,2015-10-05,1,,,,,ホウジツコウサン,0
1134,4120005022494,登記記録の閉鎖等,0,2023-10-16,2023-10-10,一般社団法人健青会,,その他の設立登記法人,大阪府,大阪市天王寺区,上本町６丁目９番１０号,,27,109,5430001,,,2023-10-10,清算の結了等,,,2021-09-08,1,,,,,ケンセイカイ,0
1136,4120902014783,登記記録の閉鎖等,0,2023-10-16,2023-10-05,有限会社ペットゾーンシースリー,,有限会社,大阪府,池田市,栄町１番１号,,27,204,5630056,,,2023-10-05,清算の結了等,,,2015-10-05,1,,,,,ペットゾーンシースリー,0
1152,4140003016678,登記記録の閉鎖等,0,2023-10-16,2023-10-10,ＩＨＦ合同会社,,合同会社,兵庫県,尼崎市,御園町２４番尼崎第一ビル４０２号,,28,202,6600861,,,2023-10-10,清算の結了等,,,2021-09-01,1,,,,,アイエイチエフ,0
1174,4180002016163,登記記録の閉鎖等,0,2023-10-16,2023-10-06,有限会社星陶園,,有限会社,愛知県,名古屋市守山区,小幡中３丁目２７番３９号,,23,113,4630013,,,2023-10-06,清算の結了等,,,2015-10-05,1,,,,,ホシトウエン,0
1176,4180002063585,登記記録の閉鎖等,0,2023-10-16,2023-10-12,有限会社ルーブル,,有限会社,愛知県,長久手市,井堀１２０６番地,,23,238,4801143,,,2023-10-12,清算の結了等,,,2015-10-05,1,,,,,ルーブル,0
1184,4190005011004,登記記録の閉鎖等,0,2023-10-16,2023-10-12,一般社団法人障がい者アグリ就労人材センター,,その他の設立登記法人,三重県,鈴鹿市,安塚町９７３番地１,,24,207,5130818,,,2023-10-12,清算の結了等,,,2016-12-27,1,,,,,ショウガイシャアグリシュウロウジンザイセンター,0
1190,4200005012545,登記記録の閉鎖等,0,2023-10-16,2023-10-16,一般社団法人ケア人間関係研究所,,その他の設立登記法人,岐阜県,岐阜市,雄総桜町４丁目２３番地,,21,201,5020016,,,2023-10-16,清算の結了等,,,2016-09-26,1,,,,,ケアニンゲンカンケイケンキュウジョ,0
1203,4240002053992,登記記録の閉鎖等,0,2023-10-16,2023-10-11,有限会社丸福運送,,有限会社,広島県,三原市,本郷町船木１５３８番地１,,34,204,7290411,,,2023-10-11,清算の結了等,,,2015-10-05,1,,,,,マルフクウンソウ,0
1206,4260001009639,登記記録の閉鎖等,0,2023-10-16,2023-10-12,株式会社イワン,,株式会社,岡山県,岡山市北区,津高台３丁目２０４７番地５,,33,101,7011151,,,2023-10-12,清算の結了等,,,2015-10-05,1,,,,,イワン,0
1212,4290002023719,登記記録の閉鎖等,0,2023-10-16,2023-10-02,有限会社ケイズ・ユー,,有限会社,福岡県,福岡市博多区,南八幡町１丁目１－２２,,40,132,8120886,,,2023-10-02,清算の結了等,,,2015-10-05,1,,,,,,0
1215,4290003009824,登記記録の閉鎖等,0,2023-10-16,2023-10-02,ライラックステージ合同会社,,合同会社,福岡県,福岡市中央区,白金１丁目１番３号白金オークマンション４０５号,,40,133,8100012,,,2023-10-02,清算の結了等,,,2020-03-11,1,,,,,ライラックステージ,0
1219,4300005005010,登記記録の閉鎖等,0,2023-10-16,2023-10-12,医療法人田尻外科胃腸科医院,,その他の設立登記法人,佐賀県,鳥栖市,幸津町１７６１番地１,,41,203,8410062,,,2023-10-12,清算の結了等,,,2015-10-05,1,,,,,タジリゲカイチョウカイイン,0
1223,4320001008320,登記記録の閉鎖等,0,2023-10-16,2023-10-13,堀内産業株式会社,,株式会社,大分県,杵築市,大字守江２ノ２９６４番地１,,44,210,8730033,,,2023-10-13,清算の結了等,,,2015-10-05,1,,,,,ホリウチサンギョウ,0
1237,4370001000603,登記記録の閉鎖等,0,2023-10-16,2023-10-11,株式会社クリエイティブステーション,,株式会社,宮城県,仙台市泉区,八乙女中央１丁目１番６号,,04,105,9813135,,,2023-10-11,合併による解散等,7400501001004,令和５年９月２７日岩手県一関市新大町１２４番地株式会社一関開発（7400501001004）に合併し解散,2015-10-05,1,,,,,,0
1245,4430001072512,登記記録の閉鎖等,0,2023-10-16,2023-10-02,株式会社Ｉ　ＬＯＶＥファームロジ,,株式会社,北海道,札幌市西区,八軒一条東４丁目１－６９,,01,107,0630861,,,2023-10-02,清算の結了等,,,2016-10-17,1,,,,,アイラブファームロジ,0
1274,5010005006573,登記記録の閉鎖等,0,2023-10-16,2023-10-11,一般社団法人ジー・エヌ・ケー・ウェルフェア,,その他の設立登記法人,東京都,千代田区,丸の内２丁目１番１号,,13,101,1000005,,,2023-10-11,清算の結了等,,,2015-10-05,1,,,,,,0
1283,5010401134283,登記記録の閉鎖等,0,2023-10-16,2023-09-29,株式会社レイス,,株式会社,東京都,港区,芝３丁目５番３号金子ビル５Ｆ,,13,103,1050014,,,2023-09-29,清算の結了等,,,2017-10-18,1,,,,,レイス,0
1289,5010403023435,登記記録の閉鎖等,0,2023-10-16,2023-09-28,ジャパンインフラ１０号合同会社,,合同会社,東京都,港区,元赤坂１丁目１番７号,,13,103,1070051,,,2023-09-28,清算の結了等,,,2020-08-06,1,,,,,ジャパンインフラジュウゴウ,0
1291,5010405017542,登記記録の閉鎖等,0,2023-10-16,2023-10-02,ＤＳ　Ｃａｎａｌ一般社団法人,,その他の設立登記法人,東京都,港区,虎ノ門５丁目１番４号,,13,103,1050001,,,2023-10-02,清算の結了等,,,2019-03-13,1,,,,,ディーエスカナル,0
1295,5010503005639,登記記録の閉鎖等,0,2023-10-16,2023-09-27,ヘルプフタワー合同会社,,合同会社,埼玉県,さいたま市大宮区,桜木町２丁目３番地大宮マルイ７階,,11,103,3300854,,,2023-09-27,清算の結了等,,,2019-07-03,1,,,,,ヘルプフタワー,0
1297,5010701038176,登記記録の閉鎖等,0,2023-10-16,2023-09-28,ＷＡＲＲＰ株式会社,,株式会社,東京都,港区,浜松町２丁目２番１５号浜松町ダイヤビル２Ｆ,,13,103,1050013,,,2023-09-28,清算の結了等,,,2019-09-12,1,,,,,ワープ,0
1303,5010902025700,登記記録の閉鎖等,0,2023-10-16,2023-10-05,有限会社パイロン,,有限会社,東京都,世田谷区,駒沢２丁目１９番１３－１０１号,,13,112,1540012,,,2023-10-05,清算の結了等,,,2015-10-05,1,,,,,パイロン,0
1320,5011105005003,登記記録の閉鎖等,0,2023-10-16,2023-10-11,特定非営利活動法人子どもすこやかサポートネット,,その他の設立登記法人,東京都,新宿区,四谷本塩町４番１５号新井ビル１階,,13,104,1600003,,,2023-10-11,清算の結了等,,,2015-10-05,1,,,,,コドモスコヤカサポートネット,0
1325,5011601015042,登記記録の閉鎖等,0,2023-10-16,2023-09-25,株式会社メリーポピンズ,,株式会社,東京都,練馬区,貫井３丁目３４番１４号,,13,120,1760021,,,2023-09-25,清算の結了等,,,2015-10-05,1,,,,,メリーポピンズ,0
1329,5011702008688,登記記録の閉鎖等,0,2023-10-16,2023-10-10,有限会社ナメキネット,,有限会社,東京都,江戸川区,平井２丁目１６番９－４１３号,,13,123,1320035,,,2023-10-10,清算の結了等,,,2015-10-05,1,,,,,ナメキネット,0
1333,5011802000330,登記記録の閉鎖等,0,2023-10-16,2023-10-13,有限会社安達金属,,有限会社,東京都,葛飾区,堀切２丁目５０番８号,,13,122,1240006,,,2023-10-13,清算の結了等,,,2015-10-05,1,,,,,アダチキンゾク,0
1340,5012803002209,登記記録の閉鎖等,0,2023-10-16,2023-10-11,合同会社クラフティ,,合同会社,静岡県,沼津市,筒井町２－４,,22,203,4100041,,,2023-10-11,清算の結了等,,,2020-01-31,1,,,,,クラフティ,0
1349,5020002067849,登記記録の閉鎖等,0,2023-10-16,2023-10-03,有限会社リバティラボ・アジア,,有限会社,神奈川県,横浜市鶴見区,鶴見１丁目４番８号,,14,101,2300063,,,2023-10-03,合併による解散等,4020002037217,令和５年１０月１日横浜市鶴見区鶴見一丁目４番８号株式会社エスアンドエー（4020002037217）に合併し解散,2015-10-05,1,,,,,リバティラボアジア,0
1353,5021002062022,登記記録の閉鎖等,0,2023-10-16,2023-10-05,有限会社あかちゃんパンダ,,有限会社,神奈川県,平塚市,紅谷町１４番２６号,,14,203,2540043,,,2023-10-05,清算の結了等,,,2015-10-05,1,,,,,アカチャンパンダ,0
1367,5030002056289,登記記録の閉鎖等,0,2023-10-16,2023-09-27,有限会社伊奈建商,,有限会社,埼玉県,北足立郡伊奈町,本町１丁目２０１番地１,,11,301,3620804,,,2023-09-27,清算の結了等,,,2015-10-05,1,,,,,,0
1380,5040002000353,登記記録の閉鎖等,0,2023-10-16,2023-10-02,有限会社アキラ装商,,有限会社,千葉県,千葉市若葉区,加曽利町３３８番地７,,12,104,2640017,,,2023-10-02,清算の結了等,,,2015-10-05,1,,,,,アキラソウショウ,0
1401,5080101017823,登記記録の閉鎖等,0,2023-10-16,2023-10-12,株式会社東海ビジネスソリューション,,株式会社,静岡県,裾野市,上ケ田５１番地,,22,220,4101108,,,2023-10-12,清算の結了等,,,2015-10-05,1,,,,,トウカイビジネスソリューション,0
1413,5120001111168,登記記録の閉鎖等,0,2023-10-16,2023-10-06,株式会社エルム,,株式会社,大阪府,大阪市中央区,高津１丁目１０番１３号,,27,128,5420072,,,2023-10-06,合併による解散等,7120001075857,令和５年１０月６日大阪市中央区高津一丁目１０番１４号エム・アンド・エム株式会社（7120001075857）に合併し解散,2015-10-05,1,,,,,エルム,0
1419,5120001230991,登記記録の閉鎖等,0,2023-10-16,2023-10-10,株式会社クリート,,株式会社,大阪府,大阪市浪速区,難波中１丁目３番１７号,,27,111,5560011,,,2023-10-10,清算の結了等,,,2020-08-13,1,,,,,クリート,0
1432,5120101034970,登記記録の閉鎖等,0,2023-10-16,2023-10-13,株式会社金剛総建,,株式会社,大阪府,富田林市,寺池台１丁目８番３４号,,27,214,5840073,,,2023-10-13,清算の結了等,,,2015-10-05,1,,,,,コンゴウソウケン,0
1440,5130001000122,登記記録の閉鎖等,0,2023-10-16,2023-10-02,株式会社アトリエしのざき,,株式会社,京都府,京都市右京区,西京極畔勝町６９番地の２,,26,108,6150806,,,2023-10-02,清算の結了等,,,2015-10-05,1,,,,,アトリエシノザキ,0
1447,5140001029516,登記記録の閉鎖等,0,2023-10-16,2023-10-10,ＮＡＮＯＭＡＸ株式会社,,株式会社,兵庫県,神戸市東灘区,魚崎中町２丁目５番３号,,28,101,6580083,,,2023-10-10,清算の結了等,,,2015-10-05,1,,,,,ナノマックス,0
1451,5140001094502,登記記録の閉鎖等,0,2023-10-16,2023-10-10,株式会社ＵＰＣ,,株式会社,兵庫県,小野市,片山町１１７７,,28,218,6751335,,,2023-10-10,清算の結了等,,,2015-10-05,1,,,,,ユーピーシー,0
1467,5180001057265,登記記録の閉鎖等,0,2023-10-16,2023-10-06,株式会社ＯＴＯ,,株式会社,愛知県,名古屋市天白区,井口１丁目１３０６番地,,23,116,4680052,,,2023-10-06,清算の結了等,,,2015-10-05,1,,,,,オト,0
1468,5180001068601,登記記録の閉鎖等,0,2023-10-16,2023-10-10,株式会社アース・エイジ,,株式会社,愛知県,名古屋市西区,江向町６丁目２５番地,,23,104,4510013,,,2023-10-10,清算の結了等,,,2015-10-05,1,,,,,アースエイジ,0
1469,5180001073741,登記記録の閉鎖等,0,2023-10-16,2023-09-26,株式会社魚浦漆工所,,株式会社,愛知県,春日井市,細木町１丁目３０番地,,23,206,4860937,,,2023-09-26,清算の結了等,,,2015-10-05,1,,,,,ウオウラシッコウショ,0
1474,5180001102310,登記記録の閉鎖等,0,2023-10-16,2023-10-10,トヨタ食品株式会社,,株式会社,愛知県,名古屋市中村区,羽衣町１４番地,,23,105,4530026,,,2023-10-10,清算の結了等,,,2015-10-05,1,,,,,トヨタショクヒン,0
1481,5180001146927,登記記録の閉鎖等,0,2023-10-16,2023-10-06,ＩＳＰ環境開発東海株式会社,,株式会社,愛知県,稲沢市,西島３丁目７８番地,,23,220,4928328,,,2023-10-06,清算の結了等,,,2021-07-08,1,,,,,アイエスピーカンキョウカイハツトウカイ,0
1482,5180001149070,登記記録の閉鎖等,0,2023-10-16,2023-10-06,株式会社トリプルダブル,,株式会社,愛知県,日進市,米野木台２丁目１１１２番地,,23,230,4700118,,,2023-10-06,清算の結了等,,,2021-12-09,1,,,,,トリプルダブル,0
1501,5180301032323,登記記録の閉鎖等,0,2023-10-16,2023-10-03,株式会社天指乃泉,,株式会社,愛知県,豊田市,浄水町原山３２５番地１ＳＬＩＦＥ浄水駅前２０５,,23,211,4700343,,,2023-10-03,清算の結了等,,,2019-03-04,1,,,,,テンシノイズミ,0
1507,5200001019064,登記記録の閉鎖等,0,2023-10-16,2023-10-12,上之保オイルシール工業株式会社,,株式会社,岐阜県,関市,上之保１８９０３番地,,21,205,5013601,,,2023-10-12,清算の結了等,,,2015-10-05,1,,,,,カミノホオイルシールコウギョウ,0
1518,5250002000209,登記記録の閉鎖等,0,2023-10-16,2023-10-10,有限会社上田屋組,,有限会社,山口県,山口市,黒川２７２１番地の２３,,35,203,7530851,,,2023-10-10,清算の結了等,,,2015-10-05,1,,,,,,0
1519,5250002005942,登記記録の閉鎖等,0,2023-10-16,2023-10-11,リーディングサービス有限会社,,有限会社,山口県,宇部市,大字川上１６１番地,,35,202,7550084,,,2023-10-11,清算の結了等,,,2015-10-05,1,,,,,リーディングサービス,0
1537,5300001003909,登記記録の閉鎖等,0,2023-10-16,2023-10-10,株式会社エスメイト,,株式会社,佐賀県,神埼市,神埼町城原字山崎１２２０の３,,41,210,8420122,,,2023-10-10,清算の結了等,,,2015-10-05,1,,,,,エスメイト,0
1542,5320002016528,登記記録の閉鎖等,0,2023-10-16,2023-10-12,蒲江交通有限会社,,有限会社,大分県,佐伯市,蒲江大字蒲江浦３２８２番地,,44,205,8762401,,,2023-10-12,清算の結了等,,,2015-10-05,1,,,,,カマエコウツウ,0
1543,5320002021354,登記記録の閉鎖等,0,2023-10-16,2023-10-11,有限会社天雲龍,,有限会社,大分県,中津市,耶馬溪町大字柿坂７４５番地の１,,44,203,8710405,,,2023-10-11,清算の結了等,,,2015-10-05,1,,,,,テンリュウ,0
1549,5360002012572,登記記録の閉鎖等,0,2023-10-16,2023-10-06,株式会社沖縄トラスト,,株式会社,沖縄県,中頭郡西原町,字小波津６１６番地の５,,47,329,9030118,,,2023-10-06,清算の結了等,,,2015-10-05,1,,,,,オキナワトラスト,0
1554,5400001007404,登記記録の閉鎖等,0,2023-10-16,2023-10-05,日鉄物流釜石株式会社,,株式会社,岩手県,釜石市,鈴子町２３番１５号,,03,211,0260031,,,2023-10-05,合併による解散等,1010001098619,令和５年１０月１日東京都中央区日本橋一丁目１３番１号日鉄物流株式会社（1010001098619）に合併し解散,2015-10-05,1,,,,,ニッテツブツリュウカマイシ,0
1586,6010001204907,登記記録の閉鎖等,0,2023-10-16,2023-10-03,株式会社奥河口湖リゾート,,株式会社,東京都,千代田区,丸の内３丁目３番１号,,13,101,1000005,,,2023-10-03,清算の結了等,,,2019-10-28,1,,,,,オクカワグチコリゾート,0
1613,6010701039396,登記記録の閉鎖等,0,2023-10-16,2023-10-12,ヒューマンサポート株式会社,,株式会社,愛知県,名古屋市中村区,井深町１番１号,,23,105,4530012,,,2023-10-12,清算の結了等,,,2020-06-16,1,,,,,ヒューマンサポート,0
1617,6010705002359,登記記録の閉鎖等,0,2023-10-16,2023-10-06,エムケイ税理士法人,,その他の設立登記法人,東京都,品川区,荏原３丁目８番１４－１００２号,,13,109,1420063,,,2023-10-06,清算の結了等,,,2015-10-05,1,,,,,エムケイ,0
1618,6010801017079,登記記録の閉鎖等,0,2023-10-16,2023-10-12,株式会社ＭＳプラネット,,株式会社,東京都,大田区,大森北１丁目１番５号,,13,111,1430016,,,2023-10-12,合併による解散等,4011001155563,令和５年１０月２日東京都渋谷区渋谷三丁目２５番２１号渋谷ＮＴビル株式会社アステクト（4011001155563）に合併し解散,2015-10-05,1,,,,,エムエスプラネット,0
1658,6012301006859,登記記録の閉鎖等,0,2023-10-16,2023-10-10,株式会社パディース,,株式会社,東京都,町田市,南町田４丁目１６番２４号,,13,209,1940005,,,2023-10-10,清算の結了等,,,2015-10-05,1,,,,,パディース,0
1682,6020005012545,登記記録の閉鎖等,0,2023-10-16,2023-10-03,特定非営利活動法人日本アロマセラピー福祉サポート協会,,その他の設立登記法人,神奈川県,横浜市保土ケ谷区,天王町１丁目２９番地の３,,14,106,2400003,,,2023-10-03,清算の結了等,,,2016-04-06,1,,,,,ニホンアロマセラピーフクシサポートキョウカイ,0
1683,6021001036216,登記記録の閉鎖等,0,2023-10-16,2023-10-05,株式会社エイト工業,,株式会社,神奈川県,平塚市,四之宮５丁目１４番２号,,14,203,2540014,,,2023-10-05,清算の結了等,,,2015-10-05,1,,,,,エイトコウギョウ,0
1689,6021005002156,登記記録の閉鎖等,0,2023-10-16,2023-10-05,特定非営利活動法人ブルーマリン鎌倉,,その他の設立登記法人,神奈川県,鎌倉市,七里ガ浜１丁目１５番１８号,,14,204,2480026,,,2023-10-05,清算の結了等,,,2015-10-05,1,,,,,ブルーマリンカマクラ,0
1690,6030001067922,登記記録の閉鎖等,0,2023-10-16,2023-09-27,株式会社ライズ,,株式会社,埼玉県,川口市,戸塚２丁目２６番２２号フラッツ東川口,,11,203,3330811,,,2023-09-27,清算の結了等,,,2015-10-05,1,,,,,ライズ,0
1691,6030001068549,登記記録の閉鎖等,0,2023-10-16,2023-09-26,株式会社Ｒｕａ９,,株式会社,埼玉県,八潮市,大字南後谷３０８番地９,,11,234,3400831,,,2023-09-26,清算の結了等,,,2015-10-05,1,,,,,ルアキュウ,0
1698,6030002031159,登記記録の閉鎖等,0,2023-10-16,2023-09-25,有限会社丸八硝子店,,有限会社,埼玉県,所沢市,喜多町１４番地,,11,208,3591113,,,2023-09-25,清算の結了等,,,2015-10-05,1,,,,,マルハチガラステン,0
1702,6030005019226,登記記録の閉鎖等,0,2023-10-16,2023-09-22,特定非営利活動法人スマートワーク,,その他の設立登記法人,埼玉県,越谷市,瓦曽根１丁目１１番２号,,11,222,3430821,,,2023-09-22,清算の結了等,,,2018-10-26,1,,,,,スマートワーク,0
1718,6060002009400,登記記録の閉鎖等,0,2023-10-16,2023-10-06,有限会社陽光計装,,有限会社,栃木県,宇都宮市,雀の宮５丁目３番２６号,,09,201,3210132,,,2023-10-06,清算の結了等,,,2015-10-05,1,,,,,ヨウコウケイソウ,0
1721,6070001016405,登記記録の閉鎖等,0,2023-10-16,2023-10-12,新建工業株式会社,,株式会社,群馬県,桐生市,新里町新川１４６１番地,,10,203,3760121,,,2023-10-12,清算の結了等,,,2015-10-05,1,,,,,,0
1733,6090001016997,登記記録の閉鎖等,0,2023-10-16,2023-10-06,株式会社ＵＰＴＯＤＡＹ,,株式会社,山梨県,北杜市,長坂町白井沢２８５４番地,,19,209,4080033,,,2023-10-06,清算の結了等,,,2021-05-17,1,,,,,アップトゥデイ,0
1743,6110005008476,登記記録の閉鎖等,0,2023-10-16,2023-10-12,淨光寺,,その他の設立登記法人,新潟県,上越市,大字飯２８４８番地,,15,222,9430896,,,2023-10-12,清算の結了等,,,2015-10-05,1,,,,,ジョウコウジ,0
1751,6120001127592,登記記録の閉鎖等,0,2023-10-16,2023-10-03,株式会社ベル・ミル,,株式会社,大阪府,門真市,向島町１３番４５号ベル・クレール,,27,223,5710051,,,2023-10-03,清算の結了等,,,2015-10-05,1,,,,,ベルミル,0
1787,6140003016395,登記記録の閉鎖等,0,2023-10-16,2023-10-10,合同会社ネクスト,,合同会社,兵庫県,三田市,南が丘２丁目３番２３号,,28,219,6691535,,,2023-10-10,清算の結了等,,,2021-06-22,1,,,,,ネクスト,0
1807,6180003017605,登記記録の閉鎖等,0,2023-10-16,2023-10-11,合同会社ＷＥＳＴ　ＦＩＥＬＤ,,合同会社,愛知県,瀬戸市,東山町２１番地の９,,23,204,4890988,,,2023-10-11,清算の結了等,,,2017-01-12,1,,,,,ウエストフィールド,0
1816,6230005000405,登記記録の閉鎖等,0,2023-10-16,2023-10-13,医療法人社団たかたこども医院,,その他の設立登記法人,富山県,富山市,上袋５６番地３,,16,201,9398071,,,2023-10-13,清算の結了等,,,2015-10-05,1,,,,,タカタコドモイイン,0
1817,6240001000845,登記記録の閉鎖等,0,2023-10-16,2023-10-11,株式会社壹貫田組,,株式会社,広島県,広島市安佐北区,可部東４丁目１番１６号,,34,106,7310222,,,2023-10-11,清算の結了等,,,2015-10-05,1,,,,,イッカンダグミ,0
1828,6260001033265,登記記録の閉鎖等,0,2023-10-16,2023-10-13,株式会社さんよう産業,,株式会社,岡山県,倉敷市,徳芳１６７番地３,,33,202,7100011,,,2023-10-13,清算の結了等,,,2019-06-26,1,,,,,サンヨウサンギョウ,0
1831,6270001004521,登記記録の閉鎖等,0,2023-10-16,2023-10-13,ハルト建設株式会社,,株式会社,鳥取県,西伯郡大山町,名和５３４番地,,31,386,6893212,,,2023-10-13,清算の結了等,,,2015-10-05,1,,,,,ハルトケンセツ,0
1836,6290002009666,登記記録の閉鎖等,0,2023-10-16,2023-10-02,岩井商事有限会社,,有限会社,福岡県,福岡市中央区,黒門４番３７号,,40,133,8100055,,,2023-10-02,清算の結了等,,,2015-10-05,1,,,,,イワイショウジ,0
1838,6290002022396,登記記録の閉鎖等,0,2023-10-16,2023-10-02,有限会社エテム,,有限会社,福岡県,福岡市南区,高宮４丁目２３番２６号,,40,134,8150083,,,2023-10-02,合併による解散等,4290002026977,令和５年９月３０日福岡市中央区天神二丁目７番９号株式会社ハセグループ（4290002026977）に合併し解散,2015-10-05,1,,,,,エテム,0
1839,6290002028526,登記記録の閉鎖等,0,2023-10-16,2023-10-02,有限会社西日本新聞エリアセンター三苫,,有限会社,福岡県,福岡市東区,三苫３丁目２番３３号,,40,131,8110201,,,2023-10-02,清算の結了等,,,2015-10-05,1,,,,,ニシニホンシンブンエリアセンターミトマ,0
1846,6300002002116,登記記録の閉鎖等,0,2023-10-16,2023-10-10,有限会社三共保険サービス,,有限会社,佐賀県,佐賀市,神野西２丁目６番１６号,,41,201,8400805,,,2023-10-10,清算の結了等,,,2015-10-05,1,,,,,サンキョウホケンサービス,0
1868,6410002006213,登記記録の閉鎖等,0,2023-10-16,2023-10-04,有限会社鈴萬海産,,有限会社,秋田県,男鹿市,船越字内子４４番地,,05,206,0100341,,,2023-10-04,清算の結了等,,,2015-10-05,1,,,,,スズマンカイサン,0
1894,7010001046175,登記記録の閉鎖等,0,2023-10-16,2023-10-02,株式会社伸東,,株式会社,東京都,中央区,日本橋久松町１３番８号,,13,102,1030005,,,2023-10-02,合併による解散等,6010001046176,令和５年１０月１日東京都中央区日本橋久松町１３番８号株式会社伸東ビル（6010001046176）に合併し解散,2015-10-05,1,,,,,シントウ,0
1899,7010001231891,登記記録の閉鎖等,0,2023-10-16,2023-10-11,ドライブパートナーズ株式会社,,株式会社,東京都,中央区,新川２丁目１番５号,,13,102,1040033,,,2023-10-11,合併による解散等,7120001094394,令和５年１０月１日大阪市中央区今橋二丁目２番２号株式会社トーコー（7120001094394）に合併し解散,2022-12-27,1,,,,,ドライブパートナーズ,0
1905,7010005009186,登記記録の閉鎖等,0,2023-10-16,2023-10-12,一般社団法人リテイルインベストメント,,その他の設立登記法人,東京都,千代田区,丸の内３丁目１番１号東京共同会計事務所内,,13,101,1000005,,,2023-10-12,清算の結了等,,,2015-10-05,1,,,,,リテイルインベストメント,0
1919,7010401134678,登記記録の閉鎖等,0,2023-10-16,2023-10-02,株式会社アットスペース・パートナーズ,,株式会社,東京都,港区,赤坂２丁目１７番１２号,,13,103,1070052,,,2023-10-02,清算の結了等,,,2017-10-31,1,,,,,アットスペースパートナーズ,0
1931,7010403012048,登記記録の閉鎖等,0,2023-10-16,2023-10-03,ＣＦポート合同会社,,合同会社,東京都,中央区,銀座８丁目１５－１０－５１５,,13,102,1040061,,,2023-10-03,合併による解散等,3010003028340,令和５年１０月１日東京都中央区銀座８－１５－１０－５１５ＣＦセントラル合同会社（3010003028340）に合併し解散,2015-10-05,1,,,,,シーエフポート,0
1933,7010405020123,登記記録の閉鎖等,0,2023-10-16,2023-10-10,一般社団法人ＩＨＦ,,その他の設立登記法人,東京都,港区,虎ノ門３丁目２２番１０－２０１号,,13,103,1050001,,,2023-10-10,清算の結了等,,,2021-08-19,1,,,,,アイエイチエフ,0
1945,7010801028736,登記記録の閉鎖等,0,2023-10-16,2023-10-11,ＴＲＩデンタルインプランツ株式会社,,株式会社,東京都,大田区,西蒲田６丁目３５番１２号ＭＢＣビル５階,,13,111,1440051,,,2023-10-11,合併による解散等,1140001042183,令和５年１０月１日神戸市中央区中山手通四丁目３番６号ゴールデン・サン・ビル７階株式会社ＭＢＣ（1140001042183）に合併し解散,2018-04-24,1,,,,,ティーアールアイデンタルインプランツ,0
1946,7010803000783,登記記録の閉鎖等,0,2023-10-16,2023-10-05,合資会社オフィス・アイ,,合資会社,東京都,大田区,下丸子１丁目１３番１５－１０７号,,13,111,1460092,,,2023-10-05,清算の結了等,,,2015-10-05,1,,,,,オフィスアイ,0
1948,7011001021894,登記記録の閉鎖等,0,2023-10-16,2023-10-03,株式会社マークシステム研究所,,株式会社,東京都,渋谷区,千駄ヶ谷１丁目２０番６号,,13,113,1510051,,,2023-10-03,清算の結了等,,,2015-10-05,1,,,,,マークシステムケンキュウジョ,0
1959,7011101005244,登記記録の閉鎖等,0,2023-10-16,2023-10-11,株式会社京伸不動産,,株式会社,東京都,新宿区,西早稲田２丁目１８番２６号,,13,104,1690051,,,2023-10-11,清算の結了等,,,2015-10-05,1,,,,,キョーシンフドウサン,0
1966,7011102012727,登記記録の閉鎖等,0,2023-10-16,2023-10-12,有限会社紫コーポ,,有限会社,東京都,新宿区,西新宿５丁目３番７号,,13,104,1600023,,,2023-10-12,清算の結了等,,,2015-10-05,1,,,,,ムラサキコーポ,0
1991,7021001029805,登記記録の閉鎖等,0,2023-10-16,2023-10-02,古河Ｃ＆Ｂ株式会社,,株式会社,神奈川県,平塚市,東八幡５丁目１番９号,,14,203,2540016,,,2023-10-02,清算の結了等,,,2015-10-05,1,,,,,フルカワシーアンドビー,0
2005,7030002076665,登記記録の閉鎖等,0,2023-10-16,2023-09-26,有限会社西山商事,,有限会社,埼玉県,川越市,久保町１１番地８,,11,201,3500055,,,2023-09-26,清算の結了等,,,2015-10-05,1,,,,,ニシヤマショウジ,0
2019,7040001127063,登記記録の閉鎖等,0,2023-10-16,2023-09-29,株式会社小沼興業,,株式会社,千葉県,柏市,増尾８丁目３３番８号,,12,217,2770033,,,2023-09-29,清算の結了等,,,2023-02-13,1,,,,,オヌマコウギョウ,0
2029,7050001044828,登記記録の閉鎖等,0,2023-10-16,2023-10-02,株式会社ＳＵＮＢＬＥＳＳ,,株式会社,茨城県,稲敷郡阿見町,大字青宿８７４番地６,,08,443,3000301,,,2023-10-02,清算の結了等,,,2018-08-13,1,,,,,サンブレス,0
2034,7060001019928,登記記録の閉鎖等,0,2023-10-16,2023-10-06,株式会社エイチアンドピー,,株式会社,栃木県,足利市,山下町字天神１２８１番地,,09,202,3260846,,,2023-10-06,清算の結了等,,,2015-10-05,1,,,,,エイチアンドピー,0
2041,7070003003739,登記記録の閉鎖等,0,2023-10-16,2023-10-11,合同会社Ｂ．Ｓカンパニー,,合同会社,群馬県,高崎市,棟高町１２９４番地５,,10,202,3703521,,,2023-10-11,清算の結了等,,,2020-05-11,1,,,,,ビーエスカンパニー,0
2063,7120001237647,登記記録の閉鎖等,0,2023-10-16,2023-10-10,株式会社ＰＲＵＮＮＩＮＧ,,株式会社,大阪府,大阪市都島区,都島中通２丁目１３番１６号,,27,102,5340022,,,2023-10-10,清算の結了等,,,2021-05-24,1,,,,,プランニング,0
2069,7120002014657,登記記録の閉鎖等,0,2023-10-16,2023-10-06,木下興業有限会社,,有限会社,大阪府,大阪市大正区,小林西１丁目２番１１号－１Ｆ,,27,108,5510013,,,2023-10-06,清算の結了等,,,2015-10-05,1,,,,,キノシタコウギョウ,0
2072,7120005007294,登記記録の閉鎖等,0,2023-10-16,2023-10-03,全大阪養豚農業協同組合,,その他の設立登記法人,大阪府,大阪市中央区,谷町１丁目３番２７号,,27,128,5400012,,,2023-10-03,清算の結了等,,,2015-10-05,1,,,,,ゼンオオサカヨウトン,0
2073,7120101048127,登記記録の閉鎖等,0,2023-10-16,2023-10-12,株式会社ＫＥＳ,,株式会社,大阪府,泉南郡田尻町,りんくうポート北３番地２８,,27,362,5980093,,,2023-10-12,合併による解散等,8120001059636,令和５年１０月１日大阪市北区南森町一丁目４番２４号栗原工業株式会社（8120001059636）に合併し解散,2015-10-05,1,,,,,ケイイーエス,0
2083,7140001039422,登記記録の閉鎖等,0,2023-10-16,2023-10-10,兵庫基礎工業株式会社,,株式会社,兵庫県,たつの市,揖西町小神１６１番地４,,28,229,6794003,,,2023-10-10,清算の結了等,,,2015-10-05,1,,,,,ヒョウゴキソコウギョウ,0
2084,7140001066350,登記記録の閉鎖等,0,2023-10-16,2023-10-10,株式会社近藤技術研究所,,株式会社,兵庫県,三田市,川除４０５番地の１０,,28,219,6691514,,,2023-10-10,清算の結了等,,,2015-10-05,1,,,,,コンドウギジュツケンキュウショ,0
2086,7140001069667,登記記録の閉鎖等,0,2023-10-16,2023-10-06,株式会社中吉興産,00039973,株式会社,兵庫県,西宮市,甲子園口１丁目７番６号,,28,204,6638113,,,2023-10-06,清算の結了等,,,2015-10-05,1,,,,,ナカヨシコウサン,0
2090,7140002053455,登記記録の閉鎖等,0,2023-10-16,2023-10-10,有限会社リネット,,有限会社,兵庫県,姫路市,別所町佐土６１４番地,,28,201,6710224,,,2023-10-10,清算の結了等,,,2015-10-05,1,,,,,リネット,0
2101,7180001125656,登記記録の閉鎖等,0,2023-10-16,2023-10-10,株式会社ＣｌｅａＲ,,株式会社,愛知県,瀬戸市,八幡町２５番地の４,,23,204,4890862,,,2023-10-10,清算の結了等,,,2016-11-25,1,,,,,クリア,0
2106,7180002010337,登記記録の閉鎖等,0,2023-10-16,2023-10-10,有限会社三鈴商事,,有限会社,愛知県,名古屋市瑞穂区,白砂町４丁目１２１番地の３,,23,108,4670056,,,2023-10-10,清算の結了等,,,2015-10-05,1,,,,,ミスズショウジ,0
2113,7180002090742,登記記録の閉鎖等,0,2023-10-16,2023-10-06,有限会社土田製額所,,有限会社,愛知県,津島市,鹿伏兎町西永和７０番地,,23,208,4960023,,,2023-10-06,清算の結了等,,,2015-10-05,1,,,,,ツチダセイガクショ,0
2117,7190002008917,登記記録の閉鎖等,0,2023-10-16,2023-10-10,有限会社シー・アール・エス,,有限会社,三重県,度会郡度会町,棚橋１４２５番地１,,24,470,5162103,,,2023-10-10,清算の結了等,,,2015-10-05,1,,,,,シーアールエス,0
2121,7200001022149,登記記録の閉鎖等,0,2023-10-16,2023-10-02,株式会社アズライフ,,株式会社,岐阜県,多治見市,太平町３丁目１６番地,,21,204,5070041,,,2023-10-02,合併による解散等,4200001023141,令和５年１０月１日岐阜県多治見市太平町三丁目１６番地株式会社アズライフ多治見（4200001023141）に合併し解散,2015-10-05,1,,,,,,0
2134,7240002040872,登記記録の閉鎖等,0,2023-10-16,2023-10-10,有限会社サンケイ繊維,,有限会社,広島県,福山市,駅家町大字服部本郷１５５番地,,34,207,7202521,,,2023-10-10,清算の結了等,,,2015-10-05,1,,,,,サンケイセンイ,0
2139,7290001004774,登記記録の閉鎖等,0,2023-10-16,2023-10-02,株式会社美花園,,株式会社,福岡県,福岡市城南区,飯倉１丁目２番１６号,,40,136,8140134,,,2023-10-02,清算の結了等,,,2015-10-05,1,,,,,ビカエン,0
2142,7290001032899,登記記録の閉鎖等,0,2023-10-16,2023-10-06,株式会社リペア・デポ,,株式会社,福岡県,福岡市東区,箱崎ふ頭５丁目７番２０号,,40,131,8120051,,,2023-10-06,合併による解散等,2070001036729,令和５年１０月１日群馬県高崎市栄町１番１号株式会社ヤマダデンキ（2070001036729）に合併し解散,2015-10-05,1,,,,,リペアデポ,0
2152,7290801028717,登記記録の閉鎖等,0,2023-10-16,2023-10-11,株式会社三共商会,,株式会社,福岡県,北九州市小倉南区,企救丘６丁目２０番４号,,40,107,8020981,,,2023-10-11,清算の結了等,,,2022-07-07,1,,,,,サンキョウショウカイ,0
2161,7360001013231,登記記録の閉鎖等,0,2023-10-16,2023-10-02,株式会社東部交通,,株式会社,沖縄県,八重山郡竹富町,字南風見２０１番地の１０９,,47,381,9071434,,,2023-10-02,合併による解散等,2360001013046,令和５年１０月１日沖縄県八重山郡竹富町字南風見２０１番地の１０９西表島交通株式会社（2360001013046）に合併し解散,2015-10-05,1,,,,,トウブコウツウ,0
2164,7390005008456,登記記録の閉鎖等,0,2023-10-16,2023-10-12,庄内採石協同組合,,その他の設立登記法人,山形県,鶴岡市,外内島字信州川原２８番地５,,06,203,9970815,,,2023-10-12,清算の結了等,,,2015-10-05,1,,,,,ショウナイサイセキ,0
2187,7470002012213,登記記録の閉鎖等,0,2023-10-16,2023-10-12,有限会社ベーシック,,有限会社,香川県,丸亀市,土器町東７丁目１６３番地２７,,37,202,7630082,,,2023-10-12,清算の結了等,,,2015-10-05,1,,,,,ベーシック,0
2188,7470002013616,登記記録の閉鎖等,0,2023-10-16,2023-10-12,有限会社藤井屋,,有限会社,香川県,仲多度郡まんのう町,吉野下２１９番地第６,,37,406,7660022,,,2023-10-12,清算の結了等,,,2015-10-05,1,,,,,フジイヤ,0
2199,8010002047766,登記記録の閉鎖等,0,2023-10-16,2023-10-03,有限会社ケー・シー・エス,,有限会社,東京都,千代田区,岩本町１丁目４番４号,,13,101,1010032,,,2023-10-03,清算の結了等,,,2015-10-05,1,,,,,ケーシーエス,0
2212,8010401005639,登記記録の閉鎖等,0,2023-10-16,2023-09-29,株式会社エルム都市計画設計室,,株式会社,東京都,港区,南青山１丁目１１番３０号,,13,103,1070062,,,2023-09-29,清算の結了等,,,2015-10-05,1,,,,,エルムトシケイカクセッケイシツ,0
2217,8010401090879,登記記録の閉鎖等,0,2023-10-16,2023-10-02,株式会社ケーダブリュー,,株式会社,東京都,港区,赤坂８丁目３番３－４０７号,,13,103,1070052,,,2023-10-02,合併による解散等,9010403021971,令和５年１０月１日東京都港区赤坂八丁目３番３－４０７号合同会社ケーダブリュー（9010403021971）に合併し解散,2015-10-05,1,,,,,ケーダブリュー,0
2218,8010401120529,登記記録の閉鎖等,0,2023-10-16,2023-10-11,白川製作所株式会社,,株式会社,東京都,港区,六本木１丁目９番１８号,,13,103,1060032,,,2023-10-11,合併による解散等,8010401076622,令和５年９月３０日東京都北区堀船二丁目２８番１号東邦金属株式会社（8010401076622）に合併し解散,2015-10-05,1,,,,,シラカワセイサクショ,0
2229,8010405019552,登記記録の閉鎖等,0,2023-10-16,2023-09-28,一般社団法人子ども冒険体験創造ラボ,,その他の設立登記法人,東京都,港区,赤坂２丁目１４番４号森崎ビル３階,,13,103,1070052,,,2023-09-28,清算の結了等,,,2021-03-10,1,,,,,コドモボウケンタイケンソウゾウラボ,0
2231,8010501030801,登記記録の閉鎖等,0,2023-10-16,2023-10-06,株式会社三共開発,,株式会社,東京都,豊島区,駒込１丁目３４番５号,,13,116,1700003,,,2023-10-06,清算の結了等,,,2015-10-05,1,,,,,サンキョウカイハツ,0
2239,8010701036474,登記記録の閉鎖等,0,2023-10-16,2023-10-11,株式会社Ｔ－ｍａｎａｇｅ,,株式会社,東京都,品川区,大崎２丁目９番２号,,13,109,1410032,,,2023-10-11,清算の結了等,,,2018-09-27,1,,,,,ティーマネージ,0
2245,8010803003538,登記記録の閉鎖等,0,2023-10-16,2023-10-05,４０５Ｅｎｔｅｒｔａｉｎｍｅｎｔ合同会社,,合同会社,東京都,大田区,羽田６丁目２１－７,,13,111,1440043,,,2023-10-05,清算の結了等,,,2020-11-19,1,,,,,フォーオーファイブエンターテインメント,0
2251,8011001103403,登記記録の閉鎖等,0,2023-10-16,2023-10-05,ＡＲＩＥＳ株式会社,,株式会社,東京都,渋谷区,桜丘町２３番１７号シティコート桜丘４Ｆ,,13,113,1500031,,,2023-10-05,清算の結了等,,,2015-10-05,1,,,,,アリエス,0
2257,8011002005689,登記記録の閉鎖等,0,2023-10-16,2023-10-10,有限会社社台オーナーズ,,有限会社,東京都,渋谷区,大山町３５番２３号,,13,113,1510065,,,2023-10-10,清算の結了等,,,2015-10-05,1,,,,,シャダイオーナーズ,0
2277,8012402010931,登記記録の閉鎖等,0,2023-10-16,2023-10-11,有限会社來間企画工業,,有限会社,東京都,調布市,入間町１丁目３３番地１,,13,208,1820004,,,2023-10-11,清算の結了等,,,2015-10-05,1,,,,,クルマキカクコウギョウ,0
2314,8030002055098,登記記録の閉鎖等,0,2023-10-16,2023-09-28,有限会社山ノ内工務店,,有限会社,埼玉県,上尾市,大字瓦葺１７１９番地の５,,11,219,3620022,,,2023-09-28,清算の結了等,,,2015-10-05,1,,,,,ヤマノウチコウムテン,0
2326,8040002027146,登記記録の閉鎖等,0,2023-10-16,2023-09-29,有限会社アイマックス,,有限会社,千葉県,船橋市,八木が谷２丁目１９番１０号,,12,204,2740802,,,2023-09-29,清算の結了等,,,2015-10-05,1,,,,,アイマックス,0
2327,8040002079170,登記記録の閉鎖等,0,2023-10-16,2023-09-27,有限会社シー・オン不動産,,有限会社,千葉県,東金市,北之幸谷９７７番地６,,12,213,2830061,,,2023-09-27,清算の結了等,,,2015-10-05,1,,,,,シーオンフドウサン,0
2335,8060001008649,登記記録の閉鎖等,0,2023-10-16,2023-10-10,エムアンドエス株式会社,,株式会社,栃木県,大田原市,加治屋８７番地８５,,09,210,3240046,,,2023-10-10,合併による解散等,7100001023223,令和５年１０月１日長野県下伊那郡高森町下市田３１２３番地株式会社マツザワ（7100001023223）に合併し解散,2015-10-05,1,,,,,エムアンドエス,0
2342,8080002009875,登記記録の閉鎖等,0,2023-10-16,2023-10-12,有限会社小林興業,,有限会社,静岡県,静岡市清水区,山切２３番地の２４,,22,103,4240105,,,2023-10-12,清算の結了等,,,2015-10-05,1,,,,,コバヤシコウギョウ,0
2344,8080102006335,登記記録の閉鎖等,0,2023-10-16,2023-10-05,有限会社西星仮設工業,,有限会社,静岡県,沼津市,志下７１７番地,,22,203,4100106,,,2023-10-05,清算の結了等,,,2015-10-05,1,,,,,ニシホシカセツコウギョウ,0
2350,8100002023485,登記記録の閉鎖等,0,2023-10-16,2023-10-04,有限会社北村重建,,有限会社,長野県,安曇野市,穂高有明１０４８８番地６,,20,220,3998301,,,2023-10-04,清算の結了等,,,2015-10-05,1,,,,,キタムラジュウケン,0
2353,8120001149511,登記記録の閉鎖等,0,2023-10-16,2023-10-06,京阪造機株式会社,,株式会社,大阪府,枚方市,東山１丁目１７番地の１,,27,210,5731114,,,2023-10-06,清算の結了等,,,2015-10-05,1,,,,,ケイハンゾウキ,0
2360,8120001223159,登記記録の閉鎖等,0,2023-10-16,2023-10-10,株式会社アート,,株式会社,大阪府,大阪市東淀川区,豊里２丁目２３番１０号,,27,114,5330013,,,2023-10-10,清算の結了等,,,2019-08-15,1,,,,,アート,0
2380,8130001016636,登記記録の閉鎖等,0,2023-10-16,2023-10-03,株式会社エイオン,,株式会社,京都府,京都市西京区,川島権田町３１番地１０,,26,111,6158195,,,2023-10-03,清算の結了等,,,2015-10-05,1,,,,,エイオン,0
2393,8140002014480,登記記録の閉鎖等,0,2023-10-16,2023-10-03,有限会社神和エアーシステム,,有限会社,兵庫県,神戸市北区,西大池１丁目１９番１６号,,28,109,6511201,,,2023-10-03,清算の結了等,,,2015-10-05,1,,,,,シンワエアーシステム,0
2394,8140002023647,登記記録の閉鎖等,0,2023-10-16,2023-10-10,有限会社エルアンドワイ,,有限会社,兵庫県,芦屋市,南宮町１８番３－３１７号,,28,206,6590024,,,2023-10-10,清算の結了等,,,2015-10-05,1,,,,,エルアンドワイ,0
2402,8180001045597,登記記録の閉鎖等,0,2023-10-16,2023-10-10,株式会社コロン製絲,,株式会社,愛知県,名古屋市西区,上小田井２丁目１４番地,,23,104,4520821,,,2023-10-10,清算の結了等,,,2015-10-05,1,,,,,コロンセイシ,0
2409,8180001148838,登記記録の閉鎖等,0,2023-10-16,2023-10-05,トラスト株式会社,,株式会社,愛知県,名古屋市千種区,田代本通２丁目１,,23,101,4640827,,,2023-10-05,清算の結了等,,,2021-11-29,1,,,,,トラスト,0
2416,8180002089940,登記記録の閉鎖等,0,2023-10-16,2023-10-10,有限会社オガワ土木,,有限会社,愛知県,弥富市,平島町五反割５３番地の１２,,23,235,4980031,,,2023-10-10,清算の結了等,,,2015-10-05,1,,,,,オガワドボク,0
2419,8180003019748,登記記録の閉鎖等,0,2023-10-16,2023-10-12,合同会社ＰＬＯＷ,,合同会社,愛知県,名古屋市中区,新栄２丁目１番４号アソルティ新栄９Ｂ,,23,106,4600007,,,2023-10-12,清算の結了等,,,2019-03-05,1,,,,,プラウ,0
2424,8190001024344,登記記録の閉鎖等,0,2023-10-16,2023-10-10,株式会社伊勢三重販売,,株式会社,三重県,伊勢市,勢田町４６４番地５,,24,203,5160035,,,2023-10-10,清算の結了等,,,2017-02-01,1,,,,,イセミエハンバイ,0
2425,8190002014848,登記記録の閉鎖等,0,2023-10-16,2023-10-11,有限会社沢田精肉店,,有限会社,三重県,松阪市,小津町８００番地,,24,204,5152114,,,2023-10-11,清算の結了等,,,2015-10-05,1,,,,,サワダセイニクテン,0
2428,8200003004739,登記記録の閉鎖等,0,2023-10-16,2023-10-11,合同会社Ｔ．Ｓコンサル,,合同会社,岐阜県,可児市,光陽台４丁目３７番地,,21,214,5090255,,,2023-10-11,清算の結了等,,,2020-03-09,1,,,,,ティーエスコンサル,0
2433,8230001019141,登記記録の閉鎖等,0,2023-10-16,2023-10-11,株式会社Ｓｕｐｅｒｃｅｌｌ,,株式会社,富山県,富山市,湊入船町３番３０号ＫＮＢ入船別館４階,,16,201,9300805,,,2023-10-11,清算の結了等,,,2021-12-21,1,,,,,スーパーセル,0
2448,8260001029014,登記記録の閉鎖等,0,2023-10-16,2023-10-13,株式会社千,,株式会社,岡山県,岡山市南区,西七区４０５番地１,,33,104,7091202,,,2023-10-13,清算の結了等,,,2015-12-04,1,,,,,セン,0
2452,8280002011547,登記記録の閉鎖等,0,2023-10-16,2023-10-13,有限会社光谷商店,,有限会社,島根県,雲南市,大東町大東９７３番地,,32,209,6991251,,,2023-10-13,清算の結了等,,,2015-10-05,1,,,,,ミツタニショウテン,0
2456,8290001030704,登記記録の閉鎖等,0,2023-10-16,2023-10-02,レックスジャパン株式会社,,株式会社,福岡県,福岡市博多区,博多駅前３丁目１０番２号ウーブル博多５０７,,40,132,8120011,,,2023-10-02,清算の結了等,,,2015-10-05,1,,,,,レックスジャパン,0
2463,8290002032039,登記記録の閉鎖等,0,2023-10-16,2023-10-02,有限会社日本パートナーズシステム,,有限会社,福岡県,福岡市中央区,渡辺通２丁目９番２０号１５０１,,40,133,8100004,,,2023-10-02,合併による解散等,2290002027589,令和５年１０月１日福岡市中央区渡辺通二丁目９番２０号１５０１株式会社Ｂライン（2290002027589）に合併し解散,2015-10-05,1,,,,,ニホンパートナーズシステム,0
2466,8290002052433,登記記録の閉鎖等,0,2023-10-16,2023-10-12,有限会社スマイリーン,,有限会社,福岡県,大川市,大字大橋８番地,,40,212,8310021,,,2023-10-12,合併による解散等,8330001026425,令和５年１０月１日熊本市北区武蔵ケ丘七丁目２番５５号株式会社九州メディカルサポート（8330001026425）に合併し解散,2015-10-05,1,,,,,,0
2473,8320001016732,登記記録の閉鎖等,0,2023-10-16,2023-10-11,ＨＡＣＤＡＩ株式会社,,株式会社,大分県,大分市,城南北１丁目３番２７号,,44,201,8700827,,,2023-10-11,合併による解散等,3320001016150,令和５年１０月１日大分市城南北一丁目３番２７号ＲＥＧＩＮＡ株式会社（3320001016150）に合併し解散,2018-11-30,1,,,,,ハクダイ,0
2478,8340001012564,登記記録の閉鎖等,0,2023-10-16,2023-10-12,吉峰プロパン株式会社,,株式会社,鹿児島県,南さつま市,加世田村原２丁目１４番地７,,46,220,8970001,,,2023-10-12,清算の結了等,,,2015-10-05,1,,,,,ヨシミネプロパン,0
2512,8462501000185,登記記録の閉鎖等,0,2023-10-16,2023-10-11,中標津製材株式会社,,株式会社,北海道,標津郡中標津町,東四条南１丁目１番地,,01,692,0861004,,,2023-10-11,清算の結了等,,,2023-09-08,1,,,,,ナカシベツセイザイ,0
2539,9010401034133,登記記録の閉鎖等,0,2023-10-16,2023-10-02,株式会社ヴィッツアーク,,株式会社,東京都,港区,芝大門２丁目３番６号,,13,103,1050012,,,2023-10-02,合併による解散等,8010401023228,令和５年９月３０日東京都港区芝大門二丁目３番６号株式会社リジョイスカンパニー（8010401023228）に合併し解散,2015-10-05,1,,,,,ヴィッツアーク,0
2548,9010401101255,登記記録の閉鎖等,0,2023-10-16,2023-10-02,株式会社Ｌｅａｐｓ　Ｊａｐａｎ,,株式会社,東京都,港区,南青山２丁目２番１５号ＷｉｎＡｏｙａｍａビル,,13,103,1070062,,,2023-10-02,清算の結了等,,,2015-10-05,1,,,,,リープスジャパン,0
2560,9010405018974,登記記録の閉鎖等,0,2023-10-16,2023-09-28,ジャパンインフラホールディングス１０号一般社団法人,,その他の設立登記法人,東京都,港区,元赤坂１丁目１番７号,,13,103,1070051,,,2023-09-28,清算の結了等,,,2020-08-06,1,,,,,ジャパンインフラホールディングスジュウゴウ,0
2567,9010601051515,登記記録の閉鎖等,0,2023-10-16,2023-10-03,株式会社食ＳＴＯＲＹ,,株式会社,東京都,千代田区,九段南１丁目５番６号りそな九段ビル５Ｆ,,13,101,1020074,,,2023-10-03,清算の結了等,,,2017-04-26,1,,,,,ショクストーリー,0
2578,9010802000329,登記記録の閉鎖等,0,2023-10-16,2023-10-10,有限会社アイランド商事,,有限会社,東京都,大田区,鵜の木２丁目２８番７号,,13,111,1460091,,,2023-10-10,清算の結了等,,,2015-10-05,1,,,,,アイランドショウジ,0
2587,9011001116585,登記記録の閉鎖等,0,2023-10-16,2023-10-04,株式会社Ｓｏｍｅｔｈｉｎｇ　ＮＥＷ,,株式会社,東京都,杉並区,永福３丁目３９番１１号,,13,115,1680064,,,2023-10-04,清算の結了等,,,2017-06-01,1,,,,,サムシングニュー,0
2611,9012702006166,登記記録の閉鎖等,0,2023-10-16,2023-10-12,有限会社アント,,有限会社,東京都,東久留米市,上の原１丁目３番７～５０４号,,13,222,2030001,,,2023-10-12,清算の結了等,,,2015-10-05,1,,,,,アント,0
2622,9021002002560,登記記録の閉鎖等,0,2023-10-16,2023-10-04,有限会社芝喜,,有限会社,神奈川県,藤沢市,湘南台５丁目３２番地の５,,14,205,2520804,,,2023-10-04,清算の結了等,,,2015-10-05,1,,,,,シバキ,0
2633,9030002025661,登記記録の閉鎖等,0,2023-10-16,2023-10-10,有限会社市瀬運送,,有限会社,埼玉県,蕨市,中央５丁目１９番１４号,,11,223,3350004,,,2023-10-10,清算の結了等,,,2015-10-05,1,,,,,イチノセウンソウ,0
2635,9030002058216,登記記録の閉鎖等,0,2023-10-16,2023-10-02,有限会社池内,,有限会社,埼玉県,朝霞市,浜崎１丁目６番１０号,,11,227,3510033,,,2023-10-02,清算の結了等,,,2015-10-05,1,,,,,イケウチ,0
2645,9040001089120,登記記録の閉鎖等,0,2023-10-16,2023-09-28,株式会社すまいるぱーく,,株式会社,千葉県,千葉市稲毛区,園生町４２０番地１,,12,103,2630051,,,2023-09-28,清算の結了等,,,2015-10-05,1,,,,,スマイルパーク,0
2654,9040002097782,登記記録の閉鎖等,0,2023-10-16,2023-09-29,有限会社吉岡建業,,有限会社,千葉県,野田市,山崎１０５３番地,,12,208,2780022,,,2023-09-29,清算の結了等,,,2015-10-05,1,,,,,ヨシオカケンギョウ,0
2657,9040003009547,登記記録の閉鎖等,0,2023-10-16,2023-10-02,合同会社ＧＢＢ,,合同会社,千葉県,白井市,根１３２番地の１３,,12,232,2701431,,,2023-10-02,清算の結了等,,,2017-01-18,1,,,,,ジービービー,0
2662,9050002022475,登記記録の閉鎖等,0,2023-10-16,2023-10-05,有限会社エムアイ企画,,有限会社,茨城県,つくば市,天久保２丁目９番地の２,,08,220,3050005,,,2023-10-05,清算の結了等,,,2015-10-05,1,,,,,エムアイキカク,0
2704,9120002034843,登記記録の閉鎖等,0,2023-10-16,2023-10-02,有限会社オリエントノベルティス商会,,有限会社,大阪府,大阪市北区,梅田１丁目１番大阪駅前第３ビル１４１４号,,27,127,5300001,,,2023-10-02,合併による解散等,5120002034475,令和５年１０月１日大阪市北区梅田一丁目１番大阪駅前第３ビル１４１４号エス・デー・インベストメンツ株式会社（5120002034475）に合併し解散,2015-10-05,1,,,,,オリエントノベルティスショウカイ,0
2709,9120003007385,登記記録の閉鎖等,0,2023-10-16,2023-10-06,エフピーコンフォート合同会社,,合同会社,大阪府,枚方市,高塚町２５番３－２４０１,,27,210,5730035,,,2023-10-06,清算の結了等,,,2015-10-05,1,,,,,エフピーコンフォート,0
2724,9122001020915,登記記録の閉鎖等,0,2023-10-16,2023-10-02,株式会社コウキ,,株式会社,大阪府,柏原市,円明町１０番６号,,27,221,5820027,,,2023-10-02,清算の結了等,,,2015-10-05,1,,,,,コウキ,0
2756,9180002038005,登記記録の閉鎖等,0,2023-10-16,2023-10-06,有限会社花由,,有限会社,愛知県,名古屋市緑区,大高町字横峯６７番地の３,,23,114,4598001,,,2023-10-06,清算の結了等,,,2015-10-05,1,,,,,ハナヨシ,0
2772,9200002016008,登記記録の閉鎖等,0,2023-10-16,2023-10-12,有限会社カトウ,,有限会社,岐阜県,美濃加茂市,草笛町３丁目４番２４号,,21,211,5050045,,,2023-10-12,清算の結了等,,,2015-10-05,1,,,,,カトウ,0
2777,9220001009010,登記記録の閉鎖等,0,2023-10-16,2023-10-10,ユーエスカートン株式会社,,株式会社,石川県,白山市,福留町２１１番地,,17,210,9240051,,,2023-10-10,合併による解散等,3120001116986,令和５年１０月１日兵庫県伊丹市東有岡五丁目３３番地セッツカートン株式会社（3120001116986）に合併し解散,2015-10-05,1,,,,,ユーエスカートン,0
2781,9230005000567,登記記録の閉鎖等,0,2023-10-16,2023-10-12,協同組合北陸シューズ,,その他の設立登記法人,富山県,下新川郡朝日町,道下４３６番地,,16,343,9390743,,,2023-10-12,清算の結了等,,,2015-10-05,1,,,,,ホクリクシューズ,0
2790,9260002015796,登記記録の閉鎖等,0,2023-10-16,2023-10-04,有限会社メトロ永和,,有限会社,大阪府,東大阪市,長栄寺７番３号,,27,227,5770055,,,2023-10-04,清算の結了等,,,2015-10-05,1,,,,,メトロエイワ,0
2794,9290001043102,登記記録の閉鎖等,0,2023-10-16,2023-09-29,ファインドカラー株式会社,,株式会社,福岡県,筑紫野市,二日市中央３丁目８番５号ラフィーネ二日市ビル２階,,40,217,8180072,,,2023-09-29,清算の結了等,,,2015-10-05,1,,,,,ファインドカラー,0
2807,9300002004431,登記記録の閉鎖等,0,2023-10-16,2023-10-10,有限会社岡本金物建材店,,有限会社,佐賀県,小城市,牛津町牛津９９１番地１,,41,208,8490303,,,2023-10-10,清算の結了等,,,2015-10-05,1,,,,,オカモトカナモノケンザイテン,0
2820,9360001032312,登記記録の閉鎖等,0,2023-10-16,2023-10-06,株式会社リゾートクリエイトＷｅｓｔ,,株式会社,沖縄県,宮古島市,平良字久貝１０６７－１３丸良ハイツ３０５,,47,214,9060015,,,2023-10-06,清算の結了等,,,2023-07-21,1,,,,,リゾートクリエイトウエスト,0
2843,9500001014849,登記記録の閉鎖等,0,2023-10-16,2023-10-02,株式会社アクエイト,,株式会社,東京都,港区,白金台３丁目２番３４号,,13,103,1080071,,,2023-10-02,合併による解散等,5010403028649,令和５年１０月１日東京都港区白金台三丁目２番３４号合同会社Ｐｏｗｅｒ　Ｈｏｕｓｅ（5010403028649）に合併し解散,2015-10-05,1,,,,,アクエイト,0
