sequenceNumber,corporateNumber,process,correct,updateDate,changeDate,name,nameImageId,kind,prefectureName,cityName,streetNumber,addressImageId,prefectureCode,cityCode,postCode,addressOutside,addressOutsideImageId,closeDate,closeCause,successorCorporateNumber,changeCause,assignmentDate,latest,enName,enPrefectureName,enCityName,enAddressOutside,furigana,hihyoji
7,1010001188857,登記記録の閉鎖等,0,2025-08-26,2025-07-28,東京ケータリングストア株式会社,,株式会社,東京都,新宿区,左門町３番地１左門イレブンビル３階,,13,104,1600017,,,2025-07-28,清算の結了等,,,2018-01-15,1,,,,,トウキョウケータリングストア,0
15,1010003031486,登記記録の閉鎖等,0,2025-08-26,2025-07-31,合同会社ダブルオーナイン,,合同会社,東京都,中央区,日本橋１丁目４番１号,,13,102,1030027,,,2025-07-31,清算の結了等,,,2020-01-21,1,,,,,ダブルオーナイン,0
17,1010003040611,登記記録の閉鎖等,0,2025-08-26,2025-07-28,シブトラディ合同会社,,合同会社,東京都,文京区,本駒込６丁目１３番１９号,,13,105,1130021,,,2025-07-28,清算の結了等,,,2023-05-18,1,,,,,シブトラディ,0
24,1010401022021,登記記録の閉鎖等,0,2025-08-26,2025-07-28,株式会社ニューライフスポーツ,,株式会社,東京都,港区,南青山５丁目９番１２号,,13,103,1070062,,,2025-07-28,清算の結了等,,,2015-10-05,1,,,,,ニューライフスポーツ,0
37,1010601027480,登記記録の閉鎖等,0,2025-08-26,2025-08-18,株式会社石井製作所,,株式会社,東京都,江東区,牡丹３丁目２３番７号,,13,108,1350046,,,2025-08-18,清算の結了等,,,2015-10-05,1,,,,,イシイセイサクジョ,0
40,1010602020096,登記記録の閉鎖等,0,2025-08-26,2025-08-20,有限会社ファッション珠光,,有限会社,東京都,墨田区,亀沢４丁目１２番３－７０２号,,13,107,1300014,,,2025-08-20,清算の結了等,,,2015-10-05,1,,,,,ファッションジュコウ,0
50,1011001157356,登記記録の閉鎖等,0,2025-08-26,2025-07-25,株式会社ＴＯＰＲＯＰ,,株式会社,東京都,渋谷区,道玄坂１丁目１０番８号渋谷道玄坂東急ビル２Ｆ－Ｃ,,13,113,1500043,,,2025-07-25,清算の結了等,,,2023-10-05,1,,,,,トップロップ,0
52,1011002035412,登記記録の閉鎖等,0,2025-08-26,2025-08-22,株式会社オカノコーポレーション,,株式会社,東京都,渋谷区,広尾１丁目６番１０号,,13,113,1500012,,,2025-08-22,合併による解散等,3080101000005,令和７年８月２０日静岡県沼津市大手町五丁目６番７号スルガ総合保険株式会社（3080101000005）に合併し解散,2015-10-05,1,,,,,オカノコーポレーション,0
56,1011101085473,登記記録の閉鎖等,0,2025-08-26,2025-08-19,ＭＡＲＵＴＩ　ＪＡＰＡＮ株式会社,,株式会社,山梨県,甲府市,中央４丁目８番８－１００２号,,19,201,4000032,,,2025-08-19,清算の結了等,,,2018-09-27,1,,,,,マルチジャパン,0
68,1011801031074,登記記録の閉鎖等,0,2025-08-26,2025-08-25,株式会社ＵＫＩ－ＰＬＵＳ,,株式会社,東京都,足立区,西保木間２丁目３番３－５０４号,,13,121,1210812,,,2025-08-25,清算の結了等,,,2015-11-25,1,,,,,,0
71,1012401011284,登記記録の閉鎖等,0,2025-08-26,2025-08-25,ジュリアン株式会社,,株式会社,東京都,三鷹市,下連雀３丁目２１番２３号,,13,204,1810013,,,2025-08-25,清算の結了等,,,2015-10-05,1,,,,,ジュリアン,0
75,1012702013954,登記記録の閉鎖等,0,2025-08-26,2025-08-25,有限会社美鈴電気工業,,有限会社,東京都,稲城市,矢野口１７２４番地,,13,225,2060812,,,2025-08-25,清算の結了等,,,2015-10-05,1,,,,,,0
95,1020002002652,登記記録の閉鎖等,0,2025-08-26,2025-08-06,有限会社荻原商会,,有限会社,神奈川県,横浜市泉区,新橋町１８９９番地,,14,116,2450009,,,2025-08-06,清算の結了等,,,2015-10-05,1,,,,,オギワラショウカイ,0
98,1021001026353,登記記録の閉鎖等,0,2025-08-26,2025-08-07,篠原印刷株式会社,,株式会社,神奈川県,座間市,相模が丘４丁目２５番３号,,14,216,2520001,,,2025-08-07,清算の結了等,,,2015-10-05,1,,,,,シノハラインサツ,0
101,1021002040155,登記記録の閉鎖等,0,2025-08-26,2025-08-21,有限会社エアーズ,,有限会社,東京都,世田谷区,大蔵２丁目１番２０－６０２号,,13,112,1570074,,,2025-08-21,清算の結了等,,,2015-10-05,1,,,,,エアーズ,0
118,1030005003291,登記記録の閉鎖等,0,2025-08-26,2025-08-19,医療法人善龍会,,その他の設立登記法人,埼玉県,さいたま市南区,南浦和２丁目４２番１２号ジェイステージ南浦和１階,,11,108,3360017,,,2025-08-19,清算の結了等,,,2015-10-05,1,,,,,ゼンリュウカイ,0
120,1040001105883,登記記録の閉鎖等,0,2025-08-26,2025-07-31,ＡＬＣＧ株式会社,,株式会社,千葉県,船橋市,習志野台４丁目１７番１－４０３号,,12,204,2740063,,,2025-07-31,清算の結了等,,,2018-08-23,1,,,,,エーエルシージー,0
126,1050002033348,登記記録の閉鎖等,0,2025-08-26,2025-08-12,有限会社富正建設,,有限会社,茨城県,龍ケ崎市,薄倉町１３４８番地,,08,208,3010805,,,2025-08-12,清算の結了等,,,2015-10-05,1,,,,,トミショウケンセツ,0
127,1050002035229,登記記録の閉鎖等,0,2025-08-26,2025-08-13,有限会社石川材木店,,有限会社,茨城県,常陸太田市,下宮河内町１１１番地,,08,212,3130103,,,2025-08-13,清算の結了等,,,2015-10-05,1,,,,,イシカワザイモクテン,0
136,1080101011689,登記記録の閉鎖等,0,2025-08-26,2025-08-22,株式会社ビルメン・サノ,,株式会社,静岡県,富士宮市,朝日町２２番３０号,,22,207,4180057,,,2025-08-22,清算の結了等,,,2015-10-05,1,,,,,ビルメンサノ,0
137,1080102003974,登記記録の閉鎖等,0,2025-08-26,2025-08-22,有限会社アイ住建,,有限会社,静岡県,沼津市,松沢町２６番地の１２フラットＹｏｕ１０２号,,22,203,4100014,,,2025-08-22,清算の結了等,,,2015-10-05,1,,,,,アイジュウケン,0
142,1100001007058,登記記録の閉鎖等,0,2025-08-26,2025-08-25,御善海苔本舗株式会社,,株式会社,長野県,長野市,若里６丁目５番３０号,,20,201,3800928,,,2025-08-25,清算の結了等,,,2015-10-05,1,,,,,オゼンノリホンポ,0
147,1110001011554,登記記録の閉鎖等,0,2025-08-26,2025-08-20,株式会社アルティスタインターナショナル,,株式会社,新潟県,五泉市,駅前２丁目７番９号,,15,218,9591823,,,2025-08-20,清算の結了等,,,2015-10-05,1,,,,,,0
175,1140001027176,登記記録の閉鎖等,0,2025-08-26,2025-08-18,株式会社カタヤマ空調設備,,株式会社,兵庫県,神戸市長田区,若松町１０丁目２番１０－２０１号,,28,106,6530038,,,2025-08-18,清算の結了等,,,2015-10-05,1,,,,,カタヤマクウチョウセツビ,0
179,1140002012615,登記記録の閉鎖等,0,2025-08-26,2025-08-21,有限会社アーキボックス,,有限会社,兵庫県,神戸市中央区,花隈町１０番９号,,28,110,6500013,,,2025-08-21,清算の結了等,,,2015-10-05,1,,,,,アーキボックス,0
180,1150003001574,登記記録の閉鎖等,0,2025-08-26,2025-08-20,合同会社セカンドクリエイト,,合同会社,奈良県,橿原市,鳥屋町１番８号,,29,205,6340822,,,2025-08-20,清算の結了等,,,2017-02-16,1,,,,,セカンドクリエイト,0
189,1180001116280,登記記録の閉鎖等,0,2025-08-26,2025-07-31,Ｙコーポレーション株式会社,,株式会社,愛知県,名古屋市中川区,東中島町７丁目３９番地,,23,110,4540866,,,2025-07-31,清算の結了等,,,2015-10-05,1,,,,,ワイコーポレーション,0
206,1190001026215,登記記録の閉鎖等,0,2025-08-26,2025-08-22,株式会社テレメディカル,,株式会社,三重県,伊賀市,生琉里３１３１番地の４,,24,216,5180821,,,2025-08-22,清算の結了等,,,2019-02-27,1,,,,,テレメディカル,0
226,1300001012970,登記記録の閉鎖等,0,2025-08-26,2025-08-25,株式会社ＳＥＲＡ,,株式会社,佐賀県,佐賀市,兵庫町大字渕４３１２番地３シャーメゾンＭ＆ＹＡ棟,,41,201,8490913,,,2025-08-25,清算の結了等,,,2022-06-16,1,,,,,セラ,0
227,1310001014421,登記記録の閉鎖等,0,2025-08-26,2025-08-20,株式会社七嶽農園,,株式会社,長崎県,五島市,岐宿町中嶽２２７０番地,,42,211,8530312,,,2025-08-20,清算の結了等,,,2016-08-24,1,,,,,ナナタケノウエン,0
241,1380002032606,登記記録の閉鎖等,0,2025-08-26,2025-08-05,有限会社中嶋建築工業,,有限会社,福島県,大沼郡会津美里町,藤家舘字沖ノ舘９３番地,,07,447,9696212,,,2025-08-05,清算の結了等,,,2015-10-05,1,,,,,ナカジマケンチクコウギョウ,0
246,1410001011326,登記記録の閉鎖等,0,2025-08-26,2025-08-21,ひとによし株式会社,,株式会社,秋田県,秋田市,中通６丁目７番９号,,05,201,0100001,,,2025-08-21,清算の結了等,,,2016-10-04,1,,,,,ヒトニヨシ,0
248,1430001008857,登記記録の閉鎖等,0,2025-08-26,2025-08-05,仙台北日本ビル管理株式会社,,株式会社,北海道,札幌市中央区,南一条東１丁目３番地,,01,101,0600051,,,2025-08-05,清算の結了等,,,2015-10-05,1,,,,,センダイキタニホンビルカンリ,0
254,1430001093057,登記記録の閉鎖等,0,2025-08-26,2025-07-16,株式会社びりじあん・ファミリー,,株式会社,北海道,札幌市西区,琴似二条４丁目１番２４号ヤマチビル２Ｆ,,01,107,0630812,,,2025-07-16,清算の結了等,,,2024-11-20,1,,,,,ビリジアンファミリー,0
258,1430005007459,登記記録の閉鎖等,0,2025-08-26,2025-08-01,中空知砂利株式会社,,株式会社,北海道,滝川市,東滝川４８５番,,01,225,0730026,,,2025-08-01,合併による解散等,8430001048285,令和７年８月１日北海道赤平市幌岡町２０２番地今野建設株式会社（8430001048285）に合併し解散,2015-10-05,1,,,,,ナカソラチジャリ,0
269,2010001188856,登記記録の閉鎖等,0,2025-08-26,2025-07-28,東京ケータリングリゾート株式会社,,株式会社,東京都,新宿区,左門町３番地１左門イレブンビル３階,,13,104,1600017,,,2025-07-28,清算の結了等,,,2018-01-15,1,,,,,トウキョウケータリングリゾート,0
282,2010401175578,登記記録の閉鎖等,0,2025-08-26,2025-07-28,九州長崎ＩＲ株式会社,,株式会社,東京都,港区,南青山２丁目２番１５号,,13,103,1070062,,,2025-07-28,清算の結了等,,,2023-07-07,1,,,,,キュウシュウナガサキアイアール,0
293,2010901000987,登記記録の閉鎖等,0,2025-08-26,2025-08-22,株式会社井口,,株式会社,東京都,八王子市,並木町２番８－６０５号,,13,201,1930831,,,2025-08-22,清算の結了等,,,2015-10-05,1,,,,,イグチ,0
295,2010901043664,登記記録の閉鎖等,0,2025-08-26,2025-08-21,株式会社ＥＤＧＥ,,株式会社,東京都,渋谷区,恵比寿西１丁目１０－１０若葉西ビル８Ｆ,,13,113,1500021,,,2025-08-21,合併による解散等,8010401185968,令和７年８月１日東京都港区南青山三丁目１番３号スプライン青山東急ビル３階株式会社ＥＤＧＥ（8010401185968）に合併し解散,2019-02-18,1,,,,,エッジ,0
298,2010902004491,登記記録の閉鎖等,0,2025-08-26,2025-08-22,有限会社桔梗電設,,有限会社,東京都,世田谷区,桜丘５丁目５１番７号,,13,112,1560054,,,2025-08-22,清算の結了等,,,2015-10-05,1,,,,,,0
322,2011102010660,登記記録の閉鎖等,0,2025-08-26,2025-07-29,有限会社樋沼,,有限会社,東京都,新宿区,北新宿１丁目１６番３号,,13,104,1690074,,,2025-07-29,清算の結了等,,,2015-10-05,1,,,,,ヒヌマ,0
327,2011105005476,登記記録の閉鎖等,0,2025-08-26,2025-07-25,一般社団法人アニマルパスウェイと野生生物の会,,その他の設立登記法人,東京都,新宿区,上落合１丁目１０番１号,,13,104,1610034,,,2025-07-25,清算の結了等,,,2015-10-05,1,,,,,アニマルパスウェイトヤセイセイブツノカイ,0
328,2011105009469,登記記録の閉鎖等,0,2025-08-26,2025-07-25,一般社団法人日本国際医療協会,,その他の設立登記法人,東京都,新宿区,新宿１丁目９番４号,,13,104,1600022,,,2025-07-25,清算の結了等,,,2020-08-26,1,,,,,ニホンコクサイイリョウキョウカイ,0
337,2011802008392,登記記録の閉鎖等,0,2025-08-26,2025-08-25,有限会社吉本建築,,有限会社,東京都,葛飾区,お花茶屋２丁目１５番８号,,13,122,1240003,,,2025-08-25,清算の結了等,,,2015-10-05,1,,,,,,0
354,2030001020793,登記記録の閉鎖等,0,2025-08-26,2025-08-19,株式会社ナガサワ機械,,株式会社,埼玉県,戸田市,大字下笹目１６５番地２,,11,224,3350037,,,2025-08-19,清算の結了等,,,2015-10-05,1,,,,,ナガサワキカイ,0
357,2030001082751,登記記録の閉鎖等,0,2025-08-26,2025-07-18,株式会社Ｊｅｔｅｄｇｅ,,株式会社,埼玉県,川口市,西川口１丁目１７番地の９ジェム西川口Ｎｏ．５・２０２号室,,11,203,3320021,,,2025-07-18,合併による解散等,8010001149860,令和７年７月１８日埼玉県川口市西川口一丁目１７番地の９ジェム西川口Ｎｏ．５・２０２号室株式会社ＣＩＲＣＵＳ（8010001149860）に合併し解散,2015-10-05,1,,,,,ジェットエッヂ,0
361,2030002012336,登記記録の閉鎖等,0,2025-08-26,2025-08-13,有限会社北東運輸倉庫,,有限会社,埼玉県,さいたま市見沼区,丸ヶ崎町３７番地１,,11,104,3370007,,,2025-08-13,清算の結了等,,,2015-10-05,1,,,,,ホクトウウンユソウコ,0
364,2030002040254,登記記録の閉鎖等,0,2025-08-26,2025-08-04,有限会社隼人大池,,有限会社,埼玉県,白岡市,爪田ケ谷４４番地１,,11,246,3490222,,,2025-08-04,清算の結了等,,,2015-10-05,1,,,,,ハヤトオオイケ,0
374,2040003020072,登記記録の閉鎖等,0,2025-08-26,2025-08-08,来令合同会社,,合同会社,茨城県,土浦市,中央２丁目６番３１号,,08,203,3000043,,,2025-08-08,清算の結了等,,,2022-05-25,1,,,,,ライレイ,0
382,2050005004683,登記記録の閉鎖等,0,2025-08-26,2025-07-24,天理教莚打分教会,,その他の設立登記法人,茨城県,坂東市,莚打５８８番地,,08,228,3060625,,,2025-07-24,合併による解散等,6030005005606,令和７年７月１６日埼玉県草加市稲荷二丁目２９番２３号天理教立野堀大教会（6030005005606）に合併し解散,2015-10-05,1,,,,,テンリキョウムシロウチブンキョウカイ,0
383,2060001008092,登記記録の閉鎖等,0,2025-08-26,2025-08-19,株式会社ダイトー,,株式会社,栃木県,那須郡那珂川町,馬頭２４２３番地６,,09,411,3240613,,,2025-08-19,清算の結了等,,,2015-10-05,1,,,,,ダイトー,0
386,2060001033660,登記記録の閉鎖等,0,2025-08-26,2025-08-19,株式会社アキトフーズ,,株式会社,栃木県,栃木市,新井町７７５番地,,09,203,3280061,,,2025-08-19,清算の結了等,,,2021-04-26,1,,,,,アキトフーズ,0
397,2080101005327,登記記録の閉鎖等,0,2025-08-26,2025-08-22,株式会社井上興業,,株式会社,静岡県,田方郡函南町,間宮７２７番地の１,,22,325,4190123,,,2025-08-22,清算の結了等,,,2015-10-05,1,,,,,イノウエコウギョウ,0
401,2090002013980,登記記録の閉鎖等,0,2025-08-26,2025-08-20,有限会社ライフステージアオキ,,有限会社,山梨県,韮崎市,上ノ山９７０番地,,19,207,4070011,,,2025-08-20,清算の結了等,,,2015-10-05,1,,,,,ライフステージアオキ,0
402,2100001018087,登記記録の閉鎖等,0,2025-08-26,2025-08-22,アスカ急便株式会社,,株式会社,長野県,塩尻市,大字みどり湖９１２番地６,,20,215,3990727,,,2025-08-22,清算の結了等,,,2015-10-05,1,,,,,アスカキュウビン,0
431,2150001013422,登記記録の閉鎖等,0,2025-08-26,2025-08-22,丸福設備工業株式会社,,株式会社,奈良県,北葛城郡河合町,広瀬台２丁目７番地１６,,29,427,6360073,,,2025-08-22,清算の結了等,,,2015-10-05,1,,,,,マルフクセツビ,0
433,2150005008848,登記記録の閉鎖等,0,2025-08-26,2025-08-21,一般社団法人今井町大和観光局,,その他の設立登記法人,奈良県,橿原市,今井町３丁目２番４１号,,29,205,6340812,,,2025-08-21,清算の結了等,,,2017-05-18,1,,,,,イマイチョウヤマトカンコウキョク,0
435,2180001029597,登記記録の閉鎖等,0,2025-08-26,2025-08-21,江崎ゴム株式会社,,株式会社,愛知県,名古屋市中村区,大宮町１丁目７番地,,23,105,4530821,,,2025-08-21,清算の結了等,,,2015-10-05,1,,,,,エサキゴム,0
436,2180001077274,登記記録の閉鎖等,0,2025-08-26,2025-07-31,株式会社ＮＨコーポレーション,,株式会社,愛知県,春日井市,大手町１１２番地１,,23,206,4860807,,,2025-07-31,合併による解散等,7180001074936,令和７年７月３１日愛知県春日井市大手町４４番地堀尾物産株式会社（7180001074936）に合併し解散,2015-10-05,1,,,,,エヌエイチコーポレーション,0
441,2180002017782,登記記録の閉鎖等,0,2025-08-26,2025-08-21,上床工業有限会社,,有限会社,愛知県,名古屋市中川区,江松２丁目２３３番地,,23,110,4540954,,,2025-08-21,清算の結了等,,,2015-10-05,1,,,,,ウワトココウギョウ,0
442,2180002020282,登記記録の閉鎖等,0,2025-08-26,2025-07-28,有限会社サンアイ商亊,,有限会社,愛知県,名古屋市熱田区,桜田町７番７号,,23,109,4560004,,,2025-07-28,清算の結了等,,,2015-10-05,1,,,,,サンアイショウジ,0
453,2230002006219,登記記録の閉鎖等,0,2025-08-26,2025-08-25,有限会社泰成建技,,有限会社,富山県,富山市,婦中町下轡田６５３番地の３,,16,201,9392716,,,2025-08-25,清算の結了等,,,2015-10-05,1,,,,,タイセイケンギ,0
461,2290001067628,登記記録の閉鎖等,0,2025-08-26,2025-07-31,株式会社ゼンリク福北,,株式会社,福岡県,福岡市博多区,井相田１丁目１番５６号,,40,132,8120881,,,2025-07-31,清算の結了等,,,2015-10-05,1,,,,,ゼンリクフクキタ,0
472,2310005008468,登記記録の閉鎖等,0,2025-08-26,2025-08-22,一般社団法人まちづくり長崎,,その他の設立登記法人,長崎県,長崎市,西琴平町９番３号,,42,201,8500933,,,2025-08-22,清算の結了等,,,2020-10-28,1,,,,,マチヅクリナガサキ,0
478,2340001016488,登記記録の閉鎖等,0,2025-08-26,2025-08-12,福商自動車販売株式会社,,株式会社,鹿児島県,奄美市,名瀬和光町５番地４,,46,222,8940007,,,2025-08-12,清算の結了等,,,2015-10-05,1,,,,,フクショウジドウシャハンバイ,0
485,2380001033298,登記記録の閉鎖等,0,2025-08-26,2025-07-29,日越飼料株式会社,,株式会社,福島県,福島市,置賜町１番２９号佐平ビル８階,,07,201,9608034,,,2025-07-29,清算の結了等,,,2022-12-01,1,,,,,,0
486,2380002010569,登記記録の閉鎖等,0,2025-08-26,2025-08-08,有限会社丹野建設工業,,有限会社,福島県,郡山市,八山田６丁目１５２番地,,07,203,9638052,,,2025-08-08,清算の結了等,,,2015-10-05,1,,,,,タンノケンセツコウギョウ,0
505,3010001082637,登記記録の閉鎖等,0,2025-08-26,2025-07-30,株式会社カワハラ技研,,株式会社,東京都,中央区,月島２丁目２番１０号,,13,102,1040052,,,2025-07-30,清算の結了等,,,2015-10-05,1,,,,,カワハラギケン,0
510,3010001251258,登記記録の閉鎖等,0,2025-08-26,2025-07-31,岡崎コンサルティング株式会社,,株式会社,東京都,中央区,新富１丁目１３番２６号新富ＴＴビル８階,,13,102,1040041,,,2025-07-31,清算の結了等,,,2025-01-10,1,,,,,オカザキコンサルティング,0
517,3010401095321,登記記録の閉鎖等,0,2025-08-26,2025-08-12,スタイナージャパン株式会社,,株式会社,大阪府,大阪市中央区,安堂寺町２丁目３番５－１２０６号,,27,128,5420061,,,2025-08-12,清算の結了等,,,2015-10-05,1,,,,,スタイナージャパン,0
528,3010405018229,登記記録の閉鎖等,0,2025-08-26,2025-07-28,特定目的会社竹芝,,その他の設立登記法人,東京都,港区,虎ノ門２丁目６番１号虎ノ門ヒルズステーションタワー,,13,103,1050001,,,2025-07-28,清算の結了等,,,2019-11-06,1,,,,,タケシバ,0
530,3010601029715,登記記録の閉鎖等,0,2025-08-26,2025-07-29,ワイデックス株式会社,,株式会社,東京都,港区,浜松町２丁目６番２号,,13,103,1050013,,,2025-07-29,合併による解散等,9021001012478,令和７年７月１日神奈川県大和市中央林間七丁目１０番１号三機大和ビル６Ｆシバントス株式会社（9021001012478）に合併し解散,2015-10-05,1,,,,,ワイデックス,0
544,3011101105031,登記記録の閉鎖等,0,2025-08-26,2025-07-24,株式会社ＮＤ,,株式会社,東京都,新宿区,高田馬場２丁目４－１５,,13,104,1690075,,,2025-07-24,清算の結了等,,,2023-11-07,1,,,,,エヌディー,0
554,3011302016457,登記記録の閉鎖等,0,2025-08-26,2025-08-25,有限会社アフロディーテ,,有限会社,東京都,杉並区,成田東５丁目３５番７号,,13,115,1660015,,,2025-08-25,清算の結了等,,,2015-10-05,1,,,,,アフロディーテ,0
573,3013302003831,登記記録の閉鎖等,0,2025-08-26,2025-08-01,有限会社佐野屋商店,,有限会社,東京都,豊島区,長崎１丁目２８番２号,,13,116,1710051,,,2025-08-01,清算の結了等,,,2015-10-05,1,,,,,サノヤショウテン,0
575,3013305002855,登記記録の閉鎖等,0,2025-08-26,2025-07-28,一般社団法人日本潜熱蓄熱建材協会,,その他の設立登記法人,東京都,豊島区,東池袋２丁目３９番２号４０１号,,13,116,1700013,,,2025-07-28,清算の結了等,,,2018-11-08,1,,,,,ニホンセンネツチクネツケンザイキョウカイ,0
606,3040001100833,登記記録の閉鎖等,0,2025-08-26,2025-07-30,株式会社ティーエス,,株式会社,東京都,中央区,八丁堀２丁目１番１０号,,13,102,1040032,,,2025-07-30,清算の結了等,,,2017-06-28,1,,,,,ティーエス,0
628,3080101009310,登記記録の閉鎖等,0,2025-08-26,2025-08-21,八興紙販売株式会社,,株式会社,静岡県,富士市,今泉６丁目５番３５号,,22,210,4170001,,,2025-08-21,清算の結了等,,,2015-10-05,1,,,,,ハッコウシハンバイ,0
635,3120001221332,登記記録の閉鎖等,0,2025-08-26,2025-08-07,株式会社ＧＮＳ,,株式会社,大阪府,大阪市中央区,島之内１丁目４－３２ホワイティ島之内２０２号,,27,128,5420082,,,2025-08-07,清算の結了等,,,2019-05-29,1,,,,,,0
664,3160005011420,登記記録の閉鎖等,0,2025-08-26,2025-08-21,乘船寺,,その他の設立登記法人,滋賀県,愛知郡愛荘町,愛知川１５５８番地,,25,425,5291331,,,2025-08-21,清算の結了等,,,2025-06-24,1,,,,,ジョウセンジ,0
679,3200003004941,登記記録の閉鎖等,0,2025-08-26,2025-08-21,合同会社火地晋,,合同会社,岐阜県,岐阜市,柳津町下佐波１丁目２５０,,21,201,5016121,,,2025-08-21,清算の結了等,,,2020-09-02,1,,,,,カチシン,0
686,3290003010262,登記記録の閉鎖等,0,2025-08-26,2025-08-01,ＹＡＹ合同会社,,合同会社,福岡県,福岡市南区,平和２丁目２０番１６号,,40,134,8150071,,,2025-08-01,清算の結了等,,,2020-07-30,1,,,,,ワイエーワイ,0
691,3310005006413,登記記録の閉鎖等,0,2025-08-26,2025-08-21,松浦地区木材協同組合,,その他の設立登記法人,長崎県,松浦市,今福町浦免４４３番地１,,42,208,8594528,,,2025-08-21,清算の結了等,,,2015-10-05,1,,,,,マツウラチクモクザイ,0
703,3370001039130,登記記録の閉鎖等,0,2025-08-26,2025-08-05,株式会社シェアベッツ,,株式会社,宮城県,仙台市太白区,山田北前町３３番６９号,,04,104,9820813,,,2025-08-05,清算の結了等,,,2016-02-01,1,,,,,シェアベッツ,0
716,3400001003727,登記記録の閉鎖等,0,2025-08-26,2025-07-18,株式会社シーエーエー東北,,株式会社,岩手県,紫波郡紫波町,北日詰字牡丹野２７０番地,,03,321,0283309,,,2025-07-18,合併による解散等,3180301018670,令和７年７月１日愛知県豊田市竜神町東名３２番地株式会社シーエーエー（3180301018670）に合併し解散,2015-10-05,1,,,,,,0
721,3420001006579,登記記録の閉鎖等,0,2025-08-26,2025-08-07,マリン開発株式会社,,株式会社,青森県,三戸郡南部町,大字沖田面字荒田１３番地１,,02,445,0390105,,,2025-08-07,清算の結了等,,,2015-10-05,1,,,,,マリンカイハツ,0
729,3430001082826,登記記録の閉鎖等,0,2025-08-26,2025-08-20,株式会社マックスヒロセ,,株式会社,北海道,札幌市北区,北二十七条西１６丁目６番１６号,,01,102,0010027,,,2025-08-20,清算の結了等,,,2020-11-27,1,,,,,マックスヒロセ,0
743,4010001127473,登記記録の閉鎖等,0,2025-08-26,2025-07-31,株式会社ＪＥＴ　Ａｃａｄｅｍｙ,,株式会社,東京都,千代田区,神田神保町１丁目１０３番の１２０６,,13,101,1010051,,,2025-07-31,清算の結了等,,,2015-10-05,1,,,,,ジェットアカデミー,0
748,4010002002626,登記記録の閉鎖等,0,2025-08-26,2025-08-07,三協印刷有限会社,,有限会社,東京都,豊島区,南大塚２丁目１６－４,,13,116,1700005,,,2025-08-07,清算の結了等,,,2015-10-05,1,,,,,サンキョウインサツ,0
750,4010002024505,登記記録の閉鎖等,0,2025-08-26,2025-08-01,有限会社フッカー,,有限会社,東京都,中央区,銀座２丁目３番４号,,13,102,1040061,,,2025-08-01,合併による解散等,3010001114431,令和７年８月１日東京都中央区銀座二丁目３番４号株式会社フランカー（3010001114431）に合併し解散,2015-10-05,1,,,,,フッカー,0
763,4010405020126,登記記録の閉鎖等,0,2025-08-26,2025-07-28,特定目的会社港北開発,,その他の設立登記法人,東京都,港区,虎ノ門２丁目６番１号虎ノ門ヒルズステーションタワー,,13,103,1050001,,,2025-07-28,清算の結了等,,,2021-08-18,1,,,,,コウホクカイハツ,0
771,4010901047201,登記記録の閉鎖等,0,2025-08-26,2025-08-25,株式会社Ｌｉｖｅｌｙ　Ｋｉｔｃｈｅｎ,,株式会社,東京都,世田谷区,若林３丁目１５番地３－４０８,,13,112,1540023,,,2025-08-25,清算の結了等,,,2020-10-14,1,,,,,ライブリーキッチン,0
772,4010903002922,登記記録の閉鎖等,0,2025-08-26,2025-08-22,合同会社ジラフル,,合同会社,東京都,江東区,大島１丁目１８－４ドエルリバーサイド大島４１０号室,,13,108,1360072,,,2025-08-22,清算の結了等,,,2015-11-06,1,,,,,ジラフル,0
773,4011001045327,登記記録の閉鎖等,0,2025-08-26,2025-08-04,プラネックスカーズ株式会社,,株式会社,東京都,渋谷区,恵比寿西２丁目１１番９号,,13,113,1500021,,,2025-08-04,合併による解散等,9011001062391,令和７年７月１日東京都渋谷区広尾二丁目２１番１１号プラネックスコミュニケーションズ株式会社（9011001062391）に合併し解散,2015-10-05,1,,,,,プラネックスカーズ,0
783,4011101032167,登記記録の閉鎖等,0,2025-08-26,2025-07-25,株式会社ライズ企画,,株式会社,東京都,新宿区,高田馬場４丁目１６番１２号,,13,104,1690075,,,2025-07-25,清算の結了等,,,2015-10-05,1,,,,,ライズキカク,0
789,4011101093119,登記記録の閉鎖等,0,2025-08-26,2025-07-28,株式会社ワイケイ,,株式会社,東京都,新宿区,新宿５丁目３－４－４０４,,13,104,1600022,,,2025-07-28,清算の結了等,,,2020-11-11,1,,,,,ワイケイ,0
793,4011102000602,登記記録の閉鎖等,0,2025-08-26,2025-07-24,有限会社アトリエウィーン,,有限会社,東京都,新宿区,中落合１丁目７番２２号－１０１,,13,104,1610032,,,2025-07-24,清算の結了等,,,2015-10-05,1,,,,,アトリエウィーン,0
826,4020005013743,登記記録の閉鎖等,0,2025-08-26,2025-08-06,一般社団法人日本産業心理職協会,,その他の設立登記法人,神奈川県,横浜市港北区,新横浜３丁目１２番地４エクステ新横浜ビル２１０,,14,109,2220033,,,2025-08-06,清算の結了等,,,2018-06-29,1,,,,,ニホンサンギョウシンリショクキョウカイ,0
829,4021002003860,登記記録の閉鎖等,0,2025-08-26,2025-08-18,有限会社のばら書店,,有限会社,神奈川県,藤沢市,辻堂１丁目３番１３号,,14,205,2510047,,,2025-08-18,清算の結了等,,,2015-10-05,1,,,,,ノバラショテン,0
842,4030002086163,登記記録の閉鎖等,0,2025-08-26,2025-08-05,有限会社サキ製作所,,有限会社,埼玉県,越谷市,七左町６丁目２２５番地１,,11,222,3430851,,,2025-08-05,清算の結了等,,,2015-10-05,1,,,,,,0
853,4040003022059,登記記録の閉鎖等,0,2025-08-26,2025-08-01,合同会社英人,,合同会社,千葉県,市原市,西広４丁目１番地９号,,12,219,2900022,,,2025-08-01,清算の結了等,,,2023-03-01,1,,,,,ヒデト,0
857,4040005006687,登記記録の閉鎖等,0,2025-08-26,2025-07-31,特定非営利活動法人ウェストビル,,その他の設立登記法人,千葉県,印西市,松崎５１７番地５,,12,231,2701344,,,2025-07-31,清算の結了等,,,2015-10-05,1,,,,,ウェストビル,0
866,4080402022151,登記記録の閉鎖等,0,2025-08-26,2025-08-21,有限会社彦八,,有限会社,静岡県,周智郡森町,飯田３０６８番地の２４,,22,461,4370222,,,2025-08-21,清算の結了等,,,2015-10-05,1,,,,,ヒコハチ,0
882,4120001253374,登記記録の閉鎖等,0,2025-08-26,2025-08-07,ＴＹＣＨＥＳ株式会社,,株式会社,大阪府,大阪市北区,本庄東３丁目３番７号マンション淀３０１Ｂ,,27,127,5310074,,,2025-08-07,清算の結了等,,,2023-03-23,1,,,,,タイチェス,0
890,4120002066750,登記記録の閉鎖等,0,2025-08-26,2025-08-08,有限会社隆輝,,有限会社,大阪府,大阪市浪速区,元町２丁目２番７号,,27,111,5560016,,,2025-08-08,清算の結了等,,,2015-10-05,1,,,,,リュウキ,0
891,4120003025334,登記記録の閉鎖等,0,2025-08-26,2025-08-07,ＢｅＳｉｄｅ合同会社,,合同会社,大阪府,大阪市北区,梅田１丁目２番２号大阪駅前第２ビル１２‐１２,,27,127,5300001,,,2025-08-07,清算の結了等,,,2023-11-14,1,,,,,ビサイド,0
926,4160001015804,登記記録の閉鎖等,0,2025-08-26,2025-08-19,株式会社ほほえみ,,株式会社,滋賀県,野洲市,永原６５１番地,,25,210,5202304,,,2025-08-19,合併による解散等,4160001015639,令和７年８月１９日滋賀県野洲市小篠原１９７９番地株式会社大生産業（4160001015639）に合併し解散,2015-10-05,1,,,,,ホホエミ,0
934,4180301034832,登記記録の閉鎖等,0,2025-08-26,2025-08-13,今村機搬株式会社,,株式会社,愛知県,刈谷市,野田町沖野８番地１３,,23,210,4480803,,,2025-08-13,清算の結了等,,,2021-04-14,1,,,,,イマムラキハン,0
942,4210001015204,登記記録の閉鎖等,0,2025-08-26,2025-08-22,内倉塗装株式会社,,株式会社,福井県,坂井市,坂井町大味第５７号２４番地１４,,18,210,9190547,,,2025-08-22,清算の結了等,,,2015-10-05,1,,,,,ウチクラトソウ,0
947,4240005011114,登記記録の閉鎖等,0,2025-08-26,2025-07-25,金光教重井教会,,その他の設立登記法人,広島県,尾道市,因島重井町２８５０番地の６,,34,205,7222102,,,2025-07-25,合併による解散等,5240005007474,令和７年７月２５日広島県福山市神辺町字上御領２０８１番地金光教芸備教会（5240005007474）に合併し解散,2015-10-05,1,,,,,,0
955,4290001084670,登記記録の閉鎖等,0,2025-08-26,2025-08-13,株式会社フェディサカグチ,,株式会社,福岡県,糟屋郡志免町,志免４丁目２番１号,,40,343,8112202,,,2025-08-13,清算の結了等,,,2019-03-29,1,,,,,フェディサカグチ,0
957,4290002040334,登記記録の閉鎖等,0,2025-08-26,2025-07-31,有限会社モリキ,,有限会社,福岡県,大野城市,山田４丁目１３番１３号,,40,219,8160922,,,2025-07-31,清算の結了等,,,2015-10-05,1,,,,,モリキ,0
966,4350003003242,登記記録の閉鎖等,0,2025-08-26,2025-07-08,Ｏｎｇｏ合同会社,,合同会社,宮崎県,児湯郡新富町,富田南１丁目９４,,45,402,8891414,,,2025-07-08,合併による解散等,8350003003008,令和７年７月７日宮崎県児湯郡新富町富田南一丁目９４Ｂｅｓｔａｙｓ合同会社（8350003003008）に合併し解散,2018-12-03,1,,,,,オンゴー,0
973,4390001010385,登記記録の閉鎖等,0,2025-08-26,2025-08-20,新和重機整備株式会社,,株式会社,山形県,東置賜郡高畠町,大字夏茂２０３番地４,,06,381,9992172,,,2025-08-20,清算の結了等,,,2015-10-05,1,,,,,シンワジュウキセイビ,0
982,4420002001149,登記記録の閉鎖等,0,2025-08-26,2025-08-05,有限会社ゴクローサン,,有限会社,青森県,青森市,千刈１丁目１４番１５号,,02,201,0380015,,,2025-08-05,清算の結了等,,,2015-10-05,1,,,,,ゴクローサン,0
990,4430002007203,登記記録の閉鎖等,0,2025-08-26,2025-08-04,有限会社建築制作工房,,有限会社,北海道,札幌市豊平区,平岸三条５丁目４番２２号,,01,105,0620933,,,2025-08-04,清算の結了等,,,2015-10-05,1,,,,,ケンチクセイサクコウボウ,0
998,5010001104348,登記記録の閉鎖等,0,2025-08-26,2025-07-30,株式会社インターコア,,株式会社,東京都,千代田区,神田神保町３丁目２５番１１号,,13,101,1010051,,,2025-07-30,清算の結了等,,,2015-10-05,1,,,,,インターコア,0
1000,5010001140582,登記記録の閉鎖等,0,2025-08-26,2025-07-31,株式会社ビジネステクノロジー研究所,,株式会社,東京都,中央区,入船３丁目１番１０－１１０１号,,13,102,1040042,,,2025-07-31,清算の結了等,,,2015-10-05,1,,,,,ビジネステクノロジー,0
1006,5010002010074,登記記録の閉鎖等,0,2025-08-26,2025-07-31,有限会社三旺商亊,,有限会社,東京都,千代田区,有楽町２丁目１０番１号,,13,101,1000006,,,2025-07-31,清算の結了等,,,2015-10-05,1,,,,,サンオウショウジ,0
1011,5010003036936,登記記録の閉鎖等,0,2025-08-26,2025-07-31,Ｍａｒｂｌｅ合同会社,,合同会社,東京都,千代田区,丸の内１丁目４番１号東京共同会計事務所内,,13,101,1000005,,,2025-07-31,清算の結了等,,,2022-02-02,1,,,,,マーブル,0
1021,5010402010087,登記記録の閉鎖等,0,2025-08-26,2025-07-28,有限会社ノエル,,有限会社,東京都,港区,白金２丁目５番１０号,,13,103,1080072,,,2025-07-28,清算の結了等,,,2015-10-05,1,,,,,ノエル,0
1022,5010403018121,登記記録の閉鎖等,0,2025-08-26,2025-07-28,合同会社金沢西口駅前ホテル,,合同会社,東京都,港区,虎ノ門５丁目３番２０号株式会社アカウンティング・マネジメント・サービス内,,13,103,1050001,,,2025-07-28,清算の結了等,,,2018-02-20,1,,,,,カナザワニシグチエキマエホテル,0
1023,5010403026157,登記記録の閉鎖等,0,2025-08-26,2025-08-18,合同会社Ｔｏｋｙｏ　Ｂｒａｉｎ　Ｓｔｕｄｉｏ,,合同会社,東京都,墨田区,向島２丁目２２－６ダイアパレス隅田公園１０３,,13,107,1310033,,,2025-08-18,清算の結了等,,,2021-09-27,1,,,,,トウキョウブレインスタジオ,0
1031,5010602023780,登記記録の閉鎖等,0,2025-08-26,2025-08-21,有限会社三光,,有限会社,東京都,江東区,三好４丁目４番５号,,13,108,1350022,,,2025-08-21,清算の結了等,,,2015-10-05,1,,,,,,0
1043,5011001131200,登記記録の閉鎖等,0,2025-08-26,2025-07-25,ＮＳＴ株式会社,,株式会社,東京都,目黒区,大岡山１丁目１２番１３号,,13,110,1520033,,,2025-07-25,清算の結了等,,,2019-12-06,1,,,,,エヌエスティー,0
1059,5011101085817,登記記録の閉鎖等,0,2025-08-26,2025-07-22,株式会社アドアーク,,株式会社,東京都,新宿区,新宿６丁目２７番２９－１４２８号,,13,104,1600022,,,2025-07-22,清算の結了等,,,2018-10-30,1,,,,,アドアーク,0
1061,5011101093175,登記記録の閉鎖等,0,2025-08-26,2025-07-30,株式会社オープンストリームホールディングス,,株式会社,東京都,新宿区,西新宿２丁目７番１号,,13,104,1600023,,,2025-07-30,合併による解散等,7010401001556,令和７年７月１日東京都港区赤坂一丁目８番１号アクセンチュア株式会社（7010401001556）に合併し解散,2020-11-19,1,,,,,オープンストリームホールディングス,0
1067,5011201022430,登記記録の閉鎖等,0,2025-08-26,2025-07-24,株式会社アダチ,,株式会社,東京都,新宿区,大久保１丁目９番１７号シルバービル５０３号室,,13,104,1690072,,,2025-07-24,清算の結了等,,,2020-10-02,1,,,,,アダチ,0
1069,5011303003849,登記記録の閉鎖等,0,2025-08-26,2025-08-25,合同会社漆黒,,合同会社,東京都,杉並区,上高井戸１丁目４－２５ＲＡＹＨＡＵＳ八幡山３０２,,13,115,1680074,,,2025-08-25,清算の結了等,,,2020-12-08,1,,,,,シッコク,0
1078,5011802009834,登記記録の閉鎖等,0,2025-08-26,2025-08-21,有限会社インテリアワイダ,,有限会社,東京都,足立区,花畑１丁目１６番１５号,,13,121,1210061,,,2025-08-21,清算の結了等,,,2015-10-05,1,,,,,インテリアワイダ,0
1079,5012401010010,登記記録の閉鎖等,0,2025-08-26,2025-08-20,株式会社藤栄タオル,,株式会社,東京都,府中市,府中町３丁目２番地の７,,13,206,1830055,,,2025-08-20,清算の結了等,,,2015-10-05,1,,,,,トウエイタオル,0
1090,5020001039873,登記記録の閉鎖等,0,2025-08-26,2025-08-05,株式会社ギガビットシステムズ,,株式会社,神奈川県,横浜市瀬谷区,東野台１２番地の１０,,14,114,2460011,,,2025-08-05,清算の結了等,,,2015-10-05,1,,,,,ギガビットシステムズ,0
1092,5020001152767,登記記録の閉鎖等,0,2025-08-26,2025-07-25,ＥＬ　Ｓｈｉｐｐｉｎｇ　Ｊａｐａｎ株式会社,,株式会社,神奈川県,横浜市西区,高島１丁目２－５横濱ゲートタワー３Ｆ－Ｒ１８,,14,103,2200011,,,2025-07-25,清算の結了等,,,2023-08-08,1,,,,,エルシッピングジャパン,0
1100,5021001044161,登記記録の閉鎖等,0,2025-08-26,2025-08-21,原田総合企画株式会社,,株式会社,神奈川県,横須賀市,佐野町２丁目１８番地,,14,201,2380052,,,2025-08-21,合併による解散等,9020001006804,令和７年７月３０日横浜市金沢区釜利谷東二丁目１５番１３号株式会社ベストパートナー（9020001006804）に合併し解散,2015-10-05,1,,,,,ハラダソウゴウキカク,0
1104,5021002030540,登記記録の閉鎖等,0,2025-08-26,2025-08-15,有限会社アスカ工業,,有限会社,神奈川県,厚木市,飯山南４丁目２２番２７号コーポカレラ２０２号室,,14,212,2430218,,,2025-08-15,清算の結了等,,,2015-10-05,1,,,,,アスカコウギョウ,0
1108,5030001020642,登記記録の閉鎖等,0,2025-08-26,2025-08-20,不二グレート工業株式会社,,株式会社,埼玉県,戸田市,喜沢２丁目２３番６号,,11,224,3350013,,,2025-08-20,清算の結了等,,,2015-10-05,1,,,,,フジグレート,0
1109,5030001053881,登記記録の閉鎖等,0,2025-08-26,2025-08-19,株式会社葛西工業,00015018,株式会社,埼玉県,三郷市,戸ケ崎５丁目１４９番地１,,11,237,3410044,,,2025-08-19,清算の結了等,,,2015-10-05,1,,,,,カサイコウギョウ,0
1117,5030002041415,登記記録の閉鎖等,0,2025-08-26,2025-08-21,有限会社宝録屋商店,,有限会社,埼玉県,加須市,下高柳１０５２番地,,11,210,3470033,,,2025-08-21,清算の結了等,,,2015-10-05,1,,,,,ホウロクヤショウテン,0
1125,5030003015673,登記記録の閉鎖等,0,2025-08-26,2025-08-19,合同会社ＧＲＯＷ,,合同会社,埼玉県,草加市,西町６１７番地６,,11,221,3400035,,,2025-08-19,清算の結了等,,,2020-08-07,1,,,,,グロウ,0
1132,5040002098140,登記記録の閉鎖等,0,2025-08-26,2025-07-31,有限会社原田商会,,有限会社,千葉県,野田市,木間ケ瀬７４１番地１４,,12,208,2700222,,,2025-07-31,清算の結了等,,,2015-10-05,1,,,,,,0
1133,5040003001788,登記記録の閉鎖等,0,2025-08-26,2025-07-31,イーシステムコンサルティング合同会社,,合同会社,千葉県,松戸市,日暮１丁目２番地の３,,12,207,2702253,,,2025-07-31,清算の結了等,,,2015-10-05,1,,,,,イーシステムコンサルティング,0
1140,5050005008038,登記記録の閉鎖等,0,2025-08-26,2025-08-12,特定非営利活動法人龍ヶ崎フォーラム,00023765,その他の設立登記法人,茨城県,龍ケ崎市,城ノ内２丁目１５番地２,,08,208,3010847,,,2025-08-12,清算の結了等,,,2015-10-05,1,,,,,リュウガサキフォーラム,0
1141,5060002009533,登記記録の閉鎖等,0,2025-08-26,2025-08-20,有限会社吉盛建設,,有限会社,栃木県,宇都宮市,西刑部町９２１番地３,,09,201,3210917,,,2025-08-20,清算の結了等,,,2015-10-05,1,,,,,ヨシモリケンセツ,0
1151,5100002015527,登記記録の閉鎖等,0,2025-08-26,2025-08-22,有限会社城下ゴルフ,,有限会社,長野県,上田市,諏訪形２００３番地,,20,203,3860032,,,2025-08-22,清算の結了等,,,2015-10-05,1,,,,,シロシタゴルフ,0
1152,5100003005857,登記記録の閉鎖等,0,2025-08-26,2025-08-22,合同会社ＮＯリミット,,合同会社,長野県,長野市,三輪８丁目２７番３号３Ｆ,,20,201,3800803,,,2025-08-22,清算の結了等,,,2020-11-06,1,,,,,ノーリミット,0
1156,5110005002884,登記記録の閉鎖等,0,2025-08-26,2025-08-05,一般社団法人新潟県北部読売会,,その他の設立登記法人,新潟県,新潟市中央区,女池神明３丁目８番地３,,15,103,9500943,,,2025-08-05,清算の結了等,,,2015-10-05,1,,,,,ニイガタケンホクブヨミウリカイ,0
1159,5120001185014,登記記録の閉鎖等,0,2025-08-26,2025-08-06,株式会社ＫＳコーポレーション,,株式会社,大阪府,大阪市港区,港晴４丁目９番７号,,27,107,5520023,,,2025-08-06,清算の結了等,,,2015-10-05,1,,,,,ケイエスコーポレーション,0
1168,5120001244307,登記記録の閉鎖等,0,2025-08-26,2025-08-05,株式会社アクトブレイン,,株式会社,大阪府,大阪市東淀川区,東中島２丁目８番８号ワークステーション新大阪７０２,,27,114,5330033,,,2025-08-05,清算の結了等,,,2022-03-11,1,,,,,アクトブレイン,0
1180,5120005012263,登記記録の閉鎖等,0,2025-08-26,2025-08-21,一般社団法人関西中小企業研究所,,その他の設立登記法人,大阪府,大阪市中央区,谷町２丁目２番２２号,,27,128,5400012,,,2025-08-21,清算の結了等,,,2015-10-05,1,,,,,カンサイチュウショウキギョウケンキュウジョ,0
1205,5140005023878,登記記録の閉鎖等,0,2025-08-26,2025-08-19,一般社団法人Ｓｐｉｒｉｔ,,その他の設立登記法人,兵庫県,宝塚市,安倉中２丁目４番８号,,28,214,6650822,,,2025-08-19,清算の結了等,,,2017-12-18,1,,,,,スピリット,0
1231,5210001010757,登記記録の閉鎖等,0,2025-08-26,2025-08-22,株式会社ホップ,,株式会社,福井県,敦賀市,白銀町１３番３３号,,18,202,9140054,,,2025-08-22,清算の結了等,,,2015-10-05,1,,,,,ホップ,0
1239,5250005006475,登記記録の閉鎖等,0,2025-08-26,2025-07-28,医療法人福田医院,,その他の設立登記法人,山口県,岩国市,美川町南桑２４１７番地,,35,208,7400504,,,2025-07-28,清算の結了等,,,2015-10-05,1,,,,,フクダイイン,0
1265,5340005009691,登記記録の閉鎖等,0,2025-08-26,2025-08-13,特定非営利活動法人市民オンブズマン出水,,その他の設立登記法人,鹿児島県,出水市,高尾野町大久保４５３４番地,,46,208,8990401,,,2025-08-13,清算の結了等,,,2024-01-17,1,,,,,シミンオンブズマンイズミ,0
1266,5350002017507,登記記録の閉鎖等,0,2025-08-26,2025-08-13,有限会社花立技建,,有限会社,宮崎県,串間市,大字大平５８１９番地４５,,45,207,8893532,,,2025-08-13,清算の結了等,,,2015-10-05,1,,,,,ハナタテギケン,0
1268,5360001024635,登記記録の閉鎖等,0,2025-08-26,2025-08-12,株式会社ＨＡＮＡ,,株式会社,沖縄県,那覇市,辻１丁目１６－９サングリーンビル１階,00127680,47,201,9000037,,,2025-08-12,清算の結了等,,,2018-10-11,1,,,,,ハナ,0
1272,5380001021878,登記記録の閉鎖等,0,2025-08-26,2025-08-12,大日本舞踏衣装株式会社,,株式会社,福島県,須賀川市,向陽町３６４番地,,07,207,9620401,,,2025-08-12,清算の結了等,,,2015-10-05,1,,,,,ダイニホンブトウイショウ,0
1273,5380002004543,登記記録の閉鎖等,0,2025-08-26,2025-08-07,有限会社優真,,有限会社,福島県,伊達郡国見町,大字塚野目字三本木５番地の１,,07,303,9691751,,,2025-08-07,清算の結了等,,,2015-10-05,1,,,,,ユウマ,0
1279,5420002000728,登記記録の閉鎖等,0,2025-08-26,2025-08-08,有限会社長内食堂,,有限会社,青森県,青森市,新町１丁目１番１７号,,02,201,0300801,,,2025-08-08,清算の結了等,,,2015-10-05,1,,,,,オサナイショクドウ,0
1285,5430001079580,登記記録の閉鎖等,0,2025-08-26,2025-08-01,株式会社不二マネジメント,,株式会社,北海道,札幌市豊平区,豊平三条２丁目１番２９号,,01,105,0620903,,,2025-08-01,清算の結了等,,,2019-08-07,1,,,,,フジマネジメント,0
1287,5500002015684,登記記録の閉鎖等,0,2025-08-26,2025-08-22,有限会社久門工業所,,有限会社,愛媛県,新居浜市,中村松木２丁目７番５６号,,38,205,7920041,,,2025-08-22,清算の結了等,,,2015-10-05,1,,,,,クモンコウギョウショ,0
1296,6010001238269,登記記録の閉鎖等,0,2025-08-26,2025-07-31,ＳＭＥ株式会社,,株式会社,東京都,中央区,銀座１丁目２２番１１号銀座大竹ビジデンス２Ｆ,,13,102,1040061,,,2025-07-31,清算の結了等,,,2023-09-07,1,,,,,エスエムイー,0
1302,6010002023934,登記記録の閉鎖等,0,2025-08-26,2025-08-01,有限会社バンデスト,,有限会社,東京都,中央区,銀座２丁目３番４号,,13,102,1040061,,,2025-08-01,合併による解散等,3010001114431,令和７年８月１日東京都中央区銀座二丁目３番４号株式会社フランカー（3010001114431）に合併し解散,2015-10-05,1,,,,,バンデスト,0
1325,6011001055084,登記記録の閉鎖等,0,2025-08-26,2025-08-22,株式会社プロシステムエルオーシー,,株式会社,東京都,多摩市,鶴牧３丁目１４番地１－４０６,,13,224,2060034,,,2025-08-22,清算の結了等,,,2015-10-05,1,,,,,プロシステムエルオーシー,0
1326,6011001108651,登記記録の閉鎖等,0,2025-08-26,2025-08-15,株式会社ミラーリッチ,,株式会社,東京都,品川区,大崎２丁目１－２ウエストレジデンス大崎２００２,,13,109,1410032,,,2025-08-15,清算の結了等,,,2015-12-17,1,,,,,ミラーリッチ,0
1329,6011001165973,登記記録の閉鎖等,0,2025-08-26,2025-07-23,縁の株式会社,,株式会社,東京都,渋谷区,猿楽町１１番１０号１０２,,13,113,1500033,,,2025-07-23,清算の結了等,,,2024-11-15,1,,,,,エンノ,0
1340,6011105010638,登記記録の閉鎖等,0,2025-08-26,2025-07-25,Ｄａｉｂａｎ　Ｈｏｔｅｌ　Ｏｎｅ一般社団法人,,その他の設立登記法人,東京都,新宿区,四谷２丁目９番地１５東京ユナイテッド綜合事務所内,,13,104,1600004,,,2025-07-25,清算の結了等,,,2023-04-20,1,,,,,ダイバンホテルワン,0
1343,6011501005480,登記記録の閉鎖等,0,2025-08-26,2025-08-22,伊藤工事株式会社,,株式会社,東京都,荒川区,南千住５丁目２０番１１号,,13,118,1160003,,,2025-08-22,合併による解散等,5040001076592,令和７年７月３０日千葉県松戸市西馬橋蔵元町１８３番地シティプラザＩＩ１Ｆアールフィールズ株式会社（5040001076592）に合併し解散,2015-10-05,1,,,,,イトウコウジ,0
1350,6012402016427,登記記録の閉鎖等,0,2025-08-26,2025-08-21,有限会社岡田製作所,,有限会社,東京都,武蔵野市,中町３丁目３番８号,,13,203,1800006,,,2025-08-21,清算の結了等,,,2015-10-05,1,,,,,オカダセイサクショ,0
1351,6012801008157,登記記録の閉鎖等,0,2025-08-26,2025-08-08,株式会社空間工作所,,株式会社,東京都,東大和市,立野１丁目９４９番１３号,,13,220,2070021,,,2025-08-08,清算の結了等,,,2015-10-05,1,,,,,クウカンコウサクショ,0
1392,6030002122263,登記記録の閉鎖等,0,2025-08-26,2025-08-20,有限会社眞下建築,,有限会社,埼玉県,秩父郡皆野町,大字皆野２５３９番地の６,,11,362,3691412,,,2025-08-20,清算の結了等,,,2025-03-03,1,,,,,マシモケンチク,0
1394,6040001062096,登記記録の閉鎖等,0,2025-08-26,2025-07-30,木樽水産株式会社,,株式会社,千葉県,銚子市,明神町２丁目２５０番地,,12,202,2880002,,,2025-07-30,清算の結了等,,,2015-10-05,1,,,,,キタルスイサン,0
1405,6050001027239,登記記録の閉鎖等,0,2025-08-26,2025-08-12,株式会社ホワイト,,株式会社,茨城県,坂東市,岩井４５９９番地１５,,08,228,3060631,,,2025-08-12,清算の結了等,,,2015-10-05,1,,,,,ホワイト,0
1419,6080001001224,登記記録の閉鎖等,0,2025-08-26,2025-08-21,協和食品工業株式会社,,株式会社,静岡県,静岡市葵区,安東２丁目１７番１３号,,22,101,4200882,,,2025-08-21,清算の結了等,,,2015-10-05,1,,,,,キョウワショクヒンコウギョウ,0
1426,6110001022571,登記記録の閉鎖等,0,2025-08-26,2025-08-07,新建工株式会社,,株式会社,新潟県,長岡市,草生津１丁目６番１３号,,15,202,9400085,,,2025-08-07,清算の結了等,,,2015-10-05,1,,,,,シンケンコウ,0
1443,6120005002156,登記記録の閉鎖等,0,2025-08-26,2025-07-29,日本聖公会聖贖主教会,,その他の設立登記法人,大阪府,大阪市淀川区,十三元今里３丁目１番７２号,,27,123,5320028,,,2025-07-29,合併による解散等,9120005002153,令和７年７月２９日大阪市阿倍野区松崎町二丁目１番８号日本聖公会大阪教区（9120005002153）に合併し解散,2015-10-05,1,,,,,ニホンセイコウカイセイアガナイヌシキョウカイ,0
1450,6122001033465,登記記録の閉鎖等,0,2025-08-26,2025-08-20,株式会社ＩＣＨＩ,,株式会社,大阪府,八尾市,安中町６丁目４番１１号,,27,212,5810085,,,2025-08-20,清算の結了等,,,2020-03-02,1,,,,,イチ,0
1452,6130001001251,登記記録の閉鎖等,0,2025-08-26,2025-08-07,株式会社高本管工,,株式会社,京都府,京都市右京区,太秦上刑部町１６番地,,26,108,6168103,,,2025-08-07,清算の結了等,,,2015-10-05,1,,,,,タカモトカンコウ,0
1453,6130001022074,登記記録の閉鎖等,0,2025-08-26,2025-08-08,株式会社ニューローヤル,,株式会社,京都府,京都市中京区,三条通河原町西入石橋町２１番地の１,,26,104,6048036,,,2025-08-08,清算の結了等,,,2015-10-05,1,,,,,ニューローヤル,0
1457,6130001071955,登記記録の閉鎖等,0,2025-08-26,2025-08-01,リヴスタイルハウス株式会社,,株式会社,京都府,向日市,寺戸町七ノ坪１４１番地,,26,208,6170002,,,2025-08-01,合併による解散等,4130001069638,令和７年８月１日京都府向日市上植野町落堀１８番地１リヴ匠建設株式会社（4130001069638）に合併し解散,2022-06-09,1,,,,,リヴスタイルハウス,0
1464,6140001097215,登記記録の閉鎖等,0,2025-08-26,2025-08-20,株式会社メイリキ,,株式会社,兵庫県,神戸市垂水区,星陵台４丁目３番４８－４０９号,,28,108,6550038,,,2025-08-20,清算の結了等,,,2015-10-05,1,,,,,メイリキ,0
1487,6200001043063,登記記録の閉鎖等,0,2025-08-26,2025-08-20,日本昇龍トラベル株式会社,,株式会社,岐阜県,高山市,国府町広瀬町２４５９番地５,,21,203,5094119,,,2025-08-20,清算の結了等,,,2024-10-24,1,,,,,ニホンドラゴントラベル,0
1490,6220002002446,登記記録の閉鎖等,0,2025-08-26,2025-08-21,有限会社兼成工業,,有限会社,石川県,金沢市,八日市３丁目３５１番地,,17,201,9218064,,,2025-08-21,清算の結了等,,,2015-10-05,1,,,,,ケンセイコウギョウ,0
1491,6220002011265,登記記録の閉鎖等,0,2025-08-26,2025-08-21,有限会社ミキ・キャピタル,,有限会社,石川県,小松市,不動島町甲１８８番地,,17,203,9230863,,,2025-08-21,清算の結了等,,,2015-10-05,1,,,,,ミキキャピタル,0
1496,6240002018894,登記記録の閉鎖等,0,2025-08-26,2025-08-22,有限会社高畑商店,,有限会社,広島県,広島市南区,段原３丁目３番２４号,,34,103,7320811,,,2025-08-22,清算の結了等,,,2015-10-05,1,,,,,,0
1500,6260001010347,登記記録の閉鎖等,0,2025-08-26,2025-07-31,株式会社Ｐ－クラッチ,,株式会社,岡山県,岡山市北区,高柳西町１番５１号,,33,101,7000035,,,2025-07-31,合併による解散等,7260001009157,令和７年７月３１日岡山市北区高柳西町１番５１号シンコー流通株式会社（7260001009157）に合併し解散,2015-10-05,1,,,,,ピークラッチ,0
1518,6320205000237,登記記録の閉鎖等,0,2025-08-26,2025-06-27,日蓮宗瑞祥教会,00097255,その他の設立登記法人,大分県,臼杵市,大字福良字年ノ神１７７５番地,,44,206,8750053,,,2025-06-27,合併による解散等,3320205000248,令和７年６月２７日大分県臼杵市大字臼杵２５６番地法音寺（3320205000248）に合併し解散,2015-10-05,1,,,,,ニチレンシュウズイショウキョウカ,0
1534,6380002004113,登記記録の閉鎖等,0,2025-08-26,2025-08-07,有限会社エス・ケイ・コーポレーション,,有限会社,福島県,福島市,御山字上原６番地の１,,07,201,9608252,,,2025-08-07,清算の結了等,,,2015-10-05,1,,,,,,0
1536,6380002025456,登記記録の閉鎖等,0,2025-08-26,2025-08-08,有限会社パシフィックプラニング,,有限会社,福島県,いわき市,小名浜住吉字搦町８番地,,07,204,9718124,,,2025-08-08,清算の結了等,,,2015-10-05,1,,,,,パシフィックプラニング,0
1538,6400001000192,登記記録の閉鎖等,0,2025-08-26,2025-08-04,岩手中央タクシー株式会社,,株式会社,岩手県,盛岡市,開運橋通３番３８号,,03,201,0200026,,,2025-08-04,清算の結了等,,,2015-10-05,1,,,,,イワテチュウオウタクシー,0
1540,6400001006264,登記記録の閉鎖等,0,2025-08-26,2025-08-04,株式会社ミレーヌ・ジャパン,,株式会社,岩手県,北上市,和賀町長沼１地割１０番地,,03,206,0240333,,,2025-08-04,清算の結了等,,,2015-10-05,1,,,,,ミレーヌジャパン,0
1542,6420003001278,登記記録の閉鎖等,0,2025-08-26,2025-08-14,合同会社サン・ネット,,合同会社,青森県,青森市,大字横内字猿沢７６番地２,,02,201,0300132,,,2025-08-14,清算の結了等,,,2015-10-05,1,,,,,サンネット,0
1543,6430001019841,登記記録の閉鎖等,0,2025-08-26,2025-07-28,株式会社札幌カネキ南波商店,,株式会社,北海道,札幌市東区,伏古三条４丁目１番１号,,01,103,0070863,,,2025-07-28,清算の結了等,,,2015-10-05,1,,,,,サッポロカネキナンバショウテン,0
1546,6430001075983,登記記録の閉鎖等,0,2025-08-26,2025-07-25,株式会社Ｇｌｏｃａｌ　Ｄｅｓｉｇｎ,,株式会社,北海道,札幌市中央区,南一条西１２丁目３２２番地,,01,101,0600061,,,2025-07-25,清算の結了等,,,2018-03-06,1,,,,,グローカルデザイン,0
1555,6500005000237,登記記録の閉鎖等,0,2025-08-26,2025-08-22,宗教法人金剛寺松山大教会,,その他の設立登記法人,愛媛県,松山市,緑町２丁目７番地４,,38,201,7900806,,,2025-08-22,清算の結了等,,,2015-10-05,1,,,,,コンゴウジマツヤマダイキョウカイ,0
1557,7010001034080,登記記録の閉鎖等,0,2025-08-26,2025-07-28,制御機材株式会社,,株式会社,東京都,新宿区,西新宿１丁目２６番２号,,13,104,1600023,,,2025-07-28,合併による解散等,9120001048670,令和７年７月１日大阪市中央区安土町一丁目８番１５号野村不動産大阪ビル８階日本機材株式会社（9120001048670）に合併し解散,2015-10-05,1,,,,,セイギョキザイ,0
1562,7010001178563,登記記録の閉鎖等,0,2025-08-26,2025-07-28,ＳＵＮ株式会社,,株式会社,東京都,中央区,月島２丁目１０番１－１８０８号,,13,102,1040052,,,2025-07-28,清算の結了等,,,2016-09-29,1,,,,,サン,0
1563,7010001187341,登記記録の閉鎖等,0,2025-08-26,2025-07-04,株式会社イッティ,,株式会社,東京都,港区,六本木７丁目１８番１８号,,13,103,1060032,,,2025-07-04,合併による解散等,9010401018929,令和７年７月１日東京都港区西麻布一丁目２番９号株式会社ロッピングライフ（9010401018929）に合併し解散,2017-11-01,1,,,,,イッティ,0
1568,7010002003729,登記記録の閉鎖等,0,2025-08-26,2025-07-31,有限会社高橋寄木内装工芸,00049657,有限会社,東京都,文京区,本駒込３丁目１４番４号,,13,105,1130021,,,2025-07-31,清算の結了等,,,2015-10-05,1,,,,,タカハシヨセギナイソウコウゲイ,0
1569,7010002013281,登記記録の閉鎖等,0,2025-08-26,2025-07-23,有限会社新出時計店,,有限会社,東京都,千代田区,有楽町２丁目１０番１号東京交通会館内,,13,101,1000006,,,2025-07-23,清算の結了等,,,2015-10-05,1,,,,,ニイデトケイテン,0
1594,7010405012847,登記記録の閉鎖等,0,2025-08-26,2025-07-01,ＲＳＭ汐留パートナーズ行政書士法人,,その他の設立登記法人,東京都,港区,東新橋１丁目５番２号,,13,103,1050021,,,2025-07-01,合併による解散等,1010405004726,令和７年７月１日東京都港区芝公園二丁目３番１号芝加賀ビル６階行政書士法人中井イミグレーションサービス（1010405004726）に合併し解散,2015-10-05,1,,,,,アールエスエムシオドメパートナーズ,0
1598,7010801006535,登記記録の閉鎖等,0,2025-08-26,2025-08-20,株式会社ダイゴ,,株式会社,東京都,大田区,大森北３丁目２４番１０号,,13,111,1430016,,,2025-08-20,清算の結了等,,,2015-10-05,1,,,,,ダイゴ,0
1603,7011001101655,登記記録の閉鎖等,0,2025-08-26,2025-08-25,リトルピープル株式会社,,株式会社,東京都,世田谷区,尾山台３丁目２９番４－５０１号,,13,112,1580086,,,2025-08-25,清算の結了等,,,2015-10-05,1,,,,,リトルピープル,0
1606,7011001114500,登記記録の閉鎖等,0,2025-08-26,2025-07-24,リリートレーディング株式会社,,株式会社,東京都,渋谷区,桜丘町２３番１７号シティコート桜丘４０８,,13,113,1500031,,,2025-07-24,清算の結了等,,,2017-01-19,1,,,,,リリートレーディング,0
1644,7013101007798,登記記録の閉鎖等,0,2025-08-26,2025-08-25,株式会社ＤＣ　ＳＱＵＡＤ,,株式会社,東京都,あきる野市,草花３６７０番地２３２,,13,228,1970802,,,2025-08-25,清算の結了等,,,2018-03-13,1,,,,,,0
1662,7021001080989,登記記録の閉鎖等,0,2025-08-26,2025-08-15,株式会社ＲＥＢＩＲＴＨ,,株式会社,神奈川県,平塚市,四之宮１丁目３番２５－２号,,14,203,2540014,,,2025-08-15,清算の結了等,,,2023-12-15,1,,,,,リバース,0
1668,7030001032041,登記記録の閉鎖等,0,2025-08-26,2025-08-18,株式会社ＴＡＫＡＤＡ,,株式会社,埼玉県,幸手市,栄６番５ー２０６号,,11,240,3400154,,,2025-08-18,清算の結了等,,,2015-10-05,1,,,,,タカダ,0
1669,7030001060109,登記記録の閉鎖等,0,2025-08-26,2025-08-20,株式会社あおば交通関東,,株式会社,埼玉県,川越市,広栄町１１番地３,,11,201,3501117,,,2025-08-20,合併による解散等,5070001011290,令和７年８月１日群馬県高崎市江木町１６２５番地１株式会社ライムメンバーズ（5070001011290）に合併し解散,2015-10-05,1,,,,,アオバコウツウカントウ,0
1681,7040001129811,登記記録の閉鎖等,0,2025-08-26,2025-08-05,株式会社グローリージャパン,,株式会社,千葉県,市川市,南八幡３丁目１０番９号グリーンベル１０２号室,,12,203,2720023,,,2025-08-05,清算の結了等,,,2023-08-25,1,,,,,グローリージャパン,0
1691,7050002044174,登記記録の閉鎖等,0,2025-08-26,2025-08-12,有限会社藤江自動車,,有限会社,茨城県,桜川市,鍬田４７２番地の３,,08,231,3091223,,,2025-08-12,清算の結了等,,,2015-10-05,1,,,,,フジエジドウシャ,0
1712,7120001224224,登記記録の閉鎖等,0,2025-08-26,2025-07-10,株式会社食の絆計画,,株式会社,大阪府,大阪市中央区,平野町１丁目７番１号,,27,128,5410046,,,2025-07-10,合併による解散等,2120001200865,令和７年７月１日大阪市中央区平野町一丁目７番１号堺筋高橋ビル６Ｆアクセス・スタートアップ株式会社（2120001200865）に合併して解散,2019-10-10,1,,,,,ショクノキズナケイカク,0
1739,7140002050799,登記記録の閉鎖等,0,2025-08-26,2025-08-21,有限会社本勝製本所,,有限会社,兵庫県,姫路市,西中島２１番地の２,,28,201,6700805,,,2025-08-21,清算の結了等,,,2015-10-05,1,,,,,ホンショウセイホンショ,0
1745,7160002005933,登記記録の閉鎖等,0,2025-08-26,2025-08-20,有限会社タニ設備,,有限会社,滋賀県,湖南市,下田１４１８番地２,,25,211,5203201,,,2025-08-20,清算の結了等,,,2015-10-05,1,,,,,タニセツビ,0
1767,7230002014480,登記記録の閉鎖等,0,2025-08-26,2025-08-25,Ｙ’ｓ　Ｄｅｓｉｇｎ有限会社,,有限会社,富山県,射水市,土合１５８４番地３,,16,211,9390251,,,2025-08-25,清算の結了等,,,2015-10-05,1,,,,,ワイズデザイン,0
1768,7240002000983,登記記録の閉鎖等,0,2025-08-26,2025-08-21,アルプス鉄工有限会社,,有限会社,広島県,広島市西区,南観音８丁目３番８号,,34,104,7330035,,,2025-08-21,清算の結了等,,,2015-10-05,1,,,,,アルプステッコウ,0
1775,7280005006421,登記記録の閉鎖等,0,2025-08-26,2025-08-22,特定非営利活動法人あかぎ福祉会,,その他の設立登記法人,島根県,飯石郡飯南町,下赤名１９１９番地１,,32,386,6903513,,,2025-08-22,清算の結了等,,,2015-10-05,1,,,,,アカギフクシカイ,0
1779,7290002048259,登記記録の閉鎖等,0,2025-08-26,2025-08-01,有限会社久留米タチカワ,,有限会社,福岡県,久留米市,合川町９３番地の６佐田ビル１階南,,40,203,8390861,,,2025-08-01,清算の結了等,,,2015-10-05,1,,,,,クルメタチカワ,0
1784,7340002022340,登記記録の閉鎖等,0,2025-08-26,2025-08-04,有限会社共立建設,,有限会社,鹿児島県,出水市,武本５１３番地１,,46,208,8990215,,,2025-08-04,合併による解散等,8340001011723,令和７年８月１日鹿児島県出水市武本５１３番地１株式会社小田平建設（8340001011723）に合併し解散,2015-10-05,1,,,,,キョウリツケンセツ,0
1792,7370001048747,登記記録の閉鎖等,0,2025-08-26,2025-08-04,くろしお企画株式会社,,株式会社,宮城県,塩竈市,尾島町１８番１４号,,04,203,9850021,,,2025-08-04,清算の結了等,,,2022-07-08,1,,,,,クロシオキカク,0
1793,7370001050991,登記記録の閉鎖等,0,2025-08-26,2025-08-05,株式会社ＯＷＮＰＡＣＥ,,株式会社,宮城県,仙台市青葉区,旭ケ丘４丁目１７番１６号マリーンレイク１０１号室,,04,101,9810904,,,2025-08-05,清算の結了等,,,2024-03-05,1,,,,,オウンペース,0
1798,7370102002314,登記記録の閉鎖等,0,2025-08-26,2025-08-05,有限会社菅野薬局,,有限会社,宮城県,白石市,字本町９７番地,,04,206,9890275,,,2025-08-05,清算の結了等,,,2015-10-05,1,,,,,カンノヤッキョク,0
1799,7370601000792,登記記録の閉鎖等,0,2025-08-26,2025-08-04,マルサイ水産株式会社,,株式会社,宮城県,塩竈市,舟入１丁目４番１１号,,04,203,9850014,,,2025-08-04,清算の結了等,,,2015-10-05,1,,,,,マルサイスイサン,0
1805,7380001006480,登記記録の閉鎖等,0,2025-08-26,2025-08-07,株式会社福島三京,,株式会社,福島県,郡山市,富久山町八山田字前林１１番地の１８,,07,203,9638051,,,2025-08-07,清算の結了等,,,2015-10-05,1,,,,,フクシマサンキョウ,0
1806,7380001022899,登記記録の閉鎖等,0,2025-08-26,2025-08-08,株式会社ＲＩＮＫＥＮ,,株式会社,福島県,郡山市,富田町字稲川原５３番地レジデンスワタナベ１０５号室,,07,203,9638041,,,2025-08-08,清算の結了等,,,2015-10-05,1,,,,,,0
1822,7430002064786,登記記録の閉鎖等,0,2025-08-26,2025-08-05,有限会社ベストアーガス,,有限会社,北海道,室蘭市,中島町３丁目８番１０号,,01,205,0500074,,,2025-08-05,清算の結了等,,,2015-10-05,1,,,,,ベストアーガス,0
1838,8010001044582,登記記録の閉鎖等,0,2025-08-26,2025-08-20,三和クリエート株式会社,,株式会社,東京都,中央区,日本橋人形町３丁目３番９号久米ビル３階,,13,102,1030013,,,2025-08-20,合併による解散等,3020001047911,令和７年８月１日横浜市中区尾上町四丁目５７番地株式会社ビルシステム（3020001047911）に合併し解散,2015-10-05,1,,,,,サンワクリエート,0
1845,8010001135596,登記記録の閉鎖等,0,2025-08-26,2025-08-21,株式会社アーシュ,,株式会社,東京都,世田谷区,成城８丁目１番５号,,13,112,1570066,,,2025-08-21,清算の結了等,,,2015-10-05,1,,,,,アーシュ,0
1850,8010001239356,登記記録の閉鎖等,0,2025-08-26,2025-07-30,株式会社いつも．ＳＮＩＦＦ,,株式会社,東京都,千代田区,有楽町１丁目１３番２号第一生命日比谷ファースト,,13,101,1000006,,,2025-07-30,清算の結了等,,,2023-10-18,1,,,,,イツモスニフ,0
1853,8010003040241,登記記録の閉鎖等,0,2025-08-26,2025-07-30,リクルート・ブラザーズ合同会社,,合同会社,東京都,中央区,新川２丁目１０番１－１４０９号,,13,102,1040033,,,2025-07-30,清算の結了等,,,2023-04-07,1,,,,,リクルートブラザーズ,0
1858,8010401164286,登記記録の閉鎖等,0,2025-08-26,2025-07-28,株式会社ｗｏｗ　ｃｏｍｐａｎｙ,,株式会社,東京都,港区,港南４丁目６－８ワールドシティタワーズ８０５,,13,103,1080075,,,2025-07-28,清算の結了等,,,2021-12-08,1,,,,,ワオカンパニー,0
1869,8010701027894,登記記録の閉鎖等,0,2025-08-26,2025-08-25,株式会社東京ライフ,,株式会社,東京都,足立区,梅島２丁目１８番１３号グランシャレー梅島１階,,13,121,1210816,,,2025-08-25,清算の結了等,,,2015-10-05,1,,,,,トウキョウライフ,0
1876,8011001109409,登記記録の閉鎖等,0,2025-08-26,2025-08-25,メディグル株式会社,,株式会社,東京都,世田谷区,下馬１丁目２０番２２－２０２号,,13,112,1540002,,,2025-08-25,清算の結了等,,,2016-02-10,1,,,,,メディグル,0
1896,8011501015057,登記記録の閉鎖等,0,2025-08-26,2025-08-21,スタッドジャパン株式会社,,株式会社,東京都,北区,東十条１丁目１８番２－６０９号,,13,117,1140001,,,2025-08-21,清算の結了等,,,2015-10-05,1,,,,,スタッドジャパン,0
1906,8011802006804,登記記録の閉鎖等,0,2025-08-26,2025-08-22,有限会社ブローニュ,,有限会社,東京都,葛飾区,白鳥３丁目１４番３号,,13,122,1250063,,,2025-08-22,清算の結了等,,,2015-10-05,1,,,,,ブローニュ,0
1945,8030003021719,登記記録の閉鎖等,0,2025-08-26,2025-08-13,ＨＳＫ　ＴＲＡＤＩＮＧ合同会社,,合同会社,埼玉県,狭山市,富士見１丁目３０番５号,,11,215,3501306,,,2025-08-13,清算の結了等,,,2023-05-11,1,,,,,エイチエスケイトレーディング,0
1954,8050001031008,登記記録の閉鎖等,0,2025-08-26,2025-08-12,株式会社リスク総研,,株式会社,茨城県,牛久市,南６丁目２番地９,,08,219,3001222,,,2025-08-12,清算の結了等,,,2015-10-05,1,,,,,リスクソウケン,0
1955,8050001042566,登記記録の閉鎖等,0,2025-08-26,2025-08-21,古河ケーブルテレビ株式会社,,株式会社,茨城県,古河市,下辺見２４５０番地,,08,204,3060235,,,2025-08-21,合併による解散等,2060001016517,令和７年７月１日栃木市樋ノ口町４３番地５ケーブルテレビ株式会社（2060001016517）に合併し解散,2017-04-11,1,,,,,コガケーブルテレビ,0
1963,8070001043174,登記記録の閉鎖等,0,2025-08-26,2025-08-19,大野製材株式会社,,株式会社,群馬県,吾妻郡中之条町,大字伊勢町１００３番地,,10,421,3770423,,,2025-08-19,清算の結了等,,,2025-07-31,1,,,,,オオノセイザイ,0
1968,8080105006019,登記記録の閉鎖等,0,2025-08-26,2025-08-22,一般社団法人修善寺Ｃｏｔｏｒｉ,,その他の設立登記法人,静岡県,伊豆市,柏久保１３４０番地ツインズビル１階,,22,222,4102407,,,2025-08-22,清算の結了等,,,2020-02-25,1,,,,,シュゼンジコトリ,0
1998,8140005025013,登記記録の閉鎖等,0,2025-08-26,2025-08-21,司法書士法人Ｔ－ＧＡＩＡ,,その他の設立登記法人,兵庫県,豊岡市,寿町７番１５号,,28,209,6680024,,,2025-08-21,清算の結了等,,,2020-02-13,1,,,,,ティーガイア,0
2003,8170001013893,登記記録の閉鎖等,0,2025-08-26,2025-08-22,株式会社大地のめぐみ,,株式会社,和歌山県,日高郡みなべ町,東本庄４７２番地１,,30,391,6450021,,,2025-08-22,清算の結了等,,,2015-10-05,1,,,,,ダイチノメグミ,0
2010,8180005012197,登記記録の閉鎖等,0,2025-08-26,2025-07-07,豊泉寺,,その他の設立登記法人,愛知県,知多郡南知多町,大字師崎字鳥東５６番地１,,23,445,4703503,,,2025-07-07,合併による解散等,1180005012162,令和７年７月７日愛知県知多郡南知多町大字師崎字的場８２番地延命寺（1180005012162）に合併し解散,2015-10-05,1,,,,,ホウセンジ,0
2014,8200002023723,登記記録の閉鎖等,0,2025-08-26,2025-08-20,有限会社ワタナベ,,有限会社,岐阜県,恵那市,長島町永田６８５番地１,,21,210,5097204,,,2025-08-20,清算の結了等,,,2015-10-05,1,,,,,ワタナベ,0
2022,8280002008270,登記記録の閉鎖等,0,2025-08-26,2025-08-22,有限会社幸中川,,有限会社,島根県,浜田市,港町２７９番地,,32,202,6970052,,,2025-08-22,清算の結了等,,,2015-10-05,1,,,,,コウナカガワ,0
2047,8370002004062,登記記録の閉鎖等,0,2025-08-26,2025-08-04,有限会社山耕電機自動車商会,,有限会社,宮城県,仙台市太白区,西多賀５丁目２１番８号,,04,104,9820034,,,2025-08-04,清算の結了等,,,2015-10-05,1,,,,,ヤマコウデンキジドウシャショウカイ,0
2053,8410001002921,登記記録の閉鎖等,0,2025-08-26,2025-08-25,株式会社ランドホーム秋田,,株式会社,秋田県,秋田市,楢山城南新町３１番１４号,,05,201,0100038,,,2025-08-25,清算の結了等,,,2015-10-05,1,,,,,ランドホームアキタ,0
2054,8420001005080,登記記録の閉鎖等,0,2025-08-26,2025-08-14,株式会社キャスティールート,,株式会社,青森県,青森市,大字横内字亀井２３８番地１,,02,201,0300132,,,2025-08-14,清算の結了等,,,2015-10-05,1,,,,,キャスティールート,0
2059,8430002009138,登記記録の閉鎖等,0,2025-08-26,2025-07-29,有限会社ジービー商会,,有限会社,北海道,札幌市手稲区,新発寒五条５丁目１１番３号,,01,109,0060805,,,2025-07-29,清算の結了等,,,2015-10-05,1,,,,,ジービーショウカイ,0
2071,8490001002187,登記記録の閉鎖等,0,2025-08-26,2025-08-25,ミドリ安全高知株式会社,,株式会社,高知県,高知市,高＿１４番５号,00006376,39,201,7800071,,,2025-08-25,清算の結了等,,,2015-10-05,1,,,,,ミドリアンゼンコウチ,0
2080,9010001139349,登記記録の閉鎖等,0,2025-08-26,2025-07-30,株式会社ヴェルプラス,,株式会社,東京都,中央区,湊１丁目９番８号,,13,102,1040043,,,2025-07-30,清算の結了等,,,2015-10-05,1,,,,,,0
2089,9010002001383,登記記録の閉鎖等,0,2025-08-26,2025-07-31,有限会社オフィス・コイケ,,有限会社,東京都,文京区,大塚６丁目１８番７号,,13,105,1120012,,,2025-07-31,清算の結了等,,,2015-10-05,1,,,,,オフィスコイケ,0
2096,9010003035793,登記記録の閉鎖等,0,2025-08-26,2025-07-31,Ａｑｕａ　Ｍｅｄｉｃａｌ　Ｒｅｓｅａｒｃｈ合同会社,,合同会社,東京都,文京区,小石川４丁目１６番１３－１４０１号,,13,105,1120002,,,2025-07-31,清算の結了等,,,2021-09-13,1,,,,,アクアメディカルリサーチ,0
2108,9010601000950,登記記録の閉鎖等,0,2025-08-26,2025-08-21,株式会社インネツクス,,株式会社,東京都,江東区,住吉１丁目１３番１７号,,13,108,1350002,,,2025-08-21,清算の結了等,,,2015-10-05,1,,,,,インネツクス,0
2111,9010601042679,登記記録の閉鎖等,0,2025-08-26,2025-08-21,スキルスイッチ株式会社,,株式会社,東京都,墨田区,江東橋２丁目１９番７号,,13,107,1300022,,,2025-08-21,清算の結了等,,,2015-10-05,1,,,,,スキルスイッチ,0
2116,9010901005690,登記記録の閉鎖等,0,2025-08-26,2025-08-22,株式会社住宅生産研究所,,株式会社,東京都,世田谷区,船橋５丁目３２番７号,,13,112,1560055,,,2025-08-22,清算の結了等,,,2015-10-05,1,,,,,ジュウタクセイサンケンキュウジョ,0
2121,9010901057328,登記記録の閉鎖等,0,2025-08-26,2025-08-22,株式会社梶ヶ谷オフィス,,株式会社,東京都,世田谷区,玉川３丁目２０番２号マノア玉川第三ビル５０１号室,,13,112,1580094,,,2025-08-22,清算の結了等,,,2025-05-12,1,,,,,カジガヤオフィス,0
2123,9011001005870,登記記録の閉鎖等,0,2025-08-26,2025-07-24,株式会社川島工業,,株式会社,東京都,渋谷区,神宮前２丁目２３番８号,,13,113,1500001,,,2025-07-24,清算の結了等,,,2015-10-05,1,,,,,カワシマコウギョウ,0
2134,9011101008864,登記記録の閉鎖等,0,2025-08-26,2025-07-25,株式会社茂印刷所,,株式会社,東京都,新宿区,矢来町３１番地,,13,104,1620805,,,2025-07-25,清算の結了等,,,2015-10-05,1,,,,,シゲルインサツショ,0
2135,9011101079369,登記記録の閉鎖等,0,2025-08-26,2025-07-28,株式会社ドラマリン,,株式会社,東京都,新宿区,新宿５丁目１１番１３号博雅ビル２０３号室,,13,104,1600022,,,2025-07-28,清算の結了等,,,2017-01-31,1,,,,,ドラマリン,0
2138,9011102004276,登記記録の閉鎖等,0,2025-08-26,2025-07-30,有限会社ケー・ミュー,,有限会社,東京都,新宿区,三栄町９－２小沢ビル２０３,,13,104,1600000,,,2025-07-30,清算の結了等,,,2015-10-05,1,,,,,ケーミュー,0
2146,9011502012696,登記記録の閉鎖等,0,2025-08-26,2025-08-20,昌華有限会社,,有限会社,埼玉県,川口市,元郷１丁目１－３０－１０１８,,11,203,3320011,,,2025-08-20,清算の結了等,,,2015-10-05,1,,,,,ショウカ,0
2158,9013201013389,登記記録の閉鎖等,0,2025-08-26,2025-07-23,株式会社ＮａｎｄＫ,,株式会社,東京都,目黒区,目黒本町４丁目２０番１１号,,13,110,1520002,,,2025-07-23,清算の結了等,,,2015-10-05,1,,,,,エヌアンドケイ,0
2164,9020001127303,登記記録の閉鎖等,0,2025-08-26,2025-08-06,ＴＥＣＨ’Ｓ　ＪＡＰＡＮ　ＨＯＬＤＩＮＧＳ株式会社,,株式会社,神奈川県,横浜市西区,みなとみらい４丁目１０番２－Ｓ２４０３号,,14,103,2200012,,,2025-08-06,清算の結了等,,,2018-07-26,1,,,,,テックスジャパンホールディングス,0
2178,9030001013956,登記記録の閉鎖等,0,2025-08-26,2025-08-19,ヨネヤマオフィス株式会社,,株式会社,埼玉県,さいたま市見沼区,大字丸ヶ崎１８１９－３,,11,104,3370001,,,2025-08-19,合併による解散等,2030002014373,令和７年８月１９日埼玉県さいたま市見沼区大字丸ヶ崎１８１９番地３株式会社米山商店（2030002014373）に合併し解散,2015-10-05,1,,,,,ヨネヤマオフィス,0
2200,9040002012568,登記記録の閉鎖等,0,2025-08-26,2025-08-05,有限会社レイクデンキサービス,,有限会社,千葉県,千葉市緑区,越智町１７０１番地２３２,,12,105,2670055,,,2025-08-05,清算の結了等,,,2015-10-05,1,,,,,レイクデンキサービス,0
2207,9060003004934,登記記録の閉鎖等,0,2025-08-26,2025-08-21,合同会社ティコレル,,合同会社,栃木県,矢板市,沢６２７番地,,09,211,3292132,,,2025-08-21,清算の結了等,,,2024-03-04,1,,,,,ティコレル,0
2214,9090001018834,登記記録の閉鎖等,0,2025-08-26,2025-08-20,ゴー富士株式会社,,株式会社,山梨県,南巨摩郡富士川町,青柳町１２１７番地１,,19,368,4000501,,,2025-08-20,清算の結了等,,,2024-07-26,1,,,,,ゴーフジ,0
2215,9100001029862,登記記録の閉鎖等,0,2025-08-26,2025-08-25,株式会社ハニレノ,,株式会社,長野県,北佐久郡軽井沢町,大字発地４１４番地５８,,20,321,3890113,,,2025-08-25,清算の結了等,,,2016-12-20,1,,,,,ハニレノ,0
2216,9100001036314,登記記録の閉鎖等,0,2025-08-26,2025-08-21,株式会社よりそい,,株式会社,長野県,飯田市,育良町２丁目２２番地２,,20,205,3950152,,,2025-08-21,清算の結了等,,,2023-04-14,1,,,,,ヨリソイ,0
2220,9110001023880,登記記録の閉鎖等,0,2025-08-26,2025-08-06,株式会社早川疊工業所,,株式会社,新潟県,長岡市,小島谷３４６６番地７,,15,202,9494511,,,2025-08-06,清算の結了等,,,2015-10-05,1,,,,,ハヤカワタタミコウギョウショ,0
2222,9110003004185,登記記録の閉鎖等,0,2025-08-26,2025-08-20,ＮＳＢ・ＫＮ－Ｔｅｃｋ合同会社,,合同会社,新潟県,新潟市北区,彩野４丁目６番地２,,15,101,9503377,,,2025-08-20,清算の結了等,,,2020-06-05,1,,,,,エヌエスビーケーエヌテック,0
2246,9120003024959,登記記録の閉鎖等,0,2025-08-26,2025-08-21,合同会社クレイ,,合同会社,奈良県,宇陀市,大宇陀岩清水２１３５番地,,29,212,6332126,,,2025-08-21,清算の結了等,,,2023-09-26,1,,,,,クレイ,0
2251,9122005002851,登記記録の閉鎖等,0,2025-08-26,2025-08-20,特定非営利活動法人東大阪空家サポートイチバン,,その他の設立登記法人,大阪府,四條畷市,雁屋南町５番３２号,,27,229,5750036,,,2025-08-20,清算の結了等,,,2015-10-05,1,,,,,ヒガシオオサカアキヤサポートイチバン,0
2270,9150001007095,登記記録の閉鎖等,0,2025-08-26,2025-08-19,株式会社トムプロジェクト,,株式会社,奈良県,生駒郡三郷町,美松ケ丘東２丁目５番１０号,,29,343,6360805,,,2025-08-19,清算の結了等,,,2015-10-05,1,,,,,トムプロジェクト,0
2282,9180002070478,登記記録の閉鎖等,0,2025-08-26,2025-07-31,有限会社晴光ツーリスト,,有限会社,愛知県,春日井市,中新町１丁目２４番地の７,,23,206,4860956,,,2025-07-31,清算の結了等,,,2015-10-05,1,,,,,セイコウツーリスト,0
2286,9180301025587,登記記録の閉鎖等,0,2025-08-26,2025-08-07,株式会社セカンドウィル,,株式会社,愛知県,豊橋市,池見町１３５番地１,,23,201,4400827,,,2025-08-07,清算の結了等,,,2015-10-05,1,,,,,セカンドウィル,0
2289,9210002001215,登記記録の閉鎖等,0,2025-08-26,2025-08-21,有限会社高志労務管理事務所,,有限会社,福井県,福井市,和田東１丁目２３２１番地,,18,201,9188237,,,2025-08-21,清算の結了等,,,2015-10-05,1,,,,,コシロウムカンリジムショ,0
2290,9210003000570,登記記録の閉鎖等,0,2025-08-26,2025-08-22,合資会社ノムラ商会,,合資会社,福井県,敦賀市,山泉５号８番地の７,,18,202,9140035,,,2025-08-22,清算の結了等,,,2015-10-05,1,,,,,ノムラショウカイ,0
2291,9230001005289,登記記録の閉鎖等,0,2025-08-26,2025-08-25,小谷自動車株式会社,,株式会社,富山県,富山市,八尾町黒田４７０番地の２,,16,201,9392304,,,2025-08-25,清算の結了等,,,2015-10-05,1,,,,,コタニジドウシャ,0
2292,9240002018561,登記記録の閉鎖等,0,2025-08-26,2025-08-22,有限会社エイチエス・コンチネンタル・インシャランス・エイジェンシー,,有限会社,広島県,広島市中区,寺町２番２６号,,34,101,7300801,,,2025-08-22,清算の結了等,,,2015-10-05,1,,,,,エイチエスコンチネンタルインシャランスエイジェンシー,0
2295,9250002009857,登記記録の閉鎖等,0,2025-08-26,2025-08-21,有限会社高山工業所,,有限会社,山口県,下関市,彦島福浦町２丁目２７番１５号,,35,201,7500087,,,2025-08-21,清算の結了等,,,2015-10-05,1,,,,,タカヤマコウギョウショ,0
2300,9260003003651,登記記録の閉鎖等,0,2025-08-26,2025-07-25,合同会社ねがいぼし,,合同会社,岡山県,倉敷市,西富井６３６－１８８,,33,202,7100845,,,2025-07-25,清算の結了等,,,2021-08-13,1,,,,,ネガイボシ,0
2313,9330001003398,登記記録の閉鎖等,0,2025-08-26,2025-08-06,新美産業株式会社,00097309,株式会社,熊本県,熊本市中央区,新屋敷２丁目６番１５号,,43,101,8620975,,,2025-08-06,清算の結了等,,,2015-10-05,1,,,,,ニイミサンギョウ,0
2326,9430001054976,登記記録の閉鎖等,0,2025-08-26,2025-08-04,株式会社ＳＨＳ,,株式会社,北海道,苫小牧市,しらかば町３丁目１２番１０号,,01,213,0530821,,,2025-08-04,清算の結了等,,,2015-10-05,1,,,,,エスエイチエス,0
