sequenceNumber,corporateNumber,process,correct,updateDate,changeDate,name,nameImageId,kind,prefectureName,cityName,streetNumber,addressImageId,prefectureCode,cityCode,postCode,addressOutside,addressOutsideImageId,closeDate,closeCause,successorCorporateNumber,changeCause,assignmentDate,latest,enName,enPrefectureName,enCityName,enAddressOutside,furigana,hihyoji
4,1010001233175,新規,0,2023-03-13,2023-03-13,Ｙａｈａｏ　ｓｐｏｒｔｓ株式会社,,株式会社,東京都,中央区,月島１丁目８番１号,,13,102,1040052,,,,,,,2023-03-13,1,,,,,ヤハウスポーツ,0
5,1010001233539,新規,0,2023-03-13,2023-03-13,株式会社ハミダシラボ,,株式会社,東京都,千代田区,九段南１丁目５番６号りそな九段ビル５Ｆ－ＫＳフロア,,13,101,1020074,,,,,,,2023-03-13,1,,,,,ハミダシラボ,0
6,1010001233646,新規,0,2023-03-13,2023-03-13,Ｗｅｌｌｅｎ株式会社,,株式会社,東京都,中央区,日本橋人形町１丁目３番６号,,13,102,1030013,,,,,,,2023-03-13,1,,,,,ヴェレン,0
7,1010005036343,新規,0,2023-03-13,2023-03-13,一般社団法人足の８０２０,,その他の設立登記法人,東京都,文京区,湯島２丁目２５番７号,,13,105,1130034,,,,,,,2023-03-13,1,,,,,アシノハチマルニイマル,0
15,1010401173013,新規,0,2023-03-13,2023-03-13,株式会社ＥＬＩＣ　Ｃｈａｒｇｅ,,株式会社,東京都,港区,芝３丁目１番１４号芝公園阪神ビル５階,,13,103,1050014,,,,,,,2023-03-13,1,,,,,エリックチャージ,0
16,1010401173046,新規,0,2023-03-13,2023-03-13,株式会社ＦＬＯＲＥＳ,,株式会社,東京都,港区,愛宕１丁目１番１－２１０３号,,13,103,1050002,,,,,,,2023-03-13,1,,,,,フローレス,0
28,1010901052690,新規,0,2023-03-13,2023-03-13,株式会社京都フィギュア,,株式会社,東京都,世田谷区,砧２丁目１２番３号,,13,112,1570073,,,,,,,2023-03-13,1,,,,,キョウトフィギュア,0
39,1011101102113,新規,0,2023-03-13,2023-03-13,Ｓ．Ｔホールディングス株式会社,,株式会社,東京都,新宿区,西新宿３丁目３番１３号西新宿水間ビル６階,,13,104,1600023,,,,,,,2023-03-13,1,,,,,エスティーホールディングス,0
40,1011101102121,新規,0,2023-03-13,2023-03-13,株式会社優雅,,株式会社,東京都,新宿区,神楽坂２丁目１２番地,,13,104,1620825,,,,,,,2023-03-13,1,,,,,ユウガ,0
41,1011103012797,新規,0,2023-03-13,2023-03-13,合同会社ＥＡＳＴ,,合同会社,東京都,新宿区,西新宿３丁目３番１３号西新宿水間ビル６階,,13,104,1600023,,,,,,,2023-03-13,1,,,,,イースト,0
43,1011203004026,新規,0,2023-03-13,2023-03-13,合同会社ジャガー,,合同会社,東京都,中野区,上高田４丁目３５－１３,,13,114,1640002,,,,,,,2023-03-13,1,,,,,ジャガー,0
49,1011501029055,新規,0,2023-03-13,2023-03-13,ＯＤＮ株式会社,,株式会社,東京都,荒川区,西尾久４丁目６番１１号,,13,118,1160011,,,,,,,2023-03-13,1,,,,,オーディエヌ,0
59,1012401040275,新規,0,2023-03-13,2023-03-13,株式会社藤翔組,,株式会社,東京都,府中市,新町２丁目６番地の１９,,13,206,1830052,,,,,,,2023-03-13,1,,,,,トウショウグミ,0
63,1012801022187,新規,0,2023-03-13,2023-03-13,株式会社Ｂｕｓｉｎｅｓｓ　Ｓｔｅｐ,,株式会社,東京都,立川市,柏町４丁目１７番地の６,,13,202,1900004,,,,,,,2023-03-13,1,,,,,ビジネスステップ,0
74,1020001150618,新規,0,2023-03-13,2023-03-13,株式会社Ｌｅ　Ｌｉｅｎ,,株式会社,神奈川県,川崎市中原区,新丸子東３丁目１１００－１５Ｓ２３１５,,14,133,2110004,,,,,,,2023-03-13,1,,,,,ルリアン,0
75,1020001150650,新規,0,2023-03-13,2023-03-13,株式会社ライフエンゲージ,,株式会社,神奈川県,横浜市金沢区,並木１丁目金沢シーサイドタウン第一第２街区第３号棟１０３号室,,14,108,2360005,,,,,,,2023-03-13,1,,,,,ライフエンゲージ,0
77,1020003023326,新規,0,2023-03-13,2023-03-13,ＦＩＭ合同会社,,合同会社,神奈川県,横浜市泉区,和泉中央北６丁目１－１９,,14,116,2450024,,,,,,,2023-03-13,1,,,,,フィム,0
78,1021001078394,新規,0,2023-03-13,2023-03-13,株式会社メイヴン,,株式会社,神奈川県,相模原市中央区,田名６０６５番地９,,14,152,2520244,,,,,,,2023-03-13,1,,,,,メイヴン,0
87,1030001152828,新規,0,2023-03-13,2023-03-13,株式会社アドバンス,,株式会社,埼玉県,上尾市,柏座２丁目３番９号,,11,219,3620075,,,,,,,2023-03-13,1,,,,,アドバンス,0
94,1030003021345,新規,0,2023-03-13,2023-03-13,ＹＴＫ　Ｊａｐａｎ合同会社,,合同会社,埼玉県,川口市,戸塚２丁目１５番２３号,,11,203,3330811,,,,,,,2023-03-13,1,,,,,ワイティーケージャパン,0
101,1040001127481,新規,0,2023-03-13,2023-03-13,株式会社イエカツ,,株式会社,千葉県,山武市,椎崎１４３８番地６７,,12,237,2891205,,,,,,,2023-03-13,1,,,,,イエカツ,0
106,1040003022177,新規,0,2023-03-13,2023-03-13,合同会社北原工業,,合同会社,千葉県,千葉市若葉区,桜木４丁目１９番５５号,,12,104,2640028,,,,,,,2023-03-13,1,,,,,キタハラコウギョウ,0
107,1050001052522,新規,0,2023-03-13,2023-03-13,株式会社大奈,,株式会社,茨城県,水戸市,開江町２２番地の６,,08,201,3114144,,,,,,,2023-03-13,1,,,,,ダイナ,0
114,1080003002943,新規,0,2023-03-13,2023-03-13,合同会社濃果,,合同会社,静岡県,島田市,月坂１丁目１４－１６,,22,209,4270112,,,,,,,2023-03-13,1,,,,,ノウカ,0
116,1100001036222,新規,0,2023-03-13,2023-03-13,株式会社ＫＯＵＳＨＩＮ　ＴＲＡＮＳＰＯＲＴ,,株式会社,長野県,茅野市,塚原１丁目１４番１１号コバヤシビル,,20,214,3910002,,,,,,,2023-03-13,1,,,,,コウシントランスポート,0
124,1110005016905,新規,0,2023-03-13,2023-03-13,特定非営利活動法人越後まほろば倶楽部,,その他の設立登記法人,新潟県,上越市,春日山町２丁目１２番１２号,,15,222,9430807,,,,,,,2023-03-13,1,,,,,エチゴマホロバクラブ,0
130,1120001252767,新規,0,2023-03-13,2023-03-13,トラストバディー株式会社,,株式会社,大阪府,守口市,淀江町１番３号,,27,209,5700004,,,,,,,2023-03-13,1,,,,,トラストバディー,0
131,1120001253138,新規,0,2023-03-13,2023-03-13,匠星株式会社,,株式会社,大阪府,大阪市港区,弁天２丁目１４番２号中野ビル４階Ｃ―２号室,,27,107,5520007,,,,,,,2023-03-13,1,,,,,ショウセイ,0
132,1120001253146,新規,0,2023-03-13,2023-03-13,株式会社Ｔｚｅｖａｏｔ,,株式会社,大阪府,大阪市阿倍野区,阿倍野筋１丁目１番４３号あべのハルカス３１Ｆ,,27,119,5450052,,,,,,,2023-03-13,1,,,,,ツェバオット,0
133,1120001253162,新規,0,2023-03-13,2023-03-13,株式会社Ｍｉｒａｉｅ,,株式会社,大阪府,大阪市北区,梅田１丁目１番３号大阪駅前第３ビル２９階１－１－１号室,,27,127,5300001,,,,,,,2023-03-13,1,,,,,ミライエ,0
138,1120003023588,新規,0,2023-03-13,2023-03-13,合同会社アムールＰ．Ｔ．,,合同会社,大阪府,大阪市東成区,大今里西３丁目１１－１２番地１階,,27,115,5370014,,,,,,,2023-03-13,1,,,,,アムールピーティー,0
139,1120003023596,新規,0,2023-03-13,2023-03-13,合同会社ＨＴ　ＯＦＦＩＣＩＡＬ,,合同会社,大阪府,大阪市西成区,花園南１丁目７番２１号ＪＰＭＥＴＲＯ花園町１階１０２号,,27,122,5570015,,,,,,,2023-03-13,1,,,,,エイチティーオフィシャル,0
140,1120003023605,新規,0,2023-03-13,2023-03-13,合同会社ｗａｋｋａ,,合同会社,大阪府,大阪市北区,天満４丁目１０－５－５０３,,27,127,5300043,,,,,,,2023-03-13,1,,,,,ワッカ,0
144,1122001036778,新規,0,2023-03-13,2023-03-13,日本ユニク株式会社,,株式会社,大阪府,東大阪市,宝町１５－９,,27,227,5798025,,,,,,,2023-03-13,1,,,,,ニホンユニク,0
147,1130001073782,新規,0,2023-03-13,2023-03-13,マコト内装ｋ株式会社,,株式会社,京都府,京都市西京区,下津林東芝ノ宮町４０番地６,,26,111,6158034,,,,,,,2023-03-13,1,,,,,マコトナイソウケー,0
148,1130001073832,新規,0,2023-03-13,2023-03-13,辰宜株式会社,,株式会社,京都府,京都市下京区,河原町通松原上る二丁目富永町３５８番地,,26,106,6000000,,,,,,,2023-03-13,1,,,,,シンギ,0
155,1140001129393,新規,0,2023-03-13,2023-03-13,Ｌｏｃｏ　Ａｉｒｃｏｎ株式会社,,株式会社,兵庫県,明石市,大久保町西島３８７番地の１１,,28,203,6740065,,,,,,,2023-03-13,1,,,,,ロコエアコン,0
156,1140001129410,新規,0,2023-03-13,2023-03-13,株式会社タカラシャルマン,,株式会社,兵庫県,芦屋市,松ノ内町３番２９号,,28,206,6590094,,,,,,,2023-03-13,1,,,,,タカラシャルマン,0
157,1140001129419,新規,0,2023-03-13,2023-03-13,株式会社リンクイースト,,株式会社,兵庫県,神戸市灘区,大石東町４丁目３番１－３０８号,,28,102,6570043,,,,,,,2023-03-13,1,,,,,リンクイースト,0
162,1150001026227,新規,0,2023-03-13,2023-03-13,株式会社Ｇｅｍｍａ,,株式会社,奈良県,生駒市,新生駒台２番３１－１０１号,,29,209,6300242,,,,,,,2023-03-13,1,,,,,ジェンマ,0
172,1180001155337,新規,0,2023-03-13,2023-03-13,杰欣株式会社,,株式会社,愛知県,半田市,住吉町１丁目４６番地１階,,23,205,4750862,,,,,,,2023-03-13,1,,,,,ケツキン,0
173,1180001155353,新規,0,2023-03-13,2023-03-13,株式会社ｇｒｏｗ　ｕｐ,,株式会社,愛知県,名古屋市昭和区,宮東町３５６番地,,23,107,4660804,,,,,,,2023-03-13,1,,,,,グロウアップ,0
178,1180003024894,新規,0,2023-03-13,2023-03-13,アルファインターナショナルコミュニケーション合同会社,,合同会社,愛知県,犬山市,丸山天白町５６,,23,215,4840072,,,,,,,2023-03-13,1,,,,,アルファインターナショナルコミュニケーション,0
179,1180003024960,新規,0,2023-03-13,2023-03-13,合同会社フラット・ノーズ,,合同会社,愛知県,名古屋市中村区,名駅４丁目２４番５号第２森ビル４０１,,23,105,4500002,,,,,,,2023-03-13,1,,,,,フラットノーズ,0
180,1180003024969,新規,0,2023-03-13,2023-03-13,ＳＡＲＴＨＡＫ合同会社,,合同会社,愛知県,名古屋市中村区,烏森町１丁目１０４番地,,23,105,4530855,,,,,,,2023-03-13,1,,,,,サルタック,0
181,1180005020124,新規,0,2023-03-13,2023-03-13,特定非営利活動法人キッズプラス,,その他の設立登記法人,愛知県,名古屋市港区,大西１丁目８１番地,,23,111,4550861,,,,,,,2023-03-13,1,,,,,キッズプラス,0
198,1240005015539,新規,0,2023-03-13,2023-03-13,一般社団法人Ｃｙｂｅｒ　Ｈｉｒｏｓｈｉｍａ,,その他の設立登記法人,広島県,広島市中区,紙屋町１丁目６番９号,,34,101,7300031,,,,,,,2023-03-13,1,,,,,サイバーヒロシマ,0
210,1280003001710,新規,0,2023-03-13,2023-03-13,合同会社アニモ,,合同会社,島根県,隠岐郡隠岐の島町,岬町中の津の四１１７－３,,32,528,6850021,,,,,,,2023-03-13,1,,,,,,0
211,1280005007540,新規,0,2023-03-13,2023-03-13,農事組合法人上高尾,,その他の設立登記法人,島根県,仁多郡奥出雲町,高尾７５８番地,,32,343,6991512,,,,,,,2023-03-13,1,,,,,カミタカオ,0
218,1290001100876,新規,0,2023-03-13,2023-03-13,株式会社ＫＡＩ　ＧＲＯＵＰ,,株式会社,福岡県,筑紫野市,大字永岡１３９４番地１７,,40,217,8180066,,,,,,,2023-03-13,1,,,,,カイグループ,0
226,1310001018307,新規,0,2023-03-13,2023-03-13,株式会社Ｓ．Ｒ．Ｂ,,株式会社,長崎県,西彼杵郡時津町,浜田郷６６９番地２６,,42,308,8512102,,,,,,,2023-03-13,1,,,,,エスアールビー,0
234,1360001031684,新規,0,2023-03-13,2023-03-13,高吉重機株式会社,00129728,株式会社,沖縄県,浦添市,当山２丁目１０番９－１号,,47,208,9012104,,,,,,,2023-03-13,1,,,,,タカヨシジュウキ,0
235,1360003012765,新規,0,2023-03-13,2023-03-13,合同会社ＫＯＲＥＫＩＹＯ,,合同会社,沖縄県,那覇市,赤嶺１丁目６番１８ＢＩ－ＪＯＵ４０１,,47,201,9010154,,,,,,,2023-03-13,1,,,,,コレキヨ,0
236,1370001049701,新規,0,2023-03-13,2023-03-13,株式会社ユニライン,,株式会社,宮城県,黒川郡大郷町,中村字鹿ノ畑２３番地,,04,422,9813521,,,,,,,2023-03-13,1,,,,,ユニライン,0
237,1370003006031,新規,0,2023-03-13,2023-03-13,ピンピンキラリ合同会社,,合同会社,宮城県,仙台市青葉区,五橋２丁目７番８－１００５号,,04,101,9800022,,,,,,,2023-03-13,1,,,,,ピンピンキラリ,0
249,1430001088560,新規,0,2023-03-13,2023-03-13,株式会社ｓｐｉｒａ,,株式会社,北海道,札幌市中央区,南十三条西１７丁目２番２２号,,01,101,0640913,,,,,,,2023-03-13,1,,,,,スピラ,0
250,1430001088619,新規,0,2023-03-13,2023-03-13,株式会社セレブロ・ストラテジック・パートナーズ,,株式会社,北海道,札幌市中央区,南一条西１３丁目４番地４０,,01,101,0600061,,,,,,,2023-03-13,1,,,,,セレブロストラテジックパートナーズ,0
251,1430001088635,新規,0,2023-03-13,2023-03-13,株式会社グッド・ハート,,株式会社,北海道,札幌市豊平区,美園五条４丁目２番６号,,01,105,0620005,,,,,,,2023-03-13,1,,,,,グッドハート,0
254,1430003014820,新規,0,2023-03-13,2023-03-13,合同会社ＥＤＥＬｓ,,合同会社,北海道,札幌市清田区,里塚緑ケ丘１２丁目３番２号,,01,110,0040805,,,,,,,2023-03-13,1,,,,,イーデルス,0
257,1470001019512,新規,0,2023-03-13,2023-03-13,株式会社Ｌ’ａｍ,,株式会社,香川県,高松市,天神前１１番６－１１０３号ロイヤルガーデン県庁前第２,,37,201,7600018,,,,,,,2023-03-13,1,,,,,ラム,0
258,1700150096329,新規,0,2023-03-13,2019-10-16,環境経済・政策学会,,その他,東京都,新宿区,山吹町３５８番地５アカデミーセンター　株式会社国際文献社内,,13,104,1620801,,,,,,,2019-10-16,1,,,,,カンキヨウケイザイセイサクガツカイ,0
272,2010005036367,新規,0,2023-03-13,2023-03-13,一般社団法人東京のＣＯ２削減で都内観光を推進する会,,その他の設立登記法人,東京都,中央区,銀座１丁目２２－１１銀座大竹ビジデンス２階,,13,102,1040061,,,,,,,2023-03-13,1,,,,,トウキョウノシーオーツーサクゲンデトナイカンコウヲスイシンスルカイ,0
278,2010401172856,新規,0,2023-03-13,2023-03-13,株式会社ＡＲＣＡＴＨ　ＬＩＮＫ,,株式会社,東京都,港区,浜松町１丁目３番１号,,13,103,1050013,,,,,,,2023-03-13,1,,,,,アルカスリンク,0
279,2010401173053,新規,0,2023-03-13,2023-03-13,株式会社Ａｔａｇｏ,,株式会社,東京都,港区,新橋４丁目２６番８－２０１号,,13,103,1050004,,,,,,,2023-03-13,1,,,,,アタゴ,0
284,2010405021786,新規,0,2023-03-13,2023-03-13,一般社団法人計量サステナビリティ学機構,,その他の設立登記法人,東京都,港区,浜松町２丁目２番１５号浜松町ダイヤビル２Ｆ,,13,103,1050013,,,,,,,2023-03-13,1,,,,,ケイリョウサステナビリティガクキコウ,0
285,2010501050128,新規,0,2023-03-13,2023-03-13,日本紅葉技研株式会社,,株式会社,東京都,台東区,上野１丁目１０番８号アジア商事上野ビル５階,,13,106,1100005,,,,,,,2023-03-13,1,,,,,ニホンコウヨウギケン,0
309,2011103012796,新規,0,2023-03-13,2023-03-13,合同会社ネイキッド,,合同会社,東京都,新宿区,西新宿４丁目１６番６号マルブン西新宿４０６,,13,104,1600023,,,,,,,2023-03-13,1,,,,,ネイキッド,0
312,2011301028529,新規,0,2023-03-13,2023-03-13,株式会社ピーケーオフィス,,株式会社,東京都,杉並区,和田３丁目２９番１１号,,13,115,1660012,,,,,,,2023-03-13,1,,,,,ピーケーオフィス,0
316,2011501029046,新規,0,2023-03-13,2023-03-13,ＧＤリニューアル株式会社,,株式会社,東京都,北区,王子１丁目２８番１０－３０３号ヴェラハイツ王子,,13,117,1140002,,,,,,,2023-03-13,1,,,,,グッドアリニューアル,0
318,2011701026074,新規,0,2023-03-13,2023-03-13,イハダジャパン株式会社,,株式会社,東京都,江戸川区,西葛西５丁目６番２号第２８山秀ビル６Ｆ－６０１,,13,123,1340088,,,,,,,2023-03-13,1,,,,,イハダジャパン,0
321,2012401040274,新規,0,2023-03-13,2023-03-13,株式会社ゴータバー,,株式会社,東京都,狛江市,東和泉１丁目４番２０号岩瀬ビル地下１階,,13,219,2010014,,,,,,,2023-03-13,1,,,,,ゴータバー,0
328,2021001078419,新規,0,2023-03-13,2023-03-13,株式会社富興商事,,株式会社,神奈川県,相模原市南区,南台５丁目２２番１５号赤塚マンション３０２室,,14,153,2520314,,,,,,,2023-03-13,1,,,,,トミコウショウジ,0
342,2030001152819,新規,0,2023-03-13,2023-03-13,株式会社川辺総建,,株式会社,埼玉県,八潮市,大字二丁目３９番地２,,11,234,3400811,,,,,,,2023-03-13,1,,,,,カワベソウケン,0
343,2030001152835,新規,0,2023-03-13,2023-03-13,株式会社馬場組,,株式会社,埼玉県,越谷市,千間台西２丁目１７番地１－４０２号,,11,222,3430041,,,,,,,2023-03-13,1,,,,,ババグミ,0
348,2030003021336,新規,0,2023-03-13,2023-03-13,合同会社Ｆｏｒｅｓｔ　Ｄｏｏｒ,,合同会社,埼玉県,入間郡毛呂山町,大字葛貫１７７番地１２,,11,326,3500445,,,,,,,2023-03-13,1,,,,,フォレストドア,0
351,2040001127480,新規,0,2023-03-13,2023-03-13,株式会社ワタカン,,株式会社,千葉県,千葉市若葉区,桜木北３丁目８番３２－５号,,12,104,2640029,,,,,,,2023-03-13,1,,,,,ワタカン,0
352,2050003007300,新規,0,2023-03-13,2023-03-13,無垢家具合同会社,,合同会社,茨城県,取手市,小文間３８７２,,08,217,3020001,,,,,,,2023-03-13,1,,,,,ムクカグ,0
353,2060001035780,新規,0,2023-03-13,2023-03-13,株式会社Ｍｉｏ,,株式会社,栃木県,栃木市,今泉町１丁目１２番１９号ポミドールＡ１０６,,09,203,3280027,,,,,,,2023-03-13,1,,,,,ミオ,0
354,2060003004461,新規,0,2023-03-13,2023-03-13,合同会社アイランド,,合同会社,栃木県,那須郡那須町,大字伊王野１６０９番地,,09,407,3293436,,,,,,,2023-03-13,1,,,,,アイランド,0
358,2080101023849,新規,0,2023-03-13,2023-03-13,株式会社ＴＬカンパニー,,株式会社,静岡県,沼津市,若葉町３番６６‐３号,,22,203,4100059,,,,,,,2023-03-13,1,,,,,ティーエルカンパニー,0
363,2090001018015,新規,0,2023-03-13,2023-03-13,株式会社ランドリーライフ,,株式会社,山梨県,甲府市,丸の内２丁目２番１号,,19,201,4000031,,,,,,,2023-03-13,1,,,,,ランドリーライフ,0
385,2120001253104,新規,0,2023-03-13,2023-03-13,株式会社ＫＥＤ,,株式会社,大阪府,大阪市淀川区,西宮原１丁目８番２４号新大阪第３ドイビル６Ｆ,,27,123,5320004,,,,,,,2023-03-13,1,,,,,ケッド,0
386,2120001253129,新規,0,2023-03-13,2023-03-13,小五株式会社,,株式会社,大阪府,大阪市此花区,春日出中１丁目９番１３－１０１号,,27,104,5540022,,,,,,,2023-03-13,1,,,,,ショウゴ,0
387,2120001253161,新規,0,2023-03-13,2023-03-13,株式会社ゴードン,,株式会社,大阪府,大阪市生野区,中川西１丁目１０番９－３０１号,,27,116,5440032,,,,,,,2023-03-13,1,,,,,ゴードン,0
390,2120101067123,新規,0,2023-03-13,2023-03-13,株式会社ジールアップ,,株式会社,大阪府,阪南市,下出７４１番地の２,,27,232,5990202,,,,,,,2023-03-13,1,,,,,ジールアップ,0
395,2130001073848,新規,0,2023-03-13,2023-03-13,株式会社Ｓｕｇａｒ　Ｓｕｐｐｏｒｔ,,株式会社,京都府,京都市中京区,烏丸通御池上る二条殿町５４８番地１プレミスト京都烏丸御池ＩＩ番館９０６号,00129736,26,104,6040845,,,,,,,2023-03-13,1,,,,,シュガーサポート,0
403,2150001026226,新規,0,2023-03-13,2023-03-13,株式会社柔城,,株式会社,奈良県,葛城市,今在家７８番地１,,29,211,6390274,,,,,,,2023-03-13,1,,,,,ジュウジョウ,0
414,2180001155328,新規,0,2023-03-13,2023-03-13,株式会社グラーティアＡ＆Ｉ,,株式会社,愛知県,名古屋市中区,栄２丁目６番１号ＲＴ白川ビル,,23,106,4600008,,,,,,,2023-03-13,1,,,,,グラーティアエーアンドアイ,0
415,2180001155360,新規,0,2023-03-13,2023-03-13,株式会社アドメディカル,,株式会社,愛知県,名古屋市中村区,名駅４丁目２４番５号,,23,105,4500002,,,,,,,2023-03-13,1,,,,,アドメディカル,0
420,2200001041062,新規,0,2023-03-13,2023-03-13,株式会社ないない研究所,,株式会社,岐阜県,岐阜市,茜部本郷１丁目６３番地の３,,21,201,5008262,,,,,,,2023-03-13,1,,,,,ナイナイケンキュウジョ,0
422,2210001019256,新規,0,2023-03-13,2023-03-13,株式会社ティテック,,株式会社,福井県,敦賀市,櫛川９３号１５０２番地,,18,202,9140821,,,,,,,2023-03-13,1,,,,,ティテック,0
436,2240001061206,新規,0,2023-03-13,2023-03-13,株式会社インディション,,株式会社,広島県,福山市,東町３丁目４番３１－４０４号,,34,207,7200052,,,,,,,2023-03-13,1,,,,,インディション,0
460,2310001018306,新規,0,2023-03-13,2023-03-13,Ｈｕｍａｎ＆Ｍｏｂｉｌｉｔｙ株式会社,,株式会社,長崎県,佐世保市,江上町３６０６番地９,,42,202,8593244,,,,,,,2023-03-13,1,,,,,ヒューマンアンドモビリティ,0
462,2320001019625,新規,0,2023-03-13,2023-03-13,株式会社椿工業,,株式会社,大分県,大分市,大在北３丁目１番４０号,,44,201,8700245,,,,,,,2023-03-13,1,,,,,ツバキコウギョウ,0
464,2330003009755,新規,0,2023-03-13,2023-03-13,ＡＢＣヒューマン・リソース合同会社,,合同会社,熊本県,熊本市東区,長嶺東６丁目２３番７号,,43,102,8618038,,,,,,,2023-03-13,1,,,,,エービーシーヒューマンリソース,0
474,2370001049700,新規,0,2023-03-13,2023-03-13,株式会社ＲＥＡＲＱ,,株式会社,宮城県,仙台市宮城野区,岩切字畑中５７番地の１,,04,102,9830821,,,,,,,2023-03-13,1,,,,,リアーク,0
489,2450001013920,新規,0,2023-03-13,2023-03-13,幌延ジオフロンティア第３期ＰＦＩ株式会社,,株式会社,北海道,天塩郡幌延町,字北進４３２番２,,01,520,0983224,,,,,,,2023-03-13,1,,,,,ホロノベジオフロンティアダイサンキピーエフアイ,0
490,2460001005776,新規,0,2023-03-13,2023-03-13,株式会社縁とゆかり,,株式会社,北海道,釧路市,鳥取南６丁目２番１９号,,01,206,0840905,,,,,,,2023-03-13,1,,,,,エントユカリ,0
491,2500001024813,新規,0,2023-03-13,2023-03-13,株式会社Ｎｅｃｏ．,,株式会社,愛媛県,松山市,畑寺２丁目９番２６号フォブール畑寺公園Ｂ－２０２号,,38,201,7900913,,,,,,,2023-03-13,1,,,,,ネコ,0
493,2700150114799,新規,0,2023-03-13,2023-03-13,ｊｉａ　ｘｉｎｇ　ｓｈｉ　ｌｅ　ｍａｉ　ｌｅ　ｍａｉ　ｍａｏ　ｙｉ　ｙｏｕ　ｘｉａｎ　ｇｏｎｇ　ｓｉ,,外国会社等,,,,,,,,ｊｉａ　ｘｉｎｇ　ｓｈｉ　ｌｅ　ｍａｉ　ｌｅ　ｍａｉ　ｍａｏ　ｙｉ　ｙｏｕ　ｘｉａｎ　ｇｏｎｇ　ｓｉ　ｎａｎ　ｈｕ　ｑｕ　ｘｉｎ　ｘｉｎｇ　ｊｉｅ　ｄａｏ　ｚｈｏｎｇ　ｈｕａｎ　ｇｕａｎｇ　ｃｈａｎｇ（ｅａｓｔ）　Ａ－１６０３ｓｈｉ－１　Ｊｉａｘｉｎｇ　ｃｉｔｙ　Ｚｈｅｊｉａｎｇ　Ｐｒｏｖｉｎｃｅ　Ｃｈｉｎａ　３１００００,,,,,,2023-03-13,1,,,,,ジャーシンシーラーマイラーマイマオイーヨウシエンゴンスー,0
500,3010003040064,新規,0,2023-03-13,2023-03-13,ＲｅａｌＺＡＧＴ合同会社,,合同会社,東京都,中央区,銀座１丁目２２番１１号,,13,102,1040061,,,,,,,2023-03-13,1,,,,,リアルゼットエージーティ,0
503,3010005036366,新規,0,2023-03-13,2023-03-13,白浜一般社団法人,,その他の設立登記法人,東京都,千代田区,丸の内３丁目１番１号東京共同会計事務所内,,13,101,1000005,,,,,,,2023-03-13,1,,,,,シラハマ,0
504,3010005036374,新規,0,2023-03-13,2023-03-13,一般社団法人国際ｅスポーツ医学会,,その他の設立登記法人,東京都,中央区,八丁堀４丁目８番１０号,,13,102,1040032,,,,,,,2023-03-13,1,,,,,コクサイイースポーツイガクカイ,0
509,3010401172839,新規,0,2023-03-13,2023-03-13,株式会社プラチナ企画,,株式会社,東京都,港区,白金台３丁目７番１５号,,13,103,1080071,,,,,,,2023-03-13,1,,,,,プラチナキカク,0
510,3010401172987,新規,0,2023-03-13,2023-03-13,株式会社パグ党,,株式会社,東京都,港区,南青山３丁目１番３６号青山丸竹ビル６Ｆ,,13,103,1070062,,,,,,,2023-03-13,1,,,,,パグトウ,0
511,3010401173003,新規,0,2023-03-13,2023-03-13,カントリーフィルム株式会社,,株式会社,東京都,港区,東麻布２丁目３５番１号ＫＣビル６Ｆ,,13,103,1060044,,,,,,,2023-03-13,1,,,,,カントリーフィルム,0
512,3010401173011,新規,0,2023-03-13,2023-03-13,株式会社ＬＤマーケティング,,株式会社,東京都,港区,西麻布２丁目１３番６号ケイズ西麻布７階,,13,103,1060031,,,,,,,2023-03-13,1,,,,,エルディマーケティング,0
519,3010405021892,新規,0,2023-03-13,2023-03-13,一般社団法人ＤＤホテルバンク,,その他の設立登記法人,東京都,港区,芝４丁目１番２３号三田ＮＮビル１８階,,13,103,1080014,,,,,,,2023-03-13,1,,,,,ディーディーホテルバンク,0
521,3010603010053,新規,0,2023-03-13,2023-03-13,合同会社Ｗａｒｒｅｎ　Ｃｏｎｓｕｌｔｉｎｇ,,合同会社,東京都,江東区,豊洲６丁目２番３１－２１１３号,,13,108,1350061,,,,,,,2023-03-13,1,,,,,ウォーレンコンサルティング,0
522,3010701043954,新規,0,2023-03-13,2023-03-13,Ｓｅｍｕｉｓ株式会社,,株式会社,東京都,品川区,北品川３丁目１１番１３－３４０３号,,13,109,1400001,,,,,,,2023-03-13,1,,,,,セムイス,0
540,3011101102128,新規,0,2023-03-13,2023-03-13,株式会社ＭＡＯコーポレーション,,株式会社,東京都,新宿区,四谷本塩町１５番７号,,13,104,1600003,,,,,,,2023-03-13,1,,,,,エムエーオーコーポレーション,0
542,3011201024494,新規,0,2023-03-13,2023-03-13,Ｍａｃｓアルファ株式会社,,株式会社,東京都,中野区,大和町２丁目８番１１号,,13,114,1650034,,,,,,,2023-03-13,1,,,,,マックスアルファ,0
549,3011401024971,新規,0,2023-03-13,2023-03-13,株式会社ＭＩＣ　ｇｌｏｂａｌ　ｌｏｇｉｓｔｉｃｓ,,株式会社,東京都,板橋区,小茂根１丁目３番１６号,,13,119,1730037,,,,,,,2023-03-13,1,,,,,ミックグローバルロジスティクス,0
551,3011501029037,新規,0,2023-03-13,2023-03-13,株式会社カラフラス,,株式会社,東京都,荒川区,南千住７丁目２０番１－１３０７号,,13,118,1160003,,,,,,,2023-03-13,1,,,,,カラフラス,0
552,3011501029045,新規,0,2023-03-13,2023-03-13,株式会社ＴＲＹ,,株式会社,東京都,北区,滝野川６丁目５６番１３－４１１号Ｌ－Ｆｌａｔ板橋,,13,117,1140023,,,,,,,2023-03-13,1,,,,,トライ,0
554,3011503005515,新規,0,2023-03-13,2023-03-13,栄耀合同会社,,合同会社,東京都,北区,浮間１丁目１－１４リムジンビル２２５,,13,117,1150051,,,,,,,2023-03-13,1,,,,,エイヨウ,0
558,3011701026073,新規,0,2023-03-13,2023-03-13,順祥株式会社,,株式会社,東京都,江戸川区,南小岩１丁目７番１３号２階,,13,123,1330056,,,,,,,2023-03-13,1,,,,,ジュンショウ,0
561,3012401040273,新規,0,2023-03-13,2023-03-13,株式会社アトラス薬局,,株式会社,東京都,武蔵野市,関前２丁目１６番３号１,,13,203,1800014,,,,,,,2023-03-13,1,,,,,アトラスヤッキョク,0
568,3020001150624,新規,0,2023-03-13,2023-03-13,株式会社Ａｋａｒｉｎｏ,,株式会社,神奈川県,横浜市保土ケ谷区,瀬戸ケ谷町１４０番地２トリニティウエスト１０２号,,14,106,2400024,,,,,,,2023-03-13,1,,,,,アカリノ,0
569,3020001150640,新規,0,2023-03-13,2023-03-13,ネクストアーチ株式会社,,株式会社,神奈川県,横浜市緑区,鴨居町８１５番地２５,,14,113,2260004,,,,,,,2023-03-13,1,,,,,ネクストアーチ,0
570,3020001150649,新規,0,2023-03-13,2023-03-13,株式会社ＲＭＴ,,株式会社,神奈川県,横浜市旭区,今宿南町１７４０番地１３サンハイム１０３,,14,112,2410034,,,,,,,2023-03-13,1,,,,,アールエムティ,0
592,3030001152652,新規,0,2023-03-13,2023-03-13,早稲田製薬株式会社,,株式会社,埼玉県,戸田市,本町４丁目４番６号,,11,224,3350023,,,,,,,2023-03-13,1,,,,,ワセダセイヤク,0
599,3040001127455,新規,0,2023-03-13,2023-03-13,新誉株式会社,,株式会社,千葉県,松戸市,新松戸南１丁目２９番地オーベルグランディオ新松戸５１１号,,12,207,2700035,,,,,,,2023-03-13,1,,,,,シンヨ,0
600,3040001127488,新規,0,2023-03-13,2023-03-13,ナミカワホーム株式会社,,株式会社,千葉県,八街市,文違３０１番地１４７,,12,230,2891104,,,,,,,2023-03-13,1,,,,,ナミカワホーム,0
602,3040003022175,新規,0,2023-03-13,2023-03-13,ルートマウンド合同会社,,合同会社,千葉県,鎌ケ谷市,東鎌ケ谷２丁目２番１８号,,12,224,2730104,,,,,,,2023-03-13,1,,,,,ルートマウンド,0
606,3050001052512,新規,0,2023-03-13,2023-03-13,株式会社りんりんシステム,,株式会社,茨城県,日立市,金沢町１丁目１０番１５号,,08,202,3160015,,,,,,,2023-03-13,1,,,,,リンリンシステム,0
607,3050003007290,新規,0,2023-03-13,2023-03-13,合同会社大川工業,,合同会社,茨城県,水戸市,東原１丁目２－１プリマベーラ３０３,,08,201,3100035,,,,,,,2023-03-13,1,,,,,オオカワコウギョウ,0
615,3070003004848,新規,0,2023-03-13,2023-03-13,合同会社平田組,,合同会社,群馬県,高崎市,上大島町２１５番地２５,,10,202,3703335,,,,,,,2023-03-13,1,,,,,ヒラタグミ,0
618,3080103002759,新規,0,2023-03-13,2023-03-13,合同会社ＪＯＮＲＯＣＫＳ,,合同会社,静岡県,富士宮市,淀川町４番１９号,,22,207,4180041,,,,,,,2023-03-13,1,,,,,ジョンロックス,0
620,3080403004752,新規,0,2023-03-13,2023-03-13,合同会社ショコラ,,合同会社,静岡県,浜松市南区,石原町３２１番地の２,,22,134,4350033,,,,,,,2023-03-13,1,,,,,ショコラ,0
626,3110001037366,新規,0,2023-03-13,2023-03-13,ＥＡＴダイエ株式会社,,株式会社,新潟県,新潟市西区,五十嵐２の町８７２４番地第三久太荘２０２,,15,107,9502102,,,,,,,2023-03-13,1,,,,,イーエーティーダイエ,0
637,3120001253045,新規,0,2023-03-13,2023-03-13,日本グリーンコン株式会社,,株式会社,大阪府,大阪市住之江区,南港北２丁目１－１０ＡＴＣビルＯ’ｓ棟北館５２０号,,27,125,5590034,,,,,,,2023-03-13,1,,,,,ニホングリーンコン,0
638,3120001253152,新規,0,2023-03-13,2023-03-13,ＹＨ株式会社,,株式会社,大阪府,大阪市浪速区,下寺３丁目１番１４－２１３号,,27,111,5560001,,,,,,,2023-03-13,1,,,,,ワイエイチ,0
639,3120001253160,新規,0,2023-03-13,2023-03-13,早川商事株式会社,,株式会社,大阪府,大阪市淀川区,宮原１丁目１９番２３号ステュディオ新御堂５０３号,,27,123,5320003,,,,,,,2023-03-13,1,,,,,ハヤカワショウジ,0
640,3120001253169,新規,0,2023-03-13,2023-03-13,株式会社乾道,,株式会社,大阪府,大阪市中央区,玉造１丁目２１番２２号３０１,,27,128,5400004,,,,,,,2023-03-13,1,,,,,ケンドウ,0
641,3120001253177,新規,0,2023-03-13,2023-03-13,株式会社絆,,株式会社,大阪府,大阪市中央区,島之内１丁目２０番１１号,,27,128,5420082,,,,,,,2023-03-13,1,,,,,キズナ,0
643,3120003023594,新規,0,2023-03-13,2023-03-13,岡林総合会計合同会社,,合同会社,大阪府,枚方市,高塚町２５番３－４０３号,,27,210,5730035,,,,,,,2023-03-13,1,,,,,オカバヤシソウゴウカイケイ,0
644,3120003023603,新規,0,2023-03-13,2023-03-13,キューブワークス合同会社,,合同会社,大阪府,大阪市北区,梅田１丁目１－３大阪駅前第３ビル２９階１－１－１号室,,27,127,5300001,,,,,,,2023-03-13,1,,,,,キューブワークス,0
645,3120003023611,新規,0,2023-03-13,2023-03-13,合同会社縹,,合同会社,大阪府,大阪市西区,江戸堀３丁目７１番地３ローレルコート中之島１４１１号,,27,106,5500002,,,,,,,2023-03-13,1,,,,,ハナダ,0
658,3140001129400,新規,0,2023-03-13,2023-03-13,株式会社ｉＯ,,株式会社,兵庫県,姫路市,飾磨区清水１２６番地２,,28,201,6728051,,,,,,,2023-03-13,1,,,,,イオ,0
659,3140001129409,新規,0,2023-03-13,2023-03-13,株式会社Ｗｉｓｅ　Ｄｏｏｒ,,株式会社,兵庫県,神戸市中央区,加納町２丁目６番２１号ＫＡＩＳＥＩ新神戸８０４号,,28,110,6500001,,,,,,,2023-03-13,1,,,,,ワイズドア,0
660,3140001129417,新規,0,2023-03-13,2023-03-13,株式会社ＲＥ神戸,,株式会社,兵庫県,神戸市北区,山田町原野字芦谷山３番１,,28,109,6511252,,,,,,,2023-03-13,1,,,,,アールイーコウベ,0
661,3150001026225,新規,0,2023-03-13,2023-03-13,ＭｅｄｉｐｈａｒＴｅｃ株式会社,,株式会社,奈良県,奈良市,百楽園１丁目１番１１号,,29,201,6310024,,,,,,,2023-03-13,1,,,,,メディファーテック,0
666,3170001017511,新規,0,2023-03-13,2023-03-13,アシストラン株式会社,,株式会社,和歌山県,岩出市,中黒５０番地の８,,30,209,6496248,,,,,,,2023-03-13,1,,,,,アシストラン,0
671,3180001155327,新規,0,2023-03-13,2023-03-13,株式会社ＭＩ　ＬＩＮＫ,,株式会社,愛知県,津島市,白浜町字小新開１８番地１,,23,208,4960016,,,,,,,2023-03-13,1,,,,,エムアイリンク,0
675,3180301037167,新規,0,2023-03-13,2023-03-13,ナインフィニティ株式会社,,株式会社,愛知県,碧南市,古川町３丁目２０番地２,,23,209,4470062,,,,,,,2023-03-13,1,,,,,ナインフィニティ,0
679,3200001041061,新規,0,2023-03-13,2023-03-13,株式会社ＲＥＳＯＨ,,株式会社,岐阜県,加茂郡富加町,加治田３７３１番地１,,21,502,5013301,,,,,,,2023-03-13,1,,,,,リソー,0
688,3240001061171,新規,0,2023-03-13,2023-03-13,株式会社ＭＴボデー,,株式会社,広島県,福山市,松永町３丁目１１番３２号,,34,207,7290104,,,,,,,2023-03-13,1,,,,,エムティボデー,0
689,3240001061205,新規,0,2023-03-13,2023-03-13,Ｋ．Ｉ．ＴＥＣＨ株式会社,,株式会社,広島県,広島市中区,江波南２丁目２３番１３号,,34,101,7300835,,,,,,,2023-03-13,1,,,,,ケーアイテック,0
694,3250001020003,新規,0,2023-03-13,2023-03-13,株式会社ＡＭＥＴＲＩＮＥ,,株式会社,山口県,光市,中村町１１番３７号,,35,210,7430048,,,,,,,2023-03-13,1,,,,,アメトリン,0
695,3250003003237,新規,0,2023-03-13,2023-03-13,ＮＥＸＴ合同会社,,合同会社,山口県,山口市,宮野下１３２２番地,,35,203,7530011,,,,,,,2023-03-13,1,,,,,ネクスト,0
701,3280003001709,新規,0,2023-03-13,2023-03-13,合同会社花屋,,合同会社,島根県,隠岐郡海士町,大字海士１５０８番地１,,32,525,6840403,,,,,,,2023-03-13,1,,,,,ハナヤ,0
705,3290001100874,新規,0,2023-03-13,2023-03-13,株式会社Ｓｈｅｒｐａ,,株式会社,福岡県,福岡市博多区,博多駅前２丁目１番１号ｆａｂｂｉｔＧＧ博多駅前内福岡朝日ビル１階,,40,132,8120011,,,,,,,2023-03-13,1,,,,,シェルパ,0
708,3290801029363,新規,0,2023-03-13,2023-03-13,株式会社タニグチ,,株式会社,福岡県,北九州市若松区,深町１丁目７－７３,,40,103,8080012,,,,,,,2023-03-13,1,,,,,タニグチ,0
711,3300001013240,新規,0,2023-03-13,2023-03-13,シビックメディア株式会社,,株式会社,佐賀県,佐賀市,中の小路３番３６号,,41,201,8400833,,,,,,,2023-03-13,1,,,,,,0
713,3320002022866,新規,0,2023-03-13,2023-03-13,有限会社土谷鉄筋,,有限会社,大分県,速見郡日出町,大字大神９７７２番地の１０６,,44,341,8791504,,,,,,,2023-03-13,1,,,,,ツチヤテッキン,0
715,3340001025422,新規,0,2023-03-13,2023-03-13,株式会社ＳＯＥＪＩＭＡ,,株式会社,鹿児島県,西之表市,西之表６９６３番地,,46,213,8913101,,,,,,,2023-03-13,1,,,,,ソエジマ,0
722,3360001031690,新規,0,2023-03-13,2023-03-13,Ｓｅａ　Ｌｉｇｈｔ　Ｈｏｍｅ株式会社,,株式会社,沖縄県,浦添市,仲西１丁目３番２５号５階５０２－７,,47,208,9012125,,,,,,,2023-03-13,1,,,,,シーライトホーム,0
723,3360001031708,新規,0,2023-03-13,2023-03-13,ブルーオーシャン株式会社,,株式会社,沖縄県,浦添市,勢理客２丁目２５番７号１Ｆ,,47,208,9012122,,,,,,,2023-03-13,1,,,,,ブルーオーシャン,0
728,3380001033537,新規,0,2023-03-13,2023-03-13,Ｙコンサルタント株式会社,,株式会社,福島県,いわき市,錦町沼ノ川２４番地の５,,07,204,9748232,,,,,,,2023-03-13,1,,,,,ワイコンサルタント,0
740,3430003014819,新規,0,2023-03-13,2023-03-13,ＭＳＩＳＭ合同会社,,合同会社,北海道,札幌市中央区,南五条西９丁目１００８番地４リーガルコート南５条２０２号,,01,101,0640805,,,,,,,2023-03-13,1,,,,,エムエスイズム,0
741,3430005014651,新規,0,2023-03-13,2023-03-13,医療法人社団優希,,その他の設立登記法人,北海道,札幌市西区,八軒五条西１丁目１－５７Ｃｏｌｌａｂ八軒２階,,01,107,0630845,,,,,,,2023-03-13,1,,,,,ユウキ,0
748,3700150051876,新規,0,2023-03-13,2015-10-09,岳心コーポレーション,,その他,広島県,呉市,郷原野路の里２丁目３－１,,34,202,7370163,,,,,,,2015-10-09,1,,,,,ガクシンコーポレーシヨン,0
750,3700150114798,新規,0,2023-03-13,2023-03-13,Ｓｈｅｎ　Ｚｈｅｎ　Ｓｈｉ　Ｍｅｉ　Ｓｈａ　Ｋｅ　Ｄｉａｎ　Ｚｉ　Ｓｈａｎｇ　Ｗｕ　Ｙｏｕ　Ｘｉａｎ　Ｇｏｎｇ　Ｓｉ,,外国会社等,,,,,,,,Ｓｈｅｎ　Ｚｈｅｎ　Ｓｈｉ　Ｌｏｎｇ　Ｇａｎｇ　Ｑｕ　Ｂａｎ　Ｔｉａｎ　Ｊｉｅ　Ｄａｏ　Ｓｈａｎｇ　Ｘｕｅ　Ｋｅ　Ｊｉ　Ｙｕａｎ　Ｓｈａｎｇ　Ｙｅ　Ｊｉｅ　Ｂａｎ　Ｇｏｎｇ　Ｌｏｕ　Ｂ　Ｄｏｎｇ　Ｂ５０６,,,,,,2023-03-13,1,,,,,シェンジェンシーメイシャーコーディエンズーシャンウーヨウシエンゴンスー,0
759,4010003040039,新規,0,2023-03-13,2023-03-13,合同会社プレミアワン,,合同会社,東京都,中央区,日本橋堀留町１丁目１０番１号カクタビル２Ｆ,,13,102,1030012,,,,,,,2023-03-13,1,,,,,プレミアワン,0
761,4010005036332,新規,0,2023-03-13,2023-03-13,一般社団法人全日本華人華僑総商会,,その他の設立登記法人,東京都,中央区,日本橋堀留町１丁目１０番１６号第８センタープラザ８階,,13,102,1030012,,,,,,,2023-03-13,1,,,,,ゼンニホンカジンカキョウソウショウカイ,0
766,4010401173019,新規,0,2023-03-13,2023-03-13,株式会社ネクキャリ,,株式会社,東京都,港区,港南１丁目８番４０号Ａ－ＰＬＡＣＥ品川６階,,13,103,1080075,,,,,,,2023-03-13,1,,,,,ネクキャリ,0
772,4010403029714,新規,0,2023-03-13,2023-03-13,合同会社Ｐｏｍｏｓ,,合同会社,東京都,港区,南青山３丁目１番３６号青山丸竹ビル６階,,13,103,1070062,,,,,,,2023-03-13,1,,,,,ポモス,0
776,4010701043961,新規,0,2023-03-13,2023-03-13,株式会社ｍｏｄｅｓ,,株式会社,東京都,品川区,南品川２丁目２－５リードシー南品川ビル２Ｆ,,13,109,1400004,,,,,,,2023-03-13,1,,,,,モーデス,0
779,4010901052705,新規,0,2023-03-13,2023-03-13,グラニット株式会社,,株式会社,東京都,世田谷区,尾山台２丁目１９番２０号,,13,112,1580086,,,,,,,2023-03-13,1,,,,,グラニット,0
784,4011001153006,新規,0,2023-03-13,2023-03-13,株式会社Ｈｕｍａｎ　Ａｒｔｓ,,株式会社,東京都,渋谷区,神宮前６丁目２３番４号桑野ビル２階,,13,113,1500001,,,,,,,2023-03-13,1,,,,,ヒューマンアーツ,0
787,4011401024962,新規,0,2023-03-13,2023-03-13,株式会社メディカルオンライン,,株式会社,東京都,板橋区,常盤台２丁目１４番１号,,13,119,1740071,,,,,,,2023-03-13,1,,,,,メディカルオンライン,0
789,4011501029044,新規,0,2023-03-13,2023-03-13,株式会社ＴＩＡ,,株式会社,東京都,北区,田端新町１丁目１１番４－４０２号聖巧グリーンホーム田端,,13,117,1140012,,,,,,,2023-03-13,1,,,,,,0
791,4011503005514,新規,0,2023-03-13,2023-03-13,ＤＵＣ合同会社,,合同会社,東京都,荒川区,町屋１丁目５番７号高梨ビル２Ｆ,,13,118,1160001,,,,,,,2023-03-13,1,,,,,ドゥク,0
792,4011701026080,新規,0,2023-03-13,2023-03-13,株式会社Ａｖｅｉｌｅ,,株式会社,東京都,江戸川区,篠崎町１丁目３１番２４号,,13,123,1330061,,,,,,,2023-03-13,1,,,,,アヴェール,0
794,4011801042060,新規,0,2023-03-13,2023-03-13,政治家女子４８株式会社,,株式会社,東京都,葛飾区,東新小岩１丁目１番１号,,13,122,1240023,,,,,,,2023-03-13,1,,,,,セイジカジョシフォーティーエイト,0
801,4012401040272,新規,0,2023-03-13,2023-03-13,シバタスク株式会社,,株式会社,東京都,府中市,是政１丁目７－５５,,13,206,1830014,,,,,,,2023-03-13,1,,,,,シバタスク,0
804,4012701017532,新規,0,2023-03-13,2023-03-13,株式会社ＳＳＣ,,株式会社,東京都,東村山市,富士見町３丁目１４番４号,,13,213,1890024,,,,,,,2023-03-13,1,,,,,エスエスシー,0
816,4020001150623,新規,0,2023-03-13,2023-03-13,株式会社Ｒｅｂｅｒｔａ,,株式会社,神奈川県,横浜市都筑区,中川中央１丁目２１番３－２０１号ドゥーエセンター北,,14,118,2240003,,,,,,,2023-03-13,1,,,,,リベルタ,0
820,4020003023496,新規,0,2023-03-13,2023-03-13,合同会社ＳＴＡＲ,,合同会社,神奈川県,横浜市鶴見区,鶴見中央４丁目３１番７－１００１号,,14,101,2300051,,,,,,,2023-03-13,1,,,,,スター,0
821,4020003023513,新規,0,2023-03-13,2023-03-13,合同会社小牧経営,,合同会社,神奈川県,横浜市緑区,森の台３８－３－３０６,,14,113,2260029,,,,,,,2023-03-13,1,,,,,コマキケイエイ,0
824,4021001078391,新規,0,2023-03-13,2023-03-13,株式会社ＡＥＳ,,株式会社,神奈川県,伊勢原市,小稲葉２８５７番地,,14,214,2591122,,,,,,,2023-03-13,1,,,,,エイイーエス,0
831,4030001152825,新規,0,2023-03-13,2023-03-13,株式会社クリーンシップ,,株式会社,埼玉県,さいたま市見沼区,大字東門前１６３番地１１,,11,104,3370016,,,,,,,2023-03-13,1,,,,,クリーンシップ,0
841,4050001052528,新規,0,2023-03-13,2023-03-13,株式会社３９サービス,,株式会社,茨城県,つくば市,西大橋７３９番地１,,08,220,3050831,,,,,,,2023-03-13,1,,,,,サンキューサービス,0
852,4070003004863,新規,0,2023-03-13,2023-03-13,Ｆ‐Ｓｐｉｋｅ．ＬＬＣ合同会社,,合同会社,群馬県,高崎市,高関町５２７番地,,10,202,3700043,,,,,,,2023-03-13,1,,,,,エフスパイクエルエルシー,0
858,4080401026368,新規,0,2023-03-13,2023-03-13,株式会社山梨ブロック,,株式会社,静岡県,浜松市東区,豊町５７６８番地の１,,22,132,4313101,,,,,,,2023-03-13,1,,,,,ヤマナシブロック,0
877,4120001253093,新規,0,2023-03-13,2023-03-13,株式会社旅行観光集団,,株式会社,大阪府,大阪市淀川区,新高１丁目１４番３８,,27,123,5320033,,,,,,,2023-03-13,1,,,,,リョコウカンコウシュウダン,0
878,4120001253135,新規,0,2023-03-13,2023-03-13,株式会社ソルエユニーク,,株式会社,大阪府,大阪市中央区,南本町２丁目３番１２号３Ｆ,,27,128,5410054,,,,,,,2023-03-13,1,,,,,ソルエユニーク,0
883,4120003023577,新規,0,2023-03-13,2023-03-13,ＴＡＫＡＲＡ　ＭＩＮＩＮＧ合同会社,,合同会社,大阪府,大阪市北区,梅田１丁目２－２大阪駅前第２ビル１２－１２,,27,127,5300001,,,,,,,2023-03-13,1,,,,,タカラマイニング,0
884,4120003023585,新規,0,2023-03-13,2023-03-13,ＴＶＬ　Ｈｏｔｅｌｓ　Ｊａｐａｎ合同会社,,合同会社,大阪府,大阪市中央区,安土町３丁目２番６号,,27,128,5410052,,,,,,,2023-03-13,1,,,,,ティーブイエルホテルズジャパン,0
885,4120003023602,新規,0,2023-03-13,2023-03-13,合同会社Ｒｅｌｉｅｒ,,合同会社,大阪府,寝屋川市,打上宮前町２番２－５０３号,,27,215,5720862,,,,,,,2023-03-13,1,,,,,ルリエ,0
887,4120101067113,新規,0,2023-03-13,2023-03-13,株式会社アテナメディカルケア,,株式会社,大阪府,羽曳野市,南恵我之荘８丁目６番６号,,27,222,5830885,,,,,,,2023-03-13,1,,,,,アテナメディカルケア,0
892,4130001073838,新規,0,2023-03-13,2023-03-13,株式会社Ｓｅｖｅｎ　Ｄｒｅａｍｓ,,株式会社,京都府,京都市上京区,堀川通今出川上る東入実相院町１４６番地４,,26,102,6020059,,,,,,,2023-03-13,1,,,,,セブンドリームズ,0
896,4140001129325,新規,0,2023-03-13,2023-03-13,株式会社ＣＯ,,株式会社,兵庫県,神戸市中央区,相生町４丁目３番１５号ＡＱＵＡビル１Ｆ,,28,110,6500025,,,,,,,2023-03-13,1,,,,,シーオー,0
897,4140001129390,新規,0,2023-03-13,2023-03-13,アルプレミオ株式会社,,株式会社,兵庫県,神戸市長田区,明泉寺町２丁目１番１７－５０３号,,28,106,6530884,,,,,,,2023-03-13,1,,,,,アルプレミオ,0
898,4140001129408,新規,0,2023-03-13,2023-03-13,株式会社ＫＳ建工,,株式会社,兵庫県,神戸市西区,押部谷町福住５７９番地の１０７エトワールヴィラ神戸３０４号,,28,111,6512213,,,,,,,2023-03-13,1,,,,,ケーエスケンコウ,0
899,4140001129416,新規,0,2023-03-13,2023-03-13,株式会社Ｒａｉｓｅ,,株式会社,兵庫県,尼崎市,下坂部２丁目１８番１２号,,28,202,6610975,,,,,,,2023-03-13,1,,,,,レイズ,0
903,4150001026224,新規,0,2023-03-13,2023-03-13,ワイズアール株式会社,,株式会社,奈良県,橿原市,今井町４丁目１１番１１号,,29,205,6340812,,,,,,,2023-03-13,1,,,,,ワイズアール,0
919,4180003024958,新規,0,2023-03-13,2023-03-13,ＰＳＳＧ合同会社,,合同会社,愛知県,名古屋市瑞穂区,駒場町７丁目５番地の６サンシティ桜山２０１号,,23,108,4670807,,,,,,,2023-03-13,1,,,,,ピーエスエスジー,0
920,4180003024966,新規,0,2023-03-13,2023-03-13,合同会社わかまつ,,合同会社,愛知県,名古屋市昭和区,御器所４丁目１４番３号ー２,,23,107,4660051,,,,,,,2023-03-13,1,,,,,ワカマツ,0
921,4180003024974,新規,0,2023-03-13,2023-03-13,合同会社Ｎｏｚｏ＆Ｔｏｗｎ,,合同会社,愛知県,名古屋市東区,葵１丁目２番６号,,23,102,4610004,,,,,,,2023-03-13,1,,,,,ノゾアンドタウン,0
933,4240001061195,新規,0,2023-03-13,2023-03-13,株式会社大和機械,,株式会社,広島県,広島市南区,大州３丁目６番２０号,,34,103,7320802,,,,,,,2023-03-13,1,,,,,ダイワキカイ,0
935,4240005015536,新規,0,2023-03-13,2023-03-13,井口台パークヒルズ参番館管理組合法人,,その他の設立登記法人,広島県,広島市西区,井口台３丁目３７番３号,,34,104,7330844,,,,,,,2023-03-13,1,,,,,イノクチダイパークヒルズサンバンカン,0
951,4290001100865,新規,0,2023-03-13,2023-03-13,ＨＹＧＧＥ　ｄｅｓｉｇｎ株式会社,,株式会社,福岡県,福岡市中央区,白金１丁目１６番１４号１階,,40,133,8100012,,,,,,,2023-03-13,1,,,,,ヒュッゲデザイン,0
954,4290801029362,新規,0,2023-03-13,2023-03-13,株式会社ＳＭＩＬＥ’ｓ,,株式会社,福岡県,中間市,通谷５丁目１６番１２号,,40,215,8090018,,,,,,,2023-03-13,1,,,,,スマイルズ,0
961,4360001031608,新規,0,2023-03-13,2023-03-13,株式会社ウェルマインド,,株式会社,沖縄県,那覇市,金城２丁目５番地８,,47,201,9010155,,,,,,,2023-03-13,1,,,,,ウェルマインド,0
964,4360003012787,新規,0,2023-03-13,2023-03-13,合同会社ＳＴＯＰ,,合同会社,沖縄県,中頭郡北谷町,字北前４１６番地２Ｆ,,47,326,9040117,,,,,,,2023-03-13,1,,,,,ストップ,0
972,4380005012684,新規,0,2023-03-13,2023-03-13,楢葉町特定地域づくり事業協同組合,,その他の設立登記法人,福島県,双葉郡楢葉町,大字山田岡字堂ノ下６番４,,07,542,9790513,,,,,,,2023-03-13,1,,,,,ナラハマチトクテイチイキヅクリ,0
976,4400003003039,新規,0,2023-03-13,2023-03-13,北上駅西口開発事業合同会社,,合同会社,岩手県,北上市,大通り３丁目７番２６号,,03,206,0240061,,,,,,,2023-03-13,1,,,,,キタカミエキニシグチカイハツジギョウ,0
981,4440001009232,新規,0,2023-03-13,2023-03-13,株式会社ＦＵＳＨＩＭＩ,,株式会社,北海道,函館市,本町３２－６,,01,202,0400011,,,,,,,2023-03-13,1,,,,,フシミ,0
983,4460103001515,新規,0,2023-03-13,2023-03-13,Ｓｏｓｉａｌ　Ｋｎｏｗｌｅｄｇｅ　Ｂａｎｋ合同会社,,合同会社,北海道,河西郡更別村,字更別南二線９６番地１４,,01,639,0891542,,,,,,,2023-03-13,1,,,,,ソーシャルナレッジバンク,0
986,4700150114797,新規,0,2023-03-13,2023-03-13,Ｓｈｅｎｚｈｅｎ　ｙｉｔｉｎｇ　Ｔｒａｄｉｎｇ　Ｃｏ．，Ｌｔｄ．,,外国会社等,,,,,,,,Ｒｏｏｍ　６１０，Ａｎｎｅｘ　Ｂｕｉｌｄｉｎｇ，Ｎｉｕｌａｎｑｉａｎ　Ｂｕｉｌｄｉｎｇ，Ｍｉｎｚｈｉ　Ａｖｅｎｕｅ，Ｘｉｎｎｉｕ　Ｃｏｍｍｕｎｉｔｙ，Ｍｉｎｚｈｉ　Ｓｔｒｅｅｔ，Ｌｏｎｇｈｕａ　Ｄｉｓｔｒｉ　Ｓｈｅｎｚｈｅｎ　Ｇｕａｎｇｄｏｎｇ　５１８０００　ＣＮ,,,,,,2023-03-13,1,,,,,シェンジェンシーイーティンマオイーヨウシエンゴンスー,0
993,5010001233551,新規,0,2023-03-13,2023-03-13,株式会社ｈｏｍｈｏｍ,,株式会社,東京都,文京区,白山５丁目１７番１８号,,13,105,1120001,,,,,,,2023-03-13,1,,,,,ホムホム,0
1004,5010401173034,新規,0,2023-03-13,2023-03-13,株式会社Ｄｙｎａ‐ｐａｒｔｎｅｒｓ,,株式会社,東京都,港区,六本木７丁目５番９号,,13,103,1060032,,,,,,,2023-03-13,1,,,,,ダイナパートナーズ,0
1007,5010403029705,新規,0,2023-03-13,2023-03-13,クリスタル電力合同会社,,合同会社,東京都,港区,西新橋２丁目２０番１号４階,,13,103,1050003,,,,,,,2023-03-13,1,,,,,クリスタルデンリョク,0
1012,5010901052704,新規,0,2023-03-13,2023-03-13,株式会社豊園,,株式会社,東京都,世田谷区,玉川３丁目１７番１号玉川高島屋ショッピングセンター本館Ｓ・Ｃ本館Ｂ１Ｆ,,13,112,1580094,,,,,,,2023-03-13,1,,,,,ホウエン,0
1013,5010905004453,新規,0,2023-03-13,2023-03-13,医療法人社団ＳＳＬＣ,,その他の設立登記法人,東京都,世田谷区,桜新町１丁目４０番８号桜新町クリニックモール５階,,13,112,1540015,,,,,,,2023-03-13,1,,,,,エスエスエルシー,0
1034,5011501029051,新規,0,2023-03-13,2023-03-13,日本冢岡製薬株式会社,,株式会社,東京都,荒川区,南千住３丁目２７－２浅草ビル,,13,118,1160003,,,,,,,2023-03-13,1,,,,,ニホンツカオカセイヤク,0
1037,5012703002655,新規,0,2023-03-13,2023-03-13,ＡＬＥ合同会社,,合同会社,東京都,小平市,小川町１丁目１３６－３２,,13,211,1870032,,,,,,,2023-03-13,1,,,,,アレ,0
1039,5013105001824,新規,0,2023-03-13,2023-03-13,医療法人社団真青会,,その他の設立登記法人,東京都,青梅市,河辺町５丁目７番４号ＭＨ河辺町駅前ビル３階、４階,,13,205,1980036,,,,,,,2023-03-13,1,,,,,シンセイカイ,0
1047,5020001150597,新規,0,2023-03-13,2023-03-13,Ｋサービス株式会社,,株式会社,神奈川県,横浜市南区,宿町１丁目２８番地第二住吉ビルＢ棟１０１,,14,105,2320017,,,,,,,2023-03-13,1,,,,,ケーサービス,0
1049,5020003023504,新規,0,2023-03-13,2023-03-13,合同会社ＰＡＲＡＢＯＬＡ,,合同会社,神奈川県,横浜市港北区,新横浜３丁目１９－１１加瀬ビル８８Ｎｏ．１３６,,14,109,2220033,,,,,,,2023-03-13,1,,,,,パラボラ,0
1050,5020003023512,新規,0,2023-03-13,2023-03-13,ＴＳＰＬ合同会社,,合同会社,神奈川県,川崎市多摩区,登戸３０４４－４－５０２,,14,135,2140014,,,,,,,2023-03-13,1,,,,,ティーエスピーエル,0
1051,5021001078416,新規,0,2023-03-13,2023-03-13,株式会社ダイニング八,,株式会社,神奈川県,相模原市緑区,大島３１４７番地７,,14,151,2520135,,,,,,,2023-03-13,1,,,,,ダイニングハチ,0
1058,5021005012750,新規,0,2023-03-13,2023-03-13,一般社団法人Ｆｌｏｗ　ｓｐｏｒｔｓ＆ｃｕｌｔｕｒｅ湘南,,その他の設立登記法人,神奈川県,鎌倉市,由比ガ浜２丁目５－２２,,14,204,2480014,,,,,,,2023-03-13,1,,,,,フロースポーツアンドカルチャーショウナン,0
1069,5030001152774,新規,0,2023-03-13,2023-03-13,Ｋ・Ｐ・Ｓ株式会社,,株式会社,埼玉県,草加市,新里町３５３番地２,,11,221,3400031,,,,,,,2023-03-13,1,,,,,ケーピーエス,0
1075,5040001127263,新規,0,2023-03-13,2023-03-13,株式会社Ｓｔａｎｄｓ,,株式会社,千葉県,千葉市若葉区,小倉台４丁目８番１３号,,12,104,2640006,,,,,,,2023-03-13,1,,,,,スタンズ,0
1076,5040003022181,新規,0,2023-03-13,2023-03-13,カタヤマ会計合同会社,,合同会社,千葉県,千葉市中央区,新宿２丁目３－２－２０７,,12,101,2600021,,,,,,,2023-03-13,1,,,,,カタヤマカイケイ,0
1082,5050001052493,新規,0,2023-03-13,2023-03-13,ＺＡＩＮ　ＴＲＡＤＩＮＧ株式会社,,株式会社,茨城県,坂東市,沓掛４００３番地１,,08,228,3060515,,,,,,,2023-03-13,1,,,,,ザイントレーディング,0
1083,5050001052510,新規,0,2023-03-13,2023-03-13,ｎＲＫ株式会社,,株式会社,茨城県,水戸市,田野町１７５,,08,201,3100901,,,,,,,2023-03-13,1,,,,,エヌアールケー,0
1088,5070003004862,新規,0,2023-03-13,2023-03-13,合同会社ＴＲＹ＆３Ｍ,,合同会社,群馬県,高崎市,元島名町１００番地６８,,10,202,3700014,,,,,,,2023-03-13,1,,,,,トライアンドスリーエム,0
1092,5090001018020,新規,0,2023-03-13,2023-03-13,株式会社ＡＪコレクション,,株式会社,山梨県,甲府市,湯田２丁目２０番１５号メゾントリオＣ－１０２,,19,201,4000864,,,,,,,2023-03-13,1,,,,,エージェイコレクション,0
1094,5100003006921,新規,0,2023-03-13,2023-03-13,合同会社システムリソース,,合同会社,長野県,岡谷市,川岸上４丁目１３番１号,,20,204,3940048,,,,,,,2023-03-13,1,,,,,システムリソース,0
1103,5120001253118,新規,0,2023-03-13,2023-03-13,株式会社歩,,株式会社,大阪府,大阪市北区,梅田１丁目２番２号大阪駅前第２ビル１２－１２,,27,127,5300001,,,,,,,2023-03-13,1,,,,,アユミ,0
1104,5120001253134,新規,0,2023-03-13,2023-03-13,株式会社ＥＮＺＯＵ,,株式会社,大阪府,大阪市北区,西天満４丁目５番５号マーキス梅田７０２号室,,27,127,5300047,,,,,,,2023-03-13,1,,,,,エンゾー,0
1105,5120001253159,新規,0,2023-03-13,2023-03-13,財晟株式会社,,株式会社,大阪府,大阪市中央区,上汐２丁目５番６－３０Ｃ号,,27,128,5420064,,,,,,,2023-03-13,1,,,,,ザイセイ,0
1106,5120001253167,新規,0,2023-03-13,2023-03-13,ＨＢＤＢＢＱ株式会社,,株式会社,大阪府,大阪市中央区,島之内１丁目８－８ＫＯＵＲＩＮビル６階,,27,128,5420082,,,,,,,2023-03-13,1,,,,,エイチビーディービービーキュー,0
1119,5120101067129,新規,0,2023-03-13,2023-03-13,株式会社小羽,,株式会社,大阪府,堺市西区,北条町２丁４番５号小林マンション３Ｄ,,27,144,5938302,,,,,,,2023-03-13,1,,,,,コハネ,0
1120,5120101067137,新規,0,2023-03-13,2023-03-13,グーイー株式会社,,株式会社,大阪府,堺市堺区,八千代通１番３１号,,27,141,5900052,,,,,,,2023-03-13,1,,,,,グーイー,0
1130,5120903004535,新規,0,2023-03-13,2023-03-13,コノハナセミナー合同会社,,合同会社,大阪府,豊中市,末広町３丁目１４番２－３０１号,,27,203,5600024,,,,,,,2023-03-13,1,,,,,コノハナセミナー,0
1133,5130001073845,新規,0,2023-03-13,2023-03-13,株式会社リフォームＬＡＢＯ　ＫＹＯＴＯ,,株式会社,京都府,長岡京市,今里５丁目１３番３号,,26,209,6170814,,,,,,,2023-03-13,1,,,,,リフォームラボキョウト,0
1136,5140001129407,新規,0,2023-03-13,2023-03-13,株式会社Ｂ．ＰＡＩＮＴ,,株式会社,兵庫県,尼崎市,南武庫之荘９丁目１１番５３－３号,,28,202,6610033,,,,,,,2023-03-13,1,,,,,ビーペイント,0
1137,5140003018822,新規,0,2023-03-13,2023-03-13,ＥＱＵＩＮＯＸ合同会社,,合同会社,兵庫県,赤穂市,上仮屋南１６番地１２ヘーベルメゾン城西１０６,,28,212,6780236,,,,,,,2023-03-13,1,,,,,イクイノックス,0
1140,5150001026215,新規,0,2023-03-13,2023-03-13,株式会社紬,,株式会社,奈良県,生駒郡三郷町,勢野北５丁目７番３２号,,29,343,6360815,,,,,,,2023-03-13,1,,,,,ツムギ,0
1141,5150001026223,新規,0,2023-03-13,2023-03-13,ＫＴフィットネス・アンド・パートナーズ株式会社,,株式会社,奈良県,奈良市,青野町１丁目１５番６－２０２号,,29,201,6310841,,,,,,,2023-03-13,1,,,,,ケーティーフィットネスアンドパートナーズ,0
1144,5180001155300,新規,0,2023-03-13,2023-03-13,株式会社ＳＥＪ,,株式会社,愛知県,名古屋市瑞穂区,田辺通３丁目２７サンシャイン田辺通３Ｂ,,23,108,4670027,,,,,,,2023-03-13,1,,,,,サイ,0
1145,5180001155309,新規,0,2023-03-13,2023-03-13,株式会社ＭＯＪＡインターナショナル,,株式会社,愛知県,名古屋市中区,栄５丁目２６番３６号ＧＳ栄ＩＩ７階,00129730,23,106,4600008,,,,,,,2023-03-13,1,,,,,モジャインターナショナル,0
1148,5180003024949,新規,0,2023-03-13,2023-03-13,砂楼合同会社,,合同会社,愛知県,名古屋市中区,大須１丁目７番１４号パークＩＭビル２Ｆ,,23,106,4600011,,,,,,,2023-03-13,1,,,,,サロウ,0
1152,5190003004256,新規,0,2023-03-13,2023-03-13,合同会社リバティー,,合同会社,三重県,松阪市,川井町９１７番地５ポレスターブロードシティー川井町弐番館４０４,,24,204,5150818,,,,,,,2023-03-13,1,,,,,リバティー,0
1154,5200001041068,新規,0,2023-03-13,2023-03-13,株式会社ＫＩカンパニー,,株式会社,岐阜県,中津川市,千旦林１５６７番地の９,,21,206,5099131,,,,,,,2023-03-13,1,,,,,ケイアイカンパニー,0
1157,5210001019253,新規,0,2023-03-13,2023-03-13,株式会社タカトリ自動車,,株式会社,福井県,三方上中郡若狭町,下吉田第８号２４番地７,,18,501,9191528,,,,,,,2023-03-13,1,,,,,タカトリジドウシャ,0
1158,5220001025309,新規,0,2023-03-13,2023-03-13,株式会社ＡＧＩ,,株式会社,石川県,金沢市,本江町６番３７号,,17,201,9218012,,,,,,,2023-03-13,1,,,,,エージーアイ,0
1160,5240001061203,新規,0,2023-03-13,2023-03-13,株式会社ＦＲＥＸ,,株式会社,広島県,広島市西区,高須台２丁目４番１６－１０１号,,34,104,7330876,,,,,,,2023-03-13,1,,,,,フレックス,0
1169,5270001008738,新規,0,2023-03-13,2023-03-13,フォレストワン株式会社,,株式会社,鳥取県,鳥取市,雲山１１９番地１３,,31,201,6800862,,,,,,,2023-03-13,1,,,,,フォレストワン,0
1173,5290001100856,新規,0,2023-03-13,2023-03-13,ＮＭＮ株式会社,,株式会社,福岡県,福岡市南区,大橋２丁目４－１リーベスト大橋４０１,,40,134,8150033,,,,,,,2023-03-13,1,,,,,エヌエムエヌ,0
1174,5290001100872,新規,0,2023-03-13,2023-03-13,株式会社オービーテック,,株式会社,福岡県,福岡市博多区,麦野３丁目１番１０号,,40,132,8120882,,,,,,,2023-03-13,1,,,,,オービーテック,0
1175,5290003013651,新規,0,2023-03-13,2023-03-13,合同会社マルタカ,,合同会社,福岡県,那珂川市,片縄北２丁目１２－３－１０１,,40,231,8111203,,,,,,,2023-03-13,1,,,,,マルタカ,0
1179,5310001018303,新規,0,2023-03-13,2023-03-13,株式会社あけぼのファーム,,株式会社,長崎県,東彼杵郡波佐見町,田ノ頭郷１７０７番地,,42,323,8593716,,,,,,,2023-03-13,1,,,,,アケボノファーム,0
1185,5340001025429,新規,0,2023-03-13,2023-03-13,株式会社ジュンフラワー,,株式会社,鹿児島県,鹿児島市,城山町６番２０号千歳ハイツ２０３号,,46,201,8920853,,,,,,,2023-03-13,1,,,,,ジュンフラワー,0
1188,5340005009568,新規,0,2023-03-13,2023-03-13,医療法人駿香会,,その他の設立登記法人,鹿児島県,鹿児島市,坂之上７丁目２番７号,,46,201,8910150,,,,,,,2023-03-13,1,,,,,シュンコウカイ,0
1191,5360001031680,新規,0,2023-03-13,2023-03-13,株式会社Ｅ‐Ｓｗｉｔｃｈ,,株式会社,沖縄県,沖縄市,松本５丁目１７番２４号,,47,211,9042151,,,,,,,2023-03-13,1,,,,,イースイッチ,0
1192,5360001031689,新規,0,2023-03-13,2023-03-13,株式会社フロンティア,,株式会社,沖縄県,石垣市,字桃里２０１番地１０８,,47,207,9070241,,,,,,,2023-03-13,1,,,,,フロンティア,0
1193,5360001031714,新規,0,2023-03-13,2023-03-13,株式会社ＴＡＰＩＣ,,株式会社,沖縄県,沖縄市,比屋根２丁目１５番２号,,47,211,9042173,,,,,,,2023-03-13,1,,,,,タピック,0
1194,5370001049706,新規,0,2023-03-13,2023-03-13,株式会社ロクテス,,株式会社,宮城県,仙台市若林区,大和町３丁目５番１０号大和ビル２０１号,,04,103,9840042,,,,,,,2023-03-13,1,,,,,ロクテス,0
1198,5380001033535,新規,0,2023-03-13,2023-03-13,株式会社ａ‐ｋｕ,,株式会社,福島県,郡山市,清水台２丁目５番５号,,07,203,9638005,,,,,,,2023-03-13,1,,,,,アーク,0
1214,5470001019509,新規,0,2023-03-13,2023-03-13,株式会社みんなのコミュニケーション,,株式会社,香川県,高松市,松縄町４７番地１６,,37,201,7600079,,,,,,,2023-03-13,1,,,,,ミンナノコミュニケーション,0
1220,5500001024810,新規,0,2023-03-13,2023-03-13,株式会社たなか防災社,,株式会社,愛媛県,松山市,安城寺町２６８番地８,,38,201,7918006,,,,,,,2023-03-13,1,,,,,タナカボウサイシャ,0
1221,5700150005145,新規,0,2023-03-13,2015-10-09,日露青年交流センター,,その他,東京都,港区,西新橋１丁目１７番１４号西新橋エクセルアネックス７Ｆ,,13,103,1050003,,,,,,,2015-10-09,1,,,,,ニチロセイネンコウリユウセンター,0
1222,5700150114788,新規,0,2023-03-13,2023-03-13,ＳＡＳＩＮＤＵ　ＭＯＴＯＲＳ,,外国会社等,千葉県,我孫子市,岡発戸新田８３番１,,12,222,2701136,スリランカ民主社会主義共和国，ワリヤポラ，ガレージダーラ,,,,,,2023-03-13,1,,,,,サシンドウモータース,0
1223,5700150114796,新規,0,2023-03-13,2023-03-13,ｓｈｅｎｚｈｅｎｓｈｉ　ｔｅｎｇｍａｄａ　ｋｅｊｉｙｏｕｘｉａｎｇｏｎｇｓｉ,,外国会社等,,,,,,,,４１３Ａ－１　３，Ｂｕｉｌｄｉｎｇ　２，Ｂａｏｌｏｎｇ　Ｆａｃｔｏｒｙ，Ｎｏ．２，Ｂａｏｌｏｎｇ　４ｔｈ　Ｒｏａｄ，Ｂａｏｌｏｎｇ　Ｃｏｍｍｕｎｉｔｙ，Ｂａｏｌｏｎｇ　Ｓｔｒｅｅｔ，Ｌｏｎｇｇａｎｇ　Ｄｉｓｔｒｉｃｔ，Ｓｈｅｎｚｈｅｎ,,,,,,2023-03-13,1,,,,,シェンジェンシートンマーダーコージーヨウシエンゴンスー,0
1233,6010001233591,新規,0,2023-03-13,2023-03-13,テンセグリティファーマ株式会社,,株式会社,東京都,中央区,日本橋室町１丁目１１番１２号日本橋水野ビル７階,,13,102,1030022,,,,,,,2023-03-13,1,,,,,テンセグリティファーマ,0
1242,6010401173000,新規,0,2023-03-13,2023-03-13,株式会社ＥＱ　ＳＰＯＲＴＳ,,株式会社,東京都,港区,赤坂４丁目５番２１号,,13,103,1070052,,,,,,,2023-03-13,1,,,,,イーキュースポーツ,0
1246,6010403029679,新規,0,2023-03-13,2023-03-13,合同会社サードプランナー,,合同会社,東京都,港区,浜松町２丁目２番地１５号浜松町ダイヤビル２Ｆ,,13,103,1050013,,,,,,,2023-03-13,1,,,,,サードプランナー,0
1253,6010801033729,新規,0,2023-03-13,2023-03-13,株式会社ゼロイチ,,株式会社,東京都,大田区,山王２丁目５番６号ＳＡＮＮＯＢＲＩＤＧＥ,,13,111,1430023,,,,,,,2023-03-13,1,,,,,ゼロイチ,0
1256,6010901052678,新規,0,2023-03-13,2023-03-13,株式会社コンスタンティニエ商会,,株式会社,東京都,世田谷区,北沢３丁目２番１１号レガーロ東北沢３階４号室,,13,112,1550031,,,,,,,2023-03-13,1,,,,,コンスタンティニエショウカイ,0
1274,6011701026062,新規,0,2023-03-13,2023-03-13,株式会社つながるわ,,株式会社,東京都,江戸川区,小松川１丁目２番３－７０２号,,13,123,1320034,,,,,,,2023-03-13,1,,,,,ツナガルワ,0
1275,6011701026079,新規,0,2023-03-13,2023-03-13,株式会社Ｗｅｂ　Ｉｎｆｉｎｉｔｙ,,株式会社,東京都,江戸川区,南小岩６丁目３１番１０－１００９号,,13,123,1330056,,,,,,,2023-03-13,1,,,,,ウェブインフィニティ,0
1276,6011703003407,新規,0,2023-03-13,2023-03-13,合同会社テレクラウド,,合同会社,東京都,江戸川区,西小岩１丁目２２番１号小岩東総ハイツ５０３号室,,13,123,1330057,,,,,,,2023-03-13,1,,,,,テレクラウド,0
1280,6011801042050,新規,0,2023-03-13,2023-03-13,ＯＭＣ株式会社,,株式会社,東京都,足立区,栗原３丁目２５番１２号ＫＲコート西新井３階３１６号室,,13,121,1230842,,,,,,,2023-03-13,1,,,,,オーエムシー,0
1281,6011801042059,新規,0,2023-03-13,2023-03-13,株式会社協栄ホールディングス,,株式会社,東京都,足立区,佐野２丁目１４番１１号,,13,121,1210053,,,,,,,2023-03-13,1,,,,,キョウエイホールディングス,0
1282,6011802015963,新規,0,2023-03-13,2023-03-13,有限会社ディズニー・オート,,有限会社,東京都,足立区,舎人２丁目１番１１号,,13,121,1210831,,,,,,,2023-03-13,1,,,,,ディズニーオート,0
1286,6012401040270,新規,0,2023-03-13,2023-03-13,株式会社ＧＦＩサービス,,株式会社,東京都,府中市,若松町２丁目９番地の１９第二若狭１０２,,13,206,1830005,,,,,,,2023-03-13,1,,,,,ジーエフアイサービス,0
1289,6012703002654,新規,0,2023-03-13,2023-03-13,合同会社ＧＣ,,合同会社,東京都,清瀬市,旭が丘６丁目９３８,,13,221,2040002,,,,,,,2023-03-13,1,,,,,ジーシー,0
1292,6012805003179,新規,0,2023-03-13,2023-03-13,一般社団法人Ｋｒｅｉｓ　ｆｕｒ　ｎａｔｕｒｌｉｃｈｅ　Ｌｅｂｅｎｓｈｉｌｆｅ,,その他の設立登記法人,東京都,日野市,万願寺２丁目８番地の２７,,13,212,1910024,,,,,,,2023-03-13,1,,,,,クライスフュアーナーテューリッヒェレーベンスヒルフェ,0
1298,6020001150621,新規,0,2023-03-13,2023-03-13,Ｓｔｙｌｅｓ株式会社,,株式会社,神奈川県,横浜市西区,西平沼町１番１４－５０３号,,14,103,2200024,,,,,,,2023-03-13,1,,,,,スタイルズ,0
1300,6020003023494,新規,0,2023-03-13,2023-03-13,ＩＳＨＷＯＲ合同会社,,合同会社,神奈川県,横浜市南区,通町２丁目２９番地,,14,105,2320056,,,,,,,2023-03-13,1,,,,,イソル,0
1303,6021001078398,新規,0,2023-03-13,2023-03-13,株式会社エヌ・エー・エル,,株式会社,神奈川県,小田原市,高田６６１番地の４,,14,206,2500216,,,,,,,2023-03-13,1,,,,,エヌエーエル,0
1308,6030001152798,新規,0,2023-03-13,2023-03-13,株式会社ＭＳＣ,,株式会社,埼玉県,加須市,川口２丁目９番地１８,,11,210,3470014,,,,,,,2023-03-13,1,,,,,エムエスシー,0
1309,6030001152815,新規,0,2023-03-13,2023-03-13,株式会社ＭＳＭ,,株式会社,埼玉県,越谷市,南越谷４丁目７－７－６０４,,11,222,3430845,,,,,,,2023-03-13,1,,,,,エムエスエム,0
1313,6030003021349,新規,0,2023-03-13,2023-03-13,＿勝合同会社,00129729,合同会社,埼玉県,川口市,西川口１丁目３０番２０号４Ｆ,,11,203,3320021,,,,,,,2023-03-13,1,,,,,センセイ,0
1315,6030005021165,新規,0,2023-03-13,2023-03-13,一般社団法人ｅｓ　ｐｙｔ,,その他の設立登記法人,埼玉県,狭山市,柏原２８７８番地の２４,,11,215,3501335,,,,,,,2023-03-13,1,,,,,エスピュット,0
1321,6040001127460,新規,0,2023-03-13,2023-03-13,株式会社司不動産,,株式会社,千葉県,松戸市,西馬橋幸町１２番地,,12,207,2710047,,,,,,,2023-03-13,1,,,,,ツカサフドウサン,0
1322,6040001127469,新規,0,2023-03-13,2023-03-13,創友株式会社,,株式会社,千葉県,成田市,本三里塚６８番地２（Ｂ室）,,12,211,2860118,,,,,,,2023-03-13,1,,,,,ソウユウ,0
1323,6040001127485,新規,0,2023-03-13,2023-03-13,ＣＲ　ＣＯＲＰＯＲＡＴＩＯＮ株式会社,,株式会社,千葉県,市川市,新井３丁目２９番２号,,12,203,2720144,,,,,,,2023-03-13,1,,,,,シーアールコーポレーション,0
1327,6040003022156,新規,0,2023-03-13,2023-03-13,尹航合同会社,,合同会社,千葉県,印旛郡酒々井町,馬橋６６９－８－２０１,,12,322,2850914,,,,,,,2023-03-13,1,,,,,インコウ,0
1328,6040003022164,新規,0,2023-03-13,2023-03-13,合同会社ＮＡＺＩＫ　ＥＮＴＥＲＰＲＩＳＥＳ,,合同会社,千葉県,野田市,岡田６３９番地２９,,12,208,2700223,,,,,,,2023-03-13,1,,,,,ナジクエンタープライセス,0
1329,6040003022180,新規,0,2023-03-13,2023-03-13,合同会社エルエイチ・ワンライフ,,合同会社,千葉県,いすみ市,荻原４２６９番１号,,12,238,2980131,,,,,,,2023-03-13,1,,,,,エルエイチワンライフ,0
1330,6050001052526,新規,0,2023-03-13,2023-03-13,Ｔｗｏ　Ｂｒｏｔｈｅｒｓ　Ｔｒａｄｉｎｇ株式会社,,株式会社,茨城県,古河市,大字葛生１４２３番６,,08,204,3060000,,,,,,,2023-03-13,1,,,,,トゥーブラザーズトレーディング,0
1335,6060001035785,新規,0,2023-03-13,2023-03-13,株式会社ＹＭＲ企画,,株式会社,栃木県,足利市,家富町２２８６番地２,,09,202,3260803,,,,,,,2023-03-13,1,,,,,ワイエムアールキカク,0
1336,6060001035793,新規,0,2023-03-13,2023-03-13,株式会社Ｓｔｒｅａｍ,,株式会社,栃木県,宇都宮市,鶴田町２０１６番地１,,09,201,3200851,,,,,,,2023-03-13,1,,,,,ストリーム,0
1338,6070001040215,新規,0,2023-03-13,2023-03-13,トラストホールディングス株式会社,,株式会社,群馬県,太田市,東本町５３番５３号,,10,205,3730026,,,,,,,2023-03-13,1,,,,,トラストホールディングス,0
1339,6070001040223,新規,0,2023-03-13,2023-03-13,株式会社黒子,,株式会社,群馬県,藤岡市,森５６０番地４,,10,209,3750004,,,,,,,2023-03-13,1,,,,,クロコ,0
1341,6070003004861,新規,0,2023-03-13,2023-03-13,ＳＨＩＶ合同会社,,合同会社,群馬県,邑楽郡大泉町,朝日２丁目２２番２７号アネックスニュークボタ１０６号,,10,524,3700514,,,,,,,2023-03-13,1,,,,,シヴァ,0
1343,6080005007523,新規,0,2023-03-13,2023-03-13,社会福祉法人こころ,,その他の設立登記法人,静岡県,島田市,島５８１番地の１４,,22,209,4280007,,,,,,,2023-03-13,1,,,,,ココロ,0
1344,6090003002277,新規,0,2023-03-13,2023-03-13,合同会社ＳＥＳＳＩＯＮ,,合同会社,山梨県,甲州市,塩山牛奥３７４７,,19,213,4040034,,,,,,,2023-03-13,1,,,,,,0
1352,6120001253141,新規,0,2023-03-13,2023-03-13,株式会社Ｊ．ＨＯＲＳＥ,,株式会社,大阪府,大阪市中央区,谷町５丁目７番３号,,27,128,5400012,,,,,,,2023-03-13,1,,,,,ジェイホース,0
1353,6120001253158,新規,0,2023-03-13,2023-03-13,株式会社スフィリック,,株式会社,大阪府,枚方市,楠葉花園町５番１－１０２号,,27,210,5731121,,,,,,,2023-03-13,1,,,,,スフィリック,0
1354,6120001253166,新規,0,2023-03-13,2023-03-13,株式会社インクルシア,,株式会社,大阪府,大阪市中央区,高麗橋３丁目３番１１号,,27,128,5410043,,,,,,,2023-03-13,1,,,,,インクルシア,0
1356,6120003023600,新規,0,2023-03-13,2023-03-13,天合合同会社,,合同会社,大阪府,大阪市生野区,中川４丁目２－４ホワイトビル２０３室,,27,116,5440005,,,,,,,2023-03-13,1,,,,,テンアイ,0
1357,6120101067136,新規,0,2023-03-13,2023-03-13,株式会社ＴＭＸ,,株式会社,大阪府,堺市中区,福田３２５番地３,,27,142,5998241,,,,,,,2023-03-13,1,,,,,ティエムエックス,0
1361,6122003002534,新規,0,2023-03-13,2023-03-13,合同会社みつばち,,合同会社,大阪府,大東市,谷川２丁目７－６６,,27,218,5740074,,,,,,,2023-03-13,1,,,,,ミツバチ,0
1364,6130001073852,新規,0,2023-03-13,2023-03-13,株式会社シンテクノス,,株式会社,京都府,京都市下京区,仏光寺通柳馬場西入東前町４０８番地の１,,26,106,6008074,,,,,,,2023-03-13,1,,,,,シンテクノス,0
1374,6140001129414,新規,0,2023-03-13,2023-03-13,株式会社ＰＡＣＥＳ,,株式会社,兵庫県,神戸市中央区,浪花町５６起業プラザひょうご内,,28,110,6500035,,,,,,,2023-03-13,1,,,,,ペイシス,0
1375,6140001129422,新規,0,2023-03-13,2023-03-13,株式会社ＫＳＦ,,株式会社,兵庫県,尼崎市,次屋１丁目２番１６号,,28,202,6610965,,,,,,,2023-03-13,1,,,,,ケーエスエフ,0
1386,6180001155357,新規,0,2023-03-13,2023-03-13,ＹＳＯ株式会社,,株式会社,愛知県,名古屋市緑区,桃山４丁目３０１番地,,23,114,4580002,,,,,,,2023-03-13,1,,,,,ワイエスオー,0
1387,6180003024956,新規,0,2023-03-13,2023-03-13,合同会社ぬくもり,,合同会社,愛知県,一宮市,玉野字上新田３２番地１８,,23,203,4940013,,,,,,,2023-03-13,1,,,,,ヌクモリ,0
1399,6220001025308,新規,0,2023-03-13,2023-03-13,ツギエ株式会社,,株式会社,石川県,金沢市,直江町イ４５番地３,,17,201,9208216,,,,,,,2023-03-13,1,,,,,ツギエ,0
1417,6290001100863,新規,0,2023-03-13,2023-03-13,株式会社しお‐コネクト,,株式会社,福岡県,福岡市城南区,別府４丁目１６番１－４１０号,,40,136,8140104,,,,,,,2023-03-13,1,,,,,シオコネクト,0
1428,6350003004321,新規,0,2023-03-13,2023-03-13,ｋｏｋｏｒｏ　ｍｏｕｎｔａｉｎ合同会社,,合同会社,宮崎県,宮崎市,新別府町前浜１４０１番地２２０,,45,201,8800834,,,,,,,2023-03-13,1,,,,,ココロマウンテン,0
1432,6360001031696,新規,0,2023-03-13,2023-03-13,株式会社ＮＩＵｔｒｅｅ,,株式会社,沖縄県,中頭郡北谷町,字美浜９番地２１デポアイランドシーサイド１Ｆ,,47,326,9040115,,,,,,,2023-03-13,1,,,,,ニウツリー,0
1433,6360001031705,新規,0,2023-03-13,2023-03-13,株式会社Ｌｅｘｙ・ｓｔｙｌｅ,,株式会社,沖縄県,うるま市,勝連南風原３１４３番地９８,,47,213,9042311,,,,,,,2023-03-13,1,,,,,レクシースタイル,0
1436,6370003006019,新規,0,2023-03-13,2023-03-13,Ｗｏｎｄｅｒ　Ｗｏｒｌｄ合同会社,,合同会社,宮城県,仙台市宮城野区,鶴ケ谷１丁目２９番地の１,,04,102,9830824,,,,,,,2023-03-13,1,,,,,ワンダーワールド,0
1446,6430003014816,新規,0,2023-03-13,2023-03-13,合同会社ウィッチーズ,,合同会社,北海道,札幌市豊平区,平岸二条１丁目７番１７－１５０１号,,01,105,0620932,,,,,,,2023-03-13,1,,,,,ウィッチーズ,0
1447,6430005014649,新規,0,2023-03-13,2023-03-13,医療法人ｌｅａｄ,,その他の設立登記法人,北海道,札幌市中央区,南二十二条西７丁目１番２７号２Ｆ,,01,101,0640922,,,,,,,2023-03-13,1,,,,,リード,0
1451,6450003002307,新規,0,2023-03-13,2023-03-13,合同会社ＷＩＬＣＯＣＫ,,合同会社,北海道,上川郡東川町,西町１丁目１番１３号,,01,458,0711425,,,,,,,2023-03-13,1,,,,,ウィルコック,0
1452,6470001019508,新規,0,2023-03-13,2023-03-13,小豆島電力株式会社,,株式会社,香川県,小豆郡土庄町,淵崎甲２１４６番地１,,37,322,7614121,,,,,,,2023-03-13,1,,,,,ショウドシマデンリョク,0
1454,6480001012032,新規,0,2023-03-13,2023-03-13,株式会社川口工務店,,株式会社,徳島県,板野郡藍住町,勝瑞字成長６番地２６,,36,403,7711272,,,,,,,2023-03-13,1,,,,,カワグチコウムテン,0
1458,6700150114795,新規,0,2023-03-13,2023-03-13,ＤＩＭＴＯＮ　ＣＯ．，ＬＴＤ．,,外国会社等,,,,,,,,２４２５２．１Ｆ．，Ｎｏ．１３７，Ｘｉｎｇｆｕ　Ｅ．Ｒｄ．，Ｘｉｎｚｈｕａｎｇ　Ｄｉｓｔ．，Ｎｅｗ　Ｔａｉｐｅｉ　Ｃｉｔｙ　２４２，Ｔａｉｗａｎ　（Ｒ．О．Ｃ．）,,,,,,2023-03-13,1,,,,,ディントンコージーグーフェンヨウシエンゴンスー,0
1472,7010003040003,新規,0,2023-03-13,2023-03-13,合同会社Ａ．Ｌ．Ｅ．,,合同会社,東京都,中央区,銀座１丁目１２番４号Ｎ＆ＥＢＬＤ．６Ｆ,,13,102,1040061,,,,,,,2023-03-13,1,,,,,エーエルイー,0
1473,7010005036313,新規,0,2023-03-13,2023-03-13,一般社団法人日本香港民主連盟,,その他の設立登記法人,東京都,千代田区,神田三崎町３丁目５－９天翔水道橋ビル４０９号室,,13,101,1010061,,,,,,,2023-03-13,1,,,,,ニホンホンコンミンシュレンメイ,0
1474,7010005036354,新規,0,2023-03-13,2023-03-13,一般社団法人新規成分探索研究機構,,その他の設立登記法人,東京都,千代田区,内神田３丁目４番６号,,13,101,1010047,,,,,,,2023-03-13,1,,,,,シンキセイブンタンサクケンキュウキコウ,0
1481,7010401172835,新規,0,2023-03-13,2023-03-13,海華シッピングジャパン株式会社,,株式会社,東京都,港区,西新橋１丁目１５番４号銀泉西新橋ビル３階,,13,103,1050003,,,,,,,2023-03-13,1,,,,,カイカシッピングジャパン,0
1482,7010401173016,新規,0,2023-03-13,2023-03-13,株式会社カメリアコンサルティング,,株式会社,東京都,港区,浜松町２丁目２番１５号浜松町ダイヤビル２Ｆ,,13,103,1050013,,,,,,,2023-03-13,1,,,,,カメリアコンサルティング,0
1483,7010401173049,新規,0,2023-03-13,2023-03-13,株式会社Ｍｅｔａｖｅｒｓｅ　Ｃｏｎｓｕｌｔｉｎｇ,,株式会社,東京都,港区,新橋６丁目４－３－５０２,,13,103,1050004,,,,,,,2023-03-13,1,,,,,メタバースコンサルティング,0
1490,7010403029694,新規,0,2023-03-13,2023-03-13,合同会社Ｂｏｎｄ,,合同会社,東京都,港区,赤坂７丁目１１番１２－７０９号,,13,103,1070052,,,,,,,2023-03-13,1,,,,,ボンド,0
1492,7010405021897,新規,0,2023-03-13,2023-03-13,一般社団法人陽樹会,,その他の設立登記法人,東京都,港区,南青山３丁目１３番９号小林ビル６階,,13,103,1070062,,,,,,,2023-03-13,1,,,,,ヨウジュカイ,0
1494,7010601062753,新規,0,2023-03-13,2023-03-13,株式会社ナカイエ建設,,株式会社,東京都,江東区,塩浜２丁目８番２９号６０７号室,,13,108,1350043,,,,,,,2023-03-13,1,,,,,ナカイエケンセツ,0
1498,7010901052693,新規,0,2023-03-13,2023-03-13,株式会社ＣＷ＆ＫＩＲＩＮＴＡＩＬＯＲＳ,,株式会社,東京都,世田谷区,奥沢７丁目８番１０号１Ｆ－Ｂ,,13,112,1580083,,,,,,,2023-03-13,1,,,,,,0
1506,7011005009977,新規,0,2023-03-13,2023-03-13,医療法人社団ＹＮＤ,,その他の設立登記法人,東京都,渋谷区,富ヶ谷１丁目９番１５号下岡ビル１階,,13,113,1510063,,,,,,,2023-03-13,1,,,,,ワイエヌディー,0
1509,7011103012783,新規,0,2023-03-13,2023-03-13,合同会社ＣＯＬＯＲＳ,,合同会社,東京都,新宿区,西新宿３丁目３番１３号西新宿水間ビル６階,,13,104,1600023,,,,,,,2023-03-13,1,,,,,カラーズ,0
1510,7011103012791,新規,0,2023-03-13,2023-03-13,ル・ミックス合同会社,,合同会社,東京都,新宿区,西新宿３丁目３番１３号西新宿水間ビル６階,,13,104,1600023,,,,,,,2023-03-13,1,,,,,ルミックス,0
1511,7011403003937,新規,0,2023-03-13,2023-03-13,ＳＴＡＲＴＬＩＮＥ合同会社,,合同会社,東京都,板橋区,前野町５丁目６番３号,,13,119,1740063,,,,,,,2023-03-13,1,,,,,スタートライン,0
1513,7011503005503,新規,0,2023-03-13,2023-03-13,合同会社雅や,,合同会社,東京都,北区,西ケ原３丁目２０番１７号,,13,117,1140024,,,,,,,2023-03-13,1,,,,,ミヤビヤ,0
1514,7011503005511,新規,0,2023-03-13,2023-03-13,合同会社ＬＴＧ,,合同会社,東京都,荒川区,東日暮里３丁目４１番７号,,13,118,1160014,,,,,,,2023-03-13,1,,,,,エルティジー,0
1515,7011601026649,新規,0,2023-03-13,2023-03-13,京一原絵ギャラリー株式会社,,株式会社,東京都,練馬区,小竹町２丁目２３番６号,,13,120,1760004,,,,,,,2023-03-13,1,,,,,キョウイチゲンエギャラリー,0
1520,7013101009134,新規,0,2023-03-13,2023-03-13,株式会社アール・エム・エー,,株式会社,東京都,羽村市,羽中１丁目９番３１号,,13,227,2050015,,,,,,,2023-03-13,1,,,,,アールエムエー,0
1522,7013401001162,新規,0,2023-03-13,2023-03-13,三和興業株式会社,,株式会社,東京都,多摩市,東寺方１丁目８番地７,,13,224,2060003,,,,,,,2023-03-13,1,,,,,サンワコウギョウ,0
1526,7020003023485,新規,0,2023-03-13,2023-03-13,ＨＲＳ合同会社,,合同会社,神奈川県,川崎市川崎区,京町２丁目２４－２－１０３,,14,131,2100848,,,,,,,2023-03-13,1,,,,,エイチアールエス,0
1527,7020005015869,新規,0,2023-03-13,2023-03-13,一般社団法人ｂｕｅｎ　ｃａｍｂｉｏ　ｙｏｋｏｈａｍａ,,その他の設立登記法人,神奈川県,横浜市緑区,長津田４丁目１０－３１－４３０号,,14,113,2260027,,,,,,,2023-03-13,1,,,,,ブエンカンビオヨコハマ,0
1528,7021001078397,新規,0,2023-03-13,2023-03-13,株式会社アールアンドエーエス,,株式会社,神奈川県,大和市,下鶴間２丁目１２番３３－１４０８号,,14,213,2420001,,,,,,,2023-03-13,1,,,,,アールアンドエーエス,0
1538,7030001152764,新規,0,2023-03-13,2023-03-13,株式会社ライオン,,株式会社,埼玉県,川口市,戸塚東３丁目１９番１９－１０２号ヒルサイド東川口,,11,203,3330802,,,,,,,2023-03-13,1,,,,,ライオン,0
1539,7030001152814,新規,0,2023-03-13,2023-03-13,株式会社Ｔｏｐ　Ａｔｈｌｅｔｅ　Ｔｅａｍ,,株式会社,埼玉県,戸田市,大字新曽８４９番地の２リュエル戸田１０３号室,,11,224,3350021,,,,,,,2023-03-13,1,,,,,トップアスリートチーム,0
1543,7030003021174,新規,0,2023-03-13,2023-03-13,ＨＳ　Ｇｌｏｂａｌ合同会社,,合同会社,埼玉県,富士見市,上沢１丁目２４番３５号ベルコスモス２０２,,11,235,3540034,,,,,,,2023-03-13,1,,,,,エイチエスグローバル,0
1545,7040001127427,新規,0,2023-03-13,2023-03-13,株式会社バイオコール千葉南部,,株式会社,千葉県,千葉市中央区,弁天１丁目１５番３号,,12,101,2600045,,,,,,,2023-03-13,1,,,,,バイオコールチバナンブ,0
1546,7040001127468,新規,0,2023-03-13,2023-03-13,株式会社Ｌｏｎｇｉｔｕｄｅ,,株式会社,千葉県,船橋市,宮本９丁目１１番１号,,12,204,2730003,,,,,,,2023-03-13,1,,,,,ロンギチュード,0
1553,7050001052517,新規,0,2023-03-13,2023-03-13,株式会社ＬＥＯＮ　ＧＲＯＵＰ,,株式会社,茨城県,神栖市,平泉東２丁目５番地１４,,08,232,3140145,,,,,,,2023-03-13,1,,,,,レモングループ,0
1563,7060001035784,新規,0,2023-03-13,2023-03-13,スタート不動産株式会社,,株式会社,栃木県,宇都宮市,西一の沢町４番１４号,,09,201,3200046,,,,,,,2023-03-13,1,,,,,スタートフドウサン,0
1568,7090001018019,新規,0,2023-03-13,2023-03-13,株式会社Ｓｅｅｄｌｉｎｇ　ｓｔｙｌｅ,,株式会社,山梨県,甲斐市,下今井９６１番地１,,19,210,4000105,,,,,,,2023-03-13,1,,,,,シードリングスタイル,0
1569,7090003002276,新規,0,2023-03-13,2023-03-13,合同会社甲州住宅,,合同会社,山梨県,甲府市,千塚５丁目１５－８メイユール宮塚２０２,,19,201,4000074,,,,,,,2023-03-13,1,,,,,コウシュウジュウタク,0
1572,7100005012981,新規,0,2023-03-13,2023-03-13,医療法人ＫＯＭＡＴＳＵ,,その他の設立登記法人,長野県,北佐久郡御代田町,大字御代田２３３３番地２,,20,323,3890206,,,,,,,2023-03-13,1,,,,,コマツ,0
1588,7120001253108,新規,0,2023-03-13,2023-03-13,Ｉｎｖｅｓｔ　Ｊａｐａｎ国際株式会社,,株式会社,大阪府,大阪市中央区,船場中央２丁目１番４号船場センタービル４号館地下一階Ｂ１０８ＲＯＹＡＬＯＦＦＩＣＥ内,,27,128,5410055,,,,,,,2023-03-13,1,,,,,インベストジャパンコクサイ,0
1589,7120001253132,新規,0,2023-03-13,2023-03-13,株式会社大駕,,株式会社,大阪府,門真市,野里町１－３２川島第２２ビル３０１号,,27,223,5710079,,,,,,,2023-03-13,1,,,,,タイガ,0
1590,7120001253140,新規,0,2023-03-13,2023-03-13,株式会社ＳＨＯＷＭＥ,,株式会社,大阪府,大阪市中央区,南船場１丁目１３－１５長堀三栄プラザ４０１号,,27,128,5420081,,,,,,,2023-03-13,1,,,,,ショウミー,0
1596,7120101067135,新規,0,2023-03-13,2023-03-13,株式会社３ＳＭＩＬＥ,,株式会社,大阪府,堺市西区,鳳中町３丁６６番地３,,27,144,5938327,,,,,,,2023-03-13,1,,,,,サンスマイル,0
1602,7120901047253,新規,0,2023-03-13,2023-03-13,オーエヌ美建株式会社,,株式会社,大阪府,吹田市,元町１０番７号,,27,205,5640031,,,,,,,2023-03-13,1,,,,,オーエヌビケン,0
1607,7130001073851,新規,0,2023-03-13,2023-03-13,株式会社木犀舎,,株式会社,京都府,京都市左京区,下鴨東半木町７１番地１３,,26,103,6060824,,,,,,,2023-03-13,1,,,,,モクセイシャ,0
1622,7180001155323,新規,0,2023-03-13,2023-03-13,株式会社ｗａｆｔ,,株式会社,愛知県,半田市,白山町３丁目５５番地,,23,205,4750912,,,,,,,2023-03-13,1,,,,,ワフト,0
1624,7180003024963,新規,0,2023-03-13,2023-03-13,合同会社萬創社,,合同会社,愛知県,名古屋市天白区,中平５丁目２０１２番地の２,,23,116,4680014,,,,,,,2023-03-13,1,,,,,バンソウシャ,0
1631,7220001025307,新規,0,2023-03-13,2023-03-13,株式会社チョウインターナショナル,,株式会社,石川県,金沢市,大豆田本町１３番４‐２Ｆ,,17,201,9200047,,,,,,,2023-03-13,1,,,,,チョウインターナショナル,0
1649,7290001100879,新規,0,2023-03-13,2023-03-13,ウチシルベ株式会社,,株式会社,福岡県,福岡市博多区,中呉服町１番２２号吉田善平商店ビル５０３号,,40,132,8120035,,,,,,,2023-03-13,1,,,,,ウチシルベ,0
1655,7290801029368,新規,0,2023-03-13,2023-03-13,株式会社アクト西日本,,株式会社,福岡県,直方市,大字植木３０７０番地１,,40,204,8220031,,,,,,,2023-03-13,1,,,,,アクトニシニホン,0
1658,7330001030675,新規,0,2023-03-13,2023-03-13,株式会社きくクスリ,,株式会社,熊本県,熊本市西区,戸坂町７番１９号,,43,103,8600045,,,,,,,2023-03-13,1,,,,,キククスリ,0
1659,7330005010632,新規,0,2023-03-13,2023-03-13,一般社団法人西日本商品リサイクル市場,,その他の設立登記法人,熊本県,阿蘇郡西原村,大字布田６７９番地２８,,43,432,8612403,,,,,,,2023-03-13,1,,,,,ニシニホンショウヒンリサイクルイチバ,0
1666,7360001031695,新規,0,2023-03-13,2023-03-13,ティ・エスガス設備株式会社,,株式会社,沖縄県,沖縄市,室川２丁目２３番１８号１Ｆ,,47,211,9040013,,,,,,,2023-03-13,1,,,,,ティエスガスセツビ,0
1667,7360003012784,新規,0,2023-03-13,2023-03-13,合同会社ＰＡＩＫＡＴＡ,,合同会社,沖縄県,宮古島市,平良字松原５４５番地２,,47,214,9060014,,,,,,,2023-03-13,1,,,,,パイカタ,0
1668,7360003012792,新規,0,2023-03-13,2023-03-13,合同会社ＦＵＫＵ,,合同会社,沖縄県,沖縄市,桃原４丁目２番３９号メゾン洋１Ｆ,,47,211,9042164,,,,,,,2023-03-13,1,,,,,フク,0
1669,7360005006801,新規,0,2023-03-13,2023-03-13,一般社団法人カイカ童,,その他の設立登記法人,沖縄県,那覇市,字宇栄原１０１７番地１（平良アパート）,,47,201,9010153,,,,,,,2023-03-13,1,,,,,カイカドウ,0
1675,7380001033541,新規,0,2023-03-13,2023-03-13,株式会社双葉エナジー,,株式会社,福島県,双葉郡富岡町,小浜１４５番２,,07,543,9791111,,,,,,,2023-03-13,1,,,,,フタバエナジー,0
1683,7430003014815,新規,0,2023-03-13,2023-03-13,藤美防災合同会社,,合同会社,北海道,札幌市東区,東苗穂六条２丁目７番２７号,,01,103,0070806,,,,,,,2023-03-13,1,,,,,フジミボウサイ,0
1684,7430003014823,新規,0,2023-03-13,2023-03-13,合同会社ＬＩＢ,,合同会社,北海道,札幌市北区,屯田九条３丁目２番１－１００５号,,01,102,0020859,,,,,,,2023-03-13,1,,,,,リブ,0
1686,7430005014648,新規,0,2023-03-13,2023-03-13,医療法人ＡＫＣ,,その他の設立登記法人,北海道,札幌市手稲区,前田四条５丁目１番１８号,,01,109,0060814,,,,,,,2023-03-13,1,,,,,エーケーシー,0
1690,7700150114778,新規,0,2023-03-13,2023-03-13,小松市南末広土地区画整理組合,,その他,石川県,小松市,向本折町ネ９７番地,,17,203,9230961,,,,,,,2023-03-13,1,,,,,コマツシミナミスエヒロトチクカクセイリクミアイ,0
1713,8010403029702,新規,0,2023-03-13,2023-03-13,都市と言葉合同会社,,合同会社,東京都,港区,芝浦４丁目１９番１－３６０３号,,13,103,1080023,,,,,,,2023-03-13,1,,,,,トシトコトバ,0
1714,8010403029719,新規,0,2023-03-13,2023-03-13,合同会社ノースブルー,,合同会社,東京都,港区,北青山２丁目１２番４２－８０２号,,13,103,1070061,,,,,,,2023-03-13,1,,,,,ノースブルー,0
1721,8010801033768,新規,0,2023-03-13,2023-03-13,株式会社ラップアップ,,株式会社,東京都,大田区,山王２丁目１６番５号,,13,111,1430023,,,,,,,2023-03-13,1,,,,,ラップアップ,0
1735,8011005009976,新規,0,2023-03-13,2023-03-13,一般社団法人建築情報学会,,その他の設立登記法人,東京都,渋谷区,円山町５番５号Ｎａｖｉ渋谷Ｖ３階,00129731,13,113,1500044,,,,,,,2023-03-13,1,,,,,ケンチクジョウホウガッカイ,0
1737,8011101102073,新規,0,2023-03-13,2023-03-13,株式会社三虎データサイエンス,,株式会社,東京都,新宿区,若葉１丁目８－２フォーレストヒル３０２,,13,104,1600011,,,,,,,2023-03-13,1,,,,,ミトラデータサイエンス,0
1739,8011401024934,新規,0,2023-03-13,2023-03-13,株式会社ベストライジング,,株式会社,東京都,板橋区,坂下２丁目３２番１７－２０１号リードプラン蓮根第２ローヤルコーポ,,13,119,1740043,,,,,,,2023-03-13,1,,,,,ベストライジング,0
1744,8011503005510,新規,0,2023-03-13,2023-03-13,食の文合同会社,,合同会社,東京都,荒川区,町屋３丁目８番１７号Ｙビル４０１,,13,118,1160001,,,,,,,2023-03-13,1,,,,,ショクノブン,0
1745,8011505002539,新規,0,2023-03-13,2023-03-13,医療法人社団ミレナ会,,その他の設立登記法人,東京都,荒川区,西日暮里２丁目２６番１２号ガーネットビル２階,,13,118,1160013,,,,,,,2023-03-13,1,,,,,ミレナカイ,0
1749,8011701026069,新規,0,2023-03-13,2023-03-13,Ｎ・Ｃｏｍｐａｎｙ株式会社,,株式会社,東京都,江戸川区,東葛西３丁目８－２２イレブン２０２,,13,123,1340084,,,,,,,2023-03-13,1,,,,,エヌカンパニー,0
1750,8011701026077,新規,0,2023-03-13,2023-03-13,株式会社英,,株式会社,東京都,江戸川区,篠崎町３丁目２０番１９号,,13,123,1330061,,,,,,,2023-03-13,1,,,,,ヒデ,0
1751,8011801042057,新規,0,2023-03-13,2023-03-13,Ｈ＆Ｔ株式会社,,株式会社,東京都,葛飾区,新小岩２丁目１４番１４号,,13,122,1240024,,,,,,,2023-03-13,1,,,,,エイチアンドティー,0
1753,8012403005880,新規,0,2023-03-13,2023-03-13,合同会社はんだ,,合同会社,東京都,小金井市,本町６丁目２番２０－６０６号プラウドタワー武蔵小金井クロス,,13,210,1840004,,,,,,,2023-03-13,1,,,,,ハンダ,0
1754,8013101009133,新規,0,2023-03-13,2023-03-13,絆造園株式会社,,株式会社,東京都,青梅市,藤橋２丁目１６１－１,,13,205,1980022,,,,,,,2023-03-13,1,,,,,キズナゾウエン,0
1761,8020003023501,新規,0,2023-03-13,2023-03-13,ベルフルール合同会社,,合同会社,神奈川県,横浜市西区,北幸２丁目１０番地２８むつみビル３Ｆ,,14,103,2200004,,,,,,,2023-03-13,1,,,,,ベルフルール,0
1763,8020005015868,新規,0,2023-03-13,2023-03-13,特定非営利活動法人想来,,その他の設立登記法人,神奈川県,横浜市都筑区,大棚町３１４番地,,14,118,2240027,,,,,,,2023-03-13,1,,,,,ソラ,0
1768,8021001078413,新規,0,2023-03-13,2023-03-13,ｆｏｒｔｕｎｅ株式会社,,株式会社,神奈川県,海老名市,泉２丁目１４番１－２０３号,,14,215,2430437,,,,,,,2023-03-13,1,,,,,フォーチュン,0
1772,8021003012865,新規,0,2023-03-13,2023-03-13,ＬＵＣＩＳ合同会社,,合同会社,神奈川県,平塚市,宮の前１番３３号４階,,14,203,2540035,,,,,,,2023-03-13,1,,,,,ルーキス,0
1782,8030003021347,新規,0,2023-03-13,2023-03-13,Ｄｉｇｉｔａｌ　Ｔｅｃｈ合同会社,,合同会社,埼玉県,川口市,西川口１丁目２３番３－２０２号,,11,203,3320021,,,,,,,2023-03-13,1,,,,,デジタルテック,0
1783,8030003021355,新規,0,2023-03-13,2023-03-13,合同会社シフトガーデニングアンドグリーン,,合同会社,埼玉県,鴻巣市,寺谷３０７番地,,11,217,3650071,,,,,,,2023-03-13,1,,,,,シフトガーデニングアンドグリーン,0
1784,8030005021163,新規,0,2023-03-13,2023-03-13,一般社団法人ライフ・サポート,,その他の設立登記法人,埼玉県,入間市,扇台３丁目５番１号,,11,225,3580023,,,,,,,2023-03-13,1,,,,,ライフサポート,0
1791,8040001127426,新規,0,2023-03-13,2023-03-13,株式会社家まい,,株式会社,千葉県,富津市,大堀１丁目８番地１４,,12,226,2930001,,,,,,,2023-03-13,1,,,,,イマイ,0
1792,8040001127467,新規,0,2023-03-13,2023-03-13,ルナテック株式会社,,株式会社,千葉県,大網白里市,柳橋８４４番地２０,,12,239,2993263,,,,,,,2023-03-13,1,,,,,ルナテック,0
1796,8040003022162,新規,0,2023-03-13,2023-03-13,合同会社ＣＨＡＵＨＡＮ　ＴＲＡＤＩＮＧ,,合同会社,千葉県,野田市,船形４７５２番地の１０,,12,208,2700233,,,,,,,2023-03-13,1,,,,,チャウハントレーディング,0
1798,8050001052516,新規,0,2023-03-13,2023-03-13,株式会社ＪＩＧ,,株式会社,茨城県,神栖市,賀２１０８番地２３４,,08,232,3140134,,,,,,,2023-03-13,1,,,,,ジェイアイジー,0
1800,8050003007294,新規,0,2023-03-13,2023-03-13,合同会社オース,,合同会社,茨城県,つくば市,吾妻１丁目１０番地１,,08,220,3050031,,,,,,,2023-03-13,1,,,,,オース,0
1804,8060001035783,新規,0,2023-03-13,2023-03-13,株式会社Ａスマイル,,株式会社,栃木県,宇都宮市,ゆいの杜５丁目１１番２１号,,09,201,3213226,,,,,,,2023-03-13,1,,,,,エースマイル,0
1806,8060005010056,新規,0,2023-03-13,2023-03-13,一般社団法人日本ドッグサップ協会,,その他の設立登記法人,栃木県,那須塩原市,佐野１５２番地３,,09,213,3293142,,,,,,,2023-03-13,1,,,,,ニホンドッグサップキョウカイ,0
1811,8080001025510,新規,0,2023-03-13,2023-03-13,株式会社いちえ不動産,,株式会社,静岡県,焼津市,三ケ名２６９番地ライフポジションＪ１０２号室,,22,212,4250071,,,,,,,2023-03-13,1,,,,,イチエフドウサン,0
1812,8080101023851,新規,0,2023-03-13,2023-03-13,株式会社Ａｌｐｉｎｅ,,株式会社,静岡県,富士宮市,大宮町６番２２号,,22,207,4180066,,,,,,,2023-03-13,1,,,,,アルパイン,0
1816,8110001037353,新規,0,2023-03-13,2023-03-13,現達新潟株式会社,,株式会社,新潟県,村上市,瀬波温泉２丁目５番２６号,,15,212,9580037,,,,,,,2023-03-13,1,,,,,ゲンタツニイガタ,0
1828,8120001253115,新規,0,2023-03-13,2023-03-13,デジタルサポート株式会社,,株式会社,大阪府,大阪市北区,梅田１丁目１１番４号,,27,127,5300001,,,,,,,2023-03-13,1,,,,,デジタルサポート,0
1829,8120001253164,新規,0,2023-03-13,2023-03-13,バイユーテック株式会社,,株式会社,大阪府,大阪市北区,中之島３丁目１番８号,,27,127,5300005,,,,,,,2023-03-13,1,,,,,バイユーテック,0
1830,8120001253214,新規,0,2023-03-13,2023-03-13,株式会社Ｋ．ＯＦＦＩＣＥ,,株式会社,大阪府,大阪市西区,江戸堀３丁目２番２７－１１０２号,,27,106,5500002,,,,,,,2023-03-13,1,,,,,ケイオフィス,0
1833,8120003023581,新規,0,2023-03-13,2023-03-13,ｓ．ｐｒｏｊｅｃｔ合同会社,,合同会社,大阪府,大阪市中央区,常盤町２丁目２番１０－３０５号,,27,128,5400028,,,,,,,2023-03-13,1,,,,,エスプロジェクト,0
1834,8120003023598,新規,0,2023-03-13,2023-03-13,合同会社ゴースト,,合同会社,大阪府,大阪市都島区,大東町３丁目３－１－６０１,,27,102,5340002,,,,,,,2023-03-13,1,,,,,ゴースト,0
1837,8120103005117,新規,0,2023-03-13,2023-03-13,合同会社ＮＳＨＡＣＫ,,合同会社,大阪府,和泉市,青葉台１丁目７番１号,,27,219,5941153,,,,,,,2023-03-13,1,,,,,エヌエスハック,0
1841,8122001036771,新規,0,2023-03-13,2023-03-13,株式会社大商事,,株式会社,大阪府,八尾市,太田新町７丁目６８番地,,27,212,5810039,,,,,,,2023-03-13,1,,,,,ダイショウジ,0
1850,8140001129239,新規,0,2023-03-13,2023-03-13,株式会社ｐｌｅｎｉｃｏ,,株式会社,兵庫県,川西市,萩原２丁目１２番１６－３号－１０５,,28,217,6660004,,,,,,,2023-03-13,1,,,,,プレニコ,0
1851,8140001129420,新規,0,2023-03-13,2023-03-13,株式会社ＮＴＥＣホールディングス,,株式会社,兵庫県,姫路市,広畑区正門通４丁目１０番地６,,28,201,6711116,,,,,,,2023-03-13,1,,,,,エヌテックホールディングス,0
1856,8150001026229,新規,0,2023-03-13,2023-03-13,株式会社ＡＮＹＱＯＴＴ,,株式会社,奈良県,奈良市,富雄北２丁目９番３７－５０２号,,29,201,6310076,,,,,,,2023-03-13,1,,,,,エニーコット,0
1862,8180001155322,新規,0,2023-03-13,2023-03-13,株式会社Ｔ．Ｎ．Ｂ建築,,株式会社,愛知県,春日井市,田楽町字池ノ上８１３番地,,23,206,4860808,,,,,,,2023-03-13,1,,,,,ティーエヌビーケンチク,0
1865,8190003004261,新規,0,2023-03-13,2023-03-13,Ｓａｓａｎｋａ　ｉｎｔｅｒｎａｔｉｏｎａｌ合同会社,,合同会社,三重県,多気郡大台町,栃原１６８１－４,,24,443,5192424,,,,,,,2023-03-13,1,,,,,ササンカインターナショナル,0
1866,8220001025306,新規,0,2023-03-13,2023-03-13,株式会社山水,,株式会社,石川県,金沢市,大豆田本町１３番４‐３Ｆ,,17,201,9200047,,,,,,,2023-03-13,1,,,,,,0
1868,8230001019744,新規,0,2023-03-13,2023-03-13,株式会社ジン,,株式会社,富山県,富山市,一番町３番８号,,16,201,9300061,,,,,,,2023-03-13,1,,,,,ジン,0
1870,8230003001980,新規,0,2023-03-13,2023-03-13,アウラ合同会社,,合同会社,富山県,富山市,西宮２８番地１,,16,201,9318345,,,,,,,2023-03-13,1,,,,,アウラ,0
1874,8250001020007,新規,0,2023-03-13,2023-03-13,株式会社防府アルミ鋳造準備会社,,株式会社,山口県,防府市,大字浜方５３４番地２０,,35,206,7470833,,,,,,,2023-03-13,1,,,,,ホウフアルミチュウゾウジュンビガイシャ,0
1892,8290801029334,新規,0,2023-03-13,2023-03-13,ＬＩＮ’Ｓ株式会社,,株式会社,福岡県,北九州市小倉北区,神岳２丁目６‐７,,40,106,8020045,,,,,,,2023-03-13,1,,,,,リンズ,0
1893,8290801029359,新規,0,2023-03-13,2023-03-13,株式会社ＳＨＯＵＣＨＩＫＵ,,株式会社,福岡県,北九州市八幡東区,春の町４丁目２番２１‐３０３号,,40,108,8050050,,,,,,,2023-03-13,1,,,,,ショウチク,0
1898,8330001030674,新規,0,2023-03-13,2023-03-13,株式会社信頼,,株式会社,熊本県,熊本市中央区,八王寺町３０番１号メインプレイス熊本南６Ｆ－Ｅ,,43,101,8600831,,,,,,,2023-03-13,1,,,,,シンライ,0
1901,8360001031637,新規,0,2023-03-13,2023-03-13,宮古地所株式会社,,株式会社,沖縄県,宮古島市,平良字久貝１４０,,47,214,9060015,,,,,,,2023-03-13,1,,,,,ミヤコチショ,0
1904,8360003012783,新規,0,2023-03-13,2023-03-13,合同会社セレクト,,合同会社,沖縄県,うるま市,字田場１４１３番地１,,47,213,9042213,,,,,,,2023-03-13,1,,,,,セレクト,0
1905,8360003012791,新規,0,2023-03-13,2023-03-13,合同会社みやこあいらんど,,合同会社,沖縄県,宮古島市,平良字久貝８６９番地３,,47,214,9060015,,,,,,,2023-03-13,1,,,,,ミヤコアイランド,0
1906,8360003012800,新規,0,2023-03-13,2023-03-13,合同会社金城印刷,,合同会社,沖縄県,糸満市,字糸満２５３番地,,47,210,9010361,,,,,,,2023-03-13,1,,,,,キンジョウインサツ,0
1908,8370003006033,新規,0,2023-03-13,2023-03-13,合同会社東北エステート,,合同会社,宮城県,石巻市,千石町８番地３５,,04,202,9860827,,,,,,,2023-03-13,1,,,,,トウホクエステート,0
1912,8380001033540,新規,0,2023-03-13,2023-03-13,株式会社エストロワー,,株式会社,福島県,郡山市,方八町２丁目５番１６号ＮＯＶＡ東口ビル３１７号,,07,203,9638811,,,,,,,2023-03-13,1,,,,,エストロワー,0
1919,8420001018181,新規,0,2023-03-13,2023-03-13,株式会社Ｔｈｅ　Ｑ’ｓ,,株式会社,青森県,弘前市,大字青樹町７番地４,,02,202,0368246,,,,,,,2023-03-13,1,,,,,ザキュウズ,0
1923,8430001088612,新規,0,2023-03-13,2023-03-13,北商ホールディングス株式会社,,株式会社,北海道,札幌市白石区,北郷九条７丁目２番３号,,01,104,0030839,,,,,,,2023-03-13,1,,,,,ホクショウホールディングス,0
1938,9010001233622,新規,0,2023-03-13,2023-03-13,株式会社ＷＳＯ,,株式会社,東京都,千代田区,岩本町３丁目４番６号トナカイタワーズ５階,,13,101,1010032,,,,,,,2023-03-13,1,,,,,ダブリュエスオー,0
1939,9010001233647,新規,0,2023-03-13,2023-03-13,吉祥不動産株式会社,,株式会社,東京都,中央区,日本橋兜町１１番１３号,,13,102,1030026,,,,,,,2023-03-13,1,,,,,キッショウフドウサン,0
1947,9010005036369,新規,0,2023-03-13,2023-03-13,一般社団法人全日本華僑華人社団連合会,,その他の設立登記法人,東京都,文京区,本郷３丁目２６番４号ドルミ本郷・東京ササキビル６階,,13,105,1130033,,,,,,,2023-03-13,1,,,,,ゼンニホンカキョウカジンシャダンレンゴウカイ,0
1961,9010401173022,新規,0,2023-03-13,2023-03-13,ｇｆ．Ｂ株式会社,,株式会社,東京都,港区,高輪３丁目１２番８号,,13,103,1080074,,,,,,,2023-03-13,1,,,,,ジーエフドットビー,0
1962,9010401173047,新規,0,2023-03-13,2023-03-13,株式会社Ｐｒｏｇｒｅｓｓ,,株式会社,東京都,港区,愛宕１丁目１番１－２１０３号,,13,103,1050002,,,,,,,2023-03-13,1,,,,,プログレス,0
1966,9010403029627,新規,0,2023-03-13,2023-03-13,合同会社モエシャン,,合同会社,東京都,港区,南青山３丁目１番３６号青山丸竹ビル６Ｆ,,13,103,1070062,,,,,,,2023-03-13,1,,,,,モエシャン,0
1990,9011103012781,新規,0,2023-03-13,2023-03-13,合同会社フラジャイルスピーシーズ,,合同会社,東京都,新宿区,西新宿３丁目３番１３号西新宿水間ビル２Ｆ,,13,104,1600023,,,,,,,2023-03-13,1,,,,,フラジャイルスピーシーズ,0
1996,9011301028522,新規,0,2023-03-13,2023-03-13,株式会社広海,,株式会社,東京都,杉並区,和泉３丁目５３－６,,13,115,1680063,,,,,,,2023-03-13,1,,,,,ヒロウミ,0
2002,9011701026076,新規,0,2023-03-13,2023-03-13,株式会社Ｃａｓａ,,株式会社,東京都,江戸川区,平井５丁目３２番１号,,13,123,1320035,,,,,,,2023-03-13,1,,,,,カサ,0
2003,9011703003404,新規,0,2023-03-13,2023-03-13,合同会社ｉ,,合同会社,東京都,江戸川区,松島１丁目１６番７号,,13,123,1320031,,,,,,,2023-03-13,1,,,,,アイ,0
2005,9011803005556,新規,0,2023-03-13,2023-03-13,合同会社アヴァン,,合同会社,東京都,葛飾区,金町２丁目２１番５－２０５号プラーズ金町,,13,122,1250042,,,,,,,2023-03-13,1,,,,,アヴァン,0
2006,9012305002042,新規,0,2023-03-13,2023-03-13,一般社団法人コクア,,その他の設立登記法人,東京都,町田市,木曽東１丁目２番Ｂ２－９１４号,,13,209,1940036,,,,,,,2023-03-13,1,,,,,コクア,0
2020,9021001078404,新規,0,2023-03-13,2023-03-13,株式会社シンエイ電気,,株式会社,神奈川県,南足柄市,怒田２８２１番地１,,14,217,2500106,,,,,,,2023-03-13,1,,,,,シンエイデンキ,0
2021,9021001078412,新規,0,2023-03-13,2023-03-13,株式会社湘南テクノ,,株式会社,神奈川県,藤沢市,長後２４７９番地の１,,14,205,2520801,,,,,,,2023-03-13,1,,,,,ショウナンテクノ,0
2022,9021001078420,新規,0,2023-03-13,2023-03-13,株式会社エアーリンクス,,株式会社,神奈川県,相模原市緑区,久保沢３丁目３番３５－１号,,14,151,2520105,,,,,,,2023-03-13,1,,,,,エアーリンクス,0
2035,9030001152820,新規,0,2023-03-13,2023-03-13,株式会社ＲＧＢＺ,,株式会社,埼玉県,川口市,戸塚南３丁目５番２８号,,11,203,3330817,,,,,,,2023-03-13,1,,,,,アールジービーズ,0
2039,9030005021154,新規,0,2023-03-13,2023-03-13,特定非営利活動法人ナガノ生活支援事業所,,その他の設立登記法人,埼玉県,狭山市,狭山台４丁目１番地の８,,11,215,3501304,,,,,,,2023-03-13,1,,,,,ナガノセイカツシエンジギョウショ,0
2042,9040001127474,新規,0,2023-03-13,2023-03-13,株式会社フレッシュナブル,,株式会社,千葉県,千葉市中央区,登戸２丁目１１番３－１０５号,,12,101,2600032,,,,,,,2023-03-13,1,,,,,フレッシュナブル,0
2048,9060001035782,新規,0,2023-03-13,2023-03-13,株式会社ウェルウィス,,株式会社,栃木県,小山市,大字粟宮１１２９番地３,,09,208,3290201,,,,,,,2023-03-13,1,,,,,ウェルウィス,0
2053,9070003004859,新規,0,2023-03-13,2023-03-13,合同会社アンドナイン,,合同会社,群馬県,高崎市,中里見町１２番地７,,10,202,3703344,,,,,,,2023-03-13,1,,,,,アンドナイン,0
2071,9120001253097,新規,0,2023-03-13,2023-03-13,株式会社Ｓｕｎ　Ｓｈｉｎｅ　Ｃｏｍｐａｎｙ,,株式会社,大阪府,大阪市天王寺区,上本町６丁目６番２３号上本町サウスビル２階,,27,109,5430001,,,,,,,2023-03-13,1,,,,,サンシャインカンパニー,0
2072,9120001253130,新規,0,2023-03-13,2023-03-13,株式会社楽華科貿,,株式会社,大阪府,大阪市北区,天満４丁目５番３号,,27,127,5300043,,,,,,,2023-03-13,1,,,,,ラッカカボウ,0
2073,9120001253139,新規,0,2023-03-13,2023-03-13,株式会社ＬＩＭＥ,,株式会社,大阪府,大阪市中央区,南本町２丁目１番１号ＴＤフロア１階,,27,128,5410054,,,,,,,2023-03-13,1,,,,,ライム,0
2074,9120001253155,新規,0,2023-03-13,2023-03-13,株式会社ＧＲＯＷＴＥＣ,,株式会社,大阪府,大阪市中央区,内本町２丁目４番１２号中央内本町ビル３階,,27,128,5400026,,,,,,,2023-03-13,1,,,,,グローテック,0
2075,9120001253163,新規,0,2023-03-13,2023-03-13,株式会社Ｃｏｍｅ　ｉｎｔｏ　Ｐｌａｙ,,株式会社,大阪府,大阪市中央区,久太郎町１丁目５番１５－９０１号,,27,128,5410056,,,,,,,2023-03-13,1,,,,,カムイントゥプレイ,0
2082,9120003023597,新規,0,2023-03-13,2023-03-13,ＡＴ合同会社,,合同会社,大阪府,大阪市西成区,天下茶屋１丁目２－４,,27,122,5570014,,,,,,,2023-03-13,1,,,,,エイティー,0
2084,9120901047251,新規,0,2023-03-13,2023-03-13,稲妻産業株式会社,,株式会社,大阪府,吹田市,山田西２丁目９番,,27,205,5650824,,,,,,,2023-03-13,1,,,,,イナヅマサンギョウ,0
2086,9122001036770,新規,0,2023-03-13,2023-03-13,株式会社ＷＡＣＷＡＣ製作所,,株式会社,大阪府,大東市,谷川２丁目８番４号,,27,218,5740074,,,,,,,2023-03-13,1,,,,,ワクワクセイサクショ,0
2088,9122005003668,新規,0,2023-03-13,2023-03-13,一般社団法人Ｌｅｑｕｉｐｅ,,その他の設立登記法人,大阪府,東大阪市,川俣１丁目１番８号藤田ビル４階,,27,227,5770063,,,,,,,2023-03-13,1,,,,,レキップ,0
2097,9130001073841,新規,0,2023-03-13,2023-03-13,ｉｃｏｎ株式会社,,株式会社,京都府,京都市下京区,中堂寺壬生川町２９番地１壬生川団地４２４号,,26,106,6008806,,,,,,,2023-03-13,1,,,,,アイコン,0
2102,9140005026506,新規,0,2023-03-13,2023-03-13,医療法人秀美会,,その他の設立登記法人,兵庫県,西宮市,北口町１番２号アクタ西宮東館３Ｆ,,28,204,6638035,,,,,,,2023-03-13,1,,,,,シュウビカイ,0
2103,9150001026228,新規,0,2023-03-13,2023-03-13,フォーナイン株式会社,,株式会社,奈良県,生駒郡三郷町,勢野北１丁目６番２９号,,29,343,6360815,,,,,,,2023-03-13,1,,,,,フォーナイン,0
2105,9170001017506,新規,0,2023-03-13,2023-03-13,Ｒ＆Ｍ株式会社,,株式会社,和歌山県,和歌山市,市小路１１２番地５プライムパーク市小路１０２号室,,30,201,6408464,,,,,,,2023-03-13,1,,,,,アールアンドエム,0
2106,9170003001846,新規,0,2023-03-13,2023-03-13,合同会社ケーアイエー,,合同会社,和歌山県,和歌山市,六十谷１２９５番地１９,,30,201,6408482,,,,,,,2023-03-13,1,,,,,ケーアイエー,0
2116,9180001155321,新規,0,2023-03-13,2023-03-13,株式会社シーガルグループ,,株式会社,愛知県,名古屋市中川区,福船町３丁目１番地８９,,23,110,4540836,,,,,,,2023-03-13,1,,,,,シーガルグループ,0
2121,9180303005645,新規,0,2023-03-13,2023-03-13,合同会社ａｄｄｏｎｅ,,合同会社,愛知県,豊橋市,若松町字豊美７４６番地,,23,201,4418123,,,,,,,2023-03-13,1,,,,,アドワン,0
2130,9200005013456,新規,0,2023-03-13,2023-03-13,一般社団法人ＰＡＲＡＺＡ　ＫＩＤＳ,,その他の設立登記法人,岐阜県,羽島郡岐南町,野中５丁目５７番地の１,,21,302,5016004,,,,,,,2023-03-13,1,,,,,パラザキッズ,0
2134,9250001020006,新規,0,2023-03-13,2023-03-13,新沖ホールディングス株式会社,,株式会社,山口県,山陽小野田市,日の出３丁目１２番３号,,35,216,7560091,,,,,,,2023-03-13,1,,,,,シンオキホールディングス,0
2139,9260001037734,新規,0,2023-03-13,2023-03-13,華盛株式会社,,株式会社,岡山県,岡山市北区,平野８７番地８,,33,101,7010151,,,,,,,2023-03-13,1,,,,,カセイ,0
2151,9290001100869,新規,0,2023-03-13,2023-03-13,株式会社エムディーオー,,株式会社,福岡県,福岡市南区,長丘５丁目２５番２１号,,40,134,8150075,,,,,,,2023-03-13,1,,,,,エムディーオー,0
2154,9290803004367,新規,0,2023-03-13,2023-03-13,合同会社ＨＭＴｏｏｌｉｎｇ‐ｎｅｔ,,合同会社,福岡県,北九州市八幡西区,美吉野町１番１７号,,40,109,8070865,,,,,,,2023-03-13,1,,,,,エイチエムツーリングネット,0
2160,9350003004319,新規,0,2023-03-13,2023-03-13,合同会社ＲＳＳ九州,,合同会社,宮崎県,宮崎市,吉村町上西中甲１３９２番地２０,,45,201,8800841,,,,,,,2023-03-13,1,,,,,アールエスエスキュウシュウ,0
2166,9360001031685,新規,0,2023-03-13,2023-03-13,株式会社Ｄｒｏｎｅ‐ＫＮＣ,,株式会社,沖縄県,糸満市,字真栄里９４番地,,47,210,9010362,,,,,,,2023-03-13,1,,,,,ドローンケーエヌシー,0
2167,9360001031693,新規,0,2023-03-13,2023-03-13,株式会社インテラ,,株式会社,沖縄県,南城市,玉城字船越６９７番地１－１０１号,,47,215,9010618,,,,,,,2023-03-13,1,,,,,インテラ,0
2181,9450001013922,新規,0,2023-03-13,2023-03-13,株式会社旭裕,,株式会社,北海道,旭川市,豊岡十条５丁目２番１６号カーサロイヤルＩＩ１０２号室,00129735,01,204,0788240,,,,,,,2023-03-13,1,,,,,キョクユウ,0
2184,9500001024815,新規,0,2023-03-13,2023-03-13,株式会社ａｒｃ,,株式会社,愛媛県,伊予市,下吾川１７０３番地１,,38,210,7993111,,,,,,,2023-03-13,1,,,,,アーク,0
