sequenceNumber,corporateNumber,process,correct,updateDate,changeDate,name,nameImageId,kind,prefectureName,cityName,streetNumber,addressImageId,prefectureCode,cityCode,postCode,addressOutside,addressOutsideImageId,closeDate,closeCause,successorCorporateNumber,changeCause,assignmentDate,latest,enName,enPrefectureName,enCityName,enAddressOutside,furigana,hihyoji
13,1010001225081,新規,0,2022-03-09,2022-03-09,Ｔｏｋｙｏ　Ｌｅｇａｃｙ　Ｐａｒｋｓ株式会社,,株式会社,東京都,中央区,八重洲１丁目４番１６号,,13,102,1030028,,,,,,,2022-03-09,1,,,,,トウキョウレガシーパークス,0
17,1010005034669,新規,0,2022-03-09,2022-03-09,医療法人社団淺野会,,その他の設立登記法人,東京都,千代田区,内神田１丁目１５番１２号内神田サトウビル４階,,13,101,1010047,,,,,,,2022-03-09,1,,,,,アサノカイ,0
18,1010005034702,新規,0,2022-03-09,2022-03-09,Ｔｒｉｌａｔｏ　Ｐｌｕｓ税理士法人,,その他の設立登記法人,東京都,千代田区,九段北４丁目３番３２号７Ｆ,,13,101,1020073,,,,,,,2022-03-09,1,,,,,トリラトプラス,0
22,1010401165927,新規,0,2022-03-09,2022-03-09,株式会社ＳＡＮＡＲＥ,,株式会社,東京都,港区,虎ノ門４丁目３番１号城山トラストタワー２７階,,13,103,1050001,,,,,,,2022-03-09,1,,,,,サナレ,0
23,1010401166099,新規,0,2022-03-09,2022-03-09,株式会社ハッピーアンドエンジョイ,,株式会社,東京都,港区,南麻布２丁目２番地６号２０２,,13,103,1060047,,,,,,,2022-03-09,1,,,,,ハッピーアンドエンジョイ,0
26,1010403027241,新規,0,2022-03-09,2022-03-09,フィルトレーション合同会社,,合同会社,東京都,港区,南麻布１丁目８番２１－１１２号,,13,103,1060047,,,,,,,2022-03-09,1,,,,,フィルトレーション,0
28,1010405020780,新規,0,2022-03-09,2022-03-09,ＣＡＲＢＯＮＥ　ＢＡＮＫ一般社団法人,,その他の設立登記法人,東京都,港区,虎ノ門１丁目５番１１号森田ビル３階,,13,103,1050001,,,,,,,2022-03-09,1,,,,,カーボーンバンク,0
33,1010801032792,新規,0,2022-03-09,2022-03-09,株式会社カラカルメディア,,株式会社,東京都,大田区,南蒲田２丁目４番１９号エクレラージュ１０３,,13,111,1440035,,,,,,,2022-03-09,1,,,,,カラカルメディア,0
34,1010803004088,新規,0,2022-03-09,2022-03-09,合同会社ＭａＴ　ＭａＴ,,合同会社,東京都,大田区,下丸子４丁目１０番３号,,13,111,1460092,,,,,,,2022-03-09,1,,,,,マットマット,0
41,1011001146202,新規,0,2022-03-09,2022-03-09,株式会社エターナルウィング,,株式会社,東京都,渋谷区,神宮前３丁目６番２１号,,13,113,1500001,,,,,,,2022-03-09,1,,,,,エターナルウィング,0
45,1011101098062,新規,0,2022-03-09,2022-03-09,株式会社ＧＧＳＢｓ,,株式会社,東京都,新宿区,新宿１丁目１番７号コスモ新宿御苑ビル,,13,104,1600022,,,,,,,2022-03-09,1,,,,,ジージーエスビーエス,0
46,1011101098079,新規,0,2022-03-09,2022-03-09,パキシーノ株式会社,,株式会社,東京都,新宿区,西新宿３丁目３番１３号西新宿水間ビル６階,,13,104,1600023,,,,,,,2022-03-09,1,,,,,パキシーノ,0
47,1011101098095,新規,0,2022-03-09,2022-03-09,株式会社ＳＴＡＲＴ,,株式会社,東京都,新宿区,西新宿３丁目６番１７－９０３号,,13,104,1600023,,,,,,,2022-03-09,1,,,,,スタート,0
48,1011101098104,新規,0,2022-03-09,2022-03-09,株式会社Ｓｐｅｓｉａ,,株式会社,東京都,新宿区,西新宿３丁目３番１３号西新宿水間ビル６階,,13,104,1600023,,,,,,,2022-03-09,1,,,,,スペシア,0
49,1011103011543,新規,0,2022-03-09,2022-03-09,合同会社ＧＡ,,合同会社,東京都,新宿区,大久保３丁目８番３－３２１５号,,13,104,1690072,,,,,,,2022-03-09,1,,,,,ジーエー,0
54,1011501027802,新規,0,2022-03-09,2022-03-09,グリーン燃料開発株式会社,,株式会社,東京都,北区,田端新町２丁目８番１１号,,13,117,1140012,,,,,,,2022-03-09,1,,,,,グリーンネンリョウカイハツ,0
55,1011603003544,新規,0,2022-03-09,2022-03-09,合同会社ＫＡＩ,,合同会社,東京都,練馬区,東大泉３丁目３０－１７,,13,120,1780063,,,,,,,2022-03-09,1,,,,,カイ,0
57,1011701025102,新規,0,2022-03-09,2022-03-09,株式会社ナベシキ,,株式会社,東京都,江戸川区,松島３丁目３４番７号,,13,123,1320031,,,,,,,2022-03-09,1,,,,,ナベシキ,0
58,1011705001719,新規,0,2022-03-09,2022-03-09,一般社団法人Ｏｎａｒａ,,その他の設立登記法人,東京都,江戸川区,西小岩１丁目２０番１５号Ｍ・Ａ１０１号室,,13,123,1330057,,,,,,,2022-03-09,1,,,,,オナラ,0
61,1012403005268,新規,0,2022-03-09,2022-03-09,合同会社スペランツァ,,合同会社,東京都,武蔵野市,桜堤３丁目３番２号,,13,203,1800021,,,,,,,2022-03-09,1,,,,,スペランツァ,0
62,1012805003092,新規,0,2022-03-09,2022-03-09,一般社団法人大学共同利用研究教育アライアンス,,その他の設立登記法人,東京都,立川市,緑町１０番３号,,13,202,1900014,,,,,,,2022-03-09,1,,,,,ダイガクキョウドウリヨウケンキュウキョウイクアライアンス,0
63,1013105001794,新規,0,2022-03-09,2022-03-09,医療法人社団つむぎ,,その他の設立登記法人,東京都,青梅市,東青梅４丁目１７番地の１６,,13,205,1980042,,,,,,,2022-03-09,1,,,,,ツムギ,0
77,1020001145403,新規,0,2022-03-09,2022-03-09,スニフアンドスカリー株式会社,,株式会社,神奈川県,横浜市青葉区,元石川町６４０８－２,,14,117,2250004,,,,,,,2022-03-09,1,,,,,スニフアンドスカリー,0
78,1020001145519,新規,0,2022-03-09,2022-03-09,株式会社きみそら共育研究所,,株式会社,神奈川県,川崎市麻生区,上麻生１丁目３番４号ＷＡＫＡビル２Ｆ,,14,137,2150021,,,,,,,2022-03-09,1,,,,,キミソラキョウイクケンキュウジョ,0
79,1020001145584,新規,0,2022-03-09,2022-03-09,ビッドハブ株式会社,,株式会社,神奈川県,川崎市幸区,大宮町１４番地２０１,,14,132,2120014,,,,,,,2022-03-09,1,,,,,ビッドハブ,0
80,1020001145592,新規,0,2022-03-09,2022-03-09,株式会社ことら不動産,,株式会社,神奈川県,横浜市戸塚区,吉田町１０１２番地２,,14,110,2440817,,,,,,,2022-03-09,1,,,,,コトラフドウサン,0
81,1020003021437,新規,0,2022-03-09,2022-03-09,クレアスティレ合同会社,,合同会社,神奈川県,横浜市青葉区,桜台１番地１３青葉台ヒルズ２０２,,14,117,2270061,,,,,,,2022-03-09,1,,,,,クレアスティレ,0
91,1021003011436,新規,0,2022-03-09,2022-03-09,合同会社リトル小屋,,合同会社,神奈川県,伊勢原市,高森４丁目１１－３,,14,214,2591114,,,,,,,2022-03-09,1,,,,,リトルゴヤ,0
102,1030001147101,新規,0,2022-03-09,2022-03-09,株式会社ＫＨＭＮＤ　ＣＯＲＰＯＲＡＴＩＯＮ,,株式会社,埼玉県,さいたま市緑区,大字大間木１６４５番地１,,11,109,3360923,,,,,,,2022-03-09,1,,,,,ケーエイチエムエヌディーコーポレーション,0
103,1030001147126,新規,0,2022-03-09,2022-03-09,箱島株式会社,,株式会社,埼玉県,さいたま市南区,白幡６丁目１３番５号３０５,,11,108,3360022,,,,,,,2022-03-09,1,,,,,ハコジマ,0
109,1030003018936,新規,0,2022-03-09,2022-03-09,合同会社ここのね,,合同会社,埼玉県,越谷市,千間台西１丁目８番地２クリンゲルバウム１階Ｂ区画,,11,222,3430041,,,,,,,2022-03-09,1,,,,,ココノネ,0
110,1030003018993,新規,0,2022-03-09,2022-03-09,合同会社ＫＫＳ,,合同会社,埼玉県,鶴ヶ島市,大字上広谷６０３番地２６,,11,241,3502203,,,,,,,2022-03-09,1,,,,,ケーケーエス,0
111,1030003019001,新規,0,2022-03-09,2022-03-09,合同会社ａｒａｋａｇｅ,,合同会社,埼玉県,さいたま市岩槻区,美園東２丁目４５番地２８,,11,110,3390028,,,,,,,2022-03-09,1,,,,,アラカゲ,0
119,1040001122565,新規,0,2022-03-09,2022-03-09,株式会社青い鳥,,株式会社,千葉県,習志野市,谷津１丁目２番５号,,12,216,2750026,,,,,,,2022-03-09,1,,,,,アオイトリ,0
127,1040005021540,新規,0,2022-03-09,2022-03-09,一般社団法人かんでんち,,その他の設立登記法人,千葉県,木更津市,中央２丁目８番１８号,,12,206,2920067,,,,,,,2022-03-09,1,,,,,カンデンチ,0
131,1050001050757,新規,0,2022-03-09,2022-03-09,株式会社豊,,株式会社,茨城県,古河市,大堤７７９番地５,,08,204,3060236,,,,,,,2022-03-09,1,,,,,ユタカ,0
138,1060001034651,新規,0,2022-03-09,2022-03-09,ＭＩプラントテック株式会社,,株式会社,栃木県,宇都宮市,駒生町１５４０番地４１,,09,201,3200065,,,,,,,2022-03-09,1,,,,,エムアイプラントテッック,0
147,1080001024808,新規,0,2022-03-09,2022-03-09,株式会社深澤内装,,株式会社,静岡県,静岡市葵区,瀬名川３丁目１番２０－２号,,22,101,4200913,,,,,,,2022-03-09,1,,,,,フカザワナイソウ,0
150,1100001035133,新規,0,2022-03-09,2022-03-09,株式会社きのみ舎,,株式会社,長野県,須坂市,大字塩川３３６番地２４,,20,207,3820000,,,,,,,2022-03-09,1,,,,,キノミシャ,0
151,1100001035141,新規,0,2022-03-09,2022-03-09,大糸タイムスホールディングス株式会社,,株式会社,長野県,大町市,大町１８５１番地,,20,212,3980002,,,,,,,2022-03-09,1,,,,,オオイトタイムスホールディングス,0
168,1120001244252,新規,0,2022-03-09,2022-03-09,株式会社桜興産,,株式会社,大阪府,大阪市鶴見区,諸口３丁目５番２７－６０７号,,27,124,5380051,,,,,,,2022-03-09,1,,,,,サクラコウサン,0
169,1120001244327,新規,0,2022-03-09,2022-03-09,富源株式会社,,株式会社,大阪府,大阪市浪速区,下寺３丁目１８番４号,,27,111,5560001,,,,,,,2022-03-09,1,,,,,フゲン,0
170,1120001244343,新規,0,2022-03-09,2022-03-09,株式会社Ｓカンパニー,,株式会社,大阪府,大阪市浪速区,難波中２丁目１０－７０なんばパークスタワー１９Ｆ,,27,111,5560011,,,,,,,2022-03-09,1,,,,,エスカンパニー,0
171,1120001244368,新規,0,2022-03-09,2022-03-09,株式会社試映館,,株式会社,大阪府,大阪市北区,中崎西４丁目２番２１－１００７号,,27,127,5300015,,,,,,,2022-03-09,1,,,,,シエイカン,0
175,1120103004595,新規,0,2022-03-09,2022-03-09,ファインブルースター合同会社,,合同会社,大阪府,堺市堺区,宿院町東４丁１番１号阪南ビル４０２,,27,141,5900955,,,,,,,2022-03-09,1,,,,,ファインブルースター,0
191,1140001125087,新規,0,2022-03-09,2022-03-09,株式会社湯浅内装,,株式会社,兵庫県,神戸市中央区,神若通３丁目３番１－２０３号,,28,110,6510067,,,,,,,2022-03-09,1,,,,,ユアサナイソウ,0
192,1140001125161,新規,0,2022-03-09,2022-03-09,株式会社Ａｇｒｉｃｏ,,株式会社,兵庫県,神戸市北区,長尾町上津３４７４番地,,28,109,6511512,,,,,,,2022-03-09,1,,,,,アグリコ,0
193,1140001125194,新規,0,2022-03-09,2022-03-09,株式会社悠友,,株式会社,兵庫県,神戸市西区,玉津町上池３４９番地の２,,28,111,6512126,,,,,,,2022-03-09,1,,,,,ユウユウ,0
194,1140001125211,新規,0,2022-03-09,2022-03-09,株式会社河地建設,,株式会社,兵庫県,神戸市長田区,五位ノ池町２丁目１番１１－４０８号,,28,106,6530851,,,,,,,2022-03-09,1,,,,,カワジケンセツ,0
196,1140005026059,新規,0,2022-03-09,2022-03-09,一般社団法人農サイド,,その他の設立登記法人,兵庫県,神戸市西区,玉津町二ツ屋２８６－１,,28,111,6512142,,,,,,,2022-03-09,1,,,,,ノウサイド,0
210,1180001150296,新規,0,2022-03-09,2022-03-09,株式会社ＷＡＯｃｃｒｅａｔｅ,,株式会社,愛知県,日進市,米野木町北山１番地４００,,23,230,4700111,,,,,,,2022-03-09,1,,,,,ワオクリエイト,0
211,1180001150338,新規,0,2022-03-09,2022-03-09,実感研究株式会社,,株式会社,愛知県,名古屋市中区,錦３丁目４番１３号第４３オーシャンビル４Ｆ,,23,106,4600003,,,,,,,2022-03-09,1,,,,,ジッカンケンキュウ,0
216,1180003023582,新規,0,2022-03-09,2022-03-09,合同会社移動支援サービス名古屋,,合同会社,愛知県,名古屋市中川区,吉津４丁目２５１５番地フリーダム１Ｂ,,23,110,4540981,,,,,,,2022-03-09,1,,,,,イドウシエンサービスナゴヤ,0
243,1280001008658,新規,0,2022-03-09,2022-03-09,ＩＳＣ株式会社,,株式会社,島根県,江津市,敬川町４３０－１,,32,207,6993162,,,,,,,2022-03-09,1,,,,,アイエスシー,0
247,1290001096743,新規,0,2022-03-09,2022-03-09,株式会社ＬＩＧ　ＡＣＡＤＥＭＹ,,株式会社,福岡県,飯塚市,新飯塚１８－１,,40,205,8200005,,,,,,,2022-03-09,1,,,,,リグアカデミー,0
270,1350001017627,新規,0,2022-03-09,2022-03-09,株式会社ＡＫＧ,,株式会社,宮崎県,宮崎市,大字島之内７２８６番地２２,,45,201,8800121,,,,,,,2022-03-09,1,,,,,エーケージー,0
279,1370001048298,新規,0,2022-03-09,2022-03-09,むすぶ不動産株式会社,,株式会社,宮城県,大崎市,古川台町９番６号吉岡ビル２Ｆ,,04,215,9896163,,,,,,,2022-03-09,1,,,,,ムスブフドウサン,0
280,1370001048307,新規,0,2022-03-09,2022-03-09,株式会社リノメディカ,,株式会社,宮城県,仙台市青葉区,中央２丁目８－１１プレミアムグリーンヒルズ３Ｆ,,04,101,9800021,,,,,,,2022-03-09,1,,,,,リノメディカ,0
284,1380005012547,新規,0,2022-03-09,2022-03-09,医療法人和美会,,その他の設立登記法人,福島県,いわき市,内郷御厩町１丁目１３３,,07,204,9738402,,,,,,,2022-03-09,1,,,,,ナゴミカイ,0
291,1410001013116,新規,0,2022-03-09,2022-03-09,株式会社ｐｉｎ．Ｃｏｎｎｅｃｔ,,株式会社,秋田県,秋田市,新屋元町１５番８号,,05,201,0101631,,,,,,,2022-03-09,1,,,,,,0
296,1440001009045,新規,0,2022-03-09,2022-03-09,株式会社キダヒロコーポレーション,,株式会社,北海道,函館市,桔梗１丁目１番１２号,,01,202,0410808,,,,,,,2022-03-09,1,,,,,キダヒロコーポレーション,0
308,1700150026632,新規,0,2022-03-09,2015-10-09,京都国際舞台芸術祭実行委員会,,その他,京都府,京都市中京区,烏丸通夷川上る少将井町２２９－２第７長谷ビル６Ｆ,,26,104,6040862,,,,,,,2015-10-09,1,,,,,キヨウトコクサイブタイゲイジユツサイジツコウイインカイ,0
309,1700150107317,新規,0,2022-03-09,2022-03-09,Ｂｉｏｍｉｎ　Ｓｉｎｇａｐｏｒｅ　ＰＴＥ．　Ｌｔｄ．,,外国会社等,,,,,,,,３７９１　Ｊａｌａｎ　Ｂｕｋｉｔ　Ｍｅｒａｈ　＃０８－０８　Ｅ－ｃｅｎｔｒｅ＠Ｒｅｄｈｉｌｌ，　Ｓｉｎｇａｐｏｒｅ　１５９４７１,,,,,,2022-03-09,1,,,,,バイオミンシンガポールプライベートリミテツド,0
320,2010001224999,新規,0,2022-03-09,2022-03-09,株式会社ＡＳＫコーポレーション,,株式会社,東京都,中央区,日本橋人形町３丁目３番１５号,,13,102,1030013,,,,,,,2022-03-09,1,,,,,エーエスケーコーポレーション,0
321,2010001225031,新規,0,2022-03-09,2022-03-09,シーワイオーラボ株式会社,,株式会社,東京都,中央区,八丁堀４丁目９番１３号,,13,102,1040032,,,,,,,2022-03-09,1,,,,,シーワイオーラボ,0
322,2010001225072,新規,0,2022-03-09,2022-03-09,ＡＣＨＩＥＶＥＲ’Ｓ　ＣＯＮＳＵＬＴＩＮＧ株式会社,,株式会社,東京都,中央区,銀座１丁目２２番１１号銀座大竹ビジデンス２階,,13,102,1040061,,,,,,,2022-03-09,1,,,,,アチーヴァーズコンサルティング,0
323,2010001225080,新規,0,2022-03-09,2022-03-09,株式会社ＡＹＴ,,株式会社,東京都,千代田区,内神田３丁目１２番８号神田第３ビル１階Ｂ号室,,13,101,1010047,,,,,,,2022-03-09,1,,,,,エーワイティー,0
327,2010005034676,新規,0,2022-03-09,2022-03-09,税理士法人ラック,,その他の設立登記法人,東京都,千代田区,神田和泉町１番地１３の１２ファベルハウス４Ｆ,,13,101,1010024,,,,,,,2022-03-09,1,,,,,ラック,0
328,2010005034701,新規,0,2022-03-09,2022-03-09,一般社団法人周恩来平和研究所,,その他の設立登記法人,東京都,中央区,銀座１丁目７番７号,,13,102,1040061,,,,,,,2022-03-09,1,,,,,シュウオンライヘイワケンキュウジョ,0
341,2010401166098,新規,0,2022-03-09,2022-03-09,株式会社ＴＥＲＲＡＳＳ,,株式会社,東京都,港区,芝３丁目１２番１８号サンコート芝公園２１０号,,13,103,1050014,,,,,,,2022-03-09,1,,,,,,0
348,2010403027240,新規,0,2022-03-09,2022-03-09,ＭＥＴＩＳ　ＯＢＡ合同会社,,合同会社,東京都,港区,南麻布３丁目２０－１Ｄａｉｗａ麻布テラス５Ｆ５１９号室,,13,103,1060047,,,,,,,2022-03-09,1,,,,,メティスオオバ,0
349,2010403027249,新規,0,2022-03-09,2022-03-09,合同会社リアルティバンク,,合同会社,東京都,港区,芝浦４丁目１９番１号,,13,103,1080023,,,,,,,2022-03-09,1,,,,,リアルティバンク,0
353,2010605004054,新規,0,2022-03-09,2022-03-09,一般社団法人吾妻橋研究所,,その他の設立登記法人,東京都,墨田区,吾妻橋２丁目１７番７－１２０３号,,13,107,1300001,,,,,,,2022-03-09,1,,,,,アズマバシケンキュウショ,0
354,2010701042354,新規,0,2022-03-09,2022-03-09,株式会社テックシンカー,,株式会社,東京都,品川区,豊町６丁目６番９号,,13,109,1420042,,,,,,,2022-03-09,1,,,,,テックシンカー,0
355,2010801032775,新規,0,2022-03-09,2022-03-09,株式会社水龍堂,,株式会社,東京都,大田区,羽田１丁目１９番１７号１０３,,13,111,1440043,,,,,,,2022-03-09,1,,,,,スイリュウドウ,0
374,2011001146119,新規,0,2022-03-09,2022-03-09,株式会社ｆｕｋａｃ,,株式会社,東京都,目黒区,上目黒１丁目１５番１２号メゾン太陽２０１,,13,110,1530051,,,,,,,2022-03-09,1,,,,,フカク,0
377,2011005009478,新規,0,2022-03-09,2022-03-09,一般社団法人ジャパンアイブロウ協会,,その他の設立登記法人,東京都,渋谷区,恵比寿西２丁目１番７号,,13,113,1500021,,,,,,,2022-03-09,1,,,,,ジャパンアイブロウキョウカイ,0
383,2011101098086,新規,0,2022-03-09,2022-03-09,株式会社ｎａｐ,,株式会社,東京都,新宿区,西新宿３丁目３番１３号西新宿水間ビル６階,,13,104,1600023,,,,,,,2022-03-09,1,,,,,ナップ,0
384,2011101098103,新規,0,2022-03-09,2022-03-09,株式会社シャイニートマト,,株式会社,東京都,新宿区,西新宿６丁目１５番１号セントラルパークタワー・ラ・トゥール新宿３５０６,,13,104,1600023,,,,,,,2022-03-09,1,,,,,シャイニートマト,0
387,2011103011542,新規,0,2022-03-09,2022-03-09,合同会社六調,,合同会社,東京都,新宿区,西新宿３丁目１８－１４ゼスティ西新宿ＩＩＩ４０４,00125921,13,104,1600023,,,,,,,2022-03-09,1,,,,,ロクチョウ,0
396,2011803004993,新規,0,2022-03-09,2022-03-09,合同会社関口設計,,合同会社,東京都,葛飾区,東新小岩８丁目２番９号,,13,122,1240023,,,,,,,2022-03-09,1,,,,,セキグチセッケイ,0
400,2012803002723,新規,0,2022-03-09,2022-03-09,合同会社古鷹恒産,,合同会社,東京都,国分寺市,西元町２丁目１６番３４号,,13,214,1850023,,,,,,,2022-03-09,1,,,,,フルタカコウサン,0
408,2020001145591,新規,0,2022-03-09,2022-03-09,ＬＩＮＫＳ　ＳＴＵＤＩＯ株式会社,,株式会社,神奈川県,横浜市神奈川区,神奈川２丁目１９番地９洛東ビル３０８号室,,14,102,2210045,,,,,,,2022-03-09,1,,,,,リンクススタジオ,0
413,2021001075382,新規,0,2022-03-09,2022-03-09,株式会社３ｒｄｐｌａｃｅ,,株式会社,神奈川県,藤沢市,鵠沼橘１丁目１７番１４号,,14,205,2510024,,,,,,,2022-03-09,1,,,,,サードプレイス,0
422,2030001147166,新規,0,2022-03-09,2022-03-09,Ｂ・Ｙ株式会社,,株式会社,埼玉県,川口市,西青木２丁目１０番９号ロイヤルハイツ西青木１０１号室,,11,203,3320035,,,,,,,2022-03-09,1,,,,,ビーワイ,0
423,2030001147182,新規,0,2022-03-09,2022-03-09,豊徳運送株式会社,,株式会社,埼玉県,蕨市,南町２丁目２６－１１安部,,11,223,3350003,,,,,,,2022-03-09,1,,,,,ホウトクウンソウ,0
424,2030001147199,新規,0,2022-03-09,2022-03-09,株式会社楽通販,,株式会社,埼玉県,川口市,西川口１丁目１２番１７号ＨＰビル２階,,11,203,3320021,,,,,,,2022-03-09,1,,,,,ラクツウハン,0
425,2030001147216,新規,0,2022-03-09,2022-03-09,東盛株式会社,,株式会社,埼玉県,さいたま市桜区,大字下大久保１１２７番地１オーユーパレス下大久保３０９号室,,11,106,3380825,,,,,,,2022-03-09,1,,,,,トウセイ,0
428,2030003018885,新規,0,2022-03-09,2022-03-09,Ｅ　ａｎｄ　Ｎサプライ合同会社,,合同会社,埼玉県,富士見市,大字水子５１３８―１３,,11,235,3540011,,,,,,,2022-03-09,1,,,,,イーアンドエヌサプライ,0
435,2040001122564,新規,0,2022-03-09,2022-03-09,株式会社石田工業,,株式会社,千葉県,香取市,津宮１４０７－１,,12,236,2870011,,,,,,,2022-03-09,1,,,,,イシダコウギョウ,0
448,2060003003975,新規,0,2022-03-09,2022-03-09,合同会社佐藤映像,,合同会社,栃木県,宇都宮市,山本１丁目２０番５号,,09,201,3200012,,,,,,,2022-03-09,1,,,,,サトウエイゾウ,0
454,2080001024807,新規,0,2022-03-09,2022-03-09,株式会社ｎｏｎｉｉ,,株式会社,静岡県,静岡市葵区,上新富町１－１１,,22,101,4200062,,,,,,,2022-03-09,1,,,,,ノニー,0
470,2120001244334,新規,0,2022-03-09,2022-03-09,株式会社アイシーエス,,株式会社,大阪府,門真市,新橋町１７番８号,,27,223,5710048,,,,,,,2022-03-09,1,,,,,アイシーエス,0
471,2120001244342,新規,0,2022-03-09,2022-03-09,株式会社リアン＆メヴィ,,株式会社,大阪府,大阪市西区,新町３丁目１１番７－１３０３号,,27,106,5500013,,,,,,,2022-03-09,1,,,,,リアンアンドメヴィ,0
474,2120005022835,新規,0,2022-03-09,2022-03-09,社会保険労務士法人さくら,,その他の設立登記法人,大阪府,大阪市西淀川区,柏里２丁目１２番２号,,27,113,5550022,,,,,,,2022-03-09,1,,,,,サクラ,0
477,2120101065192,新規,0,2022-03-09,2022-03-09,株式会社キシテツ,,株式会社,大阪府,岸和田市,中北町１０番３３号,,27,202,5960062,,,,,,,2022-03-09,1,,,,,キシテツ,0
479,2120901045699,新規,0,2022-03-09,2022-03-09,万錦商事株式会社,,株式会社,大阪府,豊中市,豊南町東３丁目２番１８号,,27,203,5610814,,,,,,,2022-03-09,1,,,,,マンキンショウジ,0
480,2120905006292,新規,0,2022-03-09,2022-03-09,一般社団法人北大阪キッチンカー協会,,その他の設立登記法人,大阪府,吹田市,江坂町１丁目１３番１１号,,27,205,5640063,,,,,,,2022-03-09,1,,,,,キタオオサカキッチンカーキョウカイ,0
484,2122001035655,新規,0,2022-03-09,2022-03-09,株式会社Ｎｅｘｔ　Ｗｏｒｋ,,株式会社,大阪府,八尾市,木の本２丁目５８番地の６,,27,212,5810044,,,,,,,2022-03-09,1,,,,,ネクストワーク,0
486,2122005003609,新規,0,2022-03-09,2022-03-09,一般社団法人Ｌｏｖｅ　Ｆａｍｉｌｙ,,その他の設立登記法人,大阪府,柏原市,清州２丁目４番２０号,,27,221,5820006,,,,,,,2022-03-09,1,,,,,ラブファミリー,0
490,2140001125136,新規,0,2022-03-09,2022-03-09,株式会社ＲＡＰＰＯＲＴ,,株式会社,兵庫県,神戸市中央区,海岸通３丁目１番１号,,28,110,6500024,,,,,,,2022-03-09,1,,,,,ラポール,0
491,2140001125193,新規,0,2022-03-09,2022-03-09,ＲＡＫＵＹＡ株式会社,,株式会社,兵庫県,尼崎市,西立花町１丁目１５番１９号,,28,202,6600054,,,,,,,2022-03-09,1,,,,,ラクヤ,0
492,2140001125202,新規,0,2022-03-09,2022-03-09,株式会社エターナル,,株式会社,兵庫県,西宮市,鳴尾町３丁目２番７号,,28,204,6638184,,,,,,,2022-03-09,1,,,,,エターナル,0
493,2140001125210,新規,0,2022-03-09,2022-03-09,株式会社ＫＡＲＵＲＡ,,株式会社,兵庫県,神戸市須磨区,須磨浦通５丁目７番６号,,28,107,6540055,,,,,,,2022-03-09,1,,,,,カルラ,0
497,2140003017422,新規,0,2022-03-09,2022-03-09,合同会社ＭＡＮＯＡ,,合同会社,兵庫県,豊岡市,桜町１１番１０号,,28,209,6680043,,,,,,,2022-03-09,1,,,,,マノア,0
517,2180003023573,新規,0,2022-03-09,2022-03-09,匠興業合同会社,,合同会社,愛知県,岩倉市,中本町葭原２５番地３,,23,228,4820042,,,,,,,2022-03-09,1,,,,,タクミコウギョウ,0
519,2180303005263,新規,0,2022-03-09,2022-03-09,合同会社しろまる,,合同会社,愛知県,豊田市,若林東町上り戸２４番地２ポルタフォルトゥーナ１０６号,,23,211,4730914,,,,,,,2022-03-09,1,,,,,シロマル,0
522,2190001029183,新規,0,2022-03-09,2022-03-09,ｊａｃｋ３株式会社,,株式会社,三重県,松阪市,中林町４０４番地７,,24,204,5152111,,,,,,,2022-03-09,1,,,,,ジャックスリー,0
529,2210005010013,新規,0,2022-03-09,2022-03-09,一般社団法人うみのいえ,,その他の設立登記法人,福井県,今立郡池田町,薮田第９号８番地１,,18,382,9102511,,,,,,,2022-03-09,1,,,,,ウミノイエ,0
530,2220001024734,新規,0,2022-03-09,2022-03-09,株式会社西宅,,株式会社,石川県,金沢市,南森本町ワ１７４番地５,,17,201,9203116,,,,,,,2022-03-09,1,,,,,ニシタク,0
549,2290001096718,新規,0,2022-03-09,2022-03-09,株式会社ロハスブランディング,,株式会社,福岡県,福岡市博多区,博多駅南４丁目１１番２８号,,40,132,8120016,,,,,,,2022-03-09,1,,,,,ロハスブランディング,0
553,2290003012251,新規,0,2022-03-09,2022-03-09,合同会社Ｉｍｕａ,,合同会社,福岡県,糸島市,前原駅南１丁目５番１０－５０１号,,40,230,8191138,,,,,,,2022-03-09,1,,,,,イムア,0
578,2350001017626,新規,0,2022-03-09,2022-03-09,河北地所株式会社,,株式会社,宮崎県,児湯郡都農町,大字川北４８８４番地,,45,406,8891201,,,,,,,2022-03-09,1,,,,,カワキタチショ,0
586,2380001032647,新規,0,2022-03-09,2022-03-09,株式会社藤興業,,株式会社,福島県,南相馬市,原町区大木戸字松島３４４－１,,07,212,9750061,,,,,,,2022-03-09,1,,,,,フジコウギョウ,0
602,2430001086126,新規,0,2022-03-09,2022-03-09,株式会社千歳ポートリー,,株式会社,北海道,千歳市,駒里２２６９番地,,01,224,0660011,,,,,,,2022-03-09,1,,,,,チトセポートリー,0
603,2430001086175,新規,0,2022-03-09,2022-03-09,藤ホールディングス株式会社,,株式会社,北海道,札幌市手稲区,曙六条１丁目４番４０号,00125900,01,109,0060836,,,,,,,2022-03-09,1,,,,,フジホールディングス,0
612,2470005006423,新規,0,2022-03-09,2022-03-09,医療法人社団光心会,,その他の設立登記法人,香川県,高松市,多肥上町１１１１番地１多肥メディカルビル・イーア２階,,37,201,7618076,,,,,,,2022-03-09,1,,,,,コウシンカイ,0
620,2700150107324,新規,0,2022-03-09,2022-03-09,ＥＬＥＧＡＮＴ　ＥＮＴＥＲＰＲＩＳＥＳ,,外国会社等,茨城県,稲敷郡阿見町,うずら野４丁目６番１号コーポ大恵２０２,,08,443,3000341,スリランカ民主社会主義共和国、ブラレスガムワ、アンビッラワッタロード、カトゥワワラマワタ、１,,,,,,2022-03-09,1,,,,,エレガントエンタープライセス,0
631,3010001224981,新規,0,2022-03-09,2022-03-09,株式会社ＬａｐＹＳ,,株式会社,東京都,中央区,銀座１丁目２２番１１号銀座大竹ビジデンス２階,,13,102,1040061,,,,,,,2022-03-09,1,,,,,ラピス,0
632,3010001225030,新規,0,2022-03-09,2022-03-09,株式会社ＦＴＷＥＢ,,株式会社,東京都,千代田区,神田駿河台２丁目２番地,,13,101,1010062,,,,,,,2022-03-09,1,,,,,エフティウェブ,0
633,3010001225088,新規,0,2022-03-09,2022-03-09,Ｉｎｔｅｒｎａｔｉｏｎａｌ　Ｃａｒｅｅｒ　Ｄｅｖｅｌｏｐｍｅｎｔ株式会社,,株式会社,東京都,中央区,銀座１丁目２２番１号,,13,102,1040061,,,,,,,2022-03-09,1,,,,,インターナショナルキャリアディベロプメント,0
638,3010005034709,新規,0,2022-03-09,2022-03-09,ＤＴＲ３特定目的会社,,その他の設立登記法人,東京都,中央区,日本橋１丁目４番１号,,13,102,1030027,,,,,,,2022-03-09,1,,,,,ディティアールスリー,0
644,3010401166080,新規,0,2022-03-09,2022-03-09,株式会社Ｃｈａｎｇｅｂｏｘ,,株式会社,東京都,港区,虎ノ門３丁目１４番１パークコート虎ノ門１３０５,,13,103,1050001,,,,,,,2022-03-09,1,,,,,チェンジボックス,0
646,3010405020779,新規,0,2022-03-09,2022-03-09,一般社団法人笑顔プラス子供支援協会,,その他の設立登記法人,東京都,港区,南青山２丁目２番１５号,,13,103,1070062,,,,,,,2022-03-09,1,,,,,エガオプラスコドモシエンキョウカイ,0
654,3010701042353,新規,0,2022-03-09,2022-03-09,株式会社キカリ,,株式会社,東京都,品川区,東五反田１丁目６番３号,,13,109,1410022,,,,,,,2022-03-09,1,,,,,キカリ,0
662,3011001146068,新規,0,2022-03-09,2022-03-09,ＴＦＨＤ　ｄｉｇｉｔａｌ株式会社,,株式会社,東京都,渋谷区,道玄坂１丁目２１番１号,,13,113,1500043,,,,,,,2022-03-09,1,,,,,ティーエフエイチディーデジタル,0
663,3011001146150,新規,0,2022-03-09,2022-03-09,株式会社ＰＣＳ,,株式会社,東京都,渋谷区,神宮前６丁目２３番４号桑野ビル２階,,13,113,1500001,,,,,,,2022-03-09,1,,,,,ピーシーエス,0
665,3011101098085,新規,0,2022-03-09,2022-03-09,株式会社かるみ,,株式会社,東京都,新宿区,山吹町１２８番地１エクセレンテ神楽坂１１０２,,13,104,1620801,,,,,,,2022-03-09,1,,,,,カルミ,0
666,3011101098093,新規,0,2022-03-09,2022-03-09,株式会社グッドコムナビ,,株式会社,東京都,新宿区,西新宿７丁目２０番１号住友不動産西新宿ビル１７階,,13,104,1600023,,,,,,,2022-03-09,1,,,,,グッドコムナビ,0
667,3011101098110,新規,0,2022-03-09,2022-03-09,株式会社ＧＡＴ,,株式会社,東京都,新宿区,北新宿１丁目１６番地２７号鎌倉荘１０１号,,13,104,1690074,,,,,,,2022-03-09,1,,,,,ジーエーティー,0
668,3011103011541,新規,0,2022-03-09,2022-03-09,ザ・クレンズ合同会社,,合同会社,東京都,新宿区,築地町１７番地１,,13,104,1620818,,,,,,,2022-03-09,1,,,,,ザクレンズ,0
680,3011705001717,新規,0,2022-03-09,2022-03-09,一般社団法人錦帆日中文化交流協会,,その他の設立登記法人,東京都,江戸川区,平井１丁目１２番１８号,,13,123,1320035,,,,,,,2022-03-09,1,,,,,キンホニッチュウブンカコウリュウキョウカイ,0
683,3011801040429,新規,0,2022-03-09,2022-03-09,ルビデ株式会社,,株式会社,東京都,足立区,青井３丁目１０番２７号,,13,121,1200012,,,,,,,2022-03-09,1,,,,,ルビデ,0
687,3012401038945,新規,0,2022-03-09,2022-03-09,株式会社Ｐｉｃｋｐｉｃ,,株式会社,東京都,調布市,深大寺東町３丁目２６番地２４,,13,208,1820012,,,,,,,2022-03-09,1,,,,,ピックピック,0
688,3012403005274,新規,0,2022-03-09,2022-03-09,合同会社むさしの環境未来都市研究所,,合同会社,東京都,武蔵野市,吉祥寺本町１丁目２１－２－７０６グローリオ吉祥寺本町,,13,203,1800004,,,,,,,2022-03-09,1,,,,,ムサシノカンキョウミライトシケンキュウジョ,0
689,3012703002418,新規,0,2022-03-09,2022-03-09,合同会社シンプラン,,合同会社,東京都,小平市,花小金井６丁目１５番４号,,13,211,1870002,,,,,,,2022-03-09,1,,,,,シンプラン,0
692,3012803002722,新規,0,2022-03-09,2022-03-09,合同会社ＧＡＫＵ,,合同会社,東京都,立川市,錦町１丁目２番８号３Ｆ,,13,202,1900022,,,,,,,2022-03-09,1,,,,,ガク,0
696,3013301048786,新規,0,2022-03-09,2022-03-09,アイタトレーディング株式会社,,株式会社,東京都,豊島区,長崎２丁目２６－１５－２０２号,,13,116,1710051,,,,,,,2022-03-09,1,,,,,アイタトレーディング,0
708,3021001075381,新規,0,2022-03-09,2022-03-09,ヴェセル株式会社,,株式会社,神奈川県,横須賀市,米が浜通１丁目３番地,,14,201,2380011,,,,,,,2022-03-09,1,,,,,ヴェセル,0
715,3030001147165,新規,0,2022-03-09,2022-03-09,株式会社リアライズ,,株式会社,埼玉県,三郷市,上口１丁目１８７番地４,,11,237,3410055,,,,,,,2022-03-09,1,,,,,リアライズ,0
716,3030001147198,新規,0,2022-03-09,2022-03-09,瀧行株式会社,,株式会社,埼玉県,草加市,新里町５０５番地７,,11,221,3400031,,,,,,,2022-03-09,1,,,,,リョウアン,0
717,3030003018991,新規,0,2022-03-09,2022-03-09,合同会社チェンジ,,合同会社,埼玉県,戸田市,本町５丁目１４番１７号,,11,224,3350023,,,,,,,2022-03-09,1,,,,,チェンジ,0
727,3040001122547,新規,0,2022-03-09,2022-03-09,大鶴交易株式会社,,株式会社,千葉県,袖ケ浦市,奈良輪３３６番地,,12,229,2990263,,,,,,,2022-03-09,1,,,,,オオツルコウエキ,0
735,3040003019626,新規,0,2022-03-09,2022-03-09,合同会社ダイセン建設,,合同会社,千葉県,東金市,前之内２９０番地３７,,12,213,2830015,,,,,,,2022-03-09,1,,,,,ダイセンケンセツ,0
736,3040003019642,新規,0,2022-03-09,2022-03-09,バングラキッチン合同会社,,合同会社,千葉県,千葉市若葉区,大宮町２８８０－２１５,,12,104,2640016,,,,,,,2022-03-09,1,,,,,バングラキッチン,0
737,3040003019650,新規,0,2022-03-09,2022-03-09,合同会社ＯＣＥＡＮＣＩＴＹ,,合同会社,千葉県,千葉市美浜区,打瀬２丁目４番地パティオス１番街２０１号,,12,106,2610013,,,,,,,2022-03-09,1,,,,,オーシャンシティ,0
740,3060001034641,新規,0,2022-03-09,2022-03-09,株式会社ユープロジェクト,,株式会社,栃木県,宇都宮市,日の出２丁目２番７号,,09,201,3200832,,,,,,,2022-03-09,1,,,,,ユープロジェクト,0
742,3060003003974,新規,0,2022-03-09,2022-03-09,合同会社ライフサポート,,合同会社,栃木県,河内郡上三川町,大字上三川４７２６－４４ベルホームＩＩＢ２０３,00125905,09,301,3290611,,,,,,,2022-03-09,1,,,,,ライフサポート,0
748,3070001039029,新規,0,2022-03-09,2022-03-09,株式会社ＳＮＹＴ,,株式会社,群馬県,前橋市,下新田町８２７番地,,10,201,3710822,,,,,,,2022-03-09,1,,,,,エスエヌワイティー,0
778,3120001244300,新規,0,2022-03-09,2022-03-09,株式会社ａｍ,,株式会社,大阪府,大阪市西区,立売堀３丁目５番２０－８０１号,,27,106,5500012,,,,,,,2022-03-09,1,,,,,エーエム,0
779,3120001244333,新規,0,2022-03-09,2022-03-09,テクトカレッジ株式会社,,株式会社,大阪府,守口市,寺方錦通２丁目６－２１,,27,209,5700042,,,,,,,2022-03-09,1,,,,,テクトカレッジ,0
780,3120001244366,新規,0,2022-03-09,2022-03-09,日本介護総合パートナーズ株式会社,,株式会社,大阪府,大阪市淀川区,西中島５丁目７番１１号,,27,123,5320011,,,,,,,2022-03-09,1,,,,,ニホンカイゴソウゴウパートナーズ,0
781,3120001244399,新規,0,2022-03-09,2022-03-09,株式会社モグモグＣｏｍｐａｎｙ,,株式会社,大阪府,大阪市中央区,釣鐘町２丁目３番１４－３０１号,,27,128,5400035,,,,,,,2022-03-09,1,,,,,モグモグカンパニー,0
783,3120003021012,新規,0,2022-03-09,2022-03-09,合同会社ｅＬＡＮＴ,,合同会社,大阪府,大阪市北区,梅田１丁目１―３大阪駅前第３ビル２９階１―１―１号室,,27,127,5300001,,,,,,,2022-03-09,1,,,,,イーラント,0
786,3120101065159,新規,0,2022-03-09,2022-03-09,株式会社ＫｉｊｉＮ,,株式会社,大阪府,貝塚市,畠中１丁目２番１９号,,27,208,5970072,,,,,,,2022-03-09,1,,,,,キジン,0
791,3122001035654,新規,0,2022-03-09,2022-03-09,株式会社ＳＨＡＦＴ,,株式会社,大阪府,大東市,野崎４丁目７番１５号,,27,218,5740015,,,,,,,2022-03-09,1,,,,,シャフト,0
806,3140001125143,新規,0,2022-03-09,2022-03-09,株式会社アールドヴィーヴル,,株式会社,兵庫県,神戸市中央区,加納町２丁目１２番９号,,28,110,6500001,,,,,,,2022-03-09,1,,,,,アールドヴィーヴル,0
807,3140001125192,新規,0,2022-03-09,2022-03-09,スミアン株式会社,,株式会社,兵庫県,芦屋市,船戸町５－２６マリアキャリーヌビル,,28,206,6590093,,,,,,,2022-03-09,1,,,,,スミアン,0
813,3160001024038,新規,0,2022-03-09,2022-03-09,株式会社江洲経済研究所,,株式会社,滋賀県,高島市,新旭町安井川３００番地７,,25,212,5201533,,,,,,,2022-03-09,1,,,,,ゴウシュウケイザイケンキュウショ,0
814,3160005011057,新規,0,2022-03-09,2022-03-09,医療法人かがやき会,,その他の設立登記法人,滋賀県,草津市,追分南４丁目６番２３号,,25,206,5250048,,,,,,,2022-03-09,1,,,,,カガヤキカイ,0
824,3180001150360,新規,0,2022-03-09,2022-03-09,株式会社ｋａｎａｍｅｙａ,,株式会社,愛知県,名古屋市千種区,鍋屋上野町字東脇１０８９番地,,23,101,4640097,,,,,,,2022-03-09,1,,,,,カナメヤ,0
826,3180005019668,新規,0,2022-03-09,2022-03-09,弁護士法人河内法律事務所,,その他の設立登記法人,愛知県,名古屋市中区,新栄２丁目１番９号雲竜ビル西館１６階１６０５号,,23,106,4600007,,,,,,,2022-03-09,1,,,,,コウチホウリツジムショ,0
830,3190001029208,新規,0,2022-03-09,2022-03-09,ＨＡＫＡＭ　ＴＲＡＤＩＮＧ株式会社,,株式会社,三重県,桑名郡木曽岬町,大字富田子３００番地７第３グリーンハイツ３０２号,,24,303,4980813,,,,,,,2022-03-09,1,,,,,ハカムトレーディング,0
832,3190003003920,新規,0,2022-03-09,2022-03-09,亘商会合同会社,,合同会社,三重県,四日市市,川尻町２２０８番地,,24,202,5100871,,,,,,,2022-03-09,1,,,,,ワタルショウカイ,0
856,3290001096725,新規,0,2022-03-09,2022-03-09,株式会社Ｆａｍ　Ｓｍｉｌｅ,,株式会社,福岡県,大野城市,緑ケ丘１丁目４番７号,,40,219,8160961,,,,,,,2022-03-09,1,,,,,ファムスマイル,0
857,3290001096733,新規,0,2022-03-09,2022-03-09,株式会社ＶＩＳＩＯＮ,,株式会社,福岡県,福岡市南区,大楠３丁目１７番１７号アルティプラノ高宮５０１号,,40,134,8150082,,,,,,,2022-03-09,1,,,,,ビジョン,0
858,3290001096741,新規,0,2022-03-09,2022-03-09,株式会社Ｂｌｕｅ　Ｒｏｓｅ,,株式会社,福岡県,福岡市中央区,舞鶴１丁目８番２６－６３０号,,40,133,8100073,,,,,,,2022-03-09,1,,,,,ブルーローズ,0
871,3340001024564,新規,0,2022-03-09,2022-03-09,株式会社なんごくファーム,,株式会社,鹿児島県,霧島市,国分中央３丁目９番１３号,,46,218,8994332,,,,,,,2022-03-09,1,,,,,ナンゴクファーム,0
873,3340005009421,新規,0,2022-03-09,2022-03-09,医療法人稔会,,その他の設立登記法人,鹿児島県,鹿屋市,札元２丁目３７７１番地１１,,46,203,8930013,,,,,,,2022-03-09,1,,,,,ミノルカイ,0
876,3350003004043,新規,0,2022-03-09,2022-03-09,合同会社社会福祉塩路アグリ,,合同会社,宮崎県,宮崎市,大字恒久９７８番地４,,45,201,8800916,,,,,,,2022-03-09,1,,,,,シャカイフクシシオジアグリ,0
878,3360003011856,新規,0,2022-03-09,2022-03-09,合同会社マヤグスク商店,,合同会社,沖縄県,八重山郡竹富町,字南風見５０８－８９,,47,381,9071434,,,,,,,2022-03-09,1,,,,,マヤグスクショウテン,0
883,3380003005121,新規,0,2022-03-09,2022-03-09,合同会社相馬農林,,合同会社,福島県,相馬市,岩子字大迫５番地,,07,209,9760025,,,,,,,2022-03-09,1,,,,,ソウマノウリン,0
894,3430001086125,新規,0,2022-03-09,2022-03-09,ジャパンソーシャルデザイン株式会社,,株式会社,北海道,札幌市中央区,北五条西９丁目１１番地ジェミスＢＬＤ２階,,01,101,0600005,,,,,,,2022-03-09,1,,,,,ジャパンソーシャルデザイン,0
895,3430001086174,新規,0,2022-03-09,2022-03-09,株式会社あつまるべ,,株式会社,北海道,札幌市中央区,大通東４丁目４番地４４,,01,101,0600041,,,,,,,2022-03-09,1,,,,,アツマルベ,0
896,3430003013688,新規,0,2022-03-09,2022-03-09,ティグリス合同会社,,合同会社,北海道,札幌市豊平区,中の島一条１０丁目３番１０－３０５号,,01,105,0620921,,,,,,,2022-03-09,1,,,,,ティグリス,0
901,3500003002790,新規,0,2022-03-09,2022-03-09,合同会社サクラ,,合同会社,愛媛県,四国中央市,三島朝日１丁目６番３号,,38,213,7990403,,,,,,,2022-03-09,1,,,,,サクラ,0
913,4010003037183,新規,0,2022-03-09,2022-03-09,合同会社こうたろう,,合同会社,東京都,文京区,本郷４丁目１番１号玉屋ビル３階,,13,105,1130033,,,,,,,2022-03-09,1,,,,,コウタロウ,0
914,4010003037200,新規,0,2022-03-09,2022-03-09,アセットマネジメントパートナーズ合同会社,,合同会社,東京都,中央区,日本橋富沢町４番１０号,,13,102,1030006,,,,,,,2022-03-09,1,,,,,アセットマネジメントパートナーズ,0
916,4010005034699,新規,0,2022-03-09,2022-03-09,ＪＳＡ同業交流協同組合,,その他の設立登記法人,東京都,千代田区,神田三崎町３丁目３番２０号ＶＯＲＴ水道橋２,,13,101,1010061,,,,,,,2022-03-09,1,,,,,ジェイエスエイドウギョウコウリュウ,0
922,4010401166071,新規,0,2022-03-09,2022-03-09,アナザー・ラボ株式会社,,株式会社,東京都,港区,南青山２丁目２番１５号ウィン青山９４２,,13,103,1070062,,,,,,,2022-03-09,1,,,,,アナザーラボ,0
923,4010401166096,新規,0,2022-03-09,2022-03-09,株式会社ナレッジ,,株式会社,東京都,港区,赤坂７丁目５番１０－２０９号,,13,103,1070052,,,,,,,2022-03-09,1,,,,,ナレッジ,0
927,4010403027214,新規,0,2022-03-09,2022-03-09,Ｂａｈａｍｕｔ合同会社,,合同会社,東京都,港区,西新橋１丁目２番９号,,13,103,1050003,,,,,,,2022-03-09,1,,,,,バハムート,0
928,4010403027239,新規,0,2022-03-09,2022-03-09,合同会社ＷＷ１６８コンサルティング,,合同会社,東京都,港区,芝３丁目３２－１０－１１０２,,13,103,1050014,,,,,,,2022-03-09,1,,,,,ダブリュダブリュイチロクハチコンサルティング,0
937,4010701042352,新規,0,2022-03-09,2022-03-09,株式会社Ｚｅｎ,,株式会社,東京都,品川区,東五反田１丁目１７番７号,,13,109,1410022,,,,,,,2022-03-09,1,,,,,ゼン,0
939,4010801032757,新規,0,2022-03-09,2022-03-09,株式会社ＳＵＳＵＫＩＮＯ,,株式会社,東京都,大田区,上池台４丁目４１番１号,,13,111,1450064,,,,,,,2022-03-09,1,,,,,ススキノ,0
942,4010901050493,新規,0,2022-03-09,2022-03-09,株式会社パドル,,株式会社,東京都,世田谷区,鎌田２丁目５番５号,,13,112,1570077,,,,,,,2022-03-09,1,,,,,パドル,0
943,4010903007211,新規,0,2022-03-09,2022-03-09,合同会社ＩＴＫ,,合同会社,東京都,世田谷区,三宿１丁目８番１０－４１８号,,13,112,1540005,,,,,,,2022-03-09,1,,,,,アイティーケー,0
958,4011001146174,新規,0,2022-03-09,2022-03-09,ＴＭＢパートナーズ株式会社,,株式会社,東京都,渋谷区,神宮前６丁目２３番４号桑野ビル２階,,13,113,1500001,,,,,,,2022-03-09,1,,,,,ティーエムビーパートナーズ,0
959,4011001146182,新規,0,2022-03-09,2022-03-09,株式会社フォートップスキャスト,,株式会社,東京都,渋谷区,宇田川町１番１２－２６０４号,,13,113,1500042,,,,,,,2022-03-09,1,,,,,フォートップスキャスト,0
961,4011005009476,新規,0,2022-03-09,2022-03-09,一般社団法人中小企業からニッポンを元気にプロジェクト,,その他の設立登記法人,東京都,渋谷区,円山町３番６号Ｅ・スペースタワー４階,,13,113,1500044,,,,,,,2022-03-09,1,,,,,チュウショウキギョウカラニッポンヲゲンキニプロジェクト,0
966,4011101098035,新規,0,2022-03-09,2022-03-09,ＯＰＥＮＬＭ　ＪＡＰＡＮ株式会社,,株式会社,東京都,新宿区,新宿２丁目２－１０サニープラザ新宿御苑６０５,,13,104,1600022,,,,,,,2022-03-09,1,,,,,オープンエルエムジャパン,0
967,4011103011549,新規,0,2022-03-09,2022-03-09,合同会社御真人,,合同会社,東京都,新宿区,高田馬場３丁目１番地３ＴＹＨＯＭＥ,,13,104,1690075,,,,,,,2022-03-09,1,,,,,ウマンチュ,0
984,4012403005273,新規,0,2022-03-09,2022-03-09,Ｒｅｔａｉｌ　Ｄｅｓｉｇｎ　Ｐａｒｔｎｅｒｓ合同会社,,合同会社,東京都,武蔵野市,境南町２丁目２６番２８－５１２号,,13,203,1800023,,,,,,,2022-03-09,1,,,,,リテイルデザインパートナーズ,0
985,4012803002713,新規,0,2022-03-09,2022-03-09,合同会社国立サニービル,,合同会社,東京都,国立市,東１丁目１５番地の２２,,13,215,1860002,,,,,,,2022-03-09,1,,,,,クニタチサニービル,0
989,4013301048760,新規,0,2022-03-09,2022-03-09,株式会社Ｔ＆Ｗオフィス,,株式会社,東京都,豊島区,東池袋３丁目１番１号,,13,116,1700013,,,,,,,2022-03-09,1,,,,,ティーアンドダブリューオフィス,0
990,4013303006064,新規,0,2022-03-09,2022-03-09,合同会社杉山教育研究会,,合同会社,東京都,豊島区,巣鴨４丁目７番地６号シャトーエスペール３０１,,13,116,1700002,,,,,,,2022-03-09,1,,,,,スギヤマキョウイクケンキュウカイ,0
996,4020001145581,新規,0,2022-03-09,2022-03-09,株式会社木春,,株式会社,神奈川県,川崎市川崎区,浅田１丁目６番１－３１４号,,14,131,2100847,,,,,,,2022-03-09,1,,,,,キシュン,0
1007,4021001075406,新規,0,2022-03-09,2022-03-09,クレア株式会社,,株式会社,神奈川県,綾瀬市,落合南１丁目１６番２１号,,14,218,2521115,,,,,,,2022-03-09,1,,,,,クレア,0
1011,4021003011458,新規,0,2022-03-09,2022-03-09,合同会社空想工房,,合同会社,神奈川県,足柄上郡松田町,松田庶子７２０,,14,363,2580004,,,,,,,2022-03-09,1,,,,,クウソウコウボウ,0
1020,4030001147172,新規,0,2022-03-09,2022-03-09,株式会社ＭＨ,,株式会社,埼玉県,さいたま市岩槻区,大字尾ケ崎６５５番地,,11,110,3390027,,,,,,,2022-03-09,1,,,,,エムエイチ,0
1021,4030001147197,新規,0,2022-03-09,2022-03-09,株式会社翔輝,,株式会社,埼玉県,所沢市,松葉町１１－１３Ｂ１Ｆ,,11,208,3590044,,,,,,,2022-03-09,1,,,,,ショウキ,0
1025,4030005020747,新規,0,2022-03-09,2022-03-09,コスモ川口並木町北公園管理組合法人,,その他の設立登記法人,埼玉県,川口市,並木２丁目４番１７号コスモ川口並木町北公園管理事務室,,11,203,3320034,,,,,,,2022-03-09,1,,,,,コスモカワグチナミキチョウキタコウエン,0
1033,4040005021538,新規,0,2022-03-09,2022-03-09,国際協力協同組合,,その他の設立登記法人,千葉県,茂原市,大芝４１１番地８,,12,210,2970033,,,,,,,2022-03-09,1,,,,,コクサイキョウリョク,0
1039,4060001034640,新規,0,2022-03-09,2022-03-09,株式会社コミュニティラボ,,株式会社,栃木県,塩谷郡高根沢町,宝石台２丁目１－１,,09,386,3291231,,,,,,,2022-03-09,1,,,,,コミュニティラボ,0
1041,4060003003973,新規,0,2022-03-09,2022-03-09,合同会社Ｂ＆Ｐインターナショナル,,合同会社,栃木県,鹿沼市,塩山町８０６番地２,,09,205,3220527,,,,,,,2022-03-09,1,,,,,ビーアンドピーインターナショナル,0
1042,4070001039028,新規,0,2022-03-09,2022-03-09,株式会社コネクトハーツ,,株式会社,群馬県,高崎市,江木町４９１番地１０,,10,202,3700046,,,,,,,2022-03-09,1,,,,,コネクトハーツ,0
1056,4100005012836,新規,0,2022-03-09,2022-03-09,一般社団法人助産院おりん,,その他の設立登記法人,長野県,北安曇郡池田町,大字会染２１３番地１,,20,481,3998602,,,,,,,2022-03-09,1,,,,,ジョサンインオリン,0
1061,4120001244332,新規,0,2022-03-09,2022-03-09,アレイズクリエイト株式会社,,株式会社,大阪府,守口市,寺方錦通２丁目６－２１,,27,209,5700042,,,,,,,2022-03-09,1,,,,,アレイズクリエイト,0
1062,4120001244357,新規,0,2022-03-09,2022-03-09,株式会社ネクサス,,株式会社,大阪府,大阪市東淀川区,豊新５丁目１６番１０号,,27,114,5330014,,,,,,,2022-03-09,1,,,,,ネクサス,0
1063,4120001244365,新規,0,2022-03-09,2022-03-09,株式会社ｋａｔｔａｉｌ,,株式会社,大阪府,大阪市西区,西本町１丁目１３番３８号西本町新興産ビル９Ｆ,,27,106,5500005,,,,,,,2022-03-09,1,,,,,キャットテイル,0
1071,4122001035653,新規,0,2022-03-09,2022-03-09,株式会社最先端技術研究所,,株式会社,大阪府,東大阪市,俊徳町４丁目９番３５号,,27,227,5770831,,,,,,,2022-03-09,1,,,,,サイセンタンギジュツケンキュウショ,0
1081,4130005016405,新規,0,2022-03-09,2022-03-09,一般社団法人京都文化・芸術・スポーツ振興会,,その他の設立登記法人,京都府,京都市下京区,中堂寺南町１０５番地６０６,,26,106,6008813,,,,,,,2022-03-09,1,,,,,キョウトブンカゲイジュツスポーツシンコウカイ,0
1098,4140001125101,新規,0,2022-03-09,2022-03-09,株式会社畑田工務店,,株式会社,兵庫県,丹波市,春日町多利１８２１番地２,,28,223,6694123,,,,,,,2022-03-09,1,,,,,ハタダコウムテン,0
1099,4140001125142,新規,0,2022-03-09,2022-03-09,株式会社セリザワグラツィア,,株式会社,兵庫県,神戸市中央区,加納町２丁目１２番９号,,28,110,6500001,,,,,,,2022-03-09,1,,,,,セリザワグラツィア,0
1100,4140001125183,新規,0,2022-03-09,2022-03-09,株式会社Ｌａｐｉｎ,,株式会社,兵庫県,高砂市,荒井町御旅２丁目１０番２３号,,28,216,6760005,,,,,,,2022-03-09,1,,,,,ラピン,0
1101,4140001125200,新規,0,2022-03-09,2022-03-09,株式会社エフドラド,,株式会社,兵庫県,西宮市,鳴尾町３丁目１番１８号,,28,204,6638184,,,,,,,2022-03-09,1,,,,,エフドラド,0
1117,4180001150228,新規,0,2022-03-09,2022-03-09,株式会社瀬戸市立図書館用図書納入組合,,株式会社,愛知県,瀬戸市,末広町２丁目１４番地,,23,204,4890814,,,,,,,2022-03-09,1,,,,,セトシリツトショカンヨウトショノウニュウクミアイ,0
1118,4180001150319,新規,0,2022-03-09,2022-03-09,株式会社ＫＩＲｉＹＡ,,株式会社,愛知県,名古屋市名東区,藤森西町１８０６番地,,23,115,4650022,,,,,,,2022-03-09,1,,,,,キリヤ,0
1123,4180003023596,新規,0,2022-03-09,2022-03-09,合同会社ワイズワン札幌手稲,,合同会社,愛知県,名古屋市中区,栄２丁目３番１号名古屋広小路ビルヂング１７階,,23,106,4600008,,,,,,,2022-03-09,1,,,,,ワイズワンサッポロテイネ,0
1151,4290001096666,新規,0,2022-03-09,2022-03-09,株式会社Ｌｏｊｉｈａｎ,,株式会社,福岡県,久留米市,梅満町１３８番地１,,40,203,8300048,,,,,,,2022-03-09,1,,,,,ロジハン,0
1152,4290001096716,新規,0,2022-03-09,2022-03-09,株式会社ＵＮＫＡＮＧＩＫＯＮ,,株式会社,福岡県,福岡市中央区,舞鶴２丁目３番２１号,,40,133,8100073,,,,,,,2022-03-09,1,,,,,ウンカンギコン,0
1154,4290003012258,新規,0,2022-03-09,2022-03-09,合同会社４ＷＤ　ＦＲＥＡＫＳ,,合同会社,福岡県,三井郡大刀洗町,大字鵜木１３０３番地８,,40,503,8301224,,,,,,,2022-03-09,1,,,,,ヨンダブリューディーフリークス,0
1156,4290805009534,新規,0,2022-03-09,2022-03-09,一般社団法人国際芸術科学医療大学設立準備会,,その他の設立登記法人,福岡県,北九州市小倉北区,砂津２丁目６－２１カミサトビル２０３,,40,106,8020014,,,,,,,2022-03-09,1,,,,,コクサイゲイジュツカガクイリョウダイガクセツリツジュンビカイ,0
1161,4310003004302,新規,0,2022-03-09,2022-03-09,合同会社コンテントメント,,合同会社,長崎県,長崎市,大黒町１０－１０ＫｏＫｏＲｏビル６ＥＷ号室,,42,201,8500057,,,,,,,2022-03-09,1,,,,,コンテントメント,0
1170,4330001029522,新規,0,2022-03-09,2022-03-09,株式会社源耀,,株式会社,熊本県,熊本市北区,植木町平井９８６番地１・Ｂ倉庫,,43,105,8610121,,,,,,,2022-03-09,1,,,,,ゲンキ,0
1175,4340005009420,新規,0,2022-03-09,2022-03-09,医療法人彰美会,,その他の設立登記法人,鹿児島県,鹿児島市,荒田２丁目３１番１号有村ビル１Ｆ,,46,201,8900054,,,,,,,2022-03-09,1,,,,,ショウビカイ,0
1177,4360001030080,新規,0,2022-03-09,2022-03-09,株式会社ＴＨＥ　ＤＡＩＤＯ,,株式会社,沖縄県,那覇市,字大道１５番地レーヴグランディ大道９０２,,47,201,9020066,,,,,,,2022-03-09,1,,,,,ザダイドウ,0
1179,4360003011847,新規,0,2022-03-09,2022-03-09,合同会社ライフサポート,,合同会社,沖縄県,石垣市,字新川１５１０番地１６１サンハイムやひろＡ１－１,,47,207,9070024,,,,,,,2022-03-09,1,,,,,ライフサポート,0
1183,4370001048295,新規,0,2022-03-09,2022-03-09,株式会社ＳＥＫＡＩ,,株式会社,宮城県,仙台市青葉区,八幡３丁目３番１５号セグローラ八幡１Ｆ,,04,101,9800871,,,,,,,2022-03-09,1,,,,,セカイ,0
1196,4390005008946,新規,0,2022-03-09,2022-03-09,農事組合法人高橋農産,00125903,その他の設立登記法人,山形県,酒田市,飯森山２丁目３９番地の１,,06,204,9980055,,,,,,,2022-03-09,1,,,,,タカハシノウサン,0
1200,4430001086108,新規,0,2022-03-09,2022-03-09,株式会社ＮＡＲＵＭＩ,,株式会社,北海道,札幌市北区,北三十条西１３丁目３番１２号,,01,102,0010030,,,,,,,2022-03-09,1,,,,,ナルミ,0
1201,4430001086173,新規,0,2022-03-09,2022-03-09,株式会社トライアド,,株式会社,北海道,札幌市中央区,界川２丁目６番２４号,,01,101,0640943,,,,,,,2022-03-09,1,,,,,トライアド,0
1203,4430003013687,新規,0,2022-03-09,2022-03-09,合同会社未来公社,,合同会社,北海道,札幌市白石区,本郷通１丁目北２番５号高砂マンション５号室,,01,104,0030025,,,,,,,2022-03-09,1,,,,,ミライコウシャ,0
1204,4430003013695,新規,0,2022-03-09,2022-03-09,合同会社Ａｓｓｏｃｉａｔｅ,,合同会社,北海道,札幌市豊平区,水車町２丁目３－２３－５,,01,105,0620912,,,,,,,2022-03-09,1,,,,,アソシエイト,0
1213,4700150107314,新規,0,2022-03-09,2022-03-09,Ｐｕｒｅｓｐｉｒｉｔｏｒｉｅｎｔ駐在員事務所,,外国会社等,東京都,港区,三田４丁目１９－２５－４０３,,13,103,1080073,Ｐｕｒｅ　Ｓｐｉｒｉｔ　ＬＬＣ６３　Ｗａｔｅｒｓ　Ｅｄｇｅ　ｒｏａｄＳｏｕｔｈａｍｐｔｏｎ　１１９６８　ＮＹ,,,,,,2022-03-09,1,,,,,ピユアスピリツトオリエンチユウザイインジムシヨ,0
1217,5010001224996,新規,0,2022-03-09,2022-03-09,株式会社ラップ・コンサルティング,,株式会社,東京都,中央区,銀座６丁目１３番１６号銀座Ｗａｌｌビル５階,,13,102,1040061,,,,,,,2022-03-09,1,,,,,ラップコンサルティング,0
1218,5010001225020,新規,0,2022-03-09,2022-03-09,株式会社オフィスみやま,,株式会社,東京都,文京区,春日２丁目１２番９号春日コートハウス４０１,,13,105,1120003,,,,,,,2022-03-09,1,,,,,オフィスミヤマ,0
1219,5010001225045,新規,0,2022-03-09,2022-03-09,ＳＰＨＡＥＲＡ株式会社,,株式会社,東京都,中央区,銀座１丁目２２番１１号銀座大竹ビジデンス２階,,13,102,1040061,,,,,,,2022-03-09,1,,,,,スパエラ,0
1220,5010001225078,新規,0,2022-03-09,2022-03-09,株式会社ＬＩＮＫホールディングス,,株式会社,東京都,中央区,銀座１丁目２２番１１号銀座大竹ビジデンス２階,,13,102,1040061,,,,,,,2022-03-09,1,,,,,リンクホールディングス,0
1221,5010001225086,新規,0,2022-03-09,2022-03-09,株式会社中益,,株式会社,東京都,文京区,小石川４丁目２０番４号第１８シグマビルディング６０２号室,,13,105,1120002,,,,,,,2022-03-09,1,,,,,ナカマス,0
1222,5010001225094,新規,0,2022-03-09,2022-03-09,株式会社ケースリー,,株式会社,東京都,千代田区,神田須田町２丁目２番地３ＩＴＣ神田須田町ビル６Ｆ,,13,101,1010041,,,,,,,2022-03-09,1,,,,,ケースリー,0
1223,5010001225128,新規,0,2022-03-09,2022-03-09,蘭傑健康産業発展株式会社,,株式会社,東京都,中央区,東日本橋２丁目２８番４号日本橋ＣＥＴビル２階,,13,102,1030004,,,,,,,2022-03-09,1,,,,,ランケツケンコウサンギョウハッテン,0
1228,5010005034707,新規,0,2022-03-09,2022-03-09,一般社団法人あんばいＬＢ３号,,その他の設立登記法人,東京都,千代田区,霞が関３丁目２番５号,,13,101,1000013,,,,,,,2022-03-09,1,,,,,アンバイエルビーサンゴウ,0
1229,5010005034715,新規,0,2022-03-09,2022-03-09,一般社団法人ＴＬＤファンドマネジメント,,その他の設立登記法人,東京都,中央区,日本橋１丁目４番１号,,13,102,1030027,,,,,,,2022-03-09,1,,,,,ティーエルディーファンドマネジメント,0
1241,5010403027246,新規,0,2022-03-09,2022-03-09,ＭＦＪＰＮ１Ｃ合同会社,,合同会社,東京都,港区,虎ノ門３丁目２２番１０－２０１号,,13,103,1050001,,,,,,,2022-03-09,1,,,,,エムエフジェイピーエヌワンシー,0
1243,5010405020793,新規,0,2022-03-09,2022-03-09,ジャパン・サステナビリティ推進一般社団法人,,その他の設立登記法人,東京都,港区,赤坂１丁目１２番３２号アーク森ビルＣｅｎｘｕｓ税理士法人内,,13,103,1070052,,,,,,,2022-03-09,1,,,,,ジャパンサステナビリティスイシン,0
1248,5010601060809,新規,0,2022-03-09,2022-03-09,株式会社向上心,,株式会社,東京都,江東区,亀戸９丁目３４番１－１０４９号,,13,108,1360071,,,,,,,2022-03-09,1,,,,,コウジョウシン,0
1249,5010603009424,新規,0,2022-03-09,2022-03-09,ディーカンパニー合同会社,,合同会社,東京都,江東区,豊洲３丁目４番２－１９０６号,,13,108,1350061,,,,,,,2022-03-09,1,,,,,ディーカンパニー,0
1250,5010701042343,新規,0,2022-03-09,2022-03-09,新明サービス株式会社,,株式会社,東京都,品川区,西中延３丁目２番１７－７６０６号,,13,109,1420054,,,,,,,2022-03-09,1,,,,,シンメイサービス,0
1251,5010701042351,新規,0,2022-03-09,2022-03-09,株式会社エークラフト,,株式会社,東京都,品川区,南大井１丁目１９番５号クオレ南大井３０１,,13,109,1400013,,,,,,,2022-03-09,1,,,,,エークラフト,0
1253,5010805002920,新規,0,2022-03-09,2022-03-09,弁護士法人稲葉セントラル法律事務所,,その他の設立登記法人,東京都,大田区,蒲田５丁目１５番８号,,13,111,1440052,,,,,,,2022-03-09,1,,,,,イナバセントラルホウリツジムショ,0
1255,5010901050492,新規,0,2022-03-09,2022-03-09,株式会社ｅｓｔｏ,,株式会社,東京都,世田谷区,中町１丁目１２－１,,13,112,1580091,,,,,,,2022-03-09,1,,,,,エスト,0
1267,5011005009475,新規,0,2022-03-09,2022-03-09,一般社団法人人事からニッポンを元気にプロジェクト,,その他の設立登記法人,東京都,渋谷区,円山町３番６号Ｅ・スペースタワー４階,,13,113,1500044,,,,,,,2022-03-09,1,,,,,ジンジカラニッポンヲゲンキニプロジェクト,0
1268,5011005009483,新規,0,2022-03-09,2022-03-09,一般社団法人智莱会,00125920,その他の設立登記法人,東京都,目黒区,目黒１丁目２－２３グランドヒルズ目黒一丁目,,13,110,1530063,,,,,,,2022-03-09,1,,,,,トモリカイ,0
1276,5011101098083,新規,0,2022-03-09,2022-03-09,株式会社イーグル,,株式会社,東京都,新宿区,西新宿３丁目２０番２号,,13,104,1600023,,,,,,,2022-03-09,1,,,,,イーグル,0
1278,5011103011548,新規,0,2022-03-09,2022-03-09,合同会社ＣｏｄｅＵｐｓ,,合同会社,東京都,新宿区,西新宿３丁目３番１３号西新宿水間ビル６階,,13,104,1600023,,,,,,,2022-03-09,1,,,,,コードアップス,0
1282,5011401024078,新規,0,2022-03-09,2022-03-09,株式会社義匠,,株式会社,東京都,板橋区,大山町３番３号コーポウエダ３Ｆ,,13,119,1730023,,,,,,,2022-03-09,1,,,,,ギショウ,0
1288,5011801040427,新規,0,2022-03-09,2022-03-09,東昇株式会社,,株式会社,東京都,葛飾区,東金町１丁目１９番１号２０１号室,,13,122,1250041,,,,,,,2022-03-09,1,,,,,トウショウ,0
1290,5011803004999,新規,0,2022-03-09,2022-03-09,トライセンス合同会社,,合同会社,東京都,葛飾区,東金町１丁目４５－１２,,13,122,1250041,,,,,,,2022-03-09,1,,,,,トライセンス,0
1293,5012703002416,新規,0,2022-03-09,2022-03-09,合同会社ａｎｔ‐ｉｎ‐ｇｉａｎｔ,,合同会社,東京都,清瀬市,竹丘２丁目２番３８号清瀬パークハウス２０５号,,13,221,2040023,,,,,,,2022-03-09,1,,,,,アントインジャイアント,0
1301,5020001145564,新規,0,2022-03-09,2022-03-09,株式会社コネクトコミュニケーション,,株式会社,神奈川県,川崎市宮前区,菅生３丁目３３番１４－１号,,14,136,2160015,,,,,,,2022-03-09,1,,,,,コネクトコミュニケーション,0
1309,5020003021433,新規,0,2022-03-09,2022-03-09,あぶみアセット合同会社,,合同会社,神奈川県,横浜市都筑区,牛久保西２丁目２番６号,,14,118,2240015,,,,,,,2022-03-09,1,,,,,アブミアセット,0
1322,5030001147163,新規,0,2022-03-09,2022-03-09,株式会社イーグルワン,,株式会社,埼玉県,越谷市,花田５丁目２番地６,,11,222,3430015,,,,,,,2022-03-09,1,,,,,イーグルワン,0
1323,5030001147171,新規,0,2022-03-09,2022-03-09,株式会社船本農園,,株式会社,埼玉県,朝霞市,根岸台２丁目２番７６号,,11,227,3510005,,,,,,,2022-03-09,1,,,,,フナモトノウエン,0
1324,5030001147205,新規,0,2022-03-09,2022-03-09,興和管理株式会社,,株式会社,埼玉県,川口市,本町１丁目７番１８号,,11,203,3320012,,,,,,,2022-03-09,1,,,,,コウワカンリ,0
1331,5030003018899,新規,0,2022-03-09,2022-03-09,合同会社いい仕事Ｌａｂ．,,合同会社,埼玉県,さいたま市北区,奈良町１３６番地４９－２－４０１,,11,102,3310822,,,,,,,2022-03-09,1,,,,,イイシゴトラボ,0
1332,5030003018998,新規,0,2022-03-09,2022-03-09,ＫＡＭＥ合同会社,,合同会社,埼玉県,さいたま市南区,沼影１丁目１２番１－２００７号,,11,108,3360027,,,,,,,2022-03-09,1,,,,,カメ,0
1337,5040001122512,新規,0,2022-03-09,2022-03-09,株式会社ＧＬｉＤ,,株式会社,千葉県,習志野市,実籾６丁目１８番１号,,12,216,2750002,,,,,,,2022-03-09,1,,,,,グリッド,0
1338,5040001122553,新規,0,2022-03-09,2022-03-09,浩印商事株式会社,,株式会社,千葉県,白井市,根下郷谷９－１,,12,232,2701431,,,,,,,2022-03-09,1,,,,,コウインショウジ,0
1339,5040001122561,新規,0,2022-03-09,2022-03-09,株式会社スプーム,,株式会社,千葉県,市川市,南大野３丁目２２番１９号,,12,203,2720804,,,,,,,2022-03-09,1,,,,,スプーム,0
1351,5060003003972,新規,0,2022-03-09,2022-03-09,合同会社ＴＯＣＨＩＲＥＮ,,合同会社,栃木県,足利市,福富町１１４２－１,,09,202,3260331,,,,,,,2022-03-09,1,,,,,トチレン,0
1367,5120001244331,新規,0,2022-03-09,2022-03-09,株式会社第二山本モータープール,,株式会社,大阪府,枚方市,出口３丁目７番１３号,,27,210,5730065,,,,,,,2022-03-09,1,,,,,ダイニヤマモトモータープール,0
1368,5120001244348,新規,0,2022-03-09,2022-03-09,株式会社ＳｕｚｉｅＱ,,株式会社,大阪府,大阪市北区,中津２丁目８番Ｃ－３０５号,,27,127,5310071,,,,,,,2022-03-09,1,,,,,スージーキュー,0
1369,5120001244372,新規,0,2022-03-09,2022-03-09,フレイ・アンド・テクノロジーズ株式会社,,株式会社,大阪府,大阪市浪速区,日本橋３丁目３番２５－７０２号,,27,111,5560005,,,,,,,2022-03-09,1,,,,,フレイアンドテクノロジーズ,0
1386,5140001125182,新規,0,2022-03-09,2022-03-09,リビテック関西株式会社,,株式会社,兵庫県,西宮市,山口町船坂１７９番地,,28,204,6511423,,,,,,,2022-03-09,1,,,,,リビテックカンサイ,0
1388,5140003017428,新規,0,2022-03-09,2022-03-09,合同会社ラフメイカー,,合同会社,兵庫県,芦屋市,若葉町５番１－１９４３号,,28,206,6590041,,,,,,,2022-03-09,1,,,,,ラフメイカー,0
1389,5140005026063,新規,0,2022-03-09,2022-03-09,一般社団法人こうて,,その他の設立登記法人,兵庫県,神戸市中央区,下山手通４丁目１４番２号ファーストビルなん天,,28,110,6500011,,,,,,,2022-03-09,1,,,,,コウテ,0
1399,5180001150193,新規,0,2022-03-09,2022-03-09,株式会社ハナキューデンタルラボ,,株式会社,愛知県,名古屋市中川区,十番町４丁目９番地,,23,110,4540055,,,,,,,2022-03-09,1,,,,,ハナキューデンタルラボ,0
1403,5180003023595,新規,0,2022-03-09,2022-03-09,合同会社ワイズワン三重松阪,,合同会社,愛知県,名古屋市中区,栄２丁目３番１号名古屋広小路ビルヂング１７階,,23,106,4600008,,,,,,,2022-03-09,1,,,,,ワイズワンミエマツサカ,0
1406,5180005019666,新規,0,2022-03-09,2022-03-09,一般社団法人日本暮らしの文化交流協会,,その他の設立登記法人,愛知県,名古屋市千種区,日岡町１丁目３１番地の１,,23,101,4640834,,,,,,,2022-03-09,1,,,,,ニホンクラシノブンカコウリュウキョウカイ,0
1415,5190001029206,新規,0,2022-03-09,2022-03-09,株式会社Ｒｅ．Ｌｉｆｅ,,株式会社,三重県,松阪市,殿町１２３４番地７,,24,204,5150073,,,,,,,2022-03-09,1,,,,,リライフ,0
1418,5200001039847,新規,0,2022-03-09,2022-03-09,株式会社ターセルトレーディングカンパニー,,株式会社,岐阜県,関市,四季ノ台３番１９号,,21,205,5013935,,,,,,,2022-03-09,1,,,,,ターセルトレーディングカンパニー,0
1420,5210001018841,新規,0,2022-03-09,2022-03-09,リフォール株式会社,,株式会社,福井県,福井市,木田１丁目３４１５番地,,18,201,9188105,,,,,,,2022-03-09,1,,,,,リフォール,0
1431,5270001008473,新規,0,2022-03-09,2022-03-09,株式会社あいホーム工房,,株式会社,鳥取県,鳥取市,湖山町北４丁目７８５番地,,31,201,6800941,,,,,,,2022-03-09,1,,,,,アイホームコウボウ,0
1435,5290001096616,新規,0,2022-03-09,2022-03-09,株式会社ＧＲＯＵＮＤ　ＯＣＥＡＮ,,株式会社,福岡県,宗像市,赤間３丁目８番１７号,,40,220,8114146,,,,,,,2022-03-09,1,,,,,グランドオーシャン,0
1439,5290003012257,新規,0,2022-03-09,2022-03-09,合同会社ＡＴＭＧ,,合同会社,福岡県,久留米市,小頭町９－５江上ビル１０１,,40,203,8300045,,,,,,,2022-03-09,1,,,,,エーティーエムジー,0
1476,5430001086164,新規,0,2022-03-09,2022-03-09,株式会社くどう農園,,株式会社,北海道,石狩市,緑苑台東三条１丁目１０２番地２,,01,235,0613223,,,,,,,2022-03-09,1,,,,,クドウノウエン,0
1491,6010001225003,新規,0,2022-03-09,2022-03-09,ＯＣＥＡＮ　ＢＬＵＥ　ＪＡＰＡＮ株式会社,,株式会社,東京都,中央区,新川２丁目８番４号ナカリンオートビル４Ｆ,,13,102,1040033,,,,,,,2022-03-09,1,,,,,オーシャンブルージャパン,0
1500,6010003037181,新規,0,2022-03-09,2022-03-09,ＭＵＴＳＵ合同会社,,合同会社,東京都,中央区,月島１丁目８番１号アイマークタワー１２０７,,13,102,1040052,,,,,,,2022-03-09,1,,,,,ムツ,0
1501,6010003037198,新規,0,2022-03-09,2022-03-09,合同会社ボンドブリッジ・ワン,,合同会社,東京都,千代田区,丸の内１丁目３番２号,,13,101,1000005,,,,,,,2022-03-09,1,,,,,ボンドブリッジワン,0
1511,6010401166103,新規,0,2022-03-09,2022-03-09,株式会社Ｈ２ＫＭ,,株式会社,東京都,港区,麻布十番４丁目１番８－１２０６,,13,103,1060045,,,,,,,2022-03-09,1,,,,,エイチツーケーエム,0
1517,6010403027245,新規,0,2022-03-09,2022-03-09,ＭＦＪＰＮ１Ｂ合同会社,,合同会社,東京都,港区,虎ノ門３丁目２２番１０－２０１号,,13,103,1050001,,,,,,,2022-03-09,1,,,,,エムエフジェイピーエヌワンビー,0
1521,6010605004050,新規,0,2022-03-09,2022-03-09,医療法人社団Ｐｒｅｃｉｏｕｓ,,その他の設立登記法人,東京都,江東区,大島８丁目２３番５号第２佐藤ビル１階,,13,108,1360072,,,,,,,2022-03-09,1,,,,,プレシャス,0
1524,6010701042350,新規,0,2022-03-09,2022-03-09,株式会社戸一,,株式会社,東京都,品川区,二葉４丁目１１番１２号,,13,109,1420043,,,,,,,2022-03-09,1,,,,,トイチ,0
1528,6010801032788,新規,0,2022-03-09,2022-03-09,株式会社ウエダ,,株式会社,東京都,大田区,西蒲田７丁目６４番８号峰ビル１階,,13,111,1440051,,,,,,,2022-03-09,1,,,,,ウエダ,0
1538,6011001146222,新規,0,2022-03-09,2022-03-09,株式会社ニューホライゾン,,株式会社,東京都,目黒区,東が丘２丁目１４番１８号,,13,110,1520021,,,,,,,2022-03-09,1,,,,,ニューホライゾン,0
1540,6011003014311,新規,0,2022-03-09,2022-03-09,合同会社トレアド,,合同会社,東京都,渋谷区,神宮前６丁目２３番４号,,13,113,1500001,,,,,,,2022-03-09,1,,,,,トレアド,0
1541,6011005009482,新規,0,2022-03-09,2022-03-09,一般社団法人未来の企業価値研究会,,その他の設立登記法人,東京都,渋谷区,広尾１丁目６番１０号,,13,113,1500012,,,,,,,2022-03-09,1,,,,,ミライノキギョウカチケンキュウカイ,0
1545,6011101097919,新規,0,2022-03-09,2022-03-09,株式会社ｔｅｔｏｃｏ,,株式会社,東京都,新宿区,新宿１丁目７番１０－９１１号,,13,104,1600022,,,,,,,2022-03-09,1,,,,,テトコ,0
1546,6011101098058,新規,0,2022-03-09,2022-03-09,辻・本郷スマートアセット株式会社,00125904,株式会社,東京都,新宿区,新宿４丁目１番６号ＪＲ新宿ミライナタワー２８階,,13,104,1600022,,,,,,,2022-03-09,1,,,,,ツジホンゴウスマートアセット,0
1547,6011101098090,新規,0,2022-03-09,2022-03-09,株式会社ＣＬＸ,,株式会社,東京都,新宿区,新宿１丁目３６番２号新宿第七葉山ビル３階,,13,104,1600022,,,,,,,2022-03-09,1,,,,,シルク,0
1548,6011101098116,新規,0,2022-03-09,2022-03-09,株式会社ＵＫＭＥＴＡ,,株式会社,東京都,新宿区,西新宿７丁目５－９－６０３,,13,104,1600023,,,,,,,2022-03-09,1,,,,,ユーケーメタ,0
1550,6011103011547,新規,0,2022-03-09,2022-03-09,合同会社６３,,合同会社,東京都,新宿区,大久保２丁目３３番２４号,,13,104,1690072,,,,,,,2022-03-09,1,,,,,ロクサン,0
1554,6011503005099,新規,0,2022-03-09,2022-03-09,ブルーフォルテウェイブ合同会社,,合同会社,東京都,北区,赤羽１丁目６１番１２－３０５号,,13,117,1150045,,,,,,,2022-03-09,1,,,,,ブルーフォルテウェイブ,0
1556,6011605002432,新規,0,2022-03-09,2022-03-09,つばめ監査法人,,その他の設立登記法人,東京都,練馬区,桜台４丁目１９－１７,,13,120,1760002,,,,,,,2022-03-09,1,,,,,ツバメ,0
1558,6011701025097,新規,0,2022-03-09,2022-03-09,株式会社ソーシャルグッド,,株式会社,東京都,江戸川区,東小岩１丁目５－７,,13,123,1330052,,,,,,,2022-03-09,1,,,,,ソーシャルグッド,0
1559,6011701025106,新規,0,2022-03-09,2022-03-09,株式会社ユーカリ電気,,株式会社,東京都,江戸川区,中葛西５丁目３２番１８号,,13,123,1340083,,,,,,,2022-03-09,1,,,,,ユーカリデンキ,0
1565,6012801021449,新規,0,2022-03-09,2022-03-09,株式会社エフアイコンサルティング,,株式会社,東京都,国分寺市,東元町４丁目８番地３１号,,13,214,1850022,,,,,,,2022-03-09,1,,,,,エフアイコンサルティング,0
1569,6013305003314,新規,0,2022-03-09,2022-03-09,一般社団法人ヒューマン・コメディ,,その他の設立登記法人,東京都,豊島区,東池袋１丁目１７番１１－１１０５号,,13,116,1700013,,,,,,,2022-03-09,1,,,,,ヒューマンコメディ,0
1579,6020003021432,新規,0,2022-03-09,2022-03-09,合同会社もちだオフィス,,合同会社,神奈川県,横浜市港北区,篠原台町３番１６号－２０３,,14,109,2220024,,,,,,,2022-03-09,1,,,,,モチダオフィス,0
1582,6020005015408,新規,0,2022-03-09,2022-03-09,一般社団法人ＦＯＵＲＮＩＮＥＳ　Ｔ＆Ｔ,,その他の設立登記法人,神奈川県,川崎市川崎区,駅前本町１１－２フロンティア川崎ビル４階,,14,131,2100007,,,,,,,2022-03-09,1,,,,,フォーナインティアンドティ,0
1586,6021001075404,新規,0,2022-03-09,2022-03-09,株式会社シロサ,,株式会社,神奈川県,中郡大磯町,国府新宿５２９番地の１５,,14,341,2590112,,,,,,,2022-03-09,1,,,,,シロサ,0
1594,6030001147096,新規,0,2022-03-09,2022-03-09,ｉＷｉｎ　Ｉｎｔｅｒｎａｔｉｏｎａｌ株式会社,,株式会社,埼玉県,鶴ヶ島市,富士見２丁目５番６号第２流石ビル３０１,,11,241,3502201,,,,,,,2022-03-09,1,,,,,アイウィンインターナショナル,0
1595,6030001147179,新規,0,2022-03-09,2022-03-09,株式会社クイック,,株式会社,埼玉県,三郷市,彦成１丁目２４番地１０,,11,237,3410003,,,,,,,2022-03-09,1,,,,,クイック,0
1596,6030001147195,新規,0,2022-03-09,2022-03-09,株式会社さいたま中央テクノサービス,,株式会社,埼玉県,上尾市,大字戸崎８５０番地１,,11,219,3620053,,,,,,,2022-03-09,1,,,,,サイタマチュウオウテクノサービス,0
1597,6030001147204,新規,0,2022-03-09,2022-03-09,ユニスタディ株式会社,,株式会社,埼玉県,新座市,栗原１丁目４－７ひばりシティ３号室,,11,230,3520035,,,,,,,2022-03-09,1,,,,,ユニスタディ,0
1601,6030003019005,新規,0,2022-03-09,2022-03-09,信和商事合同会社,,合同会社,埼玉県,川口市,芝樋ノ爪２丁目３番２０号,,11,203,3330852,,,,,,,2022-03-09,1,,,,,シンワショウジ,0
1607,6040001122420,新規,0,2022-03-09,2022-03-09,株式会社兼子商店,,株式会社,千葉県,市川市,福栄１丁目１８番２０－３０２号,,12,203,2720137,,,,,,,2022-03-09,1,,,,,カネコショウテン,0
1613,6050001050760,新規,0,2022-03-09,2022-03-09,株式会社美波,,株式会社,茨城県,土浦市,真鍋新町９番１７号,,08,203,3000053,,,,,,,2022-03-09,1,,,,,ミナミ,0
1615,6050003006422,新規,0,2022-03-09,2022-03-09,クローバーの丘合同会社,,合同会社,茨城県,笠間市,大橋１８５８,,08,216,3091601,,,,,,,2022-03-09,1,,,,,クローバーノオカ,0
1617,6060001034647,新規,0,2022-03-09,2022-03-09,株式会社ＲＩＺＥ冷熱,,株式会社,栃木県,日光市,板橋８８４番地７９,,09,206,3211102,,,,,,,2022-03-09,1,,,,,ライズレイネツ,0
1634,6120001244231,新規,0,2022-03-09,2022-03-09,株式会社ｕｎｂｒｅａｋ,,株式会社,大阪府,門真市,東江端町１２番２５－５０８号,,27,223,5710008,,,,,,,2022-03-09,1,,,,,アンブレイク,0
1635,6120001244363,新規,0,2022-03-09,2022-03-09,承道文化株式会社,,株式会社,大阪府,大阪市浪速区,大国２丁目１０－８Ｙ・ＢＬＤ２０２号室,,27,111,5560014,,,,,,,2022-03-09,1,,,,,ショウドウブンカ,0
1636,6120001244396,新規,0,2022-03-09,2022-03-09,株式会社Ｈ＆Ｍ　Ｃｒｅａｔｅ,,株式会社,大阪府,大阪市西成区,天下茶屋２丁目９番２号,,27,122,5570014,,,,,,,2022-03-09,1,,,,,エイチアンドエムクリエート,0
1640,6120003021257,新規,0,2022-03-09,2022-03-09,あまりりす合同会社,,合同会社,大阪府,大阪市北区,東天満２丁目３番７－３３０１号,,27,127,5300044,,,,,,,2022-03-09,1,,,,,アマリリス,0
1662,6140001125140,新規,0,2022-03-09,2022-03-09,アストリーム株式会社,,株式会社,兵庫県,尼崎市,椎堂１丁目２３番２６号,,28,202,6610952,,,,,,,2022-03-09,1,,,,,アストリーム,0
1663,6140001125149,新規,0,2022-03-09,2022-03-09,株式会社ワークモア,,株式会社,兵庫県,尼崎市,七松町３丁目２－１４－３号,,28,202,6600052,,,,,,,2022-03-09,1,,,,,ワークモア,0
1664,6140001125181,新規,0,2022-03-09,2022-03-09,晴耕アセット株式会社,,株式会社,兵庫県,尼崎市,塚口本町１丁目２番２９－１１０４号,,28,202,6610001,,,,,,,2022-03-09,1,,,,,セイコウアセット,0
1668,6140003017402,新規,0,2022-03-09,2022-03-09,合同会社ハナイロ,,合同会社,兵庫県,西宮市,里中町３丁目１番８号,,28,204,6638183,,,,,,,2022-03-09,1,,,,,ハナイロ,0
1670,6150001025397,新規,0,2022-03-09,2022-03-09,株式会社Ｗｏｏｄ　Ｓｕｍｍｅｒ,,株式会社,奈良県,大和高田市,大字大谷３２０番地の１９,,29,202,6350076,,,,,,,2022-03-09,1,,,,,ウッドサマー,0
1680,6180001150192,新規,0,2022-03-09,2022-03-09,ＥＣＯドア株式会社,,株式会社,愛知県,名古屋市千種区,桜が丘１４番地,,23,101,4640025,,,,,,,2022-03-09,1,,,,,エコドア,0
1681,6180001150358,新規,0,2022-03-09,2022-03-09,株式会社ウエスト,,株式会社,愛知県,稲沢市,朝府町１番１号,,23,220,4928268,,,,,,,2022-03-09,1,,,,,ウエスト,0
1685,6180301036001,新規,0,2022-03-09,2022-03-09,株式会社ＨＹシステム,,株式会社,愛知県,豊川市,大崎町上金居場２６番地,,23,207,4420007,,,,,,,2022-03-09,1,,,,,エイチワイシステム,0
1686,6190001029188,新規,0,2022-03-09,2022-03-09,冨田建設株式会社,,株式会社,三重県,度会郡大紀町,神原２２６番地１,,24,471,5192735,,,,,,,2022-03-09,1,,,,,トミダケンセツ,0
1699,6240001059444,新規,0,2022-03-09,2022-03-09,株式会社Ｒｅｖｉｖｅ,,株式会社,広島県,東広島市,高屋高美が丘８丁目１０番２号,,34,212,7392115,,,,,,,2022-03-09,1,,,,,リヴァイヴ,0
1700,6240003005545,新規,0,2022-03-09,2022-03-09,合同会社ｒｏｏｍ　ｏｎｅ　Ｈｉｒｏ,,合同会社,広島県,安芸郡海田町,昭和中町１２番７号,,34,304,7360064,,,,,,,2022-03-09,1,,,,,ルームワンヒロ,0
1704,6260001036623,新規,0,2022-03-09,2022-03-09,株式会社ヤマシタロジスティック,,株式会社,岡山県,岡山市北区,下中野３１２番地１０２,,33,101,7000973,,,,,,,2022-03-09,1,,,,,ヤマシタロジスティック,0
1712,6290001096706,新規,0,2022-03-09,2022-03-09,株式会社ｎｅｒｕ,,株式会社,福岡県,福岡市中央区,渡辺通５丁目１４番２４号,,40,133,8100004,,,,,,,2022-03-09,1,,,,,ネル,0
1713,6290001096730,新規,0,2022-03-09,2022-03-09,アケボノテック株式会社,,株式会社,福岡県,大野城市,仲畑２丁目１６番１８号,,40,219,8160921,,,,,,,2022-03-09,1,,,,,アケボノテック,0
1717,6290003012248,新規,0,2022-03-09,2022-03-09,合同会社ＤＯＮＡ２,,合同会社,福岡県,糸島市,伊都の杜２丁目６番５号（２０２）,,40,230,8191130,,,,,,,2022-03-09,1,,,,,ドナドナ,0
1718,6290003012256,新規,0,2022-03-09,2022-03-09,合同会社Ｌ‐Ｍｅｔｈｏｄ,,合同会社,福岡県,糟屋郡志免町,南里７丁目６番２８号,,40,343,8112207,,,,,,,2022-03-09,1,,,,,エルメソット,0
1719,6290003012264,新規,0,2022-03-09,2022-03-09,ＣＡＮＷＡＹ商事合同会社,,合同会社,福岡県,久留米市,六ツ門町２０番地１３ライオンズ東町公園ザ・ロイヤル１３０１号,,40,203,8300031,,,,,,,2022-03-09,1,,,,,キャンウェイショウジ,0
1721,6290803004080,新規,0,2022-03-09,2022-03-09,ベスティ・プランニング・ジャパン合同会社,,合同会社,福岡県,北九州市小倉南区,企救丘６丁目１７番１５号,,40,107,8020981,,,,,,,2022-03-09,1,,,,,ベスティプランニングジャパン,0
1722,6290805009532,新規,0,2022-03-09,2022-03-09,農事組合法人グリーンロード,,その他の設立登記法人,福岡県,京都郡みやこ町,勝山黒田８８９番地３,,40,625,8240822,,,,,,,2022-03-09,1,,,,,グリーンロード,0
1729,6320003003747,新規,0,2022-03-09,2022-03-09,合同会社４Ｌｅａｆ　Ｃｌｏｖｅｒ,,合同会社,大分県,別府市,原町７番２７号,,44,202,8740820,,,,,,,2022-03-09,1,,,,,フォーリーフクローバー,0
1730,6320005009973,新規,0,2022-03-09,2022-03-09,九州事業支援協同組合,,その他の設立登記法人,大分県,日田市,大山町東大山４９３番地５,,44,204,8770202,,,,,,,2022-03-09,1,,,,,キュウシュウジギョウシエン,0
1735,6330003009280,新規,0,2022-03-09,2022-03-09,合同会社ＮＤＫ,,合同会社,熊本県,荒尾市,牛水５３７番地１,,43,204,8640026,,,,,,,2022-03-09,1,,,,,エヌディケイ,0
1740,6340005009419,新規,0,2022-03-09,2022-03-09,医療法人寿,,その他の設立登記法人,鹿児島県,鹿屋市,寿５丁目２５番９号,,46,203,8930014,,,,,,,2022-03-09,1,,,,,コトブキ,0
1742,6360003011861,新規,0,2022-03-09,2022-03-09,合同会社アフター,,合同会社,沖縄県,島尻郡八重瀬町,字具志頭１３７６番地１,,47,362,9010512,,,,,,,2022-03-09,1,,,,,アフター,0
1756,6440001009040,新規,0,2022-03-09,2022-03-09,株式会社琴丘ホールディングス,,株式会社,北海道,函館市,本町３５番１４号,,01,202,0400011,,,,,,,2022-03-09,1,,,,,コトオカホールディングス,0
1759,6470003002148,新規,0,2022-03-09,2022-03-09,三喜サービス合同会社,,合同会社,香川県,三豊市,高瀬町上麻３６７８番地３,,37,208,7670014,,,,,,,2022-03-09,1,,,,,サンキサービス,0
1769,6700150107337,新規,0,2022-03-09,2022-03-09,Ｗｏｒｌｄ　Ｈｏｔｅｌｓ　ＧｍｂＨ,,外国会社等,東京都,港区,海岸１丁目２－２０,,13,103,1050022,ドイツ連邦共和国６０５４９フランクフルト・アム・マイン、ウンターシュヴァインシュティーゲ２－１４、マイン・エアポート・センター,,,,,,2022-03-09,1,,,,,ワールドホテルズゲーエムベーハー,0
1780,7010001224978,新規,0,2022-03-09,2022-03-09,株式会社７４ＷＯＲＫＳ,,株式会社,東京都,中央区,日本橋小網町１６番３号若菱ビル１Ｆ,,13,102,1030016,,,,,,,2022-03-09,1,,,,,セブンティフォーワークス,0
1781,7010001224986,新規,0,2022-03-09,2022-03-09,株式会社プロレアート,,株式会社,東京都,千代田区,平河町２丁目１４番１１号ＨＫ平河町２Ｆ,,13,101,1020093,,,,,,,2022-03-09,1,,,,,プロレアート,0
1782,7010001225068,新規,0,2022-03-09,2022-03-09,瑞祥雲集株式会社,,株式会社,東京都,中央区,日本橋茅場町２丁目１番７号,,13,102,1030025,,,,,,,2022-03-09,1,,,,,ズイショウウンシュウ,0
1783,7010001225101,新規,0,2022-03-09,2022-03-09,ＧＺキャピタル株式会社,,株式会社,東京都,千代田区,麹町５丁目３番地,,13,101,1020083,,,,,,,2022-03-09,1,,,,,ジーゼットキャピタル,0
1789,7010005034705,新規,0,2022-03-09,2022-03-09,医療法人社団蒼杉会,,その他の設立登記法人,東京都,中央区,佃３丁目１０番９号川正ビル２階,,13,102,1040051,,,,,,,2022-03-09,1,,,,,アオスギカイ,0
1790,7010005034713,新規,0,2022-03-09,2022-03-09,医療法人社団五条会,,その他の設立登記法人,東京都,中央区,日本橋堀留町２丁目６番６号ライフサイエンスビル８階,,13,102,1030012,,,,,,,2022-03-09,1,,,,,ゴジョウカイ,0
1791,7010103001870,新規,0,2022-03-09,2022-03-09,合同会社Ｅｇｏ,,合同会社,東京都,八王子市,平岡町９番３号,,13,201,1920061,,,,,,,2022-03-09,1,,,,,イージーオー,0
1794,7010401166069,新規,0,2022-03-09,2022-03-09,ＧＣＪＧ２４株式会社,,株式会社,東京都,港区,元赤坂１丁目１番８号株式会社赤坂国際会計内,,13,103,1070051,,,,,,,2022-03-09,1,,,,,ジーシージェイジートゥエンティフォー,0
1799,7010403027252,新規,0,2022-03-09,2022-03-09,合同会社ＢＥＦＦＯＲＴＳ,,合同会社,東京都,港区,南青山２丁目２番１５号,,13,103,1070062,,,,,,,2022-03-09,1,,,,,ビフォーツ,0
1807,7010701042341,新規,0,2022-03-09,2022-03-09,株式会社美寿花,,株式会社,東京都,品川区,大崎５丁目９－９シティタワー大崎１２０３,,13,109,1410032,,,,,,,2022-03-09,1,,,,,ミスカ,0
1812,7010803004082,新規,0,2022-03-09,2022-03-09,合同会社ハイパフォーマンス,,合同会社,東京都,大田区,東矢口２丁目９番２１号,,13,111,1460094,,,,,,,2022-03-09,1,,,,,ハイパフォーマンス,0
1814,7010805002919,新規,0,2022-03-09,2022-03-09,一般社団法人東アジア・ピースアクション,,その他の設立登記法人,東京都,大田区,西蒲田１丁目１７番１６－１０３号,,13,111,1440051,,,,,,,2022-03-09,1,,,,,ヒガシアジアピースアクション,0
1820,7010903007209,新規,0,2022-03-09,2022-03-09,合同会社Ａｍｂｉｎｉｔｙ,,合同会社,東京都,世田谷区,赤堤５丁目２８－１２,,13,112,1560044,,,,,,,2022-03-09,1,,,,,アンビニティ,0
1830,7011001146213,新規,0,2022-03-09,2022-03-09,株式会社ＣＨＡＲＭＥ,,株式会社,東京都,渋谷区,広尾５丁目３番１５号２階,,13,113,1500012,,,,,,,2022-03-09,1,,,,,シャルメ,0
1840,7011101098049,新規,0,2022-03-09,2022-03-09,株式会社ファンビータ,,株式会社,東京都,新宿区,西新宿３丁目３番１３号,,13,104,1600023,,,,,,,2022-03-09,1,,,,,ファンビータ,0
1841,7011101098065,新規,0,2022-03-09,2022-03-09,株式会社Ｎｅｗレジデンシャル,,株式会社,東京都,新宿区,津久戸町３－１９,,13,104,1620821,,,,,,,2022-03-09,1,,,,,ニューレジデンシャル,0
1842,7011103011546,新規,0,2022-03-09,2022-03-09,合同会社ＵＮＣＮ,,合同会社,東京都,新宿区,東榎町５番地神楽坂Ｓ－ｏｎｅ５０２,,13,104,1620807,,,,,,,2022-03-09,1,,,,,アンチェイン,0
1845,7011503005098,新規,0,2022-03-09,2022-03-09,Ｑｕｙ　Ｂｌｙ　Ｍａｒｔ合同会社,,合同会社,東京都,荒川区,西日暮里６丁目５６番６号ＮＦ西日暮里ビル１Ｆ,,13,118,1160013,,,,,,,2022-03-09,1,,,,,クイーブィマート,0
1847,7011601025782,新規,0,2022-03-09,2022-03-09,ＴＨＥ　ＢＬＵＥ　ＣＯＬＯＲ株式会社,,株式会社,東京都,練馬区,大泉学園町６丁目１３番１０号,,13,120,1780061,,,,,,,2022-03-09,1,,,,,ザブルーカラー,0
1852,7011801040425,新規,0,2022-03-09,2022-03-09,株式会社ＤＩＹ　ｌｉｆｅ,,株式会社,東京都,足立区,梅島３丁目３３番６号ＥＭＢＬＥＭ西新井２Ｆ－３１,,13,121,1210816,,,,,,,2022-03-09,1,,,,,ディーアイワイライフ,0
1853,7012401038941,新規,0,2022-03-09,2022-03-09,株式会社ｎｏｄｅｌ,,株式会社,東京都,武蔵野市,吉祥寺南町２丁目２－５,,13,203,1800003,,,,,,,2022-03-09,1,,,,,ノデル,0
1859,7013303006037,新規,0,2022-03-09,2022-03-09,合同会社ＵＳＰＫ,,合同会社,東京都,豊島区,南大塚２丁目１１－１０ミモザビル３階,00125902,13,116,1700005,,,,,,,2022-03-09,1,,,,,ユーエスピーケー,0
1864,7020001145587,新規,0,2022-03-09,2022-03-09,株式会社ＫＤＨ,,株式会社,神奈川県,横浜市中区,扇町１丁目１番１－１００１号,,14,104,2310027,,,,,,,2022-03-09,1,,,,,ケーディーエイチ,0
1865,7020001145595,新規,0,2022-03-09,2022-03-09,株式会社Ａｎｏｓｒｅｐ,,株式会社,神奈川県,横浜市港南区,港南１丁目１３番２号,,14,111,2330003,,,,,,,2022-03-09,1,,,,,アノスレップ,0
1867,7020003021373,新規,0,2022-03-09,2022-03-09,カンガルーベイビー合同会社,,合同会社,神奈川県,川崎市幸区,戸手４丁目１１番１－１２０６号,,14,132,2120005,,,,,,,2022-03-09,1,,,,,カンガルーベイビー,0
1868,7020003021415,新規,0,2022-03-09,2022-03-09,ＩＰエッジ合同会社,,合同会社,神奈川県,横浜市中区,元町４丁目１６８番地,,14,104,2310861,,,,,,,2022-03-09,1,,,,,アイピーエッジ,0
1869,7020003021423,新規,0,2022-03-09,2022-03-09,合同会社ＨＭカンパニー,,合同会社,神奈川県,横浜市神奈川区,三ツ沢下町１番２２号高水ビル１０３,,14,102,2210852,,,,,,,2022-03-09,1,,,,,エイチエムカンパニー,0
1880,7021003011455,新規,0,2022-03-09,2022-03-09,ＡＲＺＥＲＲＴサステナブル日本電力合同会社,,合同会社,神奈川県,藤沢市,湘南台２丁目８－２９ソラシア湘南台リラクテラス３０２号,,14,205,2520804,,,,,,,2022-03-09,1,,,,,アルツァレットサステナブルニホンデンリョク,0
1881,7021003011471,新規,0,2022-03-09,2022-03-09,アスガルインターナショナル合同会社,,合同会社,神奈川県,愛甲郡愛川町,中津２７４４番地の２５,,14,401,2430303,,,,,,,2022-03-09,1,,,,,アスガルインターナショナル,0
1889,7030001147178,新規,0,2022-03-09,2022-03-09,株式会社ブレイブ,,株式会社,埼玉県,越谷市,花田６丁目１１番地４,,11,222,3430015,,,,,,,2022-03-09,1,,,,,ブレイブ,0
1897,7030003019004,新規,0,2022-03-09,2022-03-09,合同会社ＭＯＮＡＺ,,合同会社,埼玉県,北本市,中央３丁目６２番地キエレ３０１,,11,233,3640031,,,,,,,2022-03-09,1,,,,,モナズ,0
1906,7040001122543,新規,0,2022-03-09,2022-03-09,株式会社ＹＳＲ,,株式会社,千葉県,柏市,手賀の杜５丁目７番地３ジェンティーレＩＩ－１０１号,00125906,12,217,2701447,,,,,,,2022-03-09,1,,,,,ワイエスアール,0
1907,7040001122568,新規,0,2022-03-09,2022-03-09,株式会社Ｏ‐ＬＩＮＫ,,株式会社,千葉県,八街市,榎戸４１２番地７８,,12,230,2891106,,,,,,,2022-03-09,1,,,,,,0
1911,7040003019614,新規,0,2022-03-09,2022-03-09,合同会社黒龍,,合同会社,千葉県,長生郡長生村,金田２２６１番地７,,12,423,2994332,,,,,,,2022-03-09,1,,,,,クロリュウ,0
1912,7040003019630,新規,0,2022-03-09,2022-03-09,ＣＭプランニング合同会社,,合同会社,千葉県,八千代市,大和田新田７６番地４２,,12,221,2760046,,,,,,,2022-03-09,1,,,,,シーエムプランニング,0
1913,7040003019647,新規,0,2022-03-09,2022-03-09,合同会社ナックハウジング,,合同会社,千葉県,柏市,小青田１丁目５番地４－４０８号,,12,217,2770803,,,,,,,2022-03-09,1,,,,,ナックハウジング,0
1924,7070001039017,新規,0,2022-03-09,2022-03-09,株式会社Ｍｏｎａｍｏｕｒ,,株式会社,群馬県,前橋市,箱田町５００番地,,10,201,3710837,,,,,,,2022-03-09,1,,,,,モナムール,0
1933,7100005012833,新規,0,2022-03-09,2022-03-09,一般財団法人上田アンサンブル・オーケストラ,,その他の設立登記法人,長野県,東御市,田中字八名ノ上６６２番地７,,20,219,3890516,,,,,,,2022-03-09,1,,,,,ウエダアンサンブルオーケストラ,0
1939,7120001244354,新規,0,2022-03-09,2022-03-09,三沼建設株式会社,,株式会社,大阪府,大阪市西区,土佐堀１丁目１番３２号、日宝リバービル５Ｆ,,27,106,5500001,,,,,,,2022-03-09,1,,,,,ミヌマケンセツ,0
1943,7120101065188,新規,0,2022-03-09,2022-03-09,株式会社永和建設,,株式会社,大阪府,松原市,天美我堂７丁目５５８番地の１,,27,217,5800026,,,,,,,2022-03-09,1,,,,,エイワケンセツ,0
1952,7140001125115,新規,0,2022-03-09,2022-03-09,株式会社ＯｎｅＬｏｇｉ,,株式会社,兵庫県,加古川市,平荘町里３８１番地の１,,28,210,6751232,,,,,,,2022-03-09,1,,,,,ワンロジ,0
1953,7140001125197,新規,0,2022-03-09,2022-03-09,株式会社エンジニアリングサムライ,,株式会社,兵庫県,神戸市中央区,海岸通３丁目１番１号ＫＣＣビル４階,,28,110,6500024,,,,,,,2022-03-09,1,,,,,エンジニアリングサムライ,0
1954,7140001125206,新規,0,2022-03-09,2022-03-09,株式会社アセット神河,,株式会社,兵庫県,神崎郡神河町,杉４６８番地,,28,446,6792433,,,,,,,2022-03-09,1,,,,,アセットカミカワ,0
1955,7140001125214,新規,0,2022-03-09,2022-03-09,ＯＫ開発株式会社,,株式会社,兵庫県,南あわじ市,津井１８４６,,28,224,6560341,,,,,,,2022-03-09,1,,,,,オーケーカイハツ,0
1960,7160001024042,新規,0,2022-03-09,2022-03-09,株式会社アトリエパンダ,,株式会社,滋賀県,大津市,瀬田３丁目３９番１７号,,25,201,5202134,,,,,,,2022-03-09,1,,,,,アトリエパンダ,0
1971,7180003023593,新規,0,2022-03-09,2022-03-09,合同会社トラストワイズ,,合同会社,愛知県,名古屋市守山区,瀬古東３丁目１２３６番地,,23,113,4630090,,,,,,,2022-03-09,1,,,,,トラストワイズ,0
1973,7180301036009,新規,0,2022-03-09,2022-03-09,株式会社源プランニング,,株式会社,愛知県,岡崎市,中之郷町字下荒子９０番地３,,23,202,4440242,,,,,,,2022-03-09,1,,,,,ゲンプランニング,0
1991,7240001059443,新規,0,2022-03-09,2022-03-09,ラビアンローズ株式会社,,株式会社,広島県,広島市佐伯区,美の里１丁目８番２２－１０９号,,34,108,7315137,,,,,,,2022-03-09,1,,,,,ラビアンローズ,0
1994,7240003005544,新規,0,2022-03-09,2022-03-09,合同会社デザイン工房安芸,,合同会社,広島県,広島市西区,井口台１丁目１３－３６フラットパーク１０５号,,34,104,7330844,,,,,,,2022-03-09,1,,,,,デザインコウボウアキ,0
1998,7260003003835,新規,0,2022-03-09,2022-03-09,合同会社ことのは,,合同会社,岡山県,岡山市南区,下中野１４０１番地７,,33,104,7000973,,,,,,,2022-03-09,1,,,,,コトノハ,0
2005,7290001096655,新規,0,2022-03-09,2022-03-09,株式会社ハウスサポート,,株式会社,福岡県,柳川市,三橋町柳河４７０番地１号,,40,207,8320806,,,,,,,2022-03-09,1,,,,,ハウスサポート,0
2018,7320003003746,新規,0,2022-03-09,2022-03-09,合同会社ＭＯＲＯ　ＭＯＲＯ,,合同会社,大分県,大分市,高松１丁目７番８号サンメゾン高城１０２,,44,201,8700917,,,,,,,2022-03-09,1,,,,,モロモロ,0
2019,7320005009972,新規,0,2022-03-09,2022-03-09,弁護士法人大分みんなの法律事務所,,その他の設立登記法人,大分県,大分市,金池町２丁目１番３号レインボービル５Ｆ,,44,201,8700026,,,,,,,2022-03-09,1,,,,,オオイタミンナノホウリツジムショ,0
2020,7330001029528,新規,0,2022-03-09,2022-03-09,株式会社東亜メンテ,,株式会社,熊本県,熊本市東区,長嶺東５丁目２番２５号,,43,102,8618038,,,,,,,2022-03-09,1,,,,,トウアメンテ,0
2029,7370001048301,新規,0,2022-03-09,2022-03-09,株式会社クラフトキッド,,株式会社,宮城県,名取市,愛島郷１丁目１０番地の１２,,04,207,9811240,,,,,,,2022-03-09,1,,,,,クラフトキッド,0
2047,7430001086154,新規,0,2022-03-09,2022-03-09,アルファコート北見中央大通沿道地区開発株式会社,,株式会社,北海道,札幌市中央区,南一条西７丁目１番地３,,01,101,0600061,,,,,,,2022-03-09,1,,,,,アルファコートキタミチュウオウオオドオリエンドウチクカイハツ,0
2048,7430001086162,新規,0,2022-03-09,2022-03-09,株式会社ケーワイアール,,株式会社,北海道,札幌市東区,北三十四条東２１丁目３－１３,,01,103,0070834,,,,,,,2022-03-09,1,,,,,ケーワイアール,0
2050,7430003013684,新規,0,2022-03-09,2022-03-09,ゼネテック合同会社,,合同会社,北海道,滝川市,泉町１丁目１０番８号,,01,225,0730042,,,,,,,2022-03-09,1,,,,,ゼネテック,0
2052,7460101007156,新規,0,2022-03-09,2022-03-09,株式会社Ａｉｌａｎａ,,株式会社,北海道,帯広市,大通南１８丁目２番地１,,01,207,0800010,,,,,,,2022-03-09,1,,,,,アイラナ,0
2055,7490001010133,新規,0,2022-03-09,2022-03-09,江戸セミテクノロジー株式会社,,株式会社,高知県,高知市,南宝永町１８番１４号ロイヤルコーポ４０１,,39,201,7800816,,,,,,,2022-03-09,1,,,,,エドセミテクノロジー,0
2071,8010001225026,新規,0,2022-03-09,2022-03-09,株式会社ユタカ,,株式会社,東京都,千代田区,内神田２丁目３－７栗原ビル３Ｆ,,13,101,1010047,,,,,,,2022-03-09,1,,,,,ユタカ,0
2072,8010001225083,新規,0,2022-03-09,2022-03-09,ＨＰＣホールディングス株式会社,,株式会社,東京都,千代田区,飯田橋１丁目７番９号,,13,101,1020072,,,,,,,2022-03-09,1,,,,,エイチピーシーホールディングス,0
2073,8010001225100,新規,0,2022-03-09,2022-03-09,フルスタック株式会社,,株式会社,東京都,中央区,新富２丁目１４番５号,,13,102,1040041,,,,,,,2022-03-09,1,,,,,フルスタック,0
2085,8010401166101,新規,0,2022-03-09,2022-03-09,株式会社ＢＫＳ,,株式会社,東京都,港区,赤坂８丁目６－２７スカイプラザ赤坂３０１,,13,103,1070052,,,,,,,2022-03-09,1,,,,,ビーケーエス,0
2093,8010805002918,新規,0,2022-03-09,2022-03-09,一般社団法人縁,,その他の設立登記法人,東京都,大田区,東雪谷３丁目１４番２２号,,13,111,1450065,,,,,,,2022-03-09,1,,,,,エン,0
2106,8011003014292,新規,0,2022-03-09,2022-03-09,合同会社Ａｓｉａｎ　Ｌｉｎｋ　Ｕｐ　Ｓｅｒｖｉｃｅ,,合同会社,東京都,渋谷区,代々木２丁目２３番１号ニューステイトメナー１３３８号室,,13,113,1510053,,,,,,,2022-03-09,1,,,,,アジアンリンクアップサービス,0
2107,8011005009480,新規,0,2022-03-09,2022-03-09,医療法人社団ルーブル,,その他の設立登記法人,東京都,渋谷区,神南１丁目２０番１７号ＢＣ神南ＰＲＯＰＥＲＴＹ６階,,13,113,1500041,,,,,,,2022-03-09,1,,,,,ルーブル,0
2115,8011101098064,新規,0,2022-03-09,2022-03-09,三嘉商店株式会社,,株式会社,東京都,新宿区,新宿１丁目１０番３号,,13,104,1600022,,,,,,,2022-03-09,1,,,,,ミツヨシショウテン,0
2117,8011103011537,新規,0,2022-03-09,2022-03-09,ＧＢＴジャパン合同会社,,合同会社,東京都,新宿区,上落合１丁目１１番１０号,,13,104,1610034,,,,,,,2022-03-09,1,,,,,ジービーティージャパン,0
2123,8011503005097,新規,0,2022-03-09,2022-03-09,合同会社Ｃ＆Ｔ,,合同会社,東京都,荒川区,東日暮里３丁目１４番１８号シーズガーデンパークウエスト６０６,,13,118,1160014,,,,,,,2022-03-09,1,,,,,シーアンドティ,0
2126,8011801040390,新規,0,2022-03-09,2022-03-09,Ｂｏｙａ株式会社,,株式会社,東京都,足立区,栗原３丁目７番１３号,,13,121,1230842,,,,,,,2022-03-09,1,,,,,ボヤ,0
2129,8011803004996,新規,0,2022-03-09,2022-03-09,合同会社ＡＶＩＡＴＡＨ,,合同会社,東京都,葛飾区,青戸３丁目３４番１ＨＡＹＡＳＨＩビル３０２号,,13,122,1250062,,,,,,,2022-03-09,1,,,,,アビエタ,0
2133,8012401038949,新規,0,2022-03-09,2022-03-09,株式会社竺原,,株式会社,東京都,多摩市,馬引沢２丁目１９番１号ニューパレス２－７０２号室,,13,224,2060023,,,,,,,2022-03-09,1,,,,,ジクハラ,0
2136,8013301048781,新規,0,2022-03-09,2022-03-09,株式会社環境ビジョンアールＨＤ,,株式会社,東京都,豊島区,南大塚２丁目３１番１３号,,13,116,1700005,,,,,,,2022-03-09,1,,,,,カンキョウビジョンアールホールディングス,0
2143,8020003021422,新規,0,2022-03-09,2022-03-09,合同会社イタチファンド,,合同会社,神奈川県,横浜市栄区,長尾台町５６９番地３サンハイツＤ２０５,,14,115,2440843,,,,,,,2022-03-09,1,,,,,イタチファンド,0
2148,8021001075352,新規,0,2022-03-09,2022-03-09,イリス株式会社,,株式会社,神奈川県,藤沢市,鵠沼花沢町９番１３号,,14,205,2510023,,,,,,,2022-03-09,1,,,,,イリス,0
2149,8021001075402,新規,0,2022-03-09,2022-03-09,株式会社ＫＧ工業,,株式会社,神奈川県,秦野市,渋沢２丁目２３番２０号,,14,211,2591322,,,,,,,2022-03-09,1,,,,,ケージーコウギョウ,0
2151,8021003011470,新規,0,2022-03-09,2022-03-09,Ｂ＆Ｄ合同会社,,合同会社,神奈川県,横須賀市,追浜南町２丁目１番地,,14,201,2370065,,,,,,,2022-03-09,1,,,,,ビーアンドディー,0
2162,8030001147185,新規,0,2022-03-09,2022-03-09,株式会社ＨＲパートナーズ,,株式会社,埼玉県,草加市,高砂２丁目４番２１－１１０４号,,11,221,3400015,,,,,,,2022-03-09,1,,,,,エイチアールパートナーズ,0
2176,8040001122567,新規,0,2022-03-09,2022-03-09,株式会社Ｒｉｖｅｒ,,株式会社,千葉県,市川市,大野町３丁目１６７４番地３,,12,203,2720805,,,,,,,2022-03-09,1,,,,,リバー,0
2180,8040003019646,新規,0,2022-03-09,2022-03-09,ラウナサポート合同会社,,合同会社,千葉県,松戸市,中根長津町２７４番地の２－１０４号,,12,207,2710054,,,,,,,2022-03-09,1,,,,,ラウナサポート,0
2187,8060001034645,新規,0,2022-03-09,2022-03-09,株式会社永山興業,,株式会社,栃木県,宇都宮市,城南３丁目１１番６号,,09,201,3210117,,,,,,,2022-03-09,1,,,,,ナガヤマコウギョウ,0
2196,8080401025671,新規,0,2022-03-09,2022-03-09,株式会社ＴＹＭ,,株式会社,静岡県,浜松市中区,細島町２４８番地の２,,22,131,4350045,,,,,,,2022-03-09,1,,,,,ティーワイエム,0
2198,8090001017465,新規,0,2022-03-09,2022-03-09,ＬＯＣＡＬ　ＷＯＲＫ　ＮＥＸＴ株式会社,,株式会社,山梨県,北都留郡小菅村,４８４番地,,19,442,4090211,,,,,,,2022-03-09,1,,,,,ローカルワークネクスト,0
2199,8090003002060,新規,0,2022-03-09,2022-03-09,合同会社ＤｕＬａｂ,,合同会社,山梨県,北杜市,大泉町西井出８２４０－８１０１,,19,209,4091501,,,,,,,2022-03-09,1,,,,,,0
2215,8120001244337,新規,0,2022-03-09,2022-03-09,株式会社ｏｔｔｏ,,株式会社,大阪府,大阪市中央区,北浜２丁目２－２１北浜ＭＩＤタワー８０４号室,,27,128,5410041,,,,,,,2022-03-09,1,,,,,オット,0
2222,8120101065195,新規,0,2022-03-09,2022-03-09,株式会社アイセル,,株式会社,大阪府,藤井寺市,藤井寺２丁目７番６号,,27,226,5830024,,,,,,,2022-03-09,1,,,,,アイセル,0
2232,8130005016401,新規,0,2022-03-09,2022-03-09,一般社団法人フープファーム,,その他の設立登記法人,京都府,八幡市,橋本平野山５番地の２７,,26,210,6148347,,,,,,,2022-03-09,1,,,,,フープファーム,0
2240,8140001125147,新規,0,2022-03-09,2022-03-09,たんば高原牧場株式会社,,株式会社,兵庫県,丹波市,市島町喜多９１０番地１,,28,223,6694315,,,,,,,2022-03-09,1,,,,,タンバコウゲンボクジョウ,0
2241,8140001125188,新規,0,2022-03-09,2022-03-09,株式会社ＳＢＴコーポレーション,,株式会社,兵庫県,尼崎市,次屋３丁目１１番５１－３号,,28,202,6610965,,,,,,,2022-03-09,1,,,,,エスビーティーコーポレーション,0
2242,8140001125205,新規,0,2022-03-09,2022-03-09,株式会社ぶらいと,,株式会社,兵庫県,尼崎市,西立花町１丁目１５番３号,,28,202,6600054,,,,,,,2022-03-09,1,,,,,ブライト,0
2246,8160001024025,新規,0,2022-03-09,2022-03-09,ｉｎｉｃｉｏ株式会社,,株式会社,滋賀県,守山市,三宅町１０４６番地,,25,207,5240051,,,,,,,2022-03-09,1,,,,,イニシオ,0
2259,8180001150265,新規,0,2022-03-09,2022-03-09,株式会社モリベ殖産,,株式会社,愛知県,一宮市,明地字江端２０７番地,,23,203,4940012,,,,,,,2022-03-09,1,,,,,モリベショクサン,0
2266,8180303005274,新規,0,2022-03-09,2022-03-09,合同会社Ｂｏｏｔｈ,,合同会社,愛知県,岡崎市,大和町字鳥ケ城８５番地,,23,202,4440931,,,,,,,2022-03-09,1,,,,,ブース,0
2274,8200001039844,新規,0,2022-03-09,2022-03-09,株式会社ＧＬＩＤＥ,,株式会社,岐阜県,恵那市,岩村町飯羽間３３１５番地１６,,21,210,5097401,,,,,,,2022-03-09,1,,,,,グライド,0
2282,8230003001816,新規,0,2022-03-09,2022-03-09,ＫＡＭＩＤＥ塗装工業合同会社,,合同会社,富山県,富山市,新庄町１丁目９番１号２Ｆ,,16,201,9300992,,,,,,,2022-03-09,1,,,,,カミデトソウコウギョウ,0
2294,8250001019453,新規,0,2022-03-09,2022-03-09,株式会社Ｏ‐ＳＨＵ,,株式会社,山口県,宇部市,大字吉見２６５２番地２,,35,202,7590122,,,,,,,2022-03-09,1,,,,,オーシュー,0
2298,8280001008651,新規,0,2022-03-09,2022-03-09,株式会社ＥＭＵＳＴＡ,,株式会社,島根県,出雲市,斐川町神氷１４１９番地４,,32,203,6990613,,,,,,,2022-03-09,1,,,,,エムスタ,0
2305,8290001096745,新規,0,2022-03-09,2022-03-09,株式会社メドア,,株式会社,福岡県,福岡市博多区,祇園町６番２６号２０８号室,,40,132,8120038,,,,,,,2022-03-09,1,,,,,メドア,0
2311,8290005018588,新規,0,2022-03-09,2022-03-09,特定非営利活動法人生花保存インテリア振興会,,その他の設立登記法人,福岡県,福岡市博多区,吉塚本町１３番２７－１４１１号ＲＪＲプレシア吉塚駅前ＩＩ,00125917,40,132,8120046,,,,,,,2022-03-09,1,,,,,セイカホゾンインテリアシンコウカイ,0
2314,8310001017756,新規,0,2022-03-09,2022-03-09,株式会社石谷産業,,株式会社,長崎県,五島市,三井楽町丑ノ浦４７３番地４,,42,211,8530606,,,,,,,2022-03-09,1,,,,,イシタニサンギョウ,0
2319,8310005008594,新規,0,2022-03-09,2022-03-09,対馬づくり事業協同組合,,その他の設立登記法人,長崎県,対馬市,上対馬町比田勝９４０番地,,42,209,8171701,,,,,,,2022-03-09,1,,,,,ツシマヅクリジギョウ,0
2323,8330001029527,新規,0,2022-03-09,2022-03-09,株式会社虎歩龍,,株式会社,熊本県,球磨郡あさぎり町,上東５７１,,43,514,8680421,,,,,,,2022-03-09,1,,,,,トラブリュウ,0
2328,8340005009417,新規,0,2022-03-09,2022-03-09,司法書士法人エス,,その他の設立登記法人,鹿児島県,霧島市,国分中央１丁目４番１４号,,46,218,8994332,,,,,,,2022-03-09,1,,,,,エス,0
2344,8430001086153,新規,0,2022-03-09,2022-03-09,株式会社やまのかいしゃ,,株式会社,北海道,札幌市西区,小別沢３３番地,,01,107,0630011,,,,,,,2022-03-09,1,,,,,ヤマノカイシャ,0
2345,8430001086161,新規,0,2022-03-09,2022-03-09,株式会社森の３３スペース,,株式会社,北海道,千歳市,真々地２丁目４番２１号真々地マンション３０２号,,01,224,0660045,,,,,,,2022-03-09,1,,,,,モリノサンサンスペース,0
2348,8430003013691,新規,0,2022-03-09,2022-03-09,合同会社ＴＫＫ,,合同会社,北海道,札幌市豊平区,平岸二条９丁目５番１９号,,01,105,0620932,,,,,,,2022-03-09,1,,,,,ティケィケィ,0
2353,8470001018994,新規,0,2022-03-09,2022-03-09,株式会社ＡＭ企画,,株式会社,香川県,丸亀市,郡家町字重元１００９番地３,,37,202,7630093,,,,,,,2022-03-09,1,,,,,エーエムキカク,0
2368,9010001225082,新規,0,2022-03-09,2022-03-09,Ｗ１Ｗ８５株式会社,,株式会社,東京都,中央区,銀座７丁目１３番６号サガミビル２階,,13,102,1040061,,,,,,,2022-03-09,1,,,,,ダブリューイチダブリュー,0
2377,9010401166100,新規,0,2022-03-09,2022-03-09,株式会社ＴＥＩＪＩ,,株式会社,東京都,港区,南青山２丁目２番１５号,,13,103,1070062,,,,,,,2022-03-09,1,,,,,テイジ,0
2394,9010703006144,新規,0,2022-03-09,2022-03-09,Ｒ．Ｋ．合同会社,,合同会社,東京都,品川区,戸越３丁目２番２２号ハミングバード２０７,,13,109,1420041,,,,,,,2022-03-09,1,,,,,アールケー,0
2395,9010801032793,新規,0,2022-03-09,2022-03-09,株式会社エーアール販売,,株式会社,東京都,大田区,北千束３丁目１９番２６号,,13,111,1450062,,,,,,,2022-03-09,1,,,,,エーアールハンバイ,0
2398,9010901050489,新規,0,2022-03-09,2022-03-09,株式会社ＲＥｔｏｒｏ,,株式会社,東京都,世田谷区,八幡山３丁目３６番７号,,13,112,1560056,,,,,,,2022-03-09,1,,,,,レトロ,0
2399,9010905004276,新規,0,2022-03-09,2022-03-09,医療法人社団かみきた会,,その他の設立登記法人,東京都,世田谷区,上北沢３丁目１８番７号幸作ビル３０Ａ,,13,112,1560057,,,,,,,2022-03-09,1,,,,,カミキタカイ,0
2403,9011001146145,新規,0,2022-03-09,2022-03-09,株式会社ゴールドウインベンチャーパートナーズ,,株式会社,東京都,渋谷区,松濤２丁目２０番６号,,13,113,1500046,,,,,,,2022-03-09,1,,,,,ゴールドウインベンチャーパートナーズ,0
2404,9011001146153,新規,0,2022-03-09,2022-03-09,株式会社Ｍ’ｚ　ｃｏｎｓｕｌｔｉｎｇ,,株式会社,東京都,渋谷区,代々木２丁目１９番７号,,13,113,1510053,,,,,,,2022-03-09,1,,,,,エムズコンサルティング,0
2407,9011003014309,新規,0,2022-03-09,2022-03-09,Ｂｌａｃｋ　Ｂｅａｒ　Ｂｒａｎｄ　Ｊａｐａｎ合同会社,,合同会社,東京都,渋谷区,恵比寿４丁目２０番４号,,13,113,1500013,,,,,,,2022-03-09,1,,,,,ブラックベアブランドジャパン,0
2409,9011101098047,新規,0,2022-03-09,2022-03-09,株式会社ミツカル不動産,,株式会社,東京都,新宿区,新宿１丁目３６－１２サンカテリーナビル６Ｆ,,13,104,1600022,,,,,,,2022-03-09,1,,,,,ミツカルフドウサン,0
2410,9011101098088,新規,0,2022-03-09,2022-03-09,エナジーブリッジ株式会社,,株式会社,東京都,新宿区,西新宿６丁目５番１号,,13,104,1600023,,,,,,,2022-03-09,1,,,,,エナジーブリッジ,0
2411,9011101098096,新規,0,2022-03-09,2022-03-09,株式会社サンライズ,,株式会社,東京都,新宿区,歌舞伎町１丁目１番１５－８０３号,,13,104,1600021,,,,,,,2022-03-09,1,,,,,サンライズ,0
2412,9011101098113,新規,0,2022-03-09,2022-03-09,株式会社ＫＳＣ,,株式会社,東京都,新宿区,河田町７番３号,,13,104,1620054,,,,,,,2022-03-09,1,,,,,ケーエスシー,0
2415,9011301027615,新規,0,2022-03-09,2022-03-09,株式会社巳白社,,株式会社,東京都,杉並区,南荻窪２丁目１６番１０号マンション好文Ｆ,,13,115,1670052,,,,,,,2022-03-09,1,,,,,ミシロシャ,0
2418,9011501027828,新規,0,2022-03-09,2022-03-09,株式会社ＵＰ　ＦＲＡＭＥ,,株式会社,東京都,北区,十条仲原３丁目５番７号,,13,117,1140031,,,,,,,2022-03-09,1,,,,,アップフレーム,0
2419,9011601025789,新規,0,2022-03-09,2022-03-09,ＩＬｏｖｅｔｅａ株式会社,,株式会社,東京都,練馬区,西大泉６丁目１５番７号,,13,120,1780065,,,,,,,2022-03-09,1,,,,,アイラブティー,0
2423,9011703003081,新規,0,2022-03-09,2022-03-09,合同会社ＢＢ,,合同会社,東京都,江戸川区,南葛西４丁目２２番１１号,,13,123,1340085,,,,,,,2022-03-09,1,,,,,ビービー,0
2429,9012403005269,新規,0,2022-03-09,2022-03-09,合同会社響,,合同会社,東京都,調布市,深大寺南町４丁目４０－１－１０４,,13,208,1820013,,,,,,,2022-03-09,1,,,,,ヒビキ,0
2440,9013301048789,新規,0,2022-03-09,2022-03-09,株式会社ＡＳＫ,,株式会社,東京都,豊島区,巣鴨１丁目１１番２－２１６号,,13,116,1700002,,,,,,,2022-03-09,1,,,,,エイエスケー,0
2448,9020001145602,新規,0,2022-03-09,2022-03-09,株式会社ＣＯＣＯ　ＣＲＡＦＴ,,株式会社,神奈川県,横浜市旭区,金が谷１丁目３番１１号,,14,112,2410812,,,,,,,2022-03-09,1,,,,,ココクラフト,0
2454,9021003011461,新規,0,2022-03-09,2022-03-09,合同会社宮虎,,合同会社,神奈川県,茅ヶ崎市,汐見台２番１０－７０１号リストレジデンス茅ヶ崎海岸,,14,207,2530033,,,,,,,2022-03-09,1,,,,,ミヤトラ,0
2464,9030003018986,新規,0,2022-03-09,2022-03-09,ライフベスト合同会社,,合同会社,埼玉県,新座市,東北２丁目３９番１０号ドゥ―セット弐番館６階,,11,230,3520001,,,,,,,2022-03-09,1,,,,,ライフベスト,0
2470,9040001122558,新規,0,2022-03-09,2022-03-09,株式会社ＳＫコミュニケーションズ,,株式会社,千葉県,木更津市,畑沢南３丁目９番１号,,12,206,2920826,,,,,,,2022-03-09,1,,,,,エスケイコミュニケーションズ,0
2474,9040003019629,新規,0,2022-03-09,2022-03-09,合同会社ＥｎｊｏｙＬｉｆｅ,,合同会社,千葉県,市川市,平田４丁目１２－１０,,12,203,2720031,,,,,,,2022-03-09,1,,,,,エンジョイライフ,0
2475,9040005021541,新規,0,2022-03-09,2022-03-09,一般社団法人ＦＬＰ美容業支援協会,,その他の設立登記法人,千葉県,市川市,八幡３丁目３番２－４０４号,,12,203,2720021,,,,,,,2022-03-09,1,,,,,エフエルピービヨウギョウシエンキョウカイ,0
2478,9050001050758,新規,0,2022-03-09,2022-03-09,株式会社ギルド,,株式会社,茨城県,つくば市,梅園２丁目１番地１５スプリングテックつくばビル４０１,,08,220,3050045,,,,,,,2022-03-09,1,,,,,ギルド,0
2480,9050003006411,新規,0,2022-03-09,2022-03-09,ドリームファーム合同会社,,合同会社,茨城県,古河市,鴻巣１１６１番地３,,08,204,3060041,,,,,,,2022-03-09,1,,,,,ドリームファーム,0
2483,9050005013026,新規,0,2022-03-09,2022-03-09,ＹＧＰ鯨井行政書士法人,,その他の設立登記法人,茨城県,つくば市,千現１丁目１８番地４,,08,220,3050047,,,,,,,2022-03-09,1,,,,,ワイジーピークジライ,0
2486,9060001034644,新規,0,2022-03-09,2022-03-09,株式会社ＳＯＬＡＲ　ＰＯＷＥＲ　ＰＡＩＮＴＥＲＳ,,株式会社,栃木県,小山市,東城南４丁目３２番地８,,09,208,3230829,,,,,,,2022-03-09,1,,,,,ソーラーパワーペインターズ,0
2490,9080003002754,新規,0,2022-03-09,2022-03-09,合同会社ＫＭコーポレーション,,合同会社,静岡県,藤枝市,岡部町入野３５番地の４,,22,214,4211123,,,,,,,2022-03-09,1,,,,,ケーエムコーポレーション,0
2496,9090001017456,新規,0,2022-03-09,2022-03-09,株式会社ｖｕｌｌｅｔ,,株式会社,山梨県,甲府市,丸の内２丁目２番１号,,19,201,4000031,,,,,,,2022-03-09,1,,,,,ブレット,0
2497,9090001017464,新規,0,2022-03-09,2022-03-09,株式会社ＫＳＣ,,株式会社,山梨県,中巨摩郡昭和町,飯喰９１８－３,,19,384,4093852,,,,,,,2022-03-09,1,,,,,ケーエスシー,0
2512,9120001244229,新規,0,2022-03-09,2022-03-09,株式会社ブリッジ,,株式会社,大阪府,大阪市東淀川区,東中島１丁目２０番１２号,,27,114,5330033,,,,,,,2022-03-09,1,,,,,ブジッジ,0
2513,9120001244278,新規,0,2022-03-09,2022-03-09,株式会社ストーリー,,株式会社,大阪府,大阪市西区,西本町１丁目１３番３８号,,27,106,5500005,,,,,,,2022-03-09,1,,,,,ストーリー,0
2514,9120001244336,新規,0,2022-03-09,2022-03-09,株式会社ＡＲＴ　ＬＡＢ,,株式会社,大阪府,大阪市城東区,諏訪４丁目１０番２－３０２号,,27,118,5360021,,,,,,,2022-03-09,1,,,,,アートラボ,0
2515,9120001244344,新規,0,2022-03-09,2022-03-09,株式会社Ｐｌｕｍ　Ｗｉｎｄｏｗ,,株式会社,大阪府,大阪市西区,西本町１丁目４－１オリックス本町ビル４Ｆ,,27,106,5500005,,,,,,,2022-03-09,1,,,,,プラムウインドウ,0
2516,9120001244352,新規,0,2022-03-09,2022-03-09,株式会社エルコミュニケ―ション,,株式会社,大阪府,大阪市生野区,桃谷３丁目４番１６号,,27,116,5440034,,,,,,,2022-03-09,1,,,,,エルコミュニケーション,0
2517,9120001244369,新規,0,2022-03-09,2022-03-09,株式会社Ｄｏｃｔｏｒ’ｓ　ｏｎ　ｃａｌｌ,,株式会社,大阪府,大阪市北区,中崎西１丁目８番２４号アインズビル梅田３１０号,,27,127,5300015,,,,,,,2022-03-09,1,,,,,ドクターズオンコール,0
2518,9120001244385,新規,0,2022-03-09,2022-03-09,株式会社サナ・コーポレーション,,株式会社,大阪府,大阪市福島区,野田５丁目１１番５号,,27,103,5530005,,,,,,,2022-03-09,1,,,,,サナコーポレーション,0
2519,9120001244393,新規,0,2022-03-09,2022-03-09,ゼロ株式会社,,株式会社,大阪府,大阪市淀川区,十三東１丁目２０番１８－５０２号,,27,123,5320023,,,,,,,2022-03-09,1,,,,,ゼロ,0
2521,9120005022837,新規,0,2022-03-09,2022-03-09,一般社団法人日本探偵業認定調査士連盟,,その他の設立登記法人,大阪府,大阪市北区,豊崎３丁目２１番１３号,,27,127,5310072,,,,,,,2022-03-09,1,,,,,ニホンタンテイギョウニンテイチョウサシレンメイ,0
2543,9140001125204,新規,0,2022-03-09,2022-03-09,株式会社Ｍｉｕ,,株式会社,兵庫県,西宮市,大屋町２５番４－２０３号,,28,204,6638106,,,,,,,2022-03-09,1,,,,,ミウ,0
2544,9140001125212,新規,0,2022-03-09,2022-03-09,株式会社モアカル,,株式会社,兵庫県,豊岡市,城崎町湯島６０５番地,,28,209,6696101,,,,,,,2022-03-09,1,,,,,モアカル,0
2546,9140003017424,新規,0,2022-03-09,2022-03-09,野原オート合同会社,,合同会社,兵庫県,神戸市長田区,菅原通５丁目４９番地ＰＨ－３－５１１,,28,106,6530015,,,,,,,2022-03-09,1,,,,,ノハラオート,0
2547,9140003017432,新規,0,2022-03-09,2022-03-09,合同会社木幸里,,合同会社,兵庫県,宍粟市,一宮町上岸田５７６,,28,227,6714105,,,,,,,2022-03-09,1,,,,,キコリ,0
2566,9180305009314,新規,0,2022-03-09,2022-03-09,医療法人ｔｏ　Ｕ,,その他の設立登記法人,愛知県,安城市,南町２１９番地,,23,212,4460034,,,,,,,2022-03-09,1,,,,,トゥーユー,0
2587,9250001019452,新規,0,2022-03-09,2022-03-09,株式会社ＹＥ＆Ｙ,,株式会社,山口県,岩国市,麻里布町３丁目１２番１３号２号室,,35,208,7400018,,,,,,,2022-03-09,1,,,,,ワイイーアンドワイ,0
2589,9260003003833,新規,0,2022-03-09,2022-03-09,合同会社ＥＴＣＬＥ,,合同会社,岡山県,津山市,安岡町６９,,33,203,7080044,,,,,,,2022-03-09,1,,,,,エトクル,0
2603,9290801028327,新規,0,2022-03-09,2022-03-09,株式会社匠ハウジング,,株式会社,福岡県,北九州市戸畑区,幸町７番９－６０６号,,40,105,8040084,,,,,,,2022-03-09,1,,,,,タクミハウジング,0
2610,9310005008593,新規,0,2022-03-09,2022-03-09,医療法人おの小児科,,その他の設立登記法人,長崎県,諫早市,宇都町７番２１号,,42,204,8540061,,,,,,,2022-03-09,1,,,,,オノショウニカ,0
2612,9320001018942,新規,0,2022-03-09,2022-03-09,株式会社ＧＵＲＵＳＩＮＧＨＥ・ＤＩＳＴＲＩＢＵＴＯＲＳ,,株式会社,大分県,大分市,中央町４丁目２番２７号竹野西部ビル２０３,,44,201,8700035,,,,,,,2022-03-09,1,,,,,グルシンハディストリビュータース,0
2615,9340001024559,新規,0,2022-03-09,2022-03-09,園田木材加工株式会社,,株式会社,鹿児島県,霧島市,溝辺町崎森２３００番地,,46,218,8996405,,,,,,,2022-03-09,1,,,,,ソノダモクザイカッコウカコウ,0
2622,9360003011859,新規,0,2022-03-09,2022-03-09,ＹＵＭＩＨＡ沖縄合同会社,,合同会社,沖縄県,那覇市,安里２丁目４番３号Ｒｊビルディング国際通り,,47,201,9020067,,,,,,,2022-03-09,1,,,,,ユミハオキナワ,0
2623,9370001048290,新規,0,2022-03-09,2022-03-09,株式会社空き家快傑工房,,株式会社,宮城県,仙台市青葉区,川平４丁目１３番３号,,04,101,9810954,,,,,,,2022-03-09,1,,,,,アキヤカイケツコウボウ,0
2625,9370003005612,新規,0,2022-03-09,2022-03-09,合同会社テルコ屋,,合同会社,宮城県,登米市,豊里町浦軒７５番地２,,04,212,9870366,,,,,,,2022-03-09,1,,,,,テルコヤ,0
2633,9430003013674,新規,0,2022-03-09,2022-03-09,合同会社花田,,合同会社,北海道,札幌市豊平区,西岡四条９丁目６番３号,,01,105,0620034,,,,,,,2022-03-09,1,,,,,ハナダ,0
2644,9700150107276,新規,0,2022-03-09,2022-03-04,名古屋市中央卸売市場本場関連業務棟　配送施設運営協会,,その他,愛知県,名古屋市熱田区,川並町２－２２,,23,109,4560072,,,,,,,2022-03-04,1,,,,,ナゴヤシチユウオウオロシウリシジヨウホンジヨウカンレンギヨウムトウハイソウシセツウンエイキヨウカイ,0
