sequenceNumber,corporateNumber,process,correct,updateDate,changeDate,name,nameImageId,kind,prefectureName,cityName,streetNumber,addressImageId,prefectureCode,cityCode,postCode,addressOutside,addressOutsideImageId,closeDate,closeCause,successorCorporateNumber,changeCause,assignmentDate,latest,enName,enPrefectureName,enCityName,enAddressOutside,furigana,hihyoji
18,1010001242639,新規,0,2024-02-28,2024-02-28,ダヴィンチＰｒｏｊｅｃｔｓ株式会社,,株式会社,東京都,中央区,築地６丁目２２番４号,,13,102,1040045,,,,,,,2024-02-28,1,,,,,ダヴィンチプロジェクト,0
23,1010003042962,新規,0,2024-02-28,2024-02-28,合同会社Ｒｅ．Ｄｅ．Ｒａ,,合同会社,東京都,中央区,銀座１丁目１２－４Ｎ＆Ｅビル７階,,13,102,1040061,,,,,,,2024-02-28,1,,,,,リデラ,0
24,1010003042995,新規,0,2024-02-28,2024-02-28,東京イーストホテルマネジメント合同会社,,合同会社,東京都,千代田区,霞が関３丁目２番５号,,13,101,1000013,,,,,,,2024-02-28,1,,,,,トウキョウイーストホテルマネジメント,0
25,1010003043036,新規,0,2024-02-28,2024-02-28,合同会社Ｒｅｓｉｌｉｅｎｃｅ６,,合同会社,東京都,千代田区,霞が関３丁目２番５号,,13,101,1000013,,,,,,,2024-02-28,1,,,,,レジリエンスロク,0
26,1010003043044,新規,0,2024-02-28,2024-02-28,合同会社Ｒｅｓｉｌｉｅｎｃｅ３,,合同会社,東京都,千代田区,霞が関３丁目２番５号,,13,101,1000013,,,,,,,2024-02-28,1,,,,,レジリエンスサン,0
27,1010003043052,新規,0,2024-02-28,2024-02-28,合同会社ＫＩＲＦ,,合同会社,東京都,千代田区,内幸町２丁目１番６号,,13,101,1000011,,,,,,,2024-02-28,1,,,,,ケイアイアールエフ,0
28,1010003043069,新規,0,2024-02-28,2024-02-28,合同会社コールドブリッジ１号,,合同会社,東京都,中央区,日本橋１丁目４番１号,,13,102,1030027,,,,,,,2024-02-28,1,,,,,コールドブリッジイチゴウ,0
34,1010401180653,新規,0,2024-02-28,2024-02-28,株式会社北麻布開発,,株式会社,東京都,港区,六本木１丁目７番２４号麻布市兵衛町ホームズ７０３,,13,103,1060032,,,,,,,2024-02-28,1,,,,,キタアザブカイハツ,0
35,1010401180678,新規,0,2024-02-28,2024-02-28,Ｓａｔ株式会社,,株式会社,東京都,港区,南青山３丁目１番３６号青山丸竹ビル６Ｆ,,13,103,1070062,,,,,,,2024-02-28,1,,,,,サット,0
36,1010401180703,新規,0,2024-02-28,2024-02-28,オムプラス株式会社,,株式会社,東京都,港区,白金台５丁目５番２号マンション白金苑２０６号,,13,103,1080071,,,,,,,2024-02-28,1,,,,,オムプラス,0
37,1010403032035,新規,0,2024-02-28,2024-02-28,合同会社Ｌｏｔｕｓ　Ｂｌｅｕ１,,合同会社,東京都,港区,南麻布２丁目８番２１号ＳＮＵＧＭＩＮＡＭＩ－ＡＺＡＢＵ２０３ＬａｋｅｔｒｉｃｉｔｙＪａｐａｎ株式会社内,,13,103,1060047,,,,,,,2024-02-28,1,,,,,ロータスブルーワン,0
41,1010501051845,新規,0,2024-02-28,2024-02-28,安壹株式会社,,株式会社,東京都,台東区,台東２丁目３１－１０ＩＮＣｏｆｆｉｃｅ御徒町１０７号室,,13,106,1100016,,,,,,,2024-02-28,1,,,,,アンイチ,0
43,1010603010674,新規,0,2024-02-28,2024-02-28,フェルナ合同会社,,合同会社,東京都,江東区,大島１丁目３４番１４－４０３号,,13,108,1360072,,,,,,,2024-02-28,1,,,,,フェルナ,0
44,1010801034814,新規,0,2024-02-28,2024-02-28,Ａｑｕａｅｖｅｒ株式会社,,株式会社,東京都,大田区,北千束２丁目３５－１ＡＱＵＡＳＴＹＬＥ１０１,,13,111,1450062,,,,,,,2024-02-28,1,,,,,アクアエバー,0
54,1011001160277,新規,0,2024-02-28,2024-02-28,ＣｈａｔＡＩＤＥ株式会社,,株式会社,東京都,渋谷区,円山町５番５号Ｎａｖｉ渋谷Ｖ３階,,13,113,1500044,,,,,,,2024-02-28,1,,,,,チャットエイド,0
55,1011001160293,新規,0,2024-02-28,2024-02-28,Ｆ４株式会社,,株式会社,東京都,渋谷区,恵比寿４丁目２０番３号恵比寿ガーデンプレイスタワー１８階,,13,113,1500013,,,,,,,2024-02-28,1,,,,,エフフォー,0
56,1011001160310,新規,0,2024-02-28,2024-02-28,株式会社ＭＭＦ,,株式会社,東京都,渋谷区,代々木５丁目５番６号ＢＩＴ代々木公園Ｒａｖｅｎｎａ５０１,,13,113,1510053,,,,,,,2024-02-28,1,,,,,エムエムエフ,0
58,1011101106345,新規,0,2024-02-28,2024-02-28,株式会社ＰＭＧＰａｒｔｎｅｒｓ,,株式会社,東京都,新宿区,西新宿２丁目４番１号新宿ＮＳビル２５Ｆ,,13,104,1600023,,,,,,,2024-02-28,1,,,,,ピーエムジーパートナーズ,0
59,1011101106353,新規,0,2024-02-28,2024-02-28,株式会社エターナルプレイス,,株式会社,東京都,新宿区,西新宿３丁目３番１３号西新宿水間ビル６階,,13,104,1600023,,,,,,,2024-02-28,1,,,,,エターナルプレイス,0
62,1011103014141,新規,0,2024-02-28,2024-02-28,合同会社ＢＥＬＬ,,合同会社,東京都,新宿区,西新宿７丁目１６番１号,,13,104,1600023,,,,,,,2024-02-28,1,,,,,ベル,0
63,1011301029445,新規,0,2024-02-28,2024-02-28,株式会社ＫＧＯ,,株式会社,東京都,杉並区,上高井戸３丁目３番６号,,13,115,1680074,,,,,,,2024-02-28,1,,,,,ケージーオー,0
67,1011701027073,新規,0,2024-02-28,2024-02-28,正和株式会社,,株式会社,東京都,江戸川区,平井７丁目１６番２７号,,13,123,1320035,,,,,,,2024-02-28,1,,,,,ショウワ,0
77,1012401041554,新規,0,2024-02-28,2024-02-28,株式会社ＴＫマイクロデバイス,,株式会社,東京都,武蔵野市,境４丁目３番１１号,,13,203,1800022,,,,,,,2024-02-28,1,,,,,ティーケーマイクロデバイス,0
78,1012401041570,新規,0,2024-02-28,2024-02-28,株式会社ルアナ,,株式会社,東京都,武蔵野市,吉祥寺東町３丁目２３番１５号,,13,203,1800002,,,,,,,2024-02-28,1,,,,,ルアナ,0
82,1013301052138,新規,0,2024-02-28,2024-02-28,Ｕｎｉ　Ｐｏｗｅｒ株式会社,,株式会社,東京都,豊島区,西池袋１丁目４４番４号,,13,116,1710021,,,,,,,2024-02-28,1,,,,,ユニパワー,0
92,1030003023705,新規,0,2024-02-28,2024-02-28,吉美合同会社,,合同会社,埼玉県,川越市,大字天沼新田１６４－１４９,,11,201,3500806,,,,,,,2024-02-28,1,,,,,ヨシミ,0
100,1040001132358,新規,0,2024-02-28,2024-02-28,栄和産業株式会社,,株式会社,千葉県,茂原市,国府関１７５９番地１号,,12,210,2970067,,,,,,,2024-02-28,1,,,,,エイワサンギョウ,0
101,1040001132390,新規,0,2024-02-28,2024-02-28,株式会社Ｍｕ‐Ｍｕ　Ｓｔｙｌｅ,,株式会社,千葉県,松戸市,新松戸５丁目１番地新松戸中央パークハウスＣ－８１７号,,12,207,2700034,,,,,,,2024-02-28,1,,,,,ムームスタイル,0
102,1040001132399,新規,0,2024-02-28,2024-02-28,株式会社ジョウシン,,株式会社,千葉県,富里市,七栄４５９番地６,,12,233,2860221,,,,,,,2024-02-28,1,,,,,ジョウシン,0
103,1040001132408,新規,0,2024-02-28,2024-02-28,株式会社幸翔,,株式会社,千葉県,松戸市,本町１番地２３Ｗ松戸７階,,12,207,2710091,,,,,,,2024-02-28,1,,,,,コウショウ,0
104,1040001132416,新規,0,2024-02-28,2024-02-28,株式会社ＭＨＢｉｒｏｈａ,,株式会社,千葉県,松戸市,中和倉４６番地の１,,12,207,2700025,,,,,,,2024-02-28,1,,,,,エムエイチビーイロハ,0
105,1040003024396,新規,0,2024-02-28,2024-02-28,合同会社ＴＡＳＯ,,合同会社,千葉県,我孫子市,都部２９番地の１（２０１号）シャン・ド・メゾン２,,12,222,2701131,,,,,,,2024-02-28,1,,,,,タソ,0
106,1040003024405,新規,0,2024-02-28,2024-02-28,合同会社Ａｌｉｉ,,合同会社,千葉県,流山市,おおたかの森南１丁目６－１シティーハウス２０３,,12,220,2700139,,,,,,,2024-02-28,1,,,,,アリー,0
107,1040005022299,新規,0,2024-02-28,2024-02-28,ＮＰＯ法人ネクストステージ,,その他の設立登記法人,千葉県,千葉市緑区,あすみが丘８丁目４６番地６,,12,105,2670066,,,,,,,2024-02-28,1,,,,,ネクストステージ,0
117,1070001041440,新規,0,2024-02-28,2024-02-28,ＮＩＫＫＯファーム株式会社,,株式会社,群馬県,吾妻郡東吾妻町,大字萩生１５５５番地７,,10,429,3770932,,,,,,,2024-02-28,1,,,,,ニッコウファーム,0
123,1090001018560,新規,0,2024-02-28,2024-02-28,株式会社イチフジエンターテイメント,,株式会社,山梨県,南都留郡富士河口湖町,大石２９５４番地１,,19,430,4010305,,,,,,,2024-02-28,1,,,,,イチフジエンターテイメント,0
124,1090003002505,新規,0,2024-02-28,2024-02-28,合同会社アイトマス,,合同会社,山梨県,北杜市,小淵沢町上笹尾３３３１番地１７３,,19,209,4080041,,,,,,,2024-02-28,1,,,,,アイトマス,0
125,1100001037237,新規,0,2024-02-28,2024-02-28,東雲国際株式会社,,株式会社,長野県,安曇野市,穂高柏原１６７６番地５,,20,220,3998304,,,,,,,2024-02-28,1,,,,,トウウンコクサイ,0
126,1100003007378,新規,0,2024-02-28,2024-02-28,合同会社Ｔａｋｅ．ｎｅｍｏ,,合同会社,長野県,北安曇郡白馬村,大字北城３０２０番地５１６,,20,485,3999301,,,,,,,2024-02-28,1,,,,,テイクドットネモ,0
140,1120001262519,新規,0,2024-02-28,2024-02-28,アイエフジェイ株式会社,,株式会社,大阪府,大阪市中央区,南本町２丁目３番１２号ＥＤＧＥ本町３Ｆ,,27,128,5410054,,,,,,,2024-02-28,1,,,,,アイエフジェイ,0
141,1120001262642,新規,0,2024-02-28,2024-02-28,株式会社ＷＨＩＴＥ　ＡＱＵＡ,,株式会社,大阪府,大阪市阿倍野区,松崎町１丁目１番８号オリエントシティ・Ｍ４０１号室,,27,119,5450053,,,,,,,2024-02-28,1,,,,,ホワイトアクア,0
142,1120001262675,新規,0,2024-02-28,2024-02-28,ＤＴｘ株式会社,,株式会社,大阪府,大阪市西区,西本町１丁目８番２号三晃ビル５０７,,27,106,5500005,,,,,,,2024-02-28,1,,,,,ディーティーエックス,0
143,1120001262683,新規,0,2024-02-28,2024-02-28,株式会社ＷＩＮ　ＷＩＮ　ＴＲＡＶＥＬ　ＪＡＰＡＮ,,株式会社,大阪府,大阪市北区,西天満６丁目３－１１梅田ベイスワン４０１,,27,127,5300047,,,,,,,2024-02-28,1,,,,,ウインウイントラベルジャパン,0
144,1120001262717,新規,0,2024-02-28,2024-02-28,カルテックＩＰ株式会社,,株式会社,大阪府,大阪市中央区,博労町３丁目３番７号,,27,128,5410059,,,,,,,2024-02-28,1,,,,,カルテックアイピー,0
148,1120003026038,新規,0,2024-02-28,2024-02-28,ＮＡＯＭＩ合同会社,,合同会社,大阪府,大阪市生野区,新今里１丁目１９番５号店舗Ａ,,27,116,5440001,,,,,,,2024-02-28,1,,,,,ナオミ,0
152,1120101069129,新規,0,2024-02-28,2024-02-28,株式会社ＴＯＲＣＨ,,株式会社,大阪府,阪南市,箱作１３０９番地１,,27,232,5990232,,,,,,,2024-02-28,1,,,,,トーチ,0
154,1120903005066,新規,0,2024-02-28,2024-02-28,合同会社エデン,,合同会社,大阪府,摂津市,鳥飼新町２丁目１７番４１号,,27,224,5660065,,,,,,,2024-02-28,1,,,,,エデン,0
165,1140001133429,新規,0,2024-02-28,2024-02-28,株式会社Ｌｕａｎａ,,株式会社,兵庫県,神戸市北区,藤原台南町２丁目１２番５号イーストブルー七番館１０２,,28,109,6511303,,,,,,,2024-02-28,1,,,,,ルアナ,0
166,1140003020212,新規,0,2024-02-28,2024-02-28,合同会社ＳＭＡＲＴ　ＳＲ,,合同会社,兵庫県,西脇市,野村町茜が丘１０番地の２,,28,213,6770057,,,,,,,2024-02-28,1,,,,,スマートエスアール,0
170,1150003003190,新規,0,2024-02-28,2024-02-28,合同会社Ｔｈａｉ　Ｍａｒｋｅｔ,,合同会社,奈良県,大和高田市,春日町２丁目６番９号,,29,202,6350067,,,,,,,2024-02-28,1,,,,,タイマーケット,0
171,1160003003124,新規,0,2024-02-28,2024-02-28,ＬＡＭ　ＬＩＮＨ合同会社,,合同会社,滋賀県,甲賀市,水口町宮の前１－１８,,25,209,5280013,,,,,,,2024-02-28,1,,,,,ランリン,0
178,1180001160287,新規,0,2024-02-28,2024-02-28,片山建設株式会社,,株式会社,愛知県,常滑市,阿野町４丁目８番地,,23,216,4790814,,,,,,,2024-02-28,1,,,,,カタヤマケンセツ,0
179,1180001160304,新規,0,2024-02-28,2024-02-28,株式会社ＸＳ　ＨＯＬＤＩＮＧＳ,,株式会社,愛知県,名古屋市中区,栄５丁目３番６号エルマノス栄中駒ビル３階,,23,106,4600008,,,,,,,2024-02-28,1,,,,,バイエスホールディングス,0
180,1180001160312,新規,0,2024-02-28,2024-02-28,ＢＬＩＣＫ　ＴＯＯＬ株式会社,,株式会社,愛知県,岩倉市,下本町燈明庵１５９番地１マンション千代１０３号室,,23,228,4820005,,,,,,,2024-02-28,1,,,,,ブリックトゥール,0
181,1180001160320,新規,0,2024-02-28,2024-02-28,株式会社アソビシステム,,株式会社,愛知県,名古屋市名東区,梅森坂２丁目７０５番地,,23,115,4650065,,,,,,,2024-02-28,1,,,,,アソビシステム,0
182,1180001160345,新規,0,2024-02-28,2024-02-28,株式会社ＦＡＩ,,株式会社,愛知県,名古屋市中村区,平池町４丁目６０番地の１２グローバルゲート名古屋１１Ｆ,,23,105,4530872,,,,,,,2024-02-28,1,,,,,ファイ,0
183,1180001160353,新規,0,2024-02-28,2024-02-28,コンピューターマネジメント株式会社,,株式会社,愛知県,名古屋市東区,葵３丁目１８番１７号,,23,102,4610004,,,,,,,2024-02-28,1,,,,,コンピューターマネジメント,0
185,1180003026395,新規,0,2024-02-28,2024-02-28,ラナコンサルティング合同会社,,合同会社,愛知県,岩倉市,西市町寺西１０番地３,,23,228,4820036,,,,,,,2024-02-28,1,,,,,ラナコンサルティング,0
190,1180303006015,新規,0,2024-02-28,2024-02-28,合同会社サンフィールズ,,合同会社,愛知県,刈谷市,御幸町５丁目１６－２０３,,23,210,4480821,,,,,,,2024-02-28,1,,,,,サンフィールズ,0
191,1190001031132,新規,0,2024-02-28,2024-02-28,株式会社木畑,,株式会社,三重県,伊賀市,平野樋之口２４６番地の１,,24,216,5180802,,,,,,,2024-02-28,1,,,,,キバタ,0
196,1210001019653,新規,0,2024-02-28,2024-02-28,株式会社島崎農園,00133877,株式会社,福井県,福井市,東大味町第１１号４４番地,,18,201,9190312,,,,,,,2024-02-28,1,,,,,シマザキノウエン,0
203,1240001062849,新規,0,2024-02-28,2024-02-28,株式会社丸松ホールディングス,,株式会社,広島県,尾道市,瀬戸田町福田乙２９７番地３,,34,205,7222405,,,,,,,2024-02-28,1,,,,,マルマツホールディングス,0
212,1290001104778,新規,0,2024-02-28,2024-02-28,和美科技株式会社,,株式会社,福岡県,福岡市南区,井尻２丁目３２番２５－２０５号,,40,134,8111302,,,,,,,2024-02-28,1,,,,,ワビカギ,0
213,1290001104786,新規,0,2024-02-28,2024-02-28,ザイミット株式会社,,株式会社,福岡県,福岡市博多区,古門戸町１０番２０号博多古門戸アパートメント３０２号,,40,132,8120029,,,,,,,2024-02-28,1,,,,,ザイミット,0
214,1290001104860,新規,0,2024-02-28,2024-02-28,株式会社ｉｒｏｎ・ｗａｒｒｉｏｒ,,株式会社,福岡県,福岡市城南区,樋井川３丁目１７番３６号,,40,136,8140153,,,,,,,2024-02-28,1,,,,,アイアンウォリアー,0
218,1300003002078,新規,0,2024-02-28,2024-02-28,ＳｕｎｌｉｇｈｔＹｅｌｌｏｗ合同会社,,合同会社,佐賀県,唐津市,西旗町２番２号,,41,202,8470854,,,,,,,2024-02-28,1,,,,,サンライトイエロー,0
219,1310005008741,新規,0,2024-02-28,2024-02-28,医療法人尚真会,,その他の設立登記法人,長崎県,長崎市,大橋町１７番１号,,42,201,8528134,,,,,,,2024-02-28,1,,,,,ショウシンカイ,0
220,1320005010135,新規,0,2024-02-28,2024-02-28,特定非営利活動法人ビジョナリー・Ｗ．Ｆ．アカデミー,,その他の設立登記法人,大分県,大分市,大字神崎１６２番地,,44,201,8700100,,,,,,,2024-02-28,1,,,,,ビジョナリーダブルエフアカデミー,0
221,1330001031778,新規,0,2024-02-28,2024-02-28,ステラス株式会社,,株式会社,熊本県,熊本市東区,戸島３丁目９－９７,,43,102,8618041,,,,,,,2024-02-28,1,,,,,ステラス,0
222,1330001031786,新規,0,2024-02-28,2024-02-28,Ａｑｕａ　Ｖａｌｌｅｙ株式会社,,株式会社,熊本県,熊本市西区,池田３丁目３４番５号,,43,103,8600082,,,,,,,2024-02-28,1,,,,,アクアバレー,0
223,1330003010235,新規,0,2024-02-28,2024-02-28,合同会社ＨＯＲＳＥ　ＣＲＯＷＮ,,合同会社,熊本県,八代市,二見本町１３５８番地２,,43,202,8695172,,,,,,,2024-02-28,1,,,,,ホースクラウン,0
224,1330003010243,新規,0,2024-02-28,2024-02-28,合同会社ＭＩＹＡＢＩ,,合同会社,熊本県,熊本市中央区,新大江１丁目１４番３号ムライチ・ガーデンテラス２０６,,43,101,8620972,,,,,,,2024-02-28,1,,,,,ミヤビ,0
227,1340001026315,新規,0,2024-02-28,2024-02-28,株式会社嬉動,,株式会社,鹿児島県,阿久根市,大川８９５５番地,,46,206,8991741,,,,,,,2024-02-28,1,,,,,キドウ,0
239,1380001034330,新規,0,2024-02-28,2024-02-28,株式会社ＥｘｔｒａＰａｓｓ,,株式会社,福島県,福島市,渡利字舟場２８番地の５,,07,201,9608141,,,,,,,2024-02-28,1,,,,,エクストラパス,0
247,1400005008385,新規,0,2024-02-28,2024-02-28,特定非営利活動法人おおつちのあそび,,その他の設立登記法人,岩手県,上閉伊郡大槌町,大槌第６地割５番地,,03,461,0281131,,,,,,,2024-02-28,1,,,,,オオツチノアソビ,0
250,1430001091176,新規,0,2024-02-28,2024-02-28,株式会社Ｑｕａｄ,,株式会社,北海道,札幌市西区,発寒七条１３丁目３番２０号,,01,107,0630827,,,,,,,2024-02-28,1,,,,,クアッド,0
257,1450005004396,新規,0,2024-02-28,2024-02-28,特定非営利活動法人悠久の森,,その他の設立登記法人,北海道,上川郡上川町,字越路２１３番地２,,01,457,0781775,,,,,,,2024-02-28,1,,,,,,0
260,1470001020049,新規,0,2024-02-28,2024-02-28,株式会社ＰＬＵＳ　ＣＡＲ　ＲＥＮＴＡＬ,,株式会社,香川県,丸亀市,北平山町２丁目１番１８号,,37,202,7630015,,,,,,,2024-02-28,1,,,,,プラスカーレンタル,0
262,1500003003188,新規,0,2024-02-28,2024-02-28,合同会社ＲＫ,,合同会社,愛媛県,松山市,室町２丁目３番３号パレグラン室町７０２号,,38,201,7900026,,,,,,,2024-02-28,1,,,,,アールケー,0
270,2010001242555,新規,0,2024-02-28,2024-02-28,株式会社ＫＳＴ,,株式会社,東京都,中央区,銀座８丁目８番５号陽栄銀座ビルＢ１Ｆ,,13,102,1040061,,,,,,,2024-02-28,1,,,,,ケーエスティー,0
271,2010001242596,新規,0,2024-02-28,2024-02-28,株式会社ＳＴＵＤＩＯ２ＦＤ,,株式会社,東京都,中央区,佃２丁目１番２号,,13,102,1040051,,,,,,,2024-02-28,1,,,,,スタジオニーエフディー,0
272,2010001242662,新規,0,2024-02-28,2024-02-28,株式会社玄真,,株式会社,東京都,千代田区,神田佐久間町２丁目１８番地１秋葉原ＳＴＮフロント１０階,,13,101,1010025,,,,,,,2024-02-28,1,,,,,シズマ,0
273,2010001242670,新規,0,2024-02-28,2024-02-28,株式会社ｂｅｌｕｃａｓ,,株式会社,東京都,千代田区,神田錦町２丁目５番地３０,,13,101,1010054,,,,,,,2024-02-28,1,,,,,ベルカス,0
274,2010001242695,新規,0,2024-02-28,2024-02-28,まじめな訪問看護ナーシング株式会社,,株式会社,東京都,千代田区,平河町１丁目７番地２０平河町辻田ビル７Ｆ,,13,101,1020093,,,,,,,2024-02-28,1,,,,,マジメナホウモンカンゴナーシング,0
277,2010003042937,新規,0,2024-02-28,2024-02-28,ＭＡＴＣＨ　Ｔｏｋｙｏ合同会社,,合同会社,東京都,文京区,白山１丁目１８番１５号グレース白山４０２,,13,105,1130001,,,,,,,2024-02-28,1,,,,,マッチトウキョウ,0
278,2010003043035,新規,0,2024-02-28,2024-02-28,合同会社堀川,,合同会社,東京都,千代田区,霞が関３丁目２番５号,,13,101,1000013,,,,,,,2024-02-28,1,,,,,ホリカワ,0
279,2010003043043,新規,0,2024-02-28,2024-02-28,合同会社Ｒｅｓｉｌｉｅｎｃｅ１０,,合同会社,東京都,千代田区,霞が関３丁目２番５号,,13,101,1000013,,,,,,,2024-02-28,1,,,,,レジリエンスジュウ,0
285,2010401180636,新規,0,2024-02-28,2024-02-28,株式会社さちらい,,株式会社,東京都,港区,南青山２丁目２番１５号,,13,103,1070062,,,,,,,2024-02-28,1,,,,,サチライ,0
286,2010401180685,新規,0,2024-02-28,2024-02-28,株式会社ｓｕｎｎｙ９６,,株式会社,東京都,港区,南青山３丁目１番３６号青山丸竹ビル６Ｆ,,13,103,1070062,,,,,,,2024-02-28,1,,,,,サニーナインティーシックス,0
287,2010401180693,新規,0,2024-02-28,2024-02-28,株式会社シンセ,,株式会社,東京都,港区,南青山３丁目１番３６号青山丸竹ビル６Ｆ,,13,103,1070062,,,,,,,2024-02-28,1,,,,,シンセ,0
293,2010601064721,新規,0,2024-02-28,2024-02-28,株式会社ハナミヤビ,,株式会社,東京都,墨田区,石原４丁目１５番４－９０１号,,13,107,1300011,,,,,,,2024-02-28,1,,,,,ハナミヤビ,0
294,2010603010608,新規,0,2024-02-28,2024-02-28,合同会社ＣＯＹＯＬＩ,,合同会社,東京都,江東区,猿江２丁目１６‐２３ダイアパレス猿江恩賜公園１１４,,13,108,1350003,,,,,,,2024-02-28,1,,,,,コヨリ,0
295,2010603010657,新規,0,2024-02-28,2024-02-28,Ｄｅｓｉｇｎａｒｅ合同会社,,合同会社,東京都,江東区,豊洲３丁目５番２１－５１１号,,13,108,1350061,,,,,,,2024-02-28,1,,,,,デシグナーレ,0
299,2010705003591,新規,0,2024-02-28,2024-02-28,一般財団法人Ｓ．Ｓ財団,,その他の設立登記法人,東京都,品川区,東五反田２丁目５番２号,,13,109,1410022,,,,,,,2024-02-28,1,,,,,エスエスザイダン,0
307,2011001160268,新規,0,2024-02-28,2024-02-28,ピックルコンストラクション株式会社,,株式会社,東京都,渋谷区,代々木１丁目３０番３号,,13,113,1510053,,,,,,,2024-02-28,1,,,,,ピックルコンストラクション,0
308,2011001160276,新規,0,2024-02-28,2024-02-28,株式会社ＧＲＡＮＤ　ＩＮＣ,,株式会社,東京都,目黒区,碑文谷６丁目２番３号,,13,110,1520003,,,,,,,2024-02-28,1,,,,,グランドインク,0
310,2011003018571,新規,0,2024-02-28,2024-02-28,ＣＲＡＦＴ　ＭＥＤＩＡ　ＷＯＲＫＳ合同会社,,合同会社,東京都,目黒区,下目黒１丁目１番１４号コノトラビル７Ｆ,,13,110,1530064,,,,,,,2024-02-28,1,,,,,クラフトメディアワークス,0
314,2011101106328,新規,0,2024-02-28,2024-02-28,株式会社ｓｏ,,株式会社,東京都,新宿区,歌舞伎町２丁目２５番８号エコプレイス新宿２６１,,13,104,1600021,,,,,,,2024-02-28,1,,,,,エスオー,0
316,2011105010955,新規,0,2024-02-28,2024-02-28,一般社団法人ＴＵ００２,,その他の設立登記法人,東京都,新宿区,四谷２丁目９番地１５東京ユナイテッド綜合事務所内,,13,104,1600004,,,,,,,2024-02-28,1,,,,,ティーユーゼロゼロツー,0
318,2011301029444,新規,0,2024-02-28,2024-02-28,エミル株式会社,,株式会社,東京都,杉並区,西荻北２丁目３－９コメットビル６階,,13,115,1670042,,,,,,,2024-02-28,1,,,,,エミル,0
320,2011501030367,新規,0,2024-02-28,2024-02-28,株式会社リーヴフォー,,株式会社,東京都,荒川区,西日暮里６丁目６５番１号日本運輸倉庫Ａ棟４Ｆ,,13,118,1160013,,,,,,,2024-02-28,1,,,,,リーヴフォー,0
321,2011505002610,新規,0,2024-02-28,2024-02-28,一般社団法人絆友会,,その他の設立登記法人,東京都,北区,赤羽南２丁目１０番２０号,,13,117,1150044,,,,,,,2024-02-28,1,,,,,ハンユウカイ,0
325,2011801043845,新規,0,2024-02-28,2024-02-28,東盛株式会社,,株式会社,東京都,葛飾区,東金町７丁目８番１５号,,13,122,1250041,,,,,,,2024-02-28,1,,,,,トウセイ,0
342,2013301052129,新規,0,2024-02-28,2024-02-28,舟不繋商事株式会社,,株式会社,東京都,豊島区,南大塚１丁目６０番２０号,,13,116,1700005,,,,,,,2024-02-28,1,,,,,シュウフケイショウジ,0
349,2020005016293,新規,0,2024-02-28,2024-02-28,一般社団法人関東クリニック,,その他の設立登記法人,神奈川県,横浜市中区,山下町１９５番地１階,,14,104,2310023,,,,,,,2024-02-28,1,,,,,カントウクリニック,0
353,2021003014198,新規,0,2024-02-28,2024-02-28,蓉アンドカンパニー合同会社,,合同会社,神奈川県,茅ヶ崎市,小和田１丁目７－１３－Ａ１０１,,14,207,2530012,,,,,,,2024-02-28,1,,,,,ヨウアンドカンパニー,0
359,2030001158881,新規,0,2024-02-28,2024-02-28,株式会社ＳＡＳＵ工房,,株式会社,埼玉県,草加市,金明町９２８番地２,,11,221,3400052,,,,,,,2024-02-28,1,,,,,サスコウボウ,0
360,2030001158898,新規,0,2024-02-28,2024-02-28,株式会社信ＣＲＥＡＴＥ,,株式会社,埼玉県,坂戸市,大字森戸５９１番地５,,11,239,3500244,,,,,,,2024-02-28,1,,,,,シンクリエイト,0
365,2030003023704,新規,0,2024-02-28,2024-02-28,合同会社ＡＮＩＭＡＬ,,合同会社,埼玉県,日高市,大字高萩１６４０番地５,,11,242,3501213,,,,,,,2024-02-28,1,,,,,アニマル,0
366,2030003023712,新規,0,2024-02-28,2024-02-28,合同会社メディカルマイビューティー,,合同会社,埼玉県,川口市,元郷１丁目１番２１号,,11,203,3320011,,,,,,,2024-02-28,1,,,,,メディカルマイビューティー,0
370,2040001132365,新規,0,2024-02-28,2024-02-28,株式会社ＺＳＵＰ建設,,株式会社,千葉県,松戸市,横須賀１丁目１３番地の３４,,12,207,2700031,,,,,,,2024-02-28,1,,,,,ゼットエスユーピーケンセツ,0
371,2040001132398,新規,0,2024-02-28,2024-02-28,株式会社八女工業所,,株式会社,千葉県,木更津市,清見台南３丁目１０番５号,,12,206,2920042,,,,,,,2024-02-28,1,,,,,ヤメコウギョウショ,0
372,2040001132407,新規,0,2024-02-28,2024-02-28,株式会社日本サクセス,,株式会社,千葉県,千葉市中央区,院内１丁目２番９号高建ビル,00133878,12,101,2600018,,,,,,,2024-02-28,1,,,,,,0
373,2040001132415,新規,0,2024-02-28,2024-02-28,株式会社かねたや,,株式会社,千葉県,千葉市美浜区,ひび野１丁目７,,12,106,2610021,,,,,,,2024-02-28,1,,,,,カネタヤ,0
374,2040001132423,新規,0,2024-02-28,2024-02-28,株式会社ベンチャーリンク,,株式会社,千葉県,松戸市,六実４丁目２番地の２３アルカディア２０２号,,12,207,2702204,,,,,,,2024-02-28,1,,,,,ベンチャーリンク,0
376,2040003024338,新規,0,2024-02-28,2024-02-28,合同会社ライクワイズ,,合同会社,千葉県,柏市,若柴２２７番地６柏の葉キャンパス１４７街区Ｄ－２２１０号,,12,217,2770871,,,,,,,2024-02-28,1,,,,,ライクワイズ,0
377,2040003024379,新規,0,2024-02-28,2024-02-28,合同会社森とともに,,合同会社,千葉県,鴨川市,金束３２３,,12,223,2960233,,,,,,,2024-02-28,1,,,,,モリトトモニ,0
378,2040003024420,新規,0,2024-02-28,2024-02-28,合同会社よりそい,,合同会社,千葉県,木更津市,金田東４丁目４番地３４,,12,206,2920009,,,,,,,2024-02-28,1,,,,,ヨリソイ,0
383,2070001041423,新規,0,2024-02-28,2024-02-28,株式会社泰翔,,株式会社,群馬県,伊勢崎市,富塚町６３６番地１,,10,204,3720833,,,,,,,2024-02-28,1,,,,,タイト,0
392,2090003002504,新規,0,2024-02-28,2024-02-28,合同会社ｕｎｉｆａｒｍ,,合同会社,山梨県,南アルプス市,野牛島２０３２番地,,19,208,4000205,,,,,,,2024-02-28,1,,,,,ユニファーム,0
394,2100001037236,新規,0,2024-02-28,2024-02-28,櫻国際株式会社,,株式会社,長野県,安曇野市,穂高柏原１６７６番地５,,20,220,3998304,,,,,,,2024-02-28,1,,,,,サクラコクサイ,0
402,2120001262658,新規,0,2024-02-28,2024-02-28,ロジジャパン株式会社,,株式会社,大阪府,大阪市城東区,鴫野西５丁目１８番４０－１４０６号,,27,118,5360014,,,,,,,2024-02-28,1,,,,,ロジジャパン,0
403,2120001262666,新規,0,2024-02-28,2024-02-28,株式会社すまいる・ナビ,,株式会社,大阪府,大阪市住之江区,北加賀屋５丁目６番５－６０５号,,27,125,5590011,,,,,,,2024-02-28,1,,,,,スマイルナビ,0
404,2120001262682,新規,0,2024-02-28,2024-02-28,株式会社リープ,,株式会社,大阪府,大阪市鶴見区,今津中１丁目６番１２号シャトー幸福１１０,,27,124,5380042,,,,,,,2024-02-28,1,,,,,リープ,0
405,2120001262699,新規,0,2024-02-28,2024-02-28,米禾株式会社,,株式会社,大阪府,大阪市大正区,平尾４丁目７番９号１０１号室,,27,108,5510012,,,,,,,2024-02-28,1,,,,,ベイカ,0
406,2120001262724,新規,0,2024-02-28,2024-02-28,津忠貿易株式会社,,株式会社,大阪府,大阪市住吉区,万代東１丁目３－２２－２０６,,27,120,5580056,,,,,,,2024-02-28,1,,,,,ツチュウボウエキ,0
408,2120003025996,新規,0,2024-02-28,2024-02-28,合同会社ＫＯＴＯＢＵＫＩ,,合同会社,大阪府,大阪市西区,立売堀３丁目３番１３－２０１号,,27,106,5500012,,,,,,,2024-02-28,1,,,,,コトブキ,0
412,2120101069128,新規,0,2024-02-28,2024-02-28,アステラ株式会社,,株式会社,大阪府,岸和田市,大町３丁目６番２３号１階,,27,202,5960812,,,,,,,2024-02-28,1,,,,,,0
417,2120901048826,新規,0,2024-02-28,2024-02-28,株式会社トゥザポイント,,株式会社,大阪府,吹田市,千里山西６丁目１６－１２,,27,205,5650851,,,,,,,2024-02-28,1,,,,,トゥザポイント,0
421,2130001076454,新規,0,2024-02-28,2024-02-28,株式会社ＲＯＵＮＤ　ＴＯＳＳ,,株式会社,京都府,京都市右京区,太秦松本町１４番地５５Ｌａｂｏ５５４号室,,26,108,6168116,,,,,,,2024-02-28,1,,,,,ラウンドトス,0
422,2130001076462,新規,0,2024-02-28,2024-02-28,株式会社ＳＲ,,株式会社,京都府,京都市南区,上鳥羽川端町７１－１０,,26,107,6018171,,,,,,,2024-02-28,1,,,,,エスアール,0
429,2140001133460,新規,0,2024-02-28,2024-02-28,株式会社総合企画Ｒ,,株式会社,兵庫県,養父市,大屋町蔵垣１０２４番地,,28,222,6670321,,,,,,,2024-02-28,1,,,,,,0
432,2140003020203,新規,0,2024-02-28,2024-02-28,合同会社ＣＬＡＢ,,合同会社,兵庫県,明石市,東人丸町２４番２０号,,28,203,6730876,,,,,,,2024-02-28,1,,,,,クラブ,0
433,2140003020211,新規,0,2024-02-28,2024-02-28,合同会社ＴＡＫＡＯコーポレーション,,合同会社,兵庫県,神戸市中央区,宮本通６丁目５番１４－４０２号,,28,110,6510063,,,,,,,2024-02-28,1,,,,,タカオコーポレーション,0
434,2150001027100,新規,0,2024-02-28,2024-02-28,株式会社ハレルーム,,株式会社,奈良県,奈良市,西大寺本町２番２４号,,29,201,6310816,,,,,,,2024-02-28,1,,,,,ハレルーム,0
436,2160001025714,新規,0,2024-02-28,2024-02-28,株式会社リエゾンケア,,株式会社,滋賀県,東近江市,宮荘町６８２番地２,,25,213,5291404,,,,,,,2024-02-28,1,,,,,リエゾンケア,0
444,2180001160294,新規,0,2024-02-28,2024-02-28,株式会社純真,,株式会社,愛知県,名古屋市中川区,万場２丁目６１２－４,,23,110,4540997,,,,,,,2024-02-28,1,,,,,ジュンシン,0
445,2180001160311,新規,0,2024-02-28,2024-02-28,株式会社喜日堂,00133876,株式会社,愛知県,名古屋市中村区,名駅５丁目３３番２１号（３１０６）,,23,105,4500002,,,,,,,2024-02-28,1,,,,,キジツドウ,0
446,2180001160344,新規,0,2024-02-28,2024-02-28,株式会社ＫＲＥＡＴＥ　ＩＭＡＧＥ,,株式会社,愛知県,名古屋市中村区,大秋町２丁目９６番地７,,23,105,4530042,,,,,,,2024-02-28,1,,,,,クリエイトイメージ,0
450,2180003026428,新規,0,2024-02-28,2024-02-28,合同会社ライフサポートかなやま,,合同会社,愛知県,名古屋市中区,金山５丁目１１番１８号,,23,106,4600022,,,,,,,2024-02-28,1,,,,,ライフサポートカナヤマ,0
451,2180003026436,新規,0,2024-02-28,2024-02-28,ＳＧＲ管理合同会社,,合同会社,愛知県,瀬戸市,内田町１丁目５９－２６,,23,204,4890902,,,,,,,2024-02-28,1,,,,,エスジーアールカンリ,0
452,2180305009551,新規,0,2024-02-28,2024-02-28,特定非営利活動法人ちえの森,,その他の設立登記法人,愛知県,高浜市,沢渡町２丁目６番地２６ＨａｐｐｉｎｅｓｓＳＡＷＡ３０２号,,23,227,4441333,,,,,,,2024-02-28,1,,,,,チエノモリ,0
453,2190003004589,新規,0,2024-02-28,2024-02-28,合同会社ｈｉｊｉｒｉｋｏ,,合同会社,三重県,伊賀市,山畑１６０４,,24,216,5191421,,,,,,,2024-02-28,1,,,,,ヒジリコ,0
461,2290001104851,新規,0,2024-02-28,2024-02-28,ＵＭＲソリューション株式会社,,株式会社,福岡県,久留米市,東和町６番２０号,,40,203,8300035,,,,,,,2024-02-28,1,,,,,ユーエムアールソリューション,0
473,2350003004580,新規,0,2024-02-28,2024-02-28,合同会社ＳＧＦ,,合同会社,宮崎県,北諸県郡三股町,大字長田２８８１番地,,45,341,8891911,,,,,,,2024-02-28,1,,,,,エスジーエフ,0
474,2360001033250,新規,0,2024-02-28,2024-02-28,株式会社ＭＡＫＥ’Ｓ　ＯＫＩＮＡＷＡ,,株式会社,沖縄県,那覇市,安里１丁目１番５号りゅうきゅうプライム２Ｆ,,47,201,9020067,,,,,,,2024-02-28,1,,,,,メイクスオキナワ,0
475,2360005006995,新規,0,2024-02-28,2024-02-28,一般社団法人ＤＹＬアソシエーション,,その他の設立登記法人,沖縄県,沖縄市,大里２丁目３２番１６号シャトー城北Ｐ３－３０１,,47,211,9042163,,,,,,,2024-02-28,1,,,,,ディーワイエルアソシエーション,0
483,2380001034321,新規,0,2024-02-28,2024-02-28,ＡｍｉＬｉｆｅ株式会社,,株式会社,福島県,郡山市,咲田２丁目２２番２０号サーパス咲田８０２号,,07,203,9638012,,,,,,,2024-02-28,1,,,,,アミライフ,0
486,2390001017531,新規,0,2024-02-28,2024-02-28,荘内観光不動産株式会社,,株式会社,山形県,鶴岡市,宝町８番３５号,,06,203,9970021,,,,,,,2024-02-28,1,,,,,ショウナイカンコウフドウサン,0
492,2430001091167,新規,0,2024-02-28,2024-02-28,星建設株式会社,,株式会社,北海道,恵庭市,島松寿町２丁目１５番地５,,01,231,0611355,,,,,,,2024-02-28,1,,,,,ホシケンセツ,0
493,2430001091175,新規,0,2024-02-28,2024-02-28,株式会社Ｎｏｒｔｈキャリアプレナー,,株式会社,北海道,札幌市東区,北四十一条東２丁目１番１４－３０１号,,01,103,0070841,,,,,,,2024-02-28,1,,,,,ノースキャリアプレナー,0
497,2460101007499,新規,0,2024-02-28,2024-02-28,株式会社ｗｏｒｌｄ．Ｙ,,株式会社,北海道,河東郡鹿追町,泉町４丁目３－２９,,01,634,0810212,,,,,,,2024-02-28,1,,,,,ワールドワイ,0
499,2470003002589,新規,0,2024-02-28,2024-02-28,合同会社エムセイル,,合同会社,香川県,坂出市,寿町３丁目４番１９－９０３号ポレスター坂出,,37,203,7620043,,,,,,,2024-02-28,1,,,,,エムセイル,0
500,2480001012399,新規,0,2024-02-28,2024-02-28,ｓｔｅｒａ　ｒｅｈｏｐｅ株式会社,,株式会社,徳島県,吉野川市,川島町桑村６１９番地９,,36,205,7793303,,,,,,,2024-02-28,1,,,,,ステラリホープ,0
507,3010001242620,新規,0,2024-02-28,2024-02-28,株式会社ＭＷＢ,,株式会社,東京都,中央区,日本橋富沢町５番３号,,13,102,1030006,,,,,,,2024-02-28,1,,,,,ムーブ,0
508,3010001242694,新規,0,2024-02-28,2024-02-28,Ｐｒｏｇｒｅｓｓｉｖｅ　ＮＥＵＲＯ株式会社,,株式会社,東京都,千代田区,神田駿河台３丁目４龍名館本店ビル３階,,13,101,1010062,,,,,,,2024-02-28,1,,,,,プログレッシブニューロ,0
512,3010003043042,新規,0,2024-02-28,2024-02-28,合同会社Ｒｅｓｉｌｉｅｎｃｅ２,,合同会社,東京都,千代田区,霞が関３丁目２番５号,,13,101,1000013,,,,,,,2024-02-28,1,,,,,レジリエンスニ,0
513,3010003043059,新規,0,2024-02-28,2024-02-28,合同会社ＫＩＲＦ１,,合同会社,東京都,千代田区,内幸町２丁目１番６号,,13,101,1000011,,,,,,,2024-02-28,1,,,,,ケイアイアールエフワン,0
515,3010005037950,新規,0,2024-02-28,2024-02-28,医療法人社団Ｙ．Ｍ．Ｏ．,,その他の設立登記法人,東京都,千代田区,飯田橋１丁目８番９－２０１号,,13,101,1020072,,,,,,,2024-02-28,1,,,,,ワイエムオー,0
523,3010401180593,新規,0,2024-02-28,2024-02-28,ＩＮＧＲＡＭ株式会社,,株式会社,東京都,港区,虎ノ門１丁目１７番１号虎ノ門ヒルズビジネスタワー１５階,,13,103,1050001,,,,,,,2024-02-28,1,,,,,イングラム,0
524,3010401180602,新規,0,2024-02-28,2024-02-28,株式会社ＣＩＮＮＡＭＯＮ,,株式会社,東京都,港区,芝４丁目５番１１号,,13,103,1080014,,,,,,,2024-02-28,1,,,,,シナモン,0
525,3010401180635,新規,0,2024-02-28,2024-02-28,ＤＥＡＬｓ株式会社,,株式会社,東京都,港区,赤坂３丁目１４番１０号ＳＫビル４階,,13,103,1070052,,,,,,,2024-02-28,1,,,,,ディールズ,0
526,3010401180651,新規,0,2024-02-28,2024-02-28,株式会社ＳＷＥＥＰ,,株式会社,東京都,港区,西麻布４丁目６番２号,,13,103,1060031,,,,,,,2024-02-28,1,,,,,スイープ,0
527,3010401180692,新規,0,2024-02-28,2024-02-28,株式会社ＮｅｗＳ,,株式会社,東京都,港区,赤坂４丁目８番１９号赤坂フロントタウン３階,,13,103,1070052,,,,,,,2024-02-28,1,,,,,ニューエス,0
539,3010801034812,新規,0,2024-02-28,2024-02-28,株式会社Ｇｉｏｖａｎｎｉ　Ｓａｒｇｉｏｔｔｏ,,株式会社,東京都,大田区,田園調布５丁目３４－１１,,13,111,1450071,,,,,,,2024-02-28,1,,,,,ジョヴァンニサルジオット,0
541,3010803004862,新規,0,2024-02-28,2024-02-28,合同会社ｎｏｕｖｅｌｌｅ馬込,,合同会社,東京都,大田区,北馬込２丁目３３－１８,,13,111,1430021,,,,,,,2024-02-28,1,,,,,ヌーベルマゴメ,0
545,3010901054776,新規,0,2024-02-28,2024-02-28,株式会社Ｌｅａケア,,株式会社,東京都,世田谷区,玉川台２丁目１１番１３号,,13,112,1580096,,,,,,,2024-02-28,1,,,,,レアケア,0
551,3011001160267,新規,0,2024-02-28,2024-02-28,ピックルメディアクリエイション株式会社,,株式会社,東京都,渋谷区,代々木１丁目３０番３号,,13,113,1510053,,,,,,,2024-02-28,1,,,,,ピックルメディアクリエイション,0
552,3011001160283,新規,0,2024-02-28,2024-02-28,株式会社クオリティビズ,,株式会社,東京都,渋谷区,恵比寿南２丁目２６番１－１２０６号,,13,113,1500022,,,,,,,2024-02-28,1,,,,,クオリティビズ,0
553,3011001160291,新規,0,2024-02-28,2024-02-28,株式会社北南開発,,株式会社,東京都,渋谷区,千駄ヶ谷５丁目２９－１１ナカニシビル７０２,,13,113,1510051,,,,,,,2024-02-28,1,,,,,ホクナンカイハツ,0
555,3011003018579,新規,0,2024-02-28,2024-02-28,合同会社Ｂｏｏｎ,,合同会社,東京都,渋谷区,道玄坂１丁目１０番８号渋谷道玄坂東急ビル２Ｆ－Ｃ,,13,113,1500043,,,,,,,2024-02-28,1,,,,,ブーン,0
557,3011101106335,新規,0,2024-02-28,2024-02-28,株式会社ＶＩＥＷ,,株式会社,東京都,新宿区,北新宿１丁目２８番１３号コグレビル,,13,104,1690074,,,,,,,2024-02-28,1,,,,,ビュー,0
558,3011101106343,新規,0,2024-02-28,2024-02-28,ＳＨグループ株式会社,,株式会社,東京都,新宿区,西新宿８丁目１１番１０号星野ビル３Ｆ,,13,104,1600023,,,,,,,2024-02-28,1,,,,,エスエイチグループ,0
561,3011103014148,新規,0,2024-02-28,2024-02-28,合同会社ＴＲＩ,,合同会社,東京都,新宿区,歌舞伎町２丁目６番１６－１１１号,,13,104,1600021,,,,,,,2024-02-28,1,,,,,ティーアールアイ,0
563,3011105010954,新規,0,2024-02-28,2024-02-28,一般社団法人大日本弓道會,,その他の設立登記法人,東京都,新宿区,西新宿３丁目３番１３号西新宿水間ビル２Ｆ,,13,104,1600023,,,,,,,2024-02-28,1,,,,,ダイニッポンキュウドウカイ,0
565,3011203004313,新規,0,2024-02-28,2024-02-28,合同会社バイタルオカ,,合同会社,東京都,中野区,若宮３丁目２３―９,,13,114,1650033,,,,,,,2024-02-28,1,,,,,バイタルオカ,0
566,3011301029419,新規,0,2024-02-28,2024-02-28,株式会社元商,,株式会社,東京都,杉並区,堀ノ内１丁目１３番７号,,13,115,1660013,,,,,,,2024-02-28,1,,,,,ガンショウ,0
573,3011601027568,新規,0,2024-02-28,2024-02-28,菫卉株式会社,,株式会社,東京都,練馬区,北町５丁目５－７かぼちゃの馬車平和台Ｖ１０５号室,,13,120,1790081,,,,,,,2024-02-28,1,,,,,キンキ,0
574,3011701027063,新規,0,2024-02-28,2024-02-28,ヴィートゥーラ株式会社,,株式会社,東京都,江戸川区,西葛西６丁目１５番１８－３０２号,,13,123,1340088,,,,,,,2024-02-28,1,,,,,ヴィートゥーラ,0
584,3020001155929,新規,0,2024-02-28,2024-02-28,株式会社Ｃｉｔｙ　Ｉｎｎｏｖａｔｉｏｎ,,株式会社,神奈川県,横浜市港北区,大倉山４丁目２８番１５号,,14,109,2220037,,,,,,,2024-02-28,1,,,,,シティイノベーション,0
585,3020001155986,新規,0,2024-02-28,2024-02-28,株式会社ＴＲＹＫＥ,,株式会社,神奈川県,横浜市南区,南太田１丁目４９番５０－２号,,14,105,2320006,,,,,,,2024-02-28,1,,,,,トライク,0
586,3020001156002,新規,0,2024-02-28,2024-02-28,株式会社Ｗｉｎｅ　ｉｎ　Ｍｏｔｉｏｎ,,株式会社,神奈川県,横浜市青葉区,桜台２５－１桜台ビレジ４Ｂ－２０２,,14,117,2270061,,,,,,,2024-02-28,1,,,,,ワインモーション,0
587,3020001156010,新規,0,2024-02-28,2024-02-28,株式会社Ｖｉｌｌａ　Ｒｅｐｒｏ　Ｐａｒｔｎｅｒｓ,,株式会社,神奈川県,川崎市麻生区,細山８丁目１９－１１,,14,137,2150001,,,,,,,2024-02-28,1,,,,,ヴィラリプロパートナーズ,0
591,3020003025626,新規,0,2024-02-28,2024-02-28,合同会社ＭＩＺＵＫＩ,,合同会社,神奈川県,横浜市港北区,大倉山１丁目１８番１７－６０２号,,14,109,2220037,,,,,,,2024-02-28,1,,,,,ミズキ,0
597,3030001158872,新規,0,2024-02-28,2024-02-28,株式会社Ｉ．Ｄ．Ｊ,,株式会社,埼玉県,さいたま市岩槻区,西原５番９０－１号,,11,110,3390081,,,,,,,2024-02-28,1,,,,,アイディージェイ,0
598,3030001158906,新規,0,2024-02-28,2024-02-28,株式会社ｅ‐ｐｉｃｋ,,株式会社,埼玉県,所沢市,大字上安松１番地の１３,,11,208,3590025,,,,,,,2024-02-28,1,,,,,イーピック,0
604,3030003023728,新規,0,2024-02-28,2024-02-28,合同会社せと商事,,合同会社,埼玉県,さいたま市見沼区,大字南中丸４５２―１２,,11,104,3370041,,,,,,,2024-02-28,1,,,,,セトショウジ,0
609,3040001132397,新規,0,2024-02-28,2024-02-28,ＹＮＫ株式会社,,株式会社,千葉県,流山市,南流山８丁目２０番地の６,,12,220,2700163,,,,,,,2024-02-28,1,,,,,ワイエヌケイ,0
610,3040001132406,新規,0,2024-02-28,2024-02-28,株式会社ｙｏｕｒｓ,,株式会社,千葉県,柏市,南増尾３丁目１１番６３号,,12,217,2770054,,,,,,,2024-02-28,1,,,,,ユアーズ,0
611,3040001132414,新規,0,2024-02-28,2024-02-28,株式会社ＴＹＳＫＣＳ,,株式会社,千葉県,千葉市中央区,本千葉町１番４号トリニティビル４階,,12,101,2600014,,,,,,,2024-02-28,1,,,,,ティーワイエスケーシーエス,0
612,3040001132447,新規,0,2024-02-28,2024-02-28,株式会社バリュー・ライフ,,株式会社,千葉県,市川市,宮久保６丁目１７－２８,,12,203,2720822,,,,,,,2024-02-28,1,,,,,バリューライフ,0
616,3040003024329,新規,0,2024-02-28,2024-02-28,合同会社木こり不動産,,合同会社,千葉県,我孫子市,根戸６６９番地,,12,222,2701168,,,,,,,2024-02-28,1,,,,,キコリフドウサン,0
617,3040003024403,新規,0,2024-02-28,2024-02-28,刹那合同会社,,合同会社,千葉県,船橋市,本郷町４９５－１本郷町マンション,,12,204,2730033,,,,,,,2024-02-28,1,,,,,アト,0
622,3050003008132,新規,0,2024-02-28,2024-02-28,ＭＵＭＴＡＺ　ＴＲＡＤＩＮＧ合同会社,,合同会社,茨城県,下妻市,五箇２２１－２２７,,08,210,3040823,,,,,,,2024-02-28,1,,,,,マムタズトレーディング,0
626,3070003005292,新規,0,2024-02-28,2024-02-28,高崎メディカルサポート合同会社,,合同会社,群馬県,高崎市,倉賀野町１８４９番地１５,,10,202,3701201,,,,,,,2024-02-28,1,,,,,タカサキメディカルサポート,0
627,3080101024557,新規,0,2024-02-28,2024-02-28,株式会社ＷＩＴＨ　ＹＯＵ,,株式会社,静岡県,富士市,平垣４８３番地１Ｆ－３,,22,210,4160916,,,,,,,2024-02-28,1,,,,,ウィズユウ,0
629,3080401026971,新規,0,2024-02-28,2024-02-28,株式会社Ａ．Ｍ．Ｔ,,株式会社,静岡県,浜松市中央区,元城町２２２番地の２５アルスビル１Ｆ,,22,138,4300946,,,,,,,2024-02-28,1,,,,,エーエムティー,0
637,3100001037235,新規,0,2024-02-28,2024-02-28,株式会社ＢＲＵＳＨ,,株式会社,長野県,松本市,石芝４丁目２番２２号,,20,202,3990007,,,,,,,2024-02-28,1,,,,,ブラッシュ,0
639,3100003007418,新規,0,2024-02-28,2024-02-28,合同会社ＩＲＢ,,合同会社,長野県,東御市,新張１２２０番地３,,20,219,3890501,,,,,,,2024-02-28,1,,,,,アイアールビー,0
642,3110005017059,新規,0,2024-02-28,2024-02-28,一般社団法人生支縁,,その他の設立登記法人,新潟県,新潟市中央区,赤坂町３丁目３２６３番地,,15,103,9518025,,,,,,,2024-02-28,1,,,,,イキシエン,0
647,3120001262616,新規,0,2024-02-28,2024-02-28,ＵＲＵミートアップ株式会社,,株式会社,大阪府,大阪市住之江区,御崎１丁目８番１８号,,27,125,5590013,,,,,,,2024-02-28,1,,,,,ユーアールユーミートアップ,0
648,3120001262640,新規,0,2024-02-28,2024-02-28,株式会社ルーモス,,株式会社,大阪府,大阪市中央区,本町２丁目３番４号アソルティ本町４Ｆ,,27,128,5410053,,,,,,,2024-02-28,1,,,,,ルーモス,0
649,3120001262665,新規,0,2024-02-28,2024-02-28,株式会社Ｓｍａｌｌ　Ｗｏｒｌｄ,,株式会社,大阪府,大阪市中央区,南船場２丁目１１番９－７０４号,,27,128,5420081,,,,,,,2024-02-28,1,,,,,スモールワールド,0
653,3120003026003,新規,0,2024-02-28,2024-02-28,葉錦合同会社,,合同会社,大阪府,大阪市西成区,橘３丁目１７－１０－１０２号室,,27,122,5570051,,,,,,,2024-02-28,1,,,,,ヨウキン,0
654,3120003026028,新規,0,2024-02-28,2024-02-28,関西電力サイラスワンＯＳＫ１合同会社,,合同会社,大阪府,大阪市北区,中之島３丁目６番１６号,,27,127,5300005,,,,,,,2024-02-28,1,,,,,カンサイデンリョクサイラスワンオーエスケーワン,0
657,3120901048809,新規,0,2024-02-28,2024-02-28,株式会社ＴＥＬＬＵＳ,,株式会社,大阪府,豊中市,北緑丘２丁目８番１２－２０１号,,27,203,5600001,,,,,,,2024-02-28,1,,,,,テラス,0
660,3122001037857,新規,0,2024-02-28,2024-02-28,株式会社豊伸,,株式会社,大阪府,東大阪市,寿町２丁目９番３号,,27,227,5770837,,,,,,,2024-02-28,1,,,,,ホウシン,0
665,3130003009329,新規,0,2024-02-28,2024-02-28,ＨＫ　ＷＯＲＫＳ合同会社,,合同会社,京都府,京都市伏見区,羽束師菱川町６１０番地１９９,,26,109,6128487,,,,,,,2024-02-28,1,,,,,エイチケーワークス,0
675,3140001133468,新規,0,2024-02-28,2024-02-28,株式会社ＫＲＳ,,株式会社,兵庫県,尼崎市,御園２丁目１３番２号,,28,202,6610984,,,,,,,2024-02-28,1,,,,,ケーアールエス,0
676,3140001133476,新規,0,2024-02-28,2024-02-28,株式会社ジー・パーソン,,株式会社,兵庫県,神戸市東灘区,向洋町中１丁目１０番地１０１号棟９０９号室,,28,101,6580032,,,,,,,2024-02-28,1,,,,,ジーパーソン,0
677,3140001133484,新規,0,2024-02-28,2024-02-28,株式会社ＩＣＨＩＫＡ,,株式会社,兵庫県,神戸市西区,富士見が丘３丁目５番地の１０,,28,111,6512214,,,,,,,2024-02-28,1,,,,,イチカ,0
680,3140003020202,新規,0,2024-02-28,2024-02-28,高輪商事合同会社,00133887,合同会社,兵庫県,神戸市北区,緑町１丁目５番３号,,28,109,6511221,,,,,,,2024-02-28,1,,,,,タカワショウジ,0
681,3140005026957,新規,0,2024-02-28,2024-02-28,一般社団法人福利厚生会,,その他の設立登記法人,兵庫県,豊岡市,日高町国分寺１０９番地の１,,28,209,6695341,,,,,,,2024-02-28,1,,,,,フクリコウセイカイ,0
682,3150001027099,新規,0,2024-02-28,2024-02-28,株式会社木村組,,株式会社,奈良県,五條市,田園２丁目３６番地の５,,29,207,6370093,,,,,,,2024-02-28,1,,,,,キムラグミ,0
683,3160001025713,新規,0,2024-02-28,2024-02-28,株式会社アース・サポート,,株式会社,滋賀県,蒲生郡竜王町,大字駕輿丁３３番地,,25,384,5202512,,,,,,,2024-02-28,1,,,,,アースサポート,0
693,3180001160327,新規,0,2024-02-28,2024-02-28,ワールドアセット株式会社,,株式会社,愛知県,名古屋市中区,栄１丁目６番１５号,,23,106,4600008,,,,,,,2024-02-28,1,,,,,ワールドアセット,0
699,3180301038355,新規,0,2024-02-28,2024-02-28,株式会社ＴＡＩＳＨＩＮ,,株式会社,愛知県,豊橋市,弥生町字松原４６番地２,,23,201,4418106,,,,,,,2024-02-28,1,,,,,タイシン,0
700,3180303006013,新規,0,2024-02-28,2024-02-28,Ｌａｎｇｕａｇｅ　Ｐｏｉｎｔ合同会社,,合同会社,愛知県,豊川市,御津町赤根水神１４番地,,23,207,4410316,,,,,,,2024-02-28,1,,,,,ランゲージポイント,0
701,3190001031139,新規,0,2024-02-28,2024-02-28,株式会社縁,,株式会社,三重県,伊勢市,小俣町湯田１６１６番地１,,24,203,5190506,,,,,,,2024-02-28,1,,,,,ユカリ,0
703,3200001042200,新規,0,2024-02-28,2024-02-28,株式会社メドゥーザ,,株式会社,岐阜県,羽島市,小熊町島１丁目１２３番地メドゥーザビル２Ｆ,,21,209,5016264,,,,,,,2024-02-28,1,,,,,メドゥーザ,0
707,3210001019651,新規,0,2024-02-28,2024-02-28,Ｎ‐ＴＥＣＨ株式会社,,株式会社,福井県,敦賀市,木崎３９号２４番地の１１,,18,202,9140814,,,,,,,2024-02-28,1,,,,,エヌテック,0
710,3220001025839,新規,0,2024-02-28,2024-02-28,株式会社ｓｔｉｌｌ　ａｌｉｖｅ,,株式会社,石川県,金沢市,尾山町５番５号,,17,201,9200918,,,,,,,2024-02-28,1,,,,,スティルアライブ,0
711,3220003003685,新規,0,2024-02-28,2024-02-28,合同会社Ｄプロ,,合同会社,石川県,金沢市,西都２丁目６７番地,,17,201,9208202,,,,,,,2024-02-28,1,,,,,ディプロ,0
712,3240001062839,新規,0,2024-02-28,2024-02-28,株式会社コスミック・ロジック,,株式会社,広島県,庄原市,東城町森３７７３,,34,210,7295456,,,,,,,2024-02-28,1,,,,,コスミックロジック,0
713,3240001062855,新規,0,2024-02-28,2024-02-28,株式会社アスト不動産,,株式会社,広島県,東広島市,西条町田口２６３８－３,,34,212,7390036,,,,,,,2024-02-28,1,,,,,アストフドウサン,0
720,3280001009126,新規,0,2024-02-28,2024-02-28,スリーブ株式会社,,株式会社,島根県,松江市,南田町４８番地,,32,201,6900884,,,,,,,2024-02-28,1,,,,,スリーブ,0
722,3280005007596,新規,0,2024-02-28,2024-02-28,社会福祉法人よしかの里福祉会,,その他の設立登記法人,島根県,鹿足郡吉賀町,六日市２６３番地２,,32,505,6995513,,,,,,,2024-02-28,1,,,,,ヨシカノサトフクシカイ,0
725,3290001104784,新規,0,2024-02-28,2024-02-28,株式会社ポーラー,,株式会社,福岡県,福岡市中央区,天神４丁目７番６号ライオンズマンション３０６号室,,40,133,8100001,,,,,,,2024-02-28,1,,,,,ポーラー,0
726,3290001104859,新規,0,2024-02-28,2024-02-28,株式会社ＴＲＴコーポレーション,,株式会社,福岡県,筑紫野市,原田８丁目１１番地２０,,40,217,8180024,,,,,,,2024-02-28,1,,,,,ティーアールティーコーポレーション,0
734,3320001020318,新規,0,2024-02-28,2024-02-28,株式会社ＯＮＥ　ＴＥＡＭ,,株式会社,大分県,別府市,元町１６番２号澤田ビル１Ｆ,,44,202,8740944,,,,,,,2024-02-28,1,,,,,ワンチーム,0
738,3350001018805,新規,0,2024-02-28,2024-02-28,株式会社ＭＦ林業,,株式会社,宮崎県,宮崎市,清武町正手１丁目５４番地Ｄ棟,,45,201,8891603,,,,,,,2024-02-28,1,,,,,エムエフリンギョウ,0
743,3370001050970,新規,0,2024-02-28,2024-02-28,ジェンコ株式会社,,株式会社,宮城県,仙台市青葉区,旭ケ丘１丁目２８番１２号シャンブル旭ヶ丘瞑想の松４０３号,,04,101,9810904,,,,,,,2024-02-28,1,,,,,ジェンコ,0
747,3380001034329,新規,0,2024-02-28,2024-02-28,株式会社二六投資力研究所,,株式会社,福島県,会津若松市,日新町２番５６号,,07,202,9650861,,,,,,,2024-02-28,1,,,,,ニロクトウシリョクケンキュウショ,0
748,3390001017539,新規,0,2024-02-28,2024-02-28,株式会社野草塾,,株式会社,山形県,鶴岡市,鼠ヶ関乙４９,,06,203,9997126,,,,,,,2024-02-28,1,,,,,ヤソウジュク,0
749,3400003003221,新規,0,2024-02-28,2024-02-28,ライフ・インシュアランス下村合同会社,,合同会社,岩手県,盛岡市,向中野字東道明１００番地１６,,03,201,0200851,,,,,,,2024-02-28,1,,,,,ライフインシュアランスシモムラ,0
752,3430001091166,新規,0,2024-02-28,2024-02-28,株式会社ＬＡＢ,,株式会社,北海道,北広島市,大曲２０７番地５,,01,234,0611270,,,,,,,2024-02-28,1,,,,,ラボ,0
753,3430001091174,新規,0,2024-02-28,2024-02-28,株式会社メディエーションサポートコーポレーション,,株式会社,北海道,札幌市豊平区,豊平三条２丁目２番７－４０５号,,01,105,0620903,,,,,,,2024-02-28,1,,,,,メディエーションサポートコーポレーション,0
756,3430003015998,新規,0,2024-02-28,2024-02-28,合同会社カームジャパン,,合同会社,北海道,札幌市清田区,里塚一条２丁目７番８号,,01,110,0040801,,,,,,,2024-02-28,1,,,,,カームジャパン,0
757,3450003002441,新規,0,2024-02-28,2024-02-28,合同会社ＶＩＶＡＮＴ２４,,合同会社,北海道,旭川市,旭町一条１丁目４３８番地８９,,01,204,0700831,,,,,,,2024-02-28,1,,,,,ヴィヴァンニジュウヨン,0
767,3700150124211,新規,0,2024-02-28,2024-02-28,Ｂｏｅｒｎ　ＡｐＳ,,外国会社等,,,,,,,,Ｏｍｅｇａ　９，８３８２　Ｈｉｎｎｅｒｕｐ，Ｄｅｎｍａｒｋ,,,,,,2024-02-28,1,,,,,ボーンエーピーエス,0
770,4010001242594,新規,0,2024-02-28,2024-02-28,ＭｅｄＢａｎｋホールディングス株式会社,,株式会社,東京都,中央区,日本橋堀留町１丁目９番１０号,,13,102,1030012,,,,,,,2024-02-28,1,,,,,メディバンクホールディングス,0
771,4010001242611,新規,0,2024-02-28,2024-02-28,株式会社ＦａｓｔＮｅｕｒａ,,株式会社,東京都,文京区,本郷６丁目２５番１４号,,13,105,1130033,,,,,,,2024-02-28,1,,,,,ファストニューラ,0
772,4010001242652,新規,0,2024-02-28,2024-02-28,株式会社Ｐｈｏｔｏｐｓｉｎ,,株式会社,東京都,文京区,大塚３丁目４１番１４号,,13,105,1120012,,,,,,,2024-02-28,1,,,,,フォトプシン,0
773,4010001242669,新規,0,2024-02-28,2024-02-28,Ｂｏｒｚｏｉ　ＡＩ株式会社,,株式会社,東京都,千代田区,神田猿楽町２丁目８－１１ＶＯＲＴ水道橋ＩＩＩ,00133880,13,101,1010064,,,,,,,2024-02-28,1,,,,,ボルゾイエーアイ,0
774,4010001242693,新規,0,2024-02-28,2024-02-28,株式会社黄余社,,株式会社,東京都,中央区,晴海５丁目１－１７－１１１０,,13,102,1040053,,,,,,,2024-02-28,1,,,,,コウヨシャ,0
775,4010003043041,新規,0,2024-02-28,2024-02-28,合同会社Ｒｅｓｉｌｉｅｎｃｅ９,,合同会社,東京都,千代田区,霞が関３丁目２番５号,,13,101,1000013,,,,,,,2024-02-28,1,,,,,レジリエンスキュウ,0
784,4010401180428,新規,0,2024-02-28,2024-02-28,株式会社シャイニングテクノロジーズ,,株式会社,東京都,港区,東新橋２丁目１８番４号グラディート汐留ロッソ９１１,,13,103,1050021,,,,,,,2024-02-28,1,,,,,シャイニングテクノロジーズ,0
785,4010401180659,新規,0,2024-02-28,2024-02-28,Ｓｔａｒ　Ｊａｐａｎ　Ａｃｑｕｉｓｉｔｉｏｎ株式会社,,株式会社,東京都,港区,虎ノ門２丁目１０番４号オークラプレステージタワー,,13,103,1050001,,,,,,,2024-02-28,1,,,,,スタージャパンアクイジション,0
791,4010503007355,新規,0,2024-02-28,2024-02-28,ＨＮ合同会社,,合同会社,東京都,台東区,上野桜木１丁目５－６シーダーレジデンス地下１階,,13,106,1100002,,,,,,,2024-02-28,1,,,,,エイチエヌ,0
795,4010701045611,新規,0,2024-02-28,2024-02-28,株式会社ＧＫ,,株式会社,東京都,品川区,西五反田３丁目１５番６号リードシー目黒不動前ビル５－９,,13,109,1410031,,,,,,,2024-02-28,1,,,,,ジーケー,0
797,4010801034811,新規,0,2024-02-28,2024-02-28,株式会社長谷川板金工業所,,株式会社,東京都,大田区,新蒲田３丁目１番７号,,13,111,1440054,,,,,,,2024-02-28,1,,,,,ハセガワバンキンコウギョウショ,0
800,4010901054759,新規,0,2024-02-28,2024-02-28,株式会社ＹＯＵＳＵＫＥ,,株式会社,東京都,世田谷区,野沢１丁目３番７号根岸方２０１,,13,112,1540003,,,,,,,2024-02-28,1,,,,,ヨウスケ,0
801,4010905004578,新規,0,2024-02-28,2024-02-28,一般社団法人日本ピラティスウォーク協会,,その他の設立登記法人,東京都,世田谷区,野沢３丁目３９番７－３０７号,,13,112,1540003,,,,,,,2024-02-28,1,,,,,ニホンピラティスウォークキョウカイ,0
802,4011001160290,新規,0,2024-02-28,2024-02-28,株式会社ＰｉｅｃｅＴｉｍｅｓ,,株式会社,東京都,渋谷区,渋谷２丁目１９番１５－６０９号宮益坂ビルディング,,13,113,1500002,,,,,,,2024-02-28,1,,,,,ピースタイムズ,0
803,4011001160299,新規,0,2024-02-28,2024-02-28,株式会社ＨＹＳ,,株式会社,東京都,渋谷区,幡ヶ谷３丁目７２番９号,,13,113,1510072,,,,,,,2024-02-28,1,,,,,ハイズ,0
805,4011003018578,新規,0,2024-02-28,2024-02-28,合同会社Ｗ,,合同会社,東京都,渋谷区,桜丘町２３番１７号シティコート桜丘４０８,,13,113,1500031,,,,,,,2024-02-28,1,,,,,ダブル,0
812,4011101106318,新規,0,2024-02-28,2024-02-28,欧文株式会社,,株式会社,東京都,新宿区,富久町３６－１７－４,,13,104,1620067,,,,,,,2024-02-28,1,,,,,オウブン,0
815,4011103014147,新規,0,2024-02-28,2024-02-28,Ａｒｘ合同会社,,合同会社,東京都,新宿区,西新宿３丁目５番１２号,,13,104,1600023,,,,,,,2024-02-28,1,,,,,アルクス,0
820,4011501030365,新規,0,2024-02-28,2024-02-28,株式会社ＨｕＭ,,株式会社,東京都,荒川区,東日暮里５丁目５番３号晴光荘１３号室,,13,118,1160014,,,,,,,2024-02-28,1,,,,,ハム,0
821,4011701027070,新規,0,2024-02-28,2024-02-28,株式会社カインドネスネットワークサービス,,株式会社,東京都,江戸川区,鹿骨１丁目５２番１２号柏２０２,,13,123,1330073,,,,,,,2024-02-28,1,,,,,カインドネスネットワークサービス,0
823,4011801043851,新規,0,2024-02-28,2024-02-28,株式会社ハウスリム,,株式会社,東京都,足立区,南花畑３丁目５番１６号フラワーフィールド１０１,,13,121,1210062,,,,,,,2024-02-28,1,,,,,ハウスリム,0
831,4012801022985,新規,0,2024-02-28,2024-02-28,株式会社クリクレイン・フィルムズ,,株式会社,東京都,立川市,曙町１丁目２２番２７号グランツ立川昭和記念公園１０１０号,,13,202,1900012,,,,,,,2024-02-28,1,,,,,クリクレインフィルムズ,0
834,4013301052085,新規,0,2024-02-28,2024-02-28,Ｄｉｇｉｚａｉ　Ｊａｐａｎ株式会社,,株式会社,東京都,豊島区,要町１丁目１０番７号,,13,116,1710043,,,,,,,2024-02-28,1,,,,,デジザイジャパン,0
835,4013301052127,新規,0,2024-02-28,2024-02-28,株式会社金洲,,株式会社,東京都,豊島区,長崎２丁目１３－２ロード椎名町３１１号室,,13,116,1710051,,,,,,,2024-02-28,1,,,,,キンシュウ,0
836,4013301052143,新規,0,2024-02-28,2024-02-28,株式会社クリティマ,,株式会社,東京都,豊島区,池袋２丁目３６番１１号６階,,13,116,1710014,,,,,,,2024-02-28,1,,,,,クリティマ,0
844,4020001155977,新規,0,2024-02-28,2024-02-28,株式会社シンクロフォース,,株式会社,神奈川県,横浜市青葉区,桜台４６番地２,,14,117,2270061,,,,,,,2024-02-28,1,,,,,シンクロフォース,0
849,4021001081569,新規,0,2024-02-28,2024-02-28,株式会社ルーツ,,株式会社,神奈川県,厚木市,田村町１番１０－１００２号,,14,212,2430016,,,,,,,2024-02-28,1,,,,,ルーツ,0
855,4030001158871,新規,0,2024-02-28,2024-02-28,株式会社ワンロータス,,株式会社,埼玉県,さいたま市見沼区,東大宮４丁目２３－１エクセル東大宮１０４,,11,104,3370051,,,,,,,2024-02-28,1,,,,,ワンロータス,0
856,4030001158888,新規,0,2024-02-28,2024-02-28,ＪＲＭ‐ＴＯＫＹＯ株式会社,,株式会社,埼玉県,所沢市,大字山口５０４５番地の２－３９－４－１０５,,11,208,3591145,,,,,,,2024-02-28,1,,,,,ジェイアールエムトーキョー,0
859,4030003023710,新規,0,2024-02-28,2024-02-28,合同会社ＳＥＰＨ,,合同会社,埼玉県,所沢市,中新井２丁目８９－９,,11,208,3590041,,,,,,,2024-02-28,1,,,,,セフ,0
860,4030005021555,新規,0,2024-02-28,2024-02-28,一般社団法人いきいきライフ協会浦和常盤,,その他の設立登記法人,埼玉県,さいたま市浦和区,常盤４丁目１６番２号,,11,107,3300061,,,,,,,2024-02-28,1,,,,,イキイキライフキョウカイウラワトキワ,0
863,4040001132371,新規,0,2024-02-28,2024-02-28,株式会社大光,,株式会社,千葉県,流山市,西初石２丁目９２９番地の１ルネサンス初石１０８,,12,220,2700121,,,,,,,2024-02-28,1,,,,,オオミツ,0
864,4040001132396,新規,0,2024-02-28,2024-02-28,株式会社グロースグラス,,株式会社,千葉県,成田市,名木１２３番地６,,12,211,2890111,,,,,,,2024-02-28,1,,,,,グロースグラス,0
865,4040001132438,新規,0,2024-02-28,2024-02-28,株式会社Ａｉｌｅコンサルティング,,株式会社,千葉県,木更津市,江川４６７番地９,,12,206,2920063,,,,,,,2024-02-28,1,,,,,エールコンサルティング,0
868,4040003024427,新規,0,2024-02-28,2024-02-28,合同会社フレンドサポート,,合同会社,千葉県,千葉市花見川区,宮野木台２丁目１０－３－Ａ－５,,12,102,2620015,,,,,,,2024-02-28,1,,,,,フレンドサポート,0
869,4040003024435,新規,0,2024-02-28,2024-02-28,合同会社くらす,,合同会社,千葉県,旭市,ロ８４３番３,,12,215,2892516,,,,,,,2024-02-28,1,,,,,クラス,0
874,4070003005291,新規,0,2024-02-28,2024-02-28,ＫＭ合同会社,,合同会社,群馬県,太田市,高林東町２３３６番地３,,10,205,3730825,,,,,,,2024-02-28,1,,,,,ケーエム,0
879,4090001018558,新規,0,2024-02-28,2024-02-28,株式会社甲斐ヴィクトリーレーシング,,株式会社,山梨県,南アルプス市,飯野３４４８番地、２階,,19,208,4000222,,,,,,,2024-02-28,1,,,,,カイヴィクトリーレーシング,0
883,4100001037234,新規,0,2024-02-28,2024-02-28,ＨＲＡソフト株式会社,,株式会社,長野県,東御市,和２０８０番地４,,20,219,3890505,,,,,,,2024-02-28,1,,,,,エイチアールエーソフト,0
888,4110003005304,新規,0,2024-02-28,2024-02-28,合同会社新潟バイク,,合同会社,新潟県,新潟市東区,東中島３丁目２番１２号,,15,102,9500823,,,,,,,2024-02-28,1,,,,,ニイガタバイク,0
896,4120001262680,新規,0,2024-02-28,2024-02-28,株式会社Ｇｏｌｄ　Ｖａｌｌｅｙ,,株式会社,大阪府,大阪市東住吉区,杭全２丁目１番１５号,,27,121,5460002,,,,,,,2024-02-28,1,,,,,ゴールドバレー,0
897,4120001262689,新規,0,2024-02-28,2024-02-28,株式会社ＫＲＫ,,株式会社,大阪府,大阪市都島区,内代町４丁目２番１０号,,27,102,5340013,,,,,,,2024-02-28,1,,,,,ケーアールケー,0
898,4120001262697,新規,0,2024-02-28,2024-02-28,恒升株式会社,,株式会社,大阪府,大阪市生野区,田島２丁目１０番３０－２０２号,,27,116,5440011,,,,,,,2024-02-28,1,,,,,コウショウ,0
899,4120001262730,新規,0,2024-02-28,2024-02-28,株式会社シトリン,,株式会社,大阪府,大阪市西成区,橘１丁目１１番１７号,,27,122,5570051,,,,,,,2024-02-28,1,,,,,シトリン,0
903,4120003026035,新規,0,2024-02-28,2024-02-28,ＮＨ　ＯＰＥＲＡＴＩＯＮＳ合同会社,,合同会社,大阪府,大阪市東淀川区,東中島１丁目１７－５ステュディオ新大阪３２２号,,27,114,5330033,,,,,,,2024-02-28,1,,,,,エヌエイチオペレーションズ,0
904,4120003026043,新規,0,2024-02-28,2024-02-28,ＮＡＭＡＳＴＥ　ＯＳＡＫＡ　ＧＲＯＵＰ合同会社,,合同会社,大阪府,大阪市生野区,林寺６丁目３番１５号,,27,116,5440023,,,,,,,2024-02-28,1,,,,,ナマステオオサカグループ,0
910,4120101069118,新規,0,2024-02-28,2024-02-28,真成レジン工業株式会社,,株式会社,大阪府,南河内郡太子町,大字太子１２番地の１０,,27,381,5830995,,,,,,,2024-02-28,1,,,,,シンセイレジンコウギョウ,0
911,4120101069126,新規,0,2024-02-28,2024-02-28,株式会社源六,,株式会社,大阪府,堺市西区,鳳東町７丁８０８番地,,27,144,5938324,,,,,,,2024-02-28,1,,,,,ゲンロク,0
912,4120101069134,新規,0,2024-02-28,2024-02-28,創勝株式会社,,株式会社,大阪府,泉佐野市,西本町１６番９号,,27,213,5980042,,,,,,,2024-02-28,1,,,,,ソウカツ,0
925,4140001133475,新規,0,2024-02-28,2024-02-28,株式会社山美コーポレーション,,株式会社,兵庫県,神戸市垂水区,朝谷町１７－６,,28,108,6550862,,,,,,,2024-02-28,1,,,,,サンビコーポレーション,0
926,4140001133483,新規,0,2024-02-28,2024-02-28,株式会社ケーアールティ,,株式会社,兵庫県,西宮市,荒戎町６番２２－１０１号,,28,204,6620946,,,,,,,2024-02-28,1,,,,,ケーアールティ,0
927,4140003020201,新規,0,2024-02-28,2024-02-28,合同会社アコルト,,合同会社,兵庫県,宝塚市,仁川高丸３丁目１３番１７号,,28,214,6650063,,,,,,,2024-02-28,1,,,,,アコルト,0
930,4150003003188,新規,0,2024-02-28,2024-02-28,ヨンゴスタジオ合同会社,,合同会社,奈良県,天理市,東井戸堂町４１２番地１２,,29,204,6320074,,,,,,,2024-02-28,1,,,,,ヨンゴスタジオ,0
931,4160001025712,新規,0,2024-02-28,2024-02-28,株式会社ＡＳＸＥＥＤ,,株式会社,滋賀県,近江八幡市,安土町常楽寺１００番地３,,25,204,5211351,,,,,,,2024-02-28,1,,,,,アスシード,0
942,4180001160276,新規,0,2024-02-28,2024-02-28,Ｃｌａｓｓｙ株式会社,,株式会社,愛知県,名古屋市中川区,草平町１丁目３６番地ＣｏｒａｌＣａｌｍ３０２号,,23,110,4540868,,,,,,,2024-02-28,1,,,,,クラシー,0
943,4180001160301,新規,0,2024-02-28,2024-02-28,株式会社第２インターナショナル,,株式会社,愛知県,春日井市,妙慶町３丁目７０番地２,,23,206,4860928,,,,,,,2024-02-28,1,,,,,ダイニインターナショナル,0
949,4190001031138,新規,0,2024-02-28,2024-02-28,株式会社ＡＴＳ,,株式会社,三重県,四日市市,大矢知町１２２４番地１コーポ大矢知２０２,,24,202,5108034,,,,,,,2024-02-28,1,,,,,エーティーエス,0
950,4190003004595,新規,0,2024-02-28,2024-02-28,合同会社ＩＮＩ,,合同会社,三重県,四日市市,芝田１丁目１‐１０Ａ１Ｆ,,24,202,5100822,,,,,,,2024-02-28,1,,,,,イニ,0
952,4210001019650,新規,0,2024-02-28,2024-02-28,株式会社ｂｏｎｄ,,株式会社,福井県,大飯郡高浜町,立石第２１号５番地９,,18,481,9192226,,,,,,,2024-02-28,1,,,,,ボンド,0
959,4240001062854,新規,0,2024-02-28,2024-02-28,株式会社庭匠,,株式会社,広島県,安芸郡熊野町,萩原３丁目１１番３号,,34,307,7314213,,,,,,,2024-02-28,1,,,,,ニワショウ,0
962,4250001020530,新規,0,2024-02-28,2024-02-28,株式会社スマイル,,株式会社,山口県,下関市,上田中町６丁目８番９号,,35,201,7500009,,,,,,,2024-02-28,1,,,,,スマイル,0
967,4260001038778,新規,0,2024-02-28,2024-02-28,株式会社いろ葉,,株式会社,岡山県,勝田郡奈義町,豊沢６００番地,,33,623,7081323,,,,,,,2024-02-28,1,,,,,イロハ,0
969,4260003004596,新規,0,2024-02-28,2024-02-28,合同会社桜花道,,合同会社,岡山県,倉敷市,神田４丁目９番２５号,,33,202,7128061,,,,,,,2024-02-28,1,,,,,オウカドウ,0
970,4280001009125,新規,0,2024-02-28,2024-02-28,株式会社トラスト総合企画,,株式会社,島根県,出雲市,平田町１７０８番地１－２Ｆ,,32,203,6910001,,,,,,,2024-02-28,1,,,,,トラストソウゴウキカク,0
978,4290001104825,新規,0,2024-02-28,2024-02-28,株式会社ｓｏｌ,,株式会社,福岡県,福岡市博多区,冷泉町８番２２－４０１号,,40,132,8120039,,,,,,,2024-02-28,1,,,,,ソル,0
985,4290801030353,新規,0,2024-02-28,2024-02-28,株式会社コージードーグ,,株式会社,福岡県,直方市,大字上境２６８３番地５,,40,204,8220006,,,,,,,2024-02-28,1,,,,,コージードーグ,0
986,4290803004628,新規,0,2024-02-28,2024-02-28,合同会社Ｒｅｓｏｌｕｔｉｏｎ,,合同会社,福岡県,豊前市,大字赤熊９８０－１,,40,214,8280027,,,,,,,2024-02-28,1,,,,,レゾリューション,0
989,4320001020317,新規,0,2024-02-28,2024-02-28,株式会社ＢＦＴ,,株式会社,大分県,大分市,大字海原７３９番地３,,44,201,8700107,,,,,,,2024-02-28,1,,,,,ビーエフティ,0
992,4330001031783,新規,0,2024-02-28,2024-02-28,株式会社柿迫興業,,株式会社,熊本県,宇土市,住吉町１５４２番地,,43,211,8690401,,,,,,,2024-02-28,1,,,,,カキサココウギョウ,0
995,4350001018804,新規,0,2024-02-28,2024-02-28,充咲林商株式会社,,株式会社,宮崎県,宮崎市,高岡町五町１３３６番地１,,45,201,8802322,,,,,,,2024-02-28,1,,,,,ミサキリンショウ,0
996,4350001018812,新規,0,2024-02-28,2024-02-28,株式会社三樹塗装,,株式会社,宮崎県,日向市,浜町２丁目７７番地,,45,206,8830004,,,,,,,2024-02-28,1,,,,,,0
998,4350003004579,新規,0,2024-02-28,2024-02-28,池之上建築合同会社,,合同会社,宮崎県,都城市,丸谷町４４９番地６,,45,202,8851105,,,,,,,2024-02-28,1,,,,,イケノウエケンチク,0
1001,4360001033249,新規,0,2024-02-28,2024-02-28,株式会社ＴＡＮＯＳＩＭＯＵＺＥ,,株式会社,沖縄県,浦添市,牧港１丁目１番３号,,47,208,9012131,,,,,,,2024-02-28,1,,,,,タノシモウゼ,0
1002,4360001033257,新規,0,2024-02-28,2024-02-28,株式会社リブレケア,,株式会社,沖縄県,那覇市,字上間２７２番地プレサンスロジェ上間レーヴ９０５,,47,201,9020073,,,,,,,2024-02-28,1,,,,,リブレケア,0
1005,4360003013744,新規,0,2024-02-28,2024-02-28,美ら浜ビーチリゾート合同会社,,合同会社,沖縄県,うるま市,与那城上原８２１４番地１,,47,213,9042424,,,,,,,2024-02-28,1,,,,,チュラハマビーチリゾート,0
1012,4410003003896,新規,0,2024-02-28,2024-02-28,エプシロン合同会社,,合同会社,秋田県,秋田市,泉菅野１丁目８番１７号,,05,201,0100817,,,,,,,2024-02-28,1,,,,,エプシロン,0
1013,4410005006567,新規,0,2024-02-28,2024-02-28,農事組合法人八木山ファーム,,その他の設立登記法人,秋田県,由利本荘市,鳥海町上川内字八木山１４０番地,,05,210,0150504,,,,,,,2024-02-28,1,,,,,ヤキヤマファーム,0
1020,4430001091173,新規,0,2024-02-28,2024-02-28,株式会社リンバード,,株式会社,北海道,札幌市豊平区,水車町７丁目７番２１号３０３号室,,01,105,0620912,,,,,,,2024-02-28,1,,,,,リンバード,0
1021,4430001091181,新規,0,2024-02-28,2024-02-28,株式会社明匠,,株式会社,北海道,札幌市手稲区,西宮の沢三条２丁目２番２８号,,01,109,0060003,,,,,,,2024-02-28,1,,,,,メイショウ,0
1023,4430003015997,新規,0,2024-02-28,2024-02-28,合同会社アトリウム,,合同会社,北海道,札幌市豊平区,平岸二条１丁目７－８アビシニアビルヂング２Ｆ,,01,105,0620932,,,,,,,2024-02-28,1,,,,,アトリウム,0
1024,4470001020054,新規,0,2024-02-28,2024-02-28,株式会社ライフフィットネス,,株式会社,香川県,高松市,勅使町７１５番地１,,37,201,7618058,,,,,,,2024-02-28,1,,,,,ライフフィットネス,0
1026,4500001025479,新規,0,2024-02-28,2024-02-28,株式会社ここモア,,株式会社,愛媛県,新居浜市,中萩町１１番１１－１２３号,,38,205,7920045,,,,,,,2024-02-28,1,,,,,ココモア,0
1030,5010001242544,新規,0,2024-02-28,2024-02-28,株式会社シーリンク,,株式会社,東京都,中央区,日本橋茅場町２丁目８番１号ＢＲＩＣＫＧＡＴＥ茅場町Ｂ１Ｆ,,13,102,1030025,,,,,,,2024-02-28,1,,,,,シーリンク,0
1031,5010001242619,新規,0,2024-02-28,2024-02-28,株式会社ｓｕｉ　ｄｕｉｓ,,株式会社,東京都,中央区,日本橋富沢町５番３号,,13,102,1030006,,,,,,,2024-02-28,1,,,,,スイドゥイス,0
1032,5010001242635,新規,0,2024-02-28,2024-02-28,株式会社Ｌ,,株式会社,東京都,文京区,本郷２丁目３５番１０号,,13,105,1130033,,,,,,,2024-02-28,1,,,,,エル,0
1034,5010003043040,新規,0,2024-02-28,2024-02-28,合同会社Ｒｅｓｉｌｉｅｎｃｅ１,,合同会社,東京都,千代田区,霞が関３丁目２番５号,,13,101,1000013,,,,,,,2024-02-28,1,,,,,レジリエンスイチ,0
1035,5010003043049,新規,0,2024-02-28,2024-02-28,合同会社Ｒｅｓｉｌｉｅｎｃｅ１３,,合同会社,東京都,千代田区,霞が関３丁目２番５号,,13,101,1000013,,,,,,,2024-02-28,1,,,,,レジリエンスジュウサン,0
1036,5010003043081,新規,0,2024-02-28,2024-02-28,合同会社木挽町写真工房,,合同会社,東京都,中央区,銀座４丁目１３番１号,,13,102,1040061,,,,,,,2024-02-28,1,,,,,コビキチョウシャシンコウボウ,0
1042,5010401180609,新規,0,2024-02-28,2024-02-28,レオンジャパン株式会社,,株式会社,東京都,港区,赤坂６丁目３番８号ダイアパレス赤坂２０４号,,13,103,1070052,,,,,,,2024-02-28,1,,,,,レオンジャパン,0
1043,5010401180682,新規,0,2024-02-28,2024-02-28,株式会社ＸＹ,,株式会社,東京都,港区,六本木３丁目１３番１２号エルサビル３０１,,13,103,1060032,,,,,,,2024-02-28,1,,,,,エクスワイ,0
1060,5010803004844,新規,0,2024-02-28,2024-02-28,合同会社ＰＡＲＫ　ＬＡＢ,,合同会社,東京都,大田区,南馬込４丁目１９番７号,,13,111,1430025,,,,,,,2024-02-28,1,,,,,パークラボ,0
1063,5010901054774,新規,0,2024-02-28,2024-02-28,株式会社とらの門ホールディングス,,株式会社,東京都,世田谷区,用賀２丁目３６番１９号,,13,112,1580097,,,,,,,2024-02-28,1,,,,,トラノモンホールディングス,0
1068,5011001160265,新規,0,2024-02-28,2024-02-28,Ａｎａｔｏｌｉａ株式会社,,株式会社,東京都,渋谷区,広尾１丁目８番５号グランシャルム広尾６１１,,13,113,1500012,,,,,,,2024-02-28,1,,,,,アナトリア,0
1070,5011101106325,新規,0,2024-02-28,2024-02-28,株式会社屹,,株式会社,東京都,新宿区,北新宿３丁目２０番１号,,13,104,1690074,,,,,,,2024-02-28,1,,,,,ゴチ,0
1071,5011101106333,新規,0,2024-02-28,2024-02-28,ＹＣ　Ｈｏｓｐｉｔａｌｉｔｙ　Ｊａｐａｎ株式会社,,株式会社,東京都,新宿区,大久保２丁目６番１０号新宿第二アルプスマンション,,13,104,1690072,,,,,,,2024-02-28,1,,,,,ワイシーホスピタリティジャパン,0
1077,5011503005967,新規,0,2024-02-28,2024-02-28,合同会社アセットコンサルティング,,合同会社,東京都,北区,滝野川６丁目２１番１－２５０５号,,13,117,1140023,,,,,,,2024-02-28,1,,,,,アセットコンサルティング,0
1079,5011703003762,新規,0,2024-02-28,2024-02-28,合同会社ＲＹＵＫＥＮ,,合同会社,東京都,江戸川区,下篠崎町２１－２ｌａｕｒｅｌＤＣ１０５,,13,123,1330064,,,,,,,2024-02-28,1,,,,,リュウケン,0
1081,5011801043850,新規,0,2024-02-28,2024-02-28,株式会社創峰商事,,株式会社,東京都,葛飾区,高砂６丁目１２番６号,,13,122,1250054,,,,,,,2024-02-28,1,,,,,ソウホウショウジ,0
1084,5012401041550,新規,0,2024-02-28,2024-02-28,Ｋ３株式会社,,株式会社,東京都,三鷹市,上連雀８丁目２番４１－８０２号,,13,204,1810012,,,,,,,2024-02-28,1,,,,,ケイスリー,0
1088,5012705002389,新規,0,2024-02-28,2024-02-28,一般社団法人フェアリーエンターテイメント,,その他の設立登記法人,東京都,小平市,小川町２丁目１３６５番地の５,,13,211,1870032,,,,,,,2024-02-28,1,,,,,フェアリーエンターテイメント,0
1089,5012801022992,新規,0,2024-02-28,2024-02-28,株式会社エイトリンクス,,株式会社,東京都,日野市,多摩平１丁目２番地の３,,13,212,1910062,,,,,,,2024-02-28,1,,,,,エイトリンクス,0
1091,5013103001314,新規,0,2024-02-28,2024-02-28,合同会社ｔｏｕｔｏｕ．,,合同会社,東京都,あきる野市,五日市９９０番地１,,13,228,1900164,,,,,,,2024-02-28,1,,,,,,0
1093,5013301052142,新規,0,2024-02-28,2024-02-28,株式会社ＡｋｕＡｓ　Ｇｌｏｂａｌ,,株式会社,東京都,豊島区,南大塚１丁目６０番２０号天翔大塚駅前ビルＳ５１６,,13,116,1700005,,,,,,,2024-02-28,1,,,,,アクアスグローバル,0
1094,5013303007020,新規,0,2024-02-28,2024-02-28,誠実電機合同会社,,合同会社,東京都,豊島区,西巣鴨２丁目３８番８号西巣鴨加藤マンション１０１号,,13,116,1700001,,,,,,,2024-02-28,1,,,,,セイジツデンキ,0
1106,5020001155885,新規,0,2024-02-28,2024-02-28,株式会社ｃｏｃｏｒｏ　ｂｅａｕｔｙ,,株式会社,神奈川県,川崎市中原区,上丸子八幡町５９０－３ＡＭＡＮＡＮＯ新丸子４０１,,14,133,2110001,,,,,,,2024-02-28,1,,,,,ココロビューティー,0
1107,5020001155976,新規,0,2024-02-28,2024-02-28,株式会社エスエス,,株式会社,神奈川県,横浜市保土ケ谷区,仏向町１０３７番地１ビューコート仏向１－２棟２１０号,,14,106,2400044,,,,,,,2024-02-28,1,,,,,エスエス,0
1108,5020001155984,新規,0,2024-02-28,2024-02-28,株式会社Ｋ企画,,株式会社,神奈川県,横浜市戸塚区,舞岡町４１２番地,,14,110,2440813,,,,,,,2024-02-28,1,,,,,ケーキカク,0
1109,5020001156009,新規,0,2024-02-28,2024-02-28,株式会社ＩＮＣＲＥＳＰＡＴＵＲＡ,,株式会社,神奈川県,横浜市港北区,樽町２丁目１番２０－３０１号,,14,109,2220001,,,,,,,2024-02-28,1,,,,,インクレスパトゥーラ,0
1110,5020001156017,新規,0,2024-02-28,2024-02-28,株式会社ＲａｙＡｕｔｏ,,株式会社,神奈川県,横浜市南区,南太田１丁目３０番２４号,,14,105,2320006,,,,,,,2024-02-28,1,,,,,レイアウト,0
1113,5021001081551,新規,0,2024-02-28,2024-02-28,株式会社村井工業,,株式会社,神奈川県,横須賀市,ハイランド４丁目４６番８号,,14,201,2390833,,,,,,,2024-02-28,1,,,,,ムライコウギョウ,0
1114,5021001081568,新規,0,2024-02-28,2024-02-28,株式会社ＧＬＡＲＥＬ,,株式会社,神奈川県,茅ヶ崎市,萩園２５９４番地３レスペデーザ茅ヶ崎１０１,,14,207,2530071,,,,,,,2024-02-28,1,,,,,グラレル,0
1123,5030001158879,新規,0,2024-02-28,2024-02-28,株式会社キングス,,株式会社,埼玉県,所沢市,中新井２丁目６９０番地プレミアコート２０２号室,,11,208,3590041,,,,,,,2024-02-28,1,,,,,キングス,0
1124,5030001158920,新規,0,2024-02-28,2024-02-28,株式会社さくらドラフティング,,株式会社,埼玉県,さいたま市緑区,大字大間木１５８７番地１ライオンズマンション東浦和１０３号室,,11,109,3360923,,,,,,,2024-02-28,1,,,,,サクラドラフティング,0
1125,5030001158937,新規,0,2024-02-28,2024-02-28,株式会社Ｓｗｅｅｐ,,株式会社,埼玉県,越谷市,大字上間久里２４９番地６,,11,222,3430043,,,,,,,2024-02-28,1,,,,,スイープ,0
1130,5030003023676,新規,0,2024-02-28,2024-02-28,合同会社オリエンタルデザイン,,合同会社,埼玉県,川口市,大字赤山１２０５番６,,11,203,3330825,,,,,,,2024-02-28,1,,,,,オリエンタルデザイン,0
1131,5030003023701,新規,0,2024-02-28,2024-02-28,ｓｍｉｌｅ川口合同会社,,合同会社,埼玉県,川口市,芝高木２丁目１０番１４－４０９号,,11,203,3330868,,,,,,,2024-02-28,1,,,,,スマイルカワグチ,0
1134,5030005021562,新規,0,2024-02-28,2024-02-28,一般社団法人ＳＨＩＧＥ,,その他の設立登記法人,埼玉県,朝霞市,岡３丁目２７番１００号,,11,227,3510007,,,,,,,2024-02-28,1,,,,,シゲ,0
1140,5040001132362,新規,0,2024-02-28,2024-02-28,株式会社金親総建,,株式会社,千葉県,松戸市,五香４丁目５３番地の１－１０１号,,12,207,2702213,,,,,,,2024-02-28,1,,,,,カネオヤソウケン,0
1141,5040001132395,新規,0,2024-02-28,2024-02-28,株式会社ＬＩＦＥ　ＣＲＥＡＴＥ　ＬＩＶＩＮＧ,,株式会社,千葉県,千葉市中央区,今井２丁目８番２号,,12,101,2600834,,,,,,,2024-02-28,1,,,,,ライフクリエイトリビング,0
1142,5040001132412,新規,0,2024-02-28,2024-02-28,興隆商事株式会社,00133886,株式会社,千葉県,船橋市,前原東６丁目２５番６－１号,,12,204,2740824,,,,,,,2024-02-28,1,,,,,コウリュウショウジ,0
1147,5040003024418,新規,0,2024-02-28,2024-02-28,下総総研合同会社,,合同会社,千葉県,柏市,藤ケ谷６４５番地,,12,217,2770931,,,,,,,2024-02-28,1,,,,,シモウサソウケン,0
1149,5060001036859,新規,0,2024-02-28,2024-02-28,染新株式会社,,株式会社,栃木県,足利市,五十部町字中堀１３８２番地２,,09,202,3260843,,,,,,,2024-02-28,1,,,,,ソメシン,0
1154,5080001026148,新規,0,2024-02-28,2024-02-28,株式会社ＴＯＭＨＡＩＲ,,株式会社,静岡県,静岡市葵区,人宿町２丁目２番地の２河合ビル２階,,22,101,4200037,,,,,,,2024-02-28,1,,,,,トムヘアー,0
1161,5090001018557,新規,0,2024-02-28,2024-02-28,株式会社ハピリィフードサービス,,株式会社,山梨県,甲斐市,大久保１４００番地８３,,19,210,4000128,,,,,,,2024-02-28,1,,,,,ハピリィフードサービス,0
1172,5120001262416,新規,0,2024-02-28,2024-02-28,Ｅ＆Ｗ株式会社,,株式会社,大阪府,大阪市西区,靭本町３－１０－２４兆豊阿波座ビル３０１号室,,27,106,5500000,,,,,,,2024-02-28,1,,,,,イーアンドダブリュー,0
1173,5120001262639,新規,0,2024-02-28,2024-02-28,東昇株式会社,,株式会社,大阪府,大阪市東淀川区,下新庄４丁目２０－７－４０２号,,27,114,5330021,,,,,,,2024-02-28,1,,,,,トウショウ,0
1174,5120001262663,新規,0,2024-02-28,2024-02-28,株式会社ええじゃないか,,株式会社,大阪府,大阪市城東区,新喜多東１丁目６番１５号メゾンヒカル,,27,118,5360017,,,,,,,2024-02-28,1,,,,,エエジャナイカ,0
1175,5120001262696,新規,0,2024-02-28,2024-02-28,盛禾国際株式会社,,株式会社,大阪府,大阪市生野区,田島２丁目１０番３０－２０３号,,27,116,5440011,,,,,,,2024-02-28,1,,,,,セイカコクサイ,0
1176,5120001262713,新規,0,2024-02-28,2024-02-28,株式会社ＲＡＰＩＤ,,株式会社,大阪府,寝屋川市,点野３丁目１４番２号,,27,215,5720077,,,,,,,2024-02-28,1,,,,,ラピッド,0
1179,5120003026034,新規,0,2024-02-28,2024-02-28,合同会社Ｒｏｌｏ,,合同会社,大阪府,大阪市中央区,心斎橋筋２丁目２番２号３Ｆ,,27,128,5420085,,,,,,,2024-02-28,1,,,,,ロロ,0
1180,5120003026050,新規,0,2024-02-28,2024-02-28,合同会社００１,,合同会社,大阪府,大阪市淀川区,西中島３丁目１５番１１号６階,,27,123,5320011,,,,,,,2024-02-28,1,,,,,ゼロゼロワン,0
1185,5120101069100,新規,0,2024-02-28,2024-02-28,株式会社サンライズ,,株式会社,大阪府,岸和田市,下松町２丁目１３番２０号,,27,202,5960823,,,,,,,2024-02-28,1,,,,,サンライズ,0
1186,5120101069133,新規,0,2024-02-28,2024-02-28,株式会社ＡＱＵＡ結建築事務所,,株式会社,大阪府,岸和田市,港緑町５番１号アクアパークＣＩＴＹ岸和田南１番館５０４,,27,202,5960014,,,,,,,2024-02-28,1,,,,,アクアユイケンチクジムショ,0
1191,5120103005689,新規,0,2024-02-28,2024-02-28,宇曦商貿合同会社,,合同会社,大阪府,岸和田市,天神山町２丁目９－６－１０１室,,27,202,5960834,,,,,,,2024-02-28,1,,,,,ウギショウボウ,0
1193,5120901048823,新規,0,2024-02-28,2024-02-28,株式会社マスボウ,,株式会社,大阪府,茨木市,片桐町１２番４号の３,,27,211,5670819,,,,,,,2024-02-28,1,,,,,マスボウ,0
1195,5122003002808,新規,0,2024-02-28,2024-02-28,Ｏｍｎｉ　Ｓｐｈｅｒｅ合同会社,,合同会社,大阪府,八尾市,八尾木北４丁目５２番７号,,27,212,5810016,,,,,,,2024-02-28,1,,,,,オムニスフィア,0
1200,5130001076427,新規,0,2024-02-28,2024-02-28,株式会社エース,,株式会社,京都府,京都市南区,上鳥羽鴨田町１８番地,,26,107,6018131,,,,,,,2024-02-28,1,,,,,エース,0
1201,5130001076435,新規,0,2024-02-28,2024-02-28,Ｍｉｎｋａ　Ｃａｐｉｔａｌ株式会社,,株式会社,京都府,京都市左京区,鹿ケ谷寺ノ前町２７番地,,26,103,6068426,,,,,,,2024-02-28,1,,,,,ミンカキャピタル,0
1210,5140001133391,新規,0,2024-02-28,2024-02-28,ベスト株式会社,,株式会社,兵庫県,神戸市長田区,西尻池町１丁目３－１９,,28,106,6530031,,,,,,,2024-02-28,1,,,,,ベスト,0
1211,5140001133474,新規,0,2024-02-28,2024-02-28,阪神総研株式会社,,株式会社,兵庫県,西宮市,甲子園洲鳥町２番５－４０１号,,28,204,6638151,,,,,,,2024-02-28,1,,,,,ハンシンソウケン,0
1212,5140001133482,新規,0,2024-02-28,2024-02-28,株式会社翔建,,株式会社,兵庫県,神戸市西区,和井取３番２７－２０１号,,28,111,6512120,,,,,,,2024-02-28,1,,,,,ショウケン,0
1216,5140003020200,新規,0,2024-02-28,2024-02-28,ナーツ合同会社,,合同会社,兵庫県,神戸市西区,樫野台６丁目４番地の４,,28,111,6512275,,,,,,,2024-02-28,1,,,,,ナーツ,0
1231,5180001160309,新規,0,2024-02-28,2024-02-28,株式会社ＧＢＣ　ＰＯＬＹＰＬＡＳＴＩＣ　ＴＲＡＤＥＲ,,株式会社,愛知県,瀬戸市,東長根町２４１長根マンション２０７,,23,204,4890871,,,,,,,2024-02-28,1,,,,,ジービーシーポリプラスチックトレーダー,0
1232,5180001160325,新規,0,2024-02-28,2024-02-28,株式会社九十九,,株式会社,愛知県,東海市,富木島町伏見３丁目１２番地の１１,,23,222,4760012,,,,,,,2024-02-28,1,,,,,ツクモ,0
1233,5180001160333,新規,0,2024-02-28,2024-02-28,株式会社サンテックホールディングス,,株式会社,愛知県,名古屋市熱田区,花表町７番２１号,,23,109,4560033,,,,,,,2024-02-28,1,,,,,サンテックホールディングス,0
1235,5180003026391,新規,0,2024-02-28,2024-02-28,合同会社ワンスリーサービス,,合同会社,愛知県,海部郡大治町,大字西條字狐海道１４４番地２,,23,424,4901144,,,,,,,2024-02-28,1,,,,,ワンスリーサービス,0
1237,5180301038361,新規,0,2024-02-28,2024-02-28,株式会社ＭＫ．ＬｉＮＥ,,株式会社,愛知県,岡崎市,大門２丁目１１番地２６,,23,202,4442135,,,,,,,2024-02-28,1,,,,,エムケーライン,0
1239,5190003004586,新規,0,2024-02-28,2024-02-28,合同会社吉村事務所,00133875,合同会社,三重県,松阪市,駅部田町１８８８番地９,,24,204,5150045,,,,,,,2024-02-28,1,,,,,ヨシムラジムショ,0
1240,5190003004594,新規,0,2024-02-28,2024-02-28,合同会社継城開来不動産,,合同会社,三重県,四日市市,赤堀新町７番６号グローリアス四日市３０２,,24,202,5100825,,,,,,,2024-02-28,1,,,,,ケイジョウカイライフドウサン,0
1244,5210003001754,新規,0,2024-02-28,2024-02-28,合同会社ビグニスト,,合同会社,福井県,大飯郡高浜町,和田１０５－２－１,,18,481,9192201,,,,,,,2024-02-28,1,,,,,ビグニスト,0
1248,5240001062845,新規,0,2024-02-28,2024-02-28,株式会社相方パートナーズ,,株式会社,広島県,福山市,桜馬場町８番８－２号,,34,207,7200051,,,,,,,2024-02-28,1,,,,,アイカタパートナーズ,0
1258,5260003004595,新規,0,2024-02-28,2024-02-28,合同会社シンシア・マネジメント・サポート,,合同会社,岡山県,倉敷市,西岡１１６０番１,,33,202,7100005,,,,,,,2024-02-28,1,,,,,シンシアマネジメントサポート,0
1267,5290001104774,新規,0,2024-02-28,2024-02-28,株式会社灯,,株式会社,福岡県,八女市,長野４０６番地,,40,210,8340011,,,,,,,2024-02-28,1,,,,,トモシビ,0
1268,5290001104840,新規,0,2024-02-28,2024-02-28,株式会社アールイー・プランニング,,株式会社,福岡県,那珂川市,大字埋金６８番地２７７,,40,231,8111232,,,,,,,2024-02-28,1,,,,,アールイープランニング,0
1269,5290001104857,新規,0,2024-02-28,2024-02-28,株式会社ｐｌａｎ　Ｂ,,株式会社,福岡県,福岡市中央区,大名２丁目２－１３ビーロット大名ビル３Ａ,,40,133,8100041,,,,,,,2024-02-28,1,,,,,プランビー,0
1279,5320001020316,新規,0,2024-02-28,2024-02-28,株式会社ＲＮＯ企画,,株式会社,大分県,大分市,大字松岡９５８番地,,44,201,8700125,,,,,,,2024-02-28,1,,,,,アールエヌオーキカク,0
1280,5320003004300,新規,0,2024-02-28,2024-02-28,合同会社Ｓｏｕ,,合同会社,大分県,別府市,餅ケ浜町１番３１号,,44,202,8740924,,,,,,,2024-02-28,1,,,,,ソウ,0
1291,5340003004380,新規,0,2024-02-28,2024-02-28,合同会社ＯＰＥＮ・ＨｉＧＨ,,合同会社,鹿児島県,鹿児島市,小川町２番１８号,,46,201,8920817,,,,,,,2024-02-28,1,,,,,オープンハイ,0
1295,5360003013743,新規,0,2024-02-28,2024-02-28,シマトビワークス合同会社,,合同会社,沖縄県,石垣市,字登野城６４番地１,,47,207,9070004,,,,,,,2024-02-28,1,,,,,シマトビワークス,0
1297,5370001050969,新規,0,2024-02-28,2024-02-28,ｍｉｒａｉｓｃａｐｅ株式会社,,株式会社,宮城県,仙台市若林区,六丁の目西町８－１,,04,103,9840011,,,,,,,2024-02-28,1,,,,,ミライスケープ,0
1301,5380001034319,新規,0,2024-02-28,2024-02-28,株式会社小宅ファーム,,株式会社,福島県,石川郡浅川町,大字里白石字荒屋郷５２２番地,,07,504,9636202,,,,,,,2024-02-28,1,,,,,オヤケファーム,0
1306,5430001091172,新規,0,2024-02-28,2024-02-28,株式会社時雨,,株式会社,北海道,小樽市,忍路１丁目１９４番地６,,01,203,0482561,,,,,,,2024-02-28,1,,,,,シグレ,0
1311,5430003015996,新規,0,2024-02-28,2024-02-28,合同会社Ｋｕｒａ,,合同会社,北海道,札幌市中央区,宮の森二条７丁目１番５７－４０２号,,01,101,0640952,,,,,,,2024-02-28,1,,,,,クラ,0
1331,6010001242519,新規,0,2024-02-28,2024-02-28,Ｒｉｄｅｃｅｌｌ　Ｊａｐａｎ株式会社,,株式会社,東京都,千代田区,丸の内１丁目５番１号,,13,101,1000005,,,,,,,2024-02-28,1,,,,,ライドセルジャパン,0
1332,6010001242592,新規,0,2024-02-28,2024-02-28,株式会社Ｄｅｌｉｇｈｔ,,株式会社,東京都,中央区,銀座１丁目１２番４号Ｎ＆ＥＢＬＤ．６Ｆ,,13,102,1040061,,,,,,,2024-02-28,1,,,,,ディライト,0
1333,6010001242634,新規,0,2024-02-28,2024-02-28,株式会社佰昆国際ヘルスケアジャパン,,株式会社,東京都,中央区,日本橋本町３丁目３番６号,,13,102,1030023,,,,,,,2024-02-28,1,,,,,ハイコンコクサイヘルスケアジャパン,0
1334,6010001242667,新規,0,2024-02-28,2024-02-28,ブリッジウォーター株式会社,,株式会社,東京都,中央区,兜町１７番１号ロイヤルプラザ７０６,,13,102,1030000,,,,,,,2024-02-28,1,,,,,ブリッジウォーター,0
1337,6010003043048,新規,0,2024-02-28,2024-02-28,合同会社Ｒｅｓｉｌｉｅｎｃｅ５,,合同会社,東京都,千代田区,霞が関３丁目２番５号,,13,101,1000013,,,,,,,2024-02-28,1,,,,,レジリエンスゴ,0
1338,6010003043080,新規,0,2024-02-28,2024-02-28,合同会社ＭＰＨＯＴ,,合同会社,東京都,千代田区,内神田１丁目３番７号４０１あすな会計事務所内,,13,101,1010047,,,,,,,2024-02-28,1,,,,,エムピーエイチオーティー,0
1342,6010501051799,新規,0,2024-02-28,2024-02-28,株式会社イージーリテイリング,,株式会社,東京都,台東区,台東２丁目３１－１０第２掛川ビル１０５号,,13,106,1100016,,,,,,,2024-02-28,1,,,,,イージーリテイリング,0
1351,6010701045618,新規,0,2024-02-28,2024-02-28,株式会社ミニチュアメモリアル,,株式会社,東京都,品川区,北品川５丁目５番１５号大崎ブライトコア４階,,13,109,1410001,,,,,,,2024-02-28,1,,,,,ミニチュアメモリアル,0
1359,6011001160264,新規,0,2024-02-28,2024-02-28,渋谷レコード株式会社,,株式会社,東京都,渋谷区,神宮前６丁目２３番４号桑野ビル２Ｆ,,13,113,1500001,,,,,,,2024-02-28,1,,,,,シブヤレコード,0
1360,6011001160280,新規,0,2024-02-28,2024-02-28,株式会社ＧＯＡＴ,,株式会社,東京都,渋谷区,恵比寿西２丁目８番４号ＥＸ恵比寿西ビル５階,,13,113,1500021,,,,,,,2024-02-28,1,,,,,ゴート,0
1361,6011001160306,新規,0,2024-02-28,2024-02-28,株式会社ＯＰＱＲＳＴ,,株式会社,東京都,渋谷区,道玄坂１丁目１０番８号渋谷道玄坂東急ビル２Ｆ－Ｃ,,13,113,1500043,,,,,,,2024-02-28,1,,,,,,0
1366,6011003018568,新規,0,2024-02-28,2024-02-28,花鳥風月合同会社,,合同会社,東京都,渋谷区,恵比寿西２丁目８番４号ＥＸ恵比寿西ビル５階,,13,113,1500021,,,,,,,2024-02-28,1,,,,,カチョウフウゲツ,0
1371,6011101106332,新規,0,2024-02-28,2024-02-28,株式会社ＬＲ,,株式会社,東京都,新宿区,大京町８番地,,13,104,1600015,,,,,,,2024-02-28,1,,,,,エルアール,0
1372,6011101106340,新規,0,2024-02-28,2024-02-28,株式会社ｂｒｔ　ｐａｒｔｎｅｒ,,株式会社,東京都,新宿区,高田馬場２丁目１７番３号ＴＨＥＨＵＢ高田馬場７３２,,13,104,1690075,,,,,,,2024-02-28,1,,,,,ビーアールティーパートナー,0
1374,6011103014153,新規,0,2024-02-28,2024-02-28,合同会社ＴＵ００２,,合同会社,東京都,新宿区,四谷２丁目９番地１５東京ユナイテッド綜合事務所内,,13,104,1600004,,,,,,,2024-02-28,1,,,,,ティーユーゼロゼロツー,0
1376,6011301029449,新規,0,2024-02-28,2024-02-28,株式会社すぎなみ産業医事務所,,株式会社,東京都,杉並区,宮前３丁目５番３号,,13,115,1680081,,,,,,,2024-02-28,1,,,,,スギナミサンギョウイジムショ,0
1381,6011703003761,新規,0,2024-02-28,2024-02-28,合同会社ＳＥＫ,,合同会社,東京都,江戸川区,北小岩５丁目２７番２２号第２臼倉荘２０２,,13,123,1330051,,,,,,,2024-02-28,1,,,,,エスイーケー,0
1389,6013301052125,新規,0,2024-02-28,2024-02-28,株式会社ＲＩＳＥ　ＤＲＩＶＥ,,株式会社,東京都,豊島区,池袋２丁目１７番１８号,,13,116,1710014,,,,,,,2024-02-28,1,,,,,ライズドライブ,0
1390,6013301052133,新規,0,2024-02-28,2024-02-28,株式会社スケルツォ,,株式会社,東京都,豊島区,北大塚２丁目８番６－３０４号,,13,116,1700004,,,,,,,2024-02-28,1,,,,,スケルツォ,0
1394,6020001155975,新規,0,2024-02-28,2024-02-28,株式会社Ｅ‐ＬＩＦＥ,,株式会社,神奈川県,横浜市瀬谷区,宮沢２丁目２５番地９,,14,114,2460038,,,,,,,2024-02-28,1,,,,,イーライフ,0
1395,6020001156016,新規,0,2024-02-28,2024-02-28,株式会社Ｆｏｒｔｅｚｚａ,,株式会社,神奈川県,横浜市南区,南太田１丁目１１番１３号ライオンズプラザ南太田１３６号室,,14,105,2320006,,,,,,,2024-02-28,1,,,,,フォルテッツァ,0
1407,6030001158878,新規,0,2024-02-28,2024-02-28,株式会社サカウエ,,株式会社,埼玉県,さいたま市大宮区,北袋町１丁目１０３－１中村ビル４階,,11,103,3300835,,,,,,,2024-02-28,1,,,,,サカウエ,0
1408,6030001158903,新規,0,2024-02-28,2024-02-28,株式会社Ｐｉｌｉｎａ,,株式会社,埼玉県,川口市,東川口１丁目１０番１号,,11,203,3330801,,,,,,,2024-02-28,1,,,,,ピリナ,0
1412,6030003023700,新規,0,2024-02-28,2024-02-28,ＳＢコーポレーション合同会社,,合同会社,埼玉県,川口市,大字木曽呂３６９番地１サンシティＢ１０２号室,,11,203,3330831,,,,,,,2024-02-28,1,,,,,エスビーコーポレーション,0
1413,6030003023709,新規,0,2024-02-28,2024-02-28,ＫＳＫＢ合同会社,,合同会社,埼玉県,春日部市,上蛭田１１番地１０,,11,214,3440046,,,,,,,2024-02-28,1,,,,,ケーエスケービー,0
1416,6040001132361,新規,0,2024-02-28,2024-02-28,ＭＳＫ株式会社,,株式会社,千葉県,成田市,土屋５４８番地１２,,12,211,2860021,,,,,,,2024-02-28,1,,,,,エムエスケー,0
1417,6040001132411,新規,0,2024-02-28,2024-02-28,株式会社ＳＥＧＮＯＳ,,株式会社,千葉県,千葉市中央区,中央２丁目５－１千葉中央ツインビル２号館７階,,12,101,2600013,,,,,,,2024-02-28,1,,,,,セグノス,0
1420,6040003024409,新規,0,2024-02-28,2024-02-28,合同会社ＬＥＮＴＥ　Ｍ．,,合同会社,千葉県,千葉市花見川区,天戸町９３１番地３,,12,102,2620043,,,,,,,2024-02-28,1,,,,,レンテマネージメント,0
1427,6060001036858,新規,0,2024-02-28,2024-02-28,ＡＺＡＭ　ＴＲＡＤＩＮＧ株式会社,,株式会社,栃木県,小山市,城東６丁目７番２２号ＡＭＢＩＴＩＯＮ城東ＩＩ１０５号室,00133888,09,208,3230807,,,,,,,2024-02-28,1,,,,,アザムトレーディング,0
1428,6060001036866,新規,0,2024-02-28,2024-02-28,株式会社ＸＩＭＰＲＥＤＩＸ,,株式会社,栃木県,小山市,中央町２丁目１番８号メゾンタカキュー４０１,,09,208,3230023,,,,,,,2024-02-28,1,,,,,シンプレディクス,0
1434,6080001026147,新規,0,2024-02-28,2024-02-28,株式会社フォーリーフ,,株式会社,静岡県,静岡市葵区,千代田５丁目６番６２号,,22,101,4200803,,,,,,,2024-02-28,1,,,,,フォーリーフ,0
1435,6080003003136,新規,0,2024-02-28,2024-02-28,合同会社ＭＲＡ,,合同会社,静岡県,牧之原市,大寄９５５番地,,22,226,4210506,,,,,,,2024-02-28,1,,,,,エムアールエー,0
1437,6090001018556,新規,0,2024-02-28,2024-02-28,株式会社満月屋,,株式会社,山梨県,山梨市,市川１６５４番地,,19,205,4050044,,,,,,,2024-02-28,1,,,,,マンゲツヤ,0
1438,6090005007613,新規,0,2024-02-28,2024-02-28,一般社団法人木咲会,,その他の設立登記法人,山梨県,南都留郡富士河口湖町,勝山４１８３番地１,,19,430,4010310,,,,,,,2024-02-28,1,,,,,,0
1439,6100001037232,新規,0,2024-02-28,2024-02-28,パナケアファーマシー株式会社,,株式会社,長野県,茅野市,本町東１５番６０－８号,,20,214,3910003,,,,,,,2024-02-28,1,,,,,パナケアファーマシー,0
1442,6100003007407,新規,0,2024-02-28,2024-02-28,合同会社エクセレント,,合同会社,長野県,下伊那郡高森町,吉田２３０６番地１１,,20,403,3993102,,,,,,,2024-02-28,1,,,,,エクセレント,0
1451,6120001262679,新規,0,2024-02-28,2024-02-28,微光株式会社,,株式会社,大阪府,大阪市城東区,新喜多東２丁目８番２３号ＭｉｘＰａｃｅ１０１号室,,27,118,5360017,,,,,,,2024-02-28,1,,,,,ビコウ,0
1452,6120001262712,新規,0,2024-02-28,2024-02-28,株式会社福博工業,,株式会社,大阪府,大阪市中央区,伏見町３丁目１番１－１２０３号,,27,128,5410044,,,,,,,2024-02-28,1,,,,,フクハクコウギョウ,0
1454,6120003026041,新規,0,2024-02-28,2024-02-28,合同会社三合,,合同会社,大阪府,大阪市天王寺区,大道２丁目２番６号ホーユウコンフォルト天王寺東３０２号室,,27,109,5430052,,,,,,,2024-02-28,1,,,,,ミアイ,0
1457,6120101069090,新規,0,2024-02-28,2024-02-28,株式会社オーディーテックホールディングス,,株式会社,大阪府,富田林市,桜ケ丘町２番５５－６０１号,,27,214,5840084,,,,,,,2024-02-28,1,,,,,オーディーテックホールディングス,0
1458,6120101069124,新規,0,2024-02-28,2024-02-28,株式会社アルディ,,株式会社,大阪府,堺市堺区,戎島町２丁３０番地３１６号,,27,141,5900985,,,,,,,2024-02-28,1,,,,,アルディ,0
1459,6120103005688,新規,0,2024-02-28,2024-02-28,昊恩合同会社,,合同会社,大阪府,岸和田市,天神山町２丁目９－６－１０３室,,27,202,5960834,,,,,,,2024-02-28,1,,,,,コウオン,0
1462,6122003002807,新規,0,2024-02-28,2024-02-28,Ａｓｈ　Ｗｏｒｋｓ合同会社,,合同会社,大阪府,柏原市,本郷５丁目７番９号,,27,221,5820001,,,,,,,2024-02-28,1,,,,,アッシュワークス,0
1472,6140001133481,新規,0,2024-02-28,2024-02-28,株式会社みかえる学園,,株式会社,兵庫県,姫路市,書写２４２９番地,,28,201,6712201,,,,,,,2024-02-28,1,,,,,ミカエルガクエン,0
1475,6140003020208,新規,0,2024-02-28,2024-02-28,レーヴ合同会社,,合同会社,兵庫県,神戸市兵庫区,菊水町６丁目３番１２号,,28,105,6520058,,,,,,,2024-02-28,1,,,,,レーヴ,0
1480,6160001025710,新規,0,2024-02-28,2024-02-28,志賀商事株式会社,,株式会社,滋賀県,大津市,南志賀２丁目２３番２１号,,25,201,5200011,,,,,,,2024-02-28,1,,,,,シガショウジ,0
1485,6180001160282,新規,0,2024-02-28,2024-02-28,株式会社ＨｉｔＭｅ,,株式会社,愛知県,名古屋市中川区,牛立町１丁目９３番地の１,,23,110,4540043,,,,,,,2024-02-28,1,,,,,ヒットミー,0
1486,6180001160308,新規,0,2024-02-28,2024-02-28,Ｅｈｓａｎ　Ｂａｒａｄａｒ　Ｔｒａｄｉｎｇ株式会社,,株式会社,愛知県,名古屋市中区,錦１丁目１７番１３号名興ビルディング３階,,23,106,4600003,,,,,,,2024-02-28,1,,,,,イーサンバラダールトレーディング,0
1487,6180001160316,新規,0,2024-02-28,2024-02-28,アカウンティングイノベーションズ株式会社,,株式会社,愛知県,一宮市,大和町毛受字辻畑８６番地１,00133879,23,203,4910932,,,,,,,2024-02-28,1,,,,,アカウンティングイノベーションズ,0
1488,6180001160324,新規,0,2024-02-28,2024-02-28,株式会社餅市,,株式会社,愛知県,名古屋市熱田区,川並町２番２２号,,23,109,4560072,,,,,,,2024-02-28,1,,,,,モチイチ,0
1490,6180003026432,新規,0,2024-02-28,2024-02-28,アクセストータルサービス合同会社,,合同会社,愛知県,名古屋市名東区,一社４丁目４７番地の７,,23,115,4650093,,,,,,,2024-02-28,1,,,,,アクセストータルサービス,0
1498,6180301038360,新規,0,2024-02-28,2024-02-28,株式会社ＤＳ,,株式会社,愛知県,みよし市,福田町山畑３９番地の５,,23,236,4700225,,,,,,,2024-02-28,1,,,,,ディーエス,0
1501,6190001031136,新規,0,2024-02-28,2024-02-28,株式会社ａｃｌｐ,,株式会社,三重県,鈴鹿市,稲生西３丁目１番９号,,24,207,5100204,,,,,,,2024-02-28,1,,,,,エーシーエルピー,0
1507,6240001062844,新規,0,2024-02-28,2024-02-28,Ｃｏｎｎｅｃｔ株式会社,,株式会社,広島県,福山市,芦田町大字福田１９０４番地５,,34,207,7201264,,,,,,,2024-02-28,1,,,,,コネクト,0
1520,6290001104831,新規,0,2024-02-28,2024-02-28,株式会社レアクルー美装,,株式会社,福岡県,宗像市,三郎丸２丁目８番１６号,,40,220,8114143,,,,,,,2024-02-28,1,,,,,レアクルービソウ,0
1521,6290003015011,新規,0,2024-02-28,2024-02-28,ＧＯＬＤＥＮ　ＭＯＤＥＳＴＹ　ＩＮＴＥＲＮＡＴＩＯＮＡＬ合同会社,,合同会社,福岡県,福岡市中央区,小笹５丁目１８番２８号,,40,133,8100033,,,,,,,2024-02-28,1,,,,,ゴールデンモデスティインターナショナル,0
1522,6290803004634,新規,0,2024-02-28,2024-02-28,ＳＵＭ合同会社,,合同会社,福岡県,北九州市小倉北区,長浜町２番１－３０７号,,40,106,8020013,,,,,,,2024-02-28,1,,,,,サム,0
1523,6300001013626,新規,0,2024-02-28,2024-02-28,株式会社ならざき薬局,,株式会社,佐賀県,唐津市,原１０４３番地６,,41,202,8470031,,,,,,,2024-02-28,1,,,,,ナラザキヤッキョク,0
1528,6320001020315,新規,0,2024-02-28,2024-02-28,Ｔ　ｔｒｅｅ株式会社,,株式会社,大分県,大分市,大字小野鶴１５２２番地の１１,,44,201,8701153,,,,,,,2024-02-28,1,,,,,ティーツリー,0
1529,6320003004299,新規,0,2024-02-28,2024-02-28,合同会社Ｄｅｕｘ　ｐｌｕｓ,,合同会社,大分県,玖珠郡玖珠町,大字山田５８６番地の１グリーンマウント春田１号室,,44,462,8794412,,,,,,,2024-02-28,1,,,,,ドゥープラス,0
1530,6330001031781,新規,0,2024-02-28,2024-02-28,ぶたい本舗株式会社,,株式会社,熊本県,熊本市北区,室園町１４番２６号,,43,105,8618072,,,,,,,2024-02-28,1,,,,,ブタイホンポ,0
1533,6350001018810,新規,0,2024-02-28,2024-02-28,株式会社パズフォード,,株式会社,宮崎県,延岡市,三須町１２１２番地１,,45,203,8820881,,,,,,,2024-02-28,1,,,,,パズフォード,0
1534,6360001033247,新規,0,2024-02-28,2024-02-28,株式会社琉沖ファシリティーエンジニア,,株式会社,沖縄県,うるま市,石川東恩納９４７番地５－１Ｆ,,47,213,9041111,,,,,,,2024-02-28,1,,,,,リュウオキファシリティーエンジニア,0
1535,6360003013742,新規,0,2024-02-28,2024-02-28,ＢｅＧＩＮ合同会社,,合同会社,沖縄県,糸満市,字潮平７７０－２,,47,210,9010302,,,,,,,2024-02-28,1,,,,,ビギン,0
1536,6370001050968,新規,0,2024-02-28,2024-02-28,株式会社円寿,,株式会社,宮城県,仙台市太白区,長町南４丁目６番６号オフィスＴＫ１０２,,04,104,9820012,,,,,,,2024-02-28,1,,,,,エンジュ,0
1537,6370001050984,新規,0,2024-02-28,2024-02-28,富一株式会社,,株式会社,宮城県,柴田郡大河原町,福田字中添１０３番地３,,04,321,9891259,,,,,,,2024-02-28,1,,,,,トミイチ,0
1538,6370003006497,新規,0,2024-02-28,2024-02-28,合同会社ＬＡＦＴＡＫＥ,,合同会社,宮城県,仙台市若林区,中倉２丁目２１番７,,04,103,9840821,,,,,,,2024-02-28,1,,,,,ラフテイク,0
1541,6380001034326,新規,0,2024-02-28,2024-02-28,株式会社ハイフィールド,,株式会社,福島県,いわき市,内郷綴町町之内１６番地の３０,,07,204,9738403,,,,,,,2024-02-28,1,,,,,ハイフィールド,0
1551,6430001091196,新規,0,2024-02-28,2024-02-28,株式会社ＩＴＳＵＫＡ　ＴＲＡＮＳＰＯＲＴ,,株式会社,北海道,札幌市白石区,東札幌五条５丁目１４番９‐１０１号,,01,104,0030005,,,,,,,2024-02-28,1,,,,,イツカトランスポート,0
1553,6450001014238,新規,0,2024-02-28,2024-02-28,株式会社ｅｅｌ,,株式会社,北海道,旭川市,東光十二条４丁目１番２５号デスターレＩＩ１０１,00133874,01,204,0788352,,,,,,,2024-02-28,1,,,,,,0
1555,6460001005871,新規,0,2024-02-28,2024-02-28,カーテラス北海道株式会社,,株式会社,北海道,釧路市,興津４丁目１６番１１号,,01,206,0850811,,,,,,,2024-02-28,1,,,,,カーテラスホッカイドウ,0
1556,6470001020052,新規,0,2024-02-28,2024-02-28,株式会社トップセキュリティ,,株式会社,香川県,高松市,仏生山町甲４０番地,,37,201,7618078,,,,,,,2024-02-28,1,,,,,トップセキュリティ,0
1559,6480003002097,新規,0,2024-02-28,2024-02-28,合同会社ダイスワンプ,,合同会社,徳島県,徳島市,川内町平石古田２１９番地の７,,36,201,7710136,,,,,,,2024-02-28,1,,,,,ダイスワンプ,0
1560,6500003003191,新規,0,2024-02-28,2024-02-28,明盛合同会社,,合同会社,愛媛県,松山市,問屋町８番３０号コンソラーレ城北１階南,,38,201,7918018,,,,,,,2024-02-28,1,,,,,アキモリ,0
1566,7010001242609,新規,0,2024-02-28,2024-02-28,株式会社ＰＡＲＡＬＥＧＡＬＳ,,株式会社,東京都,中央区,日本橋堀留町１丁目１０番１号カクタビル２Ｆ,,13,102,1030012,,,,,,,2024-02-28,1,,,,,パラリーガルズ,0
1570,7010003043039,新規,0,2024-02-28,2024-02-28,合同会社Ｒｅｓｉｌｉｅｎｃｅ８,,合同会社,東京都,千代田区,霞が関３丁目２番５号,,13,101,1000013,,,,,,,2024-02-28,1,,,,,レジリエンスハチ,0
1571,7010003043047,新規,0,2024-02-28,2024-02-28,合同会社Ｒｅｓｉｌｉｅｎｃｅ１２,,合同会社,東京都,千代田区,霞が関３丁目２番５号,,13,101,1000013,,,,,,,2024-02-28,1,,,,,レジリエンスジュウニ,0
1572,7010003043055,新規,0,2024-02-28,2024-02-28,合同会社Ｒｅｓｉｌｉｅｎｃｅ　ＸＸＶＩ,,合同会社,東京都,中央区,銀座１丁目６番１１号土志田ビルディング３Ｆ,,13,102,1040061,,,,,,,2024-02-28,1,,,,,レジリエンストゥエンティーシックス,0
1573,7010005037955,新規,0,2024-02-28,2024-02-28,一般社団法人ＭＰＨＯＴ,,その他の設立登記法人,東京都,千代田区,内神田１丁目３番７号４０１あすな会計事務所内,,13,101,1010047,,,,,,,2024-02-28,1,,,,,エムピーエイチオーティー,0
1580,7010401180672,新規,0,2024-02-28,2024-02-28,株式会社Ｍｏｄｅｌｉｓｔ,,株式会社,東京都,港区,北青山１丁目３番１号アールキューブ青山３階,,13,103,1070061,,,,,,,2024-02-28,1,,,,,モデリスト,0
1581,7010401180680,新規,0,2024-02-28,2024-02-28,ＴＴＳ先端技術株式会社,,株式会社,東京都,港区,六本木６丁目２－３１六本木ヒルズノースタワー１７階,,13,103,1060032,,,,,,,2024-02-28,1,,,,,ティーティーエスセンタンギジュツ,0
1582,7010403032046,新規,0,2024-02-28,2024-02-28,合同会社Ｎｏｍａｒｓ,,合同会社,東京都,港区,浜松町２丁目２番１５号浜松町ダイヤビル２Ｆ,,13,103,1050013,,,,,,,2024-02-28,1,,,,,ノマーズ,0
1583,7010403032062,新規,0,2024-02-28,2024-02-28,合同会社アカホリファーム,,合同会社,東京都,港区,三田５丁目１番２１－３０２号,,13,103,1080073,,,,,,,2024-02-28,1,,,,,アカホリファーム,0
1589,7010501051848,新規,0,2024-02-28,2024-02-28,株式会社Ｄｉａｎｃｙ,,株式会社,東京都,台東区,上野５丁目１４番４号,,13,106,1100005,,,,,,,2024-02-28,1,,,,,ダイアンシー,0
1591,7010601064725,新規,0,2024-02-28,2024-02-28,ネオオタク株式会社,,株式会社,東京都,墨田区,江東橋３丁目２－２ドルミ錦糸町大興ビル４０７,,13,107,1300022,,,,,,,2024-02-28,1,,,,,ネオオタク,0
1598,7011001160255,新規,0,2024-02-28,2024-02-28,株式会社ナーゴファクトリー,,株式会社,東京都,目黒区,下目黒３丁目１３番１４号,,13,110,1530064,,,,,,,2024-02-28,1,,,,,ナーゴファクトリー,0
1599,7011001160296,新規,0,2024-02-28,2024-02-28,株式会社ＣＨＩＣＫＥＮ,,株式会社,東京都,渋谷区,神宮前５丁目２５番４号ＢＡＲＣＡ３Ｆ,,13,113,1500001,,,,,,,2024-02-28,1,,,,,チキン,0
1601,7011003018583,新規,0,2024-02-28,2024-02-28,ＮｅｕｒａｌＣｏｎｎｅｃｔＪａｐａｎ合同会社,,合同会社,東京都,渋谷区,代々木４丁目２４番１６号,,13,113,1510053,,,,,,,2024-02-28,1,,,,,ニューラルコネクトジャパン,0
1605,7011103014144,新規,0,2024-02-28,2024-02-28,ミカインターナショナル合同会社,,合同会社,東京都,新宿区,南元町２０番地３ガーデンヒルズ四ツ谷迎賓の森５１０,,13,104,1600012,,,,,,,2024-02-28,1,,,,,ミカインターナショナル,0
1609,7011201025266,新規,0,2024-02-28,2024-02-28,株式会社ウィスピー,,株式会社,東京都,中野区,本町１丁目９番１６号パルコート朱月２０２,,13,114,1640012,,,,,,,2024-02-28,1,,,,,ウィスピー,0
1610,7011301029431,新規,0,2024-02-28,2024-02-28,Ｎｏｖａｔｒｉ株式会社,,株式会社,東京都,杉並区,西荻南２丁目３０－１０,,13,115,1670053,,,,,,,2024-02-28,1,,,,,ノバトリ,0
1613,7011401025891,新規,0,2024-02-28,2024-02-28,株式会社Ｒ,,株式会社,東京都,板橋区,常盤台１丁目３７番１４－２０２号,,13,119,1740071,,,,,,,2024-02-28,1,,,,,アール,0
1617,7011701027051,新規,0,2024-02-28,2024-02-28,Ｅｘｐｌｏｒｅ　Ｔｒｉｐ株式会社,,株式会社,東京都,江戸川区,平井２丁目１６番９号トーア平井７０８室,,13,123,1320035,,,,,,,2024-02-28,1,,,,,エクスプローラートリップ,0
1618,7011703003752,新規,0,2024-02-28,2024-02-28,ＡＭＴ合同会社,,合同会社,東京都,江戸川区,平井７丁目４番４－９０９号,,13,123,1320035,,,,,,,2024-02-28,1,,,,,エーエムティー,0
1620,7011801043849,新規,0,2024-02-28,2024-02-28,株式会社セブンオンスリー,,株式会社,東京都,足立区,西新井栄町２丁目７番２号,,13,121,1230843,,,,,,,2024-02-28,1,,,,,セブンオンスリー,0
1630,7013303007019,新規,0,2024-02-28,2024-02-28,Ｕ　Ｃａｎ　Ｄｏ　ＩＴ合同会社,,合同会社,東京都,豊島区,高松１丁目２０番３号,,13,116,1710042,,,,,,,2024-02-28,1,,,,,ユーキャンドゥイット,0
1636,7020001155974,新規,0,2024-02-28,2024-02-28,株式会社モデトイ,,株式会社,神奈川県,川崎市高津区,子母口７９４番地３７,,14,134,2130023,,,,,,,2024-02-28,1,,,,,モデトイ,0
1640,7020003025630,新規,0,2024-02-28,2024-02-28,合同会社Ｓｏｍｍ　Ｊｅｗｅｌｒｙ,,合同会社,神奈川県,横浜市中区,元町１丁目１３番元町プラザＳ２０３,,14,104,2310861,,,,,,,2024-02-28,1,,,,,ソムジュエリー,0
1648,7021001081582,新規,0,2024-02-28,2024-02-28,株式会社ｃｌａｖｅ,,株式会社,神奈川県,逗子市,沼間２丁目３番２号５１５号室,,14,208,2490004,,,,,,,2024-02-28,1,,,,,クレーヴ,0
1654,7030001158869,新規,0,2024-02-28,2024-02-28,株式会社ジェイプロ,,株式会社,埼玉県,入間市,扇台５丁目４番２１号,,11,225,3580023,,,,,,,2024-02-28,1,,,,,ジェイプロ,0
1655,7030001158935,新規,0,2024-02-28,2024-02-28,株式会社Ｏｒｅａ,,株式会社,埼玉県,草加市,氷川町３０番地２草加ハウス１０３号,,11,221,3400034,,,,,,,2024-02-28,1,,,,,オレア,0
1658,7030003023708,新規,0,2024-02-28,2024-02-28,合同会社ｇｏｏｄｆｅｅｌｉｎｇ,,合同会社,埼玉県,鴻巣市,松原３丁目７番２７号,,11,217,3650042,,,,,,,2024-02-28,1,,,,,グッドフィーリング,0
1659,7030003023716,新規,0,2024-02-28,2024-02-28,合同会社長広商店,,合同会社,埼玉県,志木市,本町４丁目７番１０号,,11,228,3530004,,,,,,,2024-02-28,1,,,,,オサヒロショウテン,0
1661,7040001132393,新規,0,2024-02-28,2024-02-28,辰和建設株式会社,,株式会社,千葉県,船橋市,東船橋３丁目３５番１３号メゾンダジュール１番館,,12,204,2730002,,,,,,,2024-02-28,1,,,,,シンワケンセツ,0
1662,7040001132402,新規,0,2024-02-28,2024-02-28,プラスナリタラボ株式会社,,株式会社,千葉県,成田市,古込字古込１番地１,,12,211,2860104,,,,,,,2024-02-28,1,,,,,プラスナリタラボ,0
1663,7040001132435,新規,0,2024-02-28,2024-02-28,株式会社セレジェイラ,,株式会社,千葉県,千葉市中央区,富士見２丁目７番９号富士見ビル６０９号,,12,101,2600015,,,,,,,2024-02-28,1,,,,,セレジェイラ,0
1666,7050001054364,新規,0,2024-02-28,2024-02-28,零設備工業株式会社,,株式会社,茨城県,水戸市,住吉町１５３番地の２,,08,201,3100844,,,,,,,2024-02-28,1,,,,,レイセツビコウギョウ,0
1676,7090001018555,新規,0,2024-02-28,2024-02-28,株式会社ＳＡＳＡＫＩ　ＣＯＮＮＥＣＴ,,株式会社,山梨県,韮崎市,穂坂町宮久保１１５５番地１,,19,207,4070175,,,,,,,2024-02-28,1,,,,,ササキコネクト,0
1686,7120001262728,新規,0,2024-02-28,2024-02-28,株式会社ゼロアシスト,,株式会社,大阪府,大阪市中央区,南船場１丁目１８番２４号長堀橋アーバンライフ１００１号,,27,128,5420081,,,,,,,2024-02-28,1,,,,,ゼロアシスト,0
1692,7120101069115,新規,0,2024-02-28,2024-02-28,ＥＧＯ株式会社,,株式会社,大阪府,堺市北区,新金岡町３丁４番２４号,,27,146,5918021,,,,,,,2024-02-28,1,,,,,エゴ,0
1702,7140001133480,新規,0,2024-02-28,2024-02-28,株式会社しとん,,株式会社,兵庫県,神戸市中央区,若菜通６丁目４番１５－３０２号,,28,110,6510091,,,,,,,2024-02-28,1,,,,,シトン,0
1713,7180001160281,新規,0,2024-02-28,2024-02-28,株式会社ミワエステート,,株式会社,愛知県,名古屋市東区,葵１丁目２１番４号,,23,102,4610004,,,,,,,2024-02-28,1,,,,,ミワエステート,0
1714,7180001160307,新規,0,2024-02-28,2024-02-28,樋江井モータース株式会社,,株式会社,愛知県,稲沢市,祖父江町桜方松原３６９番地６,,23,220,4950015,,,,,,,2024-02-28,1,,,,,ヒエイモータース,0
1715,7180001160315,新規,0,2024-02-28,2024-02-28,Ｊ　ＳＴＹＬＥ株式会社,,株式会社,愛知県,名古屋市中村区,十王町２番２０号,,23,105,4530035,,,,,,,2024-02-28,1,,,,,ジェイスタイル,0
1722,7190001031135,新規,0,2024-02-28,2024-02-28,株式会社マルジョウＨＤ,,株式会社,三重県,津市,森町１６１４番地の２,,24,201,5141254,,,,,,,2024-02-28,1,,,,,マルジョウホールディングス,0
1726,7200005013573,新規,0,2024-02-28,2024-02-28,一般社団法人ぺんぎん村ＧＲＯＵＰ,,その他の設立登記法人,岐阜県,加茂郡富加町,夕田３８０番地,,21,502,5013302,,,,,,,2024-02-28,1,,,,,ペンギンムラグループ,0
1727,7220001025835,新規,0,2024-02-28,2024-02-28,株式会社ナカネ,,株式会社,石川県,羽咋郡志賀町,笹波ホの６番地,,17,384,9250577,,,,,,,2024-02-28,1,,,,,ナカネ,0
1728,7220005008811,新規,0,2024-02-28,2024-02-28,特定非営利活動法人Ｃｏｍｍｏｎ,,その他の設立登記法人,石川県,小松市,串町３５番地１７,,17,203,9230965,,,,,,,2024-02-28,1,,,,,コモン,0
1733,7240001062843,新規,0,2024-02-28,2024-02-28,すみっこテラス株式会社,,株式会社,広島県,安芸郡府中町,茂陰１丁目８番７号,,34,302,7350029,,,,,,,2024-02-28,1,,,,,スミッコテラス,0
1734,7240001062851,新規,0,2024-02-28,2024-02-28,金株式会社,,株式会社,広島県,東広島市,高屋町中島２１８番地１１,,34,212,7392125,,,,,,,2024-02-28,1,,,,,キン,0
1739,7260001038783,新規,0,2024-02-28,2024-02-28,ホシノＷＡ株式会社,,株式会社,岡山県,浅口市,鴨方町六条院中５１８８番地９,,33,216,7190252,,,,,,,2024-02-28,1,,,,,ホシノワ,0
1745,7290001104863,新規,0,2024-02-28,2024-02-28,株式会社ｕｐ．ｋｅｒｙ,,株式会社,福岡県,福岡市早良区,西新４丁目９番３５号真栄ビル４Ｆ,,40,137,8140002,,,,,,,2024-02-28,1,,,,,アップケリー,0
1747,7290803004633,新規,0,2024-02-28,2024-02-28,合同会社ＨＩ‐ＣＲＡＦＴ,,合同会社,福岡県,遠賀郡岡垣町,大字戸切１６４２－１,,40,383,8114222,,,,,,,2024-02-28,1,,,,,ハイクラフト,0
1766,7420003002878,新規,0,2024-02-28,2024-02-28,武鳶技建合同会社,,合同会社,青森県,青森市,筒井４丁目６番４号,,02,201,0300944,,,,,,,2024-02-28,1,,,,,タケトビギケン,0
1769,7430001091170,新規,0,2024-02-28,2024-02-28,株式会社ｈｔｓ　ｐｌｕｓ,,株式会社,北海道,札幌市清田区,美しが丘二条７丁目２番１号,,01,110,0040812,,,,,,,2024-02-28,1,,,,,エイチティエスプラス,0
1773,7430005014895,新規,0,2024-02-28,2024-02-28,特定非営利活動法人防災したっけ,,その他の設立登記法人,北海道,札幌市豊平区,月寒中央通１１丁目２番５－１０４号,,01,105,0620020,,,,,,,2024-02-28,1,,,,,ボウサイシタッケ,0
1774,7470001020051,新規,0,2024-02-28,2024-02-28,株式会社Ｕ’ｚコンサル,,株式会社,香川県,高松市,出作町４２３番地１０,,37,201,7618077,,,,,,,2024-02-28,1,,,,,ユーズコンサル,0
1778,7480003002096,新規,0,2024-02-28,2024-02-28,合同会社永行企画,,合同会社,徳島県,徳島市,入田町天ノ原２４６番地の１,,36,201,7793133,,,,,,,2024-02-28,1,,,,,,0
1780,7500003003190,新規,0,2024-02-28,2024-02-28,オンベースカンパニー合同会社,,合同会社,愛媛県,松山市,高浜町１丁目乙６０番地４６５,,38,201,7918081,,,,,,,2024-02-28,1,,,,,オンベースカンパニー,0
1788,8010001242624,新規,0,2024-02-28,2024-02-28,株式会社蓬莱,00133881,株式会社,東京都,中央区,日本橋小伝馬町１２番２号,,13,102,1030001,,,,,,,2024-02-28,1,,,,,ホウライ,0
1789,8010001242673,新規,0,2024-02-28,2024-02-28,株式会社Ｊｏｙｂｏｘ,,株式会社,東京都,中央区,日本橋室町１丁目１１番１２号日本橋水野ビル７階,,13,102,1030022,,,,,,,2024-02-28,1,,,,,ジョイボックス,0
1792,8010003043038,新規,0,2024-02-28,2024-02-28,合同会社Ｒｅｓｉｌｉｅｎｃｅ７,,合同会社,東京都,千代田区,霞が関３丁目２番５号,,13,101,1000013,,,,,,,2024-02-28,1,,,,,レジリエンスナナ,0
1793,8010003043046,新規,0,2024-02-28,2024-02-28,合同会社Ｒｅｓｉｌｉｅｎｃｅ４,,合同会社,東京都,千代田区,霞が関３丁目２番５号,,13,101,1000013,,,,,,,2024-02-28,1,,,,,レジリエンスヨン,0
1794,8010003043070,新規,0,2024-02-28,2024-02-28,ＮＣ産業合同会社,,合同会社,東京都,千代田区,一番町９番地８,,13,101,1020082,,,,,,,2024-02-28,1,,,,,エヌシーサンギョウ,0
1796,8010005037905,新規,0,2024-02-28,2024-02-28,一般社団法人全国詐欺被害対策センター,,その他の設立登記法人,東京都,文京区,本郷３丁目３７番８号本郷春木町ビル６階,,13,105,1130033,,,,,,,2024-02-28,1,,,,,ゼンコクサギヒガイタイサクセンター,0
1797,8010005037946,新規,0,2024-02-28,2024-02-28,一般社団法人白珪社,,その他の設立登記法人,東京都,千代田区,麹町２丁目７番３号半蔵門ウッドフィールド２階,,13,101,1020083,,,,,,,2024-02-28,1,,,,,ハクケイシャ,0
1798,8010005037954,新規,0,2024-02-28,2024-02-28,木曽三岳太陽光発電所一般社団法人,,その他の設立登記法人,東京都,中央区,八丁堀３丁目１８番１０号,,13,102,1040032,,,,,,,2024-02-28,1,,,,,キソミタケタイヨウコウハツデンショ,0
1799,8010005037962,新規,0,2024-02-28,2024-02-28,一般社団法人Ｃｏｌｏｒｓ,,その他の設立登記法人,東京都,千代田区,神田小川町３丁目２８番地９三東ビル７Ｆ,,13,101,1010052,,,,,,,2024-02-28,1,,,,,カラーズ,0
1808,8010401180647,新規,0,2024-02-28,2024-02-28,株式会社ＲＥＦＬＥＸコンサルティング,,株式会社,東京都,港区,赤坂８丁目９番１２号,,13,103,1070052,,,,,,,2024-02-28,1,,,,,リフレックスコンサルティング,0
1809,8010401180655,新規,0,2024-02-28,2024-02-28,株式会社ドゥ,,株式会社,東京都,港区,南青山２丁目２番１５号,,13,103,1070062,,,,,,,2024-02-28,1,,,,,ドゥ,0
1810,8010401180688,新規,0,2024-02-28,2024-02-28,株式会社ストレンクス,,株式会社,東京都,港区,芝４丁目７－６芝ビルディング７０４,,13,103,1080014,,,,,,,2024-02-28,1,,,,,ストレンクス,0
1813,8010405023001,新規,0,2024-02-28,2024-02-28,ジャパン・クモトリ特定目的会社,,その他の設立登記法人,東京都,港区,虎ノ門３丁目２２番１０－２０１号,,13,103,1050001,,,,,,,2024-02-28,1,,,,,ジャパンクモトリ,0
1816,8010603010676,新規,0,2024-02-28,2024-02-28,合同会社ＫＳＸ,,合同会社,東京都,江東区,辰巳１丁目５－６クレヴィア辰巳９０１,,13,108,1350053,,,,,,,2024-02-28,1,,,,,ケイエスエクス,0
1818,8010701045608,新規,0,2024-02-28,2024-02-28,株式会社エックスエックス,,株式会社,東京都,品川区,西五反田８丁目２－６－４０２,,13,109,1410031,,,,,,,2024-02-28,1,,,,,エックスエックス,0
1826,8011001160279,新規,0,2024-02-28,2024-02-28,株式会社日本恬謐,,株式会社,東京都,渋谷区,富ヶ谷１丁目１４番１４号３階,,13,113,1510063,,,,,,,2024-02-28,1,,,,,ニホンテンヒツ,0
1829,8011101106330,新規,0,2024-02-28,2024-02-28,株式会社ＦＩＴ,,株式会社,東京都,新宿区,北新宿１丁目８番１０号新宿司法書士会館４０２,,13,104,1690074,,,,,,,2024-02-28,1,,,,,フィット,0
1830,8011101106339,新規,0,2024-02-28,2024-02-28,株式会社ＮｏｖａＡｉ,,株式会社,東京都,新宿区,西新宿３丁目３番１３号西新宿水間ビル６階,,13,104,1600023,,,,,,,2024-02-28,1,,,,,ノバエーアイ,0
1831,8011101106347,新規,0,2024-02-28,2024-02-28,株式会社ＲＵＡ,,株式会社,東京都,新宿区,高田馬場３丁目４番１７号,,13,104,1690075,,,,,,,2024-02-28,1,,,,,ルア,0
1832,8011103014143,新規,0,2024-02-28,2024-02-28,奄美大島笠利町合同会社,,合同会社,東京都,新宿区,四谷４丁目３２番８号ＹＫＢサニービル６階,,13,104,1600004,,,,,,,2024-02-28,1,,,,,アマミオオシマカサリチョウ,0
1834,8011301029439,新規,0,2024-02-28,2024-02-28,株式会社Ｔｉｇｅｒ,,株式会社,東京都,杉並区,高円寺南３丁目３２番１４号ＴＨＥパームス高円寺２０３,,13,115,1660003,,,,,,,2024-02-28,1,,,,,タイガー,0
1838,8011601027555,新規,0,2024-02-28,2024-02-28,株式会社Ｍｅｔａｄｏｃｔｏｒｓ,,株式会社,東京都,練馬区,石神井町２丁目３１番１８号,,13,120,1770041,,,,,,,2024-02-28,1,,,,,メタドクターズ,0
1839,8011601027563,新規,0,2024-02-28,2024-02-28,特別幼稚株式会社,,株式会社,東京都,練馬区,桜台１丁目７－７、４２１号,,13,120,1760002,,,,,,,2024-02-28,1,,,,,トクベツヨウチ,0
1840,8011601027571,新規,0,2024-02-28,2024-02-28,株式会社みんなの心の里,,株式会社,東京都,練馬区,東大泉６丁目７番１９号,,13,120,1780063,,,,,,,2024-02-28,1,,,,,ミンナノココロノサト,0
1841,8011603004255,新規,0,2024-02-28,2024-02-28,キュリアスＫ合同会社,,合同会社,東京都,練馬区,三原台１丁目８番１９号,,13,120,1770031,,,,,,,2024-02-28,1,,,,,キュリアスケー,0
1842,8011801043848,新規,0,2024-02-28,2024-02-28,株式会社ＺＥＲＯ,,株式会社,東京都,足立区,綾瀬３丁目１９番１６号松代ビル２０２,,13,121,1200005,,,,,,,2024-02-28,1,,,,,ゼロ,0
1847,8012401041572,新規,0,2024-02-28,2024-02-28,株式会社ドゥプラ,,株式会社,東京都,三鷹市,井の頭３丁目３１番１５号,,13,204,1810001,,,,,,,2024-02-28,1,,,,,ドゥプラ,0
1849,8013301052131,新規,0,2024-02-28,2024-02-28,株式会社Ｇ’ｓ,,株式会社,東京都,豊島区,池袋２丁目５６－８ホワイトＢＬ石島地下１階Ａ号室,,13,116,1710014,,,,,,,2024-02-28,1,,,,,ジーズ,0
1854,8020001155973,新規,0,2024-02-28,2024-02-28,株式会社エムズ,,株式会社,神奈川県,横浜市神奈川区,七島町７５番地１１,,14,102,2210061,,,,,,,2024-02-28,1,,,,,エムズ,0
1855,8020001155981,新規,0,2024-02-28,2024-02-28,株式会社大建,,株式会社,神奈川県,川崎市川崎区,小田１丁目１番３号メゾンレーヴ１０３,,14,131,2100846,,,,,,,2024-02-28,1,,,,,ダイケン,0
1859,8020005016288,新規,0,2024-02-28,2024-02-28,特定非営利活動法人養神館合気道精星会,,その他の設立登記法人,神奈川県,横浜市泉区,下和泉１丁目１３番１５号,,14,116,2450021,,,,,,,2024-02-28,1,,,,,,0
1868,8030001158851,新規,0,2024-02-28,2024-02-28,株式会社Ｔ＆Ｓ,,株式会社,埼玉県,草加市,両新田東町１８１番地２７,,11,221,3400026,,,,,,,2024-02-28,1,,,,,ティーアンドエス,0
1869,8030001158868,新規,0,2024-02-28,2024-02-28,株式会社Ｕｒｕｓ,,株式会社,埼玉県,さいたま市見沼区,大字南中野９７６番地１６,,11,104,3370042,,,,,,,2024-02-28,1,,,,,ウルス,0
1870,8030001158876,新規,0,2024-02-28,2024-02-28,株式会社ｗｏｏｇｉｅ,,株式会社,埼玉県,川口市,大字久左衛門新田９５番地の１ノストロレガーメ３０６号,,11,203,3330804,,,,,,,2024-02-28,1,,,,,ウギ,0
1871,8030001158901,新規,0,2024-02-28,2024-02-28,秩父土建株式会社,,株式会社,埼玉県,秩父市,大野原７４２番地,,11,207,3680005,,,,,,,2024-02-28,1,,,,,チチブドケン,0
1888,8060003004935,新規,0,2024-02-28,2024-02-28,合同会社キュート,,合同会社,栃木県,佐野市,若松町４１２－５,,09,204,3270846,,,,,,,2024-02-28,1,,,,,キュート,0
1889,8070001041434,新規,0,2024-02-28,2024-02-28,株式会社ＤＯＵＢＬＥ,,株式会社,群馬県,高崎市,上並榎町５９５番地１２,,10,202,3700801,,,,,,,2024-02-28,1,,,,,ダブル,0
1890,8070003005288,新規,0,2024-02-28,2024-02-28,山地名企画合同会社,,合同会社,群馬県,前橋市,小屋原町８５４番地２,,10,201,3792121,,,,,,,2024-02-28,1,,,,,,0
1895,8080103002993,新規,0,2024-02-28,2024-02-28,ＮＹ＆Ｃｏ．合同会社,,合同会社,静岡県,下田市,西本郷２丁目５－３０,,22,219,4150036,,,,,,,2024-02-28,1,,,,,エヌワイアンドコー,0
1899,8090001018554,新規,0,2024-02-28,2024-02-28,株式会社ＴＯＣＯＲＯ．,,株式会社,山梨県,南都留郡富士河口湖町,船津３６３９－２７,,19,430,4010301,,,,,,,2024-02-28,1,,,,,トコロ,0
1900,8090001018562,新規,0,2024-02-28,2024-02-28,株式会社ＮＯ‐ＢＲＡＩＮＥＲ,,株式会社,山梨県,甲府市,山宮町２２６７番地９,,19,201,4000075,,,,,,,2024-02-28,1,,,,,ノーブレイナー,0
1904,8090003002507,新規,0,2024-02-28,2024-02-28,夢らんたん合同会社,,合同会社,山梨県,西八代郡市川三郷町,市川大門２８０８番地,,19,346,4093601,,,,,,,2024-02-28,1,,,,,ユメランタン,0
1905,8100001037247,新規,0,2024-02-28,2024-02-28,株式会社Ｃｌｉｎｉｃ　Ｒｅｓｔａｕｒａｎｔ,,株式会社,長野県,小諸市,大手１丁目４－７,,20,208,3840031,,,,,,,2024-02-28,1,,,,,クリニックレストラン,0
1908,8100003007421,新規,0,2024-02-28,2024-02-28,合同会社ＴＷＯＲＫＳ未来,,合同会社,長野県,下伊那郡下條村,睦沢２５３５番地２６,,20,411,3992101,,,,,,,2024-02-28,1,,,,,ティーワークスミライ,0
1911,8110001038203,新規,0,2024-02-28,2024-02-28,株式会社越佐ロード,,株式会社,新潟県,新潟市南区,赤渋１００７番地,,15,106,9501411,,,,,,,2024-02-28,1,,,,,エッサロード,0
1921,8120001262685,新規,0,2024-02-28,2024-02-28,株式会社Ｄ・Ｃ,,株式会社,大阪府,大阪市生野区,勝山北２丁目１１－２６,,27,116,5440033,,,,,,,2024-02-28,1,,,,,ディーシー,0
1922,8120001262693,新規,0,2024-02-28,2024-02-28,株式会社Ｎｅｘｕｓ,,株式会社,大阪府,大阪市中央区,玉造１丁目２３番１０号１階,,27,128,5400004,,,,,,,2024-02-28,1,,,,,ネクサス,0
1923,8120001262710,新規,0,2024-02-28,2024-02-28,株式会社篠原重量,,株式会社,大阪府,大阪市東住吉区,住道矢田５丁目９番２８号,,27,121,5460022,,,,,,,2024-02-28,1,,,,,シノハラジュウリョウ,0
1924,8120003025999,新規,0,2024-02-28,2024-02-28,合同会社Ｐｕａ　ｍｅｌｉａ,,合同会社,大阪府,大阪市西区,阿波座１丁目２番２－１１０２号,,27,106,5500011,,,,,,,2024-02-28,1,,,,,プアメリア,0
1925,8120003026015,新規,0,2024-02-28,2024-02-28,合同会社ＸＩＸＩ　ＮＧＵＹＥＮ,,合同会社,大阪府,大阪市西淀川区,野里１丁目２８番２１号３階３Ａ号室,,27,113,5550024,,,,,,,2024-02-28,1,,,,,シシグエン,0
1927,8120101069097,新規,0,2024-02-28,2024-02-28,株式会社Ｎｅｘｔ　ｒｉｓｅ,,株式会社,大阪府,堺市西区,上野芝町１丁１６番１０号,,27,144,5938301,,,,,,,2024-02-28,1,,,,,ネクストライズ,0
1928,8120101069122,新規,0,2024-02-28,2024-02-28,ミネ不動産株式会社,,株式会社,大阪府,堺市堺区,錦之町東２丁１番２号,,27,141,5900932,,,,,,,2024-02-28,1,,,,,ミネフドウサン,0
1935,8130001076449,新規,0,2024-02-28,2024-02-28,株式会社さが造園,,株式会社,京都府,京都市右京区,嵯峨野嵯峨ノ段町２２番地１５,,26,108,6168311,,,,,,,2024-02-28,1,,,,,サガゾウエン,0
1942,8140003020206,新規,0,2024-02-28,2024-02-28,合同会社Ｋｅｙ　ｔｏ　Ｓｕｃｃｅｓｓ,,合同会社,兵庫県,西宮市,上ケ原三番町３番１４号,,28,204,6620893,,,,,,,2024-02-28,1,,,,,キートゥサクセス,0
1944,8140005026952,新規,0,2024-02-28,2024-02-28,ＮＰＯ法人さんだアートガーデン,,その他の設立登記法人,兵庫県,三田市,駅前町３－１５－１１１０,,28,219,6691528,,,,,,,2024-02-28,1,,,,,サンダアートガーデン,0
1954,8180001160306,新規,0,2024-02-28,2024-02-28,株式会社アクティブ,,株式会社,愛知県,名古屋市瑞穂区,鍵田町１丁目２９番地の３,,23,108,4670833,,,,,,,2024-02-28,1,,,,,アクティブ,0
1955,8180001160314,新規,0,2024-02-28,2024-02-28,Ｕｎｉｃｏｒｎ株式会社,,株式会社,愛知県,名古屋市守山区,桜坂３丁目８１５番地,,23,113,4630018,,,,,,,2024-02-28,1,,,,,ユニコーン,0
1956,8180001160322,新規,0,2024-02-28,2024-02-28,株式会社ＢＬＡＮＣＯ,,株式会社,愛知県,名古屋市中川区,牛立町５丁目４５番地,,23,110,4540043,,,,,,,2024-02-28,1,,,,,ブランコ,0
1957,8180001160330,新規,0,2024-02-28,2024-02-28,Ｑｕａｌｉｔａｓ株式会社,,株式会社,愛知県,名古屋市中区,丸の内３丁目１９番１号ライオンビル４階,,23,106,4600002,,,,,,,2024-02-28,1,,,,,クオリタス,0
1958,8180001160355,新規,0,2024-02-28,2024-02-28,オカジマオート株式会社,,株式会社,愛知県,春日井市,惣中町２丁目９６番地,,23,206,4860949,,,,,,,2024-02-28,1,,,,,オカジマオート,0
1961,8180003026414,新規,0,2024-02-28,2024-02-28,合同会社ジーエルエー,,合同会社,愛知県,小牧市,桃ケ丘３丁目３０番地３,,23,219,4850813,,,,,,,2024-02-28,1,,,,,ジーエルエー,0
1963,8180303006009,新規,0,2024-02-28,2024-02-28,合同会社ｋｏｔｉ,,合同会社,愛知県,豊橋市,西高師町字小谷５７－７,,23,201,4418154,,,,,,,2024-02-28,1,,,,,コティ,0
1964,8180303006017,新規,0,2024-02-28,2024-02-28,合同会社フォーシーズ,,合同会社,愛知県,岡崎市,大西町字南ケ原２１番地６,,23,202,4440812,,,,,,,2024-02-28,1,,,,,フォーシーズ,0
1965,8190001031134,新規,0,2024-02-28,2024-02-28,株式会社Ｎ’ｚ,,株式会社,三重県,津市,上浜町５丁目６９番地３７,,24,201,5140008,,,,,,,2024-02-28,1,,,,,エヌズ,0
1976,8240001062842,新規,0,2024-02-28,2024-02-28,株式会社ｅｘｊｏｙ,,株式会社,広島県,広島市中区,東平塚町２番２４－７０３号,,34,101,7300025,,,,,,,2024-02-28,1,,,,,エクスジョイ,0
1977,8240001062850,新規,0,2024-02-28,2024-02-28,株式会社ＴａＦ　Ｊａｐａｎ,,株式会社,広島県,東広島市,西条町寺家５１５３番地２,,34,212,7390041,,,,,,,2024-02-28,1,,,,,タフジャパン,0
1987,8290001104813,新規,0,2024-02-28,2024-02-28,オウシ株式会社,,株式会社,福岡県,福岡市博多区,千代５丁目１番４号シャルマンコーポ博多７３６,,40,132,8120044,,,,,,,2024-02-28,1,,,,,オウシ,0
1992,8340001026317,新規,0,2024-02-28,2024-02-28,株式会社モクロム,,株式会社,鹿児島県,鹿児島市,上之園町１７番地１４サンシャイン上之園４０２号,,46,201,8900052,,,,,,,2024-02-28,1,,,,,モクロム,0
1993,8350001018809,新規,0,2024-02-28,2024-02-28,株式会社マツボクリ,,株式会社,宮崎県,宮崎市,広島２丁目５番地２８号椎葉ビル１階,,45,201,8800806,,,,,,,2024-02-28,1,,,,,マツボクリ,0
1994,8360001033245,新規,0,2024-02-28,2024-02-28,株式会社ＩＣＨＩ,,株式会社,沖縄県,那覇市,字大道１２９番地５,,47,201,9020066,,,,,,,2024-02-28,1,,,,,イチ,0
1996,8370001050974,新規,0,2024-02-28,2024-02-28,株式会社藤機工,,株式会社,宮城県,大崎市,古川飯川字中新田３１番地,,04,215,9896203,,,,,,,2024-02-28,1,,,,,フジキコウ,0
1998,8380001034324,新規,0,2024-02-28,2024-02-28,株式会社ＡＲＫＹ,,株式会社,福島県,郡山市,駅前２丁目１３番１３－４０６号,,07,203,9638002,,,,,,,2024-02-28,1,,,,,アーキー,0
2006,8430001091161,新規,0,2024-02-28,2024-02-28,株式会社ピットプラント,,株式会社,北海道,札幌市中央区,南九条西１１丁目１－５Ｓｔｅｌｌａ９１１　２Ｆ,,01,101,0640809,,,,,,,2024-02-28,1,,,,,ピットプラント,0
2007,8430001091178,新規,0,2024-02-28,2024-02-28,株式会社ネクサスイノベーション,,株式会社,北海道,札幌市中央区,大通西９丁目３番地３３,,01,101,0600042,,,,,,,2024-02-28,1,,,,,ネクサスイノベーション,0
2011,8430003016001,新規,0,2024-02-28,2024-02-28,合同会社カーティスクリーク,,合同会社,北海道,千歳市,栄町３丁目４番地の１,,01,224,0660061,,,,,,,2024-02-28,1,,,,,カーティスクリーク,0
2014,8470001020050,新規,0,2024-02-28,2024-02-28,株式会社ともにプロジェクト,,株式会社,香川県,善通寺市,善通寺町２７００番地３,,37,204,7650004,,,,,,,2024-02-28,1,,,,,トモニプロジェクト,0
2023,9010003042996,新規,0,2024-02-28,2024-02-28,合同会社東京スカイ,,合同会社,東京都,千代田区,霞が関３丁目２番５号,,13,101,1000013,,,,,,,2024-02-28,1,,,,,トウキョウスカイ,0
2024,9010003043045,新規,0,2024-02-28,2024-02-28,合同会社Ｒｅｓｉｌｉｅｎｃｅ１１,,合同会社,東京都,千代田区,霞が関３丁目２番５号,,13,101,1000013,,,,,,,2024-02-28,1,,,,,レジリエンスジュウイチ,0
2026,9010005037953,新規,0,2024-02-28,2024-02-28,一般社団法人新庄ヒルズカントリークラブ,,その他の設立登記法人,東京都,中央区,日本橋２丁目２番２１号日本橋二丁目ビル４階スリーエス内,,13,102,1030027,,,,,,,2024-02-28,1,,,,,シンジョウヒルズカントリークラブ,0
2027,9010103002314,新規,0,2024-02-28,2024-02-28,ＲＬ　ｆｌｏｗｅｒｓ合同会社,,合同会社,東京都,八王子市,子安町１丁目４８番９号２０２号室,,13,201,1920904,,,,,,,2024-02-28,1,,,,,アールエルフラワーズ,0
2032,9010401180621,新規,0,2024-02-28,2024-02-28,株式会社ｖｅｎｎｎ,,株式会社,東京都,港区,南青山３丁目１番３６号青山丸竹ビル６Ｆ,,13,103,1070062,,,,,,,2024-02-28,1,,,,,ヴェン,0
2033,9010401180638,新規,0,2024-02-28,2024-02-28,Ｓｉｎｃｅｒｉｔｙ　Ｃａｐｉｔａｌ　Ｍａｎａｇｅｍｅｎｔ株式会社,,株式会社,東京都,港区,芝浦２丁目９番１－３１２号,,13,103,1080023,,,,,,,2024-02-28,1,,,,,シンサリティキャピタルマネジメント,0
2034,9010401180654,新規,0,2024-02-28,2024-02-28,株式会社Ｓｔｒａｔｅｇｙ　Ｃｏｎｓｕｌｔｉｎｇ＆Ｐａｒｔｎｅｒｓ,,株式会社,東京都,港区,赤坂２丁目２１番４号４０５Ｃ,,13,103,1070052,,,,,,,2024-02-28,1,,,,,ストラテジーコンサルティングアンドパートナーズ,0
2038,9010405022992,新規,0,2024-02-28,2024-02-28,一般社団法人三田の家,,その他の設立登記法人,東京都,港区,白金台３丁目１２番３０－２０６号,,13,103,1080071,,,,,,,2024-02-28,1,,,,,ミタノイエ,0
2039,9010405023000,新規,0,2024-02-28,2024-02-28,ジャパン・アマギ特定目的会社,,その他の設立登記法人,東京都,港区,虎ノ門３丁目２２番１０－２０１号,,13,103,1050001,,,,,,,2024-02-28,1,,,,,ジャパンアマギ,0
2045,9010603010675,新規,0,2024-02-28,2024-02-28,ＮＡＮＨＵ合同会社,,合同会社,東京都,墨田区,京島１丁目４３番２号１－Ｂ室,,13,107,1310046,,,,,,,2024-02-28,1,,,,,ナンフウ,0
2057,9011001160303,新規,0,2024-02-28,2024-02-28,Ｍ＆Ｍ株式会社,,株式会社,東京都,渋谷区,恵比寿西２丁目８番４号ＥＸ恵比寿西ビル５階,,13,113,1500021,,,,,,,2024-02-28,1,,,,,エムアンドエム,0
2061,9011101106346,新規,0,2024-02-28,2024-02-28,株式会社ハートメディカル,,株式会社,東京都,新宿区,西新宿６丁目５番１号新宿アイランドタワー２階,,13,104,1600023,,,,,,,2024-02-28,1,,,,,ハートメディカル,0
2062,9011101106354,新規,0,2024-02-28,2024-02-28,株式会社コルウスエージェント,,株式会社,東京都,新宿区,高田馬場１丁目４番１５号大樹生命高田馬場ビル６階,,13,104,1690075,,,,,,,2024-02-28,1,,,,,コルウスエージェント,0
2064,9011103014150,新規,0,2024-02-28,2024-02-28,合同会社コーシュカワークス,,合同会社,東京都,新宿区,新宿２丁目１２番１３号新宿アントレサロンビル２階,,13,104,1600022,,,,,,,2024-02-28,1,,,,,コーシュカワークス,0
2066,9011501030369,新規,0,2024-02-28,2024-02-28,民友株式会社,,株式会社,東京都,荒川区,町屋３丁目１８番１２号ＮＤビル２０２,,13,118,1160001,,,,,,,2024-02-28,1,,,,,ミンユウ,0
2070,9011701027074,新規,0,2024-02-28,2024-02-28,株式会社Ｉ・Ｎ・Ｏ,,株式会社,東京都,江戸川区,東葛西８丁目７番４０号,,13,123,1340084,,,,,,,2024-02-28,1,,,,,アイエヌオー,0
2073,9012401041571,新規,0,2024-02-28,2024-02-28,アールエステート株式会社,,株式会社,東京都,三鷹市,深大寺２丁目４０番１７号,,13,204,1810016,,,,,,,2024-02-28,1,,,,,アールエステート,0
2080,9013301052130,新規,0,2024-02-28,2024-02-28,株式会社Ｗ　Ｓｏｌｕｔｉｏｎｓ,,株式会社,東京都,豊島区,上池袋３丁目３３番１５号,,13,116,1700012,,,,,,,2024-02-28,1,,,,,ダブルソリューションズ,0
2088,9020001155964,新規,0,2024-02-28,2024-02-28,株式会社かわさき整体院,,株式会社,神奈川県,川崎市川崎区,東田町４番地５伊野ビル２０１,,14,131,2100005,,,,,,,2024-02-28,1,,,,,カワサキセイタイイン,0
2089,9020001155972,新規,0,2024-02-28,2024-02-28,ササキフードアトリエ株式会社,,株式会社,神奈川県,横浜市瀬谷区,南瀬谷１丁目４１番地２１,,14,114,2460034,,,,,,,2024-02-28,1,,,,,ササキフードアトリエ,0
2094,9021001081572,新規,0,2024-02-28,2024-02-28,株式会社栄月会,,株式会社,神奈川県,平塚市,東八幡１丁目１８番２１号,,14,203,2540016,,,,,,,2024-02-28,1,,,,,エイゲツカイ,0
2097,9021003014191,新規,0,2024-02-28,2024-02-28,合同会社ワイトラスト,,合同会社,神奈川県,座間市,相武台２丁目１２番２６－８０４号,,14,216,2520011,,,,,,,2024-02-28,1,,,,,ワイトラスト,0
2098,9021003014200,新規,0,2024-02-28,2024-02-28,合同会社一久堂,,合同会社,神奈川県,藤沢市,鵠沼海岸５丁目８番７号,,14,205,2510037,,,,,,,2024-02-28,1,,,,,イッキュウドウ,0
2104,9030001158917,新規,0,2024-02-28,2024-02-28,株式会社Ｒｅｎｏ　Ｗａｒｍｔｈ,,株式会社,埼玉県,川越市,熊野町２番地５７,,11,201,3501146,,,,,,,2024-02-28,1,,,,,リノウォームス,0
2109,9030003023714,新規,0,2024-02-28,2024-02-28,クロスバレイ合同会社,,合同会社,埼玉県,越谷市,大字袋山１７１４番地７,,11,222,3430032,,,,,,,2024-02-28,1,,,,,クロスバレイ,0
2118,9040001132391,新規,0,2024-02-28,2024-02-28,Ｉｓｕｍｉｇｕｍｉ＆ＪＰ株式会社,,株式会社,千葉県,いすみ市,岬町江場土３６５８番地１ＮＡＧＩｓｏｔｏｂｏＲ１２８－１,,12,238,2994612,,,,,,,2024-02-28,1,,,,,イスミグミアンドジェイピーアンドテイカン,0
2119,9040001132409,新規,0,2024-02-28,2024-02-28,株式会社Ｃｒｅａｔｅ　ｕｐ,,株式会社,千葉県,柏市,亀甲台町２丁目１番８－２号,,12,217,2770031,,,,,,,2024-02-28,1,,,,,クリエイトアップ,0
2120,9040001132417,新規,0,2024-02-28,2024-02-28,株式会社アガタ企画,,株式会社,千葉県,茂原市,茂原１５９３番地３８ロイヤルヒルズ三貫野２０３,,12,210,2970026,,,,,,,2024-02-28,1,,,,,アガタキカク,0
2124,9040003024406,新規,0,2024-02-28,2024-02-28,合同会社ＲＹＵＳ,,合同会社,千葉県,流山市,青田１２２番地の２４,,12,220,2700112,,,,,,,2024-02-28,1,,,,,リューズ,0
2127,9050001054354,新規,0,2024-02-28,2024-02-28,株式会社ＣＯＮＮＥＣＴＩＯＮ,,株式会社,茨城県,神栖市,神栖２丁目１９番２５号,,08,232,3140143,,,,,,,2024-02-28,1,,,,,コネクション,0
2141,9090001018561,新規,0,2024-02-28,2024-02-28,株式会社富士ナルベリーラボ,,株式会社,山梨県,南都留郡鳴沢村,７６０番地,,19,429,4010320,,,,,,,2024-02-28,1,,,,,フジナルベリーラボ,0
2143,9090003002489,新規,0,2024-02-28,2024-02-28,合同会社ＴＡＳＡＩ,,合同会社,山梨県,富士吉田市,新町３丁目４ー７おぶね荘２０２,,19,202,4030019,,,,,,,2024-02-28,1,,,,,タサイ,0
2146,9100003007420,新規,0,2024-02-28,2024-02-28,コア合同会社,,合同会社,長野県,飯田市,大瀬木１２５２番地６,,20,205,3950157,,,,,,,2024-02-28,1,,,,,コア,0
2156,9120001262619,新規,0,2024-02-28,2024-02-28,エコアンド株式会社,,株式会社,大阪府,大阪市淀川区,西中島１丁目１０番４号－２０１,,27,123,5320011,,,,,,,2024-02-28,1,,,,,エコアンド,0
2157,9120001262684,新規,0,2024-02-28,2024-02-28,潤錦株式会社,,株式会社,大阪府,大阪市天王寺区,玉造元町１４番２号３Ｆ,,27,109,5430014,,,,,,,2024-02-28,1,,,,,ジュンキン,0
2158,9120001262692,新規,0,2024-02-28,2024-02-28,吉吉株式会社,,株式会社,大阪府,大阪市中央区,淡路町３丁目６番１２号３階３号室,,27,128,5410047,,,,,,,2024-02-28,1,,,,,キキ,0
2159,9120001262701,新規,0,2024-02-28,2024-02-28,株式会社ひらじょぶ広告,,株式会社,大阪府,大阪市平野区,長吉出戸４丁目３番４号,,27,126,5470011,,,,,,,2024-02-28,1,,,,,ヒラジョブコウコク,0
2160,9120001262734,新規,0,2024-02-28,2024-02-28,株式会社Ｒａｋｕｓｈｉｔｅ,,株式会社,大阪府,大阪市北区,梅田１丁目１－３大阪駅前第３ビル２９階１－１－１号室,,27,127,5300001,,,,,,,2024-02-28,1,,,,,ラクシテ,0
2161,9120003026047,新規,0,2024-02-28,2024-02-28,合同会社こはく,,合同会社,大阪府,大阪市東住吉区,鷹合２丁目１３番２０号,,27,121,5460014,,,,,,,2024-02-28,1,,,,,コハク,0
2164,9120901048803,新規,0,2024-02-28,2024-02-28,株式会社メディエーション,,株式会社,大阪府,豊中市,豊南町西５丁目５番１５号,,27,203,5610816,,,,,,,2024-02-28,1,,,,,メディエーション,0
2174,9140001133421,新規,0,2024-02-28,2024-02-28,ＦＡＭ株式会社,,株式会社,兵庫県,尼崎市,崇徳院２丁目１４２－２－１８,,28,202,6600071,,,,,,,2024-02-28,1,,,,,エフエーエム,0
2175,9140001133446,新規,0,2024-02-28,2024-02-28,Ｋ．ＴＲＡＤＥ株式会社,,株式会社,兵庫県,神戸市中央区,再度筋町３番１１号,,28,110,6500005,,,,,,,2024-02-28,1,,,,,ケイトレード,0
2176,9140001133470,新規,0,2024-02-28,2024-02-28,株式会社シェリル,,株式会社,兵庫県,神戸市中央区,下山手通３丁目１番１５号シェンビル４０１,,28,110,6500011,,,,,,,2024-02-28,1,,,,,シェリル,0
2177,9140001133487,新規,0,2024-02-28,2024-02-28,ひふみ株式会社,,株式会社,兵庫県,神戸市兵庫区,楠谷町１４番６号,,28,105,6520004,,,,,,,2024-02-28,1,,,,,ヒフミ,0
2178,9140001133504,新規,0,2024-02-28,2024-02-28,株式会社Ｓｌｏｔｈ,,株式会社,兵庫県,三田市,友が丘１丁目１２－９,,28,219,6691516,,,,,,,2024-02-28,1,,,,,スロース,0
2180,9140003020205,新規,0,2024-02-28,2024-02-28,合同会社エスコートランナー,,合同会社,兵庫県,神戸市垂水区,桃山台２丁目１１８８番地の４１,,28,108,6550854,,,,,,,2024-02-28,1,,,,,エスコートランナー,0
2181,9140003020213,新規,0,2024-02-28,2024-02-28,合同会社エコファーム日指,,合同会社,兵庫県,姫路市,広畑区則直２２番５,,28,201,6711105,,,,,,,2024-02-28,1,,,,,エコファームヒサシ,0
2183,9160003003125,新規,0,2024-02-28,2024-02-28,合同会社ＳＯＣＯ＆ＪＯＪＯ,,合同会社,滋賀県,大津市,堅田１丁目６番５１号,,25,201,5200243,,,,,,,2024-02-28,1,,,,,ソコアンドジョジョ,0
2195,9180001160271,新規,0,2024-02-28,2024-02-28,株式会社ＡｃｔＡｒｉｓｅ,,株式会社,愛知県,名古屋市緑区,大高町字己新田１６５番地の２レインボー大高７０３号,,23,114,4598001,,,,,,,2024-02-28,1,,,,,アクタライズ,0
2196,9180001160321,新規,0,2024-02-28,2024-02-28,株式会社忠栄設備,,株式会社,愛知県,春日井市,六軒屋町３丁目１１９番地１,,23,206,4860842,,,,,,,2024-02-28,1,,,,,チュウエイセツビ,0
2202,9180301038358,新規,0,2024-02-28,2024-02-28,株式会社ミナト・トラスト,,株式会社,愛知県,刈谷市,野田新町２丁目５１４番地シャトレーステーション野田新町３０１号,,23,210,4480862,,,,,,,2024-02-28,1,,,,,ミナトトラスト,0
2218,9290001104779,新規,0,2024-02-28,2024-02-28,ＣＫＳ商事株式会社,,株式会社,福岡県,福岡市博多区,博多駅中央街５－１１,,40,132,8120012,,,,,,,2024-02-28,1,,,,,シーケイエスショウジ,0
2219,9290001104787,新規,0,2024-02-28,2024-02-28,株式会社ＴＯＬＥＲＯ　ｂｉｏ,,株式会社,福岡県,久留米市,百年公園１番１号,,40,203,8390864,,,,,,,2024-02-28,1,,,,,トレロバイオ,0
2220,9290001104812,新規,0,2024-02-28,2024-02-28,株式会社ＫＹＭ　ＤＥＳＩＧＮ　ＯＦＦＩＣＥ,,株式会社,福岡県,福岡市南区,的場１丁目９番２１－２０２号,,40,134,8111314,,,,,,,2024-02-28,1,,,,,ケイワイエムデザインオフィス,0
2232,9310005008742,新規,0,2024-02-28,2024-02-28,ＮＰＯ法人学童保育まきのきクラブ,,その他の設立登記法人,長崎県,西彼杵郡長与町,嬉里郷４６０番地２,,42,307,8512128,,,,,,,2024-02-28,1,,,,,ガクドウホイクマキノキクラブ,0
2234,9330001031787,新規,0,2024-02-28,2024-02-28,株式会社九州・システム開発．,,株式会社,熊本県,熊本市東区,渡鹿９丁目２番４０号,,43,102,8620970,,,,,,,2024-02-28,1,,,,,キュウシュウシステムカイハツ,0
2235,9340001026316,新規,0,2024-02-28,2024-02-28,株式会社Ａｃｔ　Ｏｎｅ,,株式会社,鹿児島県,鹿児島市,与次郎２丁目３番３８号,,46,201,8900062,,,,,,,2024-02-28,1,,,,,アクトワン,0
2237,9350001018808,新規,0,2024-02-28,2024-02-28,株式会社ＨＡＳ　ＫＥＹ,,株式会社,宮崎県,宮崎市,船塚３丁目１１番地１,,45,201,8800031,,,,,,,2024-02-28,1,,,,,ハズキー,0
2239,9360001033236,新規,0,2024-02-28,2024-02-28,株式会社ドリームファーム,,株式会社,沖縄県,石垣市,字真栄里３０７番地１,,47,207,9070002,,,,,,,2024-02-28,1,,,,,ドリームファーム,0
2250,9430001091144,新規,0,2024-02-28,2024-02-28,中央バス観光株式会社,,株式会社,北海道,小樽市,最上２丁目１６番１５号,,01,203,0470023,,,,,,,2024-02-28,1,,,,,チュウオウバスカンコウ,0
2254,9430003016000,新規,0,2024-02-28,2024-02-28,合同会社ｇｏｃｃｏ,,合同会社,北海道,札幌市北区,北十四条西２丁目２－１４－３０３,,01,102,0010014,,,,,,,2024-02-28,1,,,,,ゴッコ,0
2257,9450005004397,新規,0,2024-02-28,2024-02-28,一般社団法人ローカル・スタートアップ協会,,その他の設立登記法人,北海道,上川郡上川町,南町１０３３番地２,,01,457,0781753,,,,,,,2024-02-28,1,,,,,ローカルスタートアップキョウカイ,0
2268,9500003003189,新規,0,2024-02-28,2024-02-28,合同会社山兼サービス,,合同会社,愛媛県,西予市,宇和町卯之町１丁目５６４番地,,38,214,7970015,,,,,,,2024-02-28,1,,,,,ヤマケンサービス,0
