sequenceNumber,corporateNumber,process,correct,updateDate,changeDate,name,nameImageId,kind,prefectureName,cityName,streetNumber,addressImageId,prefectureCode,cityCode,postCode,addressOutside,addressOutsideImageId,closeDate,closeCause,successorCorporateNumber,changeCause,assignmentDate,latest,enName,enPrefectureName,enCityName,enAddressOutside,furigana,hihyoji
6,1010001148497,登記記録の閉鎖等,0,2024-02-20,2024-02-13,株式会社Ｅ－ＭＥＴＡＬ,,株式会社,東京都,文京区,白山５丁目２７番２５号,,13,105,1120001,,,2024-02-13,清算の結了等,,,2015-10-05,1,,,,,イーメタル,0
19,1010401011429,登記記録の閉鎖等,0,2024-02-20,2024-02-13,佐藤繊維交易株式会社,,株式会社,東京都,港区,芝５丁目２４番１０号,,13,103,1080014,,,2024-02-13,清算の結了等,,,2015-10-05,1,,,,,サトウセンイコウエキ,0
28,1010402012252,登記記録の閉鎖等,0,2024-02-20,2024-02-14,有限会社マル,,有限会社,東京都,港区,麻布台１丁目１番２０－４０３号,,13,103,1060041,,,2024-02-14,清算の結了等,,,2015-10-05,1,,,,,マル,0
60,1011101099960,登記記録の閉鎖等,0,2024-02-20,2024-02-19,株式会社ライズ,,株式会社,東京都,新宿区,西新宿３丁目３番１３号西新宿水間ビル６階,,13,104,1600023,,,2024-02-19,清算の結了等,,,2022-08-26,1,,,,,ライズ,0
74,1011702012504,登記記録の閉鎖等,0,2024-02-20,2024-02-15,有限会社リージェイムスアンドジュエリージャパン,,有限会社,東京都,江戸川区,平井５丁目２１番３号ガーデン欣志ビル８０３号,,13,123,1320035,,,2024-02-15,清算の結了等,,,2015-10-05,1,,,,,リージェイムスアンドジュエリージャパン,0
76,1013301039688,登記記録の閉鎖等,0,2024-02-20,2024-02-07,株式会社おいしいにっぽん,,株式会社,東京都,豊島区,東池袋１丁目８番１号,,13,116,1700013,,,2024-02-07,合併による解散等,8013301021425,令和６年２月１日東京都豊島区東池袋一丁目８番１号栄真株式会社（8013301021425）に合併し解散,2016-11-16,1,,,,,オイシイニッポン,0
79,1020001068389,登記記録の閉鎖等,0,2024-02-20,2024-02-16,株式会社ヒサヨシ,,株式会社,神奈川県,川崎市宮前区,水沢１丁目１番１号,,14,136,2160012,,,2024-02-16,清算の結了等,,,2015-10-05,1,,,,,ヒサヨシ,0
90,1021001034802,登記記録の閉鎖等,0,2024-02-20,2024-02-19,株式会社親和運輸,,株式会社,神奈川県,南足柄市,竹松８３４番地,,14,217,2500111,,,2024-02-19,清算の結了等,,,2015-10-05,1,,,,,,0
93,1021002028076,登記記録の閉鎖等,0,2024-02-20,2024-02-19,有限会社麻溝台サービス,,有限会社,神奈川県,相模原市南区,麻溝台３０８３番地１,,14,153,2520328,,,2024-02-19,清算の結了等,,,2015-10-05,1,,,,,アサミゾダイサービス,0
95,1021005009742,登記記録の閉鎖等,0,2024-02-20,2024-02-13,ＮＰＯ法人放課後等デイサービスいちごクラブ,,その他の設立登記法人,神奈川県,中郡二宮町,緑が丘３丁目４番地の１１,,14,342,2590132,,,2024-02-13,清算の結了等,,,2015-10-05,1,,,,,ホウカゴトウデイサービスイチゴクラブ,0
114,1080101019666,登記記録の閉鎖等,0,2024-02-20,2024-02-16,株式会社ＳＳアリマン,,株式会社,静岡県,三島市,松本２６６番地の１,,22,206,4110822,,,2024-02-16,清算の結了等,,,2017-03-10,1,,,,,エスエスアリマン,0
115,1080105005068,登記記録の閉鎖等,0,2024-02-20,2024-02-09,一般社団法人伊豆ヘルス・ケア入居者基金,,その他の設立登記法人,静岡県,賀茂郡東伊豆町,奈良本１４０５番地,,22,301,4130302,,,2024-02-09,清算の結了等,,,2015-10-05,1,,,,,イズヘルスケアニュウキョシャキキン,0
123,1110002011512,登記記録の閉鎖等,0,2024-02-20,2024-02-15,有限会社ディーフロウ,,有限会社,新潟県,新潟市西区,大友６１４番地子,,15,107,9502126,,,2024-02-15,清算の結了等,,,2015-10-05,1,,,,,ディーフロウ,0
130,1120001163691,登記記録の閉鎖等,0,2024-02-20,2024-02-14,リジエルイノベーション株式会社,,株式会社,大阪府,大阪市西区,立売堀１丁目２番１２号,,27,106,5500012,,,2024-02-14,清算の結了等,,,2015-10-05,1,,,,,リジエルイノベーション,0
143,1130001008292,登記記録の閉鎖等,0,2024-02-20,2024-02-15,株式会社シンク,,株式会社,京都府,京都市西京区,下津林佃５番地の１８,,26,111,6158055,,,2024-02-15,清算の結了等,,,2015-10-05,1,,,,,シンク,0
148,1140001080927,登記記録の閉鎖等,0,2024-02-20,2024-02-14,株式会社アクシス・テクノロジー,,株式会社,兵庫県,伊丹市,池尻２丁目３４８番地１サンプリンス武庫川３０５号,,28,207,6640027,,,2024-02-14,清算の結了等,,,2015-10-05,1,,,,,アクシステクノロジー,0
161,1160001019766,登記記録の閉鎖等,0,2024-02-20,2024-02-19,株式会社ＥＥＬａｂ,,株式会社,滋賀県,彦根市,野良田町３４０番地８（４１１号）,,25,202,5211124,,,2024-02-19,清算の結了等,,,2016-10-07,1,,,,,,0
164,1180001094717,登記記録の閉鎖等,0,2024-02-20,2024-02-15,株式会社杉工業,,株式会社,愛知県,知多市,岡田字野崎６９番地の８,,23,224,4780021,,,2024-02-15,清算の結了等,,,2015-10-05,1,,,,,スギコウギョウ,0
174,1180002021307,登記記録の閉鎖等,0,2024-02-20,2024-02-13,有限会社川田薬局,,有限会社,愛知県,名古屋市天白区,平針南１丁目２０６番地,,23,116,4680020,,,2024-02-13,清算の結了等,,,2015-10-05,1,,,,,カワタヤッキョク,0
175,1180002026124,登記記録の閉鎖等,0,2024-02-20,2024-02-15,有限会社寺島商事,,有限会社,愛知県,名古屋市緑区,鳴海町字作町１０番地,,23,114,4580801,,,2024-02-15,清算の結了等,,,2015-10-05,1,,,,,テラシマショウジ,0
176,1180002081978,登記記録の閉鎖等,0,2024-02-20,2024-02-13,有限会社センリュウ,,有限会社,愛知県,江南市,古知野町北屋敷１１８番地１,,23,217,4838272,,,2024-02-13,清算の結了等,,,2015-10-05,1,,,,,センリュウ,0
184,1220002003969,登記記録の閉鎖等,0,2024-02-20,2024-02-15,有限会社テクノクラフト,,有限会社,石川県,金沢市,西金沢５丁目３１６番地,,17,201,9218054,,,2024-02-15,清算の結了等,,,2015-10-05,1,,,,,テクノクラフト,0
189,1240002003868,登記記録の閉鎖等,0,2024-02-20,2024-02-16,有限会社片岡錺工店,,有限会社,広島県,広島市東区,牛田本町３丁目３番１号,,34,102,7320066,,,2024-02-16,清算の結了等,,,2015-10-05,1,,,,,カタオカホウコウテン,0
194,1260003003840,登記記録の閉鎖等,0,2024-02-20,2024-02-19,合同会社大日本電力,,合同会社,岡山県,岡山市北区,佐山２１０４－１０,,33,101,7011205,,,2024-02-19,清算の結了等,,,2022-03-10,1,,,,,ダイニッポンデンリョク,0
214,1402701000344,登記記録の閉鎖等,0,2024-02-20,2024-01-16,常陽瓦工業株式会社,,株式会社,岩手県,大船渡市,猪川町字前田１２番地１４,,03,203,0220004,,,2024-01-16,清算の結了等,,,2015-10-05,1,,,,,ジョウヨウカワラコウギョウ,0
232,1500001004782,登記記録の閉鎖等,0,2024-02-20,2024-02-19,橋本建工株式会社,,株式会社,愛媛県,伊予市,中村３９８番地,,38,210,7993123,,,2024-02-19,清算の結了等,,,2015-10-05,1,,,,,ハシモトケンコウ,0
246,2010001234552,登記記録の閉鎖等,0,2024-02-20,2024-02-08,株式会社サーティースリーデジタル,,株式会社,東京都,千代田区,麹町６丁目６番地２番町麹町ビルディング５Ｆ,,13,101,1020083,,,2024-02-08,清算の結了等,,,2023-04-14,1,,,,,サーティースリーデジタル,0
251,2010002031008,登記記録の閉鎖等,0,2024-02-20,2024-02-14,有限会社ティーズコーポレーション,,有限会社,東京都,中央区,佃１丁目１１－３－６１０号,,13,102,1040051,,,2024-02-14,清算の結了等,,,2015-10-05,1,,,,,ティーズコーポレーション,0
255,2010102008285,登記記録の閉鎖等,0,2024-02-20,2024-02-15,有限会社タクラ電業,,有限会社,東京都,八王子市,絹ケ丘２丁目１番３号,,13,201,1920912,,,2024-02-15,清算の結了等,,,2015-10-05,1,,,,,タクラデンギョウ,0
287,2011003009521,登記記録の閉鎖等,0,2024-02-20,2024-02-13,合同会社春名,,合同会社,東京都,渋谷区,初台２丁目４‐２０シャルム初台２１１,,13,113,1510061,,,2024-02-13,清算の結了等,,,2019-01-04,1,,,,,ハルナ,0
291,2011101094218,登記記録の閉鎖等,0,2024-02-20,2024-02-09,株式会社たしなみ,,株式会社,東京都,新宿区,西落合４丁目１７番１４号,,13,104,1610031,,,2024-02-09,清算の結了等,,,2021-02-25,1,,,,,タシナミ,0
310,2020001047565,登記記録の閉鎖等,0,2024-02-20,2024-02-15,株式会社Ｆｕｔｕｒｅ,,株式会社,神奈川県,横浜市南区,南吉田町３丁目３６番エナジー吉野町９０２号,,14,105,2320012,,,2024-02-15,清算の結了等,,,2015-10-05,1,,,,,,0
321,2020002005002,登記記録の閉鎖等,0,2024-02-20,2024-02-16,有限会社ミヒロ工務店,,有限会社,神奈川県,横浜市緑区,長津田町３１６７番地,,14,113,2260026,,,2024-02-16,清算の結了等,,,2015-10-05,1,,,,,ミヒロコウムテン,0
322,2020002035809,登記記録の閉鎖等,0,2024-02-20,2024-02-14,有限会社ほろにっくぱす,,有限会社,神奈川県,横浜市港北区,菊名６丁目１９番９号,,14,109,2220011,,,2024-02-14,清算の結了等,,,2015-10-05,1,,,,,ホロニックパス,0
330,2021001062513,登記記録の閉鎖等,0,2024-02-20,2024-02-07,株式会社ＨＳ未来,,株式会社,東京都,町田市,小山ヶ丘４丁目１－１３－５０６,,13,209,1940215,,,2024-02-07,清算の結了等,,,2017-07-05,1,,,,,エイチエスミライ,0
336,2021002028868,登記記録の閉鎖等,0,2024-02-20,2024-02-16,有限会社けんこう,,有限会社,神奈川県,相模原市緑区,太井８３０番地５,,14,151,2520152,,,2024-02-16,清算の結了等,,,2015-10-05,1,,,,,ケンコウ,0
362,2050001033653,登記記録の閉鎖等,0,2024-02-20,2024-02-15,ＡＭマイスター株式会社,,株式会社,茨城県,取手市,白山５丁目１３番５－７０２号,,08,217,3020023,,,2024-02-15,清算の結了等,,,2015-10-05,1,,,,,エーエムマイスター,0
367,2050002013092,登記記録の閉鎖等,0,2024-02-20,2024-02-14,有限会社野口冷凍設備製作所,,有限会社,茨城県,かすみがうら市,西成井１９３０番地１２,,08,230,3000122,,,2024-02-14,清算の結了等,,,2015-10-05,1,,,,,ノグチレイトウセツビセイサクショ,0
377,2080002016407,登記記録の閉鎖等,0,2024-02-20,2024-02-16,有限会社ヤマダ製作所,,有限会社,静岡県,焼津市,石津２２４８番地の１,,22,212,4250041,,,2024-02-16,清算の結了等,,,2015-10-05,1,,,,,ヤマダセイサクジョ,0
386,2120001171677,登記記録の閉鎖等,0,2024-02-20,2024-02-19,株式会社Ｕｎｉｖｅｒｓａｌ　Ｔｒａｄｅ　Ｊａｐａｎ,,株式会社,滋賀県,彦根市,錦町９番１２号,,25,202,5220089,,,2024-02-19,清算の結了等,,,2015-10-05,1,,,,,ユニバーサルトレードジャパン,0
408,2140002016887,登記記録の閉鎖等,0,2024-02-20,2024-02-19,有限会社イトウ工房,,有限会社,兵庫県,神戸市兵庫区,駅前通５丁目１番１号,,28,105,6520898,,,2024-02-19,清算の結了等,,,2015-10-05,1,,,,,イトウコウボウ,0
409,2140002035631,登記記録の閉鎖等,0,2024-02-20,2024-02-13,有限会社クリヤマ自動車販売,,有限会社,兵庫県,加古川市,米田町平津２７番地の２,,28,210,6750054,,,2024-02-13,清算の結了等,,,2015-10-05,1,,,,,クリヤマジドウシャハンバイ,0
417,2180001021967,登記記録の閉鎖等,0,2024-02-20,2024-02-16,株式会社シンク,,株式会社,愛知県,名古屋市熱田区,大瀬子町１１０３番地,,23,109,4560045,,,2024-02-16,清算の結了等,,,2015-10-05,1,,,,,シンク,0
427,2180005016740,登記記録の閉鎖等,0,2024-02-20,2024-02-15,一般社団法人Ｇ・Ｆ・Ｖ・Ｃ,,その他の設立登記法人,愛知県,東海市,大田町城山１５番地の１,,23,222,4770031,,,2024-02-15,清算の結了等,,,2016-04-15,1,,,,,ジーエフブイシー,0
429,2180301001719,登記記録の閉鎖等,0,2024-02-20,2024-01-30,東海スリーボンド株式会社,,株式会社,愛知県,岡崎市,柱４丁目３番地２,,23,202,4440837,,,2024-01-30,合併による解散等,8180001024064,令和６年１月１日名古屋市天白区井口一丁目５０１番地名古屋スリーボンド株式会社（8180001024064）に合併し解散,2015-10-05,1,,,,,トウカイスリーボンド,0
440,2220001006385,登記記録の閉鎖等,0,2024-02-20,2024-02-16,株式会社北陸通商,,株式会社,石川県,金沢市,松島２丁目１５７番地,,17,201,9200364,,,2024-02-16,清算の結了等,,,2015-10-05,1,,,,,ホクリクツウショウ,0
448,2240005004573,登記記録の閉鎖等,0,2024-02-20,2024-02-09,特定非営利活動法人中山間地域まちづくり研究所,,その他の設立登記法人,広島県,山県郡北広島町,壬生４５２番地２６,,34,369,7311515,,,2024-02-09,清算の結了等,,,2015-10-05,1,,,,,チュウサンカンチイキ,0
451,2260002015877,登記記録の閉鎖等,0,2024-02-20,2024-02-19,有限会社山城ミーリング工業,,有限会社,岡山県,岡山市北区,白石１８５番地２,,33,101,7010143,,,2024-02-19,清算の結了等,,,2015-10-05,1,,,,,ヤマシロミーリングコウギョウ,0
455,2270002001397,登記記録の閉鎖等,0,2024-02-20,2024-02-19,有限会社豊栄工務店,,有限会社,鳥取県,鳥取市,下味野３００番地３,,31,201,6801165,,,2024-02-19,清算の結了等,,,2015-10-05,1,,,,,ホウエイコウムテン,0
456,2280001007254,登記記録の閉鎖等,0,2024-02-20,2024-02-19,株式会社ポインテリア,,株式会社,島根県,松江市,竹矢町６９８,,32,201,6900023,,,2024-02-19,清算の結了等,,,2016-07-05,1,,,,,ポインテリア,0
480,2320005009548,登記記録の閉鎖等,0,2024-02-20,2024-02-16,一般社団法人動物愛護協会エーライツ,,その他の設立登記法人,大分県,大分市,新栄町１番２６号,,44,201,8700919,,,2024-02-16,清算の結了等,,,2017-11-28,1,,,,,,0
482,2330002012941,登記記録の閉鎖等,0,2024-02-20,2024-02-15,有限会社シンエイリフォーム,,有限会社,熊本県,熊本市南区,南高江６丁目１４番４７号,,43,104,8614106,,,2024-02-15,清算の結了等,,,2015-10-05,1,,,,,シンエイリフォーム,0
487,2370002012830,登記記録の閉鎖等,0,2024-02-20,2024-02-15,有限会社はちまん商事,,有限会社,宮城県,仙台市青葉区,八幡２丁目４番３０号,,04,101,9800871,,,2024-02-15,清算の結了等,,,2015-10-05,1,,,,,ハチマンショウジ,0
503,2400602000322,登記記録の閉鎖等,0,2024-02-20,2024-02-02,有限会社三共商事,,有限会社,岩手県,奥州市,水沢花園町２丁目５番２号,,03,215,0230829,,,2024-02-02,清算の結了等,,,2015-10-05,1,,,,,,0
504,2410001012488,登記記録の閉鎖等,0,2024-02-20,2024-02-14,株式会社ハレタス田沢湖,,株式会社,秋田県,仙北市,田沢湖生保内字武蔵野１１５番地,,05,215,0141201,,,2024-02-14,清算の結了等,,,2020-05-08,1,,,,,ハレタスタザワコ,0
521,3010001140428,登記記録の閉鎖等,0,2024-02-20,2024-02-13,サンフラワー食品株式会社,,株式会社,東京都,文京区,千石４丁目４３番２号,,13,105,1120011,,,2024-02-13,清算の結了等,,,2015-10-05,1,,,,,サンフラワーショクヒン,0
522,3010001148116,登記記録の閉鎖等,0,2024-02-20,2024-02-14,株式会社アトスメディカルジャパン,,株式会社,東京都,中央区,新川１丁目３番１７号新川三幸ビル２階,,13,102,1040033,,,2024-02-14,合併による解散等,1010001103790,令和６年２月１日東京都千代田区九段南二丁目１番３０号コロプラスト株式会社（1010001103790）に合併し解散,2015-10-05,1,,,,,アトスメディカルジャパン,0
525,3010002026345,登記記録の閉鎖等,0,2024-02-20,2024-02-14,有限会社ランダムハウス,,有限会社,東京都,中央区,明石町５番地１３,,13,102,1040044,,,2024-02-14,清算の結了等,,,2015-10-05,1,,,,,ランダムハウス,0
529,3010401016954,登記記録の閉鎖等,0,2024-02-20,2024-02-13,株式会社タカセ,,株式会社,東京都,港区,赤坂９丁目１番７号,,13,103,1070052,,,2024-02-13,清算の結了等,,,2023-10-16,1,,,,,,0
587,3020001068296,登記記録の閉鎖等,0,2024-02-20,2024-02-16,株式会社西久,,株式会社,神奈川県,川崎市宮前区,水沢１丁目１番１号,,14,136,2160012,,,2024-02-16,清算の結了等,,,2015-10-05,1,,,,,ニシキュウ,0
595,3020002011263,登記記録の閉鎖等,0,2024-02-20,2024-02-15,有限会社魚一,,有限会社,神奈川県,横浜市戸塚区,舞岡町９７番地,,14,110,2440813,,,2024-02-15,清算の結了等,,,2015-10-05,1,,,,,ウオイチ,0
597,3020002044296,登記記録の閉鎖等,0,2024-02-20,2024-02-14,有限会社ハタケヤマ,,有限会社,神奈川県,横浜市中区,本牧満坂１４６番地,,14,104,2310833,,,2024-02-14,清算の結了等,,,2015-10-05,1,,,,,ハタケヤマ,0
638,3080001011762,登記記録の閉鎖等,0,2024-02-20,2024-02-16,株式会社ＡＫＥＲＵ不動産,,株式会社,静岡県,静岡市清水区,高橋４丁目１７番１３号立花ビル２階,,22,103,4240041,,,2024-02-16,清算の結了等,,,2015-10-05,1,,,,,アケルフドウサン,0
646,3120001242592,登記記録の閉鎖等,0,2024-02-20,2024-02-06,陽明株式会社,,株式会社,大阪府,大阪市阿倍野区,相生通２丁目７番５－１０３号,,27,119,5450033,,,2024-02-06,清算の結了等,,,2021-12-20,1,,,,,,0
658,3120101033529,登記記録の閉鎖等,0,2024-02-20,2024-02-16,駅前無線株式会社,,株式会社,大阪府,河内長野市,千代田南町２番２０号,,27,216,5860018,,,2024-02-16,清算の結了等,,,2015-10-05,1,,,,,エキマエムセン,0
668,3122001026983,登記記録の閉鎖等,0,2024-02-20,2024-02-14,スクエアエス株式会社,,株式会社,大阪府,柏原市,本郷４丁目７０番地の６,,27,221,5820001,,,2024-02-14,合併による解散等,6122001020918,令和６年２月１４日大阪府柏原市上市二丁目２番１１号近藤タオル株式会社（6122001020918）に合併し解散,2015-10-05,1,,,,,スクエアエス,0
671,3140001053121,登記記録の閉鎖等,0,2024-02-20,2024-02-14,日新荷役作業株式会社,,株式会社,兵庫県,尼崎市,東塚口町２丁目４番６５号,,28,202,6610011,,,2024-02-14,清算の結了等,,,2015-10-05,1,,,,,ニッシンニヤクサギョウ,0
682,3180001151499,登記記録の閉鎖等,0,2024-02-20,2024-02-14,株式会社桜マーケット,,株式会社,愛知県,名古屋市瑞穂区,駒場町７丁目１３番,,23,108,4670807,,,2024-02-14,清算の結了等,,,2022-05-31,1,,,,,サクラマーケット,0
689,3180302024511,登記記録の閉鎖等,0,2024-02-20,2024-02-13,有限会社鈴木工業,,有限会社,愛知県,豊田市,足助町西町７番地,,23,211,4442424,,,2024-02-13,清算の結了等,,,2015-10-05,1,,,,,,0
719,3290801018894,登記記録の閉鎖等,0,2024-02-20,2024-02-16,株式会社橋口工務店,,株式会社,福岡県,北九州市小倉南区,下貫２丁目１０番３７号,,40,107,8000236,,,2024-02-16,清算の結了等,,,2015-10-05,1,,,,,ハシグチコウムテン,0
720,3320005009571,登記記録の閉鎖等,0,2024-02-20,2024-02-16,一般社団法人在宅医療ネットワーク,,その他の設立登記法人,大分県,大分市,新栄町１番２６号,,44,201,8700919,,,2024-02-16,清算の結了等,,,2018-03-19,1,,,,,ザイタクイリョウネットワーク,0
724,3340002024778,登記記録の閉鎖等,0,2024-02-20,2024-02-19,有限会社アトム電器ハタイ店,,有限会社,鹿児島県,鹿屋市,新川町２０９番地２,,46,203,8930015,,,2024-02-19,清算の結了等,,,2015-10-05,1,,,,,,0
748,3480001000320,登記記録の閉鎖等,0,2024-02-20,2024-02-19,ヱビス通信工業株式会社,,株式会社,徳島県,徳島市,秋田町３丁目１７番地１,,36,201,7700934,,,2024-02-19,清算の結了等,,,2015-10-05,1,,,,,エビスツウシンコウギョウ,0
754,4010001099201,登記記録の閉鎖等,0,2024-02-20,2024-02-15,株式会社ＥＳＥ,,株式会社,東京都,中央区,銀座６丁目６番１号銀座風月堂ビル５Ｆ,,13,102,1040061,,,2024-02-15,清算の結了等,,,2015-10-05,1,,,,,イーエスイー,0
761,4010001229212,登記記録の閉鎖等,0,2024-02-20,2024-02-14,ＡＸＡ　Ｐｒｉｍｅ　Ｓｅｒｖｉｃｅｓ株式会社,,株式会社,東京都,千代田区,大手町１丁目５番１号大手町ファーストスクエアイーストタワー４階,,13,101,1000004,,,2024-02-14,清算の結了等,,,2022-09-13,1,,,,,エーエックスエープライムサービシーズ,0
784,4010901035420,登記記録の閉鎖等,0,2024-02-20,2024-02-14,株式会社八百万ＩＮＧカンパニー,,株式会社,東京都,小金井市,中町２丁目１番１８号,,13,210,1840012,,,2024-02-14,清算の結了等,,,2015-10-05,1,,,,,ヤオヨロジングカンパニー,0
817,4020001038612,登記記録の閉鎖等,0,2024-02-20,2024-02-15,アイ・ポップ・ジェイ株式会社,,株式会社,神奈川県,横浜市港北区,新吉田東２丁目３番１－８１０号,,14,109,2230058,,,2024-02-15,清算の結了等,,,2015-10-05,1,,,,,アイポップジェイ,0
818,4020001057067,登記記録の閉鎖等,0,2024-02-20,2024-02-16,港北ネットワークサービス株式会社,,株式会社,神奈川県,横浜市港北区,高田西３丁目２２番８号,,14,109,2230066,,,2024-02-16,清算の結了等,,,2015-10-05,1,,,,,コウホクネットワークサービス,0
845,4050002037635,登記記録の閉鎖等,0,2024-02-20,2024-02-15,有限会社グレイン,,有限会社,茨城県,牛久市,栄町４丁目１９３番地,,08,219,3001233,,,2024-02-15,清算の結了等,,,2015-10-05,1,,,,,グレイン,0
863,4120101037900,登記記録の閉鎖等,0,2024-02-20,2024-02-19,株式会社ワールド,,株式会社,大阪府,岸和田市,岡山町４８４番地,,27,202,5960814,,,2024-02-19,清算の結了等,,,2015-10-05,1,,,,,ワールド,0
875,4130002014361,登記記録の閉鎖等,0,2024-02-20,2024-02-15,有限会社辻螺子製作所,,有限会社,京都府,京都市伏見区,深草坊町４２番地,,26,109,6120871,,,2024-02-15,清算の結了等,,,2015-10-05,1,,,,,ツジラシセイサクショ,0
884,4160001022156,登記記録の閉鎖等,0,2024-02-20,2024-02-19,アルティス株式会社,,株式会社,滋賀県,彦根市,大藪町２０３４番地３,,25,202,5220053,,,2024-02-19,清算の結了等,,,2019-12-19,1,,,,,アルティス,0
888,4180001039256,登記記録の閉鎖等,0,2024-02-20,2024-02-09,鳴河株式会社,,株式会社,愛知県,名古屋市中区,錦２丁目７番８号,,23,106,4600003,,,2024-02-09,清算の結了等,,,2017-10-31,1,,,,,ナルカワ,0
889,4180001119066,登記記録の閉鎖等,0,2024-02-20,2024-02-13,株式会社エヌコンサルタント,,株式会社,愛知県,知多郡東浦町,大字森岡字高峯３番地の１６,,23,442,4702101,,,2024-02-13,清算の結了等,,,2015-10-05,1,,,,,エヌコンサルタント,0
900,4180305009392,登記記録の閉鎖等,0,2024-02-20,2024-02-13,司法書士法人かわすみ事務所,,その他の設立登記法人,愛知県,豊橋市,向山町字伝馬５番地１,,23,201,4400864,,,2024-02-13,清算の結了等,,,2022-09-29,1,,,,,カワスミジムショ,0
901,4190001008417,登記記録の閉鎖等,0,2024-02-20,2024-02-19,尾崎建設株式会社,,株式会社,三重県,伊賀市,寺田４０１番地,,24,216,5180004,,,2024-02-19,清算の結了等,,,2015-10-05,1,,,,,,0
902,4200002021771,登記記録の閉鎖等,0,2024-02-20,2024-02-16,有限会社山千陶器,,有限会社,岐阜県,土岐市,泉町大富２５３番地の１,,21,212,5095132,,,2024-02-16,清算の結了等,,,2015-10-05,1,,,,,ヤマセントウキ,0
917,4260001022633,登記記録の閉鎖等,0,2024-02-20,2024-02-14,株式会社さざなみＵｄｏｎ,,株式会社,岡山県,岡山市南区,新保１０１５番地１２,,33,104,7000945,,,2024-02-14,清算の結了等,,,2015-10-05,1,,,,,サザナミウドン,0
918,4260001027104,登記記録の閉鎖等,0,2024-02-20,2024-02-14,株式会社クレア,,株式会社,岡山県,倉敷市,吉岡１７４－２,,33,202,7100842,,,2024-02-14,合併による解散等,3330001007677,令和６年１月１日熊本市南区流通団地一丁目４６番地株式会社ビューティ花壇西日本（3330001007677）に合併し解散,2015-10-05,1,,,,,クレア,0
921,4260002014068,登記記録の閉鎖等,0,2024-02-20,2024-02-19,有限会社あくら会計事務所,,有限会社,岡山県,岡山市北区,桑田町９番１４号,,33,101,7000984,,,2024-02-19,清算の結了等,,,2015-10-05,1,,,,,アクラカイケイジムショ,0
936,4290005009541,登記記録の閉鎖等,0,2024-02-20,2024-02-14,久留米菓子協同組合,,その他の設立登記法人,福岡県,久留米市,東町３４番地５０,,40,203,8300032,,,2024-02-14,清算の結了等,,,2015-10-05,1,,,,,クルメカシ,0
952,4380001033825,登記記録の閉鎖等,0,2024-02-20,2024-02-15,株式会社ＷＥ,,株式会社,福島県,会津若松市,大戸町大字芦ノ牧字下平９８４番地,,07,202,9650000,,,2024-02-15,合併による解散等,7380001017305,令和６年２月１５日福島県会津若松市大戸町大字芦ノ牧字下平９８４番地株式会社大川荘（7380001017305）に合併し解散,2023-07-05,1,,,,,ダブルイー,0
956,4420002009613,登記記録の閉鎖等,0,2024-02-20,2024-02-16,有限会社五戸温泉,,有限会社,青森県,三戸郡五戸町,字筒口川原８番地２,,02,442,0391552,,,2024-02-16,清算の結了等,,,2015-10-05,1,,,,,ゴノヘオンセン,0
957,4420002015776,登記記録の閉鎖等,0,2024-02-20,2024-02-14,有限会社盛市,,有限会社,青森県,弘前市,大字駅前２丁目１番地４ポレスター弘前駅前レジデンス１４０１号,,02,202,0368002,,,2024-02-14,清算の結了等,,,2015-10-05,1,,,,,モリイチ,0
968,4450001008051,登記記録の閉鎖等,0,2024-02-20,2024-02-19,株式会社金子陶器店,,株式会社,北海道,稚内市,中央３丁目４番１１号,,01,214,0970022,,,2024-02-19,清算の結了等,,,2015-10-05,1,,,,,,0
971,4500001006207,登記記録の閉鎖等,0,2024-02-20,2024-02-19,株式会社みずき,,株式会社,愛媛県,松山市,井門町６８４番地４,,38,201,7911114,,,2024-02-19,清算の結了等,,,2015-10-05,1,,,,,ミズキ,0
993,5010405019712,登記記録の閉鎖等,0,2024-02-20,2024-02-13,一般財団法人村主現代芸術文化財団,,その他の設立登記法人,東京都,港区,南青山６丁目６番２０号,,13,103,1070062,,,2024-02-13,清算の結了等,,,2021-04-20,1,,,,,ムラヌシゲンダイゲイジュツブンカザイダン,0
1018,5011602012022,登記記録の閉鎖等,0,2024-02-20,2024-02-14,有限会社吉川写真事務所,,有限会社,千葉県,旭市,仁玉２０８２番地１,,12,215,2892525,,,2024-02-14,清算の結了等,,,2015-10-05,1,,,,,ヨシカワシャシンジムショ,0
1025,5013201017187,登記記録の閉鎖等,0,2024-02-20,2024-02-09,株式会社オフィスあゆ川,,株式会社,東京都,目黒区,上目黒２丁目１８番１２号,,13,110,1530051,,,2024-02-09,合併による解散等,6013201017186,令和６年２月１日東京都目黒区上目黒二丁目１８番１２号株式会社ブレインエンジェル（6013201017186）に合併し解散,2015-10-05,1,,,,,オフィスアユカワ,0
1027,5020001026541,登記記録の閉鎖等,0,2024-02-20,2024-02-16,株式会社サンケン,,株式会社,神奈川県,横浜市中区,かもめ町１７番地,,14,104,2310813,,,2024-02-16,清算の結了等,,,2015-10-05,1,,,,,サンケン,0
1028,5020001071125,登記記録の閉鎖等,0,2024-02-20,2024-01-25,田中電子工業株式会社,,株式会社,神奈川県,川崎市幸区,北加瀬１丁目４１番２１号,,14,132,2120057,,,2024-01-25,合併による解散等,3010801003684,令和６年１月１６日東京都大田区矢口三丁目１５番１１号株式会社洪栄（3010801003684）に合併し解散,2015-10-05,1,,,,,タナカデンシコウギョウ,0
1039,5021002039904,登記記録の閉鎖等,0,2024-02-20,2024-02-16,有限会社アトムコーポレーション,,有限会社,神奈川県,大和市,南林間１丁目１１番１８号,,14,213,2420006,,,2024-02-16,清算の結了等,,,2015-10-05,1,,,,,アトムコーポレーション,0
1043,5030001070605,登記記録の閉鎖等,0,2024-02-20,2024-02-14,株式会社ＰＭＣ,,株式会社,埼玉県,鶴ヶ島市,富士見１丁目８－２０サンハイツ若葉１０２,,11,241,3502201,,,2024-02-14,清算の結了等,,,2015-10-05,1,,,,,ピーエムシー,0
1050,5030002064028,登記記録の閉鎖等,0,2024-02-20,2024-02-14,エス・アイ・エス有限会社,,有限会社,埼玉県,和光市,南１丁目６番１３号,,11,229,3510104,,,2024-02-14,清算の結了等,,,2015-10-05,1,,,,,エスアイエス,0
1090,5120001256252,登記記録の閉鎖等,0,2024-02-20,2024-02-16,東明株式会社,,株式会社,大阪府,大阪市淀川区,田川北２丁目５番３４号Ｄ棟２０２号室,,27,123,5320021,,,2024-02-16,清算の結了等,,,2023-07-11,1,,,,,トメイ,0
1103,5120903004873,登記記録の閉鎖等,0,2024-02-20,2024-02-08,ＲｕｓｈＲｅｓｃｕｅ合同会社,,合同会社,大阪府,豊中市,勝部３丁目８－３１ＳＳＧＰ・ＴＯＹＯＮＡＫＡ２－２０８,,27,203,5610894,,,2024-02-08,清算の結了等,,,2023-10-17,1,,,,,ラッシュレスキュー,0
1112,5140001056659,登記記録の閉鎖等,0,2024-02-20,2024-01-18,株式会社田野工務店,,株式会社,兵庫県,美方郡香美町,小代区神水７０９番地の２,,28,585,6671511,,,2024-01-18,清算の結了等,,,2015-10-05,1,,,,,タノコウムテン,0
1115,5140002022453,登記記録の閉鎖等,0,2024-02-20,2024-02-08,有限会社エントリー,,有限会社,兵庫県,明石市,西明石南町２丁目１１－２３,,28,203,6730041,,,2024-02-08,清算の結了等,,,2015-10-05,1,,,,,エントリー,0
1117,5140003019721,登記記録の閉鎖等,0,2024-02-20,2024-02-14,集美科技合同会社,,合同会社,兵庫県,神戸市中央区,北野町４丁目１７－４,,28,110,6500002,,,2024-02-14,清算の結了等,,,2023-10-23,1,,,,,シュウビカギ,0
1128,5180002021724,登記記録の閉鎖等,0,2024-02-20,2024-02-15,有限会社大藤工業,,有限会社,愛知県,名古屋市天白区,元八事５丁目１４８番地,,23,116,4680066,,,2024-02-15,清算の結了等,,,2024-02-07,1,,,,,ダイトウコウギョウ,0
1141,5220001011630,登記記録の閉鎖等,0,2024-02-20,2024-02-16,淡路物産株式会社,,株式会社,石川県,金沢市,松島２丁目１５７番地,,17,201,9200364,,,2024-02-16,清算の結了等,,,2015-10-05,1,,,,,アワジブッサン,0
1150,5260005008818,登記記録の閉鎖等,0,2024-02-20,2024-02-06,一般社団法人備前焼国際交流事業団,,その他の設立登記法人,岡山県,備前市,西片上１０６８番地４,,33,211,7050021,,,2024-02-06,清算の結了等,,,2015-10-05,1,,,,,ビゼンヤキコクサイコウリュウジギョウダン,0
1163,5330001019786,登記記録の閉鎖等,0,2024-02-20,2024-02-14,河田電気株式会社,,株式会社,熊本県,熊本市北区,池田３丁目６番５５号,,43,105,8600082,,,2024-02-14,清算の結了等,,,2015-10-05,1,,,,,カワダデンキ,0
1187,5460002001359,登記記録の閉鎖等,0,2024-02-20,2024-02-15,有限会社柴田裕康商店,,有限会社,北海道,釧路市,音別町本町１丁目５２番地,,01,206,0880115,,,2024-02-15,清算の結了等,,,2015-10-05,1,,,,,,0
1189,5460301002207,登記記録の閉鎖等,0,2024-02-20,2024-02-19,株式会社フェニックス,,株式会社,北海道,網走郡美幌町,字青山北４６番地１,,01,543,0920066,,,2024-02-19,清算の結了等,,,2015-10-05,1,,,,,フェニックス,0
1196,6010001193126,登記記録の閉鎖等,0,2024-02-20,2024-02-16,Ａ３株式会社,,株式会社,東京都,中央区,新川２丁目５番７－３０３号,,13,102,1040033,,,2024-02-16,清算の結了等,,,2018-07-09,1,,,,,エーサン,0
1203,6010401010541,登記記録の閉鎖等,0,2024-02-20,2024-01-11,五洋通商株式会社,,株式会社,東京都,港区,芝大門２丁目４番４号,,13,103,1050012,,,2024-01-11,清算の結了等,,,2023-05-31,1,,,,,ゴヨウツウショウ,0
1215,6010801033489,登記記録の閉鎖等,0,2024-02-20,2024-01-09,ＧＹ株式会社,,株式会社,東京都,大田区,大森北４丁目２１番２号,,13,111,1430016,,,2024-01-09,清算の結了等,,,2022-12-06,1,,,,,ジーワイ,0
1227,6011003012348,登記記録の閉鎖等,0,2024-02-20,2024-02-09,Ｚ　Ｍｏｄｉｆｉｅｒ合同会社,,合同会社,東京都,渋谷区,恵比寿南３丁目１番１号恵比寿グリーングラス６－９階,,13,113,1500022,,,2024-02-09,清算の結了等,,,2021-03-02,1,,,,,ゼットモディファイヤー,0
1230,6011101082202,登記記録の閉鎖等,0,2024-02-20,2024-02-15,株式会社ヘルシー社会デザイン研究所,,株式会社,東京都,新宿区,四谷三栄町１３番１８号,,13,104,1600008,,,2024-02-15,清算の結了等,,,2017-11-08,1,,,,,ヘルシーシャカイデザインケンキュウジョ,0
1235,6011501003798,登記記録の閉鎖等,0,2024-02-20,2024-02-08,株式会社ハジメ産業,,株式会社,東京都,北区,豊島８丁目５番１９号,,13,117,1140003,,,2024-02-08,清算の結了等,,,2015-10-05,1,,,,,ハジメサンギョウ,0
1246,6020001089744,登記記録の閉鎖等,0,2024-02-20,2024-02-16,株式会社リライブ,,株式会社,神奈川県,横浜市都筑区,荏田東４丁目８番３号２Ｆ,,14,118,2240006,,,2024-02-16,清算の結了等,,,2015-10-05,1,,,,,リライブ,0
1255,6020002090478,登記記録の閉鎖等,0,2024-02-20,2024-02-16,有限会社プラス・ワン,,有限会社,神奈川県,川崎市高津区,溝口１丁目１３番１８号,,14,134,2130001,,,2024-02-16,清算の結了等,,,2015-10-05,1,,,,,プラスワン,0
1257,6021001012423,登記記録の閉鎖等,0,2024-02-20,2024-02-16,三和交易株式会社,,株式会社,神奈川県,相模原市南区,上鶴間１丁目４４番２３号,,14,153,2520302,,,2024-02-16,清算の結了等,,,2015-10-05,1,,,,,サンワコウエキ,0
1259,6030001084273,登記記録の閉鎖等,0,2024-02-20,2024-02-14,トリオ食品株式会社,,株式会社,埼玉県,越谷市,南越谷４丁目９番６号,,11,222,3430845,,,2024-02-14,清算の結了等,,,2015-10-05,1,,,,,トリオショクヒン,0
1277,6040001093125,登記記録の閉鎖等,0,2024-02-20,2024-02-14,株式会社タイムレス,,株式会社,千葉県,千葉市稲毛区,小中台町５９６番地第５稲毛ハイツ５１１号,,12,103,2630044,,,2024-02-14,清算の結了等,,,2015-12-04,1,,,,,タイムレス,0
1285,6050001009963,登記記録の閉鎖等,0,2024-02-20,2024-01-24,株式会社ジェイドリーム,,株式会社,茨城県,稲敷郡阿見町,大字実穀１１３５番地,,08,443,3001153,,,2024-01-24,清算の結了等,,,2015-10-05,1,,,,,ジェイドリーム,0
1291,6080101016865,登記記録の閉鎖等,0,2024-02-20,2024-02-09,株式会社ＳＫＳクローバー,,株式会社,静岡県,伊東市,荻５５８番地の１５,,22,208,4140053,,,2024-02-09,清算の結了等,,,2015-10-05,1,,,,,エスケーエスクローバー,0
1299,6120001246855,登記記録の閉鎖等,0,2024-02-20,2024-02-16,株式会社ディンプル,,株式会社,大阪府,大阪市北区,同心１丁目７番２５－４０３,,27,127,5300035,,,2024-02-16,清算の結了等,,,2022-06-21,1,,,,,ディンプル,0
1318,6140002020547,登記記録の閉鎖等,0,2024-02-20,2024-02-16,有限会社ランテック,,有限会社,兵庫県,神戸市西区,伊川谷町井吹３３０番地,,28,111,6512106,,,2024-02-16,清算の結了等,,,2015-10-05,1,,,,,ランテック,0
1321,6140005026517,登記記録の閉鎖等,0,2024-02-20,2024-02-16,一般社団法人食育支援機構,,その他の設立登記法人,兵庫県,豊岡市,九日市下町２７７番地３,,28,209,6680052,,,2024-02-16,清算の結了等,,,2023-03-15,1,,,,,ショクイクシエンキコウ,0
1324,6170001010711,登記記録の閉鎖等,0,2024-02-20,2024-02-19,橋本スイミングスクール株式会社,,株式会社,和歌山県,橋本市,隅田町下兵庫５１７番地の１,,30,203,6480016,,,2024-02-19,清算の結了等,,,2015-10-05,1,,,,,ハシモトスイミングクスール,0
1346,6190001008299,登記記録の閉鎖等,0,2024-02-20,2024-02-16,株式会社日本伝習所,,株式会社,三重県,伊勢市,宇治浦田１丁目６番２５号,,24,203,5160026,,,2024-02-16,清算の結了等,,,2015-10-05,1,,,,,ニホンデンシュウショ,0
1350,6200002006936,登記記録の閉鎖等,0,2024-02-20,2024-02-19,有限会社足立ワーク,,有限会社,岐阜県,各務原市,蘇原三柿野町２９８番地の３３,,21,213,5040904,,,2024-02-19,清算の結了等,,,2015-10-05,1,,,,,,0
1358,6260001028892,登記記録の閉鎖等,0,2024-02-20,2024-02-16,株式会社コマツ,,株式会社,岡山県,倉敷市,浜町２丁目８番８号,,33,202,7100062,,,2024-02-16,清算の結了等,,,2015-10-21,1,,,,,コマツ,0
1370,6310002017575,登記記録の閉鎖等,0,2024-02-20,2024-02-19,有限会社福栄商会,,有限会社,長崎県,大村市,富の原２丁目５９４番地,,42,205,8560806,,,2024-02-19,清算の結了等,,,2015-10-05,1,,,,,,0
1380,6380001006606,登記記録の閉鎖等,0,2024-02-20,2024-02-16,株式会社ホテルプリシード郡山,,株式会社,東京都,新宿区,西新宿１丁目２５番１号,,13,104,1600023,,,2024-02-16,清算の結了等,,,2015-10-05,1,,,,,ホテルプリシードコオリヤマ,0
1381,6380001032206,登記記録の閉鎖等,0,2024-02-20,2024-02-15,株式会社ＳＨＧ．セレクトン福島,,株式会社,福島県,福島市,太田町１３番７３号,,07,201,9608068,,,2024-02-15,合併による解散等,3410001011621,令和６年２月１日秋田県大館市字長倉９３番地２株式会社大館ロイヤルホテル（3410001011621）に合併し解散,2021-09-15,1,,,,,エスエイチジーセレクトンフクシマ,0
1388,6430001025220,登記記録の閉鎖等,0,2024-02-20,2024-02-14,株式会社東日本経済リサーチ,,株式会社,北海道,札幌市西区,二十四軒一条６丁目１４番１０－３０３号,,01,107,0630801,,,2024-02-14,清算の結了等,,,2015-10-05,1,,,,,ヒガシニホンケイザイリサーチ,0
1399,6500003002061,登記記録の閉鎖等,0,2024-02-20,2024-02-19,合同会社ＡＭＰＨＩＳＢＡＥＮＡ,,合同会社,愛媛県,松山市,大街道３丁目４番地１,,38,201,7900004,,,2024-02-19,清算の結了等,,,2018-02-23,1,,,,,アンフィスバエナ,0
1463,7012401037217,登記記録の閉鎖等,0,2024-02-20,2024-02-13,Ｌｏｒｃｈｅｓｔｒａ株式会社,,株式会社,東京都,武蔵野市,中町２丁目２０番３号７,,13,203,1800006,,,2024-02-13,合併による解散等,7012403003992,令和６年２月１日東京都武蔵野市中町二丁目２０番３号７ｌｏＦＴ合同会社（7012403003992）に合併し解散,2020-11-26,1,,,,,ロルケストラ,0
1474,7020001092037,登記記録の閉鎖等,0,2024-02-20,2024-02-15,株式会社作インダストリー,,株式会社,神奈川県,横浜市青葉区,新石川２丁目２６番地７０９号,,14,117,2250003,,,2024-02-15,清算の結了等,,,2015-10-05,1,,,,,サクインダストリー,0
1482,7020005011785,登記記録の閉鎖等,0,2024-02-20,2024-02-15,特定非営利活動法人ＮＥＸＴＤＯＯＲ,,その他の設立登記法人,神奈川県,横浜市港南区,笹下６丁目１７番８号ニューハウジング１０１,,14,111,2340052,,,2024-02-15,清算の結了等,,,2015-10-05,1,,,,,ネクストドア,0
1488,7021002008353,登記記録の閉鎖等,0,2024-02-20,2024-02-19,有限会社川股設備,,有限会社,神奈川県,藤沢市,西富４１４番地の６,,14,205,2510001,,,2024-02-19,清算の結了等,,,2015-10-05,1,,,,,カワマタセツビ,0
1507,7050001018344,登記記録の閉鎖等,0,2024-02-20,2024-02-15,株式会社ギャラリーエクセレント,,株式会社,茨城県,古河市,原町１番２号,,08,204,3060025,,,2024-02-15,清算の結了等,,,2015-10-05,1,,,,,ギャラリーエクセレント,0
1508,7050001032956,登記記録の閉鎖等,0,2024-02-20,2024-02-15,ヤマサダ畜産株式会社,,株式会社,茨城県,筑西市,下江連５１８番地,,08,227,3080851,,,2024-02-15,清算の結了等,,,2015-10-05,1,,,,,ヤマサダチクサン,0
1509,7050001033335,登記記録の閉鎖等,0,2024-02-20,2024-02-15,日向サービス株式会社,,株式会社,茨城県,龍ケ崎市,７４４６番地２,,08,208,3010000,,,2024-02-15,清算の結了等,,,2015-10-05,1,,,,,ヒュウガサービス,0
1513,7050002004137,登記記録の閉鎖等,0,2024-02-20,2024-02-15,有限会社川隅空調,,有限会社,茨城県,東茨城郡城里町,大字上入野８０４番地の１,,08,310,3114313,,,2024-02-15,清算の結了等,,,2015-10-05,1,,,,,カワスミクウチョウ,0
1517,7070001010885,登記記録の閉鎖等,0,2024-02-20,2024-02-14,株式会社メイト,,株式会社,群馬県,高崎市,寺尾町２３７０番地１,,10,202,3700865,,,2024-02-14,清算の結了等,,,2015-10-05,1,,,,,メイト,0
1518,7070002033919,登記記録の閉鎖等,0,2024-02-20,2024-02-14,有限会社マルタカ金物店,,有限会社,群馬県,館林市,松原１丁目３番７号,,10,207,3740016,,,2024-02-14,清算の結了等,,,2015-10-05,1,,,,,マルタカカナモノテン,0
1545,7130001020795,登記記録の閉鎖等,0,2024-02-20,2024-02-15,株式会社コムテック,,株式会社,京都府,京都市山科区,東野中井ノ上町７番地５６,,26,110,6078142,,,2024-02-15,清算の結了等,,,2015-10-05,1,,,,,コムテック,0
1553,7140001078676,登記記録の閉鎖等,0,2024-02-20,2024-02-14,株式会社中井家具,,株式会社,兵庫県,伊丹市,梅ノ木１丁目１番４号,,28,207,6640856,,,2024-02-14,清算の結了等,,,2015-10-05,1,,,,,ナカイカグ,0
1561,7170001001841,登記記録の閉鎖等,0,2024-02-20,2024-02-16,タカハシニット株式会社,,株式会社,和歌山県,和歌山市,栄谷６５８番地,,30,201,6408441,,,2024-02-16,清算の結了等,,,2015-10-05,1,,,,,タカハシニット,0
1562,7170001014554,登記記録の閉鎖等,0,2024-02-20,2024-02-19,株式会社内輪板金興業,,株式会社,和歌山県,有田市,初島町里１６４０番地６,,30,204,6490307,,,2024-02-19,清算の結了等,,,2016-12-20,1,,,,,,0
1586,7200001010013,登記記録の閉鎖等,0,2024-02-20,2024-02-19,株式会社棚瀬時計店,,株式会社,岐阜県,瑞穂市,別府１１９３番地,,21,216,5010222,,,2024-02-19,清算の結了等,,,2015-10-05,1,,,,,タナセトケイテン,0
1591,7230002007906,登記記録の閉鎖等,0,2024-02-20,2024-01-25,有限会社幸,,有限会社,富山県,魚津市,大海寺野５７２７番地,,16,204,9370816,,,2024-01-25,清算の結了等,,,2015-10-05,1,,,,,ユキ,0
1597,7260002022506,登記記録の閉鎖等,0,2024-02-20,2024-02-19,有限会社ドゥーイングカンパニー,,有限会社,岡山県,都窪郡早島町,早島４００９番地１,,33,423,7010304,,,2024-02-19,清算の結了等,,,2015-10-05,1,,,,,,0
1602,7270002006788,登記記録の閉鎖等,0,2024-02-20,2024-02-16,有限会社ピーシーエス,,有限会社,鳥取県,米子市,夜見町３０４６－１２,,31,202,6830851,,,2024-02-16,清算の結了等,,,2015-10-05,1,,,,,ピーシーエス,0
1603,7290001003900,登記記録の閉鎖等,0,2024-02-20,2024-02-15,株式会社福岡研明社,,株式会社,福岡県,福岡市東区,松田３丁目２０番２２号,,40,131,8120064,,,2024-02-15,清算の結了等,,,2015-10-05,1,,,,,フクオカケンメイシャ,0
1607,7290002001291,登記記録の閉鎖等,0,2024-02-20,2024-02-15,有限会社アトリエジュン,,有限会社,福岡県,福岡市南区,長住５丁目９番１０－５０１号,,40,134,8111362,,,2024-02-15,清算の結了等,,,2015-10-05,1,,,,,アトリエジュン,0
1619,7340001003911,登記記録の閉鎖等,0,2024-02-20,2024-02-19,前田電機工業株式会社,,株式会社,鹿児島県,鹿児島市,七ツ島１丁目２番地１９,,46,201,8910132,,,2024-02-19,清算の結了等,,,2015-10-05,1,,,,,マエダデンキコウギョウ,0
1628,7380002008055,登記記録の閉鎖等,0,2024-02-20,2024-02-15,有限会社宇野内装,,有限会社,福島県,郡山市,大槻町字中柵３番地の６,,07,203,9630201,,,2024-02-15,清算の結了等,,,2015-10-05,1,,,,,ウノナイソウ,0
1630,7380002024572,登記記録の閉鎖等,0,2024-02-20,2024-02-16,有限会社大二商店,,有限会社,福島県,いわき市,錦町上中田３６番地,,07,204,9748232,,,2024-02-16,清算の結了等,,,2015-10-05,1,,,,,ダイニシヨウテン,0
1632,7390002003542,登記記録の閉鎖等,0,2024-02-20,2024-02-19,有限会社東北産機,,有限会社,山形県,山形市,平清水２丁目９番３２号,,06,201,9902401,,,2024-02-19,清算の結了等,,,2015-10-05,1,,,,,トウホクサンキ,0
1634,7420002001170,登記記録の閉鎖等,0,2024-02-20,2024-02-16,有限会社国家試験東北研修センター,,有限会社,青森県,青森市,橋本３丁目４番１５号,,02,201,0300823,,,2024-02-16,清算の結了等,,,2015-10-05,1,,,,,コッカシケントウホクケンシュウセンター,0
1645,7470001014672,登記記録の閉鎖等,0,2024-02-20,2024-02-15,株式会社エイト,,株式会社,香川県,善通寺市,善通寺町５丁目８番３６号,,37,204,7650003,,,2024-02-15,清算の結了等,,,2015-10-05,1,,,,,エイト,0
1661,8010003026488,登記記録の閉鎖等,0,2024-02-20,2024-02-16,合同会社ＭＢ,,合同会社,茨城県,つくば市,みどりの２丁目２７番地１８,,08,220,3050881,,,2024-02-16,清算の結了等,,,2017-11-21,1,,,,,エムビー,0
1666,8010401133423,登記記録の閉鎖等,0,2024-02-20,2024-02-14,株式会社川口ＤＥＳＩＧＮ,,株式会社,東京都,港区,南青山５丁目６番２４号,,13,103,1070062,,,2024-02-14,清算の結了等,,,2017-08-28,1,,,,,ガワグチデザイン,0
1718,8013401004668,登記記録の閉鎖等,0,2024-02-20,2024-02-14,株式会社鑚,,株式会社,東京都,多摩市,一ノ宮１丁目２６番地の６アーバンシティー聖蹟桜ヶ丘４０３,,13,224,2060002,,,2024-02-14,清算の結了等,,,2015-10-05,1,,,,,タガネ,0
1727,8020002000484,登記記録の閉鎖等,0,2024-02-20,2024-02-15,有限会社貴史,,有限会社,神奈川県,横浜市栄区,本郷台２丁目３４番５号,,14,115,2470008,,,2024-02-15,清算の結了等,,,2015-10-05,1,,,,,タカシ,0
1737,8021001030357,登記記録の閉鎖等,0,2024-02-20,2024-02-16,株式会社吉矢,,株式会社,神奈川県,相模原市中央区,松が丘２丁目１８番,,14,152,2520223,,,2024-02-16,清算の結了等,,,2015-10-05,1,,,,,ヨシヤ,0
1754,8030002009021,登記記録の閉鎖等,0,2024-02-20,2024-02-08,有限会社つるやクリーニング,,有限会社,埼玉県,さいたま市桜区,田島１丁目２１番６号,,11,106,3380837,,,2024-02-08,清算の結了等,,,2015-10-05,1,,,,,ツルヤクリーニング,0
1780,8100002030548,登記記録の閉鎖等,0,2024-02-20,2024-02-13,有限会社ミワ設備,,有限会社,長野県,茅野市,金沢９２３番地５,,20,214,3910012,,,2024-02-13,清算の結了等,,,2015-10-05,1,,,,,ミワセツビ,0
1803,8120002072943,登記記録の閉鎖等,0,2024-02-20,2024-02-16,樋口建物管理有限会社,00031374,有限会社,大阪府,寝屋川市,八坂町１５－３６－３０１,,27,215,5720838,,,2024-02-16,清算の結了等,,,2015-10-05,1,,,,,ヒグチタテモノカンリ,0
1816,8130001075707,登記記録の閉鎖等,0,2024-02-20,2024-01-15,平安土地興業株式会社,,株式会社,京都府,京都市左京区,二条通川端東入大菊町９６番地,,26,103,6068376,,,2024-01-15,清算の結了等,,,2023-11-13,1,,,,,ヘイアントチコウギョウ,0
1825,8140002004894,登記記録の閉鎖等,0,2024-02-20,2024-02-16,有限会社つくしコーポレーション,,有限会社,兵庫県,神戸市西区,富士見が丘５丁目２番地の７,,28,111,6512214,,,2024-02-16,清算の結了等,,,2015-10-05,1,,,,,ツクシコーポレーション,0
1852,8190001006805,登記記録の閉鎖等,0,2024-02-20,2024-02-16,株式会社千種鉄工所,,株式会社,三重県,伊勢市,小俣町元町１６０２番地１,,24,203,5190503,,,2024-02-16,清算の結了等,,,2015-10-05,1,,,,,チクサテッコウショ,0
1854,8190001027009,登記記録の閉鎖等,0,2024-02-20,2024-02-15,ココリオ株式会社,,株式会社,三重県,伊賀市,長田１１８０番地,,24,216,5180031,,,2024-02-15,清算の結了等,,,2020-01-09,1,,,,,ココリオ,0
1860,8250001012672,登記記録の閉鎖等,0,2024-02-20,2024-02-16,株式会社明和産業,,株式会社,山口県,熊毛郡平生町,大字平生町１５番地の１３０,,35,344,7421101,,,2024-02-16,清算の結了等,,,2015-10-05,1,,,,,メイワサンギョウ,0
1863,8290001045561,登記記録の閉鎖等,0,2024-02-20,2024-02-14,山九工業株式会社,,株式会社,福岡県,飯塚市,伊岐須４２８番地,,40,205,8200053,,,2024-02-14,清算の結了等,,,2015-10-05,1,,,,,サンキュウコウギョウ,0
1870,8290802014021,登記記録の閉鎖等,0,2024-02-20,2024-02-16,有限会社工芸レフ,,有限会社,福岡県,北九州市八幡西区,養福寺町９番１号,,40,109,8060065,,,2024-02-16,清算の結了等,,,2015-10-05,1,,,,,コウゲイレフ,0
1892,8420002005336,登記記録の閉鎖等,0,2024-02-20,2024-01-24,有限会社澁谷農場,,有限会社,青森県,青森市,大字八ツ役字芦谷３１９番地７,00087558,02,201,0300112,,,2024-01-24,合併による解散等,6420001000117,令和６年１月１日青森市大字八ツ役字芦谷３１９番地７株式会社青森三春漬物工場（6420001000117）に合併し解散,2015-10-05,1,,,,,,0
1896,8430002037915,登記記録の閉鎖等,0,2024-02-20,2024-02-13,有限会社ティーシー札幌,,有限会社,北海道,札幌市中央区,南十八条西１４丁目２番５号,,01,101,0640918,,,2024-02-13,清算の結了等,,,2015-10-05,1,,,,,ティーシーサッポロ,0
1900,8500001001939,登記記録の閉鎖等,0,2024-02-20,2024-01-31,四国スリーボンド株式会社,,株式会社,愛媛県,松山市,西垣生町７０８番地１,,38,201,7918044,,,2024-01-31,合併による解散等,2240001009403,令和６年１月１日広島市西区中広町二丁目２番２０号広島スリーボンド株式会社（2240001009403）に合併し解散,2015-10-05,1,,,,,シコクスリーボンド,0
1929,9010602026301,登記記録の閉鎖等,0,2024-02-20,2024-02-13,有限会社ティー・ステップス,,有限会社,東京都,府中市,新町３丁目１番地都営新町三丁目アパート１４－１０２,,13,206,1830052,,,2024-02-13,清算の結了等,,,2015-10-05,1,,,,,ティーステップス,0
1932,9010701009818,登記記録の閉鎖等,0,2024-02-20,2024-02-14,株式会社ヤシオ,,株式会社,東京都,品川区,西大井４丁目１６番３号,,13,109,1400015,,,2024-02-14,清算の結了等,,,2015-10-05,1,,,,,ヤシオ,0
1941,9011001099062,登記記録の閉鎖等,0,2024-02-20,2024-02-15,株式会社ナースセントラル,,株式会社,東京都,千代田区,鍛冶町２丁目６番１号堀内ビルディング,,13,101,1010044,,,2024-02-15,合併による解散等,2120001186857,令和６年２月１日大阪市北区堂島二丁目２番２号株式会社ケア２１メディカル（2120001186857）に合併し解散,2015-10-05,1,,,,,ナースセントラル,0
1948,9011101028532,登記記録の閉鎖等,0,2024-02-20,2024-02-01,マーベルジャパン株式会社,,株式会社,東京都,品川区,上大崎４丁目１番５号,,13,109,1410021,,,2024-02-01,合併による解散等,2011102026871,令和６年２月１日東京都品川区上大崎四丁目１番５号マーベルテクノロジージャパン株式会社（2011102026871）に合併し解散,2015-10-05,1,,,,,マーベルジャパン,0
1978,9020002016587,登記記録の閉鎖等,0,2024-02-20,2024-02-15,有限会社ＭＩＴＡＫＡ,,有限会社,神奈川県,川崎市高津区,千年６０９番地２,,14,134,2130022,,,2024-02-15,清算の結了等,,,2015-10-05,1,,,,,ミタカ,0
1983,9021002029496,登記記録の閉鎖等,0,2024-02-20,2024-02-16,有限会社エスティーサイエンス,,有限会社,神奈川県,相模原市緑区,若葉台５丁目１０番地１,,14,151,2520112,,,2024-02-16,清算の結了等,,,2015-10-05,1,,,,,エスティーサイエンス,0
2005,9070002014941,登記記録の閉鎖等,0,2024-02-20,2024-02-16,竹仙堂有限会社,,有限会社,群馬県,安中市,松井田町五料３５９２番地２,,10,211,3790302,,,2024-02-16,清算の結了等,,,2015-10-05,1,,,,,チクセンドウ,0
2018,9120001088997,登記記録の閉鎖等,0,2024-02-20,2024-02-08,株式会社プロモ,,株式会社,大阪府,大阪市天王寺区,上本町１丁目２番１９－１００１号,,27,109,5430001,,,2024-02-08,清算の結了等,,,2015-10-05,1,,,,,プロモ,0
2035,9120102001999,登記記録の閉鎖等,0,2024-02-20,2024-02-19,有限会社堺トーク,,有限会社,大阪府,堺市東区,日置荘原寺町１６５番地１９,,27,143,5998112,,,2024-02-19,清算の結了等,,,2015-10-05,1,,,,,サカイトーク,0
2049,9140002006535,登記記録の閉鎖等,0,2024-02-20,2024-02-16,有限会社フジプランニングオフィス,,有限会社,兵庫県,神戸市西区,池上１丁目１２番地の１Ｆ－９０５号,,28,111,6512111,,,2024-02-16,清算の結了等,,,2015-10-05,1,,,,,フジプランニングオフィス,0
2054,9160002009370,登記記録の閉鎖等,0,2024-02-20,2024-02-19,有限会社今井製作所,,有限会社,滋賀県,東近江市,五個荘日吉町１０番地,,25,213,5291403,,,2024-02-19,清算の結了等,,,2015-10-05,1,,,,,イマイセイサクショ,0
2065,9180002013263,登記記録の閉鎖等,0,2024-02-20,2024-02-14,上村運輸株式会社,,株式会社,愛知県,名古屋市名東区,猪子石原１丁目１７０４番地,,23,115,4650008,,,2024-02-14,清算の結了等,,,2015-10-05,1,,,,,ウエムラウンユ,0
2069,9180002085559,登記記録の閉鎖等,0,2024-02-20,2024-02-14,矢崎有限会社,,有限会社,愛知県,知多郡東浦町,大字生路字前田１２０番地,,23,442,4702104,,,2024-02-14,清算の結了等,,,2015-10-05,1,,,,,ヤサキ,0
2070,9180005018193,登記記録の閉鎖等,0,2024-02-20,2024-02-08,一般社団法人アジア共生社会援護会,,その他の設立登記法人,愛知県,一宮市,浅野字大島８番地,,23,203,4910871,,,2024-02-08,清算の結了等,,,2019-03-27,1,,,,,アジアキョウセイシャカイエンゴカイ,0
2091,9290002024885,登記記録の閉鎖等,0,2024-02-20,2024-02-15,有限会社ニューバリカン３,,有限会社,福岡県,福岡市中央区,赤坂３丁目１番２３号,,40,133,8100042,,,2024-02-15,清算の結了等,,,2015-10-05,1,,,,,ニューバリカンサン,0
2093,9290003012071,登記記録の閉鎖等,0,2024-02-20,2024-02-15,合同会社ＨＥＲＭＯＮ,,合同会社,福岡県,福岡市博多区,板付３丁目２６－５－７０４,,40,132,8120888,,,2024-02-15,清算の結了等,,,2022-01-25,1,,,,,ヘルモン,0
2098,9290802025397,登記記録の閉鎖等,0,2024-02-20,2024-02-16,有限会社エフォート,,有限会社,福岡県,田川市,千代町１番１８号,,40,206,8260031,,,2024-02-16,清算の結了等,,,2015-10-05,1,,,,,エフォート,0
2103,9320001014628,登記記録の閉鎖等,0,2024-02-20,2024-02-19,株式会社道楽,,株式会社,大分県,大分市,久原北８番１号,,44,201,8700324,,,2024-02-19,清算の結了等,,,2015-12-24,1,,,,,,0
2124,9400001005313,登記記録の閉鎖等,0,2024-02-20,2024-02-14,株式会社ササトウ住工,,株式会社,岩手県,花巻市,若葉町２丁目６番４号,,03,205,0250097,,,2024-02-14,清算の結了等,,,2015-10-05,1,,,,,ササトウジュウコウ,0
2125,9400001015601,登記記録の閉鎖等,0,2024-02-20,2024-02-15,株式会社ＳＨＧ．シティプラザ北上,,株式会社,岩手県,北上市,川岸１丁目１４番１号,,03,206,0240032,,,2024-02-15,合併による解散等,3410001011621,令和６年２月１日秋田県大館市字長倉９３番地２株式会社大館ロイヤルホテル（3410001011621）に合併し解散,2021-09-15,1,,,,,エスエイチジーシティプラザキタカミ,0
2129,9430001051957,登記記録の閉鎖等,0,2024-02-20,2024-02-09,株式会社アイテック,,株式会社,北海道,岩内郡岩内町,字野束２７３番地の５０,,01,402,0450024,,,2024-02-09,清算の結了等,,,2015-10-05,1,,,,,アイテック,0
2139,9500002004452,登記記録の閉鎖等,0,2024-02-20,2024-02-19,有限会社漬新,,有限会社,愛媛県,伊予市,上野２６２６番地１,,38,210,7993103,,,2024-02-19,清算の結了等,,,2015-10-05,1,,,,,ツケシン,0
2140,9500005007568,登記記録の閉鎖等,0,2024-02-20,2024-01-19,特定非営利活動法人だんだん,,その他の設立登記法人,愛媛県,松山市,富久町４２２番地,,38,201,7918034,,,2024-01-19,清算の結了等,,,2015-10-05,1,,,,,ダンダン,0
2142,9700150023754,削除,,2024-02-20,,,,,,,,,,,,,,,,,,,,,,,,,
