sequenceNumber,corporateNumber,process,correct,updateDate,changeDate,name,nameImageId,kind,prefectureName,cityName,streetNumber,addressImageId,prefectureCode,cityCode,postCode,addressOutside,addressOutsideImageId,closeDate,closeCause,successorCorporateNumber,changeCause,assignmentDate,latest,enName,enPrefectureName,enCityName,enAddressOutside,furigana,hihyoji
36,1010901048004,登記記録の閉鎖等,0,2023-03-01,2023-02-27,ｃｏｃｏｎｅ　ｆａｓｈｉｏｎ株式会社,,株式会社,東京都,世田谷区,若林３丁目１番１８号,,13,112,1540023,,,2023-02-27,清算の結了等,,,2021-02-09,1,,,,,ココネファッション,0
53,1012401034839,登記記録の閉鎖等,0,2023-03-01,2023-02-21,株式会社ＦＲＯＮＴＩＥＲ　ＯＮＥ,,株式会社,東京都,立川市,曙町２丁目３２番３号,,13,202,1900012,,,2023-02-21,清算の結了等,,,2019-01-11,1,,,,,フロンティアワン,0
79,1030002117557,登記記録の閉鎖等,0,2023-03-01,2023-02-24,有限会社永光産業,,有限会社,埼玉県,行田市,大字荒木２１１３番地イ号,,11,206,3610011,,,2023-02-24,清算の結了等,,,2015-10-05,1,,,,,エイコウサンギョウ,0
92,1070001005965,登記記録の閉鎖等,0,2023-03-01,2023-02-24,株式会社インテグレート,,株式会社,群馬県,前橋市,小相木町６０５番地３,,10,201,3710831,,,2023-02-24,清算の結了等,,,2015-10-05,1,,,,,インテグレート,0
122,1120902000522,登記記録の閉鎖等,0,2023-03-01,2023-02-16,有限会社北大阪計算サービス,,有限会社,大阪府,茨木市,橋の内２丁目３番６号,,27,211,5670805,,,2023-02-16,清算の結了等,,,2015-10-05,1,,,,,キタオオサカケイサンサービス,0
128,1140001075299,登記記録の閉鎖等,0,2023-03-01,2023-02-27,株式会社岩田組,,株式会社,兵庫県,多可郡多可町,八千代区大屋６８９番地,,28,365,6770101,,,2023-02-27,清算の結了等,,,2015-10-05,1,,,,,イワタグミ,0
156,1180003023244,登記記録の閉鎖等,0,2023-03-01,2023-02-22,合同会社ＡＬＬＱＵＥＥＮ,,合同会社,愛知県,名古屋市中区,丸の内１丁目１１番２９号,,23,106,4600002,,,2023-02-22,清算の結了等,,,2021-12-27,1,,,,,オールクイーン,0
159,1180301017996,登記記録の閉鎖等,0,2023-03-01,2023-02-20,株式会社大野管工,,株式会社,愛知県,豊田市,本徳町砂子８６１番地７,,23,211,4700363,,,2023-02-20,清算の結了等,,,2015-10-05,1,,,,,,0
161,1200001012873,登記記録の閉鎖等,0,2023-03-01,2023-02-27,電設エンジニアリング株式会社,,株式会社,岐阜県,各務原市,新鵜沼台３丁目８２番地,,21,213,5090122,,,2023-02-27,清算の結了等,,,2015-10-05,1,,,,,デンセツエンジニアリング,0
162,1200001012972,登記記録の閉鎖等,0,2023-03-01,2023-02-28,株式会社Ｕｎｉｖｅｒ　Ｄｉｎｉｎｇ,,株式会社,岐阜県,本巣市,仏生寺７４０番地８,,21,218,5010407,,,2023-02-28,清算の結了等,,,2015-10-05,1,,,,,ユニバーダイニング,0
171,1250002008981,登記記録の閉鎖等,0,2023-03-01,2023-02-24,有限会社児島酒店,,有限会社,山口県,下関市,熊野町２丁目２番２７号,,35,201,7510852,,,2023-02-24,清算の結了等,,,2015-10-05,1,,,,,コジマサケテン,0
173,1260001021308,登記記録の閉鎖等,0,2023-03-01,2023-02-28,株式会社備前陶芸,,株式会社,岡山県,備前市,吉永町金谷２１３番地,,33,211,7090221,,,2023-02-28,清算の結了等,,,2015-10-05,1,,,,,ビゼントウゲイ,0
183,1300002002062,登記記録の閉鎖等,0,2023-03-01,2023-02-28,有限会社花菜,,有限会社,佐賀県,佐賀市,巨勢町大字高尾２３７番地１,,41,201,8400007,,,2023-02-28,清算の結了等,,,2015-10-05,1,,,,,カサイ,0
187,1310002010980,登記記録の閉鎖等,0,2023-03-01,2023-02-27,有限会社中嶋電機計装,,有限会社,長崎県,佐世保市,権常寺町１１３９番地３４,,42,202,8593213,,,2023-02-27,清算の結了等,,,2015-10-05,1,,,,,ナカシマデンキケイソウ,0
189,1320002006994,登記記録の閉鎖等,0,2023-03-01,2023-02-28,有限会社山崎ラジエーター工業所,,有限会社,大分県,大分市,南春日町１２番４２号,,44,201,8700815,,,2023-02-28,清算の結了等,,,2015-10-05,1,,,,,ヤマサキラジエーターコウギョウショ,0
201,1350001004550,登記記録の閉鎖等,0,2023-03-01,2023-02-27,宮崎重機センター株式会社,,株式会社,宮崎県,宮崎市,大字富吉字高後１０９３番５,,45,201,8802114,,,2023-02-27,清算の結了等,,,2015-10-05,1,,,,,ミヤザキジュウキセンター,0
203,1360002014928,登記記録の閉鎖等,0,2023-03-01,2023-02-24,有限会社北原土木,,有限会社,沖縄県,中頭郡北谷町,字砂辺３０１番地７,,47,326,9040111,,,2023-02-24,清算の結了等,,,2015-10-05,1,,,,,キタハラドボク,0
208,1370002004770,登記記録の閉鎖等,0,2023-03-01,2023-02-27,有限会社凱設計,,有限会社,宮城県,仙台市若林区,中倉２丁目２２番２２号,,04,103,9840821,,,2023-02-27,清算の結了等,,,2015-10-05,1,,,,,ガイセッケイ,0
219,1380003003283,登記記録の閉鎖等,0,2023-03-01,2023-02-20,イーソリューション合同会社,,合同会社,東京都,渋谷区,恵比寿２丁目３７番６号,,13,113,1500013,,,2023-02-20,清算の結了等,,,2015-10-05,1,,,,,イーソリューション,0
233,1430002037418,登記記録の閉鎖等,0,2023-03-01,2023-02-28,有限会社アネスティコーポレーション,,有限会社,北海道,札幌市北区,北三十五条西３丁目２番１３号,,01,102,0010035,,,2023-02-28,清算の結了等,,,2015-10-05,1,,,,,アネスティコーポレーション,0
249,2010001183089,登記記録の閉鎖等,0,2023-03-01,2023-02-21,株式会社ＳＴＳ,,株式会社,東京都,中央区,銀座８丁目８番１７号,,13,102,1040061,,,2023-02-21,清算の結了等,,,2017-04-27,1,,,,,エスティエス,0
250,2010001185572,登記記録の閉鎖等,0,2023-03-01,2023-02-22,株式会社Ｍ管財,,株式会社,東京都,千代田区,神田神保町３丁目３番７号,,13,101,1010051,,,2023-02-22,清算の結了等,,,2017-08-15,1,,,,,,0
270,2010401054006,登記記録の閉鎖等,0,2023-03-01,2023-02-21,台湾新幹線株式会社,,株式会社,東京都,千代田区,大手町１丁目２番１号,,13,101,1000004,,,2023-02-21,清算の結了等,,,2015-10-05,1,,,,,タイワンシンカンセン,0
279,2010403018157,登記記録の閉鎖等,0,2023-03-01,2023-02-14,合同会社仲津事務所,,合同会社,東京都,港区,浜松町２丁目２番１５号浜松町ダイヤビル２Ｆ,,13,103,1050013,,,2023-02-14,清算の結了等,,,2018-02-26,1,,,,,ナカツジムショ,0
289,2011001096611,登記記録の閉鎖等,0,2023-03-01,2023-02-21,株式会社シム・ハート,,株式会社,東京都,渋谷区,富ヶ谷２丁目２番５号４Ｆ,,13,113,1510063,,,2023-02-21,清算の結了等,,,2015-10-05,1,,,,,シムハート,0
305,2011302006384,登記記録の閉鎖等,0,2023-03-01,2023-02-27,歳の湯管理有限会社,,有限会社,東京都,杉並区,荻窪１丁目３０番１２号,,13,115,1670051,,,2023-02-27,清算の結了等,,,2015-10-05,1,,,,,サイノユカンリ,0
319,2012301006111,登記記録の閉鎖等,0,2023-03-01,2023-02-20,株式会社シティ,,株式会社,東京都,町田市,原町田２丁目２２番３０号,,13,209,1940013,,,2023-02-20,清算の結了等,,,2015-10-05,1,,,,,シティ,0
325,2012301010732,登記記録の閉鎖等,0,2023-03-01,2023-02-27,ＡＧＧＳ　ＪＡＰＡＮ株式会社,,株式会社,東京都,多摩市,一ノ宮１丁目３２－１８ピューラーＳ・Ｎ２０３,,13,224,2060002,,,2023-02-27,清算の結了等,,,2016-10-05,1,,,,,エージージーエスジャパン,0
326,2012303001564,登記記録の閉鎖等,0,2023-03-01,2023-02-21,合同会社健灯商會,,合同会社,東京都,町田市,南大谷１３７０番地５０,,13,209,1940031,,,2023-02-21,清算の結了等,,,2021-07-07,1,,,,,ケントウショウカイ,0
334,2020001068371,登記記録の閉鎖等,0,2023-03-01,2023-02-27,ハイコミュニケーションサービス株式会社,,株式会社,神奈川県,川崎市宮前区,野川５３６番地,,14,136,2160001,,,2023-02-27,清算の結了等,,,2015-10-05,1,,,,,ハイコミュニケーションサービス,0
353,2040003011609,登記記録の閉鎖等,0,2023-03-01,2023-02-20,合同会社ｒｅｇａｌｏ,,合同会社,千葉県,白井市,河原子１４１番地,,12,232,2701403,,,2023-02-20,清算の結了等,,,2018-05-11,1,,,,,レガロ,0
386,2120001199231,登記記録の閉鎖等,0,2023-03-01,2023-02-27,株式会社ＳＭＫ,,株式会社,大阪府,大阪市東成区,東小橋３丁目１９番２４号,,27,115,5370024,,,2023-02-27,清算の結了等,,,2016-07-01,1,,,,,エスエムケー,0
395,2120101034420,登記記録の閉鎖等,0,2023-03-01,2023-02-27,株式会社岩崎組,00032390,株式会社,大阪府,羽曳野市,誉田２丁目５番２２号,,27,222,5830857,,,2023-02-27,清算の結了等,,,2015-10-05,1,,,,,イワサキグミ,0
407,2130002004257,登記記録の閉鎖等,0,2023-03-01,2023-02-27,有限会社藤本メガネ店,,有限会社,京都府,京都市北区,北野西白梅町７３番地,,26,101,6038327,,,2023-02-27,清算の結了等,,,2015-10-05,1,,,,,フジモトメガネテン,0
431,2230002009733,登記記録の閉鎖等,0,2023-03-01,2023-02-27,有限会社クラタ鉄工所,,有限会社,富山県,南砺市,福光１６１８番地,,16,210,9391610,,,2023-02-27,清算の結了等,,,2015-10-05,1,,,,,クラタテッコウショ,0
435,2240002024905,登記記録の閉鎖等,0,2023-03-01,2023-02-28,有限会社ハート,,有限会社,広島県,広島市中区,大手町５丁目１３番１４号,,34,101,7300051,,,2023-02-28,清算の結了等,,,2015-10-05,1,,,,,ハート,0
437,2250005003062,登記記録の閉鎖等,0,2023-03-01,2023-02-09,天理教生美分教会,,その他の設立登記法人,山口県,下関市,綾羅木本町２丁目７番２１号,,35,201,7510849,,,2023-02-09,合併による解散等,4250005003655,令和５年２月９日山口県下関市大字吉見下２６７２番地の１天理教下関分教会（4250005003655）に合併し解散,2015-10-05,1,,,,,,0
445,2290001045352,登記記録の閉鎖等,0,2023-03-01,2023-02-21,飯塚ショッピング信販株式会社,00092537,株式会社,福岡県,飯塚市,本町１３番８号,,40,205,8200042,,,2023-02-21,清算の結了等,,,2015-10-05,1,,,,,イイヅカショッピングシンパン,0
458,2300001003795,登記記録の閉鎖等,0,2023-03-01,2023-02-27,株式会社天山リゾート,,株式会社,佐賀県,佐賀市,富士町大字市川２３３８番地６,,41,201,8400503,,,2023-02-27,清算の結了等,,,2015-10-05,1,,,,,テンザンリゾート,0
465,2320205000554,登記記録の閉鎖等,0,2023-03-01,2023-02-27,特定非営利活動法人ツーリズムうすき,,その他の設立登記法人,大分県,臼杵市,大字江無田１４２９番地の７,,44,206,8750023,,,2023-02-27,清算の結了等,,,2015-10-05,1,,,,,,0
475,2370003005156,登記記録の閉鎖等,0,2023-03-01,2023-02-27,合同会社灯舎,,合同会社,宮城県,本吉郡南三陸町,歌津字田表４２－１,,04,606,9880474,,,2023-02-27,清算の結了等,,,2021-03-17,1,,,,,トモシビシャ,0
477,2370005002812,登記記録の閉鎖等,0,2023-03-01,2023-02-28,医療法人社団広茂会,,その他の設立登記法人,宮城県,黒川郡大和町,吉岡字天皇寺３１－２,,04,421,9813621,,,2023-02-28,清算の結了等,,,2015-10-05,1,,,,,コウモカイ,0
480,2370805000494,登記記録の閉鎖等,0,2023-03-01,2023-02-27,特定非営利活動法人エフエムなとり,,その他の設立登記法人,宮城県,名取市,増田字柳田３８５－３,,04,207,9811224,,,2023-02-27,清算の結了等,,,2015-10-05,1,,,,,エフエムナトリ,0
513,3010002012733,登記記録の閉鎖等,0,2023-03-01,2023-02-22,有限会社鳥藤,,有限会社,東京都,千代田区,丸の内３丁目７番９号,,13,101,1000005,,,2023-02-22,清算の結了等,,,2015-10-05,1,,,,,,0
514,3010003007880,登記記録の閉鎖等,0,2023-03-01,2023-02-22,合資会社西山工業所,,合資会社,東京都,中央区,築地７丁目１５番８号,,13,102,1040045,,,2023-02-22,清算の結了等,,,2015-10-05,1,,,,,ニシヤマコウギョウショ,0
517,3010401023967,登記記録の閉鎖等,0,2023-03-01,2023-02-20,株式会社バンコープ,,株式会社,東京都,港区,赤坂８丁目１３番１９－１１２号,,13,103,1070052,,,2023-02-20,清算の結了等,,,2020-09-03,1,,,,,バンコープ,0
532,3010601052741,登記記録の閉鎖等,0,2023-03-01,2023-02-22,トーマス・エンジニアリング株式会社,,株式会社,東京都,江東区,東砂６丁目１８番１４号,,13,108,1360074,,,2023-02-22,清算の結了等,,,2018-01-16,1,,,,,トーマスエンジニアリング,0
563,3011601012297,登記記録の閉鎖等,0,2023-03-01,2023-02-28,株式会社イーワイシー,,株式会社,東京都,台東区,北上野１丁目１０番１４号,,13,106,1100014,,,2023-02-28,合併による解散等,7010001208304,令和５年２月１日東京都台東区北上野一丁目１０番１４号東栄ホールディングス株式会社（7010001208304）に合併し解散,2015-10-05,1,,,,,イーワイシー,0
573,3011802019505,登記記録の閉鎖等,0,2023-03-01,2023-02-27,有限会社メロストレーイディング,,有限会社,東京都,足立区,宮城１丁目１７－１９－２０９,,13,121,1200047,,,2023-02-27,清算の結了等,,,2015-10-05,1,,,,,メロストレーイディング,0
581,3012805002530,登記記録の閉鎖等,0,2023-03-01,2023-02-22,一般社団法人財政デザイン研究所,,その他の設立登記法人,東京都,日野市,神明３丁目１０番５号,,13,212,1910016,,,2023-02-22,清算の結了等,,,2016-01-04,1,,,,,ザイセイデザインケンキュウジョ,0
606,3030002102581,登記記録の閉鎖等,0,2023-03-01,2023-02-24,今興業有限会社,,有限会社,埼玉県,川口市,戸塚東１丁目２４番３５号,,11,203,3330802,,,2023-02-24,清算の結了等,,,2015-10-05,1,,,,,コンコウギョウ,0
611,3040001076561,登記記録の閉鎖等,0,2023-03-01,2023-02-16,積和建設東関東株式会社,,株式会社,千葉県,千葉市若葉区,都賀１丁目４番４号,,12,104,2640025,,,2023-02-16,合併による解散等,3030001004696,令和５年２月１日埼玉県さいたま市見沼区東大宮六丁目１４番地１０積和建設埼玉栃木株式会社（3030001004696）に合併し解散,2015-10-05,1,,,,,セキワケンセツヒガシカントウ,0
621,3050005002026,登記記録の閉鎖等,0,2023-03-01,2023-02-27,特定非営利活動法人住宅評価研究会,,その他の設立登記法人,茨城県,那珂市,平野１８００番地５９９,,08,226,3192104,,,2023-02-27,清算の結了等,,,2015-10-05,1,,,,,ジュウタクヒョウカケンキュウカイ,0
628,3080401023523,登記記録の閉鎖等,0,2023-03-01,2023-02-28,株式会社ｏｐｕｓ－ｐｌｕｓ,,株式会社,静岡県,浜松市中区,中央１丁目５番６号,,22,131,4300929,,,2023-02-28,合併による解散等,1080403002816,令和５年２月２８日静岡県浜松市中区中央一丁目５番６号合同会社ＩＮＫ（1080403002816）に合併し解散,2019-03-15,1,,,,,オーパスプラス,0
630,3080402014983,登記記録の閉鎖等,0,2023-03-01,2023-02-27,有限会社ケイオー工業,,有限会社,静岡県,浜松市浜北区,中条２１４番地の２,,22,136,4340043,,,2023-02-27,清算の結了等,,,2015-10-05,1,,,,,ケイオーコウギョウ,0
640,3120001174200,登記記録の閉鎖等,0,2023-03-01,2023-02-24,マザウェイズ・ホールディングス株式会社,,株式会社,大阪府,大阪市中央区,南久宝寺町１丁目５番７号,,27,128,5410058,,,2023-02-24,清算の結了等,,,2015-10-05,1,,,,,マザウェイズホールディングス,0
657,3130002033750,登記記録の閉鎖等,0,2023-03-01,2023-02-27,平和堂有限会社,,有限会社,京都府,京丹後市,弥栄町溝谷３７０９番地,,26,212,6270111,,,2023-02-27,清算の結了等,,,2015-10-05,1,,,,,ヘイワドウ,0
667,3160002011274,登記記録の閉鎖等,0,2023-03-01,2023-02-27,有限会社ガリバー商事,,有限会社,滋賀県,高島市,勝野１６８９番地の２,,25,212,5201121,,,2023-02-27,清算の結了等,,,2015-10-05,1,,,,,ガリバーショウジ,0
674,3180002049858,登記記録の閉鎖等,0,2023-03-01,2023-02-24,有限会社ビット,,有限会社,愛知県,名古屋市名東区,松井町３０１番地,,23,115,4650062,,,2023-02-24,清算の結了等,,,2015-10-05,1,,,,,ビット,0
684,3210005009599,登記記録の閉鎖等,0,2023-03-01,2023-02-24,一般社団法人日本自然療法セラピスト協会,,その他の設立登記法人,福井県,越前市,村国３丁目１９番地１３,,18,209,9150084,,,2023-02-24,清算の結了等,,,2016-05-16,1,,,,,ニホンシゼンリョウホウセラピストキョウカイ,0
711,3310002008940,登記記録の閉鎖等,0,2023-03-01,2023-02-27,有限会社本田蒲鉾店,,有限会社,長崎県,佐世保市,戸尾町５番３１号,,42,202,8570864,,,2023-02-27,清算の結了等,,,2015-10-05,1,,,,,ホンダカマボコテン,0
735,3430001060773,登記記録の閉鎖等,0,2023-03-01,2023-02-27,株式会社花の丘,,株式会社,北海道,室蘭市,柏木町４２８番地１,,01,205,0500064,,,2023-02-27,清算の結了等,,,2015-10-05,1,,,,,ハナノオカ,0
743,3450002004785,登記記録の閉鎖等,0,2023-03-01,2023-02-27,有限会社古高ガラス店,00090723,有限会社,北海道,旭川市,豊岡九条５丁目１番２１号,,01,204,0788239,,,2023-02-27,清算の結了等,,,2015-10-05,1,,,,,フルタカガラステン,0
747,3460402000128,登記記録の閉鎖等,0,2023-03-01,2023-02-28,有限会社共栄鉄工,,有限会社,北海道,根室市,花園町７丁目１７番地,,01,223,0870045,,,2023-02-28,清算の結了等,,,2015-10-05,1,,,,,キョウエイテッコウ,0
785,4010901017360,登記記録の閉鎖等,0,2023-03-01,2023-02-24,ユニトロン通商株式会社,,株式会社,東京都,世田谷区,上用賀６丁目１６番６－１０１号,,13,112,1580098,,,2023-02-24,清算の結了等,,,2015-10-05,1,,,,,ユニトロンツウショウ,0
796,4011101005239,登記記録の閉鎖等,0,2023-03-01,2023-02-28,共新商事株式会社,,株式会社,東京都,新宿区,西新宿１丁目１８番４号,,13,104,1600023,,,2023-02-28,清算の結了等,,,2015-10-05,1,,,,,キョウシンショウジ,0
826,4020002065192,登記記録の閉鎖等,0,2023-03-01,2023-02-27,有限会社わかば,,有限会社,神奈川県,横浜市西区,中央２丁目２番１３号,,14,103,2200051,,,2023-02-27,清算の結了等,,,2015-10-05,1,,,,,ワカバ,0
844,4050002010542,登記記録の閉鎖等,0,2023-03-01,2023-02-28,有限会社オオヤマ,,有限会社,茨城県,笠間市,押辺２７４６番地,,08,216,3190205,,,2023-02-28,清算の結了等,,,2015-10-05,1,,,,,オオヤマ,0
845,4050002037916,登記記録の閉鎖等,0,2023-03-01,2023-02-24,有限会社堀内商事,,有限会社,茨城県,牛久市,田宮町４８番地,,08,219,3001236,,,2023-02-24,清算の結了等,,,2015-10-05,1,,,,,ホリウチショウジ,0
889,4160002010077,登記記録の閉鎖等,0,2023-03-01,2023-02-22,有限会社山口ハウジング,,有限会社,滋賀県,東近江市,佐野町４０１番地１－２０２号,,25,213,5211222,,,2023-02-22,清算の結了等,,,2015-10-05,1,,,,,ヤマグチハウジング,0
890,4170001011819,登記記録の閉鎖等,0,2023-03-01,2023-02-27,株式会社鵬工務店,,株式会社,和歌山県,東牟婁郡古座川町,明神４１２番地,,30,424,6494226,,,2023-02-27,清算の結了等,,,2015-10-05,1,,,,,オオトリコウムテン,0
894,4180003021848,登記記録の閉鎖等,0,2023-03-01,2023-02-27,合同会社Ｋｉｎｇ＆Ｐｒｉｎｃｅ,,合同会社,愛知県,名古屋市中区,錦３丁目１４番４号シャインアルファ錦ビル８０１号室,,23,106,4600003,,,2023-02-27,清算の結了等,,,2020-11-18,1,,,,,キングアンドプリンス,0
915,4320002000607,登記記録の閉鎖等,0,2023-03-01,2023-02-28,朝日産業有限会社,,有限会社,大分県,大分市,大字神崎４０４番地の４５,,44,201,8700100,,,2023-02-28,清算の結了等,,,2015-10-05,1,,,,,,0
933,4370001042819,登記記録の閉鎖等,0,2023-03-01,2023-02-24,株式会社東里,,株式会社,宮城県,仙台市若林区,南小泉字梅木５１番地,,04,103,9840827,,,2023-02-24,清算の結了等,,,2018-03-27,1,,,,,トウリン,0
934,4370002002573,登記記録の閉鎖等,0,2023-03-01,2023-02-28,有限会社大友サッシガラス,,有限会社,宮城県,仙台市太白区,長町７丁目１９番３９号,,04,104,9820011,,,2023-02-28,清算の結了等,,,2015-10-05,1,,,,,オオトモサッシガラス,0
953,4440003001311,登記記録の閉鎖等,0,2023-03-01,2023-02-27,合同会社Ｙ’２,,合同会社,北海道,函館市,若松町８番１１号,,01,202,0400063,,,2023-02-27,清算の結了等,,,2020-02-06,1,,,,,ワイツー,0
956,4460101001244,登記記録の閉鎖等,0,2023-03-01,2023-02-24,道東ライス株式会社,,株式会社,北海道,帯広市,西一条南１１丁目１番地,,01,207,0800011,,,2023-02-24,清算の結了等,,,2015-10-05,1,,,,,ドウトウライス,0
981,5010005016291,登記記録の閉鎖等,0,2023-03-01,2023-02-28,一般社団法人ブブゼラ,,その他の設立登記法人,東京都,千代田区,丸の内３丁目１番１号東京共同会計事務所内,,13,101,1000005,,,2023-02-28,清算の結了等,,,2015-10-05,1,,,,,ブブゼラ,0
991,5010401033270,登記記録の閉鎖等,0,2023-03-01,2023-02-17,株式会社ミーム,,株式会社,東京都,港区,赤坂６丁目８番１号,,13,103,1070052,,,2023-02-17,清算の結了等,,,2015-10-05,1,,,,,,0
1007,5010801003963,登記記録の閉鎖等,0,2023-03-01,2023-02-27,株式会社小島工務店,,株式会社,東京都,大田区,東蒲田１丁目１８番１１号,,13,111,1440031,,,2023-02-27,清算の結了等,,,2015-10-05,1,,,,,,0
1009,5010902015081,登記記録の閉鎖等,0,2023-03-01,2023-02-24,有限会社明興金属,,有限会社,東京都,目黒区,洗足１丁目１９番１４号第五小山ハイツ１０２,,13,110,1520012,,,2023-02-24,清算の結了等,,,2015-10-05,1,,,,,メイコウキンゾク,0
1011,5011001113413,登記記録の閉鎖等,0,2023-03-01,2023-02-27,株式会社プラトン,,株式会社,東京都,品川区,西五反田２丁目４番２号,,13,109,1410031,,,2023-02-27,清算の結了等,,,2016-11-01,1,,,,,プラトン,0
1020,5011101011806,登記記録の閉鎖等,0,2023-03-01,2023-02-27,株式会社大黒屋,,株式会社,東京都,新宿区,西新宿６丁目４番１号,,13,104,1600023,,,2023-02-27,清算の結了等,,,2015-10-05,1,,,,,ダイコクヤ,0
1021,5011101018347,登記記録の閉鎖等,0,2023-03-01,2023-02-28,株式会社文永社,,株式会社,東京都,新宿区,西新宿７丁目１１番１８号,,13,104,1600023,,,2023-02-28,清算の結了等,,,2015-10-05,1,,,,,ブンエイシャ,0
1025,5011103010335,登記記録の閉鎖等,0,2023-03-01,2023-02-28,ＲＥ　ＦＩＮＥ合同会社,,合同会社,東京都,新宿区,西新宿６丁目１０番１号日土地西新宿ビル８階,,13,104,1600023,,,2023-02-28,清算の結了等,,,2021-01-21,1,,,,,リフィイン,0
1037,5013301034223,登記記録の閉鎖等,0,2023-03-01,2023-02-27,株式会社ふじさん,,株式会社,東京都,豊島区,池袋本町４丁目３９番４号,,13,116,1700011,,,2023-02-27,清算の結了等,,,2015-10-05,1,,,,,フジサン,0
1056,5021002000790,登記記録の閉鎖等,0,2023-03-01,2023-02-27,有限会社エコノミーエンタープライズ,,有限会社,神奈川県,藤沢市,亀井野２４８０番地の３,,14,205,2520813,,,2023-02-27,清算の結了等,,,2015-10-05,1,,,,,エコノミーエンタープライズ,0
1072,5030002097317,登記記録の閉鎖等,0,2023-03-01,2023-02-24,有限会社大野商事,,有限会社,埼玉県,比企郡小川町,大字小川４９７番地１１,,11,343,3550321,,,2023-02-24,清算の結了等,,,2015-10-05,1,,,,,オオノショウジ,0
1093,5070003004111,登記記録の閉鎖等,0,2023-03-01,2023-02-27,合同会社Ｂｅｌｌｅ’ｓ,,合同会社,群馬県,高崎市,上並榎町７２番地７,,10,202,3700801,,,2023-02-27,清算の結了等,,,2021-05-21,1,,,,,ベルズ,0
1100,5100001025007,登記記録の閉鎖等,0,2023-03-01,2023-02-28,南長野不動産株式会社,,株式会社,長野県,長野市,青木島町大塚８７５番地５,,20,201,3812205,,,2023-02-28,清算の結了等,,,2015-10-05,1,,,,,ミナミナガノフドウサン,0
1103,5120001094165,登記記録の閉鎖等,0,2023-03-01,2023-02-28,株式会社プラスゲート,,株式会社,大阪府,大阪市北区,梅田１丁目１番３号,,27,127,5300001,,,2023-02-28,清算の結了等,,,2015-10-05,1,,,,,プラスゲート,0
1104,5120001146379,登記記録の閉鎖等,0,2023-03-01,2023-02-27,株式会社エステート・プラザ,,株式会社,大阪府,大阪市淀川区,塚本２丁目２４番９号,,27,123,5320026,,,2023-02-27,清算の結了等,,,2015-10-05,1,,,,,,0
1108,5120101045786,登記記録の閉鎖等,0,2023-03-01,2023-02-27,株式会社ＳＬＣ,,株式会社,大阪府,泉南郡熊取町,紺屋２丁目２０番１号,,27,361,5900412,,,2023-02-27,清算の結了等,,,2015-10-05,1,,,,,エスエルシー,0
1109,5120101056107,登記記録の閉鎖等,0,2023-03-01,2023-02-28,ＩＳプラン株式会社,,株式会社,大阪府,堺市南区,若松台１丁２番１０－８０９号,,27,145,5900116,,,2023-02-28,清算の結了等,,,2017-02-23,1,,,,,アイエスプラン,0
1116,5140001008131,登記記録の閉鎖等,0,2023-03-01,2023-02-24,株式会社シーエス・エントリー,,株式会社,兵庫県,神戸市中央区,江戸町９５番地,,28,110,6500033,,,2023-02-24,清算の結了等,,,2015-10-05,1,,,,,シーエスエントリー,0
1121,5140002012974,登記記録の閉鎖等,0,2023-03-01,2023-02-24,有限会社ヴォーグ,,有限会社,兵庫県,神戸市中央区,北長狭通１丁目１０番５号,,28,110,6500012,,,2023-02-24,合併による解散等,8140001011157,令和５年２月２４日神戸市中央区北長狭通一丁目１０番５号株式会社みどり美粧院（8140001011157）に合併し解散,2015-10-05,1,,,,,ヴォーグ,0
1122,5140002069684,登記記録の閉鎖等,0,2023-03-01,2023-02-24,有限会社乾商会,,有限会社,兵庫県,南あわじ市,松帆北浜１番地の１,,28,224,6560305,,,2023-02-24,清算の結了等,,,2015-10-05,1,,,,,イヌイショウカイ,0
1149,5190001020899,登記記録の閉鎖等,0,2023-03-01,2023-02-24,森永技研工業株式会社,,株式会社,三重県,度会郡玉城町,下田辺６８０番地,,24,461,5190416,,,2023-02-24,清算の結了等,,,2015-10-05,1,,,,,モリナガギケンコウギョウ,0
1170,5240002046310,登記記録の閉鎖等,0,2023-03-01,2023-02-22,有限会社上江洲組,,有限会社,広島県,福山市,神辺町大字川南２８３１番地の４,,34,207,7202124,,,2023-02-22,清算の結了等,,,2015-10-05,1,,,,,ウエズグミ,0
1171,5240005012895,登記記録の閉鎖等,0,2023-03-01,2023-02-16,一般社団法人広島ビジネスコンシェルジュ,,その他の設立登記法人,広島県,広島市中区,上八丁堀５番５号,,34,101,7300012,,,2023-02-16,清算の結了等,,,2015-10-05,1,,,,,ヒロシマビジネスコンシェルジュ,0
1182,5270002004744,登記記録の閉鎖等,0,2023-03-01,2023-02-24,大家建設有限会社,,有限会社,鳥取県,鳥取市,用瀬町別府９９番地１,,31,201,6891211,,,2023-02-24,清算の結了等,,,2015-10-05,1,,,,,オオイエケンセツ,0
1208,5380005008450,登記記録の閉鎖等,0,2023-03-01,2023-02-15,常念寺,,その他の設立登記法人,福島県,会津若松市,日新町７番５５号,,07,202,9650861,,,2023-02-15,合併による解散等,7380005008408,令和５年２月１５日福島県会津若松市川原町５番２０号弘長寺（7380005008408）に合併し解散,2015-10-05,1,,,,,ジョウネンジ,0
1211,5430001000620,登記記録の閉鎖等,0,2023-03-01,2023-02-27,株式会社旭工務店,,株式会社,北海道,札幌市手稲区,新発寒七条１０丁目９番８号,,01,109,0060807,,,2023-02-27,清算の結了等,,,2015-10-05,1,,,,,アサヒコウムテン,0
1219,5470001005608,登記記録の閉鎖等,0,2023-03-01,2023-02-21,株式会社セシールコミュニケーションズ,,株式会社,沖縄県,うるま市,字州崎１４番地１２,,47,213,9042234,,,2023-02-21,合併による解散等,2011101093574,令和５年２月１日東京都新宿区北新宿二丁目２１番１号ニフティ・セシール株式会社（2011101093574）に合併し解散,2015-10-05,1,,,,,セシールコミュニケーションズ,0
1251,6010801005083,登記記録の閉鎖等,0,2023-03-01,2023-02-20,ジイアイティー株式会社,,株式会社,東京都,大田区,千鳥１丁目１３番３号,,13,111,1460083,,,2023-02-20,清算の結了等,,,2015-10-05,1,,,,,ジイアイティー,0
1271,6011101100715,登記記録の閉鎖等,0,2023-03-01,2023-02-28,医療介護送迎．ｃｏｍ株式会社,,株式会社,東京都,新宿区,西新宿７丁目１３番５―３０５号,,13,104,1600023,,,2023-02-28,清算の結了等,,,2022-11-08,1,,,,,イリョウカイゴソウゲイドットコム,0
1280,6011202007900,登記記録の閉鎖等,0,2023-03-01,2023-02-21,東京セントラルゴルフ有限会社,,有限会社,東京都,中野区,中野５丁目３２番６号,,13,114,1640001,,,2023-02-21,清算の結了等,,,2015-10-05,1,,,,,トウキョウセントラルゴルフ,0
1311,6030001150174,登記記録の閉鎖等,0,2023-03-01,2023-02-24,株式会社Ｔｏｏ‐ＢＥＥ,,株式会社,埼玉県,さいたま市浦和区,本太４丁目２２番２５号,,11,107,3300052,,,2023-02-24,清算の結了等,,,2022-09-22,1,,,,,トゥービー,0
1314,6030002027784,登記記録の閉鎖等,0,2023-03-01,2023-02-24,有限会社和幸テクノ,,有限会社,埼玉県,新座市,野火止８丁目１４番３１号,,11,230,3520011,,,2023-02-24,清算の結了等,,,2015-10-05,1,,,,,ワコウテクノ,0
1315,6030005014128,登記記録の閉鎖等,0,2023-03-01,2023-02-24,協同組合行田給食センター,,その他の設立登記法人,埼玉県,行田市,藤原町１丁目１番地,,11,206,3610016,,,2023-02-24,清算の結了等,,,2015-10-05,1,,,,,ギョウダキュウショクセンター,0
1323,6050001013890,登記記録の閉鎖等,0,2023-03-01,2023-02-17,近代産業機械株式会社,,株式会社,茨城県,猿島郡境町,大字長井戸１５１９番地の１,,08,546,3060404,,,2023-02-17,清算の結了等,,,2015-10-05,1,,,,,キンダイサンギョウ,0
1328,6070001031305,登記記録の閉鎖等,0,2023-03-01,2023-02-27,シムディメンション株式会社,,株式会社,群馬県,高崎市,旭町７番地４ヴェルディーク高崎４０１号,,10,202,3700052,,,2023-02-27,清算の結了等,,,2015-10-05,1,,,,,シムディメンション,0
1335,6090005007514,登記記録の閉鎖等,0,2023-03-01,2023-02-27,一般社団法人きれいな海をみんなの力でＩｎ山梨,,その他の設立登記法人,山梨県,甲府市,湯田２丁目１３番１号,,19,201,4000864,,,2023-02-27,清算の結了等,,,2022-09-21,1,,,,,キレイナウミヲミンナノチカラデインヤマナシ,0
1339,6100002014494,登記記録の閉鎖等,0,2023-03-01,2023-02-27,有限会社中沢工務店,,有限会社,長野県,上田市,中央１丁目６番１９号,,20,203,3860012,,,2023-02-27,清算の結了等,,,2015-10-05,1,,,,,ナカザワコウムテン,0
1341,6110003000393,登記記録の閉鎖等,0,2023-03-01,2023-02-27,合資会社アートリング,,合資会社,新潟県,新潟市西区,小針上山１１番１１号,,15,107,9502011,,,2023-02-27,清算の結了等,,,2015-10-05,1,,,,,アートリング,0
1348,6120001234141,登記記録の閉鎖等,0,2023-03-01,2023-02-16,派南株式会社,,株式会社,大阪府,大阪市西成区,千本南１丁目１７番２１号２０３－Ｂ室,,27,122,5570055,,,2023-02-16,清算の結了等,,,2021-01-22,1,,,,,パナン,0
1359,6120901009618,登記記録の閉鎖等,0,2023-03-01,2023-02-27,株式会社タイヨー,,株式会社,大阪府,摂津市,東正雀２番１８号,,27,224,5660025,,,2023-02-27,清算の結了等,,,2015-10-05,1,,,,,タイヨー,0
1361,6122001017237,登記記録の閉鎖等,0,2023-03-01,2023-02-28,株式会社グローイング,,株式会社,大阪府,大東市,野崎４丁目２番３５号５０５,,27,218,5740015,,,2023-02-28,清算の結了等,,,2015-10-05,1,,,,,グローイング,0
1369,6140001090863,登記記録の閉鎖等,0,2023-03-01,2023-02-24,株式会社ティーアールエステート,,株式会社,兵庫県,姫路市,野里１４－８,,28,201,6700811,,,2023-02-24,清算の結了等,,,2015-10-05,1,,,,,ティーアールエステート,0
1402,6210002011910,登記記録の閉鎖等,0,2023-03-01,2023-02-22,藤原電工有限会社,,有限会社,福井県,越前市,北山町第４１号４番地の８,,18,209,9150897,,,2023-02-22,清算の結了等,,,2015-10-05,1,,,,,フジワラデンコウ,0
1412,6250005003711,登記記録の閉鎖等,0,2023-03-01,2023-02-09,天理教堺天真分教会,,その他の設立登記法人,山口県,下関市,後田町２丁目６番１２号,,35,201,7510826,,,2023-02-09,合併による解散等,5250005003811,令和５年２月９日山口県下関市豊浦町大字小串３５９番地天理教小串分教会（5250005003811）に合併し解散,2015-10-05,1,,,,,,0
1428,6320002019694,登記記録の閉鎖等,0,2023-03-01,2023-02-27,有限会社ウッドウエル,,有限会社,大分県,日田市,新治町３６１番地,,44,204,8770000,,,2023-02-27,清算の結了等,,,2015-10-05,1,,,,,ウッドウェル,0
1441,6380003000359,登記記録の閉鎖等,0,2023-03-01,2023-02-24,合同会社アーム,,合同会社,福島県,福島市,御山字井戸上１２番地４,,07,201,9608252,,,2023-02-24,清算の結了等,,,2015-10-05,1,,,,,アーム,0
1447,6410001006024,登記記録の閉鎖等,0,2023-03-01,2023-02-24,松栄工業株式会社,,株式会社,秋田県,大館市,二井田字吉富士７３番地の１,,05,204,0185751,,,2023-02-24,清算の結了等,,,2023-01-04,1,,,,,ショウエイコウギョウ,0
1460,6450005000936,登記記録の閉鎖等,0,2023-03-01,2023-02-16,天理教愛幌分教会,,その他の設立登記法人,北海道,旭川市,豊岡三条８丁目２番４号,,01,204,0788233,,,2023-02-16,合併による解散等,5450005000920,令和５年２月１６日北海道旭川市東七条十丁目１番１６号天理教北愛分教会（5450005000920）に合併し解散,2015-10-05,1,,,,,テンリキョウアイホロブンキョウカイ,0
1476,7010002008777,登記記録の閉鎖等,0,2023-03-01,2023-02-22,有限会社川崎清美堂,,有限会社,東京都,千代田区,神田神保町１丁目８番地,,13,101,1010051,,,2023-02-22,清算の結了等,,,2015-10-05,1,,,,,カワサキセイビドウ,0
1497,7010601001975,登記記録の閉鎖等,0,2023-03-01,2023-02-24,江東圧送株式会社,,株式会社,東京都,江東区,扇橋２丁目２１番１号小川ビル３階,,13,108,1350011,,,2023-02-24,清算の結了等,,,2015-10-05,1,,,,,コウトウアッソウ,0
1498,7010601055410,登記記録の閉鎖等,0,2023-03-01,2023-02-22,株式会社フジクラ健康社会研究所,,株式会社,東京都,江東区,木場１丁目５番１号,,13,108,1350042,,,2023-02-22,清算の結了等,,,2019-05-09,1,,,,,フジクラケンコウシャカイケンキュウジョ,0
1502,7011001069166,登記記録の閉鎖等,0,2023-03-01,2023-02-17,株式会社ハッピーズ,,株式会社,東京都,千代田区,紀尾井町３番８号第２紀尾井町ビル３Ｆ,,13,101,1020094,,,2023-02-17,合併による解散等,6010401169626,令和５年２月１日東京都港区南麻布１－８－１６パークコート南麻布１２０７号株式会社いこう（6010401169626）に合併し解散,2015-10-05,1,,,,,ハッピーズ,0
1514,7011301024655,登記記録の閉鎖等,0,2023-03-01,2023-02-24,耐陶株式会社,,株式会社,東京都,杉並区,西荻北２丁目５番２１号３Ｂ,,13,115,1670042,,,2023-02-24,清算の結了等,,,2018-12-05,1,,,,,タイトウ,0
1520,7012401002872,登記記録の閉鎖等,0,2023-03-01,2023-02-27,氣球工業株式会社,,株式会社,東京都,小金井市,前原町５丁目９番６号,,13,210,1840013,,,2023-02-27,清算の結了等,,,2015-10-05,1,,,,,キキュウコウギョウ,0
1533,7021002001878,登記記録の閉鎖等,0,2023-03-01,2023-02-24,有限会社小林機工,,有限会社,神奈川県,藤沢市,遠藤３６３４番地の１２,,14,205,2520816,,,2023-02-24,清算の結了等,,,2015-10-05,1,,,,,コバヤシキコウ,0
1554,7040003013294,登記記録の閉鎖等,0,2023-03-01,2023-02-24,令和技術合同会社,,合同会社,千葉県,市原市,瀬又５９０番３３号,,12,219,2900151,,,2023-02-24,清算の結了等,,,2019-04-25,1,,,,,レイワギジュツ,0
1557,7050001007891,登記記録の閉鎖等,0,2023-03-01,2023-02-28,株式会社稲商,,株式会社,茨城県,笠間市,稲田３８８８番地１９,,08,216,3091635,,,2023-02-28,清算の結了等,,,2015-10-05,1,,,,,イナショウ,0
1562,7060002031345,登記記録の閉鎖等,0,2023-03-01,2023-02-27,株式会社ワイケイテクノ,,株式会社,栃木県,下野市,石橋８１９番地８８,,09,216,3290511,,,2023-02-27,清算の結了等,,,2015-10-05,1,,,,,ワイケイテクノ,0
1577,7120001075717,登記記録の閉鎖等,0,2023-03-01,2023-02-24,株式会社根来本社,,株式会社,大阪府,大阪市中央区,南久宝寺町１丁目５番７号,,27,128,5410058,,,2023-02-24,清算の結了等,,,2015-10-05,1,,,,,ネゴロホンシャ,0
1598,7140001039570,登記記録の閉鎖等,0,2023-03-01,2023-02-24,三正ホーム株式会社,,株式会社,兵庫県,宍粟市,山崎町宇原８７９番地,,28,227,6712535,,,2023-02-24,清算の結了等,,,2015-10-05,1,,,,,サンセイホーム,0
1614,7180002056017,登記記録の閉鎖等,0,2023-03-01,2023-02-27,有限会社メイコー井戸設備,,有限会社,愛知県,名古屋市守山区,大字中志段味字吉田洞２９１１番地の７２６,,23,113,4630002,,,2023-02-27,清算の結了等,,,2015-10-05,1,,,,,メイコーイドセツビ,0
1615,7180301014088,登記記録の閉鎖等,0,2023-03-01,2023-02-28,株式会社伸明,,株式会社,愛知県,刈谷市,野田町北屋敷１０１番地１,,23,210,4480803,,,2023-02-28,合併による解散等,1180301017724,令和５年２月２８日愛知県刈谷市野田町北屋敷１０１番地１株式会社八進（1180301017724）に合併し解散,2015-10-05,1,,,,,シンメイ,0
1629,7240002024297,登記記録の閉鎖等,0,2023-03-01,2023-02-24,有限会社ワイズデザイン事務所,,有限会社,広島県,広島市中区,江波南１丁目３９番４－４０２号,,34,101,7300835,,,2023-02-24,清算の結了等,,,2015-10-05,1,,,,,ワイズデザインジムショ,0
1635,7260002019824,登記記録の閉鎖等,0,2023-03-01,2023-02-27,有限会社土井工業所,,有限会社,岡山県,倉敷市,神田３丁目１７番１‐４０４号ジェネシス倉敷神田,,33,202,7128061,,,2023-02-27,清算の結了等,,,2015-10-05,1,,,,,ドイコウギョウショ,0
1693,7490001004606,登記記録の閉鎖等,0,2023-03-01,2023-02-27,株式会社コナン,,株式会社,高知県,高知市,朝倉丙１２０４番地,,39,201,7808063,,,2023-02-27,清算の結了等,,,2015-10-05,1,,,,,コナン,0
1716,8011001141709,登記記録の閉鎖等,0,2023-03-01,2023-02-24,株式会社アリス,,株式会社,東京都,渋谷区,代官山町１０番７－４０１号,,13,113,1500034,,,2023-02-24,清算の結了等,,,2021-07-12,1,,,,,アリス,0
1717,8011001146146,登記記録の閉鎖等,0,2023-03-01,2023-02-22,Ｎｅｐｓｔｏｎｅ　Ｍｅｔａ　Ｊａｐａｎ株式会社,,株式会社,東京都,渋谷区,渋谷２丁目２１番１号渋谷ヒカリエ３３Ｆ,,13,113,1500002,,,2023-02-22,清算の結了等,,,2022-03-10,1,,,,,ネプストーンメタジャパン,0
1730,8012402000783,登記記録の閉鎖等,0,2023-03-01,2023-02-24,有限会社川和商店,,有限会社,東京都,府中市,紅葉丘１丁目２５番地の１,,13,206,1830004,,,2023-02-24,清算の結了等,,,2015-10-05,1,,,,,カワワショウテン,0
1735,8012703001101,登記記録の閉鎖等,0,2023-03-01,2023-02-24,パイオニア合同会社,,合同会社,東京都,西東京市,西原町２丁目５番３１号,,13,229,1880004,,,2023-02-24,清算の結了等,,,2015-10-05,1,,,,,パイオニア,0
1780,8110001005756,登記記録の閉鎖等,0,2023-03-01,2023-02-28,株式会社吉田屋商店,,株式会社,新潟県,新潟市中央区,西堀前通１０番町１６５０番地,,15,103,9518062,,,2023-02-28,清算の結了等,,,2015-10-05,1,,,,,,0
1784,8120001116825,登記記録の閉鎖等,0,2023-03-01,2023-02-27,株式会社ユニエント,,株式会社,大阪府,大阪市北区,大淀南１丁目９番２０号,,27,127,5310075,,,2023-02-27,清算の結了等,,,2015-10-05,1,,,,,ユニエント,0
1802,8130001049090,登記記録の閉鎖等,0,2023-03-01,2023-02-22,ウォーターフロント株式会社,,株式会社,京都府,京都市山科区,音羽前出町１０番地,,26,110,6078079,,,2023-02-22,清算の結了等,,,2015-10-05,1,,,,,ウォーターフロント,0
1809,8140002058206,登記記録の閉鎖等,0,2023-03-01,2023-02-24,有限会社吉井総業,,有限会社,兵庫県,西宮市,中島町１６番２６号,,28,204,6638105,,,2023-02-24,清算の結了等,,,2015-10-05,1,,,,,ヨシイソウギョウ,0
1839,8270005004805,登記記録の閉鎖等,0,2023-03-01,2023-02-28,特定非営利活動法人つどい,,その他の設立登記法人,鳥取県,鳥取市,河内５３０番地,,31,201,6801425,,,2023-02-28,清算の結了等,,,2015-10-05,1,,,,,,0
1843,8290803002867,登記記録の閉鎖等,0,2023-03-01,2023-02-28,合同会社クラウドナイン,,合同会社,福岡県,北九州市八幡西区,下上津役３丁目１０番１６号,,40,109,8070075,,,2023-02-28,清算の結了等,,,2017-02-06,1,,,,,クラウドナイン,0
1844,8300003001065,登記記録の閉鎖等,0,2023-03-01,2023-02-27,合同会社シエスタ,,合同会社,佐賀県,佐賀市,兵庫北４丁目１５番２１号,,41,201,8490919,,,2023-02-27,清算の結了等,,,2015-10-05,1,,,,,シエスタ,0
1856,8370001010144,登記記録の閉鎖等,0,2023-03-01,2023-02-28,株式会社深野プロ,,株式会社,宮城県,仙台市青葉区,一番町３丁目１０番１７号慶和ビル３階,,04,101,9800811,,,2023-02-28,清算の結了等,,,2015-10-05,1,,,,,フカノプロ,0
1866,8400001005314,登記記録の閉鎖等,0,2023-03-01,2023-02-27,ササキ住宅資材株式会社,,株式会社,岩手県,花巻市,太田第５８地割１０７番地,,03,205,0250037,,,2023-02-27,清算の結了等,,,2015-10-05,1,,,,,ササキジュウタクシザイ,0
1873,8450005002749,登記記録の閉鎖等,0,2023-03-01,2023-02-16,天理教中頓別分教会,,その他の設立登記法人,北海道,枝幸郡中頓別町,字中頓別１９番地,,01,513,0985551,,,2023-02-16,合併による解散等,8450005002690,令和５年２月１６日北海道士別市東十条三丁目２番地天理教道北分教会（8450005002690）に合併し解散,2015-10-05,1,,,,,,0
1914,9011101098278,登記記録の閉鎖等,0,2023-03-01,2023-02-28,紫陽株式会社,,株式会社,東京都,新宿区,新宿７丁目１２番１号新宿平和ビル１階,,13,104,1600022,,,2023-02-28,清算の結了等,,,2022-04-01,1,,,,,シヨウ,0
1916,9011103012113,登記記録の閉鎖等,0,2023-03-01,2023-02-28,ナナセ合同会社,,合同会社,東京都,新宿区,四谷坂町１２番１６号オープンレジデンシア四谷坂町７０２,,13,104,1600002,,,2023-02-28,清算の結了等,,,2022-08-30,1,,,,,ナナセ,0
1921,9011801014716,登記記録の閉鎖等,0,2023-03-01,2023-02-27,株式会社明和建工,,株式会社,東京都,足立区,谷中４丁目１７番１０号,,13,121,1200006,,,2023-02-27,合併による解散等,2011801025595,令和５年２月２０日千葉県市川市八幡六丁目１番１－２０１号株式会社明和建工（2011801025595）に合併し解散,2015-10-05,1,,,,,メイワケンコウ,0
1928,9013301034665,登記記録の閉鎖等,0,2023-03-01,2023-02-27,株式会社ｄｅｍｉ,,株式会社,東京都,豊島区,東池袋５丁目７番３号リードシー東池袋ビル１０Ｆ,,13,116,1700013,,,2023-02-27,清算の結了等,,,2015-10-05,1,,,,,デミ,0
1963,9070001000744,登記記録の閉鎖等,0,2023-03-01,2023-02-24,株式会社茅建築設計事務所,,株式会社,群馬県,前橋市,下大島町１１２５番地６,,10,201,3792152,,,2023-02-24,清算の結了等,,,2015-10-05,1,,,,,カヤケンチクセッケイジムショ,0
1966,9070002034114,登記記録の閉鎖等,0,2023-03-01,2023-02-22,有限会社篠原工務店,,有限会社,群馬県,館林市,岡野町２７番地２０,,10,207,3740067,,,2023-02-22,清算の結了等,,,2015-10-05,1,,,,,シノハラコウムテン,0
1967,9080002001410,登記記録の閉鎖等,0,2023-03-01,2023-02-28,有限会社カサイ,,有限会社,静岡県,静岡市葵区,常磐町１丁目５番地の４,,22,101,4200034,,,2023-02-28,清算の結了等,,,2015-10-05,1,,,,,カサイ,0
1970,9100001003363,登記記録の閉鎖等,0,2023-03-01,2023-02-27,マルマン建設株式会社,,株式会社,長野県,長野市,松代町松代１５５番地,,20,201,3811231,,,2023-02-27,清算の結了等,,,2015-10-05,1,,,,,マルマンケンセツ,0
1994,9130001036311,登記記録の閉鎖等,0,2023-03-01,2023-02-24,株式会社もり匠,,株式会社,京都府,木津川市,木津川台６丁目２番地８－１３２号,,26,214,6190225,,,2023-02-24,清算の結了等,,,2015-10-05,1,,,,,モリショウ,0
2021,9200002020018,登記記録の閉鎖等,0,2023-03-01,2023-02-24,有限会社オーツカコーポレーション,,有限会社,岐阜県,多治見市,脇之島町７丁目４１番地の７,,21,204,5070826,,,2023-02-24,清算の結了等,,,2015-10-05,1,,,,,オーツカコーポレーション,0
2024,9210001009928,登記記録の閉鎖等,0,2023-03-01,2023-02-27,株式会社美喜建設,,株式会社,福井県,大野市,中保第２４号１８番地１１,,18,205,9120014,,,2023-02-27,清算の結了等,,,2015-10-05,1,,,,,,0
2033,9240002047635,登記記録の閉鎖等,0,2023-03-01,2023-02-28,有限会社イーグルエステート,,有限会社,広島県,福山市,入船町２丁目９番２０号,,34,207,7200801,,,2023-02-28,清算の結了等,,,2015-10-05,1,,,,,イーグルエステート,0
2036,9270002010490,登記記録の閉鎖等,0,2023-03-01,2023-02-28,有限会社ナオンド,,有限会社,鳥取県,倉吉市,清谷町２丁目４１番地,,31,203,6820017,,,2023-02-28,清算の結了等,,,2015-10-05,1,,,,,ナオンド,0
2038,9290001049677,登記記録の閉鎖等,0,2023-03-01,2023-02-27,株式会社メイトエム,,株式会社,福岡県,久留米市,山本町豊田字見当号７１番地の５,,40,203,8390827,,,2023-02-27,清算の結了等,,,2015-10-05,1,,,,,メイトエム,0
2044,9290801009178,登記記録の閉鎖等,0,2023-03-01,2023-02-28,株式会社小林商店,,株式会社,福岡県,北九州市八幡東区,西本町１丁目１４番２号,,40,108,8050061,,,2023-02-28,清算の結了等,,,2015-10-05,1,,,,,コバヤシショウテン,0
2047,9310001000711,登記記録の閉鎖等,0,2023-03-01,2023-02-28,三和建設株式会社,,株式会社,長崎県,長崎市,末石町１５９番地４,,42,201,8500991,,,2023-02-28,清算の結了等,,,2015-10-05,1,,,,,サンワケンセツ,0
2077,9430002012826,登記記録の閉鎖等,0,2023-03-01,2023-02-27,有限会社ツカサシステム,,有限会社,北海道,札幌市清田区,里塚一条１丁目６番３号,,01,110,0040801,,,2023-02-27,清算の結了等,,,2015-10-05,1,,,,,ツカサシステム,0
2079,9440002003048,登記記録の閉鎖等,0,2023-03-01,2023-02-27,ナス・サービス株式会社,,株式会社,北海道,札幌市手稲区,星置三条４丁目２番２３号,,01,109,0060853,,,2023-02-27,清算の結了等,,,2015-10-05,1,,,,,ナスサービス,0
