sequenceNumber,corporateNumber,process,correct,updateDate,changeDate,name,nameImageId,kind,prefectureName,cityName,streetNumber,addressImageId,prefectureCode,cityCode,postCode,addressOutside,addressOutsideImageId,closeDate,closeCause,successorCorporateNumber,changeCause,assignmentDate,latest,enName,enPrefectureName,enCityName,enAddressOutside,furigana,hihyoji
8,1010001229090,新規,0,2022-08-30,2022-08-30,株式会社キューアスＨＤ,,株式会社,東京都,中央区,八丁堀３丁目１９番２号,,13,102,1040032,,,,,,,2022-08-30,1,,,,,キューアスエイチディ,0
15,1010403028371,新規,0,2022-08-30,2022-08-30,合同会社ルーバル,,合同会社,東京都,港区,西麻布４丁目８番２２－１０３号,,13,103,1060031,,,,,,,2022-08-30,1,,,,,ルーバル,0
17,1010405021291,新規,0,2022-08-30,2022-08-30,特定非営利活動法人Ｒ＆Ｄ　Ｃｅｎｔｅｒ　ｆｏｒ　Ｅｄｕｃａｔｉｏｎ　Ｓｅｒｖｉｃｅｓ　ａｓ　Ｓｏｃｉａｌ　Ｃｏｍｍｏｎ　Ｃａｐｉｔａｌ,,その他の設立登記法人,東京都,港区,白金台４丁目９番９号白金台グリーン・リーブス８０１,,13,103,1080071,,,,,,,2022-08-30,1,,,,,アールアンドディセンターフォーエデュケーションサービスズアズソーシャルコモンキャピタル,0
18,1010405021325,新規,0,2022-08-30,2022-08-30,茨木２ロジスティック特定目的会社,,その他の設立登記法人,東京都,港区,東新橋１丁目５番２号汐留シティセンター,,13,103,1050021,,,,,,,2022-08-30,1,,,,,イバラキツーロジスティック,0
19,1010405021341,新規,0,2022-08-30,2022-08-30,一般社団法人グリーンエネルギー,,その他の設立登記法人,東京都,港区,虎ノ門３丁目２２番１０－２０１号,,13,103,1050001,,,,,,,2022-08-30,1,,,,,グリーンエネルギー,0
20,1010503006698,新規,0,2022-08-30,2022-08-30,サンテ合同会社,,合同会社,東京都,台東区,駒形１丁目１番１１－７０１号,,13,106,1110043,,,,,,,2022-08-30,1,,,,,サンテ,0
22,1010601061752,新規,0,2022-08-30,2022-08-30,株式会社ＴＵホールディングス,,株式会社,東京都,江東区,亀戸６丁目５７番１７号,,13,108,1360071,,,,,,,2022-08-30,1,,,,,ティーユーホールディングス,0
29,1010901051528,新規,0,2022-08-30,2022-08-30,株式会社ＩＤＥＡＭＵ,,株式会社,東京都,世田谷区,池尻２丁目７番６－２０８号,,13,112,1540001,,,,,,,2022-08-30,1,,,,,イデアム,0
32,1011101099985,新規,0,2022-08-30,2022-08-30,株式会社華芸遊心,,株式会社,東京都,新宿区,高田馬場１丁目２８－１０バンフォーレ三慶ビル４階,,13,104,1690075,,,,,,,2022-08-30,1,,,,,カゲイユウシン,0
33,1011101099993,新規,0,2022-08-30,2022-08-30,株式会社ＡＰＯＣ,,株式会社,東京都,新宿区,高田馬場１丁目３２番１０号,,13,104,1690075,,,,,,,2022-08-30,1,,,,,アポック,0
36,1011201024075,新規,0,2022-08-30,2022-08-30,株式会社ディーロク,,株式会社,東京都,中野区,上鷺宮５丁目７番３号仁平ビル３階,,13,114,1650031,,,,,,,2022-08-30,1,,,,,,0
38,1011401024503,新規,0,2022-08-30,2022-08-30,株式会社Ｈ．ｃ．Ａ,,株式会社,東京都,板橋区,高島平１丁目５５番７号１Ｆ,,13,119,1750082,,,,,,,2022-08-30,1,,,,,エイチシーエー,0
45,1011801041214,新規,0,2022-08-30,2022-08-30,株式会社ＡＲＡＴＡ,,株式会社,東京都,葛飾区,堀切５丁目３７－６,,13,122,1240006,,,,,,,2022-08-30,1,,,,,アラタ,0
46,1011801041222,新規,0,2022-08-30,2022-08-30,株式会社ＭＥＴＥＯＲ,,株式会社,東京都,葛飾区,堀切２丁目５５番１０号,,13,122,1240006,,,,,,,2022-08-30,1,,,,,ミーティア,0
50,1012401039581,新規,0,2022-08-30,2022-08-30,株式会社ＢｌａｎｃＰｕｒ,,株式会社,東京都,多摩市,関戸３丁目１０番地の６関戸センタービル５０１,,13,224,2060011,,,,,,,2022-08-30,1,,,,,ブランピュール,0
51,1012403005565,新規,0,2022-08-30,2022-08-30,合同会社ＭａｓａＥｎｇｌｉｓｈ,,合同会社,東京都,府中市,分梅町５丁目２３番地の４５,,13,206,1830033,,,,,,,2022-08-30,1,,,,,マサイングリッシュ,0
58,1020001147969,新規,0,2022-08-30,2022-08-30,株式会社高橋興業,00127662,株式会社,神奈川県,横浜市都筑区,川和町２５７３番地１ドルフ城所ＩＩ２０２,00127663,14,118,2240057,,,,,,,2022-08-30,1,,,,,タカハシコウギョウ,0
59,1020001147977,新規,0,2022-08-30,2022-08-30,株式会社ａｖａｎｃｅ,,株式会社,神奈川県,川崎市高津区,溝口１丁目１２番２０号,,14,134,2130001,,,,,,,2022-08-30,1,,,,,アヴァンス,0
60,1020003022303,新規,0,2022-08-30,2022-08-30,Ｔカンパニー合同会社,,合同会社,神奈川県,川崎市宮前区,馬絹２丁目１４－２６,,14,136,2160035,,,,,,,2022-08-30,1,,,,,,0
61,1020003022311,新規,0,2022-08-30,2022-08-30,暖エステート合同会社,,合同会社,神奈川県,横浜市中区,本牧三之谷８番４号,,14,104,2310824,,,,,,,2022-08-30,1,,,,,ダンエステート,0
67,1021001076869,新規,0,2022-08-30,2022-08-30,株式会社ＴＥＮＤＥＲ　ＰＥＲＳＯＮ,,株式会社,神奈川県,相模原市中央区,相生３丁目１０番２２号,,14,152,2520235,,,,,,,2022-08-30,1,,,,,テンダーパーソン,0
78,1040001124826,新規,0,2022-08-30,2022-08-30,株式会社駿工工務店,,株式会社,千葉県,八千代市,大学町２丁目２番１３号,,12,221,2760003,,,,,,,2022-08-30,1,,,,,シュンコウコウムテン,0
83,1050001051607,新規,0,2022-08-30,2022-08-30,ＯＲＩＴ　ＭＯＴＯＲＳ株式会社,,株式会社,茨城県,筑西市,蓬田２９９番地１,,08,227,3091102,,,,,,,2022-08-30,1,,,,,オリットモータース,0
86,1060001035220,新規,0,2022-08-30,2022-08-30,株式会社勝栄メタル,,株式会社,栃木県,下都賀郡壬生町,あけぼの町６番１４号,,09,361,3210206,,,,,,,2022-08-30,1,,,,,ショウエイメタル,0
96,1090001017752,新規,0,2022-08-30,2022-08-30,フジオーディオ株式会社,,株式会社,山梨県,山梨市,万力１４９８番地２,,19,205,4050031,,,,,,,2022-08-30,1,,,,,,0
101,1100001035645,新規,0,2022-08-30,2022-08-30,株式会社アグリ松川,,株式会社,長野県,北安曇郡松川村,３３６３番地３６,,20,482,3998501,,,,,,,2022-08-30,1,,,,,アグリマツカワ,0
103,1110001036915,新規,0,2022-08-30,2022-08-30,株式会社カエツホールディングス,,株式会社,新潟県,胎内市,東牧７２６番地２８,,15,227,9592808,,,,,,,2022-08-30,1,,,,,カエツホールディングス,0
118,1120001248484,新規,0,2022-08-30,2022-08-30,博文大和株式会社,,株式会社,大阪府,大阪市平野区,瓜破西３丁目５番２１号,,27,126,5470025,,,,,,,2022-08-30,1,,,,,ヒロフミヤマト,0
119,1120001248492,新規,0,2022-08-30,2022-08-30,株式会社マスタード,,株式会社,大阪府,大阪市西区,北堀江２丁目７番７号１００３,,27,106,5500014,,,,,,,2022-08-30,1,,,,,マスタード,0
128,1120101066142,新規,0,2022-08-30,2022-08-30,株式会社東建,,株式会社,大阪府,和泉市,太町５２７番地の３,,27,219,5940003,,,,,,,2022-08-30,1,,,,,トウケン,0
129,1120101066150,新規,0,2022-08-30,2022-08-30,七七株式会社,,株式会社,大阪府,泉佐野市,日根野７２番３６,,27,213,5980021,,,,,,,2022-08-30,1,,,,,シチシチ,0
154,1140002051159,新規,0,2022-08-30,2022-08-30,宮田蒲団有限会社,,有限会社,兵庫県,姫路市,飾磨区妻鹿１１２３番地,,28,201,6728031,,,,,,,2022-08-30,1,,,,,,0
155,1140003018066,新規,0,2022-08-30,2022-08-30,ナレッジコーポレーション合同会社,,合同会社,兵庫県,神戸市中央区,八幡通３丁目１番９－１００６号,,28,110,6510085,,,,,,,2022-08-30,1,,,,,ナレッジコーポレーション,0
160,1180001152763,新規,0,2022-08-30,2022-08-30,ＡＢＩＬＩＴＹ株式会社,,株式会社,愛知県,名古屋市中区,錦３丁目６番１５号,,23,106,4600003,,,,,,,2022-08-30,1,,,,,アビリティ,0
172,1210001019059,新規,0,2022-08-30,2022-08-30,株式会社ねこまる,,株式会社,福井県,吉田郡永平寺町,松岡葵３丁目３７番地,,18,322,9101132,,,,,,,2022-08-30,1,,,,,ネコマル,0
177,1220001025007,新規,0,2022-08-30,2022-08-30,株式会社ＲＥ,,株式会社,石川県,金沢市,片町２丁目２１番２７号,,17,201,9200981,,,,,,,2022-08-30,1,,,,,アールイー,0
182,1240003005772,新規,0,2022-08-30,2022-08-30,ＳＫＹ　ＩＳＬＡＮＤ　ＧＲＯＵＰ合同会社,,合同会社,広島県,福山市,住吉町３－１２ピュアシティ住吉ＹＳＫビル１Ｆ,,34,207,7200809,,,,,,,2022-08-30,1,,,,,スカイアイランドグループ,0
185,1260001037188,新規,0,2022-08-30,2022-08-30,株式会社Ｔ　ｅｔｅｒｎａｌ,,株式会社,岡山県,岡山市南区,藤田４２２番地２７,,33,104,7010221,,,,,,,2022-08-30,1,,,,,ティーエターナル,0
186,1280001008773,新規,0,2022-08-30,2022-08-30,株式会社Ａｃｔ　ａｒｉｓｅ,,株式会社,島根県,出雲市,馬木北町７８番地,,32,203,6930211,,,,,,,2022-08-30,1,,,,,アクトアライズ,0
194,1320001019287,新規,0,2022-08-30,2022-08-30,株式会社さざなみ建設工業,,株式会社,大分県,大分市,里１丁目１番１９号,,44,201,8700303,,,,,,,2022-08-30,1,,,,,サザナミケンセツコウギョウ,0
223,1500003002883,新規,0,2022-08-30,2022-08-30,合同会社東雲住宅,,合同会社,愛媛県,松山市,西一万町５番地２,,38,201,7900805,,,,,,,2022-08-30,1,,,,,シノノメジュウタク,0
227,2010001229107,新規,0,2022-08-30,2022-08-30,株式会社ＫＳＦＲ３,,株式会社,東京都,千代田区,内幸町２丁目１番６号,,13,101,1000011,,,,,,,2022-08-30,1,,,,,ケイエスエフアールスリー,0
229,2010003038530,新規,0,2022-08-30,2022-08-30,合同会社葵組,,合同会社,東京都,中央区,日本橋浜町１丁目１０番９－８０１号,,13,102,1030007,,,,,,,2022-08-30,1,,,,,アオイグミ,0
230,2010003038539,新規,0,2022-08-30,2022-08-30,Ｔｈｏｒ合同会社,,合同会社,東京都,千代田区,丸の内２丁目２番３号丸の内仲通りビル６階,,13,101,1000005,,,,,,,2022-08-30,1,,,,,ソアー,0
231,2010005035451,新規,0,2022-08-30,2022-08-30,特定非営利活動法人ステラＦリーグ,,その他の設立登記法人,東京都,中央区,銀座１丁目１４番１３－６０６号,,13,102,1040061,,,,,,,2022-08-30,1,,,,,ステラエフリーグ,0
233,2010401169150,新規,0,2022-08-30,2022-08-30,ＣＯＬＩＢＲＩ株式会社,,株式会社,東京都,港区,港南４丁目７番５９－１００１号,,13,103,1080075,,,,,,,2022-08-30,1,,,,,コリブリ,0
234,2010401169398,新規,0,2022-08-30,2022-08-30,株式会社ＶＩＧＡ,,株式会社,東京都,港区,南青山３丁目１５番９号,,13,103,1070062,,,,,,,2022-08-30,1,,,,,ヴィガ,0
237,2010403028247,新規,0,2022-08-30,2022-08-30,ＮＧＨＩＳＯＮＱＵＡＮ合同会社,,合同会社,東京都,港区,浜松町２丁目２－１５浜松町ダイヤビル２Ｆ,,13,103,1050013,,,,,,,2022-08-30,1,,,,,ギソンクェン,0
238,2010403028338,新規,0,2022-08-30,2022-08-30,ＤＯＸ合同会社,,合同会社,東京都,港区,芝２丁目１６－５－７０１,,13,103,1050014,,,,,,,2022-08-30,1,,,,,ドックス,0
239,2010403028354,新規,0,2022-08-30,2022-08-30,パルボーク合同会社,,合同会社,東京都,港区,南青山２丁目２番１５号,,13,103,1070062,,,,,,,2022-08-30,1,,,,,パルボーク,0
240,2010403028395,新規,0,2022-08-30,2022-08-30,相馬土地合同会社,,合同会社,東京都,港区,高輪１丁目３番１３号ＮＢＦ高輪ビル７階,,13,103,1080074,,,,,,,2022-08-30,1,,,,,ソウマトチ,0
260,2011103012111,新規,0,2022-08-30,2022-08-30,合同会社ＧＡＢＡＮＡ,,合同会社,東京都,新宿区,西新宿３丁目３番１３号西新宿水間ビル６階,,13,104,1600023,,,,,,,2022-08-30,1,,,,,ガバナ,0
269,2011801041221,新規,0,2022-08-30,2022-08-30,成研工業株式会社,,株式会社,東京都,葛飾区,金町３丁目３０番２号,,13,122,1250042,,,,,,,2022-08-30,1,,,,,セイケンコウギョウ,0
271,2012401039580,新規,0,2022-08-30,2022-08-30,株式会社ハヤシーズ,,株式会社,東京都,調布市,仙川町１丁目４番地３８,,13,208,1820002,,,,,,,2022-08-30,1,,,,,ハヤシーズ,0
272,2012403005564,新規,0,2022-08-30,2022-08-30,ＧＡＡＭＡ　ＩＮＴＥＲＮＡＴＩＯＮＡＬ合同会社,,合同会社,東京都,多摩市,関戸２丁目３３番地の６ラサール聖蹟２号２０７,,13,224,2060011,,,,,,,2022-08-30,1,,,,,ガマインターナショナル,0
277,2020001147968,新規,0,2022-08-30,2022-08-30,ａｄａｐｔ株式会社,,株式会社,神奈川県,川崎市高津区,下野毛２丁目７－１７リラフォート２０２号室,,14,134,2130006,,,,,,,2022-08-30,1,,,,,アダプト,0
278,2020001147976,新規,0,2022-08-30,2022-08-30,株式会社星電業,,株式会社,神奈川県,横浜市旭区,南本宿町１５３番地４－１０２号室,,14,112,2410833,,,,,,,2022-08-30,1,,,,,ホシデンギョウ,0
280,2020003022310,新規,0,2022-08-30,2022-08-30,合同会社銀米衛ダイニング,,合同会社,神奈川県,横浜市金沢区,平潟町２５番１９号,,14,108,2360023,,,,,,,2022-08-30,1,,,,,ギンベエダイニング,0
283,2021001076868,新規,0,2022-08-30,2022-08-30,株式会社プラウド８,,株式会社,神奈川県,横須賀市,汐入町２丁目６番地波多ビル３階,,14,201,2380042,,,,,,,2022-08-30,1,,,,,,0
284,2021001076876,新規,0,2022-08-30,2022-08-30,株式会社ＷＡＴＡＲＵ,,株式会社,神奈川県,横須賀市,大矢部２丁目１２番７号,,14,201,2380024,,,,,,,2022-08-30,1,,,,,ワタル,0
285,2021003012078,新規,0,2022-08-30,2022-08-30,Ｆ＆Ｓ合同会社,,合同会社,神奈川県,小田原市,中町２丁目６－３８－５プティメゾン中町１－Ｂ,,14,206,2500005,,,,,,,2022-08-30,1,,,,,エフアンドエス,0
295,2030003020081,新規,0,2022-08-30,2022-08-30,合同会社りんどう,,合同会社,埼玉県,所沢市,金山町１２番１１号,,11,208,3591128,,,,,,,2022-08-30,1,,,,,リンドウ,0
320,2100001035644,新規,0,2022-08-30,2022-08-30,株式会社ＩＮＯＲＩ,,株式会社,長野県,埴科郡坂城町,大字南条４４３７番地３,,20,521,3890603,,,,,,,2022-08-30,1,,,,,イノリ,0
332,2120001248343,新規,0,2022-08-30,2022-08-30,山嵐株式会社,,株式会社,大阪府,大阪市城東区,中浜１丁目１７－１４センチュリー中浜１Ｅ,,27,118,5360024,,,,,,,2022-08-30,1,,,,,ヤマアラシ,0
333,2120001248491,新規,0,2022-08-30,2022-08-30,株式会社リング,,株式会社,大阪府,大阪市浪速区,敷津東１丁目７番１３－３０３号,,27,111,5560012,,,,,,,2022-08-30,1,,,,,リング,0
338,2120003022358,新規,0,2022-08-30,2022-08-30,ＷＬＢ合同会社,,合同会社,大阪府,寝屋川市,香里本通町１１番１号,,27,215,5720082,,,,,,,2022-08-30,1,,,,,ダブリューエルビー,0
345,2120901046409,新規,0,2022-08-30,2022-08-30,真弓ホールディングス株式会社,,株式会社,大阪府,豊中市,新千里東町２丁目４番Ｄ７－１００１号,,27,203,5600082,,,,,,,2022-08-30,1,,,,,マユミホールディングス,0
362,2140001127207,新規,0,2022-08-30,2022-08-30,株式会社中野電設,,株式会社,兵庫県,神戸市垂水区,狩口台７丁目１８番１号,,28,108,6550049,,,,,,,2022-08-30,1,,,,,ナカノデンセツ,0
363,2140001127215,新規,0,2022-08-30,2022-08-30,仁木商事株式会社,,株式会社,兵庫県,神戸市兵庫区,湊町４丁目２番２２号,,28,105,6520812,,,,,,,2022-08-30,1,,,,,ニキショウジ,0
367,2140003018065,新規,0,2022-08-30,2022-08-30,合同会社ＳＥＣ,,合同会社,兵庫県,神戸市兵庫区,水木通６丁目４番１３－３０１号,,28,105,6520802,,,,,,,2022-08-30,1,,,,,エスイーシー,0
368,2160001024476,新規,0,2022-08-30,2022-08-30,株式会社Ｐｅｒｆｏｒｍａｎｃｅ　Ｅｑｕｉｎｅ　Ｓｅｒｖｉｃｅｓ,,株式会社,滋賀県,大津市,一里山４丁目２８番２０号,,25,201,5202153,,,,,,,2022-08-30,1,,,,,パフォーマンスエクワインサービシィーズ,0
380,2180001152795,新規,0,2022-08-30,2022-08-30,株式会社リトルステップ,,株式会社,愛知県,名古屋市北区,大曽根３丁目１０番７号リニアビル１Ｂ,,23,103,4620825,,,,,,,2022-08-30,1,,,,,リトルステップ,0
387,2190001029720,新規,0,2022-08-30,2022-08-30,株式会社あぐりあーの,,株式会社,三重県,伊賀市,希望ヶ丘東２丁目４番２０号,,24,216,5191422,,,,,,,2022-08-30,1,,,,,アグリアーノ,0
392,2240003005771,新規,0,2022-08-30,2022-08-30,合同会社コタ,,合同会社,広島県,三次市,十日市東４丁目３－８,,34,209,7280013,,,,,,,2022-08-30,1,,,,,コタ,0
397,2270003001438,新規,0,2022-08-30,2022-08-30,合同会社ＰＳＯｎｅ　Ｃｏｒｄｅ,,合同会社,鳥取県,鳥取市,古海４７３番地１,,31,201,6800921,,,,,,,2022-08-30,1,,,,,ピーエスワンコーデ,0
398,2280001008772,新規,0,2022-08-30,2022-08-30,株式会社クロスオーバー,,株式会社,島根県,出雲市,上塩冶町２５６７番地１０,,32,203,6930022,,,,,,,2022-08-30,1,,,,,クロスオーバー,0
403,2290001098714,新規,0,2022-08-30,2022-08-30,株式会社ＥＢＡ,,株式会社,福岡県,福岡市城南区,片江２丁目１３番１１－１０２号フォブール花田,,40,136,8140142,,,,,,,2022-08-30,1,,,,,イービーエー,0
404,2290001098730,新規,0,2022-08-30,2022-08-30,株式会社Ｋｅｅｐ,,株式会社,福岡県,福岡市中央区,天神５丁目６番１４号リビング天神３階,,40,133,8100001,,,,,,,2022-08-30,1,,,,,キープ,0
405,2290003012887,新規,0,2022-08-30,2022-08-30,合同会社ＨＩ,,合同会社,福岡県,福岡市中央区,舞鶴３丁目７番１５号,,40,133,8100073,,,,,,,2022-08-30,1,,,,,エイチアイ,0
408,2290801028845,新規,0,2022-08-30,2022-08-30,株式会社ＯＫＥＮ,,株式会社,福岡県,行橋市,泉中央３丁目３番１号,,40,213,8240034,,,,,,,2022-08-30,1,,,,,オーケン,0
442,2430001087388,新規,0,2022-08-30,2022-08-30,株式会社どんぐりちゃん,,株式会社,北海道,札幌市西区,発寒十二条５丁目４番１８号,,01,107,0630832,,,,,,,2022-08-30,1,,,,,ドングリチャン,0
445,2430003014225,新規,0,2022-08-30,2022-08-30,合同会社Ａｒｔ　Ｈｏｍｅ,,合同会社,北海道,小樽市,松ケ枝１丁目２３番７号,,01,203,0470022,,,,,,,2022-08-30,1,,,,,アートホーム,0
453,2480003001870,新規,0,2022-08-30,2022-08-30,合同会社ＳｙＣ,,合同会社,徳島県,徳島市,川内町大松８９１番地の４島谷ハイツ,,36,201,7710131,,,,,,,2022-08-30,1,,,,,エスワイシー,0
474,3010001228999,新規,0,2022-08-30,2022-08-30,株式会社ランズライフサポート,,株式会社,東京都,千代田区,平河町１丁目６番１５号ＵＳビル８Ｆ,,13,101,1020093,,,,,,,2022-08-30,1,,,,,ランズライフサポート,0
475,3010001229080,新規,0,2022-08-30,2022-08-30,株式会社ＢＡＬＬＯＮ,,株式会社,東京都,千代田区,外神田３丁目６番４号第一勧業信用組合秋葉原ビル,,13,101,1010021,,,,,,,2022-08-30,1,,,,,バロン,0
476,3010003038513,新規,0,2022-08-30,2022-08-30,ＡＬＪ　Ｈｅａｌｔｈｃａｒｅ２合同会社,,合同会社,東京都,中央区,日本橋１丁目４番１号,,13,102,1030027,,,,,,,2022-08-30,1,,,,,エーエルジェイヘルスケアツー,0
479,3010005035491,新規,0,2022-08-30,2022-08-30,一般社団法人アイランドシップ４号,,その他の設立登記法人,東京都,中央区,八丁堀４丁目２番１０号ＡＯＪ税理士法人内,,13,102,1040032,,,,,,,2022-08-30,1,,,,,アイランドシップヨンゴウ,0
487,3010501049276,新規,0,2022-08-30,2022-08-30,株式会社清島エステート,,株式会社,東京都,台東区,浅草橋５丁目２７番６号１階,,13,106,1110053,,,,,,,2022-08-30,1,,,,,キヨシマエステート,0
488,3010501049301,新規,0,2022-08-30,2022-08-30,ＭｏｏｎＳａｉｌ株式会社,,株式会社,東京都,台東区,根岸３丁目１番１８－４０４号,,13,106,1100003,,,,,,,2022-08-30,1,,,,,ムーンセイル,0
495,3010801033236,新規,0,2022-08-30,2022-08-30,株式会社ＯＮＥ,,株式会社,東京都,大田区,北嶺町３２番８号,,13,111,1450073,,,,,,,2022-08-30,1,,,,,ワン,0
503,3010903007591,新規,0,2022-08-30,2022-08-30,合同会社ラビッツＤｏｇｓ,,合同会社,東京都,世田谷区,北烏山６丁目１１－３－２１０１,,13,112,1570061,,,,,,,2022-08-30,1,,,,,ラビッツドックス,0
515,3011101100016,新規,0,2022-08-30,2022-08-30,Ｊ．Ｊ．Ｒ．Ｐａｒｔｎｅｒｓ株式会社,,株式会社,東京都,新宿区,山吹町７番地一誠レジデンス神楽坂６０１,,13,104,1620801,,,,,,,2022-08-30,1,,,,,ジェイジェイアールパートナーズ,0
517,3011105010384,新規,0,2022-08-30,2022-08-30,一般社団法人チアフル,,その他の設立登記法人,東京都,新宿区,早稲田鶴巻町５５３番地牛山第２ビル２０１,,13,104,1620041,,,,,,,2022-08-30,1,,,,,チアフル,0
520,3011501028427,新規,0,2022-08-30,2022-08-30,株式会社ＴＲＯＩＫＡ,,株式会社,東京都,荒川区,東日暮里４丁目１３番１５マンチェスターＩＩ１Ｆ,00127654,13,118,1160014,,,,,,,2022-08-30,1,,,,,トロイカ,0
522,3011503005267,新規,0,2022-08-30,2022-08-30,東和夏日合同会社,,合同会社,東京都,荒川区,南千住３丁目２７－２浅草ビル５０８号室,,13,118,1160003,,,,,,,2022-08-30,1,,,,,トウワナツビ,0
525,3011801041212,新規,0,2022-08-30,2022-08-30,株式会社グリテート,,株式会社,東京都,葛飾区,新宿１丁目２３番３号,,13,122,1250051,,,,,,,2022-08-30,1,,,,,グリテート,0
531,3012401039588,新規,0,2022-08-30,2022-08-30,株式会社軽舟,,株式会社,東京都,府中市,八幡町３丁目１９番地の２０ＳＵＮＳＡＴＩＡ１０３号室,,13,206,1830016,,,,,,,2022-08-30,1,,,,,ケイシュウ,0
532,3012403005563,新規,0,2022-08-30,2022-08-30,合同会社ＨＭＫＴ,,合同会社,東京都,多摩市,鶴牧１丁目１７番地アルテヴィータＢ－１１０１,,13,224,2060034,,,,,,,2022-08-30,1,,,,,エイチエムケーティー,0
541,3020001147967,新規,0,2022-08-30,2022-08-30,ＮＯＢＵアセットオペレーション株式会社,,株式会社,神奈川県,横浜市南区,永田南２丁目１２－４５,,14,105,2320073,,,,,,,2022-08-30,1,,,,,ノブアセットオペレーション,0
542,3020001147975,新規,0,2022-08-30,2022-08-30,ＹＸＷ株式会社,,株式会社,神奈川県,横浜市港北区,新横浜２丁目１８番地４レアシス新横浜パークフロント,,14,109,2220033,,,,,,,2022-08-30,1,,,,,イーダブル,0
547,3020005015641,新規,0,2022-08-30,2022-08-30,一般社団法人ちょっとそこまで,,その他の設立登記法人,神奈川県,川崎市高津区,溝口５丁目３番２８号,,14,134,2130001,,,,,,,2022-08-30,1,,,,,チョットソコマデ,0
549,3021001076867,新規,0,2022-08-30,2022-08-30,株式会社ミライズタクティメント,,株式会社,神奈川県,綾瀬市,深谷南４丁目３番７－１号,,14,218,2521106,,,,,,,2022-08-30,1,,,,,ミライズタクティメント,0
551,3021003012044,新規,0,2022-08-30,2022-08-30,合同会社ＥＮＤＬＥＳＳ,,合同会社,神奈川県,南足柄市,和田河原７８８－７,,14,217,2500112,,,,,,,2022-08-30,1,,,,,エンドレス,0
552,3021003012077,新規,0,2022-08-30,2022-08-30,合同会社ヌマタ,,合同会社,神奈川県,鎌倉市,雪ノ下１丁目６番６号,,14,204,2480005,,,,,,,2022-08-30,1,,,,,ヌマタ,0
561,3030001149814,新規,0,2022-08-30,2022-08-30,株式会社アベリア,,株式会社,埼玉県,さいたま市大宮区,大門町２丁目２０番地２ＴＭＯ北棟ＴＭＯｆｆｉｃｅ大宮,,11,103,3300846,,,,,,,2022-08-30,1,,,,,アベリア,0
575,3040001124840,新規,0,2022-08-30,2022-08-30,ＨＩＲＡＹＡＭＡホールディングス株式会社,,株式会社,千葉県,千葉市花見川区,千種町２６３番２号,,12,102,2620012,,,,,,,2022-08-30,1,,,,,ヒラヤマホールディングス,0
582,3060001035202,新規,0,2022-08-30,2022-08-30,株式会社ＩＢＴＡＳＡＭ　ＩＮＴＥＲＮＡＴＩＯＮＡＬ　ＴＲＡＤＩＮＧ,,株式会社,栃木県,小山市,城東７丁目２１番２３号サクラハイツ５号,,09,208,3230807,,,,,,,2022-08-30,1,,,,,イブタサムインターナショナルトレーディング,0
583,3060001035219,新規,0,2022-08-30,2022-08-30,ＳＫＹパーソネルサービス株式会社,,株式会社,栃木県,宇都宮市,宮山田町２３５３番地１,,09,201,3210411,,,,,,,2022-08-30,1,,,,,スカイパーソネルサービス,0
588,3070001039581,新規,0,2022-08-30,2022-08-30,株式会社ｙ．ｔｅｃ,,株式会社,群馬県,前橋市,後家町１２７番地４,,10,201,3710834,,,,,,,2022-08-30,1,,,,,ワイテック,0
600,3100003006675,新規,0,2022-08-30,2022-08-30,合同会社ホープ,,合同会社,長野県,長野市,真島町真島１７０５,,20,201,3812204,,,,,,,2022-08-30,1,,,,,ホープ,0
611,3120001248490,新規,0,2022-08-30,2022-08-30,株式会社水道設備一式,,株式会社,大阪府,大阪市住之江区,西住之江２丁目５番８号,,27,125,5590005,,,,,,,2022-08-30,1,,,,,スイドウセツビイッシキ,0
612,3120001248508,新規,0,2022-08-30,2022-08-30,株式会社八建設工業,,株式会社,大阪府,大阪市西成区,花園北２丁目１２－２７,,27,122,5570016,,,,,,,2022-08-30,1,,,,,ハチケンセツコウギョウ,0
615,3120003022365,新規,0,2022-08-30,2022-08-30,Ｊ＆Ａ合同会社,,合同会社,大阪府,大阪市都島区,毛馬町４丁目８番４－４０４号,,27,102,5340001,,,,,,,2022-08-30,1,,,,,ジェイアンドエー,0
616,3120005023163,新規,0,2022-08-30,2022-08-30,一般社団法人日本オンラインエステティック協会,,その他の設立登記法人,大阪府,大阪市福島区,福島１丁目４－４０ＪＢＳＬ梅田ビル８０１,,27,103,5530003,,,,,,,2022-08-30,1,,,,,ニホンオンラインエステティックキョウカイ,0
618,3120101066149,新規,0,2022-08-30,2022-08-30,株式会社Ｅ・Ｆ・Ｊ,,株式会社,大阪府,堺市堺区,新在家町東２丁１番２－１０１号,,27,141,5900964,,,,,,,2022-08-30,1,,,,,イーエフジェイ,0
635,3130003008149,新規,0,2022-08-30,2022-08-30,合同会社しばこし,,合同会社,京都府,木津川市,加茂町里中森２番地１０,,26,214,6191152,,,,,,,2022-08-30,1,,,,,シバコシ,0
641,3140001127214,新規,0,2022-08-30,2022-08-30,株式会社ライドワークス,,株式会社,兵庫県,神戸市東灘区,本山中町２丁目１番３２号,,28,101,6580016,,,,,,,2022-08-30,1,,,,,ライドワークス,0
643,3140003018064,新規,0,2022-08-30,2022-08-30,合同会社カリドナル,,合同会社,兵庫県,姫路市,香寺町中仁野１１２番地,,28,201,6792143,,,,,,,2022-08-30,1,,,,,カリドナル,0
644,3140003018072,新規,0,2022-08-30,2022-08-30,ＡＭＣＣ合同会社,,合同会社,兵庫県,宝塚市,清荒神１丁目６番３号,,28,214,6650836,,,,,,,2022-08-30,1,,,,,エイエムシーシー,0
649,3170001017239,新規,0,2022-08-30,2022-08-30,株式会社Ｇｉｖｅ　Ｒｉｓｅ,,株式会社,和歌山県,東牟婁郡太地町,大字太地４１２３番地,,30,422,6495171,,,,,,,2022-08-30,1,,,,,ギブライズ,0
653,3180001152803,新規,0,2022-08-30,2022-08-30,カンパニュラ株式会社,,株式会社,愛知県,名古屋市昭和区,出口町１丁目１番地の１,,23,107,4660041,,,,,,,2022-08-30,1,,,,,カンパニュラ,0
662,3190001029728,新規,0,2022-08-30,2022-08-30,＿鴻中華物産商貿株式会社,00127659,株式会社,三重県,津市,本町２９番２４号ドゥナーレ津新町Ｉ－１０５号室,00127660,24,201,5140831,,,,,,,2022-08-30,1,,,,,シンコウチュウカブッサンショウボウ,0
664,3190003004076,新規,0,2022-08-30,2022-08-30,合同会社未来想像,,合同会社,三重県,津市,長岡町３０２１－３,,24,201,5140064,,,,,,,2022-08-30,1,,,,,ミライソウゾウ,0
674,3230001019501,新規,0,2022-08-30,2022-08-30,株式会社ｅ’ＢＴ,,株式会社,富山県,富山市,八尾町杉田４９５番地,,16,201,9392302,,,,,,,2022-08-30,1,,,,,イービーティー,0
692,3290003012878,新規,0,2022-08-30,2022-08-30,合同会社ＯＨサービスＦｕｋｕｏｋａ,,合同会社,福岡県,福岡市中央区,赤坂１丁目７－５ロマネスク赤坂第２・２０５号室,,40,133,8100042,,,,,,,2022-08-30,1,,,,,オーエイチサービスフクオカ,0
693,3290005018790,新規,0,2022-08-30,2022-08-30,一般社団法人日本地域振興機構,,その他の設立登記法人,福岡県,久留米市,北野町大城３２番地,,40,203,8301104,,,,,,,2022-08-30,1,,,,,ニホンチイキシンコウキコウ,0
696,3290801028844,新規,0,2022-08-30,2022-08-30,株式会社坂井工業,,株式会社,福岡県,北九州市八幡西区,金剛１丁目７番６０号,,40,109,8071263,,,,,,,2022-08-30,1,,,,,サカイコウギョウ,0
699,3310001018008,新規,0,2022-08-30,2022-08-30,株式会社來輪,,株式会社,長崎県,諫早市,川内町４０１番地,,42,204,8540037,,,,,,,2022-08-30,1,,,,,ライワ,0
704,3330005010545,新規,0,2022-08-30,2022-08-30,農事組合法人草原再生オペレーター組合,,その他の設立登記法人,熊本県,阿蘇市,一の宮町宮地５８１６,,43,214,8692612,,,,,,,2022-08-30,1,,,,,ソウゲンサイセイオペレータークミアイ,0
707,3340001024993,新規,0,2022-08-30,2022-08-30,株式会社竹山畜産,,株式会社,鹿児島県,指宿市,新西方３０７２番地１,,46,210,8910313,,,,,,,2022-08-30,1,,,,,タケヤマチクサン,0
709,3360001030899,新規,0,2022-08-30,2022-08-30,株式会社高瀬,,株式会社,沖縄県,名護市,字宇茂佐１６０８番地－３０１,,47,209,9050006,,,,,,,2022-08-30,1,,,,,タカセ,0
710,3360003012268,新規,0,2022-08-30,2022-08-30,星海合同会社,,合同会社,沖縄県,島尻郡八重瀬町,字東風平１１６０番地２６,,47,362,9010401,,,,,,,2022-08-30,1,,,,,ホシウミ,0
726,3430001021412,新規,0,2022-08-30,2022-08-30,株式会社藤和建商,,株式会社,北海道,札幌市清田区,平岡八条２丁目２－１３,,01,110,0040878,,,,,,,2022-08-30,1,,,,,トウワケンショウ,0
731,3430001087288,新規,0,2022-08-30,2022-08-30,株式会社伊貸農園,,株式会社,北海道,有珠郡壮瞥町,字南久保内１４２番地１,,01,575,0520116,,,,,,,2022-08-30,1,,,,,イカシノウエン,0
732,3430001087346,新規,0,2022-08-30,2022-08-30,Ｈ．Ｗ．Ｃｏｍｍｕｎｉｃａｔｉｏｎ株式会社,,株式会社,北海道,札幌市東区,北二十四条東１３丁目１－６－１０２,,01,103,0650024,,,,,,,2022-08-30,1,,,,,エイチダブルコミュニケーション,0
733,3430001087370,新規,0,2022-08-30,2022-08-30,株式会社ニセコリゾート香港不動産管理,,株式会社,北海道,虻田郡倶知安町,南三条西２丁目８番地３５,,01,400,0440033,,,,,,,2022-08-30,1,,,,,ニセコリゾートホンコンフドウサンカンリ,0
734,3430001087379,新規,0,2022-08-30,2022-08-30,株式会社ＮＤＬ,,株式会社,北海道,札幌市東区,栄町６７８番地,,01,103,0070852,,,,,,,2022-08-30,1,,,,,エヌディーエル,0
735,3430001087387,新規,0,2022-08-30,2022-08-30,ウェルスリー株式会社,,株式会社,北海道,札幌市西区,発寒三条１丁目２－２５,,01,107,0630823,,,,,,,2022-08-30,1,,,,,ウェルスリー,0
738,3430003014232,新規,0,2022-08-30,2022-08-30,合同会社レーブ,,合同会社,北海道,札幌市北区,新琴似六条１４丁目３番７号,,01,102,0010906,,,,,,,2022-08-30,1,,,,,レーブ,0
746,4010001229022,新規,0,2022-08-30,2022-08-30,インフォテックプラス株式会社,,株式会社,東京都,中央区,銀座１丁目１２番４号Ｎ＆ＥＢＬＤ．６Ｆ,,13,102,1040061,,,,,,,2022-08-30,1,,,,,インフォテックプラス,0
747,4010001229055,新規,0,2022-08-30,2022-08-30,ＳｔａｎｄａｒｄＬＳ株式会社,,株式会社,東京都,中央区,日本橋小舟町９番３号,,13,102,1030024,,,,,,,2022-08-30,1,,,,,スタンダードエルエス,0
756,4010401169306,新規,0,2022-08-30,2022-08-30,株式会社ＳＣＯＴ,,株式会社,東京都,港区,南青山５丁目１５番９号,,13,103,1070062,,,,,,,2022-08-30,1,,,,,スコット,0
759,4010403028336,新規,0,2022-08-30,2022-08-30,合同会社コスモスネット,,合同会社,東京都,港区,六本木７丁目１７番２２号,,13,103,1060032,,,,,,,2022-08-30,1,,,,,コスモスネット,0
772,4010901051533,新規,0,2022-08-30,2022-08-30,北鯤株式会社,,株式会社,東京都,世田谷区,深沢５丁目１３番１０号,,13,112,1580081,,,,,,,2022-08-30,1,,,,,ホッコン,0
779,4011105010383,新規,0,2022-08-30,2022-08-30,一般社団法人秋田雨雀・土方与志記念青年劇場,,その他の設立登記法人,東京都,新宿区,新宿２丁目９番２０号,,13,104,1600022,,,,,,,2022-08-30,1,,,,,アキタウジャクヒジカタヨシキネンセイネンゲキジョウ,0
781,4011201024072,新規,0,2022-08-30,2022-08-30,株式会社Ｍｕｇｉ,,株式会社,東京都,中野区,新井４丁目３１番５号,,13,114,1650026,,,,,,,2022-08-30,1,,,,,ムギ,0
790,4012403005562,新規,0,2022-08-30,2022-08-30,合同会社エトワールチョコ,,合同会社,東京都,多摩市,鶴牧１丁目１７番地アルテヴィータＢ－１１０１,,13,224,2060034,,,,,,,2022-08-30,1,,,,,エトワールチョコ,0
797,4020001147990,新規,0,2022-08-30,2022-08-30,納谷工業株式会社,,株式会社,神奈川県,横浜市磯子区,杉田３丁目１０番１２号クレール杉田３０４号,,14,107,2350033,,,,,,,2022-08-30,1,,,,,ナヤコウギョウ,0
803,4020003022309,新規,0,2022-08-30,2022-08-30,合同会社Ｌｕｘｕｒｙ　ｌｉｆｅ,,合同会社,神奈川県,横浜市鶴見区,尻手３丁目３番４３－６２７号,,14,101,2300003,,,,,,,2022-08-30,1,,,,,ラグジュアリーライフ,0
812,4030001149821,新規,0,2022-08-30,2022-08-30,壱集館株式会社,,株式会社,埼玉県,久喜市,南１丁目４番１２号月曜館５０２号室,,11,232,3460004,,,,,,,2022-08-30,1,,,,,イッシュウカン,0
813,4030001149846,新規,0,2022-08-30,2022-08-30,株式会社Ａｎａｌｙｓｉｓ,,株式会社,埼玉県,加須市,柳生２０８４番地２,,11,210,3491201,,,,,,,2022-08-30,1,,,,,アナリシス,0
816,4030003020096,新規,0,2022-08-30,2022-08-30,漢和ＣＪ合同会社,,合同会社,埼玉県,川口市,芝樋ノ爪１丁目１番４７号,,11,203,3330852,,,,,,,2022-08-30,1,,,,,カンワシージェイ,0
822,4040001124831,新規,0,2022-08-30,2022-08-30,株式会社ＧＡＰＳ千葉,,株式会社,千葉県,匝瑳市,八日市場ハ９１３番地２,,12,235,2892141,,,,,,,2022-08-30,1,,,,,ギャップスチバ,0
823,4040001124856,新規,0,2022-08-30,2022-08-30,日本Ｓｉｎｓｋｉ株式会社,,株式会社,千葉県,市川市,南八幡１丁目２１番１９号,,12,203,2720023,,,,,,,2022-08-30,1,,,,,ニホンシンスキ,0
826,4040003020707,新規,0,2022-08-30,2022-08-30,合同会社ＳＨＩＭＡＢＲＯＳ,,合同会社,千葉県,柏市,高田７５１番地３０,,12,217,2770861,,,,,,,2022-08-30,1,,,,,シマブロス,0
828,4050003006804,新規,0,2022-08-30,2022-08-30,大洗カオス合同会社,,合同会社,茨城県,東茨城郡大洗町,磯浜町２８９９－４,,08,309,3111301,,,,,,,2022-08-30,1,,,,,オオアライカオス,0
830,4060001035218,新規,0,2022-08-30,2022-08-30,株式会社ＭＩＬＩ,,株式会社,栃木県,宇都宮市,日の出１丁目６番１２号,,09,201,3200832,,,,,,,2022-08-30,1,,,,,ミリ,0
831,4060003004204,新規,0,2022-08-30,2022-08-30,合同会社ペンタトラ,,合同会社,栃木県,小山市,大字犬塚９９８番地６０２,,09,208,3230811,,,,,,,2022-08-30,1,,,,,ペンタトラ,0
834,4070005010034,新規,0,2022-08-30,2022-08-30,特定非営利活動法人Ｇｅｎｋｉみなかみ,,その他の設立登記法人,群馬県,利根郡みなかみ町,猿ヶ京温泉８７６番地,,10,449,3791403,,,,,,,2022-08-30,1,,,,,ゲンキミナカミ,0
850,4120001248507,新規,0,2022-08-30,2022-08-30,株式会社ｕｌｕ,,株式会社,大阪府,大阪市生野区,勝山北５丁目１４番地１９,,27,116,5440033,,,,,,,2022-08-30,1,,,,,ウル,0
851,4120001248515,新規,0,2022-08-30,2022-08-30,株式会社永盛,,株式会社,大阪府,大阪市住吉区,長居東４丁目１５－２１－５０２,,27,120,5580004,,,,,,,2022-08-30,1,,,,,ナガモリ,0
856,4120003022364,新規,0,2022-08-30,2022-08-30,ＳＵＬＡＶ合同会社,,合同会社,大阪府,大阪市淀川区,三津屋北１丁目３５番１６号２Ｆ,,27,123,5320032,,,,,,,2022-08-30,1,,,,,スラブ,0
857,4120005023162,新規,0,2022-08-30,2022-08-30,一般社団法人日本コーチング協会,,その他の設立登記法人,大阪府,大阪市北区,梅田２丁目２番２号ヒルトンプラザウエストオフィスタワー１８階,,27,127,5300001,,,,,,,2022-08-30,1,,,,,ニホンコーチングキョウカイ,0
858,4120901046407,新規,0,2022-08-30,2022-08-30,Ｑｕｅｔｚａｌ　Ａｕｄｉｏ株式会社,,株式会社,大阪府,茨木市,新中条町１０－７メゾンブラン３０７,,27,211,5670872,,,,,,,2022-08-30,1,,,,,ケツァールオーディオ,0
883,4140003018071,新規,0,2022-08-30,2022-08-30,のこのこ農園合同会社,,合同会社,兵庫県,加古川市,上荘町都染３０３番地の１,,28,210,6751216,,,,,,,2022-08-30,1,,,,,ノコノコノウエン,0
892,4170001017254,新規,0,2022-08-30,2022-08-30,豊瑞工業株式会社,,株式会社,和歌山県,和歌山市,府中８７０－２・２Ｆ０１,,30,201,6496338,,,,,,,2022-08-30,1,,,,,ホウズイコウギョウ,0
899,4180005019907,新規,0,2022-08-30,2022-08-30,アルヴァリンク社会保険労務士法人,,その他の設立登記法人,愛知県,名古屋市中区,丸の内３丁目６番２７号ＥＢＳビル５階Ａ１２,,23,106,4600002,,,,,,,2022-08-30,1,,,,,アルヴァリンク,0
902,4190001029727,新規,0,2022-08-30,2022-08-30,株式会社ＮＡＧＩＳＡ,,株式会社,三重県,伊勢市,御薗町長屋１０８１番地４,,24,203,5160804,,,,,,,2022-08-30,1,,,,,ナギサ,0
903,4190003004075,新規,0,2022-08-30,2022-08-30,ＴＯＫＡＩ　ＡＩＲＳＯＦＴ　ＰＡＲＫ合同会社,,合同会社,三重県,亀山市,小川町字松原１３５８－１,,24,210,5190161,,,,,,,2022-08-30,1,,,,,トウカイエアソフトパーク,0
909,4270005005526,新規,0,2022-08-30,2022-08-30,一般社団法人ＯＲＣＡ．Ｐｒｏｃｅｄｕｒｅ,,その他の設立登記法人,鳥取県,米子市,上福原２３５番地９,,31,202,6830004,,,,,,,2022-08-30,1,,,,,オルカプロシージャ,0
914,4290001098729,新規,0,2022-08-30,2022-08-30,株式会社スパイス＆ＳＰＩＣＥ,,株式会社,福岡県,春日市,春日原東町３丁目１４番地３０１号,,40,218,8160801,,,,,,,2022-08-30,1,,,,,スパイスアンドスパイス,0
915,4290001098737,新規,0,2022-08-30,2022-08-30,株式会社三成,,株式会社,福岡県,福岡市早良区,大字石釜字唐ノ原３２番６２,,40,137,8111132,,,,,,,2022-08-30,1,,,,,サンセイ,0
929,4330005010552,新規,0,2022-08-30,2022-08-30,一般社団法人多世代交流スペースミモザ,,その他の設立登記法人,熊本県,熊本市中央区,壺川１丁目１番４号,,43,101,8600076,,,,,,,2022-08-30,1,,,,,タセダイコウリュウスペースミモザ,0
932,4350001017921,新規,0,2022-08-30,2022-08-30,株式会社食哲,,株式会社,宮崎県,宮崎市,大島町笹原２００３番地１,,45,201,8800824,,,,,,,2022-08-30,1,,,,,タベテツ,0
937,4360003012250,新規,0,2022-08-30,2022-08-30,合同会社楽,,合同会社,沖縄県,うるま市,与那城桃原５３１番１号,,47,213,9042425,,,,,,,2022-08-30,1,,,,,ガク,0
939,4370001048989,新規,0,2022-08-30,2022-08-30,株式会社ＥＱ　ＬＡＢＯ,,株式会社,宮城県,仙台市青葉区,北目町６番６－２０２号,,04,101,9800023,,,,,,,2022-08-30,1,,,,,イーキューラボ,0
954,4420005007820,新規,0,2022-08-30,2022-08-30,一般社団法人青森県終活支援隊,,その他の設立登記法人,青森県,青森市,桜川９丁目１４番３号,,02,201,0300945,,,,,,,2022-08-30,1,,,,,アオモリケンシュウカツシエンタイ,0
961,4430001087378,新規,0,2022-08-30,2022-08-30,株式会社ニューフィールド,,株式会社,北海道,札幌市中央区,南一条西２３丁目１番８号チサンマンション札幌第８－５０１号室,,01,101,0640801,,,,,,,2022-08-30,1,,,,,ニューフィールド,0
962,4430003014231,新規,0,2022-08-30,2022-08-30,ＵＴＡ合同会社,,合同会社,北海道,札幌市中央区,南二条西１０丁目１０００－２４ＴＡＫＥＴＯビル,,01,101,0600062,,,,,,,2022-08-30,1,,,,,ウタ,0
964,4470001019237,新規,0,2022-08-30,2022-08-30,株式会社フレックスプランニング,,株式会社,香川県,綾歌郡宇多津町,３３４３番地４,,37,386,7690210,,,,,,,2022-08-30,1,,,,,フレックスプランニング,0
982,5010003038528,新規,0,2022-08-30,2022-08-30,ＧＥＴＴＲ　ＪＰ合同会社,,合同会社,東京都,中央区,八丁堀４丁目４番４号３階,,13,102,1040032,,,,,,,2022-08-30,1,,,,,ゲッタージェーピー,0
991,5010401169024,新規,0,2022-08-30,2022-08-30,株式会社オープンアップ,,株式会社,東京都,港区,港南２丁目３番１号,,13,103,1080075,,,,,,,2022-08-30,1,,,,,オープンアップ,0
992,5010401169404,新規,0,2022-08-30,2022-08-30,株式会社Ｃａｓａｂｌａｎｃａ,,株式会社,東京都,港区,赤坂９丁目６番１２号イワキビル３階,,13,103,1070052,,,,,,,2022-08-30,1,,,,,カサブランカ,0
993,5010403028376,新規,0,2022-08-30,2022-08-30,クロシオ・コンテンツ合同会社,,合同会社,東京都,港区,南青山４丁目１７番１４号メイポールフラット２０１,,13,103,1070062,,,,,,,2022-08-30,1,,,,,クロシオコンテンツ,0
994,5010405021288,新規,0,2022-08-30,2022-08-30,一般社団法人ロボットフレンドリー施設推進機構,,その他の設立登記法人,東京都,港区,芝公園３丁目５番８号機械振興会館５０７号室,,13,103,1050011,,,,,,,2022-08-30,1,,,,,ロボットフレンドリーシセツスイシンキコウ,0
996,5010505003335,新規,0,2022-08-30,2022-08-30,Ｆａｍｉｌｙ協同組合,,その他の設立登記法人,東京都,台東区,三筋２丁目９番６号,,13,106,1110055,,,,,,,2022-08-30,1,,,,,ファミリー,0
1002,5010601061716,新規,0,2022-08-30,2022-08-30,三吉商事株式会社,,株式会社,東京都,墨田区,向島４丁目３番８号グレイス向島２０２Ａ号室,,13,107,1310033,,,,,,,2022-08-30,1,,,,,サンキチショウジ,0
1003,5010601061757,新規,0,2022-08-30,2022-08-30,らくだシステム株式会社,,株式会社,東京都,江東区,永代２丁目２３－１０,,13,108,1350034,,,,,,,2022-08-30,1,,,,,ラクダシステム,0
1004,5010701043110,新規,0,2022-08-30,2022-08-30,株式会社ＬＶホールディングス,,株式会社,東京都,品川区,上大崎２丁目１４番９号,,13,109,1410021,,,,,,,2022-08-30,1,,,,,エルブイホールディングス,0
1008,5010801033234,新規,0,2022-08-30,2022-08-30,徳昭株式会社,,株式会社,東京都,大田区,西糀谷１丁目９－１３－１０４,,13,111,1440034,,,,,,,2022-08-30,1,,,,,トクショウ,0
1023,5011101099998,新規,0,2022-08-30,2022-08-30,株式会社ウリナラ,,株式会社,東京都,新宿区,歌舞伎町２丁目１７番１０号新宿小沼ビル７０５,,13,104,1600021,,,,,,,2022-08-30,1,,,,,ウリナラ,0
1026,5011105010382,新規,0,2022-08-30,2022-08-30,一般社団法人児童発達支援研究機構,,その他の設立登記法人,東京都,新宿区,高田馬場１丁目４番２１号サンパークマンション高田馬場１１１号,,13,104,1690075,,,,,,,2022-08-30,1,,,,,,0
1032,5011603003689,新規,0,2022-08-30,2022-08-30,合同会社Ｍ・ＨＥＲＯ,,合同会社,東京都,練馬区,土支田２丁目９番４号,,13,120,1790076,,,,,,,2022-08-30,1,,,,,エムヒーロー,0
1036,5011701025528,新規,0,2022-08-30,2022-08-30,株式会社オフィスたかはる,,株式会社,東京都,江戸川区,中葛西８丁目１７番１号,,13,123,1340083,,,,,,,2022-08-30,1,,,,,オフィスタカハル,0
1037,5012401039586,新規,0,2022-08-30,2022-08-30,クマガイデンキ株式会社,,株式会社,東京都,武蔵野市,境２丁目２４番２１号,,13,203,1800022,,,,,,,2022-08-30,1,,,,,クマガイデンキ,0
1039,5012701017226,新規,0,2022-08-30,2022-08-30,ジャパンエナジー株式会社,,株式会社,東京都,小平市,学園東町３丁目７－３４－２０３,,13,211,1870043,,,,,,,2022-08-30,1,,,,,ジャパンエナジー,0
1046,5020001147957,新規,0,2022-08-30,2022-08-30,株式会社ＰＲＥＳＴ,,株式会社,神奈川県,川崎市麻生区,高石４丁目１６番２１－７０９号,,14,137,2150003,,,,,,,2022-08-30,1,,,,,プレスト,0
1048,5020003022274,新規,0,2022-08-30,2022-08-30,合同会社ＷＯＲＬＤＳＵＲＰＲＩＳＥＦＩＴＮＥＳＳ,,合同会社,神奈川県,横浜市西区,高島２丁目１１番２号スカイメナー横浜５１９,,14,103,2200011,,,,,,,2022-08-30,1,,,,,ワールドサプライズフィットネス,0
1049,5020003022290,新規,0,2022-08-30,2022-08-30,合同会社ＭＩＲＡＩ,,合同会社,神奈川県,横浜市神奈川区,子安通１丁目２０１－５、１Ｆ,,14,102,2210021,,,,,,,2022-08-30,1,,,,,ミライ,0
1050,5020003022316,新規,0,2022-08-30,2022-08-30,合同会社ＫＵ企画,,合同会社,神奈川県,横浜市保土ケ谷区,霞台１番２－３０９号,,14,106,2400014,,,,,,,2022-08-30,1,,,,,,0
1052,5021001076832,新規,0,2022-08-30,2022-08-30,株式会社フューチャーオリエンテッド,,株式会社,神奈川県,小田原市,南鴨宮３丁目１２番１０号,,14,206,2500875,,,,,,,2022-08-30,1,,,,,フューチャーオリエンテッド,0
1062,5030001149829,新規,0,2022-08-30,2022-08-30,株式会社ＭＹ　ＣＡＲ,,株式会社,埼玉県,加須市,川口５丁目５番地４,,11,210,3470014,,,,,,,2022-08-30,1,,,,,マイカー,0
1069,5030003020079,新規,0,2022-08-30,2022-08-30,合同会社ＵｐＡｇｅｎｔ,,合同会社,埼玉県,秩父郡長瀞町,大字矢那瀬１７８番地６,,11,363,3691301,,,,,,,2022-08-30,1,,,,,アップエージェント,0
1070,5030003020095,新規,0,2022-08-30,2022-08-30,ＪＣ企画合同会社,,合同会社,埼玉県,蕨市,塚越４丁目４番１４号,,11,223,3350002,,,,,,,2022-08-30,1,,,,,ジェイシーキカク,0
1079,5040001124847,新規,0,2022-08-30,2022-08-30,株式会社ＵＳＫ,,株式会社,千葉県,船橋市,本町２丁目１番３４号船橋スカイビル２Ｆ,,12,204,2730005,,,,,,,2022-08-30,1,,,,,ユーエスケー,0
1080,5040001124855,新規,0,2022-08-30,2022-08-30,株式会社ライト,,株式会社,千葉県,佐倉市,山王１丁目２１番地１４,,12,212,2850807,,,,,,,2022-08-30,1,,,,,ライト,0
1081,5050001051603,新規,0,2022-08-30,2022-08-30,アーステックホールディングス株式会社,,株式会社,茨城県,つくば市,梶内５７７番地の４,,08,220,3050064,,,,,,,2022-08-30,1,,,,,アーステックホールディングス,0
1086,5060003004203,新規,0,2022-08-30,2022-08-30,合同会社ガナジストン,,合同会社,栃木県,栃木市,薗部町２丁目１３番６号レオネクストハイツやまいち１０６,,09,203,3280074,,,,,,,2022-08-30,1,,,,,ガナジストン,0
1090,5080101023499,新規,0,2022-08-30,2022-08-30,株式会社ケーエーエム,,株式会社,静岡県,沼津市,大手町２丁目５番１５号プレミスト沼津大手町１１０３号室,,22,203,4100801,,,,,,,2022-08-30,1,,,,,ケーエーエム,0
1091,5080401026020,新規,0,2022-08-30,2022-08-30,株式会社独研工業,,株式会社,静岡県,浜松市南区,下飯田町３１５番地,,22,134,4350027,,,,,,,2022-08-30,1,,,,,ドッケンコウギョウ,0
1092,5090001017749,新規,0,2022-08-30,2022-08-30,株式会社ＮＯＲＵＦＥ,,株式会社,山梨県,甲斐市,万才７６８番地２,,19,210,4000114,,,,,,,2022-08-30,1,,,,,ノルフェ,0
1093,5090001017757,新規,0,2022-08-30,2022-08-30,株式会社コンパス山梨,,株式会社,山梨県,甲府市,丸の内２丁目２－１ＣＲＯＳＳ５００－１Ｆ,,19,201,4000031,,,,,,,2022-08-30,1,,,,,コンパスヤマナシ,0
1111,5120001248514,新規,0,2022-08-30,2022-08-30,株式会社シンサリシー,,株式会社,大阪府,大阪市西区,南堀江１丁目２４－１２,,27,106,5500015,,,,,,,2022-08-30,1,,,,,シンサリシー,0
1112,5120001248522,新規,0,2022-08-30,2022-08-30,福田建設工業株式会社,,株式会社,大阪府,大阪市西淀川区,大野３丁目１番４号,,27,113,5550043,,,,,,,2022-08-30,1,,,,,フクダケンセツコウギョウ,0
1117,5120003022363,新規,0,2022-08-30,2022-08-30,Ｓｐｒｉｎｇ　Ｏｃｅａｎ合同会社,,合同会社,大阪府,大阪市生野区,桃谷２丁目１５番１０号,,27,116,5440034,,,,,,,2022-08-30,1,,,,,スプリングオーシャン,0
1121,5120101066155,新規,0,2022-08-30,2022-08-30,株式会社Ｂ’ｌｉｇｈｔ,,株式会社,大阪府,和泉市,三林町９８２,,27,219,5941112,,,,,,,2022-08-30,1,,,,,ブライト,0
1122,5120901046414,新規,0,2022-08-30,2022-08-30,株式会社バランス,,株式会社,大阪府,吹田市,泉町１丁目１４番１８号３階,,27,205,5640041,,,,,,,2022-08-30,1,,,,,バランス,0
1142,5140001127220,新規,0,2022-08-30,2022-08-30,株式会社ラウエア,,株式会社,兵庫県,尼崎市,久々知１丁目７番４号,,28,202,6610977,,,,,,,2022-08-30,1,,,,,ラウエア,0
1146,5150001025778,新規,0,2022-08-30,2022-08-30,Ｋｅｎ　Ｋａｔａｂａｍｉ株式会社,,株式会社,奈良県,奈良市,登美ヶ丘３丁目２番８－１号,,29,201,6310004,,,,,,,2022-08-30,1,,,,,ケンカタバミ,0
1150,5180001152801,新規,0,2022-08-30,2022-08-30,株式会社トゥクリエイト,,株式会社,愛知県,豊明市,栄町南舘３番地１５４４,,23,229,4701168,,,,,,,2022-08-30,1,,,,,トゥクリエイト,0
1153,5190001029726,新規,0,2022-08-30,2022-08-30,株式会社令和情報ファイナンス,,株式会社,三重県,伊賀市,朝屋８７４番地の１,,24,216,5180032,,,,,,,2022-08-30,1,,,,,レイワジョウホウファイナンス,0
1161,5240001060279,新規,0,2022-08-30,2022-08-30,株式会社ヤシマ測器三次,,株式会社,広島県,三次市,三次町１７５１番地２,,34,209,7280021,,,,,,,2022-08-30,1,,,,,ヤシマソッキミヨシ,0
1166,5290001098728,新規,0,2022-08-30,2022-08-30,テンキ株式会社,,株式会社,福岡県,久留米市,北野町乙吉１４９番地４,,40,203,8301124,,,,,,,2022-08-30,1,,,,,テンキ,0
1167,5290001098736,新規,0,2022-08-30,2022-08-30,株式会社羽辰國際,,株式会社,福岡県,福岡市博多区,博多駅前４丁目１３番２７号,,40,132,8120011,,,,,,,2022-08-30,1,,,,,ハシンコクサイ,0
1177,5340001024991,新規,0,2022-08-30,2022-08-30,株式会社千石モータース,,株式会社,鹿児島県,鹿児島市,下福元町６７１９番地１２,,46,201,8910144,,,,,,,2022-08-30,1,,,,,センゴクモータース,0
1179,5360001030897,新規,0,2022-08-30,2022-08-30,維度株式会社,,株式会社,沖縄県,浦添市,仲西１丁目３番地２５、５階５０２の２,,47,208,9012125,,,,,,,2022-08-30,1,,,,,イド,0
1180,5360001030906,新規,0,2022-08-30,2022-08-30,株式会社琉球Ｎｉｎｅ,,株式会社,沖縄県,那覇市,壺屋１丁目２６－２０－２０６ライオンズマンション壺屋第３,,47,201,9020065,,,,,,,2022-08-30,1,,,,,リュウキュウナイン,0
1181,5370001048988,新規,0,2022-08-30,2022-08-30,株式会社ＯＤＭ,,株式会社,宮城県,岩沼市,中央４丁目９番２３号,,04,211,9892432,,,,,,,2022-08-30,1,,,,,オーディーエム,0
1182,5370003005814,新規,0,2022-08-30,2022-08-30,ＥＨＳＡＮ　ＴＲＡＤＩＮＧ合同会社,,合同会社,宮城県,仙台市青葉区,子平町１０番３１号フルセビル３Ｃ,,04,101,9810944,,,,,,,2022-08-30,1,,,,,エヘサントレーディング,0
1186,5380001033072,新規,0,2022-08-30,2022-08-30,株式会社三プラントホールディングカンパニー,,株式会社,福島県,いわき市,小名浜字吹松２番１０,,07,204,9718101,,,,,,,2022-08-30,1,,,,,サンプラントホールディングカンパニー,0
1187,5380001033080,新規,0,2022-08-30,2022-08-30,Ｔ＆Ｔ明子株式会社,,株式会社,福島県,福島市,渡利字岩根町２２番地の２,,07,201,9608141,,,,,,,2022-08-30,1,,,,,ティアンドティアキコ,0
1199,5430001087385,新規,0,2022-08-30,2022-08-30,うわて工業株式会社,,株式会社,北海道,札幌市東区,北二十二条東２３丁目４番１１号,,01,103,0650022,,,,,,,2022-08-30,1,,,,,ウワテコウギョウ,0
1200,5430003014214,新規,0,2022-08-30,2022-08-30,合同会社グランモンタニア,,合同会社,北海道,札幌市中央区,北七条西１６丁目１番地５４パールコート桑園中央弐番館４０７号,,01,101,0600007,,,,,,,2022-08-30,1,,,,,グランモンタニア,0
1204,5470001019236,新規,0,2022-08-30,2022-08-30,株式会社小野商店,,株式会社,香川県,善通寺市,吉原町２０８８番地５,,37,204,7650061,,,,,,,2022-08-30,1,,,,,オノショウテン,0
1205,5470005006461,新規,0,2022-08-30,2022-08-30,特定非営利活動法人香川歴史的建造物保存活用会議,,その他の設立登記法人,香川県,丸亀市,中府町４丁目２番２７号,,37,202,7630033,,,,,,,2022-08-30,1,,,,,,0
1228,6010001229086,新規,0,2022-08-30,2022-08-30,ＫＴＬ株式会社,,株式会社,東京都,中央区,日本橋堀留町２丁目３番３号,,13,102,1030012,,,,,,,2022-08-30,1,,,,,ケーティーエル,0
1229,6010005035497,新規,0,2022-08-30,2022-08-30,一般社団法人アセットファイナンス名古屋,,その他の設立登記法人,東京都,中央区,京橋２丁目７番１９号,,13,102,1040031,,,,,,,2022-08-30,1,,,,,アセットファイナンスナゴヤ,0
1230,6010101015304,新規,0,2022-08-30,2022-08-30,株式会社ＨＡＣＨＩ　ＤＥＮ,,株式会社,東京都,八王子市,中野上町１丁目６番２２号ｒｅｅｍ中野上町１０１号,,13,201,1920041,,,,,,,2022-08-30,1,,,,,ハチデン,0
1240,6010403028276,新規,0,2022-08-30,2022-08-30,合同会社ｂａｌｃｏｎ,,合同会社,東京都,港区,南青山２丁目２番１５号ＷＩＮ青山５３１,,13,103,1070062,,,,,,,2022-08-30,1,,,,,バルコン,0
1241,6010403028391,新規,0,2022-08-30,2022-08-30,合同会社ＣｏａｃｈｉｎｇＨｏｕｓｅＴｓｕｍｉｋｉ,,合同会社,東京都,港区,南青山２丁目２番１５号,,13,103,1070062,,,,,,,2022-08-30,1,,,,,コーチングハウスツミキ,0
1243,6010405021279,新規,0,2022-08-30,2022-08-30,一般社団法人日本骨盤協会,,その他の設立登記法人,東京都,港区,南青山２丁目２番１５号,,13,103,1070062,,,,,,,2022-08-30,1,,,,,ニホンコツバンキョウカイ,0
1244,6010501049298,新規,0,2022-08-30,2022-08-30,千祥株式会社,,株式会社,東京都,台東区,上野３丁目３番６号,,13,106,1100005,,,,,,,2022-08-30,1,,,,,センショウ,0
1255,6010903007597,新規,0,2022-08-30,2022-08-30,合同会社ＬＡＮＩｐｌａｃｅ,,合同会社,東京都,世田谷区,等々力３丁目３３番２５号２階,,13,112,1580082,,,,,,,2022-08-30,1,,,,,ラニプレイス,0
1265,6011101100013,新規,0,2022-08-30,2022-08-30,株式会社ＭＥＹＡ,,株式会社,東京都,新宿区,新宿１丁目２４番７－８１１号,,13,104,1600022,,,,,,,2022-08-30,1,,,,,メヤ,0
1269,6011103012116,新規,0,2022-08-30,2022-08-30,合同会社ＦｏｕｒＳｏｕｎｄ,,合同会社,東京都,新宿区,西新宿７丁目１番７号新宿ダイカンプラザＡ１０１８,,13,104,1600023,,,,,,,2022-08-30,1,,,,,フォーサウンド,0
1275,6011201024070,新規,0,2022-08-30,2022-08-30,株式会社ＤｏｕｂｌｅＺ,,株式会社,東京都,中野区,南台５丁目５番７号ＧＳハイム中野南台３０６,,13,114,1640014,,,,,,,2022-08-30,1,,,,,ダブルジー,0
1282,6011701025527,新規,0,2022-08-30,2022-08-30,ｎｕｍｂｅｒ　ｅｉｇｈｔ株式会社,,株式会社,東京都,江戸川区,西小岩３丁目６番５号サキ西小岩３０２,,13,123,1330057,,,,,,,2022-08-30,1,,,,,ナンバーエイト,0
1289,6011803005237,新規,0,2022-08-30,2022-08-30,ワンビットクラーク合同会社,,合同会社,東京都,足立区,梅田８丁目１４番２,,13,121,1230851,,,,,,,2022-08-30,1,,,,,ワンビットクラーク,0
1290,6012401039585,新規,0,2022-08-30,2022-08-30,株式会社ＪＩＯプランニング,,株式会社,東京都,武蔵野市,吉祥寺本町１丁目３２番３号ロイヤルプラザ３０３号室,,13,203,1800004,,,,,,,2022-08-30,1,,,,,ジェイアイオープランニング,0
1291,6013101009003,新規,0,2022-08-30,2022-08-30,株式会社逢春建設,,株式会社,東京都,羽村市,小作台３丁目９番地４,,13,227,2050001,,,,,,,2022-08-30,1,,,,,ホウシュンケンセツ,0
1297,6020001147956,新規,0,2022-08-30,2022-08-30,株式会社Ｄｅｌｍｏｔｔｅ,,株式会社,神奈川県,横浜市港北区,大倉山４丁目２６－１６大倉山ロンシャン１０２,,14,109,2220037,,,,,,,2022-08-30,1,,,,,デルモット,0
1298,6020001147964,新規,0,2022-08-30,2022-08-30,株式会社ＰＲＯＭＥＴＨＥＵＳ,,株式会社,神奈川県,横浜市中区,長者町３丁目８番１３号ＴＫ関内プラザ７０７号室,,14,104,2310033,,,,,,,2022-08-30,1,,,,,プラメシュウス,0
1300,6020003022281,新規,0,2022-08-30,2022-08-30,合同会社４ｙｏｕ,,合同会社,神奈川県,横浜市戸塚区,戸塚町２２３０－３ヒルズ南戸塚３号棟３０１号室,,14,110,2440003,,,,,,,2022-08-30,1,,,,,フォーユー,0
1303,6021001076872,新規,0,2022-08-30,2022-08-30,ライフアドベンチャー株式会社,,株式会社,神奈川県,相模原市南区,相模台２丁目２番２号ガーデンビルＩＩ３階フェルゴ,00127653,14,153,2520321,,,,,,,2022-08-30,1,,,,,ライフアドベンチャー,0
1306,6030001149704,新規,0,2022-08-30,2022-08-30,株式会社ＧＩＦＴ,,株式会社,埼玉県,熊谷市,西野２７８番地４,,11,202,3600216,,,,,,,2022-08-30,1,,,,,ギフト,0
1307,6030001149877,新規,0,2022-08-30,2022-08-30,株式会社ＫＯＭＩ,,株式会社,埼玉県,草加市,金明町７１８番地２,,11,221,3400052,,,,,,,2022-08-30,1,,,,,コミ,0
1309,6030003020037,新規,0,2022-08-30,2022-08-30,合同会社はぐれ研究院,,合同会社,埼玉県,川口市,戸塚２丁目４番８号むさしのヴィレッジ２（１０１号室）,,11,203,3330811,,,,,,,2022-08-30,1,,,,,ハグレケンキュウイン,0
1313,6040001124846,新規,0,2022-08-30,2022-08-30,株式会社ＴＫコーポレーション,,株式会社,千葉県,船橋市,本町２丁目１番３４号船橋スカイビル２Ｆ,,12,204,2730005,,,,,,,2022-08-30,1,,,,,ティーケーコーポレーション,0
1314,6040001124862,新規,0,2022-08-30,2022-08-30,株式会社ＣＲＥＶＩＡ,,株式会社,千葉県,習志野市,津田沼１丁目１０番４１号十番街ビル４０１,,12,216,2750016,,,,,,,2022-08-30,1,,,,,クレビア,0
1315,6040003020705,新規,0,2022-08-30,2022-08-30,合同会社ヨッシーヲ,,合同会社,千葉県,千葉市中央区,末広４丁目１９番２号ペイサージュパレス３０２号,,12,101,2600843,,,,,,,2022-08-30,1,,,,,ヨッシーヲ,0
1316,6040003020721,新規,0,2022-08-30,2022-08-30,ＣＫ　ＭＯＴＯＲＳ合同会社,,合同会社,千葉県,山武市,木原１４２０－５６オフィス４,,12,237,2891212,,,,,,,2022-08-30,1,,,,,シーケーモータース,0
1324,6060003004202,新規,0,2022-08-30,2022-08-30,合同会社ＲＥＤＳ,,合同会社,栃木県,小山市,大字横倉新田５番地１０ユニゾン横倉Ｂ１０３,,09,208,3230819,,,,,,,2022-08-30,1,,,,,レッズ,0
1329,6080101023498,新規,0,2022-08-30,2022-08-30,ＯＷＡＹ株式会社,,株式会社,静岡県,御殿場市,板妻１７７番地,,22,215,4120048,,,,,,,2022-08-30,1,,,,,オーウェイ,0
1333,6100001035649,新規,0,2022-08-30,2022-08-30,株式会社ｅｍｅ．,,株式会社,長野県,松本市,中央２丁目２番１３号２階,,20,202,3900811,,,,,,,2022-08-30,1,,,,,エメ,0
1351,6120001248455,新規,0,2022-08-30,2022-08-30,株式会社赤坂プロジェクト,,株式会社,大阪府,大阪市中央区,谷町３丁目４番５号,,27,128,5400012,,,,,,,2022-08-30,1,,,,,アカサカプロジェクト,0
1352,6120001248505,新規,0,2022-08-30,2022-08-30,大門蒸溜所株式会社,,株式会社,大阪府,交野市,森南３丁目１２番２号,,27,230,5760031,,,,,,,2022-08-30,1,,,,,ダイモンジョウリュウショ,0
1353,6120001248513,新規,0,2022-08-30,2022-08-30,株式会社Ｓｏｌｅｉｌ,,株式会社,大阪府,枚方市,田口１丁目３９番３号共栄ハイツ１１号室,,27,210,5731162,,,,,,,2022-08-30,1,,,,,ソレイユ,0
1355,6120003022362,新規,0,2022-08-30,2022-08-30,合同会社ＣＧＭ,,合同会社,大阪府,大阪市北区,梅田１丁目１－３大阪駅前第３ビル２９階１－１－１号室,,27,127,5300001,,,,,,,2022-08-30,1,,,,,シージーエム,0
1356,6120003022370,新規,0,2022-08-30,2022-08-30,合同会社ビッグ・Ａ,,合同会社,大阪府,大阪市天王寺区,大道３丁目５番１５号,,27,109,5430052,,,,,,,2022-08-30,1,,,,,ビッグエー,0
1358,6120101066146,新規,0,2022-08-30,2022-08-30,株式会社パスクシステム,,株式会社,大阪府,堺市中区,平井３０８番地１,,27,142,5998251,,,,,,,2022-08-30,1,,,,,パスクシステム,0
1360,6120901046413,新規,0,2022-08-30,2022-08-30,株式会社グッドミルズ,,株式会社,大阪府,豊中市,本町６丁目６番２６号,,27,203,5600021,,,,,,,2022-08-30,1,,,,,グッドミルズ,0
1361,6120903004286,新規,0,2022-08-30,2022-08-30,合同会社ホソイ・コーポレーション,,合同会社,大阪府,豊中市,上野西１丁目１－２５,,27,203,5600011,,,,,,,2022-08-30,1,,,,,ホソイコーポレーション,0
1366,6122001036204,新規,0,2022-08-30,2022-08-30,株式会社ｅｔｅｒｎｉｔｙ,,株式会社,大阪府,柏原市,平野２丁目１３番４１号,,27,221,5820019,,,,,,,2022-08-30,1,,,,,エタニティ,0
1367,6122003002410,新規,0,2022-08-30,2022-08-30,合同会社浅井,,合同会社,大阪府,東大阪市,若草町６番１４号,,27,227,5798056,,,,,,,2022-08-30,1,,,,,アサイ,0
1388,6140005026302,新規,0,2022-08-30,2022-08-30,一般社団法人ウーマンズヴォイス協会,,その他の設立登記法人,兵庫県,神戸市中央区,播磨町４９番地,,28,110,6500036,,,,,,,2022-08-30,1,,,,,ウーマンズヴォイスキョウカイ,0
1391,6160001024472,新規,0,2022-08-30,2022-08-30,株式会社Ｔｈｒｕｓｔ　ＵＰ,,株式会社,滋賀県,愛知郡愛荘町,安孫子２６４番地,,25,425,5291234,,,,,,,2022-08-30,1,,,,,スラストアップ,0
1392,6180001152750,新規,0,2022-08-30,2022-08-30,株式会社イントレース・ジャパン,,株式会社,愛知県,名古屋市昭和区,東畑一丁目４２,,23,107,4660000,,,,,,,2022-08-30,1,,,,,イントレースジャパン,0
1393,6180001152783,新規,0,2022-08-30,2022-08-30,株式会社サケフレンズ,,株式会社,愛知県,名古屋市東区,東桜２丁目３番７号東カン名古屋キャステール８４８,,23,102,4610005,,,,,,,2022-08-30,1,,,,,サケフレンズ,0
1395,6180003024196,新規,0,2022-08-30,2022-08-30,合同会社ＹＲＣ,,合同会社,愛知県,名古屋市中区,千代田２丁目２４番１６号,,23,106,4600012,,,,,,,2022-08-30,1,,,,,ワイアールシー,0
1406,6200001040399,新規,0,2022-08-30,2022-08-30,株式会社エーエスワン,,株式会社,岐阜県,岐阜市,西河渡２丁目３番地１,,21,201,5010106,,,,,,,2022-08-30,1,,,,,エーエスワン,0
1407,6220001025010,新規,0,2022-08-30,2022-08-30,株式会社一月二日,,株式会社,石川県,野々市市,稲荷１丁目７８番地,,17,212,9218805,,,,,,,2022-08-30,1,,,,,イチガツフツカ,0
1409,6230005009256,新規,0,2022-08-30,2022-08-30,特定非営利活動法人きずな,,その他の設立登記法人,富山県,富山市,太田字住吉割２１３番１,,16,201,9398048,,,,,,,2022-08-30,1,,,,,キズナ,0
1411,6240005015443,新規,0,2022-08-30,2022-08-30,社会福祉法人松寿会,,その他の設立登記法人,広島県,福山市,神辺町大字川南１４３１－６,,34,207,7202124,,,,,,,2022-08-30,1,,,,,ショウジュカイ,0
1412,6260001037183,新規,0,2022-08-30,2022-08-30,株式会社明生環境,,株式会社,岡山県,勝田郡勝央町,黒坂４４５番地,,33,622,7094323,,,,,,,2022-08-30,1,,,,,メイセイカンキョウ,0
1420,6290003012891,新規,0,2022-08-30,2022-08-30,合同会社ｃｏｎｓｉｓｔ,,合同会社,福岡県,福岡市博多区,住吉２丁目１９番２５－４０１号,,40,132,8120018,,,,,,,2022-08-30,1,,,,,コンシスト,0
1427,6360001030905,新規,0,2022-08-30,2022-08-30,株式会社ＭＡＹＡ,,株式会社,沖縄県,那覇市,辻１丁目４番地２０号,00127655,47,201,9000037,,,,,,,2022-08-30,1,,,,,マヤ,0
1429,6370001048970,新規,0,2022-08-30,2022-08-30,株式会社タマキ,,株式会社,宮城県,仙台市青葉区,桜ケ丘４丁目３１番１５号,,04,101,9810961,,,,,,,2022-08-30,1,,,,,タマキ,0
1441,6420001017986,新規,0,2022-08-30,2022-08-30,株式会社中心建設,,株式会社,青森県,五所川原市,大字飯詰字福泉１６８番地２,,02,205,0370002,,,,,,,2022-08-30,1,,,,,ナカシンケンセツ,0
1445,6430001087384,新規,0,2022-08-30,2022-08-30,株式会社カイゼン,,株式会社,北海道,札幌市東区,北八条東４丁目１番２０号ＥＺＯＨＵＢ　ＳＡＰＰＯＲＯ,,01,103,0600908,,,,,,,2022-08-30,1,,,,,カイゼン,0
1447,6430003014213,新規,0,2022-08-30,2022-08-30,合同会社訪問介護事業所花夢,,合同会社,北海道,小樽市,桜２丁目３８番３号,,01,203,0470156,,,,,,,2022-08-30,1,,,,,ホウモンカイゴジギョウショハナユメ,0
1448,6430003014221,新規,0,2022-08-30,2022-08-30,合同会社弘文コーポレーション,,合同会社,北海道,千歳市,清流４丁目６番７号,,01,224,0660081,,,,,,,2022-08-30,1,,,,,ヒロフミコーポレーション,0
1463,6700150111561,新規,0,2022-08-30,2022-08-30,宏杰實業有限公司,,外国会社等,東京都,中野区,本町５丁目５－１,,13,114,1640012,香港新界葵涌華星街８－１０華達工業中心Ａ座１５樓１６室,,,,,,2022-08-30,1,,,,,ホンジエジツギヨウユウゲンコウシ,0
1470,7010001229093,新規,0,2022-08-30,2022-08-30,株式会社アンエンド,,株式会社,東京都,文京区,目白台１丁目１０番３号,,13,105,1120015,,,,,,,2022-08-30,1,,,,,アンエンド,0
1471,7010005035488,新規,0,2022-08-30,2022-08-30,麻布十番一般社団法人,,その他の設立登記法人,東京都,千代田区,神田小川町３丁目２６番８号神田小川町三丁目ビル６階,,13,101,1010052,,,,,,,2022-08-30,1,,,,,アザブジュウバン,0
1472,7010103001978,新規,0,2022-08-30,2022-08-30,村内エネルギーサービス合同会社,,合同会社,東京都,八王子市,左入町７８７番地,,13,201,1920012,,,,,,,2022-08-30,1,,,,,ムラウチエネルギーサービス,0
1480,7010403028374,新規,0,2022-08-30,2022-08-30,合同会社グリーンエネルギー,,合同会社,東京都,港区,虎ノ門３丁目２２番１０－２０１号,,13,103,1050001,,,,,,,2022-08-30,1,,,,,グリーンエネルギー,0
1487,7010801033224,新規,0,2022-08-30,2022-08-30,株式会社アイドシス,,株式会社,東京都,大田区,山王２丁目５番１３号大森北口ビル５Ｆ,,13,111,1430023,,,,,,,2022-08-30,1,,,,,アイドシス,0
1489,7010803004272,新規,0,2022-08-30,2022-08-30,合同会社ＬＥＸＵＳ,,合同会社,東京都,大田区,蒲田５丁目１９番１号,,13,111,1440052,,,,,,,2022-08-30,1,,,,,レクサス,0
1496,7011001149496,新規,0,2022-08-30,2022-08-30,株式会社コーダ,,株式会社,東京都,渋谷区,道玄坂１丁目１０番８号渋谷道玄坂東急ビル２Ｆ－Ｃ,,13,113,1500043,,,,,,,2022-08-30,1,,,,,コーダ,0
1497,7011003015226,新規,0,2022-08-30,2022-08-30,おこめジャパン・エンターテイメント合同会社,,合同会社,東京都,渋谷区,恵比寿１丁目８番１８号,,13,113,1500013,,,,,,,2022-08-30,1,,,,,オコメジャパンエンターテイメント,0
1502,7011103012115,新規,0,2022-08-30,2022-08-30,合同会社ＡＢＡＳ,,合同会社,東京都,新宿区,内藤町１番地５５プライムアーバン新宿内藤町３０２,,13,104,1600014,,,,,,,2022-08-30,1,,,,,アーバス,0
1503,7011105010380,新規,0,2022-08-30,2022-08-30,医療法人社団高田馬場皮膚科・形成外科,,その他の設立登記法人,東京都,新宿区,高田馬場１丁目２５番３２号１０８ビル５階,,13,104,1690075,,,,,,,2022-08-30,1,,,,,タカダノババヒフカケイセイゲカ,0
1506,7011401024506,新規,0,2022-08-30,2022-08-30,株式会社念良,,株式会社,東京都,板橋区,宮本町５５番２号桜庭ビル２階,,13,119,1740054,,,,,,,2022-08-30,1,,,,,ネンラ,0
1509,7011701025559,新規,0,2022-08-30,2022-08-30,株式会社Ｇｅｎｅｓｙ,,株式会社,東京都,江戸川区,南小岩１丁目７番１号,,13,123,1330056,,,,,,,2022-08-30,1,,,,,ジェネシー,0
1510,7011701025567,新規,0,2022-08-30,2022-08-30,株式会社富澤設計,,株式会社,東京都,江戸川区,篠崎町４丁目２４番１８号,,13,123,1330061,,,,,,,2022-08-30,1,,,,,トミザワセッケイ,0
1512,7011801041183,新規,0,2022-08-30,2022-08-30,ＡＲＥ株式会社,,株式会社,東京都,葛飾区,堀切１丁目１１番７号,,13,122,1240006,,,,,,,2022-08-30,1,,,,,エイアールイー,0
1513,7011803005236,新規,0,2022-08-30,2022-08-30,太陽商事合同会社,,合同会社,東京都,足立区,辰沼２丁目１７番２１号,,13,121,1210054,,,,,,,2022-08-30,1,,,,,タイヨウショウジ,0
1514,7012301013111,新規,0,2022-08-30,2022-08-30,株式会社キートス東京,,株式会社,東京都,町田市,忠生２丁目１２番地２５,,13,209,1940035,,,,,,,2022-08-30,1,,,,,,0
1520,7020001147963,新規,0,2022-08-30,2022-08-30,株式会社ｔｏｏｂ,,株式会社,神奈川県,横浜市港北区,箕輪町２丁目６－３－５０１,,14,109,2230051,,,,,,,2022-08-30,1,,,,,トゥーブ,0
1521,7020001147971,新規,0,2022-08-30,2022-08-30,株式会社ＥＦＦ,,株式会社,神奈川県,川崎市麻生区,上麻生６丁目３２番１０号－Ｂ１０１,,14,137,2150021,,,,,,,2022-08-30,1,,,,,イーエフエフ,0
1522,7020001147988,新規,0,2022-08-30,2022-08-30,株式会社Ａサインプロモーション,,株式会社,神奈川県,横浜市鶴見区,佃野町２９番３８号ＶＩＰ三晃ビル３Ｆ,,14,101,2300061,,,,,,,2022-08-30,1,,,,,エーサインプロモーション,0
1524,7020003022256,新規,0,2022-08-30,2022-08-30,アシストクラウド合同会社,,合同会社,神奈川県,横浜市中区,花咲町１丁目１８番地,,14,104,2310063,,,,,,,2022-08-30,1,,,,,アシストクラウド,0
1525,7020003022297,新規,0,2022-08-30,2022-08-30,合同会社Ｉｎｉｔｉｏ,,合同会社,神奈川県,横浜市旭区,さちが丘２５番地７１,,14,112,2410822,,,,,,,2022-08-30,1,,,,,イニシオ,0
1526,7020003022314,新規,0,2022-08-30,2022-08-30,合同会社ＬｏＬ,,合同会社,神奈川県,横浜市保土ケ谷区,仏向西４７番１－５０６号,,14,106,2400046,,,,,,,2022-08-30,1,,,,,エルオーエル,0
1537,7030001149793,新規,0,2022-08-30,2022-08-30,興和産業株式会社,,株式会社,埼玉県,三郷市,中央４丁目１９番地１７,,11,237,3410038,,,,,,,2022-08-30,1,,,,,コウワサンギョウ,0
1538,7030001149876,新規,0,2022-08-30,2022-08-30,株式会社賢造,,株式会社,埼玉県,朝霞市,幸町２丁目１４番３２号,,11,227,3510015,,,,,,,2022-08-30,1,,,,,ケンゾウ,0
1541,7030003020077,新規,0,2022-08-30,2022-08-30,合同会社アキ商店,,合同会社,埼玉県,所沢市,大字山口５０６６、６３－２－４０４,,11,208,3591145,,,,,,,2022-08-30,1,,,,,アキショウテン,0
1548,7040001124845,新規,0,2022-08-30,2022-08-30,株式会社ＨＲＫ,,株式会社,千葉県,千葉市中央区,栄町３６番１０号甲南アセット千葉中央ビル８Ｆ,,12,101,2600016,,,,,,,2022-08-30,1,,,,,エイチアールケー,0
1549,7040001124861,新規,0,2022-08-30,2022-08-30,ｉＲＥＳ株式会社,,株式会社,千葉県,松戸市,上本郷３５５７－１マウンテンエミネンスＶ２０２,,12,207,2710064,,,,,,,2022-08-30,1,,,,,アイレス,0
1557,7080001025156,新規,0,2022-08-30,2022-08-30,株式会社ｍａｕｖｅｒｉｒｅ,,株式会社,静岡県,焼津市,八楠４丁目８番地の３,,22,212,4250091,,,,,,,2022-08-30,1,,,,,モーブリール,0
1559,7080003002863,新規,0,2022-08-30,2022-08-30,合同会社ヒカリエ,,合同会社,静岡県,静岡市駿河区,小黒２丁目２番３号,,22,102,4228072,,,,,,,2022-08-30,1,,,,,ヒカリエ,0
1562,7080101023497,新規,0,2022-08-30,2022-08-30,グランアルコン株式会社,,株式会社,静岡県,富士市,大淵２４５１番地の３,,22,210,4170801,,,,,,,2022-08-30,1,,,,,グランアルコン,0
1565,7080401026019,新規,0,2022-08-30,2022-08-30,株式会社ＱＮＴ,,株式会社,静岡県,浜松市中区,西丘町７４７－１,,22,131,4338116,,,,,,,2022-08-30,1,,,,,,0
1572,7100001035648,新規,0,2022-08-30,2022-08-30,株式会社こころざし,,株式会社,長野県,長野市,大字鶴賀４２０番地２・２－北,,20,201,3800907,,,,,,,2022-08-30,1,,,,,ココロザシ,0
1573,7100001035656,新規,0,2022-08-30,2022-08-30,株式会社信州白樺クラフト製作所,,株式会社,長野県,北佐久郡立科町,大字芦田八ケ野１０２６番地,,20,324,3842309,,,,,,,2022-08-30,1,,,,,シンシュウシラカバクラフトセイサクジョ,0
1575,7100003006671,新規,0,2022-08-30,2022-08-30,合同会社Ｒｅｍａｋｅ　ｆｏｒ０,,合同会社,長野県,上伊那郡飯島町,飯島１６９７,,20,384,3993702,,,,,,,2022-08-30,1,,,,,リメイクフォーゼロ,0
1583,7120001248462,新規,0,2022-08-30,2022-08-30,ハロージャパン株式会社,,株式会社,大阪府,大阪市浪速区,恵美須西２丁目１４番３－５０２,,27,111,5560003,,,,,,,2022-08-30,1,,,,,ハロージャパン,0
1584,7120001248520,新規,0,2022-08-30,2022-08-30,株式会社ＬＩＴ,,株式会社,大阪府,大阪市中央区,常盤町２丁目２－１７,,27,128,5400028,,,,,,,2022-08-30,1,,,,,リット,0
1589,7120003022353,新規,0,2022-08-30,2022-08-30,復興商貿合同会社,00127652,合同会社,大阪府,門真市,大橋町１３番８号,,27,223,5710077,,,,,,,2022-08-30,1,,,,,フッコウショウボウ,0
1591,7120903004285,新規,0,2022-08-30,2022-08-30,合同会社プラスロイン,,合同会社,大阪府,三島郡島本町,広瀬１丁目４番３５－３号,,27,301,6180011,,,,,,,2022-08-30,1,,,,,プラスロイン,0
1613,7140001127227,新規,0,2022-08-30,2022-08-30,君洋株式会社,,株式会社,兵庫県,尼崎市,西難波四丁目６番２６号ＺＥＲＯビル４Ａ号室,,28,202,6600000,,,,,,,2022-08-30,1,,,,,クンヨウ,0
1633,7190001029724,新規,0,2022-08-30,2022-08-30,株式会社ＫＯＩＴＡＲＯ,,株式会社,三重県,桑名市,大字下深谷部４８４７番地７４,,24,205,5110808,,,,,,,2022-08-30,1,,,,,コイタロウ,0
1635,7200001040398,新規,0,2022-08-30,2022-08-30,パクシル株式会社,,株式会社,岐阜県,岐阜市,長良１番地１,,21,201,5020071,,,,,,,2022-08-30,1,,,,,パクシル,0
1640,7240001060277,新規,0,2022-08-30,2022-08-30,株式会社鷺島みかんじま,,株式会社,広島県,三原市,糸崎８丁目２番８号,,34,204,7290324,,,,,,,2022-08-30,1,,,,,サギシマミカンジマ,0
1641,7260001037190,新規,0,2022-08-30,2022-08-30,株式会社Ｒｅｆｌｅｃｔｉｏｎｓ,,株式会社,岡山県,岡山市北区,下石井２丁目７番４号,,33,101,7000907,,,,,,,2022-08-30,1,,,,,リフレクションズ,0
1650,7290001098718,新規,0,2022-08-30,2022-08-30,さくら株式会社,,株式会社,福岡県,福岡市西区,上山門２丁目３９番８号,,40,135,8190054,,,,,,,2022-08-30,1,,,,,サクラ,0
1651,7290001098734,新規,0,2022-08-30,2022-08-30,株式会社薬王寺ＢＡＳＥ,,株式会社,福岡県,福岡市東区,舞松原５丁目１６番９号,,40,131,8130042,,,,,,,2022-08-30,1,,,,,ヤクオウジベース,0
1652,7290001098742,新規,0,2022-08-30,2022-08-30,株式会社Ｇａｉａ‐Ｘ,,株式会社,福岡県,福岡市中央区,大名２丁目６番１１号,,40,133,8100041,,,,,,,2022-08-30,1,,,,,ガイアエックス,0
1653,7290003012890,新規,0,2022-08-30,2022-08-30,合同会社ＫＮサンク福岡,,合同会社,福岡県,福岡市早良区,昭代１丁目２１番２号,,40,137,8140012,,,,,,,2022-08-30,1,,,,,ケイエヌサンクフクオカ,0
1662,7340003003892,新規,0,2022-08-30,2022-08-30,合同会社日高畜産,,合同会社,鹿児島県,鹿児島郡十島村,大字口之島１９６番地,,46,304,8915101,,,,,,,2022-08-30,1,,,,,ヒダカチクサン,0
1668,7360001030887,新規,0,2022-08-30,2022-08-30,株式会社殿内,,株式会社,沖縄県,糸満市,字福地４４９番地,,47,210,9010345,,,,,,,2022-08-30,1,,,,,トノウチ,0
1669,7360003012264,新規,0,2022-08-30,2022-08-30,合同会社響き,,合同会社,沖縄県,那覇市,銘苅２丁目４番５１号ジェイ・ツービル２０３号室,,47,201,9000004,,,,,,,2022-08-30,1,,,,,ヒビキ,0
1670,7370001048994,新規,0,2022-08-30,2022-08-30,株式会社ショウエイシステム,,株式会社,宮城県,仙台市若林区,大和町５丁目３２番９－５１８号,,04,103,9840042,,,,,,,2022-08-30,1,,,,,ショウエイシステム,0
1676,7380005012616,新規,0,2022-08-30,2022-08-30,ＮＰＯ法人ほほえみ,,その他の設立登記法人,福島県,郡山市,富久山町久保田字古町２番地の８エクレール郡山１－８０８号,,07,203,9638071,,,,,,,2022-08-30,1,,,,,ホホエミ,0
1678,7430001087375,新規,0,2022-08-30,2022-08-30,北海道グリーンファーマ株式会社,,株式会社,北海道,札幌市中央区,大通東１丁目２番地,,01,101,0600041,,,,,,,2022-08-30,1,,,,,ホッカイドウグリーンファーマ,0
1679,7430001087383,新規,0,2022-08-30,2022-08-30,株式会社ＩＧＭ　ＧＡＲＡＧＥ,,株式会社,北海道,江別市,新栄台２７番地の５,,01,217,0690806,,,,,,,2022-08-30,1,,,,,アイジーエムガレージ,0
1683,7430003014229,新規,0,2022-08-30,2022-08-30,合同会社Ａｉｄｅｒ,,合同会社,北海道,札幌市東区,北七条東３丁目１５番地３０,,01,103,0600907,,,,,,,2022-08-30,1,,,,,エイダー,0
1690,7470003002238,新規,0,2022-08-30,2022-08-30,合同会社ＥＩＳＨＩＮ,,合同会社,香川県,丸亀市,川西町北１９５５番地４,,37,202,7630091,,,,,,,2022-08-30,1,,,,,エイシン,0
1703,8010001229118,新規,0,2022-08-30,2022-08-30,株式会社Ａｐｅｒｉ,,株式会社,東京都,中央区,日本橋１丁目２番１０号,,13,102,1030027,,,,,,,2022-08-30,1,,,,,アペリ,0
1704,8010101015310,新規,0,2022-08-30,2022-08-30,株式会社ＨＩＤＡＭＡＲＩ　ＨＯＵＳＥ,,株式会社,東京都,八王子市,七国４丁目１４番１９号,,13,201,1920919,,,,,,,2022-08-30,1,,,,,ヒダマリハウス,0
1713,8010401169145,新規,0,2022-08-30,2022-08-30,株式会社カレクト・ツリーコーポレーション,,株式会社,東京都,港区,南青山２丁目２番１５号,,13,103,1070062,,,,,,,2022-08-30,1,,,,,カレクトツリーコーポレーション,0
1714,8010401169319,新規,0,2022-08-30,2022-08-30,株式会社ＭＦＲＡ,,株式会社,東京都,港区,赤坂３丁目２１番２０号,,13,103,1070052,,,,,,,2022-08-30,1,,,,,エムエフアールエー,0
1718,8010503006700,新規,0,2022-08-30,2022-08-30,合同会社ねこの手,,合同会社,東京都,台東区,浅草５丁目７２－２ブリシア浅草３０３,,13,106,1110032,,,,,,,2022-08-30,1,,,,,ネコノテ,0
1723,8010601061754,新規,0,2022-08-30,2022-08-30,株式会社Ｓａｋｉｙａｍａ,,株式会社,東京都,江東区,亀戸２丁目２２番１５号第２１東ビル,,13,108,1360071,,,,,,,2022-08-30,1,,,,,サキヤマ,0
1725,8010803004271,新規,0,2022-08-30,2022-08-30,合同会社ＳＩＭ　ＴＥＣＨ,,合同会社,東京都,大田区,山王２丁目１８番１３号,,13,111,1430023,,,,,,,2022-08-30,1,,,,,シムテック,0
1726,8010805002967,新規,0,2022-08-30,2022-08-30,一般社団法人士業の独立支援,,その他の設立登記法人,東京都,大田区,東矢口３丁目３番１－９０２号,,13,111,1460094,,,,,,,2022-08-30,1,,,,,シギョウノドクリツシエン,0
1733,8011101099962,新規,0,2022-08-30,2022-08-30,Ｇ＆Ｊ株式会社,,株式会社,東京都,新宿区,高田馬場４丁目２２番３３号,,13,104,1690075,,,,,,,2022-08-30,1,,,,,ジーアンドジェイ,0
1734,8011101099987,新規,0,2022-08-30,2022-08-30,株式会社ウリシステム,,株式会社,東京都,新宿区,北新宿１丁目１番１６－４０４号ＪＳＢＬＤ,,13,104,1690074,,,,,,,2022-08-30,1,,,,,ウリシステム,0
1739,8011201024077,新規,0,2022-08-30,2022-08-30,株式会社ファーレン,,株式会社,東京都,中野区,鷺宮４丁目３１番２号,,13,114,1650032,,,,,,,2022-08-30,1,,,,,ファーレン,0
1754,8012401039583,新規,0,2022-08-30,2022-08-30,株式会社ＡＳＨ　ＧＡＲＤＥＮ,,株式会社,東京都,調布市,多摩川５丁目５番地４,,13,208,1820025,,,,,,,2022-08-30,1,,,,,アッシュガーデン,0
1755,8012403005559,新規,0,2022-08-30,2022-08-30,合同会社Ｉｎｖｅｓｔｏｒ,,合同会社,東京都,調布市,下石原１丁目７番地９,,13,208,1820034,,,,,,,2022-08-30,1,,,,,インベスター,0
1756,8012701017223,新規,0,2022-08-30,2022-08-30,株式会社ＦーＦｉｅｌｄ　Ｓｔｏｒｅ,,株式会社,東京都,西東京市,向台町６丁目１番１０号,,13,229,1880013,,,,,,,2022-08-30,1,,,,,エフフィールドストア,0
1767,8020001147979,新規,0,2022-08-30,2022-08-30,株式会社ネクスト,,株式会社,神奈川県,横浜市南区,新川町１丁目１番２号エステムコート横濱大通り公園４０３号室,,14,105,2320027,,,,,,,2022-08-30,1,,,,,ネクスト,0
1769,8020003022296,新規,0,2022-08-30,2022-08-30,合同会社ＨＲ,,合同会社,神奈川県,横浜市鶴見区,汐入町１丁目２３番地３,,14,101,2300043,,,,,,,2022-08-30,1,,,,,エイチアール,0
1774,8030001149850,新規,0,2022-08-30,2022-08-30,アサイト株式会社,,株式会社,埼玉県,草加市,瀬崎１丁目１２番３号ブルーメ谷塚２７２０３号室,,11,221,3400022,,,,,,,2022-08-30,1,,,,,アサイト,0
1775,8030001149875,新規,0,2022-08-30,2022-08-30,ボウス・ウィナー企画株式会社,,株式会社,埼玉県,飯能市,柳町３番１３号セカンドウェストビル７０１,,11,209,3570035,,,,,,,2022-08-30,1,,,,,ボウスウィナーキカク,0
1786,8040001124844,新規,0,2022-08-30,2022-08-30,株式会社ＳＴＡＧＥ　Ｊａｐａｎ,,株式会社,千葉県,千葉市中央区,栄町３６番１０号甲南アセット千葉中央ビル８Ｆ,,12,101,2600016,,,,,,,2022-08-30,1,,,,,ステージジャパン,0
1787,8040001124860,新規,0,2022-08-30,2022-08-30,株式会社恒業,,株式会社,千葉県,市原市,ちはら台東１丁目９－１８Ｐ,,12,219,2900141,,,,,,,2022-08-30,1,,,,,コウギョウ,0
1798,8070003004604,新規,0,2022-08-30,2022-08-30,合同会社ＧＹＳテクニカ,,合同会社,群馬県,太田市,熊野町２９番７号,,10,205,3730025,,,,,,,2022-08-30,1,,,,,ジーワイエステクニカ,0
1804,8080101023496,新規,0,2022-08-30,2022-08-30,株式会社山本管設,,株式会社,静岡県,富士宮市,中島町５２９番地の２４,,22,207,4180045,,,,,,,2022-08-30,1,,,,,ヤマモトカンセツ,0
1805,8100001035647,新規,0,2022-08-30,2022-08-30,株式会社Ｐｉｎｅ　ｔｒｅｅ,,株式会社,長野県,松本市,大字島内３６９８番地,,20,202,3900851,,,,,,,2022-08-30,1,,,,,パインツリー,0
1806,8100001035655,新規,0,2022-08-30,2022-08-30,北陽興産株式会社,,株式会社,長野県,東御市,加沢９５７―１０,,20,219,3890514,,,,,,,2022-08-30,1,,,,,ホクヨウコウサン,0
1827,8120001248503,新規,0,2022-08-30,2022-08-30,株式会社ゆそえる,,株式会社,大阪府,大阪市西区,南堀江４丁目１５番１６号,,27,106,5500015,,,,,,,2022-08-30,1,,,,,ユソエル,0
1832,8120003022369,新規,0,2022-08-30,2022-08-30,合同会社すずがみ,,合同会社,大阪府,大阪市北区,梅田１丁目１－３,,27,127,5300001,,,,,,,2022-08-30,1,,,,,スズガミ,0
1833,8120005023159,新規,0,2022-08-30,2022-08-30,一般社団法人サハナエンジェル,,その他の設立登記法人,大阪府,大阪市淀川区,西中島４丁目５番２６－２０１号,,27,123,5320011,,,,,,,2022-08-30,1,,,,,サハナエンジェル,0
1839,8120901046411,新規,0,2022-08-30,2022-08-30,株式会社エンラージ,,株式会社,大阪府,豊中市,緑丘４丁目２３番４の１号,,27,203,5600002,,,,,,,2022-08-30,1,,,,,エンラージ,0
1854,8140001127226,新規,0,2022-08-30,2022-08-30,株式会社しまぞろえ,,株式会社,兵庫県,淡路市,育波４５９番地１,,28,226,6561602,,,,,,,2022-08-30,1,,,,,シマゾロエ,0
1858,8170003001764,新規,0,2022-08-30,2022-08-30,合同会社ＴＭ　ｌｉｎｅ,,合同会社,和歌山県,岩出市,岡田８１２番地の１,,30,209,6496222,,,,,,,2022-08-30,1,,,,,ティーエムライン,0
1863,8180001152749,新規,0,2022-08-30,2022-08-30,株式会社ａｌｔｈｅａ,,株式会社,愛知県,名古屋市中区,錦２丁目７番７号プラウドタワー名古屋錦２５０３,,23,106,4600003,,,,,,,2022-08-30,1,,,,,アルシア,0
1866,8180005019911,新規,0,2022-08-30,2022-08-30,亜央偉協同組合,,その他の設立登記法人,愛知県,あま市,中萱津道場８５番地１,,23,237,4901113,,,,,,,2022-08-30,1,,,,,アオイ,0
1867,8190001029723,新規,0,2022-08-30,2022-08-30,株式会社ふれあいプラザひまわり,,株式会社,三重県,伊賀市,上野中町２９７６番地,,24,216,5180869,,,,,,,2022-08-30,1,,,,,フレアイプラザヒマワリ,0
1870,8200001040397,新規,0,2022-08-30,2022-08-30,株式会社Ｇｔｅｃｈ,,株式会社,岐阜県,大垣市,外渕２丁目６５番地１９,,21,202,5030934,,,,,,,2022-08-30,1,,,,,ジーテック,0
1872,8200003005654,新規,0,2022-08-30,2022-08-30,合同会社大垣ハウス,,合同会社,岐阜県,大垣市,島町２８１番地７,,21,202,5030996,,,,,,,2022-08-30,1,,,,,オオガキハウス,0
1877,8230001019505,新規,0,2022-08-30,2022-08-30,株式会社就職情報サービス,,株式会社,富山県,富山市,梅沢町３丁目８番２３号,,16,201,9300055,,,,,,,2022-08-30,1,,,,,シュウショクジョウホウサービス,0
1881,8240001060276,新規,0,2022-08-30,2022-08-30,株式会社ワンエリア,,株式会社,広島県,福山市,神辺町大字八尋８３４番地５,,34,207,7202112,,,,,,,2022-08-30,1,,,,,ワンエリア,0
1887,8250003003141,新規,0,2022-08-30,2022-08-30,合同会社ヤマケン,,合同会社,山口県,山陽小野田市,大字小野田６０９０番地１,,35,216,7560817,,,,,,,2022-08-30,1,,,,,ヤマケン,0
1898,8290001098725,新規,0,2022-08-30,2022-08-30,株式会社Ｇｌａｎｚ,,株式会社,福岡県,福岡市西区,石丸３丁目２０番１３－２０１号グランフェリオ,,40,135,8190025,,,,,,,2022-08-30,1,,,,,グランツ,0
1899,8290001098733,新規,0,2022-08-30,2022-08-30,株式会社ａｎｄ　ｗｏｒｋｓ,,株式会社,福岡県,福岡市中央区,天神４丁目６－２８天神ファーストビル７階,,40,133,8100001,,,,,,,2022-08-30,1,,,,,アンドワークス,0
1903,8290003012857,新規,0,2022-08-30,2022-08-30,合同会社江藤商会,,合同会社,福岡県,福岡市西区,大字千里４４７番地１１,,40,135,8190374,,,,,,,2022-08-30,1,,,,,エトウショウカイ,0
1908,8290803004186,新規,0,2022-08-30,2022-08-30,合同会社ラポール,,合同会社,福岡県,京都郡みやこ町,豊津１３４５－３２番地,,40,625,8240121,,,,,,,2022-08-30,1,,,,,ラポール,0
1911,8340001024989,新規,0,2022-08-30,2022-08-30,株式会社アーククロス,,株式会社,鹿児島県,鹿児島市,上之園町１６番地５,,46,201,8900052,,,,,,,2022-08-30,1,,,,,アーククロス,0
1920,8370003005811,新規,0,2022-08-30,2022-08-30,合同会社プロスパ,,合同会社,宮城県,宮城郡松島町,磯崎字磯崎３３番地,,04,401,9810212,,,,,,,2022-08-30,1,,,,,プロスパ,0
1921,8370005010529,新規,0,2022-08-30,2022-08-30,一般社団法人相続・空き家相談センターみやぎ,,その他の設立登記法人,宮城県,仙台市青葉区,中央２丁目２番１０号,,04,101,9800021,,,,,,,2022-08-30,1,,,,,ソウゾクアキヤソウダンセンターミヤギ,0
1931,8410001013266,新規,0,2022-08-30,2022-08-30,株式会社ブラザー,,株式会社,秋田県,秋田市,南通亀の町６番８号シティガーデン南通ＩＩ１００２号,00127661,05,201,0100011,,,,,,,2022-08-30,1,,,,,ブラザー,0
1932,8420001017984,新規,0,2022-08-30,2022-08-30,株式会社栄研フードサービス,,株式会社,青森県,弘前市,大字藤野１丁目４番地１,,02,202,0368326,,,,,,,2022-08-30,1,,,,,エイケンフードサービス,0
1933,8430001087374,新規,0,2022-08-30,2022-08-30,株式会社ノースワン,,株式会社,北海道,札幌市中央区,南三条西８丁目２番１号,,01,101,0600063,,,,,,,2022-08-30,1,,,,,ノースワン,0
1934,8430001087382,新規,0,2022-08-30,2022-08-30,株式会社Ｌａｕｌｅ’ａ出版,,株式会社,北海道,札幌市中央区,南一条西１６丁目１番地３２３春野ビル３Ｆ,,01,101,0600061,,,,,,,2022-08-30,1,,,,,ラウレアシュッパン,0
1935,8430003014244,新規,0,2022-08-30,2022-08-30,合同会社ジモトファブ,,合同会社,北海道,夕張郡栗山町,朝日３丁目２９番地１,,01,429,0691513,,,,,,,2022-08-30,1,,,,,ジモトファブ,0
1940,8470003002237,新規,0,2022-08-30,2022-08-30,合同会社ライフデリバー,,合同会社,香川県,高松市,三谷町７１１－１２,,37,201,7610450,,,,,,,2022-08-30,1,,,,,,0
1943,8500001024428,新規,0,2022-08-30,2022-08-30,株式会社ＳＳプロテクト,,株式会社,愛媛県,四国中央市,寒川町２５６１番地１ライフビルＮｏ．２－３０２号,,38,213,7990431,,,,,,,2022-08-30,1,,,,,エスエスプロテクト,0
1944,8500005008518,新規,0,2022-08-30,2022-08-30,特定非営利活動法人くじら,,その他の設立登記法人,愛媛県,八幡浜市,五反田１番耕地１０６番地３Ｆ,,38,204,7968010,,,,,,,2022-08-30,1,,,,,クジラ,0
1957,9010001229117,新規,0,2022-08-30,2022-08-30,ＰＮＡ設立準備株式会社,,株式会社,東京都,千代田区,麹町３丁目２番地１,,13,101,1020083,,,,,,,2022-08-30,1,,,,,ピーエヌエーセツリツジュンビ,0
1958,9010001229133,新規,0,2022-08-30,2022-08-30,株式会社バチャ・スタ,,株式会社,東京都,千代田区,神田小川町１丁目６番１号,,13,101,1010052,,,,,,,2022-08-30,1,,,,,バチャスタ,0
1959,9010001229141,新規,0,2022-08-30,2022-08-30,株式会社ＢＣＪ‐６６,,株式会社,東京都,千代田区,丸の内１丁目１番１号パレスビル５階,,13,101,1000005,,,,,,,2022-08-30,1,,,,,ビーシージェイシックスティーシックス,0
1968,9010403028356,新規,0,2022-08-30,2022-08-30,ホークマネジメント合同会社,,合同会社,東京都,港区,東新橋１丁目９番２号汐留住友ビル１６階ＣＬＳＡキャピタルパートナーズジャパン株式会社内,,13,103,1050021,,,,,,,2022-08-30,1,,,,,ホークマネジメント,0
1969,9010403028372,新規,0,2022-08-30,2022-08-30,ＳＵＭ合同会社,,合同会社,東京都,港区,芝公園２丁目２番１－８０３号,,13,103,1050011,,,,,,,2022-08-30,1,,,,,サム,0
1970,9010405021326,新規,0,2022-08-30,2022-08-30,茨木３ロジスティック特定目的会社,,その他の設立登記法人,東京都,港区,東新橋１丁目５番２号汐留シティセンター,,13,103,1050021,,,,,,,2022-08-30,1,,,,,イバラキスリーロジスティック,0
1972,9010601061753,新規,0,2022-08-30,2022-08-30,株式会社ラッドヨークフェロー,,株式会社,東京都,江東区,豊洲３丁目６番５－３９０３号,,13,108,1350061,,,,,,,2022-08-30,1,,,,,ラッドヨークフェロー,0
1977,9010703006367,新規,0,2022-08-30,2022-08-30,リュミエール合同会社,,合同会社,東京都,品川区,荏原４丁目５番１７号,,13,109,1420063,,,,,,,2022-08-30,1,,,,,リュミエール,0
1996,9011101099994,新規,0,2022-08-30,2022-08-30,株式会社ＵＮＩ．,,株式会社,東京都,新宿区,神楽坂３丁目２番８号５階,,13,104,1620825,,,,,,,2022-08-30,1,,,,,ユニ,0
1997,9011101100002,新規,0,2022-08-30,2022-08-30,株式会社リンクデザイン,,株式会社,東京都,新宿区,市谷加賀町２丁目５－４－２０７,,13,104,1620062,,,,,,,2022-08-30,1,,,,,リンクデザイン,0
1998,9011103012113,新規,0,2022-08-30,2022-08-30,ナナセ合同会社,,合同会社,東京都,新宿区,四谷坂町１２番１６号オープンレジデンシア四谷坂町７０２,,13,104,1600002,,,,,,,2022-08-30,1,,,,,ナナセ,0
1999,9011201024076,新規,0,2022-08-30,2022-08-30,株式会社メタクロシス,,株式会社,東京都,中野区,新井２丁目２０番１号,,13,114,1650026,,,,,,,2022-08-30,1,,,,,メタクロシス,0
2006,9011501028405,新規,0,2022-08-30,2022-08-30,株式会社そうそう,,株式会社,東京都,荒川区,東日暮里３丁目２８番地１号,,13,118,1160014,,,,,,,2022-08-30,1,,,,,ソウソウ,0
2009,9011801041215,新規,0,2022-08-30,2022-08-30,株式会社与平,,株式会社,東京都,葛飾区,奥戸８丁目１８番５号,,13,122,1240022,,,,,,,2022-08-30,1,,,,,ヨヘイ,0
2010,9012401039582,新規,0,2022-08-30,2022-08-30,株式会社Ｌｕｃｋ　ｅｓｔａｔｅ,,株式会社,東京都,調布市,西つつじケ丘４丁目２８番地２１,,13,208,1820006,,,,,,,2022-08-30,1,,,,,ラックエステート,0
2020,9020001147895,新規,0,2022-08-30,2022-08-30,株式会社ｄｅｐ,,株式会社,神奈川県,横浜市神奈川区,旭ケ丘１８番６号,,14,102,2210814,,,,,,,2022-08-30,1,,,,,ディーイーピー,0
2021,9020001147945,新規,0,2022-08-30,2022-08-30,株式会社Ｎｏ．Ａ,,株式会社,神奈川県,横浜市中区,千代崎町１丁目２５番地６３,,14,104,2310864,,,,,,,2022-08-30,1,,,,,ナンバーエー,0
2022,9020001147978,新規,0,2022-08-30,2022-08-30,一樹株式会社,,株式会社,神奈川県,横浜市中区,山下町５８番地エクステ山下公園２３０１号室,,14,104,2310023,,,,,,,2022-08-30,1,,,,,イチジュ,0
2023,9020001147994,新規,0,2022-08-30,2022-08-30,株式会社Ｘ　ＷＯＲＫ　ＳＴＵＤＩＯ,,株式会社,神奈川県,横浜市港北区,新吉田東７丁目４番２号,,14,109,2230058,,,,,,,2022-08-30,1,,,,,エックスワークスタジオ,0
2026,9020003022295,新規,0,2022-08-30,2022-08-30,ビズケア合同会社,,合同会社,神奈川県,横浜市都筑区,中川中央１丁目３０番１号,,14,118,2240003,,,,,,,2022-08-30,1,,,,,ビズケア,0
2033,9021005012598,新規,0,2022-08-30,2022-08-30,ＮＳＵ労働組合,,その他の設立登記法人,神奈川県,相模原市中央区,宮下３丁目１２番１４号,,14,152,2520212,,,,,,,2022-08-30,1,,,,,エヌエスユウ,0
2054,9040003020702,新規,0,2022-08-30,2022-08-30,合同会社Ｋｅｎ,,合同会社,千葉県,香取市,みずほ台２丁目１－１４９鳳翔ビル３Ｆ,,12,236,2870064,,,,,,,2022-08-30,1,,,,,ケン,0
2055,9040003020710,新規,0,2022-08-30,2022-08-30,合同会社Ｌ　Ｐｌｕｓ,,合同会社,千葉県,松戸市,稔台８丁目６番地の１４エスコート松戸新田１０３,,12,207,2702231,,,,,,,2022-08-30,1,,,,,エルプラス,0
2058,9050003006799,新規,0,2022-08-30,2022-08-30,ライズシステム合同会社,,合同会社,茨城県,つくば市,吾妻３丁目１番地１ダイアパレスつくば学園都市６０４号,,08,220,3050031,,,,,,,2022-08-30,1,,,,,ライズシステム,0
2062,9060001035213,新規,0,2022-08-30,2022-08-30,株式会社総合解体一,,株式会社,栃木県,那須塩原市,鍋掛１０８７番地７７８,,09,213,3250013,,,,,,,2022-08-30,1,,,,,ソウゴウカイタイイチ,0
2064,9060003004208,新規,0,2022-08-30,2022-08-30,合同会社しんぷる,,合同会社,栃木県,宇都宮市,関堀町９７５番地３１,,09,201,3210975,,,,,,,2022-08-30,1,,,,,シンプル,0
2069,9070003004603,新規,0,2022-08-30,2022-08-30,合同会社エクスプロラドルテクニコ,,合同会社,群馬県,太田市,熊野町３８番２２号,,10,205,3730025,,,,,,,2022-08-30,1,,,,,エクスプロラドルテクニコ,0
2080,9100001035654,新規,0,2022-08-30,2022-08-30,株式会社みなとや,,株式会社,長野県,長野市,篠ノ井布施高田１０５５番地６西棟西棟,,20,201,3888007,,,,,,,2022-08-30,1,,,,,ミナトヤ,0
2106,9120001248436,新規,0,2022-08-30,2022-08-30,コスモ開発株式会社,,株式会社,大阪府,枚方市,藤阪元町３丁目５番２６号,,27,210,5730157,,,,,,,2022-08-30,1,,,,,コスモカイハツ,0
2107,9120001248519,新規,0,2022-08-30,2022-08-30,株式会社リーチアス,,株式会社,大阪府,大阪市淀川区,西中島１丁目１４－６メディオカーサ８０２,,27,123,5320011,,,,,,,2022-08-30,1,,,,,リーチアス,0
2112,9120101066151,新規,0,2022-08-30,2022-08-30,株式会社ＴＳＵＮＡＧＵ,,株式会社,大阪府,堺市北区,百舌鳥本町１丁９番２アベニール・モズ２０４,,27,146,5918036,,,,,,,2022-08-30,1,,,,,ツナグ,0
2116,9122003002408,新規,0,2022-08-30,2022-08-30,葉月香合同会社,,合同会社,大阪府,柏原市,国分本町７丁目３番１号,,27,221,5820021,,,,,,,2022-08-30,1,,,,,ハツキカオル,0
2129,9140003018067,新規,0,2022-08-30,2022-08-30,合同会社ＪＴＡＲＣ,,合同会社,兵庫県,西宮市,大谷町７番１９－２０７号,,28,204,6620054,,,,,,,2022-08-30,1,,,,,ジェイティーアーク,0
2136,9180001152772,新規,0,2022-08-30,2022-08-30,株式会社ルイントップ,,株式会社,愛知県,名古屋市中区,富士見町１５番１号杉江レジデンス５Ｂ号室,,23,106,4600014,,,,,,,2022-08-30,1,,,,,ルイントップ,0
2137,9180001152797,新規,0,2022-08-30,2022-08-30,株式会社永野資源,,株式会社,愛知県,東海市,高横須賀町町新田３１番地の５,,23,222,4770037,,,,,,,2022-08-30,1,,,,,ナガノシゲン,0
2140,9190001029722,新規,0,2022-08-30,2022-08-30,伊勢志摩ワイナリー株式会社,,株式会社,三重県,伊勢市,大世古２丁目５番１１号,,24,203,5160079,,,,,,,2022-08-30,1,,,,,イセシマワイナリー,0
2144,9200003005653,新規,0,2022-08-30,2022-08-30,合同会社スマートクリエイト,,合同会社,岐阜県,岐阜市,本郷町４丁目４２番地２,,21,201,5008302,,,,,,,2022-08-30,1,,,,,スマートクリエイト,0
2146,9220001025008,新規,0,2022-08-30,2022-08-30,サルステック株式会社,,株式会社,石川県,河北郡内灘町,字鶴ケ丘２丁目３１１番地,,17,365,9200271,,,,,,,2022-08-30,1,,,,,サルステック,0
2152,9250005008765,新規,0,2022-08-30,2022-08-30,一般社団法人時修学館,,その他の設立登記法人,山口県,宇部市,芝中町７番２５号芝中ビル２Ｆ,,35,202,7550017,,,,,,,2022-08-30,1,,,,,ジシュウガッカン,0
2160,9290001098724,新規,0,2022-08-30,2022-08-30,ソルシエール株式会社,,株式会社,福岡県,福岡市城南区,七隈４丁目８番２０号,,40,136,8140133,,,,,,,2022-08-30,1,,,,,ソルシエール,0
2161,9290001098740,新規,0,2022-08-30,2022-08-30,株式会社ｃｈａｌｌｅｎｇｅｒ,,株式会社,福岡県,福岡市中央区,春吉３丁目１６－１９ピュア天神１階,,40,133,8100003,,,,,,,2022-08-30,1,,,,,チャレンジャー,0
2163,9290005018793,新規,0,2022-08-30,2022-08-30,ＮＰＯ法人いいすぽ,,その他の設立登記法人,福岡県,飯塚市,鯰田２４３９番地９５,,40,205,8200001,,,,,,,2022-08-30,1,,,,,イイスポ,0
2182,9380003005264,新規,0,2022-08-30,2022-08-30,合同会社ｃ．ｆ．ｓｔａｃｋ,,合同会社,福島県,郡山市,富田町字上ノ内５番地２,,07,203,9638041,,,,,,,2022-08-30,1,,,,,シーエフスタック,0
2189,9430003014235,新規,0,2022-08-30,2022-08-30,合同会社Ｂｏｄｙ　Ｌａｂｏｒａｔｏｒｙ,,合同会社,北海道,札幌市東区,北八条東９丁目１－５スウィング８９・２階,,01,103,0650008,,,,,,,2022-08-30,1,,,,,ボディラボラトリー,0
