sequenceNumber,corporateNumber,process,correct,updateDate,changeDate,name,nameImageId,kind,prefectureName,cityName,streetNumber,addressImageId,prefectureCode,cityCode,postCode,addressOutside,addressOutsideImageId,closeDate,closeCause,successorCorporateNumber,changeCause,assignmentDate,latest,enName,enPrefectureName,enCityName,enAddressOutside,furigana,hihyoji
2,1010001220611,新規,0,2021-08-25,2021-08-25,Ｒｉｎ　Ｎｉｓｅｋｏ株式会社,,株式会社,東京都,中央区,銀座１丁目６番１１号土志田ビルディング３Ｆ,,13,102,1040061,,,,,,,2021-08-25,1,,,,,リンニセコ,0
3,1010001220628,新規,0,2021-08-25,2021-08-25,株式会社フコキサンチン,,株式会社,東京都,中央区,八丁堀２丁目３０番１５号東海ビル３階,,13,102,1040032,,,,,,,2021-08-25,1,,,,,フコキサンチン,0
4,1010001220669,新規,0,2021-08-25,2021-08-25,株式会社エスケーストラテジー,,株式会社,東京都,中央区,日本橋２丁目２番３号ＲＩＳＨＥビルＵＣＦ４階,,13,102,1030027,,,,,,,2021-08-25,1,,,,,エスケーストラテジー,0
6,1010003035677,新規,0,2021-08-25,2021-08-25,合同会社ブルーム,,合同会社,東京都,文京区,本駒込５丁目１８番９号,,13,105,1130021,,,,,,,2021-08-25,1,,,,,ブルーム,0
7,1010003035685,新規,0,2021-08-25,2021-08-25,マイヤーツーブリックヴェーデ一家合同会社,,合同会社,東京都,千代田区,永田町２丁目１１番１号山王パークタワー３階,,13,101,1000014,,,,,,,2021-08-25,1,,,,,マイヤーツーブリックヴェーデイッカ,0
8,1010003035693,新規,0,2021-08-25,2021-08-25,ヒッポ企画合同会社,,合同会社,東京都,中央区,晴海２丁目２番４２－７１７号,,13,102,1040053,,,,,,,2021-08-25,1,,,,,ヒッポキカク,0
15,1010501047736,新規,0,2021-08-25,2021-08-25,テンセメックス株式会社,,株式会社,東京都,台東区,今戸２丁目２９番８号,,13,106,1110024,,,,,,,2021-08-25,1,,,,,テンセメックス,0
24,1010701041431,新規,0,2021-08-25,2021-08-25,ビズ・コーチング株式会社,,株式会社,東京都,品川区,荏原４丁目１－１－１１０２,,13,109,1420063,,,,,,,2021-08-25,1,,,,,ビズコーチング,0
28,1010901049282,新規,0,2021-08-25,2021-08-25,株式会社ＰＬＹ,,株式会社,東京都,世田谷区,太子堂３丁目７番４号,,13,112,1540004,,,,,,,2021-08-25,1,,,,,プライ,0
34,1011001142424,新規,0,2021-08-25,2021-08-25,株式会社Ａｈｕｍ,,株式会社,東京都,渋谷区,神宮前３丁目３１番１７号,,13,113,1500001,,,,,,,2021-08-25,1,,,,,アウン,0
35,1011001142481,新規,0,2021-08-25,2021-08-25,スマートリクルーティング株式会社,,株式会社,東京都,渋谷区,代々木２丁目２３番１号,,13,113,1510053,,,,,,,2021-08-25,1,,,,,スマートリクルーティング,0
38,1011003013268,新規,0,2021-08-25,2021-08-25,合同会社ｌｅ　ｌｉｎ,,合同会社,東京都,目黒区,上目黒４丁目２８番１７号,,13,110,1530051,,,,,,,2021-08-25,1,,,,,ルラン,0
46,1011101096090,新規,0,2021-08-25,2021-08-25,株式会社Ｋｅｙ　Ｗｅｓｔ　Ｃａｐｉｔａｌ,,株式会社,東京都,新宿区,新宿３丁目１２番４号新宿Ｎタウンプラザ３０９号,,13,104,1600022,,,,,,,2021-08-25,1,,,,,キーウエストキャピタル,0
47,1011101096099,新規,0,2021-08-25,2021-08-25,日本ソフトウエアソリューションズ株式会社,,株式会社,東京都,新宿区,西新宿３丁目１１番１７号,,13,104,1600023,,,,,,,2021-08-25,1,,,,,ニホンソフトウエアソリューションズ,0
49,1011201023192,新規,0,2021-08-25,2021-08-25,株式会社Ｍ　ａｎｄ　Ｋ,,株式会社,東京都,中野区,中央５丁目１０－３－２０７,,13,114,1640011,,,,,,,2021-08-25,1,,,,,エムアンドケー,0
50,1011301027119,新規,0,2021-08-25,2021-08-25,株式会社Ｄａ　Ｊｏｉｎｔ,,株式会社,東京都,杉並区,永福３丁目４２番９号,,13,115,1680064,,,,,,,2021-08-25,1,,,,,ダジョイント,0
53,1011601025350,新規,0,2021-08-25,2021-08-25,株式会社Ｐｅｔｏ,,株式会社,東京都,練馬区,豊玉北３丁目４－８ＳＴＲＡＴＡ、Ｂ－０７,,13,120,1760012,,,,,,,2021-08-25,1,,,,,ペト,0
55,1011801039621,新規,0,2021-08-25,2021-08-25,株式会社ＧＳＴ　ａｒｔ,,株式会社,東京都,葛飾区,鎌倉１丁目２４番１号,,13,122,1250053,,,,,,,2021-08-25,1,,,,,ジーエスティーアート,0
68,1013101008703,新規,0,2021-08-25,2021-08-25,株式会社藤本建装,,株式会社,東京都,青梅市,藤橋２丁目５０９番地の１,,13,205,1980022,,,,,,,2021-08-25,1,,,,,フジモトケンソウ,0
76,1013303005795,新規,0,2021-08-25,2021-08-25,合同会社ＫＳＭＣ,,合同会社,東京都,豊島区,池袋本町４丁目３番７号,,13,116,1700011,,,,,,,2021-08-25,1,,,,,ケーエスエムシー,0
85,1020003020372,新規,0,2021-08-25,2021-08-25,ｔａｋｅ　ｔｈｒｅｅ合同会社,,合同会社,神奈川県,横浜市戸塚区,前田町５１１－２前田ハイツ９号棟９５６,,14,110,2440804,,,,,,,2021-08-25,1,,,,,テイクスリー,0
88,1021001073684,新規,0,2021-08-25,2021-08-25,株式会社リアライズ,,株式会社,神奈川県,三浦市,初声町下宮田１０７９番地１３５,,14,210,2380111,,,,,,,2021-08-25,1,,,,,リアライズ,0
89,1021001073759,新規,0,2021-08-25,2021-08-25,ワーフー株式会社,,株式会社,神奈川県,南足柄市,飯沢３３６番地６,,14,217,2500122,,,,,,,2021-08-25,1,,,,,ワーフー,0
96,1030001143975,新規,0,2021-08-25,2021-08-25,株式会社ＣＲＥＡＭ,,株式会社,埼玉県,川越市,吉田新町３丁目８番地の４－２０２,,11,201,3500808,,,,,,,2021-08-25,1,,,,,クリーム,0
97,1030001143991,新規,0,2021-08-25,2021-08-25,ＢＩＧゴル株式会社,,株式会社,埼玉県,東松山市,大字大谷４１６６番１３－２０７号,,11,212,3550008,,,,,,,2021-08-25,1,,,,,ビッグゴル,0
100,1030003017830,新規,0,2021-08-25,2021-08-25,合同会社ＭＮＫ　ＴＲＡＤＥＲＳ,,合同会社,埼玉県,川口市,西川口１丁目３４番１８号,,11,203,3320021,,,,,,,2021-08-25,1,,,,,,0
114,1050003006047,新規,0,2021-08-25,2021-08-25,ＪＩＶＤＥＥＰ　Ｋ合同会社,,合同会社,茨城県,結城市,大字結城字油内７１９１番地４下り松ハイツ１－２号室,,08,207,3070001,,,,,,,2021-08-25,1,,,,,ジィブディープケイ,0
115,1060005009897,新規,0,2021-08-25,2021-08-25,一般社団法人親子英語ふれあい教育協会,,その他の設立登記法人,栃木県,宇都宮市,泉が丘２丁目１番２３号サーパス泉が丘通り１１０４,,09,201,3210952,,,,,,,2021-08-25,1,,,,,オヤコエイゴフレアイキョウイクキョウカイ,0
119,1100001034548,新規,0,2021-08-25,2021-08-25,株式会社Ｗｉｌｌｏｗ,,株式会社,長野県,佐久市,大沢４３０番地１０,,20,217,3850045,,,,,,,2021-08-25,1,,,,,ウィロー,0
130,1120001239946,新規,0,2021-08-25,2021-08-25,株式会社Ｒｅｌｉａｂｌｅ　Ｃｏｎｓｕｌｔｉｎｇ,,株式会社,大阪府,大阪市淀川区,三国本町１丁目１６番２７号ファミール北大阪パークサイド７０４号,,27,123,5320005,,,,,,,2021-08-25,1,,,,,リライアブルコンサルティング,0
138,1120101064195,新規,0,2021-08-25,2021-08-25,株式会社ティムス,,株式会社,大阪府,岸和田市,箕土路町１丁目９番３５号,,27,202,5960801,,,,,,,2021-08-25,1,,,,,ティムス,0
139,1120103004307,新規,0,2021-08-25,2021-08-25,合同会社Ｅａｒｔｈ　Ｈｏｕｓｅ,,合同会社,大阪府,泉北郡忠岡町,忠岡東１丁目２１番２７号,,27,341,5950805,,,,,,,2021-08-25,1,,,,,アースハウス,0
142,1130001069970,新規,0,2021-08-25,2021-08-25,山城商事株式会社,,株式会社,京都府,船井郡京丹波町,院内質野２５番地３２,,26,407,6220236,,,,,,,2021-08-25,1,,,,,サンジョウショウジ,0
163,1180001147540,新規,0,2021-08-25,2021-08-25,株式会社セジュールグループ,,株式会社,愛知県,名古屋市中区,千代田３丁目１１番１４号,,23,106,4600012,,,,,,,2021-08-25,1,,,,,セジュールグループ,0
164,1180001147549,新規,0,2021-08-25,2021-08-25,株式会社正玄,,株式会社,愛知県,名古屋市北区,田幡２丁目１４番６号リル黒川６Ａ,,23,103,4620843,,,,,,,2021-08-25,1,,,,,ショウゲン,0
182,1250003002884,新規,0,2021-08-25,2021-08-25,市川設備合同会社,,合同会社,山口県,岩国市,麻里布町３丁目２１－８麻里布中浜ビル５０２号,,35,208,7400018,,,,,,,2021-08-25,1,,,,,イチカワセツビ,0
184,1260001035893,新規,0,2021-08-25,2021-08-25,和一工業株式会社,,株式会社,岡山県,岡山市中区,雄町４３０番地１,,33,102,7038204,,,,,,,2021-08-25,1,,,,,カズイチコウギョウ,0
188,1290001094284,新規,0,2021-08-25,2021-08-25,中川株式会社,,株式会社,福岡県,那珂川市,大字市ノ瀬字大谷１５５３番地１,,40,231,8111233,,,,,,,2021-08-25,1,,,,,ナカガワ,0
189,1290001094292,新規,0,2021-08-25,2021-08-25,株式会社ＣｏＣｏ,,株式会社,福岡県,福岡市中央区,天神２丁目３番１０号天神パインクレスト７１９号,,40,133,8100001,,,,,,,2021-08-25,1,,,,,ココ,0
190,1290001094359,新規,0,2021-08-25,2021-08-25,株式会社ティーアンドエス,,株式会社,福岡県,福岡市中央区,薬院１丁目７番１号３Ｆ,,40,133,8100022,,,,,,,2021-08-25,1,,,,,ティーアンドエス,0
191,1290001094375,新規,0,2021-08-25,2021-08-25,株式会社夢愛,,株式会社,福岡県,朝倉市,屋永１７６０番６,,40,228,8380031,,,,,,,2021-08-25,1,,,,,ムウア,0
195,1290003011452,新規,0,2021-08-25,2021-08-25,合同会社エバーグリーン,,合同会社,福岡県,福岡市中央区,薬院１丁目５－２５第二青柳マンション５２３号室,,40,133,8100022,,,,,,,2021-08-25,1,,,,,エバーグリーン,0
196,1290003011519,新規,0,2021-08-25,2021-08-25,合同会社ＮＵＭＢＥＲ　ＳＥＶＥＮ,,合同会社,福岡県,福岡市中央区,春吉３丁目２４－１０－４０２アーバンテム春吉,,40,133,8100003,,,,,,,2021-08-25,1,,,,,ナンバーセブン,0
197,1290003011527,新規,0,2021-08-25,2021-08-25,合同会社３１８,,合同会社,福岡県,福岡市中央区,舞鶴１丁目４番７ー８１１号舞鶴一丁目団地,,40,133,8100073,,,,,,,2021-08-25,1,,,,,サンイチハチ,0
201,1290801027732,新規,0,2021-08-25,2021-08-25,株式会社ニューテライン,,株式会社,福岡県,北九州市八幡東区,枝光４丁目１－１０－１０１号,,40,108,8050002,,,,,,,2021-08-25,1,,,,,ニューテライン,0
205,1320003003603,新規,0,2021-08-25,2021-08-25,合同会社ＥｎｊｏｙＣｏｌｏｒ,,合同会社,大分県,大分市,山津町１丁目１１番２３号,,44,201,8700136,,,,,,,2021-08-25,1,,,,,エンジョイカラー,0
212,1340001024046,新規,0,2021-08-25,2021-08-25,株式会社統警,,株式会社,鹿児島県,鹿児島市,谷山中央２丁目５７０番地１,,46,201,8910141,,,,,,,2021-08-25,1,,,,,トウケイ,0
216,1350003003914,新規,0,2021-08-25,2021-08-25,合同会社ハカセ,,合同会社,宮崎県,宮崎市,清武町木原３２２６番地１,,45,201,8891601,,,,,,,2021-08-25,1,,,,,ハカセ,0
225,1400001015575,新規,0,2021-08-25,2021-08-25,株式会社メイクトラストノーサン,,株式会社,岩手県,滝沢市,鵜飼迫１０７番地５,,03,216,0200653,,,,,,,2021-08-25,1,,,,,メイクトラストノーサン,0
232,1430001084808,新規,0,2021-08-25,2021-08-25,Ｉｎｔｕｉｔｉｏｎ株式会社,,株式会社,北海道,札幌市中央区,南十条西１４丁目１番２５号,,01,101,0640810,,,,,,,2021-08-25,1,,,,,インツイション,0
233,1430003013079,新規,0,2021-08-25,2021-08-25,大志ホールディングス合同会社,,合同会社,北海道,札幌市中央区,南十一条西７丁目３番２３号２Ｆ,,01,101,0640811,,,,,,,2021-08-25,1,,,,,タイシホールディングス,0
239,1470001018670,新規,0,2021-08-25,2021-08-25,株式会社アルファサービス,,株式会社,香川県,高松市,国分寺町新居１５０３番地６,,37,201,7690101,,,,,,,2021-08-25,1,,,,,アルファサービス,0
241,1480003001715,新規,0,2021-08-25,2021-08-25,合同会社ファーメッサー,,合同会社,徳島県,徳島市,八万町法花１２９番地１,,36,201,7708083,,,,,,,2021-08-25,1,,,,,ファーメッサー,0
251,2010001220627,新規,0,2021-08-25,2021-08-25,株式会社ｎａｎｏ,,株式会社,東京都,中央区,銀座１丁目２２番１１号銀座大竹ビジデンス２階,,13,102,1040061,,,,,,,2021-08-25,1,,,,,ナノ,0
252,2010001220676,新規,0,2021-08-25,2021-08-25,株式会社エッジ,,株式会社,東京都,中央区,日本橋２丁目２番３号ＲＩＳＨＥビル４階,,13,102,1030027,,,,,,,2021-08-25,1,,,,,エッジ,0
253,2010003035676,新規,0,2021-08-25,2021-08-25,合同会社ＡＭマネジメント,,合同会社,東京都,千代田区,麹町１丁目６番９号,,13,101,1020083,,,,,,,2021-08-25,1,,,,,,0
254,2010003035684,新規,0,2021-08-25,2021-08-25,合同会社Ｆｅｅｌａ,,合同会社,東京都,中央区,銀座３丁目１４番７号ｋｏｂｉｋｉｓｓＧＩＮＺＡ７０２,,13,102,1040061,,,,,,,2021-08-25,1,,,,,フィーラ,0
259,2010401162279,新規,0,2021-08-25,2021-08-25,株式会社ＩＺＡＬＡ,,株式会社,東京都,港区,芝５丁目２６番２４号田町スクエア３Ｆ,,13,103,1080014,,,,,,,2021-08-25,1,,,,,イザラ,0
262,2010501047735,新規,0,2021-08-25,2021-08-25,株式会社ＭＵＴＩＳＴ,,株式会社,東京都,台東区,台東３丁目４４番７号,,13,106,1100016,,,,,,,2021-08-25,1,,,,,ミューティスト,0
265,2010601059837,新規,0,2021-08-25,2021-08-25,株式会社ファインプロパティ,,株式会社,東京都,墨田区,京島１丁目８番８号,,13,107,1310046,,,,,,,2021-08-25,1,,,,,ファインプロパティ,0
272,2010801032255,新規,0,2021-08-25,2021-08-25,株式会社ｃｌｏｃｈｅ,,株式会社,東京都,大田区,南雪谷１丁目１８番１３号,,13,111,1450066,,,,,,,2021-08-25,1,,,,,クロッシュ,0
279,2011001142480,新規,0,2021-08-25,2021-08-25,株式会社ジャンボプロダクション,,株式会社,東京都,渋谷区,東１丁目２６番３０号,,13,113,1500011,,,,,,,2021-08-25,1,,,,,ジャンボプロダクション,0
280,2011001142530,新規,0,2021-08-25,2021-08-25,株式会社リンドインターナショナル,,株式会社,東京都,渋谷区,恵比寿１丁目１５番９号日宝恵比寿ビル４０３,,13,113,1500013,,,,,,,2021-08-25,1,,,,,リンドインターナショナル,0
281,2011003013275,新規,0,2021-08-25,2021-08-25,合同会社ＤＤＤ　Ｐｒｏｊｅｃｔ,,合同会社,東京都,目黒区,平町１丁目１７番３号,,13,110,1520032,,,,,,,2021-08-25,1,,,,,ディーディーディープロジェクト,0
296,2011603003378,新規,0,2021-08-25,2021-08-25,合同会社ハーモニー,,合同会社,東京都,練馬区,平和台３丁目１９番１７号サイラント平和台２０４,,13,120,1790083,,,,,,,2021-08-25,1,,,,,ハーモニー,0
312,2013301047905,新規,0,2021-08-25,2021-08-25,株式会社ＷＡＫＯ　ｔｒａｎｓｐｏｒｔ,,株式会社,東京都,豊島区,高松３丁目４－９,,13,116,1710042,,,,,,,2021-08-25,1,,,,,ワコトランスポート,0
320,2020001142738,新規,0,2021-08-25,2021-08-25,プレイバックコーポレーション株式会社,,株式会社,神奈川県,横浜市港北区,小机町４５０番地３折本ビル２Ｆ,,14,109,2220036,,,,,,,2021-08-25,1,,,,,プレイバックコーポレーション,0
326,2020003020355,新規,0,2021-08-25,2021-08-25,合同会社クライムドアーズ,,合同会社,神奈川県,川崎市多摩区,登戸１０９６ソシアＴＭ３０３,,14,135,2140014,,,,,,,2021-08-25,1,,,,,クライムドアーズ,0
336,2021003010833,新規,0,2021-08-25,2021-08-25,合同会社りぼん,,合同会社,神奈川県,相模原市中央区,陽光台４丁目１０番９号,,14,152,2520226,,,,,,,2021-08-25,1,,,,,リボン,0
342,2030001143974,新規,0,2021-08-25,2021-08-25,株式会社アンバーフレッチャー,,株式会社,埼玉県,加須市,陽光台１丁目３００番地２０６,,11,210,3491204,,,,,,,2021-08-25,1,,,,,アンバーフレッチャー,0
343,2030001143982,新規,0,2021-08-25,2021-08-25,株式会社ゼロ－プロ,,株式会社,埼玉県,川口市,大字安行領根岸１２９４番地の１２,,11,203,3330834,,,,,,,2021-08-25,1,,,,,ゼロプロ,0
344,2030001143990,新規,0,2021-08-25,2021-08-25,株式会社ａｔｅｅ,,株式会社,埼玉県,越谷市,千間台西１丁目１８番１－１０４,,11,222,3430041,,,,,,,2021-08-25,1,,,,,エイティ,0
349,2030003017821,新規,0,2021-08-25,2021-08-25,無線送電合同会社,,合同会社,埼玉県,川越市,大手町１３番地２１,,11,201,3500057,,,,,,,2021-08-25,1,,,,,ムセンソウデン,0
358,2040001119882,新規,0,2021-08-25,2021-08-25,株式会社ＮＩＣＨＩＢＩ,,株式会社,千葉県,松戸市,本町１７番地の１１芹澤ビル６Ｆ,,12,207,2710091,,,,,,,2021-08-25,1,,,,,ニチビ,0
363,2040003018356,新規,0,2021-08-25,2021-08-25,活力農業合同会社,,合同会社,千葉県,富津市,関尻４４５番地,,12,226,2991752,,,,,,,2021-08-25,1,,,,,カツリョクノウギョウ,0
364,2040003018364,新規,0,2021-08-25,2021-08-25,リーライス合同会社,,合同会社,千葉県,千葉市中央区,弁天１丁目１５番３号リードシー千葉駅前ビルＢ１Ｆ,,12,101,2600045,,,,,,,2021-08-25,1,,,,,リーライス,0
373,2060001034023,新規,0,2021-08-25,2021-08-25,株式会社アーキテクト・クアラン,,株式会社,栃木県,日光市,土沢１５３８番地７,,09,206,3211274,,,,,,,2021-08-25,1,,,,,アーキテクトクアラン,0
378,2070001038378,新規,0,2021-08-25,2021-08-25,ジャパンチーマトレーディング株式会社,,株式会社,群馬県,北群馬郡榛東村,大字新井１９２５番地２,,10,344,3703503,,,,,,,2021-08-25,1,,,,,ジャパンチーマトレーディング,0
384,2100001034547,新規,0,2021-08-25,2021-08-25,株式会社夢現,,株式会社,長野県,松本市,井川城３丁目４番３号マストタウンアストレア２０５号,,20,202,3900831,,,,,,,2021-08-25,1,,,,,ムゲン,0
386,2100003006214,新規,0,2021-08-25,2021-08-25,ちゃらりちゃらり合同会社,,合同会社,長野県,下高井郡野沢温泉村,大字豊郷９５１６番地１芙蓉ビル２Ｆ,,20,563,3892502,,,,,,,2021-08-25,1,,,,,チャラリチャラリ,0
396,2120001239870,新規,0,2021-08-25,2021-08-25,株式会社北新地寛龍,,株式会社,大阪府,大阪市北区,堂島２丁目１番５号堂島レジデンス１２０４号室,,27,127,5300003,,,,,,,2021-08-25,1,,,,,キタシンチカンリュウ,0
397,2120001239920,新規,0,2021-08-25,2021-08-25,株式会社ＨＴ　ｉｎｎｏｖａｔｉｏｎ,,株式会社,大阪府,大阪市中央区,西心斎橋２丁目４番２号難波日興ビル７Ｆ,,27,128,5420086,,,,,,,2021-08-25,1,,,,,エイチティーイノベーション,0
398,2120001239945,新規,0,2021-08-25,2021-08-25,株式会社アイカ,,株式会社,大阪府,大阪市中央区,久太郎町４丁目１番３号大阪センタービル６階,,27,128,5410056,,,,,,,2021-08-25,1,,,,,アイカ,0
399,2120003020064,新規,0,2021-08-25,2021-08-25,合同会社ロングロード,,合同会社,大阪府,守口市,佐太中町５丁目４番１８号,,27,209,5700002,,,,,,,2021-08-25,1,,,,,ロングロード,0
403,2120101064194,新規,0,2021-08-25,2021-08-25,株式会社貝塚ペットセンター,,株式会社,大阪府,貝塚市,麻生中１１１番地１７,,27,208,5970081,,,,,,,2021-08-25,1,,,,,カイヅカペットセンター,0
412,2122001035110,新規,0,2021-08-25,2021-08-25,株式会社レーヴ,,株式会社,大阪府,東大阪市,足代２丁目３番２１－１５０７号,,27,227,5770841,,,,,,,2021-08-25,1,,,,,レーヴ,0
413,2122003002158,新規,0,2021-08-25,2021-08-25,合同会社クロスマネージャー,,合同会社,大阪府,東大阪市,玉串町西３丁目３－１９,,27,227,5780934,,,,,,,2021-08-25,1,,,,,クロスマネージャー,0
421,2130001069986,新規,0,2021-08-25,2021-08-25,株式会社グレース,,株式会社,京都府,京都市西京区,大原野上里南ノ町６番地１,,26,111,6101123,,,,,,,2021-08-25,1,,,,,グレース,0
436,2160003002356,新規,0,2021-08-25,2021-08-25,クラファン・グローバル合同会社,,合同会社,滋賀県,高島市,鴨川平２丁目３番地９,,25,212,5201133,,,,,,,2021-08-25,1,,,,,クラファングローバル,0
450,2180003022889,新規,0,2021-08-25,2021-08-25,一陽来復合同会社,,合同会社,愛知県,名古屋市中川区,荒江町１２番１３号,,23,110,4540032,,,,,,,2021-08-25,1,,,,,イチヨウライフク,0
460,2200003005288,新規,0,2021-08-25,2021-08-25,ＪＰＮ　Ｃｏｎｓｕｌｔａｎｔｓ合同会社,,合同会社,岐阜県,岐阜市,岩崎２７０‐５,,21,201,5020005,,,,,,,2021-08-25,1,,,,,ジェイピーエヌコンサルタンツ,0
463,2220001024379,新規,0,2021-08-25,2021-08-25,株式会社タカオート,,株式会社,石川県,小松市,今江町９丁目２７５番地,,17,203,9230964,,,,,,,2021-08-25,1,,,,,タカオート,0
470,2240001058482,新規,0,2021-08-25,2021-08-25,旭エンジニアリング株式会社,,株式会社,広島県,広島市安佐南区,八木２丁目１８番３８号,,34,105,7310101,,,,,,,2021-08-25,1,,,,,アサヒエンジニアリング,0
471,2240001058490,新規,0,2021-08-25,2021-08-25,株式会社山崎建築,,株式会社,広島県,廿日市市,吉和２２４１番地２,,34,213,7380301,,,,,,,2021-08-25,1,,,,,ヤマサキケンチク,0
477,2290001094291,新規,0,2021-08-25,2021-08-25,株式会社ｖｏｒｎｅ,,株式会社,福岡県,福岡市東区,香椎照葉６丁目３番１２－５０９号プライムメゾン照葉クロススタイル,,40,131,8130017,,,,,,,2021-08-25,1,,,,,フォルン,0
478,2290001094300,新規,0,2021-08-25,2021-08-25,天和株式会社,,株式会社,福岡県,福岡市博多区,東那珂２丁目１０番２５－５０６号アンピール空港西,,40,132,8120892,,,,,,,2021-08-25,1,,,,,テンワ,0
481,2290003011526,新規,0,2021-08-25,2021-08-25,合同会社ＲＳ,,合同会社,福岡県,福岡市西区,小戸３丁目３１－２５,,40,135,8190001,,,,,,,2021-08-25,1,,,,,アールエス,0
482,2290003011534,新規,0,2021-08-25,2021-08-25,合同会社Ｙｏｃａ．,,合同会社,福岡県,糟屋郡粕屋町,長者原東１丁目１１－８，パレ．グランドール長者原駅前３０１号,,40,349,8112317,,,,,,,2021-08-25,1,,,,,ヨカドット,0
494,2330001028939,新規,0,2021-08-25,2021-08-25,株式会社松,,株式会社,熊本県,熊本市南区,今町１７８番地２,,43,104,8615251,,,,,,,2021-08-25,1,,,,,マツ,0
505,2370001047522,新規,0,2021-08-25,2021-08-25,株式会社泉配食サービス,,株式会社,宮城県,仙台市泉区,明石南５丁目１２番地の６,,04,105,9813101,,,,,,,2021-08-25,1,,,,,イズミハイショクサービス,0
512,2430003013078,新規,0,2021-08-25,2021-08-25,合同会社ＨＯＫＫＯリノベート,,合同会社,北海道,札幌市中央区,宮の森二条９丁目１番２７号,,01,101,0640952,,,,,,,2021-08-25,1,,,,,ホッコーリノベート,0
515,2450001013458,新規,0,2021-08-25,2021-08-25,株式会社高畑ブロック工業,00124027,株式会社,北海道,上川郡東川町,北町３丁目９番７号,,01,458,0711426,,,,,,,2021-08-25,1,,,,,タカハタブロックコウギョウ,0
535,3010001220634,新規,0,2021-08-25,2021-08-25,東洋ペット科学研究所株式会社,,株式会社,東京都,中央区,銀座７丁目１３－６サガミビル２階,,13,102,1040061,,,,,,,2021-08-25,1,,,,,トウヨウペットカガクケンキュウジョ,0
536,3010001220642,新規,0,2021-08-25,2021-08-25,ＲＥＧＧＩＯ　ＤＥＳＩＧＮ株式会社,,株式会社,東京都,中央区,日本橋富沢町１１番１９号,,13,102,1030006,,,,,,,2021-08-25,1,,,,,レッジョデザイン,0
537,3010001220650,新規,0,2021-08-25,2021-08-25,Ｃｒｅｉｓ　Ｊａｐａｎ株式会社,,株式会社,東京都,千代田区,大手町１丁目７番２号東京サンケイビル２７階,,13,101,1000004,,,,,,,2021-08-25,1,,,,,クレイスジャパン,0
538,3010001220659,新規,0,2021-08-25,2021-08-25,コンボイ株式会社,,株式会社,東京都,千代田区,内神田３丁目７番３号三貢ビル５階,,13,101,1010047,,,,,,,2021-08-25,1,,,,,コンボイ,0
539,3010001220683,新規,0,2021-08-25,2021-08-25,フィンテック総合研究所株式会社,,株式会社,東京都,千代田区,神田駿河台２丁目１－３４プラザお茶の水ビル３０９,,13,101,1010062,,,,,,,2021-08-25,1,,,,,フィンテックソウゴウケンキュウジョ,0
543,3010103001759,新規,0,2021-08-25,2021-08-25,合同会社ＡＩＳＡ　Ａｕｔｏ　Ｗｏｒｋｓ,,合同会社,東京都,八王子市,西寺方町２９５－２１,,13,201,1920153,,,,,,,2021-08-25,1,,,,,,0
550,3010401162278,新規,0,2021-08-25,2021-08-25,株式会社ソウルフルライフ,,株式会社,東京都,港区,赤坂４丁目８番１９号赤坂フロントタウン３階,,13,103,1070052,,,,,,,2021-08-25,1,,,,,ソウルフルライフ,0
557,3010405020119,新規,0,2021-08-25,2021-08-25,一般社団法人再起人材育成機構,,その他の設立登記法人,東京都,港区,六本木３丁目７番１－１８１８号,,13,103,1060032,,,,,,,2021-08-25,1,,,,,サイキジンザイイクセイキコウ,0
558,3010405020143,新規,0,2021-08-25,2021-08-25,ＮＳ　Ｙｏｋｏｈａｍａ　Ｉｎｖｅｓｔｍｅｎｔ特定目的会社,,その他の設立登記法人,東京都,港区,虎ノ門４丁目３番１号城山トラストタワー２７階ＳａｎｎｅＧｒｏｕｐＪａｐａｎ株式会社内,,13,103,1050001,,,,,,,2021-08-25,1,,,,,エヌエスヨコハマインベストメント,0
559,3010501047734,新規,0,2021-08-25,2021-08-25,株式会社Ｃｉｒｃｕｌｙ,,株式会社,東京都,台東区,竜泉１丁目７－４,,13,106,1100012,,,,,,,2021-08-25,1,,,,,サーキュリィ,0
577,3011001142463,新規,0,2021-08-25,2021-08-25,Ａｒｃｈｉｖｉｓｔ　Ｌａｂ株式会社,,株式会社,東京都,渋谷区,神南１丁目１４番７号ワイズ神南ビル２階,,13,113,1500041,,,,,,,2021-08-25,1,,,,,アーカイヴィストラボ,0
578,3011001142471,新規,0,2021-08-25,2021-08-25,株式会社Ｒａｔｉｎｇ,,株式会社,東京都,渋谷区,神宮前６丁目２３番４号桑野ビル２階,,13,113,1500001,,,,,,,2021-08-25,1,,,,,レイティング,0
580,3011003013233,新規,0,2021-08-25,2021-08-25,合同会社リアリティブ,,合同会社,東京都,渋谷区,神宮前６丁目２３番４号桑野ビル２階,,13,113,1500001,,,,,,,2021-08-25,1,,,,,リアリティブ,0
582,3011101096089,新規,0,2021-08-25,2021-08-25,株式会社ＳｔａｒＣｒｅｗ,,株式会社,東京都,新宿区,西新宿１丁目１９番６号,,13,104,1600023,,,,,,,2021-08-25,1,,,,,スタークルー,0
583,3011201023208,新規,0,2021-08-25,2021-08-25,株式会社種屋稲垣,,株式会社,東京都,中野区,本町６丁目３５番２３号,,13,114,1640012,,,,,,,2021-08-25,1,,,,,タネヤイナガキ,0
589,3011603003377,新規,0,2021-08-25,2021-08-25,マヒナピーチコンサルティング合同会社,,合同会社,東京都,練馬区,貫井２丁目２０番１４号,,13,120,1760021,,,,,,,2021-08-25,1,,,,,マヒナピーチコンサルティング,0
595,3012701016634,新規,0,2021-08-25,2021-08-25,株式会社ＤＴＢ,,株式会社,東京都,東久留米市,下里６丁目５番５１号,,13,222,2030043,,,,,,,2021-08-25,1,,,,,ディーティービー,0
599,3012801021039,新規,0,2021-08-25,2021-08-25,株式会社Ｃ‐Ｓｉｄｅ,,株式会社,東京都,国立市,富士見台２丁目１４番地の１Ｌｏｆｔｙ国立８Ｆ,,13,215,1860003,,,,,,,2021-08-25,1,,,,,シーサイド,0
610,3020001142753,新規,0,2021-08-25,2021-08-25,株式会社ＭＡＴＳＵＫＯ,,株式会社,神奈川県,横浜市中区,宮川町１丁目１４番地１２,,14,104,2310065,,,,,,,2021-08-25,1,,,,,マツコ,0
623,3020005015179,新規,0,2021-08-25,2021-08-25,一般社団法人ハマラボ・横浜ラボ,,その他の設立登記法人,神奈川県,横浜市南区,睦町１丁目３４－５グランベルグ６０２,,14,105,2320041,,,,,,,2021-08-25,1,,,,,ハマラボヨコハマラボ,0
624,3021001073749,新規,0,2021-08-25,2021-08-25,株式会社コルドロン,,株式会社,神奈川県,小田原市,久野３５４２－１,,14,206,2500055,,,,,,,2021-08-25,1,,,,,コルドロン,0
632,3030001143940,新規,0,2021-08-25,2021-08-25,株式会社ＩＷＡＴＡ,,株式会社,埼玉県,さいたま市緑区,道祖土１丁目２７番１０号,,11,109,3360907,,,,,,,2021-08-25,1,,,,,イワタ,0
648,3050003006045,新規,0,2021-08-25,2021-08-25,合同会社フォレストＮＥＴ,,合同会社,茨城県,古河市,下片田４６９番地１２,,08,204,3060127,,,,,,,2021-08-25,1,,,,,フォレストネット,0
653,3060001034022,新規,0,2021-08-25,2021-08-25,株式会社真技建,,株式会社,栃木県,宇都宮市,越戸町１１０番地６睦ハイツＡ棟１０２号室,,09,201,3210951,,,,,,,2021-08-25,1,,,,,シンギケン,0
655,3070001038377,新規,0,2021-08-25,2021-08-25,Ｍ＆Ｈビルドプラン株式会社,,株式会社,群馬県,高崎市,棟高町１９２８番地１６８ラルジェ中里１０５号室,,10,202,3703521,,,,,,,2021-08-25,1,,,,,エムアンドエイチビルドプラン,0
658,3080101022726,新規,0,2021-08-25,2021-08-25,株式会社章栄,,株式会社,静岡県,駿東郡長泉町,元長窪１２２番地の１,,22,342,4110936,,,,,,,2021-08-25,1,,,,,ショウエイ,0
659,3080405007381,新規,0,2021-08-25,2021-08-25,一般社団法人日本リモートセールスエキスパート協会,,その他の設立登記法人,静岡県,浜松市南区,安松町８０番地の１,,22,134,4350034,,,,,,,2021-08-25,1,,,,,ニホンリモートセールスエキスパートキョウカイ,0
663,3100005012762,新規,0,2021-08-25,2021-08-25,ＣＯＣＯＲＯ税理士法人,,その他の設立登記法人,長野県,長野市,稲里町下氷鉋１３８２番地２ナカジマビル１階,,20,201,3812211,,,,,,,2021-08-25,1,,,,,ココロ,0
664,3110001035980,新規,0,2021-08-25,2021-08-25,株式会社シェノンライフ,,株式会社,新潟県,新潟市東区,下場本町１２番６号,,15,102,9500833,,,,,,,2021-08-25,1,,,,,シェノンライフ,0
670,3120001239853,新規,0,2021-08-25,2021-08-25,株式会社サン住宅建設,,株式会社,大阪府,門真市,常盤町２５番１４号,,27,223,5710078,,,,,,,2021-08-25,1,,,,,サンジュウタクケンセツ,0
671,3120001239911,新規,0,2021-08-25,2021-08-25,株式会社Ａ－ｓｅｎｓ,,株式会社,大阪府,大阪市城東区,野江３丁目５番７号,,27,118,5360006,,,,,,,2021-08-25,1,,,,,エーセンス,0
672,3120001239936,新規,0,2021-08-25,2021-08-25,株式会社バッカス,,株式会社,大阪府,大阪市北区,本庄東３丁目１０番２９号,,27,127,5310074,,,,,,,2021-08-25,1,,,,,バッカス,0
673,3120003020096,新規,0,2021-08-25,2021-08-25,合同会社ヒハナ,,合同会社,大阪府,大阪市浪速区,恵美須西２丁目２番６号ビジタル恵美須７－３階３０３号,,27,111,5560003,,,,,,,2021-08-25,1,,,,,ヒハナ,0
682,3122003002157,新規,0,2021-08-25,2021-08-25,合同会社Ｉｍａｂｏ,,合同会社,大阪府,東大阪市,西岩田３丁目３番１４－３０３号,,27,227,5780947,,,,,,,2021-08-25,1,,,,,イマボ,0
683,3130003007431,新規,0,2021-08-25,2021-08-25,合同会社ＲＥＰＯＳ,,合同会社,京都府,京都市伏見区,下鳥羽上三栖町１４３番地,,26,109,6128248,,,,,,,2021-08-25,1,,,,,ルポ,0
689,3140003016662,新規,0,2021-08-25,2021-08-25,合同会社ＳＵＮ　ＬＵＮＡ,,合同会社,兵庫県,神戸市中央区,中町通３丁目１－１８,,28,110,6500027,,,,,,,2021-08-25,1,,,,,サンルーナ,0
692,3180001147489,新規,0,2021-08-25,2021-08-25,株式会社Ａｄｖｅｎｔｕｒｅ　Ｋｉｄｓ,,株式会社,愛知県,愛西市,西條町西善太７７番地,,23,232,4960913,,,,,,,2021-08-25,1,,,,,アドベンチャーキッズ,0
693,3180001147547,新規,0,2021-08-25,2021-08-25,株式会社ワンダフルワン,,株式会社,愛知県,名古屋市瑞穂区,田辺通２丁目１１番地の１コーポ田辺２Ｆ,,23,108,4670027,,,,,,,2021-08-25,1,,,,,ワンダフルワン,0
694,3180001147555,新規,0,2021-08-25,2021-08-25,株式会社ＯＬＤＳＣＨＯＯＬ,,株式会社,愛知県,尾張旭市,東栄町４丁目６－１７三郷パークマンション４０１号,,23,226,4880011,,,,,,,2021-08-25,1,,,,,オールドスクール,0
696,3180003022896,新規,0,2021-08-25,2021-08-25,合同会社ＳＴＲＡＤ　ＯＮＥ,,合同会社,愛知県,名古屋市中村区,名駅５丁目３３－２１アクアタウン納屋橋２７０５号,,23,105,4500002,,,,,,,2021-08-25,1,,,,,ストラッドワン,0
707,3220001024378,新規,0,2021-08-25,2021-08-25,株式会社ケンコーデザインワークス,,株式会社,石川県,加賀市,黒崎町ラ１５９番地,,17,206,9220565,,,,,,,2021-08-25,1,,,,,ケンコーデザインワークス,0
709,3240001058481,新規,0,2021-08-25,2021-08-25,株式会社堀田グループ,,株式会社,広島県,広島市佐伯区,湯来町伏谷１６６０－１,,34,108,7315100,,,,,,,2021-08-25,1,,,,,ホリタグループ,0
720,3290001094349,新規,0,2021-08-25,2021-08-25,株式会社糸島地建,,株式会社,福岡県,糸島市,志摩師吉１０１番地,,40,230,8191314,,,,,,,2021-08-25,1,,,,,イトシマチケン,0
721,3290001094365,新規,0,2021-08-25,2021-08-25,株式会社わかば東,,株式会社,福岡県,太宰府市,向佐野２丁目１３番４８号,,40,221,8180135,,,,,,,2021-08-25,1,,,,,ワカバヒガシ,0
722,3290003011525,新規,0,2021-08-25,2021-08-25,合同会社ＫＩＦ,,合同会社,福岡県,久留米市,北野町上弓削８０７－１,,40,203,8301117,,,,,,,2021-08-25,1,,,,,ケーアイエフ,0
723,3290003011541,新規,0,2021-08-25,2021-08-25,合同会社ＫＫ,,合同会社,福岡県,福岡市東区,塩浜１丁目３６番５－２０２号,,40,131,8110203,,,,,,,2021-08-25,1,,,,,ケーケー,0
734,3330001028938,新規,0,2021-08-25,2021-08-25,株式会社Ｂｉｒｔｈｉｎｋ,,株式会社,熊本県,熊本市東区,石原１丁目３番３０号,,43,102,8618046,,,,,,,2021-08-25,1,,,,,バーシンク,0
738,3360001029256,新規,0,2021-08-25,2021-08-25,株式会社ＣＢＤａｌｐｈａ,,株式会社,沖縄県,那覇市,久茂地１丁目１番１号９階,,47,201,9000015,,,,,,,2021-08-25,1,,,,,,0
739,3360001029289,新規,0,2021-08-25,2021-08-25,Ｏｋｉ　Ｓｈｉｎｅ株式会社,,株式会社,沖縄県,那覇市,前島３丁目２５番２号泊ポートビル５階,,47,201,9000016,,,,,,,2021-08-25,1,,,,,オキシャイン,0
745,3370001047513,新規,0,2021-08-25,2021-08-25,デフィインク株式会社,,株式会社,宮城県,仙台市青葉区,五橋２丁目５番３－１００１号,,04,101,9800022,,,,,,,2021-08-25,1,,,,,デフィインク,0
763,3430001084806,新規,0,2021-08-25,2021-08-25,株式会社ＲＵＲＡ,,株式会社,北海道,虻田郡ニセコ町,字曽我７－３,,01,395,0481522,,,,,,,2021-08-25,1,,,,,ルラ,0
766,3430005014255,新規,0,2021-08-25,2021-08-25,一般社団法人金融資産総合研究所,,その他の設立登記法人,北海道,札幌市清田区,里塚二条５丁目６番７号,,01,110,0040802,,,,,,,2021-08-25,1,,,,,キンユウシサンソウゴウケンキュウジョ,0
767,3460305001966,新規,0,2021-08-25,2021-08-25,一般社団法人ニングルの森,,その他の設立登記法人,北海道,網走郡津別町,字新町２７番地９,,01,544,0920232,,,,,,,2021-08-25,1,,,,,ニングルノモリ,0
773,4010001220591,新規,0,2021-08-25,2021-08-25,株式会社ＣＮＤＡ,,株式会社,東京都,中央区,銀座１丁目２２番１１号銀座大竹ビジデンス２Ｆ,,13,102,1040061,,,,,,,2021-08-25,1,,,,,キャンディア,0
774,4010001220641,新規,0,2021-08-25,2021-08-25,Ｔｕｒｉｎｇ株式会社,,株式会社,東京都,中央区,湊２丁目１５番１４－２０１２号,,13,102,1040043,,,,,,,2021-08-25,1,,,,,チューリング,0
775,4010001220658,新規,0,2021-08-25,2021-08-25,ＮＥＷＴＥＣＨ株式会社,,株式会社,東京都,千代田区,九段北１丁目２番１１号エイム東京九段ビル３Ｆ,,13,101,1020073,,,,,,,2021-08-25,1,,,,,ニューテック,0
778,4010003035690,新規,0,2021-08-25,2021-08-25,合同会社ＴｕＢｏＭｅｅ,,合同会社,東京都,中央区,銀座１丁目２２番１１号銀座大竹ビジデンス２階,,13,102,1040061,,,,,,,2021-08-25,1,,,,,ツボミー,0
789,4010401162293,新規,0,2021-08-25,2021-08-25,ＧＦＡ　ＦＯＯＤＳ株式会社,,株式会社,東京都,港区,南青山２丁目２番１５号,,13,103,1070062,,,,,,,2021-08-25,1,,,,,ジーエフエーフーズ,0
792,4010403025977,新規,0,2021-08-25,2021-08-25,合同会社カフーエステート,,合同会社,東京都,港区,南青山５丁目１１番２２－３０４号,,13,103,1070062,,,,,,,2021-08-25,1,,,,,カフーエステート,0
795,4010503006365,新規,0,2021-08-25,2021-08-25,ＮＩＤＥＸ合同会社,,合同会社,東京都,台東区,下谷２丁目５番１１号ＭＨＫビル４階,,13,106,1100004,,,,,,,2021-08-25,1,,,,,ニデックス,0
815,4011001142495,新規,0,2021-08-25,2021-08-25,ｌｕｘｅ株式会社,,株式会社,東京都,渋谷区,宇田川町１番１２－３０１３号パークコート渋谷ザ・タワー,,13,113,1500042,,,,,,,2021-08-25,1,,,,,リュクス,0
820,4011101096121,新規,0,2021-08-25,2021-08-25,株式会社ｃｏｎｃｅｐｔ,,株式会社,東京都,新宿区,新宿５丁目１１－１ホーメスト新宿ビル９Ｆ,,13,104,1600022,,,,,,,2021-08-25,1,,,,,コンセプト,0
846,4020001142728,新規,0,2021-08-25,2021-08-25,株式会社ＨＭＳ,,株式会社,神奈川県,横浜市旭区,白根６丁目４３番２号,,14,112,2410005,,,,,,,2021-08-25,1,,,,,エイチエムエス,0
847,4020001142752,新規,0,2021-08-25,2021-08-25,株式会社ＳＡハウジング,,株式会社,神奈川県,横浜市中区,桜木町１丁目１番地７ヒューリックみなとみらい１０階,,14,104,2310062,,,,,,,2021-08-25,1,,,,,エスエーハウジング,0
853,4020003020378,新規,0,2021-08-25,2021-08-25,ＮＩＴＯ合同会社,,合同会社,神奈川県,横浜市緑区,東本郷４丁目１７－３５,,14,113,2260002,,,,,,,2021-08-25,1,,,,,ニト,0
858,4021001073748,新規,0,2021-08-25,2021-08-25,株式会社ＳＡＩＮＩ　ＪＡＰＡＮ,,株式会社,神奈川県,相模原市南区,麻溝台５丁目９番２７－６号,,14,153,2520328,,,,,,,2021-08-25,1,,,,,サイニジャパン,0
859,4021001073764,新規,0,2021-08-25,2021-08-25,株式会社サガミ建装,,株式会社,神奈川県,海老名市,東柏ケ谷５丁目１番８－１００１号,,14,215,2430401,,,,,,,2021-08-25,1,,,,,サガミケンソウ,0
864,4021003010823,新規,0,2021-08-25,2021-08-25,かさぎ管理合同会社,,合同会社,神奈川県,愛甲郡清川村,煤ヶ谷１３６４番地の２,,14,402,2430112,,,,,,,2021-08-25,1,,,,,カサギカンリ,0
865,4021003010831,新規,0,2021-08-25,2021-08-25,合同会社柳田,,合同会社,神奈川県,高座郡寒川町,田端８４５番地グリーン・ビュー湘南１０２,,14,321,2530114,,,,,,,2021-08-25,1,,,,,ヤナギダ,0
871,4030001143989,新規,0,2021-08-25,2021-08-25,株式会社ブライス,,株式会社,埼玉県,比企郡川島町,大字上伊草１６７７番地２１,,11,346,3500152,,,,,,,2021-08-25,1,,,,,ブライス,0
873,4030003017828,新規,0,2021-08-25,2021-08-25,ｓｋＮａｃ合同会社,,合同会社,埼玉県,深谷市,田所町１７－１４,,11,218,3660826,,,,,,,2021-08-25,1,,,,,スナック,0
880,4050003006044,新規,0,2021-08-25,2021-08-25,ＹＭ＆Ｅ合同会社,,合同会社,茨城県,ひたちなか市,大字高野３３１３番地２,,08,221,3120002,,,,,,,2021-08-25,1,,,,,ワイエムアンドイー,0
899,4120001239902,新規,0,2021-08-25,2021-08-25,株式会社おんどれ,,株式会社,大阪府,大阪市中央区,糸屋町１丁目２番１１－３８０６号,,27,128,5400022,,,,,,,2021-08-25,1,,,,,オンドレ,0
902,4120003020087,新規,0,2021-08-25,2021-08-25,合同会社虹の向こう,,合同会社,大阪府,寝屋川市,楠根北町２番１８－６０９号,,27,215,5720845,,,,,,,2021-08-25,1,,,,,ニジノムコウ,0
912,4130001069984,新規,0,2021-08-25,2021-08-25,株式会社ＹＭ　Ｅａｒｔｈ,,株式会社,京都府,宇治市,大久保町南ノ口８番地の４,,26,204,6110033,,,,,,,2021-08-25,1,,,,,ワイエムアース,0
916,4140001122734,新規,0,2021-08-25,2021-08-25,株式会社ｋｉｃｈｉ,,株式会社,兵庫県,神戸市東灘区,本山南町８丁目３番１－１００５,,28,101,6580015,,,,,,,2021-08-25,1,,,,,キチ,0
918,4140003016661,新規,0,2021-08-25,2021-08-25,Ｏｃｅａｎ　Ｄｅｌｉｇｈｔ合同会社,,合同会社,兵庫県,加西市,若井町２７１２番地,,28,220,6752456,,,,,,,2021-08-25,1,,,,,オーシャンディライト,0
925,4150003002470,新規,0,2021-08-25,2021-08-25,合同会社Ｄ－リンク,,合同会社,奈良県,奈良市,中登美ヶ丘２丁目１９８４番地の５４,,29,201,6310003,,,,,,,2021-08-25,1,,,,,ディーリンク,0
926,4150005009324,新規,0,2021-08-25,2021-08-25,社会福祉法人すこやか,,その他の設立登記法人,奈良県,磯城郡田原本町,大字宮古１６１番１,,29,363,6360302,,,,,,,2021-08-25,1,,,,,スコヤカ,0
927,4160003002354,新規,0,2021-08-25,2021-08-25,合同会社Ｒｉｓｅ,,合同会社,滋賀県,東近江市,蒲生堂町３２８番地３１３,,25,213,5291541,,,,,,,2021-08-25,1,,,,,ライズ,0
937,4180001147538,新規,0,2021-08-25,2021-08-25,株式会社ＨＡＣ,,株式会社,愛知県,小牧市,大字東田中字菖蒲池１３１９番地,,23,219,4850826,,,,,,,2021-08-25,1,,,,,エイチエーシー,0
938,4180001147546,新規,0,2021-08-25,2021-08-25,株式会社福山ＦＰ,,株式会社,愛知県,名古屋市東区,代官町２８番１６号,,23,102,4610002,,,,,,,2021-08-25,1,,,,,フクヤマエフピー,0
939,4180001147554,新規,0,2021-08-25,2021-08-25,株式会社ＹＵＭＥＴＡＳＵ,,株式会社,愛知県,名古屋市中区,東桜２丁目１９－９明治第１１ビル２Ｆ,,23,106,4600005,,,,,,,2021-08-25,1,,,,,ユメタス,0
940,4180001147562,新規,0,2021-08-25,2021-08-25,Ｂｕｚｚ　Ｔｅｃｈｎｏｌｏｇｙ　Ｊａｐａｎ研究所株式会社,,株式会社,愛知県,名古屋市中区,大須３丁目２６番４１号,,23,106,4600011,,,,,,,2021-08-25,1,,,,,バズテクノロジージャパンケンキュウジョ,0
941,4180001147570,新規,0,2021-08-25,2021-08-25,株式会社粋,,株式会社,愛知県,名古屋市瑞穂区,彌富町字桜ケ岡３０番地の２,,23,108,4670034,,,,,,,2021-08-25,1,,,,,スイ,0
957,4240001058489,新規,0,2021-08-25,2021-08-25,エイトバレープロパティーズ株式会社,,株式会社,広島県,広島市中区,八丁堀４番４－１２０１号,,34,101,7300013,,,,,,,2021-08-25,1,,,,,エイトバレープロパティーズ,0
964,4290001094315,新規,0,2021-08-25,2021-08-25,山浦電設工業株式会社,,株式会社,福岡県,福岡市南区,鶴田１丁目８番１号,,40,134,8111352,,,,,,,2021-08-25,1,,,,,ヤマウラデンセツコウギョウ,0
965,4290001094364,新規,0,2021-08-25,2021-08-25,ＢＫ株式会社,,株式会社,福岡県,福岡市中央区,天神２丁目３番１０号天神パインクレスト７１９号,,40,133,8100001,,,,,,,2021-08-25,1,,,,,ビーケー,0
966,4290003011532,新規,0,2021-08-25,2021-08-25,合同会社ＫＩＣ,,合同会社,福岡県,糸島市,潤４丁目８番２０号,,40,230,8191105,,,,,,,2021-08-25,1,,,,,ケーアイシー,0
974,4330005010387,新規,0,2021-08-25,2021-08-25,医療法人ＥＫＳ,,その他の設立登記法人,熊本県,熊本市東区,戸島西３丁目２番３５号,,43,102,8618043,,,,,,,2021-08-25,1,,,,,イーケーエス,0
981,4360001029271,新規,0,2021-08-25,2021-08-25,株式会社ドリカム沖縄,,株式会社,沖縄県,中頭郡西原町,字千原２６２番地１さくらマンション２０３号,,47,329,9030129,,,,,,,2021-08-25,1,,,,,ドリカムオキナワ,0
982,4360003011376,新規,0,2021-08-25,2021-08-25,合同会社ＹＵＫＡＡＬＡ　ｍａｒｉｎｅ,,合同会社,沖縄県,宮古島市,平良字西里２４０番地２、５階,,47,214,9060012,,,,,,,2021-08-25,1,,,,,,0
988,4430001084805,新規,0,2021-08-25,2021-08-25,株式会社聖,,株式会社,北海道,札幌市白石区,北郷五条４丁目７番１３号ＫＹ藤井ビル１０２号,,01,104,0030835,,,,,,,2021-08-25,1,,,,,ヒジリ,0
992,4430003013051,新規,0,2021-08-25,2021-08-25,合同会社Ａｌｌｅｎｄａｌｅ,,合同会社,北海道,札幌市中央区,南五条西３丁目１１番美松ビル７Ｆ,,01,101,0640805,,,,,,,2021-08-25,1,,,,,アレンデール,0
996,4470001018668,新規,0,2021-08-25,2021-08-25,株式会社エコマスター・ジャパン,,株式会社,香川県,三豊市,山本町神田３０番地１,,37,208,7680104,,,,,,,2021-08-25,1,,,,,エコマスタージャパン,0
997,4470003002018,新規,0,2021-08-25,2021-08-25,Ｌａｎａ合同会社,,合同会社,香川県,高松市,春日町７７５番地７グランデ２１－３０８,,37,201,7610101,,,,,,,2021-08-25,1,,,,,ラナ,0
1010,5010001220632,新規,0,2021-08-25,2021-08-25,株式会社鈴博,,株式会社,東京都,千代田区,岩本町３丁目１０番７号東自機ビル７階,,13,101,1010032,,,,,,,2021-08-25,1,,,,,スズヒロ,0
1011,5010001220640,新規,0,2021-08-25,2021-08-25,株式会社テックギルド,,株式会社,東京都,千代田区,霞が関１丁目４番１号,,13,101,1000013,,,,,,,2021-08-25,1,,,,,テックギルド,0
1014,5010003035681,新規,0,2021-08-25,2021-08-25,合同会社ＮＥＸＴ　ＯＮＥ　ＴＯＫＹＯ,,合同会社,東京都,中央区,日本橋人形町２丁目１５番２号創明社ビル２階,,13,102,1030013,,,,,,,2021-08-25,1,,,,,ネクストワントーキョー,0
1018,5010401162292,新規,0,2021-08-25,2021-08-25,希輝株式会社,,株式会社,東京都,港区,虎ノ門３丁目１８番６号朝日虎ノ門マンション６１４号室,,13,103,1050001,,,,,,,2021-08-25,1,,,,,キキ,0
1020,5010501047724,新規,0,2021-08-25,2021-08-25,株式会社ＫＫＶ,,株式会社,東京都,台東区,浅草７丁目６－８嶋津ビル１Ｆ,,13,106,1110032,,,,,,,2021-08-25,1,,,,,ケイケイブイ,0
1023,5010601059842,新規,0,2021-08-25,2021-08-25,株式会社ＳＥＮＴＩＬ　ＩＮＶＥＳＴＭＥＮＴ,,株式会社,東京都,江東区,新大橋２丁目１２番１８－１２０３号,,13,108,1350007,,,,,,,2021-08-25,1,,,,,センティルインベストメント,0
1024,5010701041428,新規,0,2021-08-25,2021-08-25,株式会社ＳＮアセットマネジメント,,株式会社,東京都,品川区,西五反田７丁目９番５号ＳＧテラス２階,,13,109,1410031,,,,,,,2021-08-25,1,,,,,エスエヌアセットマネジメント,0
1026,5010903006740,新規,0,2021-08-25,2021-08-25,メディコラボラトリオ合同会社,,合同会社,東京都,世田谷区,粕谷４丁目２番１３藤和シティホームズ千歳烏山２０１号室,,13,112,1570063,,,,,,,2021-08-25,1,,,,,,0
1027,5010905004189,新規,0,2021-08-25,2021-08-25,一般社団法人シモキタ園藝部,,その他の設立登記法人,東京都,世田谷区,北沢２丁目２４－５シモキタフロント株式会社内,,13,112,1550031,,,,,,,2021-08-25,1,,,,,シモキタエンゲイブ,0
1039,5011001142494,新規,0,2021-08-25,2021-08-25,株式会社ＬＵＮＫ,,株式会社,東京都,渋谷区,東１丁目２６番２０号,,13,113,1500011,,,,,,,2021-08-25,1,,,,,ランク,0
1046,5011103010954,新規,0,2021-08-25,2021-08-25,合同会社ｍａｈａｎａ,,合同会社,東京都,新宿区,住吉町２－１８,,13,104,1620065,,,,,,,2021-08-25,1,,,,,マハナ,0
1049,5011303004145,新規,0,2021-08-25,2021-08-25,ＰＲプラス合同会社,,合同会社,東京都,杉並区,高井戸西２丁目１６番２８号,,13,115,1680071,,,,,,,2021-08-25,1,,,,,ピーアールプラス,0
1061,5012301012668,新規,0,2021-08-25,2021-08-25,株式会社渡邉企画,,株式会社,東京都,町田市,小山町２３６２番地９,,13,209,1940212,,,,,,,2021-08-25,1,,,,,ワタナベキカク,0
1066,5012701016632,新規,0,2021-08-25,2021-08-25,三和フロンティア株式会社,,株式会社,東京都,西東京市,田無町１丁目１２番６号,,13,229,1880011,,,,,,,2021-08-25,1,,,,,サンワフロンティア,0
1067,5012801021037,新規,0,2021-08-25,2021-08-25,ＲⅰＴａ株式会社,00124021,株式会社,東京都,立川市,錦町１丁目５－６サンパークビル２０３,,13,202,1900022,,,,,,,2021-08-25,1,,,,,リタ,0
1070,5013301047910,新規,0,2021-08-25,2021-08-25,株式会社ＡＳＰ,,株式会社,東京都,豊島区,西池袋３丁目２１番１３－２５０４号,,13,116,1710021,,,,,,,2021-08-25,1,,,,,エーエスピー,0
1073,5020001142719,新規,0,2021-08-25,2021-08-25,株式会社ｃｒｏｓｓ　ｃｈｅｅｒ,,株式会社,神奈川県,横浜市中区,石川町２丁目８５インブルーム３Ｆ,,14,104,2310868,,,,,,,2021-08-25,1,,,,,クロスチア,0
1074,5020001142727,新規,0,2021-08-25,2021-08-25,ブルーツリー株式会社,,株式会社,神奈川県,横浜市西区,霞ケ丘３４,,14,103,2200035,,,,,,,2021-08-25,1,,,,,ブルーツリー,0
1075,5020001142735,新規,0,2021-08-25,2021-08-25,株式会社オーエルイーパートナー,,株式会社,神奈川県,横浜市保土ケ谷区,仏向町１３１０番地パークサイド保土ヶ谷３０２,,14,106,2400044,,,,,,,2021-08-25,1,,,,,オーエルイーパートナー,0
1077,5020003020352,新規,0,2021-08-25,2021-08-25,ウェパロー合同会社,,合同会社,神奈川県,横浜市青葉区,美しが丘１丁目１３番地１０吉村ビル１０７号,,14,117,2250002,,,,,,,2021-08-25,1,,,,,ウェパロー,0
1078,5020003020369,新規,0,2021-08-25,2021-08-25,ハイタッチ合同会社,,合同会社,神奈川県,川崎市宮前区,有馬４丁目３番４－６０３号,,14,136,2160003,,,,,,,2021-08-25,1,,,,,ハイタッチ,0
1079,5020003020377,新規,0,2021-08-25,2021-08-25,合同会社横浜ＨＭＫ,,合同会社,神奈川県,横浜市神奈川区,栄町５番地１横浜クリエーションスクエア１４階,,14,102,2210052,,,,,,,2021-08-25,1,,,,,ヨコハマエイチエムケイ,0
1082,5021001073763,新規,0,2021-08-25,2021-08-25,株式会社いえここ不動産,,株式会社,神奈川県,秦野市,桜町２丁目１番４５号,,14,211,2570045,,,,,,,2021-08-25,1,,,,,イエココフドウサン,0
1084,5021003010830,新規,0,2021-08-25,2021-08-25,合同会社ＢＩＮＧＯ,,合同会社,神奈川県,平塚市,出縄１５番地の８,,14,203,2540915,,,,,,,2021-08-25,1,,,,,ビンゴ,0
1085,5021003010839,新規,0,2021-08-25,2021-08-25,Ｈｉｒａｄｏ　Ｊａｐａｎ合同会社,,合同会社,神奈川県,藤沢市,辻堂元町３丁目９番５号,,14,205,2510043,,,,,,,2021-08-25,1,,,,,ヒラドジャパン,0
1091,5030001143947,新規,0,2021-08-25,2021-08-25,株式会社アイジーユー,,株式会社,埼玉県,草加市,瀬崎７丁目１番９号,,11,221,3400022,,,,,,,2021-08-25,1,,,,,アイジーユー,0
1096,5030003017827,新規,0,2021-08-25,2021-08-25,合同会社ＴＵＯＮＯ,,合同会社,埼玉県,草加市,新善町３２７番地１７,,11,221,3400054,,,,,,,2021-08-25,1,,,,,トゥオーノ,0
1106,5050001049738,新規,0,2021-08-25,2021-08-25,株式会社ＰＲＥＸＩＡ,,株式会社,茨城県,古河市,下辺見２６１８番地,,08,204,3060235,,,,,,,2021-08-25,1,,,,,プレシア,0
1108,5050003006043,新規,0,2021-08-25,2021-08-25,合同会社Ｎａｋａｎｏ　Ｒｕｎｎｅｒ　Ｃｏ,,合同会社,茨城県,稲敷市,蒲ケ山７３４番地１６ライジングハウス２０１号室,,08,229,3000522,,,,,,,2021-08-25,1,,,,,ナカノランナーコー,0
1111,5060003003790,新規,0,2021-08-25,2021-08-25,佳成合同会社,,合同会社,栃木県,足利市,通２丁目２７４５番地１,,09,202,3260814,,,,,,,2021-08-25,1,,,,,カセイ,0
1127,5120001239926,新規,0,2021-08-25,2021-08-25,株式会社庭健,,株式会社,大阪府,大阪市淀川区,西宮原３丁目３番１－１５０７号,,27,123,5320004,,,,,,,2021-08-25,1,,,,,ニワケン,0
1128,5120001239942,新規,0,2021-08-25,2021-08-25,株式会社Ｔｉｄａ,,株式会社,大阪府,大阪市淀川区,西中島４丁目８番１－５０６号,,27,123,5320011,,,,,,,2021-08-25,1,,,,,ティーダ,0
1129,5120003020061,新規,0,2021-08-25,2021-08-25,ＦＣＨマネジメント合同会社,,合同会社,大阪府,大阪市阿倍野区,天王寺町北１丁目８番４７－２０８号,,27,119,5450001,,,,,,,2021-08-25,1,,,,,エフシーエイチマネジメント,0
1133,5120103004311,新規,0,2021-08-25,2021-08-25,合同会社リアン,,合同会社,大阪府,泉南郡熊取町,大久保中３丁目１５番２５号,,27,361,5900403,,,,,,,2021-08-25,1,,,,,リアン,0
1140,5130003007438,新規,0,2021-08-25,2021-08-25,ｇｏｏｄｐｏｄ合同会社,,合同会社,京都府,京都市左京区,下鴨東岸本町１４番地京都下鴨修学館１１２,,26,103,6060854,,,,,,,2021-08-25,1,,,,,グッドポッド,0
1141,5130005016255,新規,0,2021-08-25,2021-08-25,弁護士法人けやき法律事務所,,その他の設立登記法人,京都府,京都市中京区,烏丸通御池上る二条殿町５３８番地,,26,104,6040845,,,,,,,2021-08-25,1,,,,,ケヤキホウリツジムショ,0
1150,5150001024879,新規,0,2021-08-25,2021-08-25,株式会社Ｈａｎｄｓ－ｏｎ,,株式会社,奈良県,生駒市,生駒台南１１３０番地２６,,29,209,6300202,,,,,,,2021-08-25,1,,,,,ハンズオン,0
1152,5150005009323,新規,0,2021-08-25,2021-08-25,一般社団法人新御所有害射猟会,,その他の設立登記法人,奈良県,御所市,大字戸毛９１７番地,,29,208,6392251,,,,,,,2021-08-25,1,,,,,シンゴセユウガイシャリョウカイ,0
1154,5160005010973,新規,0,2021-08-25,2021-08-25,一般社団法人くさつ市民相続相談センター,,その他の設立登記法人,滋賀県,草津市,草津町１８６６番６,,25,206,5250036,,,,,,,2021-08-25,1,,,,,クサツシミンソウゾクソウダンセンター,0
1162,5180001147537,新規,0,2021-08-25,2021-08-25,株式会社ＳＰＧ,,株式会社,愛知県,豊明市,前後町仙人塚１７３６番地１４８,,23,229,4701152,,,,,,,2021-08-25,1,,,,,エスピージー,0
1163,5180001147545,新規,0,2021-08-25,2021-08-25,株式会社バラテック,,株式会社,愛知県,半田市,瑞穂町３丁目４－７,,23,205,4750828,,,,,,,2021-08-25,1,,,,,バラテック,0
1164,5180001147553,新規,0,2021-08-25,2021-08-25,株式会社ライズ,,株式会社,愛知県,常滑市,原松町２丁目６番地の１Ａ棟,,23,216,4790832,,,,,,,2021-08-25,1,,,,,ライズ,0
1165,5180003022894,新規,0,2021-08-25,2021-08-25,合同会社Ｂｉｒｔｈ　Ｗｅｌｌ,,合同会社,愛知県,小牧市,小木南３丁目２４９番地,,23,219,4850056,,,,,,,2021-08-25,1,,,,,バースウェル,0
1167,5220001024376,新規,0,2021-08-25,2021-08-25,株式会社フレア,,株式会社,石川県,金沢市,長町１丁目４番１４号,,17,201,9200865,,,,,,,2021-08-25,1,,,,,フレア,0
1173,5240003005257,新規,0,2021-08-25,2021-08-25,合同会社天龍姫,,合同会社,広島県,広島市中区,銀山町１０番１０号,,34,101,7300022,,,,,,,2021-08-25,1,,,,,テンリュウヒメ,0
1184,5290001094280,新規,0,2021-08-25,2021-08-25,Ｆｌｏｗｅｒ　Ｃｉｔｙ　Ｃｏｍｐａｎｙ株式会社,,株式会社,福岡県,福岡市中央区,赤坂１丁目２番７－６０８号,,40,133,8100042,,,,,,,2021-08-25,1,,,,,フラワーシティカンパニー,0
1185,5290001094289,新規,0,2021-08-25,2021-08-25,ルピナス株式会社,,株式会社,福岡県,福岡市博多区,博多駅南５丁目２１番１０－９０５号,,40,132,8120016,,,,,,,2021-08-25,1,,,,,ルピナス,0
1186,5290001094297,新規,0,2021-08-25,2021-08-25,株式会社九州中央不動産,,株式会社,福岡県,福岡市早良区,西新１丁目８番１１号,,40,137,8140002,,,,,,,2021-08-25,1,,,,,キュウシュウチュウオウフドウサン,0
1187,5290003011507,新規,0,2021-08-25,2021-08-25,合同会社ａｎｇｅｌｉｃａ,,合同会社,福岡県,福岡市中央区,桜坂３丁目１２番９１－４１２号パークヒルズ櫻坂ステージⅠ,00124020,40,133,8100024,,,,,,,2021-08-25,1,,,,,アンジェリカ,0
1191,5290801027729,新規,0,2021-08-25,2021-08-25,ソルアライアンス株式会社,,株式会社,福岡県,北九州市小倉北区,京町１丁目５番２２号,,40,106,8020002,,,,,,,2021-08-25,1,,,,,ソルアライアンス,0
1194,5300001012604,新規,0,2021-08-25,2021-08-25,豊産業株式会社,,株式会社,佐賀県,佐賀市,川副町西古賀７８４,,41,201,8490000,,,,,,,2021-08-25,1,,,,,ユタカサンギョウ,0
1198,5320001018558,新規,0,2021-08-25,2021-08-25,ＶＣジャパン株式会社,,株式会社,大分県,中津市,中殿町３丁目４番地１,,44,203,8710030,,,,,,,2021-08-25,1,,,,,,0
1201,5330001028936,新規,0,2021-08-25,2021-08-25,株式会社ｗｉＺ,,株式会社,熊本県,玉名市,滑石３７０７番地１,,43,206,8650056,,,,,,,2021-08-25,1,,,,,ウィズ,0
1208,5330005010386,新規,0,2021-08-25,2021-08-25,一般社団法人博昌会,,その他の設立登記法人,熊本県,熊本市南区,幸田１丁目７番２０号,,43,104,8614108,,,,,,,2021-08-25,1,,,,,ハクショウカイ,0
1212,5340001024026,新規,0,2021-08-25,2021-08-25,株式会社セキ,,株式会社,鹿児島県,大島郡天城町,大字西阿木名２８２番地１,,46,531,8917731,,,,,,,2021-08-25,1,,,,,セキ,0
1213,5340001024050,新規,0,2021-08-25,2021-08-25,藤絹工芸株式会社,,株式会社,鹿児島県,鹿児島市,南栄１丁目８番１号,,46,201,8910122,,,,,,,2021-08-25,1,,,,,フジギヌコウゲイ,0
1218,5360001029221,新規,0,2021-08-25,2021-08-25,株式会社ｃａｓａ　ｄｅｌ　ｓｏｌｅ宮古島,,株式会社,沖縄県,宮古島市,城辺字保良５４０－１２,,47,214,9060101,,,,,,,2021-08-25,1,,,,,カッザデルソレーミヤコジマ,0
1219,5360001029279,新規,0,2021-08-25,2021-08-25,Ｒａｙｏｕｔ　Ｌｏｇｉｓｔｉｃｓ株式会社,,株式会社,沖縄県,沖縄市,泡瀬４丁目２７番２２号３Ｆ,,47,211,9042172,,,,,,,2021-08-25,1,,,,,レイアウトロジスティクス,0
1220,5360001029287,新規,0,2021-08-25,2021-08-25,株式会社リバティー沖縄,,株式会社,沖縄県,那覇市,樋川２丁目３番１号,00124023,47,201,9000022,,,,,,,2021-08-25,1,,,,,リバティーオキナワ,0
1222,5370001047503,新規,0,2021-08-25,2021-08-25,株式会社コントレイル,,株式会社,宮城県,富谷市,あけの平２丁目９番地３,,04,216,9813361,,,,,,,2021-08-25,1,,,,,コントレイル,0
1225,5380005012469,新規,0,2021-08-25,2021-08-25,ＮＰＯ法人マイウェイ,,その他の設立登記法人,福島県,喜多方市,豊川町高堂太字免田９７７番地１０,,07,208,9660911,,,,,,,2021-08-25,1,,,,,,0
1228,5400003002824,新規,0,2021-08-25,2021-08-25,資源の里合同会社,,合同会社,岩手県,奥州市,前沢古城字比良４２番地４,,03,215,0294201,,,,,,,2021-08-25,1,,,,,シゲンノサト,0
1234,5430001084812,新規,0,2021-08-25,2021-08-25,株式会社山口タイヤサービス,,株式会社,北海道,三笠市,萱野１０８番地１２,,01,222,0682166,,,,,,,2021-08-25,1,,,,,ヤマグチタイヤサービス,0
1238,5430003013075,新規,0,2021-08-25,2021-08-25,合同会社南インド屋,,合同会社,北海道,札幌市厚別区,厚別中央一条７丁目３番２０号ロジェ新札幌ステーション１１６号室,,01,108,0040051,,,,,,,2021-08-25,1,,,,,ミナミインドヤ,0
1242,5480001011464,新規,0,2021-08-25,2021-08-25,株式会社フェニックス,,株式会社,徳島県,徳島市,住吉４丁目１０番６０,,36,201,7700861,,,,,,,2021-08-25,1,,,,,フェニックス,0
1250,6010001220417,新規,0,2021-08-25,2021-08-25,株式会社Ｎｅｂｒａｓｋａ,,株式会社,東京都,千代田区,平河町１丁目３－６ＢＩＺＭＡＲＫＳ麹町２Ｆ,,13,101,1020093,,,,,,,2021-08-25,1,,,,,ネブラスカ,0
1251,6010001220656,新規,0,2021-08-25,2021-08-25,青十字クリニックオペレーションズ株式会社,,株式会社,東京都,千代田区,永田町２丁目１１番１号山王パークタワー３階,,13,101,1000014,,,,,,,2021-08-25,1,,,,,アオジュウジクリニックオペレーションズ,0
1264,6010405020116,新規,0,2021-08-25,2021-08-25,一般社団法人グローバル・クラスルーム日本協会,,その他の設立登記法人,東京都,港区,南青山２丁目２番１５号,,13,103,1070062,,,,,,,2021-08-25,1,,,,,グローバルクラスルームニホンキョウカイ,0
1270,6010701041427,新規,0,2021-08-25,2021-08-25,分析と対話株式会社,,株式会社,東京都,品川区,北品川５丁目５番１５号大崎ブライトコア４階,,13,109,1410001,,,,,,,2021-08-25,1,,,,,ブンセキトタイワ,0
1273,6010905004188,新規,0,2021-08-25,2021-08-25,特定非営利活動法人東京コンテンポラリーシアター,,その他の設立登記法人,東京都,世田谷区,駒沢５丁目４番８号,,13,112,1540012,,,,,,,2021-08-25,1,,,,,トウキョウコンテンポラリーシアター,0
1275,6011001142460,新規,0,2021-08-25,2021-08-25,株式会社ニッポン不動産,,株式会社,東京都,渋谷区,代々木１丁目５－８セボン代々木１０５,,13,113,1510053,,,,,,,2021-08-25,1,,,,,ニッポンフドウサン,0
1280,6011101096094,新規,0,2021-08-25,2021-08-25,株式会社ＢｕＢｕ,,株式会社,東京都,新宿区,新宿７丁目９番１０号,,13,104,1600022,,,,,,,2021-08-25,1,,,,,ブブ,0
1281,6011103010953,新規,0,2021-08-25,2021-08-25,合同会社夢道,,合同会社,東京都,新宿区,歌舞伎町２丁目５番１２－１４０４号,,13,104,1600021,,,,,,,2021-08-25,1,,,,,ドリームロード,0
1283,6011303004144,新規,0,2021-08-25,2021-08-25,ハイランドスター合同会社,,合同会社,東京都,杉並区,永福４丁目８－１５,,13,115,1680064,,,,,,,2021-08-25,1,,,,,ハイランドスター,0
1287,6011801039617,新規,0,2021-08-25,2021-08-25,Ｔｏｍｏｒｒｏｗ　Ｃｏｍｐａｎｙ株式会社,,株式会社,東京都,足立区,西新井本町２丁目２７－１７－１１０２,,13,121,1230845,,,,,,,2021-08-25,1,,,,,トゥモローカンパニー,0
1294,6012803002579,新規,0,2021-08-25,2021-08-25,ＢＲＰＰ．Ｉｎｔｅｒｎａｔｉｏｎａｌ合同会社,,合同会社,東京都,国分寺市,西恋ヶ窪３丁目３番地６号Ｕ－１８ビル１０１号,,13,214,1850013,,,,,,,2021-08-25,1,,,,,ビーアールピーピーインターナショナル,0
1303,6020001142734,新規,0,2021-08-25,2021-08-25,株式会社Ｋｎｉｇｈｔ　Ｄｅｓｉｇｎ,,株式会社,神奈川県,横浜市中区,扇町１丁目１番地１６,,14,104,2310027,,,,,,,2021-08-25,1,,,,,ナイトデザイン,0
1306,6020003020384,新規,0,2021-08-25,2021-08-25,合同会社ＲＴ,,合同会社,神奈川県,横浜市青葉区,たちばな台１丁目８番地１１,,14,117,2270046,,,,,,,2021-08-25,1,,,,,リコトラ,0
1309,6021001073754,新規,0,2021-08-25,2021-08-25,株式会社ＤＡＷＩＮ,,株式会社,神奈川県,藤沢市,長後２６２７－２,,14,205,2520801,,,,,,,2021-08-25,1,,,,,ダーウィン,0
1318,6030001143995,新規,0,2021-08-25,2021-08-25,Ａｏｉ．Ｄｒｅａｍ株式会社,,株式会社,埼玉県,さいたま市緑区,大字中尾１０５番地４,,11,109,3360932,,,,,,,2021-08-25,1,,,,,アオイドリーム,0
1320,6030003017818,新規,0,2021-08-25,2021-08-25,合同会社無限,,合同会社,埼玉県,越谷市,蒲生本町１番１７号グランブルー弐番館１０２,,11,222,3430837,,,,,,,2021-08-25,1,,,,,ムゲン,0
1321,6030003017826,新規,0,2021-08-25,2021-08-25,ヨシオカユキ合同会社,,合同会社,埼玉県,行田市,大字谷郷３０２番地２,,11,206,3610062,,,,,,,2021-08-25,1,,,,,ヨシオカユキ,0
1329,6040001119862,新規,0,2021-08-25,2021-08-25,トミートイズ株式会社,,株式会社,千葉県,千葉市中央区,生実町８３１番地１,,12,101,2600813,,,,,,,2021-08-25,1,,,,,トミートイズ,0
1330,6040001119879,新規,0,2021-08-25,2021-08-25,株式会社美成,,株式会社,千葉県,松戸市,根本１５１番地の２シャルマンコーポ松戸４０５号室,,12,207,2710077,,,,,,,2021-08-25,1,,,,,ビセイ,0
1335,6040003018344,新規,0,2021-08-25,2021-08-25,ステートストリート合同会社,,合同会社,千葉県,野田市,中野台３６１－７,,12,208,2780035,,,,,,,2021-08-25,1,,,,,ステートストリート,0
1336,6040003018369,新規,0,2021-08-25,2021-08-25,オイカワ合同会社,,合同会社,千葉県,習志野市,香澄２丁目５番８－１号,,12,216,2750022,,,,,,,2021-08-25,1,,,,,オイカワ,0
1337,6050001049737,新規,0,2021-08-25,2021-08-25,株式会社塚原工業,00124026,株式会社,茨城県,古河市,諸川１０２２番地１ピーノヴェントＢ－２０１,,08,204,3060126,,,,,,,2021-08-25,1,,,,,ツカハラコウギョウ,0
1341,6100001034551,新規,0,2021-08-25,2021-08-25,株式会社アークビルド,,株式会社,長野県,長野市,篠ノ井岡田３３１番地５,,20,201,3812225,,,,,,,2021-08-25,1,,,,,アークビルド,0
1350,6120001239900,新規,0,2021-08-25,2021-08-25,株式会社ＴＯＳＨＯ,,株式会社,大阪府,大阪市中央区,北久宝寺町１丁目９番６号ネオフィス堺筋本町２０２号,,27,128,5410057,,,,,,,2021-08-25,1,,,,,トーショー,0
1351,6120001239909,新規,0,2021-08-25,2021-08-25,坂井ホールディングス株式会社,,株式会社,大阪府,大阪市都島区,毛馬町１丁目５番１８号,,27,102,5340001,,,,,,,2021-08-25,1,,,,,サカイホールディングス,0
1352,6120001239941,新規,0,2021-08-25,2021-08-25,株式会社Ｃｙｔｏｋｉｎｄｓ,,株式会社,大阪府,大阪市北区,西天満２丁目７番２２号サンシステム北新地ビル３０１号,,27,127,5300047,,,,,,,2021-08-25,1,,,,,サイトカインド,0
1366,6130001069982,新規,0,2021-08-25,2021-08-25,株式会社オルテンシア,,株式会社,京都府,京都市伏見区,観音寺町２１８番地,,26,109,6128101,,,,,,,2021-08-25,1,,,,,オルテンシア,0
1369,6130003007437,新規,0,2021-08-25,2021-08-25,ランチャー京都丹波合同会社,,合同会社,京都府,南丹市,日吉町胡麻下道１６番地１,,26,213,6290311,,,,,,,2021-08-25,1,,,,,ランチャーキョウトタンバ,0
1370,6130005016254,新規,0,2021-08-25,2021-08-25,一般社団法人日本エフェクチュエーション協会,,その他の設立登記法人,京都府,京都市左京区,吉田本町,,26,103,6068317,,,,,,,2021-08-25,1,,,,,ニホンエフェクチュエーションキョウカイ,0
1377,6150003002469,新規,0,2021-08-25,2021-08-25,合同会社Ｓ＆Ｍ,,合同会社,奈良県,香芝市,瓦口２１８３番地エスリード五位堂レジデンス２０４号,,29,210,6390225,,,,,,,2021-08-25,1,,,,,エスアンドエム,0
1378,6160001023573,新規,0,2021-08-25,2021-08-25,株式会社ミライの営業,,株式会社,滋賀県,大津市,松本２丁目１５番１１号,,25,201,5200807,,,,,,,2021-08-25,1,,,,,ミライノエイギョウ,0
1389,6180001147544,新規,0,2021-08-25,2021-08-25,株式会社ａｓｙｌ,,株式会社,愛知県,名古屋市中区,栄５丁目２６番３９号ＧＳ栄ビル３Ｆ,,23,106,4600008,,,,,,,2021-08-25,1,,,,,アジール,0
1392,6180003022893,新規,0,2021-08-25,2021-08-25,サプライチェーンＢｉｚスクエア名古屋合同会社,,合同会社,愛知県,名古屋市西区,牛島町６番１号,,23,104,4510046,,,,,,,2021-08-25,1,,,,,サプライチェーンビズスクエアナゴヤ,0
1394,6180301035291,新規,0,2021-08-25,2021-08-25,ブラシノキ株式会社,,株式会社,愛知県,岡崎市,箱柳町字猫沢２３番地８,,23,202,4440001,,,,,,,2021-08-25,1,,,,,ブラシノキ,0
1398,6190001028628,新規,0,2021-08-25,2021-08-25,株式会社タツミプランニング,,株式会社,三重県,伊勢市,船江２丁目１１番地４,,24,203,5160008,,,,,,,2021-08-25,1,,,,,タツミプランニング,0
1407,6240001058462,新規,0,2021-08-25,2021-08-25,株式会社Ｎ＆Ｓ,,株式会社,広島県,広島市西区,商工センター８丁目６番２９号,,34,104,7330833,,,,,,,2021-08-25,1,,,,,エヌアンドエス,0
1408,6240001058487,新規,0,2021-08-25,2021-08-25,株式会社クロッシュ,,株式会社,広島県,広島市中区,小町７番２号,,34,101,7300041,,,,,,,2021-08-25,1,,,,,クロッシュ,0
1419,6260001035897,新規,0,2021-08-25,2021-08-25,株式会社福栄,,株式会社,岡山県,岡山市北区,東古松２丁目７番１６号,,33,101,7000921,,,,,,,2021-08-25,1,,,,,フクエイ,0
1422,6270001008340,新規,0,2021-08-25,2021-08-25,株式会社Ｍ．Ｒ．Ｃ,,株式会社,鳥取県,米子市,淀江町佐陀５２７,,31,202,6893425,,,,,,,2021-08-25,1,,,,,,0
1426,6290001094288,新規,0,2021-08-25,2021-08-25,株式会社シンキトレーディング,,株式会社,福岡県,福岡市博多区,諸岡５丁目９番１３号,,40,132,8120894,,,,,,,2021-08-25,1,,,,,シンキトレーディング,0
1427,6290001094346,新規,0,2021-08-25,2021-08-25,株式会社ＧＣ　ＡＧＥＮＴ,,株式会社,福岡県,福岡市中央区,天神３丁目１０番３２号,,40,133,8100001,,,,,,,2021-08-25,1,,,,,ジーシーエージェント,0
1428,6290001094362,新規,0,2021-08-25,2021-08-25,株式会社Ｓｋｙ,,株式会社,福岡県,福岡市中央区,大名２丁目１０番４号シャンポール大名Ｄ棟２０５号,,40,133,8100041,,,,,,,2021-08-25,1,,,,,スカイ,0
1430,6290003011530,新規,0,2021-08-25,2021-08-25,合同会社ナカモト,,合同会社,福岡県,福岡市中央区,谷２丁目３番３０－１０２号ＢＲＥＡＴＨ六本松Ⅱ,00124019,40,133,8100031,,,,,,,2021-08-25,1,,,,,ナカモト,0
1436,6320001018557,新規,0,2021-08-25,2021-08-25,株式会社山警,,株式会社,大分県,大分市,大字上宗方５２０番地１コーポ宗方２０２号,,44,201,8701152,,,,,,,2021-08-25,1,,,,,,0
1462,6420001017565,新規,0,2021-08-25,2021-08-25,株式会社はなわ電機,,株式会社,青森県,弘前市,大字鼻和字岩井２３１番地３,,02,202,0361301,,,,,,,2021-08-25,1,,,,,ハナワデンキ,0
1463,6420003002375,新規,0,2021-08-25,2021-08-25,合同会社空と森と海,,合同会社,青森県,弘前市,大字取上５丁目１６番地４号,,02,202,0368171,,,,,,,2021-08-25,1,,,,,ソラトモリトウミ,0
1467,6430001084803,新規,0,2021-08-25,2021-08-25,株式会社ＧＮ１,,株式会社,北海道,札幌市厚別区,厚別中央三条６丁目１番６号,,01,108,0040053,,,,,,,2021-08-25,1,,,,,ジーエヌワン,0
1468,6430001084811,新規,0,2021-08-25,2021-08-25,Ｃｒａｆｔｅｒ’ｓ　Ｊａｐａｎ株式会社,,株式会社,北海道,札幌市白石区,南郷通１９丁目南２番２６－４０１号,,01,104,0030022,,,,,,,2021-08-25,1,,,,,クラフターズジャパン,0
1471,6430003013074,新規,0,2021-08-25,2021-08-25,合同会社八田林業,,合同会社,北海道,沙流郡平取町,振内町２７番地３８,,01,602,0550411,,,,,,,2021-08-25,1,,,,,ハッタリンギョウ,0
1476,6500001023638,新規,0,2021-08-25,2021-08-25,今井総業株式会社,,株式会社,愛媛県,松山市,北土居４丁目２４番２９号,,38,201,7911104,,,,,,,2021-08-25,1,,,,,イマイソウギョウ,0
1486,7010001220449,新規,0,2021-08-25,2021-08-25,ＬＥＳＴＯ＆ＤＥＲＴＮＥ株式会社,,株式会社,東京都,千代田区,神田佐久間町３丁目２１－５ヒガシカンダビル３０７号,,13,101,1010025,,,,,,,2021-08-25,1,,,,,,0
1487,7010001220589,新規,0,2021-08-25,2021-08-25,ブルーコンシャス株式会社,,株式会社,東京都,中央区,銀座３丁目１３番１９号東銀座３１３ビル３階,,13,102,1040061,,,,,,,2021-08-25,1,,,,,ブルーコンシャス,0
1488,7010001220614,新規,0,2021-08-25,2021-08-25,株式会社ＰＯＳＳＩＭ,,株式会社,東京都,中央区,湊３丁目１０番１０号ＢｉｚＳＱＵＡＲＥ築地１Ｆ,,13,102,1040043,,,,,,,2021-08-25,1,,,,,ポッシム,0
1489,7010001220647,新規,0,2021-08-25,2021-08-25,ＴＡＴ商事株式会社,,株式会社,東京都,千代田区,外神田２丁目１４番１０号第二電波ビル４階,,13,101,1010021,,,,,,,2021-08-25,1,,,,,ティーエーティーショウジ,0
1502,7010701041434,新規,0,2021-08-25,2021-08-25,株式会社ＰＤＹエンタテインメント,,株式会社,東京都,品川区,東五反田４丁目３－３４シャトレーヌ白金台ヒルズ３０３,,13,109,1410022,,,,,,,2021-08-25,1,,,,,ピーディーワイエンタテインメント,0
1505,7010703005916,新規,0,2021-08-25,2021-08-25,ｌａｎｉｔｅｃｈ合同会社,,合同会社,東京都,品川区,東大井５丁目２６番２０－３０１号,,13,109,1400011,,,,,,,2021-08-25,1,,,,,ラニテク,0
1516,7011005009192,新規,0,2021-08-25,2021-08-25,一般社団法人ＸＰＬＡＮＥ,,その他の設立登記法人,東京都,渋谷区,神宮前６丁目２３番４号桑野ビル２階,,13,113,1500001,,,,,,,2021-08-25,1,,,,,エクスプレイン,0
1519,7011101096093,新規,0,2021-08-25,2021-08-25,株式会社ＬＳテクノロジー,,株式会社,東京都,新宿区,新宿２丁目１２番１３号新宿アントレサロンビル２階,,13,104,1600022,,,,,,,2021-08-25,1,,,,,エルエステクノロジー,0
1522,7011103010952,新規,0,2021-08-25,2021-08-25,合同会社ファラ,,合同会社,東京都,新宿区,歌舞伎町１丁目２番７号新宿ダイカンプラザ星座館７０２号室,,13,104,1600021,,,,,,,2021-08-25,1,,,,,ファラ,0
1524,7011203003625,新規,0,2021-08-25,2021-08-25,ｌｏｇｒａｒ合同会社,,合同会社,東京都,中野区,南台３丁目４６番３３号ＧＲＡＣＥＳＴＯＮＥ１０１,,13,114,1640014,,,,,,,2021-08-25,1,,,,,ログラル,0
1525,7011303004143,新規,0,2021-08-25,2021-08-25,合同会社Ａｔｓｕｍｅｒｕ,,合同会社,東京都,杉並区,宮前５丁目８－９リムテラス杉並宮前１０２,,13,115,1680081,,,,,,,2021-08-25,1,,,,,アツメル,0
1536,7012401038231,新規,0,2021-08-25,2021-08-25,ライト株式会社,,株式会社,東京都,府中市,武蔵台１丁目２５番５６号,,13,206,1830042,,,,,,,2021-08-25,1,,,,,ライト,0
1537,7012403004999,新規,0,2021-08-25,2021-08-25,合同会社ＳＴｏｒｄｅｒ,,合同会社,東京都,多摩市,諏訪１丁目５－５,,13,224,2060024,,,,,,,2021-08-25,1,,,,,エスティーオーダー,0
1542,7012803002578,新規,0,2021-08-25,2021-08-25,仕掛人１０１合同会社,,合同会社,東京都,立川市,西砂町２丁目２９番地の２６,,13,202,1900034,,,,,,,2021-08-25,1,,,,,シカケニンイチマルイチ,0
1543,7013301047900,新規,0,2021-08-25,2021-08-25,株式会社万有引力,,株式会社,東京都,豊島区,高田１丁目３６番１３－３０５号,,13,116,1710033,,,,,,,2021-08-25,1,,,,,バンユウインリョク,0
1552,7020001142741,新規,0,2021-08-25,2021-08-25,株式会社アリストテレス,,株式会社,神奈川県,川崎市中原区,新丸子東３丁目１１００番地１５－Ｓ３１０３,,14,133,2110004,,,,,,,2021-08-25,1,,,,,アリストテレス,0
1553,7020003020367,新規,0,2021-08-25,2021-08-25,合同会社ぜんまいラボ,,合同会社,神奈川県,川崎市宮前区,有馬８丁目６番１９－５０１号,,14,136,2160003,,,,,,,2021-08-25,1,,,,,ゼンマイラボ,0
1554,7020003020375,新規,0,2021-08-25,2021-08-25,合同会社伸和電気,,合同会社,神奈川県,川崎市多摩区,中野島３丁目２９番１０－２０１号,,14,135,2140012,,,,,,,2021-08-25,1,,,,,シンワデンキ,0
1555,7020003020383,新規,0,2021-08-25,2021-08-25,合同会社ユーフラジー,,合同会社,神奈川県,横浜市緑区,中山１丁目２６番２－３０５号,,14,113,2260019,,,,,,,2021-08-25,1,,,,,ユーフラジー,0
1561,7021001073753,新規,0,2021-08-25,2021-08-25,株式会社くまのと,,株式会社,神奈川県,三浦郡葉山町,一色１９４０番地の３４,,14,301,2400111,,,,,,,2021-08-25,1,,,,,クマノト,0
1576,7040001119886,新規,0,2021-08-25,2021-08-25,株式会社Ｉ’ＲＩＳ,,株式会社,千葉県,流山市,三輪野山３丁目１０番地の１２,,12,220,2700175,,,,,,,2021-08-25,1,,,,,イリス,0
1584,7040003018384,新規,0,2021-08-25,2021-08-25,合同会社シン,,合同会社,千葉県,柏市,あけぼの４丁目７番６号クレセントコート柏Ｂ２２６,,12,217,2770841,,,,,,,2021-08-25,1,,,,,シン,0
1586,7050001049736,新規,0,2021-08-25,2021-08-25,エス・オー・シー株式会社,,株式会社,茨城県,ひたちなか市,高場１丁目１５番地７,,08,221,3120062,,,,,,,2021-08-25,1,,,,,エスオーシー,0
1587,7050001049744,新規,0,2021-08-25,2021-08-25,株式会社波凪房,,株式会社,茨城県,神栖市,波崎新港３番地５,,08,232,3140407,,,,,,,2021-08-25,1,,,,,ハナボウ,0
1590,7050003006041,新規,0,2021-08-25,2021-08-25,合同会社デイウォーク,,合同会社,茨城県,神栖市,溝口４８７３番地４５４,,08,232,3140121,,,,,,,2021-08-25,1,,,,,デイウォーク,0
1591,7060001034019,新規,0,2021-08-25,2021-08-25,株式会社バジワトレーディング,,株式会社,栃木県,栃木市,藤岡町富吉１５００番地,,09,203,3290311,,,,,,,2021-08-25,1,,,,,バジワトレーディング,0
1598,7080001024397,新規,0,2021-08-25,2021-08-25,マツダフード株式会社,,株式会社,静岡県,静岡市清水区,入江南町１４－１４,,22,103,4240832,,,,,,,2021-08-25,1,,,,,マツダフード,0
1607,7110003004559,新規,0,2021-08-25,2021-08-25,合同会社ＢＩＴＯＢＡ,,合同会社,新潟県,新潟市中央区,古町通４番町５７９番地１グリーンミナミ古町２０６Ｂ,,15,103,9518063,,,,,,,2021-08-25,1,,,,,ビトバ,0
1618,7120001239924,新規,0,2021-08-25,2021-08-25,株式会社ＳＵＮ,,株式会社,大阪府,大阪市住吉区,山之内１丁目２４番３０号ナカノハイツ３０８号,,27,120,5580023,,,,,,,2021-08-25,1,,,,,サン,0
1619,7120001239940,新規,0,2021-08-25,2021-08-25,株式会社ＴＷＯ,,株式会社,大阪府,大阪市北区,天満３丁目１番１１号１階,,27,127,5300043,,,,,,,2021-08-25,1,,,,,ティーダブリュオー,0
1626,7120003020068,新規,0,2021-08-25,2021-08-25,合同会社ツカサエステート,,合同会社,大阪府,寝屋川市,南水苑町２０番８号,,27,215,5720826,,,,,,,2021-08-25,1,,,,,ツカサエステート,0
1632,7130001069973,新規,0,2021-08-25,2021-08-25,株式会社カカポ,,株式会社,京都府,京丹後市,網野町木津２５５番地,,26,212,6293241,,,,,,,2021-08-25,1,,,,,カカポ,0
1644,7150003002468,新規,0,2021-08-25,2021-08-25,合同会社ＷＩＬＬ,,合同会社,奈良県,香芝市,すみれ野１丁目９番地６グランテリア１０２号,,29,210,6390237,,,,,,,2021-08-25,1,,,,,ウィル,0
1645,7160001023572,新規,0,2021-08-25,2021-08-25,ラピスコーポレーション株式会社,,株式会社,滋賀県,大津市,水明１丁目３９番地３,,25,201,5200531,,,,,,,2021-08-25,1,,,,,ラピスコーポレーション,0
1646,7170001016732,新規,0,2021-08-25,2021-08-25,株式会社ＫＬＯ,,株式会社,和歌山県,和歌山市,六十谷１９５番地１７,,30,201,6408482,,,,,,,2021-08-25,1,,,,,ケーエルオー,0
1653,7180001147543,新規,0,2021-08-25,2021-08-25,株式会社スズキ総建,,株式会社,愛知県,名古屋市名東区,高針１丁目４０２番地の８,,23,115,4650061,,,,,,,2021-08-25,1,,,,,スズキソウケン,0
1654,7180001147576,新規,0,2021-08-25,2021-08-25,株式会社Ｄ－ｓｔｙｌｅ,,株式会社,愛知県,豊明市,西川町島原１４番地７,,23,229,4701121,,,,,,,2021-08-25,1,,,,,ディースタイル,0
1655,7180003022892,新規,0,2021-08-25,2021-08-25,合同会社ＬＩＮＫ　ＵＰ,,合同会社,愛知県,名古屋市西区,菊井１丁目１番３号ツルミビル４０１号,,23,104,4510044,,,,,,,2021-08-25,1,,,,,リンクアップ,0
1659,7190001028619,新規,0,2021-08-25,2021-08-25,株式会社壱商業,,株式会社,三重県,名張市,滝之原１８２３番地,,24,208,5180411,,,,,,,2021-08-25,1,,,,,イチショウギョウ,0
1667,7240001058486,新規,0,2021-08-25,2021-08-25,株式会社ＳＡＸＳＩＡ,,株式会社,広島県,広島市南区,南蟹屋２丁目１番３６－９０７号,,34,103,7320803,,,,,,,2021-08-25,1,,,,,サクシア,0
1676,7290001094345,新規,0,2021-08-25,2021-08-25,株式会社綱分商店,,株式会社,福岡県,糟屋郡粕屋町,大字仲原２６３８番地１,,40,349,8112304,,,,,,,2021-08-25,1,,,,,ツナワキショウテン,0
1677,7290003011538,新規,0,2021-08-25,2021-08-25,合同会社スギョー,,合同会社,福岡県,福津市,手光２６７１番地の２２,,40,224,8113224,,,,,,,2021-08-25,1,,,,,スギョー,0
1679,7290005018325,新規,0,2021-08-25,2021-08-25,一般社団法人中洲メディカル,,その他の設立登記法人,福岡県,福岡市博多区,博多駅前３丁目１９番１８－８０３号,,40,132,8120011,,,,,,,2021-08-25,1,,,,,ナカスメディカル,0
1685,7320005009915,新規,0,2021-08-25,2021-08-25,ちえの泉企業組合,,その他の設立登記法人,大分県,大分市,下郡山の手４番４１号,,44,201,8700961,,,,,,,2021-08-25,1,,,,,,0
1688,7340001024049,新規,0,2021-08-25,2021-08-25,株式会社オーキュウ鹿児島,,株式会社,鹿児島県,鹿児島市,桜ヶ丘３丁目４番３号,,46,201,8910175,,,,,,,2021-08-25,1,,,,,オーキュウカゴシマ,0
1691,7360001029285,新規,0,2021-08-25,2021-08-25,株式会社Ｋ．Ｒ．Ｙ,,株式会社,沖縄県,那覇市,辻１丁目９番１号,00124022,47,201,9000037,,,,,,,2021-08-25,1,,,,,ケーアルワイ,0
1698,7420001017564,新規,0,2021-08-25,2021-08-25,Ｍｉｄｄｌｅ　Ｂｒｏｗ株式会社,,株式会社,青森県,上北郡七戸町,字向平４２番地１８,,02,402,0392563,,,,,,,2021-08-25,1,,,,,ミドルブラウ,0
1701,7430003013073,新規,0,2021-08-25,2021-08-25,合同会社飲食店総合企画,,合同会社,北海道,札幌市中央区,大通西１１丁目４番地,,01,101,0600042,,,,,,,2021-08-25,1,,,,,インショクテンソウゴウキカク,0
1702,7430003013081,新規,0,2021-08-25,2021-08-25,合同会社ギタークラフト,,合同会社,北海道,札幌市中央区,南十一条西１丁目５－１６－７０６,,01,101,0640811,,,,,,,2021-08-25,1,,,,,ギタークラフト,0
1705,7450001013453,新規,0,2021-08-25,2021-08-25,株式会社ｄｕ　ＬＯＣＡＬ,,株式会社,北海道,上川郡下川町,錦町３４番地,,01,468,0981207,,,,,,,2021-08-25,1,,,,,ドゥローカル,0
1706,7490003001576,新規,0,2021-08-25,2021-08-25,コネル合同会社,,合同会社,高知県,南国市,浜改田５８９番地,,39,204,7830083,,,,,,,2021-08-25,1,,,,,コネル,0
1707,7500005008411,新規,0,2021-08-25,2021-08-25,農事組合法人ガイナジャパン,,その他の設立登記法人,愛媛県,宇和島市,寄松甲１２６０番地,,38,203,7980084,,,,,,,2021-08-25,1,,,,,ガイナジャパン,0
1719,8010001220638,新規,0,2021-08-25,2021-08-25,株式会社Ａｏｉｅ,,株式会社,東京都,千代田区,九段南１丁目５番６号りそな九段ビル５Ｆ－ＫＳフロア,,13,101,1020074,,,,,,,2021-08-25,1,,,,,アオイエ,0
1720,8010001220646,新規,0,2021-08-25,2021-08-25,株式会社アイソメッド,,株式会社,東京都,千代田区,神田神保町３丁目２番地８,,13,101,1010051,,,,,,,2021-08-25,1,,,,,アイソメッド,0
1721,8010001220654,新規,0,2021-08-25,2021-08-25,株式会社神奈川ＡＲＴクリニック生殖医療研究所,,株式会社,東京都,千代田区,九段北１丁目２番２号グランドメゾン九段９０８号,,13,101,1020073,,,,,,,2021-08-25,1,,,,,カナガワアートクリニックセイショクイリョウケンキュウジョ,0
1722,8010003035679,新規,0,2021-08-25,2021-08-25,ＤＥＵＴＺ　ＪＡＰＡＮ合同会社,,合同会社,東京都,千代田区,神田東松下町４１番地１－７０４号室,,13,101,1010042,,,,,,,2021-08-25,1,,,,,ドイツジャパン,0
1735,8010401162281,新規,0,2021-08-25,2021-08-25,株式会社ＴＳＡ　Ｌａｂ,,株式会社,東京都,港区,新橋６丁目１１－８,,13,103,1050004,,,,,,,2021-08-25,1,,,,,ティエスエイラボ,0
1736,8010403025949,新規,0,2021-08-25,2021-08-25,合同会社ブレイブドリーマー,,合同会社,東京都,港区,六本木４丁目３番１１号六本木ユニハウス２２３号,,13,103,1060032,,,,,,,2021-08-25,1,,,,,ブレイブドリーマー,0
1742,8010703005915,新規,0,2021-08-25,2021-08-25,合同会社ＤＡＫ,,合同会社,東京都,品川区,東品川１丁目３番１８号キャナルテラス品川８０１,,13,109,1400002,,,,,,,2021-08-25,1,,,,,ディーエーケー,0
1749,8011001142525,新規,0,2021-08-25,2021-08-25,ヌーベルパルク株式会社,,株式会社,東京都,目黒区,祐天寺１丁目１７番１３号,,13,110,1530052,,,,,,,2021-08-25,1,,,,,ヌーベルパルク,0
1751,8011101096092,新規,0,2021-08-25,2021-08-25,株式会社裕香,,株式会社,東京都,新宿区,大久保１丁目１６番２７号ＫＭプラザ１階,,13,104,1690072,,,,,,,2021-08-25,1,,,,,ユウカ,0
1752,8011101096101,新規,0,2021-08-25,2021-08-25,株式会社ＬＯＶＥ＆ＢＥＡＵＴＹ,,株式会社,東京都,新宿区,新宿３丁目１番１３号,,13,104,1600022,,,,,,,2021-08-25,1,,,,,ラブアンドビューティ,0
1753,8011203003624,新規,0,2021-08-25,2021-08-25,松山合同会社,,合同会社,東京都,中野区,江原町２丁目２１番７－５０４号,,13,114,1650023,,,,,,,2021-08-25,1,,,,,マツヤマ,0
1754,8011205002450,新規,0,2021-08-25,2021-08-25,行政書士法人放デイラボ,,その他の設立登記法人,東京都,中野区,新井１丁目４番２号,,13,114,1650026,,,,,,,2021-08-25,1,,,,,ホウデイラボ,0
1756,8011303004142,新規,0,2021-08-25,2021-08-25,ＣａｒｐｅＤｉｅｍ合同会社,,合同会社,東京都,杉並区,南荻窪４丁目１８番１４号,,13,115,1670052,,,,,,,2021-08-25,1,,,,,カーペディエム,0
1765,8011801039615,新規,0,2021-08-25,2021-08-25,株式会社Ｄｏｉｓｍ,,株式会社,東京都,葛飾区,西亀有３丁目２８番１６号,,13,122,1250002,,,,,,,2021-08-25,1,,,,,ドゥイズム,0
1768,8012801021042,新規,0,2021-08-25,2021-08-25,グルマン・ゴーズ・トゥ・トウキョウ株式会社,,株式会社,東京都,国分寺市,西町１丁目２７番地３７,,13,214,1850035,,,,,,,2021-08-25,1,,,,,グルマンゴーズトゥトウキョウ,0
1769,8013101008705,新規,0,2021-08-25,2021-08-25,株式会社ＫＳメディカル,,株式会社,東京都,羽村市,神明台２丁目５番地３３－９１０号,,13,227,2050023,,,,,,,2021-08-25,1,,,,,ケーエスメディカル,0
1774,8013301047899,新規,0,2021-08-25,2021-08-25,株式会社佳奈,,株式会社,東京都,豊島区,東池袋１丁目３１番２－５０１号,,13,116,1700013,,,,,,,2021-08-25,1,,,,,カナ,0
1782,8020001142740,新規,0,2021-08-25,2021-08-25,株式会社清明,,株式会社,神奈川県,横浜市港北区,篠原北２丁目１９番２７号,,14,109,2220021,,,,,,,2021-08-25,1,,,,,,0
1786,8020003020366,新規,0,2021-08-25,2021-08-25,合同会社ＳＳＣ,,合同会社,神奈川県,横浜市港南区,芹が谷１丁目５番１９号,,14,111,2330006,,,,,,,2021-08-25,1,,,,,エスエスシー,0
1787,8020003020374,新規,0,2021-08-25,2021-08-25,合同会社そよ風,,合同会社,神奈川県,横浜市泉区,上飯田町２０２７番地５,,14,116,2450018,,,,,,,2021-08-25,1,,,,,ソヨカゼ,0
1791,8021001073752,新規,0,2021-08-25,2021-08-25,株式会社コスゲ,,株式会社,神奈川県,相模原市緑区,下九沢２８１９番地６,,14,151,2520134,,,,,,,2021-08-25,1,,,,,コスゲ,0
1794,8021003010836,新規,0,2021-08-25,2021-08-25,ＴＨＡＮＨ　ＬＯＮＧ合同会社,,合同会社,神奈川県,相模原市中央区,南橋本２丁目４－１４サンライト南橋本１階,,14,152,2520253,,,,,,,2021-08-25,1,,,,,タンロン,0
1802,8030001143894,新規,0,2021-08-25,2021-08-25,株式会社マーム,,株式会社,埼玉県,さいたま市浦和区,木崎５丁目１７番１４号,,11,107,3300042,,,,,,,2021-08-25,1,,,,,マーム,0
1803,8030001143985,新規,0,2021-08-25,2021-08-25,株式会社Ｏ２Ｒ,,株式会社,埼玉県,越谷市,赤山町４丁目５番４号,,11,222,3430807,,,,,,,2021-08-25,1,,,,,オーツーアール,0
1804,8030005020504,新規,0,2021-08-25,2021-08-25,社会保険労務士法人ＫＴＧ,,その他の設立登記法人,埼玉県,さいたま市浦和区,東仲町１１番１号ステラ浦和４階,,11,107,3300056,,,,,,,2021-08-25,1,,,,,ケイティージー,0
1810,8040001119869,新規,0,2021-08-25,2021-08-25,株式会社スペース,,株式会社,千葉県,千葉市中央区,末広２丁目３番６号,,12,101,2600843,,,,,,,2021-08-25,1,,,,,スペース,0
1816,8060003003788,新規,0,2021-08-25,2021-08-25,ケー・エス・シー合同会社,,合同会社,栃木県,日光市,藤原町大字藤原９７４－４,,09,206,3212521,,,,,,,2021-08-25,1,,,,,ケーエスシー,0
1818,8080001024396,新規,0,2021-08-25,2021-08-25,株式会社Ｖｉ－ＳＴＯＲＹ,,株式会社,静岡県,静岡市葵区,吉野町４－７,,22,101,4200046,,,,,,,2021-08-25,1,,,,,ヴィーストーリー,0
1833,8120001239923,新規,0,2021-08-25,2021-08-25,株式会社インザマスター,,株式会社,大阪府,大阪市北区,東天満１丁目１０番１２号３階,,27,127,5300044,,,,,,,2021-08-25,1,,,,,インザマスター,0
1839,8120101064197,新規,0,2021-08-25,2021-08-25,株式会社Ｊ・ＲＯＡＤ,,株式会社,大阪府,岸和田市,東ケ丘町８０８番地の４２５,,27,202,5960807,,,,,,,2021-08-25,1,,,,,ジェイロード,0
1842,8120105009438,新規,0,2021-08-25,2021-08-25,一般社団法人ＰＤＪ,,その他の設立登記法人,大阪府,松原市,天美我堂５丁目６番２６号,,27,217,5800026,,,,,,,2021-08-25,1,,,,,ピーディージェー,0
1844,8120901044811,新規,0,2021-08-25,2021-08-25,株式会社Ｎо．８,,株式会社,大阪府,摂津市,鶴野１丁目５番４号,,27,224,5660035,,,,,,,2021-08-25,1,,,,,ナンバーエイト,0
1847,8130001069972,新規,0,2021-08-25,2021-08-25,株式会社ＮＹＣ,,株式会社,京都府,京都市伏見区,羽束師古川町１２６番地１９,,26,109,6128486,,,,,,,2021-08-25,1,,,,,エヌワイシー,0
1848,8130001069989,新規,0,2021-08-25,2021-08-25,株式会社麺屋聖,,株式会社,京都府,京都市左京区,一乗寺払殿町４８番地,,26,103,6068184,,,,,,,2021-08-25,1,,,,,メンヤキヨ,0
1854,8140001122788,新規,0,2021-08-25,2021-08-25,株式会社ＫＡＮＡＵ,,株式会社,兵庫県,神戸市垂水区,舞子台６丁目１０番１２号,,28,108,6550046,,,,,,,2021-08-25,1,,,,,カナウ,0
1855,8140001122796,新規,0,2021-08-25,2021-08-25,株式会社コントレイル,,株式会社,兵庫県,加古川市,野口町良野６０番地の２０,,28,210,6750017,,,,,,,2021-08-25,1,,,,,コントレイル,0
1861,8170001016731,新規,0,2021-08-25,2021-08-25,株式会社山秀工業,,株式会社,和歌山県,日高郡印南町,大字南谷３０８番地の３,,30,390,6491536,,,,,,,2021-08-25,1,,,,,ヤマヒデコウギョウ,0
1874,8180001147534,新規,0,2021-08-25,2021-08-25,株式会社愛知マネジメントクリニック,,株式会社,愛知県,名古屋市中村区,名駅３丁目１番２号グラン・アベニュー名駅１３１２号,,23,105,4500002,,,,,,,2021-08-25,1,,,,,アイチマネジメントクリニック,0
1878,8180003022891,新規,0,2021-08-25,2021-08-25,Ｐ＆Ｐ　Ｃｏｒｐｏｒａｔｉｏｎ合同会社,,合同会社,愛知県,名古屋市中区,丸の内１丁目１２番２５号フジキンビル２－Ｂ,,23,106,4600002,,,,,,,2021-08-25,1,,,,,ピーアンドピーコーポレーション,0
1879,8180005019408,新規,0,2021-08-25,2021-08-25,ＮＰＯ法人晴ればれイノベーション,,その他の設立登記法人,愛知県,名古屋市守山区,向台３丁目１６０８番地の２,,23,113,4630036,,,,,,,2021-08-25,1,,,,,ハレバレイノベーション,0
1890,8220001024373,新規,0,2021-08-25,2021-08-25,リンクゲート株式会社,,株式会社,石川県,金沢市,三池新町９番地９,,17,201,9200808,,,,,,,2021-08-25,1,,,,,リンクゲート,0
1891,8220001024381,新規,0,2021-08-25,2021-08-25,株式会社ハクサンケミカル,,株式会社,石川県,白山市,湊町丙１６番地１,,17,210,9290217,,,,,,,2021-08-25,1,,,,,ハクサンケミカル,0
1896,8240001058485,新規,0,2021-08-25,2021-08-25,エムアイケイビ株式会社,,株式会社,広島県,安芸郡府中町,大須１丁目１５番２１号,,34,302,7350021,,,,,,,2021-08-25,1,,,,,エムアイケイビ,0
1897,8240003005254,新規,0,2021-08-25,2021-08-25,口和堆肥センター合同会社,,合同会社,広島県,庄原市,口和町常定３４番地２,,34,210,7270113,,,,,,,2021-08-25,1,,,,,クチワタイヒセンター,0
1906,8290001094311,新規,0,2021-08-25,2021-08-25,株式会社ダイシン,,株式会社,福岡県,飯塚市,小正４８０番地１,,40,205,8200089,,,,,,,2021-08-25,1,,,,,ダイシン,0
1907,8290001094344,新規,0,2021-08-25,2021-08-25,株式会社未来創研,,株式会社,福岡県,福岡市西区,愛宕浜２丁目２番７－８０７号,,40,135,8190013,,,,,,,2021-08-25,1,,,,,ミライソウケン,0
1908,8290001094360,新規,0,2021-08-25,2021-08-25,株式会社Ｓｈｕ,,株式会社,福岡県,福岡市博多区,諸岡３丁目３番１９号,,40,132,8120894,,,,,,,2021-08-25,1,,,,,シュウ,0
1910,8290003011537,新規,0,2021-08-25,2021-08-25,合同会社エソラ,,合同会社,福岡県,筑後市,大字前津１６５１番地４０,,40,211,8330002,,,,,,,2021-08-25,1,,,,,エソラ,0
1911,8290005018308,新規,0,2021-08-25,2021-08-25,一般社団法人福岡スポーツ振興支援会,,その他の設立登記法人,福岡県,福岡市中央区,平尾２丁目１３番１６号２階,,40,133,8100014,,,,,,,2021-08-25,1,,,,,フクオカスポーツシンコウシエンカイ,0
1923,8370001047517,新規,0,2021-08-25,2021-08-25,株式会社Ｍ．Ｅ．Ｓ．,,株式会社,宮城県,塩竈市,袖野田町７番２０号,,04,203,9850043,,,,,,,2021-08-25,1,,,,,エムイーエス,0
1959,9010001220595,新規,0,2021-08-25,2021-08-25,ＢＥＡＵＴＩＱＯ株式会社,,株式会社,東京都,千代田区,神田錦町３丁目２１番－１１６２号,,13,101,1010054,,,,,,,2021-08-25,1,,,,,ビューティーコ,0
1960,9010001220620,新規,0,2021-08-25,2021-08-25,ＧＰ－Ｓｔｏｒａｇｅ株式会社,,株式会社,東京都,中央区,日本橋兜町１３番１号,,13,102,1030026,,,,,,,2021-08-25,1,,,,,ジーピーストレージ,0
1961,9010001220629,新規,0,2021-08-25,2021-08-25,株式会社クレパ,,株式会社,東京都,千代田区,神田東松下町３７番地２加瀬ビル３１２,,13,101,1010042,,,,,,,2021-08-25,1,,,,,クレパ,0
1962,9010001220637,新規,0,2021-08-25,2021-08-25,コレットホールディングス株式会社,,株式会社,東京都,千代田区,神田三崎町２丁目１５番６号,,13,101,1010061,,,,,,,2021-08-25,1,,,,,コレットホールディングス,0
1963,9010001220653,新規,0,2021-08-25,2021-08-25,ＶＡＬＵＥＳ株式会社,,株式会社,東京都,文京区,小石川２丁目３番１２号,,13,105,1120002,,,,,,,2021-08-25,1,,,,,バリューズ,0
1972,9010401162280,新規,0,2021-08-25,2021-08-25,株式会社ＡＴＬＡＳ,,株式会社,東京都,港区,白金６丁目１１番７号,,13,103,1080072,,,,,,,2021-08-25,1,,,,,アトラス,0
1974,9010501047737,新規,0,2021-08-25,2021-08-25,ＳＴＡＲＬＩＧＨＴ株式会社,,株式会社,東京都,台東区,台東２丁目２７番３号,,13,106,1100016,,,,,,,2021-08-25,1,,,,,スターライト,0
1979,9010601059839,新規,0,2021-08-25,2021-08-25,株式会社Ｒ・Ｅ・Ｎ,,株式会社,東京都,江東区,青海２丁目７番４号ＴｈｅＳｏｈｏ９０９号室,,13,108,1350064,,,,,,,2021-08-25,1,,,,,レン,0
1982,9010703005914,新規,0,2021-08-25,2021-08-25,Ｃｗｅｅｔ合同会社,,合同会社,東京都,品川区,南大井４丁目１４－１６、１０２,,13,109,1400013,,,,,,,2021-08-25,1,,,,,クイット,0
1987,9010903006753,新規,0,2021-08-25,2021-08-25,合同会社ＬＣ,,合同会社,東京都,世田谷区,給田４丁目８番３号,,13,112,1570064,,,,,,,2021-08-25,1,,,,,エルシー,0
1991,9011001142482,新規,0,2021-08-25,2021-08-25,日本占い心理学研究所株式会社,,株式会社,東京都,渋谷区,神宮前６丁目２３番４号桑野ビル２階,,13,113,1500001,,,,,,,2021-08-25,1,,,,,ニホンウラナイシンリガクケンキュウショ,0
1992,9011003013260,新規,0,2021-08-25,2021-08-25,合同会社ＮＯＡ,,合同会社,東京都,渋谷区,渋谷３丁目２６番１６号第五叶ビル５Ｆ・６Ｆ,,13,113,1500002,,,,,,,2021-08-25,1,,,,,ノア,0
1998,9011301027128,新規,0,2021-08-25,2021-08-25,ＩｏＡデータ解析株式会社,,株式会社,東京都,杉並区,和田２丁目４５番１１号,,13,115,1660012,,,,,,,2021-08-25,1,,,,,アイオーエーデータカイセキ,0
2001,9011403003423,新規,0,2021-08-25,2021-08-25,合同会社ＭＭＰＲ,,合同会社,東京都,板橋区,幸町６６番４号,,13,119,1730034,,,,,,,2021-08-25,1,,,,,エムエムピーアール,0
2004,9011801039614,新規,0,2021-08-25,2021-08-25,株式会社ｋｎｏｔｔ,,株式会社,東京都,足立区,日ノ出町３４番３－２０５号,,13,121,1200021,,,,,,,2021-08-25,1,,,,,ノット,0
2008,9012401038238,新規,0,2021-08-25,2021-08-25,ホーショー株式会社,,株式会社,東京都,調布市,国領町４丁目４９番地４杉崎ハイツ１０６,,13,208,1820022,,,,,,,2021-08-25,1,,,,,ホーショー,0
2013,9012803002576,新規,0,2021-08-25,2021-08-25,Ｚｅａｌｏｕｓｉｓ合同会社,,合同会社,東京都,日野市,程久保８丁目１７番地の１６,,13,212,1910042,,,,,,,2021-08-25,1,,,,,ゼラシス,0
2033,9020001142715,新規,0,2021-08-25,2021-08-25,株式会社ビオリア,,株式会社,神奈川県,川崎市幸区,新小倉２番１－６２５号,,14,132,2120031,,,,,,,2021-08-25,1,,,,,ビオリア,0
2034,9020001142731,新規,0,2021-08-25,2021-08-25,株式会社高橋哲也建築計画,,株式会社,神奈川県,川崎市多摩区,南生田７丁目８番１－４０１号,,14,135,2140036,,,,,,,2021-08-25,1,,,,,タカハシテツヤケンチクケイカク,0
2036,9020003020373,新規,0,2021-08-25,2021-08-25,合同会社ＷＯＳ,,合同会社,神奈川県,横浜市都筑区,中川２丁目６番１３号,,14,118,2240001,,,,,,,2021-08-25,1,,,,,ダブリューオーエス,0
2039,9021001073743,新規,0,2021-08-25,2021-08-25,株式会社ピーオー,,株式会社,神奈川県,伊勢原市,伊勢原２丁目２番２６号ｉｍａｉｂｉｌｄ．５Ｆ,,14,214,2591131,,,,,,,2021-08-25,1,,,,,ピーオー,0
2045,9030001143992,新規,0,2021-08-25,2021-08-25,ＭＴＴ株式会社,,株式会社,埼玉県,鶴ヶ島市,大字脚折１４７８番１５－１０１号,,11,241,3502213,,,,,,,2021-08-25,1,,,,,エムティーティー,0
2049,9030003017831,新規,0,2021-08-25,2021-08-25,合同会社ラグバイ,,合同会社,埼玉県,さいたま市北区,宮原町１丁目６６２番地シャルム磯部１０４,,11,102,3310812,,,,,,,2021-08-25,1,,,,,ラグバイ,0
2056,9040001119868,新規,0,2021-08-25,2021-08-25,株式会社リアライズ,,株式会社,千葉県,市原市,西国分寺台１丁目１番地１２,,12,219,2900072,,,,,,,2021-08-25,1,,,,,リアライズ,0
2062,9050001049750,新規,0,2021-08-25,2021-08-25,株式会社大洗まちづくり専科,,株式会社,茨城県,東茨城郡大洗町,磯浜町２４１０番地,,08,309,3111301,,,,,,,2021-08-25,1,,,,,オオアライマチヅクリセンカ,0
2067,9060005009898,新規,0,2021-08-25,2021-08-25,一般社団法人日本を愛する栃木県民の会,,その他の設立登記法人,栃木県,宇都宮市,宮の内４丁目１５２番地３４,,09,201,3210131,,,,,,,2021-08-25,1,,,,,ニホンヲアイスルトチギケンミンノカイ,0
2072,9100001034549,新規,0,2021-08-25,2021-08-25,株式会社ＫＡＩＳＹＵＮ,,株式会社,長野県,飯田市,中央通り３丁目４番地木下ビル１Ｆ,,20,205,3950041,,,,,,,2021-08-25,1,,,,,カイシュン,0
2074,9100003006216,新規,0,2021-08-25,2021-08-25,合同会社ヒラソル,,合同会社,長野県,長野市,大字金箱２６９番地２,,20,201,3810007,,,,,,,2021-08-25,1,,,,,ヒラソル,0
2081,9120001239906,新規,0,2021-08-25,2021-08-25,株式会社ＬＵ－ＫＡ,,株式会社,大阪府,大阪市中央区,西心斎橋２丁目１３番１３－３０６号,,27,128,5420086,,,,,,,2021-08-25,1,,,,,ルーカ,0
2082,9120003020082,新規,0,2021-08-25,2021-08-25,合同会社ほしいろ,,合同会社,大阪府,大阪市住之江区,浜口東３丁目１３番１６－１１０２号,,27,125,5590002,,,,,,,2021-08-25,1,,,,,ホシイロ,0
2092,9130001069971,新規,0,2021-08-25,2021-08-25,タイムプレ株式会社,,株式会社,京都府,京都市左京区,吉田下阿達町４６番地２９,,26,103,6068304,,,,,,,2021-08-25,1,,,,,タイムプレ,0
2098,9140001122795,新規,0,2021-08-25,2021-08-25,笹岡薬品通販株式会社,,株式会社,兵庫県,芦屋市,業平町６番３４号,,28,206,6590068,,,,,,,2021-08-25,1,,,,,ササオカヤクヒンツウハン,0
2115,9220001024380,新規,0,2021-08-25,2021-08-25,株式会社外壁王,,株式会社,石川県,金沢市,泉本町６丁目３６番地大国ハイツ１０１号室,,17,201,9218042,,,,,,,2021-08-25,1,,,,,ガイヘキオウ,0
2121,9230001018951,新規,0,2021-08-25,2021-08-25,株式会社リモデリンク,,株式会社,富山県,富山市,太田３－８,,16,201,9398048,,,,,,,2021-08-25,1,,,,,リモデリンク,0
2124,9240001058484,新規,0,2021-08-25,2021-08-25,株式会社アルティマ,,株式会社,広島県,広島市中区,榎町９番２１－１０３号－０３,,34,101,7300851,,,,,,,2021-08-25,1,,,,,アルティマ,0
2133,9260001035894,新規,0,2021-08-25,2021-08-25,株式会社ＬＥＯ,,株式会社,岡山県,岡山市北区,表町１丁目１番８号ライオンズタワー岡山表町１１０５,,33,101,7000822,,,,,,,2021-08-25,1,,,,,レオ,0
2140,9290001094384,新規,0,2021-08-25,2021-08-25,株式会社ｅ－ネクスト,,株式会社,福岡県,久留米市,荒木町白口１９１２番地９,,40,203,8300062,,,,,,,2021-08-25,1,,,,,イーネクスト,0
2142,9290003011503,新規,0,2021-08-25,2021-08-25,合同会社Ｓｗｉｃｈ,,合同会社,福岡県,福岡市博多区,博多駅前３丁目３０番１５―６１５号,,40,132,8120011,,,,,,,2021-08-25,1,,,,,スイッチ,0
2143,9290003011544,新規,0,2021-08-25,2021-08-25,合同会社セゾンデコールＮ,,合同会社,福岡県,大野城市,白木原１丁目１７番４－８１０号,,40,219,8160943,,,,,,,2021-08-25,1,,,,,セゾンデコールエヌ,0
2144,9290801027733,新規,0,2021-08-25,2021-08-25,株式会社Ａｌｌｉｎ,,株式会社,福岡県,北九州市小倉北区,京町１丁目３番１号２Ｆ,,40,106,8020002,,,,,,,2021-08-25,1,,,,,オールイン,0
2148,9320001018554,新規,0,2021-08-25,2021-08-25,株式会社スノーグリーン,,株式会社,大分県,大分市,新町１９番３号１４０１号室,,44,201,8700028,,,,,,,2021-08-25,1,,,,,スノーグリーン,0
2153,9340001024039,新規,0,2021-08-25,2021-08-25,株式会社Ｃｏｎｃｅｐｔ・Ｖｉｓｉｏｎ,,株式会社,鹿児島県,鹿屋市,札元２丁目３６７５番地２８　２階,,46,203,8930013,,,,,,,2021-08-25,1,,,,,コンセプトヴィジョン,0
2154,9340001024047,新規,0,2021-08-25,2021-08-25,株式会社シンサリティ,,株式会社,鹿児島県,鹿児島市,上荒田町１８番１６号,,46,201,8900055,,,,,,,2021-08-25,1,,,,,シンサリティ,0
2156,9360001029283,新規,0,2021-08-25,2021-08-25,株式会社スポーツワールドサザンヒル,,株式会社,沖縄県,島尻郡南風原町,字宮平４６０番地１,,47,350,9011104,,,,,,,2021-08-25,1,,,,,スポーツワールドサザンヒル,0
2158,9370001047516,新規,0,2021-08-25,2021-08-25,株式会社アールステージ,,株式会社,宮城県,仙台市泉区,松陵３丁目１２番地１,,04,105,9813108,,,,,,,2021-08-25,1,,,,,アールステージ,0
2159,9370003005364,新規,0,2021-08-25,2021-08-25,合同会社マハリク,,合同会社,宮城県,仙台市若林区,伊在２丁目１６番地の１０,,04,103,9840038,,,,,,,2021-08-25,1,,,,,マハリク,0
2175,9430001084800,新規,0,2021-08-25,2021-08-25,株式会社丸よし,,株式会社,北海道,余市郡余市町,黒川町１２丁目８０番地,,01,408,0460003,,,,,,,2021-08-25,1,,,,,マルヨシ,0
2176,9430001084809,新規,0,2021-08-25,2021-08-25,株式会社Ｖｅｌｄｙ　Ｌｉｆｅ,,株式会社,北海道,札幌市南区,川沿四条５丁目８番１０号,,01,106,0050804,,,,,,,2021-08-25,1,,,,,ヴェルディライフ,0
2177,9430001084817,新規,0,2021-08-25,2021-08-25,株式会社ＲＥＶＥＲＳＡＬ,,株式会社,北海道,札幌市中央区,南六条西３丁目１０番１４号ススキノ中央ビル６Ａ,,01,101,0640806,,,,,,,2021-08-25,1,,,,,リバーサル,0
2180,9440003001406,新規,0,2021-08-25,2021-08-25,合同会社Ｏｎ,,合同会社,北海道,函館市,北美原１丁目１１番１７号,,01,202,0410807,,,,,,,2021-08-25,1,,,,,オン,0
