sequenceNumber,corporateNumber,process,correct,updateDate,changeDate,name,nameImageId,kind,prefectureName,cityName,streetNumber,addressImageId,prefectureCode,cityCode,postCode,addressOutside,addressOutsideImageId,closeDate,closeCause,successorCorporateNumber,changeCause,assignmentDate,latest,enName,enPrefectureName,enCityName,enAddressOutside,furigana,hihyoji
7,1010003039612,登記記録の閉鎖等,0,2024-08-05,2024-07-22,合同会社Ｎｅ‐ｏＮ,,合同会社,東京都,中央区,銀座１丁目１２番４号Ｎ＆Ｅ、ＢＬＤ．６Ｆ,,13,102,1040061,,,2024-07-22,清算の結了等,,,2023-01-25,1,,,,,ネオン,0
21,1010403019437,登記記録の閉鎖等,0,2024-08-05,2024-07-11,合同会社Ａ．Ｐ．５,,合同会社,東京都,港区,元赤坂１丁目１番８号赤坂コミュニティビル４階,,13,103,1070051,,,2024-07-11,清算の結了等,,,2018-10-02,1,,,,,エーピーファイブ,0
62,1011702014938,登記記録の閉鎖等,0,2024-08-05,2024-07-31,有限会社廣田工業,,有限会社,東京都,江戸川区,一之江６丁目１５番２５号,,13,123,1320024,,,2024-07-31,清算の結了等,,,2015-10-05,1,,,,,ヒロタコウギョウ,0
84,1020002059585,登記記録の閉鎖等,0,2024-08-05,2024-07-12,有限会社アトリエ・田,,有限会社,神奈川県,横浜市港南区,日野南１丁目４番１３号,,14,111,2340055,,,2024-07-12,清算の結了等,,,2015-10-05,1,,,,,,0
86,1020005004209,登記記録の閉鎖等,0,2024-08-05,2024-07-08,特定非営利活動法人ワーカーズ・コレクティブオリーブ,,その他の設立登記法人,神奈川県,横浜市金沢区,柳町３番地１６,,14,108,2360026,,,2024-07-08,清算の結了等,,,2015-10-05,1,,,,,ワーカーズコレクティブオリーブ,0
89,1021001017204,登記記録の閉鎖等,0,2024-08-05,2024-07-12,株式会社アビリティ・プロモート,,株式会社,神奈川県,横浜市西区,北幸２丁目５番１７号横浜ＮＳビル６０１,,14,103,2200004,,,2024-07-12,清算の結了等,,,2015-10-05,1,,,,,アビリティプロモート,0
90,1021001032046,登記記録の閉鎖等,0,2024-08-05,2024-07-31,株式会社彌武産業,,株式会社,神奈川県,足柄下郡湯河原町,土肥１丁目１番地の１,,14,384,2590303,,,2024-07-31,清算の結了等,,,2015-10-05,1,,,,,ヤブサンギョウ,0
99,1030001017766,登記記録の閉鎖等,0,2024-08-05,2024-07-29,株式会社上田鉄工所,,株式会社,埼玉県,さいたま市岩槻区,大字柏崎１０９番地,,11,110,3390045,,,2024-07-29,清算の結了等,,,2015-10-05,1,,,,,ウエダテッコウショ,0
100,1030001068355,登記記録の閉鎖等,0,2024-08-05,2024-07-29,ＯＳＫサービス株式会社,,株式会社,埼玉県,越谷市,登戸町６番３５号,,11,222,3430846,,,2024-07-29,清算の結了等,,,2015-10-05,1,,,,,オーエスケーサービス,0
106,1030001132268,登記記録の閉鎖等,0,2024-08-05,2024-07-29,株式会社中村工業,,株式会社,埼玉県,川口市,桜町６丁目７番５号,,11,203,3340001,,,2024-07-29,清算の結了等,,,2019-08-02,1,,,,,ナカムラコウギョウ,0
116,1040001023359,登記記録の閉鎖等,0,2024-08-05,2024-07-22,ハスメック株式会社,,株式会社,千葉県,船橋市,高野台４丁目２番３号,,12,204,2740801,,,2024-07-22,清算の結了等,,,2015-10-05,1,,,,,ハスメック,0
117,1040001062282,登記記録の閉鎖等,0,2024-08-05,2024-07-22,株式会社銚子タクシー,,株式会社,千葉県,銚子市,小浜町２６６３番地の８,,12,202,2880821,,,2024-07-22,清算の結了等,,,2015-10-05,1,,,,,,0
118,1040001085845,登記記録の閉鎖等,0,2024-08-05,2024-07-18,株式会社なぎ建設,,株式会社,千葉県,市川市,加藤新田２０２番地１－１１２号,,12,203,2720124,,,2024-07-18,清算の結了等,,,2015-10-05,1,,,,,ナギケンセツ,0
128,1040002044932,登記記録の閉鎖等,0,2024-08-05,2024-07-19,有限会社小野寺自動車,,有限会社,千葉県,松戸市,紙敷１４６０番地の５,,12,207,2702221,,,2024-07-19,清算の結了等,,,2015-10-05,1,,,,,,0
130,1040002045699,登記記録の閉鎖等,0,2024-08-05,2024-07-22,有限会社古ヶ崎屋建設,,有限会社,千葉県,松戸市,仲井町２丁目６８番地の３,,12,207,2702242,,,2024-07-22,清算の結了等,,,2015-10-05,1,,,,,コガサキヤケンセツ,0
132,1040002080473,登記記録の閉鎖等,0,2024-08-05,2024-07-22,有限会社みつはし,,有限会社,千葉県,長生郡白子町,牛込３９１８番地８,,12,424,2994202,,,2024-07-22,清算の結了等,,,2015-10-05,1,,,,,ミツハシ,0
135,1060001010025,登記記録の閉鎖等,0,2024-08-05,2024-07-23,株式会社トバソイフーズ,,株式会社,栃木県,真岡市,小林５９番地９,,09,209,3214321,,,2024-07-23,清算の結了等,,,2015-10-05,1,,,,,トバソイフーズ,0
143,1070002029674,登記記録の閉鎖等,0,2024-08-05,2024-07-31,有限会社鈴木電機,,有限会社,群馬県,太田市,丸山町１０１番地,,10,205,3730018,,,2024-07-31,清算の結了等,,,2015-10-05,1,,,,,スズキデンキ,0
182,1122001016169,登記記録の閉鎖等,0,2024-08-05,2024-07-31,株式会社旭栄商会,,株式会社,大阪府,四條畷市,中野２丁目１番２０号,,27,229,5750052,,,2024-07-31,清算の結了等,,,2015-10-05,1,,,,,キョクエイショウカイ,0
185,1130001023325,登記記録の閉鎖等,0,2024-08-05,2024-08-01,京都製糊株式会社,,株式会社,大阪府,大阪市中央区,瓦町４丁目７番８号本町東栄ビル５階,,27,128,5410048,,,2024-08-01,清算の結了等,,,2015-10-05,1,,,,,キョウトセイノリ,0
190,1130001070284,登記記録の閉鎖等,0,2024-08-05,2024-07-31,ＤＳＩ株式会社,,株式会社,京都府,京都市上京区,宮垣町９１番地１０２,,26,102,6020853,,,2024-07-31,清算の結了等,,,2021-10-06,1,,,,,ディーエスアイ,0
199,1180001022017,登記記録の閉鎖等,0,2024-08-05,2024-07-22,株式会社真和工業所,,株式会社,愛知県,名古屋市港区,宝神２丁目９０７番地の１,,23,111,4550832,,,2024-07-22,清算の結了等,,,2015-10-05,1,,,,,シンワコウギョウショ,0
203,1180001115563,登記記録の閉鎖等,0,2024-08-05,2024-07-22,鈴喜建設株式会社,,株式会社,愛知県,豊明市,栄町寺前５番地１,,23,229,4701161,,,2024-07-22,清算の結了等,,,2015-10-05,1,,,,,スズキケンセツ,0
206,1180002001408,登記記録の閉鎖等,0,2024-08-05,2024-07-23,有限会社ヘアスタジオマリモ,,有限会社,愛知県,名古屋市守山区,小幡中１丁目３番２６号,,23,113,4630013,,,2024-07-23,清算の結了等,,,2015-10-05,1,,,,,ヘアスタジオマリモ,0
207,1180002047517,登記記録の閉鎖等,0,2024-08-05,2024-07-22,有限会社福聚堂,,有限会社,愛知県,名古屋市昭和区,川名町２丁目３１番地,,23,107,4660856,,,2024-07-22,清算の結了等,,,2015-10-05,1,,,,,フクジュドウ,0
210,1180305003398,登記記録の閉鎖等,0,2024-08-05,2024-07-29,医療法人せみがわ会,,その他の設立登記法人,愛知県,豊橋市,多米西町１丁目２１番地の１,,23,201,4400026,,,2024-07-29,清算の結了等,,,2015-10-05,1,,,,,セミガワカイ,0
218,1200002009349,登記記録の閉鎖等,0,2024-08-05,2024-08-01,有限会社岡本工業,,有限会社,岐阜県,瑞穂市,稲里６６７番地の１０,,21,216,5010224,,,2024-08-01,清算の結了等,,,2015-10-05,1,,,,,オカモトコウギョウ,0
231,1260003004392,登記記録の閉鎖等,0,2024-08-05,2024-07-24,ミールック合同会社,,合同会社,岡山県,岡山市北区,野田３丁目１３番３７アソシエビル２０８,,33,101,7000971,,,2024-07-24,清算の結了等,,,2023-08-07,1,,,,,ミールック,0
242,1290002054163,登記記録の閉鎖等,0,2024-08-05,2024-07-01,有限会社吉開建設,,有限会社,福岡県,柳川市,三橋町木元３２３番地の１,,40,207,8320804,,,2024-07-01,清算の結了等,,,2015-10-05,1,,,,,ヨシガイケンセツ,0
277,1370302000115,登記記録の閉鎖等,0,2024-08-05,2024-06-20,有限会社アミーゴ,,有限会社,宮城県,石巻市,三ツ股４丁目１番３４号,,04,202,9860858,,,2024-06-20,清算の結了等,,,2015-10-05,1,,,,,アミーゴ,0
285,1410001006986,登記記録の閉鎖等,0,2024-08-05,2024-07-25,株式会社スマイル企画,,株式会社,秋田県,鹿角市,花輪字小深田２７０番地１,,05,209,0185201,,,2024-07-25,清算の結了等,,,2015-10-05,1,,,,,,0
308,2010001210941,登記記録の閉鎖等,0,2024-08-05,2024-07-23,株式会社ＲＥＶＯＬＵＴＩＯＮ　ＣＡＰＩＴＡＬ,,株式会社,東京都,千代田区,紀尾井町４番１号,,13,101,1020094,,,2024-07-23,清算の結了等,,,2020-07-15,1,,,,,レボリューションキャピタル,0
317,2010003026865,登記記録の閉鎖等,0,2024-08-05,2024-07-22,合同会社ドムス,,合同会社,東京都,千代田区,九段南１丁目５番６号りそな九段ビル５ＦＫＳフロア,,13,101,1020074,,,2024-07-22,合併による解散等,7010003023354,令和６年７月２２日東京都千代田区一番町１６番地５合同会社ＲＫＲエステート（7010003023354）に合併し解散,2018-01-30,1,,,,,ドムス,0
353,2011001149039,登記記録の閉鎖等,0,2024-08-05,2024-07-16,株式会社ＭＪ　ｃｒｅａｔｉｖｅ,,株式会社,東京都,目黒区,青葉台１丁目９－１７,,13,110,1530042,,,2024-07-16,清算の結了等,,,2022-08-09,1,,,,,エムジェークリエイティブ,0
379,2011801034373,登記記録の閉鎖等,0,2024-08-05,2024-07-31,株式会社伊藤商事,,株式会社,東京都,足立区,神明２丁目５番３－１０８号,,13,121,1210051,,,2024-07-31,清算の結了等,,,2018-02-13,1,,,,,イトウショウジ,0
389,2012403005077,登記記録の閉鎖等,0,2024-08-05,2024-08-05,合同会社ＳＳＳ,,合同会社,東京都,稲城市,平尾１丁目２９番地７アビニヨン１０２,,13,225,2060823,,,2024-08-05,清算の結了等,,,2021-10-19,1,,,,,エスエスエス,0
396,2020001015175,登記記録の閉鎖等,0,2024-08-05,2024-07-23,株式会社セイコー,,株式会社,栃木県,下都賀郡壬生町,大字安塚７９１番地１１,,09,361,3210201,,,2024-07-23,清算の結了等,,,2015-10-05,1,,,,,セイコー,0
401,2020001072381,登記記録の閉鎖等,0,2024-08-05,2024-07-11,葛城印刷株式会社,00009779,株式会社,神奈川県,川崎市川崎区,追分町１番５号チェレステ・アルベロ３０２号,,14,131,2100835,,,2024-07-11,清算の結了等,,,2015-10-05,1,,,,,カツラギインサツ,0
403,2020001090961,登記記録の閉鎖等,0,2024-08-05,2024-07-11,株式会社ＧＥＮＣＯトータルサービス,,株式会社,神奈川県,川崎市幸区,小倉２丁目１番地４４号,,14,132,2120054,,,2024-07-11,清算の結了等,,,2015-10-05,1,,,,,ゲンコトータルサービス,0
411,2020003018639,登記記録の閉鎖等,0,2024-08-05,2024-07-04,Ｚｏｏ合同会社,,合同会社,神奈川県,横浜市神奈川区,青木町６番地２０、１１０３号,,14,102,2210057,,,2024-07-04,清算の結了等,,,2020-10-13,1,,,,,ズー,0
413,2021001001495,登記記録の閉鎖等,0,2024-08-05,2024-08-01,株式会社東京電器商会,00012189,株式会社,神奈川県,藤沢市,辻堂６丁目２６番４０号,,14,205,2510047,,,2024-08-01,清算の結了等,,,2015-10-05,1,,,,,トウキョウデンキショウカイ,0
414,2021001065904,登記記録の閉鎖等,0,2024-08-05,2024-08-01,株式会社昇栄,,株式会社,神奈川県,相模原市緑区,相原５丁目２番１５号,,14,151,2520141,,,2024-08-01,清算の結了等,,,2018-10-25,1,,,,,ショウエイ,0
432,2040001018829,登記記録の閉鎖等,0,2024-08-05,2024-07-22,株式会社三越住販,,株式会社,千葉県,船橋市,海神町西１丁目１１９３番地１,,12,204,2730027,,,2024-07-22,清算の結了等,,,2015-10-05,1,,,,,ミツコシジュウハン,0
444,2040002023134,登記記録の閉鎖等,0,2024-08-05,2024-07-18,有限会社清和商会,,有限会社,千葉県,船橋市,高根町１４３４番地２,,12,204,2740817,,,2024-07-18,清算の結了等,,,2015-10-05,1,,,,,,0
469,2100001007049,登記記録の閉鎖等,0,2024-08-05,2024-07-17,信州ブックス株式会社,,株式会社,長野県,上田市,長瀬３４５１番地,,20,203,3860407,,,2024-07-17,清算の結了等,,,2015-10-05,1,,,,,シンシュウブックス,0
474,2110005009940,登記記録の閉鎖等,0,2024-08-05,2024-07-22,特定非営利活動法人妙高かいけつ市民団,,その他の設立登記法人,新潟県,妙高市,大字田口２５０番地５,,15,217,9492106,,,2024-07-22,清算の結了等,,,2015-10-05,1,,,,,ミョウコウカイケツシミンダン,0
479,2120001215178,登記記録の閉鎖等,0,2024-08-05,2024-08-01,Ｌａｕｒｅｌ　Ｃｒｏｗｎ株式会社,,株式会社,大阪府,大阪市北区,梅田２丁目５－１３桜橋第一ビル３０４号,,27,127,5300001,,,2024-08-01,清算の結了等,,,2018-08-07,1,,,,,ローレルクラウン,0
506,2140002029022,登記記録の閉鎖等,0,2024-08-05,2024-08-01,有限会社秀和不動産,,有限会社,兵庫県,明石市,松の内１丁目１０番地の６,,28,203,6730016,,,2024-08-01,清算の結了等,,,2015-10-05,1,,,,,シュウワフドウサン,0
508,2140002055613,登記記録の閉鎖等,0,2024-08-05,2024-07-31,池尻商事有限会社,,有限会社,兵庫県,西宮市,分銅町１番２号,,28,204,6620042,,,2024-07-31,清算の結了等,,,2015-10-05,1,,,,,イケジリショウジ,0
509,2140002070125,登記記録の閉鎖等,0,2024-08-05,2024-07-30,有限会社ルンナ,,有限会社,兵庫県,洲本市,塩屋２丁目２番２号,,28,205,6560021,,,2024-07-30,清算の結了等,,,2015-10-05,1,,,,,ルンナ,0
510,2140003012489,登記記録の閉鎖等,0,2024-08-05,2024-07-31,合同会社Ｙ・Ｋ企画,,合同会社,兵庫県,神戸市中央区,琴ノ緒町５丁目２－２三信ビル４０１,,28,110,6510094,,,2024-07-31,清算の結了等,,,2017-10-16,1,,,,,ワイケーキカク,0
511,2140003017133,登記記録の閉鎖等,0,2024-08-05,2024-07-31,合同会社クオンタムアセット,,合同会社,兵庫県,西宮市,分銅町１番１６－１１０６号,,28,204,6620042,,,2024-07-31,清算の結了等,,,2021-12-24,1,,,,,クオンタムアセット,0
536,2190001010564,登記記録の閉鎖等,0,2024-08-05,2024-08-01,松阪商業開発株式会社,,株式会社,三重県,松阪市,船江町１３９２番地の３,,24,204,5150812,,,2024-08-01,清算の結了等,,,2015-10-05,1,,,,,マツサカショウギョウカイハツ,0
540,2240001023197,登記記録の閉鎖等,0,2024-08-05,2024-08-01,株式会社クリスタルプロセス,,株式会社,広島県,東広島市,鏡山３丁目１０番１８号,,34,212,7390046,,,2024-08-01,合併による解散等,5240001062382,令和６年８月１日広島県東広島市鏡山三丁目１０番１８号株式会社ＨＩＦ‐Ｈ（5240001062382）に合併し解散,2015-10-05,1,,,,,クリスタルプロセス,0
596,2400501001033,登記記録の閉鎖等,0,2024-08-05,2024-07-18,小野寺鋼業株式会社,,株式会社,岩手県,一関市,花泉町花泉字駒場４３番地９,,03,209,0293101,,,2024-07-18,清算の結了等,,,2015-10-05,1,,,,,オノデラコウギョウ,0
599,2420005006089,登記記録の閉鎖等,0,2024-08-05,2024-07-30,一般社団法人東八甲田ローズカントリー,,その他の設立登記法人,青森県,上北郡七戸町,字山舘２５番地１,,02,402,0392500,,,2024-07-30,清算の結了等,,,2015-10-05,1,,,,,ヒガシハッコウダローズカントリー,0
600,2430001008410,登記記録の閉鎖等,0,2024-08-05,2024-07-31,ススキノ十字街ビル株式会社,,株式会社,北海道,札幌市中央区,南四条西３丁目９番地北星ビル５階,,01,101,0640804,,,2024-07-31,清算の結了等,,,2015-10-05,1,,,,,ススキノジュウジガイビル,0
606,2450003001601,登記記録の閉鎖等,0,2024-08-05,2024-08-01,合同会社ＳＣＣ住建,,合同会社,北海道,旭川市,永山九条１丁目４番１５号,,01,204,0798419,,,2024-08-01,清算の結了等,,,2017-02-08,1,,,,,エスシーシージュウケン,0
611,2500005006948,登記記録の閉鎖等,0,2024-08-05,2024-07-29,特定非営利活動法人えひめ相続遺言相談センター,,その他の設立登記法人,愛媛県,松山市,朝生田町１丁目１５番１０号リューレント朝生田４２１号,,38,201,7900952,,,2024-07-29,清算の結了等,,,2015-10-05,1,,,,,エヒメソウゾクユイゴンソウダンセンター,0
614,3010001031321,登記記録の閉鎖等,0,2024-08-05,2024-07-23,有楽町センタービル管理株式会社,,株式会社,東京都,千代田区,有楽町２丁目５番１号,,13,101,1000006,,,2024-07-23,清算の結了等,,,2015-10-05,1,,,,,ユウラクチョウセンタービルカンリ,0
616,3010001125742,登記記録の閉鎖等,0,2024-08-05,2024-07-22,株式会社オレンジプラザ,,株式会社,東京都,港区,芝５丁目２６番２４号,,13,103,1080014,,,2024-07-22,合併による解散等,2010401089571,令和６年５月１日東京都港区芝五丁目２６番２４号株式会社マザーズシステム・ジャパン（2010401089571）に合併し解散,2015-10-05,1,,,,,オレンジプラザ,0
632,3010401112737,登記記録の閉鎖等,0,2024-08-05,2024-07-30,Ｙｖｏｌｕｔｉｏｎ　Ｊａｐａｎ株式会社,,株式会社,東京都,港区,元赤坂１丁目２番７号赤坂Ｋタワー,,13,103,1070051,,,2024-07-30,清算の結了等,,,2015-10-05,1,,,,,イボリューションジャパン,0
638,3010402036588,登記記録の閉鎖等,0,2024-08-05,2024-07-11,有限会社ヴァレンタイン,,有限会社,東京都,港区,白金台１丁目１番２１－１１０号,,13,103,1080071,,,2024-07-11,清算の結了等,,,2015-10-05,1,,,,,,0
649,3010701029383,登記記録の閉鎖等,0,2024-08-05,2024-07-26,株式会社ＭＩ建築企画室,,株式会社,東京都,品川区,八潮５丁目６番３２－１０１０号,,13,109,1400003,,,2024-07-26,清算の結了等,,,2015-10-05,1,,,,,エムアイケンチクキカクシツ,0
650,3010702004591,登記記録の閉鎖等,0,2024-08-05,2024-07-26,有限会社仙波製作所,,有限会社,東京都,品川区,戸越６丁目２０番１８号,,13,109,1420041,,,2024-07-26,清算の結了等,,,2015-10-05,1,,,,,センバセイサクジョ,0
655,3010902006834,登記記録の閉鎖等,0,2024-08-05,2024-07-30,有限会社サミット電気,,有限会社,東京都,世田谷区,桜新町２丁目１番６号,,13,112,1540015,,,2024-07-30,清算の結了等,,,2015-10-05,1,,,,,サミットデンキ,0
660,3011001121731,登記記録の閉鎖等,0,2024-08-05,2024-07-16,株式会社ライフキャリアネット,,株式会社,東京都,渋谷区,宇田川町１６番８号渋谷センタービル３Ｆ,,13,113,1500042,,,2024-07-16,清算の結了等,,,2018-04-17,1,,,,,ライフキャリアネット,0
699,3020001092684,登記記録の閉鎖等,0,2024-08-05,2024-07-12,株式会社マリオン,,株式会社,神奈川県,横浜市神奈川区,大口通１４０－５,,14,102,2210002,,,2024-07-12,清算の結了等,,,2015-10-05,1,,,,,マリオン,0
707,3020005002268,登記記録の閉鎖等,0,2024-08-05,2024-07-12,神奈川縣和服裁縫協同組合,00012011,その他の設立登記法人,神奈川県,横浜市磯子区,洋光台６丁目３６番８号,,14,107,2350045,,,2024-07-12,清算の結了等,,,2015-10-05,1,,,,,カナガワケンワフクサイホウ,0
711,3030001000340,登記記録の閉鎖等,0,2024-08-05,2024-07-30,アイング株式会社,,株式会社,埼玉県,さいたま市大宮区,寿能町１丁目８番地１０,,11,103,3300805,,,2024-07-30,清算の結了等,,,2015-10-05,1,,,,,アイング,0
721,3030003013968,登記記録の閉鎖等,0,2024-08-05,2024-07-30,合同会社エイドットワン,,合同会社,埼玉県,戸田市,下前１丁目１３－１３－１００１,,11,224,3350016,,,2024-07-30,清算の結了等,,,2019-08-20,1,,,,,エイドットワン,0
724,3040001030320,登記記録の閉鎖等,0,2024-08-05,2024-07-19,株式会社ジャパテック,,株式会社,千葉県,市川市,新井３丁目１１番１６号,,12,203,2720144,,,2024-07-19,清算の結了等,,,2015-10-05,1,,,,,ジャパテック,0
725,3040001065077,登記記録の閉鎖等,0,2024-08-05,2024-07-08,株式会社愛晃建設,,株式会社,千葉県,柏市,増尾台３丁目６番４１号,,12,217,2770052,,,2024-07-08,清算の結了等,,,2015-10-05,1,,,,,アイコウケンセツ,0
743,3050002027884,登記記録の閉鎖等,0,2024-08-05,2024-07-29,有限会社三国屋工務店,,有限会社,茨城県,神栖市,矢田部１２５３５番地２,,08,232,3140341,,,2024-07-29,清算の結了等,,,2015-10-05,1,,,,,ミクニヤコウムテン,0
764,3100002014704,登記記録の閉鎖等,0,2024-08-05,2024-07-17,有限会社べんがる,,有限会社,長野県,上田市,上田原１１１３番地７,,20,203,3861102,,,2024-07-17,清算の結了等,,,2015-10-05,1,,,,,ベンガル,0
770,3110003003977,登記記録の閉鎖等,0,2024-08-05,2024-07-08,合同会社ジープラン,,合同会社,新潟県,新潟市中央区,蒲原町９番１４号,,15,103,9500083,,,2024-07-08,清算の結了等,,,2019-08-06,1,,,,,ジープラン,0
773,3120001169885,登記記録の閉鎖等,0,2024-08-05,2024-08-01,株式会社Ｔ．Ｐｌａｎ,,株式会社,大阪府,枚方市,山之上５丁目１１番７号,,27,210,5730047,,,2024-08-01,清算の結了等,,,2015-10-05,1,,,,,ティープラン,0
790,3120102004875,登記記録の閉鎖等,0,2024-08-05,2024-08-01,有限会社八百ニット,,有限会社,大阪府,堺市東区,石原町４丁３９２番地の１,,27,143,5998102,,,2024-08-01,清算の結了等,,,2015-10-05,1,,,,,,0
841,3180305000781,登記記録の閉鎖等,0,2024-08-05,2024-07-30,医療法人健幸会佐野胃腸科外科,,その他の設立登記法人,愛知県,額田郡幸田町,大字大草字松山１２番地４,,23,501,4440103,,,2024-07-30,清算の結了等,,,2015-10-05,1,,,,,ケンコウカイサノイチョウカゲカ,0
849,3220001014255,登記記録の閉鎖等,0,2024-08-05,2024-07-19,片町田村ビル管理株式会社,,株式会社,石川県,野々市市,御経塚３丁目６９番地２,,17,212,9218801,,,2024-07-19,清算の結了等,,,2015-10-05,1,,,,,,0
900,3380001029551,登記記録の閉鎖等,0,2024-08-05,2024-07-29,株式会社畑田工業,,株式会社,福島県,相馬市,中野字北川原７０番地,,07,209,9760037,,,2024-07-29,清算の結了等,,,2018-11-06,1,,,,,,0
921,3450001009587,登記記録の閉鎖等,0,2024-08-05,2024-07-31,株式会社山谷建設,,株式会社,北海道,紋別市,大山町２丁目１９番３号,,01,219,0940021,,,2024-07-31,清算の結了等,,,2015-10-05,1,,,,,ヤマヤケンセツ,0
968,4010701035208,登記記録の閉鎖等,0,2024-08-05,2024-07-25,株式会社ＴＥＡＭ,,株式会社,東京都,品川区,北品川１丁目９番７号トップルーム品川１０１５号,,13,109,1400001,,,2024-07-25,清算の結了等,,,2018-01-19,1,,,,,チーム,0
1002,4011202000287,登記記録の閉鎖等,0,2024-08-05,2024-08-01,株式会社旭興産,,株式会社,東京都,中野区,松が丘２丁目３４番９号,,13,114,1650024,,,2024-08-01,清算の結了等,,,2015-10-05,1,,,,,,0
1016,4012402022880,登記記録の閉鎖等,0,2024-08-05,2024-07-19,有限会社ユニコーン・フォト・プレス,,有限会社,東京都,新宿区,新宿２丁目１２番１３号新宿アントレサロン２階,,13,104,1600022,,,2024-07-19,清算の結了等,,,2015-10-05,1,,,,,ユニコーンフォトプレス,0
1021,4020001074095,登記記録の閉鎖等,0,2024-08-05,2024-07-12,日本醗酵飼料株式会社,,株式会社,神奈川県,川崎市川崎区,昭和１丁目５番４号コーポＴ＆Ｓ１０７号,,14,131,2100813,,,2024-07-12,清算の結了等,,,2015-10-05,1,,,,,ニホンハッコウシリョウ,0
1034,4020005004032,登記記録の閉鎖等,0,2024-08-05,2024-07-11,特定非営利活動法人横浜市住宅リフォーム促進協議会,,その他の設立登記法人,神奈川県,横浜市都筑区,中川１丁目４番１号,,14,118,2240001,,,2024-07-11,清算の結了等,,,2015-10-05,1,,,,,ヨコハマシジュウタクリフォームソクシンキョウギカイ,0
1051,4030002097318,登記記録の閉鎖等,0,2024-08-05,2024-07-30,有限会社大沢工業,,有限会社,埼玉県,比企郡小川町,大字高谷８０７番地８,,11,343,3550311,,,2024-07-30,清算の結了等,,,2015-10-05,1,,,,,オオサワコウギョウ,0
1054,4030002120013,登記記録の閉鎖等,0,2024-08-05,2024-07-30,有限会社アイパックインターナショナル,,有限会社,埼玉県,日高市,大字高萩２６番地,,11,242,3501213,,,2024-07-30,清算の結了等,,,2015-10-05,1,,,,,アイパックインターナショナル,0
1055,4030003004909,登記記録の閉鎖等,0,2024-08-05,2024-08-01,合同会社舗装サービス,,合同会社,埼玉県,日高市,大字大谷沢４１３番地３,,11,242,3501222,,,2024-08-01,清算の結了等,,,2015-10-05,1,,,,,ホソウサービス,0
1065,4040002083011,登記記録の閉鎖等,0,2024-08-05,2024-07-19,有限会社川島万年堂,,有限会社,千葉県,匝瑳市,八日市場ホ３２１７番地１２,,12,235,2892146,,,2024-07-19,清算の結了等,,,2015-10-05,1,,,,,カワシママンネンドウ,0
1074,4060001020995,登記記録の閉鎖等,0,2024-08-05,2024-07-22,株式会社大成ハウジング,,株式会社,栃木県,佐野市,堀米町２５９０番地３,,09,204,3270843,,,2024-07-22,清算の結了等,,,2015-10-05,1,,,,,タイセイハウジング,0
1076,4070002023682,登記記録の閉鎖等,0,2024-08-05,2024-07-31,有限会社姉妹,,有限会社,群馬県,桐生市,新宿１丁目１３番５号,,10,203,3760006,,,2024-07-31,清算の結了等,,,2015-10-05,1,,,,,シマイ,0
1083,4090001001241,登記記録の閉鎖等,0,2024-08-05,2024-07-29,第一工販株式会社,,株式会社,山梨県,甲斐市,富竹新田１１２９番地２,,19,210,4000113,,,2024-07-29,清算の結了等,,,2015-10-05,1,,,,,,0
1090,4110001030568,登記記録の閉鎖等,0,2024-08-05,2024-07-26,株式会社クオリティスタイル,,株式会社,新潟県,新潟市中央区,女池上山４丁目１５番１１－５０９,,15,103,9500945,,,2024-07-26,清算の結了等,,,2015-10-05,1,,,,,クオリティスタイル,0
1106,4120001227411,登記記録の閉鎖等,0,2024-08-05,2024-07-31,光成ラボ株式会社,,株式会社,大阪府,大阪市中央区,東高麗橋１番１２号,,27,128,5400039,,,2024-07-31,清算の結了等,,,2020-02-25,1,,,,,コウセイラボ,0
1123,4120903002168,登記記録の閉鎖等,0,2024-08-05,2024-07-29,アウルキャピタル合同会社,,合同会社,大阪府,吹田市,日の出町２５番４－３０２号,,27,205,5640023,,,2024-07-29,清算の結了等,,,2017-04-12,1,,,,,アウルキャピタル,0
1128,4130002022224,登記記録の閉鎖等,0,2024-08-05,2024-07-30,有限会社ヘルシー開発,,有限会社,京都府,京都市右京区,太秦森ケ東町３１番地の１１７,,26,108,6168102,,,2024-07-30,清算の結了等,,,2015-10-05,1,,,,,,0
1154,4180002027870,登記記録の閉鎖等,0,2024-08-05,2024-07-22,シグマテクノ有限会社,,有限会社,愛知県,名古屋市中村区,草薙町１丁目１１２番地,,23,105,4530064,,,2024-07-22,清算の結了等,,,2015-10-05,1,,,,,シグマテクノ,0
1159,4180005004660,登記記録の閉鎖等,0,2024-08-05,2024-07-22,中部石鹸洗剤工業協同組合,00074136,その他の設立登記法人,愛知県,名古屋市中区,丸の内３丁目７番２５号,,23,106,4600002,,,2024-07-22,清算の結了等,,,2015-10-05,1,,,,,チュウブセッケンセンザイコウギョウ,0
1174,4240001061674,登記記録の閉鎖等,0,2024-08-05,2024-07-24,株式会社Ｔａｋａｈａｓｈｉ,,株式会社,広島県,福山市,松永町２丁目１９番５５号,,34,207,7290104,,,2024-07-24,清算の結了等,,,2023-06-13,1,,,,,タカハシ,0
1187,4260002034074,登記記録の閉鎖等,0,2024-08-05,2024-07-04,有限会社柴田工務店,,有限会社,岡山県,真庭市,若代３９５番地の３,,33,214,7170741,,,2024-07-04,合併による解散等,2260001031371,令和６年７月１日岡山県津山市小原１１１番地３Ｍ’ｓフィールド株式会社（2260001031371）に合併し解散,2015-10-05,1,,,,,シバタコウムテン,0
1217,4350002005743,登記記録の閉鎖等,0,2024-08-05,2024-07-30,有限会社大友,,有限会社,宮崎県,宮崎市,大字赤江１０６２番地３,,45,201,8800912,,,2024-07-30,清算の結了等,,,2015-10-05,1,,,,,オオトモ,0
1226,4410001011315,登記記録の閉鎖等,0,2024-08-05,2024-07-25,株式会社ｇｒａｎｄｍａ,,株式会社,秋田県,秋田市,中通４丁目１番３７号,,05,201,0100001,,,2024-07-25,清算の結了等,,,2016-09-12,1,,,,,グランマ,0
1284,5010501041090,登記記録の閉鎖等,0,2024-08-05,2024-07-17,日本桜姫株式会社,,株式会社,東京都,台東区,東上野２丁目１２番１８号,,13,106,1100015,,,2024-07-17,清算の結了等,,,2017-05-22,1,,,,,ニホンサクラヒメ,0
1290,5010901038505,登記記録の閉鎖等,0,2024-08-05,2024-08-01,ユニオス株式会社,,株式会社,東京都,中野区,上高田２丁目４０番１２号コンフォリア中野２０８号,,13,114,1640002,,,2024-08-01,清算の結了等,,,2016-07-19,1,,,,,ユニオス,0
1307,5011101059102,登記記録の閉鎖等,0,2024-08-05,2024-08-01,エスエール株式会社,,株式会社,大阪府,大阪市福島区,福島３丁目６番１０号,,27,103,5530003,,,2024-08-01,合併による解散等,1120001102798,令和６年８月１日大阪市福島区福島三丁目６番１０号株式会社ワールドパーツ（1120001102798）に合併し解散,2015-10-05,1,,,,,エスエール,0
1308,5011101070942,登記記録の閉鎖等,0,2024-08-05,2024-07-22,Ｃｒｕｕｍｂ株式会社,,株式会社,東京都,中央区,東日本橋２丁目２８番４号日本橋ＣＥＴビル２階,,13,102,1030004,,,2024-07-22,清算の結了等,,,2015-10-05,1,,,,,クルーム,0
1323,5011602023597,登記記録の閉鎖等,0,2024-08-05,2024-07-26,有限会社シーアンドジェイ・リテイルエレメント・ジャパン,,有限会社,東京都,品川区,西中延３丁目２番１号,,13,109,1420054,,,2024-07-26,清算の結了等,,,2015-10-05,1,,,,,シーアンドジェイリテイルエレメントジャパン,0
1327,5012401021924,登記記録の閉鎖等,0,2024-08-05,2024-08-01,株式会社ＴＡＫＥ,,株式会社,東京都,調布市,深大寺東町３丁目２９番地１４,,13,208,1820012,,,2024-08-01,清算の結了等,,,2015-10-05,1,,,,,テイク,0
1328,5012401039958,登記記録の閉鎖等,0,2024-08-05,2024-07-12,株式会社Ｔｅｃｈｐｏｐ,,株式会社,神奈川県,横浜市西区,浅間町１丁目４番３号ウィザードビル４０２,,14,103,2200072,,,2024-07-12,清算の結了等,,,2022-12-13,1,,,,,テックポップ,0
1329,5012402017780,登記記録の閉鎖等,0,2024-08-05,2024-08-01,有限会社町田内装,,有限会社,東京都,武蔵野市,吉祥寺本町４丁目３番１６号,,13,203,1800004,,,2024-08-01,清算の結了等,,,2015-10-05,1,,,,,マチダナイソウ,0
1333,5012802001285,登記記録の閉鎖等,0,2024-08-05,2024-07-26,早衣有限会社,,有限会社,東京都,立川市,栄町１丁目１６番地の１プライムガーデン国立２０１号,,13,202,1900003,,,2024-07-26,清算の結了等,,,2015-10-05,1,,,,,サイ,0
1336,5013101006208,登記記録の閉鎖等,0,2024-08-05,2024-08-01,株式会社サン・プレイス,,株式会社,東京都,あきる野市,草花８６１番地９フラワーヒル２番館１０３号,,13,228,1970802,,,2024-08-01,清算の結了等,,,2015-10-05,1,,,,,,0
1344,5020001127100,登記記録の閉鎖等,0,2024-08-05,2024-07-12,株式会社チェンジ,,株式会社,神奈川県,横浜市神奈川区,大口通１４０－５,,14,102,2210002,,,2024-07-12,清算の結了等,,,2018-07-09,1,,,,,チェンジ,0
1348,5020002013761,登記記録の閉鎖等,0,2024-08-05,2024-07-12,小野島総合コンサルタント有限会社,,有限会社,神奈川県,横浜市青葉区,美しが丘４丁目５０番地１４,,14,117,2250002,,,2024-07-12,清算の結了等,,,2015-10-05,1,,,,,オノジマソウゴウコンサルタント,0
1352,5020005002407,登記記録の閉鎖等,0,2024-08-05,2024-07-12,横浜情報・技術協同組合,,その他の設立登記法人,神奈川県,横浜市中区,日ノ出町１丁目５２番,,14,104,2310066,,,2024-07-12,清算の結了等,,,2015-10-05,1,,,,,ヨコハマジョウホウギジュツ,0
1359,5030001095668,登記記録の閉鎖等,0,2024-08-05,2024-07-29,株式会社ウォークオン,,株式会社,埼玉県,さいたま市南区,大字大谷口１４３４番地１シェヴァルアン２０２,,11,108,3360042,,,2024-07-29,清算の結了等,,,2015-10-05,1,,,,,ウォークオン,0
1368,5030002062080,登記記録の閉鎖等,0,2024-08-05,2024-07-29,有限会社パビコ,,有限会社,埼玉県,新座市,畑中２丁目１番１０号,,11,230,3520012,,,2024-07-29,清算の結了等,,,2015-10-05,1,,,,,パビコ,0
1373,5040001061058,登記記録の閉鎖等,0,2024-08-05,2024-07-19,総合保険センター株式会社,,株式会社,千葉県,匝瑳市,飯倉台三丁目２１番地の６,,12,235,2892148,,,2024-07-19,清算の結了等,,,2015-10-05,1,,,,,ソウゴウホケンセンター,0
1405,5090002010091,登記記録の閉鎖等,0,2024-08-05,2024-07-31,有限会社ウエダ,,有限会社,山梨県,都留市,中央１丁目５番９号,,19,204,4020052,,,2024-07-31,清算の結了等,,,2015-10-05,1,,,,,ウエダ,0
1410,5100003001138,登記記録の閉鎖等,0,2024-08-05,2024-07-17,睦自動車興業合資会社,,合資会社,長野県,上田市,中央２丁目２４番２号,,20,203,3860012,,,2024-07-17,清算の結了等,,,2015-10-05,1,,,,,ムツミジドウシャコウギョウ,0
1413,5110002011277,登記記録の閉鎖等,0,2024-08-05,2024-07-26,有限会社進栄エンジニアリング,,有限会社,新潟県,新潟市西蒲区,善光寺９４４番地１,,15,108,9590411,,,2024-07-26,清算の結了等,,,2015-10-05,1,,,,,シンエイエンジニアリング,0
1415,5120001101152,登記記録の閉鎖等,0,2024-08-05,2024-08-01,株式会社パトナ,,株式会社,大阪府,大阪市福島区,海老江１丁目５番３０－９０８号,,27,103,5530001,,,2024-08-01,清算の結了等,,,2015-10-05,1,,,,,パトナ,0
1448,5140001122337,登記記録の閉鎖等,0,2024-08-05,2024-08-01,株式会社１２０パーセントｈａｐｐｙ,,株式会社,兵庫県,神戸市中央区,二宮町１丁目４番５号,,28,110,6510093,,,2024-08-01,清算の結了等,,,2021-07-20,1,,,,,ヒャクニジュウパーセントハッピー,0
1474,5180302017744,登記記録の閉鎖等,0,2024-08-05,2024-07-29,有限会社居酒屋とり八,,有限会社,愛知県,刈谷市,相生町２丁目２７番地,,23,210,4480027,,,2024-07-29,清算の結了等,,,2015-10-05,1,,,,,イザカヤトリハチ,0
1477,5190005011283,登記記録の閉鎖等,0,2024-08-05,2024-08-01,一般社団法人レグルス,,その他の設立登記法人,三重県,津市,本町３２番４４号,,24,201,5140831,,,2024-08-01,清算の結了等,,,2019-03-06,1,,,,,レグルス,0
1478,5200001003778,登記記録の閉鎖等,0,2024-08-05,2024-07-26,トラヤ株式会社,,株式会社,岐阜県,岐阜市,川端町１９番地,,21,201,5008108,,,2024-07-26,清算の結了等,,,2015-10-05,1,,,,,トラヤ,0
1487,5240001036717,登記記録の閉鎖等,0,2024-08-05,2024-08-02,株式会社サンクライン,,株式会社,広島県,広島市安芸区,船越南４丁目７番１４号,,34,107,7360082,,,2024-08-02,清算の結了等,,,2015-10-05,1,,,,,サンクライン,0
1492,5240002047242,登記記録の閉鎖等,0,2024-08-05,2024-08-01,葵屋薬品有限会社,,有限会社,広島県,府中市,上下町上下８８４番地,,34,208,7293431,,,2024-08-01,清算の結了等,,,2015-10-05,1,,,,,アオイヤヤクヒン,0
1515,5290802004933,登記記録の閉鎖等,0,2024-08-05,2024-07-31,西日本食料品有限会社,,有限会社,福岡県,北九州市戸畑区,千防３丁目４番１７号,,40,105,8040081,,,2024-07-31,清算の結了等,,,2024-06-13,1,,,,,ニシニホンショクリョウヒン,0
1523,5330005001047,登記記録の閉鎖等,0,2024-08-05,2024-07-22,熊本県医薬品小売商業組合,,その他の設立登記法人,熊本県,熊本市南区,流通団地１丁目６４番地,,43,104,8620967,,,2024-07-22,清算の結了等,,,2015-10-05,1,,,,,クマモトケンイヤクヒンコウリ,0
1527,5340005003067,登記記録の閉鎖等,0,2024-08-05,2024-07-26,特定非営利活動法人山・里・まち整備室,,その他の設立登記法人,鹿児島県,姶良市,平松５７９番地１２,,46,225,8995652,,,2024-07-26,清算の結了等,,,2015-10-05,1,,,,,ヤマサトマチセイビシツ,0
1563,6010001010487,登記記録の閉鎖等,0,2024-08-05,2024-07-22,株式会社アレックス商会,,株式会社,東京都,千代田区,永田町２丁目１７番８号,,13,101,1000014,,,2024-07-22,清算の結了等,,,2015-10-05,1,,,,,アレックスショウカイ,0
1564,6010001114726,登記記録の閉鎖等,0,2024-08-05,2024-07-22,株式会社レーサムクリエイト,,株式会社,東京都,千代田区,霞が関３丁目２番１号,,13,101,1000013,,,2024-07-22,清算の結了等,,,2015-10-05,1,,,,,レーサムクリエイト,0
1570,6010005022371,登記記録の閉鎖等,0,2024-08-05,2024-07-23,一般社団法人ウッドマイルズフォーラム,,その他の設立登記法人,東京都,文京区,西片２丁目８番２４号,,13,105,1130024,,,2024-07-23,清算の結了等,,,2015-10-05,1,,,,,ウッドマイルズフォーラム,0
1595,6010901022920,登記記録の閉鎖等,0,2024-08-05,2024-07-30,株式会社ナカセイ,,株式会社,東京都,世田谷区,玉川田園調布２丁目８番１号,,13,112,1580085,,,2024-07-30,清算の結了等,,,2015-10-05,1,,,,,ナカセイ,0
1626,6012402017301,登記記録の閉鎖等,0,2024-08-05,2024-07-31,有限会社テコム,,有限会社,東京都,三鷹市,新川６丁目８番１－２０１号,,13,204,1810004,,,2024-07-31,清算の結了等,,,2015-10-05,1,,,,,,0
1645,6021002010483,登記記録の閉鎖等,0,2024-08-05,2024-08-01,有限会社オフィス湘洋,,有限会社,神奈川県,高座郡寒川町,小動９７６番地５１,,14,321,2530102,,,2024-08-01,清算の結了等,,,2015-10-05,1,,,,,オフィスショウヨウ,0
1646,6021002050884,登記記録の閉鎖等,0,2024-08-05,2024-08-01,有限会社天野牧場,,有限会社,神奈川県,小田原市,羽根尾５７６番地,,14,206,2560804,,,2024-08-01,清算の結了等,,,2015-10-05,1,,,,,,0
1658,6030003009039,登記記録の閉鎖等,0,2024-08-05,2024-07-31,合同会社オフィスＷＲＭ,,合同会社,埼玉県,さいたま市浦和区,仲町２丁目８番１６号,,11,107,3300062,,,2024-07-31,清算の結了等,,,2016-07-07,1,,,,,オフィスダブリューアールエム,0
1659,6030003012819,登記記録の閉鎖等,0,2024-08-05,2024-07-29,合同会社幸栄,,合同会社,埼玉県,春日部市,中央１丁目７番地１第一金子ビル１階,,11,214,3440067,,,2024-07-29,清算の結了等,,,2018-12-20,1,,,,,コウエイ,0
1686,6080402008108,登記記録の閉鎖等,0,2024-08-05,2024-07-30,有限会社ミヤバン,,有限会社,静岡県,浜松市中央区,和地町２４４４番地の２,,22,138,4311115,,,2024-07-30,清算の結了等,,,2015-10-05,1,,,,,ミヤバン,0
1698,6120001054952,登記記録の閉鎖等,0,2024-08-05,2024-08-01,グランド印刷株式会社,,株式会社,大阪府,大阪市淀川区,西中島２丁目６番３０号,,27,123,5320011,,,2024-08-01,清算の結了等,,,2015-10-05,1,,,,,グランドインサツ,0
1719,6120901005369,登記記録の閉鎖等,0,2024-08-05,2024-07-30,安封興産株式会社,,株式会社,大阪府,吹田市,垂水町１丁目５番４５号,,27,205,5640062,,,2024-07-30,清算の結了等,,,2015-10-05,1,,,,,アブコウサン,0
1725,6140001021331,登記記録の閉鎖等,0,2024-08-05,2024-08-01,株式会社アヴァンセ,,株式会社,兵庫県,神戸市中央区,二宮町１丁目４番５号,,28,110,6510093,,,2024-08-01,清算の結了等,,,2015-10-05,1,,,,,,0
1729,6140002003808,登記記録の閉鎖等,0,2024-08-05,2024-08-01,有限会社美野丘ヴィラ,,有限会社,兵庫県,神戸市灘区,箕岡通３丁目３番１９号（摩耶グリーン、ハウス内）,,28,102,6570812,,,2024-08-01,清算の結了等,,,2015-10-05,1,,,,,ミノオカヴィラ,0
1739,6180001019479,登記記録の閉鎖等,0,2024-08-05,2024-07-22,サカエ運輸株式会社,,株式会社,愛知県,名古屋市中川区,広川町４丁目１番地１先,,23,110,4540027,,,2024-07-22,清算の結了等,,,2015-10-05,1,,,,,サカエウンユ,0
1748,6180302017792,登記記録の閉鎖等,0,2024-08-05,2024-07-29,有限会社大三サービス,,有限会社,愛知県,知立市,西町宮腰５９番地１,,23,225,4720023,,,2024-07-29,清算の結了等,,,2015-10-05,1,,,,,ダイサンサービス,0
1756,6200001036273,登記記録の閉鎖等,0,2024-08-05,2024-08-01,ＭＯＣＨＩＦＵＫＵ株式会社,,株式会社,岐阜県,土岐市,泉寺下町１丁目３番地,,21,212,5095152,,,2024-08-01,清算の結了等,,,2019-05-30,1,,,,,モチフク,0
1757,6200001041315,登記記録の閉鎖等,0,2024-08-05,2024-07-30,株式会社Ｍ＆Ｈ,,株式会社,岐阜県,岐阜市,手力町２３番２号,,21,201,5008236,,,2024-07-30,清算の結了等,,,2023-05-15,1,,,,,エムアンドエイチ,0
1768,6240002002386,登記記録の閉鎖等,0,2024-08-05,2024-08-01,有限会社エヌケープランニング,,有限会社,広島県,広島市佐伯区,観音台３丁目６番３１号,,34,108,7315157,,,2024-08-01,清算の結了等,,,2015-10-05,1,,,,,エヌケープランニング,0
1787,6290802014477,登記記録の閉鎖等,0,2024-08-05,2024-07-30,有限会社西和設計,,有限会社,福岡県,北九州市八幡西区,穴生１丁目７番２号,,40,109,8060049,,,2024-07-30,清算の結了等,,,2015-10-05,1,,,,,セイワセッケイ,0
1843,7010001230514,登記記録の閉鎖等,0,2024-08-05,2024-07-19,ビューティホリック株式会社,,株式会社,千葉県,船橋市,前原西２丁目１７番１２号ＤＯＧＯ津田沼ビル１０４,,12,204,2740825,,,2024-07-19,清算の結了等,,,2022-11-04,1,,,,,ビューティホリック,0
1860,7010403023747,登記記録の閉鎖等,0,2024-08-05,2024-07-11,合同会社Ａ．Ｐ．１３,,合同会社,東京都,港区,元赤坂１丁目１番８号赤坂コミュニティビル４階,,13,103,1070051,,,2024-07-11,清算の結了等,,,2020-09-18,1,,,,,エーピーサーティーン,0
1863,7010501022709,登記記録の閉鎖等,0,2024-08-05,2024-07-26,株式会社ＳＨＵＨＯ,,株式会社,東京都,台東区,根岸１丁目３番２１号,,13,106,1100003,,,2024-07-26,清算の結了等,,,2015-10-05,1,,,,,シュウホウ,0
1866,7010601046459,登記記録の閉鎖等,0,2024-08-05,2024-07-26,キーファーベア株式会社,,株式会社,東京都,台東区,浅草２丁目２８番２５号,,13,106,1110032,,,2024-07-26,清算の結了等,,,2015-10-05,1,,,,,キーファーベア,0
1867,7010601061342,登記記録の閉鎖等,0,2024-08-05,2024-08-01,株式会社ｃｈａｒｍ,,株式会社,東京都,江東区,亀戸２丁目２４番１号ポゾビアンカＩＩ３０１,00126901,13,108,1360071,,,2024-08-01,清算の結了等,,,2022-06-16,1,,,,,チャーム,0
1889,7011301028549,登記記録の閉鎖等,0,2024-08-05,2024-07-31,筱薈科技控股株式会社,,株式会社,東京都,北区,浮間１丁目７－２３兆豊浮間ビル５０３号室,,13,117,1150051,,,2024-07-31,清算の結了等,,,2023-03-23,1,,,,,ショウワイカギコウコ,0
1908,7020001087540,登記記録の閉鎖等,0,2024-08-05,2024-07-12,株式会社メディカルリサーチ,,株式会社,神奈川県,横浜市都筑区,見花山８番１１号,,14,118,2240066,,,2024-07-12,清算の結了等,,,2015-10-05,1,,,,,メディカルリサーチ,0
1917,7020002027561,登記記録の閉鎖等,0,2024-08-05,2024-07-04,有限会社ナハナ工業,,有限会社,神奈川県,横浜市神奈川区,高島台２２番地の２,,14,102,2210833,,,2024-07-04,清算の結了等,,,2015-10-05,1,,,,,ナハナコウギョウ,0
1925,7030001058631,登記記録の閉鎖等,0,2024-08-05,2024-07-31,株式会社建都工房,,株式会社,埼玉県,川越市,諏訪町１６番２４,,11,201,3501147,,,2024-07-31,清算の結了等,,,2015-10-05,1,,,,,ケントコウボウ,0
1928,7030001099642,登記記録の閉鎖等,0,2024-08-05,2024-08-01,青葉設備サービス株式会社,,株式会社,東京都,中野区,本町１丁目１６番１１号くわの亭１階,,13,114,1640012,,,2024-08-01,清算の結了等,,,2015-10-05,1,,,,,アオバセツビサービス,0
1941,7040001103097,登記記録の閉鎖等,0,2024-08-05,2024-07-29,サクラソイル機工株式会社,,株式会社,埼玉県,吉川市,大字川藤３２５３番地１,,11,243,3420005,,,2024-07-29,清算の結了等,,,2018-01-12,1,,,,,サクラソイルキコウ,0
1947,7040003012024,登記記録の閉鎖等,0,2024-08-05,2024-07-19,オフィス・イクエ合同会社,,合同会社,千葉県,松戸市,栗山１７６番地の３,,12,207,2710097,,,2024-07-19,清算の結了等,,,2018-08-14,1,,,,,オフィスイクエ,0
1953,7070002006453,登記記録の閉鎖等,0,2024-08-05,2024-08-01,有限会社エヌシーアイ,,有限会社,群馬県,前橋市,上大島町９２番地,,10,201,3792153,,,2024-08-01,清算の結了等,,,2015-10-05,1,,,,,エヌシーアイ,0
1960,7080101024090,登記記録の閉鎖等,0,2024-08-05,2024-07-17,大一水産株式会社,,株式会社,静岡県,伊東市,静海町１１番１４号,,22,208,4140042,,,2024-07-17,清算の結了等,,,2023-06-29,1,,,,,ダイイチスイサン,0
1963,7090002012680,登記記録の閉鎖等,0,2024-08-05,2024-07-25,有限会社ミヤシタ樹脂塗装,,有限会社,山梨県,富士吉田市,小明見４丁目３番２６号,,19,202,4030002,,,2024-07-25,清算の結了等,,,2015-10-05,1,,,,,ミヤシタジュシトソウ,0
1994,7130002006793,登記記録の閉鎖等,0,2024-08-05,2024-08-01,有限会社大石工場,,有限会社,京都府,京都市下京区,醒ケ井通仏光寺上る要法寺町４２９番地４３１番地の１合地,,26,106,6008477,,,2024-08-01,清算の結了等,,,2015-10-05,1,,,,,オオイシコウジョウ,0
2019,7180001122496,登記記録の閉鎖等,0,2024-08-05,2024-07-17,株式会社ソーサリート,,株式会社,愛知県,名古屋市港区,秋葉３丁目１５３番地,,23,111,4550857,,,2024-07-17,清算の結了等,,,2016-03-10,1,,,,,ソーサリート,0
2024,7180002033057,登記記録の閉鎖等,0,2024-08-05,2024-07-22,三高株式会社,,株式会社,愛知県,名古屋市中区,錦３丁目１４番１０号,,23,106,4600003,,,2024-07-22,清算の結了等,,,2015-10-05,1,,,,,ミタカ,0
2025,7180002081782,登記記録の閉鎖等,0,2024-08-05,2024-07-24,梶村情報サービス有限会社,,有限会社,愛知県,江南市,後飛保町平野８４番地,,23,217,4838346,,,2024-07-24,清算の結了等,,,2015-10-05,1,,,,,カジムラジョウホウサービス,0
2033,7190005005655,登記記録の閉鎖等,0,2024-08-05,2024-07-31,伊賀市上野東町商店街振興組合,,その他の設立登記法人,三重県,伊賀市,上野東町２９３４番地１１,,24,216,5180861,,,2024-07-31,清算の結了等,,,2015-10-05,1,,,,,イガシウエノヒガシマチ,0
2035,7200001027008,登記記録の閉鎖等,0,2024-08-05,2024-07-30,株式会社エコア舎,,株式会社,岐阜県,各務原市,蘇原東栄町２丁目１０２番地１,,21,213,5040815,,,2024-07-30,清算の結了等,,,2015-10-05,1,,,,,エコアシャ,0
2039,7200002023237,登記記録の閉鎖等,0,2024-08-05,2024-07-25,有限会社和紀,,有限会社,岐阜県,中津川市,中津川字松田２３６４番地の８６５,,21,206,5080001,,,2024-07-25,清算の結了等,,,2015-10-05,1,,,,,カヅキ,0
2046,7260001028925,登記記録の閉鎖等,0,2024-08-05,2024-07-23,カバーコーポレーション株式会社,,株式会社,岡山県,岡山市南区,彦崎２８９６－１,,33,104,7091213,,,2024-07-23,清算の結了等,,,2015-10-30,1,,,,,カバーコーポレーション,0
2066,7350001008323,登記記録の閉鎖等,0,2024-08-05,2024-07-29,株式会社みやこ印刷,,株式会社,宮崎県,都城市,志比田町５６３９番地３,,45,202,8850093,,,2024-07-29,清算の結了等,,,2015-10-05,1,,,,,ミヤコインサツ,0
2077,7370201003659,登記記録の閉鎖等,0,2024-08-05,2024-07-04,株式会社ミヤマ・コーケン,,株式会社,宮城県,大崎市,古川小野字中蝦沢１３９番８６,,04,215,9896251,,,2024-07-04,清算の結了等,,,2015-10-05,1,,,,,ミヤマコーケン,0
2078,7370802001763,登記記録の閉鎖等,0,2024-08-05,2024-07-12,有限会社シャルレぴあの,,有限会社,宮城県,名取市,植松４丁目１８番３１号,,04,207,9811226,,,2024-07-12,清算の結了等,,,2015-10-05,1,,,,,シャルレピアノ,0
2083,7380001023971,登記記録の閉鎖等,0,2024-08-05,2024-07-16,日刊建設株式会社,,株式会社,福島県,福島市,八島町１２番２０号,,07,201,9608136,,,2024-07-16,清算の結了等,,,2015-10-05,1,,,,,,0
2084,7390002009473,登記記録の閉鎖等,0,2024-08-05,2024-07-22,菅原商店有限会社,,有限会社,山形県,鶴岡市,末広町２番４４号,,06,203,9970015,,,2024-07-22,清算の結了等,,,2015-10-05,1,,,,,スガワラショウテン,0
2088,7420001008794,登記記録の閉鎖等,0,2024-08-05,2024-07-11,株式会社国際ホテル,,株式会社,青森県,青森市,新町１丁目６番１８号,,02,201,0300801,,,2024-07-11,清算の結了等,,,2015-10-05,1,,,,,コクサイホテル,0
2090,7430001047073,登記記録の閉鎖等,0,2024-08-05,2024-07-30,株式会社和光,,株式会社,北海道,札幌市豊平区,月寒中央通８丁目１番１０号月寒中央ビル２Ｆ,,01,105,0620020,,,2024-07-30,合併による解散等,3430002006726,令和６年７月３０日札幌市豊平区月寒中央通八丁目１番１０号月寒中央ビル２Ｆ株式会社ＦＩＮＤ（3430002006726）に合併し解散,2015-10-05,1,,,,,ワコウ,0
2096,7450002003338,登記記録の閉鎖等,0,2024-08-05,2024-08-01,有限会社タクト設備工業,,有限会社,北海道,旭川市,春光六条９丁目６番６号,,01,204,0700876,,,2024-08-01,清算の結了等,,,2015-10-05,1,,,,,タクトセツビコウギョウ,0
2113,8010001179916,登記記録の閉鎖等,0,2024-08-05,2024-08-01,株式会社だん家ホールディングス,,株式会社,東京都,千代田区,神田佐久間町１丁目６番地４,,13,101,1010025,,,2024-08-01,合併による解散等,4010001087874,令和６年８月１日東京都千代田区神田佐久間町一丁目６番地４株式会社だん家（4010001087874）に合併し解散,2016-11-30,1,,,,,ダンケホールディングス,0
2161,8011101068356,登記記録の閉鎖等,0,2024-08-05,2024-07-23,株式会社Ｍｅｉｌｙ,,株式会社,愛知県,名古屋市東区,葵１丁目２番６号,,23,102,4610004,,,2024-07-23,清算の結了等,,,2015-10-05,1,,,,,メイリー,0
2167,8011402007310,登記記録の閉鎖等,0,2024-08-05,2024-07-25,有限会社ぱるこ,,有限会社,東京都,板橋区,稲荷台１７番３号,,13,119,1730002,,,2024-07-25,清算の結了等,,,2015-10-05,1,,,,,パルコ,0
2171,8011702011103,登記記録の閉鎖等,0,2024-08-05,2024-07-26,丸山靴下有限会社,,有限会社,東京都,江戸川区,中央３丁目５番１３号,,13,123,1320021,,,2024-07-26,清算の結了等,,,2015-10-05,1,,,,,マルヤマクツシタ,0
2176,8012401015329,登記記録の閉鎖等,0,2024-08-05,2024-07-22,株式会社旧ＴＫ,,株式会社,東京都,中央区,新富１丁目８番２号,,13,102,1040041,,,2024-07-22,清算の結了等,,,2015-10-05,1,,,,,キュウティーケー,0
2186,8020001020005,登記記録の閉鎖等,0,2024-08-05,2024-07-11,京浜サッシ株式会社,,株式会社,神奈川県,横浜市磯子区,滝頭１丁目３番２９号,,14,107,2350012,,,2024-07-11,清算の結了等,,,2015-10-05,1,,,,,ケイヒンサッシ,0
2188,8020001117635,登記記録の閉鎖等,0,2024-08-05,2024-07-08,Ａｇｉｌｉｓ　ＧＴＲＩ　Ｊａｐａｎ株式会社,,株式会社,神奈川県,川崎市川崎区,殿町３丁目２５番２２号,,14,131,2100821,,,2024-07-08,合併による解散等,2060001026037,令和６年７月１日神奈川県川崎市川崎区殿町三丁目２５番２２号株式会社遺伝子治療研究所（2060001026037）に合併し解散,2016-08-31,1,,,,,アジリスジーティーアールアイジャパン,0
2189,8020001118939,登記記録の閉鎖等,0,2024-08-05,2024-07-12,株式会社クローバー,,株式会社,神奈川県,横浜市神奈川区,大口通１４０－５,,14,102,2210002,,,2024-07-12,清算の結了等,,,2016-12-07,1,,,,,クローバー,0
2194,8020001141156,登記記録の閉鎖等,0,2024-08-05,2024-07-12,株式会社ＮＥＰ－ＴＵＮＥ,,株式会社,神奈川県,横浜市西区,北幸２丁目１１番４７－１７０７号,,14,103,2200004,,,2024-07-12,清算の結了等,,,2021-05-07,1,,,,,ネプチューン,0
2196,8020002003719,登記記録の閉鎖等,0,2024-08-05,2024-07-12,アイティオー有限会社,,有限会社,神奈川県,横浜市緑区,長津田７丁目３番地２４号,,14,113,2260027,,,2024-07-12,清算の結了等,,,2015-10-05,1,,,,,アイティオー,0
2200,8020002088173,登記記録の閉鎖等,0,2024-08-05,2024-07-11,有限会社新井葬儀店,,有限会社,神奈川県,川崎市高津区,下作延６丁目４番１４号,,14,134,2130033,,,2024-07-11,清算の結了等,,,2015-10-05,1,,,,,アライソウギテン,0
2204,8021001053333,登記記録の閉鎖等,0,2024-08-05,2024-08-01,株式会社オフィスデザイン・ミゥ,,株式会社,神奈川県,鎌倉市,二階堂２６７番地２１９,,14,204,2480002,,,2024-08-01,清算の結了等,,,2015-10-05,1,,,,,オフィスデザインミゥ,0
2244,8080102004371,登記記録の閉鎖等,0,2024-08-05,2024-07-31,有限会社高橋製作所,,有限会社,静岡県,裾野市,茶畑８０９番地の１,,22,220,4101121,,,2024-07-31,清算の結了等,,,2015-10-05,1,,,,,タカハシセイサクショ,0
2255,8120001043581,登記記録の閉鎖等,0,2024-08-05,2024-08-01,三欣株式会社,,株式会社,大阪府,大阪市西区,江之子島１丁目７番５号,,27,106,5500006,,,2024-08-01,合併による解散等,1120001262452,令和６年８月１日大阪市平野区長吉長原西一丁目５番１８－３１０号株式会社阿波座不動産（1120001262452）に合併し解散,2015-10-05,1,,,,,サンキン,0
2262,8120001227639,登記記録の閉鎖等,0,2024-08-05,2024-08-01,株式会社ＲＡＭＣＬＥＡＲ,,株式会社,大阪府,大阪市浪速区,稲荷２丁目１番１０号ニットーハイツ８０３号,,27,111,5560023,,,2024-08-01,清算の結了等,,,2020-03-05,1,,,,,ラムクリア,0
2273,8120003016412,登記記録の閉鎖等,0,2024-08-05,2024-08-01,合同会社Ｒ－ＧＩＴＡＮ,,合同会社,大阪府,枚方市,長尾家具町４丁目１０番地の３２,,27,210,5730102,,,2024-08-01,清算の結了等,,,2019-10-15,1,,,,,アールジタン,0
2293,8140002057942,登記記録の閉鎖等,0,2024-08-05,2024-07-30,有限会社マルス技研,,有限会社,兵庫県,西宮市,東町１丁目１３番５号１０８,,28,204,6620922,,,2024-07-30,清算の結了等,,,2015-10-05,1,,,,,マルスギケン,0
2295,8140003013011,登記記録の閉鎖等,0,2024-08-05,2024-07-26,合同会社藤原エンジニアリング,,合同会社,兵庫県,神戸市西区,王塚台２丁目２６番地,,28,111,6512135,,,2024-07-26,清算の結了等,,,2018-05-18,1,,,,,フジワラエンジニアリング,0
2300,8180001005519,登記記録の閉鎖等,0,2024-08-05,2024-07-24,株式会社峯澤慧建築設計事務所,00071756,株式会社,愛知県,名古屋市千種区,池下町２丁目４３番地,,23,101,4640066,,,2024-07-24,清算の結了等,,,2015-10-05,1,,,,,ミネサワケイケンチクセッケイジムショ,0
2308,8180001128914,登記記録の閉鎖等,0,2024-08-05,2024-07-19,株式会社Ｇｏｏｄ　ｐｅｒｆｏｒｍａｎｃｅ,,株式会社,愛知県,名古屋市港区,小碓２丁目１７６番地,,23,111,4550801,,,2024-07-19,清算の結了等,,,2017-08-10,1,,,,,グッドパフォーマンス,0
2309,8180001137213,登記記録の閉鎖等,0,2024-08-05,2024-07-23,愛知ベンダー株式会社,,株式会社,愛知県,東海市,南柴田町ヲノ割４５７番地の１８,,23,222,4760001,,,2024-07-23,清算の結了等,,,2019-07-03,1,,,,,アイチベンダー,0
2310,8200001009847,登記記録の閉鎖等,0,2024-08-05,2024-08-01,岐阜塗料株式会社,,株式会社,岐阜県,瑞穂市,野白新田八石６３番地３,,21,216,5010231,,,2024-08-01,清算の結了等,,,2015-10-05,1,,,,,ギフトリョウ,0
2318,8230001000241,登記記録の閉鎖等,0,2024-08-05,2024-07-26,株式会社イトー,,株式会社,愛知県,豊川市,住吉町２丁目８０番地,,23,207,4420819,,,2024-07-26,清算の結了等,,,2015-10-05,1,,,,,イトー,0
2319,8230001006552,登記記録の閉鎖等,0,2024-08-05,2024-08-01,株式会社立山情報システム,,株式会社,富山県,中新川郡立山町,野沢１３１番地,,16,323,9303217,,,2024-08-01,清算の結了等,,,2015-10-05,1,,,,,タテヤマジョウホウシステム,0
2322,8250002020195,登記記録の閉鎖等,0,2024-08-05,2024-07-30,有限会社用殿工作所,,有限会社,山口県,熊毛郡田布施町,大字下田布施３３９５番地の１,,35,343,7421511,,,2024-07-30,清算の結了等,,,2015-10-05,1,,,,,ヨウドノコウサクショ,0
2326,8290001053192,登記記録の閉鎖等,0,2024-08-05,2024-07-01,株式会社フジカワ,,株式会社,福岡県,大川市,大字上白垣１６８番地,,40,212,8310012,,,2024-07-01,清算の結了等,,,2015-10-05,1,,,,,フジカワ,0
2335,8310002003078,登記記録の閉鎖等,0,2024-08-05,2024-07-29,有限会社タケムラ,,有限会社,長崎県,長崎市,扇町２１番７号,,42,201,8528132,,,2024-07-29,清算の結了等,,,2015-10-05,1,,,,,タケムラ,0
2351,8380002018086,登記記録の閉鎖等,0,2024-08-05,2024-07-31,有限会社タカギ,,有限会社,岐阜県,高山市,桐生町７丁目１４５番地,,21,203,5060004,,,2024-07-31,清算の結了等,,,2015-10-05,1,,,,,タカギ,0
2354,8400002012846,登記記録の閉鎖等,0,2024-08-05,2024-07-19,有限会社琴平,,有限会社,岩手県,久慈市,中央４丁目２８番地,,03,207,0280061,,,2024-07-19,清算の結了等,,,2015-10-05,1,,,,,コトヒラ,0
2359,8420002016804,登記記録の閉鎖等,0,2024-08-05,2024-07-30,有限会社ティ・エム・サポートサービス,,有限会社,青森県,十和田市,東二十二番町１５番３５号,,02,206,0340015,,,2024-07-30,清算の結了等,,,2015-10-05,1,,,,,ティエムサポートサービス,0
2365,8430002009641,登記記録の閉鎖等,0,2024-08-05,2024-07-29,有限会社島田設備工業所,,有限会社,北海道,札幌市南区,川沿十四条２丁目４番２１号,,01,106,0050814,,,2024-07-29,清算の結了等,,,2015-10-05,1,,,,,シマダセツビコウギョウショ,0
2367,8430002057764,登記記録の閉鎖等,0,2024-08-05,2024-07-26,有限会社山本左官工業,,有限会社,北海道,岩内郡岩内町,字大浜６６番地の１,,01,402,0450001,,,2024-07-26,清算の結了等,,,2015-10-05,1,,,,,,0
2368,8430002065395,登記記録の閉鎖等,0,2024-08-05,2024-07-30,有限会社須藤工務店,,有限会社,北海道,登別市,新川町４丁目４３番地１０,,01,230,0590015,,,2024-07-30,清算の結了等,,,2015-10-05,1,,,,,スドウコウムテン,0
2371,8430003012280,登記記録の閉鎖等,0,2024-08-05,2024-07-26,合同会社きっとやり遂げる,,合同会社,北海道,札幌市白石区,栄通２１丁目１０－４,,01,104,0030021,,,2024-07-26,清算の結了等,,,2020-12-24,1,,,,,キットヤリトゲル,0
2375,8440005002626,登記記録の閉鎖等,0,2024-08-05,2024-07-30,一般社団法人ＯＮＥＳ,,その他の設立登記法人,北海道,函館市,神山３丁目４４番２３号,,01,202,0410832,,,2024-07-30,清算の結了等,,,2018-04-11,1,,,,,ワンス,0
2378,8470001013582,登記記録の閉鎖等,0,2024-08-05,2024-07-29,小豆島酒類販売株式会社,,株式会社,香川県,小豆郡小豆島町,馬木甲１０１０番地１,,37,324,7614426,,,2024-07-29,清算の結了等,,,2015-10-05,1,,,,,ショウドシマサケルイハンバイ,0
2412,9010501046994,登記記録の閉鎖等,0,2024-08-05,2024-07-26,ステラテクノサービス株式会社,,株式会社,東京都,台東区,東浅草２丁目３番４号,,13,106,1110025,,,2024-07-26,清算の結了等,,,2021-03-05,1,,,,,ステラテクノサービス,0
2420,9010602001337,登記記録の閉鎖等,0,2024-08-05,2024-08-01,有限会社朝光製作所,,有限会社,東京都,江東区,北砂４丁目９番１８号,,13,108,1360073,,,2024-08-01,清算の結了等,,,2015-10-05,1,,,,,アサミツセイサクジョ,0
2421,9010603007548,登記記録の閉鎖等,0,2024-08-05,2024-08-01,合同会社ＳＵＭＩＫＵＲＡ,,合同会社,東京都,墨田区,江東橋２丁目１９番１４号,,13,107,1300022,,,2024-08-01,清算の結了等,,,2018-11-19,1,,,,,スミクラ,0
2442,9011301024694,登記記録の閉鎖等,0,2024-08-05,2024-07-31,ＹＫＭコンサルティング株式会社,,株式会社,東京都,杉並区,清水１丁目３８番１０号,,13,115,1670033,,,2024-07-31,清算の結了等,,,2018-12-19,1,,,,,ワイケイエムコンサルティング,0
2447,9011505000979,登記記録の閉鎖等,0,2024-08-05,2024-07-22,特定非営利活動法人オオムラサキを荒川の大空に飛ばす会,,その他の設立登記法人,東京都,荒川区,東日暮里２丁目２９番２号,,13,118,1160014,,,2024-07-22,清算の結了等,,,2015-10-05,1,,,,,,0
2455,9011805002634,登記記録の閉鎖等,0,2024-08-05,2024-08-01,公益財団法人ＦＡＣＰ財団,,その他の設立登記法人,兵庫県,神戸市中央区,御幸通２丁目１番６号,,28,110,6510087,,,2024-08-01,清算の結了等,,,2016-12-12,1,,,,,エフエーシーピーザイダン,0
2474,9020002024739,登記記録の閉鎖等,0,2024-08-05,2024-07-12,有限会社フジプランニング,,有限会社,神奈川県,横浜市保土ケ谷区,法泉３丁目２番１６号,,14,106,2400032,,,2024-07-12,清算の結了等,,,2015-10-05,1,,,,,フジプランニング,0
2477,9020002084849,登記記録の閉鎖等,0,2024-08-05,2024-07-11,有限会社堀一設備,,有限会社,神奈川県,川崎市中原区,今井南町４番１号,,14,133,2110064,,,2024-07-11,清算の結了等,,,2015-10-05,1,,,,,ホリイチセツビ,0
2478,9020002085946,登記記録の閉鎖等,0,2024-08-05,2024-07-12,有限会社エモンズ,,有限会社,神奈川県,川崎市宮前区,宮崎１丁目１２番地１５,,14,136,2160033,,,2024-07-12,清算の結了等,,,2015-10-05,1,,,,,エモンズ,0
2485,9030001066665,登記記録の閉鎖等,0,2024-08-05,2024-07-26,株式会社アンフィニ,,株式会社,埼玉県,越谷市,南越谷４丁目９番地６,,11,222,3430845,,,2024-07-26,清算の結了等,,,2015-10-05,1,,,,,アンフィニ,0
2489,9030002040628,登記記録の閉鎖等,0,2024-08-05,2024-07-31,有限会社安田商事,,有限会社,埼玉県,白岡市,西７丁目６番２２,,11,246,3490205,,,2024-07-31,清算の結了等,,,2015-10-05,1,,,,,ヤスダショウジ,0
2495,9030005019289,登記記録の閉鎖等,0,2024-08-05,2024-07-29,一般社団法人ＩＮＦＩＮＩＴＯ　ＰＬＵＳ,,その他の設立登記法人,埼玉県,川越市,大字今福３３４番地３,,11,201,3501151,,,2024-07-29,清算の結了等,,,2018-12-19,1,,,,,インフィニトプラス,0
2526,9100001013957,登記記録の閉鎖等,0,2024-08-05,2024-07-05,富士アラーム工業株式会社,,株式会社,長野県,松本市,南原１丁目２６番１７号,,20,202,3900846,,,2024-07-05,清算の結了等,,,2015-10-05,1,,,,,フジアラームコウギョウ,0
2542,9120001235434,登記記録の閉鎖等,0,2024-08-05,2024-08-01,株式会社マルユ物流,,株式会社,大阪府,大阪市平野区,加美北９丁目１０番４号,,27,126,5470001,,,2024-08-01,清算の結了等,,,2021-02-24,1,,,,,マルユブツリュウ,0
2561,9130002001248,登記記録の閉鎖等,0,2024-08-05,2024-07-29,有限会社西村裕工務店,,有限会社,京都府,京都市右京区,山ノ内大町９番地８,,26,108,6150097,,,2024-07-29,清算の結了等,,,2015-10-05,1,,,,,ニシムラヒロコウムテン,0
2564,9140001058255,登記記録の閉鎖等,0,2024-08-05,2024-07-31,株式会社関西総合緑地,,株式会社,兵庫県,姫路市,東山３９９番地,,28,201,6728014,,,2024-07-31,清算の結了等,,,2015-10-05,1,,,,,カンサイソウゴウリョクチ,0
2569,9140002057248,登記記録の閉鎖等,0,2024-08-05,2024-07-22,有限会社内藤,,有限会社,兵庫県,西宮市,甲陽園目神山町１０番１４号,,28,204,6620011,,,2024-07-22,清算の結了等,,,2015-10-05,1,,,,,ナイトウ,0
2578,9160001005445,登記記録の閉鎖等,0,2024-08-05,2024-07-29,株式会社センチュリー,,株式会社,滋賀県,甲賀市,甲南町池田上梅田２１１８番地,,25,209,5203302,,,2024-07-29,清算の結了等,,,2015-10-05,1,,,,,センチュリー,0
2579,9160002014156,登記記録の閉鎖等,0,2024-08-05,2024-07-31,有限会社守山木型製作所,,有限会社,滋賀県,守山市,焔魔堂町１０２番地の３,00049023,25,207,5240042,,,2024-07-31,清算の結了等,,,2015-10-05,1,,,,,モリヤマキガタセイサクショ,0
2583,9180001093934,登記記録の閉鎖等,0,2024-08-05,2024-07-24,株式会社渡部技研,,株式会社,愛知県,知多郡東浦町,大字生路字弁財９５番地,,23,442,4702104,,,2024-07-24,清算の結了等,,,2015-10-05,1,,,,,ワタベギケン,0
2591,9180301014846,登記記録の閉鎖等,0,2024-08-05,2024-07-30,二宮畜産工業株式会社,,株式会社,愛知県,知立市,中山町中山３８番地,,23,225,4720032,,,2024-07-30,清算の結了等,,,2015-10-05,1,,,,,ニノミヤチクサンコウギョウ,0
2603,9260002008494,登記記録の閉鎖等,0,2024-08-05,2024-07-23,有限会社フアームランドみゆき,,有限会社,岡山県,岡山市北区,日応寺１６６５番地５１,,33,101,7011131,,,2024-07-23,清算の結了等,,,2015-10-05,1,,,,,ファームランドミユキ,0
2605,9260005010282,登記記録の閉鎖等,0,2024-08-05,2024-07-22,一般社団法人岡山県美術家協会,,その他の設立登記法人,岡山県,岡山市北区,西花尻６３８番地４,,33,101,7010136,,,2024-07-22,清算の結了等,,,2017-06-05,1,,,,,オカヤマケンビジュツカキョウカイ,0
2613,9290005011625,登記記録の閉鎖等,0,2024-08-05,2024-06-24,平淨寺,,その他の設立登記法人,福岡県,柳川市,三橋町今古賀４３４番地,,40,207,8320823,,,2024-06-24,清算の結了等,,,2015-10-05,1,,,,,ヘイジョウジ,0
2615,9290801002380,登記記録の閉鎖等,0,2024-08-05,2024-07-17,株式会社ＫＩＣ,,株式会社,福岡県,北九州市小倉北区,原町２丁目６番１８号,,40,106,8030815,,,2024-07-17,合併による解散等,6290801019023,令和６年７月１７日北九州市小倉北区原町二丁目６番１８号マル興産株式会社（6290801019023）に合併し解散,2015-10-05,1,,,,,ケーアイシー,0
2650,9440001006101,登記記録の閉鎖等,0,2024-08-05,2024-07-29,株式会社山三名取商店,,株式会社,北海道,久遠郡せたな町,北檜山区北檜山１９８番地,,01,371,0494501,,,2024-07-29,清算の結了等,,,2015-10-05,1,,,,,ヤマサンナトリショウテン,0
