sequenceNumber,corporateNumber,process,correct,updateDate,changeDate,name,nameImageId,kind,prefectureName,cityName,streetNumber,addressImageId,prefectureCode,cityCode,postCode,addressOutside,addressOutsideImageId,closeDate,closeCause,successorCorporateNumber,changeCause,assignmentDate,latest,enName,enPrefectureName,enCityName,enAddressOutside,furigana,hihyoji
12,1010401038694,登記記録の閉鎖等,0,2025-04-02,2025-03-03,株式会社フェブライオ・ミュージック,,株式会社,東京都,港区,白金台２丁目１９番２号,,13,103,1080071,,,2025-03-03,清算の結了等,,,2015-10-05,1,,,,,フェブライオミュージック,0
16,1010403023422,登記記録の閉鎖等,0,2025-04-02,2025-03-27,合同会社福岡篠栗,,合同会社,東京都,千代田区,霞が関３丁目２番５号,,13,101,1000013,,,2025-03-27,清算の結了等,,,2020-08-05,1,,,,,フクオカササグリ,0
22,1010703003108,登記記録の閉鎖等,0,2025-04-02,2025-03-28,合同会社ステップワン,,合同会社,東京都,世田谷区,奥沢８丁目２番７号,,13,112,1580083,,,2025-03-28,清算の結了等,,,2016-05-11,1,,,,,ステップワン,0
24,1010803003164,登記記録の閉鎖等,0,2025-04-02,2025-03-27,合同会社めめクラフト,,合同会社,青森県,平川市,平田森稲村２７番６,,02,210,0360113,,,2025-03-27,清算の結了等,,,2019-11-01,1,,,,,メメクラフト,0
26,1010902014896,登記記録の閉鎖等,0,2025-04-02,2025-03-18,有限会社宮口産業,,有限会社,東京都,大田区,蒲田本町１丁目１番２－７０３号,,13,111,1440053,,,2025-03-18,清算の結了等,,,2015-10-05,1,,,,,ミヤグチサンギョウ,0
29,1011001151796,登記記録の閉鎖等,0,2025-04-02,2025-03-25,株式会社ＴｒｉｄｅｎｔＣｕｒｖｅ,,株式会社,東京都,中央区,銀座１丁目１２番４号Ｎ＆ＥＢＬＤ．６Ｆ,,13,102,1040061,,,2025-03-25,清算の結了等,,,2023-01-13,1,,,,,トライデントカーブ,0
48,1011302011690,登記記録の閉鎖等,0,2025-04-02,2025-03-25,有限会社コーエー電設,,有限会社,東京都,杉並区,和泉２丁目３９番１７号,,13,115,1680063,,,2025-03-25,清算の結了等,,,2015-10-05,1,,,,,コーエーデンセツ,0
50,1011402016994,登記記録の閉鎖等,0,2025-04-02,2025-03-21,株式会社ビー・ピー・シー,,株式会社,東京都,板橋区,高島平１丁目７９番３号,,13,119,1750082,,,2025-03-21,清算の結了等,,,2015-10-05,1,,,,,ビーピーシー,0
56,1012702007626,登記記録の閉鎖等,0,2025-04-02,2025-03-28,有限会社岩田工務店,,有限会社,東京都,清瀬市,下宿２丁目４６５番地,,13,221,2040001,,,2025-03-28,清算の結了等,,,2015-10-05,1,,,,,イワタコウムテン,0
59,1013301031991,登記記録の閉鎖等,0,2025-04-02,2025-03-19,株式会社ティー・エム・アール,,株式会社,東京都,豊島区,東池袋３丁目１番１号サンシャイン６０・４５階,,13,116,1700013,,,2025-03-19,清算の結了等,,,2015-10-05,1,,,,,ティーエムアール,0
65,1020001103138,登記記録の閉鎖等,0,2025-04-02,2025-03-05,株式会社日中環境技術産業協力機構,,株式会社,神奈川県,横浜市鶴見区,下野谷町１丁目４７番地,,14,101,2300047,,,2025-03-05,清算の結了等,,,2015-10-05,1,,,,,ニッチュウカンキョウギジュツサンギョウキョウリョクキコウ,0
75,1021001034570,登記記録の閉鎖等,0,2025-04-02,2025-03-27,株式会社西湘ワークス,,株式会社,神奈川県,足柄上郡中井町,境１３１４番地１０,,14,361,2590157,,,2025-03-27,清算の結了等,,,2015-10-05,1,,,,,セイショウワークス,0
103,1080001024089,登記記録の閉鎖等,0,2025-04-02,2025-03-27,株式会社ＴＯＫＡＩベンチャーキャピタル＆インキュベーション,,株式会社,静岡県,静岡市葵区,常磐町２丁目６番地の８,,22,101,4200034,,,2025-03-27,清算の結了等,,,2021-04-05,1,,,,,トーカイベンチャーキャピタルアンドインキュベーション,0
106,1080005000937,登記記録の閉鎖等,0,2025-04-02,2025-03-25,静岡結婚相談事業協同組合,,その他の設立登記法人,静岡県,静岡市葵区,七間町１３番２０号,,22,101,4200035,,,2025-03-25,清算の結了等,,,2015-10-05,1,,,,,シズオカケッコンソウダン,0
107,1080102020367,登記記録の閉鎖等,0,2025-04-02,2025-03-25,有限会社原企画,,有限会社,静岡県,伊東市,馬場町１丁目１６番５２号,,22,208,4140033,,,2025-03-25,清算の結了等,,,2015-10-05,1,,,,,ハラキカク,0
123,1120101049873,登記記録の閉鎖等,0,2025-04-02,2025-03-26,株式会社自由工房,,株式会社,大阪府,泉南市,樽井９丁目１１番４号,,27,228,5900521,,,2025-03-26,清算の結了等,,,2015-10-05,1,,,,,ジユウコウボウ,0
145,1140005022487,登記記録の閉鎖等,0,2025-04-02,2025-03-27,ＮＰＯ法人日本観光ネットワーク,,その他の設立登記法人,兵庫県,豊岡市,桜町１０番１１号,,28,209,6680043,,,2025-03-27,清算の結了等,,,2015-10-05,1,,,,,ニホンカンコウネットワーク,0
149,1150002000528,登記記録の閉鎖等,0,2025-04-02,2025-03-31,有限会社吉平,,有限会社,奈良県,奈良市,登美ヶ丘２丁目３番１８号,,29,201,6310004,,,2025-03-31,清算の結了等,,,2015-10-05,1,,,,,キッペイ,0
189,1410002001334,登記記録の閉鎖等,0,2025-04-02,2025-03-28,有限会社工藤畜産,,有限会社,秋田県,秋田市,河辺大張野字水口沢２１２番地２,,05,201,0192632,,,2025-03-28,清算の結了等,,,2015-10-05,1,,,,,クドウチクサン,0
196,1450002000233,登記記録の閉鎖等,0,2025-04-02,2025-03-27,有限会社赤坂設計,,有限会社,北海道,旭川市,一条通２１丁目１番地の２９,,01,204,0788211,,,2025-03-27,清算の結了等,,,2015-10-05,1,,,,,,0
211,2010401011072,登記記録の閉鎖等,0,2025-04-02,2025-03-10,株式会社酒井新,,株式会社,東京都,港区,新橋３丁目１番１１号,,13,103,1050004,,,2025-03-10,清算の結了等,,,2015-10-05,1,,,,,サカイシン,0
214,2010401121516,登記記録の閉鎖等,0,2025-04-02,2025-03-04,株式会社ｃｏｃｒｅ,,株式会社,東京都,港区,芝浦４丁目１０番１－３３１６号,,13,103,1080023,,,2025-03-04,清算の結了等,,,2015-11-13,1,,,,,,0
234,2010801020623,登記記録の閉鎖等,0,2025-04-02,2025-01-08,株式会社ケーマックス・ラボ,,株式会社,東京都,大田区,東雪谷２丁目２７番１０号,,13,111,1450065,,,2025-01-08,清算の結了等,,,2015-10-05,1,,,,,ケーマックスラボ,0
237,2010901043680,登記記録の閉鎖等,0,2025-04-02,2025-03-31,太陽建設株式会社,,株式会社,東京都,世田谷区,上北沢４丁目３３番１号４Ｆ,,13,112,1560057,,,2025-03-31,清算の結了等,,,2019-02-19,1,,,,,タイヨウケンセツ,0
247,2011001155929,登記記録の閉鎖等,0,2025-04-02,2025-03-25,おいしいホールディングス株式会社,,株式会社,東京都,渋谷区,上原１丁目３５－３（ｓｉｏ）,,13,113,1510064,,,2025-03-25,清算の結了等,,,2023-07-28,1,,,,,オイシイホールディングス,0
260,2011401019923,登記記録の閉鎖等,0,2025-04-02,2025-03-27,マイ・テーブル株式会社,,株式会社,東京都,江戸川区,江戸川３丁目１９番地３,,13,123,1320013,,,2025-03-27,清算の結了等,,,2016-12-16,1,,,,,,0
279,2013303005646,登記記録の閉鎖等,0,2025-04-02,2025-03-07,エンパワーメント合同会社,,合同会社,東京都,港区,南青山２丁目２番１５号,,13,103,1070062,,,2025-03-07,清算の結了等,,,2021-05-06,1,,,,,エンパワーメント,0
289,2021002059698,登記記録の閉鎖等,0,2025-04-02,2025-03-31,有限会社町田鉄工所,,有限会社,神奈川県,海老名市,社家９５０番地,,14,215,2430424,,,2025-03-31,清算の結了等,,,2015-10-05,1,,,,,マチダテッコウショ,0
298,2030002009324,登記記録の閉鎖等,0,2025-04-02,2025-03-31,有限会社天狗屋,,有限会社,埼玉県,さいたま市西区,西大宮２丁目８番地１５,,11,101,3310078,,,2025-03-31,清算の結了等,,,2015-10-05,1,,,,,テングヤ,0
303,2040002090224,登記記録の閉鎖等,0,2025-04-02,2025-03-21,有限会社鈴木建窓,,有限会社,千葉県,柏市,篠籠田１４５７番地の４,,12,217,2770862,,,2025-03-21,清算の結了等,,,2015-10-05,1,,,,,スズキケンソウ,0
316,2070003000815,登記記録の閉鎖等,0,2025-04-02,2025-03-28,合同会社保険翔会匠,,合同会社,群馬県,安中市,磯部４丁目１６番４０号,,10,211,3790127,,,2025-03-28,清算の結了等,,,2015-10-05,1,,,,,ホケンショウカイタクミ,0
348,2140001077278,登記記録の閉鎖等,0,2025-04-02,2025-03-28,株式会社クールバンク,,株式会社,兵庫県,加西市,北条町古坂３丁目７５番地,,28,220,6752303,,,2025-03-28,清算の結了等,,,2015-10-05,1,,,,,クールバンク,0
351,2140003010749,登記記録の閉鎖等,0,2025-04-02,2025-03-28,サンガテクノロジー合同会社,,合同会社,兵庫県,神戸市東灘区,御影本町１丁目３番６号,,28,101,6580046,,,2025-03-28,清算の結了等,,,2015-10-05,1,,,,,サンガテクノロジー,0
353,2150001009544,登記記録の閉鎖等,0,2025-04-02,2025-04-01,株式会社まもるホンダ販売,,株式会社,奈良県,桜井市,大字赤尾７６番地の３,,29,206,6330006,,,2025-04-01,合併による解散等,1150001006063,令和７年４月１日奈良県磯城郡川西町大字唐院８６番地の４株式会社ホンダカーズ飛鳥（1150001006063）に合併し解散,2015-10-05,1,,,,,マモルホンダハンバイ,0
356,2150002008256,登記記録の閉鎖等,0,2025-04-02,2025-03-28,有限会社モリタ,,有限会社,奈良県,磯城郡田原本町,２４８番地,,29,363,6360300,,,2025-03-28,清算の結了等,,,2015-10-05,1,,,,,モリタ,0
359,2180001089526,登記記録の閉鎖等,0,2025-04-02,2025-03-27,株式会社ウィルリンク,,株式会社,愛知県,北名古屋市,石橋五反田３３番地,,23,234,4810046,,,2025-03-27,清算の結了等,,,2015-10-05,1,,,,,ウィルリンク,0
366,2200001018969,登記記録の閉鎖等,0,2025-04-02,2025-03-31,株式会社ウエハラメガネ,,株式会社,岐阜県,関市,片倉町１番地の７８,,21,205,5013963,,,2025-03-31,清算の結了等,,,2015-10-05,1,,,,,ウエハラメガネ,0
369,2220001024115,登記記録の閉鎖等,0,2025-04-02,2025-03-26,株式会社Ｔ・Ｓプラス,,株式会社,石川県,金沢市,無量寺２丁目９５番地,,17,201,9200333,,,2025-03-26,清算の結了等,,,2021-04-12,1,,,,,ティーエスプラス,0
370,2240001037115,登記記録の閉鎖等,0,2025-04-02,2025-03-31,株式会社山本製作所,,株式会社,広島県,安芸郡熊野町,新宮４丁目３番１号,,34,307,7314211,,,2025-03-31,清算の結了等,,,2015-10-05,1,,,,,ヤマモトセイサクショ,0
372,2240005002817,登記記録の閉鎖等,0,2025-04-02,2025-03-31,医療法人みなみ会,,その他の設立登記法人,広島県,広島市中区,白島北町３番１４号,,34,101,7300001,,,2025-03-31,清算の結了等,,,2015-10-05,1,,,,,ミナミカイ,0
380,2270002011017,登記記録の閉鎖等,0,2025-04-02,2025-03-31,有限会社ソケット,,有限会社,鳥取県,倉吉市,旭田町３２番地,,31,203,6820871,,,2025-03-31,清算の結了等,,,2015-10-05,1,,,,,ソケット,0
386,2320002017198,登記記録の閉鎖等,0,2025-04-02,2025-03-31,有限会社ブリーズ食品,,有限会社,大分県,佐伯市,葛港１２番４号,,44,205,8760801,,,2025-03-31,清算の結了等,,,2015-10-05,1,,,,,,0
408,2500001004963,登記記録の閉鎖等,0,2025-04-02,2025-03-31,奥嶋酒造株式会社,,株式会社,愛媛県,伊予市,双海町上灘甲５７１１番地,,38,210,7993202,,,2025-03-31,清算の結了等,,,2015-10-05,1,,,,,オクジマシュゾウ,0
411,3010001136211,登記記録の閉鎖等,0,2025-04-02,2025-03-19,株式会社エッジコンテンツ,,株式会社,東京都,千代田区,神田三崎町２丁目６番９号三栄ビル,,13,101,1010061,,,2025-03-19,清算の結了等,,,2015-10-05,1,,,,,エッジコンテンツ,0
414,3010001222473,登記記録の閉鎖等,0,2025-04-02,2025-03-10,ＭＯＳＴ株式会社,,株式会社,東京都,港区,虎ノ門５丁目１番４号,,13,103,1050001,,,2025-03-10,清算の結了等,,,2021-11-11,1,,,,,モースト,0
421,3010102002691,登記記録の閉鎖等,0,2025-04-02,2025-03-26,有限会社小林プレス,,有限会社,東京都,八王子市,台町４丁目３番１３号,,13,201,1930931,,,2025-03-26,清算の結了等,,,2015-10-05,1,,,,,コバヤシプレス,0
431,3010401174067,登記記録の閉鎖等,0,2025-04-02,2025-03-10,フレイズ・クルーズ株式会社,,株式会社,東京都,港区,南青山２丁目２－１５ＷＩＮ青山５３１,,13,103,1070062,,,2025-03-10,清算の結了等,,,2023-05-02,1,,,,,フレイズクルーズ,0
442,3010901055469,登記記録の閉鎖等,0,2025-04-02,2025-03-21,株式会社Ｇ‐ｉｂｉｓ,,株式会社,東京都,板橋区,仲町３８番６号小林ハイツ２０１,,13,119,1730022,,,2025-03-21,清算の結了等,,,2024-06-17,1,,,,,ビーアイビス,0
483,3020003018002,登記記録の閉鎖等,0,2025-04-02,2025-03-19,合同会社川崎ゼロベース,,合同会社,神奈川県,川崎市高津区,久本３丁目１４－１－２９１５,,14,134,2130011,,,2025-03-19,清算の結了等,,,2020-06-10,1,,,,,カワサキゼロベース,0
495,3030002117076,登記記録の閉鎖等,0,2025-04-02,2025-03-28,有限会社長谷川鉄工,,有限会社,埼玉県,深谷市,東方１８９７番地,,11,218,3660041,,,2025-03-28,清算の結了等,,,2015-10-05,1,,,,,ハセガワテッコウ,0
497,3040001036508,登記記録の閉鎖等,0,2025-04-02,2025-03-28,日新電機株式会社,,株式会社,東京都,江戸川区,北篠崎２丁目３番２５号,,13,123,1330053,,,2025-03-28,清算の結了等,,,2015-10-05,1,,,,,ニッシンデンキ,0
535,3120101053262,登記記録の閉鎖等,0,2025-04-02,2025-03-26,株式会社八条,,株式会社,大阪府,和泉市,箕形町２丁目１番４－１０２号,,27,219,5940042,,,2025-03-26,清算の結了等,,,2015-10-05,1,,,,,ハチジョウ,0
552,3140002010625,登記記録の閉鎖等,0,2025-04-02,2025-03-28,有限会社リライフコーポレーション,,有限会社,兵庫県,神戸市北区,山田町下谷上字小畑５番２８,,28,109,6511243,,,2025-03-28,清算の結了等,,,2015-10-05,1,,,,,リライフコーポレーション,0
561,3180001129173,登記記録の閉鎖等,0,2025-04-02,2025-03-31,株式会社アップローズ,,株式会社,東京都,港区,港南２丁目１５番１号品川インターシティＡ棟２８Ｆ,,13,103,1080075,,,2025-03-31,合併による解散等,1180001124820,令和７年３月２６日埼玉県蓮田市大字黒浜２７９８番地２８５株式会社ターザンインターナショナル（1180001124820）に合併し解散,2017-08-24,1,,,,,アップローズ,0
576,3240001040571,登記記録の閉鎖等,0,2025-04-02,2025-03-31,株式会社Ｇｏｏｄ　ｌｉｆｅ,,株式会社,広島県,広島市中区,富士見町８番５号,,34,101,7300043,,,2025-03-31,清算の結了等,,,2015-10-05,1,,,,,グッドライフ,0
596,3330002030661,登記記録の閉鎖等,0,2025-04-02,2025-03-27,有限会社黒木建具製作所,,有限会社,熊本県,人吉市,上薩摩瀬町１４４６番地,00098056,43,203,8680013,,,2025-03-27,清算の結了等,,,2015-10-05,1,,,,,クロキタテグセイサクショ,0
603,3370001039675,登記記録の閉鎖等,0,2025-04-02,2025-03-27,株式会社ベル・ウッド,,株式会社,宮城県,仙台市若林区,若林３丁目１４番５－２０３号,,04,103,9840826,,,2025-03-27,清算の結了等,,,2016-05-27,1,,,,,ベルウッド,0
618,3450001006493,登記記録の閉鎖等,0,2025-04-02,2025-03-28,双葉車輛工業株式会社,,株式会社,北海道,富良野市,弥生町４番２２号,,01,229,0760018,,,2025-03-28,清算の結了等,,,2015-10-05,1,,,,,フタバシャリョウコウギョウ,0
634,4010001168427,登記記録の閉鎖等,0,2025-04-02,2025-03-27,ＡｎｙＴｅｃｈ株式会社,,株式会社,東京都,文京区,本郷２丁目２５番５号,,13,105,1130033,,,2025-03-27,清算の結了等,,,2015-10-05,1,,,,,エニーテック,0
636,4010001198688,登記記録の閉鎖等,0,2025-04-02,2025-03-24,新今宮開発株式会社,,株式会社,東京都,中央区,日本橋１丁目４番１号,,13,102,1030027,,,2025-03-24,清算の結了等,,,2019-02-21,1,,,,,シンイマミヤカイハツ,0
641,4010002010414,登記記録の閉鎖等,0,2025-04-02,2025-03-27,有限会社鷺谷,,有限会社,東京都,千代田区,神田松永町１番地,,13,101,1010023,,,2025-03-27,清算の結了等,,,2015-10-05,1,,,,,サギタニ,0
647,4010401183273,登記記録の閉鎖等,0,2025-04-02,2025-03-10,ｊａｙｌｉｆｅ株式会社,,株式会社,東京都,港区,高輪２丁目１３番１号高輪２１３１ビルＢＩＺｃｉｒｃｌｅ品川泉岳寺１３号室,,13,103,1080074,,,2025-03-10,清算の結了等,,,2024-06-20,1,,,,,ジェイライフ,0
658,4010901001694,登記記録の閉鎖等,0,2025-04-02,2025-03-28,栄繁商亊株式会社,,株式会社,東京都,世田谷区,下馬６丁目３４番１４号,,13,112,1540002,,,2025-03-28,清算の結了等,,,2015-10-05,1,,,,,エイハンショウジ,0
660,4010901043679,登記記録の閉鎖等,0,2025-04-02,2025-03-31,株式会社ソレイユ,,株式会社,東京都,世田谷区,上北沢４丁目３３番１号４Ｆ,,13,112,1560057,,,2025-03-31,清算の結了等,,,2019-02-19,1,,,,,ソレイユ,0
684,4011203002869,登記記録の閉鎖等,0,2025-04-02,2025-03-27,銀狼アセット合同会社,,合同会社,東京都,杉並区,和田３丁目６１番８－２０２号,,13,115,1660012,,,2025-03-27,清算の結了等,,,2018-10-04,1,,,,,ギンロウアセット,0
716,4030003016549,登記記録の閉鎖等,0,2025-04-02,2025-03-31,ファミリーワークス合同会社,,合同会社,埼玉県,さいたま市中央区,上落合２丁目４番２－１２０５号,,11,105,3380001,,,2025-03-31,清算の結了等,,,2021-01-21,1,,,,,ファミリーワークス,0
722,4040003007349,登記記録の閉鎖等,0,2025-04-02,2025-03-21,合同会社ワイ・ワイ,,合同会社,千葉県,市原市,ちはら台西３丁目１番８号,,12,219,2900143,,,2025-03-21,清算の結了等,,,2015-10-05,1,,,,,ワイワイ,0
738,4120001148517,登記記録の閉鎖等,0,2025-04-02,2025-03-21,広瀬商事株式会社,,株式会社,大阪府,寝屋川市,錦町２２番２号,,27,215,5720043,,,2025-03-21,清算の結了等,,,2015-10-05,1,,,,,ヒロセショウジ,0
756,4140001106687,登記記録の閉鎖等,0,2025-04-02,2025-03-28,兵庫ドライバー求人センター株式会社,,株式会社,兵庫県,西宮市,津門大塚町７番７号,,28,204,6638241,,,2025-03-28,清算の結了等,,,2017-06-28,1,,,,,ヒョウゴドライバーキュウジンセンター,0
757,4140001109046,登記記録の閉鎖等,0,2025-04-02,2025-03-07,株式会社ヒロコハヤシ,,株式会社,東京都,港区,北青山３丁目５番１０号,,13,103,1070061,,,2025-03-07,合併による解散等,7010401143638,令和７年３月１日東京都港区北青山三丁目５番１０号株式会社ヒロフ（7010401143638）に合併し解散,2018-02-07,1,,,,,ヒロコハヤシ,0
765,4160002007577,登記記録の閉鎖等,0,2025-04-02,2025-04-01,有限会社まごころ急配便,,有限会社,滋賀県,長浜市,口分田町４２２番地の３,,25,203,5260014,,,2025-04-01,清算の結了等,,,2015-10-05,1,,,,,マゴコロキュウハイビン,0
777,4190002006816,登記記録の閉鎖等,0,2025-04-02,2025-03-31,有限会社永戸瓦店,,有限会社,三重県,鈴鹿市,高塚町１８０３番地の１,,24,207,5130011,,,2025-03-31,清算の結了等,,,2015-10-05,1,,,,,ナガトカワラテン,0
778,4200001009850,登記記録の閉鎖等,0,2025-04-02,2025-03-31,株式会社岐阜西武不動産,,株式会社,岐阜県,瑞穂市,穂積７１４番地の８,,21,216,5010223,,,2025-03-31,清算の結了等,,,2015-10-05,1,,,,,ギフセイブフドウサン,0
779,4200002026151,登記記録の閉鎖等,0,2025-04-02,2025-03-31,有限会社和田建築,,有限会社,岐阜県,高山市,清見町三日町１１０５番地,,21,203,5060102,,,2025-03-31,清算の結了等,,,2015-10-05,1,,,,,ワダケンチク,0
792,4280005000666,登記記録の閉鎖等,0,2025-04-02,2025-03-31,松江小売酒販組合,,その他の設立登記法人,島根県,松江市,母衣町４６番地,,32,201,6900886,,,2025-03-31,清算の結了等,,,2015-10-05,1,,,,,,0
800,4340005002788,登記記録の閉鎖等,0,2025-04-02,2025-04-01,株式会社北姶良車検センター,,株式会社,鹿児島県,姶良郡湧水町,米永荒平３０８３番地,,46,452,8996207,,,2025-04-01,合併による解散等,2340001009343,令和７年４月１日鹿児島県霧島市横川町中ノ３７６番地２株式会社横川自動車（2340001009343）に合併し解散,2015-10-05,1,,,,,キタアイラシャケンセンター,0
809,4380005007800,登記記録の閉鎖等,0,2025-04-02,2025-03-17,企業組合かわうちオフィスサービス,,その他の設立登記法人,福島県,双葉郡川内村,大字上川内字小山平５０１番地の１,,07,544,9791201,,,2025-03-17,清算の結了等,,,2015-10-05,1,,,,,カワウチオフィスサービス,0
816,4430002042621,登記記録の閉鎖等,0,2025-04-02,2025-03-31,有限会社卸売スーパー,,有限会社,北海道,札幌市東区,北十一条東１２丁目２番７号,,01,103,0650011,,,2025-03-31,清算の結了等,,,2015-10-05,1,,,,,オロシウリスーパー,0
825,4500001020760,登記記録の閉鎖等,0,2025-04-02,2025-03-28,春美住宅株式会社,,株式会社,愛媛県,松山市,春美町３４２３番地４,,38,201,7918087,,,2025-03-28,清算の結了等,,,2017-07-20,1,,,,,ハルミジュウタク,0
836,5010001208207,登記記録の閉鎖等,0,2025-04-02,2025-03-21,四季折々株式会社,,株式会社,東京都,千代田区,富士見２丁目１１番１３号,,13,101,1020071,,,2025-03-21,清算の結了等,,,2020-03-16,1,,,,,シキオリオリ,0
838,5010001217125,登記記録の閉鎖等,0,2025-04-02,2025-03-25,株式会社ＴｒｉｄｅｎｔＺｅｒｏ,,株式会社,東京都,中央区,銀座１丁目２２番１１号銀座大竹ビジデンス２階,,13,102,1040061,,,2025-03-25,清算の結了等,,,2021-04-09,1,,,,,トライデントゼロ,0
888,5012701007813,登記記録の閉鎖等,0,2025-04-02,2025-03-28,株式会社レイデイック,,株式会社,東京都,西東京市,柳沢２丁目１７番２０号,,13,229,2020022,,,2025-03-28,清算の結了等,,,2015-10-05,1,,,,,レイデイック,0
891,5020001069425,登記記録の閉鎖等,0,2025-04-02,2025-03-14,常伸建設株式会社,,株式会社,神奈川県,川崎市宮前区,土橋１丁目１３番３,,14,136,2160005,,,2025-03-14,清算の結了等,,,2015-10-05,1,,,,,ジョウシンケンセツ,0
893,5020001087765,登記記録の閉鎖等,0,2025-04-02,2025-03-05,株式会社チャイナ・ウォーター・リサーチ,,株式会社,神奈川県,横浜市鶴見区,下野谷町１丁目４７番地,,14,101,2300047,,,2025-03-05,清算の結了等,,,2015-10-05,1,,,,,チャイナウォーターリサーチ,0
916,5040001079653,登記記録の閉鎖等,0,2025-04-02,2025-03-21,株式会社オーパス・ワン,,株式会社,千葉県,千葉市中央区,登戸１丁目１３番２２号,,12,101,2600032,,,2025-03-21,清算の結了等,,,2015-10-05,1,,,,,オーパスワン,0
917,5040001100286,登記記録の閉鎖等,0,2025-04-02,2025-03-21,株式会社ＴＫＲｅｓｅａｒｃｈ,,株式会社,千葉県,柏市,逆井５丁目８番９号,,12,217,2770042,,,2025-03-21,清算の結了等,,,2017-05-23,1,,,,,ティーケーリサーチ,0
942,5120001241254,登記記録の閉鎖等,0,2025-04-02,2025-03-31,株式会社Ａｙ　Ｆｉｔｎｅｓｓ,,株式会社,大阪府,大阪市北区,菅原町１０番１２－２２０７号,,27,127,5300046,,,2025-03-31,清算の結了等,,,2021-10-26,1,,,,,アイフィットネス,0
958,5140001001169,登記記録の閉鎖等,0,2025-04-02,2025-03-27,扇タクシー株式会社,,株式会社,兵庫県,神戸市東灘区,深江浜町１３５番地,,28,101,6580023,,,2025-03-27,合併による解散等,2140001001163,令和７年３月２７日神戸市東灘区深江浜町１３５番地扇株式会社（2140001001163）に合併し解散,2015-10-05,1,,,,,オウギタクシー,0
961,5140001033971,登記記録の閉鎖等,0,2025-04-02,2025-03-28,株式会社未来テック,,株式会社,兵庫県,神戸市灘区,船寺通３丁目２番１２号,,28,102,6570842,,,2025-03-28,清算の結了等,,,2015-10-05,1,,,,,ミライテック,0
977,5180302010419,登記記録の閉鎖等,0,2025-04-02,2025-03-26,有限会社ゆたか,,有限会社,愛知県,豊橋市,小向町字蜂ケ尻１０番地,,23,201,4418003,,,2025-03-26,清算の結了等,,,2015-10-05,1,,,,,ユタカ,0
979,5190001003870,登記記録の閉鎖等,0,2025-04-02,2025-03-31,ホームデザインキャスリー株式会社,,株式会社,三重県,四日市市,三栄町５番５号,,24,202,5100068,,,2025-03-31,清算の結了等,,,2015-10-05,1,,,,,ホームデザインキャスリー,0
985,5250002006445,登記記録の閉鎖等,0,2025-04-02,2025-03-31,有限会社村上石材店,,有限会社,山口県,山陽小野田市,厚狭１丁目２０番１号,,35,216,7570001,,,2025-03-31,清算の結了等,,,2015-10-05,1,,,,,ムラカミセキザイテン,0
991,5290001072311,登記記録の閉鎖等,0,2025-04-02,2025-03-18,サンショップ株式会社,,株式会社,福岡県,久留米市,大善寺町夜明字町裏４１７番地１,,40,203,8300074,,,2025-03-18,清算の結了等,,,2015-12-18,1,,,,,,0
1012,5400002000473,登記記録の閉鎖等,0,2025-04-02,2025-03-17,有限会社うすいマネキン,,有限会社,岩手県,盛岡市,東黒石野２丁目１番１７号,,03,201,0200108,,,2025-03-17,清算の結了等,,,2015-10-05,1,,,,,ウスイマネキン,0
1013,5400003002304,登記記録の閉鎖等,0,2025-04-02,2025-03-17,合同会社ラピス,,合同会社,岩手県,一関市,山目字館６８番地１２２,,03,209,0210061,,,2025-03-17,清算の結了等,,,2018-03-02,1,,,,,ラピス,0
1016,5410002000712,登記記録の閉鎖等,0,2025-04-02,2025-03-27,有限会社イメージ・メーカーズ,,有限会社,秋田県,秋田市,泉南１丁目１３番２６号,,05,201,0100918,,,2025-03-27,清算の結了等,,,2015-10-05,1,,,,,,0
1017,5410005006203,登記記録の閉鎖等,0,2025-04-02,2025-03-27,特定非営利活動法人ＢＡＬａｂｏ,,その他の設立登記法人,秋田県,由利本荘市,雪車町字新雪車町６４番地２号,,05,210,0150081,,,2025-03-27,清算の結了等,,,2019-02-27,1,,,,,バラボ,0
1020,5430001052892,登記記録の閉鎖等,0,2025-04-02,2025-03-28,健康とうふ株式会社,,株式会社,北海道,苫小牧市,光洋町１丁目１１番１号,,01,213,0530811,,,2025-03-28,清算の結了等,,,2015-10-05,1,,,,,ケンコウトウフ,0
1025,6010001139269,登記記録の閉鎖等,0,2025-04-02,2025-03-25,日本橋インベストメント株式会社,,株式会社,東京都,中央区,銀座１丁目６－１１土志田ビルディング３階,,13,102,1040061,,,2025-03-25,清算の結了等,,,2015-10-05,1,,,,,ニホンバシインベストメント,0
1041,6010401133672,登記記録の閉鎖等,0,2025-04-02,2025-03-07,Ｆｉｎｄａｂｉｌｉｔｙ　Ｓｃｉｅｎｃｅｓ株式会社,,株式会社,東京都,港区,海岸１丁目７番１号,,13,103,1050022,,,2025-03-07,清算の結了等,,,2017-09-07,1,,,,,ファインダビリティサイエンシス,0
1050,6010403028466,登記記録の閉鎖等,0,2025-04-02,2025-03-10,合同会社ひとり,,合同会社,東京都,港区,南青山３丁目１番３６号青山丸竹ビル６Ｆ,,13,103,1070062,,,2025-03-10,清算の結了等,,,2022-09-06,1,,,,,ヒトリ,0
1057,6010701017088,登記記録の閉鎖等,0,2025-04-02,2025-03-07,株式会社Ｔ＆Ｌ,,株式会社,東京都,港区,北青山３丁目５番１０号,,13,103,1070061,,,2025-03-07,合併による解散等,7010401143638,令和７年３月１日東京都港区北青山三丁目５番１０号株式会社ヒロフ（7010401143638）に合併し解散,2015-10-05,1,,,,,ティーアンドエル,0
1063,6010701021718,登記記録の閉鎖等,0,2025-04-02,2025-03-24,株式会社ＳＹコンサルティング,,株式会社,東京都,渋谷区,広尾１丁目１番３９号,,13,113,1500012,,,2025-03-24,清算の結了等,,,2015-10-05,1,,,,,エスワイコンサルティング,0
1065,6010801010868,登記記録の閉鎖等,0,2025-04-02,2025-03-19,株式会社北誠企業,,株式会社,東京都,大田区,山王２丁目６番７号,,13,111,1430023,,,2025-03-19,清算の結了等,,,2015-10-05,1,,,,,ホクセイキギョウ,0
1066,6010803003119,登記記録の閉鎖等,0,2025-04-02,2025-03-31,合同会社じょうなん,,合同会社,東京都,大田区,南六郷２丁目１７番４,,13,111,1440045,,,2025-03-31,合併による解散等,3050003003315,令和７年３月１日茨城県つくば市観音台一丁目３５番１９号合同会社たいよう（3050003003315）に合併し解散,2019-09-17,1,,,,,ジョウナン,0
1071,6010903007201,登記記録の閉鎖等,0,2025-04-02,2025-03-27,合同会社忘牛,,合同会社,東京都,世田谷区,玉川３丁目２０－２マノア玉川第３ビル５０１,,13,112,1580094,,,2025-03-27,清算の結了等,,,2022-03-03,1,,,,,ボウギュウ,0
1096,6011801032737,登記記録の閉鎖等,0,2025-04-02,2025-03-21,株式会社スタジオａｍｕ,,株式会社,千葉県,市川市,南八幡４丁目１６番１５号メゾン・ド一鶴１Ｆ・Ｂ室,,12,203,2720023,,,2025-03-21,清算の結了等,,,2017-01-06,1,,,,,スタジオアム,0
1100,6013201012724,登記記録の閉鎖等,0,2025-04-02,2025-03-21,株式会社アイワン,,株式会社,東京都,目黒区,自由が丘３丁目１５番１９号,,13,110,1520035,,,2025-03-21,合併による解散等,8013202007449,令和７年２月１日東京都渋谷区神泉町４番３号株式会社ワイティー企画（8013202007449）に合併し解散,2015-10-05,1,,,,,アイワン,0
1110,6020002031481,登記記録の閉鎖等,0,2025-04-02,2025-03-19,有限会社増山商店,,有限会社,神奈川県,横浜市南区,高根町４丁目２３番地,,14,105,2320022,,,2025-03-19,清算の結了等,,,2015-10-05,1,,,,,,0
1114,6020005012207,登記記録の閉鎖等,0,2025-04-02,2025-03-19,一般社団法人ＧＥＯＲセンター,,その他の設立登記法人,神奈川県,横浜市中区,翁町２丁目８番６号,,14,104,2310028,,,2025-03-19,清算の結了等,,,2015-10-05,1,,,,,ジーイーオーアールセンター,0
1117,6021002057500,登記記録の閉鎖等,0,2025-04-02,2025-03-31,有限会社菊屋商店,,有限会社,神奈川県,平塚市,紅谷町３番１７号,,14,203,2540043,,,2025-03-31,清算の結了等,,,2015-10-05,1,,,,,キクヤショウテン,0
1159,6120002072400,登記記録の閉鎖等,0,2025-04-02,2025-03-31,有限会社サムズ,,有限会社,大阪府,寝屋川市,石津南町１９番１号ロイヤルシャトー寝屋川オークビル１５１６号,,27,215,5720024,,,2025-03-31,清算の結了等,,,2015-10-05,1,,,,,サムズ,0
1171,6130002019887,登記記録の閉鎖等,0,2025-04-02,2025-03-31,有限会社タカヤ住宅,,有限会社,京都府,京都市右京区,太秦袴田町１番地５３,,26,108,6168155,,,2025-03-31,清算の結了等,,,2015-10-05,1,,,,,タカヤジュウタク,0
1198,6220003003617,登記記録の閉鎖等,0,2025-04-02,2025-03-25,合同会社ＵＴＩ企画工業,,合同会社,石川県,金沢市,額乙丸町ロ２４０番地,,17,201,9218146,,,2025-03-25,清算の結了等,,,2023-11-02,1,,,,,ユーティーアイキカクコウギョウ,0
1199,6220005008390,登記記録の閉鎖等,0,2025-04-02,2025-03-26,特定非営利活動法人漆の山作り委員会,,その他の設立登記法人,石川県,輪島市,横地町２の１１番地株式会社大徹八井漆器工房内,,17,204,9280012,,,2025-03-26,清算の結了等,,,2019-06-04,1,,,,,ウルシノヤマヅクリイインカイ,0
1215,6320002007947,登記記録の閉鎖等,0,2025-04-02,2025-03-31,有限会社梟,,有限会社,大分県,大分市,二又町３丁目２番２９号,,44,201,8700887,,,2025-03-31,清算の結了等,,,2015-10-05,1,,,,,フクロウ,0
1233,6390002010556,登記記録の閉鎖等,0,2025-04-02,2025-03-25,有限会社アルーア,,有限会社,山形県,鶴岡市,大字友江字川向４３番地９号,,06,203,9970000,,,2025-03-25,清算の結了等,,,2015-10-05,1,,,,,アルーア,0
1238,6410002010207,登記記録の閉鎖等,0,2025-04-02,2025-03-28,有限会社菊池,,有限会社,秋田県,能代市,花園町２６番１８号,,05,202,0160844,,,2025-03-28,清算の結了等,,,2015-10-05,1,,,,,キクチ,0
1246,6450001011383,登記記録の閉鎖等,0,2025-04-02,2025-03-31,株式会社ｅｎｃｏｕｎｔｅｒ,,株式会社,北海道,旭川市,台場二条６丁目８番５－２号,,01,204,0708072,,,2025-03-31,清算の結了等,,,2015-10-05,1,,,,,エンカウンター,0
1252,6490002001652,登記記録の閉鎖等,0,2025-04-02,2025-03-31,有限会社幸鵬水産,,有限会社,高知県,高知市,比島町４丁目１番３８号,,39,201,7800066,,,2025-03-31,清算の結了等,,,2015-10-05,1,,,,,,0
1310,7011602005148,登記記録の閉鎖等,0,2025-04-02,2025-03-19,有限会社昭和工業,,有限会社,東京都,練馬区,南田中１丁目４番１７号,,13,120,1770035,,,2025-03-19,清算の結了等,,,2015-10-05,1,,,,,ショウワコウギョウ,0
1321,7013105000824,登記記録の閉鎖等,0,2025-04-02,2025-03-25,特定非営利活動法人メンタルフレンド,,その他の設立登記法人,東京都,羽村市,神明台２丁目５番地３３神明台住宅９０７,,13,227,2050023,,,2025-03-25,清算の結了等,,,2015-10-05,1,,,,,メンタルフレンド,0
1332,7020003013305,登記記録の閉鎖等,0,2025-04-02,2025-03-19,合同会社パシュノ,,合同会社,神奈川県,横浜市中区,尾上町６丁目８７番地１,,14,104,2310015,,,2025-03-19,清算の結了等,,,2017-09-19,1,,,,,パシュノ,0
1341,7021002070601,登記記録の閉鎖等,0,2025-04-02,2025-03-31,有限会社モンセラ,,有限会社,神奈川県,横須賀市,船越町３丁目３３番地７３０５号室,,14,201,2370076,,,2025-03-31,清算の結了等,,,2015-10-05,1,,,,,モンセラ,0
1354,7030003024144,登記記録の閉鎖等,0,2025-04-02,2025-03-25,合同会社グローイングアップ,,合同会社,埼玉県,狭山市,狭山台２丁目１番地２－３－４０１,,11,215,3501304,,,2025-03-25,清算の結了等,,,2024-04-22,1,,,,,グローイングアップ,0
1382,7120901001367,登記記録の閉鎖等,0,2025-04-02,2025-03-25,竹馬土地建物株式会社,,株式会社,大阪府,茨木市,別院町７番１６号－１０５,,27,211,5670817,,,2025-03-25,清算の結了等,,,2015-10-05,1,,,,,チクマトチタテモノ,0
1386,7122001001702,登記記録の閉鎖等,0,2025-04-02,2025-03-31,カネタスピン株式会社,,株式会社,大阪府,東大阪市,高井田中１丁目１１番１８号,,27,227,5770065,,,2025-03-31,清算の結了等,,,2015-10-05,1,,,,,カネタスピン,0
1387,7122001015371,登記記録の閉鎖等,0,2025-04-02,2025-03-31,城南製線株式会社,,株式会社,大阪府,大東市,灰塚４丁目６番６１号,,27,218,5740043,,,2025-03-31,清算の結了等,,,2015-10-05,1,,,,,ジョウナンセイセン,0
1392,7130001006910,登記記録の閉鎖等,0,2025-04-02,2025-04-01,株式会社ドール企画,,株式会社,京都府,京都市左京区,松ケ崎雲路町１５番地１,,26,103,6060955,,,2025-04-01,合併による解散等,7130001005846,令和７年４月１日京都市左京区松ヶ崎雲路町１５番地１株式会社アトリヱドール（7130001005846）に合併し解散,2015-10-05,1,,,,,ドールキカク,0
1422,7230002011627,登記記録の閉鎖等,0,2025-04-02,2025-03-28,有限会社トキワ,,有限会社,富山県,高岡市,末広町１４番３６号,,16,202,9330023,,,2025-03-28,清算の結了等,,,2015-10-05,1,,,,,トキワ,0
1426,7250002000470,登記記録の閉鎖等,0,2025-04-02,2025-03-31,有限会社協和食品,,有限会社,山口県,山口市,大字朝田字流通センター６０１番地の５,,35,203,7530000,,,2025-03-31,清算の結了等,,,2015-10-05,1,,,,,,0
1427,7250002008712,登記記録の閉鎖等,0,2025-04-02,2025-03-26,有限会社きんかん食堂,,有限会社,山口県,下関市,竹崎町３丁目５番２２号,,35,201,7500025,,,2025-03-26,清算の結了等,,,2015-10-05,1,,,,,キンカンショクドウ,0
1452,7420002014214,登記記録の閉鎖等,0,2025-04-02,2025-03-28,ホームワークス株式会社,,株式会社,青森県,弘前市,大字土手町７７番地１０,,02,202,0368182,,,2025-03-28,清算の結了等,,,2015-10-05,1,,,,,ホームワークス,0
1457,7450002009624,登記記録の閉鎖等,0,2025-04-02,2025-03-28,有限会社まるべりー観光,,有限会社,北海道,富良野市,春日町８番１号,,01,229,0760054,,,2025-03-28,清算の結了等,,,2015-10-05,1,,,,,マルベリーカンコウ,0
1460,7500001003374,登記記録の閉鎖等,0,2025-04-02,2025-03-27,パリフラワー株式会社,,株式会社,愛媛県,松山市,一番町３丁目２番地１,,38,201,7900001,,,2025-03-27,清算の結了等,,,2015-10-05,1,,,,,パリフラワー,0
1461,7500001018959,登記記録の閉鎖等,0,2025-04-02,2025-03-31,株式会社桜興業,,株式会社,愛媛県,松山市,津吉町４０６番地１,,38,201,7911122,,,2025-03-31,清算の結了等,,,2015-10-05,1,,,,,サクラコウギョウ,0
1471,8010102008593,登記記録の閉鎖等,0,2025-04-02,2025-03-31,有限会社サンキューカット八王子,,有限会社,東京都,八王子市,狭間町１４５５番地の２３ウエストサイド東京１０２,,13,201,1930941,,,2025-03-31,清算の結了等,,,2015-10-05,1,,,,,サンキューカットハチオウジ,0
1487,8010802012630,登記記録の閉鎖等,0,2025-04-02,2025-03-19,有限会社藤原電機工業,,有限会社,東京都,大田区,大森南２丁目２５番１３号,,13,111,1430013,,,2025-03-19,清算の結了等,,,2015-10-05,1,,,,,フジワラデンキコウギョウ,0
1505,8011101017296,登記記録の閉鎖等,0,2025-04-02,2025-03-27,萩原商事株式会社,,株式会社,東京都,荒川区,東日暮里５丁目４番２号,,13,118,1160014,,,2025-03-27,清算の結了等,,,2015-10-05,1,,,,,,0
1526,8020001098875,登記記録の閉鎖等,0,2025-04-02,2025-03-25,株式会社ＷＢＭＩ,,株式会社,神奈川県,横浜市港北区,新吉田東４丁目３番１１号,,14,109,2230058,,,2025-03-25,清算の結了等,,,2015-10-05,1,,,,,ダブリュウビーエムアイ,0
1544,8021001007875,登記記録の閉鎖等,0,2025-04-02,2025-03-31,株式会社エアミックス,,株式会社,神奈川県,高座郡寒川町,岡田３丁目２２番４９号,,14,321,2530105,,,2025-03-31,清算の結了等,,,2015-10-05,1,,,,,エアミックス,0
1557,8040003019571,登記記録の閉鎖等,0,2025-04-02,2025-03-21,合同会社ＵＫ　ＢＡＳＥ,,合同会社,千葉県,柏市,東中新宿３丁目２番３号,,12,217,2770061,,,2025-03-21,清算の結了等,,,2022-03-01,1,,,,,ユーケーベース,0
1561,8050001027914,登記記録の閉鎖等,0,2025-04-02,2025-03-28,株式会社創健,,株式会社,茨城県,取手市,片町３００番地,,08,217,3001513,,,2025-03-28,合併による解散等,9013301018949,令和７年３月２１日東京都豊島区高田一丁目３６番２０号株式会社ソーケンメディカル（9013301018949）に合併し解散,2015-10-05,1,,,,,ソーケン,0
1572,8110005008193,登記記録の閉鎖等,0,2025-04-02,2025-03-25,上越砂利採取販売協同組合,,その他の設立登記法人,新潟県,上越市,藤巻８番４７号藤巻ビル３０４,,15,222,9430817,,,2025-03-25,清算の結了等,,,2015-10-05,1,,,,,ジョウエツジャリサイシュハンバイ,0
1573,8120001015151,登記記録の閉鎖等,0,2025-04-02,2025-03-31,株式会社昭栄光芸,,株式会社,大阪府,大阪市城東区,諏訪１丁目１２番１５号,,27,118,5360021,,,2025-03-31,清算の結了等,,,2015-10-05,1,,,,,ショウエイコウゲイ,0
1575,8120001182041,登記記録の閉鎖等,0,2025-04-02,2025-03-25,Ｗ’ｓ　Ｌａｂ株式会社,,株式会社,大阪府,箕面市,外院３丁目１７番２０号,,27,220,5620026,,,2025-03-25,清算の結了等,,,2015-10-05,1,,,,,ワッツラボ,0
1588,8120003026238,登記記録の閉鎖等,0,2025-04-02,2025-03-12,合同会社希望,,合同会社,大阪府,大阪市淀川区,西宮原２丁目５－４６－１１１８,,27,123,5320004,,,2025-03-12,清算の結了等,,,2024-04-03,1,,,,,キボウ,0
1594,8122001003763,登記記録の閉鎖等,0,2025-04-02,2025-03-28,株式会社ゼクー,,株式会社,大阪府,東大阪市,足代新町４番１０号,,27,227,5770057,,,2025-03-28,清算の結了等,,,2015-10-05,1,,,,,ゼクー,0
1606,8150001015405,登記記録の閉鎖等,0,2025-04-02,2025-04-01,株式会社上田モータース,,株式会社,奈良県,五條市,野原西４丁目１０番１４号,,29,207,6370036,,,2025-04-01,合併による解散等,1150001006063,令和７年４月１日奈良県磯城郡川西町大字唐院８６番地の４株式会社ホンダカーズ飛鳥（1150001006063）に合併し解散,2015-10-05,1,,,,,ウエダモータース,0
1620,8240001040559,登記記録の閉鎖等,0,2025-04-02,2025-03-31,株式会社バイストン・ウェル,,株式会社,広島県,広島市南区,皆実町１丁目１３－３４,,34,103,7340007,,,2025-03-31,清算の結了等,,,2015-10-05,1,,,,,バイストンウェル,0
1624,8260002018841,登記記録の閉鎖等,0,2025-04-02,2025-03-31,有限会社ショーワ,,有限会社,岡山県,倉敷市,福田町福田２２７１番地の２,,33,202,7128041,,,2025-03-31,清算の結了等,,,2015-10-05,1,,,,,ショーワ,0
1632,8330005007347,登記記録の閉鎖等,0,2025-04-02,2025-03-28,医療法人社団葵遥会,,その他の設立登記法人,熊本県,上天草市,大矢野町中１３１４番地の１,,43,212,8693603,,,2025-03-28,清算の結了等,,,2015-10-05,1,,,,,アオイハルカカイ,0
1638,8380005011476,登記記録の閉鎖等,0,2025-04-02,2025-03-14,一般社団法人南会津クリーンエネルギー協会,,その他の設立登記法人,福島県,南会津郡南会津町,川島字川島平１７９６番地１,,07,368,9670012,,,2025-03-14,清算の結了等,,,2015-10-05,1,,,,,ミナミアイヅクリーンエネルギーキョウカイ,0
1641,8410002008430,登記記録の閉鎖等,0,2025-04-02,2025-03-28,有限会社カマヤ薬店,,有限会社,秋田県,大館市,常盤木町２番３号,,05,204,0170846,,,2025-03-28,清算の結了等,,,2015-10-05,1,,,,,カマヤヤクテン,0
1659,9010001171491,登記記録の閉鎖等,0,2025-04-02,2025-03-25,株式会社ＴｒｉｄｅｎｔＣｕｒｖｅ,,株式会社,東京都,中央区,銀座６丁目１３番１６号銀座ＷａｌｌビルＵＣＦ５階,,13,102,1040061,,,2025-03-25,清算の結了等,,,2015-11-09,1,,,,,トライデントカーブ,0
1670,9010101002803,登記記録の閉鎖等,0,2025-04-02,2025-03-31,長崎屋産業株式会社,,株式会社,東京都,八王子市,小比企町１０４０番地の１,,13,201,1930934,,,2025-03-31,清算の結了等,,,2015-10-05,1,,,,,,0
1696,9011001121453,登記記録の閉鎖等,0,2025-04-02,2025-03-05,株式会社矢島商店,,株式会社,東京都,目黒区,上目黒１丁目２６番１－２７１０号,,13,110,1530051,,,2025-03-05,清算の結了等,,,2018-04-03,1,,,,,ヤジマショウテン,0
1706,9011101069287,登記記録の閉鎖等,0,2025-04-02,2025-03-18,株式会社ＰＲＡＶＡ,,株式会社,東京都,新宿区,西早稲田２丁目２０番１０－９０２号,,13,104,1690051,,,2025-03-18,清算の結了等,,,2015-10-05,1,,,,,プラバ,0
1727,9012801023500,登記記録の閉鎖等,0,2025-04-02,2025-03-17,株式会社ＴＥＮ,,株式会社,東京都,立川市,柴崎町３丁目９番７号多摩川実業ビル１階,,13,202,1900023,,,2025-03-17,清算の結了等,,,2024-10-22,1,,,,,テン,0
1737,9021001006323,登記記録の閉鎖等,0,2025-04-02,2025-03-25,サン建設株式会社,,株式会社,神奈川県,高座郡寒川町,一之宮１丁目６番４１号,,14,321,2530111,,,2025-03-25,清算の結了等,,,2015-10-05,1,,,,,サンケンセツ,0
1742,9021002062183,登記記録の閉鎖等,0,2025-04-02,2025-03-31,株式会社カシーボ,,株式会社,神奈川県,平塚市,四之宮１丁目９番３８号,,14,203,2540014,,,2025-03-31,合併による解散等,7021001038236,令和７年３月３１日神奈川県平塚市四之宮一丁目９番３８号小林運輸株式会社（7021001038236）に合併し解散,2015-10-05,1,,,,,カシーボ,0
1755,9060002010958,登記記録の閉鎖等,0,2025-04-02,2025-03-27,有限会社ユーシーディー,,有限会社,栃木県,宇都宮市,泉が丘２丁目２番４１号,,09,201,3210952,,,2025-03-27,清算の結了等,,,2015-10-05,1,,,,,ユーシーディー,0
1759,9080001004604,登記記録の閉鎖等,0,2025-04-02,2025-03-28,株式会社古海,,株式会社,静岡県,静岡市駿河区,曲金５丁目７番３０号,,22,102,4228006,,,2025-03-28,清算の結了等,,,2015-10-05,1,,,,,フルウミ,0
1765,9100001004964,登記記録の閉鎖等,0,2025-04-02,2025-03-17,株式会社長野京急カントリークラブ,,株式会社,神奈川県,横浜市西区,高島１丁目２番８号,,14,103,2200011,,,2025-03-17,清算の結了等,,,2015-10-05,1,,,,,ナガノケイキュウカントリークラブ,0
1770,9120001073537,登記記録の閉鎖等,0,2025-04-02,2025-03-21,株式会社旭システム,,株式会社,大阪府,大阪市中央区,釣鐘町１丁目２番２号,,27,128,5400035,,,2025-03-21,清算の結了等,,,2015-10-05,1,,,,,アサヒシステム,0
1772,9120001243040,登記記録の閉鎖等,0,2025-04-02,2025-03-31,株式会社２ｎｄ　Ｓｔａｇｅ,,株式会社,大阪府,大阪市北区,西天満４丁目１番２号,,27,127,5300047,,,2025-03-31,清算の結了等,,,2022-01-14,1,,,,,セカンドステージ,0
1777,9120005007945,登記記録の閉鎖等,0,2025-04-02,2025-03-31,医療法人東歯科診療所,,その他の設立登記法人,大阪府,大阪市中央区,心斎橋筋２丁目２番２２号小大丸ビル４階,,27,128,5420085,,,2025-03-31,清算の結了等,,,2015-10-05,1,,,,,アズマシカシンリョウショ,0
1789,9130001021965,登記記録の閉鎖等,0,2025-04-02,2025-03-31,鳴海自動車株式会社,,株式会社,京都府,京都市中京区,西ノ京北壺井町５８番地,,26,104,6048472,,,2025-03-31,清算の結了等,,,2015-10-05,1,,,,,ナルミジドウシャ,0
1793,9130002022896,登記記録の閉鎖等,0,2025-04-02,2025-03-31,有限会社　ＪＡＣＫＰＯＴ　ｐｒｏｊｅｃｔｓ,,有限会社,京都府,京都市左京区,仁王門通新高倉東入北門前町５０１番地４,,26,103,6068352,,,2025-03-31,清算の結了等,,,2015-10-05,1,,,,,ジャックポットプロジェクツ,0
1794,9130002025791,登記記録の閉鎖等,0,2025-04-02,2025-03-31,有限会社共栄機材,,有限会社,京都府,向日市,物集女町中条２８番地,,26,208,6170001,,,2025-03-31,清算の結了等,,,2015-10-05,1,,,,,,0
1798,9140001039230,登記記録の閉鎖等,0,2025-04-02,2025-03-25,山崎商業開発株式会社,,株式会社,兵庫県,宍粟市,山崎町中井７番地の４,,28,227,6712545,,,2025-03-25,清算の結了等,,,2015-10-05,1,,,,,ヤマサキショウギョウカイハツ,0
1808,9150001011378,登記記録の閉鎖等,0,2025-04-02,2025-04-01,株式会社吉村モータース,00042942,株式会社,奈良県,磯城郡川西町,大字唐院８６番地の４,,29,361,6360204,,,2025-04-01,合併による解散等,1150001006063,令和７年４月１日奈良県磯城郡川西町大字唐院８６番地の４株式会社ホンダカーズ飛鳥（1150001006063）に合併し解散,2015-10-05,1,,,,,ヨシムラモータース,0
1819,9180001146320,登記記録の閉鎖等,0,2025-04-02,2025-03-26,株式会社ピース,,株式会社,愛知県,丹羽郡扶桑町,大字高雄字北東川３１８番地,,23,362,4800102,,,2025-03-26,清算の結了等,,,2021-06-03,1,,,,,ピース,0
1824,9180302008483,登記記録の閉鎖等,0,2025-04-02,2025-03-25,有限会社中日書籍,,有限会社,愛知県,豊橋市,往完町字往還西１７番地の８,,23,201,4418082,,,2025-03-25,清算の結了等,,,2015-10-05,1,,,,,チュウニチショセキ,0
1828,9220001025908,登記記録の閉鎖等,0,2025-04-02,2025-03-26,株式会社Ｎ．Ｃ＆Ｂ,,株式会社,石川県,小松市,今江町８丁目４６６番地,,17,203,9230964,,,2025-03-26,清算の結了等,,,2024-04-10,1,,,,,エヌドットシーアンドビー,0
1829,9220002005941,登記記録の閉鎖等,0,2025-04-02,2025-03-26,有限会社森代理店,,有限会社,石川県,金沢市,弥生１丁目１７番２８号,,17,201,9218036,,,2025-03-26,清算の結了等,,,2015-10-05,1,,,,,モリダイリテン,0
1852,9310005003842,登記記録の閉鎖等,0,2025-04-02,2025-03-28,中五島建設業協同組合,,その他の設立登記法人,長崎県,南松浦郡新上五島町,奈良尾郷８５９番地６,,42,411,8533101,,,2025-03-28,清算の結了等,,,2015-10-05,1,,,,,ナカゴトウケンセツギョウ,0
1863,9360003009309,登記記録の閉鎖等,0,2025-04-02,2025-03-31,合同会社しゅう,,合同会社,沖縄県,国頭郡今帰仁村,字仲宗根２７９番地４,,47,306,9050401,,,2025-03-31,清算の結了等,,,2019-01-22,1,,,,,シュウ,0
1877,9470001013458,登記記録の閉鎖等,0,2025-04-02,2025-03-27,株式会社ニシヤマ,,株式会社,香川県,仲多度郡多度津町,大字庄７７５番地６,,37,404,7640031,,,2025-03-27,清算の結了等,,,2015-10-05,1,,,,,ニシヤマ,0
