sequenceNumber,corporateNumber,process,correct,updateDate,changeDate,name,nameImageId,kind,prefectureName,cityName,streetNumber,addressImageId,prefectureCode,cityCode,postCode,addressOutside,addressOutsideImageId,closeDate,closeCause,successorCorporateNumber,changeCause,assignmentDate,latest,enName,enPrefectureName,enCityName,enAddressOutside,furigana,hihyoji
14,1010005029396,登記記録の閉鎖等,0,2022-07-25,2022-07-13,一般社団法人平塚開発,,その他の設立登記法人,東京都,千代田区,平河町１丁目６番１５号シルスフィア会計事務所内,,13,101,1020093,,,2022-07-13,清算の結了等,,,2018-11-22,1,,,,,ヒラツカカイハツ,0
36,1010801019773,登記記録の閉鎖等,0,2022-07-25,2022-07-20,アクレスコ株式会社,,株式会社,東京都,大田区,平和島４丁目１番２３号,,13,111,1430006,,,2022-07-20,合併による解散等,5010001066010,令和４年７月１日東京都千代田区神田駿河台四丁目２番５号エクシオ・システムマネジメント株式会社（5010001066010）に合併し解散,2015-10-05,1,,,,,アクレスコ,0
52,1011101009201,登記記録の閉鎖等,0,2022-07-25,2022-07-19,清水屋食品株式会社,,株式会社,東京都,新宿区,西新宿３丁目９番２２号,,13,104,1600023,,,2022-07-19,清算の結了等,,,2015-10-05,1,,,,,シミズヤショクヒン,0
59,1011502016201,登記記録の閉鎖等,0,2022-07-25,2022-07-21,ジェイ・スクウェア有限会社,,有限会社,東京都,北区,神谷１丁目２１番１３号,,13,117,1150043,,,2022-07-21,清算の結了等,,,2015-10-05,1,,,,,ジェイスクウェア,0
65,1011801039217,登記記録の閉鎖等,0,2022-07-25,2022-07-14,株式会社Ｎｅｗ　Ｂｒｉｏ,,株式会社,東京都,葛飾区,金町５丁目２４番２１－８０２号アクトヒルズ金町,,13,122,1250042,,,2022-07-14,清算の結了等,,,2021-05-27,1,,,,,ニューブリオ,0
81,1020005006493,登記記録の閉鎖等,0,2022-07-25,2022-07-06,神奈川県マンション管理士事業協同組合,,その他の設立登記法人,神奈川県,横浜市神奈川区,鶴屋町３丁目３２番１４号,,14,102,2210835,,,2022-07-06,清算の結了等,,,2015-10-05,1,,,,,カナガワケンマンションカンリシ,0
85,1021002054733,登記記録の閉鎖等,0,2022-07-25,2022-07-19,有限会社剱持建築設計事務所,,有限会社,神奈川県,南足柄市,向田３６８番地,,14,217,2500104,,,2022-07-19,清算の結了等,,,2015-10-05,1,,,,,ケンモツケンチクセッケイジムショ,0
86,1021002057348,登記記録の閉鎖等,0,2022-07-25,2022-07-19,片倉商事有限会社,,有限会社,神奈川県,平塚市,諏訪町１番３０号,,14,203,2540063,,,2022-07-19,清算の結了等,,,2015-10-05,1,,,,,カタクラショウジ,0
87,1021002064600,登記記録の閉鎖等,0,2022-07-25,2022-07-14,株式会社日経地所,,株式会社,神奈川県,横須賀市,日の出町１丁目８番地２５Ｈ・Ｋビル３階,,14,201,2380006,,,2022-07-14,清算の結了等,,,2015-10-05,1,,,,,,0
90,1021005012135,登記記録の閉鎖等,0,2022-07-25,2022-07-19,横須賀フードサプライ協同組合,,その他の設立登記法人,神奈川県,横須賀市,日の出町１丁目９番地,,14,201,2380006,,,2022-07-19,清算の結了等,,,2021-03-03,1,,,,,ヨコスカフードサプライ,0
92,1030001032724,登記記録の閉鎖等,0,2022-07-25,2022-07-12,株式会社マート楽器,,株式会社,埼玉県,加須市,本町１０番２１号,,11,210,3470066,,,2022-07-12,清算の結了等,,,2015-10-05,1,,,,,マートガッキ,0
97,1030001078379,登記記録の閉鎖等,0,2022-07-25,2022-07-11,株式会社バード二十一,,株式会社,埼玉県,川口市,大字芝４７６８番の１,,11,203,3330866,,,2022-07-11,清算の結了等,,,2015-10-05,1,,,,,,0
110,1030002050436,登記記録の閉鎖等,0,2022-07-25,2022-07-08,有限会社丸大,,有限会社,埼玉県,三郷市,彦成３丁目２４番地２,,11,237,3410003,,,2022-07-08,清算の結了等,,,2015-10-05,1,,,,,マルダイ,0
124,1040001086926,登記記録の閉鎖等,0,2022-07-25,2022-06-30,株式会社トレードセブン,,株式会社,東京都,中央区,勝どき１丁目１３番１号イヌイビル・カチドキ４階,,13,102,1040054,,,2022-06-30,合併による解散等,9010401134750,令和４年６月３０日東京都中央区勝どき一丁目１３番１号イヌイビル・カチドキ４階アジアインベストメントファンド株式会社（9010401134750）に合併し解散,2015-10-05,1,,,,,トレードセブン,0
127,1040001113259,登記記録の閉鎖等,0,2022-07-25,2022-07-13,株式会社昇華,,株式会社,千葉県,船橋市,本町６丁目９番６号ラプラビ２０２号室,,12,204,2730005,,,2022-07-13,清算の結了等,,,2020-04-08,1,,,,,ショウカ,0
134,1050002012368,登記記録の閉鎖等,0,2022-07-25,2022-07-13,守谷宅建有限会社,,有限会社,茨城県,土浦市,桜町４丁目１０番１６号,,08,203,3000037,,,2022-07-13,清算の結了等,,,2015-10-05,1,,,,,モリヤタクケン,0
142,1090001011722,登記記録の閉鎖等,0,2022-07-25,2022-07-13,株式会社リガク山梨,,株式会社,山梨県,北杜市,須玉町若神子字大小久保４４９５番地８,,19,209,4080112,,,2022-07-13,合併による解散等,5012801002680,令和４年７月１日東京都昭島市松原町三丁目９番１２号株式会社リガク（5012801002680）に合併し解散,2015-10-05,1,,,,,リガクヤマナシ,0
156,1120001010266,登記記録の閉鎖等,0,2022-07-25,2022-07-19,大市建設株式会社,,株式会社,大阪府,大阪市東住吉区,田辺５丁目１５番１７号,,27,121,5460031,,,2022-07-19,清算の結了等,,,2015-10-05,1,,,,,ダイイチケンセツ,0
163,1120001146399,登記記録の閉鎖等,0,2022-07-25,2022-07-21,リバティ株式会社,,株式会社,大阪府,大阪市阿倍野区,晴明通１１番５２号,,27,119,5450032,,,2022-07-21,清算の結了等,,,2015-10-05,1,,,,,リバティ,0
180,1120002073320,登記記録の閉鎖等,0,2022-07-25,2022-07-13,有限会社リビエール,,有限会社,大阪府,寝屋川市,出雲町１０番２号,,27,215,5720821,,,2022-07-13,清算の結了等,,,2015-10-05,1,,,,,リビエール,0
203,1130002027151,登記記録の閉鎖等,0,2022-07-25,2022-07-08,有限会社京定,,有限会社,京都府,久世郡久御山町,市田北浦６５番地,,26,322,6130022,,,2022-07-08,清算の結了等,,,2015-10-05,1,,,,,キョウテイ,0
218,1160001022720,登記記録の閉鎖等,0,2022-07-25,2022-07-01,ラポール滋賀株式会社,,株式会社,滋賀県,東近江市,五個荘石塚町２番地３,,25,213,5291444,,,2022-07-01,合併による解散等,7160001010595,令和４年７月１日滋賀県東近江市五個荘石塚町２番地３湖東不動産株式会社（7160001010595）に合併し解散,2020-09-02,1,,,,,ラポールシガ,0
222,1180001095863,登記記録の閉鎖等,0,2022-07-25,2022-07-19,株式会社カツザキ技研,,株式会社,愛知県,知多市,南粕谷新海３丁目１６番地の１,,23,224,4780026,,,2022-07-19,清算の結了等,,,2015-10-05,1,,,,,カツザキギケン,0
229,1190002021339,登記記録の閉鎖等,0,2022-07-25,2022-07-11,有限会社中村建設機械,,有限会社,三重県,四日市市,午起１丁目４番２６号,,24,202,5100023,,,2022-07-11,清算の結了等,,,2015-10-05,1,,,,,ナカムラケンセツキカイ,0
263,1380002009959,登記記録の閉鎖等,0,2022-07-25,2022-07-14,有限会社システムロード,,有限会社,福島県,郡山市,鳴神２丁目３１番４号,,07,203,9630207,,,2022-07-14,清算の結了等,,,2015-10-05,1,,,,,システムロード,0
291,2010001094419,登記記録の閉鎖等,0,2022-07-25,2022-07-06,株式会社エイケイ,,株式会社,東京都,中央区,日本橋茅場町１丁目９番２号,,13,102,1030025,,,2022-07-06,清算の結了等,,,2015-10-05,1,,,,,エイケイ,0
293,2010001134224,登記記録の閉鎖等,0,2022-07-25,2022-07-06,東亜炭酸株式会社,,株式会社,東京都,千代田区,大手町１丁目１番２号,,13,101,1000004,,,2022-07-06,清算の結了等,,,2015-10-05,1,,,,,トウアタンサン,0
311,2010102001240,登記記録の閉鎖等,0,2022-07-25,2022-07-20,有限会社エヌビーアール,,有限会社,東京都,八王子市,犬目町１３２０番地の６,,13,201,1930802,,,2022-07-20,清算の結了等,,,2015-10-05,1,,,,,エヌビーアール,0
332,2010801016687,登記記録の閉鎖等,0,2022-07-25,2022-07-13,株式会社柴産業,,株式会社,東京都,大田区,新蒲田３丁目４番４号,,13,111,1440054,,,2022-07-13,清算の結了等,,,2015-10-05,1,,,,,シバサンギョウ,0
360,2011602002174,登記記録の閉鎖等,0,2022-07-25,2022-07-20,有限会社岡田電気工事,,有限会社,東京都,練馬区,春日町２丁目５番３６号,,13,120,1790074,,,2022-07-20,清算の結了等,,,2015-10-05,1,,,,,オカダデンキコウジ,0
363,2011801030125,登記記録の閉鎖等,0,2022-07-25,2022-07-20,株式会社ＭＳテクノ,,株式会社,東京都,葛飾区,亀有４丁目１９番７号,,13,122,1250061,,,2022-07-20,清算の結了等,,,2015-10-05,1,,,,,エムエステクノ,0
373,2013302008682,登記記録の閉鎖等,0,2022-07-25,2022-07-20,有限会社不動産あさひ,,有限会社,東京都,豊島区,池袋３丁目６０番１５号,,13,116,1710014,,,2022-07-20,清算の結了等,,,2015-10-05,1,,,,,フドウサンアサヒ,0
397,2030001044487,登記記録の閉鎖等,0,2022-07-25,2022-07-11,ＶＤＡＲＡ株式会社,,株式会社,埼玉県,所沢市,大字山口９８８番地の６,,11,208,3591145,,,2022-07-11,清算の結了等,,,2015-10-05,1,,,,,,0
410,2040002004530,登記記録の閉鎖等,0,2022-07-25,2022-07-14,有限会社サイクルプラザタカハマ,,有限会社,千葉県,千葉市美浜区,高浜１丁目１０番１号,,12,106,2610003,,,2022-07-14,清算の結了等,,,2015-10-05,1,,,,,サイクルプラザタカハマ,0
425,2070002014031,登記記録の閉鎖等,0,2022-07-25,2022-07-08,有限会社柳原建築,,有限会社,群馬県,高崎市,金古町１２０２番地,,10,202,3703511,,,2022-07-08,清算の結了等,,,2015-10-05,1,,,,,ヤナギハラケンチク,0
435,2110003002055,登記記録の閉鎖等,0,2022-07-25,2022-07-19,合資会社さくら設計,,合資会社,新潟県,長岡市,袋町１丁目１０８１番地３２,,15,202,9400055,,,2022-07-19,清算の結了等,,,2015-10-05,1,,,,,サクラセッケイ,0
473,2130005014658,登記記録の閉鎖等,0,2022-07-25,2022-07-15,一般社団法人ディープブルー,,その他の設立登記法人,京都府,京都市東山区,三条大橋東六丁目今小路町８６番地１京洛舎東山三条１階,,26,105,6050000,,,2022-07-15,清算の結了等,,,2016-07-11,1,,,,,ディープブルー,0
504,2180003020884,登記記録の閉鎖等,0,2022-07-25,2022-07-20,合同会社フリートＥＶイニシアティブ,,合同会社,愛知県,名古屋市東区,東新町１番地,,23,102,4610006,,,2022-07-20,清算の結了等,,,2020-02-26,1,,,,,フリートイーブイイニシアティブ,0
511,2210001002708,登記記録の閉鎖等,0,2022-07-25,2022-07-13,株式会社ハタナカ,,株式会社,福井県,福井市,長本町１２３番地,,18,201,9100844,,,2022-07-13,清算の結了等,,,2015-10-05,1,,,,,ハタナカ,0
521,2260002007908,登記記録の閉鎖等,0,2022-07-25,2022-07-22,有限会社花幸,,有限会社,岡山県,岡山市北区,表町１丁目８番４号,,33,101,7000822,,,2022-07-22,清算の結了等,,,2015-10-05,1,,,,,ハナコウ,0
536,2330001026587,登記記録の閉鎖等,0,2022-07-25,2022-07-08,株式会社ひごコアラ,,株式会社,熊本県,玉名市,山田１０３２番地２,,43,206,8650066,,,2022-07-08,清算の結了等,,,2019-07-23,1,,,,,ヒゴコアラ,0
567,2440001006264,登記記録の閉鎖等,0,2022-07-25,2022-07-13,株式会社パレス企画,,株式会社,北海道,茅部郡森町,字砂原西４丁目２２０番地の１２,,01,345,0492221,,,2022-07-13,清算の結了等,,,2015-10-05,1,,,,,パレスキカク,0
594,3010102001272,登記記録の閉鎖等,0,2022-07-25,2022-07-20,有限会社エフ・ビイ・アイコーポレーション,,有限会社,東京都,八王子市,八日町３番１５号,,13,201,1920071,,,2022-07-20,清算の結了等,,,2015-10-05,1,,,,,エフビイアイコーポレーション,0
604,3010601056544,登記記録の閉鎖等,0,2022-07-25,2022-07-14,恒拓通信株式会社,,株式会社,東京都,墨田区,江東橋２丁目５番９号７階,,13,107,1300022,,,2022-07-14,清算の結了等,,,2019-12-12,1,,,,,コウヒラツウシン,0
627,3011501019731,登記記録の閉鎖等,0,2022-07-25,2022-07-21,ジェイ・スクウェア株式会社,,株式会社,東京都,北区,神谷１丁目２１番１３号,,13,117,1150043,,,2022-07-21,清算の結了等,,,2015-10-05,1,,,,,,0
628,3011502000450,登記記録の閉鎖等,0,2022-07-25,2022-07-20,株式会社イグザ,,株式会社,東京都,北区,赤羽西４丁目４４番１０号,,13,117,1150055,,,2022-07-20,清算の結了等,,,2015-10-05,1,,,,,イグザ,0
630,3011602008534,登記記録の閉鎖等,0,2022-07-25,2022-07-19,有限会社ファミコンランド,,有限会社,東京都,練馬区,田柄４丁目４６番１１号,,13,120,1790073,,,2022-07-19,清算の結了等,,,2015-10-05,1,,,,,ファミコンランド,0
632,3011805000668,登記記録の閉鎖等,0,2022-07-25,2022-07-20,医療法人社団秀二会,,その他の設立登記法人,東京都,足立区,西新井１丁目１番１０号,,13,121,1230841,,,2022-07-20,清算の結了等,,,2015-10-05,1,,,,,シュウジカイ,0
677,3060002027561,登記記録の閉鎖等,0,2022-07-25,2022-07-14,有限会社ヴィゴール,,有限会社,栃木県,大田原市,本町２丁目２８２６番地２２,,09,210,3240041,,,2022-07-14,清算の結了等,,,2015-10-05,1,,,,,ヴィゴール,0
690,3090001002216,登記記録の閉鎖等,0,2022-07-25,2022-07-20,山梨県ヘルス工業株式会社,,株式会社,山梨県,甲府市,城東３丁目７番１１号,,19,201,4000861,,,2022-07-20,清算の結了等,,,2015-10-05,1,,,,,ヤマナシケンヘルスコウギョウ,0
719,3120102002739,登記記録の閉鎖等,0,2022-07-25,2022-07-20,有限会社ソアーベ,,有限会社,大阪府,堺市西区,草部１５４４番１５,,27,144,5938312,,,2022-07-20,清算の結了等,,,2015-10-05,1,,,,,ソアーベ,0
749,3180001132598,登記記録の閉鎖等,0,2022-07-25,2022-07-19,株式会社Ｌｉｎｋ　Ｈｏｍｅ,,株式会社,愛知県,あま市,森東町長１３番地７３,,23,237,4901107,,,2022-07-19,清算の結了等,,,2018-06-11,1,,,,,リンクホーム,0
757,3180003022517,登記記録の閉鎖等,0,2022-07-25,2022-07-20,合同会社ＮＡＧＡＹＡＭＡ,,合同会社,愛知県,名古屋市北区,城見通２丁目２番地シンフォニー城見３０１号,,23,103,4620046,,,2022-07-20,清算の結了等,,,2021-05-18,1,,,,,ナガヤマ,0
765,3210001003829,登記記録の閉鎖等,0,2022-07-25,2022-07-13,宮永建設株式会社,,株式会社,福井県,福井市,下天下町第１９号２９番地,,18,201,9103632,,,2022-07-13,清算の結了等,,,2015-10-05,1,,,,,ミヤナガケンセツ,0
769,3230002014014,登記記録の閉鎖等,0,2022-07-25,2022-07-19,有限会社サンエヌ工業,,有限会社,富山県,射水市,小島６１１番地の１,,16,211,9390274,,,2022-07-19,清算の結了等,,,2015-10-05,1,,,,,サンエヌコウギョウ,0
781,3290002039699,登記記録の閉鎖等,0,2022-07-25,2022-07-12,有限会社トーコー,,有限会社,福岡県,福岡市早良区,西新４丁目８番８－６０３号,,40,137,8140002,,,2022-07-12,清算の結了等,,,2015-10-05,1,,,,,トーコー,0
785,3290005003479,登記記録の閉鎖等,0,2022-07-25,2022-07-20,医療法人中山医院,,その他の設立登記法人,福岡県,福岡市東区,土井４丁目２８番１０号,,40,131,8130032,,,2022-07-20,清算の結了等,,,2015-10-05,1,,,,,ナカヤマイイン,0
814,3370002010940,登記記録の閉鎖等,0,2022-07-25,2022-07-08,有限会社こんの,,有限会社,宮城県,仙台市青葉区,立町１９番１６号,,04,101,9800822,,,2022-07-08,清算の結了等,,,2015-10-05,1,,,,,コンノ,0
867,4010005027307,登記記録の閉鎖等,0,2022-07-25,2022-07-13,一般社団法人賑やかしレジリートブリッジサード,,その他の設立登記法人,東京都,千代田区,平河町１丁目６番１５号シルスフィア会計事務所内,,13,101,1020093,,,2022-07-13,清算の結了等,,,2017-08-16,1,,,,,ニギヤカシレジリートブリッジサード,0
878,4010401115235,登記記録の閉鎖等,0,2022-07-25,2022-07-08,株式会社ボールバケーションズ,,株式会社,東京都,目黒区,鷹番２丁目５番２１号,,13,110,1520004,,,2022-07-08,清算の結了等,,,2015-10-05,1,,,,,ボールバケーションズ,0
909,4011005005442,登記記録の閉鎖等,0,2022-07-25,2022-07-14,特定非営利活動法人日本内視鏡協会,,その他の設立登記法人,東京都,渋谷区,代々木２丁目２０番１３－７０４号,,13,113,1510053,,,2022-07-14,清算の結了等,,,2015-10-05,1,,,,,ニホンナイシキョウキョウカイ,0
912,4011101019981,登記記録の閉鎖等,0,2022-07-25,2022-07-13,マグナシステム株式会社,,株式会社,東京都,豊島区,東池袋３丁目１３番２号,,13,116,1700013,,,2022-07-13,合併による解散等,6013301003086,令和４年７月１日東京都豊島区東池袋三丁目１３番２号株式会社オルグ（6013301003086）に合併し解散,2015-10-05,1,,,,,マグナシステム,0
913,4011101072907,登記記録の閉鎖等,0,2022-07-25,2022-07-19,株式会社Ｍｉｌｅｓｔｏｎｅ　ＩＬＩＳ,,株式会社,東京都,新宿区,新宿５丁目１１番３０号新宿第五葉山ビル３階,,13,104,1600022,,,2022-07-19,清算の結了等,,,2015-10-05,1,,,,,マイルストーンアイリス,0
936,4012802002342,登記記録の閉鎖等,0,2022-07-25,2022-07-07,有限会社モンテ,,有限会社,東京都,立川市,錦町１丁目３番３号,,13,202,1900022,,,2022-07-07,清算の結了等,,,2015-10-05,1,,,,,,0
944,4020001085860,登記記録の閉鎖等,0,2022-07-25,2022-07-11,オーセラスジャパン株式会社,,株式会社,神奈川県,横浜市港北区,新横浜２丁目４番地６,,14,109,2220033,,,2022-07-11,清算の結了等,,,2015-10-05,1,,,,,オーセラスジャパン,0
954,4020002086809,登記記録の閉鎖等,0,2022-07-25,2022-07-11,有限会社デンタル圭,,有限会社,神奈川県,川崎市宮前区,神木１丁目５番地２,,14,136,2160032,,,2022-07-11,清算の結了等,,,2015-10-05,1,,,,,デンタルケイ,0
961,4021005003288,登記記録の閉鎖等,0,2022-07-25,2022-07-01,社会福祉法人清菊会,,その他の設立登記法人,神奈川県,相模原市南区,上鶴間７丁目２０番５号,,14,153,2520302,,,2022-07-01,合併による解散等,6021005008161,令和４年７月１日神奈川県横須賀市西浦賀六丁目１番１号社会福祉法人ユーアイ二十一（6021005008161）に合併し解散,2015-10-05,1,,,,,セイギクカイ,0
964,4030001067726,登記記録の閉鎖等,0,2022-07-25,2022-07-11,株式会社雄輝,,株式会社,埼玉県,越谷市,大成町２丁目３０２番地１,,11,222,3430825,,,2022-07-11,清算の結了等,,,2015-10-05,1,,,,,ユウキ,0
974,4030002074944,登記記録の閉鎖等,0,2022-07-25,2022-07-12,有限会社ベン,,有限会社,埼玉県,川越市,新富町１丁目７番地９,,11,201,3500043,,,2022-07-12,清算の結了等,,,2015-10-05,1,,,,,ベン,0
1032,4140001026786,登記記録の閉鎖等,0,2022-07-25,2022-07-19,株式会社三常,,株式会社,兵庫県,神戸市兵庫区,三川口町１丁目４番８－５０３号,,28,105,6520815,,,2022-07-19,清算の結了等,,,2015-10-05,1,,,,,,0
1034,4140001106134,登記記録の閉鎖等,0,2022-07-25,2022-07-21,プラウドテック株式会社,,株式会社,兵庫県,神戸市北区,道場町平田９６７番地の１,,28,109,6511504,,,2022-07-21,清算の結了等,,,2017-05-12,1,,,,,プラウドテック,0
1041,4140002035134,登記記録の閉鎖等,0,2022-07-25,2022-07-13,有限会社篠山商業開発,,有限会社,兵庫県,丹波篠山市,杉２８８番地１,,28,221,6692204,,,2022-07-13,清算の結了等,,,2015-10-05,1,,,,,,0
1042,4140002060487,登記記録の閉鎖等,0,2022-07-25,2022-07-13,有限会社イデアミクス,,有限会社,京都府,京都市中京区,西洞院通姉小路下る姉西洞院町５４２番地サンフィールドビル２階,,26,104,6048273,,,2022-07-13,清算の結了等,,,2015-10-05,1,,,,,,0
1045,4150001002126,登記記録の閉鎖等,0,2022-07-25,2022-07-21,株式会社冨士商会,,株式会社,奈良県,奈良市,杉ヶ町４４番地,,29,201,6308357,,,2022-07-21,清算の結了等,,,2015-10-05,1,,,,,フジショウカイ,0
1059,4190002014430,登記記録の閉鎖等,0,2022-07-25,2022-07-13,有限会社前田塗装店,,有限会社,三重県,松阪市,西町２５０７番地,,24,204,5150815,,,2022-07-13,清算の結了等,,,2015-10-05,1,,,,,マエダトソウテン,0
1066,4230001000699,登記記録の閉鎖等,0,2022-07-25,2022-07-19,株式会社久次商店,,株式会社,富山県,富山市,星井町１丁目４番５号,,16,201,9300065,,,2022-07-19,清算の結了等,,,2015-10-05,1,,,,,キュウジショウテン,0
1094,4330002012287,登記記録の閉鎖等,0,2022-07-25,2022-06-28,有限会社吉田硝子店,,有限会社,熊本県,熊本市中央区,新大江２丁目１８番２３号,,43,101,8620972,,,2022-06-28,清算の結了等,,,2015-10-05,1,,,,,ヨシダガラステン,0
1107,4380002017612,登記記録の閉鎖等,0,2022-07-25,2022-07-14,有限会社太田製作所,,有限会社,福島県,西白河郡矢吹町,本城舘５５番地,,07,466,9690232,,,2022-07-14,清算の結了等,,,2015-10-05,1,,,,,,0
1114,4420001013814,登記記録の閉鎖等,0,2022-07-25,2022-07-19,株式会社東北エネルギー・経済総合研究所,,株式会社,青森県,青森市,新町２丁目８番１８号,,02,201,0300801,,,2022-07-19,清算の結了等,,,2015-10-05,1,,,,,トウホクエネルギーケイザイソウゴウケンキュウジョ,0
1125,4480002003437,登記記録の閉鎖等,0,2022-07-25,2022-07-22,有限会社トリアノン洋菓子店,,有限会社,徳島県,徳島市,福島２丁目２番１３号,,36,201,7700868,,,2022-07-22,清算の結了等,,,2015-10-05,1,,,,,,0
1135,5010001002213,登記記録の閉鎖等,0,2022-07-25,2022-07-07,金六工業株式会社,,株式会社,東京都,文京区,本郷２丁目４０番１３号本郷コーポレイション６０６,,13,105,1130033,,,2022-07-07,清算の結了等,,,2015-10-05,1,,,,,キンロクコウギョウ,0
1151,5010003035640,登記記録の閉鎖等,0,2022-07-25,2022-07-07,ＩＰ　Ｊａｐａｎ合同会社,,合同会社,東京都,千代田区,丸の内１丁目８番１号,,13,101,1000005,,,2022-07-07,清算の結了等,,,2021-08-19,1,,,,,アイピージャパン,0
1181,5011001109873,登記記録の閉鎖等,0,2022-07-25,2022-07-08,株式会社ボールラボ,,株式会社,東京都,目黒区,鷹番２丁目５番２１号,,13,110,1520004,,,2022-07-08,清算の結了等,,,2016-03-10,1,,,,,ボールラボ,0
1188,5011102019575,登記記録の閉鎖等,0,2022-07-25,2022-07-19,有限会社前川商事,,有限会社,東京都,新宿区,山吹町１５番地,,13,104,1620801,,,2022-07-19,清算の結了等,,,2015-10-05,1,,,,,,0
1196,5011401020432,登記記録の閉鎖等,0,2022-07-25,2022-07-11,株式会社アクシス,,株式会社,埼玉県,川口市,大字里１１９０－１０６０,,11,203,3340005,,,2022-07-11,清算の結了等,,,2017-07-20,1,,,,,,0
1201,5011601007584,登記記録の閉鎖等,0,2022-07-25,2022-07-11,株式会社小路永工務店,,株式会社,埼玉県,新座市,片山２丁目１１番２３号,,11,230,3520025,,,2022-07-11,清算の結了等,,,2015-10-05,1,,,,,ショウジナガコウムテン,0
1230,5021001063707,登記記録の閉鎖等,0,2022-07-25,2022-07-14,株式会社建築や,,株式会社,神奈川県,相模原市中央区,横山３丁目３１番１号,,14,152,2520242,,,2022-07-14,清算の結了等,,,2017-12-11,1,,,,,,0
1238,5030002000817,登記記録の閉鎖等,0,2022-07-25,2022-07-05,セーフティーサポート株式会社,,株式会社,東京都,港区,芝公園１丁目１－１住友不動産御成門タワー,,13,103,1050011,,,2022-07-05,合併による解散等,4010401122215,令和４年６月３０日東京都港区芝公園１－１－１住友不動産御成門タワーＳｔａｒｋ株式会社（4010401122215）に合併し解散,2015-10-05,1,,,,,セーフティーサポート,0
1241,5030003010831,登記記録の閉鎖等,0,2022-07-25,2022-07-11,合同会社エーワイ,,合同会社,埼玉県,川口市,戸塚東１丁目１３番２５号,,11,203,3330802,,,2022-07-11,清算の結了等,,,2017-09-26,1,,,,,エーワイ,0
1243,5040001001410,登記記録の閉鎖等,0,2022-07-25,2022-07-12,加曽利総業株式会社,,株式会社,千葉県,千葉市若葉区,加曽利町１６５７番地の１２,,12,104,2640017,,,2022-07-12,清算の結了等,,,2015-10-05,1,,,,,カソリソウギョウ,0
1245,5040001013835,登記記録の閉鎖等,0,2022-07-25,2022-07-12,株式会社あうん,,株式会社,千葉県,千葉市中央区,登戸５丁目１６番４号千葉登戸ガーデンハウス４０６号,,12,101,2600032,,,2022-07-12,清算の結了等,,,2015-10-05,1,,,,,アウン,0
1248,5040001110252,登記記録の閉鎖等,0,2022-07-25,2022-07-12,株式会社プレインシステム開発,,株式会社,千葉県,八街市,榎戸３８４番地１８,,12,230,2891106,,,2022-07-12,清算の結了等,,,2019-08-08,1,,,,,プレインシステムカイハツ,0
1266,5070002034893,登記記録の閉鎖等,0,2022-07-25,2022-07-07,反町農機有限会社,,有限会社,群馬県,沼田市,高橋場町２１００番地４,,10,206,3780056,,,2022-07-07,清算の結了等,,,2015-10-05,1,,,,,ソリマチノウキ,0
1277,5090002012996,登記記録の閉鎖等,0,2022-07-25,2022-07-20,有限会社四季の料理和光,,有限会社,山梨県,富士吉田市,松山３丁目４番１８号,,19,202,4030016,,,2022-07-20,清算の結了等,,,2015-10-05,1,,,,,シキノリョウリワコウ,0
1298,5120001226395,登記記録の閉鎖等,0,2022-07-25,2022-07-19,株式会社久光商会,,株式会社,大阪府,大阪市中央区,北久宝寺町１丁目４番１０号大成合同ビル６０３号室,,27,128,5410057,,,2022-07-19,清算の結了等,,,2020-01-10,1,,,,,ヒサミツショウカイ,0
1349,5180001027152,登記記録の閉鎖等,0,2022-07-25,2022-07-19,株式会社マルエス,,株式会社,愛知県,名古屋市西区,那古野２丁目１１番１８号,00072022,23,104,4510042,,,2022-07-19,清算の結了等,,,2015-10-05,1,,,,,マルエス,0
1350,5180001065251,登記記録の閉鎖等,0,2022-07-25,2022-07-21,中部テクノロジーシード株式会社,,株式会社,愛知県,名古屋市名東区,にじが丘１丁目１番地の１,,23,115,4650078,,,2022-07-21,清算の結了等,,,2015-10-05,1,,,,,チュウブテクノロジーシード,0
1358,5180002010462,登記記録の閉鎖等,0,2022-07-25,2022-07-20,有限会社友愛産業,,有限会社,愛知県,名古屋市瑞穂区,彌富通２丁目４番地の１,,23,108,4670064,,,2022-07-20,清算の結了等,,,2015-10-05,1,,,,,ユウアイサンギョウ,0
1377,5290001042520,登記記録の閉鎖等,0,2022-07-25,2022-07-12,株式会社やさい天国,,株式会社,福岡県,太宰府市,坂本１丁目６番２２号,,40,221,8180133,,,2022-07-12,清算の結了等,,,2015-10-05,1,,,,,ヤサイテンゴク,0
1388,5310002014945,登記記録の閉鎖等,0,2022-07-25,2022-07-22,有限会社石原塗装,,有限会社,長崎県,諫早市,長野町１８５４番地,,42,204,8540036,,,2022-07-22,清算の結了等,,,2015-10-05,1,,,,,イシハラトソウ,0
1426,5450005000466,登記記録の閉鎖等,0,2022-07-25,2022-07-22,上川漁業生産組合,,その他の設立登記法人,北海道,上川郡上川町,新光町１０７番地,,01,457,0781722,,,2022-07-22,清算の結了等,,,2015-10-05,1,,,,,カミカワ,0
1437,6010001045731,登記記録の閉鎖等,0,2022-07-25,2022-07-14,新和コンピュータサービス株式会社,,株式会社,東京都,中央区,八丁堀２丁目１９番８号,,13,102,1040032,,,2022-07-14,合併による解散等,4120001180783,令和４年７月１日大阪市中央区伏見町四丁目４番１０号株式会社船井総研デジタル（4120001180783）に合併し解散,2015-10-05,1,,,,,シンワコンピュータサービス,0
1440,6010001129773,登記記録の閉鎖等,0,2022-07-25,2022-07-11,琉球文化財株式会社,,株式会社,沖縄県,宜野湾市,愛知２丁目８番１３号カーサポラリス１０１,,47,205,9012206,,,2022-07-11,清算の結了等,,,2015-10-05,1,,,,,リュウキュウブンカザイ,0
1471,6010501029606,登記記録の閉鎖等,0,2022-07-25,2022-07-22,株式会社デジプレックス,,株式会社,東京都,台東区,東上野２丁目２１番１３号,,13,106,1100015,,,2022-07-22,清算の結了等,,,2015-10-05,1,,,,,デジプレックス,0
1526,6020001049467,登記記録の閉鎖等,0,2022-07-25,2022-07-11,株式会社正光,,株式会社,神奈川県,横浜市緑区,十日市場町８９３番地１フローレンスパレス十日市場ＩＩ１０６号,00009556,14,113,2260025,,,2022-07-11,清算の結了等,,,2015-10-05,1,,,,,,0
1544,6030001047825,登記記録の閉鎖等,0,2022-07-25,2022-07-11,株式会社音市,,株式会社,埼玉県,新座市,道場１丁目２番７号,,11,230,3520024,,,2022-07-11,清算の結了等,,,2015-10-05,1,,,,,,0
1553,6030002074629,登記記録の閉鎖等,0,2022-07-25,2022-07-11,有限会社鳩の湯,,有限会社,埼玉県,川越市,富士見町９番地３,,11,201,3500033,,,2022-07-11,清算の結了等,,,2015-10-05,1,,,,,ハトノユ,0
1557,6030002122684,登記記録の閉鎖等,0,2022-07-25,2022-07-11,有限会社みらい商事,,有限会社,埼玉県,秩父市,大畑町１５番２７号,,11,207,3680011,,,2022-07-11,清算の結了等,,,2015-10-05,1,,,,,,0
1561,6040001039615,登記記録の閉鎖等,0,2022-07-25,2022-07-06,マッシーコンサルティング株式会社,,株式会社,東京都,文京区,千駄木１丁目２２番２６－６０１号,,13,105,1130022,,,2022-07-06,清算の結了等,,,2015-10-05,1,,,,,マッシーコンサルティング,0
1562,6040001074777,登記記録の閉鎖等,0,2022-07-25,2022-07-12,株式会社アンコモンクリエーション,,株式会社,千葉県,鴨川市,広場７６５番３号,,12,223,2960044,,,2022-07-12,清算の結了等,,,2015-10-05,1,,,,,アンコモンクリエーション,0
1566,6040002090468,登記記録の閉鎖等,0,2022-07-25,2022-07-12,有限会社大徳,,有限会社,千葉県,柏市,柏２丁目１０番２－２９０４号,,12,217,2770005,,,2022-07-12,清算の結了等,,,2015-10-05,1,,,,,ダイトク,0
1575,6060002009235,登記記録の閉鎖等,0,2022-07-25,2022-07-15,有限会社大和クリーニング店,,有限会社,栃木県,宇都宮市,元今泉２丁目４番７号,,09,201,3210954,,,2022-07-15,清算の結了等,,,2015-10-05,1,,,,,ヤマトクリーニング,0
1581,6080005004933,登記記録の閉鎖等,0,2022-07-25,2022-07-07,正法院,,その他の設立登記法人,静岡県,牧之原市,白井３０８番地,,22,226,4210502,,,2022-07-07,合併による解散等,3080005004944,令和４年７月７日静岡県牧之原市西萩間４２６番地大興寺（3080005004944）に合併し解散,2015-10-05,1,,,,,ショウボウイン,0
1592,6100002019106,登記記録の閉鎖等,0,2022-07-25,2022-07-13,有限会社安達商店,,有限会社,長野県,松本市,浅間温泉２丁目４番１３号,,20,202,3900303,,,2022-07-13,清算の結了等,,,2015-10-05,1,,,,,アダチショウテン,0
1597,6120001060819,登記記録の閉鎖等,0,2022-07-25,2022-07-20,株式会社今竹,,株式会社,兵庫県,西宮市,羽衣町３番２８号,,28,204,6620051,,,2022-07-20,清算の結了等,,,2015-10-05,1,,,,,イマタケ,0
1598,6120001100450,登記記録の閉鎖等,0,2022-07-25,2022-07-19,ロボテック大阪株式会社,,株式会社,大阪府,枚方市,高野道２丁目２４番１７号,,27,210,5731131,,,2022-07-19,清算の結了等,,,2015-10-05,1,,,,,ロボテックオオサカ,0
1610,6120005009622,登記記録の閉鎖等,0,2022-07-25,2022-07-14,特定非営利活動法人自由空間倶楽部,,その他の設立登記法人,大阪府,大阪市東淀川区,淡路５丁目１０番７号,,27,114,5330032,,,2022-07-14,清算の結了等,,,2015-10-05,1,,,,,ジユウクウカンクラブ,0
1618,6122001017492,登記記録の閉鎖等,0,2022-07-25,2022-07-15,株式会社エイブル,,株式会社,大阪府,東大阪市,大蓮東２丁目１５番１７号,,27,227,5770824,,,2022-07-15,合併による解散等,7120101002950,令和４年７月１日大阪府堺市北区百舌鳥陵南町三丁３４５番地株式会社サニコン（7120101002950）に合併し解散,2015-10-05,1,,,,,,0
1631,6140001101397,登記記録の閉鎖等,0,2022-07-25,2022-07-14,ＰＩＨＰメディカル株式会社,,株式会社,兵庫県,神戸市東灘区,鴨子ケ原１丁目５番１６号甲南病院内,,28,101,6580064,,,2022-07-14,清算の結了等,,,2016-03-15,1,,,,,ピーアイエイチピー,0
1636,6140002009788,登記記録の閉鎖等,0,2022-07-25,2022-07-19,有限会社赫田設備工業,,有限会社,兵庫県,神戸市西区,北別府４丁目２０９６,,28,111,6512117,,,2022-07-19,清算の結了等,,,2015-10-05,1,,,,,カクタセツビコウギョウ,0
1663,6200005000119,登記記録の閉鎖等,0,2022-07-25,2022-07-25,一般財団法人安藤育英会,,その他の設立登記法人,岐阜県,岐阜市,加納丸之内８番地１５,,21,201,5008485,,,2022-07-25,清算の結了等,,,2015-10-05,1,,,,,アンドウイクエイカイ,0
1665,6210002011605,登記記録の閉鎖等,0,2022-07-25,2022-07-12,有限会社錦壽,,有限会社,福井県,越前市,氷坂町第２４号５番地２０,,18,209,9150892,,,2022-07-12,清算の結了等,,,2015-10-05,1,,,,,キンジュ,0
1673,6260001021939,登記記録の閉鎖等,0,2022-07-25,2022-07-21,株式会社光友自動車鈑金塗装,,株式会社,岡山県,和気郡和気町,衣笠７４２番地３,,33,346,7090441,,,2022-07-21,清算の結了等,,,2015-10-05,1,,,,,ミツトモジドウシャバンキントソウ,0
1676,6270002005337,登記記録の閉鎖等,0,2022-07-25,2022-07-15,有限会社稲田地所,,有限会社,鳥取県,米子市,末広町２６１番地,,31,202,6830043,,,2022-07-15,合併による解散等,4270002008738,令和４年７月１５日鳥取県米子市末広町２６１番地株式会社ビーイングス（4270002008738）に合併し解散,2015-10-05,1,,,,,イナタジショ,0
1678,6290001005625,登記記録の閉鎖等,0,2022-07-25,2022-07-12,株式会社福岡オリコミセンター,,株式会社,福岡県,福岡市早良区,祖原５番１７号,,40,137,8140005,,,2022-07-12,清算の結了等,,,2015-10-05,1,,,,,フクオカオリコミセンター,0
1692,6320005005683,登記記録の閉鎖等,0,2022-07-25,2022-07-04,天理教蒲江分教会,,その他の設立登記法人,大分県,佐伯市,蒲江大字蒲江浦２１３２番地,,44,205,8762401,,,2022-07-04,合併による解散等,9320005005573,令和４年７月４日大分県佐伯市中村北町８番８号天理教豊南分教会（9320005005573）に合併し解散,2015-10-05,1,,,,,テンリキョウカマエブンキョウカイ,0
1734,7010001134954,登記記録の閉鎖等,0,2022-07-25,2022-07-07,泰思誼株式会社,,株式会社,東京都,中央区,築地４丁目１番１２号－９０３号室,,13,102,1040045,,,2022-07-07,清算の結了等,,,2015-10-05,1,,,,,タイシギ,0
1746,7010002011566,登記記録の閉鎖等,0,2022-07-25,2022-07-06,有限会社寿司量,,有限会社,東京都,千代田区,神田神保町２丁目１０番地,,13,101,1010051,,,2022-07-06,清算の結了等,,,2015-10-05,1,,,,,スシリョウ,0
1761,7010601043654,登記記録の閉鎖等,0,2022-07-25,2022-07-20,ＭＡＩＡ株式会社,,株式会社,東京都,港区,虎ノ門５丁目１１番１３号２階,,13,103,1050001,,,2022-07-20,合併による解散等,6010601051468,令和４年７月６日東京都江東区有明一丁目４番１１－２９２２号株式会社ＧＲＡＮ　ＴＲＡＤＩＮＧ（6010601051468）に合併し解散,2015-10-05,1,,,,,マイア,0
1782,7011102000921,登記記録の閉鎖等,0,2022-07-25,2022-07-19,有限会社飯島国際知的財産研究所,,有限会社,東京都,新宿区,左門町３番地１左門イレブンビル,,13,104,1600017,,,2022-07-19,清算の結了等,,,2015-10-05,1,,,,,イイジマコクサイチテキザイサンケンキュウショ,0
1805,7020001094116,登記記録の閉鎖等,0,2022-07-25,2022-07-12,株式会社太陽快気堂,,株式会社,千葉県,柏市,若柴１番地６７,,12,217,2770871,,,2022-07-12,清算の結了等,,,2015-10-05,1,,,,,タイヨウカイキドウ,0
1814,7021001001482,登記記録の閉鎖等,0,2022-07-25,2022-07-19,株式会社ドゥ・イット,,株式会社,神奈川県,藤沢市,辻堂１丁目１２番４０号,,14,205,2510047,,,2022-07-19,清算の結了等,,,2015-10-05,1,,,,,ドゥイット,0
1832,7030002020359,登記記録の閉鎖等,0,2022-07-25,2022-07-11,有限会社飛田興業,,有限会社,埼玉県,さいたま市桜区,大字塚本４０番地６,,11,106,3380816,,,2022-07-11,清算の結了等,,,2015-10-05,1,,,,,,0
1838,7040002030035,登記記録の閉鎖等,0,2022-07-25,2022-07-12,有限会社フォルス,,有限会社,千葉県,八千代市,真木野１７４番地３７大学町３－１３－３,,12,221,2760002,,,2022-07-12,清算の結了等,,,2015-10-05,1,,,,,フォルス,0
1843,7060002014317,登記記録の閉鎖等,0,2022-07-25,2022-07-14,有限会社ヨロズヤ,,有限会社,栃木県,那須烏山市,旭１丁目１７番８号,,09,215,3210624,,,2022-07-14,清算の結了等,,,2015-10-05,1,,,,,ヨロズヤ,0
1845,7070001036823,登記記録の閉鎖等,0,2022-07-25,2022-07-06,株式会社ＴＲＵＳＴ,,株式会社,群馬県,高崎市,新保町５４－１グラン１０１号室,,10,202,3700018,,,2022-07-06,合併による解散等,2070001012283,令和４年６月２３日群馬県高崎市緑町一丁目２番地２株式会社こもれび（2070001012283）に合併し解散,2020-05-11,1,,,,,トラスト,0
1848,7080001020933,登記記録の閉鎖等,0,2022-07-25,2022-07-14,株式会社リーフレイズ,,株式会社,静岡県,牧之原市,布引原７４０番地１,,22,226,4210407,,,2022-07-14,清算の結了等,,,2016-05-19,1,,,,,リーフレイズ,0
1879,7120003011430,登記記録の閉鎖等,0,2022-07-25,2022-07-11,ローテグ合同会社,,合同会社,大阪府,大阪市此花区,高見３丁目１－２６,,27,104,5540001,,,2022-07-11,清算の結了等,,,2016-03-02,1,,,,,ローテグ,0
1886,7120101048861,登記記録の閉鎖等,0,2022-07-25,2022-07-20,株式会社ライフオン,,株式会社,大阪府,松原市,東新町４丁目１１番２号,,27,217,5800024,,,2022-07-20,清算の結了等,,,2015-10-05,1,,,,,ライフオン,0
1904,7130003007295,登記記録の閉鎖等,0,2022-07-25,2022-07-12,サレバン学堂合同会社,,合同会社,京都府,京都市左京区,山端川岸町４８番地９第一永楽荘２階１５号室,,26,103,6068005,,,2022-07-12,清算の結了等,,,2021-06-14,1,,,,,サレバンガクドウ,0
1919,7160001018151,登記記録の閉鎖等,0,2022-07-25,2022-06-30,株式会社ＡＴエナジー,,株式会社,兵庫県,芦屋市,浜芦屋町１０番８号,,28,206,6590054,,,2022-06-30,合併による解散等,2140001070308,令和４年６月３０日兵庫県西宮市戸崎町６番５号株式会社サンハウジングサービシーズ（2140001070308）に合併し解散,2015-10-05,1,,,,,エーティーエナジー,0
1925,7180002068202,登記記録の閉鎖等,0,2022-07-25,2022-07-20,有限会社ファミリー,,有限会社,愛知県,春日井市,白山町５丁目１６番地の１４,,23,206,4870034,,,2022-07-20,清算の結了等,,,2015-10-05,1,,,,,ファミリー,0
1926,7180002076114,登記記録の閉鎖等,0,2022-07-25,2022-07-20,川合荘不動産有限会社,,有限会社,愛知県,一宮市,栄１丁目９番９号,,23,203,4910858,,,2022-07-20,清算の結了等,,,2015-10-05,1,,,,,カワイソウフドウサン,0
1932,7190001011442,登記記録の閉鎖等,0,2022-07-25,2022-07-08,株式会社Ｂａｒｎａｂａ,,株式会社,三重県,松阪市,嬉野中川町４０番地２プラザ中川２Ｆ,,24,204,5152321,,,2022-07-08,清算の結了等,,,2015-10-05,1,,,,,バルナバ,0
1946,7260005001762,登記記録の閉鎖等,0,2022-07-25,2022-07-21,医療法人一隅会片岡医院,,その他の設立登記法人,岡山県,赤磐市,上市３５５番地４,,33,213,7090817,,,2022-07-21,清算の結了等,,,2015-10-05,1,,,,,イチグウカイカタオカイイン,0
1948,7290002037501,登記記録の閉鎖等,0,2022-07-25,2022-07-12,有限会社東和技電工業,,有限会社,福岡県,糟屋郡須惠町,大字佐谷３６３番地９,,40,344,8112115,,,2022-07-12,清算の結了等,,,2015-10-05,1,,,,,トウワギデンコウギョウ,0
1990,8010001130754,登記記録の閉鎖等,0,2022-07-25,2022-07-05,株式会社ミチアソシエイツ,,株式会社,東京都,千代田区,麹町１丁目５番地７－４０１,,13,101,1020083,,,2022-07-05,清算の結了等,,,2015-10-05,1,,,,,ミチアソシエイツ,0
1998,8010002021779,登記記録の閉鎖等,0,2022-07-25,2022-07-13,有限会社大六,,有限会社,東京都,江東区,豊洲６丁目６番３号,,13,108,1350061,,,2022-07-13,清算の結了等,,,2015-10-05,1,,,,,ダイロク,0
1999,8010003031232,登記記録の閉鎖等,0,2022-07-25,2022-07-07,七里ヶ浜計画合同会社,,合同会社,東京都,千代田区,丸の内３丁目１番１号,,13,101,1000005,,,2022-07-07,清算の結了等,,,2019-12-11,1,,,,,シチリガハマケイカク,0
2001,8010005030190,登記記録の閉鎖等,0,2022-07-25,2022-07-13,一般社団法人赤羽志茂開発,,その他の設立登記法人,東京都,千代田区,平河町１丁目６番１５号シルスフィア会計事務所内,,13,101,1020093,,,2022-07-13,清算の結了等,,,2019-05-17,1,,,,,アカバネシモカイハツ,0
2006,8010101012753,登記記録の閉鎖等,0,2022-07-25,2022-07-08,株式会社総合数理工学研究所,,株式会社,東京都,八王子市,暁町１丁目３９番８号日神パレス八王子５１０号,,13,201,1920043,,,2022-07-08,清算の結了等,,,2017-03-22,1,,,,,ソウゴウスウリコウガクケンキュウショ,0
2011,8010401160789,登記記録の閉鎖等,0,2022-07-25,2022-07-04,株式会社ＵＰＴホールディングス,,株式会社,東京都,港区,虎ノ門４丁目１番２８号虎ノ門タワーズオフィス１７階,,13,103,1050001,,,2022-07-04,清算の結了等,,,2021-06-10,1,,,,,ユーピーティーホールディングス,0
2033,8011001116479,登記記録の閉鎖等,0,2022-07-25,2022-07-14,株式会社ｓｔｕｄｉｏＣ,,株式会社,東京都,目黒区,祐天寺２丁目１７－１２－３０１,,13,110,1530052,,,2022-07-14,清算の結了等,,,2017-05-29,1,,,,,,0
2053,8013301002425,登記記録の閉鎖等,0,2022-07-25,2022-07-20,小幡解体興業株式会社,,株式会社,東京都,豊島区,長崎２丁目１５番８号,,13,116,1710051,,,2022-07-20,清算の結了等,,,2015-10-05,1,,,,,オバタカイタイコウギョウ,0
2056,8020001008859,登記記録の閉鎖等,0,2022-07-25,2022-07-21,鹿児島シラス研究開発株式会社,,株式会社,鹿児島県,曽於市,財部町北俣５５９２番地１,,46,217,8994102,,,2022-07-21,清算の結了等,,,2015-10-05,1,,,,,カゴシマシラスケンキュウカイハツ,0
2066,8021002065179,登記記録の閉鎖等,0,2022-07-25,2022-07-19,有限会社関農機具商会,,有限会社,神奈川県,横須賀市,林３丁目１番１２号,,14,201,2380315,,,2022-07-19,清算の結了等,,,2015-10-05,1,,,,,セキノウキグショウカイ,0
2091,8040001091102,登記記録の閉鎖等,0,2022-07-25,2022-07-12,株式会社ＡＨＰ,,株式会社,千葉県,大網白里市,駒込１３８７番地３,,12,239,2993235,,,2022-07-12,清算の結了等,,,2015-10-05,1,,,,,エーエイチピー,0
2103,8060001017113,登記記録の閉鎖等,0,2022-07-25,2022-07-13,株式会社広瀬製作所,,株式会社,栃木県,栃木市,大平町蔵井９５番地,,09,203,3294403,,,2022-07-13,清算の結了等,,,2015-10-05,1,,,,,ヒロセセイサクショ,0
2108,8060002018754,登記記録の閉鎖等,0,2022-07-25,2022-07-14,有限会社奥島工業,,有限会社,栃木県,芳賀郡市貝町,大字杉山８６４番地２,,09,344,3213415,,,2022-07-14,清算の結了等,,,2015-10-05,1,,,,,オクシマコウギョウ,0
2120,8120001041692,登記記録の閉鎖等,0,2022-07-25,2022-07-13,株式会社三協テクノ,,株式会社,大阪府,大阪市中央区,内本町２丁目２番１０号,,27,128,5400026,,,2022-07-13,合併による解散等,9120001042649,令和４年７月１日大阪市中央区内本町二丁目２番１０号協栄電設工業株式会社（9120001042649）に合併し解散,2015-10-05,1,,,,,サンキョウテクノ,0
2141,8120001243792,登記記録の閉鎖等,0,2022-07-25,2022-07-15,株式会社ＫＡＮＴＥＣ２,,株式会社,大阪府,大阪市北区,東天満１丁目１１番２号,,27,127,5300044,,,2022-07-15,清算の結了等,,,2022-02-16,1,,,,,カンテックツー,0
2168,8130002021890,登記記録の閉鎖等,0,2022-07-25,2022-07-11,有限会社リトルジャップ,,有限会社,京都府,京都市中京区,河原町通三条上る恵比須町５３４番地１５ＪＡＰ－ＢＬＤＧ１Ｆ,,26,104,6048005,,,2022-07-11,清算の結了等,,,2015-10-05,1,,,,,リトルジャップ,0
2172,8140001070426,登記記録の閉鎖等,0,2022-07-25,2022-07-20,丸栄商事株式会社,,株式会社,兵庫県,西宮市,池田町４番２１号,,28,204,6620911,,,2022-07-20,清算の結了等,,,2015-10-05,1,,,,,マルエイショウジ,0
2173,8140001073379,登記記録の閉鎖等,0,2022-07-25,2022-07-19,株式会社Ｇｏｏｄ　Ｈｅａｒｔ,,株式会社,兵庫県,西宮市,戸田町２番７号メゾンリバーサイド１Ｆ,,28,204,6620916,,,2022-07-19,清算の結了等,,,2015-10-05,1,,,,,グッドハート,0
2195,8220002004408,登記記録の閉鎖等,0,2022-07-25,2022-07-15,有限会社ニシノ,,有限会社,石川県,金沢市,西金沢４丁目５００番地２,,17,201,9218054,,,2022-07-15,清算の結了等,,,2015-10-05,1,,,,,ニシノ,0
2200,8230002014612,登記記録の閉鎖等,0,2022-07-25,2022-07-04,石井賢生建築設計工房有限会社,,有限会社,富山県,富山市,有沢７０３番地２,,16,201,9300862,,,2022-07-04,清算の結了等,,,2015-10-05,1,,,,,イシイヨシオケンチクセッケイコウボウ,0
2201,8240001045863,登記記録の閉鎖等,0,2022-07-25,2022-07-22,ハートハピネス株式会社,,株式会社,島根県,松江市,西津田４丁目３番１８号,,32,201,6900017,,,2022-07-22,清算の結了等,,,2015-10-05,1,,,,,ハートハピネス,0
2208,8270002010161,登記記録の閉鎖等,0,2022-07-25,2022-07-15,有限会社マルショウ化粧品店,,有限会社,鳥取県,倉吉市,明治町１０３１番地,,31,203,6820887,,,2022-07-15,清算の結了等,,,2015-10-05,1,,,,,マルショウケショウヒンテン,0
2211,8290002000301,登記記録の閉鎖等,0,2022-07-25,2022-07-11,有限会社片桐商店,,有限会社,福岡県,福岡市西区,周船寺３丁目１７番２２－２０４号,,40,135,8190373,,,2022-07-11,清算の結了等,,,2015-10-05,1,,,,,カタギリショウテン,0
2219,8340001011657,登記記録の閉鎖等,0,2022-07-25,2022-07-22,株式会社相互開発,,株式会社,鹿児島県,鹿児島市,川上町２８０４番地１,,46,201,8920875,,,2022-07-22,清算の結了等,,,2015-10-05,1,,,,,ソウゴカイハツ,0
2223,8340005008690,登記記録の閉鎖等,0,2022-07-25,2022-07-20,特定非営利活動法人子育て支援の家陽だまり,,その他の設立登記法人,鹿児島県,奄美市,名瀬長浜町２８番２０号,,46,222,8940036,,,2022-07-20,清算の結了等,,,2017-02-27,1,,,,,コソダテシエンノイエヒダマリ,0
2233,8420001008133,登記記録の閉鎖等,0,2022-07-25,2022-07-20,株式会社松屋,,株式会社,青森県,五所川原市,字大町１９番地,,02,205,0370063,,,2022-07-20,清算の結了等,,,2015-10-05,1,,,,,マツヤ,0
2239,8430001011078,登記記録の閉鎖等,0,2022-07-25,2022-07-07,株式会社ドウオー,,株式会社,北海道,札幌市中央区,北一条東１２丁目２２番地３９,,01,101,0600031,,,2022-07-07,清算の結了等,,,2015-10-05,1,,,,,ドウオー,0
2245,8430002054010,登記記録の閉鎖等,0,2022-07-25,2022-07-11,有限会社大富工業,,有限会社,北海道,小樽市,幸３丁目８番９号,,01,203,0470037,,,2022-07-11,清算の結了等,,,2015-10-05,1,,,,,オオトミコウギョウ,0
2270,9010002052716,登記記録の閉鎖等,0,2022-07-25,2022-07-07,有限会社ナカザワ,,有限会社,東京都,新島村,字川原２０６番地１,,13,363,1000400,,,2022-07-07,清算の結了等,,,2015-10-05,1,,,,,ナカザワ,0
2274,9010005027005,登記記録の閉鎖等,0,2022-07-25,2022-07-13,特定非営利活動法人キッズふぁーすと,,その他の設立登記法人,東京都,中央区,日本橋２丁目３番２１号八重洲セントラルビル７階,,13,102,1030027,,,2022-07-13,清算の結了等,,,2017-06-23,1,,,,,キッズファースト,0
2279,9010401042516,登記記録の閉鎖等,0,2022-07-25,2022-07-20,株式会社医療普及会,,株式会社,東京都,港区,虎ノ門３丁目１７番７号,,13,103,1050001,,,2022-07-20,合併による解散等,1011001029010,令和４年７月１日東京都渋谷区渋谷三丁目１２番２２号株式会社福祉医療共済会（1011001029010）に合併し解散,2015-10-05,1,,,,,イリョウフキュウカイ,0
2288,9010402009704,登記記録の閉鎖等,0,2022-07-25,2022-07-04,有限会社中村紘子音楽研究所,,有限会社,東京都,港区,三田２丁目３番３４－１３０２号,,13,103,1080073,,,2022-07-04,清算の結了等,,,2015-10-05,1,,,,,ナカムラヒロコオンガクケンキュウショ,0
2291,9010405008117,登記記録の閉鎖等,0,2022-07-25,2022-07-01,公益社団法人日本技術英語協会,,その他の設立登記法人,東京都,港区,芝公園３丁目１番２２号,,13,103,1050011,,,2022-07-01,合併による解散等,9010405010353,令和４年７月１日東京都港区芝公園三丁目１番２２号一般社団法人日本能率協会（9010405010353）に合併し解散,2015-10-05,1,,,,,ニホンギジュツエイゴキョウカイ,0
2303,9011001005334,登記記録の閉鎖等,0,2022-07-25,2022-07-20,オリンパスシステムズ株式会社,,株式会社,東京都,中央区,晴海１丁目８番８号,,13,102,1040053,,,2022-07-20,合併による解散等,7010401001556,令和４年７月１日東京都港区赤坂一丁目８番１号アクセンチュア株式会社（7010401001556）に合併し解散,2015-10-05,1,,,,,オリンパスシステムズ,0
2313,9011201013327,登記記録の閉鎖等,0,2022-07-25,2022-07-07,株式会社華プロ,,株式会社,東京都,中野区,東中野５丁目２５番６－４０４号,,13,114,1640003,,,2022-07-07,清算の結了等,,,2015-10-05,1,,,,,ハナプロ,0
2318,9011302012450,登記記録の閉鎖等,0,2022-07-25,2022-07-11,有限会社ＹＣＯ,,有限会社,埼玉県,富士見市,東みずほ台２丁目１５番地２０,,11,235,3540015,,,2022-07-11,清算の結了等,,,2015-10-05,1,,,,,,0
2333,9013201012234,登記記録の閉鎖等,0,2022-07-25,2022-07-01,株式会社ＤｏＣＬＡＳＳＥ　ｔｈｅ　Ｓｔｏｒｅ,,株式会社,東京都,目黒区,八雲３丁目２３番２０号,,13,110,1520023,,,2022-07-01,合併による解散等,4013201013880,令和４年７月１日東京都目黒区八雲三丁目２３番２０号株式会社ＤｏＣＬＡＳＳＥ（4013201013880）に合併し解散,2015-10-05,1,,,,,ドゥクラッセザストア,0
2361,9030002040974,登記記録の閉鎖等,0,2022-07-25,2022-07-08,有限会社大塚工務店,00016545,有限会社,埼玉県,加須市,南篠崎２３６１番地,,11,210,3470017,,,2022-07-08,清算の結了等,,,2015-10-05,1,,,,,オオツカコウムテン,0
2393,9070001008473,登記記録の閉鎖等,0,2022-07-25,2022-07-08,株式会社ミキ精鋼,,株式会社,群馬県,高崎市,吉井町吉井１２８番地,,10,202,3702132,,,2022-07-08,清算の結了等,,,2015-10-05,1,,,,,ミキセイコウ,0
2427,9130001033630,登記記録の閉鎖等,0,2022-07-25,2022-07-14,株式会社ベンディングアイ,,株式会社,京都府,京都市左京区,鹿ケ谷法然院西町５９番地４,,26,103,6068427,,,2022-07-14,清算の結了等,,,2015-10-05,1,,,,,ベンディングアイ,0
2433,9140001069632,登記記録の閉鎖等,0,2022-07-25,2022-07-20,株式会社長崎屋,,株式会社,兵庫県,西宮市,下大市東町１５番１０号,,28,204,6638004,,,2022-07-20,清算の結了等,,,2015-10-05,1,,,,,ナガサキヤ,0
2481,9290001041709,登記記録の閉鎖等,0,2022-07-25,2022-07-11,株式会社フォーエバーカンパニー,,株式会社,福岡県,大野城市,牛頸３丁目１２番１号,,40,219,8160971,,,2022-07-11,清算の結了等,,,2015-10-05,1,,,,,フォーエバーカンパニー,0
2489,9290002049049,登記記録の閉鎖等,0,2022-07-25,2022-07-12,有限会社坂口電機工業所,,有限会社,福岡県,久留米市,荘島町１５番地の１,,40,203,8300042,,,2022-07-12,清算の結了等,,,2015-10-05,1,,,,,サカグチデンキコウギョウショ,0
2493,9290802018954,登記記録の閉鎖等,0,2022-07-25,2022-07-20,有限会社クリーニングナカガワ,,有限会社,福岡県,北九州市若松区,南二島２丁目３番１１号,,40,103,8080109,,,2022-07-20,清算の結了等,,,2015-10-05,1,,,,,クリーニングナカガワ,0
