sequenceNumber,corporateNumber,process,correct,updateDate,changeDate,name,nameImageId,kind,prefectureName,cityName,streetNumber,addressImageId,prefectureCode,cityCode,postCode,addressOutside,addressOutsideImageId,closeDate,closeCause,successorCorporateNumber,changeCause,assignmentDate,latest,enName,enPrefectureName,enCityName,enAddressOutside,furigana,hihyoji
10,1010001255054,新規,0,2025-05-20,2025-05-20,株式会社四葉グループ,,株式会社,東京都,文京区,湯島３丁目１６番１２号モーリオン湯島６Ｆ,,13,105,1130034,,,,,,,2025-05-20,1,,,,,ヨツバグループ,0
11,1010001255120,新規,0,2025-05-20,2025-05-20,ＭＣグローバルイノベーション株式会社,,株式会社,東京都,千代田区,丸の内２丁目３番１号,,13,101,1000005,,,,,,,2025-05-20,1,,,,,エムシーグローバルイノベーション,0
12,1010001255129,新規,0,2025-05-20,2025-05-20,セカンドクリエイトコンサルティング株式会社,,株式会社,東京都,中央区,八重洲２丁目１－１ＹＡＮＭＡＲＴＯＫＹＯ１２階,,13,102,1040028,,,,,,,2025-05-20,1,,,,,,0
13,1010001255153,新規,0,2025-05-20,2025-05-20,ウェルネスエイド株式会社,,株式会社,東京都,中央区,日本橋１丁目２番２号親和ビル５階,,13,102,1030027,,,,,,,2025-05-20,1,,,,,ウェルネスエイド,0
14,1010001255194,新規,0,2025-05-20,2025-05-20,ＳＹＧ　Ｉｎｔｅｒｎａｔｉｏｎａｌ　Ｉｎｖｅｓｔｍｅｎｔ　Ｈｏｌｄｉｎｇ株式会社,,株式会社,東京都,千代田区,霞が関３丁目２番５号,,13,101,1000013,,,,,,,2025-05-20,1,,,,,エスワイジーインターナショナルインベストメントホールディング,0
18,1010003047400,新規,0,2025-05-20,2025-05-20,グリーンリカバリーインベストメントＡ号合同会社,,合同会社,東京都,千代田区,丸の内１丁目４番１号東京共同会計事務所内,,13,101,1000005,,,,,,,2025-05-20,1,,,,,グリーンリカバリーインベストメントエーゴウ,0
19,1010003047417,新規,0,2025-05-20,2025-05-20,合同会社ＲｉｎｇｓＡｉｄ,,合同会社,東京都,中央区,銀座５丁目１５番１号南海ビルディングＢ１Ｆ,,13,102,1040061,,,,,,,2025-05-20,1,,,,,リングスエイド,0
21,1010005040056,新規,0,2025-05-20,2025-05-20,一般社団法人ＮＯＴ　Ａ　ＨＯＴＥＬ　ＲＵＳＵＴＳＵ,,その他の設立登記法人,東京都,中央区,京橋２丁目１２番６号ＡＯＪ税理士法人内,,13,102,1040031,,,,,,,2025-05-20,1,,,,,ノットアホテルルスツ,0
31,1010401190339,新規,0,2025-05-20,2025-05-20,寧波遠洋シッピングジャパン株式会社,,株式会社,東京都,港区,新橋４丁目２６番４号愛場新橋タワー８階,,13,103,1050004,,,,,,,2025-05-20,1,,,,,ニンポーエンヨウシッピングジャパン,0
34,1010403035112,新規,0,2025-05-20,2025-05-20,合同会社ランタンデザイン,,合同会社,東京都,港区,北青山１丁目３－３三橋ビル３階,,13,103,1070061,,,,,,,2025-05-20,1,,,,,ランタンデザイン,0
46,1010901057310,新規,0,2025-05-20,2025-05-20,株式会社Ｋｎｏｔ　Ｍａｎａｇｅｍｅｎｔ,,株式会社,東京都,世田谷区,池尻２丁目７番６－２０５号,,13,112,1540001,,,,,,,2025-05-20,1,,,,,ノットマネジメント,0
47,1010905004779,新規,0,2025-05-20,2025-05-20,一般社団法人全国避難誘導推進機構,,その他の設立登記法人,東京都,世田谷区,給田４丁目９番４－３０３号,,13,112,1570064,,,,,,,2025-05-20,1,,,,,ゼンコクヒナンユウドウスイシンキコウ,0
51,1011001169450,新規,0,2025-05-20,2025-05-20,株式会社マチュラス,,株式会社,東京都,渋谷区,円山町５番５号Ｎａｖｉ渋谷Ｖ３階,,13,113,1500044,,,,,,,2025-05-20,1,,,,,マチュラス,0
52,1011001169491,新規,0,2025-05-20,2025-05-20,株式会社ＪＰＲ,,株式会社,東京都,目黒区,中目黒２丁目１０番１６号,,13,110,1530061,,,,,,,2025-05-20,1,,,,,ジェーピーアール,0
53,1011001169500,新規,0,2025-05-20,2025-05-20,株式会社鈴木ビル,,株式会社,東京都,渋谷区,恵比寿西１丁目９番１号,,13,113,1500021,,,,,,,2025-05-20,1,,,,,スズキビル,0
54,1011001169517,新規,0,2025-05-20,2025-05-20,Ｐｏｔｅｎｔｉａ　Ｃａｐｉｔａｌ　Ｊａｐａｎ株式会社,,株式会社,東京都,渋谷区,道玄坂１丁目１０番８号渋谷道玄坂東急ビル２Ｆ－Ｃ,,13,113,1500043,,,,,,,2025-05-20,1,,,,,ポテンシアキャピタルジャパン,0
61,1011101111774,新規,0,2025-05-20,2025-05-20,株式会社ＣＩＴＲＯＮ　ＦＵＴＵＲＥＳ,,株式会社,東京都,新宿区,高田馬場３丁目１２番５号セブンビル３Ｓ,,13,104,1690075,,,,,,,2025-05-20,1,,,,,シトロンフューチャーズ,0
63,1011103015890,新規,0,2025-05-20,2025-05-20,スマイル合同会社,,合同会社,東京都,新宿区,歌舞伎町２丁目３２番７号富士会館３１１,,13,104,1600021,,,,,,,2025-05-20,1,,,,,スマイル,0
64,1011103015940,新規,0,2025-05-20,2025-05-20,合同会社Ｄｏｅｒｓ,,合同会社,東京都,新宿区,西新宿３丁目３番１３号西新宿水間ビル６階,,13,104,1600023,,,,,,,2025-05-20,1,,,,,ドゥアーズ,0
67,1011203004694,新規,0,2025-05-20,2025-05-20,黒白オセロ合同会社,,合同会社,東京都,中野区,中央４丁目６番１２号新中野マンション１階１０２室,,13,114,1640011,,,,,,,2025-05-20,1,,,,,クロシロオセロ,0
69,1011301030592,新規,0,2025-05-20,2025-05-20,株式会社ＲＯＯＭ５９,,株式会社,東京都,杉並区,久我山３丁目３２番１２号,,13,115,1680082,,,,,,,2025-05-20,1,,,,,ルームゴジュウキュウ,0
73,1011403004701,新規,0,2025-05-20,2025-05-20,合同会社アンケヴィーノ,,合同会社,東京都,板橋区,南常盤台２丁目６－１リヴュールときわ台Ｂ,,13,119,1740072,,,,,,,2025-05-20,1,,,,,アンケヴィーノ,0
96,1020001162860,新規,0,2025-05-20,2025-05-20,株式会社ＨＩＮＯＤＥ,,株式会社,神奈川県,横浜市緑区,三保町１７２９－１６,,14,113,2260015,,,,,,,2025-05-20,1,,,,,ヒノデ,0
97,1020001162943,新規,0,2025-05-20,2025-05-20,株式会社世奈,,株式会社,神奈川県,横浜市旭区,二俣川１丁目４５－４９第１１三京ビル１－Ｂ,,14,112,2410821,,,,,,,2025-05-20,1,,,,,セナ,0
98,1020001162951,新規,0,2025-05-20,2025-05-20,株式会社Ｆａｍｉｌｉｅｎ,,株式会社,神奈川県,横浜市神奈川区,片倉５丁目７番３３－１０１号,,14,102,2210865,,,,,,,2025-05-20,1,,,,,ファミリアン,0
102,1020003028449,新規,0,2025-05-20,2025-05-20,合同会社マリベイ,,合同会社,神奈川県,横浜市神奈川区,神之木町１－１－５０５,,14,102,2210015,,,,,,,2025-05-20,1,,,,,マリベイ,0
103,1020003028531,新規,0,2025-05-20,2025-05-20,Ｓｔｉｍｕ＆Ｃｏｏｐ合同会社,,合同会社,神奈川県,川崎市中原区,中丸子１３５‐２,,14,133,2110012,,,,,,,2025-05-20,1,,,,,スティムアンドコープ,0
106,1021001085234,新規,0,2025-05-20,2025-05-20,株式会社京晟,,株式会社,神奈川県,相模原市緑区,西橋本４丁目９番８８号,,14,151,2520131,,,,,,,2025-05-20,1,,,,,ケイセイ,0
107,1021001085275,新規,0,2025-05-20,2025-05-20,コンパスアジャスティングコーポレーション株式会社,,株式会社,神奈川県,横須賀市,根岸町２丁目４番１５号,,14,201,2390807,,,,,,,2025-05-20,1,,,,,コンパスアジャスティングコーポレーション,0
108,1021003016022,新規,0,2025-05-20,2025-05-20,合同会社ネクストライフ,,合同会社,神奈川県,秦野市,戸川５７－１５,,14,211,2591306,,,,,,,2025-05-20,1,,,,,ネクストライフ,0
117,1030001166480,新規,0,2025-05-20,2025-05-20,株式会社ＯＬＤ　Ｃｏｍｍｕｎｉｃａｔｉｏｎ,,株式会社,埼玉県,草加市,氷川町２１４６番地５ライオンズステーションプラザ草加２０２号,,11,221,3400034,,,,,,,2025-05-20,1,,,,,オールドコミニケーション,0
118,1030001166588,新規,0,2025-05-20,2025-05-20,株式会社若松産業,,株式会社,埼玉県,草加市,北谷１丁目１４番２８号,,11,221,3400046,,,,,,,2025-05-20,1,,,,,ワカマツサンギョウ,0
119,1030001166605,新規,0,2025-05-20,2025-05-20,株式会社マニ,,株式会社,埼玉県,戸田市,下前２丁目２－１４－１Ｆ,,11,224,3350016,,,,,,,2025-05-20,1,,,,,マニ,0
120,1030001166621,新規,0,2025-05-20,2025-05-20,藍の里株式会社,,株式会社,埼玉県,本庄市,寿３丁目２－１,,11,211,3670023,,,,,,,2025-05-20,1,,,,,アイノサト,0
123,1030003026798,新規,0,2025-05-20,2025-05-20,合同会社ネスティア,,合同会社,埼玉県,さいたま市北区,土呂町２丁目１０２番地５ヴューリバー２０２,,11,102,3310804,,,,,,,2025-05-20,1,,,,,ネスティア,0
129,1040001138784,新規,0,2025-05-20,2025-05-20,宝株式会社,,株式会社,千葉県,市川市,南八幡３丁目２２番１５号聖樹館１０２号室,,12,203,2720023,,,,,,,2025-05-20,1,,,,,タカラ,0
130,1040001138818,新規,0,2025-05-20,2025-05-20,ＭＹＫ　１ｓｔ．コーポレーション株式会社,,株式会社,千葉県,君津市,常代３丁目６番２０号,,12,225,2991121,,,,,,,2025-05-20,1,,,,,エムワイケイファーストコーポレーション,0
131,1040001138826,新規,0,2025-05-20,2025-05-20,株式会社ＪＡＮ　ＴＲＡＤＩＮＧ,,株式会社,千葉県,野田市,桐ケ作４７５－４,,12,208,2700213,,,,,,,2025-05-20,1,,,,,ジャントレーディング,0
132,1040001138834,新規,0,2025-05-20,2025-05-20,株式会社いつなみ,,株式会社,千葉県,流山市,おおたかの森東４丁目１３番地の１,,12,220,2700138,,,,,,,2025-05-20,1,,,,,イツナミ,0
133,1040001138842,新規,0,2025-05-20,2025-05-20,株式会社ワイズ経営パートナーズ,,株式会社,千葉県,柏市,豊住１丁目３番５８号,,12,217,2770071,,,,,,,2025-05-20,1,,,,,ワイズケイエイパートナーズ,0
139,1040003027614,新規,0,2025-05-20,2025-05-20,ＤＳ　ＴＡＩＡＮＥ　ＫＹ合同会社,,合同会社,千葉県,習志野市,大久保３丁目１番６号,,12,216,2750011,,,,,,,2025-05-20,1,,,,,ディーエスタイアンケーワイ,0
141,1050001056696,新規,0,2025-05-20,2025-05-20,株式会社ｄｉｐｐｙ　ｄｉｐｐ,,株式会社,茨城県,つくば市,南中妻３５２－１,,08,220,3050065,,,,,,,2025-05-20,1,,,,,ディッピーディップ,0
155,1080401027914,新規,0,2025-05-20,2025-05-20,Ｇｒｅｅｂａ株式会社,,株式会社,静岡県,掛川市,上西郷４６７番地の１,,22,213,4360342,,,,,,,2025-05-20,1,,,,,グリーバ,0
159,1090005007709,新規,0,2025-05-20,2025-05-20,一般社団法人Ｌｏｃａｌ　Ｑｕｅｓｔ　Ｌａｂ,,その他の設立登記法人,山梨県,南都留郡富士河口湖町,浅川１０８２－３ＨＯＵＲＡＩ　Ｂｉｌｄ４Ｆ,,19,430,4010303,,,,,,,2025-05-20,1,,,,,ローカルクエストラボ,0
162,1100001038615,新規,0,2025-05-20,2025-05-20,株式会社信州アグレーション,,株式会社,長野県,諏訪市,大字上諏訪字舟渡川西１７４０番地,,20,206,3920003,,,,,,,2025-05-20,1,,,,,シンシュウアグレーション,0
168,1120001275784,新規,0,2025-05-20,2025-05-20,ラピスラズリ株式会社,,株式会社,大阪府,大阪市中央区,船場中央２丁目２番５号船場センタービル５号館地下一階Ｂ１２９ＲＯＹＡＬＯＦＦＩＣＥ内,,27,128,5410055,,,,,,,2025-05-20,1,,,,,ラピスラズリ,0
171,1120003029362,新規,0,2025-05-20,2025-05-20,ＳＣＯＬＥ合同会社,,合同会社,大阪府,大阪市北区,梅田１丁目１－３大阪駅前第３ビル２９階１－１－１号室,,27,127,5300001,,,,,,,2025-05-20,1,,,,,スコレー,0
172,1120003029429,新規,0,2025-05-20,2025-05-20,合同会社Ｓ‐ｎｉｃｏ,,合同会社,大阪府,大阪市都島区,片町１丁目９番２６－５０５号,,27,102,5340025,,,,,,,2025-05-20,1,,,,,エスニコ,0
173,1120003029478,新規,0,2025-05-20,2025-05-20,イーシーサポ合同会社,,合同会社,大阪府,大阪市中央区,南船場３丁目２番２２号おおきに南船場ビル２０５,,27,128,5420081,,,,,,,2025-05-20,1,,,,,イーシーサポ,0
179,1122001039228,新規,0,2025-05-20,2025-05-20,リュウソーワークス株式会社,,株式会社,大阪府,東大阪市,今米２丁目５番１４号,,27,227,5780903,,,,,,,2025-05-20,1,,,,,リュウソーワークス,0
195,1180001166821,新規,0,2025-05-20,2025-05-20,株式会社ＧＲＩＴ,,株式会社,愛知県,名古屋市港区,名四町１０９番地の５,,23,111,4550053,,,,,,,2025-05-20,1,,,,,グリット,0
196,1180001166879,新規,0,2025-05-20,2025-05-20,株式会社ウェーブ工業,,株式会社,愛知県,名古屋市港区,明正２丁目９１番地,,23,111,4550806,,,,,,,2025-05-20,1,,,,,ウェーブコウギョウ,0
197,1180001166887,新規,0,2025-05-20,2025-05-20,株式会社ＥＭＩＮＡＳ,,株式会社,愛知県,名古屋市昭和区,滝川町２６番地の１杁中スカイタウンＡ棟７１１号,,23,107,4660826,,,,,,,2025-05-20,1,,,,,エミナス,0
210,1200001043803,新規,0,2025-05-20,2025-05-20,株式会社ＡＲＡＴＡ　ＧＲＯＵＰ,,株式会社,岐阜県,岐阜市,若宮町４丁目２２番地若宮名店街ビル１階,,21,201,5008828,,,,,,,2025-05-20,1,,,,,アラタグループ,0
222,1240003007199,新規,0,2025-05-20,2025-05-20,合同会社ネスコ,,合同会社,広島県,広島市南区,向洋新町２丁目２８番８号,,34,103,7340055,,,,,,,2025-05-20,1,,,,,ネスコ,0
227,1260001040200,新規,0,2025-05-20,2025-05-20,株式会社美環,,株式会社,岡山県,岡山市北区,田中１３０番地１０８,,33,101,7000951,,,,,,,2025-05-20,1,,,,,ビカン,0
235,1290001109892,新規,0,2025-05-20,2025-05-20,株式会社スノーバニー,,株式会社,福岡県,福岡市中央区,天神２丁目２番１２号Ｔ＆Ｊビルディング７階,,40,133,8100001,,,,,,,2025-05-20,1,,,,,スノーバニー,0
246,1330001033213,新規,0,2025-05-20,2025-05-20,株式会社いずみ,,株式会社,熊本県,熊本市東区,月出５丁目３番３１号,,43,102,8620920,,,,,,,2025-05-20,1,,,,,イズミ,0
248,1340001027338,新規,0,2025-05-20,2025-05-20,株式会社ＥＤＵ,,株式会社,鹿児島県,鹿児島市,船津町３番１５号メゾンプチ船津３０１号,,46,201,8920831,,,,,,,2025-05-20,1,,,,,イイデイユウ,0
251,1340003004855,新規,0,2025-05-20,2025-05-20,合同会社さとむすび,,合同会社,鹿児島県,鹿児島市,下荒田２丁目３３番５号ベイシャト－４０３号,,46,201,8900056,,,,,,,2025-05-20,1,,,,,サトムスビ,0
258,1360001035215,新規,0,2025-05-20,2025-05-20,アグリグローバルリソース株式会社,,株式会社,沖縄県,那覇市,前島３丁目２５番２号泊ポートビル３階,,47,201,9000016,,,,,,,2025-05-20,1,,,,,,0
259,1360003014919,新規,0,2025-05-20,2025-05-20,合同会社ＮＡＫＡＫＡＤＯ,,合同会社,沖縄県,中頭郡読谷村,字楚辺１６１４－２,,47,324,9040304,,,,,,,2025-05-20,1,,,,,ナカカド,0
263,1380003006047,新規,0,2025-05-20,2025-05-20,Ｄｉｙａ　Ｃｏｒｐｏｒａｔｉｏｎ合同会社,,合同会社,福島県,郡山市,大槻町字西ノ宮西５１番地１０,,07,203,9630201,,,,,,,2025-05-20,1,,,,,ディヤコーポレーション,0
274,1480001012838,新規,0,2025-05-20,2025-05-20,株式会社ニューロンリンク,,株式会社,徳島県,徳島市,北佐古二番町３番３２号,,36,201,7700012,,,,,,,2025-05-20,1,,,,,ニューロンリンク,0
292,2010001255111,新規,0,2025-05-20,2025-05-20,ＡＮＤ　ＥＮＥＲＧＹ株式会社,,株式会社,東京都,千代田区,内神田２丁目１１番６号,,13,101,1010047,,,,,,,2025-05-20,1,,,,,アンドエネルギー,0
293,2010001255177,新規,0,2025-05-20,2025-05-20,株式会社ＭｉｓｓＢｅａｕｔｙ,,株式会社,東京都,中央区,銀座４丁目１４番１５号サントル銀座四丁目８０３号室,,13,102,1040061,,,,,,,2025-05-20,1,,,,,ミスビューティー,0
294,2010001255193,新規,0,2025-05-20,2025-05-20,株式会社宇宙不動産,,株式会社,東京都,文京区,向丘２丁目３番１０号,,13,105,1130023,,,,,,,2025-05-20,1,,,,,ウチュウフドウサン,0
297,2010005040055,新規,0,2025-05-20,2025-05-20,一般社団法人ＶｉｓｉｏｎＢｏａｒｄ協会,,その他の設立登記法人,東京都,千代田区,富士見１丁目３番１１号富士見デュープレックスＢ’ｓ４階,,13,101,1020071,,,,,,,2025-05-20,1,,,,,ビジョンボードキョウカイ,0
307,2010405024418,新規,0,2025-05-20,2025-05-20,一般社団法人グリーンモビリティ社会実装推進コンソーシアム,,その他の設立登記法人,東京都,港区,西新橋１丁目２番９号日比谷セントラルビル１４階,,13,103,1050003,,,,,,,2025-05-20,1,,,,,グリーンモビリティシャカイジッソウスイシンコンソーシアム,0
312,2010601067328,新規,0,2025-05-20,2025-05-20,信誠株式会社,,株式会社,東京都,墨田区,文花１丁目３４番１１－２１０号室,,13,107,1310044,,,,,,,2025-05-20,1,,,,,シンセイ,0
313,2010603011564,新規,0,2025-05-20,2025-05-20,Ｎｅｘｏｒａ合同会社,,合同会社,東京都,墨田区,緑３丁目１８－８メインステージＩＸ１００２号室,00139218,13,107,1300021,,,,,,,2025-05-20,1,,,,,ネクソラ,0
318,2010701047725,新規,0,2025-05-20,2025-05-20,株式会社ＢＵＩＫファーム,,株式会社,東京都,品川区,東品川２丁目３番１５号シーフォートタワー１６０７号,,13,109,1400002,,,,,,,2025-05-20,1,,,,,ビウイックファーム,0
320,2010703007719,新規,0,2025-05-20,2025-05-20,合同会社Ｎｏｒｔｈ　Ｒｏｕｔｅ,,合同会社,東京都,品川区,南大井１丁目２０－１６,,13,109,1400013,,,,,,,2025-05-20,1,,,,,ノースルート,0
321,2010801036124,新規,0,2025-05-20,2025-05-20,ＣｙＮＥＸＩＡ株式会社,,株式会社,東京都,大田区,西糀谷１丁目９番１６－１０３号,,13,111,1440034,,,,,,,2025-05-20,1,,,,,サイネクシア,0
322,2010801036165,新規,0,2025-05-20,2025-05-20,株式会社光電社,,株式会社,東京都,大田区,田園調布南１８番１号,,13,111,1450076,,,,,,,2025-05-20,1,,,,,コウデンシャ,0
325,2010803005390,新規,0,2025-05-20,2025-05-20,合同会社匠,,合同会社,東京都,大田区,中央３丁目１６番４号,,13,111,1430024,,,,,,,2025-05-20,1,,,,,タクミ,0
332,2011001169433,新規,0,2025-05-20,2025-05-20,株式会社ＫＣＰ,,株式会社,東京都,渋谷区,本町５丁目１２番７号,,13,113,1510071,,,,,,,2025-05-20,1,,,,,ケーシーピー,0
333,2011001169508,新規,0,2025-05-20,2025-05-20,株式会社ＨＯＮＢＵ,,株式会社,東京都,渋谷区,恵比寿西１丁目２０番５号恵比寿ＳＡビル６Ｆ,,13,113,1500021,,,,,,,2025-05-20,1,,,,,ホンブ,0
334,2011001169656,新規,0,2025-05-20,2025-05-20,Ｇｒａｄｉｅｎｔ　Ｊａｐａｎ株式会社,,株式会社,東京都,渋谷区,広尾５丁目９番９号,,13,113,1500012,,,,,,,2025-05-20,1,,,,,グレディエントジャパン,0
335,2011001169978,新規,0,2025-05-20,2025-05-20,株式会社Ｇｒｉｔ　Ｗｏｒｋｓ　Ｓｔｕｄｉｏ,,株式会社,東京都,渋谷区,神南１丁目１１‐４ＦＰＧリンクス神南５階,,13,113,1500041,,,,,,,2025-05-20,1,,,,,グリッドワークススタジオ,0
340,2011101111749,新規,0,2025-05-20,2025-05-20,トラパス株式会社,,株式会社,東京都,新宿区,北新宿２丁目２１番１号新宿フロントタワー５階,,13,104,1690074,,,,,,,2025-05-20,1,,,,,トラパス,0
341,2011103015907,新規,0,2025-05-20,2025-05-20,合同会社ＳＰＶ１１,,合同会社,東京都,新宿区,四谷２丁目９番地１５東京ユナイテッド綜合事務所内,,13,104,1600004,,,,,,,2025-05-20,1,,,,,エスピーブイジュウイチ,0
342,2011105011433,新規,0,2025-05-20,2025-05-20,一般社団法人Ｃｈａｎｉｌｌ,,その他の設立登記法人,東京都,新宿区,西新宿３丁目３番１３号西新宿水間ビル２Ｆ,,13,104,1600023,,,,,,,2025-05-20,1,,,,,チャニル,0
344,2011303005559,新規,0,2025-05-20,2025-05-20,合同会社ＯＮＥ　ＤＡＹ,,合同会社,東京都,杉並区,大宮１丁目１４－７Ｒｅｆｕｇｅ・Ｏ・ＦｏｒｅｓｔＳ２０１,,13,115,1680061,,,,,,,2025-05-20,1,,,,,ワンデイ,0
345,2011401027100,新規,0,2025-05-20,2025-05-20,株式会社ココットワークス,,株式会社,東京都,板橋区,南常盤台１丁目１１－６レフア南常盤台１０１号室,,13,119,1740072,,,,,,,2025-05-20,1,,,,,ココットワークス,0
346,2011403004700,新規,0,2025-05-20,2025-05-20,ＳａｌｌｙＪ合同会社,,合同会社,東京都,板橋区,小茂根４丁目８番９号,,13,119,1730037,,,,,,,2025-05-20,1,,,,,サリージェイ,0
355,2012403007098,新規,0,2025-05-20,2025-05-20,合同会社Ｔｉｇｈｔ　Ｌｉｎｅｓ,,合同会社,東京都,武蔵野市,八幡町４丁目２８―２４,,13,203,1800011,,,,,,,2025-05-20,1,,,,,タイトラインズ,0
356,2012405005117,新規,0,2025-05-20,2025-05-20,一般社団法人マンション大規模修繕研究会,,その他の設立登記法人,東京都,府中市,小柳町２丁目１９番地の１,,13,206,1830013,,,,,,,2025-05-20,1,,,,,ダイキボシュウゼンケンキュウカイ,0
365,2013301054249,新規,0,2025-05-20,2025-05-20,株式会社Ｌｉｎｋｓｐｉｒｅ,,株式会社,東京都,豊島区,東池袋２丁目６２番８号ＢＩＧオフィスプラザ池袋１２０６,,13,116,1700013,,,,,,,2025-05-20,1,,,,,リンクスパイア,0
368,2013303007675,新規,0,2025-05-20,2025-05-20,合同会社ＡｃｃｅｌＣＬＳ,,合同会社,東京都,豊島区,東池袋２丁目６２番８号ＢＩＧオフィスプラザ池袋１２０６,,13,116,1700013,,,,,,,2025-05-20,1,,,,,アクセルシーエルエス,0
379,2020001162918,新規,0,2025-05-20,2025-05-20,株式会社ＴＡＪＩＭＡ,,株式会社,神奈川県,横浜市都筑区,大丸３番２７号,,14,118,2240061,,,,,,,2025-05-20,1,,,,,タジマ,0
384,2020003028514,新規,0,2025-05-20,2025-05-20,合同会社シーワン,,合同会社,神奈川県,川崎市麻生区,百合丘１丁目５番地１３カーサルミナーサ１０２,,14,137,2150011,,,,,,,2025-05-20,1,,,,,シーワン,0
385,2020003028522,新規,0,2025-05-20,2025-05-20,合同会社コトノハ,,合同会社,神奈川県,横浜市瀬谷区,下瀬谷１丁目３５番地１５,,14,114,2460035,,,,,,,2025-05-20,1,,,,,コトノハ,0
394,2030001166546,新規,0,2025-05-20,2025-05-20,ＥＸ福田株式会社,,株式会社,埼玉県,朝霞市,大字上内間木７１９番地１７,,11,227,3510001,,,,,,,2025-05-20,1,,,,,イーエックスフクダ,0
395,2030001166587,新規,0,2025-05-20,2025-05-20,株式会社ＣａｒＭｉｔ,,株式会社,埼玉県,深谷市,武蔵野１７２３番地８,,11,218,3691241,,,,,,,2025-05-20,1,,,,,カーミット,0
396,2030001166604,新規,0,2025-05-20,2025-05-20,ＬＬＤ株式会社,,株式会社,埼玉県,さいたま市見沼区,大字東新井８９１番地１,,11,104,3370032,,,,,,,2025-05-20,1,,,,,エルエルディー,0
397,2030001166620,新規,0,2025-05-20,2025-05-20,ＹＧインテリア株式会社,,株式会社,埼玉県,草加市,瀬崎７丁目２５－１７－１０２,,11,221,3400022,,,,,,,2025-05-20,1,,,,,ワイジーインテリア,0
406,2040001137744,新規,0,2025-05-20,2025-05-20,株式会社木更津トレーディング,,株式会社,千葉県,木更津市,金田東６丁目４０番９号,,12,206,2920009,,,,,,,2025-05-20,1,,,,,キサラヅトレーディング,0
407,2040001138841,新規,0,2025-05-20,2025-05-20,株式会社Ｔ＆ＴＣ,,株式会社,千葉県,野田市,大殿井８３番地の１１６ガトリエＣ棟,,12,208,2780017,,,,,,,2025-05-20,1,,,,,ティーアンドティーシー,0
413,2040003027547,新規,0,2025-05-20,2025-05-20,合同会社ＳＯＲＡＭＡＲＵｐｒｏｊｅｃｔ,,合同会社,千葉県,千葉市中央区,椿森１丁目２１番２２号ＳｏｌＬａｇｏ２０２号室,,12,101,2600042,,,,,,,2025-05-20,1,,,,,ソラマルプロジェクト,0
420,2060003005559,新規,0,2025-05-20,2025-05-20,合同会社アクトミューズ,,合同会社,栃木県,小山市,大字犬塚１００２番地１２,,09,208,3230811,,,,,,,2025-05-20,1,,,,,アクトミューズ,0
429,2090005007708,新規,0,2025-05-20,2025-05-20,一般社団法人マリアトリニティ,,その他の設立登記法人,山梨県,北杜市,大泉町西井出６６２１番地１,,19,209,4091501,,,,,,,2025-05-20,1,,,,,マリアトリニティ,0
450,2120001275718,新規,0,2025-05-20,2025-05-20,株式会社まんぐーす,,株式会社,大阪府,大阪市中央区,東心斎橋１丁目４番１号オリエンタル東心斎橋ビルＢ１,,27,128,5420083,,,,,,,2025-05-20,1,,,,,マングース,0
451,2120001275791,新規,0,2025-05-20,2025-05-20,嘉禾株式会社,,株式会社,大阪府,大阪市天王寺区,空清町４－１１杉野ビル５０４号,,27,109,5430018,,,,,,,2025-05-20,1,,,,,カカ,0
452,2120001275908,新規,0,2025-05-20,2025-05-20,株式会社プライド,,株式会社,大阪府,守口市,本町１丁目１番９号守口本町ビル４階,,27,209,5700028,,,,,,,2025-05-20,1,,,,,プライド,0
453,2120003029469,新規,0,2025-05-20,2025-05-20,ＴｅｉｉＫｏ合同会社,,合同会社,大阪府,大阪市生野区,巽北１丁目２１番２９－２１２号,00139230,27,116,5440004,,,,,,,2025-05-20,1,,,,,テイイコ,0
454,2120003029477,新規,0,2025-05-20,2025-05-20,ＦＴＪ合同会社,,合同会社,大阪府,大阪市中央区,難波千日前６－５音楽ビル８０１,,27,128,5420075,,,,,,,2025-05-20,1,,,,,エフティジェイ,0
467,2180001166861,新規,0,2025-05-20,2025-05-20,株式会社ＴＫ,,株式会社,愛知県,名古屋市熱田区,花表町４番１号,,23,109,4560033,,,,,,,2025-05-20,1,,,,,ティーケイ,0
476,2180303006575,新規,0,2025-05-20,2025-05-20,合同会社ｍｉｎｔｏ,,合同会社,愛知県,田原市,福江町中紺谷瀬古２１－１,,23,231,4413617,,,,,,,2025-05-20,1,,,,,ミント,0
481,2200001043802,新規,0,2025-05-20,2025-05-20,株式会社岩丸せんべい,,株式会社,岐阜県,美濃加茂市,太田町２５４０番地５,,21,211,5050041,,,,,,,2025-05-20,1,,,,,イワマルセンベイ,0
514,2290003016847,新規,0,2025-05-20,2025-05-20,ＤｅｋｏＢｏｋｏＴｅｃｈ合同会社,,合同会社,福岡県,福岡市中央区,天神２丁目２番１２号ＴアンドＪビルディング７Ｆ,,40,133,8100001,,,,,,,2025-05-20,1,,,,,デコボコテック,0
515,2290003016863,新規,0,2025-05-20,2025-05-20,アイドリーム合同会社,,合同会社,福岡県,八女市,本村１１６番地４,,40,210,8340063,,,,,,,2025-05-20,1,,,,,アイドリーム,0
522,2290803005058,新規,0,2025-05-20,2025-05-20,合同会社ＡＲｃｕｓ,,合同会社,福岡県,北九州市小倉北区,浅野１丁目１－１ビエラ小倉１Ｆ　ＤＩＳＣＯＶＥＲＹ－１６０号,,40,106,8020001,,,,,,,2025-05-20,1,,,,,アルクス,0
524,2320001021102,新規,0,2025-05-20,2025-05-20,株式会社ＲＩＯ,,株式会社,大分県,別府市,北浜１丁目１０番９号Ｂ＆Ｇビル４階,,44,202,8740920,,,,,,,2025-05-20,1,,,,,リオ,0
525,2320003004666,新規,0,2025-05-20,2025-05-20,合同会社Ｆｕｎ　ｔｏ　ｐｌｕｓ,,合同会社,大分県,別府市,大字鶴見４２３０番地の５８アリュール荘園４０５号,,44,202,8740840,,,,,,,2025-05-20,1,,,,,ファントゥプラス,0
527,2330003011018,新規,0,2025-05-20,2025-05-20,合同会社ご縁,,合同会社,熊本県,玉名郡和水町,原口１１１番地２,,43,369,8650124,,,,,,,2025-05-20,1,,,,,ゴエン,0
530,2350003004936,新規,0,2025-05-20,2025-05-20,合同会社ｅ‐Ｎｅｘｔ,,合同会社,宮崎県,宮崎市,大島町南窪７９８番地,,45,201,8800824,,,,,,,2025-05-20,1,,,,,イーネクスト,0
532,2360001035214,新規,0,2025-05-20,2025-05-20,株式会社大新工業,,株式会社,沖縄県,うるま市,石川東恩納５７番地,,47,213,9041111,,,,,,,2025-05-20,1,,,,,タイシンコウギョウ,0
535,2360005007234,新規,0,2025-05-20,2025-05-20,一般社団法人沖縄ポーカー連盟,,その他の設立登記法人,沖縄県,那覇市,松山１丁目３２－５むらたビル４Ｆ,,47,201,9000032,,,,,,,2025-05-20,1,,,,,オキナワポーカーレンメイ,0
538,2370005010963,新規,0,2025-05-20,2025-05-20,一般社団法人プラス１,,その他の設立登記法人,宮城県,仙台市宮城野区,栄２丁目９番３号,,04,102,9830011,,,,,,,2025-05-20,1,,,,,プラスワン,0
541,2380003006046,新規,0,2025-05-20,2025-05-20,合同会社ライスタ,,合同会社,福島県,いわき市,内郷御台境町鬼越３５番地,,07,204,9738409,,,,,,,2025-05-20,1,,,,,ライスタ,0
542,2390001017993,新規,0,2025-05-20,2025-05-20,Ｓｔａｒｔｕｐ＆Ｓｕｃｃｅｓｉｏｎ株式会社,,株式会社,山形県,山形市,東原町２丁目１２番１６号,,06,201,9900034,,,,,,,2025-05-20,1,,,,,スタートアップアンドサクセション,0
549,2430001094418,新規,0,2025-05-20,2025-05-20,ＨＯＭＥ株式会社,,株式会社,北海道,札幌市白石区,北郷三条１２丁目６番１３号,,01,104,0030833,,,,,,,2025-05-20,1,,,,,ホーム,0
550,2430001094434,新規,0,2025-05-20,2025-05-20,株式会社構造企画,,株式会社,北海道,札幌市中央区,大通西１８丁目１番地２７山京大通ビル３階,,01,101,0600042,,,,,,,2025-05-20,1,,,,,コウゾウキカク,0
553,2460103001715,新規,0,2025-05-20,2025-05-20,合同会社ＭＩＹＡＢＩ,,合同会社,北海道,広尾郡大樹町,東本通１６番地,,01,641,0892134,,,,,,,2025-05-20,1,,,,,ミヤビ,0
567,3010001255085,新規,0,2025-05-20,2025-05-20,株式会社ＡＳＫ開発,,株式会社,東京都,千代田区,隼町２番１６－３０１号,,13,101,1020092,,,,,,,2025-05-20,1,,,,,エイエスケイカイハツ,0
568,3010001255110,新規,0,2025-05-20,2025-05-20,株式会社Ｓｏａｒｅｓ,,株式会社,東京都,中央区,銀座１丁目２２番１１号銀座大竹ビジデンス２Ｆ,,13,102,1040061,,,,,,,2025-05-20,1,,,,,ソアレス,0
569,3010001255119,新規,0,2025-05-20,2025-05-20,株式会社うる,,株式会社,東京都,中央区,日本橋堀留町１丁目３番１６号,,13,102,1030012,,,,,,,2025-05-20,1,,,,,ウル,0
570,3010001255168,新規,0,2025-05-20,2025-05-20,エムキャップ十五号株式会社,,株式会社,東京都,千代田区,丸の内２丁目７番２号,,13,101,1000005,,,,,,,2025-05-20,1,,,,,エムキャップジュウゴゴウ,0
571,3010001255176,新規,0,2025-05-20,2025-05-20,株式会社ラフテル,,株式会社,東京都,千代田区,神田淡路町２丁目１０１番地２６０７号,,13,101,1010063,,,,,,,2025-05-20,1,,,,,ラフテル,0
572,3010001255184,新規,0,2025-05-20,2025-05-20,恒通株式会社,,株式会社,東京都,文京区,白山１丁目６番４－Ａ２５,,13,105,1130001,,,,,,,2025-05-20,1,,,,,コウツウ,0
575,3010003047373,新規,0,2025-05-20,2025-05-20,クルムス合同会社,,合同会社,東京都,中央区,日本橋堀留町１丁目６番１０－２０２号,,13,102,1030012,,,,,,,2025-05-20,1,,,,,クルムス,0
578,3010101016684,新規,0,2025-05-20,2025-05-20,未来ベル株式会社,,株式会社,東京都,八王子市,長沼町１３４番地３３４,,13,201,1920907,,,,,,,2025-05-20,1,,,,,ミライベル,0
589,3010401190287,新規,0,2025-05-20,2025-05-20,Ｂ・ＢＬＵＥｐａｒｔｎｅｒｓ株式会社,,株式会社,東京都,港区,南青山３丁目１番３６号青山丸竹ビル６Ｆ,,13,103,1070062,,,,,,,2025-05-20,1,,,,,ビーブルーパートナーズ,0
590,3010401190345,新規,0,2025-05-20,2025-05-20,株式会社ＥＩＮＡＲＳＳＯＮ,,株式会社,東京都,港区,南青山７丁目１番５－１０３号,,13,103,1070062,,,,,,,2025-05-20,1,,,,,アイナーソン,0
591,3010401190353,新規,0,2025-05-20,2025-05-20,株式会社Ｋ２グループ,,株式会社,東京都,港区,赤坂３丁目１３番４号,,13,103,1070052,,,,,,,2025-05-20,1,,,,,ケーツーグループ,0
594,3010403035102,新規,0,2025-05-20,2025-05-20,合同会社ＴＵＲＵＧＡ,,合同会社,東京都,港区,赤坂７丁目５番３３号ベルバン赤坂Ｂ１０４号,,13,103,1070052,,,,,,,2025-05-20,1,,,,,ツルガ,0
598,3010601067327,新規,0,2025-05-20,2025-05-20,遠大株式会社,,株式会社,東京都,墨田区,石原２丁目１６番１０－１０３号,,13,107,1300011,,,,,,,2025-05-20,1,,,,,エンダイ,0
617,3010903009919,新規,0,2025-05-20,2025-05-20,合同会社みやもと,,合同会社,東京都,世田谷区,上用賀２丁目３－１パシフィック馬事公苑前１０５,,13,112,1580098,,,,,,,2025-05-20,1,,,,,ミヤモト,0
618,3010903009927,新規,0,2025-05-20,2025-05-20,クロムアセット合同会社,,合同会社,東京都,世田谷区,玉川１丁目１５番２―２５０１号,,13,112,1580094,,,,,,,2025-05-20,1,,,,,クロムアセット,0
625,3011001169267,新規,0,2025-05-20,2025-05-20,Ｒｉｃｅ　Ｐｌａｔｆｏｒｍｅｒ株式会社,,株式会社,東京都,目黒区,祐天寺１丁目１４－３,,13,110,1530052,,,,,,,2025-05-20,1,,,,,ライスプラットフォーマー,0
626,3011001169440,新規,0,2025-05-20,2025-05-20,神宮の森パーツ二株式会社,,株式会社,東京都,渋谷区,神宮前１丁目１４番３４号,,13,113,1500001,,,,,,,2025-05-20,1,,,,,ジングウノモリパーツニ,0
627,3011001169853,新規,0,2025-05-20,2025-05-20,株式会社テロワールトウキョウ,,株式会社,東京都,渋谷区,道玄坂１丁目１０番８号渋谷道玄坂東急ビル２Ｆ‐Ｃ,,13,113,1500043,,,,,,,2025-05-20,1,,,,,テロワールトウキョウ,0
634,3011101111748,新規,0,2025-05-20,2025-05-20,ポートリアルティ株式会社,,株式会社,東京都,新宿区,北新宿２丁目２１番１号新宿フロントタワー５階,,13,104,1690074,,,,,,,2025-05-20,1,,,,,ポートリアルティ,0
635,3011103015889,新規,0,2025-05-20,2025-05-20,合同会社Ｎａｍｂａ　Ｓｏｕｔｈ　Ｂｕｉｌｄｉｎｇ,,合同会社,東京都,新宿区,四谷２丁目９番地１５東京ユナイテッド綜合事務所内,,13,104,1600004,,,,,,,2025-05-20,1,,,,,ナンバサウスビルディング,0
636,3011103015906,新規,0,2025-05-20,2025-05-20,合同会社ＳＰＶ１０,,合同会社,東京都,新宿区,四谷２丁目９番地１５東京ユナイテッド綜合事務所内,,13,104,1600004,,,,,,,2025-05-20,1,,,,,エスピーブイジュウ,0
637,3011103015914,新規,0,2025-05-20,2025-05-20,合同会社ジェイ・ジー・ケイ,,合同会社,東京都,新宿区,下宮比町１番４号,,13,104,1620822,,,,,,,2025-05-20,1,,,,,ジェイジーケイ,0
638,3011103015930,新規,0,2025-05-20,2025-05-20,未来リスト合同会社,,合同会社,東京都,新宿区,西新宿３丁目３番１３号西新宿水間ビル６階,,13,104,1600023,,,,,,,2025-05-20,1,,,,,ミライリスト,0
640,3011105011449,新規,0,2025-05-20,2025-05-20,一般社団法人ＳＰＶ１１,,その他の設立登記法人,東京都,新宿区,四谷２丁目９番地１５東京ユナイテッド綜合事務所内,,13,104,1600004,,,,,,,2025-05-20,1,,,,,エスピーブイジュウイチ,0
641,3011201026359,新規,0,2025-05-20,2025-05-20,株式会社Ｈ．Ｈ,,株式会社,東京都,中野区,弥生町１丁目５７番４－２０２号,,13,114,1640013,,,,,,,2025-05-20,1,,,,,エイチエイチ,0
642,3011303005558,新規,0,2025-05-20,2025-05-20,合同会社ＨＤＫ,,合同会社,東京都,杉並区,成田西３丁目２０番７－２０６号ジェイパーク浜田山,,13,115,1660016,,,,,,,2025-05-20,1,,,,,エイチディーケー,0
646,3011401027099,新規,0,2025-05-20,2025-05-20,ＷＥ　ＯＮＥ株式会社,,株式会社,東京都,板橋区,大山町４０番５号岡本ビル４０１,,13,119,1730023,,,,,,,2025-05-20,1,,,,,ウィーワン,0
650,3011503006538,新規,0,2025-05-20,2025-05-20,合同会社ｃｏｃｈａ,,合同会社,東京都,荒川区,荒川１丁目２８番１－７０２号,,13,118,1160002,,,,,,,2025-05-20,1,,,,,コチャ,0
655,3011801046137,新規,0,2025-05-20,2025-05-20,ＢＧ株式会社,,株式会社,東京都,足立区,梅田８丁目１４番２－７１２号,,13,121,1230851,,,,,,,2025-05-20,1,,,,,ビージー,0
665,3012405005116,新規,0,2025-05-20,2025-05-20,一般社団法人ふるさと未来創造コンソーシアム,,その他の設立登記法人,東京都,武蔵野市,吉祥寺本町１丁目１２番１９号,,13,203,1800004,,,,,,,2025-05-20,1,,,,,フルサトミライソウゾウコンソーシアム,0
668,3013303007641,新規,0,2025-05-20,2025-05-20,ＡＯＩ合同会社,,合同会社,東京都,豊島区,駒込３丁目１－３エコプレイス駒込Ｂ－１０８号室,,13,116,1700003,,,,,,,2025-05-20,1,,,,,アオイ,0
688,3020003028505,新規,0,2025-05-20,2025-05-20,合同会社Ｓｏｌｉｓ,,合同会社,神奈川県,川崎市川崎区,藤崎１丁目２１番地８号ハーモニーソフィア１０３,,14,131,2100804,,,,,,,2025-05-20,1,,,,,ソリス,0
689,3020003028513,新規,0,2025-05-20,2025-05-20,合同会社未保学,,合同会社,神奈川県,川崎市川崎区,駅前本町１１番地２川崎フロンティアビル４階,,14,131,2100007,,,,,,,2025-05-20,1,,,,,ミホガク,0
690,3020003028521,新規,0,2025-05-20,2025-05-20,合同会社Ｓｕｎｓｈｏｒｅ,,合同会社,神奈川県,横浜市保土ケ谷区,境木本町６７－２,,14,106,2400033,,,,,,,2025-05-20,1,,,,,サンショア,0
713,3030001166578,新規,0,2025-05-20,2025-05-20,株式会社Ｙｕｈｉｓｔ,,株式会社,埼玉県,羽生市,南４丁目２番地４号,,11,216,3480053,,,,,,,2025-05-20,1,,,,,ユウヒスト,0
714,3030001166603,新規,0,2025-05-20,2025-05-20,株式会社ＳＫＪ,,株式会社,埼玉県,狭山市,富士見２丁目４番５号,,11,215,3501306,,,,,,,2025-05-20,1,,,,,エスケージェイ,0
719,3030003026805,新規,0,2025-05-20,2025-05-20,Ｋ＆Ｂ合同会社,,合同会社,埼玉県,さいたま市浦和区,北浦和２丁目１４－２４－１,,11,107,3300074,,,,,,,2025-05-20,1,,,,,ケーアンドビー,0
723,3040001138840,新規,0,2025-05-20,2025-05-20,株式会社ｎａｇｏｍｕ,,株式会社,千葉県,富津市,豊岡１９８１番地１,,12,226,2991742,,,,,,,2025-05-20,1,,,,,ナゴム,0
724,3040001138849,新規,0,2025-05-20,2025-05-20,株式会社Ｂａｉｌｕｒｋ,,株式会社,千葉県,千葉市中央区,富士見２丁目７番９号富士見ビル６０９号室,,12,101,2600015,,,,,,,2025-05-20,1,,,,,ベイラーク,0
725,3040001138857,新規,0,2025-05-20,2025-05-20,株式会社Ａｏ,,株式会社,千葉県,野田市,岡田５８７番地５１,,12,208,2700223,,,,,,,2025-05-20,1,,,,,アオ,0
731,3040003027471,新規,0,2025-05-20,2025-05-20,合同会社サンアンドムーン,,合同会社,千葉県,成田市,飯田町１３６ー８ブランシュール３１１,,12,211,2860041,,,,,,,2025-05-20,1,,,,,サンアンドムーン,0
732,3040003027629,新規,0,2025-05-20,2025-05-20,合同会社菜花,,合同会社,千葉県,南房総市,久枝５５９番地の９,,12,234,2992216,,,,,,,2025-05-20,1,,,,,ナバナ,0
737,3050003009238,新規,0,2025-05-20,2025-05-20,合同会社ブラボーワーク,,合同会社,茨城県,鹿嶋市,大字下津２７４番地１０,,08,222,3140004,,,,,,,2025-05-20,1,,,,,ブラボーワーク,0
738,3050003009262,新規,0,2025-05-20,2025-05-20,合同会社ＧＦ米子蓄電所,,合同会社,茨城県,行方市,羽生８５番地４,,08,233,3113507,,,,,,,2025-05-20,1,,,,,ジーエフヨナゴチクデンショ,0
739,3050003009270,新規,0,2025-05-20,2025-05-20,光明ランカ合同会社,,合同会社,茨城県,筑西市,倉持１１２８境井住宅１号,,08,227,3004515,,,,,,,2025-05-20,1,,,,,コウミョウランカ,0
740,3050003009279,新規,0,2025-05-20,2025-05-20,合同会社イースト,,合同会社,茨城県,龍ケ崎市,４３０５番地４,,08,208,3010000,,,,,,,2025-05-20,1,,,,,イースト,0
742,3060001038221,新規,0,2025-05-20,2025-05-20,株式会社ＤＲＡＧＯＮ,,株式会社,栃木県,足利市,迫間町４４１番地５,,09,202,3294216,,,,,,,2025-05-20,1,,,,,ドラゴン,0
746,3080101025506,新規,0,2025-05-20,2025-05-20,応雅文化株式会社,,株式会社,静岡県,賀茂郡東伊豆町,大川３９６－２,,22,301,4130301,,,,,,,2025-05-20,1,,,,,オウガブンカ,0
749,3100001038605,新規,0,2025-05-20,2025-05-20,株式会社１１Ｍｏｕｎｔａｉｎｓ,,株式会社,長野県,飯山市,大字木島９４９番地１０,,20,213,3892234,,,,,,,2025-05-20,1,,,,,イレブンマウンテンズ,0
759,3120001275857,新規,0,2025-05-20,2025-05-20,崇睿水産技術開発株式会社,,株式会社,大阪府,大阪市西成区,花園北２丁目１－６－３０１,,27,122,5570016,,,,,,,2025-05-20,1,,,,,スウエイスイサンギジュツカイハツ,0
760,3120001275865,新規,0,2025-05-20,2025-05-20,株式会社Ｌｕｎａ,,株式会社,大阪府,大阪市西淀川区,姫島６丁目６番１７号,,27,113,5550033,,,,,,,2025-05-20,1,,,,,ルナ,0
761,3120001275881,新規,0,2025-05-20,2025-05-20,株式会社福島エステート,,株式会社,大阪府,大阪市東成区,深江南２丁目８番２号,,27,115,5370002,,,,,,,2025-05-20,1,,,,,フクシマエステート,0
762,3120001275907,新規,0,2025-05-20,2025-05-20,東筑株式会社,,株式会社,大阪府,大阪市港区,八幡屋１丁目３－１－３０１号,,27,107,5520014,,,,,,,2025-05-20,1,,,,,トウチク,0
764,3120003029468,新規,0,2025-05-20,2025-05-20,合同会社ＤＡＩ　ＶＩＥＴ,,合同会社,大阪府,大阪市東住吉区,湯里２丁目１３番地２－２０１号室,,27,121,5460013,,,,,,,2025-05-20,1,,,,,ダイベト,0
765,3120003029492,新規,0,2025-05-20,2025-05-20,アインス合同会社,,合同会社,大阪府,大阪市西区,南堀江２丁目１３番８号２０２,,27,106,5500015,,,,,,,2025-05-20,1,,,,,アインス,0
766,3120005024938,新規,0,2025-05-20,2025-05-20,一般社団法人義太夫百花の会,,その他の設立登記法人,大阪府,大阪市中央区,谷町４丁目７番２－１１０４号,,27,128,5400012,,,,,,,2025-05-20,1,,,,,ギダユウヒャッカノカイ,0
776,3120903005667,新規,0,2025-05-20,2025-05-20,縁延合同会社,,合同会社,大阪府,豊中市,豊南町西３丁目１９－１３,,27,203,5610816,,,,,,,2025-05-20,1,,,,,エンエン,0
777,3120903005675,新規,0,2025-05-20,2025-05-20,合同会社輪舞曲,,合同会社,大阪府,吹田市,江坂町３丁目２１番３３－９号,,27,205,5640063,,,,,,,2025-05-20,1,,,,,ロンド,0
783,3150001028122,新規,0,2025-05-20,2025-05-20,未央創意株式会社,,株式会社,奈良県,奈良市,三条栄町１７－２－２,,29,201,6308126,,,,,,,2025-05-20,1,,,,,ミオソウイ,0
784,3150001028139,新規,0,2025-05-20,2025-05-20,株式会社リノフル,,株式会社,奈良県,大和郡山市,新木町９３２ウェルズ２１郡山１０６,,29,203,6391021,,,,,,,2025-05-20,1,,,,,リノフル,0
792,3180001166860,新規,0,2025-05-20,2025-05-20,株式会社グレートリバー,,株式会社,愛知県,岩倉市,北島町大北５３番地,,23,228,4820017,,,,,,,2025-05-20,1,,,,,グレートリバー,0
793,3180001166869,新規,0,2025-05-20,2025-05-20,株式会社Ａｖｅｎｉｒ,,株式会社,愛知県,東海市,富木島町前田面５５番地３,,23,222,4760011,,,,,,,2025-05-20,1,,,,,アヴェニール,0
794,3180001166885,新規,0,2025-05-20,2025-05-20,ＭＥＬＯＮ　ＫＩＮＧ株式会社,,株式会社,愛知県,名古屋市中区,栄５丁目１１番３５号プレサンスジェネ栄９０３号,,23,106,4600008,,,,,,,2025-05-20,1,,,,,メロンキング,0
829,3290003016854,新規,0,2025-05-20,2025-05-20,永吉合同会社,,合同会社,福岡県,古賀市,千鳥６丁目４番１６号,,40,223,8113113,,,,,,,2025-05-20,1,,,,,ナガヨシ,0
833,3290803005057,新規,0,2025-05-20,2025-05-20,合同会社Ｋｉｎｅｒａ,,合同会社,福岡県,田川郡香春町,大字中津原１０４６番地,,40,601,8221405,,,,,,,2025-05-20,1,,,,,キネラ,0
845,3360001035213,新規,0,2025-05-20,2025-05-20,株式会社Ｎｅｘｕｓ,,株式会社,沖縄県,沖縄市,与儀１丁目２番２３号,,47,211,9042174,,,,,,,2025-05-20,1,,,,,ネクサス,0
847,3360003014842,新規,0,2025-05-20,2025-05-20,合同会社テクニカルサービスＺＥＮ,,合同会社,沖縄県,国頭郡宜野座村,字惣慶１７４５番地１１号,,47,313,9041303,,,,,,,2025-05-20,1,,,,,テクニカルサービスゼン,0
848,3360003014933,新規,0,2025-05-20,2025-05-20,合同会社モリファームタカラ,,合同会社,沖縄県,国頭郡宜野座村,字漢那２５３６番地１０４,,47,313,9041304,,,,,,,2025-05-20,1,,,,,モリファームタカラ,0
859,3380001035327,新規,0,2025-05-20,2025-05-20,株式会社Ｊ．Ｔ．Ｆ．Ｂ新エネルギー公社,,株式会社,福島県,いわき市,平字中町２番地の４,,07,204,9708026,,,,,,,2025-05-20,1,,,,,ジェイティーエフビーシンエネルギーコウシャ,0
861,3380005012974,新規,0,2025-05-20,2025-05-20,一般社団法人ウエイトシフト＆ローテーション技能認定協会,,その他の設立登記法人,福島県,須賀川市,森宿字狐石８４番地３ＦＳタウン３号,,07,207,9620001,,,,,,,2025-05-20,1,,,,,ウエイトシフトアンドローテーションギノウニンテイキョウカイ,0
868,3430001094417,新規,0,2025-05-20,2025-05-20,株式会社ＺＥＮ,,株式会社,北海道,札幌市中央区,宮の森四条１３丁目７番１５号,,01,101,0640954,,,,,,,2025-05-20,1,,,,,ゼン,0
869,3430001094441,新規,0,2025-05-20,2025-05-20,株式会社ＥＸＣＥＥＤ,,株式会社,北海道,札幌市清田区,清田七条４丁目９番１２号,,01,110,0040847,,,,,,,2025-05-20,1,,,,,エクシード,0
874,3430003017672,新規,0,2025-05-20,2025-05-20,合同会社春琴文学堂,,合同会社,北海道,札幌市豊平区,豊平七条７丁目３番２７－４１０号,,01,105,0620907,,,,,,,2025-05-20,1,,,,,シュンキンブンガクドウ,0
891,4010001254862,新規,0,2025-05-20,2025-05-20,キャリアピットジャパン株式会社,,株式会社,東京都,千代田区,神田佐久間町２丁目１８－１秋葉原ＳＴＮフロント１０階,,13,101,1010025,,,,,,,2025-05-20,1,,,,,キャリアピットジャパン,0
892,4010001255076,新規,0,2025-05-20,2025-05-20,株式会社ブリズリー,,株式会社,東京都,中央区,晴海５丁目４番５－１５０７号,,13,102,1040053,,,,,,,2025-05-20,1,,,,,ブリズリー,0
893,4010001255101,新規,0,2025-05-20,2025-05-20,ＥＤＧＨ　ＣＡＲＤ　ＴＲＡＤＩＮＧ株式会社,,株式会社,東京都,中央区,勝どき１丁目８番１－４５０９号,,13,102,1040054,,,,,,,2025-05-20,1,,,,,エッヂカードトレーディング,0
894,4010001255118,新規,0,2025-05-20,2025-05-20,Ｃｈａｒｔｅｒ　Ｈａｕｓ株式会社,,株式会社,東京都,千代田区,平河町２丁目６番１号平河町ビル７階,,13,101,1020093,,,,,,,2025-05-20,1,,,,,チャーターハウス,0
895,4010001255159,新規,0,2025-05-20,2025-05-20,銀座レジリエンス研究所株式会社,,株式会社,東京都,文京区,千石４丁目１４番９号,,13,105,1120011,,,,,,,2025-05-20,1,,,,,ギンザレジリエンスケンキュウショ,0
896,4010001255167,新規,0,2025-05-20,2025-05-20,エムキャップ十四号株式会社,,株式会社,東京都,千代田区,丸の内２丁目７番２号,,13,101,1000005,,,,,,,2025-05-20,1,,,,,エムキャップジュウヨンゴウ,0
901,4010105002341,新規,0,2025-05-20,2025-05-20,一般社団法人アハエデュケーションソールスジャパン,,その他の設立登記法人,東京都,八王子市,片倉町２４０７番地ＡＵハイム４Ｆ,,13,201,1920914,,,,,,,2025-05-20,1,,,,,アハエデュケーションソールスジャパン,0
915,4010401190328,新規,0,2025-05-20,2025-05-20,株式会社ＣＷＦＩ,,株式会社,東京都,港区,芝浦４丁目１７番８号,,13,103,1080023,,,,,,,2025-05-20,1,,,,,シーダブリュエフアイ,0
916,4010401190344,新規,0,2025-05-20,2025-05-20,ＴＨＥ　ＮＡＧＡＴＡ　ＳＡＮ株式会社,,株式会社,東京都,港区,南青山６丁目１番１３号,,13,103,1070062,,,,,,,2025-05-20,1,,,,,ザナガタサン,0
917,4010401190352,新規,0,2025-05-20,2025-05-20,株式会社明発,,株式会社,東京都,港区,南青山７丁目１番２７号南青山テラス常盤松フォレスト７０４号室,,13,103,1070062,,,,,,,2025-05-20,1,,,,,メイハツ,0
920,4010503007842,新規,0,2025-05-20,2025-05-20,Ａｕｔｏｍａｔａ合同会社,,合同会社,東京都,台東区,元浅草１丁目６番１２号ＧＯＧＯオフィス御徒町３０４号室,,13,106,1110041,,,,,,,2025-05-20,1,,,,,オートマタ,0
924,4010601067326,新規,0,2025-05-20,2025-05-20,Ｔ１Ａｄｖｉｓｏｒｙ　Ｓｅｒｖｉｃｅ　Ｊａｐａｎ株式会社,,株式会社,東京都,江東区,青海２丁目５番１０号テレコムセンタービル東棟１４階,,13,108,1350064,,,,,,,2025-05-20,1,,,,,ティーワンアドバイザリーサービスジャパン,0
925,4010701047723,新規,0,2025-05-20,2025-05-20,株式会社サンフラワーステイ,,株式会社,東京都,品川区,上大崎３丁目５番３号万代目黒ビル８Ｆ,,13,109,1410021,,,,,,,2025-05-20,1,,,,,サンフラワーステイ,0
926,4010703007717,新規,0,2025-05-20,2025-05-20,合同会社ヴァーゴ,,合同会社,東京都,品川区,中延２丁目５－２０,,13,109,1420053,,,,,,,2025-05-20,1,,,,,ヴァーゴ,0
927,4010801036163,新規,0,2025-05-20,2025-05-20,株式会社ＥｙｅＴｏＳｅｅ,,株式会社,東京都,大田区,東海３丁目２番６号,,13,111,1430001,,,,,,,2025-05-20,1,,,,,アイトゥーシー,0
930,4010903009926,新規,0,2025-05-20,2025-05-20,合同会社ポリフォニー,,合同会社,東京都,世田谷区,代田３丁目２４番８シティハウス世田谷代田３０１,,13,112,1550033,,,,,,,2025-05-20,1,,,,,ポリフォニー,0
938,4011001169415,新規,0,2025-05-20,2025-05-20,株式会社Ｆｕｎｔｏｍｙ,,株式会社,東京都,渋谷区,代々木２丁目２３番１－５６６号,,13,113,1510053,,,,,,,2025-05-20,1,,,,,ファントミー,0
939,4011001169423,新規,0,2025-05-20,2025-05-20,株式会社アルリーチ,,株式会社,東京都,渋谷区,円山町５番３号ＭＩＥＵＸ渋谷ビル８階,,13,113,1500044,,,,,,,2025-05-20,1,,,,,アルリーチ,0
940,4011001169431,新規,0,2025-05-20,2025-05-20,ＷＡＣＯＤＥ株式会社,,株式会社,東京都,渋谷区,恵比寿西２丁目４－８ウィンド恵比寿ビル８Ｆ,,13,113,1500021,,,,,,,2025-05-20,1,,,,,,0
941,4011001169737,新規,0,2025-05-20,2025-05-20,株式会社ＥｄｉＦｉｎａｎｃｅ,,株式会社,東京都,渋谷区,渋谷２丁目１９－１５宮益坂ビルディング６０９,,13,113,1500002,,,,,,,2025-05-20,1,,,,,エディファイナンス,0
942,4011001169877,新規,0,2025-05-20,2025-05-20,Ｌ‐Ｍａｓｔｅｒ株式会社,,株式会社,東京都,渋谷区,道玄坂１丁目１０番８号渋谷道玄坂東急ビル２Ｆ－Ｃ,,13,113,1500043,,,,,,,2025-05-20,1,,,,,エルマスター,0
944,4011003021706,新規,0,2025-05-20,2025-05-20,合同会社イリオス,,合同会社,東京都,渋谷区,代々木５丁目１０番１０号アルブル代々木八幡１０１,,13,113,1510053,,,,,,,2025-05-20,1,,,,,イリオス,0
949,4011101111714,新規,0,2025-05-20,2025-05-20,株式会社ももとせ生活,,株式会社,東京都,新宿区,西新宿３丁目３番１３号西新宿水間ビル２Ｆ,,13,104,1600023,,,,,,,2025-05-20,1,,,,,モモトセセイカツ,0
950,4011101111722,新規,0,2025-05-20,2025-05-20,株式会社設備設計積算研究所,,株式会社,東京都,新宿区,西新宿３丁目５番１２号,,13,104,1600023,,,,,,,2025-05-20,1,,,,,セツビセッケイセキサンケンキュウジョ,0
954,4011105011448,新規,0,2025-05-20,2025-05-20,一般社団法人ＳＰＶ１０,,その他の設立登記法人,東京都,新宿区,四谷２丁目９番地１５東京ユナイテッド綜合事務所内,,13,104,1600004,,,,,,,2025-05-20,1,,,,,エスピーブイジュウ,0
960,4011401027098,新規,0,2025-05-20,2025-05-20,株式会社ＡＣＯＲＮ,,株式会社,東京都,板橋区,成増１丁目１３番１１号グランメール成増１Ｆ,,13,119,1750094,,,,,,,2025-05-20,1,,,,,エイコーン,0
962,4011403004698,新規,0,2025-05-20,2025-05-20,アルテミス合同会社,,合同会社,東京都,板橋区,熊野町７番４－４０２号,,13,119,1730025,,,,,,,2025-05-20,1,,,,,アルテミス,0
966,4011501032080,新規,0,2025-05-20,2025-05-20,Ｃｈｕｂｂｙ　Ｊａｐａｎ株式会社,,株式会社,東京都,北区,赤羽北３丁目２６番４の１５０４,,13,117,1150052,,,,,,,2025-05-20,1,,,,,チャブジャパン,0
971,4011801046128,新規,0,2025-05-20,2025-05-20,三美善株式会社,,株式会社,東京都,足立区,神明１丁目１２番１号,,13,121,1210051,,,,,,,2025-05-20,1,,,,,サンビゼン,0
972,4011801046144,新規,0,2025-05-20,2025-05-20,ミズイ株式会社,,株式会社,東京都,葛飾区,新宿６丁目２番１－１０２５号シティタワー金町タワー棟,,13,122,1250051,,,,,,,2025-05-20,1,,,,,ミズイ,0
977,4012401043110,新規,0,2025-05-20,2025-05-20,株式会社ＤＡＲＡ,,株式会社,東京都,調布市,布田３丁目２９番地１５ツバキハイツ２０１,,13,208,1820024,,,,,,,2025-05-20,1,,,,,ダラ,0
979,4013301054263,新規,0,2025-05-20,2025-05-20,株式会社Ｌｉｂｅｒｏａ,,株式会社,東京都,豊島区,池袋３丁目５２番３号ザ・ライオンズ池袋２１１号,,13,116,1710014,,,,,,,2025-05-20,1,,,,,リベロア,0
980,4013301054271,新規,0,2025-05-20,2025-05-20,株式会社ヒラビック,,株式会社,東京都,豊島区,巣鴨１丁目２９番７号,,13,116,1700002,,,,,,,2025-05-20,1,,,,,ヒラビック,0
989,4020001162890,新規,0,2025-05-20,2025-05-20,三好国際株式会社,,株式会社,神奈川県,横浜市南区,宮元町１丁目１９番地３アーバンキャッスル吉野町５０１号,,14,105,2320016,,,,,,,2025-05-20,1,,,,,ミヨシコクサイ,0
990,4020001162924,新規,0,2025-05-20,2025-05-20,株式会社ガルツ,,株式会社,神奈川県,横浜市西区,浅間町１丁目４番３号ウィザードビル４０２,,14,103,2200072,,,,,,,2025-05-20,1,,,,,ガルツ,0
992,4020003028520,新規,0,2025-05-20,2025-05-20,みなとサイエンス合同会社,,合同会社,神奈川県,横浜市中区,桜木町１丁目１０１番地１クロスゲート７階,,14,104,2310062,,,,,,,2025-05-20,1,,,,,ミナトサイエンス,0
995,4021001085280,新規,0,2025-05-20,2025-05-20,株式会社万屋びるど,,株式会社,神奈川県,藤沢市,葛原２５０１－３,,14,205,2520822,,,,,,,2025-05-20,1,,,,,ヨロズヤビルド,0
1001,4021003016028,新規,0,2025-05-20,2025-05-20,アヘンコーポレーション合同会社,,合同会社,神奈川県,愛甲郡愛川町,田代３１０番地１－Ｂ,,14,401,2430306,,,,,,,2025-05-20,1,,,,,アヘンコーポレーション,0
1008,4030001166552,新規,0,2025-05-20,2025-05-20,ＲＩＴＡ株式会社,,株式会社,埼玉県,川越市,連雀町２３番地１０連雀ビル２０２号室,,11,201,3500066,,,,,,,2025-05-20,1,,,,,リタ,0
1009,4030001166560,新規,0,2025-05-20,2025-05-20,株式会社紡ぎ,,株式会社,埼玉県,さいたま市桜区,栄和１丁目２１番１３号ドームクレアール１階Ｂ号,,11,106,3380823,,,,,,,2025-05-20,1,,,,,ツムギ,0
1010,4030001166577,新規,0,2025-05-20,2025-05-20,ＮＫＢＥ　ＪＡＰＡＮ株式会社,,株式会社,埼玉県,川口市,並木２丁目１８番５－４０５号サーパスヒルズ,,11,203,3320034,,,,,,,2025-05-20,1,,,,,エヌケービーイージャパン,0
1011,4030003026804,新規,0,2025-05-20,2025-05-20,合同会社アンバン,,合同会社,埼玉県,川口市,本前川３丁目２番１０号,,11,203,3330849,,,,,,,2025-05-20,1,,,,,アンバン,0
1018,4040001138831,新規,0,2025-05-20,2025-05-20,株式会社ＲＩＮ,,株式会社,千葉県,市川市,宮久保１丁目１４番２号,,12,203,2720822,,,,,,,2025-05-20,1,,,,,リン,0
1019,4040001138848,新規,0,2025-05-20,2025-05-20,Ｃｈｉｌｉｎｇ株式会社,,株式会社,千葉県,柏市,豊四季６４５番地２３２,,12,217,2770863,,,,,,,2025-05-20,1,,,,,チィーリング,0
1020,4040003027611,新規,0,2025-05-20,2025-05-20,合同会社ＮＥＬＡＸ,,合同会社,千葉県,市川市,宝２丁目６番２号,,12,203,2720122,,,,,,,2025-05-20,1,,,,,ネラックス,0
1026,4050003009278,新規,0,2025-05-20,2025-05-20,勇新商事合同会社,,合同会社,茨城県,猿島郡境町,９５７番地７,,08,546,3060433,,,,,,,2025-05-20,1,,,,,ユウシンショウジ,0
1031,4070003005928,新規,0,2025-05-20,2025-05-20,恵華商事合同会社,,合同会社,群馬県,みどり市,大間々町大間々１８４９番地５,,10,212,3760101,,,,,,,2025-05-20,1,,,,,ケイカショウジ,0
1033,4080103003327,新規,0,2025-05-20,2025-05-20,フリグレン合同会社,,合同会社,静岡県,駿東郡長泉町,中土狩３６１番地の１エンブル・ベロー長泉１００２号,,22,342,4110942,,,,,,,2025-05-20,1,,,,,フリグレン,0
1036,4100001038612,新規,0,2025-05-20,2025-05-20,株式会社ｓｐａｃｅ,,株式会社,長野県,松本市,大字松原３４番地８,,20,202,3990022,,,,,,,2025-05-20,1,,,,,スペース,0
1043,4120001275848,新規,0,2025-05-20,2025-05-20,ＹＵ　Ｂｅａｕｔｙ株式会社,,株式会社,大阪府,大阪市中央区,東心斎橋１丁目８番１１－２６０３号,,27,128,5420083,,,,,,,2025-05-20,1,,,,,ユービューティー,0
1044,4120001275897,新規,0,2025-05-20,2025-05-20,億安株式会社,,株式会社,大阪府,大阪市港区,弁天４丁目４番５号,,27,107,5520007,,,,,,,2025-05-20,1,,,,,イアン,0
1046,4120003029475,新規,0,2025-05-20,2025-05-20,エンパワーヒューマン合同会社,,合同会社,大阪府,大阪市北区,梅田１丁目１－３大阪駅前第３ビル２９階１－１－１号室,,27,127,5300001,,,,,,,2025-05-20,1,,,,,エンパワーヒューマン,0
1047,4120005024945,新規,0,2025-05-20,2025-05-20,ＴＭユニオン協同組合,,その他の設立登記法人,大阪府,大阪市中央区,淡路町１丁目３番２－３０２号,,27,128,5410047,,,,,,,2025-05-20,1,,,,,ティエムユニオン,0
1049,4120901050879,新規,0,2025-05-20,2025-05-20,株式会社ＬｉｖｅＷｉｒｅ,,株式会社,大阪府,吹田市,豊津町１－１８,,27,205,5640051,,,,,,,2025-05-20,1,,,,,ライブワイヤー,0
1050,4120901050887,新規,0,2025-05-20,2025-05-20,茂源株式会社,,株式会社,大阪府,豊中市,庄内東町２丁目２番８－４０５号,,27,203,5610831,,,,,,,2025-05-20,1,,,,,モゲン,0
1055,4120903005666,新規,0,2025-05-20,2025-05-20,シャミーユ合同会社,,合同会社,大阪府,吹田市,山手町４丁目２７－１５－２０５,,27,205,5640073,,,,,,,2025-05-20,1,,,,,シャミーユ,0
1056,4120903005674,新規,0,2025-05-20,2025-05-20,合同会社大阪土地建物,,合同会社,大阪府,豊中市,蛍池西町二丁目１３－１０－４０６,,27,203,5600000,,,,,,,2025-05-20,1,,,,,オオサカトチタテモノ,0
1059,4122001039209,新規,0,2025-05-20,2025-05-20,株式会社トップサポート,,株式会社,大阪府,東大阪市,長田中１丁目４－３５ステーションコート長田５０３号,,27,227,5770013,,,,,,,2025-05-20,1,,,,,トップサポート,0
1064,4130001079604,新規,0,2025-05-20,2025-05-20,ＴＲ株式会社,,株式会社,京都府,京都市伏見区,深草山村町１０００－１０,,26,109,6120082,,,,,,,2025-05-20,1,,,,,ティアール,0
1084,4180001166876,新規,0,2025-05-20,2025-05-20,株式会社クロステート,,株式会社,愛知県,小牧市,大字間々原新田５７１番地,,23,219,4850016,,,,,,,2025-05-20,1,,,,,クロステート,0
1104,4260001040206,新規,0,2025-05-20,2025-05-20,株式会社Ｎａｔｓｕｂａｒｅ,,株式会社,岡山県,倉敷市,羽島７４６番地５,,33,202,7100043,,,,,,,2025-05-20,1,,,,,ナツバレ,0
1112,4290001110071,新規,0,2025-05-20,2025-05-20,シアター・リンク株式会社,,株式会社,福岡県,飯塚市,堀池１３７番地１深町アパート２号室,,40,205,8200070,,,,,,,2025-05-20,1,,,,,シアターリンク,0
1114,4290003016861,新規,0,2025-05-20,2025-05-20,Ｍｉｓｔｂｒｉｄｇｅ合同会社,,合同会社,福岡県,福岡市南区,花畑３丁目３９番２６号２階,,40,134,8111356,,,,,,,2025-05-20,1,,,,,ミストブリッジ,0
1116,4290801031558,新規,0,2025-05-20,2025-05-20,株式会社スリーブ,,株式会社,福岡県,北九州市小倉北区,香春口１丁目１１－２０オリエンタル香春口１０４号,,40,106,8020084,,,,,,,2025-05-20,1,,,,,スリーブ,0
1129,4360003014858,新規,0,2025-05-20,2025-05-20,合同会社ケトン,,合同会社,沖縄県,豊見城市,字我那覇７０１－５,,47,212,9010231,,,,,,,2025-05-20,1,,,,,ケトン,0
1130,4360003014932,新規,0,2025-05-20,2025-05-20,合同会社Ｕ‐ＴｅｃｈＷｏｒｋｓ,,合同会社,沖縄県,宜野湾市,志真志３丁目８－１３－３１０号室,,47,205,9012213,,,,,,,2025-05-20,1,,,,,ユーテックワークス,0
1132,4370003007051,新規,0,2025-05-20,2025-05-20,Ｋａｉｒｏｓ　Ｌａｂ合同会社,,合同会社,宮城県,仙台市泉区,七北田字白水沢７８―１スカイヒルズＳＴ白水沢７０１号室,,04,105,9813131,,,,,,,2025-05-20,1,,,,,カイロスラボ,0
1134,4380001035326,新規,0,2025-05-20,2025-05-20,株式会社Ｊクラウド,,株式会社,福島県,福島市,新浜町３番地の４,,07,201,9608022,,,,,,,2025-05-20,1,,,,,ジェイクラウド,0
1135,4380001035334,新規,0,2025-05-20,2025-05-20,株式会社小澤蝋燭本舗,,株式会社,福島県,会津若松市,西栄町６番２７号,,07,202,9650877,,,,,,,2025-05-20,1,,,,,オザワローソクホンポ,0
1139,4380005012973,新規,0,2025-05-20,2025-05-20,一般社団法人ＩＲＯＤＯＲＩ　ＬＡＢ,,その他の設立登記法人,福島県,福島市,五老内町９番４号フェニックスビル２Ｆ,,07,201,9608111,,,,,,,2025-05-20,1,,,,,イロドリラボ,0
1144,4430001094424,新規,0,2025-05-20,2025-05-20,盛鴻株式会社,,株式会社,北海道,札幌市北区,篠路八条６丁目１０番１７号,,01,102,0028028,,,,,,,2025-05-20,1,,,,,セイコウ,0
1147,4440001009604,新規,0,2025-05-20,2025-05-20,ドリームグレース株式会社,,株式会社,北海道,函館市,松陰町１２番２７号リアライズ松陰ＶＩ１０２,00139221,01,202,0400003,,,,,,,2025-05-20,1,,,,,ドリームグレース,0
1148,4440001009612,新規,0,2025-05-20,2025-05-20,株式会社ＳＴＥＬＬＡ　ＧＲＡＣＥ,,株式会社,北海道,函館市,北美原２丁目２６番９号,,01,202,0410807,,,,,,,2025-05-20,1,,,,,ステラグレイス,0
1162,5010001255050,新規,0,2025-05-20,2025-05-20,株式会社ふるーる,,株式会社,東京都,中央区,晴海２丁目２番４２号１２１３号,,13,102,1040053,,,,,,,2025-05-20,1,,,,,フルール,0
1163,5010001255083,新規,0,2025-05-20,2025-05-20,株式会社サウザントリーブスハリウッド,,株式会社,東京都,中央区,佃１丁目１１番９号,,13,102,1040051,,,,,,,2025-05-20,1,,,,,,0
1164,5010001255091,新規,0,2025-05-20,2025-05-20,株式会社ｏｗｃａ,,株式会社,東京都,千代田区,神田司町２丁目４－９ＧＲＥＥＮＰＡＲＫ神田司町７０２号室,,13,101,1010048,,,,,,,2025-05-20,1,,,,,オウカ,0
1165,5010001255141,新規,0,2025-05-20,2025-05-20,株式会社Ｂｉｔ　Ｐａｔｈ,,株式会社,東京都,千代田区,丸の内１丁目１１番１号,,13,101,1000005,,,,,,,2025-05-20,1,,,,,ビットパス,0
1166,5010001255158,新規,0,2025-05-20,2025-05-20,株式会社チケットカレンダー,,株式会社,東京都,中央区,銀座１丁目１２番４号Ｎ＆ＥＢＬＤ．６Ｆ,,13,102,1040061,,,,,,,2025-05-20,1,,,,,チケットカレンダー,0
1167,5010001255199,新規,0,2025-05-20,2025-05-20,株式会社Ｌｕｎａｆｌｅｕｒｓ,,株式会社,東京都,中央区,銀座３丁目４番１号大倉別館５階,,13,102,1040061,,,,,,,2025-05-20,1,,,,,ルナフルール,0
1168,5010003047363,新規,0,2025-05-20,2025-05-20,合同会社ＫＩ,,合同会社,東京都,中央区,勝どき３丁目９－１２－４０６,,13,102,1040054,,,,,,,2025-05-20,1,,,,,ケーアイ,0
1169,5010003047396,新規,0,2025-05-20,2025-05-20,タンディガータンディジャパン合同会社,,合同会社,東京都,中央区,銀座１丁目１２番４号Ｎ＆ＥＢＬＤ．７階,,13,102,1040061,,,,,,,2025-05-20,1,,,,,タンディガータンディジャパン,0
1171,5010101016682,新規,0,2025-05-20,2025-05-20,株式会社Ｏｎｏｎｏ　Ｖｉｌｌａｇｅ,,株式会社,東京都,八王子市,大塚５３４番地８,,13,201,1920352,,,,,,,2025-05-20,1,,,,,オノノビレッジ,0
1184,5010401190302,新規,0,2025-05-20,2025-05-20,株式会社ｉｎｏｍａ,,株式会社,東京都,港区,南青山３丁目１番３６号青山青竹ビル６Ｆ,,13,103,1070062,,,,,,,2025-05-20,1,,,,,イノマ,0
1185,5010401190310,新規,0,2025-05-20,2025-05-20,ＯＫａｃｈｉコーポレイション株式会社,,株式会社,東京都,港区,元赤坂１丁目１番７号オリエント赤坂モートサイドビル３階,,13,103,1070051,,,,,,,2025-05-20,1,,,,,オカチコーポレイション,0
1192,5010403034977,新規,0,2025-05-20,2025-05-20,合同会社Ｒｅｖｉｖｅ＆Ｓｕｒｖｉｖｅ,,合同会社,東京都,港区,麻布台２丁目２－３,,13,103,1060041,,,,,,,2025-05-20,1,,,,,リバイブアンドサバイブ,0
1193,5010403035075,新規,0,2025-05-20,2025-05-20,合同会社Ｒｅ,,合同会社,東京都,港区,港南４丁目１－６,,13,103,1080075,,,,,,,2025-05-20,1,,,,,アールイー,0
1200,5010503007833,新規,0,2025-05-20,2025-05-20,合同会社アイ,,合同会社,東京都,台東区,池之端２丁目５－３６ゲンビル２階,,13,106,1100008,,,,,,,2025-05-20,1,,,,,アイ,0
1203,5010601067325,新規,0,2025-05-20,2025-05-20,株式会社フロイデ,,株式会社,東京都,墨田区,横川２丁目１７番８号,,13,107,1300003,,,,,,,2025-05-20,1,,,,,フロイデ,0
1208,5010801036154,新規,0,2025-05-20,2025-05-20,株式会社Ｍｅｅｔ　Ｉｎ　Ｌｉｆｅ,,株式会社,東京都,大田区,千鳥１丁目３番１９号住建第７ハイプレース１０７号室,,13,111,1460083,,,,,,,2025-05-20,1,,,,,ミートインライフ,0
1209,5010801036170,新規,0,2025-05-20,2025-05-20,株式会社ノムベル,,株式会社,東京都,大田区,大森北１丁目１６番８号第１６大協ビル２Ｆ,,13,111,1430016,,,,,,,2025-05-20,1,,,,,ノムベル,0
1213,5010903009925,新規,0,2025-05-20,2025-05-20,合同会社ｓａｌａｄａ　ｂａｒ,,合同会社,東京都,世田谷区,三軒茶屋１丁目３５番３号,,13,112,1540024,,,,,,,2025-05-20,1,,,,,サラダバー,0
1214,5011001169414,新規,0,2025-05-20,2025-05-20,株式会社Ｉｎｃｏｒａｌ,,株式会社,東京都,渋谷区,道玄坂１丁目１０番８号渋谷道玄坂東急ビル２Ｆ－Ｃ,,13,113,1500043,,,,,,,2025-05-20,1,,,,,インコーラル,0
1215,5011001169505,新規,0,2025-05-20,2025-05-20,Ｑｕａｌｌｉｃｏ株式会社,,株式会社,東京都,渋谷区,神南１丁目２３番１４号リージャス渋谷公園通りビル,,13,113,1500041,,,,,,,2025-05-20,1,,,,,クォリコ,0
1216,5011003021671,新規,0,2025-05-20,2025-05-20,ウエストミンスターアセットマネジメント合同会社,,合同会社,東京都,渋谷区,道玄坂１丁目１０番８号渋谷道玄坂東急ビル２Ｆ－Ｃ,,13,113,1500043,,,,,,,2025-05-20,1,,,,,ウエストミンスターアセットマネジメント,0
1217,5011003021738,新規,0,2025-05-20,2025-05-20,合同会社ハイペリオン,,合同会社,東京都,渋谷区,円山町５番３号ＭＩＥＵＸ渋谷ビル８階,,13,113,1500044,,,,,,,2025-05-20,1,,,,,ハイペリオン,0
1222,5011101111779,新規,0,2025-05-20,2025-05-20,株式会社ＦｌｏｗＸ,,株式会社,東京都,新宿区,市谷田町３丁目８番市ヶ谷科学技術イノベーションセンタービル２Ｆ,,13,104,1620843,,,,,,,2025-05-20,1,,,,,フローエックス,0
1224,5011103015912,新規,0,2025-05-20,2025-05-20,合同会社Ｃ‐ｓｐａｒｋ,,合同会社,東京都,新宿区,西新宿３丁目３番１３号西新宿水間ビル６階,,13,104,1600023,,,,,,,2025-05-20,1,,,,,シースパーク,0
1225,5011401027097,新規,0,2025-05-20,2025-05-20,アートシー株式会社,,株式会社,東京都,板橋区,赤塚１丁目４番４号,,13,119,1750092,,,,,,,2025-05-20,1,,,,,アートシー,0
1231,5011801046127,新規,0,2025-05-20,2025-05-20,株式会社ＳｐａｃｅＤｅｓｉｇｎ７２５,,株式会社,東京都,足立区,古千谷本町２丁目９番２号,,13,121,1210832,,,,,,,2025-05-20,1,,,,,スペースデザインナナニーゴ,0
1236,5011803006863,新規,0,2025-05-20,2025-05-20,合同会社ｆｅｌｌｏｗｓ,,合同会社,東京都,葛飾区,細田４丁目１８番６号グランシャリオ２０３号,,13,122,1240021,,,,,,,2025-05-20,1,,,,,フェローズ,0
1244,5013301054221,新規,0,2025-05-20,2025-05-20,ＬＯＰ株式会社,,株式会社,東京都,豊島区,東池袋２丁目６２番８号ＢＩＧオフィスプラザ池袋１２０６,,13,116,1700013,,,,,,,2025-05-20,1,,,,,ロップ,0
1245,5013301054246,新規,0,2025-05-20,2025-05-20,株式会社ＳＯＹＣＨＩ,,株式会社,東京都,豊島区,東池袋２丁目６２番８号ＢＩＧオフィスプラザ池袋１２０６,,13,116,1700013,,,,,,,2025-05-20,1,,,,,ソイチ,0
1246,5013301054270,新規,0,2025-05-20,2025-05-20,株式会社Ｒ１０５,,株式会社,東京都,豊島区,巣鴨１丁目２９番７号,,13,116,1700002,,,,,,,2025-05-20,1,,,,,アールイチマルゴ,0
1257,5020001162816,新規,0,2025-05-20,2025-05-20,株式会社３ＲＯＵＮＤ,,株式会社,神奈川県,横浜市旭区,東希望が丘１７５番地８,,14,112,2410826,,,,,,,2025-05-20,1,,,,,スリーラウンド,0
1258,5020001162948,新規,0,2025-05-20,2025-05-20,ＡＩ’ｓ　Ｅｓｃｏｒｔ株式会社,,株式会社,神奈川県,横浜市緑区,台村町１８６番地,,14,113,2260014,,,,,,,2025-05-20,1,,,,,アイズエスコート,0
1266,5020003028478,新規,0,2025-05-20,2025-05-20,ＨＡＳＵＩ合同会社,,合同会社,神奈川県,横浜市栄区,公田町７４０番地５棟３０６号,,14,115,2470014,,,,,,,2025-05-20,1,,,,,ハスイ,0
1269,5021003016035,新規,0,2025-05-20,2025-05-20,合同会社あおいかわ,,合同会社,神奈川県,相模原市中央区,上溝１８９３―５,,14,152,2520243,,,,,,,2025-05-20,1,,,,,アオイカワ,0
1274,5030001166477,新規,0,2025-05-20,2025-05-20,株式会社オモカゲ,,株式会社,埼玉県,比企郡小川町,大字高谷２５８８－８,,11,343,3550311,,,,,,,2025-05-20,1,,,,,オモカゲ,0
1275,5030001166568,新規,0,2025-05-20,2025-05-20,株式会社ＣＯＣＯＲＯＮ　ＣＡＲＥ,,株式会社,埼玉県,さいたま市岩槻区,大字上野９４５－２,,11,110,3390073,,,,,,,2025-05-20,1,,,,,ココロンケア,0
1276,5030001166584,新規,0,2025-05-20,2025-05-20,株式会社ｃｕｔｅ,,株式会社,埼玉県,吉川市,大字保４８５番地４,,11,243,3420041,,,,,,,2025-05-20,1,,,,,キュート,0
1277,5030001166592,新規,0,2025-05-20,2025-05-20,株式会社ＮＡアクティブ,,株式会社,埼玉県,入間市,大字新久５３９番地１０,,11,225,3580031,,,,,,,2025-05-20,1,,,,,エヌエーアクティブ,0
1281,5030003026786,新規,0,2025-05-20,2025-05-20,晟陽合同会社,00139222,合同会社,埼玉県,蕨市,北町１丁目１３番１５,,11,223,3350001,,,,,,,2025-05-20,1,,,,,セイヨウ,0
1288,5040001138806,新規,0,2025-05-20,2025-05-20,株式会社ジョイスカイ,,株式会社,千葉県,成田市,本三里塚２０７番地９,,12,211,2860118,,,,,,,2025-05-20,1,,,,,ジョイスカイ,0
1289,5040001138830,新規,0,2025-05-20,2025-05-20,株式会社さわやかさん,,株式会社,千葉県,船橋市,松が丘２丁目３８番１４号,,12,204,2740064,,,,,,,2025-05-20,1,,,,,サワヤカサン,0
1290,5040001138839,新規,0,2025-05-20,2025-05-20,株式会社大将工務店,,株式会社,千葉県,千葉市花見川区,朝日ケ丘３丁目１５番３７号,,12,102,2620019,,,,,,,2025-05-20,1,,,,,タイショウコウムテン,0
1293,5040003027619,新規,0,2025-05-20,2025-05-20,合同会社シンコウ,,合同会社,千葉県,柏市,篠籠田１５１０番地１１,,12,217,2770862,,,,,,,2025-05-20,1,,,,,シンコウ,0
1295,5050001056701,新規,0,2025-05-20,2025-05-20,ケーズファイン株式会社,,株式会社,茨城県,つくばみらい市,小絹１５４番地１,,08,235,3002445,,,,,,,2025-05-20,1,,,,,ケーズファイン,0
1307,5080103003318,新規,0,2025-05-20,2025-05-20,合同会社丈右衛門屋,,合同会社,静岡県,賀茂郡西伊豆町,仁科８６７番地の１,,22,306,4103514,,,,,,,2025-05-20,1,,,,,ジョウエモンヤ,0
1309,5110001039253,新規,0,2025-05-20,2025-05-20,株式会社かがやき,,株式会社,新潟県,村上市,下鍜冶屋５７５番地２９,,15,212,9593107,,,,,,,2025-05-20,1,,,,,カガヤキ,0
1326,5120001275681,新規,0,2025-05-20,2025-05-20,ミットミライフ株式会社,,株式会社,大阪府,大阪市住吉区,万代東１丁目１－４１,,27,120,5580056,,,,,,,2025-05-20,1,,,,,ミットミライフ,0
1327,5120001275797,新規,0,2025-05-20,2025-05-20,創森株式会社,,株式会社,大阪府,大阪市中央区,南船場２丁目１１番４－３０６号,,27,128,5420081,,,,,,,2025-05-20,1,,,,,ソウシン,0
1328,5120001275847,新規,0,2025-05-20,2025-05-20,瑞澤商事株式会社,,株式会社,大阪府,門真市,小路２－１２クリエ門真４０７号,,27,223,5710000,,,,,,,2025-05-20,1,,,,,ミズサワショウジ,0
1329,5120001275871,新規,0,2025-05-20,2025-05-20,株式会社信道,,株式会社,大阪府,大阪市西成区,玉出西１丁目２０番１２号５０５室,,27,122,5570045,,,,,,,2025-05-20,1,,,,,シンドウ,0
1330,5120001275888,新規,0,2025-05-20,2025-05-20,株式会社大川商店,,株式会社,大阪府,大阪市城東区,成育３丁目１４番１４－１０２号,,27,118,5360007,,,,,,,2025-05-20,1,,,,,オオカワショウテン,0
1331,5120001275905,新規,0,2025-05-20,2025-05-20,株式会社ＡＮＩＭＯ,,株式会社,大阪府,大阪市東淀川区,東中島１丁目１８番３１号エスレジデンス新大阪駅前６０９号,,27,114,5330033,,,,,,,2025-05-20,1,,,,,アニモ,0
1332,5120001275913,新規,0,2025-05-20,2025-05-20,株式会社ＩＳＯリノベーション,,株式会社,大阪府,大阪市中央区,淡路町２丁目４番３号,,27,128,5410047,,,,,,,2025-05-20,1,,,,,アイエスオーリノベーション,0
1333,5120001276044,新規,0,2025-05-20,2025-05-20,株式会社Ｔｒｕｅ　Ｎｏｒｔｈ,,株式会社,大阪府,大阪市浪速区,浪速東１丁目２‐２４‐２１１,,27,111,5560025,,,,,,,2025-05-20,1,,,,,トゥルーノース,0
1338,5120005024944,新規,0,2025-05-20,2025-05-20,一般社団法人交通事故被害者支援協会人身部物損部,,その他の設立登記法人,大阪府,守口市,梶町４丁目５番１４号,,27,209,5700015,,,,,,,2025-05-20,1,,,,,コウツウジコヒガイシャシエンキョウカイジンシンブブッソンブ,0
1343,5120901050878,新規,0,2025-05-20,2025-05-20,株式会社森本,,株式会社,大阪府,箕面市,箕面７丁目６番２７号,,27,220,5620001,,,,,,,2025-05-20,1,,,,,モリモト,0
1349,5140001138341,新規,0,2025-05-20,2025-05-20,株式会社Ｃｒｅａｔｉｏｎ　ｏｆ　Ｂｅ,,株式会社,兵庫県,西宮市,甲子園二番町８－１３－４０５,,28,204,6638172,,,,,,,2025-05-20,1,,,,,クリエイションオブビー,0
1350,5140001138580,新規,0,2025-05-20,2025-05-20,株式会社Ｒｅｎｅｔａ,,株式会社,兵庫県,神戸市中央区,花隈町３番８号花隈富士マンション１０２号室,,28,110,6500013,,,,,,,2025-05-20,1,,,,,レネタ,0
1357,5150001028137,新規,0,2025-05-20,2025-05-20,株式会社いまやプランニングファーム,,株式会社,奈良県,奈良市,西ノ京町６４番地の５,,29,201,6308042,,,,,,,2025-05-20,1,,,,,イマヤプランニングファーム,0
1363,5180001166850,新規,0,2025-05-20,2025-05-20,ＯＧ　ＣＬＡＮ株式会社,,株式会社,愛知県,愛知郡東郷町,白鳥２丁目４番地２０,,23,302,4700155,,,,,,,2025-05-20,1,,,,,オージークラン,0
1387,5250001021156,新規,0,2025-05-20,2025-05-20,キャピタルアンフォールド株式会社,,株式会社,山口県,山口市,下小鯖３５４４番地１,,35,203,7530212,,,,,,,2025-05-20,1,,,,,キャピタルアンフォールド,0
1396,5290001110079,新規,0,2025-05-20,2025-05-20,株式会社ＳＤＹホールディングス,,株式会社,福岡県,福岡市博多区,諸岡４丁目１０番３号,,40,132,8120894,,,,,,,2025-05-20,1,,,,,エスディーワイホールディングス,0
1397,5290001110087,新規,0,2025-05-20,2025-05-20,株式会社スパイラル,,株式会社,福岡県,糟屋郡宇美町,宇美中央３丁目１２番２０号,,40,341,8112128,,,,,,,2025-05-20,1,,,,,スパイラル,0
1398,5290003016852,新規,0,2025-05-20,2025-05-20,合同会社ミラクルギフト,,合同会社,福岡県,糸島市,美咲が丘２丁目１４番１０号,,40,230,8191136,,,,,,,2025-05-20,1,,,,,ミラクルギフト,0
1399,5290003016860,新規,0,2025-05-20,2025-05-20,ファエラ合同会社,,合同会社,福岡県,福岡市中央区,平尾３丁目１４番６号ラフィーネ平尾２０８号,,40,133,8100014,,,,,,,2025-05-20,1,,,,,,0
1403,5310003005019,新規,0,2025-05-20,2025-05-20,宇土海事合同会社,,合同会社,長崎県,対馬市,厳原町天道茂５１８番地７,,42,209,8170014,,,,,,,2025-05-20,1,,,,,ウトカイジ,0
1417,5360001035236,新規,0,2025-05-20,2025-05-20,ストレイドッグ株式会社,,株式会社,沖縄県,宜野湾市,字我如古３８６番地６,,47,205,9012214,,,,,,,2025-05-20,1,,,,,ストレイドッグ,0
1419,5360003014923,新規,0,2025-05-20,2025-05-20,合同会社Ｍ　ＴＯＴＯ,,合同会社,沖縄県,国頭郡恩納村,字前兼久２７番地,,47,311,9040414,,,,,,,2025-05-20,1,,,,,エムトト,0
1424,5370005010960,新規,0,2025-05-20,2025-05-20,一般社団法人ｃｏｔｏｈｏｋｕ,,その他の設立登記法人,宮城県,仙台市太白区,秋保町馬場字町南３４,,04,104,9820244,,,,,,,2025-05-20,1,,,,,コトホク,0
1428,5380005012972,新規,0,2025-05-20,2025-05-20,税理士法人ステップ,,その他の設立登記法人,福島県,いわき市,平上荒川字長尾１６番地,,07,204,9708034,,,,,,,2025-05-20,1,,,,,ステップ,0
1432,5400003003459,新規,0,2025-05-20,2025-05-20,合同会社Ｓ．ｔ．Ｓ,,合同会社,岩手県,岩手郡雫石町,西根下駒木野３１番地３３,,03,301,0200584,,,,,,,2025-05-20,1,,,,,エスティーエス,0
1440,5430001094415,新規,0,2025-05-20,2025-05-20,株式会社門,,株式会社,北海道,札幌市中央区,北八条西１９丁目３５番地１８３,,01,101,0600008,,,,,,,2025-05-20,1,,,,,モン,0
1441,5430001094423,新規,0,2025-05-20,2025-05-20,株式会社カイキョー,,株式会社,北海道,札幌市豊平区,平岸三条１６丁目１番４５号,,01,105,0620933,,,,,,,2025-05-20,1,,,,,カイキョー,0
1442,5430001094431,新規,0,2025-05-20,2025-05-20,株式会社こまち園芸,,株式会社,北海道,札幌市中央区,南十四条西１７丁目２番２８号,,01,101,0640914,,,,,,,2025-05-20,1,,,,,コマチエンゲイ,0
1446,5430003017530,新規,0,2025-05-20,2025-05-20,ＤＳ　Ｉｎｄｕｓｔｒｉｅｓ合同会社,,合同会社,北海道,虻田郡ニセコ町,字近藤７４１番地６４,,01,395,0481542,,,,,,,2025-05-20,1,,,,,ディーエスインダストリーズ,0
1447,5430003017670,新規,0,2025-05-20,2025-05-20,合同会社Ｂｒｉｄｇｉａ,,合同会社,北海道,札幌市中央区,南一条西５丁目５番地北日本中央ビル９階,,01,101,0600061,,,,,,,2025-05-20,1,,,,,ブリッジア,0
1453,5500003003515,新規,0,2025-05-20,2025-05-20,合同会社ドローンアシスト愛媛,,合同会社,愛媛県,松山市,大街道３丁目４－４,,38,201,7900004,,,,,,,2025-05-20,1,,,,,,0
1458,6010001253879,新規,0,2025-05-20,2025-05-20,株式会社３６９ｅｍｐｏｗｅｒｍｅｎｔ,,株式会社,東京都,中央区,銀座３丁目４－１大倉別館５階,,13,102,1040061,,,,,,,2025-05-20,1,,,,,ミロクエンパワーメント,0
1459,6010001255116,新規,0,2025-05-20,2025-05-20,株式会社Ｆｉｅｌｄ,,株式会社,東京都,中央区,銀座１丁目２２番１１号銀座大竹ビジデンス２Ｆ,,13,102,1040061,,,,,,,2025-05-20,1,,,,,フィールド,0
1460,6010001255140,新規,0,2025-05-20,2025-05-20,Ｘ２・アセット株式会社,,株式会社,東京都,中央区,銀座１丁目５番１３号ゼットエックス銀座ビル６階,,13,102,1040061,,,,,,,2025-05-20,1,,,,,エックスツーアセット,0
1466,6010101016681,新規,0,2025-05-20,2025-05-20,株式会社杉本建設,,株式会社,東京都,八王子市,大谷町８７７番地５,,13,201,1920034,,,,,,,2025-05-20,1,,,,,スギモトケンセツ,0
1472,6010401190350,新規,0,2025-05-20,2025-05-20,株式会社ＡＣＴ　ＳＴＥＰ,,株式会社,東京都,港区,東新橋１丁目６－３ザロイヤルパークホテルアイコニック東京汐留２４Ｆ,,13,103,1050021,,,,,,,2025-05-20,1,,,,,アクトステップ,0
1473,6010401190375,新規,0,2025-05-20,2025-05-20,株式会社アクトプロ,,株式会社,東京都,港区,東新橋１丁目１番１９号,,13,103,1050021,,,,,,,2025-05-20,1,,,,,アクトプロ,0
1477,6010503007824,新規,0,2025-05-20,2025-05-20,ＭＫＴ合同会社,,合同会社,東京都,台東区,橋場１丁目２７番１０号,,13,106,1110023,,,,,,,2025-05-20,1,,,,,エムケイテイ,0
1486,6010801036153,新規,0,2025-05-20,2025-05-20,株式会社ＭＴアソシエーション,,株式会社,東京都,大田区,久が原３丁目１６番１７号,,13,111,1460085,,,,,,,2025-05-20,1,,,,,エムティアソシエーション,0
1487,6010801036161,新規,0,2025-05-20,2025-05-20,株式会社Ｌｅｇａｒｉａ,,株式会社,東京都,大田区,新蒲田１丁目１４番９号,,13,111,1440054,,,,,,,2025-05-20,1,,,,,,0
1494,6011001169925,新規,0,2025-05-20,2025-05-20,株式会社Ｈａｔｃｈ＆Ｃｏ．,,株式会社,東京都,渋谷区,円山町５番３号ＭＩＥＵＸ渋谷ビル８階,,13,113,1500044,,,,,,,2025-05-20,1,,,,,ハッチアンドカンパニー,0
1495,6011001169933,新規,0,2025-05-20,2025-05-20,ＭＯＶＩＮＧ・ＯＮ株式会社,,株式会社,東京都,渋谷区,千駄ヶ谷４丁目５番１５号ストークメイジュ４０５,,13,113,1510051,,,,,,,2025-05-20,1,,,,,ムービングオン,0
1505,6011101111737,新規,0,2025-05-20,2025-05-20,株式会社ｍＡＩｐｏ,,株式会社,東京都,新宿区,西新宿３丁目３番１３号西新宿水間ビル２Ｆ,,13,104,1600023,,,,,,,2025-05-20,1,,,,,マイポ,0
1506,6011101111778,新規,0,2025-05-20,2025-05-20,株式会社ｔｋ　ｔｈｉｒｄ,,株式会社,東京都,新宿区,新宿２丁目８番１号新宿セブンビル２０３,,13,104,1600022,,,,,,,2025-05-20,1,,,,,ティーケーサード,0
1510,6011301030588,新規,0,2025-05-20,2025-05-20,生物・スポーツ流体力学研究所株式会社,,株式会社,東京都,杉並区,浜田山１丁目７－８,,13,115,1680065,,,,,,,2025-05-20,1,,,,,セイブツスポーツリュウタイリキガク,0
1512,6011303005555,新規,0,2025-05-20,2025-05-20,合同会社ＴＡＭ,,合同会社,東京都,杉並区,成田東４丁目２４番１１号,,13,115,1660015,,,,,,,2025-05-20,1,,,,,ティーエーエム,0
1521,6011703004248,新規,0,2025-05-20,2025-05-20,合同会社バリスタバンク,,合同会社,東京都,江戸川区,中葛西３丁目１５番７－２０４号メゾン・ド・リプレット,,13,123,1340083,,,,,,,2025-05-20,1,,,,,バリスタバンク,0
1525,6012401043125,新規,0,2025-05-20,2025-05-20,株式会社Ｌｅ　Ｌｉｅｎ,,株式会社,東京都,府中市,白糸台４丁目１６番地の１２むさしの荘３０２,,13,206,1830011,,,,,,,2025-05-20,1,,,,,ルリアン,0
1545,6020001162914,新規,0,2025-05-20,2025-05-20,株式会社ベスタ,,株式会社,神奈川県,横浜市戸塚区,南舞岡４丁目２９番２５号,,14,110,2440814,,,,,,,2025-05-20,1,,,,,ベスタ,0
1549,6020003028460,新規,0,2025-05-20,2025-05-20,合同会社Ｌｏｃａｌ　Ｒｈｙｔｈｍ,,合同会社,神奈川県,川崎市川崎区,中瀬３丁目２０番１８－２１９号,,14,131,2100818,,,,,,,2025-05-20,1,,,,,ローカルリズム,0
1550,6020003028493,新規,0,2025-05-20,2025-05-20,合同会社ＮＯＲＥＳＴ,,合同会社,神奈川県,横浜市神奈川区,片倉１丁目１７番３４－５０１号室,,14,102,2210865,,,,,,,2025-05-20,1,,,,,ノーレスト,0
1551,6020003028502,新規,0,2025-05-20,2025-05-20,合同会社ＭＥＤＩ　ＧＬＯＢＡＬ,,合同会社,神奈川県,横浜市西区,北幸２丁目１０番４８号むつみビル３階,,14,103,2200004,,,,,,,2025-05-20,1,,,,,メディグローバル,0
1552,6020003028510,新規,0,2025-05-20,2025-05-20,合同会社ＭＭオフィス,,合同会社,神奈川県,横浜市港北区,大豆戸町９３１番地１グリーンコーポ大倉山Ｂ２１０,,14,109,2220032,,,,,,,2025-05-20,1,,,,,エムエムオフィス,0
1555,6021001085254,新規,0,2025-05-20,2025-05-20,株式会社エース・ワン,,株式会社,神奈川県,藤沢市,湘南台２丁目１０－５安藤ビル４Ｆ,,14,205,2520804,,,,,,,2025-05-20,1,,,,,エースワン,0
1556,6021001085279,新規,0,2025-05-20,2025-05-20,株式会社千葉工務店,,株式会社,神奈川県,横須賀市,太田和２丁目２０番６号,,14,201,2380311,,,,,,,2025-05-20,1,,,,,チバコウムテン,0
1560,6021003016026,新規,0,2025-05-20,2025-05-20,合同会社嘉楽,,合同会社,神奈川県,小田原市,南町３丁目８番２１号,,14,206,2500013,,,,,,,2025-05-20,1,,,,,カラク,0
1564,6030001166468,新規,0,2025-05-20,2025-05-20,株式会社言和,,株式会社,埼玉県,戸田市,下戸田２丁目１２－１３スカイコート戸田公園第４－３０３号,,11,224,3350011,,,,,,,2025-05-20,1,,,,,ゲンワ,0
1565,6030001166484,新規,0,2025-05-20,2025-05-20,株式会社Ｏｒｉｖａ,,株式会社,埼玉県,熊谷市,星川１丁目７６番地メゾンＭ＆Ａ星川ビル１階,,11,202,3600043,,,,,,,2025-05-20,1,,,,,オリヴァ,0
1566,6030001166542,新規,0,2025-05-20,2025-05-20,株式会社炎満,,株式会社,埼玉県,さいたま市見沼区,大字中川６２１番地８,,11,104,3370043,,,,,,,2025-05-20,1,,,,,エンマン,0
1567,6030001166575,新規,0,2025-05-20,2025-05-20,株式会社Ｐｏｎｔｏ,,株式会社,埼玉県,東松山市,新宿町１９－１６シェモア東松山２０１号室,,11,212,3550032,,,,,,,2025-05-20,1,,,,,ポント,0
1568,6030001166600,新規,0,2025-05-20,2025-05-20,株式会社ＢＢモビリティ,,株式会社,埼玉県,坂戸市,大字成願寺１０６番地１,,11,239,3500255,,,,,,,2025-05-20,1,,,,,ビービーモビリティ,0
1573,6030003026802,新規,0,2025-05-20,2025-05-20,合同会社森雅,,合同会社,埼玉県,川口市,北園町１５番２号,,11,203,3330862,,,,,,,2025-05-20,1,,,,,モリマサ,0
1575,6040001138846,新規,0,2025-05-20,2025-05-20,株式会社大木さく泉工業,,株式会社,千葉県,印西市,小林１６２４番地４,,12,231,2701318,,,,,,,2025-05-20,1,,,,,オオキサクセンコウギョウ,0
1580,6040005022773,新規,0,2025-05-20,2025-05-20,特定非営利活動法人オアシスハウス,,その他の設立登記法人,千葉県,市川市,北方町４丁目１９５９番地１２,,12,203,2720811,,,,,,,2025-05-20,1,,,,,オアシスハウス,0
1590,6050003009276,新規,0,2025-05-20,2025-05-20,合同会社ブライアン・パートナーズ,,合同会社,茨城県,つくば市,学園の森２丁目１３番地３６,,08,220,3050816,,,,,,,2025-05-20,1,,,,,ブライアンパートナーズ,0
1593,6060003005539,新規,0,2025-05-20,2025-05-20,合同会社ミアライズ,,合同会社,栃木県,下野市,小金井１７７６,,09,216,3290414,,,,,,,2025-05-20,1,,,,,ミアライズ,0
1599,6090001019281,新規,0,2025-05-20,2025-05-20,サンライズ株式会社,,株式会社,山梨県,南都留郡山中湖村,平野２１９７番地の１１４５芙蓉台６０６,,19,425,4010502,,,,,,,2025-05-20,1,,,,,サンライズ,0
1601,6100003008165,新規,0,2025-05-20,2025-05-20,合同会社まゆしょう,,合同会社,長野県,安曇野市,穂高柏原１０３３番地１５,,20,220,3998304,,,,,,,2025-05-20,1,,,,,マユショウ,0
1602,6100005013353,新規,0,2025-05-20,2025-05-20,一般社団法人長野県地域多文化共生協会,,その他の設立登記法人,長野県,伊那市,上の原８４２４番地６,,20,209,3960008,,,,,,,2025-05-20,1,,,,,ナガノケンチイキタブンカキョウセイキョウカイ,0
1610,6120001275243,新規,0,2025-05-20,2025-05-20,株式会社ライフホーム,,株式会社,大阪府,大阪市福島区,海老江４丁目３番６－４０２号,,27,103,5530001,,,,,,,2025-05-20,1,,,,,ライフホーム,0
1611,6120001275680,新規,0,2025-05-20,2025-05-20,株式会社りょう会計アシスト,,株式会社,大阪府,大阪市北区,天神橋１丁目１１番１４号天神ビル２０３号,,27,127,5300041,,,,,,,2025-05-20,1,,,,,リョウカイケイアシスト,0
1612,6120001275796,新規,0,2025-05-20,2025-05-20,楽嘉株式会社,,株式会社,大阪府,大阪市東住吉区,照ケ丘矢田３丁目２－８,,27,121,5460021,,,,,,,2025-05-20,1,,,,,ラクヨシ,0
1613,6120001275838,新規,0,2025-05-20,2025-05-20,株式会社Ｆｌａｓｈ　Ｎｏ．,,株式会社,大阪府,大阪市城東区,鴫野西２丁目１４－６,,27,118,5360014,,,,,,,2025-05-20,1,,,,,フラッシュナンバー,0
1614,6120001275846,新規,0,2025-05-20,2025-05-20,金比羅商事株式会社,,株式会社,大阪府,門真市,向島町１２－９コムズスクエア向島３０２号室,,27,223,5710051,,,,,,,2025-05-20,1,,,,,コンピラショウジ,0
1615,6120001275862,新規,0,2025-05-20,2025-05-20,株式会社ポリバレント,,株式会社,大阪府,守口市,南寺方東通３丁目３番１３号,,27,209,5700043,,,,,,,2025-05-20,1,,,,,ポリバレント,0
1616,6120001275887,新規,0,2025-05-20,2025-05-20,株式会社ＬＩＰ‐Ｈｏｏｋ,,株式会社,大阪府,大阪市旭区,生江１丁目６番２６号,,27,117,5350004,,,,,,,2025-05-20,1,,,,,リップホック,0
1617,6120001275904,新規,0,2025-05-20,2025-05-20,株式会社クララ,,株式会社,大阪府,大阪市東成区,東小橋１丁目７番２３号,,27,115,5370024,,,,,,,2025-05-20,1,,,,,クララ,0
1618,6120001275920,新規,0,2025-05-20,2025-05-20,景宏株式会社,,株式会社,大阪府,大阪市中央区,島之内１丁目１１番２９－２０１号,,27,128,5420082,,,,,,,2025-05-20,1,,,,,ケイコウ,0
1619,6120001275929,新規,0,2025-05-20,2025-05-20,株式会社ＳＯＬＤ　ＯＵＴ,,株式会社,大阪府,大阪市北区,天神橋１丁目１２番１５号,,27,127,5300041,,,,,,,2025-05-20,1,,,,,ソールドアウト,0
1620,6120001276027,新規,0,2025-05-20,2025-05-20,株式会社虎吉,,株式会社,大阪府,大阪市港区,市岡１丁目１３番５号,,27,107,5520012,,,,,,,2025-05-20,1,,,,,トラキチ,0
1623,6120003029465,新規,0,2025-05-20,2025-05-20,大観堂合同会社,,合同会社,大阪府,枚方市,伊加賀北町５番１３－２０６号,,27,210,5730036,,,,,,,2025-05-20,1,,,,,ダイカンドウ,0
1624,6120003029515,新規,0,2025-05-20,2025-05-20,日本橋建物合同会社,,合同会社,大阪府,大阪市浪速区,難波中１丁目１番１号,,27,111,5560011,,,,,,,2025-05-20,1,,,,,ニッポンバシタテモノ,0
1626,6120005024943,新規,0,2025-05-20,2025-05-20,一般社団法人西日本ブラジリアン柔術連盟,,その他の設立登記法人,大阪府,大阪市中央区,瓦町１丁目５－１エクシード瓦町５０５,,27,128,5410048,,,,,,,2025-05-20,1,,,,,ニシニホンブラジリアンジュウジュツレンメイ,0
1627,6120101071699,新規,0,2025-05-20,2025-05-20,株式会社太陽,,株式会社,大阪府,堺市北区,北花田町２丁１２番地１（１０８号）,,27,146,5918002,,,,,,,2025-05-20,1,,,,,タイヨウ,0
1633,6130001079701,新規,0,2025-05-20,2025-05-20,株式会社ガブリ,,株式会社,京都府,宇治市,大久保町旦椋１３０番地の１４,,26,204,6110033,,,,,,,2025-05-20,1,,,,,ガブリ,0
1637,6140001138588,新規,0,2025-05-20,2025-05-20,株式会社Ｌｅａｐ　Ｓｅｅｄ,,株式会社,兵庫県,三田市,富士が丘５丁目２３番地１２,,28,219,6691547,,,,,,,2025-05-20,1,,,,,リープシード,0
1653,6180001166866,新規,0,2025-05-20,2025-05-20,株式会社Ｆｒｏｇレッカー,,株式会社,愛知県,一宮市,浅井町大野字中土山５９番地,,23,203,4910143,,,,,,,2025-05-20,1,,,,,フロッグレッカー,0
1666,6200001043798,新規,0,2025-05-20,2025-05-20,ＡＬＧＡＥＮＩＴＹ株式会社,,株式会社,岐阜県,岐阜市,花月町２丁目２９番地２,,21,201,5008128,,,,,,,2025-05-20,1,,,,,アルジェニティ,0
1671,6220003003963,新規,0,2025-05-20,2025-05-20,合同会社Ｔ‐Ｍｅｔａｌ,,合同会社,石川県,金沢市,此花町５番６号ライフ金沢第１ビル６０１Ａ,,17,201,9200852,,,,,,,2025-05-20,1,,,,,ティーメタル,0
1678,6240003007211,新規,0,2025-05-20,2025-05-20,合同会社エイジー,,合同会社,広島県,福山市,神辺町川南４６５番地１０,,34,207,7210000,,,,,,,2025-05-20,1,,,,,エイジー,0
1683,6260001040204,新規,0,2025-05-20,2025-05-20,株式会社楠木商店,,株式会社,岡山県,岡山市北区,白石西新町４番地１１４,,33,101,7010142,,,,,,,2025-05-20,1,,,,,クスノキショウテン,0
1691,6290001110078,新規,0,2025-05-20,2025-05-20,ＡＺＵＬ株式会社,,株式会社,福岡県,福岡市西区,田尻１丁目１４番１１－２０１号,,40,135,8190383,,,,,,,2025-05-20,1,,,,,アジュール,0
1693,6290003016538,新規,0,2025-05-20,2025-05-20,合同会社ワークフロー,,合同会社,福岡県,福岡市早良区,田村５丁目２７－４,,40,137,8140175,,,,,,,2025-05-20,1,,,,,ワークフロー,0
1695,6290803005054,新規,0,2025-05-20,2025-05-20,合同会社ＲＭＣ,,合同会社,福岡県,北九州市小倉北区,米町１丁目１‐１小倉駅前ひびきビル６階,,40,106,8020003,,,,,,,2025-05-20,1,,,,,アールエムシー,0
1702,6340001027341,新規,0,2025-05-20,2025-05-20,株式会社龍の籠,,株式会社,鹿児島県,大島郡龍郷町,龍郷１５５１,,46,527,8940321,,,,,,,2025-05-20,1,,,,,リュウノカゴ,0
1719,6380005012971,新規,0,2025-05-20,2025-05-20,特定非営利活動法人Ｗｉｔｈみらい,,その他の設立登記法人,福島県,白河市,旗宿関ノ里４２番地,,07,205,9610038,,,,,,,2025-05-20,1,,,,,ウィズミライ,0
1720,6400001017039,新規,0,2025-05-20,2025-05-20,株式会社盛岡藝術舎,,株式会社,岩手県,盛岡市,材木町４番３０号,,03,201,0200063,,,,,,,2025-05-20,1,,,,,モリオカゲイジュツシャ,0
1722,6400003003458,新規,0,2025-05-20,2025-05-20,Ｈａｒｐｉａ　Ｐａｒｔｎｅｒｓ合同会社,,合同会社,岩手県,盛岡市,中央通１丁目７－３５コアフィールドモリオカ１Ｆ,,03,201,0200021,,,,,,,2025-05-20,1,,,,,ハルピアパートナーズ,0
1729,6430001094406,新規,0,2025-05-20,2025-05-20,株式会社クロラボ,,株式会社,北海道,札幌市豊平区,美園一条５丁目２番１－５０６号,,01,105,0620001,,,,,,,2025-05-20,1,,,,,クロラボ,0
1730,6430001094422,新規,0,2025-05-20,2025-05-20,株式会社ＮＥＷ　ＬＯＯＫ,,株式会社,北海道,札幌市豊平区,豊平六条１０丁目５番１２号ＲＩＴＺＧＲＡＮＤＥ豊平公園４０３,,01,105,0620906,,,,,,,2025-05-20,1,,,,,ニュールック,0
1731,6430001094439,新規,0,2025-05-20,2025-05-20,株式会社Ｉｓ　ｉｓイズ,,株式会社,北海道,札幌市北区,北七条西４丁目１番地１トーカン札幌第一キャステール６０７,,01,102,0600807,,,,,,,2025-05-20,1,,,,,イズイズイズ,0
1735,6440003001689,新規,0,2025-05-20,2025-05-20,合同会社ＳＵＮＺ,,合同会社,北海道,函館市,宇賀浦町１９番２号,,01,202,0400023,,,,,,,2025-05-20,1,,,,,サンズ,0
1737,6460103001711,新規,0,2025-05-20,2025-05-20,合同会社さんさんと,,合同会社,北海道,河東郡音更町,大通１２丁目１５番地,,01,631,0800101,,,,,,,2025-05-20,1,,,,,サンサント,0
1742,6500003003514,新規,0,2025-05-20,2025-05-20,合同会社ｓａｔｕｋｉ,,合同会社,愛媛県,松山市,新石手甲２４５番地３ブルームコート１０１号,,38,201,7900901,,,,,,,2025-05-20,1,,,,,サツキ,0
1744,6700150130578,新規,0,2025-05-20,2025-05-20,Ｍ　Ｎ　Ｍ　ＳＰＡＲＥ　ＰＡＲＴＳ,,外国会社等,千葉県,大網白里市,北吉田３８２番地４－Ｂ,,12,239,2993216,スリランカ民主社会主義共和国、カトゥガストタ、マダワラロード、Ｎｏ．１７１,,,,,,2025-05-20,1,,,,,エムエヌエムスペアパーツ,0
1756,7010001255032,新規,0,2025-05-20,2025-05-20,株式会社ＡＩＤＥＮＣＥ,,株式会社,東京都,千代田区,丸の内１丁目６－５丸の内北口ビルディング９Ｆ,,13,101,1000005,,,,,,,2025-05-20,1,,,,,エイデンス,0
1757,7010001255107,新規,0,2025-05-20,2025-05-20,株式会社結び家,,株式会社,東京都,中央区,銀座１丁目１２番４号Ｎ＆ＥＢＬＤ．６Ｆ,,13,102,1040061,,,,,,,2025-05-20,1,,,,,ムスビヤ,0
1764,7010401190358,新規,0,2025-05-20,2025-05-20,株式会社ＡＩＭ,,株式会社,東京都,港区,麻布十番３丁目１０番２号,,13,103,1060045,,,,,,,2025-05-20,1,,,,,エイム,0
1765,7010401190390,新規,0,2025-05-20,2025-05-20,Ｅｒａ　Ｍｏｂｉｌｉｔｙ　Ｐａｒｔｎｅｒｓ株式会社,,株式会社,東京都,港区,北青山１丁目３‐３三橋ビル３階,,13,103,1070061,,,,,,,2025-05-20,1,,,,,エラモビリティパートナーズ,0
1766,7010401190399,新規,0,2025-05-20,2025-05-20,株式会社グレスミー,,株式会社,東京都,港区,南青山２丁目２番１５号ＷｉｎＡｏｙａｍａビルＵＣＦ６３５,,13,103,1070062,,,,,,,2025-05-20,1,,,,,グレスミー,0
1773,7010601067323,新規,0,2025-05-20,2025-05-20,株式会社両国内職,,株式会社,東京都,墨田区,石原２丁目３－４成田ビル１Ｆ,,13,107,1300011,,,,,,,2025-05-20,1,,,,,リョウゴクナイショク,0
1777,7010701047720,新規,0,2025-05-20,2025-05-20,株式会社ＮＳＫ,,株式会社,東京都,品川区,上大崎４丁目１番１－１１０４号,,13,109,1410021,,,,,,,2025-05-20,1,,,,,エヌエスケイ,0
1781,7010801036144,新規,0,2025-05-20,2025-05-20,株式会社ゲラッパ,,株式会社,東京都,大田区,西蒲田７丁目４８番３号大越ビル３階,,13,111,1440051,,,,,,,2025-05-20,1,,,,,ゲラッパ,0
1783,7010901057379,新規,0,2025-05-20,2025-05-20,株式会社リヴァース,,株式会社,東京都,世田谷区,三軒茶屋２丁目２１番１４号,,13,112,1540024,,,,,,,2025-05-20,1,,,,,リヴァース,0
1788,7011001169437,新規,0,2025-05-20,2025-05-20,極ＡＩ株式会社,,株式会社,東京都,渋谷区,道玄坂１丁目１６－６,,13,113,1500043,,,,,,,2025-05-20,1,,,,,キワミエーアイ,0
1792,7011003021736,新規,0,2025-05-20,2025-05-20,合同会社東洋ＤＥＸ,,合同会社,東京都,目黒区,自由が丘２丁目１６番１２号ＲＪ３,,13,110,1520035,,,,,,,2025-05-20,1,,,,,トウヨウデックス,0
1795,7011101111769,新規,0,2025-05-20,2025-05-20,株式会社ＫＩＺＵＮＡ,,株式会社,東京都,新宿区,高田馬場４丁目４－３４第二ＡＲＳビル１Ｆ,,13,104,1690075,,,,,,,2025-05-20,1,,,,,キズナ,0
1798,7011103015885,新規,0,2025-05-20,2025-05-20,合同会社一色スタジオ,,合同会社,東京都,新宿区,西新宿３丁目３番１３号西新宿水間ビル６階,,13,104,1600023,,,,,,,2025-05-20,1,,,,,イッシキスタジオ,0
1799,7011103015893,新規,0,2025-05-20,2025-05-20,合同会社ＯＲＢＹ,,合同会社,東京都,新宿区,西新宿３丁目３番１３号西新宿水間ビル２Ｆ,,13,104,1600023,,,,,,,2025-05-20,1,,,,,オービー,0
1800,7011103015919,新規,0,2025-05-20,2025-05-20,合同会社かい速,,合同会社,東京都,新宿区,西新宿３丁目３番１３号,,13,104,1600023,,,,,,,2025-05-20,1,,,,,カイソク,0
1806,7011501032078,新規,0,2025-05-20,2025-05-20,株式会社ドラコ,,株式会社,東京都,北区,西ケ原１丁目１１番３号ランカスター１階,,13,117,1140024,,,,,,,2025-05-20,1,,,,,ドラコ,0
1810,7011601028653,新規,0,2025-05-20,2025-05-20,株式会社ＪＭＰ,,株式会社,東京都,練馬区,上石神井１丁目５番５－４０１号,,13,120,1770044,,,,,,,2025-05-20,1,,,,,ジェイエムピー,0
1812,7011703004247,新規,0,2025-05-20,2025-05-20,合同会社Ｆｌｉｃｏ,,合同会社,東京都,江戸川区,西一之江３丁目３９番１８－１０２号ライフガーデン西一之江,,13,123,1320023,,,,,,,2025-05-20,1,,,,,フリコ,0
1814,7011801046133,新規,0,2025-05-20,2025-05-20,神沢商事株式会社,,株式会社,東京都,足立区,足立３丁目１３番１１－２０１号,,13,121,1200015,,,,,,,2025-05-20,1,,,,,カミザワショウジ,0
1821,7012401043116,新規,0,2025-05-20,2025-05-20,株式会社ウェルクローバー,,株式会社,東京都,小金井市,緑町２丁目１番２３号,,13,210,1840003,,,,,,,2025-05-20,1,,,,,ウェルクローバー,0
1822,7012401043124,新規,0,2025-05-20,2025-05-20,株式会社ビズワーク,,株式会社,東京都,三鷹市,上連雀６丁目１９番１５号,,13,204,1810012,,,,,,,2025-05-20,1,,,,,ビズワーク,0
1830,7013301054269,新規,0,2025-05-20,2025-05-20,株式会社バヤシラボ,,株式会社,東京都,豊島区,巣鴨１丁目２９番７号,,13,116,1700002,,,,,,,2025-05-20,1,,,,,バヤシラボ,0
1839,7020001162896,新規,0,2025-05-20,2025-05-20,株式会社イー・ピー・アイ,,株式会社,神奈川県,川崎市宮前区,馬絹４丁目３３番４８号,,14,136,2160035,,,,,,,2025-05-20,1,,,,,イーピーアイ,0
1840,7020001162946,新規,0,2025-05-20,2025-05-20,株式会社ビルド,,株式会社,神奈川県,横浜市鶴見区,北寺尾４丁目２８番１７号,,14,101,2300074,,,,,,,2025-05-20,1,,,,,ビルド,0
1851,7020003028492,新規,0,2025-05-20,2025-05-20,キオレメディカル合同会社,,合同会社,神奈川県,川崎市幸区,新川崎７番７号ＫＢＩＣ本館２０７,,14,132,2120032,,,,,,,2025-05-20,1,,,,,キオレメディカル,0
1852,7020003028518,新規,0,2025-05-20,2025-05-20,合同会社ラフメイカー,,合同会社,神奈川県,川崎市川崎区,南町１５番地５ジェノヴィア川崎ＶＩＩ８０３,00139223,14,131,2100015,,,,,,,2025-05-20,1,,,,,ラフメイカー,0
1853,7020005016859,新規,0,2025-05-20,2025-05-20,一般社団法人自転車物流イノベーション協議会,,その他の設立登記法人,神奈川県,横浜市西区,戸部町３丁目７１番地,,14,103,2200042,,,,,,,2025-05-20,1,,,,,ジテンシャブツリュウイノベーションキョウギカイ,0
1859,7021001085253,新規,0,2025-05-20,2025-05-20,株式会社寿栄,,株式会社,神奈川県,平塚市,東中原２丁目１番１７号,,14,203,2540077,,,,,,,2025-05-20,1,,,,,ジュエイ,0
1861,7021003015951,新規,0,2025-05-20,2025-05-20,合同会社マイアミ７７,,合同会社,神奈川県,藤沢市,辻堂３丁目６－３,,14,205,2510047,,,,,,,2025-05-20,1,,,,,マイアミセブンティセブン,0
1862,7021003016025,新規,0,2025-05-20,2025-05-20,Ｏｄｏｌ合同会社,,合同会社,神奈川県,藤沢市,鵠沼石上１丁目７－８ビッグライズビル５Ｆ,,14,205,2510025,,,,,,,2025-05-20,1,,,,,オドル,0
1863,7021003016033,新規,0,2025-05-20,2025-05-20,ＦＴＣ合同会社,,合同会社,神奈川県,小田原市,南町１丁目５番６ー１号,,14,206,2500013,,,,,,,2025-05-20,1,,,,,エフティーシー,0
1870,7030001166616,新規,0,2025-05-20,2025-05-20,ＡＹＡ株式会社,,株式会社,埼玉県,深谷市,岡２丁目３１番３,,11,218,3690201,,,,,,,2025-05-20,1,,,,,アヤ,0
1871,7030001166624,新規,0,2025-05-20,2025-05-20,株式会社トップロード,,株式会社,埼玉県,羽生市,東１丁目２番３４号,,11,216,3480052,,,,,,,2025-05-20,1,,,,,トップロード,0
1879,7030005022170,新規,0,2025-05-20,2025-05-20,一般社団法人近代情報研究会,,その他の設立登記法人,埼玉県,川越市,岸町３丁目３番地２４,,11,201,3501131,,,,,,,2025-05-20,1,,,,,キンダイジョウホウケンキュウカイ,0
1883,7040001138845,新規,0,2025-05-20,2025-05-20,株式会社ＥＶＥＲ　ＢＡＳＥ,,株式会社,千葉県,船橋市,田喜野井１丁目４０－１５サンハイム２号,,12,204,2740073,,,,,,,2025-05-20,1,,,,,エバーベース,0
1884,7040001138853,新規,0,2025-05-20,2025-05-20,株式会社ＹＵＡＫＥ,,株式会社,千葉県,柏市,柏２８７番地２８,,12,217,2770005,,,,,,,2025-05-20,1,,,,,ユアケ,0
1886,7040003027591,新規,0,2025-05-20,2025-05-20,合同会社柏葉,,合同会社,千葉県,松戸市,八ケ崎６丁目５６番地１２,,12,207,2700023,,,,,,,2025-05-20,1,,,,,ハクヨウ,0
1887,7040003027617,新規,0,2025-05-20,2025-05-20,ＡＹＳ　ＴＲＡＤＩＮＧ合同会社,,合同会社,千葉県,八街市,朝日３７０番地１コーポ朝日Ｉ－２０１,00139229,12,230,2891101,,,,,,,2025-05-20,1,,,,,エイワイエストレーディング,0
1904,7070001042945,新規,0,2025-05-20,2025-05-20,株式会社ネジケン,,株式会社,群馬県,高崎市,金古町２１５６番地３,,10,202,3703511,,,,,,,2025-05-20,1,,,,,ネジケン,0
1908,7080405007741,新規,0,2025-05-20,2025-05-20,一般社団法人ペットストレスフリートリミング協会,,その他の設立登記法人,静岡県,袋井市,方丈４丁目３番地の３７,,22,216,4370022,,,,,,,2025-05-20,1,,,,,ペットストレスフリートリミングキョウカイ,0
1913,7110003005755,新規,0,2025-05-20,2025-05-20,合同会社Ｋ・Ｋ・Ｎ,,合同会社,新潟県,新潟市中央区,関屋田町１丁目２３番地第３８礎アパート１階,,15,103,9518136,,,,,,,2025-05-20,1,,,,,ケーケーエヌ,0
1922,7120001275738,新規,0,2025-05-20,2025-05-20,株式会社Ｌａ　ｃｈａｎｃｅ,,株式会社,大阪府,大阪市中央区,西心斎橋２丁目４番１７号３階,,27,128,5420086,,,,,,,2025-05-20,1,,,,,ラシャンス,0
1923,7120001275853,新規,0,2025-05-20,2025-05-20,喜福株式会社,,株式会社,大阪府,大阪市東成区,大今里西３丁目１８番２１号シャトーミユキ１０２室,,27,115,5370014,,,,,,,2025-05-20,1,,,,,キフク,0
1924,7120001275886,新規,0,2025-05-20,2025-05-20,環易達株式会社,,株式会社,大阪府,大阪市都島区,内代町１丁目４－１０ＲＯＣＡ都島４０２号,,27,102,5340013,,,,,,,2025-05-20,1,,,,,カンイタツ,0
1925,7120001275894,新規,0,2025-05-20,2025-05-20,晟毅株式会社,,株式会社,大阪府,大阪市港区,夕凪１丁目１６番２１－３０１号,,27,107,5520004,,,,,,,2025-05-20,1,,,,,アキタケ,0
1926,7120001275928,新規,0,2025-05-20,2025-05-20,株式会社フレキシブル,,株式会社,大阪府,大阪市住吉区,殿辻１丁目２番２７号メゾンド福島１０３,00139224,27,120,5580042,,,,,,,2025-05-20,1,,,,,フレキシブル,0
1927,7120001275969,新規,0,2025-05-20,2025-05-20,株式会社ＫＩＤＳ　ＬＡＢＯ,,株式会社,大阪府,大阪市平野区,西脇４丁目６番１号グランドムール平野１階,,27,126,5470035,,,,,,,2025-05-20,1,,,,,キッズラボ,0
1928,7120001276034,新規,0,2025-05-20,2025-05-20,ＪＷＴ株式会社,,株式会社,大阪府,大阪市阿倍野区,丸山通１丁目５－２－２０２号,,27,119,5450042,,,,,,,2025-05-20,1,,,,,ジェイダブルティー,0
1931,7120005024942,新規,0,2025-05-20,2025-05-20,一般社団法人花耀会,,その他の設立登記法人,大阪府,大阪市北区,梅田１丁目１番３号大阪駅前第３ビル１８階,,27,127,5300001,,,,,,,2025-05-20,1,,,,,カヨウカイ,0
1933,7120101071681,新規,0,2025-05-20,2025-05-20,株式会社ＳＨＩＮＳＯ,,株式会社,大阪府,羽曳野市,桃山台１丁目７番１２号,,27,222,5830873,,,,,,,2025-05-20,1,,,,,シンソウ,0
1940,7120905006734,新規,0,2025-05-20,2025-05-20,ＮＰＯ法人Ｃｏｄｅ　ｆｏｒ　ＩＫＥＤＡ,,その他の設立登記法人,大阪府,池田市,室町４－４９ＣＯＺＹ室町１Ｆ,,27,204,5630047,,,,,,,2025-05-20,1,,,,,コードフォーイケダ,0
1943,7130003010472,新規,0,2025-05-20,2025-05-20,合同会社ハピネス,,合同会社,京都府,京都市伏見区,淀美豆町２６５番地１０,,26,109,6130916,,,,,,,2025-05-20,1,,,,,ハピネス,0
1949,7140003022070,新規,0,2025-05-20,2025-05-20,東方紅合同会社,,合同会社,兵庫県,洲本市,金屋４５０番地,,28,205,6560046,,,,,,,2025-05-20,1,,,,,トウホウコウ,0
1950,7140003022079,新規,0,2025-05-20,2025-05-20,合同会社Ｗｈｏｌｅ　Ｎｅｗ,,合同会社,兵庫県,洲本市,上物部５５６－４,,28,205,6560053,,,,,,,2025-05-20,1,,,,,ホールニュー,0
1958,7180001166799,新規,0,2025-05-20,2025-05-20,株式会社ＪＩＮＥＮ,,株式会社,愛知県,稲沢市,祖父江町三丸渕中屋敷１６番地３,,23,220,4950021,,,,,,,2025-05-20,1,,,,,ジネン,0
1959,7180001166873,新規,0,2025-05-20,2025-05-20,株式会社ＴＨ福寿,,株式会社,愛知県,丹羽郡大口町,伝右２丁目２０３番地,,23,361,4800126,,,,,,,2025-05-20,1,,,,,ティーエイチフクジュ,0
1965,7180003028469,新規,0,2025-05-20,2025-05-20,合同会社あいむＨｏｍｅ,,合同会社,愛知県,名古屋市天白区,原１丁目１６１６番地,,23,116,4680015,,,,,,,2025-05-20,1,,,,,アイムホーム,0
1966,7180003028485,新規,0,2025-05-20,2025-05-20,合同会社ＧＳカンパニー,,合同会社,愛知県,名古屋市東区,芳野１丁目１４番１号サムティイースト白壁３Ｂ号,,23,102,4610027,,,,,,,2025-05-20,1,,,,,ジーエスカンパニー,0
1978,7200001043797,新規,0,2025-05-20,2025-05-20,いび防災株式会社,,株式会社,岐阜県,大垣市,林町７丁目２６９番地４,,21,202,5030015,,,,,,,2025-05-20,1,,,,,イビボウサイ,0
1980,7200003006835,新規,0,2025-05-20,2025-05-20,Ｊ＆Ｃ　Ｊａｐａｎ合同会社,,合同会社,岐阜県,岐阜市,真砂町７丁目１３‐２佐野ビル２階,,21,201,5008864,,,,,,,2025-05-20,1,,,,,ジェイアンドシージャパン,0
1982,7220001026692,新規,0,2025-05-20,2025-05-20,ＭＹＣＯＯＫホールディングス株式会社,,株式会社,石川県,白山市,倉部町２０１６番地,,17,210,9240007,,,,,,,2025-05-20,1,,,,,マイコックホールディングス,0
2005,7290001110028,新規,0,2025-05-20,2025-05-20,株式会社ケミタリー,,株式会社,福岡県,福岡市中央区,天神２丁目２番１２号Ｔ＆Ｊビルディング７Ｆ,,40,133,8100001,,,,,,,2025-05-20,1,,,,,ケミタリー,0
2006,7290001110060,新規,0,2025-05-20,2025-05-20,株式会社ミライクリエイト,,株式会社,福岡県,糸島市,前原北２丁目８番１９号,,40,230,8191118,,,,,,,2025-05-20,1,,,,,ミライクリエイト,0
2007,7290001110069,新規,0,2025-05-20,2025-05-20,エヌズカンパニー株式会社,,株式会社,福岡県,福岡市博多区,中洲２丁目５番２０号,,40,132,8100801,,,,,,,2025-05-20,1,,,,,,0
2008,7290001110077,新規,0,2025-05-20,2025-05-20,株式会社とりら,,株式会社,福岡県,福岡市南区,寺塚２丁目１番１３号,,40,134,8150074,,,,,,,2025-05-20,1,,,,,トリラ,0
2010,7290003016859,新規,0,2025-05-20,2025-05-20,合同会社ＷｈｉｔｅＨｅａｄ,,合同会社,福岡県,飯塚市,太郎丸１１３５－１３,,40,205,8200076,,,,,,,2025-05-20,1,,,,,,0
2011,7290003016867,新規,0,2025-05-20,2025-05-20,合同会社Ｌｉｂｒａ,,合同会社,福岡県,福岡市南区,老司４丁目２０番２８－３０２号,,40,134,8111346,,,,,,,2025-05-20,1,,,,,リブラ,0
2018,7330001033216,新規,0,2025-05-20,2025-05-20,株式会社ＡＭＪ．ＬＩＭＩＴＥＤ,,株式会社,熊本県,熊本市中央区,南千反畑町１３番１－７０３号,,43,101,8600842,,,,,,,2025-05-20,1,,,,,エイエムジェイリミテッド,0
2021,7330003011013,新規,0,2025-05-20,2025-05-20,合同会社ｍａｈｉｒｏ,,合同会社,熊本県,合志市,豊岡２１４６番地８４,,43,216,8611115,,,,,,,2025-05-20,1,,,,,マヒロ,0
2026,7350001019535,新規,0,2025-05-20,2025-05-20,株式会社Ｃｒｅａｔｅ　ＭＩＲＡＩ,,株式会社,宮崎県,都城市,天神町１８街区８号Ｎｏａｈ天神９０１,,45,202,8850031,,,,,,,2025-05-20,1,,,,,クリエイトミライ,0
2033,7380001035323,新規,0,2025-05-20,2025-05-20,ティーエムテック株式会社,,株式会社,福島県,いわき市,内郷高坂町大平９４番地の１２,,07,204,9738408,,,,,,,2025-05-20,1,,,,,ティーエムテック,0
2036,7380005012970,新規,0,2025-05-20,2025-05-20,ＩＴＣ南とうほく事業協同組合,,その他の設立登記法人,福島県,福島市,三河南町１番２０号コラッセふくしま２階,,07,201,9608053,,,,,,,2025-05-20,1,,,,,アイティーシーミナミトウホク,0
2040,7430001094438,新規,0,2025-05-20,2025-05-20,株式会社Ｃｏｍｅｓ・Ｃｏｎｓｔｒｕｃｔｉｏｎ,,株式会社,北海道,札幌市東区,北十八条東１６丁目２番７号,,01,103,0650018,,,,,,,2025-05-20,1,,,,,カムズコンストラクション,0
2042,7430003017677,新規,0,2025-05-20,2025-05-20,合同会社Ｍｅｏｗ’ｓ　Ｏｖｅｎ,,合同会社,北海道,千歳市,清水町６丁目１５番地の３,,01,224,0660041,,,,,,,2025-05-20,1,,,,,ミャオズオーブン,0
2052,7500003003513,新規,0,2025-05-20,2025-05-20,合同会社達磨商会,,合同会社,愛媛県,松山市,北条辻２０５番地,00139217,38,201,7992430,,,,,,,2025-05-20,1,,,,,ダルマショウカイ,0
2053,7700150130577,新規,0,2025-05-20,2025-05-20,Ｆ．Ｒ．ＥＮＴＥＲＰＲＩＳＥＳ,,外国会社等,千葉県,八街市,用草１２８２－１,,12,230,2891138,スリランカ民主社会主義共和国、Ｎｏ．２５、ラウリースロード、コロンボ－４,,,,,,2025-05-20,1,,,,,エフアールエンタープライズ,0
2054,7700150130585,新規,0,2025-05-20,2025-05-20,ＲＡＹＹＡＮ　ＥＮＴＥＲＰＲＩＳＥＳ　ＰＲＩＶＡＴＥ　ＬＩＭＩＴＥＤ,,外国会社等,千葉県,八街市,東吉田７２５番地ビジネスオフィス４５号,,12,230,2891114,スリランカ民主社会主義共和国、キャンディ、アンバテンナ、ムッレガマ、３０２／２,,,,,,2025-05-20,1,,,,,ライヤンエンタープライズプライベートリミテツド,0
2063,8010001255106,新規,0,2025-05-20,2025-05-20,スマイルコンバイン株式会社,,株式会社,東京都,千代田区,麹町２丁目１番地ＰＭＯ半蔵門ビル２Ｆ,,13,101,1020083,,,,,,,2025-05-20,1,,,,,スマイルコンバイン,0
2064,8010001255122,新規,0,2025-05-20,2025-05-20,株式会社ビーエフテック,,株式会社,東京都,中央区,東日本橋２丁目２８番４号日本橋ＣＥＴビル２階,,13,102,1030004,,,,,,,2025-05-20,1,,,,,ビーエフテック,0
2065,8010001255155,新規,0,2025-05-20,2025-05-20,Ｎａｎｄａｒｙ　Ｃａｎｄａｒｙ株式会社,,株式会社,東京都,千代田区,神田須田町１丁目７番８号ＶＯＲＴ秋葉原ＩＶ２Ｆ,00139220,13,101,1010041,,,,,,,2025-05-20,1,,,,,ナンダリーカンダリー,0
2067,8010003047385,新規,0,2025-05-20,2025-05-20,Ｊｏｉｍｕ合同会社,,合同会社,東京都,文京区,千石４丁目１４番９号,,13,105,1120011,,,,,,,2025-05-20,1,,,,,ジョイム,0
2073,8010401190332,新規,0,2025-05-20,2025-05-20,Ｏｐｅｎ　Ｃｕｒｅ株式会社,,株式会社,東京都,港区,麻布台１丁目３番１号麻布台ヒルズ森ＪＰタワー２７階,,13,103,1060041,,,,,,,2025-05-20,1,,,,,オープンキュア,0
2077,8010405024338,新規,0,2025-05-20,2025-05-20,ＭＦ４ＪＰＮ７特定目的会社,,その他の設立登記法人,東京都,港区,虎ノ門３丁目２２番１０－２０１号,,13,103,1050001,,,,,,,2025-05-20,1,,,,,エムエフフォージェイピーエヌセブン,0
2087,8010901057386,新規,0,2025-05-20,2025-05-20,株式会社Ｒｏｕｔｅ　ｂｌａｎｃｈｅ,,株式会社,東京都,世田谷区,太子堂４丁目１８－１５マガザン三軒茶屋２・３Ｆ－３,,13,112,1540004,,,,,,,2025-05-20,1,,,,,ルートブランシュ,0
2092,8011001169460,新規,0,2025-05-20,2025-05-20,ＳＨＥＧＲＥＥＮ株式会社,,株式会社,東京都,渋谷区,猿楽町７番１号２１４,,13,113,1500033,,,,,,,2025-05-20,1,,,,,シーグリーン,0
2097,8011105011444,新規,0,2025-05-20,2025-05-20,一般社団法人Ｎａｍｂａ　Ｓｏｕｔｈ　Ｂｕｉｌｄｉｎｇ,,その他の設立登記法人,東京都,新宿区,四谷２丁目９番地１５東京ユナイテッド綜合事務所内,,13,104,1600004,,,,,,,2025-05-20,1,,,,,ナンバサウスビルディング,0
2098,8011105011452,新規,0,2025-05-20,2025-05-20,一般社団法人ジェイ・エイチ・エックス,,その他の設立登記法人,東京都,新宿区,下宮比町１番４号,,13,104,1620822,,,,,,,2025-05-20,1,,,,,ジェイエイチエックス,0
2101,8011301030586,新規,0,2025-05-20,2025-05-20,ｒｏｏＭａｋｅ株式会社,,株式会社,東京都,杉並区,松庵３丁目４０番８号コーポ清明２０１,,13,115,1670054,,,,,,,2025-05-20,1,,,,,ルーメイク,0
2103,8011401027094,新規,0,2025-05-20,2025-05-20,株式会社博源,,株式会社,東京都,板橋区,上板橋３丁目１１番１１－１０２号,,13,119,1740076,,,,,,,2025-05-20,1,,,,,ハクゲン,0
2104,8011401027103,新規,0,2025-05-20,2025-05-20,株式会社ＤＳプランニング,,株式会社,東京都,板橋区,大山東町２７番４号,,13,119,1730014,,,,,,,2025-05-20,1,,,,,ディーエスプランニング,0
2119,8011801046157,新規,0,2025-05-20,2025-05-20,株式会社ＩＤＩＤＩＴ,,株式会社,東京都,足立区,西伊興１丁目１７番２３号,,13,121,1210824,,,,,,,2025-05-20,1,,,,,アイディディット,0
2121,8012301014389,新規,0,2025-05-20,2025-05-20,中村アカウンティングサポート株式会社,,株式会社,東京都,町田市,中町１丁目２－５ＳＨＥＬＬＭＩＹＡＫＯＶ３Ｆ－１２,,13,209,1940021,,,,,,,2025-05-20,1,,,,,ナカムラアカウンティングサポート,0
2127,8013301054227,新規,0,2025-05-20,2025-05-20,株式会社チャットイーズ,,株式会社,東京都,豊島区,巣鴨１丁目１０番１－９０２号,,13,116,1700002,,,,,,,2025-05-20,1,,,,,チャットイーズ,0
2128,8013301054276,新規,0,2025-05-20,2025-05-20,株式会社Ｊｏｙ　Ｌｉｆｅ　Ｃｏｍｐａｎｙ,,株式会社,東京都,豊島区,要町１丁目２７番１２号,,13,116,1710043,,,,,,,2025-05-20,1,,,,,ジョイライフカンパニー,0
2129,8013301054284,新規,0,2025-05-20,2025-05-20,株式会社墨星,,株式会社,東京都,豊島区,巣鴨２丁目９－５若杉ビル５階,,13,116,1700002,,,,,,,2025-05-20,1,,,,,インクスター,0
2137,8020001162895,新規,0,2025-05-20,2025-05-20,株式会社自然,,株式会社,神奈川県,川崎市多摩区,宿河原１丁目２６番３３号,,14,135,2140021,,,,,,,2025-05-20,1,,,,,ジネン,0
2148,8021001085277,新規,0,2025-05-20,2025-05-20,株式会社やわらか未来,,株式会社,神奈川県,相模原市南区,東林間４丁目１１番７号,,14,153,2520311,,,,,,,2025-05-20,1,,,,,ヤワラカミライ,0
2150,8021003015942,新規,0,2025-05-20,2025-05-20,ＬｕＮｅｔ合同会社,,合同会社,神奈川県,秦野市,千村３丁目１７番４－１０４号,,14,211,2591324,,,,,,,2025-05-20,1,,,,,ルネット,0
2152,8030001166508,新規,0,2025-05-20,2025-05-20,アクティヴィテージ株式会社,,株式会社,埼玉県,さいたま市大宮区,桜木町２丁目３番地大宮マルイ７階,,11,103,3300854,,,,,,,2025-05-20,1,,,,,アクティヴィテージ,0
2153,8030001166524,新規,0,2025-05-20,2025-05-20,株式会社ＳＷＩＴＣＨ　ＵＰ,,株式会社,埼玉県,川口市,飯塚１丁目２番１６号川口ホームズ１階,,11,203,3320023,,,,,,,2025-05-20,1,,,,,スイッチアップ,0
2154,8030001166549,新規,0,2025-05-20,2025-05-20,ＴＯＭＲＡ　Ｆｏｏｄ　Ｊａｐａｎ株式会社,,株式会社,埼玉県,さいたま市南区,曲本３丁目２番５号,,11,108,3360033,,,,,,,2025-05-20,1,,,,,トムラフードジャパン,0
2155,8030001166557,新規,0,2025-05-20,2025-05-20,株式会社ＹＫペイント,,株式会社,埼玉県,川越市,大字藤間８８３番地３,,11,201,3501142,,,,,,,2025-05-20,1,,,,,ワイケイペイント,0
2156,8030001166573,新規,0,2025-05-20,2025-05-20,カンノ工業株式会社,,株式会社,埼玉県,春日部市,小渕４９３番地１春日部小渕団地１１棟２０４号,,11,214,3440007,,,,,,,2025-05-20,1,,,,,カンノコウギョウ,0
2157,8030001166598,新規,0,2025-05-20,2025-05-20,アイスタグロースリンク株式会社,,株式会社,埼玉県,富士見市,鶴瀬東１丁目１０番１０号正興鶴瀬駅前ビル２階,,11,235,3540024,,,,,,,2025-05-20,1,,,,,アイスタグロースリンク,0
2158,8030001166615,新規,0,2025-05-20,2025-05-20,株式会社ＢＣ,,株式会社,埼玉県,三郷市,高州３丁目４０１－２,,11,237,3410037,,,,,,,2025-05-20,1,,,,,ビーシー,0
2166,8040001138852,新規,0,2025-05-20,2025-05-20,シャイン株式会社,,株式会社,千葉県,千葉市花見川区,大日町１２９８番地,,12,102,2620004,,,,,,,2025-05-20,1,,,,,シャイン,0
2169,8040003027533,新規,0,2025-05-20,2025-05-20,合同会社千暦,,合同会社,千葉県,柏市,塚崎１４４９番地７６,,12,217,2770923,,,,,,,2025-05-20,1,,,,,センレキ,0
2170,8040003027624,新規,0,2025-05-20,2025-05-20,合同会社ボンチ,,合同会社,千葉県,船橋市,本町３丁目２８番地１０,,12,204,2730005,,,,,,,2025-05-20,1,,,,,ボンチ,0
2182,8080001026946,新規,0,2025-05-20,2025-05-20,株式会社ｃｏｎａｔｕｓ,,株式会社,静岡県,静岡市駿河区,豊田２丁目６－２５,,22,102,4228027,,,,,,,2025-05-20,1,,,,,コナトゥス,0
2185,8080103003323,新規,0,2025-05-20,2025-05-20,ＲＡＩＳＥ合同会社,,合同会社,静岡県,賀茂郡南伊豆町,下賀茂４９番地の３,,22,304,4150303,,,,,,,2025-05-20,1,,,,,レイズ,0
2186,8080405007740,新規,0,2025-05-20,2025-05-20,一般社団法人Ｇｏｏｄ　Ｐｒａｎｋ,,その他の設立登記法人,静岡県,浜松市中央区,笠井新田町１８９３番地の４,,22,138,4313105,,,,,,,2025-05-20,1,,,,,グッドプランク,0
2187,8090005007710,新規,0,2025-05-20,2025-05-20,一般社団法人じかん社,,その他の設立登記法人,山梨県,甲府市,山宮町２４５５－１,,19,201,4000075,,,,,,,2025-05-20,1,,,,,ジカンシャ,0
2200,8120001275902,新規,0,2025-05-20,2025-05-20,芦屋モフモフわんこ株式会社,00139231,株式会社,大阪府,大阪市中央区,北久宝寺町１丁目２番１号オーセンティック東船場５０３号室,,27,128,5410057,,,,,,,2025-05-20,1,,,,,アシヤモフモフワンコ,0
2201,8120001275919,新規,0,2025-05-20,2025-05-20,株式会社サンテコリーヌ,,株式会社,大阪府,門真市,舟田町５番３２号,,27,223,5710021,,,,,,,2025-05-20,1,,,,,サンテコリーヌ,0
2203,8120003029364,新規,0,2025-05-20,2025-05-20,麺ファクトリー合同会社,,合同会社,大阪府,大阪市生野区,中川西２丁目２５番１４号,,27,116,5440032,,,,,,,2025-05-20,1,,,,,メンファクトリー,0
2204,8120003029397,新規,0,2025-05-20,2025-05-20,合同会社ＤＥＫＩＬ,,合同会社,大阪府,大阪市港区,夕凪１丁目７番２１号ＪＰアパートメント１Ｆ,,27,107,5520004,,,,,,,2025-05-20,1,,,,,デキル,0
2205,8120003029439,新規,0,2025-05-20,2025-05-20,ＡＭＳ　Ａｕｔｏｓ合同会社,,合同会社,大阪府,大阪市東淀川区,豊新３丁目１０番３－４０１号,,27,114,5330014,,,,,,,2025-05-20,1,,,,,エイエムエスオートス,0
2206,8120003029463,新規,0,2025-05-20,2025-05-20,ガイテックプランニング合同会社,,合同会社,大阪府,大阪市北区,梅田１丁目２番２号大阪駅前第２ビル１２‐１２,,27,127,5300001,,,,,,,2025-05-20,1,,,,,ガイテックプランニング,0
2207,8120003029471,新規,0,2025-05-20,2025-05-20,合同会社Ｋａｎｃｈａｎ　ｃｏｒｐｏｒａｔｉｏｎ,,合同会社,大阪府,大阪市東淀川区,東中島１丁目２１番２－９０１号,,27,114,5330033,,,,,,,2025-05-20,1,,,,,カンチャンコーポレーション,0
2208,8120003029488,新規,0,2025-05-20,2025-05-20,Ｍｅａｄｏｗ　Ｂｒｉｄｇｅ合同会社,,合同会社,大阪府,大阪市生野区,生野東２丁目３番４５号,,27,116,5440025,,,,,,,2025-05-20,1,,,,,メドウブリッジ,0
2209,8120101071680,新規,0,2025-05-20,2025-05-20,藍弓貿易株式会社,,株式会社,大阪府,堺市堺区,中瓦町１丁２－９－５０３,,27,141,5900077,,,,,,,2025-05-20,1,,,,,アイユミボウエキ,0
2210,8120101071706,新規,0,2025-05-20,2025-05-20,株式会社ＣＨＥＥＲＳ,,株式会社,大阪府,堺市北区,北花田町４丁９０番地８,,27,146,5918002,,,,,,,2025-05-20,1,,,,,チアーズ,0
2215,8130001079699,新規,0,2025-05-20,2025-05-20,株式会社Ｒｉｔａ,,株式会社,京都府,宇治市,木幡御蔵山３９－１１１９,,26,204,6110002,,,,,,,2025-05-20,1,,,,,リタ,0
2224,8140003022078,新規,0,2025-05-20,2025-05-20,合同会社Ｘｅｎ,,合同会社,兵庫県,川西市,平野１丁目２９番３２号,,28,217,6660121,,,,,,,2025-05-20,1,,,,,ゼン,0
2225,8140003022086,新規,0,2025-05-20,2025-05-20,平松合同会社,,合同会社,兵庫県,伊丹市,平松７丁目６番１－２２３号,,28,207,6640853,,,,,,,2025-05-20,1,,,,,,0
2230,8180001166807,新規,0,2025-05-20,2025-05-20,ＭＲ株式会社,,株式会社,愛知県,丹羽郡大口町,余野２丁目１３２番地,,23,361,4800146,,,,,,,2025-05-20,1,,,,,エムアール,0
2244,8180303006578,新規,0,2025-05-20,2025-05-20,合同会社住健堂,,合同会社,愛知県,新城市,大海字中貝津１８番地１６,,23,221,4411315,,,,,,,2025-05-20,1,,,,,ジュウケンドウ,0
2255,8220003004035,新規,0,2025-05-20,2025-05-20,合同会社Ｌｉｖｅ　Ｕｐ,,合同会社,石川県,金沢市,尾張町１丁目１０番３８号,,17,201,9200902,,,,,,,2025-05-20,1,,,,,リブアップ,0
2258,8230001020909,新規,0,2025-05-20,2025-05-20,株式会社高場建築,,株式会社,富山県,射水市,八幡町１丁目１番１号,,16,211,9340025,,,,,,,2025-05-20,1,,,,,タカバケンチク,0
2261,8240001064946,新規,0,2025-05-20,2025-05-20,株式会社かけはし,,株式会社,広島県,福山市,神辺町大字川南７６５番地フローラルＢ棟１０１,,34,207,7202124,,,,,,,2025-05-20,1,,,,,カケハシ,0
2263,8250001021153,新規,0,2025-05-20,2025-05-20,神生ライフサポート株式会社,,株式会社,山口県,下関市,小月西の台９番１３号,,35,201,7501135,,,,,,,2025-05-20,1,,,,,シンセイライフサポート,0
2275,8290003016833,新規,0,2025-05-20,2025-05-20,合同会社池田商店,,合同会社,福岡県,福岡市城南区,友丘１丁目８番２６号,,40,136,8140112,,,,,,,2025-05-20,1,,,,,イケダショウテン,0
2276,8290003016874,新規,0,2025-05-20,2025-05-20,雅冷設合同会社,,合同会社,福岡県,福岡市西区,姪の浜６丁目６番２３－４０２号カルシア姪浜リオルト,,40,135,8190002,,,,,,,2025-05-20,1,,,,,ミヤビレイセツ,0
2280,8290801031554,新規,0,2025-05-20,2025-05-20,株式会社ピュアミライズ,,株式会社,福岡県,北九州市八幡西区,船越２丁目２１番２号,,40,109,8071111,,,,,,,2025-05-20,1,,,,,ピュアミライズ,0
2287,8340003004857,新規,0,2025-05-20,2025-05-20,ａｔｅｌｉｅｒ　ｓｏｉｅ合同会社,,合同会社,鹿児島県,鹿児島市,城山２丁目１９番３０号,,46,201,8920813,,,,,,,2025-05-20,1,,,,,アトリエソワ,0
2292,8360003014920,新規,0,2025-05-20,2025-05-20,合同会社中門,,合同会社,沖縄県,中頭郡読谷村,字楚辺１６１４番地２,,47,324,9040304,,,,,,,2025-05-20,1,,,,,ナカカド,0
2293,8360003014937,新規,0,2025-05-20,2025-05-20,合同会社Ｍａｋｅ・ｉｔ,,合同会社,沖縄県,浦添市,牧港２丁目９番６号ガーデンヒルズ牧港６０１号室,,47,208,9012131,,,,,,,2025-05-20,1,,,,,メイクイット,0
2294,8370005010958,新規,0,2025-05-20,2025-05-20,一般財団法人光の翼文化財団,,その他の設立登記法人,宮城県,仙台市泉区,館４丁目９番地の７,,04,105,9813214,,,,,,,2025-05-20,1,,,,,ヒカリノツバサブンカザイダン,0
2300,8430001094429,新規,0,2025-05-20,2025-05-20,株式会社きふまふ,,株式会社,北海道,札幌市東区,北二十五条東１２丁目３番１２－４０５号,,01,103,0650025,,,,,,,2025-05-20,1,,,,,キフマフ,0
2302,8430003017668,新規,0,2025-05-20,2025-05-20,合同会社Ｔｙｃｈｅ,,合同会社,北海道,札幌市中央区,南五条西１５丁目２番３－５０３号,,01,101,0640805,,,,,,,2025-05-20,1,,,,,テュケ,0
2312,8700150130576,新規,0,2025-05-20,2025-05-20,ＮＡＶＯＤＨＡ　ＰＲＯＤＵＣＴＩＯＮ,,外国会社等,千葉県,八街市,東吉田７２５番地ビジネスオフィス４６号,,12,230,2891114,スリランカ民主社会主義共和国、ポロンナルワ、サーキュラーロード、ナボダプロダクション、Ｎｏ．Ａ／１,,,,,,2025-05-20,1,,,,,ナボダプロダクシヨン,0
2313,8700150130584,新規,0,2025-05-20,2025-05-20,ＴＥＬＦ　Ｂ＆Ｔ　ＡＧ日本駐在員事務所,,外国会社等,東京都,中央区,銀座１丁目１２番４号　Ｎ＆Ｅ　ＢＬＤ．７階,,13,102,1040061,Ｐｏｓｔｓｔｒａｓｓｅ　１８，ＣＨ－６３００，Ｚｕｇ，Ｓｗｉｔｚｅｒｌａｎｄ,,,,,,2025-05-20,1,,,,,テルフビーアンドテイーエージーニホンチユウザイインジムシヨ,0
2319,9010001254676,新規,0,2025-05-20,2025-05-20,Ａｌｇａｅ　Ｉｎｔｅｒｎａｔｉｏｎａｌ　Ｊａｐａｎ株式会社,,株式会社,東京都,中央区,日本橋兜町５－１兜町第１平和ビル３階,,13,102,1030026,,,,,,,2025-05-20,1,,,,,アレジーインターナショナルジャパン,0
2320,9010001255088,新規,0,2025-05-20,2025-05-20,株式会社ＭＨＣ,,株式会社,東京都,千代田区,紀尾井町３－１９紀尾井町コートビル４０２,,13,101,1020094,,,,,,,2025-05-20,1,,,,,エムエイチシー,0
2321,9010001255154,新規,0,2025-05-20,2025-05-20,ｅａｒｔｈ　ａｌｌｉａｎｃｅ株式会社,,株式会社,東京都,千代田区,神田多町２丁目１番地２３神田東山ビル８Ｆ,,13,101,1010046,,,,,,,2025-05-20,1,,,,,アースアライアンス,0
2322,9010001255170,新規,0,2025-05-20,2025-05-20,株式会社Ｍｉｙａｂｅｅ,,株式会社,東京都,文京区,千駄木５丁目３０番２号,,13,105,1130022,,,,,,,2025-05-20,1,,,,,ミヤビー,0
2323,9010001255220,新規,0,2025-05-20,2025-05-20,株式会社ＧＺＥＤ,,株式会社,東京都,文京区,本郷６丁目２５番１４号,,13,105,1130033,,,,,,,2025-05-20,1,,,,,ジーゼッド,0
2326,9010003047327,新規,0,2025-05-20,2025-05-20,Ｊ＆Ｊ　ＴＥＣＨ合同会社,,合同会社,東京都,中央区,銀座１丁目１２番４号Ｎ＆ＥＢＬＤ．６Ｆ,,13,102,1040061,,,,,,,2025-05-20,1,,,,,ジェイアンドジェイテック,0
2327,9010003047384,新規,0,2025-05-20,2025-05-20,合同会社Ｊｓｔｅｌｌａ,,合同会社,東京都,中央区,銀座１丁目１２番４号Ｎ＆ＥＢＬＤ．６Ｆ,,13,102,1040061,,,,,,,2025-05-20,1,,,,,ジェイステラ,0
2328,9010005040057,新規,0,2025-05-20,2025-05-20,一般社団法人城見,,その他の設立登記法人,東京都,千代田区,丸の内１丁目４番１号東京共同会計事務所内,,13,101,1000005,,,,,,,2025-05-20,1,,,,,シロミ,0
2338,9010401190389,新規,0,2025-05-20,2025-05-20,よいしょ株式会社,,株式会社,東京都,港区,南青山３丁目１番３６号青山丸竹ビル６Ｆ,,13,103,1070062,,,,,,,2025-05-20,1,,,,,ヨイショ,0
2349,9010803005392,新規,0,2025-05-20,2025-05-20,Ｋ・Ｆ　ＢＡＳＥ合同会社,,合同会社,東京都,大田区,上池台５丁目３４－４,,13,111,1450064,,,,,,,2025-05-20,1,,,,,ケーエフベース,0
2354,9011001169740,新規,0,2025-05-20,2025-05-20,ｉｎｉｔ　Ｗｏｒｋｓ株式会社,,株式会社,東京都,渋谷区,円山町５番５号Ｎａｖｉ渋谷Ｖ３階,,13,113,1500044,,,,,,,2025-05-20,1,,,,,イニットワークス,0
2355,9011003021734,新規,0,2025-05-20,2025-05-20,合同会社オトヤデザイン,,合同会社,東京都,渋谷区,道玄坂１丁目１０番８号渋谷道玄坂東急ビル２Ｆ－Ｃ,,13,113,1500043,,,,,,,2025-05-20,1,,,,,オトヤデザイン,0
2356,9011005010974,新規,0,2025-05-20,2025-05-20,一般社団法人モンゴル国商工会議所・日本,,その他の設立登記法人,東京都,渋谷区,神南１丁目１１－４,,13,113,1500041,,,,,,,2025-05-20,1,,,,,モンゴルコクニホン,0
2359,9011103015842,新規,0,2025-05-20,2025-05-20,合同会社スノーリング,,合同会社,東京都,新宿区,左門町２番地４マイネシュロッス四ツ谷１３０１,,13,104,1600017,,,,,,,2025-05-20,1,,,,,スノーリング,0
2360,9011103015909,新規,0,2025-05-20,2025-05-20,合同会社ｓｃａｒｌｅｔ,,合同会社,東京都,新宿区,歌舞伎町２丁目２１番１７号ソアンビル４階,,13,104,1600021,,,,,,,2025-05-20,1,,,,,スカーレット,0
2371,9011503006540,新規,0,2025-05-20,2025-05-20,合同会社グラニコス,,合同会社,東京都,北区,滝野川２丁目２番１８－１０５号,,13,117,1140023,,,,,,,2025-05-20,1,,,,,グラニコス,0
2378,9012401043056,新規,0,2025-05-20,2025-05-20,株式会社タレビー,,株式会社,東京都,多摩市,諏訪４丁目２４番地の３プレシス多摩永山レヴィエ６０５,,13,224,2060024,,,,,,,2025-05-20,1,,,,,タレビー,0
2384,9013301054300,新規,0,2025-05-20,2025-05-20,株式会社麒麟,,株式会社,東京都,豊島区,高田２丁目１２－３２－３１１,,13,116,1710033,,,,,,,2025-05-20,1,,,,,キリン,0
2394,9020001162886,新規,0,2025-05-20,2025-05-20,暁光工業株式会社,,株式会社,神奈川県,横浜市中区,鷺山２０－１１,,14,104,2310848,,,,,,,2025-05-20,1,,,,,ギョウコウコウギョウ,0
2400,9020003028516,新規,0,2025-05-20,2025-05-20,合同会社Ｆｒｅｅ　Ｓｔｙｌｅ,,合同会社,神奈川県,横浜市緑区,鴨居６丁目２５番４－４０６号,,14,113,2260003,,,,,,,2025-05-20,1,,,,,フリースタイル,0
2414,9030001166622,新規,0,2025-05-20,2025-05-20,エース株式会社,,株式会社,埼玉県,本庄市,寿３丁目２－１,,11,211,3670023,,,,,,,2025-05-20,1,,,,,エース,0
2423,9030003026799,新規,0,2025-05-20,2025-05-20,合同会社トゥルーカラーズ,,合同会社,埼玉県,熊谷市,代６４０番池３,,11,202,3600804,,,,,,,2025-05-20,1,,,,,トゥルーカラーズ,0
2424,9030005022169,新規,0,2025-05-20,2025-05-20,一般社団法人文化交苑,,その他の設立登記法人,埼玉県,所沢市,小手指町１丁目１７番地の１小手指ハイツＦ－１０６,,11,208,3591141,,,,,,,2025-05-20,1,,,,,ブンカコウエン,0
2429,9040001138397,新規,0,2025-05-20,2025-05-20,株式会社志匠,,株式会社,千葉県,野田市,桜の里３丁目１１番地の１,,12,208,2780048,,,,,,,2025-05-20,1,,,,,シショウ,0
2430,9040001138851,新規,0,2025-05-20,2025-05-20,株式会社Ｂ‐ＢＡＳＥ,,株式会社,千葉県,流山市,駒木５０５番地の６－１０１,,12,220,2700132,,,,,,,2025-05-20,1,,,,,ビーベース,0
2440,9060003005560,新規,0,2025-05-20,2025-05-20,合同会社ＳｋｙＦｉｔ,,合同会社,栃木県,足利市,福居町５７４,,09,202,3260338,,,,,,,2025-05-20,1,,,,,スカイフィット,0
2449,9100001038616,新規,0,2025-05-20,2025-05-20,株式会社Ｋドリームス,,株式会社,長野県,諏訪郡富士見町,落合１２４７０番地１,,20,362,3990214,,,,,,,2025-05-20,1,,,,,ケイドリームス,0
2465,9120001275802,新規,0,2025-05-20,2025-05-20,萬里通株式会社,,株式会社,大阪府,大阪市東成区,玉津１丁目３番２１号,,27,115,5370023,,,,,,,2025-05-20,1,,,,,マンリトオリ,0
2466,9120001275835,新規,0,2025-05-20,2025-05-20,永岡株式会社,,株式会社,大阪府,大阪市中央区,農人橋１丁目１－２９－２４０４,,27,128,5400011,,,,,,,2025-05-20,1,,,,,ナガオカ,0
2467,9120001275884,新規,0,2025-05-20,2025-05-20,百佳源株式会社,,株式会社,大阪府,大阪市浪速区,浪速西３丁目５－１８,,27,111,5560026,,,,,,,2025-05-20,1,,,,,ヒャクカゲン,0
2472,9120003029289,新規,0,2025-05-20,2025-05-20,合同会社ＫＵＲＯＲＯ,,合同会社,大阪府,枚方市,堤町２－１－４０３,,27,210,5730057,,,,,,,2025-05-20,1,,,,,クロロ,0
2473,9120003029462,新規,0,2025-05-20,2025-05-20,合同会社ＧＯＡＴ,,合同会社,大阪府,大阪市北区,浪花町１３番２号へーベルメゾン天六２０２,,27,127,5300022,,,,,,,2025-05-20,1,,,,,ゴート,0
2474,9120003029470,新規,0,2025-05-20,2025-05-20,合同会社ハートフルメディエーション,,合同会社,大阪府,大阪市都島区,片町１丁目５－１５大手前センチュリービル４階,,27,102,5340025,,,,,,,2025-05-20,1,,,,,ハートフルメディエーション,0
2475,9120003029479,新規,0,2025-05-20,2025-05-20,楽海国際合同会社,,合同会社,大阪府,大阪市淀川区,西宮原３丁目３－６ファミールハイツ北大阪５号棟弐番館４０８号室,,27,123,5320004,,,,,,,2025-05-20,1,,,,,ラクカイコクサイ,0
2480,9120901050858,新規,0,2025-05-20,2025-05-20,株式会社フジ商事,,株式会社,大阪府,吹田市,南吹田３丁目５番２８－１０１号,,27,205,5640043,,,,,,,2025-05-20,1,,,,,フジショウジ,0
2482,9120905006732,新規,0,2025-05-20,2025-05-20,特定非営利活動法人音ノ輪,,その他の設立登記法人,大阪府,摂津市,香露園２－１４,,27,224,5660034,,,,,,,2025-05-20,1,,,,,オトノワ,0
2485,9130003010470,新規,0,2025-05-20,2025-05-20,ｗｉｓ合同会社,,合同会社,京都府,京都市北区,衣笠開キ町８０番地５７,,26,101,6038452,,,,,,,2025-05-20,1,,,,,ウィズ,0
2493,9140003022069,新規,0,2025-05-20,2025-05-20,合同会社ミカタラボ,,合同会社,兵庫県,明石市,西明石町４丁目６番１５号,,28,203,6730011,,,,,,,2025-05-20,1,,,,,ミカタラボ,0
2502,9180001166797,新規,0,2025-05-20,2025-05-20,ＷＡＱＡＳ　ＴＲＡＤＩＮＧ株式会社,,株式会社,愛知県,津島市,西愛宕町２丁目３８番２号,,23,208,4960037,,,,,,,2025-05-20,1,,,,,ワカストレーディング,0
2503,9180001166888,新規,0,2025-05-20,2025-05-20,ｎｅｉｇｈｂｏｒ　ｃｏｍｍｕｎｉｔｙ株式会社,,株式会社,愛知県,名古屋市東区,芳野１丁目１６番３２号,,23,102,4610027,,,,,,,2025-05-20,1,,,,,ネイバーコミュニティ,0
2506,9180003028509,新規,0,2025-05-20,2025-05-20,合同会社グリスゼロ,,合同会社,愛知県,小牧市,大字下末１０１３番地１,,23,219,4850825,,,,,,,2025-05-20,1,,,,,グリスゼロ,0
2519,9200001043804,新規,0,2025-05-20,2025-05-20,ＴＡＫＥＭＩＫＡＺＵＣＨＩ　ＩＮＴＥＲＮＡＴＩＯＮＡＬ株式会社,,株式会社,岐阜県,安八郡神戸町,大字丈六道４７番地ガレージハウス神戸町,,21,381,5032304,,,,,,,2025-05-20,1,,,,,タケミカズチインターナショナル,0
2527,9220001026690,新規,0,2025-05-20,2025-05-20,スペース株式会社,,株式会社,石川県,金沢市,小立野５丁目１２番１９号,,17,201,9200942,,,,,,,2025-05-20,1,,,,,スペース,0
2528,9220003004034,新規,0,2025-05-20,2025-05-20,合同会社Ｅｎｒｉ,,合同会社,石川県,金沢市,三口町火１３４－４,,17,201,9200018,,,,,,,2025-05-20,1,,,,,エンリ,0
2532,9230001020908,新規,0,2025-05-20,2025-05-20,株式会社ＮＳＫ商事,,株式会社,富山県,高岡市,下牧野３３３番地３,,16,202,9340091,,,,,,,2025-05-20,1,,,,,エヌエスケーショウジ,0
2537,9240003007217,新規,0,2025-05-20,2025-05-20,合同会社Ｏｃｅａｎ　Ｖｏｙａｇｅｒ,,合同会社,広島県,福山市,光南町３丁目７番８号３０１号室,,34,207,7200814,,,,,,,2025-05-20,1,,,,,オーシャンボイジャー,0
2544,9260005011479,新規,0,2025-05-20,2025-05-20,一般社団法人日本教育ＤＸ推進協会,,その他の設立登記法人,岡山県,岡山市東区,瀬戸町宗堂４７４番地１,,33,103,7090872,,,,,,,2025-05-20,1,,,,,ニホンキョウイクディーエックススイシンキョウカイ,0
2549,9290003016865,新規,0,2025-05-20,2025-05-20,合同会社Ｂｕｔｔｅｒｆｅｃｔ,,合同会社,福岡県,福岡市東区,松島１丁目２１番２２－４０２号,,40,131,8120062,,,,,,,2025-05-20,1,,,,,バターフェクト,0
2552,9290801031553,新規,0,2025-05-20,2025-05-20,株式会社ｖｉｖｉｄ,,株式会社,福岡県,遠賀郡岡垣町,鍋田１丁目２番２８号,,40,383,8114224,,,,,,,2025-05-20,1,,,,,ビビット,0
2553,9310001019611,新規,0,2025-05-20,2025-05-20,株式会社Ｔｈｅ　Ｏｎｅｓ　ｃｏｍｐａｎｙ,,株式会社,長崎県,対馬市,厳原町今屋敷７４６番地,,42,209,8170021,,,,,,,2025-05-20,1,,,,,ジワンズカンパニー,0
2558,9340001027339,新規,0,2025-05-20,2025-05-20,株式会社鹿児島ＦｕｎＲｉｄｅ,,株式会社,鹿児島県,鹿児島市,泉町１４番地１１－１Ｆ,,46,201,8920822,,,,,,,2025-05-20,1,,,,,カゴシマファンライド,0
2562,9360001035208,新規,0,2025-05-20,2025-05-20,株式会社Ｐｒｏｆｏｕｎｄ．Ｌ,,株式会社,沖縄県,那覇市,壺屋２丁目２６番１１号２Ｄ,,47,201,9020065,,,,,,,2025-05-20,1,,,,,プロフォンドエル,0
2577,9430001094428,新規,0,2025-05-20,2025-05-20,株式会社ノウリンク,,株式会社,北海道,札幌市中央区,南九条西１１丁目１番３０号,,01,101,0640809,,,,,,,2025-05-20,1,,,,,ノウリンク,0
2579,9430003017667,新規,0,2025-05-20,2025-05-20,合同会社Ｈｅｒｍｅｓ,,合同会社,北海道,札幌市中央区,南五条西１５丁目２番３－５０３号,,01,101,0640805,,,,,,,2025-05-20,1,,,,,ヘルメース,0
2580,9430003017675,新規,0,2025-05-20,2025-05-20,Ｌａｓｔ　Ｓｔａｎｄ合同会社,,合同会社,北海道,岩見沢市,東山２丁目６番４号,,01,210,0680820,,,,,,,2025-05-20,1,,,,,ラストスタンド,0
2582,9430005015223,新規,0,2025-05-20,2025-05-20,一般社団法人Ｈｅａｒｔｋｉｄｓ’ＬＩＦＥＬＩＮＫ,,その他の設立登記法人,北海道,札幌市西区,八軒二条西３丁目４番８－２１１号,,01,107,0630842,,,,,,,2025-05-20,1,,,,,ハートキッズライフリンク,0
2584,9450003002659,新規,0,2025-05-20,2025-05-20,合同会社金猫商会,,合同会社,北海道,旭川市,三条通９丁目１７０４番地２４号ＰＯＷＷＯＷ２階,,01,204,0700033,,,,,,,2025-05-20,1,,,,,キンネコショウカイ,0
2589,9700150130575,新規,0,2025-05-20,2025-05-20,Ａ　Ｚ　ＭＯＴＯＲ　ＴＲＡＤＩＮＧ　ＰＶＴ　ＬＴＤ,,外国会社等,千葉県,八街市,東吉田７２５番地ビジネスオフィス４４号,,12,230,2891114,スリランカ民主社会主義共和国、アクラナ、クルンドゥガハエラ、マタレロード、２２４,,,,,,2025-05-20,1,,,,,エーゼツトモータートレーデイングプライベートリミテツド,0
