sequenceNumber,corporateNumber,process,correct,updateDate,changeDate,name,nameImageId,kind,prefectureName,cityName,streetNumber,addressImageId,prefectureCode,cityCode,postCode,addressOutside,addressOutsideImageId,closeDate,closeCause,successorCorporateNumber,changeCause,assignmentDate,latest,enName,enPrefectureName,enCityName,enAddressOutside,furigana,hihyoji
26,1010405017439,登記記録の閉鎖等,0,2022-02-16,2022-02-09,ブルーホスピタリティホールディングス一般社団法人,,その他の設立登記法人,東京都,港区,元赤坂１丁目１番７号,,13,103,1070051,,,2022-02-09,清算の結了等,,,2019-02-08,1,,,,,ブルーホスピタリティホールディングス,0
30,1010602027554,登記記録の閉鎖等,0,2022-02-16,2022-02-09,有限会社先物研究社,,有限会社,東京都,墨田区,墨田４丁目２９番５号,,13,107,1310031,,,2022-02-09,清算の結了等,,,2015-10-05,1,,,,,サキモノケンキュウシャ,0
42,1011001097511,登記記録の閉鎖等,0,2022-02-16,2022-02-01,株式会社会計法人ＳＡＳパートナーズ,,株式会社,東京都,渋谷区,円山町６番７号渋谷アムフラット１階,,13,113,1500044,,,2022-02-01,清算の結了等,,,2015-10-05,1,,,,,カイケイホウジンエスエイエスパートナーズ,0
82,1020001131444,登記記録の閉鎖等,0,2022-02-16,2022-02-10,株式会社リングライフ,,株式会社,神奈川県,横浜市西区,高島２丁目１１番２号スカイメナー横浜４２２,,14,103,2200011,,,2022-02-10,清算の結了等,,,2019-06-06,1,,,,,リングライフ,0
93,1021002058593,登記記録の閉鎖等,0,2022-02-16,2022-02-10,有限会社太陽管工,,有限会社,神奈川県,平塚市,御殿４丁目１３番３２号,,14,203,2540061,,,2022-02-10,清算の結了等,,,2015-10-05,1,,,,,タイヨウカンコウ,0
98,1030001027518,登記記録の閉鎖等,0,2022-02-16,2022-02-10,五葉株式会社,,株式会社,埼玉県,入間市,大字野田１２２９番地１,,11,225,3580054,,,2022-02-10,清算の結了等,,,2015-10-05,1,,,,,ゴヨウ,0
102,1030001061434,登記記録の閉鎖等,0,2022-02-16,2022-02-14,グラスプ住宅株式会社,,株式会社,埼玉県,本庄市,朝日町２丁目１８番２１号,,11,211,3670026,,,2022-02-14,清算の結了等,,,2015-10-05,1,,,,,グラスプジュウタク,0
105,1030001102188,登記記録の閉鎖等,0,2022-02-16,2022-02-10,株式会社ＳＣ松原,,株式会社,埼玉県,草加市,谷塚町１２４０番地,,11,221,3400023,,,2022-02-10,合併による解散等,4030001102185,令和４年２月１日埼玉県草加市谷塚町１２４０番地株式会社ＳＣ谷塚（4030001102185）に合併し解散,2015-10-05,1,,,,,エスシーマツバラ,0
144,1100002037483,登記記録の閉鎖等,0,2022-02-16,2022-02-14,有限会社ムラセフーズ,,有限会社,長野県,飯田市,中央通り４丁目１番地,,20,205,3950041,,,2022-02-14,清算の結了等,,,2015-10-05,1,,,,,ムラセフーズ,0
149,1110002031857,登記記録の閉鎖等,0,2022-02-16,2022-02-14,有限会社みどりやカメラ,,有限会社,新潟県,見附市,新町１丁目１１番１３号,,15,211,9540057,,,2022-02-14,清算の結了等,,,2015-10-05,1,,,,,ミドリヤカメラ,0
161,1120001217811,登記記録の閉鎖等,0,2022-02-16,2022-02-14,株式会社Ｆｌｏｗｉｎｇ,,株式会社,大阪府,大阪市北区,梅田２丁目２番２号ヒルトンプラザウェストオフィスタワー１９階,,27,127,5300001,,,2022-02-14,清算の結了等,,,2018-12-19,1,,,,,フローイング,0
177,1120105007002,登記記録の閉鎖等,0,2022-02-16,2022-02-14,医療法人広部クリニック,,その他の設立登記法人,大阪府,泉北郡忠岡町,忠岡東１丁目４０番２８号,,27,341,5950805,,,2022-02-14,清算の結了等,,,2015-10-05,1,,,,,ヒロベクリニック,0
181,1122001002136,登記記録の閉鎖等,0,2022-02-16,2022-01-14,株式会社公成建設,,株式会社,大阪府,東大阪市,御厨南３丁目１番５０号,,27,227,5770034,,,2022-01-14,清算の結了等,,,2015-10-05,1,,,,,,0
211,1190002018681,登記記録の閉鎖等,0,2022-02-16,2022-02-15,有限会社Ｐｒｏｊｅｃｔ和,,有限会社,三重県,桑名市,陽だまりの丘７丁目１６０４番地,,24,205,5110867,,,2022-02-15,清算の結了等,,,2015-10-05,1,,,,,,0
216,1200005008249,登記記録の閉鎖等,0,2022-02-16,2022-01-27,天理教濃信分教会,00077495,その他の設立登記法人,岐阜県,多治見市,市之倉町２丁目５１番地の２,,21,204,5070814,,,2022-01-27,合併による解散等,3200005006754,令和４年１月２７日岐阜県加茂郡川辺町西栃井４００番地天理教東濃大教会（3200005006754）に合併し解散,2015-10-05,1,,,,,テンリキョウノウシンブンキョウカイ,0
219,1230002007515,登記記録の閉鎖等,0,2022-02-16,2022-02-14,有限会社大崎工務店,00079100,有限会社,富山県,魚津市,吉島８５３番地の２,,16,204,9370041,,,2022-02-14,清算の結了等,,,2015-10-05,1,,,,,オオサキコウムテン,0
236,1290002013771,登記記録の閉鎖等,0,2022-02-16,2022-01-21,有限会社リュウエンタープライズ,,有限会社,福岡県,福岡市中央区,草香江１丁目５番２２号,,40,133,8100045,,,2022-01-21,合併による解散等,1290001057877,令４年１月２０日福岡市城南区七隈一丁目１２番地２１号株式会社ひみかな（1290001057877）に合併し解散,2015-10-05,1,,,,,リュウエンタープライズ,0
242,1290802023458,登記記録の閉鎖等,0,2022-02-16,2022-02-14,有限会社カズミックシステム,,有限会社,福岡県,豊前市,大字久松１１０番地８,,40,214,8280024,,,2022-02-14,清算の結了等,,,2015-10-05,1,,,,,カズミックシステム,0
246,1330002005500,登記記録の閉鎖等,0,2022-02-16,2022-02-14,有限会社純信商会,,有限会社,熊本県,熊本市中央区,水前寺３丁目８番１０号１１０４,,43,101,8620950,,,2022-02-14,清算の結了等,,,2015-10-05,1,,,,,ジュンシンショウカイ,0
261,1370002006395,登記記録の閉鎖等,0,2022-02-16,2022-02-14,有限会社宮城興商,,有限会社,宮城県,仙台市宮城野区,萩野町２丁目１７番１２号,,04,102,9830043,,,2022-02-14,清算の結了等,,,2015-10-05,1,,,,,ミヤギコウショウ,0
265,1380001010554,登記記録の閉鎖等,0,2022-02-16,2022-02-07,三興金属工業株式会社,,株式会社,福島県,西白河郡泉崎村,大字踏瀬字池ノ入山８番地１,,07,464,9690105,,,2022-02-07,清算の結了等,,,2015-10-05,1,,,,,サンコウキンゾクコウギョウ,0
287,2010001184624,登記記録の閉鎖等,0,2022-02-16,2022-02-14,ＪＦＣインターナショナル株式会社,,株式会社,東京都,千代田区,神田練塀町６８番地３,,13,101,1010022,,,2022-02-14,清算の結了等,,,2017-07-07,1,,,,,ジェイエフシーインターナショナル,0
294,2010002023178,登記記録の閉鎖等,0,2022-02-16,2022-02-10,有限会社虎三,,有限会社,東京都,中央区,築地５丁目２番１号,,13,102,1040045,,,2022-02-10,清算の結了等,,,2015-10-05,1,,,,,トラサン,0
296,2010401029008,登記記録の閉鎖等,0,2022-02-16,2022-02-14,株式会社ミラリード,,株式会社,東京都,品川区,東品川４丁目１２番６号日立ソリューションズタワーＢ棟１９階,,13,109,1400002,,,2022-02-14,清算の結了等,,,2015-10-05,1,,,,,ミラリード,0
321,2011703000077,登記記録の閉鎖等,0,2022-02-16,2022-02-14,合資会社伊藤商店,,合資会社,東京都,江戸川区,上篠崎１丁目１８番１６号,,13,123,1330054,,,2022-02-14,清算の結了等,,,2015-10-05,1,,,,,イトウショウテン,0
346,2030001102187,登記記録の閉鎖等,0,2022-02-16,2022-02-10,株式会社ＳＣ草加,,株式会社,埼玉県,草加市,谷塚町１２４０番地,,11,221,3400023,,,2022-02-10,合併による解散等,4030001102185,令和４年２月１日埼玉県草加市谷塚町１２４０番地株式会社ＳＣ谷塚（4030001102185）に合併し解散,2015-10-05,1,,,,,エスシーソウカ,0
382,2120001033704,登記記録の閉鎖等,0,2022-02-16,2022-02-10,マーク株式会社,,株式会社,大阪府,大阪市住吉区,帝塚山中２丁目５番４号,,27,120,5580053,,,2022-02-10,清算の結了等,,,2015-10-05,1,,,,,マーク,0
408,2130001067131,登記記録の閉鎖等,0,2022-02-16,2022-02-10,株式会社ＺＥＲＯ,,株式会社,京都府,京都市中京区,河原町通二条下一之船入町３７６番地５,,26,104,6040000,,,2022-02-10,清算の結了等,,,2020-06-24,1,,,,,ゼロ,0
420,2140003012621,登記記録の閉鎖等,0,2022-02-16,2022-02-10,合同会社福福ケアサービス,,合同会社,兵庫県,神戸市北区,緑町３丁目１３番２４号,,28,109,6511221,,,2022-02-10,清算の結了等,,,2017-12-06,1,,,,,フクフクケアサービス,0
433,2200001007385,登記記録の閉鎖等,0,2022-02-16,2022-02-15,株式会社ナイスリフォーム,,株式会社,岐阜県,各務原市,鵜沼宝積寺町１丁目２７４番地の１,,21,213,5090123,,,2022-02-15,清算の結了等,,,2015-10-05,1,,,,,ナイスリフォーム,0
445,2260001003750,登記記録の閉鎖等,0,2022-02-16,2022-02-15,株式会社セントラル・ツーリスト,,株式会社,岡山県,岡山市中区,山崎１７番地１,,33,102,7038267,,,2022-02-15,清算の結了等,,,2015-10-05,1,,,,,セントラルツーリスト,0
452,2260005006923,登記記録の閉鎖等,0,2022-02-16,2022-01-26,檜山神社,,その他の設立登記法人,岡山県,苫田郡鏡野町,高山９４８番地,,33,606,7080345,,,2022-01-26,合併による解散等,1260005006924,令和４年１月２６日岡山県苫田郡鏡野町高山７２１番地高山神社（1260005006924）に合併し解散,2015-10-05,1,,,,,ヒノキヤマジンジャ,0
459,2290002051011,登記記録の閉鎖等,0,2022-02-16,2022-02-14,たけふじ有限会社,,有限会社,福岡県,久留米市,東合川新町１１番１６号,,40,203,8390808,,,2022-02-14,清算の結了等,,,2015-10-05,1,,,,,タケフジ,0
463,2290005011648,登記記録の閉鎖等,0,2022-02-16,2022-01-31,天理教本分分教会,,その他の設立登記法人,福岡県,柳川市,新町４４番地の１,,40,207,8320032,,,2022-01-31,合併による解散等,6290005010695,令和４年１月３１日福岡県久留米市田主丸町益生田８７９番地天理教筑宮分教会（6290005010695）に合併し解散,2015-10-05,1,,,,,テンリキョウホンブンブンキョウカイ,0
476,2340002025422,登記記録の閉鎖等,0,2022-02-16,2022-02-14,有限会社弘栄産業,,有限会社,鹿児島県,鹿屋市,古江町６４６番地,,46,203,8912321,,,2022-02-14,清算の結了等,,,2015-10-05,1,,,,,,0
499,2430001047458,登記記録の閉鎖等,0,2022-02-16,2022-02-14,株式会社吉井快生堂,,株式会社,北海道,夕張市,清水沢３丁目９１番地,,01,209,0680531,,,2022-02-14,清算の結了等,,,2015-10-05,1,,,,,ヨシイカイセイドウ,0
505,2430005004075,登記記録の閉鎖等,0,2022-02-16,2022-02-08,特定非営利活動法人アット・イーズさっぽろ,,その他の設立登記法人,北海道,札幌市清田区,平岡八条４丁目１１番７号,,01,110,0040878,,,2022-02-08,清算の結了等,,,2015-10-05,1,,,,,アットイーズサッポロ,0
517,3010001195109,登記記録の閉鎖等,0,2022-02-16,2022-02-10,比格瑞株式会社,,株式会社,東京都,文京区,湯島３丁目１３番８号,,13,105,1130034,,,2022-02-10,清算の結了等,,,2018-09-27,1,,,,,ビーゴリ,0
574,3011605001949,登記記録の閉鎖等,0,2022-02-16,2022-02-14,特定非営利活動法人フューチャーコミュニケーションズ,,その他の設立登記法人,東京都,練馬区,高松４丁目１２番２９号ローズコート光が丘Ｃ１０１,,13,120,1790075,,,2022-02-14,清算の結了等,,,2015-10-05,1,,,,,フューチャーコミュニケーションズ,0
579,3011802017418,登記記録の閉鎖等,0,2022-02-16,2022-02-15,有限会社濱野電機工業,,有限会社,東京都,足立区,青井４丁目１６番８号,,13,121,1210012,,,2022-02-15,清算の結了等,,,2015-10-05,1,,,,,,0
581,3012302007603,登記記録の閉鎖等,0,2022-02-16,2022-02-02,ＢＥＮＮＥＴＴ有限会社,,有限会社,東京都,町田市,小川２丁目１８番地２,,13,209,1940003,,,2022-02-02,清算の結了等,,,2015-10-05,1,,,,,ベネット,0
605,3030001060839,登記記録の閉鎖等,0,2022-02-16,2022-02-08,村奈照明株式会社,,株式会社,埼玉県,本庄市,児玉町共栄２７７番地１,,11,211,3670206,,,2022-02-08,清算の結了等,,,2015-10-05,1,,,,,ムラナショウメイ,0
607,3030001102186,登記記録の閉鎖等,0,2022-02-16,2022-02-10,株式会社ＳＣ八潮,,株式会社,埼玉県,草加市,谷塚町１２４０番地,,11,221,3400023,,,2022-02-10,合併による解散等,4030001102185,令和４年２月１日埼玉県草加市谷塚町１２４０番地株式会社ＳＣ谷塚（4030001102185）に合併し解散,2015-10-05,1,,,,,エスシーヤシオ,0
678,3140002042107,登記記録の閉鎖等,0,2022-02-16,2022-02-10,有限会社パール,,有限会社,兵庫県,尼崎市,武庫之荘５丁目４５番３６号,,28,202,6610035,,,2022-02-10,清算の結了等,,,2015-10-05,1,,,,,パール,0
679,3140002059464,登記記録の閉鎖等,0,2022-02-16,2022-02-14,有限会社信濃産業,,有限会社,兵庫県,西宮市,甲陽園本庄町６番５０－３７７号,,28,204,6620015,,,2022-02-14,清算の結了等,,,2015-10-05,1,,,,,,0
693,3180001132202,登記記録の閉鎖等,0,2022-02-16,2022-02-15,株式会社参兆,,株式会社,三重県,四日市市,諏訪栄町５番４号ニューヨッカイチビル１階,,24,202,5100086,,,2022-02-15,清算の結了等,,,2018-05-25,1,,,,,サンチョウ,0
703,3180302021343,登記記録の閉鎖等,0,2022-02-16,2022-02-14,有限会社石川牧場,,有限会社,愛知県,豊田市,百々町９丁目９７番地,,23,211,4710008,,,2022-02-14,清算の結了等,,,2015-10-05,1,,,,,イシカワボクジョウ,0
706,3200001013259,登記記録の閉鎖等,0,2022-02-16,2022-02-15,株式会社ウインドミル,,株式会社,岐阜県,大垣市,草道島町１４８番地の１０,,21,202,5032201,,,2022-02-15,清算の結了等,,,2015-10-05,1,,,,,ウインドミル,0
710,3210001000776,登記記録の閉鎖等,0,2022-02-16,2022-02-10,川市銘材株式会社,,株式会社,福井県,福井市,花堂東１丁目３３番３０号,,18,201,9188013,,,2022-02-10,合併による解散等,7210001009624,令和４年２月１日福井市毛矢一丁目１０番１号セーレン商事株式会社（7210001009624）に合併し解散,2015-10-05,1,,,,,カワイチメイザイ,0
717,3240001014154,登記記録の閉鎖等,0,2022-02-16,2022-02-14,株式会社大満,,株式会社,広島県,広島市安佐南区,古市３丁目２１番７号,,34,105,7310123,,,2022-02-14,清算の結了等,,,2015-10-05,1,,,,,ダイマン,0
723,3250002004005,登記記録の閉鎖等,0,2022-02-16,2022-02-09,有限会社スチール・ストーリーＪＡＰＡＮ,,有限会社,山口県,山口市,吉田２２２０番地１５,,35,203,7530841,,,2022-02-09,清算の結了等,,,2015-10-05,1,,,,,スチールストーリージャパン,0
728,3280005005096,登記記録の閉鎖等,0,2022-02-16,2022-02-14,農事組合法人大畑農場,,その他の設立登記法人,島根県,益田市,大谷町３６番地３,,32,204,6980012,,,2022-02-14,清算の結了等,,,2015-10-05,1,,,,,オオハタノウジョウ,0
746,3330002014144,登記記録の閉鎖等,0,2022-02-16,2022-02-14,有限会社うーぴぃ,,有限会社,熊本県,熊本市中央区,神水１丁目１６番２２－１００２号,,43,101,8620954,,,2022-02-14,清算の結了等,,,2015-10-05,1,,,,,ウーピィ,0
756,3370001043792,登記記録の閉鎖等,0,2022-02-16,2022-02-08,株式会社Ｙ’ｓ,,株式会社,宮城県,仙台市若林区,土樋８－１０３号,,04,103,9840065,,,2022-02-08,清算の結了等,,,2018-12-06,1,,,,,ワイズ,0
761,3380001008720,登記記録の閉鎖等,0,2022-02-16,2022-02-10,株式会社米肥,,株式会社,福島県,郡山市,本町１丁目１番１７号,,07,203,9638871,,,2022-02-10,清算の結了等,,,2015-10-05,1,,,,,ベイヒ,0
768,3410001012165,登記記録の閉鎖等,0,2022-02-16,2022-02-09,システムビレッジ株式会社,,株式会社,秋田県,秋田市,新屋北浜町２２番１８号,,05,201,0101608,,,2022-02-09,清算の結了等,,,2019-04-26,1,,,,,システムビレッジ,0
771,3430001076522,登記記録の閉鎖等,0,2022-02-16,2022-02-07,システムディ北海道株式会社,,株式会社,北海道,札幌市中央区,南一条東６丁目１番地１５,,01,101,0600051,,,2022-02-07,合併による解散等,8130001021041,令和４年２月１日京都市中京区烏丸通三条上る場之町６０３番地株式会社システムディ（8130001021041）に合併し解散,2018-05-07,1,,,,,システムディホッカイドウ,0
778,3460105001588,登記記録の閉鎖等,0,2022-02-16,2022-01-25,天理教新一州分教会,,その他の設立登記法人,北海道,広尾郡広尾町,西二条１丁目１番地,,01,642,0892612,,,2022-01-25,合併による解散等,7430005000458,令和４年１月２４日札幌市中央区南八条西三丁目７番地の２０天理教新北州分教会（7430005000458）に合併し解散,2015-10-05,1,,,,,,0
782,4010001080318,登記記録の閉鎖等,0,2022-02-16,2022-02-10,株式会社ピー・エス・アイ,,株式会社,東京都,文京区,本郷４丁目９番３－２０３号,,13,105,1130033,,,2022-02-10,清算の結了等,,,2015-10-05,1,,,,,ピーエスアイ,0
806,4010405015299,登記記録の閉鎖等,0,2022-02-16,2022-02-10,一般社団法人グローバル人材交流機構,,その他の設立登記法人,東京都,港区,元麻布３丁目１番３５号,,13,103,1060046,,,2022-02-10,清算の結了等,,,2016-11-28,1,,,,,グローバルジンザイコウリュウキコウ,0
820,4011001067081,登記記録の閉鎖等,0,2022-02-16,2022-02-09,Ｗｅｂｎｅｔ　ＩＴ株式会社,,株式会社,東京都,港区,麻布十番１丁目１０番３号７０７号室,,13,103,1060045,,,2022-02-09,清算の結了等,,,2015-10-05,1,,,,,ウエブネットアイティー,0
872,4020002093012,登記記録の閉鎖等,0,2022-02-16,2022-02-10,有限会社登戸銘木店,,有限会社,神奈川県,川崎市多摩区,枡形３丁目５番１７号,,14,135,2140032,,,2022-02-10,清算の結了等,,,2015-10-05,1,,,,,ノボリトメイボクテン,0
883,4030001060318,登記記録の閉鎖等,0,2022-02-16,2022-02-10,株式会社武富総合企画,,株式会社,埼玉県,本庄市,東台４丁目８番１１号,,11,211,3670021,,,2022-02-10,清算の結了等,,,2015-10-05,1,,,,,タケトミソウゴウキカク,0
884,4030001072255,登記記録の閉鎖等,0,2022-02-16,2022-02-14,株式会社ＭＫプランニング,,株式会社,埼玉県,東松山市,松風台１５番地８４,,11,212,3550055,,,2022-02-14,清算の結了等,,,2015-10-05,1,,,,,エムケイプランニング,0
885,4030001090232,登記記録の閉鎖等,0,2022-02-16,2022-02-14,株式会社ディアシスト企画,,株式会社,埼玉県,坂戸市,南町１１番１８号,,11,239,3500233,,,2022-02-14,清算の結了等,,,2015-10-05,1,,,,,,0
905,4040005002439,登記記録の閉鎖等,0,2022-02-16,2022-02-08,医療法人社団星野小児科,,その他の設立登記法人,千葉県,習志野市,花咲２丁目１３番２１号,,12,216,2750013,,,2022-02-08,清算の結了等,,,2015-10-05,1,,,,,ホシノショウニカ,0
912,4080002010085,登記記録の閉鎖等,0,2022-02-16,2022-02-14,有限会社シゲホ設計,,有限会社,静岡県,静岡市清水区,梅ヶ谷１５７番地の６,,22,103,4240001,,,2022-02-14,清算の結了等,,,2015-10-05,1,,,,,シゲホセッケイ,0
925,4120001000792,登記記録の閉鎖等,0,2022-02-16,2022-02-10,株式会社土田製作所,,株式会社,大阪府,大阪市旭区,中宮５丁目５番２１号,,27,117,5350003,,,2022-02-10,清算の結了等,,,2015-10-05,1,,,,,ツチダセイサクショ,0
926,4120001007466,登記記録の閉鎖等,0,2022-02-16,2022-02-09,株式会社小寺硝子店,,株式会社,大阪府,大阪市都島区,高倉町２丁目４番２１号,,27,102,5340011,,,2022-02-09,清算の結了等,,,2015-10-05,1,,,,,コテラガラステン,0
942,4120901007210,登記記録の閉鎖等,0,2022-02-16,2022-02-15,ダイフク産業株式会社,,株式会社,大阪府,吹田市,千里山西１丁目２４番１号,,27,205,5650851,,,2022-02-15,清算の結了等,,,2015-10-05,1,,,,,ダイフクサンギョウ,0
955,4140001088620,登記記録の閉鎖等,0,2022-02-16,2022-02-10,株式会社ＴＩＤＡ,,株式会社,兵庫県,神戸市兵庫区,塚本通６丁目２番２０－２０５,,28,105,6520804,,,2022-02-10,清算の結了等,,,2015-10-05,1,,,,,ティーダ,0
975,4180002088723,登記記録の閉鎖等,0,2022-02-16,2022-02-10,有限会社プラミー,,有限会社,愛知県,知多市,原１丁目１８番地の５,,23,224,4780011,,,2022-02-10,清算の結了等,,,2015-10-05,1,,,,,プラミー,0
980,4180005001360,登記記録の閉鎖等,0,2022-02-16,2022-02-10,御嶽教三柱教会,,その他の設立登記法人,愛知県,名古屋市中村区,高道町１丁目７番２５号,,23,105,4530037,,,2022-02-10,清算の結了等,,,2015-10-05,1,,,,,オンタケキョウミハシラキョウカイ,0
989,4220005007048,登記記録の閉鎖等,0,2022-02-16,2022-02-09,農事組合法人河北畜産,,その他の設立登記法人,石川県,かほく市,鉢伏ホの２２番地の１,,17,209,9291117,,,2022-02-09,清算の結了等,,,2015-10-05,1,,,,,カホクチクサン,0
997,4250005005445,登記記録の閉鎖等,0,2022-02-16,2022-01-28,天理教香武分教会,,その他の設立登記法人,山口県,下松市,藤光町２丁目５番８号,,35,207,7440028,,,2022-01-28,合併による解散等,7250005005434,令和４年１月２８日山口県周南市二番町二丁目８番地天理教都山分教会（7250005005434）に合併し解散,2015-10-05,1,,,,,,0
1001,4280005007372,登記記録の閉鎖等,0,2022-02-16,2022-02-15,一般社団法人さんぽ観光,,その他の設立登記法人,島根県,松江市,浜佐田町５４６番地７,,32,201,6900855,,,2022-02-15,清算の結了等,,,2020-09-25,1,,,,,サンポカンコウ,0
1008,4310001006317,登記記録の閉鎖等,0,2022-02-16,2022-02-14,株式会社岡田,,株式会社,長崎県,佐世保市,大黒町４番２７号,,42,202,8570843,,,2022-02-14,清算の結了等,,,2015-10-05,1,,,,,オカダ,0
1040,4470005003591,登記記録の閉鎖等,0,2022-02-16,2022-01-24,天理教日乃光分教会,,その他の設立登記法人,香川県,坂出市,本町２丁目５番１９号,,37,203,7620044,,,2022-01-24,合併による解散等,9470005003579,令和４年１月２４日香川県坂出市京町三丁目５番３０号天理教宇多梅分教会（9470005003579）に合併し解散,2015-10-05,1,,,,,テンリキョウヒノヒカリブンキョウカイ,0
1047,5010001111773,登記記録の閉鎖等,0,2022-02-16,2022-02-14,株式会社ビアンエートル,,株式会社,東京都,中央区,日本橋小舟町９番３号,,13,102,1030024,,,2022-02-14,清算の結了等,,,2015-10-05,1,,,,,ビアンエートル,0
1059,5010401097472,登記記録の閉鎖等,0,2022-02-16,2022-01-26,株式会社イエラエセキュリティ,,株式会社,東京都,千代田区,神田司町２丁目７－２,,13,101,1010048,,,2022-01-26,合併による解散等,8012301009141,令和４年１月１日東京都渋谷区本町三丁目１２番１号ココン株式会社（8012301009141）に合併し解散,2015-10-05,1,,,,,イエラエセキュリティ,0
1081,5011001092558,登記記録の閉鎖等,0,2022-02-16,2022-02-01,株式会社ハリーズプレイス,,株式会社,東京都,目黒区,中央町２丁目１８－１１ハイヴ学芸大２０３,,13,110,1520001,,,2022-02-01,清算の結了等,,,2015-10-05,1,,,,,ハリーズプレイス,0
1093,5011101038122,登記記録の閉鎖等,0,2022-02-16,2022-01-13,株式会社ＢＦＬ経営財務研究所,,株式会社,東京都,新宿区,四谷４丁目２４番１６号,,13,104,1600004,,,2022-01-13,清算の結了等,,,2015-10-05,1,,,,,ビーエフエルケイエイザイムケンキュウショ,0
1110,5011702001973,登記記録の閉鎖等,0,2022-02-16,2022-02-10,有限会社エヌティ・クリーン,,有限会社,東京都,江戸川区,船堀２丁目３番１８号,,13,123,1340091,,,2022-02-10,清算の結了等,,,2015-10-05,1,,,,,エヌティクリーン,0
1127,5020002019420,登記記録の閉鎖等,0,2022-02-16,2022-02-14,有限会社東光ステンレス,,有限会社,神奈川県,横浜市港南区,日野南２丁目１番１４号,,14,111,2340055,,,2022-02-14,清算の結了等,,,2015-10-05,1,,,,,トウコウステンレス,0
1135,5030001102184,登記記録の閉鎖等,0,2022-02-16,2022-02-10,株式会社ＳＣ南越谷,,株式会社,埼玉県,草加市,谷塚町１２４０番地,,11,221,3400023,,,2022-02-10,合併による解散等,4030001102185,令和４年２月１日埼玉県草加市谷塚町１２４０番地株式会社ＳＣ谷塚（4030001102185）に合併し解散,2015-10-05,1,,,,,エスシーミナミコシガヤ,0
1137,5030002018248,登記記録の閉鎖等,0,2022-02-16,2022-02-10,有限会社ウラワ解体センター,,有限会社,埼玉県,さいたま市南区,大字大谷口３１６０番地,,11,108,3360042,,,2022-02-10,清算の結了等,,,2015-10-05,1,,,,,ウラワカイタイセンター,0
1142,5040002013990,登記記録の閉鎖等,0,2022-02-16,2022-02-08,有限会社シャルームイトウ,,有限会社,千葉県,千葉市花見川区,幕張町５丁目４００番地の２７,,12,102,2620032,,,2022-02-08,清算の結了等,,,2015-10-05,1,,,,,シャルームイトウ,0
1147,5040002103032,登記記録の閉鎖等,0,2022-02-16,2022-02-08,有限会社実方運送,,有限会社,千葉県,いすみ市,大原８９８番地,,12,238,2980004,,,2022-02-08,清算の結了等,,,2015-10-05,1,,,,,ジツカタウンソウ,0
1221,5180003019032,登記記録の閉鎖等,0,2022-02-16,2022-02-03,ベレタオフィス合同会社,,合同会社,愛知県,名古屋市緑区,武路町１００９番地（レジデンスミドリＢ２０１号）,,23,114,4580917,,,2022-02-03,清算の結了等,,,2018-06-14,1,,,,,ベレタオフィス,0
1225,5190002002137,登記記録の閉鎖等,0,2022-02-16,2022-02-15,有限会社割烹おきな,,有限会社,三重県,津市,一志町田尻９３番地１２,,24,201,5152516,,,2022-02-15,清算の結了等,,,2015-10-05,1,,,,,カッポウオキナ,0
1236,5260001014638,登記記録の閉鎖等,0,2022-02-16,2022-02-15,株式会社福山ナショナルフーズ,,株式会社,岡山県,倉敷市,加須山２４５番地の１,,33,202,7100026,,,2022-02-15,清算の結了等,,,2015-10-05,1,,,,,フクヤマナショナルフーズ,0
1237,5260001035840,登記記録の閉鎖等,0,2022-02-16,2022-02-15,株式会社Ｓ・Ｎ・Ｅクリエイトサービス,,株式会社,岡山県,玉野市,北方１５１５番地,,33,204,7060301,,,2022-02-15,清算の結了等,,,2021-08-04,1,,,,,エスエヌイークリエイトサービス,0
1255,5340002001783,登記記録の閉鎖等,0,2022-02-16,2022-02-14,栄和冷熱工業有限会社,,有限会社,鹿児島県,鹿児島市,西伊敷６丁目１５番８号,,46,201,8911202,,,2022-02-14,清算の結了等,,,2015-10-05,1,,,,,エイワレイネツコウギョウ,0
1270,5420002000125,登記記録の閉鎖等,0,2022-02-16,2022-02-15,有限会社青森食通,,有限会社,青森県,青森市,三好２丁目３番地１０,,02,201,0380006,,,2022-02-15,清算の結了等,,,2015-10-05,1,,,,,アオモリショクツウ,0
1271,5420005005807,登記記録の閉鎖等,0,2022-02-16,2022-02-14,特定非営利活動法人驥北会,,その他の設立登記法人,青森県,十和田市,大字三本木字佐井幅１１５番地５号,,02,206,0340001,,,2022-02-14,清算の結了等,,,2015-10-05,1,,,,,キホクカイ,0
1279,5440001006749,登記記録の閉鎖等,0,2022-02-16,2022-02-15,株式会社実藤工業,,株式会社,北海道,奥尻郡奥尻町,字奥尻９２番地２,,01,367,0431401,,,2022-02-15,清算の結了等,,,2015-10-05,1,,,,,ジツドウコウギョウ,0
1282,5470002002232,登記記録の閉鎖等,0,2022-02-16,2022-02-14,有限会社吉甲,,有限会社,香川県,高松市,福岡町４丁目１１番１４号,,37,201,7600066,,,2022-02-14,清算の結了等,,,2015-10-05,1,,,,,キッコウ,0
1306,6010005026629,登記記録の閉鎖等,0,2022-02-16,2022-02-14,シナモンリアルティ特定目的会社,,その他の設立登記法人,東京都,千代田区,丸の内３丁目１番１号東京共同会計事務所内,,13,101,1000005,,,2022-02-14,清算の結了等,,,2017-03-24,1,,,,,シナモンリアルティ,0
1337,6010901004605,登記記録の閉鎖等,0,2022-02-16,2022-02-14,株式会社三喜商事,,株式会社,東京都,世田谷区,池尻３丁目３０番１０号,,13,112,1540001,,,2022-02-14,清算の結了等,,,2015-10-05,1,,,,,サンキショウジ,0
1349,6011003006317,登記記録の閉鎖等,0,2022-02-16,2022-02-14,合同会社美々カンパニー,,合同会社,東京都,練馬区,中村南３丁目２－１２－３０５,,13,120,1760025,,,2022-02-14,清算の結了等,,,2015-10-23,1,,,,,ビビカンパニー,0
1357,6011402006850,登記記録の閉鎖等,0,2022-02-16,2022-02-14,有限会社西間木研磨工業所,,有限会社,東京都,板橋区,蓮沼町４４番１号,00055279,13,119,1740052,,,2022-02-14,清算の結了等,,,2015-10-05,1,,,,,ニシマギケンマコウギョウショ,0
1367,6011801033165,登記記録の閉鎖等,0,2022-02-16,2022-02-10,株式会社黒田,,株式会社,東京都,葛飾区,高砂２丁目１５番３号,,13,122,1250054,,,2022-02-10,清算の結了等,,,2017-04-12,1,,,,,クロダ,0
1379,6013301037778,登記記録の閉鎖等,0,2022-02-16,2022-02-08,ドロシー株式会社,,株式会社,東京都,豊島区,南大塚３丁目３９－７－８０１室,,13,116,1700005,,,2022-02-08,清算の結了等,,,2015-10-20,1,,,,,ドロシー,0
1390,6020002095171,登記記録の閉鎖等,0,2022-02-16,2022-02-10,有限会社薬宝商事,,有限会社,神奈川県,川崎市麻生区,上麻生１丁目９番１０号,,14,137,2150021,,,2022-02-10,合併による解散等,8120001082605,令和４年２月１日横浜市港北区新横浜三丁目１７番６号株式会社ココカラファインヘルスケア（8120001082605）に合併し解散,2015-10-05,1,,,,,ヤクホウショウジ,0
1398,6021001062088,登記記録の閉鎖等,0,2022-02-16,2022-01-31,ディーズコスチューム株式会社,,株式会社,東京都,渋谷区,千駄ヶ谷３丁目５５番６号,,13,113,1510051,,,2022-01-31,清算の結了等,,,2017-05-15,1,,,,,ディーズコスチューム,0
1406,6040001041372,登記記録の閉鎖等,0,2022-02-16,2022-02-03,株式会社松戸エレベーター,,株式会社,千葉県,松戸市,新松戸３丁目２６５番地２０２,,12,207,2700034,,,2022-02-03,清算の結了等,,,2015-10-05,1,,,,,マツドエレベーター,0
1429,6080401004719,登記記録の閉鎖等,0,2022-02-16,2022-02-14,株式会社フタバ観光,,株式会社,静岡県,浜松市中区,元城町１１７番地の２１,,22,131,4300946,,,2022-02-14,清算の結了等,,,2015-10-05,1,,,,,フタバカンコウ,0
1434,6100001002640,登記記録の閉鎖等,0,2022-02-16,2022-02-15,日本住宅情報株式会社,,株式会社,長野県,長野市,大字稲葉１４番地１,,20,201,3800911,,,2022-02-15,清算の結了等,,,2015-10-05,1,,,,,ニホンジュウタクジョウホウ,0
1439,6120002006663,登記記録の閉鎖等,0,2022-02-16,2022-02-10,有限会社川一商事,,有限会社,大阪府,大阪市東成区,東中本３丁目１６番１５号,,27,115,5370021,,,2022-02-10,清算の結了等,,,2015-10-05,1,,,,,カワイチショウジ,0
1450,6120101060280,登記記録の閉鎖等,0,2022-02-16,2022-02-08,ＳＨエナジー株式会社,,株式会社,大阪府,堺市堺区,神石市之町１３番８－３０３号,,27,141,5900813,,,2022-02-08,清算の結了等,,,2019-08-01,1,,,,,エスエイチエナジー,0
1465,6140001067069,登記記録の閉鎖等,0,2022-02-16,2022-02-10,株式会社サンユー緑化,,株式会社,兵庫県,三田市,横山町１７番４５号,,28,219,6691534,,,2022-02-10,清算の結了等,,,2015-10-05,1,,,,,,0
1472,6140005010982,登記記録の閉鎖等,0,2022-02-16,2022-02-14,医療法人社団加藤歯科医院,,その他の設立登記法人,兵庫県,尼崎市,御園町５番地尼崎土井ビルディング２階,,28,202,6600861,,,2022-02-14,清算の結了等,,,2015-10-05,1,,,,,シャダンカトウシカイイン,0
1480,6180001114305,登記記録の閉鎖等,0,2022-02-16,2022-02-08,Ａムービング株式会社,,株式会社,愛知県,名古屋市中区,錦１丁目７番２６号,,23,106,4600003,,,2022-02-08,合併による解散等,4040001014421,令和４年２月１日千葉県習志野市東習志野一丁目６番１７号航空集配サービス株式会社（4040001014421）に合併し解散,2015-10-05,1,,,,,エームービング,0
1488,6190001001056,登記記録の閉鎖等,0,2022-02-16,2022-02-15,株式会社三重学販,,株式会社,三重県,津市,上弁財町１７番１７号,,24,201,5140806,,,2022-02-15,清算の結了等,,,2015-10-05,1,,,,,ミエガクハン,0
1507,6260001013498,登記記録の閉鎖等,0,2022-02-16,2022-02-15,株式会社サンデン,,株式会社,岡山県,倉敷市,広江１丁目３番１０号,,33,202,7128043,,,2022-02-15,清算の結了等,,,2015-10-05,1,,,,,サンデン,0
1522,6290802003447,登記記録の閉鎖等,0,2022-02-16,2022-02-14,有限会社すなつ薬局,,有限会社,福岡県,北九州市小倉北区,昭和町３番１４号芙容ビル,,40,106,8020075,,,2022-02-14,清算の結了等,,,2015-10-05,1,,,,,スナツヤッキョク,0
1535,6340002010354,登記記録の閉鎖等,0,2022-02-16,2022-02-14,有限会社ラジャコーポレーション,,有限会社,鹿児島県,鹿児島市,加治屋町９番２０号,,46,201,8920846,,,2022-02-14,清算の結了等,,,2015-10-05,1,,,,,ラジャコーポレーション,0
1539,6350001005288,登記記録の閉鎖等,0,2022-02-16,2022-02-14,株式会社ニッコー,,株式会社,宮崎県,宮崎市,吉村町西中甲１３２８番地１サンライズ西中１０８号,,45,201,8800841,,,2022-02-14,清算の結了等,,,2015-10-05,1,,,,,ニッコー,0
1551,6380002017123,登記記録の閉鎖等,0,2022-02-16,2022-02-14,有限会社つちや,,有限会社,福島県,本宮市,本宮字南町裡２６番地,,07,214,9691131,,,2022-02-14,清算の結了等,,,2015-10-05,1,,,,,ツチヤ,0
1552,6380002034168,登記記録の閉鎖等,0,2022-02-16,2022-02-10,有限会社津尻温泉滝の湯,,有限会社,福島県,河沼郡会津坂下町,大字津尻字下川原２５５番地の２,,07,421,9696502,,,2022-02-10,清算の結了等,,,2015-10-05,1,,,,,ツジリオンセンタキノユ,0
1565,6420001011171,登記記録の閉鎖等,0,2022-02-16,2022-02-10,株式会社二北ブロック工場,,株式会社,青森県,十和田市,大字三本木字野崎４０番地４６９,,02,206,0340001,,,2022-02-10,清算の結了等,,,2015-10-05,1,,,,,ニホクブロックコウジョウ,0
1569,6430002004388,登記記録の閉鎖等,0,2022-02-16,2022-02-10,有限会社オフィス武田,,有限会社,北海道,札幌市白石区,中央一条４丁目２番２６号,,01,104,0030011,,,2022-02-10,清算の結了等,,,2015-10-05,1,,,,,オフィスタケダ,0
1589,7010001155538,登記記録の閉鎖等,0,2022-02-16,2022-01-31,株式会社アライド・インベストメント,,株式会社,東京都,渋谷区,広尾４丁目１番２５－５０６号,,13,113,1500012,,,2022-01-31,清算の結了等,,,2015-10-05,1,,,,,アライドインベストメント,0
1594,7010101002508,登記記録の閉鎖等,0,2022-02-16,2022-01-24,株式会社テクストトレーディングカンパニー,,株式会社,東京都,八王子市,元八王子町３丁目２７５０番地の７１３,,13,201,1930826,,,2022-01-24,合併による解散等,2010003036014,令和４年１月１日東京都渋谷区神宮前二丁目３１番１号Ｆｏｏｔ　Ｌｏｃｋｅｒ　ａｔｍｏｓ　Ｊａｐａｎ合同会社（2010003036014）に合併し解散,2015-10-05,1,,,,,,0
1607,7010601033762,登記記録の閉鎖等,0,2022-02-16,2022-02-10,クエステルジャパン株式会社,,株式会社,神奈川県,横浜市中区,山下町１９３番地１,,14,104,2310023,,,2022-02-10,合併による解散等,4010001074765,令和４年２月１日東京都千代田区大手町二丁目２番１号サイバーパテント株式会社（4010001074765）に合併し解散,2015-10-05,1,,,,,クエステルジャパン,0
1624,7011101011622,登記記録の閉鎖等,0,2022-02-16,2022-02-10,株式会社足心,,株式会社,東京都,新宿区,西新宿４丁目３２番１１－８１２号,,13,104,1600023,,,2022-02-10,清算の結了等,,,2015-10-05,1,,,,,ソクシン,0
1642,7011602006121,登記記録の閉鎖等,0,2022-02-16,2022-02-14,東京環境機器有限会社,,有限会社,東京都,練馬区,豊玉北１丁目１４番１号,,13,120,1760012,,,2022-02-14,清算の結了等,,,2015-10-05,1,,,,,トウキョウカンキョウキキ,0
1653,7013301031103,登記記録の閉鎖等,0,2022-02-16,2022-02-01,株式会社ジェイ・アイ・シー,,株式会社,東京都,豊島区,南大塚３丁目３２番１０号,,13,116,1700005,,,2022-02-01,合併による解散等,3013301018871,令和４年２月１日東京都豊島区南大塚三丁目３２番１０号エフ株式会社（3013301018871）に合併し解散,2015-10-05,1,,,,,ジェイアイシー,0
1658,7021001024954,登記記録の閉鎖等,0,2022-02-16,2022-02-07,永光産業株式会社,,株式会社,神奈川県,大和市,つきみ野１丁目７番１８号,,14,213,2420002,,,2022-02-07,清算の結了等,,,2015-10-05,1,,,,,エイコウサンギョウ,0
1666,7030001124111,登記記録の閉鎖等,0,2022-02-16,2022-02-14,快心工業株式会社,,株式会社,埼玉県,飯能市,茜台３丁目８番,,11,209,3570069,,,2022-02-14,清算の結了等,,,2018-02-02,1,,,,,カイシンコウギョウ,0
1684,7050002018608,登記記録の閉鎖等,0,2022-02-16,2022-02-09,有限会社半村商店,,有限会社,茨城県,猿島郡境町,大字大歩１７９０番地の１,,08,546,3060415,,,2022-02-09,清算の結了等,,,2015-10-05,1,,,,,,0
1693,7080005003026,登記記録の閉鎖等,0,2022-02-16,2022-02-10,万世町二丁目駐車場協同組合,,その他の設立登記法人,静岡県,静岡市清水区,万世町２丁目２番４号,,22,103,4240826,,,2022-02-10,清算の結了等,,,2015-10-05,1,,,,,マンセイチョウニチョウメチュウシャジョウ,0
1697,7100001024452,登記記録の閉鎖等,0,2022-02-16,2022-02-07,株式会社浅野屋,,株式会社,長野県,北佐久郡軽井沢町,大字軽井沢７３８番地,,20,321,3890102,,,2022-02-07,合併による解散等,3010001207020,令和４年２月１日東京都千代田区内幸町一丁目３番３号株式会社浅野屋（3010001207020）に合併し解散,2015-10-05,1,,,,,アサノヤ,0
1708,7120001162960,登記記録の閉鎖等,0,2022-02-16,2022-02-10,株式会社ＪＴＢ京阪トラベル,,株式会社,大阪府,大阪市中央区,久太郎町２丁目１番２５号,,27,128,5410056,,,2022-02-10,清算の結了等,,,2015-10-05,1,,,,,ジェイティービーケイハントラベル,0
1720,7120005020628,登記記録の閉鎖等,0,2022-02-16,2022-02-08,ＮＰＯ法人砂漠のラクダ,,その他の設立登記法人,大阪府,守口市,金田町２丁目７番６号,,27,209,5700011,,,2022-02-08,清算の結了等,,,2019-01-10,1,,,,,サバクノラクダ,0
1723,7120101031207,登記記録の閉鎖等,0,2022-02-16,2022-02-09,株式会社松葉商事,,株式会社,大阪府,富田林市,西板持町８丁目１６番１７号,,27,214,5840048,,,2022-02-09,合併による解散等,1120001047531,令和４年２月１日大阪市西区北堀江二丁目１６番１８号株式会社松葉（1120001047531）に合併し解散,2015-10-05,1,,,,,マツバショウジ,0
1741,7170001002352,登記記録の閉鎖等,0,2022-02-16,2022-02-07,中尾塗料商事株式会社,,株式会社,和歌山県,和歌山市,鳴神９６８番地の５,,30,201,6408303,,,2022-02-07,清算の結了等,,,2021-10-14,1,,,,,,0
1749,7180001149671,登記記録の閉鎖等,0,2022-02-16,2022-02-14,株式会社西保石油,,株式会社,愛知県,愛西市,西保町同所新田１００番地,,23,232,4960911,,,2022-02-14,清算の結了等,,,2022-02-14,1,,,,,ニシホセキユ,0
1753,7180002077244,登記記録の閉鎖等,0,2022-02-16,2022-02-09,有限会社ノリタケ,,有限会社,愛知県,一宮市,今伊勢町本神戸字無量寺東３３番地,,23,203,4910053,,,2022-02-09,清算の結了等,,,2015-10-05,1,,,,,ノリタケ,0
1782,7290001005426,登記記録の閉鎖等,0,2022-02-16,2022-02-10,株式会社津村愛文堂,,株式会社,福岡県,福岡市早良区,百道３丁目１４番２５号,,40,137,8140006,,,2022-02-10,清算の結了等,,,2015-10-05,1,,,,,ツムラアイブンドウ,0
1783,7290001062764,登記記録の閉鎖等,0,2022-02-16,2022-02-10,株式会社白石商会,,株式会社,福岡県,福津市,上西郷１３２９番地の４,,40,224,8113207,,,2022-02-10,清算の結了等,,,2015-10-05,1,,,,,シライシショウカイ,0
1800,7340002006500,登記記録の閉鎖等,0,2022-02-16,2022-02-14,有限会社寺園工務店,,有限会社,鹿児島県,鹿児島市,田上台２丁目３１番８号,,46,201,8900036,,,2022-02-14,清算の結了等,,,2015-10-05,1,,,,,テラゾノコウムテン,0
1802,7340002021788,登記記録の閉鎖等,0,2022-02-16,2022-02-09,有限会社丸山文具店,,有限会社,鹿児島県,大島郡瀬戸内町,大字古仁屋字松江１０番地の１４,,46,525,8941505,,,2022-02-09,清算の結了等,,,2015-10-05,1,,,,,マルヤマブングテン,0
1828,8010001122982,登記記録の閉鎖等,0,2022-02-16,2022-02-14,株式会社クレアト,,株式会社,東京都,台東区,柳橋１丁目８番５号,,13,106,1110052,,,2022-02-14,清算の結了等,,,2015-10-05,1,,,,,クレアト,0
1833,8010001173852,登記記録の閉鎖等,0,2022-02-16,2022-02-08,すまい研究所株式会社,,株式会社,東京都,千代田区,丸の内１丁目８番２号鉄鋼ビルディング４階,,13,101,1000005,,,2022-02-08,清算の結了等,,,2016-03-01,1,,,,,スマイケンキュウジョ,0
1834,8010001184354,登記記録の閉鎖等,0,2022-02-16,2022-02-08,株式会社ザ・ハウス,,株式会社,東京都,千代田区,神田錦町３丁目６番地錦町スクウェアビル２階,,13,101,1010054,,,2022-02-08,清算の結了等,,,2017-06-21,1,,,,,ザハウス,0
1876,8011001099352,登記記録の閉鎖等,0,2022-02-16,2022-02-09,株式会社ＫＯＩＦＵＫＵ,,株式会社,大阪府,大阪市浪速区,恵美須東３丁目６番１号新世界ＭＤビルＩＩ,00113026,27,111,5560002,,,2022-02-09,清算の結了等,,,2015-10-05,1,,,,,,0
1893,8012805002897,登記記録の閉鎖等,0,2022-02-16,2022-02-14,一般社団法人きずな会,,その他の設立登記法人,東京都,昭島市,武蔵野３丁目４番１号３０９号,,13,207,1960021,,,2022-02-14,清算の結了等,,,2020-01-10,1,,,,,キズナカイ,0
1902,8020001051586,登記記録の閉鎖等,0,2022-02-16,2022-02-01,株式会社紅友サービス,,株式会社,神奈川県,横浜市西区,花咲町７丁目１５０番地ウエインズ＆イッセイ横浜ビル６階,,14,103,2200022,,,2022-02-01,合併による解散等,6020001014751,令和４年２月１日横浜市西区花咲町七丁目１５０番地ウエインズ＆イッセイ横浜ビル６階株式会社紅梅組（6020001014751）に合併し解散,2015-10-05,1,,,,,コウユウサービス,0
1907,8020002090063,登記記録の閉鎖等,0,2022-02-16,2022-02-14,有限会社内藤,,有限会社,神奈川県,川崎市高津区,梶ケ谷６丁目８番地８,,14,134,2130015,,,2022-02-14,清算の結了等,,,2015-10-05,1,,,,,ナイトウ,0
1928,8050002018425,登記記録の閉鎖等,0,2022-02-16,2022-02-09,有限会社コスモビューティ,,有限会社,茨城県,猿島郡境町,大字大歩１７９０番地の１,,08,546,3060415,,,2022-02-09,清算の結了等,,,2015-10-05,1,,,,,コスモビューティ,0
1946,8100003002397,登記記録の閉鎖等,0,2022-02-16,2022-02-10,合同会社ケア招き猫,,合同会社,長野県,北安曇郡松川村,５６５１番地３３４,,20,482,3998501,,,2022-02-10,清算の結了等,,,2015-10-05,1,,,,,ケアマネキネコ,0
1974,8130002000713,登記記録の閉鎖等,0,2022-02-16,2022-02-14,有限会社嵯峨野電子,,有限会社,京都府,京都市右京区,嵯峨野有栖川町５０番地の２,,26,108,6168316,,,2022-02-14,清算の結了等,,,2015-10-05,1,,,,,,0
2005,8220001002651,登記記録の閉鎖等,0,2022-02-16,2022-02-09,株式会社コア・コミュニケーション,,株式会社,石川県,金沢市,三馬３丁目３０４番地,,17,201,9218162,,,2022-02-09,清算の結了等,,,2015-10-05,1,,,,,コアコミュニケーション,0
2018,8260003001268,登記記録の閉鎖等,0,2022-02-16,2022-02-15,合同会社トライアングル・アートワークス,,合同会社,岡山県,岡山市南区,若葉町１１番８号,,33,104,7028047,,,2022-02-15,清算の結了等,,,2015-10-05,1,,,,,トライアングルアートワークス,0
2034,8320001004209,登記記録の閉鎖等,0,2022-02-16,2022-02-08,株式会社升屋,,株式会社,大分県,大分市,大字羽屋１８８番地の１,,44,201,8700854,,,2022-02-08,清算の結了等,,,2015-10-05,1,,,,,ショウヤ,0
2101,9010801003233,登記記録の閉鎖等,0,2022-02-16,2022-02-07,株式会社クサカ企画,,株式会社,東京都,大田区,上池台５丁目２２番２２号タルパ１０５号室,,13,111,1450064,,,2022-02-07,清算の結了等,,,2015-10-05,1,,,,,クサカキカク,0
2118,9011201003773,登記記録の閉鎖等,0,2022-02-16,2022-02-08,株式会社東都機鋼社,,株式会社,東京都,中野区,丸山２丁目１１番１２号,,13,114,1650021,,,2022-02-08,清算の結了等,,,2015-10-05,1,,,,,トウトキコウシャ,0
2132,9012401033874,登記記録の閉鎖等,0,2022-02-16,2022-02-10,スタジオキッチン株式会社,,株式会社,東京都,調布市,布田１丁目２６番地１０,,13,208,1820024,,,2022-02-10,清算の結了等,,,2018-04-13,1,,,,,スタジオキッチン,0
2159,9030001102189,登記記録の閉鎖等,0,2022-02-16,2022-02-10,株式会社ＳＣ三郷,,株式会社,埼玉県,草加市,谷塚町１２４０番地,,11,221,3400023,,,2022-02-10,合併による解散等,4030001102185,令和４年２月１日埼玉県草加市谷塚町１２４０番地株式会社ＳＣ谷塚（4030001102185）に合併し解散,2015-10-05,1,,,,,エスシーミサト,0
2166,9030002026882,登記記録の閉鎖等,0,2022-02-16,2022-02-10,有限会社嘉藤不動産鑑定事務所,,有限会社,埼玉県,蕨市,中央１丁目１７番４０号蕨スカイマンション７０２号,,11,223,3350004,,,2022-02-10,清算の結了等,,,2015-10-05,1,,,,,カトウフドウサンカンテイジムショ,0
2167,9030002072150,登記記録の閉鎖等,0,2022-02-16,2022-02-14,有限会社アンデス,,有限会社,埼玉県,川越市,大字小仙波７４９番地８,,11,201,3500031,,,2022-02-14,清算の結了等,,,2015-10-05,1,,,,,アンデス,0
2169,9030005001882,登記記録の閉鎖等,0,2022-02-16,2022-02-14,特定非営利活動法人ＰＤＳイキイキ親子塾,,その他の設立登記法人,埼玉県,さいたま市中央区,上落合２丁目８番７号,,11,105,3380001,,,2022-02-14,清算の結了等,,,2015-10-05,1,,,,,ピーディーエスイキイキオヤコジュク,0
2177,9040005017663,登記記録の閉鎖等,0,2022-02-16,2022-02-07,ＮＰＯ法人スマート経理,,その他の設立登記法人,千葉県,我孫子市,栄３２番３号,,12,222,2701141,,,2022-02-07,清算の結了等,,,2015-10-05,1,,,,,スマートケイリ,0
2185,9070005004312,登記記録の閉鎖等,0,2022-02-16,2022-02-09,上毛商工協同組合,,その他の設立登記法人,群馬県,伊勢崎市,大手町１０番２０号,,10,204,3720048,,,2022-02-09,清算の結了等,,,2015-10-05,1,,,,,ジョウモウショウコウ,0
2191,9090002013116,登記記録の閉鎖等,0,2022-02-16,2022-02-09,有限会社ＴＯＫＩＯサポート,,有限会社,山梨県,南都留郡富士河口湖町,船津５１１５番地１１,,19,430,4010301,,,2022-02-09,清算の結了等,,,2015-10-05,1,,,,,トキオサポート,0
2209,9120002025512,登記記録の閉鎖等,0,2022-02-16,2022-02-10,有限会社日本派遣サービス,,有限会社,大阪府,大阪市東淀川区,豊里１丁目３番５３号,,27,114,5330013,,,2022-02-10,清算の結了等,,,2015-10-05,1,,,,,ニホンハケンサービス,0
2220,9120101058545,登記記録の閉鎖等,0,2022-02-16,2022-02-10,ＧＥＬ株式会社,,株式会社,大阪府,泉南市,幡代３丁目８３８番地の１,,27,228,5900524,,,2022-02-10,清算の結了等,,,2018-07-24,1,,,,,ゲル,0
2231,9140001034256,登記記録の閉鎖等,0,2022-02-16,2022-02-15,株式会社コルト,,株式会社,兵庫県,神戸市兵庫区,西多聞通１丁目３番３１－１０１号,,28,105,6520035,,,2022-02-15,清算の結了等,,,2015-10-05,1,,,,,コルト,0
2241,9140005023783,登記記録の閉鎖等,0,2022-02-16,2022-02-14,トミス協同組合,,その他の設立登記法人,兵庫県,神戸市東灘区,深江北町１丁目１０番１０号プラスワン芦屋１Ｆ,00111667,28,101,6580013,,,2022-02-14,清算の結了等,,,2017-10-26,1,,,,,トミス,0
2269,9270002000079,登記記録の閉鎖等,0,2022-02-16,2022-02-14,有限会社アラカネ精工,,有限会社,鳥取県,鳥取市,丸山町５６番地１８,,31,201,6800006,,,2022-02-14,清算の結了等,,,2015-10-05,1,,,,,アラカネセイコウ,0
2273,9290001077579,登記記録の閉鎖等,0,2022-02-16,2022-01-27,Ｋイメージングシステム株式会社,,株式会社,福岡県,福岡市博多区,博多駅前４丁目３－２２産恵ビル５Ｆ,,40,132,8120011,,,2022-01-27,合併による解散等,1290001075037,令和３年１２月２８日東京都渋谷区東３－２０－２ＫＩビル３０１号ＫＩＳ株式会社（1290001075037）に合併し解散,2017-04-27,1,,,,,ケーイメージングシステム,0
2278,9290801018658,登記記録の閉鎖等,0,2022-02-16,2022-02-14,株式会社ＡＡデザインオフィス,,株式会社,福岡県,北九州市八幡西区,折尾４丁目３２番２０号,,40,109,8070825,,,2022-02-14,清算の結了等,,,2015-10-05,1,,,,,エイエイデザインオフィス,0
2301,9380005006095,登記記録の閉鎖等,0,2022-02-16,2022-01-18,エホバの証人いわき市平会衆,,その他の設立登記法人,福島県,いわき市,内郷内町四方北１１４番地４,,07,204,9738404,,,2022-01-18,合併による解散等,7380005006444,令和４年１月１８日福島県いわき市小名浜南富岡字中前９番地の８エホバの証人いわき市南会衆（7380005006444）に合併し解散,2015-10-05,1,,,,,エホバノショウニンイワキシタイラカイシュウ,0
