sequenceNumber,corporateNumber,process,correct,updateDate,changeDate,name,nameImageId,kind,prefectureName,cityName,streetNumber,addressImageId,prefectureCode,cityCode,postCode,addressOutside,addressOutsideImageId,closeDate,closeCause,successorCorporateNumber,changeCause,assignmentDate,latest,enName,enPrefectureName,enCityName,enAddressOutside,furigana,hihyoji
1,1010001005046,登記記録の閉鎖等,0,2023-10-12,2023-10-06,ティック株式会社,,株式会社,東京都,北区,王子本町１丁目１７番６号,,13,117,1140022,,,2023-10-06,合併による解散等,9021001012420,令和５年１０月１日神奈川県相模原市南区相武台三丁目２８番１１号株式会社サンライフ（9021001012420）に合併し解散,2015-10-05,1,,,,,ティック,0
5,1010001087142,登記記録の閉鎖等,0,2023-10-12,2023-10-05,株式会社プリサイズ,,株式会社,東京都,千代田区,三番町１番地１３,,13,101,1020075,,,2023-10-05,合併による解散等,8013201005461,令和５年１０月１日東京都千代田区三番町１番地１３株式会社マーケティングコンシューマーネットワーク（8013201005461）に合併し解散,2015-10-05,1,,,,,プリサイズ,0
11,1010001221576,登記記録の閉鎖等,0,2023-10-12,2023-10-02,株式会社Ｈ＆Ｈ練馬,,株式会社,東京都,千代田区,神田駿河台３丁目７番地百瀬ビル本館２０２号室,,13,101,1010062,,,2023-10-02,合併による解散等,5010001183004,令和５年１０月１日東京都千代田区神田錦町二丁目２番地１株式会社Ｈ＆Ｈホールディングス（5010001183004）に合併し解散,2021-10-06,1,,,,,エイチアンドエイチネリマ,0
21,1010401018366,登記記録の閉鎖等,0,2023-10-12,2023-09-19,株式会社テイクイット・エージェンシー,,株式会社,東京都,港区,東麻布１丁目１０番１１号,,13,103,1060044,,,2023-09-19,清算の結了等,,,2015-10-05,1,,,,,テイクイットエージェンシー,0
22,1010401038257,登記記録の閉鎖等,0,2023-10-12,2023-10-02,クラシエフーズ株式会社,,株式会社,東京都,港区,海岸３丁目２０番２０号,,13,103,1080022,,,2023-10-02,合併による解散等,2010401061852,令和５年１０月１日東京都港区海岸三丁目２０番２０号クラシエ株式会社（2010401061852）に合併し解散,2015-10-05,1,,,,,クラシエフーズ,0
24,1010401061853,登記記録の閉鎖等,0,2023-10-12,2023-10-02,クラシエ製薬株式会社,,株式会社,東京都,港区,海岸３丁目２０番２０号,,13,103,1080022,,,2023-10-02,合併による解散等,2010401061852,令和５年１０月１日東京都港区海岸三丁目２０番２０号クラシエ株式会社（2010401061852）に合併し解散,2015-10-05,1,,,,,クラシエセイヤク,0
73,1012302008784,登記記録の閉鎖等,0,2023-10-12,2023-10-03,壽興産業有限会社,,有限会社,東京都,町田市,木曽西５丁目１５番３５号,,13,209,1940037,,,2023-10-03,清算の結了等,,,2015-10-05,1,,,,,ジュコウサンギョウ,0
76,1013101005097,登記記録の閉鎖等,0,2023-10-12,2023-10-05,株式会社エムピー,,株式会社,東京都,羽村市,羽加美２丁目１６番１０号,,13,227,2050016,,,2023-10-05,清算の結了等,,,2015-10-05,1,,,,,エムピー,0
98,1030001047730,登記記録の閉鎖等,0,2023-10-12,2023-09-15,ビーネット株式会社,,株式会社,埼玉県,新座市,石神３丁目１７番３号,,11,230,3520033,,,2023-09-15,清算の結了等,,,2015-10-05,1,,,,,ビーネット,0
131,1070001025245,登記記録の閉鎖等,0,2023-10-12,2023-10-10,株式会社障子総合保険事務所,,株式会社,群馬県,前橋市,下細井町６４３番地６,,10,201,3710054,,,2023-10-10,清算の結了等,,,2015-10-05,1,,,,,ショウジソウゴウホケンジムショ,0
136,1080001018743,登記記録の閉鎖等,0,2023-10-12,2023-10-10,株式会社翠香舎,,株式会社,静岡県,静岡市清水区,殿沢１丁目２０番１５号,,22,103,4240912,,,2023-10-10,清算の結了等,,,2015-10-05,1,,,,,スイコウシャ,0
152,1110001019622,登記記録の閉鎖等,0,2023-10-12,2023-10-06,株式会社ヨシトモ,,株式会社,新潟県,上越市,吉川区原之町１３９３番地,,15,222,9493445,,,2023-10-06,清算の結了等,,,2015-10-05,1,,,,,ヨシトモ,0
176,1120901000481,登記記録の閉鎖等,0,2023-10-12,2023-10-06,株式会社大阪府食品流通センター,,株式会社,大阪府,茨木市,宮島１丁目２番１号,,27,211,5670853,,,2023-10-06,合併による解散等,5120101043162,令和５年１０月１日大阪府和泉市いぶき野五丁目１番１号泉北高速鉄道株式会社（5120101043162）に合併し解散,2015-10-05,1,,,,,オオサカフショクヒンリュウツウセンター,0
177,1120901012097,登記記録の閉鎖等,0,2023-10-12,2023-10-06,三笠建設株式会社,,株式会社,大阪府,高槻市,天神町１丁目１３番１号,,27,207,5691117,,,2023-10-06,清算の結了等,,,2015-10-05,1,,,,,,0
192,1140001049410,登記記録の閉鎖等,0,2023-10-12,2023-10-05,住精エンジニアリング株式会社,,株式会社,兵庫県,尼崎市,扶桑町１番１０号,,28,202,6600891,,,2023-10-05,合併による解散等,4140001049416,令和５年１０月１日兵庫県尼崎市扶桑町１番１０号住友精密工業株式会社（4140001049416）に合併し解散,2015-10-05,1,,,,,スミセイエンジニアリング,0
195,1150001006204,登記記録の閉鎖等,0,2023-10-12,2023-10-10,株式会社村尾全快堂薬局,,株式会社,奈良県,大和郡山市,南郡山町５２７番地の１１,,29,203,6391007,,,2023-10-10,清算の結了等,,,2015-10-05,1,,,,,ムラオゼンカイドウヤッキョク,0
197,1150001024065,登記記録の閉鎖等,0,2023-10-12,2023-10-11,株式会社Ｂｌｕｅ　Ｒｏｓｅ,,株式会社,奈良県,奈良市,中山町１２５９－２１,,29,201,6310012,,,2023-10-11,清算の結了等,,,2020-09-28,1,,,,,ブルーローズ,0
220,1200002018969,登記記録の閉鎖等,0,2023-10-12,2023-10-10,有限会社中之保給油所,,有限会社,岐阜県,関市,中之保５６９９番地,,21,205,5013511,,,2023-10-10,清算の結了等,,,2015-10-05,1,,,,,ナカノホキュウユジョ,0
237,1290001009424,登記記録の閉鎖等,0,2023-10-12,2023-10-02,エフ・ジェイ下川端ビル株式会社,,株式会社,福岡県,福岡市博多区,住吉１丁目２番２５号,,40,132,8120018,,,2023-10-02,合併による解散等,1290001016156,令和５年１０月１日福岡市博多区住吉一丁目２番２５号福岡地所株式会社（1290001016156）に合併し解散,2015-10-05,1,,,,,エフジェイシモカワバタビル,0
239,1290001069880,登記記録の閉鎖等,0,2023-10-12,2023-09-29,株式会社えーねっと,,株式会社,福岡県,糸島市,波多江駅北１丁目６番１６号,,40,230,8191107,,,2023-09-29,清算の結了等,,,2015-10-05,1,,,,,エーネット,0
245,1290801002066,登記記録の閉鎖等,0,2023-10-12,2023-10-06,西部住機株式会社,,株式会社,福岡県,北九州市小倉北区,古船場町５番２３号,,40,106,8020082,,,2023-10-06,合併による解散等,3290801001248,令和５年１０月１日北九州市小倉北区貴船町２番４号西部ガスリアルライフ北九州株式会社（3290801001248）に合併し解散,2015-10-05,1,,,,,サイブジュウキ,0
248,1290801018104,登記記録の閉鎖等,0,2023-10-12,2023-10-11,ダイセン建設株式会社,,株式会社,福岡県,北九州市八幡西区,大浦１丁目１３番２２号,,40,109,8070874,,,2023-10-11,清算の結了等,,,2015-10-05,1,,,,,ダイセンケンセツ,0
254,1330003004625,登記記録の閉鎖等,0,2023-10-12,2023-10-02,合同会社奥平開発,,合同会社,熊本県,熊本市北区,四方寄町４９２番地３,,43,105,8615515,,,2023-10-02,合併による解散等,2330002010136,令和５年１０月１日熊本市北区四方寄町４９２番地３株式会社水輝（2330002010136）に合併し解散,2015-10-05,1,,,,,オクダイラカイハツ,0
268,1370005000783,登記記録の閉鎖等,0,2023-10-12,2023-10-03,鹿島開拓農業協同組合,,その他の設立登記法人,宮城県,仙台市泉区,本田町１５番２９号,,04,105,9813107,,,2023-10-03,清算の結了等,,,2015-10-05,1,,,,,カシマカイタク,0
274,1410002010343,登記記録の閉鎖等,0,2023-10-12,2023-10-02,有限会社たきや,,有限会社,秋田県,能代市,南元町１番４０号,,05,202,0160832,,,2023-10-02,清算の結了等,,,2015-10-05,1,,,,,タキヤ,0
284,1460103001237,登記記録の閉鎖等,0,2023-10-12,2023-10-10,合同会社ウェスト,,合同会社,北海道,河西郡芽室町,東芽室基線１６番地４,,01,637,0820005,,,2023-10-10,清算の結了等,,,2019-08-22,1,,,,,ウェスト,0
297,2010001146756,登記記録の閉鎖等,0,2023-10-12,2023-10-02,大信貿易株式会社千葉,,株式会社,東京都,千代田区,西神田１丁目３番１４号,,13,101,1010065,,,2023-10-02,清算の結了等,,,2015-10-05,1,,,,,ダイシンボウエキチバ,0
300,2010001214091,登記記録の閉鎖等,0,2023-10-12,2023-09-29,ホビモ株式会社,,株式会社,東京都,千代田区,神田司町２丁目１６番地佐一第二ビル４階,,13,101,1010048,,,2023-09-29,清算の結了等,,,2020-12-09,1,,,,,ホビモ,0
314,2010401035575,登記記録の閉鎖等,0,2023-10-12,2023-10-06,株式会社新都市リアル・エステイト,,株式会社,東京都,港区,愛宕２丁目５番１号愛宕グリーンヒルズＭＯＲＩタワー２４階愛宕虎ノ門法律事務所内,,13,103,1050002,,,2023-10-06,合併による解散等,1440001004459,令和５年１０月１日北海道函館市大町９番１号相馬株式会社（1440001004459）に合併し解散,2015-10-05,1,,,,,シントシリアルエステイト,0
328,2010601045242,登記記録の閉鎖等,0,2023-10-12,2023-10-03,株式会社グローイング,,株式会社,東京都,江東区,亀戸７丁目３９番６号,,13,108,1360071,,,2023-10-03,清算の結了等,,,2015-10-05,1,,,,,グローイング,0
355,2011102020503,登記記録の閉鎖等,0,2023-10-12,2023-10-11,イースト・ウェーブ・カンパニー有限会社,,有限会社,東京都,新宿区,弁天町２３番地１０－１２０３号,,13,104,1620851,,,2023-10-11,清算の結了等,,,2015-10-05,1,,,,,イーストウェーブカンパニー,0
359,2011402007596,登記記録の閉鎖等,0,2023-10-12,2023-10-11,有限会社ファイン,,有限会社,東京都,板橋区,成増２丁目８番８号,,13,119,1750094,,,2023-10-11,清算の結了等,,,2015-10-05,1,,,,,,0
362,2011701018105,登記記録の閉鎖等,0,2023-10-12,2023-10-05,株式会社ＳＴ物流サポート,,株式会社,東京都,江戸川区,西瑞江５丁目１２番２０号,,13,123,1340015,,,2023-10-05,清算の結了等,,,2015-10-05,1,,,,,,0
370,2012702010447,登記記録の閉鎖等,0,2023-10-12,2023-10-06,ヒロ・トレーディング有限会社,,有限会社,東京都,小平市,花小金井３丁目１５番１号,,13,211,1870002,,,2023-10-06,清算の結了等,,,2015-10-05,1,,,,,ヒロトレーディング,0
378,2020001059206,登記記録の閉鎖等,0,2023-10-12,2023-10-02,株式会社大弘,,株式会社,神奈川県,横浜市都筑区,仲町台１丁目７番１号,,14,118,2240041,,,2023-10-02,清算の結了等,,,2015-10-05,1,,,,,ダイコウ,0
412,2040001051937,登記記録の閉鎖等,0,2023-10-12,2023-10-05,日鉄物流君津株式会社,,株式会社,千葉県,君津市,君津１番地,,12,225,2991141,,,2023-10-05,合併による解散等,1010001098619,令和５年１０月１日東京都中央区日本橋一丁目１３番１号日鉄物流株式会社（1010001098619）に合併し解散,2015-10-05,1,,,,,ニッテツブツリュウキミツ,0
423,2050001041086,登記記録の閉鎖等,0,2023-10-12,2023-10-03,株式会社ミヤビ,,株式会社,茨城県,石岡市,石川１４２３番地,,08,205,3150046,,,2023-10-03,清算の結了等,,,2016-06-03,1,,,,,ミヤビ,0
431,2070002024872,登記記録の閉鎖等,0,2023-10-12,2023-10-06,有限会社美濃屋商店,,有限会社,群馬県,桐生市,浜松町１丁目７番１１号,,10,203,3760007,,,2023-10-06,清算の結了等,,,2015-10-05,1,,,,,ミノヤショウテン,0
438,2080403003284,登記記録の閉鎖等,0,2023-10-12,2023-10-06,合同会社ゆず樹,,合同会社,静岡県,浜松市中区,中島２丁目９番１４号,,22,131,4300856,,,2023-10-06,清算の結了等,,,2016-05-24,1,,,,,ユズキ,0
440,2090002001928,登記記録の閉鎖等,0,2023-10-12,2023-10-05,有限会社多喜田,,有限会社,山梨県,甲府市,中央１丁目２番１１号,,19,201,4000032,,,2023-10-05,清算の結了等,,,2015-10-05,1,,,,,タキタ,0
455,2120901031492,登記記録の閉鎖等,0,2023-10-12,2023-10-06,Ｔ’ＡＣＥ　ＪＡＰＡＮ株式会社,,株式会社,大阪府,羽曳野市,栄町８番８－２１０号,,27,222,5830853,,,2023-10-06,清算の結了等,,,2015-10-05,1,,,,,ティーエースジャパン,0
463,2122002017264,登記記録の閉鎖等,0,2023-10-12,2023-10-04,有限会社シーズ,,有限会社,大阪府,東大阪市,稲田本町２丁目１１番６号,,27,227,5770007,,,2023-10-04,清算の結了等,,,2015-10-05,1,,,,,シーズ,0
464,2140001026417,登記記録の閉鎖等,0,2023-10-12,2023-10-02,株式会社日乃出興産,,株式会社,兵庫県,神戸市灘区,灘北通１０丁目１番８号,,28,102,6570835,,,2023-10-02,合併による解散等,1140001028950,令和５年１０月１日神戸市灘区灘北通十丁目１番８号神戸シップマネージメント株式会社（1140001028950）に合併し解散,2015-10-05,1,,,,,ヒノデコウサン,0
476,2180001094674,登記記録の閉鎖等,0,2023-10-12,2023-10-06,株式会社カトーカンパニー,,株式会社,愛知県,知多市,新知字海廻間５７番地,,23,224,4780017,,,2023-10-06,清算の結了等,,,2015-10-05,1,,,,,カトーカンパニー,0
481,2180302026491,登記記録の閉鎖等,0,2023-10-12,2023-10-02,有限会社マスオカ,,有限会社,愛知県,西尾市,今川町仲屋敷２５番地１,,23,213,4450063,,,2023-10-02,清算の結了等,,,2015-10-05,1,,,,,マスオカ,0
482,2180302027234,登記記録の閉鎖等,0,2023-10-12,2023-10-02,有限会社ジェーアールケー,,有限会社,愛知県,西尾市,今川町仲屋敷２５番地１,,23,213,4450063,,,2023-10-02,清算の結了等,,,2015-10-05,1,,,,,ジェーアールケー,0
504,2260002030463,登記記録の閉鎖等,0,2023-10-12,2023-10-06,有限会社櫻井鈑金塗装工場,,有限会社,岡山県,美作市,明見７４４番地１,,33,215,7070003,,,2023-10-06,清算の結了等,,,2015-10-05,1,,,,,,0
507,2290001058412,登記記録の閉鎖等,0,2023-10-12,2023-10-02,株式会社Ｋ・メイトク,,株式会社,福岡県,福岡市中央区,西中洲１１番７号,,40,133,8100002,,,2023-10-02,清算の結了等,,,2015-10-05,1,,,,,ケイメイトク,0
511,2290002006790,登記記録の閉鎖等,0,2023-10-12,2023-10-02,有限会社サン・ナカノ,,有限会社,福岡県,福岡市城南区,茶山１丁目６番１号,,40,136,8140111,,,2023-10-02,清算の結了等,,,2015-10-05,1,,,,,サンナカノ,0
535,2370002001726,登記記録の閉鎖等,0,2023-10-12,2023-10-05,有限会社ポップ,,有限会社,宮城県,宮城郡利府町,神谷沢字南沢１番地２２９,,04,406,9810121,,,2023-10-05,清算の結了等,,,2015-10-05,1,,,,,ポップ,0
537,2370302002614,登記記録の閉鎖等,0,2023-10-12,2023-10-04,有限会社渡辺設備,,有限会社,宮城県,石巻市,大瓜字小福地９９番地,,04,202,9860005,,,2023-10-04,清算の結了等,,,2015-10-05,1,,,,,ワタナベセツビ,0
538,2380001009414,登記記録の閉鎖等,0,2023-10-12,2023-10-05,株式会社大一紙業社,,株式会社,福島県,二本松市,渋川字大森越１２１番地１,,07,210,9691403,,,2023-10-05,清算の結了等,,,2015-10-05,1,,,,,ダイイチシギョウシャ,0
544,2400002007686,登記記録の閉鎖等,0,2023-10-12,2023-09-29,有限会社杉本造林,,有限会社,岩手県,八幡平市,兄川１７０番地の３,,03,214,0287621,,,2023-09-29,清算の結了等,,,2015-10-05,1,,,,,スギモトゾウリン,0
549,2460302000724,登記記録の閉鎖等,0,2023-10-12,2023-10-10,有限会社佐藤宅建,,有限会社,北海道,北見市,北進町７丁目１７番１５号,,01,208,0900052,,,2023-10-10,清算の結了等,,,2015-10-05,1,,,,,,0
557,2500005003326,登記記録の閉鎖等,0,2023-10-12,2023-10-10,瀬戸内事業協同組合,,その他の設立登記法人,愛媛県,西予市,宇和町東多田９６番地１,,38,214,7970041,,,2023-10-10,清算の結了等,,,2015-10-05,1,,,,,セトウチ,0
599,3010405017412,登記記録の閉鎖等,0,2023-10-12,2023-09-22,一般社団法人欲しかった暮らしをしよう,,その他の設立登記法人,東京都,港区,赤坂７丁目６番１５号,,13,103,1070052,,,2023-09-22,清算の結了等,,,2019-01-30,1,,,,,ホシカッタクラシヲシヨウ,0
605,3010701003446,登記記録の閉鎖等,0,2023-10-12,2023-10-06,株式会社小室総業,,株式会社,東京都,品川区,中延５丁目９番１３号,,13,109,1420053,,,2023-10-06,合併による解散等,5010701003444,令和５年１０月６日東京都品川区中延五丁目９番１３号株式会社小室商店（5010701003444）に合併し解散,2015-10-05,1,,,,,コムロソウギョウ,0
611,3010902001257,登記記録の閉鎖等,0,2023-10-12,2023-10-03,有限会社飯田屋,,有限会社,東京都,世田谷区,上北沢４丁目１２番６号,,13,112,1560057,,,2023-10-03,清算の結了等,,,2015-10-05,1,,,,,イイダヤ,0
612,3010902007568,登記記録の閉鎖等,0,2023-10-12,2023-10-03,有限会社下山酒店,,有限会社,東京都,世田谷区,南烏山４丁目２０番４号,,13,112,1570062,,,2023-10-03,清算の結了等,,,2015-10-05,1,,,,,シモヤマサケテン,0
617,3011001138230,登記記録の閉鎖等,0,2023-10-12,2023-10-04,株式会社ＭＵＭ,,株式会社,東京都,渋谷区,代々木１丁目３２番１５号第三白倉ビル２Ｆ,,13,113,1510053,,,2023-10-04,清算の結了等,,,2021-02-01,1,,,,,エムユーエム,0
618,3011001138635,登記記録の閉鎖等,0,2023-10-12,2023-10-04,株式会社ヒキツギ,,株式会社,東京都,渋谷区,神宮前６丁目２３番４号桑野ビル２階,,13,113,1500001,,,2023-10-04,清算の結了等,,,2021-02-24,1,,,,,ヒキツギ,0
637,3011801006702,登記記録の閉鎖等,0,2023-10-12,2023-10-06,小川興業株式会社,,株式会社,東京都,足立区,日ノ出町２０番１５号,,13,121,1200021,,,2023-10-06,清算の結了等,,,2015-10-05,1,,,,,オガワコウギョウ,0
667,3021001031748,登記記録の閉鎖等,0,2023-10-12,2023-10-05,株式会社アウル・プランニング,,株式会社,神奈川県,海老名市,門沢橋６丁目１７番１１号,,14,215,2430426,,,2023-10-05,清算の結了等,,,2015-10-05,1,,,,,アウルプランニング,0
670,3030001000233,登記記録の閉鎖等,0,2023-10-12,2023-09-19,株式会社アワーハウス,,株式会社,埼玉県,さいたま市浦和区,上木崎１丁目８番２０号３０１,,11,107,3300071,,,2023-09-19,清算の結了等,,,2015-10-05,1,,,,,アワーハウス,0
672,3030001086017,登記記録の閉鎖等,0,2023-10-12,2023-09-22,株式会社河野製作所,,株式会社,埼玉県,深谷市,田中１７３９番地２,,11,218,3691108,,,2023-09-22,清算の結了等,,,2015-10-05,1,,,,,カワノセイサクジョ,0
678,3030002003409,登記記録の閉鎖等,0,2023-10-12,2023-09-22,有限会社金子薬舖,,有限会社,埼玉県,さいたま市南区,白幡２丁目１番１７号,,11,108,3360022,,,2023-09-22,清算の結了等,,,2015-10-05,1,,,,,カネコヤクホ,0
682,3030005004916,登記記録の閉鎖等,0,2023-10-12,2023-09-22,羽生市中央商店街協同組合,,その他の設立登記法人,埼玉県,羽生市,中央３丁目４番１１号,,11,216,3480058,,,2023-09-22,清算の結了等,,,2015-10-05,1,,,,,ハニュウシチュウオウショウテンガイ,0
686,3040001068749,登記記録の閉鎖等,0,2023-10-12,2023-09-25,株式会社Ｌａｔ,,株式会社,千葉県,柏市,柏３丁目９番２１号,,12,217,2770005,,,2023-09-25,清算の結了等,,,2015-10-05,1,,,,,ラット,0
688,3040001103737,登記記録の閉鎖等,0,2023-10-12,2023-09-27,Ｌ＆Ｄ　ＧＬＯＢＡＬ株式会社,,株式会社,千葉県,富里市,日吉台２丁目２１番１５号,,12,233,2860201,,,2023-09-27,清算の結了等,,,2018-03-07,1,,,,,エルアンドディーグローバル,0
706,3080101017973,登記記録の閉鎖等,0,2023-10-12,2023-09-28,株式会社ＥＮＥ．Ｒ＆Ｄ,,株式会社,静岡県,富士市,宮島３０２番地の１９,,22,210,4160945,,,2023-09-28,清算の結了等,,,2015-10-05,1,,,,,イーエヌイーアールアンドディー,0
707,3080103002387,登記記録の閉鎖等,0,2023-10-12,2023-10-03,Ｈ＆Ｏジャパン合同会社,,合同会社,静岡県,三島市,南町８－４,,22,206,4110842,,,2023-10-03,清算の結了等,,,2021-10-20,1,,,,,エイチアンドオージャパン,0
754,3140002039854,登記記録の閉鎖等,0,2023-10-12,2023-10-05,有限会社アリスコンタクトレンズ,,有限会社,兵庫県,尼崎市,塚口町４丁目１５番地の５,,28,202,6610002,,,2023-10-05,清算の結了等,,,2015-10-05,1,,,,,アリスコンタクトレンズ,0
755,3140002052270,登記記録の閉鎖等,0,2023-10-12,2023-10-06,有限会社ゴンス,,有限会社,兵庫県,姫路市,西庄甲５８０番地の５,,28,201,6700981,,,2023-10-06,合併による解散等,4120101037561,令和５年１０月１日大阪府岸和田市地蔵浜町１１番１号ヒラオカ石油株式会社（4120101037561）に合併し解散,2015-10-05,1,,,,,ゴンス,0
782,3190002016361,登記記録の閉鎖等,0,2023-10-12,2023-09-28,有限会社内山デンキ,,有限会社,三重県,桑名市,大字増田５１７番地の４,,24,205,5110853,,,2023-09-28,清算の結了等,,,2015-10-05,1,,,,,ウチヤマデンキ,0
795,3230002003405,登記記録の閉鎖等,0,2023-10-12,2023-10-10,マリエマーケティング有限会社,,有限会社,富山県,富山市,中番１４０番地の２,,16,201,9301315,,,2023-10-10,清算の結了等,,,2015-10-05,1,,,,,マリエマーケティング,0
802,3260001013451,登記記録の閉鎖等,0,2023-10-12,2023-10-05,株式会社坂新組,,株式会社,岡山県,倉敷市,玉島乙島７４７１番地,,33,202,7138103,,,2023-10-05,清算の結了等,,,2015-10-05,1,,,,,サカシングミ,0
826,3370001046226,登記記録の閉鎖等,0,2023-10-12,2023-10-05,株式会社ワイズオーシャン,,株式会社,宮城県,仙台市宮城野区,福室１丁目３番１８号,,04,102,9830005,,,2023-10-05,清算の結了等,,,2020-10-06,1,,,,,,0
833,3370101001626,登記記録の閉鎖等,0,2023-10-12,2023-10-03,株式会社佐藤会計事務所,,株式会社,宮城県,柴田郡大河原町,字緑町２６番地１,,04,321,9891221,,,2023-10-03,清算の結了等,,,2015-10-05,1,,,,,サトウカイケイジムショ,0
835,3370501000120,登記記録の閉鎖等,0,2023-10-12,2023-10-05,株式会社からくわフードセンター,,株式会社,宮城県,気仙沼市,唐桑町馬場１４９番地の３,,04,205,9880535,,,2023-10-05,清算の結了等,,,2015-10-05,1,,,,,カラクワフードセンター,0
839,3380002034063,登記記録の閉鎖等,0,2023-10-12,2023-10-04,有限会社イルカ電設工業,,有限会社,福島県,河沼郡会津坂下町,大字塔寺字上ノ堤２６７０番地１,,07,421,9696584,,,2023-10-04,清算の結了等,,,2015-10-05,1,,,,,イルカデンセツコウギョウ,0
841,3390002002416,登記記録の閉鎖等,0,2023-10-12,2023-10-06,有限会社ポート・エクボ,,有限会社,山形県,山形市,東青田５丁目１番２３号,,06,201,9902423,,,2023-10-06,清算の結了等,,,2015-10-05,1,,,,,ポートエクボ,0
850,3440001005959,登記記録の閉鎖等,0,2023-10-12,2023-10-06,株式会社北興商事,,株式会社,北海道,二海郡八雲町,東雲町２０番地の８,,01,346,0493105,,,2023-10-06,清算の結了等,,,2015-10-05,1,,,,,ホッコウショウジ,0
858,3480002008461,登記記録の閉鎖等,0,2023-10-12,2023-10-05,有限会社福永鉄工所,,有限会社,徳島県,徳島市,南田宮３丁目６番３３号,,36,201,7700004,,,2023-10-05,清算の結了等,,,2015-10-05,1,,,,,フクナガテッコウショ,0
859,3490002002455,登記記録の閉鎖等,0,2023-10-12,2023-10-06,有限会社十四建設,,有限会社,高知県,高知市,南竹島町６番地３６,,39,201,7808017,,,2023-10-06,清算の結了等,,,2015-10-05,1,,,,,ジュウヨンケンセツ,0
869,4010001183005,登記記録の閉鎖等,0,2023-10-12,2023-10-02,株式会社Ｈ＆Ｈ葛飾,,株式会社,東京都,千代田区,神田駿河台３丁目７番地百瀬ビル本館２０２号室,,13,101,1010062,,,2023-10-02,合併による解散等,5010001183004,令和５年１０月１日東京都千代田区神田錦町二丁目２番地１株式会社Ｈ＆Ｈホールディングス（5010001183004）に合併し解散,2017-04-25,1,,,,,エイチアンドエイチカツシカ,0
870,4010001194258,登記記録の閉鎖等,0,2023-10-12,2023-10-02,株式会社Ｈ＆Ｈ新宿,,株式会社,東京都,千代田区,神田駿河台３丁目７番地百瀬ビル本館２０２号室,,13,101,1010062,,,2023-10-02,合併による解散等,5010001183004,令和５年１０月１日東京都千代田区神田錦町二丁目２番地１株式会社Ｈ＆Ｈホールディングス（5010001183004）に合併し解散,2018-08-21,1,,,,,エイチアンドエイチシンジュク,0
886,4010401029641,登記記録の閉鎖等,0,2023-10-12,2023-09-25,株式会社モリシマ,,株式会社,東京都,港区,東麻布２丁目２６番６号,,13,103,1060044,,,2023-09-25,清算の結了等,,,2015-10-05,1,,,,,モリシマ,0
887,4010401085800,登記記録の閉鎖等,0,2023-10-12,2023-09-22,株式会社大同トレーディング,,株式会社,東京都,港区,虎ノ門３丁目２番７号,,13,103,1050001,,,2023-09-22,清算の結了等,,,2015-10-05,1,,,,,ダイドウトレーディング,0
888,4010401098827,登記記録の閉鎖等,0,2023-10-12,2023-09-25,株式会社ユーロン,,株式会社,東京都,港区,南青山４丁目２２番１－５０６号,,13,103,1070062,,,2023-09-25,清算の結了等,,,2015-10-05,1,,,,,ユーロン,0
901,4010403026496,登記記録の閉鎖等,0,2023-10-12,2023-09-11,ＴＩＴＵＳ合同会社,,合同会社,東京都,港区,南青山２丁目２番１５号,,13,103,1070062,,,2023-09-11,清算の結了等,,,2021-11-11,1,,,,,タイタス,0
911,4010601041033,登記記録の閉鎖等,0,2023-10-12,2023-10-06,ロジスティード首都圏株式会社,,株式会社,千葉県,柏市,末広町７番３号,,12,217,2770842,,,2023-10-06,合併による解散等,7050001023567,令和５年１０月１日茨城県日立市城南町一丁目５番１号ロジスティード東日本株式会社（7050001023567）に合併し解散,2015-10-05,1,,,,,ロジスティードシュトケン,0
917,4010701042419,登記記録の閉鎖等,0,2023-10-12,2023-10-10,株式会社ＢＯＯＭＩＴ,,株式会社,東京都,渋谷区,渋谷２丁目１９－１５宮益坂ビルディング６０９,,13,113,1500002,,,2023-10-10,清算の結了等,,,2022-03-29,1,,,,,ブームイット,0
920,4010901004961,登記記録の閉鎖等,0,2023-10-12,2023-10-10,三友商事株式会社,,株式会社,東京都,世田谷区,奥沢２丁目３４番１１号,,13,112,1580083,,,2023-10-10,合併による解散等,6010901002212,令和５年１０月１日東京都目黒区鷹番一丁目２番１４号シティハイツ鷹番１０１号王子商事株式会社（6010901002212）に合併し解散,2015-10-05,1,,,,,サンユウショウジ,0
938,4011103012670,登記記録の閉鎖等,0,2023-10-12,2023-10-10,合同会社ストライク,,合同会社,東京都,新宿区,歌舞伎町２丁目９番１５号ダイヤモンドパレス６０３,,13,104,1600021,,,2023-10-10,清算の結了等,,,2023-02-14,1,,,,,ストライク,0
962,4013402006221,登記記録の閉鎖等,0,2023-10-12,2023-10-10,有限会社アクアテラ,,有限会社,東京都,多摩市,貝取１丁目２８番地９－４０４,,13,224,2060012,,,2023-10-10,清算の結了等,,,2015-10-05,1,,,,,,0
963,4020001022764,登記記録の閉鎖等,0,2023-10-12,2023-09-27,株式会社関東住建,,株式会社,神奈川県,横浜市神奈川区,松本町１丁目７番地４,,14,102,2210841,,,2023-09-27,清算の結了等,,,2018-04-26,1,,,,,カントウジュウケン,0
986,4030002062759,登記記録の閉鎖等,0,2023-10-12,2023-09-25,有限会社旭商事不動産,,有限会社,埼玉県,富士見市,鶴瀬西２丁目１３番１５号,,11,235,3540026,,,2023-09-25,清算の結了等,,,2015-10-05,1,,,,,アサヒショウジフドウサン,0
990,4040001034394,登記記録の閉鎖等,0,2023-10-12,2023-09-27,株式会社ニュートロン,,株式会社,千葉県,船橋市,駿河台２丁目２３番２２号,,12,204,2730862,,,2023-09-27,清算の結了等,,,2015-10-05,1,,,,,ニュートロン,0
1000,4050005011216,登記記録の閉鎖等,0,2023-10-12,2023-10-10,税理士法人片桐会計事務所,,その他の設立登記法人,茨城県,取手市,白山７丁目３番２６号,,08,217,3020023,,,2023-10-10,清算の結了等,,,2015-10-05,1,,,,,カタギリカイケイジムショ,0
1001,4060001014122,登記記録の閉鎖等,0,2023-10-12,2023-10-03,株式会社大塚商事,00024056,株式会社,栃木県,小山市,駅東通り１丁目４０番１８号,,09,208,3230022,,,2023-10-03,清算の結了等,,,2015-10-05,1,,,,,オオツカショウジ,0
1023,4120001023983,登記記録の閉鎖等,0,2023-10-12,2023-10-10,株式会社聖和趣味の会,,株式会社,大阪府,大阪市東成区,中道３丁目１５番１６号毎日東ビル６Ｆ,,27,115,5370025,,,2023-10-10,合併による解散等,5010401076220,令和５年１０月１日東京都墨田区石原三丁目２番３号株式会社玉光堂（5010401076220）に合併し解散,2015-10-05,1,,,,,セイワシュミノカイ,0
1053,4140001099634,登記記録の閉鎖等,0,2023-10-12,2023-10-02,株式会社ＣＢＳデザイン,,株式会社,兵庫県,神戸市中央区,海岸通６番地,,28,110,6500024,,,2023-10-02,清算の結了等,,,2015-10-13,1,,,,,シービーエスデザイン,0
1056,4140002056650,登記記録の閉鎖等,0,2023-10-12,2023-10-02,有限会社サンライズ,,有限会社,兵庫県,西宮市,甲東園１丁目５番１３号,,28,204,6620812,,,2023-10-02,合併による解散等,5140002040694,令和５年１０月１日兵庫県尼崎市南武庫之荘一丁目１４番３号株式会社グローリー（5140002040694）に合併し解散,2015-10-05,1,,,,,サンライズ,0
1070,4180001142068,登記記録の閉鎖等,0,2023-10-12,2023-10-05,株式会社Ｒｅｅｌ,,株式会社,愛知県,名古屋市名東区,大針１丁目２０４番地ミネルヴァ大針１０１,,23,115,4650064,,,2023-10-05,清算の結了等,,,2020-07-27,1,,,,,リール,0
1075,4190003000958,登記記録の閉鎖等,0,2023-10-12,2023-10-05,合名会社グロリアス,,合名会社,三重県,志摩市,阿児町鵜方２９３８番地５,,24,215,5170501,,,2023-10-05,清算の結了等,,,2015-10-05,1,,,,,グロリアス,0
1076,4200001027761,登記記録の閉鎖等,0,2023-10-12,2023-10-06,共立産業株式会社,,株式会社,岐阜県,加茂郡白川町,河岐８３３番地１,,21,506,5091105,,,2023-10-06,清算の結了等,,,2015-10-05,1,,,,,キョウリツサンギョウ,0
1090,4240002051501,登記記録の閉鎖等,0,2023-10-12,2023-10-05,松原工業有限会社,,有限会社,広島県,尾道市,因島三庄町２１４５番地の１４,,34,205,7222322,,,2023-10-05,清算の結了等,,,2015-10-05,1,,,,,マツバラコウギョウ,0
1096,4260001016214,登記記録の閉鎖等,0,2023-10-12,2023-10-05,株式会社Ｙ－コンバス,,株式会社,岡山県,倉敷市,平田１５５番地５６,,33,202,7100003,,,2023-10-05,清算の結了等,,,2015-10-05,1,,,,,ワイコンバス,0
1099,4260003003334,登記記録の閉鎖等,0,2023-10-12,2023-10-10,ミスターエネルギー合同会社,,合同会社,岡山県,岡山市中区,桑野１１０番地２,,33,102,7028002,,,2023-10-10,清算の結了等,,,2020-10-08,1,,,,,ミスターエネルギー,0
1112,4290802023959,登記記録の閉鎖等,0,2023-10-12,2023-10-10,アイエスチースワン有限会社,,有限会社,福岡県,田川市,大字川宮９１３番地,,40,206,8260042,,,2023-10-10,清算の結了等,,,2015-10-05,1,,,,,アイエスチースワン,0
1138,4430001053660,登記記録の閉鎖等,0,2023-10-12,2023-09-29,株式会社冨士企業,,株式会社,北海道,苫小牧市,船見町１丁目５番２８号,,01,213,0530007,,,2023-09-29,清算の結了等,,,2015-10-05,1,,,,,フジキギョウ,0
1139,4430001059113,登記記録の閉鎖等,0,2023-10-12,2023-10-02,株式会社ビーイーエス,,株式会社,北海道,札幌市東区,北四十八条東８丁目２番１号,,01,103,0070848,,,2023-10-02,合併による解散等,2430002032921,令和５年１０月１日札幌市東区北四十八条東八丁目２番１号株式会社ニックプロジェクト（2430002032921）に合併し解散,2015-10-05,1,,,,,ビーイーエス,0
1149,4470002017685,登記記録の閉鎖等,0,2023-10-12,2023-10-06,有限会社蓮井農場,,有限会社,香川県,さぬき市,長尾名１１０４番地１,,37,206,7692303,,,2023-10-06,清算の結了等,,,2015-10-05,1,,,,,ハスイノウジョウ,0
1154,4490002007370,登記記録の閉鎖等,0,2023-10-12,2023-10-10,有限会社ケーズラボ,,有限会社,高知県,高知市,愛宕町３丁目１６番１６号,,39,201,7800051,,,2023-10-10,清算の結了等,,,2015-10-05,1,,,,,ケーズラボ,0
1157,5010001049510,登記記録の閉鎖等,0,2023-10-12,2023-10-02,株式会社玉屋商店,,株式会社,東京都,中央区,銀座３丁目５番８号,,13,102,1040061,,,2023-10-02,合併による解散等,7010001036408,令和５年１０月１日東京都中央区銀座三丁目５番８号青山企業株式会社（7010001036408）に合併し解散,2015-10-05,1,,,,,タマヤショウテン,0
1172,5010001220194,登記記録の閉鎖等,0,2023-10-12,2023-10-02,株式会社Ｈ＆Ｈ調布,,株式会社,東京都,千代田区,神田駿河台３丁目７番地百瀬ビル本館２０２号室,,13,101,1010062,,,2023-10-02,合併による解散等,5010001183004,令和５年１０月１日東京都千代田区神田錦町二丁目２番地１株式会社Ｈ＆Ｈホールディングス（5010001183004）に合併し解散,2021-08-06,1,,,,,エイチアンドエイチチョウフ,0
1201,5010501044696,登記記録の閉鎖等,0,2023-10-12,2023-10-06,株式会社ＴＪ　Ｓｔｏｒｉｅｓ,,株式会社,東京都,台東区,池之端１丁目６番１６号晴花マンション５０１号室,,13,106,1100008,,,2023-10-06,清算の結了等,,,2019-10-01,1,,,,,ティージェイストーリーズ,0
1207,5010602024606,登記記録の閉鎖等,0,2023-10-12,2023-10-05,日本アバック有限会社,,有限会社,東京都,江東区,大島７丁目２８番１－７１７号,,13,108,1360072,,,2023-10-05,清算の結了等,,,2015-10-05,1,,,,,,0
1227,5011002025450,登記記録の閉鎖等,0,2023-10-12,2023-10-04,神田興産有限会社,,有限会社,東京都,渋谷区,代々木１丁目８番５号ＧＦＥビル１Ｆ,,13,113,1510053,,,2023-10-04,清算の結了等,,,2015-10-05,1,,,,,カンダコウサン,0
1235,5011102029525,登記記録の閉鎖等,0,2023-10-12,2023-10-03,キュー・エム・コンサルティング有限会社,,有限会社,東京都,世田谷区,千歳台６丁目１６番１－４０９,,13,112,1570071,,,2023-10-03,清算の結了等,,,2015-10-05,1,,,,,キューエムコンサルティング,0
1256,5012802006763,登記記録の閉鎖等,0,2023-10-12,2023-10-05,有限会社ホシノ,,有限会社,東京都,中野区,沼袋２丁目６番９号,,13,114,1650025,,,2023-10-05,合併による解散等,1012801009507,令和５年１０月１日東京都中野区沼袋二丁目６番９号星野アセットマネジメント株式会社（1012801009507）に合併し解散,2015-10-05,1,,,,,,0
1279,5030001034931,登記記録の閉鎖等,0,2023-10-12,2023-09-20,株式会社コスモ時計,,株式会社,埼玉県,草加市,八幡町２１番地６,,11,221,3400006,,,2023-09-20,清算の結了等,,,2015-10-05,1,,,,,コスモドケイ,0
1282,5030001065076,登記記録の閉鎖等,0,2023-10-12,2023-09-19,株式会社ダイテック,,株式会社,埼玉県,越谷市,大字北川崎２９５番地１,,11,222,3430006,,,2023-09-19,清算の結了等,,,2015-10-05,1,,,,,ダイテック,0
1289,5030001147485,登記記録の閉鎖等,0,2023-10-12,2023-09-21,株式会社ＳＨＯＷＡ,,株式会社,埼玉県,坂戸市,花影町２６番地１７,,11,239,3500236,,,2023-09-21,清算の結了等,,,2022-04-01,1,,,,,ショウワ,0
1307,5050003006167,登記記録の閉鎖等,0,2023-10-12,2023-10-02,Ｃｈｉｌｌａｘ　Ｊａｐａｎ合同会社,,合同会社,茨城県,つくば市,上横場２６７－５,,08,220,3050854,,,2023-10-02,清算の結了等,,,2021-10-29,1,,,,,チラックスジャパン,0
1314,5080001020472,登記記録の閉鎖等,0,2023-10-12,2023-10-10,株式会社かていかがかり,,株式会社,静岡県,静岡市駿河区,小鹿１３９２番地の１,,22,102,4228021,,,2023-10-10,清算の結了等,,,2015-10-05,1,,,,,カテイカガカリ,0
1317,5080103001718,登記記録の閉鎖等,0,2023-10-12,2023-10-06,合同会社修善寺倶楽部,,合同会社,静岡県,伊豆市,柏久保２２４番地８号２０２,,22,222,4102407,,,2023-10-06,清算の結了等,,,2017-09-01,1,"Syuzenji Club,LLC",Shizuoka,"224-8-202, Kashiwakubo, Izu shi",,シュゼンジクラブ,0
1328,5110001015535,登記記録の閉鎖等,0,2023-10-12,2023-10-05,飯塚金属株式会社,,株式会社,新潟県,燕市,東太田２６３５番地,,15,213,9591289,,,2023-10-05,清算の結了等,,,2015-10-05,1,,,,,イイヅカキンゾク,0
1329,5110001029527,登記記録の閉鎖等,0,2023-10-12,2023-10-06,株式会社エイシンテック,,株式会社,新潟県,南魚沼市,宮字西原２２９４番地１０,,15,226,9496775,,,2023-10-06,清算の結了等,,,2015-10-05,1,,,,,エイシンテック,0
1362,5140001064397,登記記録の閉鎖等,0,2023-10-12,2023-10-05,日鉄物流広畑株式会社,,株式会社,兵庫県,姫路市,広畑区正門通４丁目９番地の６,,28,201,6711116,,,2023-10-05,合併による解散等,1010001098619,令和５年１０月１日東京都中央区日本橋一丁目１３番１号日鉄物流株式会社（1010001098619）に合併し解散,2015-10-05,1,,,,,ニッテツブツリュウヒロハタ,0
1372,5180002080712,登記記録の閉鎖等,0,2023-10-12,2023-10-03,鈴木織物有限会社,,有限会社,愛知県,稲沢市,祖父江町祖父江寺内１１番地,,23,220,4950001,,,2023-10-03,清算の結了等,,,2015-10-05,1,,,,,スズキオリモノ,0
1373,5180003011526,登記記録の閉鎖等,0,2023-10-12,2023-10-02,合資会社ノムラ,,合資会社,愛知県,一宮市,高畑町３丁目７６番地,,23,203,4910073,,,2023-10-02,清算の結了等,,,2015-10-05,1,,,,,ノムラ,0
1385,5200002027405,登記記録の閉鎖等,0,2023-10-12,2023-10-10,有限会社むげん,,有限会社,岐阜県,下呂市,萩原町花池１３６番地の３,,21,220,5092515,,,2023-10-10,清算の結了等,,,2015-10-05,1,,,,,ムゲン,0
1387,5210002013098,登記記録の閉鎖等,0,2023-10-12,2023-10-02,有限会社末広,,有限会社,福井県,鯖江市,水落町２丁目２７番２７号,,18,207,9160022,,,2023-10-02,合併による解散等,6210001001895,令和５年１０月１日福井市花堂東一丁目１６番１０号末広建設株式会社（6210001001895）に合併し解散,2015-10-05,1,,,,,スエヒロ,0
1404,5280002004702,登記記録の閉鎖等,0,2023-10-12,2023-10-10,有限会社しんどう,,有限会社,島根県,安来市,広瀬町広瀬９５６番地,,32,206,6920404,,,2023-10-10,清算の結了等,,,2015-10-05,1,,,,,シンドウ,0
1406,5290001058839,登記記録の閉鎖等,0,2023-10-12,2023-09-29,株式会社楽しい住まいわが家,,株式会社,福岡県,福岡市東区,香椎照葉３丁目２番２－８３３号,,40,131,8130017,,,2023-09-29,清算の結了等,,,2015-10-05,1,,,,,タノシイスマイワガヤ,0
1410,5290002042610,登記記録の閉鎖等,0,2023-10-12,2023-10-02,有限会社中央,,有限会社,福岡県,春日市,平田台３丁目６５番地,,40,218,8160812,,,2023-10-02,清算の結了等,,,2015-10-05,1,,,,,チュウオウ,0
1420,5340002019000,登記記録の閉鎖等,0,2023-10-12,2023-10-06,有限会社小屋敷建設,,有限会社,鹿児島県,指宿市,十町２６６０番地４,,46,210,8910402,,,2023-10-06,清算の結了等,,,2015-10-05,1,,,,,コヤシキケンセツ,0
1432,5380002010095,登記記録の閉鎖等,0,2023-10-12,2023-10-03,有限会社しゃれーど,,有限会社,福島県,郡山市,桑野３丁目１４番２１号,,07,203,9638025,,,2023-10-03,清算の結了等,,,2015-10-05,1,,,,,シャレード,0
1433,5390001000212,登記記録の閉鎖等,0,2023-10-12,2023-10-10,株式会社ウンノリフオーム,,株式会社,山形県,山形市,大野目４丁目１番３７号,,06,201,9900073,,,2023-10-10,清算の結了等,,,2015-10-05,1,,,,,ウンノリフォーム,0
1440,5410001006082,登記記録の閉鎖等,0,2023-10-12,2023-09-28,株式会社とうしゆん,,株式会社,秋田県,大館市,清水５丁目９番３０号,,05,204,0170046,,,2023-09-28,清算の結了等,,,2015-10-05,1,,,,,トウシュン,0
1457,6010001185841,登記記録の閉鎖等,0,2023-10-12,2023-10-02,株式会社Ｈ＆Ｈ大森・蒲田,,株式会社,東京都,千代田区,神田駿河台３丁目７番地百瀬ビル本館２０２号室,,13,101,1010062,,,2023-10-02,合併による解散等,5010001183004,令和５年１０月１日東京都千代田区神田錦町二丁目２番地１株式会社Ｈ＆Ｈホールディングス（5010001183004）に合併し解散,2017-08-25,1,,,,,エイチアンドエイチオオモリカマタ,0
1466,6010401061849,登記記録の閉鎖等,0,2023-10-12,2023-10-02,クラシエホームプロダクツ株式会社,,株式会社,東京都,港区,海岸３丁目２０番２０号,,13,103,1080022,,,2023-10-02,合併による解散等,2010401061852,令和５年１０月１日東京都港区海岸三丁目２０番２０号クラシエ株式会社（2010401061852）に合併し解散,2015-10-05,1,,,,,クラシエホームプロダクツ,0
1468,6010401109029,登記記録の閉鎖等,0,2023-10-12,2023-09-25,コルムジャパン株式会社,,株式会社,東京都,港区,南青山３丁目１７番１４号中山ビル６Ｆ,,13,103,1070062,,,2023-09-25,清算の結了等,,,2015-10-05,1,,,,,コルムジャパン,0
1470,6010401145321,登記記録の閉鎖等,0,2023-10-12,2023-09-22,ＬＡＴＴＥ株式会社,,株式会社,東京都,港区,東麻布１丁目９番３号赤石ビル４０１,,13,103,1060044,,,2023-09-22,清算の結了等,,,2019-05-14,1,,,,,ラテ,0
1514,6011005008303,登記記録の閉鎖等,0,2023-10-12,2023-10-04,一般社団法人ＡＬＩＦＥ　Ｌａｂ．,,その他の設立登記法人,東京都,渋谷区,神宮前６丁目２３番４号桑野ビル２階,,13,113,1500001,,,2023-10-04,清算の結了等,,,2019-09-19,1,,,,,エーライフラボ,0
1519,6011301022767,登記記録の閉鎖等,0,2023-10-12,2023-10-05,株式会社エルフロ,,株式会社,東京都,東久留米市,金山町２丁目３－１３,,13,222,2030003,,,2023-10-05,清算の結了等,,,2016-12-15,1,,,,,エルフロ,0
1528,6012401022005,登記記録の閉鎖等,0,2023-10-12,2023-10-06,エヴァテック株式会社,,株式会社,東京都,豊島区,南大塚３丁目３６番７号南大塚Ｔ＆Ｔビル６Ｆ,,13,116,1700005,,,2023-10-06,合併による解散等,6410001010298,令和５年１０月１日秋田市八橋大畑二丁目３番１号ＷｈｉｔｅＣｕｂｅ１Ｆ株式会社Ｌｏｃａｌ　Ｐｏｗｅｒ（6410001010298）に合併し解散,2015-10-05,1,,,,,エヴァテック,0
1535,6012705001282,登記記録の閉鎖等,0,2023-10-12,2023-10-04,特定非営利活動法人いたわり,,その他の設立登記法人,東京都,小平市,学園東町１丁目６番１３号オオサワビル５０１号室,,13,211,1870043,,,2023-10-04,清算の結了等,,,2015-10-05,1,,,,,イタワリ,0
1547,6021001030763,登記記録の閉鎖等,0,2023-10-12,2023-10-06,三菱ＨＣキャピタルコミュニティ株式会社,,株式会社,東京都,港区,西新橋１丁目３番１号,,13,103,1050003,,,2023-10-06,合併による解散等,5180001043059,令和５年１０月１日東京都千代田区丸の内一丁目６番５号三菱ＨＣキャピタルエステートプラス株式会社（5180001043059）に合併し解散,2015-10-05,1,,,,,ミツビシエイチシーキャピタルコミュニティ,0
1560,6030001135893,登記記録の閉鎖等,0,2023-10-12,2023-09-20,株式会社ヴェールコミュニケーション,,株式会社,埼玉県,さいたま市岩槻区,仲町２丁目８－２６,,11,110,3390054,,,2023-09-20,清算の結了等,,,2020-04-07,1,,,,,ヴェールコミュニケーション,0
1584,6040003012553,登記記録の閉鎖等,0,2023-10-12,2023-09-27,タケダＪＰ合同会社,,合同会社,千葉県,市川市,田尻４丁目１０番２１号,,12,203,2720014,,,2023-09-27,清算の結了等,,,2018-12-06,1,,,,,タケダジェイピイ,0
1589,6060002033136,登記記録の閉鎖等,0,2023-10-12,2023-10-03,有限会社浅野自動車工業,,有限会社,栃木県,栃木市,岩舟町静３３６３番地３,,09,203,3294307,,,2023-10-03,清算の結了等,,,2015-10-05,1,,,,,アサノジドウシャコウギョウ,0
1593,6070003004201,登記記録の閉鎖等,0,2023-10-12,2023-10-10,合同会社ＰｒｉｍｅＡＩ,,合同会社,群馬県,北群馬郡榛東村,大字広馬場２７３１番地５,,10,344,3703504,,,2023-10-10,清算の結了等,,,2021-08-18,1,,,,,プライムアイ,0
1595,6080105005559,登記記録の閉鎖等,0,2023-10-12,2023-10-04,特定非営利活動法人伊豆楽園プロジェクト,,その他の設立登記法人,静岡県,伊東市,富戸１３１４番地の２２９,,22,208,4130231,,,2023-10-04,清算の結了等,,,2015-10-05,1,,,,,イズラクエンプロジェクト,0
1598,6100001002830,登記記録の閉鎖等,0,2023-10-12,2023-10-10,八十二システム開発株式会社,,株式会社,長野県,長野市,大字中御所字岡田１７８番地１３,,20,201,3800935,,,2023-10-10,合併による解散等,3100001002833,令和５年１０月１日長野市大字中御所字岡田１７８番地８株式会社八十二銀行（3100001002833）に合併し解散,2015-10-05,1,,,,,ハチジュウニシステムカイハツ,0
1603,6110001015889,登記記録の閉鎖等,0,2023-10-12,2023-10-05,株式会社志田洋行,,株式会社,新潟県,燕市,物流センタ－二丁目３２番地,,15,213,9591200,,,2023-10-05,清算の結了等,,,2015-10-05,1,,,,,シダヨウコウ,0
1605,6110005016925,登記記録の閉鎖等,0,2023-10-12,2023-10-03,一般社団法人つばめＲＧ,,その他の設立登記法人,新潟県,燕市,富永４０５番地,,15,213,9590211,,,2023-10-03,清算の結了等,,,2023-04-11,1,,,,,ツバメアールジー,0
1610,6120001207980,登記記録の閉鎖等,0,2023-10-12,2023-10-02,株式会社Ｂａｍｂｏｏ　ｓｏｌｕｔｉｏｎｓ,,株式会社,鳥取県,西伯郡大山町,鈑戸１５７０番地,,31,386,6893317,,,2023-10-02,合併による解散等,8130001017824,令和５年１０月１日鳥取県西伯郡大山町鈑戸１５４２番地８０大王産業株式会社（8130001017824）に合併し解散,2017-09-08,1,,,,,バンブーソリューションズ,0
1626,6120102016117,登記記録の閉鎖等,0,2023-10-12,2023-10-06,有限会社トータル・ヴィジョン,,有限会社,大阪府,松原市,天美南６丁目１番２６号,,27,217,5800033,,,2023-10-06,清算の結了等,,,2015-10-05,1,,,,,トータルヴィジョン,0
1627,6120102019961,登記記録の閉鎖等,0,2023-10-12,2023-10-06,有限会社タカック,,有限会社,大阪府,河内長野市,清見台３丁目６番３号,,27,216,5860043,,,2023-10-06,清算の結了等,,,2015-10-05,1,,,,,タカック,0
1629,6120901008644,登記記録の閉鎖等,0,2023-10-12,2023-10-02,株式会社山田組,,株式会社,大阪府,吹田市,吹東町１番２４号,,27,205,5640014,,,2023-10-02,清算の結了等,,,2015-10-05,1,,,,,ヤマダグミ,0
1636,6130003006249,登記記録の閉鎖等,0,2023-10-12,2023-09-29,合同会社パレット,,合同会社,京都府,京都市右京区,西院西矢掛町１８番地,,26,108,6150025,,,2023-09-29,清算の結了等,,,2019-10-28,1,,,,,パレット,0
1638,6140001055230,登記記録の閉鎖等,0,2023-10-12,2023-10-02,株式会社Ｋ’ｓＦａｃｔｏｒｙ,,株式会社,兵庫県,尼崎市,東難波町４丁目１７番５号,,28,202,6600892,,,2023-10-02,清算の結了等,,,2015-10-05,1,,,,,ケーズファクトリー,0
1644,6140002048571,登記記録の閉鎖等,0,2023-10-12,2023-10-04,有限会社子どもライブラリー,,有限会社,兵庫県,姫路市,田寺東１丁目５番５号,,28,201,6700081,,,2023-10-04,清算の結了等,,,2015-10-05,1,,,,,コドモライブラリー,0
1648,6150002008624,登記記録の閉鎖等,0,2023-10-12,2023-10-11,有限会社ＳＡＹコミュニケーションズ,,有限会社,奈良県,生駒市,上町２４２８番地３５,,29,209,6300131,,,2023-10-11,清算の結了等,,,2015-10-05,1,,,,,セイコミュニケーションズ,0
1649,6180001090851,登記記録の閉鎖等,0,2023-10-12,2023-10-03,株式会社ジャストオンデマンド,,株式会社,愛知県,小牧市,中央２丁目１４８番地,,23,219,4850029,,,2023-10-03,清算の結了等,,,2015-10-05,1,,,,,ジャストオンデマンド,0
1656,6180301011037,登記記録の閉鎖等,0,2023-10-12,2023-10-02,三協樹脂株式会社,,株式会社,愛知県,蒲郡市,形原町北辻４３番地,00074538,23,214,4430104,,,2023-10-02,合併による解散等,3180301011403,令和５年９月３０日愛知県蒲郡市形原町南辻２２番１株式会社ミスギ工業（3180301011403）に合併し解散,2015-10-05,1,,,,,サンキョウジュシ,0
1672,6240002011528,登記記録の閉鎖等,0,2023-10-12,2023-10-02,有限会社寅次郎,,有限会社,広島県,広島市東区,光町１丁目１１番５号,,34,102,7320052,,,2023-10-02,清算の結了等,,,2015-10-05,1,,,,,トラジロウ,0
1700,6320002020966,登記記録の閉鎖等,0,2023-10-12,2023-10-10,有限会社西野薬局,,有限会社,大分県,中津市,１７１１番地,,44,203,8710099,,,2023-10-10,清算の結了等,,,2015-10-05,1,,,,,ニシノヤッキョク,0
1703,6340002001171,登記記録の閉鎖等,0,2023-10-12,2023-10-11,イーエム自然の里有限会社,,有限会社,鹿児島県,鹿児島市,新屋敷町１６番１０１号鹿児島県住宅供給公社ビルＣ棟ー１ー１１６,,46,201,8920838,,,2023-10-11,清算の結了等,,,2015-10-05,1,,,,,イーエムシゼンノサト,0
1721,6380001025011,登記記録の閉鎖等,0,2023-10-12,2023-10-02,株式会社Ｔｒｉ‐ｆｌｅｅｔ,,株式会社,福島県,福島市,泉字乙天堂２０番地の３,,07,201,9608253,,,2023-10-02,清算の結了等,,,2015-10-05,1,,,,,,0
1731,6400002008870,登記記録の閉鎖等,0,2023-10-12,2023-10-02,有限会社花巻看護婦家政婦紹介所,,有限会社,岩手県,花巻市,下小舟渡７１番地２,,03,205,0250063,,,2023-10-02,合併による解散等,7400001015677,令和５年１０月１日岩手県花巻市松園町４８２番地７株式会社フリースタイル（7400001015677）に合併し解散,2015-10-05,1,,,,,ハナマキカンゴフカセイフショウカイジョ,0
1734,6410002008003,登記記録の閉鎖等,0,2023-10-12,2023-10-02,有限会社メック,,有限会社,秋田県,雄勝郡羽後町,貝沢字雀田１３番地の２,,05,463,0121123,,,2023-10-02,清算の結了等,,,2015-10-05,1,,,,,メック,0
1743,6470001011828,登記記録の閉鎖等,0,2023-10-12,2023-10-05,株式会社共栄サービス,,株式会社,香川県,観音寺市,柞田町乙３３３５番地１,,37,205,7680040,,,2023-10-05,清算の結了等,,,2015-10-05,1,,,,,キョウエイサービス,0
1746,6500001019339,登記記録の閉鎖等,0,2023-10-12,2023-10-10,株式会社フィールド愛の和,,株式会社,愛媛県,伊予市,尾崎３８番地１１,00103401,38,210,7993127,,,2023-10-10,清算の結了等,,,2015-10-05,1,,,,,,0
1754,7010001160959,登記記録の閉鎖等,0,2023-10-12,2023-10-02,福岡地所Ｒ＆Ｉ株式会社,,株式会社,福岡県,福岡市博多区,住吉１丁目２番２５号,,40,132,8120018,,,2023-10-02,合併による解散等,1290001016156,令和５年１０月１日福岡市博多区住吉一丁目２番２５号福岡地所株式会社（1290001016156）に合併し解散,2015-10-05,1,,,,,フクオカジショアールアンドアイ,0
1756,7010001185840,登記記録の閉鎖等,0,2023-10-12,2023-10-02,株式会社Ｈ＆Ｈ世田谷,,株式会社,東京都,千代田区,神田駿河台３丁目７番地百瀬ビル本館２０２号室,,13,101,1010062,,,2023-10-02,合併による解散等,5010001183004,令和５年１０月１日東京都千代田区神田錦町二丁目２番地１株式会社Ｈ＆Ｈホールディングス（5010001183004）に合併し解散,2017-08-25,1,,,,,エイチアンドエイチセタガヤ,0
1758,7010001217081,登記記録の閉鎖等,0,2023-10-12,2023-10-02,株式会社Ｈ＆Ｈ江東,,株式会社,東京都,千代田区,神田駿河台３丁目７番地百瀬ビル本館２０２号室,,13,101,1010062,,,2023-10-02,合併による解散等,5010001183004,令和５年１０月１日東京都千代田区神田錦町二丁目２番地１株式会社Ｈ＆Ｈホールディングス（5010001183004）に合併し解散,2021-04-08,1,,,,,エイチアンドエイチコウトウ,0
1775,7010005034250,登記記録の閉鎖等,0,2023-10-12,2023-10-05,ＲＢソーラースペードホールディングス一般社団法人,,その他の設立登記法人,東京都,中央区,八丁堀４丁目２番１０号ＡＯＪ税理士法人内,,13,102,1040032,,,2023-10-05,清算の結了等,,,2021-11-24,1,,,,,アールビーソーラースペードホールディングス,0
1777,7010101011938,登記記録の閉鎖等,0,2023-10-12,2023-10-05,株式会社ｅｉｇｈｔ,,株式会社,東京都,八王子市,元横山町３丁目１２番２７号,,13,201,1920063,,,2023-10-05,清算の結了等,,,2015-10-05,1,,,,,,0
1785,7010401117550,登記記録の閉鎖等,0,2023-10-12,2023-09-25,Ｚｉｎｃ　Ａｈｅａｄ　Ｊａｐａｎ株式会社,,株式会社,東京都,港区,西新橋２丁目４番２号,,13,103,1050003,,,2023-09-25,清算の結了等,,,2015-10-05,1,,,,,ジンクアヘッドジャパン,0
1801,7010502021420,登記記録の閉鎖等,0,2023-10-12,2023-09-21,有限会社グリーンピアサービス,,有限会社,埼玉県,川越市,末広町１丁目３番４号,,11,201,3500064,,,2023-09-21,清算の結了等,,,2015-10-05,1,,,,,グリーンピアサービス,0
1809,7010801005487,登記記録の閉鎖等,0,2023-10-12,2023-10-06,清水建鉄工業株式会社,,株式会社,東京都,大田区,仲六郷３丁目２８番５号,,13,111,1440055,,,2023-10-06,合併による解散等,9010401171364,令和５年１０月１日東京都港区海岸一丁目１番１－７０９号株式会社若松（9010401171364）に合併し解散,2015-10-05,1,,,,,シミズケンテツコウギョウ,0
1813,7010801020197,登記記録の閉鎖等,0,2023-10-12,2023-10-04,アクティブエリア株式会社,,株式会社,東京都,大田区,蒲田４丁目３９番１号,,13,111,1440052,,,2023-10-04,清算の結了等,,,2015-10-05,1,,,,,アクティブエリア,0
1817,7010902019717,登記記録の閉鎖等,0,2023-10-12,2023-10-03,有限会社サンシャイン,,有限会社,東京都,世田谷区,桜新町１丁目１１番６号,,13,112,1540015,,,2023-10-03,清算の結了等,,,2015-10-05,1,,,,,サンシャイン,0
1842,7011701022928,登記記録の閉鎖等,0,2023-10-12,2023-10-05,株式会社Ｍ＆Ｙコンサルティング,,株式会社,東京都,江戸川区,東小松川４丁目１１番２３号,,13,123,1320033,,,2023-10-05,清算の結了等,,,2019-09-03,1,,,,,エムアンドワイコンサルティング,0
1843,7011702000973,登記記録の閉鎖等,0,2023-10-12,2023-10-05,有限会社石田製作所,,有限会社,東京都,江戸川区,西篠崎２丁目１０番７号,,13,123,1330055,,,2023-10-05,清算の結了等,,,2015-10-05,1,,,,,イシダセイサクショ,0
1849,7012405002984,登記記録の閉鎖等,0,2023-10-12,2023-10-10,税理士法人アルファ会計事務所,,その他の設立登記法人,東京都,小金井市,本町５丁目１７番２０－５０４号,,13,210,1840004,,,2023-10-10,清算の結了等,,,2015-10-05,1,,,,,,0
1857,7020001064366,登記記録の閉鎖等,0,2023-10-12,2023-10-02,株式会社竹富ハウジング,,株式会社,神奈川県,川崎市多摩区,宿河原６丁目１８番１１号,,14,135,2140021,,,2023-10-02,清算の結了等,,,2015-10-05,1,,,,,タケトミハウジング,0
1872,7030001061651,登記記録の閉鎖等,0,2023-10-12,2023-09-21,株式会社アシスト,,株式会社,埼玉県,鴻巣市,本町６丁目３番１８号,,11,217,3650038,,,2023-09-21,清算の結了等,,,2015-10-05,1,,,,,アシスト,0
1879,7030002005252,登記記録の閉鎖等,0,2023-10-12,2023-09-15,有限会社小林塗装,,有限会社,埼玉県,さいたま市見沼区,風渡野２丁目１番地７,,11,104,3370017,,,2023-09-15,清算の結了等,,,2015-10-05,1,,,,,コバヤシトソウ,0
1881,7030002077597,登記記録の閉鎖等,0,2023-10-12,2023-09-20,有限会社第一自動車工業,,有限会社,埼玉県,比企郡川島町,大字上伊草１６８５番地１,,11,346,3500152,,,2023-09-20,清算の結了等,,,2015-10-05,1,,,,,ダイイチジドウシャコウギョウ,0
1894,7040003019242,登記記録の閉鎖等,0,2023-10-12,2023-09-27,合同会社ＥＩＣＨＥコロポックル村,,合同会社,千葉県,佐倉市,江原台２丁目３０番３号メゾンラフィーネ江原台Ａ１号室,,12,212,2850825,,,2023-09-27,清算の結了等,,,2022-01-06,1,,,,,アイヒェコロポックルムラ,0
1898,7070001016271,登記記録の閉鎖等,0,2023-10-12,2023-10-02,玉川布帛株式会社,,株式会社,群馬県,桐生市,本町２丁目７番２０号,,10,203,3760031,,,2023-10-02,清算の結了等,,,2015-10-05,1,,,,,タマガワフバク,0
1935,7120101006968,登記記録の閉鎖等,0,2023-10-12,2023-10-10,株式会社ミタカ製作所,,株式会社,大阪府,堺市堺区,中三国ヶ丘町６丁１番３２号,,27,141,5900022,,,2023-10-10,清算の結了等,,,2015-10-05,1,,,,,ミタカセイサクショ,0
1962,7170001001156,登記記録の閉鎖等,0,2023-10-12,2023-10-10,株式会社小林商店,,株式会社,和歌山県,和歌山市,北ノ新地東ノ丁５番地,,30,201,6408354,,,2023-10-10,清算の結了等,,,2015-10-05,1,,,,,コバヤシショウテン,0
1967,7190001000255,登記記録の閉鎖等,0,2023-10-12,2023-10-03,株式会社桔梗屋,,株式会社,三重県,鈴鹿市,国府町７６７８番地７,,24,207,5130836,,,2023-10-03,合併による解散等,5190001005116,令和５年９月３０日三重県鈴鹿市国府町７６７８番地７株式会社スズカ未来（5190001005116）に合併し解散,2015-10-05,1,,,,,キキョウヤ,0
1969,7200001002456,登記記録の閉鎖等,0,2023-10-12,2023-10-11,新岐阜駅前第一ビル株式会社,,株式会社,岐阜県,岐阜市,神田町９丁目１８番地,,21,201,5008833,,,2023-10-11,清算の結了等,,,2015-10-05,1,,,,,シンギフエキマエダイイチビル,0
1985,7280001005055,登記記録の閉鎖等,0,2023-10-12,2023-10-05,宝土地株式会社,,株式会社,島根県,益田市,白上町イ１６８７番地,,32,204,6982141,,,2023-10-05,清算の結了等,,,2015-10-05,1,,,,,タカラトチ,0
1989,7290001092539,登記記録の閉鎖等,0,2023-10-12,2023-09-15,株式会社ＬｉｆＴｏｒｒｅｓ,,株式会社,福岡県,福岡市早良区,原７丁目１３番１８－２号,,40,137,8140022,,,2023-09-15,清算の結了等,,,2021-04-08,1,,,,,リフトレス,0
1993,7290002057755,登記記録の閉鎖等,0,2023-10-12,2023-09-29,有限会社浦商店,,有限会社,福岡県,糸島市,前原西１丁目５番１５号,,40,230,8191117,,,2023-09-29,清算の結了等,,,2023-08-30,1,,,,,ウラショウテン,0
2011,7360001000923,登記記録の閉鎖等,0,2023-10-12,2023-10-04,国際写真株式会社,,株式会社,沖縄県,那覇市,若狭２丁目１０番１３号,,47,201,9000031,,,2023-10-04,清算の結了等,,,2015-10-05,1,,,,,,0
2028,7430002055901,登記記録の閉鎖等,0,2023-10-12,2023-09-28,有限会社クレィヴ,,有限会社,北海道,小樽市,桜２丁目３番２７号,,01,203,0470156,,,2023-09-28,清算の結了等,,,2015-10-05,1,,,,,クレィヴ,0
2030,7470001011752,登記記録の閉鎖等,0,2023-10-12,2023-10-11,富士電設工業株式会社,,株式会社,香川県,高松市,太田上町１２０１番地４,,37,201,7618074,,,2023-10-11,清算の結了等,,,2015-10-05,1,,,,,フジデンセツコウギョウ,0
2031,7480001009044,登記記録の閉鎖等,0,2023-10-12,2023-10-06,ＪＲ徳島駅ビル開発株式会社,,株式会社,徳島県,徳島市,寺島本町西１丁目６１番地,,36,201,7700831,,,2023-10-06,合併による解散等,5470001002241,令和５年１０月１日香川県高松市浜ノ町８番２４号ＪＲ四国ステーション開発株式会社（5470001002241）に合併し解散,2015-10-05,1,,,,,ジェイアールトクシマエキビルカイハツ,0
2054,8010101008116,登記記録の閉鎖等,0,2023-10-12,2023-10-02,株式会社セントラルクリーン,,株式会社,東京都,八王子市,鑓水６９４番地,00050225,13,201,1920375,,,2023-10-02,清算の結了等,,,2015-10-05,1,,,,,,0
2067,8010501007980,登記記録の閉鎖等,0,2023-10-12,2023-10-02,タクトビジネスソフト株式会社,,株式会社,東京都,品川区,東五反田２丁目１０番２号,,13,109,1410022,,,2023-10-02,合併による解散等,1010501007979,令和５年１０月１日東京都品川区東五反田二丁目１０番２号タクトシステムズ株式会社（1010501007979）に合併し解散,2015-10-05,1,,,,,タクトビジネスソフト,0
2074,8010701005090,登記記録の閉鎖等,0,2023-10-12,2023-10-03,住ベ情報システム株式会社,,株式会社,東京都,品川区,東品川２丁目５番８号,,13,109,1400002,,,2023-10-03,合併による解散等,9010701005073,令和５年１０月１日東京都品川区東品川二丁目５番８号住友ベークライト株式会社（9010701005073）に合併し解散,2015-10-05,1,,,,,,0
2084,8011001058309,登記記録の閉鎖等,0,2023-10-12,2023-10-02,株式会社バランス・プランニング,,株式会社,東京都,渋谷区,渋谷３丁目２５番２１号渋谷ＮＴビル,,13,113,1500002,,,2023-10-02,合併による解散等,4011001155563,令和５年１０月２日東京都渋谷区渋谷三丁目２５番２１号渋谷ＮＴビル株式会社アステクト（4011001155563）に合併し解散,2015-10-05,1,,,,,バランスプランニング,0
2094,8011101074123,登記記録の閉鎖等,0,2023-10-12,2023-10-06,株式会社ギブクリエーション,,株式会社,東京都,新宿区,大久保２丁目４番１５号サンライズ新宿５階,,13,104,1690072,,,2023-10-06,清算の結了等,,,2015-10-05,1,,,,,ギブクリエーション,0
2113,8012401029997,登記記録の閉鎖等,0,2023-10-12,2023-10-10,職人の株式会社,,株式会社,大分県,中津市,大字永添７１０番地４,,44,203,8710162,,,2023-10-10,清算の結了等,,,2015-10-05,1,,,,,ショクニンノ,0
2128,8020001016358,登記記録の閉鎖等,0,2023-10-12,2023-10-02,横浜米油株式会社,,株式会社,神奈川県,横浜市西区,高島２丁目１２番６号,,14,103,2200011,,,2023-10-02,合併による解散等,8020001016333,令和５年１０月１日横浜市西区高島二丁目１２番６号横浜新都市センター株式会社（8020001016333）に合併し解散,2015-10-05,1,,,,,ヨコハマベイユ,0
2138,8021001022882,登記記録の閉鎖等,0,2023-10-12,2023-10-02,株式会社立正,,株式会社,神奈川県,秦野市,北矢名１２５９番地,,14,211,2570006,,,2023-10-02,清算の結了等,,,2015-10-05,1,,,,,,0
2148,8021005011650,登記記録の閉鎖等,0,2023-10-12,2023-10-04,相武台第２住宅団地管理組合法人,,その他の設立登記法人,神奈川県,相模原市南区,相武台団地２丁目６番,,14,153,2520323,,,2023-10-04,清算の結了等,,,2019-07-04,1,,,,,ソウブダイダイニジュウタクダンチ,0
2156,8030001089147,登記記録の閉鎖等,0,2023-10-12,2023-09-19,プレッソ株式会社,,株式会社,埼玉県,熊谷市,肥塚２丁目９番４５号,,11,202,3600015,,,2023-09-19,清算の結了等,,,2015-10-05,1,,,,,プレッソ,0
2166,8030002058951,登記記録の閉鎖等,0,2023-10-12,2023-09-15,有限会社チャスク,,有限会社,埼玉県,朝霞市,仲町１丁目２番３１号,,11,227,3510006,,,2023-09-15,清算の結了等,,,2015-10-05,1,,,,,チャスク,0
2180,8040001036817,登記記録の閉鎖等,0,2023-10-12,2023-09-19,株式会社星設備工業,,株式会社,千葉県,松戸市,新松戸南１丁目３８５番地,,12,207,2700035,,,2023-09-19,清算の結了等,,,2015-10-05,1,,,,,ホシセツビコウギョウ,0
2183,8040001121718,登記記録の閉鎖等,0,2023-10-12,2023-09-26,株式会社昭和塗装サービス,,株式会社,千葉県,千葉市花見川区,宮野木台２丁目６番２０号,,12,102,2620015,,,2023-09-26,清算の結了等,,,2022-01-17,1,,,,,ショウワトソウサービス,0
2193,8080001017813,登記記録の閉鎖等,0,2023-10-12,2023-10-10,あさひ額縁株式会社,,株式会社,静岡県,焼津市,本町５丁目７番５号,,22,212,4250022,,,2023-10-10,清算の結了等,,,2015-10-05,1,,,,,アサヒガクブチ,0
2196,8080002015725,登記記録の閉鎖等,0,2023-10-12,2023-10-10,有限会社一基建工,,有限会社,静岡県,焼津市,五ケ堀之内１９９番地の６,,22,212,4250077,,,2023-10-10,清算の結了等,,,2015-10-05,1,,,,,カズキケンコウ,0
2204,8110002019136,登記記録の閉鎖等,0,2023-10-12,2023-10-10,有限会社サンテクノ,,有限会社,新潟県,燕市,田中新４３５番地１,,15,213,9590223,,,2023-10-10,清算の結了等,,,2015-10-05,1,,,,,サンテクノ,0
2205,8110002034036,登記記録の閉鎖等,0,2023-10-12,2023-10-05,有限会社鮨そばや,,有限会社,新潟県,魚沼市,堀之内４２５１番地,,15,225,9497413,,,2023-10-05,清算の結了等,,,2015-10-05,1,,,,,スシソバヤ,0
2240,8122001017854,登記記録の閉鎖等,0,2023-10-12,2023-10-06,エス・ピーエム株式会社,,株式会社,大阪府,八尾市,東本町１丁目３番８号,,27,212,5810004,,,2023-10-06,清算の結了等,,,2015-10-05,1,,,,,エスピーエム,0
2252,8160001007392,登記記録の閉鎖等,0,2023-10-12,2023-10-10,とまし開発株式会社,,株式会社,滋賀県,長浜市,高月町高月６３９番地１,,25,203,5290241,,,2023-10-10,清算の結了等,,,2015-10-05,1,,,,,トマシカイハツ,0
2254,8180002003711,登記記録の閉鎖等,0,2023-10-12,2023-10-04,有限会社英大,,有限会社,愛知県,名古屋市千種区,穂波町２丁目７０番地,,23,101,4640822,,,2023-10-04,清算の結了等,,,2015-10-05,1,,,,,エイダイ,0
2261,8200001017370,登記記録の閉鎖等,0,2023-10-12,2023-10-06,東洋物産株式会社,,株式会社,岐阜県,加茂郡白川町,河岐８８５番地の２,,21,506,5091105,,,2023-10-06,清算の結了等,,,2015-10-05,1,,,,,トウヨウブッサン,0
2266,8220002005901,登記記録の閉鎖等,0,2023-10-12,2023-10-10,有限会社メンテナンス中村,,有限会社,石川県,金沢市,諸江町中丁６３番地,,17,201,9200016,,,2023-10-10,清算の結了等,,,2015-10-05,1,,,,,メンテナンスナカムラ,0
2270,8240001018893,登記記録の閉鎖等,0,2023-10-12,2023-10-05,株式会社ＭＥＳ,,株式会社,広島県,広島市安芸区,矢野東７丁目４９番５号,,34,107,7360083,,,2023-10-05,清算の結了等,,,2015-10-05,1,,,,,エムイーエス,0
2275,8240002037637,登記記録の閉鎖等,0,2023-10-12,2023-10-05,三和工業有限会社,,有限会社,広島県,大竹市,御園台６番２４号,,34,211,7390625,,,2023-10-05,清算の結了等,,,2015-10-05,1,,,,,サンワコウギョウ,0
2279,8260003002035,登記記録の閉鎖等,0,2023-10-12,2023-10-06,合同会社ＪＡＰＡＧＥＴ,,合同会社,岡山県,岡山市南区,小串３７７８番地１２,,33,104,7028016,,,2023-10-06,清算の結了等,,,2016-07-11,1,,,,,ジャパゲット,0
2290,8290002037541,登記記録の閉鎖等,0,2023-10-12,2023-09-29,有限会社わきたショッピングセンター,,有限会社,福岡県,糟屋郡粕屋町,長者原西２丁目３番２９－１０５号ネオパレス長者原ＩＩ,00127198,40,349,8112316,,,2023-09-29,清算の結了等,,,2015-10-05,1,,,,,ワキタショッピングセンター,0
2292,8290801009187,登記記録の閉鎖等,0,2023-10-12,2023-10-06,株式会社サンヴィラ,,株式会社,福岡県,北九州市八幡東区,天神町２番４１号,,40,108,8050054,,,2023-10-06,合併による解散等,9290001013823,令和５年１０月１日福岡市博多区金の隈三丁目２３番１０号株式会社アビタシオン（9290001013823）に合併し解散,2015-10-05,1,,,,,サンビラ,0
2293,8290801015227,登記記録の閉鎖等,0,2023-10-12,2023-10-10,株式会社ささや,,株式会社,福岡県,行橋市,中央１丁目３番５号,,40,213,8240005,,,2023-10-10,清算の結了等,,,2015-10-05,1,,,,,ササヤ,0
2306,8380001015316,登記記録の閉鎖等,0,2023-10-12,2023-10-03,株式会社いわき好間Ｖ字峡クラインガルテン,,株式会社,福島県,いわき市,好間町榊小屋字小座取２番地,00083224,07,204,9701146,,,2023-10-03,清算の結了等,,,2015-10-05,1,,,,,イワキヨシマブイジキョウクラインガルテン,0
2313,8400602001447,登記記録の閉鎖等,0,2023-10-12,2023-09-29,有限会社ババサキ,,有限会社,岩手県,奥州市,衣川古戸３８０番地２３,,03,215,0294332,,,2023-09-29,清算の結了等,,,2015-10-05,1,,,,,ババサキ,0
2318,8430002025705,登記記録の閉鎖等,0,2023-10-12,2023-09-28,有限会社マルト加藤商事,,有限会社,北海道,札幌市白石区,菊水二条１丁目７番２８号,,01,104,0030802,,,2023-09-28,清算の結了等,,,2015-10-05,1,,,,,マルトカトウショウジ,0
2320,8430003001696,登記記録の閉鎖等,0,2023-10-12,2023-09-29,合同会社日本建装,,合同会社,北海道,札幌市西区,西町北１丁目２番１９号,,01,107,0630061,,,2023-09-29,合併による解散等,2430003013243,令和５年９月２０日札幌市西区西町北一丁目２番１９号合同会社住友住宅（2430003013243）に合併し解散,2015-10-05,1,,,,,ニホンケンソウ,0
2323,8430003015242,登記記録の閉鎖等,0,2023-10-12,2023-09-29,ｍａｌｅｔｔ合同会社,,合同会社,北海道,札幌市白石区,本郷通９丁目北１－８－４０６,,01,104,0030025,,,2023-09-29,清算の結了等,,,2023-07-24,1,,,,,マレット,0
2330,8460302001873,登記記録の閉鎖等,0,2023-10-12,2023-10-10,有限会社リリーメディカル,,有限会社,北海道,北見市,美山町西２丁目５８番地１２０,,01,208,0900070,,,2023-10-10,清算の結了等,,,2015-10-05,1,,,,,リリーメディカル,0
2331,8460302002038,登記記録の閉鎖等,0,2023-10-12,2023-10-10,有限会社コスモス,,有限会社,北海道,北見市,美山町西２丁目５８番地１２０,,01,208,0900070,,,2023-10-10,清算の結了等,,,2015-10-05,1,,,,,コスモス,0
2336,9010001082020,登記記録の閉鎖等,0,2023-10-12,2023-10-02,時事通信ビル管理株式会社,,株式会社,東京都,中央区,銀座５丁目１５番８号,,13,102,1040061,,,2023-10-02,合併による解散等,7010001018703,令和５年１０月１日東京都中央区銀座五丁目１５番８号株式会社時事通信社（7010001018703）に合併し解散,2015-10-05,1,,,,,ジジツウシンビルカンリ,0
2342,9010001216453,登記記録の閉鎖等,0,2023-10-12,2023-10-02,ＫＣ　Ｔｅｃｈｎｏｌｏｇｉｅｓ株式会社,,株式会社,東京都,千代田区,霞が関３丁目２番１号,,13,101,1000013,,,2023-10-02,合併による解散等,1010001204283,令和５年９月３０日東京都千代田区霞が関三丁目２番１号霞ヶ関パートナーズ株式会社（1010001204283）に合併し解散,2021-03-11,1,,,,,ケーシーテクノロジーズ,0
2354,9010003030150,登記記録の閉鎖等,0,2023-10-12,2023-10-02,合同会社グローバル人材育成サポート,,合同会社,東京都,千代田区,富士見２丁目２番１４－１５０３号,,13,101,1020071,,,2023-10-02,清算の結了等,,,2019-07-17,1,,,,,グローバルジンザイイクセイサポート,0
2357,9010005013327,登記記録の閉鎖等,0,2023-10-12,2023-10-06,ＴＣ２特定目的会社,,その他の設立登記法人,東京都,中央区,新川２丁目２７番１号,,13,102,1040033,,,2023-10-06,清算の結了等,,,2015-10-05,1,,,,,ティーシーツー,0
2370,9010401162487,登記記録の閉鎖等,0,2023-10-12,2023-09-25,株式会社ＦＬＡＴ,,株式会社,東京都,港区,浜松町２丁目２番１５号２階,,13,103,1050013,,,2023-09-25,清算の結了等,,,2021-09-06,1,,,,,フラット,0
2384,9010601060400,登記記録の閉鎖等,0,2023-10-12,2023-10-03,Ｗｉｓｅ　Ｂｕｃｋｓ株式会社,,株式会社,東京都,江東区,有明３丁目７番２６号有明フロンティアビルＢ棟９階,,13,108,1350063,,,2023-10-03,清算の結了等,,,2021-12-17,1,,,,,ワイズバックス,0
2398,9011001140932,登記記録の閉鎖等,0,2023-10-12,2023-10-03,株式会社ＨＡＮＧ　ＯＵＴ　ＨＯＵＳＥ,,株式会社,東京都,渋谷区,西原３丁目３７番１１号,,13,113,1510066,,,2023-10-03,清算の結了等,,,2021-06-07,1,,,,,ハングアウトハウス,0
2433,9020001009427,登記記録の閉鎖等,0,2023-10-12,2023-10-02,ヤツギスプリング株式会社,,株式会社,神奈川県,横浜市青葉区,柿の木台２３番地１２５,,14,117,2270048,,,2023-10-02,清算の結了等,,,2015-10-05,1,,,,,ヤツギスプリング,0
2448,9021002035172,登記記録の閉鎖等,0,2023-10-12,2023-10-04,有限会社田中薬品,,有限会社,神奈川県,伊勢原市,伊勢原１丁目３番２６号,,14,214,2591131,,,2023-10-04,清算の結了等,,,2015-10-05,1,,,,,タナカヤクヒン,0
2449,9021002038183,登記記録の閉鎖等,0,2023-10-12,2023-10-02,有限会社千代田工業,,有限会社,神奈川県,秦野市,曽屋５４８番地,,14,211,2570031,,,2023-10-02,清算の結了等,,,2015-10-05,1,,,,,チヨダコウギョウ,0
2483,9040002068164,登記記録の閉鎖等,0,2023-10-12,2023-09-27,有限会社石井歯科技工所,,有限会社,千葉県,袖ケ浦市,蔵波台３丁目３番地１８,,12,229,2990245,,,2023-09-27,清算の結了等,,,2015-10-05,1,,,,,イシイシカギコウショ,0
2484,9040002072661,登記記録の閉鎖等,0,2023-10-12,2023-09-26,有限会社岡田電機,,有限会社,千葉県,市原市,分目１９５番地,,12,219,2900259,,,2023-09-26,清算の結了等,,,2015-10-05,1,,,,,オカダデンキ,0
2488,9060002014414,登記記録の閉鎖等,0,2023-10-12,2023-10-04,有限会社野バラ,,有限会社,栃木県,那須烏山市,滝田６８８番地４,,09,215,3210605,,,2023-10-04,清算の結了等,,,2015-10-05,1,,,,,ノバラ,0
2495,9080401024409,登記記録の閉鎖等,0,2023-10-12,2023-10-10,ゴールド・マリッジ株式会社,,株式会社,静岡県,掛川市,杉谷１丁目１０番１号,,22,213,4360017,,,2023-10-10,清算の結了等,,,2020-07-07,1,,,,,ゴールドマリッジ,0
2496,9080402004938,登記記録の閉鎖等,0,2023-10-12,2023-10-10,有限会社田原織物,,有限会社,静岡県,浜松市東区,笠井上町２５４番地,,22,132,4313106,,,2023-10-10,清算の結了等,,,2015-10-05,1,,,,,タハラオリモノ,0
2530,9170001009692,登記記録の閉鎖等,0,2023-10-12,2023-10-11,株式会社ケイ・テイ・エイチ・ファミリー,,株式会社,和歌山県,田辺市,目良２４番５１号,,30,206,6460058,,,2023-10-11,清算の結了等,,,2015-10-05,1,,,,,ケイテイエイチファミリー,0
2533,9180001124549,登記記録の閉鎖等,0,2023-10-12,2023-10-04,株式会社テクノメゾン東海,,株式会社,愛知県,海部郡飛島村,元起５丁目４３番地,,23,427,4901437,,,2023-10-04,清算の結了等,,,2016-08-19,1,,,,,テクノメゾントウカイ,0
2548,9240002048534,登記記録の閉鎖等,0,2023-10-12,2023-10-04,有限会社ミックル,,有限会社,広島県,安芸郡海田町,昭和中町３番７号,,34,304,7360064,,,2023-10-04,清算の結了等,,,2015-10-05,1,,,,,,0
2592,9410001010048,登記記録の閉鎖等,0,2023-10-12,2023-10-02,株式会社ネピュレ東北,,株式会社,秋田県,南秋田郡大潟村,字西４丁目８８番地,,05,368,0100445,,,2023-10-02,合併による解散等,6410001004151,令和５年１０月１日秋田県南秋田郡大潟村字西四丁目８８番地株式会社大潟村あきたこまち生産者協会（6410001004151）に合併し解散,2015-10-05,1,,,,,ネピュレトウホク,0
