sequenceNumber,corporateNumber,process,correct,updateDate,changeDate,name,nameImageId,kind,prefectureName,cityName,streetNumber,addressImageId,prefectureCode,cityCode,postCode,addressOutside,addressOutsideImageId,closeDate,closeCause,successorCorporateNumber,changeCause,assignmentDate,latest,enName,enPrefectureName,enCityName,enAddressOutside,furigana,hihyoji
8,1010001222921,新規,0,2021-12-02,2021-12-02,ＵＢＧコンサルティング株式会社,,株式会社,東京都,中央区,日本橋蛎殻町１丁目３３番４号６階,,13,102,1030014,,,,,,,2021-12-02,1,,,,,ユービージーコンサルティング,0
12,1010005034264,新規,0,2021-12-02,2021-12-02,一般社団法人日本コインランドリー連合会,,その他の設立登記法人,東京都,文京区,後楽２丁目２０番１５号,,13,105,1120004,,,,,,,2021-12-02,1,,,,,ニホンコインランドリーレンゴウカイ,0
14,1010101014970,新規,0,2021-12-02,2021-12-02,株式会社リーチ,,株式会社,東京都,八王子市,子安町４丁目７番１－３３０３号,,13,201,1920904,,,,,,,2021-12-02,1,,,,,リーチ,0
29,1010401164029,新規,0,2021-12-02,2021-12-02,株式会社ＭＥＴＡＳＳＥＴ,,株式会社,東京都,港区,六本木４丁目３番１１号六本木ユニハウス２２３,,13,103,1060032,,,,,,,2021-12-02,1,,,,,メタセット,0
31,1010501048164,新規,0,2021-12-02,2021-12-02,株式会社エクシア,,株式会社,東京都,台東区,浅草橋１丁目２５－７－２０２号シティコープ浅草橋’９０,,13,106,1110053,,,,,,,2021-12-02,1,,,,,エクシア,0
32,1010505003280,新規,0,2021-12-02,2021-12-02,税理士法人ＫＯＷＡ事務所,,その他の設立登記法人,東京都,台東区,東上野３丁目３５番９号本池田ビル９階,,13,106,1100015,,,,,,,2021-12-02,1,,,,,コーワジムショ,0
36,1010801032537,新規,0,2021-12-02,2021-12-02,株式会社チリビーンズ,,株式会社,東京都,大田区,田園調布本町４０－１２コンド田園調布３０７,,13,111,1450072,,,,,,,2021-12-02,1,,,,,チリビーンズ,0
39,1010903006975,新規,0,2021-12-02,2021-12-02,合同会社今伸,,合同会社,東京都,世田谷区,松原３丁目３２番６号カバロ１０１,,13,112,1560043,,,,,,,2021-12-02,1,,,,,イマシン,0
44,1011001144271,新規,0,2021-12-02,2021-12-02,橘ホールディングス株式会社,,株式会社,東京都,渋谷区,幡ヶ谷２丁目８番１０号２０３号室,,13,113,1510072,,,,,,,2021-12-02,1,,,,,タチバナホールディングス,0
49,1011101097097,新規,0,2021-12-02,2021-12-02,株式会社日本ビジネス支援機構,,株式会社,東京都,新宿区,新宿２丁目１２番１３号新宿アントレサロンビル２階,,13,104,1600022,,,,,,,2021-12-02,1,,,,,ニホンビジネスシエンキコウ,0
50,1011103011238,新規,0,2021-12-02,2021-12-02,合同会社ともしび,,合同会社,東京都,新宿区,片町２番４,,13,104,1600001,,,,,,,2021-12-02,1,,,,,トモシビ,0
52,1011203003696,新規,0,2021-12-02,2021-12-02,合同会社ソーレヴィラ,,合同会社,東京都,中野区,弥生町２丁目２８番１号兼子ビル２０２,,13,114,1640013,,,,,,,2021-12-02,1,,,,,ソーレヴィラ,0
59,1011601025573,新規,0,2021-12-02,2021-12-02,株式会社ＩＱＤＢ,,株式会社,東京都,練馬区,豊玉北５丁目２９番４号井門練馬ビル９階,,13,120,1760012,,,,,,,2021-12-02,1,,,,,アイキューディービー,0
65,1011801040018,新規,0,2021-12-02,2021-12-02,真和株式会社,,株式会社,東京都,足立区,竹の塚１丁目１３－１３－２０５号室,,13,121,1210813,,,,,,,2021-12-02,1,,,,,シンワ,0
69,1012403005128,新規,0,2021-12-02,2021-12-02,合同会社吉祥万屋,,合同会社,東京都,武蔵野市,吉祥寺東町２丁目２４番２８号,,13,203,1800002,,,,,,,2021-12-02,1,,,,,キッショウヨロズヤ,0
81,1020001144157,新規,0,2021-12-02,2021-12-02,株式会社Ａｃｅｔａｋｅ,,株式会社,神奈川県,川崎市幸区,塚越２丁目２３８番地,,14,132,2120024,,,,,,,2021-12-02,1,,,,,エーステイク,0
86,1021001074625,新規,0,2021-12-02,2021-12-02,株式会社オルガノイドファーム,,株式会社,神奈川県,藤沢市,村岡東２丁目２６番地の１,,14,205,2510012,,,,,,,2021-12-02,1,,,,,オルガノイドファーム,0
93,1030001145617,新規,0,2021-12-02,2021-12-02,株式会社ウィラックス,,株式会社,埼玉県,鴻巣市,下忍３２２３番地２,,11,217,3690113,,,,,,,2021-12-02,1,,,,,ウィラックス,0
96,1030003018399,新規,0,2021-12-02,2021-12-02,合同会社ユリシーズ,,合同会社,埼玉県,入間市,大字新光３０６番地４４９,,11,225,3580055,,,,,,,2021-12-02,1,,,,,ユリシーズ,0
101,1040001121170,新規,0,2021-12-02,2021-12-02,株式会社ＣＲＥＬ,,株式会社,千葉県,習志野市,新栄２丁目１番１６号,,12,216,2750005,,,,,,,2021-12-02,1,,,,,シーレル,0
105,1040003018976,新規,0,2021-12-02,2021-12-02,コロナバスター合同会社,,合同会社,千葉県,柏市,柏３丁目９番１７－５０３号,,12,217,2770005,,,,,,,2021-12-02,1,,,,,コロナバスター,0
110,1050005012976,新規,0,2021-12-02,2021-12-02,一般社団法人やまとあい,,その他の設立登記法人,茨城県,ひたちなか市,平磯町１５２９番地１,,08,221,3111203,,,,,,,2021-12-02,1,,,,,ヤマトアイ,0
120,1070001038701,新規,0,2021-12-02,2021-12-02,るり光株式会社,,株式会社,群馬県,高崎市,倉賀野町４５２５番地３,,10,202,3701201,,,,,,,2021-12-02,1,,,,,ルリコウ,0
124,1080005007412,新規,0,2021-12-02,2021-12-02,一般社団法人静岡県医療ソーシャルワーカー協会,,その他の設立登記法人,静岡県,静岡市葵区,北番町２３番地、ＪＡ静岡厚生連静岡厚生病院内,,22,101,4200005,,,,,,,2021-12-02,1,,,,,シズオカケンイリョウソーシャルワーカーキョウカイ,0
127,1080101022942,新規,0,2021-12-02,2021-12-02,ＲＥＴＲＥＡＴ開発株式会社,,株式会社,静岡県,賀茂郡東伊豆町,奈良本１２４８番地１エリゼ熱川１１０２号室,,22,301,4130302,,,,,,,2021-12-02,1,,,,,リトリートカイハツ,0
131,1100001034853,新規,0,2021-12-02,2021-12-02,株式会社ＫＺ,,株式会社,長野県,松本市,反町５８０番地１,,20,202,3997418,,,,,,,2021-12-02,1,,,,,ケイズィー,0
136,1100005012797,新規,0,2021-12-02,2021-12-02,ＮＰＯ法人スプロケット,,その他の設立登記法人,長野県,上伊那郡箕輪町,大字中箕輪１９０４番地３,,20,383,3994601,,,,,,,2021-12-02,1,,,,,スプロケット,0
150,1120001242207,新規,0,2021-12-02,2021-12-02,きらめき株式会社,,株式会社,大阪府,大阪市中央区,道頓堀１丁目東６番６号,,27,128,5420071,,,,,,,2021-12-02,1,,,,,キラメキ,0
151,1120001242215,新規,0,2021-12-02,2021-12-02,株式会社人才育成,,株式会社,大阪府,大阪市都島区,片町１丁目５番１３号,,27,102,5340025,,,,,,,2021-12-02,1,,,,,ジンザイイクセイ,0
152,1120001242223,新規,0,2021-12-02,2021-12-02,株式会社トラスト,,株式会社,大阪府,大阪市旭区,高殿３丁目２６番２－７１０号,,27,117,5350031,,,,,,,2021-12-02,1,,,,,トラスト,0
158,1120101064716,新規,0,2021-12-02,2021-12-02,株式会社ｏｖｅ,,株式会社,大阪府,堺市中区,福田１３０５番地５,,27,142,5998241,,,,,,,2021-12-02,1,,,,,オーヴェ,0
159,1120103004463,新規,0,2021-12-02,2021-12-02,合同会社Ｄ＆Ｔ,,合同会社,大阪府,大阪狭山市,狭山５丁目２２５６番地の２,,27,231,5890005,,,,,,,2021-12-02,1,,,,,ディアンドティ,0
164,1120901045279,新規,0,2021-12-02,2021-12-02,株式会社ワールドハウジング,,株式会社,大阪府,茨木市,寺田町５番３３号,,27,211,5670823,,,,,,,2021-12-02,1,,,,,ワールドハウジング,0
167,1122001035400,新規,0,2021-12-02,2021-12-02,株式会社ビバーチェ,,株式会社,大阪府,東大阪市,新庄１丁目１番４１号,,27,227,5780963,,,,,,,2021-12-02,1,,,,,ビバーチェ,0
168,1122005003592,新規,0,2021-12-02,2021-12-02,一般社団法人日本在来馬振興会,,その他の設立登記法人,大阪府,東大阪市,六万寺町１丁目１１番１９号,,27,227,5798061,,,,,,,2021-12-02,1,,,,,ニホンザイライバシンコウカイ,0
170,1130001070631,新規,0,2021-12-02,2021-12-02,ＢｅＢｏ株式会社,,株式会社,京都府,京都市山科区,東野八反畑町５８－３－２０６,,26,110,6078145,,,,,,,2021-12-02,1,,,,,ビボ,0
171,1130003007607,新規,0,2021-12-02,2021-12-02,合同会社いち鈴フーズ,,合同会社,京都府,京都市左京区,田中大堰町８９番地４,,26,103,6068202,,,,,,,2021-12-02,1,,,,,イチリンフーズ,0
180,1140001124064,新規,0,2021-12-02,2021-12-02,株式会社Ｉｒｉｓ,,株式会社,兵庫県,尼崎市,長洲本通２丁目９番６号,,28,202,6600803,,,,,,,2021-12-02,1,,,,,アイリス,0
182,1140003017051,新規,0,2021-12-02,2021-12-02,合同会社蓮,,合同会社,兵庫県,伊丹市,野間８丁目３番１０号,,28,207,6640873,,,,,,,2021-12-02,1,,,,,レン,0
186,1140005025911,新規,0,2021-12-02,2021-12-02,医療法人社団一八会,,その他の設立登記法人,兵庫県,神戸市西区,前開南町１丁目４番４号伊川谷駅前ビル２Ｆ,,28,111,6512109,,,,,,,2021-12-02,1,,,,,イチハチカイ,0
187,1140005025928,新規,0,2021-12-02,2021-12-02,一般社団法人日本罹災調査,,その他の設立登記法人,兵庫県,姫路市,駅前町２２９,,28,201,6700927,,,,,,,2021-12-02,1,,,,,ニホンリサイチョウサ,0
189,1150005009351,新規,0,2021-12-02,2021-12-02,医療法人良寿会,,その他の設立登記法人,奈良県,奈良市,紀寺町４１４番地５,,29,201,6308306,,,,,,,2021-12-02,1,,,,,リョウジュカイ,0
200,1180001148893,新規,0,2021-12-02,2021-12-02,Ｊｕｎｋｙｏコーポレーション株式会社,,株式会社,愛知県,名古屋市中区,大須２丁目３０番１４号桜井ビル１階,,23,106,4600011,,,,,,,2021-12-02,1,,,,,ジュンキョウコーポレーション,0
201,1180001148910,新規,0,2021-12-02,2021-12-02,株式会社北建夢工房,,株式会社,愛知県,弥富市,佐古木５丁目５１０番地１,,23,235,4980006,,,,,,,2021-12-02,1,,,,,キタケンユメコウボウ,0
202,1180001148935,新規,0,2021-12-02,2021-12-02,株式会社ＮｅｌＫｕ‐Ｘ,,株式会社,愛知県,名古屋市西区,牛島町６番１号名古屋ルーセントタワー４０階,,23,104,4510046,,,,,,,2021-12-02,1,,,,,ネルクエックス,0
203,1180001148943,新規,0,2021-12-02,2021-12-02,株式会社いたや塗工所,,株式会社,愛知県,名古屋市昭和区,宮東町３２６番地,,23,107,4660804,,,,,,,2021-12-02,1,,,,,イタヤトコウショ,0
204,1180001148951,新規,0,2021-12-02,2021-12-02,名古屋ハウスクリーニング株式会社,,株式会社,愛知県,名古屋市中川区,戸田ゆたか２丁目２０１２番地,,23,110,4540966,,,,,,,2021-12-02,1,,,,,ナゴヤハウスクリーニング,0
216,1190001028905,新規,0,2021-12-02,2021-12-02,株式会社友協設備,,株式会社,三重県,四日市市,楠町南川２４２番地４,,24,202,5100105,,,,,,,2021-12-02,1,,,,,ユウキョウセツビ,0
217,1200001039487,新規,0,2021-12-02,2021-12-02,株式会社河島装飾,,株式会社,岐阜県,岐阜市,六条大溝２丁目３番１５号,,21,201,5008357,,,,,,,2021-12-02,1,,,,,カワシマソウショク,0
223,1230001019123,新規,0,2021-12-02,2021-12-02,株式会社巧産,,株式会社,富山県,富山市,奥田寿町１２番８号,,16,201,9300852,,,,,,,2021-12-02,1,,,,,コウサン,0
230,1260001036272,新規,0,2021-12-02,2021-12-02,株式会社フクル,,株式会社,岡山県,岡山市北区,西古松１丁目１０番２０号,,33,101,7000927,,,,,,,2021-12-02,1,,,,,フクル,0
234,1260003003733,新規,0,2021-12-02,2021-12-02,合同会社テゴ,,合同会社,岡山県,高梁市,落合町阿部８６６番地２,,33,209,7160061,,,,,,,2021-12-02,1,,,,,テゴ,0
235,1270003001372,新規,0,2021-12-02,2021-12-02,友森商会合同会社,,合同会社,鳥取県,米子市,葭津１３２５－１,,31,202,6830105,,,,,,,2021-12-02,1,,,,,トモモリショウカイ,0
244,1290001095621,新規,0,2021-12-02,2021-12-02,株式会社Ｎｅｘｔ‐Ｐｒｏｄｕｃｔｓ,,株式会社,福岡県,福岡市中央区,大手門２丁目１番１０号,,40,133,8100074,,,,,,,2021-12-02,1,,,,,ネクストプロダクツ,0
245,1290003011881,新規,0,2021-12-02,2021-12-02,合同会社タイヨウトバナナ,,合同会社,福岡県,福岡市中央区,大名１丁目１番３号石井ビル４Ｆ,,40,133,8100041,,,,,,,2021-12-02,1,,,,,タイヨウトバナナ,0
250,1290801028037,新規,0,2021-12-02,2021-12-02,株式会社ＩＫＳ,,株式会社,福岡県,北九州市小倉南区,徳力１丁目１５番２－３０３号,,40,107,8020974,,,,,,,2021-12-02,1,,,,,アイケイエス,0
254,1310001017614,新規,0,2021-12-02,2021-12-02,ケイズ・ワークス株式会社,,株式会社,長崎県,諫早市,多良見町シーサイド３番地４６,,42,204,8590407,,,,,,,2021-12-02,1,,,,,ケイズワークス,0
261,1330001029244,新規,0,2021-12-02,2021-12-02,株式会社デンケン,,株式会社,熊本県,阿蘇市,黒川１４５１番地１,,43,214,8692225,,,,,,,2021-12-02,1,,,,,デンケン,0
263,1330003009153,新規,0,2021-12-02,2021-12-02,合同会社Ｍ＆Ｒ,,合同会社,熊本県,熊本市南区,元三町３丁目１番４号,,43,104,8614105,,,,,,,2021-12-02,1,,,,,エムアンドアール,0
264,1340001024302,新規,0,2021-12-02,2021-12-02,株式会社れいわ工業,,株式会社,鹿児島県,鹿児島市,紫原７丁目１５番８号龍千ビルＳ２０６号,,46,201,8900082,,,,,,,2021-12-02,1,,,,,レイワコウギョウ,0
265,1360001029704,新規,0,2021-12-02,2021-12-02,株式会社ケイズインフィニティー,,株式会社,沖縄県,うるま市,字赤道１７４番地５・２Ｆ,,47,213,9042245,,,,,,,2021-12-02,1,,,,,ケイズインフィニティー,0
269,1370003005504,新規,0,2021-12-02,2021-12-02,合同会社Ｏｗｌ・Ｎｅｓｔ,,合同会社,宮城県,仙台市太白区,恵和町１３番１号,,04,104,9820823,,,,,,,2021-12-02,1,,,,,アウルネスト,0
276,1390001016699,新規,0,2021-12-02,2021-12-02,株式会社一陽来福,,株式会社,山形県,山形市,東志戸田７２８番地,,06,201,9900869,,,,,,,2021-12-02,1,,,,,イチヨウライフク,0
279,1410003003593,新規,0,2021-12-02,2021-12-02,Ｑ’ｓ合同会社,,合同会社,秋田県,秋田市,新屋朝日町１４番６号,,05,201,0101613,,,,,,,2021-12-02,1,,,,,キューズ,0
284,1430001085483,新規,0,2021-12-02,2021-12-02,株式会社ワタナベペイント,,株式会社,北海道,札幌市北区,新琴似六条１７丁目３番２２号,,01,102,0010906,,,,,,,2021-12-02,1,,,,,ワタナベペイント,0
288,1430003013418,新規,0,2021-12-02,2021-12-02,合同会社Ｕｋｉｇｕｍｏ,,合同会社,北海道,札幌市中央区,南二条西２３丁目１番２１－３０２号,,01,101,0640802,,,,,,,2021-12-02,1,,,,,ウキグモ,0
289,1440001008988,新規,0,2021-12-02,2021-12-02,株式会社鹿部スタイル,,株式会社,北海道,茅部郡鹿部町,字鹿部７番地,,01,343,0411402,,,,,,,2021-12-02,1,,,,,シカベスタイル,0
296,1500001023840,新規,0,2021-12-02,2021-12-02,株式会社センバ商事,,株式会社,愛媛県,松山市,二番町２丁目７番地１－１Ｆ,,38,201,7900002,,,,,,,2021-12-02,1,,,,,センバショウジ,0
297,1500003002727,新規,0,2021-12-02,2021-12-02,合同会社ブレーン企画,,合同会社,愛媛県,松山市,中村１丁目２番２６－４号,,38,201,7900964,,,,,,,2021-12-02,1,,,,,ブレーンキカク,0
315,2010401164184,新規,0,2021-12-02,2021-12-02,株式会社ＹＩストラテジーコンサルタンツ,,株式会社,東京都,港区,浜松町２丁目２番１５号浜松町ダイヤビル２Ｆ,,13,103,1050013,,,,,,,2021-12-02,1,,,,,ワイアイストラテジーコンサルタンツ,0
321,2010503006441,新規,0,2021-12-02,2021-12-02,合同会社ことばのとり,,合同会社,東京都,台東区,蔵前３丁目２１番１号,,13,106,1110051,,,,,,,2021-12-02,1,,,,,コトバノトリ,0
331,2010903006974,新規,0,2021-12-02,2021-12-02,合同会社魚得,,合同会社,東京都,世田谷区,砧３丁目２５番２０号,,13,112,1570073,,,,,,,2021-12-02,1,,,,,ウオトク,0
338,2011005009338,新規,0,2021-12-02,2021-12-02,一般社団法人Ｊａｐａｎ　Ｗｏｍｅｎ’ｓ　Ｔｅｎｎｉｓ　Ｔｏｐ５０Ｃｌｕｂ,,その他の設立登記法人,東京都,渋谷区,恵比寿南１丁目９番２号,,13,113,1500022,,,,,,,2021-12-02,1,,,,,ジャパンウィメンズテニストップフィフティクラブ,0
340,2011101097096,新規,0,2021-12-02,2021-12-02,株式会社ＧＡＣＨＥＴＴＥ,,株式会社,東京都,新宿区,上落合１丁目８番１号,,13,104,1610034,,,,,,,2021-12-02,1,,,,,ガジェット,0
341,2011101097105,新規,0,2021-12-02,2021-12-02,株式会社ＡｓｔｒｏＳｙｓｔｅｍｓ,,株式会社,東京都,新宿区,西新宿５丁目５－１－１４１１,,13,104,1600023,,,,,,,2021-12-02,1,,,,,,0
345,2011503004996,新規,0,2021-12-02,2021-12-02,合同会社ＳＡＫＩＣＨＩ,,合同会社,東京都,北区,赤羽１丁目６番７－９０２号,,13,117,1150045,,,,,,,2021-12-02,1,,,,,サキチ,0
347,2011603003452,新規,0,2021-12-02,2021-12-02,合同会社ＹＫ,,合同会社,東京都,練馬区,早宮３丁目５５番１２号,,13,120,1790085,,,,,,,2021-12-02,1,,,,,ワイケイ,0
359,2012403005135,新規,0,2021-12-02,2021-12-02,ＹＡＹ合同会社,,合同会社,東京都,武蔵野市,関前３丁目２２番１２－１０３号コンフォール武蔵野,,13,203,1800014,,,,,,,2021-12-02,1,,,,,ワイエーワイ,0
383,2020003020909,新規,0,2021-12-02,2021-12-02,Ｅｊ－２９合同会社,,合同会社,神奈川県,川崎市高津区,千年１００１番地,,14,134,2130022,,,,,,,2021-12-02,1,,,,,イージェイニジュウキュウ,0
389,2021003011146,新規,0,2021-12-02,2021-12-02,スズキデザイン合同会社,,合同会社,神奈川県,相模原市緑区,東橋本２丁目２２番１１号,,14,151,2520144,,,,,,,2021-12-02,1,,,,,スズキデザイン,0
398,2030001145533,新規,0,2021-12-02,2021-12-02,株式会社ＩＣＨＩＧＯ,,株式会社,埼玉県,志木市,上宗岡２丁目３番８号スカイコーポ志木Ｂ－１０２,,11,228,3530001,,,,,,,2021-12-02,1,,,,,イチゴ,0
399,2030001145616,新規,0,2021-12-02,2021-12-02,株式会社尚,,株式会社,埼玉県,さいたま市見沼区,東大宮１丁目７４番地２,,11,104,3370051,,,,,,,2021-12-02,1,,,,,ナオ,0
400,2030001145624,新規,0,2021-12-02,2021-12-02,株式会社宇和商会,,株式会社,埼玉県,さいたま市南区,鹿手袋６丁目４番３２号,,11,108,3360031,,,,,,,2021-12-02,1,,,,,ウワショウカイ,0
401,2030001145665,新規,0,2021-12-02,2021-12-02,株式会社桜武ＨＯＭＥ,,株式会社,埼玉県,三郷市,彦川戸１丁目９番地２,,11,237,3410005,,,,,,,2021-12-02,1,,,,,オウブホーム,0
402,2030001145673,新規,0,2021-12-02,2021-12-02,株式会社あまつち,,株式会社,埼玉県,さいたま市浦和区,領家６丁目２番２２－８号,,11,107,3300072,,,,,,,2021-12-02,1,,,,,アマツチ,0
404,2030003018308,新規,0,2021-12-02,2021-12-02,ＳＲ　ＴＲＡＤＥＲＳ合同会社,,合同会社,埼玉県,ふじみ野市,上福岡５丁目５番２３号レジデンスみやび１０３,,11,245,3560004,,,,,,,2021-12-02,1,,,,,エスアールトレーダース,0
405,2030003018423,新規,0,2021-12-02,2021-12-02,合同会社ＡＲＰＳ,,合同会社,埼玉県,新座市,野寺１丁目１１番１８号,,11,230,3520034,,,,,,,2021-12-02,1,,,,,アープス,0
410,2040001121186,新規,0,2021-12-02,2021-12-02,株式会社いちかわ,,株式会社,千葉県,松戸市,栄町６丁目４３２番地,,12,207,2710062,,,,,,,2021-12-02,1,,,,,イチカワ,0
411,2040001121211,新規,0,2021-12-02,2021-12-02,おうちクラブ株式会社,,株式会社,千葉県,木更津市,太田２丁目６番２２号,,12,206,2920044,,,,,,,2021-12-02,1,,,,,オウチクラブ,0
414,2040003018983,新規,0,2021-12-02,2021-12-02,合同会社ＩＳＵ　ＴＲＡＤＩＮＧ,,合同会社,千葉県,印西市,岩戸３４８９,,12,231,2701616,,,,,,,2021-12-02,1,,,,,アイエスユートレーディング,0
418,2070001038700,新規,0,2021-12-02,2021-12-02,博光物産株式会社,,株式会社,群馬県,みどり市,大間々町桐原１５７０番地２３６,,10,212,3760102,,,,,,,2021-12-02,1,,,,,ハッコウブッサン,0
423,2080003002694,新規,0,2021-12-02,2021-12-02,合同会社ラッドソフト,,合同会社,静岡県,静岡市葵区,宮ケ崎町８５番地の１キャレル静岡４０２,,22,101,4200868,,,,,,,2021-12-02,1,,,,,ラッドソフト,0
424,2080005007411,新規,0,2021-12-02,2021-12-02,一般社団法人ふる郷ささまさくらの会,,その他の設立登記法人,静岡県,島田市,川根町笹間上２６２２番地,,22,209,4280211,,,,,,,2021-12-02,1,,,,,フルサトササマサクラノカイ,0
435,2100001034852,新規,0,2021-12-02,2021-12-02,株式会社平安商事,,株式会社,長野県,長野市,東犀南２９００番地２６,,20,201,3888001,,,,,,,2021-12-02,1,,,,,ヘイアンショウジ,0
437,2100003006305,新規,0,2021-12-02,2021-12-02,合同会社ＩＭＪコーポレーション,,合同会社,長野県,飯田市,上郷黒田５５９番地,,20,205,3950004,,,,,,,2021-12-02,1,,,,,アイエムジェイコーポレーション,0
440,2110001036220,新規,0,2021-12-02,2021-12-02,Ｙｕｋｉｇｕｎｉ　Ａｌｌｉａｎｃｅ株式会社,,株式会社,新潟県,南魚沼市,宮４６４番地１,,15,226,9496775,,,,,,,2021-12-02,1,,,,,ユキグニアライアンス,0
441,2110001036229,新規,0,2021-12-02,2021-12-02,株式会社尚昌,,株式会社,新潟県,燕市,小池新町１１１番地,,15,213,9591275,,,,,,,2021-12-02,1,,,,,ナオヨシ,0
449,2120001242197,新規,0,2021-12-02,2021-12-02,ｍａｐｐｉｎ株式会社,,株式会社,大阪府,大阪市北区,角田町１番１２号,,27,127,5300017,,,,,,,2021-12-02,1,,,,,マッピン,0
450,2120001242206,新規,0,2021-12-02,2021-12-02,株式会社揚子江,,株式会社,大阪府,大阪市北区,天満橋２丁目４番１８号ノア北天満１００８号,,27,127,5300042,,,,,,,2021-12-02,1,,,,,ヨウスコウ,0
451,2120001242222,新規,0,2021-12-02,2021-12-02,エニーローグ株式会社,,株式会社,大阪府,大阪市北区,梅田１丁目３番１号大阪駅前第１ビル８階５号,,27,127,5300001,,,,,,,2021-12-02,1,,,,,エニーローグ,0
453,2120101064723,新規,0,2021-12-02,2021-12-02,株式会社Ｔ－ｒｉｓｅ,,株式会社,大阪府,岸和田市,小松里町２１１０番地クレアール小松里３０５号,,27,202,5960821,,,,,,,2021-12-02,1,,,,,ティーライズ,0
454,2120103004462,新規,0,2021-12-02,2021-12-02,合同会社タビー,,合同会社,大阪府,泉大津市,菅原町１１番４号コートエクラン光１０１,,27,206,5950066,,,,,,,2021-12-02,1,,,,,タビー,0
457,2120901045294,新規,0,2021-12-02,2021-12-02,株式会社大隆,,株式会社,大阪府,箕面市,白島３丁目３番７号,,27,220,5620012,,,,,,,2021-12-02,1,,,,,ダイリュウ,0
458,2120903003928,新規,0,2021-12-02,2021-12-02,合同会社有人,,合同会社,大阪府,豊中市,新千里東町１丁目２番１－４７０３号,,27,203,5600082,,,,,,,2021-12-02,1,,,,,アリト,0
465,2130001070630,新規,0,2021-12-02,2021-12-02,株式会社スミカデザインラボ,,株式会社,京都府,京都市山科区,西野小柳町６９番地１,,26,110,6078354,,,,,,,2021-12-02,1,,,,,スミカデザインラボ,0
466,2130001070639,新規,0,2021-12-02,2021-12-02,株式会社京都杉山商店,,株式会社,京都府,京都市中京区,新京極通四条上る中之町５４６番地,,26,104,6048042,,,,,,,2021-12-02,1,,,,,キョウトスギヤマショウテン,0
472,2140001124030,新規,0,2021-12-02,2021-12-02,ＡＫＩ貿易株式会社,,株式会社,兵庫県,神戸市中央区,中山手通２丁目１５－１３サンシャイン山手９０１,,28,110,6500004,,,,,,,2021-12-02,1,,,,,アキボウエキ,0
477,2140005025910,新規,0,2021-12-02,2021-12-02,一般社団法人鳴滝,,その他の設立登記法人,兵庫県,神戸市北区,道場町日下部１６９８番地,,28,109,6511505,,,,,,,2021-12-02,1,,,,,ナルタキ,0
479,2150001025137,新規,0,2021-12-02,2021-12-02,株式会社上田塗装店,,株式会社,奈良県,橿原市,西池尻町１９４番地の１,,29,205,6340821,,,,,,,2021-12-02,1,,,,,ウエダトソウテン,0
484,2170001016885,新規,0,2021-12-02,2021-12-02,庄司建設株式会社,,株式会社,和歌山県,和歌山市,平尾３５８番地,,30,201,6400304,,,,,,,2021-12-02,1,,,,,ショウジケンセツ,0
494,2180001148934,新規,0,2021-12-02,2021-12-02,株式会社ＭＡＫＯ’Ｓ　ＦＡＲＭ,,株式会社,愛知県,知多市,新知字東屋敷１９番地,,23,224,4780017,,,,,,,2021-12-02,1,,,,,マコズファーム,0
495,2180001148942,新規,0,2021-12-02,2021-12-02,株式会社ＷＩＮ‐ＴＡＸ,,株式会社,愛知県,名古屋市名東区,上社１丁目１８１３番地２発明ビル４階,,23,115,4650025,,,,,,,2021-12-02,1,,,,,ウィンタックス,0
496,2180001148959,新規,0,2021-12-02,2021-12-02,株式会社誠建設,,株式会社,愛知県,名古屋市守山区,四軒家２丁目１４３,,23,113,4630034,,,,,,,2021-12-02,1,,,,,マコトケンセツ,0
514,2190001028904,新規,0,2021-12-02,2021-12-02,ＮＳ電工株式会社,,株式会社,三重県,津市,久居西鷹跡町３３９番地１,,24,201,5141131,,,,,,,2021-12-02,1,,,,,エヌエスデンコウ,0
519,2200001039478,新規,0,2021-12-02,2021-12-02,株式会社浅野鉄工所,,株式会社,岐阜県,岐阜市,下茶屋町２７番地１,,21,201,5008022,,,,,,,2021-12-02,1,,,,,アサノテッコウショ,0
522,2210001018712,新規,0,2021-12-02,2021-12-02,株式会社トラベリングライフ,,株式会社,福井県,福井市,日之出３丁目１３番１６号,,18,201,9100859,,,,,,,2021-12-02,1,,,,,トラベリングライフ,0
524,2220001024569,新規,0,2021-12-02,2021-12-02,株式会社寺子屋仁慧舎,,株式会社,石川県,かほく市,森ソ２番地１,,17,209,9291123,,,,,,,2021-12-02,1,,,,,テラコヤジンケイシャ,0
525,2230003001763,新規,0,2021-12-02,2021-12-02,Ｄｉａｓ　Ｄ．Ｋ．Ｄ合同会社,,合同会社,富山県,富山市,稲代６０２－１,,16,201,9392231,,,,,,,2021-12-02,1,,,,,ディアスディケイディ,0
526,2240003005391,新規,0,2021-12-02,2021-12-02,ＳＨＩＰ合同会社,,合同会社,広島県,広島市南区,宇品御幸２丁目２－２１,,34,103,7340015,,,,,,,2021-12-02,1,,,,,,0
539,2290001095587,新規,0,2021-12-02,2021-12-02,エス・ワイ物流株式会社,,株式会社,福岡県,春日市,桜ヶ丘７丁目３５番地,,40,218,8160872,,,,,,,2021-12-02,1,,,,,エスワイブツリュウ,0
540,2290001095604,新規,0,2021-12-02,2021-12-02,株式会社Ｇｏｏｄ　Ｌｉｆｅ,,株式会社,福岡県,福岡市西区,北原１丁目１９番３号エトワール学研都市１階,,40,135,8190379,,,,,,,2021-12-02,1,,,,,グッドライフ,0
542,2290003011889,新規,0,2021-12-02,2021-12-02,合同会社ＯＦＣ,,合同会社,福岡県,福津市,宮司浜２丁目３５番２５－Ａ号,,40,224,8113311,,,,,,,2021-12-02,1,,,,,オーエフシー,0
543,2290801028028,新規,0,2021-12-02,2021-12-02,大平貿易株式会社,,株式会社,福岡県,中間市,大字中間４２８４番地,,40,215,8090034,,,,,,,2021-12-02,1,,,,,タイヘイボウエキ,0
544,2290803004002,新規,0,2021-12-02,2021-12-02,合同会社たつのおとしご,,合同会社,福岡県,北九州市八幡西区,穴生２丁目１５番９６－４０１号,,40,109,8060049,,,,,,,2021-12-02,1,,,,,タツノオトシゴ,0
554,2330001029235,新規,0,2021-12-02,2021-12-02,株式会社園田製麺所,,株式会社,熊本県,熊本市東区,健軍３丁目３９番１５－４０３号,,43,102,8620911,,,,,,,2021-12-02,1,,,,,ソノダセイメンジョ,0
557,2330003009152,新規,0,2021-12-02,2021-12-02,キヨタマシン合同会社,,合同会社,熊本県,熊本市北区,楠野町５３８番地５,,43,105,8615511,,,,,,,2021-12-02,1,,,,,キヨタマシン,0
559,2340001024301,新規,0,2021-12-02,2021-12-02,松田テント株式会社,,株式会社,鹿児島県,鹿児島市,新栄町１２番１２号,,46,201,8900072,,,,,,,2021-12-02,1,,,,,マツダテント,0
562,2350001017436,新規,0,2021-12-02,2021-12-02,宮崎水処理システム株式会社,,株式会社,宮崎県,都城市,五十町１１１７番地８,,45,202,8850084,,,,,,,2021-12-02,1,,,,,ミヤザキミズショリシステム,0
567,2370005010393,新規,0,2021-12-02,2021-12-02,医療法人わたなべ整形外科,,その他の設立登記法人,宮城県,東松島市,赤井字南一２５３番地,,04,214,9810501,,,,,,,2021-12-02,1,,,,,ワタナベセイケイゲカ,0
575,2390001016698,新規,0,2021-12-02,2021-12-02,株式会社ＫＡＴＥＫＹＯ庄内,,株式会社,山形県,鶴岡市,泉町４番８号,,06,203,9970033,,,,,,,2021-12-02,1,,,,,カテキョーショウナイ,0
578,2400003002868,新規,0,2021-12-02,2021-12-02,合同会社食肉加工アップル,,合同会社,岩手県,盛岡市,青山２丁目１４番１０号,,03,201,0200133,,,,,,,2021-12-02,1,,,,,ショクニクカコウアップル,0
587,2410001013032,新規,0,2021-12-02,2021-12-02,株式会社クロタキ技建,,株式会社,秋田県,秋田市,外旭川字大谷地３番地１オフィス・Ｋ２０２号室,,05,201,0100802,,,,,,,2021-12-02,1,,,,,クロタキギケン,0
589,2410003003592,新規,0,2021-12-02,2021-12-02,合同会社ビューティナ,,合同会社,秋田県,秋田市,川尻御休町６番１４号,,05,201,0100943,,,,,,,2021-12-02,1,,,,,ビューティナ,0
593,2430001085474,新規,0,2021-12-02,2021-12-02,株式会社北海道型住宅研究所,,株式会社,北海道,札幌市西区,二十四軒四条５丁目９番６－１０２号,,01,107,0630804,,,,,,,2021-12-02,1,,,,,ホッカイドウガタジュウタクケンキュウショ,0
605,2462501000918,新規,0,2021-12-02,2021-12-02,株式会社ＯＳＡＫＡ　ＦＡＲＭＳ,,株式会社,北海道,標津郡中標津町,南中１７番地１７,,01,692,0861150,,,,,,,2021-12-02,1,,,,,オサカファーム,0
613,2700150061298,新規,0,2021-12-02,2015-10-09,エクレール桜町管理組合,,その他,長崎県,長崎市,金屋町９－９,,42,201,8500037,,,,,,,2015-10-09,1,,,,,エクレールサクラマチカンリクミアイ,0
620,3010001222894,新規,0,2021-12-02,2021-12-02,ＭＣ　ＨＯＵＳＥ　ＩＮＶＥＳＴＭＥＮＴ株式会社,,株式会社,東京都,千代田区,大手町１丁目４番２号,,13,101,1000004,,,,,,,2021-12-02,1,,,,,エムシーハウスインベストメント,0
621,3010001222928,新規,0,2021-12-02,2021-12-02,株式会社Ｅｖｅｒ　Ｗｉｎｇ,,株式会社,東京都,文京区,千石２丁目１６番１号,,13,105,1120011,,,,,,,2021-12-02,1,,,,,エバーウイング,0
625,3010003036442,新規,0,2021-12-02,2021-12-02,Ｍｉｃｒｏｂｉａｌ　Ｃｏｎｔｒｏｌ　Ｊａｐａｎ合同会社,,合同会社,東京都,千代田区,丸の内２丁目１番１号明治生命館７階ディーエルエイ・パイパー東京パートナーシップ外国法共同事業法律事務所内,,13,101,1000005,,,,,,,2021-12-02,1,,,,,マイクロビアルコントロールジャパン,0
639,3010401164126,新規,0,2021-12-02,2021-12-02,永青資訊日本株式会社,,株式会社,東京都,港区,三田１丁目２番１８号ＴＴＤビル,,13,103,1080073,,,,,,,2021-12-02,1,,,,,エイセイシシンニホン,0
640,3010401164159,新規,0,2021-12-02,2021-12-02,株式会社日本シノバイオロジカル,,株式会社,東京都,港区,赤坂２丁目２３番１号アークヒルズ・フロントタワーＩｎＣｏｎｔｒｏｌ内,,13,103,1070052,,,,,,,2021-12-02,1,,,,,ニホンシノバイオロジカル,0
653,3010701041850,新規,0,2021-12-02,2021-12-02,Ｈ．Ｇ．ｗｏｒｋｓ株式会社,,株式会社,東京都,品川区,西五反田１丁目２８番１号ハイラーク五反田４１０号室,,13,109,1410031,,,,,,,2021-12-02,1,,,,,エイチジーワークス,0
655,3010703006026,新規,0,2021-12-02,2021-12-02,合同会社エンジョイライフ,,合同会社,東京都,品川区,東五反田５丁目２０－１－２０２,,13,109,1410022,,,,,,,2021-12-02,1,,,,,エンジョイライフ,0
669,3011005009329,新規,0,2021-12-02,2021-12-02,特定目的会社ＳＨＴ天戸町,,その他の設立登記法人,東京都,目黒区,洗足２丁目１６番１９号,,13,110,1520012,,,,,,,2021-12-02,1,,,,,エスエイチティーアマドチョウ,0
675,3011103011236,新規,0,2021-12-02,2021-12-02,合同会社ｔｏｐｅｓ,,合同会社,東京都,新宿区,下落合２丁目２番２号高田馬場住宅１４０５,,13,104,1610033,,,,,,,2021-12-02,1,,,,,トペス,0
677,3011301027389,新規,0,2021-12-02,2021-12-02,株式会社ＭＡＥＤＡＹＡ,,株式会社,東京都,杉並区,阿佐谷北４丁目２４番１１－６０３号,,13,115,1660001,,,,,,,2021-12-02,1,,,,,マエダヤ,0
678,3011401023882,新規,0,2021-12-02,2021-12-02,Ｍｉａｏｍａｄａ株式会社,,株式会社,東京都,板橋区,蓮沼町８２番２号,,13,119,1740052,,,,,,,2021-12-02,1,,,,,ミアオマーダ,0
679,3011503004995,新規,0,2021-12-02,2021-12-02,合同会社サーチシステム,,合同会社,東京都,荒川区,東尾久５丁目２７番２－２０５号,,13,118,1160012,,,,,,,2021-12-02,1,,,,,サーチシステム,0
686,3011701024861,新規,0,2021-12-02,2021-12-02,株式会社シュッチョーＷｉｆｉ,,株式会社,東京都,江戸川区,西小岩１丁目１９番３３号吉田ビル２階,,13,123,1330057,,,,,,,2021-12-02,1,,,,,シュッチョーワイファイ,0
691,3011803004877,新規,0,2021-12-02,2021-12-02,合同会社ソラシド,,合同会社,東京都,足立区,西新井本町２丁目２６番２－１０６号,,13,121,1230845,,,,,,,2021-12-02,1,,,,,ソラシド,0
709,3021001074623,新規,0,2021-12-02,2021-12-02,株式会社蔵のカルビ,,株式会社,神奈川県,高座郡寒川町,宮山１２０番地５,,14,321,2530106,,,,,,,2021-12-02,1,,,,,クラノカルビ,0
710,3021001074631,新規,0,2021-12-02,2021-12-02,株式会社トラディショナルアート,,株式会社,神奈川県,茅ヶ崎市,赤松町１－１４ファミールＭ－Ｃ号室,,14,207,2530013,,,,,,,2021-12-02,1,,,,,トラディショナルアート,0
712,3021005012356,新規,0,2021-12-02,2021-12-02,一般社団法人Ｂｌｏｓｓｏｍ,,その他の設立登記法人,神奈川県,足柄下郡箱根町,仙石原１２４６番地の３４８,,14,382,2500631,,,,,,,2021-12-02,1,,,,,,0
720,3030001145623,新規,0,2021-12-02,2021-12-02,アイエス株式会社,,株式会社,埼玉県,越谷市,宮本町４丁目５７番地９,,11,222,3430806,,,,,,,2021-12-02,1,,,,,アイエス,0
721,3030001145672,新規,0,2021-12-02,2021-12-02,株式会社ディスク,,株式会社,埼玉県,北足立郡伊奈町,大字小室９９４９番地,,11,301,3620806,,,,,,,2021-12-02,1,,,,,ディスク,0
722,3030001145680,新規,0,2021-12-02,2021-12-02,株式会社東光エステート,,株式会社,埼玉県,さいたま市大宮区,堀の内町１丁目２５７番地,,11,103,3300804,,,,,,,2021-12-02,1,,,,,トウコウエステート,0
725,3030003018406,新規,0,2021-12-02,2021-12-02,合同会社マザーアース,,合同会社,埼玉県,鶴ヶ島市,大字三ツ木１１８－３１,,11,241,3502217,,,,,,,2021-12-02,1,,,,,マザーアース,0
728,3040001121193,新規,0,2021-12-02,2021-12-02,ＢＴＬコンサルティング株式会社,,株式会社,千葉県,市川市,香取１丁目３番１２号,,12,203,2720141,,,,,,,2021-12-02,1,,,,,ビーティーエルコンサルティング,0
732,3070001038699,新規,0,2021-12-02,2021-12-02,株式会社Ｐａｌｅｔｔｅ　Ｆｏｏｄｓ,,株式会社,群馬県,高崎市,倉賀野町２７８４番地,,10,202,3701201,,,,,,,2021-12-02,1,,,,,パレットフーズ,0
739,3080101022949,新規,0,2021-12-02,2021-12-02,株式会社ＡｐｐＢｕｉｌｄ,,株式会社,静岡県,富士宮市,人穴６９１番地の４,,22,207,4180102,,,,,,,2021-12-02,1,,,,,アップビルド,0
740,3080101022957,新規,0,2021-12-02,2021-12-02,株式会社ｇａｗａ　Ａｃｔｉｏｎ,,株式会社,静岡県,三島市,北田町１番１３号,,22,206,4110854,,,,,,,2021-12-02,1,,,,,ガワアクション,0
747,3100001034851,新規,0,2021-12-02,2021-12-02,スキーインハクバ株式会社,,株式会社,長野県,北安曇郡小谷村,大字千国字親ノ原乙１２８４０番地１,,20,486,3999422,,,,,,,2021-12-02,1,,,,,スキーインハクバ,0
748,3100003006304,新規,0,2021-12-02,2021-12-02,合同会社ＰｏｌａｒｉｓＡｃｔ,,合同会社,長野県,北安曇郡池田町,大字会染２９２２－１,,20,481,3998602,,,,,,,2021-12-02,1,,,,,ポラリスアクト,0
749,3110001036228,新規,0,2021-12-02,2021-12-02,株式会社ロックプライムシステム,,株式会社,新潟県,新潟市中央区,女池神明３丁目６番地１２,,15,103,9500943,,,,,,,2021-12-02,1,,,,,ロックプライムシステム,0
760,3120001242213,新規,0,2021-12-02,2021-12-02,株式会社ＯｆｆｉｃｅＯｎｅＰａｃｋ,,株式会社,大阪府,大阪市浪速区,桜川３丁目２番２－２０１号,,27,111,5560022,,,,,,,2021-12-02,1,,,,,オフィスワンパック,0
764,3120005022636,新規,0,2021-12-02,2021-12-02,一般社団法人医新会,,その他の設立登記法人,大阪府,大阪市港区,弁天１丁目２番２号６００大阪ベイタワーイースト６階,,27,107,5520007,,,,,,,2021-12-02,1,,,,,イシンカイ,0
775,3130001070638,新規,0,2021-12-02,2021-12-02,株式会社大杉組,,株式会社,京都府,京都市右京区,嵯峨野西ノ藤町８番地３２,,26,108,6168333,,,,,,,2021-12-02,1,,,,,オオスギグミ,0
782,3140001124038,新規,0,2021-12-02,2021-12-02,株式会社壱設備,,株式会社,兵庫県,川西市,東久代２丁目２番２号,,28,217,6660023,,,,,,,2021-12-02,1,,,,,イチセツビ,0
783,3140001124054,新規,0,2021-12-02,2021-12-02,未来消防設備株式会社,,株式会社,兵庫県,伊丹市,荒牧５丁目４番７号,,28,207,6640001,,,,,,,2021-12-02,1,,,,,ミライショウボウセツビ,0
784,3140001124062,新規,0,2021-12-02,2021-12-02,株式会社ＢＡＲＢＡ,,株式会社,兵庫県,姫路市,飾磨区城南町３丁目３番地２,,28,201,6728083,,,,,,,2021-12-02,1,,,,,バルバ,0
785,3140003017025,新規,0,2021-12-02,2021-12-02,合同会社リチャード・グリーン,,合同会社,兵庫県,西宮市,甲子園洲鳥町６－１１,,28,204,6638151,,,,,,,2021-12-02,1,,,,,リチャードグリーン,0
790,3160001023849,新規,0,2021-12-02,2021-12-02,株式会社ＲＡＳＫＧｅｍ,,株式会社,滋賀県,彦根市,南川瀬町８７８番地３,,25,202,5220222,,,,,,,2021-12-02,1,,,,,ラスクジェム,0
791,3160003002438,新規,0,2021-12-02,2021-12-02,Ｙ’ｓ　ｃｏｍｐａｎｙ合同会社,,合同会社,滋賀県,彦根市,彦富町１６７０番地,,25,202,5211114,,,,,,,2021-12-02,1,,,,,ワイズカンパニー,0
810,3180003023250,新規,0,2021-12-02,2021-12-02,合同会社Ａｂｅｌｉａ,,合同会社,愛知県,名古屋市中川区,江松５丁目１５３３番地,,23,110,4540954,,,,,,,2021-12-02,1,,,,,アベリア,0
813,3180301035682,新規,0,2021-12-02,2021-12-02,株式会社ピカイチ営繕工務店,,株式会社,愛知県,豊田市,御作町１６２番地,,23,211,4700424,,,,,,,2021-12-02,1,,,,,ピカイチエイゼンコウムテン,0
818,3200001039485,新規,0,2021-12-02,2021-12-02,株式会社Ａ’ｙ,,株式会社,岐阜県,本巣市,曽井中島９０２番地１,,21,218,5011205,,,,,,,2021-12-02,1,,,,,エイワイ,0
821,3220001024568,新規,0,2021-12-02,2021-12-02,株式会社Ｄａｙｓ,,株式会社,石川県,金沢市,上荒屋６丁目５４１番地（リビングタウンＣ棟・２０７号）,,17,201,9218065,,,,,,,2021-12-02,1,,,,,デイズ,0
822,3220001024576,新規,0,2021-12-02,2021-12-02,株式会社Ｙ・Ｋ興業,,株式会社,石川県,小松市,矢田野町ヌ５１番地１,,17,203,9230342,,,,,,,2021-12-02,1,,,,,ワイケイコウギョウ,0
828,3260005010998,新規,0,2021-12-02,2021-12-02,ネクサス協同組合,,その他の設立登記法人,岡山県,岡山市北区,下伊福本町１番４４号,,33,101,7000053,,,,,,,2021-12-02,1,,,,,ネクサス,0
832,3290001095594,新規,0,2021-12-02,2021-12-02,株式会社ＴｈｉＮＫ,,株式会社,福岡県,春日市,春日原南町１丁目２８番地１－３０１号,,40,218,8160803,,,,,,,2021-12-02,1,,,,,シンク,0
836,3320001018766,新規,0,2021-12-02,2021-12-02,樹工業株式会社,,株式会社,大分県,大分市,大字猪野１２６６番地の６,,44,201,8700134,,,,,,,2021-12-02,1,,,,,イツキコウギョウ,0
841,3340001024300,新規,0,2021-12-02,2021-12-02,Ａｌｙｓｃａｍｐｓ株式会社,,株式会社,鹿児島県,鹿児島市,山下町８－１－２Ｆ,,46,201,8920816,,,,,,,2021-12-02,1,,,,,アリスカン,0
850,3370003005502,新規,0,2021-12-02,2021-12-02,食品安全衛生合同会社,,合同会社,宮城県,仙台市太白区,太子堂１０番２４号,,04,104,9820013,,,,,,,2021-12-02,1,,,,,ショクヒンアンゼンエイセイ,0
851,3370005010392,新規,0,2021-12-02,2021-12-02,医療法人壮健会,,その他の設立登記法人,宮城県,仙台市若林区,荒井東１丁目３番地の１ＥａｓｔＦｏｒｔ２－Ｄ,,04,103,9840030,,,,,,,2021-12-02,1,,,,,ソウケンカイ,0
854,3400001015689,新規,0,2021-12-02,2021-12-02,エストメンテナンス株式会社,,株式会社,岩手県,盛岡市,加賀野２丁目８番１５号,,03,201,0200807,,,,,,,2021-12-02,1,,,,,エストメンテナンス,0
857,3400003002867,新規,0,2021-12-02,2021-12-02,合同会社クリエイト・オブ・フェルーカ,,合同会社,岩手県,盛岡市,西仙北１丁目３８番１０号,,03,201,0200864,,,,,,,2021-12-02,1,,,,,クリエイトオブフェルーカ,0
861,3410001013031,新規,0,2021-12-02,2021-12-02,山二アダモ株式会社,,株式会社,秋田県,大仙市,協和境字苅谷沢３０番地４２,,05,212,0192411,,,,,,,2021-12-02,1,,,,,ヤマニアダモ,0
868,3430001085473,新規,0,2021-12-02,2021-12-02,株式会社涼翔,,株式会社,北海道,札幌市白石区,菊水四条３丁目２番２５－９０３号,,01,104,0030804,,,,,,,2021-12-02,1,,,,,サヤト,0
874,3460301005021,新規,0,2021-12-02,2021-12-02,株式会社ＨＫ３,,株式会社,北海道,網走郡大空町,女満別湖南８０－５,,01,564,0992361,,,,,,,2021-12-02,1,,,,,エイチケイスリー,0
876,3462501000917,新規,0,2021-12-02,2021-12-02,Ｗｉｓｔｅｒｉａ　Ｆａｒｍ株式会社,,株式会社,北海道,標津郡中標津町,字俣落１５７５番地２,,01,692,0861273,,,,,,,2021-12-02,1,,,,,ウィステリアファーム,0
880,3470003002084,新規,0,2021-12-02,2021-12-02,四国情報通信システム合同会社,,合同会社,香川県,高松市,林町５７番地７プライムアセット宮西Ａ棟,,37,201,7610301,,,,,,,2021-12-02,1,,,,,シコクジョウホウツウシンシステム,0
895,4010001222927,新規,0,2021-12-02,2021-12-02,株式会社Ｈｉｇｈｌａｎｄ　Ｄｒａｇｏｎ,,株式会社,東京都,文京区,千石２丁目１６番１号,,13,105,1120011,,,,,,,2021-12-02,1,,,,,ハイランドドラゴン,0
896,4010001222943,新規,0,2021-12-02,2021-12-02,株式会社ＩＭテック,,株式会社,東京都,中央区,銀座１丁目２２番１１号銀座大竹ビジデンス２階,,13,102,1040061,,,,,,,2021-12-02,1,,,,,アイエムテック,0
898,4010003036474,新規,0,2021-12-02,2021-12-02,Ｋ＆Ｎ　ＭＡＮＡＧＥＭＥＮＴ合同会社,,合同会社,東京都,中央区,日本橋１丁目１８番１４号クローバー日本橋３０１,,13,102,1030027,,,,,,,2021-12-02,1,,,,,ケイアンドエヌマネージメント,0
910,4010501048161,新規,0,2021-12-02,2021-12-02,エンタミノウズ株式会社,,株式会社,東京都,台東区,台東１丁目５番２２－４０１号ディーアール秋葉原,,13,106,1100016,,,,,,,2021-12-02,1,,,,,エンタミノウズ,0
911,4010601060306,新規,0,2021-12-02,2021-12-02,株式会社ドリカム,,株式会社,東京都,墨田区,立花５丁目２８番３－１０３号,,13,107,1310043,,,,,,,2021-12-02,1,,,,,ドリカム,0
912,4010603009284,新規,0,2021-12-02,2021-12-02,ＴＨＡＮＨ　ＴＡＹ合同会社,,合同会社,東京都,墨田区,江東橋４丁目１３番１３－４０１号内木ビル,,13,107,1300022,,,,,,,2021-12-02,1,,,,,タインタイ,0
913,4010901049908,新規,0,2021-12-02,2021-12-02,株式会社ＭＫａｚｕ,,株式会社,東京都,世田谷区,上用賀３丁目１７－４－３,,13,112,1580098,,,,,,,2021-12-02,1,,,,,エムカズ,0
914,4010901049924,新規,0,2021-12-02,2021-12-02,株式会社Ｙｕｔｈ,,株式会社,東京都,世田谷区,弦巻２丁目５番１１号,,13,112,1540016,,,,,,,2021-12-02,1,,,,,ユース,0
918,4010903006972,新規,0,2021-12-02,2021-12-02,合同会社トリニティＸ,,合同会社,東京都,世田谷区,等々力１丁目３０番１１号自由が丘フラワーマンション２０５,,13,112,1580082,,,,,,,2021-12-02,1,,,,,,0
919,4010903006980,新規,0,2021-12-02,2021-12-02,合同会社アクシブ,,合同会社,東京都,世田谷区,奥沢７丁目１８－１,,13,112,1580083,,,,,,,2021-12-02,1,,,,,アクシブ,0
926,4011001144269,新規,0,2021-12-02,2021-12-02,株式会社１７１０１０,,株式会社,東京都,目黒区,上目黒４丁目１７－２４,,13,110,1530051,,,,,,,2021-12-02,1,,,,,イチナナイチゼロイチゼロ,0
930,4011003013760,新規,0,2021-12-02,2021-12-02,合同会社ＳＨＣ天戸台,,合同会社,東京都,目黒区,洗足２丁目１６番１９号,,13,110,1520012,,,,,,,2021-12-02,1,,,,,エスエイチシーアマドダイ,0
932,4011005009336,新規,0,2021-12-02,2021-12-02,一般社団法人知識創造プリンシプルコンソーシアム,,その他の設立登記法人,東京都,渋谷区,松濤１丁目９番８号小林マンション１０２,,13,113,1500046,,,,,,,2021-12-02,1,,,,,チシキソウゾウプリンシプルコンソーシアム,0
934,4011101097012,新規,0,2021-12-02,2021-12-02,株式会社Ｎａｍｉｈｏ,,株式会社,東京都,新宿区,榎町３４－３榎町ビル５Ｆ,,13,104,1620806,,,,,,,2021-12-02,1,,,,,ナミホ,0
935,4011101097111,新規,0,2021-12-02,2021-12-02,株式会社Ｓｕｉ,,株式会社,東京都,新宿区,西落合３丁目１５番１１号,,13,104,1610031,,,,,,,2021-12-02,1,,,,,スイ,0
937,4011103011219,新規,0,2021-12-02,2021-12-02,合同会社アネックスランド,,合同会社,東京都,新宿区,大久保１丁目１５番８号,,13,104,1690072,,,,,,,2021-12-02,1,,,,,アネックスランド,0
938,4011103011251,新規,0,2021-12-02,2021-12-02,合同会社ＳＲＣＧファイナンシャルアドバイザリーサービス,,合同会社,東京都,新宿区,西新宿６丁目１２番１号,,13,104,1600023,,,,,,,2021-12-02,1,,,,,エスアールシージーファイナンシャルアドバイザリーサービス,0
940,4011701024877,新規,0,2021-12-02,2021-12-02,株式会社鶴と亀,,株式会社,東京都,江戸川区,東小松川３丁目３７番１３号東和薬品ビル２階,,13,123,1320033,,,,,,,2021-12-02,1,,,,,ツルトカメ,0
941,4011703003012,新規,0,2021-12-02,2021-12-02,Ｂｕｓｉｎｅｓｓ　Ｂｒｉｄｇｅ合同会社,,合同会社,東京都,江戸川区,上一色３丁目１９－１５,,13,123,1330041,,,,,,,2021-12-02,1,,,,,ビジネスブリッジ,0
948,4012805003073,新規,0,2021-12-02,2021-12-02,国松司法書士法人,,その他の設立登記法人,東京都,国分寺市,南町３丁目２２番２号ゼルコバビル４階,,13,214,1850021,,,,,,,2021-12-02,1,,,,,クニマツ,0
968,4020001144071,新規,0,2021-12-02,2021-12-02,株式会社Ｒ－ｐｒｉｍｅ,,株式会社,神奈川県,横浜市都筑区,川向町１８１番地１ルーナ・ピエーナ１０２,,14,118,2240044,,,,,,,2021-12-02,1,,,,,アールプライム,0
969,4020001144138,新規,0,2021-12-02,2021-12-02,株式会社ＬＡＮ,,株式会社,神奈川県,横浜市青葉区,元石川町７５１３番地４－１０２号,,14,117,2250004,,,,,,,2021-12-02,1,,,,,ラン,0
970,4020001144146,新規,0,2021-12-02,2021-12-02,雲上のゆりかご株式会社,,株式会社,神奈川県,川崎市多摩区,菅６丁目１２－８－２,,14,135,2140001,,,,,,,2021-12-02,1,,,,,ウンジョウノユリカゴ,0
971,4020001144154,新規,0,2021-12-02,2021-12-02,株式会社ラキシス,,株式会社,神奈川県,川崎市川崎区,東田町４番地３ＳＳＢ川崎ビル７階７０１号室,,14,131,2100005,,,,,,,2021-12-02,1,,,,,ラキシス,0
974,4021001074630,新規,0,2021-12-02,2021-12-02,株式会社シャカリキ,,株式会社,神奈川県,平塚市,下島１６４番地,,14,203,2540003,,,,,,,2021-12-02,1,,,,,シャカリキ,0
981,4030001145671,新規,0,2021-12-02,2021-12-02,株式会社ＧＤ小野薬局,,株式会社,埼玉県,さいたま市浦和区,上木崎１丁目９番１５－１３０４号,,11,107,3300071,,,,,,,2021-12-02,1,,,,,ジーディーオノヤッキョク,0
982,4030001145696,新規,0,2021-12-02,2021-12-02,株式会社コンベンションアシスト,,株式会社,埼玉県,新座市,野火止７丁目８番３１号,,11,230,3520011,,,,,,,2021-12-02,1,,,,,コンベンションアシスト,0
997,4080001024607,新規,0,2021-12-02,2021-12-02,株式会社ＴＨＥ　ＭＡＸ,,株式会社,静岡県,島田市,野田９３５番地の１,,22,209,4270007,,,,,,,2021-12-02,1,,,,,ザマックス,0
998,4080001024615,新規,0,2021-12-02,2021-12-02,株式会社クラルテ,,株式会社,静岡県,静岡市葵区,春日２丁目２番１３号,,22,101,4200823,,,,,,,2021-12-02,1,,,,,クラルテ,0
999,4080003002692,新規,0,2021-12-02,2021-12-02,南杜合同会社,,合同会社,静岡県,静岡市清水区,殿沢１丁目１２－２７－２,,22,103,4240912,,,,,,,2021-12-02,1,,,,,ナント,0
1000,4080101022948,新規,0,2021-12-02,2021-12-02,株式会社プエンテ,,株式会社,静岡県,沼津市,大塚３４番地の１０,,22,203,4100306,,,,,,,2021-12-02,1,,,,,プエンテ,0
1002,4080105006195,新規,0,2021-12-02,2021-12-02,特定非営利活動法人ＥＫＣ,,その他の設立登記法人,静岡県,裾野市,富沢１３４番地の５,,22,220,4101125,,,,,,,2021-12-02,1,,,,,イーケーシー,0
1005,4100001034859,新規,0,2021-12-02,2021-12-02,株式会社ルサルカ,,株式会社,長野県,松本市,本庄２丁目３番２５号,,20,202,3900814,,,,,,,2021-12-02,1,,,,,ルサルカ,0
1007,4100003006303,新規,0,2021-12-02,2021-12-02,合同会社フォレスト・リミット,,合同会社,長野県,松本市,安曇１４８番地１,,20,202,3901520,,,,,,,2021-12-02,1,,,,,フォレストリミット,0
1016,4120001242113,新規,0,2021-12-02,2021-12-02,大阪観光事業株式会社,,株式会社,大阪府,大阪市生野区,東桃谷四丁目１４９番地,,27,116,5440000,,,,,,,2021-12-02,1,,,,,,0
1017,4120001242187,新規,0,2021-12-02,2021-12-02,株式会社東雲ボデー,,株式会社,大阪府,枚方市,大字尊延寺８９７番地の１,,27,210,5730112,,,,,,,2021-12-02,1,,,,,シノノメボデー,0
1018,4120001242220,新規,0,2021-12-02,2021-12-02,株式会社ｎｅｘｔ　ｒｕｌｅ,,株式会社,大阪府,大阪市西区,南堀江１丁目１６－１５,,27,106,5500015,,,,,,,2021-12-02,1,,,,,ネクストルール,0
1019,4120001242245,新規,0,2021-12-02,2021-12-02,株式会社エス・ディ・エス,,株式会社,大阪府,大阪市鶴見区,鶴見４丁目１３番３２号,,27,124,5380053,,,,,,,2021-12-02,1,,,,,エスディエス,0
1024,4120905006241,新規,0,2021-12-02,2021-12-02,一般社団法人パルフェイト,,その他の設立登記法人,大阪府,高槻市,大畑町３番２号３階,,27,207,5691144,,,,,,,2021-12-02,1,,,,,パルフェイト,0
1029,4130001070629,新規,0,2021-12-02,2021-12-02,株式会社祇園さゝ木,00125010,株式会社,京都府,京都市東山区,小松町５６６番地２７,,26,105,6050811,,,,,,,2021-12-02,1,,,,,ギオンササキ,0
1040,4140003017049,新規,0,2021-12-02,2021-12-02,播磨エステート合同会社,,合同会社,兵庫県,加古川市,平岡町山之上５４２番地の１,,28,210,6750112,,,,,,,2021-12-02,1,,,,,ハリマエステート,0
1043,4150001025135,新規,0,2021-12-02,2021-12-02,株式会社アミー,,株式会社,奈良県,橿原市,地黄町１７９番地の７,,29,205,6340805,,,,,,,2021-12-02,1,,,,,アミー,0
1045,4170001016883,新規,0,2021-12-02,2021-12-02,株式会社ｒｙｕｋｅｎ,,株式会社,和歌山県,和歌山市,岩橋１６７７番地４,,30,201,6408301,,,,,,,2021-12-02,1,,,,,リュウケン,0
1049,4180001148932,新規,0,2021-12-02,2021-12-02,株式会社アマサクラトレーディング,,株式会社,愛知県,あま市,東溝口５丁目９３番地,,23,237,4901206,,,,,,,2021-12-02,1,,,,,アマサクラトレーディング,0
1050,4180001148965,新規,0,2021-12-02,2021-12-02,株式会社金村商店,,株式会社,愛知県,名古屋市港区,稲永２丁目５番７号,,23,111,4550842,,,,,,,2021-12-02,1,,,,,カネムラショウテン,0
1054,4180301035698,新規,0,2021-12-02,2021-12-02,シールドラボ株式会社,,株式会社,愛知県,岡崎市,大樹寺１丁目３番地１２,,23,202,4442134,,,,,,,2021-12-02,1,,,,,シールドラボ,0
1056,4190003003837,新規,0,2021-12-02,2021-12-02,合同会社スマイルフォレスト,,合同会社,三重県,鈴鹿市,中冨田町６１番地１,,24,207,5130009,,,,,,,2021-12-02,1,,,,,スマイルフォレスト,0
1057,4200001039476,新規,0,2021-12-02,2021-12-02,天狗堂株式会社,,株式会社,岐阜県,本巣郡北方町,天狗堂１丁目２１番地,,21,421,5010433,,,,,,,2021-12-02,1,,,,,テングドウ,0
1058,4200001039484,新規,0,2021-12-02,2021-12-02,大洋ワークス株式会社,,株式会社,岐阜県,岐阜市,則武１５３番地１０,,21,201,5020931,,,,,,,2021-12-02,1,,,,,タイヨウワークス,0
1067,4220001024567,新規,0,2021-12-02,2021-12-02,株式会社アメニモ,,株式会社,石川県,金沢市,本町２丁目６番２号,,17,201,9200853,,,,,,,2021-12-02,1,,,,,アメニモ,0
1072,4230001019120,新規,0,2021-12-02,2021-12-02,株式会社フロンティア１０００,,株式会社,富山県,富山市,下冨居２丁目１１番２６号,,16,201,9300814,,,,,,,2021-12-02,1,,,,,フロンティアセン,0
1073,4240001058992,新規,0,2021-12-02,2021-12-02,株式会社ＨＦＧ不動産,,株式会社,広島県,安芸郡府中町,桃山２丁目７番５号,,34,302,7350026,,,,,,,2021-12-02,1,,,,,エイチエフジーフドウサン,0
1080,4260001036261,新規,0,2021-12-02,2021-12-02,株式会社岡山プラステン,,株式会社,岡山県,岡山市北区,野田２丁目１１‐１,,33,101,7000971,,,,,,,2021-12-02,1,,,,,,0
1090,4290001095585,新規,0,2021-12-02,2021-12-02,ＫＩＫＯＵ商事株式会社,,株式会社,福岡県,福岡市東区,多の津１丁目１６番４号,,40,131,8130034,,,,,,,2021-12-02,1,,,,,キコウショウジ,0
1091,4290001095593,新規,0,2021-12-02,2021-12-02,株式会社００１,,株式会社,福岡県,福岡市博多区,博多駅前３丁目７番３５号博多ハイテックビル５０５,,40,132,8120011,,,,,,,2021-12-02,1,,,,,ゼロゼロワン,0
1092,4290001095602,新規,0,2021-12-02,2021-12-02,株式会社１６,,株式会社,福岡県,宗像市,須恵４丁目１８番１２号,,40,220,8113405,,,,,,,2021-12-02,1,,,,,ジュウロク,0
1093,4290001095610,新規,0,2021-12-02,2021-12-02,株式会社マリクルーズ,,株式会社,福岡県,春日市,白水池１丁目１１６番地,,40,218,8160848,,,,,,,2021-12-02,1,,,,,マリクルーズ,0
1094,4290001095627,新規,0,2021-12-02,2021-12-02,株式会社ルナクリーン,,株式会社,福岡県,太宰府市,吉松３丁目１１番３０号,,40,221,8180138,,,,,,,2021-12-02,1,,,,,ルナクリーン,0
1102,4290803004000,新規,0,2021-12-02,2021-12-02,合同会社ＳＯＲ,,合同会社,福岡県,北九州市小倉南区,守恒本町２丁目３番１５号,,40,107,8020971,,,,,,,2021-12-02,1,,,,,エスオーアール,0
1103,4300005007048,新規,0,2021-12-02,2021-12-02,ＮＰＯ法人ひのき,,その他の設立登記法人,佐賀県,佐賀市,新中町２０８番地１,,41,201,8490924,,,,,,,2021-12-02,1,,,,,ヒノキ,0
1106,4320001018765,新規,0,2021-12-02,2021-12-02,株式会社コムズ,,株式会社,大分県,大分市,仲西町１丁目３番１６号,,44,201,8700135,,,,,,,2021-12-02,1,,,,,コムズ,0
1112,4320005009950,新規,0,2021-12-02,2021-12-02,医療法人アトリエ,,その他の設立登記法人,大分県,大分市,下郡北３丁目４３４番地２,,44,201,8700952,,,,,,,2021-12-02,1,,,,,アトリエ,0
1117,4340001024299,新規,0,2021-12-02,2021-12-02,株式会社大建,,株式会社,鹿児島県,大島郡与論町,大字茶花８５番地,,46,535,8919301,,,,,,,2021-12-02,1,,,,,ダイケン,0
1124,4360001029701,新規,0,2021-12-02,2021-12-02,株式会社Ｄ－ＡＣＨＵＬＡ,,株式会社,沖縄県,沖縄市,高原７丁目３６－６イーストウインド高原２０１,,47,211,9042171,,,,,,,2021-12-02,1,,,,,ダチュラ,0
1127,4360003011599,新規,0,2021-12-02,2021-12-02,合同会社セレブオフィスサービス,,合同会社,沖縄県,那覇市,字宇栄原１０１９番地１,,47,201,9010153,,,,,,,2021-12-02,1,,,,,セレブオフィスサービス,0
1128,4360003011608,新規,0,2021-12-02,2021-12-02,合同会社すまいる３６５,,合同会社,沖縄県,浦添市,宮城２丁目１７番３号,,47,208,9012126,,,,,,,2021-12-02,1,,,,,スマイルサンロクゴ,0
1129,4370001047891,新規,0,2021-12-02,2021-12-02,輝隆株式会社,,株式会社,宮城県,仙台市宮城野区,岩切１丁目６番２０号,,04,102,9830821,,,,,,,2021-12-02,1,,,,,テルタカ,0
1133,4390001016696,新規,0,2021-12-02,2021-12-02,株式会社フォーチュンドリーム,,株式会社,山形県,上山市,栄町２丁目３番１２号,,06,207,9993132,,,,,,,2021-12-02,1,,,,,フォーチュンドリーム,0
1137,4400003002866,新規,0,2021-12-02,2021-12-02,合同会社風林,,合同会社,岩手県,下閉伊郡田野畑村,七滝２３４番地２,,03,484,0288406,,,,,,,2021-12-02,1,,,,,フウリン,0
1144,4430001085489,新規,0,2021-12-02,2021-12-02,ＧＳＯホールディングス株式会社,,株式会社,北海道,札幌市中央区,南二条西１０丁目１０００番地７二条パークビル５階,,01,101,0600062,,,,,,,2021-12-02,1,,,,,ジーエスオーホールディングス,0
1150,4450001013547,新規,0,2021-12-02,2021-12-02,株式会社菊地組,,株式会社,北海道,旭川市,豊岡八条１丁目２番２号,,01,204,0788238,,,,,,,2021-12-02,1,,,,,キクチグミ,0
1153,4462501000916,新規,0,2021-12-02,2021-12-02,株式会社Ｎ＆Ｆ,,株式会社,北海道,標津郡中標津町,字協和４４２８番地３,,01,692,0861136,,,,,,,2021-12-02,1,,,,,エヌアンドエフ,0
1154,4470001018858,新規,0,2021-12-02,2021-12-02,オージーエーファシリティーズ株式会社,,株式会社,香川県,高松市,高松町１７１７番地７,,37,201,7610104,,,,,,,2021-12-02,1,,,,,オージーエーファシリティーズ,0
1159,4500001023846,新規,0,2021-12-02,2021-12-02,株式会社すえひろ,,株式会社,愛媛県,松山市,湯渡町５番２３号－８０１号,,38,201,7900862,,,,,,,2021-12-02,1,,,,,スエヒロ,0
1172,5010001222926,新規,0,2021-12-02,2021-12-02,株式会社マイルデザイン,,株式会社,東京都,文京区,水道１丁目１２番１号,,13,105,1120005,,,,,,,2021-12-02,1,,,,,マイルデザイン,0
1173,5010003036457,新規,0,2021-12-02,2021-12-02,合同会社フォレストＥ,,合同会社,東京都,千代田区,大手町１丁目１番２号,,13,101,1000004,,,,,,,2021-12-02,1,,,,,フォレストイー,0
1176,5010005034277,新規,0,2021-12-02,2021-12-02,一般社団法人日本潜水艇協会,,その他の設立登記法人,東京都,千代田区,九段南１丁目５－６りそな九段ビル５Ｆ・ＫＳフロア,,13,101,1020074,,,,,,,2021-12-02,1,,,,,ニホンセンスイテイキョウカイ,0
1184,5010401164124,新規,0,2021-12-02,2021-12-02,フュージョン・ヘルス・テクノロジー・ソリューションズ・ジャパン株式会社,,株式会社,東京都,港区,六本木３丁目６番９号小見山公認会計士事務所内,,13,103,1060032,,,,,,,2021-12-02,1,,,,,フュージョンヘルステクノロジーソリューションズジャパン,0
1189,5010501048160,新規,0,2021-12-02,2021-12-02,マルケー企画株式会社,,株式会社,東京都,台東区,松が谷２丁目１番１号,,13,106,1110036,,,,,,,2021-12-02,1,,,,,マルケーキカク,0
1190,5010501048169,新規,0,2021-12-02,2021-12-02,サカバヤシカグ株式会社,,株式会社,東京都,台東区,台東２丁目２７番３号ＮＳＫビル１０Ｆ,,13,106,1100016,,,,,,,2021-12-02,1,,,,,サカバヤシカグ,0
1196,5010603009275,新規,0,2021-12-02,2021-12-02,ＳＫＧ舒閣寓合同会社,,合同会社,東京都,江東区,東陽１丁目１７番１０号,,13,108,1350016,,,,,,,2021-12-02,1,,,,,エスケージーショカクゴ,0
1197,5010603009283,新規,0,2021-12-02,2021-12-02,合同会社ＳＵＺＩ,,合同会社,東京都,墨田区,江東橋３丁目３－４江東橋スクエアビル３Ｆ,,13,107,1300022,,,,,,,2021-12-02,1,,,,,スジ,0
1200,5010901049907,新規,0,2021-12-02,2021-12-02,株式会社ショウハウス,,株式会社,東京都,世田谷区,玉川３丁目３９番３０号,,13,112,1580094,,,,,,,2021-12-02,1,,,,,ショウハウス,0
1208,5011001143947,新規,0,2021-12-02,2021-12-02,株式会社Ｍｅｄｉａ－Ｘ,,株式会社,東京都,渋谷区,恵比寿西１丁目２６番１１号内木ビル２０１,,13,113,1500021,,,,,,,2021-12-02,1,,,,,メディアックス,0
1209,5011001144136,新規,0,2021-12-02,2021-12-02,株式会社カルチャーＧ,,株式会社,東京都,渋谷区,神宮前６丁目２３番４号桑野ビル２階,,13,113,1500001,,,,,,,2021-12-02,1,,,,,カルチャージー,0
1210,5011001144284,新規,0,2021-12-02,2021-12-02,株式会社Ｍｅｓｈ,,株式会社,東京都,渋谷区,円山町２８－１道玄坂スカイビル１１Ｆ,,13,113,1500044,,,,,,,2021-12-02,1,,,,,メッシュ,0
1211,5011001144318,新規,0,2021-12-02,2021-12-02,株式会社レンズ交換ドットコム,,株式会社,東京都,渋谷区,神泉町１番１３－１０２号ＰＲＯＴＯＳｈｉｂｕｙａｓｈｉｎｓｅｎＩ,00125009,13,113,1500045,,,,,,,2021-12-02,1,,,,,レンズコウカンドットコム,0
1214,5011003013801,新規,0,2021-12-02,2021-12-02,合同会社ＲｅＣｏＨａｃｋ,,合同会社,東京都,渋谷区,渋谷２丁目１９－１５宮益坂ビルディング６０９,,13,113,1500002,,,,,,,2021-12-02,1,,,,,リコハック,0
1219,5011101097077,新規,0,2021-12-02,2021-12-02,株式会社Ｆｕｌｌ　Ｓｐｉｃａ,,株式会社,東京都,新宿区,歌舞伎町２丁目４２番１３号,,13,104,1600021,,,,,,,2021-12-02,1,,,,,フルスピカ,0
1220,5011101097085,新規,0,2021-12-02,2021-12-02,Ｅｕｒｏｆｉｎｓ　Ｃｌｉｎｉｃａｌ　Ｔｅｓｔｉｎｇ　Ｊａｐａｎ　Ｈｏｌｄｉｎｇ株式会社,,株式会社,東京都,新宿区,余丁町１０番１０号新宿余丁町ビル４階,,13,104,1620055,,,,,,,2021-12-02,1,,,,,ユーロフィンクリニカルテスティングジャパンホールディング,0
1221,5011101097110,新規,0,2021-12-02,2021-12-02,株式会社ビリーフ,,株式会社,東京都,新宿区,新宿７丁目２番２－２１５号,,13,104,1600022,,,,,,,2021-12-02,1,,,,,ビリーフ,0
1222,5011103011218,新規,0,2021-12-02,2021-12-02,合同会社グリーンスマイル,,合同会社,東京都,新宿区,西新宿３丁目３番１３号西新宿水間ビル６Ｆ,,13,104,1600023,,,,,,,2021-12-02,1,,,,,グリーンスマイル,0
1223,5011103011234,新規,0,2021-12-02,2021-12-02,合同会社ＮＥサービス,,合同会社,東京都,新宿区,百人町２丁目２４番２２号,,13,104,1690073,,,,,,,2021-12-02,1,,,,,エヌイーサービス,0
1227,5011401023880,新規,0,2021-12-02,2021-12-02,株式会社Ｒｏｙａｌ　Ｓｔａｒ,,株式会社,東京都,板橋区,弥生町３５番１号東園ビル１Ｆ,,13,119,1730021,,,,,,,2021-12-02,1,,,,,ロイヤルスター,0
1233,5012401038596,新規,0,2021-12-02,2021-12-02,株式会社ＮｏＳ,,株式会社,東京都,調布市,入間町３丁目１４－４,,13,208,1820004,,,,,,,2021-12-02,1,,,,,エヌオーエス,0
1234,5012703002358,新規,0,2021-12-02,2021-12-02,て屋合同会社,,合同会社,東京都,小平市,上水南町２丁目４番１２号,,13,211,1870021,,,,,,,2021-12-02,1,,,,,テヤ,0
1247,5020001144137,新規,0,2021-12-02,2021-12-02,ｆａｔａ株式会社,,株式会社,神奈川県,横浜市都筑区,仲町台１丁目２２番１８号プロミネンス２０２,,14,118,2240041,,,,,,,2021-12-02,1,,,,,ファータ,0
1248,5020001144153,新規,0,2021-12-02,2021-12-02,株式会社掃除の助八八八,,株式会社,神奈川県,川崎市麻生区,王禅寺東３丁目３番１０－５０４号たまプラーザ西パークホームズ,,14,137,2150018,,,,,,,2021-12-02,1,,,,,ソウジノスケパパパ,0
1249,5020001144161,新規,0,2021-12-02,2021-12-02,Ｙ’ｓインベストメント株式会社,,株式会社,神奈川県,川崎市麻生区,はるひ野３丁目１４－１４,,14,137,2150036,,,,,,,2021-12-02,1,,,,,ワイズインベストメント,0
1254,5021001074596,新規,0,2021-12-02,2021-12-02,株式会社森田工業,,株式会社,神奈川県,藤沢市,西富２丁目１８番６号,,14,205,2510001,,,,,,,2021-12-02,1,,,,,モリタコウギョウ,0
1262,5030001145621,新規,0,2021-12-02,2021-12-02,株式会社ヤマザキロジスティクス,,株式会社,埼玉県,朝霞市,栄町２丁目１０番４５－７１５号,,11,227,3510012,,,,,,,2021-12-02,1,,,,,ヤマザキロジスティクス,0
1263,5030001145654,新規,0,2021-12-02,2021-12-02,株式会社いけ一家,,株式会社,埼玉県,飯能市,大字岩沢６０２番地１,,11,209,3570023,,,,,,,2021-12-02,1,,,,,イケイチヤ,0
1268,5040001121191,新規,0,2021-12-02,2021-12-02,株式会社ティーライズコーポレーション,,株式会社,千葉県,富津市,関尻３９０番地３,,12,226,2991752,,,,,,,2021-12-02,1,,,,,ティーライズコーポレーション,0
1269,5040001121217,新規,0,2021-12-02,2021-12-02,ビジネスＦＯＸ株式会社,,株式会社,千葉県,千葉市緑区,高田町１０５９番地１,,12,105,2660003,,,,,,,2021-12-02,1,,,,,ビジネスホックス,0
1274,5040003018997,新規,0,2021-12-02,2021-12-02,合同会社ＲＥＴＯＸ,,合同会社,千葉県,柏市,若柴１７８番地４柏の葉キャンパス１４８街区２ショップ＆オフィス棟６Ｆ,,12,217,2770871,,,,,,,2021-12-02,1,,,,,リトックス,0
1276,5050003006233,新規,0,2021-12-02,2021-12-02,合同会社サンクエール,,合同会社,茨城県,水戸市,元吉田町１１４３－３１－４０３号,,08,201,3100836,,,,,,,2021-12-02,1,,,,,サンクエール,0
1287,5080001024606,新規,0,2021-12-02,2021-12-02,株式会社匠,,株式会社,静岡県,藤枝市,末広４丁目１番地の１７,,22,214,4260065,,,,,,,2021-12-02,1,,,,,タクミ,0
1289,5080003002691,新規,0,2021-12-02,2021-12-02,合同会社ＭＩＲＩＳＥ　ＣＵＡＴＲＯ,,合同会社,静岡県,静岡市駿河区,下川原６丁目２５番５号,,22,102,4210113,,,,,,,2021-12-02,1,,,,,ミライズクアトロ,0
1292,5100001034858,新規,0,2021-12-02,2021-12-02,株式会社龍口商事,,株式会社,長野県,松本市,本庄２丁目３番２５号,,20,202,3900814,,,,,,,2021-12-02,1,,,,,タツグチショウジ,0
1293,5100003006302,新規,0,2021-12-02,2021-12-02,合同会社Ｈｏｕｓｅ　Ｍａｒｋｅｔ,,合同会社,長野県,上田市,天神３丁目２７番１６号,,20,203,3860025,,,,,,,2021-12-02,1,,,,,ハウスマーケット,0
1294,5110003004635,新規,0,2021-12-02,2021-12-02,合同会社五十嵐総業,,合同会社,新潟県,新潟市西区,寺尾前通１丁目７番地１０－１０１号,,15,107,9502053,,,,,,,2021-12-02,1,,,,,イカラシソウギョウ,0
1306,5120001242104,新規,0,2021-12-02,2021-12-02,株式会社融信,,株式会社,大阪府,大阪市淀川区,西宮原２丁目６－１６新大阪コーポビアネーズ１１３８号室,,27,123,5320004,,,,,,,2021-12-02,1,,,,,ユウシン,0
1307,5120001242178,新規,0,2021-12-02,2021-12-02,ＮＡＮＩＭＯＮＯ株式会社,,株式会社,大阪府,大阪市西区,阿波座１丁目１４番１５号三和ビル阿波座２３号室,,27,106,5500011,,,,,,,2021-12-02,1,,,,,ナニモノ,0
1308,5120001242203,新規,0,2021-12-02,2021-12-02,アスベスト調査分析機構株式会社,,株式会社,大阪府,大阪市中央区,東高麗橋４番３号ＴＫＧビル３０１号,,27,128,5400039,,,,,,,2021-12-02,1,,,,,アスベストチョウサブンセキキコウ,0
1309,5120001242211,新規,0,2021-12-02,2021-12-02,株式会社ＫＡＥＲＵＶＡ,,株式会社,大阪府,大阪市北区,梅田１丁目１番３号大阪駅前第３ビル２９階１－１－１号室,,27,127,5300001,,,,,,,2021-12-02,1,,,,,カエルバ,0
1317,5122001035405,新規,0,2021-12-02,2021-12-02,サワダ商建株式会社,,株式会社,大阪府,四條畷市,清滝中町２３番２６号,,27,229,5750061,,,,,,,2021-12-02,1,,,,,サワダショウケン,0
1320,5130001070628,新規,0,2021-12-02,2021-12-02,株式会社レブラ,,株式会社,京都府,京都市上京区,六軒町通一条上る若松町３５６番地１３,,26,102,6028331,,,,,,,2021-12-02,1,,,,,レブラ,0
1326,5140001124052,新規,0,2021-12-02,2021-12-02,株式会社ＭＡＲＯＩ,,株式会社,兵庫県,神戸市中央区,磯辺通４丁目２番８号田嶋ビル８階Ａ,,28,110,6510084,,,,,,,2021-12-02,1,,,,,マロイ,0
1327,5140001124077,新規,0,2021-12-02,2021-12-02,漢和縁株式会社,,株式会社,兵庫県,神戸市中央区,港島中町３丁目２番地の６エバーグリーンポートアイランド１号棟１１０７号,,28,110,6500046,,,,,,,2021-12-02,1,,,,,カンワエン,0
1339,5180001148964,新規,0,2021-12-02,2021-12-02,株式会社愛技建,,株式会社,愛知県,北名古屋市,宇福寺天神２８９番地,,23,234,4810035,,,,,,,2021-12-02,1,,,,,アイギケン,0
1340,5180001149021,新規,0,2021-12-02,2021-12-02,ｕｎ　ｌｉｅｎ株式会社,,株式会社,愛知県,常滑市,阿野町６丁目２０番地の１,,23,216,4790814,,,,,,,2021-12-02,1,,,,,アンリアン,0
1348,5180301035680,新規,0,2021-12-02,2021-12-02,株式会社宇頭建築,,株式会社,愛知県,岡崎市,宇頭町字山ノ神４５番地１,,23,202,4440905,,,,,,,2021-12-02,1,,,,,ウトウケンチク,0
1350,5180303005186,新規,0,2021-12-02,2021-12-02,合同会社ＥＭＵ,,合同会社,愛知県,豊橋市,松葉町２丁目３２番地ＬａＬａ松葉ビル１Ｆ,,23,201,4400897,,,,,,,2021-12-02,1,,,,,イーエムユー,0
1369,5260001036277,新規,0,2021-12-02,2021-12-02,株式会社ＢＩＺ,,株式会社,岡山県,赤磐市,西中１１６９番地,,33,213,7090835,,,,,,,2021-12-02,1,,,,,ビズ,0
1375,5290001095601,新規,0,2021-12-02,2021-12-02,株式会社徳卯,,株式会社,福岡県,久留米市,東町２５番２４号,,40,203,8300032,,,,,,,2021-12-02,1,,,,,トクウサギ,0
1376,5290001095626,新規,0,2021-12-02,2021-12-02,株式会社ここに,,株式会社,福岡県,福岡市西区,今宿１丁目２４番９号,,40,135,8190167,,,,,,,2021-12-02,1,,,,,ココニ,0
1382,5290003011878,新規,0,2021-12-02,2021-12-02,合同会社ＡＴＧ,,合同会社,福岡県,福岡市博多区,金の隈３丁目２－３－６０５,,40,132,8120863,,,,,,,2021-12-02,1,,,,,エーティージー,0
1385,5320001018764,新規,0,2021-12-02,2021-12-02,株式会社ナコラボ,,株式会社,大分県,大分市,城崎町１丁目５－６甲斐歯科ビル３階,,44,201,8700045,,,,,,,2021-12-02,1,,,,,ナコラボ,0
1398,5350001017441,新規,0,2021-12-02,2021-12-02,株式会社アトリエ・リエゾン・ジー,,株式会社,宮崎県,北諸県郡三股町,大字樺山１９８５番地,,45,341,8891901,,,,,,,2021-12-02,1,,,,,アトリエリエゾンジー,0
1400,5360003011607,新規,0,2021-12-02,2021-12-02,合同会社国吉設計,,合同会社,沖縄県,名護市,字宮里４５３番地７,,47,209,9050011,,,,,,,2021-12-02,1,,,,,クニヨシセッケイ,0
1401,5360003011615,新規,0,2021-12-02,2021-12-02,ＯＳＹ合同会社,,合同会社,沖縄県,中頭郡中城村,字南上原１０８５番地１サンクレスト南上原８０１号,,47,328,9012424,,,,,,,2021-12-02,1,,,,,オーエスワイ,0
1403,5380001032371,新規,0,2021-12-02,2021-12-02,株式会社ｉｌｉｏｎ,,株式会社,福島県,郡山市,堤下町１０番１２号,,07,203,9638878,,,,,,,2021-12-02,1,,,,,イリオン,0
1405,5390001016695,新規,0,2021-12-02,2021-12-02,株式会社庄司工務店,,株式会社,山形県,鶴岡市,槙代甲８０番地,,06,203,9970000,,,,,,,2021-12-02,1,,,,,ショウジコウムテン,0
1413,5420001017665,新規,0,2021-12-02,2021-12-02,株式会社たまゆら,,株式会社,青森県,三沢市,松園町３丁目９番１号,,02,207,0330037,,,,,,,2021-12-02,1,,,,,タマユラ,0
1418,5430001085471,新規,0,2021-12-02,2021-12-02,株式会社ブレイン,,株式会社,北海道,札幌市中央区,大通西１５丁目２－１,,01,101,0600042,,,,,,,2021-12-02,1,,,,,ブレイン,0
1420,5430003013414,新規,0,2021-12-02,2021-12-02,合同会社巖,,合同会社,北海道,札幌市厚別区,厚別東五条３丁目２４番地９７,,01,108,0040005,,,,,,,2021-12-02,1,,,,,イワオ,0
1425,5460001005633,新規,0,2021-12-02,2021-12-02,株式会社アンエルム,,株式会社,北海道,釧路市,芦野２丁目１３番１７号,00125011,01,206,0850061,,,,,,,2021-12-02,1,,,,,アンエルム,0
1427,5470005006395,新規,0,2021-12-02,2021-12-02,一般社団法人木桶仕込み醤油輸出促進コンソーシアム,,その他の設立登記法人,香川県,小豆郡小豆島町,安田甲１６０７番地,,37,324,7614411,,,,,,,2021-12-02,1,,,,,キオケジコミショウユユシュツソクシンコンソーシアム,0
1431,5490003001603,新規,0,2021-12-02,2021-12-02,合同会社ＨＦＳ,,合同会社,高知県,高知市,梅ノ辻１５－１１,,39,201,7808011,,,,,,,2021-12-02,1,,,,,ハフス,0
1434,5500001023837,新規,0,2021-12-02,2021-12-02,株式会社レイズ,,株式会社,愛媛県,今治市,常盤町５丁目１１番２号,,38,202,7940015,,,,,,,2021-12-02,1,,,,,レイズ,0
1449,6010001222818,新規,0,2021-12-02,2021-12-02,株式会社麗莉コーポレーション,,株式会社,東京都,中央区,銀座３丁目７番１３号成田屋ビル４階,,13,102,1040061,,,,,,,2021-12-02,1,,,,,リリコーポレーション,0
1453,6010003036456,新規,0,2021-12-02,2021-12-02,合同会社フォレストＳ,,合同会社,東京都,千代田区,大手町１丁目１番２号,,13,101,1000004,,,,,,,2021-12-02,1,,,,,フォレストエス,0
1485,6010901049906,新規,0,2021-12-02,2021-12-02,クラリス・フラワーデザイン株式会社,,株式会社,東京都,世田谷区,桜丘４丁目２３番１６号,,13,112,1560054,,,,,,,2021-12-02,1,,,,,クラリスフラワーデザイン,0
1488,6011001144267,新規,0,2021-12-02,2021-12-02,株式会社Ｍａｍ４４,,株式会社,東京都,渋谷区,神宮前３丁目３７番１－９１２号,,13,113,1500001,,,,,,,2021-12-02,1,,,,,マムヨンジュウヨン,0
1490,6011005009326,新規,0,2021-12-02,2021-12-02,一般社団法人皇の学び舎,,その他の設立登記法人,東京都,目黒区,鷹番３丁目２３番５号,,13,110,1520004,,,,,,,2021-12-02,1,,,,,スメラノマナビヤ,0
1495,6011101097076,新規,0,2021-12-02,2021-12-02,株式会社ＨＵＨ,,株式会社,東京都,新宿区,大久保３丁目１０番１号,,13,104,1690072,,,,,,,2021-12-02,1,,,,,エイチユーエイチ,0
1496,6011101097084,新規,0,2021-12-02,2021-12-02,株式会社プラムワークス,,株式会社,東京都,新宿区,河田町３番５４－６０７号,,13,104,1620054,,,,,,,2021-12-02,1,,,,,プラムワークス,0
1501,6011303004235,新規,0,2021-12-02,2021-12-02,合同会社昭和管理,,合同会社,東京都,杉並区,西荻北１丁目８－２７、１０１号,,13,115,1670042,,,,,,,2021-12-02,1,,,,,ショウワカンリ,0
1508,6011701024875,新規,0,2021-12-02,2021-12-02,株式会社ナチュリティ,,株式会社,東京都,江戸川区,瑞江２丁目２５番４号倉持ビル１０１号,,13,123,1320011,,,,,,,2021-12-02,1,,,,,ナチュリティ,0
1509,6011701024883,新規,0,2021-12-02,2021-12-02,株式会社トイ,,株式会社,東京都,江戸川区,北小岩２丁目２１－１２,,13,123,1330051,,,,,,,2021-12-02,1,,,,,トイ,0
1510,6011703003010,新規,0,2021-12-02,2021-12-02,合同会社アシスト,,合同会社,東京都,江戸川区,東葛西８丁目３２番２１号,,13,123,1340084,,,,,,,2021-12-02,1,,,,,,0
1512,6012405004676,新規,0,2021-12-02,2021-12-02,一般社団法人心ケア東京,,その他の設立登記法人,東京都,三鷹市,井口３丁目１６番１１号キューブクワトロ２０１,,13,204,1810011,,,,,,,2021-12-02,1,,,,,ココロケアトウキョウ,0
1541,6021003011142,新規,0,2021-12-02,2021-12-02,ＵＫ合同会社,,合同会社,神奈川県,藤沢市,辻堂東海岸４丁目１番１～２０２号,,14,205,2510045,,,,,,,2021-12-02,1,,,,,ユーケー,0
1546,6030001145653,新規,0,2021-12-02,2021-12-02,彩鴉株式会社,,株式会社,埼玉県,さいたま市西区,大字指扇４７７番地４,,11,101,3310047,,,,,,,2021-12-02,1,,,,,サイア,0
1547,6030001145661,新規,0,2021-12-02,2021-12-02,株式会社水口,,株式会社,埼玉県,草加市,新善町１７９番地３,,11,221,3400054,,,,,,,2021-12-02,1,,,,,ミズグチ,0
1548,6030001145678,新規,0,2021-12-02,2021-12-02,百成商事株式会社,,株式会社,埼玉県,蕨市,中央１丁目３番４号,,11,223,3350004,,,,,,,2021-12-02,1,,,,,ヒャクセイショウジ,0
1564,6080003002690,新規,0,2021-12-02,2021-12-02,ルクレクサ合同会社,,合同会社,静岡県,静岡市駿河区,丸子２丁目６番６号,,22,102,4210103,,,,,,,2021-12-02,1,,,,,ルクレクサ,0
1574,6120001242193,新規,0,2021-12-02,2021-12-02,株式会社ＡＭＣ,,株式会社,大阪府,大阪市中央区,東心斎橋１丁目４番１１号大和ビル８号館１０５号室,,27,128,5420083,,,,,,,2021-12-02,1,,,,,エーエムシー,0
1575,6120001242243,新規,0,2021-12-02,2021-12-02,株式会社クロステート,,株式会社,大阪府,大阪市東淀川区,菅原４丁目４番４０号,,27,114,5330022,,,,,,,2021-12-02,1,,,,,クロステート,0
1579,6120901045290,新規,0,2021-12-02,2021-12-02,株式会社ＪＯＩＮ,,株式会社,大阪府,吹田市,清水９番１－２０５号,,27,205,5650805,,,,,,,2021-12-02,1,,,,,ジョイン,0
1581,6130001070627,新規,0,2021-12-02,2021-12-02,ＲＫ株式会社,,株式会社,京都府,京都市右京区,山ノ内荒木町１５番地３９,,26,108,6150073,,,,,,,2021-12-02,1,,,,,アールケー,0
1582,6130001070635,新規,0,2021-12-02,2021-12-02,大善サービス株式会社,,株式会社,京都府,京都市中京区,両替町通二条上る北小路町１０４番地４,,26,104,6040856,,,,,,,2021-12-02,1,,,,,ダイゼンサービス,0
1586,6140001059339,新規,0,2021-12-02,2021-12-02,株式会社新日本興産,,株式会社,兵庫県,姫路市,辻井４丁目９番１０号,00124991,28,201,6700083,,,,,,,2021-12-02,1,,,,,シンニホンコウサン,0
1587,6140001124068,新規,0,2021-12-02,2021-12-02,シャインメディカル株式会社,,株式会社,兵庫県,神戸市垂水区,福田３丁目３番１７号,,28,108,6550013,,,,,,,2021-12-02,1,,,,,シャインメディカル,0
1588,6140001124076,新規,0,2021-12-02,2021-12-02,株式会社ステイゴールド,,株式会社,兵庫県,三木市,志染町青山５丁目２０番地の１２,,28,215,6730521,,,,,,,2021-12-02,1,,,,,ステイゴールド,0
1606,6180001148947,新規,0,2021-12-02,2021-12-02,相馬建設株式会社,,株式会社,愛知県,名古屋市北区,楠２丁目２２０番地第２楠タウンハウスＡ－１号,,23,103,4620012,,,,,,,2021-12-02,1,,,,,ソウマケンセツ,0
1616,6180303005185,新規,0,2021-12-02,2021-12-02,合同会社りあん,,合同会社,愛知県,額田郡幸田町,大字深溝字出口３１番地,,23,501,4440124,,,,,,,2021-12-02,1,,,,,リアン,0
1618,6190001028891,新規,0,2021-12-02,2021-12-02,アールサポート株式会社,,株式会社,三重県,桑名市,星見ヶ丘５丁目８１９番地１,,24,205,5110912,,,,,,,2021-12-02,1,,,,,アールサポート,0
1625,6200001039474,新規,0,2021-12-02,2021-12-02,株式会社ＰＳＩ,,株式会社,岐阜県,羽島市,竹鼻町錦町３番地,,21,209,5016242,,,,,,,2021-12-02,1,,,,,ピーエスアイ,0
1626,6200001039482,新規,0,2021-12-02,2021-12-02,オガワＲ＆Ｓ株式会社,,株式会社,岐阜県,岐阜市,大菅北１３番１６号,,21,201,5010118,,,,,,,2021-12-02,1,,,,,オガワ,0
1627,6200005002189,新規,0,2021-12-02,2021-12-02,東海信用組合,,その他の設立登記法人,岐阜県,岐阜市,薮田南１丁目７番１６号,,21,201,5008384,,,,,,,2021-12-02,1,,,,,トウカイ,0
1630,6210001018717,新規,0,2021-12-02,2021-12-02,株式会社ウロール,,株式会社,福井県,越前市,広瀬町第１９３号７３番地,,18,209,9150872,,,,,,,2021-12-02,1,,,,,ウロール,0
1634,6220003003162,新規,0,2021-12-02,2021-12-02,エアル合同会社,,合同会社,石川県,金沢市,大桑町平１５０番地２,,17,201,9218046,,,,,,,2021-12-02,1,,,,,エアル,0
1640,6250005008710,新規,0,2021-12-02,2021-12-02,特定非営利活動法人親子ステーションあんころもち,,その他の設立登記法人,山口県,宇部市,新天町１丁目２－３６,,35,202,7550029,,,,,,,2021-12-02,1,,,,,オヤコステーションアンコロモチ,0
1642,6260001036276,新規,0,2021-12-02,2021-12-02,和泉興業株式会社,,株式会社,岡山県,笠岡市,茂平１８１３番地９,,33,205,7140062,,,,,,,2021-12-02,1,,,,,イズミコウギョウ,0
1648,6290001095600,新規,0,2021-12-02,2021-12-02,株式会社リアン,,株式会社,福岡県,福岡市南区,寺塚２丁目１番２１号,,40,134,8150074,,,,,,,2021-12-02,1,,,,,リアン,0
1658,6290801028040,新規,0,2021-12-02,2021-12-02,ＳＳ開発株式会社,,株式会社,福岡県,北九州市小倉北区,宇佐町１丁目１－５,,40,106,8020016,,,,,,,2021-12-02,1,,,,,エスエスカイハツ,0
1661,6300001012727,新規,0,2021-12-02,2021-12-02,株式会社あやとり,,株式会社,佐賀県,佐賀市,赤松町３番１２号,,41,201,8400042,,,,,,,2021-12-02,1,,,,,アヤトリ,0
1662,6310001017618,新規,0,2021-12-02,2021-12-02,株式会社ＤＸコネクト長崎,,株式会社,長崎県,諫早市,幸町３２番８号,,42,204,8540022,,,,,,,2021-12-02,1,,,,,ディーエックスコネクトナガサキ,0
1669,6320001018763,新規,0,2021-12-02,2021-12-02,株式会社功建,,株式会社,大分県,大分市,松が丘２丁目２５番１３号,,44,201,8701168,,,,,,,2021-12-02,1,,,,,コウケン,0
1674,6340001024306,新規,0,2021-12-02,2021-12-02,株式会社大創建装,,株式会社,鹿児島県,鹿児島市,東俣町３９１９番地５８,,46,201,8911102,,,,,,,2021-12-02,1,,,,,ダイソウケンソウ,0
1676,6350001017440,新規,0,2021-12-02,2021-12-02,株式会社Ａｃｔｉｖａｔｉｏｎ,,株式会社,宮崎県,宮崎市,橘通西３丁目２－１０二幸ビル４階,,45,201,8800001,,,,,,,2021-12-02,1,,,,,アクティベーション,0
1677,6350003003983,新規,0,2021-12-02,2021-12-02,合同会社アバッグワークス,,合同会社,宮崎県,宮崎市,佐土原町石崎２丁目５番地４,,45,201,8800213,,,,,,,2021-12-02,1,,,,,アバッグワークス,0
1685,6380001032370,新規,0,2021-12-02,2021-12-02,株式会社ＡＩＢＥ,,株式会社,福島県,郡山市,堤下町１０番１２号,,07,203,9638878,,,,,,,2021-12-02,1,,,,,アイベ,0
1687,6390001016694,新規,0,2021-12-02,2021-12-02,岩井プラテックス株式会社,,株式会社,山形県,山形市,馬見ケ崎４丁目１１番２３号,,06,201,9900810,,,,,,,2021-12-02,1,,,,,イワイプラテックス,0
1699,6430001085504,新規,0,2021-12-02,2021-12-02,株式会社藤裕事務所,,株式会社,北海道,札幌市厚別区,もみじ台北２丁目５番１１号,,01,108,0040014,,,,,,,2021-12-02,1,,,,,フジヒロジムショ,0
1702,6450001013545,新規,0,2021-12-02,2021-12-02,株式会社グローアップ,,株式会社,北海道,旭川市,神居二条１丁目１番２号,,01,204,0708012,,,,,,,2021-12-02,1,,,,,グローアップ,0
1703,6460001005632,新規,0,2021-12-02,2021-12-02,株式会社ＡＺカンパニー,,株式会社,北海道,釧路市,豊川町２０番１４号,,01,206,0850053,,,,,,,2021-12-02,1,,,,,エーゼットカンパニー,0
1704,6460301005019,新規,0,2021-12-02,2021-12-02,株式会社ののファーム,,株式会社,北海道,北見市,端野町忠志２２９番地７,,01,208,0992105,,,,,,,2021-12-02,1,,,,,ノノファーム,0
1709,6480001011562,新規,0,2021-12-02,2021-12-02,株式会社みき,,株式会社,徳島県,徳島市,中徳島町１丁目３８番地,,36,201,7700853,,,,,,,2021-12-02,1,,,,,ミキ,0
1727,7010003036455,新規,0,2021-12-02,2021-12-02,スタンレーパートナーズ合同会社,,合同会社,東京都,中央区,銀座１丁目２２－１１,,13,102,1040061,,,,,,,2021-12-02,1,,,,,スタンレーパートナーズ,0
1728,7010003036463,新規,0,2021-12-02,2021-12-02,イーレックスＨＴ合同会社,,合同会社,東京都,中央区,京橋２丁目２番１号,,13,102,1040031,,,,,,,2021-12-02,1,,,,,イーレックスエイチティー,0
1738,7010401164171,新規,0,2021-12-02,2021-12-02,株式会社Ｃ２ＤＲＥＡＭ,,株式会社,東京都,港区,赤坂６丁目４番２０号,,13,103,1070052,,,,,,,2021-12-02,1,,,,,シートゥドリーム,0
1741,7010403026626,新規,0,2021-12-02,2021-12-02,ライスブレイン合同会社,,合同会社,東京都,港区,西新橋１丁目２０番３号虎ノ門法曹ビル６０１号室,,13,103,1050003,,,,,,,2021-12-02,1,,,,,ライスブレイン,0
1747,7010601060311,新規,0,2021-12-02,2021-12-02,フォービスライフ株式会社,,株式会社,東京都,江東区,亀戸６丁目２５番１号,,13,108,1360071,,,,,,,2021-12-02,1,,,,,フォービスライフ,0
1751,7010805002902,新規,0,2021-12-02,2021-12-02,一般社団法人日本飢餓問題食品ロス問題解決フォーラム,,その他の設立登記法人,東京都,大田区,東六郷３丁目１２番８号,,13,111,1440046,,,,,,,2021-12-02,1,,,,,ニホンキガモンダイショクヒンロスモンダイカイケツフォーラム,0
1756,7010901049896,新規,0,2021-12-02,2021-12-02,大手町管財株式会社,,株式会社,東京都,世田谷区,深沢２丁目１８番６号,,13,112,1580081,,,,,,,2021-12-02,1,,,,,オオテマチカンザイ,0
1759,7011001144308,新規,0,2021-12-02,2021-12-02,株式会社ｄｅｕｘ　ｍ,,株式会社,東京都,渋谷区,神宮前６丁目８番１０号,,13,113,1500001,,,,,,,2021-12-02,1,,,,,ドゥエム,0
1776,7011701024882,新規,0,2021-12-02,2021-12-02,株式会社ＳＴＨ,,株式会社,東京都,江戸川区,東瑞江３丁目４２番１０号,,13,123,1320014,,,,,,,2021-12-02,1,,,,,,0
1784,7013101008788,新規,0,2021-12-02,2021-12-02,株式会社ＫＣＬ,,株式会社,東京都,あきる野市,雨間２５４番地６センターヴィレッジ２０５,,13,228,1970825,,,,,,,2021-12-02,1,,,,,ケイシーエル,0
1793,7020001144135,新規,0,2021-12-02,2021-12-02,株式会社ＡＲＡＮ,,株式会社,神奈川県,川崎市川崎区,小川町１２番地５,,14,131,2100023,,,,,,,2021-12-02,1,,,,,アラン,0
1808,7030001145446,新規,0,2021-12-02,2021-12-02,株式会社ワイズホーム,,株式会社,埼玉県,越谷市,東大沢２丁目２５番１号Ｙ‘Ｓビル３Ｆ,,11,222,3430022,,,,,,,2021-12-02,1,,,,,ワイズホーム,0
1809,7030001145660,新規,0,2021-12-02,2021-12-02,株式会社原田,,株式会社,埼玉県,草加市,新善町１７９番地３,,11,221,3400054,,,,,,,2021-12-02,1,,,,,ハラダ,0
1810,7030001145669,新規,0,2021-12-02,2021-12-02,株式会社ヒヅキ,,株式会社,埼玉県,越谷市,大成町２丁目１８２番地１,,11,222,3430825,,,,,,,2021-12-02,1,,,,,ヒヅキ,0
1812,7030003018377,新規,0,2021-12-02,2021-12-02,合同会社シフォンケーキの店よつば,,合同会社,埼玉県,越谷市,宮本町２丁目１８５番地３３,,11,222,3430806,,,,,,,2021-12-02,1,,,,,シフォンケーキノミセヨツバ,0
1826,7070001038704,新規,0,2021-12-02,2021-12-02,株式会社ノーブル・ワン,,株式会社,群馬県,沼田市,材木町３０８番地,,10,206,3780045,,,,,,,2021-12-02,1,,,,,ノーブルワン,0
1831,7080101022945,新規,0,2021-12-02,2021-12-02,株式会社ＳＥＥＤ,,株式会社,静岡県,富士市,中島５２１番地,,22,210,4160907,,,,,,,2021-12-02,1,,,,,シード,0
1832,7080103002474,新規,0,2021-12-02,2021-12-02,東静ＡＶＳテック合同会社,,合同会社,静岡県,三島市,南田町９番１２号エンゼルハイム南田町４０５,,22,206,4110837,,,,,,,2021-12-02,1,,,,,トウセイエーブイエステック,0
1854,7120001242151,新規,0,2021-12-02,2021-12-02,禾沐株式会社,,株式会社,大阪府,大阪市城東区,中浜１丁目１７－１４ルネッサンスシャレード３Ｈ,,27,118,5360024,,,,,,,2021-12-02,1,,,,,カモク,0
1855,7120001242192,新規,0,2021-12-02,2021-12-02,株式会社ＢＡＢＹ　ＯＷＬ,,株式会社,大阪府,大阪市浪速区,桜川４丁目１２番２８号,,27,111,5560022,,,,,,,2021-12-02,1,,,,,ベイビーオウル,0
1860,7120003020638,新規,0,2021-12-02,2021-12-02,合同会社ＬＵＸＥ,,合同会社,大阪府,大阪市中央区,南船場１丁目１１－２２－１００１,,27,128,5420081,,,,,,,2021-12-02,1,,,,,リュクス,0
1861,7120003020695,新規,0,2021-12-02,2021-12-02,合同会社おまつ,,合同会社,大阪府,大阪市淀川区,十三東３丁目２８番１８号ラルテ,,27,123,5320023,,,,,,,2021-12-02,1,,,,,オマツ,0
1864,7120005022640,新規,0,2021-12-02,2021-12-02,大阪淀屋橋弁護士法人,,その他の設立登記法人,大阪府,大阪市西区,江戸堀１丁目９番１号肥後橋センタービル１７階,,27,106,5500002,,,,,,,2021-12-02,1,,,,,オオサカヨドヤバシ,0
1869,7122003002228,新規,0,2021-12-02,2021-12-02,曼荼羅産業合同会社,,合同会社,大阪府,東大阪市,高井田西３丁目６番７号,,27,227,5770067,,,,,,,2021-12-02,1,,,,,マンダラサンギョウ,0
1872,7130001070634,新規,0,2021-12-02,2021-12-02,株式会社ｕｔｕ,,株式会社,京都府,京都市中京区,壬生馬場町８－８－３０５,,26,104,6048805,,,,,,,2021-12-02,1,,,,,ウトゥ,0
1879,7140001124042,新規,0,2021-12-02,2021-12-02,株式会社Ｂｒｉｌｌｉｓｔ,,株式会社,兵庫県,神戸市中央区,布引町２丁目１番４－４０２号,,28,110,6510097,,,,,,,2021-12-02,1,,,,,ブリリスト,0
1880,7140001124050,新規,0,2021-12-02,2021-12-02,魚時々株式会社,,株式会社,兵庫県,神戸市中央区,下山手通１丁目１番６号２階,,28,110,6500011,,,,,,,2021-12-02,1,,,,,サカナトキドキ,0
1881,7140001124059,新規,0,2021-12-02,2021-12-02,ＨＴＷ株式会社,,株式会社,兵庫県,姫路市,久保町５３,,28,201,6700916,,,,,,,2021-12-02,1,,,,,エイチティーダブリュー,0
1892,7170001016880,新規,0,2021-12-02,2021-12-02,株式会社橋下工務店,,株式会社,和歌山県,有田郡有田川町,大字粟生２１４番地２,,30,366,6430366,,,,,,,2021-12-02,1,,,,,ハシモトコウムテン,0
1899,7180001148946,新規,0,2021-12-02,2021-12-02,株式会社Ａｌｅ,,株式会社,愛知県,知多市,八幡字小根１５番地の１,,23,224,4780001,,,,,,,2021-12-02,1,,,,,エール,0
1900,7180001148954,新規,0,2021-12-02,2021-12-02,株式会社ＯＮＥ　ＰＩＥＣＥ　ＬＡＢＯ,,株式会社,愛知県,名古屋市中区,栄２丁目７番１３号,,23,106,4600008,,,,,,,2021-12-02,1,,,,,ワンピースラボ,0
1905,7180301035679,新規,0,2021-12-02,2021-12-02,株式会社丸石防技,,株式会社,愛知県,豊田市,小坂本町５丁目８番地２藤ビル３０１号,,23,211,4710034,,,,,,,2021-12-02,1,,,,,マルイシボウギ,0
1910,7190001028890,新規,0,2021-12-02,2021-12-02,株式会社Ｎ．Ｓ．Ｄ,,株式会社,三重県,三重郡菰野町,大羽根園松ケ枝町１２番地６,,24,341,5101245,,,,,,,2021-12-02,1,,,,,エヌエスディー,0
1914,7200001039473,新規,0,2021-12-02,2021-12-02,キキョウファーマシーグループ株式会社,,株式会社,岐阜県,可児市,大森１５０１番地６５１３,,21,214,5090238,,,,,,,2021-12-02,1,,,,,キキョウファーマシーグループ,0
1933,7260001036259,新規,0,2021-12-02,2021-12-02,株式会社ソーシャルカルミー,,株式会社,岡山県,倉敷市,大島２４８番地５,,33,202,7100047,,,,,,,2021-12-02,1,,,,,ソーシャルカルミー,0
1934,7260001036275,新規,0,2021-12-02,2021-12-02,株式会社プラスＶ,,株式会社,岡山県,岡山市北区,問屋町９番地１０１,,33,101,7000977,,,,,,,2021-12-02,1,,,,,プラスブイ,0
1941,7290001095590,新規,0,2021-12-02,2021-12-02,株式会社ＡＬＵ,,株式会社,福岡県,福岡市城南区,田島３丁目２２番１号,,40,136,8140113,,,,,,,2021-12-02,1,,,,,アル,0
1943,7290003011892,新規,0,2021-12-02,2021-12-02,合同会社イトシィ,,合同会社,福岡県,糸島市,前原西４丁目１－１１,,40,230,8191117,,,,,,,2021-12-02,1,,,,,イトシィ,0
1952,7310001017609,新規,0,2021-12-02,2021-12-02,株式会社蒲公英,,株式会社,長崎県,長崎市,出島町２番１８号末広ビル１０１,,42,201,8500862,,,,,,,2021-12-02,1,,,,,タンポポ,0
1956,7310003004225,新規,0,2021-12-02,2021-12-02,合同会社ナカヤ,,合同会社,長崎県,長崎市,清水町８番２号,,42,201,8528041,,,,,,,2021-12-02,1,,,,,ナカヤ,0
1958,7320005009948,新規,0,2021-12-02,2021-12-02,医療法人小原歯科医院,,その他の設立登記法人,大分県,由布市,挾間町挾間３５６－１,,44,213,8795506,,,,,,,2021-12-02,1,,,,,オハラシカイイン,0
1960,7330001029247,新規,0,2021-12-02,2021-12-02,やつだ農園株式会社,,株式会社,熊本県,上益城郡甲佐町,大字下横田５５番地,,43,444,8614621,,,,,,,2021-12-02,1,,,,,ヤツダノウエン,0
1961,7340001024313,新規,0,2021-12-02,2021-12-02,株式会社裕基,,株式会社,鹿児島県,鹿児島市,田上台４丁目１８番８号,,46,201,8900036,,,,,,,2021-12-02,1,,,,,ユウキ,0
1967,7350005006034,新規,0,2021-12-02,2021-12-02,特定非営利活動法人サブライムミュージック,,その他の設立登記法人,宮崎県,宮崎市,阿波岐原町前浜４２７６番地７９０,,45,201,8800835,,,,,,,2021-12-02,1,,,,,サブライムミュージック,0
1970,7360003011605,新規,0,2021-12-02,2021-12-02,合同会社リソース,,合同会社,沖縄県,那覇市,与儀１丁目２３－１８・２Ｆ,,47,201,9020076,,,,,,,2021-12-02,1,,,,,リソース,0
1971,7360003011613,新規,0,2021-12-02,2021-12-02,合同会社総建アシスト,,合同会社,沖縄県,那覇市,字国場９０番地,,47,201,9020075,,,,,,,2021-12-02,1,,,,,ソウケンアシスト,0
1973,7370001047906,新規,0,2021-12-02,2021-12-02,株式会社ＮＩＸ,,株式会社,宮城県,亘理郡亘理町,逢隈牛袋字西河原３６－８,00125017,04,361,9892302,,,,,,,2021-12-02,1,,,,,ニクス,0
1980,7430001085478,新規,0,2021-12-02,2021-12-02,株式会社Ｆ－Ｌｉｎｅｓ,,株式会社,北海道,江別市,新栄台２０番地の２２,,01,217,0690806,,,,,,,2021-12-02,1,,,,,エフラインズ,0
1982,7430003013412,新規,0,2021-12-02,2021-12-02,合同会社エスコエステート,,合同会社,北海道,札幌市北区,新川四条１７丁目６番４号,,01,102,0010924,,,,,,,2021-12-02,1,,,,,エスコエステート,0
1984,7460001005631,新規,0,2021-12-02,2021-12-02,ＨＹＡ株式会社,,株式会社,北海道,釧路市,愛国東２丁目２２番２１号,,01,206,0850058,,,,,,,2021-12-02,1,,,,,エイチワイエー,0
1987,7470001018855,新規,0,2021-12-02,2021-12-02,株式会社Ｄ’ｓ　Ｐｒｅｓｅｎｔｓ,,株式会社,香川県,高松市,伏石町２０８４番地９本台ビル１階,,37,201,7618071,,,,,,,2021-12-02,1,,,,,ディーズプレゼンツ,0
1992,7490001010042,新規,0,2021-12-02,2021-12-02,株式会社テクノクライム,,株式会社,高知県,南国市,岡豊町中島８５１番地３,,39,204,7830049,,,,,,,2021-12-02,1,,,,,テクノクライム,0
2001,8010001222915,新規,0,2021-12-02,2021-12-02,株式会社ＳＡＫＳＩＡ,,株式会社,東京都,中央区,日本橋２丁目１番１７号丹生ビル２階,,13,102,1030027,,,,,,,2021-12-02,1,,,,,サクシア,0
2002,8010003036438,新規,0,2021-12-02,2021-12-02,合同会社ＳＯＩ,,合同会社,東京都,中央区,日本橋本町４丁目３番２号プラウドフラット三越前９０４,,13,102,1030023,,,,,,,2021-12-02,1,,,,,エスオーイー,0
2003,8010003036446,新規,0,2021-12-02,2021-12-02,合同会社ラ・テール,,合同会社,東京都,千代田区,九段南１丁目５番６号りそな九段ビル５階ＫＳフロア,,13,101,1020074,,,,,,,2021-12-02,1,,,,,ラテール,0
2013,8010401164006,新規,0,2021-12-02,2021-12-02,ｍｏｎｄａｙ．ｃｏｍ株式会社,,株式会社,東京都,港区,赤坂２丁目１１番７号ＡＴＴ新館１１階ＭａｚａｒｓＪａｐａｎ株式会社内,,13,103,1070052,,,,,,,2021-12-02,1,,,,,マンデードットコム,0
2014,8010401164030,新規,0,2021-12-02,2021-12-02,ミネルバ・グロース・パートナーズ株式会社,,株式会社,東京都,港区,赤坂１丁目１４番５号,,13,103,1070052,,,,,,,2021-12-02,1,,,,,ミネルバグロースパートナーズ,0
2015,8010401164204,新規,0,2021-12-02,2021-12-02,株式会社ＧａｍｅＷｉｔｈ　Ｃｏｎｔｅｎｔｓ　Ｓｔｕｄｉｏ,,株式会社,東京都,港区,三田１丁目４番１号,,13,103,1080073,,,,,,,2021-12-02,1,,,,,ゲームウィズコンテンツスタジオ,0
2022,8010601060319,新規,0,2021-12-02,2021-12-02,株式会社コレガーレ,,株式会社,東京都,江東区,豊洲６丁目５番１号,,13,108,1350061,,,,,,,2021-12-02,1,,,,,コレガーレ,0
2028,8010901049904,新規,0,2021-12-02,2021-12-02,株式会社ＳＩＬＶＥＲ　ＬＩＧＨＴ,,株式会社,東京都,世田谷区,上馬１丁目４番２号,,13,112,1540011,,,,,,,2021-12-02,1,,,,,シルバーライト,0
2031,8011001144257,新規,0,2021-12-02,2021-12-02,株式会社ＦｕｎＭｅｅｔｓ,,株式会社,東京都,渋谷区,円山町１５番８号ミディアス渋谷ＷＥＳＴ５０４,,13,113,1500044,,,,,,,2021-12-02,1,,,,,ファンミーツ,0
2033,8011005009290,新規,0,2021-12-02,2021-12-02,ＮＰＯ法人Ｄｒｅａｍ　Ａｃｔｕａｌｌｙ,,その他の設立登記法人,東京都,目黒区,八雲２丁目２１番１４号ＴｈｅＳｅｖｅｎ２０１,,13,110,1520023,,,,,,,2021-12-02,1,,,,,ドリームアクチュアリー,0
2035,8011105010066,新規,0,2021-12-02,2021-12-02,一般社団法人東京空き家相談協会,,その他の設立登記法人,東京都,新宿区,西新宿６丁目１２番４号コイトビル７階,,13,104,1600023,,,,,,,2021-12-02,1,,,,,トウキョウアキヤソウダンキョウカイ,0
2064,8020001144134,新規,0,2021-12-02,2021-12-02,株式会社スマートバディ,,株式会社,神奈川県,横浜市都筑区,葛が谷７番１１４号エステスクエアふれあいの丘,,14,118,2240062,,,,,,,2021-12-02,1,,,,,スマートバディ,0
2065,8020001144167,新規,0,2021-12-02,2021-12-02,株式会社Ｍａｊｅｓｔｉｃ,,株式会社,神奈川県,横浜市神奈川区,三枚町１６４番地１ライオンズマンション新横浜Ａ館１０５号,,14,102,2210862,,,,,,,2021-12-02,1,,,,,マジェスティック,0
2069,8020003020903,新規,0,2021-12-02,2021-12-02,ラッキー・セブンエイト合同会社,,合同会社,神奈川県,横浜市都筑区,中川３丁目２４番２１号,,14,118,2240001,,,,,,,2021-12-02,1,,,,,ラッキーセブンエイト,0
2076,8030001145619,新規,0,2021-12-02,2021-12-02,株式会社ＳＴＭ,,株式会社,埼玉県,川口市,仲町１５番２８号,,11,203,3320022,,,,,,,2021-12-02,1,,,,,エスティーエム,0
2077,8030001145627,新規,0,2021-12-02,2021-12-02,三興半田鏝株式会社,,株式会社,埼玉県,比企郡川島町,大字戸守字仙元北７０４番地４,,11,346,3500166,,,,,,,2021-12-02,1,,,,,サンコウハンダコテ,0
2078,8030001145684,新規,0,2021-12-02,2021-12-02,株式会社ｎｏａ,,株式会社,埼玉県,さいたま市見沼区,東大宮５丁目６番地１７ボーラ東大宮１Ｆ,,11,104,3370051,,,,,,,2021-12-02,1,,,,,ノア,0
2092,8040001121189,新規,0,2021-12-02,2021-12-02,株式会社マックスライド,,株式会社,千葉県,船橋市,前原東６丁目３３番１０号,,12,204,2740824,,,,,,,2021-12-02,1,,,,,マックスライド,0
2093,8040001121206,新規,0,2021-12-02,2021-12-02,かしわ中央不動産株式会社,,株式会社,千葉県,柏市,中央町６番３号,,12,217,2770021,,,,,,,2021-12-02,1,,,,,カシワチュウオウフドウサン,0
2113,8080003002689,新規,0,2021-12-02,2021-12-02,ソレイユエステート合同会社,,合同会社,静岡県,静岡市駿河区,中田本町３９番１８号,,22,102,4228043,,,,,,,2021-12-02,1,,,,,ソレイユエステート,0
2122,8090001017300,新規,0,2021-12-02,2021-12-02,株式会社リベロム,,株式会社,山梨県,富士吉田市,松山１６０３番地７,,19,202,4030016,,,,,,,2021-12-02,1,,,,,リベロム,0
2132,8120001242159,新規,0,2021-12-02,2021-12-02,株式会社Ｒｏｏｔｓ,,株式会社,大阪府,大阪市中央区,南船場１丁目１０番１２号,,27,128,5420081,,,,,,,2021-12-02,1,,,,,ルーツ,0
2133,8120001242191,新規,0,2021-12-02,2021-12-02,信和コミュニティ株式会社,,株式会社,大阪府,大阪市北区,中津６丁目１１番３号,,27,127,5310071,,,,,,,2021-12-02,1,,,,,シンワコミュニティ,0
2137,8120003020694,新規,0,2021-12-02,2021-12-02,合同会社ＪＩＮ,,合同会社,大阪府,大阪市平野区,長吉出戸４丁目４番１５号メゾン風雅２０１号,,27,126,5470011,,,,,,,2021-12-02,1,,,,,ジン,0
2147,8120103004457,新規,0,2021-12-02,2021-12-02,合同会社スエロ,,合同会社,大阪府,堺市南区,原山台１丁１４番８－４号,,27,145,5900132,,,,,,,2021-12-02,1,,,,,スエロ,0
2151,8122003002227,新規,0,2021-12-02,2021-12-02,合同会社Ｈ＆Ｔ,,合同会社,大阪府,八尾市,天王寺屋３丁目２７,,27,212,5810025,,,,,,,2021-12-02,1,,,,,エイチアンドティー,0
2157,8140001124025,新規,0,2021-12-02,2021-12-02,株式会社ＲＯＤ,,株式会社,兵庫県,神戸市灘区,赤松町１丁目１－４２,,28,102,6570061,,,,,,,2021-12-02,1,,,,,アールオーディ,0
2158,8140001124041,新規,0,2021-12-02,2021-12-02,エーテルネット株式会社,,株式会社,兵庫県,神戸市北区,鹿の子台北町７丁目２３－１,,28,109,6511513,,,,,,,2021-12-02,1,,,,,エーテルネット,0
2161,8140003017053,新規,0,2021-12-02,2021-12-02,合同会社アイアンクラブ,,合同会社,兵庫県,川西市,滝山町１８番１０号,,28,217,6660002,,,,,,,2021-12-02,1,,,,,アイアンクラブ,0
2164,8140005025913,新規,0,2021-12-02,2021-12-02,医療法人社団おかもと皮膚科・形成外科クリニック,,その他の設立登記法人,兵庫県,尼崎市,長洲東通１丁目９番３５号,,28,202,6600801,,,,,,,2021-12-02,1,,,,,オカモトヒフカケイセイゲカクリニック,0
2180,8180001148937,新規,0,2021-12-02,2021-12-02,Ｅ．ＳＰＡＣＥ株式会社,,株式会社,愛知県,名古屋市中区,錦２丁目１７番３０号,,23,106,4600003,,,,,,,2021-12-02,1,,,,,イードットスペース,0
2181,8180001148945,新規,0,2021-12-02,2021-12-02,株式会社スタートビューティー,,株式会社,愛知県,名古屋市中区,栄２丁目３番１６号アーク栄広小路ビル,,23,106,4600008,,,,,,,2021-12-02,1,,,,,スタートビューティー,0
2182,8180001148953,新規,0,2021-12-02,2021-12-02,ＷＲＳ株式会社,,株式会社,愛知県,名古屋市昭和区,五軒家町１３番地の１１,,23,107,4660838,,,,,,,2021-12-02,1,,,,,ダブリューアールエス,0
2187,8180301035661,新規,0,2021-12-02,2021-12-02,株式会社Ｍ資金,,株式会社,愛知県,豊橋市,大岩町字火打坂３０番地の１,,23,201,4413147,,,,,,,2021-12-02,1,,,,,エムシキン,0
2188,8180303005183,新規,0,2021-12-02,2021-12-02,合同会社ＧＥＮＩＥ,,合同会社,愛知県,刈谷市,相生町２丁目１０番地１,,23,210,4480027,,,,,,,2021-12-02,1,,,,,ジーニー,0
2191,8200001039489,新規,0,2021-12-02,2021-12-02,株式会社ＤＫ建設,,株式会社,岐阜県,各務原市,川島松倉町２３５０－２６,,21,213,5016022,,,,,,,2021-12-02,1,,,,,ディーケーケンセツ,0
2193,8200005013283,新規,0,2021-12-02,2021-12-02,一般社団法人太陽,,その他の設立登記法人,岐阜県,海津市,平田町今尾８６１番地,,21,221,5030321,,,,,,,2021-12-02,1,,,,,タイヨウ,0
2197,8220003003160,新規,0,2021-12-02,2021-12-02,合同会社ＩＣＦ,,合同会社,石川県,金沢市,湊２丁目１２０番地３２,,17,201,9200211,,,,,,,2021-12-02,1,,,,,アイシーエフ,0
2202,8240003005386,新規,0,2021-12-02,2021-12-02,合同会社フルブライト商会,,合同会社,広島県,広島市中区,流川町６－１１大松ビル２０３,,34,101,7300028,,,,,,,2021-12-02,1,,,,,フルブライトショウカイ,0
2209,8260001036258,新規,0,2021-12-02,2021-12-02,株式会社山神調査測量,,株式会社,岡山県,笠岡市,西大島新田１５１番地３,,33,205,7140031,,,,,,,2021-12-02,1,,,,,ヤマガミチョウサソクリョウ,0
2210,8260001036266,新規,0,2021-12-02,2021-12-02,株式会社光本工業,,株式会社,岡山県,瀬戸内市,邑久町福山４８７番地１,,33,212,7014245,,,,,,,2021-12-02,1,,,,,ミツモトコウギョウ,0
2211,8260001036274,新規,0,2021-12-02,2021-12-02,株式会社ルアル,,株式会社,岡山県,岡山市中区,海吉１７６９番地４８,,33,102,7038261,,,,,,,2021-12-02,1,,,,,ルアル,0
2214,8270001008405,新規,0,2021-12-02,2021-12-02,株式会社川崎設備商会,,株式会社,鳥取県,鳥取市,若葉台北２丁目１１番６号,,31,201,6891111,,,,,,,2021-12-02,1,,,,,カワサキセツビショウカイ,0
2215,8270005005489,新規,0,2021-12-02,2021-12-02,特定非営利活動法人輝き,,その他の設立登記法人,鳥取県,米子市,河崎１７４６番地１３,,31,202,6830852,,,,,,,2021-12-02,1,,,,,カガヤキ,0
2226,8290001095516,新規,0,2021-12-02,2021-12-02,ＡＡＳレンタリース株式会社,,株式会社,福岡県,糟屋郡新宮町,新宮東４丁目２番２１号,,40,345,8110124,,,,,,,2021-12-02,1,,,,,エーエーエスレンタリース,0
2227,8290001095598,新規,0,2021-12-02,2021-12-02,株式会社Ｇｏｌｄｅｎ　Ｄｅｗ,,株式会社,福岡県,福岡市南区,清水２丁目２０番３－３０１号アーベインリビエ清水３番館,,40,134,8150031,,,,,,,2021-12-02,1,,,,,ゴールデンデュー,0
2228,8290001095607,新規,0,2021-12-02,2021-12-02,株式会社ナイスメッツ,,株式会社,福岡県,福岡市博多区,博多駅前２丁目１９番１７号トーカン博多第５ビル３１２号室,,40,132,8120011,,,,,,,2021-12-02,1,,,,,ナイスメッツ,0
2229,8290001095623,新規,0,2021-12-02,2021-12-02,株式会社サンコープロパティー,,株式会社,福岡県,福岡市博多区,博多駅前１丁目３１番１７号,,40,132,8120011,,,,,,,2021-12-02,1,,,,,サンコープロパティー,0
2230,8290001095631,新規,0,2021-12-02,2021-12-02,株式会社らせん,,株式会社,福岡県,福岡市中央区,警固２丁目１番１７号,,40,133,8100023,,,,,,,2021-12-02,1,,,,,ラセン,0
2237,8290801028039,新規,0,2021-12-02,2021-12-02,株式会社キングコープ,,株式会社,福岡県,北九州市門司区,栄町１０番３－２０４号,,40,101,8010863,,,,,,,2021-12-02,1,,,,,キングコープ,0
2242,8310001017608,新規,0,2021-12-02,2021-12-02,株式会社Ｆエナジー西海,,株式会社,長崎県,西海市,西彼町下岳郷７６１番地,,42,212,8513311,,,,,,,2021-12-02,1,,,,,エフエナジーサイカイ,0
2243,8310003004224,新規,0,2021-12-02,2021-12-02,合同会社ひまわり,,合同会社,長崎県,長崎市,さくらの里２丁目４番２号,,42,201,8512207,,,,,,,2021-12-02,1,,,,,ヒマワリ,0
2247,8330001029246,新規,0,2021-12-02,2021-12-02,株式会社実ファーム,,株式会社,熊本県,熊本市北区,植木町山本６１３番地,,43,105,8610101,,,,,,,2021-12-02,1,,,,,ミノルファーム,0
2255,8350001017439,新規,0,2021-12-02,2021-12-02,株式会社ＡＳＴＫＯＨＴＨ,,株式会社,宮崎県,宮崎市,橘通西３丁目１０－２４竹原第３ビル６Ｆ,,45,201,8800001,,,,,,,2021-12-02,1,,,,,アストコース,0
2256,8350005006033,新規,0,2021-12-02,2021-12-02,一般社団法人霧島コネクト,,その他の設立登記法人,宮崎県,えびの市,大字末永１４９５,,45,209,8894302,,,,,,,2021-12-02,1,,,,,キリシマコネクト,0
2262,8360003011612,新規,0,2021-12-02,2021-12-02,合同会社リンク,,合同会社,沖縄県,那覇市,宮城１丁目１７番６－７０１号Ｆステージ小禄宮城弐番館,,47,201,9010147,,,,,,,2021-12-02,1,,,,,リンク,0
2264,8370001047888,新規,0,2021-12-02,2021-12-02,株式会社石川設計東北,,株式会社,宮城県,仙台市泉区,泉中央１丁目２８番２２号,,04,105,9813133,,,,,,,2021-12-02,1,,,,,イシカワセッケイトウホク,0
2266,8370005010396,新規,0,2021-12-02,2021-12-02,一般社団法人日本自然冷媒研究開発機構,,その他の設立登記法人,宮城県,仙台市若林区,卸町１丁目６番１７号卸町グリービル内,,04,103,9840015,,,,,,,2021-12-02,1,,,,,ニホンシゼンレイバイケンキュウカイハツキコウ,0
2286,8470001018854,新規,0,2021-12-02,2021-12-02,株式会社Ｌｉｎｋ,,株式会社,香川県,高松市,鶴市町２０４９番地１ユートピアヒルズ４０２号室,,37,201,7618032,,,,,,,2021-12-02,1,,,,,リンク,0
2287,8480003001766,新規,0,2021-12-02,2021-12-02,合同会社テレラボ,,合同会社,徳島県,阿南市,津乃峰町戎山１４０－４１,,36,204,7740021,,,,,,,2021-12-02,1,,,,,テレラボ,0
2290,8490001010041,新規,0,2021-12-02,2021-12-02,株式会社研総,,株式会社,高知県,南国市,幸町１丁目８番１１号,,39,204,7830013,,,,,,,2021-12-02,1,,,,,ケンソウ,0
2304,9010001222856,新規,0,2021-12-02,2021-12-02,株式会社Ｏｆｆｉｃｅ　ＵＮＩ,,株式会社,東京都,千代田区,神田神保町１丁目６０,,13,101,1010051,,,,,,,2021-12-02,1,,,,,オフィスウニ,0
2305,9010001222880,新規,0,2021-12-02,2021-12-02,株式会社ＤＸ　Ｌａｂｏ,,株式会社,東京都,中央区,東日本橋１丁目１－２０三幸日本橋プラザビル６０３,,13,102,1030004,,,,,,,2021-12-02,1,,,,,ディーエックスラボ,0
2306,9010001222922,新規,0,2021-12-02,2021-12-02,株式会社ＬＩＴＵＳ,,株式会社,東京都,千代田区,岩本町２丁目１３番６号ミツボシ第三ビル５０２,,13,101,1010032,,,,,,,2021-12-02,1,,,,,リッタス,0
2307,9010001222939,新規,0,2021-12-02,2021-12-02,株式会社ＯＮＯＤＥＲＡメディカル,,株式会社,東京都,千代田区,大手町１丁目１番３号,,13,101,1000004,,,,,,,2021-12-02,1,,,,,オノデラメディカル,0
2308,9010001222955,新規,0,2021-12-02,2021-12-02,株式会社イングラムホールディングス,,株式会社,東京都,千代田区,岩本町２丁目８番１２号,,13,101,1010032,,,,,,,2021-12-02,1,,,,,イングラムホールディングス,0
2317,9010401164079,新規,0,2021-12-02,2021-12-02,株式会社ＳＥＱ,,株式会社,東京都,港区,高輪３丁目２番６－９０３号,,13,103,1080074,,,,,,,2021-12-02,1,,,,,シーク,0
2320,9010405020476,新規,0,2021-12-02,2021-12-02,ＧＬＰ白井特定目的会社,,その他の設立登記法人,東京都,港区,東新橋１丁目５番２号汐留シティセンター,,13,103,1050021,,,,,,,2021-12-02,1,,,,,ジーエルピーシロイ,0
2321,9010501048165,新規,0,2021-12-02,2021-12-02,株式会社ライスボール,,株式会社,東京都,台東区,寿２丁目１番６号,,13,106,1110042,,,,,,,2021-12-02,1,,,,,ライスボール,0
2331,9010901049886,新規,0,2021-12-02,2021-12-02,ライフェディ株式会社,,株式会社,東京都,世田谷区,松原２丁目３４－１１ベルヴィカワダ２０１,,13,112,1560043,,,,,,,2021-12-02,1,,,,,ライフェディ,0
2332,9010901049903,新規,0,2021-12-02,2021-12-02,株式会社グローリアコンサルティング,,株式会社,東京都,世田谷区,玉川１丁目３番１９号３０１,,13,112,1580094,,,,,,,2021-12-02,1,,,,,グローリアコンサルティング,0
2334,9010903006984,新規,0,2021-12-02,2021-12-02,ＧＲＩＴＦＵＬ合同会社,,合同会社,東京都,世田谷区,若林１丁目７番１９号,,13,112,1540023,,,,,,,2021-12-02,1,,,,,グリットフル,0
2344,9011001144297,新規,0,2021-12-02,2021-12-02,株式会社ＯＲＡＤＡ,,株式会社,東京都,渋谷区,渋谷３丁目６番２号,,13,113,1500002,,,,,,,2021-12-02,1,,,,,オラダ,0
2345,9011101097008,新規,0,2021-12-02,2021-12-02,ＹＫ２株式会社,,株式会社,東京都,新宿区,西新宿４丁目１２番６号,,13,104,1600023,,,,,,,2021-12-02,1,,,,,,0
2346,9011101097073,新規,0,2021-12-02,2021-12-02,株式会社７ｋｎｏｔ,,株式会社,東京都,新宿区,天神町７番地１１号,,13,104,1620808,,,,,,,2021-12-02,1,,,,,,0
2347,9011101097081,新規,0,2021-12-02,2021-12-02,株式会社ディバースタッフ,,株式会社,東京都,新宿区,西新宿６丁目１２番４号コイトビル７階,,13,104,1600023,,,,,,,2021-12-02,1,,,,,ディバースタッフ,0
2348,9011103011222,新規,0,2021-12-02,2021-12-02,合同会社シャインワークス,,合同会社,東京都,新宿区,中井２丁目２０番９号アッパルタメントベルベデーレ２０３号,,13,104,1610035,,,,,,,2021-12-02,1,,,,,シャインワークス,0
2353,9011401023877,新規,0,2021-12-02,2021-12-02,ＴＯＭＯ商事株式会社,,株式会社,東京都,板橋区,大和町２９番１１号帝北ビル３Ｆ,,13,119,1730012,,,,,,,2021-12-02,1,,,,,トモショウジ,0
2356,9011601025574,新規,0,2021-12-02,2021-12-02,株式会社ＴＯＭＯＧ,,株式会社,東京都,練馬区,東大泉６丁目８番１４号,,13,120,1780063,,,,,,,2021-12-02,1,,,,,トモッグ,0
2371,9020001144133,新規,0,2021-12-02,2021-12-02,Ｒｅａｌｉｚｅ株式会社,,株式会社,神奈川県,横浜市旭区,都岡町８１番地１エンゼルハイム鶴ヶ峰第３－１０５号,,14,112,2410805,,,,,,,2021-12-02,1,,,,,リアライズ,0
2372,9020001144174,新規,0,2021-12-02,2021-12-02,株式会社ラーゴム医療福祉研究センター,,株式会社,神奈川県,川崎市高津区,久地１丁目１２番１６号,,14,134,2130032,,,,,,,2021-12-02,1,,,,,ラーゴムイリョウフクシケンキュウセンター,0
2382,9021001074634,新規,0,2021-12-02,2021-12-02,株式会社鳶平野,,株式会社,神奈川県,高座郡寒川町,倉見１７３８番地６,,14,321,2530101,,,,,,,2021-12-02,1,,,,,トビヒラノ,0
2384,9021005012359,新規,0,2021-12-02,2021-12-02,一般社団法人葉山ぷらす,,その他の設立登記法人,神奈川県,三浦郡葉山町,一色２３２２番地の５,,14,301,2400111,,,,,,,2021-12-02,1,,,,,ハヤマプラス,0
2387,9030001145667,新規,0,2021-12-02,2021-12-02,大江株式会社,,株式会社,埼玉県,川口市,西川口１丁目２６番５号,,11,203,3320021,,,,,,,2021-12-02,1,,,,,オオエ,0
2392,9040001121254,新規,0,2021-12-02,2021-12-02,ＵＲＣ株式会社,,株式会社,千葉県,野田市,山崎１３６７番地１エスペランサＡ２０１,,12,208,2780022,,,,,,,2021-12-02,1,,,,,ユーアールシー,0
2402,9060001034339,新規,0,2021-12-02,2021-12-02,株式会社リノベーション,,株式会社,栃木県,鹿沼市,西茂呂３丁目１６番地５,,09,205,3220029,,,,,,,2021-12-02,1,,,,,リノベーション,0
2406,9070001038710,新規,0,2021-12-02,2021-12-02,株式会社ＭＡフードシステム,,株式会社,群馬県,高崎市,下小鳥町６８３,,10,202,3700074,,,,,,,2021-12-02,1,,,,,エムエーフードシステム,0
2408,9070003004314,新規,0,2021-12-02,2021-12-02,合同会社Ｃｉｅｌ,,合同会社,群馬県,伊勢崎市,赤堀今井町２丁目８０３番地１,,10,204,3792215,,,,,,,2021-12-02,1,,,,,シエル,0
2411,9080005007413,新規,0,2021-12-02,2021-12-02,特定非営利活動法人ヒト・マチ・プロジェクト,,その他の設立登記法人,静岡県,静岡市清水区,折戸１丁目２番２５号,,22,103,4240902,,,,,,,2021-12-02,1,,,,,ヒトマチプロジェクト,0
2412,9080101022951,新規,0,2021-12-02,2021-12-02,株式会社ながはま,,株式会社,静岡県,沼津市,原１５１０番地の２,,22,203,4100312,,,,,,,2021-12-02,1,,,,,ナガハマ,0
2414,9080103002472,新規,0,2021-12-02,2021-12-02,合同会社Ｅｆｆｏｒｉａ,,合同会社,静岡県,沼津市,高沢町４番２９号スルガアーバンビレッジ８０７,,22,203,4100057,,,,,,,2021-12-02,1,,,,,エフフォーリア,0
2415,9080401025497,新規,0,2021-12-02,2021-12-02,株式会社みつは,,株式会社,静岡県,磐田市,今之浦３丁目２２番地６,,22,211,4380071,,,,,,,2021-12-02,1,,,,,ミツハ,0
2428,9120001242190,新規,0,2021-12-02,2021-12-02,サークルエージェント株式会社,,株式会社,大阪府,大阪市浪速区,日本橋５丁目７番１０号,,27,111,5560005,,,,,,,2021-12-02,1,,,,,サークルエージェント,0
2440,9120103004456,新規,0,2021-12-02,2021-12-02,ＡＬＦＩＲＫ合同会社,,合同会社,大阪府,堺市堺区,戎島町３丁２２番地４－１３０８号,,27,141,5900985,,,,,,,2021-12-02,1,,,,,アルファルク,0
2441,9120103004464,新規,0,2021-12-02,2021-12-02,合同会社タニモト企画,,合同会社,大阪府,松原市,東新町３丁目１２番８号,,27,217,5800024,,,,,,,2021-12-02,1,,,,,タニモトキカク,0
2449,9120901045288,新規,0,2021-12-02,2021-12-02,オゾ・トレーディング株式会社,,株式会社,大阪府,茨木市,郡４丁目１１番４１号,,27,211,5670072,,,,,,,2021-12-02,1,,,,,オゾトレーディング,0
2452,9122003002226,新規,0,2021-12-02,2021-12-02,合同会社ｃｏｍｐａｓｓ,,合同会社,大阪府,東大阪市,長栄寺２番１２号Ｔｓｕｎａｇａｒｕビル５Ｆ,,27,227,5770055,,,,,,,2021-12-02,1,,,,,コンパス,0
2457,9140003017028,新規,0,2021-12-02,2021-12-02,ＰＬＡＮ－Ｂ合同会社,,合同会社,兵庫県,姫路市,安田４丁目６３番地ハクロビル４階,,28,201,6700955,,,,,,,2021-12-02,1,,,,,プランビー,0
2459,9150001025139,新規,0,2021-12-02,2021-12-02,株式会社Ｒｕｓｔｙ,,株式会社,奈良県,香芝市,白鳳台１丁目１２番地１０,,29,210,6390262,,,,,,,2021-12-02,1,,,,,ラスティ,0
2462,9150005009352,新規,0,2021-12-02,2021-12-02,医療法人健晴会,,その他の設立登記法人,奈良県,奈良市,西大寺東町２丁目１番６３号サンワシティ西大寺３階,,29,201,6310821,,,,,,,2021-12-02,1,,,,,ケンセイカイ,0
2465,9160003002440,新規,0,2021-12-02,2021-12-02,フェニーチェ合同会社,,合同会社,滋賀県,甲賀市,水口町虫生野中央９番地,,25,209,5280042,,,,,,,2021-12-02,1,,,,,フェニーチェ,0
2481,9180001148911,新規,0,2021-12-02,2021-12-02,株式会社八原商店,,株式会社,愛知県,名古屋市中区,錦１丁目１４番５号,,23,106,4600003,,,,,,,2021-12-02,1,,,,,ヤハラショウテン,0
2482,9180001148936,新規,0,2021-12-02,2021-12-02,フィルタス株式会社,,株式会社,愛知県,名古屋市中川区,運河町５番１８号,,23,110,4540001,,,,,,,2021-12-02,1,,,,,フィルタス,0
2483,9180001148969,新規,0,2021-12-02,2021-12-02,トーヨーテクノ株式会社,,株式会社,愛知県,知多市,八幡新町３丁目６番地の５サンライトハイツ１０６,,23,224,4780052,,,,,,,2021-12-02,1,,,,,トーヨーテクノ,0
2487,9180003023245,新規,0,2021-12-02,2021-12-02,米乃成海堂合同会社,,合同会社,愛知県,名古屋市緑区,滝ノ水１丁目１２０８番地,,23,114,4580021,,,,,,,2021-12-02,1,,,,,コメノナルミドウ,0
2489,9180301035677,新規,0,2021-12-02,2021-12-02,株式会社白鳥,,株式会社,愛知県,豊川市,小田渕町２丁目５番地,,23,207,4420844,,,,,,,2021-12-02,1,,,,,シラトリ,0
2495,9200001039471,新規,0,2021-12-02,2021-12-02,株式会社ＵＮＩＡ,,株式会社,岐阜県,大垣市,青墓町３丁目４００番地１８,,21,202,5032221,,,,,,,2021-12-02,1,,,,,ウニア,0
2496,9220001024570,新規,0,2021-12-02,2021-12-02,株式会社竹原電気,,株式会社,石川県,白山市,美川浜町ル２４５番地,,17,210,9290233,,,,,,,2021-12-02,1,,,,,タケハラデンキ,0
2505,9260001036265,新規,0,2021-12-02,2021-12-02,株式会社ボンボヤージュ,,株式会社,岡山県,倉敷市,新倉敷駅前５丁目２０３番地,,33,202,7100253,,,,,,,2021-12-02,1,,,,,ボンボヤージュ,0
2506,9260001036273,新規,0,2021-12-02,2021-12-02,株式会社いちずホーム,,株式会社,岡山県,岡山市北区,横井上６７０番地１６,,33,101,7011145,,,,,,,2021-12-02,1,,,,,イチズホーム,0
2508,9260003003734,新規,0,2021-12-02,2021-12-02,合同会社宮近,,合同会社,岡山県,備前市,久々井１２９,,33,211,7050024,,,,,,,2021-12-02,1,,,,,ミヤチカ,0
2509,9270005005488,新規,0,2021-12-02,2021-12-02,特定非営利活動法人ふふや,,その他の設立登記法人,鳥取県,鳥取市,本町２丁目２２７番地,,31,201,6800031,,,,,,,2021-12-02,1,,,,,フフヤ,0
2514,9290001095597,新規,0,2021-12-02,2021-12-02,株式会社ＦｒｅａｋＸ,,株式会社,福岡県,福岡市南区,大楠２丁目２３番９－８０１号ＬＡＮＤＩＣ　Ｏ２２３９,,40,134,8150082,,,,,,,2021-12-02,1,,,,,フリークエックス,0
2516,9290003011890,新規,0,2021-12-02,2021-12-02,合同会社明月,,合同会社,福岡県,福岡市南区,向野２丁目１０－２０－３０６号,,40,134,8150035,,,,,,,2021-12-02,1,,,,,メイゲツ,0
2520,9290801028038,新規,0,2021-12-02,2021-12-02,株式会社ＩＢ,,株式会社,福岡県,北九州市若松区,本町２丁目１６番１６－７０１号,,40,103,8080034,,,,,,,2021-12-02,1,,,,,アイビー,0
2521,9290803003996,新規,0,2021-12-02,2021-12-02,ファーストオフィス合同会社,,合同会社,福岡県,北九州市小倉北区,上富野５丁目１１番７－１０４号,,40,106,8020022,,,,,,,2021-12-02,1,,,,,ファーストオフィス,0
2522,9310001017615,新規,0,2021-12-02,2021-12-02,株式会社さかな屋魚周,,株式会社,長崎県,長崎市,富士見町２０番２１号,,42,201,8528022,,,,,,,2021-12-02,1,,,,,サカナヤウオシュウ,0
2531,9350003003980,新規,0,2021-12-02,2021-12-02,合同会社コミュビジ,,合同会社,宮崎県,宮崎市,下原町３３２番地２アルファスマート青葉北ＩＩ４０２号,00125012,45,201,8800843,,,,,,,2021-12-02,1,,,,,コミュビジ,0
2534,9360003011611,新規,0,2021-12-02,2021-12-02,合同会社ＹＵＩ－ＳＡＣＨＩ,,合同会社,沖縄県,沖縄市,美里６丁目１２番１２号,,47,211,9042153,,,,,,,2021-12-02,1,,,,,ユイサチ,0
2538,9390001016700,新規,0,2021-12-02,2021-12-02,株式会社電力応援,,株式会社,山形県,山形市,桜田西４丁目５番３号,,06,201,9902321,,,,,,,2021-12-02,1,,,,,デンリョクオウエン,0
2542,9400005008196,新規,0,2021-12-02,2021-12-02,矢巾町水道協同組合,,その他の設立登記法人,岩手県,紫波郡矢巾町,大字煙山第１０地割２８番地,,03,322,0283623,,,,,,,2021-12-02,1,,,,,ヤハバチョウスイドウ,0
2544,9410001013026,新規,0,2021-12-02,2021-12-02,株式会社金浦砕石場,,株式会社,秋田県,にかほ市,金浦字堀切２０８番地の３,,05,214,0180311,,,,,,,2021-12-02,1,,,,,,0
2545,9410005006439,新規,0,2021-12-02,2021-12-02,特定非営利活動法人光環境ＤＸ研究学会,,その他の設立登記法人,秋田県,秋田市,手形学園町１番１号,,05,201,0100852,,,,,,,2021-12-02,1,,,,,ヒカリカンキョウディーエックスケンキュウガッカイ,0
2551,9480003001765,新規,0,2021-12-02,2021-12-02,合同会社山岡企画,,合同会社,徳島県,徳島市,川内町加賀須野２２４番地の１２,,36,201,7710130,,,,,,,2021-12-02,1,,,,,ヤマオカキカク,0
2552,9500003002728,新規,0,2021-12-02,2021-12-02,合同会社ベッカム,,合同会社,愛媛県,新居浜市,庄内町２丁目８番２１号,,38,205,7920811,,,,,,,2021-12-02,1,,,,,ベッカム,0
