sequenceNumber,corporateNumber,process,correct,updateDate,changeDate,name,nameImageId,kind,prefectureName,cityName,streetNumber,addressImageId,prefectureCode,cityCode,postCode,addressOutside,addressOutsideImageId,closeDate,closeCause,successorCorporateNumber,changeCause,assignmentDate,latest,enName,enPrefectureName,enCityName,enAddressOutside,furigana,hihyoji
7,1010001231815,新規,0,2022-12-23,2022-12-23,セントラルエージェンシー株式会社,,株式会社,東京都,千代田区,丸の内２丁目２番１号,,13,101,1000005,,,,,,,2022-12-23,1,,,,,セントラルエージェンシー,0
8,1010001231856,新規,0,2022-12-23,2022-12-23,山佐ＫＬＭ４リース株式会社,,株式会社,東京都,千代田区,丸の内３丁目１番１号東京共同会計事務所内,,13,101,1000005,,,,,,,2022-12-23,1,,,,,ヤマサケイエルエムフォーリース,0
15,1010401171504,新規,0,2022-12-23,2022-12-23,株式会社アイランダー,,株式会社,東京都,港区,新橋５丁目１２番１１号７階－７０６号,,13,103,1050004,,,,,,,2022-12-23,1,,,,,アイランダー,0
24,1010601062354,新規,0,2022-12-23,2022-12-23,株式会社ＳＫＲ,,株式会社,東京都,江東区,清澄２丁目１１番１４号,,13,108,1350024,,,,,,,2022-12-23,1,,,,,エスケーアール,0
25,1010603009915,新規,0,2022-12-23,2022-12-23,日新合同会社,,合同会社,東京都,江東区,北砂３丁目１８番４号,,13,108,1360073,,,,,,,2022-12-23,1,,,,,ニッシン,0
33,1010901052195,新規,0,2022-12-23,2022-12-23,ファミクオーレ株式会社,,株式会社,東京都,世田谷区,玉堤２丁目９番１６号,,13,112,1580087,,,,,,,2022-12-23,1,,,,,ファミクオーレ,0
39,1011101101288,新規,0,2022-12-23,2022-12-23,株式会社ＳＣＫ,,株式会社,東京都,新宿区,西新宿３丁目３番１３号西新宿水間ビル２Ｆ,,13,104,1600023,,,,,,,2022-12-23,1,,,,,エスシーケー,0
55,1013101009081,新規,0,2022-12-23,2022-12-23,株式会社モンスター,,株式会社,東京都,青梅市,新町１丁目４番地の１,,13,205,1980024,,,,,,,2022-12-23,1,,,,,モンスター,0
64,1020001149528,新規,0,2022-12-23,2022-12-23,株式会社アドマーケグループ,,株式会社,神奈川県,横浜市西区,浅間町１丁目４番３号ウィザードビル４０２,,14,103,2200072,,,,,,,2022-12-23,1,,,,,アドマーケグループ,0
66,1020003022947,新規,0,2022-12-23,2022-12-23,合同会社ＯＫＢ,,合同会社,神奈川県,川崎市麻生区,王禅寺西１丁目３７番６号,,14,137,2150017,,,,,,,2022-12-23,1,,,,,オーケービー,0
67,1020003022955,新規,0,2022-12-23,2022-12-23,ＴＲＩＱ合同会社,,合同会社,神奈川県,横浜市中区,桜木町１丁目１０１番地１クロスゲート７階,,14,104,2310062,,,,,,,2022-12-23,1,,,,,トリク,0
68,1020003022963,新規,0,2022-12-23,2022-12-23,合同会社島崎ファーマシー,,合同会社,神奈川県,横浜市西区,老松町１４番地１アルス横浜野毛坂４０８号,,14,103,2200032,,,,,,,2022-12-23,1,,,,,シマザキファーマシー,0
69,1020005015791,新規,0,2022-12-23,2022-12-23,一般社団法人横浜市アーチェリー協会とみどりの会,,その他の設立登記法人,神奈川県,横浜市金沢区,富岡東２丁目９番２号,,14,108,2360051,,,,,,,2022-12-23,1,,,,,ヨコハマシアーチェリーキョウカイトミドリノカイ,0
73,1021001077776,新規,0,2022-12-23,2022-12-23,株式会社ＧＲＯＯＶＥ,,株式会社,神奈川県,三浦郡葉山町,一色８９５番地の１５,,14,301,2400111,,,,,,,2022-12-23,1,,,,,グルーヴ,0
74,1021001077784,新規,0,2022-12-23,2022-12-23,株式会社玉屋,,株式会社,神奈川県,藤沢市,下土棚３２２番地,,14,205,2520807,,,,,,,2022-12-23,1,,,,,タマヤ,0
75,1021001077792,新規,0,2022-12-23,2022-12-23,株式会社ＣＯＬＯＲ　ＳＴＲＥＥＴ,,株式会社,神奈川県,愛甲郡愛川町,半原１４４番地２－２０２,,14,401,2430307,,,,,,,2022-12-23,1,,,,,カラーストリート,0
81,1021003012533,新規,0,2022-12-23,2022-12-23,合同会社神奈川トラックス,,合同会社,神奈川県,厚木市,三田２２２５番,,14,212,2430211,,,,,,,2022-12-23,1,,,,,カナガワトラックス,0
82,1021005012705,新規,0,2022-12-23,2022-12-23,一般社団法人あるっこ,,その他の設立登記法人,神奈川県,藤沢市,村岡東４丁目９番地の２２,,14,205,2510012,,,,,,,2022-12-23,1,,,,,アルッコ,0
102,1050001052134,新規,0,2022-12-23,2022-12-23,株式会社ＬａｄｙＯｎ,,株式会社,茨城県,古河市,上辺見１２８０番地１０,,08,204,3060234,,,,,,,2022-12-23,1,,,,,レディオン,0
103,1050003007111,新規,0,2022-12-23,2022-12-23,合同会社グリーンサンシャイン,,合同会社,茨城県,土浦市,並木３丁目８番２６号,,08,203,3000061,,,,,,,2022-12-23,1,,,,,グリーンサンシャイン,0
105,1070001039955,新規,0,2022-12-23,2022-12-23,株式会社将群,,株式会社,群馬県,高崎市,福島町７４２－６,,10,202,3703523,,,,,,,2022-12-23,1,,,,,ショウグン,0
107,1080105006306,新規,0,2022-12-23,2022-12-23,シーサイドパレス南熱海管理組合法人,,その他の設立登記法人,静岡県,熱海市,下多賀９番地８,,22,205,4130102,,,,,,,2022-12-23,1,,,,,シーサイドパレスミナミアタミ,0
108,1080401026214,新規,0,2022-12-23,2022-12-23,Ｃｒｏｓｓ　Ａｒｏｕｎｄ株式会社,,株式会社,静岡県,浜松市南区,東若林町１１２１番地の３,,22,134,4328052,,,,,,,2022-12-23,1,,,,,クロスアラウンド,0
109,1090003002216,新規,0,2022-12-23,2022-12-23,合同会社シリウスファーム山梨,,合同会社,山梨県,笛吹市,八代町北５５２番地,,19,211,4060821,,,,,,,2022-12-23,1,,,,,シリウスファームヤマナシ,0
112,1100001035991,新規,0,2022-12-23,2022-12-23,株式会社田貴工業,,株式会社,長野県,長野市,大字大豆島５９０８番地７,,20,201,3810022,,,,,,,2022-12-23,1,,,,,タキコウギョウ,0
114,1110001037186,新規,0,2022-12-23,2022-12-23,株式会社リテリア,,株式会社,新潟県,上越市,中門前２丁目６番２０号,,15,222,9430801,,,,,,,2022-12-23,1,,,,,リテリア,0
120,1120001251174,新規,0,2022-12-23,2022-12-23,株式会社ＳｔａｒＬｏｇｉｃ,,株式会社,大阪府,大阪市北区,豊崎３丁目１１番６号－５０３,,27,127,5310072,,,,,,,2022-12-23,1,,,,,スターロジック,0
121,1120001251307,新規,0,2022-12-23,2022-12-23,株式会社ダンス・アミューズ,,株式会社,大阪府,大阪市西区,南堀江１丁目９番１号現代オレンジビル４階,,27,106,5500015,,,,,,,2022-12-23,1,,,,,ダンスアミューズ,0
122,1120001251315,新規,0,2022-12-23,2022-12-23,セラピスト人材ネットワーク株式会社,,株式会社,大阪府,大阪市中央区,上本町西１丁目５番２４号,,27,128,5420062,,,,,,,2022-12-23,1,,,,,セラピストジンザイネットワーク,0
127,1120003023134,新規,0,2022-12-23,2022-12-23,合同会社三善,,合同会社,大阪府,大阪市西区,新町１丁目２４番８号ノース四ツ橋ビル１０階,,27,106,5500013,,,,,,,2022-12-23,1,,,,,サイゼン,0
130,1120103004991,新規,0,2022-12-23,2022-12-23,合同会社ふたば,,合同会社,大阪府,堺市東区,北野田８９４番地６,,27,143,5998123,,,,,,,2022-12-23,1,,,,,フタバ,0
135,1120903004431,新規,0,2022-12-23,2022-12-23,合同会社ラシーク,,合同会社,大阪府,高槻市,宮田町２丁目２１番３９号,,27,207,5691142,,,,,,,2022-12-23,1,,,,,ラシーク,0
137,1122001036522,新規,0,2022-12-23,2022-12-23,株式会社ビレッジ,,株式会社,大阪府,四條畷市,南野１丁目１２番１７号,,27,229,5750021,,,,,,,2022-12-23,1,,,,,ビレッジ,0
138,1122003002472,新規,0,2022-12-23,2022-12-23,合同会社フルパワー,,合同会社,大阪府,東大阪市,稲田新町２丁目９番３１号コーポ大喜１０２号,,27,227,5770004,,,,,,,2022-12-23,1,,,,,フルパワー,0
141,1140001128528,新規,0,2022-12-23,2022-12-23,株式会社パンブラザーズホールディング,,株式会社,兵庫県,神戸市中央区,中山手通３丁目２番２,,28,110,6500004,,,,,,,2022-12-23,1,,,,,パンブラザーズホールディング,0
142,1140003018512,新規,0,2022-12-23,2022-12-23,合同会社ＳＮＴＯＲ,,合同会社,兵庫県,神戸市須磨区,大池町５丁目１８番７－２０９号,,28,107,6540026,,,,,,,2022-12-23,1,,,,,サンター,0
144,1140005026414,新規,0,2022-12-23,2022-12-23,特定非営利活動法人スマイルポケット,,その他の設立登記法人,兵庫県,丹波篠山市,畑市２４９番地１,,28,221,6692413,,,,,,,2022-12-23,1,,,,,スマイルポケット,0
147,1160003002737,新規,0,2022-12-23,2022-12-23,合同会社ワクテカ,,合同会社,滋賀県,大津市,花園町２１－１,,25,201,5200222,,,,,,,2022-12-23,1,,,,,ワクテカ,0
149,1170001017422,新規,0,2022-12-23,2022-12-23,株式会社ＫＡＴＡＣＨＩ,,株式会社,和歌山県,田辺市,上万呂４８８番地の５,,30,206,6460002,,,,,,,2022-12-23,1,,,,,カタチ,0
163,1180003024639,新規,0,2022-12-23,2022-12-23,ａｎｄ‐ｃｌｏｓｅｔ合同会社,,合同会社,愛知県,名古屋市緑区,水広３丁目２２４番地,,23,114,4580848,,,,,,,2022-12-23,1,,,,,アンドクローゼット,0
167,1180301036930,新規,0,2022-12-23,2022-12-23,株式会社スタイリッシュマーケティングゾーン,,株式会社,愛知県,岡崎市,井田町字１丁目２６４番地１,,23,202,4440076,,,,,,,2022-12-23,1,,,,,スタイリッシュマーケティングゾーン,0
169,1190001030043,新規,0,2022-12-23,2022-12-23,株式会社Ｐｒｅｍｉｅｒ,,株式会社,三重県,津市,栄町３丁目２５４番地１,,24,201,5140004,,,,,,,2022-12-23,1,,,,,プルミエ,0
175,1200003005776,新規,0,2022-12-23,2022-12-23,合同会社陽だまりサポートＳ,,合同会社,岐阜県,多治見市,昭栄町９０番地の１０７,,21,204,5070076,,,,,,,2022-12-23,1,,,,,ヒダマリサポートエス,0
179,1220001025188,新規,0,2022-12-23,2022-12-23,株式会社ビオラアンドカンパニー,,株式会社,石川県,金沢市,木曳野２丁目１５５番地,,17,201,9200339,,,,,,,2022-12-23,1,,,,,ビオラアンドカンパニー,0
183,1240005015497,新規,0,2022-12-23,2022-12-23,広島箱舟キリスト教会,,その他の設立登記法人,広島県,広島市中区,広瀬北町８番１５号,,34,101,7300803,,,,,,,2022-12-23,1,,,,,ヒロシマハコブネキリストキョウカイ,0
190,1280005007524,新規,0,2022-12-23,2022-12-23,特定非営利活動法人よつばキッズスクール,,その他の設立登記法人,島根県,益田市,あけぼの西町９番地１５,,32,204,6980025,,,,,,,2022-12-23,1,,,,,ヨツバキッズスクール,0
193,1290001099960,新規,0,2022-12-23,2022-12-23,Ｊｉｎ＆Ｂｒｕｎｏ’ｓＤｒｅａｍＭａｃｈｉｎｅ株式会社,,株式会社,福岡県,福岡市城南区,西片江２丁目１６番８－１０２号,,40,136,8140141,,,,,,,2022-12-23,1,,,,,ジンアンドブルノズドリームマシーン,0
202,1360003012575,新規,0,2022-12-23,2022-12-23,合同会社Ｍｅｉｋｕ,,合同会社,沖縄県,那覇市,具志３丁目２５番３号（３０３）,,47,201,9010146,,,,,,,2022-12-23,1,,,,,メイク,0
203,1360003012591,新規,0,2022-12-23,2022-12-23,合同会社うるか土建興業,,合同会社,沖縄県,中頭郡西原町,字兼久１４７番地の１１,,47,329,9030104,,,,,,,2022-12-23,1,,,,,ウルカドケンコウギョウ,0
215,1470001019396,新規,0,2022-12-23,2022-12-23,株式会社瀬戸内ベース,,株式会社,香川県,三豊市,豊中町岡本２３２８番地,,37,208,7691507,,,,,,,2022-12-23,1,,,,,セトウチベース,0
217,1500001024665,新規,0,2022-12-23,2022-12-23,住友パッケージ株式会社,,株式会社,愛媛県,新居浜市,新須賀町２丁目６番２１号,,38,205,7920802,,,,,,,2022-12-23,1,,,,,,0
219,1700150113488,新規,0,2022-12-23,2022-12-23,復紅康合医薬江蘇有限公司　日本支店,,外国会社等,東京都,千代田区,神田錦町２丁目２番地１,,13,101,1010054,中華人民共和国江蘇省泰州市薬城大道一号（薬城大道南側、口泰路東側）Ｃ１幢１４０２、１４０３室,,,,,,2022-12-23,1,,,,,フクベニコウゴウイヤクコウソユウゲンコウシニホンシテン,0
228,2010001231772,新規,0,2022-12-23,2022-12-23,ＲＵＳＨ株式会社,,株式会社,東京都,千代田区,神田須田町１丁目２４番６号ＡＣＮ神田須田町ビル１１Ｆ,,13,101,1010041,,,,,,,2022-12-23,1,,,,,ラッシュ,0
229,2010001231814,新規,0,2022-12-23,2022-12-23,株式会社高橋コンサルティング,,株式会社,東京都,文京区,本駒込２丁目２５番３号,,13,105,1130021,,,,,,,2022-12-23,1,,,,,タカハシコンサルティング,0
230,2010001231855,新規,0,2022-12-23,2022-12-23,山佐ＫＬＭ３リース株式会社,,株式会社,東京都,千代田区,丸の内３丁目１番１号東京共同会計事務所内,,13,101,1000005,,,,,,,2022-12-23,1,,,,,ヤマサケイエルエムスリーリース,0
235,2010401171429,新規,0,2022-12-23,2022-12-23,株式会社櫻咲,,株式会社,東京都,港区,浜松町２丁目２番１５号浜松町ダイヤビル２Ｆ,,13,103,1050013,,,,,,,2022-12-23,1,,,,,オウカ,0
236,2010401171445,新規,0,2022-12-23,2022-12-23,九州商業管理株式会社,,株式会社,東京都,港区,新橋６丁目５番４号２０５,,13,103,1050004,,,,,,,2022-12-23,1,,,,,キュウシュウショウギョウカンリ,0
237,2010403029170,新規,0,2022-12-23,2022-12-23,星月夜らぼ合同会社,,合同会社,東京都,港区,浜松町１丁目３番２号パークコート浜離宮ザタワー２９１０,,13,103,1050013,,,,,,,2022-12-23,1,,,,,ホシツキヨラボ,0
242,2010501049698,新規,0,2022-12-23,2022-12-23,株式会社ＴＥＭＩ,,株式会社,東京都,台東区,清川２丁目１０番７－５０２号フォースター南千住,,13,106,1110022,,,,,,,2022-12-23,1,,,,,テミ,0
245,2010601062353,新規,0,2022-12-23,2022-12-23,株式会社ｉｎｔｅｎｔｉｏｎ,,株式会社,東京都,江東区,石島４番９号シュエット木場２０２,,13,108,1350014,,,,,,,2022-12-23,1,,,,,インテンション,0
246,2010601062361,新規,0,2022-12-23,2022-12-23,株式会社大島,,株式会社,東京都,墨田区,業平３丁目１番９号,,13,107,1300002,,,,,,,2022-12-23,1,,,,,オオシマ,0
249,2010603009914,新規,0,2022-12-23,2022-12-23,星一合同会社,,合同会社,東京都,江東区,北砂３丁目１８番４号,,13,108,1360073,,,,,,,2022-12-23,1,,,,,セイイチ,0
261,2011001151589,新規,0,2022-12-23,2022-12-23,株式会社Ｆｉｌａｍｅｎｔ　Ｓｏｌｕｔｉｏｎ,,株式会社,東京都,渋谷区,千駄ヶ谷３丁目５番１５号ＬＥＧＡＬＡＮＤＢｉｚ原宿,,13,113,1510051,,,,,,,2022-12-23,1,,,,,フィラメントソリューション,0
266,2011101101270,新規,0,2022-12-23,2022-12-23,株式会社Ｐｏｎｔ,,株式会社,東京都,新宿区,西新宿８丁目１４番１９号小林第二ビル８階,,13,104,1600023,,,,,,,2022-12-23,1,,,,,ポント,0
267,2011101101287,新規,0,2022-12-23,2022-12-23,株式会社東京新宿学園,,株式会社,東京都,新宿区,西新宿１丁目１３番１２号,,13,104,1600023,,,,,,,2022-12-23,1,,,,,トウキョウシンジュクガクエン,0
274,2011501028766,新規,0,2022-12-23,2022-12-23,株式会社Ｙ＆Ｋ,,株式会社,東京都,荒川区,東尾久４丁目４６番１２,,13,118,1160012,,,,,,,2022-12-23,1,,,,,ワイアンドケイ,0
275,2011501028782,新規,0,2022-12-23,2022-12-23,株式会社ＭＩＯ　Ｐａｒｔｎｅｒ,,株式会社,東京都,北区,西ケ原４丁目１２番３号,,13,117,1140024,,,,,,,2022-12-23,1,,,,,エムアイオーパートナー,0
277,2011503005409,新規,0,2022-12-23,2022-12-23,合同会社Ｍｅｔａ　Ｈｏｕｓｅ,,合同会社,東京都,荒川区,町屋４丁目１８番９号ＶｉｌｌａＡｎｇｅ１０１,,13,118,1160001,,,,,,,2022-12-23,1,,,,,メタハウス,0
281,2011701025902,新規,0,2022-12-23,2022-12-23,株式会社ＢＵＬＬＳ　ＣＵＴ,,株式会社,東京都,江戸川区,中葛西１丁目１９番３号コーポリバーサイド２０２,,13,123,1340083,,,,,,,2022-12-23,1,,,,,ブルズカット,0
289,2012403005746,新規,0,2022-12-23,2022-12-23,合同会社ＳｔｕｄｉｏＤａｔａ,,合同会社,東京都,稲城市,長峰２丁目４－３,,13,225,2060821,,,,,,,2022-12-23,1,,,,,スタジオデータ,0
292,2013301050074,新規,0,2022-12-23,2022-12-23,ＡＬＵＳ株式会社,,株式会社,東京都,豊島区,北大塚３丁目１７番５号,,13,116,1700004,,,,,,,2022-12-23,1,,,,,アルス,0
293,2013301050108,新規,0,2022-12-23,2022-12-23,株式会社佳恵出,,株式会社,東京都,豊島区,高田３丁目４０番１０－６０２号,,13,116,1710033,,,,,,,2022-12-23,1,,,,,カエデ,0
300,2020001149519,新規,0,2022-12-23,2022-12-23,スズバン株式会社,,株式会社,神奈川県,横浜市神奈川区,片倉１丁目１３番１２号ベル片倉３０３号,,14,102,2210865,,,,,,,2022-12-23,1,,,,,スズバン,0
301,2020001149527,新規,0,2022-12-23,2022-12-23,株式会社ジョアン・アートラボ,,株式会社,神奈川県,横浜市港北区,箕輪町２丁目７番４０－３１６号,,14,109,2230051,,,,,,,2022-12-23,1,,,,,ジョアンアートラボ,0
302,2020001149535,新規,0,2022-12-23,2022-12-23,ラ・ベル・カンパーニュ株式会社,,株式会社,神奈川県,横浜市磯子区,滝頭１丁目５番４５－１０１号,,14,107,2350012,,,,,,,2022-12-23,1,,,,,ラベルカンパーニュ,0
306,2020003022954,新規,0,2022-12-23,2022-12-23,合同会社ジアル,,合同会社,神奈川県,川崎市中原区,小杉陣屋町２丁目８番６２号リバーハイツ２０２,,14,133,2110062,,,,,,,2022-12-23,1,,,,,ジアル,0
321,2030001151597,新規,0,2022-12-23,2022-12-23,株式会社アルカテクト,,株式会社,埼玉県,さいたま市大宮区,桜木町２丁目３番地マルイ７階,,11,103,3300854,,,,,,,2022-12-23,1,,,,,アルカテクト,0
324,2030003020759,新規,0,2022-12-23,2022-12-23,ＪＣＪＥホールディングス合同会社,,合同会社,埼玉県,入間郡越生町,大字古池７００番地弓阜山庄Ｅ２０１,,11,327,3500401,,,,,,,2022-12-23,1,,,,,ジェイシージェイイーホールディングス,0
327,2040001126235,新規,0,2022-12-23,2022-12-23,株式会社ＰＦ・ＢｉｏＬｉｎｅ,,株式会社,千葉県,松戸市,上本郷８８番地,,12,207,2710064,,,,,,,2022-12-23,1,,,,,ピーエフバイオライン,0
328,2040001126342,新規,0,2022-12-23,2022-12-23,株式会社ブライト,,株式会社,千葉県,市川市,北方町４丁目１８３１番地３,,12,203,2720811,,,,,,,2022-12-23,1,,,,,ブライト,0
329,2040001126367,新規,0,2022-12-23,2022-12-23,株式会社Ｊｏｉｎ,,株式会社,千葉県,船橋市,習志野台３丁目１３番３０号,,12,204,2740063,,,,,,,2022-12-23,1,,,,,ジョイン,0
334,2050001052141,新規,0,2022-12-23,2022-12-23,株式会社タイガーファーム,,株式会社,茨城県,稲敷郡阿見町,大字阿見４６６６番地３４９２,,08,443,3000331,,,,,,,2022-12-23,1,,,,,タイガーファーム,0
338,2050003007102,新規,0,2022-12-23,2022-12-23,合同会社ＭＡＭＳＹ　ＳＴＯＲＥ,,合同会社,茨城県,筑西市,飯島５８番地１宮嶋テナント東棟１階Ｄ号室,,08,227,3080064,,,,,,,2022-12-23,1,,,,,マムシストアー,0
353,2080401026213,新規,0,2022-12-23,2022-12-23,株式会社ＦＬＯＺ,,株式会社,静岡県,浜松市中区,北寺島町２１６－１１－２０５,,22,131,4300923,,,,,,,2022-12-23,1,,,,,フロッズ,0
358,2080405007507,新規,0,2022-12-23,2022-12-23,特定非営利活動法人ミライサポートプロジェクトいわた,,その他の設立登記法人,静岡県,磐田市,見付６０１６番地１,,22,211,4380086,,,,,,,2022-12-23,1,,,,,ミライサポートプロジェクトイワタ,0
362,2100001035990,新規,0,2022-12-23,2022-12-23,岡谷造形株式会社,,株式会社,長野県,岡谷市,郷田１丁目５番２１号,,20,204,3940021,,,,,,,2022-12-23,1,,,,,オカヤゾウケイ,0
377,2120001251248,新規,0,2022-12-23,2022-12-23,関音減振株式会社,00128892,株式会社,大阪府,大阪市生野区,小路東６丁目８番１７号昭和エクセルビュー東大阪１０３－Ｇ１１,,27,116,5440003,,,,,,,2022-12-23,1,,,,,カンオンゲンシン,0
378,2120001251256,新規,0,2022-12-23,2022-12-23,麒華株式会社,,株式会社,大阪府,大阪市生野区,小路東６丁目８番１７号昭和エクセルビュー東大阪１０３－Ｇ１９,,27,116,5440003,,,,,,,2022-12-23,1,,,,,キカ,0
379,2120001251306,新規,0,2022-12-23,2022-12-23,株式会社ＨＡＰＯ,,株式会社,大阪府,大阪市中央区,龍造寺町８番１９号１Ｆ,,27,128,5400014,,,,,,,2022-12-23,1,,,,,ハポ,0
383,2120101066711,新規,0,2022-12-23,2022-12-23,株式会社ネクストサポート,,株式会社,大阪府,堺市北区,百舌鳥本町３丁３６５番地５,,27,146,5918036,,,,,,,2022-12-23,1,,,,,ネクストサポート,0
388,2122003002471,新規,0,2022-12-23,2022-12-23,合同会社げんき,,合同会社,大阪府,東大阪市,西石切町２丁目４番１－６２１号,,27,227,5798013,,,,,,,2022-12-23,1,,,,,ゲンキ,0
389,2122005003658,新規,0,2022-12-23,2022-12-23,一般社団法人ナースクリエイト,,その他の設立登記法人,大阪府,東大阪市,中小阪３丁目１５番３０号,,27,227,5770804,,,,,,,2022-12-23,1,,,,,ナースクリエイト,0
394,2140001128527,新規,0,2022-12-23,2022-12-23,株式会社コモンアイ,,株式会社,兵庫県,姫路市,豊富町豊富３３８３－１,,28,201,6792123,,,,,,,2022-12-23,1,,,,,コモンアイ,0
399,2140003018503,新規,0,2022-12-23,2022-12-23,合同会社牛刀,,合同会社,兵庫県,たつの市,新宮町佐野３７７番地７,,28,229,6794325,,,,,,,2022-12-23,1,,,,,ギュウトウ,0
400,2140003018511,新規,0,2022-12-23,2022-12-23,ヒカル合同会社,,合同会社,兵庫県,芦屋市,親王塚町１４番１４号,,28,206,6590016,,,,,,,2022-12-23,1,,,,,ヒカル,0
413,2180001154296,新規,0,2022-12-23,2022-12-23,株式会社チームセキュリティ,,株式会社,愛知県,名古屋市中村区,名駅南１丁目１４番２４号,,23,105,4500003,,,,,,,2022-12-23,1,,,,,チームセキュリティ,0
419,2180003024638,新規,0,2022-12-23,2022-12-23,合同会社ぷらっとＨＯＭＥ,,合同会社,愛知県,名古屋市緑区,姥子山２丁目９１１番地の７,,23,114,4580830,,,,,,,2022-12-23,1,,,,,プラットホーム,0
420,2180303005544,新規,0,2022-12-23,2022-12-23,合同会社ＬＩＬＹ,,合同会社,愛知県,西尾市,道光寺町寺内下１５番地１２,,23,213,4450811,,,,,,,2022-12-23,1,,,,,リリー,0
421,2190001030042,新規,0,2022-12-23,2022-12-23,将Ｌａｎｄｓｃａｐｅ株式会社,,株式会社,三重県,四日市市,京町１９番４号,,24,202,5100032,,,,,,,2022-12-23,1,,,,,マサランドスケープ,0
430,2240001060835,新規,0,2022-12-23,2022-12-23,ライフケア虹橋株式会社,,株式会社,広島県,広島市西区,古江新町五丁目２４－２０３,,34,104,7330873,,,,,,,2022-12-23,1,,,,,ライフケアニジハシノ,0
440,2280005007523,新規,0,2022-12-23,2022-12-23,特定非営利活動法人消費者ネットしまね,,その他の設立登記法人,島根県,松江市,国屋町５９２番地３－１,,32,201,6900859,,,,,,,2022-12-23,1,,,,,ショウヒシャネットシマネ,0
445,2290001100009,新規,0,2022-12-23,2022-12-23,株式会社さく松,,株式会社,福岡県,福岡市南区,若久３丁目２０番９号,,40,134,8150042,,,,,,,2022-12-23,1,,,,,サクマツ,0
456,2360001031353,新規,0,2022-12-23,2022-12-23,株式会社Ｖｅｈｉｃｌｅ,,株式会社,沖縄県,那覇市,松川２丁目４番１号,,47,201,9020062,,,,,,,2022-12-23,1,,,,,ヴィークル,0
457,2360001031361,新規,0,2022-12-23,2022-12-23,株式会社メタバース福州園,,株式会社,沖縄県,那覇市,首里末吉町４丁目１番地２２,,47,201,9030801,,,,,,,2022-12-23,1,,,,,メタバースフクシュウエン,0
458,2360003012590,新規,0,2022-12-23,2022-12-23,合同会社ＯＫアイランド商事,,合同会社,沖縄県,浦添市,字港川５２６番地４、２０１,,47,208,9012134,,,,,,,2022-12-23,1,,,,,オーケーアイランドショウジ,0
463,2390003002028,新規,0,2022-12-23,2022-12-23,合同会社ＲＡＳＩＫＵ,,合同会社,山形県,米沢市,下花沢２丁目４番９３号,,06,202,9920023,,,,,,,2022-12-23,1,,,,,ラシク,0
472,2430001088089,新規,0,2022-12-23,2022-12-23,株式会社フォーディーＲ,,株式会社,北海道,札幌市西区,西野十一条８丁目９番１５号,,01,107,0630041,,,,,,,2022-12-23,1,,,,,フォーディーアール,0
477,2460101007301,新規,0,2022-12-23,2022-12-23,株式会社ＮｅｕｒｏＴｒａｉｎ,,株式会社,北海道,帯広市,西二十三条南４丁目２９番地６,,01,207,0802473,,,,,,,2022-12-23,1,,,,,ニューロトレイン,0
479,2480001011954,新規,0,2022-12-23,2022-12-23,中平商事株式会社,,株式会社,徳島県,吉野川市,鴨島町牛島字四ツ家前３２６２番地１,,36,205,7760001,,,,,,,2022-12-23,1,,,,,ナカヒラショウジ,0
481,2500001024672,新規,0,2022-12-23,2022-12-23,株式会社グリーントライ,,株式会社,愛媛県,大洲市,肱川町山鳥坂７１番地,,38,207,7971504,,,,,,,2022-12-23,1,,,,,グリーントライ,0
482,2700150113487,新規,0,2022-12-23,2022-12-23,ＫＩＫＵＣＨＩ　ＥＱＵＩＰＭＥＮＴ＆ＥＮＧＩＮＥＥＲＩＮＧ　ＣＯＭＰＡＮＹ　ＬＩＭＩＴＥＤ　,,外国会社等,東京都,練馬区,高野台４丁目７番６号,,13,120,1770033,中華人民共和国澳門特別行政区＿仔海洋花園大馬路５２２－５２６号海洋広場３楼Ｆ座１５Ｅ室,00128867,,,,,2022-12-23,1,,,,,キクチイクウイツプメントアンドエンジニアリングカンパニーリミテツド,0
495,3010001231771,新規,0,2022-12-23,2022-12-23,株式会社ステレオタイプ,,株式会社,東京都,中央区,銀座１丁目１２番４号Ｎ＆Ｅ・ＢＬＤ．６Ｆ,,13,102,1040061,,,,,,,2022-12-23,1,,,,,ステレオタイプ,0
501,3010003039404,新規,0,2022-12-23,2022-12-23,合同会社波動Ｍａｔｒｉｘ,,合同会社,東京都,千代田区,神田淡路町１丁目１３番地日鉱ビル２０２号室,,13,101,1010063,,,,,,,2022-12-23,1,,,,,ハドウマトリクス,0
502,3010003039420,新規,0,2022-12-23,2022-12-23,トレードフェスタ合同会社,,合同会社,東京都,中央区,銀座１丁目２２番１１号銀座大竹ビジデンス２階,,13,102,1040061,,,,,,,2022-12-23,1,,,,,トレードフェスタ,0
503,3010005035905,新規,0,2022-12-23,2022-12-23,一般社団法人日本ピュ美ケア協会,,その他の設立登記法人,東京都,中央区,日本橋蛎殻町２丁目１５－９－８０１,,13,102,1030014,,,,,,,2022-12-23,1,,,,,ニホンピュビケアキョウカイ,0
513,3010403029178,新規,0,2022-12-23,2022-12-23,合同会社Ｄｒｅａｍ　Ｓｅａ,,合同会社,東京都,港区,海岸３丁目７－１７－４０８,,13,103,1080022,,,,,,,2022-12-23,1,,,,,ドリームシー,0
517,3010601062344,新規,0,2022-12-23,2022-12-23,株式会社えいえんのはち,,株式会社,東京都,江東区,東陽２丁目４番３４号東郷ビルＥ１０１,,13,108,1350016,,,,,,,2022-12-23,1,,,,,エイエンノハチ,0
518,3010701043649,新規,0,2022-12-23,2022-12-23,株式会社Ｐ‐３８ＤＥＳＩＧＮＷＯＲＫＳ,,株式会社,東京都,品川区,上大崎３丁目１１番１０号オープンレジデンシア目黒花房山３０２,,13,109,1410021,,,,,,,2022-12-23,1,,,,,ピーサンジュウハチデザインワークス,0
523,3010901052210,新規,0,2022-12-23,2022-12-23,株式会社ＪＪ,,株式会社,東京都,世田谷区,宇奈根１丁目２５番３号ブライアンＣ－１,,13,112,1570068,,,,,,,2022-12-23,1,,,,,ジェイジェイ,0
528,3011001151638,新規,0,2022-12-23,2022-12-23,ロワレーヌ株式会社,,株式会社,東京都,目黒区,自由が丘１丁目２６番１３号キューブ自由が丘４Ｆ,,13,110,1520035,,,,,,,2022-12-23,1,,,,,ロワレーヌ,0
529,3011001151654,新規,0,2022-12-23,2022-12-23,株式会社Ｗｏｒｌｄ　Ｐａｓｓｐｏｒｔ,,株式会社,東京都,渋谷区,神宮前６丁目１９－１２アオヤマビル６階,,13,113,1500001,,,,,,,2022-12-23,1,,,,,ワールドパスポート,0
531,3011003015980,新規,0,2022-12-23,2022-12-23,ＯＦＦ　ＴＨＥ　ＲＩＰ合同会社,,合同会社,東京都,目黒区,上目黒５丁目７番４号,,13,110,1530051,,,,,,,2022-12-23,1,,,,,オフザリップ,0
532,3011003015989,新規,0,2022-12-23,2022-12-23,合同会社ニシクラ,,合同会社,東京都,渋谷区,上原２丁目２２番６－１０３号,,13,113,1510064,,,,,,,2022-12-23,1,,,,,ニシクラ,0
539,3011101101286,新規,0,2022-12-23,2022-12-23,株式会社ＲＩＴＡＲＩＴＡ,,株式会社,東京都,新宿区,西新宿３丁目３番１３号西新宿水間ビル２Ｆ,,13,104,1600023,,,,,,,2022-12-23,1,,,,,リタリタ,0
542,3011105010500,新規,0,2022-12-23,2022-12-23,一般財団法人ネット詐欺撲滅推進機構,,その他の設立登記法人,東京都,新宿区,西新宿３丁目９番１号西新宿ティーオービル２階,,13,104,1600023,,,,,,,2022-12-23,1,,,,,ネットサギボクメツスイシンキコウ,0
548,3011603003781,新規,0,2022-12-23,2022-12-23,合同会社永和エステート,,合同会社,東京都,練馬区,田柄１丁目２２－２０,,13,120,1790073,,,,,,,2022-12-23,1,,,,,エイワエステート,0
561,3020001149484,新規,0,2022-12-23,2022-12-23,株式会社ＤＥＮＮＹＳ　ＷＯＲＬＤ．Ｉｎｃ,,株式会社,神奈川県,横浜市都筑区,葛が谷１３番７－６０１号,,14,118,2240062,,,,,,,2022-12-23,1,,,,,デニスワールドインク,0
562,3020001149526,新規,0,2022-12-23,2022-12-23,株式会社Ｐ‐ｓｅｎｓ,,株式会社,神奈川県,横浜市鶴見区,鶴見中央４丁目１７番地１号,,14,101,2300051,,,,,,,2022-12-23,1,,,,,,0
563,3020001149534,新規,0,2022-12-23,2022-12-23,株式会社Ｋｉｎｇ,,株式会社,神奈川県,横浜市保土ケ谷区,法泉２丁目９番１７号,,14,106,2400032,,,,,,,2022-12-23,1,,,,,キング,0
569,3021001077782,新規,0,2022-12-23,2022-12-23,株式会社ラグナ,,株式会社,神奈川県,藤沢市,亀井野３１９８番地ウイングコート１０１,,14,205,2520813,,,,,,,2022-12-23,1,,,,,ラグナ,0
570,3021001077790,新規,0,2022-12-23,2022-12-23,株式会社ブライト,,株式会社,神奈川県,相模原市緑区,橋本６丁目１番１４－１９０６号,,14,151,2520143,,,,,,,2022-12-23,1,,,,,ブライト,0
572,3021003012531,新規,0,2022-12-23,2022-12-23,合同会社ナカムラファーム,,合同会社,神奈川県,茅ヶ崎市,萩園１３７８番地８,,14,207,2530071,,,,,,,2022-12-23,1,,,,,ナカムラファーム,0
582,3030001151563,新規,0,2022-12-23,2022-12-23,株式会社ＲＥ　ＬＩＦＥ,,株式会社,埼玉県,久喜市,南栗橋２丁目１６番２７号,,11,232,3491117,,,,,,,2022-12-23,1,,,,,リライフ,0
583,3030001151613,新規,0,2022-12-23,2022-12-23,株式会社Ｇｓ,,株式会社,埼玉県,行田市,向町１４番２０号,,11,206,3610075,,,,,,,2022-12-23,1,,,,,ジーズ,0
584,3030001151646,新規,0,2022-12-23,2022-12-23,株式会社ＫＡＮＯ,,株式会社,埼玉県,入間市,大字野田８４２番地８,,11,225,3580054,,,,,,,2022-12-23,1,,,,,カノ,0
587,3030003020758,新規,0,2022-12-23,2022-12-23,プロトルホールディングス合同会社,,合同会社,埼玉県,入間郡越生町,大字古池７００番地弓阜山庄Ｅ１０１,,11,327,3500401,,,,,,,2022-12-23,1,,,,,プロトルホールディングス,0
588,3030003020799,新規,0,2022-12-23,2022-12-23,Ｓｅｌｆ　ｃｕｒｅ合同会社,,合同会社,埼玉県,川越市,稲荷町１７－４,,11,201,3501144,,,,,,,2022-12-23,1,,,,,セルフキュア,0
597,3040003021557,新規,0,2022-12-23,2022-12-23,Ｖｏｌｉｔｉｏｎ合同会社,,合同会社,千葉県,鎌ケ谷市,新鎌ケ谷３丁目１６番１２号,,12,224,2730107,,,,,,,2022-12-23,1,,,,,ボリション,0
598,3040003021565,新規,0,2022-12-23,2022-12-23,嶋コーポレーション合同会社,,合同会社,千葉県,習志野市,実籾５丁目１０番１１号ハッピーパレス１０３号,,12,216,2750002,,,,,,,2022-12-23,1,,,,,シマコーポレーション,0
607,3070001039953,新規,0,2022-12-23,2022-12-23,株式会社ｍｉｎｏ‐ｌｉｏ,,株式会社,群馬県,高崎市,中尾町４６７番地,,10,202,3700001,,,,,,,2022-12-23,1,,,,,ミノリオ,0
609,3070003004765,新規,0,2022-12-23,2022-12-23,合同会社大隅建築,,合同会社,群馬県,前橋市,亀泉町６４６番地８,,10,201,3710004,,,,,,,2022-12-23,1,,,,,オオスミケンチク,0
614,3080401026212,新規,0,2022-12-23,2022-12-23,株式会社オーエス,,株式会社,静岡県,浜松市中区,浅田町１６２番地の１,,22,131,4328043,,,,,,,2022-12-23,1,,,,,オーエス,0
620,3110001037192,新規,0,2022-12-23,2022-12-23,Ｃｒｅａｔｅ工業株式会社,,株式会社,新潟県,新潟市西蒲区,仁箇２７４５番地８８,,15,108,9530022,,,,,,,2022-12-23,1,,,,,クリエイトコウギョウ,0
638,3120001251214,新規,0,2022-12-23,2022-12-23,中建興業株式会社,,株式会社,大阪府,大阪市中央区,本町橋２－２３－７Ｆ,,27,128,5400029,,,,,,,2022-12-23,1,,,,,チュウケンコウギョウ,0
639,3120001251247,新規,0,2022-12-23,2022-12-23,Ａｎｎａ株式会社,,株式会社,大阪府,大阪市中央区,松屋町９番２０号ローレルステート松屋町５０４Ｂ,,27,128,5420067,,,,,,,2022-12-23,1,,,,,アンナ,0
640,3120001251271,新規,0,2022-12-23,2022-12-23,富佳商事株式会社,,株式会社,大阪府,大阪市大正区,三軒家西１丁目２５番１０号,,27,108,5510001,,,,,,,2022-12-23,1,,,,,トミヨシショウジ,0
641,3120001251305,新規,0,2022-12-23,2022-12-23,株式会社Ｃ‐ＮＥＸＴ,,株式会社,大阪府,枚方市,西招提町１１３７番地の３１,,27,210,5731137,,,,,,,2022-12-23,1,,,,,シーネクスト,0
642,3120001251313,新規,0,2022-12-23,2022-12-23,株式会社ＰＯＬ,,株式会社,大阪府,大阪市北区,豊崎３丁目１７番１２号オカビル２階,,27,127,5310072,,,,,,,2022-12-23,1,,,,,ポル,0
646,3120003023140,新規,0,2022-12-23,2022-12-23,合同会社Ｒｅ‐ＮＫ,,合同会社,大阪府,大阪市中央区,久太郎町４丁目２番１５号,,27,128,5410056,,,,,,,2022-12-23,1,,,,,リンク,0
648,3120005023361,新規,0,2022-12-23,2022-12-23,一般社団法人未来の子,,その他の設立登記法人,大阪府,守口市,大庭町２丁目１７番８号,,27,209,5700009,,,,,,,2022-12-23,1,,,,,ミライノコ,0
657,3130001073351,新規,0,2022-12-23,2022-12-23,株式会社エイト,,株式会社,京都府,京都市伏見区,横大路天王前２７番地,,26,109,6128294,,,,,,,2022-12-23,1,,,,,エイト,0
664,3150001026035,新規,0,2022-12-23,2022-12-23,ウメールトレーディング株式会社,,株式会社,奈良県,御所市,大字小殿５０３－３,,29,208,6392257,,,,,,,2022-12-23,1,,,,,ウメールトレーディング,0
666,3160001024723,新規,0,2022-12-23,2022-12-23,吉川商店株式会社,00128889,株式会社,滋賀県,長浜市,西浅井町横波１７８番地,,25,203,5290705,,,,,,,2022-12-23,1,,,,,ヨシカワショウテン,0
677,3180001154304,新規,0,2022-12-23,2022-12-23,株式会社ＴＨＥ　ＦＩＶＥ,,株式会社,愛知県,名古屋市中村区,名駅３丁目４番１０号アルティメイト名駅１ｓｔ２階,,23,105,4500002,,,,,,,2022-12-23,1,,,,,ザファイブ,0
678,3180001154320,新規,0,2022-12-23,2022-12-23,株式会社Ｂ　ＦＯＯＤ　ＪＡＰＡＮ,,株式会社,愛知県,名古屋市名東区,本郷３丁目５番地グロウバルビル５階Ａ号室,,23,115,4650024,,,,,,,2022-12-23,1,,,,,,0
681,3180003024637,新規,0,2022-12-23,2022-12-23,合同会社翔,,合同会社,愛知県,豊明市,間米町間米１８８番地ローズカレッジ２０２号,,23,229,4701132,,,,,,,2022-12-23,1,,,,,ショウ,0
682,3180003024645,新規,0,2022-12-23,2022-12-23,合同会社東海不動産,,合同会社,愛知県,名古屋市守山区,新守町２５３番地の２,,23,113,4630071,,,,,,,2022-12-23,1,,,,,トウカイフドウサン,0
687,3200001040807,新規,0,2022-12-23,2022-12-23,株式会社ＫｅｅＰ,,株式会社,岐阜県,関市,広見７６１番地４,,21,205,5013263,,,,,,,2022-12-23,1,,,,,ケープ,0
698,3240003005944,新規,0,2022-12-23,2022-12-23,合同会社創美家,,合同会社,広島県,竹原市,忠海床浦３丁目４番９号,,34,203,7292314,,,,,,,2022-12-23,1,,,,,ソウビヤ,0
708,3290001100008,新規,0,2022-12-23,2022-12-23,株式会社ＢＭ　ｗａｌｋｉｎｇ,,株式会社,福岡県,福岡市博多区,博多駅前１丁目２３番１号ＰａｒｋＦｒｏｎｔ博多駅前一丁目５Ｆ－Ｂ,,40,132,8120011,,,,,,,2022-12-23,1,,,,,ビーエムウォーキング,0
716,3330001030423,新規,0,2022-12-23,2022-12-23,株式会社ＡＰＯＬＯ,,株式会社,熊本県,荒尾市,大島９１－６－５００,,43,204,8640057,,,,,,,2022-12-23,1,,,,,アポロ,0
721,3350001018094,新規,0,2022-12-23,2022-12-23,株式会社お芋どん出荷組合,,株式会社,宮崎県,宮崎市,新別府町南田１０７６番地１,,45,201,8800834,,,,,,,2022-12-23,1,,,,,オイモドンシュッカクミアイ,0
723,3370001049402,新規,0,2022-12-23,2022-12-23,じもと株式会社,,株式会社,宮城県,富谷市,日吉台３丁目３番地１５,,04,216,9813362,,,,,,,2022-12-23,1,,,,,ジモト,0
728,3430001088088,新規,0,2022-12-23,2022-12-23,株式会社ありま,,株式会社,北海道,石狩市,花畔３３８番地１２７,,01,235,0613218,,,,,,,2022-12-23,1,,,,,アリマ,0
731,3430003014579,新規,0,2022-12-23,2022-12-23,アシストライフ合同会社,,合同会社,北海道,札幌市清田区,平岡四条６丁目１０番８号,,01,110,0040874,,,,,,,2022-12-23,1,,,,,アシストライフ,0
750,4010001231845,新規,0,2022-12-23,2022-12-23,チュアオトレーディングジャパン株式会社,,株式会社,東京都,千代田区,五番町１２番地７－２０４３,,13,101,1020076,,,,,,,2022-12-23,1,,,,,チュアオトレーディングジャパン,0
752,4010101015470,新規,0,2022-12-23,2022-12-23,株式会社宝麗,,株式会社,東京都,八王子市,小比企町５３６番地３０守屋コーポ１０２号室,,13,201,1930934,,,,,,,2022-12-23,1,,,,,ホウレイ,0
764,4010403029144,新規,0,2022-12-23,2022-12-23,合同会社Ａｌｔｅｒｎａ　Ｔｈｒｅｅ,,合同会社,東京都,港区,高輪４丁目１１－２９藤和高輪ホームズ２０３号,,13,103,1080074,,,,,,,2022-12-23,1,,,,,オルタナスリー,0
765,4010501049795,新規,0,2022-12-23,2022-12-23,株式会社アルケミスト,,株式会社,東京都,台東区,千束４丁目３３－１４ケルン浅草１０１,,13,106,1110031,,,,,,,2022-12-23,1,,,,,アルケミスト,0
771,4010701043648,新規,0,2022-12-23,2022-12-23,ＳＩＳ株式会社,,株式会社,東京都,品川区,東五反田２丁目６番５－１０１号,,13,109,1410022,,,,,,,2022-12-23,1,,,,,シス,0
774,4010901052201,新規,0,2022-12-23,2022-12-23,株式会社蔦の音,,株式会社,東京都,世田谷区,松原６丁目２４番２１号,,13,112,1560043,,,,,,,2022-12-23,1,,,,,ツタノオト,0
777,4011001151521,新規,0,2022-12-23,2022-12-23,株式会社マーケストラ,,株式会社,東京都,渋谷区,代々木４丁目２８番８号代々木村田マンション４１０号室,,13,113,1510053,,,,,,,2022-12-23,1,,,,,マーケストラ,0
778,4011001151620,新規,0,2022-12-23,2022-12-23,ＲＪ株式会社,,株式会社,東京都,目黒区,東が丘２丁目３番２４号,,13,110,1520021,,,,,,,2022-12-23,1,,,,,アールジェイ,0
779,4011001151661,新規,0,2022-12-23,2022-12-23,Ａｏ．株式会社,,株式会社,東京都,渋谷区,恵比寿南１丁目１番４号,,13,113,1500022,,,,,,,2022-12-23,1,,,,,アオ,0
784,4011201024312,新規,0,2022-12-23,2022-12-23,株式会社べじはん,,株式会社,東京都,中野区,中央５丁目３番１１号,,13,114,1640011,,,,,,,2022-12-23,1,,,,,ベジハン,0
792,4011501028764,新規,0,2022-12-23,2022-12-23,ｆａｃｅｗｏｒｌｄ株式会社,,株式会社,東京都,荒川区,南千住４丁目９番２－３７０３号,,13,118,1160003,,,,,,,2022-12-23,1,,,,,フェイスワールド,0
796,4011701025900,新規,0,2022-12-23,2022-12-23,株式会社ヘルスウェルコネクト,,株式会社,東京都,江戸川区,春江町２丁目３８番地２号,,13,123,1320003,,,,,,,2022-12-23,1,,,,,ヘルスウェルコネクト,0
798,4011801041715,新規,0,2022-12-23,2022-12-23,株式会社Ｋ‐ＬＩＮＥ,,株式会社,東京都,葛飾区,東金町１丁目４５番地１２号ＡＳビル,,13,122,1250041,,,,,,,2022-12-23,1,,,,,ケーライン,0
799,4011801041723,新規,0,2022-12-23,2022-12-23,株式会社カミナリウム,,株式会社,東京都,足立区,島根４丁目１４番１８号,,13,121,1210815,,,,,,,2022-12-23,1,,,,,カミナリウム,0
800,4012301013262,新規,0,2022-12-23,2022-12-23,株式会社Ｂ．Ｃ,,株式会社,東京都,町田市,小野路町１７５３番地１ヴィレッジアンビション１０１,,13,209,1950064,,,,,,,2022-12-23,1,,,,,ビーシー,0
803,4012803002952,新規,0,2022-12-23,2022-12-23,合同会社ＫＮ,,合同会社,東京都,立川市,曙町２丁目２０番１６号,,13,202,1900012,,,,,,,2022-12-23,1,,,,,ケイエヌ,0
813,4020001149525,新規,0,2022-12-23,2022-12-23,ＧＲＡＮＤ・Ｋ株式会社,,株式会社,神奈川県,横浜市中区,伊勢佐木町１丁目７番３号ＮＴビル２Ｆ,,14,104,2310045,,,,,,,2022-12-23,1,,,,,グランドケー,0
814,4020001149533,新規,0,2022-12-23,2022-12-23,合吉株式会社,,株式会社,神奈川県,横浜市南区,白妙町２丁目７番地１０グランパーク横濱南６０１号,,14,105,2320023,,,,,,,2022-12-23,1,,,,,ゴウキチ,0
817,4020003022952,新規,0,2022-12-23,2022-12-23,合同会社リープフロッグトレーディング,,合同会社,神奈川県,川崎市川崎区,駅前本町１１番地２川崎フロンティアビル４階,,14,131,2100007,,,,,,,2022-12-23,1,,,,,リープフロッグトレーディング,0
835,4030001151554,新規,0,2022-12-23,2022-12-23,株式会社国際協力事業,,株式会社,埼玉県,比企郡小川町,大字大塚１１６－１,,11,343,3550328,,,,,,,2022-12-23,1,,,,,コクサイキョウリョクジギョウ,0
836,4030001151595,新規,0,2022-12-23,2022-12-23,株式会社フォース,,株式会社,埼玉県,さいたま市緑区,芝原３丁目３０番地３,,11,109,3360917,,,,,,,2022-12-23,1,,,,,フォース,0
837,4030001151604,新規,0,2022-12-23,2022-12-23,チャックスカンパニー株式会社,,株式会社,埼玉県,鴻巣市,松原２丁目６番２１号,,11,217,3650042,,,,,,,2022-12-23,1,,,,,チャックスカンパニー,0
838,4030001151612,新規,0,2022-12-23,2022-12-23,株式会社ＳＵＮ,,株式会社,埼玉県,さいたま市南区,根岸３丁目３０番４号,,11,108,3360024,,,,,,,2022-12-23,1,,,,,サン,0
839,4030001151629,新規,0,2022-12-23,2022-12-23,株式会社ＳＴＹＬＥ,,株式会社,埼玉県,越谷市,越ヶ谷１丁目１２番２４号ｋｕｒａｓｕ１０３,,11,222,3430813,,,,,,,2022-12-23,1,,,,,スタイル,0
840,4030001151637,新規,0,2022-12-23,2022-12-23,株式会社エノキド,,株式会社,埼玉県,戸田市,美女木１丁目２５番地の４,,11,224,3350031,,,,,,,2022-12-23,1,,,,,エノキドエノキド,0
851,4030003020757,新規,0,2022-12-23,2022-12-23,ガオホールディングス合同会社,,合同会社,埼玉県,入間郡越生町,大字古池７００番地弓阜山庄Ｅ１０６,,11,327,3500401,,,,,,,2022-12-23,1,,,,,ガオホールディングス,0
857,4040001125986,新規,0,2022-12-23,2022-12-23,ＴＭ技建株式会社,,株式会社,千葉県,野田市,岡田８７２番地１０９,,12,208,2700223,,,,,,,2022-12-23,1,,,,,ティーエムギケン,0
859,4040003021564,新規,0,2022-12-23,2022-12-23,ＯＮＬＹ合同会社,,合同会社,千葉県,船橋市,田喜野井５丁目２６番３０号,,12,204,2740073,,,,,,,2022-12-23,1,,,,,オンリー,0
860,4040003021572,新規,0,2022-12-23,2022-12-23,合同会社ＤｅＭａｉｓ,,合同会社,千葉県,柏市,西原４丁目１０番１７－１１号,,12,217,2770885,,,,,,,2022-12-23,1,,,,,デマイス,0
863,4050001052131,新規,0,2022-12-23,2022-12-23,Ｊ‐Ｓｑｕａｒｅ　Ｔｅｃｈｎｏｌｏｇｉｅｓ株式会社,,株式会社,茨城県,つくば市,下河原崎２７４番地１９（高山Ｄ１８街区２）,,08,220,3002662,,,,,,,2022-12-23,1,,,,,ジェイスクエアテクノロジーズ,0
866,4050003007109,新規,0,2022-12-23,2022-12-23,ＭＣＥ合同会社,,合同会社,茨城県,水戸市,金町３丁目１－１３,,08,201,3100066,,,,,,,2022-12-23,1,,,,,エムシーイー,0
867,4050003007117,新規,0,2022-12-23,2022-12-23,合同会社ランドクリエイト,,合同会社,茨城県,鉾田市,造谷１３７５番地３４４,,08,234,3111415,,,,,,,2022-12-23,1,,,,,ランドクリエイト,0
879,4110001037191,新規,0,2022-12-23,2022-12-23,エーステック株式会社,,株式会社,新潟県,新潟市西区,木場２３１番地１,,15,107,9501122,,,,,,,2022-12-23,1,,,,,エーステック,0
898,4120001251270,新規,0,2022-12-23,2022-12-23,福丸不動産株式会社,,株式会社,大阪府,大阪市東淀川区,瑞光１丁目１１番１号,,27,114,5330005,,,,,,,2022-12-23,1,,,,,フクマルフドウサン,0
899,4120001251312,新規,0,2022-12-23,2022-12-23,株式会社ドットエム,,株式会社,大阪府,大阪市西区,立売堀６丁目７番５１号プレサンス立売堀パークシティ１４０２号室,,27,106,5500012,,,,,,,2022-12-23,1,,,,,ドットエム,0
900,4120001251320,新規,0,2022-12-23,2022-12-23,株式会社ジョブアテンド,,株式会社,大阪府,大阪市都島区,片町２丁目７番５７号,,27,102,5340025,,,,,,,2022-12-23,1,,,,,ジョブアテンド,0
901,4120001251337,新規,0,2022-12-23,2022-12-23,株式会社ｆａｌｃｏ,,株式会社,大阪府,大阪市北区,東天満２丁目３番７－２４０３号,,27,127,5300044,,,,,,,2022-12-23,1,,,,,ファルコ,0
911,4120005023360,新規,0,2022-12-23,2022-12-23,一般社団法人チーム関西,,その他の設立登記法人,大阪府,大阪市北区,中之島５丁目３番５１号,,27,127,5300005,,,,,,,2022-12-23,1,,,,,チームカンサイ,0
912,4120101066718,新規,0,2022-12-23,2022-12-23,フルブルーム株式会社,,株式会社,大阪府,泉南郡熊取町,希望が丘３丁目３番５４号,,27,361,5900422,,,,,,,2022-12-23,1,,,,,フルブルーム,0
913,4120101066726,新規,0,2022-12-23,2022-12-23,株式会社Ｍ＆Ｒファクトリー,,株式会社,大阪府,堺市北区,百舌鳥梅町３丁３９番地３７リヴェール３０３号室,,27,146,5918032,,,,,,,2022-12-23,1,,,,,エムアンドアールファクトリー,0
915,4120901046902,新規,0,2022-12-23,2022-12-23,株式会社ハイブリ,,株式会社,大阪府,豊中市,螢池北町２丁目３番４５の１号,,27,203,5600031,,,,,,,2022-12-23,1,,,,,ハイブリ,0
916,4120903004429,新規,0,2022-12-23,2022-12-23,合同会社イデアル,,合同会社,大阪府,摂津市,一津屋２丁目１１－２２,,27,224,5660043,,,,,,,2022-12-23,1,,,,,イデアル,0
923,4130001073359,新規,0,2022-12-23,2022-12-23,株式会社雲濤,,株式会社,京都府,京都市中京区,麩屋町通二条上る布袋屋町５２０番地３,,26,104,6040963,,,,,,,2022-12-23,1,,,,,ユンタオ,0
930,4160001024722,新規,0,2022-12-23,2022-12-23,株式会社ゆめ結び,,株式会社,滋賀県,甲賀市,土山町北土山９３３番地１５,,25,209,5280211,,,,,,,2022-12-23,1,,,,,ユメムスビ,0
942,4180001154294,新規,0,2022-12-23,2022-12-23,株式会社Ｔｓソリューションズ,,株式会社,愛知県,名古屋市千種区,千種２丁目２３番６号,,23,101,4640858,,,,,,,2022-12-23,1,,,,,ティーエスソリューションズ,0
943,4180001154311,新規,0,2022-12-23,2022-12-23,ＫＵＩＹＡ株式会社,,株式会社,愛知県,名古屋市中村区,名駅２丁目３６番２号,,23,105,4500002,,,,,,,2022-12-23,1,,,,,クイヤ,0
950,4180303005550,新規,0,2022-12-23,2022-12-23,合同会社フレーフレー,,合同会社,愛知県,西尾市,今川町仲屋敷４８―２ムシカ事務所Ｄ号,,23,213,4450063,,,,,,,2022-12-23,1,,,,,フレーフレー,0
955,4210003001598,新規,0,2022-12-23,2022-12-23,合同会社みかんせい啓学,,合同会社,福井県,福井市,二の宮２丁目２８－２１セントラルヴィレッジ２Ｂ,,18,201,9100015,,,,,,,2022-12-23,1,,,,,ミカンセイケイガク,0
962,4240001060833,新規,0,2022-12-23,2022-12-23,株式会社仁,,株式会社,広島県,福山市,南蔵王町４丁目８番３７号,,34,207,7210973,,,,,,,2022-12-23,1,,,,,ジン,0
968,4280001008853,新規,0,2022-12-23,2022-12-23,ＴＦ工業株式会社,,株式会社,島根県,雲南市,加茂町神原９４２番地１,,32,209,6991121,,,,,,,2022-12-23,1,,,,,ティーエフコウギョウ,0
970,4290001100007,新規,0,2022-12-23,2022-12-23,ＭａｒｂｌｅＸＲ株式会社,,株式会社,福岡県,福岡市博多区,博多駅前１丁目２３番１号ＰａｒｋＦｒｏｎｔ博多駅前一丁目５Ｆ－Ｂ,,40,132,8120011,,,,,,,2022-12-23,1,,,,,マーブルクロスアール,0
974,4290003013339,新規,0,2022-12-23,2022-12-23,合同会社紫輝,,合同会社,福岡県,大野城市,錦町２丁目２番１１－８０５号,,40,219,8160935,,,,,,,2022-12-23,1,,,,,シキ,0
976,4300001013173,新規,0,2022-12-23,2022-12-23,株式会社Ｓファーム,,株式会社,佐賀県,佐賀市,兵庫北３丁目１２番２５号,,41,201,8490919,,,,,,,2022-12-23,1,,,,,エスファーム,0
979,4330001030422,新規,0,2022-12-23,2022-12-23,株式会社ピース,,株式会社,熊本県,阿蘇市,黒川２１６３番地,,43,214,8692225,,,,,,,2022-12-23,1,,,,,ピース,0
983,4340001025256,新規,0,2022-12-23,2022-12-23,株式会社ＰｌｕｓＯｎｅ,,株式会社,鹿児島県,鹿児島市,中山町７６７番地１リバーサイドＡ１０２号,,46,201,8910105,,,,,,,2022-12-23,1,,,,,プラスワン,0
984,4350001018093,新規,0,2022-12-23,2022-12-23,株式会社ティンパー,,株式会社,宮崎県,宮崎市,高洲町２６８番地７６,,45,201,8800852,,,,,,,2022-12-23,1,,,,,ティンパー,0
985,4370001049401,新規,0,2022-12-23,2022-12-23,株式会社北日本ソーシャルファーム,,株式会社,宮城県,仙台市青葉区,支倉町２番１９号,,04,101,9800824,,,,,,,2022-12-23,1,,,,,キタニホンソーシャルファーム,0
993,4400001016100,新規,0,2022-12-23,2022-12-23,アーキ不動産株式会社,,株式会社,岩手県,岩手郡岩手町,大字土川第２地割１７番地１６７,,03,303,0284423,,,,,,,2022-12-23,1,,,,,アーキフドウサン,0
997,4420003002641,新規,0,2022-12-23,2022-12-23,合同会社リヴィズ,,合同会社,青森県,青森市,奥野４丁目６－１３,,02,201,0300841,,,,,,,2022-12-23,1,,,,,リヴィズ,0
1017,5010001231836,新規,0,2022-12-23,2022-12-23,株式会社Ｆｌｅｘｅｎｅｔ　Ｊａｐａｎ,,株式会社,東京都,千代田区,霞が関３丁目２番５号霞が関ビルディング３０階,,13,101,1000013,,,,,,,2022-12-23,1,,,,,フレクスネットジャパン,0
1021,5010003039360,新規,0,2022-12-23,2022-12-23,合同会社ＯＩＭＹ,,合同会社,東京都,中央区,晴海２丁目３番３０号ザ・パークハウス晴海タワーズクロノレジデンス１８１８,,13,102,1040053,,,,,,,2022-12-23,1,,,,,オイミー,0
1022,5010003039410,新規,0,2022-12-23,2022-12-23,Ｌｉｎｋｌｏｇｙ合同会社,,合同会社,東京都,文京区,千石２丁目４２－１,,13,105,1120011,,,,,,,2022-12-23,1,,,,,リンクロジー,0
1040,5010501049794,新規,0,2022-12-23,2022-12-23,株式会社Ｈプランニング,,株式会社,東京都,台東区,千束４丁目３３－１４ケルン浅草１０１,,13,106,1110031,,,,,,,2022-12-23,1,,,,,エイチプランニング,0
1058,5011001151644,新規,0,2022-12-23,2022-12-23,株式会社レッドリボン軍,,株式会社,東京都,目黒区,目黒３丁目２番１号,,13,110,1530063,,,,,,,2022-12-23,1,,,,,レッドリボングン,0
1059,5011005009888,新規,0,2022-12-23,2022-12-23,土地家屋調査士法人グリニッジ・スタンダード,,その他の設立登記法人,東京都,渋谷区,富ヶ谷１丁目５１番８号,,13,113,1510063,,,,,,,2022-12-23,1,,,,,グリニッジスタンダード,0
1069,5011701025899,新規,0,2022-12-23,2022-12-23,伝ＳＨＯＷ株式会社,,株式会社,東京都,江戸川区,東小岩６丁目２５番１３号,,13,123,1330052,,,,,,,2022-12-23,1,,,,,デンショウ,0
1073,5012401039925,新規,0,2022-12-23,2022-12-23,株式会社カロンジャパン,,株式会社,東京都,武蔵野市,御殿山１丁目３番７号ＦＩビル御殿山１階,,13,203,1800005,,,,,,,2022-12-23,1,,,,,カロンジャパン,0
1085,5020001149532,新規,0,2022-12-23,2022-12-23,株式会社マクアグリ,,株式会社,神奈川県,横浜市西区,中央１丁目１０番１７号センターハウスＹＨ２階,,14,103,2200051,,,,,,,2022-12-23,1,,,,,マクアグリ,0
1086,5020001149540,新規,0,2022-12-23,2022-12-23,株式会社Ｓｕｒｇｉｃａｌ　Ｆｏｒｃｅ,,株式会社,神奈川県,横浜市都筑区,荏田東４丁目３６－２９,,14,118,2240006,,,,,,,2022-12-23,1,,,,,サージカルフォース,0
1098,5030001151594,新規,0,2022-12-23,2022-12-23,株式会社ファストパートナー,,株式会社,埼玉県,川口市,金山町１２番１－２３０７号サウスゲートタワー川口,,11,203,3320014,,,,,,,2022-12-23,1,,,,,ファストパートナー,0
1099,5030001151611,新規,0,2022-12-23,2022-12-23,株式会社オータム,,株式会社,埼玉県,草加市,松原５丁目９番１０－１号,,11,221,3400041,,,,,,,2022-12-23,1,,,,,オータム,0
1107,5030003020822,新規,0,2022-12-23,2022-12-23,ＭＧ　ＴＲＡＤＩＮＧ合同会社,,合同会社,埼玉県,越谷市,神明町３丁目２２４番地１,,11,222,3430805,,,,,,,2022-12-23,1,,,,,エムジートレーディング,0
1113,5040001126348,新規,0,2022-12-23,2022-12-23,株式会社エドサービス,,株式会社,千葉県,市川市,若宮１丁目２番１７号,,12,203,2720812,,,,,,,2022-12-23,1,,,,,エドサービス,0
1114,5040001126372,新規,0,2022-12-23,2022-12-23,株式会社ＦＧ,,株式会社,千葉県,千葉市中央区,富士見１丁目１３番９号千葉センタービル６階Ｃ,,12,101,2600015,,,,,,,2022-12-23,1,,,,,エフジー,0
1116,5040003021555,新規,0,2022-12-23,2022-12-23,合同会社ライスケアサポート,,合同会社,千葉県,松戸市,新松戸３丁目２９６番地サンライトパストラル壱番街Ｃ－６１１号,,12,207,2700034,,,,,,,2022-12-23,1,,,,,ライスケアサポート,0
1118,5050001052139,新規,0,2022-12-23,2022-12-23,株式会社シャイニング,,株式会社,茨城県,土浦市,立田町３番２６号,,08,203,3000041,,,,,,,2022-12-23,1,,,,,シャイニング,0
1119,5050003007082,新規,0,2022-12-23,2022-12-23,合同会社Ｆｏｒｅｓｔｃｈｏｒｄ,,合同会社,茨城県,土浦市,小松３丁目２２番６号,,08,203,3000823,,,,,,,2022-12-23,1,,,,,フォレストコード,0
1120,5050003007108,新規,0,2022-12-23,2022-12-23,合同会社ＡｅｒｏＦｌｅｘ,,合同会社,茨城県,つくば市,吾妻１丁目５－７ダイワロイネットホテル２階,,08,220,3050031,,,,,,,2022-12-23,1,,,,,エアロフレックス,0
1124,5070001039951,新規,0,2022-12-23,2022-12-23,Ｇ・Ｉ・Ｓ株式会社,,株式会社,群馬県,前橋市,富士見町山口４２９番地１,,10,201,3710107,,,,,,,2022-12-23,1,,,,,ジーアイエス,0
1126,5080001025364,新規,0,2022-12-23,2022-12-23,株式会社ｚｅｒｏｔｈ,,株式会社,静岡県,静岡市駿河区,大谷３丁目２３番１３号,,22,102,4228017,,,,,,,2022-12-23,1,,,,,ゼロス,0
1127,5080101023706,新規,0,2022-12-23,2022-12-23,株式会社ＳＬＵＳＳ,,株式会社,静岡県,沼津市,岡一色７２５番地の１Ｂ－４,,22,203,4100012,,,,,,,2022-12-23,1,,,,,スルス,0
1131,5100001035988,新規,0,2022-12-23,2022-12-23,株式会社ｏｎｅトレイディング,,株式会社,長野県,上田市,東内２１６,,20,203,3860413,,,,,,,2022-12-23,1,,,,,ワントレイディング,0
1144,5120001251237,新規,0,2022-12-23,2022-12-23,株式会社ＳＴＹＬＥ　ＮＥＷ　ＳＴＡＲ,,株式会社,大阪府,大阪市住之江区,緑木１丁目２番３１号,,27,125,5590022,,,,,,,2022-12-23,1,,,,,スタイルニュースター,0
1145,5120001251286,新規,0,2022-12-23,2022-12-23,株式会社ＭＫコンサルティング,,株式会社,大阪府,守口市,南寺方東通４丁目３番１４号,,27,209,5700043,,,,,,,2022-12-23,1,,,,,エムケイコンサルティング,0
1146,5120001251294,新規,0,2022-12-23,2022-12-23,Ｉｎｔｅｒ　Ｑｕｅｓｔ株式会社,,株式会社,大阪府,大阪市住之江区,新北島２丁目２番４７号３Ｆ,,27,125,5590024,,,,,,,2022-12-23,1,,,,,インタークエスト,0
1155,5120003023130,新規,0,2022-12-23,2022-12-23,合同会社仁,,合同会社,大阪府,大阪市生野区,田島４丁目１５番１５号シャーメゾン天谷ハイツ２０１,,27,116,5440011,,,,,,,2022-12-23,1,,,,,ジン,0
1157,5120101066700,新規,0,2022-12-23,2022-12-23,日本新能源装備株式会社,,株式会社,大阪府,松原市,松ケ丘４丁目２０－１２,,27,217,5800042,,,,,,,2022-12-23,1,,,,,ニホンシンノウゲンソウビ,0
1158,5120101066725,新規,0,2022-12-23,2022-12-23,株式会社Ｆｅ　Ｔｒｕｔｈ,,株式会社,大阪府,羽曳野市,島泉１丁目１０番７－１０３号,,27,222,5830881,,,,,,,2022-12-23,1,,,,,エフイートゥルース,0
1161,5120105009655,新規,0,2022-12-23,2022-12-23,社会福祉法人たんぽぽ,,その他の設立登記法人,大阪府,堺市北区,南長尾町１丁２番２５号,,27,146,5918045,,,,,,,2022-12-23,1,,,,,タンポポ,0
1164,5120901046892,新規,0,2022-12-23,2022-12-23,リアルローブ株式会社,,株式会社,大阪府,豊中市,向丘１丁目７番１５－９１３号,,27,203,5600053,,,,,,,2022-12-23,1,,,,,リアルローブ,0
1168,5122001036527,新規,0,2022-12-23,2022-12-23,中務総研キャッシュマネジメント株式会社,,株式会社,大阪府,八尾市,青山町２丁目３号３番サニーコート青山５０３号室,,27,212,5810018,,,,,,,2022-12-23,1,,,,,ナカツカソウケンキャッシュマネジメント,0
1175,5140001128516,新規,0,2022-12-23,2022-12-23,株式会社スペース,,株式会社,兵庫県,芦屋市,親王塚町８番８号,00128884,28,206,6590016,,,,,,,2022-12-23,1,,,,,スペース,0
1176,5140001128540,新規,0,2022-12-23,2022-12-23,株式会社トラム,,株式会社,兵庫県,神崎郡福崎町,高橋４３番地６,,28,443,6792216,,,,,,,2022-12-23,1,,,,,トラム,0
1189,5170003001809,新規,0,2022-12-23,2022-12-23,合同会社ｚ‐Ｒｅ’ｓ,,合同会社,和歌山県,和歌山市,口須佐１６９番地３,,30,201,6400364,,,,,,,2022-12-23,1,,,,,ジーリッツ,0
1197,5180001154327,新規,0,2022-12-23,2022-12-23,株式会社ユアークス,,株式会社,愛知県,小牧市,堀の内４丁目５３番地１,,23,219,4850046,,,,,,,2022-12-23,1,,,,,ユアークス,0
1203,5180003024643,新規,0,2022-12-23,2022-12-23,ＴＭ合同会社,,合同会社,愛知県,名古屋市中区,新栄３丁目１４番２７号伊藤ビル１階,,23,106,4600007,,,,,,,2022-12-23,1,,,,,ティエム,0
1206,5180301036927,新規,0,2022-12-23,2022-12-23,株式会社フクシのミカタ,,株式会社,愛知県,豊橋市,草間町字二本松５番地１,,23,201,4418141,,,,,,,2022-12-23,1,,,,,フクシノミカタ,0
1214,5230003001950,新規,0,2022-12-23,2022-12-23,合同会社越澤,,合同会社,富山県,富山市,笹津１３２番地,,16,201,9392223,,,,,,,2022-12-23,1,,,,,コシザワ,0
1223,5280001008852,新規,0,2022-12-23,2022-12-23,株式会社あるぱ,,株式会社,島根県,出雲市,姫原３丁目７番地５,,32,203,6930068,,,,,,,2022-12-23,1,,,,,アルパ,0
1225,5280003001681,新規,0,2022-12-23,2022-12-23,ＦＡシステム合同会社,,合同会社,島根県,松江市,東朝日町７番地３,,32,201,6900001,,,,,,,2022-12-23,1,,,,,エフエーシステム,0
1227,5290001099998,新規,0,2022-12-23,2022-12-23,株式会社濱口漁業,,株式会社,福岡県,福岡市早良区,高取２丁目５番４６－３１０号キルンズ高取,,40,137,8140011,,,,,,,2022-12-23,1,,,,,ハマグチギョギョウ,0
1233,5290805009616,新規,0,2022-12-23,2022-12-23,社会福祉法人ｂｏｏｎ,,その他の設立登記法人,福岡県,北九州市小倉北区,黒原３丁目１５番１２号,,40,106,8020051,,,,,,,2022-12-23,1,,,,,ブーン,0
1241,5320001019481,新規,0,2022-12-23,2022-12-23,株式会社ティーズ,,株式会社,大分県,中津市,耶馬溪町大字戸原１１４２番地９,,44,203,8710404,,,,,,,2022-12-23,1,,,,,ティーズ,0
1245,5360001031350,新規,0,2022-12-23,2022-12-23,株式会社ＭＯＡＩ,,株式会社,沖縄県,那覇市,赤嶺２丁目７番１１号２階,,47,201,9010154,,,,,,,2022-12-23,1,,,,,モアイ,0
1246,5360001031359,新規,0,2022-12-23,2022-12-23,株式会社オフショアデジタル,,株式会社,沖縄県,那覇市,首里末吉町４丁目１番地２２,,47,201,9030801,,,,,,,2022-12-23,1,,,,,オフショアデジタル,0
1253,5400001016099,新規,0,2022-12-23,2022-12-23,株式会社オーシークラフト,,株式会社,岩手県,岩手郡雫石町,長山麁台久保１３番地４３,,03,301,0200585,,,,,,,2022-12-23,1,,,,,オーシークラフト,0
1263,5440003001500,新規,0,2022-12-23,2022-12-23,合同会社ｅＮ,,合同会社,北海道,北斗市,本町１丁目９番２６号,,01,236,0411201,,,,,,,2022-12-23,1,,,,,エン,0
1266,5490001010366,新規,0,2022-12-23,2022-12-23,株式会社片岡造船所,,株式会社,高知県,宿毛市,大島１４番４５－６９号,,39,208,7880014,,,,,,,2022-12-23,1,,,,,カタオカゾウセンショ,0
1271,5500003002938,新規,0,2022-12-23,2022-12-23,合同会社あそ部プロジェクト,,合同会社,愛媛県,今治市,伯方町伊方乙３９３,,38,202,7942303,,,,,,,2022-12-23,1,,,,,,0
1272,5700150113492,新規,0,2022-12-23,2022-12-23,ＨＫ　ＳＨＩＹＩＮ　ＩＮＤＵＳＴＲＩＡＬ　ＬＩＭＩＴＥＤ,,外国会社等,,,,,,,,ＦＬＡＴ／ＲＭ　Ｎ　ＢＬＫ　２　１１／Ｆ　ＫＷＵＮ　ＴＯＮＧ　ＩＮＤＵＳＴＲＩＡＬ　ＣＨＮＴＲＥ　４６０－４７０　ＫＷＵ，ＫＷＵＮ　ＴＯＮＧ，ＫＯＷＬＯＯＮ　ＨＯＮＧ　ＫＯＮＧ，Ｃｈｉｎａ,,,,,,2022-12-23,1,,,,,ホンコンシギンインダストリアルリミテッド,0
1277,6010001231810,新規,0,2022-12-23,2022-12-23,株式会社ｅｇｇｙ,,株式会社,東京都,中央区,晴海３丁目１３－１－４５１１,,13,102,1040053,,,,,,,2022-12-23,1,,,,,エギー,0
1295,6010401171482,新規,0,2022-12-23,2022-12-23,フレッシュウィンド株式会社,,株式会社,東京都,港区,元赤坂１丁目６番２－２００６号,,13,103,1070051,,,,,,,2022-12-23,1,,,,,フレッシュウィンド,0
1296,6010401171516,新規,0,2022-12-23,2022-12-23,Ｓａｎｌｏｒｅｎｚｏ　Ｊａｐａｎ株式会社,,株式会社,東京都,港区,南青山５丁目１０－１７,,13,103,1070062,,,,,,,2022-12-23,1,,,,,サンロレンツォジャパン,0
1297,6010403029126,新規,0,2022-12-23,2022-12-23,Ｑｕｉｅｔ　Ｃｌｕｂ　Ｊａｐａｎ合同会社,,合同会社,東京都,港区,芝浦４丁目９番３５号芝浦スクエアハイツ１２０３号室,,13,103,1080023,,,,,,,2022-12-23,1,,,,,クワイエットクラブジャパン,0
1301,6010501049769,新規,0,2022-12-23,2022-12-23,株式会社富桜康華,,株式会社,東京都,台東区,松が谷２丁目９番１－３０３号,,13,106,1110036,,,,,,,2022-12-23,1,,,,,フヨウコウカ,0
1302,6010501049785,新規,0,2022-12-23,2022-12-23,下町不動産販売株式会社,,株式会社,東京都,台東区,浅草橋２丁目２４番８号ＥＰガーデン４０１号室,,13,106,1110053,,,,,,,2022-12-23,1,,,,,シタマチフドウサンハンバイ,0
1303,6010601062325,新規,0,2022-12-23,2022-12-23,Ｖｉｏｌａ株式会社,,株式会社,東京都,江東区,東雲１丁目９番４１－１４０３号,,13,108,1350062,,,,,,,2022-12-23,1,,,,,ヴィオラ,0
1305,6010801033539,新規,0,2022-12-23,2022-12-23,株式会社クラウデン,,株式会社,東京都,大田区,山王２丁目５－１３大森北口ビル５Ｆ,,13,111,1430023,,,,,,,2022-12-23,1,,,,,クラウデン,0
1307,6010901052208,新規,0,2022-12-23,2022-12-23,株式会社ＩＳＳＡ,,株式会社,東京都,世田谷区,池尻３丁目２８番５号,,13,112,1540001,,,,,,,2022-12-23,1,,,,,アイエスエスエー,0
1313,6011001151643,新規,0,2022-12-23,2022-12-23,株式会社インバウンドコンソーシアム,,株式会社,東京都,渋谷区,松濤１丁目２９番１号渋谷クロスロード６階,,13,113,1500046,,,,,,,2022-12-23,1,,,,,インバウンドコンソーシアム,0
1314,6011001151651,新規,0,2022-12-23,2022-12-23,株式会社デフポイント,,株式会社,東京都,目黒区,目黒本町５丁目２８番２号,,13,110,1520002,,,,,,,2022-12-23,1,,,,,デフポイント,0
1317,6011003015978,新規,0,2022-12-23,2022-12-23,合同会社Ａｉｌｅ,,合同会社,東京都,目黒区,大橋１丁目５番１－１９０９号,,13,110,1530044,,,,,,,2022-12-23,1,,,,,エール,0
1326,6011301028343,新規,0,2022-12-23,2022-12-23,株式会社フェイス,,株式会社,東京都,杉並区,本天沼１丁目１９番１３号カーサリモーネ３０２,,13,115,1670031,,,,,,,2022-12-23,1,,,,,,0
1337,6011803005443,新規,0,2022-12-23,2022-12-23,ＫＩＰアカデミー合同会社,,合同会社,東京都,足立区,西竹の塚２丁目１４－１０,,13,121,1210822,,,,,,,2022-12-23,1,,,,,キップアカデミー,0
1342,6012403005750,新規,0,2022-12-23,2022-12-23,ＫＡＮデザインワークス合同会社,,合同会社,東京都,三鷹市,牟礼６丁目２３番９‐１０３号,,13,204,1810002,,,,,,,2022-12-23,1,,,,,カンデザインワークス,0
1345,6012703002605,新規,0,2022-12-23,2022-12-23,合同会社ノーベルＥＭＳ,,合同会社,東京都,西東京市,谷戸町２丁目１番２４－１００６号,,13,229,1880001,,,,,,,2022-12-23,1,,,,,ノーベルイーエムエス,0
1346,6012801022034,新規,0,2022-12-23,2022-12-23,ＲＡＭＳ株式会社,,株式会社,東京都,東大和市,立野２丁目１５番地の１立野ガレージハウスＣ,,13,220,2070021,,,,,,,2022-12-23,1,,,,,ラムズ,0
1347,6012801022042,新規,0,2022-12-23,2022-12-23,株式会社ＹＫＨ,,株式会社,東京都,立川市,富士見町１丁目３５番１３号ライオンズスクエア立川レジデンス５０７号,,13,202,1900013,,,,,,,2022-12-23,1,,,,,ワイケイエイチ,0
1359,6020001149498,新規,0,2022-12-23,2022-12-23,株式会社Ｋプランニング,,株式会社,神奈川県,横浜市磯子区,岡村２丁目８番１３号,,14,107,2350021,,,,,,,2022-12-23,1,,,,,ケープランニング,0
1360,6020001149523,新規,0,2022-12-23,2022-12-23,株式会社ランドテクノ,,株式会社,神奈川県,川崎市高津区,溝口２丁目１４番２５号,,14,134,2130001,,,,,,,2022-12-23,1,,,,,ランドテクノ,0
1364,6020003022926,新規,0,2022-12-23,2022-12-23,ＪＡＭ合同会社,,合同会社,神奈川県,川崎市中原区,中丸子１３－７－２０３,,14,133,2110012,,,,,,,2022-12-23,1,,,,,ジャム,0
1365,6020003022934,新規,0,2022-12-23,2022-12-23,合同会社おくりやセレモニー,,合同会社,神奈川県,川崎市川崎区,藤崎３丁目６番２３号,,14,131,2100804,,,,,,,2022-12-23,1,,,,,オクリヤセレモニー,0
1366,6020003022959,新規,0,2022-12-23,2022-12-23,合同会社Ａｐｐｒｅｃｉａｔｅ,,合同会社,神奈川県,横浜市港北区,綱島東２丁目１９－３０－１,,14,109,2230052,,,,,,,2022-12-23,1,,,,,アプリシエイト,0
1377,6021003012537,新規,0,2022-12-23,2022-12-23,ハル・ジャパン合同会社,,合同会社,神奈川県,横須賀市,秋谷３丁目４番１２号,,14,201,2400105,,,,,,,2022-12-23,1,,,,,ハルジャパン,0
1385,6030001151635,新規,0,2022-12-23,2022-12-23,上進株式会社,,株式会社,埼玉県,熊谷市,上中条１４６５番地３,,11,202,3600001,,,,,,,2022-12-23,1,,,,,ジョウシン,0
1387,6030003020813,新規,0,2022-12-23,2022-12-23,合同会社ＭＹ工業,,合同会社,埼玉県,幸手市,中５丁目２－１７,,11,240,3400115,,,,,,,2022-12-23,1,,,,,エムワイコウギョウ,0
1391,6040001126347,新規,0,2022-12-23,2022-12-23,四葉コーポレーション株式会社,,株式会社,千葉県,千葉市中央区,中央１丁目１－１４－１００１,,12,101,2600013,,,,,,,2022-12-23,1,,,,,ヨツバコーポレーション,0
1394,6040003021554,新規,0,2022-12-23,2022-12-23,祺商貿易合同会社,,合同会社,千葉県,四街道市,鹿放ケ丘５９２番地,,12,228,2840008,,,,,,,2022-12-23,1,,,,,キショウボウエキ,0
1395,6040003021562,新規,0,2022-12-23,2022-12-23,合同会社みすホーム,,合同会社,千葉県,君津市,白駒４２０番地２,,12,225,2991105,,,,,,,2022-12-23,1,,,,,ミスホーム,0
1399,6050001052154,新規,0,2022-12-23,2022-12-23,ファストエステート株式会社,,株式会社,茨城県,石岡市,真家２４７３－２,,08,205,3150121,,,,,,,2022-12-23,1,,,,,ファストエステート,0
1400,6050003007107,新規,0,2022-12-23,2022-12-23,ガリマ合同会社,,合同会社,茨城県,古河市,小堤２０１０番地１２,,08,204,3060231,,,,,,,2022-12-23,1,,,,,ガリマ,0
1409,6070001039950,新規,0,2022-12-23,2022-12-23,ｔｈａｎｋ　ｙｏｕ　ｆｏｒ株式会社,,株式会社,群馬県,伊勢崎市,赤堀鹿島町８９９番地１,,10,204,3792202,,,,,,,2022-12-23,1,,,,,サンキュウフォー,0
1410,6070003004770,新規,0,2022-12-23,2022-12-23,合同会社ＦＯＲＴＥ,,合同会社,群馬県,藤岡市,三波川１１５２番地３,,10,209,3701405,,,,,,,2022-12-23,1,,,,,フォルテ,0
1411,6080001025363,新規,0,2022-12-23,2022-12-23,株式会社カーケア東海ホールディングス,,株式会社,静岡県,藤枝市,平島７６６番地の２,,22,214,4260011,,,,,,,2022-12-23,1,,,,,カーケアトウカイホールディングス,0
1416,6100003006821,新規,0,2022-12-23,2022-12-23,ｙａｔｓｕｄｅｓｉｇｎ合同会社,,合同会社,長野県,諏訪郡原村,３８８８番地１,,20,363,3910100,,,,,,,2022-12-23,1,,,,,ヤツデザイン,0
1431,6120001250915,新規,0,2022-12-23,2022-12-23,イナストア株式会社,,株式会社,大阪府,大阪市住之江区,新北島５丁目２番２８－９０５号,,27,125,5590024,,,,,,,2022-12-23,1,,,,,イナストア,0
1432,6120001251277,新規,0,2022-12-23,2022-12-23,株式会社ｆｌｏｗｉｔ,,株式会社,大阪府,大阪市城東区,関目４丁目９番３号ファインフラッツ関目ザ・レジデンス６１０,,27,118,5360008,,,,,,,2022-12-23,1,,,,,フロウィット,0
1433,6120001251310,新規,0,2022-12-23,2022-12-23,株式会社ＩＤＫ,,株式会社,大阪府,大阪市東成区,東中本２丁目６番３０号,,27,115,5370021,,,,,,,2022-12-23,1,,,,,アイディーケイ,0
1440,6120003023113,新規,0,2022-12-23,2022-12-23,合同会社ＣｏＣｏ夏,,合同会社,大阪府,大阪市西成区,鶴見橋２丁目８番１号,,27,122,5570031,,,,,,,2022-12-23,1,,,,,ココナツ,0
1441,6120005023359,新規,0,2022-12-23,2022-12-23,特定非営利活動法人Ｃ　ｃｌｏｖｅＲ,,その他の設立登記法人,大阪府,大阪市旭区,生江２丁目９番７号,,27,117,5350004,,,,,,,2022-12-23,1,,,,,シークローバー,0
1442,6120101066724,新規,0,2022-12-23,2022-12-23,株式会社ガムボール,,株式会社,大阪府,和泉市,府中町１丁目２３番１５号,,27,219,5940071,,,,,,,2022-12-23,1,,,,,ガムボール,0
1455,6140001128457,新規,0,2022-12-23,2022-12-23,株式会社西村電設,,株式会社,兵庫県,姫路市,香寺町土師西狭間１１８７,,28,201,6792163,,,,,,,2022-12-23,1,,,,,ニシムラデンセツ,0
1456,6140001128515,新規,0,2022-12-23,2022-12-23,株式会社ゆうり機械工具,,株式会社,兵庫県,加古川市,加古川町稲屋２８０番地の７,,28,210,6750034,,,,,,,2022-12-23,1,,,,,ユウリキカイコウグ,0
1462,6170001017418,新規,0,2022-12-23,2022-12-23,株式会社Ｈ＆Ｍ,,株式会社,和歌山県,東牟婁郡太地町,大字太地４２００番地４,,30,422,6495171,,,,,,,2022-12-23,1,,,,,エイチアンドエム,0
1472,6180003024642,新規,0,2022-12-23,2022-12-23,合同会社ＡＬ,,合同会社,愛知県,名古屋市千種区,春岡１丁目１番７号,,23,101,4640848,,,,,,,2022-12-23,1,,,,,アル,0
1475,6180301036934,新規,0,2022-12-23,2022-12-23,リーディングエッジファームズ株式会社,,株式会社,愛知県,田原市,神戸町西中島５９番地,,23,231,4413415,,,,,,,2022-12-23,1,,,,,リーディングエッジファームズ,0
1480,6190001030039,新規,0,2022-12-23,2022-12-23,株式会社三員,,株式会社,三重県,いなべ市,大安町大井田２８３６番地,,24,214,5110274,,,,,,,2022-12-23,1,,,,,サイン,0
1481,6190001030047,新規,0,2022-12-23,2022-12-23,株式会社大重建築,,株式会社,三重県,四日市市,楠町南五味塚１５７０番地,,24,202,5100104,,,,,,,2022-12-23,1,,,,,ダイジュウケンチク,0
1483,6200001040804,新規,0,2022-12-23,2022-12-23,株式会社加藤商会,,株式会社,岐阜県,恵那市,長島町久須見１１００番地５０,,21,210,5097206,,,,,,,2022-12-23,1,,,,,カトウショウカイ,0
1484,6200003005771,新規,0,2022-12-23,2022-12-23,合同会社Ｋ‐Ｓｅｌｅｃｔ,,合同会社,岐阜県,高山市,石浦町１丁目５７７番地６,,21,203,5060825,,,,,,,2022-12-23,1,,,,,ケーセレクト,0
1502,6280001008851,新規,0,2022-12-23,2022-12-23,Ｋ‐ｗｏｒｋｓ株式会社,,株式会社,島根県,出雲市,灘分町２５８７番地１,,32,203,6910003,,,,,,,2022-12-23,1,,,,,ケーワークス,0
1503,6280003001680,新規,0,2022-12-23,2022-12-23,Ｈｙｂｒｉｄ　Ｃｏｎｓｃｉｏｕｓ合同会社,,合同会社,島根県,出雲市,大津町６６４番地,,32,203,6930011,,,,,,,2022-12-23,1,,,,,ハイブリッドコンシャス,0
1504,6290001099997,新規,0,2022-12-23,2022-12-23,株式会社ＥＴＯ,,株式会社,福岡県,福岡市博多区,博多駅前１丁目２３番１号ＰａｒｋＦｒｏｎｔ博多駅前一丁目５Ｆ－Ｂ,,40,132,8120011,,,,,,,2022-12-23,1,,,,,エト,0
1505,6290001100013,新規,0,2022-12-23,2022-12-23,立部建設株式会社,,株式会社,福岡県,福津市,中央６丁目２０番１３－３０２号,,40,224,8113217,,,,,,,2022-12-23,1,,,,,タチベケンセツ,0
1511,6300003001918,新規,0,2022-12-23,2022-12-23,合同会社イーカンパニー,,合同会社,佐賀県,佐賀市,木原３丁目９番１３号,,41,201,8400015,,,,,,,2022-12-23,1,,,,,イーカンパニー,0
1519,6310003004498,新規,0,2022-12-23,2022-12-23,合同会社神寺舎,,合同会社,長崎県,佐世保市,権常寺町１０９２番地１,,42,202,8593213,,,,,,,2022-12-23,1,,,,,,0
1522,6330001030420,新規,0,2022-12-23,2022-12-23,株式会社ＳＡＢＡＮＡ,,株式会社,熊本県,菊池郡大津町,大字杉水２５４２番地１,,43,403,8691236,,,,,,,2022-12-23,1,,,,,サバナ,0
1526,6360003012595,新規,0,2022-12-23,2022-12-23,合同会社やんばるパワー,,合同会社,沖縄県,国頭郡今帰仁村,字諸志４７番地,,47,306,9050426,,,,,,,2022-12-23,1,,,,,ヤンバルパワー,0
1528,6370001049399,新規,0,2022-12-23,2022-12-23,株式会社すず,,株式会社,宮城県,角田市,神次郎字上ノ沢３２番地１,,04,208,9811526,,,,,,,2022-12-23,1,,,,,スズ,0
1531,6410001013350,新規,0,2022-12-23,2022-12-23,株式会社ヘルスケアファーマ,,株式会社,秋田県,大館市,清水２丁目２番２０号,,05,204,0170046,,,,,,,2022-12-23,1,,,,,ヘルスケアファーマ,0
1545,6700150112155,新規,0,2022-12-23,2022-10-14,全国美術商相互会,,その他,東京都,港区,新橋６丁目１９－１５,,13,103,1050004,,,,,,,2022-10-14,1,,,,,ゼンコクビジユツシヨウソウゴカイ,0
1546,6700150113491,新規,0,2022-12-23,2022-12-23,ｇｕａｎｇｚｈｏｕ　ｊｕｎｃａｉ　ｗａｎｇｌｕｏ　ｋｅｊｉ　ｙｏｕｘｉａｎｇｏｎｇｓｉ,,外国会社等,,,,,,,,ｚｅｎｇｃｈｅｎｇｑｕｌｉｘｉｎｓｈｉｌｕ２２ｈａｏ０３ｄｏｎｇ７ｌｏｕＡｑｕ，Ｇｕａｎｇｚｈｏｕ　ｇｕａｎｇｄｏｎｇ，Ｃｈｉｎａ,,,,,,2022-12-23,1,,,,,コウシュウジュンサイモウラクケジユウゲンコウシ,0
1547,6700150113500,新規,0,2022-12-23,2022-12-23,和野投資股分有限公司,,外国会社等,東京都,新宿区,上落合３丁目３４－２５,,13,104,1610034,桃園市桃園区中山路６５８巷１弄１号５階,,,,,,2022-12-23,1,,,,,ワノトウシコフンユウゲンコウシ,0
1550,7010001231842,新規,0,2022-12-23,2022-12-23,株式会社パラドックス,,株式会社,東京都,中央区,湊１丁目８番１１号八丁堀エイトビル７Ｆ,,13,102,1040043,,,,,,,2022-12-23,1,,,,,パラドックス,0
1551,7010005035967,新規,0,2022-12-23,2022-12-23,ＪＲ東日本プライベートリート投資法人,,その他の設立登記法人,東京都,千代田区,丸の内１丁目７番１２号,,13,101,1000005,,,,,,,2022-12-23,1,,,,,ジェイアールヒガシニホンプライベートリート,0
1552,7010005036016,新規,0,2022-12-23,2022-12-23,名古屋みなとデベロップメント一般社団法人,,その他の設立登記法人,東京都,中央区,日本橋１丁目４番１号日本橋一丁目ビルディング,,13,102,1030027,,,,,,,2022-12-23,1,,,,,ナゴヤミナトデベロップメント,0
1554,7010101015468,新規,0,2022-12-23,2022-12-23,株式会社ＲＩＮ,,株式会社,東京都,八王子市,中野町２１６８番地１,,13,201,1920015,,,,,,,2022-12-23,1,,,,,リン,0
1569,7010401171457,新規,0,2022-12-23,2022-12-23,株式会社ミエル,,株式会社,東京都,港区,南青山２丁目２番１５号ウィン青山９４２号,,13,103,1070062,,,,,,,2022-12-23,1,,,,,ミエル,0
1575,7010501049784,新規,0,2022-12-23,2022-12-23,株式会社ＥＧＰ,,株式会社,東京都,台東区,秋葉原１番５号ヨリモトビル３階,,13,106,1100006,,,,,,,2022-12-23,1,,,,,イージーピー,0
1577,7010601062349,新規,0,2022-12-23,2022-12-23,株式会社タウンフラッツ,,株式会社,東京都,江東区,東陽６丁目２番８号,,13,108,1350016,,,,,,,2022-12-23,1,,,,,タウンフラッツ,0
1579,7010603009918,新規,0,2022-12-23,2022-12-23,合同会社ＭＲ３,,合同会社,東京都,江東区,豊洲６丁目２番３１－８２１号,,13,108,1350061,,,,,,,2022-12-23,1,,,,,エムアールスリー,0
1581,7010801033546,新規,0,2022-12-23,2022-12-23,株式会社エスクリーン,,株式会社,東京都,大田区,大森南２丁目８番６－９０２号,,13,111,1430013,,,,,,,2022-12-23,1,,,,,エスクリーン,0
1583,7010903007860,新規,0,2022-12-23,2022-12-23,ＲａＦＬ　Ｃａｐｉｔａｌ　Ｍａｎａｇｅｍｅｎｔ合同会社,,合同会社,東京都,世田谷区,太子堂４丁目３０番３１号,,13,112,1540004,,,,,,,2022-12-23,1,,,,,ラフルキャピタルマネジメント,0
1590,7011001151469,新規,0,2022-12-23,2022-12-23,株式会社ＷＥＬＬＹ　ＴＯＫＹＯ,,株式会社,東京都,渋谷区,宇田川町３６番６号ワールド宇田川ビル５Ｆ,,13,113,1500042,,,,,,,2022-12-23,1,,,,,ウィリートーキョー,0
1591,7011001151634,新規,0,2022-12-23,2022-12-23,大丸開発株式会社,,株式会社,東京都,目黒区,下目黒２丁目２０番１５号アトモスフィア青山３０５号室,,13,110,1530064,,,,,,,2022-12-23,1,,,,,ダイマルカイハツ,0
1596,7011101101282,新規,0,2022-12-23,2022-12-23,株式会社ヴァリアー,,株式会社,東京都,新宿区,歌舞伎町２丁目４１番１２号岡埜ビル４階,,13,104,1600021,,,,,,,2022-12-23,1,,,,,ヴァリアー,0
1597,7011101101299,新規,0,2022-12-23,2022-12-23,ＦＪサポート株式会社,,株式会社,東京都,新宿区,新宿１丁目４番１３号,,13,104,1600022,,,,,,,2022-12-23,1,,,,,エフジェイサポート,0
1608,7011803005434,新規,0,2022-12-23,2022-12-23,合同会社智悦,,合同会社,東京都,足立区,新田３丁目３７番１１－４０５号,,13,121,1230865,,,,,,,2022-12-23,1,,,,,サトシエツ,0
1620,7020001149530,新規,0,2022-12-23,2022-12-23,株式会社Ｄａｚｚｌｅ,,株式会社,神奈川県,横浜市緑区,長津田町２４９６－１６,,14,113,2260026,,,,,,,2022-12-23,1,,,,,ダズル,0
1622,7020003022958,新規,0,2022-12-23,2022-12-23,合同会社宮,,合同会社,神奈川県,横浜市中区,豆口台４３番地１２号,,14,104,2310838,,,,,,,2022-12-23,1,,,,,ミヤ,0
1637,7021003012536,新規,0,2022-12-23,2022-12-23,ＢＬＡＮＫ　ＬＡＢＥＬ合同会社,,合同会社,神奈川県,藤沢市,鵠沼海岸７丁目５番１０号,00128888,14,205,2510037,,,,,,,2022-12-23,1,,,,,ブランクレーベル,0
1646,7030001151626,新規,0,2022-12-23,2022-12-23,あきかん木工株式会社,,株式会社,埼玉県,所沢市,大字下安松５０番地の３６３,,11,208,3590024,,,,,,,2022-12-23,1,,,,,アキカンモッコウ,0
1663,7060001035553,新規,0,2022-12-23,2022-12-23,株式会社足利重量,,株式会社,栃木県,足利市,相生町３８６番地１２,,09,202,3260052,,,,,,,2022-12-23,1,,,,,アシカガジュウリョウ,0
1672,7090001017904,新規,0,2022-12-23,2022-12-23,株式会社Ａ・Ｚ,,株式会社,山梨県,都留市,十日市場１３８０番地,,19,204,4020031,,,,,,,2022-12-23,1,,,,,エーゼット,0
1676,7100001035986,新規,0,2022-12-23,2022-12-23,株式会社南松機工,,株式会社,長野県,松本市,井川城２丁目３番１９－４号,,20,202,3900831,,,,,,,2022-12-23,1,,,,,ナンマツキコウ,0
1679,7110005016882,新規,0,2022-12-23,2022-12-23,農事組合法人琴浦,,その他の設立登記法人,新潟県,佐渡市,琴浦８５番地,,15,224,9520606,,,,,,,2022-12-23,1,,,,,コトウラ,0
1685,7120001251103,新規,0,2022-12-23,2022-12-23,株式会社小羊知育,,株式会社,大阪府,大阪市中央区,内本町２丁目３－１１内本町グリーンビル７Ｆ,,27,128,5400026,,,,,,,2022-12-23,1,,,,,コヒツジチイク,0
1686,7120001251276,新規,0,2022-12-23,2022-12-23,ＣＯ‐ＣＯＲＥ株式会社,,株式会社,大阪府,大阪市西区,江戸堀２丁目１番１号江戸堀センタービル９Ｆ,,27,106,5500002,,,,,,,2022-12-23,1,,,,,コーコア,0
1687,7120001251292,新規,0,2022-12-23,2022-12-23,Ｓ５Ｐｒｏｘｙ株式会社,,株式会社,大阪府,大阪市中央区,淡路町１丁目４番１５号ＲＩＣＯＴＴＯ,,27,128,5410047,,,,,,,2022-12-23,1,,,,,エスファイブプロクシー,0
1688,7120001251301,新規,0,2022-12-23,2022-12-23,エーステック株式会社,,株式会社,大阪府,寝屋川市,点野２丁目１７番３号,,27,215,5720077,,,,,,,2022-12-23,1,,,,,エーステック,0
1689,7120001251326,新規,0,2022-12-23,2022-12-23,株式会社Ｄ,,株式会社,大阪府,大阪市北区,堂山町１０番１号Ｈ＆Ｉビル東通り３階,,27,127,5300027,,,,,,,2022-12-23,1,,,,,ディー,0
1694,7120003023046,新規,0,2022-12-23,2022-12-23,合同会社ライトカンパニー,,合同会社,大阪府,大阪市淀川区,西宮原１丁目６－６０プラザ新大阪４１３号室,,27,123,5320004,,,,,,,2022-12-23,1,,,,,ライトカンパニー,0
1695,7120005023358,新規,0,2022-12-23,2022-12-23,一般社団法人ＭＯＲ,,その他の設立登記法人,大阪府,大阪市阿倍野区,阿倍野筋１丁目５番３１号,,27,119,5450052,,,,,,,2022-12-23,1,,,,,エムオーアール,0
1698,7120901046882,新規,0,2022-12-23,2022-12-23,株式会社ａｚ‐ｓｙｎｃ．,,株式会社,大阪府,豊中市,千里園１丁目３番４の３号,,27,203,5600046,,,,,,,2022-12-23,1,,,,,アズシンク,0
1699,7120901046899,新規,0,2022-12-23,2022-12-23,三ツ星不動産株式会社,,株式会社,大阪府,吹田市,佐竹台４丁目１１番１５－Ｓ２０２号,,27,205,5650855,,,,,,,2022-12-23,1,,,,,ミツボシフドウサン,0
1712,7140001128547,新規,0,2022-12-23,2022-12-23,株式会社Ｒ‐Ｔｅｃｈ,,株式会社,兵庫県,神戸市灘区,箕岡通１丁目２番３４号,,28,102,6570812,,,,,,,2022-12-23,1,,,,,アールテック,0
1716,7140003018515,新規,0,2022-12-23,2022-12-23,合同会社えか,,合同会社,兵庫県,尼崎市,塚口本町６丁目１１番１－９１１号,,28,202,6610001,,,,,,,2022-12-23,1,,,,,エカ,0
1726,7180001154300,新規,0,2022-12-23,2022-12-23,株式会社Ｒ‐ｖｉｌｌａｇｅ,,株式会社,愛知県,名古屋市千種区,神田町３２番１５号,,23,101,4640077,,,,,,,2022-12-23,1,,,,,アールハイフンビレッジ,0
1731,7180005020044,新規,0,2022-12-23,2022-12-23,一般社団法人中部福祉センター,,その他の設立登記法人,愛知県,稲沢市,駅前２丁目４番７号,,23,220,4928143,,,,,,,2022-12-23,1,,,,,チュウブフクシセンター,0
1733,7190001030038,新規,0,2022-12-23,2022-12-23,株式会社伊勢国不動産,,株式会社,三重県,四日市市,水沢野田町１１９９番地２,,24,202,5120301,,,,,,,2022-12-23,1,,,,,イセグニフドウサン,0
1734,7190001030046,新規,0,2022-12-23,2022-12-23,株式会社Ｙ．Ｏ．Ｃ．Ｗ．,,株式会社,三重県,松阪市,白粉町５２１番地１４,,24,204,5150076,,,,,,,2022-12-23,1,,,,,ワイオーシーダブリュ,0
1738,7210003001595,新規,0,2022-12-23,2022-12-23,すぷーん合同会社,,合同会社,福井県,三方郡美浜町,河原市３１－１－５２,,18,442,9191138,,,,,,,2022-12-23,1,,,,,スプーン,0
1741,7230003001949,新規,0,2022-12-23,2022-12-23,合同会社ころたん,,合同会社,富山県,富山市,笹津１３２番地,,16,201,9392223,,,,,,,2022-12-23,1,,,,,コロタン,0
1743,7240001060839,新規,0,2022-12-23,2022-12-23,株式会社喜楽家,,株式会社,広島県,広島市安芸区,矢野西４丁目５０番２４号,,34,107,7360085,,,,,,,2022-12-23,1,,,,,キラクヤ,0
1751,7290001100012,新規,0,2022-12-23,2022-12-23,Ｋｏｚｙ株式会社,,株式会社,福岡県,福岡市中央区,大手門１丁目２番２８号ラ・クラッセ大手門１Ｆ,,40,133,8100074,,,,,,,2022-12-23,1,,,,,コージー,0
1757,7310001018177,新規,0,2022-12-23,2022-12-23,株式会社ＮＥＷ　ＳＥＮＣＥ,,株式会社,長崎県,島原市,高島２丁目７２０９番地５,,42,203,8550801,,,,,,,2022-12-23,1,,,,,ニューセンス,0
1763,7360001031357,新規,0,2022-12-23,2022-12-23,株式会社野良猫ロック,,株式会社,沖縄県,中頭郡読谷村,字長浜２２５番地１,,47,324,9040324,,,,,,,2022-12-23,1,,,,,ノラネコロック,0
1765,7360003012586,新規,0,2022-12-23,2022-12-23,合同会社たけの子,,合同会社,沖縄県,うるま市,字高江洲７９８番地１、４Ｆ,,47,213,9042242,,,,,,,2022-12-23,1,,,,,タケノコ,0
1769,7380003005349,新規,0,2022-12-23,2022-12-23,合同会社ＡＹＭホームナーシング,,合同会社,福島県,福島市,蓬莱町３丁目８番３０号,,07,201,9608157,,,,,,,2022-12-23,1,,,,,エーワイエムホームナーシング,0
1772,7400001016097,新規,0,2022-12-23,2022-12-23,株式会社Ｋｔｅｃｈ　Ｃｒｅａｔｉｏｎ,,株式会社,岩手県,下閉伊郡岩泉町,岩泉字太田１０番地５,,03,483,0270501,,,,,,,2022-12-23,1,,,,,ケイテッククリエイション,0
1774,7420001018100,新規,0,2022-12-23,2022-12-23,株式会社ゼロ農園,,株式会社,青森県,つがる市,木造朝日９番地２０,,02,209,0383124,,,,,,,2022-12-23,1,,,,,ゼロノウエン,0
1782,7430001088084,新規,0,2022-12-23,2022-12-23,株式会社オネスティ１,,株式会社,北海道,札幌市南区,北ノ沢９丁目１番１－４０３号,,01,106,0050832,,,,,,,2022-12-23,1,,,,,オネスティワン,0
1788,7700150113490,新規,0,2022-12-23,2022-12-23,ｚｈｕｈａｉ　ｊｉｕｎｉｕ　ｋｅｊｉ　ｙｏｕｘｉａｎｇｏｎｇｓｉ,,外国会社等,,,,,,,,ｑｉａｎｓｈａｎｍｉｎｇｚｈｕｎａｎｌｕ２０３９ｈａｏ７２ｄｏｎｇ２０１ｆａｎｇ，ｚｈｕｈａｉｓｈｉ　Ｇｕａｎｇｄｏｎｇ，Ｃｈｉｎａ,,,,,,2022-12-23,1,,,,,シュカイジウニウケジユウゲンコウシ,0
1789,7700150113499,新規,0,2022-12-23,2022-12-23,ＴＳＵＹＯ，ＬＬＣ,,外国会社等,北海道,虻田郡倶知安町,ニセコひらふ一条２丁目６番９号７３２,,01,400,0440080,１０　Ｗａｖｅｒｌｙ　Ｃｏｕｒｔ，Ｈｏｕｓｔｏｎ，ＴＸ　７７００５,,,,,,2022-12-23,1,,,,,ツヨエルエルシー,0
1809,8010003039416,新規,0,2022-12-23,2022-12-23,合同会社スマホ,,合同会社,東京都,中央区,日本橋久松町４－６,,13,102,1030005,,,,,,,2022-12-23,1,,,,,スマホ,0
1810,8010005036023,新規,0,2022-12-23,2022-12-23,一般社団法人細胞農業研究機構,,その他の設立登記法人,東京都,中央区,銀座１丁目２２番１１号銀座大竹ビジデンス２階,,13,102,1040061,,,,,,,2022-12-23,1,,,,,サイボウノウギョウケンキュウキコウ,0
1815,8010401171456,新規,0,2022-12-23,2022-12-23,株式会社ａｄｏｈａｄｏ,,株式会社,東京都,港区,赤坂９丁目６番２８アルベルゴ乃木坂９１１,,13,103,1070052,,,,,,,2022-12-23,1,,,,,アドハド,0
1816,8010401171480,新規,0,2022-12-23,2022-12-23,株式会社ＡＭ,,株式会社,東京都,港区,赤坂９丁目４番１号１８０３,,13,103,1070052,,,,,,,2022-12-23,1,,,,,エーエム,0
1817,8010401171563,新規,0,2022-12-23,2022-12-23,株式会社ＡＧＵＡ,,株式会社,東京都,港区,南青山７丁目１番２７号,,13,103,1070062,,,,,,,2022-12-23,1,,,,,アグア,0
1819,8010403029173,新規,0,2022-12-23,2022-12-23,合同会社ＨＥＬＩＯＳ,,合同会社,東京都,港区,赤坂８丁目１３番１３,,13,103,1070052,,,,,,,2022-12-23,1,,,,,ヘリオス,0
1820,8010403029198,新規,0,2022-12-23,2022-12-23,合同会社レジデンシャルオー,,合同会社,東京都,港区,西新橋１丁目２番９号メンターキャピタル税理士法人内,,13,103,1050003,,,,,,,2022-12-23,1,,,,,レジデンシャルオー,0
1828,8010501049791,新規,0,2022-12-23,2022-12-23,株式会社プラザパートナーズ,,株式会社,東京都,台東区,上野２丁目１２番３号,,13,106,1100005,,,,,,,2022-12-23,1,,,,,プラザパートナーズ,0
1831,8010601062348,新規,0,2022-12-23,2022-12-23,株式会社エイム,,株式会社,東京都,江東区,住吉２丁目１３番４号１Ｆ,,13,108,1350002,,,,,,,2022-12-23,1,,,,,エイム,0
1832,8010603009917,新規,0,2022-12-23,2022-12-23,合同会社ＥＩＧＨＴ,,合同会社,東京都,墨田区,東墨田２丁目２６番５－６０２号,,13,107,1310042,,,,,,,2022-12-23,1,,,,,エイト,0
1833,8010701043636,新規,0,2022-12-23,2022-12-23,株式会社Ｖ＆Ｌ,,株式会社,東京都,品川区,西五反田２丁目３１番６号セブンスターマンション第２五反田１０階１００３号－１４室,,13,109,1410031,,,,,,,2022-12-23,1,,,,,ブイアンドエル,0
1835,8010801033537,新規,0,2022-12-23,2022-12-23,株式会社ＮＥＩＧＨＢＯＲＨＯＯＤ,,株式会社,東京都,大田区,西蒲田７丁目６番３号プリンス会館７Ｆ,,13,111,1440051,,,,,,,2022-12-23,1,,,,,ネイバーフッド,0
1839,8010901052197,新規,0,2022-12-23,2022-12-23,ＲＩＳＥ‐Ｄ株式会社,,株式会社,東京都,世田谷区,等々力１丁目２３番２号,,13,112,1580082,,,,,,,2022-12-23,1,,,,,ライズディー,0
1842,8011001151591,新規,0,2022-12-23,2022-12-23,株式会社アンドブロックチェーン,,株式会社,東京都,渋谷区,神泉町１０番１５号,,13,113,1500045,,,,,,,2022-12-23,1,,,,,アンドブロックチェーン,0
1843,8011001151633,新規,0,2022-12-23,2022-12-23,拓真株式会社,,株式会社,東京都,渋谷区,千駄ヶ谷２丁目３８番１号,,13,113,1510051,,,,,,,2022-12-23,1,,,,,タクマ,0
1844,8011003015968,新規,0,2022-12-23,2022-12-23,合同会社ベルデ,,合同会社,東京都,渋谷区,笹塚１丁目５５番１１―１１０１号,,13,113,1510073,,,,,,,2022-12-23,1,,,,,ベルデ,0
1845,8011003015976,新規,0,2022-12-23,2022-12-23,ＭＩＹＡＫＡＷＡ合同会社,,合同会社,東京都,目黒区,大橋２丁目１６番２７号,,13,110,1530044,,,,,,,2022-12-23,1,,,,,ミヤカワ,0
1848,8011301028309,新規,0,2022-12-23,2022-12-23,加賀心株式会社,,株式会社,東京都,杉並区,上荻１丁目１５番１３号,,13,115,1670043,,,,,,,2022-12-23,1,,,,,カガシン,0
1849,8011301028317,新規,0,2022-12-23,2022-12-23,株式会社Ｓｐｅａｋ　ｙｏｕｒ　ｓｔｏｒｙ,,株式会社,東京都,杉並区,大宮２丁目１１番５号,,13,115,1680061,,,,,,,2022-12-23,1,,,,,スピークユアストーリー,0
1853,8011303004621,新規,0,2022-12-23,2022-12-23,合同会社ＬＥ‐ＴＲＡＤＥ,,合同会社,東京都,杉並区,桃井２丁目１６番２４号,,13,115,1670034,,,,,,,2022-12-23,1,,,,,エルイートレード,0
1865,8011803005441,新規,0,2022-12-23,2022-12-23,合同会社ＫＡＷＡＡＩ,,合同会社,東京都,葛飾区,堀切７丁目７番７－１０４号,,13,122,1240006,,,,,,,2022-12-23,1,,,,,カワアイ,0
1866,8012403005749,新規,0,2022-12-23,2022-12-23,合同会社Ｅ‐ｍｕｓｕｂｉ,,合同会社,東京都,三鷹市,下連雀４丁目６番８号,,13,204,1810013,,,,,,,2022-12-23,1,,,,,イームスビ,0
1873,8013301050085,新規,0,2022-12-23,2022-12-23,株式会社ＫＨＡ,,株式会社,東京都,豊島区,西池袋５丁目１９番４号３０１,,13,116,1710021,,,,,,,2022-12-23,1,,,,,ケイエイチエー,0
1880,8020001149496,新規,0,2022-12-23,2022-12-23,株式会社アドバーシティ,,株式会社,神奈川県,横浜市戸塚区,原宿４丁目４３番３－１０２号,,14,110,2450063,,,,,,,2022-12-23,1,,,,,アドバーシティ,0
1881,8020001149513,新規,0,2022-12-23,2022-12-23,株式会社東和,,株式会社,神奈川県,横浜市中区,伊勢佐木町２丁目９１番地,,14,104,2310045,,,,,,,2022-12-23,1,,,,,トウワ,0
1882,8020001149521,新規,0,2022-12-23,2022-12-23,株式会社メディアリンク,,株式会社,神奈川県,川崎市中原区,下沼部１７５９番地,,14,133,2110011,,,,,,,2022-12-23,1,,,,,メディアリンク,0
1883,8020001149554,新規,0,2022-12-23,2022-12-23,株式会社中村コンサル,,株式会社,神奈川県,横浜市南区,南太田３丁目４番８号２０４,,14,105,2320006,,,,,,,2022-12-23,1,,,,,ナカムラコンサル,0
1890,8020003022957,新規,0,2022-12-23,2022-12-23,合同会社横浜特掃,,合同会社,神奈川県,横浜市中区,蓬莱町２丁目６－３ＫＯＹＯ館内ビル５０７,,14,104,2310048,,,,,,,2022-12-23,1,,,,,ヨコハマトクソウ,0
1892,8021001077786,新規,0,2022-12-23,2022-12-23,株式会社Ｒｅｖｉｖａｌ　Ｃｒｅｗ,,株式会社,神奈川県,厚木市,山際２７３番地１,,14,212,2430803,,,,,,,2022-12-23,1,,,,,リヴァイバルクルー,0
1895,8021003012535,新規,0,2022-12-23,2022-12-23,腰越会計事務所合同会社,,合同会社,神奈川県,藤沢市,南藤沢７番２－５０１号,,14,205,2510055,,,,,,,2022-12-23,1,,,,,コシゴエカイケイジムショ,0
1896,8021003012543,新規,0,2022-12-23,2022-12-23,合同会社Ｐｏｗｅｒ　Ｕｎｉｖｅｒｓｅ,,合同会社,神奈川県,茅ヶ崎市,中海岸４丁目１５－１９－２０２ザ・テラス茅ヶ崎サザンビーチ,,14,207,2530055,,,,,,,2022-12-23,1,,,,,パワーユニバース,0
1901,8030001151559,新規,0,2022-12-23,2022-12-23,ＭＮＳ株式会社,,株式会社,埼玉県,熊谷市,別府４丁目２４８番地２,,11,202,3600856,,,,,,,2022-12-23,1,,,,,エムエヌエス,0
1902,8030001151600,新規,0,2022-12-23,2022-12-23,株式会社Ｌ．Ａ．ｗｉｌｌｉｎｇ,,株式会社,埼玉県,さいたま市西区,大字内野本郷２９２番地１号,,11,101,3310045,,,,,,,2022-12-23,1,,,,,エルエーウィリング,0
1903,8030001151617,新規,0,2022-12-23,2022-12-23,株式会社ＩＮＵ‐ＣＬＯＳＥＴ,,株式会社,埼玉県,入間市,東町１丁目２－９－３００１Ｍ（ジョンソンタウン）,,11,225,3580002,,,,,,,2022-12-23,1,,,,,イヌクローゼット,0
1904,8030001151633,新規,0,2022-12-23,2022-12-23,株式会社ＦＯＧＭＵＳＩＫ,,株式会社,埼玉県,和光市,下新倉２丁目１７番７号,,11,229,3510111,,,,,,,2022-12-23,1,,,,,フォグムジーク,0
1908,8030005021097,新規,0,2022-12-23,2022-12-23,一般社団法人ココロアイ,,その他の設立登記法人,埼玉県,深谷市,上柴町西２丁目２２番３号シティハイムサンホワイト１０１号室,,11,218,3660052,,,,,,,2022-12-23,1,,,,,ココロアイ,0
1914,8040001126345,新規,0,2022-12-23,2022-12-23,ＣＤＣアクアサービス株式会社,,株式会社,千葉県,千葉市中央区,本千葉町４番３号,,12,101,2600014,,,,,,,2022-12-23,1,,,,,シーデーシーアクアサービス,0
1915,8040001126353,新規,0,2022-12-23,2022-12-23,株式会社ティエムロジコム,,株式会社,千葉県,富里市,美沢２番地１０,,12,233,2860225,,,,,,,2022-12-23,1,,,,,ティエムロジコム,0
1917,8040003021560,新規,0,2022-12-23,2022-12-23,合同会社ＫＯＺＡＫＩ　ＬＡＮＫＡ　ＭＯＴＯＲＳ,,合同会社,千葉県,香取郡神崎町,郡１３０７番地１リッチ駅前２０４,,12,342,2890202,,,,,,,2022-12-23,1,,,,,コウザキランカモータース,0
1923,8050001052144,新規,0,2022-12-23,2022-12-23,株式会社Ｙ＆Ｐコンサルティング,,株式会社,茨城県,水戸市,笠原町３５８番地の６,,08,201,3100852,,,,,,,2022-12-23,1,,,,,ワイアンドピーコンサルティング,0
1924,8050003007105,新規,0,2022-12-23,2022-12-23,合同会社ＡＳＩＭ　ＴＲＡＤＩＮＧ,,合同会社,茨城県,結城市,大字江川新宿２０２０番地７１,,08,207,3070042,,,,,,,2022-12-23,1,,,,,アセムトレーディング,0
1925,8050003007113,新規,0,2022-12-23,2022-12-23,アールワイ合同会社,,合同会社,茨城県,龍ケ崎市,佐貫１丁目７番１号フロントスクエア龍ケ崎１０２号室,,08,208,3010032,,,,,,,2022-12-23,1,,,,,アールワイ,0
1929,8070001039940,新規,0,2022-12-23,2022-12-23,株式会社ＴＭＡ,,株式会社,群馬県,沼田市,沼須町７０２番地１２,,10,206,3780012,,,,,,,2022-12-23,1,,,,,ティーエムエー,0
1930,8080101023703,新規,0,2022-12-23,2022-12-23,株式会社ゼロオート,,株式会社,静岡県,熱海市,紅葉ガ丘町１０番５号,,22,205,4130027,,,,,,,2022-12-23,1,,,,,ゼロオート,0
1946,8120001251283,新規,0,2022-12-23,2022-12-23,エムアールインターナショナル株式会社,,株式会社,大阪府,大阪市中央区,南本町２丁目６番５号ファースト船場６０５,,27,128,5410054,,,,,,,2022-12-23,1,,,,,エムアールインターナショナル,0
1947,8120001251291,新規,0,2022-12-23,2022-12-23,美康株式会社,,株式会社,大阪府,大阪市浪速区,恵美須東１丁目５－１５－３０５号室,,27,111,5560002,,,,,,,2022-12-23,1,,,,,ビコウ,0
1948,8120001251300,新規,0,2022-12-23,2022-12-23,株式会社さくらスタッフ,,株式会社,大阪府,大阪市西区,江戸堀２丁目１番１号,,27,106,5500002,,,,,,,2022-12-23,1,,,,,サクラスタッフ,0
1949,8120001251309,新規,0,2022-12-23,2022-12-23,ＤＤ株式会社,,株式会社,大阪府,大阪市阿倍野区,丸山通２丁目３番２０号,,27,119,5450042,,,,,,,2022-12-23,1,,,,,ディディ,0
1950,8120001251317,新規,0,2022-12-23,2022-12-23,廣田技研株式会社,,株式会社,大阪府,大阪市中央区,内本町１丁目３番９号内本町中央ビル１００１号,,27,128,5400026,,,,,,,2022-12-23,1,,,,,ヒロタギケン,0
1951,8120001251325,新規,0,2022-12-23,2022-12-23,株式会社ＧＵＡＲＤ　ＯＮＥ,,株式会社,大阪府,大阪市大正区,三軒家西３丁目４番３２号,,27,108,5510001,,,,,,,2022-12-23,1,,,,,ガードワン,0
1953,8120003023103,新規,0,2022-12-23,2022-12-23,一番合同会社,,合同会社,大阪府,大阪市中央区,淡路町２丁目１－１０ユニ船場３０８室,,27,128,5410047,,,,,,,2022-12-23,1,,,,,イチバン,0
1957,8120101066722,新規,0,2022-12-23,2022-12-23,株式会社ＣＩＥＬＳ,,株式会社,大阪府,和泉市,のぞみ野１丁目３０番１２号,,27,219,5941105,,,,,,,2022-12-23,1,,,,,シエルス,0
1960,8120901046898,新規,0,2022-12-23,2022-12-23,株式会社ペルシア絨毯ギャラリー,,株式会社,大阪府,箕面市,小野原東４丁目１５番８号,,27,220,5620031,,,,,,,2022-12-23,1,,,,,ペルシアジュウタンギャラリー,0
1963,8120905006403,新規,0,2022-12-23,2022-12-23,一般社団法人日本経営大阪,,その他の設立登記法人,大阪府,豊中市,寺内２丁目１３番３号,,27,203,5610872,,,,,,,2022-12-23,1,,,,,ニホンケイエイオオサカ,0
1966,8122001036516,新規,0,2022-12-23,2022-12-23,株式会社サイキ,,株式会社,大阪府,八尾市,南太子堂４丁目４番３７号,,27,212,5810056,,,,,,,2022-12-23,1,,,,,サイキ,0
1967,8122001036524,新規,0,2022-12-23,2022-12-23,株式会社らふてる,,株式会社,大阪府,東大阪市,稲田新町２丁目１５番１０－１０２号,,27,227,5770004,,,,,,,2022-12-23,1,,,,,ラフテル,0
1970,8130001073355,新規,0,2022-12-23,2022-12-23,株式会社マリークロッシュ,,株式会社,京都府,京都市上京区,三本木通西入宮垣町９１番地Ａ１０２号,,26,102,6020000,,,,,,,2022-12-23,1,,,,,マリークロッシュ,0
1974,8140003018506,新規,0,2022-12-23,2022-12-23,合同会社ＩＭＴ,,合同会社,兵庫県,姫路市,西二階町４１番地,,28,201,6700901,,,,,,,2022-12-23,1,,,,,アイエムティ,0
1975,8140003018514,新規,0,2022-12-23,2022-12-23,ｏｆｆｉｃｅ７ｃｏｌｏｒｓ合同会社,,合同会社,兵庫県,尼崎市,次屋３丁目３－５６,,28,202,6610965,,,,,,,2022-12-23,1,,,,,オフィスセブンカラーズ,0
1976,8140005026416,新規,0,2022-12-23,2022-12-23,一般社団法人相続事業承継相談窓口,,その他の設立登記法人,兵庫県,神戸市中央区,北長狭通３丁目４番２号,,28,110,6500012,,,,,,,2022-12-23,1,,,,,ソウゾクジギョウショウケイソウダンマドグチ,0
1978,8150001026039,新規,0,2022-12-23,2022-12-23,株式会社みなとも,,株式会社,奈良県,北葛城郡広陵町,大字弁財天３８７番地６,,29,426,6350811,,,,,,,2022-12-23,1,,,,,ミナトモ,0
1986,8180001154290,新規,0,2022-12-23,2022-12-23,株式会社石田事務所,,株式会社,愛知県,名古屋市中区,松原１丁目４番９号ドミール神谷２０３号,,23,106,4600017,,,,,,,2022-12-23,1,,,,,イシダジムショ,0
1987,8180001154299,新規,0,2022-12-23,2022-12-23,ＢＯＬＤＯＡＴＨ株式会社,,株式会社,愛知県,名古屋市天白区,大根町１９３番地,,23,116,4680024,,,,,,,2022-12-23,1,,,,,ボールドオウス,0
1989,8180005020043,新規,0,2022-12-23,2022-12-23,税理士法人名北会計,,その他の設立登記法人,愛知県,名古屋市北区,金城３丁目１２番１９号日東エステイトビル４階,,23,103,4620847,,,,,,,2022-12-23,1,,,,,メイホクカイケイ,0
1990,8180303005547,新規,0,2022-12-23,2022-12-23,合同会社Ｍプランニング,,合同会社,愛知県,岡崎市,竜泉寺町字間峯ケ平５５番地２６,,23,202,4443524,,,,,,,2022-12-23,1,,,,,エムプランニング,0
1994,8190001030037,新規,0,2022-12-23,2022-12-23,株式会社山武商店荷役,,株式会社,三重県,津市,白山町南家城１０４番地１,,24,201,5153133,,,,,,,2022-12-23,1,,,,,ヤマタケショウテンニヤク,0
1998,8200003005778,新規,0,2022-12-23,2022-12-23,合同会社ＭＴ,,合同会社,岐阜県,岐阜市,岩崎８３３番地１（シャンポール神谷３－１５号室）,,21,201,5020005,,,,,,,2022-12-23,1,,,,,エムティ,0
2005,8230003001948,新規,0,2022-12-23,2022-12-23,合同会社春日,,合同会社,富山県,富山市,笹津１３２番地,,16,201,9392223,,,,,,,2022-12-23,1,,,,,カスガ,0
2013,8290001099987,新規,0,2022-12-23,2022-12-23,株式会社ロックス,,株式会社,福岡県,大野城市,山田２丁目９番３３号,,40,219,8160922,,,,,,,2022-12-23,1,,,,,ロックス,0
2014,8290001099995,新規,0,2022-12-23,2022-12-23,株式会社アストラ,,株式会社,福岡県,福岡市中央区,清川１丁目７番１３号,,40,133,8100005,,,,,,,2022-12-23,1,,,,,アストラ,0
2021,8290003013335,新規,0,2022-12-23,2022-12-23,合同会社釈迦と虎,,合同会社,福岡県,福岡市中央区,舞鶴２丁目８番４号,,40,133,8100073,,,,,,,2022-12-23,1,,,,,シャカトトラ,0
2022,8290003013343,新規,0,2022-12-23,2022-12-23,合同会社ＬＭＣ,,合同会社,福岡県,福岡市中央区,草香江１丁目８番３２－１２１１号,,40,133,8100045,,,,,,,2022-12-23,1,,,,,エルエムシー,0
2028,8330003009634,新規,0,2022-12-23,2022-12-23,合同会社リベクラ,,合同会社,熊本県,熊本市北区,植木町一木５９１番地２,,43,105,8610135,,,,,,,2022-12-23,1,,,,,リベクラ,0
2029,8330003009642,新規,0,2022-12-23,2022-12-23,合同会社Ｉｒｉｓｈ,,合同会社,熊本県,熊本市中央区,下通２丁目１番２０号ホンダビル７Ｆ,,43,101,8600807,,,,,,,2022-12-23,1,,,,,アイリッシュ,0
2033,8360005006759,新規,0,2022-12-23,2022-12-23,一般社団法人デザインイノベーションおきなわ,,その他の設立登記法人,沖縄県,那覇市,久茂地１丁目１番１号９階,,47,201,9000015,,,,,,,2022-12-23,1,,,,,デザインイノベーションオキナワ,0
2035,8370003005927,新規,0,2022-12-23,2022-12-23,合同会社ポリゴン,,合同会社,宮城県,仙台市青葉区,宮町２丁目１－４８安藤ビル１階,,04,101,9800004,,,,,,,2022-12-23,1,,,,,ポリゴン,0
2042,8390001017105,新規,0,2022-12-23,2022-12-23,株式会社カナエ,,株式会社,山形県,米沢市,窪田町窪田４５３番地の７,,06,202,9920003,,,,,,,2022-12-23,1,,,,,カナエ,0
2043,8400001016096,新規,0,2022-12-23,2022-12-23,中村ファーム株式会社,,株式会社,岩手県,二戸郡一戸町,女鹿字上女鹿１３番地１,,03,524,0285302,,,,,,,2022-12-23,1,,,,,ナカムラファーム,0
2046,8410001013349,新規,0,2022-12-23,2022-12-23,金泳設備株式会社,,株式会社,秋田県,鹿角市,花輪字冷水４７番地４,,05,209,0185201,,,,,,,2022-12-23,1,,,,,キンエイセツビ,0
2048,8420005007833,新規,0,2022-12-23,2022-12-23,一般社団法人青森県訪問看護ステーション連絡協議会,,その他の設立登記法人,青森県,青森市,大字浪館字平岡６４番地３４メゾットＭＨ３号,,02,201,0380022,,,,,,,2022-12-23,1,,,,,アオモリケンホウモンカンゴステーションレンラクキョウギカイ,0
2052,8430005014614,新規,0,2022-12-23,2022-12-23,一般社団法人平取町山岳会,,その他の設立登記法人,北海道,沙流郡平取町,振内町３０番地８,,01,602,0550411,,,,,,,2022-12-23,1,,,,,ビラトリチョウサンガクカイ,0
2053,8480005006937,新規,0,2022-12-23,2022-12-23,一般社団法人恵竹産業開発普及協会,,その他の設立登記法人,徳島県,阿南市,那賀川町中島１２９７番地１,,36,204,7791245,,,,,,,2022-12-23,1,,,,,ケイチクサンギョウカイハツフキュウキョウカイ,0
2061,8700150113498,新規,0,2022-12-23,2022-12-23,環球住宿有限公司,,外国会社等,東京都,新宿区,住吉町４－１,,13,104,1620065,ＦＬＡＴ／ＲＭ　２Ａ　２／Ｆ　ＨＵＮＧ　ＴＯ　ＣＥＮＴＲＥ　９４－９６　ＨＯＷ　ＭＩＮＧ　ＳＴＲＥＥＴ　ＫＷＵＮ　ＴＯＮＧ,,,,,,2022-12-23,1,,,,,カンキヨウジユウシユクユウゲンコウシ,0
2067,9010001231733,新規,0,2022-12-23,2022-12-23,株式会社くるみ不動産,,株式会社,東京都,文京区,千駄木２丁目３２番６－６０３号,,13,105,1130022,,,,,,,2022-12-23,1,,,,,クルミフドウサン,0
2068,9010001231766,新規,0,2022-12-23,2022-12-23,株式会社グラスアワー,,株式会社,東京都,中央区,銀座２丁目１４番５号ＴＷＧ銀座イースト７階,,13,102,1040061,,,,,,,2022-12-23,1,,,,,グラスアワー,0
2069,9010001231840,新規,0,2022-12-23,2022-12-23,株式会社Ｊ＆Ｃ,,株式会社,東京都,中央区,銀座８丁目５番１号プラザＧ８１階Ｃ,,13,102,1040061,,,,,,,2022-12-23,1,,,,,ジェーアンドシー,0
2071,9010003039381,新規,0,2022-12-23,2022-12-23,雅商事合同会社,,合同会社,東京都,中央区,銀座８丁目１８－１２－９階,,13,102,1040061,,,,,,,2022-12-23,1,,,,,ミヤビショウジ,0
2076,9010401171521,新規,0,2022-12-23,2022-12-23,ピュア・グロース株式会社,,株式会社,東京都,港区,港南２丁目１６番１号,,13,103,1080075,,,,,,,2022-12-23,1,,,,,ピュアグロース,0
2077,9010401171570,新規,0,2022-12-23,2022-12-23,トリニティベター株式会社,,株式会社,東京都,港区,南青山２丁目２番１５号ウィン青山９４２,,13,103,1070062,,,,,,,2022-12-23,1,,,,,トリニティベター,0
2079,9010501049790,新規,0,2022-12-23,2022-12-23,ｇｏｏｄｆｅｌｌａｓ株式会社,,株式会社,東京都,台東区,池之端４丁目１５番２号,,13,106,1100008,,,,,,,2022-12-23,1,,,,,グッドフェラス,0
2082,9010601062330,新規,0,2022-12-23,2022-12-23,株式会社アーバンプロジェクト,,株式会社,東京都,墨田区,京島２丁目２５番１１号,,13,107,1310046,,,,,,,2022-12-23,1,,,,,アーバンプロジェクト,0
2093,9011001151624,新規,0,2022-12-23,2022-12-23,ＦＵＥＬ株式会社,,株式会社,東京都,渋谷区,神宮前２丁目２番２２号,,13,113,1500001,,,,,,,2022-12-23,1,,,,,フューエル,0
2096,9011003015942,新規,0,2022-12-23,2022-12-23,合同会社ＨＯＴＴＡＮ,,合同会社,東京都,渋谷区,円山町５番５号Ｎａｖｉ渋谷Ｖ３階,,13,113,1500044,,,,,,,2022-12-23,1,,,,,ホッタン,0
2097,9011003015959,新規,0,2022-12-23,2022-12-23,合同会社ＮＯＭ,,合同会社,東京都,目黒区,上目黒４丁目４番５号ベルメゾンサカマキ４０３,,13,110,1530051,,,,,,,2022-12-23,1,,,,,ノム,0
2111,9011501028792,新規,0,2022-12-23,2022-12-23,萩原経営株式会社,,株式会社,東京都,北区,中里１丁目１１番３号萩原ビル２０１号室,,13,117,1140015,,,,,,,2022-12-23,1,,,,,ハギワラケイエイ,0
2116,9011703003338,新規,0,2022-12-23,2022-12-23,合同会社くちぶえ,,合同会社,東京都,江戸川区,小松川４丁目７９番地トーヨーメゾン小松川２０７,,13,123,1320034,,,,,,,2022-12-23,1,,,,,クチブエ,0
2117,9011801041719,新規,0,2022-12-23,2022-12-23,株式会社体爽快,,株式会社,東京都,足立区,梅田８丁目１番１６号,,13,121,1230851,,,,,,,2022-12-23,1,,,,,カラダソウカイ,0
2123,9012303001764,新規,0,2022-12-23,2022-12-23,合同会社クリエイト,,合同会社,東京都,町田市,山崎町２２００番地山崎団地２－１－５０１,,13,209,1950074,,,,,,,2022-12-23,1,,,,,クリエイト,0
2125,9012701017412,新規,0,2022-12-23,2022-12-23,株式会社百春,,株式会社,東京都,西東京市,ひばりが丘北４丁目２番２４号２Ｆ,,13,229,2020002,,,,,,,2022-12-23,1,,,,,モモハル,0
2131,9013301050101,新規,0,2022-12-23,2022-12-23,株式会社マキシム,,株式会社,東京都,豊島区,南大塚２丁目１５番６号金文字ビル５０２号,,13,116,1700005,,,,,,,2022-12-23,1,,,,,マキシム,0
2132,9013303006423,新規,0,2022-12-23,2022-12-23,合同会社Ｌａｎｉ　Ａｋａｌａ,,合同会社,東京都,豊島区,西池袋４丁目２７番１０－２０１号,,13,116,1710021,,,,,,,2022-12-23,1,,,,,ラニアカラ,0
2139,9020001149520,新規,0,2022-12-23,2022-12-23,株式会社新明丸,,株式会社,神奈川県,横浜市鶴見区,鶴見中央５丁目１１番２１号,,14,101,2300051,,,,,,,2022-12-23,1,,,,,シンミョウマル,0
2140,9020001149529,新規,0,2022-12-23,2022-12-23,株式会社慶,,株式会社,神奈川県,横浜市金沢区,釜利谷西１丁目１５番２８号,,14,108,2360046,,,,,,,2022-12-23,1,,,,,ケイ,0
2141,9020001149537,新規,0,2022-12-23,2022-12-23,株式会社グッドサン,,株式会社,神奈川県,横浜市西区,戸部本町５０－１８－８０３,,14,103,2200041,,,,,,,2022-12-23,1,,,,,グッドサン,0
2143,9020003022948,新規,0,2022-12-23,2022-12-23,合同会社Ｕｐ　ｄｒａｆｔ,,合同会社,神奈川県,横浜市港南区,日野南１丁目５番１３号勇吉サンハイツ別棟Ａ,,14,111,2340055,,,,,,,2022-12-23,1,,,,,アップドラフト,0
2144,9020003022956,新規,0,2022-12-23,2022-12-23,合同会社スマイルスプラウト,,合同会社,神奈川県,横浜市中区,桜木町１丁目１０１番地１クロスゲート７階,,14,104,2310062,,,,,,,2022-12-23,1,,,,,スマイルスプラウト,0
2146,9021001077785,新規,0,2022-12-23,2022-12-23,株式会社なごみ,,株式会社,神奈川県,相模原市南区,上鶴間本町８丁目４６番１４号,,14,153,2520318,,,,,,,2022-12-23,1,,,,,ナゴミ,0
2153,9030001151599,新規,0,2022-12-23,2022-12-23,株式会社＿栄,00128891,株式会社,埼玉県,八潮市,大字大曽根２３２番地３,,11,234,3400834,,,,,,,2022-12-23,1,,,,,シンエイ,0
2154,9030001151624,新規,0,2022-12-23,2022-12-23,キャスタル株式会社,,株式会社,埼玉県,所沢市,小手指町１丁目２５番地の１ヴィルセゾン小手指Ｂ－７１５,,11,208,3591141,,,,,,,2022-12-23,1,,,,,キャスタル,0
2160,9030003020760,新規,0,2022-12-23,2022-12-23,ＬＶＳホールディングス合同会社,,合同会社,埼玉県,入間郡越生町,大字古池７００番地弓阜山庄Ｅ１０８,,11,327,3500401,,,,,,,2022-12-23,1,,,,,エルビーエスホールディングス,0
2165,9040001126369,新規,0,2022-12-23,2022-12-23,株式会社アズマスタッフサービス,,株式会社,千葉県,野田市,野田３５５番地３,,12,208,2780037,,,,,,,2022-12-23,1,,,,,アズマスタッフサービス,0
2169,9050001052135,新規,0,2022-12-23,2022-12-23,鳳凰株式会社,,株式会社,茨城県,潮来市,あやめ２丁目３０番地７,,08,223,3112425,,,,,,,2022-12-23,1,,,,,ホウオウ,0
2171,9050003007112,新規,0,2022-12-23,2022-12-23,クリスティーズ合同会社,,合同会社,茨城県,土浦市,湖北２丁目９番１－２０２号エスバイエルマンション,,08,203,3000032,,,,,,,2022-12-23,1,,,,,クリスティーズ,0
2177,9070001039956,新規,0,2022-12-23,2022-12-23,株式会社塩谷電工,,株式会社,群馬県,前橋市,下細井町３０３番地１,,10,201,3710054,,,,,,,2022-12-23,1,,,,,シオタニデンコウ,0
2186,9100001035992,新規,0,2022-12-23,2022-12-23,株式会社ＤＩＮＧ,,株式会社,長野県,北安曇郡白馬村,大字北城２９３７－６４６,,20,485,3999301,,,,,,,2022-12-23,1,,,,,ディン,0
2200,9120001251274,新規,0,2022-12-23,2022-12-23,株式会社Ｃｏｍｒａｄｅ,,株式会社,大阪府,大阪市阿倍野区,西田辺町２丁目２番２１号２Ｆ,,27,119,5450014,,,,,,,2022-12-23,1,,,,,コムラッド,0
2201,9120001251316,新規,0,2022-12-23,2022-12-23,株式会社Ｃｏｌｏｒｅ,,株式会社,大阪府,大阪市北区,梅田１丁目１番３号大阪駅前第３ビル２３０７,,27,127,5300001,,,,,,,2022-12-23,1,,,,,コロレ,0
2203,9120003023102,新規,0,2022-12-23,2022-12-23,士星合同会社,,合同会社,大阪府,大阪市生野区,中川４丁目２－４ホワイトビル２０３室,,27,116,5440005,,,,,,,2022-12-23,1,,,,,シセイ,0
2213,9122003002473,新規,0,2022-12-23,2022-12-23,すずや合同会社,,合同会社,大阪府,大東市,深野５丁目１９番１２号,,27,218,5740072,,,,,,,2022-12-23,1,,,,,スズヤ,0
2217,9130001073338,新規,0,2022-12-23,2022-12-23,比昂株式会社,,株式会社,京都府,京都市北区,大北山原谷乾町４７－９－２０２,,26,101,6038487,,,,,,,2022-12-23,1,,,,,ヒコウ,0
2225,9140001128446,新規,0,2022-12-23,2022-12-23,株式会社ＲｏｏｔｓＳａｎｄａｙａ,,株式会社,兵庫県,神戸市中央区,北野町１丁目１番,,28,110,6500002,,,,,,,2022-12-23,1,,,,,ルーツサンダヤ,0
2226,9140003018488,新規,0,2022-12-23,2022-12-23,合同会社Ｃｏｒｏｍｏ　Ｆａｃｔｏｒｙ,,合同会社,兵庫県,尼崎市,田能１丁目１６番１－６０６号,,28,202,6610951,,,,,,,2022-12-23,1,,,,,コロモファクトリー,0
2227,9140003018505,新規,0,2022-12-23,2022-12-23,Ｋ‐ＰＯＲＴ合同会社,,合同会社,兵庫県,神戸市兵庫区,新開地１丁目３－１８プリオーレ神戸８０１号室,,28,105,6520811,,,,,,,2022-12-23,1,,,,,ケイポート,0
2229,9150001026038,新規,0,2022-12-23,2022-12-23,株式会社ｇｌｏｗ‐ｂｌｏｏｍ,,株式会社,奈良県,橿原市,内膳町３丁目８番５号ＢｉｚＷｏｒｋ３０４,,29,205,6340804,,,,,,,2022-12-23,1,,,,,グローブルーム,0
2230,9160001024726,新規,0,2022-12-23,2022-12-23,株式会社孫七商店,,株式会社,滋賀県,近江八幡市,北之庄町４９２ヴォーリズ記念病院旧本館（ツッカーハウス内）,,25,204,5230806,,,,,,,2022-12-23,1,,,,,マゴシチショウテン,0
2243,9180001154298,新規,0,2022-12-23,2022-12-23,ＮＲ‐Ｐｏｗｅｒ　Ｌａｂ株式会社,,株式会社,愛知県,名古屋市千種区,千種２丁目２２番８号,,23,101,4640858,,,,,,,2022-12-23,1,,,,,エヌアールパワーラボ,0
2244,9180001154323,新規,0,2022-12-23,2022-12-23,株式会社伊吹ＦＦ,,株式会社,愛知県,名古屋市中区,栄２丁目１２番２２号ウィンコート白川９０７号,,23,106,4600008,,,,,,,2022-12-23,1,,,,,イブキエフエフ,0
2245,9180001154331,新規,0,2022-12-23,2022-12-23,株式会社エヴォット,,株式会社,愛知県,名古屋市南区,内田橋１丁目２５番４号,,23,112,4570862,,,,,,,2022-12-23,1,,,,,エヴォット,0
2253,9180301036931,新規,0,2022-12-23,2022-12-23,株式会社ミライノ,,株式会社,愛知県,豊橋市,飯村北５丁目７番地１４,,23,201,4400834,,,,,,,2022-12-23,1,,,,,ミライノ,0
2259,9200003005777,新規,0,2022-12-23,2022-12-23,ケイテック合同会社,,合同会社,岐阜県,羽島市,正木町新井１０８１番地１,,21,209,5016225,,,,,,,2022-12-23,1,,,,,ケイテック,0
2268,9240001060845,新規,0,2022-12-23,2022-12-23,株式会社エリオント,,株式会社,広島県,広島市中区,胡町３－７ロイヤルアサヒ館５０１,,34,101,7300021,,,,,,,2022-12-23,1,,,,,エリオント,0
2281,9290001100002,新規,0,2022-12-23,2022-12-23,株式会社メソテック,,株式会社,福岡県,太宰府市,大佐野６丁目１２－３７,,40,221,8180134,,,,,,,2022-12-23,1,,,,,メソテック,0
2283,9290003013342,新規,0,2022-12-23,2022-12-23,合同会社ａｃｔｉｓｔ,,合同会社,福岡県,福岡市博多区,冷泉町１番３号エクセレンス祇園４０４号,,40,132,8120039,,,,,,,2022-12-23,1,,,,,アクティスト,0
2295,9360001031355,新規,0,2022-12-23,2022-12-23,株式会社パーティーフェイス,,株式会社,沖縄県,那覇市,銘苅３丁目１１番９号,,47,201,9000004,,,,,,,2022-12-23,1,,,,,パーティーフェイス,0
2297,9360003012584,新規,0,2022-12-23,2022-12-23,Ｊｏｈｎｎｙ’ｓ　Ｃｒｅｗ合同会社,,合同会社,沖縄県,宮古島市,平良字下里３９２番地１－１Ｆ,,47,214,9060013,,,,,,,2022-12-23,1,,,,,ジョニーズクルー,0
2299,9360005006758,新規,0,2022-12-23,2022-12-23,一般社団法人みやび企画,,その他の設立登記法人,沖縄県,那覇市,松島１丁目９番１０号,,47,201,9020069,,,,,,,2022-12-23,1,,,,,ミヤビキカク,0
2302,9370005010585,新規,0,2022-12-23,2022-12-23,一般社団法人終活サポート仙台,,その他の設立登記法人,宮城県,仙台市太白区,鈎取１丁目２番７号,,04,104,9820804,,,,,,,2022-12-23,1,,,,,シュウカツサポートセンダイ,0
2314,9420005007832,新規,0,2022-12-23,2022-12-23,ＮＰＯ法人ひろだい多文化リソースルーム,,その他の設立登記法人,青森県,弘前市,大字文京町１番地,,02,202,0368224,,,,,,,2022-12-23,1,,,,,エヌピーオーホウジンヒロダイタブンカリソースルーム,0
2326,9500001024658,新規,0,2022-12-23,2022-12-23,株式会社丸大青果,,株式会社,愛媛県,今治市,大三島町宗方３２７５番地,,38,202,7941309,,,,,,,2022-12-23,1,,,,,マルダイセイカ,0
2327,9700150113489,新規,0,2022-12-23,2022-12-23,ｓｈｅｎｚｈｅｎｓｈｉ　ｙｕａｎｓｈａｎｇｆｅｎｇ　ｄｉａｎｚｉ　ｓｈａｎｇｗｕ　ｙｏｕｘｉａｎｇｏｎｇｓｉ,,外国会社等,,,,,,,,Ｒｏｏｍ４０３　Ｎｏ．１６　ｓａｎｈｅｈｕａｑｉａｏｅｒｑｕ，ｔｏｎｇｓｈｅｎｇｓｈｅｑｕ，Ｄｌａｎｇｊｉｅｄａｏ，ｌｏｎｇｈｕａｑｕ，Ｓｈｅｎｚｈｅｎ　Ｇｕａｎｇｄｏｎｇ，Ｃｈｉｎａ,,,,,,2022-12-23,1,,,,,シンセンシユアシャンフェンデンシショウウユウゲンコウシ,0
2328,9700150113497,新規,0,2022-12-23,2022-12-23,ＧＡＬＡＣＴＩＣ　ＣＨＡＮＣＥ　ＴＥＣＨＮＯＬＯＧＹ　ＰＴＥ．ＬＴＤ．,,外国会社等,大阪府,大阪市城東区,諏訪４丁目２２－２０,,27,118,5360021,１１１　ＮＯＲＴＨ　ＢＲＩＤＧＥ　ＲＯＡＤ　＃１４－０４　ＰＥＮＩＮＳＵＬＡＰＬＡＺＡ　ＳＩＮＧＡＰＯＲＥ（１７９０９８）,,,,,,2022-12-23,1,,,,,ギヤラクテイツクチヤンステクノロジープライベートリミテツド,0
