sequenceNumber,corporateNumber,process,correct,updateDate,changeDate,name,nameImageId,kind,prefectureName,cityName,streetNumber,addressImageId,prefectureCode,cityCode,postCode,addressOutside,addressOutsideImageId,closeDate,closeCause,successorCorporateNumber,changeCause,assignmentDate,latest,enName,enPrefectureName,enCityName,enAddressOutside,furigana,hihyoji
15,1010001261325,新規,0,2026-01-20,2026-01-20,株式会社Ｓｏｒｉｓｅ,,株式会社,東京都,中央区,銀座１丁目２２番１１号銀座大竹ビジデンス２Ｆ,,13,102,1040061,,,,,,,2026-01-20,1,,,,,ソライズ,0
16,1010001261606,新規,0,2026-01-20,2026-01-20,さつき株式会社,,株式会社,東京都,中央区,晴海５丁目４番１号６階,,13,102,1040053,,,,,,,2026-01-20,1,,,,,サツキ,0
17,1010001261738,新規,0,2026-01-20,2026-01-20,株式会社ＴＲＹＭ,,株式会社,東京都,千代田区,神田神保町１丁目３６番１号,,13,101,1010051,,,,,,,2026-01-20,1,,,,,トライム,0
18,1010001261770,新規,0,2026-01-20,2026-01-20,株式会社ソラコア,,株式会社,東京都,千代田区,神田神保町３丁目１１番６号神保町ビル１０階,,13,101,1010051,,,,,,,2026-01-20,1,,,,,ソラコア,0
19,1010001261812,新規,0,2026-01-20,2026-01-20,株式会社三井村,,株式会社,東京都,中央区,銀座１丁目１２番４号Ｎ＆ＥＢＬＤ．６Ｆ,,13,102,1040061,,,,,,,2026-01-20,1,,,,,サンイムラ,0
20,1010001262001,新規,0,2026-01-20,2026-01-20,スカイ株式会社,,株式会社,東京都,千代田区,丸の内２丁目７番２号,,13,101,1000005,,,,,,,2026-01-20,1,,,,,スカイ,0
21,1010001262034,新規,0,2026-01-20,2026-01-20,株式会社浅沼ホールディングス,,株式会社,東京都,中央区,日本橋小舟町７番２号,,13,102,1030024,,,,,,,2026-01-20,1,,,,,アサヌマホールディングス,0
26,1010003049917,新規,0,2026-01-20,2026-01-20,プランアワーズ合同会社,,合同会社,東京都,文京区,湯島３丁目１８番１０－３０７号,,13,105,1130034,,,,,,,2026-01-20,1,,,,,プランアワーズ,0
27,1010003049933,新規,0,2026-01-20,2026-01-20,合同会社ＧＰＺ,,合同会社,東京都,千代田区,神田須田町１丁目７番８号ＶＯＲＴ秋葉原ＩＶ２Ｆ,,13,101,1010041,,,,,,,2026-01-20,1,,,,,ジーピージー,0
28,1010003050008,新規,0,2026-01-20,2026-01-20,ヤマテラス合同会社,,合同会社,東京都,中央区,日本橋浜町２丁目２４－２キッチンゲート浜町１ＦＢ区画,,13,102,1030007,,,,,,,2026-01-20,1,,,,,ヤマテラス,0
29,1010003050024,新規,0,2026-01-20,2026-01-20,合同会社ｎａｇｉｆｌｏｗ,,合同会社,東京都,文京区,千駄木２丁目２６－７－９０１,,13,105,1130022,,,,,,,2026-01-20,1,,,,,ナギフロー,0
37,1010401195560,新規,0,2026-01-20,2026-01-20,萬堂株式会社,,株式会社,東京都,港区,北青山１丁目３番１号アールキューブ青山３階,,13,103,1070061,,,,,,,2026-01-20,1,,,,,ヨロヅドウ,0
38,1010401195899,新規,0,2026-01-20,2026-01-20,株式会社鮨たきもと,,株式会社,東京都,港区,六本木１丁目４番５－１０１号,,13,103,1060032,,,,,,,2026-01-20,1,,,,,スシタキモト,0
39,1010401195916,新規,0,2026-01-20,2026-01-20,ラクトニクス株式会社,,株式会社,東京都,港区,赤坂９丁目７番２号ミッドタウン・イースト４階,,13,103,1070052,,,,,,,2026-01-20,1,,,,,ラクトニクス,0
42,1010403037083,新規,0,2026-01-20,2026-01-20,合同会社Ｙ２,,合同会社,東京都,港区,港南２丁目１５番１号品川インターシティＡ棟２８階,,13,103,1080075,,,,,,,2026-01-20,1,,,,,ワイツー,0
43,1010501055276,新規,0,2026-01-20,2026-01-20,Ｕｎｐｌｕｇ株式会社,,株式会社,東京都,台東区,小島２丁目７番１号,,13,106,1110056,,,,,,,2026-01-20,1,,,,,アンプラグ,0
47,1010601068574,新規,0,2026-01-20,2026-01-20,Ｓａｙａｍａ　Ｖｅｎｔｕｒｅｓ株式会社,,株式会社,東京都,江東区,有明３丁目７－２６有明フロンティアビルＢ棟９階,,13,108,1350063,,,,,,,2026-01-20,1,,,,,サヤマベンチャーズ,0
111,1011001174186,新規,0,2026-01-20,2026-01-20,株式会社ＯＵＲ　ＭＩＮＤ,,株式会社,東京都,渋谷区,恵比寿２丁目３３番１５号オープンレジデンシア恵比寿コート,,13,113,1500013,,,,,,,2026-01-20,1,,,,,アワーマインド,0
112,1011001174863,新規,0,2026-01-20,2026-01-20,株式会社ＹＥＴＩＳ,,株式会社,東京都,渋谷区,道玄坂１丁目１０番８号渋谷道玄坂東急ビル２階Ｃ号室,,13,113,1500043,,,,,,,2026-01-20,1,,,,,イエティーズ,0
113,1011001174871,新規,0,2026-01-20,2026-01-20,株式会社エフズ,,株式会社,東京都,渋谷区,神南１丁目１１番３号,,13,113,1500041,,,,,,,2026-01-20,1,,,,,エフズ,0
114,1011001174946,新規,0,2026-01-20,2026-01-20,株式会社うつら,,株式会社,東京都,渋谷区,円山町５番３号ＭＩＥＵＸ渋谷ビル８階,,13,113,1500044,,,,,,,2026-01-20,1,,,,,ウツラ,0
115,1011001174962,新規,0,2026-01-20,2026-01-20,株式会社ＧＡＭ０１４,,株式会社,東京都,渋谷区,千駄ヶ谷２丁目３０番１号,,13,113,1510051,,,,,,,2026-01-20,1,,,,,ジーエーエムゼロイチヨン,0
116,1011001174970,新規,0,2026-01-20,2026-01-20,株式会社カミガイト,,株式会社,東京都,渋谷区,富ヶ谷１丁目９番１７号竹原ビル２０３,,13,113,1510063,,,,,,,2026-01-20,1,,,,,カミガイト,0
117,1011001175003,新規,0,2026-01-20,2026-01-20,株式会社Ｎｏａｆｉｘ,,株式会社,東京都,渋谷区,道玄坂１丁目１０番８号渋谷道玄坂東急ビル２Ｆ－Ｃ,,13,113,1500043,,,,,,,2026-01-20,1,,,,,ノアフィックス,0
118,1011001175093,新規,0,2026-01-20,2026-01-20,株式会社ＫＡＫＥＺＡＮ,,株式会社,東京都,渋谷区,道玄坂１丁目１０番８号渋谷道玄坂東急ビル２Ｆ－Ｃ,,13,113,1500043,,,,,,,2026-01-20,1,,,,,カケザン,0
137,1011101114463,新規,0,2026-01-20,2026-01-20,株式会社Ｅｔｅｒｎａｌ,,株式会社,東京都,新宿区,北新宿１丁目２番８号,,13,104,1690074,,,,,,,2026-01-20,1,,,,,エターナル,0
138,1011101114711,新規,0,2026-01-20,2026-01-20,ウエストリバー株式会社,,株式会社,東京都,新宿区,新宿１丁目１１－７サンサーラ第５御苑１階Ｄ号室,,13,104,1600022,,,,,,,2026-01-20,1,,,,,ウエストリバー,0
139,1011103016872,新規,0,2026-01-20,2026-01-20,合同会社ＣＯＮＮＥＣＴＩＯＮ,,合同会社,東京都,新宿区,西新宿３丁目３番１３号西新宿水間ビル２Ｆ,,13,104,1600023,,,,,,,2026-01-20,1,,,,,コネクション,0
144,1011301031194,新規,0,2026-01-20,2026-01-20,株式会社杉並訪問鍼灸マッサージ,,株式会社,東京都,杉並区,松庵３丁目３９番１０号１Ｆ,,13,115,1670054,,,,,,,2026-01-20,1,,,,,スギナミホウモンシンキュウマッサージ,0
146,1011303005832,新規,0,2026-01-20,2026-01-20,合同会社フラコッタデコ,,合同会社,東京都,杉並区,阿佐谷南２丁目１１番９号,,13,115,1660004,,,,,,,2026-01-20,1,,,,,フラコッタデコ,0
152,1012301014676,新規,0,2026-01-20,2026-01-20,株式会社ＴＡＭ,,株式会社,東京都,町田市,野津田町６４２番地１２,,13,209,1950063,,,,,,,2026-01-20,1,,,,,タム,0
153,1012301014684,新規,0,2026-01-20,2026-01-20,ＲＡＹＡ株式会社,,株式会社,東京都,町田市,小山町３６６８番地,,13,209,1940212,,,,,,,2026-01-20,1,,,,,ラヤ,0
156,1012405005209,新規,0,2026-01-20,2026-01-20,特定非営利活動法人東屋,,その他の設立登記法人,東京都,小金井市,本町１丁目１７番９－２０１号,,13,210,1840004,,,,,,,2026-01-20,1,,,,,アズマヤ,0
158,1012801024480,新規,0,2026-01-20,2026-01-20,株式会社３Ｃ,,株式会社,東京都,東大和市,奈良橋５丁目７９２番地の１,,13,220,2070031,,,,,,,2026-01-20,1,,,,,サンシー,0
160,1013101009916,新規,0,2026-01-20,2026-01-20,株式会社日本環境整備,,株式会社,東京都,あきる野市,雨間５３１番地１０,,13,228,1970825,,,,,,,2026-01-20,1,,,,,ニホンカンキョウセイビ,0
175,1013301055611,新規,0,2026-01-20,2026-01-20,アスピナルキャピタル株式会社,,株式会社,東京都,豊島区,南池袋３丁目２１番１２号ブランネージュ南池袋１０１号,,13,116,1710022,,,,,,,2026-01-20,1,,,,,アスピナルキャピタル,0
176,1013301055636,新規,0,2026-01-20,2026-01-20,株式会社Ｍａｋｕａｋｅ,,株式会社,東京都,豊島区,東池袋１丁目３番７号４階,,13,116,1700013,,,,,,,2026-01-20,1,,,,,マクアケ,0
180,1020001166647,新規,0,2026-01-20,2026-01-20,株式会社シルクス,,株式会社,神奈川県,川崎市麻生区,王禅寺東３丁目３３番９号Ａ,,14,137,2150018,,,,,,,2026-01-20,1,,,,,シルクス,0
181,1020001166671,新規,0,2026-01-20,2026-01-20,株式会社リヒトブリック,,株式会社,神奈川県,横浜市都筑区,二の丸１５番３号,,14,118,2240052,,,,,,,2026-01-20,1,,,,,リヒトブリック,0
182,1020001166804,新規,0,2026-01-20,2026-01-20,株式会社ＩＮＦＩＮＩＴＹ,,株式会社,神奈川県,横浜市中区,本町６丁目５０－１ｇｏｏｄｒｏｏｍｌｏｕｎｇｅ横浜馬車道,,14,104,2310005,,,,,,,2026-01-20,1,,,,,インフィニティ,0
186,1020003030207,新規,0,2026-01-20,2026-01-20,合同会社ＰａｉｒＷｅｌｌ,,合同会社,神奈川県,横浜市神奈川区,金港町５―１４クアドリフォリオ８階,,14,102,2210056,,,,,,,2026-01-20,1,,,,,ペアウェル,0
193,1021001087263,新規,0,2026-01-20,2026-01-20,株式会社ＲＯＣＫＳ,,株式会社,神奈川県,相模原市中央区,田名４２５８番地１,,14,152,2520244,,,,,,,2026-01-20,1,,,,,ロックス,0
198,1021005013513,新規,0,2026-01-20,2026-01-20,一般社団法人日本管理職育成協会,,その他の設立登記法人,神奈川県,厚木市,愛名５１６番地１４,,14,212,2430038,,,,,,,2026-01-20,1,,,,,ニッポンカンリショクイクセイキョウカイ,0
202,1030001170573,新規,0,2026-01-20,2026-01-20,株式会社Ｒ＆Ａ,,株式会社,埼玉県,川口市,安行出羽４丁目１２－９,,11,203,3340052,,,,,,,2026-01-20,1,,,,,アールアンドエー,0
203,1030001170631,新規,0,2026-01-20,2026-01-20,株式会社プラチナフェニックス,,株式会社,埼玉県,ふじみ野市,亀久保２１９３－２,,11,245,3560051,,,,,,,2026-01-20,1,,,,,プラチナフェニックス,0
204,1030001170648,新規,0,2026-01-20,2026-01-20,新日本トラベルセンター株式会社,,株式会社,埼玉県,川口市,戸塚東３丁目１５番７号グラン・ピエ２０５号室,,11,203,3330802,,,,,,,2026-01-20,1,,,,,シンニホントラベルセンター,0
208,1030003028332,新規,0,2026-01-20,2026-01-20,合同会社クイックライン,,合同会社,埼玉県,北足立郡伊奈町,大字大針１６３８番地８３,,11,301,3620803,,,,,,,2026-01-20,1,,,,,クイックライン,0
222,1060001038917,新規,0,2026-01-20,2026-01-20,Ａｍａｚｉｎｇ　Ｄａｙ株式会社,,株式会社,栃木県,宇都宮市,御幸本町４８７４番地６,,09,201,3210983,,,,,,,2026-01-20,1,,,,,アメージングデイ,0
225,1080101026027,新規,0,2026-01-20,2026-01-20,雄大インクルージョン株式会社,,株式会社,静岡県,沼津市,本郷町３８番６号,,22,203,4100817,,,,,,,2026-01-20,1,,,,,ユウダイインクルージョン,0
233,1090003002967,新規,0,2026-01-20,2026-01-20,合同会社ＭＩＮＡＭＩ,,合同会社,山梨県,甲府市,千塚４丁目８番１３号,,19,201,4000074,,,,,,,2026-01-20,1,,,,,ミナミ,0
236,1100001039258,新規,0,2026-01-20,2026-01-20,株式会社グローバル・アグリ,,株式会社,長野県,南佐久郡川上村,大字原１１７１番地１,,20,304,3841406,,,,,,,2026-01-20,1,,,,,グローバルアグリ,0
237,1100003008574,新規,0,2026-01-20,2026-01-20,Ｈａｎｄｓ‐ｅ合同会社,,合同会社,長野県,上田市,住吉４２８－２,,20,203,3860002,,,,,,,2026-01-20,1,,,,,ハンズイー,0
254,1120003031698,新規,0,2026-01-20,2026-01-20,合同会社笑愛,,合同会社,大阪府,大阪市中央区,北久宝寺町１丁目１番１号,,27,128,5410057,,,,,,,2026-01-20,1,,,,,エマ,0
256,1120005025368,新規,0,2026-01-20,2026-01-20,医療法人鳳翔会,,その他の設立登記法人,大阪府,大阪市北区,芝田２丁目２番１号ＯＳＡＫＡＵＫ・ＧＡＴＥ４Ｆ,,27,127,5300012,,,,,,,2026-01-20,1,,,,,ホウショウカイ,0
257,1120105010105,新規,0,2026-01-20,2026-01-20,一般社団法人桜爛会,,その他の設立登記法人,大阪府,和泉市,いぶき野１丁目１－１１,,27,219,5940041,,,,,,,2026-01-20,1,,,,,オウランカイ,0
260,1120901052127,新規,0,2026-01-20,2026-01-20,株式会社Ｉｔ’ｓ　Ａｕｔｏｍａｔｉｃ,,株式会社,大阪府,吹田市,幸町８－１３,,27,205,5640015,,,,,,,2026-01-20,1,,,,,イッツオートマティック,0
261,1120903006031,新規,0,2026-01-20,2026-01-20,時音神楽合同会社,,合同会社,大阪府,茨木市,岩倉町２番１５０号立命館いばらきフューチャープラザＢ棟１Ｆ茨木商工会議所内,,27,211,5670871,,,,,,,2026-01-20,1,,,,,トキネカグラ,0
270,1130001081397,新規,0,2026-01-20,2026-01-20,株式会社ＫｅｙＨｅａｒｔｓ,,株式会社,京都府,京都市西京区,大枝塚原町５番地３５１,,26,111,6101105,,,,,,,2026-01-20,1,,,,,キーハーツ,0
271,1130001081430,新規,0,2026-01-20,2026-01-20,株式会社島本万見,,株式会社,京都府,京都市右京区,太秦乾町１０番地１の４１８号,,26,108,6168176,,,,,,,2026-01-20,1,,,,,シマモトマンミ,0
285,1180001170352,新規,0,2026-01-20,2026-01-20,株式会社ＴＫ‐１,,株式会社,愛知県,名古屋市西区,城町３０２番地,,23,104,4520842,,,,,,,2026-01-20,1,,,,,ティーケーワン,0
287,1180003029571,新規,0,2026-01-20,2026-01-20,合同会社ＴＭＦ,,合同会社,愛知県,名古屋市西区,上小田井２丁目１７３番地,,23,104,4520821,,,,,,,2026-01-20,1,,,,,ティーエムエフ,0
288,1180003029638,新規,0,2026-01-20,2026-01-20,合同会社ＧｒａｎｄＯｒｉｏｎ,,合同会社,愛知県,長久手市,砂子１３０９番地シーズンコート杁ケ池Ａ棟１Ａ,,23,238,4801112,,,,,,,2026-01-20,1,,,,,グランドオリオン,0
289,1180003029646,新規,0,2026-01-20,2026-01-20,合同会社ＫＤＯ,,合同会社,愛知県,名古屋市千種区,東山通１丁目２１番１号ピアン本山５０５号室,,23,101,4640807,,,,,,,2026-01-20,1,,,,,ケイディオー,0
290,1180005021394,新規,0,2026-01-20,2026-01-20,一般財団法人キッズキュア財団,,その他の設立登記法人,愛知県,名古屋市東区,葵１丁目１９番３０号,,23,102,4610004,,,,,,,2026-01-20,1,,,,,キッズキュアザイダン,0
291,1180301040619,新規,0,2026-01-20,2026-01-20,株式会社Ｍ　Ａｇｅｎｃｙ,,株式会社,愛知県,豊田市,折平町上赤土１７２番地,,23,211,4700464,,,,,,,2026-01-20,1,,,,,エムエージェンシー,0
292,1180303006857,新規,0,2026-01-20,2026-01-20,合同会社東喜,,合同会社,愛知県,蒲郡市,八百富町３丁目１１２番地,,23,214,4430055,,,,,,,2026-01-20,1,,,,,トウキ,0
384,1230001021252,新規,0,2026-01-20,2026-01-20,株式会社昭信,,株式会社,富山県,南砺市,岩屋１番地,,16,210,9320203,,,,,,,2026-01-20,1,,,,,ショウシン,0
395,1290001112855,新規,0,2026-01-20,2026-01-20,ＰＩＮＯＳＨＩ株式会社,,株式会社,福岡県,糟屋郡粕屋町,長者原東１丁目１番１３号,,40,349,8112317,,,,,,,2026-01-20,1,,,,,ピノシ,0
400,1290003017920,新規,0,2026-01-20,2026-01-20,合同会社鈴,,合同会社,福岡県,福岡市南区,柏原６丁目６２番３－２０３号,,40,134,8111353,,,,,,,2026-01-20,1,,,,,スズ,0
408,1360001036279,新規,0,2026-01-20,2026-01-20,株式会社ＫＵＩＳＨＩＮＢＯ,,株式会社,沖縄県,宜野湾市,大謝名３丁目４－１,,47,205,9012225,,,,,,,2026-01-20,1,,,,,クイシンボウ,0
409,1360003015553,新規,0,2026-01-20,2026-01-20,合同会社ヘルプアンドサポート,,合同会社,沖縄県,沖縄市,山里２丁目１５番２１号２Ｆ,,47,211,9040033,,,,,,,2026-01-20,1,,,,,ヘルプアンドサポート,0
410,1370003007450,新規,0,2026-01-20,2026-01-20,合同会社ＳＡＮＷＡＤＯＭ,,合同会社,宮城県,東松島市,赤井字南新町９番地１５,,04,214,9810501,,,,,,,2026-01-20,1,,,,,サンワダム,0
449,1430001096101,新規,0,2026-01-20,2026-01-20,株式会社２．０,,株式会社,北海道,札幌市中央区,南二条西７丁目８－２南２条ビル６０６号室,,01,101,0600062,,,,,,,2026-01-20,1,,,,,ニーテンゼロ,0
452,1430003018508,新規,0,2026-01-20,2026-01-20,合同会社ＡＬＳＯ,,合同会社,北海道,札幌市白石区,中央二条５丁目３番１号,,01,104,0030012,,,,,,,2026-01-20,1,,,,,オルソー,0
475,2010001261704,新規,0,2026-01-20,2026-01-20,ヴィア株式会社,,株式会社,東京都,中央区,京橋３丁目１番１号,,13,102,1040031,,,,,,,2026-01-20,1,,,,,ヴィア,0
476,2010001261869,新規,0,2026-01-20,2026-01-20,彩日株式会社,,株式会社,東京都,中央区,築地２丁目１番４号,,13,102,1040045,,,,,,,2026-01-20,1,,,,,サイジツ,0
477,2010001261968,新規,0,2026-01-20,2026-01-20,株式会社Ｐａｔｈｏ‐Ｌｏｇｉｃ,,株式会社,東京都,中央区,銀座１丁目２２－１１銀座大竹ビジデンス２Ｆ,,13,102,1040061,,,,,,,2026-01-20,1,,,,,パソロジック,0
478,2010001262009,新規,0,2026-01-20,2026-01-20,品尚帰宝株式会社,,株式会社,東京都,中央区,日本橋小網町３番１８号スターコート日本橋９階,,13,102,1030016,,,,,,,2026-01-20,1,,,,,ヒンショウキホウ,0
483,2010003050031,新規,0,2026-01-20,2026-01-20,合同会社ＣＶＨＫマスターリース,,合同会社,東京都,中央区,銀座２丁目１０番８号マニエラ銀座ビル４階,,13,102,1040061,,,,,,,2026-01-20,1,,,,,シーブイエイチケーマスターリース,0
486,2010401195840,新規,0,2026-01-20,2026-01-20,株式会社ＮＯＸ,,株式会社,東京都,港区,南青山３丁目１番３６号青山丸竹ビル６Ｆ,,13,103,1070062,,,,,,,2026-01-20,1,,,,,ノックス,0
487,2010401195849,新規,0,2026-01-20,2026-01-20,株式会社Ａｂｓｏｌｖｅ,,株式会社,東京都,港区,虎ノ門２丁目６番１号虎ノ門ヒルズステーションタワー３９階,,13,103,1050001,,,,,,,2026-01-20,1,,,,,アブソルブ,0
488,2010401195898,新規,0,2026-01-20,2026-01-20,株式会社Ｋ,,株式会社,東京都,港区,六本木１丁目４番５－１０１号,,13,103,1060032,,,,,,,2026-01-20,1,,,,,ケイ,0
489,2010401195915,新規,0,2026-01-20,2026-01-20,株式会社トライアルブレイジング,,株式会社,東京都,港区,赤坂６丁目１９番５４－２１５号,,13,103,1070052,,,,,,,2026-01-20,1,,,,,トライアルブレイジング,0
490,2010401195956,新規,0,2026-01-20,2026-01-20,広拓テック株式会社,,株式会社,東京都,港区,新橋６丁目５番４号ＤＩＫ新橋４１７号室,,13,103,1050004,,,,,,,2026-01-20,1,,,,,ヒロタクテック,0
494,2010403037041,新規,0,2026-01-20,2026-01-20,ＪＯＫＥＲ＆Ｃｏ．合同会社,,合同会社,東京都,港区,南青山２丁目２番１５号ＷｉｎＡｏｙａｍａビルＵＣＦ６３５,,13,103,1070062,,,,,,,2026-01-20,1,,,,,ジョーカーアンドコー,0
495,2010403037082,新規,0,2026-01-20,2026-01-20,ＡｌｌｙＴｅｃｈ合同会社,,合同会社,東京都,港区,赤坂２丁目１４番１１号７０２Ｊ号室,,13,103,1070052,,,,,,,2026-01-20,1,,,,,アリーテック,0
496,2010403037090,新規,0,2026-01-20,2026-01-20,埼玉県東方バッテリーＪＳＤ２５００７合同会社,,合同会社,東京都,港区,北青山２丁目１２番４号,,13,103,1070061,,,,,,,2026-01-20,1,,,,,サイタマケンヒガシカタバッテリージェイエスディーニーゴーゼロゼロナナ,0
500,2010601068581,新規,0,2026-01-20,2026-01-20,株式会社Ｇｒａｖｉｔｙ,,株式会社,東京都,墨田区,東駒形１丁目６番１２号,,13,107,1300005,,,,,,,2026-01-20,1,,,,,グラヴィティー,0
501,2010601068598,新規,0,2026-01-20,2026-01-20,株式会社プロダ,,株式会社,東京都,墨田区,菊川１丁目１６番１８－３０１号,,13,107,1300024,,,,,,,2026-01-20,1,,,,,プロダ,0
502,2010603012026,新規,0,2026-01-20,2026-01-20,合同会社Ｃｒｅｅｒ　ｄｕ　ｖｅｎｔ,,合同会社,東京都,江東区,枝川３丁目９番１０－１１１７号,,13,108,1350051,,,,,,,2026-01-20,1,,,,,クレデュヴァン,0
510,2010701048913,新規,0,2026-01-20,2026-01-20,株式会社ＳｅｅｄＢｏｘ,,株式会社,東京都,品川区,二葉４丁目３－７グランデュオ品川中延１０３,,13,109,1420043,,,,,,,2026-01-20,1,,,,,シードボックス,0
512,2010801036974,新規,0,2026-01-20,2026-01-20,株式会社乾ぷらくてぃすラボ,,株式会社,東京都,大田区,大森西２丁目３０番９－４０８号,,13,111,1430015,,,,,,,2026-01-20,1,,,,,イヌイプラクティスラボ,0
513,2010803005696,新規,0,2026-01-20,2026-01-20,ＡＫフロンティア合同会社,,合同会社,東京都,大田区,中馬込２丁目１０－７,,13,111,1430027,,,,,,,2026-01-20,1,,,,,エーケーフロンティア,0
568,2011001174714,新規,0,2026-01-20,2026-01-20,株式会社Ｂｅｙｏｎｄ　ＨＲ,,株式会社,東京都,渋谷区,神泉町１０番１５号アネックス神泉３０１,,13,113,1500045,,,,,,,2026-01-20,1,,,,,ビヨンドエイチアール,0
569,2011001174846,新規,0,2026-01-20,2026-01-20,株式会社フラーワークス,,株式会社,東京都,渋谷区,神宮前３丁目２７番１５号,,13,113,1500001,,,,,,,2026-01-20,1,,,,,フラーワークス,0
570,2011001174912,新規,0,2026-01-20,2026-01-20,株式会社ＭＹＡＫ,,株式会社,東京都,渋谷区,恵比寿３丁目４６番７－５０１号,,13,113,1500013,,,,,,,2026-01-20,1,,,,,エムワイエーケー,0
571,2011001174929,新規,0,2026-01-20,2026-01-20,ＣＯＣＯＭＯＲＥ株式会社,,株式会社,東京都,渋谷区,恵比寿西２丁目５番４号ＩＮＴＥＧＲＥ代官山３０２号室,,13,113,1500021,,,,,,,2026-01-20,1,,,,,ココモア,0
572,2011001174994,新規,0,2026-01-20,2026-01-20,株式会社Ｂｌｅｓｓ　Ｈｏｎｅｙ,,株式会社,東京都,渋谷区,道玄坂１丁目１０番８号渋谷道玄坂東急ビル２Ｆ－Ｃ,,13,113,1500043,,,,,,,2026-01-20,1,,,,,ブレスハニー,0
573,2011001175051,新規,0,2026-01-20,2026-01-20,株式会社ＢＩＴエネルギー,,株式会社,東京都,渋谷区,道玄坂１丁目１０番８号渋谷道玄坂東急ビル２Ｆ－Ｃ,,13,113,1500043,,,,,,,2026-01-20,1,,,,,ビットエネルギー,0
574,2011001175126,新規,0,2026-01-20,2026-01-20,Ｔｈｅ　Ｍｏｖｉｎｇ　Ｈｅｒｏ株式会社,,株式会社,東京都,渋谷区,神南１丁目１４番７号ワイズ神南ビル２階,,13,113,1500041,,,,,,,2026-01-20,1,,,,,ザムービングヒーロー,0
579,2011003023381,新規,0,2026-01-20,2026-01-20,合同会社Ｃｏｂｒａ　Ｔｗｏ,,合同会社,東京都,渋谷区,神宮前１丁目５番８号,,13,113,1500001,,,,,,,2026-01-20,1,,,,,コブラツー,0
580,2011003023415,新規,0,2026-01-20,2026-01-20,ＤＡＴＡ＆ＦＩＥＬＤ合同会社,,合同会社,東京都,渋谷区,恵比寿西２丁目８番４号ＥＸ恵比寿西ビル５Ｆ,,13,113,1500021,,,,,,,2026-01-20,1,,,,,データアンドフィールド,0
590,2011101114462,新規,0,2026-01-20,2026-01-20,株式会社ＳＫＦ,,株式会社,東京都,新宿区,西新宿７丁目７－２５ワコーレ新宿第二ビル４０１,,13,104,1600023,,,,,,,2026-01-20,1,,,,,エスケーエフ,0
591,2011101114603,新規,0,2026-01-20,2026-01-20,株式会社アンリラーン,,株式会社,東京都,新宿区,市谷田町１丁目４,,13,104,1620843,,,,,,,2026-01-20,1,,,,,アンリラーン,0
594,2011303005831,新規,0,2026-01-20,2026-01-20,ＹＯ企画合同会社,,合同会社,東京都,杉並区,高井戸東３丁目３番１８号,,13,115,1680072,,,,,,,2026-01-20,1,,,,,ワイオーキカク,0
599,2012303002273,新規,0,2026-01-20,2026-01-20,合同会社ＬＮＶ,,合同会社,東京都,町田市,原町田４丁目１１番１３号４Ｆ,,13,209,1940013,,,,,,,2026-01-20,1,,,,,エルエヌブイ,0
616,2013301055552,新規,0,2026-01-20,2026-01-20,株式会社アプレイズ,,株式会社,東京都,豊島区,南大塚２丁目２７番４号,,13,116,1700005,,,,,,,2026-01-20,1,,,,,アプレイズ,0
617,2013301055593,新規,0,2026-01-20,2026-01-20,共堂企画株式会社,,株式会社,東京都,豊島区,南大塚２丁目１１番１０号ミモザビル３階,,13,116,1700005,,,,,,,2026-01-20,1,,,,,キョウドウキカク,0
618,2013301055619,新規,0,2026-01-20,2026-01-20,株式会社ウェルスライティング,,株式会社,東京都,豊島区,東池袋２丁目６２番８号ビッグオフィスプラザ池袋１２０６号,,13,116,1700013,,,,,,,2026-01-20,1,,,,,ウェルスライティング,0
622,2020001166464,新規,0,2026-01-20,2026-01-20,Ｍｉｗａ‐Ｈｏｌｄｉｎｇｓ株式会社,,株式会社,神奈川県,横浜市西区,北幸２丁目１０番４８号むつみビル３階,,14,103,2200004,,,,,,,2026-01-20,1,,,,,ミワホールディングス,0
623,2020001166654,新規,0,2026-01-20,2026-01-20,ＰＵＮＣＨ　ＬＩＮＥ株式会社,,株式会社,神奈川県,川崎市川崎区,浅田１丁目９番１５号メゾン山岸１０１,,14,131,2100847,,,,,,,2026-01-20,1,,,,,パンチライン,0
624,2020001166761,新規,0,2026-01-20,2026-01-20,株式会社バナナカート,,株式会社,神奈川県,川崎市高津区,子母口４３９番地４,,14,134,2130023,,,,,,,2026-01-20,1,,,,,バナナカート,0
625,2020003030081,新規,0,2026-01-20,2026-01-20,合同会社みゆき荘,,合同会社,神奈川県,横浜市神奈川区,神大寺４丁目１８番６号,,14,102,2210801,,,,,,,2026-01-20,1,,,,,,0
626,2020005017119,新規,0,2026-01-20,2026-01-20,一般社団法人ケアサポート,,その他の設立登記法人,神奈川県,横浜市瀬谷区,北新３６番地７,,14,114,2460036,,,,,,,2026-01-20,1,,,,,ケアサポート,0
628,2021001087171,新規,0,2026-01-20,2026-01-20,株式会社Ｆｌｏｌｉａ,,株式会社,神奈川県,海老名市,中新田１丁目２Ｃ－１４０１,,14,215,2430422,,,,,,,2026-01-20,1,,,,,フローリア,0
629,2021001087196,新規,0,2026-01-20,2026-01-20,株式会社愛心ケア,,株式会社,神奈川県,相模原市南区,相武台団地２丁目３番地５号,,14,153,2520323,,,,,,,2026-01-20,1,,,,,アイシンケア,0
630,2021001087270,新規,0,2026-01-20,2026-01-20,株式会社ＢＬＳ,,株式会社,神奈川県,横須賀市,追浜町３丁目１７－２エコ・グリーン追浜ビル２階Ａ号室,,14,201,2370064,,,,,,,2026-01-20,1,,,,,ビーエルエス,0
632,2021003016954,新規,0,2026-01-20,2026-01-20,Ｃｏｅｃｏ　Ｅｎｅｒｇｙ合同会社,,合同会社,神奈川県,藤沢市,鵠沼石上１丁目５－９メガサンエスビル６階,00142247,14,205,2510025,,,,,,,2026-01-20,1,,,,,コエコエナジー,0
634,2021005013512,新規,0,2026-01-20,2026-01-20,医療法人愛瑛会,,その他の設立登記法人,神奈川県,相模原市緑区,橋本２丁目１１番１２号トライアングルビル１・２Ｆ,,14,151,2520143,,,,,,,2026-01-20,1,,,,,アイエイカイ,0
645,2030001170647,新規,0,2026-01-20,2026-01-20,株式会社内田不動産,,株式会社,埼玉県,さいたま市大宮区,宮町５丁目２８宝栄大宮第５ビル２０１号室,,11,103,3300802,,,,,,,2026-01-20,1,,,,,ウチダフドウサン,0
648,2040001142249,新規,0,2026-01-20,2026-01-20,株式会社Ｎｅｗ　Ｃｒａｆｔ　Ｕ,,株式会社,千葉県,松戸市,平賀６番地の９,,12,207,2700002,,,,,,,2026-01-20,1,,,,,ニュークラフトユー,0
651,2040003029320,新規,0,2026-01-20,2026-01-20,合同会社アットウィル,,合同会社,千葉県,流山市,東初石２丁目８８番地の１５,,12,220,2700114,,,,,,,2026-01-20,1,,,,,アットウィル,0
652,2040003029361,新規,0,2026-01-20,2026-01-20,ＫＤＳ合同会社,,合同会社,千葉県,市川市,湊新田１丁目５番９―４０３号（サンハッピー行徳）,,12,203,2720132,,,,,,,2026-01-20,1,,,,,ケーディーエス,0
655,2060003005930,新規,0,2026-01-20,2026-01-20,合同会社ハシトカミ,,合同会社,栃木県,日光市,猪倉１９６１番地３離れや,,09,206,3212344,,,,,,,2026-01-20,1,,,,,ハシトカミ,0
656,2070001043741,新規,0,2026-01-20,2026-01-20,株式会社ｅｆ　ｃｏｍｐａｎｙ,,株式会社,群馬県,沼田市,屋形原町１３４８,,10,206,3780022,,,,,,,2026-01-20,1,,,,,イーエフカンパニー,0
657,2080103003510,新規,0,2026-01-20,2026-01-20,Ｈｕｍａｎ　Ｒｅｖｏ合同会社,,合同会社,静岡県,沼津市,大岡３７３３,,22,203,4100022,,,,,,,2026-01-20,1,,,,,ヒューマンレボ,0
662,2090001019698,新規,0,2026-01-20,2026-01-20,株式会社ＴＫホールディングス,,株式会社,山梨県,富士吉田市,新西原１丁目７－１２新西原ビル３階,,19,202,4030017,,,,,,,2026-01-20,1,,,,,ティーケーホールディングス,0
666,2100003008581,新規,0,2026-01-20,2026-01-20,デライト・テック合同会社,,合同会社,長野県,小県郡青木村,大字当郷１０６５,,20,349,3861603,,,,,,,2026-01-20,1,,,,,デライトテック,0
675,2120001283448,新規,0,2026-01-20,2026-01-20,株式会社ロベルテ・マネジメント,,株式会社,大阪府,大阪市北区,堂島２丁目２番８－１３０５号,,27,127,5300003,,,,,,,2026-01-20,1,,,,,ロベルテマネジメント,0
676,2120001283522,新規,0,2026-01-20,2026-01-20,株式会社Ｌｉｂｅｒｏｎ,,株式会社,大阪府,大阪市北区,梅田１丁目２番２号大阪駅前第２ビル１２‐１２,,27,127,5300001,,,,,,,2026-01-20,1,,,,,リベロン,0
683,2120105010104,新規,0,2026-01-20,2026-01-20,一般社団法人Ｋｉｄｓ’Ｒｉｇｈｔｓ　Ｖｏｉｃｅ,,その他の設立登記法人,大阪府,羽曳野市,高鷲３丁目４番１０号,,27,222,5830882,,,,,,,2026-01-20,1,,,,,キッズライツボイス,0
695,2140001141455,新規,0,2026-01-20,2026-01-20,株式会社バスターミナル神戸三宮,,株式会社,兵庫県,神戸市中央区,小野柄通７丁目１－１８三宮ビルディング北館３階,,28,110,6510088,,,,,,,2026-01-20,1,,,,,バスターミナルコウベサンノミヤ,0
704,2180001170236,新規,0,2026-01-20,2026-01-20,株式会社ウエストフラワー,,株式会社,愛知県,西春日井郡豊山町,大字豊場字高前１９４番地３,,23,342,4800202,,,,,,,2026-01-20,1,,,,,ウエストフラワー,0
705,2180001170327,新規,0,2026-01-20,2026-01-20,株式会社華の風・コネクト,,株式会社,愛知県,名古屋市西区,平出町３０９番地,,23,104,4520832,,,,,,,2026-01-20,1,,,,,ハナノカゼコネクト,0
706,2180001170351,新規,0,2026-01-20,2026-01-20,株式会社後藤設計,,株式会社,愛知県,名古屋市中川区,花池町２丁目１４番地フラワービル３Ａ,,23,110,4540902,,,,,,,2026-01-20,1,,,,,ゴトウセッケイ,0
710,2180003029637,新規,0,2026-01-20,2026-01-20,合同会社ＥＧ　ｌｉｆｅ,,合同会社,愛知県,名古屋市西区,赤城町１５２番地,,23,104,4520813,,,,,,,2026-01-20,1,,,,,イージーライフ,0
711,2180003029645,新規,0,2026-01-20,2026-01-20,ＮＥＸＴ　ＩＮＮＯＶＡＴＩＯＮ合同会社,,合同会社,愛知県,名古屋市中区,丸の内３丁目７番２６号,,23,106,4600002,,,,,,,2026-01-20,1,,,,,ネクストイノベーション,0
712,2180003029661,新規,0,2026-01-20,2026-01-20,ＡＩｘＦＩＲＥ合同会社,,合同会社,愛知県,名古屋市中村区,太閤通３丁目２５―１アロームドゥジョア２０１,,23,105,4530811,,,,,,,2026-01-20,1,,,,,エーアイファイアー,0
713,2180005021393,新規,0,2026-01-20,2026-01-20,ＣＨＩＫＡＲＡ協同組合,,その他の設立登記法人,愛知県,清須市,朝日愛宕５８番地,,23,233,4520932,,,,,,,2026-01-20,1,,,,,チカラ,0
808,2210003002004,新規,0,2026-01-20,2026-01-20,合同会社ライツレーン,,合同会社,福井県,福井市,大宮２丁目９－２２,,18,201,9100016,,,,,,,2026-01-20,1,,,,,ライツレーン,0
817,2240001066072,新規,0,2026-01-20,2026-01-20,株式会社ＫＵＲＥチャレンジ,,株式会社,広島県,呉市,中通４丁目１番４号藤原ビル３Ｆ,,34,202,7370046,,,,,,,2026-01-20,1,,,,,クレチャレンジ,0
819,2260001040918,新規,0,2026-01-20,2026-01-20,株式会社Ｋｏｍｎｉ,,株式会社,岡山県,岡山市中区,古京町１丁目５番１０号,,33,102,7038278,,,,,,,2026-01-20,1,,,,,コムニ,0
820,2270003001834,新規,0,2026-01-20,2026-01-20,コトワークスＤＭＣ合同会社,,合同会社,鳥取県,東伯郡琴浦町,大字赤碕１９２７ー１,,31,371,6892501,,,,,,,2026-01-20,1,,,,,コトワークスディーエムシー,0
829,2290001112862,新規,0,2026-01-20,2026-01-20,株式会社ＩＮビルサービス,,株式会社,福岡県,福岡市南区,長住１丁目７番４号,,40,134,8111362,,,,,,,2026-01-20,1,,,,,アイエヌビルサービス,0
831,2290003017969,新規,0,2026-01-20,2026-01-20,合同会社セブンコア,,合同会社,福岡県,福岡市博多区,博多駅南５丁目１７番４－１４０６号,,40,132,8120016,,,,,,,2026-01-20,1,,,,,セブンコア,0
842,2330003011397,新規,0,2026-01-20,2026-01-20,建高合同会社,,合同会社,熊本県,熊本市中央区,出水１丁目５番３０号,,43,101,8620941,,,,,,,2026-01-20,1,,,,,ケンコウ,0
845,2350005006352,新規,0,2026-01-20,2026-01-20,ＮＰＯ法人Ｒｉｎｎ‐ｇｕ,,その他の設立登記法人,宮崎県,串間市,大字西方５８３９番地１,,45,207,8880001,,,,,,,2026-01-20,1,,,,,リング,0
847,2360001036278,新規,0,2026-01-20,2026-01-20,ＺＥ　Ｏｋｉｎａｗａ株式会社,,株式会社,沖縄県,中頭郡読谷村,字渡具知４１番地２Ｎｏ．４１－４,,47,324,9040315,,,,,,,2026-01-20,1,,,,,ゼットイーオキナワ,0
849,2360003015569,新規,0,2026-01-20,2026-01-20,合同会社ＢＯＯＫＳＴＯＮＥ,,合同会社,沖縄県,那覇市,おもろまち４丁目１１－１おもろシティーコートＧＩＮＯＺＡ５０３,,47,201,9000006,,,,,,,2026-01-20,1,,,,,ブックストーン,0
899,2430001096083,新規,0,2026-01-20,2026-01-20,ツーサン株式会社,,株式会社,北海道,苫小牧市,しらかば町６丁目１６番１９号,,01,213,0530821,,,,,,,2026-01-20,1,,,,,ツーサン,0
900,2430003018498,新規,0,2026-01-20,2026-01-20,合同会社岡田農園,,合同会社,北海道,岩内郡共和町,南幌似１５番地２,,01,401,0482202,,,,,,,2026-01-20,1,,,,,オカダノウエン,0
901,2430003018507,新規,0,2026-01-20,2026-01-20,ＷＥ‐ＡＭＡＫＴ合同会社,,合同会社,北海道,札幌市東区,北二十三条東１５丁目５番２７号第７カンダビル１Ｆ,,01,103,0650023,,,,,,,2026-01-20,1,,,,,ウィーアマクト,0
902,2440001009746,新規,0,2026-01-20,2026-01-20,株式会社ＲＩＯ,,株式会社,北海道,函館市,大川町９番１８号,,01,202,0400084,,,,,,,2026-01-20,1,,,,,リオ,0
910,2490003002083,新規,0,2026-01-20,2026-01-20,合同会社アンサンブル,,合同会社,高知県,高知市,東秦泉寺５１５番１１１,,39,201,7800023,,,,,,,2026-01-20,1,,,,,アンサンブル,0
911,2500001026735,新規,0,2026-01-20,2026-01-20,シンワアネックス株式会社,,株式会社,愛媛県,松山市,南吉田町２７９８番地７１,,38,201,7918042,,,,,,,2026-01-20,1,,,,,シンワアネックス,0
922,3010001261678,新規,0,2026-01-20,2026-01-20,株式会社ＮＹＡＭＹ,,株式会社,東京都,文京区,本郷４丁目１６－６－２０４,,13,105,1130033,,,,,,,2026-01-20,1,,,,,ニャーミー,0
923,3010001261752,新規,0,2026-01-20,2026-01-20,伊源株式会社,00142246,株式会社,東京都,千代田区,神田佐久間町３丁目２８星野ビル４Ｆ６３号,,13,101,1010025,,,,,,,2026-01-20,1,,,,,イゲン,0
924,3010001261851,新規,0,2026-01-20,2026-01-20,Ｖｅｎｕｓ　Ｉｎｓｐｉｒｅ　Ｐｒｏｍｏｔｉｏｎ株式会社,,株式会社,東京都,中央区,銀座１丁目１２番４号Ｎ＆ＥＢＬＤ．７階,,13,102,1040061,,,,,,,2026-01-20,1,,,,,ヴィーナスインスパイアプロモーション,0
925,3010001261950,新規,0,2026-01-20,2026-01-20,ＩＤＥＡ　Ｌａｂ．株式会社,,株式会社,東京都,中央区,銀座１丁目１２番４号,,13,102,1040061,,,,,,,2026-01-20,1,,,,,イデアラボ,0
926,3010001261983,新規,0,2026-01-20,2026-01-20,株式会社ＬＵＸＯＲ,,株式会社,東京都,中央区,銀座１丁目１２－４Ｎ＆ＥＢＬＤ．７階,,13,102,1040061,,,,,,,2026-01-20,1,,,,,ルクソール,0
928,3010003049931,新規,0,2026-01-20,2026-01-20,合同会社Ｍ‐ｔｅｃ,,合同会社,東京都,中央区,勝どき２丁目１０番１６－４１０号,,13,102,1040054,,,,,,,2026-01-20,1,,,,,エムテック,0
929,3010003049972,新規,0,2026-01-20,2026-01-20,合同会社ＸＹＺ,,合同会社,東京都,千代田区,神田神保町２丁目１０－３１ＩＷビル１Ｆ,,13,101,1010051,,,,,,,2026-01-20,1,,,,,エックスワイゼット,0
930,3010003050014,新規,0,2026-01-20,2026-01-20,合同会社Ｓｔａｒｔｉｎｇｔｏｋｙｏ,,合同会社,東京都,中央区,銀座１丁目２２番１１銀座大竹ビジデンス２階,,13,102,1040061,,,,,,,2026-01-20,1,,,,,スターティングトーキョー,0
931,3010003050030,新規,0,2026-01-20,2026-01-20,合同会社ＣＶＨＫ,,合同会社,東京都,中央区,銀座２丁目１０番８号マニエラ銀座ビル４階,,13,102,1040061,,,,,,,2026-01-20,1,,,,,シーブイエイチケー,0
941,3010401195889,新規,0,2026-01-20,2026-01-20,株式会社ＰｈａｓｅＸ,,株式会社,東京都,港区,南青山３丁目１番３６号青山丸竹ビル６Ｆ,,13,103,1070062,,,,,,,2026-01-20,1,,,,,フェーズクロス,0
942,3010401195922,新規,0,2026-01-20,2026-01-20,株式会社Ｊａｈｍｍｙ,,株式会社,東京都,港区,三田２丁目１番２８号パークマンション三田綱町ザフォレスト８０１,,13,103,1080073,,,,,,,2026-01-20,1,,,,,ジャーミー,0
944,3010405025200,新規,0,2026-01-20,2026-01-20,社会保険労務士法人稲生コンサルティングオフィス,,その他の設立登記法人,東京都,港区,北青山２丁目１２－８ＢＩＺＳＭＡＲＴ青山３２７,,13,103,1070061,,,,,,,2026-01-20,1,,,,,イナオコンサルティングオフィス,0
945,3010601068589,新規,0,2026-01-20,2026-01-20,Ｉ＆Ｃ株式会社,,株式会社,東京都,江東区,豊洲１丁目２番３３－２２４号,,13,108,1350061,,,,,,,2026-01-20,1,,,,,アイアンドシー,0
951,3010903010554,新規,0,2026-01-20,2026-01-20,合同会社ｉｄｒｅａｌｉｚｅ,,合同会社,東京都,世田谷区,太子堂４丁目１８番１５号マガザン三軒茶屋２‐３Ｆ‐３,,13,112,1540004,,,,,,,2026-01-20,1,,,,,アイドリアライズ,0
1006,3011001174861,新規,0,2026-01-20,2026-01-20,株式会社ＣＡＪＩＣＯ,,株式会社,東京都,渋谷区,円山町５番３号ＭＩＥＵＸ渋谷ビル８階,,13,113,1500044,,,,,,,2026-01-20,1,,,,,カジコ,0
1007,3011001174928,新規,0,2026-01-20,2026-01-20,株式会社Ｓｏｌｎｅｘ,,株式会社,東京都,目黒区,下目黒１丁目１番１４号コノトラビル７Ｆ,,13,110,1530064,,,,,,,2026-01-20,1,,,,,ソルネックス,0
1008,3011001174952,新規,0,2026-01-20,2026-01-20,株式会社ＴＥＮＰＬＡＣＲＡＦＴＳ,,株式会社,東京都,渋谷区,西原３丁目３６番１２号２０１,,13,113,1510066,,,,,,,2026-01-20,1,,,,,テンプラクラフツ,0
1009,3011001174960,新規,0,2026-01-20,2026-01-20,株式会社コネクト,,株式会社,東京都,渋谷区,神宮前３丁目４２番１５号メグビル３階,,13,113,1500001,,,,,,,2026-01-20,1,,,,,コネクト,0
1010,3011001174977,新規,0,2026-01-20,2026-01-20,株式会社ＯｎｅＳｃｅｎｅ,,株式会社,東京都,目黒区,東山１丁目６番７号フォーラム中目黒,,13,110,1530043,,,,,,,2026-01-20,1,,,,,ワンシーン,0
1011,3011001175059,新規,0,2026-01-20,2026-01-20,ＶＩＳＩＯＮ　ＪＡＰＡＮ株式会社,,株式会社,東京都,渋谷区,神宮前３丁目２５番６号神宮前ウィンテルビル３Ｆ,,13,113,1500001,,,,,,,2026-01-20,1,,,,,ビジョンジャパン,0
1012,3011001175100,新規,0,2026-01-20,2026-01-20,株式会社水素未来,,株式会社,東京都,渋谷区,道玄坂１丁目１５番３－２０６号,,13,113,1500043,,,,,,,2026-01-20,1,,,,,スイソミライ,0
1013,3011001175109,新規,0,2026-01-20,2026-01-20,株式会社Ｈｅｙ‐Ｏｍａｃｈｉ,,株式会社,東京都,渋谷区,千駄ヶ谷３丁目８番１９－３０１号,,13,113,1510051,,,,,,,2026-01-20,1,,,,,ヘイオマチ,0
1019,3011003023380,新規,0,2026-01-20,2026-01-20,合同会社Ｃｏｂｒａ　Ｏｎｅ,,合同会社,東京都,渋谷区,神宮前１丁目５番８号,,13,113,1500001,,,,,,,2026-01-20,1,,,,,コブラワン,0
1020,3011003023406,新規,0,2026-01-20,2026-01-20,合同会社Ｇｒｉｚｉ,,合同会社,東京都,渋谷区,道玄坂１丁目１０番８号渋谷道玄坂東急ビル２Ｆ－Ｃ,,13,113,1500043,,,,,,,2026-01-20,1,,,,,グリジ,0
1030,3011103016978,新規,0,2026-01-20,2026-01-20,合同会社ＫＩＹＯＲＡ．,,合同会社,東京都,新宿区,下宮比町２番１８号グランドメゾン飯田橋９０２,,13,104,1620822,,,,,,,2026-01-20,1,,,,,キヨラ,0
1037,3012305002163,新規,0,2026-01-20,2026-01-20,一般社団法人町田市建設業フォーラム,,その他の設立登記法人,東京都,町田市,図師町２０３７番地,,13,209,1940203,,,,,,,2026-01-20,1,,,,,マチダシケンセツギョウフォーラム,0
1040,3012401044019,新規,0,2026-01-20,2026-01-20,株式会社Ｅｍｐｏｗｅｒ　ａｎｄ　Ｂｒｉｇｈｔｅｎ,,株式会社,東京都,多摩市,諏訪１丁目２１番地の４,,13,224,2060024,,,,,,,2026-01-20,1,,,,,エンパワーアンドブライトン,0
1042,3013103001522,新規,0,2026-01-20,2026-01-20,コイデワークス合同会社,,合同会社,東京都,青梅市,長淵２丁目５３６番地の９,,13,205,1980052,,,,,,,2026-01-20,1,,,,,コイデワークス,0
1059,3013303008061,新規,0,2026-01-20,2026-01-20,合同会社Ｏｒｙｔｈ,,合同会社,東京都,豊島区,池袋２丁目６５－１－９０６,,13,116,1710014,,,,,,,2026-01-20,1,,,,,オリス,0
1065,3020001166629,新規,0,2026-01-20,2026-01-20,春善商事株式会社,,株式会社,神奈川県,横浜市西区,久保町２１番２０－４０６号,,14,103,2200061,,,,,,,2026-01-20,1,,,,,ハルゼンショウジ,0
1066,3020001166661,新規,0,2026-01-20,2026-01-20,株式会社イシヤマ,,株式会社,神奈川県,横浜市旭区,二俣川２丁目３２番地４,,14,112,2410821,,,,,,,2026-01-20,1,,,,,イシヤマ,0
1067,3020001166736,新規,0,2026-01-20,2026-01-20,株式会社シードアース,,株式会社,神奈川県,横浜市港北区,日吉本町４丁目７番３‐３０６号,,14,109,2230062,,,,,,,2026-01-20,1,,,,,シードアース,0
1075,3020003030130,新規,0,2026-01-20,2026-01-20,いいみらい合同会社,,合同会社,神奈川県,横浜市旭区,二俣川２丁目５６－３０１,,14,112,2410821,,,,,,,2026-01-20,1,,,,,イイミライ,0
1076,3020003030171,新規,0,2026-01-20,2026-01-20,合同会社ＭＩＣＫ,,合同会社,神奈川県,川崎市中原区,新丸子東１丁目８２１番地３藤和シティホームズ新丸子５０４,,14,133,2110004,,,,,,,2026-01-20,1,,,,,ミック,0
1083,3021001087170,新規,0,2026-01-20,2026-01-20,ワンドホールディングス株式会社,,株式会社,神奈川県,海老名市,めぐみ町２番２号,,14,215,2430438,,,,,,,2026-01-20,1,,,,,,0
1085,3021005013511,新規,0,2026-01-20,2026-01-20,一般社団法人ＦＬＯＷ,,その他の設立登記法人,神奈川県,横須賀市,秋谷１丁目６番３－４号,,14,201,2400105,,,,,,,2026-01-20,1,,,,,,0
1086,3021005013528,新規,0,2026-01-20,2026-01-20,医療法人誠洋会,,その他の設立登記法人,神奈川県,鎌倉市,大船１丁目２７番２８号ＳＴＫビル２０２号室,,14,204,2470056,,,,,,,2026-01-20,1,,,,,セイヨウカイ,0
1093,3030001170613,新規,0,2026-01-20,2026-01-20,Ｂｅｌｌｅ　Ｆｉｌｌｅ株式会社,,株式会社,埼玉県,川口市,西川口１丁目１９番地１４花好園ビル３Ｆ,,11,203,3320021,,,,,,,2026-01-20,1,,,,,ベルフィーユ,0
1094,3030001170638,新規,0,2026-01-20,2026-01-20,株式会社ＥＶＡ,,株式会社,埼玉県,川口市,幸町２丁目７番２６号,,11,203,3320016,,,,,,,2026-01-20,1,,,,,エヴァ,0
1095,3030001170646,新規,0,2026-01-20,2026-01-20,株式会社Ｕｎｉｒｉｓｅ,,株式会社,埼玉県,川口市,元郷３丁目７番２８号,,11,203,3320011,,,,,,,2026-01-20,1,,,,,ユニライズ,0
1096,3030003028479,新規,0,2026-01-20,2026-01-20,合同会社ＲＩＳＥ,,合同会社,埼玉県,入間市,大字小谷田１３９０池ノ下２－４０２,,11,225,3580026,,,,,,,2026-01-20,1,,,,,ライズ,0
1113,3070001043724,新規,0,2026-01-20,2026-01-20,リビンリンク株式会社,,株式会社,群馬県,伊勢崎市,宗高町８３コーポラスあだちＡ１０１,,10,204,3720053,,,,,,,2026-01-20,1,,,,,リビンリンク,0
1115,3070003006266,新規,0,2026-01-20,2026-01-20,ＭＡＸ合同会社,,合同会社,群馬県,高崎市,倉賀野町１１７８番地ＪＲ社宅Ｊ棟２０４号,,10,202,3701201,,,,,,,2026-01-20,1,,,,,マックス,0
1123,3110003006039,新規,0,2026-01-20,2026-01-20,雪の旅合同会社,,合同会社,新潟県,上越市,仲町１丁目６番１５号,,15,222,9430831,,,,,,,2026-01-20,1,,,,,ユキノタビ,0
1131,3120001283397,新規,0,2026-01-20,2026-01-20,株式会社ＢＯＵＱＵＥＴ．,,株式会社,大阪府,門真市,江端町１－３１,,27,223,5710012,,,,,,,2026-01-20,1,,,,,ブーケ,0
1132,3120001283455,新規,0,2026-01-20,2026-01-20,株式会社さかた不動産,,株式会社,大阪府,大阪市中央区,高麗橋２丁目３番２号,,27,128,5410043,,,,,,,2026-01-20,1,,,,,サカタフドウサン,0
1133,3120001283488,新規,0,2026-01-20,2026-01-20,株式会社Ｌｉｋｏ,,株式会社,大阪府,大阪市北区,豊崎４丁目６番７号レジデンス梅田ローレルタワー２８０２,,27,127,5310072,,,,,,,2026-01-20,1,,,,,リコ,0
1134,3120001283554,新規,0,2026-01-20,2026-01-20,株式会社ＡＵＲＡＷＩＬＬ,,株式会社,大阪府,大阪市北区,梅田１丁目２番２号大阪駅前第２ビル１２－１２,,27,127,5300001,,,,,,,2026-01-20,1,,,,,オーラウィル,0
1149,3120901052117,新規,0,2026-01-20,2026-01-20,株式会社Ｂｌｕｅ　Ｅａｒｔｈ,,株式会社,大阪府,茨木市,小柳町１４番１０号Ａ－３号１Ｆ,,27,211,5670852,,,,,,,2026-01-20,1,,,,,ブルーアース,0
1151,3122001040092,新規,0,2026-01-20,2026-01-20,ＦＯＲＭＥＱ株式会社,,株式会社,大阪府,柏原市,国分本町４丁目８番７－４０８号,,27,221,5820021,,,,,,,2026-01-20,1,,,,,フォーメック,0
1155,3130001081420,新規,0,2026-01-20,2026-01-20,株式会社京都バニラビーンズ,,株式会社,京都府,乙訓郡大山崎町,字大山崎小字鏡田３０番地１,,26,303,6180071,,,,,,,2026-01-20,1,,,,,キョウトバニラビーンズ,0
1156,3130001081429,新規,0,2026-01-20,2026-01-20,株式会社エイチステップ,,株式会社,京都府,宇治市,宇治弐番７０番地の４,,26,204,6110021,,,,,,,2026-01-20,1,,,,,エイチステップ,0
1157,3130001081445,新規,0,2026-01-20,2026-01-20,株式会社ＯＮＥ　ＭＯＲＥ,,株式会社,京都府,宇治市,伊勢田町名木２丁目１－１８４,,26,204,6110044,,,,,,,2026-01-20,1,,,,,ワンモア,0
1158,3130001081453,新規,0,2026-01-20,2026-01-20,株式会社Ａｒｃｅ　Ｇｒａｎｄｅ,,株式会社,京都府,京都市上京区,烏丸通寺之内上る相国寺門前町６４７番地８,,26,102,6020898,,,,,,,2026-01-20,1,,,,,アルセグランデ,0
1160,3130003011094,新規,0,2026-01-20,2026-01-20,合同会社縁,,合同会社,京都府,京都市中京区,富小路通錦小路下る西大文字町５９９番地京都錦ＨＫビル２０４号室,,26,104,6048054,,,,,,,2026-01-20,1,,,,,エン,0
1165,3140003023097,新規,0,2026-01-20,2026-01-20,合同会社トイトイトイ,,合同会社,兵庫県,尼崎市,武庫之荘１丁目４番１４号テラス武庫之荘－４,,28,202,6610035,,,,,,,2026-01-20,1,,,,,トイトイトイ,0
1167,3160001027362,新規,0,2026-01-20,2026-01-20,株式会社ＦＳ,,株式会社,滋賀県,栗東市,上砥山２３６番地１,,25,208,5203004,,,,,,,2026-01-20,1,,,,,エフエス,0
1175,3180001170292,新規,0,2026-01-20,2026-01-20,株式会社Ｓａｔｉｅｎａ,,株式会社,愛知県,名古屋市中村区,名駅南１丁目１４番５号１８０２,,23,105,4500003,,,,,,,2026-01-20,1,,,,,サティエナ,0
1176,3180001170326,新規,0,2026-01-20,2026-01-20,株式会社フジ,,株式会社,愛知県,名古屋市守山区,笹ヶ根２丁目１３０２番地セレーノ・ウーノ２０１号,,23,113,4630812,,,,,,,2026-01-20,1,,,,,フジ,0
1177,3180001170342,新規,0,2026-01-20,2026-01-20,株式会社Ｎｉｃｏ・Ｍｉｒａｉ,,株式会社,愛知県,小牧市,間々本町８７番地サンヴィレッヂＣ１０７,,23,219,4850048,,,,,,,2026-01-20,1,,,,,ニコミライ,0
1178,3180001170350,新規,0,2026-01-20,2026-01-20,株式会社ＶＯＬＴ,,株式会社,愛知県,稲沢市,西町２丁目１２番１５号,,23,220,4928218,,,,,,,2026-01-20,1,,,,,ボルト,0
1188,3180003029636,新規,0,2026-01-20,2026-01-20,合同会社大進建装,,合同会社,愛知県,津島市,神尾町字東之割２番地２,,23,208,4960013,,,,,,,2026-01-20,1,,,,,ダイシンケンソウ,0
1189,3180003029644,新規,0,2026-01-20,2026-01-20,ザパ・ホールディングス合同会社,,合同会社,愛知県,名古屋市中村区,名駅４丁目２４番５号第２森ビル４０１,,23,105,4500002,,,,,,,2026-01-20,1,,,,,ザパホールディングス,0
1301,3230001021250,新規,0,2026-01-20,2026-01-20,株式会社山崎,,株式会社,富山県,富山市,婦中町羽根４７２番地,,16,201,9392603,,,,,,,2026-01-20,1,,,,,ヤマザキ,0
1314,3290001112762,新規,0,2026-01-20,2026-01-20,株式会社ＫＲ　ＴＥＣ,,株式会社,福岡県,筑後市,大字熊野１９番地５,,40,211,8330055,,,,,,,2026-01-20,1,,,,,ケーアールテック,0
1315,3290001112779,新規,0,2026-01-20,2026-01-20,株式会社ＨＬＯコンサルティング,,株式会社,福岡県,福岡市中央区,天神１丁目１０番２０号,,40,133,8100001,,,,,,,2026-01-20,1,,,,,エイチエルオーコンサルティング,0
1320,3290003017919,新規,0,2026-01-20,2026-01-20,合同会社ＳＵＳＥＲＩ,,合同会社,福岡県,福岡市中央区,天神４丁目６－２８いちご天神ノースビル７階,,40,133,8100001,,,,,,,2026-01-20,1,,,,,スセリ,0
1324,3310003005169,新規,0,2026-01-20,2026-01-20,合同会社みらいコネクト,,合同会社,長崎県,南島原市,西有家町慈恩寺５２６番地,,42,214,8592214,,,,,,,2026-01-20,1,,,,,ミライコネクト,0
1328,3320001021547,新規,0,2026-01-20,2026-01-20,株式会社大分シティマネジメント,,株式会社,大分県,別府市,船小路町４番３８号,,44,202,8740922,,,,,,,2026-01-20,1,,,,,オオイタシティマネジメント,0
1335,3340001027914,新規,0,2026-01-20,2026-01-20,株式会社やまさき企画,,株式会社,鹿児島県,霧島市,隼人町嘉例川２４５５番地２,,46,218,8995113,,,,,,,2026-01-20,1,,,,,ヤマサキキカク,0
1337,3350005006351,新規,0,2026-01-20,2026-01-20,医療法人たきい歯科クリニック,,その他の設立登記法人,宮崎県,日向市,大字塩見字乳母神１１６６２番１,,45,206,8830033,,,,,,,2026-01-20,1,,,,,タキイシカクリニック,0
1339,3360003015568,新規,0,2026-01-20,2026-01-20,合同会社Ｚ,,合同会社,沖縄県,浦添市,字前田８６２番地１８,,47,208,9012102,,,,,,,2026-01-20,1,,,,,ゼット,0
1342,3370003007449,新規,0,2026-01-20,2026-01-20,合同会社ＫＵＲＯＫＯ,,合同会社,宮城県,仙台市青葉区,中央２丁目１１―１９仙南ビル４階―Ａ,,04,101,9800021,,,,,,,2026-01-20,1,,,,,クロコ,0
1346,3380001035822,新規,0,2026-01-20,2026-01-20,株式会社加澤電設,,株式会社,福島県,いわき市,平上平窪字五反田１２１‐６,,07,204,9708001,,,,,,,2026-01-20,1,,,,,カザワデンセツ,0
1397,3430001096082,新規,0,2026-01-20,2026-01-20,株式会社Ｊｌｅａｐコンサルタント,,株式会社,北海道,札幌市豊平区,平岸二条９丁目１番２６－４０３号,,01,105,0620932,,,,,,,2026-01-20,1,,,,,ジェイリープコンサルタント,0
1400,3430003018514,新規,0,2026-01-20,2026-01-20,合同会社Ｌａ・ぷらぁす,,合同会社,北海道,苫小牧市,字錦岡４９５番地１２８５,,01,213,0591275,,,,,,,2026-01-20,1,,,,,ラプラァス,0
1401,3440001009745,新規,0,2026-01-20,2026-01-20,株式会社西野水産,,株式会社,北海道,山越郡長万部町,字大浜４７－１,,01,347,0493511,,,,,,,2026-01-20,1,,,,,,0
1406,3490001011259,新規,0,2026-01-20,2026-01-20,株式会社Ｔｈｒｅｅ　Ｔｒｅｅｓ,,株式会社,高知県,高知市,高須東町１８－１５,,39,201,7818105,,,,,,,2026-01-20,1,,,,,スリーツリーズ,0
1407,3500001026734,新規,0,2026-01-20,2026-01-20,株式会社ｈａｔｍコンサルタント,,株式会社,愛媛県,松山市,畑寺２丁目９番２５号,,38,201,7900913,,,,,,,2026-01-20,1,,,,,ハトムコンサルタント,0
1416,4010001261735,新規,0,2026-01-20,2026-01-20,アルトリ株式会社,,株式会社,東京都,中央区,晴海１丁目７番２,,13,102,1040053,,,,,,,2026-01-20,1,,,,,アルトリ,0
1417,4010001262023,新規,0,2026-01-20,2026-01-20,Ａｔｅｌｉｅｒ　Ｄｅ　Ｐｒｅｓｔｉｇｅ　Ｊａｐａｎ株式会社,,株式会社,東京都,千代田区,丸の内１丁目９番２号グラントウキョウサウスタワー９階,,13,101,1000005,,,,,,,2026-01-20,1,,,,,アトリエドゥプレスティージジャパン,0
1419,4010003049922,新規,0,2026-01-20,2026-01-20,ＦＩＮＡＮＣＩＡＬ　ＰＡＲＴＮＥＲＳ合同会社,,合同会社,東京都,中央区,銀座１丁目１２番４号Ｎ＆ＥＢＬＤ．６Ｆ,,13,102,1040061,,,,,,,2026-01-20,1,,,,,フィナンシャルパートナーズ,0
1420,4010003049963,新規,0,2026-01-20,2026-01-20,合同会社Ｋ　Ａｃｃｏｕｎｔｉｎｇ　Ｓｅｒｖｉｃｅｓ,,合同会社,東京都,中央区,日本橋室町１丁目１１番１２号日本橋水野ビル７階,,13,102,1030022,,,,,,,2026-01-20,1,,,,,ケーアカウンティングサービシズ,0
1421,4010003050046,新規,0,2026-01-20,2026-01-20,合同会社ＹＮＧ,,合同会社,東京都,中央区,勝どき６丁目３－２－３６０１,,13,102,1040054,,,,,,,2026-01-20,1,,,,,ワイエヌジー,0
1428,4010401195780,新規,0,2026-01-20,2026-01-20,Ｚ　ｅｓｔａｔｅ株式会社,,株式会社,東京都,港区,南青山３丁目５番２号南青山第一韮澤ビル３２８号室,,13,103,1070062,,,,,,,2026-01-20,1,,,,,ゼットエステート,0
1429,4010401195806,新規,0,2026-01-20,2026-01-20,株式会社Ｓ,,株式会社,東京都,港区,六本木４丁目８－７－Ｂ１Ｆ,,13,103,1060032,,,,,,,2026-01-20,1,,,,,,0
1430,4010401195830,新規,0,2026-01-20,2026-01-20,株式会社Ｓｔｒｉｎｇ,,株式会社,東京都,港区,浜松町２丁目２番１５号浜松町ダイヤビル２Ｆ,,13,103,1050013,,,,,,,2026-01-20,1,,,,,ストリング,0
1431,4010401195839,新規,0,2026-01-20,2026-01-20,Ｄａｙｓ　Ｔｒｕｓｔ株式会社,,株式会社,東京都,港区,西新橋２丁目２１番６号,,13,103,1050003,,,,,,,2026-01-20,1,,,,,デイズトラスト,0
1439,4010403037031,新規,0,2026-01-20,2026-01-20,合同会社Ｍａｒｕｙａｍａ　Ａｒｃｈｉｔｅｃｔｕｒｅ　Ｌａｂ,,合同会社,東京都,港区,南青山３丁目１番３６号青山丸竹ビル６Ｆ,,13,103,1070062,,,,,,,2026-01-20,1,,,,,マルヤマアーキテクチャラボ,0
1440,4010403037089,新規,0,2026-01-20,2026-01-20,栃木県深津バッテリーＪＳＤ２５００８合同会社,,合同会社,東京都,港区,北青山２丁目１２番４号,,13,103,1070061,,,,,,,2026-01-20,1,,,,,トチギケンフカツバッテリージェイエスディーニーゴーゼロゼロハチ,0
1448,4010703008095,新規,0,2026-01-20,2026-01-20,合同会社ＨＯＰＥ興業,,合同会社,東京都,品川区,小山１丁目７番１８号,,13,109,1420062,,,,,,,2026-01-20,1,,,,,ホープコウギョウ,0
1453,4010901058743,新規,0,2026-01-20,2026-01-20,株式会社ＡＩＭＥＲＩＡ,,株式会社,東京都,世田谷区,大原１丁目５４－１０プレミアムコート笹塚２０１,,13,112,1560041,,,,,,,2026-01-20,1,,,,,アイメリア,0
1507,4011001174902,新規,0,2026-01-20,2026-01-20,ＩＧＳＩ株式会社,,株式会社,東京都,渋谷区,道玄坂１丁目１２番１号渋谷マークシティＷ２２階,,13,113,1500043,,,,,,,2026-01-20,1,,,,,アイジーエスアイ,0
1508,4011001175099,新規,0,2026-01-20,2026-01-20,株式会社Ａ＆Ｂ,,株式会社,東京都,渋谷区,宇田川町６番２０号パラシオン渋谷３０９,,13,113,1500042,,,,,,,2026-01-20,1,,,,,エーアンドビー,0
1509,4011001175108,新規,0,2026-01-20,2026-01-20,株式会社八八,,株式会社,東京都,渋谷区,千駄ヶ谷３丁目８番１９－３０１号,,13,113,1510051,,,,,,,2026-01-20,1,,,,,ハチハチ,0
1513,4011003023322,新規,0,2026-01-20,2026-01-20,Ｇａｋｕｎｏｃｏ　Ｃａｐｉｔａｌ　Ｃｏｎｃｅｐｔ合同会社,,合同会社,東京都,目黒区,下目黒１丁目１番１４号コノトラビル７Ｆ,,13,110,1530064,,,,,,,2026-01-20,1,,,,,ガクノコキャピタルコンセプト,0
1522,4011101114485,新規,0,2026-01-20,2026-01-20,株式会社風神,,株式会社,東京都,新宿区,西新宿３丁目７番１号リージャス新宿パークタワーセンターＮ３０Ｆ７３号,,13,104,1600023,,,,,,,2026-01-20,1,,,,,フウジン,0
1528,4011601029324,新規,0,2026-01-20,2026-01-20,株式会社マーク・ネクスト,,株式会社,東京都,練馬区,上石神井南町１０番３号,,13,120,1770043,,,,,,,2026-01-20,1,,,,,マークネクスト,0
1532,4011703004506,新規,0,2026-01-20,2026-01-20,合同会社秋田フーズ,,合同会社,東京都,江戸川区,西一之江３丁目２４―１１,,13,123,1320023,,,,,,,2026-01-20,1,,,,,アキタフーズ,0
1534,4011801047340,新規,0,2026-01-20,2026-01-20,ＦＲＡＣＴＡＬ株式会社,,株式会社,東京都,足立区,竹の塚４丁目２番１１－７０１号,,13,121,1210813,,,,,,,2026-01-20,1,,,,,フラクタル,0
1538,4012401044034,新規,0,2026-01-20,2026-01-20,株式会社Ｔｏｏｏｏｏ,,株式会社,東京都,武蔵野市,中町３丁目８－１プラウドシティ武蔵野三鷹７２０,,13,203,1800006,,,,,,,2026-01-20,1,,,,,トー,0
1562,4013301055625,新規,0,2026-01-20,2026-01-20,株式会社サンライズ,,株式会社,東京都,豊島区,駒込１丁目１１－１－１００２,,13,116,1700003,,,,,,,2026-01-20,1,,,,,サンライズ,0
1570,4020001166644,新規,0,2026-01-20,2026-01-20,株式会社Ｂｅ,,株式会社,神奈川県,横浜市緑区,長津田みなみ台２丁目１２番地１１１,,14,113,2260018,,,,,,,2026-01-20,1,,,,,ビー,0
1571,4020001166735,新規,0,2026-01-20,2026-01-20,株式会社ブレインエデュ,,株式会社,神奈川県,横浜市西区,浅間町１丁目４番地３ウィザードビル４０２,,14,103,2200072,,,,,,,2026-01-20,1,,,,,ブレインエデュ,0
1572,4020001166743,新規,0,2026-01-20,2026-01-20,株式会社アイハイル,,株式会社,神奈川県,川崎市幸区,北加瀬１丁目７番２４号,,14,132,2120057,,,,,,,2026-01-20,1,,,,,アイハイル,0
1573,4020001166751,新規,0,2026-01-20,2026-01-20,株式会社フラン・ロジック,,株式会社,神奈川県,横浜市港北区,綱島西２丁目１１番２‐２０８号,,14,109,2230053,,,,,,,2026-01-20,1,,,,,フランロジック,0
1575,4021001087302,新規,0,2026-01-20,2026-01-20,Ｋ＆Ｗ　Ｐｒｏｐｅｒｔｙ株式会社,,株式会社,神奈川県,茅ヶ崎市,緑が浜八丁目２４番３１２号,,14,207,2530034,,,,,,,2026-01-20,1,,,,,ケーアンドダブリュープロパティ,0
1578,4021005013510,新規,0,2026-01-20,2026-01-20,一般社団法人燈,,その他の設立登記法人,神奈川県,厚木市,元町１８番４－２０５号,,14,212,2430002,,,,,,,2026-01-20,1,,,,,アカリ,0
1585,4030001170356,新規,0,2026-01-20,2026-01-20,株式会社Ｘｙｌｅｍ,,株式会社,埼玉県,川口市,大字安行原１５番地の９,,11,203,3340057,,,,,,,2026-01-20,1,,,,,ザイレム,0
1586,4030001170620,新規,0,2026-01-20,2026-01-20,株式会社長屋,,株式会社,埼玉県,川越市,大字下広谷６５１番地１６,,11,201,3500804,,,,,,,2026-01-20,1,,,,,ナガヤ,0
1597,4040001142148,新規,0,2026-01-20,2026-01-20,Ｇｒｅａｔ　ｓｐｉｒｉｔ株式会社,,株式会社,千葉県,木更津市,羽鳥野５丁目４番地１８,,12,206,2920819,,,,,,,2026-01-20,1,,,,,グレートスピリット,0
1601,4040003029327,新規,0,2026-01-20,2026-01-20,ｍｉｒａＯｎｅ合同会社,,合同会社,千葉県,木更津市,長須賀２２７９番地７,,12,206,2920054,,,,,,,2026-01-20,1,,,,,ミラワン,0
1610,4070003006265,新規,0,2026-01-20,2026-01-20,エスエムイー合同会社,,合同会社,群馬県,高崎市,上佐野町５８９－３,,10,202,3700857,,,,,,,2026-01-20,1,,,,,エスエムイー,0
1614,4080101026032,新規,0,2026-01-20,2026-01-20,株式会社ティクロスエー,,株式会社,静岡県,富士市,今泉２７５１番地の１,,22,210,4170001,,,,,,,2026-01-20,1,,,,,ティクロスエー,0
1620,4090001019688,新規,0,2026-01-20,2026-01-20,株式会社日々喜,00142250,株式会社,山梨県,中巨摩郡昭和町,清水新居２９２オークラタウン１０２,,19,384,4093867,,,,,,,2026-01-20,1,,,,,ヒビキ,0
1648,4120001283421,新規,0,2026-01-20,2026-01-20,株式会社花旗,,株式会社,大阪府,大阪市住吉区,庭井２丁目８番９－１０１号,,27,120,5580012,,,,,,,2026-01-20,1,,,,,カシ,0
1649,4120001283454,新規,0,2026-01-20,2026-01-20,日幸アセット株式会社,,株式会社,大阪府,大阪市東住吉区,中野４丁目４番３５号,,27,121,5460012,,,,,,,2026-01-20,1,,,,,ニッコウアセット,0
1650,4120003031687,新規,0,2026-01-20,2026-01-20,合同会社ＡＹＷＫ,,合同会社,大阪府,大阪市都島区,友渕町１丁目５番１１－１０２号,,27,102,5340016,,,,,,,2026-01-20,1,,,,,エイワイダブリュケイ,0
1661,4120901052108,新規,0,2026-01-20,2026-01-20,ＨＴＫ株式会社,,株式会社,大阪府,豊中市,東泉丘３丁目４番４５－１１０１号,,27,203,5610861,,,,,,,2026-01-20,1,,,,,エイチティーケイ,0
1663,4120903006037,新規,0,2026-01-20,2026-01-20,合同会社ＹＲＬ,,合同会社,大阪府,吹田市,新芦屋下２７番１２－４０４号,,27,205,5650803,,,,,,,2026-01-20,1,,,,,ワイアールエル,0
1664,4120903006045,新規,0,2026-01-20,2026-01-20,合同会社創縁,,合同会社,大阪府,池田市,住吉１丁目１７番３５－１号,,27,204,5630033,,,,,,,2026-01-20,1,,,,,ソウエン,0
1665,4120905006836,新規,0,2026-01-20,2026-01-20,医療法人なごみ整形外科リウマチクリニック,,その他の設立登記法人,大阪府,茨木市,総持寺１丁目３番２号ＪＲ総持寺クリニックビル３階,,27,211,5670801,,,,,,,2026-01-20,1,,,,,ナゴミセイケイゲカリウマチクリニック,0
1666,4122001040091,新規,0,2026-01-20,2026-01-20,株式会社ＴＭ,,株式会社,大阪府,東大阪市,箱殿町９番１３号,,27,227,5798038,,,,,,,2026-01-20,1,,,,,ティーエム,0
1674,4140001141379,新規,0,2026-01-20,2026-01-20,株式会社アルティウス,,株式会社,兵庫県,芦屋市,東芦屋町１７番３１号,00142249,28,206,6590095,,,,,,,2026-01-20,1,,,,,アルティウス,0
1675,4140003023096,新規,0,2026-01-20,2026-01-20,合同会社アリス,,合同会社,兵庫県,神戸市中央区,二宮町２丁目１３番２８－３０１号,,28,110,6510093,,,,,,,2026-01-20,1,,,,,アリス,0
1683,4180003029635,新規,0,2026-01-20,2026-01-20,合同会社ＣＡＤＥＮＺＡ,,合同会社,愛知県,名古屋市千種区,桜が丘１番地の１０,,23,101,4640025,,,,,,,2026-01-20,1,,,,,カデンザ,0
1684,4180003029651,新規,0,2026-01-20,2026-01-20,合同会社スタジオ真希ナルセ,,合同会社,愛知県,長久手市,根の神１１９番地ユーハウス杁ケ池公園４０６号,,23,238,4801141,,,,,,,2026-01-20,1,,,,,スタジオマキナルセ,0
1686,4180301040616,新規,0,2026-01-20,2026-01-20,株式会社エマックス,,株式会社,愛知県,豊田市,浄水町４丁目６０番地３,,23,211,4700343,,,,,,,2026-01-20,1,,,,,エマックス,0
1754,4210003002002,新規,0,2026-01-20,2026-01-20,まなぶとものＷＡ合同会社,,合同会社,福井県,大野市,明倫町４番１２号,,18,205,9120083,,,,,,,2026-01-20,1,,,,,マナブトモノワ,0
1758,4260001040916,新規,0,2026-01-20,2026-01-20,株式会社アクアホーム,,株式会社,岡山県,岡山市北区,磨屋町２－５,,33,101,7000826,,,,,,,2026-01-20,1,,,,,アクアホーム,0
1763,4290001112828,新規,0,2026-01-20,2026-01-20,株式会社ＬＵＭＩＮＡＲＩＯ　ＳＰＯＲＴＳ,,株式会社,福岡県,福岡市城南区,片江４丁目６番２５号,,40,136,8140142,,,,,,,2026-01-20,1,,,,,ルミナリオスポーツ,0
1764,4290001112844,新規,0,2026-01-20,2026-01-20,研感科技ジャパン株式会社,,株式会社,福岡県,糸島市,高田４丁目２４番１４,,40,230,8191102,,,,,,,2026-01-20,1,,,,,ケンカンカギジャパン,0
1767,4290003017918,新規,0,2026-01-20,2026-01-20,合同会社ソーヨー不動産,,合同会社,福岡県,久留米市,善導寺町与田１５３番地８与田店舗２Ｆ,,40,203,8390823,,,,,,,2026-01-20,1,,,,,ソーヨーフドウサン,0
1788,4380003006234,新規,0,2026-01-20,2026-01-20,ステイブルビルド合同会社,,合同会社,福島県,耶麻郡猪苗代町,大字長田字東中丸３４４９‐７１,,07,408,9693283,,,,,,,2026-01-20,1,,,,,ステイブルビルド,0
1842,4470001021060,新規,0,2026-01-20,2026-01-20,株式会社リベック,,株式会社,香川県,丸亀市,綾歌町岡田上１７８０番地６,,37,202,7612401,,,,,,,2026-01-20,1,,,,,リベック,0
1845,4490001011258,新規,0,2026-01-20,2026-01-20,株式会社ＢＬＵＥ　ＳＨＩＦＴ,,株式会社,高知県,高知市,鴨部９７３番地１７,,39,201,7808050,,,,,,,2026-01-20,1,,,,,,0
1846,4500001026741,新規,0,2026-01-20,2026-01-20,株式会社ＥＱＵＡＬ,,株式会社,愛媛県,新居浜市,西連寺町１丁目１４番３号,,38,205,7920831,,,,,,,2026-01-20,1,,,,,イコール,0
1855,5010001261627,新規,0,2026-01-20,2026-01-20,株式会社ＫＩＡ不動産,,株式会社,東京都,中央区,京橋２丁目１２番２号,,13,102,1040031,,,,,,,2026-01-20,1,,,,,ケーアイエーフドウサン,0
1856,5010001261684,新規,0,2026-01-20,2026-01-20,株式会社キミカホールディングス,,株式会社,東京都,中央区,八重洲２丁目１番１号,,13,102,1040028,,,,,,,2026-01-20,1,,,,,キミカホールディングス,0
1857,5010001261750,新規,0,2026-01-20,2026-01-20,Ｐｏｐｐｙ　ｃｏｒｅ株式会社,,株式会社,東京都,中央区,日本橋箱崎２７－９ヴェラハイツ日本橋箱崎１Ｆ,,13,102,1030000,,,,,,,2026-01-20,1,,,,,ポピーコア,0
1858,5010001261940,新規,0,2026-01-20,2026-01-20,株式会社Ｓｗｅｔｔｅｎｈａｍ１３Ａ,,株式会社,東京都,千代田区,平河町１丁目８番２－８０１号,,13,101,1020093,,,,,,,2026-01-20,1,,,,,スウェッテンハムサーティンエイ,0
1859,5010001262014,新規,0,2026-01-20,2026-01-20,株式会社ＢＣＭ４０,,株式会社,東京都,中央区,京橋２丁目２番１号,,13,102,1040031,,,,,,,2026-01-20,1,,,,,ビーシーエムヨンジュウ,0
1867,5010003049913,新規,0,2026-01-20,2026-01-20,合同会社麻産業振興研究会,,合同会社,東京都,中央区,銀座２丁目８番１８号グランベル銀座ビル８階,,13,102,1040061,,,,,,,2026-01-20,1,,,,,アササンギョウシンコウケンキュウカイ,0
1868,5010003049938,新規,0,2026-01-20,2026-01-20,合同会社ＫＩＪＩＭＡ　ＷＯＲＫＳ,,合同会社,東京都,中央区,銀座１丁目１２－４Ｎ＆ＥＢＬＤ．７階,,13,102,1040061,,,,,,,2026-01-20,1,,,,,キジマワークス,0
1869,5010003049962,新規,0,2026-01-20,2026-01-20,合同会社Ｂｏｌｌａｒｄ,,合同会社,東京都,千代田区,神田須田町１丁目７番８号ＶＯＲＴ秋葉原ＩＶ２Ｆ,,13,101,1010041,,,,,,,2026-01-20,1,,,,,ボラード,0
1870,5010003049987,新規,0,2026-01-20,2026-01-20,坂の上合同会社,,合同会社,東京都,中央区,銀座１丁目１２番４号Ｎ＆ＥＢＬＤ．６Ｆ,,13,102,1040061,,,,,,,2026-01-20,1,,,,,サカノウエ,0
1871,5010003050004,新規,0,2026-01-20,2026-01-20,合同会社ＣＩＲＫＬＥ　ＢＡＳＥ,,合同会社,東京都,文京区,西片１丁目１番７－３０２号,,13,105,1130024,,,,,,,2026-01-20,1,,,,,サークルベース,0
1872,5010003050012,新規,0,2026-01-20,2026-01-20,合同会社世界のあおき,,合同会社,東京都,中央区,日本橋小伝馬町７番２号１０階,,13,102,1030001,,,,,,,2026-01-20,1,,,,,セカイノアオキ,0
1881,5010401195532,新規,0,2026-01-20,2026-01-20,株式会社ＭＡＴＡＨＡＲＩＩ,,株式会社,東京都,港区,南青山４丁目２０番１９プレム南青山ビル３階,,13,103,1070062,,,,,,,2026-01-20,1,,,,,マタハリ,0
1882,5010401195805,新規,0,2026-01-20,2026-01-20,株式会社ＯＮＥ　ＡＮＤ　ＮＩＮＥ,,株式会社,東京都,港区,海岸２丁目５番１号,,13,103,1050022,,,,,,,2026-01-20,1,,,,,ワンアンドナイン,0
1883,5010401195895,新規,0,2026-01-20,2026-01-20,株式会社ＯＭＯＨＩＫＡＮＥ,,株式会社,東京都,港区,芝浦４丁目１６番１４－２７０２号,,13,103,1080023,,,,,,,2026-01-20,1,,,,,オモイカネ,0
1884,5010401195912,新規,0,2026-01-20,2026-01-20,Ａｃｕｖｉ株式会社,,株式会社,東京都,港区,六本木１丁目１０番３号,,13,103,1060032,,,,,,,2026-01-20,1,,,,,アキュヴィ,0
1885,5010401195929,新規,0,2026-01-20,2026-01-20,ＤＣ　Ｍａｒｅ２株式会社,,株式会社,東京都,港区,南青山３丁目１番３号スプライン青山東急ビル３階,,13,103,1070062,,,,,,,2026-01-20,1,,,,,ディーシーマーレツー,0
1887,5010403037055,新規,0,2026-01-20,2026-01-20,合同会社Ｋｙｏｎｓｈｉｅｓ,,合同会社,東京都,港区,虎ノ門３丁目１８番６号朝日虎ノ門マンション６１４号室,,13,103,1050001,,,,,,,2026-01-20,1,,,,,キョンシーズ,0
1888,5010403037088,新規,0,2026-01-20,2026-01-20,栃木県坂田山バッテリーＪＳＤ２５００９合同会社,,合同会社,東京都,港区,北青山２丁目１２番４号,,13,103,1070061,,,,,,,2026-01-20,1,,,,,トチギケンサカタヤマバッテリージェイエスディーニーゴーゼロゼロキュウ,0
1891,5010405025173,新規,0,2026-01-20,2026-01-20,一般社団法人ＨＤＧ４５,,その他の設立登記法人,東京都,港区,虎ノ門３丁目２２番１０－２０１号,,13,103,1050001,,,,,,,2026-01-20,1,,,,,エイチディージーフォーファイブ,0
1892,5010405025231,新規,0,2026-01-20,2026-01-20,一般社団法人Ｐｌａｔｉｎｕｍ２,,その他の設立登記法人,東京都,港区,元赤坂１丁目１番７－１２０９号株式会社赤坂国際会計内,,13,103,1070051,,,,,,,2026-01-20,1,,,,,プラチナツー,0
1894,5010501055314,新規,0,2026-01-20,2026-01-20,株式会社エヌ・ティー・エス,,株式会社,東京都,台東区,上野６丁目１番６号御徒町グリーンハイツ１００５号,,13,106,1100005,,,,,,,2026-01-20,1,,,,,エヌティーエス,0
1896,5010601068604,新規,0,2026-01-20,2026-01-20,株式会社マイユアンドヌー,,株式会社,東京都,江東区,越中島１丁目３番１―７１８号,,13,108,1350044,,,,,,,2026-01-20,1,,,,,マイユアンドヌー,0
1903,5010901058809,新規,0,2026-01-20,2026-01-20,株式会社ＹＵＩ　Ｌａｂ,,株式会社,東京都,世田谷区,砧３丁目２４番９号ヴェルレージュ世田谷・砧４１１号,,13,112,1570073,,,,,,,2026-01-20,1,,,,,ユイラボ,0
1966,5011001174728,新規,0,2026-01-20,2026-01-20,Ｉｎｎｏｖａｔｚ　Ｇｌｏｂａｌ株式会社,,株式会社,東京都,渋谷区,富ヶ谷１丁目１４－１４スタンフォードアネックスビル３Ｆ,,13,113,1510063,,,,,,,2026-01-20,1,,,,,イノヴァッツグローバル,0
1967,5011001174851,新規,0,2026-01-20,2026-01-20,株式会社ＲｅＣｏｎａ,,株式会社,東京都,渋谷区,道玄坂１丁目１０番８号渋谷道玄坂東急ビル２Ｆ－Ｃ,,13,113,1500043,,,,,,,2026-01-20,1,,,,,リコナ,0
1968,5011001175107,新規,0,2026-01-20,2026-01-20,株式会社日本ティーシーティー,,株式会社,東京都,渋谷区,代官山町２０番２３号,,13,113,1500034,,,,,,,2026-01-20,1,,,,,ニホンティーシーティー,0
1969,5011001175115,新規,0,2026-01-20,2026-01-20,株式会社Ｓｕｐｒｅｍｅ,,株式会社,東京都,渋谷区,恵比寿南１丁目１１番１６－３０１号ＫＤＸレジデンス恵比寿,,13,113,1500022,,,,,,,2026-01-20,1,,,,,シュプリーム,0
1991,5011101114369,新規,0,2026-01-20,2026-01-20,株式会社ＵＰ,,株式会社,東京都,新宿区,高田馬場２丁目８番２６号興和ビルディング７階,,13,104,1690075,,,,,,,2026-01-20,1,,,,,アップ,0
2002,5011303005837,新規,0,2026-01-20,2026-01-20,ＡＬＬ　ＩＮ合同会社,,合同会社,東京都,杉並区,阿佐谷南３丁目６－６グランパセオ阿佐ヶ谷１０６,,13,115,1660004,,,,,,,2026-01-20,1,,,,,オールイン,0
2004,5011501033012,新規,0,2026-01-20,2026-01-20,株式会社Ｍａｉ　Ｐｅｎ　Ｌｉｆｅ,,株式会社,東京都,荒川区,東尾久６丁目２６番地４号,,13,118,1160012,,,,,,,2026-01-20,1,,,,,マイペンライフ,0
2005,5011501033020,新規,0,2026-01-20,2026-01-20,株式会社フクフク,,株式会社,東京都,北区,滝野川６丁目５９番１４号,,13,117,1140023,,,,,,,2026-01-20,1,,,,,フクフク,0
2008,5011603004984,新規,0,2026-01-20,2026-01-20,合同会社ｅｍｂｅｄ　ｖａｌｕｅ,,合同会社,東京都,練馬区,春日町４丁目１番１－４０４号,,13,120,1790074,,,,,,,2026-01-20,1,,,,,エンベッドバリュー,0
2010,5011701029108,新規,0,2026-01-20,2026-01-20,Ｇｅｎｓｌａｃｋ株式会社,,株式会社,東京都,江戸川区,瑞江２丁目４―３―７０２,,13,123,1320011,,,,,,,2026-01-20,1,,,,,ジェンスラック,0
2012,5011801047273,新規,0,2026-01-20,2026-01-20,株式会社阿部工業,,株式会社,東京都,足立区,西保木間４丁目３番１０－４０１号,,13,121,1210812,,,,,,,2026-01-20,1,,,,,アベコウギョウ,0
2013,5011801047331,新規,0,2026-01-20,2026-01-20,アルファ株式会社,,株式会社,東京都,葛飾区,南水元３丁目５番１－４０５号フローレンス金町,,13,122,1250035,,,,,,,2026-01-20,1,,,,,アルファ,0
2014,5011803007283,新規,0,2026-01-20,2026-01-20,合同会社エンドネクスト,,合同会社,東京都,足立区,島根２丁目１番１６－１０１号,,13,121,1210815,,,,,,,2026-01-20,1,,,,,エンドネクスト,0
2023,5012801024477,新規,0,2026-01-20,2026-01-20,株式会社ＲｅＮａＴｕｓ,,株式会社,東京都,東大和市,南街４丁目４番地の１青梅橋ビル,,13,220,2070014,,,,,,,2026-01-20,1,,,,,レナトス,0
2051,5020001166494,新規,0,2026-01-20,2026-01-20,Ｗｉｌｌｆｕｌ　Ｍｅｄｉｃａｌ株式会社,,株式会社,神奈川県,横浜市中区,山手町２４４番地３ハイコート山手パレ２４４北館２０４号室,,14,104,2310862,,,,,,,2026-01-20,1,,,,,ウィルフルメディカル,0
2052,5020001166701,新規,0,2026-01-20,2026-01-20,Ｓｕｍｍｉｔ　Ａｄｖｉｓｏｒｙ　Ｇｒｏｕｐ株式会社,,株式会社,神奈川県,横浜市都筑区,南山田３丁目１２番２号,,14,118,2240029,,,,,,,2026-01-20,1,,,,,サミットアドバイサリーグループ,0
2053,5020001166734,新規,0,2026-01-20,2026-01-20,株式会社藤の縁,,株式会社,神奈川県,川崎市高津区,久本２丁目１４番１２号,,14,134,2130011,,,,,,,2026-01-20,1,,,,,フジノエン,0
2054,5020001166767,新規,0,2026-01-20,2026-01-20,株式会社ＬＡＸＯＮＥ,,株式会社,神奈川県,川崎市中原区,中丸子３９３－５,,14,133,2110012,,,,,,,2026-01-20,1,,,,,ラックスワン,0
2056,5020003030062,新規,0,2026-01-20,2026-01-20,合同会社Ｃｙｅｎ　ＢＥＡＵＴＥ,,合同会社,神奈川県,横浜市中区,元浜町４丁目３５馬車道ｙｔＢＡＹ５０３号,,14,104,2310004,,,,,,,2026-01-20,1,,,,,シエンボーテ,0
2057,5020003030178,新規,0,2026-01-20,2026-01-20,エンライズ合同会社,,合同会社,神奈川県,横浜市保土ケ谷区,初音ケ丘４０番３０号,,14,106,2400016,,,,,,,2026-01-20,1,,,,,エンライズ,0
2058,5020003030194,新規,0,2026-01-20,2026-01-20,合同会社ＭＵＨＲ　Ｅ‐ＤＲＵＭＳ,,合同会社,神奈川県,川崎市中原区,木月３丁目１０―２０永塚ビル１０３,,14,133,2110025,,,,,,,2026-01-20,1,,,,,ムールイードラムス,0
2059,5020003030203,新規,0,2026-01-20,2026-01-20,合同会社スキッパー,,合同会社,神奈川県,横浜市栄区,庄戸５丁目１６－２５,,14,115,2470022,,,,,,,2026-01-20,1,,,,,スキッパー,0
2060,5020005017116,新規,0,2026-01-20,2026-01-20,一般社団法人Ｏｒｉｖｉｄａ,,その他の設立登記法人,神奈川県,横浜市旭区,善部町１０２番地１アークプラザ南万騎が原３０８号,,14,112,2410823,,,,,,,2026-01-20,1,,,,,オリヴィーダ,0
2067,5030001170644,新規,0,2026-01-20,2026-01-20,日本保健機関株式会社,,株式会社,埼玉県,蓮田市,大字黒浜４５３５番地３,,11,238,3490101,,,,,,,2026-01-20,1,,,,,ニホンホケンキカン,0
2073,5040001142015,新規,0,2026-01-20,2026-01-20,株式会社ＨＭグループホールディングス,,株式会社,千葉県,鎌ケ谷市,新鎌ケ谷１丁目１０番３２号,,12,224,2730107,,,,,,,2026-01-20,1,,,,,エイチエムグループホールディングス,0
2074,5040001142147,新規,0,2026-01-20,2026-01-20,株式会社ジェイウェスタンゲームズ,,株式会社,千葉県,千葉市美浜区,幸町２丁目１５番１０棟４０７号,,12,106,2610001,,,,,,,2026-01-20,1,,,,,ジェイウェスタンゲームズ,0
2075,5040001142196,新規,0,2026-01-20,2026-01-20,株式会社千葉ライフパートナーズ,,株式会社,千葉県,千葉市稲毛区,萩台町６６４番地１３５,,12,103,2630012,,,,,,,2026-01-20,1,,,,,チバライフパートナーズ,0
2077,5040003029284,新規,0,2026-01-20,2026-01-20,ＫＳ　Ｉｎｔｅｒｎａｔｉｏｎａｌ合同会社,,合同会社,千葉県,佐倉市,将門町２８番地８,,12,212,2850042,,,,,,,2026-01-20,1,,,,,ケイエスインターナショナル,0
2086,5080401028388,新規,0,2026-01-20,2026-01-20,株式会社七福神,,株式会社,静岡県,浜松市中央区,鍛冶町３１９番地の９ゴールドサークル５ビル３Ｆ,,22,138,4300933,,,,,,,2026-01-20,1,,,,,シチフクジン,0
2092,5110005017313,新規,0,2026-01-20,2026-01-20,ＪＪステーション協同組合,,その他の設立登記法人,新潟県,上越市,清里区岡野町７６３番地２,,15,222,9430501,,,,,,,2026-01-20,1,,,,,ジェイジェイステーション,0
2103,5120001283577,新規,0,2026-01-20,2026-01-20,株式会社Ｕｎｉｖｅｒｓｅ,,株式会社,大阪府,大阪市北区,芝田２丁目１番１８号西阪急ビル１Ｆ,,27,127,5300012,,,,,,,2026-01-20,1,,,,,ユニバース,0
2112,5120101073102,新規,0,2026-01-20,2026-01-20,株式会社カラフル,,株式会社,大阪府,堺市北区,奥本町１丁４９番地,,27,146,5918007,,,,,,,2026-01-20,1,,,,,カラフル,0
2120,5120903006036,新規,0,2026-01-20,2026-01-20,岡山ホールディングス合同会社,,合同会社,大阪府,吹田市,千里山西３丁目４５番１８号,,27,205,5650851,,,,,,,2026-01-20,1,,,,,オカヤマホールディングス,0
2121,5120905006835,新規,0,2026-01-20,2026-01-20,医療法人にじいろ,,その他の設立登記法人,大阪府,吹田市,春日１丁目１６番１号ＧｒａｎＰｉｎｏ桃山台１００２号室,,27,205,5650853,,,,,,,2026-01-20,1,,,,,ニジイロ,0
2122,5122001040090,新規,0,2026-01-20,2026-01-20,株式会社ＣＲホールディングス,,株式会社,大阪府,東大阪市,長田東５丁目２番６号,,27,227,5770012,,,,,,,2026-01-20,1,,,,,シーアールホールディングス,0
2127,5130001081427,新規,0,2026-01-20,2026-01-20,株式会社ＥＩＲＡ,,株式会社,京都府,福知山市,駒場新町１丁目２９番地２Ｆ,,26,201,6200841,,,,,,,2026-01-20,1,,,,,エイラ,0
2128,5130003011084,新規,0,2026-01-20,2026-01-20,合同会社田辺あんしん農園,,合同会社,京都府,福知山市,字大門１３５０番地,,26,201,6200952,,,,,,,2026-01-20,1,,,,,タナベアンシンノウエン,0
2129,5130003011092,新規,0,2026-01-20,2026-01-20,合同会社華彩樹,,合同会社,京都府,木津川市,南加茂台１丁目８番地１０,,26,214,6191127,,,,,,,2026-01-20,1,,,,,カサギ,0
2130,5130003011101,新規,0,2026-01-20,2026-01-20,Ｂｏｎ　Ｉｎｖｅｓｔｍｅｎｔ　Ｏｎｅ合同会社,,合同会社,京都府,京都市中京区,丸太町通油小路東入横鍛冶町９８番地ＦＥＬＩＣＥ御所西６０１,,26,104,6040087,,,,,,,2026-01-20,1,,,,,ボンインベストメントワン,0
2142,5180001170349,新規,0,2026-01-20,2026-01-20,株式会社ＴＨＣ,,株式会社,愛知県,名古屋市中村区,烏森町５丁目１４番地ＣＡＳＡＮＯＡＨ名古屋Ｉ３０９号,00142256,23,105,4530855,,,,,,,2026-01-20,1,,,,,ティーエイチシー,0
2143,5180001170365,新規,0,2026-01-20,2026-01-20,ＡＬＭＩＧＨＴ株式会社,,株式会社,愛知県,名古屋市西区,南堀越２丁目５番３号,,23,104,4510054,,,,,,,2026-01-20,1,,,,,オールマイト,0
2144,5180003029576,新規,0,2026-01-20,2026-01-20,メルバ合同会社,,合同会社,愛知県,一宮市,奥町字宮郭４９番地１１,,23,203,4910201,,,,,,,2026-01-20,1,,,,,メルバ,0
2145,5180003029642,新規,0,2026-01-20,2026-01-20,合同会社副業の窓口,,合同会社,愛知県,春日井市,中切町１丁目５番地１アーバン・シャトレ３０１号,,23,206,4860925,,,,,,,2026-01-20,1,,,,,フクギョウノマドグチ,0
2236,5260003005486,新規,0,2026-01-20,2026-01-20,合同会社学び舎ミライト,,合同会社,岡山県,倉敷市,西阿知町９９８―１３,,33,202,7100807,,,,,,,2026-01-20,1,,,,,マナビヤミライト,0
2241,5290001112769,新規,0,2026-01-20,2026-01-20,Ａｐｐｌｉｅｄ　Ｅｌｅｃｔｒｉｃ　Ｖｅｈｉｃｌｅｓ株式会社,,株式会社,福岡県,福岡市中央区,天神１丁目９－１７福岡天神フコク生命ビル１５階,,40,133,8100001,,,,,,,2026-01-20,1,,,,,アプライドエレクトリックビークルズ,0
2244,5290801032159,新規,0,2026-01-20,2026-01-20,株式会社ナガシマ,,株式会社,福岡県,北九州市小倉南区,曽根北町５番１７－１００５号,,40,107,8000229,,,,,,,2026-01-20,1,,,,,ナガシマ,0
2245,5290801032175,新規,0,2026-01-20,2026-01-20,株式会社解花,,株式会社,福岡県,北九州市八幡西区,筒井町１３－２１－１１０３,,40,109,8060032,,,,,,,2026-01-20,1,,,,,カイカ,0
2246,5290801032183,新規,0,2026-01-20,2026-01-20,ひかりのつばさ株式会社,,株式会社,福岡県,北九州市若松区,青葉台西４丁目６番１６号,,40,103,8080143,,,,,,,2026-01-20,1,,,,,ヒカリノツバサ,0
2247,5290801032191,新規,0,2026-01-20,2026-01-20,Ｃａｌａｍａｒｉ株式会社,,株式会社,福岡県,行橋市,大字金屋７１７番地２１,,40,213,8240004,,,,,,,2026-01-20,1,,,,,カラマリ,0
2256,5320003004878,新規,0,2026-01-20,2026-01-20,薫風合同会社,,合同会社,大分県,大分市,大字本神崎２７９番地の２６,,44,201,8792111,,,,,,,2026-01-20,1,,,,,クンプウ,0
2258,5330001033936,新規,0,2026-01-20,2026-01-20,株式会社サカグチスポーツ,,株式会社,熊本県,熊本市東区,渡鹿９丁目２番４７号,,43,102,8620970,,,,,,,2026-01-20,1,,,,,サカグチスポーツ,0
2262,5340003005073,新規,0,2026-01-20,2026-01-20,合同会社ブラックパディ,,合同会社,鹿児島県,霧島市,隼人町小田７０番地４３,,46,218,8995105,,,,,,,2026-01-20,1,,,,,ブラックパディ,0
2263,5350003005122,新規,0,2026-01-20,2026-01-20,合同会社Ｍｉｊａｓ‐ｔｕ,,合同会社,宮崎県,宮崎市,別府町４番２５号ＭＪＲ宮崎駅南パークサイド８０３号,,45,201,8800802,,,,,,,2026-01-20,1,,,,,ミハストゥ,0
2310,5400001017295,新規,0,2026-01-20,2026-01-20,株式会社やはば測量設計,,株式会社,岩手県,紫波郡矢巾町,大字南矢幅第８地割２１３番地清賜知館１０１,,03,322,0283615,,,,,,,2026-01-20,1,,,,,ヤハバソクリョウセッケイ,0
2315,5420005008000,新規,0,2026-01-20,2026-01-20,一般社団法人ファミソーレ,,その他の設立登記法人,青森県,青森市,浜田２丁目１９番地６,,02,201,0300843,,,,,,,2026-01-20,1,,,,,ファミソーレ,0
2321,5430003018512,新規,0,2026-01-20,2026-01-20,合同会社後藤ファーム,,合同会社,北海道,岩内郡共和町,老古美１６９番地１８,,01,401,0450032,,,,,,,2026-01-20,1,,,,,ゴトウファーム,0
2325,5460103001778,新規,0,2026-01-20,2026-01-20,合同会社ＦＨ,,合同会社,北海道,帯広市,柏林台北町４丁目１番地４‐４１０２,,01,207,0800054,,,,,,,2026-01-20,1,,,,,エフエイチ,0
2327,5500001026732,新規,0,2026-01-20,2026-01-20,黒川運送株式会社,,株式会社,愛媛県,西条市,氷見乙１１６５番地１,,38,206,7930072,,,,,,,2026-01-20,1,,,,,クロカワウンソウ,0
2341,6010001261700,新規,0,2026-01-20,2026-01-20,室町株式会社,,株式会社,東京都,中央区,新富１丁目３番８号,,13,102,1040041,,,,,,,2026-01-20,1,,,,,ムロマチ,0
2342,6010001261980,新規,0,2026-01-20,2026-01-20,フードデザイン株式会社,,株式会社,東京都,千代田区,神田淡路町２丁目３番地１２－５Ｆ,,13,101,1010063,,,,,,,2026-01-20,1,,,,,フードデザイン,0
2345,6010003050052,新規,0,2026-01-20,2026-01-20,ＭＬレインボー合同会社,,合同会社,東京都,中央区,日本橋１丁目４番１号,,13,102,1030027,,,,,,,2026-01-20,1,,,,,エムエルレインボー,0
2346,6010003050085,新規,0,2026-01-20,2026-01-20,エイト合同会社,,合同会社,東京都,千代田区,丸の内１丁目４番１号東京共同会計事務所内,,13,101,1000005,,,,,,,2026-01-20,1,,,,,エイト,0
2355,6010401195928,新規,0,2026-01-20,2026-01-20,ＤＣ　Ｍａｒｅ１株式会社,,株式会社,東京都,港区,南青山３丁目１番３号スプライン青山東急ビル３階,,13,103,1070062,,,,,,,2026-01-20,1,,,,,ディーシーマーレワン,0
2356,6010401195985,新規,0,2026-01-20,2026-01-20,Ｊａｐａｎ　ＺＥＮ　Ｃｉｒｃｕｌａｒ株式会社,,株式会社,東京都,港区,北青山１丁目３番１号アールキューブ青山３階,,13,103,1070061,,,,,,,2026-01-20,1,,,,,ジャパンゼンサーキュラー,0
2357,6010403037046,新規,0,2026-01-20,2026-01-20,合同会社丸四商事,,合同会社,東京都,港区,赤坂６丁目１５番１号赤坂ミツワビル４０１,,13,103,1070052,,,,,,,2026-01-20,1,,,,,マルヨンショウジ,0
2358,6010403037054,新規,0,2026-01-20,2026-01-20,合同会社ＬＳＢ．Ｓ．Ｄ,,合同会社,東京都,港区,六本木３丁目１６番１２号六本木ＫＳビル５Ｆ,,13,103,1060032,,,,,,,2026-01-20,1,,,,,エルエスビーエスディ,0
2365,6010901058824,新規,0,2026-01-20,2026-01-20,株式会社ＴＩＬＴ　ＤＥＳＩＧＮ,,株式会社,東京都,世田谷区,太子堂４丁目１８番１５号マガザン三軒茶屋２－３Ｆ－３,,13,112,1540004,,,,,,,2026-01-20,1,,,,,ティルトデザイン,0
2422,6011001174834,新規,0,2026-01-20,2026-01-20,株式会社エム・アール商会,,株式会社,東京都,渋谷区,神宮前１丁目９番１１号,,13,113,1500001,,,,,,,2026-01-20,1,,,,,エムアールショウカイ,0
2423,6011001174867,新規,0,2026-01-20,2026-01-20,株式会社ＮＥＥＤ,,株式会社,東京都,渋谷区,上原１丁目２５－７Ｌｅｏｔａｘビル３階,,13,113,1510064,,,,,,,2026-01-20,1,,,,,ニード,0
2424,6011001174958,新規,0,2026-01-20,2026-01-20,Ｅｘｐｏｎｅｎｔｉａｌ　Ｔｒａｄｉｎｇ株式会社,,株式会社,東京都,渋谷区,宇田川町３番５号ＳｐａｒｋＳＨＩＢＵＹＡ７階,,13,113,1500042,,,,,,,2026-01-20,1,,,,,エクスポネンシャルトレーディング,0
2425,6011001175097,新規,0,2026-01-20,2026-01-20,ＤＡＳＡ　Ｊａｐａｎ株式会社,,株式会社,東京都,渋谷区,恵比寿南１丁目２０番６号プレファス恵比寿南４Ｆ,,13,113,1500022,,,,,,,2026-01-20,1,,,,,ダサジャパン,0
2426,6011001175114,新規,0,2026-01-20,2026-01-20,株式会社Ｆｕｌｌ　Ｂｅｔ　Ｍａｎａｇｅｍｅｎｔ,,株式会社,東京都,渋谷区,円山町３番６号Ｅ・スペースタワー６階,,13,113,1500044,,,,,,,2026-01-20,1,,,,,フルベットマネジメント,0
2432,6011003023386,新規,0,2026-01-20,2026-01-20,合同会社川野優起,,合同会社,東京都,渋谷区,鶯谷町７番１９号ティーノート１０１,,13,113,1500032,,,,,,,2026-01-20,1,,,,,カワノユウキ,0
2443,6011101114657,新規,0,2026-01-20,2026-01-20,株式会社ＣｏｒｅＯｐｓ,,株式会社,東京都,新宿区,住吉町１１－２２－５０２,,13,104,1620065,,,,,,,2026-01-20,1,,,,,コアオプス,0
2450,6011601029322,新規,0,2026-01-20,2026-01-20,株式会社航此藝舎,,株式会社,東京都,練馬区,桜台５丁目１１番１８号欅の音ｔｅｒｒａｃｅ１０６,,13,120,1760002,,,,,,,2026-01-20,1,,,,,コウコゲイシャ,0
2453,6011801047330,新規,0,2026-01-20,2026-01-20,株式会社８ＬＩＮＫ,,株式会社,東京都,足立区,六木１丁目４番２号,,13,121,1210052,,,,,,,2026-01-20,1,,,,,エイトリンク,0
2454,6011801047339,新規,0,2026-01-20,2026-01-20,株式会社Ｃｒｏｓｓｏｖｅｒ,,株式会社,東京都,足立区,梅田１丁目２３番６号,,13,121,1230851,,,,,,,2026-01-20,1,,,,,クロスオーバー,0
2491,6020001166659,新規,0,2026-01-20,2026-01-20,ローカルウェルス株式会社,,株式会社,神奈川県,横浜市泉区,和泉中央北４丁目３０番７,,14,116,2450024,,,,,,,2026-01-20,1,,,,,ローカルウェルス,0
2492,6020001166725,新規,0,2026-01-20,2026-01-20,株式会社ウエナイ,,株式会社,神奈川県,横浜市南区,六ツ川３丁目６２番地６５,,14,105,2320066,,,,,,,2026-01-20,1,,,,,ウエナイ,0
2493,6020001166733,新規,0,2026-01-20,2026-01-20,ｉｏｍｉｎａ　ｃｒａｆｔ株式会社,,株式会社,神奈川県,横浜市鶴見区,梶山１丁目６番２７リステージ三ツ池公園１０３号室,,14,101,2300072,,,,,,,2026-01-20,1,,,,,イオミナクラフト,0
2498,6021003016991,新規,0,2026-01-20,2026-01-20,ＲＡＣグループ合同会社,,合同会社,神奈川県,厚木市,旭町１丁目２１番６号スカイ厚木１０２,,14,212,2430014,,,,,,,2026-01-20,1,,,,,アールエーシーグループ,0
2501,6030001170627,新規,0,2026-01-20,2026-01-20,株式会社升利,,株式会社,埼玉県,三郷市,栄４丁目２２１番地２Ｓスカイハイツ１－３０２室,,11,237,3410043,,,,,,,2026-01-20,1,,,,,ショウリ,0
2502,6030001170684,新規,0,2026-01-20,2026-01-20,Ｔ．Ｍ．Ｃｏｎｓｕｌｔｉｎｇ株式会社,,株式会社,埼玉県,幸手市,中４丁目２０―３９,,11,240,3400115,,,,,,,2026-01-20,1,,,,,ティーエムコンサルティング,0
2505,6030003028501,新規,0,2026-01-20,2026-01-20,ビバリー＆カズ合同会社,,合同会社,埼玉県,ふじみ野市,大井２丁目１７―４,,11,245,3560053,,,,,,,2026-01-20,1,,,,,ビバリーアンドカズ,0
2509,6040001142047,新規,0,2026-01-20,2026-01-20,株式会社ＴＡＫＥ　ＣＡＲＥＥＲ,,株式会社,千葉県,茂原市,町保１１番地１０８,,12,210,2970022,,,,,,,2026-01-20,1,,,,,タケキャリア,0
2513,6040003029325,新規,0,2026-01-20,2026-01-20,万木海岸合同会社,,合同会社,千葉県,いすみ市,万木５１２番地１,,12,238,2980111,,,,,,,2026-01-20,1,,,,,マンギカイガン,0
2519,6060001038920,新規,0,2026-01-20,2026-01-20,株式会社Ｂｅｓｔ　ｏｆ　ｍｅ,,株式会社,栃木県,足利市,八幡町２丁目５番地１１いこいＮ－１－２０２号室,,09,202,3260824,,,,,,,2026-01-20,1,,,,,ベストオブミー,0
2520,6060001038937,新規,0,2026-01-20,2026-01-20,成和株式会社,,株式会社,栃木県,宇都宮市,東峰町３０６８番地１３,,09,201,3210944,,,,,,,2026-01-20,1,,,,,セイワ,0
2524,6070001043746,新規,0,2026-01-20,2026-01-20,小澤リンク総業株式会社,,株式会社,群馬県,館林市,西本町９番３７号,,10,207,3740065,,,,,,,2026-01-20,1,,,,,オザワリンクソウギョウ,0
2525,6080101026030,新規,0,2026-01-20,2026-01-20,株式会社ＤＴＢ,,株式会社,静岡県,御殿場市,板妻１２番地の３０,,22,215,4120048,,,,,,,2026-01-20,1,,,,,ディーティービー,0
2535,6110005017312,新規,0,2026-01-20,2026-01-20,一般社団法人晴る風と陽だまりの庭,,その他の設立登記法人,新潟県,上越市,大潟区渋柿浜１８４０番地３,,15,222,9493115,,,,,,,2026-01-20,1,,,,,ハルカゼトヒダマリノニワ,0
2546,6120001283460,新規,0,2026-01-20,2026-01-20,株式会社ＫＤＫ,,株式会社,大阪府,大阪市中央区,糸屋町１丁目２番１１－２８０３号,,27,128,5400022,,,,,,,2026-01-20,1,,,,,ケーディーケー,0
2547,6120001283469,新規,0,2026-01-20,2026-01-20,ＬＹＳ　ｊａｐａｎ株式会社,,株式会社,大阪府,大阪市浪速区,日本橋東３丁目１４－１０－１３０６,,27,111,5560006,,,,,,,2026-01-20,1,,,,,エルワイエスジャパン,0
2550,6120003031660,新規,0,2026-01-20,2026-01-20,ファンデック合同会社,,合同会社,大阪府,大阪市旭区,中宮５丁目１１－１５キタオビル３号館１階,,27,117,5350003,,,,,,,2026-01-20,1,,,,,ファンデック,0
2551,6120003031693,新規,0,2026-01-20,2026-01-20,合同会社岳アカデミー,,合同会社,大阪府,大阪市中央区,北久宝寺町３丁目６番１号本町南ガーデンシティ７階,,27,128,5410057,,,,,,,2026-01-20,1,,,,,ガクアカデミー,0
2552,6120103006950,新規,0,2026-01-20,2026-01-20,合同会社オーシャン,,合同会社,大阪府,和泉市,山荘町１丁目１８番２８号,,27,219,5940021,,,,,,,2026-01-20,1,,,,,,0
2553,6120901052106,新規,0,2026-01-20,2026-01-20,ＮＡＫＡエステート株式会社,,株式会社,大阪府,高槻市,高西町１４番２３号,,27,207,5690061,,,,,,,2026-01-20,1,,,,,ナカエステート,0
2554,6120901052114,新規,0,2026-01-20,2026-01-20,株式会社ＮｅｗＭｅ,,株式会社,大阪府,吹田市,江の木町１２番５－３２４号,,27,205,5640053,,,,,,,2026-01-20,1,,,,,ニューミー,0
2556,6120903006043,新規,0,2026-01-20,2026-01-20,ライフリンク合同会社,,合同会社,大阪府,吹田市,青山台４丁目１０番３号,,27,205,5650875,,,,,,,2026-01-20,1,,,,,ライフリンク,0
2557,6120905006834,新規,0,2026-01-20,2026-01-20,医療法人森山歯科医院,,その他の設立登記法人,大阪府,茨木市,美穂ケ丘３番６号第１山本ビル２０２号,,27,211,5670047,,,,,,,2026-01-20,1,,,,,モリヤマシカイイン,0
2561,6130001081450,新規,0,2026-01-20,2026-01-20,株式会社アイレイ研究所,,株式会社,京都府,京都市上京区,新町通寺之内上る３丁目大心院町３７番地,,26,102,6020003,,,,,,,2026-01-20,1,,,,,アイレイケンキュウショ,0
2562,6140001141369,新規,0,2026-01-20,2026-01-20,ＯＦＩＣホールディングス株式会社,,株式会社,兵庫県,尼崎市,常光寺１丁目９番１号,,28,202,6600811,,,,,,,2026-01-20,1,,,,,オフィックホールディングス,0
2567,6170001018952,新規,0,2026-01-20,2026-01-20,株式会社バイオパワー,,株式会社,和歌山県,御坊市,熊野９１２番地,,30,205,6440033,,,,,,,2026-01-20,1,,,,,バイオパワー,0
2578,6180001170331,新規,0,2026-01-20,2026-01-20,かなえアセットアドバイザーズ株式会社,,株式会社,愛知県,名古屋市中区,丸の内３丁目２１番２１号丸の内東桜ビル１００１,,23,106,4600002,,,,,,,2026-01-20,1,,,,,カナエアセットアドバイザーズ,0
2580,6180005021398,新規,0,2026-01-20,2026-01-20,一般社団法人中小企業成長支援機構,,その他の設立登記法人,愛知県,名古屋市中区,錦１丁目５番１１号名古屋伊藤忠ビル,,23,106,4600003,,,,,,,2026-01-20,1,,,,,チュウショウキギョウセイチョウシエンキコウ,0
2676,6210001020466,新規,0,2026-01-20,2026-01-20,株式会社ＥＥＴＯＫＯ　ＬＡＢ,,株式会社,福井県,大野市,春日３丁目４番３号,,18,205,9120053,,,,,,,2026-01-20,1,,,,,エエトコラボ,0
2681,6240001066060,新規,0,2026-01-20,2026-01-20,株式会社ＹＳＤ‐Ｅ,,株式会社,広島県,広島市中区,南竹屋町２番３５号,,34,101,7300049,,,,,,,2026-01-20,1,,,,,ワイエスディーイー,0
2684,6250001021510,新規,0,2026-01-20,2026-01-20,株式会社Ｃｏｒｅｖａｎｃｅ,,株式会社,山口県,山口市,小郡明治１丁目１５番１号,,35,203,7540043,,,,,,,2026-01-20,1,,,,,コレバンス,0
2690,6290001112677,新規,0,2026-01-20,2026-01-20,匯洋莱仕国際人材株式会社,00142259,株式会社,福岡県,福岡市東区,青葉４丁目１３番９号,,40,131,8130025,,,,,,,2026-01-20,1,,,,,カイヨウライシコクサイジンザイ,0
2691,6290001112702,新規,0,2026-01-20,2026-01-20,Ｆｕｋｕｏｋａ　Ｃｏｎｃｏｒｄ　Ｈｏｌｄｉｎｇｓ株式会社,,株式会社,福岡県,糟屋郡須惠町,大字佐谷１３２３番地１,,40,344,8112115,,,,,,,2026-01-20,1,,,,,コクオカコンコードホールディングス,0
2692,6290001112875,新規,0,2026-01-20,2026-01-20,株式会社ＭＫ　ＣＲＥＡＴＥ,,株式会社,福岡県,宗像市,石丸２丁目７－３－１０２,,40,220,8114147,,,,,,,2026-01-20,1,,,,,エムケイクリエイト,0
2695,6290003017949,新規,0,2026-01-20,2026-01-20,ＯＳＭ合同会社,,合同会社,福岡県,福岡市中央区,桜坂１丁目１５－８ブランシエラ赤坂はなみずき通り１３０３,,40,133,8100024,,,,,,,2026-01-20,1,,,,,オーエスエム,0
2706,6330001033935,新規,0,2026-01-20,2026-01-20,株式会社カイザーリッチ,,株式会社,熊本県,熊本市南区,富合町大町９４１番地１３,,43,104,8614145,,,,,,,2026-01-20,1,,,,,カイザーリッチ,0
2709,6350001019908,新規,0,2026-01-20,2026-01-20,ＴＯＫＡ　ＤＥＳＩＧＮ　ＬＡＢ株式会社,,株式会社,宮崎県,宮崎市,大字鏡洲２１７番地３,,45,201,8892156,,,,,,,2026-01-20,1,,,,,トウカデザインラボ,0
2711,6360001036282,新規,0,2026-01-20,2026-01-20,北辰ポラリステクノロジーズ株式会社,,株式会社,沖縄県,浦添市,屋富祖２丁目２６番７号ラポールやふそ５０２,,47,208,9012127,,,,,,,2026-01-20,1,,,,,ホクシンポラリステクノロジーズ,0
2752,6430001096088,新規,0,2026-01-20,2026-01-20,株式会社北海道観光・ホスピタリティサービス,,株式会社,北海道,虻田郡ニセコ町,字ニセコ３８７番地６,,01,395,0481511,,,,,,,2026-01-20,1,,,,,ホッカイドウカンコウホスピタリティサービス,0
2757,6470001021059,新規,0,2026-01-20,2026-01-20,株式会社サルタヒコ,,株式会社,香川県,高松市,牟礼町牟礼２３７７－１シャトレハイツ屋島４０３,,37,201,7610121,,,,,,,2026-01-20,1,,,,,,0
2762,6490003002088,新規,0,2026-01-20,2026-01-20,合同会社リープ,,合同会社,高知県,香南市,吉川町吉原１５４番地１,,39,211,7815241,,,,,,,2026-01-20,1,,,,,リープ,0
2764,6500001026731,新規,0,2026-01-20,2026-01-20,株式会社Ｍａｙｌｉｓ,,株式会社,愛媛県,松山市,堀江町甲１１２１番地７アルト堀江２－２５０７号,,38,201,7992651,,,,,,,2026-01-20,1,,,,,メイリス,0
2775,7010001261699,新規,0,2026-01-20,2026-01-20,株式会社明石町オフィス,,株式会社,東京都,中央区,明石町１番３１－１００７号,,13,102,1040044,,,,,,,2026-01-20,1,,,,,アカシチョウオフィス,0
2776,7010001261889,新規,0,2026-01-20,2026-01-20,株式会社結,,株式会社,東京都,千代田区,三番町６番３号三番町ＵＦビル３Ｆ,,13,101,1020075,,,,,,,2026-01-20,1,,,,,ユイ,0
2777,7010001261939,新規,0,2026-01-20,2026-01-20,株式会社サガミ,,株式会社,東京都,千代田区,外神田６丁目１番８号,,13,101,1010021,,,,,,,2026-01-20,1,,,,,サガミ,0
2778,7010001261947,新規,0,2026-01-20,2026-01-20,株式会社ショクバイ,,株式会社,東京都,千代田区,神田司町２丁目１０番４号４Ｆ,,13,101,1010048,,,,,,,2026-01-20,1,,,,,ショクバイ,0
2779,7010001262004,新規,0,2026-01-20,2026-01-20,株式会社ＴＲＵＮＫ　ＢＡＲＢＥＲ,,株式会社,東京都,文京区,千駄木２丁目３２番６号,,13,105,1130022,,,,,,,2026-01-20,1,,,,,トランクバーバー,0
2784,7010003049952,新規,0,2026-01-20,2026-01-20,ベルーガ合同会社,,合同会社,東京都,中央区,銀座１丁目１２番４号Ｎ＆ＥＢＬＤ．６Ｆ,,13,102,1040061,,,,,,,2026-01-20,1,,,,,ベルーガ,0
2785,7010003049977,新規,0,2026-01-20,2026-01-20,ＡＲＫＨ合同会社,,合同会社,東京都,中央区,銀座１丁目２２－１１銀座大竹ビジデンス２Ｆ,,13,102,1040061,,,,,,,2026-01-20,1,,,,,アーク,0
2786,7010003049985,新規,0,2026-01-20,2026-01-20,丸山桂合同会社,,合同会社,東京都,文京区,千駄木５丁目３番１２－１１４号,,13,105,1130022,,,,,,,2026-01-20,1,,,,,マルヤマケイ,0
2787,7010003050035,新規,0,2026-01-20,2026-01-20,幸治エンタープライズ合同会社,,合同会社,東京都,文京区,湯島３丁目４２番３号佳昇上野湯島ビル９階Ａ号室,,13,105,1130034,,,,,,,2026-01-20,1,,,,,コウジエンタープライズ,0
2788,7010003050051,新規,0,2026-01-20,2026-01-20,レインボー・データセンター合同会社,,合同会社,東京都,中央区,日本橋１丁目４番１号,,13,102,1030027,,,,,,,2026-01-20,1,,,,,レインボーデータセンター,0
2789,7010003050068,新規,0,2026-01-20,2026-01-20,ＴＰＮ　Ｊａｐａｎ　Ａｓｓｅｔ　Ｈｏｌｄ　Ｃｏ合同会社,,合同会社,東京都,中央区,日本橋３丁目９番１号日本橋三丁目スクエア１１階,,13,102,1030027,,,,,,,2026-01-20,1,,,,,ティーピーエヌジャパンアセットホールドコー,0
2790,7010003050084,新規,0,2026-01-20,2026-01-20,エスティ１９合同会社,,合同会社,東京都,千代田区,丸の内１丁目４番１号東京共同会計事務所内,,13,101,1000005,,,,,,,2026-01-20,1,,,,,エスティジュウキュウ,0
2797,7010401195695,新規,0,2026-01-20,2026-01-20,メディポン株式会社,,株式会社,東京都,港区,浜松町２丁目２番１５号浜松町ダイヤビル２Ｆ,,13,103,1050013,,,,,,,2026-01-20,1,,,,,メディポン,0
2798,7010401195753,新規,0,2026-01-20,2026-01-20,Ｒｅｘｙ株式会社,,株式会社,東京都,港区,南青山２丁目２番１５号ウィン青山９４２,,13,103,1070062,,,,,,,2026-01-20,1,,,,,レクシー,0
2800,7010403036988,新規,0,2026-01-20,2026-01-20,Ｓｔｒａｎｄ　Ｔｈｅｒａｐｅｕｔｉｃｓ　Ｊａｐａｎ合同会社,,合同会社,東京都,港区,六本木６丁目１０番１号六本木ヒルズ森タワー１５階ＣＩＲＣＬＥｂｙＡＮＲＩ,,13,103,1060032,,,,,,,2026-01-20,1,,,,,ストランドセラピューティクスジャパン,0
2801,7010405025163,新規,0,2026-01-20,2026-01-20,特定非営利活動法人ＭＥＥＲ　Ｊａｐａｎ,,その他の設立登記法人,東京都,港区,南麻布３丁目１１番１２－３０１号,,13,103,1060047,,,,,,,2026-01-20,1,,,,,ミーアジャパン,0
2802,7010405025171,新規,0,2026-01-20,2026-01-20,一般社団法人ＣＯＭＰＡＳＳ　Ｈｏｌｄｉｎｇｓ,,その他の設立登記法人,東京都,港区,虎ノ門３丁目２２番１０－２０１号,,13,103,1050001,,,,,,,2026-01-20,1,,,,,コンパスホールディングス,0
2807,7010701048917,新規,0,2026-01-20,2026-01-20,株式会社Ｕｎｕ,,株式会社,東京都,品川区,西五反田５丁目２６番３号スマータス不動前５０２,,13,109,1410031,,,,,,,2026-01-20,1,,,,,ウニュー,0
2813,7010903010567,新規,0,2026-01-20,2026-01-20,合同会社縁ジョイワークス,,合同会社,東京都,世田谷区,上祖師谷５丁目１７番４―２１１,,13,112,1570065,,,,,,,2026-01-20,1,,,,,エンジョイワークス,0
2865,7011001174825,新規,0,2026-01-20,2026-01-20,株式会社Ｅｓｃａｐｅ　ｆｒｏｍ,,株式会社,東京都,渋谷区,道玄坂１丁目１０番８号渋谷道玄坂東急ビル２Ｆ－Ｃ,,13,113,1500043,,,,,,,2026-01-20,1,,,,,エスケープフロム,0
2866,7011001174866,新規,0,2026-01-20,2026-01-20,株式会社Ｌａｕｇｈｕｓ,,株式会社,東京都,渋谷区,道玄坂１丁目１０番８号渋谷道玄坂東急ビル２Ｆ－Ｃ,,13,113,1500043,,,,,,,2026-01-20,1,,,,,ラフアス,0
2867,7011001174874,新規,0,2026-01-20,2026-01-20,株式会社スタジオウィンチ,,株式会社,東京都,渋谷区,道玄坂１丁目１０番８号渋谷道玄坂東急ビル２Ｆ－Ｃ,,13,113,1500043,,,,,,,2026-01-20,1,,,,,スタジオウィンチ,0
2868,7011001174924,新規,0,2026-01-20,2026-01-20,イマジネーションフューチャー株式会社,,株式会社,東京都,目黒区,下目黒１丁目１番１４号コノトラビル７Ｆ,,13,110,1530064,,,,,,,2026-01-20,1,,,,,イマジネーションフューチャー,0
2869,7011001174932,新規,0,2026-01-20,2026-01-20,株式会社アングリッチ,,株式会社,東京都,渋谷区,円山町５番３号ＭＩＥＵＸ渋谷ビル８階,,13,113,1500044,,,,,,,2026-01-20,1,,,,,アングリッチ,0
2870,7011001175014,新規,0,2026-01-20,2026-01-20,株式会社タオタオ,,株式会社,東京都,渋谷区,道玄坂１丁目１０番８号渋谷道玄坂東急ビル２Ｆ－Ｃ,,13,113,1500043,,,,,,,2026-01-20,1,,,,,タオタオ,0
2878,7011005011347,新規,0,2026-01-20,2026-01-20,一般社団法人Ｃｏｂｒａ,,その他の設立登記法人,東京都,渋谷区,神宮前１丁目５番８号,,13,113,1500001,,,,,,,2026-01-20,1,,,,,コブラ,0
2883,7011105011692,新規,0,2026-01-20,2026-01-20,一般社団法人ＫＯＨＡＫＵ,,その他の設立登記法人,東京都,新宿区,荒木町１３番地,,13,104,1600007,,,,,,,2026-01-20,1,,,,,コハク,0
2885,7011201026909,新規,0,2026-01-20,2026-01-20,ＭＯＮＥＡ株式会社,,株式会社,東京都,中野区,東中野５丁目２９番１５号４０１,,13,114,1640003,,,,,,,2026-01-20,1,,,,,モネア,0
2893,7011303005835,新規,0,2026-01-20,2026-01-20,合同会社ＰＮ２,,合同会社,東京都,杉並区,成田東１丁目１８－３－１０３,,13,115,1660015,,,,,,,2026-01-20,1,,,,,ピーエヌツー,0
2899,7011601029288,新規,0,2026-01-20,2026-01-20,襷株式会社,,株式会社,東京都,練馬区,平和台４丁目２３番１５号１０７,,13,120,1790083,,,,,,,2026-01-20,1,,,,,タスキ,0
2900,7011601029321,新規,0,2026-01-20,2026-01-20,株式会社ジェサンク,,株式会社,東京都,練馬区,栄町４３番１２号,,13,120,1760006,,,,,,,2026-01-20,1,,,,,ジェサンク,0
2901,7011603004982,新規,0,2026-01-20,2026-01-20,合同会社Ｈ＆Ｓ,,合同会社,東京都,練馬区,小竹町２丁目１４番４号,,13,120,1760004,,,,,,,2026-01-20,1,,,,,エイチアンドエス,0
2904,7012301014687,新規,0,2026-01-20,2026-01-20,株式会社Ｌｅｇａｃｙ　ｈｉｇｈ,,株式会社,東京都,町田市,木曽西５丁目２７番地１,,13,209,1940037,,,,,,,2026-01-20,1,,,,,レガシーハイ,0
2907,7012401044031,新規,0,2026-01-20,2026-01-20,ジャクソン株式会社,,株式会社,東京都,狛江市,岩戸南３丁目８番１１号,,13,219,2010005,,,,,,,2026-01-20,1,,,,,ジャクソン,0
2931,7013301055614,新規,0,2026-01-20,2026-01-20,株式会社開発社,,株式会社,東京都,豊島区,南池袋４丁目２０番９号１階,,13,116,1710022,,,,,,,2026-01-20,1,,,,,カイハツシャ,0
2937,7020001166617,新規,0,2026-01-20,2026-01-20,ＹＳＬＥＣ株式会社,,株式会社,神奈川県,横浜市都筑区,折本町１２６１番地１,,14,118,2240043,,,,,,,2026-01-20,1,,,,,ワイエスレック,0
2938,7020001166658,新規,0,2026-01-20,2026-01-20,株式会社とうふや,,株式会社,神奈川県,横浜市港北区,新羽町２４７５番地,,14,109,2230057,,,,,,,2026-01-20,1,,,,,トウフヤ,0
2939,7020001166716,新規,0,2026-01-20,2026-01-20,株式会社ＡＤＯＲＩＡ,,株式会社,神奈川県,横浜市神奈川区,橋本町２丁目５番地３ＢＷ－１３０６号,,14,102,2210053,,,,,,,2026-01-20,1,,,,,アドリア,0
2940,7020001166724,新規,0,2026-01-20,2026-01-20,株式会社ＲＢＧＰ２,,株式会社,神奈川県,横浜市西区,南幸２丁目１５番２０号ＹＢＳ南幸ビル５階,,14,103,2200005,,,,,,,2026-01-20,1,,,,,アールビージーピーツー,0
2945,7020003030110,新規,0,2026-01-20,2026-01-20,プレタツールズ合同会社,,合同会社,神奈川県,横浜市西区,北幸２丁目１０番４８号むつみビル３階,,14,103,2200004,,,,,,,2026-01-20,1,,,,,プレタツールズ,0
2946,7020003030168,新規,0,2026-01-20,2026-01-20,Ｂ‐Ｓｔｙｌｅ合同会社,,合同会社,神奈川県,横浜市都筑区,仲町台２丁目１７番２０号ＭｏｄｅｒｎＮａｔｕｒｅ２０６,,14,118,2240041,,,,,,,2026-01-20,1,,,,,ビースタイル,0
2947,7020003030184,新規,0,2026-01-20,2026-01-20,Ｓｕｎｎｙ　Ｂｏｙｓ合同会社,,合同会社,神奈川県,横浜市戸塚区,平戸３丁目２５番２６－１号,,14,110,2440802,,,,,,,2026-01-20,1,,,,,サニーボーイズ,0
2953,7021003016990,新規,0,2026-01-20,2026-01-20,ＲＯＯＴＳ合同会社,,合同会社,神奈川県,平塚市,山下３丁目５番１７号,,14,203,2540911,,,,,,,2026-01-20,1,,,,,ルーツ,0
2954,7030001170626,新規,0,2026-01-20,2026-01-20,株式会社龍富,,株式会社,埼玉県,三郷市,栄４丁目２２１番地２Ｓスカイハイツ１－４０１室,,11,237,3410043,,,,,,,2026-01-20,1,,,,,リュウト,0
2955,7030001170675,新規,0,2026-01-20,2026-01-20,株式会社モバイルクラフト,,株式会社,埼玉県,上尾市,大字小敷谷９１９番地１７,,11,219,3620064,,,,,,,2026-01-20,1,,,,,モバイルクラフト,0
2959,7030003028450,新規,0,2026-01-20,2026-01-20,合同会社ＪＯＨＮ　ＤＯＥ,,合同会社,埼玉県,富士見市,関沢２丁目１４番４１－１８号,,11,235,3540025,,,,,,,2026-01-20,1,,,,,ジョンドゥー,0
2960,7030003028475,新規,0,2026-01-20,2026-01-20,合同会社ＲＯＣＫＩＮ’ＷＯＯＤ,,合同会社,埼玉県,秩父郡皆野町,大字三沢１９３番地,,11,362,3691411,,,,,,,2026-01-20,1,,,,,ロッキンウッド,0
2961,7030005022393,新規,0,2026-01-20,2026-01-20,土地家屋調査士法人田村事務所,,その他の設立登記法人,埼玉県,さいたま市大宮区,桜木町２丁目３７６番地ＭＳ－１ビル８Ｆ,,11,103,3300854,,,,,,,2026-01-20,1,,,,,タムラジムショ,0
2963,7040001142137,新規,0,2026-01-20,2026-01-20,株式会社ＡＯＲＩＳ,,株式会社,千葉県,流山市,大字東深井５２３番地の４,,12,220,2700101,,,,,,,2026-01-20,1,,,,,アオリス,0
2964,7040003029332,新規,0,2026-01-20,2026-01-20,合同会社ＡＳＨＩＴＡＫ,,合同会社,千葉県,船橋市,東中山２丁目１５－２４,,12,204,2730036,,,,,,,2026-01-20,1,,,,,アシタック,0
2968,7060001038936,新規,0,2026-01-20,2026-01-20,株式会社ツーライド,,株式会社,栃木県,宇都宮市,古賀志町１３１４番地５,,09,201,3210341,,,,,,,2026-01-20,1,,,,,ツーライド,0
2970,7070001043737,新規,0,2026-01-20,2026-01-20,株式会社Ｉｒｏｄｏｒｉｓｍ,,株式会社,群馬県,伊勢崎市,境女塚３１８－５,,10,204,3700121,,,,,,,2026-01-20,1,,,,,,0
2974,7080103003506,新規,0,2026-01-20,2026-01-20,合同会社新橋鮎澤,,合同会社,静岡県,御殿場市,新橋２０６番地１３エクセル御殿場１０９号室,,22,215,4120043,,,,,,,2026-01-20,1,,,,,ニイハシアイザワ,0
2975,7100001039260,新規,0,2026-01-20,2026-01-20,フォレスツリー安曇野株式会社,,株式会社,長野県,安曇野市,穂高有明８９８６番地２,,20,220,3998301,,,,,,,2026-01-20,1,,,,,フォレスツリーアズミノ,0
2976,7100001039285,新規,0,2026-01-20,2026-01-20,株式会社春原,,株式会社,長野県,長野市,南千歳１丁目１０番地５第一荒井ビル４階西室,,20,201,3800823,,,,,,,2026-01-20,1,,,,,スノハラ,0
2980,7100003008577,新規,0,2026-01-20,2026-01-20,Ｂａｃｋｙａｒｄ　Ｌａｂ．合同会社,,合同会社,長野県,長野市,大字鶴賀上千歳町１１３７番地２３,,20,201,3800821,,,,,,,2026-01-20,1,,,,,バックヤードラボ,0
2983,7110003006019,新規,0,2026-01-20,2026-01-20,縁．ｊｏｙＴｒｖｅｌ合同会社,,合同会社,新潟県,新潟市中央区,上大川前通５番町６３－５３,,15,103,9518068,,,,,,,2026-01-20,1,,,,,エンジョイトラベル,0
2990,7120001283484,新規,0,2026-01-20,2026-01-20,村上ビルマネージメント株式会社,,株式会社,大阪府,大阪市生野区,小路東１丁目３番８号,,27,116,5440003,,,,,,,2026-01-20,1,,,,,ムラカミビルマネージメント,0
2994,7120005025370,新規,0,2026-01-20,2026-01-20,医療法人共生会あかつき歯科医院,,その他の設立登記法人,大阪府,枚方市,池之宮２丁目６番１１－１０１号,,27,210,5730005,,,,,,,2026-01-20,1,,,,,キョウセイカイアカツキシカイイン,0
2997,7122001040089,新規,0,2026-01-20,2026-01-20,未来アセットマネジメント株式会社,,株式会社,大阪府,八尾市,東本町２丁目４番１５号,,27,212,5810004,,,,,,,2026-01-20,1,,,,,ミライアセットマネジメント,0
3002,7130001081425,新規,0,2026-01-20,2026-01-20,株式会社ＴＨＲＥＥ　ＫＮＯＴＳ,,株式会社,京都府,京都市中京区,富小路通錦小路上る高宮町５９３番地Ｆｏｒｃｅ錦３０５,,26,104,6048056,,,,,,,2026-01-20,1,,,,,スリーノッツ,0
3004,7130003011074,新規,0,2026-01-20,2026-01-20,ＣＯＳＭＩＣ　ＷＨＡＬＥ合同会社,,合同会社,京都府,京都市左京区,吉田近衛町７,,26,103,6068315,,,,,,,2026-01-20,1,,,,,コズミックホエール,0
3008,7140003023093,新規,0,2026-01-20,2026-01-20,合同会社おおきな輪,,合同会社,兵庫県,西宮市,山口町名来１丁目２６番５号,,28,204,6511411,,,,,,,2026-01-20,1,,,,,オオキナワ,0
3013,7180001170314,新規,0,2026-01-20,2026-01-20,なますて株式会社,,株式会社,愛知県,名古屋市中村区,名駅４丁目２４番５号第２森ビル４０１,,23,105,4500002,,,,,,,2026-01-20,1,,,,,ナマステ,0
3014,7180001170330,新規,0,2026-01-20,2026-01-20,ＴＯＫＡＩ株式会社,,株式会社,愛知県,名古屋市南区,本地通１丁目４番地３,,23,112,4570074,,,,,,,2026-01-20,1,,,,,トウカイ,0
3015,7180001170347,新規,0,2026-01-20,2026-01-20,４ＣＲＥＡＴＥ株式会社,,株式会社,愛知県,名古屋市北区,山田２丁目３－４３ＣＳＢＬＤＧ．ＩＩ３Ｆ,00142251,23,103,4620810,,,,,,,2026-01-20,1,,,,,フォークリエイト,0
3019,7180003029640,新規,0,2026-01-20,2026-01-20,合同会社心瞳,,合同会社,愛知県,名古屋市北区,東水切町２丁目２２番地の１７,,23,103,4620828,,,,,,,2026-01-20,1,,,,,シンドウ,0
3020,7180003029649,新規,0,2026-01-20,2026-01-20,ゆくひ合同会社,,合同会社,愛知県,名古屋市中村区,名駅４丁目２４番５号第２森ビル４０１,,23,105,4500002,,,,,,,2026-01-20,1,,,,,ユクヒ,0
3021,7180005021389,新規,0,2026-01-20,2026-01-20,一般社団法人希望のたまご,,その他の設立登記法人,愛知県,名古屋市瑞穂区,田辺通３丁目２７サンシャイン田辺通３Ｂ,,23,108,4670027,,,,,,,2026-01-20,1,,,,,キボウノタマゴ,0
3022,7180005021397,新規,0,2026-01-20,2026-01-20,一般社団法人ＪＫＫＦ日本硬式空手道連盟,,その他の設立登記法人,愛知県,日進市,米野木町南山２７番地１２,,23,230,4700111,,,,,,,2026-01-20,1,,,,,ジェイケイケイエフニホンコウシキカラテドウレンメイ,0
3027,7180301040621,新規,0,2026-01-20,2026-01-20,株式会社Ｌｅｖａｎｔ,,株式会社,愛知県,岡崎市,小針町３丁目２番地７,,23,202,4440907,,,,,,,2026-01-20,1,,,,,レヴァント,0
3113,7240001066068,新規,0,2026-01-20,2026-01-20,株式会社ＹＭＤｏ．ＨＤ,,株式会社,広島県,広島市安芸区,矢野南１丁目９番３号,,34,107,7360086,,,,,,,2026-01-20,1,,,,,ワイエムドゥホールディングス,0
3114,7240001066076,新規,0,2026-01-20,2026-01-20,株式会社Ｅｌｅ‐ｉｌ,,株式会社,広島県,広島市南区,東雲２丁目８番２５号,,34,103,7340022,,,,,,,2026-01-20,1,,,,,エレイル,0
3139,7330001033926,新規,0,2026-01-20,2026-01-20,株式会社ステイリンク,,株式会社,熊本県,山鹿市,鹿本町御宇田４８１番地１,,43,208,8610304,,,,,,,2026-01-20,1,,,,,ステイリンク,0
3147,7340003005055,新規,0,2026-01-20,2026-01-20,合同会社笑心,,合同会社,鹿児島県,鹿児島市,甲突町７番１６号山口ビル１階,,46,201,8920837,,,,,,,2026-01-20,1,,,,,エゴコロ,0
3149,7350001019907,新規,0,2026-01-20,2026-01-20,株式会社ＢＯＹ,,株式会社,宮崎県,宮崎市,淀川１丁目２番５号ＭＪＲ大淀リバーサイド５０４号,,45,201,8800907,,,,,,,2026-01-20,1,,,,,ボーイ,0
3153,7360001036273,新規,0,2026-01-20,2026-01-20,株式会社スマイル,,株式会社,沖縄県,糸満市,字糸満１９４３番地の５４,,47,210,9010361,,,,,,,2026-01-20,1,,,,,スマイル,0
3155,7360003015564,新規,0,2026-01-20,2026-01-20,合同会社コルレＨＤ,,合同会社,沖縄県,浦添市,宮城４丁目１番５号,,47,208,9012126,,,,,,,2026-01-20,1,,,,,コルレエイチディー,0
3158,7370001053400,新規,0,2026-01-20,2026-01-20,ＳＲＩＡ　Ｌａｂ株式会社,,株式会社,宮城県,仙台市青葉区,中央２丁目１１番１９号仙南ビル４階－Ａ,,04,101,9800021,,,,,,,2026-01-20,1,,,,,エスリアラボ,0
3201,7400003003597,新規,0,2026-01-20,2026-01-20,合同会社Ｅｃｌａｔ＆Ｒ,,合同会社,岩手県,盛岡市,緑が丘３丁目２番１０号,,03,201,0200117,,,,,,,2026-01-20,1,,,,,エクラアンドアール,0
3203,7420005007999,新規,0,2026-01-20,2026-01-20,特定非営利活動法人天晴れ,,その他の設立登記法人,青森県,上北郡六ヶ所村,大字倉内字道ノ上３９番地３３,,02,411,0393215,,,,,,,2026-01-20,1,,,,,アッパレ,0
3209,7430003018502,新規,0,2026-01-20,2026-01-20,合同会社ｍａｒｕｆｕｋｕ,,合同会社,北海道,浦河郡浦河町,緑町１２２番地,,01,607,0570025,,,,,,,2026-01-20,1,,,,,マルフク,0
3214,7470001021058,新規,0,2026-01-20,2026-01-20,ＦＴＭ株式会社,,株式会社,香川県,高松市,木太町５１１０番地１８－１０１,,37,201,7600080,,,,,,,2026-01-20,1,,,,,エフティーエム,0
3219,7500001026730,新規,0,2026-01-20,2026-01-20,株式会社クロスウエスト・イノベーション,,株式会社,愛媛県,松山市,湊町４丁目１１番４号Ａ－ＯＮＥ３Ｆ,,38,201,7900012,,,,,,,2026-01-20,1,,,,,クロスウエストイノベーション,0
3233,8010001261707,新規,0,2026-01-20,2026-01-20,株式会社ＭＫＵコンサルティング,,株式会社,東京都,中央区,東日本橋２丁目２８番４号,,13,102,1030004,,,,,,,2026-01-20,1,,,,,エムケイユウコンサルティング,0
3234,8010001261748,新規,0,2026-01-20,2026-01-20,株式会社Ｓｔｉｍｕ　Ｂｅａｕｔｙ,,株式会社,東京都,中央区,銀座３丁目１３番４号銀座スカイビル４０２,,13,102,1040061,,,,,,,2026-01-20,1,,,,,スティムビューティー,0
3235,8010001261979,新規,0,2026-01-20,2026-01-20,ＮＹＣＦＧ２株式会社,,株式会社,東京都,中央区,新川１丁目６番１１号,,13,102,1040033,,,,,,,2026-01-20,1,,,,,エヌワイシーエフジーツー,0
3236,8010001262069,新規,0,2026-01-20,2026-01-20,金華株式会社,,株式会社,東京都,文京区,後楽１丁目４番１１号コートレジデントタワー８０４号,,13,105,1120004,,,,,,,2026-01-20,1,,,,,キンカ,0
3237,8010001262119,新規,0,2026-01-20,2026-01-20,パテラスコンサルティング株式会社,,株式会社,東京都,千代田区,丸の内２丁目３－２郵船ビル１Ｆ,,13,101,1000005,,,,,,,2026-01-20,1,,,,,パテラスコンサルティング,0
3244,8010003049927,新規,0,2026-01-20,2026-01-20,合同会社ずっと呑めればいいのに,,合同会社,東京都,千代田区,九段南３丁目３－２ＣＫ３３２－１階,,13,101,1020074,,,,,,,2026-01-20,1,,,,,ズットノメレバイイノニ,0
3245,8010003049984,新規,0,2026-01-20,2026-01-20,合同会社ミチカ,,合同会社,東京都,中央区,湊３丁目１１番８－２０３号,,13,102,1040043,,,,,,,2026-01-20,1,,,,,ミチカ,0
3246,8010003050018,新規,0,2026-01-20,2026-01-20,Ｒｉｖｅｒａ合同会社,,合同会社,東京都,千代田区,三崎町三丁目６番地１ＢＡＣＨビル２階,,13,101,1000000,,,,,,,2026-01-20,1,,,,,リヴェラ,0
3247,8010003050083,新規,0,2026-01-20,2026-01-20,泰平商事合同会社,,合同会社,東京都,中央区,銀座１丁目１２番４号Ｎ＆ＥＢＬＤ．６Ｆ,,13,102,1040061,,,,,,,2026-01-20,1,,,,,タイヘイショウジ,0
3254,8010401195538,新規,0,2026-01-20,2026-01-20,株式会社Ｄｒｅａｍ　Ｐａｓｓ,,株式会社,東京都,港区,虎ノ門１丁目１５番１０号名和ビル４階,,13,103,1050001,,,,,,,2026-01-20,1,,,,,ドリームパス,0
3255,8010401195570,新規,0,2026-01-20,2026-01-20,株式会社Ｐｒｏｆｅｓｓｉｏｎａｌ　Ａｇｅｎｔ　Ａｃａｄｅｍｙ,,株式会社,東京都,港区,麻布台１丁目３番１号,,13,103,1060041,,,,,,,2026-01-20,1,,,,,プロフェッショナルエージェントアカデミー,0
3256,8010401195760,新規,0,2026-01-20,2026-01-20,ヒキツギテクノロジーズ株式会社,,株式会社,東京都,港区,虎ノ門４丁目３番１号,,13,103,1050001,,,,,,,2026-01-20,1,,,,,ヒキツギテクノロジーズ,0
3257,8010401195793,新規,0,2026-01-20,2026-01-20,Ｋ２株式会社,,株式会社,東京都,港区,赤坂２丁目１３番８号赤坂ロイヤルプラザ１０４号室,,13,103,1070052,,,,,,,2026-01-20,1,,,,,ケイツー,0
3258,8010401195835,新規,0,2026-01-20,2026-01-20,株式会社ＩＰＰＯ,,株式会社,東京都,港区,浜松町２丁目２番１５号浜松町ダイヤビル２Ｆ,,13,103,1050013,,,,,,,2026-01-20,1,,,,,イッポ,0
3259,8010401195843,新規,0,2026-01-20,2026-01-20,株式会社ＮＡＫＡＹＯＳＨＩ　Ｐａｒｔｎｅｒｓ,,株式会社,東京都,港区,浜松町２丁目２番１５号浜松町ダイヤビル２Ｆ,,13,103,1050013,,,,,,,2026-01-20,1,,,,,ナカヨシパートナーズ,0
3260,8010401195901,新規,0,2026-01-20,2026-01-20,株式会社りゅうすけ,,株式会社,東京都,港区,六本木１丁目４番５－１０１号,,13,103,1060032,,,,,,,2026-01-20,1,,,,,リュウスケ,0
3261,8010401195926,新規,0,2026-01-20,2026-01-20,七和物産株式会社,,株式会社,東京都,港区,浜松町２丁目２番１５号浜松町ダイヤビル２Ｆ,,13,103,1050013,,,,,,,2026-01-20,1,,,,,ナナワブッサン,0
3268,8010403037028,新規,0,2026-01-20,2026-01-20,コマセンス合同会社,,合同会社,東京都,港区,北青山１丁目３番１号,,13,103,1070061,,,,,,,2026-01-20,1,,,,,コマセンス,0
3269,8010403037044,新規,0,2026-01-20,2026-01-20,合同会社エヌエイダブリュ,,合同会社,東京都,港区,白金６丁目５－１２－２０１,,13,103,1080072,,,,,,,2026-01-20,1,,,,,エヌエイダブリュ,0
3271,8010501055328,新規,0,2026-01-20,2026-01-20,ＢａｓｉｃｗａｒｅＡＩ株式会社,,株式会社,東京都,台東区,小島２丁目１番１１号,,13,106,1110056,,,,,,,2026-01-20,1,,,,,ベーシックウェアエーアイ,0
3275,8010601068601,新規,0,2026-01-20,2026-01-20,ＴＳＵＹＯＳＨＩ株式会社,,株式会社,東京都,墨田区,江東橋４丁目１５番４号第９大澤ビル６階,,13,107,1300022,,,,,,,2026-01-20,1,,,,,ツヨシ,0
3278,8010701048800,新規,0,2026-01-20,2026-01-20,株式会社９６,,株式会社,東京都,品川区,上大崎３丁目１２－９グランパセオ目黒花房山４０５,,13,109,1410021,,,,,,,2026-01-20,1,,,,,クロ,0
3279,8010701048916,新規,0,2026-01-20,2026-01-20,ＧＲＡＮＤ　ＣＲＵ　ＣＬＡＳＳＥ株式会社,,株式会社,東京都,品川区,小山５丁目１３番１７号武蔵小山ビル１階,,13,109,1420062,,,,,,,2026-01-20,1,,,,,グランクリュクラッセ,0
3280,8010703008091,新規,0,2026-01-20,2026-01-20,合同会社ＧＯ,,合同会社,東京都,品川区,小山６丁目６番２号,,13,109,1420062,,,,,,,2026-01-20,1,,,,,ジーオー,0
3281,8010801036977,新規,0,2026-01-20,2026-01-20,株式会社ｈｅｌｓｙ,,株式会社,東京都,大田区,南雪谷５丁目１５番１－４１２号,,13,111,1450066,,,,,,,2026-01-20,1,,,,,ヘルシイ,0
3282,8010803005674,新規,0,2026-01-20,2026-01-20,合同会社ノースポイント,,合同会社,東京都,大田区,大森東２丁目５－１８,,13,111,1430012,,,,,,,2026-01-20,1,,,,,ノースポイント,0
3283,8010803005690,新規,0,2026-01-20,2026-01-20,Ｒｅｆａｈ　ｏｆ　Ｓｆｉｄａ合同会社,,合同会社,東京都,大田区,大森北２丁目１３番３１－２００１号,,13,111,1430016,,,,,,,2026-01-20,1,,,,,レファーオブスフィーダ,0
3352,8011001174790,新規,0,2026-01-20,2026-01-20,黒橋株式会社,,株式会社,東京都,渋谷区,初台１丁目３８番１０号１０２号室,,13,113,1510061,,,,,,,2026-01-20,1,,,,,クロハシ,0
3353,8011001174915,新規,0,2026-01-20,2026-01-20,株式会社Ｂｅｓｔ　Ａｐｐｒｏａｃｈ,,株式会社,東京都,渋谷区,神泉町１０番１５号アネックス神泉３０１,,13,113,1500045,,,,,,,2026-01-20,1,,,,,ベストアプローチ,0
3354,8011001174972,新規,0,2026-01-20,2026-01-20,株式会社Ｉｍｐａｃｈｉ,,株式会社,東京都,目黒区,中目黒４丁目５－２クレッセント中目黒５０５,,13,110,1530061,,,,,,,2026-01-20,1,,,,,インパチ,0
3355,8011001175005,新規,0,2026-01-20,2026-01-20,ＩＭ　Ｓｔｕｄｉｏ株式会社,,株式会社,東京都,渋谷区,宇田川町３番５号ＳｐａｒｋＳＨＩＢＵＹＡ７階,,13,113,1500042,,,,,,,2026-01-20,1,,,,,アイエムスタジオ,0
3357,8011003023351,新規,0,2026-01-20,2026-01-20,合同会社ＬＵＭＯ,,合同会社,東京都,目黒区,碑文谷５丁目２番５号Ｔ＆Ａビル５Ｆ,,13,110,1520003,,,,,,,2026-01-20,1,,,,,ルーモ,0
3358,8011003023376,新規,0,2026-01-20,2026-01-20,Ｂｅｓｔｉｍｍｕｎｇ　Ｖｉｓｕａｌｓ合同会社,,合同会社,東京都,目黒区,中町１丁目９番１９号セメリオ目黒４０２,,13,110,1530065,,,,,,,2026-01-20,1,,,,,ベスティモンヴィジュアルズ,0
3365,8011101114531,新規,0,2026-01-20,2026-01-20,株式会社ロータスサポート,,株式会社,東京都,新宿区,新宿２丁目７番３号ヴェラハイツ新宿御苑７０７,,13,104,1600022,,,,,,,2026-01-20,1,,,,,ロータスサポート,0
3366,8011101114564,新規,0,2026-01-20,2026-01-20,株式会社ＣＲＯＳＳＩＮＧ,,株式会社,東京都,新宿区,西新宿７丁目２２番２９号,,13,104,1600023,,,,,,,2026-01-20,1,,,,,クロッシング,0
3375,8011801047337,新規,0,2026-01-20,2026-01-20,株式会社綾瀬産後ケア,,株式会社,東京都,葛飾区,小菅４丁目８番１０号,,13,122,1240001,,,,,,,2026-01-20,1,,,,,アヤセサンゴケア,0
3376,8011803007280,新規,0,2026-01-20,2026-01-20,合同会社Ｙｏｋｏｏ,,合同会社,東京都,葛飾区,宝町２丁目２４番９号,,13,122,1240005,,,,,,,2026-01-20,1,,,,,ヨコー,0
3377,8012301014678,新規,0,2026-01-20,2026-01-20,株式会社新和,,株式会社,東京都,町田市,小山町２４９２番地７,,13,209,1940212,,,,,,,2026-01-20,1,,,,,シンワ,0
3378,8012303002276,新規,0,2026-01-20,2026-01-20,合同会社カメレオン,,合同会社,東京都,町田市,玉川学園５丁目１６番３０号１,,13,209,1940041,,,,,,,2026-01-20,1,,,,,カメレオン,0
3381,8012405005210,新規,0,2026-01-20,2026-01-20,一般社団法人晴風学舎,,その他の設立登記法人,東京都,狛江市,元和泉２丁目１４番１号,,13,219,2010013,,,,,,,2026-01-20,1,,,,,セイフウガクシャ,0
3382,8012801024466,新規,0,2026-01-20,2026-01-20,株式会社レイス,,株式会社,東京都,昭島市,中神町１１６９番地１２シャン・ピエールＩＩ３０６号,00142252,13,207,1960022,,,,,,,2026-01-20,1,,,,,レイス,0
3383,8012801024482,新規,0,2026-01-20,2026-01-20,株式会社Ｂｕｉｌｄ　ＵＰ,,株式会社,東京都,武蔵村山市,中央２丁目８９番地の３２,,13,223,2080003,,,,,,,2026-01-20,1,,,,,ビルドアップ,0
3417,8020001166640,新規,0,2026-01-20,2026-01-20,株式会社東邦プランクリエイト,,株式会社,神奈川県,川崎市幸区,新塚越２０１番地,,14,132,2120027,,,,,,,2026-01-20,1,,,,,,0
3418,8020001166707,新規,0,2026-01-20,2026-01-20,満月堂株式会社,,株式会社,神奈川県,川崎市麻生区,高石６丁目２３番８－３号,,14,137,2150003,,,,,,,2026-01-20,1,,,,,マンゲツドウ,0
3419,8020001166806,新規,0,2026-01-20,2026-01-20,株式会社ＫＴＲ,,株式会社,神奈川県,横浜市中区,石川町１丁目１４番地植松ビル３Ｆ,,14,104,2310868,,,,,,,2026-01-20,1,,,,,ケイティーアール,0
3427,8021001087216,新規,0,2026-01-20,2026-01-20,株式会社ＬＩＢ　ｓｕｐｐｏｒｔ,,株式会社,神奈川県,相模原市南区,南台６丁目２番５号２０３,,14,153,2520314,,,,,,,2026-01-20,1,,,,,エルアイビーサポート,0
3428,8021001087281,新規,0,2026-01-20,2026-01-20,しんき株式会社,,株式会社,神奈川県,綾瀬市,蓼川３丁目１０番６号,,14,218,2521105,,,,,,,2026-01-20,1,,,,,シンキ,0
3442,8030005022392,新規,0,2026-01-20,2026-01-20,特定非営利活動法人ＳＡＬＵＳ,,その他の設立登記法人,埼玉県,加須市,下谷７４１番地,,11,210,3470053,,,,,,,2026-01-20,1,,,,,サルース,0
3447,8040001142128,新規,0,2026-01-20,2026-01-20,株式会社満天,,株式会社,千葉県,成田市,並木町２２１番地７２０,,12,211,2860045,,,,,,,2026-01-20,1,,,,,マンテン,0
3457,8060001038927,新規,0,2026-01-20,2026-01-20,株式会社ＥＭＩＦＵＬＬ,,株式会社,栃木県,宇都宮市,簗瀬２丁目９番１３号ＢＬＵＥＴＲＥＥ簗瀬Ｄ－１０１,,09,201,3210934,,,,,,,2026-01-20,1,,,,,エミフル,0
3459,8070001043752,新規,0,2026-01-20,2026-01-20,株式会社アローズプロテクト,,株式会社,群馬県,高崎市,島野町２５３番地１,,10,202,3700015,,,,,,,2026-01-20,1,,,,,アローズプロテクト,0
3466,8090001019701,新規,0,2026-01-20,2026-01-20,グリーンハーバー山梨西部株式会社,,株式会社,山梨県,中央市,東花輪２１２８番地,,19,214,4093842,,,,,,,2026-01-20,1,,,,,グリーンハーバーヤマナシセイブ,0
3469,8100001039276,新規,0,2026-01-20,2026-01-20,株式会社トラストリンク,,株式会社,長野県,上伊那郡箕輪町,大字中箕輪８０５１番地１ＭＫ４５－２０１,,20,383,3994601,,,,,,,2026-01-20,1,,,,,トラストリンク,0
3471,8100003008568,新規,0,2026-01-20,2026-01-20,ＴＲＡＩ　ＣＡＹ　ＮＡＧＡＮＯ合同会社,,合同会社,長野県,下伊那郡松川町,元大島２９０９番地１,,20,402,3993303,,,,,,,2026-01-20,1,,,,,チャイカイナガノ,0
3484,8120001283104,新規,0,2026-01-20,2026-01-20,株式会社ＰＡＴＨＣＲＥＡＴＥ,,株式会社,大阪府,大阪市浪速区,恵美須西１丁目２番１３号プレジオ恵美須１５０６号,,27,111,5560003,,,,,,,2026-01-20,1,,,,,パスクリエイト,0
3485,8120001283450,新規,0,2026-01-20,2026-01-20,ＳＥＮＪＩＮ　ＭＵＳＩＣ株式会社,,株式会社,大阪府,大阪市西淀川区,福町２丁目３番２１号２階,,27,113,5550034,,,,,,,2026-01-20,1,,,,,センジンミュージック,0
3486,8120001283467,新規,0,2026-01-20,2026-01-20,前田幸貴ホールディングス株式会社,,株式会社,大阪府,大阪市北区,梅田１丁目１３番１号大阪梅田ツインタワーズ・サウス,,27,127,5300001,,,,,,,2026-01-20,1,,,,,マエダコウキホールディングス,0
3487,8120001283475,新規,0,2026-01-20,2026-01-20,株式会社諸國,,株式会社,大阪府,大阪市淀川区,十三東１丁目１７番１９号,,27,123,5320023,,,,,,,2026-01-20,1,,,,,ショコク,0
3488,8120001283483,新規,0,2026-01-20,2026-01-20,株式会社Ｍａｓｔｕｐ,,株式会社,大阪府,大阪市北区,梅田１丁目２番２号大阪駅前第２ビル１２－１２,,27,127,5300001,,,,,,,2026-01-20,1,,,,,マストアップ,0
3491,8120003031246,新規,0,2026-01-20,2026-01-20,カガミノハコ合同会社,,合同会社,大阪府,大阪市中央区,南船場１丁目４－１１モリビル５階,,27,128,5420081,,,,,,,2026-01-20,1,,,,,カガミノハコ,0
3493,8120005025361,新規,0,2026-01-20,2026-01-20,一般社団法人中小企業販促・ＤＸ支援協会,,その他の設立登記法人,大阪府,枚方市,宇山町２番２３号,,27,210,5731143,,,,,,,2026-01-20,1,,,,,チュウショウキギョウハンソクディーエックスシエンキョウカイ,0
3500,8120901052104,新規,0,2026-01-20,2026-01-20,株式会社大福商事,,株式会社,大阪府,高槻市,緑町５番１１－２０３号,,27,207,5690094,,,,,,,2026-01-20,1,,,,,ダイフクショウジ,0
3501,8120901052112,新規,0,2026-01-20,2026-01-20,株式会社オーエムピー,,株式会社,大阪府,茨木市,北春日丘２丁目１４番３３号,,27,211,5670048,,,,,,,2026-01-20,1,,,,,オーエムピー,0
3502,8120903006033,新規,0,2026-01-20,2026-01-20,合同会社ＲＩＣＯＣＯＲＯ,,合同会社,大阪府,吹田市,広芝町１３番３５－２０５号,,27,205,5640052,,,,,,,2026-01-20,1,,,,,リココロ,0
3503,8120905006832,新規,0,2026-01-20,2026-01-20,医療法人彰恵会,,その他の設立登記法人,大阪府,高槻市,西冠３丁目２９番７号関西スーパー西冠店１階,,27,207,5690055,,,,,,,2026-01-20,1,,,,,ショウケイカイ,0
3505,8122001040105,新規,0,2026-01-20,2026-01-20,株式会社Ｅｎｇｌｉｓｈ　Ｌａｎｄ,,株式会社,大阪府,大東市,赤井３丁目５番５号,,27,218,5740046,,,,,,,2026-01-20,1,,,,,イングリッシュランド,0
3509,8130001081432,新規,0,2026-01-20,2026-01-20,ミライハンド商事株式会社,,株式会社,京都府,京都市下京区,二帖半敷町６４７番地２オンリー烏丸ビル,,26,106,6008412,,,,,,,2026-01-20,1,,,,,ミライハンドショウジ,0
3516,8140003023092,新規,0,2026-01-20,2026-01-20,合同会社エーエステート,,合同会社,兵庫県,明石市,大久保町大窪５１６番地の１０,,28,203,6740051,,,,,,,2026-01-20,1,,,,,エーエステート,0
3526,8180001170313,新規,0,2026-01-20,2026-01-20,株式会社Ｃｏｌｏｒｆｕｌ,,株式会社,愛知県,名古屋市千種区,萱場１丁目１２番３号,,23,101,4640086,,,,,,,2026-01-20,1,,,,,カラフル,0
3527,8180001170346,新規,0,2026-01-20,2026-01-20,リンク株式会社,,株式会社,愛知県,一宮市,中島通４丁目２番地１３,,23,203,4910072,,,,,,,2026-01-20,1,,,,,リンク,0
3528,8180001170354,新規,0,2026-01-20,2026-01-20,株式会社ミル,,株式会社,愛知県,名古屋市中区,金山５丁目１８番６号グレースガーデンプラザ６Ｃ,,23,106,4600022,,,,,,,2026-01-20,1,,,,,ミル,0
3533,8180003029607,新規,0,2026-01-20,2026-01-20,合同会社ｍｉｗａ,,合同会社,愛知県,常滑市,矢田字不動蓋１２４番地の６,,23,216,4790001,,,,,,,2026-01-20,1,,,,,ミワ,0
3534,8180003029623,新規,0,2026-01-20,2026-01-20,合同会社アトレスタ,,合同会社,愛知県,名古屋市中川区,十番町１丁目３０４番地の３Ａ１,,23,110,4540055,,,,,,,2026-01-20,1,,,,,アトレスタ,0
3535,8180003029648,新規,0,2026-01-20,2026-01-20,合同会社じむてく,,合同会社,愛知県,知多市,日長字山之腰４番地の１１,,23,224,4780041,,,,,,,2026-01-20,1,,,,,ジムテク,0
3633,8230003002566,新規,0,2026-01-20,2026-01-20,ＪＴ・ＡＸＩＡ合同会社,,合同会社,富山県,富山市,五福１０７３番地,,16,201,9300887,,,,,,,2026-01-20,1,,,,,ジェイティアクシア,0
3641,8260003005483,新規,0,2026-01-20,2026-01-20,合同会社ナリッシュ,,合同会社,岡山県,浅口市,金光町占見新田６４５番地５,,33,216,7190104,,,,,,,2026-01-20,1,,,,,ナリッシュ,0
3648,8290003017922,新規,0,2026-01-20,2026-01-20,合同会社スプリス,,合同会社,福岡県,福岡市中央区,舞鶴１丁目９－３,,40,133,8100073,,,,,,,2026-01-20,1,,,,,スプリス,0
3662,8330001033925,新規,0,2026-01-20,2026-01-20,株式会社ヤナギサワウエルディングサービス,,株式会社,熊本県,熊本市北区,武蔵ケ丘６丁目１番４１号,,43,105,8618001,,,,,,,2026-01-20,1,,,,,ヤナギサワウエルディングサービス,0
3674,8360001036248,新規,0,2026-01-20,2026-01-20,株式会社魁,,株式会社,沖縄県,那覇市,泊２丁目１－１８Ｔ＆Ｃ泊ビル４・５Ｆ,,47,201,9000012,,,,,,,2026-01-20,1,,,,,サキガケ,0
3676,8360003015555,新規,0,2026-01-20,2026-01-20,合同会社かりゆし経営研究所,,合同会社,沖縄県,糸満市,西崎町３丁目７番７号マンション絢１０８,,47,210,9010306,,,,,,,2026-01-20,1,,,,,カリユシケイエイケンキュウショ,0
3677,8360005007352,新規,0,2026-01-20,2026-01-20,特定非営利活動法人わらび,,その他の設立登記法人,沖縄県,島尻郡南風原町,字兼城２９５番地６メゾンルミエール３０１,,47,350,9011111,,,,,,,2026-01-20,1,,,,,ワラビ,0
3715,8430001096094,新規,0,2026-01-20,2026-01-20,株式会社ＮＡＲＳ,,株式会社,北海道,札幌市白石区,本郷通１２丁目北１番７－１０２号,,01,104,0030025,,,,,,,2026-01-20,1,,,,,ナーズ,0
3720,8430003018501,新規,0,2026-01-20,2026-01-20,合同会社ｍｕｓｕｂｉ　ｎｏ　ｎｅ,,合同会社,北海道,札幌市東区,北六条東２丁目２番１－１９０６号,,01,103,0600906,,,,,,,2026-01-20,1,,,,,ムスビノネ,0
3721,8450001014839,新規,0,2026-01-20,2026-01-20,株式会社鈴木農産,,株式会社,北海道,空知郡南富良野町,字北落合４０番地,,01,462,0792552,,,,,,,2026-01-20,1,,,,,スズキノウサン,0
3724,8500003003660,新規,0,2026-01-20,2026-01-20,合同会社上甲興業,,合同会社,愛媛県,大洲市,菅田町大竹乙７４５番地１９,,38,207,7950083,,,,,,,2026-01-20,1,,,,,ジョウコウコウギョウ,0
3736,9010001261706,新規,0,2026-01-20,2026-01-20,株式会社Ｋｏｓｈｉｎｏ＆Ｃｏ．,,株式会社,東京都,中央区,日本橋室町１丁目１１番１２号日本橋水野ビル７階,,13,102,1030022,,,,,,,2026-01-20,1,,,,,コシノアンドカンパニー,0
3737,9010001261739,新規,0,2026-01-20,2026-01-20,株式会社柏ネーム,,株式会社,東京都,中央区,日本橋蛎殻町１丁目９番５号ＧＥＭＩＮＩ－ＯＮＥ２Ｆ,,13,102,1030014,,,,,,,2026-01-20,1,,,,,カシワネーム,0
3738,9010001261929,新規,0,2026-01-20,2026-01-20,ブルー・アウル・キャピタル・ジャパン株式会社,,株式会社,東京都,千代田区,丸の内２丁目６番１号丸の内パークビルディング８階,,13,101,1000005,,,,,,,2026-01-20,1,,,,,ブルーアウルキャピタルジャパン,0
3739,9010001261945,新規,0,2026-01-20,2026-01-20,株式会社ＲＯＢＯＴＭＡＮ,,株式会社,東京都,千代田区,東神田１丁目１４番１３号カシムラビル,,13,101,1010031,,,,,,,2026-01-20,1,,,,,ロボットマン,0
3740,9010001262035,新規,0,2026-01-20,2026-01-20,株式会社ブライトグロー,,株式会社,東京都,千代田区,神田猿楽町２丁目８番１１号ＶＯＲＴ水道橋ＩＩＩ,00142248,13,101,1010064,,,,,,,2026-01-20,1,,,,,ブライトグロー,0
3750,9010003049926,新規,0,2026-01-20,2026-01-20,Ｏ２Ｃ　ＡＧＥＮＣＹ合同会社,,合同会社,東京都,中央区,銀座１丁目１２番４号Ｎ＆Ｅ，ＢＬＤ．６Ｆ,,13,102,1040061,,,,,,,2026-01-20,1,,,,,オーツゥエージェンシー,0
3751,9010003049950,新規,0,2026-01-20,2026-01-20,Ｐｅａｃｅｔａｃｈｉｏ合同会社,,合同会社,東京都,中央区,月島３丁目４番１－９０１号,,13,102,1040052,,,,,,,2026-01-20,1,,,,,ピスタチオ,0
3752,9010003049983,新規,0,2026-01-20,2026-01-20,新教育出版合同会社,,合同会社,東京都,中央区,日本橋蛎殻町１丁目９番５号３階,,13,102,1030014,,,,,,,2026-01-20,1,,,,,シンキョウイクシュッパン,0
3753,9010003050017,新規,0,2026-01-20,2026-01-20,青葉台ＤＣ開発合同会社,,合同会社,東京都,千代田区,丸の内１丁目４番１号東京共同会計事務所内,,13,101,1000005,,,,,,,2026-01-20,1,,,,,アオバダイディーシーカイハツ,0
3754,9010003050033,新規,0,2026-01-20,2026-01-20,合同会社鳥栖田代インベストメント,,合同会社,東京都,中央区,日本橋１丁目４番１号日本橋一丁目ビルディング,,13,102,1030027,,,,,,,2026-01-20,1,,,,,トスタシロインベストメント,0
3755,9010003050082,新規,0,2026-01-20,2026-01-20,合同会社アリアドネ,,合同会社,東京都,文京区,本郷６丁目２６－１５,,13,105,1130033,,,,,,,2026-01-20,1,,,,,アリアドネ,0
3761,9010401195900,新規,0,2026-01-20,2026-01-20,株式会社ＨＩＲＯＳＨＩ,,株式会社,東京都,港区,六本木１丁目４番５－１０１号,,13,103,1060032,,,,,,,2026-01-20,1,,,,,ヒロシ,0
3764,9010403037035,新規,0,2026-01-20,2026-01-20,合同会社ＹＯＫＡ＆Ｃｏ．,,合同会社,東京都,港区,南麻布５丁目１番１１－４０２オフィス３１,,13,103,1060047,,,,,,,2026-01-20,1,,,,,ヨカアンドコー,0
3767,9010601068591,新規,0,2026-01-20,2026-01-20,ＤＯＭＩＶＫＡ株式会社,,株式会社,東京都,江東区,白河１丁目３番１号,,13,108,1350021,,,,,,,2026-01-20,1,,,,,ドミウカ,0
3769,9010703008099,新規,0,2026-01-20,2026-01-20,ｘＹＫ合同会社,,合同会社,東京都,品川区,東品川２丁目２番４号天翔オフィス天王洲ファーストタワー７１２１,,13,109,1400002,,,,,,,2026-01-20,1,,,,,エックスワイケイ,0
3771,9010801036984,新規,0,2026-01-20,2026-01-20,株式会社ＫＡＭＩＯＫＡホールディングス,,株式会社,東京都,大田区,西糀谷４丁目３１番５号,,13,111,1440034,,,,,,,2026-01-20,1,,,,,カミオカホールディングス,0
3822,9011001174848,新規,0,2026-01-20,2026-01-20,株式会社ＥＳＴＡＳ,,株式会社,東京都,渋谷区,道玄坂１丁目２０番３号ＣＯＥＲＵＳＨＩＢＵＹＡ９Ｆ,,13,113,1500043,,,,,,,2026-01-20,1,,,,,エスタス,0
3823,9011001174864,新規,0,2026-01-20,2026-01-20,しろくまカウンセリング株式会社,,株式会社,東京都,渋谷区,代々木２丁目１１－５アクティブ新宿５０２号,,13,113,1510053,,,,,,,2026-01-20,1,,,,,シロクマカウンセリング,0
3824,9011001174872,新規,0,2026-01-20,2026-01-20,Ｔｏｇｅｔｏｇｅ株式会社,,株式会社,東京都,渋谷区,円山町５番６号キングビル６階,,13,113,1500044,,,,,,,2026-01-20,1,,,,,トゲトゲ,0
3825,9011001174947,新規,0,2026-01-20,2026-01-20,ＲＩＮＤＡ株式会社,,株式会社,東京都,目黒区,中央町２丁目２５番１３号東神レジデンス３０３号室,,13,110,1520001,,,,,,,2026-01-20,1,,,,,リンダ,0
3826,9011001175020,新規,0,2026-01-20,2026-01-20,ｆｏｒｅｓｅｅ株式会社,,株式会社,東京都,目黒区,中目黒４丁目６番１－４０４号,,13,110,1530061,,,,,,,2026-01-20,1,,,,,フォーシー,0
3827,9011001175029,新規,0,2026-01-20,2026-01-20,株式会社ｒ,,株式会社,東京都,目黒区,東山２丁目５番１２－５０２号アパートメンツ東山,,13,110,1530043,,,,,,,2026-01-20,1,,,,,アール,0
3828,9011001175086,新規,0,2026-01-20,2026-01-20,株式会社やまかラボ,,株式会社,東京都,渋谷区,円山町５番３号ＭＩＥＵＸ渋谷ビル８階,,13,113,1500044,,,,,,,2026-01-20,1,,,,,ヤマカラボ,0
3842,9011101114720,新規,0,2026-01-20,2026-01-20,株式会社あなたの専務,,株式会社,東京都,新宿区,歌舞伎町２丁目２番２１号,,13,104,1600021,,,,,,,2026-01-20,1,,,,,アナタノセンム,0
3845,9011501032992,新規,0,2026-01-20,2026-01-20,株式会社ＪＷＬ　ＨＯＬＤＩＮＧＳ,,株式会社,東京都,北区,赤羽西３丁目２３番７号,,13,117,1150055,,,,,,,2026-01-20,1,,,,,ジェイダブルエルホールディングス,0
3846,9011503006838,新規,0,2026-01-20,2026-01-20,Ｂｒｉｇｈｔ　Ｃａｐｉｔａｌ　Ｊａｐａｎ合同会社,,合同会社,東京都,北区,中十条４丁目４－１６パティーナ十条２０２,,13,117,1140032,,,,,,,2026-01-20,1,,,,,ブライトキャピタルジャパン,0
3851,9011801047336,新規,0,2026-01-20,2026-01-20,株式会社ＥＬＩＯ,,株式会社,東京都,足立区,青井６丁目１２番１０号,,13,121,1210012,,,,,,,2026-01-20,1,,,,,エリオ,0
3855,9012301014677,新規,0,2026-01-20,2026-01-20,株式会社希電工,,株式会社,東京都,町田市,野津田町１４７５番地７,,13,209,1950063,,,,,,,2026-01-20,1,,,,,ノゾミデンコウ,0
3858,9012303002275,新規,0,2026-01-20,2026-01-20,ナガオカデザインオフィス合同会社,,合同会社,東京都,町田市,原町田４丁目１１－１３天野ビル４Ｆ,,13,209,1940013,,,,,,,2026-01-20,1,,,,,ナガオカデザインオフィス,0
3859,9012403007570,新規,0,2026-01-20,2026-01-20,合同会社ＬＩＮＫ,,合同会社,東京都,武蔵野市,吉祥寺本町１丁目２０番１号吉祥寺シティプラザ,,13,203,1800004,,,,,,,2026-01-20,1,,,,,リンク,0
3862,9012801024481,新規,0,2026-01-20,2026-01-20,株式会社結びエステート,,株式会社,東京都,昭島市,朝日町３丁目１４番６号,,13,207,1960025,,,,,,,2026-01-20,1,,,,,ムスビエステート,0
3883,9013301055595,新規,0,2026-01-20,2026-01-20,ＳＴＲＥＥＴ　ＫＮＯＷＬＥＤＧＥ　ＴＯＫＹＯ株式会社,,株式会社,東京都,豊島区,東池袋２丁目６２番８号ＢＩＧオフィスプラザ池袋１２０６,,13,116,1700013,,,,,,,2026-01-20,1,,,,,ストリートナレッジトウキョウ,0
3888,9020001166581,新規,0,2026-01-20,2026-01-20,ｓａｎｇｏ株式会社,,株式会社,神奈川県,横浜市西区,北幸１丁目１１番１号７階,,14,103,2200004,,,,,,,2026-01-20,1,,,,,,0
3889,9020001166739,新規,0,2026-01-20,2026-01-20,株式会社さくらホールディングス,,株式会社,神奈川県,横浜市中区,日本大通７番地合人社横浜日本大通７ビル２階,,14,104,2310021,,,,,,,2026-01-20,1,,,,,サクラホールディングス,0
3890,9020001166821,新規,0,2026-01-20,2026-01-20,ＳＰＯＲＡ　ｉｎｆｏｃｏｍ株式会社,,株式会社,神奈川県,川崎市多摩区,中野島４丁目４－１６ライオンズマンション登戸西４０１,,14,135,2140012,,,,,,,2026-01-20,1,,,,,スポラインフォコム,0
3895,9020003030166,新規,0,2026-01-20,2026-01-20,合同会社ヒトミラ,,合同会社,神奈川県,横浜市磯子区,氷取沢町２０４番地７・３棟２０８号,,14,107,2350043,,,,,,,2026-01-20,1,,,,,ヒトミラ,0
3897,9021001087256,新規,0,2026-01-20,2026-01-20,株式会社パートナーシップ湘南,,株式会社,神奈川県,藤沢市,辻堂元町５丁目１６－３０,,14,205,2510043,,,,,,,2026-01-20,1,,,,,パートナーシップショウナン,0
3900,9021003017054,新規,0,2026-01-20,2026-01-20,ＣＡＧ合同会社,,合同会社,神奈川県,藤沢市,鵠沼藤が谷４丁目１４番１５号,,14,205,2510031,,,,,,,2026-01-20,1,,,,,シーエージー,0
3905,9030001170640,新規,0,2026-01-20,2026-01-20,マスターピース株式会社,,株式会社,埼玉県,越谷市,大字大道５７３番地,,11,222,3430035,,,,,,,2026-01-20,1,,,,,マスターピース,0
3910,9040001142135,新規,0,2026-01-20,2026-01-20,株式会社弐香,,株式会社,千葉県,柏市,若柴１７８番地４柏の葉キャンパス１４８街区１パークシティ柏の葉キャンパス・ザ・ゲートタワーウェスト３階Ｖ１５９,,12,217,2770871,,,,,,,2026-01-20,1,,,,,ニコウ,0
3911,9040001142143,新規,0,2026-01-20,2026-01-20,株式会社ＭＡＲＩＮ’Ｓ　Ｖ,,株式会社,千葉県,浦安市,海楽２丁目４番２４号マトカノ・ツー３号室,,12,227,2790003,,,,,,,2026-01-20,1,,,,,マリンズファイブ,0
3912,9040003029339,新規,0,2026-01-20,2026-01-20,合同会社ゼットエープラス,,合同会社,千葉県,千葉市緑区,古市場町４７４番地３５４,,12,105,2660026,,,,,,,2026-01-20,1,,,,,ゼットエープラス,0
3918,9060003005924,新規,0,2026-01-20,2026-01-20,合同会社ＫＯＩＫＥ,,合同会社,栃木県,真岡市,上大田和９３７番地１,,09,209,3214411,,,,,,,2026-01-20,1,,,,,コイケ,0
3924,9080401028384,新規,0,2026-01-20,2026-01-20,ＳＯＬＥＳＴ　Ｓｈｉｚｕｏｋａ株式会社,,株式会社,静岡県,浜松市中央区,和田町９１９番地３,,22,138,4350016,,,,,,,2026-01-20,1,,,,,ソレストシズオカ,0
3925,9090003002968,新規,0,2026-01-20,2026-01-20,合同会社Ｆｌａｔ＆Ｃｏ．,,合同会社,山梨県,南都留郡忍野村,内野４２８番地,,19,424,4010512,,,,,,,2026-01-20,1,,,,,フラットアンドカンパニー,0
3928,9100001039283,新規,0,2026-01-20,2026-01-20,信州エレクトロン株式会社,,株式会社,長野県,茅野市,玉川３２９１－１,,20,214,3910011,,,,,,,2026-01-20,1,,,,,シンシュウエレクトロン,0
3943,9120001283466,新規,0,2026-01-20,2026-01-20,タカハシ防虫メンテナンス株式会社,,株式会社,大阪府,大阪市住吉区,杉本２丁目２４番７－２０６号,,27,120,5580022,,,,,,,2026-01-20,1,,,,,タカハシボウチュウメンテナンス,0
3944,9120001283490,新規,0,2026-01-20,2026-01-20,株式会社ＲＡＶＯＮＤ,,株式会社,大阪府,大阪市北区,梅田１丁目２番２号大阪駅前第２ビル１２－１２,,27,127,5300001,,,,,,,2026-01-20,1,,,,,ラヴォンド,0
3947,9120003031690,新規,0,2026-01-20,2026-01-20,合同会社好奇心研究所,,合同会社,大阪府,大阪市淀川区,十八条３丁目１６番３４号,,27,123,5320001,,,,,,,2026-01-20,1,,,,,コウキシンケンキュウショ,0
3948,9120003031699,新規,0,2026-01-20,2026-01-20,合同会社マジカル,,合同会社,大阪府,大阪市東淀川区,豊里２丁目９番２５号２０６,,27,114,5330013,,,,,,,2026-01-20,1,,,,,マジカル,0
3949,9120003031740,新規,0,2026-01-20,2026-01-20,合同会社松田,,合同会社,大阪府,大阪市中央区,日本橋１丁目１７－１７ピカソ日本一ビル６０４号室,,27,128,5420073,,,,,,,2026-01-20,1,,,,,マツダ,0
3956,9120105010106,新規,0,2026-01-20,2026-01-20,特定非営利活動法人Ｍｉｎｄ・Ｓｏｌｕｔｉｏｎｓ,,その他の設立登記法人,大阪府,岸和田市,行遇町１番地の２９,,27,202,5960836,,,,,,,2026-01-20,1,,,,,マインドソリューションズ,0
3960,9120901052111,新規,0,2026-01-20,2026-01-20,ポイゾナ株式会社,,株式会社,大阪府,吹田市,五月が丘南２２番１７－２号,,27,205,5650832,,,,,,,2026-01-20,1,,,,,ポイゾナ,0
3961,9120901052136,新規,0,2026-01-20,2026-01-20,株式会社Ｓｅａｑｕｅ,,株式会社,大阪府,茨木市,舟木町１０番２１号,,27,211,5670828,,,,,,,2026-01-20,1,,,,,シーク,0
3963,9122001040095,新規,0,2026-01-20,2026-01-20,株式会社Ｋ　ＩＩ,,株式会社,大阪府,柏原市,石川町６－６６,,27,221,5820029,,,,,,,2026-01-20,1,,,,,ケーツー,0
3966,9130003011097,新規,0,2026-01-20,2026-01-20,ＬＵＶＲＩＳＥ．合同会社,,合同会社,京都府,京都市下京区,西洞院通松原下る永倉町５５０－１藤和シティホームズ西洞院８０１,,26,106,6008452,,,,,,,2026-01-20,1,,,,,ラブライズ,0
3968,9140001141399,新規,0,2026-01-20,2026-01-20,アサゴ工業株式会社,,株式会社,兵庫県,養父市,薮崎１６６番地,,28,222,6670113,,,,,,,2026-01-20,1,,,,,アサゴコウギョウ,0
3972,9140003023083,新規,0,2026-01-20,2026-01-20,合同会社ライズ,,合同会社,兵庫県,加古川市,尾上町池田６３５－１７－８,,28,210,6750023,,,,,,,2026-01-20,1,,,,,ライズ,0
3973,9160001027365,新規,0,2026-01-20,2026-01-20,Ｅｐｉｌｏｇ株式会社,,株式会社,滋賀県,守山市,金森町８６９－２ＲＯＯＴＣＯＷＯＲＫＩＮＧＳＰＡＣＥ内,,25,207,5240045,,,,,,,2026-01-20,1,,,,,エピログ,0
3975,9160003003711,新規,0,2026-01-20,2026-01-20,合同会社坂本ブレース,,合同会社,滋賀県,大津市,真野６丁目１７番１９号,,25,201,5200232,,,,,,,2026-01-20,1,,,,,サカモトブレース,0
3982,9180001170312,新規,0,2026-01-20,2026-01-20,メディカルケアハート株式会社,,株式会社,愛知県,一宮市,開明字東沼１８番地１,,23,203,4940001,,,,,,,2026-01-20,1,,,,,メディカルケアハート,0
3983,9180001170353,新規,0,2026-01-20,2026-01-20,株式会社成河塗工,,株式会社,愛知県,名古屋市千種区,千種２丁目８番６号,,23,101,4640858,,,,,,,2026-01-20,1,,,,,セイガトコウ,0
3984,9180001170361,新規,0,2026-01-20,2026-01-20,Ｃ．Ｄカンパニー株式会社,,株式会社,愛知県,名古屋市西区,上名古屋３丁目２５番４号,,23,104,4510025,,,,,,,2026-01-20,1,,,,,シーディーカンパニー,0
3990,9180003029622,新規,0,2026-01-20,2026-01-20,合同会社トミワ自動車,,合同会社,愛知県,稲沢市,治郎丸中町１０８番地,,23,220,4928128,,,,,,,2026-01-20,1,,,,,トミワジドウシャ,0
4068,9200001044637,新規,0,2026-01-20,2026-01-20,株式会社玉井総合研究所,,株式会社,岐阜県,山県市,大桑５６１番地,,21,215,5012101,,,,,,,2026-01-20,1,,,,,タマイソウゴウケンキュウジョ,0
4082,9240001066074,新規,0,2026-01-20,2026-01-20,株式会社まちづくり須波,,株式会社,広島県,三原市,須波町１－２－１９,,34,204,7230031,,,,,,,2026-01-20,1,,,,,マチヅクリスナミ,0
4083,9240003007563,新規,0,2026-01-20,2026-01-20,ハルティラス合同会社,,合同会社,広島県,広島市中区,大手町１丁目１番２０号相生橋ビル７階Ａ号室,,34,101,7300051,,,,,,,2026-01-20,1,,,,,ハルティラス,0
4084,9240005016034,新規,0,2026-01-20,2026-01-20,特定非営利活動法人広島骨を守る会,,その他の設立登記法人,広島県,呉市,広多賀谷町１－５－１,,34,202,7370000,,,,,,,2026-01-20,1,,,,,ヒロシマホネヲマモルカイ,0
4091,9290001112781,新規,0,2026-01-20,2026-01-20,株式会社Ｌｉｖｏａ,,株式会社,福岡県,福岡市中央区,清川１丁目１３番１２号,,40,133,8100005,,,,,,,2026-01-20,1,,,,,リヴォア,0
4092,9290001112864,新規,0,2026-01-20,2026-01-20,株式会社ポルアベリス,,株式会社,福岡県,福岡市博多区,博多駅前３丁目４番２５号アクロスキューブ博多駅前３階,,40,132,8120011,,,,,,,2026-01-20,1,,,,,ポルアベリス,0
4096,9290003017913,新規,0,2026-01-20,2026-01-20,合同会社松本公認会計士事務所,,合同会社,福岡県,福岡市南区,長丘３丁目２２番７号,,40,134,8150075,,,,,,,2026-01-20,1,,,,,マツモトコウニンカイケイシジムショ,0
4106,9320003004882,新規,0,2026-01-20,2026-01-20,アンゴーベシヤ合同会社,,合同会社,大分県,大分市,牧３丁目９番５－２０６号,,44,201,8700924,,,,,,,2026-01-20,1,,,,,アンゴーベシヤ,0
4108,9330001033932,新規,0,2026-01-20,2026-01-20,株式会社すぐる,,株式会社,熊本県,熊本市北区,龍田１丁目１３番６１号,,43,105,8618006,,,,,,,2026-01-20,1,,,,,スグル,0
4117,9360003015570,新規,0,2026-01-20,2026-01-20,合同会社ＺＥＲＯ,,合同会社,沖縄県,糸満市,字潮平７８７－４オアシス當銘２・５０２,,47,210,9010302,,,,,,,2026-01-20,1,,,,,ゼロ,0
4157,9410003004205,新規,0,2026-01-20,2026-01-20,ＡｒｋＴｅｃｈ合同会社,,合同会社,秋田県,秋田市,土崎港南１丁目８－５８－３,,05,201,0110943,,,,,,,2026-01-20,1,,,,,アークテック,0
4160,9420003003222,新規,0,2026-01-20,2026-01-20,ＮＳリテールマネジメント合同会社,,合同会社,青森県,南津軽郡藤崎町,大字藤崎字村井２２番地４,,02,361,0383802,,,,,,,2026-01-20,1,,,,,エヌズリテールマネジメント,0
4161,9420003003230,新規,0,2026-01-20,2026-01-20,合同会社クレアマネジメント,,合同会社,青森県,青森市,大字浦町字奥野３４６番地９,,02,201,0300842,,,,,,,2026-01-20,1,,,,,クレアマネジメント,0
4164,9430001096044,新規,0,2026-01-20,2026-01-20,株式会社いまいビル,,株式会社,北海道,千歳市,みどり台北２丁目５番１５号,,01,224,0660083,,,,,,,2026-01-20,1,,,,,イマイビル,0
4165,9430001096085,新規,0,2026-01-20,2026-01-20,株式会社隆昇工業,,株式会社,北海道,千歳市,幸福２丁目５番４号,,01,224,0660082,,,,,,,2026-01-20,1,,,,,リュウショウコウギョウ,0
4166,9430003018517,新規,0,2026-01-20,2026-01-20,Ｂａｓｅ　Ｇｒｉｄ　Ｃａｒ　Ｒｅｎｔａｌ　Ｈｏｋｋａｉｄｏ合同会社,,合同会社,北海道,千歳市,福住２丁目６番１２号,,01,224,0660053,,,,,,,2026-01-20,1,,,,,ベースグリッドカーレンタルホッカイドウ,0
4168,9450001014838,新規,0,2026-01-20,2026-01-20,アイポート株式会社,,株式会社,北海道,富良野市,朝日町１番３５号,,01,229,0760026,,,,,,,2026-01-20,1,,,,,アイポート,0
4169,9460101007807,新規,0,2026-01-20,2026-01-20,株式会社さとう農場,,株式会社,北海道,河西郡更別村,字更別南一線４３番地１５,,01,639,0891542,,,,,,,2026-01-20,1,,,,,サトウノウジョウ,0
4172,9480003002375,新規,0,2026-01-20,2026-01-20,天国商事合同会社,,合同会社,徳島県,徳島市,一宮町西丁１２０番地,,36,201,7793132,,,,,,,2026-01-20,1,,,,,テンゴクショウジ,0
