sequenceNumber,corporateNumber,process,correct,updateDate,changeDate,name,nameImageId,kind,prefectureName,cityName,streetNumber,addressImageId,prefectureCode,cityCode,postCode,addressOutside,addressOutsideImageId,closeDate,closeCause,successorCorporateNumber,changeCause,assignmentDate,latest,enName,enPrefectureName,enCityName,enAddressOutside,furigana,hihyoji
10,1010001254155,新規,0,2025-04-16,2025-04-16,株式会社ペンギン村,,株式会社,東京都,中央区,日本橋室町１丁目１１番１２号日本橋水野ビル７階,,13,102,1030022,,,,,,,2025-04-16,1,,,,,ペンギンムラ,0
11,1010001254171,新規,0,2025-04-16,2025-04-16,ＭＩＬＡＢＯ株式会社,,株式会社,東京都,中央区,銀座７丁目１７番１８－４０５号,,13,102,1040061,,,,,,,2025-04-16,1,,,,,ミラボー,0
12,1010001254196,新規,0,2025-04-16,2025-04-16,株式会社Ｎｅｕｍｕｓ　Ｇｌｏｂａｌ,,株式会社,東京都,中央区,日本橋茅場町１丁目１３番１３号七宝ビルディング２Ｆ,,13,102,1030025,,,,,,,2025-04-16,1,,,,,ニューマスグローバル,0
13,1010005039916,新規,0,2025-04-16,2025-04-16,一般社団法人ＱＯＬ　Ｏｎｅ,,その他の設立登記法人,東京都,千代田区,霞が関３丁目２番５号,,13,101,1000013,,,,,,,2025-04-16,1,,,,,キューオーエルワン,0
16,1010101016637,新規,0,2025-04-16,2025-04-16,協和インターナショナル株式会社,,株式会社,東京都,八王子市,子安町３丁目６番７号サザンエイトビル２０２号室,,13,201,1920904,,,,,,,2025-04-16,1,,,,,キョウワインターナショナル,0
22,1010401189348,新規,0,2025-04-16,2025-04-16,株式会社まちトピア,,株式会社,東京都,港区,新橋２丁目１６番１号ニュー新橋ビル９０２,,13,103,1050004,,,,,,,2025-04-16,1,,,,,マチトピア,0
23,1010401189447,新規,0,2025-04-16,2025-04-16,株式会社テクシズ,,株式会社,東京都,港区,海岸３丁目２番１５－７０５号,,13,103,1080022,,,,,,,2025-04-16,1,,,,,テクシズ,0
24,1010401189496,新規,0,2025-04-16,2025-04-16,株式会社日本エネルギー機構,,株式会社,東京都,港区,南青山３丁目１番３６号青山丸竹ビル６Ｆ,,13,103,1070062,,,,,,,2025-04-16,1,,,,,ニホンエネルギーキコウ,0
25,1010401189554,新規,0,2025-04-16,2025-04-16,株式会社ナノスパイク,,株式会社,東京都,港区,港南４丁目６番２－１２０６号,,13,103,1080075,,,,,,,2025-04-16,1,,,,,,0
26,1010401189620,新規,0,2025-04-16,2025-04-16,ｈａｎｉｃａｍｕ株式会社,,株式会社,東京都,港区,北青山１丁目３－３三橋ビル３階,,13,103,1070061,,,,,,,2025-04-16,1,,,,,ハニカム,0
30,1010501053890,新規,0,2025-04-16,2025-04-16,株式会社スノーパイン,,株式会社,東京都,台東区,清川２丁目３２番６－５０４号,,13,106,1110022,,,,,,,2025-04-16,1,,,,,スノーパイン,0
31,1010501053916,新規,0,2025-04-16,2025-04-16,株式会社秋田佳産業,,株式会社,東京都,台東区,千束３丁目２６番４号,,13,106,1110031,,,,,,,2025-04-16,1,,,,,アキタカサンギョウ,0
48,1011001168948,新規,0,2025-04-16,2025-04-16,株式会社アクア,,株式会社,東京都,渋谷区,千駄ヶ谷３丁目３番１号ＴＨ１ビル６０１,,13,113,1510051,,,,,,,2025-04-16,1,,,,,アクア,0
49,1011001168964,新規,0,2025-04-16,2025-04-16,ＳＬＡＷ　Ｊａｐａｎ株式会社,,株式会社,東京都,渋谷区,神宮前６丁目２３番４号桑野ビル２階,,13,113,1500001,,,,,,,2025-04-16,1,,,,,スロージャパン,0
51,1011003021072,新規,0,2025-04-16,2025-04-16,合同会社レイズ,,合同会社,東京都,渋谷区,鶯谷町１７－１０－ビバリーホームズ代官山４０５,,13,113,1500032,,,,,,,2025-04-16,1,,,,,レイズ,0
52,1011003021304,新規,0,2025-04-16,2025-04-16,合同会社シロ助,,合同会社,東京都,渋谷区,神宮前２丁目２番３９号ザ・コート神宮外苑１１０５号室,,13,113,1500001,,,,,,,2025-04-16,1,,,,,,0
53,1011003021403,新規,0,2025-04-16,2025-04-16,ＮＯＶＥＬ　ＴＯＫＹＯ合同会社,,合同会社,東京都,渋谷区,富ヶ谷２丁目２番２０－１０１号,,13,113,1510063,,,,,,,2025-04-16,1,,,,,ノベルトウキョウ,0
54,1011003021411,新規,0,2025-04-16,2025-04-16,合同会社ＯＯＧＩプロダクション,,合同会社,東京都,目黒区,目黒３丁目４－１６目黒ロイアルハイツ２０９,,13,110,1530063,,,,,,,2025-04-16,1,,,,,オオギプロダクション,0
55,1011003021428,新規,0,2025-04-16,2025-04-16,合同会社ＲＭＫ,,合同会社,東京都,渋谷区,道玄坂１丁目１０番８号渋谷道玄坂東急ビル２Ｆ－Ｃ,,13,113,1500043,,,,,,,2025-04-16,1,,,,,アールエムケイ,0
64,1011101111353,新規,0,2025-04-16,2025-04-16,榮鵬株式会社,,株式会社,東京都,新宿区,百人町１丁目１８番８大久保カドビルＬｉｎｋＳｐａｃｅ百人町Ａ１３号室,,13,104,1690073,,,,,,,2025-04-16,1,,,,,エイホウ,0
65,1011101111361,新規,0,2025-04-16,2025-04-16,株式会社ＥＧＡＯ,,株式会社,東京都,新宿区,四谷坂町１０－１６カナリーナ市ヶ谷１０１,,13,104,1600002,,,,,,,2025-04-16,1,,,,,エガオ,0
66,1011101111469,新規,0,2025-04-16,2025-04-16,Ｖ２Ｍｉｎｄ株式会社,,株式会社,東京都,新宿区,西新宿７丁目２１－３,,13,104,1600023,,,,,,,2025-04-16,1,,,,,ブイツーマインド,0
68,1011103015767,新規,0,2025-04-16,2025-04-16,ｗｉｔｈＡＫ合同会社,,合同会社,東京都,新宿区,西新宿３丁目３－１３西新宿水間ビル２Ｆ,,13,104,1600023,,,,,,,2025-04-16,1,,,,,ウィズエーケー,0
70,1011205002688,新規,0,2025-04-16,2025-04-16,一般社団法人地球食道,,その他の設立登記法人,東京都,中野区,中野４丁目１０－２中野セントラルパークサウス２Ｆエキスパートオフィス中野ＣＰ,,13,114,1640001,,,,,,,2025-04-16,1,,,,,チキュウショクドウ,0
73,1011401027019,新規,0,2025-04-16,2025-04-16,株式会社Ｉｎｓｐｉｒｅ　Ａｆｒｉｃａ　Ｔｒａｖｅｌ,,株式会社,東京都,板橋区,向原１丁目２１番１５号シュロスにりん草１０５,,13,119,1730036,,,,,,,2025-04-16,1,,,,,インスパイアアフリカトラベル,0
85,1012703003244,新規,0,2025-04-16,2025-04-16,合同会社ＷＩＺＢＲＡＮＣＡ,,合同会社,東京都,東村山市,秋津町５丁目３２－４,,13,213,1890001,,,,,,,2025-04-16,1,,,,,ウィズブランカ,0
87,1012805003332,新規,0,2025-04-16,2025-04-16,一般社団法人Ｗｅｌｌ‐Ｂｅｉｎｇ,,その他の設立登記法人,東京都,日野市,多摩平３丁目１番地の１ＴｏｍｏｒｒｏｗＰＬＡＺＡ１階,,13,212,1910062,,,,,,,2025-04-16,1,,,,,ウェルビーイング,0
92,1013301054101,新規,0,2025-04-16,2025-04-16,株式会社ＰｌａｙＢｕｓｉｎｅｓｓ,,株式会社,東京都,豊島区,駒込４丁目１０－１６－２０５,,13,116,1700003,,,,,,,2025-04-16,1,,,,,プレイビジネス,0
98,1020001162407,新規,0,2025-04-16,2025-04-16,株式会社ＪＭＰスタッフィング,,株式会社,神奈川県,横浜市保土ケ谷区,和田２丁目６番２０－２号,,14,106,2400065,,,,,,,2025-04-16,1,,,,,ジェイエムピースタッフィング,0
105,1021001084954,新規,0,2025-04-16,2025-04-16,株式会社Ｅｎ‐Ｖｉｓｉｏｎ,,株式会社,神奈川県,藤沢市,南藤沢１７－１ＷｅｌｉｎａＳｈｏｎａｎ１Ａ,,14,205,2510055,,,,,,,2025-04-16,1,,,,,エンビジョン,0
108,1021003015866,新規,0,2025-04-16,2025-04-16,合同会社星野システム,,合同会社,神奈川県,平塚市,平塚２丁目１４－１７,,14,203,2540052,,,,,,,2025-04-16,1,,,,,ホシノシステム,0
115,1030001166010,新規,0,2025-04-16,2025-04-16,ＡＺＡＤ工業株式会社,,株式会社,埼玉県,さいたま市緑区,大字上野田７０１－２,,11,109,3360977,,,,,,,2025-04-16,1,,,,,アザドコウギョウ,0
116,1030001166019,新規,0,2025-04-16,2025-04-16,株式会社ＲＥＬＹＴ,,株式会社,埼玉県,志木市,下宗岡４丁目１１番３９号,,11,228,3530003,,,,,,,2025-04-16,1,,,,,リライト,0
117,1030001166035,新規,0,2025-04-16,2025-04-16,株式会社ＳＡＫ,,株式会社,埼玉県,川越市,東田町４－３２６,,11,201,3501114,,,,,,,2025-04-16,1,,,,,エスエーケー,0
122,1030003026476,新規,0,2025-04-16,2025-04-16,合同会社Ｌｏｃａｌ　Ｓｔｏｒｙ,,合同会社,埼玉県,さいたま市大宮区,桜木町１丁目３６６－９オープンオフィス大宮駅西口ビル２Ｆ,,11,103,3300854,,,,,,,2025-04-16,1,,,,,ローカルストーリー,0
123,1030003026575,新規,0,2025-04-16,2025-04-16,合同会社Ａ＆Ｏ,,合同会社,埼玉県,所沢市,東新井町３０３番地の１イーストハイム１０１,,11,208,3590034,,,,,,,2025-04-16,1,,,,,エーアンドオー,0
124,1030005022135,新規,0,2025-04-16,2025-04-16,ＮＰＯ法人みんなの居場所Ｕｂｉ‐Ｈｏｐｅ,,その他の設立登記法人,埼玉県,さいたま市緑区,宮本町一丁目７番地２２,,11,109,3360900,,,,,,,2025-04-16,1,,,,,ミンナノイバショウービィーホープ,0
148,1080401027864,新規,0,2025-04-16,2025-04-16,株式会社ＵＭＪ・Ｉｎｔｅｒｎａｔｉｏｎａｌ,,株式会社,静岡県,浜松市中央区,大人見町１４２１番地,,22,138,4311112,,,,,,,2025-04-16,1,,,,,ユーエムジェーインターナショナル,0
149,1090001019220,新規,0,2025-04-16,2025-04-16,株式会社Ｈｏｂｙ,,株式会社,山梨県,南アルプス市,寺部６３１番地６,,19,208,4000337,,,,,,,2025-04-16,1,,,,,ホビー,0
151,1100001038508,新規,0,2025-04-16,2025-04-16,株式会社ＷｏｒｋＢｏｏｓｔ,,株式会社,長野県,須坂市,大字仁礼３３５番地５,,20,207,3820925,,,,,,,2025-04-16,1,,,,,ワークブースト,0
152,1100003008095,新規,0,2025-04-16,2025-04-16,合同会社エリコーポレーション,,合同会社,長野県,下伊那郡高森町,下市田２９１５番地８,,20,403,3993103,,,,,,,2025-04-16,1,,,,,エリコーポレーション,0
166,1120001274472,新規,0,2025-04-16,2025-04-16,株式会社日本漢方医学研究所,,株式会社,大阪府,大阪市西成区,北津守２丁目５番２３号,,27,122,5570061,,,,,,,2025-04-16,1,,,,,ニホンカンポウイガクケンキュウショ,0
167,1120001274563,新規,0,2025-04-16,2025-04-16,ネクスベート株式会社,,株式会社,大阪府,大阪市城東区,今福西２丁目４番５－９１６号,,27,118,5360004,,,,,,,2025-04-16,1,,,,,ネクスベート,0
168,1120001274596,新規,0,2025-04-16,2025-04-16,株式会社ＫＯＹＯＭＩ,,株式会社,大阪府,大阪市天王寺区,勝山１丁目１１－１７－４０１,,27,109,5430043,,,,,,,2025-04-16,1,,,,,コヨミ,0
175,1120003029131,新規,0,2025-04-16,2025-04-16,合同会社ＳｔｕｄｉｏＰｒｅｓｙｓ,,合同会社,大阪府,大阪市北区,梅田１丁目２番２号大阪駅前第２ビル１２－１２,,27,127,5300001,,,,,,,2025-04-16,1,,,,,スタジオプレシス,0
181,1120103006402,新規,0,2025-04-16,2025-04-16,合同会社Ｇｌｏｂａｌ　ｓｔａｇｅ,,合同会社,大阪府,堺市中区,深井中町１９５２番地２－１０９号,,27,142,5998272,,,,,,,2025-04-16,1,,,,,グローバルステージ,0
182,1120105009997,新規,0,2025-04-16,2025-04-16,一般社団法人こども未来社会研究所,,その他の設立登記法人,大阪府,堺市東区,南野田３３７番地１６１,,27,143,5998124,,,,,,,2025-04-16,1,,,,,コドモミライシャカイケンキュウショ,0
186,1120905006723,新規,0,2025-04-16,2025-04-16,ふあみＨＲパートナーズ社会保険労務士法人,,その他の設立登記法人,大阪府,吹田市,高浜町９番２号中央ビル３階,,27,205,5640026,,,,,,,2025-04-16,1,,,,,フアミエイチアールパートナーズ,0
188,1122001039079,新規,0,2025-04-16,2025-04-16,株式会社未来住環境プランニング,,株式会社,大阪府,八尾市,南亀井町２丁目１番４０号,,27,212,5810054,,,,,,,2025-04-16,1,,,,,ミライジュウカンキョウプランニング,0
196,1150003003562,新規,0,2025-04-16,2025-04-16,合同会社ユリパーク,,合同会社,奈良県,生駒市,上町３５０番地５９２ホワイトガーデンＡ２０２,,29,209,6300131,,,,,,,2025-04-16,1,,,,,ユリパーク,0
202,1160005011389,新規,0,2025-04-16,2025-04-16,一般社団法人ＲＯＳＨＩＷ　ＡＲＴ　ＭＵＳＥＵＭ,,その他の設立登記法人,滋賀県,大津市,和邇北浜１０３６－１７,,25,201,5200521,,,,,,,2025-04-16,1,,,,,ロシューアートミュージアム,0
203,1170001018577,新規,0,2025-04-16,2025-04-16,株式会社源初商貿,,株式会社,和歌山県,和歌山市,三木町堀詰４１スカイハイツ三木町２０２,,30,201,6408107,,,,,,,2025-04-16,1,,,,,ゲンショショウボウ,0
204,1170003002190,新規,0,2025-04-16,2025-04-16,合同会社Ｍａｙａ　Ｐｌａｎｎｉｎｇ,,合同会社,和歌山県,紀の川市,桃山町神田７４１番地６３８,,30,208,6496123,,,,,,,2025-04-16,1,,,,,マヤプランニング,0
207,1180001166391,新規,0,2025-04-16,2025-04-16,株式会社Ｏｎｅ　ｔｒｕｓｔ,,株式会社,愛知県,名古屋市中村区,黄金通２丁目８番地パティオ名駅西２Ｂ,,23,105,4530804,,,,,,,2025-04-16,1,,,,,ワントラスト,0
212,1180005021056,新規,0,2025-04-16,2025-04-16,一般社団法人タキドキ,,その他の設立登記法人,愛知県,一宮市,大和町毛受字浜田６６番地７,,23,203,4910932,,,,,,,2025-04-16,1,,,,,タキドキ,0
213,1180301039719,新規,0,2025-04-16,2025-04-16,株式会社和海設備,,株式会社,愛知県,豊田市,曙町２丁目５８番地ＳＣＲＯＯＭ・Ｂ－０４,,23,211,4710835,,,,,,,2025-04-16,1,,,,,ナゴミセツビ,0
229,1230001020824,新規,0,2025-04-16,2025-04-16,ＮｉＸ　ＪＡＰＡＮグループ株式会社,,株式会社,富山県,富山市,奥田新町１番２３号,,16,201,9300857,,,,,,,2025-04-16,1,,,,,ニックスジャパングループ,0
230,1230001020849,新規,0,2025-04-16,2025-04-16,株式会社ＪＮＡ　ＴＲＡＤＥＲ,,株式会社,富山県,高岡市,下牧野字埋田６５番地８,,16,202,9340091,,,,,,,2025-04-16,1,,,,,ジェーエヌエートレーダー,0
244,1260001040118,新規,0,2025-04-16,2025-04-16,三基産業株式会社,,株式会社,岡山県,岡山市北区,奥田本町２３番２６号,,33,101,7000932,,,,,,,2025-04-16,1,,,,,サンキサンギョウ,0
247,1260003005135,新規,0,2025-04-16,2025-04-16,合同会社晴れの国ブルワリー,,合同会社,岡山県,和気郡和気町,福富字土肥西６３６番地４,,33,346,7090442,,,,,,,2025-04-16,1,,,,,ハレノクニブルワリー,0
252,1290001109711,新規,0,2025-04-16,2025-04-16,株式会社ＬＥＧＡＲＯ,,株式会社,福岡県,福岡市中央区,天神４丁目６－２８いちご天神ノースビル７階,,40,133,8100001,,,,,,,2025-04-16,1,,,,,レガロ,0
255,1290003016690,新規,0,2025-04-16,2025-04-16,合同会社サクセスサービス,,合同会社,福岡県,福岡市博多区,東那珂１丁目３番２７－６０１号グランパル博多,,40,132,8120892,,,,,,,2025-04-16,1,,,,,サクセスサービス,0
260,1320001021053,新規,0,2025-04-16,2025-04-16,株式会社三昧洞,,株式会社,大分県,別府市,中央町１番地６,,44,202,8740936,,,,,,,2025-04-16,1,,,,,サンマイドウ,0
262,1330001033089,新規,0,2025-04-16,2025-04-16,株式会社ＧＲＯＷ,,株式会社,熊本県,上益城郡嘉島町,大字上仲間１６９１番地３,,43,442,8613107,,,,,,,2025-04-16,1,,,,,グロー,0
263,1330001033097,新規,0,2025-04-16,2025-04-16,株式会社縁ぞう,,株式会社,熊本県,熊本市南区,砂原町４８５番地１,,43,104,8615255,,,,,,,2025-04-16,1,,,,,エンゾウ,0
270,1330005010902,新規,0,2025-04-16,2025-04-16,一般社団法人Ｒｅｐｏｓ,,その他の設立登記法人,熊本県,熊本市南区,野口２丁目６番２２－３号,,43,104,8614137,,,,,,,2025-04-16,1,,,,,レポス,0
276,1370001052481,新規,0,2025-04-16,2025-04-16,株式会社Ｑ‐Ｒｕｎ　Ｍ＆Ａ,,株式会社,宮城県,仙台市青葉区,川平３丁目１６番１４号エクセルシャトー川平１０２,,04,101,9810954,,,,,,,2025-04-16,1,,,,,キューランエムアンドエー,0
279,1380001035246,新規,0,2025-04-16,2025-04-16,株式会社信義建,,株式会社,福島県,郡山市,逢瀬町多田野字宮南７６番地の１,,07,203,9630213,,,,,,,2025-04-16,1,,,,,,0
292,1430001094195,新規,0,2025-04-16,2025-04-16,陳伯伯・Ｆｒｉｅｎｄｓ株式会社,,株式会社,北海道,札幌市中央区,南十条西９丁目１番２１号豊正マンション７号室,,01,101,0640810,,,,,,,2025-04-16,1,,,,,チンハクハクフレンズ,0
293,1430001094204,新規,0,2025-04-16,2025-04-16,株式会社ミラコスタ,,株式会社,北海道,札幌市中央区,南七条西４丁目２番地１２プラザ７・４浅井ビル５Ｆ,,01,101,0640807,,,,,,,2025-04-16,1,,,,,ミラコスタ,0
295,1430003017542,新規,0,2025-04-16,2025-04-16,合同会社ＨＩＭＡＷＡＲＩ,,合同会社,北海道,札幌市北区,北二十四条西１９丁目５番２７－２０１号,,01,102,0010024,,,,,,,2025-04-16,1,,,,,ヒマワリ,0
297,1430005015222,新規,0,2025-04-16,2025-04-16,一般社団法人まちのいりぐち,,その他の設立登記法人,北海道,樺戸郡月形町,字知来乙２,,01,430,0610516,,,,,,,2025-04-16,1,,,,,マチノイリグチ,0
298,1450003002641,新規,0,2025-04-16,2025-04-16,ＷｉｎＷｉｎ合同会社,,合同会社,北海道,旭川市,緑町１７丁目２１４８番地１９８,,01,204,0700823,,,,,,,2025-04-16,1,,,,,ウィンウィン,0
300,1470001020676,新規,0,2025-04-16,2025-04-16,ＢＳＨ海運株式会社,,株式会社,香川県,高松市,上福岡町２０５８番地２１,,37,201,7600077,,,,,,,2025-04-16,1,,,,,ビーエスエイチカイウン,0
309,1700150129963,新規,0,2025-04-16,2025-04-16,ＡＰＥＸ　ＭＯＴＯＲＳ,,外国会社等,千葉県,山武郡横芝光町,宮川１６１５番地９　オフィスＢ,,12,410,2891727,スリランカ民主社会主義共和国、サインタマルトゥ、メインストリート、Ｎｏ．２０９,,,,,,2025-04-16,1,,,,,アペツクスモータース,0
310,1700150129971,新規,0,2025-04-16,2025-04-16,Ｓｅｒｉｆ（Ｅｕｒｏｐｅ）Ｌｉｍｉｔｅｄ,,外国会社等,,,,,,,,１２　Ｗｉｌｆｏｒｄ　Ｉｎｄｕｓｔｒｉａｌ　Ｅｓｔａｔｅ，Ｎｏｔｔｉｎｇｈａｍ　ＮＧ１１　７ＥＰ，Ｕｎｉｔｅｄ　Ｋｉｎｇｄｏｍ,,,,,,2025-04-16,1,,,,,セリフヨーロツパリミテツド,0
319,2010001254187,新規,0,2025-04-16,2025-04-16,ｎｅｗ　ｂｕｉｌｄｉｎｇ　ｏｆｆｉｃｅ株式会社,,株式会社,東京都,千代田区,神田神保町１丁目８番３号吉川ビル３階,,13,101,1010051,,,,,,,2025-04-16,1,,,,,ニュービルディングオフィス,0
323,2010003046995,新規,0,2025-04-16,2025-04-16,ヴィクトリーコイン合同会社,,合同会社,東京都,中央区,銀座１丁目１２番４号Ｎ＆ＥＢＬＤ．６Ｆ,,13,102,1040061,,,,,,,2025-04-16,1,,,,,ヴィクトリーコイン,0
324,2010003047069,新規,0,2025-04-16,2025-04-16,合同会社蓄電所６号,,合同会社,東京都,中央区,日本橋茅場町３丁目４番２号ＫＤＸ茅場町ビル４Ｆ,,13,102,1030025,,,,,,,2025-04-16,1,,,,,チクデンショロクゴウ,0
325,2010003047077,新規,0,2025-04-16,2025-04-16,Ｈ＆Ｄ合同会社,,合同会社,東京都,中央区,銀座１丁目１２－４Ｎ＆Ｅ－ＢＬＤ．７階,,13,102,1040061,,,,,,,2025-04-16,1,,,,,エイチアンドディー,0
337,2010401189446,新規,0,2025-04-16,2025-04-16,英光ジャパン株式会社,,株式会社,東京都,港区,赤坂１丁目１２番３２号アーク森ビルＳＣＳ国際税理士法人内,,13,103,1070052,,,,,,,2025-04-16,1,,,,,エイコウ,0
338,2010401189628,新規,0,2025-04-16,2025-04-16,株式会社Ｃｏｓｍｏｓ　Ｏｎｅ,,株式会社,東京都,港区,南青山４丁目１７番３３号グランカーサ南青山２Ｆ,,13,103,1070062,,,,,,,2025-04-16,1,,,,,コスモスワン,0
339,2010401189660,新規,0,2025-04-16,2025-04-16,株式会社１００ｅｎｅｒｇｙ,,株式会社,東京都,港区,新橋２丁目１６番１号ニュー新橋ビル１０１２号,,13,103,1050004,,,,,,,2025-04-16,1,,,,,ワンハンドレッドエナジー,0
340,2010401189685,新規,0,2025-04-16,2025-04-16,ＣＨＯＰＰＥＤ　ＳＡＬＡＤ　ＤＡＹ株式会社,,株式会社,東京都,港区,六本木７丁目２番２９号,,13,103,1060032,,,,,,,2025-04-16,1,,,,,チョップドサラダデイ,0
342,2010403034781,新規,0,2025-04-16,2025-04-16,しぃたーちゅーぶ合同会社,,合同会社,東京都,港区,台場２丁目２－２－１９１２,,13,103,1350091,,,,,,,2025-04-16,1,,,,,シィータチューブ,0
344,2010501053907,新規,0,2025-04-16,2025-04-16,株式会社石原和幸の庭,,株式会社,東京都,台東区,浅草橋２丁目２９番１５号,,13,106,1110053,,,,,,,2025-04-16,1,,,,,イシハラカズユキノニワ,0
349,2010701047568,新規,0,2025-04-16,2025-04-16,株式会社ＤＸＡＩ,,株式会社,東京都,品川区,南大井３丁目２０番５号,,13,109,1400013,,,,,,,2025-04-16,1,,,,,ディーエックスエーアイ,0
350,2010701047576,新規,0,2025-04-16,2025-04-16,株式会社スターキャスト,,株式会社,東京都,品川区,上大崎３丁目１－３０,,13,109,1410021,,,,,,,2025-04-16,1,,,,,スターキャスト,0
354,2010801036066,新規,0,2025-04-16,2025-04-16,株式会社ｙｕｐｐａ,,株式会社,東京都,大田区,南六郷３丁目１０番１６号六郷ＢＡＳＥ,,13,111,1440045,,,,,,,2025-04-16,1,,,,,ユッパ,0
362,2011003021410,新規,0,2025-04-16,2025-04-16,わたしごと合同会社,,合同会社,東京都,目黒区,青葉台３丁目１５番１７号ＦＡＲＯ中目黒１階,,13,110,1530042,,,,,,,2025-04-16,1,,,,,ワタシゴト,0
369,2011101111336,新規,0,2025-04-16,2025-04-16,株式会社ＬｕｍｉｎｏｕｓＭｉｒａｉ,,株式会社,東京都,新宿区,西新宿３丁目３番１３号西新宿水間ビル２Ｆ,,13,104,1600023,,,,,,,2025-04-16,1,,,,,ルミナスミライ,0
370,2011101111360,新規,0,2025-04-16,2025-04-16,ユニークテック株式会社,,株式会社,東京都,新宿区,百人町２丁目１３番１３号Ｊハウス２０８,,13,104,1690073,,,,,,,2025-04-16,1,,,,,ユニークテック,0
371,2011103015725,新規,0,2025-04-16,2025-04-16,Ｅｍｌｅｓ　Ｍａｎａｇｅｍｅｎｔ　Ｇｒｏｕｐ合同会社,,合同会社,東京都,新宿区,西新宿６丁目１０番１号日土地西新宿ビル８階,,13,104,1600023,,,,,,,2025-04-16,1,,,,,エムレスマネージメントグループ,0
372,2011103015766,新規,0,2025-04-16,2025-04-16,フォーサム合同会社,,合同会社,東京都,新宿区,西新宿６丁目２１番１号,,13,104,1600023,,,,,,,2025-04-16,1,,,,,フォーサム,0
373,2011103015774,新規,0,2025-04-16,2025-04-16,合同会社ＢＵＺＺＮＥＳＴ,,合同会社,東京都,新宿区,西新宿３丁目３番１３号西新宿水間ビル６階,,13,104,1600023,,,,,,,2025-04-16,1,,,,,バズネスト,0
374,2011103015782,新規,0,2025-04-16,2025-04-16,合同会社オアシスプロパティ,,合同会社,東京都,新宿区,西新宿８丁目３番１号西新宿ＧＦビル４階,,13,104,1600023,,,,,,,2025-04-16,1,,,,,オアシスプロパティ,0
376,2011203004669,新規,0,2025-04-16,2025-04-16,合同会社ＳｈｉｆｔＬａｂ,,合同会社,東京都,中野区,中央４丁目５８番５号ＡＸＡＳ中野レジデンス８０２,,13,114,1640011,,,,,,,2025-04-16,1,,,,,シフトラボ,0
378,2011301030443,新規,0,2025-04-16,2025-04-16,株式会社ＭＯＴＯ,,株式会社,東京都,杉並区,方南１丁目６番２－２０３号,,13,115,1680062,,,,,,,2025-04-16,1,,,,,モト,0
381,2011501031943,新規,0,2025-04-16,2025-04-16,株式会社和奢堂,,株式会社,東京都,北区,西ケ原１丁目１１番４－５０５号駒込Ｋ＆Ｍビル,,13,117,1140024,,,,,,,2025-04-16,1,,,,,ワショドウ,0
384,2011801045940,新規,0,2025-04-16,2025-04-16,株式会社華菓日和,,株式会社,東京都,葛飾区,亀有３丁目２１番７号,,13,122,1250061,,,,,,,2025-04-16,1,,,,,カカビヨリ,0
387,2012303002141,新規,0,2025-04-16,2025-04-16,先進コーディング合同会社,,合同会社,東京都,町田市,南大谷３丁目２２－３１・２階,,13,209,1940031,,,,,,,2025-04-16,1,,,,,センシンコーディング,0
388,2012401042989,新規,0,2025-04-16,2025-04-16,株式会社ＷｉＷ,,株式会社,東京都,武蔵野市,吉祥寺本町２丁目３１－２８吉祥ビル３Ｆ,,13,203,1800004,,,,,,,2025-04-16,1,,,,,ウィウ,0
389,2012703003243,新規,0,2025-04-16,2025-04-16,合同会社ウオヤ電気,,合同会社,東京都,清瀬市,中里２丁目１４６２－４５,,13,221,2040003,,,,,,,2025-04-16,1,,,,,ウオヤデンキ,0
390,2012801023903,新規,0,2025-04-16,2025-04-16,株式会社Ｍ．Ｋプロダクツ,,株式会社,東京都,立川市,砂川町８丁目６２番地の９,,13,202,1900031,,,,,,,2025-04-16,1,,,,,エムケイプロダクツ,0
392,2013301054100,新規,0,2025-04-16,2025-04-16,株式会社バズウォール,,株式会社,東京都,豊島区,東池袋２丁目６２番８号ＢＩＧオフィスプラザ池袋１２０６,,13,116,1700013,,,,,,,2025-04-16,1,,,,,バズウォール,0
393,2013303007618,新規,0,2025-04-16,2025-04-16,合同会社Ｆｅｂｉｃ,,合同会社,東京都,豊島区,池袋２丁目３６－１ＩＮＦＩＮＩＴＹＩＫＥＢＵＫＵＲＯ６Ｆ,,13,116,1710014,,,,,,,2025-04-16,1,,,,,フェビック,0
394,2013305003706,新規,0,2025-04-16,2025-04-16,ＮＰＯ法人ほっぷらん,,その他の設立登記法人,東京都,豊島区,池袋３丁目３０番２１号マルモビル１階,,13,116,1710014,,,,,,,2025-04-16,1,,,,,ホップラン,0
400,2020001162249,新規,0,2025-04-16,2025-04-16,株式会社プライスマイル,,株式会社,神奈川県,横浜市港北区,新吉田東５丁目６１－３－１０２コーポラス飛鳥,,14,109,2230058,,,,,,,2025-04-16,1,,,,,プライスマイル,0
411,2030001165639,新規,0,2025-04-16,2025-04-16,森＿産業株式会社,00138803,株式会社,埼玉県,川口市,並木２丁目１５番１５－３０４号,,11,203,3320034,,,,,,,2025-04-16,1,,,,,モリエンサンギョウ,0
412,2030001166001,新規,0,2025-04-16,2025-04-16,株式会社Ｍ＆Ｌマネジメント,,株式会社,埼玉県,越谷市,レイクタウン８丁目１３番地２,,11,222,3430828,,,,,,,2025-04-16,1,,,,,エムアンドエルマネジメント,0
414,2030003026574,新規,0,2025-04-16,2025-04-16,合同会社リノベサービス,,合同会社,埼玉県,深谷市,横瀬６１３番地４,,11,218,3660009,,,,,,,2025-04-16,1,,,,,リノベサービス,0
417,2030005022134,新規,0,2025-04-16,2025-04-16,医療法人社団ｉＤ,,その他の設立登記法人,埼玉県,さいたま市大宮区,天沼町２丁目７５９番地さいたまメディカルタウン２Ｆ,,11,103,3300834,,,,,,,2025-04-16,1,,,,,アイディー,0
434,2070001042850,新規,0,2025-04-16,2025-04-16,株式会社日本技建,,株式会社,群馬県,前橋市,表町１丁目２２番３１号,,10,201,3710024,,,,,,,2025-04-16,1,,,,,,0
439,2090003002801,新規,0,2025-04-16,2025-04-16,合同会社ｆｉｋａ,,合同会社,山梨県,甲府市,下石田２丁目６番２号,,19,201,4000046,,,,,,,2025-04-16,1,,,,,フィーカ,0
456,2120001274414,新規,0,2025-04-16,2025-04-16,しるべ鍼灸ＭＧ株式会社,,株式会社,大阪府,大阪市城東区,今福西１丁目６番１４－６０１号,,27,118,5360004,,,,,,,2025-04-16,1,,,,,シルベシンキュウエムジー,0
457,2120001274463,新規,0,2025-04-16,2025-04-16,ＬＡＮＤホールディングス株式会社,,株式会社,大阪府,大阪市北区,西天満５丁目６－１０富田町パークビル４０９号,,27,127,5300047,,,,,,,2025-04-16,1,,,,,ランドホールディングス,0
458,2120001274488,新規,0,2025-04-16,2025-04-16,亜龍株式会社,,株式会社,大阪府,大阪市生野区,新今里３丁目４番１７号ＯＧビル３０３Ｂ,,27,116,5440001,,,,,,,2025-04-16,1,,,,,アリュウ,0
459,2120001274579,新規,0,2025-04-16,2025-04-16,株式会社クロスギア,,株式会社,大阪府,大阪市中央区,南船場３丁目２番２２号おおきに南船場ビル２０５,,27,128,5420081,,,,,,,2025-04-16,1,,,,,クロスギア,0
460,2120001274587,新規,0,2025-04-16,2025-04-16,株式会社ＰＨＯＲＤＩＩ　ＬＡＯ,,株式会社,大阪府,大阪市中央区,南本町３丁目３－２３,,27,128,5410054,,,,,,,2025-04-16,1,,,,,ポディーラオ,0
461,2120001274595,新規,0,2025-04-16,2025-04-16,株式会社ＫＡＩＤＯＵ,,株式会社,大阪府,大阪市北区,梅田１丁目１－３大阪駅前第３ビル２９階１－１－１号室,,27,127,5300001,,,,,,,2025-04-16,1,,,,,カイドウ,0
466,2120003029106,新規,0,2025-04-16,2025-04-16,青鳥合同会社,,合同会社,大阪府,大阪市東住吉区,矢田２丁目２０番９号ＰＡＮＳＨＯＮＣＬＥＡＲ１０８号,,27,121,5460023,,,,,,,2025-04-16,1,,,,,アオドリ,0
467,2120003029122,新規,0,2025-04-16,2025-04-16,合同会社ＴＯＰ,,合同会社,大阪府,門真市,五月田町４番２７号,,27,223,5710027,,,,,,,2025-04-16,1,,,,,トップ,0
468,2120003029130,新規,0,2025-04-16,2025-04-16,合同会社ＴＤ　Ｓｈｏｐ　Ｏｓａｋａ,,合同会社,大阪府,大阪市浪速区,幸町２丁目３番１８号共栄マンション３Ｂ,,27,111,5560021,,,,,,,2025-04-16,1,,,,,ティーディーショップオオサカ,0
474,2120103006401,新規,0,2025-04-16,2025-04-16,合同会社テクノ,,合同会社,大阪府,泉大津市,助松団地３番３５－１０１号,,27,206,5950007,,,,,,,2025-04-16,1,,,,,テクノ,0
476,2120901050716,新規,0,2025-04-16,2025-04-16,株式会社Ｗａｋａｔｅ,,株式会社,大阪府,豊中市,柴原町４丁目１１番２６号３０３,,27,203,5600055,,,,,,,2025-04-16,1,,,,,ワカテ,0
489,2140001138195,新規,0,2025-04-16,2025-04-16,Ｒｅ　Ｍｏｒｅ　Ｊａｐａｎ株式会社,,株式会社,兵庫県,神戸市西区,狩場台４丁目１９番地の１２,,28,111,6512272,,,,,,,2025-04-16,1,,,,,リモアジャパン,0
493,2150001028040,新規,0,2025-04-16,2025-04-16,株式会社Ｓｕｇｏｉ,,株式会社,奈良県,北葛城郡広陵町,馬見南１丁目６番２０号,,29,426,6350833,,,,,,,2025-04-16,1,,,,,スゴイ,0
504,2180001166382,新規,0,2025-04-16,2025-04-16,株式会社森川商会,,株式会社,愛知県,名古屋市北区,中切町１丁目３０番地の１,,23,103,4620051,,,,,,,2025-04-16,1,,,,,モリカワショウカイ,0
505,2180001166424,新規,0,2025-04-16,2025-04-16,株式会社ＴｅＢｏＫａ,,株式会社,愛知県,名古屋市千種区,千種３丁目３０番１７号プレサンスロジェ千種９０１号,,23,101,4640858,,,,,,,2025-04-16,1,,,,,テボカ,0
506,2180001166432,新規,0,2025-04-16,2025-04-16,ＣＫパートナーズ株式会社,,株式会社,愛知県,名古屋市北区,大曽根３丁目１０番７号,,23,103,4620825,,,,,,,2025-04-16,1,,,,,シーケーパートナーズ,0
515,2180005021039,新規,0,2025-04-16,2025-04-16,特定非営利活動法人おとし守り,,その他の設立登記法人,愛知県,名古屋市瑞穂区,洲山町１丁目５番地の１２,,23,108,4670066,,,,,,,2025-04-16,1,,,,,オトシモリ,0
518,2190005012037,新規,0,2025-04-16,2025-04-16,一般社団法人伊勢奉納協会,,その他の設立登記法人,三重県,伊勢市,二見町三津１０７５番地,,24,203,5190603,,,,,,,2025-04-16,1,,,,,イセホウノウキョウカイ,0
529,2230005009458,新規,0,2025-04-16,2025-04-16,一般社団法人ナレッジデザイン,,その他の設立登記法人,富山県,富山市,大町２０３番地グランドハイツ南富山４０１号,,16,201,9398073,,,,,,,2025-04-16,1,,,,,ナレッジデザイン,0
533,2240001064811,新規,0,2025-04-16,2025-04-16,株式会社ｍｕｓｅ,,株式会社,広島県,広島市安佐南区,緑井４丁目１１番２２号サーラシティ緑井２Ｆ,,34,105,7310103,,,,,,,2025-04-16,1,,,,,ミューズ,0
538,2260003005134,新規,0,2025-04-16,2025-04-16,合同会社Ｇｏ‐Ｄｏ,,合同会社,岡山県,岡山市北区,伊福町１丁目７番１２号ベンハウス伊福町２０３号室,,33,101,7000013,,,,,,,2025-04-16,1,,,,,ゴードゥー,0
540,2280005007655,新規,0,2025-04-16,2025-04-16,農事組合法人安江営農組合,,その他の設立登記法人,島根県,飯石郡飯南町,上来島４１５番地１,,32,386,6903405,,,,,,,2025-04-16,1,,,,,ヤスエエイノウクミアイ,0
552,2290003016681,新規,0,2025-04-16,2025-04-16,サティション合同会社,,合同会社,福岡県,福岡市早良区,重留２丁目１９番５－２－１０１号アニィ重留Ａ,,40,137,8111101,,,,,,,2025-04-16,1,,,,,サティション,0
553,2290801031452,新規,0,2025-04-16,2025-04-16,株式会社ソリューション・パートナーズ,,株式会社,福岡県,北九州市戸畑区,中原西１丁目９番１０号サンシャイン・サファイア・プリンセス戸畑Ａ号,,40,105,8040011,,,,,,,2025-04-16,1,,,,,ソリューションパートナーズ,0
556,2300001014149,新規,0,2025-04-16,2025-04-16,株式会社おりがみ,,株式会社,佐賀県,嬉野市,嬉野町大字不動山丙１９８７番地１,,41,209,8430305,,,,,,,2025-04-16,1,,,,,オリガミ,0
558,2320001021052,新規,0,2025-04-16,2025-04-16,株式会社千樹,,株式会社,大分県,中津市,大字東浜８２７番地１,,44,203,8710006,,,,,,,2025-04-16,1,,,,,センジュ,0
564,2340003004821,新規,0,2025-04-16,2025-04-16,合同会社ｐｉｖｏ．ａｔｅ,,合同会社,鹿児島県,姶良市,加治木町木田３８８２番地１５,,46,225,8995241,,,,,,,2025-04-16,1,,,,,ピヴォアテ,0
565,2360001035057,新規,0,2025-04-16,2025-04-16,株式会社Ｔ＆Ｋコーポレーション,,株式会社,沖縄県,宜野湾市,真志喜２丁目１５番１号１Ｆ,,47,205,9012224,,,,,,,2025-04-16,1,,,,,ティアンドケイコーポレーション,0
566,2370003007029,新規,0,2025-04-16,2025-04-16,ＫＩＢＯＴＣＨＡスマートエコビレッジＤＡＯ合同会社,,合同会社,宮城県,東松島市,野蒜字亀岡８０番地,,04,214,9810411,,,,,,,2025-04-16,1,,,,,キボッチャスマートエコビレッジダオ,0
567,2370003007045,新規,0,2025-04-16,2025-04-16,ナチュラル合同会社,,合同会社,宮城県,仙台市太白区,東中田４丁目４番１０号,,04,104,9811107,,,,,,,2025-04-16,1,,,,,ナチュラル,0
568,2380001035237,新規,0,2025-04-16,2025-04-16,株式会社ホフマン,,株式会社,福島県,相馬市,大曲字大毛内２番地の３みのるハイツＡ－２０１,,07,209,9760032,,,,,,,2025-04-16,1,,,,,ホフマン,0
577,2430001094211,新規,0,2025-04-16,2025-04-16,株式会社Ｈｅｒｉｔａｇｅ,,株式会社,北海道,岩内郡岩内町,字大和６番地２,,01,402,0450021,,,,,,,2025-04-16,1,,,,,エリタージュ,0
580,2430003017533,新規,0,2025-04-16,2025-04-16,合同会社ＰＩＡ　Ｇｏｔｉｃｏ,,合同会社,北海道,札幌市中央区,南三条西４丁目１１－３・Ｂ１Ｆ,,01,101,0600063,,,,,,,2025-04-16,1,,,,,ピアゴティコ,0
581,2430005015188,新規,0,2025-04-16,2025-04-16,特定非営利活動法人北海道みらいプロジェクト,,その他の設立登記法人,北海道,室蘭市,東町２丁目２７番４号セミナービル３階,,01,205,0500083,,,,,,,2025-04-16,1,,,,,ホッカイドウミライプロジェクト,0
582,2430005015221,新規,0,2025-04-16,2025-04-16,一般社団法人日本華僑華人スキー協会,,その他の設立登記法人,北海道,札幌市中央区,円山西町３丁目５番４５号,,01,101,0640944,,,,,,,2025-04-16,1,,,,,ニホンカキョウカジンスキーキョウカイ,0
588,2480001012812,新規,0,2025-04-16,2025-04-16,株式会社ＧＬＯＢＡＬｐｌｕｓ,,株式会社,徳島県,美馬市,美馬町字露口８４番地７,,36,207,7712103,,,,,,,2025-04-16,1,,,,,グローバルプラス,0
591,2490001011020,新規,0,2025-04-16,2025-04-16,テルース株式会社,,株式会社,高知県,四万十市,右山元町３丁目３番１３－１号,,39,210,7870011,,,,,,,2025-04-16,1,,,,,テルース,0
594,2700150129962,新規,0,2025-04-16,2025-04-16,北京瑞友科技股斌有限公司,00138750,外国会社等,東京都,台東区,駒形２丁目４番１１号ヨシクニ駒形ビル５Ｆ,,13,106,1110043,中華人民共和国北京市海淀区北清路６８号用友５＃研発中心Ａ棟,,,,,,2025-04-16,1,,,,,ペキンズイユウカギコフンユウゲンコウシ,0
595,2700150129970,新規,0,2025-04-16,2025-04-16,Ｔｏｔａｌ　Ｓｅｃｕｒｉｔｙ　Ｌｉｍｉｔｅｄ,,外国会社等,,,,,,,,１６－１８　Ｂａｒｎｅｓ　Ｗａｌｌｉｓ　Ｒｏａｄ　Ｓｅｇｅｎｓｗｏｒｔｈ，Ｆａｒｅｈａｍ，Ｈａｍｐｓｈｉｒｅ，Ｅｎｇｌａｎｄ，ＰＯ１５　５ＴＴ,,,,,,2025-04-16,1,,,,,トータルセキユリテイリミテツド,0
608,3010001253865,新規,0,2025-04-16,2025-04-16,株式会社ＢｉｚＣｏｒｅ,,株式会社,東京都,中央区,銀座１丁目１２－４Ｎ＆ＥＢＬＤ．７階,,13,102,1040061,,,,,,,2025-04-16,1,,,,,ビズコア,0
609,3010003047027,新規,0,2025-04-16,2025-04-16,ＩｎｔｅｌｌｉｇｅｎｔＣｒｏｓｓ　Ｊａｐａｎ合同会社,,合同会社,東京都,千代田区,麹町３丁目３番地４,,13,101,1020083,,,,,,,2025-04-16,1,,,,,インテリジェントクロスジャパン,0
610,3010003047068,新規,0,2025-04-16,2025-04-16,合同会社ブンブン,,合同会社,東京都,文京区,春日１丁目９番２７－４０２号,,13,105,1120003,,,,,,,2025-04-16,1,,,,,ブンブン,0
611,3010003047084,新規,0,2025-04-16,2025-04-16,ＳＬ　Ａｓｓｅｔｓ合同会社,,合同会社,東京都,千代田区,麹町２丁目２番２２号（Ｃ／ＯＪｏｏ－ｒｅａｌｅｓｔａｔｅ－ｏｆｆｉｃｅ）,,13,101,1020083,,,,,,,2025-04-16,1,,,,,エスエルアセッツ,0
622,3010401189494,新規,0,2025-04-16,2025-04-16,クールインテリジェンス株式会社,,株式会社,東京都,港区,港南２丁目１５－１品川インターシティＡ棟２８Ｆ,,13,103,1080075,,,,,,,2025-04-16,1,,,,,クールインテリジェンス,0
623,3010401189593,新規,0,2025-04-16,2025-04-16,株式会社サーフィージャパン,,株式会社,東京都,港区,芝３丁目４０－４三田シティプラザ４Ｆ,,13,103,1050014,,,,,,,2025-04-16,1,,,,,サーフィージャパン,0
624,3010401189651,新規,0,2025-04-16,2025-04-16,ＭＰＣ株式会社,,株式会社,東京都,港区,麻布台１丁目１１番７号,,13,103,1060041,,,,,,,2025-04-16,1,,,,,エムピーシー,0
630,3010501053939,新規,0,2025-04-16,2025-04-16,株式会社ＰＥＡＲＬ　ＱＵＥＥＮ　ＪＡＰＡＮ,,株式会社,東京都,台東区,上野５丁目１７番５号,,13,106,1100005,,,,,,,2025-04-16,1,,,,,パールクイーンジャパン,0
636,3010805003169,新規,0,2025-04-16,2025-04-16,一般社団法人日本ピラティスヨガフリーランス協会,,その他の設立登記法人,東京都,大田区,西馬込２丁目３番１号ＳｔａｂｉｌｅＢ号,,13,111,1430026,,,,,,,2025-04-16,1,,,,,ピラティスヨガフリーランスキョウカイ,0
637,3010901057201,新規,0,2025-04-16,2025-04-16,泰科源日本株式会社,,株式会社,東京都,世田谷区,中町２丁目１２番１３号タナカビル２０１室,,13,112,1580091,,,,,,,2025-04-16,1,,,,,タイカゲンニホン,0
644,3011001168946,新規,0,2025-04-16,2025-04-16,株式会社フリーグランス,,株式会社,東京都,渋谷区,道玄坂１丁目１０番８号渋谷道玄坂東急ビル２Ｆ－Ｃ,,13,113,1500043,,,,,,,2025-04-16,1,,,,,フリーグランス,0
645,3011001168954,新規,0,2025-04-16,2025-04-16,ＲＩＳＯＵテック株式会社,,株式会社,東京都,渋谷区,神南１丁目１１番４号ＦＰＧリンクス神南５階,,13,113,1500041,,,,,,,2025-04-16,1,,,,,リソウテック,0
646,3011001168962,新規,0,2025-04-16,2025-04-16,株式会社ＪＵＧＥＮＴ,,株式会社,東京都,渋谷区,恵比寿２丁目２７番１４－２０１号,,13,113,1500013,,,,,,,2025-04-16,1,,,,,ユーゲント,0
647,3011001169226,新規,0,2025-04-16,2025-04-16,株式会社ＪＳＡＭ,,株式会社,東京都,渋谷区,神南１丁目１１－４ＦＰＧリンクス神南５階,,13,113,1500041,,,,,,,2025-04-16,1,,,,,ジェイサム,0
649,3011003021252,新規,0,2025-04-16,2025-04-16,Ｂｒｉｇｈｔｎｅｓｓ合同会社,,合同会社,東京都,渋谷区,渋谷２丁目１９－１５宮益坂ビルディング６０９,,13,113,1500002,,,,,,,2025-04-16,1,,,,,ブライトネス,0
650,3011003021483,新規,0,2025-04-16,2025-04-16,合同会社サンテンイチヨン,,合同会社,東京都,渋谷区,円山町５番３号ＭＩＥＵＸ渋谷ビル８階,,13,113,1500044,,,,,,,2025-04-16,1,,,,,サンテンイチヨン,0
658,3011101111335,新規,0,2025-04-16,2025-04-16,株式会社アクティブネクサス,,株式会社,東京都,新宿区,西新宿３丁目３－１３西新宿水間ビル２Ｆ,,13,104,1600023,,,,,,,2025-04-16,1,,,,,アクティブネクサス,0
660,3011203004668,新規,0,2025-04-16,2025-04-16,合同会社ブラザーズ,,合同会社,東京都,中野区,中野３丁目３７番１号ワタナベビル５０１,,13,114,1640001,,,,,,,2025-04-16,1,,,,,ブラザーズ,0
662,3011303005500,新規,0,2025-04-16,2025-04-16,合同会社Ｇａｕｄｉ,,合同会社,東京都,杉並区,和泉３丁目３２番３号,,13,115,1680063,,,,,,,2025-04-16,1,,,,,ガウディ,0
667,3011501031942,新規,0,2025-04-16,2025-04-16,ＫＯＷＡ半導体株式会社,,株式会社,東京都,北区,浮間１丁目１番１４号リムジンビル１１６,,13,117,1150051,,,,,,,2025-04-16,1,,,,,コーワハンドウタイ,0
674,3012401042963,新規,0,2025-04-16,2025-04-16,株式会社Ｕｎｉｓｅｎｓｅ,,株式会社,東京都,調布市,飛田給１丁目１４番地３８,,13,208,1820036,,,,,,,2025-04-16,1,,,,,ユニセンス,0
677,3012801023902,新規,0,2025-04-16,2025-04-16,株式会社Ｙネクスト,,株式会社,東京都,立川市,柏町４丁目６０番４３号鹿田ビル２０２号室,,13,202,1900004,,,,,,,2025-04-16,1,,,,,ワイネクスト,0
688,3020003028224,新規,0,2025-04-16,2025-04-16,合同会社江藤パートナーズオフィス,,合同会社,神奈川県,川崎市麻生区,王禅寺東５丁目１４番７号,,14,137,2150018,,,,,,,2025-04-16,1,,,,,エトウパートナーズオフィス,0
692,3021001084928,新規,0,2025-04-16,2025-04-16,宝森株式会社,,株式会社,神奈川県,相模原市中央区,横山３丁目２７－１３,,14,152,2520242,,,,,,,2025-04-16,1,,,,,ホウシン,0
703,3030001165638,新規,0,2025-04-16,2025-04-16,東京本香株式会社,,株式会社,埼玉県,川口市,並木２丁目１５番１５－３１４号,,11,203,3320034,,,,,,,2025-04-16,1,,,,,トウキョウホンカ,0
704,3030001165902,新規,0,2025-04-16,2025-04-16,篠原工業株式会社,,株式会社,埼玉県,八潮市,大字八條２８１９番地７,,11,234,3400801,,,,,,,2025-04-16,1,,,,,シノハラコウギョウ,0
705,3030001165992,新規,0,2025-04-16,2025-04-16,株式会社ぷち,,株式会社,埼玉県,川口市,北原台２丁目２０番６号,,11,203,3330815,,,,,,,2025-04-16,1,,,,,プチ,0
706,3030001166000,新規,0,2025-04-16,2025-04-16,株式会社ジャジャン,,株式会社,埼玉県,入間市,東藤沢５丁目２５番２６号,,11,225,3580012,,,,,,,2025-04-16,1,,,,,ジャジャン,0
716,3030003026573,新規,0,2025-04-16,2025-04-16,合同会社Ｏｈｔｏｒｉ　Ｂｒｅｗｅｒｙ,,合同会社,埼玉県,鴻巣市,郷地３５番地１,,11,217,3650022,,,,,,,2025-04-16,1,,,,,オオトリブルワリー,0
717,3030003026581,新規,0,2025-04-16,2025-04-16,合同会社しるし,,合同会社,埼玉県,戸田市,喜沢２丁目３０番地の３,,11,224,3350013,,,,,,,2025-04-16,1,,,,,シルシ,0
731,3040003027364,新規,0,2025-04-16,2025-04-16,合同会社あけぼの電機,,合同会社,千葉県,柏市,南増尾８丁目１番５４号,,12,217,2770054,,,,,,,2025-04-16,1,,,,,アケボノデンキ,0
741,3080105006502,新規,0,2025-04-16,2025-04-16,医療法人社団幸会紀平クリニック,,その他の設立登記法人,静岡県,伊豆市,柏久保５０８番地の６,,22,222,4102407,,,,,,,2025-04-16,1,,,,,サイワイカイキノヒラクリニック,0
742,3090005007698,新規,0,2025-04-16,2025-04-16,社会福祉法人甲南福祉会,,その他の設立登記法人,山梨県,甲府市,下今井町７０７番地,,19,201,4000842,,,,,,,2025-04-16,1,,,,,コウナンフクシカイ,0
743,3100003008093,新規,0,2025-04-16,2025-04-16,シナのモノがたり合同会社,,合同会社,長野県,長野市,三輪６丁目９番１２－１０６号,,20,201,3800803,,,,,,,2025-04-16,1,,,,,シナノモノガタリ,0
754,3120001274438,新規,0,2025-04-16,2025-04-16,モビリティサービスジャパン株式会社,,株式会社,大阪府,大阪市福島区,大開１丁目１９番７号,,27,103,5530007,,,,,,,2025-04-16,1,,,,,モビリティサービスジャパン,0
755,3120001274454,新規,0,2025-04-16,2025-04-16,株式会社ＬＩＯＴ,,株式会社,大阪府,大阪市住吉区,万代６丁目４番２８号,,27,120,5580055,,,,,,,2025-04-16,1,,,,,リオット,0
756,3120001274479,新規,0,2025-04-16,2025-04-16,株式会社コンコルディア,,株式会社,大阪府,大阪市中央区,南船場３丁目６番２８号,,27,128,5420081,,,,,,,2025-04-16,1,,,,,コンコルディア,0
757,3120001274495,新規,0,2025-04-16,2025-04-16,株式会社Ｔｗｏｓｕｐｐｏｒｔ,,株式会社,大阪府,大阪市北区,天神橋３丁目６－５ベルニーニ南森町７０２号室,,27,127,5300041,,,,,,,2025-04-16,1,,,,,トゥーサポート,0
758,3120001274594,新規,0,2025-04-16,2025-04-16,錦源株式会社,,株式会社,大阪府,大阪市住之江区,西住之江１丁目８－２０カーサフェリーチェ３０３,,27,125,5590005,,,,,,,2025-04-16,1,,,,,キンゲン,0
765,3120003029121,新規,0,2025-04-16,2025-04-16,ＮＡＭ　ＨＡＮ合同会社,,合同会社,大阪府,大阪市生野区,巽西４丁目６番１４号,,27,116,5440012,,,,,,,2025-04-16,1,,,,,ナムハン,0
766,3120003029237,新規,0,2025-04-16,2025-04-16,ＮＡファシリティマネジメント合同会社,,合同会社,大阪府,大阪市北区,大深町３番１号グランフロント大阪北館ナレッジキャピタル８階コラボオフィスｎｘ５０,,27,127,5300011,,,,,,,2025-04-16,1,,,,,エヌエーファシリティマネジメント,0
768,3120101071470,新規,0,2025-04-16,2025-04-16,株式会社マーズ,,株式会社,大阪府,藤井寺市,道明寺６丁目１５番３１号,,27,226,5830012,,,,,,,2025-04-16,1,,,,,マーズ,0
776,3130003010369,新規,0,2025-04-16,2025-04-16,ＢｉｏＬａｂｓ　Ａｃａｄｅｍｙ合同会社,,合同会社,京都府,京都市左京区,吉田本町３６番地１,,26,103,6068317,,,,,,,2025-04-16,1,,,,,バイオラボスアカデミー,0
777,3130005017346,新規,0,2025-04-16,2025-04-16,一般社団法人アニュー,,その他の設立登記法人,京都府,宇治市,明星町２丁目２番地の１５,,26,204,6110014,,,,,,,2025-04-16,1,,,,,アニュー,0
785,3140001138194,新規,0,2025-04-16,2025-04-16,パディーフィールド株式会社,,株式会社,兵庫県,尼崎市,東園田町３丁目７２番地１０号,,28,202,6610953,,,,,,,2025-04-16,1,,,,,パディーフィールド,0
787,3140003021927,新規,0,2025-04-16,2025-04-16,合同会社カレラ工房,,合同会社,兵庫県,西宮市,羽衣町７番３０－３０７号,,28,204,6620051,,,,,,,2025-04-16,1,,,,,カレラコウボウ,0
792,3170003002189,新規,0,2025-04-16,2025-04-16,合同会社１３０Ｒ,,合同会社,和歌山県,和歌山市,黒田３５０－１２,,30,201,6408341,,,,,,,2025-04-16,1,,,,,ヒャクサンジュウアール,0
794,3180001166398,新規,0,2025-04-16,2025-04-16,株式会社藤光リアルエステート,,株式会社,愛知県,名古屋市中区,栄４丁目１番１号中日ビル１７階,,23,106,4600008,,,,,,,2025-04-16,1,,,,,フジコウリアルエステート,0
805,3180301039725,新規,0,2025-04-16,2025-04-16,株式会社ＫＯＵＤＡＮＳＡ,,株式会社,愛知県,田原市,小中山町八幡上１２４番地２,,23,231,4413618,,,,,,,2025-04-16,1,,,,,コウダンサ,0
806,3180305009682,新規,0,2025-04-16,2025-04-16,一般社団法人ＥＮＧＩＮＥ会,,その他の設立登記法人,愛知県,豊橋市,牟呂町字松島東１１番地１,,23,201,4418087,,,,,,,2025-04-16,1,,,,,エンジンカイ,0
811,3200005013750,新規,0,2025-04-16,2025-04-16,医療法人おのじま歯科,,その他の設立登記法人,岐阜県,岐阜市,鷺山２４７０番地２３,,21,201,5020851,,,,,,,2025-04-16,1,,,,,オノジマシカ,0
824,3240001064810,新規,0,2025-04-16,2025-04-16,株式会社技研サービス,,株式会社,広島県,広島市安佐北区,亀山３丁目２０番６５号,,34,106,7310231,,,,,,,2025-04-16,1,,,,,ギケンサービス,0
829,3260001040099,新規,0,2025-04-16,2025-04-16,株式会社ララ・プレイス,,株式会社,岡山県,岡山市北区,上中野１丁目４番１１号,,33,101,7000972,,,,,,,2025-04-16,1,,,,,ララプレイス,0
835,3290001109701,新規,0,2025-04-16,2025-04-16,株式会社ミライエージェント,,株式会社,福岡県,福岡市中央区,今泉１丁目１３－１１－２０１,,40,133,8100021,,,,,,,2025-04-16,1,,,,,ミライエージェント,0
842,3290803005024,新規,0,2025-04-16,2025-04-16,合同会社チェスト,,合同会社,福岡県,北九州市小倉北区,井堀２丁目６番２‐４０４号,,40,106,8030835,,,,,,,2025-04-16,1,,,,,チェスト,0
843,3300001014148,新規,0,2025-04-16,2025-04-16,株式会社春夏秋冬,,株式会社,佐賀県,佐賀市,大和町大字久池井１５４１番地７９,,41,201,8400202,,,,,,,2025-04-16,1,,,,,シュンカシュウトウ,0
863,3370003007044,新規,0,2025-04-16,2025-04-16,ＧＥＮＷＯＯＤ合同会社,,合同会社,宮城県,宮城郡利府町,神谷沢字館ノ内５５番地１,,04,406,9810121,,,,,,,2025-04-16,1,,,,,ゲンウッド,0
873,3420001019077,新規,0,2025-04-16,2025-04-16,株式会社ＫＩＴＡＹＡ,,株式会社,青森県,弘前市,大字泉野１丁目３番地８,,02,202,0368164,,,,,,,2025-04-16,1,,,,,キタヤ,0
878,3430001094045,新規,0,2025-04-16,2025-04-16,株式会社Ｌ＆Ｈプラス,,株式会社,北海道,札幌市中央区,南十二条西１６丁目１番４号,,01,101,0640912,,,,,,,2025-04-16,1,,,,,エルアンドエイチプラス,0
879,3430001094210,新規,0,2025-04-16,2025-04-16,株式会社ひなた,,株式会社,北海道,小樽市,桜４丁目２番１１号,,01,203,0470156,,,,,,,2025-04-16,1,,,,,ヒナタ,0
882,3430003017524,新規,0,2025-04-16,2025-04-16,合同会社ｅｎ,,合同会社,北海道,札幌市手稲区,富丘五条７丁目３番４３号,,01,109,0060015,,,,,,,2025-04-16,1,,,,,エン,0
896,3700150129961,新規,0,2025-04-16,2025-04-16,ＡＭＡＲＡＴＨＵＮＧＡ　ＥＮＴＥＲＰＲＩＳＥＳ,,外国会社等,千葉県,匝瑳市,飯塚１１２５番地２棟オフィスＥ,,12,235,2892106,スリランカ民主社会主義共和国、タラワトゥゴダ、スリカンダジョティラママワタ、２９６－１,,,,,,2025-04-16,1,,,,,アマラトウンガエンタープライズ,0
897,3700150129978,新規,0,2025-04-16,2025-04-16,昇多キ實業股斌有限公司,00138791,外国会社等,,,,,,,,新北市汐止区中興路４３之５號２Ｆ,,,,,,2025-04-16,1,,,,,シヨウタキジツギヨウコンフンユウゲンコウシ,0
908,4010001253773,新規,0,2025-04-16,2025-04-16,株式会社ホットランド東日本,,株式会社,東京都,中央区,新富１丁目９番６号,,13,102,1040041,,,,,,,2025-04-16,1,,,,,ホットランドヒガシニホン,0
909,4010001254193,新規,0,2025-04-16,2025-04-16,株式会社メドエックス,,株式会社,東京都,中央区,新川２丁目２１番１０号リードシー八丁堀ＢＩＺｃｏｍｆｏｒｔ日本橋新川,,13,102,1040033,,,,,,,2025-04-16,1,,,,,メドエックス,0
910,4010001254202,新規,0,2025-04-16,2025-04-16,株式会社グローバルメディアラボ,,株式会社,東京都,千代田区,神田佐久間町１丁目１４第２東ビル,,13,101,1010025,,,,,,,2025-04-16,1,,,,,グローバルメディアラボ,0
911,4010001254235,新規,0,2025-04-16,2025-04-16,ｍｏｎｏｌｉｔｈ　ｗｏｒｋｓ株式会社,,株式会社,東京都,千代田区,神田和泉町１番地６－１６ヤマトビル４０５,,13,101,1010024,,,,,,,2025-04-16,1,,,,,モノリスワークス,0
913,4010003046944,新規,0,2025-04-16,2025-04-16,合同会社ＡｔｏｙＺ,,合同会社,東京都,千代田区,内神田１丁目２－１５－１４０４号,,13,101,1010047,,,,,,,2025-04-16,1,,,,,アトイズ,0
915,4010101016626,新規,0,2025-04-16,2025-04-16,ＩＮＮ株式会社,,株式会社,東京都,八王子市,元横山町３丁目１０番１４号,,13,201,1920063,,,,,,,2025-04-16,1,,,,,イン,0
927,4010401189452,新規,0,2025-04-16,2025-04-16,ＡＫＫ株式会社,,株式会社,東京都,港区,赤坂４丁目１４番１４－３２１４号,,13,103,1070052,,,,,,,2025-04-16,1,,,,,エーケイケイ,0
928,4010401189691,新規,0,2025-04-16,2025-04-16,株式会社Ｖｉｓｔａ　Ｂｌｕｅ,,株式会社,東京都,港区,芝大門１丁目１０－１１芝大門センタービル１０Ｆ,,13,103,1050012,,,,,,,2025-04-16,1,,,,,ビスタブルー,0
932,4010603011496,新規,0,2025-04-16,2025-04-16,ルディアセットマネジメント合同会社,,合同会社,東京都,江東区,東雲１丁目１０番１４－５３６号,,13,108,1350062,,,,,,,2025-04-16,1,,,,,ルディアセットマネジメント,0
935,4010801036023,新規,0,2025-04-16,2025-04-16,ニューチェーンテクノロジーズ株式会社,,株式会社,東京都,大田区,北千束３丁目２０番８号,,13,111,1450062,,,,,,,2025-04-16,1,,,,,ニューチェーンテクノロジーズ,0
947,4011001168937,新規,0,2025-04-16,2025-04-16,株式会社ＭＥＬＩＵＳ,,株式会社,東京都,渋谷区,道玄坂２丁目６－１７渋東シネタワー１２階,,13,113,1500043,,,,,,,2025-04-16,1,,,,,メリウス,0
948,4011003021409,新規,0,2025-04-16,2025-04-16,ウエストワイズコンサルティング合同会社,,合同会社,東京都,渋谷区,神南１丁目１１－４　ＦＰＧリンクス神南５階,,13,113,1500041,,,,,,,2025-04-16,1,,,,,ウエストワイズコンサルティング,0
952,4011101111318,新規,0,2025-04-16,2025-04-16,株式会社ＧＬＯＢＡＬ　ＶＩＳＩＯＮ　ＪＡＰＡＮ,,株式会社,東京都,新宿区,大久保２丁目６番１６号平安ビル４Ｂ,,13,104,1690072,,,,,,,2025-04-16,1,,,,,グローバルビジョンジャパン,0
953,4011101111326,新規,0,2025-04-16,2025-04-16,株式会社エッグバリュー,,株式会社,東京都,新宿区,西新宿１丁目２５番１号新宿センタービル４９階,,13,104,1600023,,,,,,,2025-04-16,1,,,,,エッグバリュー,0
954,4011101111359,新規,0,2025-04-16,2025-04-16,株式会社ＳＰ,,株式会社,東京都,新宿区,西新宿７丁目４番５号新宿ウエストスクエアビル１Ｆ,,13,104,1600023,,,,,,,2025-04-16,1,,,,,エスピー,0
955,4011101111375,新規,0,2025-04-16,2025-04-16,株式会社ＮＩＮＥ,,株式会社,東京都,新宿区,西新宿１丁目２０－３,,13,104,1600023,,,,,,,2025-04-16,1,,,,,ナイン,0
956,4011101111400,新規,0,2025-04-16,2025-04-16,株式会社クリュール,,株式会社,東京都,新宿区,高田馬場４丁目１８－９ハイシティ高田馬場,,13,104,1690075,,,,,,,2025-04-16,1,,,,,クリュール,0
957,4011103015764,新規,0,2025-04-16,2025-04-16,合同会社ｓｅｖａｓｉｄ,,合同会社,東京都,新宿区,西新宿３丁目３番１３号西新宿水間ビル６階,,13,104,1600023,,,,,,,2025-04-16,1,,,,,セバシド,0
958,4011103015772,新規,0,2025-04-16,2025-04-16,合同会社ＥＴＥＲＮＯ,,合同会社,東京都,新宿区,高田馬場３丁目９番２号横井邸２階,,13,104,1690075,,,,,,,2025-04-16,1,,,,,エテルノ,0
977,4013303007616,新規,0,2025-04-16,2025-04-16,合同会社ＥＲＩＣ,,合同会社,東京都,豊島区,巣鴨２丁目４番４号大豊ビル４階,,13,116,1700002,,,,,,,2025-04-16,1,,,,,エリック,0
983,4021001084927,新規,0,2025-04-16,2025-04-16,株式会社ＡＩ＆ｊコーポレーション,,株式会社,神奈川県,平塚市,須賀２６５１番地の６,,14,203,2540022,,,,,,,2025-04-16,1,,,,,エーアイアンドジェーコーポレーション,0
984,4021001084968,新規,0,2025-04-16,2025-04-16,Ｏｃｅａｎ　Ｌｙｒｉｃ株式会社,,株式会社,神奈川県,三浦市,三崎町小網代１２８６番地シーボニアマリーナＤ棟６０６,,14,210,2380225,,,,,,,2025-04-16,1,,,,,オーシャンリリック,0
995,4030001165983,新規,0,2025-04-16,2025-04-16,株式会社ＴＲＧ,,株式会社,埼玉県,川口市,芝新町２－９ミナミビル２Ｆ,,11,203,3330851,,,,,,,2025-04-16,1,,,,,ティーアールジー,0
996,4030001166032,新規,0,2025-04-16,2025-04-16,株式会社ＪＡＰＡＮ　Ａｉｒｃｒａｆｔ　Ｓｅｒｖｉｃｅ,,株式会社,埼玉県,さいたま市浦和区,前地１丁目１０番１９号,,11,107,3300053,,,,,,,2025-04-16,1,,,,,ジャパンエアークラフトサービス,0
997,4030001166049,新規,0,2025-04-16,2025-04-16,株式会社ケアギフト,,株式会社,埼玉県,さいたま市浦和区,高砂４丁目１番５号ふじビル３階,,11,107,3300063,,,,,,,2025-04-16,1,,,,,ケアギフト,0
1005,4030003026548,新規,0,2025-04-16,2025-04-16,合同会社エスエユ,,合同会社,埼玉県,草加市,花栗１丁目２８－４２,,11,221,3400044,,,,,,,2025-04-16,1,,,,,エスエユ,0
1015,4040001138369,新規,0,2025-04-16,2025-04-16,株式会社銅純,,株式会社,千葉県,八千代市,上高野１２８９番地７１,,12,221,2760022,,,,,,,2025-04-16,1,,,,,ドウジュン,0
1017,4040003027306,新規,0,2025-04-16,2025-04-16,合同会社Ｗｉｚａｒｄｓ,,合同会社,千葉県,船橋市,宮本２丁目９－５長谷川ビル１０１,,12,204,2730003,,,,,,,2025-04-16,1,,,,,ウィザーズ,0
1018,4040003027363,新規,0,2025-04-16,2025-04-16,合同会社ＢＢエンターテイメント,,合同会社,千葉県,千葉市中央区,富士見１丁目１３番９号千葉センタービル７階７Ｄ,,12,101,2600015,,,,,,,2025-04-16,1,,,,,ダブルビーエンターテイメント,0
1023,4050001056504,新規,0,2025-04-16,2025-04-16,山西禾圃株式会社,,株式会社,茨城県,神栖市,若松中央１丁目２３－１０３号室,,08,232,3140256,,,,,,,2025-04-16,1,,,,,サンセイカホ,0
1024,4050001056520,新規,0,2025-04-16,2025-04-16,株式会社ＦａｎＴｓ,,株式会社,茨城県,ひたちなか市,大字中根４８１０番地２,,08,221,3120011,,,,,,,2025-04-16,1,,,,,ファントス,0
1025,4050003009187,新規,0,2025-04-16,2025-04-16,合同会社インクルーシブ,,合同会社,茨城県,日立市,十王町友部１５１６番地２,,08,202,3191304,,,,,,,2025-04-16,1,,,,,インクルーシブ,0
1026,4050003009212,新規,0,2025-04-16,2025-04-16,日立サービスオフィス合同会社,,合同会社,茨城県,日立市,東町１丁目２４番６号,,08,202,3170061,,,,,,,2025-04-16,1,,,,,ヒタチサービスオフィス,0
1030,4080001026883,新規,0,2025-04-16,2025-04-16,株式会社ＲＡＹＺＮ,,株式会社,静岡県,静岡市駿河区,西脇９５９－１オーマ西脇１０１,,22,102,4228044,,,,,,,2025-04-16,1,,,,,レイザン,0
1034,4080101025430,新規,0,2025-04-16,2025-04-16,株式会社ＢａｙＬｅａｆ,,株式会社,静岡県,駿東郡長泉町,竹原３８４番地の２,,22,342,4110944,,,,,,,2025-04-16,1,,,,,ベイリーフ,0
1043,4100001038521,新規,0,2025-04-16,2025-04-16,株式会社ＫＯＭＡＴＳＵ,,株式会社,長野県,埴科郡坂城町,大字上平１３３５番地１４,,20,521,3890605,,,,,,,2025-04-16,1,,,,,コマツ,0
1045,4110001039196,新規,0,2025-04-16,2025-04-16,みみずく株式会社,,株式会社,新潟県,妙高市,大字二俣１５２６番地４１８,,15,217,9492101,,,,,,,2025-04-16,1,,,,,ミミズク,0
1047,4110003005733,新規,0,2025-04-16,2025-04-16,合同会社プレシャス,,合同会社,新潟県,新発田市,上中山甲８８４番地,,15,206,9570046,,,,,,,2025-04-16,1,,,,,プレシャス,0
1058,4120001274338,新規,0,2025-04-16,2025-04-16,株式会社みらい,,株式会社,大阪府,大阪市東住吉区,矢田３丁目１５－１１,,27,121,5460023,,,,,,,2025-04-16,1,,,,,ミライ,0
1059,4120001274486,新規,0,2025-04-16,2025-04-16,株式会社ＢＬＩＳＳ　ＣＡＰＩＴＡＬ,,株式会社,大阪府,大阪市北区,野崎町１－３０－２３階,,27,127,5300055,,,,,,,2025-04-16,1,,,,,ブリスキャピタル,0
1060,4120001274494,新規,0,2025-04-16,2025-04-16,株式会社Ｓｈｅｎｔｅ,,株式会社,大阪府,大阪市北区,西天満３丁目１－５英和ビル１００２,,27,127,5300047,,,,,,,2025-04-16,1,,,,,シェンテ,0
1061,4120001274569,新規,0,2025-04-16,2025-04-16,株式会社Ｆａｒｏ,,株式会社,大阪府,大阪市西区,九条１丁目６番２６号丸栄マンション九条３０１,,27,106,5500027,,,,,,,2025-04-16,1,,,,,ファロ,0
1063,4120003029079,新規,0,2025-04-16,2025-04-16,合同会社豊源通商,,合同会社,大阪府,大阪市住之江区,浜口東２丁目７－１０－Ａ,,27,125,5590002,,,,,,,2025-04-16,1,,,,,ホウゲンツウショウ,0
1064,4120003029112,新規,0,2025-04-16,2025-04-16,合同会社Ｒ＆Ｒ総研,,合同会社,大阪府,大阪市中央区,内本町２丁目２番１４号,,27,128,5400026,,,,,,,2025-04-16,1,,,,,アールアンドアールソウケン,0
1065,4120003029129,新規,0,2025-04-16,2025-04-16,合同会社聖,,合同会社,大阪府,大阪市生野区,巽南５丁目１番３３号インフィルドＩＩＩ９０２,00138805,27,116,5440015,,,,,,,2025-04-16,1,,,,,ヒジリ,0
1096,4140001138185,新規,0,2025-04-16,2025-04-16,子俊株式会社,,株式会社,兵庫県,神戸市灘区,中原通５丁目３番１０－３０２号,,28,102,6570825,,,,,,,2025-04-16,1,,,,,シシュン,0
1097,4140001138193,新規,0,2025-04-16,2025-04-16,株式会社朝日メディア,,株式会社,兵庫県,神戸市中央区,栄町通２丁目１０－４西阪ビル,,28,110,6500023,,,,,,,2025-04-16,1,,,,,アサヒメディア,0
1102,4140005027467,新規,0,2025-04-16,2025-04-16,医療法人社団Ｗｅｌｌ‐ｂｅｉｎｇ黒瀬歯科クリニック,,その他の設立登記法人,兵庫県,三田市,駅前町２番１号キッピーモール５Ｆ,,28,219,6691528,,,,,,,2025-04-16,1,,,,,ウェルビーイングクロセシカクリニック,0
1103,4150001027899,新規,0,2025-04-16,2025-04-16,Ｆｕｗａｒｉ株式会社,,株式会社,奈良県,奈良市,三条町４７５番地松田ビル２ＦＹＡＭＡＴＯＢＡＳＥ,,29,201,6308244,,,,,,,2025-04-16,1,,,,,フワリ,0
1104,4160003003451,新規,0,2025-04-16,2025-04-16,合同会社ｃｏｎｎｅｃｔ,,合同会社,滋賀県,守山市,荒見町３３１番地６,,25,207,5240016,,,,,,,2025-04-16,1,,,,,コネクト,0
1113,4180301039724,新規,0,2025-04-16,2025-04-16,株式会社ｅｓｃ,,株式会社,愛知県,豊田市,金谷町１丁目９２番地４,,23,211,4710876,,,,,,,2025-04-16,1,,,,,イーエスシー,0
1117,4210001020138,新規,0,2025-04-16,2025-04-16,株式会社ＭＫＳ,,株式会社,福井県,福井市,成和１丁目１７２１番地,,18,201,9188239,,,,,,,2025-04-16,1,,,,,エムケーエス,0
1119,4220003004006,新規,0,2025-04-16,2025-04-16,合同会社ＡＫ,,合同会社,石川県,金沢市,諸江町下丁３３０番地１（ファミリーハイツ２１Ａ・２０２号）,,17,201,9200017,,,,,,,2025-04-16,1,,,,,エーケー,0
1126,4260001040115,新規,0,2025-04-16,2025-04-16,株式会社ｓｔｅｒｅｏ　ｎｏｔｅ,,株式会社,岡山県,岡山市北区,富田町１丁目６番１４号江本ビル２Ｆ,,33,101,7000816,,,,,,,2025-04-16,1,,,,,ステレオノート,0
1128,4260003005140,新規,0,2025-04-16,2025-04-16,俊輝合同会社,,合同会社,岡山県,岡山市北区,南方４丁目１１番３０号２０１号室,,33,101,7000807,,,,,,,2025-04-16,1,,,,,シュンキ,0
1133,4290001109683,新規,0,2025-04-16,2025-04-16,株式会社Ｐｏｉｎｔ　ｏｆ　ｈｉｌｌｓ,,株式会社,福岡県,福岡市中央区,天神２丁目３番１０号天神パインクレスト７１９号,,40,133,8100001,,,,,,,2025-04-16,1,,,,,ポイントオブヒルズ,0
1134,4290001109691,新規,0,2025-04-16,2025-04-16,株式会社エイリツ,,株式会社,福岡県,福岡市早良区,四箇６丁目１１番３９号,,40,137,8111103,,,,,,,2025-04-16,1,,,,,エイリツ,0
1135,4290001109709,新規,0,2025-04-16,2025-04-16,株式会社Ｌｕｍｉｎｉｑｕｅ,,株式会社,福岡県,福岡市中央区,天神４丁目６－２８天神ファーストビル７階,,40,133,8100001,,,,,,,2025-04-16,1,,,,,ルミニーク,0
1143,4290003016696,新規,0,2025-04-16,2025-04-16,ＬＡＮ　ＡＮＨ合同会社,,合同会社,福岡県,福岡市東区,箱崎２丁目１３番３号黒瀬ハイツ３０１号,,40,131,8120053,,,,,,,2025-04-16,1,,,,,,0
1151,4300005007238,新規,0,2025-04-16,2025-04-16,医療法人ＫＯＧＡ,,その他の設立登記法人,佐賀県,佐賀市,水ヶ江１丁目３番１３ー２号,,41,201,8400054,,,,,,,2025-04-16,1,,,,,コガ,0
1159,4340001027269,新規,0,2025-04-16,2025-04-16,株式会社ピースメイク,,株式会社,鹿児島県,鹿児島市,錦江台３丁目１０－１２,,46,201,8910145,,,,,,,2025-04-16,1,,,,,ピースメイク,0
1169,4380001035243,新規,0,2025-04-16,2025-04-16,株式会社エムケーテクノロジー,,株式会社,福島県,石川郡石川町,字当町５９番地の４,,07,501,9637857,,,,,,,2025-04-16,1,,,,,エムケーテクノロジー,0
1171,4400003003435,新規,0,2025-04-16,2025-04-16,白矢産業合同会社,,合同会社,岩手県,一関市,千厩町千厩字前田９０番地１３,,03,209,0290803,,,,,,,2025-04-16,1,,,,,シラヤサンギョウ,0
1176,4420001019092,新規,0,2025-04-16,2025-04-16,株式会社ｅＮ,,株式会社,青森県,八戸市,湊高台５丁目１３番１１号,,02,203,0310823,,,,,,,2025-04-16,1,,,,,エン,0
1183,4450001014594,新規,0,2025-04-16,2025-04-16,株式会社杉野農園,,株式会社,北海道,名寄市,風連町字旭１４７６番地,,01,221,0980514,,,,,,,2025-04-16,1,,,,,スギノノウエン,0
1189,4700150129960,新規,0,2025-04-16,2025-04-16,Ｈｅｍａｎｔｈａ　Ｍｏｔｏｒｓ,,外国会社等,千葉県,大網白里市,大網９１番地５（１０２）,,12,239,2993251,スリランカ民主社会主義共和国、ネゴンボ、ドゥワ、ネレッラワッタ、Ｎｏ．４／Ａ,,,,,,2025-04-16,1,,,,,ヘマンタモータース,0
1190,4700150129969,新規,0,2025-04-16,2025-04-16,昇志有限公司,,外国会社等,,,,,,,,香港特別行政区カウルン、カウルン・ベイ　８、ワン・ホイロード、シュヴリア、コマーシャルセンター７Ｆ、ルーム７１２,,,,,,2025-04-16,1,,,,,シヨウシユウゲンコウシ,0
1191,4700150129977,新規,0,2025-04-16,2025-04-16,Ｒｉｓｅ　Ｗｉｎ　Ｄｅｖｅｌｏｐｍｅｎｔ　Ｌｉｍｉｔｅｄ,,外国会社等,,,,,,,,ＰｏｒｔｃｕｌｌｉｓＣｈａｍｂｅｒｓ，ＰＯ．Ｂｏｘ１２２５，Ａｐｉａ，Ｓａｍｏａ,,,,,,2025-04-16,1,,,,,ライズウインデベロツプメントリミテツド,0
1195,5010001254242,新規,0,2025-04-16,2025-04-16,株式会社ＤＡｃｒｅａｔｉｏｎ,,株式会社,東京都,千代田区,神田和泉町１番地６－１６ヤマトビル４０５,,13,101,1010024,,,,,,,2025-04-16,1,,,,,ディーエークリエーション,0
1207,5010005039870,新規,0,2025-04-16,2025-04-16,一般社団法人ＳｕｓＰｌａ,,その他の設立登記法人,東京都,千代田区,内神田１丁目１４番８号,,13,101,1010047,,,,,,,2025-04-16,1,,,,,サスプラ,0
1208,5010101016625,新規,0,2025-04-16,2025-04-16,奥株式会社,,株式会社,東京都,八王子市,元横山町３丁目１０番１４号,,13,201,1920063,,,,,,,2025-04-16,1,,,,,オク,0
1210,5010103002557,新規,0,2025-04-16,2025-04-16,合同会社リアン,,合同会社,東京都,八王子市,小比企町１９２２番地２０,,13,201,1930934,,,,,,,2025-04-16,1,,,,,リアン,0
1217,5010403034779,新規,0,2025-04-16,2025-04-16,しぃたーちゅーぶアカデミア合同会社,,合同会社,東京都,港区,台場２丁目２－２－１９１２,,13,103,1350091,,,,,,,2025-04-16,1,,,,,シィーターチューブアカデミア,0
1218,5010403034795,新規,0,2025-04-16,2025-04-16,合同会社ＬＬＣ,,合同会社,東京都,港区,三田４丁目１２番１８号パークナード三田聖坂２０３,,13,103,1080073,,,,,,,2025-04-16,1,,,,,エルエルシー,0
1219,5010403034853,新規,0,2025-04-16,2025-04-16,合同会社ナノブレード,,合同会社,東京都,港区,新橋４丁目１４番１新橋ＡＵＮＢＬＤＧ４階,,13,103,1050004,,,,,,,2025-04-16,1,,,,,ナノブレード,0
1224,5010501053937,新規,0,2025-04-16,2025-04-16,株式会社ブリス,,株式会社,東京都,台東区,蔵前３丁目２１番１－１００３号,,13,106,1110051,,,,,,,2025-04-16,1,,,,,ブリス,0
1243,5011101111374,新規,0,2025-04-16,2025-04-16,秋田国際グループ株式会社,,株式会社,東京都,新宿区,高田馬場４丁目１８番９－２０１号,,13,104,1690075,,,,,,,2025-04-16,1,,,,,アキタコクサイグループ,0
1244,5011101111399,新規,0,2025-04-16,2025-04-16,株式会社ナレッジベース,,株式会社,東京都,新宿区,上落合３丁目１０番２２号アール上落合３０１,,13,104,1610034,,,,,,,2025-04-16,1,,,,,ナレッジベース,0
1245,5011103015763,新規,0,2025-04-16,2025-04-16,合同会社ｃｏｍｍｉｔ,,合同会社,東京都,新宿区,新宿５丁目１８番２０号ルックハイツ新宿８０３号室,,13,104,1600022,,,,,,,2025-04-16,1,,,,,コミット,0
1249,5011301030498,新規,0,2025-04-16,2025-04-16,ＴＭＴホールディングス株式会社,,株式会社,東京都,杉並区,高井戸東３丁目１番２０号,,13,115,1680072,,,,,,,2025-04-16,1,,,,,ティーエムティーホールディングス,0
1251,5011501031899,新規,0,2025-04-16,2025-04-16,ＴＯＰ　ＳＵＮＳＨＩＮＥ株式会社,,株式会社,東京都,荒川区,東尾久６丁目１２番３０号,,13,118,1160012,,,,,,,2025-04-16,1,,,,,トップサンシャイン,0
1252,5011701028266,新規,0,2025-04-16,2025-04-16,株式会社ＡＮＳＡＲＩ　ＩＮＴＥＲＮＡＴＩＯＮＡＬ,,株式会社,東京都,江戸川区,平井１丁目１－３ｌｉｏｎｓｍａｎｓｉｏｎ４０５,,13,123,1320035,,,,,,,2025-04-16,1,,,,,アンサリーインターナショナル,0
1259,5012401042945,新規,0,2025-04-16,2025-04-16,株式会社ジーエス桜川,,株式会社,東京都,多摩市,落合１丁目１０番地の１京王多摩センターＳＣ２階ＫＥＩＯＢＩＺＰＬＡＺＡ多摩センター内１６番,,13,224,2060033,,,,,,,2025-04-16,1,,,,,ジーエスサクラガワ,0
1271,5013301054089,新規,0,2025-04-16,2025-04-16,和勝株式会社,,株式会社,東京都,豊島区,駒込１丁目３５番６－５０２号,,13,116,1700003,,,,,,,2025-04-16,1,,,,,ワショウ,0
1276,5020001162386,新規,0,2025-04-16,2025-04-16,Ｓｙｎｏｍｅ株式会社,,株式会社,神奈川県,横浜市中区,扇町１丁目１ー２５キンガビル,,14,104,2310027,,,,,,,2025-04-16,1,,,,,シノム,0
1281,5020005016803,新規,0,2025-04-16,2025-04-16,一般社団法人アクアポニックス推進協会,,その他の設立登記法人,神奈川県,横浜市中区,相生町３丁目６１泰生ビル２Ｆ,,14,104,2310012,,,,,,,2025-04-16,1,,,,,アクアポニックススイシンキョウカイ,0
1292,5030001165735,新規,0,2025-04-16,2025-04-16,株式会社ショーモン・ホールディングス,,株式会社,埼玉県,さいたま市浦和区,仲町１丁目４番１０－１２０３号,,11,107,3300062,,,,,,,2025-04-16,1,,,,,ショーモンホールディングス,0
1293,5030001165925,新規,0,2025-04-16,2025-04-16,株式会社暁光商事,,株式会社,埼玉県,川口市,西青木１丁目１２番３－１０５号,,11,203,3320035,,,,,,,2025-04-16,1,,,,,ギョウコウショウジ,0
1299,5030003026373,新規,0,2025-04-16,2025-04-16,合同会社すこやか,,合同会社,埼玉県,新座市,野火止１丁目１６番３－８０４号,,11,230,3520011,,,,,,,2025-04-16,1,,,,,スコヤカ,0
1308,5040001138293,新規,0,2025-04-16,2025-04-16,Ｋｅｉ　Ｉｎｄｕｓｔｒｙ．ＣＯ．ＬＴＤ株式会社,,株式会社,千葉県,市原市,飯沼６２２番地２６,,12,219,2900037,,,,,,,2025-04-16,1,,,,,ケーイーアイインダストリー,0
1315,5050001056486,新規,0,2025-04-16,2025-04-16,株式会社ＣａｓｔＦｉｒｓｔ,,株式会社,茨城県,結城市,大字結城１１３７９番地１４,,08,207,3070001,,,,,,,2025-04-16,1,,,,,キャストファースト,0
1316,5060001038095,新規,0,2025-04-16,2025-04-16,株式会社ナゴンスタイル,,株式会社,栃木県,宇都宮市,簗瀬町１９３５番地２,,09,201,3210933,,,,,,,2025-04-16,1,,,,,ナゴンスタイル,0
1323,5080001026882,新規,0,2025-04-16,2025-04-16,瀬本組株式会社,,株式会社,静岡県,静岡市葵区,有永町１４－２３,,22,101,4200969,,,,,,,2025-04-16,1,,,,,セモトグミ,0
1325,5080401027860,新規,0,2025-04-16,2025-04-16,株式会社ＲｅＬｉｆｅ,,株式会社,静岡県,磐田市,見付１７６４番地３,,22,211,4380086,,,,,,,2025-04-16,1,,,,,リライフ,0
1328,5100001038520,新規,0,2025-04-16,2025-04-16,株式会社ｂｅ　ｆａｔｅ,,株式会社,長野県,長野市,大字赤沼２０１９番地,,20,201,3810001,,,,,,,2025-04-16,1,,,,,ビーフェイト,0
1330,5110003005732,新規,0,2025-04-16,2025-04-16,合同会社ＭＳ０１,,合同会社,新潟県,燕市,灰方３０６番地２７,,15,213,9591201,,,,,,,2025-04-16,1,,,,,エムエスゼロワン,0
1338,5120001274568,新規,0,2025-04-16,2025-04-16,株式会社テクイット,,株式会社,大阪府,大阪市北区,梅田１丁目２番２号大阪駅前第２ビル１２－１２,,27,127,5300001,,,,,,,2025-04-16,1,,,,,テクイット,0
1339,5120001274584,新規,0,2025-04-16,2025-04-16,株式会社Ｔｕｔｔｏ　ｅ　Ｉｔａｌｉａ,,株式会社,大阪府,大阪市北区,梅田１丁目２番２号大阪駅前第２ビル１２－１２,,27,127,5300001,,,,,,,2025-04-16,1,,,,,トゥットエイタリア,0
1340,5120003029128,新規,0,2025-04-16,2025-04-16,合同会社Ｒｏｓｅ　Ｍｅｍｏｒｙ’ｓ,,合同会社,大阪府,大阪市中央区,南船場１丁目１７番１６号大一フロント１０１号,,27,128,5420081,,,,,,,2025-04-16,1,,,,,ローズメモリーズ,0
1341,5120005024894,新規,0,2025-04-16,2025-04-16,一般社団法人日本子育てＮＰＯ支援協会,,その他の設立登記法人,大阪府,大阪市東淀川区,下新庄４丁目７番４号ルネ北公園１０５号,,27,114,5330021,,,,,,,2025-04-16,1,,,,,ニホンコソダテエヌピーオーシエンキョウカイ,0
1343,5120101071477,新規,0,2025-04-16,2025-04-16,株式会社エフティーケーサービス,,株式会社,大阪府,堺市中区,深井畑山町１１０番地４,,27,142,5998248,,,,,,,2025-04-16,1,,,,,エフティーケーサービス,0
1345,5120901050663,新規,0,2025-04-16,2025-04-16,株式会社Ｔｏｒａｎｉｔｙ,,株式会社,大阪府,豊中市,長興寺南３丁目４番８号,,27,203,5610874,,,,,,,2025-04-16,1,,,,,トラニティ,0
1346,5120903005608,新規,0,2025-04-16,2025-04-16,ＮＯＵＳ合同会社,,合同会社,大阪府,豊中市,清風荘１丁目５番５－３０２号,,27,203,5600041,,,,,,,2025-04-16,1,,,,,ヌース,0
1348,5122005003820,新規,0,2025-04-16,2025-04-16,ＨＡＰＰＹ協同組合,,その他の設立登記法人,大阪府,八尾市,南本町７丁目６番６号,,27,212,5810081,,,,,,,2025-04-16,1,,,,,ハッピー,0
1352,5130001079438,新規,0,2025-04-16,2025-04-16,Ｊａｐａｎ　Ｔｏｇｅｔｈｅｒ株式会社,,株式会社,京都府,京都市下京区,玉津島町２９６番地,,26,106,6008427,,,,,,,2025-04-16,1,,,,,ジャパントゥギャザー,0
1353,5130001079446,新規,0,2025-04-16,2025-04-16,株式会社ＳｙＧｒｏｗ,,株式会社,京都府,京都市左京区,松ケ崎小脇町１６－３グラシオビルＢ１階,,26,103,6060957,,,,,,,2025-04-16,1,,,,,サイグロー,0
1356,5130003010383,新規,0,2025-04-16,2025-04-16,合同会社ハプレイ,,合同会社,京都府,京都市下京区,中堂寺坊城町１７－２第３７長栄クレメント五条５０６,,26,106,6008811,,,,,,,2025-04-16,1,,,,,ハプレイ,0
1357,5140001138044,新規,0,2025-04-16,2025-04-16,株式会社サラン,,株式会社,兵庫県,神戸市兵庫区,新開地１丁目２番１１号２Ｆ,,28,105,6520811,,,,,,,2025-04-16,1,,,,,サラン,0
1358,5140001138151,新規,0,2025-04-16,2025-04-16,未来製作株式会社,,株式会社,兵庫県,姫路市,書写２２１６番地４,,28,201,6712201,,,,,,,2025-04-16,1,,,,,ミライセイサク,0
1359,5140001138192,新規,0,2025-04-16,2025-04-16,株式会社ＣＡＲＩＮＡ,,株式会社,兵庫県,西宮市,甲陽園本庄町６－２５日商岩井甲陽園マンション１１８,,28,204,6620015,,,,,,,2025-04-16,1,,,,,カリーナ,0
1367,5170001018581,新規,0,2025-04-16,2025-04-16,株式会社かがや,,株式会社,和歌山県,和歌山市,紀三井寺１番地５９,,30,201,6410012,,,,,,,2025-04-16,1,,,,,カガヤ,0
1387,5260003005131,新規,0,2025-04-16,2025-04-16,鳳凰万椿合同会社,,合同会社,岡山県,勝田郡奈義町,中島東１２５７番地１１,,33,623,7081313,,,,,,,2025-04-16,1,,,,,ホウオウマンツバキ,0
1405,5340001027268,新規,0,2025-04-16,2025-04-16,株式会社煌めき不動産,,株式会社,鹿児島県,鹿児島市,谷山中央７丁目５６番３号,,46,201,8910141,,,,,,,2025-04-16,1,,,,,キラメキフドウサン,0
1420,5380003006019,新規,0,2025-04-16,2025-04-16,合同会社キノトミ映像制作所,,合同会社,福島県,相馬市,西山字表西山９７番地１,,07,209,9760041,,,,,,,2025-04-16,1,,,,,キノトミエイゾウセイサクジョ,0
1424,5390001017958,新規,0,2025-04-16,2025-04-16,株式会社ＴＡＤＤＬＥ,,株式会社,山形県,山形市,みはらしの丘１丁目１６番地１１,,06,201,9902317,,,,,,,2025-04-16,1,,,,,,0
1435,5430001094217,新規,0,2025-04-16,2025-04-16,株式会社ＲｉｓｅＬ,,株式会社,北海道,札幌市手稲区,星置二条３丁目６番１９号,,01,109,0060852,,,,,,,2025-04-16,1,,,,,リゼル,0
1436,5430001094225,新規,0,2025-04-16,2025-04-16,丸徳花信株式会社,,株式会社,北海道,札幌市西区,発寒五条８丁目１０番７－１５０２号,,01,107,0630825,,,,,,,2025-04-16,1,,,,,マルトクハナシン,0
1437,5430003017539,新規,0,2025-04-16,2025-04-16,合同会社札幌ウェルネスサービス,,合同会社,北海道,札幌市白石区,菊水上町三条１丁目４７番１３号菊水上町アパート２０３号室,,01,104,0030813,,,,,,,2025-04-16,1,,,,,サッポロウェルネスサービス,0
1439,5430005015210,新規,0,2025-04-16,2025-04-16,一般社団法人キクトコ,,その他の設立登記法人,北海道,札幌市北区,北六条西６丁目２番地,,01,102,0600806,,,,,,,2025-04-16,1,,,,,キクトコ,0
1449,5470003002867,新規,0,2025-04-16,2025-04-16,ＣｏＷｏｒｋｓ合同会社,,合同会社,香川県,さぬき市,造田是弘９９８番地１５,,37,206,7692312,,,,,,,2025-04-16,1,,,,,,0
1457,5500003003473,新規,0,2025-04-16,2025-04-16,合同会社藤田興産,,合同会社,愛媛県,四国中央市,土居町入野７番地,,38,213,7990712,,,,,,,2025-04-16,1,,,,,フジタコウサン,0
1458,5700150129968,新規,0,2025-04-16,2025-04-16,ＦＵＮＦＬＹ　ＰＴＥ．ＬＴＤ．,,外国会社等,,,,,,,,６００　ＮＯＲＴＨ　ＢＲＩＤＧＥ　ＲＯＡＤ＃０４－０１，ＰＡＲＫＶＩＥＷ　ＳＱＵＡＲＥ　Ｓｉｎｇａｐｏｒｅ，１８８７７８，Ｓｉｎｇａｐｏｒｅ,,,,,,2025-04-16,1,,,,,フアンフライピーテイーイーリミテツド,0
1459,5700150129976,新規,0,2025-04-16,2025-04-16,ＳＫ　Ｓｑｕａｒｅ　ＣＯ．，Ｌｔｄ．,,外国会社等,,,,,,,,ＳＫ　Ｔ－Ｔｏｗｅｒ，６５，Ｅｕｌｊｉ－ｒｏ，Ｊｕｎｇ－ｇｕ，Ｓｅｏｕｌ,,,,,,2025-04-16,1,,,,,エスケイスクエア,0
1465,6010001253771,新規,0,2025-04-16,2025-04-16,株式会社ホットランドフーズ,,株式会社,東京都,中央区,新富１丁目９番６号,,13,102,1040041,,,,,,,2025-04-16,1,,,,,ホットランドフーズ,0
1466,6010001254051,新規,0,2025-04-16,2025-04-16,Ｓｙｎｃ　Ｓｔａｒ株式会社,,株式会社,東京都,中央区,銀座１丁目１２番４号,,13,102,1040061,,,,,,,2025-04-16,1,,,,,シンクスター,0
1467,6010001254217,新規,0,2025-04-16,2025-04-16,ＮＪ　Ｍｏｍｅｎｔ株式会社,,株式会社,東京都,千代田区,神田和泉町１番地６－１６ヤマトビル４０５,,13,101,1010024,,,,,,,2025-04-16,1,,,,,エヌジェイモーメント,0
1476,6010005039936,新規,0,2025-04-16,2025-04-16,エヌベース一般社団法人,,その他の設立登記法人,東京都,千代田区,平河町１丁目６番１５号シルスフィア会計事務所内,,13,101,1020093,,,,,,,2025-04-16,1,,,,,エヌベース,0
1482,6010401189161,新規,0,2025-04-16,2025-04-16,株式会社ＺＩＰＡＮＧ,,株式会社,東京都,港区,三田３丁目４番３号ＲＩＰＬ９Ｂ２０２,,13,103,1080073,,,,,,,2025-04-16,1,,,,,ジパング,0
1483,6010401189483,新規,0,2025-04-16,2025-04-16,港国際株式会社,,株式会社,東京都,港区,芝４丁目１６番１－２０１３号,,13,103,1080014,,,,,,,2025-04-16,1,,,,,ミナトコクサイ,0
1484,6010401189649,新規,0,2025-04-16,2025-04-16,ＭｉｒａｉＡＩ株式会社,,株式会社,東京都,港区,新橋１丁目１１番２号Ｉ／Ｏｓｈｉｍｂａｓｈｉ４階,,13,103,1050004,,,,,,,2025-04-16,1,,,,,ミライエーアイ,0
1488,6010403034852,新規,0,2025-04-16,2025-04-16,合同会社ＣＲＥＯＮＥ,,合同会社,東京都,港区,南青山３丁目１番３６号青山丸竹ビル６Ｆ,,13,103,1070062,,,,,,,2025-04-16,1,,,,,クリオネ,0
1489,6010403034885,新規,0,2025-04-16,2025-04-16,ホームアシスト合同会社,,合同会社,東京都,港区,南青山３丁目１番３６号青山丸竹ビル６Ｆ,,13,103,1070062,,,,,,,2025-04-16,1,,,,,ホームアシスト,0
1494,6010703007673,新規,0,2025-04-16,2025-04-16,合同会社ｓｉｍｐｌｅ　ｃｏｎｎｅｃｔ,,合同会社,東京都,品川区,上大崎１丁目１９―２７,,13,109,1410021,,,,,,,2025-04-16,1,,,,,シンプルコネクト,0
1508,6011001168935,新規,0,2025-04-16,2025-04-16,株式会社拵屋,,株式会社,東京都,渋谷区,神南１丁目１１－５－３０４,,13,113,1500041,,,,,,,2025-04-16,1,,,,,コシラエヤ,0
1509,6011001168951,新規,0,2025-04-16,2025-04-16,ＳＥＮＳ株式会社,,株式会社,東京都,渋谷区,渋谷２丁目１９－１５宮益坂ビルディング６０９,,13,113,1500002,,,,,,,2025-04-16,1,,,,,センス,0
1510,6011001169090,新規,0,2025-04-16,2025-04-16,株式会社バセット,,株式会社,東京都,渋谷区,神山町２７番１０号,,13,113,1500047,,,,,,,2025-04-16,1,,,,,バセット,0
1512,6011003021464,新規,0,2025-04-16,2025-04-16,合同会社Ｆｒｅｖｉａ,,合同会社,東京都,目黒区,下目黒１丁目１番１４号コノトラビル７Ｆ,,13,110,1530064,,,,,,,2025-04-16,1,,,,,フレビア,0
1519,6011101111266,新規,0,2025-04-16,2025-04-16,株式会社呉楽,,株式会社,東京都,新宿区,西新宿７丁目５番９－１５１３号,,13,104,1600023,,,,,,,2025-04-16,1,,,,,ゴラク,0
1520,6011101111365,新規,0,2025-04-16,2025-04-16,株式会社ＥＬＩ,,株式会社,東京都,新宿区,赤城元町２番３号,,13,104,1620817,,,,,,,2025-04-16,1,,,,,エリイ,0
1521,6011101111373,新規,0,2025-04-16,2025-04-16,株式会社Ｃｉｅｌ,,株式会社,東京都,新宿区,北新宿２丁目２２番１号フラットＫ３０７,,13,104,1690074,,,,,,,2025-04-16,1,,,,,シエル,0
1522,6011101111381,新規,0,2025-04-16,2025-04-16,勝克達国際株式会社,,株式会社,東京都,新宿区,百人町２丁目８番４号,,13,104,1690073,,,,,,,2025-04-16,1,,,,,ショウカタコクサイ,0
1523,6011103015738,新規,0,2025-04-16,2025-04-16,合同会社ラミタス,,合同会社,東京都,新宿区,西新宿３丁目３番１３号西新宿水間ビル６階,,13,104,1600023,,,,,,,2025-04-16,1,,,,,ラミタス,0
1524,6011103015762,新規,0,2025-04-16,2025-04-16,合同会社よしなに,,合同会社,東京都,新宿区,西新宿８丁目５－７ＬｅＣｌａｉｒ西新宿ＩＩ２０４号室,00138804,13,104,1600023,,,,,,,2025-04-16,1,,,,,ヨシナニ,0
1525,6011103015770,新規,0,2025-04-16,2025-04-16,合同会社ＰＲＩＭＥ　ＤＥＳＩＧＮ　ＢＯＯ,,合同会社,東京都,新宿区,百人町２丁目７番１－９０４号,,13,104,1690073,,,,,,,2025-04-16,1,,,,,プライムデザインブー,0
1526,6011103015787,新規,0,2025-04-16,2025-04-16,ＶＩＬＵＢ合同会社,,合同会社,東京都,新宿区,西新宿５丁目８番２号,,13,104,1600023,,,,,,,2025-04-16,1,,,,,ヴィラーブ,0
1545,6012301014341,新規,0,2025-04-16,2025-04-16,Ｗａｓａｃｈｉ株式会社,,株式会社,東京都,町田市,小山町７６－１,,13,209,1940212,,,,,,,2025-04-16,1,,,,,ワサチ,0
1546,6012403007078,新規,0,2025-04-16,2025-04-16,合同会社クロロゲン,,合同会社,東京都,小金井市,本町４丁目１９－９,,13,210,1840004,,,,,,,2025-04-16,1,,,,,クロロゲン,0
1547,6012703003248,新規,0,2025-04-16,2025-04-16,大米合同会社,,合同会社,東京都,東久留米市,浅間町２丁目１８番２４号,,13,222,2030012,,,,,,,2025-04-16,1,,,,,ダイヨネ,0
1552,6012801023858,新規,0,2025-04-16,2025-04-16,株式会社ＹＫ,,株式会社,東京都,武蔵村山市,伊奈平４丁目２２番地の２３,,13,223,2080023,,,,,,,2025-04-16,1,,,,,ワイケイ,0
1557,6020001162402,新規,0,2025-04-16,2025-04-16,横浜マリンサーベイ株式会社,,株式会社,神奈川県,横浜市西区,北幸２丁目１０番４８号むつみビル３階,,14,103,2200004,,,,,,,2025-04-16,1,,,,,ヨコハママリンサーベイ,0
1558,6020003028287,新規,0,2025-04-16,2025-04-16,合同会社ＭＡＫＩＮＯ　ＬＡＢＯ,,合同会社,神奈川県,川崎市川崎区,浅田３丁目１２－３,,14,131,2100847,,,,,,,2025-04-16,1,,,,,マキノラボ,0
1571,6030001166014,新規,0,2025-04-16,2025-04-16,株式会社ｙａｓｕｈｉｒｏｋａｎｅｄａ　ＳＴＲＵＣＴＵＲＥ,,株式会社,埼玉県,春日部市,粕壁東２丁目１番１２号,,11,214,3440062,,,,,,,2025-04-16,1,,,,,ヤスヒロカネダストラクチャー,0
1577,6030003026570,新規,0,2025-04-16,2025-04-16,合同会社清水ビジネスパートナーズ,,合同会社,埼玉県,志木市,幸町４丁目８番４号,,11,228,3530005,,,,,,,2025-04-16,1,,,,,ビジネスパートナーズ,0
1586,6040001138210,新規,0,2025-04-16,2025-04-16,レシクル株式会社,,株式会社,千葉県,市川市,市川１丁目６－１５－１２０４,,12,203,2720034,,,,,,,2025-04-16,1,,,,,レシクル,0
1595,6040003027287,新規,0,2025-04-16,2025-04-16,合同会社バーニーズ,,合同会社,千葉県,柏市,北柏４丁目５番地２,,12,217,2770832,,,,,,,2025-04-16,1,,,,,バーニーズ,0
1597,6040005022724,新規,0,2025-04-16,2025-04-16,医療法人社団葵月会,,その他の設立登記法人,千葉県,大網白里市,みやこ野１丁目２番３号ルミエールみやこ野６０２,,12,239,2993236,,,,,,,2025-04-16,1,,,,,キヅキカイ,0
1604,6060003005506,新規,0,2025-04-16,2025-04-16,合同会社エルピス,,合同会社,栃木県,那須塩原市,三区町５３０番３６,,09,213,3292745,,,,,,,2025-04-16,1,,,,,エルピス,0
1611,6080101025445,新規,0,2025-04-16,2025-04-16,株式会社ＦＩＬＡＲＥ,,株式会社,静岡県,駿東郡清水町,卸団地１６３番地,,22,341,4110912,,,,,,,2025-04-16,1,,,,,フィレール,0
1612,6080403005244,新規,0,2025-04-16,2025-04-16,合同会社ｔｗｉｎｋｌｅ　ｌｉｆｅ,,合同会社,静岡県,掛川市,大池８８６番地,,22,213,4360043,,,,,,,2025-04-16,1,,,,,トゥインクルライフ,0
1614,6090005007695,新規,0,2025-04-16,2025-04-16,一般社団法人ＢＡＳＡＲＡ,,その他の設立登記法人,山梨県,北杜市,大泉町西井出８２４０番地３４６６,,19,209,4091501,,,,,,,2025-04-16,1,,,,,バサラ,0
1616,6100005013337,新規,0,2025-04-16,2025-04-16,一般社団法人Ｂｅｓｈａ長野,,その他の設立登記法人,長野県,岡谷市,天竜町２丁目２番３８号,,20,204,3940035,,,,,,,2025-04-16,1,,,,,ビーシャナガノ,0
1618,6110001039194,新規,0,2025-04-16,2025-04-16,株式会社ｕｐ‐Ｌｉｎｅ,,株式会社,新潟県,上越市,大字下吉野６９３番地,,15,222,9420231,,,,,,,2025-04-16,1,,,,,アップライン,0
1638,6120001274402,新規,0,2025-04-16,2025-04-16,中庸実業株式会社,,株式会社,大阪府,大阪市北区,梅田１丁目１番３号大阪駅前第３ビル２９階１－１－１号室,,27,127,5300001,,,,,,,2025-04-16,1,,,,,チュウヨウジツギョウ,0
1639,6120001274435,新規,0,2025-04-16,2025-04-16,東西ホールディングス株式会社,,株式会社,大阪府,大阪市中央区,城見２丁目１番６１号,,27,128,5400001,,,,,,,2025-04-16,1,,,,,トウザイホールディングス,0
1640,6120001274468,新規,0,2025-04-16,2025-04-16,株式会社ＭＥＤＡＺＥＸ,,株式会社,大阪府,大阪市北区,長柄西１丁目３番２２－１０１６号,,27,127,5310061,,,,,,,2025-04-16,1,,,,,メダゼックス,0
1641,6120001274526,新規,0,2025-04-16,2025-04-16,ｆｉｅｌｄ‐ｋ株式会社,,株式会社,大阪府,大阪市中央区,南本町１丁目４－６アーカス南本町３Ａ,,27,128,5410054,,,,,,,2025-04-16,1,,,,,フィールドケイ,0
1642,6120001274575,新規,0,2025-04-16,2025-04-16,株式会社Ｇａｎｋｅｔ,,株式会社,大阪府,大阪市北区,梅田１丁目２番２号大阪駅前第２ビル１２－１２,,27,127,5300001,,,,,,,2025-04-16,1,,,,,ガンケット,0
1649,6120003029242,新規,0,2025-04-16,2025-04-16,マイアン合同会社,,合同会社,大阪府,大阪市西成区,山王２丁目１５－１７ビッグバーンズマンション山王４０１号,,27,122,5570001,,,,,,,2025-04-16,1,,,,,マイアン,0
1665,6130001079445,新規,0,2025-04-16,2025-04-16,株式会社ＳＴＥＬＬＡ　ＧＯＮＧ,,株式会社,京都府,舞鶴市,八反田南町１２７番地１,,26,202,6250078,,,,,,,2025-04-16,1,,,,,ステラゴング,0
1671,6140005027473,新規,0,2025-04-16,2025-04-16,医療法人社団純和会,,その他の設立登記法人,兵庫県,神戸市須磨区,中落合２丁目２－４大丸須磨店３Ｆ,,28,107,6540154,,,,,,,2025-04-16,1,,,,,ジュンワカイ,0
1678,6180001166395,新規,0,2025-04-16,2025-04-16,宏和株式会社,,株式会社,愛知県,名古屋市中区,三の丸１丁目１４番７号本丸ビル３１２号室,,23,106,4600001,,,,,,,2025-04-16,1,,,,,コウワ,0
1679,6180003028338,新規,0,2025-04-16,2025-04-16,合同会社ＧＲＥＡＴＬＯＶＥ,,合同会社,愛知県,名古屋市西区,名駅２丁目３４番１７号,,23,104,4510045,,,,,,,2025-04-16,1,,,,,グレートラブ,0
1683,6210001020136,新規,0,2025-04-16,2025-04-16,株式会社ＦＭＫ　Ｓｏｌｕｔｉｏｎｓ,,株式会社,福井県,福井市,春山１丁目１番１４号福井新聞さくら通りビル,,18,201,9100019,,,,,,,2025-04-16,1,,,,,エフエムケーソリューションズ,0
1693,6240003007153,新規,0,2025-04-16,2025-04-16,合同会社セツナ,,合同会社,広島県,広島市安佐南区,長束西３丁目１３－４－６,,34,105,7310136,,,,,,,2025-04-16,1,,,,,セツナ,0
1701,6260001040105,新規,0,2025-04-16,2025-04-16,株式会社ＴＡＵＥ,,株式会社,岡山県,岡山市北区,丸の内２丁目１２番２０号,,33,101,7000823,,,,,,,2025-04-16,1,,,,,タウエ,0
1702,6260001040113,新規,0,2025-04-16,2025-04-16,株式会社来価,,株式会社,岡山県,岡山市北区,田町２丁目１４番１号１０２,,33,101,7000825,,,,,,,2025-04-16,1,,,,,ライカ,0
1711,6290001109723,新規,0,2025-04-16,2025-04-16,株式会社士毅,,株式会社,福岡県,福岡市中央区,天神４丁目６－２８天神ファーストビル７階,,40,133,8100001,,,,,,,2025-04-16,1,,,,,シキ,0
1717,6300005007236,新規,0,2025-04-16,2025-04-16,医療法人ＮＩＴＴＡ,,その他の設立登記法人,佐賀県,嬉野市,嬉野町大字下宿乙１２０１－１,,41,209,8430301,,,,,,,2025-04-16,1,,,,,ニッタ,0
1721,6320001021049,新規,0,2025-04-16,2025-04-16,株式会社スライブ,,株式会社,大分県,別府市,大字鶴見３９６３番地の２アンジュМ２０１号,,44,202,8740840,,,,,,,2025-04-16,1,,,,,スライブ,0
1724,6330001033092,新規,0,2025-04-16,2025-04-16,株式会社ヤマテック,,株式会社,熊本県,八代市,田中西町６－３－６,,43,202,8660876,,,,,,,2025-04-16,1,,,,,ヤマテック,0
1725,6330003000099,新規,0,2025-04-16,2025-04-16,上村地所合資会社,,合資会社,熊本県,熊本市,新南部五丁目５番６２号,,43,100,,,,,,,,2025-04-16,1,,,,,ウエムラチショ,0
1728,6340001027267,新規,0,2025-04-16,2025-04-16,ＡＦＮ株式会社,,株式会社,鹿児島県,霧島市,隼人町内山田１０８５－３０,,46,218,8995106,,,,,,,2025-04-16,1,,,,,エーエフエヌ,0
1730,6340003004818,新規,0,2025-04-16,2025-04-16,合同会社てぃだあめ,,合同会社,鹿児島県,鹿児島市,錦江台１丁目１５－２,,46,201,8910145,,,,,,,2025-04-16,1,,,,,ティダアメ,0
1731,6370001052485,新規,0,2025-04-16,2025-04-16,株式会社ディムザライツ,,株式会社,宮城県,仙台市若林区,土樋７６ファミール愛宕２０２,,04,103,9840065,,,,,,,2025-04-16,1,,,,,ディムザライツ,0
1735,6380001035241,新規,0,2025-04-16,2025-04-16,東邦ＣＬＡＳＳ株式会社,,株式会社,福島県,郡山市,駅前２丁目３番７号エリート３０ビル２Ｆ／３Ｆ,,07,203,9638002,,,,,,,2025-04-16,1,,,,,トウホウクラス,0
1736,6390001017957,新規,0,2025-04-16,2025-04-16,株式会社豊照,,株式会社,山形県,天童市,大字荒谷１７番地１,,06,210,9940054,,,,,,,2025-04-16,1,,,,,,0
1741,6430001094166,新規,0,2025-04-16,2025-04-16,株式会社ＲＮ管工,,株式会社,北海道,札幌市北区,新琴似十二条２丁目１番３２号,,01,102,0010912,,,,,,,2025-04-16,1,,,,,アールエヌカンコウ,0
1742,6430001094182,新規,0,2025-04-16,2025-04-16,株式会社丞,,株式会社,北海道,札幌市豊平区,平岸三条１０丁目５－３０－１０３号,,01,105,0620933,,,,,,,2025-04-16,1,,,,,タスケル,0
1746,6450001014592,新規,0,2025-04-16,2025-04-16,株式会社ＶＩＴＡＲＣ,,株式会社,北海道,旭川市,永山二条４丁目３番１０号グランコーポ開本Ｄ－２０２,,01,204,0798412,,,,,,,2025-04-16,1,,,,,ヴィターク,0
1748,6460101007702,新規,0,2025-04-16,2025-04-16,株式会社Ｗａｋｏ,,株式会社,北海道,帯広市,西十八条南１丁目１４番地７１,,01,207,0800028,,,,,,,2025-04-16,1,,,,,ワコ,0
1754,6500001026244,新規,0,2025-04-16,2025-04-16,株式会社えもんファーム,,株式会社,愛媛県,八幡浜市,国木１７７番地１,,38,204,7968015,,,,,,,2025-04-16,1,,,,,エモンファーム,0
1757,6700150129959,新規,0,2025-04-16,2025-04-16,ＱＵＡＬＩＴＹ　ＭＯＴＯＲ　ＥＮＴＥＲＰＲＩＳＥＳ,,外国会社等,千葉県,大網白里市,細草１４１２番地６Ａ,,12,239,2993211,スリランカ民主社会主義共和国、アクラナ、クルンドゥガハエラ、ウッガラロード、Ｎｏ．２５８／Ａ,,,,,,2025-04-16,1,,,,,クウオリテイモーターエンタープライズ,0
1758,6700150129967,新規,0,2025-04-16,2025-04-16,ＳＩＭＰＬＹＢＲＩＬＬＩＡＮＴＥＮＴＥＲＰＲＩＳＥＳＬＴＤ,,外国会社等,,,,,,,,ＶｉｓｔｒａＣｏｒｐｏｒａｔｅＳｅｒｖｉｃｅｓＣｅｎｔｒｅ，ＷｉｃｋｈａｍｓＣａｙＩＩ，ＲｏａｄＴｏｗｎ，Ｔｏｒｔｏｌａ，ＶＧ１１１０，ＢｒｉｔｉｓｈＶｉｒｇｉｎＩｓｌａｎｄｓ,00138790,,,,,2025-04-16,1,,,,,シンプルブリリアントエンタープライズリミテツド,0
1759,6700150129975,新規,0,2025-04-16,2025-04-16,Ｋａｌｍａｒ　Ｓｏｌｕｔｉｏｎｓ　ＡＢ,,外国会社等,,,,,,,,Ｋａｌｍａｒ　Ｓｏｌｕｔｉｏｎｓ　ＡＢ　１　ＦＥ　８１２　１０５　６９　Ｓｔｏｃｋｈｏｌｍ　Ｓｗｅｄｅｎ,,,,,,2025-04-16,1,,,,,カルマーソリユーシヨンズエービー,0
1760,6700150129983,新規,0,2025-04-16,2025-04-16,ＳＡＲＡＴＨ　ＭＯＴＯＲＳ,,外国会社等,千葉県,大網白里市,細草１４１２番地１２Ａ,,12,239,2993211,スリランカ民主社会主義共和国、キャンディ、カトゥガストタロード、Ｎｏ．１８５／３,,,,,,2025-04-16,1,,,,,サラスモータース,0
1769,7010001254158,新規,0,2025-04-16,2025-04-16,ＨＨＨ２株式会社,,株式会社,東京都,中央区,日本橋室町４丁目３番９号,,13,102,1030022,,,,,,,2025-04-16,1,,,,,エイチエイチエイチツー,0
1770,7010001254208,新規,0,2025-04-16,2025-04-16,株式会社ａｓｏｂｉｔｏ,,株式会社,東京都,中央区,銀座１丁目２２番１１号銀座大竹ビジデンス２Ｆ,,13,102,1040061,,,,,,,2025-04-16,1,,,,,アソビト,0
1771,7010001254216,新規,0,2025-04-16,2025-04-16,株式会社ナチュラリティ,,株式会社,東京都,中央区,銀座１丁目２７番８号セントラルビル７０３号,,13,102,1040061,,,,,,,2025-04-16,1,,,,,ナチュラリティ,0
1775,7010005039869,新規,0,2025-04-16,2025-04-16,一般社団法人文京向上会,,その他の設立登記法人,東京都,文京区,千石１丁目６番１６号ライズヒル千石２０３,,13,105,1120011,,,,,,,2025-04-16,1,,,,,ブンキョウコウジョウカイ,0
1777,7010101016631,新規,0,2025-04-16,2025-04-16,Ｔｉｅｗａｙ　Ｊａｐａｎ株式会社,,株式会社,東京都,八王子市,東町１２番８号４Ｆ,,13,201,1920082,,,,,,,2025-04-16,1,,,,,タイウェイジャパン,0
1787,7010401189648,新規,0,2025-04-16,2025-04-16,株式会社没頭,,株式会社,東京都,港区,新橋１丁目１１番２号Ｉ／Ｏｓｈｉｍｂａｓｈｉ４階,,13,103,1050004,,,,,,,2025-04-16,1,,,,,ボットウ,0
1788,7010401189664,新規,0,2025-04-16,2025-04-16,株式会社イージィエー,,株式会社,東京都,港区,赤坂１丁目１４番１１号,,13,103,1070052,,,,,,,2025-04-16,1,,,,,イージィエー,0
1789,7010401189672,新規,0,2025-04-16,2025-04-16,株式会社ＡｄＮｅｘａ　Ｉｎｎｏｖａｔｉｏｎｓ,,株式会社,東京都,港区,東新橋１丁目７番１号,,13,103,1050021,,,,,,,2025-04-16,1,,,,,アドネクサイノベーションズ,0
1792,7010403034868,新規,0,2025-04-16,2025-04-16,ビンゴ楽座合同会社,,合同会社,東京都,港区,新橋６丁目８番１号,,13,103,1050004,,,,,,,2025-04-16,1,,,,,ビンゴラクザ,0
1793,7010403034884,新規,0,2025-04-16,2025-04-16,Ｃｏｎｇｏ　Ｂｒａｎｄｓ　Ｊａｐａｎ合同会社,,合同会社,東京都,港区,赤坂２丁目１４番５号Ｄａｉｗａ赤坂ビル４階,,13,103,1070052,,,,,,,2025-04-16,1,,,,,コンゴブランズジャパン,0
1795,7010501053885,新規,0,2025-04-16,2025-04-16,株式会社ＢＪＯ,,株式会社,東京都,台東区,柳橋２丁目１３番１０号ヂヤンテイ第２ビル４Ｆ,,13,106,1110052,,,,,,,2025-04-16,1,,,,,ビージェーオー,0
1799,7010701047571,新規,0,2025-04-16,2025-04-16,チャンプテック株式会社,,株式会社,東京都,品川区,西大井１丁目４番１５－１３０１号,,13,109,1400015,,,,,,,2025-04-16,1,,,,,チャンプテック,0
1800,7010703007672,新規,0,2025-04-16,2025-04-16,合同会社ヒトタラシ,,合同会社,東京都,品川区,大崎４丁目２番５３号ＳＯＬＡＳＩＡｒｅｓｉｄｅｎｃｅ品川大崎４０３,,13,109,1410032,,,,,,,2025-04-16,1,,,,,ヒトタラシ,0
1807,7010903009857,新規,0,2025-04-16,2025-04-16,ＡＫＡＩ　ＦＡＭ合同会社,,合同会社,東京都,世田谷区,成城５丁目２３番１７号,,13,112,1570066,,,,,,,2025-04-16,1,,,,,アカイファム,0
1811,7011001168942,新規,0,2025-04-16,2025-04-16,株式会社フーディア,,株式会社,東京都,渋谷区,広尾５丁目３番１４号Ｔ＆Ｍビル２Ｆ,,13,113,1500012,,,,,,,2025-04-16,1,,,,,フーディア,0
1812,7011001168950,新規,0,2025-04-16,2025-04-16,株式会社ｓｕｇａｒ,,株式会社,東京都,渋谷区,神宮前３丁目３７番１－１０２号ザ・神宮前レジデンス,,13,113,1500001,,,,,,,2025-04-16,1,,,,,シュガー,0
1813,7011001168967,新規,0,2025-04-16,2025-04-16,株式会社ＺｅｎＧａｒｄｅｎ,,株式会社,東京都,目黒区,青葉台１丁目１８番７－５０２号カスタリア中目黒,,13,110,1530042,,,,,,,2025-04-16,1,,,,,ゼンガーデン,0
1814,7011003021406,新規,0,2025-04-16,2025-04-16,合同会社青空,,合同会社,東京都,渋谷区,代々木３丁目２３番４号カテリーナ代々木プレイス１４０１,,13,113,1510053,,,,,,,2025-04-16,1,,,,,アオゾラ,0
1819,7011101111348,新規,0,2025-04-16,2025-04-16,株式会社ユニーＦＣ,,株式会社,東京都,新宿区,荒木町１６番地１６ベルウッドビル１階,,13,104,1600007,,,,,,,2025-04-16,1,,,,,ユニーエフシー,0
1821,7011201026289,新規,0,2025-04-16,2025-04-16,株式会社ひかる,,株式会社,東京都,中野区,東中野２丁目１６番１０－１０３号,,13,114,1640003,,,,,,,2025-04-16,1,,,,,ヒカル,0
1822,7011203004672,新規,0,2025-04-16,2025-04-16,群龍合同会社,,合同会社,東京都,中野区,新井１丁目１６番１４号２０３,,13,114,1650026,,,,,,,2025-04-16,1,,,,,グンリュウ,0
1824,7011401027021,新規,0,2025-04-16,2025-04-16,Ｐｒｏａｃｔｉｖｅ　Ｊａｐａｎ株式会社,,株式会社,東京都,板橋区,徳丸６丁目７番１３号,,13,119,1750083,,,,,,,2025-04-16,1,,,,,プロアクティブジャパン,0
1827,7011501031889,新規,0,2025-04-16,2025-04-16,株式会社日京,,株式会社,東京都,荒川区,東日暮里５丁目３２－３－３０２,,13,118,1160014,,,,,,,2025-04-16,1,,,,,ニキョウ,0
1828,7012301014340,新規,0,2025-04-16,2025-04-16,株式会社凛,,株式会社,東京都,町田市,原町田６丁目２６番１１号ＭＫビル１階Ａ,,13,209,1940013,,,,,,,2025-04-16,1,,,,,リン,0
1830,7012303002145,新規,0,2025-04-16,2025-04-16,ＷａｔｓＬａｎｄ合同会社,,合同会社,東京都,町田市,三輪緑山１丁目２２番地１グリーンハイム緑山３１２,,13,209,1950055,,,,,,,2025-04-16,1,,,,,ワッツランド,0
1851,7020001162384,新規,0,2025-04-16,2025-04-16,株式会社ＳＥＥＤ,,株式会社,神奈川県,横浜市磯子区,滝頭２丁目２２番５号オリーブヨコハマ１０１号室,,14,107,2350012,,,,,,,2025-04-16,1,,,,,シード,0
1864,7030001165923,新規,0,2025-04-16,2025-04-16,株式会社日本ヒューマンサポート,,株式会社,埼玉県,さいたま市大宮区,大成町２丁目３７６番地ルートマンション５０３,,11,103,3300852,,,,,,,2025-04-16,1,,,,,ニホンヒューマンサポート,0
1865,7030001165989,新規,0,2025-04-16,2025-04-16,株式会社ＣＬＡＩＲＥ,,株式会社,埼玉県,草加市,苗塚町５３８番地２４,,11,221,3400036,,,,,,,2025-04-16,1,,,,,クレア,0
1866,7030001165997,新規,0,2025-04-16,2025-04-16,金澤貿易株式会社,,株式会社,埼玉県,川口市,西川口２丁目１５番１０号,,11,203,3320021,,,,,,,2025-04-16,1,,,,,カネザワボウエキ,0
1867,7030001166021,新規,0,2025-04-16,2025-04-16,株式会社Ｏｎｅ　Ｐｌｕｓ　Ｏｎｅ,,株式会社,埼玉県,比企郡小川町,大字原川１６番地,,11,343,3550317,,,,,,,2025-04-16,1,,,,,ワンプラスワン,0
1873,7030003026561,新規,0,2025-04-16,2025-04-16,合同会社ウェルシャイン,,合同会社,埼玉県,鴻巣市,赤見台３丁目３番１７号,,11,217,3650064,,,,,,,2025-04-16,1,,,,,ウェルシャイン,0
1892,7070001042813,新規,0,2025-04-16,2025-04-16,大洋食品工業株式会社,,株式会社,群馬県,館林市,苗木町２６１８番地の６,,10,207,3740043,,,,,,,2025-04-16,1,,,,,タイヨウショクヒンコウギョウ,0
1894,7070003005859,新規,0,2025-04-16,2025-04-16,遠藤商会合同会社,,合同会社,群馬県,高崎市,上並榎町１６９番地１,,10,202,3700801,,,,,,,2025-04-16,1,,,,,エンドウショウカイ,0
1895,7070003005875,新規,0,2025-04-16,2025-04-16,合同会社グンゾク,,合同会社,群馬県,沼田市,東原新町１４８５番地７,,10,206,3780053,,,,,,,2025-04-16,1,,,,,グンゾク,0
1898,7080003003440,新規,0,2025-04-16,2025-04-16,合同会社ＲｅＫｉＬ,,合同会社,静岡県,島田市,東町４２９番地の７,,22,209,4270011,,,,,,,2025-04-16,1,,,,,リキル,0
1899,7080101025444,新規,0,2025-04-16,2025-04-16,株式会社Ｆｕｌ,,株式会社,静岡県,三島市,寿町９－４２,,22,206,4110039,,,,,,,2025-04-16,1,,,,,,0
1903,7100001038519,新規,0,2025-04-16,2025-04-16,株式会社ＭＪ　ＡＵＴＯ,,株式会社,長野県,中野市,大字中野１７０１番地１,,20,211,3830013,,,,,,,2025-04-16,1,,,,,エムジェイオート,0
1904,7110001039193,新規,0,2025-04-16,2025-04-16,かめだエコサービス株式会社,,株式会社,新潟県,新潟市中央区,東大通１丁目２番２３号,,15,103,9500087,,,,,,,2025-04-16,1,,,,,カメダエコサービス,0
1907,7110003005730,新規,0,2025-04-16,2025-04-16,合同会社光通信,,合同会社,新潟県,新潟市西区,小新２丁目５番５号,,15,107,9502023,,,,,,,2025-04-16,1,,,,,ヒカリツウシン,0
1917,7120001274392,新規,0,2025-04-16,2025-04-16,株式会社興福商事,,株式会社,大阪府,大阪市東住吉区,住道矢田５丁目６番１２号,,27,121,5460022,,,,,,,2025-04-16,1,,,,,コウフクショウジ,0
1918,7120001274657,新規,0,2025-04-16,2025-04-16,株式会社ジュピター,,株式会社,大阪府,大阪市北区,梅田１丁目２番２号大阪駅前第２ビル１２－１２,,27,127,5300001,,,,,,,2025-04-16,1,,,,,ジュピター,0
1922,7120003029118,新規,0,2025-04-16,2025-04-16,合同会社クックロビン舎,,合同会社,大阪府,大阪市北区,天神橋１丁目１７－１５,,27,127,5300041,,,,,,,2025-04-16,1,,,,,クックロビンシャ,0
1923,7120003029126,新規,0,2025-04-16,2025-04-16,Ｍｏｏｄ　Ｍａｋｅｒ　Ｊａｐａｎ合同会社,,合同会社,大阪府,大阪市住吉区,大領４丁目１６番８号長居フラッツ２Ｄ号,,27,120,5580001,,,,,,,2025-04-16,1,,,,,ムードメーカージャパン,0
1937,7130003010373,新規,0,2025-04-16,2025-04-16,エトワール合同会社,,合同会社,京都府,亀岡市,篠町柏原中又３３番地２,,26,206,6210821,,,,,,,2025-04-16,1,,,,,エトワール,0
1945,7140001138042,新規,0,2025-04-16,2025-04-16,ウェブデザインえの株式会社,,株式会社,兵庫県,尼崎市,塚口町５丁目３３番地の１,,28,202,6610002,,,,,,,2025-04-16,1,,,,,ウェブデザインエノ,0
1946,7140001138182,新規,0,2025-04-16,2025-04-16,株式会社ＫＡＩＴＯテクノロジー,,株式会社,兵庫県,神戸市中央区,北長狭通４丁目４番１２号エンゼルマリン元町７０２号,,28,110,6500012,,,,,,,2025-04-16,1,,,,,カイトテクノロジー,0
1948,7140005027472,新規,0,2025-04-16,2025-04-16,医療法人社団絆希会,,その他の設立登記法人,兵庫県,川辺郡猪名川町,松尾台１丁目２番地２０、１階,,28,301,6660261,,,,,,,2025-04-16,1,,,,,キズキカイ,0
1950,7160001026690,新規,0,2025-04-16,2025-04-16,株式会社ＴＥＲＲＡ　ＪＡＰＡＮ,,株式会社,滋賀県,草津市,大路２丁目２番１９号ｓｔｙｌｅビルＩＩ３０１－１号室,00138810,25,206,5250032,,,,,,,2025-04-16,1,,,,,テラジャパン,0
1958,7180001166403,新規,0,2025-04-16,2025-04-16,株式会社Ｅｍｅｒｓｏｎ,,株式会社,愛知県,名古屋市東区,白壁１丁目４５番地白壁ビル８０６,,23,102,4610011,,,,,,,2025-04-16,1,,,,,エメルソン,0
1961,7180003028329,新規,0,2025-04-16,2025-04-16,佐々木商事合同会社,,合同会社,愛知県,一宮市,八幡５丁目１番８７－２０２県営一宮八幡住宅,,23,203,4910903,,,,,,,2025-04-16,1,,,,,ササキショウジ,0
1962,7180003028337,新規,0,2025-04-16,2025-04-16,合同会社ＫＯＪＩＭＡ,,合同会社,愛知県,弥富市,鍋平５丁目２４番地,,23,235,4901406,,,,,,,2025-04-16,1,,,,,コジマ,0
1969,7200003006777,新規,0,2025-04-16,2025-04-16,ＭＭＩ　Ｔｒａｄｉｎｇ合同会社,,合同会社,岐阜県,土岐市,駄知町６９９番地の１,,21,212,5095401,,,,,,,2025-04-16,1,,,,,エムエムアイトレーディング,0
1982,7240003007152,新規,0,2025-04-16,2025-04-16,ｃｏｎｎｅｃｔ合同会社,,合同会社,広島県,広島市中区,堺町１丁目６番１２－１４０４号,,34,101,7300853,,,,,,,2025-04-16,1,,,,,コネクト,0
1987,7260003005138,新規,0,2025-04-16,2025-04-16,合同会社Ｍｉｘ,,合同会社,岡山県,都窪郡早島町,前潟６１３番地８,,33,423,7010303,,,,,,,2025-04-16,1,,,,,ミックス,0
2001,7290003016669,新規,0,2025-04-16,2025-04-16,合同会社ＴＳＵＭＩＡＧＥ,,合同会社,福岡県,福岡市西区,姪の浜３丁目４－２２－４０１,,40,135,8190002,,,,,,,2025-04-16,1,,,,,,0
2010,7330001033100,新規,0,2025-04-16,2025-04-16,ＴＭ　ＴＲＵＳＴ株式会社,,株式会社,熊本県,熊本市南区,城南町東阿高７９５番地５,,43,104,8614225,,,,,,,2025-04-16,1,,,,,ティーエムトラスト,0
2011,7330003010956,新規,0,2025-04-16,2025-04-16,合同会社白剣,,合同会社,熊本県,阿蘇郡南阿蘇村,大字白川６４９,,43,433,8691502,,,,,,,2025-04-16,1,,,,,ハッケン,0
2014,7340003004817,新規,0,2025-04-16,2025-04-16,合同会社三結,,合同会社,鹿児島県,指宿市,山川小川１５７６番地６,,46,210,8910515,,,,,,,2025-04-16,1,,,,,ミツユイ,0
2015,7340005009855,新規,0,2025-04-16,2025-04-16,喜界島よろこＢｉｚ協同組合,,その他の設立登記法人,鹿児島県,大島郡喜界町,大字湾４７１番地９,,46,529,8916202,,,,,,,2025-04-16,1,,,,,キカイジマヨロコビズ,0
2021,7350003004898,新規,0,2025-04-16,2025-04-16,合同会社ｉｂｕｋｉ２５,,合同会社,宮崎県,西臼杵郡高千穂町,大字上野２５３９番地,,45,441,8821411,,,,,,,2025-04-16,1,,,,,イブキニゴ,0
2024,7370001052484,新規,0,2025-04-16,2025-04-16,エスエスアール株式会社,,株式会社,宮城県,仙台市宮城野区,鶴巻１丁目１２番２５号,,04,102,9830024,,,,,,,2025-04-16,1,,,,,エスエスアール,0
2029,7380001035240,新規,0,2025-04-16,2025-04-16,東和警備株式会社,,株式会社,福島県,郡山市,名郷田１丁目８番地,,07,203,9638043,,,,,,,2025-04-16,1,,,,,トウワケイビ,0
2033,7400001016989,新規,0,2025-04-16,2025-04-16,株式会社ＡＶＡＮＣＥ．,,株式会社,岩手県,久慈市,小久慈町第１５地割２０番８,,03,207,0280071,,,,,,,2025-04-16,1,,,,,アヴァンス,0
2039,7430003017520,新規,0,2025-04-16,2025-04-16,ＫＴ　Ｄｒａｆｔｉｎｇ　Ｓｅｒｖｉｃｅｓ合同会社,,合同会社,北海道,札幌市中央区,南四条西６丁目８番地３晴ばれビル５０１,,01,101,0640804,,,,,,,2025-04-16,1,,,,,ケーティードラフティングサービセス,0
2042,7450003002644,新規,0,2025-04-16,2025-04-16,合同会社ＣＯＲＥ,,合同会社,北海道,旭川市,神居一条２丁目１番１０号セ・シボン５－１０２,,01,204,0708011,,,,,,,2025-04-16,1,,,,,コア,0
2052,7500001026243,新規,0,2025-04-16,2025-04-16,ａｍｏ株式会社,,株式会社,愛媛県,四国中央市,川之江町１８０３番地,,38,213,7990101,,,,,,,2025-04-16,1,,,,,アーモ,0
2053,7500003003488,新規,0,2025-04-16,2025-04-16,合同会社アイエム,,合同会社,愛媛県,松山市,大街道２丁目１番地３１みそらビル２Ｆ,,38,201,7900004,,,,,,,2025-04-16,1,,,,,アイエム,0
2055,7700150129958,新規,0,2025-04-16,2025-04-16,ＲＥＮＯ　ＡＵＴＯ　ＥＮＴＥＲＰＲＩＳＥＳ,,外国会社等,千葉県,大網白里市,細草１４１２番地８Ａ,,12,239,2993211,スリランカ民主社会主義共和国、アクラナ、パッレウェリケティヤ、Ｎｏ．４７０,,,,,,2025-04-16,1,,,,,レノオートエンタープライズ,0
2056,7700150129966,新規,0,2025-04-16,2025-04-16,ＨｏｎｏｒｓＣｒｅｄｉｔ　ＨＫ　Ｌｉｍｉｔｅｄ,,外国会社等,,,,,,,,Ｒｏｏｍ７１９，７／ＦＬｏｗＢｌｏｃｋＧｒａｎｄＭｉｌｌｅｎｉｕｍＰｌａｚａ，１８１Ｑｕｅｅｎ’ｓＲｏａｄＣｅｎｔｒａｌ，Ｃｅｎｔｒａｌ，ＨｏｎｇＫｏｎｇ,,,,,,2025-04-16,1,,,,,ホーナーズクレジツトエイチケイリミテツド,0
2057,7700150129974,新規,0,2025-04-16,2025-04-16,ＡＪＣ　Ｃａｐｉｔａｌ　Ｍａｎａｇｅｍｅｎｔ　Ｊａｐａｎ　ＬＬＣ,,外国会社等,,,,,,,,３７５　ＳＡＮＴＡ　ＩＮＥＺ　ＷＡＹ　ＬＡ　ＣＡＮＡＤＡ　ＦＬＩＮＴＲＩＤＧＥ，ＣＡ　９１０１１,,,,,,2025-04-16,1,,,,,エージエイシーキヤピタルマネジメントジヤパン,0
2058,7700150129982,新規,0,2025-04-16,2025-04-16,Ｈｉｌｌｈｏｕｓｅ　Ｊａｐａｎ　Ｐｔｅ．Ｌｔｄ．,,外国会社等,東京都,千代田区,丸の内２丁目６番１号　丸の内パークビルディング８階,,13,101,1000005,シンガポール共和国０１８９８１、マリーナ・ブルーバード８、マリーナベイ・フィナンシャル・センター・タワー１、２８階,,,,,,2025-04-16,1,,,,,ヒルハウスジヤパンピーテイーイーリミテツド,0
2068,8010001254082,新規,0,2025-04-16,2025-04-16,株式会社ｄａｙｄａｙ　ａｐｐａｒｅｌ,,株式会社,東京都,文京区,白山１丁目６番４号ＶｅｎｔｕｒｅＢａｓｅＡ２４室,,13,105,1130001,,,,,,,2025-04-16,1,,,,,ディディアパレル,0
2069,8010001254090,新規,0,2025-04-16,2025-04-16,楽宿株式会社,,株式会社,東京都,中央区,日本橋人形町３丁目１番１６号ＪＰｈｏｕｓｅ日本橋ビル４階,,13,102,1030013,,,,,,,2025-04-16,1,,,,,ラクヤド,0
2070,8010001254215,新規,0,2025-04-16,2025-04-16,株式会社イフォス,,株式会社,東京都,中央区,東日本橋２丁目２７番２４号イクソン日本橋ビル５Ｆ,,13,102,1030004,,,,,,,2025-04-16,1,,,,,イフォス,0
2073,8010003047088,新規,0,2025-04-16,2025-04-16,ＦＷＥ　Ｃｈｉｔｏｓｅ合同会社,,合同会社,東京都,中央区,銀座１丁目２２番１１号銀座大竹ビジデンス２Ｆ,,13,102,1040061,,,,,,,2025-04-16,1,,,,,エフダブリューイーチトセ,0
2084,8010401189250,新規,0,2025-04-16,2025-04-16,Ｂｉｌｌｉｏｎ株式会社,,株式会社,東京都,港区,六本木７丁目７番７号トライセブンロッポンギ８階,,13,103,1060032,,,,,,,2025-04-16,1,,,,,ビリオン,0
2085,8010401189408,新規,0,2025-04-16,2025-04-16,株式会社Ｒｅｄｐｉｎｅ　Ｃａｐｉｔａｌ,,株式会社,東京都,港区,南青山３丁目１番３６号青山丸竹ビル６Ｆ,,13,103,1070062,,,,,,,2025-04-16,1,,,,,レッドパインキャピタル,0
2086,8010401189531,新規,0,2025-04-16,2025-04-16,株式会社Ｐｌａｔｅ　Ｏｎｅ,,株式会社,東京都,港区,南青山３丁目１番３６号青山丸竹ビル６Ｆ,,13,103,1070062,,,,,,,2025-04-16,1,,,,,プレートワン,0
2087,8010401189688,新規,0,2025-04-16,2025-04-16,ＣＩＲＣＵＬＡＲ　ＦＡＲＭ株式会社,,株式会社,東京都,港区,六本木７丁目１５番１４号,,13,103,1060032,,,,,,,2025-04-16,1,,,,,サーキュラーファーム,0
2088,8010401189713,新規,0,2025-04-16,2025-04-16,ＧＣＪＧ５０Ｂ株式会社,,株式会社,東京都,港区,元赤坂１丁目１番７－１２０９号株式会社赤坂国際会計内,,13,103,1070051,,,,,,,2025-04-16,1,,,,,ジーシージェイジーフィフティービー,0
2092,8010403034792,新規,0,2025-04-16,2025-04-16,合同会社ＲＵＮ　ＰＥＯＰＬＥ,,合同会社,東京都,港区,赤坂４丁目４番１８－１０１号,,13,103,1070052,,,,,,,2025-04-16,1,,,,,ランピープル,0
2093,8010403034867,新規,0,2025-04-16,2025-04-16,合同会社ＲｙｕＹｏｕＤｏ,,合同会社,東京都,港区,高輪２丁目１５番３４号,,13,103,1080074,,,,,,,2025-04-16,1,,,,,リュウユウドウ,0
2094,8010403034883,新規,0,2025-04-16,2025-04-16,合同会社ろくにいよん,,合同会社,東京都,港区,芝浦１丁目６番４１号,,13,103,1050023,,,,,,,2025-04-16,1,,,,,ロクニイヨン,0
2099,8010501053926,新規,0,2025-04-16,2025-04-16,株式会社ジェムエステイトジャパン,,株式会社,東京都,台東区,三筋１丁目１２番６号サヒヤルビル５Ｆ,,13,106,1110055,,,,,,,2025-04-16,1,,,,,ジェムエステイトジャパン,0
2100,8010501053934,新規,0,2025-04-16,2025-04-16,株式会社ぽえむ,,株式会社,東京都,台東区,東上野２丁目９番１号ＭＴＫビル５階,,13,106,1100015,,,,,,,2025-04-16,1,,,,,ポエム,0
2105,8010601067124,新規,0,2025-04-16,2025-04-16,株式会社縁,,株式会社,東京都,墨田区,墨田４丁目３４－２１,,13,107,1310031,,,,,,,2025-04-16,1,,,,,エニシ,0
2113,8010901057196,新規,0,2025-04-16,2025-04-16,株式会社ＩＤＴＹ,,株式会社,東京都,世田谷区,世田谷３丁目１９番１１号グリーンハイム世田谷４０２,,13,112,1540017,,,,,,,2025-04-16,1,,,,,アイディティワイ,0
2114,8010903009856,新規,0,2025-04-16,2025-04-16,合同会社Ｈａｐｐｙ　Ｅｇｇ,,合同会社,東京都,世田谷区,桜上水１丁目１０番１２号ミリエームＥ１０１,,13,112,1560045,,,,,,,2025-04-16,1,,,,,ハッピーエッグ,0
2117,8011001168917,新規,0,2025-04-16,2025-04-16,株式会社ネオパートナーズ,,株式会社,東京都,渋谷区,南平台町１６番２５号,,13,113,1500036,,,,,,,2025-04-16,1,,,,,ネオパートナーズ,0
2118,8011001168966,新規,0,2025-04-16,2025-04-16,株式会社アテナエージェンシー,,株式会社,東京都,渋谷区,恵比寿４丁目２０番３号恵比寿ガーデンプレイスタワー１５階,,13,113,1500013,,,,,,,2025-04-16,1,,,,,アテナエージェンシー,0
2121,8011101111124,新規,0,2025-04-16,2025-04-16,株式会社ＺＥＮＰＯＷＥＲ　Ｈｏｌｄｉｎｇｓ,,株式会社,東京都,新宿区,新宿１丁目２４番１号大塚ビル４階,,13,104,1600022,,,,,,,2025-04-16,1,,,,,ゼンパワーホールディングス,0
2122,8011101111396,新規,0,2025-04-16,2025-04-16,株式会社ラッフィナートデザイン,,株式会社,東京都,新宿区,西新宿４丁目２９番４号西新宿ハウス１０３,,13,104,1600023,,,,,,,2025-04-16,1,,,,,ラッフィナートデザイン,0
2123,8011101111413,新規,0,2025-04-16,2025-04-16,株式会社クリメイト,,株式会社,東京都,新宿区,新宿３丁目２番２号紺野ビル４Ｆ,,13,104,1600022,,,,,,,2025-04-16,1,,,,,クリメイト,0
2124,8011101111421,新規,0,2025-04-16,2025-04-16,オーラワン株式会社,,株式会社,東京都,新宿区,新宿５丁目８番２１号サンジュリ２２号,,13,104,1600022,,,,,,,2025-04-16,1,,,,,オーラワン,0
2140,8012403007068,新規,0,2025-04-16,2025-04-16,合同会社ＮＣラボ,,合同会社,東京都,武蔵野市,吉祥寺北町１丁目１番２－４０５号トラッセルズ吉祥寺,,13,203,1800001,,,,,,,2025-04-16,1,,,,,エヌシーラボ,0
2141,8012701018808,新規,0,2025-04-16,2025-04-16,株式会社Ｔｅａｍ　Ｒｅｘ,,株式会社,東京都,西東京市,田無町２丁目４番５号,,13,229,1880011,,,,,,,2025-04-16,1,,,,,チームレクス,0
2142,8012801023906,新規,0,2025-04-16,2025-04-16,株式会社ＳＢＹ,,株式会社,東京都,国分寺市,本町３丁目４番４号栄ビルＢ１Ｆ,,13,214,1850012,,,,,,,2025-04-16,1,,,,,エスビーワイ,0
2146,8013301054152,新規,0,2025-04-16,2025-04-16,株式会社ＬａｔｃｈＳｔｏｒｙ,,株式会社,東京都,豊島区,東池袋２丁目６２－８－１２０６,,13,116,1700013,,,,,,,2025-04-16,1,,,,,ラッチストーリー,0
2157,8020003028302,新規,0,2025-04-16,2025-04-16,ＥＭＧＬＡＳＳ合同会社,,合同会社,神奈川県,川崎市中原区,上丸子山王町２丁目１３３２番地グランデュール山王１０２,,14,133,2110002,,,,,,,2025-04-16,1,,,,,エングラス,0
2165,8021001084956,新規,0,2025-04-16,2025-04-16,ＫＭＴモビリティ技研株式会社,,株式会社,神奈川県,厚木市,戸室５丁目１番１２号スカール本厚木３０１,,14,212,2430031,,,,,,,2025-04-16,1,,,,,ケイエムティモビリティギケン,0
2167,8021003015868,新規,0,2025-04-16,2025-04-16,ＮＩＨＯＮ　ＡＵＴＯ合同会社,,合同会社,神奈川県,厚木市,下川入４９４－１ピュアリティ２０２号室,,14,212,2430206,,,,,,,2025-04-16,1,,,,,ニホンオート,0
2179,8030001165988,新規,0,2025-04-16,2025-04-16,Ｇｌｏｗ株式会社,,株式会社,埼玉県,鴻巣市,八幡田６２７－２,,11,217,3650073,,,,,,,2025-04-16,1,,,,,グロー,0
2180,8030001165996,新規,0,2025-04-16,2025-04-16,株式会社トコピスト,,株式会社,埼玉県,所沢市,大字山口１６５番地の３６,,11,208,3591145,,,,,,,2025-04-16,1,,,,,トコピスト,0
2181,8030001166004,新規,0,2025-04-16,2025-04-16,株式会社ＩＫＡＲＡＳＨＩ,,株式会社,埼玉県,熊谷市,榎町３０１番地１,,11,202,3600823,,,,,,,2025-04-16,1,,,,,イカラシ,0
2215,8080101025443,新規,0,2025-04-16,2025-04-16,株式会社吉田工業,,株式会社,静岡県,富士市,柳島１５３番地の１コーポベルライズ５０１号,,22,210,4160932,,,,,,,2025-04-16,1,,,,,ヨシダコウギョウ,0
2225,8100001038518,新規,0,2025-04-16,2025-04-16,ＴＯＫＹＯ　ＪＡＰＡＮ　ＴＲＡＤＩＮＧ株式会社,,株式会社,長野県,東御市,和１１４８番地１,,20,219,3890505,,,,,,,2025-04-16,1,,,,,トウキョウジャパントレーディング,0
2226,8100005013335,新規,0,2025-04-16,2025-04-16,一般社団法人志賀高原事業承継円滑化協議会,,その他の設立登記法人,長野県,下高井郡山ノ内町,大字平穏１１８７番地,,20,561,3810401,,,,,,,2025-04-16,1,,,,,シガコウゲンジギョウショウケイエンカツカキョウギカイ,0
2237,8120001274301,新規,0,2025-04-16,2025-04-16,株式会社Ｊ２Ｙ・オネット,,株式会社,大阪府,大阪市旭区,千林２丁目４番３－７０１号,,27,117,5350012,,,,,,,2025-04-16,1,,,,,ジェイツーワイオネット,0
2238,8120001274334,新規,0,2025-04-16,2025-04-16,富澤株式会社,,株式会社,大阪府,大阪市城東区,東中浜３丁目２１番２５－１０１号,,27,118,5360023,,,,,,,2025-04-16,1,,,,,トミザワ,0
2239,8120001274400,新規,0,2025-04-16,2025-04-16,株式会社Ｙ’ｚ＆Ｍ,,株式会社,大阪府,大阪市西区,江戸堀１丁目２２－５,,27,106,5500002,,,,,,,2025-04-16,1,,,,,ワイズアンドエム,0
2240,8120001274409,新規,0,2025-04-16,2025-04-16,株式会社大和紙料ホールディングス,,株式会社,大阪府,大阪市大正区,三軒家東２丁目９番１０号,,27,108,5510002,,,,,,,2025-04-16,1,,,,,ダイワシリョウホールディングス,0
2241,8120001274573,新規,0,2025-04-16,2025-04-16,株式会社セントラル,,株式会社,大阪府,大阪市東淀川区,東淡路１丁目５番１－３１４号,,27,114,5330023,,,,,,,2025-04-16,1,,,,,セントラル,0
2242,8120003029133,新規,0,2025-04-16,2025-04-16,合同会社Ｄ２‐Ｅｆｆｅｃｔ,,合同会社,大阪府,大阪市中央区,北浜東４番３３号,,27,128,5400031,,,,,,,2025-04-16,1,,,,,ディーズエフェクト,0
2249,8120105009999,新規,0,2025-04-16,2025-04-16,一般社団法人河内長野造園組合,,その他の設立登記法人,大阪府,河内長野市,清見台１丁目１９番１２号,,27,216,5860043,,,,,,,2025-04-16,1,,,,,カワチナガノゾウエンクミアイ,0
2250,8120901050719,新規,0,2025-04-16,2025-04-16,株式会社Ｓａｒａ　Ｌａｂ,,株式会社,大阪府,豊中市,東豊中町４丁目１７－２７,,27,203,5600003,,,,,,,2025-04-16,1,,,,,サララボ,0
2252,8120905006725,新規,0,2025-04-16,2025-04-16,一般社団法人コロゼッタ,,その他の設立登記法人,大阪府,豊能郡豊能町,光風台４丁目１番地の２５,,27,321,5630104,,,,,,,2025-04-16,1,,,,,コロゼッタ,0
2258,8130001079443,新規,0,2025-04-16,2025-04-16,株式会社ＤＯＧＭＡ　ＴＥＣ,,株式会社,京都府,京都市北区,鷹峯旧土居町１－７０カナーズ洛北３０５号室,,26,101,6038448,,,,,,,2025-04-16,1,,,,,ドグマチック,0
2259,8130001079468,新規,0,2025-04-16,2025-04-16,株式会社シンセアリンク,,株式会社,京都府,京都市中京区,錦小路通室町西入天神山町２８０,,26,104,6048221,,,,,,,2025-04-16,1,,,,,シンセアリンク,0
2282,8180003028336,新規,0,2025-04-16,2025-04-16,合同会社ひまわり,,合同会社,愛知県,小牧市,外堀３丁目１３２,,23,219,4850039,,,,,,,2025-04-16,1,,,,,ヒマワリ,0
2295,8200003006776,新規,0,2025-04-16,2025-04-16,合同会社ＶＩＣＴＯＲＩＡ,,合同会社,岐阜県,羽島市,福寿町平方２丁目７４番地,,21,209,5016257,,,,,,,2025-04-16,1,,,,,ビクトリア,0
2296,8200005013746,新規,0,2025-04-16,2025-04-16,農事組合法人おぐれファーム,,その他の設立登記法人,岐阜県,安八郡輪之内町,下大榑１２９５１番地,,21,382,5030205,,,,,,,2025-04-16,1,,,,,オグレファーアム,0
2305,8240001064814,新規,0,2025-04-16,2025-04-16,株式会社ＢＬＯＯＭ,,株式会社,広島県,広島市中区,富士見町１５番１４－３０１号,,34,101,7300043,,,,,,,2025-04-16,1,,,,,ブルーム,0
2308,8240003007151,新規,0,2025-04-16,2025-04-16,フリースタイル合同会社,,合同会社,広島県,広島市安佐北区,可部２丁目１２番９号,,34,106,7310221,,,,,,,2025-04-16,1,,,,,フリースタイル,0
2313,8250003003703,新規,0,2025-04-16,2025-04-16,太陽工業合同会社,,合同会社,山口県,光市,浅江５丁目１３－５ファミールＵｅｎｏＣ棟１０２,,35,210,7430021,,,,,,,2025-04-16,1,,,,,タイヨウコウギョウ,0
2317,8260003005137,新規,0,2025-04-16,2025-04-16,ＳＡＨＩ　ＴＲＡＤＩＮＧ合同会社,,合同会社,岡山県,岡山市中区,新京橋３丁目１４－１９,,33,102,7038294,,,,,,,2025-04-16,1,,,,,サヒトレーディング,0
2318,8260005011471,新規,0,2025-04-16,2025-04-16,税理士法人プラム,,その他の設立登記法人,岡山県,岡山市北区,今３丁目１０番１０号,,33,101,7000975,,,,,,,2025-04-16,1,,,,,プラム,0
2319,8280001009410,新規,0,2025-04-16,2025-04-16,ブランドゲート株式会社,,株式会社,島根県,浜田市,熱田町６６８番地２,,32,202,6970062,,,,,,,2025-04-16,1,,,,,ブランドゲート,0
2326,8290001109688,新規,0,2025-04-16,2025-04-16,新日本エンバイロメント株式会社,,株式会社,福岡県,福岡市東区,青葉３丁目１番３４号,,40,131,8130025,,,,,,,2025-04-16,1,,,,,シンニホンエンバイロメント,0
2327,8290001109696,新規,0,2025-04-16,2025-04-16,茅島商店株式会社,,株式会社,福岡県,八女市,黒木町湯辺田１８４,,40,210,8341215,,,,,,,2025-04-16,1,,,,,カヤシマショウテン,0
2328,8290001109738,新規,0,2025-04-16,2025-04-16,サルジュ株式会社,,株式会社,福岡県,福岡市西区,野方４丁目３９番３号,,40,135,8190043,,,,,,,2025-04-16,1,,,,,サルジュ,0
2332,8320003004636,新規,0,2025-04-16,2025-04-16,合同会社オパール,,合同会社,大分県,杵築市,大字片野７４６番地３２,,44,210,8730007,,,,,,,2025-04-16,1,,,,,オパール,0
2333,8330003010955,新規,0,2025-04-16,2025-04-16,ＮＩＳＨＯＧＯＧＯ合同会社,,合同会社,熊本県,熊本市北区,清水亀井町５５－６３ＴＯＲＴＵＥ,,43,105,8618066,,,,,,,2025-04-16,1,,,,,ニショゴーゴー,0
2342,8350003004906,新規,0,2025-04-16,2025-04-16,合同会社ｋｉｄ’ｓキララ,,合同会社,宮崎県,宮崎市,大字跡江７４１－１,,45,201,8802101,,,,,,,2025-04-16,1,,,,,キッズキララ,0
2358,8420003003099,新規,0,2025-04-16,2025-04-16,合同会社ＷＹＳ,,合同会社,青森県,青森市,橋本３丁目４番１５号ＫＳ葛西ビル１階,,02,201,0300823,,,,,,,2025-04-16,1,,,,,ワイズ,0
2360,8430001094214,新規,0,2025-04-16,2025-04-16,株式会社ＷＭ,,株式会社,北海道,札幌市中央区,南二十一条西８丁目１番１８－２０１号,,01,101,0640921,,,,,,,2025-04-16,1,,,,,ダブリューエム,0
2361,8430001094222,新規,0,2025-04-16,2025-04-16,株式会社リトルバレル,,株式会社,北海道,札幌市東区,北三十条東１５丁目２番５号,,01,103,0650030,,,,,,,2025-04-16,1,,,,,リトルバレル,0
2363,8430003017536,新規,0,2025-04-16,2025-04-16,合同会社ＩＯＮ,,合同会社,北海道,札幌市中央区,南十二条西１８丁目２－１３ブランシャール幌西３０１号,,01,101,0640912,,,,,,,2025-04-16,1,,,,,アイオーエヌ,0
2364,8450003002643,新規,0,2025-04-16,2025-04-16,合同会社２７５,,合同会社,北海道,雨竜郡沼田町,字恵比島３５９番地,,01,438,0782224,,,,,,,2025-04-16,1,,,,,ニナナゴ,0
2375,8700150129957,新規,0,2025-04-16,2025-04-16,ＭＯＴＯＲ　ＫＩＮＧ　ＩＮＴＥＲＮＡＴＩＯＮＡＬ,,外国会社等,千葉県,大網白里市,細草１４１２番地７Ａ,,12,239,2993211,スリランカ民主社会主義共和国、アクラナ、マタレロード、Ｎｏ．３２１／Ａ,,,,,,2025-04-16,1,,,,,モーターキングインターナシヨナル,0
2376,8700150129965,新規,0,2025-04-16,2025-04-16,ＣＳ　ＩＮＴＥＲＮＡＴＩＯＮＡＬ,,外国会社等,千葉県,八街市,八街ろ１８５番地１４３シャトレーのぞみ３０３,,12,230,2891144,スリランカ民主社会主義共和国、イッバガムワ、ウダウェラ,,,,,,2025-04-16,1,,,,,シーエスインターナシヨナル,0
2377,8700150129973,新規,0,2025-04-16,2025-04-16,Ｍｙｔｏｎａ　Ｌｔｄ,,外国会社等,,,,,,,,Ｌｅｖｅｌ　５，１２９　Ｈｕｒｓｔｍｅｒｅ　Ｒｏａｄ，Ｔａｋａｐｕｎａ，Ａｕｃｋｌａｎｄ　０６２２，Ｎｅｗ　Ｚｅａｌａｎｄ,,,,,,2025-04-16,1,,,,,マイトナリミテツド,0
2378,8700150129981,新規,0,2025-04-16,2025-04-16,ＣＡＲ　ＤＯＣ　ＥＮＴＥＲＰＲＩＳＥＳ,,外国会社等,千葉県,大網白里市,細草１４１２番地９Ａ,,12,239,2993211,スリランカ民主社会主義共和国、ウクウェラ、マナンボダ、Ｎｏ．４９,,,,,,2025-04-16,1,,,,,カードツクエンタープライズ,0
2391,9010001254172,新規,0,2025-04-16,2025-04-16,ＭＳＤ企業投資Ｂ号株式会社,,株式会社,東京都,千代田区,大手町１丁目９番２号,,13,101,1000004,,,,,,,2025-04-16,1,,,,,エムエスディーキギョウトウシビーゴウ,0
2392,9010101016638,新規,0,2025-04-16,2025-04-16,株式会社保住電設,,株式会社,東京都,八王子市,久保山町２丁目３８番地２０,,13,201,1920023,,,,,,,2025-04-16,1,,,,,ホズミデンセツ,0
2403,9010401189596,新規,0,2025-04-16,2025-04-16,株式会社あかり,,株式会社,東京都,港区,赤坂８丁目１２番１２－３０２号,,13,103,1070052,,,,,,,2025-04-16,1,,,,,アカリ,0
2404,9010401189621,新規,0,2025-04-16,2025-04-16,株式会社Ｃ２Ｚｅｐｈｙｒ,,株式会社,東京都,港区,六本木７丁目７番７号Ｔｒｉ－Ｓｅｖｅｎ・Ｒｏｐｐｏｎｇｉ８階,,13,103,1060032,,,,,,,2025-04-16,1,,,,,シーツーゼファー,0
2405,9010401189712,新規,0,2025-04-16,2025-04-16,ＧＣＪＧ５０Ａ株式会社,,株式会社,東京都,港区,元赤坂１丁目１番７－１２０９号株式会社赤坂国際会計内,,13,103,1070051,,,,,,,2025-04-16,1,,,,,ジーシージェイジーフィフティーエー,0
2413,9010501053917,新規,0,2025-04-16,2025-04-16,株式会社裕良商社,,株式会社,東京都,台東区,千束３丁目２６番４号,,13,106,1110031,,,,,,,2025-04-16,1,,,,,ユラショウシャ,0
2414,9010501053925,新規,0,2025-04-16,2025-04-16,株式会社小島エステート,,株式会社,東京都,台東区,東上野５丁目２３番１４－５０２号パークホームズ上野,,13,106,1100015,,,,,,,2025-04-16,1,,,,,コジマエステート,0
2415,9010501053933,新規,0,2025-04-16,2025-04-16,株式会社ＹＯＵＧＯ,,株式会社,東京都,台東区,台東４丁目９番２号阪急阪神上野御徒町ビル１２階,,13,106,1100016,,,,,,,2025-04-16,1,,,,,ユーゴー,0
2427,9011001168817,新規,0,2025-04-16,2025-04-16,株式会社ＢＩＤＨＩＴ,,株式会社,東京都,渋谷区,千駄ヶ谷１丁目１３番６－５０１号,,13,113,1510051,,,,,,,2025-04-16,1,,,,,ビッドヒット,0
2428,9011001168916,新規,0,2025-04-16,2025-04-16,株式会社２ＯＮ,,株式会社,東京都,渋谷区,渋谷２丁目１９－１５宮益坂ビルディング６０９,,13,113,1500002,,,,,,,2025-04-16,1,,,,,ツーオン,0
2434,9011103015660,新規,0,2025-04-16,2025-04-16,Ｂｅａｕｔｉｆｕｌ　Ｗｅａｔｈｅｒ合同会社,,合同会社,東京都,新宿区,西新宿３丁目３番１３号西新宿水間ビル６階,,13,104,1600023,,,,,,,2025-04-16,1,,,,,ビューティフルウェザー,0
2440,9011501031953,新規,0,2025-04-16,2025-04-16,株式会社おもてなしアース,,株式会社,東京都,荒川区,南千住５丁目１７番８号クレセント南千住２Ｆ,,13,118,1160003,,,,,,,2025-04-16,1,,,,,オモテナシアース,0
2443,9011701028262,新規,0,2025-04-16,2025-04-16,スタートアフレッシュ株式会社,,株式会社,東京都,江戸川区,松江２丁目２１番１４号Ｃ,,13,123,1320025,,,,,,,2025-04-16,1,,,,,スタートアフレッシュ,0
2453,9012805003333,新規,0,2025-04-16,2025-04-16,武蔵総合管理協同組合,,その他の設立登記法人,東京都,国分寺市,東元町４丁目１６番１３号,,13,214,1850022,,,,,,,2025-04-16,1,,,,,ムサシソウゴウカンリ,0
2456,9013301054151,新規,0,2025-04-16,2025-04-16,株式会社高度人材創発,,株式会社,東京都,豊島区,西池袋３丁目５番６－５０６号,,13,116,1710021,,,,,,,2025-04-16,1,,,,,コウドジンザイソウハツ,0
2464,9020001162119,新規,0,2025-04-16,2025-04-16,株式会社健幸商店,,株式会社,神奈川県,横浜市鶴見区,岸谷４丁目２５番２５号,,14,101,2300078,,,,,,,2025-04-16,1,,,,,ケンコウショウテン,0
2465,9020001162176,新規,0,2025-04-16,2025-04-16,成田電気株式会社,,株式会社,神奈川県,横浜市泉区,上飯田町３６６２番地,,14,116,2450018,,,,,,,2025-04-16,1,,,,,ナリタデンキ,0
2475,9021001084947,新規,0,2025-04-16,2025-04-16,範徳里希株式会社,,株式会社,神奈川県,秦野市,南矢名２２２３番地の４東海ビル２０６Ａ,,14,211,2570003,,,,,,,2025-04-16,1,,,,,ハントクリキ,0
2482,9021003015834,新規,0,2025-04-16,2025-04-16,合同会社ＡＯＬＵＸ,,合同会社,神奈川県,茅ヶ崎市,中海岸３丁目１０―６３,,14,207,2530055,,,,,,,2025-04-16,1,,,,,アオルクス,0
2492,9030001165979,新規,0,2025-04-16,2025-04-16,株式会社シラカワ,,株式会社,埼玉県,川越市,大字下赤坂２９８番地,,11,201,3501155,,,,,,,2025-04-16,1,,,,,シラカワ,0
2493,9030001166003,新規,0,2025-04-16,2025-04-16,株式会社ヤヒロ設計,,株式会社,埼玉県,三郷市,さつき平１丁目５番２－９０２号,,11,237,3410021,,,,,,,2025-04-16,1,,,,,ヤヒロセッケイ,0
2494,9030001166011,新規,0,2025-04-16,2025-04-16,株式会社ビートハウジング,,株式会社,埼玉県,さいたま市南区,鹿手袋６丁目６番１号ＰＡＳＳＡＧＥ、Ｄ号室,,11,108,3360031,,,,,,,2025-04-16,1,,,,,ビートハウジング,0
2511,9030005022136,新規,0,2025-04-16,2025-04-16,一般社団法人Ｂｅｓｈａ埼玉,,その他の設立登記法人,埼玉県,草加市,新栄４丁目１０００番地新栄町団地４－１－１０３,,11,221,3400056,,,,,,,2025-04-16,1,,,,,ビーシャサイタマ,0
2525,9050001056490,新規,0,2025-04-16,2025-04-16,ＡＲＯＹＳＴＡ株式会社,,株式会社,茨城県,石岡市,貝地２丁目６番８号,,08,205,3150015,,,,,,,2025-04-16,1,,,,,アロイスタ,0
2526,9050001056516,新規,0,2025-04-16,2025-04-16,株式会社みらいべる,,株式会社,茨城県,水戸市,米沢町１６６番地２太陽館１０２,,08,201,3100847,,,,,,,2025-04-16,1,,,,,ミライベル,0
2531,9070001042852,新規,0,2025-04-16,2025-04-16,株式会社マナビックス,,株式会社,群馬県,太田市,藤阿久町９１８－５３,,10,205,3730034,,,,,,,2025-04-16,1,,,,,マナビックス,0
2536,9080001026879,新規,0,2025-04-16,2025-04-16,株式会社Ｊｏｙ’ｎ,,株式会社,静岡県,静岡市葵区,伝馬町９番地の４,,22,101,4200858,,,,,,,2025-04-16,1,,,,,ジョイ,0
2538,9080003003439,新規,0,2025-04-16,2025-04-16,合同会社ヒルブレイク,,合同会社,静岡県,藤枝市,水上１９４番地,,22,214,4260074,,,,,,,2025-04-16,1,,,,,ヒルブレイク,0
2539,9080101025426,新規,0,2025-04-16,2025-04-16,Ｋｚ　Ｌａｂｓ株式会社,,株式会社,静岡県,熱海市,網代６２７番地の５３１,,22,205,4130103,,,,,,,2025-04-16,1,,,,,,0
2545,9090001019221,新規,0,2025-04-16,2025-04-16,株式会社大瀧商事,,株式会社,山梨県,富士吉田市,上吉田東５丁目１０番２７号,,19,202,4030032,,,,,,,2025-04-16,1,,,,,オオタキショウジ,0
2547,9100001038483,新規,0,2025-04-16,2025-04-16,小葫盧株式会社,,株式会社,長野県,大町市,美麻１１１９０番地１,,20,212,3999101,,,,,,,2025-04-16,1,,,,,ココロ,0
2549,9100005013334,新規,0,2025-04-16,2025-04-16,一般社団法人林業芸術社,,その他の設立登記法人,長野県,北佐久郡御代田町,大字御代田４１０８番地２３７２,,20,323,3890206,,,,,,,2025-04-16,1,,,,,リンギョウゲイジュツシャ,0
2560,9120001274515,新規,0,2025-04-16,2025-04-16,株式会社Ｓ＆Ｓ,,株式会社,大阪府,大阪市住吉区,苅田５丁目７番２１号グローリーあびこ１階１０２号室,,27,120,5580011,,,,,,,2025-04-16,1,,,,,エスアンドエス,0
2561,9120001274572,新規,0,2025-04-16,2025-04-16,ＬｕｍｉｎｏｕｓＧＡＴＥ株式会社,,株式会社,大阪府,大阪市北区,梅田１丁目１－３大阪駅前第３ビル２９階１－１－１,,27,127,5300001,,,,,,,2025-04-16,1,,,,,ルミナスゲート,0
2562,9120001274580,新規,0,2025-04-16,2025-04-16,株式会社レイドキュー,,株式会社,大阪府,大阪市中央区,南船場３丁目２番２２号おおきに南船場ビル２０５,,27,128,5420081,,,,,,,2025-04-16,1,,,,,レイドキュー,0
2563,9120001274597,新規,0,2025-04-16,2025-04-16,月和株式会社,,株式会社,大阪府,大阪市中央区,宗右衛門町２番３０号三ッ寺ギャラクシービル１号館１階１Ｆ号室,,27,128,5420084,,,,,,,2025-04-16,1,,,,,ツキナゴミ,0
2564,9120001274853,新規,0,2025-04-16,2025-04-16,株式会社ＪＫマックス,,株式会社,大阪府,大阪市天王寺区,上汐４丁目５番２０号,,27,109,5430002,,,,,,,2025-04-16,1,,,,,ジェイケイマックス,0
2568,9120003029108,新規,0,2025-04-16,2025-04-16,合同会社ＦＩＸ,,合同会社,大阪府,枚方市,須山町５６番１０号,,27,210,5731164,,,,,,,2025-04-16,1,,,,,フィックス,0
2569,9120003029223,新規,0,2025-04-16,2025-04-16,合同会社ＣＯＭＥ　ＯＮ,,合同会社,大阪府,大阪市北区,菅栄町５番２０‐７０２号,,27,127,5300031,,,,,,,2025-04-16,1,,,,,カムオン,0
2577,9120101071416,新規,0,2025-04-16,2025-04-16,株式会社和心,,株式会社,大阪府,堺市堺区,住吉橋町１丁１番１２号朝日プラザフェニックス２０４－Ｈ,,27,141,5900973,,,,,,,2025-04-16,1,,,,,ワゴコロ,0
2578,9120101071481,新規,0,2025-04-16,2025-04-16,株式会社Ｍｉｚ‐ｗｏｒｋｓ,,株式会社,大阪府,河内長野市,中片添町１２番１３号,,27,216,5860046,,,,,,,2025-04-16,1,,,,,ミズワークス,0
2579,9120105009998,新規,0,2025-04-16,2025-04-16,特定非営利活動法人南河内ドローンオフィス,,その他の設立登記法人,大阪府,富田林市,南旭ケ丘町４番３３号,,27,214,5840007,,,,,,,2025-04-16,1,,,,,ミナミカワチドローンオフィス,0
2581,9120905006724,新規,0,2025-04-16,2025-04-16,特定非営利活動法人エンパワメントいばらき,,その他の設立登記法人,大阪府,茨木市,高田町２３番１６号,,27,211,5670011,,,,,,,2025-04-16,1,,,,,エンパワメントイバラキ,0
2584,9130001079434,新規,0,2025-04-16,2025-04-16,株式会社サム’ｓ　ｕｐ,,株式会社,京都府,京都市下京区,中堂寺南町１３４番地ＡＳＴＥＭビル８Ｆ,,26,106,6008813,,,,,,,2025-04-16,1,,,,,サムズアップ,0
2585,9130005017332,新規,0,2025-04-16,2025-04-16,社会福祉法人こどもの森福祉会,,その他の設立登記法人,京都府,与謝郡与謝野町,字三河内１９４７番地１,,26,465,6292313,,,,,,,2025-04-16,1,,,,,コドモノモリフクシカイ,0
2600,9140005027479,新規,0,2025-04-16,2025-04-16,医療法人社団川原内科,,その他の設立登記法人,兵庫県,明石市,朝霧南町１丁目１６５番５朝霧ＫＭビル４階,,28,203,6730870,,,,,,,2025-04-16,1,,,,,カワハラナイカ,0
2603,9160005011398,新規,0,2025-04-16,2025-04-16,一般社団法人建造物修復防災研究舎,,その他の設立登記法人,滋賀県,湖南市,菩提寺西６丁目１番１１号,,25,211,5203248,,,,,,,2025-04-16,1,,,,,ケンゾウブツシュウフクボウサイケンキュウシャ,0
2606,9170001018578,新規,0,2025-04-16,2025-04-16,株式会社ＡＩ板金,,株式会社,和歌山県,有田市,宮崎町４１５番地６,,30,204,6490316,,,,,,,2025-04-16,1,,,,,アイバンキン,0
2610,9170003002191,新規,0,2025-04-16,2025-04-16,合同会社三敬会,,合同会社,和歌山県,紀の川市,桃山町市場１８６番地,,30,208,6496124,,,,,,,2025-04-16,1,,,,,サンケイカイ,0
2622,9190003004979,新規,0,2025-04-16,2025-04-16,合同会社サトシン,,合同会社,三重県,四日市市,九の城町６番１３－５０３ダイアパレス鵜の森公園西,,24,202,5100072,,,,,,,2025-04-16,1,,,,,サトシン,0
2623,9190005012039,新規,0,2025-04-16,2025-04-16,特定非営利活動法人四日市トップエース協会,,その他の設立登記法人,三重県,員弁郡東員町,大字六把野新田１９１番地６,,24,324,5110242,,,,,,,2025-04-16,1,,,,,ヨッカイチトップエースキョウカイ,0
2628,9200003006775,新規,0,2025-04-16,2025-04-16,合同会社中京輝,,合同会社,岐阜県,羽島市,福寿町平方２丁目７４番地,,21,209,5016257,,,,,,,2025-04-16,1,,,,,チュウキョウカガヤキ,0
2640,9240001064813,新規,0,2025-04-16,2025-04-16,豊田建築株式会社,,株式会社,広島県,広島市南区,仁保１丁目４０番１号,,34,103,7340026,,,,,,,2025-04-16,1,,,,,トヨタケンチク,0
2641,9240003007142,新規,0,2025-04-16,2025-04-16,合同会社ゆずはる,,合同会社,広島県,福山市,東桜町１番３４－１６０１号,,34,207,7200065,,,,,,,2025-04-16,1,,,,,ユズハル,0
2642,9240003007150,新規,0,2025-04-16,2025-04-16,合同会社さくら農園,,合同会社,広島県,広島市安佐南区,高取北１丁目２８番３号,,34,105,7310144,,,,,,,2025-04-16,1,,,,,サクラノウエン,0
2644,9260001040102,新規,0,2025-04-16,2025-04-16,株式会社すなお家,,株式会社,岡山県,笠岡市,吉浜２４８１番地３１,,33,205,7140074,,,,,,,2025-04-16,1,,,,,スナオヤ,0
2645,9260001040110,新規,0,2025-04-16,2025-04-16,株式会社ＭＡ,,株式会社,岡山県,倉敷市,阿知３丁目９番１号あちてらす倉敷北館２３２号室,,33,202,7100055,,,,,,,2025-04-16,1,,,,,エムエー,0
2655,9290001109679,新規,0,2025-04-16,2025-04-16,株式会社ＨＡＰＰＩＮＥＳＳ１,,株式会社,福岡県,福岡市南区,大橋団地４番１７－３０３号,,40,134,8150038,,,,,,,2025-04-16,1,,,,,ハピネスワン,0
2656,9290001109720,新規,0,2025-04-16,2025-04-16,株式会社Ｗａｌｋ　ａｎｄ　ｔａｌｋ,,株式会社,福岡県,福岡市中央区,港１丁目９－１２－３階,,40,133,8100075,,,,,,,2025-04-16,1,,,,,ウォークアンドトーク,0
2658,9290003016683,新規,0,2025-04-16,2025-04-16,石井岳城作品愛好会合同会社,,合同会社,福岡県,八女郡広川町,大字新代１７４５,,40,544,8340115,,,,,,,2025-04-16,1,,,,,イシイガクジョサクヒンアイコウカイ,0
2659,9290003016691,新規,0,2025-04-16,2025-04-16,ＦＩＬＥ合同会社,,合同会社,福岡県,福岡市博多区,金の隈１丁目２８－３９－２０５,,40,132,8120863,,,,,,,2025-04-16,1,,,,,ファイル,0
2666,9320001021054,新規,0,2025-04-16,2025-04-16,株式会社ＨＲＳ,,株式会社,大分県,大分市,敷戸東町２８番８号,,44,201,8701104,,,,,,,2025-04-16,1,,,,,エイチアールエス,0
2684,9370003007039,新規,0,2025-04-16,2025-04-16,合同会社三栄建設,,合同会社,宮城県,角田市,角田字老ケ崎８４番地１０ＳＴコーポ１０６,,04,208,9811505,,,,,,,2025-04-16,1,,,,,サンエイケンセツ,0
2693,9430001020557,新規,0,2025-04-16,2025-04-16,株式会社大和通商,,株式会社,北海道,札幌市北区,新琴似四条７丁目１番１９号,,01,102,0010904,,,,,,,2025-04-16,1,,,,,ヤマトツウショウ,0
2699,9430001094163,新規,0,2025-04-16,2025-04-16,株式会社北海道総合経理サービス,,株式会社,北海道,札幌市中央区,大通東７丁目１２番地１２ノースシティフナリビル２０３,,01,101,0600041,,,,,,,2025-04-16,1,,,,,ホッカイドウソウゴウケイリサービス,0
2707,9470003002863,新規,0,2025-04-16,2025-04-16,合同会社ＳｏｍａＲｅ,,合同会社,香川県,高松市,サンポート２番１号高松シンボルタワータワー棟４・５階情報通信交流館,,37,201,7600019,,,,,,,2025-04-16,1,,,,,ソマレ,0
2710,9700150129964,新規,0,2025-04-16,2025-04-16,ＨＡＪＡＲＡ　ＴＲＡＤＩＮＧ　ＣＯＭＰＡＮＹ　ＰＶＴ　ＬＴＤ,,外国会社等,千葉県,夷隅郡大多喜町,下大多喜３２４５番地１オフィス９号,,12,441,2980202,スリランカ民主社会主義共和国、アンバテンテ、カハワッタ、Ｎｏ．５５／１／Ｇ,,,,,,2025-04-16,1,,,,,ハジヤラトレーデイングカンパニープライベートリミテツド,0
2711,9700150129972,新規,0,2025-04-16,2025-04-16,ＺＩＹＩ　Ｇｒｏｕｐ　ＨＫ　Ｌｉｍｉｔｅｄ,,外国会社等,,,,,,,,Ｓｕｉｔｅ　６０３，６／Ｆ，Ｌａｗｓ　Ｃｏｍｍｅｒｃｉａｌ　Ｐｌａｚａ７８８　Ｃｈｅｕｎｇ　Ｓｈａ　Ｗａｎ　Ｒｏａｄ，Ｋｏｗｌｏｏｎ　ＨＫ,,,,,,2025-04-16,1,,,,,ジイグループホンコンリミテツド,0
2712,9700150129980,新規,0,2025-04-16,2025-04-16,ＳＡＭＰＡＴＨ　ＬＡＮＫＡ　ＥＮＴＥＲＰＲＩＳＥＳ,,外国会社等,千葉県,千葉市花見川区,朝日ケ丘５丁目３４番９号オフィスＢ号,,12,102,2620019,スリランカ民主社会主義共和国、ゴール、マゲダラ、カルワラガッラ、Ｎｏ．３２１－Ｂ,,,,,,2025-04-16,1,,,,,サンパスランカエンタープライズ,0
