sequenceNumber,corporateNumber,process,correct,updateDate,changeDate,name,nameImageId,kind,prefectureName,cityName,streetNumber,addressImageId,prefectureCode,cityCode,postCode,addressOutside,addressOutsideImageId,closeDate,closeCause,successorCorporateNumber,changeCause,assignmentDate,latest,enName,enPrefectureName,enCityName,enAddressOutside,furigana,hihyoji
11,1010001233910,新規,0,2023-03-28,2023-03-28,Ｆｕｎ　Ｃｏｎｎｅｃｔ株式会社,,株式会社,東京都,千代田区,丸の内１丁目１１－１パシフィックセンチュリープレイス丸の内１３階,,13,101,1000005,,,,,,,2023-03-28,1,,,,,ファンコネクト,0
12,1010001234033,新規,0,2023-03-28,2023-03-28,ミライソフト株式会社,,株式会社,東京都,中央区,日本橋室町１丁目１１番１２号日本橋水野ビル７階,,13,102,1030022,,,,,,,2023-03-28,1,,,,,ミライソフト,0
13,1010003040165,新規,0,2023-03-28,2023-03-28,合同会社Ｇｒａｎｄｅ　Ｗａｌｌ,,合同会社,東京都,中央区,新川２丁目１５番５－１２０５号（コンフォリア新川）,,13,102,1040033,,,,,,,2023-03-28,1,,,,,グランデウォール,0
14,1010003040173,新規,0,2023-03-28,2023-03-28,合同会社Ｓｏｆｔ　Ｗｅａｖｅｒｓ,,合同会社,東京都,文京区,千石１丁目６番２４－８０８号,,13,105,1120011,,,,,,,2023-03-28,1,,,,,ソフトウィーバーズ,0
21,1010601062809,新規,0,2023-03-28,2023-03-28,株式会社ｓｉｃ　ｉｎｆｉｔ,,株式会社,東京都,墨田区,本所４丁目２６－１４－４０１,,13,107,1300004,,,,,,,2023-03-28,1,,,,,シックインフィット,0
22,1010601062825,新規,0,2023-03-28,2023-03-28,東京海伽生物科技株式会社,,株式会社,東京都,江東区,東砂５丁目５番６－４０２号,,13,108,1360074,,,,,,,2023-03-28,1,,,,,トウキョウカイカセイブツカギ,0
29,1010805003014,新規,0,2023-03-28,2023-03-28,一般社団法人フトゥーロ,,その他の設立登記法人,東京都,大田区,田園調布５丁目２０番６号田園調布テラスＢ棟,,13,111,1450071,,,,,,,2023-03-28,1,,,,,フトゥーロ,0
31,1010903008055,新規,0,2023-03-28,2023-03-28,合同会社ＯＮＥ,,合同会社,東京都,世田谷区,太子堂４丁目６番１８号ＡＫレジデンス三軒茶屋２０３,,13,112,1540004,,,,,,,2023-03-28,1,,,,,ワン,0
35,1011001153388,新規,0,2023-03-28,2023-03-28,アイデンティティー・パートナーズ株式会社,,株式会社,東京都,渋谷区,神宮前１丁目２０番１３号ディアテックビル２Ｆ,,13,113,1500001,,,,,,,2023-03-28,1,,,,,アイデンティティーパートナーズ,0
36,1011003016535,新規,0,2023-03-28,2023-03-28,合同会社ＥｘＯＲ,,合同会社,東京都,渋谷区,神泉町１０番１５号,,13,113,1500045,,,,,,,2023-03-28,1,,,,,エクスオア,0
39,1011101102311,新規,0,2023-03-28,2023-03-28,洋程株式会社,,株式会社,東京都,新宿区,大久保１丁目２番１号天翔東新宿ビル５階５０５号室,,13,104,1690072,,,,,,,2023-03-28,1,,,,,ヨウテイ,0
41,1011103012863,新規,0,2023-03-28,2023-03-28,合同会社ブルースビート,,合同会社,東京都,新宿区,西新宿７丁目１番７号新宿ダイカンプラザＡ１０１８,,13,104,1600023,,,,,,,2023-03-28,1,,,,,ブルースビート,0
47,1011501029088,新規,0,2023-03-28,2023-03-28,優墨国際株式会社,,株式会社,東京都,荒川区,東日暮里２丁目２１－７,,13,118,1160014,,,,,,,2023-03-28,1,,,,,ユウコクコクサイ,0
53,1012403005904,新規,0,2023-03-28,2023-03-28,合同会社食農連携ネットワーク,,合同会社,東京都,調布市,深大寺元町２丁目９番１号,,13,208,1820017,,,,,,,2023-03-28,1,,,,,ショクノウレンケイネットワーク,0
62,1020001150799,新規,0,2023-03-28,2023-03-28,株式会社Ｏｆｆｉｃｅ．ＨＭ,,株式会社,神奈川県,横浜市神奈川区,片倉１丁目１４番１９号,,14,102,2210865,,,,,,,2023-03-28,1,,,,,オフィスエイチエム,0
63,1020001150816,新規,0,2023-03-28,2023-03-28,株式会社エスプリドゥクルール,,株式会社,神奈川県,横浜市西区,北幸２丁目１０番地２８むつみビル３Ｆ,,14,103,2200004,,,,,,,2023-03-28,1,,,,,エスプリドゥクルール,0
73,1030001153009,新規,0,2023-03-28,2023-03-28,シナイ株式会社,,株式会社,埼玉県,八潮市,大字西袋６７７番地６－２０２号室,,11,234,3400833,,,,,,,2023-03-28,1,,,,,シナイ,0
74,1030001153041,新規,0,2023-03-28,2023-03-28,株式会社シュヴァルツ,,株式会社,埼玉県,さいたま市緑区,大字大門１２５２番地,,11,109,3360963,,,,,,,2023-03-28,1,,,,,シュヴァルツ,0
76,1030003021444,新規,0,2023-03-28,2023-03-28,合同会社ｅｆパートナーズ,,合同会社,埼玉県,さいたま市大宮区,桜木町２丁目７番１号,,11,103,3300854,,,,,,,2023-03-28,1,,,,,エフパートナーズ,0
81,1040001127671,新規,0,2023-03-28,2023-03-28,株式会社Ａｃｅ　Ａｄｖａｎｃｅ,,株式会社,千葉県,千葉市若葉区,加曽利町１７７２番地１,,12,104,2640017,,,,,,,2023-03-28,1,,,,,エースアドバンス,0
84,1040003022284,新規,0,2023-03-28,2023-03-28,合同会社Ｐｌａｎ　Ｎ,,合同会社,千葉県,松戸市,新松戸北１丁目５番地の１,,12,207,2700032,,,,,,,2023-03-28,1,,,,,プランエヌ,0
96,1060003004479,新規,0,2023-03-28,2023-03-28,合同会社ＲＲＡサービス,,合同会社,栃木県,佐野市,赤見町１６６７番地３,,09,204,3270104,,,,,,,2023-03-28,1,,,,,アールアールエーサービス,0
97,1060003004495,新規,0,2023-03-28,2023-03-28,ＳＡＭＩＲＡ合同会社,,合同会社,栃木県,栃木市,薗部町１丁目１０番２８号,,09,203,3280074,,,,,,,2023-03-28,1,,,,,サミラ,0
100,1080101023866,新規,0,2023-03-28,2023-03-28,株式会社ディセントラライズドエンタープライズ,,株式会社,静岡県,沼津市,岡一色７５１‐１,,22,203,4100012,,,,,,,2023-03-28,1,,,,,ディセントラライズドエンタープライズ,0
103,1080401026395,新規,0,2023-03-28,2023-03-28,ゼロイチゼロ株式会社,,株式会社,静岡県,浜松市南区,鼡野町３００番地,,22,134,4300838,,,,,,,2023-03-28,1,,,,,ゼロイチゼロ,0
106,1100003006941,新規,0,2023-03-28,2023-03-28,カキサキ商事合同会社,,合同会社,長野県,東御市,常田９００番地１,,20,219,3890515,,,,,,,2023-03-28,1,,,,,カキサキショウジ,0
114,1120001253518,新規,0,2023-03-28,2023-03-28,千富株式会社,,株式会社,大阪府,大阪市住吉区,遠里小野７丁目７番２号,,27,120,5580032,,,,,,,2023-03-28,1,,,,,チトミ,0
115,1120001253542,新規,0,2023-03-28,2023-03-28,象山株式会社,,株式会社,大阪府,大阪市淀川区,東三国１丁目３２－１２－２階,,27,123,5320002,,,,,,,2023-03-28,1,,,,,キサヤマ,0
117,1120003023720,新規,0,2023-03-28,2023-03-28,合同会社バックヤード,,合同会社,大阪府,大阪市淀川区,宮原５丁目３番２３－９０６号,,27,123,5320003,,,,,,,2023-03-28,1,,,,,バックヤード,0
124,1130001073931,新規,0,2023-03-28,2023-03-28,株式会社ｃｈｅｅｒｆｕｌ,,株式会社,京都府,長岡京市,下海印寺西条２６番地,,26,209,6170845,,,,,,,2023-03-28,1,,,,,チアフル,0
134,1160003002828,新規,0,2023-03-28,2023-03-28,松田工業合同会社,,合同会社,滋賀県,大津市,三大寺６番Ｃ－７０１号,,25,201,5202131,,,,,,,2023-03-28,1,,,,,マツダコウギョウ,0
140,1180001155519,新規,0,2023-03-28,2023-03-28,株式会社渡邊総合設備,,株式会社,愛知県,名古屋市昭和区,円上町２番２１号,,23,107,4660054,,,,,,,2023-03-28,1,,,,,ワタナベソウゴウセツビ,0
144,1180005020149,新規,0,2023-03-28,2023-03-28,医療法人えにし,,その他の設立登記法人,愛知県,名古屋市港区,港明１丁目１番２号メディカルビル１階,,23,111,4550018,,,,,,,2023-03-28,1,,,,,エニシ,0
145,1180301037227,新規,0,2023-03-28,2023-03-28,株式会社医食同源成都,,株式会社,愛知県,岡崎市,葵町２番地１,,23,202,4440913,,,,,,,2023-03-28,1,,,,,イショクドウゲンセイト,0
156,1200001041113,新規,0,2023-03-28,2023-03-28,株式会社北牧電気,,株式会社,岐阜県,岐阜市,岩崎１丁目９番２１号,,21,201,5020005,,,,,,,2023-03-28,1,,,,,キタマキデンキ,0
167,1240005015547,新規,0,2023-03-28,2023-03-28,一般社団法人ＫＳＫ,,その他の設立登記法人,広島県,広島市南区,元宇品町６番１２－２号,,34,103,7340012,,,,,,,2023-03-28,1,,,,,ケイエスケイ,0
192,1340003004079,新規,0,2023-03-28,2023-03-28,合同会社Ｌｉｔ＆Ｋｉｃｋ,,合同会社,鹿児島県,伊佐市,大口上町１５番地５鳥希ビル２Ｆ,,46,224,8952513,,,,,,,2023-03-28,1,,,,,リットアンドキック,0
193,1350001018253,新規,0,2023-03-28,2023-03-28,株式会社ゆきざき,,株式会社,宮崎県,宮崎市,橘通東５丁目４番１１号サーパス橘通東１５０１号,,45,201,8800805,,,,,,,2023-03-28,1,,,,,ユキザキ,0
195,1370001049750,新規,0,2023-03-28,2023-03-28,藤広工業株式会社,,株式会社,宮城県,多賀城市,新田字中４７番地の６,,04,209,9850854,,,,,,,2023-03-28,1,,,,,フジヒロコウギョウ,0
198,1380001033571,新規,0,2023-03-28,2023-03-28,株式会社アクター,,株式会社,福島県,双葉郡大熊町,大字下野上字金谷平５２６番地１,,07,545,9791308,,,,,,,2023-03-28,1,,,,,アクター,0
207,1470001019529,新規,0,2023-03-28,2023-03-28,株式会社ネオワイズ,,株式会社,香川県,観音寺市,柞田町甲２１６４番地１,,37,205,7680040,,,,,,,2023-03-28,1,,,,,ネオワイズ,0
208,1470003002375,新規,0,2023-03-28,2023-03-28,ＣＯＯＫ　ＢＯＸ合同会社,,合同会社,香川県,高松市,亀井町１１番３号江郷第一ビル２０２,,37,201,7600050,,,,,,,2023-03-28,1,,,,,クックボックス,0
217,2010001233959,新規,0,2023-03-28,2023-03-28,ＪＰＶ第１８号株式会社,,株式会社,東京都,千代田区,霞が関３丁目２番１号,,13,101,1000013,,,,,,,2023-03-28,1,,,,,ジェイピーブイダイジュウハチゴウ,0
218,2010001233983,新規,0,2023-03-28,2023-03-28,株式会社八隆,,株式会社,東京都,千代田区,神田東紺屋町２８番地,,13,101,1010034,,,,,,,2023-03-28,1,,,,,ハチリュウ,0
221,2010003040156,新規,0,2023-03-28,2023-03-28,合同会社クラフピー,,合同会社,東京都,中央区,新川２丁目１５番３号グラーサ東京イースト９０５,,13,102,1040033,,,,,,,2023-03-28,1,,,,,クラフピー,0
223,2010005036417,新規,0,2023-03-28,2023-03-28,一般社団法人あかり２号,,その他の設立登記法人,東京都,千代田区,平河町２丁目４番５号,,13,101,1020093,,,,,,,2023-03-28,1,,,,,アカリニゴウ,0
229,2010401173334,新規,0,2023-03-28,2023-03-28,株式会社ＭＯ,,株式会社,東京都,港区,西麻布４丁目１５番２－９０５号,,13,103,1060031,,,,,,,2023-03-28,1,,,,,エムオー,0
230,2010401173342,新規,0,2023-03-28,2023-03-28,ＯＩＬ株式会社,,株式会社,東京都,港区,白金５丁目６番１６号,,13,103,1080072,,,,,,,2023-03-28,1,,,,,オーアイエル,0
233,2010403029625,新規,0,2023-03-28,2023-03-28,合同会社どうぶつえん,,合同会社,東京都,港区,南青山２丁目２番１５号,,13,103,1070062,,,,,,,2023-03-28,1,,,,,ドウブツエン,0
235,2010405021943,新規,0,2023-03-28,2023-03-28,一般社団法人栄養まるごと推進委員会,,その他の設立登記法人,東京都,港区,浜松町２丁目２番１５号浜松町ダイヤビル２Ｆ,,13,103,1050013,,,,,,,2023-03-28,1,,,,,エイヨウマルゴトスイシンイインカイ,0
236,2010503006929,新規,0,2023-03-28,2023-03-28,モクノハコ合同会社,,合同会社,東京都,台東区,下谷１丁目５番２号,,13,106,1100004,,,,,,,2023-03-28,1,,,,,モクノハコ,0
237,2010601062816,新規,0,2023-03-28,2023-03-28,株式会社遇見,,株式会社,東京都,江東区,亀戸９丁目６番１９号,,13,108,1360071,,,,,,,2023-03-28,1,,,,,グウケン,0
238,2010601062824,新規,0,2023-03-28,2023-03-28,株式会社Ｂｒａｖｅ,,株式会社,東京都,江東区,大島１丁目３番１－２１３号,,13,108,1360072,,,,,,,2023-03-28,1,,,,,ブレイブ,0
239,2010701044037,新規,0,2023-03-28,2023-03-28,株式会社エルエムプランニング,,株式会社,東京都,品川区,南品川５丁目１１番４６－５１０号,,13,109,1400004,,,,,,,2023-03-28,1,,,,,エルエムプランニング,0
253,2011103012846,新規,0,2023-03-28,2023-03-28,Ｋ　Ｍ　Ａ　ＩＮＴＥＲＮＡＴＩＯＮＡＬ合同会社,,合同会社,東京都,新宿区,大久保２丁目８番８号パークサイド大升１０５,,13,104,1690072,,,,,,,2023-03-28,1,,,,,ケーエムエーインターナショナル,0
256,2011503005524,新規,0,2023-03-28,2023-03-28,ＧＩＡ　ＫＨＡＮＨ　ＭＯＢＩＬＥ合同会社,,合同会社,東京都,北区,赤羽３丁目３番３－２０３号ドミール赤羽,,13,117,1150045,,,,,,,2023-03-28,1,,,,,ザカインモバイ,0
278,2020001150815,新規,0,2023-03-28,2023-03-28,株式会社奏建,,株式会社,神奈川県,横浜市緑区,鴨居６丁目２４番１９号Ｂ１０１,,14,113,2260003,,,,,,,2023-03-28,1,,,,,ソウケン,0
279,2020001150823,新規,0,2023-03-28,2023-03-28,ＫＨ　ＳＴＵＤＩＯ株式会社,,株式会社,神奈川県,横浜市鶴見区,馬場４丁目２１番２１号,,14,101,2300076,,,,,,,2023-03-28,1,,,,,ケイエイチスタジオ,0
280,2020001150831,新規,0,2023-03-28,2023-03-28,株式会社サントー,,株式会社,神奈川県,川崎市川崎区,渡田東町１７番５号ドミールマンション２０１,,14,131,2100842,,,,,,,2023-03-28,1,,,,,サントー,0
295,2030001153008,新規,0,2023-03-28,2023-03-28,ワールドサイ株式会社,,株式会社,埼玉県,八潮市,大字西袋６７７番地６－２０３号室,,11,234,3400833,,,,,,,2023-03-28,1,,,,,ワールドサイ,0
300,2040001127679,新規,0,2023-03-28,2023-03-28,株式会社白企画,,株式会社,千葉県,市川市,市川南１丁目１番８－１００７号（市川サンハイツ）,,12,203,2720033,,,,,,,2023-03-28,1,,,,,シロキカク,0
301,2040001127695,新規,0,2023-03-28,2023-03-28,株式会社ＯＮ　ＤＯＣＫ,,株式会社,千葉県,市川市,市川４丁目４番２２号日神パレステージ市川１０４,,12,203,2720034,,,,,,,2023-03-28,1,,,,,オンドック,0
302,2040003022283,新規,0,2023-03-28,2023-03-28,合同会社ＣＲＥＣＥＲＡ,,合同会社,千葉県,市川市,八幡２丁目９番１５号,,12,203,2720021,,,,,,,2023-03-28,1,,,,,クレセーラ,0
304,2050001052579,新規,0,2023-03-28,2023-03-28,ＳｋｙＺｅｎ株式会社,,株式会社,茨城県,つくば市,みどりの南３番地１１３,,08,220,3050884,,,,,,,2023-03-28,1,,,,,スカイゼン,0
307,2050003007358,新規,0,2023-03-28,2023-03-28,農業法人輝斗合同会社,,合同会社,茨城県,坂東市,逆井３５３８番地１,,08,228,3060501,,,,,,,2023-03-28,1,,,,,ノウギョウホウジンキラト,0
319,2090001018031,新規,0,2023-03-28,2023-03-28,ほしや株式会社,,株式会社,山梨県,都留市,田野倉１５２６番地,,19,204,4020001,,,,,,,2023-03-28,1,,,,,ホシヤ,0
333,2120001253442,新規,0,2023-03-28,2023-03-28,株式会社ＨＹ,,株式会社,大阪府,大阪市阿倍野区,美章園２丁目１３番１号,,27,119,5450003,,,,,,,2023-03-28,1,,,,,エイチワイ,0
337,2120003023694,新規,0,2023-03-28,2023-03-28,合同会社ねこのて,,合同会社,大阪府,大阪市阿倍野区,昭和町１丁目９番１７－１０２号,,27,119,5450011,,,,,,,2023-03-28,1,,,,,ネコノテ,0
340,2120101067197,新規,0,2023-03-28,2023-03-28,株式会社メディカルサポート,,株式会社,大阪府,堺市東区,菩提町１丁２６番６号,,27,143,5998103,,,,,,,2023-03-28,1,,,,,メディカルサポート,0
343,2122003002546,新規,0,2023-03-28,2023-03-28,合同会社信貴,,合同会社,大阪府,八尾市,大字垣内４１７番地の１,,27,212,5810881,,,,,,,2023-03-28,1,,,,,シギ,0
357,2140001129517,新規,0,2023-03-28,2023-03-28,株式会社Ｒａｄｉａｒｃ,,株式会社,兵庫県,神戸市東灘区,魚崎南町３丁目２－３,,28,101,6580025,,,,,,,2023-03-28,1,,,,,ラディアーク,0
360,2160003002827,新規,0,2023-03-28,2023-03-28,合同会社コアホーム,,合同会社,滋賀県,東近江市,佐野町５９１番地７,,25,213,5211222,,,,,,,2023-03-28,1,,,,,コアホーム,0
366,2180001155484,新規,0,2023-03-28,2023-03-28,株式会社フェニックス,,株式会社,愛知県,名古屋市北区,東味鋺３丁目８１５番地,,23,103,4620013,,,,,,,2023-03-28,1,,,,,フェニックス,0
373,2180003024729,新規,0,2023-03-28,2023-03-28,合同会社やっていき,,合同会社,愛知県,春日井市,堀ノ内町５丁目９番地６,,23,206,4860829,,,,,,,2023-03-28,1,,,,,ヤッテイキ,0
374,2180003025025,新規,0,2023-03-28,2023-03-28,合同会社トラストオート,,合同会社,愛知県,名古屋市中川区,東起町５丁目２２番地の１２,,23,110,4540935,,,,,,,2023-03-28,1,,,,,トラストオート,0
376,2180005020148,新規,0,2023-03-28,2023-03-28,一般社団法人ジモートアート,,その他の設立登記法人,愛知県,尾張旭市,東印場町３丁目８番地６,,23,226,4880830,,,,,,,2023-03-28,1,,,,,ジモートアート,0
386,2200001041104,新規,0,2023-03-28,2023-03-28,株式会社サポートプラス櫻桃,,株式会社,岐阜県,瑞浪市,稲津町小里１１８０番地の１,,21,208,5096103,,,,,,,2023-03-28,1,,,,,サポートプラスサクランボ,0
398,2290001100999,新規,0,2023-03-28,2023-03-28,株式会社Ｆｉｒｓｔ　Ｓｔｅｐ,,株式会社,福岡県,福岡市早良区,弥生２丁目３番７－１０２号,,40,137,8140014,,,,,,,2023-03-28,1,,,,,ファーストステップ,0
409,2350001018252,新規,0,2023-03-28,2023-03-28,株式会社ｍｏｎｅｙ　ｌａｂｏ,,株式会社,宮崎県,都城市,鷹尾１丁目１２－６,,45,202,8850081,,,,,,,2023-03-28,1,,,,,マネーラボ,0
426,2460005001565,新規,0,2023-03-28,2023-03-28,司法書士法人アールズ綜合法務事務所,,その他の設立登記法人,北海道,釧路郡釧路町,東陽西１丁目９番地１２,,01,661,0880627,,,,,,,2023-03-28,1,,,,,アールズソウゴウホウムジムショ,0
432,2480003001953,新規,0,2023-03-28,2023-03-28,合同会社ＨＡＮ,,合同会社,徳島県,阿南市,那賀川町工地１１３番地２,,36,204,7791236,,,,,,,2023-03-28,1,,,,,エイチエイエヌ,0
440,3010001233958,新規,0,2023-03-28,2023-03-28,ＪＰＶ第１７号株式会社,,株式会社,東京都,千代田区,霞が関３丁目２番１号,,13,101,1000013,,,,,,,2023-03-28,1,,,,,ジェイピーブイダイジュウナナゴウ,0
441,3010001233966,新規,0,2023-03-28,2023-03-28,ドクターズレシピ株式会社,,株式会社,東京都,中央区,銀座１丁目２３番２号ＧＩＮＺＡ上野ビル３階,,13,102,1040061,,,,,,,2023-03-28,1,,,,,ドクターズレシピ,0
442,3010001234007,新規,0,2023-03-28,2023-03-28,株式会社ロクレン,,株式会社,東京都,中央区,銀座１丁目２２番１１号銀座大竹ビジデンス２Ｆ,,13,102,1040061,,,,,,,2023-03-28,1,,,,,ロクレン,0
443,3010003040155,新規,0,2023-03-28,2023-03-28,ＪＰＬファンズ合同会社,,合同会社,東京都,千代田区,霞が関３丁目２番１号,,13,101,1000013,,,,,,,2023-03-28,1,,,,,ジェイピーエルファンズ,0
450,3010401173325,新規,0,2023-03-28,2023-03-28,ＪＡＣＯＭＥ株式会社,,株式会社,東京都,港区,六本木７丁目７番７号トライセブンロッポンギ８階,,13,103,1060032,,,,,,,2023-03-28,1,,,,,ジェイコム,0
451,3010401173341,新規,0,2023-03-28,2023-03-28,ＰＪ　Ｏｒａｎｇｅ株式会社,,株式会社,東京都,港区,赤坂９丁目４番１号パークコート赤坂檜町ザタワー４００３号,,13,103,1070052,,,,,,,2023-03-28,1,,,,,ピージェーオレンジ,0
456,3010501050201,新規,0,2023-03-28,2023-03-28,株式会社ハルカ岩手,,株式会社,東京都,台東区,浅草橋１丁目９番１２号,,13,106,1110053,,,,,,,2023-03-28,1,,,,,ハルカイワテ,0
461,3010703006604,新規,0,2023-03-28,2023-03-28,合同会社ＴＥＲＲＹＩＯ,,合同会社,東京都,品川区,北品川３丁目１番１－３０２号,,13,109,1400001,,,,,,,2023-03-28,1,,,,,テリーアイオー,0
474,3011001153205,新規,0,2023-03-28,2023-03-28,株式会社ホームライフ,,株式会社,東京都,渋谷区,道玄坂１丁目１０番８号渋谷道玄坂東急ビル２Ｆ－Ｃ,,13,113,1500043,,,,,,,2023-03-28,1,,,,,ホームライフ,0
480,3011101102284,新規,0,2023-03-28,2023-03-28,株式会社ｓｃａｐｅ,,株式会社,東京都,新宿区,南元町４番地２０信濃町マンション３Ｆ３６号,,13,104,1600012,,,,,,,2023-03-28,1,,,,,スケープ,0
481,3011101102301,新規,0,2023-03-28,2023-03-28,株式会社ＨＯＶＥ,,株式会社,東京都,新宿区,新宿１丁目２８番１７－１３０５号,,13,104,1600022,,,,,,,2023-03-28,1,,,,,ハブ,0
484,3011103012861,新規,0,2023-03-28,2023-03-28,合同会社３ＸＭ　ＣＯＮＴＲＯＬ,,合同会社,東京都,新宿区,東榎町４番地２,,13,104,1620807,,,,,,,2023-03-28,1,,,,,スリーエックスエムコントロール,0
491,3011503005531,新規,0,2023-03-28,2023-03-28,合同会社バッカス,,合同会社,東京都,北区,王子５丁目２番１０号－５０４,,13,117,1140002,,,,,,,2023-03-28,1,,,,,バッカス,0
503,3012401040323,新規,0,2023-03-28,2023-03-28,株式会社グローバルステップ,,株式会社,東京都,武蔵野市,境南町２丁目１１番２２号,,13,203,1800023,,,,,,,2023-03-28,1,,,,,グローバルステップ,0
504,3012403005893,新規,0,2023-03-28,2023-03-28,合同会社Ｐ‐ＮＥＴ,,合同会社,東京都,府中市,府中町２丁目８番地の２ローゼンハイム６０１,,13,206,1830055,,,,,,,2023-03-28,1,,,,,ピーネット,0
518,3020001150814,新規,0,2023-03-28,2023-03-28,ＣＬＡＩＭＡＸ株式会社,,株式会社,神奈川県,横浜市中区,寿町１丁目３番地８グランネス横濱公園６０８,,14,104,2310026,,,,,,,2023-03-28,1,,,,,クライマックス,0
527,3030001152990,新規,0,2023-03-28,2023-03-28,リサードキャピタル株式会社,,株式会社,埼玉県,飯能市,柳町２６－２、６０１室,,11,209,3570035,,,,,,,2023-03-28,1,,,,,リサードキャピタル,0
529,3030003021368,新規,0,2023-03-28,2023-03-28,合同会社Ｓｅｖｅｎ　Ｓｅａｓ,,合同会社,埼玉県,比企郡小川町,大字角山２１４番地２,,11,343,3550316,,,,,,,2023-03-28,1,,,,,セブンシーズ,0
530,3030003021442,新規,0,2023-03-28,2023-03-28,合同会社とらじん,,合同会社,埼玉県,上尾市,仲町１丁目７番２７号アークエムビル７Ｆ,,11,219,3620035,,,,,,,2023-03-28,1,,,,,トラジン,0
531,3040001127686,新規,0,2023-03-28,2023-03-28,株式会社ＧＭＣ,,株式会社,千葉県,千葉市稲毛区,天台２丁目１５－８,,12,103,2630016,,,,,,,2023-03-28,1,,,,,ジーエムシー,0
546,3080001025531,新規,0,2023-03-28,2023-03-28,株式会社Ｗｅａｌｔｈｏｎ,,株式会社,静岡県,静岡市葵区,東１丁目２１番３７号,,22,101,4200962,,,,,,,2023-03-28,1,,,,,ウェルソン,0
549,3080401026393,新規,0,2023-03-28,2023-03-28,株式会社ＣＯＲＤＡ・ＭＯＴＯ,,株式会社,静岡県,磐田市,緑ケ丘２２番２０号,,22,211,4380081,,,,,,,2023-03-28,1,,,,,コルダモト,0
552,3100001036253,新規,0,2023-03-28,2023-03-28,株式会社コンフィアンス,,株式会社,長野県,中野市,大字岩船４４０番地４,,20,211,3830041,,,,,,,2023-03-28,1,,,,,コンフィアンス,0
554,3110001037390,新規,0,2023-03-28,2023-03-28,株式会社レイヤー・ミックス,,株式会社,新潟県,新潟市中央区,東幸町１５－１５東亜堂ビル２階,,15,103,9500906,,,,,,,2023-03-28,1,,,,,レイヤーミックス,0
563,3120001253557,新規,0,2023-03-28,2023-03-28,大阪プロパティ・アイ株式会社,,株式会社,大阪府,大阪市東淀川区,大桐４丁目４番６７－Ａ１００８号,,27,114,5330011,,,,,,,2023-03-28,1,,,,,,0
566,3122001036826,新規,0,2023-03-28,2023-03-28,アサヒアセット株式会社,,株式会社,大阪府,八尾市,太田９丁目３７番地,,27,212,5810037,,,,,,,2023-03-28,1,,,,,アサヒアセット,0
584,3140003018881,新規,0,2023-03-28,2023-03-28,合同会社コルボ,,合同会社,兵庫県,西宮市,松並町１４番３－２０３号,,28,204,6638102,,,,,,,2023-03-28,1,,,,,コルボ,0
596,3180001155509,新規,0,2023-03-28,2023-03-28,ＡＵＮ　ＴＲＡＤＩＮＧ株式会社,,株式会社,愛知県,小牧市,大字大草５７８６番地１４,,23,219,4850802,,,,,,,2023-03-28,1,,,,,アウントレーディング,0
599,3180003025024,新規,0,2023-03-28,2023-03-28,合同会社南谷,,合同会社,愛知県,知多郡阿久比町,大字草木字東郷２番地,,23,441,4702211,,,,,,,2023-03-28,1,,,,,ミナミタニ,0
603,3180301037209,新規,0,2023-03-28,2023-03-28,ナチュラルホーム株式会社,,株式会社,愛知県,豊橋市,牟呂外神町９番地２,,23,201,4418092,,,,,,,2023-03-28,1,,,,,ナチュラルホーム,0
604,3190001030272,新規,0,2023-03-28,2023-03-28,ＧＲＥＥＮ　ＧＡＴＥ株式会社,,株式会社,三重県,桑名市,大字筑紫６９９－８,,24,205,5110945,,,,,,,2023-03-28,1,,,,,グリーンゲート,0
610,3220003003479,新規,0,2023-03-28,2023-03-28,あい縄文合同会社,,合同会社,石川県,金沢市,増泉１丁目４番１９号,,17,201,9218025,,,,,,,2023-03-28,1,,,,,アイジョウモン,0
615,3240005015545,新規,0,2023-03-28,2023-03-28,蓮華院金剛寺,,その他の設立登記法人,広島県,広島市中区,上幟町１０番７号,,34,101,7300014,,,,,,,2023-03-28,1,,,,,レンゲインコンゴウジ,0
617,3260001037764,新規,0,2023-03-28,2023-03-28,株式会社はたともこ,,株式会社,岡山県,浅口市,金光町占見新田４５５番地３アフルエント多々野,,33,216,7190104,,,,,,,2023-03-28,1,,,,,ハタトモコ,0
619,3260005011204,新規,0,2023-03-28,2023-03-28,医療法人社団ＩＥＲ,,その他の設立登記法人,岡山県,岡山市北区,津島京町１丁目５０番地１,,33,101,7000087,,,,,,,2023-03-28,1,,,,,アイイーアール,0
622,3290001100973,新規,0,2023-03-28,2023-03-28,２２ＧＬＯＢＡＬ株式会社,,株式会社,福岡県,福岡市中央区,赤坂３丁目１３番３号,,40,133,8100042,,,,,,,2023-03-28,1,,,,,ニーニーグローバル,0
623,3290001101006,新規,0,2023-03-28,2023-03-28,株式会社みずほリアリティ,,株式会社,福岡県,福岡市南区,高宮４丁目９番２４号,,40,134,8150083,,,,,,,2023-03-28,1,,,,,ミズホリアリティ,0
624,3290003013711,新規,0,2023-03-28,2023-03-28,合同会社Ｇ　ＴＨＲＥＥ,,合同会社,福岡県,福岡市博多区,中洲４丁目２番１４号グラン中洲ビル８Ｆ,,40,132,8100801,,,,,,,2023-03-28,1,,,,,ジースリー,0
627,3290801020099,新規,0,2023-03-28,2023-03-28,株式会社三友商会,,株式会社,福岡県,北九州市小倉北区,木町２丁目６５９番地,,40,106,8030851,,,,,,,2023-03-28,1,,,,,サンユウショウカイ,0
653,3430001088716,新規,0,2023-03-28,2023-03-28,株式会社ヒデホーム,,株式会社,北海道,札幌市北区,篠路五条２丁目３番３３号,,01,102,0028025,,,,,,,2023-03-28,1,,,,,ヒデホーム,0
654,3460001005783,新規,0,2023-03-28,2023-03-28,株式会社ＮＯＷ,,株式会社,北海道,釧路市,堀川町８番４９号ドリームメッセ２０３号室,,01,206,0850007,,,,,,,2023-03-28,1,,,,,ナウ,0
660,4010001233957,新規,0,2023-03-28,2023-03-28,ＪＰＶ第１６号株式会社,,株式会社,東京都,千代田区,霞が関３丁目２番１号,,13,101,1000013,,,,,,,2023-03-28,1,,,,,ジェイピーブイダイジュウロクゴウ,0
661,4010001233981,新規,0,2023-03-28,2023-03-28,株式会社ＮＥＲＩＥ,,株式会社,東京都,中央区,銀座２丁目８番１７号ハビウル銀座ＩＩ５階,00129878,13,102,1040061,,,,,,,2023-03-28,1,,,,,ネリー,0
662,4010001234006,新規,0,2023-03-28,2023-03-28,株式会社ＭＡＨＫＹ,,株式会社,東京都,中央区,日本橋小網町７－８日本橋ウィンテルビル５Ｆ,,13,102,1030016,,,,,,,2023-03-28,1,,,,,マーキー,0
663,4010003040121,新規,0,2023-03-28,2023-03-28,ＨＡＰ合同会社,,合同会社,東京都,中央区,日本橋浜町３丁目１９番４号ＷＡＶＥＳ日本橋浜町１１０４号,,13,102,1030007,,,,,,,2023-03-28,1,,,,,ハップ,0
664,4010003040162,新規,0,2023-03-28,2023-03-28,アジアワークケア合同会社,,合同会社,東京都,中央区,銀座１丁目２２番１１号銀座大竹ビジデンス２Ｆ,,13,102,1040061,,,,,,,2023-03-28,1,,,,,アジアワークケア,0
665,4010005036316,新規,0,2023-03-28,2023-03-28,一般社団法人日本養殖魚類輸出推進協会,,その他の設立登記法人,東京都,中央区,新川１丁目２７番８号,,13,102,1040033,,,,,,,2023-03-28,1,,,,,ニホンヨウショクギョルイユシュツスイシンキョウカイ,0
678,4010505003393,新規,0,2023-03-28,2023-03-28,一般社団法人ドクターライフ協会,,その他の設立登記法人,東京都,台東区,谷中３丁目２４番４号,,13,106,1100001,,,,,,,2023-03-28,1,,,,,ドクターライフキョウカイ,0
680,4010601062814,新規,0,2023-03-28,2023-03-28,株式会社Ｉ‐ＡＢＣ,,株式会社,東京都,江東区,東雲１丁目９－３１－７０８,,13,108,1350062,,,,,,,2023-03-28,1,,,,,アイエービーシー,0
681,4010701044035,新規,0,2023-03-28,2023-03-28,株式会社ケー・エー・エム,,株式会社,東京都,品川区,大崎１丁目１番１－２２０１号,,13,109,1410032,,,,,,,2023-03-28,1,,,,,ケーエーエム,0
691,4011001153286,新規,0,2023-03-28,2023-03-28,株式会社アイエスオー,,株式会社,東京都,渋谷区,神宮前６丁目２３番４号桑野ビル２階,,13,113,1500001,,,,,,,2023-03-28,1,,,,,アイエスオー,0
697,4011101102300,新規,0,2023-03-28,2023-03-28,株式会社ＩＰＰＩＮ’ｓ,,株式会社,東京都,新宿区,新宿３丁目５－６,,13,104,1600022,,,,,,,2023-03-28,1,,,,,イッピンズ,0
700,4011103012844,新規,0,2023-03-28,2023-03-28,ＬＩＮＫ‐Ｃ総合合同会社,,合同会社,東京都,新宿区,榎町３４－３榎町ビル７階－１２室,,13,104,1620806,,,,,,,2023-03-28,1,,,,,リンクシーソウゴウ,0
711,4011801042143,新規,0,2023-03-28,2023-03-28,株式会社イーグルスＭＯＤＥＬ,,株式会社,東京都,葛飾区,亀有４丁目５－１２橋川ビル４０２,,13,122,1250061,,,,,,,2023-03-28,1,,,,,イーグルスモデル,0
719,4020001150788,新規,0,2023-03-28,2023-03-28,喜至納株式会社,,株式会社,神奈川県,川崎市川崎区,小川町１６－１７ＭＦプラザ５０７,,14,131,2100023,,,,,,,2023-03-28,1,,,,,キシノ,0
720,4020001150821,新規,0,2023-03-28,2023-03-28,株式会社和誠,,株式会社,神奈川県,横浜市旭区,中希望が丘１０６番地１２ＫＫビル希望ヶ丘３０２号室,,14,112,2410825,,,,,,,2023-03-28,1,,,,,ワセイ,0
722,4020003023587,新規,0,2023-03-28,2023-03-28,合同会社エアークラフトシステム,,合同会社,神奈川県,横浜市鶴見区,馬場４丁目３１番８号コーポ佐野１０２,,14,101,2300076,,,,,,,2023-03-28,1,,,,,エアークラフトシステム,0
732,4030001153022,新規,0,2023-03-28,2023-03-28,株式会社インタースタッフ,,株式会社,埼玉県,所沢市,くすのき台１丁目１３番地の２ガーデンシティ所沢２Ｆ,,11,208,3590037,,,,,,,2023-03-28,1,,,,,インタースタッフ,0
734,4030003021433,新規,0,2023-03-28,2023-03-28,合同会社ロジカルライティング研究室,,合同会社,埼玉県,さいたま市大宮区,桜木町２丁目３番地大宮マルイ７階,,11,103,3300854,,,,,,,2023-03-28,1,,,,,ロジカルライティングケンキュウシツ,0
738,4040001127685,新規,0,2023-03-28,2023-03-28,株式会社ＣＢＣオータム,,株式会社,千葉県,君津市,下湯江５４３番地２,,12,225,2991131,,,,,,,2023-03-28,1,,,,,シービーシーオータム,0
742,4040003022281,新規,0,2023-03-28,2023-03-28,合同会社ネクシル,,合同会社,千葉県,船橋市,高根台５丁目１番２７２棟１０３号,,12,204,2740065,,,,,,,2023-03-28,1,,,,,ネクシル,0
743,4040005021942,新規,0,2023-03-28,2023-03-28,一般社団法人日本アジア経済環境協力機構,,その他の設立登記法人,千葉県,松戸市,上本郷１４４４番地の６,,12,207,2710064,,,,,,,2023-03-28,1,,,,,ニホンアジアケイザイカンキョウキョウリョクキコウ,0
752,4080401026392,新規,0,2023-03-28,2023-03-28,カネジョウインターナショナル株式会社,,株式会社,静岡県,掛川市,上内田３５０番地の１,,22,213,4360012,,,,,,,2023-03-28,1,,,,,カネジョウインターナショナル,0
763,4120001253564,新規,0,2023-03-28,2023-03-28,株式会社アーチ,,株式会社,大阪府,大阪市西成区,松２丁目６番４０－５０５号,,27,122,5570034,,,,,,,2023-03-28,1,,,,,アーチ,0
769,4120103005120,新規,0,2023-03-28,2023-03-28,合同会社エクスプラウド,,合同会社,大阪府,泉佐野市,岡本２丁目２番１４－１０５号,,27,213,5980036,,,,,,,2023-03-28,1,,,,,エクスプラウド,0
773,4120901047314,新規,0,2023-03-28,2023-03-28,株式会社Ｏｓａｋａ　Ｆｏｏｄ　Ｔｏｕｒｓ,,株式会社,大阪府,豊中市,上新田４丁目２１番１０－２０１号,,27,203,5600085,,,,,,,2023-03-28,1,,,,,オオサカフードツアーズ,0
778,4122001036825,新規,0,2023-03-28,2023-03-28,株式会社Ｎ．ＴＥＣ,,株式会社,大阪府,八尾市,東山本新町８丁目９番３号,,27,212,5810866,,,,,,,2023-03-28,1,,,,,エヌテック,0
782,4130003008593,新規,0,2023-03-28,2023-03-28,Ｊｉａｙｕａｎ　Ｐｒｏｐｅｒｔｙ合同会社,,合同会社,京都府,京都市右京区,北嵯峨北ノ段町１１番地１,,26,108,6168441,,,,,,,2023-03-28,1,,,,,ジアユエンプロパティー,0
803,4180001155490,新規,0,2023-03-28,2023-03-28,株式会社Ｆ＆Ｆｏｒ,,株式会社,愛知県,名古屋市千種区,今池３丁目４１番１６号,,23,101,4640850,,,,,,,2023-03-28,1,,,,,エフアンドフォー,0
806,4180003025031,新規,0,2023-03-28,2023-03-28,ＢＹ　ＹＯＵＲ　ＳＩＤＥ合同会社,,合同会社,愛知県,春日井市,大泉寺町３９９番地５,,23,206,4860812,,,,,,,2023-03-28,1,,,,,バイユアサイド,0
812,4180301037232,新規,0,2023-03-28,2023-03-28,株式会社博軒商事,,株式会社,愛知県,豊田市,高岡本町中部３５２番地３,,23,211,4730922,,,,,,,2023-03-28,1,,,,,ハクケンショウジ,0
818,4220001025326,新規,0,2023-03-28,2023-03-28,ＴＨＮ株式会社,,株式会社,石川県,金沢市,泉３丁目１番６号,,17,201,9218041,,,,,,,2023-03-28,1,,,,,ティエイチエヌ,0
819,4220003003478,新規,0,2023-03-28,2023-03-28,長崎農産合同会社,,合同会社,石川県,七尾市,能登島長崎町し部４番地,,17,202,9260204,,,,,,,2023-03-28,1,,,,,ナガサキノウサン,0
834,4290001100989,新規,0,2023-03-28,2023-03-28,株式会社Ｌｉｇｈｔ,,株式会社,福岡県,福岡市博多区,中洲２丁目２番１０－７０１号,,40,132,8100801,,,,,,,2023-03-28,1,,,,,ライト,0
835,4290001100997,新規,0,2023-03-28,2023-03-28,株式会社シード＆フィールド,,株式会社,福岡県,福岡市東区,舞松原５丁目８番４号,,40,131,8130042,,,,,,,2023-03-28,1,,,,,シードアンドフィールド,0
849,4360001031756,新規,0,2023-03-28,2023-03-28,志喜屋アイファーム株式会社,,株式会社,沖縄県,南城市,知念字志喜屋２１９番地,,47,215,9011516,,,,,,,2023-03-28,1,,,,,シキヤアイファーム,0
855,4390003002067,新規,0,2023-03-28,2023-03-28,合同会社Ｍｉｎｉｍａｌ　Ｈａｔｓ,,合同会社,山形県,天童市,大字高擶２０１８,,06,210,9940068,,,,,,,2023-03-28,1,,,,,ミニマルハッツ,0
862,4430001088707,新規,0,2023-03-28,2023-03-28,山鼻企業株式会社,,株式会社,北海道,札幌市中央区,南九条西８丁目２番１１号,,01,101,0640809,,,,,,,2023-03-28,1,,,,,ヤマハナキギョウ,0
879,5010001233931,新規,0,2023-03-28,2023-03-28,トミテックジャパン株式会社,,株式会社,東京都,千代田区,神田佐久間町１丁目８－４アルテール秋葉原７０８号室,,13,101,1010025,,,,,,,2023-03-28,1,,,,,トミテックジャパン,0
880,5010001233956,新規,0,2023-03-28,2023-03-28,ＪＰＶ第１５号株式会社,,株式会社,東京都,千代田区,霞が関３丁目２番１号,,13,101,1000013,,,,,,,2023-03-28,1,,,,,ジェイピーブイダイジュウゴゴウ,0
881,5010001233972,新規,0,2023-03-28,2023-03-28,株式会社キャロル,,株式会社,東京都,千代田区,外神田２丁目８番１１号,,13,101,1010021,,,,,,,2023-03-28,1,,,,,キャロル,0
882,5010001234013,新規,0,2023-03-28,2023-03-28,株式会社ｍｏｎｏｎａｗａｒｅ,,株式会社,東京都,文京区,弥生２丁目２０番８－１０１号,,13,105,1130032,,,,,,,2023-03-28,1,,,,,モノノアワレ,0
888,5010401173372,新規,0,2023-03-28,2023-03-28,竹芝準備３号株式会社,,株式会社,東京都,港区,海岸１丁目７番１号,,13,103,1050022,,,,,,,2023-03-28,1,,,,,タケシバジュンビサンゴウ,0
891,5010403029795,新規,0,2023-03-28,2023-03-28,ＡＩ　Ｊａｐａｎ　ＲＥ　Ｏｐｐｏｒｔｕｎｉｔｉｅｓ　ＩＩＩ合同会社,,合同会社,東京都,港区,六本木１丁目６番１号泉ガーデンタワー,,13,103,1060032,,,,,,,2023-03-28,1,,,,,エーアイジャパンアールイーオポチュニティーズスリー,0
894,5010703006635,新規,0,2023-03-28,2023-03-28,合同会社ディーエスプランニング,,合同会社,東京都,品川区,豊町６丁目２２－１３,,13,109,1420042,,,,,,,2023-03-28,1,,,,,ディーエスプランニング,0
905,5011001153327,新規,0,2023-03-28,2023-03-28,株式会社ＣＯＮＮＥＣＴ,,株式会社,東京都,目黒区,平町２丁目１４番６号,,13,110,1520032,,,,,,,2023-03-28,1,,,,,コネクト,0
909,5011005010004,新規,0,2023-03-28,2023-03-28,医療法人社団菊栄会,,その他の設立登記法人,東京都,目黒区,下目黒２丁目２１番２３号４階,,13,110,1530064,,,,,,,2023-03-28,1,,,,,キクエイカイ,0
910,5011101102308,新規,0,2023-03-28,2023-03-28,株式会社マスプラス,,株式会社,東京都,新宿区,大久保１丁目１６番１６－７０２号,,13,104,1690072,,,,,,,2023-03-28,1,,,,,マスプラス,0
914,5011103012868,新規,0,2023-03-28,2023-03-28,テトリシア合同会社,,合同会社,東京都,新宿区,高田馬場３丁目４番１４号ドムススタイル高田馬場１００３号室,,13,104,1690075,,,,,,,2023-03-28,1,,,,,テトリシア,0
922,5011801042142,新規,0,2023-03-28,2023-03-28,株式会社Ｖｉａｊｅｒａｓ,,株式会社,東京都,足立区,西竹の塚１丁目１１番２－２００６号,,13,121,1210822,,,,,,,2023-03-28,1,,,,,ビアヘーラス,0
934,5020003023586,新規,0,2023-03-28,2023-03-28,合同会社エムズ,,合同会社,神奈川県,川崎市川崎区,本町２丁目６－５－１０３,,14,131,2100001,,,,,,,2023-03-28,1,,,,,エムズ,0
935,5020005015904,新規,0,2023-03-28,2023-03-28,ＮＰＯ法人ビッグハーツ,,その他の設立登記法人,神奈川県,川崎市川崎区,港町５番２－１０１３号,,14,131,2100807,,,,,,,2023-03-28,1,,,,,ビッグハーツ,0
939,5021003012876,新規,0,2023-03-28,2023-03-28,合同会社ＨｉｋａｒｉＳｐｅｅｄ,,合同会社,神奈川県,逗子市,小坪１丁目１９番３７号,,14,208,2490008,,,,,,,2023-03-28,1,,,,,ヒカリスピード,0
944,5030001153046,新規,0,2023-03-28,2023-03-28,オクト株式会社,,株式会社,埼玉県,飯能市,大字大河原１３０番地２,,11,209,3570065,,,,,,,2023-03-28,1,,,,,オクト,0
946,5030003021432,新規,0,2023-03-28,2023-03-28,合同会社ＢＡＳＴＥＴ,,合同会社,埼玉県,草加市,栄町３丁目１番３１－９０３号,,11,221,3400011,,,,,,,2023-03-28,1,,,,,バステト,0
950,5040001127676,新規,0,2023-03-28,2023-03-28,済美ワークス株式会社,,株式会社,千葉県,市川市,東菅野２丁目２２番１０号,,12,203,2720823,,,,,,,2023-03-28,1,,,,,サイビワークス,0
953,5040003022140,新規,0,2023-03-28,2023-03-28,合同会社Ａｃｔｉｏｎｉｎｇ,,合同会社,千葉県,野田市,山崎新町１３番地の３,,12,208,2780029,,,,,,,2023-03-28,1,,,,,アクショニング,0
954,5040003022256,新規,0,2023-03-28,2023-03-28,ｃｕｓｔｒｅｉｓｍ合同会社,,合同会社,千葉県,鎌ケ谷市,くぬぎ山１丁目１３番１４号,,12,224,2730128,,,,,,,2023-03-28,1,,,,,カスタリズム,0
956,5040005021941,新規,0,2023-03-28,2023-03-28,行政書士法人さいま法務事務所,,その他の設立登記法人,千葉県,野田市,上花輪１３４８番地第二松喜マンション１０１,,12,208,2780033,,,,,,,2023-03-28,1,,,,,サイマホウムジムショ,0
957,5050003007297,新規,0,2023-03-28,2023-03-28,ＲＶＤ　ＫＡＮＴＯ　ＩＮＴＥＲＮＡＴＩＯＮＡＬ合同会社,,合同会社,茨城県,龍ケ崎市,長沖新田町８番地６,,08,208,3010016,,,,,,,2023-03-28,1,,,,,アールブイディカントウインタナショナル,0
962,5060001035811,新規,0,2023-03-28,2023-03-28,株式会社アヴァトロン,,株式会社,栃木県,足利市,福居町２１８１番地４,,09,202,3260338,,,,,,,2023-03-28,1,,,,,アヴァトロン,0
969,5080101023870,新規,0,2023-03-28,2023-03-28,株式会社土肥ノベーション,,株式会社,静岡県,伊豆市,土肥６７０番地の２,,22,222,4103302,,,,,,,2023-03-28,1,,,,,トイノベーション,0
978,5100003006946,新規,0,2023-03-28,2023-03-28,合同会社ＭＤｅａ,,合同会社,長野県,中野市,東山１番５号,,20,211,3830024,,,,,,,2023-03-28,1,,,,,エムデア,0
985,5120001253522,新規,0,2023-03-28,2023-03-28,株式会社Ｋｉｎｄｆｕｌ　Ｃｏｍｐａｎｙ,,株式会社,大阪府,大阪市中央区,谷町５丁目６番１２号,,27,128,5400012,,,,,,,2023-03-28,1,,,,,カインドフルカンパニー,0
986,5120001253563,新規,0,2023-03-28,2023-03-28,株式会社ｍａｈｏｌｏ,,株式会社,大阪府,大阪市北区,梅田１丁目２番２号大阪駅前第２ビル１２－１２,,27,127,5300001,,,,,,,2023-03-28,1,,,,,マホロ,0
994,5120003023691,新規,0,2023-03-28,2023-03-28,ＭＴ合同会社,,合同会社,大阪府,大阪市西成区,旭３丁目４番５号１Ｆ,,27,122,5570032,,,,,,,2023-03-28,1,,,,,エムティ,0
998,5120101067178,新規,0,2023-03-28,2023-03-28,株式会社花建,,株式会社,大阪府,岸和田市,筋海町１２番１９号,,27,202,5960057,,,,,,,2023-03-28,1,,,,,ハナケン,0
999,5120101067194,新規,0,2023-03-28,2023-03-28,高豊株式会社,,株式会社,大阪府,泉佐野市,鶴原１丁目３番３２号,,27,213,5980071,,,,,,,2023-03-28,1,,,,,タカトヨ,0
1002,5122003002543,新規,0,2023-03-28,2023-03-28,合同会社アスパラガス,,合同会社,大阪府,東大阪市,御厨１丁目１－１０,,27,227,5770032,,,,,,,2023-03-28,1,,,,,アスパラガス,0
1007,5130005016726,新規,0,2023-03-28,2023-03-28,一般社団法人京都市スケートボード協会,,その他の設立登記法人,京都府,京都市左京区,松ケ崎中町１１番地タウンハウス祥２０２号室,,26,103,6060926,,,,,,,2023-03-28,1,,,,,キョウトシスケートボードキョウカイ,0
1012,5140001129530,新規,0,2023-03-28,2023-03-28,株式会社ＧｒｏｗＲｉｓｅリフォーム,,株式会社,兵庫県,尼崎市,東難波町５丁目８－２６,,28,202,6600892,,,,,,,2023-03-28,1,,,,,グロウライズリフォーム,0
1018,5160003002824,新規,0,2023-03-28,2023-03-28,合同会社ＩｖｏＴｅｃｈ,,合同会社,滋賀県,大津市,昭和町１７番１８－２号,,25,201,5200817,,,,,,,2023-03-28,1,,,,,イヴォテック,0
1027,5180001155465,新規,0,2023-03-28,2023-03-28,Ｔ‐Ｗ株式会社,,株式会社,愛知県,春日井市,知多町２丁目７４番地,,23,206,4860947,,,,,,,2023-03-28,1,,,,,ティーダブ,0
1028,5180001155498,新規,0,2023-03-28,2023-03-28,株式会社マイクロサービス,,株式会社,愛知県,名古屋市北区,大曽根３丁目１０番７号,,23,103,4620825,,,,,,,2023-03-28,1,,,,,マイクロサービス,0
1040,5230001019755,新規,0,2023-03-28,2023-03-28,株式会社三桃宝エステート,,株式会社,富山県,中新川郡立山町,五百石４５番地,,16,323,9300214,,,,,,,2023-03-28,1,,,,,ミツモモタカラエステート,0
1044,5240001061228,新規,0,2023-03-28,2023-03-28,株式会社ミラビスソリューション,,株式会社,広島県,福山市,沖野上町４丁目８番２３号,,34,207,7200825,,,,,,,2023-03-28,1,,,,,ミラビスソリューション,0
1060,5330001030702,新規,0,2023-03-28,2023-03-28,株式会社ＳＨＯＯＴＩＮＧ　ＨＥＡＲＴＳ,,株式会社,熊本県,熊本市西区,上代３丁目１５番１９号,,43,103,8600068,,,,,,,2023-03-28,1,,,,,シューティングハーツ,0
1067,5370003006052,新規,0,2023-03-28,2023-03-28,合同会社Ｋコーポレーション,,合同会社,宮城県,大崎市,古川上埣字東畑１番地,,04,215,9896264,,,,,,,2023-03-28,1,,,,,ケーコーポレーション,0
1085,5500003003003,新規,0,2023-03-28,2023-03-28,合同会社ｆｏｃｕｓ,,合同会社,愛媛県,西条市,丹原町願連寺３１０－５,,38,206,7910502,,,,,,,2023-03-28,1,,,,,フォーカス,0
1101,6010001233930,新規,0,2023-03-28,2023-03-28,株式会社エンジェルラダー,,株式会社,東京都,中央区,銀座１丁目２２番１１号銀座大竹ビジデンス２Ｆ,,13,102,1040061,,,,,,,2023-03-28,1,,,,,エンジェルラダー,0
1102,6010001233955,新規,0,2023-03-28,2023-03-28,ＪＰＶ第１４号株式会社,,株式会社,東京都,千代田区,霞が関３丁目２番１号,,13,101,1000013,,,,,,,2023-03-28,1,,,,,ジェイピーブイダイジュウヨンゴウ,0
1103,6010001234004,新規,0,2023-03-28,2023-03-28,株式会社Ｊａｍｍ,,株式会社,東京都,文京区,白山４丁目１９番６号,,13,105,1120001,,,,,,,2023-03-28,1,,,,,ジャム,0
1104,6010001234012,新規,0,2023-03-28,2023-03-28,株式会社Ｆｌａｖｏｒｉｃｈ,,株式会社,東京都,中央区,銀座１丁目２２番１１号銀座大竹ビジデンス２Ｆ,,13,102,1040061,,,,,,,2023-03-28,1,,,,,フレバリッチ,0
1107,6010105002208,新規,0,2023-03-28,2023-03-28,一般社団法人エンツリー,,その他の設立登記法人,東京都,八王子市,南大沢４丁目１０番地９－３０６,,13,201,1920364,,,,,,,2023-03-28,1,,,,,エンツリー,0
1117,6010401173297,新規,0,2023-03-28,2023-03-28,株式会社グッドデザイン,,株式会社,東京都,港区,西新橋１丁目１８番７号２Ｆ,,13,103,1050003,,,,,,,2023-03-28,1,,,,,グッドデザイン,0
1120,6010403029794,新規,0,2023-03-28,2023-03-28,ＡＩ　Ｊａｐａｎ　ＲＥ　Ｏｐｐｏｒｔｕｎｉｔｉｅｓ　ＩＩ合同会社,,合同会社,東京都,港区,六本木１丁目６番１号泉ガーデンタワー,,13,103,1060032,,,,,,,2023-03-28,1,,,,,エーアイジャパンアールイーオポチュニティーズツー,0
1121,6010403029803,新規,0,2023-03-28,2023-03-28,ビーエムホールディングス合同会社,,合同会社,東京都,港区,六本木７丁目１７番１０－４１８号,,13,103,1060032,,,,,,,2023-03-28,1,,,,,ビーエムホールディングス,0
1132,6010601062812,新規,0,2023-03-28,2023-03-28,株式会社グレイス,,株式会社,東京都,江東区,大島７丁目３９番１－７０２号,,13,108,1360072,,,,,,,2023-03-28,1,,,,,グレイス,0
1133,6010601062820,新規,0,2023-03-28,2023-03-28,Ｕ‐ＨＡＷＫＳ株式会社,,株式会社,東京都,江東区,豊洲４丁目９－１３－１００１,,13,108,1350061,,,,,,,2023-03-28,1,,,,,ユーホークス,0
1135,6010603010075,新規,0,2023-03-28,2023-03-28,合同会社１０６６,,合同会社,東京都,墨田区,江東橋５丁目１０番１０号,,13,107,1300022,,,,,,,2023-03-28,1,,,,,イチゼロロクロク,0
1138,6010701043992,新規,0,2023-03-28,2023-03-28,タノシル株式会社,,株式会社,東京都,品川区,大井３丁目４－１加瀬ビル１４８Ｎｏ１００５,,13,109,1400014,,,,,,,2023-03-28,1,,,,,タノシル,0
1146,6011001153400,新規,0,2023-03-28,2023-03-28,ＧＳ　ＧＲＯＵＰ株式会社,,株式会社,東京都,渋谷区,渋谷３丁目１番９号Ｙａｚａｗａビル４階,,13,113,1500002,,,,,,,2023-03-28,1,,,,,ジーエスグループ,0
1147,6011003016506,新規,0,2023-03-28,2023-03-28,カギキャリア合同会社,,合同会社,東京都,渋谷区,道玄坂１丁目１０番８号渋谷道玄坂東急ビル２Ｆ－Ｃ,,13,113,1500043,,,,,,,2023-03-28,1,,,,,ガチキャリア,0
1159,6011101102307,新規,0,2023-03-28,2023-03-28,株式会社Ｌｉｍｉｔ‐ｌｅｓｓ,,株式会社,東京都,新宿区,新宿２丁目１８－５第２成光ビル５階,,13,104,1600022,,,,,,,2023-03-28,1,,,,,リミットレス,0
1165,6011301028558,新規,0,2023-03-28,2023-03-28,日本契和株式会社,,株式会社,東京都,杉並区,成田西２丁目１番１１号Ｃ号棟,,13,115,1660016,,,,,,,2023-03-28,1,,,,,ニホンケイワ,0
1166,6011303004706,新規,0,2023-03-28,2023-03-28,テクノクラート合同会社,,合同会社,東京都,杉並区,堀ノ内３丁目１１番７号,,13,115,1660013,,,,,,,2023-03-28,1,,,,,テクノクラート,0
1167,6011701026104,新規,0,2023-03-28,2023-03-28,株式会社ハトバ産業,,株式会社,東京都,江戸川区,上篠崎２丁目９番１０号,,13,123,1330054,,,,,,,2023-03-28,1,,,,,ハトバサンギョウ,0
1169,6012301013368,新規,0,2023-03-28,2023-03-28,株式会社Ｆｉｒｓｔ　Ｔａｐ,,株式会社,東京都,町田市,森野１丁目３６番２号セレステ町田１階,,13,209,1940022,,,,,,,2023-03-28,1,,,,,ファーストタップ,0
1170,6012305002045,新規,0,2023-03-28,2023-03-28,一般社団法人歯科衛生士臨床技能研修会,,その他の設立登記法人,東京都,町田市,南成瀬３丁目１０番地１８,,13,209,1940045,,,,,,,2023-03-28,1,,,,,シカエイセイシリンショウギノウケンシュウカイ,0
1172,6012701017555,新規,0,2023-03-28,2023-03-28,株式会社ＭａｇｉｃＢｏＢｏ,,株式会社,東京都,西東京市,保谷町６丁目１５番４２号サニーコート柳沢１０３号室,,13,229,2020015,,,,,,,2023-03-28,1,,,,,マジックボボ,0
1184,6020001150828,新規,0,2023-03-28,2023-03-28,株式会社ＲＯＮＤＯ,,株式会社,神奈川県,横浜市瀬谷区,本郷３丁目５７番地１２,,14,114,2460015,,,,,,,2023-03-28,1,,,,,ロンド,0
1190,6020003023585,新規,0,2023-03-28,2023-03-28,ＭＡＮＪＵ　ＳＨＲＥＥ合同会社,,合同会社,神奈川県,横浜市緑区,台村町１９５森ビル２０２,,14,113,2260014,,,,,,,2023-03-28,1,,,,,マンジュシリ,0
1191,6021001078547,新規,0,2023-03-28,2023-03-28,株式会社協工,,株式会社,神奈川県,大和市,桜森３丁目２番１９－４０５号,,14,213,2420028,,,,,,,2023-03-28,1,,,,,キョウコウ,0
1195,6030001153037,新規,0,2023-03-28,2023-03-28,株式会社東京機工,,株式会社,埼玉県,三郷市,鷹野２丁目２９６番地,,11,237,3410035,,,,,,,2023-03-28,1,,,,,トウキョウキコウ,0
1196,6030001153045,新規,0,2023-03-28,2023-03-28,ＭＨＲ株式会社,,株式会社,埼玉県,川口市,大字赤山１３２６番地の１－２０７号,,11,203,3330825,,,,,,,2023-03-28,1,,,,,エムエイチアール,0
1206,6040003022255,新規,0,2023-03-28,2023-03-28,ＳＥＮＴＥＣ　ＩＮＴＥＲＮＡＴＩＯＮＡＬ合同会社,,合同会社,千葉県,山武市,横田１０７３番地５０,,12,237,2891226,,,,,,,2023-03-28,1,,,,,センテックインターナショナル,0
1207,6040005021940,新規,0,2023-03-28,2023-03-28,神崎寺,,その他の設立登記法人,千葉県,香取郡神崎町,神崎本宿２３１番地,,12,342,2890221,,,,,,,2023-03-28,1,,,,,コウザキジ,0
1209,6050001052567,新規,0,2023-03-28,2023-03-28,株式会社ＴＲＹＥＤＧＥ,,株式会社,茨城県,古河市,下辺見１０６１番地２鳥山シティハイツＩＩＩＡ－１,00129877,08,204,3060235,,,,,,,2023-03-28,1,,,,,トライエッジ,0
1215,6050003007338,新規,0,2023-03-28,2023-03-28,Ｍ．Ｔ　ＴＲＡＤＩＮＧ合同会社,,合同会社,茨城県,下妻市,黒駒１０５３番３,,08,210,3040007,,,,,,,2023-03-28,1,,,,,エムティートレーディング,0
1216,6050003007346,新規,0,2023-03-28,2023-03-28,Ｔ＆Ｃ合同会社,,合同会社,茨城県,龍ケ崎市,愛戸町５４番地２ロイヤル・コート愛戸Ｂ１０３号室,,08,208,3010838,,,,,,,2023-03-28,1,,,,,ティーアンドシー,0
1217,6050003007354,新規,0,2023-03-28,2023-03-28,つくたけ管理合同会社,,合同会社,茨城県,つくば市,竹園１丁目５番地３,,08,220,3050032,,,,,,,2023-03-28,1,,,,,ツクタケカンリ,0
1218,6050003007362,新規,0,2023-03-28,2023-03-28,合同会社３９,,合同会社,茨城県,日立市,桜川町２丁目２番３号,,08,202,3160002,,,,,,,2023-03-28,1,,,,,ミク,0
1231,6100001036259,新規,0,2023-03-28,2023-03-28,株式会社徳竹ホワイトミライ,,株式会社,長野県,中野市,大字片塩４８番地,,20,211,3830046,,,,,,,2023-03-28,1,,,,,トクタケホワイトミライ,0
1233,6100003006937,新規,0,2023-03-28,2023-03-28,氣合同会社,,合同会社,長野県,木曽郡上松町,大字小川８２２番地ハ,,20,422,3995607,,,,,,,2023-03-28,1,,,,,イキ,0
1247,6120001253488,新規,0,2023-03-28,2023-03-28,株式会社ライフテックプロパティ,,株式会社,大阪府,守口市,金田町１丁目８番８号,,27,209,5700011,,,,,,,2023-03-28,1,,,,,ライフテックプロパティ,0
1248,6120001253546,新規,0,2023-03-28,2023-03-28,株式会社ミュゲ,,株式会社,大阪府,大阪市中央区,上汐２丁目１番２２－３０１号,,27,128,5420064,,,,,,,2023-03-28,1,,,,,ミュゲ,0
1250,6120003023708,新規,0,2023-03-28,2023-03-28,Ｓｅｅｄ　Ｃｒｅａｔｉｏｎ合同会社,,合同会社,大阪府,大阪市淀川区,田川３丁目７番１－９０３号,,27,123,5320027,,,,,,,2023-03-28,1,,,,,シードクリエイション,0
1252,6120005023524,新規,0,2023-03-28,2023-03-28,ＮＰＯ法人ひまわり,,その他の設立登記法人,大阪府,大阪市西成区,萩之茶屋１丁目１４番１０号なると屋２階,,27,122,5570004,,,,,,,2023-03-28,1,,,,,ヒマワリ,0
1263,6130001073935,新規,0,2023-03-28,2023-03-28,株式会社オーガスティア,,株式会社,京都府,京都市下京区,堺町綾小路下ル永原町１５３番地,,26,106,6008162,,,,,,,2023-03-28,1,,,,,オーガスティア,0
1278,6160001024919,新規,0,2023-03-28,2023-03-28,株式会社サクセス近江,,株式会社,滋賀県,東近江市,上平木町１１５８番地,,25,213,5270086,,,,,,,2023-03-28,1,,,,,サクセスオウミ,0
1279,6160005011178,新規,0,2023-03-28,2023-03-28,一般社団法人国際エイジレスビューティー協会,,その他の設立登記法人,滋賀県,守山市,下之郷３丁目６番２０号,,25,207,5240013,,,,,,,2023-03-28,1,,,,,コクサイエイジレスビューティーキョウカイ,0
1281,6180001155497,新規,0,2023-03-28,2023-03-28,株式会社ツシマ,,株式会社,愛知県,名古屋市南区,鳥栖２丁目２０番２２号,,23,112,4570006,,,,,,,2023-03-28,1,,,,,ツシマ,0
1282,6180001155506,新規,0,2023-03-28,2023-03-28,株式会社ｍｙ　ｇｒａｃｅ,,株式会社,愛知県,名古屋市中村区,名駅４丁目２４番５号第２森ビル４０１,,23,105,4500002,,,,,,,2023-03-28,1,,,,,マイグレイス,0
1283,6180001155514,新規,0,2023-03-28,2023-03-28,株式会社１７,,株式会社,愛知県,名古屋市瑞穂区,堀田通７丁目１９番地（プラウランド堀田７１２号）,,23,108,4670862,,,,,,,2023-03-28,1,,,,,ジューナナ,0
1285,6180301037222,新規,0,2023-03-28,2023-03-28,株式会社アゲイン,,株式会社,愛知県,新城市,長篠字新居４５番地４,,23,221,4411634,,,,,,,2023-03-28,1,,,,,,0
1289,6180303005664,新規,0,2023-03-28,2023-03-28,ＬＵＡＣ合同会社,,合同会社,愛知県,豊田市,東新町３丁目２２番地１２,,23,211,4710045,,,,,,,2023-03-28,1,,,,,ルーアック,0
1290,6200001041109,新規,0,2023-03-28,2023-03-28,株式会社ＱＬＣ,,株式会社,岐阜県,関市,巾２丁目２８４－１キャッスル巾Ｂ１０３号,,21,205,5013256,,,,,,,2023-03-28,1,,,,,キューエルシー,0
1294,6230003001990,新規,0,2023-03-28,2023-03-28,合同会社ａｏ,,合同会社,富山県,小矢部市,埴生１１７０番地,,16,209,9320836,,,,,,,2023-03-28,1,,,,,アオ,0
1295,6240001061227,新規,0,2023-03-28,2023-03-28,株式会社ミラビスウエスト,,株式会社,広島県,福山市,沖野上町４丁目８番２３号,,34,207,7200825,,,,,,,2023-03-28,1,,,,,ミラビスウエスト,0
1298,6240005015550,新規,0,2023-03-28,2023-03-28,医療法人榮廣会,,その他の設立登記法人,広島県,広島市安佐南区,長楽寺１丁目１５番３号,,34,105,7310143,,,,,,,2023-03-28,1,,,,,エイコウカイ,0
1309,6290001100995,新規,0,2023-03-28,2023-03-28,株式会社ＤＦ,,株式会社,福岡県,筑紫野市,美しが丘南４丁目１－１１,,40,217,8180034,,,,,,,2023-03-28,1,,,,,ディーエフ,0
1310,6290001101003,新規,0,2023-03-28,2023-03-28,株式会社レクトワン,,株式会社,福岡県,福岡市中央区,薬院３丁目１４番３号真永薬院ビル５Ｆ,,40,133,8100022,,,,,,,2023-03-28,1,,,,,レクトワン,0
1311,6290003013709,新規,0,2023-03-28,2023-03-28,Ｔ＆Ｔ合同会社,,合同会社,福岡県,福岡市中央区,春吉２丁目１９－７－３０１号,,40,133,8100003,,,,,,,2023-03-28,1,,,,,ティーアンドティー,0
1317,6310001018327,新規,0,2023-03-28,2023-03-28,株式会社Ｐｒｅｓｅｎｃｅ一Ｊｙｏｕ,,株式会社,長崎県,雲仙市,吾妻町平江名１１９番地,,42,213,8591103,,,,,,,2023-03-28,1,,,,,プレゼンスイチジョウ,0
1322,6330003009776,新規,0,2023-03-28,2023-03-28,合同会社サクセス,,合同会社,熊本県,宇城市,松橋町曲野１６番地８,,43,213,8690511,,,,,,,2023-03-28,1,,,,,サクセス,0
1326,6350001018240,新規,0,2023-03-28,2023-03-28,株式会社フォープラス,,株式会社,宮崎県,児湯郡都農町,大字川北４６０７番１,,45,406,8891201,,,,,,,2023-03-28,1,,,,,フォープラス,0
1328,6360003012819,新規,0,2023-03-28,2023-03-28,ＣＯＣＯＰＡＮ　ＪＡＰＡＮ合同会社,,合同会社,沖縄県,うるま市,石川曙１丁目６番４２号,00129879,47,213,9041107,,,,,,,2023-03-28,1,,,,,ココパンジャパン,0
1334,6380001033567,新規,0,2023-03-28,2023-03-28,アスミル株式会社,,株式会社,福島県,会津若松市,湯川町１番４７号,,07,202,9650863,,,,,,,2023-03-28,1,,,,,アスミル,0
1337,6410001013433,新規,0,2023-03-28,2023-03-28,ＡＳＩＡ　ＰＡＲＴＮＥＲＳＨＩＰ　ＩＮＶＥＳＴＭＥＮＴ株式会社,,株式会社,秋田県,秋田市,保戸野原の町７番６８号,,05,201,0100904,,,,,,,2023-03-28,1,,,,,アジアパートナーシップインベストメント,0
1361,7010001233913,新規,0,2023-03-28,2023-03-28,アイ・プレイス株式会社,,株式会社,東京都,中央区,銀座１丁目４番６号,,13,102,1040061,,,,,,,2023-03-28,1,,,,,アイプレイス,0
1362,7010001233954,新規,0,2023-03-28,2023-03-28,ＪＰＶ第１３号株式会社,,株式会社,東京都,千代田区,霞が関３丁目２番１号,,13,101,1000013,,,,,,,2023-03-28,1,,,,,ジェイピーブイダイジュウサンゴウ,0
1366,7010003040151,新規,0,2023-03-28,2023-03-28,博帝科技合同会社,,合同会社,東京都,中央区,銀座６丁目６番１号,,13,102,1040061,,,,,,,2023-03-28,1,,,,,ハクテイカギ,0
1370,7010401173313,新規,0,2023-03-28,2023-03-28,セブンセンスＦＡＩＲ株式会社,,株式会社,東京都,港区,赤坂２丁目１２番１０号ＨＦ溜池ビルディング７階,,13,103,1070052,,,,,,,2023-03-28,1,,,,,セブンセンスフェアー,0
1371,7010403029744,新規,0,2023-03-28,2023-03-28,合同会社みなみ風,,合同会社,東京都,港区,浜松町２丁目２番１５号２Ｆ,,13,103,1050013,,,,,,,2023-03-28,1,,,,,ミナミカゼ,0
1372,7010403029793,新規,0,2023-03-28,2023-03-28,ＡＩ　Ｊａｐａｎ　ＲＥ　Ｏｐｐｏｒｔｕｎｉｔｉｅｓ　Ｉ合同会社,,合同会社,東京都,港区,六本木１丁目６番１号泉ガーデンタワー,,13,103,1060032,,,,,,,2023-03-28,1,,,,,エーアイジャパンアールイーオポチュニティーズワン,0
1374,7010405021947,新規,0,2023-03-28,2023-03-28,ＥＳＲサンフラワー特定目的会社,,その他の設立登記法人,東京都,港区,浜松町１丁目２０番１０号ライオネス浜松町５０６号室,,13,103,1050013,,,,,,,2023-03-28,1,,,,,イーエスアールサンフラワー,0
1377,7010601062811,新規,0,2023-03-28,2023-03-28,株式会社Ｕ‐ｆｉｓｈ,,株式会社,東京都,江東区,豊洲１丁目３番２号,,13,108,1350061,,,,,,,2023-03-28,1,,,,,ユーフィッシュ,0
1379,7010603010066,新規,0,2023-03-28,2023-03-28,ＳＴＡＲＳ合同会社,,合同会社,東京都,墨田区,太平３丁目８－９－３０２,,13,107,1300012,,,,,,,2023-03-28,1,,,,,スターズ,0
1398,7011001153399,新規,0,2023-03-28,2023-03-28,株式会社キャリアエレメンツ,,株式会社,東京都,渋谷区,代々木１丁目２５－５,,13,113,1510053,,,,,,,2023-03-28,1,,,,,キャリアエレメンツ,0
1399,7011005009993,新規,0,2023-03-28,2023-03-28,一般社団法人日本トリュフ協会,,その他の設立登記法人,東京都,渋谷区,渋谷２丁目３番４号青山ＴＮビル２Ｆ,,13,113,1500002,,,,,,,2023-03-28,1,,,,,ニホントリュフキョウカイ,0
1400,7011005010002,新規,0,2023-03-28,2023-03-28,一般社団法人全国小規模事業者支援団体,,その他の設立登記法人,東京都,目黒区,大橋２丁目４番１６－５１２号プライムアーバン目黒大橋ヒルズ,,13,110,1530044,,,,,,,2023-03-28,1,,,,,ゼンコクショウキボジギョウシャシエンダンタイ,0
1405,7011101102306,新規,0,2023-03-28,2023-03-28,株式会社ＡＣＥ,,株式会社,東京都,新宿区,歌舞伎町２丁目２７番８号アタミビル４Ｆ,,13,104,1600021,,,,,,,2023-03-28,1,,,,,エース,0
1406,7011103012841,新規,0,2023-03-28,2023-03-28,合同会社Ｍｅｄｉａ　Ｕｐ,,合同会社,東京都,新宿区,西新宿３丁目３番１３号西新宿水間ビル６階,,13,104,1600023,,,,,,,2023-03-28,1,,,,,メディアアップ,0
1407,7011103012866,新規,0,2023-03-28,2023-03-28,ＦＵＳＩＯＮ合同会社,,合同会社,東京都,新宿区,大久保２丁目２番１７号第３アルプスマンション２０２,,13,104,1690072,,,,,,,2023-03-28,1,,,,,フュージョン,0
1411,7011301028557,新規,0,2023-03-28,2023-03-28,株式会社Ｍｉｓｓｉｏｎ１００,,株式会社,東京都,杉並区,高円寺南１丁目２４番１１号ＨＩＣビル２階,,13,115,1660003,,,,,,,2023-03-28,1,,,,,ミッションハンドレッド,0
1415,7011503005536,新規,0,2023-03-28,2023-03-28,大陸商事合同会社,,合同会社,東京都,荒川区,西日暮里２丁目４９番６号サンハイツ西日暮里４０４号室,,13,118,1160013,,,,,,,2023-03-28,1,,,,,タイリクショウジ,0
1419,7011801042140,新規,0,2023-03-28,2023-03-28,株式会社陽向ホーム,,株式会社,東京都,足立区,大谷田３丁目５番１８－２０１号,,13,121,1200001,,,,,,,2023-03-28,1,,,,,ヒナタホーム,0
1421,7011803005574,新規,0,2023-03-28,2023-03-28,合同会社ＭＯＺＡＩＫＵ,,合同会社,東京都,足立区,千住柳町４番２号,,13,121,1200032,,,,,,,2023-03-28,1,,,,,モザイク,0
1423,7012301013367,新規,0,2023-03-28,2023-03-28,株式会社ＬＯＦ,,株式会社,東京都,町田市,中町１丁目４番２号,,13,209,1940021,,,,,,,2023-03-28,1,,,,,ロフ,0
1441,7020005015910,新規,0,2023-03-28,2023-03-28,一般社団法人Ｆｒｅｅｌａｎｃｅ　Ｌａｂ．,,その他の設立登記法人,神奈川県,横浜市保土ケ谷区,川島町１４６２－８,,14,106,2400045,,,,,,,2023-03-28,1,,,,,フリーランスラボ,0
1452,7030001153044,新規,0,2023-03-28,2023-03-28,日本輝銀株式会社,,株式会社,埼玉県,川口市,西川口１丁目３０番２０－６０９号室,,11,203,3320021,,,,,,,2023-03-28,1,,,,,ニホンキギン,0
1454,7030003021447,新規,0,2023-03-28,2023-03-28,合同会社堀切興業,,合同会社,埼玉県,越谷市,七左町４丁目４番地６,,11,222,3430851,,,,,,,2023-03-28,1,,,,,ホリキリコウギョウ,0
1456,7030005021180,新規,0,2023-03-28,2023-03-28,医療法人社団八仙華,,その他の設立登記法人,埼玉県,春日部市,中央１丁目５２番地８昭和ビル第６・２階,,11,214,3440067,,,,,,,2023-03-28,1,,,,,ハッセンカ,0
1462,7040001127682,新規,0,2023-03-28,2023-03-28,利虹株式会社,,株式会社,千葉県,八千代市,八千代台西８丁目１８番１０－１４号,,12,221,2760034,,,,,,,2023-03-28,1,,,,,リコウ,0
1464,7040003022279,新規,0,2023-03-28,2023-03-28,合同会社ジオ,,合同会社,千葉県,千葉市中央区,南生実町８６３番地,,12,101,2600814,,,,,,,2023-03-28,1,,,,,ジオ,0
1466,7050003007345,新規,0,2023-03-28,2023-03-28,ＢＳ　ＴＲＡＤＩＮＧ合同会社,,合同会社,茨城県,つくばみらい市,小絹１７１－２２コーポみずき２０１号室,,08,235,3002445,,,,,,,2023-03-28,1,,,,,ビーエストレーディング,0
1467,7050003007353,新規,0,2023-03-28,2023-03-28,合同会社ＫＩＺＵＮＡ,,合同会社,茨城県,結城市,大字結城１３６５１,,08,207,3070001,,,,,,,2023-03-28,1,,,,,キズナ,0
1472,7080001025536,新規,0,2023-03-28,2023-03-28,株式会社イロドリエ,,株式会社,静岡県,島田市,岸町１０２４番地の７,,22,209,4270005,,,,,,,2023-03-28,1,,,,,イロドリエ,0
1478,7100003006944,新規,0,2023-03-28,2023-03-28,ムマス・コンサルティング・グループ合同会社,,合同会社,長野県,須坂市,旭ケ丘１－５,,20,207,3820003,,,,,,,2023-03-28,1,,,,,ムマスコンサルティンググループ,0
1482,7110001037387,新規,0,2023-03-28,2023-03-28,峠７３３株式会社,,株式会社,新潟県,十日町市,峠７３３番地,,15,210,9421351,,,,,,,2023-03-28,1,,,,,トウゲナナサンサン,0
1498,7120001253487,新規,0,2023-03-28,2023-03-28,株式会社ガウラ,,株式会社,大阪府,大阪市北区,梅田１丁目２番２号大阪駅前第２ビル１２－１２,,27,127,5300001,,,,,,,2023-03-28,1,,,,,ガウラ,0
1499,7120001253529,新規,0,2023-03-28,2023-03-28,Ｒｉｃｅ株式会社,,株式会社,大阪府,大阪市淀川区,西中島３丁目１８番９号新大阪日大ビル５０５号,,27,123,5320011,,,,,,,2023-03-28,1,,,,,ライス,0
1501,7120003023707,新規,0,2023-03-28,2023-03-28,合同会社レーブシステム,,合同会社,大阪府,枚方市,上野２丁目４番１－１２５号,,27,210,5731175,,,,,,,2023-03-28,1,,,,,レーブシステム,0
1502,7120101067201,新規,0,2023-03-28,2023-03-28,株式会社ＲＩＴＡ,,株式会社,大阪府,堺市西区,浜寺船尾町西１丁２５２番地,,27,144,5928342,,,,,,,2023-03-28,1,,,,,リタ,0
1512,7140003018886,新規,0,2023-03-28,2023-03-28,ホワイトペンギン合同会社,,合同会社,兵庫県,神戸市中央区,北長狭通８丁目１－１６,,28,110,6500012,,,,,,,2023-03-28,1,,,,,ホワイトペンギン,0
1518,7160001024918,新規,0,2023-03-28,2023-03-28,株式会社縞春,,株式会社,滋賀県,彦根市,芹橋１丁目２番４３号,,25,202,5220087,,,,,,,2023-03-28,1,,,,,シマハル,0
1519,7160001024926,新規,0,2023-03-28,2023-03-28,株式会社ＥＳＴ,,株式会社,滋賀県,守山市,千代町１３４番地６,,25,207,5240034,,,,,,,2023-03-28,1,,,,,エスト,0
1522,7170001017524,新規,0,2023-03-28,2023-03-28,株式会社Ｅｘｃｅｌｌｅｎｔ,,株式会社,和歌山県,和歌山市,吹上４丁目４－４７,,30,201,6408137,,,,,,,2023-03-28,1,,,,,エクセレント,0
1531,7180003024798,新規,0,2023-03-28,2023-03-28,合同会社スターワーク,,合同会社,愛知県,名古屋市天白区,福池１丁目２６－４,,23,116,4680049,,,,,,,2023-03-28,1,,,,,スターワーク,0
1532,7180003025029,新規,0,2023-03-28,2023-03-28,合同会社ＫＩＳＥＴＳＵ,,合同会社,愛知県,春日井市,松河戸町５丁目６番地１８,,23,206,4860932,,,,,,,2023-03-28,1,,,,,キセツ,0
1533,7180003025037,新規,0,2023-03-28,2023-03-28,合同会社ＩＳＹＳＴＥＭ,,合同会社,愛知県,名古屋市中川区,下之一色町字権野２３番地の１クラリティガーデン３０２号,,23,110,4540945,,,,,,,2023-03-28,1,,,,,アイシステム,0
1540,7180305009456,新規,0,2023-03-28,2023-03-28,医療法人佐々木歯科,,その他の設立登記法人,愛知県,豊田市,和会町山神東分７番地３,,23,211,4701216,,,,,,,2023-03-28,1,,,,,ササキシカ,0
1547,7240001061226,新規,0,2023-03-28,2023-03-28,株式会社ミラビスイースト,,株式会社,広島県,福山市,沖野上町４丁目８番２３号,,34,207,7200825,,,,,,,2023-03-28,1,,,,,ミラビスイースト,0
1548,7240001061259,新規,0,2023-03-28,2023-03-28,株式会社中田運送,,株式会社,広島県,広島市南区,東雲２丁目１７番４３－３０３号,,34,103,7340022,,,,,,,2023-03-28,1,,,,,ナカタウンソウ,0
1551,7250003003241,新規,0,2023-03-28,2023-03-28,合同会社響商事,,合同会社,山口県,下関市,山の田本町１２番２６号,,35,201,7510838,,,,,,,2023-03-28,1,,,,,ヒビキショウジ,0
1553,7260001037769,新規,0,2023-03-28,2023-03-28,株式会社ＰＡＮＤＡ　ＤＥＳＩＧＮ,,株式会社,岡山県,倉敷市,高須賀３６９‐１５,,33,202,7100021,,,,,,,2023-03-28,1,,,,,パンダデザイン,0
1559,7290001100986,新規,0,2023-03-28,2023-03-28,株式会社ＭＳリプロ,,株式会社,福岡県,福岡市中央区,今泉１丁目１３番２１号フィルパーク福岡今泉４階,,40,133,8100021,,,,,,,2023-03-28,1,,,,,エムエスリプロ,0
1560,7290001100994,新規,0,2023-03-28,2023-03-28,株式会社ｃｌａｓｓＬＩＶＩＮＧ,,株式会社,福岡県,福岡市博多区,榎田２丁目９番３８号,,40,132,8120004,,,,,,,2023-03-28,1,,,,,クラスリビング,0
1565,7300001013253,新規,0,2023-03-28,2023-03-28,田中ホールディングス株式会社,,株式会社,佐賀県,佐賀市,大和町大字川上１９１９番地１,,41,201,8400214,,,,,,,2023-03-28,1,,,,,タナカホールディングス,0
1568,7310001018318,新規,0,2023-03-28,2023-03-28,株式会社大黒商事,,株式会社,長崎県,佐世保市,大黒町３３－１０,,42,202,8570843,,,,,,,2023-03-28,1,,,,,ダイコクショウジ,0
1574,7330003009775,新規,0,2023-03-28,2023-03-28,ＭａｒＴｅｃｈ合同会社,,合同会社,熊本県,熊本市西区,田崎本町８－３,,43,103,8600052,,,,,,,2023-03-28,1,,,,,マーテック,0
1576,7340005009574,新規,0,2023-03-28,2023-03-28,特定非営利活動法人大隅災害復旧ボランティア,,その他の設立登記法人,鹿児島県,鹿屋市,横山町２０２１番地５,,46,203,8930046,,,,,,,2023-03-28,1,,,,,オオスミサイガイフッキュウボランティア,0
1579,7370001049761,新規,0,2023-03-28,2023-03-28,株式会社ｗＴＲＵＳＴ,,株式会社,宮城県,仙台市若林区,表柴田町６２番地の２,,04,103,9840055,,,,,,,2023-03-28,1,,,,,トラスト,0
1589,7420001018199,新規,0,2023-03-28,2023-03-28,株式会社福祉ステーション,,株式会社,青森県,青森市,桜川２丁目１番２１号,,02,201,0300945,,,,,,,2023-03-28,1,,,,,フクシステーション,0
1592,7450003002314,新規,0,2023-03-28,2023-03-28,合同会社Ｇａｊｕｍａｒｕ,,合同会社,北海道,旭川市,忠和六条７丁目１－１０,,01,204,0708046,,,,,,,2023-03-28,1,,,,,ガジュマル,0
1593,7500003003001,新規,0,2023-03-28,2023-03-28,アーバンヴィレッジ合同会社,,合同会社,愛媛県,新居浜市,高木町２番２０号,,38,205,7920031,,,,,,,2023-03-28,1,,,,,アーバンヴィレッジ,0
1594,7500005008592,新規,0,2023-03-28,2023-03-28,一般社団法人坊っちゃん劇場,,その他の設立登記法人,愛媛県,東温市,見奈良１１２５番地,,38,215,7910211,,,,,,,2023-03-28,1,,,,,ボッチャンゲキジョウ,0
1619,8010501050205,新規,0,2023-03-28,2023-03-28,株式会社ＭＡＧ,,株式会社,東京都,台東区,小島２丁目１０番３号ＭＡＧビル２Ｆ,,13,106,1110056,,,,,,,2023-03-28,1,,,,,エムエージー,0
1620,8010601062810,新規,0,2023-03-28,2023-03-28,株式会社ｓｔｙｌｅ,,株式会社,東京都,江東区,豊洲５丁目１番１３号,,13,108,1350061,,,,,,,2023-03-28,1,,,,,スタイル,0
1621,8010601062819,新規,0,2023-03-28,2023-03-28,株式会社ＣＯ２,,株式会社,東京都,墨田区,東駒形４丁目１９番７－６０３号,,13,107,1300005,,,,,,,2023-03-28,1,,,,,シーオーツー,0
1632,8011001153373,新規,0,2023-03-28,2023-03-28,株式会社Ｓａｆｅｓｗｉｍ,,株式会社,東京都,渋谷区,恵比寿１丁目１６番２０号竹下ビル４０１号,,13,113,1500013,,,,,,,2023-03-28,1,,,,,セーフスウィム,0
1633,8011101102239,新規,0,2023-03-28,2023-03-28,株式会社学べるＷｅｂマーケティング,,株式会社,東京都,新宿区,大久保３丁目８－１スカイフォレストレジデンス５０５号室,,13,104,1690072,,,,,,,2023-03-28,1,,,,,マナベルウェブマーケティング,0
1635,8011301028564,新規,0,2023-03-28,2023-03-28,株式会社ＢＡＺＺＵＬ,,株式会社,東京都,杉並区,上荻１丁目８番１１号,,13,115,1670043,,,,,,,2023-03-28,1,,,,,バズール,0
1645,8012303001798,新規,0,2023-03-28,2023-03-28,合同会社Ｒｉｃｈ　Ｗｅｌｌ,,合同会社,東京都,町田市,小山町３１０５－１シルクロードＮ’Ｓ１０２,,13,209,1940212,,,,,,,2023-03-28,1,,,,,リッチウェル,0
1648,8012401040310,新規,0,2023-03-28,2023-03-28,Ｆ．Ｈ．Ｊ．インタナショナル株式会社,,株式会社,東京都,武蔵野市,境南町２丁目７番２０号,,13,203,1800023,,,,,,,2023-03-28,1,,,,,エフエイチジェイインタナショナル,0
1649,8012401040319,新規,0,2023-03-28,2023-03-28,株式会社ＲＨ,,株式会社,東京都,武蔵野市,吉祥寺南町１丁目３２番２８号,,13,203,1800003,,,,,,,2023-03-28,1,,,,,アールエイチ,0
1676,8030001153043,新規,0,2023-03-28,2023-03-28,株式会社ＷＡＲＡ,,株式会社,埼玉県,さいたま市大宮区,宮町３丁目７０ＨｅｂｅｌＶｉｌｌａ４０３,,11,103,3300802,,,,,,,2023-03-28,1,,,,,ワラ,0
1678,8030003021446,新規,0,2023-03-28,2023-03-28,合同会社トップマーケティング,,合同会社,埼玉県,川口市,飯塚１丁目２番１６号川口ホームズマンション１Ｆ－ＢＩＺｃｏｍｆｏｒｔ,,11,203,3320023,,,,,,,2023-03-28,1,,,,,トップマーケティング,0
1682,8040001127665,新規,0,2023-03-28,2023-03-28,株式会社エス・エージェンシー,,株式会社,千葉県,佐倉市,弥勒町２０３番地４,,12,212,2850038,,,,,,,2023-03-28,1,,,,,エスエージェンシー,0
1685,8040003022253,新規,0,2023-03-28,2023-03-28,ヴォルテックスＪＡＰＡＮ合同会社,,合同会社,千葉県,市川市,宝２丁目１２番７号,,12,203,2720122,,,,,,,2023-03-28,1,,,,,ヴォルテックスジャパン,0
1686,8040003022286,新規,0,2023-03-28,2023-03-28,合同会社らふ,,合同会社,千葉県,千葉市中央区,宮崎町６６３－２－５０１,,12,101,2600805,,,,,,,2023-03-28,1,,,,,ラフ,0
1687,8050001052581,新規,0,2023-03-28,2023-03-28,株式会社常総フーズ,,株式会社,茨城県,つくば市,竹園３丁目２１番地１,,08,220,3050032,,,,,,,2023-03-28,1,,,,,ジョウソウフーズ,0
1688,8070005010096,新規,0,2023-03-28,2023-03-28,特定非営利活動法人まなびや,,その他の設立登記法人,群馬県,利根郡片品村,大字越本１１６２番地,,10,443,3780413,,,,,,,2023-03-28,1,,,,,マナビヤ,0
1703,8120001253494,新規,0,2023-03-28,2023-03-28,株式会社フレンジー,,株式会社,大阪府,大阪市中央区,北浜２丁目１番２号,,27,128,5410041,,,,,,,2023-03-28,1,,,,,フレンジー,0
1704,8120001253528,新規,0,2023-03-28,2023-03-28,三福商事株式会社,,株式会社,大阪府,大阪市港区,港晴３丁目１番６号２０３室,,27,107,5520023,,,,,,,2023-03-28,1,,,,,ミフクショウジ,0
1705,8120001253536,新規,0,2023-03-28,2023-03-28,日本総合保証サービス株式会社,,株式会社,大阪府,大阪市中央区,瓦町３丁目４番１０号日宝御堂ビル２階４,,27,128,5410048,,,,,,,2023-03-28,1,,,,,ニホンソウゴウホショウサービス,0
1711,8120003023706,新規,0,2023-03-28,2023-03-28,合同会社バフォメット,,合同会社,大阪府,大阪市北区,梅田１丁目２番２号大阪駅前第２ビル１２－１２,,27,127,5300001,,,,,,,2023-03-28,1,,,,,バフォメット,0
1717,8120903004557,新規,0,2023-03-28,2023-03-28,合同会社Ｍ＆Ｏ,,合同会社,大阪府,箕面市,彩都粟生南７丁目６－４,,27,220,5620028,,,,,,,2023-03-28,1,,,,,エムアンドオー,0
1727,8130001073925,新規,0,2023-03-28,2023-03-28,株式会社ＴＫ,,株式会社,京都府,宇治市,折居台３丁目２番地４８,,26,204,6110023,,,,,,,2023-03-28,1,,,,,ティーケー,0
1736,8150001026261,新規,0,2023-03-28,2023-03-28,株式会社いちご,,株式会社,奈良県,吉野郡吉野町,大字上市２５４－１,,29,441,6393111,,,,,,,2023-03-28,1,,,,,イチゴ,0
1737,8150003002913,新規,0,2023-03-28,2023-03-28,合同会社ＬＥＯ,,合同会社,奈良県,奈良市,三条宮前町４－１６ベルオーブＩＩＩ１０５,00129884,29,201,6308121,,,,,,,2023-03-28,1,,,,,レオ,0
1740,8160001024917,新規,0,2023-03-28,2023-03-28,株式会社ＺｅｒｏＣｒｅｗｓ,,株式会社,滋賀県,大津市,皇子が丘２丁目７－３０－２０１号,,25,201,5200025,,,,,,,2023-03-28,1,,,,,ゼロクルーズ,0
1751,8180001155495,新規,0,2023-03-28,2023-03-28,株式会社ＭＩＳＡＫＩ,,株式会社,愛知県,大府市,共和町４丁目２９３番地の１サンメゾン共和ヒルズアベニュー１２０１号,,23,223,4740061,,,,,,,2023-03-28,1,,,,,ミサキ,0
1752,8180001155512,新規,0,2023-03-28,2023-03-28,株式会社リュミエール,,株式会社,愛知県,名古屋市西区,笹塚町２丁目２４番地パークホームズ名古屋庄内通８０７号,,23,104,4510077,,,,,,,2023-03-28,1,,,,,リュミエール,0
1753,8180001155545,新規,0,2023-03-28,2023-03-28,株式会社ふりなす,,株式会社,愛知県,瀬戸市,塩草町１２０番地の３（１０－１１・１０－１２）,,23,204,4890895,,,,,,,2023-03-28,1,,,,,フリナス,0
1754,8180001155553,新規,0,2023-03-28,2023-03-28,一互リライフ株式会社,,株式会社,愛知県,名古屋市港区,小碓４丁目４９１,,23,111,4550801,,,,,,,2023-03-28,1,,,,,イチゴリライフ,0
1761,8180003024797,新規,0,2023-03-28,2023-03-28,合同会社スターテック,,合同会社,愛知県,名古屋市天白区,福池１丁目２６－４,,23,116,4680049,,,,,,,2023-03-28,1,,,,,スターテック,0
1762,8180003024921,新規,0,2023-03-28,2023-03-28,合同会社ＢＵＳＨＩＤＯ,,合同会社,愛知県,稲沢市,祖父江町野田山中６５番地,,23,220,4950024,,,,,,,2023-03-28,1,,,,,ブシドー,0
1763,8180003025028,新規,0,2023-03-28,2023-03-28,合同会社ＢｒｅＡｎ‐ｃｒｅａｔｅ,,合同会社,愛知県,名古屋市中川区,野田３丁目２１１番地,,23,110,4540912,,,,,,,2023-03-28,1,,,,,ブリアンクリエイト,0
1764,8180003025036,新規,0,2023-03-28,2023-03-28,合同会社吉田倉庫,,合同会社,愛知県,津島市,大字津島字北新開７５－１ソフィア北新開１０２,,23,208,4960027,,,,,,,2023-03-28,1,,,,,ヨシダソウコ,0
1769,8190001030276,新規,0,2023-03-28,2023-03-28,株式会社三大商事,,株式会社,三重県,多気郡大台町,上三瀬６８８番地１,,24,443,5192403,,,,,,,2023-03-28,1,,,,,サンダイショウジ,0
1771,8190005011801,新規,0,2023-03-28,2023-03-28,医療法人グレイス,,その他の設立登記法人,三重県,桑名市,三ツ矢橋１６番地,,24,205,5110057,,,,,,,2023-03-28,1,,,,,グレイス,0
1774,8200001041107,新規,0,2023-03-28,2023-03-28,株式会社Ｐｈｅｗ,,株式会社,岐阜県,各務原市,那加日新町６丁目３番地オフィス２１－４Ａ,,21,213,5040945,,,,,,,2023-03-28,1,,,,,フゥ,0
1775,8200001041115,新規,0,2023-03-28,2023-03-28,株式会社スマート,,株式会社,岐阜県,多治見市,弁天町１丁目５５番地,,21,204,5070028,,,,,,,2023-03-28,1,,,,,スマート,0
1787,8260001037768,新規,0,2023-03-28,2023-03-28,フォルテ株式会社,,株式会社,岡山県,総社市,三須１３番地,,33,208,7191124,,,,,,,2023-03-28,1,,,,,フォルテ,0
1788,8260003004254,新規,0,2023-03-28,2023-03-28,合同会社ＳＰＩＣＥ　ＵＰ　ＬＩＦＥ,,合同会社,岡山県,倉敷市,幸町１２－１９,,33,202,7100051,,,,,,,2023-03-28,1,,,,,スパイスアップライフ,0
1795,8290801029400,新規,0,2023-03-28,2023-03-28,国久総建株式会社,,株式会社,福岡県,北九州市小倉北区,京町３丁目１２－２１京町ビル２Ｆ,,40,106,8020002,,,,,,,2023-03-28,1,,,,,クニヒサソウケン,0
1804,8340001025450,新規,0,2023-03-28,2023-03-28,株式会社ＧＲＯＵＰＥＲ　ＡＲＣ,,株式会社,鹿児島県,鹿児島市,吉野町３２６６番地４,,46,201,8920871,,,,,,,2023-03-28,1,,,,,グルーパーアーキ,0
1805,8340003004080,新規,0,2023-03-28,2023-03-28,合同会社岩建,,合同会社,鹿児島県,鹿児島市,広木１丁目２番１３号,,46,201,8900037,,,,,,,2023-03-28,1,,,,,イワケン,0
1812,8370001049760,新規,0,2023-03-28,2023-03-28,株式会社Ｒｕｒｉｏ,,株式会社,宮城県,仙台市青葉区,荒巻字青葉４６８番地の１東北大学マテリアル・イノベーション・センター青葉山ガレージ内,,04,101,9800845,,,,,,,2023-03-28,1,,,,,ルリオ,0
1825,8430001088703,新規,0,2023-03-28,2023-03-28,株式会社Ｈｉｇｈｅｒ　Ｓｔａｔｅ,,株式会社,北海道,札幌市北区,篠路二条４丁目６番５号,,01,102,0028022,,,,,,,2023-03-28,1,,,,,ハイアーステイト,0
1835,8470001019530,新規,0,2023-03-28,2023-03-28,株式会社友々電工,,株式会社,香川県,高松市,川部町８１３番地,,37,201,7618046,,,,,,,2023-03-28,1,,,,,ユウユウデンコウ,0
1837,8470003002377,新規,0,2023-03-28,2023-03-28,合同会社エスプラス,,合同会社,香川県,高松市,松縄町１０６９番地８メゾンサンピュアＡ１０２,,37,201,7600079,,,,,,,2023-03-28,1,,,,,エスプラス,0
1848,9010001233936,新規,0,2023-03-28,2023-03-28,ジオフラ株式会社,,株式会社,東京都,千代田区,有楽町１丁目１２番１号,,13,101,1000006,,,,,,,2023-03-28,1,,,,,ジオフラ,0
1863,9010403029791,新規,0,2023-03-28,2023-03-28,合同会社Ｋ．Ｋ,,合同会社,東京都,港区,南麻布４丁目１１番４６－２１３号,,13,103,1060047,,,,,,,2023-03-28,1,,,,,ケーケー,0
1865,9010501050204,新規,0,2023-03-28,2023-03-28,株式会社ＪＡＰＡＮ　ＦＯＯＤ,,株式会社,東京都,台東区,上野６丁目１１番１号１Ｆ,,13,106,1100005,,,,,,,2023-03-28,1,,,,,ジャパンフード,0
1868,9010603010072,新規,0,2023-03-28,2023-03-28,合同会社ＩｎｋＦｉｅｌｄ,,合同会社,東京都,墨田区,緑３丁目６－７－８０１,,13,107,1300021,,,,,,,2023-03-28,1,,,,,インクフィールド,0
1869,9010603010080,新規,0,2023-03-28,2023-03-28,合同会社ことば屋,,合同会社,東京都,江東区,三好１丁目８番３号,,13,108,1350022,,,,,,,2023-03-28,1,,,,,コトバヤ,0
1879,9010903008056,新規,0,2023-03-28,2023-03-28,建築総合企画合同会社,,合同会社,東京都,世田谷区,砧２丁目１７番７号,,13,112,1570073,,,,,,,2023-03-28,1,,,,,,0
1892,9011001153389,新規,0,2023-03-28,2023-03-28,インフィニティ・ジャパンビバレッジ株式会社,,株式会社,東京都,渋谷区,猿楽町３０番８号,,13,113,1500033,,,,,,,2023-03-28,1,,,,,インフィニティジャパンビバレッジ,0
1897,9011003016536,新規,0,2023-03-28,2023-03-28,合同会社ｓＬｉｔ,,合同会社,東京都,渋谷区,神宮前６丁目２３－４桑野ビル２Ｆ,,13,113,1500001,,,,,,,2023-03-28,1,,,,,スリット,0
1911,9011501029089,新規,0,2023-03-28,2023-03-28,無邊界株式会社,,株式会社,東京都,北区,東十条３丁目１６－４,,13,117,1140001,,,,,,,2023-03-28,1,,,,,ムベンカイ,0
1920,9012401040318,新規,0,2023-03-28,2023-03-28,株式会社ＧＴ,,株式会社,東京都,武蔵野市,吉祥寺南町１丁目３２番２８号,,13,203,1800003,,,,,,,2023-03-28,1,,,,,ジーティー,0
1930,9020001150825,新規,0,2023-03-28,2023-03-28,畑山建設工業株式会社,,株式会社,神奈川県,横浜市港南区,日野２丁目１４－１－２０１,,14,111,2340051,,,,,,,2023-03-28,1,,,,,ハタヤマケンセツコウギョウ,0
1931,9020001150833,新規,0,2023-03-28,2023-03-28,ＰＡＮＪＩＴ　ＪＡＰＡＮ株式会社,,株式会社,神奈川県,横浜市港北区,新横浜２丁目５番地１４ＷｉｓｅＮｅｘｔ新横浜ビル４Ｆ,,14,109,2220033,,,,,,,2023-03-28,1,,,,,パンジットジャパン,0
1933,9020003023574,新規,0,2023-03-28,2023-03-28,合同会社Ｋ＆Ｋ,,合同会社,神奈川県,横浜市鶴見区,上末吉１丁目１０番２号山ハイツ３０１,,14,101,2300011,,,,,,,2023-03-28,1,,,,,ケーアンドケー,0
1934,9020003023590,新規,0,2023-03-28,2023-03-28,秋葉マネジメント合同会社,,合同会社,神奈川県,横浜市中区,伊勢佐木町６丁目１３２番地１ラインズプラザ伊勢佐木モール４０１号室,,14,104,2310045,,,,,,,2023-03-28,1,,,,,アキバマネジメント,0
1940,9030001153042,新規,0,2023-03-28,2023-03-28,株式会社ＳＩＮＹＯＲ,,株式会社,埼玉県,川口市,大字道合４４６番地の６,,11,203,3330835,,,,,,,2023-03-28,1,,,,,セニョール,0
1941,9030003021445,新規,0,2023-03-28,2023-03-28,ＣＨＡＬＩＳＥ　ＩＮＴＥＲＮＡＴＩＯＮＡＬ合同会社,,合同会社,埼玉県,所沢市,美原町４丁目２９６２番地の４０エステートピア美原１０２,,11,208,3590045,,,,,,,2023-03-28,1,,,,,チャリセインターナショナル,0
1944,9040001127664,新規,0,2023-03-28,2023-03-28,楽縁株式会社,,株式会社,千葉県,松戸市,小金原１丁目４番地７中山第一ビル１０２,,12,207,2700021,,,,,,,2023-03-28,1,,,,,ラクエン,0
1945,9040001127689,新規,0,2023-03-28,2023-03-28,株式会社グルービー,,株式会社,千葉県,松戸市,松戸１３０７－１松戸ビル１３階１３０２,,12,207,2710092,,,,,,,2023-03-28,1,,,,,グルービー,0
1948,9040003022277,新規,0,2023-03-28,2023-03-28,ＳＴＡＲ　ＡＵＴＯ　ＬＩＮＫ合同会社,,合同会社,千葉県,山武市,木原２９１番地１,,12,237,2891212,,,,,,,2023-03-28,1,,,,,スターオートリンク,0
1949,9040003022285,新規,0,2023-03-28,2023-03-28,合同会社アルミナ・ホワイト,,合同会社,千葉県,船橋市,藤原７丁目５番４０号,,12,204,2730047,,,,,,,2023-03-28,1,,,,,アルミナホワイト,0
1952,9050001052580,新規,0,2023-03-28,2023-03-28,株式会社Ａ．Ｋ　ＴＲＡＤＩＮＧ,,株式会社,茨城県,猿島郡境町,大字山崎１３５８番地１,,08,546,3060413,,,,,,,2023-03-28,1,,,,,エーケートレーディング,0
1955,9060001035824,新規,0,2023-03-28,2023-03-28,株式会社Ｂｅｓｔ　Ａｓｓｉｓｔ,,株式会社,栃木県,鹿沼市,上石川１１５７－８,,09,205,3220015,,,,,,,2023-03-28,1,,,,,ベストアシスト,0
1956,9060003004488,新規,0,2023-03-28,2023-03-28,合同会社岡田,,合同会社,栃木県,宇都宮市,砥上町８９９番地３,,09,201,3200856,,,,,,,2023-03-28,1,,,,,オカダ,0
1975,9120001253295,新規,0,2023-03-28,2023-03-28,ｉ‐ＣＬＥＡＮ株式会社,,株式会社,大阪府,大阪市北区,梅田２丁目５－６桜橋八千代ビル１Ｆ,,27,127,5300001,,,,,,,2023-03-28,1,,,,,アイクリーン,0
1986,9130001073940,新規,0,2023-03-28,2023-03-28,株式会社高正,00129885,株式会社,京都府,京都市伏見区,羽束師菱川町３１１番地１－２Ａ,,26,109,6128487,,,,,,,2023-03-28,1,,,,,タカショウ,0
1988,9130003008614,新規,0,2023-03-28,2023-03-28,合同会社ＨＮ２,,合同会社,京都府,京都市左京区,一乗寺宮ノ東町５１番地２０,,26,103,6068116,,,,,,,2023-03-28,1,,,,,エイチエヌツー,0
1993,9150001026260,新規,0,2023-03-28,2023-03-28,東洋エレワーク株式会社,,株式会社,奈良県,奈良市,学園新田町３０３４番地の１－５１６号,,29,201,6310025,,,,,,,2023-03-28,1,,,,,トウヨウエレワーク,0
1999,9160003002829,新規,0,2023-03-28,2023-03-28,合同会社ＫＴ,,合同会社,滋賀県,守山市,吉身４丁目７番２９号,,25,207,5240021,,,,,,,2023-03-28,1,,,,,ケーティー,0
2001,9170001017522,新規,0,2023-03-28,2023-03-28,株式会社成萬,,株式会社,和歌山県,和歌山市,土入２３２番地８,,30,201,6408432,,,,,,,2023-03-28,1,,,,,セイマン,0
2012,9180001155494,新規,0,2023-03-28,2023-03-28,株式会社アクジァン建設,,株式会社,愛知県,津島市,大坪町字折戸６８番地,,23,208,4960012,,,,,,,2023-03-28,1,,,,,アクジァンケンセツ,0
2013,9180003025035,新規,0,2023-03-28,2023-03-28,ＮＥＸＥＥＤ合同会社,,合同会社,愛知県,名古屋市名東区,高針台２丁目４０８番地,,23,115,4650054,,,,,,,2023-03-28,1,,,,,ネクシード,0
2014,9180301037228,新規,0,2023-03-28,2023-03-28,株式会社シンキ,,株式会社,愛知県,刈谷市,一色町１丁目５番地１２ｐｌｕｓＫＫＭ１０３,,23,210,4480022,,,,,,,2023-03-28,1,,,,,シンキ,0
2017,9190003004260,新規,0,2023-03-28,2023-03-28,合同会社友彪,,合同会社,三重県,津市,白山町八対野１２９－３,,24,201,5152615,,,,,,,2023-03-28,1,,,,,スケトラ,0
2018,9200001041114,新規,0,2023-03-28,2023-03-28,株式会社ワン・テーブル・コミュニケーション,,株式会社,岐阜県,大垣市,領家町２丁目１３１番地１,,21,202,5030014,,,,,,,2023-03-28,1,,,,,ワンテーブルコミュニケーション,0
2028,9240001061240,新規,0,2023-03-28,2023-03-28,株式会社ＲｉｓｉＮｇ,,株式会社,広島県,廿日市市,大野８４４６番地６,,34,213,7390488,,,,,,,2023-03-28,1,,,,,ライジング,0
2031,9260001037767,新規,0,2023-03-28,2023-03-28,株式会社ゼータマーケティング,,株式会社,岡山県,岡山市北区,伊福町４丁目８番１６号ヴェルディ伊福町１２０２号室,,33,101,7000013,,,,,,,2023-03-28,1,,,,,ゼータマーケティング,0
2033,9260003004253,新規,0,2023-03-28,2023-03-28,マシュレント合同会社,,合同会社,岡山県,総社市,小寺１５３９番地７,,33,208,7191155,,,,,,,2023-03-28,1,,,,,マシュレント,0
2047,9330003009773,新規,0,2023-03-28,2023-03-28,オクムラ防災設計合同会社,,合同会社,熊本県,上益城郡御船町,大字辺田見１６６３番５,,43,441,8613206,,,,,,,2023-03-28,1,,,,,オクムラボウサイセッケイ,0
2072,9460101007360,新規,0,2023-03-28,2023-03-28,株式会社ＮＢエナジー,,株式会社,北海道,河東郡上士幌町,字上士幌東３線２３７番地,,01,633,0801408,,,,,,,2023-03-28,1,,,,,エヌビーエナジー,0
2074,9470003002376,新規,0,2023-03-28,2023-03-28,合同会社Ｍ’ｓ　Ｃａｎａｄａ,,合同会社,香川県,高松市,飯田町４４１番地２,,37,201,7618033,,,,,,,2023-03-28,1,,,,,エムズカナダ,0
2075,9480001012046,新規,0,2023-03-28,2023-03-28,株式会社誠,,株式会社,徳島県,板野郡松茂町,笹木野字八下１５番地１,,36,401,7710219,,,,,,,2023-03-28,1,,,,,マコト,0
