sequenceNumber,corporateNumber,process,correct,updateDate,changeDate,name,nameImageId,kind,prefectureName,cityName,streetNumber,addressImageId,prefectureCode,cityCode,postCode,addressOutside,addressOutsideImageId,closeDate,closeCause,successorCorporateNumber,changeCause,assignmentDate,latest,enName,enPrefectureName,enCityName,enAddressOutside,furigana,hihyoji
7,1010001238678,新規,0,2023-09-25,2023-09-25,株式会社Ｄｅｌ　Ｍａｒ,,株式会社,東京都,千代田区,鍛冶町２丁目２番８号,,13,101,1010044,,,,,,,2023-09-25,1,,,,,デルマ,0
8,1010001238686,新規,0,2023-09-25,2023-09-25,株式会社ビッグヤード,,株式会社,東京都,中央区,日本橋大伝馬町４番５号,,13,102,1030011,,,,,,,2023-09-25,1,,,,,ビッグヤード,0
9,1010001238728,新規,0,2023-09-25,2023-09-25,Ｃｈａｄｕｌｔ株式会社,,株式会社,東京都,中央区,銀座１丁目２２番１１号銀座大竹ビジデンス２Ｆ,,13,102,1040061,,,,,,,2023-09-25,1,,,,,チャダルト,0
10,1010001238752,新規,0,2023-09-25,2023-09-25,あいこ商事株式会社,,株式会社,東京都,中央区,日本橋兜町１７－２兜町第６葉山ビル４Ｆ,,13,102,1030026,,,,,,,2023-09-25,1,,,,,アイコショウジ,0
14,1010003041741,新規,0,2023-09-25,2023-09-25,合同会社Ｚｅｓｔ　Ｌｅａｓｅ　Ｃｏ,,合同会社,東京都,千代田区,丸の内３丁目１番１号東京共同会計事務所内,,13,101,1000005,,,,,,,2023-09-25,1,,,,,ゼストリースコ,0
16,1010101015829,新規,0,2023-09-25,2023-09-25,株式会社小松測技,,株式会社,東京都,八王子市,暁町３丁目５番１号,,13,201,1920043,,,,,,,2023-09-25,1,,,,,コマツソクギ,0
22,1010401177336,新規,0,2023-09-25,2023-09-25,株式会社ＷＲＤ,,株式会社,東京都,港区,西新橋２丁目４番４号,,13,103,1050003,,,,,,,2023-09-25,1,,,,,ダブリューアールディー,0
23,1010401177402,新規,0,2023-09-25,2023-09-25,株式会社Ｍ‐ＮＩＮＥ,,株式会社,東京都,港区,西新橋１丁目５番９号７Ｆ,,13,103,1050003,,,,,,,2023-09-25,1,,,,,エムナイン,0
27,1010501051110,新規,0,2023-09-25,2023-09-25,東京地財株式会社,,株式会社,東京都,台東区,東上野６丁目１８番１９号,,13,106,1100015,,,,,,,2023-09-25,1,,,,,トウキョウチザイ,0
29,1010601063831,新規,0,2023-09-25,2023-09-25,株式会社Ｍｙ　Ｈｏｐｅ,,株式会社,東京都,江東区,新大橋３丁目７番８号エンマンビル３０１,,13,108,1350007,,,,,,,2023-09-25,1,,,,,マイホープ,0
40,1011001157075,新規,0,2023-09-25,2023-09-25,株式会社Ｆｏｒｑｕｅｄ,,株式会社,東京都,渋谷区,渋谷２丁目１９－１５宮益坂ビルディング６０９,,13,113,1500002,,,,,,,2023-09-25,1,,,,,フォークド,0
41,1011001157109,新規,0,2023-09-25,2023-09-25,株式会社プレミアムビジネスサポート,,株式会社,東京都,渋谷区,神宮前１丁目２３番２６号,,13,113,1500001,,,,,,,2023-09-25,1,,,,,プレミアムビジネスサポート,0
42,1011003017574,新規,0,2023-09-25,2023-09-25,合同会社ＬＩＢＥＲＴＹ,,合同会社,東京都,渋谷区,神泉町１０番１５号アネックス神泉３０１,,13,113,1500045,,,,,,,2023-09-25,1,,,,,リバティ,0
48,1011101104464,新規,0,2023-09-25,2023-09-25,株式会社ルブラン,,株式会社,東京都,新宿区,西新宿３丁目３番１３号西新宿水間ビル６階,,13,104,1600023,,,,,,,2023-09-25,1,,,,,ルブラン,0
50,1011103013507,新規,0,2023-09-25,2023-09-25,合同会社ノブリス,,合同会社,東京都,新宿区,若葉３丁目１０番地,,13,104,1600011,,,,,,,2023-09-25,1,,,,,ノブリス,0
65,1011703003601,新規,0,2023-09-25,2023-09-25,Ａ．Ｓ合同会社,,合同会社,東京都,江戸川区,平井４丁目１２－１立花屋平井駅前ビル４階,,13,123,1320035,,,,,,,2023-09-25,1,,,,,エーエス,0
67,1011801043078,新規,0,2023-09-25,2023-09-25,株式会社聖川,,株式会社,東京都,足立区,谷在家１丁目１１番２－６０４号,,13,121,1230863,,,,,,,2023-09-25,1,,,,,セイカワ,0
86,1020001153505,新規,0,2023-09-25,2023-09-25,ＡＡＩＫＡ　Ｊａｐａｎ株式会社,,株式会社,神奈川県,横浜市中区,尾上町４丁目５７番地横浜尾上町ビルディング８Ｆ８４９号室,,14,104,2310015,,,,,,,2023-09-25,1,,,,,アイカジャパン,0
92,1020003024638,新規,0,2023-09-25,2023-09-25,ＡＴＳＵ合同会社,,合同会社,神奈川県,川崎市中原区,小杉御殿町２丁目９６番地３青いリボン２０１,,14,133,2110068,,,,,,,2023-09-25,1,,,,,アツ,0
93,1020003024646,新規,0,2023-09-25,2023-09-25,合同会社デツアー,,合同会社,神奈川県,横浜市保土ケ谷区,川島町５０３番地３,,14,106,2400045,,,,,,,2023-09-25,1,,,,,デツアー,0
94,1020003024654,新規,0,2023-09-25,2023-09-25,合同会社ＣＯＭＦＯＲＴ,,合同会社,神奈川県,川崎市高津区,久本２丁目１１番４号,,14,134,2130011,,,,,,,2023-09-25,1,,,,,コンフォート,0
95,1021001080251,新規,0,2023-09-25,2023-09-25,株式会社Ｆｌａｓｈ,,株式会社,神奈川県,横須賀市,ハイランド３丁目２７番２４号,,14,201,2390833,,,,,,,2023-09-25,1,,,,,フラッシュ,0
106,1030001156110,新規,0,2023-09-25,2023-09-25,株式会社ＭＥＩＳＵＩ,,株式会社,埼玉県,さいたま市西区,大字内野本郷５９４番地２１,,11,101,3310045,,,,,,,2023-09-25,1,,,,,メイスイ,0
107,1030001156168,新規,0,2023-09-25,2023-09-25,株式会社ネオアクト,,株式会社,埼玉県,川越市,諏訪町１７番地４５,,11,201,3501147,,,,,,,2023-09-25,1,,,,,ネオアクト,0
112,1030003022558,新規,0,2023-09-25,2023-09-25,合同会社ＧＩＡ　ＰＨＵＣ,,合同会社,埼玉県,川口市,並木２丁目２８番１号ヴィラ宮岡６０３号室,,11,203,3320034,,,,,,,2023-09-25,1,,,,,ジアフック,0
113,1030003022590,新規,0,2023-09-25,2023-09-25,合同会社Ｔ＆Ｍ,,合同会社,埼玉県,さいたま市北区,日進町２丁目１９１６番地５－２１０号室,,11,102,3310823,,,,,,,2023-09-25,1,,,,,ティーアンドエム,0
125,1050001053512,新規,0,2023-09-25,2023-09-25,ｃｕｅ　ｄｅｓｉｇｎ株式会社,,株式会社,茨城県,坂東市,岩井１０３７番地３,,08,228,3060631,,,,,,,2023-09-25,1,,,,,キューデザイン,0
131,1060003004727,新規,0,2023-09-25,2023-09-25,合同会社ＢＯＭ,,合同会社,栃木県,宇都宮市,錦２丁目１０番１号ナイスロイヤルビュー錦６０５号室,,09,201,3210967,,,,,,,2023-09-25,1,,,,,ビーオーエム,0
134,1080101024220,新規,0,2023-09-25,2023-09-25,株式会社秀栄アルミ,,株式会社,静岡県,富士市,松岡６６８番地の３,,22,210,4160909,,,,,,,2023-09-25,1,,,,,シュウエイアルミ,0
135,1080101024229,新規,0,2023-09-25,2023-09-25,株式会社ベストライフサポート,,株式会社,静岡県,伊豆の国市,長岡８５４番地の４,,22,225,4102211,,,,,,,2023-09-25,1,,,,,ベストライフサポート,0
137,1080401026750,新規,0,2023-09-25,2023-09-25,美興ホールディングス株式会社,,株式会社,静岡県,浜松市中区,高丘東１丁目５番１９号,,22,131,4338117,,,,,,,2023-09-25,1,,,,,ビコウホールディングス,0
141,1090001018338,新規,0,2023-09-25,2023-09-25,横内工業株式会社,,株式会社,山梨県,甲府市,東光寺２丁目３０番６号,,19,201,4000807,,,,,,,2023-09-25,1,,,,,ヨコウチコウギョウ,0
144,1100003007196,新規,0,2023-09-25,2023-09-25,合同会社あん・バランス,,合同会社,長野県,須坂市,田の神１１－５,,20,207,3820000,,,,,,,2023-09-25,1,,,,,アンバランス,0
146,1110001037855,新規,0,2023-09-25,2023-09-25,アセットリンク株式会社,,株式会社,新潟県,新潟市中央区,万代４丁目２番２３号オフィス万代７０３,,15,103,9500088,,,,,,,2023-09-25,1,,,,,アセットリンク,0
160,1120001258194,新規,0,2023-09-25,2023-09-25,株式会社四海波,,株式会社,大阪府,大阪市北区,中之島５丁目３番６８号リーガロイヤルホテル内４０５号室,,27,127,5300005,,,,,,,2023-09-25,1,,,,,シカイナミ,0
161,1120001258203,新規,0,2023-09-25,2023-09-25,株式会社Ｎａｍｉｘ,,株式会社,大阪府,枚方市,穂谷３丁目４番１８号,,27,210,5730114,,,,,,,2023-09-25,1,,,,,ナミックス,0
163,1120003024982,新規,0,2023-09-25,2023-09-25,合同会社アンドシーオードット,,合同会社,大阪府,大阪市北区,堂島浜１丁目４－１８－７Ｆ,,27,127,5300004,,,,,,,2023-09-25,1,,,,,アンドシーオードット,0
165,1120101068238,新規,0,2023-09-25,2023-09-25,株式会社新興,,株式会社,大阪府,堺市堺区,南半町西１丁１－２１－６０５,,27,141,5900967,,,,,,,2023-09-25,1,,,,,シンコウ,0
166,1120103005453,新規,0,2023-09-25,2023-09-25,合同会社ラフティアーズ,,合同会社,大阪府,岸和田市,土生町２丁目３０－５シャルマンフジエスト岸和田３０５,,27,202,5960825,,,,,,,2023-09-25,1,,,,,ラフティアーズ,0
170,1122001037396,新規,0,2023-09-25,2023-09-25,株式会社Ｐｉｃｋ　ｔｏｐ,,株式会社,大阪府,東大阪市,荒川２丁目１１番３号,,27,227,5770843,,,,,,,2023-09-25,1,,,,,ピックトップ,0
171,1122001037405,新規,0,2023-09-25,2023-09-25,ＴＨＹ株式会社,,株式会社,大阪府,東大阪市,稲田本町２丁目７番２２号,,27,227,5770007,,,,,,,2023-09-25,1,,,,,ティエイチワイ,0
190,1140005026752,新規,0,2023-09-25,2023-09-25,南あわじ市清掃事業協同組合,,その他の設立登記法人,兵庫県,南あわじ市,榎列上幡多１４７５番地３９,,28,224,6560422,,,,,,,2023-09-25,1,,,,,ミナミアワジシセイソウ,0
198,1180001158174,新規,0,2023-09-25,2023-09-25,株式会社デジエステート,,株式会社,愛知県,名古屋市昭和区,花見通３丁目１６番地の１,,23,107,4660831,,,,,,,2023-09-25,1,,,,,デジエステート,0
200,1180005020363,新規,0,2023-09-25,2023-09-25,一般社団法人福祉経営サポートセンター,,その他の設立登記法人,愛知県,小牧市,久保一色東１丁目２０番地,,23,219,4850001,,,,,,,2023-09-25,1,,,,,フクシケイエイサポートセンター,0
203,1190001030753,新規,0,2023-09-25,2023-09-25,株式会社訪問介護事業所ＯＮＥ,,株式会社,三重県,津市,美里町家所８－２１２,,24,201,5142104,,,,,,,2023-09-25,1,,,,,ホウモンカイゴジギョウショワン,0
204,1190005011865,新規,0,2023-09-25,2023-09-25,特定非営利活動法人陽だまり,,その他の設立登記法人,三重県,津市,八幡町津９９番地,,24,201,5140813,,,,,,,2023-09-25,1,,,,,ヒダマリ,0
205,1200003006089,新規,0,2023-09-25,2023-09-25,合同会社愛岐建装,,合同会社,岐阜県,可児市,鳩吹台６丁目５０番地,,21,214,5090264,,,,,,,2023-09-25,1,,,,,アイギケンソウ,0
213,1240001062155,新規,0,2023-09-25,2023-09-25,ＭＭホーム株式会社,,株式会社,広島県,福山市,新涯町１丁目４番３１号,,34,207,7210955,,,,,,,2023-09-25,1,,,,,エムエムホーム,0
216,1240003006325,新規,0,2023-09-25,2023-09-25,いちごケアアシスト合同会社,,合同会社,広島県,福山市,曙町４丁目８－３,,34,207,7210952,,,,,,,2023-09-25,1,,,,,,0
217,1250003003354,新規,0,2023-09-25,2023-09-25,ゼロスカンパニー合同会社,,合同会社,山口県,宇部市,西梶返２丁目２１番４０－６０５号,,35,202,7550037,,,,,,,2023-09-25,1,,,,,ゼロスカンパニー,0
226,1290001103086,新規,0,2023-09-25,2023-09-25,ＳＥＧＩ株式会社,,株式会社,福岡県,福岡市博多区,祇園町８番１３号,,40,132,8120038,,,,,,,2023-09-25,1,,,,,セギ,0
227,1290001103136,新規,0,2023-09-25,2023-09-25,株式会社はす,,株式会社,福岡県,糟屋郡篠栗町,中央４丁目１５番５号,,40,342,8112417,,,,,,,2023-09-25,1,,,,,ハス,0
229,1290003014389,新規,0,2023-09-25,2023-09-25,合同会社エコライフ解放研究所,,合同会社,福岡県,福岡市博多区,東平尾２丁目７番１７号,,40,132,8120853,,,,,,,2023-09-25,1,,,,,エコライフカイホウケンキュウショ,0
230,1290003014397,新規,0,2023-09-25,2023-09-25,合同会社ｐａｒａｄｏｘ,,合同会社,福岡県,福岡市博多区,中洲２丁目２番２号エクセレンシア博多３０３号室,,40,132,8100801,,,,,,,2023-09-25,1,,,,,パラドックス,0
233,1300001013473,新規,0,2023-09-25,2023-09-25,株式会社ｆａｒｍｅｒｓ　ｆｏｌｋｓ,,株式会社,佐賀県,伊万里市,大坪町乙５３５３番地４,,41,205,8480022,,,,,,,2023-09-25,1,,,,,ファーマーズフォークス,0
235,1320001020014,新規,0,2023-09-25,2023-09-25,株式会社幸祐工業,,株式会社,大分県,大分市,大字森町１１８５番地の２,,44,201,8700127,,,,,,,2023-09-25,1,,,,,コウユウコウギョウ,0
237,1320003004147,新規,0,2023-09-25,2023-09-25,合資会社まとやホテル,,合資会社,大分県,別府市,北浜３丁目７番１２号,,44,202,8740920,,,,,,,2023-09-25,1,,,,,,0
242,1340003004260,新規,0,2023-09-25,2023-09-25,合同会社ＵＥＣ,,合同会社,鹿児島県,姶良市,永池町２８番地９,,46,225,8995654,,,,,,,2023-09-25,1,,,,,ユーイーシー,0
243,1350003004441,新規,0,2023-09-25,2023-09-25,ＡＩＲ‐ＦＬＩＧＨＴ合同会社,,合同会社,宮崎県,宮崎市,大字島之内１０５９２番地１９,,45,201,8800121,,,,,,,2023-09-25,1,,,,,エアフライト,0
246,1370005010691,新規,0,2023-09-25,2023-09-25,特定非営利活動法人東北パフォーマンスネットワーク,,その他の設立登記法人,宮城県,仙台市若林区,南小泉４丁目６番２３号,,04,103,9840827,,,,,,,2023-09-25,1,,,,,トウホクパフォーマンスネットワーク,0
252,1390001017375,新規,0,2023-09-25,2023-09-25,博羽株式会社,,株式会社,山形県,新庄市,大字鳥越４９２番地１４,,06,205,9960041,,,,,,,2023-09-25,1,,,,,,0
254,1400001016391,新規,0,2023-09-25,2023-09-25,株式会社修栄工業,,株式会社,岩手県,北上市,九年橋２丁目４番３号,,03,206,0240063,,,,,,,2023-09-25,1,,,,,シュウエイコウギョウ,0
256,1420001018411,新規,0,2023-09-25,2023-09-25,株式会社ＤＧ　ＧＬＯＢＡＬ　ＴＲＡＤＥ,,株式会社,青森県,三沢市,中央町３丁目９番３８号,,02,207,0330001,,,,,,,2023-09-25,1,,,,,ディージーグローバルトレード,0
257,1430001090021,新規,0,2023-09-25,2023-09-25,株式会社佐橋建業,,株式会社,北海道,札幌市東区,伏古四条２丁目４番２０号,,01,103,0070864,,,,,,,2023-09-25,1,,,,,サハシケンギョウ,0
259,1430003015463,新規,0,2023-09-25,2023-09-25,合同会社ライフテック,,合同会社,北海道,札幌市東区,北三十八条東９丁目１番４０－２０１号,,01,103,0070838,,,,,,,2023-09-25,1,,,,,ライフテック,0
260,1430005014785,新規,0,2023-09-25,2023-09-25,特定非営利活動法人ダイバース・エデュケーション,,その他の設立登記法人,北海道,札幌市白石区,栄通３丁目１番２５－４０２号,,01,104,0030021,,,,,,,2023-09-25,1,,,,,ダイバースエデュケーション,0
261,1430005014793,新規,0,2023-09-25,2023-09-25,医療法人訪問歯科診療所ひまわり,,その他の設立登記法人,北海道,江別市,中央町１番地の１４,,01,217,0690801,,,,,,,2023-09-25,1,,,,,ホウモンシカシンリョウショヒマワリ,0
268,1700150120625,新規,0,2023-09-25,2023-09-25,ＳｈｅｎＺｈｅｎ　ＺｉＹｉＯｕ　ＫｅＪｉ　Ｙｏｕｘｉａｎ　Ｇｏｎｇｓｉ,,外国会社等,,,,,,,,Ｒｏｏｍ　１５０２，Ｙｏｎｇｑｉ　Ｔｅｃｈｎｏｌｏｇｙ　Ｐａｒｋ，Ａｒｅａ　Ｃ，Ｘｉｆａ　Ｃｏｍｍｕｎｉｔｙ，Ｙｉｎｔｉａｎ　Ｉｎｄｕｓｔｒｉａｌ　Ｚｏｎｅ，Ｇｏｎｇｌｅ　Ｃｏｍｍｕｎｉｔｙ，Ｘｉｘｉａｎｇ　Ｓｔｒｅｅｔ，Ｂａｏａｎ　Ｄｉｓｔｒｉｃｔ，ｓｈｅｎｚｈｅｎ　５１８０００　ＣＮ,,,,,,2023-09-25,1,,,,,シンセンズイオカギヨウシェンゴンスー,0
269,1700150120633,新規,0,2023-09-25,2023-09-25,ｘｉａｍｅｎｓｈａｎｊｉｅｄｉａｎｚｉｋｅｊｉｙｏｕｘｉａｎｇｏｎｇｓｉ,,外国会社等,,,,,,,,Ｕｎｉｔ　６０４－Ｂ，Ｎｏ．３６５　Ｃｈｅｎｇｙｉ　Ｓｔｒｅｅｔ，Ｐｈａｓｅ　３，Ｘｉａｍｅｎ　Ｓｏｆｔｗａｒｅ　Ｘｉａｍｅｎｓｈｉ　Ｆｕｊｉａｎ　３６１０２２　ＣＮ,,,,,,2023-09-25,1,,,,,シャアメンシャンジエディエンズーカージヨウシェンゴンスー,0
270,1700150120641,新規,0,2023-09-25,2023-09-25,ＧＵＡＮＧＺＨＯＵ　ＧＡＯＣＨＥＮＧ　ＬＥＡＴＨＥＲ　ＬＴＤ,,外国会社等,,,,,,,,４ｔｈ　Ｆｌｏｏｒ，Ｂｕｉｌｄｉｎｇ　Ａ１，Ｎｏ．５，Ｉｎｄｕｓｔｒｉａｌ，Ｐａｒｋ　１ｓｔ　Ｒｏａｄ，Ｃｈａｎｇｈｏｎｇ　Ｓｈｕａｎｇｈｅ，Ｊｉａｈｅ　Ｓｔｒｅｅｔ，Ｂａｉｙｕｎ　Ｄｉｓｔｒｉｃｔ，Ｇｕａｎｇｚｈｏｕ，Ｇｕａｎｇｄｏｎｇ,,,,,,2023-09-25,1,,,,,コウシュウコウセイカワグユウゲンコウシ,0
279,2010001238693,新規,0,2023-09-25,2023-09-25,株式会社Ｓ．Ａ．Ｓｅｃｕｒｉｔｙ,,株式会社,東京都,千代田区,麹町２丁目２番２２号ＡＣＮ半蔵門ビル１０階,,13,101,1020083,,,,,,,2023-09-25,1,,,,,エスエーセキュリティ,0
283,2010003041708,新規,0,2023-09-25,2023-09-25,合同会社ＢＯＵＳＡＩ　ＬＩＦＥ　ＭＡＰ,,合同会社,東京都,中央区,銀座１丁目２２番１１号銀座大竹ビジデンス２階,,13,102,1040061,,,,,,,2023-09-25,1,,,,,ボウサイライフマップ,0
284,2010003041749,新規,0,2023-09-25,2023-09-25,合同会社ｎｏＴＥ,,合同会社,東京都,千代田区,鍛冶町２丁目８番１２－６０３号,,13,101,1010044,,,,,,,2023-09-25,1,,,,,ノテ,0
285,2010005037308,新規,0,2023-09-25,2023-09-25,一般社団法人東海プロパティ,,その他の設立登記法人,東京都,千代田区,丸の内３丁目１番１号東京共同会計事務所内,,13,101,1000005,,,,,,,2023-09-25,1,,,,,トウカイプロパティ,0
286,2010401177277,新規,0,2023-09-25,2023-09-25,株式会社Ｇｒａｃｅインターナショナル,,株式会社,東京都,港区,芝浦４丁目２２番１－３２０７,,13,103,1080023,,,,,,,2023-09-25,1,,,,,,0
301,2011001157058,新規,0,2023-09-25,2023-09-25,アットウィル株式会社,,株式会社,東京都,渋谷区,幡ヶ谷２丁目３番１０号,,13,113,1510072,,,,,,,2023-09-25,1,,,,,アットウィル,0
302,2011001157116,新規,0,2023-09-25,2023-09-25,Ｐｉｎｋｃｏｒｅ　Ｊａｐａｎ株式会社,,株式会社,東京都,渋谷区,道玄坂１丁目２番３号渋谷フクラス１７階,,13,113,1500043,,,,,,,2023-09-25,1,,,,,ピンクコアジャパン,0
303,2011001157124,新規,0,2023-09-25,2023-09-25,インパクト・キャピタル株式会社,,株式会社,東京都,渋谷区,上原１丁目３番９号,,13,113,1510064,,,,,,,2023-09-25,1,,,,,インパクトキャピタル,0
304,2011001157140,新規,0,2023-09-25,2023-09-25,ＧＬＣジャパン株式会社,,株式会社,東京都,渋谷区,道玄坂１丁目１２番１号渋谷マークシティ２２Ｆ,,13,113,1500043,,,,,,,2023-09-25,1,,,,,ジーエルシージャパン,0
306,2011003017573,新規,0,2023-09-25,2023-09-25,合同会社ＭＡＩＬ,,合同会社,東京都,渋谷区,桜丘町４番１４号ＶＯＲＴ渋谷桜丘ビル５Ｆ,,13,113,1500031,,,,,,,2023-09-25,1,,,,,メール,0
309,2011101104397,新規,0,2023-09-25,2023-09-25,株式会社ＴＯＲＡＩＣＨＩ,,株式会社,東京都,新宿区,西新宿３丁目３－１３西新宿水間ビル２Ｆ,,13,104,1600023,,,,,,,2023-09-25,1,,,,,トライチ,0
310,2011101104471,新規,0,2023-09-25,2023-09-25,株式会社ＷＡＮＷＡＮ．,,株式会社,東京都,新宿区,新宿５丁目８番２２号中銀マーブルマンシオン７０１,,13,104,1600022,,,,,,,2023-09-25,1,,,,,ワンワン,0
311,2011103013506,新規,0,2023-09-25,2023-09-25,合同会社ＺａｇＢｅｅ,,合同会社,東京都,新宿区,西新宿３丁目３番１３号西新宿水間ビル２Ｆ,,13,104,1600023,,,,,,,2023-09-25,1,,,,,ザグビー,0
312,2011301029023,新規,0,2023-09-25,2023-09-25,株式会社ｉ‐ｈｏｕｓｅ,,株式会社,東京都,杉並区,阿佐谷北２丁目２１番２８号,,13,115,1660001,,,,,,,2023-09-25,1,,,,,アイハウス,0
313,2011303004916,新規,0,2023-09-25,2023-09-25,ＳＹＣ合同会社,,合同会社,東京都,杉並区,和泉３丁目７番１号生活クラブ館杉並２階,,13,115,1680063,,,,,,,2023-09-25,1,,,,,エスワイシー,0
339,2020001153611,新規,0,2023-09-25,2023-09-25,ＥＨＳリスクマネジメント株式会社,,株式会社,神奈川県,横浜市西区,浅間町１丁目４番３号ウィザードビル４０２,,14,103,2200072,,,,,,,2023-09-25,1,,,,,イーエイチエスリスクマネジメント,0
347,2030001074419,新規,0,2023-09-25,2023-09-25,株式会社河井工務店,,株式会社,埼玉県,川口市,大字芝４９２９番地の５,,11,203,3330866,,,,,,,2023-09-25,1,,,,,,0
349,2030001156142,新規,0,2023-09-25,2023-09-25,株式会社Ｓｅｒｅｎｉｓｓｉｍａ　ｉｍｐｏｒｔ‐ｅｘｐｏｒｔ,,株式会社,埼玉県,春日部市,大枝６７９番地,,11,214,3440023,,,,,,,2023-09-25,1,,,,,セレニッシマインポートエクスポート,0
350,2030001156159,新規,0,2023-09-25,2023-09-25,株式会社Ｆ・Ｊ,,株式会社,埼玉県,蕨市,塚越７丁目１４番１２号,,11,223,3350002,,,,,,,2023-09-25,1,,,,,エフジェイ,0
351,2030001156167,新規,0,2023-09-25,2023-09-25,株式会社ＨＣＩ,,株式会社,埼玉県,上尾市,中妻２丁目１８番１２号,,11,219,3620072,,,,,,,2023-09-25,1,,,,,エイチシーアイ,0
352,2030001156209,新規,0,2023-09-25,2023-09-25,株式会社ＲＥＺＥＳＴ,,株式会社,埼玉県,所沢市,大字荒幡１６５番地の２,,11,208,3591133,,,,,,,2023-09-25,1,,,,,リゼスト,0
357,2030003022474,新規,0,2023-09-25,2023-09-25,天明合同会社,,合同会社,埼玉県,本庄市,駅南１丁目８番２５号３０８号,,11,211,3670041,,,,,,,2023-09-25,1,,,,,テンミョウ,0
362,2040001130212,新規,0,2023-09-25,2023-09-25,非営利株式会社蓮葉果紅,,株式会社,千葉県,千葉市緑区,上大和田町４７番地,,12,105,2670051,,,,,,,2023-09-25,1,,,,,レンヨウカコウ,0
364,2040003023389,新規,0,2023-09-25,2023-09-25,Ｌｉｎｋｓ合同会社,,合同会社,千葉県,千葉市中央区,今井３丁目２７番７号,,12,101,2600834,,,,,,,2023-09-25,1,,,,,リンクス,0
374,2060001036374,新規,0,2023-09-25,2023-09-25,株式会社Ｏｎｅ　Ｆｏｒ　Ａｌｌ,,株式会社,栃木県,宇都宮市,峰町２４５番地５ガーデンハイツＩＩ－１０１号室,00132013,09,201,3210943,,,,,,,2023-09-25,1,,,,,ワンフォーオール,0
376,2060003004726,新規,0,2023-09-25,2023-09-25,ＰＨＵＯＮＧ　ＪＰ合同会社,,合同会社,栃木県,佐野市,大橋町１６３３番地５,,09,204,3270003,,,,,,,2023-09-25,1,,,,,フォンジェイピー,0
377,2060005010128,新規,0,2023-09-25,2023-09-25,一般社団法人ひるね,,その他の設立登記法人,栃木県,宇都宮市,中戸祭１丁目５番４,,09,201,3200057,,,,,,,2023-09-25,1,,,,,ヒルネ,0
379,2070003005095,新規,0,2023-09-25,2023-09-25,合同会社リトルシープ,,合同会社,群馬県,安中市,下磯部３９３番地,,10,211,3790129,,,,,,,2023-09-25,1,,,,,リトルシープ,0
383,2080102011893,新規,0,2023-09-25,2023-09-25,有限会社山口,,有限会社,静岡県,三島市,大宮町１丁目７番２８号,,22,206,4110035,,,,,,,2023-09-25,1,,,,,ヤマグチ,0
384,2080103002891,新規,0,2023-09-25,2023-09-25,スライストーン合同会社,,合同会社,静岡県,沼津市,大平２７９番地の３,,22,203,4100821,,,,,,,2023-09-25,1,,,,,スライストーン,0
385,2080401026733,新規,0,2023-09-25,2023-09-25,株式会社ＡＲ,,株式会社,静岡県,浜松市中区,鴨江３丁目５番１７号,,22,131,4328023,,,,,,,2023-09-25,1,,,,,エーアール,0
394,2100003007187,新規,0,2023-09-25,2023-09-25,合同会社ドリームプレス,,合同会社,長野県,上田市,材木町２丁目１３番１２号,,20,203,3860014,,,,,,,2023-09-25,1,,,,,ドリームプレス,0
397,2110005016994,新規,0,2023-09-25,2023-09-25,一般社団法人新潟国際アニメーション映画祭,,その他の設立登記法人,新潟県,新潟市中央区,古町通５番町６０２‐１,,15,103,9518063,,,,,,,2023-09-25,1,,,,,ニイガタコクサイアニメーションエイガサイ,0
401,2120001258193,新規,0,2023-09-25,2023-09-25,Ａｃｅ株式会社,,株式会社,大阪府,大阪市生野区,桃谷２丁目２２番１４号,,27,116,5440034,,,,,,,2023-09-25,1,,,,,エース,0
408,2120101068253,新規,0,2023-09-25,2023-09-25,株式会社ＳＵＮ’Ｚ,,株式会社,大阪府,貝塚市,小瀬１丁目３２番３－３号,,27,208,5970021,,,,,,,2023-09-25,1,,,,,サンズ,0
413,2122001037395,新規,0,2023-09-25,2023-09-25,株式会社モダンリヴ,,株式会社,大阪府,東大阪市,島之内１丁目５番３１号,,27,227,5780981,,,,,,,2023-09-25,1,,,,,モダンリヴ,0
417,2130001075340,新規,0,2023-09-25,2023-09-25,ＭＥＴＡ　ＰＬＡＮＮＩＮＧ株式会社,,株式会社,京都府,京都市中京区,烏丸通四条上る笋町６８８第１５長谷ビル９階,,26,104,6048153,,,,,,,2023-09-25,1,,,,,メタプランニング,0
427,2140001131704,新規,0,2023-09-25,2023-09-25,ツルテック株式会社,,株式会社,兵庫県,神戸市須磨区,菅の台１丁目３番２３号,,28,107,6540143,,,,,,,2023-09-25,1,,,,,ツルテック,0
428,2140001131712,新規,0,2023-09-25,2023-09-25,株式会社松建,,株式会社,兵庫県,明石市,魚住町清水２４６番地の６,,28,203,6740074,,,,,,,2023-09-25,1,,,,,マツケン,0
429,2140001131720,新規,0,2023-09-25,2023-09-25,ポラリスグローパートナーズ株式会社,,株式会社,兵庫県,加古川市,平岡町土山６０－２－３１２,,28,210,6750104,,,,,,,2023-09-25,1,,,,,ポラリスグローパートナーズ,0
435,2140005026751,新規,0,2023-09-25,2023-09-25,スプリング社会保険労務士法人,,その他の設立登記法人,兵庫県,神戸市兵庫区,中道通７丁目１番１３号ふようビル２Ｆ,,28,105,6520801,,,,,,,2023-09-25,1,,,,,スプリング,0
449,2180001158149,新規,0,2023-09-25,2023-09-25,株式会社ジェネラル,,株式会社,愛知県,名古屋市緑区,小坂１丁目４１６番地,,23,114,4580022,,,,,,,2023-09-25,1,,,,,ジェネラル,0
456,2190003004449,新規,0,2023-09-25,2023-09-25,合同会社クックルー,,合同会社,三重県,津市,半田３３５０番地３７,,24,201,5140823,,,,,,,2023-09-25,1,,,,,クックルー,0
462,2230001020030,新規,0,2023-09-25,2023-09-25,株式会社わかば工業,,株式会社,富山県,射水市,八幡町２丁目９番３５号,,16,211,9340025,,,,,,,2023-09-25,1,,,,,ワカバコウギョウ,0
473,2260001038334,新規,0,2023-09-25,2023-09-25,ＳＦＳＴ００１株式会社,,株式会社,岡山県,岡山市北区,駅前町１丁目８番１号,,33,101,7000023,,,,,,,2023-09-25,1,,,,,エスエフエスティゼロゼロイチ,0
482,2290001103119,新規,0,2023-09-25,2023-09-25,株式会社ビトク,,株式会社,福岡県,福岡市中央区,天神１丁目９－１７福岡天神フコク生命ビル１５Ｆ,,40,133,8100001,,,,,,,2023-09-25,1,,,,,ビトク,0
483,2290001103135,新規,0,2023-09-25,2023-09-25,イーナ・ジャパン株式会社,,株式会社,福岡県,福岡市南区,長住４丁目２番２９－３０１,,40,134,8111362,,,,,,,2023-09-25,1,,,,,イーナジャパン,0
486,2290003014396,新規,0,2023-09-25,2023-09-25,Ｓｋｙ．Ｓｏｌｕｔｉｏｎ合同会社,,合同会社,福岡県,福岡市城南区,西片江２丁目１７－８－１０１,,40,136,8140141,,,,,,,2023-09-25,1,,,,,スカイソリューション,0
489,2330001031298,新規,0,2023-09-25,2023-09-25,Ｓ＆Ｓ株式会社,,株式会社,熊本県,菊池郡大津町,大字町４４４番地１,,43,403,8691224,,,,,,,2023-09-25,1,,,,,エスアンドエス,0
497,2350003004440,新規,0,2023-09-25,2023-09-25,Ｓ．Ｐ　Ａｇｅｎｃｙ合同会社,,合同会社,宮崎県,宮崎市,小戸町９０番地１エレガンス小戸Ｅ号,,45,201,8800857,,,,,,,2023-09-25,1,,,,,エスピーエージェンシー,0
499,2360001032582,新規,0,2023-09-25,2023-09-25,株式会社ＶＯＹＡＧＥ,,株式会社,沖縄県,宮古島市,平良字下里５６２－１,,47,214,9060013,,,,,,,2023-09-25,1,,,,,ボヤージュ,0
500,2360003013309,新規,0,2023-09-25,2023-09-25,合同会社ＺＡＴ,,合同会社,沖縄県,宮古島市,平良字下里１０８９番地１４,,47,214,9060013,,,,,,,2023-09-25,1,,,,,ザット,0
513,2420001018410,新規,0,2023-09-25,2023-09-25,株式会社ＢＭＫｓｐｏｒｔ,,株式会社,青森県,弘前市,大字蒔苗字野田５１番地６,,02,202,0368371,,,,,,,2023-09-25,1,,,,,ビーエムケースポーツ,0
518,2430001090004,新規,0,2023-09-25,2023-09-25,株式会社オリエントユニオン,,株式会社,北海道,苫小牧市,柏木町６丁目２番１６号,,01,213,0530823,,,,,,,2023-09-25,1,,,,,オリエントユニオン,0
519,2430003015446,新規,0,2023-09-25,2023-09-25,合同会社マガン,,合同会社,北海道,美唄市,西二条南２丁目４－２５,,01,215,0720025,,,,,,,2023-09-25,1,,,,,マガン,0
523,2700150119146,新規,0,2023-09-25,2023-08-22,夕焼け劇場,,その他,東京都,世田谷区,下馬２丁目３３－２－２２５,,13,112,1540002,,,,,,,2023-08-22,1,,,,,ユウヤケゲキジヨウ,0
524,2700150120624,新規,0,2023-09-25,2023-09-25,Ｄｏｎｇｇｕａｎ　Ｘｉｎｂａ　Ｅｌｅｃｔｒｏｎｉｃ　Ｔｅｃｈｎｏｌｏｇｙ　Ｃｏ．，Ｌｔｄ,,外国会社等,,,,,,,,Ｒｏｏｍ　１０５，Ｂｕｉｌｄｉｎｇ　２，Ｎｏ．６，Ｂｅｉｙｕａｎ　Ｓｔｒｅｅｔ，Ｃｈａｎｇ’ａｎ　Ｔｏｗｎ　ＤｏｎｇＧｕａｎ　ＧｕａｎｇＤｏｎｇ　５２３８５０　ＣＮ,,,,,,2023-09-25,1,,,,,トンカンシンバイレクトゥロニックテクノロジーカンパニーリミテッド,0
525,2700150120632,新規,0,2023-09-25,2023-09-25,ＹＩＷＵ　ＪＩＮＧＡＯ　ＴＲＡＤＩＮＧ　ＣＯ．，ＬＴＤ．,,外国会社等,,,,,,,,ＲＯＯＭ２０１，ＮＯ．７，ＢＵＩＬＤＩＮＧ１３，ＸＩＮＧＺＨＯＮＧ　ＤＩＳＴＲＩＣＴ，ＣＨＯＵＣＨＥＮＧ　ＳＴＲＥＥＴ　ＹＩＷＵ　３２２０００　ＣＮ,,,,,,2023-09-25,1,,,,,イーウーシジンアオマオイーヨウシェンゴンスー,0
526,2700150120640,新規,0,2023-09-25,2023-09-25,ＥｎＳｈｉＺｈｏｕＪｉａｎＳｈｉＸｉａｎＷｅｉＳｉＹｕＮｕｏＳｈａｎｇＭａｏＹｏｕＸｉａｎＧｏｎｇＳｉ,,外国会社等,,,,,,,,Ｎｏ．９０１，２ｈａｏｌｏｕ　Ｂｄｏｎｇ，Ｙｅｚｈｏｕｇｕａｎｇｃｈａｎｇ，Ｙｅｚｈｏｕ　Ｚｈｅｎ，Ｊｉａｎｓｈｅ　Ｘｉａｎ　ＨｕＢｅｉ　Ｓｈｅｎｇ,,,,,,2023-09-25,1,,,,,オンシシュウケンシケンビウシダクショウボウユウゲンコウシ,0
536,3010001238692,新規,0,2023-09-25,2023-09-25,株式会社Ｇ＆Ｉ,,株式会社,東京都,千代田区,丸の内２丁目１番１号明治安田生命ビル１１階ＦｕｔｕｒｅＣｅｎｔｅｒＴｏｋｙｏ内,,13,101,1000005,,,,,,,2023-09-25,1,,,,,ジーアンドアイ,0
538,3010003041764,新規,0,2023-09-25,2023-09-25,合同会社Ｋ‐ＴＲＵＳＴ,,合同会社,東京都,中央区,日本橋茅場町３丁目３番５号３Ｆ,,13,102,1030025,,,,,,,2023-09-25,1,,,,,ケートラスト,0
545,3010401177417,新規,0,2023-09-25,2023-09-25,株式会社ｋｕｒｕｍｉ,,株式会社,東京都,港区,北青山１丁目３番１号アールキューブ青山３階,,13,103,1070061,,,,,,,2023-09-25,1,,,,,クルミ,0
555,3010501051091,新規,0,2023-09-25,2023-09-25,盛銘国際株式会社,,株式会社,東京都,台東区,松が谷４丁目２７番１８号Ｂ室,,13,106,1110036,,,,,,,2023-09-25,1,,,,,セイメイコクサイ,0
557,3010603010375,新規,0,2023-09-25,2023-09-25,合同会社タキグチ,,合同会社,東京都,江東区,木場６丁目１２－１,,13,108,1350042,,,,,,,2023-09-25,1,,,,,タキグチ,0
561,3010803004689,新規,0,2023-09-25,2023-09-25,Ｊａｍｅｓ＆Ｒｉｎｓｅｙ合同会社,,合同会社,東京都,大田区,南馬込２丁目２２番３号,,13,111,1430025,,,,,,,2023-09-25,1,,,,,ジェームスリンゼイ,0
572,3011001157057,新規,0,2023-09-25,2023-09-25,補助金コネクト株式会社,,株式会社,東京都,渋谷区,神宮前６丁目２３番４号桑野ビル２階,,13,113,1500001,,,,,,,2023-09-25,1,,,,,ホジョキンコネクト,0
573,3011001157123,新規,0,2023-09-25,2023-09-25,ＲＳＫインベストメント株式会社,,株式会社,東京都,渋谷区,千駄ヶ谷３丁目３番３号エグゼクティブ原宿６０３号室,,13,113,1510051,,,,,,,2023-09-25,1,,,,,アールエスケーインベストメント,0
574,3011001157164,新規,0,2023-09-25,2023-09-25,株式会社ＴＲＤホームズ,,株式会社,東京都,渋谷区,南平台町２番１７号,,13,113,1500036,,,,,,,2023-09-25,1,,,,,ティーアールディーホームズ,0
576,3011003017572,新規,0,2023-09-25,2023-09-25,合同会社ＵＴＡＭ,,合同会社,東京都,渋谷区,神宮前６丁目２３番４号桑野ビル２階,,13,113,1500001,,,,,,,2023-09-25,1,,,,,,0
583,3011501029805,新規,0,2023-09-25,2023-09-25,ジェニクス再生医療研究所株式会社,,株式会社,東京都,北区,王子１丁目２２－７トーア飛鳥山マンション５０２,,13,117,1140002,,,,,,,2023-09-25,1,,,,,ジェニクスサイセイイリョウケンキュウショ,0
585,3011601027139,新規,0,2023-09-25,2023-09-25,株式会社ネスパコミュニティー,,株式会社,東京都,練馬区,南田中２丁目２３番２３号,,13,120,1770035,,,,,,,2023-09-25,1,,,,,ネスパコミュニティー,0
603,3020001153494,新規,0,2023-09-25,2023-09-25,株式会社ｏｎｅ,,株式会社,神奈川県,横浜市中区,宮川町２丁目６１番,,14,104,2310065,,,,,,,2023-09-25,1,,,,,,0
604,3020001153602,新規,0,2023-09-25,2023-09-25,株式会社ひな乃,,株式会社,神奈川県,横浜市磯子区,杉田坪呑１３番７号,,14,107,2350034,,,,,,,2023-09-25,1,,,,,ヒナノ,0
605,3020001153610,新規,0,2023-09-25,2023-09-25,株式会社エイトファイブ,,株式会社,神奈川県,横浜市磯子区,岡村６丁目２番１－４号,,14,107,2350021,,,,,,,2023-09-25,1,,,,,エイトファイブ,0
606,3020001153619,新規,0,2023-09-25,2023-09-25,株式会社ＮｅｗＢｒｅｅｚｅ,,株式会社,神奈川県,川崎市中原区,下沼部１７６３番地８第２藤マンション１１２,,14,133,2110011,,,,,,,2023-09-25,1,,,,,ニューブリーズ,0
609,3020003024636,新規,0,2023-09-25,2023-09-25,ＳＴＡＴＩＣＥ合同会社,,合同会社,神奈川県,横浜市港北区,篠原西町２３－３１，２Ｆ－Ｂ,,14,109,2220025,,,,,,,2023-09-25,1,,,,,スターチス,0
624,3030001155985,新規,0,2023-09-25,2023-09-25,株式会社ドレスアップ,,株式会社,埼玉県,東松山市,箭弓町１丁目２番６号タムラビル１階,,11,212,3550028,,,,,,,2023-09-25,1,,,,,ドレスアップ,0
625,3030001156133,新規,0,2023-09-25,2023-09-25,株式会社明日希,,株式会社,埼玉県,春日部市,新宿新田２２５－５３,,11,214,3440113,,,,,,,2023-09-25,1,,,,,アスキ,0
626,3030001156141,新規,0,2023-09-25,2023-09-25,株式会社義山重工業,,株式会社,埼玉県,幸手市,北１丁目２－１７－２０３,,11,240,3400111,,,,,,,2023-09-25,1,,,,,ヨシヤマジュウコウギョウ,0
627,3030001156158,新規,0,2023-09-25,2023-09-25,株式会社ＭＴＳ,,株式会社,埼玉県,越谷市,大沢３丁目１３－２２黒田ビル１０２,,11,222,3430025,,,,,,,2023-09-25,1,,,,,エムティーエス,0
628,3030001156216,新規,0,2023-09-25,2023-09-25,株式会社Ｆａｊｉｓｋ,,株式会社,埼玉県,さいたま市緑区,大間木２丁目１２番地２１,,11,109,3360923,,,,,,,2023-09-25,1,,,,,ファジスク,0
633,3030003022589,新規,0,2023-09-25,2023-09-25,合同会社Ｅｄｕｗｅｌｌ,,合同会社,埼玉県,越谷市,南越谷４丁目１９番地３－２０１号,,11,222,3430845,,,,,,,2023-09-25,1,,,,,エデュウェル,0
639,3040001130186,新規,0,2023-09-25,2023-09-25,株式会社ＭＴＯホールディングス,,株式会社,千葉県,市川市,北方１丁目１４番２号,,12,203,2720815,,,,,,,2023-09-25,1,,,,,エムティーオーホールディングス,0
640,3040001130194,新規,0,2023-09-25,2023-09-25,株式会社Ｍａｖｅｒｉｃｋｓ,,株式会社,千葉県,香取郡多古町,飯笹１０４５番地,,12,347,2892231,,,,,,,2023-09-25,1,,,,,マーベリクス,0
641,3040001130203,新規,0,2023-09-25,2023-09-25,株式会社アッププラス,,株式会社,千葉県,松戸市,河原塚１６５番地の１８,,12,207,2702254,,,,,,,2023-09-25,1,,,,,アッププラス,0
648,3050003007811,新規,0,2023-09-25,2023-09-25,合同会社ＩＡＭ＆Ｓｏｎｚ　Ｂ,,合同会社,茨城県,水戸市,五軒町１丁目５番３３号,,08,201,3100063,,,,,,,2023-09-25,1,,,,,アイアムアンドソンズビー,0
650,3060001036373,新規,0,2023-09-25,2023-09-25,株式会社タグチ,,株式会社,栃木県,さくら市,氏家３５３３番地５９,,09,214,3291311,,,,,,,2023-09-25,1,,,,,タグチ,0
657,3080101024227,新規,0,2023-09-25,2023-09-25,Ｓａｎｄｓ株式会社,,株式会社,静岡県,富士市,依田橋１５２番地の１,,22,210,4170002,,,,,,,2023-09-25,1,,,,,サンズ,0
658,3080103002890,新規,0,2023-09-25,2023-09-25,合同会社Ａｓｉａｓ,,合同会社,静岡県,沼津市,大岡１１４２番地１２,,22,203,4100022,,,,,,,2023-09-25,1,,,,,エイジアス,0
660,3090001018328,新規,0,2023-09-25,2023-09-25,株式会社ビッタァルジー,,株式会社,山梨県,都留市,つる５丁目１番６１号,,19,204,4020056,,,,,,,2023-09-25,1,,,,,ビッタァルジー,0
661,3090001018336,新規,0,2023-09-25,2023-09-25,株式会社ナカザワプラントサービス,,株式会社,山梨県,南アルプス市,六科６３２番地２,,19,208,4000206,,,,,,,2023-09-25,1,,,,,ナカザワプラントサービス,0
667,3100003007194,新規,0,2023-09-25,2023-09-25,合同会社アヴァント,,合同会社,長野県,松本市,井川城３丁目５番５号,,20,202,3900831,,,,,,,2023-09-25,1,,,,,アヴァント,0
676,3120001258168,新規,0,2023-09-25,2023-09-25,アスティ不動産株式会社,,株式会社,大阪府,枚方市,星丘３丁目３番６８号,,27,210,5730013,,,,,,,2023-09-25,1,,,,,アスティ,0
677,3120001258234,新規,0,2023-09-25,2023-09-25,棋美株式会社,,株式会社,大阪府,大阪市阿倍野区,阪南町３丁目３６番１号,,27,119,5450021,,,,,,,2023-09-25,1,,,,,キミ,0
678,3120001258440,新規,0,2023-09-25,2023-09-25,ＲＡＭ株式会社,,株式会社,大阪府,大阪市淀川区,十三東３丁目２５番２号レガーロ十三東駅前ビル３０３,,27,123,5320023,,,,,,,2023-09-25,1,,,,,ラム,0
680,3120003024873,新規,0,2023-09-25,2023-09-25,コスメイト合同会社,,合同会社,大阪府,大阪市東淀川区,大桐４丁目４－６７Ｄ６０４,,27,114,5330011,,,,,,,2023-09-25,1,,,,,コスメイト,0
684,3120101068244,新規,0,2023-09-25,2023-09-25,株式会社Ｅｍｏｔｉｏｎ,,株式会社,大阪府,堺市北区,新金岡町２丁５番１４－６０９号,,27,146,5918021,,,,,,,2023-09-25,1,,,,,エモーション,0
688,3120901048065,新規,0,2023-09-25,2023-09-25,北大阪運輸倉庫株式会社,,株式会社,大阪府,摂津市,鳥飼中２丁目７番８号,,27,224,5660064,,,,,,,2023-09-25,1,,,,,キタオオサカウンユソウコ,0
707,3140005026750,新規,0,2023-09-25,2023-09-25,こうせつ農事組合法人,,その他の設立登記法人,兵庫県,加東市,天神１９４番地,,28,228,6731311,,,,,,,2023-09-25,1,,,,,コウセツ,0
710,3150003003073,新規,0,2023-09-25,2023-09-25,合同会社奈良ミュージックデザイン,,合同会社,奈良県,奈良市,大宮町４丁目２５５番地まつもりビル２・１０２号室,,29,201,6308115,,,,,,,2023-09-25,1,,,,,ナラミュージックデザイン,0
727,3190001030743,新規,0,2023-09-25,2023-09-25,株式会社１４,,株式会社,三重県,鈴鹿市,中江島町１０番５号,,24,207,5100236,,,,,,,2023-09-25,1,,,,,フォーティーン,0
728,3190001030751,新規,0,2023-09-25,2023-09-25,株式会社ソンスカンパニー,,株式会社,三重県,津市,芸濃町椋本３１３５番地５,,24,201,5142211,,,,,,,2023-09-25,1,,,,,ソンスカンパニー,0
754,3290003014387,新規,0,2023-09-25,2023-09-25,合同会社ＧＡＬＥ　ＳＭＩＬＥ,,合同会社,福岡県,福岡市博多区,東那珂３丁目１１番３９－４０５号エクレール博多南ＩＩ,00132016,40,132,8120892,,,,,,,2023-09-25,1,,,,,ゲイルスマイル,0
758,3290801008202,新規,0,2023-09-25,2023-09-25,東京商事株式会社,,株式会社,福岡県,北九州市小倉北区,鍛冶町２丁目２番１８号,,40,106,8020004,,,,,,,2023-09-25,1,,,,,トウキョウショウジ,0
763,3330001031289,新規,0,2023-09-25,2023-09-25,株式会社岡崎硝子店,00132012,株式会社,熊本県,宇土市,立岡町４５９番地,,43,211,8690414,,,,,,,2023-09-25,1,,,,,オカザキガラステン,0
768,3340003004259,新規,0,2023-09-25,2023-09-25,合同会社普門,,合同会社,鹿児島県,鹿児島市,永吉３丁目１８番２２号,,46,201,8900023,,,,,,,2023-09-25,1,,,,,フモン,0
771,3360003013308,新規,0,2023-09-25,2023-09-25,合同会社Ｗｉｌｌｓクラス,,合同会社,沖縄県,那覇市,字安里４１６番地大進ビル３０３,,47,201,9020067,,,,,,,2023-09-25,1,,,,,ウィルズクラス,0
775,3370001050442,新規,0,2023-09-25,2023-09-25,株式会社翔和電気,,株式会社,宮城県,仙台市宮城野区,岩切字青津目１３６番地の５シュシュラフィーネ２０１,,04,102,9830821,,,,,,,2023-09-25,1,,,,,トワデンキ,0
778,3380002036340,新規,0,2023-09-25,2023-09-25,三栄木材有限会社,,有限会社,福島県,いわき市,鹿島町下矢田字榎木内５番地の１,,07,204,9718132,,,,,,,2023-09-25,1,,,,,サンエイモクザイ,0
780,3380003005575,新規,0,2023-09-25,2023-09-25,ぺんすけ合同会社,,合同会社,福島県,田村市,大越町上大越字中広土１７４番地１,,07,211,9634111,,,,,,,2023-09-25,1,,,,,ペンスケ,0
789,3430001090003,新規,0,2023-09-25,2023-09-25,株式会社ＥＳＳＥＮＣＥ,,株式会社,北海道,札幌市豊平区,美園九条２丁目９－１,,01,105,0620009,,,,,,,2023-09-25,1,,,,,エッセンス,0
790,3430003015461,新規,0,2023-09-25,2023-09-25,合同会社Ｃｏｖａｌｔｅ,,合同会社,北海道,札幌市中央区,南五条西１５丁目２－３リズム医大前５０３号室,,01,101,0640805,,,,,,,2023-09-25,1,,,,,コバルト,0
791,3460001005833,新規,0,2023-09-25,2023-09-25,株式会社コウヘイグループ,,株式会社,北海道,釧路市,貝塚２丁目１６番９号,,01,206,0850816,,,,,,,2023-09-25,1,,,,,コウヘイグループ,0
792,3460103001557,新規,0,2023-09-25,2023-09-25,合同会社ＩＳＨＩＩ鉄工,,合同会社,北海道,帯広市,西十二条南３３丁目２０番地シャトーリラ２０６,,01,207,0800022,,,,,,,2023-09-25,1,,,,,イシイテッコウ,0
799,3700150120623,新規,0,2023-09-25,2023-09-25,Ｘｉａｍｅｎ　Ｋａｉ　Ｌｅ　Ｓｉ　Ｃｏｍｍｅｒｃｉａｌ　Ｃｏ．，Ｌｔｄ,,外国会社等,,,,,,,,Ｕｎｉｔ　１３１８，１８０　Ｗｅｓｔ　Ｙａｎ　Ｗｕ　Ｒｏａｄ　Ｓｉｍｉｎｇ　Ｄｉｓｔ．Ｘｉａｍｅｎ　３６１００５　ＣＮ,,,,,,2023-09-25,1,,,,,アモイカイレスコマーシャルカンパニーリミテッド,0
800,3700150120631,新規,0,2023-09-25,2023-09-25,Ｙｉｗｕ　Ｑｉｘｉｎ　Ｔｒａｄｉｎｇ　Ｃｏ．，Ｌｔｄ,,外国会社等,,,,,,,,３０５，Ｕｎｉｔ　３，Ｂｕｉｌｄｉｎｇ１２，Ｌｉｕｑｉｎｇ　Ｆｉｆｔｈ　Ｄｉｓｔｒｉｃｔ，Ｂｅｉｙｕａｎ　Ｓｔｒｅｅｔ　Ｙｉｗｕ　Ｚｈｅｊｉａｎｇ　３２２０００　ＣＮ,,,,,,2023-09-25,1,,,,,イーウーシチーリンマオイーヨウシェンゴンスー,0
806,4010001238535,新規,0,2023-09-25,2023-09-25,株式会社ＣｏｒｅＨｅａｌｔｈ,,株式会社,東京都,千代田区,富士見１丁目３番１１号,,13,101,1020071,,,,,,,2023-09-25,1,,,,,コアヘルス,0
807,4010001238683,新規,0,2023-09-25,2023-09-25,株式会社ＢｌｕｅＱｕｅｒｙ,,株式会社,東京都,中央区,銀座１丁目１２－４Ｎ＆ＥＢＬＤ．７階,,13,102,1040061,,,,,,,2023-09-25,1,,,,,ブルークエリ,0
810,4010003041763,新規,0,2023-09-25,2023-09-25,合同会社ワイズグループ,,合同会社,東京都,中央区,日本橋小舟町８－１３,,13,102,1030024,,,,,,,2023-09-25,1,,,,,ワイズグループ,0
813,4010101015826,新規,0,2023-09-25,2023-09-25,株式会社スリーシィ,,株式会社,東京都,八王子市,長沼町８５５－３－１０２,,13,201,1920907,,,,,,,2023-09-25,1,,,,,スリーシィ,0
821,4010401177275,新規,0,2023-09-25,2023-09-25,株式会社ａ＆ｄパートナーズ,,株式会社,東京都,港区,南青山３丁目１番３６号青山丸竹ビル６Ｆ,,13,103,1070062,,,,,,,2023-09-25,1,,,,,エーアンドディーパートナーズ,0
822,4010401177300,新規,0,2023-09-25,2023-09-25,株式会社Ｇｏ　Ｂｅｙｏｎｄ,,株式会社,東京都,港区,芝浦１丁目１２－７岡田ビル４階,,13,103,1050023,,,,,,,2023-09-25,1,,,,,ゴービヨンド,0
823,4010401177408,新規,0,2023-09-25,2023-09-25,ＹＥＬＬＯ株式会社,,株式会社,東京都,港区,南青山６丁目７番５－４０１号,,13,103,1070062,,,,,,,2023-09-25,1,,,,,イエロー,0
825,4010403030985,新規,0,2023-09-25,2023-09-25,合同会社クレストソーラー,,合同会社,東京都,港区,麻布十番１丁目７番１１号,,13,103,1060045,,,,,,,2023-09-25,1,,,,,クレストソーラー,0
826,4010403030993,新規,0,2023-09-25,2023-09-25,合同会社ＢＳＴ１,,合同会社,東京都,港区,西新橋１丁目２番９号メンターキャピタル税理士法人内,,13,103,1050003,,,,,,,2023-09-25,1,,,,,ビーエスティーワン,0
831,4010601063829,新規,0,2023-09-25,2023-09-25,株式会社Ｅ＆ＣＨ,,株式会社,東京都,墨田区,横川１丁目１３番１１－２０２号,,13,107,1300003,,,,,,,2023-09-25,1,,,,,イーアンドシーエイチ,0
840,4011001157056,新規,0,2023-09-25,2023-09-25,フラットリー株式会社,,株式会社,東京都,渋谷区,神宮前６丁目２３番４号桑野ビル２階,,13,113,1500001,,,,,,,2023-09-25,1,,,,,フラットリー,0
841,4011001157072,新規,0,2023-09-25,2023-09-25,株式会社ＢＡＳＩ　Ｓｙｓｔｅｍｓ,,株式会社,東京都,目黒区,青葉台２丁目２０番１４号青和ビル２Ｆ,,13,110,1530042,,,,,,,2023-09-25,1,,,,,バシシステムズ,0
842,4011001157080,新規,0,2023-09-25,2023-09-25,株式会社ＳＵＰＰＯＲＴ　ＬＯＵＮＧＥ,,株式会社,東京都,渋谷区,渋谷２丁目１９－１５宮益坂ビルディング,,13,113,1500002,,,,,,,2023-09-25,1,,,,,サポートラウンジ,0
843,4011001157122,新規,0,2023-09-25,2023-09-25,株式会社Ｗｏｎｄｅｒ　ｗａｌｌ,,株式会社,東京都,渋谷区,渋谷２丁目１９番１５号宮益坂ビルディング６０９,,13,113,1500002,,,,,,,2023-09-25,1,,,,,ワンダーウォール,0
844,4011001157130,新規,0,2023-09-25,2023-09-25,株式会社Ｖｉｅｅｐ,,株式会社,東京都,目黒区,上目黒１丁目５番１３号メゾン中目黒４０２,,13,110,1530051,,,,,,,2023-09-25,1,,,,,ヴィープ,0
845,4011003017563,新規,0,2023-09-25,2023-09-25,合同会社リザイヤ,,合同会社,東京都,渋谷区,渋谷１丁目２０－１７,,13,113,1500002,,,,,,,2023-09-25,1,,,,,リザイヤ,0
846,4011003017571,新規,0,2023-09-25,2023-09-25,ＮＲ　ｓｙｓｔｅｍｓ合同会社,,合同会社,東京都,渋谷区,代官山町１７－１－３３０４,,13,113,1500034,,,,,,,2023-09-25,1,,,,,エヌアールシステムズ,0
850,4011101104461,新規,0,2023-09-25,2023-09-25,株式会社ユニコーン薬局,,株式会社,東京都,新宿区,新小川町８番３０号３６山京ビルＢ２Ｆ,,13,104,1620814,,,,,,,2023-09-25,1,,,,,ユニコーンヤッキョク,0
858,4011801043075,新規,0,2023-09-25,2023-09-25,株式会社ぽんぽこ,,株式会社,東京都,足立区,古千谷本町３丁目９番３号,,13,121,1210832,,,,,,,2023-09-25,1,,,,,ポンポコ,0
864,4012701017854,新規,0,2023-09-25,2023-09-25,オドロキ株式会社,,株式会社,東京都,小平市,栄町２丁目２３番１４号,,13,211,1870034,,,,,,,2023-09-25,1,,,,,オドロキ,0
878,4020001153592,新規,0,2023-09-25,2023-09-25,株式会社Ｋサポ,,株式会社,神奈川県,横浜市中区,日本大通３６シティタワー横濱７０２,,14,104,2310021,,,,,,,2023-09-25,1,,,,,ケイサポ,0
879,4020001153626,新規,0,2023-09-25,2023-09-25,株式会社ｓｏａｒａ,,株式会社,神奈川県,横浜市金沢区,平潟町２２番３号村上ビル２階,,14,108,2360023,,,,,,,2023-09-25,1,,,,,ソアラ,0
880,4020001153634,新規,0,2023-09-25,2023-09-25,株式会社ＬＩＡスタッフィング,,株式会社,神奈川県,横浜市神奈川区,金港町７番地３金港ビル７Ｆ,,14,102,2210056,,,,,,,2023-09-25,1,,,,,リアスタッフィング,0
886,4020005016110,新規,0,2023-09-25,2023-09-25,一般社団法人黎明教育者連盟,,その他の設立登記法人,神奈川県,横浜市都筑区,見花山１の３０見花山ビル３階,,14,118,2240066,,,,,,,2023-09-25,1,,,,,レイメイキョウイクシャレンメイ,0
887,4021003013603,新規,0,2023-09-25,2023-09-25,合同会社シープランニング,,合同会社,神奈川県,横須賀市,安浦町１丁目６番地３,,14,201,2380012,,,,,,,2023-09-25,1,,,,,シープランニング,0
894,4030001156108,新規,0,2023-09-25,2023-09-25,株式会社マキナ,,株式会社,埼玉県,所沢市,上新井３丁目６０番地の２７,,11,208,3591142,,,,,,,2023-09-25,1,,,,,マキナ,0
895,4030001156165,新規,0,2023-09-25,2023-09-25,株式会社Ｔ‐ｓｆｉｄａ,,株式会社,埼玉県,春日部市,八丁目１８６６番地,,11,214,3440006,,,,,,,2023-09-25,1,,,,,ティースフィーダ,0
896,4030001156223,新規,0,2023-09-25,2023-09-25,株式会社プラスウィン,,株式会社,埼玉県,さいたま市見沼区,深作３丁目２番地２２,,11,104,3370003,,,,,,,2023-09-25,1,,,,,プラスウィン,0
904,4040001130202,新規,0,2023-09-25,2023-09-25,永峻株式会社,,株式会社,千葉県,市原市,犬成１０１４番地１,,12,219,2900166,,,,,,,2023-09-25,1,,,,,エイシュン,0
905,4040001130227,新規,0,2023-09-25,2023-09-25,株式会社ＯＫスタイル,,株式会社,千葉県,千葉市花見川区,幕張町５丁目３５７番地１ライオンズクオーレ幕張マークスフォート３１３号,,12,102,2620032,,,,,,,2023-09-25,1,,,,,オーケースタイル,0
915,4050003007736,新規,0,2023-09-25,2023-09-25,合同会社伝心,,合同会社,茨城県,かすみがうら市,牛渡２４８１－１,,08,230,3000213,,,,,,,2023-09-25,1,,,,,デンシン,0
916,4050003007793,新規,0,2023-09-25,2023-09-25,合同会社ＥＮ,,合同会社,茨城県,水戸市,元吉田町７８１－１,,08,201,3100836,,,,,,,2023-09-25,1,,,,,エン,0
917,4050003007810,新規,0,2023-09-25,2023-09-25,合同会社成功モータース,,合同会社,茨城県,結城郡八千代町,大字新地新田１１番地１０６,,08,521,3003543,,,,,,,2023-09-25,1,,,,,セイコウモータース,0
921,4060001036372,新規,0,2023-09-25,2023-09-25,株式会社クリエイト,,株式会社,栃木県,栃木市,藤岡町大田和１１５１－１,,09,203,3231107,,,,,,,2023-09-25,1,,,,,クリエイト,0
924,4070001040902,新規,0,2023-09-25,2023-09-25,ＳＵＮＢＡＥＸ株式会社,,株式会社,群馬県,前橋市,下小出町２丁目２番２６号スカイハイツ２Ｆ,,10,201,3710031,,,,,,,2023-09-25,1,,,,,サンベックス,0
929,4080401026748,新規,0,2023-09-25,2023-09-25,株式会社はるの風訪問看護ステーション,,株式会社,静岡県,浜松市東区,半田山５丁目１６番２３号,,22,132,4313125,,,,,,,2023-09-25,1,,,,,ハルノカゼホウモンカンゴステーション,0
930,4080403004875,新規,0,2023-09-25,2023-09-25,合同会社アロマ,,合同会社,静岡県,浜松市東区,天王町１４６２番地の１カーサ天王の森３０２号,,22,132,4350052,,,,,,,2023-09-25,1,,,,,アロマ,0
932,4090003002386,新規,0,2023-09-25,2023-09-25,合同会社Ｔ．Ｃ．Ｒ,,合同会社,山梨県,甲斐市,篠原３１１番地９,,19,210,4000115,,,,,,,2023-09-25,1,,,,,ティーシーアール,0
934,4100001036806,新規,0,2023-09-25,2023-09-25,リージョンデザイン株式会社,,株式会社,長野県,上高井郡高山村,大字中山字原７０２－２,,20,543,3820800,,,,,,,2023-09-25,1,,,,,リージョンデザイン,0
943,4120001258076,新規,0,2023-09-25,2023-09-25,自娯自楽株式会社,,株式会社,大阪府,大阪市中央区,谷町４丁目５番１４号,,27,128,5400012,,,,,,,2023-09-25,1,,,,,ジゴジラク,0
944,4120001258167,新規,0,2023-09-25,2023-09-25,株式会社ＴＲＵＳＰＥＣＴ,,株式会社,大阪府,大阪市中央区,平野町２丁目６番５号みすやビル６階,,27,128,5410046,,,,,,,2023-09-25,1,,,,,トラスペクト,0
945,4120001258175,新規,0,2023-09-25,2023-09-25,サービスプラス株式会社,,株式会社,大阪府,大阪市中央区,内淡路町２丁目３－１４日宝グリーンビル５階６号,,27,128,5400038,,,,,,,2023-09-25,1,,,,,サービスプラス,0
946,4120001258183,新規,0,2023-09-25,2023-09-25,ｔｈｒｅｅ株式会社,,株式会社,大阪府,大阪市中央区,安堂寺町２丁目５－１１－７０１,,27,128,5420061,,,,,,,2023-09-25,1,,,,,スリー,0
962,4140001131743,新規,0,2023-09-25,2023-09-25,晴丸株式会社,,株式会社,兵庫県,芦屋市,東芦屋町３番６－１０７号,00132017,28,206,6590095,,,,,,,2023-09-25,1,,,,,ハレマル,0
968,4150003003072,新規,0,2023-09-25,2023-09-25,合同会社ＦＡＭＩＧＬＩＡ,,合同会社,奈良県,奈良市,宝来４丁目２９番８号,,29,201,6310845,,,,,,,2023-09-25,1,,,,,ファミリア,0
993,4210005010110,新規,0,2023-09-25,2023-09-25,医療法人鍔歯会,,その他の設立登記法人,福井県,吉田郡永平寺町,松岡芝原１丁目７１番地,,18,322,9101134,,,,,,,2023-09-25,1,,,,,ガクシカイ,0
996,4230001020029,新規,0,2023-09-25,2023-09-25,ビ・ブライト株式会社,,株式会社,富山県,富山市,長岡新１９６８番地１,,16,201,9300113,,,,,,,2023-09-25,1,,,,,ビブライト,0
1000,4240003006322,新規,0,2023-09-25,2023-09-25,ｍａｈｉｎａ合同会社,,合同会社,広島県,広島市中区,胡町２番１３号,,34,101,7300021,,,,,,,2023-09-25,1,,,,,マヒナ,0
1002,4250001009499,新規,0,2023-09-25,2023-09-25,三幸プレハブ株式会社,,株式会社,山口県,下松市,葉山１丁目８１９番地の３３,,35,207,7440000,,,,,,,2023-09-25,1,,,,,,0
1003,4250001020290,新規,0,2023-09-25,2023-09-25,株式会社Ｕ．ｃｒｅａｔｅ,,株式会社,山口県,山口市,米屋町２－７ｍｉｒａｉ３６５内,,35,203,7530087,,,,,,,2023-09-25,1,,,,,ユークリエイト,0
1007,4280005007570,新規,0,2023-09-25,2023-09-25,特定非営利活動法人しまね子ども支援プロジェクト,,その他の設立登記法人,島根県,出雲市,塩冶町１６０７番６号,,32,203,6930021,,,,,,,2023-09-25,1,,,,,シマネコドモシエンプロジェクト,0
1010,4290001103059,新規,0,2023-09-25,2023-09-25,株式会社六鶴工業,,株式会社,福岡県,那珂川市,片縄北２丁目６番６号,,40,231,8111203,,,,,,,2023-09-25,1,,,,,ムツルコウギョウ,0
1011,4290001103109,新規,0,2023-09-25,2023-09-25,株式会社ＯＦＦＩＣＥ　Ｒ,,株式会社,福岡県,福岡市中央区,平和５丁目１４－４７－１,,40,133,8100016,,,,,,,2023-09-25,1,,,,,オフィスアール,0
1012,4290001103117,新規,0,2023-09-25,2023-09-25,株式会社ジョブプラス,,株式会社,福岡県,大野城市,御笠川５丁目１０番９号,,40,219,8160912,,,,,,,2023-09-25,1,,,,,,0
1017,4290003014386,新規,0,2023-09-25,2023-09-25,合同会社ＫＡＮＹＡ,,合同会社,福岡県,小郡市,三沢４２１４番地１－４０１号室,,40,216,8380106,,,,,,,2023-09-25,1,,,,,カンヤ,0
1018,4290003014394,新規,0,2023-09-25,2023-09-25,合同会社ＳＡＮＡ,,合同会社,福岡県,福岡市南区,横手南町２０番地３,,40,134,8111312,,,,,,,2023-09-25,1,,,,,サナ,0
1020,4290805009674,新規,0,2023-09-25,2023-09-25,一般社団法人未来基地,,その他の設立登記法人,福岡県,北九州市若松区,二島３丁目６番１９号,,40,103,8080103,,,,,,,2023-09-25,1,,,,,ミライキチ,0
1035,4370001050441,新規,0,2023-09-25,2023-09-25,株式会社神田町前屋,,株式会社,宮城県,仙台市青葉区,中央１丁目７番４０号大野第一ビル,,04,101,9800021,,,,,,,2023-09-25,1,,,,,カンダマチマエヤ,0
1043,4430003015460,新規,0,2023-09-25,2023-09-25,合同会社上田理髪店,,合同会社,北海道,札幌市中央区,北一条西７丁目広井ビル地下,,01,101,0600001,,,,,,,2023-09-25,1,,,,,ウエダリハツテン,0
1044,4460103001556,新規,0,2023-09-25,2023-09-25,合同会社エスアールエヌ,,合同会社,北海道,帯広市,西五条南１０丁目４０番地ＷＥＳＴＦＩＶＥＢ号室,,01,207,0800015,,,,,,,2023-09-25,1,,,,,エスアールエヌ,0
1047,4700150031101,新規,0,2023-09-25,2015-10-09,大津市防火保安協会,,その他,滋賀県,大津市,御陵町３－１消防本部内,,25,201,5200037,,,,,,,2015-10-09,1,,,,,オオツシボウカホアンキヨウカイ,0
1048,4700150120052,新規,0,2023-09-25,2023-09-08,みどり坂ｐｉｌｉ．ｃｏｍ,,その他,広島県,広島市安芸区,瀬野西４丁目４－１０,,34,107,7390313,,,,,,,2023-09-08,1,,,,,ミドリザカピリドツトコム,0
1049,4700150120622,新規,0,2023-09-25,2023-09-25,ｓｈｅｎｚｈｅｎｓｈｉｊｉｅｙｕｅｓｕｊｉａｏｍｕｊｕ　ｙｏｕｘｉａｎｇｏｎｇｓｉ,,外国会社等,,,,,,,,ｇｕａｎｇｍｉｎｇｑｕｇｏｎｇｍｉｎｇｊｉｅｄａｏｘｉａｃｕｎｓｈｅｑｕｄｉｓａｎｇｏｎｇｙｅｑｕ１４ｈａｏａ１０１ｓｈｅｎｚｈｅｎｓｈｉ　５１８０００　ＣＮ,,,,,,2023-09-25,1,,,,,シンセンシジエユエスジャオムジュヨウシェンゴンスー,0
1050,4700150120630,新規,0,2023-09-25,2023-09-25,Ｓｈｅｎｚｈｅｎ　ＢａｎｇＫｕ　Ｔｅｃｈｎｏｌｏｇｙ　Ｃｏ．，Ｌｔｄ．,,外国会社等,,,,,,,,Ｒｏｏｍ　２０１，Ｂｕｉｌｄｉｎｇ　Ａ，Ｎｏ．１，Ｑｉａｎｗａｎ　１ｓｔ　Ｒｏａｄ，Ｑｉａｎｈａｉ　ＳｈｅｎＺｈｅｎ　Ｇｕａｎｇｄｏｎｇ　５１８０００　ＣＮ,,,,,,2023-09-25,1,,,,,シェンジェンバンクカージヨウシェンゴンスー,0
1057,5010001238690,新規,0,2023-09-25,2023-09-25,株式会社ｓａｈａｒｕ,,株式会社,東京都,中央区,勝どき５丁目３番１－１０２４号,,13,102,1040054,,,,,,,2023-09-25,1,,,,,サハル,0
1058,5010001238724,新規,0,2023-09-25,2023-09-25,株式会社ｍａｎｅｇｅ,,株式会社,東京都,中央区,日本橋兜町１７－１,,13,102,1030026,,,,,,,2023-09-25,1,,,,,マネージュ,0
1059,5010001238732,新規,0,2023-09-25,2023-09-25,株式会社オムニスリガーレ,,株式会社,東京都,中央区,晴海３丁目１３番２号,,13,102,1040053,,,,,,,2023-09-25,1,,,,,オムニスリガーレ,0
1065,5010401177258,新規,0,2023-09-25,2023-09-25,ラーニングサポートテクノロジーズ株式会社,,株式会社,東京都,港区,虎ノ門４丁目３番１号城山トラストタワー４Ｆ,,13,103,1050001,,,,,,,2023-09-25,1,,,,,ラーニングサポートテクノロジーズ,0
1066,5010401177381,新規,0,2023-09-25,2023-09-25,株式会社濱田コンサルティング,,株式会社,東京都,港区,芝公園２丁目６番８号,,13,103,1050011,,,,,,,2023-09-25,1,,,,,ハマダコンサルティング,0
1073,5010603010373,新規,0,2023-09-25,2023-09-25,合同会社ル・フルールＨａｎａｓｏ,,合同会社,東京都,江東区,亀戸５丁目３４番１６号,,13,108,1360071,,,,,,,2023-09-25,1,,,,,ルフルールハナソー,0
1078,5010801034356,新規,0,2023-09-25,2023-09-25,株式会社ＨｅｒｍＡｒｔｓ,,株式会社,東京都,大田区,東雪谷１丁目３２－２２,,13,111,1450065,,,,,,,2023-09-25,1,,,,,ハームアーツ,0
1089,5011001156981,新規,0,2023-09-25,2023-09-25,株式会社５０２２,,株式会社,東京都,渋谷区,渋谷２丁目１９－１５宮益坂ビルディング６０９,,13,113,1500002,,,,,,,2023-09-25,1,,,,,ゴーゼロニーニー,0
1090,5011001157047,新規,0,2023-09-25,2023-09-25,株式会社Ｇｒｅｅｎａｒｃ　Ｃａｐｉｔａｌ,,株式会社,東京都,渋谷区,恵比寿西１丁目２７番１－３０４号ピアース恵比寿ウエストヒルズ,,13,113,1500021,,,,,,,2023-09-25,1,,,,,グリーンアークキャピタル,0
1091,5011001157071,新規,0,2023-09-25,2023-09-25,株式会社ジョブリアル,,株式会社,東京都,渋谷区,渋谷１丁目１４番８号宮益ＳＫビル９階,,13,113,1500002,,,,,,,2023-09-25,1,,,,,ジョブリアル,0
1092,5011001157146,新規,0,2023-09-25,2023-09-25,Ｍｅｄｉａｔｉｖｅ株式会社,,株式会社,東京都,渋谷区,道玄坂１丁目１０番８号渋谷道玄坂東急ビル２Ｆ－Ｃ,,13,113,1500043,,,,,,,2023-09-25,1,,,,,メディエイティブ,0
1095,5011003017579,新規,0,2023-09-25,2023-09-25,合同会社メニメニ,,合同会社,東京都,渋谷区,神泉町１０番１５号アネックス神泉３０１,,13,113,1500045,,,,,,,2023-09-25,1,,,,,メニメニ,0
1098,5011101104394,新規,0,2023-09-25,2023-09-25,株式会社苡茶待九,,株式会社,東京都,新宿区,大久保２丁目１６７番,,13,104,1690072,,,,,,,2023-09-25,1,,,,,イチャダイキュウ,0
1099,5011101104452,新規,0,2023-09-25,2023-09-25,Ｎ‐Ｅｎｉｓｈｉ株式会社,,株式会社,東京都,新宿区,新宿７丁目２７番４－１１０１号,,13,104,1600022,,,,,,,2023-09-25,1,,,,,エヌエニシ,0
1100,5011101104460,新規,0,2023-09-25,2023-09-25,株式会社Ｆｌａｍｉｎａｔｅ,,株式会社,東京都,新宿区,新宿１丁目２４番１号２Ｆ,,13,104,1600022,,,,,,,2023-09-25,1,,,,,フラミネイト,0
1103,5011201024930,新規,0,2023-09-25,2023-09-25,株式会社ＭＫＴ,,株式会社,東京都,中野区,中野５丁目２２番７号,,13,114,1640001,,,,,,,2023-09-25,1,,,,,エムケーティー,0
1114,5011801043074,新規,0,2023-09-25,2023-09-25,大川電機東京株式会社,,株式会社,東京都,葛飾区,水元３丁目２２番２３号,,13,122,1250032,,,,,,,2023-09-25,1,,,,,オオカワデンキトウキョウ,0
1120,5012703002804,新規,0,2023-09-25,2023-09-25,みらいＩＴ合同会社,,合同会社,東京都,小平市,花小金井３丁目３２番９－１号,,13,211,1870002,,,,,,,2023-09-25,1,,,,,ミライアイティー,0
1132,5020001153609,新規,0,2023-09-25,2023-09-25,株式会社ロータスヤマキ,,株式会社,神奈川県,横浜市神奈川区,片倉２丁目１２番２４号,,14,102,2210865,,,,,,,2023-09-25,1,,,,,ロータスヤマキ,0
1146,5030003022513,新規,0,2023-09-25,2023-09-25,カワイ合同会社,,合同会社,埼玉県,川口市,大字芝４７７０番地の１４,,11,203,3330866,,,,,,,2023-09-25,1,,,,,カワイ,0
1147,5030005021397,新規,0,2023-09-25,2023-09-25,特定非営利活動法人歯科保健医療国際協力協議会,,その他の設立登記法人,埼玉県,川口市,幸町３丁目８番１４号,,11,203,3320016,,,,,,,2023-09-25,1,,,,,シカホケンイリョウコクサイキョウリョクキョウギカイ,0
1150,5040001130201,新規,0,2023-09-25,2023-09-25,宏炬商事株式会社,,株式会社,千葉県,市原市,八幡北町３丁目４番２４－２０１号,,12,219,2900069,,,,,,,2023-09-25,1,,,,,コウキョショウジ,0
1151,5040001130234,新規,0,2023-09-25,2023-09-25,株式会社ＩＢｅホーム,,株式会社,千葉県,大網白里市,みどりが丘１丁目２３番地２２,,12,239,2993255,,,,,,,2023-09-25,1,,,,,アイビィホーム,0
1152,5040001130250,新規,0,2023-09-25,2023-09-25,リフォーム・塗装工事専門店株式会社,,株式会社,千葉県,八千代市,萱田７１３番地１,,12,221,2760043,,,,,,,2023-09-25,1,,,,,リフォームトソウコウジセンモンテン,0
1160,5050005013327,新規,0,2023-09-25,2023-09-25,ＮＰＯ法人わんにゃんレスキューＯＨＡＮＡ,,その他の設立登記法人,茨城県,神栖市,堀割１丁目８番１―１号,,08,232,3140135,,,,,,,2023-09-25,1,,,,,ワンニャンレスキューオハナ,0
1162,5060001036371,新規,0,2023-09-25,2023-09-25,株式会社ｆｏｒｗａｒｄｂａｃｋ,,株式会社,栃木県,宇都宮市,東宿郷５丁目２－１０ノブレス駅東公園１９０２,,09,201,3210953,,,,,,,2023-09-25,1,,,,,フォワードバック,0
1165,5070001040901,新規,0,2023-09-25,2023-09-25,株式会社金崎工業,,株式会社,群馬県,渋川市,有馬２６０番地１ハピネス有馬Ａ棟,,10,208,3770005,,,,,,,2023-09-25,1,,,,,カネザキコウギョウ,0
1170,5080101024233,新規,0,2023-09-25,2023-09-25,株式会社大成ホールディングス,,株式会社,静岡県,駿東郡清水町,卸団地３７番地,,22,341,4110912,,,,,,,2023-09-25,1,,,,,タイセイホールディングス,0
1172,5080403004874,新規,0,2023-09-25,2023-09-25,Ｓｍｉｌｅ　ｌａｂ合同会社,,合同会社,静岡県,袋井市,豊沢１６８番地の１００,,22,216,4370032,,,,,,,2023-09-25,1,,,,,スマイルラボ,0
1175,5090001018342,新規,0,2023-09-25,2023-09-25,株式会社ナチュラルワークス,,株式会社,山梨県,北杜市,大泉町谷戸８０９４番地１,,19,209,4091502,,,,,,,2023-09-25,1,,,,,ナチュラルワークス,0
1194,5120001258199,新規,0,2023-09-25,2023-09-25,株式会社人と未来,,株式会社,大阪府,大阪市浪速区,日本橋５丁目１２番３号ＯｓａｋａＭｅｔｒｏ恵美須町ビル７Ｆ,,27,111,5560005,,,,,,,2023-09-25,1,,,,,ヒトトミライ,0
1195,5120001258216,新規,0,2023-09-25,2023-09-25,曙光株式会社,,株式会社,大阪府,大阪市阿倍野区,阿倍野元町１４－５、７０９号室,,27,119,5450034,,,,,,,2023-09-25,1,,,,,ショコウ,0
1196,5120001258240,新規,0,2023-09-25,2023-09-25,株式会社プリズム,,株式会社,大阪府,大阪市中央区,南本町１丁目６－７ＭＪＲ堺筋本町タワー１８０４号室,,27,128,5410054,,,,,,,2023-09-25,1,,,,,プリズム,0
1201,5120003024946,新規,0,2023-09-25,2023-09-25,合同会社ヴィノテカ,,合同会社,大阪府,大阪市住吉区,南住吉４丁目６番７号,,27,120,5580041,,,,,,,2023-09-25,1,,,,,ヴィノテカ,0
1209,5122001037401,新規,0,2023-09-25,2023-09-25,株式会社大東ミラク,,株式会社,大阪府,大東市,氷野１丁目１５番２１号,,27,218,5740062,,,,,,,2023-09-25,1,,,,,ダイトウミラク,0
1212,5130001075255,新規,0,2023-09-25,2023-09-25,Ｊｏｂｅｅ株式会社,,株式会社,京都府,京都市南区,吉祥院蒔絵町１６番地の１,,26,107,6018344,,,,,,,2023-09-25,1,,,,,ジョビー,0
1213,5130005016890,新規,0,2023-09-25,2023-09-25,一般社団法人宇治川環境水質保全協会,,その他の設立登記法人,京都府,宇治市,宇治壱番１番地一の坂ビル,,26,204,6110021,,,,,,,2023-09-25,1,,,,,ウジガワカンキョウスイシツホゼンキョウカイ,0
1227,5140003019580,新規,0,2023-09-25,2023-09-25,ＴＡＨＩＲ　ＭＥＨＭＯＯＤ　ＣＯＲＰＯＲＡＴＩＯＮ合同会社,,合同会社,兵庫県,神戸市長田区,雲雀ヶ丘３丁目６－１－４０８,,28,106,6530879,,,,,,,2023-09-25,1,,,,,タヒルメフムードコーポレーション,0
1231,5160001025356,新規,0,2023-09-25,2023-09-25,株式会社リプレイ,,株式会社,滋賀県,大津市,苗鹿３丁目１１－３,,25,201,5200102,,,,,,,2023-09-25,1,,,,,リプレイ,0
1236,5180001158146,新規,0,2023-09-25,2023-09-25,株式会社ＡＰ,,株式会社,愛知県,名古屋市緑区,徳重３丁目１８０６番地,,23,114,4580815,,,,,,,2023-09-25,1,,,,,エーピー,0
1243,5180003025773,新規,0,2023-09-25,2023-09-25,ＴＳカンパニー合同会社,,合同会社,愛知県,名古屋市西区,花の木３丁目１７番３号ハナノキビルディング２Ｆ,,23,104,4510062,,,,,,,2023-09-25,1,,,,,ティーエスカンパニー,0
1244,5180003025781,新規,0,2023-09-25,2023-09-25,Ｎａｓｉｒトレーディング合同会社,,合同会社,愛知県,春日井市,西尾町３番地９１,,23,206,4800302,,,,,,,2023-09-25,1,,,,,ナシルトレーディング,0
1256,5220001025606,新規,0,2023-09-25,2023-09-25,株式会社オールワークス,,株式会社,石川県,金沢市,新神田３丁目８番２２号,,17,201,9218013,,,,,,,2023-09-25,1,,,,,オールワークス,0
1258,5220003003592,新規,0,2023-09-25,2023-09-25,三銀合同会社,,合同会社,石川県,金沢市,此花町５番６号（ライフ金沢第１ビル６０１Ａ）,,17,201,9200852,,,,,,,2023-09-25,1,,,,,ミツギン,0
1260,5230001020028,新規,0,2023-09-25,2023-09-25,ダイナマイトクロスチョップ株式会社,,株式会社,富山県,高岡市,野村１５４２番地３,,16,202,9330014,,,,,,,2023-09-25,1,,,,,ダイナマイトクロスチョップ,0
1262,5260001038331,新規,0,2023-09-25,2023-09-25,株式会社Ｅｄｅｎ,,株式会社,岡山県,岡山市北区,富田５１４番地１スカール富田公園１０１,,33,101,7000936,,,,,,,2023-09-25,1,,,,,エデン,0
1264,5280001009041,新規,0,2023-09-25,2023-09-25,株式会社ＳｕｎＢｅａｕｔｙ,,株式会社,島根県,江津市,桜江町小田１６４番地１,,32,207,6994225,,,,,,,2023-09-25,1,,,,,サンビューティー,0
1270,5290001103108,新規,0,2023-09-25,2023-09-25,株式会社ＥＫＢ,,株式会社,福岡県,糟屋郡篠栗町,和田２丁目３番３４号,,40,342,8112414,,,,,,,2023-09-25,1,,,,,イーケービー,0
1271,5290001103124,新規,0,2023-09-25,2023-09-25,株式会社大江建設,,株式会社,福岡県,糸島市,志摩船越７９番地,,40,230,8191332,,,,,,,2023-09-25,1,,,,,オオエケンセツ,0
1272,5290001103132,新規,0,2023-09-25,2023-09-25,内山建装株式会社,,株式会社,福岡県,福岡市早良区,有田５丁目１４番２０－３１８号,,40,137,8140033,,,,,,,2023-09-25,1,,,,,ウチヤマケンソウ,0
1274,5290003014393,新規,0,2023-09-25,2023-09-25,合同会社フランプール,,合同会社,福岡県,糟屋郡新宮町,緑ケ浜２丁目３０番１－３０１号,,40,345,8110119,,,,,,,2023-09-25,1,,,,,フランプール,0
1302,5430001090001,新規,0,2023-09-25,2023-09-25,株式会社ＮＯＡＥＬ,,株式会社,北海道,石狩郡当別町,太美町１４９５番地１２６,,01,303,0613776,,,,,,,2023-09-25,1,,,,,ノエル,0
1303,5430001090018,新規,0,2023-09-25,2023-09-25,大久保京介株式会社,,株式会社,北海道,札幌市白石区,栄通２１丁目１８番８号スクエア２１－１０１号,,01,104,0030021,,,,,,,2023-09-25,1,,,,,オオクボキョウスケ,0
1306,5490001010597,新規,0,2023-09-25,2023-09-25,株式会社Ｒｅｐａｉｒ　Ｈｏｕｓｅ　ＴＯＳＡ,,株式会社,高知県,高知市,中秦泉寺１９９番地１２,,39,201,7800021,,,,,,,2023-09-25,1,,,,,リペアハウストサ,0
1307,5700150120621,新規,0,2023-09-25,2023-09-25,Ｓｈｅｎｚｈｅｎ　Ｂｅｓｔ　Ｓｐｏｒｔｓ　Ｐｒｏｄｕｃｔｓ　Ｌｉｍｉｔｅｄ　Ｃｏｍｐａｎｙ,,外国会社等,,,,,,,,Ｂｕｉｌｄｉｎｇ　Ｂ，Ｎｏ．１０　Ｚｈｅｎｘｉｎｇ　Ｒｏａｄ，Ｌｉａｎｇ’ａｎｔｉａｎ　Ｃｏｍｍｕｎｉｔｙ，Ｐｉｎｇｈｕ　Ｓｔｒｅｅｔ，Ｌｏｎｇｇａｎｇ　Ｄｉｓｔｒｉｃｔ，Ｓｈｅｎｚｈｅｎ（Ｐｉｎｇｈｕ　Ｌｉａｎｇ’ａｎｔｉａｎ　３８８　Ｉｎｄｕｓｔｒｉａｌ　Ｚｏｎｅ）５１８１１１　ＣＮ,,,,,,2023-09-25,1,,,,,シンセンベストスポーツプロダクツリミテッドカンパニー,0
1308,5700150120712,新規,0,2023-09-25,2023-09-25,ｓｕｂａｏｋｅｊｉ（ｓｈｅｎｚｈｅｎ）ｙｏｕｘｉａｎｇｏｎｇｓｉ,,外国会社等,,,,,,,,Ｏｆｆｉｃｅ　ｂｕｉｌｄｉｎｇ　１７０３，Ｖａｎｋｅ　Ｒｅｄ　Ｃｕｂｅ　Ｂｕｉｌｄｉｎｇ，Ｌｕｏｇａｎｇ　Ｃｏｍｍｕｎｉｔｙ，Ｂｕｊｉ　Ｓｔｒｅｅｔ，Ｌｏｎｇｇａｎｇ　Ｄｉｓｔｒｉｃｔ，Ｓｈｅｎｚｈｅｎ　Ｇｕａｎｇｄｏｎｇ　Ｐｒｏｖｉｎｃｅ　５１８１００　ＣＮ,,,,,,2023-09-25,1,,,,,スウバオカージシェンジェンヨウシェンゴンスー,0
1323,6010003041745,新規,0,2023-09-25,2023-09-25,合同会社ＯＭ伏見,,合同会社,東京都,中央区,日本橋１丁目４番１号日本橋一丁目ビルディング,,13,102,1030027,,,,,,,2023-09-25,1,,,,,オーエムフシミ,0
1325,6010005037304,新規,0,2023-09-25,2023-09-25,尼崎ロジ不販一般社団法人,,その他の設立登記法人,東京都,千代田区,九段南３丁目７番７号成和綜合会計事務所内,,13,101,1020074,,,,,,,2023-09-25,1,,,,,アマガサキロジフハン,0
1331,6010401177307,新規,0,2023-09-25,2023-09-25,ＦＬＹ．Ｗ株式会社,,株式会社,東京都,港区,三田１丁目３－４０－６０１号室,,13,103,1080073,,,,,,,2023-09-25,1,,,,,フライダブリュー,0
1334,6010405022491,新規,0,2023-09-25,2023-09-25,弁護士法人大東京法律事務所,,その他の設立登記法人,東京都,港区,西新橋１丁目６番１２号アイオス虎ノ門３０７号,,13,103,1050003,,,,,,,2023-09-25,1,,,,,ダイトウキョウホウリツジムショ,0
1338,6010603010356,新規,0,2023-09-25,2023-09-25,合同会社セレンディピティメッド,,合同会社,東京都,墨田区,太平３丁目４番７号－１３０３,,13,107,1300012,,,,,,,2023-09-25,1,,,,,セレンディピティメッド,0
1353,6011001157038,新規,0,2023-09-25,2023-09-25,株式会社コーラルデザイン,,株式会社,東京都,渋谷区,千駄ヶ谷４丁目３０番８－１３０４号,,13,113,1510051,,,,,,,2023-09-25,1,,,,,コーラルデザイン,0
1354,6011001157054,新規,0,2023-09-25,2023-09-25,オープン・クルーズ株式会社,,株式会社,東京都,渋谷区,千駄ヶ谷３丁目９番４号,,13,113,1510051,,,,,,,2023-09-25,1,,,,,オープンクルーズ,0
1355,6011001157070,新規,0,2023-09-25,2023-09-25,株式会社Ｒｅａｌ　Ｂｉｔ,,株式会社,東京都,渋谷区,渋谷１丁目１４番８号宮益ＳＫビル９階,,13,113,1500002,,,,,,,2023-09-25,1,,,,,リアルビット,0
1356,6011001157129,新規,0,2023-09-25,2023-09-25,株式会社ＥｉｎＥ,,株式会社,東京都,渋谷区,神泉町２５番５号１０２,,13,113,1500045,,,,,,,2023-09-25,1,,,,,エイニー,0
1357,6011001157145,新規,0,2023-09-25,2023-09-25,株式会社富澤薬店くすりのトミー,,株式会社,東京都,渋谷区,本町３丁目２番６号,,13,113,1510071,,,,,,,2023-09-25,1,,,,,トミザワクスリテンクスリノトミー,0
1360,6011003017578,新規,0,2023-09-25,2023-09-25,合同会社ＲＡＣＣＯＯＮ,,合同会社,東京都,渋谷区,神宮前６丁目２３番４号桑野ビル２階,,13,113,1500001,,,,,,,2023-09-25,1,,,,,ラクーン,0
1361,6011003017586,新規,0,2023-09-25,2023-09-25,合同会社ＵＳＧアソシエイツ,,合同会社,東京都,渋谷区,恵比寿南１丁目３番２－１３０２号エルスタンザ恵比寿,,13,113,1500022,,,,,,,2023-09-25,1,,,,,ユーエスジーアソシエイツ,0
1362,6011003017594,新規,0,2023-09-25,2023-09-25,合同会社ＲＴソリューション,,合同会社,東京都,目黒区,五本木３丁目１５番１－２０１号,,13,110,1530053,,,,,,,2023-09-25,1,,,,,アールティーソリューション,0
1363,6011003017603,新規,0,2023-09-25,2023-09-25,合同会社コスモ,,合同会社,東京都,渋谷区,道玄坂２丁目８番８号コスモ渋谷館３階,,13,113,1500043,,,,,,,2023-09-25,1,,,,,コスモ,0
1370,6011501029810,新規,0,2023-09-25,2023-09-25,三木株式会社,,株式会社,東京都,荒川区,西尾久７丁目２４番８号３Ｆ,,13,118,1160011,,,,,,,2023-09-25,1,,,,,ミキ,0
1374,6011701026608,新規,0,2023-09-25,2023-09-25,株式会社進和,,株式会社,東京都,江戸川区,東小松川４丁目４７－７,,13,123,1320033,,,,,,,2023-09-25,1,,,,,シンワ,0
1377,6011801043057,新規,0,2023-09-25,2023-09-25,株式会社ＴＫ　ｆａｃｔｏｒｙ,,株式会社,東京都,足立区,保木間４丁目８－７－１０６,,13,121,1210064,,,,,,,2023-09-25,1,,,,,ティーケーファクトリー,0
1378,6011801043073,新規,0,2023-09-25,2023-09-25,株式会社猿陣,,株式会社,東京都,足立区,谷在家１丁目１１番２－１０２号,,13,121,1230863,,,,,,,2023-09-25,1,,,,,エンジン,0
1380,6012801022645,新規,0,2023-09-25,2023-09-25,株式会社Ｓｔａｒ　ｔｒａｉｌ,,株式会社,東京都,立川市,幸町４丁目５２番地の１,,13,202,1900002,,,,,,,2023-09-25,1,,,,,スタートレイル,0
1392,6020001153608,新規,0,2023-09-25,2023-09-25,株式会社ｃｒｅｗ,,株式会社,神奈川県,横浜市都筑区,北山田３丁目２１－１１,,14,118,2240021,,,,,,,2023-09-25,1,,,,,クルー,0
1393,6020001153624,新規,0,2023-09-25,2023-09-25,ＴａｌｅｎｔＲｅｃｉｐｅ株式会社,,株式会社,神奈川県,横浜市港北区,大倉山３丁目１３番７号アイビットビル４０１,,14,109,2220037,,,,,,,2023-09-25,1,,,,,タレントレシピ,0
1396,6020003024641,新規,0,2023-09-25,2023-09-25,キョウワハウジング合同会社,,合同会社,神奈川県,横浜市旭区,二俣川２丁目２１番地１－４０３,,14,112,2410821,,,,,,,2023-09-25,1,,,,,キョウワハウジング,0
1397,6021001080247,新規,0,2023-09-25,2023-09-25,株式会社Ｋａｔｔｅ,,株式会社,神奈川県,大和市,深見３６００－２－２１３,,14,213,2420011,,,,,,,2023-09-25,1,,,,,カッテ,0
1398,6021001080263,新規,0,2023-09-25,2023-09-25,株式会社ＳＳＦ,,株式会社,神奈川県,座間市,ひばりが丘２丁目４０－７２,,14,216,2520003,,,,,,,2023-09-25,1,,,,,エスエスエフ,0
1403,6030001155842,新規,0,2023-09-25,2023-09-25,株式会社秘蜜結社,,株式会社,埼玉県,川越市,川鶴１丁目７番地８,,11,201,3501176,,,,,,,2023-09-25,1,,,,,ヒミツケッシャ,0
1404,6030001156188,新規,0,2023-09-25,2023-09-25,株式会社ニクス,,株式会社,埼玉県,草加市,青柳６丁目４０番１５号エレガンハイツ２０３号,,11,221,3400002,,,,,,,2023-09-25,1,,,,,ニクス,0
1405,6030001156213,新規,0,2023-09-25,2023-09-25,株式会社クレイン・オフィス,,株式会社,埼玉県,飯能市,稲荷町２１番１２号リバーサイドハイム４０３号室,,11,209,3570037,,,,,,,2023-09-25,1,,,,,クレインオフィス,0
1406,6030001156262,新規,0,2023-09-25,2023-09-25,株式会社掃伐の虎,,株式会社,埼玉県,春日部市,梅田本町２丁目１７番１号３階,,11,214,3440053,,,,,,,2023-09-25,1,,,,,ソウバツノトラ,0
1412,6040001130200,新規,0,2023-09-25,2023-09-25,株式会社Ｖａｎｌｉｆｅ　ＢＡＳＥ,,株式会社,千葉県,山武郡九十九里町,小関２３４７－３１,,12,403,2830102,,,,,,,2023-09-25,1,,,,,バンライフベース,0
1413,6040001130233,新規,0,2023-09-25,2023-09-25,株式会社ネコロボマン,,株式会社,千葉県,市原市,北国分寺台３丁目７番地２,,12,219,2900071,,,,,,,2023-09-25,1,,,,,ネコロボマン,0
1425,6070001040900,新規,0,2023-09-25,2023-09-25,ＴＭグリーン株式会社,,株式会社,群馬県,高崎市,下里見町１３６９番地１０,,10,202,3703343,,,,,,,2023-09-25,1,,,,,ティーエムグリーン,0
1429,6080003003061,新規,0,2023-09-25,2023-09-25,合同会社ＡＰＴ,,合同会社,静岡県,静岡市清水区,長崎３７１－１,,22,103,4240065,,,,,,,2023-09-25,1,,,,,エーピーティー,0
1430,6080101024232,新規,0,2023-09-25,2023-09-25,株式会社ｍｉｎｏｍａｒｕ,,株式会社,静岡県,三島市,安久４８９番地の７,,22,206,4110815,,,,,,,2023-09-25,1,,,,,ミノマル,0
1436,6090003002392,新規,0,2023-09-25,2023-09-25,合同会社ＧＲＥＥＮ　ＣＬＯＳＥＴ,,合同会社,山梨県,中央市,極楽寺９７３番地,,19,214,4093811,,,,,,,2023-09-25,1,,,,,グリーンクローゼット,0
1438,6100003007200,新規,0,2023-09-25,2023-09-25,合同会社シティオス地蔵,,合同会社,長野県,東御市,新張１２７０番地,,20,219,3890501,,,,,,,2023-09-25,1,,,,,シティオスヂゾウ,0
1440,6110001037859,新規,0,2023-09-25,2023-09-25,建築工房おぐ株式会社,,株式会社,新潟県,長岡市,下柳２丁目１２番３号,,15,202,9402013,,,,,,,2023-09-25,1,,,,,ケンチクコウボウオグ,0
1450,6120001258165,新規,0,2023-09-25,2023-09-25,東森株式会社,,株式会社,大阪府,大阪市西淀川区,柏里２丁目７－２６ラ・ピース塚本６０５号室,,27,113,5550022,,,,,,,2023-09-25,1,,,,,トウシン,0
1451,6120001258181,新規,0,2023-09-25,2023-09-25,株式会社ＦＴ,,株式会社,大阪府,大阪市天王寺区,味原町１３番９号サンエイ下味原第二ビル５１１号室,,27,109,5430023,,,,,,,2023-09-25,1,,,,,エフティー,0
1452,6120001258223,新規,0,2023-09-25,2023-09-25,姫氏メディア株式会社,,株式会社,大阪府,大阪市東成区,大今里４丁目４－７－３Ｆ,,27,115,5370012,,,,,,,2023-09-25,1,,,,,キシメディア,0
1453,6120001258231,新規,0,2023-09-25,2023-09-25,株式会社コスモキャブ第二,,株式会社,大阪府,大阪市淀川区,三津屋南１丁目１番２６号,,27,123,5320035,,,,,,,2023-09-25,1,,,,,コスモキャブダイニ,0
1454,6120001258347,新規,0,2023-09-25,2023-09-25,夏紀工務店株式会社,,株式会社,大阪府,大阪市旭区,中宮４丁目１５番２８号,,27,117,5350003,,,,,,,2023-09-25,1,,,,,ナツキコウムテン,0
1456,6120003024821,新規,0,2023-09-25,2023-09-25,合同会社ＢｌｏｏｍＡｒｔｓ,,合同会社,大阪府,大阪市北区,梅田１丁目１－３大阪駅前第３ビル２９階１－１－１号室,,27,127,5300001,,,,,,,2023-09-25,1,,,,,ブルームアーツ,0
1457,6120003024937,新規,0,2023-09-25,2023-09-25,乙羽商事合同会社,,合同会社,大阪府,大阪市北区,西天満２丁目７番２５号梅田淀屋橋ＭＮＴ３０１号室,,27,127,5300047,,,,,,,2023-09-25,1,,,,,オトワショウジ,0
1458,6120101068241,新規,0,2023-09-25,2023-09-25,株式会社まごのてｃｒｅａｔｏｒｓ,,株式会社,大阪府,堺市南区,原山台４丁１４－３クリスタルハイツ原山台１０５号,,27,145,5900132,,,,,,,2023-09-25,1,,,,,マゴノテクリエイターズ,0
1462,6120905006520,新規,0,2023-09-25,2023-09-25,半導体・量子素子高分解能放射光分析技術研究組合,,その他の設立登記法人,大阪府,吹田市,山田丘２－１,,27,205,5650871,,,,,,,2023-09-25,1,,,,,ハンドウタイリョウシソシコウブンカイノウホウシャヒカリブンセキ,0
1468,6140001131725,新規,0,2023-09-25,2023-09-25,株式会社ウィーテック,,株式会社,兵庫県,三木市,宿原１６５番地,,28,215,6730423,,,,,,,2023-09-25,1,,,,,ウィーテック,0
1475,6140003019588,新規,0,2023-09-25,2023-09-25,キャリアバンク合同会社,,合同会社,兵庫県,神戸市長田区,長田天神町５丁目４－７,,28,106,6530882,,,,,,,2023-09-25,1,,,,,キャリアバンク,0
1489,6180005020359,新規,0,2023-09-25,2023-09-25,特定非営利活動法人Ｓｏｃｉａｌ　Ｃａｒｅ　Ｉｎｔｅｒｎａｔｉｏｎａｌ　Ｋａａｋｂａｙ　Ｊａｐａｎ,,その他の設立登記法人,愛知県,名古屋市名東区,名東本通５丁目５番地４２号バウハウス５Ｂ,,23,115,4650087,,,,,,,2023-09-25,1,,,,,ソーシャルケアインターナショナルカクアバイジャパン,0
1493,6180305009515,新規,0,2023-09-25,2023-09-25,ツイテル労働者協同組合,,その他の設立登記法人,愛知県,刈谷市,広小路２丁目１０番地,,23,210,4480844,,,,,,,2023-09-25,1,,,,,ツイテル,0
1495,6200003006084,新規,0,2023-09-25,2023-09-25,合同会社シティプランニング可児,,合同会社,岐阜県,可児市,土田字大脇４８００－１,,21,214,5090206,,,,,,,2023-09-25,1,,,,,シティプランニングカニ,0
1496,6200003006092,新規,0,2023-09-25,2023-09-25,合同会社ＭＵＧＨＡＬ　ＩＮＴＥＲＮＡＴＩＯＮＡＬ　ＴＲＡＤＩＮＧ,,合同会社,岐阜県,岐阜市,須賀２丁目６番１１－２０２号（クイーンズガーデン）,,21,201,5008289,,,,,,,2023-09-25,1,,,,,ムガルインターナショナルトレーディング,0
1510,6290001103131,新規,0,2023-09-25,2023-09-25,Ｎ．Ｅ．Ｏ株式会社,,株式会社,福岡県,飯塚市,椋本６９番地７,,40,205,8200077,,,,,,,2023-09-25,1,,,,,ネオ,0
1511,6290003014392,新規,0,2023-09-25,2023-09-25,合同会社ネクストソリューション,,合同会社,福岡県,久留米市,西町１０８－１４,,40,203,8300038,,,,,,,2023-09-25,1,,,,,ネクストソリューション,0
1514,6330001031278,新規,0,2023-09-25,2023-09-25,ＳＴＥＰ株式会社,,株式会社,熊本県,菊池郡大津町,美咲野３丁目２１番１号,,43,403,8691237,,,,,,,2023-09-25,1,,,,,ステップ,0
1516,6340001025923,新規,0,2023-09-25,2023-09-25,南斗美健株式会社,,株式会社,鹿児島県,鹿児島市,和田２丁目７番２４号,,46,201,8910143,,,,,,,2023-09-25,1,,,,,ミナトビケン,0
1522,6360001032587,新規,0,2023-09-25,2023-09-25,ＭＣＭ株式会社,,株式会社,沖縄県,中頭郡北谷町,字砂辺２２０番地１,,47,326,9040111,,,,,,,2023-09-25,1,,,,,エムシーエム,0
1528,6370003006299,新規,0,2023-09-25,2023-09-25,合同会社オルフレックス,,合同会社,宮城県,仙台市泉区,市名坂字野蔵１２０番地の５栄光会館２０１,,04,105,9813117,,,,,,,2023-09-25,1,,,,,オルフレックス,0
1532,6380005012749,新規,0,2023-09-25,2023-09-25,ワールドエイド協同組合,,その他の設立登記法人,福島県,いわき市,小名浜野田字田中１０６番地,,07,204,9718126,,,,,,,2023-09-25,1,,,,,ワールドエイド,0
1541,6430001090017,新規,0,2023-09-25,2023-09-25,株式会社春喜,,株式会社,北海道,札幌市中央区,南二条西１０丁目４‐５プレミアム２１０　３０５号,,01,101,0600062,,,,,,,2023-09-25,1,,,,,ハルキ,0
1542,6430001090033,新規,0,2023-09-25,2023-09-25,株式会社Ｐｒｏｇｒｅｓｓ　Ｐａｒｔｎｅｒ,,株式会社,北海道,札幌市手稲区,前田五条１２丁目８番１０号,,01,109,0060815,,,,,,,2023-09-25,1,,,,,プログレスパートナー,0
1546,6430003015450,新規,0,2023-09-25,2023-09-25,ＳＴ合同会社,,合同会社,北海道,恵庭市,黄金中央３丁目７番地２４,,01,231,0611449,,,,,,,2023-09-25,1,,,,,エスティー,0
1549,6480001012222,新規,0,2023-09-25,2023-09-25,セカンドパネル株式会社,,株式会社,徳島県,徳島市,上八万町西山５８５番地,,36,201,7708041,,,,,,,2023-09-25,1,,,,,セカンドパネル,0
1550,6500001025196,新規,0,2023-09-25,2023-09-25,株式会社Ａｒｃｔａｔｅ,,株式会社,愛媛県,新居浜市,滝の宮町４番５３号,,38,205,7920034,,,,,,,2023-09-25,1,,,,,アークテイト,0
1551,6700150120620,新規,0,2023-09-25,2023-09-25,ｚｈｅｎｇｚｈｏｕｆｅｎｇｆｅｎｙａｎｇｓｈａｎｇｍａｏ　ｙｏｕｘｉａｎｇｏｎｇｓｉ,,外国会社等,,,,,,,,１６０４，Ｕｎｉｔ　１，Ｂｕｉｌｄｉｎｇ　８，Ａｒｅａ　Ｃ，Ｆｅｎｇｈｕａｎｇ　Ｔｅａ　Ｃｉｔｙ，Ｆｕｔｕｒｅ　Ｒｏａｄ，Ｊｉｎｓｈｕｉ　Ｄｉｓｔｒｉｃｔ，Ｚｈｅｎｇｚｈｏｕ　Ｃｉｔｙ，Ｈｅｎａｎ　Ｐｒｏｖｉｎｃｅ　４５００００　ＣＮ,,,,,,2023-09-25,1,,,,,テイシュウフェンフェンヤンシャンマオヨウシェンゴンスー,0
1552,6700150120629,新規,0,2023-09-25,2023-09-25,ｇｕａｎｇｚｈｏｕｘｉｎｇｘｉｎｇｒｏｎｇｄｉａｎｚｉｓｈａｎｇｗｕｙｏｕｘｉａｎｇｏｎｇｓｉ,,外国会社等,,,,,,,,ｇｕａｎｇｚｈｏｕｓｈｉｂａｉｙｕｎｑｕｔａｎｇｊｉｎｇｊｉｅｊｉｃｈａｎｇｌｕ５８５ｈａｏ８ｌｏｕ６２０　５１００００　ＣＮ,,,,,,2023-09-25,1,,,,,グァンジョウシンシンロンディエンズーシャンウヨウシェンゴンスー,0
1553,6700150120711,新規,0,2023-09-25,2023-09-25,ＳＨＥＮＺＨＥＮＳＨＩ　ＸＩＮＨＵＩＹＵＡＮ　ＫＥＪＩ　ＹＯＵＸＩＡＮ　ＧＯＮＧＳＩ,,外国会社等,,,,,,,,ＬｏｎｇＧａｎｇＱｕｎａｎＷａｎＪｉｅＤａｏＸｉａＬｉＬａｎｇＳｈｅＱｕＸｉａＬｉＮａｎＬｕ７３ＨａｏＤｏｎｇＪｉｕ　ＣｈｕａｎｇＸｉｎＫｅＪｉＹｕａｎＥｒＱｉ６Ｄｏｎｇ１２１０Ｂ－Ｖ７　Ｓｈｅｎｚｈｅｎｓｈｉ　Ｇｕａｎｇｄｏｎｇｓｈｅｎｇ　５１８１１２　ＣＮ,,,,,,2023-09-25,1,,,,,シェンジェンシシンホイユェンカージヨウシェンゴンスー,0
1567,7010001238532,新規,0,2023-09-25,2023-09-25,日和国際株式会社,,株式会社,東京都,中央区,銀座８丁目８－９－１Ｆ,,13,102,1040061,,,,,,,2023-09-25,1,,,,,ニチワコクサイ,0
1568,7010001238598,新規,0,2023-09-25,2023-09-25,株式会社ＬＥＯ,,株式会社,東京都,文京区,白山５丁目１７－１０,,13,105,1120001,,,,,,,2023-09-25,1,,,,,レオ,0
1569,7010001238680,新規,0,2023-09-25,2023-09-25,株式会社Ｏｎｅ　Ｃｒｅａｔｉｏｎ,,株式会社,東京都,中央区,日本橋蛎殻町１丁目６番４－４０４号,,13,102,1030014,,,,,,,2023-09-25,1,,,,,ワンクリエイション,0
1570,7010001238689,新規,0,2023-09-25,2023-09-25,株式会社ＡｉＰＲＯ,,株式会社,東京都,文京区,小石川１丁目１７番１号,,13,105,1120002,,,,,,,2023-09-25,1,,,,,エイアイプロ,0
1574,7010101015823,新規,0,2023-09-25,2023-09-25,株式会社イノベーションサービス,,株式会社,東京都,八王子市,石川町１６７８番地１５,,13,201,1920032,,,,,,,2023-09-25,1,,,,,イノベーションサービス,0
1577,7010103002209,新規,0,2023-09-25,2023-09-25,ルミエール合同会社,,合同会社,東京都,八王子市,別所２丁目１０番地１－１０５,,13,201,1920363,,,,,,,2023-09-25,1,,,,,ルミエール,0
1582,7010401177297,新規,0,2023-09-25,2023-09-25,エッグコンサルティング株式会社,,株式会社,東京都,港区,北青山１丁目３番１号アールキューブ青山３階,,13,103,1070061,,,,,,,2023-09-25,1,,,,,エッグコンサルティング,0
1583,7010401177405,新規,0,2023-09-25,2023-09-25,ＹＡＭＡＮＭＡＮ株式会社,,株式会社,東京都,港区,新橋５丁目１２番１１号天翔新橋５丁目ビル１００５,,13,103,1050004,,,,,,,2023-09-25,1,,,,,ヤマンマン,0
1586,7010403030982,新規,0,2023-09-25,2023-09-25,酒蔵合同会社,,合同会社,東京都,港区,南青山２丁目４番１５号天翔南青山ビル３０３室,,13,103,1070062,,,,,,,2023-09-25,1,,,,,シュゾウ,0
1587,7010403031023,新規,0,2023-09-25,2023-09-25,合同会社ｗｉｔｈ　ｈｕｉｔ,,合同会社,東京都,港区,浜松町１丁目３番２号,,13,103,1050013,,,,,,,2023-09-25,1,,,,,ウィズウィット,0
1597,7010703006880,新規,0,2023-09-25,2023-09-25,キャリアスプレッド合同会社,,合同会社,東京都,品川区,小山４丁目１０－５,,13,109,1420062,,,,,,,2023-09-25,1,,,,,キャリアスプレッド,0
1601,7011001157045,新規,0,2023-09-25,2023-09-25,株式会社ＮＥＷＣＨＯＩＣＥ,,株式会社,東京都,渋谷区,道玄坂１丁目１０番８号渋谷道玄坂東急ビル２Ｆ－Ｃ,,13,113,1500043,,,,,,,2023-09-25,1,,,,,ニューチョイス,0
1602,7011001157144,新規,0,2023-09-25,2023-09-25,ＲＡＤＩＡＮ株式会社,,株式会社,東京都,渋谷区,笹塚１丁目５６番６号クレセントプラザ笹塚３階３０Ｂ号室,,13,113,1510073,,,,,,,2023-09-25,1,,,,,ラジアン,0
1603,7011001157177,新規,0,2023-09-25,2023-09-25,株式会社ビッグドロー,,株式会社,東京都,渋谷区,神泉町１０番１５号アネックス神泉３０１,,13,113,1500045,,,,,,,2023-09-25,1,,,,,ビッグドロー,0
1604,7011003017577,新規,0,2023-09-25,2023-09-25,あとおし合同会社,,合同会社,東京都,渋谷区,渋谷２丁目１９－１５宮益坂ビルディング６０９,,13,113,1500002,,,,,,,2023-09-25,1,,,,,アトオシ,0
1605,7011003017593,新規,0,2023-09-25,2023-09-25,日本リベラルアーツ協会合同会社,,合同会社,東京都,渋谷区,円山町５－５・３Ｆ,,13,113,1500044,,,,,,,2023-09-25,1,,,,,ニホンリベラルアーツキョウカイ,0
1606,7011003017602,新規,0,2023-09-25,2023-09-25,ＴＥＫアセット合同会社,,合同会社,東京都,目黒区,目黒３丁目１７番１０号,,13,110,1530063,,,,,,,2023-09-25,1,,,,,テックアセット,0
1622,7011801043072,新規,0,2023-09-25,2023-09-25,株式会社金澤建装,,株式会社,東京都,足立区,西新井５丁目４０番５号ＢＬＥＳＳ西新井Ａ棟１０１,,13,121,1230841,,,,,,,2023-09-25,1,,,,,カナザワケンソウ,0
1626,7011803005847,新規,0,2023-09-25,2023-09-25,合同会社モーニング,,合同会社,東京都,葛飾区,小菅３丁目９番１５号コーポオオゴＧ棟１０１号,,13,122,1240001,,,,,,,2023-09-25,1,,,,,モーニング,0
1627,7012401041029,新規,0,2023-09-25,2023-09-25,株式会社ＫＭＴ,,株式会社,東京都,三鷹市,深大寺２丁目３１番５４号,,13,204,1810016,,,,,,,2023-09-25,1,,,,,ケイエムティ,0
1639,7020001153615,新規,0,2023-09-25,2023-09-25,株式会社パーム,,株式会社,神奈川県,横浜市戸塚区,戸塚町２３５３番地１１,,14,110,2440003,,,,,,,2023-09-25,1,,,,,パーム,0
1640,7020001153631,新規,0,2023-09-25,2023-09-25,株式会社昇建,,株式会社,神奈川県,横浜市瀬谷区,本郷２丁目２８番地７６,,14,114,2460015,,,,,,,2023-09-25,1,,,,,ショウケン,0
1644,7020003024640,新規,0,2023-09-25,2023-09-25,合同会社ＢＡＮＡＲＯ,,合同会社,神奈川県,横浜市青葉区,みたけ台３４番地１１０,,14,117,2270047,,,,,,,2023-09-25,1,,,,,バナロ,0
1654,7030001156121,新規,0,2023-09-25,2023-09-25,株式会社吉見,,株式会社,埼玉県,川口市,元郷６丁目１１番２８号,,11,203,3320011,,,,,,,2023-09-25,1,,,,,ヨシミ,0
1655,7030001156179,新規,0,2023-09-25,2023-09-25,株式会社Ｆｕｔｕｒｅ　Ｆｌｏｗｅｒ,,株式会社,埼玉県,川口市,坂下町４丁目７番１１号,,11,203,3340003,,,,,,,2023-09-25,1,,,,,フューチャーフラワー,0
1661,7030003022619,新規,0,2023-09-25,2023-09-25,一級建築士事務所遊設計室合同会社,,合同会社,埼玉県,所沢市,東所沢２丁目２０－１１,,11,208,3590021,,,,,,,2023-09-25,1,,,,,イッキュウケンチクシジムショユウセッケイシツ,0
1665,7030005021387,新規,0,2023-09-25,2023-09-25,財団法人行田市開発協会,,その他の設立登記法人,埼玉県,行田市,本丸２番５号,,11,206,3610052,,,,,,,2023-09-25,1,,,,,,0
1668,7040001130190,新規,0,2023-09-25,2023-09-25,旭陽商事株式会社,,株式会社,千葉県,千葉市中央区,蘇我５丁目６番１号藤和シティホームズ蘇我３０１号,,12,101,2600822,,,,,,,2023-09-25,1,,,,,キョクウヨウショウジ,0
1669,7040001130199,新規,0,2023-09-25,2023-09-25,株式会社ＡＲＧＥＮＴ,,株式会社,千葉県,白井市,根１０６４番地の１４,,12,232,2701431,,,,,,,2023-09-25,1,,,,,アージェント,0
1672,7040003023310,新規,0,2023-09-25,2023-09-25,合同会社ＮＳ企画,,合同会社,千葉県,香取郡多古町,多古１０５０番地１,,12,347,2892241,,,,,,,2023-09-25,1,,,,,エヌエスキカク,0
1674,7050001053515,新規,0,2023-09-25,2023-09-25,ＮＯＥＮイトウ株式会社,,株式会社,茨城県,小美玉市,倉数１２６５番地,,08,236,3113417,,,,,,,2023-09-25,1,,,,,ノウエンイトウ,0
1681,7080003003060,新規,0,2023-09-25,2023-09-25,テイクモバイル合同会社,,合同会社,静岡県,静岡市葵区,長沼１丁目１０番９号,,22,101,4200813,,,,,,,2023-09-25,1,,,,,テイクモバイル,0
1683,7090001018332,新規,0,2023-09-25,2023-09-25,株式会社ＰＹＡ,,株式会社,山梨県,北杜市,長坂町大井ヶ森１１２７番地１６,,19,209,4080032,,,,,,,2023-09-25,1,,,,,ピーワイエー,0
1684,7090001018340,新規,0,2023-09-25,2023-09-25,株式会社誠心,,株式会社,山梨県,富士吉田市,松山１丁目１４－４渡辺ハイツ２号,,19,202,4030016,,,,,,,2023-09-25,1,,,,,セイシン,0
1687,7090003002391,新規,0,2023-09-25,2023-09-25,合同会社山梨自然環境調査,,合同会社,山梨県,甲府市,城東４丁目１２番４号,,19,201,4000861,,,,,,,2023-09-25,1,,,,,ヤマナシシゼンカンキョウチョウサ,0
1690,7100003007199,新規,0,2023-09-25,2023-09-25,トップストア合同会社,,合同会社,長野県,佐久市,中込２丁目１３番３号,,20,217,3850051,,,,,,,2023-09-25,1,,,,,トップストア,0
1697,7120001258164,新規,0,2023-09-25,2023-09-25,金森企画株式会社,,株式会社,大阪府,大阪市都島区,東野田町１丁目２１番８号エンビィハイム３０１号室,,27,102,5340024,,,,,,,2023-09-25,1,,,,,カネモリキカク,0
1698,7120001258197,新規,0,2023-09-25,2023-09-25,株式会社Ｒ・Ｃｈａｍｏｍｉｌｅ,,株式会社,大阪府,大阪市阿倍野区,旭町２丁目１番１号,,27,119,5450051,,,,,,,2023-09-25,1,,,,,ローマンカモミール,0
1699,7120001258222,新規,0,2023-09-25,2023-09-25,株式会社ワールド＆にゃんこ,,株式会社,大阪府,大阪市此花区,春日出中２丁目１６番２１号第二ハイツ東邦３０１,,27,104,5540022,,,,,,,2023-09-25,1,,,,,ワールドアンドニャンコ,0
1700,7120001258239,新規,0,2023-09-25,2023-09-25,株式会社土居商事,,株式会社,大阪府,大阪市北区,曾根崎新地１丁目６番３号,,27,127,5300002,,,,,,,2023-09-25,1,,,,,ドイショウジ,0
1701,7120003024985,新規,0,2023-09-25,2023-09-25,合同会社陽菜,,合同会社,大阪府,大阪市福島区,大開１丁目９番１０－１０１号,,27,103,5530007,,,,,,,2023-09-25,1,,,,,ヒナ,0
1703,7120101068232,新規,0,2023-09-25,2023-09-25,泉州糀屋本家株式会社,,株式会社,大阪府,岸和田市,宮前町３番２０号,,27,202,5960043,,,,,,,2023-09-25,1,,,,,センシュウコウジヤホンケ,0
1708,7122001037382,新規,0,2023-09-25,2023-09-25,丸徳株式会社,,株式会社,大阪府,大東市,栄和町１５－１８イーストビル３０７号室,,27,218,5740032,,,,,,,2023-09-25,1,,,,,マルトク,0
1709,7130001075253,新規,0,2023-09-25,2023-09-25,株式会社ヒロケン,,株式会社,京都府,八幡市,男山長沢９番３号,,26,210,6148367,,,,,,,2023-09-25,1,,,,,ヒロケン,0
1712,7140001131699,新規,0,2023-09-25,2023-09-25,株式会社ＢＡＮＤＥ,,株式会社,兵庫県,姫路市,飾磨区阿成２２番地８,,28,201,6728037,,,,,,,2023-09-25,1,,,,,バンデ,0
1713,7140001131716,新規,0,2023-09-25,2023-09-25,株式会社ＣＲＨ,,株式会社,兵庫県,神戸市須磨区,青葉町２丁目１番２５号,,28,107,6540038,,,,,,,2023-09-25,1,,,,,シーアールエッチ,0
1717,7140003019587,新規,0,2023-09-25,2023-09-25,合同会社ＤｉｓＭｏｉ,,合同会社,兵庫県,神戸市北区,鈴蘭台西町５丁目２番１０号,,28,109,6511114,,,,,,,2023-09-25,1,,,,,ディモア,0
1725,7180001158152,新規,0,2023-09-25,2023-09-25,株式会社ＶＩＣＴＯＲＩＡ,,株式会社,愛知県,名古屋市中村区,名駅３丁目１１－９ＪＥ名駅３１１ビル５０１号室,,23,105,4500002,,,,,,,2023-09-25,1,,,,,ヴィクトリア,0
1726,7180001158169,新規,0,2023-09-25,2023-09-25,株式会社Ｎ　ｑｕａｌｉｔｙ,,株式会社,愛知県,尾張旭市,平子町長池上６２６５－３,,23,226,4880872,,,,,,,2023-09-25,1,,,,,エヌクオリティ,0
1733,7220003003590,新規,0,2023-09-25,2023-09-25,合同会社まの,,合同会社,石川県,白山市,森島町知１７９番地１,,17,210,9202131,,,,,,,2023-09-25,1,,,,,マノ,0
1738,7240005015657,新規,0,2023-09-25,2023-09-25,医療法人伊勢丘内科クリニック,,その他の設立登記法人,広島県,福山市,伊勢丘３丁目３番１号,,34,207,7210915,,,,,,,2023-09-25,1,,,,,,0
1742,7270005005564,新規,0,2023-09-25,2023-09-25,一般社団法人ジュンキラナカンパニー,,その他の設立登記法人,鳥取県,鳥取市,若葉台南３丁目１０番１３号,,31,201,6891112,,,,,,,2023-09-25,1,,,,,ジュンキラナカンパニー,0
1744,7280003001770,新規,0,2023-09-25,2023-09-25,合同会社島根町企画,,合同会社,島根県,松江市,島根町野波２７６５,,32,201,6901212,,,,,,,2023-09-25,1,,,,,シマネチョウキカク,0
1750,7290001103114,新規,0,2023-09-25,2023-09-25,株式会社ディスポーズ・オフ,,株式会社,福岡県,福岡市東区,多の津３丁目１８番３９号,,40,131,8130034,,,,,,,2023-09-25,1,,,,,ディスポーズオフ,0
1751,7290001103130,新規,0,2023-09-25,2023-09-25,株式会社徳,,株式会社,福岡県,福岡市博多区,麦野５丁目２３番３０－１０６号,,40,132,8120882,,,,,,,2023-09-25,1,,,,,トク,0
1752,7290003014391,新規,0,2023-09-25,2023-09-25,合同会社ジェイエム,,合同会社,福岡県,福岡市早良区,賀茂３丁目１７番５－３０１号ドミールＭ,,40,137,8140164,,,,,,,2023-09-25,1,,,,,ジェイエム,0
1756,7320001020017,新規,0,2023-09-25,2023-09-25,明昇産業株式会社,,株式会社,大分県,大分市,椿が丘２丁目１５番４号,,44,201,8701166,,,,,,,2023-09-25,1,,,,,メイショウサンギョウ,0
1757,7320003004182,新規,0,2023-09-25,2023-09-25,合同会社ＩＷＡＳＡＫＩ,,合同会社,大分県,臼杵市,大字戸室３３９番地の１,,44,206,8750051,,,,,,,2023-09-25,1,,,,,イワサキ,0
1760,7330001031277,新規,0,2023-09-25,2023-09-25,株式会社ＴｉｅＭＵ,,株式会社,熊本県,熊本市中央区,新屋敷１丁目１９番１７号４０３号室,,43,101,8620975,,,,,,,2023-09-25,1,,,,,,0
1761,7330001031285,新規,0,2023-09-25,2023-09-25,株式会社Ｔ‐テックス,,株式会社,熊本県,菊池郡菊陽町,大字原水９９８番地５,,43,404,8691102,,,,,,,2023-09-25,1,,,,,ティーテックス,0
1763,7330005010698,新規,0,2023-09-25,2023-09-25,一般社団法人といろ,,その他の設立登記法人,熊本県,熊本市東区,健軍３丁目４８番１５号,,43,102,8620911,,,,,,,2023-09-25,1,,,,,トイロ,0
1765,7340001025922,新規,0,2023-09-25,2023-09-25,株式会社清吉農機具,,株式会社,鹿児島県,曽於郡大崎町,永吉８２４８番地１,,46,468,8997306,,,,,,,2023-09-25,1,,,,,セイキチノウキグ,0
1772,7360001032586,新規,0,2023-09-25,2023-09-25,株式会社Ｌｉｆｅ　ｉｓ　ｗｏｎｄｅｒｆｕｌ,,株式会社,沖縄県,那覇市,牧志３丁目１１番１７号国際通り屋台村１番,,47,201,9000013,,,,,,,2023-09-25,1,,,,,ライフイズワンダフル,0
1780,7370001050439,新規,0,2023-09-25,2023-09-25,株式会社ライヴズ,,株式会社,宮城県,仙台市青葉区,木町通１丁目７番２１号,,04,101,9800801,,,,,,,2023-09-25,1,,,,,ライヴズ,0
1783,7390001017378,新規,0,2023-09-25,2023-09-25,Ｎｅｏ‐ファクトリー株式会社,,株式会社,山形県,村山市,大字杉島５８番地,,06,208,9950042,,,,,,,2023-09-25,1,,,,,ネオファクトリー,0
1789,7430003015466,新規,0,2023-09-25,2023-09-25,合同会社Ｗｉｔｈ　Ｓｅｒｖｉｃｅ,,合同会社,北海道,札幌市南区,真駒内本町７丁目１０番２号,,01,106,0050021,,,,,,,2023-09-25,1,,,,,ウィズサービス,0
1790,7450001014096,新規,0,2023-09-25,2023-09-25,株式会社山二システム,,株式会社,北海道,旭川市,永山二条２３丁目２番１４号,,01,204,0798412,,,,,,,2023-09-25,1,,,,,ヤマニシステム,0
1797,7700150120628,新規,0,2023-09-25,2023-09-25,Ｈｕｂｅｉ　Ｙｕｅｓｈｕａｉ　Ｅ－Ｃｏｍｍｅｒｃｅ　Ｃｏ．，Ｌｔｄ,,外国会社等,,,,,,,,Ｚｅｎｇｊｉａｓｈａｎ　Ｓｉｘｔｈ　Ｇｒｏｕｐ，Ｑｉｌｉｑｉａｏ　Ｖｉｌｌａｇｅ，Ｌｏｎｇｃｈｉｑｉａｏ　Ｏｆｆｉｃｅ　Ｍａｃｈｅｎｇ　Ｈｕｂｅｉ　４３８３００　ＣＮ,,,,,,2023-09-25,1,,,,,フゥベイユエシュァイディエンズーシャンウヨウシェンゴンスー,0
1798,7700150120644,新規,0,2023-09-25,2023-09-25,ＥＺ　ＣＡＮＯＰＹ　ＣＯ．，ＬＩＭＩＴＥＤ,,外国会社等,,,,,,,,ＦＬＡＴ／ＲＭ　７０５　７／Ｆ　ＦＡ　ＹＵＥＮ　ＣＯＭＭＢＬＤＧ　ＮＯ．７５　ＦＡ　ＹＵＥＮ　ＳＴＲＥＥＴ　ＭＯＮＧＫＯＫ　ＫＬ　９９９０７７　ＨＫ,,,,,,2023-09-25,1,,,,,イーズキャノピーカンパニーリミテッド,0
1799,7700150120710,新規,0,2023-09-25,2023-09-25,ｄｏｎｇｇｕａｎｓｈｉｊｉａｊｉａｘｉｎｍａｏｙｉｙｏｕｘｉａｎｇｏｎｇｓｉ,,外国会社等,,,,,,,,ｓｈｉｓｈｕｉｋｏｕｙｉｎｈｅｗｕｌｕ１１ｈａｏ２ｈａｏｌｏｕ２０１ｓｈｉ　ｄｏｎｇｇｕａｎｓｈｉ　ｑｉａｏｔｏｕｚｈｅｎ　ｇｕａｎｇｄｏｎｇｓｈｅｎｇ　５２３０００　ＣＮ,,,,,,2023-09-25,1,,,,,ドンワンシジャアジャアシンマオイーヨウシェンゴンスー,0
1807,8010003041702,新規,0,2023-09-25,2023-09-25,東条ロジ合同会社,,合同会社,東京都,中央区,銀座１丁目６番１１号アースタックス税理士法人内,,13,102,1040061,,,,,,,2023-09-25,1,,,,,トウジョウロジ,0
1808,8010003041743,新規,0,2023-09-25,2023-09-25,ＭＪサステナブルエナジー合同会社,,合同会社,東京都,中央区,日本橋１丁目４番１号,,13,102,1030027,,,,,,,2023-09-25,1,,,,,エムジェイサステナブルエナジー,0
1818,8010401177239,新規,0,2023-09-25,2023-09-25,株式会社ドリームドア,,株式会社,東京都,港区,赤坂８丁目１０番３９号赤坂ＫＳＡビル３階,,13,103,1070052,,,,,,,2023-09-25,1,,,,,ドリームドア,0
1819,8010401177387,新規,0,2023-09-25,2023-09-25,ノーブルブライト株式会社,,株式会社,東京都,港区,高輪４丁目４番１３号,,13,103,1080074,,,,,,,2023-09-25,1,,,,,ノーブルブライト,0
1823,8010403030981,新規,0,2023-09-25,2023-09-25,ＰｙＧ合同会社,,合同会社,東京都,港区,南麻布３丁目２１番１７号,,13,103,1060047,,,,,,,2023-09-25,1,,,,,ピーワイジー,0
1824,8010501051095,新規,0,2023-09-25,2023-09-25,株式会社ＳＫＹ,,株式会社,東京都,台東区,元浅草１丁目１７－１５ストークＴ．Ｓ２０６,,13,106,1110041,,,,,,,2023-09-25,1,,,,,スカイ,0
1825,8010501051104,新規,0,2023-09-25,2023-09-25,株式会社ＦＩＮＥ　ＧＥＭＳ,,株式会社,東京都,台東区,雷門２丁目７番８号ＮＹＫビル３０２,,13,106,1110034,,,,,,,2023-09-25,1,,,,,ファインジェムズ,0
1836,8010701044873,新規,0,2023-09-25,2023-09-25,住重ウィル株式会社,,株式会社,東京都,品川区,大崎２丁目１番１号,,13,109,1410032,,,,,,,2023-09-25,1,,,,,スミジュウウィル,0
1843,8011001157052,新規,0,2023-09-25,2023-09-25,株式会社什,,株式会社,東京都,目黒区,目黒１丁目２－２０－３０５,,13,110,1530063,,,,,,,2023-09-25,1,,,,,ジュウ,0
1844,8011001157069,新規,0,2023-09-25,2023-09-25,株式会社Ｌｕｍｐ．,,株式会社,東京都,渋谷区,神宮前６丁目２３番４号,,13,113,1500001,,,,,,,2023-09-25,1,,,,,ランプドット,0
1845,8011001157102,新規,0,2023-09-25,2023-09-25,株式会社Ｆｏｃｕｓ,,株式会社,東京都,渋谷区,渋谷１丁目３番１８号ビラモデルナＣ３０２,,13,113,1500002,,,,,,,2023-09-25,1,,,,,フォーカス,0
1846,8011003017568,新規,0,2023-09-25,2023-09-25,合同会社ｍａｒｂｌｅ,,合同会社,東京都,目黒区,下目黒１丁目１番１４号コノトラビル７Ｆ,,13,110,1530064,,,,,,,2023-09-25,1,,,,,マーブル,0
1847,8011003017576,新規,0,2023-09-25,2023-09-25,Ｆｅｉｇｈｔ合同会社,,合同会社,東京都,目黒区,上目黒３丁目４４番２６－３１２号パークホームズ中目黒,,13,110,1530051,,,,,,,2023-09-25,1,,,,,エフエイト,0
1850,8011101104458,新規,0,2023-09-25,2023-09-25,株式会社ＫＯＫＯ　ＪＡＰＡＮ,,株式会社,東京都,新宿区,新宿５丁目１５－１４,,13,104,1600022,,,,,,,2023-09-25,1,,,,,ココジャパン,0
1851,8011103013509,新規,0,2023-09-25,2023-09-25,ホロニックリビジョン合同会社,,合同会社,東京都,新宿区,西新宿３丁目３番１３号西新宿水間ビル２Ｆ,,13,104,1600023,,,,,,,2023-09-25,1,,,,,ホロニックリビジョン,0
1856,8011401025478,新規,0,2023-09-25,2023-09-25,株式会社ｍｋ２,,株式会社,東京都,板橋区,大和町１８番６－３１２号,,13,119,1730012,,,,,,,2023-09-25,1,,,,,エムケイツー,0
1857,8011501029800,新規,0,2023-09-25,2023-09-25,株式会社晴川,,株式会社,東京都,荒川区,町屋３丁目２４番２号面川ビル３０４号室,,13,118,1160001,,,,,,,2023-09-25,1,,,,,ハレカワ,0
1859,8011603004065,新規,0,2023-09-25,2023-09-25,合同会社Ａｉｓｙａ,,合同会社,東京都,練馬区,東大泉６丁目４６－１３今泉ビル１階,,13,120,1780063,,,,,,,2023-09-25,1,,,,,アイシャ,0
1869,8012403006193,新規,0,2023-09-25,2023-09-25,合同会社Ｏｌｉｖｅｒ,,合同会社,東京都,小金井市,前原町４丁目８番地の１３,,13,210,1840013,,,,,,,2023-09-25,1,,,,,オリバー,0
1871,8012801022643,新規,0,2023-09-25,2023-09-25,株式会社リードミー,,株式会社,東京都,立川市,西砂町１丁目７９番地の４４,,13,202,1900034,,,,,,,2023-09-25,1,,,,,リードミー,0
1882,8020001153614,新規,0,2023-09-25,2023-09-25,株式会社ウィズ,,株式会社,神奈川県,横浜市南区,大岡１丁目１５番２０号,,14,105,2320061,,,,,,,2023-09-25,1,,,,,ウィズ,0
1897,8030001156120,新規,0,2023-09-25,2023-09-25,株式会社８４ＣＲＥＡＴＩＯＮＳ,,株式会社,埼玉県,草加市,八幡町６７５番地６ブルーメ新田２０３号,,11,221,3400006,,,,,,,2023-09-25,1,,,,,ハチヨンクリエイションズ,0
1898,8030001156145,新規,0,2023-09-25,2023-09-25,株式会社ｒｅｓｏｕｒｃｅ　ｃｏｎｎｅｃｔｉｏｎ,,株式会社,埼玉県,川口市,青木１丁目５番２８－９０３号,,11,203,3320031,,,,,,,2023-09-25,1,,,,,リソースコネクション,0
1899,8030001156203,新規,0,2023-09-25,2023-09-25,株式会社シャララ,,株式会社,埼玉県,新座市,大和田１丁目２２番５５号,,11,230,3520004,,,,,,,2023-09-25,1,,,,,シャララ,0
1900,8030001156236,新規,0,2023-09-25,2023-09-25,株式会社サンリツ,,株式会社,埼玉県,越谷市,大字恩間新田３８３番地１,,11,222,3430037,,,,,,,2023-09-25,1,,,,,サンリツ,0
1904,8030003022485,新規,0,2023-09-25,2023-09-25,合同会社東山興業,,合同会社,埼玉県,三郷市,鷹野３丁目４７９－１,,11,237,3410035,,,,,,,2023-09-25,1,,,,,ヒガシヤマコウギョウ,0
1905,8030003022493,新規,0,2023-09-25,2023-09-25,合同会社ＭｙＡｓｓｅｔｍｅｎｔ,,合同会社,埼玉県,川越市,大字今福１０３７－６,,11,201,3501151,,,,,,,2023-09-25,1,,,,,マイアセットメント,0
1910,8040001130198,新規,0,2023-09-25,2023-09-25,株式会社ヴィガーティンバー,,株式会社,千葉県,船橋市,高根台７丁目１４番１号,,12,204,2740065,,,,,,,2023-09-25,1,,,,,ヴィガーティンバー,0
1917,8040003023383,新規,0,2023-09-25,2023-09-25,合同会社ＣＯＰＡ,,合同会社,千葉県,茂原市,六ツ野１０５９番地７,,12,210,2970012,,,,,,,2023-09-25,1,,,,,コパ,0
1920,8050003007807,新規,0,2023-09-25,2023-09-25,合同会社イーロ,,合同会社,茨城県,土浦市,東並木町３１７３番地１,,08,203,3000069,,,,,,,2023-09-25,1,,,,,イーロ,0
1930,8070001040898,新規,0,2023-09-25,2023-09-25,株式会社歯堂,,株式会社,群馬県,前橋市,高井町１丁目３２番地９ノーザンコート５号,,10,201,3710857,,,,,,,2023-09-25,1,,,,,シドウ,0
1936,8090003002390,新規,0,2023-09-25,2023-09-25,合同会社スリーピース,,合同会社,山梨県,甲府市,後屋町７３７番地３－２Ｆ,,19,201,4000045,,,,,,,2023-09-25,1,,,,,スリーピース,0
1946,8120001258163,新規,0,2023-09-25,2023-09-25,久日彩化株式会社,,株式会社,大阪府,大阪市住之江区,北加賀屋１丁目９－２コーポ吉野屋２０３号室,,27,125,5590011,,,,,,,2023-09-25,1,,,,,キュウジツサイカ,0
1947,8120001258205,新規,0,2023-09-25,2023-09-25,株式会社山本電気,,株式会社,大阪府,大阪市東淀川区,北江口４丁目８番６号,,27,114,5330002,,,,,,,2023-09-25,1,,,,,ヤマモトデンキ,0
1948,8120001258213,新規,0,2023-09-25,2023-09-25,株式会社Ｒｏｕｇｅｌｅｒ,,株式会社,大阪府,大阪市住之江区,安立４丁目１番４号メゾンＡメッツ２１０,,27,125,5590003,,,,,,,2023-09-25,1,,,,,ルージュラ,0
1949,8120001258246,新規,0,2023-09-25,2023-09-25,株式会社ＦＩＲＳＴ　ＣＬＡＳＳ,,株式会社,大阪府,大阪市北区,中津２丁目５番３３号メゾン中津,,27,127,5310071,,,,,,,2023-09-25,1,,,,,ファーストクラス,0
1950,8120001258304,新規,0,2023-09-25,2023-09-25,株式会社琥珀,,株式会社,大阪府,大阪市東住吉区,田辺３丁目２５番１８号,,27,121,5460031,,,,,,,2023-09-25,1,,,,,コハク,0
1953,8120003024927,新規,0,2023-09-25,2023-09-25,楽根合同会社,,合同会社,大阪府,大阪市東淀川区,東中島１丁目１４番１号シティハイム新大阪７０５号室,,27,114,5330033,,,,,,,2023-09-25,1,,,,,ラクネ,0
1954,8120003024943,新規,0,2023-09-25,2023-09-25,合同会社トラスト建創,,合同会社,大阪府,大阪市淀川区,十八条１丁目１２番７号アネックス東三国２０１号,,27,123,5320001,,,,,,,2023-09-25,1,,,,,トラストケンソウ,0
1955,8120005023893,新規,0,2023-09-25,2023-09-25,一般社団法人生きた建築ミュージアム大阪,,その他の設立登記法人,大阪府,大阪市中央区,道修町３丁目４番１１号新芝川ビル１０５,,27,128,5410045,,,,,,,2023-09-25,1,,,,,イキタケンチクミュージアムオオサカ,0
1959,8120101068256,新規,0,2023-09-25,2023-09-25,株式会社Ｈｉｋ,,株式会社,大阪府,岸和田市,大町３丁目６番２７号,,27,202,5960812,,,,,,,2023-09-25,1,,,,,エイチアイケイ,0
1963,8130001075252,新規,0,2023-09-25,2023-09-25,アップツーデート株式会社,,株式会社,京都府,京都市南区,上鳥羽南戒光町７５番地,,26,107,6018178,,,,,,,2023-09-25,1,,,,,アップツーデート,0
1965,8130003009010,新規,0,2023-09-25,2023-09-25,合同会社Ａ＆Ｃ,,合同会社,京都府,京都市中京区,壬生朱雀町６－１－５１１,,26,104,6048871,,,,,,,2023-09-25,1,,,,,エーアンドシー,0
1968,8140001131715,新規,0,2023-09-25,2023-09-25,株式会社ＳＵＮＮＹ　ＬＯＣＡＴＩＯＮ,,株式会社,兵庫県,神戸市東灘区,向洋町中１丁目１番地１４１号棟３２０号室,,28,101,6580032,,,,,,,2023-09-25,1,,,,,サニーロケーション,0
1969,8140003019578,新規,0,2023-09-25,2023-09-25,聞知合同会社,,合同会社,兵庫県,明石市,松が丘２丁目５番,,28,203,6730862,,,,,,,2023-09-25,1,,,,,ブンチ,0
1984,8180001158151,新規,0,2023-09-25,2023-09-25,株式会社ながくてデザイン,,株式会社,愛知県,名古屋市名東区,よもぎ台１丁目２０３よもぎの郷２０２,,23,115,4650091,,,,,,,2023-09-25,1,,,,,ナガクテデザイン,0
1997,8200001041750,新規,0,2023-09-25,2023-09-25,株式会社ＣＵＢＥ,,株式会社,岐阜県,羽島市,竹鼻町駒塚１９０番地,00132014,21,209,5016234,,,,,,,2023-09-25,1,,,,,キューブ,0
2006,8240001062132,新規,0,2023-09-25,2023-09-25,株式会社大洋,,株式会社,広島県,東広島市,高屋町桧山１１５４番地１２,,34,212,7392105,,,,,,,2023-09-25,1,,,,,タイヨウ,0
2008,8240005015656,新規,0,2023-09-25,2023-09-25,一般社団法人このね,,その他の設立登記法人,広島県,東広島市,西条町上三永６５７番地２,,34,212,7390022,,,,,,,2023-09-25,1,,,,,コノネ,0
2012,8250005008865,新規,0,2023-09-25,2023-09-25,一般社団法人山口県ストリートカルチャー協会,,その他の設立登記法人,山口県,山口市,嘉川４９１３番地３,,35,203,7540897,,,,,,,2023-09-25,1,,,,,ヤマグチケンストリートカルチャーキョウカイ,0
2014,8280001009039,新規,0,2023-09-25,2023-09-25,Ｂａｃ‐Ｔａｃ株式会社,,株式会社,島根県,出雲市,今市町北本町１丁目１－３セントラルビル,,32,203,6930002,,,,,,,2023-09-25,1,,,,,バックタック,0
2017,8290001103121,新規,0,2023-09-25,2023-09-25,株式会社福屋,,株式会社,福岡県,福岡市早良区,野芥４丁目１５番１５号,,40,137,8140171,,,,,,,2023-09-25,1,,,,,フクヤ,0
2018,8290003014390,新規,0,2023-09-25,2023-09-25,合同会社櫻井電設,,合同会社,福岡県,福岡市早良区,荒江２丁目６－８－５０１,,40,137,8140021,,,,,,,2023-09-25,1,,,,,サクライデンセツ,0
2020,8290005019157,新規,0,2023-09-25,2023-09-25,一般社団法人人的資本経営フォーラム九州,,その他の設立登記法人,福岡県,福岡市中央区,今泉１丁目１０番１２号ＩＯＮビル４階,,40,133,8100021,,,,,,,2023-09-25,1,,,,,ジンテキシホンケイエイフォーラムキュウシュウ,0
2021,8290803004491,新規,0,2023-09-25,2023-09-25,合同会社パプア,,合同会社,福岡県,北九州市小倉北区,上到津４丁目１１番６号４階,,40,106,8030845,,,,,,,2023-09-25,1,,,,,パプア,0
2023,8320001020016,新規,0,2023-09-25,2023-09-25,株式会社ＦＡＭ,,株式会社,大分県,大分市,千代町４丁目１番５号堀川ビル１０４号室,,44,201,8700033,,,,,,,2023-09-25,1,,,,,ファム,0
2031,8360001032536,新規,0,2023-09-25,2023-09-25,株式会社一統建設,,株式会社,沖縄県,中頭郡北谷町,伊平２丁目１７番２６号,,47,326,9040102,,,,,,,2023-09-25,1,,,,,イットウケンセツ,0
2032,8360001032593,新規,0,2023-09-25,2023-09-25,アンドミライ株式会社,,株式会社,沖縄県,豊見城市,字豊崎３番地５９－４０２０,,47,212,9010225,,,,,,,2023-09-25,1,,,,,アンドミライ,0
2039,8370001050438,新規,0,2023-09-25,2023-09-25,株式会社ＳＰ,,株式会社,宮城県,栗原市,築館字下宮野中田３２番地１－Ｃ－３,,04,213,9872203,,,,,,,2023-09-25,1,,,,,エスピー,0
2040,8370005010693,新規,0,2023-09-25,2023-09-25,特定非営利活動法人Ｙｏｕｒ　Ｓｍｉｌｅ,,その他の設立登記法人,宮城県,仙台市泉区,黒松１丁目９番２号,,04,105,9818006,,,,,,,2023-09-25,1,,,,,ユアスマイル,0
2052,8430001090007,新規,0,2023-09-25,2023-09-25,株式会社ＹＴホールディングス,,株式会社,北海道,札幌市東区,本町一条６丁目１番１号,,01,103,0650041,,,,,,,2023-09-25,1,,,,,ワイティーホールディングス,0
2053,8430001090023,新規,0,2023-09-25,2023-09-25,株式会社ＭＧＫ,,株式会社,北海道,札幌市豊平区,西岡五条１丁目１１番１２号,,01,105,0620035,,,,,,,2023-09-25,1,,,,,,0
2054,8430001090031,新規,0,2023-09-25,2023-09-25,株式会社かいたい,,株式会社,北海道,札幌市中央区,北十三条西１５丁目６－２１ＮＡＧＩ桑園１０１,,01,101,0600013,,,,,,,2023-09-25,1,,,,,カイタイ,0
2055,8430003015432,新規,0,2023-09-25,2023-09-25,合同会社ＷＥＳＴ１１,,合同会社,北海道,札幌市中央区,南四条西１２丁目１３０４－４－３Ｆ,,01,101,0640804,,,,,,,2023-09-25,1,,,,,ウエストイレブン,0
2056,8430003015465,新規,0,2023-09-25,2023-09-25,Ｍトランスポート合同会社,,合同会社,北海道,札幌市北区,北三十二条西２丁目３番３－２０３号,,01,102,0010032,,,,,,,2023-09-25,1,,,,,エムトランスポート,0
2057,8430005014787,新規,0,2023-09-25,2023-09-25,特定非営利活動法人ポーランド研究会,,その他の設立登記法人,北海道,札幌市西区,西野九条３丁目４番５号,,01,107,0630039,,,,,,,2023-09-25,1,,,,,ポーランドケンキュウカイ,0
2058,8450005004381,新規,0,2023-09-25,2023-09-25,医療法人社団杉山内科クリニック,,その他の設立登記法人,北海道,上川郡東神楽町,ひじり野北一条３丁目１番１号,,01,453,0711521,,,,,,,2023-09-25,1,,,,,スギヤマナイカクリニック,0
2068,8700150120619,新規,0,2023-09-25,2023-09-25,Ｚｈｏｎｇｓｈａｎ　Ａｎｇｅｌｏ　Ｅｌｅｃｔｒｏｎｉｃ　Ｃｏｍｍｅｒｃｅ　Ｃｏ．，Ｌｔｄ,,外国会社等,,,,,,,,ｔａｎｓｈｅｎｂｅｉｌｕ１１８ｈａｏｈｕａｎｇｊｕｅｇｕａｎｇｃｈａｎｇ３ｄｏｎｇ１２２８ｆａｎｇ　ｚｈｏｎｇｓｈａｎｓｈｉ　ｔａｎｚｈｏｕｚｈｅｎ　５２８４６７　ＣＮ,,,,,,2023-09-25,1,,,,,ゾンサンアンジエロイレクトゥロニックコマースカンパニーリミテッド,0
2069,8700150120627,新規,0,2023-09-25,2023-09-25,Ｇｕａｎｇｚｈｏｕｓｈｉｍｉａｏｗａｎｇｕａｎｇｄｉａｎｚｉｓｈａｎｇｗｕｙｏｕｘｉａｎｇｏｎｇｓｉ,,外国会社等,,,,,,,,Ｄａｌｉｓｈａ　Ｒｏａｄ，Ｚｈｕｃｕｎ，Ｔｉａｎｈｅ　Ｄｉｓｔｒｉｃｔ　Ｒｏｏｍ　３０１－２，Ｂｕｉｌｄｉｎｇ　４，Ｎｏ．３８　Ｇｕａｎｇｚｈｏｕ，Ｇｕａｎｇｄｏｎｇ　５１０６３０　ＣＮ,,,,,,2023-09-25,1,,,,,グァンジョウシミァオワングァンディエンズーシャンウヨウシェンゴンスー,0
2070,8700150120643,新規,0,2023-09-25,2023-09-25,Ｓｈｅｎｚｈｅｎ　Ｘｉｎｇｇｅ　Ｉｎｄｕｓｔｒｉａｌ　Ｄｅｓｉｇｎ　Ｃｏ．，Ｌｔｄ．,,外国会社等,,,,,,,,Ｎｏ．４９，Ｌｉｘｉｎｇ　Ｆｅｎｇｄａ　ｉｎｄｕｓｔｒｉａｌ　ｐｌａｎｔ，ｐｌａｎｔ　３０２，Ｌｏｎｇｇａｎｇ　Ｄｉｓｔｒｉｃｔ　Ｂａｎｔｉａｎ　ｓｔｒｅｅｔ，Ｗｕｈｅ　ｃｏｍｍｕｎｉｔｙ　Ｗｕｈｅ　Ａｖｅｎｕｅ，Ｓｈｅｎｚｈｅｎ，Ｇｕａｎｇｄｏｎｇ,,,,,,2023-09-25,1,,,,,シンセンシケイカクコウギョウセッケイユウゲンコウシ,0
2077,9010001238704,新規,0,2023-09-25,2023-09-25,株式会社つばき,,株式会社,東京都,千代田区,神田三崎町２丁目９番６号利久堂ビル１階,,13,101,1010061,,,,,,,2023-09-25,1,,,,,ツバキ,0
2078,9010001238761,新規,0,2023-09-25,2023-09-25,リンクワン株式会社,,株式会社,東京都,千代田区,神田須田町２丁目２５・ＧＹＢ秋葉原５Ｆ,,13,101,1010041,,,,,,,2023-09-25,1,,,,,リンクワン,0
2079,9010003041759,新規,0,2023-09-25,2023-09-25,合同会社東海プロパティ,,合同会社,東京都,千代田区,丸の内３丁目１番１号東京共同会計事務所内,,13,101,1000005,,,,,,,2023-09-25,1,,,,,トウカイプロパティ,0
2081,9010401177386,新規,0,2023-09-25,2023-09-25,株式会社ｔｈｒｅｅ　ｊｏｂｓ,,株式会社,東京都,港区,南青山２丁目２番１５号,,13,103,1070062,,,,,,,2023-09-25,1,,,,,スリージョブズ,0
2082,9010401177411,新規,0,2023-09-25,2023-09-25,Ｂｕｓｙ　Ｐｌａｎｎｉｎｇ株式会社,,株式会社,東京都,港区,南麻布４丁目１４番２号,,13,103,1060047,,,,,,,2023-09-25,1,,,,,ビジープランニング,0
2091,9010601063832,新規,0,2023-09-25,2023-09-25,株式会社ＫＹＴＥ,,株式会社,東京都,江東区,北砂１丁目１９－２３－２０１,,13,108,1360073,,,,,,,2023-09-25,1,,,,,カイト,0
2101,9010903008460,新規,0,2023-09-25,2023-09-25,合同会社煌楓,,合同会社,東京都,世田谷区,玉堤１丁目２２番１９－４０１号,,13,112,1580087,,,,,,,2023-09-25,1,,,,,コウカ,0
2105,9011001157126,新規,0,2023-09-25,2023-09-25,株式会社Ｐｉｃｋｕｐ　Ｄｏｃｔｏｒ,,株式会社,東京都,目黒区,東山２丁目２番５－９０４号,,13,110,1530043,,,,,,,2023-09-25,1,,,,,ピックアップドクター,0
2106,9011001157142,新規,0,2023-09-25,2023-09-25,東京自動車学校株式会社,,株式会社,東京都,渋谷区,代官山町８番７号Ｄａｉｗａ代官山ビル,,13,113,1500034,,,,,,,2023-09-25,1,,,,,トウキョウジドウシャガッコウ,0
2111,9011101104457,新規,0,2023-09-25,2023-09-25,ＵＮＩＫＩＮＧ株式会社,,株式会社,東京都,新宿区,新宿２丁目１２番１号,,13,104,1600022,,,,,,,2023-09-25,1,,,,,ユニキング,0
2112,9011101104481,新規,0,2023-09-25,2023-09-25,株式会社ＡＴＥＬＩＥＲ,,株式会社,東京都,新宿区,歌舞伎町１丁目１６番２号富士ビルディングＢＦ１．ＢＦ２,,13,104,1600021,,,,,,,2023-09-25,1,,,,,アトリエ,0
2115,9011103013508,新規,0,2023-09-25,2023-09-25,合同会社ＫＩＲＡ,,合同会社,東京都,新宿区,百人町２丁目６番７号,,13,104,1690073,,,,,,,2023-09-25,1,,,,,キラ,0
2117,9011201024935,新規,0,2023-09-25,2023-09-25,株式会社Ｇｌａｍ,,株式会社,東京都,中野区,上高田５丁目３７番１号リビラガーデン１０２,,13,114,1640002,,,,,,,2023-09-25,1,,,,,グラム,0
2124,9011403004124,新規,0,2023-09-25,2023-09-25,ＭａｔｈＴｅｃｈ　Ｓｏｌｕｔｉｏｎｓ合同会社,,合同会社,東京都,板橋区,向原１丁目１８番１３－３０４号スカイフラッツ向陽草,,13,119,1730036,,,,,,,2023-09-25,1,,,,,マステックソリューションズ,0
2127,9011501029799,新規,0,2023-09-25,2023-09-25,中輝株式会社,,株式会社,東京都,荒川区,西日暮里６丁目５２番５号西日暮里ＳＥＡビルａ４０１,,13,118,1160013,,,,,,,2023-09-25,1,,,,,チュウキ,0
2131,9011601027141,新規,0,2023-09-25,2023-09-25,株式会社ラール,,株式会社,東京都,練馬区,田柄３丁目１７番７号,,13,120,1790073,,,,,,,2023-09-25,1,,,,,ラール,0
2135,9011801043070,新規,0,2023-09-25,2023-09-25,株式会社ＰＥＲＥ,,株式会社,東京都,足立区,竹の塚３丁目１４－６,,13,121,1210813,,,,,,,2023-09-25,1,,,,,ペレ,0
2137,9012401041035,新規,0,2023-09-25,2023-09-25,株式会社Ｅ　Ｆｏｒｃｅ　Ｔｅｃ,,株式会社,東京都,武蔵野市,吉祥寺本町１丁目１３－２、５Ｆ,,13,203,1800004,,,,,,,2023-09-25,1,,,,,イーフォーステック,0
2140,9012403006192,新規,0,2023-09-25,2023-09-25,合同会社ＷＡＯ,,合同会社,東京都,調布市,深大寺北町６丁目３５番地３０,,13,208,1820011,,,,,,,2023-09-25,1,,,,,ワオ,0
2148,9020001153588,新規,0,2023-09-25,2023-09-25,株式会社ハルク,,株式会社,神奈川県,横浜市西区,南浅間町３２番地１４,,14,103,2200074,,,,,,,2023-09-25,1,,,,,ハルク,0
2155,9020003024639,新規,0,2023-09-25,2023-09-25,ｂｌｏｃｋｓｋｙ合同会社,,合同会社,神奈川県,横浜市中区,山下町９１－９１５,,14,104,2310023,,,,,,,2023-09-25,1,,,,,ブロックスカイ,0
2157,9021001080260,新規,0,2023-09-25,2023-09-25,株式会社ＩＭＳ,,株式会社,神奈川県,座間市,栗原１７６３番地の１２,,14,216,2520013,,,,,,,2023-09-25,1,,,,,,0
2167,9030001155963,新規,0,2023-09-25,2023-09-25,ＴＫＳコンサルティング株式会社,,株式会社,埼玉県,川口市,戸塚２丁目２６番９号ベル・マルシェ２０３,,11,203,3330811,,,,,,,2023-09-25,1,,,,,ティケーエスコンサルティング,0
2168,9030001156144,新規,0,2023-09-25,2023-09-25,株式会社ＹＴＫ,,株式会社,埼玉県,草加市,両新田東町９６番地２サンモール１０１号,,11,221,3400026,,,,,,,2023-09-25,1,,,,,ワイティーケイ,0
2169,9030001156227,新規,0,2023-09-25,2023-09-25,株式会社ダークハニー,,株式会社,埼玉県,東松山市,大字西本宿２８５－４,,11,212,3550062,,,,,,,2023-09-25,1,,,,,ダークハニー,0
2172,9030003022575,新規,0,2023-09-25,2023-09-25,まるふく建材合同会社,,合同会社,埼玉県,熊谷市,玉井３０６番地８,,11,202,3600853,,,,,,,2023-09-25,1,,,,,マルフクケンザイ,0
2173,9030003022617,新規,0,2023-09-25,2023-09-25,合同会社トモダチ,,合同会社,埼玉県,川口市,安行出羽４丁目１７番１１号中山マンション弐番館１０３号,,11,203,3340052,,,,,,,2023-09-25,1,,,,,トモダチ,0
2176,9040003023408,新規,0,2023-09-25,2023-09-25,ｅＦＸ倶楽部合同会社,,合同会社,千葉県,東金市,八坂台５丁目２９―６,,12,213,2830801,,,,,,,2023-09-25,1,,,,,イーエフエックスクラブ,0
2178,9040005022127,新規,0,2023-09-25,2023-09-25,特定非営利活動法人千葉県防災士会,,その他の設立登記法人,千葉県,市川市,東菅野３丁目２１番５号,,12,203,2720823,,,,,,,2023-09-25,1,,,,,チバケンボウサイシカイ,0
2180,9050001053521,新規,0,2023-09-25,2023-09-25,ＦＵＪＩネットワークソリューションズ株式会社,,株式会社,茨城県,守谷市,松ケ丘２丁目１０番地６,,08,224,3020127,,,,,,,2023-09-25,1,,,,,フジネットワークソリューションズ,0
2195,9080001025872,新規,0,2023-09-25,2023-09-25,株式会社サクライウッド,,株式会社,静岡県,静岡市葵区,唐瀬１丁目１６番２５号－６０３号,,22,101,4200937,,,,,,,2023-09-25,1,,,,,サクライウッド,0
2201,9090001018330,新規,0,2023-09-25,2023-09-25,株式会社ｋｌｉｋｅｓ,,株式会社,山梨県,甲斐市,篠原１８９９番地６,,19,210,4000115,,,,,,,2023-09-25,1,,,,,クライクス,0
2202,9090001018339,新規,0,2023-09-25,2023-09-25,株式会社ペンタス,,株式会社,山梨県,中巨摩郡昭和町,西条２６４５番地１ラインハイトＩＩ１０５号室,00132022,19,384,4093866,,,,,,,2023-09-25,1,,,,,ペンタス,0
2218,9120001258187,新規,0,2023-09-25,2023-09-25,酷特智能日本株式会社,,株式会社,大阪府,大阪市住之江区,安立２丁目１０番１４号三坂ビル３０３号室,,27,125,5590003,,,,,,,2023-09-25,1,,,,,コクトクチノウニホン,0
2219,9120001258204,新規,0,2023-09-25,2023-09-25,株式会社Ｉｎｉｚｉｏ,,株式会社,大阪府,大阪市福島区,海老江１丁目１０番１号,,27,103,5530001,,,,,,,2023-09-25,1,,,,,イニジオ,0
2220,9120001258237,新規,0,2023-09-25,2023-09-25,ＳＯＳ株式会社,,株式会社,大阪府,大阪市浪速区,浪速東１丁目９番２５号富士林プラザ１５番館１１０１号,,27,111,5560025,,,,,,,2023-09-25,1,,,,,エスオーエス,0
2221,9120001258278,新規,0,2023-09-25,2023-09-25,株式会社ライズ,,株式会社,大阪府,大阪市北区,梅田１丁目２番２号大阪駅前第２ビル１２－１２,,27,127,5300001,,,,,,,2023-09-25,1,,,,,ライズ,0
2222,9120003024942,新規,0,2023-09-25,2023-09-25,合同会社Ｋ＆Ｈ熊取,,合同会社,大阪府,大阪市中央区,平野町２丁目２－８－５Ｆ－Ｂ,,27,128,5410046,,,,,,,2023-09-25,1,,,,,ケーアンドエイチクマトリ,0
2223,9120003024975,新規,0,2023-09-25,2023-09-25,合同会社あおいほし,,合同会社,大阪府,大阪市福島区,吉野１丁目２番２２－６０１号,,27,103,5530006,,,,,,,2023-09-25,1,,,,,アオイホシ,0
2226,9120005023892,新規,0,2023-09-25,2023-09-25,一般社団法人共挑,,その他の設立登記法人,大阪府,大阪市天王寺区,筆ケ崎町５番３８－１１０７号,,27,109,5430027,,,,,,,2023-09-25,1,,,,,キョウチョウ,0
2227,9120103005446,新規,0,2023-09-25,2023-09-25,合同会社一,,合同会社,大阪府,富田林市,甲田６丁目６番２９号２０８,,27,214,5840036,,,,,,,2023-09-25,1,,,,,ハジメ,0
2229,9120903004812,新規,0,2023-09-25,2023-09-25,合同会社ホヌプロジェクト,,合同会社,大阪府,高槻市,栄町２丁目２８番３号,,27,207,5690825,,,,,,,2023-09-25,1,,,,,ホヌプロジェクト,0
2230,9122001037397,新規,0,2023-09-25,2023-09-25,株式会社島田サービス,,株式会社,大阪府,東大阪市,友井５丁目５－２光陽苑３Ａ,,27,227,5770816,,,,,,,2023-09-25,1,,,,,シマダサービス,0
2242,9140001131706,新規,0,2023-09-25,2023-09-25,株式会社大塚組,,株式会社,兵庫県,尼崎市,金楽寺町２丁目１１番１号パークハイム金楽寺２０２,,28,202,6600806,,,,,,,2023-09-25,1,,,,,オオツカグミ,0
2243,9140001131714,新規,0,2023-09-25,2023-09-25,株式会社ＭＡＫＥＬＥＳＳ,,株式会社,兵庫県,明石市,二見町東二見１７３４番地,,28,203,6740092,,,,,,,2023-09-25,1,,,,,メイクレス,0
2255,9180001158118,新規,0,2023-09-25,2023-09-25,ライフシエンス株式会社,,株式会社,愛知県,名古屋市千種区,希望ケ丘３丁目１１番５号,,23,101,4640016,,,,,,,2023-09-25,1,,,,,ライフシエンス,0
2256,9180001158134,新規,0,2023-09-25,2023-09-25,株式会社今村運送,,株式会社,愛知県,瀬戸市,内田町１丁目３６０番地の１,,23,204,4890902,,,,,,,2023-09-25,1,,,,,イマムラウンソウ,0
2257,9180001158159,新規,0,2023-09-25,2023-09-25,Ｊｅｌｌｙｆｉｓｈ株式会社,,株式会社,愛知県,名古屋市名東区,香坂５０１番地香坂ビル２階北,,23,115,4650007,,,,,,,2023-09-25,1,,,,,ジェリーフィッシュ,0
2266,9230001020016,新規,0,2023-09-25,2023-09-25,ＮａｋａｎｏＣｏｍｐａｎｙ株式会社,,株式会社,富山県,滑川市,沖田新２－１,,16,206,9360851,,,,,,,2023-09-25,1,,,,,ナカノカンパニー,0
2276,9260001038336,新規,0,2023-09-25,2023-09-25,フィギュアヘッド株式会社,,株式会社,岡山県,岡山市中区,竹田２９３番地１５,,33,102,7038251,,,,,,,2023-09-25,1,,,,,フィギュアヘッド,0
2282,9290001103095,新規,0,2023-09-25,2023-09-25,株式会社Ｂｅｙｏｎｄ　ｔｈｅ　Ｗａｖｅｓ,,株式会社,福岡県,福岡市南区,多賀２丁目３番６４３号,,40,134,8150072,,,,,,,2023-09-25,1,,,,,ビヨンドザウエイブス,0
2283,9290001103137,新規,0,2023-09-25,2023-09-25,株式会社坂田総建,,株式会社,福岡県,柳川市,大和町鷹ノ尾１０５９番地１,,40,207,8390253,,,,,,,2023-09-25,1,,,,,サカタソウケン,0
2285,9290003014381,新規,0,2023-09-25,2023-09-25,Ｕ＆Ａｓｓｏｃｉａｔｅｓ合同会社,,合同会社,福岡県,朝倉郡筑前町,依井５０３番地５,,40,447,8380813,,,,,,,2023-09-25,1,,,,,ユーアンドアソシエイツ,0
2287,9290005019156,新規,0,2023-09-25,2023-09-25,一般社団法人予防医学リンパ協会,,その他の設立登記法人,福岡県,福岡市中央区,警固１丁目１番１９－４０３号,,40,133,8100023,,,,,,,2023-09-25,1,,,,,ヨボウイガクリンパキョウカイ,0
2288,9330003009988,新規,0,2023-09-25,2023-09-25,合同会社阿蘇南部ファクトリー,,合同会社,熊本県,菊池郡大津町,大字大林１４２１,,43,403,8691219,,,,,,,2023-09-25,1,,,,,アソナンブファクトリー,0
2289,9340001025920,新規,0,2023-09-25,2023-09-25,株式会社よかどみらい,,株式会社,鹿児島県,鹿児島市,下福元町１１０９６番地１,,46,201,8910144,,,,,,,2023-09-25,1,,,,,ヨカドミライ,0
2291,9350001018576,新規,0,2023-09-25,2023-09-25,土持ホールディングス株式会社,,株式会社,宮崎県,都城市,五十町１４１０番地１,,45,202,8850084,,,,,,,2023-09-25,1,,,,,ツチモチホールディングス,0
2299,9360001032592,新規,0,2023-09-25,2023-09-25,株式会社エープラスホーム,,株式会社,沖縄県,宜野湾市,字我如古３７２番地,,47,205,9012214,,,,,,,2023-09-25,1,,,,,エープラスホーム,0
2302,9360003013319,新規,0,2023-09-25,2023-09-25,ＩＲＩＳ合同会社,,合同会社,沖縄県,中頭郡中城村,字南上原２０８番地１Ｆ,,47,328,9012424,,,,,,,2023-09-25,1,,,,,イーリス,0
2305,9370001050437,新規,0,2023-09-25,2023-09-25,株式会社ＨＤ,,株式会社,宮城県,仙台市泉区,寺岡６丁目９番地の２０,,04,105,9813204,,,,,,,2023-09-25,1,,,,,エイチディー,0
2312,9420001018412,新規,0,2023-09-25,2023-09-25,株式会社ＺＥＲＯ,,株式会社,青森県,青森市,大字三内字丸山６３番地１７ハイツ・ルピナスＣ―１０１,,02,201,0380031,,,,,,,2023-09-25,1,,,,,ゼロ,0
2318,9430001090030,新規,0,2023-09-25,2023-09-25,ＪＷＰ株式会社,,株式会社,北海道,札幌市中央区,南二十一条西１０丁目１－２７　３Ｆ,,01,101,0640921,,,,,,,2023-09-25,1,,,,,ジェイダブリューピー,0
2323,9430003015464,新規,0,2023-09-25,2023-09-25,合同会社食事処橙,,合同会社,北海道,札幌市中央区,南十八条西１４丁目３番１６－２０２号,,01,101,0640918,,,,,,,2023-09-25,1,,,,,ショクジドコロオレンジ,0
2324,9430005014786,新規,0,2023-09-25,2023-09-25,医療法人社団川沿歯科医院,,その他の設立登記法人,北海道,苫小牧市,川沿町５丁目１３番２０号,,01,213,0530822,,,,,,,2023-09-25,1,,,,,カワゾエシカイイン,0
2325,9440001009327,新規,0,2023-09-25,2023-09-25,フロンティア株式会社,,株式会社,北海道,函館市,港町２丁目９番１０－１号,,01,202,0410821,,,,,,,2023-09-25,1,,,,,フロンティア,0
2327,9470001019827,新規,0,2023-09-25,2023-09-25,株式会社協同建設,,株式会社,香川県,高松市,福岡町４丁目１６番１４号,,37,201,7600066,,,,,,,2023-09-25,1,,,,,キョウドウケンセツ,0
2331,9700150120618,新規,0,2023-09-25,2023-09-25,Ｚｈｅｊｉａｎｇ　Ａｉｋｅ　Ａｐｐｌｉａｎｃｅｓ　Ｃｏ．，Ｌｔｄ．,,外国会社等,,,,,,,,Ｘｉａｎｊｕ　Ｙｏｎｇａｎ　Ｉｎｄｕｓｔｒｉａｌ　Ｚｏｎｅ　Ｔａｉｚｈｏｕ　Ｚｈｅｊｉａｎｇ　３１７３００　ＣＮ,,,,,,2023-09-25,1,,,,,セッコウアイケアプライアンシズカンパニーリミテッド,0
2332,9700150120626,新規,0,2023-09-25,2023-09-25,ｚｈｅｎｇｚｈｏｕ　ｚｈａｏｚｕｏ　ｓｈａｎｇｍａｏ　ｙｏｕｘｉａｎｇｏｎｇｓｉ,,外国会社等,,,,,,,,ｈｅｎａｎｓｈｅｎｇ　ｚｈｅｎｇｚｈｏｕｓｈｉ　ｇｕａｎｃｈｅｎｇｈｕｉｚｕｑｕ　ｚｈｅｎｇｂｉａｎｌｕ　７６ｈａｏ　Ｉｖｄｕｇｕａｎｇｃｈａｎｇ　Ｂ　ｚｕｏ　２４０２ｓｈｉ　４５００００　ＣＮ,,,,,,2023-09-25,1,,,,,テイシュウザオズオシャンマオヨウシェンゴンスー,0
2333,9700150120642,新規,0,2023-09-25,2023-09-25,Ｇｕａｎｇｚｈｏｕ　ｘｉｔｕｏｃｉ　Ｅ－ｃｏｍｍｅｒｃｅ　Ｌｔｄ,,外国会社等,,,,,,,,Ｒｏｏｍ　５０２，Ｎｏ．１　Ｙｉｈｅｎｇ　Ｓｔｒｅｅｔ，Ｒｕｉｂａｏ　Ｒｕｉｘｉｎｇ　Ｓｔｒｅｅｔ，Ｈａｉｚｈｕ，Ｄｉｓｔｒｉｃｔ，ｇｕａｎｇｚｈｏｕ，ｇｕａｎｇｄｏｎｇ,,,,,,2023-09-25,1,,,,,コウシュウキタクシデンシショウムユウゲンコウシ,0
2334,9700150120709,新規,0,2023-09-25,2023-09-25,ｆｕｚｈｏｕ　ｈｕａｘｉｎ　ｋｅｊｉ　ｙｏｕｘｉａｎ　ｇｏｎｇｓｉ,,外国会社等,,,,,,,,ｆｕｊｉａｎｓｈｅｎｇｆｕｚｈｏｕｓｈｉｇｕｌｏｕｑｕｈｏｎｇｓｈａｎｚｈｅｎｆｕｓａｎｌｕ２０ｈａｏ（ｙｕａｎｇｏｎｇｙｅｌｕｄｏｎｇｃｅ，ｆｕｓａｎｌｕｂｅｉｃｅｈｏｎｇｓｈａｎｙｕａｎｄｉｋｕａｉ）ｈｕａｒｕｎｗａｎｘｉａｎｇｃｈｅｎｇ（ｙｉｑｕ）（ｙｉｑｉ）Ｓ７＃ｌｏｕ１７ｃｅｎｇ０１ｂａｎｇｏｎｇ　３５０００１　ＣＮ,,,,,,2023-09-25,1,,,,,フクシュウフアシンカギヨウシェンゴンスー,0
