sequenceNumber,corporateNumber,process,correct,updateDate,changeDate,name,nameImageId,kind,prefectureName,cityName,streetNumber,addressImageId,prefectureCode,cityCode,postCode,addressOutside,addressOutsideImageId,closeDate,closeCause,successorCorporateNumber,changeCause,assignmentDate,latest,enName,enPrefectureName,enCityName,enAddressOutside,furigana,hihyoji
8,1010001229891,新規,0,2022-10-05,2022-10-05,株式会社ＳＩＧＮＥＴ,,株式会社,東京都,千代田区,麹町５丁目３番地麹町秋山ビルディング７階,,13,101,1020083,,,,,,,2022-10-05,1,,,,,シグネット,0
9,1010001229966,新規,0,2022-10-05,2022-10-05,イーストクリエイティブ株式会社,,株式会社,東京都,中央区,銀座１丁目１２番４号Ｎ＆ＥＢＬＤ．７階,,13,102,1040061,,,,,,,2022-10-05,1,,,,,イーストクリエイティブ,0
15,1010003038787,新規,0,2022-10-05,2022-10-05,嘉志合同会社,,合同会社,東京都,千代田区,飯田橋２丁目１６－４九段下コート２Ｆ－２０５号室,,13,101,1020072,,,,,,,2022-10-05,1,,,,,カシ,0
22,1010401170010,新規,0,2022-10-05,2022-10-05,株式会社ＫＥＴＡ,,株式会社,東京都,港区,芝浦４丁目８番１２－１１０６号,,13,103,1080023,,,,,,,2022-10-05,1,,,,,ケタ,0
23,1010401170035,新規,0,2022-10-05,2022-10-05,株式会社ホットスプリング,,株式会社,東京都,港区,元麻布１丁目２番１２－６０１号,,13,103,1060046,,,,,,,2022-10-05,1,,,,,ホットスプリング,0
31,1010603009758,新規,0,2022-10-05,2022-10-05,潮見街づくり開発２号合同会社,,合同会社,東京都,江東区,潮見２丁目３番９号,,13,108,1350052,,,,,,,2022-10-05,1,,,,,シオミマチヅクリカイハツニゴウ,0
33,1010703006408,新規,0,2022-10-05,2022-10-05,合同会社エレガントハウス,,合同会社,東京都,品川区,大崎３丁目５番２号エステージ大崎６階,,13,109,1410032,,,,,,,2022-10-05,1,,,,,エレガントハウス,0
37,1010903007692,新規,0,2022-10-05,2022-10-05,弥生合同会社,,合同会社,東京都,世田谷区,若林１丁目１番２４号サンチャパロスバルデス１０３,,13,112,1540023,,,,,,,2022-10-05,1,,,,,ヤヨイ,0
41,1011001150055,新規,0,2022-10-05,2022-10-05,株式会社喜喜企画,,株式会社,東京都,目黒区,下目黒２丁目２１番２０－Ｓ８０７号,,13,110,1530064,,,,,,,2022-10-05,1,,,,,ヘイヘイキカク,0
45,1011101100364,新規,0,2022-10-05,2022-10-05,株式会社Ｉｓｅｋａｉ,,株式会社,東京都,新宿区,百人町２丁目８番１５号ダヴィンチ北新宿５階,,13,104,1690073,,,,,,,2022-10-05,1,,,,,イセカイ,0
46,1011101100380,新規,0,2022-10-05,2022-10-05,ＭＡＲＬＥ　ＩＮＦＩＮＩＴ株式会社,,株式会社,東京都,新宿区,北新宿１丁目２４番１１号ＢＬＥＳＳ北新宿５０８０号,,13,104,1690074,,,,,,,2022-10-05,1,,,,,マールインフィニット,0
47,1011101100389,新規,0,2022-10-05,2022-10-05,株式会社エイジェック人事サービス,,株式会社,東京都,新宿区,西新宿１丁目２５番１号新宿センタービル４６階,,13,104,1600023,,,,,,,2022-10-05,1,,,,,エイジェックジンジサービス,0
48,1011103012228,新規,0,2022-10-05,2022-10-05,合同会社ＩＲＳ１,,合同会社,東京都,新宿区,四谷２丁目９番地１５東京ユナイテッド綜合事務所内,,13,104,1600004,,,,,,,2022-10-05,1,,,,,アイアールエスワン,0
50,1011303004537,新規,0,2022-10-05,2022-10-05,ＭＫＫ合同会社,,合同会社,東京都,杉並区,南荻窪３丁目２９番２３号,,13,115,1670052,,,,,,,2022-10-05,1,,,,,エムケイケイ,0
55,1011403003785,新規,0,2022-10-05,2022-10-05,ＰｒｏＸ合同会社,,合同会社,東京都,板橋区,蓮根２丁目２７番１２号板橋西台オフィス３Ｆー０８,,13,119,1740046,,,,,,,2022-10-05,1,,,,,プロックス,0
61,1011505002504,新規,0,2022-10-05,2022-10-05,行政書士法人兆豊,,その他の設立登記法人,東京都,北区,浮間１丁目７番２３号兆豊浮間ビル,,13,117,1150051,,,,,,,2022-10-05,1,,,,,チョウホウ,0
63,1011601026282,新規,0,2022-10-05,2022-10-05,株式会社フラワリ,,株式会社,東京都,練馬区,桜台３丁目７－１３－２０３,,13,120,1760002,,,,,,,2022-10-05,1,,,,,フラワリ,0
71,1012401039714,新規,0,2022-10-05,2022-10-05,株式会社ｂｒｉｄｇｅ,,株式会社,東京都,府中市,本町１丁目２番地の１第二海老澤ビル,,13,206,1830027,,,,,,,2022-10-05,1,,,,,ブリッジ,0
76,1012803002897,新規,0,2022-10-05,2022-10-05,ＪＥＳＨＡＮ合同会社,,合同会社,東京都,東大和市,南街２丁目４８番地の１小野ビル３０１号,,13,220,2070014,,,,,,,2022-10-05,1,,,,,ジェシャン,0
83,1013301049753,新規,0,2022-10-05,2022-10-05,株式会社ＡＲＫ,,株式会社,東京都,豊島区,池袋２丁目４４番２号,,13,116,1710014,,,,,,,2022-10-05,1,,,,,エーアールケー,0
84,1013301049761,新規,0,2022-10-05,2022-10-05,株式会社３００,,株式会社,東京都,豊島区,池袋２丁目１７番８号天翔池袋西口ＡＮＮＥＸビル２０３－Ａ,,13,116,1710014,,,,,,,2022-10-05,1,,,,,サンビャク,0
86,1013303006323,新規,0,2022-10-05,2022-10-05,ＳＴアドバイザリー合同会社,,合同会社,東京都,豊島区,南池袋２丁目１８番９号マ・シャンブル南池袋８０３,,13,116,1710022,,,,,,,2022-10-05,1,,,,,エスティアドバイザリー,0
98,1020001148389,新規,0,2022-10-05,2022-10-05,フォーユーリフォーム株式会社,,株式会社,神奈川県,横浜市緑区,十日市場町８７４番地２－２０３号,,14,113,2260025,,,,,,,2022-10-05,1,,,,,フォーユーリフォーム,0
100,1020003022476,新規,0,2022-10-05,2022-10-05,合同会社ナムタイ,,合同会社,神奈川県,横浜市緑区,霧が丘１丁目２７番地５霧ケ丘ハイム２０２号,,14,113,2260016,,,,,,,2022-10-05,1,,,,,ナムタイ,0
101,1020003022501,新規,0,2022-10-05,2022-10-05,合同会社ｒｉｔａ．,,合同会社,神奈川県,川崎市川崎区,砂子２丁目５番地７山鉄ビル１階,,14,131,2100006,,,,,,,2022-10-05,1,,,,,リタ,0
108,1021003012203,新規,0,2022-10-05,2022-10-05,Ｒ’ｓマネジメント合同会社,,合同会社,神奈川県,愛甲郡愛川町,中津３６０９番地の３,,14,401,2430303,,,,,,,2022-10-05,1,,,,,アールズマネジメント,0
109,1021003012228,新規,0,2022-10-05,2022-10-05,Ｇｏｎｔｅｎｔｓ合同会社,,合同会社,神奈川県,鎌倉市,長谷２丁目１番３号,,14,204,2480016,,,,,,,2022-10-05,1,,,,,ゴンテンツ,0
114,1030001150360,新規,0,2022-10-05,2022-10-05,ＨＩＭＣＨＵＬＩ株式会社,,株式会社,埼玉県,ふじみ野市,大原１丁目５番６号２階,,11,245,3560003,,,,,,,2022-10-05,1,,,,,ヒムツリ,0
115,1030001150369,新規,0,2022-10-05,2022-10-05,株式会社ＥＶＡ　ＥＳＳＥＮＣＥ,,株式会社,埼玉県,鶴ヶ島市,大字藤金８４５番地４コモド若葉１Ｆ,,11,241,3502206,,,,,,,2022-10-05,1,,,,,エヴァエッセンス,0
116,1030001150377,新規,0,2022-10-05,2022-10-05,株式会社オフィスＫＩＧ,,株式会社,埼玉県,さいたま市浦和区,仲町４丁目２４番１２号,,11,107,3300062,,,,,,,2022-10-05,1,,,,,オフィスケイアイジー,0
119,1030003020314,新規,0,2022-10-05,2022-10-05,合同会社彩建,,合同会社,埼玉県,川口市,大字木曽呂４７２番地の７,,11,203,3330831,,,,,,,2022-10-05,1,,,,,サイケン,0
120,1030003020322,新規,0,2022-10-05,2022-10-05,合同会社ＭＡＨＡＬＯ,,合同会社,埼玉県,草加市,吉町３丁目５番２４号,,11,221,3400017,,,,,,,2022-10-05,1,,,,,マハロ,0
121,1030005020997,新規,0,2022-10-05,2022-10-05,特定非営利活動法人終活安心ネットワーク,,その他の設立登記法人,埼玉県,川越市,大字鯨井１１１７番地７,,11,201,3500815,,,,,,,2022-10-05,1,,,,,シュウカツアンシンネットワーク,0
127,1040001125262,新規,0,2022-10-05,2022-10-05,ＳＣＩＸ株式会社,,株式会社,千葉県,いすみ市,岬町和泉３５０３番地２７,,12,238,2994503,,,,,,,2022-10-05,1,,,,,シックス,0
128,1040001125287,新規,0,2022-10-05,2022-10-05,株式会社南くる,,株式会社,千葉県,山武市,松ヶ谷イ１０２９番地１,,12,237,2891303,,,,,,,2022-10-05,1,,,,,ナンクル,0
129,1040001125295,新規,0,2022-10-05,2022-10-05,ＴＡＫＡＲＡ　ＰＯＷＥＲ株式会社,,株式会社,千葉県,千葉市中央区,栄町１０－２九重ビル,,12,101,2600016,,,,,,,2022-10-05,1,,,,,タカラパワー,0
130,1040001125304,新規,0,2022-10-05,2022-10-05,株式会社ｏｒｃｈｅｓｔｒａ,,株式会社,千葉県,柏市,中央町６番２号ｖｉｂｅｓＢＬＤＧ２階,,12,217,2770021,,,,,,,2022-10-05,1,,,,,オーケストラ,0
131,1040001125320,新規,0,2022-10-05,2022-10-05,株式会社アナグマデザイン,,株式会社,千葉県,千葉市若葉区,高品町２５０番地１,,12,104,2640024,,,,,,,2022-10-05,1,,,,,アナグマデザイン,0
137,1040003020957,新規,0,2022-10-05,2022-10-05,ＡＣ国際合同会社,,合同会社,千葉県,習志野市,鷺沼１丁目３番９号三橋ハウス２階,,12,216,2750014,,,,,,,2022-10-05,1,,,,,エーシーコクサイ,0
144,1060001035311,新規,0,2022-10-05,2022-10-05,株式会社ＲＫ　ＴＲＡＤＩＮＧ,,株式会社,栃木県,小山市,大字大行寺１１４８番地１５モンパレス１号館１０２号室,,09,208,3230041,,,,,,,2022-10-05,1,,,,,アルケトレーディング,0
155,1080001025228,新規,0,2022-10-05,2022-10-05,株式会社不動産みどり,,株式会社,静岡県,静岡市駿河区,池田２７６番地の２望月ビル１Ｆ,,22,102,4228005,,,,,,,2022-10-05,1,,,,,フドウサンミドリ,0
156,1080003002877,新規,0,2022-10-05,2022-10-05,合同会社ＩＳＴ経営コンサルティング,,合同会社,静岡県,静岡市葵区,川合２丁目１８番４５号,,22,101,4200923,,,,,,,2022-10-05,1,,,,,アイエスティケイエイコンサルティング,0
158,1080101023552,新規,0,2022-10-05,2022-10-05,株式会社日香理建築,,株式会社,静岡県,沼津市,大平２２６３番地の２,,22,203,4100821,,,,,,,2022-10-05,1,,,,,ヒカリケンチク,0
164,1090005007519,新規,0,2022-10-05,2022-10-05,医療法人ＪＫメディカルジャパン,,その他の設立登記法人,山梨県,甲府市,丸の内２丁目１６番５号,,19,201,4000031,,,,,,,2022-10-05,1,,,,,ジェイケイメディカルジャパン,0
167,1100001035744,新規,0,2022-10-05,2022-10-05,株式会社ＷｏｏｄＣｏｏｋ,,株式会社,長野県,下伊那郡豊丘村,大字神稲６７１６番地１,,20,416,3993202,,,,,,,2022-10-05,1,,,,,ウッドクック,0
168,1100001035752,新規,0,2022-10-05,2022-10-05,安曇野トレーニングセンター株式会社,,株式会社,長野県,安曇野市,明科七貴８４０６番地,,20,220,3997104,,,,,,,2022-10-05,1,,,,,アズミノトレーニングセンター,0
171,1110001036997,新規,0,2022-10-05,2022-10-05,株式会社Ｌｅａｐ,,株式会社,新潟県,刈羽郡刈羽村,大字赤田北方２８４７番地,,15,504,9450325,,,,,,,2022-10-05,1,,,,,リープ,0
173,1110005016863,新規,0,2022-10-05,2022-10-05,阿賀マッチワーク協同組合,,その他の設立登記法人,新潟県,東蒲原郡阿賀町,石間４３０１番地,,15,385,9594636,,,,,,,2022-10-05,1,,,,,アガマッチワーク,0
196,1120001249284,新規,0,2022-10-05,2022-10-05,株式会社スタジオハレム,,株式会社,大阪府,大阪市中央区,南本町４丁目５番７号,,27,128,5410054,,,,,,,2022-10-05,1,,,,,スタジオハレム,0
197,1120001249326,新規,0,2022-10-05,2022-10-05,ベスパ株式会社,,株式会社,大阪府,大阪市城東区,中央１丁目５番１６号シカタマンション３０７,,27,118,5360005,,,,,,,2022-10-05,1,,,,,ベスパ,0
201,1120003022615,新規,0,2022-10-05,2022-10-05,合同会社Ｃｏｙｏｒｉ,,合同会社,大阪府,大阪市北区,梅田１丁目１－３大阪駅前第３ビル２９階１－１－１号室,,27,127,5300001,,,,,,,2022-10-05,1,,,,,コヨリ,0
206,1120901046558,新規,0,2022-10-05,2022-10-05,あどみん株式会社,,株式会社,大阪府,茨木市,稲葉町１７番１６号,,27,211,5670827,,,,,,,2022-10-05,1,,,,,アドミン,0
209,1122001036282,新規,0,2022-10-05,2022-10-05,株式会社オニオン,,株式会社,大阪府,東大阪市,長田中１丁目３番１７号,,27,227,5770013,,,,,,,2022-10-05,1,,,,,オニオン,0
212,1130001072743,新規,0,2022-10-05,2022-10-05,株式会社ＪＥＷＥＬ,,株式会社,京都府,京都市伏見区,中島鳥羽離宮町１８番地ベストハイツ城南宮２０３号室,,26,109,6128459,,,,,,,2022-10-05,1,,,,,ジュエル,0
215,1130003008217,新規,0,2022-10-05,2022-10-05,合同会社庵,,合同会社,京都府,京都市南区,久世殿城町４８０番地１、１０２,,26,107,6018205,,,,,,,2022-10-05,1,,,,,アン,0
218,1140001127513,新規,0,2022-10-05,2022-10-05,弘盛産業株式会社,,株式会社,兵庫県,姫路市,飾磨区英賀甲１９３４番１１Ｅ号室,,28,201,6728078,,,,,,,2022-10-05,1,,,,,ヒロモリサンギョウ,0
219,1140001127604,新規,0,2022-10-05,2022-10-05,株式会社エアーアシストジャパン,,株式会社,兵庫県,佐用郡佐用町,安川１０８９番地,,28,501,6795205,,,,,,,2022-10-05,1,,,,,エアーアシストジャパン,0
222,1140003018198,新規,0,2022-10-05,2022-10-05,Ｊａｎａｄｈｉ　Ｅｎｔｅｒｐｒｉｓｅｓ　Ｊａｐａｎ合同会社,,合同会社,兵庫県,神戸市中央区,下山手通２丁目１３番３号建創ビル８階３７号室,,28,110,6500011,,,,,,,2022-10-05,1,,,,,ジャナディエンタープライゼスジャパン,0
227,1170001017315,新規,0,2022-10-05,2022-10-05,株式会社大友,,株式会社,和歌山県,和歌山市,土入１４４番地Ａ,,30,201,6408432,,,,,,,2022-10-05,1,,,,,ダイユウ,0
230,1180001153167,新規,0,2022-10-05,2022-10-05,株式会社中村Ｅ・Ｓ,,株式会社,愛知県,名古屋市北区,上飯田南町３丁目２９番地,,23,103,4620804,,,,,,,2022-10-05,1,,,,,ナカムライーエス,0
231,1180001153175,新規,0,2022-10-05,2022-10-05,株式会社Ｖａｎｘｉｉ,,株式会社,愛知県,知多市,寺本台１丁目１５番地の３,,23,224,4780003,,,,,,,2022-10-05,1,,,,,ヴァンシイ,0
232,1180001153233,新規,0,2022-10-05,2022-10-05,株式会社ＫＩメディック,,株式会社,愛知県,名古屋市熱田区,三本松町１２番２３号,,23,109,4560032,,,,,,,2022-10-05,1,,,,,ケーアイメディック,0
233,1180001153241,新規,0,2022-10-05,2022-10-05,株式会社堀矢工業,,株式会社,愛知県,名古屋市中川区,牛立町４丁目２３番地,,23,110,4540043,,,,,,,2022-10-05,1,,,,,ホリヤコウギョウ,0
250,1210001019100,新規,0,2022-10-05,2022-10-05,株式会社ＲＲＥ．,,株式会社,福井県,福井市,石盛１丁目５０９番地,,18,201,9100125,,,,,,,2022-10-05,1,,,,,アールイー,0
251,1210001019109,新規,0,2022-10-05,2022-10-05,ＩＮＳＥＮ株式会社,,株式会社,福井県,越前市,粟田部町第２９号１番地,,18,209,9150242,,,,,,,2022-10-05,1,,,,,インセン,0
255,1220001025056,新規,0,2022-10-05,2022-10-05,丸福株式会社,,株式会社,石川県,白山市,漆島町１１３７番地,,17,210,9240835,,,,,,,2022-10-05,1,,,,,マルフク,0
263,1240001060448,新規,0,2022-10-05,2022-10-05,株式会社２‐Ｌｉｎｅ,,株式会社,広島県,広島市安佐南区,高取北３丁目１０番２２－２０６号,,34,105,7310144,,,,,,,2022-10-05,1,,,,,ツーライン,0
267,1240003005839,新規,0,2022-10-05,2022-10-05,合同会社ペコラ,,合同会社,広島県,福山市,本郷町１５９８番地１,,34,207,7290252,,,,,,,2022-10-05,1,,,,,ペコラ,0
270,1260001037279,新規,0,2022-10-05,2022-10-05,株式会社ちゅうぎんフィナンシャルグループ,,株式会社,岡山県,岡山市北区,丸の内１丁目１５番２０号,,33,101,7000823,,,,,,,2022-10-05,1,,,,,チュウギンフィナンシャルグループ,0
276,1290001099011,新規,0,2022-10-05,2022-10-05,城田貿易株式会社,,株式会社,福岡県,福岡市東区,香住ヶ丘６丁目３４番２１号,,40,131,8130003,,,,,,,2022-10-05,1,,,,,シロタボウエキ,0
277,1290001099127,新規,0,2022-10-05,2022-10-05,株式会社脱炭素マーケティング,,株式会社,福岡県,福岡市中央区,舞鶴２丁目４番１３号,,40,133,8100073,,,,,,,2022-10-05,1,,,,,ダツタンソマーケティング,0
281,1290003013028,新規,0,2022-10-05,2022-10-05,合同会社なごみＣｏｍｐａｎｙ,,合同会社,福岡県,春日市,一の谷３丁目１５２番地１,,40,218,8160852,,,,,,,2022-10-05,1,,,,,ナゴミカンパニー,0
290,1320001019361,新規,0,2022-10-05,2022-10-05,株式会社後藤製菓,,株式会社,大分県,臼杵市,大字深田１１８番地,,44,206,8750064,,,,,,,2022-10-05,1,,,,,ゴトウセイカ,0
297,1340001025077,新規,0,2022-10-05,2022-10-05,株式会社ｍｙｌ,,株式会社,鹿児島県,鹿児島市,広木２丁目４０番２６号,,46,201,8900037,,,,,,,2022-10-05,1,,,,,ミル,0
299,1340003003923,新規,0,2022-10-05,2022-10-05,合同会社めぐみ,,合同会社,鹿児島県,姶良市,東餅田１３４７番地,,46,225,8995421,,,,,,,2022-10-05,1,,,,,メグミ,0
300,1350001017981,新規,0,2022-10-05,2022-10-05,株式会社ＤＥＮＴ　ＫＯＳＥＩ,,株式会社,宮崎県,宮崎市,大字島之内１１０４８番地２,,45,201,8800121,,,,,,,2022-10-05,1,,,,,デントコウセイ,0
306,1370001049107,新規,0,2022-10-05,2022-10-05,株式会社山恭工業,,株式会社,宮城県,仙台市青葉区,上杉１丁目７番２８－１３０１号,,04,101,9800011,,,,,,,2022-10-05,1,,,,,サンキョウコウギョウ,0
307,1370003005850,新規,0,2022-10-05,2022-10-05,合同会社Ｓｕｍｉｍａｄｅ,,合同会社,宮城県,仙台市青葉区,中央２丁目２－１０仙都会館ビル７階（Ｄｌａｖｉｅ）,,04,101,9800021,,,,,,,2022-10-05,1,,,,,スミマデ,0
310,1380003005288,新規,0,2022-10-05,2022-10-05,合同会社Ｊａｓｍｉｎｅ,,合同会社,福島県,伊達郡国見町,大字藤田字南５１番地１,,07,303,9691761,,,,,,,2022-10-05,1,,,,,ジャスミン,0
312,1390001017037,新規,0,2022-10-05,2022-10-05,株式会社ＴＡＫＡＲＡ,,株式会社,山形県,山形市,大字船町１０８０番,,06,201,9900894,,,,,,,2022-10-05,1,,,,,タカラ,0
314,1400001016012,新規,0,2022-10-05,2022-10-05,株式会社しずくいしＹＵ‐ＹＵファーム,,株式会社,岩手県,岩手郡雫石町,南畑第３３地割２３番地１４,,03,301,0200573,,,,,,,2022-10-05,1,,,,,シズクイシユーユーファーム,0
315,1400001016020,新規,0,2022-10-05,2022-10-05,株式会社結,,株式会社,岩手県,盛岡市,青山４丁目１７番１０号,,03,201,0200133,,,,,,,2022-10-05,1,,,,,ユイ,0
316,1400003002984,新規,0,2022-10-05,2022-10-05,合同会社たばた動物病院,,合同会社,岩手県,盛岡市,茶畑１丁目１番５１号,,03,201,0200822,,,,,,,2022-10-05,1,,,,,タバタドウブツビョウイン,0
318,1420001018023,新規,0,2022-10-05,2022-10-05,株式会社ＫＭＣカンパニー,,株式会社,青森県,三沢市,中央町３丁目２番１９号,,02,207,0330001,,,,,,,2022-10-05,1,,,,,ケイエムシーカンパニー,0
319,1420005007823,新規,0,2022-10-05,2022-10-05,一般社団法人心身サロンこのゆびとまれ,,その他の設立登記法人,青森県,青森市,大字大野字鳴滝６４番地３５,,02,201,0300852,,,,,,,2022-10-05,1,,,,,シンシンサロンコノユビトマレ,0
326,1440003001487,新規,0,2022-10-05,2022-10-05,合同会社ノーブルサベージ,,合同会社,北海道,函館市,亀田町８番４４号,,01,202,0400072,,,,,,,2022-10-05,1,,,,,ノーブルサベージ,0
329,1470001019280,新規,0,2022-10-05,2022-10-05,株式会社ＩＴメディカル,,株式会社,香川県,木田郡三木町,大字池戸３４０８番地４,,37,341,7610701,,,,,,,2022-10-05,1,,,,,アイティメディカル,0
331,1480001011872,新規,0,2022-10-05,2022-10-05,高寅株式会社,00128011,株式会社,徳島県,阿南市,羽ノ浦町中庄なかれ１８番地５サンフラン羽ノ浦Ｉ２０１号室,00128012,36,204,7791101,,,,,,,2022-10-05,1,,,,,タカトラ,0
334,1500001024509,新規,0,2022-10-05,2022-10-05,ハイドロサービス株式会社,,株式会社,愛媛県,新居浜市,本郷２丁目５番５０号,,38,205,7920042,,,,,,,2022-10-05,1,,,,,ハイドロサービス,0
335,1500001024525,新規,0,2022-10-05,2022-10-05,ダイヤ株式会社,,株式会社,愛媛県,宇和島市,大超寺奥乙６８番地７,,38,203,7980045,,,,,,,2022-10-05,1,,,,,ダイヤ,0
339,1700150112028,新規,0,2022-10-05,2022-10-05,株式会社　慶南統計リサーチ,,外国会社等,宮崎県,宮崎市,高岡町飯田３丁目１１番地１８,,45,201,8802224,大韓民国慶尚南道昌原市義昌区龍池路２７５番ギル４３（沙林洞）,,,,,,2022-10-05,1,,,,,カブシキガイシヤケイナントウケイリサーチ,0
352,2010001229899,新規,0,2022-10-05,2022-10-05,Ｓｏｆｔｄｅｌ　Ｊａｐａｎ株式会社,,株式会社,東京都,千代田区,九段北１丁目１番６号,,13,101,1020073,,,,,,,2022-10-05,1,,,,,ソフトデルジャパン,0
353,2010001229908,新規,0,2022-10-05,2022-10-05,株式会社ソハコ,,株式会社,東京都,中央区,銀座７丁目１８番１３－５０２号,,13,102,1040061,,,,,,,2022-10-05,1,,,,,ソハコ,0
354,2010001229957,新規,0,2022-10-05,2022-10-05,株式会社ケープラス,,株式会社,東京都,千代田区,九段南１丁目５－６りそな九段ビル５階ＫＳフロア,,13,101,1020074,,,,,,,2022-10-05,1,,,,,ケープラス,0
356,2010003038811,新規,0,2022-10-05,2022-10-05,合同会社コラボローン西瀬戸４,,合同会社,東京都,千代田区,丸の内３丁目１番１号東京共同会計事務所内,,13,101,1000005,,,,,,,2022-10-05,1,,,,,コラボローンニシセトフォー,0
362,2010403028602,新規,0,2022-10-05,2022-10-05,Ａｒｃｈｅｔｙｐｅ　Ｖｅｎｔｕｒｅｓ合同会社,,合同会社,東京都,港区,麻布十番２丁目８番１０号,,13,103,1060045,,,,,,,2022-10-05,1,,,,,アーキタイプベンチャーズ,0
363,2010403028619,新規,0,2022-10-05,2022-10-05,Ｏｃｅａｎ　ａｎｄ　Ｂｒｉｎｅ　Ｍａｒｉｎｅ　Ｓｐａｒｅｓ合同会社,,合同会社,東京都,港区,赤坂２丁目１４番５号Ｄａｉｗａ赤坂ビル４階,,13,103,1070052,,,,,,,2022-10-05,1,,,,,オーシャンアンドブラインマリーンスペアズ,0
364,2010403028627,新規,0,2022-10-05,2022-10-05,合同会社すずらんハイム,,合同会社,東京都,港区,赤坂２丁目１７番６３－７０３号,,13,103,1070052,,,,,,,2022-10-05,1,,,,,スズランハイム,0
369,2010603009757,新規,0,2022-10-05,2022-10-05,潮見街づくり開発１号合同会社,,合同会社,東京都,江東区,潮見２丁目３番９号,,13,108,1350052,,,,,,,2022-10-05,1,,,,,シオミマチヅクリカイハツイチゴウ,0
371,2010805002980,新規,0,2022-10-05,2022-10-05,一般社団法人ウォーターセーフティプロモーション,,その他の設立登記法人,東京都,大田区,南六郷３丁目１０番１６号六郷ＢＡＳＥ,,13,111,1440045,,,,,,,2022-10-05,1,,,,,,0
372,2010905004373,新規,0,2022-10-05,2022-10-05,一般社団法人アロマリステリア協会,,その他の設立登記法人,東京都,世田谷区,深沢２丁目１６番２３号メルヴェールフカサワ１０２,,13,112,1580081,,,,,,,2022-10-05,1,,,,,アロマリステリアキョウカイ,0
379,2011001150054,新規,0,2022-10-05,2022-10-05,株式会社Ｇｌｏｅｎｔ　Ｇｒｏｕｐ　Ｊａｐａｎ,,株式会社,東京都,目黒区,東山３丁目７番１号,,13,110,1530043,,,,,,,2022-10-05,1,,,,,グロエントグループジャパン,0
380,2011001150062,新規,0,2022-10-05,2022-10-05,株式会社ＳＵＭＩＫＡ,,株式会社,東京都,渋谷区,神宮前６丁目２３番４号桑野ビル２階,,13,113,1500001,,,,,,,2022-10-05,1,,,,,スミカ,0
381,2011001150087,新規,0,2022-10-05,2022-10-05,株式会社リンコーポレーション,,株式会社,東京都,目黒区,自由が丘３丁目１７番２０号マンションサニーアンドサニー２０２,,13,110,1520035,,,,,,,2022-10-05,1,,,,,リンコーポレーション,0
382,2011001150104,新規,0,2022-10-05,2022-10-05,株式会社ＲＯＳＨ,,株式会社,東京都,渋谷区,道玄坂１丁目１０番８号渋谷道玄坂東急ビル２Ｆ‐Ｃ,,13,113,1500043,,,,,,,2022-10-05,1,,,,,ロッシュ,0
386,2011101100363,新規,0,2022-10-05,2022-10-05,株式会社ビッグディー,,株式会社,東京都,新宿区,西早稲田２丁目１４番３号リシェス西早稲田２１２,,13,104,1690051,,,,,,,2022-10-05,1,,,,,ビッグディー,0
387,2011101100388,新規,0,2022-10-05,2022-10-05,ＩＴ司株式会社,,株式会社,東京都,新宿区,西新宿３丁目３番１３号西新宿水間ビル２Ｆ,,13,104,1600023,,,,,,,2022-10-05,1,,,,,アイティツカサ,0
388,2011103012227,新規,0,2022-10-05,2022-10-05,合同会社一真,,合同会社,東京都,新宿区,西新宿３丁目９番３－８０１号,,13,104,1600023,,,,,,,2022-10-05,1,,,,,イッシン,0
389,2011103012235,新規,0,2022-10-05,2022-10-05,ＨＩＣＴコンサルティング合同会社,,合同会社,東京都,新宿区,西新宿３丁目３番１３号西新宿水間ビル６階,,13,104,1600023,,,,,,,2022-10-05,1,,,,,エイチアイシーティーコンサルティング,0
391,2011301028140,新規,0,2022-10-05,2022-10-05,ＯＣＴＵＧ株式会社,,株式会社,東京都,杉並区,西荻南２丁目１番１６号,,13,115,1670053,,,,,,,2022-10-05,1,,,,,オーシータグ,0
392,2011303004536,新規,0,2022-10-05,2022-10-05,合同会社ＹＭＧサービス,,合同会社,東京都,杉並区,上高井戸１丁目１４番７－Ｂ２０３号,,13,115,1680074,,,,,,,2022-10-05,1,,,,,ワイエムジーサービス,0
393,2011601026273,新規,0,2022-10-05,2022-10-05,よふかし株式会社,,株式会社,東京都,練馬区,石神井町３丁目１０－２０－３０２,,13,120,1770041,,,,,,,2022-10-05,1,,,,,ヨフカシ,0
394,2011701025662,新規,0,2022-10-05,2022-10-05,株式会社フクシア,,株式会社,東京都,江戸川区,篠崎町７丁目２４－１０,,13,123,1330061,,,,,,,2022-10-05,1,,,,,フクシア,0
397,2011801041353,新規,0,2022-10-05,2022-10-05,株式会社Ｇパイン,,株式会社,東京都,葛飾区,東金町１丁目１番２号プラウドシティ金町アベニュー１４０１号室,,13,122,1250041,,,,,,,2022-10-05,1,,,,,ジーパイン,0
404,2012401039713,新規,0,2022-10-05,2022-10-05,新日本電工株式会社,,株式会社,東京都,三鷹市,井口１丁目５番７号,,13,204,1810011,,,,,,,2022-10-05,1,,,,,シンニホンデンコウ,0
412,2013301049752,新規,0,2022-10-05,2022-10-05,株式会社ブックグラフィカ,,株式会社,東京都,豊島区,池袋４丁目３２番８号,,13,116,1710014,,,,,,,2022-10-05,1,,,,,ブックグラフィカ,0
420,2020001148405,新規,0,2022-10-05,2022-10-05,株式会社ＴＳＢ,,株式会社,神奈川県,横浜市旭区,本宿町５０番地４７,,14,112,2410023,,,,,,,2022-10-05,1,,,,,ティーエスビー,0
421,2020001148421,新規,0,2022-10-05,2022-10-05,六士株式会社,,株式会社,神奈川県,横浜市中区,海岸通４丁目２０番地２ＹＴ馬車道ビル,,14,104,2310002,,,,,,,2022-10-05,1,,,,,ロクシ,0
438,2030001150285,新規,0,2022-10-05,2022-10-05,株式会社ＳＣ小村田,,株式会社,埼玉県,さいたま市中央区,本町東６丁目１３番１７号,,11,105,3380003,,,,,,,2022-10-05,1,,,,,エスシーコムラダ,0
439,2030001150302,新規,0,2022-10-05,2022-10-05,三斗エージェント株式会社,,株式会社,埼玉県,所沢市,寿町２１番１２－１１０２号ブリリアタワー所沢ロジュマン,,11,208,3591122,,,,,,,2022-10-05,1,,,,,サントエージェント,0
445,2030003020321,新規,0,2022-10-05,2022-10-05,ＭｃＧｏｖｅｒｎ合同会社,,合同会社,埼玉県,川口市,飯塚４丁目１１－１４,,11,203,3320023,,,,,,,2022-10-05,1,,,,,マクガバン,0
446,2030005021012,新規,0,2022-10-05,2022-10-05,医療法人ＲＩＭＩ,,その他の設立登記法人,埼玉県,さいたま市中央区,新都心４番地１５フジコー新都心ビル１階,,11,105,3300081,,,,,,,2022-10-05,1,,,,,リミ,0
451,2050001051754,新規,0,2022-10-05,2022-10-05,株式会社アプリコットひたちなか,,株式会社,茨城県,ひたちなか市,津田東３丁目１５番地１１,,08,221,3120036,,,,,,,2022-10-05,1,,,,,アプリコットヒタチナカ,0
453,2060001035319,新規,0,2022-10-05,2022-10-05,ベルモール警備株式会社,,株式会社,栃木県,宇都宮市,駒生町１４１７番地１７,,09,201,3200065,,,,,,,2022-10-05,1,,,,,ベルモールケイビ,0
457,2080001025227,新規,0,2022-10-05,2022-10-05,株式会社曽根弓具店,,株式会社,静岡県,焼津市,東小川６丁目１０番地の１０,,22,212,4250035,,,,,,,2022-10-05,1,,,,,ソネキュウグテン,0
461,2080003002884,新規,0,2022-10-05,2022-10-05,合同会社ローズ,,合同会社,静岡県,藤枝市,駅前２丁目５番２号正樹ビル２階,,22,214,4260034,,,,,,,2022-10-05,1,,,,,ローズ,0
462,2080005007485,新規,0,2022-10-05,2022-10-05,医療法人社団歯仁会,,その他の設立登記法人,静岡県,静岡市清水区,入江１丁目８番２８号,,22,103,4240831,,,,,,,2022-10-05,1,,,,,シジンカイ,0
466,2080401026072,新規,0,2022-10-05,2022-10-05,株式会社ＨＩＲＯＥ,,株式会社,静岡県,掛川市,旭台６７番地,,22,213,4360069,,,,,,,2022-10-05,1,,,,,ヒロエ,0
467,2080401026080,新規,0,2022-10-05,2022-10-05,株式会社ＬＩＦＥ　ｐｌｕｓ,,株式会社,静岡県,磐田市,匂坂中１４７５番地２,,22,211,4380004,,,,,,,2022-10-05,1,,,,,ライフプラス,0
468,2090005007518,新規,0,2022-10-05,2022-10-05,医療法人優美会,,その他の設立登記法人,山梨県,甲府市,上今井町９５０番地１,,19,201,4000845,,,,,,,2022-10-05,1,,,,,ユウビカイ,0
470,2100001035743,新規,0,2022-10-05,2022-10-05,信州ワークス株式会社,,株式会社,長野県,上伊那郡箕輪町,大字中箕輪６９４番地１,,20,383,3994601,,,,,,,2022-10-05,1,,,,,シンシュウワークス,0
471,2110001009548,新規,0,2022-10-05,2022-10-05,株式会社カネ三,,株式会社,新潟県,新潟市東区,材木町１番６３号,,15,102,9500811,,,,,,,2022-10-05,1,,,,,カネサン,0
476,2110001037004,新規,0,2022-10-05,2022-10-05,株式会社三岡左官工業,,株式会社,新潟県,新潟市西区,赤塚５４１４番地１３,,15,107,9502261,,,,,,,2022-10-05,1,,,,,ミツオカサカンコウギョウ,0
483,2120001249275,新規,0,2022-10-05,2022-10-05,株式会社Ｌｉｅｎｓ,,株式会社,大阪府,大阪市北区,扇町２丁目６番１７－１３０６号,,27,127,5300025,,,,,,,2022-10-05,1,,,,,リアン,0
484,2120001249283,新規,0,2022-10-05,2022-10-05,株式会社Ｓｔ＆Ｃｏ．,,株式会社,大阪府,大阪市西淀川区,千舟３丁目９番７号,,27,113,5550013,,,,,,,2022-10-05,1,,,,,エスティアンドコー,0
485,2120001249291,新規,0,2022-10-05,2022-10-05,株式会社ＫＭＡ　Ｅｎｇｉｎｅｅｒ,,株式会社,大阪府,大阪市中央区,島之内１丁目４番８－８０４号,,27,128,5420082,,,,,,,2022-10-05,1,,,,,ケイエムエーエンジニア,0
486,2120001249317,新規,0,2022-10-05,2022-10-05,株式会社グリット,,株式会社,大阪府,大阪市北区,梅田１丁目２番２号,,27,127,5300001,,,,,,,2022-10-05,1,,,,,グリット,0
487,2120003022597,新規,0,2022-10-05,2022-10-05,合同会社ＨＫＢ,,合同会社,大阪府,大阪市東住吉区,住道矢田８丁目１８番１４号,,27,121,5460022,,,,,,,2022-10-05,1,,,,,エイチケービー,0
490,2120005023222,新規,0,2022-10-05,2022-10-05,一般社団法人ＣＨＡＮＧＥ　ＦＯＲ　ＴＨＥ　ＢＬＵＥ大阪,,その他の設立登記法人,大阪府,大阪市西区,江戸堀１丁目１０番８号パシフィックマークス肥後橋６Ｆ,,27,106,5500002,,,,,,,2022-10-05,1,,,,,チェンジフォーザブルーオオサカ,0
495,2120901046565,新規,0,2022-10-05,2022-10-05,株式会社フジヤデンキ,,株式会社,大阪府,吹田市,藤白台２丁目９番１－Ｂ１０５号,,27,205,5650873,,,,,,,2022-10-05,1,,,,,フジヤデンキ,0
499,2122001036273,新規,0,2022-10-05,2022-10-05,新星企画株式会社,,株式会社,大阪府,東大阪市,高井田中３丁目５番２号,,27,227,5770065,,,,,,,2022-10-05,1,,,,,シンセイキカク,0
504,2130001072734,新規,0,2022-10-05,2022-10-05,株式会社ｍｔ．,,株式会社,京都府,京都市中京区,御池通東洞院東入笹屋町４３６永和御池ビル６０６号,,26,104,6048187,,,,,,,2022-10-05,1,,,,,エムティドット,0
505,2130001072742,新規,0,2022-10-05,2022-10-05,株式会社ＯＮＬＹＯＮＥ　ＬＯＶＥ,,株式会社,京都府,京都市伏見区,中島鳥羽離宮町１８番地ベストハイツ城南宮２０３号室,,26,109,6128459,,,,,,,2022-10-05,1,,,,,オンリーワンラブ,0
514,2140001127520,新規,0,2022-10-05,2022-10-05,株式会社ハバテラス,,株式会社,兵庫県,神戸市須磨区,潮見台町４丁目３番１１号,,28,107,6540075,,,,,,,2022-10-05,1,,,,,ハバテラス,0
515,2140001127537,新規,0,2022-10-05,2022-10-05,株式会社Ｌｅｇｎｏｎ,,株式会社,兵庫県,伊丹市,西台１丁目６番９号,,28,207,6640858,,,,,,,2022-10-05,1,,,,,レグノン,0
516,2140001127545,新規,0,2022-10-05,2022-10-05,株式会社グッドアップ,,株式会社,兵庫県,伊丹市,中央４丁目３番１９号,,28,207,6640851,,,,,,,2022-10-05,1,,,,,グッドアップ,0
517,2140001127561,新規,0,2022-10-05,2022-10-05,グリーンアークス株式会社,,株式会社,兵庫県,神戸市北区,鳴子１丁目２番６号,,28,109,6511133,,,,,,,2022-10-05,1,,,,,グリーンアークス,0
518,2140001127611,新規,0,2022-10-05,2022-10-05,株式会社ユレイン,,株式会社,兵庫県,尼崎市,次屋２丁目２４番９号,,28,202,6610965,,,,,,,2022-10-05,1,,,,,ユレイン,0
520,2140003018180,新規,0,2022-10-05,2022-10-05,相生播磨ＭＳ合同会社,,合同会社,兵庫県,相生市,若狭野町下土井２７番地,,28,208,6780082,,,,,,,2022-10-05,1,,,,,アイオイハリマエムエス,0
531,2180001153166,新規,0,2022-10-05,2022-10-05,アオイロファブリック株式会社,,株式会社,愛知県,名古屋市天白区,平針南４丁目１５０４番地の１０,,23,116,4680020,,,,,,,2022-10-05,1,,,,,アオイロファブリック,0
532,2180001153182,新規,0,2022-10-05,2022-10-05,株式会社Ｐａｔｉｅ,,株式会社,愛知県,名古屋市中区,栄３丁目１５番２７号いちご栄ビル９階,,23,106,4600008,,,,,,,2022-10-05,1,,,,,パティエ,0
533,2180001153257,新規,0,2022-10-05,2022-10-05,株式会社上野屋本店,,株式会社,愛知県,名古屋市西区,那古野２丁目２０番２１号,,23,104,4510042,,,,,,,2022-10-05,1,,,,,ウエノヤホンテン,0
543,2200001040502,新規,0,2022-10-05,2022-10-05,株式会社ＴＬＰ築炉,,株式会社,岐阜県,瑞浪市,土岐町６０４７番地の１,,21,208,5096101,,,,,,,2022-10-05,1,,,,,ティーエルピーチクロ,0
549,2240001060447,新規,0,2022-10-05,2022-10-05,株式会社アクセスライフ,,株式会社,広島県,広島市南区,旭３丁目２番２０－４０３号１号棟,,34,103,7340036,,,,,,,2022-10-05,1,,,,,アクセスライフ,0
552,2260001037286,新規,0,2022-10-05,2022-10-05,株式会社ＯＮＥ　ＬＩＦＥ,,株式会社,岡山県,岡山市南区,東畦３７２番地１,,33,104,7010211,,,,,,,2022-10-05,1,,,,,ワンライフ,0
557,2260005011147,新規,0,2022-10-05,2022-10-05,一般社団法人日本メディセル療法協会,,その他の設立登記法人,岡山県,岡山市南区,西市３０８番地６,,33,104,7000953,,,,,,,2022-10-05,1,,,,,ニホンメディセルリョウホウキョウカイ,0
560,2290001099076,新規,0,2022-10-05,2022-10-05,株式会社奏コンツェルト,,株式会社,福岡県,柳川市,京町１４番地１,,40,207,8320023,,,,,,,2022-10-05,1,,,,,カナデコンツェルト,0
561,2290001099084,新規,0,2022-10-05,2022-10-05,株式会社ＯＧＡ,,株式会社,福岡県,福岡市南区,弥永１丁目８番７号,,40,134,8111323,,,,,,,2022-10-05,1,,,,,オオガ,0
562,2290001099092,新規,0,2022-10-05,2022-10-05,株式会社ＰＬＥＡＳＵＲＥ,,株式会社,福岡県,福岡市西区,福重４丁目１３番２０－２０１号,,40,135,8190022,,,,,,,2022-10-05,1,,,,,プレジャー,0
563,2290001099101,新規,0,2022-10-05,2022-10-05,株式会社Ｆａｎｔａｓｙ,,株式会社,福岡県,福岡市博多区,中洲５丁目４番１０－１３０２号,,40,132,8100801,,,,,,,2022-10-05,1,,,,,ファンタジー,0
564,2290001099126,新規,0,2022-10-05,2022-10-05,株式会社三連工務,,株式会社,福岡県,朝倉市,入地２９８３番地,,40,228,8381315,,,,,,,2022-10-05,1,,,,,サンレンコウム,0
567,2290005018817,新規,0,2022-10-05,2022-10-05,渥美坂井法律事務所福岡弁護士法人,,その他の設立登記法人,福岡県,福岡市中央区,天神２丁目１２番１号天神ビル１０階,,40,133,8100001,,,,,,,2022-10-05,1,,,,,アツミサカイホウリツジムショフクオカ,0
573,2310001018066,新規,0,2022-10-05,2022-10-05,株式会社ＴＳ‐ファイブ,,株式会社,長崎県,島原市,本町乙５５２番地,,42,203,8550062,,,,,,,2022-10-05,1,,,,,ティーエスファイブ,0
575,2330001030168,新規,0,2022-10-05,2022-10-05,株式会社ＳＫ建設工業,,株式会社,熊本県,熊本市東区,小山１丁目７番１－３０８号,,43,102,8618045,,,,,,,2022-10-05,1,,,,,エスケイケンセツコウギョウ,0
580,2340001025076,新規,0,2022-10-05,2022-10-05,株式会社フレッシュクレイン,,株式会社,鹿児島県,鹿児島市,吉野町３５７３番地２８２,,46,201,8920871,,,,,,,2022-10-05,1,,,,,フレッシュクレイン,0
581,2340003003922,新規,0,2022-10-05,2022-10-05,合同会社ゆうひ,,合同会社,鹿児島県,鹿児島市,清和３丁目１１番１９号,,46,201,8910109,,,,,,,2022-10-05,1,,,,,ユウヒ,0
582,2350001017980,新規,0,2022-10-05,2022-10-05,がすらぶ株式会社,,株式会社,宮崎県,都城市,上町８街区５号３階,,45,202,8850072,,,,,,,2022-10-05,1,,,,,ガスラブ,0
584,2370001049089,新規,0,2022-10-05,2022-10-05,トップ工業株式会社,,株式会社,宮城県,仙台市若林区,新寺３丁目４番３１号,,04,103,9840051,,,,,,,2022-10-05,1,,,,,トップコウギョウ,0
591,2380003005287,新規,0,2022-10-05,2022-10-05,合同会社ムート,,合同会社,福島県,郡山市,田村町徳定字下河原１９７－４プリンスオーロラ２－４２１,,07,203,9631165,,,,,,,2022-10-05,1,,,,,ムート,0
593,2400003002983,新規,0,2022-10-05,2022-10-05,合同会社Ｕ２,,合同会社,岩手県,宮古市,南町３番９号,,03,202,0270051,,,,,,,2022-10-05,1,,,,,ユーツー,0
598,2410005006486,新規,0,2022-10-05,2022-10-05,一般社団法人海と日本プロジェクトｉｎ秋田県,,その他の設立登記法人,秋田県,秋田市,八橋本町３丁目２番１４号,,05,201,0100973,,,,,,,2022-10-05,1,,,,,ウミトニッポンプロジェクトインアキタケン,0
605,2430005014578,新規,0,2022-10-05,2022-10-05,一般社団法人ステイびばい,,その他の設立登記法人,北海道,美唄市,東一条南２丁目１番７号,,01,215,0720012,,,,,,,2022-10-05,1,,,,,ステイビバイ,0
609,2460001005735,新規,0,2022-10-05,2022-10-05,アウトフィールダー株式会社,,株式会社,北海道,釧路郡釧路町,鳥通東４丁目７,,01,661,0882147,,,,,,,2022-10-05,1,,,,,アウトフィールダー,0
612,2500001024508,新規,0,2022-10-05,2022-10-05,株式会社炭やき村,,株式会社,愛媛県,宇和島市,津島町下畑地甲１４３８番地７,,38,203,7983321,,,,,,,2022-10-05,1,,,,,スミヤキムラ,0
628,3010001229915,新規,0,2022-10-05,2022-10-05,ＣａＬｕＡｎ株式会社,,株式会社,東京都,千代田区,内神田１丁目１２番９－１１０１号,,13,101,1010047,,,,,,,2022-10-05,1,,,,,カルアン,0
629,3010003038827,新規,0,2022-10-05,2022-10-05,合同会社ＴＩＥ,,合同会社,東京都,中央区,勝どき３丁目９番７―８０６号,,13,102,1040054,,,,,,,2022-10-05,1,,,,,ティーアイイー,0
635,3010005035632,新規,0,2022-10-05,2022-10-05,一般社団法人日本メガネ協会,,その他の設立登記法人,東京都,中央区,日本橋３丁目１３番１１号,,13,102,1030027,,,,,,,2022-10-05,1,,,,,ニホンメガネキョウカイ,0
645,3010401169983,新規,0,2022-10-05,2022-10-05,株式会社Ｓｉｉ,,株式会社,東京都,港区,南青山２丁目２番１５号ＷｉｎＡｏｙａｍａビルＵＣＦ６３５,,13,103,1070062,,,,,,,2022-10-05,1,,,,,シー,0
646,3010401170082,新規,0,2022-10-05,2022-10-05,ラオックス・トレーディング株式会社,,株式会社,東京都,港区,芝公園２丁目１１番１号,,13,103,1050011,,,,,,,2022-10-05,1,,,,,ラオックストレーディング,0
654,3010603009764,新規,0,2022-10-05,2022-10-05,合同会社ｒｅｏｎ,,合同会社,東京都,墨田区,八広３丁目３１番７－３１４号,,13,107,1310041,,,,,,,2022-10-05,1,,,,,レオン,0
655,3010703006406,新規,0,2022-10-05,2022-10-05,ＰＥＲＥＮＮＩＡＬ　ＨＥＡＲＴＳ合同会社,,合同会社,東京都,品川区,上大崎３丁目１４－４４レジデンスマルーモ２０３,,13,109,1410021,,,,,,,2022-10-05,1,,,,,ペレニアルハーツ,0
660,3010901051708,新規,0,2022-10-05,2022-10-05,ＰＲＩＭＥＸ株式会社,,株式会社,東京都,世田谷区,瀬田４丁目３５番１６号,,13,112,1580095,,,,,,,2022-10-05,1,,,,,プライメックス,0
661,3010901051732,新規,0,2022-10-05,2022-10-05,Ｂａｋｕｒｏ株式会社,,株式会社,東京都,世田谷区,経堂５丁目３８－２９－１０９,,13,112,1560052,,,,,,,2022-10-05,1,,,,,バクロ,0
669,3011003015477,新規,0,2022-10-05,2022-10-05,Ｓｔｕｄｉｏ　ＩＭＡＫＥＮ合同会社,,合同会社,東京都,渋谷区,神宮前６丁目２３番４号桑野ビル２階,,13,113,1500001,,,,,,,2022-10-05,1,,,,,スタジオイマケン,0
678,3011101100379,新規,0,2022-10-05,2022-10-05,株式会社グリップ,,株式会社,東京都,新宿区,高田馬場４丁目２２番２５号,,13,104,1690075,,,,,,,2022-10-05,1,,,,,グリップ,0
679,3011101100395,新規,0,2022-10-05,2022-10-05,株式会社力，ＣＨＩＫＡＲＡ,,株式会社,東京都,新宿区,高田馬場３丁目１２番１号久松ビルＢ１Ｆ，１Ｆ,,13,104,1690075,,,,,,,2022-10-05,1,,,,,チカラ,0
682,3011103012226,新規,0,2022-10-05,2022-10-05,合同会社Ｇｌｏｃａｌ,,合同会社,東京都,新宿区,新宿２丁目９－２２多摩川新宿ビル４Ｆ,,13,104,1600022,,,,,,,2022-10-05,1,,,,,グローカル,0
686,3011401024583,新規,0,2022-10-05,2022-10-05,株式会社ＡＩＲ　ＴＥＣＨ,,株式会社,東京都,板橋区,坂下１丁目１８番７号,,13,119,1740043,,,,,,,2022-10-05,1,,,,,エアーテック,0
691,3011601026272,新規,0,2022-10-05,2022-10-05,株式会社栗原総合会計,,株式会社,東京都,練馬区,石神井町５丁目５番１１号,,13,120,1770041,,,,,,,2022-10-05,1,,,,,クリハラソウゴウカイケイ,0
692,3011601026280,新規,0,2022-10-05,2022-10-05,株式会社ミラレック,,株式会社,東京都,練馬区,石神井町８丁目９番２号エミキューブ４号室,,13,120,1770041,,,,,,,2022-10-05,1,,,,,ミラレック,0
693,3011605002476,新規,0,2022-10-05,2022-10-05,一般財団法人大泉名水会,,その他の設立登記法人,東京都,練馬区,東大泉３丁目３８番１３号,,13,120,1780063,,,,,,,2022-10-05,1,,,,,オオイズミメイスイカイ,0
697,3011801041336,新規,0,2022-10-05,2022-10-05,株式会社ワイルドブルー,,株式会社,東京都,葛飾区,水元２丁目２番５号,,13,122,1250032,,,,,,,2022-10-05,1,,,,,ワイルドブルー,0
701,3012805003157,新規,0,2022-10-05,2022-10-05,社会福祉法人宝もの,,その他の設立登記法人,東京都,国分寺市,内藤２丁目４１番地６９,,13,214,1850033,,,,,,,2022-10-05,1,,,,,タカラモノ,0
708,3020001148387,新規,0,2022-10-05,2022-10-05,ＲＩＮＯ　ＷＡＧＥＮ株式会社,,株式会社,神奈川県,横浜市西区,岡野１丁目１番１９号,,14,103,2200073,,,,,,,2022-10-05,1,,,,,リノワーゲン,0
709,3020001148429,新規,0,2022-10-05,2022-10-05,株式会社ＲｅＢｏｘ,,株式会社,神奈川県,川崎市宮前区,有馬２丁目７番１５号,,14,136,2160003,,,,,,,2022-10-05,1,,,,,リボックス,0
710,3020001148437,新規,0,2022-10-05,2022-10-05,株式会社ユナイテッド,,株式会社,神奈川県,横浜市西区,平沼１丁目３番１０－３０４号室,,14,103,2200023,,,,,,,2022-10-05,1,,,,,ユナイテッド,0
713,3020003022490,新規,0,2022-10-05,2022-10-05,合同会社Ａｍｉｓ,,合同会社,神奈川県,川崎市多摩区,宿河原４丁目２２番１７号,,14,135,2140021,,,,,,,2022-10-05,1,,,,,アミーズ,0
714,3020003022508,新規,0,2022-10-05,2022-10-05,合同会社養生漢方,,合同会社,神奈川県,横浜市港北区,下田町２丁目１０番６３号,,14,109,2230064,,,,,,,2022-10-05,1,,,,,ヨウジョウカンポウ,0
717,3021001077056,新規,0,2022-10-05,2022-10-05,共和グループ株式会社,,株式会社,神奈川県,小田原市,高田２１９－２８高見ハイツ,,14,206,2500216,,,,,,,2022-10-05,1,,,,,,0
718,3021001077106,新規,0,2022-10-05,2022-10-05,株式会社なるみ,,株式会社,神奈川県,鎌倉市,笛田５丁目４番８－１０２号,,14,204,2480027,,,,,,,2022-10-05,1,,,,,ナルミ,0
732,3030001150318,新規,0,2022-10-05,2022-10-05,株式会社リアルスケッチ,,株式会社,埼玉県,東松山市,大字下押垂１９２番地,,11,212,3550041,,,,,,,2022-10-05,1,,,,,リアルスケッチ,0
733,3030001150334,新規,0,2022-10-05,2022-10-05,株式会社見沼フットボールクラブ,,株式会社,埼玉県,さいたま市岩槻区,西原５番１６号,,11,110,3390081,,,,,,,2022-10-05,1,,,,,ミヌマフットボールクラブ,0
734,3030001150359,新規,0,2022-10-05,2022-10-05,株式会社ＫＹＯＤＡＩ　ＨＰ,,株式会社,埼玉県,川越市,大字上戸９３番地１（ネオポルテリア１０２）,,11,201,3500816,,,,,,,2022-10-05,1,,,,,キョウダイエイチピー,0
741,3030003020320,新規,0,2022-10-05,2022-10-05,ＹＯＵ＆ｉＡＮＤ合同会社,,合同会社,埼玉県,比企郡小川町,東小川５丁目１３番地１,,11,343,3550322,,,,,,,2022-10-05,1,,,,,ユーアンドアイアンド,0
745,3040001125327,新規,0,2022-10-05,2022-10-05,株式会社威光,,株式会社,千葉県,市原市,引田３０５番地４,,12,219,2900256,,,,,,,2022-10-05,1,,,,,イコウ,0
747,3040003020971,新規,0,2022-10-05,2022-10-05,フューチャーデザイン合同会社,,合同会社,千葉県,千葉市中央区,道場南１丁目３番６号,,12,101,2600005,,,,,,,2022-10-05,1,,,,,フューチャーデザイン,0
754,3050001051753,新規,0,2022-10-05,2022-10-05,株式会社Ｓ・ＦＩＲＳＴ,,株式会社,茨城県,水戸市,開江町１６３７番地の１,,08,201,3114144,,,,,,,2022-10-05,1,,,,,エスファースト,0
762,3060001035318,新規,0,2022-10-05,2022-10-05,株式会社レガーレ,,株式会社,栃木県,宇都宮市,横山２丁目２７番３３号,,09,201,3200005,,,,,,,2022-10-05,1,,,,,レガーレ,0
766,3070001039706,新規,0,2022-10-05,2022-10-05,ＷＡＨＡＢ　ＴＲＡＤＩＮＧ株式会社,,株式会社,群馬県,太田市,山之神町３６６番地５３,,10,205,3792302,,,,,,,2022-10-05,1,,,,,,0
769,3080001025226,新規,0,2022-10-05,2022-10-05,株式会社ドライラボ,,株式会社,静岡県,牧之原市,静波７０番地９,,22,226,4210422,,,,,,,2022-10-05,1,,,,,ドライラボ,0
772,3080101023559,新規,0,2022-10-05,2022-10-05,株式会社ウインド,,株式会社,静岡県,沼津市,岡宮５００番地,,22,203,4100011,,,,,,,2022-10-05,1,,,,,ウインド,0
777,3100001035742,新規,0,2022-10-05,2022-10-05,株式会社ハル精密,,株式会社,長野県,長野市,南千歳１丁目２２番地６,,20,201,3800823,,,,,,,2022-10-05,1,,,,,ハルセイミツ,0
780,3110001037003,新規,0,2022-10-05,2022-10-05,株式会社ムフフ,,株式会社,新潟県,新潟市中央区,川端町３丁目１５－１コープ野村川端町Ａ－１４０５,,15,103,9518053,,,,,,,2022-10-05,1,,,,,ムフフ,0
794,3120001249282,新規,0,2022-10-05,2022-10-05,豊信株式会社,,株式会社,大阪府,大阪市浪速区,難波中１丁目１８番１８号,,27,111,5560011,,,,,,,2022-10-05,1,,,,,トヨシン,0
795,3120001249308,新規,0,2022-10-05,2022-10-05,ＢＳＣ株式会社,,株式会社,大阪府,大阪市北区,小松原町３番３号ＯＳビル,,27,127,5300018,,,,,,,2022-10-05,1,,,,,ビーエスシー,0
796,3120001249316,新規,0,2022-10-05,2022-10-05,大阪メトロビジネスアソシエイト株式会社,,株式会社,大阪府,大阪市西区,九条南１丁目１２番６２号,,27,106,5500025,,,,,,,2022-10-05,1,,,,,オオサカメトロビジネスアソシエイト,0
799,3120005023221,新規,0,2022-10-05,2022-10-05,一般社団法人オールコラボ,,その他の設立登記法人,大阪府,大阪市阿倍野区,旭町２丁目１番１－１５１号,,27,119,5450051,,,,,,,2022-10-05,1,,,,,オールコラボ,0
807,3120901046564,新規,0,2022-10-05,2022-10-05,株式会社一心,,株式会社,大阪府,高槻市,西面中１丁目４番３号,,27,207,5690842,,,,,,,2022-10-05,1,,,,,イッシン,0
808,3120903004322,新規,0,2022-10-05,2022-10-05,合同会社知真堂,,合同会社,大阪府,豊中市,曽根東町３丁目５番３号,,27,203,5610802,,,,,,,2022-10-05,1,,,,,チシンドウ,0
817,3140001127560,新規,0,2022-10-05,2022-10-05,ＡＷＳホールディングス株式会社,,株式会社,兵庫県,神戸市中央区,小野浜町１－４－４０７号室,,28,110,6510082,,,,,,,2022-10-05,1,,,,,エーダブリューエスホールディングス,0
818,3140001127619,新規,0,2022-10-05,2022-10-05,株式会社イサム商会,,株式会社,兵庫県,西宮市,上大市５丁目２２－４－２０６,,28,204,6638003,,,,,,,2022-10-05,1,,,,,イサムショウカイ,0
821,3150001025854,新規,0,2022-10-05,2022-10-05,株式会社凌建設,,株式会社,奈良県,橿原市,膳夫町６３３番地の７,,29,205,6340012,,,,,,,2022-10-05,1,,,,,リョウケンセツ,0
822,3170001017313,新規,0,2022-10-05,2022-10-05,株式会社和英,,株式会社,和歌山県,和歌山市,三葛３１７番地,,30,201,6410011,,,,,,,2022-10-05,1,,,,,ワエイ,0
823,3170005006980,新規,0,2022-10-05,2022-10-05,一般社団法人貴志川いちご狩り園,,その他の設立登記法人,和歌山県,紀の川市,貴志川町神戸２３８番地,,30,208,6400413,,,,,,,2022-10-05,1,,,,,キシガワイチゴガリエン,0
827,3180001153181,新規,0,2022-10-05,2022-10-05,株式会社ケースタイル,,株式会社,愛知県,春日井市,月見町３９番地,,23,206,4860835,,,,,,,2022-10-05,1,,,,,ケースタイル,0
830,3180003024323,新規,0,2022-10-05,2022-10-05,合同会社横井コンサルタント,,合同会社,愛知県,名古屋市北区,大曽根１丁目１番１６号,,23,103,4620825,,,,,,,2022-10-05,1,,,,,ヨコイコンサルタント,0
837,3190003004101,新規,0,2022-10-05,2022-10-05,シュレー合同会社,,合同会社,三重県,名張市,木屋町１３８６番地５,,24,208,5180723,,,,,,,2022-10-05,1,,,,,シュレー,0
846,3220001025062,新規,0,2022-10-05,2022-10-05,株式会社ＨＡＰＰＹ,,株式会社,石川県,かほく市,学園台４丁目４２番地,,17,209,9291210,,,,,,,2022-10-05,1,,,,,ハッピー,0
851,3240001060470,新規,0,2022-10-05,2022-10-05,株式会社カードックタケモリ,,株式会社,広島県,東広島市,黒瀬町宗近柳国９７８番地１,,34,212,7392504,,,,,,,2022-10-05,1,,,,,カードックタケモリ,0
854,3240003005837,新規,0,2022-10-05,2022-10-05,合同会社ヤマネ,,合同会社,広島県,広島市中区,十日市町２丁目９番４号,,34,101,7300805,,,,,,,2022-10-05,1,,,,,ヤマネ,0
862,3260001037302,新規,0,2022-10-05,2022-10-05,株式会社アドバンスＤＳ,,株式会社,岡山県,岡山市南区,東畦１４５番地４５,,33,104,7010211,,,,,,,2022-10-05,1,,,,,アドバンスディーエス,0
866,3260003004052,新規,0,2022-10-05,2022-10-05,合同会社Ｙ＆Ｙ,,合同会社,岡山県,岡山市中区,中井３丁目２０番１０号,,33,102,7038205,,,,,,,2022-10-05,1,,,,,ワイアンドワイ,0
868,3280001008796,新規,0,2022-10-05,2022-10-05,株式会社Ｓｈｉｎｏ．,,株式会社,島根県,出雲市,今市町７４３番地１,,32,203,6930001,,,,,,,2022-10-05,1,,,,,シノ,0
872,3290001099075,新規,0,2022-10-05,2022-10-05,株式会社デジ改善,,株式会社,福岡県,福岡市博多区,博多駅中央街１－１アミュプラザ博多Ｂ１Ｆ　ＪＲ博多シティ,,40,132,8120012,,,,,,,2022-10-05,1,,,,,デジカイゼン,0
873,3290001099083,新規,0,2022-10-05,2022-10-05,ヒロ育株式会社,,株式会社,福岡県,筑紫野市,武蔵２丁目１番３号,,40,217,8180052,,,,,,,2022-10-05,1,,,,,ヒロイク,0
874,3290001099091,新規,0,2022-10-05,2022-10-05,株式会社宗建設,,株式会社,福岡県,朝倉市,上浦８４０番地,,40,228,8380057,,,,,,,2022-10-05,1,,,,,ソウケンセツ,0
875,3290001099100,新規,0,2022-10-05,2022-10-05,ＳＹＴ株式会社,,株式会社,福岡県,福岡市西区,今宿東１丁目１９番２７－２０６号,,40,135,8190161,,,,,,,2022-10-05,1,,,,,エスワイティ,0
879,3310001018057,新規,0,2022-10-05,2022-10-05,株式会社ＮＤＫホールディングス,,株式会社,長崎県,長崎市,栄町５番１１号,,42,201,8500875,,,,,,,2022-10-05,1,,,,,エヌデイケイホールディングス,0
885,3340003003921,新規,0,2022-10-05,2022-10-05,合同会社Ｔ＆Ｊ,,合同会社,鹿児島県,霧島市,国分川内３７１１番地,,46,218,8994314,,,,,,,2022-10-05,1,,,,,ティーアンドジェイ,0
892,3370003005849,新規,0,2022-10-05,2022-10-05,ルリエジャパン合同会社,,合同会社,宮城県,仙台市青葉区,本町１丁目５番２８号カーニープレイス仙台駅前通６０３号室,,04,101,9800014,,,,,,,2022-10-05,1,,,,,ルリエジャパン,0
894,3380001033149,新規,0,2022-10-05,2022-10-05,株式会社ＡＢＥ,,株式会社,福島県,南相馬市,原町区青葉町２丁目６２番地の３,,07,212,9750039,,,,,,,2022-10-05,1,,,,,,0
899,3400003002982,新規,0,2022-10-05,2022-10-05,東建築合同会社,,合同会社,岩手県,久慈市,侍浜町北野第１０地割８０番地４,,03,207,0287801,,,,,,,2022-10-05,1,,,,,ヒガシケンチク,0
904,3430001087585,新規,0,2022-10-05,2022-10-05,株式会社ｈａｎｐ　ｓｏｕｎｄ,,株式会社,北海道,札幌市北区,新琴似十二条１１丁目１０番１号,,01,102,0010912,,,,,,,2022-10-05,1,,,,,ハンプサウンド,0
905,3430005014577,新規,0,2022-10-05,2022-10-05,行政書士法人みなの木の花オフィス,,その他の設立登記法人,北海道,小樽市,花園４丁目１４番５号,,01,203,0470024,,,,,,,2022-10-05,1,,,,,ミナノコノハオフィス,0
909,3470001019279,新規,0,2022-10-05,2022-10-05,株式会社伊藤硝子店,,株式会社,香川県,観音寺市,大野原町大野原２１１７番地１,,37,205,7691611,,,,,,,2022-10-05,1,,,,,イトウガラステン,0
913,3500001024481,新規,0,2022-10-05,2022-10-05,株式会社長井機工,,株式会社,愛媛県,新居浜市,郷５丁目２番２７号,,38,205,7920886,,,,,,,2022-10-05,1,,,,,ナガイキコウ,0
914,3500001024507,新規,0,2022-10-05,2022-10-05,株式会社いよぎんホールディングス,,株式会社,愛媛県,松山市,南堀端町１番地,,38,201,7900006,,,,,,,2022-10-05,1,,,,,イヨギンホールディングス,0
915,3500001024515,新規,0,2022-10-05,2022-10-05,株式会社愛心,,株式会社,愛媛県,松山市,空港通１丁目４番１号,,38,201,7900054,,,,,,,2022-10-05,1,,,,,アイシン,0
916,3500001024523,新規,0,2022-10-05,2022-10-05,株式会社美・ｉｎｇ,,株式会社,愛媛県,松山市,清水町３丁目１５１番地３,,38,201,7900823,,,,,,,2022-10-05,1,,,,,ビーイング,0
922,3700150112034,新規,0,2022-10-05,2022-10-05,ＳＡＫＡＤＡ（Ｓｈｅｎｚｈｅｎ）Ｉｎｔｅｒｎａｔｉｏｎａｌ　Ｌｉｍｉｔｅｄ,,外国会社等,,,,,,,,Ｎｏ　７０８，Ｃ１　ｂｕｉｌｄｉｎｇ，Ｂａｎｔｉａｎ　Ｉｎｔｅｒｎａｔｉｏｎａｌ　Ｃｅｎｔｅｒ　Ｎｏ．５，Ｓｈｅｎｚｈｅｎ，Ｃｈｉｎａ,,,,,,2022-10-05,1,,,,,サカダシエンチエンインターナシヨナルリミテツド,0
931,4010001229889,新規,0,2022-10-05,2022-10-05,冨国総合研究所株式会社,,株式会社,東京都,中央区,築地１丁目８番４号,,13,102,1040045,,,,,,,2022-10-05,1,,,,,フコクソウゴウケンキュウジョ,0
932,4010001229906,新規,0,2022-10-05,2022-10-05,共生リゾート２号株式会社,,株式会社,東京都,千代田区,麹町２丁目５番地４,,13,101,1020083,,,,,,,2022-10-05,1,,,,,トモイキリゾートニゴウ,0
933,4010001229947,新規,0,2022-10-05,2022-10-05,株式会社創啓計画,,株式会社,東京都,中央区,銀座１丁目２２番１１号銀座大竹ビジデンス２階,,13,102,1040061,,,,,,,2022-10-05,1,,,,,ソウケイケイカク,0
937,4010003038792,新規,0,2022-10-05,2022-10-05,東京レジＥａｓｔ８合同会社,,合同会社,東京都,千代田区,丸の内３丁目１番１号東京共同会計事務所内,,13,101,1000005,,,,,,,2022-10-05,1,,,,,トウキョウレジイーストエイト,0
938,4010003038801,新規,0,2022-10-05,2022-10-05,ＦＩＲＥ　ＺＯＯＭ合同会社,,合同会社,東京都,中央区,勝どき５丁目３番１号,,13,102,1040054,,,,,,,2022-10-05,1,,,,,ファイヤーズーム,0
940,4010101015347,新規,0,2022-10-05,2022-10-05,アキハＩＰ株式会社,,株式会社,東京都,八王子市,みつい台１丁目１８－１１,,13,201,1920014,,,,,,,2022-10-05,1,,,,,アキハアイピー,0
948,4010401169974,新規,0,2022-10-05,2022-10-05,株式会社ｇｈｕｔｔｏ,,株式会社,東京都,港区,赤坂１丁目３－６赤坂グレースビル６Ｆ,,13,103,1070052,,,,,,,2022-10-05,1,,,,,ギュット,0
949,4010401170008,新規,0,2022-10-05,2022-10-05,ｍａｃａｎ　ａｓｓｅｔ株式会社,,株式会社,東京都,港区,南麻布２丁目１５番５号,,13,103,1060047,,,,,,,2022-10-05,1,,,,,マカンアセット,0
950,4010401170073,新規,0,2022-10-05,2022-10-05,株式会社ＮＯＡ,,株式会社,東京都,港区,六本木７丁目１７番３６号,,13,103,1060032,,,,,,,2022-10-05,1,,,,,ノア,0
954,4010403028609,新規,0,2022-10-05,2022-10-05,合同会社ｉｎｆｉｎｉｔｙ,,合同会社,東京都,港区,東新橋１丁目１０番１－４０４,,13,103,1050021,,,,,,,2022-10-05,1,,,,,インフィニティー,0
956,4010501049449,新規,0,2022-10-05,2022-10-05,株式会社プロボディ,,株式会社,東京都,台東区,北上野２丁目２４番１０号,,13,106,1100014,,,,,,,2022-10-05,1,,,,,プロボディ,0
961,4010601061948,新規,0,2022-10-05,2022-10-05,株式会社ＳｈｏｏｔｉｎｇＳｔａｒ,,株式会社,東京都,江東区,東砂８丁目１８番２２－４１６号,,13,108,1360074,,,,,,,2022-10-05,1,,,,,シューティングスター,0
962,4010603009763,新規,0,2022-10-05,2022-10-05,システムエキスパート合同会社,,合同会社,東京都,墨田区,業平５丁目１１番５－６０７号,,13,107,1300002,,,,,,,2022-10-05,1,,,,,システムエキスパート,0
966,4010803004300,新規,0,2022-10-05,2022-10-05,合同会社町工場総研,,合同会社,東京都,大田区,南六郷３丁目２２番１１号,,13,111,1440045,,,,,,,2022-10-05,1,,,,,マチコウバソウケン,0
968,4010901051715,新規,0,2022-10-05,2022-10-05,株式会社ＫＯＥＭＩＣＨＩ,,株式会社,東京都,世田谷区,奥沢７丁目２０番１３号メゾン・ド・ルミエール４０１,,13,112,1580083,,,,,,,2022-10-05,1,,,,,コエミチ,0
972,4011001150028,新規,0,2022-10-05,2022-10-05,株式会社ＢＥＬＬＩＳＳＩＭＡ,,株式会社,東京都,渋谷区,代官山町１２番地３号,,13,113,1500034,,,,,,,2022-10-05,1,,,,,ベリッシマ,0
973,4011001150052,新規,0,2022-10-05,2022-10-05,株式会社ウィズム,,株式会社,東京都,渋谷区,恵比寿２丁目１７番１６号ＨＪＰＬＡＣＥＥＢＩＳＵ１０２,,13,113,1500013,,,,,,,2022-10-05,1,,,,,ウィズム,0
982,4011101100353,新規,0,2022-10-05,2022-10-05,株式会社ＦａｉｒＰｒｉｃｅＦｏｒＥｖｅｒｙｏｎｅ,,株式会社,東京都,新宿区,西新宿３丁目３番１３号西新宿水間ビル６階,,13,104,1600023,,,,,,,2022-10-05,1,,,,,フィエアプライスフォーエブリワン,0
985,4011103012225,新規,0,2022-10-05,2022-10-05,合同会社５ｔｏＯ,,合同会社,東京都,新宿区,上落合１丁目１８番７－７０２号,,13,104,1610034,,,,,,,2022-10-05,1,,,,,ファイブトゥオー,0
986,4011103012233,新規,0,2022-10-05,2022-10-05,合同会社ＮＡＮＴＫＡ,,合同会社,東京都,新宿区,西新宿３丁目３番１３号西新宿水間ビル２Ｆ,,13,104,1600023,,,,,,,2022-10-05,1,,,,,ナントカ,0
987,4011401024574,新規,0,2022-10-05,2022-10-05,株式会社ＮＲ２,,株式会社,東京都,板橋区,蓮沼町２２番地５橋本コーポラス２０１,,13,119,1740052,,,,,,,2022-10-05,1,,,,,エムアールツ,0
988,4011501028517,新規,0,2022-10-05,2022-10-05,株式会社ｇｉｆｔ,,株式会社,東京都,荒川区,東尾久４丁目１０番１１号,,13,118,1160012,,,,,,,2022-10-05,1,,,,,ギフト,0
989,4011501028525,新規,0,2022-10-05,2022-10-05,スカイリミット株式会社,,株式会社,東京都,北区,滝野川７丁目２７－６田嶋ビル２０１号室,,13,117,1140023,,,,,,,2022-10-05,1,,,,,スカイリミット,0
991,4011601026271,新規,0,2022-10-05,2022-10-05,ＡＬａｉｚ株式会社,,株式会社,東京都,練馬区,早宮２丁目１７番２８号カーサ・プリモ２０１,,13,120,1790085,,,,,,,2022-10-05,1,,,,,アライズ,0
994,4012703002549,新規,0,2022-10-05,2022-10-05,わんテック合同会社,,合同会社,東京都,小平市,学園東町２丁目２－１８,,13,211,1870043,,,,,,,2022-10-05,1,,,,,ワンテック,0
1001,4013301049734,新規,0,2022-10-05,2022-10-05,株式会社アイユーアソシエイツ,,株式会社,東京都,豊島区,南池袋２丁目２８番１４号大和証券池袋ビル３Ｆ,,13,116,1710022,,,,,,,2022-10-05,1,,,,,アイユーアソシエイツ,0
1009,4020001148403,新規,0,2022-10-05,2022-10-05,株式会社ｓｏａ．,,株式会社,神奈川県,川崎市中原区,市ノ坪４４２番地,,14,133,2110016,,,,,,,2022-10-05,1,,,,,ソア,0
1010,4020003022507,新規,0,2022-10-05,2022-10-05,合同会社島住設,,合同会社,神奈川県,横浜市旭区,川井宿町２４番地２２,,14,112,2410804,,,,,,,2022-10-05,1,,,,,シマジュウセツ,0
1016,4030001150325,新規,0,2022-10-05,2022-10-05,株式会社新惠,,株式会社,埼玉県,八潮市,大字西袋６７３番地２８,,11,234,3400833,,,,,,,2022-10-05,1,,,,,シンケイ,0
1017,4030001150341,新規,0,2022-10-05,2022-10-05,株式会社Ｐａｒｉｅｓ,,株式会社,埼玉県,新座市,石神２丁目３番２１号リラフォートＢ２０１号室,,11,230,3520033,,,,,,,2022-10-05,1,,,,,パリエース,0
1018,4030001150358,新規,0,2022-10-05,2022-10-05,株式会社ランサーテクノ,,株式会社,埼玉県,川越市,大字山田１６２１－１モンドビル２Ｆ,,11,201,3500822,,,,,,,2022-10-05,1,,,,,ランサーテクノ,0
1021,4030003020328,新規,0,2022-10-05,2022-10-05,合同会社レイリー,,合同会社,埼玉県,上尾市,大字瓦葺２６７１番地１６レオパレス瓦葺１０６,,11,219,3620022,,,,,,,2022-10-05,1,,,,,レイリー,0
1022,4030005021002,新規,0,2022-10-05,2022-10-05,一般社団法人自然環境保全委員会,,その他の設立登記法人,埼玉県,川口市,朝日２丁目６番１２号,,11,203,3320001,,,,,,,2022-10-05,1,,,,,シゼンカンキョウホゼンイインカイ,0
1030,4040001125227,新規,0,2022-10-05,2022-10-05,朝山ポートサービス株式会社,,株式会社,千葉県,市原市,姉崎７９０番地１,,12,219,2990111,,,,,,,2022-10-05,1,,,,,アサヤマポートサービス,0
1031,4040001125301,新規,0,2022-10-05,2022-10-05,明和興業株式会社,,株式会社,千葉県,市原市,白金町１丁目５１番地４,,12,219,2900059,,,,,,,2022-10-05,1,,,,,メイワコウギョウ,0
1032,4040003020905,新規,0,2022-10-05,2022-10-05,ＭＹ　ＳＥＣＯＮＤ　ＦＬＯＯＲ合同会社,,合同会社,千葉県,浦安市,美浜３丁目８番１０号,,12,227,2790011,,,,,,,2022-10-05,1,,,,,マイセカンドフロア,0
1033,4040003020946,新規,0,2022-10-05,2022-10-05,合同会社Ｚｗｅｉ,,合同会社,千葉県,松戸市,古ケ崎２５７０－３６,,12,207,2710068,,,,,,,2022-10-05,1,,,,,ツヴァイ,0
1034,4040003020962,新規,0,2022-10-05,2022-10-05,合同会社Ｌ‐ＧＲＯＵＰ,,合同会社,千葉県,千葉市中央区,栄町３４番７号宮間ビル３階,,12,101,2600016,,,,,,,2022-10-05,1,,,,,エルグループ,0
1037,4060001035317,新規,0,2022-10-05,2022-10-05,株式会社ロックスパーク,,株式会社,栃木県,小山市,城山町３丁目６番地２５号ＳＥＫＥＮ,,09,208,3230025,,,,,,,2022-10-05,1,,,,,ロックスパーク,0
1038,4060003004253,新規,0,2022-10-05,2022-10-05,合同会社ＴＭＯ,,合同会社,栃木県,大田原市,小滝７２５,,09,210,3240003,,,,,,,2022-10-05,1,,,,,ティーエムオー,0
1039,4080001025225,新規,0,2022-10-05,2022-10-05,マグズデンキ株式会社,,株式会社,静岡県,島田市,伊太２１７８番地の１,,22,209,4270034,,,,,,,2022-10-05,1,,,,,マグズデンキ,0
1041,4080005007483,新規,0,2022-10-05,2022-10-05,一般社団法人あしたの森,,その他の設立登記法人,静岡県,静岡市葵区,若松町６６番地,,22,101,4200006,,,,,,,2022-10-05,1,,,,,アシタノモリ,0
1043,4080105006286,新規,0,2022-10-05,2022-10-05,医療法人社団木内会,,その他の設立登記法人,静岡県,沼津市,大手町５丁目９番１号富澤屋ビル１・２階,,22,203,4100801,,,,,,,2022-10-05,1,,,,,キウチカイ,0
1044,4080401026070,新規,0,2022-10-05,2022-10-05,株式会社ＤＣサポート,,株式会社,静岡県,湖西市,新居町中之郷１０６６番地の８,,22,221,4310301,,,,,,,2022-10-05,1,,,,,ディーシーサポート,0
1045,4080401026087,新規,0,2022-10-05,2022-10-05,株式会社ジェイレクス,,株式会社,静岡県,浜松市東区,薬師町４０８,,22,132,4350017,,,,,,,2022-10-05,1,,,,,ジェイレクス,0
1047,4110001037002,新規,0,2022-10-05,2022-10-05,株式会社ＳＥ塗装,,株式会社,新潟県,新潟市東区,本所１丁目８番５号２,,15,102,9500804,,,,,,,2022-10-05,1,,,,,エスイートソウ,0
1048,4110001037010,新規,0,2022-10-05,2022-10-05,株式会社ＭｏｏｎＬａｇｏｏｎ,,株式会社,新潟県,新潟市南区,木滑２１０１番地３,,15,106,9501311,,,,,,,2022-10-05,1,,,,,ムーンラグーン,0
1054,4120001249257,新規,0,2022-10-05,2022-10-05,大鴻株式会社,,株式会社,大阪府,大阪市東成区,深江北３丁目４番２１号エクラ深江橋４１０Ｃ,,27,115,5370001,,,,,,,2022-10-05,1,,,,,ダイコウ,0
1055,4120001249281,新規,0,2022-10-05,2022-10-05,よよ株式会社,,株式会社,大阪府,大阪市浪速区,難波中１丁目１８番１８号,,27,111,5560011,,,,,,,2022-10-05,1,,,,,ヨヨ,0
1059,4120003022562,新規,0,2022-10-05,2022-10-05,合同会社日華和平貿易,,合同会社,大阪府,大阪市天王寺区,小橋町１４－５４ローレルコートエスタ上本町１３０４号,,27,109,5430028,,,,,,,2022-10-05,1,,,,,ニッカワヘイボウエキ,0
1060,4120003022604,新規,0,2022-10-05,2022-10-05,テルモ医科歯科クリニック合同会社,,合同会社,大阪府,大阪市北区,本庄西１丁目１－７－３００６,,27,127,5310073,,,,,,,2022-10-05,1,,,,,テルモイカシカクリニック,0
1061,4120005023220,新規,0,2022-10-05,2022-10-05,弁理士法人いくみ特許事務所,,その他の設立登記法人,大阪府,大阪市淀川区,宮原４丁目５番３６号ＯＮＥＳＴ新大阪スクエア３Ｆ,,27,123,5320003,,,,,,,2022-10-05,1,,,,,イクミトッキョジムショ,0
1069,4120901046547,新規,0,2022-10-05,2022-10-05,株式会社ドリマシーズ,,株式会社,大阪府,箕面市,西小路３丁目１６番３号,,27,220,5620003,,,,,,,2022-10-05,1,,,,,ドリマシーズ,0
1070,4120901046563,新規,0,2022-10-05,2022-10-05,株式会社ＲＣＳ,,株式会社,大阪府,箕面市,石丸３丁目４番４５号,,27,220,5620027,,,,,,,2022-10-05,1,,,,,アールシーエス,0
1071,4120903004321,新規,0,2022-10-05,2022-10-05,合同会社グッドスペル,,合同会社,大阪府,三島郡島本町,広瀬２丁目２番３８号,,27,301,6180011,,,,,,,2022-10-05,1,,,,,グッドスペル,0
1080,4140001127510,新規,0,2022-10-05,2022-10-05,株式会社ＶＩＬＬＡＧＥ,,株式会社,兵庫県,姫路市,白国１丁目２１番６号,,28,201,6700808,,,,,,,2022-10-05,1,,,,,ビレッジ,0
1081,4140001127519,新規,0,2022-10-05,2022-10-05,株式会社にしとも,,株式会社,兵庫県,美方郡香美町,香住区若松７１１番地の１２,,28,585,6696543,,,,,,,2022-10-05,1,,,,,ニシトモ,0
1086,4150001025853,新規,0,2022-10-05,2022-10-05,奥田商会株式会社,,株式会社,奈良県,奈良市,北之庄西町２丁目１番地の５,,29,201,6308452,,,,,,,2022-10-05,1,,,,,オクダショウカイ,0
1087,4150003002784,新規,0,2022-10-05,2022-10-05,合同会社リペアサービス,,合同会社,奈良県,北葛城郡河合町,広瀬台２丁目１６番地１０,,29,427,6360073,,,,,,,2022-10-05,1,,,,,リペアサービス,0
1088,4150005009423,新規,0,2022-10-05,2022-10-05,一般社団法人天河斎庭,,その他の設立登記法人,奈良県,吉野郡天川村,大字坪内１０７番地,,29,446,6380321,,,,,,,2022-10-05,1,,,,,テンカワユニワ,0
1089,4160001024532,新規,0,2022-10-05,2022-10-05,株式会社カウンティコンサルティング,,株式会社,滋賀県,東近江市,林町２０番地１９,,25,213,5211224,,,,,,,2022-10-05,1,,,,,カウンティコンサルティング,0
1090,4160003002684,新規,0,2022-10-05,2022-10-05,千客万来合同会社,,合同会社,滋賀県,草津市,集町４番地,,25,206,5250015,,,,,,,2022-10-05,1,,,,,センキャクバンライ,0
1100,4180001153189,新規,0,2022-10-05,2022-10-05,日南工業株式会社,,株式会社,愛知県,東海市,加木屋町木之下１６６番地の１,,23,222,4770032,,,,,,,2022-10-05,1,,,,,ニチナンコウギョウ,0
1101,4180001153222,新規,0,2022-10-05,2022-10-05,株式会社日誠管工,,株式会社,愛知県,名古屋市南区,源兵衛町３丁目９番地の９,,23,112,4570804,,,,,,,2022-10-05,1,,,,,ニッセイカンコウ,0
1111,4200001040500,新規,0,2022-10-05,2022-10-05,那珂工業所株式会社,,株式会社,岐阜県,不破郡垂井町,表佐字大持野５８番地の２株式会社マキテック垂井工場ＰＣ事業部内,,21,361,5032122,,,,,,,2022-10-05,1,,,,,ナカコウギョウショ,0
1112,4200001040509,新規,0,2022-10-05,2022-10-05,株式会社日本開発,,株式会社,岐阜県,岐阜市,茜部大川１丁目３８番地,,21,201,5008282,,,,,,,2022-10-05,1,,,,,ニホンカイハツ,0
1113,4200003005690,新規,0,2022-10-05,2022-10-05,合同会社ＵＮＩＶＥＲＳＥ,,合同会社,岐阜県,山県市,高富１５９５番地５,,21,215,5012105,,,,,,,2022-10-05,1,,,,,ユニヴァース,0
1114,4220001025061,新規,0,2022-10-05,2022-10-05,株式会社サエサ,,株式会社,石川県,野々市市,粟田２丁目９３番地,,17,212,9218823,,,,,,,2022-10-05,1,,,,,サエサ,0
1122,4260001037284,新規,0,2022-10-05,2022-10-05,フォルトゥーナ株式会社,,株式会社,岡山県,倉敷市,老松町２丁目３番１４―７０３号,,33,202,7100826,,,,,,,2022-10-05,1,,,,,フォルトゥーナ,0
1123,4260001037292,新規,0,2022-10-05,2022-10-05,株式会社ＬＩＢＥＲＴＡ　Ｄｅｓｉｇｎ,,株式会社,岡山県,総社市,井手１０５０番地１,,33,208,7191125,,,,,,,2022-10-05,1,,,,,リベルタデザイン,0
1125,4260003004051,新規,0,2022-10-05,2022-10-05,合同会社日出ソーラー,,合同会社,岡山県,倉敷市,下庄７００番地１,,33,202,7010112,,,,,,,2022-10-05,1,,,,,ヒジソーラー,0
1126,4280001008795,新規,0,2022-10-05,2022-10-05,朝日プロテック株式会社,,株式会社,島根県,松江市,坂本町１５番地１０,,32,201,6900813,,,,,,,2022-10-05,1,,,,,アサヒプロテック,0
1133,4290001099025,新規,0,2022-10-05,2022-10-05,株式会社ＴＯＹＲＯＡＤ,,株式会社,福岡県,福岡市中央区,天神４丁目６－２８天神ファーストビル７階,,40,133,8100001,,,,,,,2022-10-05,1,,,,,トイロード,0
1134,4290001099082,新規,0,2022-10-05,2022-10-05,アルバトロス株式会社,,株式会社,福岡県,福岡市早良区,百道浜４丁目３１番１－１２０８号,,40,137,8140001,,,,,,,2022-10-05,1,,,,,アルバトロス,0
1135,4290001099090,新規,0,2022-10-05,2022-10-05,株式会社ワークサポート,,株式会社,福岡県,春日市,春日７丁目１番地,,40,218,8160814,,,,,,,2022-10-05,1,,,,,ワークサポート,0
1142,4290801028934,新規,0,2022-10-05,2022-10-05,株式会社ＫＳＮ,,株式会社,福岡県,北九州市若松区,大井戸町１４番２４号,,40,103,8080033,,,,,,,2022-10-05,1,,,,,ケイエスエヌ,0
1144,4310001018056,新規,0,2022-10-05,2022-10-05,株式会社まつお企画,,株式会社,長崎県,諫早市,小船越町１２５３番地６,,42,204,8540062,,,,,,,2022-10-05,1,,,,,マツオキカク,0
1145,4310001018064,新規,0,2022-10-05,2022-10-05,株式会社田中板金工作所,,株式会社,長崎県,長崎市,椎の木町１６番３０号,,42,201,8500947,,,,,,,2022-10-05,1,,,,,タナカバンキンコウサクショ,0
1147,4310003004459,新規,0,2022-10-05,2022-10-05,アンスリール合同会社,,合同会社,長崎県,諫早市,天満町２８番５号,,42,204,8540006,,,,,,,2022-10-05,1,,,,,アンスリール,0
1148,4320001019367,新規,0,2022-10-05,2022-10-05,トッパソースジャパン株式会社,,株式会社,大分県,大分市,森町西１丁目３番１０号,,44,201,8700140,,,,,,,2022-10-05,1,,,,,トッパソースジャパン,0
1152,4330003009539,新規,0,2022-10-05,2022-10-05,合同会社ジェントル麺,,合同会社,熊本県,熊本市中央区,黒髪３丁目３番２３号,,43,101,8600862,,,,,,,2022-10-05,1,,,,,ジェントルメン,0
1161,4380001033148,新規,0,2022-10-05,2022-10-05,相双開発株式会社,,株式会社,福島県,南相馬市,原町区牛来字久保２０５番地の１,,07,212,9750051,,,,,,,2022-10-05,1,,,,,ソウソウカイハツ,0
1163,4390001017026,新規,0,2022-10-05,2022-10-05,株式会社Ｌｉｔａｂｌｅ,,株式会社,山形県,山形市,城南町１丁目１‐１霞城セントラル２階,,06,201,9900827,,,,,,,2022-10-05,1,,,,,リタブル,0
1165,4400001016018,新規,0,2022-10-05,2022-10-05,株式会社トラック商会,,株式会社,岩手県,奥州市,水沢佐倉河字三反町６１番地,,03,215,0230003,,,,,,,2022-10-05,1,,,,,トラックショウカイ,0
1167,4400003002981,新規,0,2022-10-05,2022-10-05,合同会社東州工業,,合同会社,岩手県,奥州市,前沢字本杉１４１番地１,,03,215,0294204,,,,,,,2022-10-05,1,,,,,トウシュウコウギョウ,0
1177,4430001087576,新規,0,2022-10-05,2022-10-05,株式会社Ｌｏｇｉｃ　ｅｒｒｏｒ,,株式会社,北海道,札幌市中央区,南五条西３丁目８番地Ｎ・グランデビル２階,,01,101,0640805,,,,,,,2022-10-05,1,,,,,ロジックエラー,0
1178,4430001087592,新規,0,2022-10-05,2022-10-05,北海道未来図株式会社,,株式会社,北海道,札幌市手稲区,明日風４丁目１番２４号,,01,109,0060861,,,,,,,2022-10-05,1,,,,,ホッカイドウミライズ,0
1182,4430005014576,新規,0,2022-10-05,2022-10-05,一般社団法人札幌ｅスポーツ協会,,その他の設立登記法人,北海道,札幌市中央区,南四条西５丁目８番地８アイビルＩＩ７Ｆ,00128004,01,101,0640804,,,,,,,2022-10-05,1,,,,,サッポロイースポーツキョウカイ,0
1186,4450005004352,新規,0,2022-10-05,2022-10-05,医療法人社団マキタ歯科医院,,その他の設立登記法人,北海道,旭川市,四条通１１丁目２２３０番地マキタビル２Ｆ,,01,204,0700034,,,,,,,2022-10-05,1,,,,,マキタシカイイン,0
1190,4470001019278,新規,0,2022-10-05,2022-10-05,株式会社Ｎ．ｄｅｓｉｇｎ,,株式会社,香川県,高松市,川島東町１２０番地１,,37,201,7610443,,,,,,,2022-10-05,1,,,,,エヌデザイン,0
1197,4490001010301,新規,0,2022-10-05,2022-10-05,株式会社奨,,株式会社,高知県,高知市,口細山２０８番地４５,,39,201,7800963,,,,,,,2022-10-05,1,,,,,ショウ,0
1200,4500001024522,新規,0,2022-10-05,2022-10-05,Ｍ＆Ｍ・ｊｕｐｉｔｅｒ株式会社,,株式会社,愛媛県,松山市,小坂５丁目４番１１号Ｍ・ジュピタ６０１号,,38,201,7900963,,,,,,,2022-10-05,1,,,,,エムアンドエムジュピター,0
1203,4700150112033,新規,0,2022-10-05,2022-10-05,ＢＣＰＥ　Ｗｉｓｈ　ＧＰ，ＬＬＣ,,外国会社等,,,,,,,,Ｓｕｉｔｅ　３０２，４００１　Ｋｅｎｎｅｔｔ　Ｐｉｋｅ，Ｗｉｌｍｉｎｇｔｏｎ，Ｄｅｌａｗａｒｅ　１９８０７,,,,,,2022-10-05,1,,,,,ビーシーピーイーウイツシユジーピーエルエルシー,0
1210,5010001229905,新規,0,2022-10-05,2022-10-05,共生リゾート１号株式会社,,株式会社,東京都,千代田区,麹町２丁目５番地４,,13,101,1020083,,,,,,,2022-10-05,1,,,,,トモイキリゾートイチゴウ,0
1211,5010001229946,新規,0,2022-10-05,2022-10-05,株式会社ｂ＆ｓ,,株式会社,東京都,千代田区,神田佐久間町１丁目８番４号アルテール秋葉原７０８,,13,101,1010025,,,,,,,2022-10-05,1,,,,,ビーアンドエス,0
1214,5010003038791,新規,0,2022-10-05,2022-10-05,東京レジＥａｓｔ７合同会社,,合同会社,東京都,千代田区,丸の内３丁目１番１号東京共同会計事務所内,,13,101,1000005,,,,,,,2022-10-05,1,,,,,トウキョウレジイーストセブン,0
1223,5010401169924,新規,0,2022-10-05,2022-10-05,株式会社ＤｅｓｉｇｎＥｎｇ,,株式会社,東京都,港区,北青山２丁目７－１３プラセオ青山ビル３階,,13,103,1070061,,,,,,,2022-10-05,1,,,,,デザインエンジ,0
1224,5010401169998,新規,0,2022-10-05,2022-10-05,株式会社スマートオーダー,,株式会社,東京都,港区,芝浦２丁目１７番１３号保坂興産ビル６Ｆ,,13,103,1080023,,,,,,,2022-10-05,1,,,,,スマートオーダー,0
1225,5010401170048,新規,0,2022-10-05,2022-10-05,株式会社ドルフィン・バリュー・アップ７号,,株式会社,東京都,港区,芝公園１丁目１番１号住友不動産御成門タワー７階,,13,103,1050011,,,,,,,2022-10-05,1,,,,,ドルフィンバリューアップナナゴウ,0
1226,5010401170072,新規,0,2022-10-05,2022-10-05,株式会社Ｇｏ＆Ｃｏ．,,株式会社,東京都,港区,港南４丁目６番１－２００６号,,13,103,1080075,,,,,,,2022-10-05,1,,,,,ゴーアンドコー,0
1227,5010401170080,新規,0,2022-10-05,2022-10-05,株式会社ウェクフーズプランニング,,株式会社,東京都,港区,浜松町２丁目１０番１号浜松町ビル６階,,13,103,1050013,,,,,,,2022-10-05,1,,,,,ウェクフーズプランニング,0
1229,5010403028608,新規,0,2022-10-05,2022-10-05,パシフィコ・エナジー富士三次合同会社,,合同会社,東京都,港区,六本木３丁目２番１号六本木グランドタワー,,13,103,1060032,,,,,,,2022-10-05,1,,,,,パシフィコエナジーフジミヨシ,0
1230,5010403028616,新規,0,2022-10-05,2022-10-05,佐賀太陽光発電合同会社,,合同会社,東京都,港区,六本木７丁目１８番１５号六本木７１８ビル１１階,,13,103,1060032,,,,,,,2022-10-05,1,,,,,サガタイヨウコウハツデン,0
1231,5010403028649,新規,0,2022-10-05,2022-10-05,合同会社Ｐｏｗｅｒ　Ｈｏｕｓｅ,,合同会社,東京都,港区,白金台３丁目２番３４号,,13,103,1080071,,,,,,,2022-10-05,1,,,,,パワーハウス,0
1234,5010601061930,新規,0,2022-10-05,2022-10-05,株式会社スパイスエード,,株式会社,東京都,江東区,有明３丁目５番７号ＴＯＣ有明イーストタワー７階,,13,108,1350063,,,,,,,2022-10-05,1,,,,,スパイスエード,0
1237,5010701043291,新規,0,2022-10-05,2022-10-05,株式会社ｉｎＳＩＧＨＴＳ,,株式会社,東京都,品川区,大崎２丁目９番２－２３０１号,,13,109,1410032,,,,,,,2022-10-05,1,,,,,インサイツ,0
1239,5010703006404,新規,0,2022-10-05,2022-10-05,キーテック合同会社,,合同会社,東京都,品川区,八潮５丁目２番６－１００４号,,13,109,1400003,,,,,,,2022-10-05,1,,,,,キーテック,0
1240,5010705003432,新規,0,2022-10-05,2022-10-05,一般社団法人ドルトムント・サッカーアカデミー,,その他の設立登記法人,東京都,品川区,東品川２丁目３番１２号,,13,109,1400002,,,,,,,2022-10-05,1,,,,,ドルトムントサッカーアカデミー,0
1242,5010801033325,新規,0,2022-10-05,2022-10-05,株式会社たかもちげん漫画製作所,,株式会社,東京都,大田区,東矢口１丁目７番４号,,13,111,1460094,,,,,,,2022-10-05,1,,,,,タカモチゲンマンガセイサクショ,0
1243,5010803004299,新規,0,2022-10-05,2022-10-05,合同会社ＡＯＮＯＭＡＤＯ,,合同会社,東京都,大田区,蒲田１丁目３番２３号ＨＯＵＳＥ－Ｔ３０１,,13,111,1440052,,,,,,,2022-10-05,1,,,,,アオノマド,0
1244,5010901051722,新規,0,2022-10-05,2022-10-05,株式会社オリーブグラス,,株式会社,東京都,世田谷区,成城５丁目３番１３号,,13,112,1570066,,,,,,,2022-10-05,1,,,,,オリーブグラス,0
1245,5010903007689,新規,0,2022-10-05,2022-10-05,合同会社オフィス１,,合同会社,東京都,世田谷区,千歳台３丁目３０－１７－６０２,,13,112,1570071,,,,,,,2022-10-05,1,,,,,オフィスワン,0
1266,5011103012224,新規,0,2022-10-05,2022-10-05,合同会社香風,,合同会社,東京都,新宿区,西新宿３丁目３番１３号西新宿水間ビル６階,,13,104,1600023,,,,,,,2022-10-05,1,,,,,,0
1267,5011105010432,新規,0,2022-10-05,2022-10-05,一般社団法人よどばしエリアマネジメント,,その他の設立登記法人,東京都,新宿区,西新宿５丁目４番７号,,13,104,1600023,,,,,,,2022-10-05,1,,,,,ヨドバシエリアマネジメント,0
1274,5011301028138,新規,0,2022-10-05,2022-10-05,株式会社Ｂｕｅｎａ　Ｖｉｄａ,,株式会社,東京都,杉並区,成田東５丁目１５－１７,,13,115,1660015,,,,,,,2022-10-05,1,,,,,ブエナヴィーダ,0
1282,5011501028516,新規,0,2022-10-05,2022-10-05,株式会社大栄ホールディングス,,株式会社,東京都,北区,赤羽２丁目２１番５号,,13,117,1150045,,,,,,,2022-10-05,1,,,,,ダイエイホールディングス,0
1283,5011501028524,新規,0,2022-10-05,2022-10-05,株式会社ＹＵＫＩＯＮＯ,,株式会社,東京都,荒川区,町屋５丁目１４番地１４号,,13,118,1160001,,,,,,,2022-10-05,1,,,,,ユキオノ,0
1284,5011501028532,新規,0,2022-10-05,2022-10-05,漆佳茗貿易株式会社,00128005,株式会社,東京都,北区,田端新町１丁目７－１４ビズフィールド西日暮里２１３,,13,117,1140012,,,,,,,2022-10-05,1,,,,,シツカメイボウエキ,0
1286,5011603003706,新規,0,2022-10-05,2022-10-05,合同会社Ｐｒｏｄｕｃｔｉｏｎ　ＣＫ,,合同会社,東京都,練馬区,中村南２丁目２５番２１－４０５号,,13,120,1760025,,,,,,,2022-10-05,1,,,,,プロダクションシーケー,0
1287,5011605002474,新規,0,2022-10-05,2022-10-05,一般社団法人Ｓｕ‐Ｃｌｕ‐Ｌａｂ　Ｔｅｒｒａｃｅ,,その他の設立登記法人,東京都,練馬区,西大泉３丁目１６番６号,,13,120,1780065,,,,,,,2022-10-05,1,,,,,サクラボテラス,0
1290,5011703003275,新規,0,2022-10-05,2022-10-05,合同会社ｌｅ　ｓｈｉｋｕ,,合同会社,東京都,江戸川区,南葛西５丁目１３－１５,,13,123,1340085,,,,,,,2022-10-05,1,,,,,ラシク,0
1294,5012401039702,新規,0,2022-10-05,2022-10-05,株式会社クリエイティブ,,株式会社,東京都,府中市,本町１丁目１２番地の２オウズ御殿山３０２,,13,206,1830027,,,,,,,2022-10-05,1,,,,,クリエイティブ,0
1295,5012401039710,新規,0,2022-10-05,2022-10-05,株式会社ものづくりビジネスパートナーズ,,株式会社,東京都,小金井市,東町１丁目２７番８号,,13,210,1840011,,,,,,,2022-10-05,1,,,,,,0
1306,5020001148369,新規,0,2022-10-05,2022-10-05,株式会社ウィル・プランニング,,株式会社,神奈川県,横浜市磯子区,磯子３丁目１３番Ｋ－５１０号,,14,107,2350016,,,,,,,2022-10-05,1,,,,,ウィルプランニング,0
1307,5020001148427,新規,0,2022-10-05,2022-10-05,株式会社Ｏｎｅ　Ｓｅｅｄ,,株式会社,神奈川県,横浜市青葉区,美しが丘４丁目３９番地６７,,14,117,2250002,,,,,,,2022-10-05,1,,,,,ワンシード,0
1309,5020003022514,新規,0,2022-10-05,2022-10-05,合同会社ペラペラ,,合同会社,神奈川県,川崎市多摩区,菅野戸呂１番２－１０５号,,14,135,2140002,,,,,,,2022-10-05,1,,,,,ペラペラ,0
1317,5030001150282,新規,0,2022-10-05,2022-10-05,ＢｒｉｄｇｅＴｅｃｈ株式会社,,株式会社,埼玉県,さいたま市中央区,鈴谷５丁目６番２６－１号,,11,105,3380013,,,,,,,2022-10-05,1,,,,,ブリッジテック,0
1318,5030001150332,新規,0,2022-10-05,2022-10-05,マコト通信株式会社,,株式会社,埼玉県,朝霞市,岡３丁目１２番４３－５号,,11,227,3510007,,,,,,,2022-10-05,1,,,,,マコトツウシン,0
1319,5030001150365,新規,0,2022-10-05,2022-10-05,株式会社ＳＥＫＩＨＡＲＡ,,株式会社,埼玉県,ふじみ野市,ふじみ野３丁目１０番８号,,11,245,3560050,,,,,,,2022-10-05,1,,,,,セキハラ,0
1320,5030001150398,新規,0,2022-10-05,2022-10-05,藤井住設株式会社,,株式会社,埼玉県,坂戸市,大字小沼８０９番地１,,11,239,3500202,,,,,,,2022-10-05,1,,,,,フジイジュウセツ,0
1322,5030003020302,新規,0,2022-10-05,2022-10-05,合同会社ベーターシステム,,合同会社,埼玉県,さいたま市南区,辻３丁目１番２４号ピアリスマンション２０１号,00128009,11,108,3360026,,,,,,,2022-10-05,1,,,,,ベーターシステム,0
1325,5040001125226,新規,0,2022-10-05,2022-10-05,株式会社だるま,,株式会社,千葉県,市川市,柏井町１丁目１９２６番地（グラン・コート船橋法典３０２号）,,12,203,2720802,,,,,,,2022-10-05,1,,,,,ダルマ,0
1326,5040001125250,新規,0,2022-10-05,2022-10-05,株式会社ユナイテッドレイズ,,株式会社,千葉県,八街市,八街ろ９５番地６８,,12,230,2891144,,,,,,,2022-10-05,1,,,,,ユナイテッドレイズ,0
1327,5040001125317,新規,0,2022-10-05,2022-10-05,ファサードテック株式会社,,株式会社,千葉県,印西市,内野２丁目６番地４１棟１０８号,,12,231,2701347,,,,,,,2022-10-05,1,,,,,ファサードテック,0
1335,5060001035316,新規,0,2022-10-05,2022-10-05,株式会社ＦＲＵＣＴＵＳ,,株式会社,栃木県,下野市,医大前３丁目７番地１４,,09,216,3290403,,,,,,,2022-10-05,1,,,,,フラクタス,0
1338,5070001039704,新規,0,2022-10-05,2022-10-05,株式会社アクセント企画,,株式会社,群馬県,太田市,飯塚町１０８３番地１,,10,205,3730817,,,,,,,2022-10-05,1,,,,,アクセントキカク,0
1341,5080001025216,新規,0,2022-10-05,2022-10-05,株式会社サンクレド静岡,,株式会社,静岡県,藤枝市,郡１丁目８番１号,,22,214,4260016,,,,,,,2022-10-05,1,,,,,サンクレドシズオカ,0
1342,5080101023557,新規,0,2022-10-05,2022-10-05,株式会社アットグリーン,,株式会社,静岡県,富士宮市,万野原新田３３３１番地の１０,,22,207,4180001,,,,,,,2022-10-05,1,,,,,アットグリーン,0
1344,5080401026078,新規,0,2022-10-05,2022-10-05,株式会社ＫＡＭＯＫＵ　ＨＤ,,株式会社,静岡県,浜松市東区,中郡町９８５番地の１,,22,132,4313111,,,,,,,2022-10-05,1,,,,,カモクホールディングス,0
1346,5090001017807,新規,0,2022-10-05,2022-10-05,株式会社一,,株式会社,山梨県,甲斐市,竜王新町１０９９－１,,19,210,4000111,,,,,,,2022-10-05,1,,,,,イチ,0
1358,5120001249289,新規,0,2022-10-05,2022-10-05,みおつくし株式会社,,株式会社,大阪府,大阪市福島区,野田５丁目１７番１４号,,27,103,5530005,,,,,,,2022-10-05,1,,,,,ミオツクシ,0
1359,5120001249314,新規,0,2022-10-05,2022-10-05,ボレアス株式会社,,株式会社,大阪府,大阪市北区,小松原町３番３号ＯＳビル,,27,127,5300018,,,,,,,2022-10-05,1,,,,,ボレアス,0
1360,5120001249330,新規,0,2022-10-05,2022-10-05,ニシオレントオールＴＣ株式会社,,株式会社,大阪府,大阪市中央区,東心斎橋１丁目１１番１７号,,27,128,5420083,,,,,,,2022-10-05,1,,,,,ニシオレントオールティーシー,0
1366,5120901046570,新規,0,2022-10-05,2022-10-05,株式会社ＭＩＫＲＯ　ＷＥＬＴ,,株式会社,大阪府,豊中市,新千里西町２丁目１５番５号,,27,203,5600083,,,,,,,2022-10-05,1,,,,,マイクロヴェルト,0
1368,5120905006380,新規,0,2022-10-05,2022-10-05,一般社団法人箕面市建設業協会,,その他の設立登記法人,大阪府,箕面市,西小路３丁目１番１１号,,27,220,5620003,,,,,,,2022-10-05,1,,,,,ミノオシケンセツギョウキョウカイ,0
1371,5122001036287,新規,0,2022-10-05,2022-10-05,ソノコム株式会社,,株式会社,大阪府,東大阪市,森河内西１丁目２０番３２号,,27,227,5770061,,,,,,,2022-10-05,1,,,,,ソノコム,0
1383,5130003008196,新規,0,2022-10-05,2022-10-05,合同会社ＣＯＴＯＮＡＧＩ,,合同会社,京都府,京都市右京区,鳴滝桐ケ淵町８番地,,26,108,6168238,,,,,,,2022-10-05,1,,,,,コトナギ,0
1384,5140001127518,新規,0,2022-10-05,2022-10-05,株式会社ＳＲＦ,,株式会社,兵庫県,西宮市,北口町１番２号アクタ西宮東館４階,,28,204,6638035,,,,,,,2022-10-05,1,,,,,エスアールエフ,0
1385,5140001127633,新規,0,2022-10-05,2022-10-05,ＢＯＮＤホールディングス株式会社,,株式会社,兵庫県,神戸市兵庫区,島上町１丁目１番４号,,28,105,6520833,,,,,,,2022-10-05,1,,,,,ボンドホールディングス,0
1387,5150001025852,新規,0,2022-10-05,2022-10-05,株式会社おか田,,株式会社,奈良県,奈良市,今御門町２６番地の２,,29,201,6308374,,,,,,,2022-10-05,1,,,,,オカダ,0
1388,5150003002783,新規,0,2022-10-05,2022-10-05,合同会社ＧＡＴＥ,,合同会社,奈良県,宇陀市,榛原あかね台１丁目１４番の４,,29,212,6330256,,,,,,,2022-10-05,1,,,,,ゲート,0
1393,5180001153155,新規,0,2022-10-05,2022-10-05,株式会社相続不動産フルサポート,,株式会社,愛知県,名古屋市西区,名駅２丁目３４番１７号,,23,104,4510045,,,,,,,2022-10-05,1,,,,,ソウゾクフドウサンフルサポート,0
1394,5180001153254,新規,0,2022-10-05,2022-10-05,株式会社Ｓｃｒｉａｄ,,株式会社,愛知県,名古屋市千種区,仲田２丁目１７番７号池下タワーズ９０１号室,,23,101,4640074,,,,,,,2022-10-05,1,,,,,スクリア,0
1397,5180003024338,新規,0,2022-10-05,2022-10-05,合同会社Ｋ．Ｉ　Ｇｒｏｕｐ,,合同会社,愛知県,名古屋市東区,泉１丁目２１番２４号（プラウド久屋大通１１０２号）,,23,102,4610001,,,,,,,2022-10-05,1,,,,,ケーアイグループ,0
1413,5200001040490,新規,0,2022-10-05,2022-10-05,株式会社ＩＭＳアドバイザリー,,株式会社,岐阜県,恵那市,大井町２２６番地１４,,21,210,5097201,,,,,,,2022-10-05,1,,,,,アイエムエスアドバイザリー,0
1414,5200001040499,新規,0,2022-10-05,2022-10-05,株式会社Ｍ‐Ｐｌｕｓ,,株式会社,岐阜県,岐阜市,加納本石町３丁目７番地テイクオフビル３,,21,201,5008466,,,,,,,2022-10-05,1,,,,,エムプラス,0
1424,5220001025052,新規,0,2022-10-05,2022-10-05,株式会社ＤＩＶＥＤＩＶＥ,,株式会社,石川県,加賀市,大聖寺上福田町ハ８,,17,206,9220004,,,,,,,2022-10-05,1,,,,,ダイブダイブ,0
1425,5220001025060,新規,0,2022-10-05,2022-10-05,株式会社のろし,,株式会社,石川県,金沢市,本町２丁目１９番３３号,,17,201,9200853,,,,,,,2022-10-05,1,,,,,ノロシ,0
1428,5230001019540,新規,0,2022-10-05,2022-10-05,富中通商株式会社,,株式会社,富山県,富山市,布瀬町南１丁目８番地１,,16,201,9398208,,,,,,,2022-10-05,1,,,,,トミナカツウショウ,0
1431,5240001060444,新規,0,2022-10-05,2022-10-05,株式会社ウィズコンタクト,,株式会社,広島県,広島市佐伯区,皆賀１丁目６番１３号,,34,108,7315124,,,,,,,2022-10-05,1,,,,,ウィズコンタクト,0
1432,5240001060469,新規,0,2022-10-05,2022-10-05,株式会社Ｂｏｔｔｅｇａ　ｄｅｌ２９,,株式会社,広島県,広島市中区,幟町７番２９－１０１号,,34,101,7300016,,,,,,,2022-10-05,1,,,,,ボッテガニック,0
1433,5240001060477,新規,0,2022-10-05,2022-10-05,株式会社長弓産業,,株式会社,広島県,山県郡北広島町,阿坂字中堀田３８４０番１,,34,369,7311222,,,,,,,2022-10-05,1,,,,,ナガユミサンギョウ,0
1434,5240003005835,新規,0,2022-10-05,2022-10-05,府中建機合同会社,,合同会社,広島県,府中市,父石町３２６番地１,,34,208,7260035,,,,,,,2022-10-05,1,,,,,フチュウケンキ,0
1439,5260001037300,新規,0,2022-10-05,2022-10-05,株式会社片岡工業,,株式会社,岡山県,岡山市北区,掛畑４８番地１,,33,101,7011601,,,,,,,2022-10-05,1,,,,,カタオカコウギョウ,0
1441,5280001008794,新規,0,2022-10-05,2022-10-05,株式会社中山鮮魚店,,株式会社,島根県,浜田市,原井町３０５０番地４６,,32,202,6970017,,,,,,,2022-10-05,1,,,,,ナカヤマセンギョテン,0
1444,5290001099016,新規,0,2022-10-05,2022-10-05,福博防水工業株式会社,,株式会社,福岡県,糟屋郡宇美町,若草１丁目９番１４号,,40,341,8112124,,,,,,,2022-10-05,1,,,,,フクハクボウスイコウギョウ,0
1445,5290001099081,新規,0,2022-10-05,2022-10-05,株式会社リテラス,,株式会社,福岡県,福岡市中央区,天神４丁目６番２８号天神ファーストビル７階,,40,133,8100001,,,,,,,2022-10-05,1,,,,,リテラス,0
1446,5290001099098,新規,0,2022-10-05,2022-10-05,株式会社アールテックフクヤマ,,株式会社,福岡県,福岡市南区,弥永２丁目２番１号,,40,134,8111323,,,,,,,2022-10-05,1,,,,,アールテックフクヤマ,0
1447,5290001099115,新規,0,2022-10-05,2022-10-05,四海株式会社,,株式会社,福岡県,大野城市,大城２丁目１２番１６号,,40,219,8160911,,,,,,,2022-10-05,1,,,,,シカイ,0
1448,5290001099123,新規,0,2022-10-05,2022-10-05,株式会社レグレーヌ,,株式会社,福岡県,福岡市南区,曰佐３丁目３２番２４号,,40,134,8111313,,,,,,,2022-10-05,1,,,,,レグレーヌ,0
1450,5290801028941,新規,0,2022-10-05,2022-10-05,ヘルプサービス株式会社,,株式会社,福岡県,北九州市八幡東区,春の町５丁目１番１３－３０５号アクアコート八幡,,40,108,8050050,,,,,,,2022-10-05,1,,,,,ヘルプサービス,0
1460,5310001018063,新規,0,2022-10-05,2022-10-05,Ｂｒａｖｅ　Ｓｙｓｔｅｍ株式会社,,株式会社,長崎県,長崎市,高尾町２３番５９号,,42,201,8528111,,,,,,,2022-10-05,1,,,,,ブレイブシステム,0
1461,5310001018071,新規,0,2022-10-05,2022-10-05,エクスライフ株式会社,,株式会社,長崎県,諫早市,多良見町シーサイド３番地１１,,42,204,8590407,,,,,,,2022-10-05,1,,,,,エクスライフ,0
1467,5330001030157,新規,0,2022-10-05,2022-10-05,株式会社テイクルート,,株式会社,熊本県,熊本市中央区,古川町２４番地Ｐｒｉｍｅｖｅｒｅ慶徳８０１,,43,101,8600015,,,,,,,2022-10-05,1,,,,,テイクルート,0
1473,5340001025065,新規,0,2022-10-05,2022-10-05,株式会社さつまビルサービス,,株式会社,鹿児島県,鹿児島市,吉野町２７７２番地７,,46,201,8920871,,,,,,,2022-10-05,1,,,,,サツマビルサービス,0
1476,5350001017978,新規,0,2022-10-05,2022-10-05,株式会社輝光,,株式会社,宮崎県,都城市,一万城町２９号６番地,,45,202,8850041,,,,,,,2022-10-05,1,,,,,キコウ,0
1478,5350003004181,新規,0,2022-10-05,2022-10-05,合同会社菊池土地建物管理,,合同会社,宮崎県,宮崎市,南花ケ島町３４１番地１,,45,201,8800055,,,,,,,2022-10-05,1,,,,,キクチトチタテモノカンリ,0
1479,5360001031029,新規,0,2022-10-05,2022-10-05,株式会社ＧｅｍｉｎｏＳ,,株式会社,沖縄県,那覇市,真嘉比３丁目６－７マンション川島Ａ－１,,47,201,9020068,,,,,,,2022-10-05,1,,,,,ジェミノス,0
1480,5360001031037,新規,0,2022-10-05,2022-10-05,株式会社Ｆｌａｔ　ｇｏｏｄ,,株式会社,沖縄県,那覇市,金城１丁目３番地８,,47,201,9010155,,,,,,,2022-10-05,1,,,,,フラットグッド,0
1498,5410001013293,新規,0,2022-10-05,2022-10-05,株式会社地酒の村井,,株式会社,秋田県,秋田市,山王沼田町９番１４号,,05,201,0100954,,,,,,,2022-10-05,1,,,,,ジザケノムライ,0
1507,5460003000921,新規,0,2022-10-05,2022-10-05,合同会社Ｆａｖｏｒｉｔｏ,,合同会社,北海道,釧路市,末広町１１丁目１番１０号クローバービル２Ｆ,,01,206,0850014,,,,,,,2022-10-05,1,,,,,ファボリート,0
1509,5470001019277,新規,0,2022-10-05,2022-10-05,株式会社Ａ．ＳＨＩＲＯ,,株式会社,香川県,綾歌郡宇多津町,浜七番丁１０３番地１,,37,386,7690207,,,,,,,2022-10-05,1,,,,,アトリエシロ,0
1510,5490001010300,新規,0,2022-10-05,2022-10-05,株式会社高知ホテルマネジメント,,株式会社,高知県,高知市,九反田９番１５号,,39,201,7810832,,,,,,,2022-10-05,1,,,,,コウチホテルマネジメント,0
1513,5500001024505,新規,0,2022-10-05,2022-10-05,株式会社ハヤト建設,,株式会社,愛媛県,松山市,森松町７４９番地２,,38,201,7911113,,,,,,,2022-10-05,1,,,,,ハヤトケンセツ,0
1514,5500001024513,新規,0,2022-10-05,2022-10-05,株式会社なかた,,株式会社,愛媛県,松山市,空港通７丁目１４番４号,,38,201,7910054,,,,,,,2022-10-05,1,,,,,ナカタ,0
1515,5500001024521,新規,0,2022-10-05,2022-10-05,株式会社瀧谷型枠工業,,株式会社,愛媛県,西条市,樋之口１３番地１３,,38,206,7930043,,,,,,,2022-10-05,1,,,,,タキタニカタワクコウギョウ,0
1527,6010001229763,新規,0,2022-10-05,2022-10-05,株式会社信安,,株式会社,東京都,千代田区,霞が関３丁目２番５号,,13,101,1000013,,,,,,,2022-10-05,1,,,,,シンアン,0
1528,6010001229920,新規,0,2022-10-05,2022-10-05,古河Ｃ＆Ｆ株式会社,,株式会社,東京都,千代田区,大手町２丁目６番４号,,13,101,1000004,,,,,,,2022-10-05,1,,,,,フルカワシーアンドエフ,0
1529,6010001229945,新規,0,2022-10-05,2022-10-05,株式会社ＮＵＰ　ＷＨＩＴＥ,,株式会社,東京都,中央区,晴海３丁目１０番１号Ｄａｉｗａ晴海ビル２階,,13,102,1040053,,,,,,,2022-10-05,1,,,,,エヌユーピーホワイト,0
1532,6010003038808,新規,0,2022-10-05,2022-10-05,信愛合同会社,,合同会社,東京都,中央区,銀座４丁目５―１,,13,102,1040061,,,,,,,2022-10-05,1,,,,,シンアイ,0
1533,6010003038816,新規,0,2022-10-05,2022-10-05,合同会社フィエスタ,,合同会社,東京都,文京区,湯島３丁目３９番１０号第２大和ビル６階,,13,105,1130034,,,,,,,2022-10-05,1,,,,,フィエスタ,0
1535,6010005035621,新規,0,2022-10-05,2022-10-05,一般社団法人日本機械工具工業会,,その他の設立登記法人,東京都,千代田区,神田須田町２丁目２５番ＧＹＢ秋葉原１２階,,13,101,1010041,,,,,,,2022-10-05,1,,,,,ニホンキカイコウグコウギョウカイ,0
1544,6010401170030,新規,0,2022-10-05,2022-10-05,株式会社Ｈａｒｕｍｉ　Ｌａｎｄ,,株式会社,東京都,港区,麻布十番１丁目９番８号麻布根本ビル３Ｆ,,13,103,1060045,,,,,,,2022-10-05,1,,,,,ハルミランド,0
1545,6010401170055,新規,0,2022-10-05,2022-10-05,株式会社白州,,株式会社,東京都,港区,浜松町２丁目２番１５号浜松町ダイヤビル２階,,13,103,1050013,,,,,,,2022-10-05,1,,,,,ハクシュウ,0
1547,6010403028623,新規,0,2022-10-05,2022-10-05,境古河ファシリティ２合同会社,,合同会社,東京都,港区,六本木１丁目６番１号泉ガーデンタワー,,13,103,1060032,,,,,,,2022-10-05,1,,,,,サカイコガファシリティツー,0
1548,6010403028648,新規,0,2022-10-05,2022-10-05,合同会社ＴＴコーポレーション,,合同会社,東京都,港区,白金台３丁目２番３４号,,13,103,1080071,,,,,,,2022-10-05,1,,,,,ティーティーコーポレーション,0
1555,6010503006735,新規,0,2022-10-05,2022-10-05,ＷｏｒｌｄＣｏｎｔｒｉｂｕｔｉｏｎ合同会社,,合同会社,東京都,台東区,西浅草３丁目２７番１７号,,13,106,1110035,,,,,,,2022-10-05,1,,,,,ワールドコントリビューション,0
1558,6010601061946,新規,0,2022-10-05,2022-10-05,以奈場ホールディングス株式会社,,株式会社,東京都,江東区,辰巳３丁目１７番１７号,,13,108,1350053,,,,,,,2022-10-05,1,,,,,イナバホールディングス,0
1559,6010601061954,新規,0,2022-10-05,2022-10-05,株式会社オーシャントリニティ,,株式会社,東京都,江東区,海辺３番４号,,13,108,1350012,,,,,,,2022-10-05,1,,,,,オーシャントリニティ,0
1560,6010603009761,新規,0,2022-10-05,2022-10-05,ＭＲ合同会社,,合同会社,東京都,墨田区,石原４丁目１１－１２－３Ｆ,,13,107,1300011,,,,,,,2022-10-05,1,,,,,エムアール,0
1563,6010701043290,新規,0,2022-10-05,2022-10-05,株式会社ミトコンドリア,,株式会社,東京都,品川区,西五反田２丁目１５番２－６０１号,,13,109,1410031,,,,,,,2022-10-05,1,,,,,ミトコンドリア,0
1564,6010801033316,新規,0,2022-10-05,2022-10-05,株式会社ＹＫカンパニー,,株式会社,東京都,大田区,西蒲田８丁目４番２号ジーベック蒲田ステーションエグゼ１２０５号室,,13,111,1440051,,,,,,,2022-10-05,1,,,,,ワイケイカンパニー,0
1565,6010801033332,新規,0,2022-10-05,2022-10-05,ＡＳ株式会社,,株式会社,東京都,大田区,大森西４丁目６番８号,,13,111,1430015,,,,,,,2022-10-05,1,,,,,エーエス,0
1576,6011001150042,新規,0,2022-10-05,2022-10-05,株式会社コムシ・コムサ,,株式会社,東京都,渋谷区,千駄ヶ谷３丁目６２番７号,,13,113,1510051,,,,,,,2022-10-05,1,,,,,コムシコムサ,0
1577,6011001150050,新規,0,2022-10-05,2022-10-05,株式会社Ｖｉｓｉｏｎ　Ｆｒｅｅ,,株式会社,東京都,渋谷区,代官山町１３番８号キャッスルマンション代官山５１３号,,13,113,1500034,,,,,,,2022-10-05,1,,,,,ビジョンフリー,0
1578,6011001150075,新規,0,2022-10-05,2022-10-05,株式会社ＷＰ,,株式会社,東京都,渋谷区,上原１丁目３番９号,,13,113,1510064,,,,,,,2022-10-05,1,,,,,ダブリューピー,0
1579,6011001150083,新規,0,2022-10-05,2022-10-05,株式会社ＭＯＭＩＪＩ,,株式会社,東京都,渋谷区,恵比寿１丁目２４－１６カルチェ恵比寿４０３,,13,113,1500013,,,,,,,2022-10-05,1,,,,,モミジ,0
1588,6011101100384,新規,0,2022-10-05,2022-10-05,株式会社アドメディア,,株式会社,東京都,新宿区,西新宿７丁目１８番１９号新宿税理士ビル第二別館佐竹ビル３２３号,,13,104,1600023,,,,,,,2022-10-05,1,,,,,アドメディア,0
1589,6011101100392,新規,0,2022-10-05,2022-10-05,Ｖｉｒａｌ　Ｔｅｃｈ株式会社,,株式会社,東京都,新宿区,西新宿３丁目３番１３号西新宿水間ビル６階,,13,104,1600023,,,,,,,2022-10-05,1,,,,,バイラルテック,0
1590,6011101100418,新規,0,2022-10-05,2022-10-05,株式会社ＥＰＮｅｘｔＳ,,株式会社,東京都,新宿区,筑土八幡町２番１号,,13,104,1620815,,,,,,,2022-10-05,1,,,,,イーピーネクスト,0
1595,6011501028515,新規,0,2022-10-05,2022-10-05,株式会社日本ワニ農場,,株式会社,東京都,北区,志茂３丁目１７番１６号,,13,117,1150042,,,,,,,2022-10-05,1,,,,,ニホンワニノウジョウ,0
1596,6011503005306,新規,0,2022-10-05,2022-10-05,合同会社ＳＮＰ,,合同会社,東京都,荒川区,南千住６丁目４１番１０－９０３号,,13,118,1160003,,,,,,,2022-10-05,1,,,,,エスエヌピー,0
1602,6012401039701,新規,0,2022-10-05,2022-10-05,株式会社Ｐ．Ｒ．Ｎ,,株式会社,東京都,三鷹市,新川３丁目１７番５号ＣＲＥＳＳ２０１,,13,204,1810004,,,,,,,2022-10-05,1,,,,,ピーアールエヌ,0
1606,6013301049757,新規,0,2022-10-05,2022-10-05,株式会社ＰＤＬ,,株式会社,東京都,豊島区,南池袋２丁目６番１１号リヴァティ南池袋,,13,116,1710022,,,,,,,2022-10-05,1,,,,,ピーディーエル,0
1612,6020003022496,新規,0,2022-10-05,2022-10-05,合同会社Ｗａｌｌ　Ｂｒｅａｋｅｒ,,合同会社,神奈川県,川崎市中原区,木月大町１０番８号ギャラリーマンション栗原３０２,,14,133,2110031,,,,,,,2022-10-05,1,,,,,ウォールブレイカー,0
1623,6030001150380,新規,0,2022-10-05,2022-10-05,株式会社彩ソフト,,株式会社,埼玉県,さいたま市大宮区,桜木町２丁目５４０番地コーエイコーポ２Ｂ,,11,103,3300854,,,,,,,2022-10-05,1,,,,,イロドリソフト,0
1624,6030001150389,新規,0,2022-10-05,2022-10-05,株式会社Ｌｉｎｃ,,株式会社,埼玉県,鶴ヶ島市,大字下新田６２１番地３５２,,11,241,3502222,,,,,,,2022-10-05,1,,,,,リンク,0
1625,6030001150406,新規,0,2022-10-05,2022-10-05,羽洋株式会社,,株式会社,埼玉県,川口市,芝中田１丁目３５番１０－２０５号,,11,203,3330847,,,,,,,2022-10-05,1,,,,,ウヨウ,0
1628,6030003020318,新規,0,2022-10-05,2022-10-05,合同会社Ｐｉｖｏｔ,,合同会社,埼玉県,狭山市,大字南入曽１０５９番地３,,11,215,3501316,,,,,,,2022-10-05,1,,,,,ピボット,0
1640,6040001125324,新規,0,2022-10-05,2022-10-05,株式会社トライク,,株式会社,千葉県,千葉市稲毛区,稲毛町５丁目４６３番,,12,103,2630035,,,,,,,2022-10-05,1,,,,,トライク,0
1645,6040003020977,新規,0,2022-10-05,2022-10-05,ＢＴ　ＧＲＯＵＰ合同会社,,合同会社,千葉県,八千代市,勝田台北１丁目２０番１号ＳＯＮＧ１９－１０４,,12,221,2760020,,,,,,,2022-10-05,1,,,,,ビーティーグループ,0
1649,6080001025223,新規,0,2022-10-05,2022-10-05,株式会社カネタ,,株式会社,静岡県,榛原郡吉田町,川尻２１０９番地の１,,22,424,4210302,,,,,,,2022-10-05,1,,,,,カネタ,0
1651,6080003002880,新規,0,2022-10-05,2022-10-05,合同会社秋山金型,,合同会社,静岡県,榛原郡吉田町,神戸１１６７番地の１,,22,424,4210304,,,,,,,2022-10-05,1,,,,,アキヤマカナガタ,0
1654,6080401026085,新規,0,2022-10-05,2022-10-05,株式会社ＳＨＩＮＧＩ,,株式会社,静岡県,浜松市南区,参野町２９番地の７,,22,134,4300816,,,,,,,2022-10-05,1,,,,,シンギ,0
1656,6090003002178,新規,0,2022-10-05,2022-10-05,合同会社Ｔ．Ｓ．Ｔ,,合同会社,山梨県,甲府市,下曽根町４８５番地４,,19,201,4001508,,,,,,,2022-10-05,1,,,,,ティーエスティー,0
1660,6100001035748,新規,0,2022-10-05,2022-10-05,株式会社美和ライフネット,,株式会社,長野県,上田市,上田原１３３番地５,,20,203,3861102,,,,,,,2022-10-05,1,,,,,ミワライフネット,0
1663,6110001037009,新規,0,2022-10-05,2022-10-05,株式会社ｌｅａｐ　ｌａｂ．,,株式会社,新潟県,新潟市北区,すみれ野１丁目１番８号,,15,101,9503133,,,,,,,2022-10-05,1,,,,,リープラボ,0
1665,6110003004881,新規,0,2022-10-05,2022-10-05,合同会社ＡＯＢＡ,,合同会社,新潟県,上越市,名立区名立小泊５１０番地,,15,222,9491601,,,,,,,2022-10-05,1,,,,,アオバ,0
1681,6120901046561,新規,0,2022-10-05,2022-10-05,株式会社肉のマツカ,,株式会社,大阪府,吹田市,千里山月が丘４６番１１号,,27,205,5650847,,,,,,,2022-10-05,1,,,,,ニクノマツカ,0
1682,6122001036286,新規,0,2022-10-05,2022-10-05,株式会社ＭＧＯ,,株式会社,大阪府,東大阪市,加納７丁目９番１５号,,27,227,5780901,,,,,,,2022-10-05,1,,,,,エムジーオー,0
1689,6140001127517,新規,0,2022-10-05,2022-10-05,株式会社足立,,株式会社,兵庫県,三田市,けやき台３丁目１３番地９,,28,219,6691321,,,,,,,2022-10-05,1,,,,,アダチ,0
1690,6140001127533,新規,0,2022-10-05,2022-10-05,ＳＪホールディングス株式会社,,株式会社,兵庫県,尼崎市,西長洲町１丁目３番２０号,,28,202,6600805,,,,,,,2022-10-05,1,,,,,エスジェイホールディングス,0
1691,6140001127616,新規,0,2022-10-05,2022-10-05,株式会社ＤＭ　ｗｏｒｌｄ　ｏｆｆｉｃｅ,,株式会社,兵庫県,神戸市兵庫区,中道通６丁目３番１１－２号,,28,105,6520801,,,,,,,2022-10-05,1,,,,,ディーエムワールドオフィス,0
1696,6150001025851,新規,0,2022-10-05,2022-10-05,株式会社ＦＯＳＳ,,株式会社,奈良県,天理市,成願寺町３８１番地３,,29,204,6320058,,,,,,,2022-10-05,1,,,,,フォス,0
1711,6180001153179,新規,0,2022-10-05,2022-10-05,株式会社岩井屋,,株式会社,愛知県,岩倉市,本町上郷４４番地２,,23,228,4820043,,,,,,,2022-10-05,1,,,,,イワイヤ,0
1712,6180001153220,新規,0,2022-10-05,2022-10-05,株式会社リセントキャリア尾張,,株式会社,愛知県,小牧市,大字三ツ渕９００番地２ファインド舟橋２Ｆ,,23,219,4850075,,,,,,,2022-10-05,1,,,,,リセントキャリアオワリ,0
1713,6180001153253,新規,0,2022-10-05,2022-10-05,株式会社ｔＩＶＩＡ,,株式会社,愛知県,名古屋市中区,錦３丁目８番１９号ライフ錦ビル,,23,106,4600003,,,,,,,2022-10-05,1,,,,,ティビア,0
1716,6180003024295,新規,0,2022-10-05,2022-10-05,合同会社ＡＹＹ　ａｓｓｏｃｉａｔｅｓ,,合同会社,愛知県,名古屋市昭和区,御器所３丁目４－１３,,23,107,4660051,,,,,,,2022-10-05,1,,,,,エイワイワイアソッシエイツ,0
1717,6180003024337,新規,0,2022-10-05,2022-10-05,合同会社黎明,,合同会社,愛知県,名古屋市東区,葵１丁目１６番３０号,,23,102,4610004,,,,,,,2022-10-05,1,,,,,レイメイ,0
1725,6200001040498,新規,0,2022-10-05,2022-10-05,株式会社三洋建設,,株式会社,岐阜県,郡上市,八幡町柳町１８１番地７,,21,219,5014214,,,,,,,2022-10-05,1,,,,,サンヨウケンセツ,0
1726,6200001040515,新規,0,2022-10-05,2022-10-05,株式会社カーディアナ,,株式会社,岐阜県,揖斐郡池田町,田中３００番地の１,,21,404,5032403,,,,,,,2022-10-05,1,,,,,カーディアナ,0
1727,6200001040523,新規,0,2022-10-05,2022-10-05,株式会社ユウビィコネクト,,株式会社,岐阜県,不破郡垂井町,表佐１７７３番地,,21,361,5032122,,,,,,,2022-10-05,1,,,,,ユウビィコネクト,0
1730,6210005010059,新規,0,2022-10-05,2022-10-05,一般社団法人ブルーオーシャンシップ,,その他の設立登記法人,福井県,坂井市,三国町緑ケ丘４丁目７番３－８号,,18,210,9130048,,,,,,,2022-10-05,1,,,,,ブルーオーシャンシップ,0
1732,6220001025068,新規,0,2022-10-05,2022-10-05,経音株式会社,,株式会社,石川県,金沢市,円光寺３丁目２番３‐１０２号,,17,201,9218173,,,,,,,2022-10-05,1,,,,,キョウオン,0
1736,6240001060435,新規,0,2022-10-05,2022-10-05,株式会社ＭＯＲＫＳ,,株式会社,広島県,呉市,中通２丁目４番２号赤ビル１０３,,34,202,7370046,,,,,,,2022-10-05,1,,,,,モークス,0
1737,6240001060443,新規,0,2022-10-05,2022-10-05,株式会社Ｒｅ‐ＳＴＡＲＴ,,株式会社,広島県,広島市佐伯区,五日市中央７丁目１０番２９号１Ｆ,,34,108,7315128,,,,,,,2022-10-05,1,,,,,リスタート,0
1738,6240003005834,新規,0,2022-10-05,2022-10-05,合同会社ＬＡＴＴＥ,,合同会社,広島県,広島市安佐南区,大塚西３丁目８番１５－４号,,34,105,7313167,,,,,,,2022-10-05,1,,,,,ラテ,0
1741,6240005015468,新規,0,2022-10-05,2022-10-05,医療法人きたがわ歯科クリニック,,その他の設立登記法人,広島県,広島市安佐南区,祇園３丁目６４番６号,,34,105,7310138,,,,,,,2022-10-05,1,,,,,キタガワシカクリニック,0
1746,6280001008793,新規,0,2022-10-05,2022-10-05,株式会社中海林業,,株式会社,島根県,松江市,古曽志町１０６９番地５,,32,201,6900151,,,,,,,2022-10-05,1,,,,,チュウカイリンギョウ,0
1749,6290001099097,新規,0,2022-10-05,2022-10-05,株式会社潤成,,株式会社,福岡県,福岡市南区,塩原１丁目２２番１８号,,40,134,8150032,,,,,,,2022-10-05,1,,,,,ジュンセイ,0
1750,6290003012999,新規,0,2022-10-05,2022-10-05,合同会社Ｈｙ’ｓ,,合同会社,福岡県,福岡市博多区,博多駅南３丁目７番５‐３０１号レジデンシャルヒルズ博多南,,40,132,8120016,,,,,,,2022-10-05,1,,,,,ハイズ,0
1751,6290003013031,新規,0,2022-10-05,2022-10-05,合同会社ベンウッドパートナーズ,,合同会社,福岡県,福岡市西区,姪浜駅南２丁目２３番２８,,40,135,8190006,,,,,,,2022-10-05,1,,,,,ベンウッドパートナーズ,0
1752,6290801028940,新規,0,2022-10-05,2022-10-05,大沢自動車ガラス株式会社,,株式会社,福岡県,北九州市八幡西区,鷹の巣２丁目９番１６号,,40,109,8060047,,,,,,,2022-10-05,1,,,,,オオサワジドウシャガラス,0
1753,6290803004221,新規,0,2022-10-05,2022-10-05,合同会社シオン,,合同会社,福岡県,直方市,大字感田２７１２番地,,40,204,8220001,,,,,,,2022-10-05,1,,,,,シオン,0
1754,6310001018054,新規,0,2022-10-05,2022-10-05,株式会社今里＿工,00128013,株式会社,長崎県,佐世保市,中里町２８４番地２,,42,202,8580904,,,,,,,2022-10-05,1,,,,,イマザトテッコウ,0
1755,6310001018062,新規,0,2022-10-05,2022-10-05,株式会社ＮＡＶＩＣＵＳ九州,,株式会社,長崎県,長崎市,浜町２番１７号五島ビル４０１,,42,201,8500853,,,,,,,2022-10-05,1,,,,,ナビカスキュウシュウ,0
1757,6330003009537,新規,0,2022-10-05,2022-10-05,ホームラボ合同会社,,合同会社,熊本県,熊本市東区,東野３丁目１６番１７号,,43,102,8612106,,,,,,,2022-10-05,1,,,,,ホームラボ,0
1758,6340001025072,新規,0,2022-10-05,2022-10-05,株式会社コネクト,,株式会社,鹿児島県,姶良市,鍋倉１４７６番地３,,46,225,8995411,,,,,,,2022-10-05,1,,,,,コネクト,0
1759,6340001025080,新規,0,2022-10-05,2022-10-05,株式会社ＩＫテクニカル,,株式会社,鹿児島県,霧島市,隼人町松永２９１４番地,,46,218,8995112,,,,,,,2022-10-05,1,,,,,アイケイテクニカル,0
1762,6340003003919,新規,0,2022-10-05,2022-10-05,合同会社秀和産業,,合同会社,鹿児島県,南さつま市,加世田小湊８１５４番地,,46,220,8971122,,,,,,,2022-10-05,1,,,,,ヒデカズサンギョウ,0
1770,6360003012348,新規,0,2022-10-05,2022-10-05,合同会社沖昌会,,合同会社,沖縄県,豊見城市,宜保１丁目６番地６,,47,212,9010244,,,,,,,2022-10-05,1,,,,,オキショウカイ,0
1797,6430001087582,新規,0,2022-10-05,2022-10-05,子守熊株式会社,,株式会社,北海道,札幌市中央区,南三条西１２丁目３２５番地９,,01,101,0600063,,,,,,,2022-10-05,1,,,,,コモリグマ,0
1798,6430001087599,新規,0,2022-10-05,2022-10-05,株式会社Ａｘｘｅ,,株式会社,北海道,札幌市中央区,南七条西１丁目２３番地１－３０５号,,01,101,0640807,,,,,,,2022-10-05,1,,,,,アクシー,0
1802,6460003000920,新規,0,2022-10-05,2022-10-05,合同会社Ａｘｅｌ,,合同会社,北海道,釧路市,南大通３丁目２番１５号くしろ南大通マンション４０２,,01,206,0850841,,,,,,,2022-10-05,1,,,,,アクセル,0
1805,6480001011876,新規,0,2022-10-05,2022-10-05,株式会社ＹＫ,,株式会社,徳島県,徳島市,末広１丁目３番３８号,,36,201,7700866,,,,,,,2022-10-05,1,,,,,ワイケー,0
1811,6500001024504,新規,0,2022-10-05,2022-10-05,Ｒｓホールディングス株式会社,,株式会社,愛媛県,松山市,北久米町９８９番地１,,38,201,7900923,,,,,,,2022-10-05,1,,,,,アールエスホールディングス,0
1812,6500001024512,新規,0,2022-10-05,2022-10-05,株式会社安心ハウス,,株式会社,愛媛県,松山市,市坪南１丁目７番７号,,38,201,7900947,,,,,,,2022-10-05,1,,,,,アンシンハウス,0
1813,6500001024520,新規,0,2022-10-05,2022-10-05,池田プレス工業株式会社,,株式会社,愛媛県,伊予郡松前町,大字西高柳３６３番地１,,38,401,7913132,,,,,,,2022-10-05,1,,,,,イケダプレスコウギョウ,0
1819,6700150112023,新規,0,2022-10-05,2022-10-05,ＰＴ．ＩＳＳＨＯ　ＹＵＭＮＡＡ　ＭＡＪＵ,,外国会社等,静岡県,浜松市西区,入野町６２３４番地,,22,133,4328061,インドネシア国バンドン県チパライ郡、パクタンダン村、カンプンアンディルＲＴ００３／ＲＷ００８,,,,,,2022-10-05,1,,,,,ピーテイーイツシヨウユムナーマジユ,0
1831,7010001229878,新規,0,2022-10-05,2022-10-05,Ｊｏｏ　Ｒｅａｌ　Ｅｓｔａｔｅ株式会社,,株式会社,東京都,千代田区,麹町１丁目６番１６号半蔵門海和ビル９階,,13,101,1020083,,,,,,,2022-10-05,1,,,,,ジュウリアルエステート,0
1832,7010001229944,新規,0,2022-10-05,2022-10-05,健齢ヘルスケア株式会社,,株式会社,東京都,中央区,勝どき２丁目８番１２号東京ビュック中銀１２３３号室,,13,102,1040054,,,,,,,2022-10-05,1,,,,,ケンレイヘルスケア,0
1834,7010003038807,新規,0,2022-10-05,2022-10-05,ＣＲＡＦＴ　ＯＮＥ合同会社,,合同会社,東京都,文京区,千石１丁目１９番４号,,13,105,1120011,,,,,,,2022-10-05,1,,,,,クラフトワン,0
1838,7010103001994,新規,0,2022-10-05,2022-10-05,合同会社プラスワンシステムズ,,合同会社,東京都,八王子市,東浅川町６７４番地２９,,13,201,1930834,,,,,,,2022-10-05,1,,,,,プラスワンシステムズ,0
1844,7010401170038,新規,0,2022-10-05,2022-10-05,株式会社ＫｉＴ,,株式会社,東京都,港区,芝大門１丁目６番１０－２０３号,,13,103,1050012,,,,,,,2022-10-05,1,,,,,キット,0
1845,7010401170046,新規,0,2022-10-05,2022-10-05,メタリタ株式会社,,株式会社,東京都,港区,新橋３丁目１６番１２号第一横山ビル６階,,13,103,1050004,,,,,,,2022-10-05,1,,,,,メタリタ,0
1846,7010401170079,新規,0,2022-10-05,2022-10-05,楽天証券ホールディングス株式会社,,株式会社,東京都,港区,南青山２丁目６番２１号,,13,103,1070062,,,,,,,2022-10-05,1,,,,,ラクテンショウケンホールディングス,0
1847,7010403028606,新規,0,2022-10-05,2022-10-05,釧路市北園太陽光発電所合同会社,,合同会社,東京都,港区,港南２丁目１６番４号品川グランドセントラルタワー,,13,103,1080075,,,,,,,2022-10-05,1,,,,,クシロシキタゾノタイヨウコウハツデンショ,0
1848,7010403028622,新規,0,2022-10-05,2022-10-05,境古河ファシリティ１合同会社,,合同会社,東京都,港区,六本木１丁目６番１号泉ガーデンタワー,,13,103,1060032,,,,,,,2022-10-05,1,,,,,サカイコガファシリティワン,0
1855,7010601061953,新規,0,2022-10-05,2022-10-05,マルチインフォ株式会社,,株式会社,東京都,江東区,木場６丁目１２番５号,,13,108,1350042,,,,,,,2022-10-05,1,,,,,マルチインフォ,0
1857,7010901051729,新規,0,2022-10-05,2022-10-05,株式会社キュアグループ,,株式会社,東京都,世田谷区,野毛２丁目１５番１４号,,13,112,1580092,,,,,,,2022-10-05,1,,,,,キュアグループ,0
1858,7010903007679,新規,0,2022-10-05,2022-10-05,合同会社エピス,,合同会社,東京都,世田谷区,玉川２丁目７番３号２階,,13,112,1580094,,,,,,,2022-10-05,1,,,,,エピス,0
1859,7010903007687,新規,0,2022-10-05,2022-10-05,合同会社とんぼ,,合同会社,東京都,世田谷区,代田１丁目３２番１１号古平ハウス２０１,,13,112,1550033,,,,,,,2022-10-05,1,,,,,トンボ,0
1870,7011001150041,新規,0,2022-10-05,2022-10-05,株式会社ＦＲＥＥＫｉｃｋ,,株式会社,東京都,渋谷区,千駄ヶ谷３丁目１６番８号,,13,113,1510051,,,,,,,2022-10-05,1,,,,,,0
1871,7011003015457,新規,0,2022-10-05,2022-10-05,合同会社ＺＫＶクリエイティブ,,合同会社,東京都,渋谷区,円山町５－５－３階,,13,113,1500044,,,,,,,2022-10-05,1,,,,,ゼットケイブイクリエイティブ,0
1873,7011101100391,新規,0,2022-10-05,2022-10-05,株式会社Ｃ．ｎａｐｓ,,株式会社,東京都,新宿区,西早稲田３丁目１７番１９－４０５号,,13,104,1690051,,,,,,,2022-10-05,1,,,,,シナプス,0
1874,7011101100409,新規,0,2022-10-05,2022-10-05,ノンフリクション株式会社,,株式会社,東京都,新宿区,荒木町１３番地２四谷ＮＳビル４Ｆ,,13,104,1600007,,,,,,,2022-10-05,1,,,,,ノンフリクション,0
1887,7011503005305,新規,0,2022-10-05,2022-10-05,合同会社ｅｏｎ,,合同会社,東京都,北区,豊島３丁目２４番１１号,,13,117,1140003,,,,,,,2022-10-05,1,,,,,イオン,0
1888,7011601026277,新規,0,2022-10-05,2022-10-05,株式会社みなトモ,,株式会社,東京都,練馬区,小竹町２丁目４６番１３号,,13,120,1760004,,,,,,,2022-10-05,1,,,,,ミナトモ,0
1892,7011603003712,新規,0,2022-10-05,2022-10-05,合同会社渡辺工業,,合同会社,東京都,練馬区,中村３丁目１７番４号,,13,120,1760024,,,,,,,2022-10-05,1,,,,,ワタナベコウギョウ,0
1898,7011801041349,新規,0,2022-10-05,2022-10-05,株式会社ラ・トゥール,,株式会社,東京都,足立区,足立４丁目４１番５号,,13,121,1200015,,,,,,,2022-10-05,1,,,,,ラトゥール,0
1900,7012801021869,新規,0,2022-10-05,2022-10-05,株式会社カネコウ,,株式会社,東京都,昭島市,緑町４丁目８番３号,,13,207,1960004,,,,,,,2022-10-05,1,,,,,カネコウ,0
1905,7013301049756,新規,0,2022-10-05,2022-10-05,株式会社ビーシーエム,,株式会社,東京都,豊島区,南大塚３丁目３３番６号,,13,116,1700005,,,,,,,2022-10-05,1,,,,,ビーシーエム,0
1906,7013303006318,新規,0,2022-10-05,2022-10-05,合同会社Ｔ＆Ｒ,,合同会社,東京都,豊島区,巣鴨５丁目３９―１５,,13,116,1700002,,,,,,,2022-10-05,1,,,,,ティアンドアール,0
1908,7013305003387,新規,0,2022-10-05,2022-10-05,一般社団法人生きる命を大切にする会,,その他の設立登記法人,東京都,豊島区,南池袋１丁目２１番５号第７野萩ビルＢ１Ｆ,,13,116,1710022,,,,,,,2022-10-05,1,,,,,イキルイノチヲタイセツニスルカイ,0
1913,7020001148342,新規,0,2022-10-05,2022-10-05,Ｆｕｊｉ．Ｔｏｐ．Ｊａｐａｎ株式会社,,株式会社,神奈川県,川崎市川崎区,駅前本町１８番１号,,14,131,2100007,,,,,,,2022-10-05,1,,,,,フジトップジャパン,0
1914,7020001148400,新規,0,2022-10-05,2022-10-05,青麦株式会社,,株式会社,神奈川県,川崎市川崎区,池田１丁目７番５号ｍｈ１０３,,14,131,2100022,,,,,,,2022-10-05,1,,,,,アオムギ,0
1915,7020001148433,新規,0,2022-10-05,2022-10-05,株式会社エイジェイ,,株式会社,神奈川県,横浜市保土ケ谷区,法泉３丁目５番７号,,14,106,2400032,,,,,,,2022-10-05,1,,,,,エイジェイ,0
1919,7020003022495,新規,0,2022-10-05,2022-10-05,合同会社ＯＺＩＺＯキッチン,,合同会社,神奈川県,横浜市神奈川区,二ツ谷町１番１１号,,14,102,2210823,,,,,,,2022-10-05,1,,,,,オジゾウキッチン,0
1920,7021001077110,新規,0,2022-10-05,2022-10-05,株式会社ＤＷ,,株式会社,神奈川県,海老名市,国分南４丁目１番１４号,,14,215,2430405,,,,,,,2022-10-05,1,,,,,ディーダブル,0
1925,7030001150289,新規,0,2022-10-05,2022-10-05,株式会社ｂｉｚ‐ｌｅａｐ,,株式会社,埼玉県,所沢市,旭町１０番１２号,,11,208,3590036,,,,,,,2022-10-05,1,,,,,ビズリープ,0
1926,7030001150306,新規,0,2022-10-05,2022-10-05,株式会社薫る,,株式会社,埼玉県,朝霞市,根岸台３丁目１３番１９－８号,,11,227,3510005,,,,,,,2022-10-05,1,,,,,カオル,0
1927,7030001150322,新規,0,2022-10-05,2022-10-05,株式会社アルファパートナーズ,,株式会社,埼玉県,狭山市,新狭山２丁目８番９号,,11,215,3501331,,,,,,,2022-10-05,1,,,,,アルファパートナーズ,0
1928,7030001150347,新規,0,2022-10-05,2022-10-05,たいみつや株式会社,,株式会社,埼玉県,秩父郡横瀬町,大字横瀬６６２７番地２８,,11,361,3680072,,,,,,,2022-10-05,1,,,,,タイミツヤ,0
1929,7030001150363,新規,0,2022-10-05,2022-10-05,株式会社環境アナリシス,,株式会社,埼玉県,八潮市,八潮４丁目２１番地３,,11,234,3400815,,,,,,,2022-10-05,1,,,,,カンキョウアナリシス,0
1930,7030001150371,新規,0,2022-10-05,2022-10-05,株式会社コーワ,,株式会社,埼玉県,草加市,弁天１丁目２－７－５０１号,,11,221,3400004,,,,,,,2022-10-05,1,,,,,コーワ,0
1931,7030001150396,新規,0,2022-10-05,2022-10-05,株式会社ジェーライト,,株式会社,埼玉県,戸田市,喜沢南１丁目７番１号ＫＭハウス１０６,,11,224,3350014,,,,,,,2022-10-05,1,,,,,ジェーライト,0
1933,7030003020309,新規,0,2022-10-05,2022-10-05,合同会社エクレイト,,合同会社,埼玉県,川越市,南台２丁目６－１４第二原ビル,,11,201,3501165,,,,,,,2022-10-05,1,,,,,エクレイト,0
1934,7040001125216,新規,0,2022-10-05,2022-10-05,ＦＵＪＩ株式会社,,株式会社,千葉県,山武郡芝山町,新井田２３３－２１,,12,409,2891625,,,,,,,2022-10-05,1,,,,,フジ,0
1935,7040001125315,新規,0,2022-10-05,2022-10-05,株式会社ＹＨＫ,,株式会社,千葉県,大網白里市,南飯塚３０１番地２,,12,239,2993219,,,,,,,2022-10-05,1,,,,,ワイエイチケイ,0
1938,7040003020968,新規,0,2022-10-05,2022-10-05,Ｄｅｖｅｌｏｐｅｒ　Ｓｔｕｄｉｏ合同会社,,合同会社,千葉県,千葉市花見川区,南花園２丁目１１番１５号,,12,102,2620022,,,,,,,2022-10-05,1,,,,,デベロッパースタジオ,0
1939,7040003021000,新規,0,2022-10-05,2022-10-05,合同会社ＲＫＹ,,合同会社,千葉県,市原市,ちはら台東７丁目１１番地９５,,12,219,2900141,,,,,,,2022-10-05,1,,,,,アールケーワイ,0
1942,7050005013151,新規,0,2022-10-05,2022-10-05,一般社団法人地域創生人財育成学舎,,その他の設立登記法人,茨城県,石岡市,柿岡１８６３番地,,08,205,3150116,,,,,,,2022-10-05,1,,,,,チイキソウセイジンザイイクセイガクシャ,0
1945,7060001035322,新規,0,2022-10-05,2022-10-05,株式会社勝和,,株式会社,栃木県,宇都宮市,飯田町２５９番地１４６,,09,201,3210347,,,,,,,2022-10-05,1,,,,,ショウワ,0
1946,7060005010016,新規,0,2022-10-05,2022-10-05,医療法人とみざわ歯科,,その他の設立登記法人,栃木県,下野市,文教３丁目８番地８,,09,216,3290507,,,,,,,2022-10-05,1,,,,,トミザワシカ,0
1951,7080401026076,新規,0,2022-10-05,2022-10-05,株式会社堀電気,,株式会社,静岡県,浜松市南区,中田島町２８２番地の３,,22,134,4300845,,,,,,,2022-10-05,1,,,,,ホリデンキ,0
1955,7110001037008,新規,0,2022-10-05,2022-10-05,株式会社ＫＲＫ,,株式会社,新潟県,新潟市北区,嘉山６丁目９番７号,,15,101,9503322,,,,,,,2022-10-05,1,,,,,ケイアールケイ,0
1968,7120001249287,新規,0,2022-10-05,2022-10-05,時水株式会社,,株式会社,大阪府,大阪市中央区,南船場１丁目１６番２３号３０３,,27,128,5420081,,,,,,,2022-10-05,1,,,,,トキスイ,0
1969,7120001249295,新規,0,2022-10-05,2022-10-05,株式会社ｔｉｇｒｉｓ,,株式会社,大阪府,大阪市中央区,高麗橋４丁目８番１０－８０１号,,27,128,5410043,,,,,,,2022-10-05,1,,,,,チグリス,0
1970,7120001249329,新規,0,2022-10-05,2022-10-05,西尾レントオール分割準備株式会社,,株式会社,大阪府,大阪市中央区,東心斎橋１丁目１１番１７号,,27,128,5420083,,,,,,,2022-10-05,1,,,,,ニシオレントオールブンカツジュンビ,0
1972,7120005023218,新規,0,2022-10-05,2022-10-05,一般社団法人日本関西福建経済文化促進会,,その他の設立登記法人,大阪府,大阪市浪速区,大国２丁目１５番１８号３Ｆ,,27,111,5560014,,,,,,,2022-10-05,1,,,,,ニホンカンサイフッケンケイザイブンカソクシンカイ,0
1975,7120901046560,新規,0,2022-10-05,2022-10-05,株式会社Ｔ＆Ｒ,,株式会社,大阪府,豊中市,服部元町１丁目３番１０号,,27,203,5610851,,,,,,,2022-10-05,1,,,,,ティーアンドアール,0
1980,7130001072738,新規,0,2022-10-05,2022-10-05,株式会社キャピタル・デザイン・インテグレーションズ,,株式会社,京都府,京都市下京区,西洞院通木津屋橋上る東塩小路町６０７番地１辰巳ビル２階Ｂ号室,,26,106,6008216,,,,,,,2022-10-05,1,,,,,キャピタルデザインインテグレーションズ,0
1981,7140001127524,新規,0,2022-10-05,2022-10-05,株式会社ｍｅ‐ｒｏｗ’ｓ,,株式会社,兵庫県,西宮市,上大市２丁目１１番２２号,,28,204,6638003,,,,,,,2022-10-05,1,,,,,メロウズ,0
1982,7140001127532,新規,0,2022-10-05,2022-10-05,株式会社きらめき,,株式会社,兵庫県,伊丹市,南本町２丁目２番２１号,,28,207,6640852,,,,,,,2022-10-05,1,,,,,キラメキ,0
1983,7140001127540,新規,0,2022-10-05,2022-10-05,株式会社ｌｉｂｅｒｔｅ,,株式会社,兵庫県,神戸市北区,西大池２丁目８番７１号,,28,109,6511201,,,,,,,2022-10-05,1,,,,,リベルテ,0
1984,7140001127607,新規,0,2022-10-05,2022-10-05,株式会社みらい防災計画,,株式会社,兵庫県,神戸市中央区,御幸通２丁目１番６号,,28,110,6510087,,,,,,,2022-10-05,1,,,,,ミライボウサイケイカク,0
1985,7140001127623,新規,0,2022-10-05,2022-10-05,ジーエスワン株式会社,,株式会社,兵庫県,伊丹市,伊丹４丁目６番２０号,,28,207,6640846,,,,,,,2022-10-05,1,,,,,ジーエスワン,0
1986,7140003018184,新規,0,2022-10-05,2022-10-05,合同会社心清,,合同会社,兵庫県,神戸市灘区,大和町４丁目５番２２号,,28,102,6570031,,,,,,,2022-10-05,1,,,,,シンセイ,0
1988,7150001025850,新規,0,2022-10-05,2022-10-05,株式会社Ｏｍｅｇａ　Ｐｒｏｄｕｃｔｓ,,株式会社,奈良県,奈良市,学園朝日町１番,,29,201,6310016,,,,,,,2022-10-05,1,,,,,オメガプロダクツ,0
1994,7180001153236,新規,0,2022-10-05,2022-10-05,株式会社ＬＩＢＥＲＯ,,株式会社,愛知県,稲沢市,大塚南５丁目１番地３,,23,220,4928214,,,,,,,2022-10-05,1,,,,,リベロ,0
1995,7180001153252,新規,0,2022-10-05,2022-10-05,株式会社Ａｉｍｅｒｒｙ,,株式会社,愛知県,名古屋市千種区,春岡１丁目１８番１３号（グリーンハイツ春岡３０２号）,,23,101,4640848,,,,,,,2022-10-05,1,,,,,アイメリー,0
1996,7180001153260,新規,0,2022-10-05,2022-10-05,岩嶋薬品株式会社,,株式会社,愛知県,稲沢市,長野１丁目４番４－７１０号,,23,220,4928142,,,,,,,2022-10-05,1,,,,,イワシマヤクヒン,0
2000,7180003024328,新規,0,2022-10-05,2022-10-05,合同会社ｔｅｎ　ｃｏｎｓｕｌｔｉｎｇ,,合同会社,愛知県,名古屋市中村区,名駅１丁目１番１号ＪＰタワー名古屋２１階,,23,105,4500002,,,,,,,2022-10-05,1,,,,,テンコンサルティング,0
2004,7190001029807,新規,0,2022-10-05,2022-10-05,株式会社お日さま,,株式会社,三重県,津市,高茶屋２丁目３５番９号,,24,201,5140819,,,,,,,2022-10-05,1,,,,,オヒサマ,0
2014,7200001040514,新規,0,2022-10-05,2022-10-05,株式会社シナジー,,株式会社,岐阜県,揖斐郡池田町,宮地４６５番地,,21,404,5032406,,,,,,,2022-10-05,1,,,,,シナジー,0
2016,7200003005688,新規,0,2022-10-05,2022-10-05,ポチの舎おかだ合同会社,,合同会社,岐阜県,羽島市,桑原町西小薮１丁目１３２番地,,21,209,5016327,,,,,,,2022-10-05,1,,,,,ポチノイエオカダ,0
2019,7220001025059,新規,0,2022-10-05,2022-10-05,株式会社まるよう工建,,株式会社,石川県,金沢市,西念３丁目１１番１０号,,17,201,9200024,,,,,,,2022-10-05,1,,,,,マルヨウコウケン,0
2022,7240001060434,新規,0,2022-10-05,2022-10-05,株式会社ＥＡＲＴＨ　ＢＥＲＲＹ　ＣＯＦＦＥＥ,,株式会社,広島県,東広島市,西条昭和町６番２号ラフィーネ昭和町１Ｆ,,34,212,7390014,,,,,,,2022-10-05,1,,,,,アースベリーコーヒー,0
2033,7260001037307,新規,0,2022-10-05,2022-10-05,株式会社ＮＩＮＴＨ,,株式会社,岡山県,倉敷市,中島９２５番地１６,,33,202,7100803,,,,,,,2022-10-05,1,,,,,ナインス,0
2041,7290001099088,新規,0,2022-10-05,2022-10-05,株式会社岩木研磨,,株式会社,福岡県,筑後市,大字前津１５６８番地７,,40,211,8330002,,,,,,,2022-10-05,1,,,,,イワキケンマ,0
2042,7290001099096,新規,0,2022-10-05,2022-10-05,株式会社リトルスクール,,株式会社,福岡県,福岡市早良区,西新２丁目６番２号,,40,137,8140002,,,,,,,2022-10-05,1,,,,,リトルスクール,0
2050,7290803004220,新規,0,2022-10-05,2022-10-05,合同会社Ｍテック,,合同会社,福岡県,北九州市小倉北区,常盤町２番１４－３０２号,,40,106,8020035,,,,,,,2022-10-05,1,,,,,エムテック,0
2054,7320001019364,新規,0,2022-10-05,2022-10-05,株式会社Ｋ．Ｃ．Ｓ,,株式会社,大分県,大分市,大字中戸次５８０２番地の１ミレニアムＫＡＮ－ＩＡ２０１,00128006,44,201,8797761,,,,,,,2022-10-05,1,,,,,ケーシーエス,0
2056,7330001030171,新規,0,2022-10-05,2022-10-05,株式会社青光・龍,,株式会社,熊本県,球磨郡錦町,大字木上東１６７６番地,,43,501,8680301,,,,,,,2022-10-05,1,,,,,セイコウリュウ,0
2067,7350001017976,新規,0,2022-10-05,2022-10-05,株式会社ＭＵＲＯ,,株式会社,宮崎県,宮崎市,江南４丁目１４番１７号,,45,201,8800944,,,,,,,2022-10-05,1,,,,,ムロ,0
2070,7350005006100,新規,0,2022-10-05,2022-10-05,一般社団法人中村パートナーズ,,その他の設立登記法人,宮崎県,都城市,高木町７１９５番地１,,45,202,8850003,,,,,,,2022-10-05,1,,,,,ナカムラパートナーズ,0
2074,7380003005282,新規,0,2022-10-05,2022-10-05,合同会社Ｉ＆Ｓ,,合同会社,福島県,二本松市,平石高田１丁目４２７番地３,,07,210,9640981,,,,,,,2022-10-05,1,,,,,,0
2091,7430001087581,新規,0,2022-10-05,2022-10-05,株式会社マルヨシ企画,,株式会社,北海道,札幌市南区,簾舞三条５丁目１番１２号,,01,106,0612263,,,,,,,2022-10-05,1,,,,,,0
2100,7430003014328,新規,0,2022-10-05,2022-10-05,合同会社大友,,合同会社,北海道,札幌市中央区,南十一条西１７丁目３番６‐３０２号,,01,101,0640811,,,,,,,2022-10-05,1,,,,,オオトモ,0
2101,7430005014573,新規,0,2022-10-05,2022-10-05,特定非営利活動法人北海道心不全医療連携アカデミー,,その他の設立登記法人,北海道,札幌市中央区,旭ケ丘５丁目５番３号,,01,101,0640941,,,,,,,2022-10-05,1,,,,,ホッカイドウシンフゼンイリョウレンケイアカデミー,0
2103,7450001013809,新規,0,2022-10-05,2022-10-05,株式会社ＤＰＮ,,株式会社,北海道,旭川市,豊岡四条４丁目２番１７号,,01,204,0788234,,,,,,,2022-10-05,1,,,,,ディーピーエヌ,0
2106,7470001019283,新規,0,2022-10-05,2022-10-05,ＩＩＯ　ＨＲ株式会社,,株式会社,香川県,高松市,屋島西町６７８番地８３アルファシティ屋島弐番館７０６号室,,37,201,7610113,,,,,,,2022-10-05,1,,,,,アイアイオーエイチアール,0
2111,7490005006862,新規,0,2022-10-05,2022-10-05,一般社団法人しまんと街おこし応援団,,その他の設立登記法人,高知県,高岡郡四万十町,本町２番１号,,39,412,7860005,,,,,,,2022-10-05,1,,,,,シマントマチオコシオウエンダン,0
2112,7500001024511,新規,0,2022-10-05,2022-10-05,株式会社ＨＩＲＯ’Ｓ,,株式会社,愛媛県,松山市,別府町６４６番地６,,38,201,7918056,,,,,,,2022-10-05,1,,,,,ヒーローズ,0
2121,8010001229910,新規,0,2022-10-05,2022-10-05,ＳＩＳジャパン株式会社,,株式会社,東京都,千代田区,麹町４丁目５番地７麹町パークハウス３階,,13,101,1020083,,,,,,,2022-10-05,1,,,,,エスアイエスジャパン,0
2122,8010001229943,新規,0,2022-10-05,2022-10-05,ＪＡ全農くみあい飼料ホールディングス株式会社,,株式会社,東京都,千代田区,大手町１丁目３番１号,,13,101,1000004,,,,,,,2022-10-05,1,,,,,ジェイエイゼンノウクミアイシリョウホールディングス,0
2124,8010003038806,新規,0,2022-10-05,2022-10-05,合同会社ＳＨＩＥＮ,,合同会社,東京都,文京区,千石３丁目２８番１５－４０１号,,13,105,1120011,,,,,,,2022-10-05,1,,,,,シエン,0
2136,8010401170020,新規,0,2022-10-05,2022-10-05,株式会社ＧＡＯＮＣＨＩＰＳ　ＪＡＰＡＮ,,株式会社,東京都,港区,港南２丁目１６番５号,,13,103,1080075,,,,,,,2022-10-05,1,,,,,ガオンチップスジャパン,0
2137,8010401170037,新規,0,2022-10-05,2022-10-05,株式会社ＵＮＩＳＭＩＬＥ,,株式会社,東京都,港区,南青山３丁目１番３６号青山丸竹ビル６Ｆ,,13,103,1070062,,,,,,,2022-10-05,1,,,,,ユニースマイル,0
2142,8010405021450,新規,0,2022-10-05,2022-10-05,虎ノ門フォー特定目的会社,,その他の設立登記法人,東京都,港区,虎ノ門３丁目２２番１０－２０１号,,13,103,1050001,,,,,,,2022-10-05,1,,,,,トラノモンフォー,0
2144,8010501049445,新規,0,2022-10-05,2022-10-05,株式会社アップモウストシステム東京,,株式会社,東京都,台東区,西浅草３丁目２８－１４－５０８,,13,106,1110035,,,,,,,2022-10-05,1,,,,,アップモウストシステムトウキョウ,0
2145,8010503006733,新規,0,2022-10-05,2022-10-05,合同会社ヒポクラテス,,合同会社,東京都,台東区,浅草橋３丁目２８－１２グランシティ浅草橋ＩＩ３０３号室,00128007,13,106,1110053,,,,,,,2022-10-05,1,,,,,ヒポクラテス,0
2148,8010603009751,新規,0,2022-10-05,2022-10-05,明治屋合同会社,,合同会社,東京都,江東区,亀戸３丁目４７番１６号,,13,108,1360071,,,,,,,2022-10-05,1,,,,,メイジヤ,0
2149,8010603009768,新規,0,2022-10-05,2022-10-05,合同会社Ｂｅｅｒ　Ｖｉｓｔａ　Ｂｒｅｗｅｒｙ,,合同会社,東京都,江東区,常盤２丁目１３番１７号トキワハイツ１階,,13,108,1350006,,,,,,,2022-10-05,1,,,,,ビアビスタブリュワリー,0
2150,8010701043289,新規,0,2022-10-05,2022-10-05,株式会社Ｌｅｇａｌｂｏｘ,,株式会社,東京都,品川区,北品川５丁目３番１－１３２１号,,13,109,1410001,,,,,,,2022-10-05,1,,,,,リーガルボックス,0
2159,8011001150107,新規,0,2022-10-05,2022-10-05,ソーエネ不動産株式会社,,株式会社,東京都,渋谷区,東１丁目２７番７号,,13,113,1500011,,,,,,,2022-10-05,1,,,,,ソーエネフドウサン,0
2160,8011001150131,新規,0,2022-10-05,2022-10-05,株式会社ＪＵＬＩＡホスピタリティグループ,,株式会社,東京都,渋谷区,神宮前３丁目１番２５号アレーデジングウマエ１Ｆ,,13,113,1500001,,,,,,,2022-10-05,1,,,,,ジュリアホスピタリティグループ,0
2162,8011005009753,新規,0,2022-10-05,2022-10-05,一般社団法人アジア未来協会,,その他の設立登記法人,東京都,渋谷区,上原３丁目２０番８号,,13,113,1510064,,,,,,,2022-10-05,1,,,,,アジアミライキョウカイ,0
2165,8011101100382,新規,0,2022-10-05,2022-10-05,株式会社ＢＢ,,株式会社,東京都,新宿区,四谷三栄町１０番１１号三栄ハウス６０２,,13,104,1600008,,,,,,,2022-10-05,1,,,,,ビービー,0
2166,8011101100408,新規,0,2022-10-05,2022-10-05,Ｔｕｒｎｉｎｇ　Ｐｏｉｎｔ株式会社,,株式会社,東京都,新宿区,新宿２丁目９－２２,,13,104,1600022,,,,,,,2022-10-05,1,,,,,ターニングポイント,0
2169,8011301028143,新規,0,2022-10-05,2022-10-05,株式会社Ｐｉｅｔｙ,,株式会社,東京都,杉並区,上高井戸１丁目１７－４ドミール芦花公園２０１号室,00128008,13,115,1680074,,,,,,,2022-10-05,1,,,,,ピエティー,0
2171,8011505002506,新規,0,2022-10-05,2022-10-05,一般社団法人日本神経回路学会,,その他の設立登記法人,東京都,荒川区,西尾久７丁目１２番１６号株式会社ソウブン・ドットコム内,,13,118,1160011,,,,,,,2022-10-05,1,,,,,ニホンシンケイカイロガッカイ,0
2172,8011601026276,新規,0,2022-10-05,2022-10-05,ＭＯＴＯ　ＪＡＰ株式会社,,株式会社,東京都,練馬区,豊玉上２丁目３番１５号アムール豊玉２０５,,13,120,1760011,,,,,,,2022-10-05,1,,,,,モトジェイエイピー,0
2176,8012301013151,新規,0,2022-10-05,2022-10-05,株式会社ＲＥ,,株式会社,東京都,町田市,金井５丁目８－３５,,13,209,1950072,,,,,,,2022-10-05,1,,,,,アールイー,0
2184,8013301049755,新規,0,2022-10-05,2022-10-05,株式会社ＩＣＨＩＪＯ,,株式会社,東京都,豊島区,東池袋３丁目２１番２１－３３０６号,,13,116,1700013,,,,,,,2022-10-05,1,,,,,イチジョウ,0
2185,8013301049771,新規,0,2022-10-05,2022-10-05,株式会社然設計一級建築士事務所,,株式会社,東京都,豊島区,池袋２丁目６５番地１－９０１号,,13,116,1710014,,,,,,,2022-10-05,1,,,,,ゼンセッケイイッキュウケンチクシジムショ,0
2187,8013303006325,新規,0,2022-10-05,2022-10-05,合同会社鍋と雑炊,,合同会社,東京都,豊島区,池袋２丁目４９－１２ナカイチビル１階１０２号,,13,116,1710014,,,,,,,2022-10-05,1,,,,,ナベトゾウスイ,0
2190,8020001148390,新規,0,2022-10-05,2022-10-05,株式会社エピシア,,株式会社,神奈川県,川崎市川崎区,駅前本町１１番地２川崎フロンティアビル４階,,14,131,2100007,,,,,,,2022-10-05,1,,,,,エピシア,0
2191,8020001148399,新規,0,2022-10-05,2022-10-05,株式会社ＦＫアドヴァンス,,株式会社,神奈川県,横浜市保土ケ谷区,峰岡町１丁目１２番地１,,14,106,2400064,,,,,,,2022-10-05,1,,,,,エフケイアドヴァンス,0
2192,8020001148408,新規,0,2022-10-05,2022-10-05,株式会社宮崎台どうぶつ病院,,株式会社,神奈川県,川崎市宮前区,宮崎２丁目６番地１１バーズビレッジＡ－１０８,,14,136,2160033,,,,,,,2022-10-05,1,,,,,,0
2196,8020003022461,新規,0,2022-10-05,2022-10-05,合同会社ビーアシスト,,合同会社,神奈川県,川崎市高津区,宇奈根７７９番地５カワイマンション１Ｆ,,14,134,2130031,,,,,,,2022-10-05,1,,,,,ビーアシスト,0
2197,8020003022503,新規,0,2022-10-05,2022-10-05,和＿合同会社,00128010,合同会社,神奈川県,川崎市川崎区,砂子２丁目８－１シャンボール互恵ビル６１７号室,,14,131,2100006,,,,,,,2022-10-05,1,,,,,ワキン,0
2201,8021001077076,新規,0,2022-10-05,2022-10-05,株式会社みちのぱん,,株式会社,神奈川県,足柄下郡真鶴町,岩６７４番地２９,,14,383,2590202,,,,,,,2022-10-05,1,,,,,ミチノパン,0
2211,8030001150263,新規,0,2022-10-05,2022-10-05,株式会社ヤマコウ,,株式会社,埼玉県,三郷市,彦倉１丁目２０２番地１,,11,237,3410053,,,,,,,2022-10-05,1,,,,,ヤマコウ,0
2217,8030003020299,新規,0,2022-10-05,2022-10-05,合同会社ＹＫ　ｃｏｎｎｅｃｔ,,合同会社,埼玉県,北葛飾郡松伏町,田中３丁目１８番地２,,11,465,3430117,,,,,,,2022-10-05,1,,,,,ワイケーコネクト,0
2222,8040001125223,新規,0,2022-10-05,2022-10-05,株式会社アート,,株式会社,千葉県,松戸市,小金原６丁目９番地の１６－４０４号室Ｂ,,12,207,2700021,,,,,,,2022-10-05,1,,,,,アート,0
2223,8040001125322,新規,0,2022-10-05,2022-10-05,タカゼン＆サンズ株式会社,,株式会社,千葉県,松戸市,大谷口４５５,,12,207,2700005,,,,,,,2022-10-05,1,,,,,タカゼンアンドサンズ,0
2227,8040003020975,新規,0,2022-10-05,2022-10-05,合同会社もちのき,,合同会社,千葉県,茂原市,早野３０１０番地２,,12,210,2970037,,,,,,,2022-10-05,1,,,,,モチノキ,0
2235,8060001035313,新規,0,2022-10-05,2022-10-05,株式会社サントラスト宮,,株式会社,栃木県,宇都宮市,城南１丁目１番６号,,09,201,3210117,,,,,,,2022-10-05,1,,,,,サントラストミヤ,0
2240,8080001025221,新規,0,2022-10-05,2022-10-05,堀越内装株式会社,,株式会社,静岡県,静岡市葵区,瀬名７丁目３３番２－２号,,22,101,4200911,,,,,,,2022-10-05,1,,,,,ホリコシナイソウ,0
2242,8080101023562,新規,0,2022-10-05,2022-10-05,株式会社永和,,株式会社,静岡県,富士市,鵜無ケ淵３８８番地,,22,210,4170805,,,,,,,2022-10-05,1,,,,,エイワ,0
2244,8080103002663,新規,0,2022-10-05,2022-10-05,ミライデザイン合同会社,,合同会社,静岡県,富士市,石坂９０番地の９,,22,210,4170862,,,,,,,2022-10-05,1,,,,,ミライデザイン,0
2246,8080401026075,新規,0,2022-10-05,2022-10-05,株式会社亜虹,,株式会社,静岡県,浜松市南区,東若林町１０７番地,,22,134,4328052,,,,,,,2022-10-05,1,,,,,アシエル,0
2247,8090005007520,新規,0,2022-10-05,2022-10-05,一般社団法人カオリ,,その他の設立登記法人,山梨県,南アルプス市,下今井２２０番地３,,19,208,4000331,,,,,,,2022-10-05,1,,,,,カオリ,0
2250,8100001035754,新規,0,2022-10-05,2022-10-05,株式会社マルホン,,株式会社,長野県,北佐久郡軽井沢町,中軽井沢６番地１,,20,321,3890112,,,,,,,2022-10-05,1,,,,,マルホン,0
2254,8110001037015,新規,0,2022-10-05,2022-10-05,株式会社お米デザイン,,株式会社,新潟県,新潟市西区,五十嵐中島３丁目１５番２８号,,15,107,9502162,,,,,,,2022-10-05,1,,,,,オコメデザイン,0
2269,8120001249294,新規,0,2022-10-05,2022-10-05,株式会社Ｗｏｒｌｄ　Ｃｒｅａｔｉｏｎ,,株式会社,大阪府,大阪市西区,立売堀１丁目７番１２号グレース大阪本町ビル４０１,,27,106,5500012,,,,,,,2022-10-05,1,,,,,ワールドクリエーション,0
2270,8120001249303,新規,0,2022-10-05,2022-10-05,株式会社慶良間研究所,,株式会社,大阪府,大阪市西区,九条南２丁目２２番６号,,27,106,5500025,,,,,,,2022-10-05,1,,,,,ケラマケンキュウショ,0
2271,8120001249311,新規,0,2022-10-05,2022-10-05,ＯＰＧ株式会社,,株式会社,大阪府,大阪市北区,小松原町３番３号ＯＳビル,,27,127,5300018,,,,,,,2022-10-05,1,,,,,オーピージー,0
2275,8120005023225,新規,0,2022-10-05,2022-10-05,弁理士法人柳野国際特許事務所,,その他の設立登記法人,大阪府,大阪市淀川区,宮原１丁目１５番１号,,27,123,5320003,,,,,,,2022-10-05,1,,,,,ヤナギノコクサイトッキョジムショ,0
2278,8120903004326,新規,0,2022-10-05,2022-10-05,合同会社ＹＲＫ,,合同会社,大阪府,豊中市,新千里南町３丁目２７番２６号,,27,203,5600084,,,,,,,2022-10-05,1,,,,,ワイアールケー,0
2286,8140001127548,新規,0,2022-10-05,2022-10-05,株式会社アスミテ,,株式会社,兵庫県,神戸市長田区,房王寺町３丁目２番３号ユニオンビル１Ｆ,,28,106,6530801,,,,,,,2022-10-05,1,,,,,アスミテ,0
2291,8140003018183,新規,0,2022-10-05,2022-10-05,ｍｙｕｍｙｕ合同会社,,合同会社,兵庫県,神戸市中央区,海岸通２丁目２番３号サンエービル７階,,28,110,6500024,,,,,,,2022-10-05,1,,,,,ミューミュー,0
2294,8170001017300,新規,0,2022-10-05,2022-10-05,株式会社ロカ,,株式会社,和歌山県,和歌山市,松ケ丘１丁目１１－１７,,30,201,6410033,,,,,,,2022-10-05,1,,,,,ロカ,0
2304,8180003024335,新規,0,2022-10-05,2022-10-05,合同会社アニルモータース,,合同会社,愛知県,愛知郡東郷町,大字諸輪字百々５１番地８３４,,23,302,4700151,,,,,,,2022-10-05,1,,,,,アニルモータース,0
2311,8190001029797,新規,0,2022-10-05,2022-10-05,株式会社ＡＴ,,株式会社,三重県,鈴鹿市,椿一宮町１６０７番地の３２,,24,207,5190312,,,,,,,2022-10-05,1,,,,,エーティ,0
2312,8190001029806,新規,0,2022-10-05,2022-10-05,株式会社ゴール,,株式会社,三重県,津市,長岡町３０６０番地１,,24,201,5140064,,,,,,,2022-10-05,1,,,,,ゴール,0
2316,8220001025058,新規,0,2022-10-05,2022-10-05,株式会社システム・イノベーション,,株式会社,石川県,金沢市,北町丁１１３番地アイボリーガーデン２０６号,,17,201,9200055,,,,,,,2022-10-05,1,,,,,システムイノベーション,0
2317,8220001025066,新規,0,2022-10-05,2022-10-05,株式会社ザッツライフ,,株式会社,石川県,金沢市,矢木２丁目１８２番地５,,17,201,9218066,,,,,,,2022-10-05,1,,,,,ザッツライフ,0
2325,8240001060425,新規,0,2022-10-05,2022-10-05,株式会社ナカテック,,株式会社,広島県,広島市佐伯区,海老園１丁目７番８号,,34,108,7315135,,,,,,,2022-10-05,1,,,,,ナカテック,0
2326,8240001060433,新規,0,2022-10-05,2022-10-05,株式会社サカイエンジニアリング,,株式会社,広島県,呉市,広古新開３丁目２番１－２０７号,,34,202,7370112,,,,,,,2022-10-05,1,,,,,サカイエンジニアリング,0
2327,8240001060441,新規,0,2022-10-05,2022-10-05,株式会社甲斐農園,,株式会社,広島県,東広島市,安芸津町木谷５２３７番地１,,34,212,7392401,,,,,,,2022-10-05,1,,,,,カイノウエン,0
2328,8240001060458,新規,0,2022-10-05,2022-10-05,株式会社Ｌａｕｇｈ　Ｇｉｆｔ,,株式会社,広島県,広島市西区,己斐中１丁目１０番２－２０６号,,34,104,7330813,,,,,,,2022-10-05,1,,,,,ラフギフト,0
2329,8240001060466,新規,0,2022-10-05,2022-10-05,プラスアルファ株式会社,,株式会社,広島県,東広島市,志和町別府２５５７番地４,,34,212,7390267,,,,,,,2022-10-05,1,,,,,プラスアルファ,0
2331,8250003003158,新規,0,2022-10-05,2022-10-05,合同会社ｃｏｌｌｅｇｅ　ｗｋｔｋ,,合同会社,山口県,宇部市,西宇部北３丁目６番４８－２号,,35,202,7590211,,,,,,,2022-10-05,1,,,,,カレッジワクテカ,0
2334,8260001037306,新規,0,2022-10-05,2022-10-05,株式会社ＡＣＫＲコンサルティング,,株式会社,岡山県,倉敷市,神田１丁目７番２７号,,33,202,7128061,,,,,,,2022-10-05,1,,,,,エーシーケーアールコンサルティング,0
2345,8290001099087,新規,0,2022-10-05,2022-10-05,株式会社ＺＥＲＯ企画,,株式会社,福岡県,久留米市,日吉町８番地１０紺屋町ビル２Ｆ,,40,203,8300017,,,,,,,2022-10-05,1,,,,,ゼロキカク,0
2346,8290001099112,新規,0,2022-10-05,2022-10-05,株式会社ＢＥＡＵＴＹ　ＳＱＵＡＲＥ,,株式会社,福岡県,福岡市西区,姪浜駅南１丁目５番７－８０６号プロスペレー駅南,,40,135,8190006,,,,,,,2022-10-05,1,,,,,ビューティスクエア,0
2347,8290001099120,新規,0,2022-10-05,2022-10-05,ＫＲモータース株式会社,,株式会社,福岡県,福岡市早良区,重留７丁目１３番１４号,,40,137,8111101,,,,,,,2022-10-05,1,,,,,ケイアールモータース,0
2350,8290801028939,新規,0,2022-10-05,2022-10-05,株式会社ＢＡＳＥ,,株式会社,福岡県,北九州市小倉南区,中吉田３丁目１３番６号,,40,107,8000204,,,,,,,2022-10-05,1,,,,,ベイス,0
2351,8300001013087,新規,0,2022-10-05,2022-10-05,ヨシタカ株式会社,,株式会社,佐賀県,佐賀市,鍋島町大字鍋島７５８番地,,41,201,8490938,,,,,,,2022-10-05,1,,,,,ヨシタカ,0
2353,8320001019363,新規,0,2022-10-05,2022-10-05,株式会社後藤電設,,株式会社,大分県,大分市,畑中４丁目２番４３号,,44,201,8700856,,,,,,,2022-10-05,1,,,,,ゴトウデンセツ,0
2355,8320005010021,新規,0,2022-10-05,2022-10-05,一般社団法人大分県障害児通所支援連合会,,その他の設立登記法人,大分県,大分市,田中町２丁目６番５１号,,44,201,8700852,,,,,,,2022-10-05,1,,,,,オオイタケンショウガイジツウショシエンレンゴウカイ,0
2358,8330001030179,新規,0,2022-10-05,2022-10-05,株式会社ＴａｋｅＮｅｗＭａｔｅ,,株式会社,熊本県,熊本市中央区,新市街１３番１３号ＦＵＴＡビル南側２階,,43,101,8600803,,,,,,,2022-10-05,1,,,,,テイクニューメイト,0
2359,8330003009535,新規,0,2022-10-05,2022-10-05,合同会社ライブファンクション,,合同会社,熊本県,上益城郡益城町,大字広崎１３２１番地,,43,443,8612236,,,,,,,2022-10-05,1,,,,,ライブファンクション,0
2364,8340001025079,新規,0,2022-10-05,2022-10-05,株式会社イン．ザ．フィールド,,株式会社,鹿児島県,鹿児島市,明和２丁目３３番１１号,,46,201,8900024,,,,,,,2022-10-05,1,,,,,インザフィールド,0
2366,8360003012346,新規,0,2022-10-05,2022-10-05,合同会社ちゅら海ふーず,,合同会社,沖縄県,宜野湾市,大謝名２丁目２０番１６号,,47,205,9012225,,,,,,,2022-10-05,1,,,,,チュラウミフーズ,0
2370,8370003005852,新規,0,2022-10-05,2022-10-05,合同会社和管財,,合同会社,宮城県,塩竈市,錦町７番１８号,,04,203,9850024,,,,,,,2022-10-05,1,,,,,ワタルカンザイ,0
2381,8400005008271,新規,0,2022-10-05,2022-10-05,一般社団法人ブルーオーシャン岩手,,その他の設立登記法人,岩手県,盛岡市,本宮５丁目２－２５,,03,201,0200866,,,,,,,2022-10-05,1,,,,,ブルーオーシャンイワテ,0
2394,8470001019282,新規,0,2022-10-05,2022-10-05,株式会社ＩＫＯＩＥ,,株式会社,香川県,高松市,高松町２３２５番地５,,37,201,7610104,,,,,,,2022-10-05,1,,,,,イコイエ,0
2396,8470003002261,新規,0,2022-10-05,2022-10-05,合同会社エナスタ,,合同会社,香川県,高松市,瓦町２丁目９番７号柳ビル１Ｆ,,37,201,7600052,,,,,,,2022-10-05,1,,,,,エナスタ,0
2398,8480003001881,新規,0,2022-10-05,2022-10-05,さくらフェロー合同会社,,合同会社,徳島県,徳島市,八万町中津浦２４番地の７４,,36,201,7708072,,,,,,,2022-10-05,1,,,,,サクラフェロー,0
2404,8500001024519,新規,0,2022-10-05,2022-10-05,株式会社清水,,株式会社,愛媛県,東温市,野田２丁目１１番地１,,38,215,7910216,,,,,,,2022-10-05,1,,,,,シミズ,0
2416,9010001229884,新規,0,2022-10-05,2022-10-05,株式会社ＳＴＡＮＤ　ＵＰ,,株式会社,東京都,中央区,築地３丁目１－１,,13,102,1040045,,,,,,,2022-10-05,1,,,,,スタンドアップ,0
2417,9010001229918,新規,0,2022-10-05,2022-10-05,日新製糖分割準備株式会社,,株式会社,東京都,中央区,日本橋小網町１４番１号,,13,102,1030016,,,,,,,2022-10-05,1,,,,,ニッシンセイトウブンカツジュンビ,0
2418,9010001229934,新規,0,2022-10-05,2022-10-05,株式会社Ｌｏｏｐ工学研究所,,株式会社,東京都,千代田区,一番町３番地１０号アピス一番町７０１,,13,101,1020082,,,,,,,2022-10-05,1,,,,,ループコウガクケンキュウジョ,0
2422,9010003038788,新規,0,2022-10-05,2022-10-05,アクティブリーシング２１号合同会社,,合同会社,東京都,千代田区,麹町４丁目７番２号,,13,101,1020083,,,,,,,2022-10-05,1,,,,,アクティブリーシングニジュウイチゴウ,0
2423,9010003038813,新規,0,2022-10-05,2022-10-05,ｉプロパティ１１合同会社,,合同会社,東京都,千代田区,永田町２丁目１４番２号－３階スリーアイズキャピタル株式会社内,,13,101,1000014,,,,,,,2022-10-05,1,,,,,アイプロパティイレブン,0
2432,9010401170036,新規,0,2022-10-05,2022-10-05,株式会社ＴｉｍｉＩＲＯ,,株式会社,東京都,港区,赤坂６丁目１０番３３号チュリス氷川坂７０７号,,13,103,1070052,,,,,,,2022-10-05,1,,,,,ティミイロ,0
2433,9010501049444,新規,0,2022-10-05,2022-10-05,株式会社Ａｓｈ,,株式会社,東京都,台東区,根岸１丁目１番３５号配島ビル２階,,13,106,1100003,,,,,,,2022-10-05,1,,,,,アッシュ,0
2434,9010503006740,新規,0,2022-10-05,2022-10-05,合同会社商売繁盛,,合同会社,東京都,台東区,千束４丁目１７番７号,,13,106,1110031,,,,,,,2022-10-05,1,,,,,ショウバイハンジョウ,0
2440,9010601061943,新規,0,2022-10-05,2022-10-05,スマートアイティ株式会社,,株式会社,東京都,江東区,東砂５丁目２１－５,,13,108,1360074,,,,,,,2022-10-05,1,,,,,スマートアイティ,0
2441,9010601061951,新規,0,2022-10-05,2022-10-05,株式会社ＹＳＹＥ,,株式会社,東京都,江東区,有明１丁目４番２０－４２６号,,13,108,1350063,,,,,,,2022-10-05,1,,,,,ワイエスワイイー,0
2442,9010603009767,新規,0,2022-10-05,2022-10-05,合同会社ＢＳＳＳ,,合同会社,東京都,江東区,大島８丁目２８番５－１０５号,,13,108,1360072,,,,,,,2022-10-05,1,,,,,ビーズス,0
2445,9010801033313,新規,0,2022-10-05,2022-10-05,株式会社七段花,,株式会社,東京都,大田区,池上１丁目１８番９号,,13,111,1460082,,,,,,,2022-10-05,1,,,,,シチダンカ,0
2446,9010901051727,新規,0,2022-10-05,2022-10-05,株式会社さくら産業,,株式会社,東京都,世田谷区,桜新町２丁目２６番５号,,13,112,1540015,,,,,,,2022-10-05,1,,,,,サクラサンギョウ,0
2447,9010901051743,新規,0,2022-10-05,2022-10-05,株式会社つなぎパートナーズ,,株式会社,東京都,世田谷区,三宿２丁目２５番１５号,,13,112,1540005,,,,,,,2022-10-05,1,,,,,ツナギパートナーズ,0
2452,9011001150089,新規,0,2022-10-05,2022-10-05,Ｈａｐｐｐ株式会社,,株式会社,東京都,渋谷区,千駄ヶ谷３丁目５３番１７号原宿グリーンハイツ８０５,,13,113,1510051,,,,,,,2022-10-05,1,,,,,ハップ,0
2455,9011003015463,新規,0,2022-10-05,2022-10-05,合同会社ＫＵＲＡＧＥ　ＥＦＦＥＣＴ,,合同会社,東京都,渋谷区,渋谷２丁目１９番１５号宮益坂ビルディング６０９,,13,113,1500002,,,,,,,2022-10-05,1,,,,,クラゲエフェクト,0
2456,9011003015471,新規,0,2022-10-05,2022-10-05,合同会社イチノイチ,,合同会社,東京都,目黒区,緑が丘３丁目８番１４号,,13,110,1520034,,,,,,,2022-10-05,1,,,,,イチノイチ,0
2460,9011301028142,新規,0,2022-10-05,2022-10-05,株式会社ｆｌａｔ,,株式会社,東京都,杉並区,成田西２丁目２４番６号,,13,115,1660016,,,,,,,2022-10-05,1,,,,,フラット,0
2461,9011301028150,新規,0,2022-10-05,2022-10-05,株式会社ＵＮＩｍａｎａｇｅｍｅｎｔ,,株式会社,東京都,杉並区,高井戸東４丁目１５番６－５０８号,,13,115,1680072,,,,,,,2022-10-05,1,,,,,ユニマネジメント,0
2463,9011501028520,新規,0,2022-10-05,2022-10-05,株式会社天然堂,,株式会社,東京都,荒川区,東日暮里３丁目１５番２号第一フジハイツ３０３号,,13,118,1160014,,,,,,,2022-10-05,1,,,,,テンネンドウ,0
2464,9011601026275,新規,0,2022-10-05,2022-10-05,ひかり治療院株式会社,,株式会社,東京都,練馬区,大泉町３丁目２番２号,,13,120,1780062,,,,,,,2022-10-05,1,,,,,ヒカリチリョウイン,0
2465,9011601026283,新規,0,2022-10-05,2022-10-05,株式会社ＮＫ　Ｆｒｅｅ,,株式会社,東京都,練馬区,関町北５丁目９番１４号,,13,120,1770051,,,,,,,2022-10-05,1,,,,,エヌケーフリー,0
2471,9012801021867,新規,0,2022-10-05,2022-10-05,株式会社ＡＬＩＣＥＡ,,株式会社,東京都,日野市,南平５丁目２８番地の１３,,13,212,1910041,,,,,,,2022-10-05,1,,,,,アリシア,0
2478,9020001148398,新規,0,2022-10-05,2022-10-05,株式会社オリエントエステート,,株式会社,神奈川県,川崎市川崎区,日進町２７番地３,,14,131,2100024,,,,,,,2022-10-05,1,,,,,オリエントエステート,0
2479,9020001148431,新規,0,2022-10-05,2022-10-05,株式会社タカラ電気工事,,株式会社,神奈川県,横浜市鶴見区,朝日町２丁目８７番地,,14,101,2300033,,,,,,,2022-10-05,1,,,,,タカラデンキコウジ,0
2482,9020003022485,新規,0,2022-10-05,2022-10-05,合同会社成活,,合同会社,神奈川県,川崎市高津区,久末８４番地１０,,14,134,2130026,,,,,,,2022-10-05,1,,,,,セイカツ,0
2483,9020003022510,新規,0,2022-10-05,2022-10-05,合同会社エムティ,,合同会社,神奈川県,川崎市高津区,末長１丁目１番２２－４０４号,,14,134,2130013,,,,,,,2022-10-05,1,,,,,エムティ,0
2486,9021003012204,新規,0,2022-10-05,2022-10-05,合同会社ストラ,,合同会社,神奈川県,藤沢市,長後１２２５番地の１レーベンスクエア藤沢プレイジアム８０８,,14,205,2520801,,,,,,,2022-10-05,1,,,,,ストラ,0
2492,9030001150361,新規,0,2022-10-05,2022-10-05,株式会社志真興業,,株式会社,埼玉県,草加市,柳島町２２９番地サンパレス１０３,,11,221,3400033,,,,,,,2022-10-05,1,,,,,シシンコウギョウ,0
2498,9030005020998,新規,0,2022-10-05,2022-10-05,一般社団法人芙蓉会,,その他の設立登記法人,埼玉県,さいたま市緑区,東浦和４丁目２１番地５シティーハイムロワール２０２,,11,109,3360926,,,,,,,2022-10-05,1,,,,,フヨウカイ,0
2502,9040001125230,新規,0,2022-10-05,2022-10-05,株式会社坂本,,株式会社,千葉県,千葉市緑区,高田町１６４４番地２,,12,105,2660003,,,,,,,2022-10-05,1,,,,,サカモト,0
2503,9040001125239,新規,0,2022-10-05,2022-10-05,株式会社マハロ,,株式会社,千葉県,松戸市,和名ケ谷７７９－３,,12,207,2702232,,,,,,,2022-10-05,1,,,,,マハロ,0
2504,9040001125321,新規,0,2022-10-05,2022-10-05,株式会社スカイ・エッヂ,,株式会社,千葉県,千葉市花見川区,幕張本郷１丁目１１番１６号,,12,102,2620033,,,,,,,2022-10-05,1,,,,,スカイエッヂ,0
2506,9040003020974,新規,0,2022-10-05,2022-10-05,合同会社Ｃａｄｅｎｃｅ,,合同会社,千葉県,柏市,大室１３４０番地の１９,,12,217,2770813,,,,,,,2022-10-05,1,,,,,ケイデンス,0
2507,9040005021748,新規,0,2022-10-05,2022-10-05,医療法人社団慈仁会,,その他の設立登記法人,千葉県,市川市,南行徳１丁目１８番６号第一大幸ビル１階Ｄ号室,,12,203,2720138,,,,,,,2022-10-05,1,,,,,ジジンカイ,0
2512,9060001035312,新規,0,2022-10-05,2022-10-05,株式会社ＴＥＴＴＥ,,株式会社,栃木県,宇都宮市,滝谷町９番１２号,,09,201,3200847,,,,,,,2022-10-05,1,,,,,テッテ,0
2514,9060003004257,新規,0,2022-10-05,2022-10-05,関東国際合同会社,,合同会社,栃木県,小山市,大字大行寺１１４８番地１５モンパレス１号館２０１号室,,09,208,3230041,,,,,,,2022-10-05,1,,,,,カントウコクサイ,0
2515,9070003004636,新規,0,2022-10-05,2022-10-05,合同会社ＢＯＢＢＹ,,合同会社,群馬県,前橋市,朝日町４丁目２５番５号朝日ベース２０２号,,10,201,3710014,,,,,,,2022-10-05,1,,,,,ボビー,0
2517,9080001025220,新規,0,2022-10-05,2022-10-05,株式会社しずおかフィナンシャルグループ,,株式会社,静岡県,静岡市葵区,呉服町１丁目１０番地,,22,101,4200031,,,,,,,2022-10-05,1,,,,,シズオカフィナンシャルグループ,0
2518,9080001025229,新規,0,2022-10-05,2022-10-05,株式会社ソニアジョーンズ,,株式会社,静岡県,静岡市清水区,入船町４－１５,,22,103,4240942,,,,,,,2022-10-05,1,,,,,ソニアジョーンズ,0
2529,9110001037006,新規,0,2022-10-05,2022-10-05,妙高赤倉薫風旅館株式会社,,株式会社,新潟県,妙高市,大字赤倉４２６番地１５,,15,217,9492111,,,,,,,2022-10-05,1,,,,,ミョウコウアカクラカオルカゼリョカン,0
2530,9110001037022,新規,0,2022-10-05,2022-10-05,株式会社ファイブセクション,,株式会社,新潟県,新潟市江南区,天野３丁目３３－３２,,15,104,9501134,,,,,,,2022-10-05,1,,,,,ファイブセクション,0
2540,9120001249211,新規,0,2022-10-05,2022-10-05,Ｎ＆Ｐコンサルティング株式会社,,株式会社,大阪府,大阪市北区,西天満１丁目２番５号ＪＡビル１２階,,27,127,5300047,,,,,,,2022-10-05,1,,,,,エヌアンドピーコンサルティング,0
2541,9120001249228,新規,0,2022-10-05,2022-10-05,株式会社エムズ,,株式会社,大阪府,大阪市浪速区,日本橋３丁目４番９－５０９,,27,111,5560005,,,,,,,2022-10-05,1,,,,,エムズ,0
2542,9120001249293,新規,0,2022-10-05,2022-10-05,株式会社Ｓａｎｓ　Ｓｕｃｒｅ,,株式会社,大阪府,大阪市淀川区,木川西１丁目６番２７号メゾン木川３０５号,,27,123,5320013,,,,,,,2022-10-05,1,,,,,サンシュークル,0
2543,9120001249310,新規,0,2022-10-05,2022-10-05,ＳＯＵ株式会社,,株式会社,大阪府,大阪市北区,小松原町３番３号ＯＳビル,,27,127,5300018,,,,,,,2022-10-05,1,,,,,ソウ,0
2549,9120101066291,新規,0,2022-10-05,2022-10-05,株式会社ＧＵＬＦ　ＳＥＭＩＣＯＮＤＵＣＴＯＲ　ＨＯＬＤＩＮＧＳ,,株式会社,大阪府,泉佐野市,松風台２丁目１３番１７号,,27,213,5980008,,,,,,,2022-10-05,1,,,,,ガルフセミコンダクターホールディングス,0
2550,9120105009627,新規,0,2022-10-05,2022-10-05,一般財団法人このむ福祉基金,,その他の設立登記法人,大阪府,泉佐野市,上町１丁目４番２２号（１０２）,,27,213,5980007,,,,,,,2022-10-05,1,,,,,コノムフクシキキン,0
2553,9120901046559,新規,0,2022-10-05,2022-10-05,株式会社むらさめ庭園管理,,株式会社,大阪府,吹田市,佐竹台４丁目７－１４Ｅ,,27,205,5650855,,,,,,,2022-10-05,1,,,,,ムラサメテイエンカンリ,0
2557,9122005003643,新規,0,2022-10-05,2022-10-05,一般社団法人ＪａｐａｎメンタルヘルスＬａｂ,,その他の設立登記法人,大阪府,東大阪市,長田中３丁目１番１６－６０８号,,27,227,5770013,,,,,,,2022-10-05,1,,,,,ジャパンメンタルヘルスラボ,0
2560,9140001127456,新規,0,2022-10-05,2022-10-05,株式会社つかさ,,株式会社,兵庫県,伊丹市,瑞ケ丘１丁目５４番地の１,,28,207,6640017,,,,,,,2022-10-05,1,,,,,ツカサ,0
2561,9140001127497,新規,0,2022-10-05,2022-10-05,株式会社Ｊａｐｏｎｉｓｍ,,株式会社,兵庫県,神戸市西区,学園東町３丁目８番地４,,28,111,6512102,,,,,,,2022-10-05,1,,,,,ジャポニズム,0
2562,9140001127514,新規,0,2022-10-05,2022-10-05,株式会社ｅｐｉｆｕｎｎｙ　ｃｏｍｐａｎｙ,,株式会社,兵庫県,神戸市灘区,鹿ノ下通１丁目３番１６号,,28,102,6570044,,,,,,,2022-10-05,1,,,,,エピファニーカンパニー,0
2563,9140001127522,新規,0,2022-10-05,2022-10-05,株式会社Ｒｅ．ｆｅａｔ,,株式会社,兵庫県,明石市,魚住町中尾５４４番地の２,,28,203,6740082,,,,,,,2022-10-05,1,,,,,リフィート,0
2570,9170001017299,新規,0,2022-10-05,2022-10-05,株式会社Ｔ’ｓテック,,株式会社,和歌山県,紀の川市,西三谷３２番地７,,30,208,6496433,,,,,,,2022-10-05,1,,,,,ティーズテック,0
2571,9170001017308,新規,0,2022-10-05,2022-10-05,ＳＩＡＭ　Ｊ’ｓ株式会社,,株式会社,和歌山県,和歌山市,中之島４９３番地１５,,30,201,6408392,,,,,,,2022-10-05,1,,,,,サイアムジェイズ,0
2577,9180001153242,新規,0,2022-10-05,2022-10-05,株式会社創造エステート,,株式会社,愛知県,春日井市,知多町２丁目５６番地５,,23,206,4860947,,,,,,,2022-10-05,1,,,,,ソウゾウエステート,0
2578,9180001153250,新規,0,2022-10-05,2022-10-05,ｃｏｃｏｔｏ株式会社,,株式会社,愛知県,名古屋市北区,清水４丁目１２番１６号,,23,103,4620844,,,,,,,2022-10-05,1,,,,,ココト,0
2579,9180001153267,新規,0,2022-10-05,2022-10-05,株式会社Ａｎｎ．ｊ,,株式会社,愛知県,名古屋市守山区,大字下志段味字池田７９７番地の１マロンリーフ２０２号,,23,113,4630003,,,,,,,2022-10-05,1,,,,,アンジェイ,0
2583,9180003024318,新規,0,2022-10-05,2022-10-05,合同会社ＢＲＡＩＮ　ＭＡＴＣＨ　ＡＧＥＮＣＹ,,合同会社,愛知県,名古屋市瑞穂区,瑞穂通７丁目７番地の２,,23,108,4670806,,,,,,,2022-10-05,1,,,,,ブレインマッチエージェンシー,0
2584,9180003024326,新規,0,2022-10-05,2022-10-05,笑顔でいっぱい合同会社,,合同会社,愛知県,愛知郡東郷町,春木台２丁目６－７,,23,302,4700161,,,,,,,2022-10-05,1,,,,,エガオデイッパイ,0
2593,9190001029805,新規,0,2022-10-05,2022-10-05,高翔電気株式会社,,株式会社,三重県,鈴鹿市,十宮３丁目１２番２４号,,24,207,5130037,,,,,,,2022-10-05,1,,,,,タカショウデンキ,0
2603,9200001040520,新規,0,2022-10-05,2022-10-05,株式会社Ｋ．Ｄ．Ｃ,,株式会社,岐阜県,大垣市,二葉町２丁目３番地,,21,202,5030862,,,,,,,2022-10-05,1,,,,,ケイディーシー,0
2606,9220001025065,新規,0,2022-10-05,2022-10-05,株式会社ＭＲＴ石川,,株式会社,石川県,河北郡津幡町,字庄チ５２番地,,17,361,9290327,,,,,,,2022-10-05,1,,,,,エムアールティイシカワ,0
2609,9240001060440,新規,0,2022-10-05,2022-10-05,株式会社Ｄ‐Ｌｉｖｅ,,株式会社,広島県,大竹市,南栄２丁目１２番３８号アンシャンテサカエ２０２号,,34,211,7390602,,,,,,,2022-10-05,1,,,,,ディーライブ,0
2610,9240001060449,新規,0,2022-10-05,2022-10-05,株式会社スマイルデベロップ,,株式会社,広島県,広島市中区,光南１丁目３番１７－８０１号,,34,101,7300825,,,,,,,2022-10-05,1,,,,,スマイルデベロップ,0
2611,9240001060465,新規,0,2022-10-05,2022-10-05,株式会社レイテム,,株式会社,広島県,広島市中区,幟町１３番１５号新広島ビルディング２Ｆ,,34,101,7300016,,,,,,,2022-10-05,1,,,,,レイテム,0
2612,9240001060473,新規,0,2022-10-05,2022-10-05,株式会社Ｍプランニング,,株式会社,広島県,廿日市市,四季が丘１丁目８番地６,,34,213,7380036,,,,,,,2022-10-05,1,,,,,エムプランニング,0
2618,9250003003157,新規,0,2022-10-05,2022-10-05,Ｋｓｓｇ．ｃｏｍ合同会社,,合同会社,山口県,宇部市,大字際波３５９番地２１,,35,202,7590207,,,,,,,2022-10-05,1,,,,,ケーエスエスジードットコム,0
2622,9260001037296,新規,0,2022-10-05,2022-10-05,株式会社Ｇｒａｖｉｓ,,株式会社,岡山県,岡山市中区,海吉１９２３番地１１,,33,102,7038261,,,,,,,2022-10-05,1,,,,,グラヴィス,0
2624,9280001008790,新規,0,2022-10-05,2022-10-05,株式会社竹下電気,,株式会社,島根県,大田市,静間町１１６５番地３,,32,205,6940031,,,,,,,2022-10-05,1,,,,,タケシタデンキ,0
2632,9290001099078,新規,0,2022-10-05,2022-10-05,株式会社グランドファーム,,株式会社,福岡県,福岡市東区,みなと香椎３丁目１番１号西棟４１４号,,40,131,8130019,,,,,,,2022-10-05,1,,,,,グランドファーム,0
2635,9310001018043,新規,0,2022-10-05,2022-10-05,ＮＫＪホールディングス株式会社,,株式会社,長崎県,諫早市,宇都町３番５０号,,42,204,8540061,,,,,,,2022-10-05,1,,,,,エヌケイジェイホールディングス,0
2643,9320005010020,新規,0,2022-10-05,2022-10-05,税理士法人アクティ,,その他の設立登記法人,大分県,大分市,中島西２丁目６番１０号司法オフィスアクティ３Ｆ,,44,201,8700047,,,,,,,2022-10-05,1,,,,,アクティ,0
2647,9330001030161,新規,0,2022-10-05,2022-10-05,ＫＪケミテック株式会社,,株式会社,熊本県,八代市,興国町１番３号,,43,202,8660881,,,,,,,2022-10-05,1,,,,,ケイジェイケミテック,0
2648,9330001030178,新規,0,2022-10-05,2022-10-05,株式会社ウルトラＯＮＥ,,株式会社,熊本県,山鹿市,久原４２１１番地,,43,208,8610522,,,,,,,2022-10-05,1,,,,,ウルトラワン,0
2656,9340003003924,新規,0,2022-10-05,2022-10-05,合同会社プラスサン,,合同会社,鹿児島県,鹿児島市,清和２丁目１６番６号,,46,201,8910109,,,,,,,2022-10-05,1,,,,,プラスサン,0
2658,9350001017982,新規,0,2022-10-05,2022-10-05,株式会社ＭＴＫレンタカー,,株式会社,宮崎県,宮崎市,橘通東２丁目２番３号,,45,201,8800805,,,,,,,2022-10-05,1,,,,,エムティケーレンタカー,0
2663,9360003012337,新規,0,2022-10-05,2022-10-05,ＹＥＭ合同会社,,合同会社,沖縄県,宮古島市,平良字下里８４９－１－３Ａ,,47,214,9060013,,,,,,,2022-10-05,1,,,,,ワイイーエム,0
2664,9370001049108,新規,0,2022-10-05,2022-10-05,株式会社ＲｅＮＥＷ,,株式会社,宮城県,仙台市泉区,将監１０丁目３２－５,,04,105,9813132,,,,,,,2022-10-05,1,,,,,リニュー,0
2668,9380001033151,新規,0,2022-10-05,2022-10-05,株式会社ステージ・オブ未来,,株式会社,福島県,郡山市,富久山町福原字陣場１９７番地の１６,,07,203,9638061,,,,,,,2022-10-05,1,,,,,ステージオブミライ,0
2679,9420003002587,新規,0,2022-10-05,2022-10-05,合同会社がれたま,,合同会社,青森県,青森市,浪岡大字大釈迦字沢田５５番地１９,,02,201,0381301,,,,,,,2022-10-05,1,,,,,ガレタマ,0
2683,9430001087588,新規,0,2022-10-05,2022-10-05,ＡＫ　ＮＩＰＰＯＮ　ＣＯＲＰＯＲＡＴＩＯＮ株式会社,,株式会社,北海道,岩見沢市,幌向北二条１丁目６１１番地３７,,01,210,0690382,,,,,,,2022-10-05,1,,,,,エーケーニッポンコーポレーション,0
2687,9430003014326,新規,0,2022-10-05,2022-10-05,合同会社ＴＯＮＹ,,合同会社,北海道,札幌市白石区,南郷通７丁目北５番１号,,01,104,0030023,,,,,,,2022-10-05,1,,,,,トニー,0
2697,9470001019281,新規,0,2022-10-05,2022-10-05,株式会社ＹＳＧ,,株式会社,香川県,丸亀市,土器町東７丁目８１７番地,,37,202,7630082,,,,,,,2022-10-05,1,,,,,ワイエスジー,0
2702,9470003002260,新規,0,2022-10-05,2022-10-05,合同会社ＹＯＩ,,合同会社,香川県,高松市,牟礼町牟礼２３番地４,,37,201,7610121,,,,,,,2022-10-05,1,,,,,ワイオーアイ,0
2706,9480003001880,新規,0,2022-10-05,2022-10-05,あいコンサルタント合同会社,,合同会社,徳島県,鳴門市,撫養町立岩字七枚８２番地近藤マンション１０１号,,36,202,7720017,,,,,,,2022-10-05,1,,,,,アイコンサルタント,0
2709,9500001024526,新規,0,2022-10-05,2022-10-05,株式会社ささしん,,株式会社,愛媛県,宇和島市,川内甲７４５番地１メゾン浅本８号,,38,203,7980075,,,,,,,2022-10-05,1,,,,,ササシン,0
2714,9700150112029,新規,0,2022-10-05,2022-10-05,Ｋ＆Ｋ　ＡＵＴＯ　ＴＲＡＤＩＮＧ　ＰＶＴ　ＬＴＤ,,外国会社等,茨城県,小美玉市,栗又四ケ２５６４番地２７－２号棟,,08,236,3113434,スリランカ民主社会主義共和国マタラ、オールド・タンガッレ・ロード、第２２３号,,,,,,2022-10-05,1,,,,,ケイアンドケイオートトレーデイングプライベートリミテツド,0
