sequenceNumber,corporateNumber,process,correct,updateDate,changeDate,name,nameImageId,kind,prefectureName,cityName,streetNumber,addressImageId,prefectureCode,cityCode,postCode,addressOutside,addressOutsideImageId,closeDate,closeCause,successorCorporateNumber,changeCause,assignmentDate,latest,enName,enPrefectureName,enCityName,enAddressOutside,furigana,hihyoji
7,1010001239313,新規,0,2023-10-19,2023-10-19,株式会社Ｇ＆Ｉ,,株式会社,東京都,中央区,銀座１丁目１２番４号Ｎ＆ＥＢＬＤ６Ｆ,,13,102,1040061,,,,,,,2023-10-19,1,,,,,ジーアンドアイ,0
8,1010001239395,新規,0,2023-10-19,2023-10-19,国際興業エネ・ソリューションズ株式会社,,株式会社,東京都,中央区,八重洲２丁目１０番３号,,13,102,1040028,,,,,,,2023-10-19,1,,,,,コクサイコウギョウエネソリューションズ,0
9,1010003041881,新規,0,2023-10-19,2023-10-19,ボルト２合同会社,,合同会社,東京都,中央区,銀座１丁目６番１１号アースタックス税理士法人内,,13,102,1040061,,,,,,,2023-10-19,1,,,,,ボルトツー,0
10,1010003041989,新規,0,2023-10-19,2023-10-19,ＬＥＯＲＩＳ合同会社,,合同会社,東京都,中央区,銀座１丁目１２－４Ｎ＆ＥＢＬＤ．７階,,13,102,1040061,,,,,,,2023-10-19,1,,,,,レオリス,0
29,1010401177897,新規,0,2023-10-19,2023-10-19,株式会社ＦＫＬａｂｏｒａｔｏｒｙ,,株式会社,東京都,港区,東麻布１丁目２９番１７号グランクリュー麻布６０１,,13,103,1060044,,,,,,,2023-10-19,1,,,,,エフケーラボラトリー,0
30,1010401177947,新規,0,2023-10-19,2023-10-19,サンセラフィス株式会社,,株式会社,東京都,港区,麻布十番３丁目１３番２号エスケーハイム３０３,,13,103,1060045,,,,,,,2023-10-19,1,,,,,サンセラフィス,0
32,1010403031193,新規,0,2023-10-19,2023-10-19,合同会社ヌメア,,合同会社,東京都,港区,六本木４丁目３番１１－３１９号,,13,103,1060032,,,,,,,2023-10-19,1,,,,,ヌメア,0
33,1010403031202,新規,0,2023-10-19,2023-10-19,合同会社城南プロパティー,,合同会社,東京都,港区,元赤坂１丁目１番８号赤坂コミュニティビル４階,,13,103,1070051,,,,,,,2023-10-19,1,,,,,ジョウナンプロパティー,0
45,1010701045011,新規,0,2023-10-19,2023-10-19,株式会社ＹＲＡＦ,,株式会社,東京都,品川区,西大井１丁目１番２号,,13,109,1400015,,,,,,,2023-10-19,1,,,,,ワイラフ,0
52,1010801034434,新規,0,2023-10-19,2023-10-19,ＴＷＯ　ＴＨＲＥＥ株式会社,,株式会社,東京都,大田区,蒲田５丁目２１－１３・Ｂ２－１５,,13,111,1440052,,,,,,,2023-10-19,1,,,,,ツースリー,0
59,1010901054051,新規,0,2023-10-19,2023-10-19,株式会社ＳＭＡＬＬ　ＷＯＲＬＤＳ,,株式会社,東京都,世田谷区,代田２丁目１７番１６号代田タウンハウスＪ,,13,112,1550033,,,,,,,2023-10-19,1,,,,,スモールワールズ,0
66,1011001157645,新規,0,2023-10-19,2023-10-19,株式会社Ｔｒｕｅｔａｇｇ,,株式会社,東京都,渋谷区,渋谷２丁目１９－１５宮益坂ビルディング６０９,,13,113,1500002,,,,,,,2023-10-19,1,,,,,トゥルータグ,0
67,1011001157653,新規,0,2023-10-19,2023-10-19,ｅｃｏｅａｔｓ株式会社,,株式会社,東京都,渋谷区,神宮前６丁目２３番４号桑野ビル２階,,13,113,1500001,,,,,,,2023-10-19,1,,,,,エコイーツ,0
68,1011001157678,新規,0,2023-10-19,2023-10-19,オープン株式会社,,株式会社,東京都,目黒区,東山１丁目８番１１号タウンハウス中目黒４０１,,13,110,1530043,,,,,,,2023-10-19,1,,,,,オープン,0
71,1011003017748,新規,0,2023-10-19,2023-10-19,Ｃｌｏｖｅｒ　Ｒｅｓｅａｒｃｈ合同会社,,合同会社,東京都,渋谷区,渋谷２丁目２４番１２号渋谷スクランブルスクエア３９階,,13,113,1500002,,,,,,,2023-10-19,1,,,,,クローバーリサーチ,0
75,1011101104811,新規,0,2023-10-19,2023-10-19,株式会社ＩＮＯ,,株式会社,東京都,新宿区,西新宿３丁目３番１３号６Ｆ,,13,104,1600023,,,,,,,2023-10-19,1,,,,,アイエヌオー,0
76,1011103013630,新規,0,2023-10-19,2023-10-19,合同会社ＳＵ,,合同会社,東京都,新宿区,上落合３丁目３０番１号アーバンプレイス中井ＩＩＩ・Ａ１０６,00132310,13,104,1610034,,,,,,,2023-10-19,1,,,,,エスユウ,0
86,1011401025550,新規,0,2023-10-19,2023-10-19,株式会社Ｃｒｏｓｓ　Ｖｅｇａ,,株式会社,東京都,板橋区,富士見町１２－１７,,13,119,1740062,,,,,,,2023-10-19,1,,,,,クロスベガ,0
87,1011701026678,新規,0,2023-10-19,2023-10-19,宸瀚堂株式会社,,株式会社,東京都,江戸川区,松島４丁目１２－５－２０２号,,13,123,1320031,,,,,,,2023-10-19,1,,,,,シンカンドウ,0
89,1011801043210,新規,0,2023-10-19,2023-10-19,ＫＡＭＥＨＡ株式会社,,株式会社,東京都,葛飾区,四つ木３丁目１番２７号１階,,13,122,1240011,,,,,,,2023-10-19,1,,,,,カメハ,0
99,1020001153975,新規,0,2023-10-19,2023-10-19,株式会社アールテック,,株式会社,神奈川県,横浜市戸塚区,汲沢町１０７４番地１,,14,110,2450062,,,,,,,2023-10-19,1,,,,,アールテック,0
100,1020001153991,新規,0,2023-10-19,2023-10-19,ＡＬＢＯ株式会社,,株式会社,神奈川県,横浜市瀬谷区,上瀬谷町３９番地３１,,14,114,2460006,,,,,,,2023-10-19,1,,,,,アルボ,0
101,1020001154073,新規,0,2023-10-19,2023-10-19,株式会社Ａｓｓｅｔ　Ａｔｔａｉｎ,,株式会社,神奈川県,横浜市神奈川区,金港町７番地３,,14,102,2210056,,,,,,,2023-10-19,1,,,,,アセットアテイン,0
111,1030001156779,新規,0,2023-10-19,2023-10-19,株式会社慶健興業,,株式会社,埼玉県,新座市,栄２丁目９番２０号Ａ,,11,230,3520014,,,,,,,2023-10-19,1,,,,,ケイケンコウギョウ,0
133,1030003022822,新規,0,2023-10-19,2023-10-19,合同会社あきないよ,,合同会社,埼玉県,さいたま市見沼区,大和田町１丁目１４６２番地,,11,104,3370053,,,,,,,2023-10-19,1,,,,,アキナイヨ,0
141,1040001130584,新規,0,2023-10-19,2023-10-19,株式会社ＫＩＹＯＫＯ,,株式会社,千葉県,千葉市中央区,中央３丁目１７番１－１７０１号,,12,101,2600013,,,,,,,2023-10-19,1,,,,,キヨコ,0
142,1040001130601,新規,0,2023-10-19,2023-10-19,株式会社三上商会,,株式会社,千葉県,松戸市,新作５１７番地の１ファーストパストラルハイツ１０１号,,12,207,2710052,,,,,,,2023-10-19,1,,,,,ミカミショウカイ,0
146,1040003023539,新規,0,2023-10-19,2023-10-19,ピーチブルーム合同会社,,合同会社,千葉県,山武郡芝山町,山中１２１４番地,,12,409,2891618,,,,,,,2023-10-19,1,,,,,ピーチブルーム,0
157,1080001025921,新規,0,2023-10-19,2023-10-19,株式会社ラフ,,株式会社,静岡県,島田市,道悦４丁目２１番１８号,,22,209,4270019,,,,,,,2023-10-19,1,,,,,ラフ,0
164,1080105006371,新規,0,2023-10-19,2023-10-19,一般社団法人子供未来支援協会,,その他の設立登記法人,静岡県,富士市,本町１３番２２号,,22,210,4160914,,,,,,,2023-10-19,1,,,,,コドモミライシエンキョウカイ,0
171,1100001036890,新規,0,2023-10-19,2023-10-19,ＨＡＬＰＡＨ株式会社,,株式会社,長野県,北安曇郡白馬村,大字北城２９３７番地６５５,,20,485,3999301,,,,,,,2023-10-19,1,,,,,ハルパ,0
182,1120001258863,新規,0,2023-10-19,2023-10-19,株式会社ティエスティ,,株式会社,大阪府,大阪市東住吉区,住道矢田５丁目３番２３号,,27,121,5460022,,,,,,,2023-10-19,1,,,,,ティエスティ,0
183,1120001258913,新規,0,2023-10-19,2023-10-19,株式会社Ｏｆｆｓｈｏｒｅ,,株式会社,大阪府,寝屋川市,本町１８番１号,,27,215,5720832,,,,,,,2023-10-19,1,,,,,オフショア,0
184,1120001258962,新規,0,2023-10-19,2023-10-19,株式会社グローバルホーム,,株式会社,大阪府,大阪市西成区,梅南２丁目２番２５号,,27,122,5570033,,,,,,,2023-10-19,1,,,,,グローバルホーム,0
185,1120001259110,新規,0,2023-10-19,2023-10-19,株式会社エイコー,,株式会社,大阪府,大阪市東成区,中本１丁目１１番１８号ハビタスギハラ７Ｂ号室,,27,115,5370022,,,,,,,2023-10-19,1,,,,,エイコー,0
187,1120003025114,新規,0,2023-10-19,2023-10-19,Ｈ．Ｗ合同会社,,合同会社,大阪府,大阪市西区,江之子島１丁目７－３－１４階,,27,106,5500006,,,,,,,2023-10-19,1,,,,,エイチダブリュ,0
188,1120101068403,新規,0,2023-10-19,2023-10-19,阿部金属株式会社,,株式会社,大阪府,富田林市,大字甘南備４７４番地１,,27,214,5840054,,,,,,,2023-10-19,1,,,,,アベキンゾク,0
193,1120901048199,新規,0,2023-10-19,2023-10-19,株式会社Ｈｅａｒｔ　Ｆａｃｔｏｒｙ,,株式会社,大阪府,茨木市,十日市町６番４号,,27,211,5670016,,,,,,,2023-10-19,1,,,,,ハートファクトリー,0
198,1130001075440,新規,0,2023-10-19,2023-10-19,株式会社ＮＥＸＴＰＬＵＳ,,株式会社,京都府,京都市右京区,太秦乾町２２番地１１,,26,108,6168176,,,,,,,2023-10-19,1,,,,,ネクストプラス,0
199,1130001075465,新規,0,2023-10-19,2023-10-19,株式会社町並駐車場,,株式会社,京都府,宇治市,六地蔵奈良町７４番地１パデシオン六地蔵１７１６号,,26,204,6110001,,,,,,,2023-10-19,1,,,,,マチナミチュウシャジョウ,0
208,1160001025426,新規,0,2023-10-19,2023-10-19,株式会社ＲＥＸＴ,,株式会社,滋賀県,栗東市,安養寺５丁目３番８５号,,25,208,5203015,,,,,,,2023-10-19,1,,,,,レクスト,0
214,1170005007048,新規,0,2023-10-19,2023-10-19,一般社団法人Ｋｕｍａｎｏ　Ｐｒｉｄｅ　Ｐｒｏｊｅｃｔ,,その他の設立登記法人,和歌山県,新宮市,蜂伏１１番４８号,,30,207,6470072,,,,,,,2023-10-19,1,,,,,クマノプライドプロジェクト,0
219,1180001158513,新規,0,2023-10-19,2023-10-19,株式会社Ｈｉｋａｒｉ,,株式会社,愛知県,名古屋市中村区,稲葉地本通３丁目３０番地Ｂ棟２Ｆ,,23,105,4530057,,,,,,,2023-10-19,1,,,,,ヒカリ,0
220,1180001158570,新規,0,2023-10-19,2023-10-19,株式会社ＵＮＩＴＥＤ　ＴＲＡＤＩＮＧ,,株式会社,愛知県,名古屋市港区,入場２丁目１６０７番地第二佐藤ハイツ４０１号,,23,111,4550803,,,,,,,2023-10-19,1,,,,,ユナイテッドトレーディング,0
221,1180001158612,新規,0,2023-10-19,2023-10-19,Ｍ‐ＬＰ株式会社,,株式会社,愛知県,名古屋市西区,則武新町３丁目１番４３号２Ｆ,,23,104,4510051,,,,,,,2023-10-19,1,,,,,エムエルピー,0
226,1190001030828,新規,0,2023-10-19,2023-10-19,株式会社ｖｉｅｃｌｏｍｅｓ,,株式会社,三重県,桑名市,矢田磧６２,,24,205,5110051,,,,,,,2023-10-19,1,,,,,ヴィクローム,0
229,1200001041831,新規,0,2023-10-19,2023-10-19,株式会社中津産業,,株式会社,岐阜県,中津川市,落合１４３６番地２,,21,206,5080006,,,,,,,2023-10-19,1,,,,,ナカツサンギョウ,0
231,1200003006114,新規,0,2023-10-19,2023-10-19,合同会社ｎａｎａｎｅ,,合同会社,岐阜県,関市,大平台１４－８,,21,205,5013952,,,,,,,2023-10-19,1,,,,,ナナネ,0
250,1290001103466,新規,0,2023-10-19,2023-10-19,株式会社徳丸石工,,株式会社,福岡県,福岡市南区,若久５丁目２９番２号,,40,134,8150042,,,,,,,2023-10-19,1,,,,,トクマルセッコウ,0
251,1290003014414,新規,0,2023-10-19,2023-10-19,合同会社じろう,,合同会社,福岡県,福岡市城南区,七隈８丁目６番２８号ルアール七隈１Ｆ,,40,136,8140133,,,,,,,2023-10-19,1,,,,,ジロウ,0
252,1290003014505,新規,0,2023-10-19,2023-10-19,合同会社Ｒａｄｉｎｎｏｖａｔｉｏｎ,,合同会社,福岡県,福岡市早良区,城西２丁目１２番２３－２号,,40,137,8140003,,,,,,,2023-10-19,1,,,,,ラディノベーション,0
265,1340001025993,新規,0,2023-10-19,2023-10-19,株式会社結いの大樹,,株式会社,鹿児島県,霧島市,国分下井５８０番地３,,46,218,8994463,,,,,,,2023-10-19,1,,,,,ユイノタイキ,0
266,1360001032699,新規,0,2023-10-19,2023-10-19,ＧＲＯＷ　ＵＰ株式会社,,株式会社,沖縄県,那覇市,安里１丁目１番６０号大光不動産ＢＬＤＧ，ＩＩ４－Ｃ,00132311,47,201,9020067,,,,,,,2023-10-19,1,,,,,グローアップ,0
267,1360003013391,新規,0,2023-10-19,2023-10-19,合同会社ながたや,,合同会社,沖縄県,那覇市,西１丁目７番３号２階,,47,201,9000036,,,,,,,2023-10-19,1,,,,,ナガタヤ,0
268,1360005006922,新規,0,2023-10-19,2023-10-19,一般社団法人Ｒｉｓｅ,,その他の設立登記法人,沖縄県,沖縄市,泡瀬６丁目１１番４６号,,47,211,9042172,,,,,,,2023-10-19,1,,,,,ライズ,0
285,1430005014810,新規,0,2023-10-19,2023-10-19,一般社団法人ＳＰＩＣＥ．Ｆ,,その他の設立登記法人,北海道,札幌市西区,西野四条９丁目３番３４－１０５号,,01,107,0630034,,,,,,,2023-10-19,1,,,,,スパイスエフ,0
290,1470003002508,新規,0,2023-10-19,2023-10-19,合同会社ベイフィールド,,合同会社,香川県,坂出市,江尻町１０３７番地１,,37,203,7620011,,,,,,,2023-10-19,1,,,,,ベイフィールド,0
293,1500001025250,新規,0,2023-10-19,2023-10-19,株式会社中村真珠,,株式会社,愛媛県,宇和島市,寄松甲３５９番地１,,38,203,7980084,,,,,,,2023-10-19,1,,,,,ナカムラシンジュ,0
295,1700150120187,新規,0,2023-10-19,2023-10-19,Ｓｈｅｎｚｈｅｎ　Ｊｉａｘｉｎ　Ｔｅｃｈｎｏｌｏｇｙ　Ｃｏ．，ＬＴＤ,,外国会社等,,,,,,,,３０１，３Ｆ，Ｂｌｄｇ　３－１，Ｘｉｎｚｈｏｎｇｔａｉ　Ｃｕｌｔｕｒａｌ　Ｖｅｎｔｕｒｅ　Ｐａｒｋ，Ｎｏ．１　Ｃａｉｙｕｎ　Ｒｄ，Ｌｏｎｇｃｈｅｎｇ　Ｓｔ，Ｌｏｎｇｇａｎｇ　Ｄｉｓｔ，Ｓｈｅｎｚｈｅｎ，Ｃｈｉｎａ,,,,,,2023-10-19,1,,,,,シェンジェンジャーシンテクノロジーカンパニーリミテッド,0
296,1700150120963,新規,0,2023-10-19,2023-10-03,姶良・伊佐地域農政推進協議会,,その他,鹿児島県,姶良市,加治木町諏訪町１２,,46,225,8995212,,,,,,,2023-10-03,1,,,,,アイライサチイキノウセイスイシンキヨウギカイ,0
297,1700150121276,新規,0,2023-10-19,2023-10-19,ｓｈｅｎｚｈｅｎｓｈｉｘｉｎｙａｎｇｄｉａｎｚｉｓｈａｎｇｗｕ　ｙｏｕｘｉａｎｇｏｎｇｓｉ,,外国会社等,,,,,,,,ｓｈｅｎｚｈｅｎｓｈｉ　ｂａｏａｎｑｕ　ｆｕｈａｉｊｉｅｄａｏｒｅｎｔｉａｎｓｈｅｑｕｆｅｎｇｔａｎｇｄａｄａｏ５２－５ｈａｏ１０１,,,,,,2023-10-19,1,,,,,シンセンシシンヤンデンシショウムユウゲンコウシ,0
298,1700150121284,新規,0,2023-10-19,2023-10-19,ｄａｎｙａｎｇｓｈｉｍｕｓｅｎｇｏｎｇｊｕｙｏｕｘｉａｎｇｏｎｇｓｉ,,外国会社等,,,,,,,,Ｄａｎｂｅｉ　Ｔｏｗｎ，Ｈｏｕｘｉａｎｇｑｉａｎｘｉａｎｇ　Ｖｉｌｌａｇｅ，Ｎｏ．２３，Ｚｈｕｄａｏ　Ｖｉｌｌａｇｅ，Ｄａｎｙａｎｇ　Ｃｉｔｙ，Ｊｉａｎｇｓｕ,,,,,,2023-10-19,1,,,,,タンヨウシモクシンコウグユウゲンコウシ,0
299,1700150121292,新規,0,2023-10-19,2023-10-19,Ｇｕａｎｇｚｈｏｕ　Ｙｉｌａｎ　Ｔｒａｄｉｎｇ　Ｃｏ．，Ｌｔｄ．,,外国会社等,,,,,,,,ＴｉａｎｈｅｑｕＮＯ．５１８ＴｉａｎｈｅＲｏａｄＲｏｏｍ１９２９Ａ０６ＧｕａｎｇｚｈｏｕＧｕａｎｇｄｏｎｇ，Ｃｈｉｎａ,,,,,,2023-10-19,1,,,,,グゥアンゾォウイラントゥレイディングカンパニーリミテッド,0
315,2010001239345,新規,0,2023-10-19,2023-10-19,Ｕｎｉｖｅｒｓａｌ　Ｐａｃｉｆｉｃ　Ｒｅａｌｔｙ株式会社,,株式会社,東京都,中央区,銀座６丁目１４番８号銀座石井ビル４階,,13,102,1040061,,,,,,,2023-10-19,1,,,,,ユニバーサルパシフィックリアルティ,0
316,2010003041880,新規,0,2023-10-19,2023-10-19,ボルト１合同会社,,合同会社,東京都,中央区,銀座１丁目６番１１号アースタックス税理士法人内,,13,102,1040061,,,,,,,2023-10-19,1,,,,,ボルトワン,0
321,2010103002221,新規,0,2023-10-19,2023-10-19,Ｓ＆Ｇ　Ｍａｎａｇｅｍｅｎｔ合同会社,,合同会社,東京都,八王子市,明神町４丁目８番１６号アクシア八王子９０３号,,13,201,1920046,,,,,,,2023-10-19,1,,,,,エスアンドジーマネジメント,0
328,2010401177896,新規,0,2023-10-19,2023-10-19,株式会社ＡＲＣＨ　ＤＡＹＳ,,株式会社,東京都,港区,南青山３丁目８番４０号青山センタービル２Ｆ,,13,103,1070062,,,,,,,2023-10-19,1,,,,,アーチデイズ,0
329,2010401177946,新規,0,2023-10-19,2023-10-19,株式会社ＰＩＸＥＬ　ＳＴＡＧＥ,,株式会社,東京都,港区,海岸３丁目２１－９ＡＬＢＡ２０３,,13,103,1080022,,,,,,,2023-10-19,1,,,,,ピクセルステージ,0
339,2010701045010,新規,0,2023-10-19,2023-10-19,株式会社Ｋｕｒｔａｉｎ,,株式会社,東京都,品川区,西五反田３丁目８番３号,,13,109,1410031,,,,,,,2023-10-19,1,,,,,カーテン,0
340,2010703006919,新規,0,2023-10-19,2023-10-19,合同会社脩和,,合同会社,東京都,品川区,西大井４丁目１２番１１号グレースマンション２０６,,13,109,1400015,,,,,,,2023-10-19,1,,,,,シュウワ,0
345,2010805003070,新規,0,2023-10-19,2023-10-19,一般社団法人モジュラーデザイン研究会,,その他の設立登記法人,東京都,大田区,中央６丁目２９番２号,,13,111,1430024,,,,,,,2023-10-19,1,,,,,モジュラーデザインケンキュウカイ,0
348,2011001157561,新規,0,2023-10-19,2023-10-19,株式会社Ｒｏｌｌｉｎ’ｏｎ　ｔｈｅ　ｅｄｇｅ,,株式会社,東京都,渋谷区,神宮前６丁目２３番４号桑野ビル２階,,13,113,1500001,,,,,,,2023-10-19,1,,,,,ローリンオンザエッヂ,0
349,2011001157594,新規,0,2023-10-19,2023-10-19,ＤｅｅｐＡＩ株式会社,,株式会社,東京都,目黒区,東山１丁目６番５－１４０９号シティハウス中目黒ステーションコート,,13,110,1530043,,,,,,,2023-10-19,1,,,,,ディープエーアイ,0
350,2011001157611,新規,0,2023-10-19,2023-10-19,テリックジャパン株式会社,,株式会社,東京都,渋谷区,恵比寿南３丁目７番１０－５０１号,,13,113,1500022,,,,,,,2023-10-19,1,,,,,テリックジャパン,0
351,2011001157669,新規,0,2023-10-19,2023-10-19,Ａｉｌｉｂｅｒｔｅ株式会社,,株式会社,東京都,渋谷区,桜丘町２３番１７号シティコート桜丘内,,13,113,1500031,,,,,,,2023-10-19,1,,,,,エリベルテ,0
352,2011001157685,新規,0,2023-10-19,2023-10-19,ＢＡコンサルティング株式会社,,株式会社,東京都,渋谷区,道玄坂１丁目１０番８号,,13,113,1500043,,,,,,,2023-10-19,1,,,,,ビーエーコンサルティング,0
355,2011101104793,新規,0,2023-10-19,2023-10-19,株式会社モア,,株式会社,東京都,新宿区,大久保１丁目１番１１号コントワール新宿２０９,,13,104,1690072,,,,,,,2023-10-19,1,,,,,モア,0
356,2011101104810,新規,0,2023-10-19,2023-10-19,株式会社Ｒｅｓｐｒｅｓｓ,,株式会社,東京都,新宿区,愛住町５番地３７－６０５号,,13,104,1600005,,,,,,,2023-10-19,1,,,,,リスプレス,0
357,2011101104827,新規,0,2023-10-19,2023-10-19,株式会社Ｈ＆Ｋエンジニアリング,,株式会社,東京都,新宿区,歌舞伎町１丁目１番１５－８０３号,,13,104,1600021,,,,,,,2023-10-19,1,,,,,エイチアンドケイエンジニアリング,0
358,2011101104835,新規,0,2023-10-19,2023-10-19,株式会社ＬＡＵＧＨＴＲＡＤＥ,,株式会社,東京都,新宿区,高田馬場１丁目２８番地１０号三慶ビル４階,,13,104,1690075,,,,,,,2023-10-19,1,,,,,ラフトレード,0
365,2011503005805,新規,0,2023-10-19,2023-10-19,合同会社ＣＨＲ,,合同会社,東京都,北区,中里１丁目２１番２号中里ビル１Ｆ,,13,117,1140015,,,,,,,2023-10-19,1,,,,,シーエイチアール,0
368,2011701026669,新規,0,2023-10-19,2023-10-19,株式会社ＫＴＳ,,株式会社,東京都,江戸川区,一之江７丁目３７番２２－１００６号,,13,123,1320024,,,,,,,2023-10-19,1,,,,,ケーティーエス,0
369,2011703003625,新規,0,2023-10-19,2023-10-19,合同会社ｉｎｃｏｍｅ‐Ｌａｂ,,合同会社,東京都,江戸川区,小松川２丁目１０番１－１２０４号,,13,123,1320034,,,,,,,2023-10-19,1,,,,,インカムラボ,0
374,2011803005892,新規,0,2023-10-19,2023-10-19,合同会社ＨＵＩ,,合同会社,東京都,葛飾区,東金町１丁目１４番１２号,,13,122,1250041,,,,,,,2023-10-19,1,,,,,エイチユーアイ,0
375,2012403006232,新規,0,2023-10-19,2023-10-19,ＨＵＲＵＳ合同会社,,合同会社,東京都,小金井市,本町５丁目３５番１０号,,13,210,1840004,,,,,,,2023-10-19,1,,,,,ウルス,0
379,2013301051502,新規,0,2023-10-19,2023-10-19,株式会社イエナカ工務店,,株式会社,東京都,豊島区,南長崎５丁目２７番１２－２０１号,,13,116,1710052,,,,,,,2023-10-19,1,,,,,イエナカコウムテン,0
380,2013301051510,新規,0,2023-10-19,2023-10-19,Ｍｏｌｅ　Ａｇｅｎｃｙ株式会社,,株式会社,東京都,豊島区,東池袋４丁目２７番５－１００２号室,,13,116,1700013,,,,,,,2023-10-19,1,,,,,モーリーエージェンシー,0
383,2013303006842,新規,0,2023-10-19,2023-10-19,合同会社ｓｅｃｏｎｄ　ｔｒｅｅ,,合同会社,東京都,豊島区,南池袋３丁目２４番２１－２０６号,,13,116,1710022,,,,,,,2023-10-19,1,,,,,セカンドツリー,0
388,2020001153982,新規,0,2023-10-19,2023-10-19,株式会社みんなの,,株式会社,神奈川県,川崎市中原区,宮内２丁目１５番１６号ガーデン桜１Ｆ,,14,133,2110051,,,,,,,2023-10-19,1,,,,,ミンナノ,0
393,2020005016153,新規,0,2023-10-19,2023-10-19,一般社団法人アイケアウェルネスジャパン,,その他の設立登記法人,神奈川県,川崎市中原区,上小田中３丁目２３番３４号,,14,133,2110053,,,,,,,2023-10-19,1,,,,,アイケアウェルネスジャパン,0
401,2021003013695,新規,0,2023-10-19,2023-10-19,合同会社かぅちぅ,,合同会社,神奈川県,横須賀市,汐入町２丁目５８マンション谷町Ｂ号室,,14,201,2380042,,,,,,,2023-10-19,1,,,,,カゥチゥ,0
406,2030001156720,新規,0,2023-10-19,2023-10-19,株式会社クリーンエイト,,株式会社,埼玉県,深谷市,上柴町西１丁目２番地１１ハイツユートピア１０１号,,11,218,3660052,,,,,,,2023-10-19,1,,,,,クリーンエイト,0
409,2030003022813,新規,0,2023-10-19,2023-10-19,合同会社沖田インベストメント１３,,合同会社,埼玉県,川口市,本町４丁目１番６号第一ビル４階,,11,203,3320012,,,,,,,2023-10-19,1,,,,,オキタインベストメントジュウサン,0
414,2040001130567,新規,0,2023-10-19,2023-10-19,株式会社ながせ,,株式会社,千葉県,松戸市,古ケ崎３丁目３３７０番地の５,,12,207,2710068,,,,,,,2023-10-19,1,,,,,ナガセ,0
415,2040001130591,新規,0,2023-10-19,2023-10-19,株式会社筒井造園土木,,株式会社,千葉県,船橋市,藤原６丁目４番２２号,,12,204,2730047,,,,,,,2023-10-19,1,,,,,ツツイゾウエンドボク,0
419,2060001036432,新規,0,2023-10-19,2023-10-19,Ｐｒｏ‐ＰＳＫ株式会社,,株式会社,栃木県,栃木市,藤岡町藤岡５５２７番地,,09,203,3231104,,,,,,,2023-10-19,1,,,,,プロピーエスケー,0
420,2060001036449,新規,0,2023-10-19,2023-10-19,株式会社山直重量,,株式会社,栃木県,足利市,本城２丁目１９０５番地,,09,202,3260808,,,,,,,2023-10-19,1,,,,,ヤマダイジュウリョウ,0
428,2080001025929,新規,0,2023-10-19,2023-10-19,株式会社ＳＵＮＮＹ,,株式会社,静岡県,静岡市葵区,東１丁目２３番２５号,,22,101,4200962,,,,,,,2023-10-19,1,,,,,サニー,0
434,2100001036898,新規,0,2023-10-19,2023-10-19,北アルプス飲料株式会社,,株式会社,長野県,北安曇郡松川村,４２０３番地３,,20,482,3998501,,,,,,,2023-10-19,1,,,,,キタアルプスインリョウ,0
435,2100003007229,新規,0,2023-10-19,2023-10-19,Ｈｙｇｇｅ　Ｌｉｆｅｓｔｙｌｅ　Ｇｒｏｕｐ合同会社,,合同会社,長野県,上水内郡信濃町,大字古海２２５９番地１０,,20,583,3891302,,,,,,,2023-10-19,1,,,,,ヒュッゲライフスタイルグループ,0
451,2120001258870,新規,0,2023-10-19,2023-10-19,小林商事株式会社,,株式会社,大阪府,大阪市東住吉区,杭全１丁目１７－１７－６０３号室,,27,121,5460002,,,,,,,2023-10-19,1,,,,,コバヤシショウジ,0
452,2120001258920,新規,0,2023-10-19,2023-10-19,オーシャンクーリエ株式会社,,株式会社,大阪府,大阪市西区,江之子島１丁目７－３－１４階,,27,106,5500006,,,,,,,2023-10-19,1,,,,,オーシャンクーリエ,0
453,2120001258961,新規,0,2023-10-19,2023-10-19,株式会社ＨＫ２,,株式会社,大阪府,大阪市浪速区,難波中３丁目１６番３号,,27,111,5560011,,,,,,,2023-10-19,1,,,,,エイチケーツー,0
459,2120101068410,新規,0,2023-10-19,2023-10-19,株式会社ＲＥＮＴ　ＨＯＵＳＥ,,株式会社,大阪府,泉佐野市,栄町２番１２号,,27,213,5980054,,,,,,,2023-10-19,1,,,,,レントハウス,0
462,2120901048223,新規,0,2023-10-19,2023-10-19,株式会社ＣＨＡｉＮＯＮ,,株式会社,大阪府,高槻市,芝生町１丁目６０番１３号,,27,207,5690823,,,,,,,2023-10-19,1,,,,,シェノン,0
464,2130001075381,新規,0,2023-10-19,2023-10-19,福之家株式会社,,株式会社,京都府,京都市伏見区,深草西浦町１丁目１８番地名神第一ビル７階,,26,109,6120029,,,,,,,2023-10-19,1,,,,,フクノイエ,0
468,2140001132041,新規,0,2023-10-19,2023-10-19,Ｔｐｌｕｓ株式会社,,株式会社,兵庫県,西宮市,甲子園口１丁目５番９号,,28,204,6638113,,,,,,,2023-10-19,1,,,,,ティープラス,0
471,2140003019658,新規,0,2023-10-19,2023-10-19,合同会社あまいろ,,合同会社,兵庫県,宝塚市,寿楽荘１０番１号,,28,214,6650012,,,,,,,2023-10-19,1,,,,,,0
472,2140003019682,新規,0,2023-10-19,2023-10-19,富士・スカーレット合同会社,,合同会社,兵庫県,神戸市灘区,六甲町４丁目７番２６号九龍城２階Ａ－２,,28,102,6570053,,,,,,,2023-10-19,1,,,,,フジスカーレット,0
475,2150001026804,新規,0,2023-10-19,2023-10-19,株式会社まさ＆ふみ,,株式会社,奈良県,生駒郡三郷町,立野南２丁目１２番４－２０２号,,29,343,6360822,,,,,,,2023-10-19,1,,,,,マサアンドフミ,0
477,2160001025433,新規,0,2023-10-19,2023-10-19,Ｆｕｔｕｒｅ　Ｅａｒｔｈ株式会社,,株式会社,滋賀県,大津市,大石東３丁目２番３３号,,25,201,5202264,,,,,,,2023-10-19,1,,,,,フューチャーアース,0
478,2170001017842,新規,0,2023-10-19,2023-10-19,オレンジロケッツ株式会社,,株式会社,和歌山県,西牟婁郡白浜町,堅田字上垣内１４８４番地１,,30,401,6492201,,,,,,,2023-10-19,1,,,,,オレンジロケッツ,0
485,2180001158529,新規,0,2023-10-19,2023-10-19,株式会社和清会,,株式会社,愛知県,一宮市,北小渕字田島１１番地６,,23,203,4910013,,,,,,,2023-10-19,1,,,,,ワセイカイ,0
486,2180001158545,新規,0,2023-10-19,2023-10-19,株式会社今村管理,,株式会社,愛知県,瀬戸市,池田町２０番地の３,,23,204,4890952,,,,,,,2023-10-19,1,,,,,イマムラカンリ,0
492,2190001030827,新規,0,2023-10-19,2023-10-19,株式会社獣害対策デザイン,,株式会社,三重県,伊勢市,御薗町新開８０番地,,24,203,5160802,,,,,,,2023-10-19,1,,,,,ジュウガイタイサクデザイン,0
495,2200001041830,新規,0,2023-10-19,2023-10-19,株式会社アッシェンプッテル,,株式会社,岐阜県,加茂郡八百津町,伊岐津志７４０番地２,,21,505,5050303,,,,,,,2023-10-19,1,,,,,アッシェンプッテル,0
496,2200001041839,新規,0,2023-10-19,2023-10-19,株式会社Ｐ‐ＦＡＣＴＯＲＹ,,株式会社,岐阜県,岐阜市,鏡島２９４３番地２,,21,201,5010111,,,,,,,2023-10-19,1,,,,,ピーファクトリー,0
499,2200003006113,新規,0,2023-10-19,2023-10-19,合同会社ハーパー,,合同会社,岐阜県,瑞穂市,森４７９番地１１,,21,216,5010303,,,,,,,2023-10-19,1,,,,,ハーパー,0
502,2220001025641,新規,0,2023-10-19,2023-10-19,株式会社インターステート,,株式会社,石川県,金沢市,西念３丁目１５‐２１,,17,201,9200024,,,,,,,2023-10-19,1,,,,,インターステート,0
505,2230001020063,新規,0,2023-10-19,2023-10-19,株式会社ニーテンクスコンサルティング,,株式会社,富山県,高岡市,角１９９番地２８,,16,202,9330007,,,,,,,2023-10-19,1,,,,,ニーテンクスコンサルティング,0
511,2250001020359,新規,0,2023-10-19,2023-10-19,株式会社ｉ８エステート,,株式会社,山口県,山口市,平井４１１番地１ブエナビスタ１０８号,,35,203,7530831,,,,,,,2023-10-19,1,,,,,アイエイトエステート,0
513,2260001038417,新規,0,2023-10-19,2023-10-19,ホウセイアーク株式会社,,株式会社,岡山県,笠岡市,神島外浦１７２７番地,,33,205,7140034,,,,,,,2023-10-19,1,,,,,ホウセイアーク,0
514,2260001038425,新規,0,2023-10-19,2023-10-19,ゼネラルゼーン株式会社,,株式会社,岡山県,岡山市北区,奥田１丁目１番３号アヴェニュー奥田１０１,,33,101,7000933,,,,,,,2023-10-19,1,,,,,ゼネラルゼーン,0
521,2290001103440,新規,0,2023-10-19,2023-10-19,株式会社ＭｏｖｉｅＬｉｆｅ,,株式会社,福岡県,福岡市中央区,天神４丁目６番２８号天神ファーストビル７階,,40,133,8100001,,,,,,,2023-10-19,1,,,,,ムービーライフ,0
527,2290801029975,新規,0,2023-10-19,2023-10-19,粘土電機株式会社,,株式会社,福岡県,直方市,大字上頓野２６０１番地１,,40,204,8220003,,,,,,,2023-10-19,1,,,,,ネンドデンキ,0
529,2290803004522,新規,0,2023-10-19,2023-10-19,合同会社ＳＹＭＰＡ,,合同会社,福岡県,行橋市,大字寺畔９３番地１,,40,213,8240042,,,,,,,2023-10-19,1,,,,,サンパ,0
533,2310001018669,新規,0,2023-10-19,2023-10-19,株式会社ＭＲＫＴＳ,,株式会社,長崎県,長崎市,片淵４丁目２５番５号,,42,201,8500003,,,,,,,2023-10-19,1,,,,,マークス,0
534,2310003004659,新規,0,2023-10-19,2023-10-19,合同会社ＡＲＫ,,合同会社,長崎県,大村市,皆同町５１１－５,,42,205,8560802,,,,,,,2023-10-19,1,,,,,アーク,0
536,2330001031364,新規,0,2023-10-19,2023-10-19,株式会社エステップス,,株式会社,熊本県,菊池郡大津町,大字室２４番地,,43,403,8691235,,,,,,,2023-10-19,1,,,,,エステップス,0
538,2340001026009,新規,0,2023-10-19,2023-10-19,株式会社Ｓｕｚｚｙ,,株式会社,鹿児島県,鹿屋市,西原４丁目９番１１－１号郷栄ビル１階,,46,203,8930064,,,,,,,2023-10-19,1,,,,,スウジィー,0
542,2360001032707,新規,0,2023-10-19,2023-10-19,株式会社オフィス・アーク,,株式会社,沖縄県,那覇市,久米２丁目６番１４号ＥａｓｅＬｉｆｅ５０２,,47,201,9000033,,,,,,,2023-10-19,1,,,,,オフィスアーク,0
543,2360001032715,新規,0,2023-10-19,2023-10-19,ＰＳＰＳ株式会社,,株式会社,沖縄県,浦添市,字大平４５１番地,,47,208,9012113,,,,,,,2023-10-19,1,,,,,ピーエスピーエス,0
551,2410001013619,新規,0,2023-10-19,2023-10-19,株式会社グルファ,,株式会社,秋田県,横手市,前郷字八ツ口８２,,05,203,0130042,,,,,,,2023-10-19,1,,,,,,0
552,2420003002817,新規,0,2023-10-19,2023-10-19,キャラバン合同会社,,合同会社,青森県,五所川原市,大字広田字柳沼６０番地６,,02,205,0370023,,,,,,,2023-10-19,1,,,,,キャラバン,0
553,2430001090219,新規,0,2023-10-19,2023-10-19,株式会社四季彩,,株式会社,北海道,虻田郡倶知安町,字高見２５８番地３,,01,400,0440065,,,,,,,2023-10-19,1,,,,,シキサイ,0
554,2430001090227,新規,0,2023-10-19,2023-10-19,株式会社エルサ,,株式会社,北海道,札幌市中央区,宮の森四条５丁目１番１６号,,01,101,0640954,,,,,,,2023-10-19,1,,,,,エルサ,0
558,2470003002507,新規,0,2023-10-19,2023-10-19,合同会社メイクアップ,,合同会社,香川県,高松市,屋島西町２４７１番地８,,37,201,7610113,,,,,,,2023-10-19,1,,,,,メイクアップ,0
560,2490001010617,新規,0,2023-10-19,2023-10-19,株式会社Ｅａｓｔ水産,,株式会社,高知県,室戸市,室津２３３８番地１１,,39,202,7817102,,,,,,,2023-10-19,1,,,,,イーストスイサン,0
561,2700150114840,新規,0,2023-10-19,2023-10-19,ＨＫ　Ｄｒａｇｏｎ　Ａｎｄ　Ｐａｎｄａ　Ｔｒａｄｉｎｇ　Ｃｏｍｐａｎｙ　Ｌｉｍｉｔｅｄ,,外国会社等,,,,,,,,ＲＯＯＭ　００６　１３Ａ／Ｆ　ＳＯＵＴＨ　ＴＯＷＥＲ　ＷＯＲＬＤ　ＦＩＮＡＮＣＥ　ＣＥＮＴＲＥ　ＨＡＲＢＯＵＲ　ＣＩＴＹ　１７　ＣＡＮＴＯＮ　ＲＤ　ＴＳＴ　ＫＬ,,,,,,2023-10-19,1,,,,,エイチケードラゴンアンドパンダトレーディングカンパニーリミテッド,0
562,2700150120161,新規,0,2023-10-19,2023-10-19,Ｇｕｉｇａｎｇ　Ｔｉａｎｓｈｉ　Ｔｒａｄｉｎｇ　Ｃｏ．，Ｌｔｄ,,外国会社等,,,,,,,,２８８　Ｑｉａｏｎａｎ　Ｒｏａｄ，Ｚｈａｎｊｉａｎｇ　Ｔｏｗｎ，Ｇａｎｇｎａｎ　Ｄｉｓｔｒｉｃｔ，Ｇｕｉｇａｎｇ　Ｃｉｔｙ，Ｇｕａｎｇｘｉ　Ｐｒｏｖｉｎｃｅ，Ｃｈｉｎａ,,,,,,2023-10-19,1,,,,,グイガンテャンシトゥレイディングカンパニーリミテッド,0
563,2700150120962,新規,0,2023-10-19,2023-10-03,ＳＥＩＫＡサブカルフェスタ実行委員会,,その他,京都府,相楽郡精華町,大字南稲八妻小字北尻７０番地,,26,366,6190243,,,,,,,2023-10-03,1,,,,,セイカサブカルフエスタジツコウイインカイ,0
564,2700150121044,新規,0,2023-10-19,2023-10-04,石内北まちづくり協議会,,その他,広島県,広島市佐伯区,石内北１丁目５－３３,,34,108,7315109,,,,,,,2023-10-04,1,,,,,イシウチキタマチヅクリキヨウギカイ,0
565,2700150121275,新規,0,2023-10-19,2023-10-19,杜の都個人タクシー協会,,その他,宮城県,仙台市青葉区,落合４丁目６番７－１０４号,,04,101,9893126,,,,,,,2023-10-19,1,,,,,モリノミヤココジンタクシーキョウカイ,0
566,2700150121283,新規,0,2023-10-19,2023-10-19,ＨＡＰＰＹＴＥＸ　ＴＲＡＤＩＮＧ　ＣＯ．，ＬＴＤ,,外国会社等,,,,,,,,ＮａｎｇｔｏｎｇＳｈｉ　ＧｏｎｇｎｏｎｇＬｕ１５５ＨａｏＴｉａｎｘｉｎｄａｓｈａ８Ｌｏｕ,,,,,,2023-10-19,1,,,,,ハッピーテクストレーディングカンパニーリミテッド,0
567,2700150121291,新規,0,2023-10-19,2023-10-19,ｓｈｅｎｚｈｅｎｓｈｉ　ｙｕｙｉｔｏｎｇｋｅｊｉ　ｙｏｕｘｉａｎｇｏｎｇｓｉ,,外国会社等,,,,,,,,ｌｏｎｇｈｕａｑｕｍｉｎｚｈｉｊｉｅｄａｏｘｉｎｎｉｕｓｈｅｑｕｘｉｎｎｉｕｌｕ　ｎｉｕｌａｎｑｉａｎｇｏｎｇｙｅｄａｓｈａｔｉａｎｇｏｎｇａｎｆａｎｇｓｈｉｃｈａｎｇＡ８０６　Ｓｈｅｎｚｈｅｎ　Ｇｕａｎｇｄｏｎｇ，Ｃｈｉｎａ,,,,,,2023-10-19,1,,,,,シンセンシユイトンケジユウゲンコウシ,0
586,3010001239303,新規,0,2023-10-19,2023-10-19,株式会社ＭＳＥ,,株式会社,東京都,千代田区,麹町３丁目１番地,,13,101,1020083,,,,,,,2023-10-19,1,,,,,エムエスイー,0
587,3010001239311,新規,0,2023-10-19,2023-10-19,株式会社ワンパス,,株式会社,東京都,中央区,新川１丁目１１番１０号,,13,102,1040033,,,,,,,2023-10-19,1,,,,,ワンパス,0
588,3010001239328,新規,0,2023-10-19,2023-10-19,株式会社ＬｉｎＰａｓｓ,,株式会社,東京都,千代田区,神田神保町１丁目８－１リベラ神田神保町ビル３階,,13,101,1010051,,,,,,,2023-10-19,1,,,,,リンパス,0
589,3010001239443,新規,0,2023-10-19,2023-10-19,みずほＦＡ設立準備株式会社,,株式会社,東京都,千代田区,丸の内１丁目３番３号,,13,101,1000005,,,,,,,2023-10-19,1,,,,,ミズホエフエーセツリツジュンビ,0
591,3010003041970,新規,0,2023-10-19,2023-10-19,ＪＳソーラー合同会社,,合同会社,東京都,千代田区,丸の内３丁目１番１号東京共同会計事務所内,,13,101,1000005,,,,,,,2023-10-19,1,,,,,ジェイエスソーラー,0
595,3010005037389,新規,0,2023-10-19,2023-10-19,一般社団法人ＪＳソーラー,,その他の設立登記法人,東京都,千代田区,丸の内３丁目１番１号東京共同会計事務所内,,13,101,1000005,,,,,,,2023-10-19,1,,,,,ジェイエスソーラー,0
605,3010401177846,新規,0,2023-10-19,2023-10-19,ＷＥＮｅｔ・ＪＡＰＡＮ株式会社,,株式会社,東京都,港区,新橋５丁目２７番地６号,,13,103,1050004,,,,,,,2023-10-19,1,,,,,ウィネットジャパン,0
606,3010401177953,新規,0,2023-10-19,2023-10-19,株式会社スリーアップ,,株式会社,東京都,港区,白金台２丁目９番５号Ｍ白金台６０４,,13,103,1080071,,,,,,,2023-10-19,1,,,,,スリーアップ,0
618,3010601063994,新規,0,2023-10-19,2023-10-19,株式会社人生は夢だらけ,,株式会社,東京都,江東区,南砂１丁目１１番２号,,13,108,1360076,,,,,,,2023-10-19,1,,,,,ジンセイハユメダラケ,0
621,3010801034440,新規,0,2023-10-19,2023-10-19,株式会社ＴＡＮＧ　ＴＡＮＧ,,株式会社,東京都,大田区,山王２丁目２番７号八景坂ビル１Ｆ,,13,111,1430023,,,,,,,2023-10-19,1,,,,,タンタン,0
626,3010901054000,新規,0,2023-10-19,2023-10-19,株式会社くらしデザイン自由が丘,,株式会社,東京都,世田谷区,奥沢６丁目２６－５,,13,112,1580083,,,,,,,2023-10-19,1,,,,,クラシデザインジユウガオカ,0
636,3011001157560,新規,0,2023-10-19,2023-10-19,サクラ化学株式会社,,株式会社,東京都,目黒区,自由が丘２丁目１６番１２号ＲＪ３,,13,110,1520035,,,,,,,2023-10-19,1,,,,,サクラカガク,0
637,3011001157569,新規,0,2023-10-19,2023-10-19,株式会社ジャップ・ヒューマン・リソーシズ,,株式会社,東京都,渋谷区,渋谷３丁目２７番１５号光和ビル２階,,13,113,1500002,,,,,,,2023-10-19,1,,,,,ジャップヒューマンリソーシズ,0
638,3011001157577,新規,0,2023-10-19,2023-10-19,株式会社ＩＳＨＩＫＡＷＡＹＡ,,株式会社,東京都,渋谷区,恵比寿４丁目２０－４恵比寿ガーデンプレイスグラススクエアＢ１ポータルポイントＦＢ－３４,,13,113,1500013,,,,,,,2023-10-19,1,,,,,イシカワヤ,0
639,3011001157635,新規,0,2023-10-19,2023-10-19,セリード株式会社,,株式会社,東京都,渋谷区,円山町１０番１３サンライズ渋谷２０１号室,,13,113,1500044,,,,,,,2023-10-19,1,,,,,セリード,0
640,3011001157759,新規,0,2023-10-19,2023-10-19,株式会社ムダレス,,株式会社,東京都,目黒区,下目黒１丁目８番１号目黒アルコタワー７Ｆ,,13,110,1530064,,,,,,,2023-10-19,1,,,,,ムダレス,0
643,3011101104834,新規,0,2023-10-19,2023-10-19,株式会社エトワールブルー,,株式会社,東京都,新宿区,西新宿６丁目５番１号新宿アイランドタワー２階,,13,104,1600023,,,,,,,2023-10-19,1,,,,,エトワールブルー,0
644,3011103013629,新規,0,2023-10-19,2023-10-19,ヨンバサンバ合同会社,,合同会社,東京都,新宿区,北新宿２丁目２１番２－２００３号,,13,104,1690074,,,,,,,2023-10-19,1,,,,,ヨンバサンバ,0
651,3011501029879,新規,0,2023-10-19,2023-10-19,株式会社ＴＥＲＥＡＭＩＮＴ,,株式会社,東京都,北区,豊島７丁目８番１４号,,13,117,1140003,,,,,,,2023-10-19,1,,,,,テリアミント,0
655,3011601027205,新規,0,2023-10-19,2023-10-19,株式会社ＴＯＡ,,株式会社,東京都,練馬区,谷原６丁目２０番３４号,,13,120,1770032,,,,,,,2023-10-19,1,,,,,トア,0
658,3011701026668,新規,0,2023-10-19,2023-10-19,株式会社ＮＡＮＡ,,株式会社,東京都,江戸川区,東葛西５丁目１８番３号２０４,,13,123,1340084,,,,,,,2023-10-19,1,,,,,ナナ,0
660,3011703003624,新規,0,2023-10-19,2023-10-19,ベルクフルス合同会社,,合同会社,東京都,江戸川区,平井２丁目１０番２６号メゾン・ソレイユ２０２,,13,123,1320035,,,,,,,2023-10-19,1,,,,,ベルクフルス,0
662,3012703002830,新規,0,2023-10-19,2023-10-19,いくひ合同会社,,合同会社,東京都,小平市,上水南町４丁目１２番１６号,,13,211,1870021,,,,,,,2023-10-19,1,,,,,イクヒ,0
664,3013303006841,新規,0,2023-10-19,2023-10-19,合同会社ＳＭＢ,,合同会社,東京都,豊島区,南大塚３丁目２８番６－９０６号,,13,116,1700005,,,,,,,2023-10-19,1,,,,,エスエムビー,0
670,3020001153981,新規,0,2023-10-19,2023-10-19,株式会社あさの不動産,,株式会社,神奈川県,川崎市多摩区,枡形５丁目２１番１１－２号,,14,135,2140032,,,,,,,2023-10-19,1,,,,,アサノフドウサン,0
671,3020001154006,新規,0,2023-10-19,2023-10-19,株式会社杉並建業,,株式会社,神奈川県,川崎市川崎区,大島４丁目１９－１０－２Ｆ,,14,131,2100834,,,,,,,2023-10-19,1,,,,,スギナミケンギョウ,0
673,3020003024776,新規,0,2023-10-19,2023-10-19,岡田合同会社,,合同会社,神奈川県,横浜市保土ケ谷区,岩井町７６番地２－６０５号,,14,106,2400023,,,,,,,2023-10-19,1,,,,,オカダ,0
674,3020003024826,新規,0,2023-10-19,2023-10-19,合同会社斎藤信吾建築設計事務所,,合同会社,神奈川県,横浜市港北区,新吉田東２丁目２３番１３号,,14,109,2230058,,,,,,,2023-10-19,1,,,,,サイトウシンゴケンチクセッケイジムショ,0
680,3021003013067,新規,0,2023-10-19,2023-10-19,ＳＰＡＣＥ　ＤＥＰＡＲＴＵＲＥ合同会社,,合同会社,神奈川県,大和市,南林間７丁目２１―２,,14,213,2420006,,,,,,,2023-10-19,1,,,,,スペースデパーチャー,0
689,3030001156711,新規,0,2023-10-19,2023-10-19,株式会社ＰＬＺＭ,,株式会社,埼玉県,さいたま市北区,宮原町４丁目１２４番地１３カレッジ宮原２０５,,11,102,3310812,,,,,,,2023-10-19,1,,,,,プリズム,0
690,3030001156728,新規,0,2023-10-19,2023-10-19,ユニバシーク株式会社,,株式会社,埼玉県,川口市,中青木２丁目１２番１３－８０３号,,11,203,3320032,,,,,,,2023-10-19,1,,,,,ユニバシーク,0
691,3030003022804,新規,0,2023-10-19,2023-10-19,合同会社加藤高尾輸出,,合同会社,埼玉県,東松山市,松山町２丁目８番１２号,,11,212,3550018,,,,,,,2023-10-19,1,,,,,カトウタカオユシュツ,0
700,3040003023520,新規,0,2023-10-19,2023-10-19,ひとみランドアシスト合同会社,,合同会社,千葉県,君津市,人見２丁目７番５号,,12,225,2991147,,,,,,,2023-10-19,1,,,,,ヒトミランドアシスト,0
701,3040003023586,新規,0,2023-10-19,2023-10-19,合同会社Ａｌｌｉｎ,,合同会社,千葉県,茂原市,木崎１９９９－３－２,,12,210,2970016,,,,,,,2023-10-19,1,,,,,オールイン,0
705,3060001036448,新規,0,2023-10-19,2023-10-19,株式会社足利一空,,株式会社,栃木県,足利市,山川町５７番地１山川町戸建Ａ号室,,09,202,3260021,,,,,,,2023-10-19,1,,,,,アシカガイックウ,0
706,3060001036456,新規,0,2023-10-19,2023-10-19,株式会社ＴｒｕｓｔＲｅａｌｔｏｒｓ,,株式会社,栃木県,宇都宮市,宿郷５丁目２０番９号,,09,201,3210945,,,,,,,2023-10-19,1,,,,,トラストリアルターズ,0
710,3080001025928,新規,0,2023-10-19,2023-10-19,株式会社ＪＥＥＫＭ,,株式会社,静岡県,島田市,野田１２０６番地の１,,22,209,4270007,,,,,,,2023-10-19,1,,,,,ジークエム,0
712,3080003003072,新規,0,2023-10-19,2023-10-19,合同会社大鷹,,合同会社,静岡県,藤枝市,志太２丁目１１－２２オーシャンテラス１－Ｃ,,22,214,4260071,,,,,,,2023-10-19,1,,,,,オオタカ,0
715,3080103002908,新規,0,2023-10-19,2023-10-19,合同会社富士山総研,,合同会社,静岡県,駿東郡小山町,藤曲９６番地の２,,22,344,4101304,,,,,,,2023-10-19,1,,,,,フジサンソウケン,0
719,3090003002404,新規,0,2023-10-19,2023-10-19,合同会社エイティーン,,合同会社,山梨県,南都留郡山中湖村,山中８６５－２２７,,19,425,4010501,,,,,,,2023-10-19,1,,,,,エイティーン,0
742,3120001258886,新規,0,2023-10-19,2023-10-19,株式会社ビーアイジーグループ,,株式会社,大阪府,大阪市東成区,中道４丁目１６番２１－２０１号,,27,115,5370025,,,,,,,2023-10-19,1,,,,,ビーアイジーグループ,0
743,3120001258894,新規,0,2023-10-19,2023-10-19,カクン株式会社,,株式会社,大阪府,大阪市東住吉区,南田辺１丁目１－１５、１０２Ｄ号室,,27,121,5460033,,,,,,,2023-10-19,1,,,,,カクン,0
744,3120001258911,新規,0,2023-10-19,2023-10-19,アルバトロン株式会社,,株式会社,大阪府,大阪市淀川区,西中島１丁目４番６号,,27,123,5320011,,,,,,,2023-10-19,1,,,,,アルバトロン,0
745,3120001258952,新規,0,2023-10-19,2023-10-19,株式会社ＯＦＦＩＣＥ寿,,株式会社,大阪府,寝屋川市,高柳３丁目１７番７号,,27,215,5720051,,,,,,,2023-10-19,1,,,,,オフィスコトブキ,0
748,3120003025079,新規,0,2023-10-19,2023-10-19,合同会社わっはっは,,合同会社,大阪府,大阪市平野区,喜連５丁目４番３５－２０５,,27,126,5470027,,,,,,,2023-10-19,1,,,,,,0
749,3120005023956,新規,0,2023-10-19,2023-10-19,一般社団法人キャリアリリーフ協会,,その他の設立登記法人,大阪府,大阪市生野区,中川３丁目３番１１－１３０１号,,27,116,5440005,,,,,,,2023-10-19,1,,,,,キャリアリリーフ,0
751,3120101068401,新規,0,2023-10-19,2023-10-19,株式会社Ｔｅｃｈ　Ｂｕｉｌｙ,,株式会社,大阪府,堺市北区,新金岡町２丁５番３－７１８号,,27,146,5918021,,,,,,,2023-10-19,1,,,,,テックビリー,0
756,3120903004875,新規,0,2023-10-19,2023-10-19,ＭＫＤ合同会社,,合同会社,大阪府,吹田市,内本町１丁目１４番７号,,27,205,5640032,,,,,,,2023-10-19,1,,,,,エムケーデイ,0
757,3122003002693,新規,0,2023-10-19,2023-10-19,合同会社Ｎ　ｐｌｕｓ,,合同会社,大阪府,東大阪市,長田１丁目５番２８号,,27,227,5770015,,,,,,,2023-10-19,1,,,,,エヌプラス,0
761,3130001075455,新規,0,2023-10-19,2023-10-19,株式会社えんとつプロジェクト,,株式会社,京都府,京都市中京区,中之町５６５番地２３ハレの日花遊小路２階Ｄ,,26,104,6040032,,,,,,,2023-10-19,1,,,,,エントツプロジェクト,0
762,3130001075471,新規,0,2023-10-19,2023-10-19,株式会社仲野工業,,株式会社,京都府,舞鶴市,字倉谷１７８０番地,,26,202,6240906,,,,,,,2023-10-19,1,,,,,ナカノコウギョウ,0
766,3140001132008,新規,0,2023-10-19,2023-10-19,株式会社長井食品山手通,,株式会社,兵庫県,神戸市中央区,下山手通２丁目１３番９号,,28,110,6500011,,,,,,,2023-10-19,1,,,,,ナガイショクヒンヤマテドオリ,0
767,3140001132040,新規,0,2023-10-19,2023-10-19,株式会社エールＡ,,株式会社,兵庫県,尼崎市,長洲東通２丁目５番３０号,,28,202,6600801,,,,,,,2023-10-19,1,,,,,エールエー,0
768,3140001132065,新規,0,2023-10-19,2023-10-19,株式会社ヤシマ,,株式会社,兵庫県,神戸市長田区,長尾町１丁目７－９,,28,106,6530855,,,,,,,2023-10-19,1,,,,,ヤシマ,0
770,3160001025432,新規,0,2023-10-19,2023-10-19,株式会社Ｎｓｔｙｌｅ,,株式会社,滋賀県,守山市,吉身１丁目９番１４号,,25,207,5240021,,,,,,,2023-10-19,1,,,,,エヌスタイル,0
771,3170001017841,新規,0,2023-10-19,2023-10-19,つくも株式会社,,株式会社,和歌山県,和歌山市,神前７番地２８,,30,201,6408314,,,,,,,2023-10-19,1,,,,,ツクモ,0
772,3170003001934,新規,0,2023-10-19,2023-10-19,合同会社虹,,合同会社,和歌山県,和歌山市,木ノ本４１７番地１０,,30,201,6408453,,,,,,,2023-10-19,1,,,,,ニジ,0
777,3180001158560,新規,0,2023-10-19,2023-10-19,エスエスケイ株式会社,,株式会社,愛知県,春日井市,上田楽町５７９番地５１,,23,206,4860801,,,,,,,2023-10-19,1,,,,,エスエスケイ,0
778,3180001158569,新規,0,2023-10-19,2023-10-19,株式会社ｈｙｖｅ,,株式会社,愛知県,名古屋市東区,泉１丁目２３番３号ＩＢ・ＳＰＯＴ１階,,23,102,4610001,,,,,,,2023-10-19,1,,,,,フュヴェ,0
779,3180001158602,新規,0,2023-10-19,2023-10-19,株式会社セカンドコア,,株式会社,愛知県,名古屋市南区,明治１丁目７番１７号,,23,112,4570861,,,,,,,2023-10-19,1,,,,,セカンドコア,0
785,3190001030826,新規,0,2023-10-19,2023-10-19,株式会社トワ,,株式会社,三重県,四日市市,西新地７番３号プラトンホテル四日市２階２０７号室,,24,202,5100087,,,,,,,2023-10-19,1,,,,,トワ,0
787,3200001041838,新規,0,2023-10-19,2023-10-19,株式会社アウラ,,株式会社,岐阜県,岐阜市,薮田南１丁目１１番９号第２岐阜県ビル７０７号室,,21,201,5008384,,,,,,,2023-10-19,1,,,,,アウラ,0
788,3200001041846,新規,0,2023-10-19,2023-10-19,ハニカム株式会社,,株式会社,岐阜県,飛騨市,古川町弐之町３－１,,21,217,5094235,,,,,,,2023-10-19,1,,,,,ハニカム,0
789,3220001025640,新規,0,2023-10-19,2023-10-19,株式会社ＳＯＬＥＩＬエンターテイメント,,株式会社,石川県,金沢市,三馬１丁目１７４番地４,,17,201,9218162,,,,,,,2023-10-19,1,,,,,ソレイユエンターテイメント,0
791,3230001020070,新規,0,2023-10-19,2023-10-19,株式会社ｅｙｅｓ,,株式会社,富山県,富山市,町村５８－２ラパン町村ＩＩ２０５,00132313,16,201,9300952,,,,,,,2023-10-19,1,,,,,アイズ,0
793,3240001062277,新規,0,2023-10-19,2023-10-19,サンリゾート株式会社,,株式会社,広島県,尾道市,因島重井町５４２４番地２,,34,205,7222102,,,,,,,2023-10-19,1,,,,,サンリゾート,0
794,3240001062302,新規,0,2023-10-19,2023-10-19,株式会社ＮＥＷ　ＭＯＲＥ,,株式会社,広島県,広島市中区,堺町１丁目７番１８号,,34,101,7300853,,,,,,,2023-10-19,1,,,,,,0
802,3260001038416,新規,0,2023-10-19,2023-10-19,株式会社ＣＹＧＮＵＳ,,株式会社,岡山県,岡山市東区,下阿知１２４６番地,,33,103,7048141,,,,,,,2023-10-19,1,,,,,シグナス,0
804,3260005011286,新規,0,2023-10-19,2023-10-19,一般社団法人ＤＥＳＩＧＮ　ＧＯＡＬｓ,,その他の設立登記法人,岡山県,岡山市北区,津高９６２番地,,33,101,7011152,,,,,,,2023-10-19,1,,,,,デザインゴールズ,0
808,3290001103472,新規,0,2023-10-19,2023-10-19,株式会社主体的なキャリア形成,,株式会社,福岡県,福岡市博多区,博多駅前１丁目１５番２０号ＮＭＦ博多駅前ビル２階,,40,132,8120011,,,,,,,2023-10-19,1,,,,,シュタイテキナキャリアケイセイ,0
811,3330001031355,新規,0,2023-10-19,2023-10-19,株式会社ｙｏｒｉｓｏｕ,,株式会社,熊本県,上益城郡嘉島町,大字鯰１８９５番地１,,43,442,8613101,,,,,,,2023-10-19,1,,,,,ヨリソウ,0
815,3340001025959,新規,0,2023-10-19,2023-10-19,株式会社薩摩ピーカンファーム,,株式会社,鹿児島県,霧島市,隼人町内１５７０番地３,,46,218,8995116,,,,,,,2023-10-19,1,,,,,サツマピーカンファーム,0
816,3340001025991,新規,0,2023-10-19,2023-10-19,株式会社Ａ＆Ｚ,,株式会社,鹿児島県,鹿児島市,西千石町７－１４,,46,201,8920847,,,,,,,2023-10-19,1,,,,,エーアンドゼット,0
817,3340001026008,新規,0,2023-10-19,2023-10-19,株式会社ｅｑｕａｌ,,株式会社,鹿児島県,薩摩川内市,宮内町２３６７番地県営宮下団地１号棟４６,,46,215,8950065,,,,,,,2023-10-19,1,,,,,イコール,0
820,3350001018623,新規,0,2023-10-19,2023-10-19,株式会社ＷＡＹＸ,,株式会社,宮崎県,宮崎市,大橋２丁目２１５番地,,45,201,8800022,,,,,,,2023-10-19,1,,,,,ウェイクス,0
827,3360001032714,新規,0,2023-10-19,2023-10-19,株式会社グリュックル,,株式会社,沖縄県,那覇市,西１丁目２３番１７号グランシャトレ西町６０１,,47,201,9000036,,,,,,,2023-10-19,1,,,,,グリュックル,0
828,3360005006920,新規,0,2023-10-19,2023-10-19,医療法人ＳＭＩＬＥ,,その他の設立登記法人,沖縄県,うるま市,字赤道６３０番地,,47,213,9042245,,,,,,,2023-10-19,1,,,,,スマイル,0
833,3410001013626,新規,0,2023-10-19,2023-10-19,株式会社ソライロ,,株式会社,秋田県,秋田市,土崎港中央１丁目６番１６号,,05,201,0110946,,,,,,,2023-10-19,1,,,,,ソライロ,0
834,3410003003856,新規,0,2023-10-19,2023-10-19,合同会社トウカイ電気,,合同会社,秋田県,秋田市,仁井田蕗見町２番２７号,,05,201,0101434,,,,,,,2023-10-19,1,,,,,,0
837,3470001019849,新規,0,2023-10-19,2023-10-19,言語研究社株式会社,,株式会社,香川県,高松市,天神前１０番５号高松セントラルスカイビルディング３Ｆ・ｓｏｕｔｈ,,37,201,7600018,,,,,,,2023-10-19,1,,,,,ゲンゴケンキュウシャ,0
838,3500005008646,新規,0,2023-10-19,2023-10-19,一般社団法人ＤＲＥＡＭ　ＶＥＮＴＵＲＥ,,その他の設立登記法人,愛媛県,伊予郡松前町,大字筒井１４２７番地５,,38,401,7913120,,,,,,,2023-10-19,1,,,,,ドリームベンチャー,0
839,3700150120706,新規,0,2023-10-19,2023-10-19,ｓｈｅｎ　ｚｈｅｎ　ｓｈｉ　ｂａｉ　ｌｕ　ｈｕ　ｗａｉ　ｙｏｎｇ　ｐｉｎ　ｃｏ，ｌｔｄ,,外国会社等,,,,,,,,ｌｏｎｇ　ｇａｎｇ　ｊｉｅ　ｄａｏ　ｗｕ　ｌｉａｎ　ｓｈｅ　ｑｕ　ｙｏｕ　ｙｉ　ｌｕ　２　ｈａｏ　ｇｕｏ　ｘｉａｎｇ　ｓｈａｎｇ　ｊｕ　２　ｚｕｏ　Ａ　ｄａｎ　ｙｕａｎ　３０２　ｓｈｅｎ　ｚｈｅｎ　ｇｕａｎｇ　ｄｏｎｇ，Ｃｈｉｎａ,,,,,,2023-10-19,1,,,,,シェンゼェンシバイルフワイヨンピンカンパニーリミテッド,0
840,3700150121274,新規,0,2023-10-19,2023-10-19,ＤｏｎｇＧｕａｎＳｈｉＨｅｎｇＨｅｎｇＤｉａｎＺｉＳｈａｎｇＷｕＹｏｕＸｉａｎＧｏｎｇＳｉ,,外国会社等,,,,,,,,ＧｕａｎｇＤｏｎｇＳｈｅｎｇＤｏｎｇＧｕａｎＳｈｉＨｕＭｅｎＺｈｅｎＸｉＰａｎＣｕｎＱｉａｎＬｕ９Ｈａｏ３０４Ｆａｎｇ,,,,,,2023-10-19,1,,,,,ドンワンシホンホンディエンズーシャンウヨウシエンゴンス,0
841,3700150121282,新規,0,2023-10-19,2023-10-19,ｄｏｎｇｇｕａｎｓｈｉ　ｇｏｕ　ｊｉｎ　ｘｉ　ｆｕｓｈｉ　ｙｏｕｘｉａｎｇｏｎｇｓｉ,,外国会社等,,,,,,,,ｄｏｎｇｇｕａｎｓｈｉ　ｈｏｕｊｉｅｚｈｅｎ　ｂａｉｈａｏｃｕｎ　ｇｏｎｇｙｅｊｉｅ１５ｈａｏ　ｓａｎ　ｌｏｕ,,,,,,2023-10-19,1,,,,,トウカンシコウキンキフクショクユウゲンコウシ,0
842,3700150121290,新規,0,2023-10-19,2023-10-19,ｓｈｅｎｚｈｅｎｓｈｉｚｈｉｂｅｎｄｉａｎｚｉｙｏｕｘｉａｎｇｏｎｇｓｉ,,外国会社等,,,,,,,,３１１ＬａｎｇｓｈａｎＰａｖｉｌｉｏｎＮａｎｓｈａｎＹｕｎｇｕＩｎｎｏｖａｔｉｏｎＩｎｄｕｓｔｒｉａｌＰａｒｋ４０９３ＬｉｕｘｉａｎＡｖｅｎｕｅＰｉｎｇｓｈａｎｃｏｍｍｕｎｉｔｙＴａｏｙｕａｎＳｔｒｅｅｔ　ＮａｎｓｈａｎＤｉｓｔｒｉｃｔ　Ｓｈｅｎｚｈｅｎ,,,,,,2023-10-19,1,,,,,シンセンシジベンデンシユウゲンコウシ,0
847,4010001239376,新規,0,2023-10-19,2023-10-19,結キャピタル・ホールディングス株式会社,,株式会社,東京都,中央区,日本橋小舟町１１番２号,,13,102,1030024,,,,,,,2023-10-19,1,,,,,ユイキャピタルホールディングス,0
848,4010001239384,新規,0,2023-10-19,2023-10-19,株式会社ウィズダム福祉サービス,,株式会社,東京都,千代田区,内幸町１丁目３番１号幸ビルディング９階,,13,101,1000011,,,,,,,2023-10-19,1,,,,,ウィズダムフクシサービス,0
849,4010001239418,新規,0,2023-10-19,2023-10-19,株式会社ＦＷ,,株式会社,東京都,中央区,銀座１丁目１２番４号Ｎ＆ＥＢＬＤ．７Ｆ,,13,102,1040061,,,,,,,2023-10-19,1,,,,,エフダブル,0
852,4010003041986,新規,0,2023-10-19,2023-10-19,アンコーラ合同会社,,合同会社,東京都,中央区,日本橋本町１丁目１番６号柳ビル２階Ｂ室,,13,102,1030023,,,,,,,2023-10-19,1,,,,,アンコーラ,0
853,4010003042002,新規,0,2023-10-19,2023-10-19,シダー合同会社,,合同会社,東京都,千代田区,神田鍛冶町３丁目３番地３,,13,101,1010045,,,,,,,2023-10-19,1,,,,,シダー,0
859,4010101015859,新規,0,2023-10-19,2023-10-19,株式会社ＭＩＭＡＳＵ,,株式会社,東京都,八王子市,めじろ台２丁目４０番地７,,13,201,1930833,,,,,,,2023-10-19,1,,,,,ミマス,0
871,4010401177770,新規,0,2023-10-19,2023-10-19,ワールドタイム株式会社,,株式会社,東京都,港区,虎ノ門１丁目２３番１号虎ノ門ヒルズ森タワー１８階,,13,103,1050001,,,,,,,2023-10-19,1,,,,,ワールドタイム,0
872,4010401177903,新規,0,2023-10-19,2023-10-19,株式会社未来,,株式会社,東京都,港区,高輪３丁目１０－２,,13,103,1080074,,,,,,,2023-10-19,1,,,,,ミライ,0
873,4010401177928,新規,0,2023-10-19,2023-10-19,株式会社フォレストフィールド,,株式会社,東京都,港区,南青山３丁目１番３６号青山丸竹ビル６Ｆ,,13,103,1070062,,,,,,,2023-10-19,1,,,,,フォレストフィールド,0
874,4010401177944,新規,0,2023-10-19,2023-10-19,株式会社ミカエルエテルノット,,株式会社,東京都,港区,北青山１丁目３番１号アールキューブ青山３階,,13,103,1070061,,,,,,,2023-10-19,1,,,,,ミカエルエテルノット,0
879,4010403031182,新規,0,2023-10-19,2023-10-19,合同会社マルシアン,,合同会社,東京都,港区,浜松町２丁目２番１５号浜松町ダイヤビル２Ｆ,,13,103,1050013,,,,,,,2023-10-19,1,,,,,マルシアン,0
880,4010403031224,新規,0,2023-10-19,2023-10-19,セーフティマネジメントアドバイザリー合同会社,,合同会社,東京都,港区,虎ノ門３丁目１８番６号,,13,103,1050001,,,,,,,2023-10-19,1,,,,,セーフティマネジメントアドバイザリー,0
883,4010405022568,新規,0,2023-10-19,2023-10-19,一般社団法人Ｇｌｏｂａｌ　Ｃｈｉｌｄｒｅｎ　Ｆｏｕｎｄａｔｉｏｎ日本支部,,その他の設立登記法人,東京都,港区,赤坂８丁目１２番４－３０１号,,13,103,1070052,,,,,,,2023-10-19,1,,,,,グローバルチルドレンファウンデーションニホンシブ,0
884,4010501051165,新規,0,2023-10-19,2023-10-19,株式会社セレンディピション,,株式会社,東京都,台東区,寿３丁目１３番１０－９０１号中銀浅草寿町マンシオン,,13,106,1110042,,,,,,,2023-10-19,1,,,,,セレンディピション,0
885,4010501051198,新規,0,2023-10-19,2023-10-19,株式会社ＰＲＯＴＥＣＴ　ＡＳＳＥＴＳ,,株式会社,東京都,台東区,浅草橋５丁目２番３号,,13,106,1110053,,,,,,,2023-10-19,1,,,,,プロテクトアセット,0
889,4010601063993,新規,0,2023-10-19,2023-10-19,安安株式会社,,株式会社,東京都,墨田区,横川３丁目６番７号２－Ｒ室,,13,107,1300003,,,,,,,2023-10-19,1,,,,,アンアン,0
892,4010701045009,新規,0,2023-10-19,2023-10-19,株式会社ＲＨ＆Ｃｏｍｐａｎｙ,,株式会社,東京都,品川区,西五反田１丁目２６番２号五反田サンハイツ９１１,,13,109,1410031,,,,,,,2023-10-19,1,,,,,アールエイチアンドカンパニー,0
893,4010901054040,新規,0,2023-10-19,2023-10-19,秀プランニング株式会社,,株式会社,東京都,世田谷区,奥沢３丁目１３番１１号杉テラス奥沢５０１,,13,112,1580083,,,,,,,2023-10-19,1,,,,,シュウプランニング,0
903,4011001157551,新規,0,2023-10-19,2023-10-19,株式会社ＬＲＮ,,株式会社,東京都,目黒区,目黒２丁目１１－３,,13,110,1530063,,,,,,,2023-10-19,1,,,,,ラーン,0
908,4011101104809,新規,0,2023-10-19,2023-10-19,さとやま樹脂株式会社,,株式会社,東京都,新宿区,西新宿３丁目３番１３号西新宿水間ビル６階,,13,104,1600023,,,,,,,2023-10-19,1,,,,,サトヤマジュシ,0
909,4011101104825,新規,0,2023-10-19,2023-10-19,株式会社ＡＳＰＪａｐａｎ,,株式会社,東京都,新宿区,百人町１丁目１７－５メゾンオグラ６０３,,13,104,1690073,,,,,,,2023-10-19,1,,,,,エーエスピージャパン,0
914,4011103013603,新規,0,2023-10-19,2023-10-19,合同会社Ｍ＆Ｎカンパニー,,合同会社,東京都,新宿区,河田町４番８号,,13,104,1620054,,,,,,,2023-10-19,1,,,,,エムアンドエヌカンパニー,0
915,4011103013628,新規,0,2023-10-19,2023-10-19,縁空合同会社,,合同会社,東京都,新宿区,荒木町６番地４２ＡＧビル３Ｆ,,13,104,1600007,,,,,,,2023-10-19,1,,,,,エンク,0
918,4011401025548,新規,0,2023-10-19,2023-10-19,株式会社ＹＰ,,株式会社,東京都,板橋区,徳丸２丁目１４番１４号,,13,119,1750083,,,,,,,2023-10-19,1,,,,,ワイピー,0
919,4011501029886,新規,0,2023-10-19,2023-10-19,広悦東京リーガルコンサルティング株式会社,,株式会社,東京都,北区,王子１丁目２１番１０号４０２号,,13,117,1140002,,,,,,,2023-10-19,1,,,,,ヒロエツトウキョウリーガルコンサルティング,0
922,4011503005803,新規,0,2023-10-19,2023-10-19,新時代合同会社,,合同会社,東京都,北区,志茂２丁目３４－２志茂ハイツ２１,,13,117,1150042,,,,,,,2023-10-19,1,,,,,シンジダイ,0
924,4011603004093,新規,0,2023-10-19,2023-10-19,合同会社Ｔｏ　ｄｏ,,合同会社,東京都,練馬区,豊玉南２丁目２０―８コモンテラス・ウエスト２０５,,13,120,1760014,,,,,,,2023-10-19,1,,,,,トゥードゥー,0
926,4011701026667,新規,0,2023-10-19,2023-10-19,株式会社ＫＺ,,株式会社,東京都,江戸川区,西小岩２丁目１８番８－モラダ小岩５０１号,,13,123,1330057,,,,,,,2023-10-19,1,,,,,ケーゼット,0
929,4011801043190,新規,0,2023-10-19,2023-10-19,株式会社二代目運び屋,,株式会社,東京都,葛飾区,東新小岩６丁目１１番６号,,13,122,1240023,,,,,,,2023-10-19,1,,,,,ニダイメハコビヤ,0
931,4011805003307,新規,0,2023-10-19,2023-10-19,一般社団法人全日本華人博士科技人才交流機構,,その他の設立登記法人,東京都,葛飾区,新小岩１丁目２５番２号,,13,122,1240024,,,,,,,2023-10-19,1,,,,,ゼンニホンカジンハカセカギジンザイコウリュウキコウ,0
938,4012801022713,新規,0,2023-10-19,2023-10-19,株式会社昭和国際学院,,株式会社,東京都,日野市,石田１丁目２８－１０,,13,212,1910021,,,,,,,2023-10-19,1,,,,,ショウワコクサイガクイン,0
946,4020001153972,新規,0,2023-10-19,2023-10-19,株式会社Ｅｃｏｎｏｂｕｉｌｄ,,株式会社,神奈川県,横浜市港北区,大曽根台３０番１０号,,14,109,2220004,,,,,,,2023-10-19,1,,,,,エコノビルド,0
947,4020001154021,新規,0,2023-10-19,2023-10-19,株式会社ブックライスフィールド,,株式会社,神奈川県,横浜市金沢区,泥亀１丁目２８番Ｂ－２１０号,,14,108,2360021,,,,,,,2023-10-19,1,,,,,ブックライスフィールド,0
949,4020005016151,新規,0,2023-10-19,2023-10-19,一般社団法人金沢区助産師会,,その他の設立登記法人,神奈川県,横浜市金沢区,六浦２丁目１４番１２号,,14,108,2360031,,,,,,,2023-10-19,1,,,,,カナザワクジョサンシカイ,0
952,4021001080455,新規,0,2023-10-19,2023-10-19,株式会社Ｐｒｏｆｅｓｓｉｏｎａｌ,,株式会社,神奈川県,茅ヶ崎市,平和町７番１５号,,14,207,2530024,,,,,,,2023-10-19,1,,,,,プロフェッショナル,0
955,4021003013710,新規,0,2023-10-19,2023-10-19,矢部製作所合同会社,,合同会社,神奈川県,相模原市中央区,千代田４丁目７番２４号,,14,152,2520237,,,,,,,2023-10-19,1,,,,,ヤベセイサクショ,0
960,4030001156710,新規,0,2023-10-19,2023-10-19,株式会社ＩＮＦＩＮＩＴＹ　ＰＡＲＴＮＥＲＳ,,株式会社,埼玉県,志木市,本町３丁目１１番１３号,,11,228,3530004,,,,,,,2023-10-19,1,,,,,インフィニティパートナーズ,0
961,4030001156719,新規,0,2023-10-19,2023-10-19,株式会社さくら建設,,株式会社,埼玉県,さいたま市緑区,東浦和７丁目３２番地１４パレマロン５０１,,11,109,3360926,,,,,,,2023-10-19,1,,,,,サクラケンセツ,0
962,4030001156735,新規,0,2023-10-19,2023-10-19,日昇商事株式会社,,株式会社,埼玉県,深谷市,上柴町西７丁目１３番地２０,,11,218,3660052,,,,,,,2023-10-19,1,,,,,ニッショウショウジ,0
963,4030003022794,新規,0,2023-10-19,2023-10-19,チューリップ合同会社,,合同会社,埼玉県,川口市,芝西２丁目１番４号,,11,203,3330855,,,,,,,2023-10-19,1,,,,,チューリップ,0
973,4040001130565,新規,0,2023-10-19,2023-10-19,株式会社紅葉,,株式会社,千葉県,船橋市,飯山満町２丁目３６６番地１コスモ津田沼ウエストコア４０２号,,12,204,2740822,,,,,,,2023-10-19,1,,,,,クレハ,0
981,4040003023577,新規,0,2023-10-19,2023-10-19,合同会社ＲＩＧＨＴＳ,,合同会社,千葉県,船橋市,芝山５丁目８番１６－２号,,12,204,2740816,,,,,,,2023-10-19,1,,,,,ライツ,0
986,4050001053609,新規,0,2023-10-19,2023-10-19,株式会社新リース,,株式会社,茨城県,常総市,大生郷町４１９番地１,,08,211,3002521,,,,,,,2023-10-19,1,,,,,シンリース,0
987,4050001053633,新規,0,2023-10-19,2023-10-19,株式会社Ｂｕｌｌ　Ｗａｌｋ,,株式会社,茨城県,つくば市,手子生９２４番地７,,08,220,3002647,,,,,,,2023-10-19,1,,,,,ブルウォーク,0
988,4050001053682,新規,0,2023-10-19,2023-10-19,株式会社ＵＧＰ,,株式会社,茨城県,水戸市,中央２丁目８番８号アシスト第２ビル９Ｆ,,08,201,3100805,,,,,,,2023-10-19,1,,,,,ユージーピー,0
990,4060001036447,新規,0,2023-10-19,2023-10-19,株式会社ＫＢＫ,,株式会社,栃木県,宇都宮市,鐺山町１７１３番地２,,09,201,3213235,,,,,,,2023-10-19,1,,,,,ケィビィケィ,0
991,4060003004773,新規,0,2023-10-19,2023-10-19,グッドウィル合同会社,,合同会社,栃木県,宇都宮市,花房１丁目１３－３,,09,201,3200827,,,,,,,2023-10-19,1,,,,,グッドウィル,0
995,4080001025927,新規,0,2023-10-19,2023-10-19,ＡＭＰＥＣ　ＪＡＰＡＮ株式会社,,株式会社,静岡県,静岡市駿河区,東静岡２丁目５番４５－６０１号,,22,102,4228019,,,,,,,2023-10-19,1,,,,,アムペックジャパン,0
998,4080401026797,新規,0,2023-10-19,2023-10-19,株式会社塩澤工機,,株式会社,静岡県,浜松市中区,葵東１丁目１４番５３号,,22,131,4338114,,,,,,,2023-10-19,1,,,,,シオザワコウキ,0
999,4090003002403,新規,0,2023-10-19,2023-10-19,ニブリーエンタープライズ合同会社,,合同会社,山梨県,南アルプス市,鮎沢１３１５番地,,19,208,4000403,,,,,,,2023-10-19,1,,,,,ニブリーエンタープライズ,0
1000,4100001036896,新規,0,2023-10-19,2023-10-19,株式会社廣,00132314,株式会社,長野県,上田市,中央２丁目５番１８号,,20,203,3860012,,,,,,,2023-10-19,1,,,,,ヒロ,0
1001,4110001037927,新規,0,2023-10-19,2023-10-19,株式会社魚しき,,株式会社,新潟県,上越市,西本町１丁目１６番２５号,,15,222,9420004,,,,,,,2023-10-19,1,,,,,ウオシキ,0
1012,4120001258885,新規,0,2023-10-19,2023-10-19,株式会社ペットのそうぎ屋さんメモワール,,株式会社,大阪府,大阪市天王寺区,生玉町２番１８号１０１号室,,27,109,5430071,,,,,,,2023-10-19,1,,,,,ペットノソウギヤサンメモワール,0
1013,4120001258910,新規,0,2023-10-19,2023-10-19,株式会社ＲＨｏｌｄｉｎｇｓ,,株式会社,大阪府,大阪市西区,新町１丁目２４－８,,27,106,5500013,,,,,,,2023-10-19,1,,,,,アールホールディングス,0
1014,4120001258927,新規,0,2023-10-19,2023-10-19,Ｍ＆Ｌ株式会社,,株式会社,大阪府,大阪市浪速区,大国３丁目１１－９トレヴィの泉４０１,,27,111,5560014,,,,,,,2023-10-19,1,,,,,エムアンドエル,0
1015,4120001258935,新規,0,2023-10-19,2023-10-19,株式会社リクルートサポート,,株式会社,大阪府,大阪市北区,梅田１丁目２番２号大阪駅前第２ビル１２－１２,,27,127,5300001,,,,,,,2023-10-19,1,,,,,リクルートサポート,0
1016,4120001258992,新規,0,2023-10-19,2023-10-19,株式会社ＷＥＡＬ　ＷＯＲＬＤ,,株式会社,大阪府,大阪市旭区,千林２丁目１番５号ＥＳＰＥＲＡＮＺＡ２０３号,,27,117,5350012,,,,,,,2023-10-19,1,,,,,ウィールワールド,0
1018,4120003025111,新規,0,2023-10-19,2023-10-19,合同会社フォーチャレンジャーズ,,合同会社,大阪府,大阪市淀川区,宮原１丁目１５番１号,,27,123,5320003,,,,,,,2023-10-19,1,,,,,フォーチャレンジャーズ,0
1019,4120101068409,新規,0,2023-10-19,2023-10-19,株式会社ジクス,,株式会社,大阪府,岸和田市,北町１０番３号,,27,202,5960056,,,,,,,2023-10-19,1,,,,,ジクス,0
1020,4120101068417,新規,0,2023-10-19,2023-10-19,株式会社ＨＭゼミ,,株式会社,大阪府,泉佐野市,日根野７００５番地パークハイツさくら日根野駅前１０１,,27,213,5980021,,,,,,,2023-10-19,1,,,,,エイチエムゼミ,0
1022,4120103005500,新規,0,2023-10-19,2023-10-19,合同会社ＬｉｏＮ,,合同会社,大阪府,堺市中区,深井中町８８０番地５０,,27,142,5998272,,,,,,,2023-10-19,1,,,,,リオン,0
1024,4120901048205,新規,0,2023-10-19,2023-10-19,株式会社Ａｙｕｒｉｍａ　ＰＬＵＳ,,株式会社,大阪府,池田市,八王寺１丁目２番２７号,,27,204,5630037,,,,,,,2023-10-19,1,,,,,アユリマプラス,0
1030,4130001075479,新規,0,2023-10-19,2023-10-19,株式会社常勝,,株式会社,京都府,京都市伏見区,羽束師鴨川町２２９番地１ラ・ボンボニエール３０１,,26,109,6128484,,,,,,,2023-10-19,1,,,,,ジョウショウ,0
1031,4130003009055,新規,0,2023-10-19,2023-10-19,ハウスサービス合同会社,,合同会社,京都府,乙訓郡大山崎町,字円明寺小字脇山１番地２５２,,26,303,6180091,,,,,,,2023-10-19,1,,,,,ハウスサービス,0
1032,4130005016917,新規,0,2023-10-19,2023-10-19,一般社団法人自然環境再生機構,,その他の設立登記法人,京都府,綾部市,五津合町荒木５７番地１,,26,203,6231123,,,,,,,2023-10-19,1,,,,,シゼンカンキョウサイセイキコウ,0
1035,4140003019697,新規,0,2023-10-19,2023-10-19,合同会社セルン,,合同会社,兵庫県,神戸市中央区,脇浜町１丁目３－３,,28,110,6510072,,,,,,,2023-10-19,1,,,,,セルン,0
1036,4140005026774,新規,0,2023-10-19,2023-10-19,一般社団法人かたつむりカフェ,,その他の設立登記法人,兵庫県,神戸市西区,玉津町上池３３２番地の１７,,28,111,6512126,,,,,,,2023-10-19,1,,,,,カタツムリカフェ,0
1037,4160001025431,新規,0,2023-10-19,2023-10-19,株式会社Ｇｌｏｂａｌ　ＦＡＣＴ,,株式会社,滋賀県,大津市,和邇今宿６８４番地,,25,201,5200524,,,,,,,2023-10-19,1,,,,,グローバルファクト,0
1038,4160003003014,新規,0,2023-10-19,2023-10-19,合同会社ＭＩＲＡＩＥ,,合同会社,滋賀県,大津市,栄町八丁目２７番,,25,201,5200855,,,,,,,2023-10-19,1,,,,,ミライエ,0
1039,4170001017840,新規,0,2023-10-19,2023-10-19,株式会社Ｂ・Ｗ　Ｆａｍｉｌｙ　Ｄｅｎｔａｌ,,株式会社,和歌山県,和歌山市,宇田森１２番地１１,,30,201,6496332,,,,,,,2023-10-19,1,,,,,ビーダブリューファミリーデンタル,0
1043,4180001158519,新規,0,2023-10-19,2023-10-19,Ｓｕｒｆｕ株式会社,,株式会社,愛知県,一宮市,奥町字蘇東３８－５２,,23,203,4910201,,,,,,,2023-10-19,1,,,,,サーフウ,0
1044,4180001158535,新規,0,2023-10-19,2023-10-19,ナカノビテック株式会社,,株式会社,愛知県,小牧市,城山５丁目６２番地６,,23,219,4850812,,,,,,,2023-10-19,1,,,,,ナカノビテック,0
1045,4180001158543,新規,0,2023-10-19,2023-10-19,株式会社ｕｎａ,,株式会社,愛知県,名古屋市中区,大井町１番３７号,,23,106,4600015,,,,,,,2023-10-19,1,,,,,ウーナ,0
1052,4200001041845,新規,0,2023-10-19,2023-10-19,Ｎ＆Ｋホールディングス株式会社,,株式会社,岐阜県,大垣市,本今５丁目１３０番地,,21,202,5030931,,,,,,,2023-10-19,1,,,,,エヌアンドケイホールディングス,0
1053,4210001019519,新規,0,2023-10-19,2023-10-19,株式会社Ｒｙｏ,,株式会社,福井県,福井市,開発５丁目１９０５番地,,18,201,9100842,,,,,,,2023-10-19,1,,,,,リョウ,0
1055,4230001020061,新規,0,2023-10-19,2023-10-19,株式会社たかまる商事,,株式会社,富山県,高岡市,大坪町２丁目３－２,,16,202,9330918,,,,,,,2023-10-19,1,,,,,タカマルショウジ,0
1057,4240001062284,新規,0,2023-10-19,2023-10-19,ＳＩＮコーポレーション株式会社,,株式会社,広島県,広島市中区,流川町５番１９号カサブランカビル４０３０,,34,101,7300028,,,,,,,2023-10-19,1,,,,,シンコーポレーション,0
1058,4240001062292,新規,0,2023-10-19,2023-10-19,株式会社ｔｓｕｍｕｇｉ,,株式会社,広島県,安芸郡府中町,浜田２丁目８番１６号,,34,302,7350013,,,,,,,2023-10-19,1,,,,,ツムギ,0
1060,4250001020357,新規,0,2023-10-19,2023-10-19,株式会社クラフト,,株式会社,山口県,周南市,周陽２丁目８番５－７０６号,,35,215,7450823,,,,,,,2023-10-19,1,,,,,クラフト,0
1063,4260001038415,新規,0,2023-10-19,2023-10-19,株式会社ステップワン,,株式会社,岡山県,岡山市南区,浜野３丁目１９番４０号,,33,104,7000845,,,,,,,2023-10-19,1,,,,,ステップワン,0
1065,4260005011285,新規,0,2023-10-19,2023-10-19,一般社団法人おか桃会,,その他の設立登記法人,岡山県,岡山市南区,泉田２丁目６番８号６０２,,33,104,7000944,,,,,,,2023-10-19,1,,,,,オカモモカイ,0
1069,4290003014519,新規,0,2023-10-19,2023-10-19,合同会社Ｃｏｎｎｅｃｔ　Ｃｒｅａｔｉｏｎ,,合同会社,福岡県,福岡市中央区,薬院２丁目１－４－４Ｆ,,40,133,8100022,,,,,,,2023-10-19,1,,,,,コネクトクリエイション,0
1072,4290803004529,新規,0,2023-10-19,2023-10-19,Ｑｒｅａｔｅ合同会社,,合同会社,福岡県,行橋市,南泉２丁目９番１２号,,40,213,8240036,,,,,,,2023-10-19,1,,,,,クリエイト,0
1073,4300001013504,新規,0,2023-10-19,2023-10-19,株式会社ロートス,,株式会社,佐賀県,多久市,多久町１５７３番地１,,41,204,8460031,,,,,,,2023-10-19,1,,,,,ロートス,0
1074,4310001018667,新規,0,2023-10-19,2023-10-19,株式会社森濱設計一級建築士事務所,00132321,株式会社,長崎県,西彼杵郡時津町,日並郷４１１番地２,,42,308,8512108,,,,,,,2023-10-19,1,,,,,モリハマセッケイイッキュウケンチクシジムショ,0
1078,4320003004210,新規,0,2023-10-19,2023-10-19,Ａｃａｃｉａ合同会社,,合同会社,大分県,大分市,寿町１番２２号寿コーポ６０３,,44,201,8700036,,,,,,,2023-10-19,1,,,,,アカシア,0
1082,4330001031379,新規,0,2023-10-19,2023-10-19,株式会社ＳＥＴＯＦＦ,,株式会社,熊本県,熊本市中央区,十禅寺１丁目２番３－２号,,43,101,8600824,,,,,,,2023-10-19,1,,,,,セットオフ,0
1084,4330003010026,新規,0,2023-10-19,2023-10-19,合同会社ａｒｒｏｗｓ,,合同会社,熊本県,熊本市北区,植木町亀甲５８７番地７,,43,105,8610127,,,,,,,2023-10-19,1,,,,,アローズ,0
1087,4340001026007,新規,0,2023-10-19,2023-10-19,株式会社Ｐｏｍｍｅ,,株式会社,鹿児島県,鹿児島市,吉野町４３３番地１１－１０１号,,46,201,8920871,,,,,,,2023-10-19,1,,,,,ポム,0
1094,4360001032705,新規,0,2023-10-19,2023-10-19,ｅｒｒｏｒ株式会社,,株式会社,沖縄県,沖縄市,園田１丁目８番３１号,,47,211,9040022,,,,,,,2023-10-19,1,,,,,エラー,0
1102,4410001013625,新規,0,2023-10-19,2023-10-19,堀田工業株式会社,,株式会社,秋田県,にかほ市,樋目野字下山５４番地８,,05,214,0180436,,,,,,,2023-10-19,1,,,,,ホッタコウギョウ,0
1106,4430001090233,新規,0,2023-10-19,2023-10-19,株式会社ココスム,,株式会社,北海道,札幌市中央区,南三条西５丁目２１番地クリオ札幌大通３０４号,,01,101,0600063,,,,,,,2023-10-19,1,,,,,ココスム,0
1108,4430003015527,新規,0,2023-10-19,2023-10-19,合同会社Ｍａｙ　Ｋｉｎｇ,,合同会社,北海道,札幌市厚別区,大谷地東４丁目２番２０号ウエストビル１階,,01,108,0040041,,,,,,,2023-10-19,1,,,,,メイキング,0
1111,4430005014816,新規,0,2023-10-19,2023-10-19,一般社団法人こころとくらし総合協会,,その他の設立登記法人,北海道,札幌市東区,苗穂町３丁目４番１２号トーカンマンション８０６号室,,01,103,0650043,,,,,,,2023-10-19,1,,,,,ココロトクラシソウゴウキョウカイ,0
1115,4480001012265,新規,0,2023-10-19,2023-10-19,株式会社広栄,,株式会社,徳島県,徳島市,不動北町２丁目２１１０番地５,,36,201,7700061,,,,,,,2023-10-19,1,,,,,コウエイ,0
1120,4500001025248,新規,0,2023-10-19,2023-10-19,株式会社ニカ,,株式会社,愛媛県,松山市,河原町８番地２８リューレント河原町２０３,,38,201,7900013,,,,,,,2023-10-19,1,,,,,ニカ,0
1123,4700150118261,新規,0,2023-10-19,2023-10-19,ＦＯＳＨＡＮ　ＳＨＩ　ＮＡＮＨＡＩ　ＨＥＳＨＵＮ　ＬＥＩＳＨＥＮＧ　ＷＵＪＩＮ　ＤＩＡＮＱＩ　ＹＯＵＸＩＡＮ　ＧＯＮＧＳＩ,,外国会社等,,,,,,,,ＦＯＳＨＡＮＳＨＩ　ＮＡＮＨＡＩＱＵ　ＬＩＳＨＵＩＺＨＥＮ　ＨＥＳＨＵＮ　ＴＡＮＧＣＵＮ　ＫＡＩＦＡＱＵ，ＧＵＡＮＧＤＯＮＧ,,,,,,2023-10-19,1,,,,,フォーシャンシナンハイホーシュンレションウージンデンチヨウシエンゴンス,0
1124,4700150121273,新規,0,2023-10-19,2023-10-19,ｄｏｎｇｇｕａｎｓｈｉｙｕａｎｆｅｎｇｋｅｊｉｙｏｕｘｉａｎｇｏｎｇｓｉ,,外国会社等,,,,,,,,ｇｕａｎｇｄｏｎｇｓｈｅｎｇｄｏｎｇｇｕａｎｓｈｉｈｕｍｅｎｚｈｅｎｓａｎｊｉａｎｇｘｉｎｊｉｗｕｘｉａｎｇ２ｈａｏ４０５ｆａｎｇ,,,,,,2023-10-19,1,,,,,ドンワンシユエンフォンカージヨウシエンゴンス,0
1125,4700150121281,新規,0,2023-10-19,2023-10-19,ＺｈｏｎｇＳｈａｎＷａｎｇＨａｉＤｉａｎＺｉＳｈａｎｇＷｕ　ＹｏｕＸｉａｎＧｏｎｇＳｉ,,外国会社等,,,,,,,,ＱＩＷＡＮＢＥＩＤＡＯ５６ＨＡＯ　ＣＱＵＳＨＯＵＣＥＮＧＣ１０１ＫＡ　ＺＨＯＮＧＳＨＡＮＳＨＩＤＯＮＧＱＵ,,,,,,2023-10-19,1,,,,,チュウザンワンハイデンシショウムユウゲンコウシ,0
1129,5010001239318,新規,0,2023-10-19,2023-10-19,株式会社Ｃｏｌｌｅｃｔｉｎｇ,,株式会社,東京都,中央区,銀座１丁目２２番１１号銀座大竹ビジデンス２Ｆ,,13,102,1040061,,,,,,,2023-10-19,1,,,,,コレクティング,0
1130,5010001239326,新規,0,2023-10-19,2023-10-19,株式会社Ｂｒｉｃｋｓ　ａｎｄ　Ｓｅｅｄｓ,,株式会社,東京都,千代田区,丸の内１丁目１番３号日本生命丸の内ガーデンタワー３階,,13,101,1000005,,,,,,,2023-10-19,1,,,,,ブリックスアンドシーズ,0
1131,5010001239375,新規,0,2023-10-19,2023-10-19,株式会社ゴンド,,株式会社,東京都,中央区,月島４丁目６番１３号,,13,102,1040052,,,,,,,2023-10-19,1,,,,,ゴンド,0
1132,5010001239383,新規,0,2023-10-19,2023-10-19,株式会社フューチャーメディカルサービス,,株式会社,東京都,千代田区,内幸町１丁目３番１号幸ビルディング９階,,13,101,1000011,,,,,,,2023-10-19,1,,,,,フューチャーメディカルサービス,0
1133,5010001239441,新規,0,2023-10-19,2023-10-19,株式会社エクフラッシュ,,株式会社,東京都,中央区,銀座７丁目１３番２０号銀座ＴＨビル９階,,13,102,1040061,,,,,,,2023-10-19,1,,,,,エクフラッシュ,0
1134,5010003041969,新規,0,2023-10-19,2023-10-19,合同会社ＭＢＳ,,合同会社,東京都,中央区,日本橋３丁目８番３号ＳＡＫＵＲＡビル６Ｆ,,13,102,1030027,,,,,,,2023-10-19,1,,,,,エムビーエス,0
1135,5010003041977,新規,0,2023-10-19,2023-10-19,合同会社ＦｉｒｓｔＳｔｅｐ,,合同会社,東京都,文京区,千石４丁目３３－８－１０３,,13,105,1120011,,,,,,,2023-10-19,1,,,,,ファーストステップ,0
1136,5010003042001,新規,0,2023-10-19,2023-10-19,合同会社Ｐｕｌａｎ,,合同会社,東京都,中央区,日本橋茅場町１丁目３番７号千代田ビル５階,,13,102,1030025,,,,,,,2023-10-19,1,,,,,プラン,0
1140,5010101015858,新規,0,2023-10-19,2023-10-19,ＦＹＲＡ株式会社,,株式会社,東京都,八王子市,中町９番１０号,,13,201,1920085,,,,,,,2023-10-19,1,,,,,フィーラ,0
1149,5010401177951,新規,0,2023-10-19,2023-10-19,クラリティ・スポーツマネジメント株式会社,,株式会社,東京都,港区,南青山２丁目２番１５号ウィン青山９４２,,13,103,1070062,,,,,,,2023-10-19,1,,,,,クラリティスポーツマネジメント,0
1150,5010401177976,新規,0,2023-10-19,2023-10-19,株式会社ｇｏｏｄ　ｐｒｏｄｕｃｅ,,株式会社,東京都,港区,麻布十番１丁目５番１０号アトラスビル４Ｆ,,13,103,1060045,,,,,,,2023-10-19,1,,,,,グットプロデュース,0
1151,5010401177984,新規,0,2023-10-19,2023-10-19,株式会社みらいすと,,株式会社,東京都,港区,麻布十番１丁目５番８号,,13,103,1060045,,,,,,,2023-10-19,1,,,,,ミライスト,0
1158,5010601063992,新規,0,2023-10-19,2023-10-19,明夏株式会社,,株式会社,東京都,墨田区,錦糸２丁目１０番１２号,,13,107,1300013,,,,,,,2023-10-19,1,,,,,メイカ,0
1159,5010603010431,新規,0,2023-10-19,2023-10-19,合同会社はなぶさキャピタル,,合同会社,東京都,江東区,富岡１丁目２５番９号,,13,108,1350047,,,,,,,2023-10-19,1,,,,,ハナブサキャピタル,0
1162,5010801034439,新規,0,2023-10-19,2023-10-19,株式会社ワイズエンタープライズ,,株式会社,東京都,大田区,蒲田５丁目２０番７号Ｋ５２０ビル２階,,13,111,1440052,,,,,,,2023-10-19,1,,,,,ワイズエンタープライズ,0
1166,5010901053999,新規,0,2023-10-19,2023-10-19,コマラボ株式会社,,株式会社,東京都,世田谷区,駒沢４丁目２６番２０号,,13,112,1540012,,,,,,,2023-10-19,1,,,,,コマラボ,0
1167,5010901054048,新規,0,2023-10-19,2023-10-19,株式会社ＳＴＵＤＩＯＮＴＯＫＹＯ,,株式会社,東京都,世田谷区,千歳台２丁目２５番４号,,13,112,1570071,,,,,,,2023-10-19,1,,,,,スタジオエヌトウキョウ,0
1168,5010903008530,新規,0,2023-10-19,2023-10-19,合同会社ｐｌａｎｅｔ,,合同会社,東京都,世田谷区,玉川３丁目１１－５３０３,,13,112,1580094,,,,,,,2023-10-19,1,,,,,プラネット,0
1170,5011001157476,新規,0,2023-10-19,2023-10-19,株式会社Ｃｏｓｍｉｃ　Ｗａｖｅ,,株式会社,東京都,渋谷区,渋谷２丁目１９－１５宮益坂ビルディング６０９,,13,113,1500002,,,,,,,2023-10-19,1,,,,,コズミックウェーブ,0
1171,5011001157542,新規,0,2023-10-19,2023-10-19,株式会社ＭＥＤＩＦＦＡＲＩＮＥ,,株式会社,東京都,渋谷区,恵比寿２丁目３７番６号,,13,113,1500013,,,,,,,2023-10-19,1,,,,,メディファリン,0
1173,5011003017744,新規,0,2023-10-19,2023-10-19,合同会社ＮＳＣ,,合同会社,東京都,渋谷区,宇田川町３３番８号エミリアビル４階,,13,113,1500042,,,,,,,2023-10-19,1,,,,,エヌエスシー,0
1174,5011005010243,新規,0,2023-10-19,2023-10-19,一般社団法人家族の終活,,その他の設立登記法人,東京都,目黒区,青葉台１丁目２８番１２号,,13,110,1530042,,,,,,,2023-10-19,1,,,,,カゾクノシュウカツ,0
1177,5011101104808,新規,0,2023-10-19,2023-10-19,ＳＹＤＯジャパン株式会社,,株式会社,東京都,新宿区,若葉１丁目９番地２１,,13,104,1600011,,,,,,,2023-10-19,1,,,,,エスワイディオージャパン,0
1178,5011101104816,新規,0,2023-10-19,2023-10-19,株式会社Ｎｏｂｌｅ　Ａｓｓｅｔ,,株式会社,東京都,新宿区,西新宿３丁目５番３号,,13,104,1600023,,,,,,,2023-10-19,1,,,,,ノーブルアセット,0
1179,5011101104849,新規,0,2023-10-19,2023-10-19,ＭＡ３ｗｏｒｌｄ株式会社,,株式会社,東京都,新宿区,西新宿６丁目１０番１号日土地西新宿ビル８階,,13,104,1600023,,,,,,,2023-10-19,1,,,,,エムエースリーワールド,0
1183,5011103013627,新規,0,2023-10-19,2023-10-19,合同会社アクア,,合同会社,東京都,新宿区,大久保１丁目１１番１０号,,13,104,1690072,,,,,,,2023-10-19,1,,,,,アクア,0
1186,5011303004938,新規,0,2023-10-19,2023-10-19,合同会社ブリッジテック,,合同会社,東京都,杉並区,下井草２丁目２５番１４号ピュアコート１０１,,13,115,1670022,,,,,,,2023-10-19,1,,,,,ブリッジテック,0
1190,5011701026666,新規,0,2023-10-19,2023-10-19,佳子株式会社,,株式会社,東京都,江戸川区,南篠崎町５丁目１３番６号,,13,123,1330065,,,,,,,2023-10-19,1,,,,,カコ,0
1193,5012301013633,新規,0,2023-10-19,2023-10-19,株式会社ことおる,,株式会社,東京都,町田市,常盤町３０２１番地４,,13,209,1940213,,,,,,,2023-10-19,1,,,,,コトオル,0
1205,5020001153988,新規,0,2023-10-19,2023-10-19,株式会社グレイド横浜,,株式会社,神奈川県,横浜市西区,西平沼町１番３２－４０３号パレＴＯＨＯ平沼,,14,103,2200024,,,,,,,2023-10-19,1,,,,,グレイドヨコハマ,0
1206,5020001154004,新規,0,2023-10-19,2023-10-19,株式会社ＳＫＹ　ＷＩＮＫ,,株式会社,神奈川県,川崎市川崎区,東田町１０番地５－１４０３,,14,131,2100005,,,,,,,2023-10-19,1,,,,,スカイウィンク,0
1213,5020005016150,新規,0,2023-10-19,2023-10-19,司法書士法人ＫＳＣ,,その他の設立登記法人,神奈川県,横浜市神奈川区,沢渡３－１東興ビル５０１,,14,102,2210844,,,,,,,2023-10-19,1,,,,,,0
1219,5021001080487,新規,0,2023-10-19,2023-10-19,株式会社ヤマトプラス,,株式会社,神奈川県,大和市,深見西８丁目１０番４号,,14,213,2420018,,,,,,,2023-10-19,1,,,,,ヤマトプラス,0
1220,5021001080495,新規,0,2023-10-19,2023-10-19,株式会社ＭＡＴＩＣ,,株式会社,神奈川県,藤沢市,石川２丁目３３番地の９グロリア湘南Ｇ棟,,14,205,2520815,,,,,,,2023-10-19,1,,,,,マティック,0
1228,5030001156552,新規,0,2023-10-19,2023-10-19,株式会社大樹,,株式会社,埼玉県,南埼玉郡宮代町,字東４５４番地６,,11,442,3450814,,,,,,,2023-10-19,1,,,,,ダイジュ,0
1229,5030001156726,新規,0,2023-10-19,2023-10-19,株式会社ＹＯＳＨＩＭＯＴＯ,,株式会社,埼玉県,川越市,脇田町２７番地１２アイピートラスト川越ビル４Ｆ,,11,201,3501122,,,,,,,2023-10-19,1,,,,,ヨシモト,0
1230,5030001156734,新規,0,2023-10-19,2023-10-19,日光株式会社,,株式会社,埼玉県,越谷市,赤山町１丁目３番１号サニーコート岡田２０３号室,,11,222,3430807,,,,,,,2023-10-19,1,,,,,ニッコウ,0
1231,5030001156775,新規,0,2023-10-19,2023-10-19,株式会社ＧＡＫＯＯ．,,株式会社,埼玉県,川越市,吉田新町２丁目１０番地５,,11,201,3500808,,,,,,,2023-10-19,1,,,,,ガクー,0
1249,5040001130580,新規,0,2023-10-19,2023-10-19,株式会社Ｙ　ｓｔａｆｆ,,株式会社,千葉県,白井市,野口５－１２,,12,232,2701438,,,,,,,2023-10-19,1,,,,,ワイスタッフ,0
1250,5040001130606,新規,0,2023-10-19,2023-10-19,株式会社ナミキ,,株式会社,千葉県,千葉市中央区,星久喜町１１４８番地２,,12,101,2600808,,,,,,,2023-10-19,1,,,,,ナミキ,0
1252,5040003023568,新規,0,2023-10-19,2023-10-19,ＲＳ　ＭＯＴＯＲＳ合同会社,,合同会社,千葉県,八街市,八街い１３９番地１５,,12,230,2891143,,,,,,,2023-10-19,1,,,,,アールエスモータース,0
1256,5050001053632,新規,0,2023-10-19,2023-10-19,株式会社Ｌｉｆｅ　Ｔｉｍｅ　Ｗｏｒｋｓ,,株式会社,茨城県,下妻市,北大宝３６０番地１,,08,210,3040021,,,,,,,2023-10-19,1,,,,,ライフタイムワークス,0
1261,5060001036446,新規,0,2023-10-19,2023-10-19,株式会社ＧＵＭＢＯ,,株式会社,栃木県,さくら市,氏家３４６７番地１１１,,09,214,3291311,,,,,,,2023-10-19,1,,,,,ガンボ,0
1268,5080003003079,新規,0,2023-10-19,2023-10-19,小島興産合同会社,,合同会社,静岡県,島田市,阪本１１４２番地の１,,22,209,4270111,,,,,,,2023-10-19,1,,,,,コジマコウサン,0
1275,5100001036895,新規,0,2023-10-19,2023-10-19,株式会社樹喜丸工房,,株式会社,長野県,上田市,中央３丁目１６番１３号,,20,203,3860012,,,,,,,2023-10-19,1,,,,,キキマルコウボウ,0
1276,5100003007226,新規,0,2023-10-19,2023-10-19,合同会社オーガニカル,,合同会社,長野県,飯田市,長姫町３０８９番地２１,,20,205,3950028,,,,,,,2023-10-19,1,,,,,オーガニカル,0
1281,5110001037926,新規,0,2023-10-19,2023-10-19,株式会社カタヤマプランニング新潟,,株式会社,新潟県,小千谷市,千谷川１丁目５番１９号,,15,208,9470053,,,,,,,2023-10-19,1,,,,,カタヤマプランニングニイガタ,0
1293,5120001258959,新規,0,2023-10-19,2023-10-19,株式会社ＡＲＡＩ,,株式会社,大阪府,門真市,岸和田２丁目１８番３号ＳＵＮＬＩＴＩＩ１０２号,00132318,27,223,5710002,,,,,,,2023-10-19,1,,,,,アライ,0
1295,5120005023954,新規,0,2023-10-19,2023-10-19,一般社団法人ＡｒｒｏｗＺ,,その他の設立登記法人,大阪府,大阪市浪速区,大国１丁目１２番２３－１０２号,,27,111,5560014,,,,,,,2023-10-19,1,,,,,アロウズ,0
1296,5120101068399,新規,0,2023-10-19,2023-10-19,株式会社ｒｅｃｈｅ,,株式会社,大阪府,和泉市,弥生町４丁目３番２号,,27,219,5940061,,,,,,,2023-10-19,1,,,,,リシェ,0
1297,5120101068408,新規,0,2023-10-19,2023-10-19,株式会社椎田組,,株式会社,大阪府,大阪狭山市,東池尻２丁目１１９２番地の１,,27,231,5890004,,,,,,,2023-10-19,1,,,,,シイダグミ,0
1306,5120901048212,新規,0,2023-10-19,2023-10-19,株式会社宮本,,株式会社,大阪府,吹田市,広芝町４番３４号６階２８,,27,205,5640052,,,,,,,2023-10-19,1,,,,,ミヤモト,0
1312,5130001075453,新規,0,2023-10-19,2023-10-19,株式会社ケイシンテクノ,,株式会社,京都府,京都市右京区,花園扇野町２０番地,,26,108,6168044,,,,,,,2023-10-19,1,,,,,ケイシンテクノ,0
1313,5130001075478,新規,0,2023-10-19,2023-10-19,ステピア株式会社,,株式会社,京都府,京都市左京区,吉田橘町３２番地,,26,103,6068303,,,,,,,2023-10-19,1,,,,,ステピア,0
1314,5130003009054,新規,0,2023-10-19,2023-10-19,合同会社ホワイト,,合同会社,京都府,京都市左京区,北白川久保田町４８番地１コーポじん２０３号,,26,103,6068266,,,,,,,2023-10-19,1,,,,,ホワイト,0
1322,5160001025430,新規,0,2023-10-19,2023-10-19,株式会社日本組電,,株式会社,滋賀県,東近江市,小脇町７７８番３号,,25,213,5270091,,,,,,,2023-10-19,1,,,,,ニッポンソデン,0
1340,5200001041836,新規,0,2023-10-19,2023-10-19,株式会社小池電気,,株式会社,岐阜県,大野郡白川村,大字平瀬１３２番地の５３,,21,604,5015507,,,,,,,2023-10-19,1,,,,,コイケデンキ,0
1345,5230001020069,新規,0,2023-10-19,2023-10-19,颯創建株式会社,,株式会社,富山県,魚津市,仏田２６０４番地,,16,204,9370061,,,,,,,2023-10-19,1,,,,,ハヤテソウケン,0
1348,5240001062291,新規,0,2023-10-19,2023-10-19,株式会社Ｍ・ＡＲＫ,,株式会社,広島県,広島市中区,東白島町１３番９号,,34,101,7300004,,,,,,,2023-10-19,1,,,,,エムアーク,0
1350,5260001038414,新規,0,2023-10-19,2023-10-19,株式会社ＧＥＭ,,株式会社,岡山県,岡山市北区,中山下１丁目９番４０号新岡山ビル６Ｆ,,33,101,7000821,,,,,,,2023-10-19,1,,,,,ジーイーエム,0
1351,5260003004471,新規,0,2023-10-19,2023-10-19,合同会社Ｌｕｍｉｎａｒｙ　Ｄｅｓｉｇｎｓ,,合同会社,岡山県,都窪郡早島町,前潟６０９番地５,,33,423,7010303,,,,,,,2023-10-19,1,,,,,ルミナリーデザインズ,0
1352,5270001008861,新規,0,2023-10-19,2023-10-19,株式会社ＭｉｕＲａ,,株式会社,鳥取県,鳥取市,里仁３１３番地３,,31,201,6800935,,,,,,,2023-10-19,1,,,,,ミウラ,0
1357,5290001103421,新規,0,2023-10-19,2023-10-19,株式会社Ｒｅｐｌａｙ,,株式会社,福岡県,福岡市博多区,博多駅前２丁目１９番１７号トーカン博多第５ビル３１２号室,,40,132,8120011,,,,,,,2023-10-19,1,,,,,リプレイ,0
1360,5290801029964,新規,0,2023-10-19,2023-10-19,株式会社バンデ,,株式会社,福岡県,北九州市八幡西区,皇后崎町８番２号,,40,109,8060041,,,,,,,2023-10-19,1,,,,,バンデ,0
1361,5290801029972,新規,0,2023-10-19,2023-10-19,スタイリッシュレジデンス株式会社,,株式会社,福岡県,北九州市小倉南区,曽根北町７番５８号,,40,107,8000229,,,,,,,2023-10-19,1,,,,,スタイリッシュレジデンス,0
1362,5290801029980,新規,0,2023-10-19,2023-10-19,株式会社くりえいとＭ,,株式会社,福岡県,北九州市八幡西区,星ケ丘３丁目６番１４号,,40,109,8071264,,,,,,,2023-10-19,1,,,,,クリエイトエム,0
1363,5290803004528,新規,0,2023-10-19,2023-10-19,ケーシアン合同会社,,合同会社,福岡県,北九州市小倉北区,浅野３丁目８番１号ＡＩＭビル６階ＣＯＭＰＡＳＳ小倉,,40,106,8020001,,,,,,,2023-10-19,1,,,,,ケーシアン,0
1365,5290805009681,新規,0,2023-10-19,2023-10-19,一般社団法人八幡西自動車整備協会,,その他の設立登記法人,福岡県,北九州市八幡西区,引野１丁目２番８号,,40,109,8060067,,,,,,,2023-10-19,1,,,,,ヤハタニシジドウシャセイビキョウカイ,0
1366,5300001013503,新規,0,2023-10-19,2023-10-19,ＫＹＯＵＥＩ株式会社,,株式会社,佐賀県,唐津市,二タ子１丁目６番４２号,,41,202,8470861,,,,,,,2023-10-19,1,,,,,キョウエイ,0
1367,5310001018666,新規,0,2023-10-19,2023-10-19,トラスト通信株式会社,,株式会社,長崎県,佐世保市,黒髪町１０番８号,,42,202,8571152,,,,,,,2023-10-19,1,,,,,トラストツウシン,0
1373,5330001031361,新規,0,2023-10-19,2023-10-19,エイキプロセス株式会社,,株式会社,熊本県,玉名郡南関町,大字相谷１３９０番地１,,43,367,8610812,,,,,,,2023-10-19,1,,,,,エイキプロセス,0
1375,5340001026006,新規,0,2023-10-19,2023-10-19,垂水農産株式会社,,株式会社,鹿児島県,垂水市,上町１０８番地ＩＲビル２０３号,,46,214,8912122,,,,,,,2023-10-19,1,,,,,タルミズノウサン,0
1380,5360001032704,新規,0,2023-10-19,2023-10-19,Ｏｋｉ　Ｐｌａｙｇｒｏｕｎｄ株式会社,,株式会社,沖縄県,那覇市,山下町３番１６号ＯＡＳ航空ビル４階,,47,201,9000027,,,,,,,2023-10-19,1,,,,,オキプレイグラウンド,0
1381,5360001032712,新規,0,2023-10-19,2023-10-19,株式会社Ｅ＆Ｃ,,株式会社,沖縄県,うるま市,勝連南風原１４４９番地２０,,47,213,9042311,,,,,,,2023-10-19,1,,,,,イーアンドシー,0
1383,5360003013396,新規,0,2023-10-19,2023-10-19,合同会社ＴＥＲＵＯ,,合同会社,沖縄県,浦添市,伊祖４丁目１２番７号,,47,208,9012132,,,,,,,2023-10-19,1,,,,,テルオ,0
1386,5370001050548,新規,0,2023-10-19,2023-10-19,株式会社大泉商事,,株式会社,宮城県,仙台市若林区,荒井７丁目１９番地の１,,04,103,9840032,,,,,,,2023-10-19,1,,,,,オオイズミショウジ,0
1388,5390001017405,新規,0,2023-10-19,2023-10-19,株式会社エイベスト,,株式会社,山形県,寒河江市,落衣前１１番地の３,,06,206,9910056,,,,,,,2023-10-19,1,,,,,エイベスト,0
1392,5420001018457,新規,0,2023-10-19,2023-10-19,株式会社ポルトリンク,,株式会社,青森県,青森市,大字石江字三好１５１－１８,,02,201,0380003,,,,,,,2023-10-19,1,,,,,ポルトリンク,0
1395,5430001090224,新規,0,2023-10-19,2023-10-19,株式会社ＵＡＮＧＯ,,株式会社,北海道,札幌市中央区,南五条西１５丁目２－３リズム医大前５０３号室,,01,101,0640805,,,,,,,2023-10-19,1,,,,,ウバンゴ,0
1397,5430003015534,新規,0,2023-10-19,2023-10-19,合同会社べんりやこま,,合同会社,北海道,滝川市,滝の川町東１丁目１０９１番地１１,,01,225,0730004,,,,,,,2023-10-19,1,,,,,ベンリヤコマ,0
1399,5450001014123,新規,0,2023-10-19,2023-10-19,株式会社神野企画,,株式会社,北海道,旭川市,緑が丘四条３丁目１番地ヴィレッジハウス１－３０５,,01,204,0788304,,,,,,,2023-10-19,1,,,,,ジンノキカク,0
1405,5700150114838,新規,0,2023-10-19,2023-10-19,ＭＥＩＧＡＯ　ＣＯＭＰＵＴＥＲ（ＨＫ）ＣＯ．，ＬＩＭＩＴＥＤ,,外国会社等,,,,,,,,ＦＬＡＴ　１５１２，１５／Ｆ　ＬＵＣＫＹ　ＣＴＲ　ＮＯ　１６５－１７１　ＷＡＮ　ＣＨＡＩ　ＲＤ　ＷＡＮ　ＣＨＡＩ　ＨＯＮＧ　ＫＯＮＧ　９９９０７７　ＨＫ,,,,,,2023-10-19,1,,,,,メイガオコンピューターエイチケーカンパニーリミテッド,0
1406,5700150121272,新規,0,2023-10-19,2023-10-19,ｓｈｅｎｚｈｅｎｂｏｃｈａｎｇｗａｎｇｌｕｏｋｅｊｉｙｏｕｘｉａｎｇｏｎｇｓｉ,,外国会社等,,,,,,,,ｇａｏｘｉｎｑｕｓｈｅｑｕｋｅｊｉｎａｎｓｈｉｅｒ－ｌｕ１８ｈａｏｃｈａｎｇｈｏｎｇｋｅｊｉｄａｓｈａ２０７ｓｈｅｎｚｈｅｎｎａｎｓｈａｎｑｕｙｕｅｈａｉｊｉｅｄａｏｇｕａｎｇｄｏｎｇ５１８０６３ＣＮ,,,,,,2023-10-19,1,,,,,シェンジェンボーチャンワンルオカージヨウシエンゴンス,0
1407,5700150121280,新規,0,2023-10-19,2023-10-19,ｄｏｎｇｇｕａｎｓｈｉ　ｙｏｕｗｏｋｅｓｈｉｙｅ　ｙｏｕｘｉａｎ　ｇｏｎｇｓｉ,,外国会社等,,,,,,,,ｄｏｎｇｇｕａｎｓｈｉ　ｈｏｕｊｉｅ　ｚｈｅｎ　ｂａｉｈａｏ　ｓｈｅｑｕ　ｂａｉ　ｈａｏ　ｇｏｎｇｙｅｊｉｅ　７ｈａｏ　Ａｄｏｎｇ,,,,,,2023-10-19,1,,,,,トウカンシユウヨクコクジツギョウユウゲンコウシ,0
1408,5700150121289,新規,0,2023-10-19,2023-10-19,ｓｈｅｎｚｈｅｎｓｈｉｍｉｎｊｕｎｄｉａｎｚｉｋｅｊｉ　ｙｏｕｘｉａｎｇｏｎｇｓｉ,,外国会社等,,,,,,,,ｓｈｅｎｚｈｅｎｓｈｉｇｕａｎｇｍｉｎｇｘｉｎｑｕｇｏｎｇｍｉｎｇｊｉｅｄａｏｘｉｔｉａｎｓｈｅｑｕｇｕａｎｇｘｕｅｌｕｌｉｂａｎｇｙａｎｆａｋｅｊｉｙｕａｎ１ｄｏｎｇ２ｌｏｕ,,,,,,2023-10-19,1,,,,,シンセンシミンジュンデンシカギユウゲンコウシ,0
1416,6010003041885,新規,0,2023-10-19,2023-10-19,ボルト６合同会社,,合同会社,東京都,中央区,銀座１丁目６番１１号アースタックス税理士法人内,,13,102,1040061,,,,,,,2023-10-19,1,,,,,ボルトシックス,0
1417,6010003041976,新規,0,2023-10-19,2023-10-19,合同会社パラフィン,,合同会社,東京都,千代田区,神田神保町２丁目３－１,,13,101,1010051,,,,,,,2023-10-19,1,,,,,パラフィン,0
1425,6010401177942,新規,0,2023-10-19,2023-10-19,Ｈａｐｐｙ　ｌｉｆｅ株式会社,,株式会社,東京都,港区,新橋６丁目５番４号ＤＩＫマンション５２３号室,,13,103,1050004,,,,,,,2023-10-19,1,,,,,ハッピーライフ,0
1428,6010405022566,新規,0,2023-10-19,2023-10-19,一般社団法人帰蝶会,,その他の設立登記法人,東京都,港区,西麻布４丁目８番２７号,,13,103,1060031,,,,,,,2023-10-19,1,,,,,キチョウカイ,0
1432,6010503007196,新規,0,2023-10-19,2023-10-19,Ｓ＆Ａ　ＦＡＭＩＬＹ　ＯＦＦＩＣＥ合同会社,,合同会社,東京都,台東区,西浅草３丁目２２番３－３３１１号,,13,106,1110035,,,,,,,2023-10-19,1,,,,,エスアンドエーファミリーオフィス,0
1434,6010601063991,新規,0,2023-10-19,2023-10-19,株式会社ＹＫコンサルティング＆トレード,,株式会社,東京都,江東区,北砂４丁目７番９号１０５号室,,13,108,1360073,,,,,,,2023-10-19,1,,,,,ワイケイコンサルティング,0
1441,6010901054014,新規,0,2023-10-19,2023-10-19,株式会社黒越,,株式会社,東京都,世田谷区,瀬田１丁目１６番１９号,,13,112,1580095,,,,,,,2023-10-19,1,,,,,クロコシ,0
1442,6010901054030,新規,0,2023-10-19,2023-10-19,株式会社オンワ,,株式会社,東京都,世田谷区,玉堤１丁目１５番３１号グリーンハイツ１０５号室,,13,112,1580087,,,,,,,2023-10-19,1,,,,,オンワ,0
1447,6011001157574,新規,0,2023-10-19,2023-10-19,バッテリーイノベーションプロダクツ株式会社,,株式会社,東京都,渋谷区,代々木５丁目５７－２,,13,113,1510053,,,,,,,2023-10-19,1,,,,,バッテリーイノベーションプロダクツ,0
1448,6011001157632,新規,0,2023-10-19,2023-10-19,株式会社Ｒｅｖｉ　Ｔｅｃｈｎｏｌｏｇｙ,,株式会社,東京都,渋谷区,広尾１丁目３番９号,,13,113,1500012,,,,,,,2023-10-19,1,,,,,レビテクノロジー,0
1451,6011003017529,新規,0,2023-10-19,2023-10-19,ｌｉｎｏｍｅａ合同会社,,合同会社,東京都,渋谷区,南平台町１５－１,,13,113,1500036,,,,,,,2023-10-19,1,,,,,リノメア,0
1456,6011101104815,新規,0,2023-10-19,2023-10-19,ＡＲＲＯＷ株式会社,,株式会社,東京都,新宿区,西新宿１丁目４－１１,,13,104,1600023,,,,,,,2023-10-19,1,,,,,アロー,0
1457,6011101104848,新規,0,2023-10-19,2023-10-19,株式会社１Ｒ,,株式会社,東京都,新宿区,富久町１５－１－２３０７,,13,104,1620067,,,,,,,2023-10-19,1,,,,,イチアール,0
1458,6011101104856,新規,0,2023-10-19,2023-10-19,株式会社やも,,株式会社,東京都,新宿区,新宿１丁目３６－２新宿第七葉山ビル３Ｆ,,13,104,1600022,,,,,,,2023-10-19,1,,,,,ヤモ,0
1460,6011103013634,新規,0,2023-10-19,2023-10-19,合同会社ｙｕｍｅ企画,,合同会社,東京都,新宿区,新宿１丁目３６番２号新宿第七葉山ビル３階,,13,104,1600022,,,,,,,2023-10-19,1,,,,,ユメキカク,0
1462,6011301029102,新規,0,2023-10-19,2023-10-19,アスク株式会社,,株式会社,東京都,杉並区,南荻窪３丁目２９番２０号,,13,115,1670052,,,,,,,2023-10-19,1,,,,,アスク,0
1463,6011303004937,新規,0,2023-10-19,2023-10-19,Ｒｏｂｕｓｔ合同会社,,合同会社,東京都,杉並区,上高井戸１丁目２８番地７号２Ｃ,,13,115,1680074,,,,,,,2023-10-19,1,,,,,ロブスト,0
1464,6011401025546,新規,0,2023-10-19,2023-10-19,株式会社コラム,,株式会社,東京都,板橋区,宮本町３５番７号,,13,119,1740054,,,,,,,2023-10-19,1,,,,,コラム,0
1469,6011601027193,新規,0,2023-10-19,2023-10-19,シュウアンドカンパニー株式会社,,株式会社,東京都,練馬区,大泉町２丁目５５番２号,,13,120,1780062,,,,,,,2023-10-19,1,,,,,シュウアンドカンパニー,0
1470,6011601027202,新規,0,2023-10-19,2023-10-19,ＳＰＲＯＵＴ株式会社,,株式会社,東京都,練馬区,貫井４丁目４７番５６号,,13,120,1760021,,,,,,,2023-10-19,1,,,,,スプラウト,0
1471,6011603004100,新規,0,2023-10-19,2023-10-19,合同会社オープンエアーワン,,合同会社,東京都,練馬区,練馬１丁目２番１１号丸一ビル５階,,13,120,1760001,,,,,,,2023-10-19,1,,,,,オープンエアーワン,0
1473,6011701026649,新規,0,2023-10-19,2023-10-19,東京土壌地下水環境保全株式会社,,株式会社,東京都,江戸川区,瑞江１丁目５－５,,13,123,1320011,,,,,,,2023-10-19,1,,,,,トウキョウドジョウチカスイカンキョウ,0
1475,6011703003621,新規,0,2023-10-19,2023-10-19,合同会社ｏＴｏ,,合同会社,東京都,江戸川区,中葛西５丁目４１番２７号,,13,123,1340083,,,,,,,2023-10-19,1,,,,,オト,0
1481,6012401041129,新規,0,2023-10-19,2023-10-19,ＷｅａｖｅｒｓｅＬａｂ株式会社,,株式会社,東京都,武蔵野市,吉祥寺南町５丁目８番１３号ヴィラ西荻２０２,,13,203,1800003,,,,,,,2023-10-19,1,,,,,ウィーバースラボ,0
1484,6012403006229,新規,0,2023-10-19,2023-10-19,合同会社菱山組,,合同会社,東京都,調布市,飛田給１丁目１１‐１ソフィア調布１Ｆ,,13,208,1820036,,,,,,,2023-10-19,1,,,,,ヒシヤマグミ,0
1486,6012801022703,新規,0,2023-10-19,2023-10-19,株式会社ナギサポート,,株式会社,東京都,立川市,富士見町７丁目３５番６号,,13,202,1900013,,,,,,,2023-10-19,1,,,,,ナギサポート,0
1488,6013301051481,新規,0,2023-10-19,2023-10-19,ＮｅｏＸ　ＡＳＩＡ株式会社,,株式会社,東京都,豊島区,巣鴨２丁目９番２８号,,13,116,1700002,,,,,,,2023-10-19,1,,,,,ネオエックスアジア,0
1493,6020001153979,新規,0,2023-10-19,2023-10-19,信栄株式会社,,株式会社,神奈川県,横浜市南区,日枝町３丁目７５藤和シティホームズ横浜吉野町５０３,,14,105,2320011,,,,,,,2023-10-19,1,,,,,シンエイ,0
1494,6020001154052,新規,0,2023-10-19,2023-10-19,株式会社アイズヴィジョン,,株式会社,神奈川県,横浜市中区,桜木町１丁目１０１番地１,,14,104,2310062,,,,,,,2023-10-19,1,,,,,アイズヴィジョン,0
1498,6021001080503,新規,0,2023-10-19,2023-10-19,株式会社小林商事,,株式会社,神奈川県,鎌倉市,城廻６２３－２７,,14,204,2470074,,,,,,,2023-10-19,1,,,,,コバヤシショウジ,0
1511,6030001156709,新規,0,2023-10-19,2023-10-19,ａｎｄ‐ｓｅｅｋ株式会社,,株式会社,埼玉県,志木市,下宗岡１丁目３番１４号カーサ・ミキＩ号,00132320,11,228,3530003,,,,,,,2023-10-19,1,,,,,アンドシーク,0
1512,6030001156717,新規,0,2023-10-19,2023-10-19,株式会社ｆｏｎｔｅ・ｕｎｏ,,株式会社,埼玉県,所沢市,東所沢和田１丁目２１番地の１０,,11,208,3590023,,,,,,,2023-10-19,1,,,,,フォンテウノ,0
1516,6030003022776,新規,0,2023-10-19,2023-10-19,合同会社ｄｕｒｒａｎｉ　ｔｒａｄｉｎｇ,,合同会社,埼玉県,川口市,弥平２丁目１２番２９号４階,,11,203,3320002,,,,,,,2023-10-19,1,,,,,ドゥッラーニトレーディング,0
1520,6030005021421,新規,0,2023-10-19,2023-10-19,一般社団法人ＺｅｒｏＣ,,その他の設立登記法人,埼玉県,川越市,大塚２丁目２８番地３０,,11,201,3501129,,,,,,,2023-10-19,1,,,,,ゼロシー,0
1527,6040001130497,新規,0,2023-10-19,2023-10-19,株式会社Ｉ’Ｓｗｏｒｋｓ,,株式会社,千葉県,茂原市,高師２１５２番地２２（ラフィーネ２０３）,,12,210,2970029,,,,,,,2023-10-19,1,,,,,アイズワークス,0
1528,6040001130596,新規,0,2023-10-19,2023-10-19,株式会社リセル・ジャパン,,株式会社,千葉県,柏市,西山２丁目２１番２号,,12,217,2770063,,,,,,,2023-10-19,1,,,,,リセルジャパン,0
1536,6060003004771,新規,0,2023-10-19,2023-10-19,日光パワー合同会社,,合同会社,栃木県,宇都宮市,上田原町１１８７番地,,09,201,3291112,,,,,,,2023-10-19,1,,,,,ニッコウパワー,0
1543,6080103002905,新規,0,2023-10-19,2023-10-19,アスカラ合同会社,,合同会社,静岡県,伊東市,富戸１３１７番地の１６７０,,22,208,4130231,,,,,,,2023-10-19,1,,,,,アスカラ,0
1548,6100001036894,新規,0,2023-10-19,2023-10-19,株式会社わかつき薬局,,株式会社,長野県,長野市,徳間１丁目２１番１４号,,20,201,3810041,,,,,,,2023-10-19,1,,,,,ワカツキヤッキョク,0
1550,6100003007225,新規,0,2023-10-19,2023-10-19,合同会社豊龍,,合同会社,長野県,伊那市,坂下１９０４番地７,,20,209,3960024,,,,,,,2023-10-19,1,,,,,ホウリュウ,0
1556,6110001037933,新規,0,2023-10-19,2023-10-19,株式会社いこいの介護,,株式会社,新潟県,上越市,北城町１丁目３番３１号,,15,222,9430824,,,,,,,2023-10-19,1,,,,,イコイノカイゴ,0
1558,6110003005186,新規,0,2023-10-19,2023-10-19,Ｈ．Ａ．Ｎ．Ｄ．Ｓ合同会社,,合同会社,新潟県,新発田市,御幸町２丁目１２番２９号,,15,206,9570057,,,,,,,2023-10-19,1,,,,,ハンズ,0
1563,6120001258553,新規,0,2023-10-19,2023-10-19,株式会社ＰＰＧ,,株式会社,大阪府,大阪市城東区,新喜多東１丁目１０番２２号,,27,118,5360017,,,,,,,2023-10-19,1,,,,,ピーピージー,0
1564,6120001258735,新規,0,2023-10-19,2023-10-19,株式会社Ｋワークス,,株式会社,大阪府,守口市,南寺方東通４丁目１１番２７号,,27,209,5700043,,,,,,,2023-10-19,1,,,,,ケーワークス,0
1565,6120001258883,新規,0,2023-10-19,2023-10-19,株式会社大森,,株式会社,大阪府,大阪市淀川区,塚本５丁目９番４－３０２号,00132309,27,123,5320026,,,,,,,2023-10-19,1,,,,,オオモリ,0
1566,6120001258891,新規,0,2023-10-19,2023-10-19,株式会社ＥＦＥ,,株式会社,大阪府,大阪市北区,天神橋１丁目１７番６号,,27,127,5300041,,,,,,,2023-10-19,1,,,,,イーエフイー,0
1567,6120001258958,新規,0,2023-10-19,2023-10-19,Ｊ．Ｏ．ｈｏｌｄｉｎｇｓ株式会社,,株式会社,大阪府,大阪市福島区,福島２丁目１０番１９－１０１０号,,27,103,5530003,,,,,,,2023-10-19,1,,,,,ジェイオーホールディングス,0
1568,6120001259097,新規,0,2023-10-19,2023-10-19,株式会社尾山設計,,株式会社,大阪府,大阪市淀川区,西中島５丁目８番２９－９０２号,,27,123,5320011,,,,,,,2023-10-19,1,,,,,オヤマセッケイ,0
1569,6120001259114,新規,0,2023-10-19,2023-10-19,株式会社西村商事,,株式会社,大阪府,大阪市東淀川区,東淡路４丁目２番２号,,27,114,5330023,,,,,,,2023-10-19,1,,,,,ニシムラショウジ,0
1570,6120001259130,新規,0,2023-10-19,2023-10-19,株式会社インザブルーインベスト,,株式会社,大阪府,大阪市北区,東天満１丁目１０番１２号３階,,27,127,5300044,,,,,,,2023-10-19,1,,,,,インザブルーインベスト,0
1572,6120003025118,新規,0,2023-10-19,2023-10-19,合同会社かなくる,,合同会社,大阪府,大阪市中央区,南船場４丁目１０番５号南船場ＳＯＨＯビル７０２,,27,128,5420081,,,,,,,2023-10-19,1,,,,,カナクル,0
1573,6120003025126,新規,0,2023-10-19,2023-10-19,合同会社優光,,合同会社,大阪府,大阪市淀川区,宮原１丁目１９番２３号６０６号室,,27,123,5320003,,,,,,,2023-10-19,1,,,,,ユウコウ,0
1574,6120003025134,新規,0,2023-10-19,2023-10-19,合同会社ＡＤＶＡＮＣＥ,,合同会社,大阪府,大阪市城東区,関目２丁目１８－１０４－５０６,,27,118,5360008,,,,,,,2023-10-19,1,,,,,アドバンス,0
1575,6120005023937,新規,0,2023-10-19,2023-10-19,ファイブ社会保険労務士法人,,その他の設立登記法人,大阪府,大阪市城東区,今福西１丁目３番５号,,27,118,5360004,,,,,,,2023-10-19,1,,,,,ファイブ,0
1576,6120005023953,新規,0,2023-10-19,2023-10-19,一般社団法人長生楽大阪なにわ,,その他の設立登記法人,大阪府,大阪市大正区,泉尾１丁目２１－２１,,27,108,5510031,,,,,,,2023-10-19,1,,,,,チョウセイラクオオサカナニワ,0
1579,6120101068398,新規,0,2023-10-19,2023-10-19,株式会社Ｒ,,株式会社,大阪府,南河内郡太子町,大字春日１１３番地の１,,27,381,5830991,,,,,,,2023-10-19,1,,,,,アール,0
1587,6130001075460,新規,0,2023-10-19,2023-10-19,株式会社京都スポーツアカデミー,,株式会社,京都府,京田辺市,薪長尾谷２９番地１ピュアレジデンス田辺１１８,,26,211,6100341,,,,,,,2023-10-19,1,,,,,キョウトスポーツアカデミー,0
1588,6130001075469,新規,0,2023-10-19,2023-10-19,株式会社ラフィックス,,株式会社,京都府,京都市山科区,大塚西浦町２５番地ＢｒｏｗｎｉｅｓＨｏｕｓｅ東野２０５号,,26,110,6078125,,,,,,,2023-10-19,1,,,,,ラフィックス,0
1599,6140001132005,新規,0,2023-10-19,2023-10-19,株式会社ＦＲＥＳＨ,,株式会社,兵庫県,芦屋市,翠ケ丘町１９番１７－３０２号,,28,206,6590014,,,,,,,2023-10-19,1,,,,,フレッシュ,0
1600,6140001132038,新規,0,2023-10-19,2023-10-19,株式会社フェルナベイル,,株式会社,兵庫県,神戸市西区,池上２丁目２０－１,,28,111,6512111,,,,,,,2023-10-19,1,,,,,フェルナベイル,0
1601,6140003019596,新規,0,2023-10-19,2023-10-19,合同会社ハウ・コミュニケーションズ,,合同会社,兵庫県,神戸市垂水区,松風台２丁目５－１－４０２,,28,108,6550871,,,,,,,2023-10-19,1,,,,,ハウコミュニケーションズ,0
1604,6170001017839,新規,0,2023-10-19,2023-10-19,株式会社宮一,,株式会社,和歌山県,田辺市,芳養町２２１２番地の５,,30,206,6460056,,,,,,,2023-10-19,1,,,,,ミヤイチ,0
1605,6170001017847,新規,0,2023-10-19,2023-10-19,アジアメタル株式会社,,株式会社,和歌山県,和歌山市,西浜１６６０－１９,,30,201,6410036,,,,,,,2023-10-19,1,,,,,アジアメタル,0
1614,6180001158533,新規,0,2023-10-19,2023-10-19,株式会社Ｕｓコンセプト,,株式会社,愛知県,名古屋市中区,栄５丁目２番３９号プラウドタワー栄パークアリーナ１６０１号,,23,106,4600008,,,,,,,2023-10-19,1,,,,,ユーエスコンセプト,0
1615,6180001158558,新規,0,2023-10-19,2023-10-19,株式会社リペアワン,,株式会社,愛知県,名古屋市中区,錦３丁目２１番１８号中央広小路ビル１Ｆ,,23,106,4600003,,,,,,,2023-10-19,1,,,,,リペアワン,0
1622,6200005013533,新規,0,2023-10-19,2023-10-19,一般社団法人いきいきライフ協会岐阜中央,,その他の設立登記法人,岐阜県,関市,北天神２丁目２番２４号,,21,205,5013917,,,,,,,2023-10-19,1,,,,,イキイキライフキョウカイギフチュウオウ,0
1637,6290001103429,新規,0,2023-10-19,2023-10-19,株式会社平河,,株式会社,福岡県,柳川市,大和町鷹ノ尾８１８番地,,40,207,8390253,,,,,,,2023-10-19,1,,,,,ヒラカワ,0
1638,6290001103437,新規,0,2023-10-19,2023-10-19,古宮コンストラクション株式会社,,株式会社,福岡県,春日市,須玖北５丁目１７７番地,,40,218,8160864,,,,,,,2023-10-19,1,,,,,コミヤコンストラクション,0
1639,6290001103461,新規,0,2023-10-19,2023-10-19,ＣＲＫ株式会社,,株式会社,福岡県,福岡市博多区,博多駅前１丁目２３番２号,,40,132,8120011,,,,,,,2023-10-19,1,,,,,,0
1644,6290801029963,新規,0,2023-10-19,2023-10-19,株式会社ＩＳＳＩＮ,,株式会社,福岡県,北九州市小倉北区,神岳２丁目４番２５号,,40,106,8020045,,,,,,,2023-10-19,1,,,,,イッシン,0
1645,6290803004527,新規,0,2023-10-19,2023-10-19,合同会社陽愛,,合同会社,福岡県,北九州市小倉北区,米町１丁目１番１号小倉駅前ひびきビル６階,,40,106,8020003,,,,,,,2023-10-19,1,,,,,ハルアイ,0
1646,6300005007161,新規,0,2023-10-19,2023-10-19,特定非営利活動法人ワンステップ,,その他の設立登記法人,佐賀県,三養基郡基山町,大字小倉３４４番地７向田ハイツ２０３号,,41,341,8410201,,,,,,,2023-10-19,1,,,,,ワンステップ,0
1652,6340003004289,新規,0,2023-10-19,2023-10-19,合同会社一ノ倉,,合同会社,鹿児島県,鹿児島市,西田２丁目１６番１１－１００１号,,46,201,8900046,,,,,,,2023-10-19,1,,,,,イチノクラ,0
1656,6360001032703,新規,0,2023-10-19,2023-10-19,Ｔｈｅ　Ｂｌｕｅｓ株式会社,,株式会社,沖縄県,国頭郡恩納村,字真栄田９３２番地２－２Ａ,,47,311,9040417,,,,,,,2023-10-19,1,,,,,ザブルース,0
1662,6390003002148,新規,0,2023-10-19,2023-10-19,合同会社鈴,,合同会社,山形県,酒田市,光ケ丘１丁目６番４３号,,06,204,9980061,,,,,,,2023-10-19,1,,,,,スズ,0
1664,6410003003853,新規,0,2023-10-19,2023-10-19,四季是々合同会社,,合同会社,秋田県,由利本荘市,川口字大覚１８２番地本荘由利産学共同研究センター内,,05,210,0150051,,,,,,,2023-10-19,1,,,,,シキコレコレ,0
1665,6410005006549,新規,0,2023-10-19,2023-10-19,特定非営利活動法人アセンション,,その他の設立登記法人,秋田県,北秋田市,小又字上川原１０番地１,,05,213,0184513,,,,,,,2023-10-19,1,,,,,アセンション,0
1667,6420001018456,新規,0,2023-10-19,2023-10-19,株式会社工藤建築設計事務所,,株式会社,青森県,黒石市,大字横町１番地５,,02,204,0360368,,,,,,,2023-10-19,1,,,,,クドウケンチクセッケイジムショ,0
1669,6430001090173,新規,0,2023-10-19,2023-10-19,株式会社ＳＫＰ,,株式会社,北海道,札幌市豊平区,平岸三条１４丁目１－１１,,01,105,0620933,,,,,,,2023-10-19,1,,,,,エスケーピー,0
1670,6430001090223,新規,0,2023-10-19,2023-10-19,株式会社Ｋ．ＬＩＦＩＸ,,株式会社,北海道,札幌市白石区,菊水元町五条２丁目１番１０－７０１号,,01,104,0030825,,,,,,,2023-10-19,1,,,,,ケーリフィックス,0
1677,6450001014122,新規,0,2023-10-19,2023-10-19,株式会社ＡｇＲｅｔｕｒｎ,,株式会社,北海道,上川郡美瑛町,幸町１丁目５番１８号,,01,459,0710214,,,,,,,2023-10-19,1,,,,,,0
1678,6470001019854,新規,0,2023-10-19,2023-10-19,株式会社Ｐｌａｓｔｅｒ　Ｓｔｙｌｅ,,株式会社,香川県,さぬき市,志度４１３９－１３９,,37,206,7692101,,,,,,,2023-10-19,1,,,,,プラスタースタイル,0
1683,6500001025254,新規,0,2023-10-19,2023-10-19,株式会社Ｄａｍｏ,,株式会社,愛媛県,西条市,氷見甲４６０番地４,,38,206,7930071,,,,,,,2023-10-19,1,,,,,ダモ,0
1686,6700150120983,新規,0,2023-10-19,2023-10-19,ＳｈｅｎＺｈｅｎＳｈｉＣｈａｎｇＭｕＨｅｎｇＱｉｎｇＭａｏＹｉ　ＹｏｕＸｉａｎＧｏｎｇＳｉ,,外国会社等,,,,,,,,ＳｈｅｎＺｈｅｎＳｈｉＢａｏＡｎＱｕ　ＸｉＸｉａｎｇＪｉｅＤａｏＸｉＸｉａｎｇＹｏｎｇＦｅｎｇＳｈｅＱｕＬｉｕＱｕ９９Ｈａｏ１０２　ＳｈｅｎＺｈｅｎＳｈｉ，Ｃｈｉｎａ,,,,,,2023-10-19,1,,,,,シンセンシチャンムヘンチンマオイユウゲンコウシ,0
1687,6700150121288,新規,0,2023-10-19,2023-10-19,ＺＩＲＥＯＴ　Ｉｎｎｏｖａｔｉｏｎ　Ｔｅｃｈｎｏｌｏｇｙ　Ｃｏ．，Ｌｔｄ．,,外国会社等,,,,,,,,５０１，Ｂｕｉｌｄｉｎｇ　Ａ，Ｈｕａｎｇｇａｎｇｌｉｎｇ　Ｉｎｄｕｓｔｒｉａｌ　Ｐａｒｋ，Ｈｅｘｉ，Ｈａｎｇｃｈｅｎｇ　Ｉｎｄｕｓｔｒｉａｌ　Ｚｏｎｅ，Ｔａｏｙｕａｎ　Ｃｏｍｍｕｎｉｔｙ，Ｘｉｘｉａｎｇ　Ｓｔｒｅｅｔ　Ｓｈｅｎｚｈｅｎ，Ｇｕａｎｇｄｏｎｇ,,,,,,2023-10-19,1,,,,,チネツソウシンギジュツシンセンユウゲンコウシ,0
1688,6700150121296,新規,0,2023-10-19,2023-10-19,Ｓｈｅｎｚｈｅｎｓｈｉ　ｍａｉｍａｉｍａｉｄｉａｎｚｉｓｈａｎｇｗｕ　ｙｏｕｘｉａｎｇｏｎｇｓｉ,,外国会社等,,,,,,,,ｌｏｎｇｇａｎｇｑｕｙｕａｎｓｈａｎｊｉｅｄａｏｂａｏａｎｓｈｅｑｕｘｉｎｐｏｔａｎｇｃｕｎ　ｘｉｎｙｕａｎｌｕ１１－１ｈａｏｅｒｌｏｕ２０９　ｓｈｅｎｚｈｅｎ，Ｃｈｉｎａ,,,,,,2023-10-19,1,,,,,シンセンシマイマイマイデンシショウムユウゲンコウシ,0
1696,7010001239258,新規,0,2023-10-19,2023-10-19,Ｓｋｙｌｉｎｋ　Ｇｌｏｂａｌ　Ｊａｐａｎ株式会社,,株式会社,東京都,千代田区,神田西福田町２番地聖徳ビル３－Ｂ,,13,101,1010037,,,,,,,2023-10-19,1,,,,,スカイリンググローバルジャパン,0
1697,7010001239324,新規,0,2023-10-19,2023-10-19,株式会社ＨＡＮＡＢＵＳＡ,,株式会社,東京都,中央区,月島１丁目１８－９,,13,102,1040052,,,,,,,2023-10-19,1,,,,,ハナブサ,0
1698,7010001239407,新規,0,2023-10-19,2023-10-19,株式会社キャリアトワ,,株式会社,東京都,中央区,日本橋箱崎町１番１１号,,13,102,1030015,,,,,,,2023-10-19,1,,,,,キャリアトワ,0
1701,7010003041884,新規,0,2023-10-19,2023-10-19,ボルト５合同会社,,合同会社,東京都,中央区,銀座１丁目６番１１号アースタックス税理士法人内,,13,102,1040061,,,,,,,2023-10-19,1,,,,,ボルトファイブ,0
1702,7010003041983,新規,0,2023-10-19,2023-10-19,黒岩レジデンシャル合同会社２,,合同会社,東京都,千代田区,丸の内３丁目１番１号東京共同会計事務所内,,13,101,1000005,,,,,,,2023-10-19,1,,,,,クロイワレジデンシャルニ,0
1708,7010005037377,新規,0,2023-10-19,2023-10-19,一般財団法人アースリボーン,,その他の設立登記法人,東京都,中央区,東日本橋２丁目２８－５－９Ｆ,,13,102,1030004,,,,,,,2023-10-19,1,,,,,,0
1709,7010005037402,新規,0,2023-10-19,2023-10-19,サンライズ一般社団法人,,その他の設立登記法人,東京都,千代田区,丸の内３丁目１番１号東京共同会計事務所内,,13,101,1000005,,,,,,,2023-10-19,1,,,,,サンライズ,0
1713,7010103002233,新規,0,2023-10-19,2023-10-19,海聖合同会社,,合同会社,東京都,八王子市,八日町３番１－９０８号パークホームズ八王子,,13,201,1920071,,,,,,,2023-10-19,1,,,,,カイセイ,0
1716,7010401177719,新規,0,2023-10-19,2023-10-19,株式会社ＯＫＫ,,株式会社,東京都,港区,南青山２丁目２番１５号,,13,103,1070062,,,,,,,2023-10-19,1,,,,,オーケーケー,0
1717,7010401177859,新規,0,2023-10-19,2023-10-19,株式会社アスシード,,株式会社,東京都,港区,新橋４丁目３１－３第３名和ビル１－９Ｆ,,13,103,1050004,,,,,,,2023-10-19,1,,,,,アスシード,0
1718,7010401177925,新規,0,2023-10-19,2023-10-19,ＹＴ　Ｓｐａｃｅ株式会社,,株式会社,東京都,港区,浜松町２丁目２番１５号浜松町ダイヤビル２Ｆ,,13,103,1050013,,,,,,,2023-10-19,1,,,,,ワティースペース,0
1719,7010401177941,新規,0,2023-10-19,2023-10-19,株式会社エース,,株式会社,東京都,港区,西麻布４丁目１１番９号ファイブビル１Ｆ,,13,103,1060031,,,,,,,2023-10-19,1,,,,,エース,0
1720,7010401177966,新規,0,2023-10-19,2023-10-19,株式会社Ｅ　Ｓｑｕａｒｅ,,株式会社,東京都,港区,南青山２丁目２９番６号青山ザ・タワー５０１,,13,103,1070062,,,,,,,2023-10-19,1,,,,,イースクエアー,0
1726,7010403031205,新規,0,2023-10-19,2023-10-19,ＦＯＢＩＯ合同会社,,合同会社,東京都,港区,南青山２丁目２番地１５号,,13,103,1070062,,,,,,,2023-10-19,1,,,,,フォビオゴウドウガイシャ,0
1729,7010405022549,新規,0,2023-10-19,2023-10-19,一般財団法人ｎａｚ,,その他の設立登記法人,東京都,港区,南麻布５丁目４番１－７０２号,,13,103,1060047,,,,,,,2023-10-19,1,,,,,ナーズ,0
1732,7010501051229,新規,0,2023-10-19,2023-10-19,株式会社杵福,,株式会社,東京都,台東区,浅草１丁目３０番１２号,,13,106,1110032,,,,,,,2023-10-19,1,,,,,キネフク,0
1734,7010601063990,新規,0,2023-10-19,2023-10-19,株式会社スカイ,,株式会社,東京都,墨田区,亀沢２丁目４番９号,,13,107,1300014,,,,,,,2023-10-19,1,,,,,スカイ,0
1737,7010801034437,新規,0,2023-10-19,2023-10-19,株式会社ｃｈａｒｍｅ,,株式会社,東京都,大田区,蒲田５丁目２８番４号ＥＣＳ第２７ビル３Ｆ３３号,,13,111,1440052,,,,,,,2023-10-19,1,,,,,シャルム,0
1738,7010901054046,新規,0,2023-10-19,2023-10-19,株式会社ＶＶＧ,,株式会社,東京都,世田谷区,北沢３丁目２番１１－３１０号,,13,112,1550031,,,,,,,2023-10-19,1,,,,,ヴィンセントヴァンゴ,0
1745,7011001157417,新規,0,2023-10-19,2023-10-19,株式会社Ｆｏｕｒ　Ｓｅａｓｏｎｓ,,株式会社,東京都,渋谷区,神宮前１丁目４－２０パークコート神宮前５４４,,13,113,1500001,,,,,,,2023-10-19,1,,,,,フォーシーズンズ,0
1746,7011001157565,新規,0,2023-10-19,2023-10-19,ｉｉｍｕｒａ　ｃｏｎｓｕｌｔｉｎｇ株式会社,,株式会社,東京都,渋谷区,宇田川町１番１２－３１０号,,13,113,1500042,,,,,,,2023-10-19,1,,,,,イイムラコサルティング,0
1747,7011001157656,新規,0,2023-10-19,2023-10-19,株式会社Ｚｔｈｒｅｅｅ,,株式会社,東京都,渋谷区,渋谷２丁目９番１０号青山台ビル１００１,,13,113,1500002,,,,,,,2023-10-19,1,,,,,ゼットスリー,0
1749,7011003017742,新規,0,2023-10-19,2023-10-19,松英建業合同会社,,合同会社,東京都,目黒区,下目黒２丁目２３番２１ー２０７号、ザ・マジェスティコート目黒,,13,110,1530064,,,,,,,2023-10-19,1,,,,,ショウエイケンギョウ,0
1753,7011103013617,新規,0,2023-10-19,2023-10-19,合同会社ＨＡＮＴＨ,,合同会社,東京都,新宿区,左門町１番地１,,13,104,1600017,,,,,,,2023-10-19,1,,,,,ハンス,0
1754,7011201024994,新規,0,2023-10-19,2023-10-19,株式会社鳥浜不動産,,株式会社,東京都,中野区,上高田３丁目２８－２ハイツコイケ２Ｆ,,13,114,1640002,,,,,,,2023-10-19,1,,,,,トリハマフドウサン,0
1757,7011301029101,新規,0,2023-10-19,2023-10-19,株式会社はるしょうｐａｃｋａｇｉｎｇ,,株式会社,東京都,杉並区,上萩三丁目４番１２号メゾン西荻窪１０１号,,13,115,1660000,,,,,,,2023-10-19,1,,,,,ハルショウパッケージング,0
1761,7011403004150,新規,0,2023-10-19,2023-10-19,合同会社高竿ＩＴソリューション,,合同会社,東京都,板橋区,小茂根２丁目１２番７号,,13,119,1730037,,,,,,,2023-10-19,1,,,,,タカサオアイティーソリューション,0
1764,7011603004099,新規,0,2023-10-19,2023-10-19,合同会社日新サービス,,合同会社,東京都,練馬区,練馬１丁目２０－８日建練馬ビル２Ｆ,,13,120,1760001,,,,,,,2023-10-19,1,,,,,ニッシンサービス,0
1765,7011701026664,新規,0,2023-10-19,2023-10-19,株式会社ＩＷＯ,,株式会社,東京都,江戸川区,東葛西８丁目４－７－３０１,,13,123,1340084,,,,,,,2023-10-19,1,,,,,アイダブルオー,0
1766,7011701026672,新規,0,2023-10-19,2023-10-19,株式会社ＰＤＳディレクション,,株式会社,東京都,江戸川区,北小岩４丁目３５番１０号,,13,123,1330051,,,,,,,2023-10-19,1,,,,,ピーディーエスディレクション,0
1769,7011803005896,新規,0,2023-10-19,2023-10-19,合同会社アイジュル,,合同会社,東京都,足立区,梅島３丁目３３番６号エンブレム西新井３０,,13,121,1210816,,,,,,,2023-10-19,1,,,,,アイジュル,0
1773,7012701017892,新規,0,2023-10-19,2023-10-19,Ａｂｉｌｉｔｙ　Ｇｒｏｗ株式会社,,株式会社,東京都,小平市,花小金井南町２丁目１３番３号フラワーハイツ３０１号室,,13,211,1870003,,,,,,,2023-10-19,1,,,,,アビリティグロウ,0
1774,7012803003213,新規,0,2023-10-19,2023-10-19,合同会社Ｆｅｌｉｃｅ,,合同会社,東京都,昭島市,郷地町２丁目３０－２５,,13,207,1960032,,,,,,,2023-10-19,1,,,,,フェリーチェ,0
1775,7012805003236,新規,0,2023-10-19,2023-10-19,一般社団法人爪健美協会,,その他の設立登記法人,東京都,日野市,旭が丘６丁目１１番地の４０,,13,212,1910065,,,,,,,2023-10-19,1,,,,,ソウケンビキョウカイ,0
1781,7020001153986,新規,0,2023-10-19,2023-10-19,株式会社ヴィブラント・フィメール,,株式会社,神奈川県,横浜市中区,日本大通７番地,,14,104,2310021,,,,,,,2023-10-19,1,,,,,ヴィブラントフィメール,0
1782,7020001153994,新規,0,2023-10-19,2023-10-19,株式会社ヒロミ商事,,株式会社,神奈川県,横浜市鶴見区,生麦４丁目３３－１３パールハウス横浜鶴見２０１室,,14,101,2300052,,,,,,,2023-10-19,1,,,,,,0
1783,7020001154051,新規,0,2023-10-19,2023-10-19,星河株式会社,,株式会社,神奈川県,横浜市中区,富士見町４番地２モアレ横浜富士見町２１１号室,,14,104,2310037,,,,,,,2023-10-19,1,,,,,ホシカワ,0
1785,7020003024789,新規,0,2023-10-19,2023-10-19,合同会社ハマラボ,,合同会社,神奈川県,横浜市中区,花咲町１丁目３８番地シェアヴィラ桜木町野毛３Ｆ,,14,104,2310063,,,,,,,2023-10-19,1,,,,,ハマラボ,0
1787,7021001080519,新規,0,2023-10-19,2023-10-19,エナジージャパン株式会社,,株式会社,神奈川県,高座郡寒川町,岡田２丁目１３番２２号益田店舗,,14,321,2530105,,,,,,,2023-10-19,1,,,,,エナジージャパン,0
1802,7030001156699,新規,0,2023-10-19,2023-10-19,シンクフロー株式会社,,株式会社,埼玉県,北足立郡伊奈町,寿４丁目６７番地,,11,301,3620807,,,,,,,2023-10-19,1,,,,,シンクフロー,0
1803,7030001156716,新規,0,2023-10-19,2023-10-19,株式会社アトリエシェノン,,株式会社,埼玉県,さいたま市緑区,東浦和７丁目３２番地１４パレマロン４０３,,11,109,3360926,,,,,,,2023-10-19,1,,,,,アトリエシェノン,0
1804,7030001156724,新規,0,2023-10-19,2023-10-19,株式会社ゴールド,,株式会社,埼玉県,草加市,八幡町１２３４番地１－２０１号,,11,221,3400006,,,,,,,2023-10-19,1,,,,,ゴールド,0
1815,7040001130562,新規,0,2023-10-19,2023-10-19,株式会社ＬＩＦＩＸ,,株式会社,千葉県,松戸市,六高台６丁目１０９番地の１８,,12,207,2702203,,,,,,,2023-10-19,1,,,,,リフィックス,0
1816,7040001130595,新規,0,2023-10-19,2023-10-19,株式会社アズプライマル,,株式会社,千葉県,成田市,三里塚１－２,,12,211,2860111,,,,,,,2023-10-19,1,,,,,アズプライマル,0
1823,7040003023533,新規,0,2023-10-19,2023-10-19,合同会社Ｋ樹,,合同会社,千葉県,白井市,平塚３５８－６,,12,232,2701402,,,,,,,2023-10-19,1,,,,,ケージュ,0
1824,7040003023566,新規,0,2023-10-19,2023-10-19,合同会社Ａ．Ｎ．Ｄ,,合同会社,千葉県,印旛郡栄町,酒直１７１８番地１３９,,12,329,2701513,,,,,,,2023-10-19,1,,,,,アンド,0
1828,7050001053688,新規,0,2023-10-19,2023-10-19,株式会社グローエイト,,株式会社,茨城県,鹿嶋市,大字宮津台１７１番地１５,,08,222,3140006,,,,,,,2023-10-19,1,,,,,グローエイト,0
1831,7050003007881,新規,0,2023-10-19,2023-10-19,ＬＣＳ合同会社,,合同会社,茨城県,土浦市,中神立町９番地６,,08,203,3000016,,,,,,,2023-10-19,1,,,,,エルシーエス,0
1838,7080101024280,新規,0,2023-10-19,2023-10-19,株式会社ＲＫ５,,株式会社,静岡県,裾野市,富沢３３８番地の２２,,22,220,4101125,,,,,,,2023-10-19,1,,,,,アールケーファイブ,0
1844,7080401026803,新規,0,2023-10-19,2023-10-19,株式会社ミライ,,株式会社,静岡県,磐田市,池田２１７コーポ小恋路Ａ１０２,,22,211,4380805,,,,,,,2023-10-19,1,,,,,ミライ,0
1847,7090001018381,新規,0,2023-10-19,2023-10-19,株式会社森ノ醸造所,,株式会社,山梨県,北杜市,白州町台ヶ原２２８３番地,,19,209,4080312,,,,,,,2023-10-19,1,,,,,モリノジョウゾウジョ,0
1852,7110001037924,新規,0,2023-10-19,2023-10-19,ＮＨ株式会社,,株式会社,新潟県,長岡市,袋町３丁目甲１０９６番地２２,,15,202,9400055,,,,,,,2023-10-19,1,,,,,エヌエイチ,0
1863,7120001258866,新規,0,2023-10-19,2023-10-19,株式会社Ｊ‐Ｇｒｏｕｐ,,株式会社,大阪府,大阪市中央区,南船場３丁目７番２９号,,27,128,5420081,,,,,,,2023-10-19,1,,,,,ジェイグループ,0
1864,7120001258908,新規,0,2023-10-19,2023-10-19,株式会社東亜不動産,,株式会社,大阪府,大阪市浪速区,下寺３丁目１８番４号ロイヤルハイム下寺１階,,27,111,5560001,,,,,,,2023-10-19,1,,,,,トウアフドウサン,0
1865,7120001258957,新規,0,2023-10-19,2023-10-19,株式会社Ｍ＆Ｈｉｒｏｓｅ,,株式会社,大阪府,大阪市平野区,加美鞍作３丁目１２番９－１００７号,,27,126,5470004,,,,,,,2023-10-19,1,,,,,エムアンドヒロセ,0
1867,7120003025125,新規,0,2023-10-19,2023-10-19,ＴＲＵＳＴ　ＮＥＴ合同会社,,合同会社,大阪府,大阪市平野区,長吉長原４丁目１番２４号大長ハウス３０１号,,27,126,5470016,,,,,,,2023-10-19,1,,,,,トラストネット,0
1868,7120005023911,新規,0,2023-10-19,2023-10-19,弁護士法人しんゆう法律事務所,,その他の設立登記法人,大阪府,大阪市北区,西天満３丁目１４番１６号西天満パークビル３号館３階,,27,127,5300047,,,,,,,2023-10-19,1,,,,,シンユウホウリツジムショ,0
1869,7120101068406,新規,0,2023-10-19,2023-10-19,株式会社丸栄建設,,株式会社,大阪府,堺市堺区,北旅籠町西３丁１－７,,27,141,5900928,,,,,,,2023-10-19,1,,,,,マルエイケンセツ,0
1870,7120103005497,新規,0,2023-10-19,2023-10-19,合同会社ｂｅａｔ,,合同会社,大阪府,阪南市,自然田１４８２番地の１Ｂ棟３号,,27,232,5990212,,,,,,,2023-10-19,1,,,,,ベア,0
1871,7120901048227,新規,0,2023-10-19,2023-10-19,株式会社こどもさぽーと,,株式会社,大阪府,吹田市,千里丘北１番２６－７０３号,,27,205,5650815,,,,,,,2023-10-19,1,,,,,コドモサポート,0
1873,7130001075393,新規,0,2023-10-19,2023-10-19,ＫＭＣパートナーズ株式会社,,株式会社,京都府,京都市西京区,大枝中山町２番４４,,26,111,6101104,,,,,,,2023-10-19,1,,,,,ケーエムシーパートナーズ,0
1874,7130001075443,新規,0,2023-10-19,2023-10-19,株式会社ＮＥＸＴ　ＩＮＮＯＶＡＴＩＯＮ,,株式会社,京都府,京丹後市,弥栄町溝谷４８０８－７,,26,212,6270111,,,,,,,2023-10-19,1,,,,,ネクストイノベーション,0
1875,7130001075451,新規,0,2023-10-19,2023-10-19,株式会社Ｓｃｌｅａｎ,,株式会社,京都府,京都市南区,西九条池ノ内町９３番地６０５号,,26,107,6018416,,,,,,,2023-10-19,1,,,,,エスクリーン,0
1882,7140003019686,新規,0,2023-10-19,2023-10-19,ＯＦ阪神合同会社,,合同会社,兵庫県,尼崎市,塚口本町３丁目２１番３号,,28,202,6610001,,,,,,,2023-10-19,1,,,,,オーエフハンシン,0
1885,7150001026808,新規,0,2023-10-19,2023-10-19,株式会社エセレッソ,,株式会社,奈良県,奈良市,三条本町１２番５－１３０６号,,29,201,6308122,,,,,,,2023-10-19,1,,,,,エセレッソ,0
1886,7150001026816,新規,0,2023-10-19,2023-10-19,株式会社大和クリエイト,,株式会社,奈良県,奈良市,大森町２４番地の１メゾンアンテルナ奈良５１０号,,29,201,6308131,,,,,,,2023-10-19,1,,,,,ダイワクリエイト,0
1887,7150003003103,新規,0,2023-10-19,2023-10-19,合同会社南都中央総研,,合同会社,奈良県,奈良市,高天町４５番地アート福住ビル４階,,29,201,6308241,,,,,,,2023-10-19,1,,,,,ナントチュウオウソウケン,0
1890,7170001017838,新規,0,2023-10-19,2023-10-19,株式会社輝翔建装,,株式会社,和歌山県,和歌山市,中１１６番地６,,30,201,6408451,,,,,,,2023-10-19,1,,,,,キワケンソウ,0
1891,7170001017846,新規,0,2023-10-19,2023-10-19,株式会社Ｊ＆Ｎ,,株式会社,和歌山県,和歌山市,鳴神１９３番地４,,30,201,6408303,,,,,,,2023-10-19,1,,,,,ジェイアンドエヌ,0
1898,7180001158598,新規,0,2023-10-19,2023-10-19,株式会社ｗｅａｖｅ,,株式会社,愛知県,名古屋市西区,笹塚町２丁目５９番地の２,,23,104,4510077,,,,,,,2023-10-19,1,,,,,ウィーブ,0
1899,7180001158607,新規,0,2023-10-19,2023-10-19,株式会社Ｘ　Ｆｕｔｕｒｅｓ,,株式会社,愛知県,名古屋市昭和区,神村町２丁目３６番地の１（Ｓｔａｎｚａ神村１０１号）,,23,107,4660802,,,,,,,2023-10-19,1,,,,,クロスフューチャーズ,0
1903,7190001030822,新規,0,2023-10-19,2023-10-19,株式会社緑寿園,,株式会社,三重県,鈴鹿市,秋永町９７０番地の２,,24,207,5100258,,,,,,,2023-10-19,1,,,,,リョクジュエン,0
1909,7220003003608,新規,0,2023-10-19,2023-10-19,２０４Ｄｉｇｉｔａｌ合同会社,,合同会社,石川県,かほく市,横山イ１４番地４,,17,209,9291105,,,,,,,2023-10-19,1,,,,,トゥーゼロフォーデジタル,0
1911,7230001020067,新規,0,2023-10-19,2023-10-19,株式会社ｍａｉｋａｉ,,株式会社,富山県,富山市,婦中町増田１４３番地２０,,16,201,9392714,,,,,,,2023-10-19,1,,,,,マイカイ,0
1912,7230003002096,新規,0,2023-10-19,2023-10-19,Ｓｔｙｌｅ・Ｓ合同会社,,合同会社,富山県,黒部市,山田７３４番地５,,16,207,9380049,,,,,,,2023-10-19,1,,,,,スタイルエス,0
1914,7250001020362,新規,0,2023-10-19,2023-10-19,株式会社しろくまワークス,,株式会社,山口県,下松市,生野屋南１丁目４番１号,,35,207,7440033,,,,,,,2023-10-19,1,,,,,シロクマワークス,0
1923,7290001103436,新規,0,2023-10-19,2023-10-19,株式会社Ｋ’ｓソリューションズ,,株式会社,福岡県,福岡市博多区,麦野４丁目３７番１６－３０１号,,40,132,8120882,,,,,,,2023-10-19,1,,,,,ケイズソリューションズ,0
1924,7290001103452,新規,0,2023-10-19,2023-10-19,エースグロー株式会社,,株式会社,福岡県,福岡市博多区,美野島３丁目８－１－２０２,,40,132,8120017,,,,,,,2023-10-19,1,,,,,エースグロー,0
1925,7290001103469,新規,0,2023-10-19,2023-10-19,株式会社マーベラス,,株式会社,福岡県,福岡市南区,花畑１丁目４３番８号,,40,134,8111356,,,,,,,2023-10-19,1,,,,,マーベラス,0
1932,7290003014516,新規,0,2023-10-19,2023-10-19,合同会社Ｃ’ｅｓｔ　ｌａ　ｖｉｅ,,合同会社,福岡県,福岡市西区,生の松原４丁目１７番１４号,,40,135,8190055,,,,,,,2023-10-19,1,,,,,セラヴィ,0
1935,7290801029954,新規,0,2023-10-19,2023-10-19,株式会社ヤマシン,,株式会社,福岡県,北九州市小倉南区,横代北町３丁目１６番４号,,40,107,8020821,,,,,,,2023-10-19,1,,,,,ヤマシン,0
1938,7300005007160,新規,0,2023-10-19,2023-10-19,一般社団法人ハーブ＆ヘルスケアパートナーズ協会,,その他の設立登記法人,佐賀県,三養基郡基山町,大字宮浦９６９番地１５,,41,341,8410204,,,,,,,2023-10-19,1,,,,,ハーブアンドヘルスケアパートナーズキョウカイ,0
1940,7310001018664,新規,0,2023-10-19,2023-10-19,株式会社Ｍｅｒｃｉ,,株式会社,長崎県,島原市,新町１丁目２０７番地,,42,203,8550803,,,,,,,2023-10-19,1,,,,,メルシー,0
1942,7310003004662,新規,0,2023-10-19,2023-10-19,合同会社出口外装,,合同会社,長崎県,大村市,寿古町７４５番地１４,,42,205,8560801,,,,,,,2023-10-19,1,,,,,デグチガイソウ,0
1945,7330005010707,新規,0,2023-10-19,2023-10-19,税理士法人阿蘇中央会計,,その他の設立登記法人,熊本県,阿蘇市,一の宮町宮地２００５番地,,43,214,8692612,,,,,,,2023-10-19,1,,,,,アソチュウオウカイケイ,0
1948,7360001032727,新規,0,2023-10-19,2023-10-19,株式会社ハウスビルダーネクスト,,株式会社,沖縄県,那覇市,前島１丁目２番１号コーポかかず１－Ｂ,,47,201,9000016,,,,,,,2023-10-19,1,,,,,ハウスビルダーネクスト,0
1957,7420001018455,新規,0,2023-10-19,2023-10-19,株式会社三つ星ＥＡＴ,,株式会社,青森県,青森市,浪打１丁目３番１９号,,02,201,0300961,,,,,,,2023-10-19,1,,,,,ミツボシイート,0
1958,7430001090164,新規,0,2023-10-19,2023-10-19,株式会社Ｎｏｒｔｈ　Ｌｉｎｋ,,株式会社,北海道,札幌市北区,新琴似五条９丁目６－３　２Ｆ,,01,102,0010905,,,,,,,2023-10-19,1,,,,,ノースリンク,0
1959,7430001090222,新規,0,2023-10-19,2023-10-19,株式会社縁心サービス,,株式会社,北海道,札幌市北区,屯田五条５丁目３番８号,,01,102,0020855,,,,,,,2023-10-19,1,,,,,エンシンサービス,0
1961,7430003015540,新規,0,2023-10-19,2023-10-19,合同会社シープラス,,合同会社,北海道,札幌市手稲区,新発寒五条７丁目１番１９号,,01,109,0060805,,,,,,,2023-10-19,1,,,,,シープラス,0
1970,7480003002039,新規,0,2023-10-19,2023-10-19,合同会社Ｔｅｎ‐Ｓｈａ桜,,合同会社,徳島県,徳島市,かちどき橋６丁目一番地ラウムズかちどき橋８０３号,,36,201,7700939,,,,,,,2023-10-19,1,,,,,テンシャサクラ,0
1976,7500001025245,新規,0,2023-10-19,2023-10-19,株式会社片山工業,00132312,株式会社,愛媛県,西条市,神拝甲１１８番地１,,38,206,7930041,,,,,,,2023-10-19,1,,,,,カタヤマコウギョウ,0
1977,7500001025253,新規,0,2023-10-19,2023-10-19,株式会社ＯＬＣ,,株式会社,愛媛県,西条市,喜多川６０８番地５,,38,206,7930042,,,,,,,2023-10-19,1,,,,,オーエルシー,0
1980,7700150120223,新規,0,2023-10-19,2023-09-14,全国地方職員福利厚生協議会,,その他,東京都,千代田区,内幸町２丁目１－１飯野ビル１１階,,13,101,1000011,,,,,,,2023-09-14,1,,,,,ゼンコクチホウシヨクインフクリコウセイキヨウギカイ,0
1981,7700150121015,新規,0,2023-10-19,2023-10-04,ダンストゥループ２１,,その他,愛知県,名古屋市中村区,城屋敷町３丁目７０－１,,23,105,4530058,,,,,,,2023-10-04,1,,,,,ダンストウループニジユウイチ,0
1982,7700150121279,新規,0,2023-10-19,2023-10-19,ｙｕｅｑｉｎｇｓｈｉｘｉｑｉｄｉａｎｚｉｓｈａｎｇｗｕ　ｙｏｕｘｉａｎｇｏｎｇｓｉ,,外国会社等,,,,,,,,Ｎｏ．３０ＢｅｉｍｅｎｓｔｒｅｅｔＰｕｑｉＴｏｗｎＬｅｑｉｎｇＣｉｔｙＺＨＥＪＩＡＩＮＧ,,,,,,2023-10-19,1,,,,,ガクセイシシチデンシショウムユウゲンコウシ,0
1983,7700150121287,新規,0,2023-10-19,2023-10-19,ｃｈａｎｇｓｈｕｔｏｎｇｒｕｎｊｕｓｈｅｎｇｊｉｘｉｅｓｈｅｂｅｉ　ｙｏｕｘｉａｎｇｏｎｇｓｉ,,外国会社等,,,,,,,,ＣｈａｎｇｓｈｕＥｃｏｎｏｍｉｃａｎｄｔｅｃｈｎｏｌｏｇｉｃａｌＤｅｖｅｌｏｐｍｅｎｔＺｏｎｅｎｅｗＬｏｎｇｔｅｎｇｉｎｄｕｓｔｒｉａｌＰａｒｋ　ＳｕｚｈｏｕＣｉｔｙＣｈａｎｇｓｈｕＣｉｔｙ,,,,,,2023-10-19,1,,,,,ジョウジュクトオンルンジュセンキカイセツビユウゲンコウシ,0
1984,7700150121295,新規,0,2023-10-19,2023-10-19,Ｇｕａｎｇｚｈｏｕ　Ｓｈｅｎｇｔｕ　Ｅｌｅｃｔｒｏｎｉｃ　Ｔｅｃｈｎｏｌｏｇｙ　Ｃｏ　Ｌｔｄ,,外国会社等,,,,,,,,Ｒｏｏｍ　４０３７Ｃ　Ｆｏｕｒｔｈ　Ｆｌｏｏｒ　Ｎｕｍｂｅｒ　８２　Ｔａｏｙｕ　Ｒｏａｄ　Ｔｉａｎｈｅ　Ｄｉｓｔｒｉｃｔ　Ｇｕａｎｇｚｈｏｕ，Ｃｈｉｎａ,,,,,,2023-10-19,1,,,,,コウシュウシェントイレクトゥロニックテクノロジーカンパニーリミテッド,0
1989,8010001239323,新規,0,2023-10-19,2023-10-19,株式会社Ｃａｓｔｌｅホールディングス,,株式会社,東京都,千代田区,丸の内３丁目４番１号新国際ビル６階,,13,101,1000005,,,,,,,2023-10-19,1,,,,,キャッスルホールディングス,0
1991,8010003041883,新規,0,2023-10-19,2023-10-19,ボルト４合同会社,,合同会社,東京都,中央区,銀座１丁目６番１１号アースタックス税理士法人内,,13,102,1040061,,,,,,,2023-10-19,1,,,,,ボルトフォー,0
1992,8010003041958,新規,0,2023-10-19,2023-10-19,合同会社メディプリマ,,合同会社,東京都,中央区,銀座６丁目１３番１６号銀座ＷａｌｌビルＵＣＦ５０１,,13,102,1040061,,,,,,,2023-10-19,1,,,,,メディプリマ,0
1993,8010103002232,新規,0,2023-10-19,2023-10-19,合同会社ＫＲ設備,,合同会社,東京都,八王子市,叶谷町１０７５番地１ディアスＫ２２０１号,,13,201,1930815,,,,,,,2023-10-19,1,,,,,ケーアールセツビ,0
2003,8010401177750,新規,0,2023-10-19,2023-10-19,株式会社ＳＨＡ２５６,,株式会社,東京都,港区,南青山３丁目１番３６号青山丸竹ビル６Ｆ,,13,103,1070062,,,,,,,2023-10-19,1,,,,,シャーニゴロ,0
2004,8010401177998,新規,0,2023-10-19,2023-10-19,エージェント準備株式会社,,株式会社,東京都,港区,赤坂７丁目１０番２０号,,13,103,1070052,,,,,,,2023-10-19,1,,,,,エージェントジュンビ,0
2009,8010403031195,新規,0,2023-10-19,2023-10-19,スターシア合同会社,,合同会社,東京都,港区,高輪３丁目１１番８－１３０７号,,13,103,1080074,,,,,,,2023-10-19,1,,,,,スターシア,0
2011,8010405022572,新規,0,2023-10-19,2023-10-19,ＥＳＲ３８一般社団法人,,その他の設立登記法人,東京都,港区,浜松町１丁目２０番１０号ライオネス浜松町５０６号室,,13,103,1050013,,,,,,,2023-10-19,1,,,,,イーエスアールサンジュウハチ,0
2012,8010405022606,新規,0,2023-10-19,2023-10-19,ＲＯＬＥＵＰ税理士法人,,その他の設立登記法人,東京都,港区,虎ノ門４丁目１番２８号虎ノ門タワーズオフィス１９階,,13,103,1050001,,,,,,,2023-10-19,1,,,,,ロールアップ,0
2016,8010603010437,新規,0,2023-10-19,2023-10-19,合同会社アンドリープ,,合同会社,東京都,江東区,木場５丁目８－４１－９０９,,13,108,1350042,,,,,,,2023-10-19,1,,,,,アンドリープ,0
2020,8010701045005,新規,0,2023-10-19,2023-10-19,株式会社ｉＷＡ,,株式会社,東京都,品川区,小山３丁目１１番２－１１０２号,,13,109,1420062,,,,,,,2023-10-19,1,,,,,イワ,0
2026,8010901054020,新規,0,2023-10-19,2023-10-19,株式会社玉川ヘルス研究所,,株式会社,東京都,世田谷区,玉川４丁目３０番３号,,13,112,1580094,,,,,,,2023-10-19,1,,,,,タマガワヘルスケンキュウジョ,0
2027,8010901054029,新規,0,2023-10-19,2023-10-19,サンビーズ株式会社,,株式会社,東京都,世田谷区,奥沢７丁目２２－１０,,13,112,1580083,,,,,,,2023-10-19,1,,,,,サンビーズ,0
2037,8011001157564,新規,0,2023-10-19,2023-10-19,マインドバディ株式会社,,株式会社,東京都,渋谷区,円山町５番５号Ｎａｖｉ渋谷Ｖ３階,,13,113,1500044,,,,,,,2023-10-19,1,,,,,マインドバディ,0
2044,8011101104805,新規,0,2023-10-19,2023-10-19,株式会社総合資格アーキテクトスタジオ,,株式会社,東京都,新宿区,西新宿１丁目２６番２号,,13,104,1600023,,,,,,,2023-10-19,1,,,,,ソウゴウシカクアーキテクトスタジオ,0
2045,8011101104838,新規,0,2023-10-19,2023-10-19,ＳＫＹ．ＭＥＴＡＬ株式会社,,株式会社,東京都,新宿区,赤城下町８８番地ピアース神楽坂ヒルズ３０４,,13,104,1620803,,,,,,,2023-10-19,1,,,,,スカイメタル,0
2046,8011103013616,新規,0,2023-10-19,2023-10-19,ダーナ合同会社,,合同会社,東京都,新宿区,北新宿１丁目３０番１５号サンハイツ北新宿２０４,,13,104,1690074,,,,,,,2023-10-19,1,,,,,ダーナ,0
2047,8011103013624,新規,0,2023-10-19,2023-10-19,合同会社ＫＡＫ,,合同会社,東京都,新宿区,北新宿１丁目８番２４－１１０１号,,13,104,1690074,,,,,,,2023-10-19,1,,,,,ケーエーケー,0
2048,8011201024993,新規,0,2023-10-19,2023-10-19,株式会社大和,,株式会社,東京都,中野区,鷺宮１丁目３０番１３号ハイツ北３０１,,13,114,1650032,,,,,,,2023-10-19,1,,,,,ヤマト,0
2049,8011203004201,新規,0,2023-10-19,2023-10-19,合同会社ワークブース高円寺,,合同会社,東京都,中野区,野方１丁目５１番３号,,13,114,1650027,,,,,,,2023-10-19,1,,,,,ワークブースコウエンジ,0
2060,8011501029890,新規,0,2023-10-19,2023-10-19,株式会社リュウコス,,株式会社,東京都,北区,豊島３丁目１６－３,,13,117,1140003,,,,,,,2023-10-19,1,,,,,リュウコス,0
2062,8011801043195,新規,0,2023-10-19,2023-10-19,楽シルク株式会社,,株式会社,東京都,葛飾区,金町３丁目３６番地４号金町パーク・ホームズ５０２,,13,122,1250042,,,,,,,2023-10-19,1,,,,,ラクシルク,0
2068,8012401041127,新規,0,2023-10-19,2023-10-19,株式会社ＺＥＡＬ,,株式会社,東京都,府中市,白糸台６丁目４６番地の３４,,13,206,1830011,,,,,,,2023-10-19,1,,,,,ジール,0
2069,8012401041135,新規,0,2023-10-19,2023-10-19,株式会社ＡＶＡＮ,,株式会社,東京都,調布市,多摩川１丁目３８－１ブレスマーク調布多摩川５０９,,13,208,1820025,,,,,,,2023-10-19,1,,,,,アーヴァン,0
2071,8012701017891,新規,0,2023-10-19,2023-10-19,リペダル株式会社,,株式会社,東京都,小平市,花小金井２丁目１２番１９号,,13,211,1870002,,,,,,,2023-10-19,1,,,,,リペダル,0
2076,8013301051505,新規,0,2023-10-19,2023-10-19,株式会社マイティ,,株式会社,東京都,豊島区,池袋２丁目２３番４号国土池袋ビル３０Ａ号室,,13,116,1710014,,,,,,,2023-10-19,1,,,,,マイティ,0
2077,8013301051513,新規,0,2023-10-19,2023-10-19,東京Ｚｈｏｕ＆Ｍａｓｔｅｒｓ株式会社,,株式会社,東京都,豊島区,南池袋４丁目２０番９号１階１０３号室,,13,116,1710022,,,,,,,2023-10-19,1,,,,,トウキョウシュウアンドマスターズ,0
2080,8020001153985,新規,0,2023-10-19,2023-10-19,株式会社エアノ,,株式会社,神奈川県,横浜市都筑区,佐江戸町２２６５番地,,14,118,2240054,,,,,,,2023-10-19,1,,,,,エアノ,0
2081,8020001153993,新規,0,2023-10-19,2023-10-19,ダイアテックジャパン株式会社,,株式会社,神奈川県,川崎市幸区,堀川町５８０番地ソリッドスクエア西館１６階,,14,132,2120013,,,,,,,2023-10-19,1,,,,,ダイアテックジャパン,0
2082,8020003024788,新規,0,2023-10-19,2023-10-19,ブロッサムヒルズ合同会社,,合同会社,神奈川県,横浜市瀬谷区,二ツ橋町１７番地７,,14,114,2460021,,,,,,,2023-10-19,1,,,,,ブロッサムヒルズ,0
2083,8020003024796,新規,0,2023-10-19,2023-10-19,合同会社ワイズアドバンス,,合同会社,神奈川県,横浜市港南区,日野３丁目８番２－５１８号,,14,111,2340051,,,,,,,2023-10-19,1,,,,,ワイズアドバンス,0
2086,8021001080492,新規,0,2023-10-19,2023-10-19,株式会社ビッグスリー,,株式会社,神奈川県,逗子市,逗子５丁目７－２３,,14,208,2490006,,,,,,,2023-10-19,1,,,,,ビッグスリー,0
2087,8021001080542,新規,0,2023-10-19,2023-10-19,株式会社Ｈｏｕｓｅ　Ｐｌｕｓ,,株式会社,神奈川県,藤沢市,辻堂２丁目８番２号,,14,205,2510047,,,,,,,2023-10-19,1,,,,,ハウスプラス,0
2093,8030001156780,新規,0,2023-10-19,2023-10-19,株式会社ＭＥＬＢＬＥＵＥ,,株式会社,埼玉県,さいたま市見沼区,堀崎町５７９－１,,11,104,3370052,,,,,,,2023-10-19,1,,,,,メールブルー,0
2096,8030003022799,新規,0,2023-10-19,2023-10-19,合同会社ＵＥマーケティング,,合同会社,埼玉県,吉川市,中央１丁目１５番地３１,,11,243,3420061,,,,,,,2023-10-19,1,,,,,ユーイーマーケティング,0
2098,8030005021428,新規,0,2023-10-19,2023-10-19,医療法人社団天照会,,その他の設立登記法人,埼玉県,新座市,栗原５丁目６番１２号第一光進マンション２０１号室,,11,230,3520035,,,,,,,2023-10-19,1,,,,,テンショウカイ,0
2101,8040001130603,新規,0,2023-10-19,2023-10-19,デジタルパズル株式会社,,株式会社,千葉県,千葉市美浜区,若葉３丁目１番１８号,,12,106,2610014,,,,,,,2023-10-19,1,,,,,デジタルパズル,0
2111,8040005022160,新規,0,2023-10-19,2023-10-19,一般社団法人４ＳＯＵ,,その他の設立登記法人,千葉県,船橋市,薬円台４丁目１番２８号,,12,204,2740077,,,,,,,2023-10-19,1,,,,,シーソー,0
2114,8060001036451,新規,0,2023-10-19,2023-10-19,株式会社わ,,株式会社,栃木県,栃木市,大平町西水代１５５２番地,,09,203,3294423,,,,,,,2023-10-19,1,,,,,ワ,0
2119,8080003003076,新規,0,2023-10-19,2023-10-19,合同会社ＮＹＨ,,合同会社,静岡県,静岡市葵区,岳美１丁目１３番４号,,22,101,4200934,,,,,,,2023-10-19,1,,,,,エヌワイエイチ,0
2125,8110001037931,新規,0,2023-10-19,2023-10-19,株式会社風土工舎,,株式会社,新潟県,新潟市西区,赤塚１５６６番地,,15,107,9502261,,,,,,,2023-10-19,1,,,,,フウドコウシャ,0
2127,8110003005184,新規,0,2023-10-19,2023-10-19,合同会社笹路,,合同会社,新潟県,上越市,大字上真砂６５番地の１,,15,222,9430101,,,,,,,2023-10-19,1,,,,,ササジ,0
2137,8120001258790,新規,0,2023-10-19,2023-10-19,Ｐｒｏｊｅｃｔ株式会社,,株式会社,大阪府,大阪市北区,天満２丁目１－１２天満橋ＳＥビル４階,,27,127,5300043,,,,,,,2023-10-19,1,,,,,プロジェクト,0
2138,8120001258907,新規,0,2023-10-19,2023-10-19,マツウラキカイ株式会社,,株式会社,大阪府,大阪市淀川区,西中島１丁目１１番２３－７０２号,,27,123,5320011,,,,,,,2023-10-19,1,,,,,マツウラキカイ,0
2143,8120003025116,新規,0,2023-10-19,2023-10-19,合同会社クドリャフカ,,合同会社,大阪府,大阪市住之江区,粉浜３丁目１４番１１－１４０１号,,27,125,5590001,,,,,,,2023-10-19,1,,,,,クドリャフカ,0
2144,8120005023943,新規,0,2023-10-19,2023-10-19,一般社団法人個人事業主支援協会,,その他の設立登記法人,大阪府,大阪市北区,曾根崎新地１丁目４番２４号タカダヤビルＩＩ４Ｆ,00132319,27,127,5300002,,,,,,,2023-10-19,1,,,,,コジンジギョウヌシシエンキョウカイ,0
2145,8120005023951,新規,0,2023-10-19,2023-10-19,一般社団法人事業承継コンサルティングファーム,,その他の設立登記法人,大阪府,大阪市福島区,福島４丁目６－３１機動ビル４Ａ号,,27,103,5530003,,,,,,,2023-10-19,1,,,,,ジギョウショウケイコンサルティングファーム,0
2147,8120103005496,新規,0,2023-10-19,2023-10-19,ＫＣＢトラスト合同会社,,合同会社,大阪府,堺市堺区,戎島町４丁４５番地１近畿中央ビジネス株式会社内,,27,141,5900985,,,,,,,2023-10-19,1,,,,,ケーシービートラスト,0
2156,8130001075459,新規,0,2023-10-19,2023-10-19,株式会社ＹＮＧ,,株式会社,京都府,京田辺市,興戸久保５２－３,,26,211,6100332,,,,,,,2023-10-19,1,,,,,ワイエヌジー,0
2162,8140001132060,新規,0,2023-10-19,2023-10-19,株式会社ＳｅｅｄＷｅｌｌ,,株式会社,兵庫県,宝塚市,宝松苑１２番１２号,,28,214,6650016,,,,,,,2023-10-19,1,,,,,シードウェル,0
2164,8140005026770,新規,0,2023-10-19,2023-10-19,一般社団法人栄佐,,その他の設立登記法人,兵庫県,神戸市兵庫区,新開地１丁目２番１８－１００８号,,28,105,6520811,,,,,,,2023-10-19,1,,,,,エイサ,0
2165,8150001026807,新規,0,2023-10-19,2023-10-19,Ｒａｐｐｏｒｔ株式会社,,株式会社,奈良県,奈良市,三条栄町８番５－８０８号,,29,201,6308126,,,,,,,2023-10-19,1,,,,,ラポール,0
2168,8170001017837,新規,0,2023-10-19,2023-10-19,株式会社クリアー,,株式会社,和歌山県,日高郡みなべ町,北道１５０番地２,,30,391,6450006,,,,,,,2023-10-19,1,,,,,クリアー,0
2178,8180001158390,新規,0,2023-10-19,2023-10-19,株式会社Ａｋａｄｅｍｅｉａ,,株式会社,愛知県,名古屋市緑区,神沢３丁目３１２番地,,23,114,4580014,,,,,,,2023-10-19,1,,,,,アカデメイア,0
2183,8180003025861,新規,0,2023-10-19,2023-10-19,合同会社ＤｉＡＫＳ,,合同会社,愛知県,名古屋市中村区,名駅４丁目２４番５号第２森ビル４０１,,23,105,4500002,,,,,,,2023-10-19,1,,,,,ディアクス,0
2189,8190005011875,新規,0,2023-10-19,2023-10-19,特定非営利活動法人菅島ミライバル,,その他の設立登記法人,三重県,鳥羽市,菅島町４７番地,,24,211,5170004,,,,,,,2023-10-19,1,,,,,スガシマミライバル,0
2192,8200001041841,新規,0,2023-10-19,2023-10-19,ぷろうのん株式会社,,株式会社,岐阜県,恵那市,大井町１１３９番地７,,21,210,5097201,,,,,,,2023-10-19,1,,,,,プロウノン,0
2193,8200003006108,新規,0,2023-10-19,2023-10-19,合同会社セーフティ,,合同会社,岐阜県,恵那市,串原３１０８番地,,21,210,5097831,,,,,,,2023-10-19,1,,,,,セーフティ,0
2205,8220003003607,新規,0,2023-10-19,2023-10-19,合同会社アチャ,,合同会社,石川県,金沢市,彦三町１丁目２番１号,,17,201,9200901,,,,,,,2023-10-19,1,,,,,アチャ,0
2207,8230001020066,新規,0,2023-10-19,2023-10-19,大和総業株式会社,,株式会社,富山県,高岡市,末広町３８番地大重亭ビル３Ｆ,,16,202,9330023,,,,,,,2023-10-19,1,,,,,ダイワソウギョウ,0
2208,8230003002095,新規,0,2023-10-19,2023-10-19,合同会社陽なた,,合同会社,富山県,富山市,城村３７１番地,,16,201,9398114,,,,,,,2023-10-19,1,,,,,ヒナタ,0
2218,8250003003364,新規,0,2023-10-19,2023-10-19,クオーレ合同会社,,合同会社,山口県,下関市,大字田倉８５６番地１,,35,201,7510883,,,,,,,2023-10-19,1,,,,,クオーレ,0
2223,8290001103377,新規,0,2023-10-19,2023-10-19,株式会社ＢｌｕｅＲｏｓｅ,,株式会社,福岡県,福岡市博多区,博多駅東１丁目１２番１７号オフィスニューガイヤ博多駅前３Ｆ,,40,132,8120013,,,,,,,2023-10-19,1,,,,,ブルーローズ,0
2224,8290001103427,新規,0,2023-10-19,2023-10-19,株式会社ビーエイトシー,,株式会社,福岡県,福岡市博多区,博多駅前２丁目１７番２５号博多クリエイトビル５階,,40,132,8120011,,,,,,,2023-10-19,1,,,,,ビーエイトシー,0
2226,8290005019173,新規,0,2023-10-19,2023-10-19,一般社団法人福岡国際市民協会,,その他の設立登記法人,福岡県,福岡市博多区,吉塚１丁目３０番１４－１号,,40,132,8120041,,,,,,,2023-10-19,1,,,,,フクオカコクサイシミンキョウカイ,0
2228,8290803004525,新規,0,2023-10-19,2023-10-19,セブンライン合同会社,,合同会社,福岡県,北九州市八幡西区,光貞台１丁目３番３号,,40,109,8070805,,,,,,,2023-10-19,1,,,,,セブンライン,0
2229,8310001018671,新規,0,2023-10-19,2023-10-19,株式会社興栄工業,,株式会社,長崎県,大村市,久原１丁目３８７番地１,,42,205,8560835,,,,,,,2023-10-19,1,,,,,コウエイコウギョウ,0
2235,8330001031359,新規,0,2023-10-19,2023-10-19,株式会社ＳＨＩＮＫＯ,,株式会社,熊本県,宇土市,馬之瀬町７３２－１,,43,211,8690405,,,,,,,2023-10-19,1,,,,,シンコー,0
2236,8330001031367,新規,0,2023-10-19,2023-10-19,株式会社Ｂｅ‐ステーション,,株式会社,熊本県,八代市,建馬町３番１号,,43,202,8660045,,,,,,,2023-10-19,1,,,,,ビーステーション,0
2237,8330003010022,新規,0,2023-10-19,2023-10-19,合同会社田中建設,,合同会社,熊本県,八代市,日奈久塩北町３１１５番地,,43,202,8695142,,,,,,,2023-10-19,1,,,,,カナカケンセツ,0
2238,8330005010706,新規,0,2023-10-19,2023-10-19,甲佐町水道協同組合,,その他の設立登記法人,熊本県,上益城郡甲佐町,大字下横田８３１番地,,43,444,8614621,,,,,,,2023-10-19,1,,,,,コウサマチスイドウ,0
2239,8340001025995,新規,0,2023-10-19,2023-10-19,株式会社農業生産法人奄美の種,,株式会社,鹿児島県,奄美市,名瀬入舟町１８番２１号,,46,222,8940034,,,,,,,2023-10-19,1,,,,,ノウギョウセイサンホウジンアマミノタネ,0
2240,8340001026003,新規,0,2023-10-19,2023-10-19,福田工業株式会社,,株式会社,鹿児島県,薩摩川内市,国分寺町４０５１番地７,,46,215,8950073,,,,,,,2023-10-19,1,,,,,フクダコウギョウ,0
2244,8350003004468,新規,0,2023-10-19,2023-10-19,合同会社プラムベイ,,合同会社,宮崎県,宮崎市,新別府町前浜１４０１番１４２号,,45,201,8800834,,,,,,,2023-10-19,1,,,,,プラムベイ,0
2253,8400001016435,新規,0,2023-10-19,2023-10-19,株式会社ＭＹ　ＲＥＮＯＶＡＴＩＯＮ,,株式会社,岩手県,西磐井郡平泉町,平泉字坂下１６番地２,,03,402,0294102,,,,,,,2023-10-19,1,,,,,マイリノベーション,0
2258,8430001090238,新規,0,2023-10-19,2023-10-19,株式会社山口建設,,株式会社,北海道,札幌市東区,東苗穂九条１丁目１０番１６号,,01,103,0070809,,,,,,,2023-10-19,1,,,,,ヤマグチケンセツ,0
2265,8700150118258,新規,0,2023-10-19,2023-10-19,Ｔａｎｊｉｔａｎｈａｏ（ｓｈｅｎｚｈｅｎ）ｄｉａｎｚｉｙｏｕｘｉａｎｇｏｎｇｓｉ,,外国会社等,,,,,,,,Ｈｅｎｇｇａｎｇｊｉｅｄａｏ，Ｌｉｕｙｕｅｓｈｅｑｕ，Ｔａｎｇｋｅｎｇｌｕ９ｈａｏ，ｂａｄａｇｏｎｇｙｅｙｕａｎ，１ｄｏｎｇｃｈａｎｇｆａｎｇ５０３Ｂ，ｓｈｅｎｚｈｅｎｓｈｉｌｏｎｇｇａｎｇｑｕ，ｇｕａｎｇｄｏｎｇｓｈｅｎｇ,,,,,,2023-10-19,1,,,,,タンジータンハオシンセンデンズヨウシエンゴンス,0
2266,8700150121278,新規,0,2023-10-19,2023-10-19,ＧｕＹｕａｎＳｈｉＦｅｎｇＨｅＳｈａｎｇＭａｏ　ＹｏｕＸｉａｎＺｅＲｅｎＧｏｎｇＳｉ,,外国会社等,,,,,,,,ＮｉｎｇＸｉａＨｕｉＺｕＺｉＺｈｉＱｕＧｕＹｕａｎＳｈｉＹｕａｎＺｈｏｕＱｕＷｅｎＨｕａＬｕＸｉｎＨｕａＢａｉＨｕｏ７ＬｏｕＡ１７ＨａｏＳｈａｎｇＰｕ,,,,,,2023-10-19,1,,,,,コゲンシフェンヘシャンマオユウゲンセキニンコウシ,0
2267,8700150121286,新規,0,2023-10-19,2023-10-19,ｇｕａｎｇｚｈｏｕｗｅｉｎａｎｓｈａｎｇｍａｏｙｏｕｘｉａｎｇｏｎｇｓｉ,,外国会社等,,,,,,,,Ｒｏｏｍ　３０１，Ｎｏ．１０－３，Ｂｏｌｕｏｓｈａｎ　Ｎｅｗ　Ｓｔｒｅｅｔ，Ｙｕｓｈａｔａｎｗａｎｇｇａｎｇ，Ｔｉａｎｈｅ，Ｇｕａｎｇｚｈｏｕ，Ｇｕａｎｇｄｏｎｇ,,,,,,2023-10-19,1,,,,,コウシュウイナンショウボウユウゲンコウシ,0
2268,8700150121294,新規,0,2023-10-19,2023-10-19,Ｄｏｎｇｇｕａｎｓｈｉ　ＣｈｅｎｘｕｎＤｉａｎｚｉ　ＹｏｕｘｉａｎＧｏｎｇｓｉ,,外国会社等,,,,,,,,Ｎａｎｃｈｅｎｇｊｉｅｄａｏ　Ｙｉｚｈａｎｌｕ１０ｈａｏ１ｄｏｎｇ３０２ｓｈｉ　Ｄｏｎｇｇｕａｎ　Ｇｕａｎｇｄｏｎｇ，Ｃｈｉｎａ,,,,,,2023-10-19,1,,,,,トウカンシチェンスンデンシユウゲンコウシ,0
2277,9010001239339,新規,0,2023-10-19,2023-10-19,株式会社ウィスフォート,,株式会社,東京都,中央区,日本橋箱崎町１７番８号,,13,102,1030015,,,,,,,2023-10-19,1,,,,,ウィスフォート,0
2278,9010001239371,新規,0,2023-10-19,2023-10-19,ＳＡＮＤＥＩ株式会社,,株式会社,東京都,文京区,大塚６丁目３０番７号,,13,105,1120012,,,,,,,2023-10-19,1,,,,,サンデイ,0
2279,9010001239396,新規,0,2023-10-19,2023-10-19,ＳＯＭＥＲ株式会社,,株式会社,東京都,文京区,水道２丁目４番１９号,,13,105,1120005,,,,,,,2023-10-19,1,,,,,ソメル,0
2280,9010001239413,新規,0,2023-10-19,2023-10-19,株式会社ａ．ｏ,,株式会社,東京都,中央区,銀座４丁目１２－２０銀座アポロ昭和館３階,,13,102,1040061,,,,,,,2023-10-19,1,,,,,アオ,0
2281,9010001239438,新規,0,2023-10-19,2023-10-19,株式会社アイシンク,,株式会社,東京都,文京区,関口１丁目５番１０号ＡｎｄＷｏｒｋｅｒ神楽坂,,13,105,1120014,,,,,,,2023-10-19,1,,,,,アイシンク,0
2284,9010003041882,新規,0,2023-10-19,2023-10-19,ボルト３合同会社,,合同会社,東京都,中央区,銀座１丁目６番１１号アースタックス税理士法人内,,13,102,1040061,,,,,,,2023-10-19,1,,,,,ボルトスリー,0
2292,9010401177832,新規,0,2023-10-19,2023-10-19,株式会社サンクチュアリ,,株式会社,東京都,港区,北青山１丁目３番１号アールキューブ青山３階,,13,103,1070061,,,,,,,2023-10-19,1,,,,,サンクチュアリ,0
2295,9010403031203,新規,0,2023-10-19,2023-10-19,合同会社ｍｉｔｓｕｎａｇｕ,,合同会社,東京都,港区,南麻布１丁目５－３１－９０１,,13,103,1060047,,,,,,,2023-10-19,1,,,,,ミツナグ,0
2301,9010501051227,新規,0,2023-10-19,2023-10-19,株式会社秋鈴,,株式会社,東京都,台東区,下谷３丁目１７番１号トーカン上野北キャステール１階１０２,,13,106,1100004,,,,,,,2023-10-19,1,,,,,シュウレイ,0
2308,9010701045012,新規,0,2023-10-19,2023-10-19,富翔東株式会社,,株式会社,東京都,品川区,西五反田３丁目１０番１８－１８０３号,,13,109,1410031,,,,,,,2023-10-19,1,,,,,フショウトウ,0
2312,9010801034443,新規,0,2023-10-19,2023-10-19,株式会社玉興,,株式会社,東京都,大田区,西蒲田７丁目６４番３号３Ｆ,,13,111,1440051,,,,,,,2023-10-19,1,,,,,ギョクコウ,0
2314,9010901054044,新規,0,2023-10-19,2023-10-19,株式会社ＰＲＩＭＥ‐Ｐｌａｎ構造計画,,株式会社,東京都,世田谷区,千歳台５丁目１３番５号,,13,112,1570071,,,,,,,2023-10-19,1,,,,,プライムプランコウゾウケイカク,0
2315,9010903008527,新規,0,2023-10-19,2023-10-19,ファンタジーリゾート合同会社,,合同会社,東京都,世田谷区,砧５丁目１７番２１号アレンデール２０１,,13,112,1570073,,,,,,,2023-10-19,1,,,,,ファンタジーリゾート,0
2325,9011001157563,新規,0,2023-10-19,2023-10-19,株式会社Ｐｅｒｋｙ,,株式会社,東京都,渋谷区,東３丁目２３番５号石川ビル５階,,13,113,1500011,,,,,,,2023-10-19,1,,,,,パーキー,0
2326,9011001157654,新規,0,2023-10-19,2023-10-19,株式会社ＳＰ　ＳＨＩＥＬＤ,,株式会社,東京都,渋谷区,神宮前３丁目３８番１４号,,13,113,1500001,,,,,,,2023-10-19,1,,,,,エスピーシールド,0
2329,9011101104779,新規,0,2023-10-19,2023-10-19,株式会社天狗ジャパン,,株式会社,東京都,新宿区,神楽坂３丁目６番３号２Ｆ,,13,104,1620825,,,,,,,2023-10-19,1,,,,,テングジャパン,0
2330,9011101104804,新規,0,2023-10-19,2023-10-19,株式会社Ｃ’ｅｓｔ　ｌａ　ｖｉｅ,,株式会社,東京都,新宿区,西新宿３丁目３番１３号西新宿水間ビル６階,,13,104,1600023,,,,,,,2023-10-19,1,,,,,セラヴィ,0
2331,9011101104829,新規,0,2023-10-19,2023-10-19,Ｆａｎｒｉｎ株式会社,,株式会社,東京都,新宿区,高田馬場３丁目１番５号サンパティオ高田馬場２０３号室,,13,104,1690075,,,,,,,2023-10-19,1,,,,,ファンリン,0
2334,9011103013615,新規,0,2023-10-19,2023-10-19,合同会社ＯＥＩＳＩＳ,,合同会社,東京都,新宿区,西新宿３丁目３番１３号西新宿水間ビル６階,,13,104,1600023,,,,,,,2023-10-19,1,,,,,オエイシス,0
2340,9011301029074,新規,0,2023-10-19,2023-10-19,株式会社Ｓｅｌｆ‐Ｄｉｓｃｏｖｅｒｙ,,株式会社,東京都,杉並区,天沼２丁目５番１号サンライズ荻窪１０３,,13,115,1670032,,,,,,,2023-10-19,1,,,,,セルフディスカバリー,0
2344,9011401025535,新規,0,2023-10-19,2023-10-19,株式会社Ｘ＆Ｄ,,株式会社,東京都,板橋区,赤塚５丁目７番４号ハイムつちや,,13,119,1750092,,,,,,,2023-10-19,1,,,,,エックスアンドディー,0
2348,9011501029832,新規,0,2023-10-19,2023-10-19,株式会社佐藤工業,,株式会社,東京都,北区,岩淵町２番２号河奈サニーハウス２０１,,13,117,1150041,,,,,,,2023-10-19,1,,,,,サトウコウギョウ,0
2349,9011503005815,新規,0,2023-10-19,2023-10-19,合同会社ＭＫコンサルティング,,合同会社,東京都,北区,田端１丁目２５番１０号,,13,117,1140014,,,,,,,2023-10-19,1,,,,,エムケーコンサルティング,0
2350,9011601027190,新規,0,2023-10-19,2023-10-19,株式会社ＲＩＭＡ,,株式会社,東京都,練馬区,平和台２丁目１７番１号カーサエフ１０８,,13,120,1790083,,,,,,,2023-10-19,1,,,,,リマ,0
2351,9011601027199,新規,0,2023-10-19,2023-10-19,株式会社共創機構,,株式会社,東京都,練馬区,高野台１丁目１２番７号アールヴェール練馬高野台２０９,,13,120,1770033,,,,,,,2023-10-19,1,,,,,キョウソウキコウ,0
2352,9011603004097,新規,0,2023-10-19,2023-10-19,合同会社Ｐｒｏｄｅｅｒ,,合同会社,東京都,練馬区,羽沢３丁目２番１３号,,13,120,1760003,,,,,,,2023-10-19,1,,,,,プロディア,0
2359,9012801022709,新規,0,2023-10-19,2023-10-19,株式会社望月設備,,株式会社,東京都,立川市,一番町４丁目３０－１－７０３,,13,202,1900033,,,,,,,2023-10-19,1,,,,,モチヅキセツビ,0
2363,9013301051487,新規,0,2023-10-19,2023-10-19,株式会社Ｃｈａｎｇｊｉａｎｇ　Ｉｎｖｅｓｔｍｅｎｔ,,株式会社,東京都,豊島区,南池袋３丁目２４番１７号ベルマーレ都竹３Ｆ,,13,116,1710022,,,,,,,2023-10-19,1,,,,,チャンジャンインヴェストメント,0
2369,9020001153968,新規,0,2023-10-19,2023-10-19,株式会社Ｂｅ　ｉｔ　ａｉｒ,,株式会社,神奈川県,横浜市鶴見区,東寺尾２丁目１８番６号,,14,101,2300077,,,,,,,2023-10-19,1,,,,,ビーイットエア,0
2370,9020001153976,新規,0,2023-10-19,2023-10-19,川崎未来エナジー株式会社,,株式会社,神奈川県,川崎市幸区,下平間３４７番地１,,14,132,2120053,,,,,,,2023-10-19,1,,,,,カワサキミライエナジー,0
2374,9021003013697,新規,0,2023-10-19,2023-10-19,ＡＵＴＯ商会合同会社,,合同会社,神奈川県,綾瀬市,寺尾台３丁目８番２号早川第２コーポ２０２,,14,218,2521137,,,,,,,2023-10-19,1,,,,,オートショウカイ,0
2380,9030001156730,新規,0,2023-10-19,2023-10-19,株式会社東容,,株式会社,埼玉県,蕨市,中央１丁目１７番５２号ベルハイツ第２蕨５１９号,,11,223,3350004,,,,,,,2023-10-19,1,,,,,トウヨウ,0
2387,9030003022798,新規,0,2023-10-19,2023-10-19,ＴＮ合同会社,,合同会社,埼玉県,所沢市,松葉町１－５新所沢ビルＢ１Ｆ,,11,208,3590044,,,,,,,2023-10-19,1,,,,,ティーエヌ,0
2389,9030005021427,新規,0,2023-10-19,2023-10-19,一般社団法人福縁会,,その他の設立登記法人,埼玉県,所沢市,大字松郷８１番地の５７,,11,208,3590027,,,,,,,2023-10-19,1,,,,,フクエンカイ,0
2399,9040003023548,新規,0,2023-10-19,2023-10-19,合同会社サブリーマン,,合同会社,千葉県,浦安市,弁天２丁目１番１号ライオンズガーデン新浦安３０１,,12,227,2790026,,,,,,,2023-10-19,1,,,,,サブリーマン,0
2400,9040003023580,新規,0,2023-10-19,2023-10-19,合同会社ＫＹＯＵＮ,,合同会社,千葉県,千葉市中央区,栄町３９番地３,,12,101,2600016,,,,,,,2023-10-19,1,,,,,キョウウン,0
2404,9060001036459,新規,0,2023-10-19,2023-10-19,株式会社ハッピーフィールド,,株式会社,栃木県,さくら市,富野岡８５５番地１,,09,214,3291327,,,,,,,2023-10-19,1,,,,,ハッピーフィールド,0
2405,9060005010146,新規,0,2023-10-19,2023-10-19,医療法人つとむ会,,その他の設立登記法人,栃木県,鹿沼市,貝島町５０１番地５,,09,205,3220027,,,,,,,2023-10-19,1,,,,,ツトムカイ,0
2406,9070003005114,新規,0,2023-10-19,2023-10-19,森山商店合同会社,,合同会社,群馬県,高崎市,上大類町１０２９－２,,10,202,3700031,,,,,,,2023-10-19,1,,,,,モリヤマショウテン,0
2407,9080001025922,新規,0,2023-10-19,2023-10-19,コガワ電気株式会社,,株式会社,静岡県,焼津市,西小川２丁目１０番地の２５,,22,212,4250036,,,,,,,2023-10-19,1,,,,,コガワデンキ,0
2408,9080005007578,新規,0,2023-10-19,2023-10-19,一般社団法人さくらら,,その他の設立登記法人,静岡県,静岡市駿河区,大谷１３９７番地の１,,22,102,4228017,,,,,,,2023-10-19,1,,,,,サクララ,0
2410,9080401026801,新規,0,2023-10-19,2023-10-19,株式会社八方吉,,株式会社,静岡県,浜松市東区,植松町９０－３－２,,22,132,4300803,,,,,,,2023-10-19,1,,,,,ハッポウヨシ,0
2431,9120001258765,新規,0,2023-10-19,2023-10-19,国酒株式会社,,株式会社,大阪府,大阪市港区,築港４丁目１０番３０号太寅ビル３０２号室,,27,107,5520021,,,,,,,2023-10-19,1,,,,,コクシュ,0
2432,9120001258872,新規,0,2023-10-19,2023-10-19,ＨＭ企画株式会社,,株式会社,大阪府,大阪市都島区,友渕町１丁目５番８０－１５２０号,,27,102,5340016,,,,,,,2023-10-19,1,,,,,エイチエムキカク,0
2433,9120001258906,新規,0,2023-10-19,2023-10-19,一葉舟株式会社,,株式会社,大阪府,大阪市中央区,平野町１丁目６番８号メロディハイム平野町５１０号室,,27,128,5410046,,,,,,,2023-10-19,1,,,,,ヒトハブネ,0
2434,9120001258922,新規,0,2023-10-19,2023-10-19,株式会社アドウィルコンサルティング,,株式会社,大阪府,大阪市中央区,南船場４丁目１０番地５南船場ＳＯＨＯビル７０２,,27,128,5420081,,,,,,,2023-10-19,1,,,,,アドウィルコンサルティング,0
2439,9120003025115,新規,0,2023-10-19,2023-10-19,合同会社ルートＳ,,合同会社,大阪府,大阪市城東区,中浜２丁目１８番１５号,,27,118,5360024,,,,,,,2023-10-19,1,,,,,ルートエス,0
2440,9120003025123,新規,0,2023-10-19,2023-10-19,鵬貿易合同会社,,合同会社,大阪府,大阪市北区,松ケ枝町７番４号あけのべビル８０３号室,,27,127,5300037,,,,,,,2023-10-19,1,,,,,オオトリ,0
2442,9120005023950,新規,0,2023-10-19,2023-10-19,一般社団法人ライフサポートの窓口,,その他の設立登記法人,大阪府,大阪市北区,東天満２丁目６番７号,,27,127,5300044,,,,,,,2023-10-19,1,,,,,ライフサポートノマドグチ,0
2443,9120101068404,新規,0,2023-10-19,2023-10-19,株式会社清水の森,,株式会社,大阪府,堺市中区,深井清水町２２３０番地、２２３１番地,,27,142,5998273,,,,,,,2023-10-19,1,,,,,シミズノモリ,0
2444,9120101068412,新規,0,2023-10-19,2023-10-19,株式会社エルドット,,株式会社,大阪府,堺市堺区,北三国ヶ丘町８丁７番７号,,27,141,5900021,,,,,,,2023-10-19,1,,,,,エルドット,0
2448,9120901048225,新規,0,2023-10-19,2023-10-19,株式会社パネ・ヴォラーレ,,株式会社,大阪府,豊中市,待兼山町１番２１号,,27,203,5600043,,,,,,,2023-10-19,1,,,,,パネヴォラーレ,0
2452,9130001075466,新規,0,2023-10-19,2023-10-19,株式会社岡島運送,,株式会社,京都府,木津川市,山城町平尾西黒部２番地２,,26,214,6190202,,,,,,,2023-10-19,1,,,,,オカジマウンソウ,0
2453,9130003009059,新規,0,2023-10-19,2023-10-19,合同会社ＷＡＪＩＭＡ,,合同会社,京都府,京都市伏見区,醍醐僧尊坊町１番地１７４,,26,109,6011357,,,,,,,2023-10-19,1,,,,,ワジマ,0
2454,9130005016912,新規,0,2023-10-19,2023-10-19,一般社団法人厄除チマキ保存会,,その他の設立登記法人,京都府,京都市西京区,嵐山風呂ノ橋町２番地の３４,,26,111,6160013,,,,,,,2023-10-19,1,,,,,ヤクヨケチマキホゾンカイ,0
2457,9140001132010,新規,0,2023-10-19,2023-10-19,株式会社かわらぎ企画事務所,,株式会社,兵庫県,西宮市,日野町１６番１５号,,28,204,6638022,,,,,,,2023-10-19,1,,,,,カワラギキカクジムショ,0
2458,9140001132027,新規,0,2023-10-19,2023-10-19,株式会社カワサキ,,株式会社,兵庫県,川西市,加茂１丁目１１番２１－３０２号,,28,217,6660025,,,,,,,2023-10-19,1,,,,,カワサキ,0
2461,9140003019684,新規,0,2023-10-19,2023-10-19,ＣＡＴＣＨＡＲ合同会社,,合同会社,兵庫県,神戸市灘区,国玉通４丁目４－９－２,,28,102,6570816,,,,,,,2023-10-19,1,,,,,キャッチャー,0
2462,9150001026806,新規,0,2023-10-19,2023-10-19,株式会社ＫＯＴＯＲＩＮＯ,,株式会社,奈良県,大和高田市,大字築山４４０番地１０,,29,202,6350071,,,,,,,2023-10-19,1,,,,,コトリノ,0
2470,9180001158522,新規,0,2023-10-19,2023-10-19,株式会社ｔｉｅｗｒａｐ,,株式会社,愛知県,名古屋市昭和区,長戸町２丁目１２番地１０３号,,23,107,4660848,,,,,,,2023-10-19,1,,,,,タイラップ,0
2471,9180001158530,新規,0,2023-10-19,2023-10-19,株式会社ＫＳＫ,,株式会社,愛知県,一宮市,北小渕字田島１１番地６,,23,203,4910013,,,,,,,2023-10-19,1,,,,,ケーエスケー,0
2472,9180001158539,新規,0,2023-10-19,2023-10-19,株式会社Ｍ’ｓ　ｃｏｍｐａｎｙ,,株式会社,愛知県,愛知郡東郷町,北山台２丁目４番地３２,,23,302,4700152,,,,,,,2023-10-19,1,,,,,エムズカンパニー,0
2480,9180003025836,新規,0,2023-10-19,2023-10-19,合同会社３Ａ,,合同会社,愛知県,名古屋市名東区,平和が丘１丁目１１０－２サンパークマンションＡ３０８,,23,115,4650097,,,,,,,2023-10-19,1,,,,,スリーエー,0
2481,9180003025869,新規,0,2023-10-19,2023-10-19,合同会社Ｔ＆Ｐ,,合同会社,愛知県,名古屋市緑区,大高町字二番割７８番地の５,,23,114,4598001,,,,,,,2023-10-19,1,,,,,ティーアンドピー,0
2491,9220001025643,新規,0,2023-10-19,2023-10-19,株式会社ＴＡＫＵＭＩｃｏｒｐｏｒａｔｉｏｎ,,株式会社,石川県,金沢市,米泉町１０丁目１番地７８,,17,201,9218044,,,,,,,2023-10-19,1,,,,,タクミコーポレーション,0
2493,9220003003606,新規,0,2023-10-19,2023-10-19,ＰＹＹ合同会社,,合同会社,石川県,野々市市,徳用２丁目３９１番地メゾンパルテールＢ２０５号,,17,212,9218842,,,,,,,2023-10-19,1,,,,,ピーワイワイ,0
2495,9230005009344,新規,0,2023-10-19,2023-10-19,一般社団法人ＩＤＣ,,その他の設立登記法人,富山県,魚津市,仏田３６８６番地８,,16,204,9370061,,,,,,,2023-10-19,1,,,,,アイディーシー,0
2497,9240001062255,新規,0,2023-10-19,2023-10-19,株式会社やまと,,株式会社,広島県,三原市,沼田東町釜山７６０番地１５,,34,204,7230143,,,,,,,2023-10-19,1,,,,,,0
2498,9240001062296,新規,0,2023-10-19,2023-10-19,株式会社３Ｈ,,株式会社,広島県,広島市中区,広瀬北町４番９号,,34,101,7300803,,,,,,,2023-10-19,1,,,,,スリーエイチ,0
2499,9240001062305,新規,0,2023-10-19,2023-10-19,株式会社ＳＴＲＥＡＭ,,株式会社,広島県,広島市佐伯区,石内東２丁目３番６号,,34,108,7315162,,,,,,,2023-10-19,1,,,,,ストリーム,0
2500,9240003006375,新規,0,2023-10-19,2023-10-19,ＷＭＣクリエイト合同会社,,合同会社,広島県,福山市,霞町２丁目６番１号,,34,207,7200812,,,,,,,2023-10-19,1,,,,,ダブリューエムシークリエイト,0
2503,9260001038419,新規,0,2023-10-19,2023-10-19,株式会社小山和則,,株式会社,岡山県,岡山市北区,奉還町２丁目１４－１６－１００４,,33,101,7000026,,,,,,,2023-10-19,1,,,,,コヤマカズノリ,0
2509,9290001103426,新規,0,2023-10-19,2023-10-19,株式会社Ｐｌａｎ　Ｓｔｙｌｅ,,株式会社,福岡県,福岡市中央区,天神３丁目３番６号,,40,133,8100001,,,,,,,2023-10-19,1,,,,,プランスタイル,0
2512,9290003014514,新規,0,2023-10-19,2023-10-19,合同会社グローライズ,,合同会社,福岡県,久留米市,城南町１３番地６ＭＪＲ久留米城南９０７号,,40,203,8300022,,,,,,,2023-10-19,1,,,,,,0
2517,9290801029977,新規,0,2023-10-19,2023-10-19,株式会社門田,,株式会社,福岡県,北九州市小倉南区,北方３丁目４９番２４号,,40,107,8020841,,,,,,,2023-10-19,1,,,,,カドタ,0
2520,9300005007159,新規,0,2023-10-19,2023-10-19,一般社団法人岳乃百姓一揆,,その他の設立登記法人,佐賀県,西松浦郡有田町,丸尾２６７１,,41,401,8440023,,,,,,,2023-10-19,1,,,,,タケノヒャクショウイッキ,0
2521,9310001018670,新規,0,2023-10-19,2023-10-19,株式会社宮下農園,,株式会社,長崎県,諫早市,森山町本村西昭和開３５７３番地,,42,204,8540203,,,,,,,2023-10-19,1,,,,,ミヤシタノウエン,0
2528,9330003010021,新規,0,2023-10-19,2023-10-19,合同会社ＫＡＲＩＮ,,合同会社,熊本県,熊本市北区,八景水谷１丁目２３番３２号,,43,105,8618064,,,,,,,2023-10-19,1,,,,,カリン,0
2529,9340001025994,新規,0,2023-10-19,2023-10-19,向洋株式会社,,株式会社,鹿児島県,姶良市,西餅田２３１２番地９５,,46,225,8995431,,,,,,,2023-10-19,1,,,,,コウヨウ,0
2530,9340003004294,新規,0,2023-10-19,2023-10-19,ＰｕｒｅＢｅａｔｓ合同会社,,合同会社,鹿児島県,大島郡喜界町,大字坂嶺１９３８,,46,529,8916216,,,,,,,2023-10-19,1,,,,,ピュアビーツ,0
2531,9350003004467,新規,0,2023-10-19,2023-10-19,ＭｙＨｏｍｅ　Ｎｉｐｐｏｎ合同会社,,合同会社,宮崎県,宮崎市,宮崎駅東３丁目１２－６ポレスター青葉シティプラザ１５０４号室,,45,201,8800879,,,,,,,2023-10-19,1,,,,,マイホームニッポン,0
2533,9360003013384,新規,0,2023-10-19,2023-10-19,合同会社ハイコート,,合同会社,沖縄県,中頭郡西原町,字与那城１０２番地７、２Ｆ,,47,329,9030111,,,,,,,2023-10-19,1,,,,,ハイコート,0
2537,9430001090229,新規,0,2023-10-19,2023-10-19,株式会社親志,,株式会社,北海道,札幌市厚別区,厚別東四条８丁目１４番１３号,,01,108,0040004,,,,,,,2023-10-19,1,,,,,チカシ,0
2541,9460101007451,新規,0,2023-10-19,2023-10-19,まつひさ農場株式会社,,株式会社,北海道,河西郡芽室町,栄５線８番地３,,01,637,0820074,,,,,,,2023-10-19,1,,,,,マツヒサノウジョウ,0
2542,9462501000969,新規,0,2023-10-19,2023-10-19,株式会社だいいち食品,,株式会社,北海道,野付郡別海町,尾岱沼港町５４番地１,,01,691,0861643,,,,,,,2023-10-19,1,,,,,ダイイチショクヒン,0
2548,9700150118257,新規,0,2023-10-19,2023-10-19,Ｓｈｅｎｚｈｅｎ　Ｑｉａｎｆｅｎｙｉ　Ｉｎｔｅｌｌｉｇｅｎｔ　Ｔｅｃｈｎｏｌｏｇｙ　Ｃｏ．，ＬＴＤ,,外国会社等,,,,,,,,Ｒｏｏｍ　２１０１，Ｂｕｌｉｄｉｎｇ　３　Ｎａｎｓｈａｎ　ｉ　Ｐａｒｋ　Ｃｈｏｎｇｗｅｎ，３３７０　Ｌｉｕｘｉａｎ　Ａｖｅｎｕｅ　Ｓｈｅｎｚｈｅｎ　Ｇｕａｎｇｄｏｎｇ　５１８０７３　ＣＮ,,,,,,2023-10-19,1,,,,,シンセンチェンフェンイーインテリジェントテクノロジーカンパニーリミッテッド,0
2549,9700150120147,新規,0,2023-10-19,2023-10-19,ＳｉＣｈｕａｎ　ＤａｏＳｈｅｎｇＨｅ　ＭａｏＹｉ　ＹｏｕＸｉａｎ　ＧｏｎｇＳｉ,,外国会社等,,,,,,,,ｇａｏｘｉｎｑｕｓｈｉｑｉａｏｐｕｋｕａｊｉｎｇｄｉａｎｓｈａｎｇｃｈａｎｙｅｙｕａ　４ｄｏｎｇｂｚｕｏ５０１ｈａｏ２１１ｓｈｉ,,,,,,2023-10-19,1,,,,,シツゥアンダオセンヘマオイユウゲンコウシ,0
2550,9700150121277,新規,0,2023-10-19,2023-10-19,ｙｕｂｉｎｇ（ｘｉａｍｅｎ）ｄｉａｎｚｉｓｈａｎｇｗｕ　ｙｏｕｘｉａｎｇｏｎｇｓｉ,,外国会社等,,,,,,,,ｚｈｏｎｇｇｕｏ（ｆｕｊｉａｎ）ｚｉｙｏｕｍａｏｙｉｓｈｉｙａｎｑｕｘｉａｍｅｎｐｉａｎｑｕｘｉａｎｇｙｕｎｙｉｌｕ１００－１ｈａｏｙｕｎｔａｉｇｕｏｊｉＢｌｏｕ３０８ｓｈｉｚｈｉｙｉ,,,,,,2023-10-19,1,,,,,ユビンアモイデンシショウムユウゲンコウシ,0
2551,9700150121285,新規,0,2023-10-19,2023-10-19,ｓｈｅｎｚｈｅｎｓｈｉｙｕｅｙｕｅｋｅｊｉｙｏｕｘｉａｎｇｏｎｇｓｉ,,外国会社等,,,,,,,,ｌｏｎｇｇａｎｇｑｕｌｏｎｇｃｈｅｎｇｊｉｅｄａｏｑｉｎｇｈｕｉｌｕ８８ｈａｏｚｈｏｎｇｈａｉｋａｎｇｃｈｅｎｇｈｕａｙｕａｎ２３ｄｏｎｇ１ｄａｎｙｕａｎ４Ｅｆａｎｇｓｈｅｎｚｈｅｎ,,,,,,2023-10-19,1,,,,,シンセンシユエユエカギユウゲンコウシ,0
2552,9700150121293,新規,0,2023-10-19,2023-10-19,ｘｉａｍｅｎ　ａｉｄｉｙａ　ｚｉｄｏｎｇｈｕａ　ｋｅｊｉ　ｙｏｕｘｉａｎｇｏｎｇｓｉ,,外国会社等,,,,,,,,ｆｕｊｉａｎｓｈｅｎｇ　ｘｉａｍｅｎｓｈｉ　ｊｉｍｅｉｑｕ　ｘｉｎｇｌｉｎｎａｎｌｕ３３ｈａｏｓａｎｌｏｕ３５９ｓｈｉ（ｇａｉｚｈｕｓｕｏｊｉｎｘｉａｎｚｕｏｗｅｉｓｈａｎｇｓｈｉｚｈｕｔｉｆａｌｖｗｅｎｓｈｕｓｏｎｇｄａｄｉｚｈｉ），Ｃｈｉｎａ,,,,,,2023-10-19,1,,,,,アモイアイディヤジドンフアカギユウゲンコウシ,0
