sequenceNumber,corporateNumber,process,correct,updateDate,changeDate,name,nameImageId,kind,prefectureName,cityName,streetNumber,addressImageId,prefectureCode,cityCode,postCode,addressOutside,addressOutsideImageId,closeDate,closeCause,successorCorporateNumber,changeCause,assignmentDate,latest,enName,enPrefectureName,enCityName,enAddressOutside,furigana,hihyoji
5,1010001232978,新規,0,2023-02-13,2023-02-13,株式会社Ｂ．Ｂ．ＳＨＯＰ,,株式会社,東京都,中央区,銀座１丁目２２番１１号銀座大竹ビジデンス２階,,13,102,1040061,,,,,,,2023-02-13,1,,,,,ビービーショップ,0
7,1010005036244,新規,0,2023-02-13,2023-02-13,一般社団法人健康経営の窓口,,その他の設立登記法人,東京都,中央区,八丁堀３丁目２３番６号,,13,102,1040032,,,,,,,2023-02-13,1,,,,,ケンコウケイエイノマドグチ,0
12,1010401172469,新規,0,2023-02-13,2023-02-13,Ｂａｒｓｔｏｗ株式会社,,株式会社,東京都,港区,南青山３丁目１番３６号青山丸竹ビル６Ｆ,,13,103,1070062,,,,,,,2023-02-13,1,,,,,バーストー,0
13,1010403029502,新規,0,2023-02-13,2023-02-13,ＤｒｏｎｅＳｍｉｔｈ合同会社,,合同会社,東京都,港区,六本木１丁目６番１号泉ガーデンタワー３８階,,13,103,1060032,,,,,,,2023-02-13,1,,,,,ドローンスミス,0
23,1010701043849,新規,0,2023-02-13,2023-02-13,株式会社ｓｈｉｎｙｓｐａｒｋ,,株式会社,東京都,品川区,南大井３丁目４番４号ＴＲＡＤＩＳ品川南８０３,,13,109,1400013,,,,,,,2023-02-13,1,,,,,シャイニースパーク,0
32,1011001152547,新規,0,2023-02-13,2023-02-13,ＯＮＣＥ十株式会社,,株式会社,東京都,目黒区,青葉台３丁目１番１２号,,13,110,1530042,,,,,,,2023-02-13,1,,,,,ワンスプラス,0
40,1011401024908,新規,0,2023-02-13,2023-02-13,株式会社ＭＥＩ　ＷＯＲＬＤ,,株式会社,東京都,板橋区,前野町３丁目５番１０号,,13,119,1740063,,,,,,,2023-02-13,1,,,,,エムイーアイワールド,0
57,1012403005821,新規,0,2023-02-13,2023-02-13,ウイスト・デザイン合同会社,,合同会社,東京都,多摩市,和田１７２９番地の２新都市わだ壱番館３０３,,13,224,2060001,,,,,,,2023-02-13,1,,,,,ウイストデザイン,0
60,1012803003004,新規,0,2023-02-13,2023-02-13,川野合同会社,,合同会社,東京都,日野市,日野本町３丁目１４－１８谷井ビル４Ｆ４０７室,,13,212,1910011,,,,,,,2023-02-13,1,,,,,カワノ,0
67,1020001150262,新規,0,2023-02-13,2023-02-13,株式会社グランロカ,,株式会社,神奈川県,横浜市青葉区,新石川４丁目２４番地５４,,14,117,2250003,,,,,,,2023-02-13,1,,,,,グランロカ,0
74,1020003023318,新規,0,2023-02-13,2023-02-13,合同会社ＨＩＴＯＴＵＫＩ,,合同会社,神奈川県,横浜市金沢区,富岡西７丁目４７番２２号サンハイツ２０１号,,14,108,2360052,,,,,,,2023-02-13,1,,,,,ヒトツキ,0
80,1030001152365,新規,0,2023-02-13,2023-02-13,株式会社彩雲ノ居,,株式会社,埼玉県,川口市,幸町３丁目９番２８号ビジネスハイツ川口２０８,,11,203,3320016,,,,,,,2023-02-13,1,,,,,サイウンノイエ,0
95,1040001127036,新規,0,2023-02-13,2023-02-13,株式会社開拓公社ホールディングス,,株式会社,千葉県,千葉市美浜区,新港７４番地,,12,106,2610002,,,,,,,2023-02-13,1,,,,,カイタクコウシャホールディングス,0
96,1040001127060,新規,0,2023-02-13,2023-02-13,株式会社Ｒ＆Ｍ,,株式会社,千葉県,銚子市,小畑町９３２１番地４,,12,202,2880022,,,,,,,2023-02-13,1,,,,,アールアンドエム,0
99,1040003021856,新規,0,2023-02-13,2023-02-13,合同会社ＨＡＮＤＵＮＰＵＲＡ　ＥＮＴＥＲＰＲＩＳＥＳ,,合同会社,千葉県,香取郡神崎町,郡１３０７番地１－３０６,,12,342,2890202,,,,,,,2023-02-13,1,,,,,ハドゥンプラエンタープライズ,0
104,1050003007227,新規,0,2023-02-13,2023-02-13,ＲＰＧ　ＩＮＴＥＲＮＡＴＩＯＮＡＬ合同会社,,合同会社,茨城県,結城郡八千代町,大字久下田２３３番地６,,08,521,3003513,,,,,,,2023-02-13,1,,,,,アールピージーインターナショナル,0
108,1060001035690,新規,0,2023-02-13,2023-02-13,株式会社ＳＡＮＵ　Ｎａｓｕ１ｓｔ,,株式会社,栃木県,那須郡那須町,大字高久乙３３７０番地４４９,,09,407,3250303,,,,,,,2023-02-13,1,,,,,サヌナスファースト,0
115,1070003004825,新規,0,2023-02-13,2023-02-13,合同会社ＡＪクリーンアップ,,合同会社,群馬県,太田市,末広町５５７番地１９,,10,205,3730862,,,,,,,2023-02-13,1,,,,,エイジェイクリーンアップ,0
124,1110001037293,新規,0,2023-02-13,2023-02-13,エムデン株式会社,,株式会社,新潟県,魚沼市,日渡新田６５番地,,15,225,9460001,,,,,,,2023-02-13,1,,,,,エムデン,0
132,1120001252445,新規,0,2023-02-13,2023-02-13,株式会社ＷＡＶＹ,,株式会社,大阪府,大阪市北区,野崎町１番３０－１８１２号,,27,127,5300055,,,,,,,2023-02-13,1,,,,,ウェイビー,0
133,1120001252453,新規,0,2023-02-13,2023-02-13,ＰＩＣＯ　Ｏｓａｋａ株式会社,,株式会社,大阪府,大阪市北区,豊崎３丁目１６番１６－１１０１号,,27,127,5310072,,,,,,,2023-02-13,1,,,,,ピコオオサカ,0
134,1120001252461,新規,0,2023-02-13,2023-02-13,株式会社グローアップ,,株式会社,大阪府,大阪市西区,江戸堀１丁目２３番１３号,,27,106,5500002,,,,,,,2023-02-13,1,,,,,グローアップ,0
135,1120001252486,新規,0,2023-02-13,2023-02-13,株式会社ＣＲＥＡＳ,,株式会社,大阪府,大阪市中央区,西心斎橋２丁目１２－２２－９１４,,27,128,5420086,,,,,,,2023-02-13,1,,,,,クレアス,0
142,1120901047119,新規,0,2023-02-13,2023-02-13,ＮＫＮＳ株式会社,,株式会社,大阪府,吹田市,新芦屋上４－７－３０５,,27,205,5650804,,,,,,,2023-02-13,1,,,,,エヌケイエヌエス,0
143,1120901047127,新規,0,2023-02-13,2023-02-13,株式会社ＢＬＥＮＤ,,株式会社,大阪府,吹田市,江坂町５丁目１７番５号パロスＧＴ江坂１号,,27,205,5640063,,,,,,,2023-02-13,1,,,,,ブレンド,0
162,1140001129022,新規,0,2023-02-13,2023-02-13,ＷＯＲＬＤＷＩＤＥ　ＳＯＢＡ　ＪＡＰＡＮ株式会社,,株式会社,兵庫県,姫路市,東辻井３丁目３番１０－２０３号ロイヤルステイツ東辻井,00129417,28,201,6700084,,,,,,,2023-02-13,1,,,,,ワールドワイドソバジャパン,0
163,1140001129088,新規,0,2023-02-13,2023-02-13,ＶＡＮ　ＰＨＵＣ株式会社,,株式会社,兵庫県,神戸市中央区,元町通１丁目１－８,,28,110,6500022,,,,,,,2023-02-13,1,,,,,バンフック,0
164,1140001129096,新規,0,2023-02-13,2023-02-13,株式会社ＢＢＭ,,株式会社,兵庫県,洲本市,千草己４２２番地１２,,28,205,6560031,,,,,,,2023-02-13,1,,,,,ビービーエム,0
165,1140001129105,新規,0,2023-02-13,2023-02-13,株式会社ｓｅｅｄ,,株式会社,兵庫県,尼崎市,長洲本通２丁目９番６０号,,28,202,6600803,,,,,,,2023-02-13,1,,,,,シード,0
172,1140003018710,新規,0,2023-02-13,2023-02-13,ＡＭＡＴＥＲＡＳ合同会社,,合同会社,兵庫県,尼崎市,三反田町２丁目１７番２２－２０３号,,28,202,6610024,,,,,,,2023-02-13,1,,,,,アマテラス,0
174,1150003002886,新規,0,2023-02-13,2023-02-13,合同会社曽我企画,,合同会社,奈良県,香芝市,五位堂３丁目４４３番地１グリーンコーポ五位堂９０５号,,29,210,6390226,,,,,,,2023-02-13,1,,,,,ソガキカク,0
181,1180001154966,新規,0,2023-02-13,2023-02-13,株式会社Ｉｎ　Ｆｉｒｓｔ,,株式会社,愛知県,名古屋市守山区,本地が丘１７０１番地本地荘１７棟３０６号,,23,113,4630031,,,,,,,2023-02-13,1,,,,,インファースト,0
188,1180005020108,新規,0,2023-02-13,2023-02-13,社会保険労務士法人めいほく,,その他の設立登記法人,愛知県,清須市,西枇杷島町古城１丁目６番地１６,,23,233,4520001,,,,,,,2023-02-13,1,,,,,メイホク,0
191,1200001040949,新規,0,2023-02-13,2023-02-13,＿逸株式会社,00129418,株式会社,岐阜県,岐阜市,六条東１丁目３番１６号,,21,201,5008353,,,,,,,2023-02-13,1,,,,,チーイー,0
197,1240001061082,新規,0,2023-02-13,2023-02-13,株式会社リバティー植物店,,株式会社,広島県,三原市,糸崎８丁目１５番８号,,34,204,7290324,,,,,,,2023-02-13,1,,,,,リバティーショクブツテン,0
207,1320003004023,新規,0,2023-02-13,2023-02-13,合同会社香,,合同会社,大分県,佐伯市,直川大字上直見７１１番地の１,,44,205,8793102,,,,,,,2023-02-13,1,,,,,コウ,0
209,1340003004046,新規,0,2023-02-13,2023-02-13,架英管財合同会社,,合同会社,鹿児島県,鹿児島市,南林寺町２６番９－２０２号,,46,201,8920834,,,,,,,2023-02-13,1,,,,,カエイカンザイ,0
212,1360001031560,新規,0,2023-02-13,2023-02-13,ＭＭＫ　Ｇｌｏｂａｌ　Ｊａｐａｎ株式会社,,株式会社,沖縄県,沖縄市,中央１丁目２２番１８号１０４号室,,47,211,9040004,,,,,,,2023-02-13,1,,,,,エムエムケイグローバルジャパン,0
216,1370003005990,新規,0,2023-02-13,2023-02-13,合同会社ＬＯＧＯＳ,,合同会社,宮城県,仙台市青葉区,上杉３丁目８番２３－２０１号,,04,101,9800011,,,,,,,2023-02-13,1,,,,,ロゴス,0
218,1380001033472,新規,0,2023-02-13,2023-02-13,株式会社ＮＦＰ,,株式会社,福島県,双葉郡大熊町,大字下野上字清水２３０番地,,07,545,9791308,,,,,,,2023-02-13,1,,,,,エヌエフピー,0
219,1380003005387,新規,0,2023-02-13,2023-02-13,Ｌａｕｒｕｓ合同会社,,合同会社,福島県,田村市,船引町船引字上田中２９番地１,,07,211,9634312,,,,,,,2023-02-13,1,,,,,ラウルス,0
223,1410003003759,新規,0,2023-02-13,2023-02-13,アステロイドインターナショナル合同会社,,合同会社,秋田県,秋田市,大平台４丁目５番地２２,,05,201,0101428,,,,,,,2023-02-13,1,,,,,アステロイドインターナショナル,0
227,1430001088404,新規,0,2023-02-13,2023-02-13,株式会社百笑村,,株式会社,北海道,札幌市西区,発寒十二条３丁目８番１８号,,01,107,0630832,,,,,,,2023-02-13,1,,,,,ヒャクショウムラ,0
228,1430001088412,新規,0,2023-02-13,2023-02-13,株式会社聡誠,,株式会社,北海道,千歳市,弥生１丁目４番６号,,01,224,0660024,,,,,,,2023-02-13,1,,,,,ソウセイ,0
229,1430001088420,新規,0,2023-02-13,2023-02-13,株式会社ＳＹＮＴＩＭＥ,,株式会社,北海道,札幌市南区,真駒内緑町１丁目１番１６－２１３号,,01,106,0050013,,,,,,,2023-02-13,1,,,,,シンタイム,0
232,1450001013905,新規,0,2023-02-13,2023-02-13,株式会社ＣＯＲＥＣＬＩＰ,,株式会社,北海道,旭川市,東光八条３丁目３番１０号,,01,204,0788348,,,,,,,2023-02-13,1,,,,,コアクリップ,0
235,1490001010403,新規,0,2023-02-13,2023-02-13,株式会社宝,,株式会社,高知県,高知市,竹島町４３番６号,,39,201,7808018,,,,,,,2023-02-13,1,,,,,タカラ,0
237,1500005008573,新規,0,2023-02-13,2023-02-13,無限責任下三谷負債整理組合,,その他の設立登記法人,愛媛県,伊予市,,,38,210,7993100,,,,,,,2023-02-13,1,,,,,,0
246,2010001232903,新規,0,2023-02-13,2023-02-13,株式会社前川電気,,株式会社,東京都,文京区,小石川２丁目１７番３０号,,13,105,1120002,,,,,,,2023-02-13,1,,,,,マエカワデンキ,0
247,2010001232977,新規,0,2023-02-13,2023-02-13,株式会社最果て,,株式会社,東京都,文京区,湯島３丁目４３番６号,,13,105,1130034,,,,,,,2023-02-13,1,,,,,サイハテ,0
250,2010005036251,新規,0,2023-02-13,2023-02-13,Ｐｌａｔｉｎｕｍ　Ｈｏｕｓｅ一般社団法人,,その他の設立登記法人,東京都,千代田区,霞が関３丁目２番５号,,13,101,1000013,,,,,,,2023-02-13,1,,,,,プラチナムハウス,0
259,2010403029402,新規,0,2023-02-13,2023-02-13,アンドアセット合同会社,,合同会社,東京都,港区,南青山３丁目１番３６号青山丸竹ビル６Ｆ,,13,103,1070062,,,,,,,2023-02-13,1,,,,,アンドアセット,0
260,2010403029501,新規,0,2023-02-13,2023-02-13,合同会社ＲＪソーラー３,,合同会社,東京都,港区,虎ノ門１丁目２番８号リニューアブル・ジャパン株式会社内,,13,103,1050001,,,,,,,2023-02-13,1,,,,,アールジェイソーラーサン,0
262,2010503006887,新規,0,2023-02-13,2023-02-13,合同会社ホワイトジャック,,合同会社,東京都,台東区,柳橋２丁目１６番１－４０２号,,13,106,1110052,,,,,,,2023-02-13,1,,,,,ホワイトジャック,0
272,2011001152562,新規,0,2023-02-13,2023-02-13,株式会社Ｄｅｅｐ　Ｃｌｏｕｄ,,株式会社,東京都,渋谷区,神宮前３丁目１３番２０号ＰＡＳＥＯ神宮前１０２,,13,113,1500001,,,,,,,2023-02-13,1,,,,,ディープクラウド,0
273,2011003016253,新規,0,2023-02-13,2023-02-13,合同会社芝ノ浜,,合同会社,東京都,渋谷区,恵比寿南２丁目２６番１－２０８号パークコート恵比寿,,13,113,1500022,,,,,,,2023-02-13,1,,,,,シバノハマ,0
274,2011003016278,新規,0,2023-02-13,2023-02-13,合同会社ＶＡＵＬＴ,,合同会社,東京都,目黒区,八雲３丁目１１番１２号,,13,110,1520023,,,,,,,2023-02-13,1,,,,,ボルト,0
277,2011101101832,新規,0,2023-02-13,2023-02-13,爽新株式会社,,株式会社,東京都,新宿区,若松町３５番１号,,13,104,1620056,,,,,,,2023-02-13,1,,,,,ソウシン,0
283,2011201024413,新規,0,2023-02-13,2023-02-13,株式会社ＬＩＫＡＢＬＥ,,株式会社,東京都,中野区,大和町１丁目６８－４,,13,114,1650034,,,,,,,2023-02-13,1,,,,,ライカブル,0
285,2011405002231,新規,0,2023-02-13,2023-02-13,ＤＭＵ労働労務相談所,,その他の設立登記法人,東京都,板橋区,前野町４丁目６２番１４号,,13,119,1740063,,,,,,,2023-02-13,1,,,,,ディーエムユーロウドウロウムソウダンショ,0
288,2011501028948,新規,0,2023-02-13,2023-02-13,トウエイフードサービス株式会社,,株式会社,東京都,荒川区,西日暮里１丁目５５番１号,,13,118,1160013,,,,,,,2023-02-13,1,,,,,トウエイフードサービス,0
289,2011501028964,新規,0,2023-02-13,2023-02-13,株式会社Ｓｃｏｌｌｅ,,株式会社,東京都,荒川区,西日暮里１丁目４０番８－４０６号,,13,118,1160013,,,,,,,2023-02-13,1,,,,,エスコレ,0
301,2013301050322,新規,0,2023-02-13,2023-02-13,株式会社比希商店,,株式会社,東京都,豊島区,池袋本町４丁目３８番１０－５０２号,,13,116,1700011,,,,,,,2023-02-13,1,,,,,ヒキショウテン,0
312,2020001150187,新規,0,2023-02-13,2023-02-13,Ｖｏｘａ　Ｊａｐａｎ株式会社,,株式会社,神奈川県,横浜市中区,山下町２番地産業貿易センタービル２階,,14,104,2310023,,,,,,,2023-02-13,1,,,,,ボクサージャパン,0
328,2030001152380,新規,0,2023-02-13,2023-02-13,北斗金属株式会社,,株式会社,埼玉県,深谷市,折之口５０２番地２,,11,218,3660812,,,,,,,2023-02-13,1,,,,,ホクトキンゾク,0
330,2030003021162,新規,0,2023-02-13,2023-02-13,エスピウ合同会社,,合同会社,埼玉県,八潮市,中央２丁目２５番地１５,,11,234,3400816,,,,,,,2023-02-13,1,,,,,エスピウ,0
333,2040001127051,新規,0,2023-02-13,2023-02-13,株式会社リル,,株式会社,千葉県,船橋市,東船橋３丁目２０番１２号,,12,204,2730002,,,,,,,2023-02-13,1,,,,,リル,0
341,2040003021913,新規,0,2023-02-13,2023-02-13,合同会社ＫＩＮ,,合同会社,千葉県,松戸市,新松戸１丁目４１８番地栄マンション１０３号,,12,207,2700034,,,,,,,2023-02-13,1,,,,,キン,0
345,2060003004412,新規,0,2023-02-13,2023-02-13,合同会社伊藤社中,,合同会社,栃木県,那須塩原市,共墾社９２番地３７,,09,213,3250027,,,,,,,2023-02-13,1,,,,,イトウシャチュウ,0
346,2070001008918,新規,0,2023-02-13,2023-02-13,株式会社アリマコーポレーション,,株式会社,群馬県,高崎市,高砂町９番地,,10,202,3700047,,,,,,,2023-02-13,1,,,,,アリマコーポレーション,0
363,2110003004984,新規,0,2023-02-13,2023-02-13,燕三条ＣＩＴＹ　ＦＣ合同会社,,合同会社,新潟県,三条市,神明町３番７号,,15,204,9550063,,,,,,,2023-02-13,1,,,,,ツバメサンジョウシティエフシー,0
372,2120001252378,新規,0,2023-02-13,2023-02-13,株式会社メディケアプラス,,株式会社,大阪府,大阪市西区,南堀江１丁目１０番１１号,,27,106,5500015,,,,,,,2023-02-13,1,,,,,メディケアプラス,0
373,2120001252428,新規,0,2023-02-13,2023-02-13,株式会社Ｋｈｔ,,株式会社,大阪府,大阪市住吉区,山之内２丁目１１番３１号,,27,120,5580023,,,,,,,2023-02-13,1,,,,,ケーエイチティ,0
374,2120001252436,新規,0,2023-02-13,2023-02-13,株式会社Ｌａｂ８,,株式会社,大阪府,大阪市北区,大深町４番２０号グランフロント大阪タワーＡ,,27,127,5300011,,,,,,,2023-02-13,1,,,,,ラボエイト,0
375,2120001252460,新規,0,2023-02-13,2023-02-13,株式会社ｗｏｒｋｓ,,株式会社,大阪府,守口市,本町１丁目６－１３,,27,209,5700028,,,,,,,2023-02-13,1,,,,,ワークス,0
376,2120001252469,新規,0,2023-02-13,2023-02-13,イントリ株式会社,,株式会社,大阪府,大阪市北区,豊崎３丁目１５番５号ＴＫビル６Ｆ,,27,127,5310072,,,,,,,2023-02-13,1,,,,,イントリ,0
387,2140001129095,新規,0,2023-02-13,2023-02-13,株式会社ＴＯＰＡＺ,,株式会社,兵庫県,姫路市,飾東町庄２８番地７,,28,201,6710218,,,,,,,2023-02-13,1,,,,,トパーズ,0
388,2140001129112,新規,0,2023-02-13,2023-02-13,株式会社美水,,株式会社,兵庫県,伊丹市,中野北３丁目２番１２号,,28,207,6640029,,,,,,,2023-02-13,1,,,,,ビスイ,0
391,2140003018718,新規,0,2023-02-13,2023-02-13,合同会社エスト,,合同会社,兵庫県,小野市,鹿野町１８６８番地の１３０,,28,218,6751364,,,,,,,2023-02-13,1,,,,,エスト,0
393,2150003002885,新規,0,2023-02-13,2023-02-13,合同会社ミライケン,,合同会社,奈良県,生駒市,本町６－５冨士屋ビル３０Ａ,,29,209,6300256,,,,,,,2023-02-13,1,,,,,ミライケン,0
395,2170003001836,新規,0,2023-02-13,2023-02-13,合同会社スパイス航路,,合同会社,和歌山県,岩出市,畑毛１７５番地,,30,209,6496244,,,,,,,2023-02-13,1,,,,,スパイスコウロ,0
413,2180001154949,新規,0,2023-02-13,2023-02-13,ベルスパートナーズ株式会社,,株式会社,愛知県,名古屋市中区,丸の内２丁目１５－４プレサンス丸の内レジデンス１３０３号室,,23,106,4600002,,,,,,,2023-02-13,1,,,,,ベルスパートナーズ,0
414,2180001154957,新規,0,2023-02-13,2023-02-13,株式会社ユーテック,,株式会社,愛知県,名古屋市港区,宝神１丁目８９番地,,23,111,4550832,,,,,,,2023-02-13,1,,,,,ユーテック,0
415,2180001154965,新規,0,2023-02-13,2023-02-13,株式会社ＭＡＪＩＭＥＮＩ,,株式会社,愛知県,名古屋市瑞穂区,井の元町１４７番地の１,,23,108,4670057,,,,,,,2023-02-13,1,,,,,マジメニ,0
416,2180001154981,新規,0,2023-02-13,2023-02-13,株式会社ｃｏｎｅｘｉｏｎ,,株式会社,愛知県,名古屋市千種区,萱場２丁目１３－２,,23,101,4640086,,,,,,,2023-02-13,1,,,,,コネクション,0
421,2180003024828,新規,0,2023-02-13,2023-02-13,ＳＡＮＤＩＫＡ合同会社,,合同会社,愛知県,名古屋市中区,千代田２丁目１５－１７ＳＵＺＵＫＩビル２階３０３号室,,23,106,4600012,,,,,,,2023-02-13,1,,,,,サンデイカ,0
429,2190001030166,新規,0,2023-02-13,2023-02-13,ＳＥ２株式会社,,株式会社,三重県,鈴鹿市,三日市３丁目６番２７号,,24,207,5130807,,,,,,,2023-02-13,1,,,,,エスイートゥー,0
436,2240003006019,新規,0,2023-02-13,2023-02-13,合同会社万空,,合同会社,広島県,三原市,中之町５丁目４番３０－３号,,34,204,7230003,,,,,,,2023-02-13,1,,,,,バンクウ,0
458,2360001031535,新規,0,2023-02-13,2023-02-13,株式会社アットＯＫＩＮＡＷＡ,,株式会社,沖縄県,浦添市,沢岻１丁目４６－５－２Ｆ,,47,208,9012112,,,,,,,2023-02-13,1,,,,,アットオキナワ,0
460,2370001049592,新規,0,2023-02-13,2023-02-13,株式会社遊ポケ,,株式会社,宮城県,遠田郡涌谷町,字六軒町裏９６番地３,,04,501,9870107,,,,,,,2023-02-13,1,,,,,ユウポケ,0
467,2380001033471,新規,0,2023-02-13,2023-02-13,秦野建設株式会社,,株式会社,福島県,伊達郡川俣町,字瓦町８４番地の２,,07,308,9601453,,,,,,,2023-02-13,1,,,,,ハダノケンセツ,0
470,2420005007839,新規,0,2023-02-13,2023-02-13,学校法人ＳＫＫ,,その他の設立登記法人,青森県,弘前市,大字徳田町１番地３,,02,202,0368032,,,,,,,2023-02-13,1,,,,,エスケーケー,0
480,2430003014729,新規,0,2023-02-13,2023-02-13,シノハラ合同会社,,合同会社,北海道,札幌市北区,北二十七条西８丁目２番５号,,01,102,0010027,,,,,,,2023-02-13,1,,,,,シノハラ,0
488,2500005008572,新規,0,2023-02-13,2023-02-13,保証責任高野川負債整理組合,00129364,その他の設立登記法人,愛媛県,伊予市,双海町上灘甲５６６８番地の１,00129365,38,210,7993202,,,,,,,2023-02-13,1,,,,,ホショウセキニンコウノガワ,0
498,3010003039809,新規,0,2023-02-13,2023-02-13,合同会社コンテンツスタジオ,,合同会社,東京都,千代田区,麹町４丁目７番地麹町ロイヤルビル６０２号,,13,101,1020083,,,,,,,2023-02-13,1,,,,,コンテンツスタジオ,0
499,3010003039825,新規,0,2023-02-13,2023-02-13,ＡＬＪ　Ｈｅａｌｔｈｃａｒｅ３合同会社,,合同会社,東京都,中央区,日本橋１丁目４番１号,,13,102,1030027,,,,,,,2023-02-13,1,,,,,エーエルジェイヘルスケアスリー,0
504,3010401172178,新規,0,2023-02-13,2023-02-13,株式会社Ｌｉｖｙ,,株式会社,東京都,港区,高輪４丁目１０番１８号京急第一ビル１３Ｆ,,13,103,1080074,,,,,,,2023-02-13,1,,,,,ライヴィ,0
507,3010403029500,新規,0,2023-02-13,2023-02-13,岩谷コスモ水素ステーション合同会社,,合同会社,東京都,港区,芝浦１丁目１番１号,,13,103,1050023,,,,,,,2023-02-13,1,,,,,イワタニコスモスイソステーション,0
511,3010701043855,新規,0,2023-02-13,2023-02-13,フーディーズリンク株式会社,,株式会社,東京都,品川区,大崎４丁目１－７,,13,109,1410032,,,,,,,2023-02-13,1,,,,,フーディーズリンク,0
512,3010703006579,新規,0,2023-02-13,2023-02-13,マクロデザイン合同会社,,合同会社,東京都,品川区,旗の台２丁目９番３－１１０７号,,13,109,1420064,,,,,,,2023-02-13,1,,,,,マクロデザイン,0
522,3011001152462,新規,0,2023-02-13,2023-02-13,株式会社超休息商店,,株式会社,東京都,渋谷区,神宮前６丁目２３番４号桑野ビル２階,,13,113,1500001,,,,,,,2023-02-13,1,,,,,チョウキュウソクショウテン,0
523,3011001152470,新規,0,2023-02-13,2023-02-13,株式会社Ｕｎｔｅｅ,,株式会社,東京都,渋谷区,恵比寿西１丁目８番３号クオリア恵比寿ウエスト５０４,,13,113,1500021,,,,,,,2023-02-13,1,,,,,アンティ,0
526,3011003016211,新規,0,2023-02-13,2023-02-13,ＬｉｎｋＸ　Ｊａｐａｎ合同会社,,合同会社,東京都,渋谷区,渋谷２丁目１９－１５宮益坂ビルディング６０９,,13,113,1500002,,,,,,,2023-02-13,1,,,,,,0
531,3011105010541,新規,0,2023-02-13,2023-02-13,一般社団法人ＡＴＣ,,その他の設立登記法人,東京都,新宿区,下落合４丁目２１番１０号,,13,104,1610033,,,,,,,2023-02-13,1,,,,,エーティーシー,0
535,3011503005473,新規,0,2023-02-13,2023-02-13,ＭＥＳ合同会社,,合同会社,東京都,荒川区,東尾久２丁目４１－８寿荘２０１,,13,118,1160012,,,,,,,2023-02-13,1,,,,,エムイーエス,0
536,3011603003815,新規,0,2023-02-13,2023-02-13,合同会社ムラマサインベスターズ,,合同会社,東京都,練馬区,上石神井１丁目１２－９日豊ビル２０２,,13,120,1770044,,,,,,,2023-02-13,1,,,,,ムラマサインベスターズ,0
538,3011801041930,新規,0,2023-02-13,2023-02-13,ＭＣＴシステム株式会社,,株式会社,東京都,葛飾区,新小岩３丁目２７番２１号,,13,122,1240024,,,,,,,2023-02-13,1,,,,,エムシーティーシステム,0
539,3011803005512,新規,0,2023-02-13,2023-02-13,合同会社エム・オー,,合同会社,東京都,葛飾区,金町６丁目５番１－１３０８号,,13,122,1250042,,,,,,,2023-02-13,1,,,,,エムオー,0
546,3012803003002,新規,0,2023-02-13,2023-02-13,合同会社むさし心理教育研究所,,合同会社,東京都,東大和市,桜が丘２丁目２１４番地の１リーベスト玉川上水３１１,,13,220,2070022,,,,,,,2023-02-13,1,,,,,,0
548,3013301050321,新規,0,2023-02-13,2023-02-13,シーベル株式会社,,株式会社,東京都,豊島区,西池袋５丁目１番３号メトロシティ西池袋,,13,116,1710021,,,,,,,2023-02-13,1,,,,,シーベル,0
558,3020001150236,新規,0,2023-02-13,2023-02-13,株式会社三和モータース,,株式会社,神奈川県,川崎市中原区,井田２丁目３４番３号第二三和ビル３０１号,,14,133,2110035,,,,,,,2023-02-13,1,,,,,サンワモータース,0
569,3021001078203,新規,0,2023-02-13,2023-02-13,株式会社ＭＡＨＡ,,株式会社,神奈川県,小田原市,小台１９９番地２号,,14,206,2500858,,,,,,,2023-02-13,1,,,,,マハ,0
577,3030001152388,新規,0,2023-02-13,2023-02-13,インスペクト株式会社,,株式会社,埼玉県,戸田市,早瀬１丁目７番２０号,,11,224,3350036,,,,,,,2023-02-13,1,,,,,インスペクト,0
586,3040001127050,新規,0,2023-02-13,2023-02-13,株式会社エム・アンド・ジェイ,,株式会社,千葉県,成田市,大清水１０６－２,,12,211,2860122,,,,,,,2023-02-13,1,,,,,エムアンドジェイ,0
587,3040001127059,新規,0,2023-02-13,2023-02-13,株式会社ＥＡＳＹ　ＴＯ　ＵＮＤＥＲＳＴＡＮＤ,,株式会社,千葉県,千葉市美浜区,若葉３丁目１－１８幕張ベイパーククロスレジデンスＳ２－１,,12,106,2610014,,,,,,,2023-02-13,1,,,,,イージートゥアンダースタンド,0
588,3040001127067,新規,0,2023-02-13,2023-02-13,株式会社ミライズ,,株式会社,千葉県,千葉市中央区,富士見２丁目７番９号富士見ビル６０９号,,12,101,2600015,,,,,,,2023-02-13,1,,,,,ミライズ,0
591,3040003021920,新規,0,2023-02-13,2023-02-13,合同会社ＭＣＳ,,合同会社,千葉県,山武市,早船８２３番地,,12,237,2891311,,,,,,,2023-02-13,1,,,,,エムシーエス,0
614,3120001252278,新規,0,2023-02-13,2023-02-13,株式会社Ｊアライアンスビューティー,,株式会社,大阪府,大阪市北区,梅田１丁目１１番４号大阪駅前第４ビル,,27,127,5300001,,,,,,,2023-02-13,1,,,,,ジェイアライアンスビューティー,0
615,3120001252435,新規,0,2023-02-13,2023-02-13,株式会社ＣＳＸ,,株式会社,大阪府,大阪市北区,大深町４番２０号グランフロント大阪タワーＡ,,27,127,5300011,,,,,,,2023-02-13,1,,,,,シーエスエックス,0
616,3120001252451,新規,0,2023-02-13,2023-02-13,株式会社３６９,,株式会社,大阪府,大阪市中央区,高津２丁目６－４エクセレント高津８０４,,27,128,5420072,,,,,,,2023-02-13,1,,,,,ミロク,0
617,3120001252468,新規,0,2023-02-13,2023-02-13,株式会社アップウェーブ,,株式会社,大阪府,大阪市城東区,関目１丁目１２番３号,,27,118,5360008,,,,,,,2023-02-13,1,,,,,アップウェーブ,0
623,3120101066982,新規,0,2023-02-13,2023-02-13,増田株式会社,,株式会社,大阪府,堺市東区,日置荘西町４丁２２番１９号,,27,143,5998114,,,,,,,2023-02-13,1,,,,,マスダ,0
625,3120901047109,新規,0,2023-02-13,2023-02-13,オフィスＫｉｔａｋａｚｅ株式会社,,株式会社,大阪府,豊中市,原田元町２丁目１１番８号,,27,203,5610808,,,,,,,2023-02-13,1,,,,,オフィスキタカゼ,0
632,3130001073657,新規,0,2023-02-13,2023-02-13,株式会社グレイスアドバイザリー,,株式会社,京都府,京都市中京区,元竹田町６３１番地３エステートビル四条烏丸４０１号室,,26,104,6048145,,,,,,,2023-02-13,1,,,,,グレイスアドバイザリー,0
637,3140003018717,新規,0,2023-02-13,2023-02-13,合同会社一颯,,合同会社,兵庫県,三田市,武庫が丘６丁目１５番地６,,28,219,6691544,,,,,,,2023-02-13,1,,,,,イブキ,0
676,3290001100544,新規,0,2023-02-13,2023-02-13,株式会社ＡＣＣＥＰＴ,,株式会社,福岡県,福岡市中央区,大名２丁目９番３５号９Ｆ,,40,133,8100041,,,,,,,2023-02-13,1,,,,,アクセプト,0
687,3330003009721,新規,0,2023-02-13,2023-02-13,合同会社ＵＰ　ＦＩＥＬＤ,,合同会社,熊本県,合志市,竹迫１５３２番地１,,43,216,8611114,,,,,,,2023-02-13,1,,,,,アップフィールド,0
689,3350001018185,新規,0,2023-02-13,2023-02-13,株式会社なないろスイッチ,,株式会社,宮崎県,宮崎市,大橋３丁目１１８番地１ビューテラス７０６号,,45,201,8800022,,,,,,,2023-02-13,1,,,,,ナナイロスイッチ,0
693,3360001031567,新規,0,2023-02-13,2023-02-13,株式会社ＤＫＳ,,株式会社,沖縄県,中頭郡西原町,字池田４６５番地の３（３Ｆ）,,47,329,9030115,,,,,,,2023-02-13,1,,,,,ディケーエス,0
697,3360003012706,新規,0,2023-02-13,2023-02-13,合同会社佐久田,,合同会社,沖縄県,沖縄市,比屋根７丁目３０番２１号,,47,211,9042173,,,,,,,2023-02-13,1,,,,,サクダ,0
699,3380001033470,新規,0,2023-02-13,2023-02-13,株式会社士十工業,,株式会社,福島県,双葉郡大熊町,大字大川原字西平１７２７番地,,07,545,9791306,,,,,,,2023-02-13,1,,,,,シトコウギョウ,0
700,3380001033479,新規,0,2023-02-13,2023-02-13,株式会社門澤工務店,,株式会社,福島県,郡山市,田村町守山字西河原２９番地の２,,07,203,9631155,,,,,,,2023-02-13,1,,,,,カドサワコウムテン,0
706,3430001088410,新規,0,2023-02-13,2023-02-13,株式会社ＯＷＬ,,株式会社,北海道,江別市,野幌美幸町３０番地の１１,,01,217,0690804,,,,,,,2023-02-13,1,,,,,アウル,0
707,3430001088419,新規,0,2023-02-13,2023-02-13,北海道イクス株式会社,,株式会社,北海道,札幌市中央区,南二条西２４丁目２番２２－３０２号,,01,101,0640802,,,,,,,2023-02-13,1,,,,,ホッカイドウイクス,0
713,3490001010401,新規,0,2023-02-13,2023-02-13,株式会社サークルプラス,,株式会社,高知県,高知市,はりまや町３丁目１９－１１,,39,201,7800822,,,,,,,2023-02-13,1,,,,,サークルプラス,0
716,3500001024762,新規,0,2023-02-13,2023-02-13,テイクアメニティ株式会社,,株式会社,愛媛県,東温市,志津川５１２番地１,,38,215,7910204,,,,,,,2023-02-13,1,,,,,テイクアメニティ,0
717,3500005008571,新規,0,2023-02-13,2023-02-13,無限責任上三谷負債整理組合,,その他の設立登記法人,愛媛県,伊予市,上三谷３０２３番地,,38,210,7993104,,,,,,,2023-02-13,1,,,,,,0
738,4010003039816,新規,0,2023-02-13,2023-02-13,ＧＲＩＴ＆ＭＥ合同会社,,合同会社,東京都,中央区,晴海３丁目１３－２－４７１６,,13,102,1040053,,,,,,,2023-02-13,1,,,,,グリットアンドミー,0
741,4010105002201,新規,0,2023-02-13,2023-02-13,一般社団法人全国福祉施設サポート協会,,その他の設立登記法人,東京都,八王子市,楢原町１１４４番地１,,13,201,1930803,,,,,,,2023-02-13,1,,,,,,0
756,4010601062599,新規,0,2023-02-13,2023-02-13,ハーバルデトックスラボ株式会社,,株式会社,東京都,墨田区,錦糸４丁目１０番９－１５０３号クレヴィア錦糸公園,,13,107,1300013,,,,,,,2023-02-13,1,,,,,ハーバルデトックスラボ,0
781,4011201024411,新規,0,2023-02-13,2023-02-13,コンパネラＩＴコンサルティング株式会社,,株式会社,東京都,中野区,中央１丁目３０－２９ピアース中野坂上３０２号室,,13,114,1640011,,,,,,,2023-02-13,1,,,,,コンパネラアイティコンサルティング,0
783,4011501028938,新規,0,2023-02-13,2023-02-13,株式会社ビアプラスプラス,,株式会社,東京都,北区,上十条２丁目７番１３号,,13,117,1140034,,,,,,,2023-02-13,1,,,,,ビアプラスプラス,0
784,4011501028954,新規,0,2023-02-13,2023-02-13,株式会社ゲートキーパー,,株式会社,東京都,荒川区,西日暮里１丁目１６－１５－９０５,,13,118,1160013,,,,,,,2023-02-13,1,,,,,ゲートキーパー,0
785,4011501028962,新規,0,2023-02-13,2023-02-13,株式会社ソウルクリエイション,,株式会社,東京都,北区,赤羽南１丁目１７番６号赤羽ビューハイツ４０１,,13,117,1150044,,,,,,,2023-02-13,1,,,,,ソウルクリエイション,0
787,4011503005472,新規,0,2023-02-13,2023-02-13,Ｌ．Ｂｒｏｓ合同会社,,合同会社,東京都,北区,志茂４丁目４４番１９号,,13,117,1150042,,,,,,,2023-02-13,1,,,,,エルブロス,0
789,4011701026007,新規,0,2023-02-13,2023-02-13,株式会社大真建鉄,,株式会社,東京都,江戸川区,南葛西３丁目９番１４－２０８号,,13,123,1340085,,,,,,,2023-02-13,1,,,,,ダイシンケンテツ,0
791,4011703003383,新規,0,2023-02-13,2023-02-13,ラビットステップ合同会社,,合同会社,東京都,江戸川区,平井６丁目３１番５号,,13,123,1320035,,,,,,,2023-02-13,1,,,,,,0
800,4012403005819,新規,0,2023-02-13,2023-02-13,合同会社石武,,合同会社,東京都,調布市,下石原１丁目３９番地２,,13,208,1820034,,,,,,,2023-02-13,1,,,,,イシタケ,0
801,4012403005827,新規,0,2023-02-13,2023-02-13,合同会社有吉,,合同会社,東京都,調布市,上石原２丁目４３－１７,,13,208,1820035,,,,,,,2023-02-13,1,,,,,アリヨシ,0
803,4012803003001,新規,0,2023-02-13,2023-02-13,丸三禾合同会社,,合同会社,東京都,立川市,錦町１丁目４番２０号,,13,202,1900022,,,,,,,2023-02-13,1,,,,,マルサンワ,0
808,4013301050320,新規,0,2023-02-13,2023-02-13,株式会社Ｂｏｎｄ,,株式会社,東京都,豊島区,池袋２丁目２３番４号国土池袋ビル５０Ｂ,,13,116,1710014,,,,,,,2023-02-13,1,,,,,ボンド,0
809,4013301050329,新規,0,2023-02-13,2023-02-13,世創株式会社,,株式会社,東京都,豊島区,池袋本町２丁目１１番２号,,13,116,1700011,,,,,,,2023-02-13,1,,,,,セソウ,0
819,4020003023315,新規,0,2023-02-13,2023-02-13,合同会社明友,,合同会社,神奈川県,川崎市多摩区,菅北浦２丁目１５－３０ガーデンビィラ弐番館１０１,,14,135,2140008,,,,,,,2023-02-13,1,,,,,メイユウ,0
825,4021003012737,新規,0,2023-02-13,2023-02-13,ＵＴＡＮ合同会社,,合同会社,神奈川県,横須賀市,田浦泉町１６－２階,,14,201,2370073,,,,,,,2023-02-13,1,,,,,ウータン,0
838,4030001152346,新規,0,2023-02-13,2023-02-13,ＵＮＩＴＹ　ＧＬＯＢＡＬ株式会社,,株式会社,埼玉県,三郷市,早稲田７丁目６番２号三郷早稲田パークハイツ３０３,,11,237,3410018,,,,,,,2023-02-13,1,,,,,ユニティグローバル,0
839,4030001152362,新規,0,2023-02-13,2023-02-13,藤原商事株式会社,,株式会社,埼玉県,川口市,飯塚１丁目９番５０号ナチュレ川口１０１号室,,11,203,3320023,,,,,,,2023-02-13,1,,,,,フジワラショウジ,0
840,4030001152379,新規,0,2023-02-13,2023-02-13,株式会社Ｓｈｉｎｅｆｕｌｌ,,株式会社,埼玉県,川口市,芝富士１丁目１番３０号,,11,203,3330854,,,,,,,2023-02-13,1,,,,,シャインフル,0
841,4030001152387,新規,0,2023-02-13,2023-02-13,株式会社ＨＡインターナショナル,,株式会社,埼玉県,幸手市,東２丁目２０番３７号,,11,240,3400114,,,,,,,2023-02-13,1,,,,,エイチエイインターナショナル,0
847,4030005021142,新規,0,2023-02-13,2023-02-13,特定非営利活動法人彩の国キッズ＆ファミリー車いすスポーツ協会,,その他の設立登記法人,埼玉県,白岡市,白岡８４１番地３コンフォルトカーサ１０１,,11,246,3490218,,,,,,,2023-02-13,1,,,,,サイノクニキッズアンドファミリークルマイススポーツキョウカイ,0
854,4040001127000,新規,0,2023-02-13,2023-02-13,株式会社下村企画,,株式会社,千葉県,流山市,おおたかの森北１丁目１１－１Ａ１１０６,,12,220,2700119,,,,,,,2023-02-13,1,,,,,シモムラキカク,0
855,4040001127066,新規,0,2023-02-13,2023-02-13,ＦＣマーケティング株式会社,,株式会社,千葉県,千葉市若葉区,貝塚町２３９番地１,,12,104,2640023,,,,,,,2023-02-13,1,,,,,エフシーマーケティング,0
858,4040003021928,新規,0,2023-02-13,2023-02-13,合同会社怜和産業,,合同会社,千葉県,千葉市緑区,誉田町１丁目１０２１番地４,,12,105,2660005,,,,,,,2023-02-13,1,,,,,レイワサンギョウ,0
872,4080003002932,新規,0,2023-02-13,2023-02-13,学童保育オレンジ合同会社,,合同会社,静岡県,焼津市,三ケ名５９１番地の８,,22,212,4250071,,,,,,,2023-02-13,1,,,,,ガクドウホイクオレンジ,0
882,4100001036129,新規,0,2023-02-13,2023-02-13,株式会社福すけ,,株式会社,長野県,松本市,南松本１丁目２番２７号,,20,202,3900832,,,,,,,2023-02-13,1,,,,,フクスケ,0
883,4100001036137,新規,0,2023-02-13,2023-02-13,株式会社ＬＡＮＤ　ＣＲＥＡＴＥ,,株式会社,長野県,佐久市,印内１５２番地,,20,217,3842201,,,,,,,2023-02-13,1,,,,,ランドクリエイト,0
886,4120001252401,新規,0,2023-02-13,2023-02-13,瑞安株式会社,,株式会社,大阪府,大阪市東成区,神路１丁目７－５神路１丁目ビル３０４,,27,115,5370003,,,,,,,2023-02-13,1,,,,,ズイアン,0
887,4120001252434,新規,0,2023-02-13,2023-02-13,エックスサーバーマネジメント株式会社,,株式会社,大阪府,大阪市北区,大深町４番２０号グランフロント大阪タワーＡ,,27,127,5300011,,,,,,,2023-02-13,1,,,,,エックスサーバーマネジメント,0
888,4120001252450,新規,0,2023-02-13,2023-02-13,株式会社繁栄,,株式会社,大阪府,大阪市鶴見区,今津北２丁目７番３２号,,27,124,5380041,,,,,,,2023-02-13,1,,,,,ハンエイ,0
892,4120101066981,新規,0,2023-02-13,2023-02-13,株式会社三輝,,株式会社,大阪府,堺市北区,中百舌鳥町２丁３１４番地１シャリエ中百舌鳥１２０４号,,27,146,5918023,,,,,,,2023-02-13,1,,,,,サンキ,0
895,4130001073672,新規,0,2023-02-13,2023-02-13,株式会社浅野,,株式会社,京都府,京都市下京区,西木屋町通松原上る三丁目市之町２５２番地３エステムコート京都河原町プレジール１１０６号,,26,106,6000000,,,,,,,2023-02-13,1,,,,,アサノ,0
896,4130003008528,新規,0,2023-02-13,2023-02-13,合同会社クレイン,,合同会社,京都府,京田辺市,東古森７番地６,,26,211,6100362,,,,,,,2023-02-13,1,,,,,クレイン,0
897,4130005016702,新規,0,2023-02-13,2023-02-13,特定非営利活動法人ウイングス,,その他の設立登記法人,京都府,宇治市,広野町桐生谷５８番地の４,,26,204,6110031,,,,,,,2023-02-13,1,,,,,ウイングス,0
906,4140001129110,新規,0,2023-02-13,2023-02-13,Ｋｏｂｅ　Ｉｍｐｅｘ　Ｓｏｌｕｔｉｏｎｓ株式会社,,株式会社,兵庫県,神戸市中央区,伊藤町１１０番地の２,,28,110,6500032,,,,,,,2023-02-13,1,,,,,コウベインペックスソルーションス,0
907,4140003018708,新規,0,2023-02-13,2023-02-13,合同会社ＡＤＩＡＮＴＡＲ,,合同会社,兵庫県,加古郡稲美町,六分一１１７８番地の４１０,,28,381,6751112,,,,,,,2023-02-13,1,,,,,アディアンター,0
913,4180001154963,新規,0,2023-02-13,2023-02-13,セントラルパスコンサルタンツ株式会社,,株式会社,愛知県,名古屋市昭和区,桜山町２丁目３６番地,,23,107,4660044,,,,,,,2023-02-13,1,,,,,セントラルパスコンサルタンツ,0
922,4180303005609,新規,0,2023-02-13,2023-02-13,ＤＯＣＥＬＯＪＡ合同会社,,合同会社,愛知県,刈谷市,野田町陣戸池７２番地１グローリアス東刈谷弐番館３０４号,,23,210,4480803,,,,,,,2023-02-13,1,,,,,ドセロジャ,0
943,4290001100551,新規,0,2023-02-13,2023-02-13,ＡＫＡＲＡ．ＪＡＰＡＮ株式会社,,株式会社,福岡県,福岡市東区,貝塚団地６－１,,40,131,8120052,,,,,,,2023-02-13,1,,,,,アカラジャパン,0
946,4310005008656,新規,0,2023-02-13,2023-02-13,一般社団法人Ｇｒｅｅｅｎｄｙ,,その他の設立登記法人,長崎県,長崎市,大橋町６－１７Ｌ－ＦＬＯＲＥ大橋町７０２,,42,201,8528134,,,,,,,2023-02-13,1,,,,,グリディ,0
951,4360003012713,新規,0,2023-02-13,2023-02-13,合同会社ＴＲＩＡＴＥ,,合同会社,沖縄県,宮古島市,平良字東仲宗根９０２番地１,,47,214,9060007,,,,,,,2023-02-13,1,,,,,トライエイト,0
952,4370001049599,新規,0,2023-02-13,2023-02-13,株式会社０８１０,,株式会社,宮城県,登米市,迫町新田字山崎２４１番地１,,04,212,9894601,,,,,,,2023-02-13,1,,,,,ゼロハチイチゼロ,0
961,4430001088401,新規,0,2023-02-13,2023-02-13,株式会社エコグルメ北海道,,株式会社,北海道,伊達市,清住町５６－１,,01,233,0520005,,,,,,,2023-02-13,1,,,,,,0
962,4430001088426,新規,0,2023-02-13,2023-02-13,株式会社ここちぐら,,株式会社,北海道,札幌市豊平区,平岸二条３丁目４番１－１０７号,,01,105,0620932,,,,,,,2023-02-13,1,,,,,ココチグラ,0
963,4430003014727,新規,0,2023-02-13,2023-02-13,合同会社ＦＵＬＬ　ＢＯＯＳＴ,,合同会社,北海道,三笠市,柏町４４９－３４,,01,222,0682108,,,,,,,2023-02-13,1,,,,,フルブースト,0
964,4430003014735,新規,0,2023-02-13,2023-02-13,合同会社Ｄａｙｓ,,合同会社,北海道,札幌市清田区,里塚緑ケ丘８丁目１５番８号,,01,110,0040805,,,,,,,2023-02-13,1,,,,,デイズ,0
972,4500001024761,新規,0,2023-02-13,2023-02-13,株式会社そがめ,,株式会社,愛媛県,今治市,大西町紺原甲２７９番地５,,38,202,7992202,,,,,,,2023-02-13,1,,,,,ソガメ,0
973,4500005008570,新規,0,2023-02-13,2023-02-13,保証責任影負債整理組合,,その他の設立登記法人,愛媛県,伊予市,双海町上灘甲５６６８番地の１,00129362,38,210,7993202,,,,,,,2023-02-13,1,,,,,ホショウセキニンカゲ,0
974,4700150114285,新規,0,2023-02-13,2023-02-13,福岡県バドミントン協会,,その他,福岡県,福岡市城南区,茶山５丁目２１－７,,40,136,8140111,,,,,,,2023-02-13,1,,,,,フクオカケンバドミントンキョウカイ,0
981,5010001232859,新規,0,2023-02-13,2023-02-13,ＧＡＬＩコンサルティング株式会社,,株式会社,東京都,中央区,銀座１丁目１２番４号Ｎ＆ＥＢＬＤ．６Ｆ,,13,102,1040061,,,,,,,2023-02-13,1,,,,,ガリコンサルティング,0
982,5010001232909,新規,0,2023-02-13,2023-02-13,ノーザンスター株式会社,,株式会社,東京都,千代田区,麹町１丁目４－４－２Ｆ,,13,101,1020083,,,,,,,2023-02-13,1,,,,,ノーザンスター,0
983,5010001232925,新規,0,2023-02-13,2023-02-13,株式会社ハーモニーレジデンス,,株式会社,東京都,文京区,本駒込３丁目６－２２メゾンティーナ本駒込２０１,,13,105,1130021,,,,,,,2023-02-13,1,,,,,ハーモニーレジデンス,0
993,5010401172465,新規,0,2023-02-13,2023-02-13,株式会社ＡＩｔｈｉｎＱ,,株式会社,東京都,港区,南青山２丁目２番１５号ウィン青山９４２,,13,103,1070062,,,,,,,2023-02-13,1,,,,,アイシンク,0
997,5010601062598,新規,0,2023-02-13,2023-02-13,株式会社ベイシス,,株式会社,東京都,墨田区,立花４丁目１６番４－４０３号オーバルコート立花,,13,107,1310043,,,,,,,2023-02-13,1,,,,,ベイシス,0
999,5010705003473,新規,0,2023-02-13,2023-02-13,一般社団法人デサイロ,,その他の設立登記法人,東京都,品川区,中延３丁目７番１４号,,13,109,1420053,,,,,,,2023-02-13,1,,,,,デサイロ,0
1001,5010901052522,新規,0,2023-02-13,2023-02-13,九倉株式会社,,株式会社,東京都,世田谷区,成城９丁目３番２９号ベルメゾン成城３０５,,13,112,1570066,,,,,,,2023-02-13,1,,,,,キュウソウ,0
1007,5011001152469,新規,0,2023-02-13,2023-02-13,株式会社Ｏｔｔｏ,,株式会社,東京都,渋谷区,鶯谷町７番３号トミーリージェンシー３Ｆ,,13,113,1500032,,,,,,,2023-02-13,1,,,,,オット,0
1008,5011001152543,新規,0,2023-02-13,2023-02-13,株式会社ＯＲＹＺＡ　ＰＥＡＫ,,株式会社,東京都,渋谷区,神宮前６丁目２３番４号桑野ビル２階,,13,113,1500001,,,,,,,2023-02-13,1,,,,,オリザピーク,0
1011,5011003016250,新規,0,2023-02-13,2023-02-13,ＤＲＯＰＳ合同会社,,合同会社,東京都,渋谷区,道玄坂１丁目１０番８号渋谷道玄坂東急ビル２Ｆ－Ｃ,,13,113,1500043,,,,,,,2023-02-13,1,,,,,ドロップス,0
1014,5011103012694,新規,0,2023-02-13,2023-02-13,合同会社エヌ,,合同会社,東京都,新宿区,西新宿３丁目３番１３号西新宿水間ビル６階,,13,104,1600023,,,,,,,2023-02-13,1,,,,,エヌ,0
1021,5011501028961,新規,0,2023-02-13,2023-02-13,株式会社ＡＺ　ＯＮＥ,,株式会社,東京都,荒川区,町屋７丁目１３番５号,,13,118,1160001,,,,,,,2023-02-13,1,,,,,アズワン,0
1024,5011701026006,新規,0,2023-02-13,2023-02-13,株式会社舜コーポレーション,,株式会社,東京都,江戸川区,鹿骨１丁目３８番１５号,,13,123,1330073,,,,,,,2023-02-13,1,,,,,シュンコーポレーション,0
1053,5021005012734,新規,0,2023-02-13,2023-02-13,一般社団法人あつぎものしり委員会,,その他の設立登記法人,神奈川県,厚木市,中町３丁目４番１３号,,14,212,2430018,,,,,,,2023-02-13,1,,,,,アツギモノシリイインカイ,0
1058,5030001152304,新規,0,2023-02-13,2023-02-13,株式会社聖枷,,株式会社,埼玉県,川口市,川口１丁目１番３－２５０２号オーベルタワー川口コラージュ,,11,203,3320015,,,,,,,2023-02-13,1,,,,,セイカ,0
1070,5040001127040,新規,0,2023-02-13,2023-02-13,株式会社島津工業,,株式会社,千葉県,市川市,中山３丁目１６番２号,,12,203,2720813,,,,,,,2023-02-13,1,,,,,シマヅコウギョウ,0
1071,5040001127049,新規,0,2023-02-13,2023-02-13,株式会社Ｓｔｅｐｗｅｌｌ,,株式会社,千葉県,松戸市,小金１４０番地６,,12,207,2700014,,,,,,,2023-02-13,1,,,,,ステップウェル,0
1074,5040003021927,新規,0,2023-02-13,2023-02-13,合同会社ベルス・アイラッシュ,,合同会社,千葉県,千葉市中央区,春日２丁目２１番１０号西千葉マンション５０４号,,12,101,2600033,,,,,,,2023-02-13,1,,,,,ベルスアイラッシュ,0
1075,5040003021935,新規,0,2023-02-13,2023-02-13,合同会社プロポート,,合同会社,千葉県,千葉市花見川区,こてはし台２丁目５番６号,,12,102,2620005,,,,,,,2023-02-13,1,,,,,プロポート,0
1083,5060001035687,新規,0,2023-02-13,2023-02-13,株式会社影山ジャパン,,株式会社,栃木県,足利市,大前町１５３５番地１,,09,202,3260845,,,,,,,2023-02-13,1,,,,,カゲヤマジャパン,0
1106,5120001252400,新規,0,2023-02-13,2023-02-13,艾林株式会社,,株式会社,大阪府,大阪市天王寺区,悲田院町４－３９朝日プラザ天王寺パサージュ５０４号室,,27,109,5430055,,,,,,,2023-02-13,1,,,,,ガイリン,0
1107,5120001252433,新規,0,2023-02-13,2023-02-13,エックスブランディング株式会社,,株式会社,大阪府,大阪市北区,大深町４番２０号グランフロント大阪タワーＡ,,27,127,5300011,,,,,,,2023-02-13,1,,,,,エックスブランディング,0
1108,5120001252441,新規,0,2023-02-13,2023-02-13,ＢＳ．Ｊａｐａｎ株式会社,,株式会社,大阪府,大阪市北区,中崎２丁目５番８－２０８号,,27,127,5300016,,,,,,,2023-02-13,1,,,,,ビーエスジャパン,0
1109,5120001252458,新規,0,2023-02-13,2023-02-13,ＷＪ株式会社,,株式会社,大阪府,大阪市東淀川区,西淡路１丁目１番９号ビジネス新大阪,,27,114,5330031,,,,,,,2023-02-13,1,,,,,ダブルジェイ,0
1110,5120001252474,新規,0,2023-02-13,2023-02-13,意良商事株式会社,,株式会社,大阪府,大阪市淀川区,十三元今里２丁目１２番２５号１０２室,,27,123,5320028,,,,,,,2023-02-13,1,,,,,イリョウショジ,0
1111,5120001252482,新規,0,2023-02-13,2023-02-13,株式会社プレーゼ,,株式会社,大阪府,大阪市此花区,西九条１丁目１８番６号,,27,104,5540012,,,,,,,2023-02-13,1,,,,,プレーゼ,0
1112,5120001252490,新規,0,2023-02-13,2023-02-13,ＪＣ商事株式会社,,株式会社,大阪府,大阪市中央区,島之内２丁目９番１４号,,27,128,5420082,,,,,,,2023-02-13,1,,,,,ジェイシーショウジ,0
1117,5120003023428,新規,0,2023-02-13,2023-02-13,合同会社ＴＭＫ,,合同会社,大阪府,大阪市北区,天満２丁目１番２４－１４０１号,,27,127,5300043,,,,,,,2023-02-13,1,,,,,ティーエムケー,0
1120,5120101066989,新規,0,2023-02-13,2023-02-13,株式会社ＫＤテック,,株式会社,大阪府,和泉市,池上町３丁目５番８号,,27,219,5940083,,,,,,,2023-02-13,1,,,,,ケーディーテック,0
1125,5130001073671,新規,0,2023-02-13,2023-02-13,Ｋａｎｉｓａｎ　ｃｒｅａｔｅ株式会社,,株式会社,京都府,長岡京市,開田３丁目６番１５号,,26,209,6170826,,,,,,,2023-02-13,1,,,,,カニサンクリエイト,0
1126,5130005016701,新規,0,2023-02-13,2023-02-13,一般社団法人京都フェニックス,,その他の設立登記法人,京都府,京都市北区,等持院東町５１番地７,,26,101,6038343,,,,,,,2023-02-13,1,,,,,キョウトフェニックス,0
1133,5140001129101,新規,0,2023-02-13,2023-02-13,株式会社ｗｅｌｌｓｔｏｎｅ,,株式会社,兵庫県,西宮市,上甲子園１丁目３番１５号,,28,204,6638114,,,,,,,2023-02-13,1,,,,,ウエルストーン,0
1142,5150001026173,新規,0,2023-02-13,2023-02-13,株式会社ヨシカワ,,株式会社,奈良県,香芝市,北今市４丁目２０８番地１,,29,210,6390242,,,,,,,2023-02-13,1,,,,,ヨシカワ,0
1143,5160001024829,新規,0,2023-02-13,2023-02-13,株式会社Ｂｕｉｌｄ・ｐｌｕｓ・ｃｏｒｐ,,株式会社,滋賀県,長浜市,八幡中山町３４６番地,,25,203,5260021,,,,,,,2023-02-13,1,,,,,ビルドプラスコープ,0
1147,5180001154938,新規,0,2023-02-13,2023-02-13,株式会社ケアヒルズインベストメント,,株式会社,愛知県,名古屋市中村区,名駅５丁目３３－２１,,23,105,4500002,,,,,,,2023-02-13,1,,,,,ケアヒルズインベストメント,0
1148,5180001154970,新規,0,2023-02-13,2023-02-13,ＹＵＴＡＫＡ‐ＦｌｏｗＬｉｆｅ株式会社,,株式会社,愛知県,名古屋市守山区,小幡南３丁目１１番７号,,23,113,4630048,,,,,,,2023-02-13,1,,,,,ユタカフローライフ,0
1154,5180301037099,新規,0,2023-02-13,2023-02-13,株式会社一建,,株式会社,愛知県,岡崎市,保母町字新巻１３番地,,23,202,4440004,,,,,,,2023-02-13,1,,,,,カズケン,0
1162,5200003005839,新規,0,2023-02-13,2023-02-13,合同会社ギャラリー高山,,合同会社,岐阜県,高山市,上岡本町１丁目４４０番地,,21,203,5060055,,,,,,,2023-02-13,1,,,,,ギャラリータカヤマ,0
1168,5240002054899,新規,0,2023-02-13,2023-02-13,有限会社田中鉄工所,,有限会社,広島県,大竹市,玖波町甲８６８番地,,34,211,7390656,,,,,,,2023-02-13,1,,,,,タナカテッコウショ,0
1179,5290001100550,新規,0,2023-02-13,2023-02-13,株式会社はそあファーマシー,,株式会社,福岡県,福岡市東区,高美台１丁目１３番７号,,40,131,8110215,,,,,,,2023-02-13,1,,,,,ハソアファーマシー,0
1182,5290801029279,新規,0,2023-02-13,2023-02-13,株式会社西蒼サーベイエンジニア,,株式会社,福岡県,遠賀郡水巻町,吉田西２丁目１６番１５号,,40,382,8070046,,,,,,,2023-02-13,1,,,,,ニシソウサーベイエンジニア,0
1189,5340001025362,新規,0,2023-02-13,2023-02-13,株式会社ＭＵＲＡＯＫＡ,,株式会社,鹿児島県,鹿児島市,西別府町３１１６番地１４５,,46,201,8900033,,,,,,,2023-02-13,1,,,,,ムラオカ,0
1190,5340001025370,新規,0,2023-02-13,2023-02-13,株式会社日本電業社,,株式会社,鹿児島県,鹿児島市,自由ヶ丘２丁目３３番８号,,46,201,8910106,,,,,,,2023-02-13,1,,,,,ニホンデンギョウシャ,0
1195,5360001031557,新規,0,2023-02-13,2023-02-13,エゾンス株式会社,,株式会社,沖縄県,浦添市,内間２丁目７番６号玉正アパート１０３号室,,47,208,9012121,,,,,,,2023-02-13,1,,,,,エゾンス,0
1203,5430001088433,新規,0,2023-02-13,2023-02-13,株式会社はぴねすらいふ,,株式会社,北海道,札幌市白石区,北郷三条７丁目２番１６号,,01,104,0030833,,,,,,,2023-02-13,1,,,,,ハピネスライフ,0
1206,5430003014726,新規,0,2023-02-13,2023-02-13,合同会社エール,,合同会社,北海道,札幌市南区,北ノ沢３丁目７番３号,,01,106,0050832,,,,,,,2023-02-13,1,,,,,エール,0
1209,5450003002299,新規,0,2023-02-13,2023-02-13,ＴＵＫＡＳＡ企画合同会社,,合同会社,北海道,旭川市,東光八条６丁目５番８号,,01,204,0788348,,,,,,,2023-02-13,1,,,,,ツカサキカク,0
1215,5470003002347,新規,0,2023-02-13,2023-02-13,合同会社ＴＳＪ,,合同会社,香川県,高松市,太田上町２２番地,,37,201,7618074,,,,,,,2023-02-13,1,,,,,ティーエスジェイ,0
1218,5700150100540,新規,0,2023-02-13,2020-10-02,日本キャリア教育学会,,その他,東京都,新宿区,山吹町３５８－５,,13,104,1620801,,,,,,,2020-10-02,1,,,,,ニホンキヤリアキヨウイクガツカイ,0
1225,6010001232908,新規,0,2023-02-13,2023-02-13,ＮＩＰＴ　Ｊａｐａｎ株式会社,,株式会社,東京都,中央区,日本橋小舟町１番５－５０２号,,13,102,1030024,,,,,,,2023-02-13,1,,,,,ニプトジャパン,0
1226,6010001232949,新規,0,2023-02-13,2023-02-13,株式会社Ｉｚａｎａｍｉ　Ｇａｍｅ　Ｌａｂ,,株式会社,東京都,千代田区,岩本町３丁目９番１７号スリーセブンビル５階,,13,101,1010032,,,,,,,2023-02-13,1,,,,,イザナミゲームラボ,0
1230,6010005036248,新規,0,2023-02-13,2023-02-13,ＤＣ４一般社団法人,,その他の設立登記法人,東京都,中央区,新富１丁目１５番３号ジパングアウトソーシングサービス株式会社内,,13,102,1040041,,,,,,,2023-02-13,1,,,,,ディーシーフォー,0
1235,6010401172472,新規,0,2023-02-13,2023-02-13,株式会社Ｐｏｔｏｃｋｉ,,株式会社,東京都,港区,南青山２丁目２番１５号,,13,103,1070062,,,,,,,2023-02-13,1,,,,,ポトツキ,0
1236,6010401172480,新規,0,2023-02-13,2023-02-13,株式会社アドル,,株式会社,東京都,港区,赤坂１丁目１２－３２,,13,103,1070052,,,,,,,2023-02-13,1,,,,,アドル,0
1240,6010405021782,新規,0,2023-02-13,2023-02-13,一般社団法人日本囲碁将棋協会,,その他の設立登記法人,東京都,港区,芝浦４丁目２０番２－３２０２号,,13,103,1080023,,,,,,,2023-02-13,1,,,,,ニホンイゴショウギキョウカイ,0
1241,6010405021816,新規,0,2023-02-13,2023-02-13,一般社団法人エスエフエー,,その他の設立登記法人,東京都,港区,虎ノ門３丁目２２番１０－２０１号,,13,103,1050001,,,,,,,2023-02-13,1,,,,,エスエフエー,0
1243,6010501050000,新規,0,2023-02-13,2023-02-13,建通住販株式会社,,株式会社,東京都,台東区,北上野１丁目７番３号諏訪ビル３階,,13,106,1100014,,,,,,,2023-02-13,1,,,,,ケンツウジュウハン,0
1244,6010603010001,新規,0,2023-02-13,2023-02-13,合同会社おむらいオムライス,,合同会社,東京都,墨田区,文花１丁目１８番１３号,,13,107,1310044,,,,,,,2023-02-13,1,,,,,オムライオムライス,0
1253,6010801033679,新規,0,2023-02-13,2023-02-13,東錦株式会社,,株式会社,東京都,大田区,西蒲田７丁目４３番９号ザ・シティ蒲田ＩＩ７階,00129411,13,111,1440051,,,,,,,2023-02-13,1,,,,,トウキン,0
1254,6010803004447,新規,0,2023-02-13,2023-02-13,合同会社ＯＳＣ,,合同会社,東京都,大田区,山王１丁目６番３２号Ｍ’ｓＨＡＵＳ１０１,,13,111,1430023,,,,,,,2023-02-13,1,,,,,オーエスシー,0
1255,6010805003001,新規,0,2023-02-13,2023-02-13,一般社団法人コンテ,,その他の設立登記法人,東京都,大田区,南六郷３丁目１０番１６号,,13,111,1440045,,,,,,,2023-02-13,1,,,,,コンテ,0
1262,6011001152468,新規,0,2023-02-13,2023-02-13,株式会社ダダ,,株式会社,東京都,渋谷区,神宮前６丁目２３番４号桑野ビル２階,,13,113,1500001,,,,,,,2023-02-13,1,,,,,ダダ,0
1271,6011303004664,新規,0,2023-02-13,2023-02-13,合同会社ＺＵＣＣＯ,,合同会社,東京都,杉並区,荻窪４丁目２７番２号,,13,115,1670051,,,,,,,2023-02-13,1,,,,,ズッコ,0
1285,6021001078200,新規,0,2023-02-13,2023-02-13,株式会社松崎建設,00129413,株式会社,神奈川県,藤沢市,城南３丁目６番６～１１０６号,,14,205,2510057,,,,,,,2023-02-13,1,,,,,マツザキケンセツ,0
1289,6021005012733,新規,0,2023-02-13,2023-02-13,特定非営利活動法人鎌倉育ちあいの家,,その他の設立登記法人,神奈川県,鎌倉市,御成町６－１５,,14,204,2480012,,,,,,,2023-02-13,1,,,,,カマクラソダチアイノイエ,0
1297,6030001152303,新規,0,2023-02-13,2023-02-13,光トラック株式会社,,株式会社,埼玉県,八潮市,中央３丁目１５－１８,,11,234,3400816,,,,,,,2023-02-13,1,,,,,ヒカリトラック,0
1298,6030001152344,新規,0,2023-02-13,2023-02-13,株式会社Ｉｎ　Ｓｔｙｌｅ　ｃｏｒｐ．,,株式会社,埼玉県,川口市,南鳩ヶ谷５丁目９番１８号,,11,203,3340013,,,,,,,2023-02-13,1,,,,,インスタイルコープ,0
1311,6040001127048,新規,0,2023-02-13,2023-02-13,株式会社マメノキ,,株式会社,千葉県,富津市,志駒１１８９,,12,226,2991745,,,,,,,2023-02-13,1,,,,,マメノキ,0
1312,6040001127064,新規,0,2023-02-13,2023-02-13,株式会社ＳＱ建創,,株式会社,千葉県,船橋市,田喜野井５丁目２９番８号,,12,204,2740073,,,,,,,2023-02-13,1,,,,,エスキュケンソウ,0
1319,6050001052393,新規,0,2023-02-13,2023-02-13,株式会社稲敷コミュニティ,,株式会社,茨城県,稲敷市,神宮寺２０１０番地１８,,08,229,3000622,,,,,,,2023-02-13,1,,,,,イナシキコミュニティ,0
1324,6070001040124,新規,0,2023-02-13,2023-02-13,ＮＡＷＡＢ　ＴＲＡＤＩＮＧ株式会社,,株式会社,群馬県,邑楽郡板倉町,大字西岡７４６番地９,,10,521,3740107,,,,,,,2023-02-13,1,,,,,ナワブトレーディング,0
1334,6090001017979,新規,0,2023-02-13,2023-02-13,株式会社サンマル,,株式会社,山梨県,甲斐市,西八幡３５０５番地１,,19,210,4000117,,,,,,,2023-02-13,1,,,,,サンマル,0
1356,6120001252473,新規,0,2023-02-13,2023-02-13,富力株式会社,,株式会社,大阪府,大阪市浪速区,恵美須西３丁目５番９号,,27,111,5560003,,,,,,,2023-02-13,1,,,,,フリョク,0
1361,6120101066988,新規,0,2023-02-13,2023-02-13,株式会社白馬交通,,株式会社,大阪府,羽曳野市,古市６丁目１２番２６号,,27,222,5830852,,,,,,,2023-02-13,1,,,,,ハクバコウツウ,0
1365,6120901047114,新規,0,2023-02-13,2023-02-13,株式会社グランソル,,株式会社,大阪府,吹田市,千里山西１丁目３２－３,,27,205,5650851,,,,,,,2023-02-13,1,,,,,グランソル,0
1372,6160003002798,新規,0,2023-02-13,2023-02-13,Ｙ２　Ｉｎｃｕｂａｔｅ合同会社,,合同会社,滋賀県,草津市,橋岡町２－３７,,25,206,5250065,,,,,,,2023-02-13,1,,,,,ワイツーインキュベート,0
1379,6180001154945,新規,0,2023-02-13,2023-02-13,株式会社名南コンストラクション,,株式会社,愛知県,名古屋市緑区,大清水３丁目１０２５番地の１,,23,114,4580805,,,,,,,2023-02-13,1,,,,,メイナンコンストラクション,0
1380,6180001154961,新規,0,2023-02-13,2023-02-13,株式会社ＮＩＣＯ,,株式会社,愛知県,小牧市,常普請１丁目１９３番地２,,23,219,4850044,,,,,,,2023-02-13,1,,,,,ニコ,0
1381,6180001154978,新規,0,2023-02-13,2023-02-13,株式会社プリマ,,株式会社,愛知県,名古屋市天白区,元八事５丁目１２７番地,,23,116,4680066,,,,,,,2023-02-13,1,,,,,プリマ,0
1398,6200005013442,新規,0,2023-02-13,2023-02-13,口明方村農業會,,その他の設立登記法人,岐阜県,郡上市,（岐阜県郡上郡口明方村大字初納１３２７番地）,,21,219,5014200,,,,,,,2023-02-13,1,,,,,クチミョウガタムラノウギョウカイ,0
1402,6230001019713,新規,0,2023-02-13,2023-02-13,株式会社ユミエリンク,,株式会社,富山県,富山市,東田地方町２丁目１番１９号,,16,201,9300017,,,,,,,2023-02-13,1,,,,,ユミエリンク,0
1404,6240001061086,新規,0,2023-02-13,2023-02-13,ベルマシン株式会社,,株式会社,広島県,広島市安佐北区,可部７丁目１番２３－８号,,34,106,7310221,,,,,,,2023-02-13,1,,,,,ベルマシン,0
1405,6240003006023,新規,0,2023-02-13,2023-02-13,合同会社美・ライズ,,合同会社,広島県,東広島市,八本松町正力１０１４０番地３１,,34,212,7390132,,,,,,,2023-02-13,1,,,,,ミライズ,0
1417,6290001100533,新規,0,2023-02-13,2023-02-13,株式会社Ｆ・フィールド,,株式会社,福岡県,福岡市東区,青葉５丁目１５番９号,,40,131,8130025,,,,,,,2023-02-13,1,,,,,エフフィールド,0
1433,6360003012711,新規,0,2023-02-13,2023-02-13,合同会社のり土木,,合同会社,沖縄県,名護市,字数久田１１番地,,47,209,9050023,,,,,,,2023-02-13,1,,,,,ノリドボク,0
1439,6380001033468,新規,0,2023-02-13,2023-02-13,株式会社ｓｅｃｏｎｄ　ｗｉｌｌｏｗ．,,株式会社,福島県,福島市,堀河町６番１１号Ｒｅ：ＳＱＵＡＲＥ・Ａ号室,,07,201,9608137,,,,,,,2023-02-13,1,,,,,セカンドウィロー,0
1451,6430003014725,新規,0,2023-02-13,2023-02-13,合同会社ＫａｏＫａｏＭａｒｋｅｔ,,合同会社,北海道,札幌市清田区,平岡十条２丁目１７番２３号,,01,110,0040880,,,,,,,2023-02-13,1,,,,,カオカオマーケット,0
1453,6450003002298,新規,0,2023-02-13,2023-02-13,合同会社茂恵技巧,,合同会社,北海道,旭川市,緑町１８丁目３０３２番地の１４セラコーポＣ４１０号室,,01,204,0700823,,,,,,,2023-02-13,1,,,,,モエギコウ,0
1457,6500005008569,新規,0,2023-02-13,2023-02-13,無限責任上野負債整理組合,,その他の設立登記法人,愛媛県,伊予市,上野２２２１番地,,38,210,7993103,,,,,,,2023-02-13,1,,,,,ムゲンセキニンウエノ,0
1458,6500005008577,新規,0,2023-02-13,2023-02-13,保証責任高岸負債整理組合,00129366,その他の設立登記法人,愛媛県,伊予市,双海町上灘甲５６６８番地の１,00129367,38,210,7993202,,,,,,,2023-02-13,1,,,,,,0
1459,6700150048226,新規,0,2023-02-13,2015-10-09,ＵＡゼンセンタカケン　労働組合,,その他,岐阜県,大垣市,新田町３丁目１２３０,,21,202,5030856,,,,,,,2015-10-09,1,,,,,ユーエーゼンセンタカケンロウドウクミアイ,0
1474,7010001232691,新規,0,2023-02-13,2023-02-13,株式会社ＴＡＤホールディングス,,株式会社,東京都,中央区,日本橋２丁目２番２１号,,13,102,1030027,,,,,,,2023-02-13,1,,,,,ティーエーディーホールディングス,0
1475,7010001232915,新規,0,2023-02-13,2023-02-13,株式会社Ｇｒｏｗｔｈ,,株式会社,東京都,千代田区,岩本町３丁目８番８号,,13,101,1010032,,,,,,,2023-02-13,1,,,,,グロウス,0
1476,7010001232956,新規,0,2023-02-13,2023-02-13,ジーナック株式会社,,株式会社,東京都,千代田区,九段南１丁目５番６号りそな九段ビル５ＦＫＳフロア,,13,101,1020074,,,,,,,2023-02-13,1,,,,,ジーナック,0
1477,7010001232980,新規,0,2023-02-13,2023-02-13,ＶＩＰ　Ｓａｌｏｎｓ株式会社,,株式会社,東京都,中央区,銀座３丁目１１－１９エスティメゾン１００４,,13,102,1040061,,,,,,,2023-02-13,1,,,,,ビップサロンズ,0
1480,7010003039821,新規,0,2023-02-13,2023-02-13,Ｓａｉｌｔｈｒｏｕｇｈ　Ｇｌｏｂａｌ合同会社,,合同会社,東京都,中央区,銀座１丁目１２番４号Ｎ＆Ｅ，ＢＬＤ．６Ｆ,,13,102,1040061,,,,,,,2023-02-13,1,,,,,セイルスルーグローバル,0
1481,7010005036247,新規,0,2023-02-13,2023-02-13,ＤＣ３一般社団法人,,その他の設立登記法人,東京都,中央区,新富１丁目１５番３号ジパングアウトソーシングサービス株式会社内,,13,102,1040041,,,,,,,2023-02-13,1,,,,,ディーシースリー,0
1490,7010401172414,新規,0,2023-02-13,2023-02-13,ＣＨＩＮＴ　ＮＥＷ　ＥＮＥＲＧＹ　ＪＡＰＡＮ株式会社,,株式会社,東京都,港区,三田２丁目７番１２号,,13,103,1080073,,,,,,,2023-02-13,1,,,,,チントニューエナジージャパン,0
1491,7010401172447,新規,0,2023-02-13,2023-02-13,ＴＥＮＳＨＩＮ株式会社,,株式会社,東京都,港区,南青山３丁目１番３６号青山丸竹ビル６Ｆ,,13,103,1070062,,,,,,,2023-02-13,1,,,,,テンシン,0
1493,7010403029505,新規,0,2023-02-13,2023-02-13,ＹＡＮＡＧＩ合同会社,,合同会社,東京都,港区,虎ノ門３丁目２２番１０－２０１号,,13,103,1050001,,,,,,,2023-02-13,1,,,,,ヤナギ,0
1494,7010405021807,新規,0,2023-02-13,2023-02-13,ＹＡＮＡＧＩ２一般社団法人,,その他の設立登記法人,東京都,港区,虎ノ門３丁目２２番１０－２０１号,,13,103,1050001,,,,,,,2023-02-13,1,,,,,ヤナギツー,0
1497,7010501049982,新規,0,2023-02-13,2023-02-13,株式会社５３０３,,株式会社,東京都,台東区,台東４丁目３０番６号Ｉ・ＬＩＶＥ・ＦＯＲＥＳＴ７０２号室,,13,106,1100016,,,,,,,2023-02-13,1,,,,,ゴーサンゼロサン,0
1506,7010901052512,新規,0,2023-02-13,2023-02-13,株式会社エルジューク,,株式会社,東京都,世田谷区,等々力３丁目２１番２４号,,13,112,1580082,,,,,,,2023-02-13,1,,,,,エルジューク,0
1513,7011001152483,新規,0,2023-02-13,2023-02-13,２３株式会社,,株式会社,東京都,目黒区,碑文谷５丁目２番５号５階,,13,110,1520003,,,,,,,2023-02-13,1,,,,,ニジュウサン,0
1514,7011001152491,新規,0,2023-02-13,2023-02-13,株式会社ｅｓｐｒｅｓｓｏ,,株式会社,東京都,目黒区,中目黒１丁目４番２０－４０７号,,13,110,1530061,,,,,,,2023-02-13,1,,,,,エスプレッソ,0
1516,7011003016257,新規,0,2023-02-13,2023-02-13,合同会社Ｔｏｕｋａｎ,,合同会社,東京都,渋谷区,道玄坂１丁目１０番８号渋谷道玄坂東急ビル２Ｆ－Ｃ,,13,113,1500043,,,,,,,2023-02-13,1,,,,,トウカン,0
1519,7011101101786,新規,0,2023-02-13,2023-02-13,株式会社背徳グルメ,,株式会社,東京都,新宿区,北新宿１丁目８番２４号,,13,104,1690074,,,,,,,2023-02-13,1,,,,,ハイトクグルメ,0
1520,7011101101811,新規,0,2023-02-13,2023-02-13,Ｒｏｗｗｅｎ株式会社,,株式会社,東京都,新宿区,西新宿３丁目３番１３号西新宿水間ビル６階,,13,104,1600023,,,,,,,2023-02-13,1,,,,,ローウェン,0
1525,7011501028951,新規,0,2023-02-13,2023-02-13,王子郎株式会社,,株式会社,東京都,北区,滝野川２丁目１２－１３立川荘３号室,,13,117,1140023,,,,,,,2023-02-13,1,,,,,オオジロウ,0
1526,7011505002531,新規,0,2023-02-13,2023-02-13,一般社団法人ＦＭＡ国際ボランティアＶＩＤＥＳ,,その他の設立登記法人,東京都,北区,赤羽台４丁目２番１４号,,13,117,1150053,,,,,,,2023-02-13,1,,,,,エフエムエーコクサイボランティアヴィーデス,0
1535,7013303006499,新規,0,2023-02-13,2023-02-13,合同会社コーケン,,合同会社,東京都,豊島区,西池袋５丁目１３番１８号ニシイケバレイＡｔｔｉｃ,,13,116,1710021,,,,,,,2023-02-13,1,,,,,コーケン,0
1542,7020001150216,新規,0,2023-02-13,2023-02-13,株式会社エンバイロ,,株式会社,神奈川県,横浜市中区,尾上町４丁目５７番地横浜尾上町ビルディング８Ｆ,,14,104,2310015,,,,,,,2023-02-13,1,,,,,エンバイロ,0
1549,7021001078190,新規,0,2023-02-13,2023-02-13,株式会社ＭＫｃｏｒｐｏｒａｔｉｏｎ,,株式会社,神奈川県,横須賀市,汐入町４丁目１６番地,,14,201,2380042,,,,,,,2023-02-13,1,,,,,エムケーコーポレーション,0
1554,7030001152376,新規,0,2023-02-13,2023-02-13,株式会社Ｈ＆Ｖカンパニー,,株式会社,埼玉県,さいたま市緑区,原山１丁目３２番８号,,11,109,3360931,,,,,,,2023-02-13,1,,,,,エイチアンドブイカンパニー,0
1555,7030001152384,新規,0,2023-02-13,2023-02-13,株式会社如西,,株式会社,埼玉県,越谷市,レイクタウン５丁目３４番地１１,,11,222,3430828,,,,,,,2023-02-13,1,,,,,ジョサイ,0
1556,7030001152392,新規,0,2023-02-13,2023-02-13,ＡＦＺＡ　ＴＲＡＤＩＮＧ株式会社,,株式会社,埼玉県,八潮市,緑町２丁目２８番２７プチ・ポワール１０３号室,,11,234,3400808,,,,,,,2023-02-13,1,,,,,アフザトレーディング,0
1566,7040001127047,新規,0,2023-02-13,2023-02-13,致念閣株式会社,,株式会社,千葉県,野田市,山崎１３２４番地の３鳳鳴大楼マンション４０１号室,,12,208,2780022,,,,,,,2023-02-13,1,,,,,チネンカク,0
1567,7040001127055,新規,0,2023-02-13,2023-02-13,株式会社ＨｉｌｏＷｉｓｈ,,株式会社,千葉県,松戸市,馬橋３２２５番地,,12,207,2710051,,,,,,,2023-02-13,1,,,,,ヒロウィッシュ,0
1568,7040001127063,新規,0,2023-02-13,2023-02-13,株式会社小沼興業,,株式会社,千葉県,柏市,増尾８丁目３３番８号,,12,217,2770033,,,,,,,2023-02-13,1,,,,,オヌマコウギョウ,0
1572,7040003021925,新規,0,2023-02-13,2023-02-13,うなう合同会社,,合同会社,千葉県,千葉市中央区,春日２丁目１９－４,,12,101,2600033,,,,,,,2023-02-13,1,,,,,ウナウ,0
1573,7040003021933,新規,0,2023-02-13,2023-02-13,ＡＥＡ合同会社,,合同会社,千葉県,印旛郡栄町,安食台４丁目２７番７号,,12,329,2701515,,,,,,,2023-02-13,1,,,,,エーイーエ,0
1581,7080001025461,新規,0,2023-02-13,2023-02-13,ケムジーンジャパン株式会社,,株式会社,静岡県,静岡市清水区,緑が丘町６－１２,,22,103,4240928,,,,,,,2023-02-13,1,,,,,ケムジーンジャパン,0
1584,7100001036150,新規,0,2023-02-13,2023-02-13,株式会社サンアンドレインボウズ,,株式会社,長野県,長野市,川中島町上氷鉋８８０－１,,20,201,3812233,,,,,,,2023-02-13,1,,,,,サンアンドレインボウズ,0
1597,7120001252448,新規,0,2023-02-13,2023-02-13,株式会社韓丸観光バス,,株式会社,大阪府,大阪市生野区,巽西１丁目１番１８号エルグリーンたつみ９１７,00129410,27,116,5440012,,,,,,,2023-02-13,1,,,,,ハンマルカンコウバス,0
1598,7120001252464,新規,0,2023-02-13,2023-02-13,株式会社Ｐｌａｙａｂｌｅ,,株式会社,大阪府,大阪市北区,西天満５丁目１４－３エスリード西天満７０３,,27,127,5300047,,,,,,,2023-02-13,1,,,,,プレイアブル,0
1599,7120001252472,新規,0,2023-02-13,2023-02-13,ＣＬＳＨ株式会社,,株式会社,大阪府,大阪市北区,万歳町１番６号ＳＴＡＲＳビル２０４号室,,27,127,5300028,,,,,,,2023-02-13,1,,,,,クラッシュ,0
1604,7120003023418,新規,0,2023-02-13,2023-02-13,青川合同会社,,合同会社,大阪府,大阪市東成区,玉津２丁目１１番７号スタートライン玉津３０３号室,,27,115,5370023,,,,,,,2023-02-13,1,,,,,アオカワ,0
1605,7120005023473,新規,0,2023-02-13,2023-02-13,一般社団法人豊能同胞生活相談センター,,その他の設立登記法人,大阪府,大阪市淀川区,東三国４丁目２２番１号,,27,123,5320002,,,,,,,2023-02-13,1,,,,,トヨノドウホウセイカツソウダンセンター,0
1614,7130003008533,新規,0,2023-02-13,2023-02-13,合同会社エムエヌ２,,合同会社,京都府,京都市左京区,吉田牛ノ宮町２５番地１,,26,103,6068302,,,,,,,2023-02-13,1,,,,,エムエヌツー,0
1624,7140001129082,新規,0,2023-02-13,2023-02-13,株式会社Ｆｉｒｓｔ,,株式会社,兵庫県,姫路市,河間町３７番地・野里ビルＢ,,28,201,6700001,,,,,,,2023-02-13,1,,,,,ファースト,0
1625,7140001129116,新規,0,2023-02-13,2023-02-13,株式会社いいねスタッフ,,株式会社,兵庫県,神戸市灘区,友田町４丁目３番２５－２０１号,,28,102,6570035,,,,,,,2023-02-13,1,,,,,イイネスタッフ,0
1632,7140003018705,新規,0,2023-02-13,2023-02-13,ＡＹＤＨＡ　ＣＯＭＰＡＮＹ合同会社,,合同会社,兵庫県,神戸市須磨区,禅昌寺１－１６－３３－２０２禅昌寺ハイツ,,28,107,6540000,,,,,,,2023-02-13,1,,,,,アイダカンパニー,0
1633,7140003018713,新規,0,2023-02-13,2023-02-13,ＧＵＭＵ　ＣＯＲＰ合同会社,,合同会社,兵庫県,豊岡市,日高町栗栖野９５６番地の１,,28,209,6695372,,,,,,,2023-02-13,1,,,,,グムコープ,0
1635,7150001026171,新規,0,2023-02-13,2023-02-13,株式会社リニアスタッフ,,株式会社,奈良県,大和高田市,永和町６－２８,,29,202,6350083,,,,,,,2023-02-13,1,,,,,リニアスタッフ,0
1646,7180001154886,新規,0,2023-02-13,2023-02-13,ナイトプランナー株式会社,,株式会社,愛知県,名古屋市東区,葵１丁目６番３号ジョイン明和３階,,23,102,4610004,,,,,,,2023-02-13,1,,,,,ナイトプランナー,0
1652,7200001040951,新規,0,2023-02-13,2023-02-13,株式会社シーリバイヴ,,株式会社,岐阜県,高山市,桐生町２丁目１１５番地３,,21,203,5060004,,,,,,,2023-02-13,1,,,,,シーリバイヴ,0
1653,7210001019235,新規,0,2023-02-13,2023-02-13,松尾産業株式会社,,株式会社,福井県,あわら市,河間第１号８番地,,18,208,9104142,,,,,,,2023-02-13,1,,,,,マツオサンギョウ,0
1654,7210003001612,新規,0,2023-02-13,2023-02-13,合同会社トーヨーサービス,,合同会社,福井県,敦賀市,金ケ崎町９番１７号,,18,202,9140072,,,,,,,2023-02-13,1,,,,,トーヨーサービス,0
1658,7230001019712,新規,0,2023-02-13,2023-02-13,株式会社Ｒｅｓｍｉｌｅ,,株式会社,富山県,砺波市,高波１１３８番地,,16,208,9391341,,,,,,,2023-02-13,1,,,,,リスミル,0
1665,7280001008883,新規,0,2023-02-13,2023-02-13,株式会社創,,株式会社,島根県,出雲市,中野町５２５番地３,,32,203,6930062,,,,,,,2023-02-13,1,,,,,ソウ,0
1666,7280005007535,新規,0,2023-02-13,2023-02-13,石見銀山大田ひと・まちづくり事業協同組合,,その他の設立登記法人,島根県,大田市,大森町ハ５１番地１,,32,205,6940305,,,,,,,2023-02-13,1,,,,,イワミギンザンオオダヒトマチヅクリ,0
1681,7330001030592,新規,0,2023-02-13,2023-02-13,株式会社一心ＵＮＩＴＹ,,株式会社,熊本県,熊本市中央区,水前寺２丁目１７番１－８０１号,,43,101,8620950,,,,,,,2023-02-13,1,,,,,イッシンユニティー,0
1690,7360001031555,新規,0,2023-02-13,2023-02-13,湯城株式会社,,株式会社,沖縄県,那覇市,泊１丁目７番地３,,47,201,9000012,,,,,,,2023-02-13,1,,,,,ユウキ,0
1697,7430001088407,新規,0,2023-02-13,2023-02-13,いしかり海産株式会社,,株式会社,北海道,石狩市,新港南３丁目７００番地３,,01,235,0613244,,,,,,,2023-02-13,1,,,,,イシカリカイサン,0
1700,7430003014732,新規,0,2023-02-13,2023-02-13,合同会社トムトイ,,合同会社,北海道,石狩市,花畔二条１丁目８番地１,,01,235,0613282,,,,,,,2023-02-13,1,,,,,トムトイ,0
1702,7440001009221,新規,0,2023-02-13,2023-02-13,株式会社ＭｌｉＭ,,株式会社,北海道,函館市,本町２番１号,,01,202,0400011,,,,,,,2023-02-13,1,,,,,ミリム,0
1713,7500005008576,新規,0,2023-02-13,2023-02-13,無限責任八倉東組負債整理組合,,その他の設立登記法人,愛媛県,伊予市,八倉,,38,210,7993101,,,,,,,2023-02-13,1,,,,,,0
1714,7700150113895,新規,0,2023-02-13,2023-01-24,能美市移住定住促進協議会,,その他,石川県,能美市,来丸町１１１０番地,,17,211,9231244,,,,,,,2023-01-24,1,,,,,ノミシイジユウテイジユウソクシンキヨウギカイ,0
1715,7700150114290,新規,0,2023-02-13,2023-02-13,カブシキガイシャパラダイスセガサミー,,外国会社等,東京都,港区,赤坂７丁目９番１号３階,,13,103,1070052,大韓民国仁川広域市中区永宗海岸南路３２１番ギル１８６（雲西洞、パラダイスシティ）,,,,,,2023-02-13,1,,,,,カブシキガイシヤパラダイスセガサミー,0
1725,8010001232872,新規,0,2023-02-13,2023-02-13,株式会社ＭＩＹＡ名品,,株式会社,東京都,中央区,銀座８丁目１２番３号ＳＲビル６階,,13,102,1040061,,,,,,,2023-02-13,1,,,,,ミヤメイヒン,0
1726,8010001232914,新規,0,2023-02-13,2023-02-13,ウェルキャリ株式会社,,株式会社,東京都,千代田区,岩本町３丁目８番８号,,13,101,1010032,,,,,,,2023-02-13,1,,,,,ウェルキャリ,0
1727,8010001232939,新規,0,2023-02-13,2023-02-13,シー・シックス・フォー・ホールディングス株式会社,,株式会社,東京都,千代田区,丸の内２丁目４番１号,,13,101,1000005,,,,,,,2023-02-13,1,,,,,シーシックスフォーホールディングス,0
1731,8010003039812,新規,0,2023-02-13,2023-02-13,合同会社インスタグラム研究所,,合同会社,東京都,中央区,銀座１丁目１２番４号Ｎ＆ＥＢＬＤ．６Ｆ,,13,102,1040061,,,,,,,2023-02-13,1,,,,,インスタグラムケンキュウジョ,0
1732,8010003039829,新規,0,2023-02-13,2023-02-13,男鹿潟上秋田洋上風力合同会社,,合同会社,東京都,千代田区,大手町１丁目４番２号,,13,101,1000004,,,,,,,2023-02-13,1,,,,,オガカタガミアキタヨウジョウフウリョク,0
1740,8010701043842,新規,0,2023-02-13,2023-02-13,Ｒ株式会社,,株式会社,東京都,品川区,西大井４丁目３番７号,,13,109,1400015,,,,,,,2023-02-13,1,,,,,アール,0
1741,8010701043850,新規,0,2023-02-13,2023-02-13,ＨＯＯＫ　ＵＰ株式会社,,株式会社,東京都,品川区,西五反田６丁目３－１９Ｓ－ＶＵＩＴＴＯＮＫＡＭＢＡＲＡ６０１,,13,109,1410031,,,,,,,2023-02-13,1,,,,,フックアップ,0
1742,8010703006582,新規,0,2023-02-13,2023-02-13,ＬＯＮＴＡＮＯ合同会社,,合同会社,東京都,品川区,大崎１丁目２番３－２６１２号,,13,109,1410032,,,,,,,2023-02-13,1,,,,,ロンターノ,0
1756,8011001152466,新規,0,2023-02-13,2023-02-13,株式会社ＥＢＩＳＵＷＯＲＫ,,株式会社,東京都,渋谷区,道玄坂１丁目１０番８号渋谷道玄坂東急ビル２Ｆ－Ｃ,,13,113,1500043,,,,,,,2023-02-13,1,,,,,エビスワーク,0
1759,8011003016248,新規,0,2023-02-13,2023-02-13,合同会社ｎｏ,,合同会社,東京都,渋谷区,道玄坂１丁目１０番８号渋谷道玄坂東急ビル２Ｆ－Ｃ,,13,113,1500043,,,,,,,2023-02-13,1,,,,,ノー,0
1760,8011003016256,新規,0,2023-02-13,2023-02-13,合同会社Ｗｉｎｔ２,,合同会社,東京都,渋谷区,円山町５番５号Ｎａｖｉ渋谷Ｖ３階,,13,113,1500044,,,,,,,2023-02-13,1,,,,,ウィント,0
1761,8011005009943,新規,0,2023-02-13,2023-02-13,一般社団法人日本産業医連盟,,その他の設立登記法人,東京都,渋谷区,道玄坂１丁目１４番６号,,13,113,1500043,,,,,,,2023-02-13,1,,,,,,0
1765,8011201024416,新規,0,2023-02-13,2023-02-13,株式会社よゆう,,株式会社,東京都,中野区,大和町４丁目５０番５号パーシモア＃１,,13,114,1650034,,,,,,,2023-02-13,1,,,,,ヨユウ,0
1766,8011501028950,新規,0,2023-02-13,2023-02-13,株式会社ＭＤＬ,,株式会社,東京都,荒川区,西日暮里３丁目５番１号神丸ビル５Ｆ,,13,118,1160013,,,,,,,2023-02-13,1,,,,,ミドル,0
1769,8011803005508,新規,0,2023-02-13,2023-02-13,Ｐｒａｖｉｔ　Ｔｏｄｄ合同会社,,合同会社,東京都,足立区,青井５丁目１８番６号,,13,121,1210012,,,,,,,2023-02-13,1,,,,,プラウィットトッド,0
1770,8012301013309,新規,0,2023-02-13,2023-02-13,株式会社ベイフィールド,,株式会社,東京都,町田市,常盤町３１０９番地３０,,13,209,1940213,,,,,,,2023-02-13,1,,,,,ベイフィールド,0
1771,8012401040178,新規,0,2023-02-13,2023-02-13,株式会社ｍ．ｋ．ｍ,,株式会社,東京都,三鷹市,野崎２丁目１２番－９号－１０２,,13,204,1810014,,,,,,,2023-02-13,1,,,,,エムケイエム,0
1783,8020001150264,新規,0,2023-02-13,2023-02-13,株式会社ＴＧＫパートナー,,株式会社,神奈川県,横浜市中区,簑沢１０番地－２Ｆ,,14,104,2310856,,,,,,,2023-02-13,1,,,,,ティージーケーパートナー,0
1784,8020005015843,新規,0,2023-02-13,2023-02-13,一般社団法人相続相談の窓口,,その他の設立登記法人,神奈川県,川崎市多摩区,登戸３３７５番地１第２ＴＳＳビル５０３,,14,135,2140014,,,,,,,2023-02-13,1,,,,,ソウゾクソウダンノマドグチ,0
1796,8030001152375,新規,0,2023-02-13,2023-02-13,株式会社オクデラ,,株式会社,埼玉県,上尾市,大字瓦葺５４４番地１黒須ビル１０５,,11,219,3620022,,,,,,,2023-02-13,1,,,,,オクデラ,0
1797,8030001152391,新規,0,2023-02-13,2023-02-13,株式会社コバデン,,株式会社,埼玉県,加須市,大門町１番２号,,11,210,3470068,,,,,,,2023-02-13,1,,,,,コバデン,0
1798,8030003021165,新規,0,2023-02-13,2023-02-13,ＴＩＰＯ　ＴＲＡＤＩＮＧ合同会社,,合同会社,埼玉県,春日部市,倉常３７６番地３,,11,214,3440136,,,,,,,2023-02-13,1,,,,,ティポトレーディング,0
1806,8040001127038,新規,0,2023-02-13,2023-02-13,株式会社清宝,,株式会社,千葉県,東金市,堀之内５４０番地６,,12,213,2830027,,,,,,,2023-02-13,1,,,,,セイホウ,0
1807,8040001127079,新規,0,2023-02-13,2023-02-13,ＤＥＬＩＣＩＯＵＳ　ＰＬＡＮＴＡＴＩＯＮ株式会社,,株式会社,千葉県,千葉市花見川区,幕張町５丁目４１７番地４,,12,102,2620032,,,,,,,2023-02-13,1,,,,,デリシャスプランテーション,0
1808,8040003021924,新規,0,2023-02-13,2023-02-13,合同会社ＬＥ＆ＪＥ,,合同会社,千葉県,柏市,若柴１７８番地４柏の葉キャンパス１４８街区２ショップ＆オフィス棟６Ｆ,,12,217,2770871,,,,,,,2023-02-13,1,,,,,エルイーアンドジェィイー,0
1810,8050003007237,新規,0,2023-02-13,2023-02-13,合同会社ハレバレ,,合同会社,茨城県,取手市,井野３４５２番地７,,08,217,3020011,,,,,,,2023-02-13,1,,,,,ハレバレ,0
1811,8060001035692,新規,0,2023-02-13,2023-02-13,株式会社オールライフアシスト,,株式会社,栃木県,栃木市,箱森町３７番９号,,09,203,3280075,,,,,,,2023-02-13,1,,,,,オールライフアシスト,0
1820,8080001025460,新規,0,2023-02-13,2023-02-13,ｖｉｂｒｏ株式会社,,株式会社,静岡県,島田市,竹下３３５番地の１,,22,209,4280008,,,,,,,2023-02-13,1,,,,,ヴィブロ,0
1826,8100003006885,新規,0,2023-02-13,2023-02-13,合同会社百笑,,合同会社,長野県,松本市,大字島内３４３３番地５,,20,202,3900851,,,,,,,2023-02-13,1,,,,,ヒャクショウ,0
1831,8110001037295,新規,0,2023-02-13,2023-02-13,株式会社梶原農園,,株式会社,新潟県,新潟市西区,内野潟端２１８６番地２,,15,107,9502141,,,,,,,2023-02-13,1,,,,,カジワラノウエン,0
1841,8120001252397,新規,0,2023-02-13,2023-02-13,Ｎａａａ株式会社,,株式会社,大阪府,大阪市西区,江戸堀２丁目１番１号江戸堀センタービル１５階,,27,106,5500002,,,,,,,2023-02-13,1,,,,,ナー,0
1842,8120001252455,新規,0,2023-02-13,2023-02-13,リーチ株式会社,,株式会社,大阪府,大阪市中央区,南船場４丁目１０番２０号グランドメゾン西心斎橋６１１号室,,27,128,5420081,,,,,,,2023-02-13,1,,,,,リーチ,0
1843,8120001252471,新規,0,2023-02-13,2023-02-13,ホワイトプラス株式会社,,株式会社,大阪府,大阪市東住吉区,山坂１丁目１４番１号アンエリア２０１号,,27,121,5460035,,,,,,,2023-02-13,1,,,,,ホワイトプラス,0
1846,8120003023417,新規,0,2023-02-13,2023-02-13,フレッシュタロ合同会社,,合同会社,大阪府,大阪市平野区,平野市町１丁目１番９号１０２号室,,27,126,5470042,,,,,,,2023-02-13,1,,,,,フレッシュタロ,0
1855,8130001073669,新規,0,2023-02-13,2023-02-13,株式会社福一住宅,,株式会社,京都府,城陽市,平川東垣外６４番地３,,26,207,6100101,,,,,,,2023-02-13,1,,,,,フクイチジュウタク,0
1856,8130001073677,新規,0,2023-02-13,2023-02-13,株式会社あんまん,,株式会社,京都府,京都市下京区,朱雀宝蔵町４４番地共栄ビル２階京都朱雀スタジオ,,26,106,6008846,,,,,,,2023-02-13,1,,,,,アンマン,0
1862,8140001129098,新規,0,2023-02-13,2023-02-13,株式会社エムズアイ,,株式会社,兵庫県,神戸市兵庫区,新開地４丁目１番１１号,,28,105,6520811,,,,,,,2023-02-13,1,,,,,エムズアイ,0
1868,8140003018704,新規,0,2023-02-13,2023-02-13,ＳＩＤＲＡＨ　ＴＲＡＤＩＮＧ合同会社,,合同会社,兵庫県,神戸市須磨区,禅昌寺１－１６－３３禅昌寺ハイツ２０１,,28,107,6540000,,,,,,,2023-02-13,1,,,,,シドラトレーディング,0
1870,8150003002888,新規,0,2023-02-13,2023-02-13,合同会社Ｏｘａｌｉｓ,,合同会社,奈良県,吉野郡大淀町,大字桧垣本１３１０,,29,442,6380812,,,,,,,2023-02-13,1,,,,,オキザリス,0
1871,8160001024826,新規,0,2023-02-13,2023-02-13,株式会社アビリティ,,株式会社,滋賀県,大津市,松原町１７番２７号,,25,201,5200831,,,,,,,2023-02-13,1,,,,,アビリティ,0
1873,8170001017473,新規,0,2023-02-13,2023-02-13,株式会社ＴＲＵＳＴ,,株式会社,和歌山県,和歌山市,平岡３１８番地１,,30,201,6496303,,,,,,,2023-02-13,1,,,,,トラスト,0
1884,8180001154943,新規,0,2023-02-13,2023-02-13,山清閔かるうどん株式会社,,株式会社,愛知県,北名古屋市,熊之庄新宮７９番地コーポ永和,,23,234,4810006,,,,,,,2023-02-13,1,,,,,サンセイミンカルウドン,0
1890,8180301037096,新規,0,2023-02-13,2023-02-13,株式会社ＳＫクリエイト,,株式会社,愛知県,安城市,里町大道畑１番地８０,,23,212,4460001,,,,,,,2023-02-13,1,,,,,エスケイクリエイト,0
1901,8240001061084,新規,0,2023-02-13,2023-02-13,株式会社西香,,株式会社,広島県,安芸郡府中町,宮の町４丁目１７番６号,,34,302,7350005,,,,,,,2023-02-13,1,,,,,セイカ,0
1910,8280001008882,新規,0,2023-02-13,2023-02-13,株式会社ＡＳＡＴＳＵ,,株式会社,島根県,出雲市,今市町７１７番地２Ｆ,,32,203,6930001,,,,,,,2023-02-13,1,,,,,アサツ,0
1919,8290003013525,新規,0,2023-02-13,2023-02-13,合同会社リットグループ,,合同会社,福岡県,福岡市西区,橋本１丁目４番１号,,40,135,8190031,,,,,,,2023-02-13,1,,,,,リットグループ,0
1921,8290005018869,新規,0,2023-02-13,2023-02-13,一般財団法人邪馬台国学会,,その他の設立登記法人,福岡県,久留米市,長門石５丁目３番１４号,,40,203,8300027,,,,,,,2023-02-13,1,,,,,ヤマタイコクガッカイ,0
1923,8290801029276,新規,0,2023-02-13,2023-02-13,株式会社ＵＫ,,株式会社,福岡県,遠賀郡水巻町,猪熊２丁目１０番１４号,,40,382,8070001,,,,,,,2023-02-13,1,,,,,ユーケー,0
1925,8290803004327,新規,0,2023-02-13,2023-02-13,合同会社ＡＲＭ,,合同会社,福岡県,北九州市小倉北区,赤坂４丁目２０番６号,,40,106,8020032,,,,,,,2023-02-13,1,,,,,アーム,0
1933,8330003009709,新規,0,2023-02-13,2023-02-13,合同会社Ｄｒａｗ,,合同会社,熊本県,熊本市東区,健軍本町１７番１３－６０５号,,43,102,8620910,,,,,,,2023-02-13,1,,,,,ドロー,0
1937,8340005009557,新規,0,2023-02-13,2023-02-13,一般社団法人Ｌｏｓｋａ,,その他の設立登記法人,鹿児島県,鹿児島市,下荒田４丁目１６番１５号Ｃｈａｒｍｅ４０３,,46,201,8900056,,,,,,,2023-02-13,1,,,,,ロスカ,0
1944,8370003005984,新規,0,2023-02-13,2023-02-13,オートラボ合同会社,,合同会社,宮城県,仙台市泉区,将監２丁目６番１２号,,04,105,9813132,,,,,,,2023-02-13,1,,,,,オートラボ,0
1948,8380001033474,新規,0,2023-02-13,2023-02-13,株式会社道東高圧工業,,株式会社,福島県,福島市,飯坂町中野字山岸１２番地の２,,07,201,9600261,,,,,,,2023-02-13,1,,,,,ドウトウコウアツコウギョウ,0
1951,8380003005389,新規,0,2023-02-13,2023-02-13,合同会社ピロノ,,合同会社,福島県,郡山市,堂前町１２番地６,,07,203,9638877,,,,,,,2023-02-13,1,,,,,,0
1957,8430001042759,新規,0,2023-02-13,2023-02-13,土岐株式会社,,株式会社,北海道,石狩郡当別町,北栄町３５番地３,,01,303,0610235,,,,,,,2023-02-13,1,,,,,ドキ,0
1958,8430001088389,新規,0,2023-02-13,2023-02-13,株式会社ＷＯＬＦＲＥＡＫＳ,,株式会社,北海道,札幌市南区,藤野四条１１丁目１６番１３号,,01,106,0612284,,,,,,,2023-02-13,1,,,,,ウルフリークス,0
1959,8430001088406,新規,0,2023-02-13,2023-02-13,株式会社Ｍａｋｅ‐ＵＰ,,株式会社,北海道,札幌市東区,本町二条７丁目２番１－２号,,01,103,0650042,,,,,,,2023-02-13,1,,,,,メイクアップ,0
1960,8430001088422,新規,0,2023-02-13,2023-02-13,株式会社ａｌｌｗｏｗ,,株式会社,北海道,札幌市西区,西町南１８丁目５番２３－２０２号,,01,107,0630062,,,,,,,2023-02-13,1,,,,,オールワオ,0
1961,8430003014715,新規,0,2023-02-13,2023-02-13,合同会社もんべつ商事,,合同会社,北海道,沙流郡日高町,字緑町２２番地の１２,,01,601,0592122,,,,,,,2023-02-13,1,,,,,モンベツショウジ,0
1962,8430003014723,新規,0,2023-02-13,2023-02-13,合同会社エヌシマ,,合同会社,北海道,札幌市中央区,南六条西１２丁目７６１番地３エスセーナ南６条ルネス３０２号,,01,101,0640806,,,,,,,2023-02-13,1,,,,,エヌシマ,0
1963,8430003014731,新規,0,2023-02-13,2023-02-13,合同会社富田不動産,,合同会社,北海道,札幌市手稲区,手稲本町二条４丁目８番１２－１３０５号,,01,109,0060022,,,,,,,2023-02-13,1,,,,,トミタフドウサン,0
1978,9010001232921,新規,0,2023-02-13,2023-02-13,株式会社ＵＭＢ,,株式会社,東京都,千代田区,六番町６番４号,,13,101,1020085,,,,,,,2023-02-13,1,,,,,ユーエムビー,0
1979,9010005036245,新規,0,2023-02-13,2023-02-13,一般社団法人ＡＬＪ　Ｈｅａｌｔｈｃａｒｅ３,,その他の設立登記法人,東京都,中央区,日本橋１丁目４番１号,,13,102,1030027,,,,,,,2023-02-13,1,,,,,エーエルジェイヘルスケアスリー,0
1991,9010401172214,新規,0,2023-02-13,2023-02-13,株式会社Ｗｉｔｈ,,株式会社,東京都,港区,浜松町２丁目２番１５号浜松町ダイヤビル２Ｆ,,13,103,1050013,,,,,,,2023-02-13,1,,,,,ウィズ,0
1992,9010401172461,新規,0,2023-02-13,2023-02-13,ニューリテール株式会社,,株式会社,東京都,港区,南青山５丁目１７－２,,13,103,1070062,,,,,,,2023-02-13,1,,,,,ニューリテール,0
1993,9010401172486,新規,0,2023-02-13,2023-02-13,株式会社ビヨンドスクエア,,株式会社,東京都,港区,海岸１丁目７番１号東京ポートシティ竹芝オフィスタワー８階,,13,103,1050022,,,,,,,2023-02-13,1,,,,,ビヨンドスクエア,0
2001,9010501049997,新規,0,2023-02-13,2023-02-13,春暁株式会社,,株式会社,東京都,台東区,松が谷２丁目９番１－４０２号,,13,106,1110036,,,,,,,2023-02-13,1,,,,,シュンギョウ,0
2003,9010701043825,新規,0,2023-02-13,2023-02-13,株式会社Ｂｅｅｔｅｃｈ　Ｊａｐａｎ,,株式会社,東京都,品川区,大井１丁目６番３号,,13,109,1400014,,,,,,,2023-02-13,1,,,,,ビーテックジャパン,0
2004,9010701043841,新規,0,2023-02-13,2023-02-13,株式会社Ｋｉｒａｋｕ,,株式会社,東京都,品川区,上大崎１丁目１５番２５号プラチナレジデンス白金台２０２,,13,109,1410021,,,,,,,2023-02-13,1,,,,,キラク,0
2014,9011001152465,新規,0,2023-02-13,2023-02-13,株式会社Ｓｗｏｒｋｅｒｓ,,株式会社,東京都,渋谷区,恵比寿西１丁目３３番６号１Ｆ,,13,113,1500021,,,,,,,2023-02-13,1,,,,,スワーカーズ,0
2015,9011001152473,新規,0,2023-02-13,2023-02-13,株式会社ＭｉＬＩＮＫＳ,,株式会社,東京都,渋谷区,恵比寿南３丁目１番２４－４０２号,,13,113,1500022,,,,,,,2023-02-13,1,,,,,エムアイリンクス,0
2016,9011001152507,新規,0,2023-02-13,2023-02-13,コーダ株式会社,,株式会社,東京都,渋谷区,千駄ヶ谷５丁目１６番１６号千駄ヶ谷フラワーマンション３０１号室,,13,113,1510051,,,,,,,2023-02-13,1,,,,,コーダ,0
2017,9011001152548,新規,0,2023-02-13,2023-02-13,株式会社Ａｋｕｒｕｈｉ,,株式会社,東京都,渋谷区,道玄坂１丁目１０番８号渋谷道玄坂東急ビル２Ｆ－Ｃ,,13,113,1500043,,,,,,,2023-02-13,1,,,,,アクルヒ,0
2024,9011003016247,新規,0,2023-02-13,2023-02-13,アデヤ合同会社,,合同会社,東京都,渋谷区,幡ヶ谷２丁目１３番４号幡ヶ谷中央ビル１－Ａ,,13,113,1510072,,,,,,,2023-02-13,1,,,,,アデヤ,0
2025,9011003016255,新規,0,2023-02-13,2023-02-13,ＹＲ合同会社,,合同会社,東京都,渋谷区,初台１丁目５１－１初台センタービル,,13,113,1510061,,,,,,,2023-02-13,1,,,,,ワイアール,0
2026,9011003016263,新規,0,2023-02-13,2023-02-13,Ｍｉｎｏ’ａｋａ合同会社,,合同会社,東京都,渋谷区,道玄坂１丁目１０番８号渋谷道玄坂東急ビル２Ｆ－Ｃ,,13,113,1500043,,,,,,,2023-02-13,1,,,,,ミノアカ,0
2034,9011103012690,新規,0,2023-02-13,2023-02-13,ＴＭＣ合同会社,,合同会社,東京都,新宿区,西新宿３丁目７番１号新宿パークタワーＮ３０階０７９号,,13,104,1600023,,,,,,,2023-02-13,1,,,,,ティーエムシー,0
2042,9011503005476,新規,0,2023-02-13,2023-02-13,ＧＤＧＡ合同会社,,合同会社,東京都,北区,西ケ原４丁目５１番３５号,,13,117,1140024,,,,,,,2023-02-13,1,,,,,ジーディージーエー,0
2045,9011701026010,新規,0,2023-02-13,2023-02-13,小美玉インターナショナル株式会社,,株式会社,東京都,江戸川区,松島４丁目１２－７,,13,123,1320031,,,,,,,2023-02-13,1,,,,,オミタマインターナショナル,0
2048,9011803005507,新規,0,2023-02-13,2023-02-13,合同会社Ｌｉｂｅｒｔｙｉｓｔ　ｅｒａ,,合同会社,東京都,葛飾区,小菅４丁目１１－１ライオンズ綾瀬レジデンス５階,,13,122,1240001,,,,,,,2023-02-13,1,,,,,リバティストエラ,0
2051,9013301050324,新規,0,2023-02-13,2023-02-13,合＿株式会社,00129408,株式会社,東京都,豊島区,池袋２丁目５５番１２－２０２号,,13,116,1710014,,,,,,,2023-02-13,1,,,,,ゴウキン,0
2053,9020001150247,新規,0,2023-02-13,2023-02-13,株式会社Ｇｌｏｂａｌ　Ｍｅｄｉｃａｌ　Ｎｅｔｗｏｒｋ,,株式会社,神奈川県,横浜市南区,六ツ川２丁目３番地４８,,14,105,2320066,,,,,,,2023-02-13,1,,,,,グローバルメディカルネットワーク,0
2054,9020001150263,新規,0,2023-02-13,2023-02-13,衆和テクノロジー株式会社,,株式会社,神奈川県,川崎市幸区,神明町１丁目８０番地１オーベルグランディオ川崎９１０,,14,132,2120022,,,,,,,2023-02-13,1,,,,,シュウワテクノロジー,0
2058,9020003023260,新規,0,2023-02-13,2023-02-13,合同会社ｅｌｖｅｓ,,合同会社,神奈川県,横浜市港北区,高田西２丁目２０番１９号ピュアフォレスト３０５,,14,109,2230066,,,,,,,2023-02-13,1,,,,,エルブス,0
2075,9030001152358,新規,0,2023-02-13,2023-02-13,株式会社サクシード,,株式会社,埼玉県,川口市,元郷４丁目２５番３号,,11,203,3320011,,,,,,,2023-02-13,1,,,,,サクシード,0
2076,9030001152382,新規,0,2023-02-13,2023-02-13,株式会社川口組,,株式会社,埼玉県,越谷市,蒲生本町２番２４号プリマベーラ２０５,,11,222,3430837,,,,,,,2023-02-13,1,,,,,カワグチグミ,0
2081,9030003021164,新規,0,2023-02-13,2023-02-13,合同会社未来社,,合同会社,埼玉県,越谷市,大字袋山４７７―７,,11,222,3430032,,,,,,,2023-02-13,1,,,,,ミライシャ,0
2082,9030003021172,新規,0,2023-02-13,2023-02-13,ヒサコエージェンシー合同会社,,合同会社,埼玉県,さいたま市南区,辻７丁目９番７－１０１号,00129412,11,108,3360026,,,,,,,2023-02-13,1,,,,,ヒサコエージェンシー,0
2091,9040003021923,新規,0,2023-02-13,2023-02-13,蜀望合同会社,,合同会社,千葉県,千葉市花見川区,花見川９番１０棟３０６号,,12,102,2620046,,,,,,,2023-02-13,1,,,,,ショクボウ,0
2095,9050001052374,新規,0,2023-02-13,2023-02-13,株式会社ＫＡＩＯＮ,,株式会社,茨城県,取手市,高須２４５２番地,,08,217,3001522,,,,,,,2023-02-13,1,,,,,カイオン,0
2100,9060001035691,新規,0,2023-02-13,2023-02-13,株式会社ＹＫコネクション,,株式会社,栃木県,宇都宮市,西川田本町２丁目６番１８号,,09,201,3210158,,,,,,,2023-02-13,1,,,,,ワイケーコネクション,0
2107,9080403004730,新規,0,2023-02-13,2023-02-13,合同会社千屋組,,合同会社,静岡県,浜松市東区,中田町４３４番地公平館１０２号室,,22,132,4350057,,,,,,,2023-02-13,1,,,,,チヤグミ,0
2112,9100003006884,新規,0,2023-02-13,2023-02-13,合同会社アクアプロモーション,,合同会社,長野県,上水内郡信濃町,大字平岡４３番地４,,20,583,3891315,,,,,,,2023-02-13,1,,,,,アクアプロモーション,0
2128,9120001252462,新規,0,2023-02-13,2023-02-13,株式会社天液酒造,,株式会社,大阪府,大阪市北区,曾根崎新地１丁目７番２１号エスパス北新地８－２階,,27,127,5300002,,,,,,,2023-02-13,1,,,,,テンエキシュゾウ,0
2129,9120001252470,新規,0,2023-02-13,2023-02-13,Ｃｏｎｓｕｍｅｒ　Ｂｅｈａｖｉｏｒ　Ｒｅｓｅａｒｃｈ株式会社,,株式会社,大阪府,大阪市東住吉区,杭全８丁目１１番７号,,27,121,5460002,,,,,,,2023-02-13,1,,,,,コンシューマービヘイバーリサーチ,0
2144,9140001129106,新規,0,2023-02-13,2023-02-13,株式会社龍昇産業,,株式会社,兵庫県,姫路市,上手野３８７番地１,,28,201,6700065,,,,,,,2023-02-13,1,,,,,リュウショウサンギョウ,0
2145,9140001129114,新規,0,2023-02-13,2023-02-13,神広商事株式会社,,株式会社,兵庫県,神戸市中央区,中山手通３丁目５－８中華料理業組合ビル２Ｆ,,28,110,6500004,,,,,,,2023-02-13,1,,,,,シンコウショウジ,0
2149,9140003018711,新規,0,2023-02-13,2023-02-13,合同会社Ｌｉｔ．,,合同会社,兵庫県,丹波篠山市,山田９２番地４,,28,221,6692533,,,,,,,2023-02-13,1,,,,,リット,0
2160,9180001154926,新規,0,2023-02-13,2023-02-13,ＳＢＳ株式会社,,株式会社,愛知県,海部郡飛島村,木場２丁目７２番地,,23,427,4901444,,,,,,,2023-02-13,1,,,,,エスビーエス,0
2161,9180001154934,新規,0,2023-02-13,2023-02-13,株式会社Ｊ．Ｎ．Ｉ　Ａｒｉｓｉｎｇ　ｉｍｐｏｒｔ＆Ｅｘｐｏｒｔ　Ｃｏ．Ｊｐ,,株式会社,愛知県,北名古屋市,六ツ師松葉１５１番地ホワイトウイング大野１０１号,,23,234,4810001,,,,,,,2023-02-13,1,,,,,ジェイエヌアイアライジングインポートアンドエクスポートシオジェイピイ,0
2162,9180001154959,新規,0,2023-02-13,2023-02-13,株式会社ヒートライン,,株式会社,愛知県,東海市,名和町３丁目１１３番地,,23,222,4760002,,,,,,,2023-02-13,1,,,,,ヒートライン,0
2163,9180001154967,新規,0,2023-02-13,2023-02-13,ＳｍａＩＬ株式会社,,株式会社,愛知県,瀬戸市,新明町３５番地の１４,,23,204,4890849,,,,,,,2023-02-13,1,,,,,スマイル,0
2164,9180001154975,新規,0,2023-02-13,2023-02-13,西日本ソーシング株式会社,,株式会社,愛知県,名古屋市中村区,名駅５丁目３１－１０リンクス名駅ビル５Ｆ、６Ｆ,,23,105,4500002,,,,,,,2023-02-13,1,,,,,ニシニホンソーシング,0
2175,9190003004228,新規,0,2023-02-13,2023-02-13,合同会社むすひ,,合同会社,三重県,津市,安濃町妙法寺１１０番地,,24,201,5142314,,,,,,,2023-02-13,1,,,,,ムスヒ,0
2192,9240003006012,新規,0,2023-02-13,2023-02-13,合同会社アグレアーブルスペース,,合同会社,広島県,広島市安佐南区,長束１丁目９番２１号,,34,105,7310135,,,,,,,2023-02-13,1,,,,,アグレアーブルスペース,0
2197,9290003013516,新規,0,2023-02-13,2023-02-13,メイ・トレーズ合同会社,,合同会社,福岡県,宗像市,土穴１丁目３‐４１,,40,220,8114183,,,,,,,2023-02-13,1,,,,,メイトレーズ,0
2214,9360001031561,新規,0,2023-02-13,2023-02-13,株式会社ファンワーク,,株式会社,沖縄県,豊見城市,字高安１１９－１,,47,212,9010242,,,,,,,2023-02-13,1,,,,,ファンワーク,0
2217,9380001033473,新規,0,2023-02-13,2023-02-13,エスクルー株式会社,,株式会社,福島県,郡山市,若葉町４番６号,,07,203,9638011,,,,,,,2023-02-13,1,,,,,エスクルー,0
2218,9390001017153,新規,0,2023-02-13,2023-02-13,株式会社ソラマル,,株式会社,山形県,山形市,瀬波３丁目６番３号,,06,201,9900881,,,,,,,2023-02-13,1,,,,,ソラマル,0
2219,9400001016153,新規,0,2023-02-13,2023-02-13,株式会社西根ルーフ工業,,株式会社,岩手県,盛岡市,大通１丁目７番１５号バーセル大通４０２号,,03,201,0200022,,,,,,,2023-02-13,1,,,,,ニシネルーフコウギョウ,0
2222,9430001088388,新規,0,2023-02-13,2023-02-13,北海道ビルマネジメント株式会社,,株式会社,北海道,札幌市北区,北三十三条西２丁目１－７ＬＩＧＨＴ　ＯＦＦＩＣＥ,,01,102,0010033,,,,,,,2023-02-13,1,,,,,ホッカイドウビルマネジメント,0
2223,9430001088405,新規,0,2023-02-13,2023-02-13,株式会社ｅ宅,,株式会社,北海道,札幌市東区,伏古八条４丁目６番３号,,01,103,0070868,,,,,,,2023-02-13,1,,,,,,0
2224,9430001088421,新規,0,2023-02-13,2023-02-13,株式会社ダイワサービス,,株式会社,北海道,札幌市豊平区,平岸四条２丁目１番２５号,,01,105,0620934,,,,,,,2023-02-13,1,,,,,ダイワサービス,0
2225,9430003014722,新規,0,2023-02-13,2023-02-13,合同会社オートショップ尚,,合同会社,北海道,小樽市,手宮１丁目１番２号,,01,203,0470041,,,,,,,2023-02-13,1,,,,,オートショップナオ,0
2227,9430005014638,新規,0,2023-02-13,2023-02-13,ＢＰＳ北の大地事業協同組合,,その他の設立登記法人,北海道,札幌市中央区,北三条西７丁目１番１号緑苑ビル８０９号,,01,101,0600003,,,,,,,2023-02-13,1,,,,,ビーピーエスキタノダイチ,0
2233,9500005008574,新規,0,2023-02-13,2023-02-13,無限責任宮下負債整理組合,,その他の設立登記法人,愛媛県,伊予市,宮下９６６番地,,38,210,7993102,,,,,,,2023-02-13,1,,,,,,0
2235,9700150114289,新規,0,2023-02-13,2023-02-13,株式会社ティワイエス　東京支店,,外国会社等,東京都,中央区,日本橋大伝馬町１７番５号,,13,102,1030011,大韓民国釜山市江西区ノクサン産業中路１８５（松井洞）,,,,,,2023-02-13,1,,,,,カブシキガイシヤテイワイエストウキヨウシテン,0
