sequenceNumber,corporateNumber,process,correct,updateDate,changeDate,name,nameImageId,kind,prefectureName,cityName,streetNumber,addressImageId,prefectureCode,cityCode,postCode,addressOutside,addressOutsideImageId,closeDate,closeCause,successorCorporateNumber,changeCause,assignmentDate,latest,enName,enPrefectureName,enCityName,enAddressOutside,furigana,hihyoji
12,1010005011560,登記記録の閉鎖等,0,2021-08-10,2021-07-26,特定非営利活動法人国際教育指導者認定協会,,その他の設立登記法人,東京都,中央区,日本橋２丁目２番６号日本橋通り二丁目ビル６階,,13,102,1030027,,,2021-07-26,清算の結了等,,,2015-10-05,1,,,,,コクサイキョウイクシドウシャニンテイキョウカイ,0
28,1010701018875,登記記録の閉鎖等,0,2021-08-10,2021-08-02,アートスタイル株式会社,,株式会社,東京都,品川区,南品川６丁目１１番２７号,,13,109,1400004,,,2021-08-02,清算の結了等,,,2015-10-05,1,,,,,アートスタイル,0
54,1011402006599,登記記録の閉鎖等,0,2021-08-10,2021-08-05,有限会社ナオ・プランニング,,有限会社,東京都,板橋区,板橋４丁目２５番５号,,13,119,1730004,,,2021-08-05,清算の結了等,,,2015-10-05,1,,,,,ナオプランニング,0
68,1020001050909,登記記録の閉鎖等,0,2021-08-10,2021-07-27,株式会社日本エネコン,,株式会社,神奈川県,横浜市戸塚区,戸塚町１９８８番地１９,,14,110,2440003,,,2021-07-27,清算の結了等,,,2015-10-05,1,,,,,ニホンエネコン,0
78,1020002009342,登記記録の閉鎖等,0,2021-08-10,2021-07-30,有限会社アビコ設備,,有限会社,神奈川県,横須賀市,森崎４丁目１６番１号,,14,201,2380023,,,2021-07-30,清算の結了等,,,2015-10-05,1,,,,,アビコセツビ,0
81,1020002071524,登記記録の閉鎖等,0,2021-08-10,2021-08-02,有限会社Ｋ．Ｋポリテックス,,有限会社,神奈川県,横浜市青葉区,市ケ尾町１０５０番地３,,14,117,2250024,,,2021-08-02,合併による解散等,8020001001970,令和３年８月１日川崎市幸区新川崎２番１０号共進精機株式会社（8020001001970）に合併し解散,2015-10-05,1,,,,,ケイケイポリテックス,0
83,1020002102717,登記記録の閉鎖等,0,2021-08-10,2021-07-28,有限会社ＣＯＲＥ８０,,有限会社,神奈川県,川崎市宮前区,宮崎１丁目１０番地３９,,14,136,2160033,,,2021-07-28,清算の結了等,,,2015-10-05,1,,,,,コアエイティ,0
96,1030001077455,登記記録の閉鎖等,0,2021-08-10,2021-07-21,ムサシノ空調株式会社,,株式会社,埼玉県,川口市,西青木１丁目８番２４号,,11,203,3320035,,,2021-07-21,清算の結了等,,,2015-10-05,1,,,,,ムサシノクウチョウ,0
108,1040001059320,登記記録の閉鎖等,0,2021-08-10,2021-07-29,株式会社長生ハウジング,,株式会社,千葉県,茂原市,長尾２６９０番地の６,,12,210,2970073,,,2021-07-29,清算の結了等,,,2015-10-05,1,,,,,チョウセイハウジング,0
109,1040001063842,登記記録の閉鎖等,0,2021-08-10,2021-07-29,株式会社成毛建築設計事務所,,株式会社,千葉県,香取市,小見川１３９７番地１,,12,236,2890313,,,2021-07-29,清算の結了等,,,2015-10-05,1,,,,,ナルケケンチクセッケイジムショ,0
135,1110005004496,登記記録の閉鎖等,0,2021-08-10,2021-08-02,医療法人社団大浦整形外科医院,,その他の設立登記法人,新潟県,胎内市,東本町２２番１０号,,15,227,9592643,,,2021-08-02,清算の結了等,,,2015-10-05,1,,,,,オオウラセイケイゲカイイン,0
182,1150001002153,登記記録の閉鎖等,0,2021-08-10,2021-08-02,株式会社ペガサス,,株式会社,奈良県,奈良市,三条大路１丁目１番８８号,,29,201,6308013,,,2021-08-02,清算の結了等,,,2015-10-05,1,,,,,ペガサス,0
189,1180001040002,登記記録の閉鎖等,0,2021-08-10,2021-08-02,光屋青果株式会社,,株式会社,愛知県,名古屋市中区,新栄２丁目１８番６号,,23,106,4600007,,,2021-08-02,清算の結了等,,,2015-10-05,1,,,,,ミツヤセイカ,0
211,1180003019192,登記記録の閉鎖等,0,2021-08-10,2021-08-02,合同会社ＮＧＵ,,合同会社,愛知県,名古屋市千種区,仲田２丁目１８番１４号マストスクエア池下２０３号,,23,101,4640074,,,2021-08-02,清算の結了等,,,2018-08-14,1,,,,,エヌジーユー,0
219,1200001014390,登記記録の閉鎖等,0,2021-08-10,2021-08-05,株式会社オーテー,,株式会社,岐阜県,大垣市,高屋町１丁目５６番地,,21,202,5030901,,,2021-08-05,清算の結了等,,,2021-06-17,1,,,,,オーテー,0
223,1220001011980,登記記録の閉鎖等,0,2021-08-10,2021-07-29,小松バス株式会社,,株式会社,石川県,小松市,鶴ケ島町８番地１,,17,203,9230992,,,2021-07-29,合併による解散等,9220001013144,令和３年７月１日石川県小松市鶴ケ島町８番地１北鉄加賀バス株式会社（9220001013144）に合併し解散,2015-10-05,1,,,,,コマツバス,0
235,1240002038971,登記記録の閉鎖等,0,2021-08-10,2021-07-21,有限会社フレンド美容室,,有限会社,広島県,福山市,沖野上町６丁目３番１４号,,34,207,7200825,,,2021-07-21,清算の結了等,,,2015-10-05,1,,,,,フレンドビヨウシツ,0
240,1260001000311,登記記録の閉鎖等,0,2021-08-10,2021-08-06,安達電機工業株式会社,,株式会社,岡山県,岡山市中区,清水５１３番地の４,,33,102,7038243,,,2021-08-06,清算の結了等,,,2015-10-05,1,,,,,アダチデンキコウギョウ,0
271,1330001017653,登記記録の閉鎖等,0,2021-08-10,2021-08-03,株式会社上野設備設計,,株式会社,熊本県,熊本市東区,神園２丁目６番４１号,,43,102,8618044,,,2021-08-03,清算の結了等,,,2015-10-05,1,,,,,ウエノセツビセッケイ,0
280,1350002002801,登記記録の閉鎖等,0,2021-08-10,2021-08-05,有限会社高千穂メヂカル,,有限会社,宮崎県,宮崎市,別府町２番２０号,,45,201,8800802,,,2021-08-05,清算の結了等,,,2015-10-05,1,,,,,タカチホメヂカル,0
291,1370001041253,登記記録の閉鎖等,0,2021-08-10,2021-07-26,株式会社Ｒｅｆｅｅｌ,,株式会社,宮城県,仙台市太白区,柳生６丁目１番地の４シャーメゾン柳生２０３,,04,104,9811106,,,2021-07-26,清算の結了等,,,2017-04-07,1,,,,,リフィール,0
296,1370301002797,登記記録の閉鎖等,0,2021-08-10,2021-07-26,株式会社ぎん,,株式会社,宮城県,石巻市,新成１丁目４番地１１,,04,202,9862105,,,2021-07-26,清算の結了等,,,2015-10-05,1,,,,,ギン,0
313,1420002011448,登記記録の閉鎖等,0,2021-08-10,2021-07-30,有限会社ラプソディー,,有限会社,青森県,五所川原市,字本町２６番地２,,02,205,0370071,,,2021-07-30,清算の結了等,,,2015-10-05,1,,,,,ラプソディー,0
324,2010001003908,登記記録の閉鎖等,0,2021-08-10,2021-07-27,株式会社スカイネット,,株式会社,東京都,文京区,本郷３丁目４２番５号,,13,105,1130033,,,2021-07-27,合併による解散等,4010001193086,令和３年７月２７日東京都文京区本郷三丁目４２番５号カフベンテック株式会社（4010001193086）に合併し解散,2015-10-05,1,,,,,スカイネット,0
339,2010005029965,登記記録の閉鎖等,0,2021-08-10,2021-07-26,一般社団法人教育情報管理機構,,その他の設立登記法人,東京都,千代田区,丸の内１丁目７番１２号,,13,101,1000005,,,2021-07-26,清算の結了等,,,2019-04-08,1,,,,,キョウイクジョウホウカンリキコウ,0
372,2010902007494,登記記録の閉鎖等,0,2021-08-10,2021-08-03,有限会社下北沢ダンススタジオ,,有限会社,東京都,世田谷区,北沢２丁目２７番１号,,13,112,1550031,,,2021-08-03,清算の結了等,,,2015-10-05,1,,,,,シモキタザワダンススタジオ,0
377,2011101017764,登記記録の閉鎖等,0,2021-08-10,2021-07-29,株式会社ピーエスプリンセス,,株式会社,東京都,中野区,新井４丁目１３番２３－６０４号,,13,114,1650026,,,2021-07-29,清算の結了等,,,2015-10-05,1,,,,,ピーエスプリンセス,0
390,2011402007258,登記記録の閉鎖等,0,2021-08-10,2021-08-06,有限会社花輪不動産,,有限会社,東京都,板橋区,蓮根２丁目３番１号,00055311,13,119,1740046,,,2021-08-06,清算の結了等,,,2015-10-05,1,,,,,ハナワフドウサン,0
478,2110001032269,登記記録の閉鎖等,0,2021-08-10,2021-08-03,株式会社幸栄技建,,株式会社,新潟県,新潟市東区,幸栄２丁目２２番１６号,,15,102,9500022,,,2021-08-03,清算の結了等,,,2017-04-03,1,,,,,コウエイギケン,0
485,2110005015996,登記記録の閉鎖等,0,2021-08-10,2021-08-02,特定非営利活動法人県央地域に舞台芸術を育む会,,その他の設立登記法人,新潟県,三条市,神明町２番１号パルム２．１Ｆ,,15,204,9550063,,,2021-08-02,清算の結了等,,,2016-09-08,1,,,,,ケンオウチイキニブタイゲイジュツヲハグクムカイ,0
486,2120001016031,登記記録の閉鎖等,0,2021-08-10,2021-08-02,日の丸機工株式会社,,株式会社,大阪府,大阪市城東区,関目５丁目１８番２７号,,27,118,5360008,,,2021-08-02,清算の結了等,,,2015-10-05,1,,,,,ヒノマルキコウ,0
503,2120101047447,登記記録の閉鎖等,0,2021-08-10,2021-08-03,三愛システムエンジニアリング株式会社,,株式会社,大阪府,貝塚市,新井２９番地の６,,27,208,5970022,,,2021-08-03,清算の結了等,,,2015-10-05,1,,,,,サンアイシステムエンジニアリング,0
516,2130001040939,登記記録の閉鎖等,0,2021-08-10,2021-08-03,伊豆冷凍食品株式会社,,株式会社,京都府,福知山市,荒河東町５６番地,,26,201,6200061,,,2021-08-03,清算の結了等,,,2015-10-05,1,,,,,イズレイトウショクヒン,0
519,2140001044071,登記記録の閉鎖等,0,2021-08-10,2021-08-02,タカサゴ通信株式会社,,株式会社,兵庫県,高砂市,米田町塩市２５５番地の１,,28,216,6760806,,,2021-08-02,清算の結了等,,,2015-10-05,1,,,,,タカサゴツウシン,0
527,2140002021425,登記記録の閉鎖等,0,2021-08-10,2021-08-02,有限会社オーツー・ホールディングス,,有限会社,兵庫県,神戸市中央区,御幸通２丁目２番１８号,,28,110,6510087,,,2021-08-02,清算の結了等,,,2015-10-05,1,,,,,オーツーホールディングス,0
542,2180002005548,登記記録の閉鎖等,0,2021-08-10,2021-08-04,有限会社横井製作所,,有限会社,愛知県,名古屋市千種区,今池３丁目３２番７号,,23,101,4640850,,,2021-08-04,清算の結了等,,,2015-10-05,1,,,,,ヨコイセイサクジョ,0
544,2180002081663,登記記録の閉鎖等,0,2021-08-10,2021-08-03,有限会社岩幸,,有限会社,愛知県,江南市,布袋町南２１５番地,,23,217,4838236,,,2021-08-03,清算の結了等,,,2015-10-05,1,,,,,イワコウ,0
569,2230001008397,登記記録の閉鎖等,0,2021-08-10,2021-07-30,福島鉄工株式会社,,株式会社,富山県,高岡市,鐘紡町８番２１号,,16,202,9330856,,,2021-07-30,清算の結了等,,,2015-10-05,1,,,,,フクシマテッコウ,0
570,2230002006342,登記記録の閉鎖等,0,2021-08-10,2021-07-30,有限会社ラビット婦中店,,有限会社,富山県,富山市,婦中町上轡田１３４番地１,,16,201,9392713,,,2021-07-30,清算の結了等,,,2015-10-05,1,,,,,ラビットフチュウテン,0
624,2370601000120,登記記録の閉鎖等,0,2021-08-10,2021-07-26,株式会社大場ガラス店,,株式会社,宮城県,多賀城市,八幡３丁目１５番２５号,,04,209,9850874,,,2021-07-26,清算の結了等,,,2015-10-05,1,,,,,オオバガラステン,0
630,2390001004819,登記記録の閉鎖等,0,2021-08-10,2021-07-30,南海商事株式会社,,株式会社,山形県,上山市,金瓶字湯坂山２０番５８,,06,207,9993101,,,2021-07-30,清算の結了等,,,2015-10-05,1,,,,,ナンカイショウジ,0
632,2390001009330,登記記録の閉鎖等,0,2021-08-10,2021-08-02,株式会社アスカ,,株式会社,山形県,東根市,大字羽入字柏原新林３００８番地４５,,06,211,9993776,,,2021-08-02,合併による解散等,1390001000298,令和３年８月１日山形市あこや町三丁目１５番２８号荻野建設株式会社（1390001000298）に合併し解散,2015-10-05,1,,,,,アスカ,0
636,2410001004056,登記記録の閉鎖等,0,2021-08-10,2021-08-04,協進興業株式会社,,株式会社,秋田県,男鹿市,船川港船川字化世沢１７８番地の２１,,05,206,0100511,,,2021-08-04,清算の結了等,,,2015-10-05,1,,,,,キョウシンコウギョウ,0
669,3010102007195,登記記録の閉鎖等,0,2021-08-10,2021-08-04,有限会社夕焼本舗萬年屋,,有限会社,東京都,八王子市,上野町２２番地の６,,13,201,1920902,,,2021-08-04,清算の結了等,,,2015-10-05,1,,,,,,0
671,3010401103455,登記記録の閉鎖等,0,2021-08-10,2021-07-26,ディ・ヴィーア・アキュマ株式会社,,株式会社,東京都,中央区,日本橋室町４丁目３番９号,,13,102,1030022,,,2021-07-26,清算の結了等,,,2015-10-05,1,,,,,ディヴィーアアキュマ,0
675,3010401122406,登記記録の閉鎖等,0,2021-08-10,2021-07-16,株式会社ａｒｏｕｎｄｓ,,株式会社,東京都,渋谷区,神宮前３丁目３２番２号,,13,113,1500001,,,2021-07-16,合併による解散等,4011001107606,令和３年７月１日東京都渋谷区桜丘町１８番４号株式会社希船工房（4011001107606）に合併し解散,2016-01-08,1,,,,,アラウンズ,0
679,3010401144251,登記記録の閉鎖等,0,2021-08-10,2021-07-27,Ｓ＆Ｊ株式会社,,株式会社,東京都,港区,新橋２丁目１６－１－９０３,,13,103,1050004,,,2021-07-27,清算の結了等,,,2019-03-15,1,,,,,エスアンドジェイ,0
710,3011002003383,登記記録の閉鎖等,0,2021-08-10,2021-07-29,有限会社京都中田,,有限会社,東京都,新宿区,市谷田町２丁目４１番地２ヴェーゼント市ヶ谷４０５,,13,104,1620843,,,2021-07-29,清算の結了等,,,2015-10-05,1,,,,,キョウトナカダ,0
713,3011101085307,登記記録の閉鎖等,0,2021-08-10,2021-07-27,株式会社ｅｘｐｌｏｓｉｏｎ,,株式会社,東京都,港区,赤坂７丁目６番１５号赤坂ロイヤルビル３０６,,13,103,1070052,,,2021-07-27,清算の結了等,,,2018-09-07,1,,,,,エクスプロージョン,0
734,3012401000649,登記記録の閉鎖等,0,2021-08-10,2021-08-03,株式会社三友通信サービス,,株式会社,東京都,府中市,是政３丁目２７番地の３５,,13,206,1830014,,,2021-08-03,清算の結了等,,,2015-10-05,1,,,,,サンユウツウシンサービス,0
735,3012401003791,登記記録の閉鎖等,0,2021-08-10,2021-07-26,ゼットピーエス・ジャパン株式会社,,株式会社,東京都,国立市,東２丁目１０番地の１７,,13,215,1860002,,,2021-07-26,清算の結了等,,,2015-10-05,1,,,,,ゼットピーエスジャパン,0
753,3013305001907,登記記録の閉鎖等,0,2021-08-10,2021-07-26,一般社団法人十文字スポーツクラブ,,その他の設立登記法人,埼玉県,新座市,菅沢２丁目１番２８号,,11,230,3520017,,,2021-07-26,清算の結了等,,,2015-10-05,1,,,,,ジュウモンジスポーツクラブ,0
754,3020001005753,登記記録の閉鎖等,0,2021-08-10,2021-07-28,横浜ネクサス株式会社,,株式会社,神奈川県,横浜市旭区,川島町１６１１番地の５,,14,112,2410011,,,2021-07-28,清算の結了等,,,2015-10-05,1,,,,,ヨコハマネクサス,0
755,3020001012816,登記記録の閉鎖等,0,2021-08-10,2021-08-02,株式会社ケイアンドワイ塗装,,株式会社,神奈川県,横浜市南区,六ツ川１丁目６５３番地,,14,105,2320066,,,2021-08-02,清算の結了等,,,2015-10-05,1,,,,,ケイアンドワイトソウ,0
766,3020005010287,登記記録の閉鎖等,0,2021-08-10,2021-07-30,公益社団法人けいしん神奈川,,その他の設立登記法人,神奈川県,横浜市中区,尾上町５丁目８０番地,,14,104,2310015,,,2021-07-30,清算の結了等,,,2015-10-05,1,,,,,,0
784,3030002101930,登記記録の閉鎖等,0,2021-08-10,2021-07-21,有限会社河原場工業,,有限会社,埼玉県,川口市,本蓮４丁目６番６号,00017640,11,203,3340076,,,2021-07-21,清算の結了等,,,2015-10-05,1,,,,,カワラバコウギョウ,0
814,3080401016287,登記記録の閉鎖等,0,2021-08-10,2021-08-06,ファイラックインターナショナル株式会社,,株式会社,静岡県,磐田市,福田４５５番地１,,22,211,4371203,,,2021-08-06,清算の結了等,,,2015-10-05,1,,,,,ファイラックインターナショナル,0
815,3080401020223,登記記録の閉鎖等,0,2021-08-10,2021-08-04,株式会社翼陽,,株式会社,静岡県,浜松市西区,篠原町１０５８番地の１,,22,133,4310201,,,2021-08-04,清算の結了等,,,2015-10-05,1,,,,,ヨクヨウ,0
823,3100002028885,登記記録の閉鎖等,0,2021-08-10,2021-08-03,有限会社豊栄ビル,,有限会社,長野県,諏訪市,大字中洲３２７４番地の２,,20,206,3920015,,,2021-08-03,清算の結了等,,,2015-10-05,1,,,,,ホウエイビル,0
831,3110002032630,登記記録の閉鎖等,0,2021-08-10,2021-08-02,有限会社井口工業所,,有限会社,新潟県,南魚沼市,五日町２２７番地,,15,226,9497101,,,2021-08-02,清算の結了等,,,2015-10-05,1,,,,,イグチコウギョウショ,0
834,3120001033109,登記記録の閉鎖等,0,2021-08-10,2021-08-02,株式会社大晶商会,,株式会社,大阪府,大阪市阿倍野区,相生通２丁目１０番８号,,27,119,5450033,,,2021-08-02,清算の結了等,,,2015-10-05,1,,,,,ダイショウショウカイ,0
836,3120001071802,登記記録の閉鎖等,0,2021-08-10,2021-08-02,吉田印刷株式会社,,株式会社,大阪府,大阪市北区,同心２丁目１５番２４号,,27,127,5300035,,,2021-08-02,清算の結了等,,,2015-10-05,1,,,,,ヨシダインサツ,0
848,3120002079828,登記記録の閉鎖等,0,2021-08-10,2021-08-02,有限会社スガ商会,,有限会社,大阪府,門真市,舟田町２８番２０号,,27,223,5710021,,,2021-08-02,清算の結了等,,,2015-10-05,1,,,,,スガショウカイ,0
851,3120003013100,登記記録の閉鎖等,0,2021-08-10,2021-07-30,合同会社弥生マネジメント,,合同会社,大阪府,大阪市北区,西天満３丁目１１番４号,,27,127,5300047,,,2021-07-30,清算の結了等,,,2017-07-24,1,,,,,ヤヨイマネジメント,0
869,3130002025979,登記記録の閉鎖等,0,2021-08-10,2021-08-02,有限会社コスモクリエイト,,有限会社,大阪府,大阪市西区,立売堀１丁目２番１２号,,27,106,5500012,,,2021-08-02,清算の結了等,,,2015-10-05,1,,,,,コスモクリエイト,0
889,3180001058513,登記記録の閉鎖等,0,2021-08-10,2021-07-30,株式会社ＬＥＣ,,株式会社,愛知県,名古屋市千種区,光が丘１丁目３番６号,,23,101,4640006,,,2021-07-30,清算の結了等,,,2015-10-05,1,,,,,レック,0
893,3180002048991,登記記録の閉鎖等,0,2021-08-10,2021-08-02,エム・アシスト有限会社,,有限会社,愛知県,名古屋市天白区,平針３丁目２１０３番地,,23,116,4680011,,,2021-08-02,清算の結了等,,,2015-10-05,1,,,,,エムアシスト,0
897,3180301032291,登記記録の閉鎖等,0,2021-08-10,2021-08-05,ＨＡＮＨＷＡ　ＪＡＰＡＮ株式会社,,株式会社,愛知県,豊田市,西中山町十七屋１４３番地,,23,211,4700431,,,2021-08-05,清算の結了等,,,2019-02-20,1,,,,,ハンファジャパン,0
901,3190001005811,登記記録の閉鎖等,0,2021-08-10,2021-08-05,株式会社マザキナ,,株式会社,三重県,鈴鹿市,国府町１０９８番地の４,,24,207,5130836,,,2021-08-05,清算の結了等,,,2015-10-05,1,,,,,マザキナ,0
916,3220001018215,登記記録の閉鎖等,0,2021-08-10,2021-08-02,株式会社プレイス・ヴィレッジ,,株式会社,石川県,金沢市,広岡１丁目１１番６号,,17,201,9200031,,,2021-08-02,合併による解散等,7220001002735,令和３年８月１日石川県金沢市広岡一丁目１１番６号株式会社Ｋ・Ｓ・Ｄコンサルティング（7220001002735）に合併し解散,2015-10-05,1,,,,,プレイスヴィレッジ,0
926,3240002000203,登記記録の閉鎖等,0,2021-08-10,2021-07-26,アース不動産有限会社,,有限会社,広島県,広島市南区,荒神町５番１５号,,34,103,7320807,,,2021-07-26,清算の結了等,,,2015-10-05,1,,,,,アースフドウサン,0
931,3250002010267,登記記録の閉鎖等,0,2021-08-10,2021-08-03,有限会社新谷工業,,有限会社,山口県,下関市,梶栗町１丁目４番１７号,,35,201,7596614,,,2021-08-03,清算の結了等,,,2015-10-05,1,,,,,シンタニコウギョウ,0
932,3260003002790,登記記録の閉鎖等,0,2021-08-10,2021-08-05,合同会社ＭＡＳＵＮＡＧＡ,,合同会社,岡山県,岡山市北区,吉備津１１５７番地１８,,33,101,7011341,,,2021-08-05,清算の結了等,,,2019-02-20,1,,,,,マスナガ,0
950,3310001004742,登記記録の閉鎖等,0,2021-08-10,2021-08-03,株式会社サンフルコーポレーション,,株式会社,長崎県,長崎市,江里町３番１号,,42,201,8528032,,,2021-08-03,清算の結了等,,,2015-10-05,1,,,,,サンフルコーポレーション,0
958,3330002027740,登記記録の閉鎖等,0,2021-08-10,2021-08-02,有限会社環境開発,,有限会社,熊本県,水俣市,築地１０番２号,,43,205,8670062,,,2021-08-02,清算の結了等,,,2015-10-05,1,,,,,カンキョウカイハツ,0
969,3370002009792,登記記録の閉鎖等,0,2021-08-10,2021-07-21,有限会社上杉会計事務所,,有限会社,宮城県,仙台市青葉区,錦町１丁目１０番１１号,,04,101,9800012,,,2021-07-21,清算の結了等,,,2015-10-05,1,,,,,ウエスギカイケイジムショ,0
985,3430001053430,登記記録の閉鎖等,0,2021-08-10,2021-07-28,株式会社ＭＹＭ,,株式会社,北海道,苫小牧市,北栄町３丁目１番地の１,,01,213,0591304,,,2021-07-28,清算の結了等,,,2015-10-05,1,,,,,エムワイエム,0
997,4010001070665,登記記録の閉鎖等,0,2021-08-10,2021-08-02,株式会社システムオリコ,,株式会社,東京都,文京区,大塚５丁目１番６号,,13,105,1120012,,,2021-08-02,合併による解散等,9010001070784,令和３年８月１日東京都千代田区麹町五丁目２番地１株式会社オリエントコーポレーション（9010001070784）に合併し解散,2015-10-05,1,,,,,システムオリコ,0
1005,4010001201055,登記記録の閉鎖等,0,2021-08-10,2021-07-26,ブロックコネクティッド株式会社,,株式会社,東京都,千代田区,有楽町１丁目７番１号,,13,101,1000006,,,2021-07-26,清算の結了等,,,2019-05-24,1,,,,,ブロックコネクティッド,0
1021,4010401124079,登記記録の閉鎖等,0,2021-08-10,2021-07-28,セルトラスト・アニマル・セラピューティクス株式会社,,株式会社,東京都,港区,西麻布２丁目２６番３０号,,13,103,1060031,,,2021-07-28,清算の結了等,,,2016-04-08,1,,,,,セルトラストアニマルセラピューティクス,0
1031,4010601006382,登記記録の閉鎖等,0,2021-08-10,2021-07-21,株式会社三ッ木興産,,株式会社,東京都,江東区,北砂４丁目４０番１７号３０２,,13,108,1360073,,,2021-07-21,清算の結了等,,,2015-10-05,1,,,,,,0
1046,4011001122043,登記記録の閉鎖等,0,2021-08-10,2021-08-02,株式会社ＶＡＮＱＵＩＳＨ,,株式会社,東京都,渋谷区,猿楽町１１番６号,,13,113,1500033,,,2021-08-02,合併による解散等,5013201017848,令和３年８月１日東京都渋谷区猿楽町１１番６号サンローゼ代官山４階株式会社せーの（5013201017848）に合併し解散,2018-05-10,1,,,,,ヴァンキッシュ,0
1052,4011101076899,登記記録の閉鎖等,0,2021-08-10,2021-07-30,株式会社スマイル,,株式会社,東京都,新宿区,西新宿７丁目７番２４号ＧＳプラザ新宿８０２,,13,104,1600023,,,2021-07-30,清算の結了等,,,2016-05-06,1,,,,,スマイル,0
1055,4011101086460,登記記録の閉鎖等,0,2021-08-10,2021-07-30,株式会社ＤＥＬＩＧＨＴ　ＪＡＰＡＮ,,株式会社,東京都,新宿区,百人町１丁目８－１１オリエンタルビル２０３,,13,104,1690073,,,2021-07-30,清算の結了等,,,2019-01-07,1,,,,,デライトジャパン,0
1062,4011801017335,登記記録の閉鎖等,0,2021-08-10,2021-08-03,株式会社アーク・ケイ・コーポレーション,,株式会社,東京都,江戸川区,本一色１丁目５番１６号,,13,123,1330044,,,2021-08-03,清算の結了等,,,2015-10-05,1,,,,,アークケイコーポレーション,0
1063,4012302007338,登記記録の閉鎖等,0,2021-08-10,2021-08-04,有限会社アイランド,,有限会社,東京都,町田市,三輪町１５２５番地１,,13,209,1950054,,,2021-08-04,清算の結了等,,,2015-10-05,1,,,,,,0
1065,4012401033887,登記記録の閉鎖等,0,2021-08-10,2021-07-28,株式会社ＲＯＳ,,株式会社,東京都,新宿区,北新宿３丁目３４番１３号,,13,104,1690074,,,2021-07-28,清算の結了等,,,2018-04-19,1,,,,,ロス,0
1079,4020001002089,登記記録の閉鎖等,0,2021-08-10,2021-07-29,菅生板金工業株式会社,,株式会社,神奈川県,横浜市緑区,白山１丁目１３番２号,,14,113,2260006,,,2021-07-29,清算の結了等,,,2015-10-05,1,,,,,スゴウバンキンコウギョウ,0
1082,4020001094787,登記記録の閉鎖等,0,2021-08-10,2021-07-30,株式会社販売開発研究所,,株式会社,神奈川県,横浜市栄区,犬山町２３番１号,,14,115,2470026,,,2021-07-30,清算の結了等,,,2015-10-05,1,,,,,ハンバイカイハツケンキュウショ,0
1083,4020001096148,登記記録の閉鎖等,0,2021-08-10,2021-07-20,株式会社シン技術,,株式会社,神奈川県,横浜市青葉区,若草台７番地２９,,14,117,2270045,,,2021-07-20,清算の結了等,,,2015-10-05,1,,,,,,0
1089,4020002001057,登記記録の閉鎖等,0,2021-08-10,2021-07-30,有限会社エンドウ時計眼鏡店,,有限会社,神奈川県,横浜市瀬谷区,瀬谷４丁目３番地の１４,,14,114,2460031,,,2021-07-30,清算の結了等,,,2015-10-05,1,,,,,エンドウトケイガンキョウテン,0
1091,4020002011683,登記記録の閉鎖等,0,2021-08-10,2021-07-29,有限会社クラモト建設,,有限会社,神奈川県,横浜市戸塚区,平戸５丁目３１番２２号,,14,110,2440802,,,2021-07-29,清算の結了等,,,2015-10-05,1,,,,,クラモトケンセツ,0
1097,4020003011690,登記記録の閉鎖等,0,2021-08-10,2021-08-02,合同会社ローヤルジャンセン,,合同会社,神奈川県,横浜市磯子区,森１丁目９番５－６０６号,,14,107,2350023,,,2021-08-02,合併による解散等,6020003018429,令和３年８月１日神奈川県横浜市磯子区森一丁目９番５－６０６号合同会社リアライゼーション（6020003018429）に合併し解散,2016-08-15,1,,,,,ローヤルジャンセン,0
1102,4021001024718,登記記録の閉鎖等,0,2021-08-10,2021-07-30,株式会社ケアマネクラブこころ,,株式会社,神奈川県,藤沢市,大庭５０７１番地の７,,14,205,2510861,,,2021-07-30,清算の結了等,,,2015-10-05,1,,,,,ケアマネクラブココロ,0
1108,4021002025509,登記記録の閉鎖等,0,2021-08-10,2021-07-26,有限会社渡辺建具店,,有限会社,神奈川県,相模原市南区,東林間５丁目１３番１５号,,14,153,2520311,,,2021-07-26,清算の結了等,,,2015-10-05,1,,,,,ワタナベタテグテン,0
1111,4021002049251,登記記録の閉鎖等,0,2021-08-10,2021-08-02,有限会社ケイエム浄,,有限会社,東京都,世田谷区,駒沢５丁目１８番１４号,,13,112,1540012,,,2021-08-02,清算の結了等,,,2015-10-05,1,,,,,ケイエムジョウ,0
1150,4080003001496,登記記録の閉鎖等,0,2021-08-10,2021-08-02,源気合同会社,,合同会社,静岡県,静岡市清水区,横砂本町１８番１号,,22,103,4240033,,,2021-08-02,清算の結了等,,,2015-10-05,1,,,,,ゲンキ,0
1153,4080402001007,登記記録の閉鎖等,0,2021-08-10,2021-08-06,有限会社德原総業,00068353,有限会社,静岡県,浜松市南区,芳川町４８９番地,,22,134,4300813,,,2021-08-06,清算の結了等,,,2015-10-05,1,,,,,トクハラソウギョウ,0
1156,4090001004046,登記記録の閉鎖等,0,2021-08-10,2021-08-04,秋山鉄工株式会社,,株式会社,山梨県,甲斐市,竜地４６５７番地,,19,210,4000100,,,2021-08-04,清算の結了等,,,2020-12-04,1,,,,,アキヤマテッコウ,0
1158,4090005003507,登記記録の閉鎖等,0,2021-08-10,2021-08-03,特定非営利活動法人山ゆり大月,,その他の設立登記法人,山梨県,大月市,大月町花咲１４４０番地５,,19,206,4010015,,,2021-08-03,清算の結了等,,,2015-10-05,1,,,,,ヤマユリオオツキ,0
1174,4120002008959,登記記録の閉鎖等,0,2021-08-10,2021-08-02,有限会社アッシェンバッハコンサルタント,,有限会社,大阪府,大阪市城東区,中央３丁目１０番２０－１０６号,,27,118,5360005,,,2021-08-02,清算の結了等,,,2015-10-05,1,,,,,アッシェンバッハコンサルタント,0
1178,4120002051182,登記記録の閉鎖等,0,2021-08-10,2021-08-04,有限会社コンプレ,,有限会社,大阪府,大阪市西区,北堀江１丁目２３番２５－２４０４号,,27,106,5500014,,,2021-08-04,合併による解散等,8120001121577,令和３年８月１日兵庫県西宮市塩瀬町生瀬１２８５番地２２１株式会社セーグル（8120001121577）に合併し解散,2015-10-05,1,,,,,,0
1216,4180001087560,登記記録の閉鎖等,0,2021-08-10,2021-08-03,東洋金属株式会社,,株式会社,愛知県,江南市,小郷町粟田木１番地,,23,217,4838135,,,2021-08-03,清算の結了等,,,2015-10-05,1,,,,,,0
1223,4180001137407,登記記録の閉鎖等,0,2021-08-10,2021-08-02,株式会社Ｔ・Ｉ・ネットワークス,,株式会社,愛知県,大府市,横根町林新田１０２番地,,23,223,4740011,,,2021-08-02,清算の結了等,,,2019-08-02,1,,,,,ティアイネットワークス,0
1226,4180002001710,登記記録の閉鎖等,0,2021-08-10,2021-08-05,有限会社山中塗装店,,有限会社,愛知県,名古屋市守山区,川東山２２０５番地,,23,113,4630006,,,2021-08-05,清算の結了等,,,2015-10-05,1,,,,,ヤマナカトソウテン,0
1230,4180002092122,登記記録の閉鎖等,0,2021-08-10,2021-08-03,長谷川ガス有限会社,,有限会社,愛知県,海部郡大治町,大字西條字大門先５６番地,,23,424,4901144,,,2021-08-03,清算の結了等,,,2015-10-05,1,,,,,ハセガワガス,0
1231,4180003013515,登記記録の閉鎖等,0,2021-08-10,2021-08-03,合名会社山城屋書店,,合名会社,愛知県,津島市,浦方町３７番地,,23,208,4960827,,,2021-08-03,清算の結了等,,,2015-10-05,1,,,,,ヤマシロヤショテン,0
1244,4230001003454,登記記録の閉鎖等,0,2021-08-10,2021-07-30,株式会社ゆう楽座富山,,株式会社,富山県,富山市,婦中町地角３７０番地,,16,201,9392744,,,2021-07-30,清算の結了等,,,2015-10-05,1,,,,,ユウラクザトヤマ,0
1251,4240001026545,登記記録の閉鎖等,0,2021-08-10,2021-07-21,本むらさき株式会社,,株式会社,広島県,呉市,三条２丁目１２番１号,,34,202,7370821,,,2021-07-21,清算の結了等,,,2015-10-05,1,,,,,ホンムラサキ,0
1253,4240002054611,登記記録の閉鎖等,0,2021-08-10,2021-07-21,有限会社プラス・ユウ,,有限会社,広島県,三原市,糸崎２丁目７番１２号,,34,204,7290324,,,2021-07-21,清算の結了等,,,2015-10-05,1,,,,,プラスユウ,0
1257,4250002005373,登記記録の閉鎖等,0,2021-08-10,2021-08-03,有限会社日成工業所,,有限会社,山口県,宇部市,岬町３丁目１０番１号,,35,202,7550006,,,2021-08-03,清算の結了等,,,2015-10-05,1,,,,,ニッセイコウギョウショ,0
1258,4260001026923,登記記録の閉鎖等,0,2021-08-10,2021-08-05,株式会社ファレッジ,,株式会社,岡山県,岡山市北区,津島東４丁目８番１０号,,33,101,7000081,,,2021-08-05,清算の結了等,,,2015-10-05,1,,,,,ファレッジ,0
1262,4290001016112,登記記録の閉鎖等,0,2021-08-10,2021-07-07,福岡実業株式会社,,株式会社,福岡県,福岡市博多区,祇園町１番２８号,,40,132,8120038,,,2021-07-07,清算の結了等,,,2021-04-30,1,,,,,フクオカジツギョウ,0
1275,4320001005581,登記記録の閉鎖等,0,2021-08-10,2021-08-03,株式会社玉の湯産業,,株式会社,大分県,由布市,湯布院町川上２７３１番地１,,44,213,8795102,,,2021-08-03,清算の結了等,,,2015-10-05,1,,,,,,0
1279,4330002005225,登記記録の閉鎖等,0,2021-08-10,2021-08-02,有限会社ジャムスタジオ,,有限会社,熊本県,熊本市中央区,大江４丁目２１番１６号,,43,101,8620971,,,2021-08-02,清算の結了等,,,2015-10-05,1,,,,,ジャムスタジオ,0
1282,4350001004985,登記記録の閉鎖等,0,2021-08-10,2021-08-05,株式会社高千穂駐車場,,株式会社,宮崎県,宮崎市,別府町２番２０号,,45,201,8800802,,,2021-08-05,清算の結了等,,,2015-10-05,1,,,,,タカチホチュウシャジョウ,0
1357,5010405014713,登記記録の閉鎖等,0,2021-08-10,2021-07-27,弁護士法人戸田綜合法律事務所,,その他の設立登記法人,東京都,港区,六本木３丁目１８番１２号ゲッツビル２階,,13,103,1060032,,,2021-07-27,清算の結了等,,,2016-04-20,1,,,,,トダソウゴウホウリツジムショ,0
1362,5010601042105,登記記録の閉鎖等,0,2021-08-10,2021-07-19,ネオスタンダードリフォーム株式会社,,株式会社,東京都,墨田区,押上３丁目２５番１７号,,13,107,1310045,,,2021-07-19,清算の結了等,,,2015-10-05,1,,,,,ネオスタンダードリフォーム,0
1365,5010602023871,登記記録の閉鎖等,0,2021-08-10,2021-07-21,有限会社マハロサービス,,有限会社,東京都,墨田区,千歳１丁目４番５号５０２,,13,107,1300025,,,2021-07-21,清算の結了等,,,2015-10-05,1,,,,,,0
1366,5010705002392,登記記録の閉鎖等,0,2021-08-10,2021-07-16,成長支援社会保険労務士法人,,その他の設立登記法人,東京都,千代田区,神田猿楽町２丁目６番１０号,,13,101,1010064,,,2021-07-16,清算の結了等,,,2015-12-22,1,,,,,セイチョウシエン,0
1367,5010801030710,登記記録の閉鎖等,0,2021-08-10,2021-08-02,株式会社ＵＳＥホールディングス,,株式会社,東京都,大田区,南蒲田２丁目１６番２号,,13,111,1440035,,,2021-08-02,合併による解散等,8010801021021,令和３年８月１日東京都大田区南蒲田二丁目１６番２号株式会社ユー・エス・イー（8010801021021）に合併し解散,2020-03-13,1,,,,,ユーエスイーホールディングス,0
1368,5010805002607,登記記録の閉鎖等,0,2021-08-10,2021-07-20,一般社団法人タカトラ,,その他の設立登記法人,東京都,江東区,東陽５丁目２４番地７号,,13,108,1350016,,,2021-07-20,清算の結了等,,,2018-10-09,1,,,,,タカトラ,0
1382,5011401005441,登記記録の閉鎖等,0,2021-08-10,2021-08-04,株式会社ヒューマンテック,,株式会社,東京都,板橋区,舟渡４丁目１２番１８号,,13,119,1740041,,,2021-08-04,清算の結了等,,,2015-10-05,1,,,,,,0
1402,5011803001410,登記記録の閉鎖等,0,2021-08-10,2021-08-05,Ａｔｈｌｏｎｅ　Ｒｅｓｅａｒｃｈ　ＬＬＣ合同会社,,合同会社,東京都,足立区,千住曙町４０番１－１３１３,,13,121,1200023,,,2021-08-05,清算の結了等,,,2015-10-05,1,,,,,アスロンリサーチエルエルシー,0
1420,5013301043182,登記記録の閉鎖等,0,2021-08-10,2021-08-02,日本事業承継株式会社,,株式会社,東京都,豊島区,池袋２丁目５１番１４号飛翔ビル８階,,13,116,1710014,,,2021-08-02,合併による解散等,9013301040779,令和３年８月１日東京都豊島区池袋二丁目５１番１４号飛翔ビル８階株式会社ビューティベネフィット（9013301040779）に合併し解散,2018-12-06,1,,,,,ニホンジギョウショウケイ,0
1430,5020002010973,登記記録の閉鎖等,0,2021-08-10,2021-07-29,有限会社吉田商事,,有限会社,神奈川県,横浜市磯子区,森５丁目１６番１１号,,14,107,2350023,,,2021-07-29,清算の結了等,,,2015-10-05,1,,,,,ヨシダショウジ,0
1437,5021002038162,登記記録の閉鎖等,0,2021-08-10,2021-07-30,有限会社高橋建材,00013423,有限会社,神奈川県,秦野市,堀山下１４６２番地,,14,211,2591304,,,2021-07-30,清算の結了等,,,2015-10-05,1,,,,,タカハシケンザイ,0
1442,5030001014710,登記記録の閉鎖等,0,2021-08-10,2021-08-02,株式会社ベネフィット経営,,株式会社,東京都,豊島区,池袋２丁目５１番１４号飛翔ビル８階,,13,116,1710014,,,2021-08-02,合併による解散等,9013301040779,令和３年８月１日東京都豊島区池袋二丁目５１番１４号飛翔ビル８階株式会社ビューティベネフィット（9013301040779）に合併し解散,2015-10-05,1,,,,,ベネフィットケイエイ,0
1454,5030002078135,登記記録の閉鎖等,0,2021-08-10,2021-07-21,有限会社ヘルパーステーションちゃお,,有限会社,埼玉県,川越市,月吉町４０番地４,,11,201,3500825,,,2021-07-21,清算の結了等,,,2015-10-05,1,,,,,ヘルパーステーションチャオ,0
1462,5040001065307,登記記録の閉鎖等,0,2021-08-10,2021-07-29,大久保土地株式会社,,株式会社,千葉県,柏市,名戸ケ谷８８７番地,,12,217,2770032,,,2021-07-29,合併による解散等,6040001094107,令和３年７月２９日千葉県柏市名戸ケ谷１１７２番地１株式会社柏洋ホールディングス（6040001094107）に合併し解散,2015-10-05,1,,,,,オオクボトチ,0
1476,5050001031159,登記記録の閉鎖等,0,2021-08-10,2021-08-02,株式会社エムエスデンタル,,株式会社,茨城県,常総市,水海道淵頭町４６５９番地１,,08,211,3030022,,,2021-08-02,合併による解散等,8050001030760,令和３年８月１日茨城県常総市水海道淵頭町４６５９番地１常総貿易株式会社（8050001030760）に合併し解散,2015-10-05,1,,,,,エムエスデンタル,0
1480,5070002009607,登記記録の閉鎖等,0,2021-08-10,2021-08-05,有限会社群生商事,,有限会社,群馬県,高崎市,東貝沢町２丁目４番地１１,,10,202,3700041,,,2021-08-05,清算の結了等,,,2015-10-05,1,,,,,グンセイショウジ,0
1482,5080001013930,登記記録の閉鎖等,0,2021-08-10,2021-08-04,カネ正建設株式会社,,株式会社,静岡県,榛原郡吉田町,住吉１７３１番地の５,,22,424,4210301,,,2021-08-04,清算の結了等,,,2015-10-05,1,,,,,,0
1484,5080005006906,登記記録の閉鎖等,0,2021-08-10,2021-08-04,一般社団法人日中交流センター,,その他の設立登記法人,静岡県,静岡市駿河区,東静岡２丁目６番２６－５０１号,,22,102,4228019,,,2021-08-04,清算の結了等,,,2016-08-04,1,,,,,ニッチュウコウリュウセンター,0
1501,5120002012737,登記記録の閉鎖等,0,2021-08-10,2021-08-02,有限会社カワイ工芸社,,有限会社,大阪府,大阪市天王寺区,堂ケ芝１丁目１１番１１号,,27,109,5430033,,,2021-08-02,清算の結了等,,,2015-10-05,1,,,,,カワイコウゲイシャ,0
1516,5130001006202,登記記録の閉鎖等,0,2021-08-10,2021-08-02,株式会社きたむら,,株式会社,京都府,京都市左京区,聖護院川原町２５番地の１,,26,103,6068397,,,2021-08-02,合併による解散等,1130001005777,令和３年８月１日京都市左京区聖護院山王町４２番地株式会社アーバン北村（1130001005777）に合併し解散,2015-10-05,1,,,,,キタムラ,0
1519,5130002002555,登記記録の閉鎖等,0,2021-08-10,2021-08-03,有限会社高木紙器工房,,有限会社,京都府,京都市上京区,衣棚通一条上る一松町５０７番地,,26,102,6020905,,,2021-08-03,清算の結了等,,,2015-10-05,1,,,,,タカギシキコウボウ,0
1534,5180001053792,登記記録の閉鎖等,0,2021-08-10,2021-08-03,株式会社龍月,,株式会社,愛知県,日進市,梅森台１丁目９７番地,,23,230,4700133,,,2021-08-03,清算の結了等,,,2015-10-05,1,,,,,リュウヅキ,0
1545,5180002063717,登記記録の閉鎖等,0,2021-08-10,2021-08-02,有限会社アイル,,有限会社,愛知県,長久手市,蟹原１９０１番地,,23,238,4801142,,,2021-08-02,清算の結了等,,,2015-10-05,1,,,,,アイル,0
1551,5190001021278,登記記録の閉鎖等,0,2021-08-10,2021-08-05,ＹＭＪ　Ｊａｐａｎ株式会社,,株式会社,三重県,四日市市,釆女が丘４丁目２４２番地,,24,202,5100953,,,2021-08-05,清算の結了等,,,2015-10-05,1,,,,,ワイエムジェイジャパン,0
1553,5190003002383,登記記録の閉鎖等,0,2021-08-10,2021-08-06,合同会社カミヤーン,,合同会社,三重県,松阪市,日丘町５６９番地７,,24,204,5150835,,,2021-08-06,清算の結了等,,,2015-10-05,1,,,,,カミヤーン,0
1563,5220001008750,登記記録の閉鎖等,0,2021-08-10,2021-07-29,北陸交通株式会社,,株式会社,石川県,白山市,安養寺町ニ３０番地,,17,210,9202141,,,2021-07-29,合併による解散等,7220001018541,令和３年７月１日石川県白山市安養寺町ニ３０番地北鉄白山バス株式会社（7220001018541）に合併し解散,2015-10-05,1,,,,,ホクリクコウツウ,0
1564,5220002004831,登記記録の閉鎖等,0,2021-08-10,2021-07-29,有限会社東重機,,有限会社,石川県,金沢市,久安３丁目３８９番地,,17,201,9218164,,,2021-07-29,清算の結了等,,,2015-10-05,1,,,,,ヒガシジュウキ,0
1569,5240002009696,登記記録の閉鎖等,0,2021-08-10,2021-07-21,有限会社高野ビル,,有限会社,広島県,広島市南区,段原南１丁目２５番２７号,,34,103,7320814,,,2021-07-21,清算の結了等,,,2015-10-05,1,,,,,タカノビル,0
1604,5390001004865,登記記録の閉鎖等,0,2021-08-10,2021-07-30,株式会社三上精機,,株式会社,山形県,上山市,金生西２丁目１９番１号,,06,207,9993126,,,2021-07-30,清算の結了等,,,2015-10-05,1,,,,,ミカミセイキ,0
1630,6010001008259,登記記録の閉鎖等,0,2021-08-10,2021-08-02,ライト株式会社,,株式会社,東京都,文京区,千石３丁目２０番７号,,13,105,1120011,,,2021-08-02,合併による解散等,1010801002143,令和３年８月１日東京都文京区千石三丁目２０番７号大野ホールディングス株式会社（1010801002143）に合併し解散,2015-10-05,1,,,,,ライト,0
1655,6010401131841,登記記録の閉鎖等,0,2021-08-10,2021-07-16,株式会社ニア,,株式会社,東京都,港区,麻布台３丁目３番２５号,,13,103,1060041,,,2021-07-16,清算の結了等,,,2017-06-09,1,,,,,ニア,0
1660,6010501040876,登記記録の閉鎖等,0,2021-08-10,2021-07-27,株式会社ＬＯＵ,,株式会社,東京都,台東区,西浅草３丁目２２番３号,,13,106,1110035,,,2021-07-27,清算の結了等,,,2017-04-12,1,,,,,ルー,0
1670,6010901025840,登記記録の閉鎖等,0,2021-08-10,2021-08-05,株式会社あかね不動産,,株式会社,東京都,世田谷区,大原１丁目２１番１２号,,13,112,1560041,,,2021-08-05,清算の結了等,,,2015-10-05,1,,,,,アカネフドウサン,0
1690,6011102009435,登記記録の閉鎖等,0,2021-08-10,2021-07-30,有限会社長沼アトリエ,,有限会社,神奈川県,川崎市麻生区,王禅寺東２丁目２７番３号,,14,137,2150018,,,2021-07-30,清算の結了等,,,2015-10-05,1,,,,,ナガヌマアトリエ,0
1698,6011501014993,登記記録の閉鎖等,0,2021-08-10,2021-08-03,イー・アルティ株式会社,,株式会社,東京都,荒川区,南千住８丁目８番１－８０１号,,13,118,1160003,,,2021-08-03,清算の結了等,,,2015-10-05,1,,,,,,0
1719,6013302019858,登記記録の閉鎖等,0,2021-08-10,2021-08-02,有限会社千冠莉,,有限会社,東京都,豊島区,西池袋４丁目１９番地４号,,13,116,1710021,,,2021-08-02,清算の結了等,,,2015-10-05,1,,,,,センカンリ,0
1728,6020001112563,登記記録の閉鎖等,0,2021-08-10,2021-07-28,株式会社タナケン,,株式会社,神奈川県,横浜市磯子区,滝頭２丁目１０番１５号,,14,107,2350012,,,2021-07-28,清算の結了等,,,2015-10-05,1,,,,,タナケン,0
1730,6020002023017,登記記録の閉鎖等,0,2021-08-10,2021-07-29,有限会社ネオスタイルラボ,,有限会社,神奈川県,横浜市保土ケ谷区,峰沢町２０４番地,,14,106,2400061,,,2021-07-29,清算の結了等,,,2015-10-05,1,,,,,ネオスタイルラボ,0
1731,6020002076262,登記記録の閉鎖等,0,2021-08-10,2021-08-02,有限会社食真,,有限会社,神奈川県,横浜市南区,六ツ川３丁目１１４番地の４六ツ川台団地２街区５棟１０３号,,14,105,2320066,,,2021-08-02,清算の結了等,,,2015-10-05,1,,,,,ショクシン,0
1737,6020005009896,登記記録の閉鎖等,0,2021-08-10,2021-07-30,特定非営利活動法人知的障害者自立支援の会ルピナス,,その他の設立登記法人,神奈川県,横浜市泉区,中田北３丁目２２番１０号,,14,116,2450012,,,2021-07-30,清算の結了等,,,2015-10-05,1,,,,,チテキショウガイシャジリツシエンノカイルピナス,0
1746,6021005011149,登記記録の閉鎖等,0,2021-08-10,2021-07-19,ＮＰＯ法人あすか安心センター,,その他の設立登記法人,神奈川県,横須賀市,小矢部１丁目２３番１６号,,14,201,2380026,,,2021-07-19,清算の結了等,,,2017-11-20,1,,,,,アスカアンシンセンター,0
1766,6040005017864,登記記録の閉鎖等,0,2021-08-10,2021-07-30,ＮＰＯ法人プロデュース・スマートハイツ,,その他の設立登記法人,千葉県,千葉市若葉区,高品町８９９番地１高品ハイツ１棟４０５号,,12,104,2640024,,,2021-07-30,清算の結了等,,,2015-10-05,1,,,,,プロデューススマートハイツ,0
1780,6070002026790,登記記録の閉鎖等,0,2021-08-10,2021-08-03,有限会社福島電設,,有限会社,群馬県,渋川市,金井２１１７番地,,10,208,3770027,,,2021-08-03,清算の結了等,,,2015-10-05,1,,,,,フクシマデンセツ,0
1839,6180001069706,登記記録の閉鎖等,0,2021-08-10,2021-07-27,株式会社エフピーソリューション,,株式会社,愛知県,豊明市,三崎町ゆたか台７番地９,,23,229,4701127,,,2021-07-27,清算の結了等,,,2015-10-05,1,,,,,エフピーソリューション,0
1840,6180001110460,登記記録の閉鎖等,0,2021-08-10,2021-08-06,株式会社ｏｂｊ,,株式会社,愛知県,名古屋市東区,泉１丁目１６番７号,,23,102,4610001,,,2021-08-06,清算の結了等,,,2015-10-05,1,,,,,オービージェー,0
1850,6180002015782,登記記録の閉鎖等,0,2021-08-10,2021-08-02,有限会社グリーン・ベア,,有限会社,愛知県,名古屋市東区,矢田１丁目８番２５号,,23,102,4610040,,,2021-08-02,清算の結了等,,,2015-10-05,1,,,,,,0
1858,6180301000741,登記記録の閉鎖等,0,2021-08-10,2021-08-05,クリアテック株式会社,,株式会社,愛知県,岡崎市,柱曙３丁目７番地１９,,23,202,4440833,,,2021-08-05,清算の結了等,,,2015-10-05,1,,,,,クリアテック,0
1864,6190003002606,登記記録の閉鎖等,0,2021-08-10,2021-08-05,株式会社ＪＥＴトレーディング,,株式会社,三重県,鈴鹿市,東旭が丘３丁目６番１号,,24,207,5100211,,,2021-08-05,清算の結了等,,,2016-11-15,1,,,,,ジェットトレーディング,0
1873,6220005007938,登記記録の閉鎖等,0,2021-08-10,2021-07-30,一般社団法人古民家再生協会石川,,その他の設立登記法人,石川県,金沢市,示野町西３番地,,17,201,9200059,,,2021-07-30,清算の結了等,,,2015-10-05,1,,,,,コミンカサイセイキョウカイイシカワ,0
1877,6240001000580,登記記録の閉鎖等,0,2021-08-10,2021-07-26,株式会社アモーネ,,株式会社,広島県,広島市安佐北区,深川１丁目９番３－６０１号,,34,106,7391751,,,2021-07-26,清算の結了等,,,2015-10-05,1,,,,,アモーネ,0
1882,6240002053909,登記記録の閉鎖等,0,2021-08-10,2021-07-20,有限会社オオシタ,,有限会社,広島県,三原市,本郷町上北方１０３４番地の１,,34,204,7290415,,,2021-07-20,清算の結了等,,,2015-10-05,1,,,,,オオシタ,0
1888,6270001003993,登記記録の閉鎖等,0,2021-08-10,2021-07-27,ワイズ・アイ株式会社,,株式会社,鳥取県,米子市,西町８６番地５,,31,202,6830826,,,2021-07-27,清算の結了等,,,2015-10-05,1,,,,,ワイズアイ,0
1914,6320002011032,登記記録の閉鎖等,0,2021-08-10,2021-08-05,有限会社大野勝建設,,有限会社,大分県,別府市,大字北石垣２番地の１,,44,202,8740000,,,2021-08-05,清算の結了等,,,2015-10-05,1,,,,,オオノマサルケンセツ,0
1917,6330001023960,登記記録の閉鎖等,0,2021-08-10,2021-07-19,株式会社ＯＸＹＡ,,株式会社,熊本県,熊本市中央区,出水５丁目１１番２４－９号,,43,101,8620941,,,2021-07-19,清算の結了等,,,2017-04-18,1,,,,,オクシア,0
1927,6360002021671,登記記録の閉鎖等,0,2021-08-10,2021-07-29,有限会社シャルーボ,,有限会社,沖縄県,石垣市,字宮良９６９番地の３,,47,207,9070243,,,2021-07-29,清算の結了等,,,2015-10-05,1,,,,,シャルーボ,0
1938,6380002003536,登記記録の閉鎖等,0,2021-08-10,2021-08-02,有限会社まるなり,,有限会社,福島県,福島市,松川町浅川字水晶沢８番地の１,,07,201,9601245,,,2021-08-02,清算の結了等,,,2015-10-05,1,,,,,マルナリ,0
1951,6410002005644,登記記録の閉鎖等,0,2021-08-10,2021-08-02,有限会社三友鉄筋工業,,有限会社,秋田県,潟上市,天王字上北野９８番地３４,,05,211,0100101,,,2021-08-02,清算の結了等,,,2015-10-05,1,,,,,サンユウテッキンコウギョウ,0
1957,6430001051316,登記記録の閉鎖等,0,2021-08-10,2021-07-29,株式会社北海道商工銀行,,株式会社,北海道,小樽市,稲穂町東七丁目４番地,,01,203,0470000,,,2021-07-29,清算の結了等,,,2018-04-04,1,,,,,ホッカイドウショウコウギンコウ,0
1964,6490002010570,登記記録の閉鎖等,0,2021-08-10,2021-08-04,有限会社中平工務店,,有限会社,高知県,須崎市,緑町３番７号,,39,206,7850036,,,2021-08-04,清算の結了等,,,2015-10-05,1,,,,,ナカヒラコウムテン,0
1966,6500001002666,登記記録の閉鎖等,0,2021-08-10,2021-08-06,株式会社玉井鋼業,,株式会社,愛媛県,松山市,東垣生町９８０番地６,,38,201,7918043,,,2021-08-06,清算の結了等,,,2015-10-05,1,,,,,タマイコウギョウ,0
1987,7010401008873,登記記録の閉鎖等,0,2021-08-10,2021-07-28,株式会社クリハラアソシエイツ,,株式会社,東京都,港区,三田２丁目７番１－４０９号,,13,103,1080073,,,2021-07-28,清算の結了等,,,2015-10-05,1,,,,,クリハラアソシエイツ,0
1998,7010601040008,登記記録の閉鎖等,0,2021-08-10,2021-07-19,株式会社ｎｅｏｓｔａ－ｏｎｌｉｎｅ,,株式会社,東京都,墨田区,押上３丁目２５番１７号,,13,107,1310045,,,2021-07-19,清算の結了等,,,2015-10-05,1,,,,,ネオスタオンライン,0
2036,7011702011186,登記記録の閉鎖等,0,2021-08-10,2021-08-03,有限会社三鈴商店,,有限会社,東京都,江戸川区,北小岩１丁目１番１２号,,13,123,1330051,,,2021-08-03,清算の結了等,,,2015-10-05,1,,,,,ミスズショウテン,0
2041,7013301031367,登記記録の閉鎖等,0,2021-08-10,2021-07-29,オーティーエス株式会社,,株式会社,埼玉県,さいたま市桜区,栄和３丁目３番２７号,,11,106,3380823,,,2021-07-29,清算の結了等,,,2015-10-05,1,,,,,オーティーエス,0
2065,7021002060924,登記記録の閉鎖等,0,2021-08-10,2021-07-30,有限会社ヒロクリエイト,,有限会社,神奈川県,中郡二宮町,二宮１４３２番地の５,,14,342,2590123,,,2021-07-30,清算の結了等,,,2015-10-05,1,,,,,,0
2070,7030001080016,登記記録の閉鎖等,0,2021-08-10,2021-07-26,株式会社富士,,株式会社,埼玉県,川口市,江戸３丁目６番１号,,11,203,3340074,,,2021-07-26,清算の結了等,,,2015-10-05,1,,,,,,0
2101,7080001017830,登記記録の閉鎖等,0,2021-08-10,2021-08-05,株式会社ＥＮＳエンジニアリング,,株式会社,静岡県,藤枝市,下藪田６８番地の１,,22,214,4260201,,,2021-08-05,清算の結了等,,,2015-10-05,1,,,,,イーエヌエスエンジニアリング,0
2104,7080102002269,登記記録の閉鎖等,0,2021-08-10,2021-08-04,有限会社田中建築工業,,有限会社,静岡県,沼津市,西間門６３番地の１,,22,203,4100871,,,2021-08-04,清算の結了等,,,2015-10-05,1,,,,,,0
2105,7080401002548,登記記録の閉鎖等,0,2021-08-10,2021-08-04,鈴甚設備株式会社,,株式会社,静岡県,浜松市南区,高塚町４７１０番地の１,,22,134,4328065,,,2021-08-04,清算の結了等,,,2015-10-05,1,,,,,スズジンセツビ,0
2124,7120001185466,登記記録の閉鎖等,0,2021-08-10,2021-08-02,Ｎ．Ｔ．トータルケア株式会社,,株式会社,大阪府,大阪市北区,梅田１丁目２番２－１０００号,,27,127,5300001,,,2021-08-02,合併による解散等,2120001072990,令和３年８月１日大阪市北区梅田一丁目２番２－１４００号日本ペトロ株式会社（2120001072990）に合併し解散,2015-10-05,1,,,,,エヌティートータルケア,0
2170,7180002032579,登記記録の閉鎖等,0,2021-08-10,2021-08-03,有限会社平吉,,有限会社,愛知県,名古屋市中区,丸の内１丁目１１番７号,,23,106,4600002,,,2021-08-03,清算の結了等,,,2015-10-05,1,,,,,ヒラキチ,0
2172,7180002089248,登記記録の閉鎖等,0,2021-08-10,2021-08-03,有限会社弘英社,,有限会社,愛知県,津島市,元寺町３丁目６番地の１,,23,208,4960034,,,2021-08-03,清算の結了等,,,2015-10-05,1,,,,,コウエイシャ,0
2173,7180005009087,登記記録の閉鎖等,0,2021-08-10,2021-08-05,特定非営利活動法人瀬戸松ヶ丘の会,,その他の設立登記法人,愛知県,瀬戸市,松原町２丁目７３番地２,,23,204,4890985,,,2021-08-05,清算の結了等,,,2015-10-05,1,,,,,セトマツガオカノカイ,0
2181,7200001004923,登記記録の閉鎖等,0,2021-08-10,2021-08-05,株式会社丸五,,株式会社,岐阜県,岐阜市,茜部新所２丁目５番地岐阜市中央卸売市場内,,21,201,5008263,,,2021-08-05,清算の結了等,,,2015-10-05,1,,,,,マルゴ,0
2187,7210005009315,登記記録の閉鎖等,0,2021-08-10,2021-08-02,一般社団法人福井観光創造会議,,その他の設立登記法人,福井県,福井市,和田東２丁目１６１１番地,,18,201,9188237,,,2021-08-02,清算の結了等,,,2015-10-05,1,,,,,フクイカンコウソウゾウカイギ,0
2196,7240001017822,登記記録の閉鎖等,0,2021-08-10,2021-07-26,株式会社プロシード,,株式会社,広島県,広島市中区,中町１番２４号,,34,101,7300037,,,2021-07-26,清算の結了等,,,2015-10-05,1,,,,,,0
2213,7290001028336,登記記録の閉鎖等,0,2021-08-10,2021-07-14,株式会社ＰＲＤ,,株式会社,福岡県,福岡市中央区,大名１丁目１４番１３号,,40,133,8100041,,,2021-07-14,清算の結了等,,,2015-10-05,1,,,,,ピーアールディー,0
2228,7310001003947,登記記録の閉鎖等,0,2021-08-10,2021-08-02,新長ドック株式会社,,株式会社,長崎県,長崎市,浪の平町４番１８号,,42,201,8500936,,,2021-08-02,合併による解散等,2310001008257,令和３年８月１日長崎県諫早市小長井町小川原浦４９８番地株式会社有明商事（2310001008257）に合併し解散,2015-10-05,1,,,,,シンナガドック,0
2241,7330003005188,登記記録の閉鎖等,0,2021-08-10,2021-08-02,合同会社ハイリッヒ,,合同会社,熊本県,熊本市中央区,水前寺公園２８番４３,,43,101,8620956,,,2021-08-02,清算の結了等,,,2015-10-05,1,,,,,ハイリッヒ,0
2245,7370001000559,登記記録の閉鎖等,0,2021-08-10,2021-07-26,株式会社片倉工務店,,株式会社,宮城県,仙台市泉区,将監１丁目１３番５号,,04,105,9813132,,,2021-07-26,清算の結了等,,,2015-10-05,1,,,,,カタクラコウムテン,0
2251,7380001022494,登記記録の閉鎖等,0,2021-08-10,2021-08-02,株式会社エーエフコーポレーション,,株式会社,福島県,福島市,渡利字岩下１番地の１,,07,201,9608141,,,2021-08-02,清算の結了等,,,2015-10-05,1,,,,,エーエフコーポレーション,0
2264,7410002005701,登記記録の閉鎖等,0,2021-08-10,2021-08-05,有限会社杉ノ実商事,,有限会社,秋田県,南秋田郡井川町,浜井川字杉ノ実１７０番地１,,05,366,0181516,,,2021-08-05,清算の結了等,,,2015-10-05,1,,,,,スギノミショウジ,0
2317,8010702015122,登記記録の閉鎖等,0,2021-08-10,2021-08-02,アセスワン有限会社,,有限会社,東京都,千代田区,一番町１０番８号一番町ウエストビル５階,,13,101,1020082,,,2021-08-02,清算の結了等,,,2015-10-05,1,,,,,アセスワン,0
2319,8010802004413,登記記録の閉鎖等,0,2021-08-10,2021-07-30,有限会社金龍,,有限会社,東京都,大田区,南蒲田２丁目１９番１０号,,13,111,1440035,,,2021-07-30,清算の結了等,,,2015-10-05,1,,,,,キンリュウ,0
2327,8011001052022,登記記録の閉鎖等,0,2021-08-10,2021-07-26,株式会社小寺デザイン,,株式会社,東京都,大田区,東蒲田１丁目２４番１１号,,13,111,1440031,,,2021-07-26,清算の結了等,,,2015-10-05,1,,,,,,0
2386,8020002020061,登記記録の閉鎖等,0,2021-08-10,2021-07-30,有限会社望月クリーニング,,有限会社,神奈川県,横浜市港南区,日限山１丁目３１番１８号,,14,111,2330015,,,2021-07-30,清算の結了等,,,2015-10-05,1,,,,,モチヅキクリーニング,0
2393,8030001051718,登記記録の閉鎖等,0,2021-08-10,2021-07-26,株式会社春日部製作所,,株式会社,埼玉県,春日部市,米崎１０９番地２,,11,214,3440124,,,2021-07-26,清算の結了等,,,2015-10-05,1,,,,,,0
2400,8030002063539,登記記録の閉鎖等,0,2021-08-10,2021-07-26,有限会社日の出建築店,,有限会社,埼玉県,富士見市,上沢２丁目１０番４８号,,11,235,3540034,,,2021-07-26,清算の結了等,,,2015-10-05,1,,,,,ヒノデケンチクテン,0
2458,8120005010776,登記記録の閉鎖等,0,2021-08-10,2021-08-03,特定非営利活動法人臨床研究推進ネットワークジャパン,,その他の設立登記法人,大阪府,大阪市西区,立売堀１丁目４番９号,,27,106,5500012,,,2021-08-03,清算の結了等,,,2015-10-05,1,,,,,リンショウケンキュウスイシンネットワークジャパン,0
2461,8120101023104,登記記録の閉鎖等,0,2021-08-10,2021-08-05,株式会社クロスワーク,,株式会社,大阪府,堺市中区,八田北町１０－４６,,27,142,5998262,,,2021-08-05,清算の結了等,,,2015-10-05,1,,,,,クロスワーク,0
2469,8122001027003,登記記録の閉鎖等,0,2021-08-10,2021-08-02,新栄興産株式会社,,株式会社,大阪府,八尾市,志紀町１丁目１１８番地,,27,212,5810031,,,2021-08-02,合併による解散等,6122001018854,令和３年８月１日大阪府八尾市志紀町一丁目１１８番地新栄商事株式会社（6122001018854）に合併し解散,2015-10-05,1,,,,,シンエイコウサン,0
2474,8130002022963,登記記録の閉鎖等,0,2021-08-10,2021-08-04,株式会社小嶋建設,,株式会社,京都府,京都市右京区,太秦奥殿町９番地２５,,26,108,6168127,,,2021-08-04,清算の結了等,,,2015-10-05,1,,,,,コジマケンセツ,0
2475,8140001021098,登記記録の閉鎖等,0,2021-08-10,2021-08-02,株式会社クロスファー・インターナショナル,,株式会社,兵庫県,神戸市須磨区,東白川台４丁目５番地の１３,,28,107,6540102,,,2021-08-02,清算の結了等,,,2015-10-05,1,,,,,クロスファーインターナショナル,0
2502,8180301028161,登記記録の閉鎖等,0,2021-08-10,2021-08-03,株式会社Ｋ－ＳＴＹＬＥ,,株式会社,愛知県,豊橋市,小浜町８２番地１,,23,201,4418067,,,2021-08-03,合併による解散等,1180301034100,令和３年８月２日愛知県豊橋市松葉町一丁目２７番地１株式会社ｐｒｏｓｐｅｃｔ（1180301034100）に合併し解散,2015-10-05,1,,,,,ケイスタイル,0
2505,8200001014665,登記記録の閉鎖等,0,2021-08-10,2021-08-05,株式会社小寺工業所,,株式会社,岐阜県,大垣市,墨俣町墨俣３１２番地,,21,202,5030102,,,2021-08-05,清算の結了等,,,2015-10-05,1,,,,,コデラコウギョウショ,0
2517,8240001036656,登記記録の閉鎖等,0,2021-08-10,2021-07-21,ヤマコー機電株式会社,,株式会社,広島県,安芸郡海田町,曽田３番７４号,,34,304,7360003,,,2021-07-21,清算の結了等,,,2015-10-05,1,,,,,ヤマコーキデン,0
2528,8250005000582,登記記録の閉鎖等,0,2021-08-10,2021-08-05,山口建築設計フォーラム協同組合,,その他の設立登記法人,山口県,山口市,吉田３１０６番地３,,35,203,7530841,,,2021-08-05,清算の結了等,,,2015-10-05,1,,,,,ヤマグチケンチクセッケイフォーラム,0
2536,8290001078272,登記記録の閉鎖等,0,2021-08-10,2021-07-12,株式会社ウェルモキャリア,,株式会社,福岡県,福岡市中央区,天神４丁目４番１１号,,40,133,8100001,,,2021-07-12,合併による解散等,8290001062747,令和３年７月１日福岡市中央区天神四丁目４番１１号株式会社ウェルモ（8290001062747）に合併し解散,2017-06-23,1,,,,,ウェルモキャリア,0
2573,8390001010209,登記記録の閉鎖等,0,2021-08-10,2021-07-30,株式会社ワボー,,株式会社,山形県,米沢市,門東町１丁目１番４８号,,06,202,9920039,,,2021-07-30,清算の結了等,,,2015-10-05,1,,,,,ワボー,0
2582,8460001003196,登記記録の閉鎖等,0,2021-08-10,2021-07-27,株式会社自然塾,,株式会社,北海道,川上郡弟子屈町,川湯温泉１丁目９－１５,,01,665,0883465,,,2021-07-27,清算の結了等,,,2015-10-05,1,,,,,シゼンジュク,0
2588,8500001013141,登記記録の閉鎖等,0,2021-08-10,2021-08-04,大澤工業株式会社,,株式会社,愛媛県,今治市,八町西３丁目７番４５号,,38,202,7940832,,,2021-08-04,清算の結了等,,,2015-10-05,1,,,,,オオザワコウギョウ,0
2590,8500002001772,登記記録の閉鎖等,0,2021-08-10,2021-08-06,二番町クロスビル有限会社,,有限会社,愛媛県,松山市,二番町２丁目６番地１０,,38,201,7900002,,,2021-08-06,清算の結了等,,,2015-10-05,1,,,,,ニバンチョウクロスビル,0
2592,8500002009741,登記記録の閉鎖等,0,2021-08-10,2021-08-05,有限会社Ｈ通Ｏ,,有限会社,愛媛県,松山市,高井町１１１３番地１,,38,201,7911111,,,2021-08-05,清算の結了等,,,2015-10-05,1,,,,,エイチツウオー,0
2607,9010001165403,登記記録の閉鎖等,0,2021-08-10,2021-08-03,株式会社デルナビ,,株式会社,熊本県,熊本市中央区,水道町１２－１－２Ｆ,,43,101,8600844,,,2021-08-03,清算の結了等,,,2015-10-05,1,,,,,デルナビ,0
2629,9010401039198,登記記録の閉鎖等,0,2021-08-10,2021-07-27,ジャパンポータル・ドット・コム株式会社,,株式会社,東京都,港区,芝浦３丁目１９番１８号,,13,103,1080023,,,2021-07-27,清算の結了等,,,2015-10-05,1,,,,,ジャパンポータルドットコム,0
2630,9010401079376,登記記録の閉鎖等,0,2021-08-10,2021-07-27,株式会社ＶＩＡ,,株式会社,東京都,港区,芝浦２丁目３番２７号,,13,103,1080023,,,2021-07-27,清算の結了等,,,2015-10-05,1,,,,,ブイアイエー,0
2634,9010601043223,登記記録の閉鎖等,0,2021-08-10,2021-07-19,株式会社ネオスタンダード不動産,,株式会社,東京都,墨田区,押上３丁目２８番２１号,,13,107,1310045,,,2021-07-19,清算の結了等,,,2015-10-05,1,,,,,ネオスタンダードフドウサン,0
2683,9012401031746,登記記録の閉鎖等,0,2021-08-10,2021-07-29,株式会社ＦＫＤ,,株式会社,東京都,狛江市,中和泉５丁目１９番１０号,,13,219,2010012,,,2021-07-29,清算の結了等,,,2016-08-15,1,,,,,エフケーディー,0
2708,9020002007883,登記記録の閉鎖等,0,2021-08-10,2021-07-29,窪田興業有限会社,,有限会社,神奈川県,横浜市金沢区,柳町１８番地の１０,,14,108,2360026,,,2021-07-29,清算の結了等,,,2015-10-05,1,,,,,クボタコウギョウ,0
2738,9040001004401,登記記録の閉鎖等,0,2021-08-10,2021-07-30,タルボットジャパン株式会社,,株式会社,千葉県,千葉市美浜区,中瀬１丁目５番１号,,12,106,2610023,,,2021-07-30,清算の結了等,,,2015-10-05,1,,,,,タルボットジャパン,0
2771,9080401006332,登記記録の閉鎖等,0,2021-08-10,2021-08-06,ニューロン株式会社,,株式会社,静岡県,浜松市北区,三幸町３３８番地の３,,22,135,4338101,,,2021-08-06,清算の結了等,,,2015-10-05,1,,,,,ニューロン,0
2774,9090002012051,登記記録の閉鎖等,0,2021-08-10,2021-07-28,有限会社サンプレシジョン,,有限会社,山梨県,富士吉田市,松山４丁目８番１４号,,19,202,4030016,,,2021-07-28,清算の結了等,,,2015-10-05,1,,,,,,0
2775,9090002014188,登記記録の閉鎖等,0,2021-08-10,2021-08-04,有限会社北杜レンタカー,,有限会社,山梨県,北杜市,大泉町西井出３４０１番地３,,19,209,4091501,,,2021-08-04,清算の結了等,,,2015-10-05,1,,,,,ホクトレンタカー,0
2779,9110001001242,登記記録の閉鎖等,0,2021-08-10,2021-08-02,株式会社石津組,,株式会社,新潟県,新潟市中央区,天神尾１丁目１１番１０号,,15,103,9500905,,,2021-08-02,合併による解散等,6110001005270,令和３年８月１日新潟市中央区幸西一丁目４番２１号丸運建設株式会社（6110001005270）に合併し解散,2015-10-05,1,,,,,イシヅグミ,0
2797,9120102022566,登記記録の閉鎖等,0,2021-08-10,2021-08-04,有限会社城南,,有限会社,大阪府,泉南郡熊取町,つばさが丘東１丁目７番１６号,,27,361,5900442,,,2021-08-04,清算の結了等,,,2015-10-05,1,,,,,ジョウナン,0
2831,9160002012259,登記記録の閉鎖等,0,2021-08-10,2021-08-05,有限会社でじまむワーカーズ,,有限会社,滋賀県,大津市,国分２丁目２７番１号,,25,201,5200844,,,2021-08-05,清算の結了等,,,2015-10-05,1,,,,,デジマムワーカーズ,0
2843,9180002022025,登記記録の閉鎖等,0,2021-08-10,2021-08-02,有限会社花の木,,有限会社,愛知県,名古屋市天白区,保呂町２０６番地,,23,116,4680041,,,2021-08-02,清算の結了等,,,2015-10-05,1,,,,,ハナノキ,0
2846,9180003016265,登記記録の閉鎖等,0,2021-08-10,2021-08-02,合同会社オフィスＹＯＵ,,合同会社,愛知県,名古屋市東区,泉１丁目１３番２５号プラウドタワー久屋大通１５０１号,,23,102,4610001,,,2021-08-02,清算の結了等,,,2015-10-05,1,,,,,オフィスユー,0
2850,9190001026199,登記記録の閉鎖等,0,2021-08-10,2021-08-02,株式会社ザ・ライブラリー,,株式会社,三重県,鳥羽市,鳥羽５丁目１１番６号,,24,211,5170011,,,2021-08-02,清算の結了等,,,2019-02-21,1,,,,,ザライブラリー,0
2855,9200002003195,登記記録の閉鎖等,0,2021-08-10,2021-08-05,有限会社東海プラン,,有限会社,岐阜県,岐阜市,加納水野町３丁目４番地,,21,201,5008477,,,2021-08-05,清算の結了等,,,2015-10-05,1,,,,,トウカイプラン,0
2877,9240002044517,登記記録の閉鎖等,0,2021-08-10,2021-07-27,有限会社エムズラッシュ,,有限会社,広島県,福山市,三之丸町４番１号,,34,207,7200066,,,2021-07-27,清算の結了等,,,2015-10-05,1,,,,,エムズラッシュ,0
2891,9280002009152,登記記録の閉鎖等,0,2021-08-10,2021-08-05,有限会社児玉試錐,,有限会社,島根県,江津市,二宮町神主１９６２番地４２,,32,207,6950024,,,2021-08-05,清算の結了等,,,2015-10-05,1,,,,,コダマシスイ,0
2893,9290001015480,登記記録の閉鎖等,0,2021-08-10,2021-07-16,日動工業株式会社,,株式会社,福岡県,福岡市博多区,那珂１丁目１３番９号,,40,132,8120893,,,2021-07-16,清算の結了等,,,2015-10-05,1,,,,,ニチドウコウギョウ,0
2912,9350001005896,登記記録の閉鎖等,0,2021-08-10,2021-08-04,株式会社カワノ,,株式会社,宮崎県,児湯郡都農町,大字川北４７５３番地３,,45,406,8891201,,,2021-08-04,清算の結了等,,,2015-10-05,1,,,,,カワノ,0
2931,9370201003335,登記記録の閉鎖等,0,2021-08-10,2021-07-26,株式会社瑞岳,,株式会社,宮城県,栗原市,築館伊豆２丁目１１番２６号,,04,213,9872216,,,2021-07-26,清算の結了等,,,2015-10-05,1,,,,,ズイガク,0
2940,9390002003004,登記記録の閉鎖等,0,2021-08-10,2021-07-30,有限会社吉田屋呉服店,,有限会社,山形県,山形市,大字松原３８１番地,,06,201,9902313,,,2021-07-30,清算の結了等,,,2015-10-05,1,,,,,ヨシダヤゴフクテン,0
2942,9400001005882,登記記録の閉鎖等,0,2021-08-10,2021-08-04,株式会社エムシートラスト,,株式会社,岩手県,花巻市,石鳥谷町八幡第５地割４８番地２,,03,205,0283163,,,2021-08-04,清算の結了等,,,2015-10-05,1,,,,,エムシートラスト,0
