sequenceNumber,corporateNumber,process,correct,updateDate,changeDate,name,nameImageId,kind,prefectureName,cityName,streetNumber,addressImageId,prefectureCode,cityCode,postCode,addressOutside,addressOutsideImageId,closeDate,closeCause,successorCorporateNumber,changeCause,assignmentDate,latest,enName,enPrefectureName,enCityName,enAddressOutside,furigana,hihyoji
4,1010001237481,新規,0,2023-08-09,2023-08-09,株式会社ｉＴＴＥＮＤ,,株式会社,東京都,千代田区,岩本町１丁目１１－２Ａ－ＲＩＳＥ神田８Ｆ,,13,101,1010032,,,,,,,2023-08-09,1,,,,,アイテンド,0
5,1010001237515,新規,0,2023-08-09,2023-08-09,株式会社柚来,,株式会社,東京都,中央区,日本橋横山町５番１２号田中ビル,,13,102,1030003,,,,,,,2023-08-09,1,,,,,ユライ,0
6,1010001237523,新規,0,2023-08-09,2023-08-09,オメガキャピタル株式会社,,株式会社,東京都,千代田区,大手町１丁目７－２東京サンケイビル２７階,,13,101,1000004,,,,,,,2023-08-09,1,,,,,オメガキャピタル,0
7,1010001237548,新規,0,2023-08-09,2023-08-09,コムフォニック・ラボラトリーズ株式会社,,株式会社,東京都,千代田区,永田町２丁目４番１１号フレンドビル３階,,13,101,1000014,,,,,,,2023-08-09,1,,,,,コムフォニックラボラトリーズ,0
8,1010001237589,新規,0,2023-08-09,2023-08-09,クロスフィールドデザイン株式会社,,株式会社,東京都,中央区,日本橋本町３丁目９－７,,13,102,1030023,,,,,,,2023-08-09,1,,,,,クロスフィールドデザイン,0
11,1010003041304,新規,0,2023-08-09,2023-08-09,ファセットジャム合同会社,,合同会社,東京都,中央区,銀座１丁目３番３号Ｇ１ビル７階,,13,102,1040061,,,,,,,2023-08-09,1,,,,,ファセットジャム,0
14,1010101015762,新規,0,2023-08-09,2023-08-09,Ｙｏｕｒ　Ｐｏｔｅｎｔｉａｌ株式会社,,株式会社,東京都,八王子市,東町１２番８号長澤ビル５Ｆ－２２号室,,13,201,1920082,,,,,,,2023-08-09,1,,,,,ユアポテンシャル,0
15,1010103002189,新規,0,2023-08-09,2023-08-09,ｌｅｔｔｒｅ合同会社,,合同会社,東京都,八王子市,明神町１丁目１２－７ラ・クレール八王子２０１号室,,13,201,1920046,,,,,,,2023-08-09,1,,,,,レットル,0
24,1010401176131,新規,0,2023-08-09,2023-08-09,株式会社ニューロドライブ・ジャパン・テクノロジー,,株式会社,東京都,港区,元麻布３丁目１番６号,,13,103,1060046,,,,,,,2023-08-09,1,,,,,ニューロドライブジャパンテクノロジー,0
25,1010401176156,新規,0,2023-08-09,2023-08-09,株式会社Ｆ．ｌａｂ,,株式会社,東京都,港区,赤坂３丁目１５－１ＳＩＯＮビルＢ１,,13,103,1070052,,,,,,,2023-08-09,1,,,,,エフラボ,0
26,1010401176247,新規,0,2023-08-09,2023-08-09,株式会社Ｓｍａｒｔ　Ｓｙｎｅｒｇｙ　Ｈｕｂ,,株式会社,東京都,港区,三田２丁目３番３４－１７０２号,,13,103,1080073,,,,,,,2023-08-09,1,,,,,スマートシナジーハブ,0
27,1010401176255,新規,0,2023-08-09,2023-08-09,株式会社ＷｅｌｌＶｉ,,株式会社,東京都,港区,北青山１丁目３番１号アールキューブ青山３階,,13,103,1070061,,,,,,,2023-08-09,1,,,,,ウェルヴィ,0
28,1010401176346,新規,0,2023-08-09,2023-08-09,株式会社アルイエ,,株式会社,東京都,港区,六本木７丁目１８番１５号１２階,,13,103,1060032,,,,,,,2023-08-09,1,,,,,アルイエ,0
29,1010403030625,新規,0,2023-08-09,2023-08-09,合同会社ながたば,,合同会社,東京都,港区,芝浦４丁目２０番２号,,13,103,1080023,,,,,,,2023-08-09,1,,,,,ナガタバ,0
37,1010503007110,新規,0,2023-08-09,2023-08-09,ＡＫｊａｐａｎ合同会社,,合同会社,東京都,台東区,谷中２丁目７番９号,,13,106,1100001,,,,,,,2023-08-09,1,,,,,エーケージャパン,0
42,1010701044698,新規,0,2023-08-09,2023-08-09,株式会社ＥＮｉＲＯ,,株式会社,東京都,品川区,大崎３丁目１番５号ルミネ五反田第２・２０２号室,,13,109,1410032,,,,,,,2023-08-09,1,,,,,エニロ,0
44,1010803004633,新規,0,2023-08-09,2023-08-09,合同会社プロジェクトイノベーション,,合同会社,東京都,大田区,西六郷１丁目１９番１－４０４号,,13,111,1440056,,,,,,,2023-08-09,1,,,,,プロジェクトイノベーション,0
46,1010901053549,新規,0,2023-08-09,2023-08-09,株式会社アトリエ秀花,,株式会社,東京都,世田谷区,用賀４丁目２８番２０号,,13,112,1580097,,,,,,,2023-08-09,1,,,,,アトリエシュウカ,0
47,1010901053573,新規,0,2023-08-09,2023-08-09,株式会社ｅｔｔｏ,,株式会社,東京都,世田谷区,野沢２丁目２９番４号野沢Ｎハウス２０１,,13,112,1540003,,,,,,,2023-08-09,1,,,,,エットー,0
48,1010901053581,新規,0,2023-08-09,2023-08-09,ＶＩＡＪＡＰＡＮ株式会社,,株式会社,東京都,世田谷区,上馬４丁目３８番１０号,,13,112,1540011,,,,,,,2023-08-09,1,,,,,ヴィアジャパン,0
49,1010901053598,新規,0,2023-08-09,2023-08-09,株式会社ララステーション,,株式会社,東京都,世田谷区,太子堂４丁目３０番２２号Ｋ’ｓアパートメント４０２号室,,13,112,1540004,,,,,,,2023-08-09,1,,,,,ララステーション,0
50,1010905004515,新規,0,2023-08-09,2023-08-09,一般社団法人Ｃａｂｉｎｅｔ　ｏｆ　Ｃｕｒｉｏｓｉｔｉｅｓ,,その他の設立登記法人,東京都,世田谷区,粕谷４丁目９－１７－１０５,,13,112,1570063,,,,,,,2023-08-09,1,,,,,キャビネットオブキュリオシティーズ,0
53,1011001156176,新規,0,2023-08-09,2023-08-09,ＢＥＴＴＥＲ　ＴＨＡＮ　ＮＯＴＨＩＮＧ株式会社,,株式会社,東京都,渋谷区,渋谷２丁目５番７号本間ビル１０１,,13,113,1500002,,,,,,,2023-08-09,1,,,,,ベターザンナッシング,0
54,1011001156218,新規,0,2023-08-09,2023-08-09,株式会社Ｓｌａｎｇ　Ｌｉｔ,,株式会社,東京都,目黒区,東山２丁目２番５－１２０１号,,13,110,1530043,,,,,,,2023-08-09,1,,,,,スラングリット,0
55,1011001156242,新規,0,2023-08-09,2023-08-09,Ｋｈａｒｉｓｍｉｒａ株式会社,,株式会社,東京都,渋谷区,神宮前６丁目２３番４号桑野ビル２階,,13,113,1500001,,,,,,,2023-08-09,1,,,,,カリスミラ,0
56,1011001156259,新規,0,2023-08-09,2023-08-09,株式会社ｋａｍｉｎｏｋｏ,,株式会社,東京都,渋谷区,代々木１丁目３２番１５号第三白倉ビル３Ｆ,,13,113,1510053,,,,,,,2023-08-09,1,,,,,カミノコ,0
57,1011003017327,新規,0,2023-08-09,2023-08-09,ＧＩＡ　ＶＡＬＡＮＣＥ　ＪＰ合同会社,,合同会社,東京都,渋谷区,笹塚２丁目４番１－１３０８号,,13,113,1510073,,,,,,,2023-08-09,1,,,,,ジアバランスジャパン,0
59,1011005010172,新規,0,2023-08-09,2023-08-09,一般社団法人カジュアルビューティー,,その他の設立登記法人,東京都,渋谷区,桜丘町１５番１４号フジビル４０・７Ｆ,,13,113,1500031,,,,,,,2023-08-09,1,,,,,カジュアルビューティー,0
65,1011101103929,新規,0,2023-08-09,2023-08-09,スカイ・マネジメント株式会社,,株式会社,東京都,新宿区,百人町３丁目１番４－９０５号,,13,104,1690073,,,,,,,2023-08-09,1,,,,,スカイマネジメント,0
66,1011101103937,新規,0,2023-08-09,2023-08-09,株式会社クラウドナインミュージック,,株式会社,東京都,新宿区,四谷坂町５－１,,13,104,1600002,,,,,,,2023-08-09,1,,,,,クラウドナインミュージック,0
67,1011101103953,新規,0,2023-08-09,2023-08-09,株式会社キコー,,株式会社,東京都,新宿区,西新宿２丁目２番１号,,13,104,1600023,,,,,,,2023-08-09,1,,,,,キコー,0
74,1011401025360,新規,0,2023-08-09,2023-08-09,株式会社ＡＳＴＲＥＡ,,株式会社,東京都,板橋区,若木１丁目２７番１－７２１号,,13,119,1740065,,,,,,,2023-08-09,1,,,,,アストレア,0
75,1011503005707,新規,0,2023-08-09,2023-08-09,真心合同会社,,合同会社,東京都,荒川区,南千住８丁目８番１－１６２８号,,13,118,1160003,,,,,,,2023-08-09,1,,,,,マゴコロ,0
76,1011601027033,新規,0,2023-08-09,2023-08-09,ＴＥＳＯＲＯ株式会社,,株式会社,東京都,練馬区,田柄４丁目２１番９号,,13,120,1790073,,,,,,,2023-08-09,1,,,,,,0
79,1011701026496,新規,0,2023-08-09,2023-08-09,株式会社常榮工業,,株式会社,東京都,江戸川区,小松川１丁目５番４－４０６号,,13,123,1320034,,,,,,,2023-08-09,1,,,,,ジョウエイコウギョウ,0
83,1011801042848,新規,0,2023-08-09,2023-08-09,株式会社Ｌａｐｉｎ　Ｇｌａｓｓ,,株式会社,東京都,足立区,六町２丁目２番５５号ラ・モーエ１０１,,13,121,1210073,,,,,,,2023-08-09,1,,,,,ラパンガラス,0
88,1012701017790,新規,0,2023-08-09,2023-08-09,株式会社オービー・レイ,,株式会社,東京都,西東京市,緑町１丁目２番２号,,13,229,1880002,,,,,,,2023-08-09,1,,,,,オービーレイ,0
89,1012801022559,新規,0,2023-08-09,2023-08-09,ＦＴＣ株式会社,,株式会社,東京都,日野市,落川６７番地の３２,,13,212,1910034,,,,,,,2023-08-09,1,,,,,エフティーシー,0
95,1013301051172,新規,0,2023-08-09,2023-08-09,Ｍ　Ｈｏｕｓｅ株式会社,,株式会社,東京都,豊島区,池袋３丁目５６番９号１０２号室,,13,116,1710014,,,,,,,2023-08-09,1,,,,,エムハウス,0
103,1020001152894,新規,0,2023-08-09,2023-08-09,ガイアフィールド株式会社,,株式会社,神奈川県,横浜市青葉区,しらとり台３８番地１９,,14,117,2270054,,,,,,,2023-08-09,1,,,,,ガイアフィールド,0
109,1020003024332,新規,0,2023-08-09,2023-08-09,合同会社ＭＴＨ,,合同会社,神奈川県,川崎市幸区,南加瀬５丁目６番地３３号３０２号室,,14,132,2120055,,,,,,,2023-08-09,1,,,,,エムティーエイチ,0
112,1021001079839,新規,0,2023-08-09,2023-08-09,株式会社Ｒｅｄ１,,株式会社,神奈川県,藤沢市,片瀬海岸２丁目１７番３１－２１３号,,14,205,2510035,,,,,,,2023-08-09,1,,,,,レッドワン,0
115,1021003013382,新規,0,2023-08-09,2023-08-09,合同会社よこすかラボ,,合同会社,神奈川県,横須賀市,本町３丁目１１双葉ビル２Ｆ,,14,201,2380041,,,,,,,2023-08-09,1,,,,,ヨコスカラボ,0
116,1021003013408,新規,0,2023-08-09,2023-08-09,ＭＡＲＫＨＯＲ　ＴＲＡＤＩＮＧ合同会社,,合同会社,神奈川県,相模原市緑区,根小屋１２３０番地３６,,14,151,2520153,,,,,,,2023-08-09,1,,,,,マーコールトレーディング,0
119,1030001155161,新規,0,2023-08-09,2023-08-09,株式会社徳戸,,株式会社,埼玉県,所沢市,大字上安松１８番地３６,,11,208,3590025,,,,,,,2023-08-09,1,,,,,トクド,0
120,1030001155194,新規,0,2023-08-09,2023-08-09,桜皇株式会社,,株式会社,埼玉県,川越市,稲荷町１７－４エマーユ稲荷町４０８号室,,11,201,3501144,,,,,,,2023-08-09,1,,,,,サクラキング,0
121,1030001155319,新規,0,2023-08-09,2023-08-09,ぼたん建設株式会社,,株式会社,埼玉県,草加市,谷塚町４６０番地６－１０２,,11,221,3400023,,,,,,,2023-08-09,1,,,,,ボタンケンセツ,0
125,1030003022211,新規,0,2023-08-09,2023-08-09,古希合同会社,,合同会社,埼玉県,さいたま市見沼区,東大宮５丁目４１番地１９－３Ｆ,,11,104,3370051,,,,,,,2023-08-09,1,,,,,クロノス,0
126,1030003022244,新規,0,2023-08-09,2023-08-09,Ｈａｍａｒ合同会社,,合同会社,埼玉県,志木市,柏町５丁目５番１９号,,11,228,3530007,,,,,,,2023-08-09,1,,,,,ハマー,0
127,1030003022252,新規,0,2023-08-09,2023-08-09,合同会社Ｔ．Ｋ,,合同会社,埼玉県,志木市,柏町５丁目１８番５－３０２号,,11,228,3530007,,,,,,,2023-08-09,1,,,,,ティーケー,0
128,1030003022260,新規,0,2023-08-09,2023-08-09,合同会社Ｃｒｅａｔｅ　Ｇｌｏｂａｌ,,合同会社,埼玉県,さいたま市大宮区,東町１丁目１６９番地３アヴェニューコートＩＩ１０３号,00131470,11,103,3300841,,,,,,,2023-08-09,1,,,,,クリエートグローバル,0
129,1030003022302,新規,0,2023-08-09,2023-08-09,合同会社ロータス,,合同会社,埼玉県,さいたま市北区,櫛引町２丁目１６２番地ＮＹビル１階,,11,102,3310825,,,,,,,2023-08-09,1,,,,,ロータス,0
135,1040001129552,新規,0,2023-08-09,2023-08-09,齊藤タイル株式会社,,株式会社,千葉県,松戸市,串崎新田１７７番地の２２,,12,207,2702216,,,,,,,2023-08-09,1,,,,,サイトウタイル,0
136,1040001129560,新規,0,2023-08-09,2023-08-09,株式会社８１５,,株式会社,千葉県,千葉市美浜区,打瀬２丁目１７番地,,12,106,2610013,,,,,,,2023-08-09,1,,,,,ハチイチゴ,0
137,1040001129577,新規,0,2023-08-09,2023-08-09,株式会社ＤＳＬ,,株式会社,千葉県,白井市,平塚２８０２番地の１,,12,232,2701402,,,,,,,2023-08-09,1,,,,,ディーエスエル,0
138,1040001129585,新規,0,2023-08-09,2023-08-09,株式会社ともとも,,株式会社,千葉県,千葉市稲毛区,長沼原町７０３番地,,12,103,2630001,,,,,,,2023-08-09,1,,,,,トモトモ,0
139,1040001129593,新規,0,2023-08-09,2023-08-09,ｈｅｃａｔｅｃｈ株式会社,,株式会社,千葉県,千葉市中央区,新田町７番７号,,12,101,2600027,,,,,,,2023-08-09,1,,,,,ヘカテック,0
140,1040001129602,新規,0,2023-08-09,2023-08-09,株式会社ハセガワブライダルサロン,,株式会社,千葉県,市川市,南行徳４丁目５番４号,,12,203,2720138,,,,,,,2023-08-09,1,,,,,ハセガワブライダルサロン,0
141,1040001129610,新規,0,2023-08-09,2023-08-09,株式会社ジェイ・アイナ,,株式会社,千葉県,千葉市中央区,蘇我２丁目７号１７号,,12,101,2600822,,,,,,,2023-08-09,1,,,,,ジェイアイナ,0
142,1040001129627,新規,0,2023-08-09,2023-08-09,株式会社ＧａｍｉｎｇＶ,,株式会社,千葉県,佐倉市,染井野３丁目４－４,,12,212,2850831,,,,,,,2023-08-09,1,,,,,ゲーミングブイ,0
145,1050003007714,新規,0,2023-08-09,2023-08-09,合同会社ｋｉｋｉ,,合同会社,茨城県,守谷市,けやき台６丁目７番１４,,08,224,3020128,,,,,,,2023-08-09,1,,,,,キキ,0
146,1050003007722,新規,0,2023-08-09,2023-08-09,合同会社ＫＡＮＡＴＡ,,合同会社,茨城県,日立市,会瀬町３丁目３番２５号,,08,202,3170076,,,,,,,2023-08-09,1,,,,,カナタ,0
149,1060001036235,新規,0,2023-08-09,2023-08-09,株式会社あにゃい,,株式会社,栃木県,佐野市,大橋町２１９２番地４,,09,204,3270003,,,,,,,2023-08-09,1,,,,,アニャイ,0
152,1070001040731,新規,0,2023-08-09,2023-08-09,株式会社ｄｅｌｉｇｈｔｏｐｉａ,,株式会社,群馬県,高崎市,日高町１３５５番地グロワール２０１号,,10,202,3700002,,,,,,,2023-08-09,1,,,,,ディライトピア,0
153,1080001025789,新規,0,2023-08-09,2023-08-09,株式会社薩南工事店,00131456,株式会社,静岡県,静岡市駿河区,登呂２丁目２番１９号,,22,102,4228033,,,,,,,2023-08-09,1,,,,,サツナンコウジテン,0
154,1080001025797,新規,0,2023-08-09,2023-08-09,株式会社エスプレイス,,株式会社,静岡県,静岡市駿河区,曲金３丁目７番１４号,,22,102,4228006,,,,,,,2023-08-09,1,,,,,エスプレイス,0
155,1080101024162,新規,0,2023-08-09,2023-08-09,さとうメディカルサポート株式会社,,株式会社,静岡県,駿東郡小山町,竹之下２３０２番地の１ヴィブレエスペランサＣ号室,,22,344,4101313,,,,,,,2023-08-09,1,,,,,サトウメディカルサポート,0
158,1080105006355,新規,0,2023-08-09,2023-08-09,一般社団法人熱海生活支援協会,,その他の設立登記法人,静岡県,熱海市,清水町１５番８号,,22,205,4130021,,,,,,,2023-08-09,1,,,,,アタミセイカツシエンキョウカイ,0
163,1080405007565,新規,0,2023-08-09,2023-08-09,一般社団法人友梨の木会,,その他の設立登記法人,静岡県,浜松市北区,三ヶ日町都筑３１０３番地の１プリオール浜名湖３２１,,22,135,4311402,,,,,,,2023-08-09,1,,,,,ユリノキカイ,0
165,1100001036668,新規,0,2023-08-09,2023-08-09,株式会社そーらい,,株式会社,長野県,北佐久郡軽井沢町,大字長倉５９５番地１,,20,321,3890111,,,,,,,2023-08-09,1,,,,,ソーライ,0
166,1100001036676,新規,0,2023-08-09,2023-08-09,株式会社ＱＭコーポレーション,,株式会社,長野県,佐久市,中込１２４８番地３,,20,217,3850051,,,,,,,2023-08-09,1,,,,,キューエムコーポレーション,0
170,1110003005133,新規,0,2023-08-09,2023-08-09,合同会社ＦＥＬＩＸ,,合同会社,新潟県,新潟市中央区,川岸町２丁目６番地６,,15,103,9518133,,,,,,,2023-08-09,1,,,,,フェリクス,0
176,1120001256966,新規,0,2023-08-09,2023-08-09,株式会社Ｊ‐ＵＮＩＯＮ,,株式会社,大阪府,大阪市北区,豊崎５丁目７番１号おおきに豊崎西公園ビル５階,,27,127,5310072,,,,,,,2023-08-09,1,,,,,ジェイユニオン,0
177,1120001257139,新規,0,2023-08-09,2023-08-09,株式会社Ｃｌｏｓｅｒ,,株式会社,大阪府,大阪市中央区,南本町２丁目３－１２ＥＤＧＥ本町３Ｆ,,27,128,5410054,,,,,,,2023-08-09,1,,,,,クローサー,0
178,1120001257155,新規,0,2023-08-09,2023-08-09,株式会社Ｋ’Ｓ,,株式会社,大阪府,大阪市住吉区,我孫子３丁目７番３０号ソラーレ我孫子３０３号,,27,120,5580014,,,,,,,2023-08-09,1,,,,,ケーズ,0
179,1120001257188,新規,0,2023-08-09,2023-08-09,ベルモーダ株式会社,,株式会社,大阪府,大阪市西区,西本町１丁目１３番３８号,,27,106,5500005,,,,,,,2023-08-09,1,,,,,ベルモーダ,0
180,1120001257254,新規,0,2023-08-09,2023-08-09,株式会社ド・グゥ,,株式会社,大阪府,大阪市北区,梅田１丁目２番２号大阪駅前第２ビル１２－１２,,27,127,5300001,,,,,,,2023-08-09,1,,,,,ドグゥ,0
181,1120001257270,新規,0,2023-08-09,2023-08-09,株式会社Ｔｏｔｏ　ｔｒａｄｅ　ｓｅｐｔｅｍ,,株式会社,大阪府,大阪市中央区,釣鐘町１丁目５番７号ニューライフ大手前Ａ棟９０１号室,,27,128,5400035,,,,,,,2023-08-09,1,,,,,トトトレードセプテム,0
185,1120003024660,新規,0,2023-08-09,2023-08-09,ビーモンド合同会社,,合同会社,大阪府,大阪市西区,江戸堀２丁目１番１号,,27,106,5500002,,,,,,,2023-08-09,1,,,,,ビーモンド,0
190,1120101067999,新規,0,2023-08-09,2023-08-09,株式会社拓成商会,,株式会社,大阪府,堺市南区,釡室５８８番地１８,,27,145,5900100,,,,,,,2023-08-09,1,,,,,タクセイショウカイ,0
191,1120101068007,新規,0,2023-08-09,2023-08-09,株式会社清心,,株式会社,大阪府,羽曳野市,誉田３丁目１６番１８－２０２号,,27,222,5830857,,,,,,,2023-08-09,1,,,,,セイシン,0
192,1120101068015,新規,0,2023-08-09,2023-08-09,株式会社ＨＡＺＭ,,株式会社,大阪府,堺市東区,菩提町５丁３番地６,,27,143,5998103,,,,,,,2023-08-09,1,,,,,ハザム,0
193,1120101068031,新規,0,2023-08-09,2023-08-09,ＷＥＬＬ　ＵＰ株式会社,,株式会社,大阪府,堺市中区,平井１０８４番地１３,,27,142,5998251,,,,,,,2023-08-09,1,,,,,ウェルアップ,0
194,1120103005370,新規,0,2023-08-09,2023-08-09,合同会社ラスターイノベーション,,合同会社,大阪府,岸和田市,池尻町１６４番地の３,,27,202,5960813,,,,,,,2023-08-09,1,,,,,ラスターイノベーション,0
197,1120901047903,新規,0,2023-08-09,2023-08-09,Ｄｏｎｎａ’建築株式会社,,株式会社,大阪府,豊中市,桜の町５丁目１番１号,,27,203,5600054,,,,,,,2023-08-09,1,,,,,ドンナケンチク,0
203,1122001037248,新規,0,2023-08-09,2023-08-09,轟不動産株式会社,,株式会社,大阪府,東大阪市,上四条町１０－１３,,27,227,5798052,,,,,,,2023-08-09,1,,,,,トドロキフドウサン,0
209,1130001074946,新規,0,2023-08-09,2023-08-09,株式会社ＲＹ,,株式会社,京都府,城陽市,久世南垣内１８番地２,,26,207,6100102,,,,,,,2023-08-09,1,,,,,アールワイ,0
212,1140001131176,新規,0,2023-08-09,2023-08-09,株式会社トーナル・センター,,株式会社,兵庫県,南あわじ市,阿万西町２８６番地４,,28,224,6560545,,,,,,,2023-08-09,1,,,,,トーナルセンター,0
213,1140001131226,新規,0,2023-08-09,2023-08-09,株式会社マサル電設,,株式会社,兵庫県,姫路市,保城７８６番地１９,,28,201,6700804,,,,,,,2023-08-09,1,,,,,マサルデンセツ,0
218,1150001026623,新規,0,2023-08-09,2023-08-09,株式会社たつみ住宅,,株式会社,奈良県,北葛城郡河合町,大字薬井３８６番地,,29,427,6360082,,,,,,,2023-08-09,1,,,,,タツミジュウタク,0
219,1150003003026,新規,0,2023-08-09,2023-08-09,合同会社Ｑｕｉｃｋｅｎ．,,合同会社,奈良県,大和郡山市,小南町５２３番地８,,29,203,6391023,,,,,,,2023-08-09,1,,,,,クイッケン,0
223,1170001017728,新規,0,2023-08-09,2023-08-09,株式会社優立,,株式会社,和歌山県,和歌山市,内原６００番地４,,30,201,6410013,,,,,,,2023-08-09,1,,,,,ユウリツ,0
230,1180001157473,新規,0,2023-08-09,2023-08-09,不動産コンサル株式会社,,株式会社,愛知県,名古屋市中区,丸の内２丁目１８番２０号,,23,106,4600002,,,,,,,2023-08-09,1,,,,,フドウサンコンサル,0
231,1180001157481,新規,0,2023-08-09,2023-08-09,株式会社石川工業,,株式会社,愛知県,名古屋市昭和区,塩付通７丁目１２番地,,23,107,4660022,,,,,,,2023-08-09,1,,,,,イシカワコウギョウ,0
232,1180001157498,新規,0,2023-08-09,2023-08-09,株式会社オットリーヤ・ナカザワ,,株式会社,愛知県,名古屋市守山区,小幡中３丁目１番１１号,,23,113,4630013,,,,,,,2023-08-09,1,,,,,オットリーヤナカザワ,0
233,1180001157507,新規,0,2023-08-09,2023-08-09,株式会社建将,,株式会社,愛知県,春日井市,大留町１丁目１９番地３３,,23,206,4870024,,,,,,,2023-08-09,1,,,,,ケンショウ,0
234,1180001157515,新規,0,2023-08-09,2023-08-09,株式会社ＫＥＮＹＸ,,株式会社,愛知県,小牧市,文津１丁目６４番地２,,23,219,4850827,,,,,,,2023-08-09,1,,,,,ケニックス,0
235,1180001157531,新規,0,2023-08-09,2023-08-09,株式会社ＨＳアドバイザーズ,,株式会社,愛知県,名古屋市西区,名駅１丁目１番１７号名駅ダイヤメイテツビル１１階,,23,104,4510045,,,,,,,2023-08-09,1,,,,,エイチエスアドバイザーズ,0
236,1180001157556,新規,0,2023-08-09,2023-08-09,つつむ株式会社,,株式会社,愛知県,海部郡蟹江町,舟入１丁目４２５番地,,23,425,4970048,,,,,,,2023-08-09,1,,,,,ツツム,0
237,1180001157564,新規,0,2023-08-09,2023-08-09,Ｅｎｄｏｄｏｎｔｉｃ　Ｃｅｎｔｏｒ株式会社,,株式会社,愛知県,名古屋市中区,錦２丁目１６番２１号,,23,106,4600003,,,,,,,2023-08-09,1,,,,,エンドドンティックセンター,0
238,1180001157572,新規,0,2023-08-09,2023-08-09,株式会社Ｃ・Ｃマーキング,,株式会社,愛知県,名古屋市西区,幅下２丁目１６番２１号,,23,104,4510041,,,,,,,2023-08-09,1,,,,,シーシーマーキング,0
239,1180001157580,新規,0,2023-08-09,2023-08-09,株式会社椿夢,,株式会社,愛知県,小牧市,堀の内１丁目１８番地,,23,219,4850046,,,,,,,2023-08-09,1,,,,,ツバキユメ,0
240,1180001157606,新規,0,2023-08-09,2023-08-09,株式会社心誠,,株式会社,愛知県,小牧市,新町１丁目３４９番地,,23,219,4850013,,,,,,,2023-08-09,1,,,,,シンセイ,0
243,1180003025595,新規,0,2023-08-09,2023-08-09,合同会社匠都,,合同会社,愛知県,一宮市,明地字八反山３２番地,,23,203,4940012,,,,,,,2023-08-09,1,,,,,タクト,0
248,1190001030654,新規,0,2023-08-09,2023-08-09,株式会社ＭＳＹプランニング,,株式会社,三重県,四日市市,芝田２丁目３番７号,,24,202,5100822,,,,,,,2023-08-09,1,,,,,エムエスワイプランニング,0
250,1200001041583,新規,0,2023-08-09,2023-08-09,株式会社桂アイディール,,株式会社,岐阜県,可児市,桂ケ丘３丁目９２番地１,,21,214,5090237,,,,,,,2023-08-09,1,,,,,カツラアイディール,0
253,1200005013513,新規,0,2023-08-09,2023-08-09,特定非営利活動法人はるライフサポート,,その他の設立登記法人,岐阜県,岐阜市,菅生７丁目１番２４号,,21,201,5020914,,,,,,,2023-08-09,1,,,,,ハルライフサポート,0
256,1220005008775,新規,0,2023-08-09,2023-08-09,一般社団法人日本人材育成支援機構,,その他の設立登記法人,石川県,金沢市,入江２丁目８２番地１,,17,201,9218011,,,,,,,2023-08-09,1,,,,,ニホンジンザイイクセイシエンキコウ,0
261,1240001061966,新規,0,2023-08-09,2023-08-09,株式会社Ｄｉｒｅｃｔサービス,,株式会社,広島県,広島市南区,東本浦町７番３号,,34,103,7340025,,,,,,,2023-08-09,1,,,,,ダイレクトサービス,0
262,1240001061974,新規,0,2023-08-09,2023-08-09,株式会社ＵＮＩＴＥ,,株式会社,広島県,広島市南区,的場町１丁目８－７－４０１,,34,103,7320824,,,,,,,2023-08-09,1,,,,,,0
268,1240003006250,新規,0,2023-08-09,2023-08-09,合同会社Ｄ・Ｉ・Ｏ,,合同会社,広島県,広島市中区,大手町１丁目１－２０相生橋ビル７階Ａ号室,,34,101,7300051,,,,,,,2023-08-09,1,,,,,ディーアイオー,0
271,1260001038194,新規,0,2023-08-09,2023-08-09,株式会社ｌｉｂｅｒｔｙ．Ｃｏ,,株式会社,岡山県,岡山市北区,奥田西町１６番１１号,,33,101,7000931,,,,,,,2023-08-09,1,,,,,リバティードットコー,0
273,1260003004384,新規,0,2023-08-09,2023-08-09,合同会社龍虎,,合同会社,岡山県,津山市,下高倉西８２２番地３,,33,203,7081123,,,,,,,2023-08-09,1,,,,,リュウコ,0
276,1290001102526,新規,0,2023-08-09,2023-08-09,株式会社イエナス,,株式会社,福岡県,福岡市南区,玉川町１７番６－１２０２号,,40,134,8150037,,,,,,,2023-08-09,1,,,,,イエナス,0
277,1290001102559,新規,0,2023-08-09,2023-08-09,株式会社ＥＮｓｏｗｅｒ,,株式会社,福岡県,大川市,大字榎津７９番地１,,40,212,8310004,,,,,,,2023-08-09,1,,,,,エンソワー,0
278,1290001102567,新規,0,2023-08-09,2023-08-09,株式会社ＣＲＥＶＥ,,株式会社,福岡県,古賀市,青柳１３２６－５,,40,223,8113134,,,,,,,2023-08-09,1,,,,,クレーヴ,0
279,1290001102600,新規,0,2023-08-09,2023-08-09,株式会社ＣＲＡＦＴ５,,株式会社,福岡県,福岡市中央区,天神２丁目２番１２号Ｔ＆Ｊビルディング７Ｆ,,40,133,8100001,,,,,,,2023-08-09,1,,,,,クラフトファイブ,0
280,1290001102617,新規,0,2023-08-09,2023-08-09,株式会社寛藤建設,,株式会社,福岡県,飯塚市,伊川５０８番地,,40,205,8200054,,,,,,,2023-08-09,1,,,,,カントウケンセツ,0
281,1290003014208,新規,0,2023-08-09,2023-08-09,ヤマネヤＩＴサービス合同会社,,合同会社,福岡県,福岡市東区,香椎照葉１丁目３番ベルデコートＩ番館３０５号,00131465,40,131,8130017,,,,,,,2023-08-09,1,,,,,ヤマネヤアイティサービス,0
282,1290003014224,新規,0,2023-08-09,2023-08-09,ＳＡＩＮＡ　ＪＡＰＡＮ合同会社,,合同会社,福岡県,福岡市南区,大橋１丁目３－５－２０５,,40,134,8150033,,,,,,,2023-08-09,1,,,,,サイナジャパン,0
283,1290801029778,新規,0,2023-08-09,2023-08-09,株式会社ＳＡＮＴ,,株式会社,福岡県,北九州市若松区,古前１丁目２５番３号,,40,103,8080062,,,,,,,2023-08-09,1,,,,,サント,0
284,1290803004481,新規,0,2023-08-09,2023-08-09,合同会社オフィスヒロ,,合同会社,福岡県,北九州市八幡西区,本城１丁目１７番８号,,40,109,8070801,,,,,,,2023-08-09,1,,,,,オフィスヒロ,0
285,1290805009669,新規,0,2023-08-09,2023-08-09,ＮＰＯ法人子どもアドボカシーセンターひまわり,,その他の設立登記法人,福岡県,北九州市若松区,大字小竹２２９１番地の３,,40,103,8080108,,,,,,,2023-08-09,1,,,,,コドモアドボカシーセンターヒマワリ,0
287,1330001031101,新規,0,2023-08-09,2023-08-09,株式会社ＨｉＲＯ．ＨＤ,,株式会社,熊本県,熊本市東区,沼山津４丁目２番２２号,,43,102,8612102,,,,,,,2023-08-09,1,,,,,ヒロホールディングス,0
288,1340001025779,新規,0,2023-08-09,2023-08-09,株式会社ＭＡＣ．晴々,,株式会社,鹿児島県,鹿児島市,唐湊１丁目１番２号,,46,201,8900081,,,,,,,2023-08-09,1,,,,,マックハレバレ,0
289,1340001025787,新規,0,2023-08-09,2023-08-09,株式会社Ａ．ａｒｃ,,株式会社,鹿児島県,鹿児島市,小松原２丁目３６番１２－５０２号,,46,201,8910114,,,,,,,2023-08-09,1,,,,,オーロラアーク,0
290,1340001025804,新規,0,2023-08-09,2023-08-09,株式会社ノトス不動産,,株式会社,鹿児島県,鹿児島市,上荒田町１１番５号,,46,201,8900055,,,,,,,2023-08-09,1,,,,,ノトスフドウサン,0
293,1340003004203,新規,0,2023-08-09,2023-08-09,合同会社コモプレミアム,,合同会社,鹿児島県,鹿児島市,荒田１丁目４０番１１－１３０５号,,46,201,8900054,,,,,,,2023-08-09,1,,,,,コモプレミアム,0
294,1360001032402,新規,0,2023-08-09,2023-08-09,株式会社ＦＯＯＤ．ＴＡＢＡ,,株式会社,沖縄県,浦添市,屋富祖３丁目６番５号ＭＲビル１Ｆ,,47,208,9012127,,,,,,,2023-08-09,1,,,,,フードドットタバ,0
295,1360003013177,新規,0,2023-08-09,2023-08-09,合同会社晃,,合同会社,沖縄県,名護市,城２丁目９番１０号１Ｆ,,47,209,9050013,,,,,,,2023-08-09,1,,,,,オウ,0
296,1360003013185,新規,0,2023-08-09,2023-08-09,合同会社松川ファーム,,合同会社,沖縄県,豊見城市,字渡嘉敷２５０番地嶺正ハイツ４０２号,,47,212,9010215,,,,,,,2023-08-09,1,,,,,マツカワファーム,0
297,1360003013193,新規,0,2023-08-09,2023-08-09,壮健投資合同会社,,合同会社,沖縄県,那覇市,字上之屋４０７番地３,,47,201,9000011,,,,,,,2023-08-09,1,,,,,ソウケントウシ,0
299,1370001050287,新規,0,2023-08-09,2023-08-09,縁クリーズＰａｒｔｎｅｒｓ株式会社,,株式会社,宮城県,仙台市泉区,旭丘堤２丁目１３番３号,,04,105,9818004,,,,,,,2023-08-09,1,,,,,エンクリーズパートナーズ,0
303,1370003006238,新規,0,2023-08-09,2023-08-09,合同会社西仙台プランニング,,合同会社,宮城県,仙台市青葉区,上愛子字大道３４番地の９,,04,101,9893124,,,,,,,2023-08-09,1,,,,,ニシセンダイプランニング,0
313,1380005012737,新規,0,2023-08-09,2023-08-09,一般社団法人阿武隈クラブＩＩＴＡＴＥ,,その他の設立登記法人,福島県,相馬郡飯舘村,飯樋字宮仲１３５番地の２,,07,564,9601721,,,,,,,2023-08-09,1,,,,,アブクマクラブイイタテ,0
318,1410005006537,新規,0,2023-08-09,2023-08-09,一般社団法人あきたＰＰＰ・ＰＦＩ協会,,その他の設立登記法人,秋田県,秋田市,山王６丁目８番４２号株式会社秋田建設工業新聞社内,,05,201,0100951,,,,,,,2023-08-09,1,,,,,アキタピーピーピーピーエフアイキョウカイ,0
324,1430001089666,新規,0,2023-08-09,2023-08-09,株式会社ダイレクト,,株式会社,北海道,札幌市北区,東茨戸二条１丁目２３番１３号,00131464,01,102,0028042,,,,,,,2023-08-09,1,,,,,ダイレクト,0
326,1430003015323,新規,0,2023-08-09,2023-08-09,合同会社苫小牧中小企業振興会,,合同会社,北海道,苫小牧市,三光町５丁目２３番１５号,,01,213,0530042,,,,,,,2023-08-09,1,,,,,トマコマイチュウショウキギョウシンコウカイ,0
327,1470001019735,新規,0,2023-08-09,2023-08-09,株式会社サイン工房・結,,株式会社,香川県,丸亀市,垂水町２９７６番地５,,37,202,7630095,,,,,,,2023-08-09,1,,,,,サインコウボウユウ,0
329,1480005006976,新規,0,2023-08-09,2023-08-09,特定非営利活動法人アグリウェルとくしま,,その他の設立登記法人,徳島県,徳島市,一宮町東丁４７４番,,36,201,7793132,,,,,,,2023-08-09,1,,,,,アグリウェルトクシマ,0
331,1500001025127,新規,0,2023-08-09,2023-08-09,株式会社ヒカルファクトリ,,株式会社,愛媛県,伊予郡松前町,大字南黒田６５４番地３,,38,401,7913101,,,,,,,2023-08-09,1,,,,,ヒカルファクトリ,0
333,1700150118900,新規,0,2023-08-09,2023-08-09,Ｓｈｅｎｚｈｅｎ　Ｍａｎｆａ　Ｊｕｄｉｎｇ　Ｔｒａｄｉｎｇ　Ｃｏ．，Ｌｔｄ．,,外国会社等,,,,,,,,Ｒｏｏｍ　８０４，Ｂｕｉｌｄｉｎｇ　１９，Ｔｉａｎｍｉａｎ　Ｖｉｌｌａｇｅ，Ｈｕａｆｕ　Ｓｔｒｅｅｔ，Ｆｕｔｉａ　Ｓｈｅｎｚｈｅｎ　ＣＮ,,,,,,2023-08-09,1,,,,,シンセンマンファジュディントゥレイディングカンパニーリミテッド,0
334,1700150118909,新規,0,2023-08-09,2023-08-09,Ｓｈｅｎｚｈｅｎ　Ｈａｎｄａ　Ｅｌｅｃｔｒｏｎｉｃｓ　Ｔｅｃｈｎｏｌｏｇｙ　Ｃｏ．，Ｌｔｄ,,外国会社等,,,,,,,,２１０５，Ｕｎｉｔ　２，Ｂｕｌｄｉｎｇ　８，Ｈｏｎｇｆａ　Ｃｅｎｔｕｒｙ　Ｇａｒｄｅｎ，Ｇｕａｎｔｉａｎ　Ｃｏｍｍｕｎｉｔｙ，Ｓｈｉｙａｎ　ＳｕｂＤｉｓｔｒｉｃｔ，Ｂａｏ’ａｎ，Ｓｈｅｎｚｈｅｎ，Ｇｕａｎｇｄｏｎｇ，Ｃｈｉｎａ,,,,,,2023-08-09,1,,,,,シンセンハンダイレクトゥロニクステクノロジーカンパニーリミテッド,0
335,1700150118917,新規,0,2023-08-09,2023-08-09,Ａｅｒｔｕｅｒ　ＳｈａｎｇＭａｏ　ＷｕＸｉ　ＹｏｕＸｉａｎＧｏｎｇＳｉ,,外国会社等,,,,,,,,Ｂｉｎｈｕｑｕ　Ｈｕｂｉｎｙｉｈａｏｈｕａｙｕａｎ　６－２０１－Ｄ０３　ＷＵＸＩ　ＪＩＡＮＧＳＵ２１４０４７　ＣＮ,,,,,,2023-08-09,1,,,,,アーアートゥーアーシャンマオウーシーヨウシエンゴンスー,0
336,1700150118925,新規,0,2023-08-09,2023-08-09,ｊｕｙｅ　ｘｉａｏｓｈａｎ　ｄｉａｎｚｉｓｈａｎｇｗｕ　ｙｏｕｘｉａｎｇｏｎｇｓｉ,,外国会社等,,,,,,,,ｓｈａｎｄｏｎｇｓｈｅｎｇｈｅｚｅｓｈｉｊｕｙｅｘｉａｎｆｅｎｇｈｕａｎｇｊｉｅｄａｏｂａｎｓｈｉｃｈｕｙｕｓｈａｎｌｕｙｕｙｏｎｇｆｅｎｇｊｉｅｊｉａｏｈｕｉｃｈｕｘｉａｎｇｎａｎ２００ｍｉｌｕｘｉ　２７４９００　ＣＮ,,,,,,2023-08-09,1,,,,,ジュイェシャオシャンデンシショウムヨウシェンゴンスー,0
337,1700150118933,新規,0,2023-08-09,2023-08-09,ｘｉａｍｅｎｓｈｉｑｉａｏｊｉｎｓｉｗａｎｇｌｕｏｋｅｊｉｙｏｕｘｉａｎｇｏｎｇｓｉ,,外国会社等,,,,,,,,Ｔｏｎｇａｎｑｕｇｏｎｇｙｅｊｉｚｈｏｎｇｑｕｊｉａｎｃａｉｙｕａｎ８５ｈａｏ２０６ｓｈｉｚｈｉ３　ｘｉａｍｅｎ　Ｆｕｊｉａｎ　３６１１００　ＣＮ,,,,,,2023-08-09,1,,,,,シャアメンチァオジンスーワンルオカージヨウシェンゴンスー,0
338,1700150118941,新規,0,2023-08-09,2023-08-09,Ｓｈｅｎｚｈｅｎｓｈｉ　Ｇｕａｎｇｗｕｘｉａｎ　Ｔｅｃｈｎｏｌｏｇｙ　Ｃｏ．，Ｌｔｄ,,外国会社等,,,,,,,,ｓｈｅｎｚｈｅｎｓｈｉ　ｂａｏａｎｑｕ　ｈａｎｇｃｈｅｎｇｊｉｅｄａｏ　ｚｈｏｎｇｗｕｓｈｅｑｕ　ｚｈｏｎｇｗｕｘｉｎｇｏｎｇｙｅｙｕａｎ　６７ｄｏｎｇ　４ｃｅｎｇ,,,,,,2023-08-09,1,,,,,シンセンシガンウシャンテクノロジーカンパニーリミテッド,0
339,1700150118958,新規,0,2023-08-09,2023-08-09,ＲＨＹＡＮＧ　ＥＬＥＣＴＲＯＮＩＣＳ　ＣＯ　ＬＩＭＩＴＥＤ,,外国会社等,,,,,,,,Ｒｏｏｍ　３Ａ，Ｎｏ．１９　Ｙａｌａｎ　Ｒｏａｄ，Ｃｅｎｔｒａｌ　Ｂａｏａｎ　Ｚｏｎｅ　Ｓｈｅｎｚｈｅｎｇ　Ｇｕａｎｇｚｈｏｕ　５１８１０１　ＣＮ,,,,,,2023-08-09,1,,,,,ルイヤンディエンズーヨウシエンゴンスー,0
340,1700150118966,新規,0,2023-08-09,2023-08-09,深セン市良品生地貿易　有限公司,,外国会社等,,,,,,,,中国深セン市龍崗区平湖街道禾花社区平新北路華南西苑一期２棟３１５－１６,,,,,,2023-08-09,1,,,,,シンセンシリヨウヒンセイチボウエキユウゲンコウシ,0
355,2010001237472,新規,0,2023-08-09,2023-08-09,株式会社ＣＬＩＯ・Ｇ,,株式会社,東京都,中央区,日本橋蛎殻町２丁目７番５号小林ビル地下１階,,13,102,1030014,,,,,,,2023-08-09,1,,,,,クリオジー,0
356,2010001237480,新規,0,2023-08-09,2023-08-09,株式会社アールリンクス,,株式会社,東京都,中央区,新川１丁目１７番２５号,,13,102,1040033,,,,,,,2023-08-09,1,,,,,アールリンクス,0
357,2010001237497,新規,0,2023-08-09,2023-08-09,株式会社ゆずりは,,株式会社,東京都,中央区,築地６丁目６番６号,,13,102,1040045,,,,,,,2023-08-09,1,,,,,ユズリハ,0
358,2010001237506,新規,0,2023-08-09,2023-08-09,ＡＫキャピタル株式会社,,株式会社,東京都,中央区,銀座７丁目１５番８号タウンハイツ銀座３０１,,13,102,1040061,,,,,,,2023-08-09,1,,,,,エーケーキャピタル,0
359,2010001237514,新規,0,2023-08-09,2023-08-09,株式会社ＥＭＩソリューションズ,,株式会社,東京都,中央区,日本橋馬喰町１丁目１２番５－３０１号,,13,102,1030002,,,,,,,2023-08-09,1,,,,,イーエムアイソリューションズ,0
360,2010001237539,新規,0,2023-08-09,2023-08-09,株式会社シティ・ホームパートナーズ,,株式会社,東京都,中央区,銀座１丁目１２番４号Ｎ＆ＥＢＬＤ６Ｆ,,13,102,1040061,,,,,,,2023-08-09,1,,,,,シティホームパートナーズ,0
361,2010001237547,新規,0,2023-08-09,2023-08-09,自在音響株式会社,,株式会社,東京都,中央区,銀座１丁目１２番４号Ｎ＆ＥＢＬＤ．７階,,13,102,1040061,,,,,,,2023-08-09,1,,,,,ジザイオンキョウ,0
362,2010001237563,新規,0,2023-08-09,2023-08-09,株式会社ブロック,,株式会社,東京都,中央区,日本橋人形町３丁目３番５号天翔ビル５Ｆ,,13,102,1030013,,,,,,,2023-08-09,1,,,,,ブロック,0
363,2010001237621,新規,0,2023-08-09,2023-08-09,株式会社グリーンラビット,,株式会社,東京都,千代田区,神田和泉町１番地６－１６ヤマトビル４０５,,13,101,1010024,,,,,,,2023-08-09,1,,,,,グリーンラビット,0
369,2010003041278,新規,0,2023-08-09,2023-08-09,合同会社ＭＪＸ,,合同会社,東京都,文京区,千駄木２丁目１１番８－６０１号,,13,105,1130022,,,,,,,2023-08-09,1,,,,,エムジェイエックス,0
373,2010401176080,新規,0,2023-08-09,2023-08-09,株式会社リンクエクスプレス,,株式会社,東京都,港区,東新橋２丁目７番３号,,13,103,1050021,,,,,,,2023-08-09,1,,,,,リンクエクスプレス,0
374,2010401176155,新規,0,2023-08-09,2023-08-09,ＪＵＲＥＮ株式会社,,株式会社,東京都,港区,虎ノ門１丁目１７番１号虎ノ門ヒルズビジネスタワー１５階,,13,103,1050001,,,,,,,2023-08-09,1,,,,,ジュウレン,0
375,2010401176213,新規,0,2023-08-09,2023-08-09,株式会社インプレストワン,,株式会社,東京都,港区,南青山２丁目２番１５号,,13,103,1070062,,,,,,,2023-08-09,1,,,,,インプレストワン,0
376,2010401176238,新規,0,2023-08-09,2023-08-09,株式会社ＳＣＡＬＥ,,株式会社,東京都,港区,港南４丁目１番６－９１２号,,13,103,1080075,,,,,,,2023-08-09,1,,,,,スケール,0
377,2010403030665,新規,0,2023-08-09,2023-08-09,合同会社Ｍａｉｓｏｎ．８,,合同会社,東京都,港区,北青山１丁目３番１号アールキューブ青山３階,,13,103,1070061,,,,,,,2023-08-09,1,,,,,メゾンエイト,0
379,2010601063574,新規,0,2023-08-09,2023-08-09,株式会社ニコラ,,株式会社,東京都,墨田区,吾妻橋１丁目１９番８－１１０２号,,13,107,1300001,,,,,,,2023-08-09,1,,,,,ニコラ,0
383,2010701044689,新規,0,2023-08-09,2023-08-09,株式会社ＡＣＴ‐Ｒ,,株式会社,東京都,品川区,東五反田２丁目１０番１－２４１６号,,13,109,1410022,,,,,,,2023-08-09,1,,,,,アクタル,0
384,2010701044697,新規,0,2023-08-09,2023-08-09,株式会社Ａｗｅｓｏｍｅ,,株式会社,東京都,品川区,大崎３丁目１番５号ルミネ五反田第２・２０２号室,,13,109,1410032,,,,,,,2023-08-09,1,,,,,オーサム,0
386,2010703006811,新規,0,2023-08-09,2023-08-09,合同会社Ｂｕｉｌｄ　Ｃｈａｒｔｓ,,合同会社,東京都,品川区,東五反田１丁目２５－１７ビラ島津山ビル７０２,,13,109,1410022,,,,,,,2023-08-09,1,,,,,ビルドチャーツ,0
388,2010803004632,新規,0,2023-08-09,2023-08-09,合同会社Ｗ．ｉ．Ｍ,,合同会社,東京都,大田区,西六郷１丁目１８番１１号グランドソレイユ２０４,,13,111,1440056,,,,,,,2023-08-09,1,,,,,ウィム,0
389,2010805003046,新規,0,2023-08-09,2023-08-09,一般社団法人シニアライフサポーター,,その他の設立登記法人,東京都,大田区,西糀谷１丁目１１番１１号,,13,111,1440034,,,,,,,2023-08-09,1,,,,,シニアライフサポーター,0
390,2010901053564,新規,0,2023-08-09,2023-08-09,株式会社Ｌｅｇａｒｅ　Ｃａｒｅｅｒ,,株式会社,東京都,世田谷区,大蔵３丁目３番９－２０１号,,13,112,1570074,,,,,,,2023-08-09,1,,,,,レガーレキャリア,0
391,2010901053572,新規,0,2023-08-09,2023-08-09,株式会社ＬＡＺＯＳ,,株式会社,東京都,世田谷区,上祖師谷２丁目２０番１７号,,13,112,1570065,,,,,,,2023-08-09,1,,,,,ラソス,0
392,2010903008368,新規,0,2023-08-09,2023-08-09,合同会社ＭａｃＭａｘ,,合同会社,東京都,世田谷区,北沢４丁目７番１６号ＳＫ４７１６、０４,,13,112,1550031,,,,,,,2023-08-09,1,,,,,マクマックス,0
393,2010903008376,新規,0,2023-08-09,2023-08-09,ＡＲＩＥ合同会社,,合同会社,東京都,世田谷区,奥沢３丁目２６－１３,,13,112,1580083,,,,,,,2023-08-09,1,,,,,アリー,0
403,2011001156167,新規,0,2023-08-09,2023-08-09,ゼンクスタジオ株式会社,,株式会社,東京都,渋谷区,道玄坂１丁目１６番６号二葉ビル８ｂ,,13,113,1500043,,,,,,,2023-08-09,1,,,,,ゼンクスタジオ,0
404,2011001156200,新規,0,2023-08-09,2023-08-09,株式会社ＬｏｏｐＧｌｏｗ,,株式会社,東京都,渋谷区,恵比寿西１丁目６番７号サニーガーデン６０１号室,,13,113,1500021,,,,,,,2023-08-09,1,,,,,ループグロウ,0
405,2011001156241,新規,0,2023-08-09,2023-08-09,株式会社エニーソウル,,株式会社,東京都,目黒区,八雲２丁目１１番２０号クイーンズパレス自由が丘３０３,,13,110,1520023,,,,,,,2023-08-09,1,,,,,エニーソウル,0
409,2011003017326,新規,0,2023-08-09,2023-08-09,ＤＯＥＲ合同会社,,合同会社,東京都,渋谷区,神宮前４丁目１４番１３号３２１号室,,13,113,1500001,,,,,,,2023-08-09,1,,,,,ドゥーア,0
410,2011003017359,新規,0,2023-08-09,2023-08-09,合同会社Ａｎ,,合同会社,東京都,渋谷区,渋谷２丁目１９－１５宮益坂ビルディング６０９,,13,113,1500002,,,,,,,2023-08-09,1,,,,,アン,0
412,2011101103936,新規,0,2023-08-09,2023-08-09,株式会社ママキャリワークス,,株式会社,東京都,新宿区,新宿６丁目２９番１１号１０Ｆ,,13,104,1600022,,,,,,,2023-08-09,1,,,,,ママキャリワークス,0
413,2011101103952,新規,0,2023-08-09,2023-08-09,株式会社外国人住宅サポートセンター,,株式会社,東京都,新宿区,高田馬場２丁目１８番６号柳屋ビル２０２号,,13,104,1690075,,,,,,,2023-08-09,1,,,,,ガイコクジンジュウタクサポートセンター,0
414,2011101103960,新規,0,2023-08-09,2023-08-09,株式会社シーズン,,株式会社,東京都,新宿区,西新宿３丁目３－１３－２Ｆ,,13,104,1600023,,,,,,,2023-08-09,1,,,,,シーズン,0
417,2011501029608,新規,0,2023-08-09,2023-08-09,微銀株式会社,,株式会社,東京都,荒川区,西日暮里６丁目５２－２シティインデックス西日暮里１２０３号,,13,118,1160013,,,,,,,2023-08-09,1,,,,,ビギン,0
418,2011601027024,新規,0,2023-08-09,2023-08-09,株式会社ＭＲＳ,,株式会社,東京都,練馬区,錦２丁目２３番７号ライオンズ練馬平和台マスタープレイス５０５,,13,120,1790082,,,,,,,2023-08-09,1,,,,,エムアールエス,0
419,2011601027032,新規,0,2023-08-09,2023-08-09,株式会社Ａｔｉｍ,,株式会社,東京都,練馬区,豊玉北６丁目２－１－１００４,,13,120,1760012,,,,,,,2023-08-09,1,,,,,アティム,0
420,2011601027040,新規,0,2023-08-09,2023-08-09,株式会社ＹＯＥＮＡコンサルティング,,株式会社,東京都,練馬区,南大泉６丁目１１－２４,,13,120,1780064,,,,,,,2023-08-09,1,,,,,ヨイーナコンサルティング,0
421,2011701026495,新規,0,2023-08-09,2023-08-09,株式会社Ｇｒａｎｄ　Ｃｈａｒｉｏｔ,,株式会社,東京都,江戸川区,中葛西５丁目２４番１３号,,13,123,1340083,,,,,,,2023-08-09,1,,,,,グランシャリオ,0
423,2011801042855,新規,0,2023-08-09,2023-08-09,株式会社ＫＮＯＣＫ　ＧＲＩＴ,,株式会社,東京都,足立区,東和２丁目５番１６号,,13,121,1200003,,,,,,,2023-08-09,1,,,,,ノックグリット,0
424,2011801042863,新規,0,2023-08-09,2023-08-09,明輝株式会社,,株式会社,東京都,足立区,千住仲町１番１６－１００１号,,13,121,1200036,,,,,,,2023-08-09,1,,,,,メイキ,0
425,2012401040828,新規,0,2023-08-09,2023-08-09,株式会社スポーツフィジオサポート,,株式会社,東京都,三鷹市,牟礼３丁目９番７－３０６号,,13,204,1810002,,,,,,,2023-08-09,1,,,,,スポーツフィジオサポート,0
426,2012401040836,新規,0,2023-08-09,2023-08-09,株式会社職人パートナーズ,,株式会社,東京都,調布市,国領町７丁目３８番地１,,13,208,1820022,,,,,,,2023-08-09,1,,,,,ショクニンパートナーズ,0
427,2012401040844,新規,0,2023-08-09,2023-08-09,株式会社心中,,株式会社,東京都,狛江市,元和泉３丁目１番２３号,,13,219,2010013,,,,,,,2023-08-09,1,,,,,シンジュウ,0
434,2012703002773,新規,0,2023-08-09,2023-08-09,Ｖｅｎｕｓｅ合同会社,,合同会社,東京都,小平市,上水南町２丁目２３番２０－２０１号,,13,211,1870021,,,,,,,2023-08-09,1,,,,,ヴェヌーセ,0
435,2012801022558,新規,0,2023-08-09,2023-08-09,アシツクＥＣラボ株式会社,,株式会社,東京都,立川市,一番町２丁目９番地の１９,,13,202,1900033,,,,,,,2023-08-09,1,,,,,アシツクイーシーラボ,0
438,2013301051171,新規,0,2023-08-09,2023-08-09,株式会社ＡＳＳＥＭＢＬＥ,,株式会社,東京都,豊島区,東池袋１丁目３４番５号いちご東池袋ビル６階,,13,116,1700013,,,,,,,2023-08-09,1,,,,,アッセンブル,0
445,2020001152984,新規,0,2023-08-09,2023-08-09,株式会社オフィスＫ,,株式会社,神奈川県,横浜市青葉区,松風台１８番地２３,,14,117,2270067,,,,,,,2023-08-09,1,,,,,オフィスケー,0
451,2021001079714,新規,0,2023-08-09,2023-08-09,凛プロダクト株式会社,,株式会社,神奈川県,大和市,下鶴間５１５９番地,,14,213,2420001,,,,,,,2023-08-09,1,,,,,リンプロダクト,0
452,2021001079771,新規,0,2023-08-09,2023-08-09,株式会社Ａ・Ｊ　ＴＲＡＤＩＮＧ,,株式会社,神奈川県,座間市,相模が丘２丁目１０－１０スカイコーポ２－１０２号室,,14,216,2520001,,,,,,,2023-08-09,1,,,,,エイジェイトレーディング,0
453,2021001079879,新規,0,2023-08-09,2023-08-09,ｌａｃｈｉｎｅ株式会社,,株式会社,神奈川県,茅ヶ崎市,香川４丁目１３番３３号,,14,207,2530082,,,,,,,2023-08-09,1,,,,,ラシーヌ,0
455,2021003013266,新規,0,2023-08-09,2023-08-09,Ｓａｎｄｂａｒ合同会社,,合同会社,神奈川県,茅ヶ崎市,共恵１丁目８番６－５０５号グレーシア茅ヶ崎,,14,207,2530056,,,,,,,2023-08-09,1,,,,,サンドバー,0
459,2030001155053,新規,0,2023-08-09,2023-08-09,株式会社ＭｉｙａＣａｒｅ　Ｔｈｅｒａｐｅｕｔｉｃｓ,,株式会社,埼玉県,和光市,下新倉２丁目３０－７,,11,229,3510111,,,,,,,2023-08-09,1,,,,,ミヤケアセラピューティクス,0
460,2030001155086,新規,0,2023-08-09,2023-08-09,田中商事株式会社,,株式会社,埼玉県,幸手市,東２丁目８番２５号,,11,240,3400114,,,,,,,2023-08-09,1,,,,,タナカショウジ,0
461,2030001155103,新規,0,2023-08-09,2023-08-09,株式会社斉藤工業,,株式会社,埼玉県,熊谷市,村岡３９２番地１２,,11,202,3600162,,,,,,,2023-08-09,1,,,,,サイトウコウギョウ,0
462,2030001155177,新規,0,2023-08-09,2023-08-09,悟空建装株式会社,,株式会社,埼玉県,さいたま市大宮区,天沼町２丁目９８６番地６,,11,103,3300834,,,,,,,2023-08-09,1,,,,,ゴクウケンソウ,0
463,2030001155202,新規,0,2023-08-09,2023-08-09,ＵＫサービス株式会社,,株式会社,埼玉県,さいたま市緑区,大字大門２９３１番地１６,,11,109,3360963,,,,,,,2023-08-09,1,,,,,ユーケーサービス,0
464,2030001155219,新規,0,2023-08-09,2023-08-09,株式会社Ｌｉｏｎｅｓｓ,,株式会社,埼玉県,さいたま市大宮区,大門町３丁目１９７番地星野第二ビル４０２号室,,11,103,3300846,,,,,,,2023-08-09,1,,,,,リオネス,0
465,2030001155292,新規,0,2023-08-09,2023-08-09,さいたま創志株式会社,,株式会社,埼玉県,ふじみ野市,新駒林３丁目３番１７号グロースボーネンＢ２０２,,11,245,3560030,,,,,,,2023-08-09,1,,,,,サイタマソウシ,0
468,2030003022210,新規,0,2023-08-09,2023-08-09,合同会社Ａｄｈｏｒｉｚｏｎ,,合同会社,埼玉県,さいたま市北区,宮原町４丁目６８番地１８ルシェンテ宮原２０１,,11,102,3310812,,,,,,,2023-08-09,1,,,,,アドホライゾン,0
469,2030003022243,新規,0,2023-08-09,2023-08-09,合同会社ＯｎｅＷｏｒｋｓ,,合同会社,埼玉県,吉川市,中央３丁目４０番地１９,,11,243,3420061,,,,,,,2023-08-09,1,,,,,ワンワークス,0
470,2030003022301,新規,0,2023-08-09,2023-08-09,合同会社ミネット,,合同会社,埼玉県,所沢市,くすのき台２丁目１４番地の３サンクレイドル所沢くすのき台３０７,,11,208,3590037,,,,,,,2023-08-09,1,,,,,ミネット,0
475,2040001129551,新規,0,2023-08-09,2023-08-09,Ｆｒｅｅｄｏｍ　Ａｎｄ　Ｗｏｒｋｓ株式会社,,株式会社,千葉県,野田市,桜の里３丁目２６番地の７,,12,208,2780048,,,,,,,2023-08-09,1,,,,,フリーダムアンドワークス,0
476,2040001129568,新規,0,2023-08-09,2023-08-09,株式会社Ｍ’ｓ,,株式会社,千葉県,市原市,草刈２１９０番地,,12,219,2900001,,,,,,,2023-08-09,1,,,,,エムズ,0
477,2040001129584,新規,0,2023-08-09,2023-08-09,株式会社写真工房リーフ,,株式会社,千葉県,千葉市中央区,祐光１丁目３番１－４０４号,,12,101,2600007,,,,,,,2023-08-09,1,,,,,シャシンコウボウリーフ,0
478,2040001129592,新規,0,2023-08-09,2023-08-09,株式会社９３８,,株式会社,千葉県,松戸市,牧の原２番地の５牧の原公団住宅１街区１５棟２０３号,,12,207,2702267,,,,,,,2023-08-09,1,,,,,クミエン,0
479,2040001129601,新規,0,2023-08-09,2023-08-09,株式会社ＥＴＴＯ,,株式会社,千葉県,千葉市中央区,末広１丁目１６番２４号,,12,101,2600843,,,,,,,2023-08-09,1,,,,,エット,0
480,2040001129618,新規,0,2023-08-09,2023-08-09,株式会社ｄｉｌｅｃｔｉｏ,,株式会社,千葉県,柏市,南柏中央６番地３Ｓ５０９キングビル１０１,,12,217,2770075,,,,,,,2023-08-09,1,,,,,ディレクティオ,0
481,2040003023091,新規,0,2023-08-09,2023-08-09,合同会社８５０,,合同会社,千葉県,市川市,新井２丁目５－２,,12,203,2720144,,,,,,,2023-08-09,1,,,,,ハチゴマル,0
485,2050001053263,新規,0,2023-08-09,2023-08-09,テクノロイグ株式会社,,株式会社,茨城県,つくば市,自由ケ丘４５１番地２１,,08,220,3001266,,,,,,,2023-08-09,1,,,,,テクノロイグ,0
488,2050003007705,新規,0,2023-08-09,2023-08-09,合同会社ジルフィート,,合同会社,茨城県,土浦市,おおつ野６丁目４番３４号,,08,203,3000028,,,,,,,2023-08-09,1,,,,,ジルフィート,0
489,2050003007721,新規,0,2023-08-09,2023-08-09,８１３Ｂａｓｅ合同会社,,合同会社,茨城県,日立市,旭町３丁目１５－２,,08,202,3170074,,,,,,,2023-08-09,1,,,,,ハチイチサンベース,0
494,2070001040680,新規,0,2023-08-09,2023-08-09,株式会社コギーズ,,株式会社,群馬県,渋川市,赤城町津久田２８９－７,,10,208,3791103,,,,,,,2023-08-09,1,,,,,コギーズ,0
496,2080001025796,新規,0,2023-08-09,2023-08-09,株式会社ＰＡＴＣＨ,,株式会社,静岡県,島田市,金谷東２丁目１６番地の４,,22,209,4280013,,,,,,,2023-08-09,1,,,,,パッチ,0
498,2080101024161,新規,0,2023-08-09,2023-08-09,株式会社インターステラ,,株式会社,静岡県,沼津市,下香貫樋ノ口１６８８番地の１河口マンション１０８,00131471,22,203,4100822,,,,,,,2023-08-09,1,,,,,インターステラ,0
504,2100001036659,新規,0,2023-08-09,2023-08-09,株式会社ＫＩＴＡＭＵＲＡ,,株式会社,長野県,長野市,大字西尾張部５０８番地１－２０３号,,20,201,3810031,,,,,,,2023-08-09,1,,,,,キタムラ,0
508,2110001037747,新規,0,2023-08-09,2023-08-09,株式会社ソーシャルスクワッド,,株式会社,新潟県,南魚沼市,二日町２５８番地１,,15,226,9496772,,,,,,,2023-08-09,1,,,,,ソーシャルスクワッド,0
520,2120001257105,新規,0,2023-08-09,2023-08-09,株式会社エースター,,株式会社,大阪府,大阪市西成区,太子１丁目１５－１４,,27,122,5570002,,,,,,,2023-08-09,1,,,,,エースター,0
521,2120001257146,新規,0,2023-08-09,2023-08-09,エアサーブ株式会社,,株式会社,大阪府,寝屋川市,成田西町１０番６１号,,27,215,5720005,,,,,,,2023-08-09,1,,,,,エアサーブ,0
522,2120001257195,新規,0,2023-08-09,2023-08-09,株式会社ナオツーコーポレーション,,株式会社,大阪府,大阪市都島区,都島本通３丁目２４番６号２階,,27,102,5340021,,,,,,,2023-08-09,1,,,,,ナオツーコーポレーション,0
523,2120001257220,新規,0,2023-08-09,2023-08-09,スマイルマーク株式会社,,株式会社,大阪府,大阪市東淀川区,淡路５丁目１８番６号,,27,114,5330032,,,,,,,2023-08-09,1,,,,,スマイルマーク,0
525,2120003024684,新規,0,2023-08-09,2023-08-09,合同会社ディーディー,,合同会社,大阪府,大阪市西区,京町堀２丁目３番１０－８０２号,,27,106,5500003,,,,,,,2023-08-09,1,,,,,ディーディー,0
528,2120101067998,新規,0,2023-08-09,2023-08-09,株式会社未来良塗,,株式会社,大阪府,高石市,高師浜３丁目５番３４号,,27,225,5920004,,,,,,,2023-08-09,1,,,,,ミライト,0
529,2120101068006,新規,0,2023-08-09,2023-08-09,株式会社Ｚ建設,,株式会社,大阪府,堺市西区,浜寺石津町西４丁１１番１－１０１号,,27,144,5928333,,,,,,,2023-08-09,1,,,,,ゼットケンセツ,0
530,2120101068014,新規,0,2023-08-09,2023-08-09,株式会社ＴｏＷｉｎＸ,,株式会社,大阪府,松原市,天美東１丁目９６番地の３,,27,217,5800032,,,,,,,2023-08-09,1,,,,,トゥウィンクス,0
531,2120101068047,新規,0,2023-08-09,2023-08-09,株式会社村田工務店,,株式会社,大阪府,泉北郡忠岡町,馬瀬３丁目９番１２－５号,,27,341,5950804,,,,,,,2023-08-09,1,,,,,ムラタコウムテン,0
542,2130001074887,新規,0,2023-08-09,2023-08-09,株式会社Ｚ・Ｚ,,株式会社,京都府,京都市東山区,大和大路四条下る四丁目小松町５６０番地,,26,105,6050000,,,,,,,2023-08-09,1,,,,,ゼットゼット,0
543,2130001074895,新規,0,2023-08-09,2023-08-09,シェンフーシン株式会社,,株式会社,京都府,京都市下京区,五条通油小路西入ル北側小泉町１１３－１,,26,106,6000000,,,,,,,2023-08-09,1,,,,,シェンフーシン,0
544,2130001074929,新規,0,2023-08-09,2023-08-09,株式会社京都ぱどメディアソリューション,,株式会社,京都府,宇治市,宇治壱番１２５番地の２初栄ビル３階,,26,204,6110021,,,,,,,2023-08-09,1,,,,,キョウトパドメディアソリューション,0
557,2140001131167,新規,0,2023-08-09,2023-08-09,株式会社Ｇｏｏｄ　Ｈｏｍｅ,,株式会社,兵庫県,神戸市北区,有野中町２丁目１４番１７号,,28,109,6511313,,,,,,,2023-08-09,1,,,,,グッドホーム,0
558,2140001131217,新規,0,2023-08-09,2023-08-09,株式会社うららか,,株式会社,兵庫県,神戸市灘区,船寺通１丁目２番１９号,,28,102,6570842,,,,,,,2023-08-09,1,,,,,ウララカ,0
559,2140001131225,新規,0,2023-08-09,2023-08-09,セールスサイエンスセンター株式会社,,株式会社,兵庫県,神戸市中央区,御幸通８丁目１番６号神戸国際会館２２Ｆ,,28,110,6510087,,,,,,,2023-08-09,1,,,,,セールスサイエンスセンター,0
564,2150001026622,新規,0,2023-08-09,2023-08-09,日翔機械株式会社,,株式会社,奈良県,生駒郡平群町,大字若井２９５番地の１,,29,342,6360916,,,,,,,2023-08-09,1,,,,,ニッショウキカイ,0
565,2150001026630,新規,0,2023-08-09,2023-08-09,株式会社ｇｅｎ,,株式会社,奈良県,生駒市,真弓１丁目５番６号,,29,209,6300122,,,,,,,2023-08-09,1,,,,,ゲン,0
566,2170001017719,新規,0,2023-08-09,2023-08-09,株式会社龍木堂,,株式会社,和歌山県,和歌山市,松江北７丁目５番１７号,,30,201,6408425,,,,,,,2023-08-09,1,,,,,リュウキドウ,0
567,2170001017727,新規,0,2023-08-09,2023-08-09,株式会社ｋｏｔｏ,,株式会社,和歌山県,和歌山市,有本１９７番地４,,30,201,6408390,,,,,,,2023-08-09,1,,,,,コト,0
569,2180001157472,新規,0,2023-08-09,2023-08-09,友栄株式会社,,株式会社,愛知県,名古屋市中川区,服部３丁目２０３番地の１,,23,110,4540976,,,,,,,2023-08-09,1,,,,,ユウエイ,0
570,2180001157480,新規,0,2023-08-09,2023-08-09,株式会社ＥＭＺＥＱ,,株式会社,愛知県,あま市,篠田三田畑１８番地１アズハイム１０２号,,23,237,4901211,,,,,,,2023-08-09,1,,,,,エムゼック,0
571,2180001157489,新規,0,2023-08-09,2023-08-09,株式会社バッズブルー,,株式会社,愛知県,清須市,西枇杷島町小田井２丁目１７番地１７,,23,233,4520021,,,,,,,2023-08-09,1,,,,,バッズブルー,0
572,2180001157497,新規,0,2023-08-09,2023-08-09,株式会社ヴェリアス,,株式会社,愛知県,春日井市,出川町３丁目７番地３プラザ栄１Ｆ,,23,206,4870025,,,,,,,2023-08-09,1,,,,,ヴェリアス,0
573,2180001157506,新規,0,2023-08-09,2023-08-09,株式会社Ｉｚｕｍｉ,,株式会社,愛知県,名古屋市東区,泉１丁目１２番２５号シティタワー名古屋久屋大通公園２９０３号,,23,102,4610001,,,,,,,2023-08-09,1,,,,,イズミ,0
574,2180001157514,新規,0,2023-08-09,2023-08-09,株式会社南武工業,,株式会社,愛知県,名古屋市西区,城西４丁目１６番１１号,,23,104,4510031,,,,,,,2023-08-09,1,,,,,ナンブコウギョウ,0
575,2180001157530,新規,0,2023-08-09,2023-08-09,株式会社最新学習歴,,株式会社,愛知県,名古屋市昭和区,広池町２４番地の４,,23,107,4660042,,,,,,,2023-08-09,1,,,,,サイシンガクシュウレキ,0
576,2180001157547,新規,0,2023-08-09,2023-08-09,十麻建設株式会社,,株式会社,愛知県,名古屋市名東区,新宿１丁目２２６番地,,23,115,4650063,,,,,,,2023-08-09,1,,,,,トオマケンセツ,0
577,2180001157555,新規,0,2023-08-09,2023-08-09,株式会社ＳａｉｎＴｏＮｅ,,株式会社,愛知県,名古屋市中川区,八熊２丁目２番６号６０３,,23,110,4540013,,,,,,,2023-08-09,1,,,,,セイントーン,0
578,2180001157563,新規,0,2023-08-09,2023-08-09,ＫＧＥ株式会社,,株式会社,愛知県,名古屋市緑区,鳴海町字上ノ山６６番地の１９,,23,114,4580842,,,,,,,2023-08-09,1,,,,,ケイジーイー,0
579,2180001157588,新規,0,2023-08-09,2023-08-09,ワンダーフードイノベーション株式会社,,株式会社,愛知県,名古屋市東区,徳川１丁目９番３０号,,23,102,4610025,,,,,,,2023-08-09,1,,,,,ワンダーフードイノベーション,0
580,2180001157596,新規,0,2023-08-09,2023-08-09,株式会社姫龍美,,株式会社,愛知県,津島市,青塚町１丁目６８番地メイツ青塚１００４号室,,23,208,4960001,,,,,,,2023-08-09,1,,,,,キリュウ,0
581,2180001157605,新規,0,2023-08-09,2023-08-09,株式会社ＩｎｆｒａＡｃａｄｅｍｙ,,株式会社,愛知県,名古屋市中区,古渡町１４－１３サンシャイン金山５０１,,23,106,4600025,,,,,,,2023-08-09,1,,,,,インフラアカデミー,0
592,2180301037688,新規,0,2023-08-09,2023-08-09,株式会社ドゥイットエステートツー,,株式会社,愛知県,安城市,今池町１丁目２０番５号,,23,212,4460071,,,,,,,2023-08-09,1,,,,,ドゥイットエステートツー,0
596,2190005011856,新規,0,2023-08-09,2023-08-09,三愛協同組合,,その他の設立登記法人,三重県,津市,白山町二本木３８６８番地４,,24,201,5152602,,,,,,,2023-08-09,1,,,,,サンアイ,0
606,2230001019956,新規,0,2023-08-09,2023-08-09,株式会社アンドスマイル,,株式会社,富山県,氷見市,窪１６１６番地１,,16,205,9350024,,,,,,,2023-08-09,1,,,,,アンドスマイル,0
609,2240001061932,新規,0,2023-08-09,2023-08-09,株式会社雄飛工業,,株式会社,広島県,広島市安佐南区,上安４丁目９番２１号,,34,105,7310154,,,,,,,2023-08-09,1,,,,,ユウヒコウギョウ,0
610,2240001061940,新規,0,2023-08-09,2023-08-09,寿工業株式会社,,株式会社,広島県,呉市,東中央４丁目６番１号,,34,202,7370052,,,,,,,2023-08-09,1,,,,,コトブキコウギョウ,0
611,2240001061949,新規,0,2023-08-09,2023-08-09,株式会社サンシャイン,,株式会社,広島県,福山市,新市町大字下安井５０５番地２,,34,207,7293105,,,,,,,2023-08-09,1,,,,,サンシャイン,0
612,2240001061973,新規,0,2023-08-09,2023-08-09,株式会社トレンドライン,,株式会社,広島県,福山市,引野町２丁目３番９－２０３号,,34,207,7210942,,,,,,,2023-08-09,1,,,,,トレンドライン,0
617,2260001038185,新規,0,2023-08-09,2023-08-09,株式会社東洋プランニング,,株式会社,岡山県,岡山市南区,浦安南町１２２番地１,,33,104,7028024,,,,,,,2023-08-09,1,,,,,トウヨウプランニング,0
618,2260001038193,新規,0,2023-08-09,2023-08-09,株式会社ウッドヴィレッジ,,株式会社,岡山県,倉敷市,寿町６番１－９０２号アルファステイツ倉敷寿町ＩＩ,00131459,33,202,7100813,,,,,,,2023-08-09,1,,,,,ウッドヴィレッジ,0
621,2260003004383,新規,0,2023-08-09,2023-08-09,合同会社Ｓカンパニー,,合同会社,岡山県,津山市,大田７１５番地１１,,33,203,7080806,,,,,,,2023-08-09,1,,,,,エスカンパニー,0
623,2270001008823,新規,0,2023-08-09,2023-08-09,ＳＧパートナーズ株式会社,,株式会社,鳥取県,鳥取市,吉成南町１丁目２４番２号,,31,201,6800871,,,,,,,2023-08-09,1,,,,,エスジーパートナーズ,0
624,2280001009011,新規,0,2023-08-09,2023-08-09,株式会社ハドル,,株式会社,島根県,松江市,山代町７６５－３,,32,201,6900031,,,,,,,2023-08-09,1,,,,,ハドル,0
634,2290001102525,新規,0,2023-08-09,2023-08-09,株式会社ユーティリティー,,株式会社,福岡県,福岡市東区,原田１丁目４４番８号,,40,131,8120063,,,,,,,2023-08-09,1,,,,,ユーティリティー,0
637,2290801029777,新規,0,2023-08-09,2023-08-09,ｓｕｎｓｅｔ．ｌａｂ株式会社,,株式会社,福岡県,北九州市若松区,高須東１丁目２番２３号,,40,103,8080144,,,,,,,2023-08-09,1,,,,,サンセットラボ,0
640,2310001018553,新規,0,2023-08-09,2023-08-09,サンチェスエンタープライズ株式会社,,株式会社,長崎県,佐世保市,湊町７番１３号２Ｆ,,42,202,8570055,,,,,,,2023-08-09,1,,,,,サンチェスエンタープライズ,0
642,2310003004618,新規,0,2023-08-09,2023-08-09,合同会社Ｋサポート,,合同会社,長崎県,諫早市,多良見町シーサイド２０番地５１０,,42,204,8590407,,,,,,,2023-08-09,1,,,,,,0
644,2320001019939,新規,0,2023-08-09,2023-08-09,株式会社ＥＸＰＥＲＩＥＮＣＥＤ,,株式会社,大分県,大分市,中島西１丁目２番２４号日宝グランディ中島１Ｆ,,44,201,8700047,,,,,,,2023-08-09,1,,,,,エクスペリエンスト,0
646,2330001031100,新規,0,2023-08-09,2023-08-09,株式会社ＹＭＲ,,株式会社,熊本県,球磨郡山江村,大字山田乙１１７２番地の１０,,43,512,8680092,,,,,,,2023-08-09,1,,,,,ワイエムアール,0
647,2330001031117,新規,0,2023-08-09,2023-08-09,株式会社マキノ塗装,,株式会社,熊本県,熊本市北区,四方寄町１４６８番地８,,43,105,8615515,,,,,,,2023-08-09,1,,,,,マキノトソウ,0
648,2330003009929,新規,0,2023-08-09,2023-08-09,合同会社ＢＯＲＤＥＲ,,合同会社,熊本県,八代郡氷川町,鹿島７９９番地,,43,468,8694815,,,,,,,2023-08-09,1,,,,,ボーダー,0
653,2340001025786,新規,0,2023-08-09,2023-08-09,株式会社ＱＯＯ,,株式会社,鹿児島県,鹿児島市,松原町１番１３－４０５号,,46,201,8920833,,,,,,,2023-08-09,1,,,,,クウ,0
654,2340002005309,新規,0,2023-08-09,2023-08-09,セイシンシステム有限会社,,有限会社,鹿児島県,鹿児島市,田上５丁目４０番２２号,,46,201,8900034,,,,,,,2023-08-09,1,,,,,セイシンシステム,0
655,2350001018500,新規,0,2023-08-09,2023-08-09,株式会社樹建総,,株式会社,宮崎県,宮崎市,佐土原町下田島８８９１番地１,,45,201,8800211,,,,,,,2023-08-09,1,,,,,イツキケンソウ,0
658,2360001032384,新規,0,2023-08-09,2023-08-09,株式会社ザマミ自動車販売,,株式会社,沖縄県,沖縄市,泡瀬１丁目２３番１３号メゾン東久２－Ｂ,,47,211,9042172,,,,,,,2023-08-09,1,,,,,ザマミジドウシャハンバイ,0
661,2370001050278,新規,0,2023-08-09,2023-08-09,８２４ａｅｔｅｒｎｕｍ株式会社,,株式会社,宮城県,仙台市青葉区,宮町２丁目２番８号,,04,101,9800004,,,,,,,2023-08-09,1,,,,,ハチニーヨンアエテルヌム,0
663,2370003006229,新規,0,2023-08-09,2023-08-09,合同会社ほっぷ,,合同会社,宮城県,仙台市太白区,東中田５丁目３番５６号,,04,104,9811107,,,,,,,2023-08-09,1,,,,,ホップ,0
664,2370003006237,新規,0,2023-08-09,2023-08-09,合同会社千仁会,,合同会社,宮城県,仙台市太白区,四郎丸字吹上５５番地１６,,04,104,9811101,,,,,,,2023-08-09,1,,,,,センジンカイ,0
669,2380001033901,新規,0,2023-08-09,2023-08-09,株式会社飛文,,株式会社,福島県,福島市,飯坂町平野字向原１９番地の３,,07,201,9600231,,,,,,,2023-08-09,1,,,,,ヒフミ,0
672,2410001013569,新規,0,2023-08-09,2023-08-09,株式会社スポラバ,,株式会社,秋田県,秋田市,保戸野中町１番４５号,,05,201,0100905,,,,,,,2023-08-09,1,,,,,スポラバ,0
680,2430003015314,新規,0,2023-08-09,2023-08-09,合同会社ＮＹＣ,,合同会社,北海道,札幌市中央区,南五条西９丁目１０１６番地２１ＴｅｒｒａｃｅＦｉｎｏ１０２号,,01,101,0640805,,,,,,,2023-08-09,1,,,,,エヌワイシー,0
685,2460105002265,新規,0,2023-08-09,2023-08-09,特定非営利活動法人クロユリの会,,その他の設立登記法人,北海道,帯広市,緑ケ丘８丁目１番地１,,01,207,0800846,,,,,,,2023-08-09,1,,,,,クロユリノカイ,0
688,2700150115590,新規,0,2023-08-09,2023-08-09,次世代創新科技　有限公司,,外国会社等,,,,,,,,中国香港九龍観塘駿業街５２－５６号中海日昇大＿２０楼Ｂ室,00131430,,,,,2023-08-09,1,,,,,ジセダイソウシンカギユウゲンコウシ,0
689,2700150118899,新規,0,2023-08-09,2023-08-09,ＳＨＥＮＺＨＥＮ　ＣＨＥＮＧＱＩ　Ｔｒａｄｉｎｇ　ＣＯ．，Ｌｔｄ,,外国会社等,,,,,,,,Ｂａｎｔｉａｎ　Ｓｔｒｅｅｔ，Ｌｏｎｇｇａｎｇ　Ｄｉｓｔｒｉｃｔ，Ｒｏｏｍ　９０２，Ｂｕｉｌｄｉｎｇ　２１，Ｌａｎｅ　１１，Ｗａｎｇｔａｎｇ，Ｙａｎｇｍｅｉ　Ｖｉｌｌａｇｅ　Ｓｈｅｎｚｈｅｎ　Ｃｉｔｙ　Ｇｕａｎｇｄｏｎｇ　Ｐｒｏｖｉｎｃｅ,,,,,,2023-08-09,1,,,,,シンセンチェンチトゥレイディングカンパニーリミテッド,0
690,2700150118908,新規,0,2023-08-09,2023-08-09,Ｓｈｅｎｚｈｅｎ　ＸｉｎＣｈｉＳｈｕｏ　Ｔｅｃｈｎｏｌｏｇｙ　Ｃｏ．Ｌｔｄ．,,外国会社等,,,,,,,,Ｂ　Ｄｉｓｔｒｉｃｔ，３Ｆ，ＢｌｄｇＢ，ＸｉａＷｅｉＹｕａｎ　Ｉｎｄｕｓｔｒｉａｌ　Ｐａｒｋ　Ｇｕｓｈｕ，ＸｉＸｉａｎｇ　Ｔｏｗｎ，Ｂａｏ’ａｎ　Ｄｉｓｔｒｉｃｔ　Ｓｈｅｎｚｈｅｎ　Ｇｕａｎｇｄｏｎｇ,,,,,,2023-08-09,1,,,,,シェンゼェンシンチシゥオテクノロジーカンパニーリミテッド,0
691,2700150118916,新規,0,2023-08-09,2023-08-09,Ｓｈｅｎｚｈｅｎ　Ｙｏｕｍｉｎｇｄａ　Ｔｅｃｈｎｏｌｏｇｙ　Ｃｏ．，Ｌｔｄ,,外国会社等,,,,,,,,Ａ２００１，Ｂｕｉｌｄｉｎｇ　３，Ｐｈａｓｅ　２，Ａｏｙｕａｎ　Ｆｅｉｃｕｉ　Ｄｏｎｇｗａｎ，Ｎｏ．１４５　Ｊｉｎｎｉｕ　Ｅａｓｔ　Ｒｏａｄ，Ｚｈｕｋｅｎｇ　Ｃｏｍｍｕｎｉｔｙ，Ｌｏｎｇｔｉａｎ　Ｓｔｒｅｅｔ，Ｐｉｎｇｓｈａｎ　Ｄｉｓｔｒｉｃｔ，Ｓｈｅｎｚｈｅｎ,,,,,,2023-08-09,1,,,,,シェンジェンシーヨウミンダーコージーヨウシエンゴンスー,0
692,2700150118924,新規,0,2023-08-09,2023-08-09,Ｓｗａｙ　Ｔｅｃｈｎｏｌｏｇｙ　Ｃｏ．，Ｌｉｍｉｔｅｄ,,外国会社等,,,,,,,,ＵＮＩＴ　Ｃ　９／Ｆ　ＷＩＮＮＩＮＧ　ＨＳＥ　ＮＯ．７２－７４　ＷＩＮＧ　ＬＯＫ　ＳＴ　ＳＨＥＵＮＧ　ＷＡＮ　ＨＫ　９９９０７７,,,,,,2023-08-09,1,,,,,スウェイテクノロジーカンパニーリミテッド,0
693,2700150118932,新規,0,2023-08-09,2023-08-09,Ｙｉｗｕ　Ｍａｉｓｏｎ　Ａｒｔ　Ｃｏｍｐａｎｙ　Ｌｉｍｉｔｅｄ,,外国会社等,,,,,,,,Ｂｅｉｙｕａｎ　Ｓｔｒｅｅｔ　Ｑｉａｎｈｏｎｇ　Ｃｕｎ　３２Ｄｏｎｇ　１Ｄａｎｙｕａｎ　１Ｌｏｕ　Ｙｉｗｕ　Ｚｈｅｊｉａｎｇ　３２２０００　ＣＮ,,,,,,2023-08-09,1,,,,,イーウーシメイセンゴンイーピンヨウシェンゴンスー,0
694,2700150118940,新規,0,2023-08-09,2023-08-09,ｓｈｅｎ　ｚｈｅｎ　ｓｈｉ　ｆｕ　ｊｉｎｇ　ｇｅ　ｋｅ　ｊｉ　ｙｏｕ　ｘｉａｎ　ｇｏｎｇ　ｓｉ,,外国会社等,,,,,,,,Ａ－１２Ｅ，Ｓｈｅｎｎａｎ　Ｇａｒｄｅｎ，Ｎｏ．１１　Ｋｅｘｉｎｇ　Ｒｏａｄ，Ｓｃｉｅｎｃｅ　Ｐａｒｋ　Ｃｏｍｍｕｎｉｔｙ，Ｙｕｅｈａｉ　Ｓｔｒｅｅｔ，Ｎａｎｓｈａｎ　Ｄｉｓｔｒｉｃｔ，Ｓｈｅｎｚｈｅｎ,,,,,,2023-08-09,1,,,,,シンセンシフジンゲカギユウゲンコウシ,0
695,2700150118949,新規,0,2023-08-09,2023-08-09,ｓｈｅｎｚｈｅｎｓｈｉ　ｋａｎｇｎｉｓｕｊｉａｏ　ｙｏｕｘｉａｎｇｏｎｇｓｉ,,外国会社等,,,,,,,,ｓｈｅｎｚｈｅｎｓｈｉｇｕａｎｇｍｉｎｇｑｕｙｕｔａｎｇｊｉｅｄａｏｔｉａｎｌｉａｏｓｈｅｑｕｄｉｓｉｇｏｎｇｙｅｑｕ１２ｄｏｎｇｃｈａｎｇｆａｎｇ１ｄｏｎｇ３０１　Ｓｈｅｎ　Ｚｈｅｎ　Ｇｕａｎｇ　Ｄｏｎｇ　ＣＮ,,,,,,2023-08-09,1,,,,,シンセンシカンニスジャオユウゲンコウシ,0
696,2700150118957,新規,0,2023-08-09,2023-08-09,Ｓｈｅｎｚｈｅｎ　ｗｉｓｆｏｒ　Ｔｅｃｈｎｏｌｏｇｙ　Ｃｏ．，Ｌｔｄ．,,外国会社等,,,,,,,,ｐｉｎｇｈｕｊｉｅｄａｏ，Ｅｇｏｎｇｌｉｎｇ　Ｃｏｍｍｕｎｉｔｙ　１０１，Ｂｕｉｌｄｉｎｇ　Ｄ，Ｎｏ．２７，Ｘｉｎｇｅ　Ｉｎｄｕｓｔｒｉａｌ　Ｚｏｎｅ　ｓｈｅｎｚｈｅｎｓｈｉ　ｇｕａｎｇｄｏｎｇｓｈｅｎｇ　ｌｏｎｇｇａｎｇｑｕ　Ｃｈｉｎａ,,,,,,2023-08-09,1,,,,,シェンゼェンウィスフォテクノロジーカンパニーリミテッド,0
697,2700150118965,新規,0,2023-08-09,2023-08-09,チン州市艾比托商貿　有限公司,,外国会社等,,,,,,,,中国湖南省チン州市北湖区人民路街道国慶北路歩歩高置業新天地１８００２室,,,,,,2023-08-09,1,,,,,チンシユウシガイヒタクシヨウボウユウゲンコウシ,0
706,3010001237422,新規,0,2023-08-09,2023-08-09,株式会社Ａｇｉｒ,,株式会社,東京都,中央区,銀座１丁目１２番４号Ｎ＆ＥＢＬＤ．６Ｆ,,13,102,1040061,,,,,,,2023-08-09,1,,,,,アジール,0
707,3010001237505,新規,0,2023-08-09,2023-08-09,株式会社ＮＡＣ,,株式会社,東京都,中央区,日本橋大伝馬町２番１１号,,13,102,1030011,,,,,,,2023-08-09,1,,,,,ナック,0
708,3010001237513,新規,0,2023-08-09,2023-08-09,株式会社Ｚ,,株式会社,東京都,中央区,銀座７丁目１５番８号タウンハイツ銀座４０６,,13,102,1040061,,,,,,,2023-08-09,1,,,,,ゼット,0
709,3010001237546,新規,0,2023-08-09,2023-08-09,株式会社レテベ,,株式会社,東京都,中央区,銀座６丁目１０番１号ＧＩＮＺＡＳＩＸ１３階,,13,102,1040061,,,,,,,2023-08-09,1,,,,,レテベ,0
710,3010001237562,新規,0,2023-08-09,2023-08-09,株式会社スライブマーケティング,,株式会社,東京都,中央区,日本橋蛎殻町２丁目１５番９－３０３号,,13,102,1030014,,,,,,,2023-08-09,1,,,,,スライブマーケティング,0
711,3010001237579,新規,0,2023-08-09,2023-08-09,株式会社ＡＸＬｉｆｅ,,株式会社,東京都,中央区,勝どき６丁目３番１－１６１５号,,13,102,1040054,,,,,,,2023-08-09,1,,,,,アクセライフ,0
712,3010001237604,新規,0,2023-08-09,2023-08-09,ベルインベストメンツ株式会社,,株式会社,東京都,中央区,銀座１丁目１２番４号Ｎ＆ＥＢＬＤ．６Ｆ,,13,102,1040061,,,,,,,2023-08-09,1,,,,,ベルインベストメンツ,0
734,3010405022338,新規,0,2023-08-09,2023-08-09,一般社団法人日台協会,,その他の設立登記法人,東京都,港区,南青山３丁目１７番１４号中山ビル４Ｆ,,13,103,1070062,,,,,,,2023-08-09,1,,,,,ニッタイキョウカイ,0
742,3010901053563,新規,0,2023-08-09,2023-08-09,Ｇ．Ｈ．Ｙ．Ｃｕｌｔｕｒｅ＆Ｍｅｄｉａ　Ｊａｐａｎ株式会社,,株式会社,東京都,世田谷区,代沢４丁目１２番１５号,,13,112,1550032,,,,,,,2023-08-09,1,,,,,ジーエイチワイカルチャーアンドメディアジャパン,0
743,3010901053588,新規,0,2023-08-09,2023-08-09,株式会社デザインパターンラボ,,株式会社,東京都,世田谷区,太子堂２丁目１７番５号佐藤ビル３階,,13,112,1540004,,,,,,,2023-08-09,1,,,,,デザインパターンラボ,0
745,3010903008375,新規,0,2023-08-09,2023-08-09,合同会社緩流時生,,合同会社,東京都,世田谷区,代沢４丁目１０－８－１０２,,13,112,1550032,,,,,,,2023-08-09,1,,,,,カンリュウジセイ,0
750,3011001156166,新規,0,2023-08-09,2023-08-09,株式会社Ｋｏｄａ,,株式会社,東京都,渋谷区,神泉町１０番１５号,,13,113,1500045,,,,,,,2023-08-09,1,,,,,コーダ,0
751,3011001156199,新規,0,2023-08-09,2023-08-09,株式会社Ｐｙｘ２３,,株式会社,東京都,目黒区,柿の木坂２丁目７番１０号,,13,110,1520022,,,,,,,2023-08-09,1,,,,,ピクシスニジュウサン,0
753,3011005010170,新規,0,2023-08-09,2023-08-09,一般社団法人婦人民主クラブ,,その他の設立登記法人,東京都,渋谷区,神宮前３丁目３１番１８号,,13,113,1500001,,,,,,,2023-08-09,1,,,,,フジンミンシュクラブ,0
755,3011101103927,新規,0,2023-08-09,2023-08-09,株式会社ｖｅｒｎａｃｌｅ,,株式会社,東京都,新宿区,西早稲田２丁目１８番１０号,,13,104,1690051,,,,,,,2023-08-09,1,,,,,ヴァナクル,0
757,3011103013348,新規,0,2023-08-09,2023-08-09,Ｊｏｕｒｎｉｐ合同会社,,合同会社,東京都,新宿区,西新宿３丁目３番１３号,,13,104,1600023,,,,,,,2023-08-09,1,,,,,ジャーニップ,0
758,3011201024825,新規,0,2023-08-09,2023-08-09,株式会社ｙ’ｓ　ｃｒｅａｔｉｏｎ,,株式会社,東京都,中野区,東中野４丁目４番３号,,13,114,1640003,,,,,,,2023-08-09,1,,,,,ワイズクリエイション,0
762,3011401025350,新規,0,2023-08-09,2023-08-09,株式会社アイリエスト,,株式会社,東京都,板橋区,加賀２丁目１８番２８－１１０１号,,13,119,1730003,,,,,,,2023-08-09,1,,,,,アイリエスト,0
763,3011401025359,新規,0,2023-08-09,2023-08-09,株式会社Ｊｉｎｎｙ,,株式会社,東京都,板橋区,富士見町１０番５号,,13,119,1740062,,,,,,,2023-08-09,1,,,,,ジーニー,0
767,3011601027031,新規,0,2023-08-09,2023-08-09,株式会社ＡＲＩＫＡ,,株式会社,東京都,練馬区,豊玉北６丁目２－１－１００４,,13,120,1760012,,,,,,,2023-08-09,1,,,,,,0
768,3011603004012,新規,0,2023-08-09,2023-08-09,合同会社アルファ企画,,合同会社,東京都,練馬区,早宮３丁目５８番８－２０６号,,13,120,1790085,,,,,,,2023-08-09,1,,,,,アルファキカク,0
770,3011701026494,新規,0,2023-08-09,2023-08-09,株式会社ＢＥＡＵＳＴＩＥ,,株式会社,東京都,江戸川区,瑞江２丁目４番３－１００７号,,13,123,1320011,,,,,,,2023-08-09,1,,,,,ビュースティ,0
771,3011701026503,新規,0,2023-08-09,2023-08-09,株式会社ＡＣＴ,,株式会社,東京都,江戸川区,大杉１丁目１３番３号,,13,123,1320022,,,,,,,2023-08-09,1,,,,,アクト,0
773,3011801042846,新規,0,2023-08-09,2023-08-09,株式会社アビッドコア,,株式会社,東京都,足立区,新田３丁目３７番１１号アクアテラカームスクエア６２０号室,,13,121,1230865,,,,,,,2023-08-09,1,,,,,アビッドコア,0
774,3011803005776,新規,0,2023-08-09,2023-08-09,うのざか合同会社,,合同会社,東京都,葛飾区,立石６丁目３１番８号ヴィラ１階,,13,122,1240012,,,,,,,2023-08-09,1,,,,,ウノザカ,0
775,3012401040843,新規,0,2023-08-09,2023-08-09,株式会社Ｖｉｓ　Ｏｐｅｒａｔｉｏｎ,,株式会社,東京都,武蔵野市,吉祥寺北町５丁目３番１６号ファミーユ吉祥寺１０２,,13,203,1800001,,,,,,,2023-08-09,1,,,,,ヴィズオペレーション,0
776,3012401040851,新規,0,2023-08-09,2023-08-09,株式会社フィフス・ゲート,,株式会社,東京都,小金井市,前原町３丁目４１－９,,13,210,1840013,,,,,,,2023-08-09,1,,,,,フィフスゲート,0
781,3012801022557,新規,0,2023-08-09,2023-08-09,株式会社ＮＯＢＬＥ　ＨＥＡＲＴ,,株式会社,東京都,立川市,柴崎町３丁目１０番２２号,,13,202,1900023,,,,,,,2023-08-09,1,,,,,ノーブルハート,0
785,3013303006742,新規,0,2023-08-09,2023-08-09,合同会社ウェルネスハーモニー,,合同会社,東京都,豊島区,池袋３丁目３９番５号,,13,116,1710014,,,,,,,2023-08-09,1,,,,,ウェルネスハーモニー,0
790,3020001152892,新規,0,2023-08-09,2023-08-09,株式会社ｅｆｆｏｒｔ,,株式会社,神奈川県,横浜市旭区,さちが丘１１２番地２５,,14,112,2410822,,,,,,,2023-08-09,1,,,,,エフォート,0
791,3020003024314,新規,0,2023-08-09,2023-08-09,合同会社ＳＳＣシステムデザイン,,合同会社,神奈川県,横浜市青葉区,しらとり台１４－１１,,14,117,2270054,,,,,,,2023-08-09,1,,,,,エスエスシーシステムデザイン,0
795,3021001079845,新規,0,2023-08-09,2023-08-09,株式会社ｓｉｍｐｌｅ,,株式会社,神奈川県,南足柄市,塚原４９１９番地７６,,14,217,2500117,,,,,,,2023-08-09,1,,,,,シンプル,0
796,3021001079894,新規,0,2023-08-09,2023-08-09,株式会社オフィスＲ,,株式会社,神奈川県,相模原市南区,上鶴間５丁目８番１号ブリリア東林間２１２,,14,153,2520302,,,,,,,2023-08-09,1,,,,,オフィスアール,0
798,3021003013406,新規,0,2023-08-09,2023-08-09,Ｃａｖｔｏ合同会社,,合同会社,神奈川県,鎌倉市,腰越２丁目６－１９,,14,204,2480033,,,,,,,2023-08-09,1,,,,,カブト,0
800,3030001155003,新規,0,2023-08-09,2023-08-09,株式会社ウメハラ,,株式会社,埼玉県,上尾市,谷津２丁目１番１号Ｂ―８０２,,11,219,3620042,,,,,,,2023-08-09,1,,,,,ウメハラ,0
801,3030001155119,新規,0,2023-08-09,2023-08-09,株式会社スギウラ,,株式会社,埼玉県,川口市,大字東本郷９７６番地の５,,11,203,3340063,,,,,,,2023-08-09,1,,,,,スギウラ,0
802,3030001155143,新規,0,2023-08-09,2023-08-09,株式会社カリスビューティー,,株式会社,埼玉県,さいたま市南区,鹿手袋５丁目６－１７－３０７,,11,108,3360031,,,,,,,2023-08-09,1,,,,,カリスビューティー,0
803,3030001155192,新規,0,2023-08-09,2023-08-09,ＭＫリフォーム株式会社,,株式会社,埼玉県,志木市,本町５丁目１８番２２号エルシティミカミ２０２－Ｂ,,11,228,3530004,,,,,,,2023-08-09,1,,,,,エムケーリフォーム,0
804,3030001155201,新規,0,2023-08-09,2023-08-09,株式会社ｈｉｙａｋｕ,,株式会社,埼玉県,さいたま市桜区,大字白鍬１３８番地１８,,11,106,3380811,,,,,,,2023-08-09,1,,,,,ヒヤク,0
809,3030003022218,新規,0,2023-08-09,2023-08-09,カキライト合同会社,,合同会社,埼玉県,熊谷市,玉井２丁目８番地,,11,202,3600853,,,,,,,2023-08-09,1,,,,,カキライト,0
810,3030003022234,新規,0,2023-08-09,2023-08-09,合同会社ルート５,,合同会社,埼玉県,さいたま市大宮区,浅間町１丁目２７－１ホワイトハイツ１０１,,11,103,3300842,,,,,,,2023-08-09,1,,,,,ルートゴ,0
811,3030003022242,新規,0,2023-08-09,2023-08-09,第一商事合同会社,,合同会社,埼玉県,ふじみ野市,上福岡１丁目５番１９号,,11,245,3560004,,,,,,,2023-08-09,1,,,,,ダイイチショウジ,0
812,3030003022259,新規,0,2023-08-09,2023-08-09,合同会社ＳＳＫ,,合同会社,埼玉県,富士見市,針ケ谷２丁目１５番地１３,,11,235,3540017,,,,,,,2023-08-09,1,,,,,エスエスケー,0
817,3040001129550,新規,0,2023-08-09,2023-08-09,株式会社カリィ,,株式会社,千葉県,柏市,船戸３丁目６番地６６,,12,217,2770802,,,,,,,2023-08-09,1,,,,,カリィ,0
818,3040001129559,新規,0,2023-08-09,2023-08-09,株式会社Ｊコミュニケーションサービス,,株式会社,千葉県,千葉市中央区,中央１丁目１０番１０－２１０号,,12,101,2600013,,,,,,,2023-08-09,1,,,,,ジェイコミュニケーションサービス,0
819,3040001129567,新規,0,2023-08-09,2023-08-09,株式会社百年企画,,株式会社,千葉県,船橋市,習志野台１丁目１８番１２号,,12,204,2740063,,,,,,,2023-08-09,1,,,,,ヒャクネンキカク,0
820,3040001129575,新規,0,2023-08-09,2023-08-09,株式会社一心設計,,株式会社,千葉県,千葉市美浜区,高洲３丁目２０番４５号細矢ビル３０３室,,12,106,2610004,,,,,,,2023-08-09,1,,,,,イッシンセッケイ,0
821,3040001129583,新規,0,2023-08-09,2023-08-09,株式会社Ｓｎａｐｐｙ’ｓ,,株式会社,千葉県,千葉市中央区,富士見２丁目１３番１３号東屋ビル,,12,101,2600015,,,,,,,2023-08-09,1,,,,,スナッピーズ,0
822,3040001129591,新規,0,2023-08-09,2023-08-09,株式会社高昇企画,,株式会社,千葉県,千葉市中央区,椿森２丁目８番１１号,,12,101,2600042,,,,,,,2023-08-09,1,,,,,コウショウキカク,0
823,3040001129600,新規,0,2023-08-09,2023-08-09,株式会社キャッスル,,株式会社,千葉県,千葉市稲毛区,黒砂台１丁目１９番１５号,,12,103,2630041,,,,,,,2023-08-09,1,,,,,キャッスル,0
824,3040001129617,新規,0,2023-08-09,2023-08-09,ＭＩＨＡＲＡ株式会社,,株式会社,千葉県,印西市,小林北２丁目６番３９号,,12,231,2701313,,,,,,,2023-08-09,1,,,,,ミハラ,0
825,3040001129625,新規,0,2023-08-09,2023-08-09,株式会社ＤａｔａＢｏｏｓｔ,,株式会社,千葉県,柏市,若柴１７８－４柏の葉キャンパス１４８街区１Ｅ－２３０２,,12,217,2770871,,,,,,,2023-08-09,1,,,,,データブースト,0
830,3040003023082,新規,0,2023-08-09,2023-08-09,フルシロ合同会社,,合同会社,千葉県,船橋市,三山２丁目２９番３号,,12,204,2740072,,,,,,,2023-08-09,1,,,,,フルシロ,0
831,3040003023099,新規,0,2023-08-09,2023-08-09,合同会社グローバルライフキューピット,,合同会社,千葉県,松戸市,小金きよしケ丘２丁目１０番地の７エフレム北小金２０２号,,12,207,2700013,,,,,,,2023-08-09,1,,,,,グローバルライフキューピット,0
834,3050001053270,新規,0,2023-08-09,2023-08-09,東亜リテール株式会社,,株式会社,茨城県,常陸太田市,薬谷町２２１番地の５,,08,212,3130126,,,,,,,2023-08-09,1,,,,,トウアリテール,0
835,3050003007704,新規,0,2023-08-09,2023-08-09,ｔｏ　ｙｏｕ合同会社,,合同会社,茨城県,水戸市,元吉田町１４４５番地の７,,08,201,3100836,,,,,,,2023-08-09,1,,,,,トゥーユー,0
837,3060001036233,新規,0,2023-08-09,2023-08-09,ＣＡＴＳＰＥＣ株式会社,,株式会社,栃木県,那須塩原市,下永田８丁目１１２３番地１７,,09,213,3292712,,,,,,,2023-08-09,1,,,,,キャッツペック,0
838,3060003004675,新規,0,2023-08-09,2023-08-09,合同会社伊藤ファーム,,合同会社,栃木県,小山市,大字大本１７３５番地３,,09,208,3230009,,,,,,,2023-08-09,1,,,,,イトウファーム,0
839,3070001040738,新規,0,2023-08-09,2023-08-09,株式会社リバラリ,,株式会社,群馬県,高崎市,上佐野町６９７－３,,10,202,3700857,,,,,,,2023-08-09,1,,,,,リバラリ,0
841,3080001025795,新規,0,2023-08-09,2023-08-09,株式会社ＹＯＵ　ＨＯＵＳＥ,,株式会社,静岡県,静岡市駿河区,高松１丁目２３番１０号,,22,102,4228034,,,,,,,2023-08-09,1,,,,,ユウハウス,0
847,3100001036641,新規,0,2023-08-09,2023-08-09,株式会社便利屋飯田,,株式会社,長野県,飯田市,鼎上山３６８７番地３,,20,205,3950806,,,,,,,2023-08-09,1,,,,,ベンリヤイイダ,0
852,3110001037746,新規,0,2023-08-09,2023-08-09,ｂａｎｋｅｎ株式会社,,株式会社,新潟県,新潟市江南区,丸潟新田４３０番地１,,15,104,9501132,,,,,,,2023-08-09,1,,,,,バンケン,0
865,3120001257070,新規,0,2023-08-09,2023-08-09,ジェイ・アイ・ソーシング株式会社,,株式会社,大阪府,大阪市中央区,安土町１丁目４番５号本町ビル３階３Ｆ０６号,,27,128,5410052,,,,,,,2023-08-09,1,,,,,ジェイアイソーシング,0
866,3120001257186,新規,0,2023-08-09,2023-08-09,株式会社ｐｌｕｍｅ,,株式会社,大阪府,大阪市平野区,喜連４丁目１３番１１号２Ｆ,,27,126,5470027,,,,,,,2023-08-09,1,,,,,プリューム,0
869,3120005023808,新規,0,2023-08-09,2023-08-09,一般財団法人Ｉｎｎｏｖａｔｉｏｎ　ｏｆ　ＦＵＪＩ,,その他の設立登記法人,大阪府,大阪市淀川区,宮原４丁目１番９号,,27,123,5320003,,,,,,,2023-08-09,1,,,,,イノベーションオブフジ,0
872,3120101068021,新規,0,2023-08-09,2023-08-09,株式会社美楽来,,株式会社,大阪府,貝塚市,澤３５８番地１０,,27,208,5970062,,,,,,,2023-08-09,1,,,,,ミラクルン,0
873,3120101068054,新規,0,2023-08-09,2023-08-09,株式会社ＤＥＦＥＮＤＥＲ,,株式会社,大阪府,松原市,北新町５丁目５８番地の１－３０８号,,27,217,5800025,,,,,,,2023-08-09,1,,,,,ディフェンダー,0
876,3120103005328,新規,0,2023-08-09,2023-08-09,合同会社ＩＷＡＯ,,合同会社,大阪府,堺市南区,茶山台２丁３－７－１０５,,27,145,5900115,,,,,,,2023-08-09,1,,,,,イワオ,0
877,3120103005369,新規,0,2023-08-09,2023-08-09,合同会社いまる,,合同会社,大阪府,貝塚市,中町２番２４号,,27,208,5970003,,,,,,,2023-08-09,1,,,,,イマル,0
878,3120901047918,新規,0,2023-08-09,2023-08-09,ヴィタリテ株式会社,,株式会社,大阪府,吹田市,出口町２６番２４－９０６号,,27,205,5640072,,,,,,,2023-08-09,1,,,,,ヴィタリテ,0
879,3120901047934,新規,0,2023-08-09,2023-08-09,株式会社ＷＩＮＴＡＧＥ,,株式会社,大阪府,吹田市,垂水町３丁目１３－３,,27,205,5640062,,,,,,,2023-08-09,1,,,,,ウィンテージ,0
882,3120903004776,新規,0,2023-08-09,2023-08-09,合同会社ヒノカムヒ,,合同会社,大阪府,豊中市,東豊中町６丁目６番５－４１２号,,27,203,5600003,,,,,,,2023-08-09,1,,,,,ヒノカムヒ,0
883,3122001037246,新規,0,2023-08-09,2023-08-09,株式会社ＡｃｃｅｌａＬｉｎｋ,,株式会社,大阪府,八尾市,山本町南５丁目１１番４３号,,27,212,5810013,,,,,,,2023-08-09,1,,,,,アクセラリンク,0
887,3130001074944,新規,0,2023-08-09,2023-08-09,株式会社エスティエヌ,,株式会社,京都府,京都市下京区,綾小路通高倉西入高材木町２２７番地３,,26,106,6008082,,,,,,,2023-08-09,1,,,,,エスティエヌ,0
892,3140001131232,新規,0,2023-08-09,2023-08-09,株式会社ＲＹＳＭＯ,,株式会社,兵庫県,加古川市,平岡町土山１２６番地の３,,28,210,6750104,,,,,,,2023-08-09,1,,,,,リスモ,0
896,3140003019392,新規,0,2023-08-09,2023-08-09,大友産業合同会社,,合同会社,兵庫県,神戸市東灘区,本山中町１丁目１２番１９号,,28,101,6580016,,,,,,,2023-08-09,1,,,,,オオトモサンギョウ,0
897,3150001026613,新規,0,2023-08-09,2023-08-09,ＬｉＢ株式会社,,株式会社,奈良県,橿原市,鳥屋町２９番５号,,29,205,6340822,,,,,,,2023-08-09,1,,,,,リブ,0
900,3150003003024,新規,0,2023-08-09,2023-08-09,Ｅｎｓ合同会社,,合同会社,奈良県,奈良市,疋田町３丁目２番３７号,,29,201,6310843,,,,,,,2023-08-09,1,,,,,エンズ,0
903,3180001157455,新規,0,2023-08-09,2023-08-09,株式会社ＮＥＸＴ,,株式会社,愛知県,名古屋市南区,東又兵ヱ町３丁目７番地の２１,,23,112,4570833,,,,,,,2023-08-09,1,,,,,ネクスト,0
904,3180001157496,新規,0,2023-08-09,2023-08-09,株式会社Ｎ‐ＨＯＰＥ,,株式会社,愛知県,名古屋市守山区,泉が丘１０５番地,,23,113,4630804,,,,,,,2023-08-09,1,,,,,エヌホープ,0
905,3180001157513,新規,0,2023-08-09,2023-08-09,株式会社Ｃｒｅａｔｅ,,株式会社,愛知県,名古屋市中区,栄４丁目１６番１５号,,23,106,4600008,,,,,,,2023-08-09,1,,,,,クリエイト,0
906,3180001157521,新規,0,2023-08-09,2023-08-09,株式会社Ａｒｘ,,株式会社,愛知県,名古屋市中区,大須３丁目２６番４１号堀田ビル１Ｆ,,23,106,4600011,,,,,,,2023-08-09,1,,,,,アークス,0
907,3180001157546,新規,0,2023-08-09,2023-08-09,ウィレイズ株式会社,,株式会社,愛知県,名古屋市港区,七反野２丁目１４０７ＢＴハウスＩＩＩ　１０１,00131461,23,111,4550884,,,,,,,2023-08-09,1,,,,,ウィレイズ,0
908,3180001157570,新規,0,2023-08-09,2023-08-09,株式会社ＪＩＮＤＥＮＫＯ,,株式会社,愛知県,稲沢市,治郎丸北町２２番地,,23,220,4928118,,,,,,,2023-08-09,1,,,,,ジンデンコー,0
911,3180003025585,新規,0,2023-08-09,2023-08-09,シン・７５８合同会社,,合同会社,愛知県,名古屋市中区,大須１丁目７番２６号,,23,106,4600011,,,,,,,2023-08-09,1,,,,,シンナゴヤ,0
912,3180003025610,新規,0,2023-08-09,2023-08-09,エムエルテック合同会社,,合同会社,愛知県,大府市,東新町６丁目３９８番地アカンサス１０３号,,23,223,4740073,,,,,,,2023-08-09,1,,,,,エムエルテック,0
919,3180303005799,新規,0,2023-08-09,2023-08-09,Ｒｏｄｏａｓｔｒｕｍ合同会社,,合同会社,愛知県,岡崎市,下青野町字奥屋敷４５－４,,23,202,4440244,,,,,,,2023-08-09,1,,,,,ロドアストルム,0
920,3190005011855,新規,0,2023-08-09,2023-08-09,一般社団法人三重総合福祉協会,,その他の設立登記法人,三重県,鈴鹿市,北江島町３０番１６号,,24,207,5100232,,,,,,,2023-08-09,1,,,,,ミエソウゴウフクシキョウカイ,0
924,3200001041581,新規,0,2023-08-09,2023-08-09,株式会社グランファーレ,,株式会社,岐阜県,多治見市,金岡町１丁目５番地,,21,204,5070016,,,,,,,2023-08-09,1,,,,,グランファーレ,0
925,3210005010103,新規,0,2023-08-09,2023-08-09,一般社団法人鯖江市一般廃棄物協会,,その他の設立登記法人,福井県,鯖江市,上鯖江１丁目１０番４３号,,18,207,9160055,,,,,,,2023-08-09,1,,,,,サバエシイッパンハイキブツキョウカイ,0
926,3230001019963,新規,0,2023-08-09,2023-08-09,中和国際株式会社,,株式会社,富山県,富山市,婦中町田島８７４番地１,,16,201,9392702,,,,,,,2023-08-09,1,,,,,チュウワコクサイ,0
929,3240001061948,新規,0,2023-08-09,2023-08-09,株式会社ｙｏｕｒｆａｒｍ,,株式会社,広島県,安芸高田市,八千代町向山４７番,,34,214,7310306,,,,,,,2023-08-09,1,,,,,ユアファーム,0
930,3240001061956,新規,0,2023-08-09,2023-08-09,株式会社Ｙ・Ｈ・Ｋ,,株式会社,広島県,三原市,宮浦５丁目４番１２号,,34,204,7230051,,,,,,,2023-08-09,1,,,,,ワイエイチケー,0
931,3240001061972,新規,0,2023-08-09,2023-08-09,ゴーディアンアセット株式会社,,株式会社,広島県,広島市南区,向洋本町２番１３号,,34,103,7340062,,,,,,,2023-08-09,1,,,,,ゴーディアンアセット,0
933,3250001020218,新規,0,2023-08-09,2023-08-09,株式会社ｇｌａｄ,,株式会社,山口県,岩国市,今津町１丁目７番１６号,,35,208,7400017,,,,,,,2023-08-09,1,,,,,グラッド,0
935,3260001038192,新規,0,2023-08-09,2023-08-09,セカンドデッサン株式会社,,株式会社,岡山県,岡山市南区,洲崎２丁目３番９－１号,,33,104,7028042,,,,,,,2023-08-09,1,,,,,セカンドデッサン,0
939,3280001009010,新規,0,2023-08-09,2023-08-09,株式会社Ｎａｃｃｙ,,株式会社,島根県,松江市,八束町波入１２６０番地２,,32,201,6901404,,,,,,,2023-08-09,1,,,,,ナッシー,0
943,3290001102516,新規,0,2023-08-09,2023-08-09,ライフイノベーション株式会社,,株式会社,福岡県,福岡市博多区,堅粕４丁目２４番１１－３号博多なでしこ町家,,40,132,8120043,,,,,,,2023-08-09,1,,,,,ライフイノベーション,0
944,3290001102581,新規,0,2023-08-09,2023-08-09,株式会社まねきねこの手,,株式会社,福岡県,福岡市中央区,天神４丁目６番２８号天神ファーストビル７階,,40,133,8100001,,,,,,,2023-08-09,1,,,,,マネキネコノテ,0
945,3290003014214,新規,0,2023-08-09,2023-08-09,合同会社Ｃｈｅｒｉｓｈ,,合同会社,福岡県,福岡市中央区,赤坂１丁目８－２３,,40,133,8100042,,,,,,,2023-08-09,1,,,,,チェリッシュ,0
947,3290801029768,新規,0,2023-08-09,2023-08-09,株式会社ＭＡＮＡ,,株式会社,福岡県,行橋市,泉中央６丁目８番１９号,,40,213,8240034,,,,,,,2023-08-09,1,,,,,マナ,0
948,3290801029776,新規,0,2023-08-09,2023-08-09,煌貴工業株式会社,,株式会社,福岡県,田川市,大字夏吉１４３１番地４,,40,206,8250004,,,,,,,2023-08-09,1,,,,,コウキコウギョウ,0
949,3290801029784,新規,0,2023-08-09,2023-08-09,株式会社オール日本ポート,,株式会社,福岡県,北九州市小倉北区,南丘１丁目７番１４号,,40,106,8030863,,,,,,,2023-08-09,1,,,,,オールニッポンポート,0
950,3300003002010,新規,0,2023-08-09,2023-08-09,ＩＮＦＩＮＩＴＹ　ＷＩＮＧＳ合同会社,,合同会社,佐賀県,鳥栖市,下野町１４０９番地５,,41,203,8410063,,,,,,,2023-08-09,1,,,,,インフィニティウィング,0
953,3320003004145,新規,0,2023-08-09,2023-08-09,合同会社ウェルズ,,合同会社,大分県,大分市,東津留１丁目１１番２０号,,44,201,8700934,,,,,,,2023-08-09,1,,,,,ウェルズ,0
958,3360001032367,新規,0,2023-08-09,2023-08-09,株式会社琉善,,株式会社,沖縄県,中頭郡中城村,字南上原１２番地１ブラマソーレ２０２号,,47,328,9012424,,,,,,,2023-08-09,1,,,,,リュウゼン,0
959,3360001032400,新規,0,2023-08-09,2023-08-09,株式会社アビッド,,株式会社,沖縄県,島尻郡南風原町,字津嘉山１４０９番地１７－１階,,47,350,9011117,,,,,,,2023-08-09,1,,,,,アビッド,0
961,3360003013191,新規,0,2023-08-09,2023-08-09,合同会社ビクハピ,,合同会社,沖縄県,那覇市,壺屋２丁目１６番１号,,47,201,9020065,,,,,,,2023-08-09,1,,,,,ビクハピ,0
963,3370001050269,新規,0,2023-08-09,2023-08-09,株式会社ディーアール・ジャパン,,株式会社,宮城県,仙台市泉区,鶴が丘１丁目４４番地の２６,,04,105,9813109,,,,,,,2023-08-09,1,,,,,ディーアールジャパン,0
964,3370001050277,新規,0,2023-08-09,2023-08-09,オールビー株式会社,,株式会社,宮城県,仙台市太白区,茂庭字人来田東４０,,04,104,9820251,,,,,,,2023-08-09,1,,,,,オールビー,0
966,3380001033909,新規,0,2023-08-09,2023-08-09,株式会社商工会津,,株式会社,福島県,会津若松市,神指町東城戸８１番地,,07,202,9650089,,,,,,,2023-08-09,1,,,,,ショウコウアイヅ,0
970,3400003003130,新規,0,2023-08-09,2023-08-09,アイスカイ不動産合同会社,,合同会社,岩手県,盛岡市,本町通３丁目４番１３号,,03,201,0200015,,,,,,,2023-08-09,1,,,,,アイスカイフドウサン,0
971,3410001013568,新規,0,2023-08-09,2023-08-09,泉建装株式会社,,株式会社,秋田県,横手市,山内土渕字軽井沢５１番地６２,,05,203,0191108,,,,,,,2023-08-09,1,,,,,イズミケンソウ,0
973,3410003003831,新規,0,2023-08-09,2023-08-09,合同会社ｊｏｙ,,合同会社,秋田県,湯沢市,稲庭町字南ケ沢１０９番地６,,05,207,0120107,,,,,,,2023-08-09,1,,,,,ジョイ,0
985,3430003015313,新規,0,2023-08-09,2023-08-09,合同会社やさみカンパニー,,合同会社,北海道,滝川市,江部乙町東１０丁目１１－２０,,01,225,0790463,,,,,,,2023-08-09,1,,,,,ヤサミカンパニー,0
986,3450001014075,新規,0,2023-08-09,2023-08-09,Ｌｉｆｅ　ＳＩＧＮ株式会社,,株式会社,北海道,旭川市,東光十六条３丁目３番３号,,01,204,0788356,,,,,,,2023-08-09,1,,,,,ライフサイン,0
987,3450003002375,新規,0,2023-08-09,2023-08-09,合同会社軽運送サービス,,合同会社,北海道,旭川市,永山一条８丁目１番６号,,01,204,0798411,,,,,,,2023-08-09,1,,,,,ケイウンソウサービス,0
996,3490001010558,新規,0,2023-08-09,2023-08-09,株式会社エイフク社,,株式会社,高知県,高知市,神田２３５２番地,,39,201,7808040,,,,,,,2023-08-09,1,,,,,エイフクシャ,0
998,3500001025083,新規,0,2023-08-09,2023-08-09,伸光興産株式会社,,株式会社,愛媛県,今治市,古国分２丁目３番１０号,,38,202,7991521,,,,,,,2023-08-09,1,,,,,シンコウコウサン,0
1000,3700150118898,新規,0,2023-08-09,2023-08-09,Ｘｉａｍｅｎ　Ｂｅｎｎｉｊｉｅ　Ｍａｏ　Ｙｉ　Ｙｏｕ　Ｘｉａｎ　Ｇｏｎｇ　Ｓｉ,,外国会社等,,,,,,,,ｓｉｍｉｎｇｑｕ　ｌｕｌｉｎｇｌｕ　２２８ｈａｏ　ｚｈｉｓｉ　２０２ｓｈｉ　ｘｉａｍｅｎｓｈｉ　ｆｕｊｉａｎｓｈｅｎｇ,,,,,,2023-08-09,1,,,,,シャメンベンニジエマオイユウゲンコウシ,0
1001,3700150118907,新規,0,2023-08-09,2023-08-09,ｓｈｅｎｚｈｅｎｓｈｉ　ｃａｉｌｉｎｐｉｊｕ　ｙｏｕｘｉａｎｇｏｎｇｓｉ,,外国会社等,,,,,,,,ｌｏｎｇｇａｎｇｑｕｌｏｎｇｃｈｅｎｇｊｉｅｄａｏ　ｓｈｅｎｇｐｉｎｇｓｈａｄｉｃｕｎ　ｙｉｇａｎｇ　４　ｈａｏ　ｓｈｅｎｚｈｅｎｓｈｉ　ｇｕａｎｇｄｏｎｇｓｈｅｎｇ　ＣＮ,,,,,,2023-08-09,1,,,,,シンセンシチャイリンピジュユウゲンコウシ,0
1002,3700150118915,新規,0,2023-08-09,2023-08-09,Ｓｈｅｎｚｈｅｎ　Ｆａｓｔ　ｓａｌｅｓ　ｅｃｏｍｍｅｒｃｅ　Ｃｏ．，Ｌｔｄ．,,外国会社等,,,,,,,,４０２，Ｂｕｉｌｄｉｎｇ　９，Ｌｏｎｇｊｕｎ　Ｉｎｄｕｓｔｒｉａｌ　Ｚｏｎｅ，Ｌｏｎｇｐｉｎｇ　Ｃｏｍｍｕｎｉｔｙ　Ｄａｌａｎｇ　Ｓｔｒｅｅｔ，Ｌｏｎｇｈｕａ　Ｄｉｓｔｒｉｃｔ　Ｓｈｅｎｚｈｅｎ　Ｇｕａｎｇｄｏｎｇ　５１８１０９　ＣＮ,,,,,,2023-08-09,1,,,,,シェンジェンシークワイシャオディエンズーシャンウーヨウシエンゴンスー,0
1003,3700150118923,新規,0,2023-08-09,2023-08-09,Ｇｕａｎｇｚｈｏｕ　Ｙｉｂｉｃｈｅｎｇ　Ｅｌｅｃｔｒｏｎｉｃｓ　Ｃｏ．，Ｌｔｄ．,,外国会社等,,,,,,,,１０９，Ｂｕｉｌｄｉｎｇ　Ｂ，Ｎｏ．５１　Ｃｏｎｇｙｕｎ　Ｒｏａｄ，Ｈｕａｎｇｓｈｉ　Ｓｔｒｅｅｔ，Ｂａｉｙｕ　ｇｕａｎｇ　ｚｈｏｕ　ｇｕａｎｇ　ｄｏｎｇ　５１００００　ＣＮ,,,,,,2023-08-09,1,,,,,グゥアンゾォウイビチェンイレクトゥロニクスカンパニーリミテッド,0
1004,3700150118931,新規,0,2023-08-09,2023-08-09,ＧｕａｎｇＺｈｏｕＤｕｏＱｕＤｉａｎＺｉＳｈａｎｇＷｕＹｏｕＸｉａｎＧｏｎｇＳｉ,,外国会社等,,,,,,,,ＬｉＷａｎＱｕ　ＦｅｎｇＹｕａｎＬｕ　１２８－１ｈａｏ　３ｃｅｎｇ　ＺｉＢｉａｎ３０５　ＧｕａｎｇＺｈｏｕ　ＧｕａｎｇＤｏｎｇ　５１０１４０　ＣＮ,,,,,,2023-08-09,1,,,,,グァンジョウドゥオチュイディエンズーシャンウヨウシェンゴンスー,0
1005,3700150118948,新規,0,2023-08-09,2023-08-09,ｈｕｂｅｉ　ｌｏｎｇｋａｉ　ｄｉａｎｌｉｆａｚｈａｎ　ｙｏｕｘｉａｎｇｏｎｇｓｉ,,外国会社等,,,,,,,,ｗｕｈａｎｄｏｎｇｈｕｘｉｎｊｉｓｈｕｋａｉｆａｑｕｒｕａｎｊｉａｎｙｕａｎｄｏｎｇｌｕ１ｈａｏｒｕａｎｊｉａｎｃｈａｎｙｅ４．１ｑｉＡ１ｄｏｎｇ１２ｃｅｎｇ１２ｈａｏ,,,,,,2023-08-09,1,,,,,コホクロンカイデンリファザンユウゲンコウシ,0
1006,3700150118956,新規,0,2023-08-09,2023-08-09,ＤＲＥＡＭＢＯＸ　ＬＩＭＩＴＥＤ,,外国会社等,,,,,,,,１０／Ｆ　ＴＨＥ　ＷＡＶＥ　４　ＨＩＮＧ　ＹＩＰ　ＳＴＲＥＥＴ　ＫＷＵＮ　ＴＯＮＧ　ＫＯＷＬＯＯＮ　ＨＯＮＧ　ＫＯＮＧ　,,,,,,2023-08-09,1,,,,,ドリームボックスリミティッド,0
1007,3700150118964,新規,0,2023-08-09,2023-08-09,寧波莫納漢進出口　有限公司,,外国会社等,,,,,,,,中国浙江省寧波市江北区長興路６８９弄２１号１０幢１１２室托管３２３４,,,,,,2023-08-09,1,,,,,ネイハバクノウカンシンシユツコウユウゲンコウシ,0
1016,4010001237421,新規,0,2023-08-09,2023-08-09,日本純浄科学研究所株式会社,,株式会社,東京都,中央区,東日本橋２丁目１６番１０－５０３号,,13,102,1030004,,,,,,,2023-08-09,1,,,,,ニホンジュンセイカガクケンキュウジョ,0
1017,4010001237462,新規,0,2023-08-09,2023-08-09,株式会社ＳＰホールディングス,,株式会社,東京都,千代田区,丸の内３丁目４番１号新国際ビル６階,,13,101,1000005,,,,,,,2023-08-09,1,,,,,エスピーホールディングス,0
1018,4010001237495,新規,0,2023-08-09,2023-08-09,株式会社ＹＭインフォシステム,,株式会社,東京都,千代田区,神田和泉町１番地６－１６ヤマトビル４０５,,13,101,1010024,,,,,,,2023-08-09,1,,,,,ワイエムインフォシステム,0
1019,4010001237504,新規,0,2023-08-09,2023-08-09,Ｅｓｓｅｎｔｉａｌ　ｖｏｉｃｅ株式会社,,株式会社,東京都,千代田区,丸の内１丁目８番３号丸の内トラストタワー本館２０Ｆ,,13,101,1000005,,,,,,,2023-08-09,1,,,,,エッセンシャルヴォイス,0
1020,4010001237512,新規,0,2023-08-09,2023-08-09,株式会社ＧＲＡＩＮ　ＨＩＬＬ,,株式会社,東京都,中央区,新川２丁目６番６－６０２号,,13,102,1040033,,,,,,,2023-08-09,1,,,,,グレインヒル,0
1021,4010001237520,新規,0,2023-08-09,2023-08-09,株式会社小石川ビレッジ,,株式会社,東京都,文京区,大塚３丁目３３番５号,00131457,13,105,1120012,,,,,,,2023-08-09,1,,,,,コイシカワビレッジ,0
1022,4010001237529,新規,0,2023-08-09,2023-08-09,東日機電株式会社,,株式会社,東京都,千代田区,飯田橋２丁目１１番１０号総合経営ビル３０２号室,,13,101,1020072,,,,,,,2023-08-09,1,,,,,トウニチキデン,0
1023,4010001237537,新規,0,2023-08-09,2023-08-09,株式会社あおはる,,株式会社,東京都,千代田区,外神田６丁目３番８号ＡＣＮ秋葉原ビル８Ｆ,,13,101,1010021,,,,,,,2023-08-09,1,,,,,アオハル,0
1024,4010001237545,新規,0,2023-08-09,2023-08-09,株式会社ソロンイノベーション,,株式会社,東京都,中央区,日本橋室町１丁目１１番１２号日本橋水野ビル７階,,13,102,1030022,,,,,,,2023-08-09,1,,,,,ソロンイノベーション,0
1025,4010001237553,新規,0,2023-08-09,2023-08-09,株式会社ｔｓｕｋｕｒｕ,,株式会社,東京都,中央区,日本橋堀留町１丁目１０番１号カクタビル２階,,13,102,1030012,,,,,,,2023-08-09,1,,,,,ツクル,0
1026,4010001237594,新規,0,2023-08-09,2023-08-09,株式会社８８８８,,株式会社,東京都,中央区,銀座４丁目１４番７号ファミールグラン銀座１１０２,,13,102,1040061,,,,,,,2023-08-09,1,,,,,クアトロエイト,0
1032,4010003041284,新規,0,2023-08-09,2023-08-09,合同会社大有管理,,合同会社,東京都,千代田区,鍛冶町１丁目３番１号ＶＯＲＴ神田８階,,13,101,1010044,,,,,,,2023-08-09,1,,,,,ダイユウカンリ,0
1034,4010005037074,新規,0,2023-08-09,2023-08-09,名駅プロパティー特定目的会社,,その他の設立登記法人,東京都,千代田区,丸の内１丁目１１番１号,,13,101,1000005,,,,,,,2023-08-09,1,,,,,メイエキプロパティー,0
1035,4010005037082,新規,0,2023-08-09,2023-08-09,ＷＬＪＭＦ１特定目的会社,,その他の設立登記法人,東京都,千代田区,丸の内３丁目１番１号東京共同会計事務所内,,13,101,1000005,,,,,,,2023-08-09,1,,,,,ダブリューエルジェイエムエフワン,0
1036,4010105002226,新規,0,2023-08-09,2023-08-09,一般社団法人異世界の学校,,その他の設立登記法人,東京都,八王子市,明神町４丁目７番１５号落合ビル,,13,201,1920046,,,,,,,2023-08-09,1,,,,,イセカイノガッコウ,0
1043,4010403030655,新規,0,2023-08-09,2023-08-09,合同会社藍,,合同会社,東京都,港区,高輪１丁目１５番２－２０５号,,13,103,1080074,,,,,,,2023-08-09,1,,,,,アイ,0
1044,4010405022386,新規,0,2023-08-09,2023-08-09,特定目的会社ＮＳＳＫ‐ＢＥＴＡ,,その他の設立登記法人,東京都,港区,愛宕２丁目５番１号愛宕グリーンヒルズＭＯＲＩタワー,,13,103,1050002,,,,,,,2023-08-09,1,,,,,エヌエスエスケーベータ,0
1046,4010501050844,新規,0,2023-08-09,2023-08-09,株式会社モーニンググローリー,,株式会社,東京都,台東区,東上野５丁目１８番１号,,13,106,1100015,,,,,,,2023-08-09,1,,,,,モーニンググローリー,0
1047,4010501050860,新規,0,2023-08-09,2023-08-09,株式会社ＣＵＲＡＳＨＩ,,株式会社,東京都,台東区,上野２丁目１番９号,,13,106,1100005,,,,,,,2023-08-09,1,,,,,クラシ,0
1050,4010603010291,新規,0,2023-08-09,2023-08-09,合同会社Ｌｉｔ,,合同会社,東京都,墨田区,千歳３丁目１７番１９－３階,,13,107,1300025,,,,,,,2023-08-09,1,,,,,リット,0
1053,4010801034233,新規,0,2023-08-09,2023-08-09,株式会社伊平,,株式会社,東京都,大田区,池上３丁目３８番９－２０２号,,13,111,1460082,,,,,,,2023-08-09,1,,,,,イヘイ,0
1054,4010901053579,新規,0,2023-08-09,2023-08-09,株式会社ＧＯＯＤ　ＣＯＭＭＵＮＩＣＡＴＩＯＮ　ＣＯＭＰＡＮＹ,,株式会社,東京都,世田谷区,池尻４丁目２番２０号グランドメゾン池尻６０１,,13,112,1540001,,,,,,,2023-08-09,1,,,,,グッドコミュニケーションカンパニー,0
1055,4010901053595,新規,0,2023-08-09,2023-08-09,株式会社エイトリィズ,,株式会社,東京都,世田谷区,砧４丁目２０番４号,,13,112,1570073,,,,,,,2023-08-09,1,,,,,エイトリィズ,0
1057,4010903008366,新規,0,2023-08-09,2023-08-09,スモールカラー合同会社,,合同会社,東京都,世田谷区,奥沢５丁目１番１１号メゾンドジョワ２０２,,13,112,1580083,,,,,,,2023-08-09,1,,,,,スモールカラー,0
1058,4010905004512,新規,0,2023-08-09,2023-08-09,特定非営利活動法人三色むすび,,その他の設立登記法人,東京都,世田谷区,梅丘１丁目６番５号,,13,112,1540022,,,,,,,2023-08-09,1,,,,,サンショクムスビ,0
1061,4011001156157,新規,0,2023-08-09,2023-08-09,株式会社ＰＥＲＩ．,,株式会社,東京都,目黒区,東山２丁目１番１５号コスモ目黒東山２０１,,13,110,1530043,,,,,,,2023-08-09,1,,,,,ペリドット,0
1062,4011001156165,新規,0,2023-08-09,2023-08-09,ａｎｄＵｗｉｌｌｓ株式会社,,株式会社,東京都,渋谷区,恵比寿南１丁目１番１号ヒューマックス恵比寿ビル７階,,13,113,1500022,,,,,,,2023-08-09,1,,,,,アンドユーウィルズ,0
1063,4011001156198,新規,0,2023-08-09,2023-08-09,ｆｏｒ　ｈｅｒ．株式会社,,株式会社,東京都,渋谷区,恵比寿南３丁目１番１号いちご恵比寿グリーングラス４階,,13,113,1500022,,,,,,,2023-08-09,1,,,,,フォーハー,0
1064,4011001156207,新規,0,2023-08-09,2023-08-09,株式会社パフリング,,株式会社,東京都,渋谷区,神宮前６丁目２３番４号桑野ビル２Ｆ,,13,113,1500001,,,,,,,2023-08-09,1,,,,,パフリング,0
1065,4011001156215,新規,0,2023-08-09,2023-08-09,株式会社ＷＩＮメディテーションジャパン,,株式会社,東京都,渋谷区,代官山町８番７号ＤＡＩＷＡ代官山ビル,,13,113,1500034,,,,,,,2023-08-09,1,,,,,ウィンメディテーションジャパン,0
1066,4011001156289,新規,0,2023-08-09,2023-08-09,株式会社ＬＩＳＰＯ,,株式会社,東京都,渋谷区,道玄坂２丁目９番１０号,,13,113,1500043,,,,,,,2023-08-09,1,,,,,リスポ,0
1068,4011003017340,新規,0,2023-08-09,2023-08-09,合同会社ＮＯＷＨＥＲＥ,,合同会社,東京都,目黒区,洗足１丁目１４番１号,,13,110,1520012,,,,,,,2023-08-09,1,,,,,ノーウェア,0
1078,4011201024824,新規,0,2023-08-09,2023-08-09,株式会社Ｂｅ‐Ｆｕｎ,,株式会社,東京都,中野区,南台２丁目３－６ＣＡＳＡ・ＣＯＭＰＬＥＳＳＯ・００１,,13,114,1640014,,,,,,,2023-08-09,1,,,,,ビーファン,0
1083,4011401025358,新規,0,2023-08-09,2023-08-09,北正運輸株式会社,,株式会社,東京都,板橋区,徳丸４丁目２５－２０－２１５,,13,119,1750083,,,,,,,2023-08-09,1,,,,,ホクセイウンユ,0
1091,4011601027030,新規,0,2023-08-09,2023-08-09,Ｏｌｉｖｅｓ株式会社,,株式会社,東京都,練馬区,東大泉４丁目３－５Ｆｏｒｔｕｎｅ０９－４Ｆ,,13,120,1780063,,,,,,,2023-08-09,1,,,,,オリーヴズ,0
1092,4011601027039,新規,0,2023-08-09,2023-08-09,株式会社サイクルマップ,,株式会社,東京都,練馬区,練馬１丁目２０番８号日建練馬ビル２Ｆ,,13,120,1760001,,,,,,,2023-08-09,1,,,,,サイクルマップ,0
1095,4011801042845,新規,0,2023-08-09,2023-08-09,株式会社寺田建設,,株式会社,東京都,足立区,関原２丁目４番１号,,13,121,1230852,,,,,,,2023-08-09,1,,,,,テラダケンセツ,0
1096,4011801042853,新規,0,2023-08-09,2023-08-09,其田株式会社,,株式会社,東京都,足立区,興野２丁目３１番２４号,,13,121,1230844,,,,,,,2023-08-09,1,,,,,キダ,0
1097,4011801042861,新規,0,2023-08-09,2023-08-09,株式会社Ａｒｔｅｍｉｓ,,株式会社,東京都,葛飾区,新小岩１丁目４９番３号,,13,122,1240024,,,,,,,2023-08-09,1,,,,,アルテミス,0
1102,4012401040826,新規,0,2023-08-09,2023-08-09,株式会社よくなる,,株式会社,東京都,調布市,深大寺東町２丁目５番地２,,13,208,1820012,,,,,,,2023-08-09,1,,,,,ヨクナル,0
1103,4012401040834,新規,0,2023-08-09,2023-08-09,株式会社侃ＳＴＵＤＩＯ,,株式会社,東京都,武蔵野市,吉祥寺本町１丁目１８番１２号Ｂｌａｎｃｈｅ１８・７階,,13,203,1800004,,,,,,,2023-08-09,1,,,,,カンスタジオ,0
1104,4012401040850,新規,0,2023-08-09,2023-08-09,株式会社ＴＮＫコンサルティング,,株式会社,東京都,小金井市,中町４丁目６番２号,,13,210,1840012,,,,,,,2023-08-09,1,,,,,ティーエヌケーコンサルティング,0
1108,4012801022556,新規,0,2023-08-09,2023-08-09,アンプルール株式会社,,株式会社,東京都,立川市,柴崎町２丁目２番２３号,,13,202,1900023,,,,,,,2023-08-09,1,,,,,アンプルール,0
1112,4013301051161,新規,0,2023-08-09,2023-08-09,株式会社ｚａｋｕｒｏ,,株式会社,東京都,豊島区,東池袋４丁目２９番６号三角ビル３Ｆ,,13,116,1700013,,,,,,,2023-08-09,1,,,,,ザクロ,0
1114,4013303006741,新規,0,2023-08-09,2023-08-09,佳鵬商事合同会社,,合同会社,東京都,豊島区,西巣鴨１丁目２４－７－１０２号室,,13,116,1700001,,,,,,,2023-08-09,1,,,,,,0
1117,4020001065342,新規,0,2023-08-09,2023-08-09,株式会社多摩植物園,,株式会社,神奈川県,川崎市麻生区,岡上６５６番地,,14,137,2150027,,,,,,,2023-08-09,1,,,,,タマショクブツエン,0
1121,4020003024354,新規,0,2023-08-09,2023-08-09,神奈川県民間救急福祉サポート合同会社,,合同会社,神奈川県,横浜市瀬谷区,瀬谷町５８１２番地細谷戸ハイツ４街区２棟４０４号,,14,114,2460003,,,,,,,2023-08-09,1,,,,,カナガワケンミンカンキュウキュウフクシサポート,0
1126,4021001079737,新規,0,2023-08-09,2023-08-09,株式会社Ｇ‐Ｄａｓｈ,,株式会社,神奈川県,茅ヶ崎市,松が丘１丁目１番９０号,,14,207,2530025,,,,,,,2023-08-09,1,,,,,ジーダッシュ,0
1127,4021001079844,新規,0,2023-08-09,2023-08-09,株式会社マーケター,,株式会社,神奈川県,中郡二宮町,中里２丁目１９－２３,,14,342,2590131,,,,,,,2023-08-09,1,,,,,マーケター,0
1129,4021003013405,新規,0,2023-08-09,2023-08-09,合同会社ＢＬＯＯＰ,,合同会社,神奈川県,藤沢市,川名１丁目１１－４２,,14,205,2510015,,,,,,,2023-08-09,1,,,,,ブループ,0
1130,4021005012875,新規,0,2023-08-09,2023-08-09,一般社団法人ワンストップ・シニアサポート協会,,その他の設立登記法人,神奈川県,足柄上郡松田町,松田庶子１４３２番地１３,,14,363,2580004,,,,,,,2023-08-09,1,,,,,ワンストップシニアサポートキョウカイ,0
1132,4030001155118,新規,0,2023-08-09,2023-08-09,株式会社ａｒｒｏｓｅｒ,,株式会社,埼玉県,川口市,栄町３丁目４番４－５０５号,,11,203,3320017,,,,,,,2023-08-09,1,,,,,アロゼ,0
1133,4030001155332,新規,0,2023-08-09,2023-08-09,パイルケミカル株式会社,,株式会社,埼玉県,久喜市,中里１４１７,,11,232,3491112,,,,,,,2023-08-09,1,,,,,パイルケミカル,0
1138,4030003022217,新規,0,2023-08-09,2023-08-09,合同会社大澤工業,,合同会社,埼玉県,秩父市,中宮地町１７番３号,,11,207,3680022,,,,,,,2023-08-09,1,,,,,オオサワコウギョウ,0
1143,4040001129558,新規,0,2023-08-09,2023-08-09,ＦＣＴ株式会社,,株式会社,千葉県,鎌ケ谷市,鎌ケ谷３丁目４番２３号（クレスト鎌ケ谷２０２）,,12,224,2730105,,,,,,,2023-08-09,1,,,,,ファクト,0
1144,4040001129582,新規,0,2023-08-09,2023-08-09,株式会社ヒノデコーポレーション,,株式会社,千葉県,船橋市,夏見台３丁目４番１５号,,12,204,2730866,,,,,,,2023-08-09,1,,,,,ヒノデコーポレーション,0
1145,4040001129599,新規,0,2023-08-09,2023-08-09,ウィルメント株式会社,,株式会社,千葉県,流山市,長崎１丁目４４番地の２７,,12,220,2700134,,,,,,,2023-08-09,1,,,,,ウィルメント,0
1146,4040001129608,新規,0,2023-08-09,2023-08-09,株式会社みやび,,株式会社,千葉県,佐倉市,表町１丁目１４番地７,,12,212,2850811,,,,,,,2023-08-09,1,,,,,ミヤビ,0
1147,4040001129624,新規,0,2023-08-09,2023-08-09,Ｓｔａｒｔｕｐ　Ｃａｔａｌｙｓｔ株式会社,,株式会社,千葉県,松戸市,秋山１丁目１１番地の６ヴェレーナ松戸秋山駅前１１０３号,,12,207,2702223,,,,,,,2023-08-09,1,,,,,スタートアップカタリスト,0
1152,4040003023098,新規,0,2023-08-09,2023-08-09,合同会社ワイズ,,合同会社,千葉県,千葉市稲毛区,小仲台２丁目９－１０サクセスビル１Ｆ,,12,103,2630043,,,,,,,2023-08-09,1,,,,,ワイズ,0
1155,4050001053253,新規,0,2023-08-09,2023-08-09,株式会社ＡＬ‐ＫＨＡＬＩＱ　ＴＲＡＤＩＮＧ,,株式会社,茨城県,猿島郡五霞町,原宿台２丁目２－３－１０２,,08,542,3060306,,,,,,,2023-08-09,1,,,,,アルカリクトレーディング,0
1160,4060001036232,新規,0,2023-08-09,2023-08-09,株式会社ロビンソン,,株式会社,栃木県,小山市,大字高椅１１７番地,,09,208,3230154,,,,,,,2023-08-09,1,,,,,ロビンソン,0
1161,4060003004674,新規,0,2023-08-09,2023-08-09,合同会社ＪＮＣ,,合同会社,栃木県,さくら市,松山新田１９２番地１,,09,214,3291302,,,,,,,2023-08-09,1,,,,,ジェイエヌシー,0
1162,4070001040745,新規,0,2023-08-09,2023-08-09,フィールズ株式会社,,株式会社,群馬県,前橋市,下小出町２丁目９番２４曙ビル２階１号室,,10,201,3710031,,,,,,,2023-08-09,1,,,,,,0
1164,4080001025794,新規,0,2023-08-09,2023-08-09,株式会社大ちゃん,,株式会社,静岡県,静岡市清水区,折戸５３６番地の５,,22,103,4240902,,,,,,,2023-08-09,1,,,,,ダイチャン,0
1179,4110001037753,新規,0,2023-08-09,2023-08-09,株式会社ＢＥＮ,,株式会社,新潟県,十日町市,水口沢１５３,,15,210,9480144,,,,,,,2023-08-09,1,,,,,ビーイーエヌ,0
1196,4120001257128,新規,0,2023-08-09,2023-08-09,株式会社小嶋工業,,株式会社,大阪府,守口市,寺方本通３丁目５番１０号,,27,209,5700048,,,,,,,2023-08-09,1,,,,,コジマコウギョウ,0
1197,4120001257169,新規,0,2023-08-09,2023-08-09,ｓｕｎｆｌｏｗｅｒ株式会社,,株式会社,大阪府,大阪市浪速区,下寺２丁目４番１２号エスケイビル５０１号室,,27,111,5560001,,,,,,,2023-08-09,1,,,,,サンフラワー,0
1198,4120001257185,新規,0,2023-08-09,2023-08-09,株式会社Ｒ　Ｍａｎａｇｅｍｅｎｔ,,株式会社,大阪府,大阪市淀川区,西中島７丁目２番７号新大阪大西ビル７Ｆ,,27,123,5320011,,,,,,,2023-08-09,1,,,,,アールマネジメント,0
1199,4120001257210,新規,0,2023-08-09,2023-08-09,株式会社マッスル造園,,株式会社,大阪府,大阪市淀川区,西宮原３丁目２番１号,,27,123,5320004,,,,,,,2023-08-09,1,,,,,マッスルゾウエン,0
1206,4120003024625,新規,0,2023-08-09,2023-08-09,合同会社ＥＭＫ,,合同会社,大阪府,寝屋川市,御幸東町１７番１３号,,27,215,5720055,,,,,,,2023-08-09,1,,,,,イーエムケー,0
1208,4120005023798,新規,0,2023-08-09,2023-08-09,特定非営利活動法人パステル・ペッパー・マジック,,その他の設立登記法人,大阪府,枚方市,南中振２丁目７７番４号,,27,210,5730094,,,,,,,2023-08-09,1,,,,,パステルペッパーマジック,0
1209,4120005023807,新規,0,2023-08-09,2023-08-09,医療法人渋谷内科クリニック,,その他の設立登記法人,大阪府,大阪市西区,境川１丁目１番３１号境川メディカルセンター３階,,27,106,5500024,,,,,,,2023-08-09,1,,,,,シブヤナイカクリニック,0
1215,4120101067996,新規,0,2023-08-09,2023-08-09,株式会社Ｐ‐Ｓｔｕｄｉｏ,,株式会社,大阪府,阪南市,箱作２４１番地の５,,27,232,5990232,,,,,,,2023-08-09,1,,,,,ピースタジオ,0
1216,4120101068012,新規,0,2023-08-09,2023-08-09,株式会社ＡＲＩＧＡＴＯ　ＢＡＳＥ,,株式会社,大阪府,堺市中区,見野山１１２番地１,,27,142,5998243,,,,,,,2023-08-09,1,,,,,アリガトウベース,0
1217,4120101068045,新規,0,2023-08-09,2023-08-09,株式会社Ｒｙｏ総合食肉卸,,株式会社,大阪府,堺市南区,赤坂台５丁２２番１２号,,27,145,5900144,,,,,,,2023-08-09,1,,,,,リョウソウゴウショクニクオロシ,0
1219,4120103005368,新規,0,2023-08-09,2023-08-09,合同会社ＴＮＫ,,合同会社,大阪府,岸和田市,尾生町４８８番地,,27,202,5960816,,,,,,,2023-08-09,1,,,,,ティーエヌケー,0
1220,4120105009747,新規,0,2023-08-09,2023-08-09,特定非営利活動法人小喜会,,その他の設立登記法人,大阪府,貝塚市,清児７３２番地１２,,27,208,5970041,,,,,,,2023-08-09,1,,,,,ショウキカイ,0
1221,4120901047900,新規,0,2023-08-09,2023-08-09,興盛国際株式会社,,株式会社,大阪府,摂津市,鶴野３丁目８番５号,,27,224,5660035,,,,,,,2023-08-09,1,,,,,コウセイコクサイ,0
1223,4122001037253,新規,0,2023-08-09,2023-08-09,株式会社ＴＡＫＡＫＥＮ,,株式会社,大阪府,柏原市,国分西１丁目１番１７号幸喜ビル,,27,221,5820025,,,,,,,2023-08-09,1,,,,,タカケン,0
1225,4122003002643,新規,0,2023-08-09,2023-08-09,合同会社叶夢ｋａｎｏａ,,合同会社,大阪府,東大阪市,御厨東１丁目４番１９号,,27,227,5770033,,,,,,,2023-08-09,1,,,,,カノア,0
1230,4130001074927,新規,0,2023-08-09,2023-08-09,株式会社リブレ,,株式会社,京都府,京都市伏見区,下鳥羽中円面田町３４番地アヴィスエール１０１号室,,26,109,6128498,,,,,,,2023-08-09,1,,,,,リブレ,0
1231,4130001074951,新規,0,2023-08-09,2023-08-09,株式会社ｒｅＰｌｕｓ,,株式会社,京都府,宇治市,広野町尖山７番地の２５,,26,204,6110031,,,,,,,2023-08-09,1,,,,,リプラス,0
1238,4150001026620,新規,0,2023-08-09,2023-08-09,株式会社Ｌｅａｆ,,株式会社,奈良県,生駒郡三郷町,信貴ケ丘４丁目６番８号,,29,343,6360813,,,,,,,2023-08-09,1,,,,,リーフ,0
1239,4150001026629,新規,0,2023-08-09,2023-08-09,株式会社Ｇｒａｔｉｔｕｄｅ,,株式会社,奈良県,橿原市,東坊城町２３７番地の７,,29,205,6340835,,,,,,,2023-08-09,1,,,,,グラティテュード,0
1244,4180001157487,新規,0,2023-08-09,2023-08-09,株式会社名塚堂,00131469,株式会社,愛知県,名古屋市西区,庄内通４丁目１６番地３,,23,104,4510016,,,,,,,2023-08-09,1,,,,,ナヅカドウ,0
1245,4180001157512,新規,0,2023-08-09,2023-08-09,Ｓソリューション株式会社,,株式会社,愛知県,名古屋市緑区,鳴丘３丁目８１６番地,,23,114,4580005,,,,,,,2023-08-09,1,,,,,エスソリューション,0
1246,4180001157520,新規,0,2023-08-09,2023-08-09,Ｒｅｉｉｔｓ株式会社,,株式会社,愛知県,小牧市,小木２丁目２２５番地１４,,23,219,4850058,,,,,,,2023-08-09,1,,,,,レイツ,0
1247,4180001157537,新規,0,2023-08-09,2023-08-09,ゼンシン不動産株式会社,,株式会社,愛知県,名古屋市名東区,上社２丁目７４番地２０３,,23,115,4650025,,,,,,,2023-08-09,1,,,,,ゼンシンフドウサン,0
1248,4180001157553,新規,0,2023-08-09,2023-08-09,ＴＲＥ株式会社,,株式会社,愛知県,名古屋市千種区,今池５丁目８番１８号ハーモニーレジデンス名古屋８０１,,23,101,4640850,,,,,,,2023-08-09,1,,,,,ティーアールイー,0
1249,4180001157561,新規,0,2023-08-09,2023-08-09,株式会社Ｆｉｎａｎｃｉａｌ　Ａｓｓｉｓｔ,,株式会社,愛知県,あま市,木田南三丁目５番地３,,23,237,4901222,,,,,,,2023-08-09,1,,,,,ファイナンシャルアシスト,0
1250,4180001157578,新規,0,2023-08-09,2023-08-09,株式会社Ｄ＆Ｒ,,株式会社,愛知県,名古屋市中川区,西日置１丁目１番２６号サン・ピボット名南５０３号,,23,110,4540004,,,,,,,2023-08-09,1,,,,,ディーアンドアール,0
1251,4180001157611,新規,0,2023-08-09,2023-08-09,株式会社シェアハピ,,株式会社,愛知県,名古屋市中区,富士見町１４番１５号,,23,106,4600014,,,,,,,2023-08-09,1,,,,,シェアハピ,0
1260,4180303005798,新規,0,2023-08-09,2023-08-09,かぷりす合同会社,,合同会社,愛知県,豊川市,代田町２丁目１０番地の２,,23,207,4420841,,,,,,,2023-08-09,1,,,,,カプリス,0
1265,4200001041589,新規,0,2023-08-09,2023-08-09,株式会社ジーズ,,株式会社,岐阜県,大垣市,高屋町２丁目１７番地,,21,202,5030901,,,,,,,2023-08-09,1,,,,,ジーズ,0
1266,4200001041597,新規,0,2023-08-09,2023-08-09,ｕｎｌｉｍｉｔｅｄ　ｚｅｒｏ株式会社,,株式会社,岐阜県,岐阜市,福光東３丁目１７番１０号,,21,201,5020813,,,,,,,2023-08-09,1,,,,,アンリミテッドゼロ,0
1269,4220001025532,新規,0,2023-08-09,2023-08-09,株式会社竹倉美装,,株式会社,石川県,金沢市,金石本町ハ４４番地９,,17,201,9200336,,,,,,,2023-08-09,1,,,,,タケクラビソウ,0
1270,4220001025540,新規,0,2023-08-09,2023-08-09,ＤｅａＲｅ株式会社,,株式会社,石川県,白山市,相木町７５４‐５,,17,210,9240022,,,,,,,2023-08-09,1,,,,,ディアリィ,0
1272,4230001019962,新規,0,2023-08-09,2023-08-09,株式会社きらめき,,株式会社,富山県,富山市,堀川町３７４番地２,,16,201,9398072,,,,,,,2023-08-09,1,,,,,キラメキ,0
1277,4240001061939,新規,0,2023-08-09,2023-08-09,株式会社ＷＡＬＬＡＲＴ,,株式会社,広島県,府中市,土生町８３９番地９,,34,208,7260021,,,,,,,2023-08-09,1,,,,,ウォールアート,0
1278,4240001061955,新規,0,2023-08-09,2023-08-09,株式会社ＮＩＳＨＩＭＵＲＡ,,株式会社,広島県,三原市,宮浦６丁目２５番３５号,,34,204,7230051,,,,,,,2023-08-09,1,,,,,ニシムラ,0
1279,4240001061988,新規,0,2023-08-09,2023-08-09,株式会社ななまる,,株式会社,広島県,広島市西区,横川新町１４番１２号,,34,104,7330013,,,,,,,2023-08-09,1,,,,,ナナマル,0
1292,4290001102523,新規,0,2023-08-09,2023-08-09,株式会社ファミリア,,株式会社,福岡県,福岡市中央区,梅光園１丁目２番４１－１号,,40,133,8100035,,,,,,,2023-08-09,1,,,,,ファミリア,0
1293,4290001102580,新規,0,2023-08-09,2023-08-09,株式会社みのり,,株式会社,福岡県,福岡市東区,みなと香椎３丁目１番１４号みなと香椎青果物流センターＢ棟,,40,131,8130019,,,,,,,2023-08-09,1,,,,,ミノリ,0
1294,4290001102597,新規,0,2023-08-09,2023-08-09,株式会社しとる,,株式会社,福岡県,福岡市中央区,渡辺通３丁目１１番１０号Ｗ３－２０４,,40,133,8100004,,,,,,,2023-08-09,1,,,,,シトル,0
1295,4290001102622,新規,0,2023-08-09,2023-08-09,株式会社グランツジャパン,,株式会社,福岡県,久留米市,田主丸町石垣５９７－１,,40,203,8391212,,,,,,,2023-08-09,1,,,,,グランツジャパン,0
1296,4290003014213,新規,0,2023-08-09,2023-08-09,合同会社ＧＯＴ,,合同会社,福岡県,福岡市東区,馬出６丁目１２番４２号,,40,131,8120054,,,,,,,2023-08-09,1,,,,,,0
1302,4290801029783,新規,0,2023-08-09,2023-08-09,株式会社ＯｎｅＥｉｇｈｔＣｏｒｐｏｒａｔｉｏｎ,,株式会社,福岡県,北九州市八幡西区,西神原町９番１２号,,40,109,8060026,,,,,,,2023-08-09,1,,,,,ワンエイトコーポレーション,0
1303,4290801029791,新規,0,2023-08-09,2023-08-09,ＫＴプランニング株式会社,,株式会社,福岡県,北九州市小倉南区,守恒５丁目８番２７号,,40,107,8020972,,,,,,,2023-08-09,1,,,,,ケイティプランニング,0
1307,4320001019937,新規,0,2023-08-09,2023-08-09,株式会社アイジャパンサポート,,株式会社,大分県,大分市,大字皆春３０７番地９,,44,201,8700131,,,,,,,2023-08-09,1,,,,,アイジャパンサポート,0
1310,4330001031123,新規,0,2023-08-09,2023-08-09,株式会社関本商店,,株式会社,熊本県,八代市,西片町２２４３番地１,,43,202,8660811,,,,,,,2023-08-09,1,,,,,セキモトショウテン,0
1312,4340001025784,新規,0,2023-08-09,2023-08-09,株式会社あじろ,,株式会社,鹿児島県,出水郡長島町,鷹巣１７７８番地２,,46,404,8991401,,,,,,,2023-08-09,1,,,,,アジロ,0
1313,4340001025792,新規,0,2023-08-09,2023-08-09,株式会社おりなす設計室,,株式会社,鹿児島県,鹿児島市,上谷口町１６１１番地１,,46,201,8992703,,,,,,,2023-08-09,1,,,,,オリナスセッケイシツ,0
1314,4340001025801,新規,0,2023-08-09,2023-08-09,株式会社郷原畜産,,株式会社,鹿児島県,鹿屋市,郷之原町１２６９５番地３,,46,203,8930065,,,,,,,2023-08-09,1,,,,,ゴウハラチクサン,0
1316,4340003004200,新規,0,2023-08-09,2023-08-09,合同会社卯乃跳月,,合同会社,鹿児島県,鹿児島市,武１丁目６番３４－１２０３号,,46,201,8900045,,,,,,,2023-08-09,1,,,,,,0
1317,4340003004209,新規,0,2023-08-09,2023-08-09,ＨＲ合同会社,,合同会社,鹿児島県,西之表市,古田１１０１番地,,46,213,8913431,,,,,,,2023-08-09,1,,,,,エイチアール,0
1318,4350001018507,新規,0,2023-08-09,2023-08-09,株式会社ｃｏｃｏｒｏ,,株式会社,宮崎県,宮崎市,広島２丁目６番１４号中川ビル２０１号,,45,201,8800806,,,,,,,2023-08-09,1,,,,,ココロ,0
1319,4360001032366,新規,0,2023-08-09,2023-08-09,株式会社モダマ,,株式会社,沖縄県,石垣市,字登野城６２０番地１１,,47,207,9070004,,,,,,,2023-08-09,1,,,,,モダマ,0
1320,4360001032399,新規,0,2023-08-09,2023-08-09,株式会社ワキュウマッシュルーム,,株式会社,沖縄県,糸満市,西川町２５番１６号シャルムコートＴＫ２０３,,47,210,9010304,,,,,,,2023-08-09,1,,,,,ワキュウマッシュルーム,0
1321,4360001032408,新規,0,2023-08-09,2023-08-09,琉球ビオス株式会社,,株式会社,沖縄県,那覇市,前島３丁目２５－２泊ポートビル,,47,201,9000016,,,,,,,2023-08-09,1,,,,,リュウキュウビオス,0
1323,4360003013182,新規,0,2023-08-09,2023-08-09,合同会社ファースト・クラス,,合同会社,沖縄県,浦添市,宮城２丁目２３番１０号,,47,208,9012126,,,,,,,2023-08-09,1,,,,,ファーストクラス,0
1332,4380001033908,新規,0,2023-08-09,2023-08-09,株式会社ハピネクスト,,株式会社,福島県,伊達郡川俣町,大字小神字正道１１番地の６,,07,308,9601407,,,,,,,2023-08-09,1,,,,,ハピネクスト,0
1333,4380003005533,新規,0,2023-08-09,2023-08-09,合同会社かけはし雅,,合同会社,福島県,福島市,御山字荒田６番地の３０,,07,201,9608252,,,,,,,2023-08-09,1,,,,,カケハシミヤビ,0
1334,4380005012734,新規,0,2023-08-09,2023-08-09,一般社団法人日々文庫,,その他の設立登記法人,福島県,郡山市,字下亀田１６番地１６,,07,203,9638032,,,,,,,2023-08-09,1,,,,,ニチニチブンコ,0
1338,4410001013567,新規,0,2023-08-09,2023-08-09,株式会社Ｋ．ＰＥＧｓ,,株式会社,秋田県,秋田市,新屋比内町２０番４１号,,05,201,0101636,,,,,,,2023-08-09,1,,,,,ケーペグス,0
1342,4430001089655,新規,0,2023-08-09,2023-08-09,Ｖｅｔｏｔｅｃ株式会社,,株式会社,北海道,札幌市中央区,南一条西１６丁目１番地３２３春野ビル３Ｆ,,01,101,0600061,,,,,,,2023-08-09,1,,,,,ベトテック,0
1348,4450001014074,新規,0,2023-08-09,2023-08-09,株式会社渡邊建築工学研究所,,株式会社,北海道,旭川市,宮前一条２丁目１番１２－５０１号,,01,204,0788391,,,,,,,2023-08-09,1,,,,,ワタナベケンチクコウガクケンキュウジョ,0
1357,4700150118897,新規,0,2023-08-09,2023-08-09,ｗｅｉｆａｎｇ　ｑｉａｎｃｈａｏ　ｄｉａｎｚｉｋｅｊｉ　ｙｏｕｘｉａｎｇｏｎｇｓｉ,,外国会社等,,,,,,,,ｋｕｉｗｅｎｑｕ　ｓｈｅｎｇｌｉｄｏｎｇｊｉｅ　５０８７　ｈａｏ　ｗｅｉｆａｎｇｊｉｎｒｏｎｇｆｕｗｕｑｕ　２　ｈａｏ　ｌｏｕ１１０１　Ｗｅｉｆａｎｇｓｈｉ　Ｓｈａｎｄｏｎｇｓｈｅｎｇ　ＣＮ,,,,,,2023-08-09,1,,,,,ウェイファンチャンチアオデンシケジユウゲンコウシ,0
1358,4700150118906,新規,0,2023-08-09,2023-08-09,Ｓｈａｎ　Ｘｉ　Ｑｉｎ　Ｘｉａｏ　Ｄｉａｎ　Ｚｉ　Ｋｅ　Ｊｉ　Ｙｏｕ　Ｘｉａｎ　Ｇｏｎｇ　Ｓｉ,,外国会社等,,,,,,,,Ｘｉａｏ　Ｄｉａｎ　Ｑｕ　Ｐｉｎｇ　Ｙａｎｇ　Ｌｕ　６５　Ｈａｏ　Ｐｉｎｇ　Ｙａｎｇ　Ｊｉｎｇ　Ｙｕａｎ　９　Ｈａｏ　Ｌｏｕ　３２０１　Ｓｈｉ　Ｔａｉ　Ｙｕａｎ　Ｓｈｉ　Ｓｈａｎ　Ｘｉ　Ｓｈｅｎｇ,,,,,,2023-08-09,1,,,,,サンシチンシャオデンシケジユウゲンコウシ,0
1359,4700150118914,新規,0,2023-08-09,2023-08-09,ＹＩＣＨＡＮＧＳＨＩＤＡＲＯＮＧＭＡＯＹＩＹＯＵＸＩＡＮＧＯＮＧＳＩ,,外国会社等,,,,,,,,ｄａｎｇｙａｎｇｓｈｉｙｕｑｕａｎｂａｎｓｈｉｃｈｕｘｉｎｍｉｎｃｕｎｓａｎｚｕ３９ｈａｏ　ｙｉｃｈａｎｇｓｈｉ　ｈｕｂｅｉｓｈｅｎｇ　４４４１００　ＣＮ,,,,,,2023-08-09,1,,,,,イーチャンシーダーロンマオイーヨウシエンゴンスー,0
1360,4700150118922,新規,0,2023-08-09,2023-08-09,ｓｈｅｎｚｈｅｎｓｈｉ　ｘｉｌｉｄｉａｎｚｉ　ｙｏｕｘｉａｎｇｏｎｇｓｉ,,外国会社等,,,,,,,,ｈｕａｑｉａｎｇｂｅｉｊｉｅｄａｏｈｕａｈａｎｇｓｈｅｑｕｆｕｔｉａｎｑｕｈｕａｑｉａｎｇｂｅｉｌｕ２００９ｈａｏｄｏｎｇｆａｎｇｓｈｉｄａｉｇｕａｎｇｃｈａｎｇｂ２００７　ｓｈｅｎｚｈｅｎｓｈｉ　ｇｕａｎｇｄｏｎｇｓｈｅｎｇ　５１８０３９　ＣＮ,,,,,,2023-08-09,1,,,,,シェンゼェンシシリデンシヨウシェンゴンスー,0
1361,4700150118930,新規,0,2023-08-09,2023-08-09,ＧＵＡＮＧＺＨＯＵ　ＫＡＮＵＯ　ＤＩＡＮＺＩ　ＳＨＡＮＧＷＵ　ＹＯＵＸＩＡＮ　ＧＯＮＧＳＩ,,外国会社等,,,,,,,,Ｌｉｗａｎ　Ｑｕ　Ｆｅｎｇ　Ｙｕａｎ　Ｌｕ　１２８　Ｈａｏ　８０３　Ｈａｏ　Ｇｕａｎｇｚｈｏｕ　Ｇｕａｎｇｄｏｎｇ　５１０１５０　ＣＮ,,,,,,2023-08-09,1,,,,,グァンジョウカーヌオディエンズーシャンウヨウシェンゴンスー,0
1362,4700150118939,新規,0,2023-08-09,2023-08-09,Ｓｈｅｎｚｈｅｎ　ＫＲＷ　Ｔｅｃｈｎｏｌｏｇｙ　Ｃｏ．，ｌｔｄ,,外国会社等,,,,,,,,５Ｆ，Ｙｕｌｉ　Ｆａｃｔｏｒｙ，Ｘｕｅｘｉａｎｇ　ｉｎｄｕｓｔｒｙ，ｇａｎｇｔｏｕ　ｈｅｓｈｕ　Ｒｏａｄ，Ｂａｎｔｉａｎ，Ｌｏｎｇｇａｎｇ，ＳｈｅｎｚｈｅｎＧｕａｎｇｄｏｎｇ　Ｃｈｉｎａ,,,,,,2023-08-09,1,,,,,シンセンケーアールダブリューテクナロジーカンパニーリミテッド,0
1363,4700150118947,新規,0,2023-08-09,2023-08-09,ｓｈｅｎｚｈｅｎ　ｌａｎｂａｏｓｉ　Ｔｅｃｈｎｏｌｏｇｙ　Ｃｏ．，ｌｔｄ,,外国会社等,,,,,,,,Ｒｏｏｍ　３０１，Ｂｕｉｌｄｉｎｇ　１４，Ｂａｎｔｉａｎ　Ｓｅｃｏｎｄ　Ｉｎｄｕｓｔｒｉａｌ　Ｚｏｎｅ，Ｂａｎｔｉａｎ　Ｓｔｒｅｅｔ，Ｌｏｎｇｇａｎｇ　Ｄｉｓｔｒｉｃｔ　Ｓｈｅｎｚｈｅｎ　Ｇｕａｎｇｄｏｎｇ　ＣＮ,,,,,,2023-08-09,1,,,,,シンセンランバオシテクノロジーカンパニーリミテッド,0
1364,4700150118955,新規,0,2023-08-09,2023-08-09,ｘｉａｎｔａｏｓｈｉ　ｘｉｌｉｕｈｅａｎｋａｎｇｙａｏｄｉａｎ　　　　,,外国会社等,,,,,,,,ｘｉ　ｌｉｕ　ｈｅ　ｄａ　ｊｉｅ　２８０ｈａｏ　ｘｉａｎ　ｔａｏ　ｘｉ　ｌｉｕ　ｈｅ　ｚｈｅｎ　ｈｕ　ｂｅｉ，Ｃｈｉｎａ,,,,,,2023-08-09,1,,,,,センテァオシシリュウヘアンカンヤォデン,0
1365,4700150118963,新規,0,2023-08-09,2023-08-09,深セン市億瑞佳電子科技有限公司,,外国会社等,,,,,,,,中国深セン市龍華新区龍華街道上油松茘苑大厦Ｂ座１００６,00131378,,,,,2023-08-09,1,,,,,シンセンシオクズイカデンシカギユウゲンコウシ,0
1371,5010001237478,新規,0,2023-08-09,2023-08-09,ミライフィールズ株式会社,,株式会社,東京都,中央区,築地６丁目４番５号,,13,102,1040045,,,,,,,2023-08-09,1,,,,,ミライフィールズ,0
1372,5010001237486,新規,0,2023-08-09,2023-08-09,テックテイルズ株式会社,,株式会社,東京都,中央区,日本橋室町１丁目１１番１２号日本橋水野ビル７階,,13,102,1030022,,,,,,,2023-08-09,1,,,,,テックテイルズ,0
1373,5010001237494,新規,0,2023-08-09,2023-08-09,株式会社ＲｅＢＡＳＥ,,株式会社,東京都,千代田区,神田富山町７番地,,13,101,1010043,,,,,,,2023-08-09,1,,,,,リベース,0
1374,5010001237511,新規,0,2023-08-09,2023-08-09,株式会社Ａｌｐｈａ　Ｓｐａｃｅ　Ｄｅｓｉｇｎｌａｂ,,株式会社,東京都,中央区,日本橋室町１丁目１１番１２号日本橋水野ビル７階,,13,102,1030022,,,,,,,2023-08-09,1,,,,,アルファスペースデザインラボ,0
1375,5010001237528,新規,0,2023-08-09,2023-08-09,株式会社イチカ,,株式会社,東京都,中央区,日本橋室町１丁目１１番１２日本橋水野ビル７階,,13,102,1030022,,,,,,,2023-08-09,1,,,,,イチカ,0
1376,5010001237536,新規,0,2023-08-09,2023-08-09,株式会社ＬＡＶＩＥＷ,,株式会社,東京都,中央区,日本橋人形町１丁目１２番１１号,,13,102,1030013,,,,,,,2023-08-09,1,,,,,ラビュー,0
1377,5010001237544,新規,0,2023-08-09,2023-08-09,株式会社令和ＡＩ,,株式会社,東京都,千代田区,神田和泉町１番地６の１６ヤマトビル４０５,,13,101,1010024,,,,,,,2023-08-09,1,,,,,レイワエーアイ,0
1378,5010001237560,新規,0,2023-08-09,2023-08-09,ＡＰＧ株式会社,,株式会社,東京都,中央区,日本橋小網町８番２号ＢＩＺＭＡＲＫＳ日本橋茅場町１階,,13,102,1030016,,,,,,,2023-08-09,1,,,,,エーピージー,0
1379,5010001237569,新規,0,2023-08-09,2023-08-09,株式会社ＤＦＤ,,株式会社,東京都,中央区,銀座１丁目１２－４Ｎ＆ＥＢＬＤ．７階,,13,102,1040061,,,,,,,2023-08-09,1,,,,,ディーエフディー,0
1380,5010001237577,新規,0,2023-08-09,2023-08-09,株式会社サクラグローバルパートナーズ,,株式会社,東京都,中央区,日本橋室町１丁目１１番１２号日本橋水野ビル７階,,13,102,1030022,,,,,,,2023-08-09,1,,,,,サクラグローバルパートナーズ,0
1381,5010001237585,新規,0,2023-08-09,2023-08-09,松平交易株式会社,,株式会社,東京都,千代田区,六番町１５番地２鳳翔ビル４階,,13,101,1020085,,,,,,,2023-08-09,1,,,,,マツダイラコウエキ,0
1382,5010001237593,新規,0,2023-08-09,2023-08-09,キャリバン株式会社,,株式会社,東京都,中央区,日本橋箱崎町２７番９号１階,,13,102,1030015,,,,,,,2023-08-09,1,,,,,キャリバン,0
1386,5010003041333,新規,0,2023-08-09,2023-08-09,合同会社ウェルフィー,,合同会社,東京都,中央区,銀座１丁目２２番１１号銀座大竹ビジデンス２Ｆ,,13,102,1040061,,,,,,,2023-08-09,1,,,,,ウェルフィー,0
1392,5010005037073,新規,0,2023-08-09,2023-08-09,一般社団法人食と生活情報センター,,その他の設立登記法人,東京都,千代田区,神田佐久間河岸４６号地３,,13,101,1010026,,,,,,,2023-08-09,1,,,,,ショクトセイカツジョウホウセンター,0
1393,5010101015767,新規,0,2023-08-09,2023-08-09,株式会社ケアーティーチ,,株式会社,東京都,八王子市,美山町１８８９番地２,,13,201,1920152,,,,,,,2023-08-09,1,,,,,ケアーティーチ,0
1399,5010401176177,新規,0,2023-08-09,2023-08-09,フュートライズ株式会社,,株式会社,東京都,港区,港南４丁目６番３－３２０１号,,13,103,1080075,,,,,,,2023-08-09,1,,,,,フュートライズ,0
1400,5010401176359,新規,0,2023-08-09,2023-08-09,株式会社Ｌｉｍｅ,,株式会社,東京都,港区,南青山６丁目１番１２ー５０７号,,13,103,1070062,,,,,,,2023-08-09,1,,,,,ライム,0
1401,5010401176367,新規,0,2023-08-09,2023-08-09,グリーン・エナジー・ストレージ・システム株式会社,,株式会社,東京都,港区,芝２丁目２番１５号芝二丁目ビル,,13,103,1050014,,,,,,,2023-08-09,1,,,,,グリーンエナジーストレージシステム,0
1404,5010501050868,新規,0,2023-08-09,2023-08-09,株式会社アルティメッド,,株式会社,東京都,台東区,浅草橋１丁目２２番８号,,13,106,1110053,,,,,,,2023-08-09,1,,,,,アルティメッド,0
1405,5010501050876,新規,0,2023-08-09,2023-08-09,株式会社齋藤服飾研究所,,株式会社,東京都,台東区,寿２丁目１０－１５,,13,106,1110042,,,,,,,2023-08-09,1,,,,,サイトウフクショクケンキュウジョ,0
1408,5010701044694,新規,0,2023-08-09,2023-08-09,株式会社ＳＯＫＳ,,株式会社,東京都,品川区,大井４丁目１番１号増田ビル１Ｆ,,13,109,1400014,,,,,,,2023-08-09,1,,,,,ソックス,0
1409,5010801034224,新規,0,2023-08-09,2023-08-09,株式会社Ｂｒａｖｏ＆Ｄ,,株式会社,東京都,大田区,大森東１丁目２４番７号,,13,111,1430012,,,,,,,2023-08-09,1,,,,,ブラボーアンドディ,0
1410,5010901053578,新規,0,2023-08-09,2023-08-09,ワイディエル株式会社,,株式会社,東京都,世田谷区,下馬６丁目３３番１４－２０１号,,13,112,1540002,,,,,,,2023-08-09,1,,,,,ワイディエル,0
1411,5010901053594,新規,0,2023-08-09,2023-08-09,株式会社ＳＥＬＥＣＴ,,株式会社,東京都,世田谷区,上馬４丁目１番１－４０１号,,13,112,1540011,,,,,,,2023-08-09,1,,,,,セレクト,0
1412,5010901053603,新規,0,2023-08-09,2023-08-09,Ｓｈｅｄ　Ｐｒｏｄｕｃｔｓ株式会社,,株式会社,東京都,世田谷区,上野毛４丁目２２番２号カヤカミノゲ１Ｆ,,13,112,1580093,,,,,,,2023-08-09,1,,,,,シェッドプロダクツ,0
1418,5011001156156,新規,0,2023-08-09,2023-08-09,株式会社ＡｉＳＨ,,株式会社,東京都,渋谷区,道玄坂１丁目１２番１号渋谷マークシティＷ２２階,,13,113,1500043,,,,,,,2023-08-09,1,,,,,アイッシュ,0
1419,5011001156172,新規,0,2023-08-09,2023-08-09,株式会社エスユーテック,,株式会社,東京都,渋谷区,道玄坂１丁目１０番８号渋谷道玄坂東急ビル２Ｆ－Ｃ,,13,113,1500043,,,,,,,2023-08-09,1,,,,,エスユーテック,0
1420,5011001156180,新規,0,2023-08-09,2023-08-09,株式会社ＲＥＲＥＰ,,株式会社,東京都,渋谷区,神宮前６丁目２３番４号桑野ビル２階,,13,113,1500001,,,,,,,2023-08-09,1,,,,,リレップ,0
1421,5011001156197,新規,0,2023-08-09,2023-08-09,株式会社ＶｉｓｉｏｎＬｉｎｋ,,株式会社,東京都,渋谷区,道玄坂１丁目１０番８号渋谷道玄坂東急ビル２Ｆ－Ｃ,,13,113,1500043,,,,,,,2023-08-09,1,,,,,ビジョンリンク,0
1422,5011001156255,新規,0,2023-08-09,2023-08-09,リクレングス株式会社,,株式会社,東京都,渋谷区,神宮前６丁目２３番４号桑野ビル２階,,13,113,1500001,,,,,,,2023-08-09,1,,,,,リクレングス,0
1423,5011001156263,新規,0,2023-08-09,2023-08-09,サン・ドリオン株式会社,,株式会社,東京都,渋谷区,道玄坂１丁目１０番８号渋谷道玄坂東急ビル２Ｆ－Ｃ,,13,113,1500043,,,,,,,2023-08-09,1,,,,,サンドリオン,0
1425,5011101103925,新規,0,2023-08-09,2023-08-09,株式会社グローウィング,,株式会社,東京都,新宿区,西新宿３丁目３番１３号西新宿水間ビル２Ｆ,,13,104,1600023,,,,,,,2023-08-09,1,,,,,グローウィング,0
1427,5011103013362,新規,0,2023-08-09,2023-08-09,合同会社アドバンス,,合同会社,東京都,新宿区,新宿３丁目３５番３号新宿君嶋ビル４階,,13,104,1600022,,,,,,,2023-08-09,1,,,,,アドバンス,0
1431,5011401025357,新規,0,2023-08-09,2023-08-09,株式会社ｖｉｓｔｏｓｏ‐ｍｕｓｉｃａ,,株式会社,東京都,板橋区,東新町１丁目４１番１－４０６号,,13,119,1740074,,,,,,,2023-08-09,1,,,,,ビストーソムジカ,0
1433,5011603004010,新規,0,2023-08-09,2023-08-09,合同会社ＳＵＭｏｆ,,合同会社,東京都,練馬区,石神井台７丁目２５番１８－２０６号,,13,120,1770045,,,,,,,2023-08-09,1,,,,,サムオブ,0
1436,5011703003556,新規,0,2023-08-09,2023-08-09,山三カンパニー合同会社,,合同会社,東京都,江戸川区,松島２丁目２８番２号,,13,123,1320031,,,,,,,2023-08-09,1,,,,,ヤマサンカンパニー,0
1445,5011801042844,新規,0,2023-08-09,2023-08-09,株式会社榎建,,株式会社,東京都,足立区,東和３丁目１３番１－７１９号,,13,121,1200003,,,,,,,2023-08-09,1,,,,,エノケン,0
1446,5011801042860,新規,0,2023-08-09,2023-08-09,株式会社ＭｅｄｉＶａｔｅ,,株式会社,東京都,葛飾区,東金町３丁目１番８－１０１号,,13,122,1250041,,,,,,,2023-08-09,1,,,,,メディベイト,0
1449,5012401040825,新規,0,2023-08-09,2023-08-09,Ｉｎｄｉｅ　Ｆｒｅａｋｓ株式会社,,株式会社,東京都,三鷹市,新川６丁目２７番２９号Ｋ－ＦＬＡＴ３０１,,13,204,1810004,,,,,,,2023-08-09,1,,,,,インディーフリークス,0
1450,5012401040833,新規,0,2023-08-09,2023-08-09,株式会社Ｂｌｅｓｓ　ｙｏｕ,,株式会社,東京都,調布市,富士見町２丁目１０番地４１,,13,208,1820033,,,,,,,2023-08-09,1,,,,,ブレスユー,0
1455,5012701017787,新規,0,2023-08-09,2023-08-09,株式会社効くラボ製薬,,株式会社,東京都,小平市,御幸町７０番地の１２,,13,211,1870012,,,,,,,2023-08-09,1,,,,,キクラボセイヤク,0
1464,5013303006740,新規,0,2023-08-09,2023-08-09,合同会社ＩＴＮ,,合同会社,東京都,豊島区,池袋２丁目４３番７号ダイチツムラビル４階,,13,116,1710014,,,,,,,2023-08-09,1,,,,,アイティーエヌ,0
1465,5013303006749,新規,0,2023-08-09,2023-08-09,９７合同会社,,合同会社,東京都,豊島区,高田１丁目３８番４号,,13,116,1710033,,,,,,,2023-08-09,1,,,,,キューナナ,0
1473,5020001152825,新規,0,2023-08-09,2023-08-09,株式会社コロンエフ,,株式会社,神奈川県,川崎市宮前区,神木本町１丁目２２番２４号,,14,136,2160031,,,,,,,2023-08-09,1,,,,,コロンエフ,0
1474,5020001152858,新規,0,2023-08-09,2023-08-09,株式会社ＡＧＡＩＮＳＴ,,株式会社,神奈川県,横浜市神奈川区,三ツ沢上町１７番４２号,,14,102,2210856,,,,,,,2023-08-09,1,,,,,アゲンスト,0
1475,5020001152890,新規,0,2023-08-09,2023-08-09,ＴＥＣＳ株式会社,,株式会社,神奈川県,横浜市西区,北幸２丁目１０番地２８むつみビル３Ｆ,,14,103,2200004,,,,,,,2023-08-09,1,,,,,テックス,0
1476,5020001152908,新規,0,2023-08-09,2023-08-09,シンソサージ株式会社,,株式会社,神奈川県,横浜市中区,扇町３丁目８番１１号ヤマザキ・シー・エービル２Ｆ,,14,104,2310027,,,,,,,2023-08-09,1,,,,,シンソサージ,0
1477,5020001152965,新規,0,2023-08-09,2023-08-09,株式会社関東住建,,株式会社,神奈川県,横浜市都筑区,仲町台１丁目２番２８号,,14,118,2240041,,,,,,,2023-08-09,1,,,,,カントウジュウケン,0
1478,5020001152973,新規,0,2023-08-09,2023-08-09,株式会社あだぷと,,株式会社,神奈川県,横浜市瀬谷区,瀬谷４丁目１０番地５メゾン・グランシュマン１Ｆ,,14,114,2460031,,,,,,,2023-08-09,1,,,,,アダプト,0
1479,5020001152998,新規,0,2023-08-09,2023-08-09,株式会社Ｓｔｏｒｍ,,株式会社,神奈川県,川崎市麻生区,岡上５丁目１４番５号１０３,,14,137,2150027,,,,,,,2023-08-09,1,,,,,ストーム,0
1481,5020003024337,新規,0,2023-08-09,2023-08-09,合同会社弘健商事,,合同会社,神奈川県,川崎市宮前区,土橋４丁目４－１０パークヒルズ鷺沼弐番館２０５号室,,14,136,2160005,,,,,,,2023-08-09,1,,,,,コウケンショウジ,0
1485,5021001079736,新規,0,2023-08-09,2023-08-09,株式会社Ｗｏｒｌｄ　Ｗｉｄｅ,,株式会社,神奈川県,茅ヶ崎市,松が丘１丁目１番９０号,,14,207,2530025,,,,,,,2023-08-09,1,,,,,ワールドワイド,0
1487,5021003013445,新規,0,2023-08-09,2023-08-09,合同会社ＬＥＦＴＹ,,合同会社,神奈川県,愛甲郡愛川町,中津１４２９番地の６,,14,401,2430303,,,,,,,2023-08-09,1,,,,,レフティ,0
1488,5021005012874,新規,0,2023-08-09,2023-08-09,一般社団法人学びラボ,,その他の設立登記法人,神奈川県,平塚市,四之宮１丁目８番２０－１号,,14,203,2540014,,,,,,,2023-08-09,1,,,,,マナビラボ,0
1494,5030001155083,新規,0,2023-08-09,2023-08-09,株式会社旭管工,,株式会社,埼玉県,越谷市,大字平方３９４番地１０,,11,222,3430002,,,,,,,2023-08-09,1,,,,,アサヒカンコウ,0
1495,5030001155174,新規,0,2023-08-09,2023-08-09,ＴＡＹＡ　ＪＡＰＡＮ株式会社,,株式会社,埼玉県,さいたま市南区,白幡４丁目９番１８号,,11,108,3360022,,,,,,,2023-08-09,1,,,,,タヤジャパン,0
1496,5030001155307,新規,0,2023-08-09,2023-08-09,ＮＥＸＵＳ　ＪＡＰＡＮ株式会社,,株式会社,埼玉県,越谷市,大字下間久里７５８番地５,,11,222,3430045,,,,,,,2023-08-09,1,,,,,ネクサスジャパン,0
1497,5030001155331,新規,0,2023-08-09,2023-08-09,Ｂｕｒｇｅｒ　Ｂｉｇ　Ｂａｎｇ　ｐｊ株式会社,,株式会社,埼玉県,羽生市,北３丁目５番１６号,,11,216,3480057,,,,,,,2023-08-09,1,,,,,バーガービッグバンプロジェクト,0
1499,5030003022224,新規,0,2023-08-09,2023-08-09,合同会社ｏｒｉｇａＭｉ,,合同会社,埼玉県,川口市,大字安行領根岸２５５９番地の１４８,,11,203,3330834,,,,,,,2023-08-09,1,,,,,オリガミ,0
1500,5030003022240,新規,0,2023-08-09,2023-08-09,合同会社ＦＲＥＥ　ＬＡＢＯ,,合同会社,埼玉県,坂戸市,大字塚越１１０７―３,,11,239,3500209,,,,,,,2023-08-09,1,,,,,フリーラボ,0
1501,5030003022249,新規,0,2023-08-09,2023-08-09,金橋国際合同会社,,合同会社,埼玉県,川口市,西川口４丁目１６－２０セドルハイム西川口１０５,,11,203,3320021,,,,,,,2023-08-09,1,,,,,カネハシコクサイ,0
1507,5040001129598,新規,0,2023-08-09,2023-08-09,株式会社おひるね,,株式会社,千葉県,千葉市美浜区,幕張西４丁目１番１１号,,12,106,2610026,,,,,,,2023-08-09,1,,,,,オヒルネ,0
1508,5040001129615,新規,0,2023-08-09,2023-08-09,株式会社Ｊｕｒｅｌｅｓ,,株式会社,千葉県,柏市,みどり台２丁目２１番４９号,,12,217,2770884,,,,,,,2023-08-09,1,,,,,フレレス,0
1509,5040001129623,新規,0,2023-08-09,2023-08-09,株式会社Ｃｌａｉｒ,,株式会社,千葉県,四街道市,下志津新田２５１４番地２０３エトワール２０３,,12,228,2840006,,,,,,,2023-08-09,1,,,,,クレール,0
1512,5040003023031,新規,0,2023-08-09,2023-08-09,Ｌｉｎｏ　Ｗａｎ合同会社,,合同会社,千葉県,千葉市緑区,あすみが丘９丁目１番地４１,,12,105,2670066,,,,,,,2023-08-09,1,,,,,リノワン,0
1513,5040003023080,新規,0,2023-08-09,2023-08-09,合同会社イリカライラック,,合同会社,千葉県,千葉市花見川区,検見川町３丁目３１０番地２３ソシアル検見川２－２０２号,,12,102,2620023,,,,,,,2023-08-09,1,,,,,イリカライラック,0
1514,5050001053252,新規,0,2023-08-09,2023-08-09,株式会社ＹＵＵＫＩ　ＪＡＰＡＮ,,株式会社,茨城県,古河市,中田８１６番地１,,08,204,3060053,,,,,,,2023-08-09,1,,,,,ユウキジャパン,0
1523,5050003007702,新規,0,2023-08-09,2023-08-09,Ｄａｊｉｅ合同会社,,合同会社,茨城県,取手市,戸頭８丁目７番９号,,08,217,3020034,,,,,,,2023-08-09,1,,,,,ダジエ,0
1526,5060001036248,新規,0,2023-08-09,2023-08-09,株式会社マツダ,,株式会社,栃木県,宇都宮市,兵庫塚３丁目３５番９号,,09,201,3210138,,,,,,,2023-08-09,1,,,,,マツダ,0
1531,5070001040736,新規,0,2023-08-09,2023-08-09,株式会社ｍｏｍｏｎｏｋｉ,,株式会社,群馬県,太田市,龍舞町１７００番地７,,10,205,3730806,,,,,,,2023-08-09,1,,,,,モモノキ,0
1532,5070001040744,新規,0,2023-08-09,2023-08-09,株式会社ＣＯＣＯ,,株式会社,群馬県,桐生市,広沢町４丁目１９７１－３０,,10,203,3760013,,,,,,,2023-08-09,1,,,,,ココ,0
1535,5080005007549,新規,0,2023-08-09,2023-08-09,こけ農園企業組合,,その他の設立登記法人,静岡県,牧之原市,大沢１４５番地９,,22,226,4210526,,,,,,,2023-08-09,1,,,,,コケノウエン,0
1540,5100001036648,新規,0,2023-08-09,2023-08-09,株式会社アトリエヒトトキ,,株式会社,長野県,駒ヶ根市,赤穂７５９番地１６古民家音の葉新館２Ｆ,,20,210,3994117,,,,,,,2023-08-09,1,,,,,アトリエヒトトキ,0
1541,5100001036656,新規,0,2023-08-09,2023-08-09,株式会社あおば,,株式会社,長野県,北佐久郡御代田町,大字草越１１７３番地８５,,20,323,3890202,,,,,,,2023-08-09,1,,,,,アオバ,0
1543,5110001037744,新規,0,2023-08-09,2023-08-09,株式会社ミズノ電気,,株式会社,新潟県,新潟市西蒲区,竹野町２４６３番地２９,,15,108,9530023,,,,,,,2023-08-09,1,,,,,ミズノデンキ,0
1544,5110001037760,新規,0,2023-08-09,2023-08-09,株式会社妙高マウンテンリゾート,,株式会社,新潟県,妙高市,大字赤倉５８５番地８５,,15,217,9492111,,,,,,,2023-08-09,1,,,,,ミョウコウマウンテンリゾート,0
1565,5120001257093,新規,0,2023-08-09,2023-08-09,ｗｉｐコネクト株式会社,,株式会社,大阪府,大阪市北区,天神橋３丁目３－３南森町イシカワビル１０階ＷＩＰジャパン株式会社内,,27,127,5300041,,,,,,,2023-08-09,1,,,,,ウィップコネクト,0
1566,5120001257119,新規,0,2023-08-09,2023-08-09,株式会社キャリアプラネット,,株式会社,大阪府,大阪市中央区,難波５丁目１番６０号なんばスカイオ２７Ｆ,,27,128,5420076,,,,,,,2023-08-09,1,,,,,キャリアプラネット,0
1567,5120001257127,新規,0,2023-08-09,2023-08-09,株式会社Ｅ．ＤｅｓａｙＳｏｌｕｔｉｏｎ,,株式会社,大阪府,大阪市港区,田中３丁目６番７号,,27,107,5520005,,,,,,,2023-08-09,1,,,,,エーデッセイソリューション,0
1568,5120001257291,新規,0,2023-08-09,2023-08-09,株式会社ファーマシーオフィス・ソリューションズ,,株式会社,大阪府,大阪市中央区,本町２丁目３番４号,,27,128,5410053,,,,,,,2023-08-09,1,,,,,ファーマシーオフィスソリューションズ,0
1571,5120003024665,新規,0,2023-08-09,2023-08-09,ｐｌａｙｐａｒｋ合同会社,,合同会社,大阪府,大阪市北区,芝田２丁目８‐１１共栄ビル３Ｆ,,27,127,5300012,,,,,,,2023-08-09,1,,,,,プレイパーク,0
1572,5120003024681,新規,0,2023-08-09,2023-08-09,三桂不動産合同会社,,合同会社,大阪府,大阪市平野区,瓜破西１丁目７番３－６０２号,,27,126,5470025,,,,,,,2023-08-09,1,,,,,サンケイウドウサン,0
1573,5120005023814,新規,0,2023-08-09,2023-08-09,ＨＲ　Ｔｅｃｈ　Ｍａｎａｇｅｍｅｎｔ社会保険労務士法人,,その他の設立登記法人,大阪府,大阪市北区,角田町８番４７号阪急グランドビル２０Ｆ,,27,127,5300017,,,,,,,2023-08-09,1,,,,,エイチアールテックマネージメント,0
1579,5120901047908,新規,0,2023-08-09,2023-08-09,株式会社椿,,株式会社,大阪府,高槻市,高槻町４番２３－６０５号,,27,207,5690803,,,,,,,2023-08-09,1,,,,,ツバキ,0
1583,5122001037244,新規,0,2023-08-09,2023-08-09,株式会社Ｉ・Ｗ・Ｆ,,株式会社,大阪府,八尾市,北木の本１丁目２５番地の２,,27,212,5810041,,,,,,,2023-08-09,1,,,,,アイダブリューエフ,0
1584,5122001037260,新規,0,2023-08-09,2023-08-09,株式会社アイワ,,株式会社,大阪府,東大阪市,新池島町２丁目２番９号,,27,227,5798065,,,,,,,2023-08-09,1,,,,,アイワ,0
1587,5130001074934,新規,0,2023-08-09,2023-08-09,株式会社淡丹舎,,株式会社,京都府,京都市伏見区,京町北８丁目８７番地,,26,109,6128086,,,,,,,2023-08-09,1,,,,,タンタンシャ,0
1588,5130001074967,新規,0,2023-08-09,2023-08-09,株式会社サンサン,,株式会社,京都府,京都市南区,吉祥院前田町２０－１５,,26,107,6018341,,,,,,,2023-08-09,1,,,,,サンサン,0
1589,5130003008873,新規,0,2023-08-09,2023-08-09,合同会社Ｍ’ｓ　Ｓｔｙｌｅ,,合同会社,京都府,京都市山科区,大塚高岩６番地６６,,26,110,6078122,,,,,,,2023-08-09,1,,,,,エムズスタイル,0
1590,5130003008907,新規,0,2023-08-09,2023-08-09,合同会社陽氣,,合同会社,京都府,京丹後市,網野町浅茂川１８０５番地の２,,26,212,6293104,,,,,,,2023-08-09,1,,,,,ヨウキ,0
1594,5140003019432,新規,0,2023-08-09,2023-08-09,神戸牧野商貿合同会社,,合同会社,兵庫県,神戸市垂水区,塩屋町５丁目１９番１５号,,28,108,6550872,,,,,,,2023-08-09,1,,,,,コウベマキノショウボウ,0
1595,5150001026628,新規,0,2023-08-09,2023-08-09,株式会社リベラルアーツ塾,,株式会社,奈良県,生駒市,小瀬町１０８番地３ＪＥＵＮＥＳＳＥ・Ｎ－３０６,,29,209,6300223,,,,,,,2023-08-09,1,,,,,リベラルアーツジュク,0
1596,5150003003030,新規,0,2023-08-09,2023-08-09,合同会社Ｊａｍ,,合同会社,奈良県,橿原市,新口町１４６番地の４,,29,205,6340802,,,,,,,2023-08-09,1,,,,,ジャム,0
1600,5180001157461,新規,0,2023-08-09,2023-08-09,株式会社佐枝ＦＰ不動産事務所,,株式会社,愛知県,一宮市,大宮２丁目６番１２－６０２号グローリアス一宮,,23,203,4910044,,,,,,,2023-08-09,1,,,,,サエダエフピーフドウサンジムショ,0
1601,5180001157478,新規,0,2023-08-09,2023-08-09,株式会社Ｅｄｅｌ,,株式会社,愛知県,名古屋市中村区,名駅４丁目２４番５号第２森ビル４０１号,,23,105,4500002,,,,,,,2023-08-09,1,,,,,エデル,0
1602,5180001157486,新規,0,2023-08-09,2023-08-09,株式会社オールメンテナンス,,株式会社,愛知県,長久手市,塚田２２５番地,,23,238,4801154,,,,,,,2023-08-09,1,,,,,オールメンテナンス,0
1603,5180001157494,新規,0,2023-08-09,2023-08-09,雄和重建株式会社,,株式会社,愛知県,瀬戸市,上松山町２丁目１０６番地,,23,204,4890068,,,,,,,2023-08-09,1,,,,,ユウワジュウケン,0
1604,5180001157503,新規,0,2023-08-09,2023-08-09,株式会社早川自動車,,株式会社,愛知県,半田市,旭町２丁目６５番地の４,,23,205,4750838,,,,,,,2023-08-09,1,,,,,ハヤカワジドウシャ,0
1605,5180001157511,新規,0,2023-08-09,2023-08-09,株式会社サンムシャイン,,株式会社,愛知県,尾張旭市,西大道町前田３８００番地５,,23,226,4880814,,,,,,,2023-08-09,1,,,,,サンムシャイン,0
1606,5180001157528,新規,0,2023-08-09,2023-08-09,Ｂｅａｓｔ株式会社,,株式会社,愛知県,岩倉市,神野町郷浦５番地,,23,228,4820033,,,,,,,2023-08-09,1,,,,,ビースト,0
1607,5180001157536,新規,0,2023-08-09,2023-08-09,株式会社リライフクリエイション,,株式会社,愛知県,名古屋市緑区,大清水東１２２０,,23,114,4580849,,,,,,,2023-08-09,1,,,,,リライフクリエイション,0
1608,5180001157544,新規,0,2023-08-09,2023-08-09,株式会社Ｇｌｏｂａｌ　Ｕｎｉｔｙ,,株式会社,愛知県,丹羽郡扶桑町,大字高雄字下山４５８番地,,23,362,4800102,,,,,,,2023-08-09,1,,,,,グローバルユニティ,0
1609,5180001157552,新規,0,2023-08-09,2023-08-09,株式会社ＳＣＡＬＥ,,株式会社,愛知県,大府市,江端町４丁目８６番地,,23,223,4740035,,,,,,,2023-08-09,1,,,,,スケール,0
1610,5180001157569,新規,0,2023-08-09,2023-08-09,株式会社吉田装建,,株式会社,愛知県,名古屋市港区,宝神町字元美１３２１番地の１（Ｉ棟）,,23,111,4550833,,,,,,,2023-08-09,1,,,,,ヨシダソウケン,0
1611,5180001157577,新規,0,2023-08-09,2023-08-09,株式会社リングレンタカー,,株式会社,愛知県,名古屋市東区,砂田橋４丁目１番５７号,,23,102,4610045,,,,,,,2023-08-09,1,,,,,リングレンタカー,0
1612,5180001157585,新規,0,2023-08-09,2023-08-09,株式会社ｌｉａｎ,,株式会社,愛知県,名古屋市西区,大金町３丁目２３番地フェリカメゾン大金１０１号,,23,104,4510082,,,,,,,2023-08-09,1,,,,,リアン,0
1613,5180001157593,新規,0,2023-08-09,2023-08-09,株式会社渡辺企画,,株式会社,愛知県,名古屋市中村区,名駅４丁目２４番５号,,23,105,4500002,,,,,,,2023-08-09,1,,,,,ワタナベキカク,0
1614,5180001157610,新規,0,2023-08-09,2023-08-09,株式会社高和,00131467,株式会社,愛知県,小牧市,小牧原３丁目６８番地,,23,219,4850829,,,,,,,2023-08-09,1,,,,,コウワ,0
1619,5180301037685,新規,0,2023-08-09,2023-08-09,株式会社Ｔｗｏ　Ｃ　Ｐａｒｔｎｅｒｓ,,株式会社,愛知県,豊橋市,船渡町字船渡１０４番地１,,23,201,4418072,,,,,,,2023-08-09,1,,,,,トゥーシーパートナーズ,0
1621,5190001030650,新規,0,2023-08-09,2023-08-09,株式会社ＺＵＭ,,株式会社,三重県,名張市,上本町１番地,,24,208,5180716,,,,,,,2023-08-09,1,,,,,ズム,0
1623,5200001041588,新規,0,2023-08-09,2023-08-09,株式会社のりのり建築,,株式会社,岐阜県,揖斐郡池田町,沓井９６３番地１３,,21,404,5032401,,,,,,,2023-08-09,1,,,,,ノリノリケンチク,0
1624,5200001041596,新規,0,2023-08-09,2023-08-09,Ｏｎｅ　Ｅａｒｔｈ株式会社,,株式会社,岐阜県,多治見市,昭和町４３,,21,204,5070836,,,,,,,2023-08-09,1,,,,,ワンアース,0
1627,5220001025548,新規,0,2023-08-09,2023-08-09,株式会社ＶＩＮＯ‐ＬＩＮＸ,,株式会社,石川県,金沢市,池田町四番丁２番地アプレ池田町・３０４号,,17,201,9200986,,,,,,,2023-08-09,1,,,,,ヴィノリンクス,0
1632,5240001061938,新規,0,2023-08-09,2023-08-09,株式会社ネクストグローバル,,株式会社,広島県,福山市,蔵王町５丁目４番３４－５号,,34,207,7210971,,,,,,,2023-08-09,1,,,,,ネクストグローバル,0
1636,5240003006255,新規,0,2023-08-09,2023-08-09,合同会社にいと,,合同会社,広島県,呉市,音戸町波多見１０丁目１２－２７,,34,202,7371207,,,,,,,2023-08-09,1,,,,,,0
1641,5260001038208,新規,0,2023-08-09,2023-08-09,株式会社アルファスカイ,,株式会社,岡山県,岡山市北区,今８丁目５番２９号,,33,101,7000975,,,,,,,2023-08-09,1,,,,,アルファスカイ,0
1642,5270003001550,新規,0,2023-08-09,2023-08-09,網本建材合同会社,,合同会社,鳥取県,鳥取市,賀露町北１丁目１３番５号,,31,201,6800907,,,,,,,2023-08-09,1,,,,,アミモトケンザイ,0
1650,5290001102563,新規,0,2023-08-09,2023-08-09,株式会社ＴＨＲＥＥ　Ｌ,,株式会社,福岡県,福岡市城南区,神松寺２丁目１３番３３－２０３号,,40,136,8140121,,,,,,,2023-08-09,1,,,,,スリーエル,0
1651,5290001102605,新規,0,2023-08-09,2023-08-09,株式会社太陽うなぎ,,株式会社,福岡県,福岡市南区,的場１丁目１８番３号,,40,134,8111314,,,,,,,2023-08-09,1,,,,,タイヨウウナギ,0
1652,5290001102621,新規,0,2023-08-09,2023-08-09,株式会社Ｂ２,,株式会社,福岡県,福岡市博多区,中洲４丁目７番６号,,40,132,8100801,,,,,,,2023-08-09,1,,,,,ビーツー,0
1660,5310001018559,新規,0,2023-08-09,2023-08-09,株式会社畑上工業,,株式会社,長崎県,大村市,杭出津３丁目４７０番地３,,42,205,8560828,,,,,,,2023-08-09,1,,,,,ハタガミコウギョウ,0
1664,5330001031122,新規,0,2023-08-09,2023-08-09,株式会社ひらた農園,,株式会社,熊本県,宇城市,小川町南新田５４０番地,,43,213,8690632,,,,,,,2023-08-09,1,,,,,ヒラタノウエン,0
1665,5330001031139,新規,0,2023-08-09,2023-08-09,株式会社ｅ企画,,株式会社,熊本県,熊本市南区,出仲間５丁目６番１－１１２号,,43,104,8620963,,,,,,,2023-08-09,1,,,,,イーキカク,0
1670,5340001025783,新規,0,2023-08-09,2023-08-09,株式会社グローバルＳＫ,,株式会社,鹿児島県,鹿児島市,鴨池２丁目２４番１５号エクセレント鴨池３０３号,,46,201,8900063,,,,,,,2023-08-09,1,,,,,グローバルエスケー,0
1671,5340001025791,新規,0,2023-08-09,2023-08-09,株式会社川崎農園,00131455,株式会社,鹿児島県,垂水市,市木４００番地１,,46,214,8912103,,,,,,,2023-08-09,1,,,,,,0
1672,5340001025800,新規,0,2023-08-09,2023-08-09,株式会社Ｓｅｎｔｉａ　Ｍａｉｓｏｎ,,株式会社,鹿児島県,鹿児島市,石谷町９１７番地１,,46,201,8992701,,,,,,,2023-08-09,1,,,,,センティアメゾン,0
1676,5350005006168,新規,0,2023-08-09,2023-08-09,一般社団法人いいちいき,,その他の設立登記法人,宮崎県,串間市,大字市木７３５２番地,,45,207,8893311,,,,,,,2023-08-09,1,,,,,イイチイキ,0
1677,5360001032381,新規,0,2023-08-09,2023-08-09,株式会社ＩＡＭ,,株式会社,沖縄県,石垣市,美崎町７番地１１,,47,207,9070012,,,,,,,2023-08-09,1,,,,,アイアム,0
1678,5360001032407,新規,0,2023-08-09,2023-08-09,株式会社ａｔａｒ,,株式会社,沖縄県,中頭郡嘉手納町,字嘉手納４８１番地,,47,325,9040203,,,,,,,2023-08-09,1,,,,,アタール,0
1681,5360003013173,新規,0,2023-08-09,2023-08-09,合同会社ｇｉｖｅ　ａｎｄ　ｔａｋｅ,,合同会社,沖縄県,中頭郡北谷町,字桑江３５０番地１０,,47,326,9040103,,,,,,,2023-08-09,1,,,,,ギブアンドテイク,0
1682,5360003013181,新規,0,2023-08-09,2023-08-09,合同会社仲田内装,,合同会社,沖縄県,国頭郡本部町,字瀬底６９１,,47,308,9050227,,,,,,,2023-08-09,1,,,,,ナカダナイソウ,0
1685,5370001050283,新規,0,2023-08-09,2023-08-09,株式会社ＧＯＯＤ　ＷＯＯＤ　ＤＥＡＬ,,株式会社,宮城県,大崎市,岩出山上野目字中川原５２番地４３,,04,215,9896403,,,,,,,2023-08-09,1,,,,,グットウッドディール,0
1688,5370003006234,新規,0,2023-08-09,2023-08-09,リストエンジニアリング合同会社,,合同会社,宮城県,仙台市宮城野区,苦竹２丁目２番４０－４０１号,,04,102,9830036,,,,,,,2023-08-09,1,,,,,リストエンジニアリング,0
1693,5380001033898,新規,0,2023-08-09,2023-08-09,株式会社ＨｅｌｌｏＷｏｒｌｄｓ,,株式会社,福島県,福島市,大町１番１３号,,07,201,9608041,,,,,,,2023-08-09,1,,,,,ハローワールズ,0
1696,5380005012733,新規,0,2023-08-09,2023-08-09,一般社団法人アエラス,,その他の設立登記法人,福島県,福島市,野田町２丁目３番２０号,,07,201,9608055,,,,,,,2023-08-09,1,,,,,アエラス,0
1697,5390001017347,新規,0,2023-08-09,2023-08-09,株式会社アテンド,,株式会社,山形県,鶴岡市,みどり町３２－４５,,06,203,9970046,,,,,,,2023-08-09,1,,,,,,0
1701,5400001016339,新規,0,2023-08-09,2023-08-09,若宮商事株式会社,,株式会社,岩手県,盛岡市,盛岡駅西通１丁目９番３－１１０９号,,03,201,0200045,,,,,,,2023-08-09,1,,,,,ワカミヤショウジ,0
1702,5400002017567,新規,0,2023-08-09,2023-08-09,有限会社一建工業,,有限会社,岩手県,盛岡市,山岸６丁目２５番２４号,,03,201,0200004,,,,,,,2023-08-09,1,,,,,イッケンコウギョウ,0
1704,5410001013558,新規,0,2023-08-09,2023-08-09,秋田イノベーション株式会社,,株式会社,秋田県,秋田市,広面字鍋沼２９番地１,,05,201,0100041,,,,,,,2023-08-09,1,,,,,,0
1715,5460103001547,新規,0,2023-08-09,2023-08-09,合同会社ＧｒｏｗｔｈＶｉｓｉｏｎ,,合同会社,北海道,帯広市,西十六条南５丁目９番１６号コサージュＩＩＩ３－Ａ,00131458,01,207,0800026,,,,,,,2023-08-09,1,,,,,グロースビジョン,0
1717,5470003002470,新規,0,2023-08-09,2023-08-09,ｆｉｅｌｄ．合同会社,,合同会社,香川県,仲多度郡多度津町,寿町４番３４号,,37,404,7640025,,,,,,,2023-08-09,1,,,,,フィールド,0
1719,5700150118665,新規,0,2023-08-09,2023-07-28,立江学童保育クラブ,,その他,徳島県,小松島市,立江町字松本３４番地の３,,36,203,7730017,,,,,,,2023-07-28,1,,,,,タツエガクドウホイククラブ,0
1720,5700150118715,新規,0,2023-08-09,2023-08-01,静岡花いっぱいプロジェクト（ＳＨｉＰ）,,その他,静岡県,静岡市葵区,流通センター４－４,,22,101,4200922,,,,,,,2023-08-01,1,,,,,シズオカハナイツパイプロジエクトシツプ,0
1721,5700150118896,新規,0,2023-08-09,2023-08-09,Ｓｈｅｎｚｈｅｎ　Ｎａｎｇｕａ　Ｓｕｐｐｌｙ　Ｃｈａｉｎ　Ｍａｎａｇｅｍｅｎｔ　Ｃｏ．，Ｌｔｄ,,外国会社等,,,,,,,,１０１，Ｎｏ．１，Ｘｉｙｉ　Ｌａｎｅ，Ｘｉｎｈｅ　Ｃｏｍｍｕｎｉｔｙ，Ｆｕｈａｉ　Ｓｔｒｅｅｔ　Ｂａｏａｎ　Ｄｉｓｔｒｉｃｔ　Ｓｈｅｎｚｈｅｎ　Ｇｕａｎｇｄｏｎｇ　ＣＮ,,,,,,2023-08-09,1,,,,,シンセンナングゥアサプライチェインマネージメントカンパニーリミテッド,0
1722,5700150118905,新規,0,2023-08-09,2023-08-09,ＤｏｎｇＧｕａｎ　ＳｈａｎＤｉａｎＹｉＤｉａｎＺｉＳｈａｎｇＷｕ　ＹｏｕＸｉａｎＧｏｎｇＳｉ,,外国会社等,,,,,,,,Ｎｏ．３２２，ＨｕａＫａｉＨｕｏＬｉ　Ｃｅｎｔｅｒ，ＺａｎＨｕａ　Ｒｏａｄ，ＳｈｅｎｇＨｅＳｈｅＱｕ，ＮａｎＣｈｅｎｇＪｉｅＤａｏ　Ｄｏｎｇｇｕａｎ　Ｇｕａｎｇｄｏｎｇ　ＣＮ,,,,,,2023-08-09,1,,,,,ドングゥアンサンデェンイデンシシャンウユウゲンコウシ,0
1723,5700150118913,新規,0,2023-08-09,2023-08-09,ＹＩＣＨＡＮＧＳＨＩＣＯＮＧＡＮＭＡＯＹＩＹＯＵＸＩＡＮＧＯＮＧＳＩ,,外国会社等,,,,,,,,ｙｕｙａｎｇｂａｎｓｈｉｃｈｕｄｏｎｇｑｕｎｃｕｎｓａｎｚｕ２１ｈａｏ　ｄａｎｇｙａｎｇｓｈｉ　ｈｕｂｅｉｓｈｅｎｇ　４４４１００　ＣＮ,,,,,,2023-08-09,1,,,,,イーチャンシーツォンアンマオイーヨウシエンゴンスー,0
1724,5700150118921,新規,0,2023-08-09,2023-08-09,Ｓｈｅｎｚｈｅｎ　Ｌｅｉ　Ｊｉｎｇ　Ｋｅ　Ｊｉ　Ｙｏｕ　Ｘｉａｎ　Ｇｏｎｇ　Ｓｉ,,外国会社等,,,,,,,,Ｘｉｎ’ａｎ　Ｓｔｒｅｅｔ　８　Ｑｕ　Ｂａｏ’ａｎ　Ｘｉｎｙｅ　Ｃｕｎ　Ｍａｌｌ－１３，Ｘｉｎ’ａｎ　Ｈｕ　Ｈｕａｙｕａｎ　ＳＨＥＮＺＨＥＮ　ＧＵＡＮＧＤＯＮＧ,,,,,,2023-08-09,1,,,,,シンセンシライゲイカギユウゲンコウシ,0
1725,5700150118938,新規,0,2023-08-09,2023-08-09,Ｓｈｅｎｚｈｅｎ　Ｈｅｎｇｍａｏｌｏｎｇ　Ｋｅｊｉ　Ｙｏｕ　Ｘｉａｎ　Ｇｏｎｇ　Ｓｉ,,外国会社等,,,,,,,,Ｂａｏａｎｑｕ８２ｑｕ　Ｙｕｌｖｌｕ　ｆｅｎｇｔａｉｌｏｕ　２－９　ｆｌｏｏｒ　ｂｕｉｌｄｉｎｇ　１，２　ｆｌｏｏｒ　Ｒｏｏｍ　２１０　Ｓｈｅｎｚｈｅｎ　Ｇｕａｎｇｄｏｎｇ　ＣＮ,,,,,,2023-08-09,1,,,,,シンセンヘンマオロンカギユウゲンコウシ,0
1726,5700150118946,新規,0,2023-08-09,2023-08-09,Ｂｅｉｊｉｎｇ　Ｋｕｎｐｅｎｇｙｏｕ　Ｉｎｆｏｒｍａｔｉｏｎ　Ｃｏｎｓｕｌｔｉｎｇ　Ｃｏ．，Ｌｔｄ,,外国会社等,,,,,,,,Ｂｅｉ　ｊｉｎｇ　ｓｈｉ　ｈａｉ　ｄｉａｎ　ｑｕ　ｑｉｎｇ　ｈｅ　ｊｉａ　ｙｕａｎ　ｄｏｎｇ　ｑｕ　ｊｉａ　１ｈａｏ　ｌｏｕ　１５　ｃｅｎｇ　１５１７,,,,,,2023-08-09,1,,,,,ペキンクンペンユウインフォメーションコンサルティングカンパニーリミテッド,0
1727,5700150118954,新規,0,2023-08-09,2023-08-09,Ｓｈｅｎｚｈｅｎ　Ｔｏｐｗａｙ　Ｃｅｎｔｕｒｙ　Ｔｅｃｈｎｏｌｏｇｙ　Ｌｔｄ．,00131361,外国会社等,,,,,,,,８０３，Ｎｕｍｂｅｒ　４，Ｌａｎｅ　７，Ｊｕｅｙｕａｎ　Ｓｏｕｔｈ，ｓｈａｊｉｎｇ　Ｔｏｗｎ，Ｂａｏ’ａｎ　Ｄｉｓｔｒｉｃｔ，Ｓｈｅｎｚｈｅｎ　ｃｉｔｙ，Ｇｕａｎｇｄｏｎｇ　Ｐｒｏｖｉｎｃｅ，Ｃｈｉｎａ,,,,,,2023-08-09,1,,,,,シェンジェンシートゥオウェイシージーコージーヨウシエンゴンスー,0
1728,5700150118962,新規,0,2023-08-09,2023-08-09,嘉興遊戲丙商貿有限公司,,外国会社等,,,,,,,,中国浙江省嘉興市経済技術開発区城南街道嘉興市頤高数碼大厦１－２幢３Ｆ楼友会衆創空間１４７号工位,,,,,,2023-08-09,1,,,,,カコウユウギヘイショウボウユウゲンコウシ,0
1731,6010001237502,新規,0,2023-08-09,2023-08-09,性能向上リノベーション株式会社,,株式会社,東京都,文京区,千石４丁目３６－１１フォーラム千石２０１,,13,105,1120011,,,,,,,2023-08-09,1,,,,,セイノウコウジョウリノベーション,0
1732,6010001237510,新規,0,2023-08-09,2023-08-09,株式会社ＵＰＳＨＩＦＴ,,株式会社,東京都,千代田区,九段南１丁目５番６号りそな九段ビル５Ｆ・ＫＳフロア,,13,101,1020074,,,,,,,2023-08-09,1,,,,,アップシフト,0
1733,6010001237527,新規,0,2023-08-09,2023-08-09,Ｔｒｅａｓｕｒｅ　Ｓｐａｃｅ株式会社,,株式会社,東京都,中央区,新富１丁目５番１３号,,13,102,1040041,,,,,,,2023-08-09,1,,,,,トレジャースペース,0
1734,6010001237543,新規,0,2023-08-09,2023-08-09,ＡｕｒｏｒａＷｏｒｋｓ株式会社,,株式会社,東京都,中央区,銀座１丁目１２番４号Ｎ＆ＥＢＬＤ．６Ｆ,,13,102,1040061,,,,,,,2023-08-09,1,,,,,オーロラワークス,0
1735,6010001237568,新規,0,2023-08-09,2023-08-09,株式会社Ｇｅｎｏｒｅ,,株式会社,東京都,中央区,銀座８丁目１０番５号ＤＥＮＳＡＮビルＧ－６０２２８,,13,102,1040061,,,,,,,2023-08-09,1,,,,,ジェノア,0
1736,6010001237584,新規,0,2023-08-09,2023-08-09,ＩＮＳＴＡＮＤＡＲＤ株式会社,,株式会社,東京都,千代田区,岩本町３丁目７番１６号井門岩本町第２ビル５階,,13,101,1010032,,,,,,,2023-08-09,1,,,,,インスタンダード,0
1741,6010003041290,新規,0,2023-08-09,2023-08-09,Ｓｏｎｎｅｎｂｌｕｍｅ第二発電所合同会社,,合同会社,東京都,文京区,本郷５丁目３３番１０号,,13,105,1130033,,,,,,,2023-08-09,1,,,,,ゾーネンブルーメダイニハツデンショ,0
1742,6010003041299,新規,0,2023-08-09,2023-08-09,アレスワークス合同会社,,合同会社,東京都,千代田区,岩本町１丁目２番１３号渡東ビル３階,,13,101,1010032,,,,,,,2023-08-09,1,,,,,アレスワークス,0
1743,6010003041308,新規,0,2023-08-09,2023-08-09,日本総合投資運用合同会社,,合同会社,東京都,中央区,銀座８丁目５番４号,,13,102,1040061,,,,,,,2023-08-09,1,,,,,ニッポンソウゴウトウシウンヨウ,0
1744,6010003041316,新規,0,2023-08-09,2023-08-09,合同会社センチュリー１８８,,合同会社,東京都,文京区,大塚２丁目１番１５号２階,,13,105,1120012,,,,,,,2023-08-09,1,,,,,,0
1745,6010003041324,新規,0,2023-08-09,2023-08-09,インディゴ合同会社,,合同会社,東京都,千代田区,神田司町２丁目２番地１１,,13,101,1010048,,,,,,,2023-08-09,1,,,,,インディゴ,0
1748,6010005037072,新規,0,2023-08-09,2023-08-09,一般社団法人メディケアドクター,,その他の設立登記法人,東京都,中央区,日本橋浜町１丁目１０番９号Ｐｒｅｃｉｏｕｓ日本橋浜町６０２,,13,102,1030007,,,,,,,2023-08-09,1,,,,,メディケアドクター,0
1749,6010101015766,新規,0,2023-08-09,2023-08-09,株式会社ＯｒｕＦｕｎ,,株式会社,東京都,八王子市,明神町３丁目２０番５号エイトビル３Ｆ－３３,,13,201,1920046,,,,,,,2023-08-09,1,,,,,オルフォン,0
1753,6010401176218,新規,0,2023-08-09,2023-08-09,ＣＦＳ株式会社,,株式会社,東京都,港区,白金台３丁目７－２９－２０２,,13,103,1080071,,,,,,,2023-08-09,1,,,,,シーエフエス,0
1754,6010401176267,新規,0,2023-08-09,2023-08-09,株式会社ＣＨＥＦ　ＰＡＬＥ,,株式会社,東京都,港区,新橋１丁目１２番９号７Ｆ,,13,103,1050004,,,,,,,2023-08-09,1,,,,,シェフパレ,0
1755,6010401176366,新規,0,2023-08-09,2023-08-09,株式会社イボルバパートナーズ,,株式会社,東京都,港区,浜松町２丁目２番１５号浜松町ダイヤビル２Ｆ,,13,103,1050013,,,,,,,2023-08-09,1,,,,,イボルバパートナーズ,0
1756,6010401176416,新規,0,2023-08-09,2023-08-09,西原ホールディングス株式会社,,株式会社,東京都,港区,芝浦３丁目６番１８号西原ビル,,13,103,1080023,,,,,,,2023-08-09,1,,,,,ニシハラホールディングス,0
1761,6010405022343,新規,0,2023-08-09,2023-08-09,一般社団法人世界再生予防医学協会,,その他の設立登記法人,東京都,港区,白金台５丁目１８番１８号Ｂａｒｂｉｚｏｎ１８ビル１階,,13,103,1080071,,,,,,,2023-08-09,1,,,,,セカイサイセイヨボウイガクキョウカイ,0
1763,6010501050875,新規,0,2023-08-09,2023-08-09,マルチウエー・ロボティクス・ニホン株式会社,,株式会社,東京都,台東区,台東１丁目２４番９号ブライト秋葉原Ｂ１Ｆ,,13,106,1100016,,,,,,,2023-08-09,1,,,,,マルチウエーロボティクスニホン,0
1765,6010503007114,新規,0,2023-08-09,2023-08-09,合同会社ＹＸＲ,,合同会社,東京都,台東区,駒形１丁目７番６－２０９号柳恵キングハイツＡ棟,,13,106,1110043,,,,,,,2023-08-09,1,,,,,ワイエックスアール,0
1767,6010601063587,新規,0,2023-08-09,2023-08-09,株式会社ＭｅｄｉＡｌｐｈａ,,株式会社,東京都,墨田区,文花１丁目１８－１３,,13,107,1310044,,,,,,,2023-08-09,1,,,,,メディアルファ,0
1768,6010603010298,新規,0,2023-08-09,2023-08-09,ＫＤコンサルティング合同会社,,合同会社,東京都,江東区,東雲１丁目９番５０－５０６号,,13,108,1350062,,,,,,,2023-08-09,1,,,,,ケーディーコンサルティング,0
1770,6010701044702,新規,0,2023-08-09,2023-08-09,株式会社滝沢商店,,株式会社,東京都,品川区,西五反田４丁目６番２号サンムラカミ１６番館２０２,,13,109,1410031,,,,,,,2023-08-09,1,,,,,タキザワショウテン,0
1773,6010901053585,新規,0,2023-08-09,2023-08-09,株式会社Ｌａｌａｌｕ,,株式会社,東京都,世田谷区,南烏山６丁目３番３号サニーサイドビル１階,,13,112,1570062,,,,,,,2023-08-09,1,,,,,ララルー,0
1774,6010901053593,新規,0,2023-08-09,2023-08-09,株式会社ａｔｅｌｉｅｒ　ＥＲＩＣＡ,,株式会社,東京都,世田谷区,等々力４丁目９番３号,,13,112,1580082,,,,,,,2023-08-09,1,,,,,アトリエエリカ,0
1783,6011001156163,新規,0,2023-08-09,2023-08-09,株式会社クスリの知識ナビ,,株式会社,東京都,渋谷区,道玄坂１丁目１０番８号渋谷道玄坂東急ビル２Ｆ－Ｃ,,13,113,1500043,,,,,,,2023-08-09,1,,,,,クスリノチシキナビ,0
1784,6011001156171,新規,0,2023-08-09,2023-08-09,株式会社シンシア,,株式会社,東京都,渋谷区,宇田川町３３番８号５Ｆ,,13,113,1500042,,,,,,,2023-08-09,1,,,,,シンシア,0
1785,6011001156205,新規,0,2023-08-09,2023-08-09,株式会社グランデール,,株式会社,東京都,目黒区,目黒本町６丁目１６番５号,,13,110,1520002,,,,,,,2023-08-09,1,,,,,グランデール,0
1786,6011001156262,新規,0,2023-08-09,2023-08-09,株式会社ＴＲＵＮＫ５,,株式会社,東京都,目黒区,中目黒４丁目１番４号市川ビル１階,,13,110,1530061,,,,,,,2023-08-09,1,,,,,トランクファイブ,0
1787,6011003017347,新規,0,2023-08-09,2023-08-09,山根敏史デザイン事務所合同会社,,合同会社,東京都,渋谷区,代官山町８番６号,,13,113,1500034,,,,,,,2023-08-09,1,,,,,ヤマネサトシデザインジムショ,0
1792,6011101103932,新規,0,2023-08-09,2023-08-09,株式会社ＴＷコーポレーション,,株式会社,東京都,新宿区,西新宿７丁目５番９－１９１０号,,13,104,1600023,,,,,,,2023-08-09,1,,,,,ティーダブリューコーポレーション,0
1793,6011101103957,新規,0,2023-08-09,2023-08-09,株式会社ＨＡＬＯ,,株式会社,東京都,新宿区,西新宿３丁目３番１３号西新宿水間ビル２Ｆ,,13,104,1600023,,,,,,,2023-08-09,1,,,,,ハロー,0
1795,6011103013353,新規,0,2023-08-09,2023-08-09,合同会社トータルネット,,合同会社,東京都,新宿区,西新宿３丁目３番１３号西新宿水間ビル２Ｆ,,13,104,1600023,,,,,,,2023-08-09,1,,,,,トータルネット,0
1796,6011103013361,新規,0,2023-08-09,2023-08-09,Ｍｒ．＆Ｍｒｓ．Ａｂｅ合同会社,,合同会社,東京都,新宿区,袋町５番地１ＦＡＲＯ神楽坂１階,,13,104,1620828,,,,,,,2023-08-09,1,,,,,ミスターアンドミセスアベ,0
1798,6011105010745,新規,0,2023-08-09,2023-08-09,一般社団法人感動こども協会,,その他の設立登記法人,東京都,新宿区,西新宿１丁目２４番１号,,13,104,1600023,,,,,,,2023-08-09,1,,,,,カンドウコドモキョウカイ,0
1799,6011201024822,新規,0,2023-08-09,2023-08-09,株式会社ノウデル,,株式会社,東京都,中野区,東中野１丁目５９－４コリンズ４９－５０２,,13,114,1640003,,,,,,,2023-08-09,1,,,,,ノウデル,0
1800,6011201024847,新規,0,2023-08-09,2023-08-09,株式会社甲亜塗工,,株式会社,東京都,中野区,本町４丁目２４番１３号,,13,114,1640012,,,,,,,2023-08-09,1,,,,,コウアトコウ,0
1804,6011601027037,新規,0,2023-08-09,2023-08-09,株式会社ｐｕｌｌｏｆｆ,,株式会社,東京都,練馬区,石神井台５丁目２２－３１,,13,120,1770045,,,,,,,2023-08-09,1,,,,,プルオフ,0
1805,6011601027045,新規,0,2023-08-09,2023-08-09,ａｎｃｈｅｓｈｉ株式会社,,株式会社,東京都,練馬区,関町北２丁目３１番７号関町ハイツ１０２,,13,120,1770051,,,,,,,2023-08-09,1,,,,,アンケシ,0
1806,6011703003555,新規,0,2023-08-09,2023-08-09,カンタンライフ合同会社,,合同会社,東京都,江戸川区,平井５丁目４５番５号渡辺ハイツ１０１,,13,123,1320035,,,,,,,2023-08-09,1,,,,,カンタンライフ,0
1807,6011801042851,新規,0,2023-08-09,2023-08-09,株式会社がんばるぞ,,株式会社,東京都,葛飾区,柴又１丁目４８番１１－２０２号,,13,122,1250052,,,,,,,2023-08-09,1,,,,,ガンバルゾ,0
1808,6011803005773,新規,0,2023-08-09,2023-08-09,合同会社ｎａｍｅｌｅｓｓ,,合同会社,東京都,足立区,千住旭町３番１３号鈴木ハウス３号棟,,13,121,1200026,,,,,,,2023-08-09,1,,,,,ネームレス,0
1809,6012401040840,新規,0,2023-08-09,2023-08-09,株式会社ＬＯＣ,,株式会社,東京都,稲城市,百村５９５番地の９,,13,225,2060804,,,,,,,2023-08-09,1,,,,,エルオシー,0
1812,6012403006113,新規,0,2023-08-09,2023-08-09,Ｔｏｋｙｏ　Ａｌｌｅｙ合同会社,,合同会社,東京都,多摩市,和田１３４６番地１６,,13,224,2060001,,,,,,,2023-08-09,1,,,,,トウキョウアリー,0
1814,6012801022562,新規,0,2023-08-09,2023-08-09,株式会社スワロー電気防災,,株式会社,東京都,日野市,三沢１丁目１４番地の１５伊藤ビル１０３号室,,13,212,1910032,,,,,,,2023-08-09,1,,,,,スワローデンキボウサイ,0
1819,6020001152782,新規,0,2023-08-09,2023-08-09,イソムラ株式会社,,株式会社,神奈川県,横浜市西区,久保町２－１０－１０２,,14,103,2200061,,,,,,,2023-08-09,1,,,,,イソムラ,0
1820,6020001152964,新規,0,2023-08-09,2023-08-09,クマラ株式会社,,株式会社,神奈川県,川崎市中原区,上小田中３丁目２７番４１－３号,,14,133,2110053,,,,,,,2023-08-09,1,,,,,クマラ,0
1822,6020003024360,新規,0,2023-08-09,2023-08-09,合同会社ラッキー,,合同会社,神奈川県,横浜市中区,新山下１丁目１０番８号エルズ元町１０１号,,14,104,2310801,,,,,,,2023-08-09,1,,,,,ラッキー,0
1823,6020005016083,新規,0,2023-08-09,2023-08-09,特定非営利活動法人二輪文化を伝える会,,その他の設立登記法人,神奈川県,横浜市保土ケ谷区,法泉２丁目１７番１６－５０８号,,14,106,2400032,,,,,,,2023-08-09,1,,,,,ニリンブンカヲツタエルカイ,0
1824,6021001079652,新規,0,2023-08-09,2023-08-09,興和首都圏株式会社,,株式会社,神奈川県,相模原市中央区,横山２丁目１－１７,,14,152,2520242,,,,,,,2023-08-09,1,,,,,コウワシュトケン,0
1825,6021001079735,新規,0,2023-08-09,2023-08-09,株式会社Ｇｌｏｂａｌ　Ｐａｒｔｎｅｒｓ,,株式会社,神奈川県,茅ヶ崎市,松が丘１丁目１番９０号,,14,207,2530025,,,,,,,2023-08-09,1,,,,,グローバルパートナーズ,0
1826,6021001079842,新規,0,2023-08-09,2023-08-09,株式会社ＤＩＮＧＯ,,株式会社,神奈川県,鎌倉市,七里ガ浜２丁目１番４５号,,14,204,2480026,,,,,,,2023-08-09,1,,,,,ディンゴ,0
1831,6030001155058,新規,0,2023-08-09,2023-08-09,りんご株式会社,,株式会社,埼玉県,深谷市,人見２０４０番地１０,,11,218,3660811,,,,,,,2023-08-09,1,,,,,リンゴ,0
1832,6030001155090,新規,0,2023-08-09,2023-08-09,株式会社アワシン,,株式会社,埼玉県,所沢市,大字中富２２６番地の１６ロジュマンシューベルブ１０１,,11,208,3590002,,,,,,,2023-08-09,1,,,,,アワシン,0
1833,6030001155157,新規,0,2023-08-09,2023-08-09,源恒株式会社,,株式会社,埼玉県,蕨市,中央４丁目２番２号２Ｄ号室,,11,223,3350004,,,,,,,2023-08-09,1,,,,,ゲンコウ,0
1834,6030001155173,新規,0,2023-08-09,2023-08-09,シックスセブン株式会社,,株式会社,埼玉県,ふじみ野市,ふじみ野３丁目５番７号,,11,245,3560050,,,,,,,2023-08-09,1,,,,,シックスセブン,0
1835,6030001155198,新規,0,2023-08-09,2023-08-09,株式会社桑志,,株式会社,埼玉県,入間市,久保稲荷５丁目５番地１５,,11,225,3580024,,,,,,,2023-08-09,1,,,,,ソウシ,0
1843,6040001129564,新規,0,2023-08-09,2023-08-09,株式会社西尚,,株式会社,千葉県,旭市,東足洗２７５６番地８,,12,215,2892512,,,,,,,2023-08-09,1,,,,,サイショウ,0
1844,6040001129572,新規,0,2023-08-09,2023-08-09,株式会社ハジメ,,株式会社,千葉県,千葉市中央区,青葉町１２７６番地３,,12,101,2600852,,,,,,,2023-08-09,1,,,,,ハジメ,0
1845,6040001129580,新規,0,2023-08-09,2023-08-09,株式会社鈴木,,株式会社,千葉県,千葉市緑区,あすみが丘５丁目２１番地６,,12,105,2670066,,,,,,,2023-08-09,1,,,,,スズキ,0
1846,6040001129589,新規,0,2023-08-09,2023-08-09,フィナバンク株式会社,,株式会社,千葉県,千葉市美浜区,若葉３丁目１番地１８幕張ベイパーククロスレジデンスＳ２－１,,12,106,2610014,,,,,,,2023-08-09,1,,,,,フィナバンク,0
1847,6040001129597,新規,0,2023-08-09,2023-08-09,株式会社セントセルコーポレーション,,株式会社,千葉県,千葉市中央区,宮崎町５６１番地１,,12,101,2600805,,,,,,,2023-08-09,1,,,,,セントセルコーポレーション,0
1848,6040001129606,新規,0,2023-08-09,2023-08-09,株式会社ワンオーシャン,,株式会社,千葉県,市川市,菅野２丁目１８番７号,,12,203,2720824,,,,,,,2023-08-09,1,,,,,ワンオーシャン,0
1849,6040001129614,新規,0,2023-08-09,2023-08-09,株式会社タナカ建設,,株式会社,千葉県,東金市,川場１０７２番地２ヴィレ・ニ・カンパーニャＩＩ１０４,00131454,12,213,2830064,,,,,,,2023-08-09,1,,,,,タナカケンセツ,0
1850,6040001129622,新規,0,2023-08-09,2023-08-09,株式会社仁建工,,株式会社,千葉県,千葉市緑区,辺田町２６５番地,,12,105,2660007,,,,,,,2023-08-09,1,,,,,ジンケンコウ,0
1857,6050001053292,新規,0,2023-08-09,2023-08-09,株式会社ＭＳ住設,,株式会社,茨城県,水戸市,酒門町４８６９番地３,,08,201,3100841,,,,,,,2023-08-09,1,,,,,エムエスジュウセツ,0
1860,6060001036222,新規,0,2023-08-09,2023-08-09,ジャパングレープ株式会社,,株式会社,栃木県,宇都宮市,戸祭町２６３８番１２,,09,201,3200053,,,,,,,2023-08-09,1,,,,,ジャパングレープ,0
1861,6070001040735,新規,0,2023-08-09,2023-08-09,株式会社Ｔｅａｍ　ＳｔａｒＤｕｓｔ,,株式会社,群馬県,沼田市,上発知町２５４３番地８１,,10,206,3780071,,,,,,,2023-08-09,1,,,,,チームスターダスト,0
1862,6070003005059,新規,0,2023-08-09,2023-08-09,フランジ合同会社,,合同会社,群馬県,高崎市,日高町１１１２番地１ラフィネ１０１,,10,202,3700002,,,,,,,2023-08-09,1,,,,,フランジ,0
1864,6080003003029,新規,0,2023-08-09,2023-08-09,合同会社ＹＯＵＲＬＩＦＥ,,合同会社,静岡県,静岡市葵区,鷹匠２丁目８番１０号静鉄鷹二センタービル３階,,22,101,4200839,,,,,,,2023-08-09,1,,,,,ユアライフ,0
1867,6080401026663,新規,0,2023-08-09,2023-08-09,株式会社ダイア,,株式会社,静岡県,袋井市,高尾１０１３番地,,22,216,4370023,,,,,,,2023-08-09,1,,,,,ダイア,0
1870,6100001036663,新規,0,2023-08-09,2023-08-09,株式会社ＫＯＢＡＫＩＮ,,株式会社,長野県,小諸市,大字御影新田２５０５番地２８,,20,208,3840808,,,,,,,2023-08-09,1,,,,,コバキン,0
1872,6100003007142,新規,0,2023-08-09,2023-08-09,合同会社恵人,,合同会社,長野県,長野市,大字徳間５６６－５,,20,201,3810041,,,,,,,2023-08-09,1,,,,,ケイジン,0
1876,6110001037743,新規,0,2023-08-09,2023-08-09,株式会社磯貝測量,,株式会社,新潟県,上越市,大字三ツ橋新田１０１１番地１,,15,222,9420044,,,,,,,2023-08-09,1,,,,,イソガイソクリョウ,0
1877,6110001037751,新規,0,2023-08-09,2023-08-09,株式会社ＳＮプランニング,,株式会社,新潟県,新潟市中央区,幸西３丁目５番３３号,,15,103,9500908,,,,,,,2023-08-09,1,,,,,エスエヌプランニング,0
1883,6120001256986,新規,0,2023-08-09,2023-08-09,株式会社ｄｏ　ｉｔ,,株式会社,大阪府,大阪市浪速区,桜川４丁目１４番２１－２０４号,,27,111,5560022,,,,,,,2023-08-09,1,,,,,ドゥーイット,0
1884,6120001257002,新規,0,2023-08-09,2023-08-09,株式会社ぐるり,,株式会社,大阪府,大阪市中央区,淡路町３丁目１番８号,,27,128,5410047,,,,,,,2023-08-09,1,,,,,グルリ,0
1885,6120001257142,新規,0,2023-08-09,2023-08-09,株式会社ＨＩＣ,,株式会社,大阪府,大阪市北区,梅田１丁目１１番４－９２３号大阪駅前第４ビル９階,,27,127,5300001,,,,,,,2023-08-09,1,,,,,エイチアイシー,0
1886,6120001257200,新規,0,2023-08-09,2023-08-09,ハイカラデザインラボ株式会社,,株式会社,大阪府,大阪市福島区,鷺洲５丁目１２番１－１６１４号,,27,103,5530002,,,,,,,2023-08-09,1,,,,,ハイカラデザインラボ,0
1887,6120001257209,新規,0,2023-08-09,2023-08-09,株式会社Ａｍｂｏｓ,,株式会社,大阪府,大阪市北区,中津６丁目８番１０号,,27,127,5310071,,,,,,,2023-08-09,1,,,,,アンボス,0
1888,6120001257258,新規,0,2023-08-09,2023-08-09,ＳＩＴ‐Ａｇｅｎｔ株式会社,,株式会社,大阪府,大阪市淀川区,東三国６丁目１３番５号,,27,123,5320002,,,,,,,2023-08-09,1,,,,,エスアイティーエージェント,0
1891,6120003024631,新規,0,2023-08-09,2023-08-09,Ｃｒｙｓｔａｌ　Ｍｉｅｕｘ合同会社,,合同会社,大阪府,大阪市天王寺区,北河堀町１０－８－１８０６,,27,109,5430053,,,,,,,2023-08-09,1,,,,,クリスタルミュー,0
1892,6120003024680,新規,0,2023-08-09,2023-08-09,合同会社リノベスト工務店,,合同会社,大阪府,寝屋川市,高柳２丁目５０番２－１０１号,,27,215,5720051,,,,,,,2023-08-09,1,,,,,リノベストコウムテン,0
1893,6120005023813,新規,0,2023-08-09,2023-08-09,税理士法人ライジング,,その他の設立登記法人,大阪府,大阪市中央区,淡路町４丁目３番１０号ＴＭＭビル４階,,27,128,5410047,,,,,,,2023-08-09,1,,,,,ライジング,0
1897,6120101068010,新規,0,2023-08-09,2023-08-09,住まい流通株式会社,,株式会社,大阪府,堺市北区,百舌鳥赤畑町１丁８番地４,,27,146,5918037,,,,,,,2023-08-09,1,,,,,スマイリュウツウ,0
1898,6120101068035,新規,0,2023-08-09,2023-08-09,株式会社Ｍｉｃｅｌｌｅ,,株式会社,大阪府,阪南市,さつき台１丁目１２番２号,,27,232,5990215,,,,,,,2023-08-09,1,,,,,ミセル,0
1900,6120103005366,新規,0,2023-08-09,2023-08-09,合同会社Ａｔｏｒｉｅｅｌｓ,,合同会社,大阪府,羽曳野市,高鷲５丁目４３０番地の２０,,27,222,5830882,,,,,,,2023-08-09,1,,,,,アトリエールス,0
1902,6120901047898,新規,0,2023-08-09,2023-08-09,Ｒｉｖｅｒ　Ｍｏｏｎ株式会社,,株式会社,大阪府,豊中市,新千里東町１丁目４番１号阪急千里中央ビル８階,,27,203,5600082,,,,,,,2023-08-09,1,,,,,リバームーン,0
1904,6122001037243,新規,0,2023-08-09,2023-08-09,株式会社山本産業,,株式会社,大阪府,柏原市,上市２丁目５番１９号,,27,221,5820007,,,,,,,2023-08-09,1,,,,,ヤマモトサンギョウ,0
1905,6122001037251,新規,0,2023-08-09,2023-08-09,山口電気工業株式会社,,株式会社,大阪府,東大阪市,横小路町４丁目８番１４－５１１２号,,27,227,5798063,,,,,,,2023-08-09,1,,,,,ヤマグチデンキコウギョウ,0
1910,6130001074974,新規,0,2023-08-09,2023-08-09,株式会社ｓｐｒｏｕｔ,,株式会社,京都府,京都市下京区,油小路通四条下る石井筒町５１９番地イーグルコート四条烏丸ＷＥＳＴ９０５号,,26,106,6008496,,,,,,,2023-08-09,1,,,,,スプラウト,0
1914,6130005016832,新規,0,2023-08-09,2023-08-09,一般社団法人空家空地相続相談センター,,その他の設立登記法人,京都府,京都市右京区,太秦多藪町１４番地の７６,,26,108,6168167,,,,,,,2023-08-09,1,,,,,アキヤアキチソウゾクソウダンセンター,0
1918,6140001131097,新規,0,2023-08-09,2023-08-09,株式会社孝栄商会,,株式会社,兵庫県,神戸市垂水区,小束台８６８番地の１１００,,28,108,6550008,,,,,,,2023-08-09,1,,,,,コウエイショウカイ,0
1919,6140001131205,新規,0,2023-08-09,2023-08-09,株式会社ＪＡＵ,,株式会社,兵庫県,姫路市,打越３８８番地３,,28,201,6712246,,,,,,,2023-08-09,1,,,,,ジャウー,0
1920,6140003019398,新規,0,2023-08-09,2023-08-09,足立美装合同会社,,合同会社,兵庫県,神戸市西区,月が丘５丁目１番地の４、１－７０９号,,28,111,6512217,,,,,,,2023-08-09,1,,,,,アダチビソウ,0
1921,6150001026627,新規,0,2023-08-09,2023-08-09,奈良・先端画像技術株式会社,,株式会社,奈良県,生駒市,高山町８９１６番地１２,,29,209,6300101,,,,,,,2023-08-09,1,,,,,ナラセンタンガゾウギジュツ,0
1922,6150001026635,新規,0,2023-08-09,2023-08-09,ｎｏｉｉ株式会社,,株式会社,奈良県,生駒市,北大和２丁目２９番地２,,29,209,6300121,,,,,,,2023-08-09,1,,,,,ノイ,0
1933,6180001157477,新規,0,2023-08-09,2023-08-09,株式会社戸谷翻訳事務所,,株式会社,愛知県,日進市,栄４丁目１２０１番地,,23,230,4700113,,,,,,,2023-08-09,1,,,,,トタニホンヤクジムショ,0
1934,6180001157485,新規,0,2023-08-09,2023-08-09,ＢＡＫＥＲＹｍａｋｉｍａｋｉ株式会社,,株式会社,愛知県,名古屋市名東区,一社４丁目１１６番地,,23,115,4650093,,,,,,,2023-08-09,1,,,,,ベーカリーマキマキ,0
1935,6180001157493,新規,0,2023-08-09,2023-08-09,ＦＯＲＲＩＳＥ株式会社,,株式会社,愛知県,名古屋市名東区,新宿１丁目３１１－１カルティア名東新宿５０４,,23,115,4650063,,,,,,,2023-08-09,1,,,,,フォーライズ,0
1936,6180001157510,新規,0,2023-08-09,2023-08-09,株式会社ＳＵＲＶＩＶＥ,,株式会社,愛知県,名古屋市中区,栄１丁目１２番１０号フシミファーストビル８０２号,,23,106,4600008,,,,,,,2023-08-09,1,,,,,サヴァイヴ,0
1937,6180001157519,新規,0,2023-08-09,2023-08-09,東愛株式会社,,株式会社,愛知県,春日井市,南花長町９番地２１,,23,206,4860954,,,,,,,2023-08-09,1,,,,,トウアイ,0
1938,6180001157527,新規,0,2023-08-09,2023-08-09,ＩＴ工業株式会社,,株式会社,愛知県,名古屋市北区,辻町４丁目２５番地の２,,23,103,4620032,,,,,,,2023-08-09,1,,,,,アイティコウギョウ,0
1939,6180001157535,新規,0,2023-08-09,2023-08-09,株式会社ｍａｔｅ,,株式会社,愛知県,尾張旭市,吉岡町１丁目７番地１５,,23,226,4880827,,,,,,,2023-08-09,1,,,,,メイト,0
1940,6180001157543,新規,0,2023-08-09,2023-08-09,株式会社ＫｔＭ,,株式会社,愛知県,名古屋市西区,城西４丁目２６番１４号,,23,104,4510031,,,,,,,2023-08-09,1,,,,,カトム,0
1941,6180001157551,新規,0,2023-08-09,2023-08-09,株式会社ナルア,,株式会社,愛知県,名古屋市中区,大須２丁目６番９号,,23,106,4600011,,,,,,,2023-08-09,1,,,,,ナルア,0
1942,6180001157568,新規,0,2023-08-09,2023-08-09,株式会社Ｄａｄｏｓ,,株式会社,愛知県,名古屋市港区,当知４丁目５０３番地の１,,23,111,4550804,,,,,,,2023-08-09,1,,,,,ダドス,0
1943,6180001157576,新規,0,2023-08-09,2023-08-09,株式会社Ｋ．Ｉ‐ＴＥＣ,,株式会社,愛知県,春日井市,岩成台７丁目６番地２６,,23,206,4870033,,,,,,,2023-08-09,1,,,,,ケーアイテック,0
1944,6180001157584,新規,0,2023-08-09,2023-08-09,株式会社Ｉｎｎｏｖａｎｄｏ,,株式会社,愛知県,知多郡武豊町,字梨子ノ木９番地４１２,,23,447,4702309,,,,,,,2023-08-09,1,,,,,イノバンド,0
1945,6180001157592,新規,0,2023-08-09,2023-08-09,株式会社Ｓｉｇｎ,,株式会社,愛知県,名古屋市名東区,高針原２丁目２１５番地,,23,115,4650073,,,,,,,2023-08-09,1,,,,,サイン,0
1951,6180303005796,新規,0,2023-08-09,2023-08-09,ペルレ合同会社,,合同会社,愛知県,岡崎市,井内町字須田３番地２,,23,202,4440203,,,,,,,2023-08-09,1,,,,,ペルレ,0
1952,6190005011852,新規,0,2023-08-09,2023-08-09,一般社団法人ほっとライフサービス桔梗,,その他の設立登記法人,三重県,名張市,桔梗が丘５番町九街区１８１２番地１１,,24,208,5180625,,,,,,,2023-08-09,1,,,,,ホットライフサービスキキョウ,0
1954,6200001041579,新規,0,2023-08-09,2023-08-09,株式会社Ｐａｎｇａｅａ,,株式会社,岐阜県,岐阜市,下西郷８３０番地１,,21,201,5011175,,,,,,,2023-08-09,1,,,,,パンゲア,0
1955,6200001041595,新規,0,2023-08-09,2023-08-09,株式会社佐々木林業,,株式会社,岐阜県,恵那市,三郷町佐々良木１７０番地３１,,21,210,5097124,,,,,,,2023-08-09,1,,,,,ササキリンギョウ,0
1957,6220001025539,新規,0,2023-08-09,2023-08-09,株式会社オールワン,,株式会社,石川県,野々市市,住吉町１２番４５号,,17,212,9218813,,,,,,,2023-08-09,1,,,,,オールワン,0
1958,6220001025547,新規,0,2023-08-09,2023-08-09,株式会社ＭＡＲＩＭＯ,,株式会社,石川県,白山市,八ツ矢町６４７番地１,,17,210,9240882,,,,,,,2023-08-09,1,,,,,マリモ,0
1961,6230003002064,新規,0,2023-08-09,2023-08-09,合同会社ＦＡＢ,,合同会社,富山県,富山市,中市１丁目１番１７号,,16,201,9398005,,,,,,,2023-08-09,1,,,,,エフエービー,0
1963,6240001061937,新規,0,2023-08-09,2023-08-09,Ｏｏｂａ不動産鑑定株式会社,,株式会社,広島県,広島市西区,楠木町１丁目９番２７号第３コーポ大場１階,,34,104,7330002,,,,,,,2023-08-09,1,,,,,オオバフドウサンカンテイ,0
1964,6240001061978,新規,0,2023-08-09,2023-08-09,株式会社ＫＰＳ,,株式会社,広島県,広島市東区,光が丘１１番１４－３０１号,,34,102,7320051,,,,,,,2023-08-09,1,,,,,ケイピーエス,0
1967,6250003003333,新規,0,2023-08-09,2023-08-09,合同会社巳嘉多,,合同会社,山口県,山口市,宮野下１０７５番地,,35,203,7530011,,,,,,,2023-08-09,1,,,,,ミカタ,0
1969,6260001038181,新規,0,2023-08-09,2023-08-09,株式会社クオラマネジメント,,株式会社,岡山県,岡山市南区,福富西２丁目１４－１１,,33,104,7028031,,,,,,,2023-08-09,1,,,,,クオラマネジメント,0
1970,6260001038198,新規,0,2023-08-09,2023-08-09,株式会社ウェブリス,,株式会社,岡山県,岡山市北区,本町６番３６号第一セントラルビル４階,,33,101,7000901,,,,,,,2023-08-09,1,,,,,ウェブリス,0
1971,6260001038223,新規,0,2023-08-09,2023-08-09,株式会社堀田,,株式会社,岡山県,岡山市北区,本町６番３６号第一セントラルビル４Ｆ,,33,101,7000901,,,,,,,2023-08-09,1,,,,,ホッタ,0
1973,6270003001541,新規,0,2023-08-09,2023-08-09,プランド・サービス合同会社,,合同会社,鳥取県,米子市,東福原６丁目４番３１号１０３号,,31,202,6830802,,,,,,,2023-08-09,1,,,,,プランドサービス,0
1974,6280005007560,新規,0,2023-08-09,2023-08-09,特定非営利活動法人むぎくさ,,その他の設立登記法人,島根県,松江市,東忌部町９６－５,,32,201,6900036,,,,,,,2023-08-09,1,,,,,ムギクサ,0
1976,6290001102538,新規,0,2023-08-09,2023-08-09,株式会社江崎工業,,株式会社,福岡県,福岡市南区,皿山４丁目１３番１号,,40,134,8111365,,,,,,,2023-08-09,1,,,,,エサキコウギョウ,0
1977,6290001102612,新規,0,2023-08-09,2023-08-09,株式会社ＭＩＭＳＡＰＯＲＴ,,株式会社,福岡県,福岡市中央区,大名１丁目３番４１号プリオ大名ビル２Ｆ,,40,133,8100041,,,,,,,2023-08-09,1,,,,,ミモサポート,0
1978,6290001102637,新規,0,2023-08-09,2023-08-09,株式会社レインボー,,株式会社,福岡県,福岡市東区,土井１丁目１４番６号,,40,131,8130032,,,,,,,2023-08-09,1,,,,,レインボー,0
1980,6290003014211,新規,0,2023-08-09,2023-08-09,合同会社正栄,,合同会社,福岡県,大野城市,筒井３丁目１番８号,,40,219,8160931,,,,,,,2023-08-09,1,,,,,ショウエイ,0
1981,6300001013428,新規,0,2023-08-09,2023-08-09,株式会社ＲＵＬＥＲ,,株式会社,佐賀県,唐津市,千々賀６５９番地３,,41,202,8470831,,,,,,,2023-08-09,1,,,,,ルーラー,0
1982,6300003002008,新規,0,2023-08-09,2023-08-09,合同会社かぐら,,合同会社,佐賀県,鳥栖市,村田町７５９番地３,,41,203,8410072,,,,,,,2023-08-09,1,,,,,カグラ,0
1987,6320001019927,新規,0,2023-08-09,2023-08-09,株式会社ゆたかの輪,,株式会社,大分県,大分市,大字羽田１１４０番地の１,,44,201,8700942,,,,,,,2023-08-09,1,,,,,ユタカノワ,0
1988,6320001019935,新規,0,2023-08-09,2023-08-09,カワハラ企画印刷株式会社,,株式会社,大分県,日田市,大字有田３１５番地４,,44,204,8770000,,,,,,,2023-08-09,1,,,,,カワハラキカクインサツ,0
1990,6330001031105,新規,0,2023-08-09,2023-08-09,株式会社ｌｉｎｋｗｉｎ,,株式会社,熊本県,熊本市南区,御幸笛田１丁目１４番３号,,43,104,8614172,,,,,,,2023-08-09,1,,,,,リンクウィン,0
1991,6330001031121,新規,0,2023-08-09,2023-08-09,株式会社高橋果樹園,00131460,株式会社,熊本県,宇城市,三角町里浦２６１０番地,,43,213,8693213,,,,,,,2023-08-09,1,,,,,タカハシカジュエン,0
1992,6330001031138,新規,0,2023-08-09,2023-08-09,株式会社ＥＮＤＬＥＳＳ,,株式会社,熊本県,熊本市北区,梶尾町１１３１番地４,,43,105,8615512,,,,,,,2023-08-09,1,,,,,エンドレス,0
1996,6330003009941,新規,0,2023-08-09,2023-08-09,合同会社ＪＶＣ産業創生機構,,合同会社,熊本県,上益城郡山都町,浜町２５９番地２０,,43,447,8613518,,,,,,,2023-08-09,1,,,,,ジェイブイシーサンギョウソウセイキコウ,0
1999,6340001025774,新規,0,2023-08-09,2023-08-09,株式会社エステック,,株式会社,鹿児島県,鹿児島市,五ヶ別府町３５８１番地２,,46,201,8910101,,,,,,,2023-08-09,1,,,,,エステック,0
2000,6340001025782,新規,0,2023-08-09,2023-08-09,株式会社アベＣ,,株式会社,鹿児島県,鹿児島市,下荒田３丁目１０番２０号,,46,201,8900056,,,,,,,2023-08-09,1,,,,,アベシー,0
2001,6340001025799,新規,0,2023-08-09,2023-08-09,株式会社吾平農場,,株式会社,鹿児島県,鹿屋市,吾平町上名１８７５番地,,46,203,8931101,,,,,,,2023-08-09,1,,,,,アイラノウジョウ,0
2002,6340003004198,新規,0,2023-08-09,2023-08-09,ロダン＆アリス合同会社,,合同会社,鹿児島県,鹿児島市,喜入瀬々串町６０４番地３２５,,46,201,8910201,,,,,,,2023-08-09,1,,,,,ロダンアンドアリス,0
2003,6340003004207,新規,0,2023-08-09,2023-08-09,ＭＩＲＡＩ　ＶＩＳＩＯＮ合同会社,,合同会社,鹿児島県,奄美市,名瀬大熊町１３８９番地,,46,222,8940009,,,,,,,2023-08-09,1,,,,,ミライビジョン,0
2004,6350001018488,新規,0,2023-08-09,2023-08-09,株式会社勝工業,,株式会社,宮崎県,宮崎市,恒久２丁目１６－１－２号,,45,201,8800913,,,,,,,2023-08-09,1,,,,,カツコウギョウ,0
2005,6360001032364,新規,0,2023-08-09,2023-08-09,株式会社奏コンサルティング,,株式会社,沖縄県,中頭郡北谷町,北前１丁目１５番地２（２階）,,47,326,9040117,,,,,,,2023-08-09,1,,,,,カナデコンサルティング,0
2006,6360003013197,新規,0,2023-08-09,2023-08-09,合同会社シリウス,,合同会社,沖縄県,那覇市,首里金城町３丁目５－２,,47,201,9030815,,,,,,,2023-08-09,1,,,,,シリウス,0
2007,6360005006892,新規,0,2023-08-09,2023-08-09,一般社団法人琉通ロジスティクス総合研究所,,その他の設立登記法人,沖縄県,那覇市,港町１丁目２６番１号那覇港総合物流センター４Ｆ,,47,201,9000001,,,,,,,2023-08-09,1,,,,,リュウツウロジスティクスソウゴウケンキュウジョ,0
2011,6370001050282,新規,0,2023-08-09,2023-08-09,藏宝舎株式会社,,株式会社,宮城県,塩竈市,泉沢町１９番１１号,,04,203,9850062,,,,,,,2023-08-09,1,,,,,ゾウホウシャ,0
2015,6380003005531,新規,0,2023-08-09,2023-08-09,合同会社スマイル,,合同会社,福島県,郡山市,安積町荒井字雁股８番地の１２３,,07,203,9630111,,,,,,,2023-08-09,1,,,,,スマイル,0
2017,6400001016338,新規,0,2023-08-09,2023-08-09,株式会社萬象,,株式会社,岩手県,盛岡市,向中野２丁目５５番１８－３０１号,,03,201,0200851,,,,,,,2023-08-09,1,,,,,バンショウ,0
2020,6400003003128,新規,0,2023-08-09,2023-08-09,ルシエル合同会社,,合同会社,岩手県,北上市,諏訪町２丁目１番２５号ふくろうビル１階１－Ｄ号室,,03,206,0240034,,,,,,,2023-08-09,1,,,,,ルシエル,0
2025,6410003003829,新規,0,2023-08-09,2023-08-09,合同会社Ｒｅ　ｂｒｅａｔｈ,,合同会社,秋田県,能代市,浅内字出戸谷地１０８番地,,05,202,0160179,,,,,,,2023-08-09,1,,,,,リブレス,0
2031,6450003002372,新規,0,2023-08-09,2023-08-09,合同会社ｅＭＩＰＬＵＳ,,合同会社,北海道,上川郡鷹栖町,１３線七号３番地,,01,452,0711253,,,,,,,2023-08-09,1,,,,,エミプラス,0
2034,6470001019739,新規,0,2023-08-09,2023-08-09,いちごスタジオ株式会社,,株式会社,香川県,木田郡三木町,大字下高岡１２６３番地６,,37,341,7610704,,,,,,,2023-08-09,1,,,,,イチゴスタジオ,0
2036,6470005006519,新規,0,2023-08-09,2023-08-09,一般社団法人マッチメイカー,,その他の設立登記法人,香川県,観音寺市,坂本町４丁目５－５,,37,205,7680067,,,,,,,2023-08-09,1,,,,,マッチメイカー,0
2042,6500001025130,新規,0,2023-08-09,2023-08-09,原田商会株式会社,,株式会社,愛媛県,松山市,枝松２丁目１番４１号ハープ・スクウェアー２０３号,,38,201,7900962,,,,,,,2023-08-09,1,,,,,ハラダショウカイ,0
2043,6700150118895,新規,0,2023-08-09,2023-08-09,ＣｈａｎｇＳｈａＳｈｉ　ＡｉＭｉＬｅＳｈｕＭａＫｅＪｉ　ＹｏｕＸｉａｎＧｏｎｇＳｉ,,外国会社等,,,,,,,,ｆｕｒｏｎｇｌｕｘｉａｏｘｕｅｚｏｎｇｈｅｌｏｕ１４ｃｅｎｇ１４０４６ｆａｎｇ　ｙｕｈｕａｑｕｄｏｎｇｔａｎｇｊｉｅｄａｏｆｕｒｏｎｇｚｈｏｎｇｌｕｓａｎｄｕａｎ５８９ｈａｏ　ＣｈａｎｇＳｈａＳｈｉ　ＨｕＮａｎ　ＣＮ,,,,,,2023-08-09,1,,,,,チャンサシアイミレスマケジユウゲンコウシ,0
2044,6700150118904,新規,0,2023-08-09,2023-08-09,ｓｈｅｎｚｈｅｎｓｈｉ　ｘｉｎｇｙｕｅｙａｎｇｚｈａｏｍｉｎｇｋｅｊｉ　ｙｏｕｘｉａｎｇｏｎｇｓｉ,,外国会社等,,,,,,,,ｓｈｅｎｚｈｅｎｓｈｉｂａｏａｎｑｕｓｈｉｙａｎｊｉｅｄａｏｈｅｎｇｋｅｎｇｇｏｎｇｙｅｄａｄａｏ４０ｈａｏ２ｌｏｕ　Ｓｈｅｎ　ｚｈｅｎ　ｓｈｉ　Ｇｕａｎｇ　ｄｏｎｇ　ｓｈｅｎｇ,,,,,,2023-08-09,1,,,,,シンセンシシンユエヤンザオミンケジユウゲンコウシ,0
2045,6700150118912,新規,0,2023-08-09,2023-08-09,ＹＩＣＨＡＮＧＳＨＩＺＵＯＪＩＡＮＤＩＡＮＺＩＳＨＡＮＧＷＵＹＯＵＸＩＡＮＧＯＮＧＳＩ,,外国会社等,,,,,,,,ｄａｎｇｙａｎｇｓｈｉ　ｈａｎｇｋｏｎｇｌｕ１８ｈａｏ３０１ｓｈｉ　ｙｉｃｈａｎｇｓｈｉ　ｈｕｂｅｉｓｈｅｎｇ　４４４１００　ＣＮ,,,,,,2023-08-09,1,,,,,イーチャンシーズオジエンディエンズーシャンウーヨウシエンゴンスー,0
2046,6700150118920,新規,0,2023-08-09,2023-08-09,ｂｅｉｊｉｎｇｗａｎｇｄａｄｉａｎｚｉｓｈａｎｇｗｕｙｏｕｘｉａｎｇｏｎｇｓｉ,,外国会社等,,,,,,,,４０３２，１Ｆ，Ｎｏ．１９１　Ｌｉｙｕａｎ　Ｎｏｒｔｈ　Ｓｔｒｅｅｔ，Ｔｏｎｇｚｈｏｕ　Ｑｕ，Ｂｅｉｊｉｎｇ,,,,,,2023-08-09,1,,,,,ベイジンモウダデンシショウムユウゲンコウシ,0
2047,6700150118929,新規,0,2023-08-09,2023-08-09,Ｙｉｗｕ　Ｓｈｉ　Ｐａｎｓｈｉ　Ｄｉａｎｚｉ　Ｓｈａｎｇｗｕ　Ｙｏｕｘｉａｎ　Ｇｏｎｇｓｉ,,外国会社等,,,,,,,,ＺｈｅｊｉａｎｇＳｈｅｎｇＹｉｗｕＳｈｉＤａｃｈｅｎｚｈｅｎｚｈｅｎｚｈｏｎｇｎａｎｌｕ　９１ｈａｏ　２ｌｏｕ　ＹｉｗｕＳｈｉ　ＺｈｅｊｉａｎｇＳｈｅｎｇ　３２２０１１　ＣＮ,,,,,,2023-08-09,1,,,,,イーウーシパンシディエンズーシャンウヨウシェンゴンスー,0
2048,6700150118937,新規,0,2023-08-09,2023-08-09,Ｈａｎｇｚｈｏｕ　Ｂｏｈｅ　Ｔｒａｄｅ　ｃｏ，．Ｌｔｄ,,外国会社等,,,,,,,,ｃａｎｇ　ｑｉａｎ　ｊｉｅ　ｄａｏ　ｗｅｎ　ｙｉ　ｘｉ　ｌｕ　１３２４ｈａｏ　６ｈａｏ　ｌｏｕ　３０１－６ｓｈｉ　ｙｕ　ｈａｎｇ　ｑｕ　ｈａｎｇ　ｚｈｏｕ　ｓｈｉ　ｚｈｅ　ｊｉａｎｇ　ｓｈｅｎｇ,,,,,,2023-08-09,1,,,,,コウシュウボヘトレードカンパニーリミテッド,0
2049,6700150118945,新規,0,2023-08-09,2023-08-09,ａｎ　ｊｉ　ｈｕａｎ　ｙｉ　ｄｉａｎ　ｚｉ　ｓｈａｎｇ　ｗｕ　ｙｏｕ　ｘｉａｎ　ｇｏｎｇ　ｓｉ,,外国会社等,,,,,,,,ａｎ　ｊｉ　ｘｉａｎ　ｃｈａｎｇ　ｓｈｕｏ　ｊｉｅ　ｄａｏ　ｄｉ　ｐｕ　ｚｈｏｎｇ　ｌｕ　７８７ｈａｏ　２ｌｏｕ　ｈｕ　ｚｈｏｕ　ｓｈｉ　ｚｈｅ　ｊｉａｎｇ　ｓｈｅｎｇ　ｚｈｏｎｇ　ｇｕｏ,,,,,,2023-08-09,1,,,,,アンジフアンイデンシショウムユウゲンコウシ,0
2050,6700150118953,新規,0,2023-08-09,2023-08-09,Ｐｏｒｔｔａ　Ｅｌｅｃｔｒｏｎｉｃｓ　＆　Ｔｅｃｈｎｏｌｏｇｙ　Ｌｉｍｉｔｅｄ,,外国会社等,,,,,,,,ＦＬＡＴ／ＲＭ　６　，７／Ｆ　ＳＩＵ　ＷＡＩ　ＩＮＤＵＳＴＲＩＡＬ　ＣＥＮＴＲＥ　ＮＯ　２９－３３　ＷＩＮＧ　ＨＯＮＧ　ＳＴＲＥＥＴ　ＬＡＩＣＨＩ　ＫＯＫ　ＫＬ　Ｈｏｎｇ　Ｋｏｎｇ,,,,,,2023-08-09,1,,,,,ポルタエレクトロニクスアンドテクノロジーリミテッド,0
2051,6700150118961,新規,0,2023-08-09,2023-08-09,Ｇｕａｎｇｚｈｏｕ　ｂａｉｊｉａｌｅ　Ｅｌｅｃｔｒｏｎｉｃ　ｔｒａｄｅ　Ｃｏ．，Ｌｔｄ,,外国会社等,,,,,,,,ＢａｉｙｕｎＱｕＴｏｎｇｈｅｊｉｅｔｏｎｇｓｈａｌｕ２８３ｈａｏｇｕａｎｇｄｏｎｇｔｉａｎｊｉａｎｊｉａｊｕｚｈｕａｎｇｓｈｉｇｕａｎｇ　ｃｈａｎｇｃｈｕａｎｇｙｉｙｕａｎｑｕ６ｄｏｎｇ１ｃｅｎｇｚｉｊｉａｎｆａｎｇｗｕ（ｚｉｂｉａｎ６ｄｏｎｇ１１２ｈａｏ）ｇｕａｎｇｚｈｏｕ　ｇｕａｎｇｄｏｎｇ　ＣＮ,,,,,,2023-08-09,1,,,,,グゥアンゾォウバイジャレイレクトゥロニックトレードカンパニーリミテッド,0
2060,7010001237360,新規,0,2023-08-09,2023-08-09,株式会社Ｍａｍａｒｕ,,株式会社,東京都,中央区,日本橋堀留町１丁目１０番１号,,13,102,1030012,,,,,,,2023-08-09,1,,,,,ママル,0
2061,7010001237492,新規,0,2023-08-09,2023-08-09,株式会社Ｋｏｅｙｏｃｃａ,,株式会社,東京都,中央区,日本橋茅場町２丁目４番５号茅場町２丁目ビル４階,,13,102,1030025,,,,,,,2023-08-09,1,,,,,コエヨッカ,0
2062,7010001237501,新規,0,2023-08-09,2023-08-09,株式会社ＰＬＵＳ　ｓｔｙｌｅ,,株式会社,東京都,中央区,銀座７丁目５番４号,,13,102,1040061,,,,,,,2023-08-09,1,,,,,プラススタイル,0
2063,7010001237534,新規,0,2023-08-09,2023-08-09,株式会社ＧＡＩＫＯＫＵＪＩＮＺＡＩ,,株式会社,東京都,中央区,新川１丁目３番２１号,,13,102,1040033,,,,,,,2023-08-09,1,,,,,ガイコクジンザイ,0
2064,7010001237550,新規,0,2023-08-09,2023-08-09,コンパスクラウドＡＩジャパン株式会社,,株式会社,東京都,千代田区,九段北１丁目１０番９号九段ＶＩＧＡＳ３階,,13,101,1020073,,,,,,,2023-08-09,1,,,,,コンパスクラウドエーアイジャパン,0
2065,7010001237583,新規,0,2023-08-09,2023-08-09,株式会社Ｃｅｌｌ‐Ｅｎ,,株式会社,東京都,千代田区,内幸町１丁目３番１号,,13,101,1000011,,,,,,,2023-08-09,1,,,,,セレン,0
2070,7010003041298,新規,0,2023-08-09,2023-08-09,ＲＹＯＭＡ　ＪＡＰＡＮ合同会社,,合同会社,東京都,千代田区,神田司町２丁目１３番地,,13,101,1010048,,,,,,,2023-08-09,1,,,,,リョウマジャパン,0
2071,7010003041307,新規,0,2023-08-09,2023-08-09,合同会社ａｍｉｌ,,合同会社,東京都,中央区,銀座１丁目１２－４Ｎ＆ＥＢＬＤ．７階,,13,102,1040061,,,,,,,2023-08-09,1,,,,,アミル,0
2072,7010003041315,新規,0,2023-08-09,2023-08-09,合同会社ＷＯＲＴＨ,,合同会社,東京都,中央区,銀座１丁目２２番１１号銀座大竹ビジデンス２Ｆ,,13,102,1040061,,,,,,,2023-08-09,1,,,,,ワース,0
2080,7010401176134,新規,0,2023-08-09,2023-08-09,株式会社リズム・エース,,株式会社,東京都,港区,新橋１丁目５番１号,,13,103,1050004,,,,,,,2023-08-09,1,,,,,リズムエース,0
2081,7010401176150,新規,0,2023-08-09,2023-08-09,Ｈ２　ＰＬＵＳ株式会社,,株式会社,東京都,港区,西新橋２丁目１５番１７号レインボービル６階,,13,103,1050003,,,,,,,2023-08-09,1,,,,,エイチツープラス,0
2082,7010401176217,新規,0,2023-08-09,2023-08-09,ＳｅｅＱｕｉｉ株式会社,,株式会社,東京都,港区,南青山３丁目１番３６号青山丸竹ビル６Ｆ,,13,103,1070062,,,,,,,2023-08-09,1,,,,,シークイー,0
2084,7010403030660,新規,0,2023-08-09,2023-08-09,合同会社南天研,,合同会社,東京都,港区,浜松町２丁目２番１５号浜松町ダイヤビル２Ｆ,,13,103,1050013,,,,,,,2023-08-09,1,,,,,ナンテンケン,0
2087,7010501050866,新規,0,2023-08-09,2023-08-09,株式会社ＡＴＯＭ　ＬＡＮＤ,,株式会社,東京都,台東区,台東１丁目２１番４号東京ミシン会館５階,,13,106,1100016,,,,,,,2023-08-09,1,,,,,アトムランド,0
2088,7010501050874,新規,0,2023-08-09,2023-08-09,デジタルな振る舞い株式会社,,株式会社,東京都,台東区,柳橋２丁目１番１１号ＢａｒｑＳＨＩＮＳＯＢＬＤＧ４０３,,13,106,1110052,,,,,,,2023-08-09,1,,,,,デジタルナフルマイ,0
2091,7010503007105,新規,0,2023-08-09,2023-08-09,合同会社寺田ロボテック,,合同会社,東京都,台東区,上野７丁目３番９号アルベルゴ上野５０４,,13,106,1100005,,,,,,,2023-08-09,1,,,,,テラダロボテック,0
2094,7010603010289,新規,0,2023-08-09,2023-08-09,合同会社東日本経営労務センター,,合同会社,東京都,墨田区,京島３丁目３番４号,,13,107,1310046,,,,,,,2023-08-09,1,,,,,ヒガシニホンケイエイロウムセンター,0
2097,7010801034222,新規,0,2023-08-09,2023-08-09,株式会社いなせ,,株式会社,東京都,大田区,蒲田５丁目２番５号,,13,111,1440052,,,,,,,2023-08-09,1,,,,,イナセ,0
2101,7010901053576,新規,0,2023-08-09,2023-08-09,株式会社松松,,株式会社,東京都,世田谷区,太子堂２丁目１７－５佐藤ビル３Ｆ,,13,112,1540004,,,,,,,2023-08-09,1,,,,,マツマツ,0
2102,7010901053601,新規,0,2023-08-09,2023-08-09,ＡＫＬＩＮＫＳ株式会社,,株式会社,東京都,世田谷区,池尻３丁目１１番７号テラスレイクマウント３０５,,13,112,1540001,,,,,,,2023-08-09,1,,,,,エーケーリンクス,0
2103,7010903008363,新規,0,2023-08-09,2023-08-09,Ｃｏｎｓｕｌｔｉｎｇ　Ｃａｒｓ　Ｊａｐａｎ合同会社,,合同会社,東京都,世田谷区,世田谷２丁目４番１１号,,13,112,1540017,,,,,,,2023-08-09,1,,,,,コンサルティングカーズジャパン,0
2107,7011001156170,新規,0,2023-08-09,2023-08-09,株式会社Ｒｅｘ,,株式会社,東京都,目黒区,東が丘２丁目１５番１号グランフォルム駒沢公園１０１,,13,110,1520021,,,,,,,2023-08-09,1,,,,,レックス,0
2108,7011001156212,新規,0,2023-08-09,2023-08-09,株式会社ＨｉＲＯＧＡＲＥ,,株式会社,東京都,渋谷区,桜丘町１３番３号,,13,113,1500031,,,,,,,2023-08-09,1,,,,,ヒロガレ,0
2109,7011001156229,新規,0,2023-08-09,2023-08-09,株式会社ｅｔａｌｅｒ,,株式会社,東京都,渋谷区,初台１丁目９番３号,,13,113,1510061,,,,,,,2023-08-09,1,,,,,エターレル,0
2110,7011001156261,新規,0,2023-08-09,2023-08-09,株式会社コミット,,株式会社,東京都,目黒区,上目黒２丁目３０番１１－２０１号,,13,110,1530051,,,,,,,2023-08-09,1,,,,,コミット,0
2111,7011003017305,新規,0,2023-08-09,2023-08-09,合同会社Ｄｅａｒ　Ｆａｍｉｌｙ,,合同会社,東京都,渋谷区,神宮前６丁目２３番４号桑野ビル２階,,13,113,1500001,,,,,,,2023-08-09,1,,,,,ディアーファミリー,0
2118,7011103013352,新規,0,2023-08-09,2023-08-09,ｓｐｉｎａｌ　Ｋｏｒｄ合同会社,,合同会社,東京都,新宿区,東五軒町１番６－３０８号,,13,104,1620813,,,,,,,2023-08-09,1,,,,,スパイナルコード,0
2119,7011105010744,新規,0,2023-08-09,2023-08-09,一般社団法人メディカル・プラス,,その他の設立登記法人,東京都,新宿区,西新宿７丁目２０番１号,,13,104,1600023,,,,,,,2023-08-09,1,,,,,メディカルプラス,0
2121,7011401025363,新規,0,2023-08-09,2023-08-09,株式会社ｃｈｉｓａｔｏ,,株式会社,東京都,板橋区,大谷口上町１０番６号,,13,119,1730032,,,,,,,2023-08-09,1,,,,,チサト,0
2123,7011601027028,新規,0,2023-08-09,2023-08-09,株式会社ＣＡＶＡＲＯＮ,,株式会社,東京都,練馬区,東大泉３丁目３５番１９号,,13,120,1780063,,,,,,,2023-08-09,1,,,,,カバロン,0
2124,7011601027036,新規,0,2023-08-09,2023-08-09,株式会社ＨＡＬ,,株式会社,東京都,練馬区,大泉学園町２丁目２７番３号,,13,120,1780061,,,,,,,2023-08-09,1,,,,,ハル,0
2125,7011601027044,新規,0,2023-08-09,2023-08-09,株式会社ドアーズ,,株式会社,東京都,練馬区,大泉町１丁目４１－１１,,13,120,1780062,,,,,,,2023-08-09,1,,,,,ドアーズ,0
2127,7011701026499,新規,0,2023-08-09,2023-08-09,株式会社ＳＵＩ,,株式会社,東京都,江戸川区,中葛西３丁目２３番１９－２０１号,,13,123,1340083,,,,,,,2023-08-09,1,,,,,スイ,0
2131,7011801042842,新規,0,2023-08-09,2023-08-09,スターズ株式会社,,株式会社,東京都,足立区,西綾瀬２丁目１８番１０－２０５号,,13,121,1200014,,,,,,,2023-08-09,1,,,,,スターズ,0
2132,7011801042850,新規,0,2023-08-09,2023-08-09,株式会社Ｋ　Ｚｅｔａ,,株式会社,東京都,足立区,南花畑５丁目１番５－５０１号,,13,121,1210062,,,,,,,2023-08-09,1,,,,,ケイゼータ,0
2135,7012301013549,新規,0,2023-08-09,2023-08-09,株式会社ブッシュウェルライフ,,株式会社,東京都,町田市,小山ヶ丘６丁目１番地４３,,13,209,1940215,,,,,,,2023-08-09,1,,,,,ブッシュウェルライフ,0
2136,7012701017785,新規,0,2023-08-09,2023-08-09,株式会社ジェラートルジャポネ,,株式会社,東京都,清瀬市,梅園３丁目１番３２号,,13,221,2040024,,,,,,,2023-08-09,1,,,,,ジェラートルジャポネ,0
2137,7012801022561,新規,0,2023-08-09,2023-08-09,越株式会社,,株式会社,東京都,昭島市,福島町１丁目１８番６号ベルリオ１０３号室,,13,207,1960031,,,,,,,2023-08-09,1,,,,,エツ,0
2148,7020001152501,新規,0,2023-08-09,2023-08-09,サステイン株式会社,,株式会社,神奈川県,横浜市鶴見区,岸谷２丁目１３番２６－１号,,14,101,2300078,,,,,,,2023-08-09,1,,,,,サステイン,0
2149,7020001152889,新規,0,2023-08-09,2023-08-09,株式会社名嘉眞塗装,,株式会社,神奈川県,川崎市川崎区,中島１丁目７番９号－２０１号オークヴィラ中島,,14,131,2100806,,,,,,,2023-08-09,1,,,,,,0
2150,7020001152971,新規,0,2023-08-09,2023-08-09,二刀流株式会社,,株式会社,神奈川県,川崎市中原区,井田三舞町５番３５－１号,,14,133,2110037,,,,,,,2023-08-09,1,,,,,ニトウリュウ,0
2151,7020001153020,新規,0,2023-08-09,2023-08-09,ムサシハウス株式会社,,株式会社,神奈川県,川崎市高津区,下野毛２丁目５番１－３号,,14,134,2130006,,,,,,,2023-08-09,1,,,,,ムサシハウス,0
2154,7020003024335,新規,0,2023-08-09,2023-08-09,合同会社無辺,,合同会社,神奈川県,横浜市都筑区,中川中央１丁目２１－３ドゥーエセンター北２０１,,14,118,2240003,,,,,,,2023-08-09,1,,,,,ムヘン,0
2155,7020003024343,新規,0,2023-08-09,2023-08-09,合同会社ＭＴＰ,,合同会社,神奈川県,横浜市港北区,綱島西２丁目６番１９－２０５号,,14,109,2230053,,,,,,,2023-08-09,1,,,,,エムティーピー,0
2158,7021001079833,新規,0,2023-08-09,2023-08-09,株式会社ゆりホーム,,株式会社,神奈川県,相模原市南区,双葉１丁目１３番３０号,,14,153,2520316,,,,,,,2023-08-09,1,,,,,ユリホーム,0
2159,7021001079841,新規,0,2023-08-09,2023-08-09,株式会社幽幻ＰＲＯＪＥＣＴ,,株式会社,神奈川県,相模原市南区,鵜野森１丁目２番１２－４０１号,,14,153,2520301,,,,,,,2023-08-09,1,,,,,ユウゲンプロジェクト,0
2162,7021005012880,新規,0,2023-08-09,2023-08-09,一般社団法人平塚障がい者サークル,,その他の設立登記法人,神奈川県,平塚市,紅谷町８－１６サニープラザ平塚３Ｆ,,14,203,2540043,,,,,,,2023-08-09,1,,,,,ヒラツカショウガイシャサークル,0
2165,7030001155131,新規,0,2023-08-09,2023-08-09,株式会社アピリア,,株式会社,埼玉県,三郷市,戸ケ崎３１２４番地,,11,237,3410044,,,,,,,2023-08-09,1,,,,,アピリア,0
2166,7030001155263,新規,0,2023-08-09,2023-08-09,株式会社ＴＡＲＯＴＥＣ,,株式会社,埼玉県,鴻巣市,本町５丁目２番１８号,,11,217,3650038,,,,,,,2023-08-09,1,,,,,タロテック,0
2167,7030001155271,新規,0,2023-08-09,2023-08-09,株式会社ＴＲＫ,,株式会社,埼玉県,行田市,棚田町１丁目２６番地３,,11,206,3610041,,,,,,,2023-08-09,1,,,,,ティーアールケー,0
2168,7030001155346,新規,0,2023-08-09,2023-08-09,株式会社キャスパー,,株式会社,埼玉県,さいたま市南区,大字広ヶ谷戸２０９番地７,,11,108,3360041,,,,,,,2023-08-09,1,,,,,キャスパー,0
2169,7030001155379,新規,0,2023-08-09,2023-08-09,株式会社ＳＵＰＥＲＱＳ,,株式会社,埼玉県,川口市,戸塚３丁目１０番１１号ビューエミネントＩＩ－１０１号,00131463,11,203,3330811,,,,,,,2023-08-09,1,,,,,スパークス,0
2180,7040001129547,新規,0,2023-08-09,2023-08-09,株式会社ｔｏｋｏｔｏｋｏ　ｃｏｏｋｉｅ,,株式会社,千葉県,千葉市花見川区,幕張町３丁目１６９２番地１幕張ハウス７１４号,,12,102,2620032,,,,,,,2023-08-09,1,,,,,トコトコクッキー,0
2181,7040001129588,新規,0,2023-08-09,2023-08-09,株式会社ＢＩＧ　ＢＡＲＮ,,株式会社,千葉県,柏市,藤ケ谷５６２番地４,,12,217,2770931,,,,,,,2023-08-09,1,,,,,ビッグバーン,0
2182,7040001129596,新規,0,2023-08-09,2023-08-09,株式会社ＴＲＡＮＳＣＥＮＤ,,株式会社,千葉県,市川市,北方２丁目２８番１５号フォーラム倉持１階,,12,203,2720815,,,,,,,2023-08-09,1,,,,,トランセンド,0
2183,7040001129613,新規,0,2023-08-09,2023-08-09,株式会社鳥潟,,株式会社,千葉県,市原市,玉前３００番地１エスポワールＡ２０３,,12,219,2900041,,,,,,,2023-08-09,1,,,,,トリガタ,0
2184,7040001129621,新規,0,2023-08-09,2023-08-09,株式会社ＣＯＮＶＯＹ’Ｓ,,株式会社,千葉県,習志野市,津田沼５丁目１４番１６号,,12,216,2750016,,,,,,,2023-08-09,1,,,,,コンボイズ,0
2188,7040003023079,新規,0,2023-08-09,2023-08-09,合同会社ラリゴパートナーズ,,合同会社,千葉県,船橋市,湊町２丁目８番１－１４１４号,,12,204,2730011,,,,,,,2023-08-09,1,,,,,ラリゴパートナーズ,0
2191,7050001053267,新規,0,2023-08-09,2023-08-09,株式会社ゆうゆうＣｏｍｐａｎｙ,,株式会社,茨城県,日立市,みかの原町２丁目２４番４号,,08,202,3160026,,,,,,,2023-08-09,1,,,,,ユウユウカンパニー,0
2196,7060003004671,新規,0,2023-08-09,2023-08-09,合同会社ＲＡＳＫ,,合同会社,栃木県,下野市,緑５丁目１９番地１２,,09,216,3290433,,,,,,,2023-08-09,1,,,,,ラスク,0
2197,7070001040742,新規,0,2023-08-09,2023-08-09,株式会社Ｕｌｕｏｏｋ,,株式会社,群馬県,太田市,本町３－１０,,10,205,3730057,,,,,,,2023-08-09,1,,,,,ウルーク,0
2201,7070005010155,新規,0,2023-08-09,2023-08-09,ＮＰＯ法人マチイロ,,その他の設立登記法人,群馬県,渋川市,赤城町敷島７０１,,10,208,3791104,,,,,,,2023-08-09,1,,,,,,0
2202,7080001025800,新規,0,2023-08-09,2023-08-09,株式会社まきチャレファンド,,株式会社,静岡県,牧之原市,布引原２２１番地１,,22,226,4210407,,,,,,,2023-08-09,1,,,,,マキチャレファンド,0
2209,7080401026662,新規,0,2023-08-09,2023-08-09,ＢＳＴロボティクス株式会社,,株式会社,静岡県,浜松市西区,佐浜町２１８５番地,,22,133,4311114,,,,,,,2023-08-09,1,,,,,ビーエスティロボティクス,0
2214,7110001037750,新規,0,2023-08-09,2023-08-09,株式会社ｈａｎａＴｓｕ,,株式会社,新潟県,南魚沼市,塩沢１４１１番地４,,15,226,9496408,,,,,,,2023-08-09,1,,,,,ハナツ,0
2215,7110001037759,新規,0,2023-08-09,2023-08-09,株式会社りそら,,株式会社,新潟県,長岡市,高見町２０番地６,,15,202,9400004,,,,,,,2023-08-09,1,,,,,リソラ,0
2231,7120001257109,新規,0,2023-08-09,2023-08-09,株式会社ＯＰ管工,,株式会社,大阪府,大阪市福島区,大開１丁目５番２８号,,27,103,5530007,,,,,,,2023-08-09,1,,,,,オーピーカンコウ,0
2232,7120001257125,新規,0,2023-08-09,2023-08-09,株式会社きぼう,,株式会社,大阪府,大阪市大正区,泉尾２丁目２０番１８号,,27,108,5510031,,,,,,,2023-08-09,1,,,,,キボウ,0
2233,7120001257281,新規,0,2023-08-09,2023-08-09,株式会社大日,,株式会社,大阪府,大阪市西区,北堀江１丁目１番２４号,,27,106,5500014,,,,,,,2023-08-09,1,,,,,ダイニチ,0
2236,7120101067993,新規,0,2023-08-09,2023-08-09,岡本設備株式会社,,株式会社,大阪府,阪南市,舞３丁目２８番１２号,,27,232,5990224,,,,,,,2023-08-09,1,,,,,オカモトセツビ,0
2237,7120101068018,新規,0,2023-08-09,2023-08-09,株式会社エスケーサンヨー,,株式会社,大阪府,高石市,羽衣２丁目２番２１号,,27,225,5920002,,,,,,,2023-08-09,1,,,,,エスケーサンヨー,0
2238,7120101068042,新規,0,2023-08-09,2023-08-09,株式会社総合メンテナンスダイコー,,株式会社,大阪府,岸和田市,中之浜町４番８号,,27,202,5960065,,,,,,,2023-08-09,1,,,,,ソウゴウメンテナンスダイコー,0
2239,7120103005357,新規,0,2023-08-09,2023-08-09,合同会社エムシーワールド,,合同会社,大阪府,松原市,松ケ丘３丁目６１０番地の１,,27,217,5800042,,,,,,,2023-08-09,1,,,,,エムシーワールド,0
2240,7120103005365,新規,0,2023-08-09,2023-08-09,合同会社Ｓｕｋｈｕｍｖｉｔ,,合同会社,大阪府,富田林市,向陽台３丁目３番１３－１１０号,,27,214,5840082,,,,,,,2023-08-09,1,,,,,スクンビット,0
2241,7120103005373,新規,0,2023-08-09,2023-08-09,合同会社Ａ．Ｒ．Ｅ．,,合同会社,大阪府,堺市堺区,市之町東６丁１－２６,,27,141,5900952,,,,,,,2023-08-09,1,,,,,,0
2242,7120901047897,新規,0,2023-08-09,2023-08-09,株式会社だいきちＣＡＲ　ＳＥＲＶＩＣＥ,,株式会社,大阪府,茨木市,横江１丁目１８－１５,,27,211,5670865,,,,,,,2023-08-09,1,,,,,ダイキチカーサービス,0
2243,7120901047922,新規,0,2023-08-09,2023-08-09,人好株式会社,,株式会社,大阪府,豊中市,岡町南３丁目１２番１０号,,27,203,5610883,,,,,,,2023-08-09,1,,,,,ヒトヨシ,0
2244,7120905006511,新規,0,2023-08-09,2023-08-09,一般社団法人ｗｏｒｔｈ,,その他の設立登記法人,大阪府,茨木市,丑寅２丁目１－６－３Ｆ,,27,211,5670877,,,,,,,2023-08-09,1,,,,,ワース,0
2249,7122001037250,新規,0,2023-08-09,2023-08-09,株式会社イソモト設備,,株式会社,大阪府,大東市,三箇４丁目４番１４号,,27,218,5740077,,,,,,,2023-08-09,1,,,,,イソモトセツビ,0
2250,7122001037259,新規,0,2023-08-09,2023-08-09,株式会社ＷＩＺ,,株式会社,大阪府,東大阪市,俊徳町４丁目９番８号,,27,227,5770831,,,,,,,2023-08-09,1,,,,,ウィズ,0
2255,7122003002640,新規,0,2023-08-09,2023-08-09,合同会社しかた,,合同会社,大阪府,八尾市,田井中４丁目９１番地,,27,212,5810095,,,,,,,2023-08-09,1,,,,,シカタ,0
2262,7130001074841,新規,0,2023-08-09,2023-08-09,中勝株式会社,,株式会社,京都府,久世郡久御山町,田井新荒見２６０番地１,,26,322,6130036,,,,,,,2023-08-09,1,,,,,ナカショウ,0
2263,7130001074890,新規,0,2023-08-09,2023-08-09,株式会社ＪＣＬホールディングス,,株式会社,京都府,京都市伏見区,深草西浦町６丁目４番地,,26,109,6120029,,,,,,,2023-08-09,1,,,,,ジェイシーエルホールディングス,0
2264,7130001074899,新規,0,2023-08-09,2023-08-09,株式会社京勝興産,,株式会社,京都府,京都市西京区,大原野西境谷町４丁目１２番地の１８５,,26,111,6101146,,,,,,,2023-08-09,1,,,,,ケイショウコウサン,0
2265,7130001074949,新規,0,2023-08-09,2023-08-09,株式会社スナダプランニング,,株式会社,京都府,京都市上京区,仁和寺街道御前通西入上る下横町２１１番地の５,,26,102,6028373,,,,,,,2023-08-09,1,,,,,スナダプランニング,0
2271,7140001131146,新規,0,2023-08-09,2023-08-09,株式会社リンクテイル,,株式会社,兵庫県,神戸市中央区,元町通６丁目２番２－２０１号,,28,110,6500022,,,,,,,2023-08-09,1,,,,,リンクテイル,0
2272,7140001131229,新規,0,2023-08-09,2023-08-09,株式会社エス,,株式会社,兵庫県,西宮市,中須佐町８番１２号,,28,204,6620851,,,,,,,2023-08-09,1,,,,,エス,0
2275,7140003019389,新規,0,2023-08-09,2023-08-09,スリーク・ネットワークス合同会社,,合同会社,兵庫県,神戸市東灘区,住吉本町３丁目４番４７号Ｃ－２０６号,,28,101,6580051,,,,,,,2023-08-09,1,,,,,スリークネットワークス,0
2276,7140003019422,新規,0,2023-08-09,2023-08-09,合同会社Ｐｕｒｅｊｕ,,合同会社,兵庫県,芦屋市,南宮町１４番２号４０９号室,,28,206,6590024,,,,,,,2023-08-09,1,,,,,ピュアージュ,0
2280,7150001026618,新規,0,2023-08-09,2023-08-09,株式会社ナオシ,,株式会社,奈良県,生駒市,北大和１丁目２３番地１,,29,209,6300121,,,,,,,2023-08-09,1,,,,,ナオシ,0
2281,7150001026634,新規,0,2023-08-09,2023-08-09,Ｃａｌｖｏ株式会社,,株式会社,奈良県,生駒市,北大和２丁目２９番地２,,29,209,6300121,,,,,,,2023-08-09,1,,,,,カルボ,0
2286,7180001157476,新規,0,2023-08-09,2023-08-09,株式会社Ｎ．ｅｓｔａｔｅ,,株式会社,愛知県,名古屋市西区,則武新町１丁目３番３号,,23,104,4510051,,,,,,,2023-08-09,1,,,,,エヌエステート,0
2287,7180001157492,新規,0,2023-08-09,2023-08-09,株式会社Ｕｎｔｒａｃｅ,,株式会社,愛知県,東海市,中央町６丁目１９５番地４,,23,222,4760013,,,,,,,2023-08-09,1,,,,,アントレース,0
2288,7180001157526,新規,0,2023-08-09,2023-08-09,不思議な神霊伺い志穂株式会社,,株式会社,愛知県,名古屋市名東区,香南２丁目８０５番地（トーカンマンション香流３０８号）,,23,115,4650004,,,,,,,2023-08-09,1,,,,,フシギナシンレイウカガイシホ,0
2289,7180001157542,新規,0,2023-08-09,2023-08-09,株式会社スリーエイチ,,株式会社,愛知県,名古屋市中区,栄４丁目１４番３１号栄オークリッジ４階,,23,106,4600008,,,,,,,2023-08-09,1,,,,,スリーエイチ,0
2290,7180001157559,新規,0,2023-08-09,2023-08-09,株式会社ハイドマネジメント,,株式会社,愛知県,清須市,西枇杷島町古城１丁目１１番地１１,,23,233,4520001,,,,,,,2023-08-09,1,,,,,ハイドマネジメント,0
2291,7180001157567,新規,0,2023-08-09,2023-08-09,株式会社ビジフル,,株式会社,愛知県,名古屋市中村区,則武２丁目１４番地１１号名駅富士ビル,,23,105,4530014,,,,,,,2023-08-09,1,,,,,ビジフル,0
2292,7180001157609,新規,0,2023-08-09,2023-08-09,株式会社ｈｅａ,,株式会社,愛知県,名古屋市中村区,名駅３丁目１１番９号,,23,105,4500002,,,,,,,2023-08-09,1,,,,,エイチイーエー,0
2295,7180003025557,新規,0,2023-08-09,2023-08-09,合同会社ＢｕｉｌｄｅｒＡｒｔｓ,,合同会社,愛知県,名古屋市中川区,山王１丁目２－２９ラドゥセール山王１１０１,,23,110,4540011,,,,,,,2023-08-09,1,,,,,ビルダーアーツ,0
2296,7180003025573,新規,0,2023-08-09,2023-08-09,合同会社Ｎｏ．Ｌｉｍｉｔ,,合同会社,愛知県,名古屋市中村区,名駅５丁目３１番１０号リンクス名駅ビル６Ｆ,,23,105,4500002,,,,,,,2023-08-09,1,,,,,ノーリミット,0
2297,7180003025607,新規,0,2023-08-09,2023-08-09,合同会社健康エステート,,合同会社,愛知県,愛西市,鰯江町郷東５６番地,,23,232,4960923,,,,,,,2023-08-09,1,,,,,ケンコウエステート,0
2303,7180301037659,新規,0,2023-08-09,2023-08-09,株式会社トータルアーチカンパニー,,株式会社,愛知県,豊田市,美里３丁目９番地４,,23,211,4710805,,,,,,,2023-08-09,1,,,,,トータルアーチカンパニー,0
2304,7180301037691,新規,0,2023-08-09,2023-08-09,メダリオン・ジャパンリゾート株式会社,,株式会社,愛知県,岡崎市,鹿勝川町字玉沢２番地９,,23,202,4443623,,,,,,,2023-08-09,1,,,,,メダリオンジャパンリゾート,0
2306,7190003004411,新規,0,2023-08-09,2023-08-09,合同会社ＥＡＲＬＹ　ＶＥＮＴＯ,,合同会社,三重県,津市,相生町１７８番地,,24,201,5140017,,,,,,,2023-08-09,1,,,,,アーリィヴェント,0
2309,7200005013516,新規,0,2023-08-09,2023-08-09,一般社団法人ベトナム人暮らしビジネスサポートセンター,,その他の設立登記法人,岐阜県,不破郡垂井町,府中１５２８番地の３,,21,361,5032114,,,,,,,2023-08-09,1,,,,,ベトナムジンクラシビジネスサポートセンター,0
2312,7220001025538,新規,0,2023-08-09,2023-08-09,ＳＵＮ‐ＲＩＳＥ株式会社,,株式会社,石川県,金沢市,増泉５丁目４番１１‐１号,,17,201,9218025,,,,,,,2023-08-09,1,,,,,サンライズ,0
2317,7240001061936,新規,0,2023-08-09,2023-08-09,ＲＩＴＡ　Ｈｏｌｄｉｎｇｓ株式会社,,株式会社,広島県,広島市中区,立町６番１号,,34,101,7300032,,,,,,,2023-08-09,1,,,,,リタホールディングス,0
2318,7240001061944,新規,0,2023-08-09,2023-08-09,株式会社日雄重機械,,株式会社,広島県,尾道市,美ノ郷町三成３２２９番地２,,34,205,7220215,,,,,,,2023-08-09,1,,,,,ニチユウジュウキカイ,0
2319,7240001061952,新規,0,2023-08-09,2023-08-09,株式会社福山水商,,株式会社,広島県,福山市,沼隈町大字能登原２４９３番地２２,,34,207,7200312,,,,,,,2023-08-09,1,,,,,フクヤマスイショウ,0
2321,7240003006253,新規,0,2023-08-09,2023-08-09,合同会社武蔵坊本店,,合同会社,広島県,広島市中区,富士見町５番１２号,,34,101,7300043,,,,,,,2023-08-09,1,,,,,,0
2326,7260001038214,新規,0,2023-08-09,2023-08-09,株式会社ａｎｐｕｒｐｌｅ,,株式会社,岡山県,岡山市東区,草ケ部２６８番地４,,33,103,7090635,,,,,,,2023-08-09,1,,,,,アンパープル,0
2328,7260003004387,新規,0,2023-08-09,2023-08-09,合同会社リプライ,,合同会社,岡山県,岡山市中区,門田文化町１丁目５番３１号,,33,102,7038273,,,,,,,2023-08-09,1,,,,,リプライ,0
2329,7290001102578,新規,0,2023-08-09,2023-08-09,株式会社イズミドボク,,株式会社,福岡県,福岡市東区,三苫７丁目１番９－１０２号,,40,131,8110201,,,,,,,2023-08-09,1,,,,,イズミドボク,0
2330,7290001102603,新規,0,2023-08-09,2023-08-09,株式会社Ｐｌａｙｆｌｏｗ,,株式会社,福岡県,福岡市中央区,天神２丁目２番１２号Ｔ＆Ｊビルディング７Ｆ,,40,133,8100001,,,,,,,2023-08-09,1,,,,,プレイフロウ,0
2334,7290801029789,新規,0,2023-08-09,2023-08-09,株式会社Ｋｙｚｓ　Ｇｒｏｕｐ,,株式会社,福岡県,行橋市,大字大野井４４３番地１グリーンタウンＡ１０２号,,40,213,8240041,,,,,,,2023-08-09,1,,,,,ケイズグループ,0
2337,7310003004621,新規,0,2023-08-09,2023-08-09,合同会社ｎｕｍｂｅｒ　ｆｉｖｅ,,合同会社,長崎県,佐世保市,俵町１－２,,42,202,8570016,,,,,,,2023-08-09,1,,,,,ナンバーファイブ,0
2341,7320003004141,新規,0,2023-08-09,2023-08-09,ａｒｒｏｗ　ｆｉｅｌｄ合同会社,,合同会社,大分県,別府市,幸町４番１２号,,44,202,8740907,,,,,,,2023-08-09,1,,,,,アローフィールド,0
2348,7340001025781,新規,0,2023-08-09,2023-08-09,株式会社ＫＡＮＳＨＡ,,株式会社,鹿児島県,鹿児島市,西谷山２丁目１４番６号,,46,201,8910117,,,,,,,2023-08-09,1,,,,,カンシャ,0
2349,7340001025798,新規,0,2023-08-09,2023-08-09,西郷企画株式会社,,株式会社,鹿児島県,鹿児島市,郡元２丁目８－１７レオパレス２１・１０１号室,,46,201,8900065,,,,,,,2023-08-09,1,,,,,,0
2350,7340001025807,新規,0,2023-08-09,2023-08-09,株式会社エンドル,,株式会社,鹿児島県,鹿児島市,原良６丁目１番１号,,46,201,8900026,,,,,,,2023-08-09,1,,,,,エンドル,0
2353,7340003004197,新規,0,2023-08-09,2023-08-09,合同会社想楽,,合同会社,鹿児島県,南九州市,頴娃町別府７３４９番地,,46,223,8910704,,,,,,,2023-08-09,1,,,,,,0
2354,7350001018495,新規,0,2023-08-09,2023-08-09,株式会社滝口,,株式会社,宮崎県,宮崎市,大字本郷南方２１０２番地１,,45,201,8800921,,,,,,,2023-08-09,1,,,,,タキグチ,0
2356,7360001032405,新規,0,2023-08-09,2023-08-09,株式会社琉球会計ビジネスサポート,,株式会社,沖縄県,那覇市,銘苅２丁目３番１号なは産業支援センター５０３号室,,47,201,9000004,,,,,,,2023-08-09,1,,,,,リュウキュウカイケイビジネスサポート,0
2358,7360003013188,新規,0,2023-08-09,2023-08-09,合同会社ひめりつＬＩＦＥ,,合同会社,沖縄県,那覇市,若狭３丁目２３番３号,,47,201,9000031,,,,,,,2023-08-09,1,,,,,ヒメリツライフ,0
2359,7360005006891,新規,0,2023-08-09,2023-08-09,一般社団法人あけみお研究会,,その他の設立登記法人,沖縄県,名護市,宮里１丁目２８番１１号,,47,209,9050011,,,,,,,2023-08-09,1,,,,,アケミオケンキュウカイ,0
2361,7370001050265,新規,0,2023-08-09,2023-08-09,株式会社ネオ・モジュール,,株式会社,宮城県,仙台市宮城野区,東仙台１丁目５番５１号,,04,102,9830833,,,,,,,2023-08-09,1,,,,,ネオモジュール,0
2362,7370001050281,新規,0,2023-08-09,2023-08-09,ライトス株式会社,,株式会社,宮城県,宮城郡利府町,花園１丁目１番地１,,04,406,9810132,,,,,,,2023-08-09,1,,,,,ライトス,0
2367,7380001033913,新規,0,2023-08-09,2023-08-09,株式会社Ｍ＆Ｓ,,株式会社,福島県,いわき市,平字北目町５３－５,,07,204,9708026,,,,,,,2023-08-09,1,,,,,エムアンドエス,0
2369,7390005009025,新規,0,2023-08-09,2023-08-09,一般社団法人日本多能工協会,,その他の設立登記法人,山形県,上山市,阿弥陀地５６８番地,,06,207,9993235,,,,,,,2023-08-09,1,,,,,ニホンタノウコウキョウカイ,0
2373,7410001013564,新規,0,2023-08-09,2023-08-09,株式会社神’ｓプランニング,,株式会社,秋田県,秋田市,大住４丁目１０番３－４０７号,,05,201,0101436,,,,,,,2023-08-09,1,,,,,カミズプランニング,0
2378,7430003015301,新規,0,2023-08-09,2023-08-09,合同会社みじり,,合同会社,北海道,札幌市中央区,北六条西２４丁目２番７号エスポワール２４　１０５号室,,01,101,0600006,,,,,,,2023-08-09,1,,,,,ミジリ,0
2379,7430003015318,新規,0,2023-08-09,2023-08-09,合同会社涼月建業,,合同会社,北海道,札幌市西区,発寒三条４丁目３番１９号,,01,107,0630823,,,,,,,2023-08-09,1,,,,,スズケンギョウ,0
2381,7470001019738,新規,0,2023-08-09,2023-08-09,株式会社八百万,,株式会社,香川県,三豊市,詫間町詫間８８９番地１,,37,208,7691101,,,,,,,2023-08-09,1,,,,,ヤオヨロズ,0
2382,7470003002469,新規,0,2023-08-09,2023-08-09,合同会社Ｐａｄｄ　ｄｅｓｉｇｎ,,合同会社,香川県,木田郡三木町,大字平木５４３番地１６,,37,341,7610702,,,,,,,2023-08-09,1,,,,,パッドデザイン,0
2386,7700150110141,新規,0,2023-08-09,2022-06-21,ＪＡ東京アグリパーク共同運営会議,,その他,東京都,渋谷区,代々木２丁目１０番１２号ＪＡ東京南新宿ビル１階,,13,113,1510053,,,,,,,2022-06-21,1,,,,,ジエイエイトウキヨウアグリパークキヨウドウウンエイカイギ,0
2387,7700150118894,新規,0,2023-08-09,2023-08-09,Ｇｕａｎｇｚｈｏｕ　ＪｉｕｓｈｅＢａｘｉｇｕａｎｇｇａｏ　ｙｏｕｘｉａｎｇｏｎｇｓｉ,,外国会社等,,,,,,,,Ｂａｉｙｕｎｑｕｔｏｎｇｈｅｊｉｅｔｏｎｇｓｈａｌｕ２８３ｈａｏｔｉａｎｊｉａｎｊｉａｊｕｚｈｕａｎｇｓｈｉｇｕａｎｇ　ｃｈａｎｇｃｈｕａｎｇｙｉｙｕａｎｑｕ６ｄｏｎｇ１ｃｅｎｇｚｉｊｉａｎｆａｎｇｗｕ（ｚｉｂｉａｎ６ｄｏｎｇ１１２Ａ）Ｇｕａｎｇｚｈｏｕ　Ｇｕａｎｇｄｏｎｇ　ＣＮ,,,,,,2023-08-09,1,,,,,グゥアンゾォウジュシェバシグゥアンガオユウゲンコウシ,0
2388,7700150118903,新規,0,2023-08-09,2023-08-09,Ｓｈｅｎｚｈｅｎ　Ｘｉｎｇｆａｓｈｕｎ　ｗｕｊｉｎｓｕｊｉａｏ　ｚｈｉｐｉｎ．，ＬＴＤ,,外国会社等,,,,,,,,ｌｏｎｇｈｕａｑｕｌｏｎｇｈｕａｊｉｅｄａｏｆｕｋａｎｇｓｈｅｑｕｄｏｎｇｈｕａｎｅｒｌｕ８ｈａｏＢｚｕｏ５Ｉ　ｓｈｅｎｚｈｅｎｓｈｉ　Ｇｕａｎｇｄｏｎｇ　ＣＮ,,,,,,2023-08-09,1,,,,,シェンゼェンシンファシュンウジンスジャオジピンリミテッド,0
2389,7700150118911,新規,0,2023-08-09,2023-08-09,ＳＨＥＮ　ＺＨＥＮ　ＧＵＡＮ　ＣＨＵ　ＳＨＡＮＧ　ＭＡＯ　ＹＯＵ　ＸＩＡＮ　ＧＯＮＧ　ＳＩ,,外国会社等,,,,,,,,ｘｉ　ｘｉａｎｇ　ｊｉｅ　ｄａｏ　ｇｏｎｇ　ｌｅ　ｓｈｅ　ｑｕ　ｘｕ　ｓｈｅｎｇ　Ｂｑｕ　ｘｕ　ｓｈｅｎｇ　ｇｏｎｇ　ｙｕ　ｌｏｕ　１１１１　ｓｈｅｎ　ｚｈｅｎ　ｓｈｉ　ｇｕａｎｇ　ｄｏｎｇ　ｓｈｅｎｇ　ｂａｏ　ａｎ　ｑｕ　ｚｈｏｎｇ　ｇｕｏ,,,,,,2023-08-09,1,,,,,シンセングゥアンツシャンマオユウゲンコウシ,0
2390,7700150118928,新規,0,2023-08-09,2023-08-09,ｓｈｅｎｚｈｅｎｓｈｉ　ｃｈｏｎｇｍｉｎｇｎｉａｏ　ｋｅｊｉ　ｙｏｕｘｉａｎｇｏｎｇｓｉ,,外国会社等,,,,,,,,ｙａｎｔｉａｎｑｕｙａｎｔｉａｎｊｉｅｄａｏｍｉｎｇｚｈｕｓｈｅｑｕ　ｄｏｎｇｈａｉｄａｏ２７０ｈａｏｈｅｈｅｎｇｊｉａｙｕａｎＡｄｏｎｇ５Ａ０６　Ｓｈｅｎｚｈｅｎｓｈｉ　Ｇｕａｎｇｄｏｎｇｓｈｅｎｇ　５１８０００,,,,,,2023-08-09,1,,,,,シェンゼェンシチョンミンニャオケジヨウシェンゴンスー,0
2391,7700150118936,新規,0,2023-08-09,2023-08-09,ＳＨＥＮＺＨＥＮ　ＳＵＮＷＩＮ　ＴＥＣＨＮＯＬＯＧＹ　ＣＯ．，ＬＴＤ,,外国会社等,,,,,,,,Ｔａｎｇｘｉａｃｈｏｎｇ　Ｃｏｍｍｕｎｉｔｙ，Ｙａｎｌｕｏ　Ｓｔｒｅｅｔ，Ｂａｏ’ａｎ　Ｄｉｓｔｒｉｃｔ　２０２，Ｂｕｉｌｄｉｎｇ　Ｂ，Ｎｏ．１３　Ｆｕｔａｎｇ　Ｒｏａｄ　Ｓｈｅｎｚｈｅｎ　Ｇｕａｎｇｄｏｎｇ,,,,,,2023-08-09,1,,,,,シンセンサンウィンテクナロジーカンパニーリミテッド,0
2392,7700150118944,新規,0,2023-08-09,2023-08-09,Ｘｉａｍｅｎ　Ｊｉａｓｈａｎｇ　Ｉｍｐｏｒｔ　ａｎｄ　Ｅｘｐｏｒｔ　Ｃｏ．，Ｌｔｄ,,外国会社等,,,,,,,,Ｒｏｏｍ　２１１　ｏｆ　２，Ｊｉａｈｅ　Ｒｏａｄ　ＮＯ．５６４，Ｈｕｌｉ　Ｄｉｓｔｒｉｃｔ，Ｘｉａｍｅｎ，Ｆｕｊｉａｎ　ＣＮ,,,,,,2023-08-09,1,,,,,シャメンジャサンインポートアンドエクスポートカンパニーリミテッド,0
2393,7700150118952,新規,0,2023-08-09,2023-08-09,ｓｈｅｎｚｈｅｎｓｈｉ　ｚｉｊｕｎｊｉａｚｅｋｅｊｉ　ｙｏｕｘｉａｎｇｏｎｇｓｉ,,外国会社等,,,,,,,,ｓｈｅｎｚｈｅｎｓｈｉｌｏｎｇｇａｎｇｑｕｊｉｈｕａｊｉｅｄａｏｌｉｈｕｓｈｅｑｕｌｉｈｕｈｕａｙｕａｎ１４ｄｏｎｇｌｉａｎｇｅ１０４,,,,,,2023-08-09,1,,,,,シンセンシジジュンジャゼカギユウゲンコウシ,0
2394,7700150118960,新規,0,2023-08-09,2023-08-09,ｎｕｏ　ｓｈｉ（Ｂｅｉｊｉｎｇ）ｓｈａｎｇ　ｙｅ　ｇｕ　ｆｅｎ　ｙｏｕ　ｘｉａｎ　ｇｏｎｇ　ｓｉ,,外国会社等,,,,,,,,Ｎｏ．０９Ａ，３ｒｄ　Ｆｌｏｏｒ，Ｂｕｉｌｄｉｎｇ　１　Ｃｏｍｍｅｒｃｉａｌ　Ｐａｒｔ，Ｘｉｄａｗａｎｇ　Ｒｏａｄ　Ｙａｒｄ　Ｊｉａ　２２，Ｃｈａｏｙａｎｇ　Ｄｉｓｔｒｉｃｔ，Ｂｅｉｊｉｎｇ,,,,,,2023-08-09,1,,,,,ヌオシーベイジンシャンイエグーフェンヨウシエンゴンスー,0
2405,8010001237368,新規,0,2023-08-09,2023-08-09,ＰＧＳロジスティクス・ジャパン株式会社,,株式会社,東京都,中央区,日本橋人形町３丁目３番５号８０２号室,,13,102,1030013,,,,,,,2023-08-09,1,,,,,ピージーエスロジスティクスジャパン,0
2406,8010001237384,新規,0,2023-08-09,2023-08-09,バリューマネジメント株式会社,,株式会社,東京都,千代田区,丸の内２丁目１番１号明治生命館６階,,13,101,1000005,,,,,,,2023-08-09,1,,,,,バリューマネジメント,0
2407,8010001237509,新規,0,2023-08-09,2023-08-09,株式会社ＥＡＳＴＥＰ,,株式会社,東京都,中央区,日本橋人形町３丁目３－５,,13,102,1030013,,,,,,,2023-08-09,1,,,,,イーステップ,0
2408,8010001237517,新規,0,2023-08-09,2023-08-09,株式会社僥法堂,,株式会社,東京都,中央区,銀座１丁目１２番４号Ｎ＆Ｅ．ＢＬＤ．６Ｆ,,13,102,1040061,,,,,,,2023-08-09,1,,,,,ギョウホウドウ,0
2409,8010001237533,新規,0,2023-08-09,2023-08-09,株式会社メヴィア,,株式会社,東京都,中央区,日本橋兜町１７番２号兜町第６葉山ビル４Ｆ,,13,102,1030026,,,,,,,2023-08-09,1,,,,,メヴィア,0
2410,8010001237574,新規,0,2023-08-09,2023-08-09,株式会社３６５,,株式会社,東京都,千代田区,丸の内２丁目２番１号岸本ビルヂング６階,,13,101,1000005,,,,,,,2023-08-09,1,,,,,サンロクゴ,0
2411,8010001237590,新規,0,2023-08-09,2023-08-09,株式会社金甲舎,,株式会社,東京都,千代田区,神田神保町１丁目１６番地３,,13,101,1010051,,,,,,,2023-08-09,1,,,,,キンコウシャ,0
2415,8010003041289,新規,0,2023-08-09,2023-08-09,合同会社イントゥバリュー,,合同会社,東京都,千代田区,五番町１２番地ドミール五番町２－０４４号,,13,101,1020076,,,,,,,2023-08-09,1,,,,,イントゥバリュー,0
2416,8010003041297,新規,0,2023-08-09,2023-08-09,合同会社ＧＵＥＬＬ,,合同会社,東京都,中央区,銀座１丁目２２番１１号銀座大竹ビジデンス２階,,13,102,1040061,,,,,,,2023-08-09,1,,,,,グエル,0
2417,8010003041306,新規,0,2023-08-09,2023-08-09,ＮＡＭＨＥＮＧ　ＣＯＮＣＲＥＴＥ　ＪＡＰＡＮ合同会社,,合同会社,東京都,千代田区,丸の内１丁目６番２号新丸の内センタービル２１階,,13,101,1000005,,,,,,,2023-08-09,1,,,,,ナムヘンコンクリートジャパン,0
2418,8010003041314,新規,0,2023-08-09,2023-08-09,合同会社ＩＳＬＡＮＤＥＲ,,合同会社,東京都,小笠原村,父島字東町,,13,421,1002101,,,,,,,2023-08-09,1,,,,,アイランダー,0
2419,8010003041330,新規,0,2023-08-09,2023-08-09,合同会社ＪＤＩＰ‐１０,,合同会社,東京都,千代田区,九段北３丁目２番４号,,13,101,1020073,,,,,,,2023-08-09,1,,,,,ジェイディーアイピーテン,0
2426,8010401176133,新規,0,2023-08-09,2023-08-09,株式会社エクストリームスポーツエージェンシー,,株式会社,東京都,港区,南青山１丁目１番１号青山ツインタワー西館１６階－Ｅ,,13,103,1070062,,,,,,,2023-08-09,1,,,,,エクストリームスポーツエージェンシー,0
2427,8010401176281,新規,0,2023-08-09,2023-08-09,ＴＩＧＲＥＳ株式会社,,株式会社,東京都,港区,虎ノ門４丁目３番１号,,13,103,1050001,,,,,,,2023-08-09,1,,,,,ティグレス,0
2428,8010401176323,新規,0,2023-08-09,2023-08-09,フューズリソースインベストメント株式会社,,株式会社,東京都,港区,港南２丁目１７－１京王品川ビル２階,,13,103,1080075,,,,,,,2023-08-09,1,,,,,フューズリソースインベストメント,0
2429,8010403030610,新規,0,2023-08-09,2023-08-09,合同会社スターライト,,合同会社,東京都,港区,赤坂４丁目８番１９号赤坂フロントタウン３階,,13,103,1070052,,,,,,,2023-08-09,1,,,,,スターライト,0
2431,8010501050873,新規,0,2023-08-09,2023-08-09,株式会社ＭＹ　ＥＣＢＯ,,株式会社,東京都,台東区,西浅草２丁目２５番１－１２０８号,,13,106,1110035,,,,,,,2023-08-09,1,,,,,マイエクボ,0
2433,8010503007112,新規,0,2023-08-09,2023-08-09,郁笙合同会社,,合同会社,東京都,台東区,台東１丁目２９番３－３０９号,,13,106,1100016,,,,,,,2023-08-09,1,,,,,ユーショウ,0
2444,8010701044700,新規,0,2023-08-09,2023-08-09,ＦＳＳＰＣ株式会社,,株式会社,東京都,品川区,西五反田５丁目２番４号,,13,109,1410031,,,,,,,2023-08-09,1,,,,,エフエスエスピーシー,0
2445,8010801034238,新規,0,2023-08-09,2023-08-09,株式会社ブルーベースメント,,株式会社,東京都,大田区,池上６丁目３０番３－５０１号,,13,111,1460082,,,,,,,2023-08-09,1,,,,,,0
2446,8010803004627,新規,0,2023-08-09,2023-08-09,合同会社プランタン,,合同会社,東京都,大田区,中央５丁目１０番３号,,13,111,1430024,,,,,,,2023-08-09,1,,,,,プランタン,0
2448,8010901053583,新規,0,2023-08-09,2023-08-09,株式会社ＯＳＵ,,株式会社,東京都,世田谷区,三軒茶屋２丁目４８番１４号,,13,112,1540024,,,,,,,2023-08-09,1,,,,,オス,0
2449,8010901053591,新規,0,2023-08-09,2023-08-09,株式会社ＳＥＡＰＲＥＣＥ,,株式会社,東京都,世田谷区,三軒茶屋１丁目３７番８号ワコーレ三軒茶屋６４ビル３階３Ａ－７号室,,13,112,1540024,,,,,,,2023-08-09,1,,,,,シープリス,0
2450,8010901053609,新規,0,2023-08-09,2023-08-09,株式会社Ｄ５　ＲＥＣＯＲＤＳ,,株式会社,東京都,世田谷区,代沢３丁目５番９号,,13,112,1550032,,,,,,,2023-08-09,1,,,,,ディーファイブレコーズ,0
2451,8010903008370,新規,0,2023-08-09,2023-08-09,合同会社ＳＯＪ,,合同会社,東京都,世田谷区,代田２丁目１７番１８－８０３号,,13,112,1550033,,,,,,,2023-08-09,1,,,,,エスオージェー,0
2452,8011001012546,新規,0,2023-08-09,2023-08-09,セブンシーズ株式会社,,株式会社,東京都,渋谷区,千駄ヶ谷３丁目５３番１４号,,13,113,1510051,,,,,,,2023-08-09,1,,,,,,0
2458,8011001156046,新規,0,2023-08-09,2023-08-09,株式会社Ｒｅｆｏｒｅ,,株式会社,東京都,渋谷区,西原１丁目２３－１－３１０,,13,113,1510066,,,,,,,2023-08-09,1,,,,,リフォア,0
2459,8011001156079,新規,0,2023-08-09,2023-08-09,株式会社アールグレイ,,株式会社,東京都,渋谷区,道玄坂１丁目１０番８号渋谷道玄坂東急ビル２Ｆ－Ｃ,,13,113,1500043,,,,,,,2023-08-09,1,,,,,アールグレイ,0
2460,8011001156153,新規,0,2023-08-09,2023-08-09,株式会社Ｙｕ,,株式会社,東京都,目黒区,目黒本町４丁目２番１４号ルナ１０１,,13,110,1520002,,,,,,,2023-08-09,1,,,,,ユウ,0
2461,8011001156260,新規,0,2023-08-09,2023-08-09,株式会社トラスティアス,,株式会社,東京都,渋谷区,恵比寿西２丁目２番１０号,,13,113,1500021,,,,,,,2023-08-09,1,,,,,トラスティアス,0
2462,8011001156343,新規,0,2023-08-09,2023-08-09,株式会社国領ビル管理,,株式会社,東京都,目黒区,緑が丘２丁目１５番１１号,,13,110,1520034,,,,,,,2023-08-09,1,,,,,コクリョウビルカンリ,0
2470,8011101103922,新規,0,2023-08-09,2023-08-09,株式会社アルファラボ,,株式会社,東京都,新宿区,新宿１丁目７番１０号,,13,104,1600022,,,,,,,2023-08-09,1,,,,,アルファラボ,0
2471,8011101103930,新規,0,2023-08-09,2023-08-09,株式会社Ｔ．Ｔ．Ｉ．,,株式会社,東京都,新宿区,岩戸町１６番地メイジャー神楽坂４０３,,13,104,1620832,,,,,,,2023-08-09,1,,,,,ティーティーアイ,0
2472,8011101103939,新規,0,2023-08-09,2023-08-09,株式会社ＪＨＢｒｉｄｇｅ,,株式会社,東京都,新宿区,北新宿１丁目１番３号,,13,104,1690074,,,,,,,2023-08-09,1,,,,,ジェイエイチブリッジ,0
2473,8011101103947,新規,0,2023-08-09,2023-08-09,ＷｏｗＣｒａｆｔ株式会社,,株式会社,東京都,新宿区,市谷田町３丁目８番市ヶ谷科学技術イノベーションセンタービル２Ｆ,,13,104,1620843,,,,,,,2023-08-09,1,,,,,ワオクラフト,0
2476,8011103013351,新規,0,2023-08-09,2023-08-09,合同会社Ｐａｎｄｏｒａ,,合同会社,東京都,新宿区,西新宿３丁目３番１３号西新宿水間ビル２Ｆ,,13,104,1600023,,,,,,,2023-08-09,1,,,,,パンドラ,0
2478,8011201024829,新規,0,2023-08-09,2023-08-09,株式会社ブリッジ,,株式会社,東京都,中野区,中央５丁目３８番１１－Ａ２０１,,13,114,1640011,,,,,,,2023-08-09,1,,,,,ブリッジ,0
2479,8011201024837,新規,0,2023-08-09,2023-08-09,ＯＮソリューションズ株式会社,,株式会社,東京都,中野区,上高田２丁目２７番３号,,13,114,1640002,,,,,,,2023-08-09,1,,,,,オーエヌソリューションズ,0
2480,8011201024845,新規,0,2023-08-09,2023-08-09,株式会社ケナエア,,株式会社,東京都,中野区,中野５丁目６７番７号プラザ中野８０１,,13,114,1640001,,,,,,,2023-08-09,1,,,,,ケナエア,0
2481,8011401025354,新規,0,2023-08-09,2023-08-09,株式会社Ｇｒａｎｄｉｒ,,株式会社,東京都,板橋区,南常盤台２丁目１３番７号,,13,119,1740072,,,,,,,2023-08-09,1,,,,,グランディール,0
2482,8011401025362,新規,0,2023-08-09,2023-08-09,株式会社サーキュラー・ワン,,株式会社,東京都,板橋区,仲宿５７番６－１００６号,,13,119,1730005,,,,,,,2023-08-09,1,,,,,サーキュラーワン,0
2483,8011501029635,新規,0,2023-08-09,2023-08-09,奈希株式会社,,株式会社,東京都,荒川区,南千住３丁目２７－２浅草ビル５０８,,13,118,1160003,,,,,,,2023-08-09,1,,,,,ナツキ,0
2485,8011603004016,新規,0,2023-08-09,2023-08-09,まんだい合同会社,,合同会社,東京都,練馬区,大泉学園町７丁目２番２６号,,13,120,1780061,,,,,,,2023-08-09,1,,,,,マンダイ,0
2486,8011605002538,新規,0,2023-08-09,2023-08-09,一般社団法人ｇｒｏｗｔｈ　ｈａｒｍｏｎｙ,,その他の設立登記法人,東京都,練馬区,石神井台１丁目２２番１０号,,13,120,1770045,,,,,,,2023-08-09,1,,,,,グロウスハーモニー,0
2487,8011701026507,新規,0,2023-08-09,2023-08-09,株式会社リザクト,,株式会社,東京都,江戸川区,北篠崎２丁目１番９号,,13,123,1330053,,,,,,,2023-08-09,1,,,,,リザクト,0
2489,8011801042858,新規,0,2023-08-09,2023-08-09,株式会社アール,,株式会社,東京都,葛飾区,西亀有１丁目３２番１１号,,13,122,1240002,,,,,,,2023-08-09,1,,,,,アール,0
2492,8012401040830,新規,0,2023-08-09,2023-08-09,株式会社エンドロール,,株式会社,東京都,武蔵野市,吉祥寺東町１丁目６番２７号吉祥寺Ｇビル３階,,13,203,1800002,,,,,,,2023-08-09,1,,,,,エンドロール,0
2493,8012401040847,新規,0,2023-08-09,2023-08-09,株式会社クラウドパートナー,,株式会社,東京都,小金井市,貫井南町３丁目２０番９号,,13,210,1840014,,,,,,,2023-08-09,1,,,,,クラウドパートナー,0
2495,8012701017792,新規,0,2023-08-09,2023-08-09,株式会社ＨＡＲＡＨＡＲＡ,,株式会社,東京都,東久留米市,下里７丁目６番１号,,13,222,2030043,,,,,,,2023-08-09,1,,,,,ハラハラ,0
2496,8012801022552,新規,0,2023-08-09,2023-08-09,株式会社Ｐ．Ｂ,,株式会社,東京都,国立市,中２丁目２１番地の３７,,13,215,1860004,,,,,,,2023-08-09,1,,,,,ピービー,0
2498,8012803003146,新規,0,2023-08-09,2023-08-09,合同会社令研究所,,合同会社,東京都,国分寺市,内藤２丁目２４番地１１,,13,214,1850033,,,,,,,2023-08-09,1,,,,,レイケンキュウジョ,0
2499,8013301051174,新規,0,2023-08-09,2023-08-09,株式会社ＳＳＩパートナー,,株式会社,東京都,豊島区,西池袋１丁目４番１０号,,13,116,1710021,,,,,,,2023-08-09,1,,,,,エスエスアイパートナー,0
2500,8013303006746,新規,0,2023-08-09,2023-08-09,合同会社データシステムサービス,,合同会社,東京都,豊島区,南大塚２丁目１１－１０ミモザビル３Ｆ,,13,116,1700005,,,,,,,2023-08-09,1,,,,,データシステムサービス,0
2506,8020001152780,新規,0,2023-08-09,2023-08-09,株式会社エムフロム,,株式会社,神奈川県,横浜市西区,岡野１丁目１２番１８－７０１号,,14,103,2200073,,,,,,,2023-08-09,1,,,,,エムフロム,0
2507,8020001152797,新規,0,2023-08-09,2023-08-09,株式会社Ｌｉｂｒｉｇｈｔ,,株式会社,神奈川県,横浜市中区,住吉町３丁目３６－２ＤＥＸ１９９２ビル２階,,14,104,2310013,,,,,,,2023-08-09,1,,,,,リブライト,0
2508,8020001152839,新規,0,2023-08-09,2023-08-09,株式会社輝楽の里不動産,,株式会社,神奈川県,横浜市都筑区,見花山１－３０見花山ビル３階,,14,118,2240066,,,,,,,2023-08-09,1,,,,,キラノサトフドウサン,0
2509,8020001152847,新規,0,2023-08-09,2023-08-09,ブライト株式会社,,株式会社,神奈川県,横浜市保土ケ谷区,岩崎町２９－８ヤシロハイツ２０１,,14,106,2400015,,,,,,,2023-08-09,1,,,,,ブライト,0
2510,8020001152913,新規,0,2023-08-09,2023-08-09,ＨＴＯ株式会社,,株式会社,神奈川県,横浜市中区,根岸町２丁目４９番地７,,14,104,2310836,,,,,,,2023-08-09,1,,,,,エイチティーオー,0
2515,8021001079816,新規,0,2023-08-09,2023-08-09,株式会社Ｇサポート,,株式会社,神奈川県,足柄下郡湯河原町,鍛冶屋５６３番地の８,,14,384,2590313,,,,,,,2023-08-09,1,,,,,ジーサポート,0
2516,8021001079832,新規,0,2023-08-09,2023-08-09,ティック建設株式会社,,株式会社,神奈川県,横須賀市,池上２丁目９番１４号メゾンＳ１０１号室,,14,201,2380035,,,,,,,2023-08-09,1,,,,,ティックケンセツ,0
2520,8021003013384,新規,0,2023-08-09,2023-08-09,Ｂｅａｒ　Ｆｒｕｉｔｓ合同会社,,合同会社,神奈川県,藤沢市,鵠沼松が岡４丁目５－３１－３,,14,205,2510038,,,,,,,2023-08-09,1,,,,,ベアフルーツ,0
2524,8030001155089,新規,0,2023-08-09,2023-08-09,株式会社戸張興業,,株式会社,埼玉県,吉川市,大字木売新田２１１番地６,,11,243,3420044,,,,,,,2023-08-09,1,,,,,トバリコウギョウ,0
2525,8030001155114,新規,0,2023-08-09,2023-08-09,株式会社メディトモ,,株式会社,埼玉県,本庄市,児玉町上真下３２６－１,,11,211,3670205,,,,,,,2023-08-09,1,,,,,メディトモ,0
2526,8030001155130,新規,0,2023-08-09,2023-08-09,株式会社阿部工房,,株式会社,埼玉県,川越市,石原町１丁目２２番地１,,11,201,3500824,,,,,,,2023-08-09,1,,,,,アベコウボウ,0
2527,8030001155155,新規,0,2023-08-09,2023-08-09,株式会社Ｎ．Ｅ．Ｏ,,株式会社,埼玉県,川口市,前上町１８番地２ＮＫ川口ビル３０１,,11,203,3330843,,,,,,,2023-08-09,1,,,,,エヌイーオー,0
2528,8030001155188,新規,0,2023-08-09,2023-08-09,四海株式会社,,株式会社,埼玉県,蕨市,南町３丁目３番１０ラルゴ蕨２０３号,,11,223,3350003,,,,,,,2023-08-09,1,,,,,ヨツミ,0
2529,8030001155295,新規,0,2023-08-09,2023-08-09,エネイブル株式会社,,株式会社,埼玉県,さいたま市緑区,東大門２丁目７番地１４,,11,109,3360964,,,,,,,2023-08-09,1,,,,,エネイブル,0
2531,8030003022279,新規,0,2023-08-09,2023-08-09,合同会社匠琢瑛,,合同会社,埼玉県,川口市,大字峯８２番地の１３,,11,203,3340056,,,,,,,2023-08-09,1,,,,,タクミタクエイ,0
2536,8040001129538,新規,0,2023-08-09,2023-08-09,株式会社桂樂,,株式会社,千葉県,千葉市花見川区,さつきが丘１丁目３７番地２２,,12,102,2620014,,,,,,,2023-08-09,1,,,,,ケイラ,0
2537,8040001129562,新規,0,2023-08-09,2023-08-09,株式会社つながるタオル,,株式会社,千葉県,千葉市稲毛区,稲毛町５丁目５４４番地１ルピアコート稲毛５０９号,,12,103,2630035,,,,,,,2023-08-09,1,,,,,ツナガルタオル,0
2538,8040001129570,新規,0,2023-08-09,2023-08-09,株式会社Ｌａｕｎｃｈ　Ｌａｂ．,,株式会社,千葉県,市川市,市川南３丁目１番１号アプロード市川２１７,,12,203,2720033,,,,,,,2023-08-09,1,,,,,ローンチラボ,0
2539,8040001129579,新規,0,2023-08-09,2023-08-09,株式会社かかわる,,株式会社,千葉県,千葉市稲毛区,小中台町４８８番地１稲毛スカイタウン４棟１５０８号,,12,103,2630044,,,,,,,2023-08-09,1,,,,,カカワル,0
2540,8040001129604,新規,0,2023-08-09,2023-08-09,ＲａｉｓｅＡｃｔ株式会社,,株式会社,千葉県,千葉市中央区,富士見２丁目７番９号富士見ビル６０９号,,12,101,2600015,,,,,,,2023-08-09,1,,,,,レイズアクト,0
2541,8040001129612,新規,0,2023-08-09,2023-08-09,株式会社大藤会,,株式会社,千葉県,船橋市,習志野台５丁目２８番８号,,12,204,2740063,,,,,,,2023-08-09,1,,,,,ダイトウカイ,0
2542,8040001129620,新規,0,2023-08-09,2023-08-09,株式会社ＳＡＩＡＮＤ,,株式会社,千葉県,千葉市中央区,本町２丁目１－１７－１ＱｕａｔｒｅＳａｉｓｏｎ１０１,,12,101,2600012,,,,,,,2023-08-09,1,,,,,サイアンド,0
2543,8040001129629,新規,0,2023-08-09,2023-08-09,株式会社シンバ,,株式会社,千葉県,市原市,五井中央西１丁目３２番地１８スメルスウィート１０２,,12,219,2900081,,,,,,,2023-08-09,1,,,,,シンバ,0
2546,8040003023078,新規,0,2023-08-09,2023-08-09,合同会社きゅっきゅ,,合同会社,千葉県,市川市,本北方１丁目１５番３号,,12,203,2720816,,,,,,,2023-08-09,1,,,,,キュッキュ,0
2551,8050003007708,新規,0,2023-08-09,2023-08-09,合同会社サイネリア,,合同会社,茨城県,水戸市,見川町２１３１番地の２６２,,08,201,3100913,,,,,,,2023-08-09,1,,,,,サイネリア,0
2552,8050003007716,新規,0,2023-08-09,2023-08-09,Ｊｕｍｅｉｒａｈ　Ｄｕｂａｉ合同会社,,合同会社,茨城県,土浦市,並木２丁目１７－８,,08,203,3000061,,,,,,,2023-08-09,1,,,,,ジュメイラドバイ,0
2555,8060001036237,新規,0,2023-08-09,2023-08-09,株式会社ぐに不動産,,株式会社,栃木県,下都賀郡野木町,大字友沼６４２７番地１５,,09,364,3290101,,,,,,,2023-08-09,1,,,,,グニフドウサン,0
2557,8070003005057,新規,0,2023-08-09,2023-08-09,合同会社クイーン・ティアラ,,合同会社,群馬県,太田市,鶴生田町９５７番地２,,10,205,3730008,,,,,,,2023-08-09,1,,,,,クイーンティアラ,0
2561,8080001025790,新規,0,2023-08-09,2023-08-09,株式会社小野寺工業,,株式会社,静岡県,榛原郡吉田町,川尻８２０番地の１,,22,424,4210302,,,,,,,2023-08-09,1,,,,,オノデラコウギョウ,0
2562,8080001025799,新規,0,2023-08-09,2023-08-09,株式会社ナガシマホールディングス,,株式会社,静岡県,静岡市清水区,伊佐布８７７番地の１,,22,103,4240112,,,,,,,2023-08-09,1,,,,,ナガシマホールディングス,0
2563,8080101024164,新規,0,2023-08-09,2023-08-09,アクアプロダクツ株式会社,,株式会社,静岡県,沼津市,山王台２番１１号,,22,203,4100035,,,,,,,2023-08-09,1,,,,,アクアプロダクツ,0
2568,8100001036653,新規,0,2023-08-09,2023-08-09,株式会社ｏｆｆｉｃｅ川元,,株式会社,長野県,上田市,大屋２５番地１,,20,203,3860152,,,,,,,2023-08-09,1,,,,,オフィスカワモト,0
2569,8100001036661,新規,0,2023-08-09,2023-08-09,株式会社ｋｕｒａｍｏｔｏ,,株式会社,長野県,大町市,大町２３０７番地１６,,20,212,3980002,,,,,,,2023-08-09,1,,,,,クラモト,0
2571,8110001037758,新規,0,2023-08-09,2023-08-09,株式会社ＫＥＮＫＯＯ開発,,株式会社,新潟県,燕市,粟生津２７２番地１,,15,213,9590227,,,,,,,2023-08-09,1,,,,,ケンコーカイハツ,0
2572,8110001037766,新規,0,2023-08-09,2023-08-09,株式会社北信越ホールディングス,,株式会社,新潟県,新潟市西区,東青山２丁目９番３号,,15,107,9502003,,,,,,,2023-08-09,1,,,,,ホクシンエツホールディングス,0
2587,8120001257132,新規,0,2023-08-09,2023-08-09,株式会社もりぐち人事労務パートナーズ,,株式会社,大阪府,大阪市淀川区,西三国４丁目６番１４－８０８号,,27,123,5320006,,,,,,,2023-08-09,1,,,,,モリグチジンジロウムパートナーズ,0
2588,8120001257173,新規,0,2023-08-09,2023-08-09,株式会社オレヤル,,株式会社,大阪府,大阪市福島区,福島７丁目１－１０,,27,103,5530003,,,,,,,2023-08-09,1,,,,,オレヤル,0
2589,8120003024679,新規,0,2023-08-09,2023-08-09,合同会社富庵,,合同会社,大阪府,大阪市平野区,長吉長原東３丁目７番１０－７０５号,,27,126,5470013,,,,,,,2023-08-09,1,,,,,トミアン,0
2590,8120003024687,新規,0,2023-08-09,2023-08-09,合同会社橋本Ｈ・Ｋ運送,,合同会社,大阪府,大阪市西成区,南津守４丁目１番９１－５０２号,,27,122,5570063,,,,,,,2023-08-09,1,,,,,ハシモトエイチケーウンソウ,0
2595,8120101068017,新規,0,2023-08-09,2023-08-09,ＲＴ株式会社,,株式会社,大阪府,堺市堺区,翁橋町１丁２番４号翁橋ビル３Ｆ,,27,141,5900061,,,,,,,2023-08-09,1,,,,,アールティー,0
2596,8120101068025,新規,0,2023-08-09,2023-08-09,株式会社ＥＡＧＴＨ,,株式会社,大阪府,河内長野市,木戸西町２丁目４番３号,,27,216,5860009,,,,,,,2023-08-09,1,,,,,イース,0
2597,8120101068041,新規,0,2023-08-09,2023-08-09,Ｌｕｃｉｄｕｓ　ｓｔａｇｅ株式会社,,株式会社,大阪府,松原市,天美南２丁目１３５番地の２５,,27,217,5800033,,,,,,,2023-08-09,1,,,,,ルキドゥスステージ,0
2598,8120901047905,新規,0,2023-08-09,2023-08-09,株式会社Ｆ．Ａ．Ｍ,,株式会社,大阪府,吹田市,津雲台６丁目２２番３－２０２号,,27,205,5650862,,,,,,,2023-08-09,1,,,,,ファム,0
2601,8120905006510,新規,0,2023-08-09,2023-08-09,一般社団法人医療メンター協会,,その他の設立登記法人,大阪府,高槻市,城北町１丁目３番２１号リーベンあさひ１０２号,,27,207,5690071,,,,,,,2023-08-09,1,,,,,イリョウメンターキョウカイ,0
2606,8130001074931,新規,0,2023-08-09,2023-08-09,株式会社Ａｒｂｒｅ,,株式会社,京都府,京都市中京区,西ノ京永本町１４－５９－４０３,,26,104,6048421,,,,,,,2023-08-09,1,,,,,アルブル,0
2607,8130001074948,新規,0,2023-08-09,2023-08-09,ＯＣＨＩＣＯＣＨＩ株式会社,,株式会社,京都府,京都市下京区,仏光寺東町１１２－１,,26,106,6000000,,,,,,,2023-08-09,1,,,,,オチコチ,0
2608,8130003008904,新規,0,2023-08-09,2023-08-09,合同会社Ａｓｈｅ,,合同会社,京都府,京都市中京区,西ノ京池ノ内町１‐２,,26,104,6048375,,,,,,,2023-08-09,1,,,,,アッシェ,0
2611,8140001131120,新規,0,2023-08-09,2023-08-09,株式会社サミットホールディングス,,株式会社,兵庫県,神戸市中央区,海岸通９番４,,28,110,6500024,,,,,,,2023-08-09,1,,,,,サミットホールディングス,0
2612,8150001026617,新規,0,2023-08-09,2023-08-09,株式会社にしでん,,株式会社,奈良県,奈良市,佐紀町２７６７番地,,29,201,6308003,,,,,,,2023-08-09,1,,,,,ニシデン,0
2613,8150001026625,新規,0,2023-08-09,2023-08-09,ＫｅｙＰａｓｓｅｒ株式会社,,株式会社,奈良県,奈良市,三条町４７５番地,,29,201,6308244,,,,,,,2023-08-09,1,,,,,キーパサー,0
2614,8150003003028,新規,0,2023-08-09,2023-08-09,合同会社トータルリフォームフォレスト,,合同会社,奈良県,生駒郡三郷町,美松ケ丘東１丁目１１番９号,,29,343,6360805,,,,,,,2023-08-09,1,,,,,トータルリフォームフォレスト,0
2623,8180001157475,新規,0,2023-08-09,2023-08-09,株式会社ＩＴＯＳＯＫＥＮ,,株式会社,愛知県,名古屋市西区,貝田町２丁目２５番地の３,,23,104,4510022,,,,,,,2023-08-09,1,,,,,イトウソウケン,0
2624,8180001157574,新規,0,2023-08-09,2023-08-09,株式会社Ｌｅａｄｅｒ,,株式会社,愛知県,名古屋市中区,丸の内１丁目１４番２４号ライオンズビル第２丸の内４０２,,23,106,4600002,,,,,,,2023-08-09,1,,,,,リーダー,0
2625,8180001157590,新規,0,2023-08-09,2023-08-09,株式会社ハンナ,,株式会社,愛知県,名古屋市中区,錦１丁目８番３５号（プラウドタワー名古屋伏見５０１号）,,23,106,4600003,,,,,,,2023-08-09,1,,,,,ハンナ,0
2626,8180001157599,新規,0,2023-08-09,2023-08-09,株式会社ＤＡＤＡ　ＷＯＲＫＳ,,株式会社,愛知県,名古屋市中村区,名駅４丁目２４番５号第２森ビル４０１,,23,105,4500002,,,,,,,2023-08-09,1,,,,,ダダワークス,0
2631,8190001030648,新規,0,2023-08-09,2023-08-09,株式会社スタムティッシュ,,株式会社,三重県,三重郡菰野町,大字杉谷３９－１,,24,341,5101326,,,,,,,2023-08-09,1,,,,,スタムティッシュ,0
2635,8200001041593,新規,0,2023-08-09,2023-08-09,株式会社クロステック,,株式会社,岐阜県,美濃加茂市,下米田町西脇２３４番地１,,21,211,5050018,,,,,,,2023-08-09,1,,,,,クロステック,0
2639,8220001004994,新規,0,2023-08-09,2023-08-09,株式会社日産サティオ石川,,株式会社,石川県,金沢市,浅野本町ロ１２４番地,,17,201,9200841,,,,,,,2023-08-09,1,,,,,ニッサンサティオイシカワ,0
2647,8240001061919,新規,0,2023-08-09,2023-08-09,株式会社ＬＩＶＥ　ＩＮＮＯＶＡＴＩＯＮ,,株式会社,広島県,広島市南区,荒神町１番９号ガーデンプレイス広島駅前３Ｆ,,34,103,7320807,,,,,,,2023-08-09,1,,,,,ライブイノベーション,0
2648,8240001061951,新規,0,2023-08-09,2023-08-09,株式会社ペットハウスヤヒロ,,株式会社,広島県,福山市,神辺町大字八尋８３４番地５,,34,207,7202112,,,,,,,2023-08-09,1,,,,,ペットハウスヤヒロ,0
2650,8240003006252,新規,0,2023-08-09,2023-08-09,合同会社Ｌｉｇ,,合同会社,広島県,福山市,引野町南１丁目２２番１０号,,34,207,7210945,,,,,,,2023-08-09,1,,,,,リグ,0
2665,8290001102560,新規,0,2023-08-09,2023-08-09,株式会社Ｃｒａｆｔ‐ＴＢ,,株式会社,福岡県,福岡市中央区,大手門３丁目７番１－３０５号,,40,133,8100074,,,,,,,2023-08-09,1,,,,,クラフトティービー,0
2675,8320003004132,新規,0,2023-08-09,2023-08-09,合同会社熊谷設計工務,,合同会社,大分県,玖珠郡九重町,大字田野１９９番地,,44,461,8794911,,,,,,,2023-08-09,1,,,,,クマガエセッケイコウム,0
2676,8330001031128,新規,0,2023-08-09,2023-08-09,株式会社ＬＵＮＯＮ　ＧＲＯＵＰ,,株式会社,熊本県,熊本市中央区,上通町６番１８号ＫＯＳＨＩＮビル３階,,43,101,8600845,,,,,,,2023-08-09,1,,,,,ルノングループ,0
2678,8330003009931,新規,0,2023-08-09,2023-08-09,合同会社ＴＫＹ,,合同会社,熊本県,熊本市東区,秋津新町１番３８号,,43,102,8612107,,,,,,,2023-08-09,1,,,,,ティケイワイ,0
2682,8340001025780,新規,0,2023-08-09,2023-08-09,株式会社ｈｉｂｏｕ,,株式会社,鹿児島県,薩摩川内市,西向田町１１番２９号１Ｆ,,46,215,8950027,,,,,,,2023-08-09,1,,,,,イブー,0
2683,8340001025789,新規,0,2023-08-09,2023-08-09,山神工業株式会社,,株式会社,鹿児島県,枕崎市,板敷西町２３３番地,,46,204,8980084,,,,,,,2023-08-09,1,,,,,ヤマガミコウギョウ,0
2684,8340001025806,新規,0,2023-08-09,2023-08-09,株式会社Ｔｈｅ　Ｌｉｆｅコーポレーション,,株式会社,鹿児島県,鹿児島市,新屋敷町２４番２３号サンコーポ新屋敷２０５号,,46,201,8920838,,,,,,,2023-08-09,1,,,,,ザライフコーポレーション,0
2687,8340003004196,新規,0,2023-08-09,2023-08-09,合同会社丸仁,,合同会社,鹿児島県,鹿児島市,吉野町９６７６－１カルフール３０３,,46,201,8920871,,,,,,,2023-08-09,1,,,,,マルジン,0
2688,8340003004205,新規,0,2023-08-09,2023-08-09,合同会社チョッパー,,合同会社,鹿児島県,鹿児島市,新屋敷町２３番２０号グリーンコーポカモメ１Ｆ,,46,201,8920838,,,,,,,2023-08-09,1,,,,,,0
2693,8360001032379,新規,0,2023-08-09,2023-08-09,株式会社ＯＮＥ　ＭＯＲＥ,,株式会社,沖縄県,浦添市,字港川５１２番地５５,,47,208,9012134,,,,,,,2023-08-09,1,,,,,ワンモア,0
2694,8360001032404,新規,0,2023-08-09,2023-08-09,株式会社ＬＩＮＡ,,株式会社,沖縄県,うるま市,字江洲８１５番地２,,47,213,9042244,,,,,,,2023-08-09,1,,,,,リナ,0
2695,8360003013179,新規,0,2023-08-09,2023-08-09,ｕｓｅｆｕｌ合同会社,,合同会社,沖縄県,沖縄市,登川２丁目１０番１号,,47,211,9042142,,,,,,,2023-08-09,1,,,,,ユースフル,0
2696,8360003013187,新規,0,2023-08-09,2023-08-09,合同会社Ｎ・Ｎ,,合同会社,沖縄県,沖縄市,美原１丁目８番１６号２－Ｊ,,47,211,9042155,,,,,,,2023-08-09,1,,,,,エヌエヌ,0
2701,8370001050264,新規,0,2023-08-09,2023-08-09,株式会社スマートアース,,株式会社,宮城県,大崎市,古川北宮沢字下前田５６番地１,,04,215,9896242,,,,,,,2023-08-09,1,,,,,スマートアース,0
2702,8370001050289,新規,0,2023-08-09,2023-08-09,株式会社Ｆｅｌｌａｓ,,株式会社,宮城県,仙台市泉区,館４丁目３９番地の３,,04,105,9813214,,,,,,,2023-08-09,1,,,,,フェローズ,0
2706,8380003005538,新規,0,2023-08-09,2023-08-09,ＭＩＮＡＭＩＳＯＭＡ１号合同会社,,合同会社,福島県,南相馬市,原町区小木迫字堂西５４番地の１,,07,212,9750055,,,,,,,2023-08-09,1,,,,,ミナミソウマイチゴウ,0
2708,8400001016344,新規,0,2023-08-09,2023-08-09,株式会社鈴木己葉,,株式会社,岩手県,北上市,常盤台３丁目２３番２号,,03,206,0240012,,,,,,,2023-08-09,1,,,,,スズキキヨウ,0
2710,8420001018355,新規,0,2023-08-09,2023-08-09,福富株式会社,,株式会社,青森県,三戸郡五戸町,大字倉石中市字中市２０番地,,02,442,0391702,,,,,,,2023-08-09,1,,,,,フクトミ,0
2715,8430001089676,新規,0,2023-08-09,2023-08-09,ａ　ｃｏｍｐａｎｙ株式会社,,株式会社,北海道,札幌市中央区,南一条西２３丁目１番１５－３０６号,,01,101,0640801,,,,,,,2023-08-09,1,,,,,エーカンパニー,0
2716,8430001089684,新規,0,2023-08-09,2023-08-09,株式会社あかげら動物病院,,株式会社,北海道,日高郡新ひだか町,静内御幸町６丁目３番３１号,,01,610,0560017,,,,,,,2023-08-09,1,,,,,アカゲラドウブツビョウイン,0
2717,8430003015317,新規,0,2023-08-09,2023-08-09,合同会社ワイズゴルフ,,合同会社,北海道,札幌市東区,北三十四条東２７丁目１番１９号,,01,103,0070834,,,,,,,2023-08-09,1,,,,,ワイズゴルフ,0
2720,8470001019737,新規,0,2023-08-09,2023-08-09,株式会社戎晴,,株式会社,香川県,高松市,寺井町１３８５番地５６,,37,201,7618085,,,,,,,2023-08-09,1,,,,,ジュウセイ,0
2721,8470001019753,新規,0,2023-08-09,2023-08-09,株式会社ロングロード,,株式会社,香川県,三豊市,高瀬町上勝間２２９７－１,,37,208,7670012,,,,,,,2023-08-09,1,,,,,ロングロード,0
2727,8500001025129,新規,0,2023-08-09,2023-08-09,株式会社ウエルス商会,,株式会社,愛媛県,松山市,和泉南１丁目１４番３２号,,38,201,7900941,,,,,,,2023-08-09,1,,,,,ウエルスショウカイ,0
2729,8700150118712,新規,0,2023-08-09,2023-08-01,津田沼南口商店会,,その他,千葉県,習志野市,津田沼５丁目１２－１２サンロード津田沼６階,,12,216,2750016,,,,,,,2023-08-01,1,,,,,ツダヌマミナミグチシヨウテンカイ,0
2730,8700150118893,新規,0,2023-08-09,2023-08-09,Ｓｈｅｎｚｈｅｎ　ｑｉａｎｈａｉ　ｘｉａｏｂａｉ　ｋｅｊｉ　ｙｏｕｘｉａｎ　ｇｏｎｇｓｉ,,外国会社等,,,,,,,,Ｒｏｏｍ　２０１，Ｂｕｉｌｄｉｎｇ　Ａ，Ｎｏ．１　Ｑｉａｎｗａｎ　１ｓｔ　Ｒｏａｄ，Ｓｈｅｎｚｈｅｎ　Ｑｉａｎｈａｉ　Ｓｈｅｎｚｈｅｎ－Ｈｏｎｇ　Ｋｏｎｇ　Ｃｏｏｐｅｒａｔｉｏｎ　Ｚｏｎｅ，Ｓｈｅｎｚｈｅｎ　（Ｓｅｔｔｌｅｄ　ｉｎ　Ｓｈｅｎｚｈｅｎ　Ｑｉａｎｈａｉ　Ｃｏｍｍｅｒｃｉａｌ　Ｓｅｃｒｅｔａｒｙ　Ｃｏ．，ＬＴＤ．）,,,,,,2023-08-09,1,,,,,シンセンゼンカイショウバイカギユウゲンコウシ,0
2731,8700150118902,新規,0,2023-08-09,2023-08-09,ｓｈｅｎｚｈｅｎｓｈｉ　ｙｉｎｉａｎｄｉａｎｚｉｓｈａｎｇｗｕ　ｙｏｕｘｉａｎｇｏｎｇｓｉ,,外国会社等,,,,,,,,ｚｈｏｎｇｘｉｎｇｌｕ　２３ｈａｏ　３０７－Ａ　ｂａｎｔｉａｎｊｉｅｄａｏ　ｍａａｎｔａｎｇｓｈｅｑｕ　ｌｏｎｇｇａｎｇｑｕ　ｓｈｅｎｚｈｅｎｓｈｉ　ＣＮ,,,,,,2023-08-09,1,,,,,シェンゼェンシイニャンデンシショウムユウゲンコウシ,0
2732,8700150118910,新規,0,2023-08-09,2023-08-09,ｄｏｎｇｇｕａｎｓｈｉ　ｈｕａｃａｉｘｉａｎ　ｓｈａｎｇｍａｏ　ｙｏｕｘｉａｎｇｏｎｇｓｉ,,外国会社等,,,,,,,,ｈｕｍｅｎｚｈｅｎｂｅｉｚｈａｃｈａｎｇｄｉ　ｙｉｌｕ１０ｈａｏ３０１ｆａｎｇ　ｄｏｎｇｇｕａｎｓｈｉ　ｇｕａｎｇｄｏｎｇｓｈｅｎｇ　ＣＮ,,,,,,2023-08-09,1,,,,,ドングアンシフアツアイシャンシャンマオユウゲンコウシ,0
2733,8700150118919,新規,0,2023-08-09,2023-08-09,ＨＩＧＨ　ＦＬＹＩＮＧ　ＴＲＡＤＥ　ＣＯ．，ＬＩＭＩＴＥＤ,,外国会社等,,,,,,,,ＦＬＡＴ／ＲＭ　０２　７／Ｆ　ＳＰＡ　ＣＥＮＴＲＥ　ＮＯ．５３－５５　ＬＯＣＫＨＡＲＴ　ＲＯＡＤ　ＷＡＮ　ＣＨＡＩ　ＨＫ,,,,,,2023-08-09,1,,,,,ポンイーマオイーヨウシエンゴンスー,0
2734,8700150118927,新規,0,2023-08-09,2023-08-09,Ｇｕａｎｇｚｈｏｕ　Ｒｕｉｙｉｎｇ　Ｋｅｊｉ　Ｙｏｕｘｉａｎ　Ｇｏｎｇｓｉ,,外国会社等,,,,,,,,Ｇｕａｎｇｚｈｏｕｓｈｉ　Ｔｉａｎｈｅｑｕ　Ｄｏｎｇｐｕ　Ｄａｍａｌｕ　８７　ｈａｏ　ｚｈｉ　ｙｉ　３０７　ｓｈｉ（ｊｉｎ　ｘｉａｎ　ｂａｎ　ｇｏｎｇ）５１０６６５,,,,,,2023-08-09,1,,,,,グゥアンゾォウルイインケジヨウシェンゴンスー,0
2735,8700150118935,新規,0,2023-08-09,2023-08-09,Ｓｈｅｎｚｈｅｎ　Ｄｉｋａｔｏｎｇ　Ｔｅｃｈｎｏｌｏｇｙ　Ｃｏ．，Ｌｔｄ．,,外国会社等,,,,,,,,Ｌｏｎｇｇａｎｇｑｕ　Ｌｏｎｇｃｈｅｎｊｉｅｄａｏ　ｘｉｎｌｉａｎｓｈｅｑｕ　ｒｅｎｈｅｎｇｓｉｊｉｙｕａｎ　１ｄｏｎｇＡｚｕｏ１４０２　Ｓｈｅｎｚｈｅｎ　Ｇｕａｎｇｄｏｎｇ　ＣＮ,,,,,,2023-08-09,1,,,,,シンセンデイカトンテクノロジーカンパニーリミテッド,0
2736,8700150118943,新規,0,2023-08-09,2023-08-09,Ｓｈｅｎｚｈｅｎ　Ｓａｎｙｏｕｊｉ　Ｏｕｔｄｏｏｒ　Ｔｒａｖｅｌ　Ｃｕｌｔｕｒｅ　Ｃｏ．，Ｌｔｄ．,,外国会社等,,,,,,,,Ｎｏｒｔｈ　Ｆｌｏｏｒ　４，Ｎｏ．８，Ｌａｎｅ　６，Ｘｉｎｍｅｉｚｉｙｕａｎ，Ｓｈａｎｇｓｈｕｉｊｉｎｇ，Ｂｕｊｉ　Ｓｕｂｄｉｓｔｒｉｃｔ，Ｌｏｎｇｇａｎｇ　Ｄｉｓｔｒｉｃｔ，Ｓｈｅｎｚｈｅｎ,,,,,,2023-08-09,1,,,,,シンセンサンヨウジアウトドアトラベルカルチャーカンパニーリミテッド,0
2737,8700150118951,新規,0,2023-08-09,2023-08-09,ｓｈｅｎｚｈｅｎｓｈｉ　ｘｉｐｕｗａｎｇｌｕｏｋｅｊｉ　ｙｏｕｘｉａｎｇｏｎｇｓｉ,,外国会社等,,,,,,,,ｓｈｅｎ　ｚｈｅｎ　ｓｈｉ　ｌｏｎｇ　ｇａｎｇ　ｑｕ　ｂａｎ　ｔｉａｎ　ｊｉｅ　ｄａｏ　ｂａｎ　ｔｉａｎ　ｓｈｅ　ｑｕ　ｌａｎ　ｈａｉ　ｚｈｏｎｇ　ｃｈｕａｎｇ　ｃｈａｎ　ｙｅ　ｙｕａｎ　ｙｉ　ｃｅｎｇ　１－４２３　ｓｈｉ,,,,,,2023-08-09,1,,,,,シンセンシシプワンロカギユウゲンコウシ,0
2743,9010001237466,新規,0,2023-08-09,2023-08-09,株式会社ＣＬＯＵＤＯ　ＷＡＮ,,株式会社,東京都,中央区,日本橋室町１丁目１１番１２号日本橋水野ビル７階,,13,102,1030022,,,,,,,2023-08-09,1,,,,,クラウドワン,0
2744,9010001237474,新規,0,2023-08-09,2023-08-09,ＫＵＲＡ　Ｄｅｓｉｇｎ　Ｇａｒａｇｅ株式会社,,株式会社,東京都,中央区,銀座１丁目１２－４Ｎ＆ＥＢＬＤ．７階,,13,102,1040061,,,,,,,2023-08-09,1,,,,,クラデザインガレージ,0
2745,9010001237532,新規,0,2023-08-09,2023-08-09,株式会社Ｅｎｖｉｒｏｎ　Ｊａｐａｎ,,株式会社,東京都,千代田区,丸の内１丁目８番３号丸の内トラストタワー本館,,13,101,1000005,,,,,,,2023-08-09,1,,,,,エンヴァイロンジャパン,0
2746,9010001237549,新規,0,2023-08-09,2023-08-09,Ｗａｓｏｕｌ株式会社,,株式会社,東京都,中央区,銀座１丁目５番７号アネックス２フクジンビル３Ｆ,,13,102,1040061,,,,,,,2023-08-09,1,,,,,ワソウル,0
2747,9010001237557,新規,0,2023-08-09,2023-08-09,株式会社ＪＭＳ４２,,株式会社,東京都,千代田区,平河町１丁目６番１５号シルスフィア会計事務所内,,13,101,1020093,,,,,,,2023-08-09,1,,,,,ジェイエムエスヨンジュウニ,0
2748,9010001237565,新規,0,2023-08-09,2023-08-09,株式会社Ｆｏｒｅｓｔ　Ｓｕｎ,,株式会社,東京都,文京区,小石川１丁目２８番５号,,13,105,1120002,,,,,,,2023-08-09,1,,,,,フォレストサン,0
2749,9010001237623,新規,0,2023-08-09,2023-08-09,株式会社Ｃｌｏｕｄｉｎ,,株式会社,東京都,中央区,八丁堀３丁目２６－９ＶＯＲＴ八丁堀２階,,13,102,1040032,,,,,,,2023-08-09,1,,,,,クロードイン,0
2752,9010003041305,新規,0,2023-08-09,2023-08-09,合同会社フォンダール,,合同会社,東京都,中央区,銀座５丁目１４番１６号銀座アビタシオン１階、２階,,13,102,1040061,,,,,,,2023-08-09,1,,,,,フォンダール,0
2753,9010003041313,新規,0,2023-08-09,2023-08-09,未来商事合同会社,,合同会社,東京都,千代田区,永田町２丁目４－７秀和永田町レジデンス３階,,13,101,1000014,,,,,,,2023-08-09,1,,,,,ミライショウジ,0
2755,9010005037086,新規,0,2023-08-09,2023-08-09,一般社団法人芸術共和国,,その他の設立登記法人,東京都,中央区,日本橋小舟町８番１３号,,13,102,1030024,,,,,,,2023-08-09,1,,,,,ゲイジュツキョウワコク,0
2757,9010101015763,新規,0,2023-08-09,2023-08-09,株式会社ＫＩＭ,,株式会社,東京都,八王子市,絹ケ丘１丁目６４番９号１Ｆ,,13,201,1920912,,,,,,,2023-08-09,1,,,,,ケーアイエム,0
2758,9010101015771,新規,0,2023-08-09,2023-08-09,株式会社ＹＳＫ,,株式会社,東京都,八王子市,万町７６－９,,13,201,1920903,,,,,,,2023-08-09,1,,,,,ワイエスケイ,0
2762,9010401176248,新規,0,2023-08-09,2023-08-09,アクセリードＪＶ準備株式会社,,株式会社,東京都,港区,愛宕２丁目５番１号愛宕グリーンヒルズＭＯＲＩタワー２１階,,13,103,1050002,,,,,,,2023-08-09,1,,,,,アクセリードジェイブイジュンビ,0
2764,9010403030667,新規,0,2023-08-09,2023-08-09,ロニカ・ピクチャーズ合同会社,,合同会社,東京都,港区,赤坂９丁目１番７号,,13,103,1070052,,,,,,,2023-08-09,1,,,,,ロニカピクチャーズ,0
2765,9010405022373,新規,0,2023-08-09,2023-08-09,特定目的会社ハイ・マウンテン,,その他の設立登記法人,東京都,港区,元赤坂１丁目１番７号,,13,103,1070051,,,,,,,2023-08-09,1,,,,,ハイマウンテン,0
2766,9010405022398,新規,0,2023-08-09,2023-08-09,西淀川物流一般社団法人,,その他の設立登記法人,東京都,港区,元赤坂１丁目１番７－８０７号,,13,103,1070051,,,,,,,2023-08-09,1,,,,,ニシヨドガワブツリュウ,0
2767,9010501050864,新規,0,2023-08-09,2023-08-09,Ｖａｍｏ株式会社,,株式会社,東京都,台東区,東上野３丁目２４番９号ＭＩＴＡビル５階,,13,106,1100015,,,,,,,2023-08-09,1,,,,,バモ,0
2769,9010601063584,新規,0,2023-08-09,2023-08-09,株式会社セレスタッフ,,株式会社,東京都,江東区,南砂１丁目２５番１４－６１４号,,13,108,1360076,,,,,,,2023-08-09,1,,,,,セレスタッフ,0
2770,9010603010295,新規,0,2023-08-09,2023-08-09,合同会社ｌａ　ＣＡＣＣＨＡ,,合同会社,東京都,墨田区,横川４丁目３番１号,,13,107,1300003,,,,,,,2023-08-09,1,,,,,ラカッチャ,0
2773,9010703006813,新規,0,2023-08-09,2023-08-09,合同会社スクウェアセキュリティ,,合同会社,東京都,品川区,南大井６丁目１７番７号,,13,109,1400013,,,,,,,2023-08-09,1,,,,,スクウェアセキュリティ,0
2777,9010901053608,新規,0,2023-08-09,2023-08-09,株式会社Ｓｅｓｓｉｏｎｓ　ｉｎｃ．,,株式会社,東京都,世田谷区,鎌田３丁目４番１－５０５号,,13,112,1570077,,,,,,,2023-08-09,1,,,,,セッションズインク,0
2778,9010903008345,新規,0,2023-08-09,2023-08-09,合同会社蓋盛,,合同会社,東京都,世田谷区,鎌田３丁目７番１２－１０７号,,13,112,1570077,,,,,,,2023-08-09,1,,,,,フタモリ,0
2784,9011001156160,新規,0,2023-08-09,2023-08-09,Ｃｈｒｏｎｏｓホールディングス株式会社,,株式会社,東京都,渋谷区,道玄坂１丁目１０番８号渋谷道玄坂東急ビル２Ｆ－Ｃ,,13,113,1500043,,,,,,,2023-08-09,1,,,,,クロノスホールディングス,0
2785,9011001156169,新規,0,2023-08-09,2023-08-09,株式会社ドアド,,株式会社,東京都,渋谷区,神宮前６丁目２３番４号桑野ビル２階,,13,113,1500001,,,,,,,2023-08-09,1,,,,,ドアド,0
2786,9011001156219,新規,0,2023-08-09,2023-08-09,株式会社シャポーバ,,株式会社,東京都,渋谷区,神宮前６丁目１８－１２,,13,113,1500001,,,,,,,2023-08-09,1,,,,,シャポーバ,0
2787,9011001156243,新規,0,2023-08-09,2023-08-09,ＧＯＣ株式会社,,株式会社,東京都,渋谷区,道玄坂１丁目１０番８号,,13,113,1500043,,,,,,,2023-08-09,1,,,,,ジーオーシー,0
2788,9011001156334,新規,0,2023-08-09,2023-08-09,株式会社伊仁,,株式会社,東京都,渋谷区,富ヶ谷１丁目１４番１４号スタンフォードアネックスビル３Ｆ,,13,113,1510063,,,,,,,2023-08-09,1,,,,,イージン,0
2793,9011103013359,新規,0,2023-08-09,2023-08-09,七月設計合同会社,,合同会社,東京都,新宿区,西新宿３丁目３－１３西新宿水間ビル６階,,13,104,1600023,,,,,,,2023-08-09,1,,,,,シチガツセッケイ,0
2796,9011201024828,新規,0,2023-08-09,2023-08-09,株式会社ネットウィン,,株式会社,東京都,中野区,中野１丁目６１番１６－２０３号,,13,114,1640001,,,,,,,2023-08-09,1,,,,,ネットウィン,0
2799,9011401025353,新規,0,2023-08-09,2023-08-09,株式会社ＫＫ　ＦＯＯＤＳ,,株式会社,東京都,板橋区,板橋１丁目４９番１号,,13,119,1730004,,,,,,,2023-08-09,1,,,,,ケイケイフーズ,0
2800,9011401025361,新規,0,2023-08-09,2023-08-09,株式会社ＲＩＳＥ,,株式会社,東京都,板橋区,南常盤台１丁目１３番２号,,13,119,1740072,,,,,,,2023-08-09,1,,,,,ライズ,0
2801,9011403004074,新規,0,2023-08-09,2023-08-09,合同会社伊藤ビルリーシング,,合同会社,東京都,板橋区,成増５丁目５番９号,,13,119,1750094,,,,,,,2023-08-09,1,,,,,イトウビルリーシング,0
2805,9011601027034,新規,0,2023-08-09,2023-08-09,株式会社ＨＥＲ,,株式会社,東京都,練馬区,北町８丁目３２番２号,,13,120,1790081,,,,,,,2023-08-09,1,,,,,エイチイーアール,0
2806,9011601027042,新規,0,2023-08-09,2023-08-09,株式会社Ｌｉｍｉｔｌｅｓｓ,,株式会社,東京都,練馬区,練馬２丁目２９番４３－１０１号,,13,120,1760001,,,,,,,2023-08-09,1,,,,,リミットレス,0
2807,9011603004007,新規,0,2023-08-09,2023-08-09,合同会社ＣＫＹ,,合同会社,東京都,練馬区,平和台４丁目２６番８－５０８号,,13,120,1790083,,,,,,,2023-08-09,1,,,,,シーケイワイ,0
2811,9011801042865,新規,0,2023-08-09,2023-08-09,株式会社Ｂ‐ｐａｒｔｎｅｒｓ,,株式会社,東京都,葛飾区,堀切３丁目３５番１０号,,13,122,1240006,,,,,,,2023-08-09,1,,,,,ビーパートナーズ,0
2812,9011803005762,新規,0,2023-08-09,2023-08-09,Ｌｅｅ合同会社,,合同会社,東京都,足立区,舎人１丁目２３番１６号,,13,121,1210831,,,,,,,2023-08-09,1,,,,,リー,0
2813,9012301013547,新規,0,2023-08-09,2023-08-09,株式会社ＢＥＲｙＬ,,株式会社,東京都,町田市,原町田６丁目２６番９－４０１号,,13,209,1940013,,,,,,,2023-08-09,1,,,,,ベリル,0
2816,9012401040805,新規,0,2023-08-09,2023-08-09,ＤＯＥＲ株式会社,,株式会社,東京都,多摩市,永山１丁目１１番２－１０４号,,13,224,2060025,,,,,,,2023-08-09,1,,,,,ドゥーア,0
2817,9012401040854,新規,0,2023-08-09,2023-08-09,倶楽部８株式会社,,株式会社,東京都,小金井市,梶野町３丁目１番２５号,,13,210,1840002,,,,,,,2023-08-09,1,,,,,クラブハチ,0
2818,9012403006110,新規,0,2023-08-09,2023-08-09,Ｈ．Ｍ合同会社,,合同会社,東京都,武蔵野市,中町１丁目１９番２０号５Ｆ,,13,203,1800006,,,,,,,2023-08-09,1,,,,,エイチエム,0
2819,9012403006119,新規,0,2023-08-09,2023-08-09,合同会社いしや,,合同会社,東京都,府中市,美好町３丁目１０番地の３９府中美好町デュープレックス２０１,,13,206,1830045,,,,,,,2023-08-09,1,,,,,イシヤ,0
2820,9012701017791,新規,0,2023-08-09,2023-08-09,株式会社ｈｏｏｄｉｅｓ,,株式会社,東京都,西東京市,保谷町３丁目１５番９号,,13,229,2020015,,,,,,,2023-08-09,1,,,,,フーディーズ,0
2823,9012803003145,新規,0,2023-08-09,2023-08-09,合同会社和泉商会,,合同会社,東京都,日野市,程久保３丁目３番９号,,13,212,1910042,,,,,,,2023-08-09,1,,,,,イズミショウカイ,0
2824,9013101009223,新規,0,2023-08-09,2023-08-09,株式会社藤永,,株式会社,東京都,羽村市,羽中３丁目１９番７号,,13,227,2050015,,,,,,,2023-08-09,1,,,,,トウエイ,0
2827,9013301051181,新規,0,2023-08-09,2023-08-09,Ｃａｃｔｕｓ株式会社,,株式会社,東京都,豊島区,雑司が谷３丁目６番５号フィオーレ雑司が谷１階,,13,116,1710032,,,,,,,2023-08-09,1,,,,,カクタス,0
2829,9013303006737,新規,0,2023-08-09,2023-08-09,合同会社リベルテ,,合同会社,東京都,豊島区,南大塚２丁目１１番１０号ミモザビル３階,,13,116,1700005,,,,,,,2023-08-09,1,,,,,リベルテ,0
2836,9020003024341,新規,0,2023-08-09,2023-08-09,合同会社ＯＮＥ,,合同会社,神奈川県,川崎市川崎区,砂子２丁目３番地１２第４０東京ビル地下１階,,14,131,2100006,,,,,,,2023-08-09,1,,,,,ワン,0
2837,9020003024399,新規,0,2023-08-09,2023-08-09,合同会社ＰＵＶ,,合同会社,神奈川県,川崎市川崎区,台町１８―５,,14,131,2100814,,,,,,,2023-08-09,1,,,,,パブ,0
2839,9021001079823,新規,0,2023-08-09,2023-08-09,株式会社テックエーアイ,,株式会社,神奈川県,伊勢原市,上粕屋４７６番地の１－２,,14,214,2591141,,,,,,,2023-08-09,1,,,,,テックエーアイ,0
2840,9021001079864,新規,0,2023-08-09,2023-08-09,ＤＩＧＩＴＡＬ　Ｐｅａｋ株式会社,,株式会社,神奈川県,藤沢市,白旗２丁目１１番８号,,14,205,2510051,,,,,,,2023-08-09,1,,,,,デジタルピーク,0
2843,9021003013425,新規,0,2023-08-09,2023-08-09,ＴＲＥＳ合同会社,,合同会社,神奈川県,茅ヶ崎市,東海岸南１丁目１６番１１－２１２号,,14,207,2530054,,,,,,,2023-08-09,1,,,,,トレス,0
2844,9030001155088,新規,0,2023-08-09,2023-08-09,東京ガラス工販株式会社,,株式会社,埼玉県,朝霞市,仲町２丁目７番４号,,11,227,3510006,,,,,,,2023-08-09,1,,,,,トウキョウガラスコウハン,0
2845,9030001155105,新規,0,2023-08-09,2023-08-09,新克総業株式会社,,株式会社,埼玉県,本庄市,児玉町八幡山４０４番地４,,11,211,3670217,,,,,,,2023-08-09,1,,,,,ニイカツソウギョウ,0
2846,9030001155113,新規,0,2023-08-09,2023-08-09,株式会社ＡＺＰ,,株式会社,埼玉県,さいたま市見沼区,島町７４番地１０,,11,104,3370006,,,,,,,2023-08-09,1,,,,,エーゼットピー,0
2847,9030001155138,新規,0,2023-08-09,2023-08-09,株式会社ｅｎｅ．,,株式会社,埼玉県,鶴ヶ島市,大字中新田２０番地６アザレア１０３号,,11,241,3502226,,,,,,,2023-08-09,1,,,,,エネロ,0
2848,9030001155154,新規,0,2023-08-09,2023-08-09,酒井興業株式会社,,株式会社,埼玉県,さいたま市大宮区,桜木町４丁目４１９－８アストライズ大宮ビル５階,,11,103,3300854,,,,,,,2023-08-09,1,,,,,サカイコウギョウ,0
2849,9030001155245,新規,0,2023-08-09,2023-08-09,株式会社Ａｂｉｎ,,株式会社,埼玉県,戸田市,大字新曽２３２番地（ラックＡ）,,11,224,3350021,,,,,,,2023-08-09,1,,,,,アビン,0
2850,9030001155344,新規,0,2023-08-09,2023-08-09,株式会社ＭＴＳ,,株式会社,埼玉県,さいたま市見沼区,大字大谷１９２０番地,,11,104,3370014,,,,,,,2023-08-09,1,,,,,エムティーエス,0
2857,9040001129553,新規,0,2023-08-09,2023-08-09,株式会社Ｌｉｎｏ‐Ｆｌｏｗ,,株式会社,千葉県,印西市,草深２２３６番地２２,,12,231,2701337,,,,,,,2023-08-09,1,,,,,リノフロー,0
2858,9040001129586,新規,0,2023-08-09,2023-08-09,株式会社三久不動産,,株式会社,千葉県,袖ケ浦市,奈良輪１丁目１番地１７,,12,229,2990263,,,,,,,2023-08-09,1,,,,,サンキュウフドウサン,0
2859,9040001129594,新規,0,2023-08-09,2023-08-09,株式会社ワイ・エス・ケー,,株式会社,千葉県,市原市,若宮３丁目１５番地４,,12,219,2900006,,,,,,,2023-08-09,1,,,,,ワイエスケー,0
2860,9040001129603,新規,0,2023-08-09,2023-08-09,ゆえに薬膳株式会社,,株式会社,千葉県,松戸市,本町１７－１１芹澤ビル６階,,12,207,2710091,,,,,,,2023-08-09,1,,,,,ユエニヤクゼン,0
2861,9040001129628,新規,0,2023-08-09,2023-08-09,株式会社ハルキヨ,,株式会社,千葉県,市原市,郡本２丁目３１４番地６,,12,219,2900013,,,,,,,2023-08-09,1,,,,,ハルキヨ,0
2863,9040003023077,新規,0,2023-08-09,2023-08-09,合同会社ＳＨＩＥＲＯ,,合同会社,千葉県,船橋市,大穴北２丁目９番２１号,,12,204,2740068,,,,,,,2023-08-09,1,,,,,シエロ,0
2864,9040003023102,新規,0,2023-08-09,2023-08-09,合同会社乃蒼,,合同会社,千葉県,千葉市中央区,中央２丁目５番１号千葉中央ツインビル２号館７階,,12,101,2600013,,,,,,,2023-08-09,1,,,,,ノア,0
2873,9060001036236,新規,0,2023-08-09,2023-08-09,株式会社アイクラフト,,株式会社,栃木県,佐野市,堀米町６７番地１,,09,204,3270843,,,,,,,2023-08-09,1,,,,,アイクラフト,0
2874,9060003004678,新規,0,2023-08-09,2023-08-09,ＳＫＹ　ＧＲＯＵＰ合同会社,,合同会社,栃木県,足利市,福富新町１６９４－１０,,09,202,3260332,,,,,,,2023-08-09,1,,,,,スカイグループ,0
2877,9070001040740,新規,0,2023-08-09,2023-08-09,株式会社ＹＡＭＡＳＯＵ,,株式会社,群馬県,太田市,西本町２６番１４号,,10,205,3730033,,,,,,,2023-08-09,1,,,,,ヤマソウ,0
2880,9080001025798,新規,0,2023-08-09,2023-08-09,株式会社探究のミカタ,,株式会社,静岡県,島田市,金谷泉町５３９番地の２,,22,209,4280014,,,,,,,2023-08-09,1,,,,,タンキュウノミカタ,0
2884,9090001018248,新規,0,2023-08-09,2023-08-09,ＶＪＣ国際貿易株式会社,,株式会社,山梨県,甲府市,高畑１丁目２３番７号大道ハイツ１０６,,19,201,4000042,,,,,,,2023-08-09,1,,,,,,0
2893,9110001037740,新規,0,2023-08-09,2023-08-09,株式会社優建,,株式会社,新潟県,長岡市,与板町与板乙５６３５番地１,,15,202,9402402,,,,,,,2023-08-09,1,,,,,ユウケン,0
2898,9120001257049,新規,0,2023-08-09,2023-08-09,株式会社Ｊ・Ｗファッショントレーディング,,株式会社,大阪府,大阪市中央区,島之内１丁目１９番２１号,,27,128,5420082,,,,,,,2023-08-09,1,,,,,ジェイダブリュファッショントレーディング,0
2899,9120001257073,新規,0,2023-08-09,2023-08-09,ケイエフカンパニー株式会社,,株式会社,大阪府,大阪市阿倍野区,北畠１丁目２番２０号,,27,119,5450035,,,,,,,2023-08-09,1,,,,,ケイエフカンパニー,0
2900,9120001257115,新規,0,2023-08-09,2023-08-09,株式会社トイントサロン,,株式会社,大阪府,枚方市,渚本町１２番３８号,,27,210,5731181,,,,,,,2023-08-09,1,,,,,トイントサロン,0
2901,9120001257123,新規,0,2023-08-09,2023-08-09,アイビーフィットネス株式会社,,株式会社,大阪府,大阪市中央区,安土町２丁目３番１３号大阪国際ビルディング１３Ｆ,,27,128,5410052,,,,,,,2023-08-09,1,,,,,アイビーフィットネス,0
2902,9120001257131,新規,0,2023-08-09,2023-08-09,株式会社上装,,株式会社,大阪府,大阪市東淀川区,豊新３丁目７番９号アビタシオン豊新７０６号室,,27,114,5330014,,,,,,,2023-08-09,1,,,,,ウエソウ,0
2903,9120001257156,新規,0,2023-08-09,2023-08-09,株式会社ヒトマ建築事務所,,株式会社,大阪府,大阪市住吉区,帝塚山東１丁目５番６号,,27,120,5580054,,,,,,,2023-08-09,1,,,,,ヒトマケンチクジムショ,0
2909,9120003024678,新規,0,2023-08-09,2023-08-09,レリアコンサルタント合同会社,,合同会社,大阪府,大阪市中央区,難波２丁目３番５号ティックランドビル１１０２号室,,27,128,5420076,,,,,,,2023-08-09,1,,,,,レリアコンサルタント,0
2915,9120005023819,新規,0,2023-08-09,2023-08-09,ＮＰＯ法人子供の味方,,その他の設立登記法人,大阪府,大阪市生野区,桃谷２丁目９－４イルソーレ桃谷２０２号,,27,116,5440034,,,,,,,2023-08-09,1,,,,,コドモノミカタ,0
2916,9120101068024,新規,0,2023-08-09,2023-08-09,ＤＣＴ株式会社,,株式会社,大阪府,堺市西区,津久野町３丁２０番３２号,,27,144,5938322,,,,,,,2023-08-09,1,,,,,ディーシーティー,0
2917,9120101068032,新規,0,2023-08-09,2023-08-09,株式会社ＨＭ,,株式会社,大阪府,堺市北区,百舌鳥梅町３丁１７番地４,,27,146,5918032,,,,,,,2023-08-09,1,,,,,エイチエム,0
2918,9120101068049,新規,0,2023-08-09,2023-08-09,久次良株式会社,,株式会社,大阪府,河内長野市,清見台５丁目７番８号,,27,216,5860043,,,,,,,2023-08-09,1,,,,,クジラ,0
2919,9120103005363,新規,0,2023-08-09,2023-08-09,合同会社徳田コンサルティング,00131453,合同会社,大阪府,岸和田市,西之内町１７番１５号,,27,202,5960044,,,,,,,2023-08-09,1,,,,,トクダコンサルティング,0
2926,9120901047895,新規,0,2023-08-09,2023-08-09,株式会社まるしん,,株式会社,大阪府,茨木市,彩都やまぶき２丁目２番Ｂ－９０４号,,27,211,5670086,,,,,,,2023-08-09,1,,,,,マルシン,0
2927,9120901047904,新規,0,2023-08-09,2023-08-09,株式会社得能建装,,株式会社,大阪府,摂津市,正雀本町１丁目２０番２０－７０５号,,27,224,5660024,,,,,,,2023-08-09,1,,,,,トクノケンソウ,0
2928,9120901047920,新規,0,2023-08-09,2023-08-09,楽商株式会社,,株式会社,大阪府,豊中市,長興寺北１丁目４番４３号,,27,203,5610875,,,,,,,2023-08-09,1,,,,,ラクショウ,0
2932,9130001074914,新規,0,2023-08-09,2023-08-09,ＨＡＲＵＫＡ株式会社,,株式会社,京都府,京都市中京区,御池通猪熊西入俵屋町２０３番地１,,26,104,6048311,,,,,,,2023-08-09,1,,,,,ハルカ,0
2933,9130001074955,新規,0,2023-08-09,2023-08-09,株式会社ラ・ポーズ,,株式会社,京都府,京都市左京区,上高野車地町１５４番地,,26,103,6060053,,,,,,,2023-08-09,1,,,,,ラポーズ,0
2934,9130001074971,新規,0,2023-08-09,2023-08-09,株式会社木道舎,,株式会社,京都府,京都市下京区,朱雀正会町１－１－４０５,,26,106,6008841,,,,,,,2023-08-09,1,,,,,コドウシャ,0
2937,9130005016838,新規,0,2023-08-09,2023-08-09,一般社団法人看護のいえ,,その他の設立登記法人,京都府,京都市西京区,大枝南福西町３丁目１‐５,,26,111,6101113,,,,,,,2023-08-09,1,,,,,カンゴノイエ,0
2945,9140001131152,新規,0,2023-08-09,2023-08-09,株式会社Ｅｓｔａｎ　ＣｏＬａｂ,,株式会社,兵庫県,高砂市,神爪５丁目１０－１３,,28,216,6760808,,,,,,,2023-08-09,1,,,,,エスタンコラボ,0
2948,9150001026616,新規,0,2023-08-09,2023-08-09,株式会社ポムテック,,株式会社,奈良県,橿原市,石川町４６８番地の１,,29,205,6340045,,,,,,,2023-08-09,1,,,,,ポムテック,0
2949,9150001026624,新規,0,2023-08-09,2023-08-09,株式会社キャリアキャスト,,株式会社,奈良県,奈良市,杏町５３５番地の５,,29,201,6308454,,,,,,,2023-08-09,1,,,,,キャリアキャスト,0
2950,9150003003027,新規,0,2023-08-09,2023-08-09,大和よつば堂合同会社,,合同会社,奈良県,奈良市,出屋敷町１７－７１,,29,201,6308423,,,,,,,2023-08-09,1,,,,,ヤマトヨツバ,0
2952,9160005011217,新規,0,2023-08-09,2023-08-09,税理士法人ここぷら,,その他の設立登記法人,滋賀県,栗東市,目川１３５５番地,,25,208,5203013,,,,,,,2023-08-09,1,,,,,ココプラ,0
2954,9180001033584,新規,0,2023-08-09,2023-08-09,株式会社アーバンホーム,,株式会社,愛知県,名古屋市中区,栄２丁目４番１号,,23,106,4600008,,,,,,,2023-08-09,1,,,,,アーバンホーム,0
2958,9180001157474,新規,0,2023-08-09,2023-08-09,株式会社ＳＵＫＥＳＡＮ,,株式会社,愛知県,名古屋市西区,則武新町３丁目１番８６号ザパークハウス名古屋８１２号,,23,104,4510051,,,,,,,2023-08-09,1,,,,,スケサン,0
2959,9180001157499,新規,0,2023-08-09,2023-08-09,株式会社サンオリオン,,株式会社,愛知県,名古屋市東区,出来町３丁目９番４号サンオリオン３０２号,,23,102,4610032,,,,,,,2023-08-09,1,,,,,サンオリオン,0
2960,9180001157508,新規,0,2023-08-09,2023-08-09,株式会社ＲＥＩＷＡ,,株式会社,愛知県,春日井市,松河戸町３丁目９番地６,,23,206,4860932,,,,,,,2023-08-09,1,,,,,レイワ,0
2961,9180001157516,新規,0,2023-08-09,2023-08-09,株式会社つきまくり,,株式会社,愛知県,名古屋市緑区,桃山２丁目６９番地の１,,23,114,4580002,,,,,,,2023-08-09,1,,,,,ツキマクリ,0
2962,9180001157524,新規,0,2023-08-09,2023-08-09,株式会社ＫＭＰ,,株式会社,愛知県,犬山市,もえぎヶ丘１丁目８１番地,,23,215,4840020,,,,,,,2023-08-09,1,,,,,ケイエムピー,0
2963,9180001157532,新規,0,2023-08-09,2023-08-09,株式会社Ｆｒｏｍ　Ｎｏｗ,,株式会社,愛知県,知多郡阿久比町,大字白沢字東石根３番地８,,23,441,4702201,,,,,,,2023-08-09,1,,,,,フロムナウ,0
2964,9180001157540,新規,0,2023-08-09,2023-08-09,株式会社ＩＫＤ商事,,株式会社,愛知県,名古屋市中村区,八社１丁目４３番地の５,,23,105,4530863,,,,,,,2023-08-09,1,,,,,アイケイディショウジ,0
2965,9180001157549,新規,0,2023-08-09,2023-08-09,株式会社ＵＲＵ,,株式会社,愛知県,名古屋市南区,観音町１丁目３０番地,,23,112,4570845,,,,,,,2023-08-09,1,,,,,ウル,0
2966,9180001157557,新規,0,2023-08-09,2023-08-09,ＡｎｄＮｅｗＬｉｆｅ株式会社,,株式会社,愛知県,春日井市,八田町７丁目１番地１３,,23,206,4860849,,,,,,,2023-08-09,1,,,,,アンドニューライフ,0
2967,9180001157565,新規,0,2023-08-09,2023-08-09,株式会社ＭＴ興業,,株式会社,愛知県,豊明市,栄町大蔵下１番地１２,,23,229,4701164,,,,,,,2023-08-09,1,,,,,エムティコウギョウ,0
2969,9180003025596,新規,0,2023-08-09,2023-08-09,合同会社シンデレラプロジェクト,,合同会社,愛知県,名古屋市緑区,鳴海町字前之輪１６１番地の１,,23,114,4580834,,,,,,,2023-08-09,1,,,,,シンデレラプロジェクト,0
2970,9180003025613,新規,0,2023-08-09,2023-08-09,ＮＹ　Ｈｕｓｔｌｅ　Ｒｅｃｏｒｄｓ　Ｊａｐａｎ合同会社,,合同会社,愛知県,名古屋市瑞穂区,丸根町１丁目８,,23,108,4670054,,,,,,,2023-08-09,1,,,,,ニューヨークハッスルレコーズジャパン,0
2972,9190001030647,新規,0,2023-08-09,2023-08-09,株式会社スズセン,,株式会社,三重県,度会郡玉城町,下田辺１０６５番地５,,24,461,5190416,,,,,,,2023-08-09,1,,,,,スズセン,0
2973,9190003004401,新規,0,2023-08-09,2023-08-09,合同会社フロスク,,合同会社,三重県,三重郡川越町,大字当新田１８４番地１メゾンドソレイユ２０３,,24,344,5108111,,,,,,,2023-08-09,1,,,,,フロスク,0
2980,9210003001684,新規,0,2023-08-09,2023-08-09,合同会社ＲＥＦＬＥＴプランニング,,合同会社,福井県,福井市,飯塚町第２７号１３６番地メゾン・エーワン１０１号室,,18,201,9188067,,,,,,,2023-08-09,1,,,,,ルフレプランニング,0
2981,9220001005001,新規,0,2023-08-09,2023-08-09,日産プリンス石川販売株式会社,,株式会社,石川県,金沢市,浅野本町ロ１２９番地,,17,201,9200841,,,,,,,2023-08-09,1,,,,,ニッサンプリンスイシカワハンバイ,0
2982,9220001025544,新規,0,2023-08-09,2023-08-09,株式会社ダイニングクリエイト,,株式会社,石川県,金沢市,押野３丁目６１５番地ソレーユ２０５,,17,201,9218056,,,,,,,2023-08-09,1,,,,,ダイニングクリエイト,0
2983,9220003003564,新規,0,2023-08-09,2023-08-09,Ｄｒｏｐｅｖｅｒ合同会社,,合同会社,石川県,金沢市,彦三町１丁目２番１号アソルティ金沢彦三１Ｆ,,17,201,9200901,,,,,,,2023-08-09,1,,,,,ドロップエバー,0
2986,9230001019958,新規,0,2023-08-09,2023-08-09,株式会社Ｙｏｎｄｅｒ　ＵＰ,,株式会社,富山県,富山市,綾田町１丁目３４番５号,,16,201,9300845,,,,,,,2023-08-09,1,,,,,ヨンダーアップ,0
2989,9240001061942,新規,0,2023-08-09,2023-08-09,株式会社Ｇｏｏｄ　Ｌｉｆｅ,,株式会社,広島県,庄原市,西本町３丁目１８－１７,,34,210,7270013,,,,,,,2023-08-09,1,,,,,グッドライフ,0
2990,9240001061950,新規,0,2023-08-09,2023-08-09,株式会社ソウテック,,株式会社,広島県,広島市安佐北区,口田２丁目１１番２４号,,34,106,7391734,,,,,,,2023-08-09,1,,,,,ソウテック,0
2991,9240001061967,新規,0,2023-08-09,2023-08-09,株式会社ＣＡＬＭＥ,,株式会社,広島県,福山市,胡町１番１２号,,34,207,7200055,,,,,,,2023-08-09,1,,,,,カルム,0
2992,9240001061975,新規,0,2023-08-09,2023-08-09,株式会社ＲＩＳＥ,,株式会社,広島県,広島市西区,天満町２０番１４号,,34,104,7330022,,,,,,,2023-08-09,1,,,,,ライズ,0
2994,9240003006251,新規,0,2023-08-09,2023-08-09,ＮＩＣＯＣＹＣＬＥ合同会社,,合同会社,広島県,広島市西区,南観音３丁目１番２５号,,34,104,7330035,,,,,,,2023-08-09,1,,,,,ニコサイクル,0
2996,9260001038204,新規,0,2023-08-09,2023-08-09,株式会社ＫＡＩＮＯ　ｔｏｂｅ,,株式会社,岡山県,倉敷市,浜ノ茶屋１丁目２番４６－３０１号,,33,202,7100061,,,,,,,2023-08-09,1,,,,,カイノトゥービー,0
2997,9260001038220,新規,0,2023-08-09,2023-08-09,株式会社Ｓｍｉｌｅ　Ｌｉｆｅ,,株式会社,岡山県,岡山市北区,十日市中町１番３１号（１０２）,,33,101,7000855,,,,,,,2023-08-09,1,,,,,スマイルライフ,0
3002,9290001102452,新規,0,2023-08-09,2023-08-09,株式会社ＴＯＫＵ,,株式会社,福岡県,糟屋郡粕屋町,大字戸原６７３番地,,40,349,8112312,,,,,,,2023-08-09,1,,,,,トク,0
3003,9290001102634,新規,0,2023-08-09,2023-08-09,株式会社テクノサイネス,,株式会社,福岡県,福岡市博多区,冷泉町７－４サヴォイレジェント１００５,,40,132,8120039,,,,,,,2023-08-09,1,,,,,テクノサイネス,0
3006,9290003014183,新規,0,2023-08-09,2023-08-09,合同会社ＦＡＩＲＮＥＳＳ,,合同会社,福岡県,福岡市早良区,原４丁目１３番１１号フォーサイト原Ｒｅｎａｔｕｓ２０３号,,40,137,8140022,,,,,,,2023-08-09,1,,,,,フェアネス,0
3007,9290003014191,新規,0,2023-08-09,2023-08-09,合同会社ｍｕｒａｂｉ,,合同会社,福岡県,大牟田市,大字田隈３８番地１,,40,202,8370916,,,,,,,2023-08-09,1,,,,,ムラビ,0
3009,9290801029779,新規,0,2023-08-09,2023-08-09,大央建設株式会社,,株式会社,福岡県,直方市,大字山部１４０２番地３７,,40,204,8220034,,,,,,,2023-08-09,1,,,,,ダイオウケンセツ,0
3010,9290801029787,新規,0,2023-08-09,2023-08-09,株式会社ＳＳｕｐｐｏｒｔ,,株式会社,福岡県,北九州市小倉北区,霧ケ丘３丁目７番２１－１１０３号,,40,106,8020052,,,,,,,2023-08-09,1,,,,,エスサポート,0
3018,9330001031110,新規,0,2023-08-09,2023-08-09,株式会社ホンダ企画,,株式会社,熊本県,合志市,栄３２８２番地１,,43,216,8611113,,,,,,,2023-08-09,1,,,,,ホンダキカク,0
3023,9340001025788,新規,0,2023-08-09,2023-08-09,アイシー株式会社,,株式会社,鹿児島県,鹿児島市,甲突町２４番１,,46,201,8920837,,,,,,,2023-08-09,1,,,,,アイシー,0
3024,9340001025805,新規,0,2023-08-09,2023-08-09,株式会社クラフトストック,,株式会社,鹿児島県,鹿児島市,山田町３４３－８,,46,201,8910104,,,,,,,2023-08-09,1,,,,,,0
3030,9360001032386,新規,0,2023-08-09,2023-08-09,ＰＩＣＡＳＳＯ　ＩＮＴＥＲＮＡＴＩＯＮＡＬ　ＪＡＰＡＮ株式会社,,株式会社,沖縄県,浦添市,城間４丁目３番３号グランシャリオ２０２,,47,208,9012133,,,,,,,2023-08-09,1,,,,,ピカソインターナショナルジャパン,0
3031,9360001032403,新規,0,2023-08-09,2023-08-09,株式会社ホームペイント,,株式会社,沖縄県,那覇市,字安里８１番地２,,47,201,9020067,,,,,,,2023-08-09,1,,,,,ホームペイント,0
3032,9360001032411,新規,0,2023-08-09,2023-08-09,上間ガラス工房株式会社,,株式会社,沖縄県,那覇市,首里石嶺町４丁目１３５番地１くしばるビルＢ１・Ｂ２－１,,47,201,9030804,,,,,,,2023-08-09,1,,,,,ウエマガラスコウボウ,0
3033,9360003013178,新規,0,2023-08-09,2023-08-09,合同会社ＢＥＳＴ,,合同会社,沖縄県,那覇市,字与儀２１１番地,,47,201,9020076,,,,,,,2023-08-09,1,,,,,ベスト,0
3035,9370001050263,新規,0,2023-08-09,2023-08-09,ＡＳＡＮＯＨＡＹＡ株式会社,,株式会社,宮城県,仙台市青葉区,堤通雨宮町３番１８－１０２号,,04,101,9810914,,,,,,,2023-08-09,1,,,,,アサノハヤ,0
3036,9370001050271,新規,0,2023-08-09,2023-08-09,株式会社ｓｏｕｆｆｌｅ,,株式会社,宮城県,大崎市,古川福浦１丁目１９番３３号,,04,215,9896101,,,,,,,2023-08-09,1,,,,,スフレ,0
3037,9370001050288,新規,0,2023-08-09,2023-08-09,株式会社ａｒｓ,,株式会社,宮城県,仙台市若林区,若林４丁目７－２５吉野アパート２号室,,04,103,9840826,,,,,,,2023-08-09,1,,,,,アルス,0
3040,9380001033911,新規,0,2023-08-09,2023-08-09,株式会社サードラボ,,株式会社,福島県,福島市,三河南町１－２０コラッセふくしま６Ｆ,,07,201,9608053,,,,,,,2023-08-09,1,,,,,サードラボ,0
3042,9380003005537,新規,0,2023-08-09,2023-08-09,ＭＩＮＡＭＩＳＯＭＡ２号合同会社,,合同会社,福島県,南相馬市,原町区小木迫字堂西５４番地の１,,07,212,9750055,,,,,,,2023-08-09,1,,,,,ミナミソウマニゴウ,0
3045,9400001016343,新規,0,2023-08-09,2023-08-09,株式会社ＧＯＡＴ,,株式会社,岩手県,盛岡市,みたけ４丁目１０番３３号,,03,201,0200122,,,,,,,2023-08-09,1,,,,,ゴート,0
3046,9420001018362,新規,0,2023-08-09,2023-08-09,株式会社イエプラス,,株式会社,青森県,青森市,幸畑４丁目２番８号,,02,201,0300943,,,,,,,2023-08-09,1,,,,,,0
3050,9440001009302,新規,0,2023-08-09,2023-08-09,株式会社Ｏｎｅ　Ｉｓｍ,,株式会社,北海道,山越郡長万部町,字長万部４３１番地５１,,01,347,0493521,,,,,,,2023-08-09,1,,,,,ワンイズム,0
3051,9460003000959,新規,0,2023-08-09,2023-08-09,合同会社ＤａｉＧｅｎ,,合同会社,北海道,釧路市,鶴ケ岱１丁目１番１４１号パークサイド鶴ケ岱１４１号室,,01,206,0850821,,,,,,,2023-08-09,1,,,,,,0
3052,9460301005164,新規,0,2023-08-09,2023-08-09,株式会社Ｌｉｎｋ＆Ｃｏ．,,株式会社,北海道,北見市,山下町３丁目２番１８号はるみＡ１Ｆ,,01,208,0900037,,,,,,,2023-08-09,1,,,,,リンクアンドカンパニー,0
3053,9470001019736,新規,0,2023-08-09,2023-08-09,絆海運株式会社,,株式会社,香川県,綾歌郡宇多津町,浜九番丁１４３番地６,,37,386,7690209,,,,,,,2023-08-09,1,,,,,キズナカイウン,0
3054,9470001019752,新規,0,2023-08-09,2023-08-09,株式会社アイリス翻訳サービス,,株式会社,香川県,高松市,錦町１丁目１９－２,,37,201,7600020,,,,,,,2023-08-09,1,,,,,アイリスホンヤクサービス,0
3055,9470003002467,新規,0,2023-08-09,2023-08-09,合同会社Ｏ‐Ｓ,,合同会社,香川県,高松市,西町６番４－２０４号,,37,201,7600003,,,,,,,2023-08-09,1,,,,,オーエス,0
3056,9480001012178,新規,0,2023-08-09,2023-08-09,株式会社リペアテクニカルサービス,,株式会社,徳島県,徳島市,南佐古六番町１番１７号,,36,201,7700036,,,,,,,2023-08-09,1,,,,,リペアテクニカルサービス,0
3059,9490001010560,新規,0,2023-08-09,2023-08-09,株式会社サード・プラン,,株式会社,高知県,高知市,北新田町１９番１３－６０６号,,39,201,7818003,,,,,,,2023-08-09,1,,,,,サードプラン,0
3060,9500001025128,新規,0,2023-08-09,2023-08-09,株式会社ＢＰＭ３９,,株式会社,愛媛県,伊予郡砥部町,重光１４７番地１,,38,402,7912112,,,,,,,2023-08-09,1,,,,,ビーピーエムサンジュウキュウ,0
3061,9500003003073,新規,0,2023-08-09,2023-08-09,合同会社アンバー,,合同会社,愛媛県,四国中央市,中之庄町４３０番地,,38,213,7990422,,,,,,,2023-08-09,1,,,,,アンバー,0
3062,9700150115601,新規,0,2023-08-09,2023-08-09,広州日雅科技　有限公司,,外国会社等,,,,,,,,中国広州市白雲区鶴龍街聯辺彭上徳興路５号銀海商務大＿二楼２０１房,00131431,,,,,2023-08-09,1,,,,,コウシユウヒガカギユウゲンコウシ,0
3063,9700150118488,新規,0,2023-08-09,2023-08-09,ＬＥＤＯ　Ｎｅｔｗｏｒｋ　Ｉｎｃ,,外国会社等,,,,,,,,１９９２５　Ｓｔｅｖｅｎｓ　Ｃｒｅｅｋ　Ｂｌｖｄ，Ｓｕｉｔｅ　１００，Ｃｕｐｅｒｔｉｎｏ，ＣＡ，ＵＳ,,,,,,2023-08-09,1,,,,,レドネツトワークインク,0
3064,9700150118892,新規,0,2023-08-09,2023-08-09,Ｓｈｅｎｚｈｅｎ　Ｘｉａｏｙｕｎ　Ｎｅｔｗｏｒｋ　Ｔｅｃｈｎｏｌｏｇｙ　Ｃｏ．，Ｌｔｄ,,外国会社等,,,,,,,,Ｇｕｓｈｕ　Ｃｏｍｍｕｎｉｔｙ，Ｘｉｘｉａｎｇ　Ｓｔｒｅｅｔ３２２，Ｎｏ．１　Ｎａｎｊｉｕ　Ｌａｎｅ，Ｚｏｎｅ３，Ｈａｉｂｉｎ　Ｎｅｗ　ｖｉｌｌａｇｅ　ｓｈｅｎｚｈｅｎ，ｇｕａｎｇｄｏｎｇ，５１８１００，ＣＮ,,,,,,2023-08-09,1,,,,,シンセンシショウウンモウラクカギユウゲンコウシ,0
3065,9700150118901,新規,0,2023-08-09,2023-08-09,ｆｕｚｈｏｕ　ｇｅｗｕｄｉｎｇｚｈｉｗａｎｇｌｕｏｋｅｊｉ　ｙｏｕｘｉａｎｇｏｎｓｉ,,外国会社等,,,,,,,,ｇｕｌｏｕｑｕｓｈｕｉｂｕｊｉｅｄａｏｗｕｙｉｂｅｉｌｕ１２９ｈａｏ　ｒｏｎｇｃｈｅｎｇｓｈａｎｇｍａｏｚｈｏｎｇｘｉｎ２２ｃｅｎｇ０１ｓｈｉ－３　ｆｕｚｈｏｕｓｈｉ　ｆｕｊｉａｎｓｈｅｎｇ,,,,,,2023-08-09,1,,,,,フゾォウゲウデンシワンロケジユウゲンコウシ,0
3066,9700150118918,新規,0,2023-08-09,2023-08-09,ｓｈｅｎｚｈｅｎｓｈｉｄｉａｎｌｉａｎｗａｎｇｌｕｏｆｕｗｕｙｏｕｘｉａｎｇｏｎｇｓｉ,,外国会社等,,,,,,,,ｓｈｅｎ　ｚｈｅｎ　ｓｈｉ　ｌｏｎｇ　ｈｕａ　ｑｕ　ｍｉｎ　ｚｈｉ　ｊｉｅ　ｄａｏ　ｍｉｎ　ｌｅ　ｓｈｅ　ｑｕ　ｙｉｎｇ　ｓｈｕｉ　ｓｈａｎ　ｚｈｕａｎｇ　ｙｉ　ｑｕ　４ｄｏｎｇ　７０１,,,,,,2023-08-09,1,,,,,シェンジェンシーディエンリエンワンルオフーウーヨウシエンゴンスー,0
3067,9700150118926,新規,0,2023-08-09,2023-08-09,ｑｕａｎｚｈｏｕｓｈｉ　ｎｉ　ｋｅ　ｗａｎｇｌｕｏｋｅｊｉ　ｃｏ　ｌｔｄ,,外国会社等,,,,,,,,ＦＥＮＧＺＥＪＩＥＤＡＯ　ＰＩＮＧＳＨＡＮＬＵ　ＨＵＩＹＡＮＧＨＵＡＹＵＡＮ　１７０３　ＱＵＡＮＺＨＯＵ　ＳＨＩ　ＦＥＮＧＺＥ　ＱＵ　３６２０００　ＣＮ,,,,,,2023-08-09,1,,,,,ツェンゾォウシニケワンロケジヨウシェンゴンスー,0
3068,9700150118934,新規,0,2023-08-09,2023-08-09,Ｙｉｗｕ　Ｎｅｗ　Ｅｇｇ　Ｅ－Ｃｏｍｍｅｒｃｅ　Ｃｏ．，Ｌｔｄ,,外国会社等,,,,,,,,ｊｉａｎｇｄｏｎｇｊｉｅｄａｏｑｉｎｇｋｏｕｑｉｎｇｘｉｄｏｎｇｌｕ１０２ｈａｏ１００８ｓｈｉ，ｙｉｗｕ，ｚｈｅｊｉａｎｇ,,,,,,2023-08-09,1,,,,,ギウニューエッグイーコマースカンパニーリミテッド,0
3069,9700150118942,新規,0,2023-08-09,2023-08-09,Ｙａｎｔａｉ　Ｃｈｉｔｉａｎ　Ｆｕｒｎｉｔｕｒｅ　Ｃｏ．，ＬＴＤ,,外国会社等,,,,,,,,Ｎｏ．１－２００１，Ｂｕｉｌｄｉｎｇ　３１，Ｘｉｎｄｕｈｕｉ，Ｎｏ．６０　Ａｉｒｐｏｒｔ　Ｒｏａｄ，Ｚｈｉｆｕ　Ｄｉｓｔｒｉｃｔ，Ｙａｎｔａｉ　Ｃｉｔｙ，Ｓｈａｎｄｏｎｇ　Ｐｒｏｖｉｎｃｅ,,,,,,2023-08-09,1,,,,,エンタイチテンファーニチャーカンパニーリミテッド,0
3070,9700150118950,新規,0,2023-08-09,2023-08-09,Ｓｈｅｎｚｈｅｎ　Ｑｉｒｕｎ　Ｔｅｃｈｎｏｌｏｇｙ　Ｄｅｖｅｌｏｐｍｅｎｔ　Ｃｏ．，Ｌｔｄ,,外国会社等,,,,,,,,Ａ１１０２，Ｂｕｉｌｄｉｎｇ　７，Ｐｈａｓｅ　ＩＩ，Ｄｏｎｇｊｉｕ　Ｉｎｎｏｖａｔｉｏｎ　Ｔｅｃｈｎｏｌｏｇｙ　Ｐａｒｋ，Ｎｏ．７３，Ｘｉａｏｌｉｌａｎｇ　Ｓｏｕｔｈ　Ｒｏａｄ，Ｘｉａｏｌｉｌａｎｇ　Ｃｏｍｍｕｎｉｔｙ，Ｎａｎｗａｎ　Ｓｔｒｅｅｔ，Ｌｏｎｇｇａｎｇ　Ｄｉｓｔｒｉｃｔ，Ｓｈｅｎｚｈｅｎ,,,,,,2023-08-09,1,,,,,シンセンチルンテクノロジーデベロップメントカンパニーリミテッド,0
3071,9700150118959,新規,0,2023-08-09,2023-08-09,ＧＵＡＮＧＺＨＯＵ　ＧＡＮＧＱＩＤＩＡＮＺＩＳＨＡＮＧＷＵ　ＹＯＵＸＩＡＮＧＯＮＧＳＩ,,外国会社等,,,,,,,,ＧＵＡＮＧＺＨＯＵ　ＧＵＡＮＧＤＯＮＧ　ＹＵＥＸＩＵＱＵ　ＢＥｌＺＨＡＪＩＥ　３　ＸＩＡＮＧ　９ＨＡＯ　４０１ＦＡＮＧ,,,,,,2023-08-09,1,,,,,グワンジョウガンチーディエンズーシャンウーヨウシエンゴンスー,0
3072,9700150118967,新規,0,2023-08-09,2023-08-09,広州イ斯特貿易　有限公司,,外国会社等,,,,,,,,中国広州市越秀区恒福路１５５号一層Ｂ区１Ｂ０６６号鋪,,,,,,2023-08-09,1,,,,,コウシユウイシトクボウエキユウゲンコウシ,0
