sequenceNumber,corporateNumber,process,correct,updateDate,changeDate,name,nameImageId,kind,prefectureName,cityName,streetNumber,addressImageId,prefectureCode,cityCode,postCode,addressOutside,addressOutsideImageId,closeDate,closeCause,successorCorporateNumber,changeCause,assignmentDate,latest,enName,enPrefectureName,enCityName,enAddressOutside,furigana,hihyoji
11,1010001230742,新規,0,2022-11-15,2022-11-15,株式会社小松食品戦略研究所,,株式会社,東京都,中央区,八丁堀３丁目１２番８号,,13,102,1040032,,,,,,,2022-11-15,1,,,,,コマツショクヒンセンリャクケンキュウジョ,0
12,1010001230833,新規,0,2022-11-15,2022-11-15,株式会社ユモラル,,株式会社,東京都,中央区,日本橋小網町８－２ＢＩＺＭＡＲＫＳ日本橋茅場町,,13,102,1030016,,,,,,,2022-11-15,1,,,,,ユモラル,0
13,1010001230858,新規,0,2022-11-15,2022-11-15,株式会社ｈｉｒａｍｅ,,株式会社,東京都,千代田区,平河町２丁目５番３号,,13,101,1020093,,,,,,,2022-11-15,1,,,,,ヒラメ,0
15,1010003039026,新規,0,2022-11-15,2022-11-15,合同会社雅,,合同会社,東京都,中央区,銀座１丁目１２番４号Ｎ＆ＥＢＬＤ．７階,,13,102,1040061,,,,,,,2022-11-15,1,,,,,ミヤビ,0
16,1010003039075,新規,0,2022-11-15,2022-11-15,冨樫工業合同会社,,合同会社,東京都,文京区,千石３丁目２９番１９－１０８号,,13,105,1120011,,,,,,,2022-11-15,1,,,,,トガシコウギョウ,0
17,1010003039100,新規,0,2022-11-15,2022-11-15,ＢｌｕｅＢｒｉｄｇｅ　Ａｃｑｕｉｓｉｔｉｏｎ合同会社,,合同会社,東京都,中央区,日本橋室町４丁目３番９号,,13,102,1030022,,,,,,,2022-11-15,1,,,,,ブルーブリッジアクイジション,0
18,1010005035790,新規,0,2022-11-15,2022-11-15,一般社団法人天使の涎,,その他の設立登記法人,東京都,文京区,後楽２丁目１６番７号,,13,105,1120004,,,,,,,2022-11-15,1,,,,,テンシノヨダレ,0
26,1010401170514,新規,0,2022-11-15,2022-11-15,株式会社ＨＷＪ,,株式会社,東京都,港区,六本木３丁目４番３３号マルマン六本木ビル３Ｆ,,13,103,1060032,,,,,,,2022-11-15,1,,,,,エイチダブリュジェイ,0
28,1010401170877,新規,0,2022-11-15,2022-11-15,株式会社ｍｕｇｏ,,株式会社,東京都,港区,南青山２丁目２番１５号ウィン青山９４２,,13,103,1070062,,,,,,,2022-11-15,1,,,,,ムゴ,0
31,1010403028801,新規,0,2022-11-15,2022-11-15,ＣＩＴＲＯＮ合同会社,,合同会社,東京都,港区,南青山３丁目１番３６号,,13,103,1070062,,,,,,,2022-11-15,1,,,,,シトロン,0
32,1010403028891,新規,0,2022-11-15,2022-11-15,メトロメンテナンス合同会社,,合同会社,東京都,港区,赤坂８丁目１２番１９号メトロパーク赤坂３階,,13,103,1070052,,,,,,,2022-11-15,1,,,,,メトロメンテナンス,0
33,1010403028909,新規,0,2022-11-15,2022-11-15,ツバキ合同会社,,合同会社,東京都,港区,虎ノ門５丁目１番４号,,13,103,1050001,,,,,,,2022-11-15,1,,,,,ツバキ,0
35,1010405021548,新規,0,2022-11-15,2022-11-15,ＣＬＵＥパートナーズ税理士法人,,その他の設立登記法人,東京都,港区,三田２丁目１４番５号フロイントゥ三田１００３号,,13,103,1080073,,,,,,,2022-11-15,1,,,,,クルーパートナーズ,0
42,1010701043477,新規,0,2022-11-15,2022-11-15,透明書店株式会社,,株式会社,東京都,品川区,大崎１丁目２－２アートヴィレッジ大崎セントラルタワー２１Ｆ,,13,109,1410032,,,,,,,2022-11-15,1,,,,,トウメイショテン,0
43,1010701043485,新規,0,2022-11-15,2022-11-15,株式会社えにし,,株式会社,東京都,品川区,西五反田６丁目３番１９号Ｓ－ＶＵＩＴＴＯＮＫＡＭＢＡＲＡ５０３,,13,109,1410031,,,,,,,2022-11-15,1,,,,,エニシ,0
46,1010801033436,新規,0,2022-11-15,2022-11-15,トモ株式会社,,株式会社,東京都,大田区,中央８丁目２７番２号,,13,111,1430024,,,,,,,2022-11-15,1,,,,,トモ,0
50,1010901051932,新規,0,2022-11-15,2022-11-15,株式会社タビキャスト,,株式会社,東京都,世田谷区,松原３丁目３０－１０－２Ｆ,,13,112,1560043,,,,,,,2022-11-15,1,,,,,タビキャスト,0
59,1011001150740,新規,0,2022-11-15,2022-11-15,株式会社ＴＩＭ,,株式会社,東京都,渋谷区,代々木２丁目２６番５号バロール代々木３２３号,,13,113,1510053,,,,,,,2022-11-15,1,,,,,ティーアイエム,0
60,1011001150815,新規,0,2022-11-15,2022-11-15,いぬとれ株式会社,,株式会社,東京都,渋谷区,道玄坂１丁目１０番８号,,13,113,1500043,,,,,,,2022-11-15,1,,,,,イヌトレ,0
61,1011001150864,新規,0,2022-11-15,2022-11-15,株式会社ＣＯＬＯＲＫ,,株式会社,東京都,渋谷区,千駄ヶ谷３丁目８番４－１０４号,,13,113,1510051,,,,,,,2022-11-15,1,,,,,カラック,0
72,1011101100835,新規,0,2022-11-15,2022-11-15,株式会社カワドンエンタテインメント,,株式会社,東京都,新宿区,西新宿６丁目１１番３号Ｄタワー西新宿１６Ｆ,,13,104,1600023,,,,,,,2022-11-15,1,,,,,カワドンエンタテインメント,0
74,1011103012384,新規,0,2022-11-15,2022-11-15,合同会社スカイ,,合同会社,東京都,新宿区,西新宿３丁目３番１３号西新宿水間ビル６階,,13,104,1600023,,,,,,,2022-11-15,1,,,,,スカイ,0
76,1011401024692,新規,0,2022-11-15,2022-11-15,株式会社アストレア,,株式会社,東京都,板橋区,中台３丁目２７番Ｄ－１６０６号,,13,119,1740064,,,,,,,2022-11-15,1,,,,,アストレア,0
81,1011701025787,新規,0,2022-11-15,2022-11-15,株式会社平井,,株式会社,東京都,江戸川区,平井４丁目２９番１６－４０５号,,13,123,1320035,,,,,,,2022-11-15,1,,,,,ヒライ,0
87,1012303001747,新規,0,2022-11-15,2022-11-15,合同会社サンク,,合同会社,東京都,町田市,原町田６丁目１４番８号東亜町田Ｉビル５階,00128486,13,209,1940013,,,,,,,2022-11-15,1,,,,,サンク,0
88,1012701017353,新規,0,2022-11-15,2022-11-15,からだ‐Ｒｅ．Ｆｏｒｍ株式会社,,株式会社,東京都,東村山市,恩多町３丁目１３番地１にんやビル１０１,,13,213,1890011,,,,,,,2022-11-15,1,,,,,カラダリフォーム,0
92,1012801021965,新規,0,2022-11-15,2022-11-15,株式会社花火,,株式会社,東京都,立川市,高松町３丁目１４番１１号マスターズオフィス立川地下１階,,13,202,1900011,,,,,,,2022-11-15,1,,,,,ハナビ,0
95,1013301049935,新規,0,2022-11-15,2022-11-15,株式会社グランデ,,株式会社,東京都,豊島区,東池袋２丁目２７番１７号,,13,116,1700013,,,,,,,2022-11-15,1,,,,,グランデ,0
96,1013303006372,新規,0,2022-11-15,2022-11-15,ＤＤＤ合同会社,,合同会社,東京都,豊島区,南長崎６丁目２６番１４号ハーモニーテラス南長崎２０１号,,13,116,1710052,,,,,,,2022-11-15,1,,,,,ディディディ,0
105,1020001149008,新規,0,2022-11-15,2022-11-15,恩澤真珠株式会社,,株式会社,神奈川県,横浜市栄区,小菅ケ谷１丁目１番１－４０４号,,14,115,2470007,,,,,,,2022-11-15,1,,,,,オンタクシンジュ,0
106,1020001149016,新規,0,2022-11-15,2022-11-15,株式会社ズノーワ,,株式会社,神奈川県,横浜市中区,海岸通３丁目１０番地,,14,104,2310002,,,,,,,2022-11-15,1,,,,,ズノーワ,0
108,1020005015718,新規,0,2022-11-15,2022-11-15,特定非営利活動法人ＦＣサポート,,その他の設立登記法人,神奈川県,横浜市金沢区,釜利谷南４丁目２７番２２号,,14,108,2360045,,,,,,,2022-11-15,1,,,,,エフシーサポート,0
110,1021003012384,新規,0,2022-11-15,2022-11-15,プレザン合同会社,,合同会社,神奈川県,藤沢市,辻堂６丁目５番１２号,,14,205,2510047,,,,,,,2022-11-15,1,,,,,プレザン,0
111,1021005012663,新規,0,2022-11-15,2022-11-15,一般社団法人ファミリーケアフレンド,,その他の設立登記法人,神奈川県,海老名市,柏ケ谷９６７番地の１（４０４）,,14,215,2430402,,,,,,,2022-11-15,1,,,,,ファミリーケアフレンド,0
120,1030005021070,新規,0,2022-11-15,2022-11-15,一般社団法人Ｍ＆Ｔ,,その他の設立登記法人,埼玉県,戸田市,笹目７丁目９番地の２４,,11,224,3350034,,,,,,,2022-11-15,1,,,,,エムアンドティ,0
127,1050003007012,新規,0,2022-11-15,2022-11-15,合同会社ＨＡ　ＴＲＡＤＩＮＧ,,合同会社,茨城県,筑西市,玉戸１３０９番地２７,,08,227,3080847,,,,,,,2022-11-15,1,,,,,エイチエートレーディング,0
143,1080401026156,新規,0,2022-11-15,2022-11-15,株式会社杉野,,株式会社,静岡県,浜松市中区,高林５丁目３番２８号,,22,131,4300907,,,,,,,2022-11-15,1,,,,,スギノ,0
144,1080403004655,新規,0,2022-11-15,2022-11-15,谷野商店合同会社,,合同会社,静岡県,浜松市中区,曳馬４丁目１番２１号,,22,131,4300901,,,,,,,2022-11-15,1,,,,,ヤノショウテン,0
148,1100003006776,新規,0,2022-11-15,2022-11-15,合同会社ＳＡＩＫＡＷＡ,,合同会社,長野県,飯田市,育良町２丁目５番地１３福島アパート２０２号,,20,205,3950152,,,,,,,2022-11-15,1,,,,,サイカワ,0
155,1120001250275,新規,0,2022-11-15,2022-11-15,日本綜合商事株式会社,,株式会社,大阪府,大阪市中央区,瓦町１丁目６番１－１６０２号,,27,128,5410048,,,,,,,2022-11-15,1,,,,,ニホンソウゴウショウジ,0
156,1120001250283,新規,0,2022-11-15,2022-11-15,株式会社Ｖｉｆ　ｐｒｏｄｕｃｅ,,株式会社,大阪府,大阪市都島区,片町２丁目２－４０大発ビル８１１,,27,102,5340025,,,,,,,2022-11-15,1,,,,,ヴィフプロディース,0
157,1120001250317,新規,0,2022-11-15,2022-11-15,玉満堂株式会社,,株式会社,大阪府,大阪市浪速区,浪速西２丁目９番２０号,,27,111,5560026,,,,,,,2022-11-15,1,,,,,ギョクマンドウ,0
158,1120001250333,新規,0,2022-11-15,2022-11-15,株式会社三裕企画,,株式会社,大阪府,大阪市淀川区,東三国４丁目７番１３号,,27,123,5320002,,,,,,,2022-11-15,1,,,,,サンユウキカク,0
159,1120001250366,新規,0,2022-11-15,2022-11-15,株式会社ＮＯＲＩＣＯ,,株式会社,大阪府,大阪市東淀川区,相川１丁目２番１－４０２号,,27,114,5330007,,,,,,,2022-11-15,1,,,,,ノリコ,0
160,1120001250374,新規,0,2022-11-15,2022-11-15,アイビスプロパティー株式会社,,株式会社,大阪府,大阪市中央区,本町４丁目５番１５号本町ＯＳビル４０５,,27,128,5410053,,,,,,,2022-11-15,1,,,,,アイビスプロパティー,0
162,1120003022870,新規,0,2022-11-15,2022-11-15,合同会社Ｎ・Ｙ,,合同会社,大阪府,大阪市鶴見区,今津北４丁目１３番１２号,,27,124,5380041,,,,,,,2022-11-15,1,,,,,エヌワイ,0
172,1130001073072,新規,0,2022-11-15,2022-11-15,株式会社フォーシーワン,,株式会社,京都府,京都市下京区,玉津島町２９４,,26,106,6008427,,,,,,,2022-11-15,1,,,,,フォーシーワン,0
173,1130001073089,新規,0,2022-11-15,2022-11-15,株式会社ＮＥＯ設計,,株式会社,京都府,宇治市,槇島町落合２２２番地１アーデル・ヴィラ２１１,,26,204,6110041,,,,,,,2022-11-15,1,,,,,ネオセッケイ,0
186,1140003018363,新規,0,2022-11-15,2022-11-15,ｂｉｚｉｏｎ合同会社,,合同会社,兵庫県,芦屋市,西芦屋町７番１１－２０１号,00128491,28,206,6590085,,,,,,,2022-11-15,1,,,,,ビズィオン,0
187,1150001025947,新規,0,2022-11-15,2022-11-15,株式会社ＧＡＫＵＥＮ,,株式会社,奈良県,奈良市,東登美ヶ丘２丁目８番１０号,,29,201,6310002,,,,,,,2022-11-15,1,,,,,ガクエン,0
189,1160001024650,新規,0,2022-11-15,2022-11-15,株式会社真天興業,,株式会社,滋賀県,長浜市,神照町７４０番地ツインクレスト１０３号,,25,203,5260015,,,,,,,2022-11-15,1,,,,,シンテンコウギョウ,0
200,1180001153803,新規,0,2022-11-15,2022-11-15,デンタルエッセンス株式会社,,株式会社,愛知県,半田市,清城町１丁目３番地の２ルーチェ清城１－２,,23,205,4750917,,,,,,,2022-11-15,1,,,,,デンタルエッセンス,0
201,1180001153844,新規,0,2022-11-15,2022-11-15,株式会社プロキスタ名古屋,,株式会社,愛知県,名古屋市中区,大須２丁目１５番１１号２階,,23,106,4600011,,,,,,,2022-11-15,1,,,,,プロキスタナゴヤ,0
202,1180001153852,新規,0,2022-11-15,2022-11-15,Ｋ．Ｐｌａｎｎｉｎｇ株式会社,,株式会社,愛知県,名古屋市緑区,南大高１丁目２３０６番地,,23,114,4598016,,,,,,,2022-11-15,1,,,,,ケープランニング,0
205,1180005020000,新規,0,2022-11-15,2022-11-15,行政書士法人さくらグループ,,その他の設立登記法人,愛知県,知多郡東浦町,大字緒川字家下１５番地の２,,23,442,4702102,,,,,,,2022-11-15,1,,,,,サクラグループ,0
212,1180301036798,新規,0,2022-11-15,2022-11-15,株式会社ウォークン,,株式会社,愛知県,豊田市,曙町２丁目１３番地２ＧｒａｎＣｅｎｏｔｅ８０６号室,00128480,23,211,4710835,,,,,,,2022-11-15,1,,,,,ウォークン,0
213,1180301036823,新規,0,2022-11-15,2022-11-15,ＨＩＫＡＲＩ　ＮＡＭＩＲＡ株式会社,,株式会社,愛知県,西尾市,一色町一色上屋敷９７番地２,,23,213,4440423,,,,,,,2022-11-15,1,,,,,ヒカリナミラ,0
216,1190001029936,新規,0,2022-11-15,2022-11-15,株式会社Ｒ．Ｙ．Ｓ,,株式会社,三重県,四日市市,下さざらい町１１番１０号Ｓプレイス,,24,202,5108033,,,,,,,2022-11-15,1,,,,,リーズ,0
217,1210001019158,新規,0,2022-11-15,2022-11-15,株式会社渡辺商店,,株式会社,福井県,福井市,今市町第６４号４番地４,,18,201,9188152,,,,,,,2022-11-15,1,,,,,ワタナベショウテン,0
219,1220003003398,新規,0,2022-11-15,2022-11-15,合同会社ＭＣＳ,,合同会社,石川県,金沢市,上安原１丁目７１‐３,,17,201,9200370,,,,,,,2022-11-15,1,,,,,エムシーエス,0
222,1240001060654,新規,0,2022-11-15,2022-11-15,株式会社ｌｉｅＮ,,株式会社,広島県,東広島市,黒瀬町上保田１４－１,,34,212,7392625,,,,,,,2022-11-15,1,,,,,リアン,0
223,1240001060662,新規,0,2022-11-15,2022-11-15,株式会社Ｘ　ＣＲＥＡＴＥ,,株式会社,広島県,広島市中区,十日市町２丁目２番３４号,,34,101,7300805,,,,,,,2022-11-15,1,,,,,エックスクリエイト,0
227,1280001008823,新規,0,2022-11-15,2022-11-15,松江橋南商店街株式会社,,株式会社,島根県,松江市,天神町１０２番地,,32,201,6900064,,,,,,,2022-11-15,1,,,,,マツエキョウナンショウテンガイ,0
235,1290001099564,新規,0,2022-11-15,2022-11-15,株式会社３ＴＨＲＥＥ,,株式会社,福岡県,福岡市中央区,渡辺通４丁目１番１号ＲＪＲプレシア天神サウス１５０７,,40,133,8100004,,,,,,,2022-11-15,1,,,,,スリー,0
244,1340001025176,新規,0,2022-11-15,2022-11-15,株式会社彩々,,株式会社,鹿児島県,鹿屋市,旭原町３６２７番地４,,46,203,8930022,,,,,,,2022-11-15,1,,,,,サイサイ,0
245,1370005010551,新規,0,2022-11-15,2022-11-15,一般社団法人星樹会,,その他の設立登記法人,宮城県,東松島市,赤井字台５６番地１,,04,214,9810501,,,,,,,2022-11-15,1,,,,,セイジュカイ,0
249,1380001033266,新規,0,2022-11-15,2022-11-15,株式会社浪江建材工業,,株式会社,福島県,双葉郡浪江町,大字田尻字みどりが丘１７１番地６,,07,547,9791541,,,,,,,2022-11-15,1,,,,,ナミエケンザイコウギョウ,0
253,1390003002012,新規,0,2022-11-15,2022-11-15,合同会社はやぶさ,,合同会社,山形県,天童市,本町２丁目２番１１号,,06,210,9940034,,,,,,,2022-11-15,1,,,,,ハヤブサ,0
256,1420001018072,新規,0,2022-11-15,2022-11-15,株式会社ｖｉｍｖｅｒｙ,,株式会社,青森県,青森市,緑１丁目８番地１４,,02,201,0300845,,,,,,,2022-11-15,1,,,,,ヴィムベリー,0
259,1430001087835,新規,0,2022-11-15,2022-11-15,株式会社モリアゲ,,株式会社,北海道,札幌市豊平区,平岸四条１１丁目１０番１２号ガーデンテラス平岸１０１号室,,01,105,0620934,,,,,,,2022-11-15,1,,,,,モリアゲ,0
260,1430001087843,新規,0,2022-11-15,2022-11-15,株式会社キイロ乃カモ,,株式会社,北海道,小樽市,桂岡町１５番８号,,01,203,0470264,,,,,,,2022-11-15,1,,,,,キイロノカモ,0
264,1470001019339,新規,0,2022-11-15,2022-11-15,株式会社ＴＯＬＵＣＫ,,株式会社,香川県,東かがわ市,小磯６１９－３,,37,207,7692511,,,,,,,2022-11-15,1,,,,,トラック,0
267,1470003002284,新規,0,2022-11-15,2022-11-15,レオス合同会社,,合同会社,香川県,高松市,多肥上町１７１８番地１,,37,201,7618076,,,,,,,2022-11-15,1,,,,,レオス,0
280,2010001230849,新規,0,2022-11-15,2022-11-15,株式会社エガリテ,,株式会社,東京都,中央区,銀座６丁目１３番１６号銀座ＷａｌｌビルＵＣＦ５０１,,13,102,1040061,,,,,,,2022-11-15,1,,,,,エガリテ,0
281,2010001230865,新規,0,2022-11-15,2022-11-15,株式会社アベイユ・ラボ,,株式会社,東京都,千代田区,丸の内３丁目３番１号,,13,101,1000005,,,,,,,2022-11-15,1,,,,,アベイユラボ,0
286,2010101015415,新規,0,2022-11-15,2022-11-15,株式会社平林興業,,株式会社,東京都,八王子市,中山８０４番６,,13,201,1920374,,,,,,,2022-11-15,1,,,,,ヒラバヤシコウギョウ,0
298,2010403028908,新規,0,2022-11-15,2022-11-15,カメリア合同会社,,合同会社,東京都,港区,虎ノ門５丁目１番４号,,13,103,1050001,,,,,,,2022-11-15,1,,,,,カメリア,0
300,2010405021530,新規,0,2022-11-15,2022-11-15,一般社団法人楽健法協会,,その他の設立登記法人,東京都,港区,三田４丁目１５番３２－１００１号,,13,103,1080073,,,,,,,2022-11-15,1,,,,,ラッケンホウキョウカイ,0
301,2010405021588,新規,0,2022-11-15,2022-11-15,カメリア一般社団法人,,その他の設立登記法人,東京都,港区,虎ノ門５丁目１番４号,,13,103,1050001,,,,,,,2022-11-15,1,,,,,カメリア,0
303,2010501049624,新規,0,2022-11-15,2022-11-15,ＳＹＣ株式会社,,株式会社,東京都,台東区,根岸４丁目１５番１２－７０５号ジャルダン根岸,,13,106,1100003,,,,,,,2022-11-15,1,,,,,エスワイシー,0
312,2010701043476,新規,0,2022-11-15,2022-11-15,株式会社経理支援,,株式会社,東京都,品川区,西五反田８丁目３番６号ＴＫ五反田ビル６Ｆ,,13,109,1410031,,,,,,,2022-11-15,1,,,,,ケイリシエン,0
314,2010703006464,新規,0,2022-11-15,2022-11-15,合同会社一石億鳥,,合同会社,東京都,品川区,大崎３丁目５番３号,,13,109,1410032,,,,,,,2022-11-15,1,,,,,イッセキオクチョウ,0
318,2010803004351,新規,0,2022-11-15,2022-11-15,合同会社ふぉとん,,合同会社,東京都,大田区,大森中２丁目２番１号－２０３号,,13,111,1430014,,,,,,,2022-11-15,1,,,,,フォトン,0
324,2010903007782,新規,0,2022-11-15,2022-11-15,合同会社ＣＲＢ,,合同会社,東京都,世田谷区,成城９丁目２７番２号,,13,112,1570066,,,,,,,2022-11-15,1,,,,,シーアールビー,0
334,2011001150847,新規,0,2022-11-15,2022-11-15,株式会社Ｔ・Ｔ,,株式会社,東京都,渋谷区,道玄坂２丁目１５番１－４１３号,,13,113,1500043,,,,,,,2022-11-15,1,,,,,ティードットティー,0
335,2011001150863,新規,0,2022-11-15,2022-11-15,株式会社ＯＹＯ,,株式会社,東京都,渋谷区,神宮前６丁目２３番４号桑野ビル２階,,13,113,1500001,,,,,,,2022-11-15,1,,,,,オーワイオー,0
339,2011103012359,新規,0,2022-11-15,2022-11-15,合同会社ＢＣ,,合同会社,東京都,新宿区,高田馬場１丁目２９番６号野菊ビル５０３号室,,13,104,1690075,,,,,,,2022-11-15,1,,,,,ビーシー,0
340,2011103012383,新規,0,2022-11-15,2022-11-15,Ｎａｔｕｒａｌ　Ｗｏｏｄｓ合同会社,,合同会社,東京都,新宿区,新宿３丁目１２番４号新宿Ｎタウンプラザ３０９号,,13,104,1600022,,,,,,,2022-11-15,1,,,,,ナチュラルウッズ,0
343,2011301028248,新規,0,2022-11-15,2022-11-15,株式会社ＢｏＷ,,株式会社,東京都,杉並区,桃井４丁目８番５号ハウス桃井１０１,,13,115,1670034,,,,,,,2022-11-15,1,,,,,ボウ,0
344,2011301028256,新規,0,2022-11-15,2022-11-15,株式会社コナ・オフィス,,株式会社,東京都,杉並区,上高井戸２丁目２番７号,,13,115,1680074,,,,,,,2022-11-15,1,,,,,コナオフィス,0
345,2011303004577,新規,0,2022-11-15,2022-11-15,ｅｒｕｎ合同会社,,合同会社,東京都,杉並区,西荻南２丁目２８番４号ＰｌｕｍＨｏｕｓｅ２０１,,13,115,1670053,,,,,,,2022-11-15,1,,,,,エルン,0
346,2011401024691,新規,0,2022-11-15,2022-11-15,株式会社Ｓ＆Ｑ,,株式会社,東京都,板橋区,大山金井町４９番１４号メゾン・シミズ１０２号室,,13,119,1730024,,,,,,,2022-11-15,1,,,,,エスアンドキュー,0
358,2011803005380,新規,0,2022-11-15,2022-11-15,合同会社ラプラス,,合同会社,東京都,足立区,新田３丁目３５番２１－４１３号,,13,121,1230865,,,,,,,2022-11-15,1,,,,,ラプラス,0
361,2012303001746,新規,0,2022-11-15,2022-11-15,Ｌｉｔ合同会社,,合同会社,東京都,町田市,小山町２５２０番地２Ｆ,,13,209,1940212,,,,,,,2022-11-15,1,,,,,リット,0
362,2012405004804,新規,0,2022-11-15,2022-11-15,一般社団法人Ｓｅｏｕｌ　ｉｎ　Ｔｏｋｙｏ,,その他の設立登記法人,東京都,三鷹市,下連雀２丁目７番１３号,,13,204,1810013,,,,,,,2022-11-15,1,,,,,ソウルイントウキョウ,0
365,2013101009056,新規,0,2022-11-15,2022-11-15,株式会社ＭＡＮＯＲＡＬＹ,,株式会社,東京都,青梅市,谷野９２番地の２,,13,205,1980012,,,,,,,2022-11-15,1,,,,,マノラリー,0
375,2020001148966,新規,0,2022-11-15,2022-11-15,ｅｄｉｔｉｏｎ株式会社,,株式会社,神奈川県,横浜市都筑区,南山田町４２３９番地３,,14,118,2240026,,,,,,,2022-11-15,1,,,,,エディション,0
394,2030001151036,新規,0,2022-11-15,2022-11-15,深海国際株式会社,,株式会社,埼玉県,川口市,青木１丁目１５番５号スカイハイツ５１３,,11,203,3320031,,,,,,,2022-11-15,1,,,,,シンカイコクサイ,0
400,2030003020585,新規,0,2022-11-15,2022-11-15,合同会社ＷＡｚｕｒｅ,,合同会社,埼玉県,さいたま市大宮区,浅間町２丁目１８０－２アマービレ３０５,,11,103,3300842,,,,,,,2022-11-15,1,,,,,ワジュール,0
408,2050001051985,新規,0,2022-11-15,2022-11-15,ＷＵＲＡ株式会社,,株式会社,茨城県,つくば市,天久保１丁目１１番１２号１０１号室,,08,220,3050005,,,,,,,2022-11-15,1,,,,,ウラ,0
411,2050003007011,新規,0,2022-11-15,2022-11-15,合同会社Ｓ．Ｂトレーディングカンパニー,,合同会社,茨城県,猿島郡境町,大字稲尾７２６番地８,,08,546,3060407,,,,,,,2022-11-15,1,,,,,エスビートレーディングカンパニー,0
427,2100001035883,新規,0,2022-11-15,2022-11-15,株式会社加納内装,,株式会社,長野県,長野市,小島田町７４９番地３,,20,201,3812212,,,,,,,2022-11-15,1,,,,,カノウナイソウ,0
428,2100003006775,新規,0,2022-11-15,2022-11-15,合同会社光栄,,合同会社,長野県,上伊那郡南箕輪村,３６２４番地２,,20,385,3994511,,,,,,,2022-11-15,1,,,,,コウエイ,0
442,2120001250316,新規,0,2022-11-15,2022-11-15,Ｏｌｉｖｅ不動産販売株式会社,,株式会社,大阪府,大阪市北区,東天満１丁目１１番１５号９０１号室,,27,127,5300044,,,,,,,2022-11-15,1,,,,,オリーブフドウサンハンバイ,0
443,2120001250324,新規,0,2022-11-15,2022-11-15,株式会社ＴＨＥ　ＯＴＨＥＲＳ,,株式会社,大阪府,大阪市北区,本庄西１丁目６番２４号,,27,127,5310073,,,,,,,2022-11-15,1,,,,,ジアザーズ,0
444,2120001250340,新規,0,2022-11-15,2022-11-15,立信株式会社,,株式会社,大阪府,大阪市生野区,中川４丁目２番４号ホワイトビル４０１号,,27,116,5440005,,,,,,,2022-11-15,1,,,,,リッシン,0
445,2120001250365,新規,0,2022-11-15,2022-11-15,ＢＩＲＴＨＤＡＹ株式会社,,株式会社,大阪府,大阪市北区,梅田１丁目２番２号大阪駅前第２ビル１２－１２,,27,127,5300001,,,,,,,2022-11-15,1,,,,,バースデイ,0
448,2120003022746,新規,0,2022-11-15,2022-11-15,ＰＡＣＩＦＩＣ合同会社,,合同会社,大阪府,大阪市浪速区,大国２丁目１２番１３－３０１号,,27,111,5560014,,,,,,,2022-11-15,1,,,,,パシフィック,0
457,2120101066538,新規,0,2022-11-15,2022-11-15,ＩＴＬ株式会社,,株式会社,大阪府,松原市,丹南４丁目１６６番地の１（１０２号）,,27,217,5800013,,,,,,,2022-11-15,1,,,,,アイティーエル,0
460,2120901046689,新規,0,2022-11-15,2022-11-15,樹木葬開発株式会社,,株式会社,大阪府,茨木市,西駅前町７番メゾン茨木西駅前９０５,,27,211,5670032,,,,,,,2022-11-15,1,,,,,ジュモクソウカイハツ,0
461,2120901046747,新規,0,2022-11-15,2022-11-15,株式会社Ｒｅｔｒｏｆｉｔ　ＧＡＭＡ,,株式会社,大阪府,箕面市,粟生新家２丁目５番９号,,27,220,5620024,,,,,,,2022-11-15,1,,,,,レトロフィットガマ,0
462,2122001036397,新規,0,2022-11-15,2022-11-15,小掠商事株式会社,,株式会社,大阪府,八尾市,高砂町２丁目２４番地の１３,,27,212,5810822,,,,,,,2022-11-15,1,,,,,オグラショウジ,0
477,2140003018354,新規,0,2022-11-15,2022-11-15,黒伊勢凡合同会社,,合同会社,兵庫県,川西市,清和台東４丁目４番地の３２,,28,217,6660142,,,,,,,2022-11-15,1,,,,,クロイセボン,0
478,2140003018362,新規,0,2022-11-15,2022-11-15,合同会社和,,合同会社,兵庫県,加古川市,平岡町高畑４５２番地の１９,,28,210,6750103,,,,,,,2022-11-15,1,,,,,ノドカ,0
480,2150003002811,新規,0,2022-11-15,2022-11-15,ジャックポットジャパン合同会社,,合同会社,奈良県,奈良市,丸山２丁目４４９８番地の３２,,29,201,6310056,,,,,,,2022-11-15,1,,,,,ジャックポットジャパン,0
486,2160003002736,新規,0,2022-11-15,2022-11-15,Ｇｌｕｃｋ合同会社,,合同会社,滋賀県,近江八幡市,小田町１９番地１,,25,204,5230064,,,,,,,2022-11-15,1,,,,,グリュック,0
494,2180001153843,新規,0,2022-11-15,2022-11-15,株式会社技建愛三,,株式会社,愛知県,一宮市,木曽川町黒田二ノ通り１２０番地,,23,203,4930001,,,,,,,2022-11-15,1,,,,,ギケンアイサン,0
496,2180003024489,新規,0,2022-11-15,2022-11-15,ＡＮＷＡＲ　ＴＲＡＤＩＮＧ合同会社,,合同会社,愛知県,北名古屋市,六ツ師北屋敷２３０４番地１,,23,234,4810001,,,,,,,2022-11-15,1,,,,,アヌワルトレーディング,0
498,2180301036814,新規,0,2022-11-15,2022-11-15,株式会社スターマイン,,株式会社,愛知県,豊橋市,羽根井町１７番地５,,23,201,4418025,,,,,,,2022-11-15,1,,,,,スターマイン,0
499,2180301036830,新規,0,2022-11-15,2022-11-15,株式会社クリエイト,,株式会社,愛知県,豊橋市,豊清町字茶屋ノ下９２番地の１４９,,23,201,4413115,,,,,,,2022-11-15,1,,,,,クリエイト,0
508,2200001040675,新規,0,2022-11-15,2022-11-15,株式会社ＲＥＧＵＬＵＳ,,株式会社,岐阜県,岐阜市,東鶉７丁目６番地グローブＩＩ２０６号室,00128482,21,201,5008281,,,,,,,2022-11-15,1,,,,,レグルス,0
517,2230001019592,新規,0,2022-11-15,2022-11-15,株式会社バーシーズ,,株式会社,富山県,射水市,南太閤山９丁目７７番地,,16,211,9390364,,,,,,,2022-11-15,1,,,,,バーシーズ,0
518,2240001060653,新規,0,2022-11-15,2022-11-15,株式会社Ｓｕｉ,,株式会社,広島県,広島市中区,三川町２番８－９０２号,,34,101,7300029,,,,,,,2022-11-15,1,,,,,スイ,0
531,2270001008666,新規,0,2022-11-15,2022-11-15,株式会社Ｈｉｒａｎｏ,,株式会社,鳥取県,西伯郡大山町,名和７３７－２,,31,386,6893212,,,,,,,2022-11-15,1,,,,,ヒラノ,0
534,2280003001668,新規,0,2022-11-15,2022-11-15,合同会社物産工房おき,,合同会社,島根県,隠岐郡隠岐の島町,津戸１４番地２,,32,528,6850105,,,,,,,2022-11-15,1,,,,,ブッサンコウボウオキ,0
540,2290003013200,新規,0,2022-11-15,2022-11-15,ひみつきち合同会社,,合同会社,福岡県,太宰府市,宰府３丁目２番２２号,,40,221,8180117,,,,,,,2022-11-15,1,,,,,ヒミツキチ,0
542,2290801029059,新規,0,2022-11-15,2022-11-15,株式会社タカヤマ北九州,,株式会社,福岡県,北九州市小倉北区,馬借３丁目７番３１号,,40,106,8020077,,,,,,,2022-11-15,1,,,,,タカヤマキタキュウシュウ,0
546,2300001013134,新規,0,2022-11-15,2022-11-15,岩崎建設株式会社,,株式会社,佐賀県,多久市,東多久町大字別府４３２３番地１,,41,204,8460012,,,,,,,2022-11-15,1,,,,,イワサキケンセツ,0
547,2360001031196,新規,0,2022-11-15,2022-11-15,株式会社ファーストプレイス,,株式会社,沖縄県,浦添市,宮城２丁目１６番２号２Ｆ,,47,208,9012126,,,,,,,2022-11-15,1,,,,,ファーストプレイス,0
548,2360001031205,新規,0,2022-11-15,2022-11-15,株式会社さちゅん,,株式会社,沖縄県,島尻郡南風原町,字大名２１６－２,,47,350,9011101,,,,,,,2022-11-15,1,,,,,サチュン,0
549,2370001049270,新規,0,2022-11-15,2022-11-15,株式会社アグリの杜,,株式会社,宮城県,仙台市太白区,茂庭字人来田西１３５番地の６,,04,104,9820251,,,,,,,2022-11-15,1,,,,,アグリノモリ,0
557,2400001016060,新規,0,2022-11-15,2022-11-15,株式会社ＦＵＪＩＹＵホールディングス,,株式会社,岩手県,釜石市,大渡町３丁目１５番３２号,,03,211,0260025,,,,,,,2022-11-15,1,,,,,フジユウホールディングス,0
558,2410001013313,新規,0,2022-11-15,2022-11-15,株式会社東海理化トウホク,,株式会社,秋田県,横手市,柳田４番９号,,05,203,0130054,,,,,,,2022-11-15,1,,,,,トウカイリカトウホク,0
559,2420003002602,新規,0,2022-11-15,2022-11-15,ＨＩＮＡＴＡ合同会社,,合同会社,青森県,三戸郡三戸町,大字梅内字桐萩２１８番地,,02,441,0390112,,,,,,,2022-11-15,1,,,,,ヒナタ,0
569,2430001087834,新規,0,2022-11-15,2022-11-15,株式会社ひろせ商会,,株式会社,北海道,札幌市厚別区,もみじ台西４丁目２番２２－４０５号,,01,108,0040013,,,,,,,2022-11-15,1,,,,,ヒロセショウカイ,0
570,2430001087842,新規,0,2022-11-15,2022-11-15,株式会社六方舎,,株式会社,北海道,札幌市白石区,東札幌一条２丁目１番１号,,01,104,0030001,,,,,,,2022-11-15,1,,,,,ロクホウシャ,0
571,2430001087859,新規,0,2022-11-15,2022-11-15,株式会社藤井朝日不動産,,株式会社,北海道,札幌市厚別区,厚別中央四条４丁目４番３５号,,01,108,0040054,,,,,,,2022-11-15,1,,,,,フジイアサヒフドウサン,0
572,2430001087875,新規,0,2022-11-15,2022-11-15,株式会社カトエムシー,,株式会社,北海道,札幌市中央区,北一条東３丁目２番地,,01,101,0600031,,,,,,,2022-11-15,1,,,,,カトエムシー,0
575,2430003014456,新規,0,2022-11-15,2022-11-15,合同会社福富商事,,合同会社,北海道,白老郡白老町,字虎杖浜１７９番地１０,,01,578,0590641,,,,,,,2022-11-15,1,,,,,フクトミショウジ,0
577,2450003002269,新規,0,2022-11-15,2022-11-15,合同会社山下テクノサービス,,合同会社,北海道,旭川市,旭神三条５丁目２番１５号,,01,204,0788373,,,,,,,2022-11-15,1,,,,,ヤマシタテクノサービス,0
578,2460001005743,新規,0,2022-11-15,2022-11-15,株式会社テラス,,株式会社,北海道,釧路市,北大通９丁目２番６号,,01,206,0850015,,,,,,,2022-11-15,1,,,,,テラス,0
587,2700150112927,新規,0,2022-11-15,2022-11-15,ｓｈｅｎ　ｚｈｅｎ　ｓｈｉ　ｔｕｏ　ｈａｉ　ｇｏｕ　ｋｅ　ｊｉ　ｙｏｕ　ｘｉａｎ　ｇｏｎｇ　ｓｉ,,外国会社等,,,,,,,,Ｍｉｎｚｈｉ　Ｓｔｒｅｅｔ　Ｆｏｌｋ　Ｍｕｓｉｃ　Ｃｏｍｍｕｎｉｔｙ，１１０１，Ｂｕｉｌｄｉｎｇ　１３，Ｍｉｎｌｅ　Ｉｎｄｕｓｔｒｉａｌ　Ｐａｒｋ，Ｓｈｅｎｚｈｅｎ　Ｇｕａｎｇｄｏｎｇ，Ｌｏｎｇｈｕａ　Ｄｉｓｔｒｉｃｔ，Ｃｈｉｎａ,,,,,,2022-11-15,1,,,,,シンセンシトウハイゴウケイジユウシィアンゴンスー,0
600,3010001230864,新規,0,2022-11-15,2022-11-15,株式会社ＮＡＴＩＶＥ　ＭＯＶＥＭＥＮＴ,,株式会社,東京都,中央区,銀座１丁目１２番４号６階,,13,102,1040061,,,,,,,2022-11-15,1,,,,,ネイティブムーブメント,0
604,3010103002030,新規,0,2022-11-15,2022-11-15,ＳＥＴＯ　ＧＡＮＥＳＨ合同会社,,合同会社,東京都,八王子市,明神町４丁目９番１号チサンマンション八王子８０２,,13,201,1920046,,,,,,,2022-11-15,1,,,,,セトガネス,0
614,3010401170875,新規,0,2022-11-15,2022-11-15,株式会社ＪＢｓ　ｃｏｍｐａｎｙ,,株式会社,東京都,港区,赤坂２丁目８－１６－５Ｆ,,13,103,1070052,,,,,,,2022-11-15,1,,,,,ジェービズカンパニー,0
615,3010403028873,新規,0,2022-11-15,2022-11-15,ＳＳＳ　Ｃａｐｉｔａｌ合同会社,,合同会社,東京都,港区,赤坂１丁目１２番３２号アーク森ビル３階,,13,103,1070052,,,,,,,2022-11-15,1,,,,,エスエスエスキャピタル,0
617,3010405021587,新規,0,2022-11-15,2022-11-15,ジャパンインフラホールディングス２８号一般社団法人,,その他の設立登記法人,東京都,港区,元赤坂１丁目１番７号,,13,103,1070051,,,,,,,2022-11-15,1,,,,,ジャパンインフラホールディングスニジュウハチゴウ,0
620,3010505003361,新規,0,2022-11-15,2022-11-15,特定非営利活動法人血管腫・血管奇形の患者会,,その他の設立登記法人,東京都,台東区,橋場１丁目２４番２０―９０２号グレイスコート浅草,,13,106,1110023,,,,,,,2022-11-15,1,,,,,ケッカンシュケッカンキケイノカンジャカイ,0
624,3010603009830,新規,0,2022-11-15,2022-11-15,ＮａｎｄＡ合同会社,,合同会社,東京都,江東区,福住１丁目５番１４号,,13,108,1350032,,,,,,,2022-11-15,1,,,,,ナンダ,0
626,3010701043483,新規,0,2022-11-15,2022-11-15,株式会社一本槍,,株式会社,東京都,品川区,大崎１丁目２番３号１４０１,,13,109,1410032,,,,,,,2022-11-15,1,,,,,イッポンヤリ,0
628,3010705003450,新規,0,2022-11-15,2022-11-15,一般社団法人日本歯科医師サポート機構,,その他の設立登記法人,東京都,品川区,大井１丁目５５番６号,,13,109,1400014,,,,,,,2022-11-15,1,,,,,ニホンシカイシサポートキコウ,0
632,3010801033418,新規,0,2022-11-15,2022-11-15,株式会社眞や,,株式会社,東京都,大田区,仲池上１丁目５番１５号,,13,111,1460081,,,,,,,2022-11-15,1,,,,,マコトヤ,0
634,3010803004342,新規,0,2022-11-15,2022-11-15,合同会社ＥｎｏｃｈｉＧｒｅｅｎ,,合同会社,東京都,大田区,仲六郷２丁目２７番１０号,,13,111,1440055,,,,,,,2022-11-15,1,,,,,エンチグリーン,0
635,3010901051955,新規,0,2022-11-15,2022-11-15,株式会社ＳＳ,,株式会社,東京都,世田谷区,桜上水１丁目２２番３号,,13,112,1560045,,,,,,,2022-11-15,1,,,,,エスエス,0
641,3011001150821,新規,0,2022-11-15,2022-11-15,株式会社３Ｂｓ,,株式会社,東京都,目黒区,洗足１丁目１５番１３－７１７号,,13,110,1520012,,,,,,,2022-11-15,1,,,,,スリービーズ,0
642,3011001150838,新規,0,2022-11-15,2022-11-15,株式会社ＩＲＣ,,株式会社,東京都,渋谷区,神宮前６丁目２３番４号桑野ビル２階,,13,113,1500001,,,,,,,2022-11-15,1,,,,,アイアールシー,0
643,3011001150895,新規,0,2022-11-15,2022-11-15,ＶＥＬＬＡ　ＦＲＥＤ株式会社,,株式会社,東京都,渋谷区,神宮前６丁目２３番４号桑野ビル２Ｆ,,13,113,1500001,,,,,,,2022-11-15,1,,,,,ベラフレッド,0
645,3011003015683,新規,0,2022-11-15,2022-11-15,合同会社ｂｉｋａｎｒｉ,,合同会社,東京都,目黒区,東が丘２丁目９番１４号カーサ・デ・コリーナ２０３,,13,110,1520021,,,,,,,2022-11-15,1,,,,,ビカンリ,0
653,3011101100833,新規,0,2022-11-15,2022-11-15,株式会社ｔｅｎ　ｅｉｇｈｔ,,株式会社,東京都,新宿区,左門町１０番地２３四谷コンティ１０３,,13,104,1600017,,,,,,,2022-11-15,1,,,,,テンエイト,0
654,3011101100841,新規,0,2022-11-15,2022-11-15,株式会社ルートマップマガジン社,,株式会社,東京都,新宿区,西新宿１丁目２６番２号新宿野村ビル３２階,,13,104,1600023,,,,,,,2022-11-15,1,,,,,ルートマップマガジンシャ,0
658,3011103012382,新規,0,2022-11-15,2022-11-15,合同会社ＦＵＴＡＢＡ,,合同会社,東京都,新宿区,新宿２丁目１３番１０号,,13,104,1600022,,,,,,,2022-11-15,1,,,,,フタバ,0
660,3011301028255,新規,0,2022-11-15,2022-11-15,株式会社Ｓｔｕｄｉｏ　Ｓｏｕｎｄ　Ｂｅｅ,,株式会社,東京都,杉並区,阿佐谷北１丁目２番１号,,13,115,1660001,,,,,,,2022-11-15,1,,,,,スタジオサウンドビー,0
661,3011301028263,新規,0,2022-11-15,2022-11-15,株式会社ＴｘＴｏ,,株式会社,東京都,杉並区,荻窪５丁目１２－２,,13,115,1670051,,,,,,,2022-11-15,1,,,,,テキスト,0
662,3011501028633,新規,0,2022-11-15,2022-11-15,株式会社ボクシングカンパニー,,株式会社,東京都,荒川区,南千住６丁目１７番１１号,,13,118,1160003,,,,,,,2022-11-15,1,,,,,ボクシングカンパニー,0
667,3011503005358,新規,0,2022-11-15,2022-11-15,スータホーム合同会社,,合同会社,東京都,北区,上十条５丁目３０番３号,,13,117,1140034,,,,,,,2022-11-15,1,,,,,スータホーム,0
673,3012303001745,新規,0,2022-11-15,2022-11-15,知弗商事合同会社,,合同会社,東京都,町田市,能ヶ谷４丁目９番３２号,,13,209,1950053,,,,,,,2022-11-15,1,,,,,トモズショウジ,0
675,3012401039869,新規,0,2022-11-15,2022-11-15,Ｍａｃｅｅｅｋ株式会社,,株式会社,東京都,調布市,柴崎２丁目３２－５,,13,208,1820014,,,,,,,2022-11-15,1,,,,,マクイーク,0
692,3020001148916,新規,0,2022-11-15,2022-11-15,株式会社Ｓｅｅ　Ｈｏｐｅ,,株式会社,神奈川県,横浜市保土ケ谷区,仏向町６５３－３７,,14,106,2400044,,,,,,,2022-11-15,1,,,,,シーホープ,0
693,3020001148981,新規,0,2022-11-15,2022-11-15,株式会社日芽,,株式会社,神奈川県,川崎市多摩区,寺尾台２丁目８番地１寺尾台住宅８号棟５０２,,14,135,2140005,,,,,,,2022-11-15,1,,,,,ガガ,0
694,3020001148998,新規,0,2022-11-15,2022-11-15,キッズディスカバリー株式会社,,株式会社,神奈川県,横浜市保土ケ谷区,峰岡町１丁目９５番地２,,14,106,2400064,,,,,,,2022-11-15,1,,,,,キッズディスカバリー,0
695,3020001149022,新規,0,2022-11-15,2022-11-15,株式会社ホコニコヘルスケア,,株式会社,神奈川県,横浜市神奈川区,鶴屋町２丁目１０番地１,,14,102,2210835,,,,,,,2022-11-15,1,,,,,ホコニコヘルスケア,0
699,3020003022739,新規,0,2022-11-15,2022-11-15,合同会社トライバル,,合同会社,神奈川県,川崎市川崎区,観音１丁目１５番１１号レディーバードＩＩ２０１,00128483,14,131,2100831,,,,,,,2022-11-15,1,,,,,トライバル,0
700,3020003022747,新規,0,2022-11-15,2022-11-15,ＥＸＰＬＯＳＩＯＮ合同会社,,合同会社,神奈川県,横浜市旭区,今宿南町３８番地１－Ｄ棟１,,14,112,2410034,,,,,,,2022-11-15,1,,,,,エクスプロージョン,0
701,3020005015708,新規,0,2022-11-15,2022-11-15,一般社団法人幽霊電網,,その他の設立登記法人,神奈川県,横浜市西区,高島２丁目１１番２スカイメナー横浜５１９,,14,103,2200011,,,,,,,2022-11-15,1,,,,,ユウレイデンモウ,0
711,3021003012358,新規,0,2022-11-15,2022-11-15,合同会社Ｌｅ　Ｃｏｃｏｎ,,合同会社,神奈川県,藤沢市,鵠沼橘２丁目１１番３号,00128484,14,205,2510024,,,,,,,2022-11-15,1,,,,,ルココン,0
726,3040003021193,新規,0,2022-11-15,2022-11-15,合同会社ＨＩＲＥ　ＭＡＴＥ,,合同会社,千葉県,成田市,花崎町１４６－８,,12,211,2860033,,,,,,,2022-11-15,1,,,,,ハイヤーメイト,0
742,3070003004708,新規,0,2022-11-15,2022-11-15,合同会社ｎｉｗａ,,合同会社,群馬県,桐生市,広沢町２丁目３１６５番地の５３,,10,203,3760013,,,,,,,2022-11-15,1,,,,,ニワ,0
747,3100001035882,新規,0,2022-11-15,2022-11-15,株式会社誠竜,,株式会社,長野県,飯田市,座光寺２１９７番地３,,20,205,3950001,,,,,,,2022-11-15,1,,,,,セイリュウ,0
748,3100001035890,新規,0,2022-11-15,2022-11-15,星野産業株式会社,,株式会社,長野県,上水内郡信濃町,大字穂波字南平１２１－１,,20,583,3891314,,,,,,,2022-11-15,1,,,,,ホシノサンギョウ,0
750,3110001037119,新規,0,2022-11-15,2022-11-15,株式会社５ＳＰ,,株式会社,新潟県,新潟市中央区,東大通２丁目７番２８号スタック新潟７１０号室,,15,103,9500087,,,,,,,2022-11-15,1,,,,,ファイブエスピー,0
767,3120001250240,新規,0,2022-11-15,2022-11-15,株式会社ショ‐エイ堂薬局,,株式会社,大阪府,大阪市淀川区,東三国６丁目１番１－１０９号,,27,123,5320002,,,,,,,2022-11-15,1,,,,,ショーエイドウヤッキョク,0
768,3120001250315,新規,0,2022-11-15,2022-11-15,株式会社プラム,,株式会社,大阪府,大阪市西成区,梅南２丁目１番２５号グランドメゾンテル７０３号室,,27,122,5570033,,,,,,,2022-11-15,1,,,,,プラム,0
769,3120001250348,新規,0,2022-11-15,2022-11-15,株式会社エムティーケー,,株式会社,大阪府,枚方市,須山町６１番７号,,27,210,5731164,,,,,,,2022-11-15,1,,,,,エムティーケー,0
772,3120003022860,新規,0,2022-11-15,2022-11-15,ＡＢＬ２０２２１１合同会社,,合同会社,大阪府,大阪市中央区,博労町２丁目４番１１号中博ビル,,27,128,5410059,,,,,,,2022-11-15,1,,,,,エービーエルニイゼロニイニイイチイチ,0
773,3120003022877,新規,0,2022-11-15,2022-11-15,Ｌ＆Ｋ合同会社,,合同会社,大阪府,大阪市浪速区,大国３丁目１１－６－１０３号,,27,111,5560014,,,,,,,2022-11-15,1,,,,,エルアンドケイ,0
776,3120101066529,新規,0,2022-11-15,2022-11-15,株式会社トト・コンフォート,,株式会社,大阪府,堺市南区,宮山台３丁１０番２２号,,27,145,5900101,,,,,,,2022-11-15,1,,,,,トトコンフォート,0
777,3120101066537,新規,0,2022-11-15,2022-11-15,株式会社蒼建,,株式会社,大阪府,泉南市,男里７丁目６番６号,,27,228,5900526,,,,,,,2022-11-15,1,,,,,ソウケン,0
785,3120903004371,新規,0,2022-11-15,2022-11-15,合同会社ＣＯＦ,,合同会社,大阪府,豊中市,向丘１丁目７番１５号グリーンハウス豊中１２０１号室,,27,203,5600053,,,,,,,2022-11-15,1,,,,,シーオーエフ,0
787,3122001036405,新規,0,2022-11-15,2022-11-15,株式会社清水電機工業,,株式会社,大阪府,四條畷市,岡山２丁目６番８２１号,,27,229,5750002,,,,,,,2022-11-15,1,,,,,シミズデンキコウギョウ,0
803,3140003018353,新規,0,2022-11-15,2022-11-15,Ｇｒｅｅｎ　Ａｐｐｌｅ　Ｇａｒｄｅｎ合同会社,,合同会社,兵庫県,神戸市兵庫区,上沢通７丁目１番２号,,28,105,6520046,,,,,,,2022-11-15,1,,,,,グリーンアップルガーデン,0
822,3180003024488,新規,0,2022-11-15,2022-11-15,合同会社ＳＫＹ　ＲＯＣＫＥＴ,,合同会社,愛知県,一宮市,奥町字川崎２９番地５,,23,203,4910201,,,,,,,2022-11-15,1,,,,,スカイロケット,0
823,3180003024496,新規,0,2022-11-15,2022-11-15,ＨＩＭＡＬＡＹＡ　ＳＰＩＣＥ　ＦＯＯＤ合同会社,,合同会社,愛知県,名古屋市中村区,名駅南３丁目１２番３５号フォアール名駅南１０１号,,23,105,4500003,,,,,,,2022-11-15,1,,,,,ヒマラヤスパイスフード,0
831,3190001029934,新規,0,2022-11-15,2022-11-15,株式会社里村設備,,株式会社,三重県,伊勢市,一之木４丁目１３番２０号エイワハイツ２０６号室,,24,203,5160071,,,,,,,2022-11-15,1,,,,,サトムラセツビ,0
833,3200003005741,新規,0,2022-11-15,2022-11-15,合同会社ＩＮＯファーマシー,,合同会社,岐阜県,大垣市,東前１丁目８４番地１,,21,202,5030835,,,,,,,2022-11-15,1,,,,,アイエヌオーファーマシー,0
849,3290801029058,新規,0,2022-11-15,2022-11-15,株式会社夢デザイン工房,,株式会社,福岡県,行橋市,大字中津熊４７９番地２,,40,213,8240063,,,,,,,2022-11-15,1,,,,,ユメデザインコウボウ,0
850,3300001013133,新規,0,2022-11-15,2022-11-15,株式会社大地ファーム,,株式会社,佐賀県,佐賀市,川副町大字福富１４３９番地３,,41,201,8402201,,,,,,,2022-11-15,1,,,,,ダイチファーム,0
853,3330001030290,新規,0,2022-11-15,2022-11-15,株式会社ＭＹ　ＢＲＡＩＮ　ＢＬＯＳＳＯＭ,,株式会社,熊本県,熊本市中央区,水前寺１丁目１番１６号フェリーチェ新水前寺,,43,101,8620950,,,,,,,2022-11-15,1,,,,,マイブレインブロッサム,0
854,3330001030299,新規,0,2022-11-15,2022-11-15,ホームサポート株式会社,,株式会社,熊本県,熊本市東区,三郎１丁目１４番４６号,,43,102,8620922,,,,,,,2022-11-15,1,,,,,ホームサポート,0
855,3330001030308,新規,0,2022-11-15,2022-11-15,株式会社ＶＦＨ,,株式会社,熊本県,熊本市中央区,十禅寺４丁目２番２０－１０１０号,,43,101,8600824,,,,,,,2022-11-15,1,,,,,ブイエフエイチ,0
857,3340003003962,新規,0,2022-11-15,2022-11-15,合同会社みのり農園,,合同会社,鹿児島県,鹿児島市,田上８丁目２７番９号,,46,201,8900034,,,,,,,2022-11-15,1,,,,,ミノリノウエン,0
868,3370003005898,新規,0,2022-11-15,2022-11-15,昇旭合同会社,,合同会社,宮城県,仙台市泉区,北中山１丁目１番１７－２０２号,,04,105,9813215,,,,,,,2022-11-15,1,,,,,ショウキョク,0
879,3380005012644,新規,0,2022-11-15,2022-11-15,社会保険労務士法人継Ｐｌａｎｎｉｎｇ,,その他の設立登記法人,福島県,郡山市,開成４丁目８番１０号郡山ＳＹビル１０２号,,07,203,9638851,,,,,,,2022-11-15,1,,,,,ケイプランニング,0
893,3430001087833,新規,0,2022-11-15,2022-11-15,株式会社中條,,株式会社,北海道,札幌市手稲区,稲穂一条４丁目８番１０号,,01,109,0060031,,,,,,,2022-11-15,1,,,,,ナカジョウ,0
900,3450003002268,新規,0,2022-11-15,2022-11-15,合同会社Ｓｐｏｓｓｉｂｌｅ,,合同会社,北海道,上川郡東川町,西町３丁目１２番１７号,,01,458,0711425,,,,,,,2022-11-15,1,,,,,スポッシブル,0
902,3470001019337,新規,0,2022-11-15,2022-11-15,Ｓｅｔｕｐプランニング株式会社,,株式会社,香川県,高松市,松縄町１０８７番地３－２階,,37,201,7600079,,,,,,,2022-11-15,1,,,,,セットアッププランニング,0
904,3490005006874,新規,0,2022-11-15,2022-11-15,一般社団法人とさしみずファームス,,その他の設立登記法人,高知県,土佐清水市,三崎１５６９番地,,39,209,7870450,,,,,,,2022-11-15,1,,,,,トサシミズファームス,0
908,3700150112926,新規,0,2022-11-15,2022-11-15,Ｘｉａｍｅｎ　Ｙｏｎｇ　Ｚｈｅｎｇ　Ｆｅｎｇ　Ｔｒａｄｅ　Ｃｏ．，Ｌｔｄ,,外国会社等,,,,,,,,Ｒｏｏｍ　３１３－１　Ｋｕａｊｉｎｇ　Ｅ－Ｃｏｍｍｅｒｃｅ　Ｉｎｄｕｓｔｒｉｅｓ　Ｐａｒｋ，Ｎｏ．２９　Ｃｈａｎｇｈｏｎｇ　Ｒｏａｄ　Ｈｕｌｉ　Ｄｉｓｔｒｉｃｔ，Ｘｉａｍｅｎ，Ｆｕｊｉａｎ，Ｃｈｉｎａ,,,,,,2022-11-15,1,,,,,アモイヨンゼンフォンボウエキユウシィアンゴンスー,0
919,4010001230863,新規,0,2022-11-15,2022-11-15,ＡＴＡ株式会社,,株式会社,東京都,中央区,銀座１丁目１２番４号Ｎ＆Ｅ．ＢＬＤ．６Ｆ,,13,102,1040061,,,,,,,2022-11-15,1,,,,,アタ,0
920,4010001230871,新規,0,2022-11-15,2022-11-15,株式会社ＡＬＬ,,株式会社,東京都,千代田区,九段南１丁目５－６りそな九段ビル５Ｆ,,13,101,1020074,,,,,,,2022-11-15,1,,,,,オール,0
930,4010401170825,新規,0,2022-11-15,2022-11-15,アグド株式会社,,株式会社,東京都,港区,南青山２丁目２番１５号,,13,103,1070062,,,,,,,2022-11-15,1,,,,,アグド,0
931,4010401170841,新規,0,2022-11-15,2022-11-15,株式会社ｒｕｓｋ,,株式会社,東京都,港区,赤坂２丁目６番４－１００２号,,13,103,1070052,,,,,,,2022-11-15,1,,,,,ラスク,0
938,4010403028889,新規,0,2022-11-15,2022-11-15,ＭＭＭ合同会社,,合同会社,東京都,港区,白金台１丁目１番１１号白金台フロント９０２,,13,103,1080071,,,,,,,2022-11-15,1,,,,,エムエムエム,0
942,4010405021586,新規,0,2022-11-15,2022-11-15,ジャパンインフラホールディングス２９号一般社団法人,,その他の設立登記法人,東京都,港区,元赤坂１丁目１番７号,,13,103,1070051,,,,,,,2022-11-15,1,,,,,ジャパンインフラホールディングスニジュウキュウゴウ,0
944,4010501049614,新規,0,2022-11-15,2022-11-15,株式会社あいえん,,株式会社,東京都,台東区,千束３丁目１２番７号,,13,106,1110031,,,,,,,2022-11-15,1,,,,,アイエン,0
945,4010501049630,新規,0,2022-11-15,2022-11-15,ＶＡＮＤＥＬ株式会社,,株式会社,東京都,台東区,上野７丁目１０番２号,,13,106,1100005,,,,,,,2022-11-15,1,,,,,ヴァンデル,0
948,4010601062129,新規,0,2022-11-15,2022-11-15,ＡＬＬ　ＯＵＴ株式会社,,株式会社,東京都,江東区,有明１丁目１番１７－２６０１号,,13,108,1350063,,,,,,,2022-11-15,1,,,,,オールアウト,0
949,4010605004151,新規,0,2022-11-15,2022-11-15,一般社団法人全国放課後連,,その他の設立登記法人,東京都,江東区,猿江２丁目９番５号,,13,108,1350003,,,,,,,2022-11-15,1,,,,,ゼンコクホウカゴレン,0
952,4010701043482,新規,0,2022-11-15,2022-11-15,株式会社ウェルネスゲート,,株式会社,東京都,品川区,大崎５丁目９－３ラフィネ大崎１１０１,,13,109,1410032,,,,,,,2022-11-15,1,,,,,ウェルネスゲート,0
953,4010703006462,新規,0,2022-11-15,2022-11-15,合同会社アムール,,合同会社,東京都,品川区,西五反田２丁目１３番１－６０３号,,13,109,1410031,,,,,,,2022-11-15,1,,,,,アムール,0
957,4010801033441,新規,0,2022-11-15,2022-11-15,株式会社Ｍａｒｓｈ,,株式会社,東京都,大田区,東雪谷１丁目２番９号アーバンハイツ２０１,,13,111,1450065,,,,,,,2022-11-15,1,,,,,マーシュ,0
959,4010805002987,新規,0,2022-11-15,2022-11-15,一般社団法人いい暮らし,,その他の設立登記法人,東京都,大田区,東蒲田２丁目１６番１８号,,13,111,1440031,,,,,,,2022-11-15,1,,,,,イイクラシ,0
961,4010901051921,新規,0,2022-11-15,2022-11-15,サンツリーズ株式会社,,株式会社,東京都,世田谷区,等々力６丁目３２－８－１０２号室,,13,112,1580082,,,,,,,2022-11-15,1,,,,,サンツリーズ,0
966,4011001150812,新規,0,2022-11-15,2022-11-15,株式会社ＣＯＩＭ,,株式会社,東京都,渋谷区,道玄坂１丁目１０番８号渋谷道玄坂東急ビル２Ｆ－Ｃ,,13,113,1500043,,,,,,,2022-11-15,1,,,,,コイム,0
967,4011001150837,新規,0,2022-11-15,2022-11-15,株式会社Ｂｅ　Ｃｏｎｎｅｃｔｅｄ,,株式会社,東京都,渋谷区,円山町５－５Ｎａｖｉ渋谷Ｖ３階,,13,113,1500044,,,,,,,2022-11-15,1,,,,,ビーコネクティッド,0
968,4011001150845,新規,0,2022-11-15,2022-11-15,株式会社ＳＥＮＳＥ,,株式会社,東京都,渋谷区,桜丘町２６－１セルリアンタワー１５階,,13,113,1500031,,,,,,,2022-11-15,1,,,,,センス,0
970,4011003015682,新規,0,2022-11-15,2022-11-15,ＥＮＤＡＸＩ合同会社,,合同会社,東京都,渋谷区,神宮前６丁目２３番４号,,13,113,1500001,,,,,,,2022-11-15,1,,,,,エンダクシ,0
971,4011003015690,新規,0,2022-11-15,2022-11-15,合同会社カルネアカウンティング,,合同会社,東京都,渋谷区,桜丘町１３番９号クリエート桜丘４０３,,13,113,1500031,,,,,,,2022-11-15,1,,,,,カルネアカウンティング,0
974,4011101100832,新規,0,2022-11-15,2022-11-15,ｗｉｓｈｔｒｅｅ株式会社,,株式会社,東京都,新宿区,富久町１５番１－３１１０号,,13,104,1620067,,,,,,,2022-11-15,1,,,,,ウィッシュツリー,0
975,4011101100840,新規,0,2022-11-15,2022-11-15,株式会社Ｍｏｌｌｙ,,株式会社,東京都,新宿区,西新宿３丁目３番１３号西新宿水間ビル６階,,13,104,1600023,,,,,,,2022-11-15,1,,,,,モーリー,0
977,4011103012381,新規,0,2022-11-15,2022-11-15,フロンティア合同会社,,合同会社,東京都,新宿区,西新宿３丁目３番１３号西新宿水間ビル６階,,13,104,1600023,,,,,,,2022-11-15,1,,,,,フロンティア,0
980,4011301028254,新規,0,2022-11-15,2022-11-15,株式会社Ｅａｃｈ,,株式会社,東京都,杉並区,阿佐谷北５丁目１０番８号,,13,115,1660001,,,,,,,2022-11-15,1,,,,,イーチ,0
981,4011303004575,新規,0,2022-11-15,2022-11-15,合同会社パスカリ,,合同会社,東京都,杉並区,浜田山３丁目１５－１６,,13,115,1680065,,,,,,,2022-11-15,1,,,,,,0
982,4011501028657,新規,0,2022-11-15,2022-11-15,株式会社Ｐｌａｎｔ　ｌｉｆｅ,,株式会社,東京都,北区,西ケ原１丁目６１番１５号,,13,117,1140024,,,,,,,2022-11-15,1,,,,,プラントライフ,0
987,4012703002573,新規,0,2022-11-15,2022-11-15,ＢＡＤＡＬ合同会社,,合同会社,東京都,小平市,学園東町１丁目１６番３２－２０３号,,13,211,1870043,,,,,,,2022-11-15,1,,,,,バダル,0
991,4013301049932,新規,0,2022-11-15,2022-11-15,株式会社Ｋｏａ‐ｉｎｓｕｒａｎｃｅ,,株式会社,東京都,豊島区,駒込１丁目３番５遠藤ビル１階,,13,116,1700003,,,,,,,2022-11-15,1,,,,,コアインシュランス,0
1002,4021003012381,新規,0,2022-11-15,2022-11-15,合同会社いぬそら,,合同会社,神奈川県,藤沢市,藤沢９９６－７・１Ｆ,,14,205,2510052,,,,,,,2022-11-15,1,,,,,イヌソラ,0
1003,4030001150993,新規,0,2022-11-15,2022-11-15,つなぐ株式会社,,株式会社,埼玉県,草加市,手代２丁目９番１４－３０１号,,11,221,3400021,,,,,,,2022-11-15,1,,,,,ツナグ,0
1008,4030005021068,新規,0,2022-11-15,2022-11-15,特定非営利活動法人あそびとアートの体験ひろばおやこ劇場川口,,その他の設立登記法人,埼玉県,川口市,鳩ヶ谷本町１丁目１４番１８号,,11,203,3340002,,,,,,,2022-11-15,1,,,,,アソビトアートノタイケンヒロバオヤコゲキジョウカワグチ,0
1021,4070001039837,新規,0,2022-11-15,2022-11-15,株式会社アリア,,株式会社,群馬県,高崎市,綿貫町７６２番地９,,10,202,3701207,,,,,,,2022-11-15,1,,,,,アリア,0
1022,4080001025299,新規,0,2022-11-15,2022-11-15,株式会社ＨＱＯＬ　ＢＥＡＵＴＹ,,株式会社,静岡県,静岡市駿河区,聖一色４４５－１１、１０２,,22,102,4228007,,,,,,,2022-11-15,1,,,,,エイチキュウオーエルビューティー,0
1026,4080403004660,新規,0,2022-11-15,2022-11-15,ＴＤ合同会社,,合同会社,静岡県,浜松市西区,篠原町２１６７２番地１Ｆ,,22,133,4310201,,,,,,,2022-11-15,1,,,,,ティーディー,0
1028,4090003002196,新規,0,2022-11-15,2022-11-15,合同会社対話の旅人,,合同会社,山梨県,甲府市,丸の内２丁目２－１ＣＲＯＳＳ５００、１Ｆ、ＣＲＯＳＳＢＥ内,,19,201,4000031,,,,,,,2022-11-15,1,,,,,,0
1031,4110001037118,新規,0,2022-11-15,2022-11-15,株式会社奏音の杜,,株式会社,新潟県,新潟市中央区,天神１丁目１番地プラーカ３,,15,103,9500917,,,,,,,2022-11-15,1,,,,,カナメノモリ,0
1033,4110003004909,新規,0,2022-11-15,2022-11-15,合同会社栄工業,,合同会社,新潟県,新発田市,中曽根町３丁目９番２８号７,,15,206,9570067,,,,,,,2022-11-15,1,,,,,サカエコウギョウ,0
1042,4120001250330,新規,0,2022-11-15,2022-11-15,株式会社ＳＯＲＡＳＨＩＴＡ,,株式会社,大阪府,大阪市北区,豊崎３丁目１５－５ＴＫビル２Ｆ,,27,127,5310072,,,,,,,2022-11-15,1,,,,,ソラシタ,0
1043,4120001250347,新規,0,2022-11-15,2022-11-15,株式会社Ｓｔａｙ　Ｈｕｎｇｒｙ,,株式会社,大阪府,大阪市中央区,東心斎橋２丁目７番３０号,,27,128,5420083,,,,,,,2022-11-15,1,,,,,ステイハングリー,0
1044,4120001250371,新規,0,2022-11-15,2022-11-15,株式会社ＫＩＭ　Ｇｒｏｕｐ,,株式会社,大阪府,大阪市浪速区,桜川２丁目６番１７－１００７号,,27,111,5560022,,,,,,,2022-11-15,1,,,,,キムグループ,0
1049,4120005023278,新規,0,2022-11-15,2022-11-15,協同組合海と大地,,その他の設立登記法人,大阪府,大阪市福島区,野田２丁目１番８２号,,27,103,5530005,,,,,,,2022-11-15,1,,,,,ウミトダイチ,0
1059,4120901046745,新規,0,2022-11-15,2022-11-15,株式会社流導,,株式会社,大阪府,吹田市,広芝町１０番８号江坂董友ビル,,27,205,5640052,,,,,,,2022-11-15,1,,,,,リュウドウ,0
1060,4120901046753,新規,0,2022-11-15,2022-11-15,株式会社アンドダイバーシティ,,株式会社,大阪府,高槻市,川西町２丁目４番１３号,,27,207,5691133,,,,,,,2022-11-15,1,,,,,アンドダイバーシティ,0
1062,4122003002453,新規,0,2022-11-15,2022-11-15,合同会社ＴＲＵＳＴ,,合同会社,大阪府,四條畷市,南野４丁目４番５５号－３,,27,229,5750021,,,,,,,2022-11-15,1,,,,,トラスト,0
1073,4130001073094,新規,0,2022-11-15,2022-11-15,株式会社幸建,,株式会社,京都府,京都市北区,紫野南舟岡町７１番地の３,,26,101,6038225,,,,,,,2022-11-15,1,,,,,コウケン,0
1077,4140001128079,新規,0,2022-11-15,2022-11-15,共進建設株式会社,,株式会社,兵庫県,淡路市,中田２９４９番地１,,28,226,6562163,,,,,,,2022-11-15,1,,,,,キョウシンケンセツ,0
1078,4140001128104,新規,0,2022-11-15,2022-11-15,株式会社ＮＡコーポレーション,,株式会社,兵庫県,西宮市,浜松原町１－１９,,28,204,6620923,,,,,,,2022-11-15,1,,,,,エヌエーコーポレーション,0
1080,4140003018360,新規,0,2022-11-15,2022-11-15,合同会社Ｄｒｉｖｅｎ　Ｍａｋｅｒ,,合同会社,兵庫県,芦屋市,船戸町５番２６号,,28,206,6590093,,,,,,,2022-11-15,1,,,,,ドリブンメーカー,0
1085,4150001025944,新規,0,2022-11-15,2022-11-15,株式会社カベショウコーポレーション,,株式会社,奈良県,奈良市,西九条町２丁目５番地の１５カーサクルーセ１階,,29,201,6308453,,,,,,,2022-11-15,1,,,,,カベショウコーポレーション,0
1086,4150001025952,新規,0,2022-11-15,2022-11-15,株式会社優日,,株式会社,奈良県,奈良市,肘塚町１４９番地の２６,,29,201,6308142,,,,,,,2022-11-15,1,,,,,ユウヒ,0
1089,4170001017378,新規,0,2022-11-15,2022-11-15,株式会社Ｎｉｃｅ,,株式会社,和歌山県,橋本市,紀見ケ丘３丁目１３番１６号,,30,203,6480092,,,,,,,2022-11-15,1,,,,,ナイス,0
1095,4180001153825,新規,0,2022-11-15,2022-11-15,アール株式会社,,株式会社,愛知県,名古屋市北区,大曽根１丁目２１番１０号オークワンビル３Ｆ,,23,103,4620825,,,,,,,2022-11-15,1,,,,,アール,0
1096,4180003024487,新規,0,2022-11-15,2022-11-15,合同会社アルカナ,,合同会社,愛知県,名古屋市中区,千代田２丁目２５番１１号６０８号室,,23,106,4600012,,,,,,,2022-11-15,1,,,,,アルカナ,0
1102,4190003004141,新規,0,2022-11-15,2022-11-15,合同会社インテリア久岡,,合同会社,三重県,津市,高洲町５番３１号,,24,201,5140011,,,,,,,2022-11-15,1,,,,,インテリアヒサオカ,0
1109,4200001040673,新規,0,2022-11-15,2022-11-15,株式会社Ｏｕｒ　Ｓｔｙｌｅ,,株式会社,岐阜県,関市,西旭ケ丘４番４号,,21,205,5013828,,,,,,,2022-11-15,1,,,,,アワースタイル,0
1110,4200001040681,新規,0,2022-11-15,2022-11-15,Ｃプラス株式会社,,株式会社,岐阜県,各務原市,三井北町２丁目２７８番,,21,213,5040956,,,,,,,2022-11-15,1,,,,,シープラス,0
1117,4220005008715,新規,0,2022-11-15,2022-11-15,一般社団法人劇団アンゲルス,,その他の設立登記法人,石川県,金沢市,長土塀３丁目２４番２８号,,17,201,9200867,,,,,,,2022-11-15,1,,,,,ゲキダンアンゲルス,0
1119,4230001019599,新規,0,2022-11-15,2022-11-15,グリーンモーター株式会社,,株式会社,富山県,高岡市,角７２２番地６,,16,202,9330007,,,,,,,2022-11-15,1,,,,,グリーンモーター,0
1120,4230003001927,新規,0,2022-11-15,2022-11-15,合同会社創研企画,,合同会社,富山県,中新川郡立山町,前沢２３１９番地,,16,323,9300221,,,,,,,2022-11-15,1,,,,,ソウケンキカク,0
1123,4240001060668,新規,0,2022-11-15,2022-11-15,株式会社コルムボ,,株式会社,広島県,広島市安佐北区,亀山３丁目１８番１０号,,34,106,7310231,,,,,,,2022-11-15,1,,,,,コルムボ,0
1125,4240005015486,新規,0,2022-11-15,2022-11-15,一般社団法人ＣｏｃｏｍｏＴｅｒｒａｃｅしゃもじ,,その他の設立登記法人,広島県,広島市佐伯区,利松１丁目１１番４８号笑顔ぷらす内,,34,108,7315106,,,,,,,2022-11-15,1,,,,,ココモテラスシャモジ,0
1129,4290001099586,新規,0,2022-11-15,2022-11-15,株式会社Ｓ,,株式会社,福岡県,福岡市中央区,那の川２丁目５番１２－２０３号,00128479,40,133,8100015,,,,,,,2022-11-15,1,,,,,エス,0
1131,4300001013132,新規,0,2022-11-15,2022-11-15,株式会社ＳＨＩＮＫＡＩ,,株式会社,佐賀県,唐津市,鏡新開５５番地３,,41,202,8470028,,,,,,,2022-11-15,1,,,,,シンカイ,0
1132,4310001018122,新規,0,2022-11-15,2022-11-15,株式会社フーズクリエイト,,株式会社,長崎県,佐世保市,高砂町１番４号グランビアビル３Ｆ,,42,202,8570042,,,,,,,2022-11-15,1,,,,,フーズクリエイト,0
1144,4360001031186,新規,0,2022-11-15,2022-11-15,テックベジタス株式会社,,株式会社,沖縄県,南城市,大里字嶺井５１８番地２,,47,215,9011201,,,,,,,2022-11-15,1,,,,,テックベジタス,0
1147,4370001049194,新規,0,2022-11-15,2022-11-15,シーテック株式会社,,株式会社,宮城県,仙台市青葉区,国見６丁目２２番３８号,,04,101,9810943,,,,,,,2022-11-15,1,,,,,シーテック,0
1148,4370001049269,新規,0,2022-11-15,2022-11-15,株式会社ＳＹ　ＥＮＴＥＲＴＡＩＮＭＥＮＴ,,株式会社,宮城県,仙台市泉区,長命ケ丘４丁目３１番地の１１,,04,105,9813212,,,,,,,2022-11-15,1,,,,,エスワイエンターテイメント,0
1154,4380001033271,新規,0,2022-11-15,2022-11-15,株式会社コススタ,,株式会社,福島県,双葉郡富岡町,字夜の森南３丁目５４番地９,,07,543,9791161,,,,,,,2022-11-15,1,,,,,コススタ,0
1157,4390005008979,新規,0,2022-11-15,2022-11-15,ＧＳＳ協同組合,,その他の設立登記法人,山形県,山形市,大字黒沢５４７番地７２,,06,201,9902311,,,,,,,2022-11-15,1,,,,,ジーエスエス,0
1164,4430001087782,新規,0,2022-11-15,2022-11-15,株式会社ｃｈｉｏｍａ,,株式会社,北海道,札幌市豊平区,西岡五条１丁目６－１－２０３,,01,105,0620035,,,,,,,2022-11-15,1,,,,,キオマ,0
1170,4470001019336,新規,0,2022-11-15,2022-11-15,株式会社月曜からアイス,,株式会社,香川県,高松市,内町５番１６号米田ビル２０２号,,37,201,7600034,,,,,,,2022-11-15,1,,,,,ゲツヨウカラアイス,0
1175,4700150031308,新規,0,2022-11-15,2015-10-09,栗東市勤労者互助会,,その他,滋賀県,栗東市,手原３丁目１－２５栗東市商工会館２Ｆ,,25,208,5203047,,,,,,,2015-10-09,1,,,,,リツトウシキンロウシヤゴジヨカイ,0
1186,5010001230747,新規,0,2022-11-15,2022-11-15,株式会社リアントロニクス・ジャパン,,株式会社,東京都,中央区,日本橋浜町２丁目６２番６号日本橋浜町Ｋビル,,13,102,1030007,,,,,,,2022-11-15,1,,,,,リアントロニクスジャパン,0
1187,5010001230838,新規,0,2022-11-15,2022-11-15,株式会社ＧＫＲｓ不動産,,株式会社,東京都,千代田区,神田淡路町２丁目１０１番地ワテラスタワーレジデンス２８１１号,,13,101,1010063,,,,,,,2022-11-15,1,,,,,ジーケーアールエスフドウサン,0
1188,5010001230846,新規,0,2022-11-15,2022-11-15,タイムドライブ株式会社,,株式会社,東京都,文京区,白山２丁目３２番１３号,,13,105,1120001,,,,,,,2022-11-15,1,,,,,タイムドライブ,0
1189,5010001230854,新規,0,2022-11-15,2022-11-15,株式会社ペアツク,,株式会社,東京都,中央区,月島１丁目５番１－５０６号,,13,102,1040052,,,,,,,2022-11-15,1,,,,,ペアツク,0
1190,5010001230862,新規,0,2022-11-15,2022-11-15,株式会社シシドデザイン,,株式会社,東京都,中央区,銀座１丁目１２番４号Ｎ＆Ｅ．ＢＬＤ．６Ｆ,,13,102,1040061,,,,,,,2022-11-15,1,,,,,シシドデザイン,0
1195,5010003039096,新規,0,2022-11-15,2022-11-15,合同会社ＳＯＢＲＩＮＡ,,合同会社,東京都,千代田区,九段南１丁目５番６号りそな九段ビル５階ＫＳフロア,,13,101,1020074,,,,,,,2022-11-15,1,,,,,ソブリナ,0
1198,5010401170832,新規,0,2022-11-15,2022-11-15,株式会社アルト,,株式会社,東京都,港区,南青山２丁目２番１５号,,13,103,1070062,,,,,,,2022-11-15,1,,,,,アルト,0
1199,5010401170840,新規,0,2022-11-15,2022-11-15,漫歩日本株式会社,,株式会社,東京都,港区,三田１丁目２番１８号ＴＴＤビル,,13,103,1080073,,,,,,,2022-11-15,1,,,,,マンホニホン,0
1200,5010401170881,新規,0,2022-11-15,2022-11-15,株式会社ＤＧＳ,,株式会社,東京都,港区,南青山１丁目１７番１４号,,13,103,1070062,,,,,,,2022-11-15,1,,,,,ディージーエス,0
1206,5010403028863,新規,0,2022-11-15,2022-11-15,合同会社長田トレーディング,,合同会社,東京都,港区,六本木１丁目９番１８－２２０９号,,13,103,1060032,,,,,,,2022-11-15,1,,,,,ナガタトレーディング,0
1209,5010501049605,新規,0,2022-11-15,2022-11-15,株式会社インテルメディアーレ,,株式会社,東京都,台東区,千束２丁目４番１号,,13,106,1110031,,,,,,,2022-11-15,1,,,,,インテルメディアーレ,0
1212,5010701043481,新規,0,2022-11-15,2022-11-15,ＢＬＯＯＭｓ株式会社,,株式会社,東京都,品川区,平塚１丁目１８番１１号,,13,109,1420051,,,,,,,2022-11-15,1,,,,,ブルームス,0
1213,5010703006453,新規,0,2022-11-15,2022-11-15,合同会社庄本,,合同会社,東京都,品川区,中延６丁目１番１５号グランドール雅３０３,,13,109,1420053,,,,,,,2022-11-15,1,,,,,ショウモト,0
1225,5011001150844,新規,0,2022-11-15,2022-11-15,株式会社ＨＡＫＵＢＩ,,株式会社,東京都,渋谷区,神宮前６丁目２３番４号桑野ビル２階,,13,113,1500001,,,,,,,2022-11-15,1,,,,,ハクビ,0
1226,5011001150860,新規,0,2022-11-15,2022-11-15,株式会社ＣＥＬＯ,,株式会社,東京都,渋谷区,広尾５丁目１４番２号,,13,113,1500012,,,,,,,2022-11-15,1,,,,,セロ,0
1230,5011101100831,新規,0,2022-11-15,2022-11-15,マリオンアパレルジム株式会社,,株式会社,東京都,新宿区,歌舞伎町２丁目４２番１３号アゼリアビル３０１,,13,104,1600021,,,,,,,2022-11-15,1,,,,,マリオンアパレルジム,0
1236,5011103012380,新規,0,2022-11-15,2022-11-15,合同会社監督志望,,合同会社,東京都,新宿区,市谷柳町２３番地２クリオ市谷柳町９０５,,13,104,1620061,,,,,,,2022-11-15,1,,,,,カントクシボウ,0
1241,5011201024204,新規,0,2022-11-15,2022-11-15,Ｖｉｎｔａｇｅ　Ｌｉｆｅ株式会社,,株式会社,東京都,中野区,中野５丁目５２番１５－１１４号中野ブロードウェイ,,13,114,1640001,,,,,,,2022-11-15,1,,,,,ヴィンテージライフ,0
1242,5011201024237,新規,0,2022-11-15,2022-11-15,摩利株式会社,,株式会社,東京都,中野区,東中野１丁目４９番７号誠和ビル２０３室,,13,114,1640003,,,,,,,2022-11-15,1,,,,,マリ,0
1245,5011301028253,新規,0,2022-11-15,2022-11-15,株式会社ＯＬＤ　ＧＡＴＥ,,株式会社,東京都,杉並区,高井戸東４丁目２４番７号,,13,115,1680072,,,,,,,2022-11-15,1,,,,,オールドゲート,0
1246,5011303004574,新規,0,2022-11-15,2022-11-15,合同会社ＯＦＵＭＩＯ,,合同会社,東京都,杉並区,和泉１丁目４５番１２号パーシモン・バーチＳ,,13,115,1680063,,,,,,,2022-11-15,1,,,,,オフミオ,0
1252,5011803005378,新規,0,2022-11-15,2022-11-15,合同会社ＣＨＥＳＴＮＵＴ,,合同会社,東京都,葛飾区,奥戸３丁目１４番２号ヴィラージュ若竹１０１,,13,122,1240022,,,,,,,2022-11-15,1,,,,,チェスナット,0
1255,5012301013212,新規,0,2022-11-15,2022-11-15,株式会社ライフサポート,,株式会社,東京都,町田市,木曽東３丁目１８番２９号コムネット町田１１３,,13,209,1940036,,,,,,,2022-11-15,1,,,,,ライフサポート,0
1262,5012703002572,新規,0,2022-11-15,2022-11-15,合同会社スリーパーズ,,合同会社,東京都,東村山市,久米川町１丁目２８番地７１,,13,213,1890003,,,,,,,2022-11-15,1,,,,,スリーパーズ,0
1265,5013303006369,新規,0,2022-11-15,2022-11-15,徳龍貿易合同会社,,合同会社,東京都,豊島区,池袋３丁目２１－７大明コーポ３０１,,13,116,1710014,,,,,,,2022-11-15,1,,,,,トクリュウボウエキ,0
1271,5020001149004,新規,0,2022-11-15,2022-11-15,株式会社ＨＡＳＥＧＡＷＡ,,株式会社,神奈川県,横浜市中区,山元町２丁目１０４番地２,,14,104,2310851,,,,,,,2022-11-15,1,,,,,ハセガワ,0
1272,5020001149012,新規,0,2022-11-15,2022-11-15,株式会社Ｐｕａｎａ,,株式会社,神奈川県,横浜市緑区,東本郷４丁目１６番５号,,14,113,2260002,,,,,,,2022-11-15,1,,,,,プアナ,0
1276,5020005015722,新規,0,2022-11-15,2022-11-15,一般社団法人Ｍｉｄｏｒｉ,,その他の設立登記法人,神奈川県,横浜市戸塚区,品濃町５１３番地７清光ビル４階,,14,110,2440801,,,,,,,2022-11-15,1,,,,,ミドリ,0
1281,5021001077418,新規,0,2022-11-15,2022-11-15,株式会社コウスケ工業,,株式会社,神奈川県,大和市,下鶴間２３３８番地６,,14,213,2420001,,,,,,,2022-11-15,1,,,,,コウスケコウギョウ,0
1282,5021003012315,新規,0,2022-11-15,2022-11-15,合同会社Ｍａｋｅ　ＩＴ,,合同会社,神奈川県,横須賀市,浦上台３丁目１１－３,,14,201,2390815,,,,,,,2022-11-15,1,,,,,メイクイット,0
1294,5030001151082,新規,0,2022-11-15,2022-11-15,Ｕｎｄｅｒｓｃｏｒｅ株式会社,,株式会社,埼玉県,さいたま市西区,大字指扇２６２番地２,,11,101,3310047,,,,,,,2022-11-15,1,,,,,アンダースコア,0
1302,5050001051958,新規,0,2022-11-15,2022-11-15,隆志株式会社,,株式会社,茨城県,土浦市,中村西根２１４０番地７,,08,203,3000849,,,,,,,2022-11-15,1,,,,,リュウシ,0
1305,5060003004310,新規,0,2022-11-15,2022-11-15,合同会社フォーシーズン,,合同会社,栃木県,宇都宮市,今泉町３０２０－１ＭＵＳＡＳＨＩｉｍａｉｚｕｍｉＢＡＳＥｒｏｏｍ６,,09,201,3210962,,,,,,,2022-11-15,1,,,,,フォーシーズン,0
1310,5070001039836,新規,0,2022-11-15,2022-11-15,株式会社ＬＴ,,株式会社,群馬県,高崎市,貝沢町３８１番地２,,10,202,3700042,,,,,,,2022-11-15,1,,,,,エルティー,0
1315,5080001025298,新規,0,2022-11-15,2022-11-15,青野工業株式会社,,株式会社,静岡県,藤枝市,中ノ合２４４番地の１９,,22,214,4260213,,,,,,,2022-11-15,1,,,,,アオノコウギョウ,0
1317,5080401026160,新規,0,2022-11-15,2022-11-15,Ｆｕｊｉｍｏｎｄ株式会社,,株式会社,静岡県,袋井市,春岡１丁目１９－６,,22,216,4370122,,,,,,,2022-11-15,1,,,,,フジモンド,0
1322,5100005012942,新規,0,2022-11-15,2022-11-15,一般社団法人ソーシャルクライミングクラブ,,その他の設立登記法人,長野県,東筑摩郡朝日村,大字古見３６８９番地１９,,20,451,3901104,,,,,,,2022-11-15,1,,,,,ソーシャルクライミングクラブ,0
1324,5110001037117,新規,0,2022-11-15,2022-11-15,株式会社Ｒｅｉｚｍ企画,,株式会社,新潟県,新潟市東区,山木戸４丁目７番１２号,,15,102,9500871,,,,,,,2022-11-15,1,,,,,リズムキカク,0
1337,5120001250247,新規,0,2022-11-15,2022-11-15,正熙株式会社,,株式会社,大阪府,大阪市中央区,松屋町９番２０号ローレルステート松屋町７０６Ａ,,27,128,5420067,,,,,,,2022-11-15,1,,,,,ショウキ,0
1338,5120001250346,新規,0,2022-11-15,2022-11-15,株式会社エムワーク,,株式会社,大阪府,大阪市平野区,平野南１丁目１番１２号,,27,126,5470031,,,,,,,2022-11-15,1,,,,,エムワーク,0
1339,5120001250354,新規,0,2022-11-15,2022-11-15,株式会社Ｎｏｄｏ．,,株式会社,大阪府,大阪市中央区,島之内１丁目５番１５号セジュール島之内６０３,,27,128,5420082,,,,,,,2022-11-15,1,,,,,ノード,0
1343,5120005023302,新規,0,2022-11-15,2022-11-15,一般社団法人ウェルネス評価研究開発機構,,その他の設立登記法人,大阪府,大阪市北区,梅田１丁目１番３号大阪駅前第３ビル２９階１－１－１号室,,27,127,5300001,,,,,,,2022-11-15,1,,,,,ウェルネスヒョウカケンキュウカイハツキコウ,0
1348,5120101066535,新規,0,2022-11-15,2022-11-15,ＳＯＬＩＤ　ＴＯＯＬ株式会社,,株式会社,大阪府,高石市,高師浜４丁目１３番３－４０１号,,27,225,5920004,,,,,,,2022-11-15,1,,,,,ソリッドツール,0
1351,5120901046744,新規,0,2022-11-15,2022-11-15,フジケン株式会社,,株式会社,大阪府,茨木市,美穂ケ丘１３番７３４号,,27,211,5670047,,,,,,,2022-11-15,1,,,,,フジケン,0
1361,5140001128078,新規,0,2022-11-15,2022-11-15,株式会社ワンショット,,株式会社,兵庫県,神戸市灘区,深田町２丁目３番３号,,28,102,6570038,,,,,,,2022-11-15,1,,,,,ワンショット,0
1366,5170001017377,新規,0,2022-11-15,2022-11-15,株式会社アマテラス,,株式会社,和歌山県,和歌山市,鳴神７０６番地４,,30,201,6408303,,,,,,,2022-11-15,1,,,,,アマテラス,0
1367,5170003001791,新規,0,2022-11-15,2022-11-15,合同会社アーリズウェル,,合同会社,和歌山県,和歌山市,府中５８７－１,,30,201,6496338,,,,,,,2022-11-15,1,,,,,アーリズウェル,0
1373,5180001153774,新規,0,2022-11-15,2022-11-15,株式会社インハリット,,株式会社,愛知県,小牧市,藤島町梵天３６番地,,23,219,4850069,,,,,,,2022-11-15,1,,,,,インハリット,0
1379,5180301036828,新規,0,2022-11-15,2022-11-15,株式会社スマイルクリエイト,,株式会社,愛知県,安城市,桜井町薬師田１５番地１,,23,212,4441154,,,,,,,2022-11-15,1,,,,,スマイルクリエイト,0
1386,5210001019154,新規,0,2022-11-15,2022-11-15,株式会社あかりファクトリー,,株式会社,福井県,鯖江市,有定町３丁目２番７－１号,,18,207,9160057,,,,,,,2022-11-15,1,,,,,アカリファクトリー,0
1393,5240001060659,新規,0,2022-11-15,2022-11-15,株式会社ボディーワークス,,株式会社,広島県,安芸高田市,八千代町上根２８番地８,,34,214,7310305,,,,,,,2022-11-15,1,,,,,ボディーワークス,0
1406,5260001037408,新規,0,2022-11-15,2022-11-15,Ｍ’ｓｔｙｌｅ株式会社,,株式会社,岡山県,岡山市南区,浦安本町１０６番地１７グリーンピュア浦安１０３号,,33,104,7028026,,,,,,,2022-11-15,1,,,,,エムスタイル,0
1417,5290003013189,新規,0,2022-11-15,2022-11-15,さくら合同会社,,合同会社,福岡県,福津市,須多田４８１,,40,224,8113303,,,,,,,2022-11-15,1,,,,,サクラ,0
1418,5290801029048,新規,0,2022-11-15,2022-11-15,行橋よろずや株式会社,,株式会社,福岡県,行橋市,大字前田１９３１,,40,213,8240056,,,,,,,2022-11-15,1,,,,,ユクハシヨロズヤ,0
1419,5300001013131,新規,0,2022-11-15,2022-11-15,株式会社ＲＵＢＥＲ,,株式会社,佐賀県,佐賀市,北川副町大字新郷３９番地３,,41,201,8400013,,,,,,,2022-11-15,1,,,,,ルベル,0
1421,5310001018121,新規,0,2022-11-15,2022-11-15,皓源清水株式会社,,株式会社,長崎県,佐世保市,本島町１番１号本島ビル７０１号,,42,202,8570871,,,,,,,2022-11-15,1,,,,,コウゲンシミズ,0
1422,5320001019416,新規,0,2022-11-15,2022-11-15,株式会社ＲＳＳ大分,,株式会社,大分県,別府市,大字鶴見４５４８番地の７４４ＷＩＮＤＯＭ扇山ＩＩ３０２号,00128478,44,202,8740840,,,,,,,2022-11-15,1,,,,,アールエスエスオオイタ,0
1426,5330005010576,新規,0,2022-11-15,2022-11-15,一般社団法人ｎｅｋｏｎｏｔｅ,,その他の設立登記法人,熊本県,熊本市中央区,水前寺４丁目５４番２７号,,43,101,8620950,,,,,,,2022-11-15,1,,,,,ネコノテ,0
1430,5340003003969,新規,0,2022-11-15,2022-11-15,合同会社ファンタジー,,合同会社,鹿児島県,鹿児島市,西伊敷７丁目２４番１５号,,46,201,8911202,,,,,,,2022-11-15,1,,,,,ファンタジー,0
1431,5350001018035,新規,0,2022-11-15,2022-11-15,株式会社マエダ車輛,,株式会社,宮崎県,串間市,大字北方７３６８番地７,,45,207,8880005,,,,,,,2022-11-15,1,,,,,マエダシャリョウ,0
1432,5350001018043,新規,0,2022-11-15,2022-11-15,株式会社ラスター,,株式会社,宮崎県,宮崎市,大字恒久１１８２番地４,,45,201,8800916,,,,,,,2022-11-15,1,,,,,ラスター,0
1442,5370003005896,新規,0,2022-11-15,2022-11-15,ＢＵＮＳＯＩ　ＡＵＴＯ合同会社,,合同会社,宮城県,角田市,尾山字大久保５５番地２,,04,208,9811502,,,,,,,2022-11-15,1,,,,,ブンソイオート,0
1452,5390001017074,新規,0,2022-11-15,2022-11-15,株式会社ＳＡＫＡＥＹＡ,,株式会社,山形県,上山市,美咲町２丁目４番１３号,,06,207,9993123,,,,,,,2022-11-15,1,,,,,サカエヤ,0
1454,5400001016058,新規,0,2022-11-15,2022-11-15,株式会社星の丘チーズ,,株式会社,岩手県,和賀郡西和賀町,大沓３６地割２３番地３,,03,366,0295507,,,,,,,2022-11-15,1,,,,,ホシノオカチーズ,0
1455,5410001003278,新規,0,2022-11-15,2022-11-15,株式会社ＡＲＤ秋田開発センター,,株式会社,秋田県,秋田市,楢山南中町１０番１８号,,05,201,0100022,,,,,,,2022-11-15,1,,,,,エーアールデーアキタカイハツセンター,0
1457,5420001018060,新規,0,2022-11-15,2022-11-15,株式会社ＢｉｇＲｏａｄ,,株式会社,青森県,八戸市,西白山台３丁目１４番２号,,02,203,0391113,,,,,,,2022-11-15,1,,,,,ビッグロード,0
1466,5470001019335,新規,0,2022-11-15,2022-11-15,株式会社Ｐ‐ＧＡＭＥ,,株式会社,香川県,高松市,古馬場町９－１７ミディセラビビル７階,,37,201,7600045,,,,,,,2022-11-15,1,,,,,ピーゲーム,0
1469,5700150112065,新規,0,2022-11-15,2022-10-07,みあれ祭前夜祭実行委員会,,その他,福岡県,宗像市,公園通り２丁目１番４号,,40,220,8113516,,,,,,,2022-10-07,1,,,,,ミアレマツリゼンヤサイジツコウイインカイ,0
1470,5700150112263,新規,0,2022-11-15,2022-10-26,ＯＳＡＫＡ　ＧＯＯＤ　ＶＩＢＥＳ,,その他,大阪府,大阪市阿倍野区,昭和町１丁目２－５コスタ文の里４０１,,27,119,5450011,,,,,,,2022-10-26,1,,,,,オオサカグツドヴアイブス,0
1476,6010001230845,新規,0,2022-11-15,2022-11-15,株式会社最大化活用計画,,株式会社,東京都,中央区,京橋２丁目８番１号,,13,102,1040031,,,,,,,2022-11-15,1,,,,,サイダイカカツヨウケイカク,0
1477,6010001230861,新規,0,2022-11-15,2022-11-15,株式会社Ｆｒｅｉｈｉｇｈｔ,,株式会社,東京都,中央区,銀座１丁目１２番４号Ｎ＆ＥＢＬＤ．７階,,13,102,1040061,,,,,,,2022-11-15,1,,,,,フライハイト,0
1479,6010003039087,新規,0,2022-11-15,2022-11-15,合同会社ヴィグラ,,合同会社,東京都,中央区,銀座１丁目２２番１１号銀座大竹ビジデンス２階,,13,102,1040061,,,,,,,2022-11-15,1,,,,,ヴィグラ,0
1480,6010003039095,新規,0,2022-11-15,2022-11-15,ＲＢソーラーモネ合同会社,,合同会社,東京都,中央区,八丁堀４丁目２番１０号ＡＯＪ税理士法人内,,13,102,1040032,,,,,,,2022-11-15,1,,,,,アールビーソーラーモネ,0
1495,6010401170831,新規,0,2022-11-15,2022-11-15,株式会社ＬＵＸＤＲＩ,,株式会社,東京都,港区,西新橋１丁目２番９号,,13,103,1050003,,,,,,,2022-11-15,1,,,,,ラグドリ,0
1496,6010403028904,新規,0,2022-11-15,2022-11-15,合同会社モノ,,合同会社,東京都,港区,高輪３丁目１６－２０ツインフラッツ高輪１０２,,13,103,1080074,,,,,,,2022-11-15,1,,,,,モノ,0
1503,6010701043472,新規,0,2022-11-15,2022-11-15,ＹｅｓＮｏＢｕｔ株式会社,,株式会社,東京都,品川区,南品川４丁目４番１７号品川サウスタワー,,13,109,1400004,,,,,,,2022-11-15,1,,,,,ヤスノブ,0
1504,6010701043480,新規,0,2022-11-15,2022-11-15,株式会社てくてくＬａｂ,,株式会社,東京都,品川区,西中延２丁目１１番１８号,,13,109,1420054,,,,,,,2022-11-15,1,,,,,テクテクラボ,0
1513,6010901051936,新規,0,2022-11-15,2022-11-15,株式会社ＯＦＦＩＣＥ　Ａ２Ｏ,,株式会社,東京都,世田谷区,上用賀６丁目６番１２号,,13,112,1580098,,,,,,,2022-11-15,1,,,,,オフィスエーツーオー,0
1514,6010903007787,新規,0,2022-11-15,2022-11-15,合同会社ＨＯＯＫＥＮ,,合同会社,東京都,世田谷区,下馬４丁目２９番５号祐天寺コーポラス５０６,,13,112,1540002,,,,,,,2022-11-15,1,,,,,,0
1522,6011001150678,新規,0,2022-11-15,2022-11-15,株式会社せかいを救うマネジメント,,株式会社,東京都,渋谷区,渋谷３丁目６番２号エクラート渋谷ビル５階,,13,113,1500002,,,,,,,2022-11-15,1,,,,,セカイヲスクウマネジメント,0
1523,6011001150851,新規,0,2022-11-15,2022-11-15,株式会社Ｒｏｓｉｅｓｋｉｔｃｈｅｎ,,株式会社,東京都,渋谷区,代々木４丁目２８番７号西参道テラスＮ２号室,,13,113,1510053,,,,,,,2022-11-15,1,,,,,ロージーズキッチン,0
1526,6011003015615,新規,0,2022-11-15,2022-11-15,ＣＡＳＩＯＰＥＡ　ＧＲＯＵＰ合同会社,,合同会社,東京都,目黒区,東山３丁目１６番９号,,13,110,1530043,,,,,,,2022-11-15,1,,,,,カシオペアグループ,0
1527,6011003015689,新規,0,2022-11-15,2022-11-15,合同会社ｅｎｆｌａｍｍｅｒ,,合同会社,東京都,目黒区,中目黒５丁目２７番１８－６０７号,,13,110,1530061,,,,,,,2022-11-15,1,,,,,エンフラマー,0
1528,6011003015697,新規,0,2022-11-15,2022-11-15,Ｒｅａｌｉｚｅ合同会社,,合同会社,東京都,渋谷区,渋谷２丁目１９－１５宮益坂ビルディング６０９,,13,113,1500002,,,,,,,2022-11-15,1,,,,,リアライズ,0
1535,6011101100830,新規,0,2022-11-15,2022-11-15,株式会社ＲＡＭＵＴＡＫＩ,,株式会社,東京都,新宿区,新宿６丁目２７番２９号,,13,104,1600022,,,,,,,2022-11-15,1,,,,,ラムタキ,0
1536,6011101100855,新規,0,2022-11-15,2022-11-15,株式会社フェニーチェ,,株式会社,東京都,新宿区,西新宿７丁目７番２５号ワコーレ新宿第二ビル４０１,,13,104,1600023,,,,,,,2022-11-15,1,,,,,フェニーチェ,0
1538,6011103012388,新規,0,2022-11-15,2022-11-15,合同会社ＹＤＤ　ＪＡＰＡＮ,,合同会社,東京都,新宿区,新宿５丁目１４番１２－２０６号,,13,104,1600022,,,,,,,2022-11-15,1,,,,,ワイディーディージャパン,0
1545,6011301028260,新規,0,2022-11-15,2022-11-15,ヘキケツ株式会社,,株式会社,東京都,杉並区,天沼２丁目７番７号マンション大竹３０１,,13,115,1670032,,,,,,,2022-11-15,1,,,,,ヘキケツ,0
1548,6011605002481,新規,0,2022-11-15,2022-11-15,特定非営利活動法人Ｈｕｍａｎ　Ｗｅｌｆａｒｅ　Ａｓｓｏｃｉａｔｉｏｎ,,その他の設立登記法人,東京都,練馬区,南大泉４丁目３２番３０号,,13,120,1780064,,,,,,,2022-11-15,1,,,,,ヒューマンウェルフェアアソシエイション,0
1549,6011803005336,新規,0,2022-11-15,2022-11-15,合同会社六根,,合同会社,東京都,葛飾区,東金町６丁目１５―１,,13,122,1250041,,,,,,,2022-11-15,1,,,,,ロッコン,0
1550,6011803005377,新規,0,2022-11-15,2022-11-15,米と月合同会社,,合同会社,東京都,足立区,栗原３丁目２６番１号２Ｆ,,13,121,1230842,,,,,,,2022-11-15,1,,,,,コメトツキ,0
1554,6012701017357,新規,0,2022-11-15,2022-11-15,株式会社ＳＯＮＲＩＳＡ,,株式会社,東京都,清瀬市,中里１丁目７４２番地３６,,13,221,2040003,,,,,,,2022-11-15,1,,,,,ソンリッサ,0
1555,6012801021969,新規,0,2022-11-15,2022-11-15,Ｔｅｒｒａ　Ｎｅｔｚ株式会社,,株式会社,東京都,国立市,谷保６５５番地の１リブリ天神下１０１,,13,215,1860011,,,,,,,2022-11-15,1,,,,,テラネッヅ,0
1557,6013301049914,新規,0,2022-11-15,2022-11-15,ＭＡＩＴＲＡＮ株式会社,,株式会社,東京都,豊島区,池袋３丁目２１－７コーポ大明１Ｆ,,13,116,1710014,,,,,,,2022-11-15,1,,,,,マイチャン,0
1560,6013303006368,新規,0,2022-11-15,2022-11-15,Ａｍｅｒｉｐｒｏｓ合同会社,,合同会社,東京都,豊島区,南大塚３丁目１６番５号,,13,116,1700005,,,,,,,2022-11-15,1,,,,,アメリプロス,0
1565,6020001149003,新規,0,2022-11-15,2022-11-15,株式会社フィールドワン,,株式会社,神奈川県,横浜市西区,戸部本町３１番１３号,,14,103,2200041,,,,,,,2022-11-15,1,,,,,フィールドワン,0
1570,6020003022744,新規,0,2022-11-15,2022-11-15,合同会社モーリー,,合同会社,神奈川県,川崎市川崎区,池上新町１丁目２番１３－５０５号グランディール,,14,131,2100832,,,,,,,2022-11-15,1,,,,,モーリー,0
1582,6030001151081,新規,0,2022-11-15,2022-11-15,株式会社ｗｉｔｈ,,株式会社,埼玉県,さいたま市南区,曲本１丁目１３番２０－２号,,11,108,3360033,,,,,,,2022-11-15,1,,,,,ウィズ,0
1589,6040001125720,新規,0,2022-11-15,2022-11-15,株式会社ａｒｔａｎｄｃｒａｆｔ　ｎａｏ,,株式会社,千葉県,八街市,山田台６０５番地２,,12,230,2891124,,,,,,,2022-11-15,1,,,,,アートアンドクラフトナオ,0
1597,6070001039835,新規,0,2022-11-15,2022-11-15,エムテック株式会社,,株式会社,群馬県,藤岡市,上栗須２２番地２,,10,209,3750016,,,,,,,2022-11-15,1,,,,,エムテック,0
1600,6080101023639,新規,0,2022-11-15,2022-11-15,株式会社日本風洞試験,,株式会社,静岡県,沼津市,小諏訪９３８番地１,,22,203,4100872,,,,,,,2022-11-15,1,,,,,ニホンフウドウシケン,0
1603,6090001017847,新規,0,2022-11-15,2022-11-15,株式会社天鶴,,株式会社,山梨県,甲府市,徳行２丁目８番１５号Ａ－１１,,19,201,4000047,,,,,,,2022-11-15,1,,,,,テンカク,0
1613,6110001037116,新規,0,2022-11-15,2022-11-15,ペイブザウェイ株式会社,,株式会社,新潟県,長岡市,表町１丁目１０番地５アーバンヒルズ長岡第２・１０３号室,,15,202,9400071,,,,,,,2022-11-15,1,,,,,ペイブザウェイ,0
1615,6110005016875,新規,0,2022-11-15,2022-11-15,一般社団法人スワローサポート,,その他の設立登記法人,新潟県,新潟市東区,東明６丁目８２０番地４,,15,102,9500853,,,,,,,2022-11-15,1,,,,,スワローサポート,0
1628,6120001250221,新規,0,2022-11-15,2022-11-15,Ｈホールディングス株式会社,,株式会社,大阪府,大阪市西区,江之子島２丁目１番３７号,,27,106,5500006,,,,,,,2022-11-15,1,,,,,エイチホールディングス,0
1629,6120001250337,新規,0,2022-11-15,2022-11-15,株式会社ＦＥＳＴ,,株式会社,大阪府,大阪市福島区,福島７丁目１４番１９号６０２号室,,27,103,5530003,,,,,,,2022-11-15,1,,,,,フェスト,0
1634,6120003022874,新規,0,2022-11-15,2022-11-15,合同会社アミューズ,,合同会社,大阪府,大阪市福島区,福島３丁目１－４９ドルミ堂島７０４,,27,103,5530003,,,,,,,2022-11-15,1,,,,,アミューズ,0
1637,6120005023301,新規,0,2022-11-15,2022-11-15,土地家屋調査士法人Ｎ‐ｏｆｆｉｃｅ,,その他の設立登記法人,大阪府,大阪市北区,豊崎５丁目３番２３号ジュリアビル８０６号室,,27,127,5310072,,,,,,,2022-11-15,1,,,,,エヌオフィス,0
1641,6120101066534,新規,0,2022-11-15,2022-11-15,株式会社ＹＡＭＡＳＥＴＳＵ,,株式会社,大阪府,高石市,取石４丁目１７－２２,,27,225,5920013,,,,,,,2022-11-15,1,,,,,ヤマセツ,0
1642,6120101066542,新規,0,2022-11-15,2022-11-15,日出株式会社,,株式会社,大阪府,泉佐野市,新安松２丁目４番６号,,27,213,5980032,,,,,,,2022-11-15,1,,,,,ヒノデ,0
1646,6120901046751,新規,0,2022-11-15,2022-11-15,株式会社ＺＥＲＯクリエイト,,株式会社,大阪府,高槻市,南平台１丁目２０番８号,,27,207,5691042,,,,,,,2022-11-15,1,,,,,ゼロクリエイト,0
1649,6122001036402,新規,0,2022-11-15,2022-11-15,株式会社小柳工業,00128490,株式会社,大阪府,柏原市,法善寺３丁目９０５番地の３,,27,221,5820005,,,,,,,2022-11-15,1,,,,,コヤナギコウギョウ,0
1653,6130001073027,新規,0,2022-11-15,2022-11-15,株式会社Ａｐｅｘ,,株式会社,京都府,京都市山科区,西野離宮町２－１山科南団地Ｆ棟６０７,,26,110,6078345,,,,,,,2022-11-15,1,,,,,エーペックス,0
1654,6130003008294,新規,0,2022-11-15,2022-11-15,合同会社京都ＷＯＲＫＳ,,合同会社,京都府,京都市中京区,雁金町３７３みよいビル３０５,,26,104,6048115,,,,,,,2022-11-15,1,,,,,キョウトワークス,0
1666,6150001025950,新規,0,2022-11-15,2022-11-15,阪奈金属株式会社,,株式会社,奈良県,生駒市,南田原町２１００番地１,,29,209,6300135,,,,,,,2022-11-15,1,,,,,ハンナキンゾク,0
1673,6180001153848,新規,0,2022-11-15,2022-11-15,株式会社エフアールワイ,,株式会社,愛知県,名古屋市北区,新沼町１２０番地,,23,103,4620062,,,,,,,2022-11-15,1,,,,,エフアールワイ,0
1676,6180301036827,新規,0,2022-11-15,2022-11-15,Ｃ‐ｂｒｉｄｇｅ　ｄｅｓｉｇｎ株式会社,,株式会社,愛知県,岡崎市,三崎町８番地２０,,23,202,4440853,,,,,,,2022-11-15,1,,,,,シーブリッジデザイン,0
1685,6240001060658,新規,0,2022-11-15,2022-11-15,株式会社Ｃｒｏｗｎ　Ｃｌｏｗｎ,,株式会社,広島県,広島市中区,袋町５番２８号,,34,101,7300036,,,,,,,2022-11-15,1,,,,,クラウンクラウン,0
1687,6250001019843,新規,0,2022-11-15,2022-11-15,株式会社ＳＵＰＲＡ,,株式会社,山口県,山口市,銭湯小路１４,,35,203,7530084,,,,,,,2022-11-15,1,,,,,スプラ,0
1694,6260001037415,新規,0,2022-11-15,2022-11-15,アイワ技研株式会社,,株式会社,岡山県,岡山市北区,大元２丁目４番３号,,33,101,7000924,,,,,,,2022-11-15,1,,,,,アイワギケン,0
1704,6290001099576,新規,0,2022-11-15,2022-11-15,人材アルバ株式会社,,株式会社,福岡県,福岡市博多区,博多駅東２丁目１７番５号,,40,132,8120013,,,,,,,2022-11-15,1,,,,,ジンザイアルバ,0
1705,6290003013188,新規,0,2022-11-15,2022-11-15,合同会社ユニオン,,合同会社,福岡県,大野城市,下大利１丁目３番１１－２号,,40,219,8160952,,,,,,,2022-11-15,1,,,,,ユニオン,0
1708,6300001013130,新規,0,2022-11-15,2022-11-15,株式会社ＳＧ,,株式会社,佐賀県,佐賀市,兵庫南１丁目６番３２－６０５号,,41,201,8490918,,,,,,,2022-11-15,1,,,,,エスジー,0
1712,6330001030305,新規,0,2022-11-15,2022-11-15,株式会社ジェイ設備,,株式会社,熊本県,熊本市東区,長嶺東５丁目３番２８号,,43,102,8618038,,,,,,,2022-11-15,1,,,,,ジェイセツビ,0
1716,6350003004206,新規,0,2022-11-15,2022-11-15,合同会社Ｂｌａｕ　Ｒｏｊｏ,,合同会社,宮崎県,北諸県郡三股町,大字樺山３２７６番地１４,,45,341,8891901,,,,,,,2022-11-15,1,,,,,ブラウロホ,0
1729,6390001017073,新規,0,2022-11-15,2022-11-15,株式会社Ｆａｉｔｈ,,株式会社,山形県,鶴岡市,日和田町９番２２号,,06,203,9970016,,,,,,,2022-11-15,1,,,,,フェイス,0
1731,6400001016057,新規,0,2022-11-15,2022-11-15,ミッドホールディングス株式会社,,株式会社,岩手県,盛岡市,上堂３丁目８番４４号,,03,201,0200125,,,,,,,2022-11-15,1,,,,,ミッドホールディングス,0
1748,6480001011926,新規,0,2022-11-15,2022-11-15,株式会社ＲＥＲＡＩＳＥ,,株式会社,徳島県,徳島市,名東町１丁目４１番地の７,,36,201,7700047,,,,,,,2022-11-15,1,,,,,リレイズ,0
1762,7010001230844,新規,0,2022-11-15,2022-11-15,セグエセキュリティ株式会社,,株式会社,東京都,中央区,新川１丁目１６番３号,,13,102,1040033,,,,,,,2022-11-15,1,,,,,セグエセキュリティ,0
1768,7010003039094,新規,0,2022-11-15,2022-11-15,ＲＢソーラードガ合同会社,,合同会社,東京都,中央区,八丁堀４丁目２番１０号ＡＯＪ税理士法人内,,13,102,1040032,,,,,,,2022-11-15,1,,,,,アールビーソーラードガ,0
1769,7010005035785,新規,0,2022-11-15,2022-11-15,弁護士法人中島経営法律事務所,,その他の設立登記法人,東京都,千代田区,霞が関３丁目２番５号霞が関ビルディング２４階,,13,101,1000013,,,,,,,2022-11-15,1,,,,,ナカジマケイエイホウリツジムショ,0
1784,7010401170830,新規,0,2022-11-15,2022-11-15,Ｈ　ｆｕｎｄ株式会社,,株式会社,東京都,港区,南青山５丁目１１番２号ＳＡＮＷＡ南青山ビル２Ｆ,,13,103,1070062,,,,,,,2022-11-15,1,,,,,エイチファンド,0
1785,7010403028077,新規,0,2022-11-15,2022-11-15,クイーンスタイル合同会社,,合同会社,東京都,港区,赤坂３丁目１４番１号,,13,103,1070052,,,,,,,2022-11-15,1,,,,,クイーンスタイル,0
1786,7010403028903,新規,0,2022-11-15,2022-11-15,ジャパンインフラ２９号合同会社,,合同会社,東京都,港区,元赤坂１丁目１番７号,,13,103,1070051,,,,,,,2022-11-15,1,,,,,ジャパンインフラニジュウキュウゴウ,0
1799,7011001150842,新規,0,2022-11-15,2022-11-15,株式会社Ｓｔａｒｔｗｅａｌａｂｏ,,株式会社,東京都,渋谷区,神宮前６丁目２３－４－２Ｆ,,13,113,1500001,,,,,,,2022-11-15,1,,,,,スタートウェアラボ,0
1800,7011001150850,新規,0,2022-11-15,2022-11-15,株式会社アイミューケロ,,株式会社,東京都,渋谷区,恵比寿南２丁目１番１２号サトウビル４Ｆ,,13,113,1500022,,,,,,,2022-11-15,1,,,,,アイミューケロ,0
1801,7011001150859,新規,0,2022-11-15,2022-11-15,株式会社ｅｌｅｖｅｎ　ｅｌｅｖｅｎ,,株式会社,東京都,渋谷区,西原３丁目４５番１６号ＳｈｅｒｒｙＥ,,13,113,1510066,,,,,,,2022-11-15,1,,,,,イレブンイレブン,0
1802,7011001150982,新規,0,2022-11-15,2022-11-15,Ｍｉｓｆｉｔｓ株式会社,,株式会社,東京都,目黒区,目黒１丁目４番１６号目黒Ｇビル５階,,13,110,1530063,,,,,,,2022-11-15,1,,,,,ミスフィッツ,0
1803,7011003015696,新規,0,2022-11-15,2022-11-15,合同会社シーアールエス総合研究所,,合同会社,東京都,渋谷区,渋谷２丁目１９－１５宮益坂ビルディング６０９,,13,113,1500002,,,,,,,2022-11-15,1,,,,,シーアールエスソウゴウケンキュウショ,0
1806,7011101100730,新規,0,2022-11-15,2022-11-15,株式会社バンク・オブ・インキュベーション,,株式会社,東京都,新宿区,新宿６丁目２７番３０号,,13,104,1600022,,,,,,,2022-11-15,1,,,,,バンクオブインキュベーション,0
1807,7011101100771,新規,0,2022-11-15,2022-11-15,株式会社アミティエ,,株式会社,東京都,新宿区,西新宿２丁目４番１号,,13,104,1600023,,,,,,,2022-11-15,1,,,,,アミティエ,0
1808,7011101100838,新規,0,2022-11-15,2022-11-15,ＨＡＲＵＭＩ株式会社,,株式会社,東京都,新宿区,大久保２丁目２－２第２３宮庭マンション２階Ｊ号室,,13,104,1690072,,,,,,,2022-11-15,1,,,,,ハルミ,0
1809,7011101100854,新規,0,2022-11-15,2022-11-15,株式会社アネマ,,株式会社,東京都,新宿区,西新宿３丁目３番１３号西新宿水間ビル６階,,13,104,1600023,,,,,,,2022-11-15,1,,,,,アネマ,0
1810,7011301028251,新規,0,2022-11-15,2022-11-15,株式会社レキップ,,株式会社,東京都,杉並区,西荻北３丁目２５番１号,,13,115,1670042,,,,,,,2022-11-15,1,,,,,レキップ,0
1812,7011401024695,新規,0,2022-11-15,2022-11-15,株式会社ハウスラボ,,株式会社,東京都,板橋区,中丸町５３番１５－１３０５号,,13,119,1730026,,,,,,,2022-11-15,1,,,,,ハウスラボ,0
1817,7011505002515,新規,0,2022-11-15,2022-11-15,一般社団法人在日タイ国僧団教会,,その他の設立登記法人,東京都,荒川区,荒川３丁目７８番５号宗教法人タイ国タンマガーイ寺院４階,,13,118,1160002,,,,,,,2022-11-15,1,,,,,ザイニチタイソウダンキョウカイ,0
1821,7011801041539,新規,0,2022-11-15,2022-11-15,株式会社Ｏｎｅ　ｂｅ．,,株式会社,東京都,足立区,中川３丁目５番１６号,,13,121,1200002,,,,,,,2022-11-15,1,,,,,ワンビ,0
1822,7011801041555,新規,0,2022-11-15,2022-11-15,株式会社ネクストスカイ,,株式会社,東京都,足立区,柳原１丁目１５番８号,,13,121,1200022,,,,,,,2022-11-15,1,,,,,ネクストスカイ,0
1825,7011803005376,新規,0,2022-11-15,2022-11-15,合同会社清水精工,,合同会社,東京都,足立区,江北２丁目２３番９号,,13,121,1230872,,,,,,,2022-11-15,1,,,,,シミズセイコウ,0
1826,7012301013210,新規,0,2022-11-15,2022-11-15,株式会社早川青果,,株式会社,東京都,町田市,つくし野４丁目１３－１,,13,209,1940001,,,,,,,2022-11-15,1,,,,,ハヤカワセイカ,0
1834,7012801021968,新規,0,2022-11-15,2022-11-15,株式会社ＩＮＦＩＮＩＴＥ,,株式会社,東京都,日野市,西平山２丁目６番地の１６３,,13,212,1910055,,,,,,,2022-11-15,1,,,,,インフィニット,0
1846,7020001148994,新規,0,2022-11-15,2022-11-15,株式会社エスアール,,株式会社,神奈川県,横浜市中区,常盤町３丁目２１番地アライアンス関内ビル３０２号室,,14,104,2310014,,,,,,,2022-11-15,1,,,,,エスアール,0
1847,7020001149010,新規,0,2022-11-15,2022-11-15,株式会社リクレ,,株式会社,神奈川県,横浜市西区,楠町１番地３ＢＬＡ横浜西口２Ｆ,,14,103,2200003,,,,,,,2022-11-15,1,,,,,リクレ,0
1849,7020003022735,新規,0,2022-11-15,2022-11-15,あべ合同会社ＺＥＲＯ,,合同会社,神奈川県,横浜市港南区,芹が谷３丁目２２番９号,,14,111,2330006,,,,,,,2022-11-15,1,,,,,アベゼロ,0
1852,7021001077465,新規,0,2022-11-15,2022-11-15,株式会社湘南リサイクル,,株式会社,神奈川県,平塚市,田村４丁目３４番,,14,203,2540013,,,,,,,2022-11-15,1,,,,,ショウナンリサイクル,0
1853,7021001077473,新規,0,2022-11-15,2022-11-15,アイリー株式会社,,株式会社,神奈川県,足柄上郡松田町,松田惣領１１９４番地１,,14,363,2580003,,,,,,,2022-11-15,1,,,,,アイリー,0
1869,7040001125785,新規,0,2022-11-15,2022-11-15,株式会社Ｔｒｅｅ　Ｏｃｅａｎｓ,,株式会社,千葉県,浦安市,明海２丁目９番１３号,,12,227,2790014,,,,,,,2022-11-15,1,,,,,ツリーオーシャンズ,0
1875,7050001051980,新規,0,2022-11-15,2022-11-15,株式会社アークテール,,株式会社,茨城県,水戸市,元吉田町３６４番地７,,08,201,3100836,,,,,,,2022-11-15,1,,,,,アークテール,0
1878,7050003006834,新規,0,2022-11-15,2022-11-15,ＷＩＣＫＲＡＭＡＳＨＩＬＡ　ＢＵＤＤＨＩＳＴ　ＣＥＮＴＥＲ合同会社,,合同会社,茨城県,小美玉市,中延１３５－１,,08,236,3113422,,,,,,,2022-11-15,1,,,,,ウィックラマシラブディストセンター,0
1883,7070001039834,新規,0,2022-11-15,2022-11-15,ＧＵＧＵｄｅｓｉｇｎ株式会社,,株式会社,群馬県,前橋市,駒形町４９５番地１８,,10,201,3792122,,,,,,,2022-11-15,1,,,,,ググデザイン,0
1884,7070003004712,新規,0,2022-11-15,2022-11-15,合同会社ケイ,,合同会社,群馬県,伊勢崎市,中町６９７番地エディフィス・ハギワラ３５－１０３,,10,204,3720822,,,,,,,2022-11-15,1,,,,,ケイ,0
1885,7080001025296,新規,0,2022-11-15,2022-11-15,株式会社岡田,,株式会社,静岡県,島田市,湯日３６１９番地,,22,209,4270113,,,,,,,2022-11-15,1,,,,,オカダ,0
1886,7080101023638,新規,0,2022-11-15,2022-11-15,株式会社ｍｉｃｒｏ　ｄｅｖｅｌｏｐｍｅｎｔ,,株式会社,静岡県,賀茂郡東伊豆町,片瀬５７６番地の６,,22,301,4130303,,,,,,,2022-11-15,1,,,,,マイクロディベロップメント,0
1893,7090001017854,新規,0,2022-11-15,2022-11-15,株式会社サワト,,株式会社,山梨県,甲府市,下飯田４丁目３番２号,,19,201,4000064,,,,,,,2022-11-15,1,,,,,サワト,0
1896,7100003006779,新規,0,2022-11-15,2022-11-15,合同会社ＺＡＮＤＯ,,合同会社,長野県,埴科郡坂城町,大字坂城６１８６番地１,,20,521,3890601,,,,,,,2022-11-15,1,,,,,ザンドウ,0
1899,7110001037115,新規,0,2022-11-15,2022-11-15,株式会社グローバルライン,,株式会社,新潟県,長岡市,亀貝町４３３番地５,,15,202,9400884,,,,,,,2022-11-15,1,,,,,グローバルライン,0
1908,7120001250220,新規,0,2022-11-15,2022-11-15,株式会社明道,,株式会社,大阪府,大阪市浪速区,下寺３丁目１９番地１８号,,27,111,5560001,,,,,,,2022-11-15,1,,,,,アケミチ,0
1909,7120001250311,新規,0,2022-11-15,2022-11-15,株式会社２４６観光,,株式会社,大阪府,大阪市大正区,千島３丁目１１番２３号,,27,108,5510003,,,,,,,2022-11-15,1,,,,,ニヨンロクカンコウ,0
1910,7120001250336,新規,0,2022-11-15,2022-11-15,株式会社トップレベル,,株式会社,大阪府,大阪市東淀川区,東中島１丁目２０番１２号,,27,114,5330033,,,,,,,2022-11-15,1,,,,,トップレベル,0
1911,7120001250369,新規,0,2022-11-15,2022-11-15,株式会社ＤＸＩＭ,,株式会社,大阪府,大阪市天王寺区,味原町４番５号,,27,109,5430023,,,,,,,2022-11-15,1,,,,,ディーエックスアイエム,0
1914,7120003022857,新規,0,2022-11-15,2022-11-15,合同会社ＨＲ,,合同会社,大阪府,大阪市中央区,今橋２丁目２番１７号今川ビルディング８Ｆ,,27,128,5410042,,,,,,,2022-11-15,1,,,,,エイチアール,0
1918,7120005023300,新規,0,2022-11-15,2022-11-15,社会福祉法人正覚会,,その他の設立登記法人,大阪府,大阪市鶴見区,焼野２丁目５番２０号,,27,124,5380037,,,,,,,2022-11-15,1,,,,,ショウガクカイ,0
1923,7120101066533,新規,0,2022-11-15,2022-11-15,株式会社嘉建,,株式会社,大阪府,堺市堺区,柏木町４丁１－１１エリザベス２Ｆ,,27,141,5900837,,,,,,,2022-11-15,1,,,,,カケン,0
1927,7120901046750,新規,0,2022-11-15,2022-11-15,株式会社グラテックス,,株式会社,大阪府,豊中市,原田元町３丁目１２番３号,,27,203,5610808,,,,,,,2022-11-15,1,,,,,グラテックス,0
1945,7130003008277,新規,0,2022-11-15,2022-11-15,カワウチ合同会社,,合同会社,京都府,八幡市,八幡女郎花８６番地の１－１０２,,26,210,6148077,,,,,,,2022-11-15,1,,,,,カワウチ,0
1949,7140003018300,新規,0,2022-11-15,2022-11-15,合同会社ホームケアｐｏｎｏ,,合同会社,兵庫県,三田市,上井沢１８９番地８,,28,219,6691316,,,,,,,2022-11-15,1,,,,,ホームケアポノ,0
1963,7180001153822,新規,0,2022-11-15,2022-11-15,株式会社ＤＢＫ,,株式会社,愛知県,名古屋市北区,水切町７丁目１１１番地の２,,23,103,4620833,,,,,,,2022-11-15,1,,,,,ディービーケイ,0
1964,7180001153855,新規,0,2022-11-15,2022-11-15,株式会社佰吉食品,,株式会社,愛知県,名古屋市西区,上小田井１丁目２３９番地の２,,23,104,4520821,,,,,,,2022-11-15,1,,,,,ヒャッキチショクヒン,0
1968,7180003024468,新規,0,2022-11-15,2022-11-15,キング合同会社,,合同会社,愛知県,名古屋市港区,九番町１丁目１番地の１（九番団地４棟６０３号）,,23,111,4550008,,,,,,,2022-11-15,1,,,,,キング,0
1980,7240001060640,新規,0,2022-11-15,2022-11-15,松永ガス株式会社,,株式会社,広島県,福山市,津之郷町大字津之郷２２５番地の１,,34,207,7200841,,,,,,,2022-11-15,1,,,,,マツナガガス,0
1988,7260001037406,新規,0,2022-11-15,2022-11-15,アジア技術開発株式会社,,株式会社,岡山県,倉敷市,白楽町６８４番地７,,33,202,7100824,,,,,,,2022-11-15,1,,,,,アジアギジュツカイハツ,0
1989,7260001037414,新規,0,2022-11-15,2022-11-15,株式会社門田運輸,,株式会社,岡山県,岡山市南区,藤田２２７番地２１,,33,104,7010221,,,,,,,2022-11-15,1,,,,,モンデンウンユ,0
1992,7260005011159,新規,0,2022-11-15,2022-11-15,一般社団法人ＨＨＴ,,その他の設立登記法人,岡山県,岡山市北区,厚生町３丁目３‐４,,33,101,7000985,,,,,,,2022-11-15,1,,,,,エイチエイチティ,0
2010,7340003003967,新規,0,2022-11-15,2022-11-15,合同会社勝久植物研究所,,合同会社,鹿児島県,霧島市,国分中央５丁目２番４２号,,46,218,8994332,,,,,,,2022-11-15,1,,,,,カツヒサショクブツケンキュウジョ,0
2011,7350001018041,新規,0,2022-11-15,2022-11-15,株式会社ｈｉｃｈｏｎ,,株式会社,宮崎県,宮崎市,大塚町横立１５１２番地７,,45,201,8800951,,,,,,,2022-11-15,1,,,,,ヒチョン,0
2015,7360003012454,新規,0,2022-11-15,2022-11-15,合同会社喜色,,合同会社,沖縄県,名護市,大北４丁目２５番９号新里貸事務所１０２号室,,47,209,9050019,,,,,,,2022-11-15,1,,,,,キイロ,0
2022,7380003005324,新規,0,2022-11-15,2022-11-15,合同会社伊藤会計事務所,,合同会社,福島県,会津若松市,城南町２番７号,,07,202,9650809,,,,,,,2022-11-15,1,,,,,イトウカイケイジムショ,0
2023,7390001017072,新規,0,2022-11-15,2022-11-15,ＨＡＣＨＩ株式会社,,株式会社,山形県,山形市,薬師町２丁目２番２８号ＴＰＬビル２階,,06,201,9900053,,,,,,,2022-11-15,1,,,,,ハチ,0
2027,7430001087846,新規,0,2022-11-15,2022-11-15,バイオフレーム株式会社,,株式会社,北海道,札幌市白石区,東札幌四条３丁目５番１号,,01,104,0030004,,,,,,,2022-11-15,1,,,,,バイオフレーム,0
2034,7450001013841,新規,0,2022-11-15,2022-11-15,株式会社ＮａｔｕｒｅＯｒｉｅｎｔｅｄ,,株式会社,北海道,旭川市,東光八条５丁目３番６号２Ｆ,,01,204,0788348,,,,,,,2022-11-15,1,,,,,ネイチャーオリエンテッド,0
2035,7460103001495,新規,0,2022-11-15,2022-11-15,合同会社六泉舎,,合同会社,北海道,帯広市,西八条南１６丁目３番地１－１０１,,01,207,0800018,,,,,,,2022-11-15,1,,,,,ロクセンシャ,0
2041,7500005008535,新規,0,2022-11-15,2022-11-15,一般財団法人しまなみ美術財団,,その他の設立登記法人,愛媛県,今治市,吉海町幸新田２２１番地２,,38,202,7942111,,,,,,,2022-11-15,1,,,,,シマナミビジュツザイダン,0
2049,8010001230810,新規,0,2022-11-15,2022-11-15,株式会社ＤａＮ,,株式会社,東京都,中央区,銀座１丁目２２番１１号銀座大竹ビジデンス２階,,13,102,1040061,,,,,,,2022-11-15,1,,,,,ダン,0
2050,8010001230843,新規,0,2022-11-15,2022-11-15,株式会社ｉＮＡＫＡｄｏ,,株式会社,東京都,中央区,日本橋本町３丁目８番３号,,13,102,1030023,,,,,,,2022-11-15,1,,,,,イナカド,0
2054,8010003039085,新規,0,2022-11-15,2022-11-15,合同会社ドリーム・ＵＳ・アテーナブルファンド,,合同会社,東京都,千代田区,丸の内３丁目１番１号東京共同会計事務所内,,13,101,1000005,,,,,,,2022-11-15,1,,,,,ドリームユーエスアテーナブルファンド,0
2055,8010003039093,新規,0,2022-11-15,2022-11-15,ＲＢソーラーピサロ合同会社,,合同会社,東京都,中央区,八丁堀４丁目２番１０号ＡＯＪ税理士法人内,,13,102,1040032,,,,,,,2022-11-15,1,,,,,アールビーソーラーピサロ,0
2057,8010005035792,新規,0,2022-11-15,2022-11-15,一般社団法人エステック瀬底島,,その他の設立登記法人,東京都,中央区,京橋２丁目７番１９号,,13,102,1040031,,,,,,,2022-11-15,1,,,,,エステックセソコジマ,0
2065,8010401170846,新規,0,2022-11-15,2022-11-15,株式会社ぐるかい,,株式会社,東京都,港区,虎ノ門１丁目１７番１号虎ノ門ヒルズビジネスタワー１５階,,13,103,1050001,,,,,,,2022-11-15,1,,,,,グルカイ,0
2068,8010403028902,新規,0,2022-11-15,2022-11-15,ジャパンインフラ２８号合同会社,,合同会社,東京都,港区,元赤坂１丁目１番７号,,13,103,1070051,,,,,,,2022-11-15,1,,,,,ジャパンインフラニジュウハチゴウ,0
2072,8010501049619,新規,0,2022-11-15,2022-11-15,民澤株式会社,,株式会社,東京都,台東区,浅草橋５丁目２７番６－２０４号,,13,106,1110053,,,,,,,2022-11-15,1,,,,,ミンザワ,0
2073,8010501049627,新規,0,2022-11-15,2022-11-15,タラコング株式会社,,株式会社,東京都,台東区,下谷３丁目１９番３号,,13,106,1100004,,,,,,,2022-11-15,1,,,,,タラコング,0
2074,8010501049635,新規,0,2022-11-15,2022-11-15,有前株式会社,,株式会社,東京都,台東区,上野４丁目３番１０号リベラ上野４階,,13,106,1100005,,,,,,,2022-11-15,1,,,,,ユウゼン,0
2086,8010903007760,新規,0,2022-11-15,2022-11-15,Ｅｘｐｏｎｅｘ　Ｊａｐａｎ合同会社,,合同会社,東京都,世田谷区,代田１丁目４７－１３,,13,112,1550033,,,,,,,2022-11-15,1,,,,,エクスポネックスジャパン,0
2092,8011003015679,新規,0,2022-11-15,2022-11-15,ＴＯＢＩ　ＡＮＤ　ＴＯＫＥＮ　ＣＡＰＩＴＡＬ　ＪＰ合同会社,,合同会社,東京都,渋谷区,恵比寿西１丁目３６番２号ザ・コノエ代官山３０２号室,,13,113,1500021,,,,,,,2022-11-15,1,,,,,トビアンドトケンキャピタルジェーピー,0
2093,8011003015695,新規,0,2022-11-15,2022-11-15,合同会社ＤＲＡＧＯＮ　ｃｒｅａｔｉｖｅ　ｓｔｕｄｉｏ,,合同会社,東京都,渋谷区,神宮前６丁目２３番４号桑野ビル２階,,13,113,1500001,,,,,,,2022-11-15,1,,,,,ドラゴンクリエイティブスタジオ,0
2099,8011101100829,新規,0,2022-11-15,2022-11-15,株式会社ｐａｔｈｆｉｎｄｅｒ,,株式会社,東京都,新宿区,四谷坂町２番３号,,13,104,1600002,,,,,,,2022-11-15,1,,,,,パスファインダー,0
2100,8011101100845,新規,0,2022-11-15,2022-11-15,日本尹藤株式会社,,株式会社,東京都,新宿区,百人町２丁目１番４５号赤煉瓦２２８,,13,104,1690073,,,,,,,2022-11-15,1,,,,,ニホンイトウ,0
2101,8011101100853,新規,0,2022-11-15,2022-11-15,株式会社ネクスト,,株式会社,東京都,新宿区,西新宿３丁目３番１３号西新宿水間ビル６階,,13,104,1600023,,,,,,,2022-11-15,1,,,,,ネクスト,0
2102,8011103012378,新規,0,2022-11-15,2022-11-15,合同会社ＴＫＣ,,合同会社,東京都,新宿区,大久保１丁目１１番２１号,,13,104,1690072,,,,,,,2022-11-15,1,,,,,ティーケーシー,0
2103,8011103012386,新規,0,2022-11-15,2022-11-15,合同会社琴,00128477,合同会社,東京都,新宿区,百人町２丁目８番１３－６０３号,,13,104,1690073,,,,,,,2022-11-15,1,,,,,シオリ,0
2107,8011301028259,新規,0,2022-11-15,2022-11-15,アクロバイオシステムズ株式会社,,株式会社,東京都,杉並区,天沼２丁目７番７号マンション大竹３０１,,13,115,1670032,,,,,,,2022-11-15,1,,,,,アクロバイオシステムズ,0
2110,8011401024694,新規,0,2022-11-15,2022-11-15,ＮＦＣ株式会社,,株式会社,東京都,板橋区,成増３丁目１１番１４号,,13,119,1750094,,,,,,,2022-11-15,1,,,,,エヌエフシー,0
2120,8012801021967,新規,0,2022-11-15,2022-11-15,株式会社福ＨＩＲＯ,,株式会社,東京都,立川市,柴崎町３丁目１１番７号,,13,202,1900023,,,,,,,2022-11-15,1,,,,,フクヒロ,0
2130,8020001148936,新規,0,2022-11-15,2022-11-15,株式会社ｒｅｃｏｌｔｅ,,株式会社,神奈川県,横浜市磯子区,氷取沢町２０４番地４０号興人磯子台マンションＫ－４－３０４,,14,107,2350043,,,,,,,2022-11-15,1,,,,,レコルト,0
2131,8020001148985,新規,0,2022-11-15,2022-11-15,株式会社Ｂｅｅｄ,,株式会社,神奈川県,横浜市西区,西平沼町１番３２－２０２号,,14,103,2200024,,,,,,,2022-11-15,1,,,,,ビード,0
2132,8020001148993,新規,0,2022-11-15,2022-11-15,株式会社ＹＯＹＯ　ＶＩＮＴＡＧＥ,,株式会社,神奈川県,横浜市神奈川区,子安通３丁目３９５番地グーディッシュ新子安３０６号,,14,102,2210021,,,,,,,2022-11-15,1,,,,,ヨヨヴィンテージ,0
2133,8020001149001,新規,0,2022-11-15,2022-11-15,株式会社ＭＡＸＯＮ,,株式会社,神奈川県,横浜市都筑区,荏田南１丁目１１番５号,,14,118,2240007,,,,,,,2022-11-15,1,,,,,マクソン,0
2139,8021001077464,新規,0,2022-11-15,2022-11-15,株式会社デメテル,,株式会社,神奈川県,藤沢市,稲荷５２０番地,,14,205,2510862,,,,,,,2022-11-15,1,,,,,デメテル,0
2157,8040001125792,新規,0,2022-11-15,2022-11-15,株式会社刺繍縫,,株式会社,千葉県,柏市,柏３丁目８番１７－１０１号,,12,217,2770005,,,,,,,2022-11-15,1,,,,,シシュウヌイ,0
2171,8070003004711,新規,0,2022-11-15,2022-11-15,合同会社ＢＮＷｏｒｋｓ,,合同会社,群馬県,伊勢崎市,中町６９７番地エディフィス・ハギワラ３５－３１０,,10,204,3720822,,,,,,,2022-11-15,1,,,,,ビーエヌワークス,0
2174,8080101023645,新規,0,2022-11-15,2022-11-15,株式会社Ａ．Ｈ．Ｒ．ＴＲＡＤＩＮＧ,,株式会社,静岡県,富士市,富士岡３０８番地の１３ディアス神尾１０５号,,22,210,4170841,,,,,,,2022-11-15,1,,,,,エーエイチアールトレーディング,0
2176,8080403004657,新規,0,2022-11-15,2022-11-15,合同会社ＴＮＴ,,合同会社,静岡県,磐田市,福田４９５１番地１,,22,211,4371203,,,,,,,2022-11-15,1,,,,,ティーエヌティー,0
2182,8100001035853,新規,0,2022-11-15,2022-11-15,株式会社ＶｉｌｌａｇｅＩｎａ,,株式会社,長野県,伊那市,富県上新山８４１番地１,,20,209,3960621,,,,,,,2022-11-15,1,,,,,ビレッジイナ,0
2192,8120001250236,新規,0,2022-11-15,2022-11-15,株式会社ブライト,,株式会社,大阪府,大阪市福島区,福島７丁目１６番８号,,27,103,5530003,,,,,,,2022-11-15,1,,,,,ブライト,0
2193,8120001250376,新規,0,2022-11-15,2022-11-15,ＧＭＥ株式会社,,株式会社,大阪府,大阪市中央区,和泉町２丁目１番７号,,27,128,5400019,,,,,,,2022-11-15,1,,,,,ジーエムイー,0
2197,8120003022856,新規,0,2022-11-15,2022-11-15,合同会社ＦＦＫＯ,,合同会社,大阪府,大阪市福島区,海老江１丁目５番３０－１３０８号,,27,103,5530001,,,,,,,2022-11-15,1,,,,,エフエフケーオー,0
2200,8120005023299,新規,0,2022-11-15,2022-11-15,社会保険労務士法人さつき,,その他の設立登記法人,大阪府,大阪市中央区,谷町２丁目２番２０号大手前類第一ビル６階,,27,128,5400012,,,,,,,2022-11-15,1,,,,,サツキ,0
2205,8120101066532,新規,0,2022-11-15,2022-11-15,カーキデザイン株式会社,,株式会社,大阪府,泉北郡忠岡町,忠岡東１丁目１０番６号,,27,341,5950805,,,,,,,2022-11-15,1,,,,,カーキデザイン,0
2219,8140001128034,新規,0,2022-11-15,2022-11-15,株式会社ヒメジマーク製作所,,株式会社,兵庫県,姫路市,西夢前台２丁目２１番地の１,,28,201,6712214,,,,,,,2022-11-15,1,,,,,ヒメジマークセイサクショ,0
2220,8140001128075,新規,0,2022-11-15,2022-11-15,株式会社ＦＬ,,株式会社,兵庫県,神戸市中央区,下山手通３丁目３番５号,,28,110,6500011,,,,,,,2022-11-15,1,,,,,エフエル,0
2221,8140001128083,新規,0,2022-11-15,2022-11-15,株式会社ユーザリンクス,,株式会社,兵庫県,神戸市中央区,御幸通８丁目１番６号神戸国際会館２２階,,28,110,6510087,,,,,,,2022-11-15,1,,,,,ユーザリンクス,0
2222,8140001128091,新規,0,2022-11-15,2022-11-15,ＮＯＶＡ産業株式会社,,株式会社,兵庫県,神戸市中央区,雲井通１丁目１－１ツイン雲井ＦＬＥＸ２１－１１０号室,,28,110,6510096,,,,,,,2022-11-15,1,,,,,ノバサンギョウ,0
2229,8150001025949,新規,0,2022-11-15,2022-11-15,ａｔアドバンス株式会社,,株式会社,奈良県,香芝市,上中２６９－１プルミエールメゾン香芝２０１号,,29,210,6390265,,,,,,,2022-11-15,1,,,,,エイティーアドバンス,0
2231,8160001024652,新規,0,2022-11-15,2022-11-15,小林ＭＩＣ株式会社,,株式会社,滋賀県,大津市,仰木の里東３丁目５番１号,,25,201,5200248,,,,,,,2022-11-15,1,,,,,コバヤシミック,0
2255,8200001040678,新規,0,2022-11-15,2022-11-15,株式会社美濃建,,株式会社,岐阜県,美濃加茂市,山之上町３７番地１,,21,211,5050003,,,,,,,2022-11-15,1,,,,,ミノケン,0
2258,8220001025132,新規,0,2022-11-15,2022-11-15,株式会社金井電機,,株式会社,石川県,能美市,出口町イ４９番地,,17,211,9231247,,,,,,,2022-11-15,1,,,,,カナイデンキ,0
2262,8240001060623,新規,0,2022-11-15,2022-11-15,樹光産業株式会社,,株式会社,広島県,広島市安佐北区,可部町大字下町屋２１４６番地,,34,106,7310217,,,,,,,2022-11-15,1,,,,,,0
2263,8240001060656,新規,0,2022-11-15,2022-11-15,株式会社檜高建創,,株式会社,広島県,東広島市,西条町郷曽２６９１番地,,34,212,7390035,,,,,,,2022-11-15,1,,,,,ヒダカケンソウ,0
2264,8240001060664,新規,0,2022-11-15,2022-11-15,環光コネクト株式会社,,株式会社,広島県,廿日市市,宮浜温泉１丁目２０番２３号,,34,213,7390454,,,,,,,2022-11-15,1,,,,,ワコウコネクト,0
2267,8240003005898,新規,0,2022-11-15,2022-11-15,合同会社ＰＴ,,合同会社,広島県,広島市西区,中広町３丁目８番８－４０３号,,34,104,7330012,,,,,,,2022-11-15,1,,,,,ピーティー,0
2270,8260001037413,新規,0,2022-11-15,2022-11-15,ブレイクスルー株式会社,,株式会社,岡山県,倉敷市,林２０８１番地,,33,202,7100142,,,,,,,2022-11-15,1,,,,,ブレイクスルー,0
2271,8260005011158,新規,0,2022-11-15,2022-11-15,ＫＥＮＢＩ　ＩＮＴＥＲＮＡＴＩＯＮＡＬ事業協同組合,,その他の設立登記法人,岡山県,岡山市中区,長岡９９番地１,,33,102,7038221,,,,,,,2022-11-15,1,,,,,ケンビインターナショナル,0
2280,8290003013194,新規,0,2022-11-15,2022-11-15,合同会社Ｓｔａｎ,,合同会社,福岡県,久留米市,御井町２１３９番６号ＡＬＬＥＹ９Ａ棟,,40,203,8390851,,,,,,,2022-11-15,1,,,,,スタン,0
2297,8330001030303,新規,0,2022-11-15,2022-11-15,株式会社Ｏｋｉｎｉｉｒｉ,,株式会社,熊本県,玉名郡和水町,上和仁３５０番地２,,43,369,8610901,,,,,,,2022-11-15,1,,,,,オキニイリ,0
2298,8340001025178,新規,0,2022-11-15,2022-11-15,株式会社想建,,株式会社,鹿児島県,霧島市,国分下井４４６番地２,,46,218,8994463,,,,,,,2022-11-15,1,,,,,ソウケン,0
2300,8360001031208,新規,0,2022-11-15,2022-11-15,株式会社ＬＥＡＳＴ,,株式会社,沖縄県,中頭郡読谷村,字長浜２１８９番１,,47,324,9040324,,,,,,,2022-11-15,1,,,,,リースト,0
2309,8370005010553,新規,0,2022-11-15,2022-11-15,行政書士法人宮城中央事務所,,その他の設立登記法人,宮城県,仙台市若林区,荒井７丁目２番地の８,,04,103,9840032,,,,,,,2022-11-15,1,,,,,ミヤギチュウオウジムショ,0
2311,8380003005323,新規,0,2022-11-15,2022-11-15,Ｎ．ＴＲＡＤＩＮＧ合同会社,,合同会社,福島県,東白川郡棚倉町,大字塚原字強清水７３番地,,07,481,9635664,,,,,,,2022-11-15,1,,,,,エヌトレーディング,0
2320,8420001018074,新規,0,2022-11-15,2022-11-15,株式会社アイツーリンク,,株式会社,青森県,弘前市,南大町１丁目９－１９,,02,202,,,,,,,,2022-11-15,1,,,,,アイツーリンク,0
2329,8430001087845,新規,0,2022-11-15,2022-11-15,株式会社ＫＥＩＥＩ,,株式会社,北海道,札幌市中央区,南二条西７丁目９番地６,,01,101,0600062,,,,,,,2022-11-15,1,,,,,ケイエイ,0
2335,8470003002286,新規,0,2022-11-15,2022-11-15,合同会社ＦＡ,,合同会社,香川県,善通寺市,善通寺町４丁目７番２８号,,37,204,7650003,,,,,,,2022-11-15,1,,,,,エフエー,0
2346,9010001230859,新規,0,2022-11-15,2022-11-15,株式会社Ｌｉｅｎ　Ｐｌｕｓ,,株式会社,東京都,千代田区,神田須田町１丁目７番１号,,13,101,1010041,,,,,,,2022-11-15,1,,,,,リアンプラス,0
2349,9010003039019,新規,0,2022-11-15,2022-11-15,珍島信息技術合同会社,,合同会社,東京都,千代田区,飯田橋２丁目１６－４九段下コート２Ｆ－２１５号室,,13,101,1020072,,,,,,,2022-11-15,1,,,,,チントウシンソクギジュツ,0
2350,9010003039092,新規,0,2022-11-15,2022-11-15,ＲＢソーラーミレー合同会社,,合同会社,東京都,中央区,八丁堀４丁目２番１０号ＡＯＪ税理士法人内,,13,102,1040032,,,,,,,2022-11-15,1,,,,,アールビーソーラーミレー,0
2357,9010401170845,新規,0,2022-11-15,2022-11-15,株式会社富安,,株式会社,東京都,港区,赤坂９丁目１番２号－ザ・レジデンス赤坂檜町３１５号室,,13,103,1070052,,,,,,,2022-11-15,1,,,,,トミヤス,0
2358,9010401170878,新規,0,2022-11-15,2022-11-15,ＡＲＮＪＡＰＡＮ株式会社,,株式会社,東京都,港区,芝５丁目３６－４札の辻スクエア９階,,13,103,1080014,,,,,,,2022-11-15,1,,,,,エーアールエヌジャパン,0
2368,9010701043453,新規,0,2022-11-15,2022-11-15,株式会社Ｖｅｒｉｔｅａ,,株式会社,東京都,品川区,東五反田２丁目１９番４号,,13,109,1410022,,,,,,,2022-11-15,1,,,,,ヴェリティ,0
2369,9010701043486,新規,0,2022-11-15,2022-11-15,株式会社ｍｏｖｅ,,株式会社,東京都,品川区,西五反田２丁目１０－８,,13,109,1410031,,,,,,,2022-11-15,1,,,,,ムーブ,0
2374,9010801033437,新規,0,2022-11-15,2022-11-15,株式会社Ｈ．Ｙ,,株式会社,東京都,大田区,大森北１丁目３１番５号大森大東ビル６０２,,13,111,1430016,,,,,,,2022-11-15,1,,,,,エイチワイ,0
2394,9011003015678,新規,0,2022-11-15,2022-11-15,合同会社ＳｏＦＦ,,合同会社,東京都,目黒区,鷹番３丁目１３番５号シャンボール学芸大学３０７,,13,110,1520004,,,,,,,2022-11-15,1,,,,,ソフ,0
2395,9011003015694,新規,0,2022-11-15,2022-11-15,縁パワーマーケティング合同会社,,合同会社,東京都,渋谷区,神宮前６丁目２３番４号桑野ビル２階,,13,113,1500001,,,,,,,2022-11-15,1,,,,,エンパワーマーケティング,0
2396,9011003015703,新規,0,2022-11-15,2022-11-15,合同会社エネスフィア,,合同会社,東京都,渋谷区,道玄坂１丁目１０番８号渋谷道玄坂東急ビル２Ｆ－Ｃ,,13,113,1500043,,,,,,,2022-11-15,1,,,,,エネスフィア,0
2401,9011101100836,新規,0,2022-11-15,2022-11-15,株式会社ファン・ファーレ,,株式会社,東京都,新宿区,西早稲田２丁目２０番１０－６０４号,,13,104,1690051,,,,,,,2022-11-15,1,,,,,ファンファーレ,0
2404,9011401024693,新規,0,2022-11-15,2022-11-15,株式会社くまだ商店,,株式会社,東京都,板橋区,徳丸２丁目３番４号カンダビルＢ階１号,,13,119,1750083,,,,,,,2022-11-15,1,,,,,クマダショウテン,0
2408,9011701025788,新規,0,2022-11-15,2022-11-15,株式会社Ｙ’Ｓ　ＧＥＭＳ,,株式会社,東京都,江戸川区,東小岩１丁目１７番１７号,,13,123,1330052,,,,,,,2022-11-15,1,,,,,ワイズジェムズ,0
2411,9011803005366,新規,0,2022-11-15,2022-11-15,Ｓｔｒａｓｓｅ合同会社,,合同会社,東京都,足立区,足立１丁目３６番１１号,,13,121,1200015,,,,,,,2022-11-15,1,,,,,シュトラーセ,0
2413,9012401039847,新規,0,2022-11-15,2022-11-15,株式会社ＪＯＨ,,株式会社,東京都,三鷹市,井の頭１丁目２２番７号ｖｉｌｌａ井の頭３０１,,13,204,1810001,,,,,,,2022-11-15,1,,,,,ジョウ,0
2414,9012401039863,新規,0,2022-11-15,2022-11-15,株式会社ＫＩＫ　Ｔｅｃｈ,,株式会社,東京都,府中市,府中町１丁目２７－４ｕｒｂａｎｈｏｕｓｅ２０５,,13,206,1830055,,,,,,,2022-11-15,1,,,,,キックテック,0
2417,9012801021958,新規,0,2022-11-15,2022-11-15,株式会社マンバイナレッジ,,株式会社,東京都,昭島市,玉川町３丁目１６－１４三浦ビル２階Ａ室,,13,207,1960034,,,,,,,2022-11-15,1,,,,,マンバイナレッジ,0
2418,9013103001186,新規,0,2022-11-15,2022-11-15,合同会社八百万神弥栄制作所,,合同会社,東京都,青梅市,柚木町２丁目３９９番地の２,,13,205,1980064,,,,,,,2022-11-15,1,,,,,ヤオヨロズノカミイヤサカセイサクジョ,0
2424,9013303006373,新規,0,2022-11-15,2022-11-15,ＡＮ　ＣＨＡＵ合同会社,,合同会社,東京都,豊島区,南大塚２丁目４６番１南大塚ＫＭビル５階,,13,116,1700005,,,,,,,2022-11-15,1,,,,,アンチャウ,0
2435,9020001148951,新規,0,2022-11-15,2022-11-15,株式会社Ａ＆Ａ,,株式会社,神奈川県,横浜市戸塚区,平戸町１２１３番地２１,,14,110,2440803,,,,,,,2022-11-15,1,,,,,エーアンドエー,0
2436,9020001149000,新規,0,2022-11-15,2022-11-15,株式会社島田,,株式会社,神奈川県,川崎市中原区,井田１丁目２番２号,,14,133,2110035,,,,,,,2022-11-15,1,,,,,シマダ,0
2440,9020005015719,新規,0,2022-11-15,2022-11-15,一般社団法人ポートサイドＡ＆Ｄストリート,,その他の設立登記法人,神奈川県,横浜市港南区,丸山台２丁目３９－７,,14,111,2330013,,,,,,,2022-11-15,1,,,,,ポートサイドエーアンドディストリート,0
2442,9021001077463,新規,0,2022-11-15,2022-11-15,株式会社デン・バ,,株式会社,神奈川県,相模原市南区,東林間３丁目１１－１２アビタシオン東林間１０２,,14,153,2520311,,,,,,,2022-11-15,1,,,,,デンバ,0
2468,9040001125833,新規,0,2022-11-15,2022-11-15,株式会社Ｊａｐａｎ　Ｏｆｆｉｃｅ　Ａｇｅｎｔ,,株式会社,千葉県,千葉市花見川区,武石町２丁目６２６番地１グランフラッツ幕張３０５号,,12,102,2620031,,,,,,,2022-11-15,1,,,,,ジャパンオフィスエージェント,0
2475,9050003007021,新規,0,2022-11-15,2022-11-15,３ＢＲＯ　ＡＵＴＯ　ＴＲＡＤＩＮＧ合同会社,,合同会社,茨城県,下妻市,黒駒１０５３番３,,08,210,3040007,,,,,,,2022-11-15,1,,,,,スリーブロオートトレーディング,0
2476,9050005013166,新規,0,2022-11-15,2022-11-15,一般社団法人おやこリンクサービス,,その他の設立登記法人,茨城県,つくば市,宝陽台２番地１０,,08,220,3001254,,,,,,,2022-11-15,1,,,,,オヤコリンクサービス,0
2482,9080101023644,新規,0,2022-11-15,2022-11-15,株式会社ＣＡＰＤ,,株式会社,静岡県,沼津市,大手町３丁目８番１号横濱屋ビル７階,,22,203,4100801,,,,,,,2022-11-15,1,,,,,キャップディー,0
2485,9100001035885,新規,0,2022-11-15,2022-11-15,株式会社Ｒｅ　Ａｒｔ,,株式会社,長野県,駒ヶ根市,赤穂１６７１２番地２４,,20,210,3994117,,,,,,,2022-11-15,1,,,,,リアート,0
2486,9110001037088,新規,0,2022-11-15,2022-11-15,株式会社木村自動車,,株式会社,新潟県,上越市,柿崎区柿崎７６２番地,,15,222,9493216,,,,,,,2022-11-15,1,,,,,キムラジドウシャ,0
2493,9120001250334,新規,0,2022-11-15,2022-11-15,株式会社ＮＯＮＧ　ＣＲＥＡＴＩＶＥ,,株式会社,大阪府,大阪市東住吉区,駒川３丁目６番２号,,27,121,5460043,,,,,,,2022-11-15,1,,,,,ノンクリエイティブ,0
2494,9120001250350,新規,0,2022-11-15,2022-11-15,株式会社キャリアリテイリング,,株式会社,大阪府,大阪市中央区,博労町４丁目６－１４ラポビル４Ｆ,,27,128,5410059,,,,,,,2022-11-15,1,,,,,キャリアリテイリング,0
2501,9120101066531,新規,0,2022-11-15,2022-11-15,株式会社シリウス,,株式会社,大阪府,堺市北区,百舌鳥西之町１丁２１３番地,,27,146,5918033,,,,,,,2022-11-15,1,,,,,シリウス,0
2523,9140001128074,新規,0,2022-11-15,2022-11-15,株式会社ＳＯＥＩ,,株式会社,兵庫県,加古川市,野口町北野７５０番地の２１,,28,210,6750011,,,,,,,2022-11-15,1,,,,,ソーエイ,0
2529,9150001025956,新規,0,2022-11-15,2022-11-15,株式会社奈良住設,,株式会社,奈良県,橿原市,中曽司町４３３番３５号,,29,205,6340845,,,,,,,2022-11-15,1,,,,,ナラジュウセツ,0
2539,9180001153845,新規,0,2022-11-15,2022-11-15,株式会社ＡＴＨ,,株式会社,愛知県,清須市,西枇杷島町南松原２４番地,,23,233,4520053,,,,,,,2022-11-15,1,,,,,エーティーエイチ,0
2545,9180003024490,新規,0,2022-11-15,2022-11-15,合同会社ヒラマツ＆Ｃｏ．,,合同会社,愛知県,名古屋市千種区,日和町４丁目１８番地,,23,101,4640039,,,,,,,2022-11-15,1,,,,,ヒラマツアンドカンパニー,0
2549,9200001040677,新規,0,2022-11-15,2022-11-15,株式会社エビアンクリエーション,,株式会社,岐阜県,不破郡垂井町,１７８３番地の５,,21,361,5032121,,,,,,,2022-11-15,1,,,,,エビアンクリエーション,0
2551,9210001019159,新規,0,2022-11-15,2022-11-15,馬淵住宅株式会社,,株式会社,福井県,大飯郡高浜町,青第６号２４番地２,,18,481,9192384,,,,,,,2022-11-15,1,,,,,マブチジュウタク,0
2555,9240001060663,新規,0,2022-11-15,2022-11-15,株式会社ＳＡＺＡＮＺＡＣ,,株式会社,広島県,東広島市,黒瀬春日野１丁目１９番地７,,34,212,7392615,,,,,,,2022-11-15,1,,,,,サザンザック,0
2561,9250003003181,新規,0,2022-11-15,2022-11-15,ＳＳＫ合同会社,,合同会社,山口県,山陽小野田市,厚狭１丁目６番１６号,,35,216,7570001,,,,,,,2022-11-15,1,,,,,エスエスケイ,0
2562,9260001037412,新規,0,2022-11-15,2022-11-15,昊甲株式会社,,株式会社,岡山県,総社市,中央１丁目１０番２４号,,33,208,7191131,,,,,,,2022-11-15,1,,,,,ゴウコウ,0
2566,9280001008824,新規,0,2022-11-15,2022-11-15,株式会社萌奏運送,,株式会社,島根県,雲南市,木次町東日登２４０番地１,,32,209,6991323,,,,,,,2022-11-15,1,,,,,ホノカウンソウ,0
2570,9290001099581,新規,0,2022-11-15,2022-11-15,株式会社ＳＯＲＡ,,株式会社,福岡県,大野城市,瓦田１丁目５番１５号,,40,219,8160932,,,,,,,2022-11-15,1,,,,,ソラ,0
2572,9290005018851,新規,0,2022-11-15,2022-11-15,一般社団法人大川スタンドバイツリー,,その他の設立登記法人,福岡県,大川市,大字九網３５７番地１,,40,212,8310042,,,,,,,2022-11-15,1,,,,,オオカワスタンドバイツリー,0
2579,9340001025177,新規,0,2022-11-15,2022-11-15,ケンファーム株式会社,,株式会社,鹿児島県,垂水市,新御堂１３３２番地５,,46,214,8912111,,,,,,,2022-11-15,1,,,,,ケンファーム,0
2588,9370001049264,新規,0,2022-11-15,2022-11-15,株式会社金成,,株式会社,宮城県,仙台市青葉区,川平３丁目１６－１４エクセルシャトー川平１０２,,04,101,9810954,,,,,,,2022-11-15,1,,,,,カネナリ,0
2598,9410001013323,新規,0,2022-11-15,2022-11-15,スミケンホールディングス株式会社,,株式会社,秋田県,秋田市,楢山川口境７番１９号,,05,201,0100029,,,,,,,2022-11-15,1,,,,,スミケンホールディングス,0
2603,9430001087860,新規,0,2022-11-15,2022-11-15,株式会社ＬＯＰＩ,,株式会社,北海道,札幌市手稲区,稲穂二条７丁目７番１号,,01,109,0060032,,,,,,,2022-11-15,1,,,,,ロピ,0
2605,9460301005107,新規,0,2022-11-15,2022-11-15,株式会社島田商事,,株式会社,北海道,北見市,東相内町６６８番地４,,01,208,0990878,,,,,,,2022-11-15,1,,,,,シマダショウジ,0
2613,9700150111856,新規,0,2022-11-15,2022-09-26,たき火の会,,その他,東京都,北区,王子５丁目２－５－７１０,,13,117,1140002,,,,,,,2022-09-26,1,,,,,タキビノカイ,0
2614,9700150112474,新規,0,2022-11-15,2022-11-01,Ｍ’Ｎａｖｉ　Ｓｔａｔｉｏｎ　音楽畑,,その他,群馬県,前橋市,富士見町横室１２０－５,,10,201,3710117,,,,,,,2022-11-01,1,,,,,エムナビステーシヨンオンガクバタケ,0
