sequenceNumber,corporateNumber,process,correct,updateDate,changeDate,name,nameImageId,kind,prefectureName,cityName,streetNumber,addressImageId,prefectureCode,cityCode,postCode,addressOutside,addressOutsideImageId,closeDate,closeCause,successorCorporateNumber,changeCause,assignmentDate,latest,enName,enPrefectureName,enCityName,enAddressOutside,furigana,hihyoji
10,1010001256655,新規,0,2025-07-14,2025-07-14,株式会社ｄｏｔｔｅｔｅ,,株式会社,東京都,中央区,銀座１丁目１２番地４号Ｎ＆ＥＢＬＤ．６Ｆ,,13,102,1040061,,,,,,,2025-07-14,1,,,,,ドッテテ,0
11,1010001256820,新規,0,2025-07-14,2025-07-14,スコル株式会社,,株式会社,東京都,中央区,銀座１丁目１２番４号Ｎ＆Ｅビル６階,,13,102,1040061,,,,,,,2025-07-14,1,,,,,スコル,0
15,1010003047862,新規,0,2025-07-14,2025-07-14,合同会社共響知,,合同会社,東京都,千代田区,丸の内１丁目１１番１号,,13,101,1000005,,,,,,,2025-07-14,1,,,,,,0
16,1010003047937,新規,0,2025-07-14,2025-07-14,犬吠風力合同会社,,合同会社,東京都,千代田区,霞が関３丁目７－１霞が関東急ビル,,13,101,1000013,,,,,,,2025-07-14,1,,,,,イヌボウフウリョク,0
22,1010401191304,新規,0,2025-07-14,2025-07-14,株式会社メメントモリ,,株式会社,東京都,港区,浜松町２丁目２番１５号,,13,103,1050013,,,,,,,2025-07-14,1,,,,,メメントモリ,0
23,1010401191717,新規,0,2025-07-14,2025-07-14,ＮＬＰｅａｎｕｔｓ株式会社,,株式会社,東京都,港区,六本木３丁目１６番１２号六本木ＫＳビル５Ｆ,,13,103,1060032,,,,,,,2025-07-14,1,,,,,エヌエルピーナッツ,0
28,1010501054369,新規,0,2025-07-14,2025-07-14,株式会社ＴＫショップ,,株式会社,東京都,台東区,千束３丁目２０－１９－１０１,,13,106,1110031,,,,,,,2025-07-14,1,,,,,ティーケーショップ,0
29,1010501054402,新規,0,2025-07-14,2025-07-14,八和商事株式会社,,株式会社,東京都,台東区,台東４丁目２９－１５－６０９,,13,106,1100016,,,,,,,2025-07-14,1,,,,,ハチワショウジ,0
32,1010603011689,新規,0,2025-07-14,2025-07-14,合同会社ゼク,,合同会社,東京都,江東区,白河２丁目２２番１－１２０５号,,13,108,1350021,,,,,,,2025-07-14,1,,,,,ゼク,0
36,1010801036364,新規,0,2025-07-14,2025-07-14,株式会社ワイサン電機,,株式会社,東京都,大田区,羽田４丁目１０番９号,,13,111,1440043,,,,,,,2025-07-14,1,,,,,ワイサンデンキ,0
37,1010803005474,新規,0,2025-07-14,2025-07-14,Ｎｕｒｏ　Ｔｅｃｈｎｏｌｏｇｙ　Ｔｏｋｙｏ合同会社,,合同会社,東京都,大田区,平和島６丁目１番１号,,13,111,1430006,,,,,,,2025-07-14,1,,,,,ニューロテクノロジートウキョウ,0
40,1010903010093,新規,0,2025-07-14,2025-07-14,合同会社じんぶん,,合同会社,東京都,世田谷区,経堂５丁目２４番６号,,13,112,1560052,,,,,,,2025-07-14,1,,,,,ジンブン,0
44,1011001170730,新規,0,2025-07-14,2025-07-14,株式会社ＦＯＵＲ　Ｓ　ＦＯＲ,,株式会社,東京都,渋谷区,神宮前６丁目２３番４号桑野ビル２階,,13,113,1500001,,,,,,,2025-07-14,1,,,,,フォーエスフォー,0
45,1011001170739,新規,0,2025-07-14,2025-07-14,Ｓｈａｍｏｊｉ＆Ｃｏ．株式会社,,株式会社,東京都,渋谷区,道玄坂１丁目１０番８号渋谷道玄坂東急ビル２Ｆ－Ｃ,,13,113,1500043,,,,,,,2025-07-14,1,,,,,シャモジアンドコー,0
46,1011001170838,新規,0,2025-07-14,2025-07-14,Ｉｎｖｉｓｉｂｌｅ　ＡＩ株式会社,,株式会社,東京都,渋谷区,道玄坂１丁目１２－１渋谷マークシティ２２Ｆ,,13,113,1500043,,,,,,,2025-07-14,1,,,,,インビジブルエイアイ,0
48,1011003021989,新規,0,2025-07-14,2025-07-14,バルーンイベント合同会社,,合同会社,東京都,渋谷区,道玄坂１丁目１０番８号渋谷道玄坂東急ビル２Ｆ－Ｃ,,13,113,1500043,,,,,,,2025-07-14,1,,,,,バルーンイベント,0
54,1011101112442,新規,0,2025-07-14,2025-07-14,株式会社Ｘｉｖｉｌｉｚａｔｉｏｎ,,株式会社,東京都,新宿区,西新宿１丁目２０番３号,,13,104,1600023,,,,,,,2025-07-14,1,,,,,シヴィリゼーション,0
55,1011101112459,新規,0,2025-07-14,2025-07-14,新陽リアルエステート株式会社,,株式会社,東京都,新宿区,戸山１丁目１番５号エールプラザ戸山台２０４,,13,104,1620052,,,,,,,2025-07-14,1,,,,,シンヨウリアルエステート,0
58,1011201026501,新規,0,2025-07-14,2025-07-14,ＮｅａｒＰａｙ株式会社,,株式会社,東京都,中野区,本町５丁目２８番１７号モン・シャトー中野本町２０１,,13,114,1640012,,,,,,,2025-07-14,1,,,,,ニヤペイ,0
61,1011501032315,新規,0,2025-07-14,2025-07-14,ＳＡＫＵＲＡ　ｃｏｌｏｒｅ株式会社,,株式会社,東京都,荒川区,南千住１丁目５３番１２号,,13,118,1160003,,,,,,,2025-07-14,1,,,,,サクラコローレ,0
62,1011601028799,新規,0,2025-07-14,2025-07-14,日本ＭｅｄｉＣａｒｅ　Ｌｉｎｋ株式会社,,株式会社,東京都,練馬区,上石神井３丁目３４番４号,,13,120,1770044,,,,,,,2025-07-14,1,,,,,ニホンメディケアリンク,0
72,1020001163702,新規,0,2025-07-14,2025-07-14,株式会社ＹＭＤ,,株式会社,神奈川県,川崎市中原区,苅宿４番４９号,,14,133,2110022,,,,,,,2025-07-14,1,,,,,ワイエムディー,0
73,1020001163784,新規,0,2025-07-14,2025-07-14,ムラタ商事株式会社,,株式会社,神奈川県,川崎市川崎区,駅前本町４－１２ムラタヤビルアネックス５Ｆ,,14,131,2100007,,,,,,,2025-07-14,1,,,,,ムラタショウジ,0
74,1020001163909,新規,0,2025-07-14,2025-07-14,株式会社サンライズ,,株式会社,神奈川県,横浜市神奈川区,金港町５番地１４クアドリフォリオ８階,,14,102,2210056,,,,,,,2025-07-14,1,,,,,サンライズ,0
75,1020003028894,新規,0,2025-07-14,2025-07-14,ＡＩＳ合同会社,,合同会社,神奈川県,川崎市多摩区,登戸３９７番地１パールハイム参番館２０４,,14,135,2140014,,,,,,,2025-07-14,1,,,,,アイス,0
76,1020003028903,新規,0,2025-07-14,2025-07-14,合同会社ＥＡＴＨＮＯ,,合同会社,神奈川県,川崎市川崎区,東門前２丁目２番１５－１０３号パークサイド大師,,14,131,2100812,,,,,,,2025-07-14,1,,,,,イースノ,0
77,1021001085663,新規,0,2025-07-14,2025-07-14,広業株式会社,,株式会社,神奈川県,大和市,草柳１丁目１９番地９田園リビングマート１４号室,,14,213,2420026,,,,,,,2025-07-14,1,,,,,ヒロギョウ,0
80,1021003016229,新規,0,2025-07-14,2025-07-14,合同会社ワンズピースファーム,,合同会社,神奈川県,中郡大磯町,国府本郷７６９―１,,14,341,2590111,,,,,,,2025-07-14,1,,,,,ワンズピースファーム,0
81,1021003016245,新規,0,2025-07-14,2025-07-14,ＢＥＡＲＲＯＷＳ　Ｊａｐａｎ合同会社,,合同会社,神奈川県,横須賀市,田浦町４丁目１１番地,,14,201,2370075,,,,,,,2025-07-14,1,,,,,ベアローズジャパン,0
83,1030001167611,新規,0,2025-07-14,2025-07-14,株式会社Ｈａｌｅｎｆｏｌｄ,,株式会社,埼玉県,草加市,氷川町２１４番地７,,11,221,3400034,,,,,,,2025-07-14,1,,,,,ハレンホルド,0
86,1030003027152,新規,0,2025-07-14,2025-07-14,Ｚｅｎｉｔｈ　Ａｓｃｅｎｔ合同会社,,合同会社,埼玉県,越谷市,北越谷４丁目２３－１６－１０３号,,11,222,3430026,,,,,,,2025-07-14,1,,,,,ゼニスアセント,0
87,1030003027202,新規,0,2025-07-14,2025-07-14,合同会社エムファイブ,,合同会社,埼玉県,所沢市,大字荒幡１３６番地の１,,11,208,3591133,,,,,,,2025-07-14,1,,,,,エムファイブ,0
89,1040001139527,新規,0,2025-07-14,2025-07-14,株式会社ハマナカ,,株式会社,千葉県,市川市,相之川３丁目３番１４号,,12,203,2720143,,,,,,,2025-07-14,1,,,,,ハマナカ,0
90,1040001139634,新規,0,2025-07-14,2025-07-14,株式会社ライジングファン,,株式会社,千葉県,成田市,江弁須２２０番地１９・１０３号室,,12,211,2860047,,,,,,,2025-07-14,1,,,,,ライジングファン,0
91,1040001139683,新規,0,2025-07-14,2025-07-14,株式会社アニマ,,株式会社,千葉県,流山市,平和台３丁目４番１１,,12,220,2700157,,,,,,,2025-07-14,1,,,,,アニマ,0
93,1050001056886,新規,0,2025-07-14,2025-07-14,さわやかケア株式会社,,株式会社,茨城県,坂東市,猫実１４２１番地２,,08,228,3060616,,,,,,,2025-07-14,1,,,,,サワヤカケア,0
94,1050001056936,新規,0,2025-07-14,2025-07-14,株式会社リバーガーデン,,株式会社,茨城県,稲敷市,堀川１６７番地２,,08,229,3001421,,,,,,,2025-07-14,1,,,,,リバーガーデン,0
95,1050001056944,新規,0,2025-07-14,2025-07-14,株式会社ＦＵＮＯＮ,,株式会社,茨城県,結城市,若宮８番地３２,,08,207,3070017,,,,,,,2025-07-14,1,,,,,ファノン,0
96,1050003009421,新規,0,2025-07-14,2025-07-14,ピーシーエム合同会社,,合同会社,茨城県,常総市,水海道亀岡町５００７番地５,,08,211,3030025,,,,,,,2025-07-14,1,,,,,ピーシーエム,0
99,1060003005642,新規,0,2025-07-14,2025-07-14,ＭＡＲＷＡＨ合同会社,,合同会社,栃木県,栃木市,岩舟町新里１３０３－２,,09,203,3294316,,,,,,,2025-07-14,1,,,,,マルワ,0
104,1090001019385,新規,0,2025-07-14,2025-07-14,ＴＲＩＢＡＹ株式会社,,株式会社,山梨県,甲府市,住吉５丁目２５番１４号ＩＫビル２０５号,,19,201,4000851,,,,,,,2025-07-14,1,,,,,トライベイ,0
107,1100001038771,新規,0,2025-07-14,2025-07-14,野竹建材株式会社,,株式会社,長野県,下高井郡山ノ内町,大字夜間瀬８７３５番地１,,20,561,3810405,,,,,,,2025-07-14,1,,,,,ノタケケンザイ,0
116,1120001277764,新規,0,2025-07-14,2025-07-14,株式会社ＮＥＷリメイク,,株式会社,大阪府,大阪市北区,梅田２丁目５番１３号桜橋第一ビル３０４号,,27,127,5300001,,,,,,,2025-07-14,1,,,,,ニューリメイク,0
117,1120001277855,新規,0,2025-07-14,2025-07-14,南順株式会社,,株式会社,大阪府,大阪市西成区,花園北２丁目７－１１－１０１号,,27,122,5570016,,,,,,,2025-07-14,1,,,,,ナンジュン,0
119,1120005025038,新規,0,2025-07-14,2025-07-14,医療法人社団正惠会,,その他の設立登記法人,大阪府,交野市,幾野４丁目１６番３５号,,27,230,5760054,,,,,,,2025-07-14,1,,,,,セイケイカイ,0
120,1120101072058,新規,0,2025-07-14,2025-07-14,株式会社Ｐａｒａｄｏｎ,,株式会社,大阪府,堺市南区,原山台４丁９番４－４０６号,,27,145,5900132,,,,,,,2025-07-14,1,,,,,パラドン,0
121,1120103006559,新規,0,2025-07-14,2025-07-14,合同会社ＨＯＮＵ,,合同会社,大阪府,松原市,天美南２丁目１３２番地の１２,,27,217,5800033,,,,,,,2025-07-14,1,,,,,ホヌ,0
127,1120901051186,新規,0,2025-07-14,2025-07-14,プロテック株式会社,,株式会社,大阪府,茨木市,若園町５番１５号,,27,211,5670894,,,,,,,2025-07-14,1,,,,,プロテック,0
128,1120901051194,新規,0,2025-07-14,2025-07-14,株式会社シーソー,,株式会社,大阪府,吹田市,千里山月が丘７番１－３０６号,,27,205,5650847,,,,,,,2025-07-14,1,,,,,シーソー,0
129,1122001039418,新規,0,2025-07-14,2025-07-14,長野左官株式会社,,株式会社,大阪府,東大阪市,新池島町３丁目１０番３７号,,27,227,5798065,,,,,,,2025-07-14,1,,,,,ナガノサカン,0
132,1130001080093,新規,0,2025-07-14,2025-07-14,株式会社ＫＳ重量,,株式会社,京都府,京都市西京区,大枝沓掛町１３番地４,,26,111,6101106,,,,,,,2025-07-14,1,,,,,ケーエスジュウリョウ,0
141,1140001139236,新規,0,2025-07-14,2025-07-14,株式会社一和建設,,株式会社,兵庫県,神戸市灘区,大石東町５丁目８－１東和ビルＩＩ２１１号,00139913,28,102,6570043,,,,,,,2025-07-14,1,,,,,イチワケンセツ,0
144,1140005027560,新規,0,2025-07-14,2025-07-14,一般社団法人六甲総合政策研究所,,その他の設立登記法人,兵庫県,神戸市東灘区,向洋町中１丁目１０番地１０１号棟１００８号室,,28,101,6580032,,,,,,,2025-07-14,1,,,,,ロッコウソウゴウセイサクケンキュウジョ,0
147,1160001026894,新規,0,2025-07-14,2025-07-14,株式会社ナオタート,,株式会社,滋賀県,長浜市,泉町１１８６番地３,,25,203,5260003,,,,,,,2025-07-14,1,,,,,ナオタート,0
148,1160003003537,新規,0,2025-07-14,2025-07-14,合同会社Ｋａｎａｄａｙａ,,合同会社,滋賀県,大津市,粟津町６番１０号,,25,201,5200832,,,,,,,2025-07-14,1,,,,,カナダヤ,0
149,1170003002240,新規,0,2025-07-14,2025-07-14,ミライのミカタ合同会社,,合同会社,和歌山県,和歌山市,中７００番地７０,,30,201,6408451,,,,,,,2025-07-14,1,,,,,ミライノミカタ,0
152,1180001167720,新規,0,2025-07-14,2025-07-14,株式会社柳瀬業務店,,株式会社,愛知県,名古屋市港区,寛政町９丁目１５番地,,23,111,4550066,,,,,,,2025-07-14,1,,,,,ヤナセギョウムテン,0
153,1180001167753,新規,0,2025-07-14,2025-07-14,イージス商会株式会社,,株式会社,愛知県,名古屋市東区,東桜２丁目３番７号,,23,102,4610005,,,,,,,2025-07-14,1,,,,,イージスショウカイ,0
174,1240003007307,新規,0,2025-07-14,2025-07-14,合同会社ソライロ,,合同会社,広島県,安芸高田市,八千代町下根３８７番地１,,34,214,7310304,,,,,,,2025-07-14,1,,,,,ソライロ,0
178,1260001040324,新規,0,2025-07-14,2025-07-14,Ｑｕａｒｔｅｔ株式会社,,株式会社,岡山県,岡山市北区,東古松４８５－６,,33,101,7000921,,,,,,,2025-07-14,1,,,,,カルテット,0
179,1270001009244,新規,0,2025-07-14,2025-07-14,株式会社大虎,,株式会社,鳥取県,鳥取市,面影１丁目３７番１１‐１０７号,,31,201,6800855,,,,,,,2025-07-14,1,,,,,オオトラ,0
180,1270005005652,新規,0,2025-07-14,2025-07-14,一般社団法人鳥取県活かす空き家協会,,その他の設立登記法人,鳥取県,米子市,夜見町３０８８番地,,31,202,6830851,,,,,,,2025-07-14,1,,,,,,0
191,1290001110685,新規,0,2025-07-14,2025-07-14,春泉貿易株式会社,,株式会社,福岡県,福岡市南区,高宮３丁目１－１６セリエ高宮２０２号,,40,134,8150083,,,,,,,2025-07-14,1,,,,,シュンセンボウエキ,0
192,1290001110710,新規,0,2025-07-14,2025-07-14,株式会社さとこむ,,株式会社,福岡県,福岡市中央区,天神２丁目３番３６号ｉｂｂｆｕｋｕｏｋａ５０１,,40,133,8100001,,,,,,,2025-07-14,1,,,,,サトコム,0
193,1290001110719,新規,0,2025-07-14,2025-07-14,株式会社エルクスター出版,,株式会社,福岡県,福岡市早良区,城西１丁目５番２５－９０５号,,40,137,8140003,,,,,,,2025-07-14,1,,,,,エルクスターシュッパン,0
194,1290001110743,新規,0,2025-07-14,2025-07-14,株式会社ＵＰ‐ＯＨ,,株式会社,福岡県,福岡市東区,御島崎２丁目６－１５－２０６,,40,131,8130005,,,,,,,2025-07-14,1,,,,,アップオー,0
195,1290003017086,新規,0,2025-07-14,2025-07-14,シュークリーム合同会社,,合同会社,福岡県,福岡市博多区,博多駅前１丁目２３番２号ＰａｒｋＦｒｏｎｔ博多駅前１丁目５Ｆ－Ｂ,,40,132,8120011,,,,,,,2025-07-14,1,,,,,シュークリーム,0
208,1350001019648,新規,0,2025-07-14,2025-07-14,株式会社ＭＡＲＵＹＡＭＡ,,株式会社,宮崎県,日南市,西弁分３丁目３番地２,,45,204,8870024,,,,,,,2025-07-14,1,,,,,マルヤマ,0
209,1360001035462,新規,0,2025-07-14,2025-07-14,株式会社大響電気工業,,株式会社,沖縄県,中頭郡読谷村,字瀬名波６００番地,,47,324,9040325,,,,,,,2025-07-14,1,,,,,ダイキョウデンキコウギョウ,0
210,1360001035479,新規,0,2025-07-14,2025-07-14,株式会社リヴクライム・ナーシングケア,,株式会社,沖縄県,那覇市,若狭２丁目３番１３号ベルシティ若狭１階,,47,201,9000031,,,,,,,2025-07-14,1,,,,,リヴクライムナーシングケア,0
211,1360001035487,新規,0,2025-07-14,2025-07-14,株式会社ＧＬＯＢＡＬ　ＮＥＴＷＯＲＫ　ＯＫＩＮＡＷＡ,,株式会社,沖縄県,那覇市,前島２丁目１９番１２号桃原アパート１０２,,47,201,9000016,,,,,,,2025-07-14,1,,,,,,0
212,1360001035495,新規,0,2025-07-14,2025-07-14,株式会社ＬＡＮＤＯ,,株式会社,沖縄県,南城市,玉城字玉城８２４番地２,,47,215,9010604,,,,,,,2025-07-14,1,,,,,ランド,0
213,1360003015074,新規,0,2025-07-14,2025-07-14,合同会社ＡＴＳ,,合同会社,沖縄県,中頭郡嘉手納町,字水釜２２１番地,,47,325,9040204,,,,,,,2025-07-14,1,,,,,エーティーエス,0
214,1360003015090,新規,0,2025-07-14,2025-07-14,沖縄未来企画合同会社,,合同会社,沖縄県,島尻郡南風原町,字宮平２５７グレイスＡｔｏＺ４０３,,47,350,9011104,,,,,,,2025-07-14,1,,,,,オキナワミライキカク,0
217,1370003007186,新規,0,2025-07-14,2025-07-14,合同会社テクノスセブン,,合同会社,宮城県,名取市,手倉田字八幡２０番地,,04,207,9811231,,,,,,,2025-07-14,1,,,,,テクノスセブン,0
218,1380001035452,新規,0,2025-07-14,2025-07-14,株式会社Ｒａｉｓｅ　Ａｌｌｕｒｅ,,株式会社,福島県,郡山市,島１丁目１７番１号,,07,203,9638034,,,,,,,2025-07-14,1,,,,,レイズアリュール,0
219,1380001035460,新規,0,2025-07-14,2025-07-14,ビッグ・フォー株式会社,,株式会社,福島県,福島市,中町６番２４号サーパス中町１３０５,,07,201,9608043,,,,,,,2025-07-14,1,,,,,ビッグフォー,0
221,1380003006088,新規,0,2025-07-14,2025-07-14,合同会社ＮＥＳＴＡＮＤＲＩＳＥ,,合同会社,福島県,二本松市,油井字大窪１０３番地１６,,07,210,9691404,,,,,,,2025-07-14,1,,,,,ネストアンドライズ,0
226,1420001019211,新規,0,2025-07-14,2025-07-14,株式会社創彩テック,,株式会社,青森県,五所川原市,金木町喜良市坂本４３３番地,,02,205,0370203,,,,,,,2025-07-14,1,,,,,ソウサイテック,0
231,1430001094781,新規,0,2025-07-14,2025-07-14,株式会社Ｗｉｚ,,株式会社,北海道,札幌市中央区,南五条西３丁目８番地Ｎグランデビル６階Ｇ型,,01,101,0640805,,,,,,,2025-07-14,1,,,,,ウィズ,0
233,1450001014663,新規,0,2025-07-14,2025-07-14,株式会社旭川冨貴堂外商部,,株式会社,北海道,旭川市,宮下通２１丁目１９７４番地３２,,01,204,0788330,,,,,,,2025-07-14,1,,,,,アサヒカワフウキドウガイショウブ,0
234,1460101007731,新規,0,2025-07-14,2025-07-14,ｈ‐Ｐｌａｎｕｎｇ株式会社,,株式会社,北海道,帯広市,西五条南２９丁目２番地５,,01,207,0800015,,,,,,,2025-07-14,1,,,,,エイチプランニング,0
238,1480001012887,新規,0,2025-07-14,2025-07-14,株式会社グランドスラム,,株式会社,徳島県,鳴門市,大麻町姫田字森崎７１番地２,,36,202,7790301,,,,,,,2025-07-14,1,,,,,,0
241,1480003002291,新規,0,2025-07-14,2025-07-14,合同会社アニモ,,合同会社,徳島県,鳴門市,大麻町高畑字居屋敷７５番地,,36,202,7790305,,,,,,,2025-07-14,1,,,,,アニモ,0
251,2010001256778,新規,0,2025-07-14,2025-07-14,創知テック株式会社,,株式会社,東京都,中央区,銀座１丁目１２－４Ｎ＆ＥＢＬＤ．７階,,13,102,1040061,,,,,,,2025-07-14,1,,,,,ソウチテック,0
252,2010001256828,新規,0,2025-07-14,2025-07-14,ＪＰＡＳＳ株式会社,,株式会社,東京都,千代田区,神田佐久間町３丁目２８星野ビル４Ｆ３号,,13,101,1010025,,,,,,,2025-07-14,1,,,,,ジェイパス,0
254,2010003047977,新規,0,2025-07-14,2025-07-14,Ｌｕｃｋｙ７７７合同会社,,合同会社,東京都,千代田区,四番町４番地９ＳＴＫ内,,13,101,1020081,,,,,,,2025-07-14,1,,,,,ラッキートリプルセブン,0
266,2010401191526,新規,0,2025-07-14,2025-07-14,株式会社ＯＰＥＲＡＤ,,株式会社,東京都,港区,北青山１丁目３番１号アールキューブ青山３階,,13,103,1070061,,,,,,,2025-07-14,1,,,,,オペラド,0
267,2010401191690,新規,0,2025-07-14,2025-07-14,株式会社ジオリス,,株式会社,東京都,港区,白金３丁目７番１号,,13,103,1080072,,,,,,,2025-07-14,1,,,,,ジオリス,0
275,2010501054351,新規,0,2025-07-14,2025-07-14,Ｇｉｎｗａ株式会社,,株式会社,東京都,台東区,浅草橋３丁目２番１０号トムワンビル３階,,13,106,1110053,,,,,,,2025-07-14,1,,,,,ギンワ,0
276,2010501054376,新規,0,2025-07-14,2025-07-14,株式会社志和アライアンス,,株式会社,東京都,台東区,浅草橋５丁目８－５－３０２,,13,106,1110053,,,,,,,2025-07-14,1,,,,,シワアライアンス,0
277,2010501054384,新規,0,2025-07-14,2025-07-14,ＧＯＬＤＥＮ　ＲＡＴＩＯ　ＭＦＧ株式会社,,株式会社,東京都,台東区,東上野３丁目３２番１１号矢口ビル１階,,13,106,1100015,,,,,,,2025-07-14,1,,,,,ゴールデンレシオエムエフジー,0
291,2011001170705,新規,0,2025-07-14,2025-07-14,ＯＰＩｎｓｔｒｕｍｅｎｔｓ株式会社,,株式会社,東京都,渋谷区,代々木１丁目３０番１５号天翔代々木ビル５階Ｓ５０９号室,,13,113,1510053,,,,,,,2025-07-14,1,,,,,オーピーインストゥルメンツ,0
292,2011001170746,新規,0,2025-07-14,2025-07-14,株式会社ＧＯＡＴ,,株式会社,東京都,渋谷区,渋谷１丁目２２番２号グラフィオ渋谷４０１,,13,113,1500002,,,,,,,2025-07-14,1,,,,,ゴート,0
293,2011001170812,新規,0,2025-07-14,2025-07-14,株式会社ＢＥＹ０ＮＤ,,株式会社,東京都,渋谷区,神山町３９番７号,,13,113,1500047,,,,,,,2025-07-14,1,,,,,ビヨンド,0
295,2011003021971,新規,0,2025-07-14,2025-07-14,合同会社Ｈｅｇｕ　Ｌａｂ,,合同会社,東京都,渋谷区,道玄坂１丁目１６－６二葉ビル８ｂ,,13,113,1500043,,,,,,,2025-07-14,1,,,,,ヘグラボ,0
299,2011101112441,新規,0,2025-07-14,2025-07-14,株式会社ルートオン,,株式会社,東京都,新宿区,西新宿３丁目３番１３号西新宿水間ビル６階,,13,104,1600023,,,,,,,2025-07-14,1,,,,,ルートオン,0
300,2011101112458,新規,0,2025-07-14,2025-07-14,株式会社Ｎｕｍｂｅｒ　Ｃｏｎｓｕｌｔｉｎｇ,,株式会社,東京都,新宿区,新小川町８番３０号３６山京ビルＢ２Ｆ,,13,104,1620814,,,,,,,2025-07-14,1,,,,,ナンバーコンサルティング,0
301,2011101112466,新規,0,2025-07-14,2025-07-14,ＮｏｖａＬｉｎｋ株式会社,,株式会社,東京都,新宿区,新宿５丁目１３番１号平賀ビル１Ｆ,,13,104,1600022,,,,,,,2025-07-14,1,,,,,ノヴァリンク,0
302,2011201026509,新規,0,2025-07-14,2025-07-14,微億智造株式会社,,株式会社,東京都,中野区,中央４丁目１番３号ボニータ新中野ビル８階,,13,114,1640011,,,,,,,2025-07-14,1,,,,,ビオクチゾウ,0
306,2011305003049,新規,0,2025-07-14,2025-07-14,一般社団法人花と人,,その他の設立登記法人,東京都,杉並区,西荻北２丁目２番１１号土屋ビル１階,,13,115,1670042,,,,,,,2025-07-14,1,,,,,ハナトヒト,0
321,2012803003795,新規,0,2025-07-14,2025-07-14,ブリス・ベンチャーズ合同会社,,合同会社,東京都,日野市,平山３丁目３０番１１号,,13,212,1910043,,,,,,,2025-07-14,1,,,,,ブリスベンチャーズ,0
325,2020003028902,新規,0,2025-07-14,2025-07-14,ＥＳＥＮＴＯ合同会社,,合同会社,神奈川県,横浜市港北区,篠原西町５番１５号セントラル篠原台１０２号,,14,109,2220025,,,,,,,2025-07-14,1,,,,,エッセント,0
326,2020003028910,新規,0,2025-07-14,2025-07-14,合資会社ＡＢＣ,,合資会社,神奈川県,横浜市神奈川区,菅田町１５７１番１５号,,14,102,2210864,,,,,,,2025-07-14,1,,,,,エービーシー,0
327,2020003028951,新規,0,2025-07-14,2025-07-14,合同会社有賀工業,,合同会社,神奈川県,横浜市南区,永田東２丁目７番１８号,,14,105,2320072,,,,,,,2025-07-14,1,,,,,アリガコウギョウ,0
330,2021001085745,新規,0,2025-07-14,2025-07-14,株式会社リノモア,,株式会社,神奈川県,座間市,南栗原４丁目３０番２２号ファイネストコーポＣ号室,,14,216,2520015,,,,,,,2025-07-14,1,,,,,リノモア,0
341,2030003027168,新規,0,2025-07-14,2025-07-14,ハピハピ合同会社,,合同会社,埼玉県,行田市,棚田町１丁目４１番地１,,11,206,3610041,,,,,,,2025-07-14,1,,,,,ハピハピ,0
348,2040001139575,新規,0,2025-07-14,2025-07-14,株式会社心,,株式会社,千葉県,千葉市稲毛区,園生町３９２番地２,,12,103,2630051,,,,,,,2025-07-14,1,,,,,ココロ,0
349,2040001139600,新規,0,2025-07-14,2025-07-14,ＮＵＶＥＲ株式会社,,株式会社,千葉県,千葉市緑区,古市場町７１８番地２４,,12,105,2660026,,,,,,,2025-07-14,1,,,,,ヌーベル,0
350,2040001139666,新規,0,2025-07-14,2025-07-14,株式会社ＳＵＮ　ＧＵＡＲＤホールディングス,,株式会社,千葉県,千葉市若葉区,都賀４丁目５番１０号,,12,104,2640025,,,,,,,2025-07-14,1,,,,,サンガードホールディングス,0
352,2040003027984,新規,0,2025-07-14,2025-07-14,合同会社ソリダス,,合同会社,千葉県,浦安市,入船２丁目１２－１０６,,12,227,2790012,,,,,,,2025-07-14,1,,,,,ソリダス,0
353,2040003027992,新規,0,2025-07-14,2025-07-14,合同会社スティアエッジ,,合同会社,千葉県,船橋市,宮本９丁目１１－１－１３０１,,12,204,2730003,,,,,,,2025-07-14,1,,,,,スティアエッジ,0
355,2060001038412,新規,0,2025-07-14,2025-07-14,Ｋサービス株式会社,,株式会社,栃木県,宇都宮市,西川田町１１８２番地１３,,09,201,3210151,,,,,,,2025-07-14,1,,,,,ケーサービス,0
358,2070005010408,新規,0,2025-07-14,2025-07-14,一般社団法人地域活気堂,,その他の設立登記法人,群馬県,高崎市,東貝沢町３丁目３４番地１深町ビル３Ｆ東,,10,202,3700041,,,,,,,2025-07-14,1,,,,,チイキカッキドウ,0
364,2080403005306,新規,0,2025-07-14,2025-07-14,ＭＳＤ合同会社,,合同会社,静岡県,掛川市,旭台９７番地,,22,213,4360069,,,,,,,2025-07-14,1,,,,,エムエスデー,0
367,2100001038762,新規,0,2025-07-14,2025-07-14,株式会社スペースクリエイト,,株式会社,長野県,木曽郡木曽町,新開１２６番地１０９,,20,432,3970002,,,,,,,2025-07-14,1,,,,,スペースクリエイト,0
368,2100003008284,新規,0,2025-07-14,2025-07-14,合同会社ｓｈｉｒｏｋｕｍａ　ｓｔｕｄｉｏ,,合同会社,長野県,上田市,上野９９－９,,20,203,3860003,,,,,,,2025-07-14,1,,,,,シロクマスタジオ,0
371,2110001039438,新規,0,2025-07-14,2025-07-14,ＯＢ　ＷＯＲＫＳ株式会社,,株式会社,新潟県,新潟市北区,早通北３丁目４番３８号,,15,101,9503376,,,,,,,2025-07-14,1,,,,,オービーワークス,0
378,2120001276815,新規,0,2025-07-14,2025-07-14,Ｓａｍａｒａ株式会社,,株式会社,大阪府,大阪市城東区,東中浜３丁目２番２３－３０４号,,27,118,5360023,,,,,,,2025-07-14,1,,,,,サマラ,0
382,2120003029997,新規,0,2025-07-14,2025-07-14,合同会社ｅｎ,,合同会社,大阪府,大阪市生野区,小路１丁目９－２０Ｋ－ＳＯＨＯＮｏｒｔｈＮ－０１,,27,116,5440002,,,,,,,2025-07-14,1,,,,,エン,0
384,2120901051169,新規,0,2025-07-14,2025-07-14,ステラホールディングス株式会社,,株式会社,大阪府,豊中市,新千里東町１丁目２番１－３１０６号,,27,203,5600082,,,,,,,2025-07-14,1,,,,,ステラホールディングス,0
386,2122001039425,新規,0,2025-07-14,2025-07-14,アーキエステート株式会社,,株式会社,大阪府,東大阪市,長栄寺５番２１号,,27,227,5770055,,,,,,,2025-07-14,1,,,,,アーキエステート,0
388,2130001080092,新規,0,2025-07-14,2025-07-14,金蘭投資株式会社,,株式会社,京都府,京都市右京区,太秦森ケ東町１４－４－２０１,,26,108,6168102,,,,,,,2025-07-14,1,,,,,キンラントウシ,0
392,2140001139235,新規,0,2025-07-14,2025-07-14,株式会社ＫＳＴ,,株式会社,兵庫県,神戸市中央区,磯辺通１丁目１番１８号カサベラ国際プラザビル７０７号室,,28,110,6510084,,,,,,,2025-07-14,1,,,,,ケイエスティ,0
393,2140001139268,新規,0,2025-07-14,2025-07-14,株式会社みどりの風農園,,株式会社,兵庫県,神戸市西区,伊川谷町別府１８００番地の８,,28,111,6512115,,,,,,,2025-07-14,1,,,,,ミドリノカゼノウエン,0
395,2140005027551,新規,0,2025-07-14,2025-07-14,一般社団法人Ａｒｉｋａｍｏ,,その他の設立登記法人,兵庫県,加古川市,尾上町長田５１７番地４１号,,28,210,6750024,,,,,,,2025-07-14,1,,,,,アリカモ,0
397,2160001026877,新規,0,2025-07-14,2025-07-14,株式会社アナザープレイス,,株式会社,滋賀県,大津市,御幸町６番１６号,,25,201,5200057,,,,,,,2025-07-14,1,,,,,アナザープレイス,0
399,2180001167678,新規,0,2025-07-14,2025-07-14,株式会社レーヴ,,株式会社,愛知県,海部郡大治町,大字長牧字向１０１番地の２,,23,424,4901131,,,,,,,2025-07-14,1,,,,,レーヴ,0
400,2180001167686,新規,0,2025-07-14,2025-07-14,株式会社壱信,,株式会社,愛知県,名古屋市緑区,緑花台２５１０番地メゾンムータンＡ棟１０２号,,23,114,4598005,,,,,,,2025-07-14,1,,,,,イッシン,0
401,2180001167694,新規,0,2025-07-14,2025-07-14,株式会社鈴伝鈑金工業所,,株式会社,愛知県,名古屋市昭和区,川名本町１丁目３７番地,,23,107,4660855,,,,,,,2025-07-14,1,,,,,スズデンバンキンコウギョウショ,0
402,2180001167736,新規,0,2025-07-14,2025-07-14,株式会社有松アンブレラ,,株式会社,愛知県,名古屋市緑区,有松１５１２番地,,23,114,4580924,,,,,,,2025-07-14,1,,,,,アリマツアンブレラ,0
403,2180001167744,新規,0,2025-07-14,2025-07-14,里山サポート株式会社,,株式会社,愛知県,名古屋市西区,樋の口町１番１５号，ホーワビルＳＨＩＲＯＬＡＢＯ，３階１１号,,23,104,4510034,,,,,,,2025-07-14,1,,,,,サトヤマサポート,0
409,2220005008980,新規,0,2025-07-14,2025-07-14,一般社団法人ひと・まち・みらい松が丘,,その他の設立登記法人,石川県,加賀市,松が丘１丁目３０番地１,,17,206,9220436,,,,,,,2025-07-14,1,,,,,ヒトマチミライマツガオカ,0
413,2260003005225,新規,0,2025-07-14,2025-07-14,合同会社Ｈｅａｒｔ,,合同会社,岡山県,倉敷市,中島１９８８番地１４,,33,202,7100803,,,,,,,2025-07-14,1,,,,,ハート,0
419,2290001110684,新規,0,2025-07-14,2025-07-14,株式会社京ホールディングス,,株式会社,福岡県,福岡市城南区,茶山４丁目２２番２６号,,40,136,8140111,,,,,,,2025-07-14,1,,,,,ケイホールディングス,0
420,2290001110701,新規,0,2025-07-14,2025-07-14,株式会社Ｔｅｒｒａ　Ａｉｄ,,株式会社,福岡県,福岡市中央区,高砂１丁目２番３－１８０３号ＯＲＩＥＮＴＢＬＤＮｏ．１１１,,40,133,8100011,,,,,,,2025-07-14,1,,,,,テラエイド,0
421,2290001110718,新規,0,2025-07-14,2025-07-14,竹乃縁株式会社,,株式会社,福岡県,筑紫野市,大字古賀４９番１－１０２号,,40,217,8180047,,,,,,,2025-07-14,1,,,,,タケノエン,0
422,2290001110726,新規,0,2025-07-14,2025-07-14,菲翔株式会社,,株式会社,福岡県,福岡市中央区,警固２丁目９番１２号,,40,133,8100023,,,,,,,2025-07-14,1,,,,,フィショウ,0
423,2290801031709,新規,0,2025-07-14,2025-07-14,株式会社縁,,株式会社,福岡県,北九州市小倉南区,葛原東５丁目２番６２号（Ａ２０１）,,40,107,8000206,,,,,,,2025-07-14,1,,,,,エニシ,0
428,2350001019647,新規,0,2025-07-14,2025-07-14,株式会社ＫＡＩ,,株式会社,宮崎県,延岡市,日の出町２丁目８－１８,,45,203,8820035,,,,,,,2025-07-14,1,,,,,カイ,0
431,2360001035445,新規,0,2025-07-14,2025-07-14,株式会社ＭＹ‐Ｒ,,株式会社,沖縄県,宜野湾市,大山１丁目１４番２３－６０１号ミルコマンション宜野湾大山ビュー,,47,205,9012223,,,,,,,2025-07-14,1,,,,,マイアール,0
432,2360001035486,新規,0,2025-07-14,2025-07-14,株式会社ジーフォート,,株式会社,沖縄県,うるま市,安慶名２丁目３番１６号,,47,213,9042214,,,,,,,2025-07-14,1,,,,,ジーフォート,0
433,2360003015098,新規,0,2025-07-14,2025-07-14,合同会社ゆるゆる,,合同会社,沖縄県,中頭郡北谷町,字吉原１２３番地６,,47,326,9040105,,,,,,,2025-07-14,1,,,,,ユルユル,0
434,2370001052794,新規,0,2025-07-14,2025-07-14,株式会社リトリート,,株式会社,宮城県,栗原市,築館宮野中央１丁目７番地１１,,04,213,9872205,,,,,,,2025-07-14,1,,,,,リトリート,0
435,2370001052828,新規,0,2025-07-14,2025-07-14,株式会社ミヤタカ,,株式会社,宮城県,栗原市,志波姫八樟浦山２２番地２１,,04,213,9895622,,,,,,,2025-07-14,1,,,,,ミヤタカ,0
436,2370001052836,新規,0,2025-07-14,2025-07-14,株式会社Ｏｎｂｏａｒｄ　ｐｌｕｓ,,株式会社,宮城県,仙台市青葉区,中央２丁目１１－１９仙南ビル４階－Ａ,,04,101,9800021,,,,,,,2025-07-14,1,,,,,オンボードプラス,0
437,2370003007185,新規,0,2025-07-14,2025-07-14,Ｌｕｎｅｌｌｅ合同会社,,合同会社,宮城県,仙台市泉区,館１丁目２０－９,,04,105,9813214,,,,,,,2025-07-14,1,,,,,ルネル,0
438,2370003007193,新規,0,2025-07-14,2025-07-14,合同会社ぼん,,合同会社,宮城県,岩沼市,館下３丁目１番２３号,,04,211,9892441,,,,,,,2025-07-14,1,,,,,ボン,0
440,2370005010988,新規,0,2025-07-14,2025-07-14,ソアライト社会保険労務士法人,,その他の設立登記法人,宮城県,仙台市太白区,西中田４丁目２－１７メリディアン南仙台駅前３０３,,04,104,9811105,,,,,,,2025-07-14,1,,,,,ソアライト,0
441,2380001035451,新規,0,2025-07-14,2025-07-14,エルピーダ株式会社,,株式会社,福島県,耶麻郡北塩原村,大字北山字村ノ内４１５４番地,,07,402,9660404,,,,,,,2025-07-14,1,,,,,エルピーダ,0
443,2380005012991,新規,0,2025-07-14,2025-07-14,農事組合法人ファームＫＩＮＧ,,その他の設立登記法人,福島県,いわき市,平中山字宮下１番地の１０５,,07,204,9708031,,,,,,,2025-07-14,1,,,,,ファームキング,0
446,2420001019210,新規,0,2025-07-14,2025-07-14,株式会社ＰＩＥＮＯ,,株式会社,青森県,弘前市,大字駅前町６番地２オスカーハウス１階,,02,202,0368003,,,,,,,2025-07-14,1,,,,,ピエノ,0
448,2420003003154,新規,0,2025-07-14,2025-07-14,合同会社孝建,,合同会社,青森県,上北郡横浜町,字上イタヤノ木９３番地１００,,02,406,0394142,,,,,,,2025-07-14,1,,,,,コウケン,0
452,2430001094847,新規,0,2025-07-14,2025-07-14,株式会社ＭｉｒａｉＡｉ,,株式会社,北海道,札幌市南区,真駒内柏丘２丁目９番２１号,,01,106,0050022,,,,,,,2025-07-14,1,,,,,ミライアイ,0
455,2430003017896,新規,0,2025-07-14,2025-07-14,リーチアロー合同会社,,合同会社,北海道,札幌市清田区,美しが丘二条５丁目５番７号,,01,110,0040812,,,,,,,2025-07-14,1,,,,,,0
460,2470003002928,新規,0,2025-07-14,2025-07-14,アンチャ合同会社,,合同会社,香川県,丸亀市,土器町西５丁目６４８番地森川テナント中号室,,37,202,7630081,,,,,,,2025-07-14,1,,,,,,0
464,2480003002290,新規,0,2025-07-14,2025-07-14,合同会社ＰＣサポート,,合同会社,徳島県,名西郡石井町,高原字桑島５７番地１エスペランサ石井１０２号室,,36,341,7793207,,,,,,,2025-07-14,1,,,,,ピーシーサポート,0
465,2490001011103,新規,0,2025-07-14,2025-07-14,株式会社スピカ電気工事,,株式会社,高知県,高知市,十津５丁目２３番１３号,,39,201,7810114,,,,,,,2025-07-14,1,,,,,スピカデンキコウジ,0
477,3010001256802,新規,0,2025-07-14,2025-07-14,株式会社Ｄｅｌｉｇｈｔ　Ｃｏｎｎｅｃｔｉｏｎ,,株式会社,東京都,中央区,銀座１丁目２２番１１号銀座大竹ビジデンス２Ｆ,,13,102,1040061,,,,,,,2025-07-14,1,,,,,ディライトコネクション,0
479,3010003048017,新規,0,2025-07-14,2025-07-14,合同会社志摩サステナブルソーラー,,合同会社,東京都,千代田区,大手町１丁目６番１号ＳＰＡＣＥＳ大手町ビル,,13,101,1000004,,,,,,,2025-07-14,1,,,,,シマサステナブルソーラー,0
495,3010401191657,新規,0,2025-07-14,2025-07-14,株式会社ｔｈｅｒｏｏｔ,,株式会社,東京都,港区,赤坂２丁目１８番３号三葉ビル１Ｆ,,13,103,1070052,,,,,,,2025-07-14,1,,,,,ザルート,0
496,3010401191681,新規,0,2025-07-14,2025-07-14,株式会社令和義塾,,株式会社,東京都,港区,三田２丁目１４－４三田慶應ビジデンス６０６,,13,103,1080073,,,,,,,2025-07-14,1,,,,,レイワギジュク,0
497,3010401191715,新規,0,2025-07-14,2025-07-14,株式会社ＲＭＳ,,株式会社,東京都,港区,東麻布１丁目４番２号ＴＨＥＷＯＲＫＥＲＳ＆ＣＯ５０４,,13,103,1060044,,,,,,,2025-07-14,1,,,,,アールエムエス,0
498,3010401191731,新規,0,2025-07-14,2025-07-14,株式会社ナテリア,,株式会社,東京都,港区,六本木３丁目１６番１２号六本木ＫＳビル５Ｆ,,13,103,1060032,,,,,,,2025-07-14,1,,,,,ナテリア,0
499,3010403035556,新規,0,2025-07-14,2025-07-14,ＯＲＩＥＮＴＡＬ　ＭＡＧＩＣ合同会社,,合同会社,東京都,港区,北青山１丁目３－１アールキューブ青山３階,,13,103,1070061,,,,,,,2025-07-14,1,,,,,オリエンタルマジック,0
501,3010405024581,新規,0,2025-07-14,2025-07-14,一般社団法人みなと００７,,その他の設立登記法人,東京都,港区,虎ノ門３丁目２２番１０－２０１号,,13,103,1050001,,,,,,,2025-07-14,1,,,,,ミナトゼロゼロセブン,0
503,3010501054375,新規,0,2025-07-14,2025-07-14,株式会社ふたつ,,株式会社,東京都,台東区,松が谷４丁目２３番７号,,13,106,1110036,,,,,,,2025-07-14,1,,,,,フタツ,0
504,3010501054391,新規,0,2025-07-14,2025-07-14,ＴＲＩ　ＧＡＴＥ株式会社,,株式会社,東京都,台東区,橋場１丁目３６番８号,,13,106,1110023,,,,,,,2025-07-14,1,,,,,トライゲート,0
505,3010501054409,新規,0,2025-07-14,2025-07-14,優和株式会社,,株式会社,東京都,台東区,上野６丁目７－１６川久保ビル７１６号,,13,106,1100005,,,,,,,2025-07-14,1,,,,,ユウワ,0
517,3010603011679,新規,0,2025-07-14,2025-07-14,パノコンサルティング合同会社,,合同会社,東京都,墨田区,本所１丁目２７番８－７０６号,,13,107,1300004,,,,,,,2025-07-14,1,,,,,パノコンサルティング,0
527,3010901057738,新規,0,2025-07-14,2025-07-14,トリプルセブン株式会社,,株式会社,東京都,世田谷区,代沢５丁目８番１３号クリークス代沢３０１,,13,112,1550032,,,,,,,2025-07-14,1,,,,,トリプルセブン,0
535,3011001170613,新規,0,2025-07-14,2025-07-14,株式会社Ｕｐｗａｙｓ,,株式会社,東京都,渋谷区,渋谷２丁目１９番１９号ワコー宮益坂ビル５階,,13,113,1500002,,,,,,,2025-07-14,1,,,,,アップウェイズ,0
536,3011001170753,新規,0,2025-07-14,2025-07-14,株式会社ＢＲＡＮＣＯ,,株式会社,東京都,渋谷区,道玄坂１丁目１０番８号,,13,113,1500043,,,,,,,2025-07-14,1,,,,,ブランコ,0
537,3011001170786,新規,0,2025-07-14,2025-07-14,イエオト株式会社,,株式会社,東京都,渋谷区,円山町２８－８－９０４,,13,113,1500044,,,,,,,2025-07-14,1,,,,,イエオト,0
538,3011001170811,新規,0,2025-07-14,2025-07-14,ＡＣＣコンサルティング株式会社,,株式会社,東京都,渋谷区,渋谷３丁目１－９ＹＡＺＡＷＡビル３階,,13,113,1500002,,,,,,,2025-07-14,1,,,,,エーシーシーコンサルティング,0
539,3011001171165,新規,0,2025-07-14,2025-07-14,ＥＰＩＣ　ＭＯＮＴＥ　ＣＡＲＬＯ株式会社,,株式会社,東京都,渋谷区,神宮前３丁目５番１５号,,13,113,1500001,,,,,,,2025-07-14,1,,,,,エピックモンテカルロ,0
541,3011003021970,新規,0,2025-07-14,2025-07-14,合同会社ルミナスリンク,,合同会社,東京都,渋谷区,宇田川町３６－６西村ビル３階,,13,113,1500042,,,,,,,2025-07-14,1,,,,,ルミナスリンク,0
547,3011101112341,新規,0,2025-07-14,2025-07-14,華創凱控株式会社,,株式会社,東京都,新宿区,富久町３２－３東新富久町ビル３０６号室,,13,104,1620067,,,,,,,2025-07-14,1,,,,,カソウカイコウ,0
548,3011101112382,新規,0,2025-07-14,2025-07-14,株式会社ｎｉｋａ,,株式会社,東京都,新宿区,歌舞伎町２丁目２０番１０号,,13,104,1600021,,,,,,,2025-07-14,1,,,,,ニカ,0
549,3011101112465,新規,0,2025-07-14,2025-07-14,株式会社ライフイノベーションホールディングス,,株式会社,東京都,新宿区,西新宿６丁目１５番１－１１０９号,,13,104,1600023,,,,,,,2025-07-14,1,,,,,ライフイノベーションホールディングス,0
550,3011103016128,新規,0,2025-07-14,2025-07-14,合同会社Ｎ‐Ｓｅｅｄ,,合同会社,東京都,新宿区,西新宿８丁目５番１号,,13,104,1600023,,,,,,,2025-07-14,1,,,,,エヌシード,0
553,3011201026499,新規,0,2025-07-14,2025-07-14,株式会社荻原雅史建築設計事務所,,株式会社,東京都,中野区,本町６丁目４４番３号１０１,,13,114,1640012,,,,,,,2025-07-14,1,,,,,オギハラマサシケンチクセッケイジムショ,0
555,3011301030723,新規,0,2025-07-14,2025-07-14,杏友会ホールディングス株式会社,,株式会社,東京都,杉並区,宮前１丁目１５番８号,,13,115,1680081,,,,,,,2025-07-14,1,,,,,キョウユウカイホールディングス,0
564,3011801046434,新規,0,2025-07-14,2025-07-14,株式会社ボニーエンターテインメント,,株式会社,東京都,葛飾区,亀有５丁目３４番９号小澤ビル１階,,13,122,1250061,,,,,,,2025-07-14,1,,,,,ボニーエンターテインメント,0
566,3011803006964,新規,0,2025-07-14,2025-07-14,合同会社Ｋ＆Ａ,,合同会社,東京都,足立区,神明３丁目２５番２２号,,13,121,1210051,,,,,,,2025-07-14,1,,,,,ケーアンドエー,0
570,3012305002139,新規,0,2025-07-14,2025-07-14,一般社団法人マチジェイＳＴＹＬＥ,,その他の設立登記法人,東京都,町田市,本町田２３１５番地５,,13,209,1940032,,,,,,,2025-07-14,1,,,,,マチジェイスタイル,0
577,3013101009749,新規,0,2025-07-14,2025-07-14,株式会社ＢＴＭ,,株式会社,東京都,青梅市,東青梅６丁目２番地の１７,,13,205,1980042,,,,,,,2025-07-14,1,,,,,ビーティーエム,0
580,3013301054586,新規,0,2025-07-14,2025-07-14,株式会社イグセントリー,,株式会社,東京都,豊島区,池袋１丁目１３番１８号,,13,116,1700014,,,,,,,2025-07-14,1,,,,,イグセントリー,0
585,3020001163700,新規,0,2025-07-14,2025-07-14,株式会社８７,,株式会社,神奈川県,横浜市中区,野毛町１丁目１３番地５－４Ｆ,,14,104,2310064,,,,,,,2025-07-14,1,,,,,ハナ,0
598,3021001085728,新規,0,2025-07-14,2025-07-14,株式会社シアンコーポレーション,,株式会社,神奈川県,茅ヶ崎市,香川３丁目２番１１号,,14,207,2530082,,,,,,,2025-07-14,1,,,,,シアンコーポレーション,0
601,3021003016268,新規,0,2025-07-14,2025-07-14,Ｚｏｔｉｃ合同会社,,合同会社,神奈川県,茅ヶ崎市,東海岸北５丁目６番３９－１６号,,14,207,2530053,,,,,,,2025-07-14,1,,,,,ゾティック,0
608,3030001167576,新規,0,2025-07-14,2025-07-14,株式会社ＸＹＺ,,株式会社,埼玉県,熊谷市,星川２丁目２０番地１インパクト熊谷５階,,11,202,3600043,,,,,,,2025-07-14,1,,,,,エックスワイゼット,0
609,3030001167592,新規,0,2025-07-14,2025-07-14,株式会社ＣＣＢ　ＳＴＡＧＥ　ＷＯＲＫＳ,,株式会社,埼玉県,秩父市,番場町１７番１１号ＭＩＹＵＫＩビル１階,,11,207,3680041,,,,,,,2025-07-14,1,,,,,チチブステージワークス,0
610,3030001167650,新規,0,2025-07-14,2025-07-14,Ｌ＆Ｓ株式会社,,株式会社,埼玉県,朝霞市,宮戸３丁目１５－３５－２０３,,11,227,3510031,,,,,,,2025-07-14,1,,,,,エルアンドエス,0
611,3030001167659,新規,0,2025-07-14,2025-07-14,株式会社エマール,,株式会社,埼玉県,入間郡三芳町,大字藤久保６０４番地１９,,11,324,3540041,,,,,,,2025-07-14,1,,,,,エマール,0
616,3040001139500,新規,0,2025-07-14,2025-07-14,石華株式会社,,株式会社,千葉県,船橋市,駿河台１丁目２０－３－２０６,,12,204,2730862,,,,,,,2025-07-14,1,,,,,イシカ,0
617,3040001139657,新規,0,2025-07-14,2025-07-14,株式会社エスエス,,株式会社,千葉県,松戸市,本町５番地の７,,12,207,2710091,,,,,,,2025-07-14,1,,,,,エスエス,0
618,3050001056934,新規,0,2025-07-14,2025-07-14,株式会社太陽開発ホールディングス,,株式会社,茨城県,ひたちなか市,大字高場１１６９番地,,08,221,3120062,,,,,,,2025-07-14,1,,,,,タイヨウカイハツホールディングス,0
619,3050001056950,新規,0,2025-07-14,2025-07-14,エシカル不動産株式会社,,株式会社,茨城県,鹿嶋市,大字棚木３１０番地１８,,08,222,3112214,,,,,,,2025-07-14,1,,,,,エシカルフドウサン,0
629,3070001043146,新規,0,2025-07-14,2025-07-14,株式会社まげしや,,株式会社,群馬県,利根郡みなかみ町,後閑１３２２番地,,10,449,3791305,,,,,,,2025-07-14,1,,,,,マゲシヤ,0
630,3070003006002,新規,0,2025-07-14,2025-07-14,合同会社ｍ　ａｓｓｉｓｔ,,合同会社,群馬県,太田市,只上町１０５０番地,,10,205,3730011,,,,,,,2025-07-14,1,,,,,エムアシスト,0
633,3080101025646,新規,0,2025-07-14,2025-07-14,株式会社Ｋ‐Ｓｔａｎｃｅ,,株式会社,静岡県,沼津市,松長７０９番地の１,,22,203,4100874,,,,,,,2025-07-14,1,,,,,ケースタンス,0
639,3080103003377,新規,0,2025-07-14,2025-07-14,ＳＵＬＡＩＨＡ　ＭＯＴＯＲＳ合同会社,,合同会社,静岡県,富士宮市,朝日町１０－１４コーポセイユウ２０２号,,22,207,4180057,,,,,,,2025-07-14,1,,,,,スライハモーターズ,0
640,3090001019375,新規,0,2025-07-14,2025-07-14,株式会社Ｏｋｙ,,株式会社,山梨県,甲府市,中央２丁目１３－４レーベン甲府中央６０４,,19,201,4000032,,,,,,,2025-07-14,1,,,,,オーキー,0
641,3090001019391,新規,0,2025-07-14,2025-07-14,株式会社アイ・ランド・サービス,,株式会社,山梨県,甲府市,相生１丁目２番１号,,19,201,4000858,,,,,,,2025-07-14,1,,,,,アイランドサービス,0
642,3100001038737,新規,0,2025-07-14,2025-07-14,木崎湖温泉開発株式会社,,株式会社,長野県,大町市,平１０６３９番地１,,20,212,3980001,,,,,,,2025-07-14,1,,,,,キザキコオンセンカイハツ,0
646,3100003008283,新規,0,2025-07-14,2025-07-14,合同会社Ｔｈｅ　Ｓｏｕｔｈ　Ｓｔａｒ,,合同会社,長野県,北安曇郡小谷村,大字北小谷９４５３番地１,,20,486,3999601,,,,,,,2025-07-14,1,,,,,ザサウススター,0
647,3100003008291,新規,0,2025-07-14,2025-07-14,オオナカヤ合同会社,,合同会社,長野県,飯田市,松尾城５１４３－３,,20,205,3950825,,,,,,,2025-07-14,1,,,,,オオナカヤ,0
659,3120001277696,新規,0,2025-07-14,2025-07-14,Ｒｅ‐Ｓｅｃｏｎ株式会社,,株式会社,大阪府,大阪市西区,北堀江２丁目７‐１７‐１Ｆ,,27,106,5500014,,,,,,,2025-07-14,1,,,,,リセカン,0
660,3120001277762,新規,0,2025-07-14,2025-07-14,株式会社オーロラゲームズ,,株式会社,大阪府,大阪市浪速区,難波中２丁目１０－７０パークスタワー１９Ｆ,,27,111,5560011,,,,,,,2025-07-14,1,,,,,オーロラゲームズ,0
661,3120001277770,新規,0,2025-07-14,2025-07-14,株式会社ｍａｒｌ,,株式会社,大阪府,大阪市平野区,平野本町２丁目１０番２５号,,27,126,5470044,,,,,,,2025-07-14,1,,,,,マール,0
662,3120001277779,新規,0,2025-07-14,2025-07-14,ＦｒｅｅＬｉｎｋ株式会社,,株式会社,大阪府,大阪市都島区,都島本通３丁目１８番４号２階２０８－９号室,,27,102,5340021,,,,,,,2025-07-14,1,,,,,フリーリンク,0
664,3120003029955,新規,0,2025-07-14,2025-07-14,合同会社ｏｎｄｏ　ｍｏｍｅｎｔｓ,,合同会社,大阪府,大阪市北区,大淀中２丁目６番１７－３０５号,,27,127,5310076,,,,,,,2025-07-14,1,,,,,オンドモーメンツ,0
665,3120003029996,新規,0,2025-07-14,2025-07-14,合同会社Ｎａｎａｓ,,合同会社,大阪府,大阪市東淀川区,東淡路４丁目１７－１５－２０４,,27,114,5330023,,,,,,,2025-07-14,1,,,,,ナナス,0
667,3120005025036,新規,0,2025-07-14,2025-07-14,医療法人井上内科,,その他の設立登記法人,大阪府,大阪市東淀川区,上新庄２丁目８番２３号,,27,114,5330006,,,,,,,2025-07-14,1,,,,,イノウエナイカ,0
673,3122001039424,新規,0,2025-07-14,2025-07-14,株式会社ホットスタッフ八尾,,株式会社,大阪府,八尾市,志紀町１丁目５番地３,,27,212,5810031,,,,,,,2025-07-14,1,,,,,ホットスタッフヤオ,0
674,3122001039432,新規,0,2025-07-14,2025-07-14,株式会社萩井,,株式会社,大阪府,東大阪市,小阪本町１丁目１番２８号,,27,227,5770802,,,,,,,2025-07-14,1,,,,,ハギイ,0
675,3122001039473,新規,0,2025-07-14,2025-07-14,アンドグランド株式会社,,株式会社,大阪府,東大阪市,角田２丁目１０番４６号,,27,227,5780912,,,,,,,2025-07-14,1,,,,,アンドグランド,0
679,3130001080034,新規,0,2025-07-14,2025-07-14,壬水株式会社,,株式会社,京都府,京都市中京区,西ノ京大炊御門町８－４９ファミリエ円町３０２号室,,26,104,6048467,,,,,,,2025-07-14,1,,,,,ミズエミズ,0
689,3140001139242,新規,0,2025-07-14,2025-07-14,株式会社ＲｅＮｅｓｔ,,株式会社,兵庫県,尼崎市,今福２丁目１９－１０,,28,202,6600812,,,,,,,2025-07-14,1,,,,,リネスト,0
695,3150001028270,新規,0,2025-07-14,2025-07-14,株式会社ＦＳＩ,,株式会社,奈良県,天理市,西井戸堂町４０３番地１,,29,204,6320075,,,,,,,2025-07-14,1,,,,,エフエスアイ,0
708,3180001167603,新規,0,2025-07-14,2025-07-14,ムーンラボ株式会社,,株式会社,愛知県,名古屋市中川区,富田町大字榎津字郷中１７５４番地,,23,110,4540953,,,,,,,2025-07-14,1,,,,,ムーンラボ,0
709,3180001167669,新規,0,2025-07-14,2025-07-14,ＡＮＴＯＡＴ株式会社,,株式会社,愛知県,名古屋市名東区,亀の井１丁目１３５番地,,23,115,4650094,,,,,,,2025-07-14,1,,,,,アントアット,0
710,3180001167677,新規,0,2025-07-14,2025-07-14,株式会社エムケーテック,,株式会社,愛知県,名古屋市中村区,若宮町３丁目３５番地オークワン３１０,,23,105,4530023,,,,,,,2025-07-14,1,,,,,エムケーテック,0
711,3180001167693,新規,0,2025-07-14,2025-07-14,株式会社エルテリコ,,株式会社,愛知県,名古屋市緑区,鳴海町字細根１１６番地の３,,23,114,4580827,,,,,,,2025-07-14,1,,,,,エルテリコ,0
712,3180001167719,新規,0,2025-07-14,2025-07-14,寿工務店株式会社,,株式会社,愛知県,名古屋市昭和区,明月町３丁目５番地,,23,107,4660034,,,,,,,2025-07-14,1,,,,,コトブキコウムテン,0
713,3180001167743,新規,0,2025-07-14,2025-07-14,株式会社ＹＯＵＴＨ,,株式会社,愛知県,東海市,富木島町新山田４８番地３,,23,222,4760011,,,,,,,2025-07-14,1,,,,,ユース,0
717,3180005021137,新規,0,2025-07-14,2025-07-14,税理士法人中京会計,,その他の設立登記法人,愛知県,名古屋市中村区,名駅４丁目１３番７号,,23,105,4500002,,,,,,,2025-07-14,1,,,,,チュウキョウカイケイ,0
718,3180005021161,新規,0,2025-07-14,2025-07-14,医療法人虹の会,,その他の設立登記法人,愛知県,稲沢市,天池光田町９番地２,,23,220,4928274,,,,,,,2025-07-14,1,,,,,ニジノカイ,0
736,3260001040330,新規,0,2025-07-14,2025-07-14,大和創建株式会社,,株式会社,岡山県,津山市,林田５５番地３,,33,203,7080822,,,,,,,2025-07-14,1,,,,,ヤマトソウケン,0
737,3260001040347,新規,0,2025-07-14,2025-07-14,株式会社トータルカーショップエス,,株式会社,岡山県,新見市,哲多町老栄１４０５番地２,,33,210,7180307,,,,,,,2025-07-14,1,,,,,トータルカーショップエス,0
738,3270001009242,新規,0,2025-07-14,2025-07-14,株式会社ＲＡＫＵ,,株式会社,鳥取県,鳥取市,国安２２４番地１,,31,201,6801132,,,,,,,2025-07-14,1,,,,,ラク,0
747,3290001110717,新規,0,2025-07-14,2025-07-14,株式会社ＴＮＦエンジニアリング,,株式会社,福岡県,福岡市博多区,博多駅前３丁目２３番１２号,,40,132,8120011,,,,,,,2025-07-14,1,,,,,ティーエヌエフエンジニアリング,0
757,3350003004976,新規,0,2025-07-14,2025-07-14,合同会社ｈａｎｄ,,合同会社,宮崎県,宮崎市,大工３丁目１３７番地１,,45,201,8800015,,,,,,,2025-07-14,1,,,,,ハンド,0
758,3360001035444,新規,0,2025-07-14,2025-07-14,ＧＳグループ株式会社,,株式会社,沖縄県,那覇市,首里汀良町３丁目７９番地２,,47,201,9030806,,,,,,,2025-07-14,1,,,,,ジーエスグループ,0
759,3360001035477,新規,0,2025-07-14,2025-07-14,株式会社宮平ホームズ,,株式会社,沖縄県,浦添市,大平１丁目２４番１－１０１号シーアイマンション浦添,,47,208,9012113,,,,,,,2025-07-14,1,,,,,ミヤヒラホームズ,0
761,3360003015072,新規,0,2025-07-14,2025-07-14,合同会社陸聖,,合同会社,沖縄県,中頭郡西原町,字桃原２２,,47,329,9030114,,,,,,,2025-07-14,1,,,,,リクト,0
762,3360003015080,新規,0,2025-07-14,2025-07-14,合同会社Ｈｅａｄ’ｓ,,合同会社,沖縄県,糸満市,字摩文仁９８０,,47,210,9010333,,,,,,,2025-07-14,1,,,,,,0
763,3360003015089,新規,0,2025-07-14,2025-07-14,合同会社エスジー,,合同会社,沖縄県,糸満市,西崎１丁目２２－７,,47,210,9010305,,,,,,,2025-07-14,1,,,,,エスジー,0
766,3370001052819,新規,0,2025-07-14,2025-07-14,株式会社新葉,,株式会社,宮城県,岩沼市,玉浦西３丁目１番地の３,,04,211,9892428,,,,,,,2025-07-14,1,,,,,シンバ,0
767,3370001052827,新規,0,2025-07-14,2025-07-14,株式会社農Ｌｉｆｅ,,株式会社,宮城県,登米市,登米町日野渡蛭沢１１２番地,,04,212,9870704,,,,,,,2025-07-14,1,,,,,ノウライフ,0
771,3410001014228,新規,0,2025-07-14,2025-07-14,株式会社北商アシスト,,株式会社,秋田県,由利本荘市,船岡字堤縁２７番地７０,,05,210,0150046,,,,,,,2025-07-14,1,,,,,ホクショウアシスト,0
775,3430001094821,新規,0,2025-07-14,2025-07-14,株式会社Ｌｉｂ’ｓ,,株式会社,北海道,札幌市北区,あいの里四条６丁目１０番８号,,01,102,0028074,,,,,,,2025-07-14,1,,,,,リブス,0
776,3430003017862,新規,0,2025-07-14,2025-07-14,合同会社ＭＳ企画,,合同会社,北海道,札幌市中央区,南五条西１５丁目２－３－５０３,,01,101,0640805,,,,,,,2025-07-14,1,,,,,エムエスキカク,0
777,3430003017879,新規,0,2025-07-14,2025-07-14,合同会社ｋｉｍｏｎｏｙａ,,合同会社,北海道,札幌市北区,北二十三条西８丁目３番１９号北峰ビル２０１,,01,102,0010023,,,,,,,2025-07-14,1,,,,,キモノヤ,0
781,3490001011102,新規,0,2025-07-14,2025-07-14,株式会社サポートライフみなと,,株式会社,高知県,吾川郡いの町,池ノ内２８５番地,,39,386,7812121,,,,,,,2025-07-14,1,,,,,サポートライフミナト,0
785,3490003002033,新規,0,2025-07-14,2025-07-14,合同会社リアルアセットマネジメント,,合同会社,高知県,南国市,前浜５１４番地,,39,204,7830094,,,,,,,2025-07-14,1,,,,,リアルアセットマネジメント,0
798,4010001256867,新規,0,2025-07-14,2025-07-14,そだてる工房株式会社,,株式会社,東京都,中央区,日本橋室町１丁目１１番１２号日本橋水野ビル７階,,13,102,1030022,,,,,,,2025-07-14,1,,,,,ソダテルコウボウ,0
809,4010401191607,新規,0,2025-07-14,2025-07-14,匯寧春和ジャパン株式会社,,株式会社,東京都,港区,南青山３丁目１番３６号青山丸竹ビル６Ｆ,,13,103,1070062,,,,,,,2025-07-14,1,,,,,カイネイシュンワジャパン,0
810,4010403035539,新規,0,2025-07-14,2025-07-14,雅龍蓄電所開発合同会社,,合同会社,東京都,港区,北青山２丁目１２－８ＢＩＺＳＭＡＲＴ青山２Ｆ,,13,103,1070061,,,,,,,2025-07-14,1,,,,,マサルチクデンショカイハツ,0
815,4010501054399,新規,0,2025-07-14,2025-07-14,ＢＢ＆ＩＮＣ株式会社,,株式会社,東京都,台東区,浅草５丁目４７番１０号,,13,106,1110032,,,,,,,2025-07-14,1,,,,,ビービーアンドインク,0
816,4010601067615,新規,0,2025-07-14,2025-07-14,侑到株式会社,,株式会社,東京都,江東区,豊洲６丁目２番３１号,,13,108,1350061,,,,,,,2025-07-14,1,,,,,ユト,0
817,4010801036353,新規,0,2025-07-14,2025-07-14,株式会社Ｂｒｉｇｈｔｆｕｔｕｒｅ,,株式会社,東京都,大田区,蒲田２丁目２番１号,,13,111,1440052,,,,,,,2025-07-14,1,,,,,ブライトフューチャー,0
819,4010901057753,新規,0,2025-07-14,2025-07-14,株式会社ＫＳＹカンパニー,,株式会社,東京都,世田谷区,瀬田１丁目１６番３－１０５号,,13,112,1580095,,,,,,,2025-07-14,1,,,,,ケイエスワイカンパニー,0
829,4011001170744,新規,0,2025-07-14,2025-07-14,株式会社メディカルアシスト,,株式会社,東京都,渋谷区,恵比寿西１丁目３３番６号ＪＰｎｏｉｅ恵比寿西１Ｆ,,13,113,1500021,,,,,,,2025-07-14,1,,,,,メディカルアシスト,0
830,4011001171040,新規,0,2025-07-14,2025-07-14,Ｂｉｚライフコンサルティング株式会社,,株式会社,東京都,渋谷区,幡ヶ谷２丁目３３番７－５０４号,,13,113,1510072,,,,,,,2025-07-14,1,,,,,ビズライフコンサルティング,0
831,4011003021937,新規,0,2025-07-14,2025-07-14,合同会社アシスト,,合同会社,東京都,渋谷区,恵比寿４丁目４番１５号,,13,113,1500013,,,,,,,2025-07-14,1,,,,,アシスト,0
832,4011003021953,新規,0,2025-07-14,2025-07-14,ＨＯＫＥＮ合同会社,,合同会社,東京都,渋谷区,道玄坂１丁目１０番８号渋谷道玄坂東急ビル２Ｆ－Ｃ,,13,113,1500043,,,,,,,2025-07-14,1,,,,,ホケン,0
833,4011005011077,新規,0,2025-07-14,2025-07-14,一般社団法人Ｃｏｌｌａｂｒｉｇｈｔ,,その他の設立登記法人,東京都,目黒区,下目黒１丁目１－１４コノトラビル７Ｆ,,13,110,1530064,,,,,,,2025-07-14,1,,,,,コラブライト,0
837,4011101112456,新規,0,2025-07-14,2025-07-14,株式会社ＳＵＮ,,株式会社,東京都,新宿区,中落合２丁目８番２０号プリヴェイル中落合１階,,13,104,1610032,,,,,,,2025-07-14,1,,,,,サン,0
838,4011103016127,新規,0,2025-07-14,2025-07-14,合同会社Ｎ‐Ｓｅｅｄ１号,,合同会社,東京都,新宿区,西新宿８丁目５番１号,,13,104,1600023,,,,,,,2025-07-14,1,,,,,エヌシードイチゴウ,0
850,4011801046441,新規,0,2025-07-14,2025-07-14,株式会社ｏｊｏｕ,,株式会社,東京都,葛飾区,東金町１丁目２０－１４－２０１吉六ビル,,13,122,1250041,,,,,,,2025-07-14,1,,,,,オジョウ,0
853,4012405005131,新規,0,2025-07-14,2025-07-14,一般社団法人ごみの無料化と再エネ賦課金の廃止を実現する会,,その他の設立登記法人,東京都,調布市,西つつじケ丘３丁目２６番７号アーバンフラッツＭＡ２０３,,13,208,1820006,,,,,,,2025-07-14,1,,,,,ゴミノムリョウカトサイエネフカキンノハイシヲジツゲンスルカイ,0
861,4021001085719,新規,0,2025-07-14,2025-07-14,株式会社ニーシュ,,株式会社,神奈川県,鎌倉市,今泉１丁目６番１６号,,14,204,2470052,,,,,,,2025-07-14,1,,,,,ニーシュ,0
862,4021001085735,新規,0,2025-07-14,2025-07-14,ｗｏｏｄｂｅｌｌ株式会社,,株式会社,神奈川県,茅ヶ崎市,香川４丁目４６番３０号,,14,207,2530082,,,,,,,2025-07-14,1,,,,,ウッドベル,0
871,4030001167633,新規,0,2025-07-14,2025-07-14,Ｍｏｌｌｙ’ｓ　Ｌｏｇｉ株式会社,,株式会社,埼玉県,新座市,野火止５丁目１８番３３－２９号,,11,230,3520011,,,,,,,2025-07-14,1,,,,,モリーズロジ,0
875,4040001139508,新規,0,2025-07-14,2025-07-14,株式会社平屋,,株式会社,千葉県,茂原市,茂原西６番地６,,12,210,2970039,,,,,,,2025-07-14,1,,,,,ヒラヤ,0
876,4040001139581,新規,0,2025-07-14,2025-07-14,株式会社星辰,,株式会社,千葉県,船橋市,湊町２丁目１５番１５号石井マンション１０１,,12,204,2730011,,,,,,,2025-07-14,1,,,,,ホシタツ,0
877,4040001139648,新規,0,2025-07-14,2025-07-14,坊主ラボ株式会社,,株式会社,千葉県,浦安市,高洲４丁目３番地１号３４５,,12,227,2790023,,,,,,,2025-07-14,1,,,,,ボウズラボ,0
878,4040001139664,新規,0,2025-07-14,2025-07-14,株式会社ＢＡＮ’Ｓホールディングス,,株式会社,千葉県,千葉市若葉区,大宮台２丁目１７番１号,,12,104,2640015,,,,,,,2025-07-14,1,,,,,バンズホールディングス,0
879,4040001139680,新規,0,2025-07-14,2025-07-14,株式会社心和不動産,,株式会社,千葉県,千葉市稲毛区,穴川１丁目８番４３号,,12,103,2630024,,,,,,,2025-07-14,1,,,,,シンワフドウサン,0
883,4070001043145,新規,0,2025-07-14,2025-07-14,株式会社ウイズン,,株式会社,群馬県,太田市,東本町２８番３号ミヤシタビル２Ｆ,,10,205,3730026,,,,,,,2025-07-14,1,,,,,ウイズン,0
889,4100001038760,新規,0,2025-07-14,2025-07-14,ＯＮＫＳ　Ｈｏｌｄｉｎｇｓ株式会社,,株式会社,長野県,北佐久郡御代田町,大字馬瀬口２０９１番地２６１,,20,323,3890207,,,,,,,2025-07-14,1,,,,,オンクスホールディングス,0
890,4100001038769,新規,0,2025-07-14,2025-07-14,株式会社ＫＵＲＯＤＡ,,株式会社,長野県,飯田市,宮ノ上３９８９番地１,,20,205,3950081,,,,,,,2025-07-14,1,,,,,クロダ,0
893,4110003005808,新規,0,2025-07-14,2025-07-14,ＡＬＯＨＡ不動産合同会社,,合同会社,新潟県,上越市,栄町２丁目１１番３２号,,15,222,9420072,,,,,,,2025-07-14,1,,,,,アロハフドウサン,0
899,4120001277613,新規,0,2025-07-14,2025-07-14,晨冉株式会社,,株式会社,大阪府,大阪市住吉区,長居３丁目６番２０－５Ｃ,,27,120,5580003,,,,,,,2025-07-14,1,,,,,チェンラン,0
900,4120001277811,新規,0,2025-07-14,2025-07-14,佳嘉株式会社,,株式会社,大阪府,大阪市西成区,萩之茶屋２丁目６－４－２０６,,27,122,5570004,,,,,,,2025-07-14,1,,,,,カイカ,0
901,4120003030004,新規,0,2025-07-14,2025-07-14,合同会社シリウス,,合同会社,大阪府,大阪市東淀川区,淡路３丁目２０番４４号,,27,114,5330032,,,,,,,2025-07-14,1,,,,,シリウス,0
903,4120101071981,新規,0,2025-07-14,2025-07-14,號麦株式会社,,株式会社,大阪府,堺市中区,陶器北１０７１－７－２０２,,27,142,5998242,,,,,,,2025-07-14,1,,,,,ゴウバク,0
904,4120103006564,新規,0,2025-07-14,2025-07-14,合同会社オアシスフィールド,,合同会社,大阪府,泉南市,信達牧野２３４番地の１０,,27,228,5900522,,,,,,,2025-07-14,1,,,,,オアシスフィールド,0
906,4120901051175,新規,0,2025-07-14,2025-07-14,株式会社ＢＯＮＤ,,株式会社,大阪府,摂津市,千里丘６丁目３番２－２０８号,,27,224,5660001,,,,,,,2025-07-14,1,,,,,ボンド,0
907,4120901051183,新規,0,2025-07-14,2025-07-14,株式会社ホームアライブ,,株式会社,大阪府,豊中市,熊野町４丁目４番３３号,,27,203,5600014,,,,,,,2025-07-14,1,,,,,ホームアライブ,0
908,4120901051191,新規,0,2025-07-14,2025-07-14,株式会社Ｍｉｒａｎｏｖａ,,株式会社,大阪府,豊中市,新千里南町２丁目６番１８－２０３号,,27,203,5600084,,,,,,,2025-07-14,1,,,,,ミラノヴァ,0
909,4120901051225,新規,0,2025-07-14,2025-07-14,株式会社あすなろ,,株式会社,大阪府,茨木市,下穂積３丁目２番８号,,27,211,5670041,,,,,,,2025-07-14,1,,,,,アスナロ,0
911,4122001039431,新規,0,2025-07-14,2025-07-14,株式会社ＯＲＩＧＩＮ,,株式会社,大阪府,大東市,寺川３丁目２番２号,,27,218,5740014,,,,,,,2025-07-14,1,,,,,オリジン,0
915,4130001080082,新規,0,2025-07-14,2025-07-14,静子株式会社,,株式会社,京都府,京都市左京区,二条通川端東入３筋目大文字町１５８－２０５,,26,103,6068382,,,,,,,2025-07-14,1,,,,,シズコ,0
916,4130001080108,新規,0,2025-07-14,2025-07-14,株式会社カエナギコーポレーション,,株式会社,京都府,京都市西京区,大枝沓掛町１４番地３８４,,26,111,6101106,,,,,,,2025-07-14,1,,,,,カエナギコーポレーション,0
917,4130001080116,新規,0,2025-07-14,2025-07-14,亜村株式会社,,株式会社,京都府,京都市南区,西九条西柳ノ内町１４番地３０,,26,107,6018436,,,,,,,2025-07-14,1,,,,,アムラ,0
918,4130001080132,新規,0,2025-07-14,2025-07-14,株式会社家蔵,,株式会社,京都府,京都市伏見区,久我東町１番地１３７,,26,109,6128494,,,,,,,2025-07-14,1,,,,,カグラ,0
924,4140001139241,新規,0,2025-07-14,2025-07-14,株式会社Ａｌａｉａ　Ｃｏｍｍｕｎｉｃａｔｉｏｎｓ,,株式会社,兵庫県,西宮市,殿山町６番２６号,,28,204,6620065,,,,,,,2025-07-14,1,,,,,アライアコミュニケーションズ,0
925,4140001139316,新規,0,2025-07-14,2025-07-14,株式会社水木,,株式会社,兵庫県,神戸市中央区,加納町２丁目４番１０号,,28,110,6500001,,,,,,,2025-07-14,1,,,,,ミズキ,0
931,4160001026883,新規,0,2025-07-14,2025-07-14,株式会社ラポール,,株式会社,滋賀県,近江八幡市,鷹飼町北３丁目２－６,,25,204,5230896,,,,,,,2025-07-14,1,,,,,ラポール,0
932,4160001026891,新規,0,2025-07-14,2025-07-14,株式会社ばんどう建築,,株式会社,滋賀県,近江八幡市,鷹飼町１０１１番地４,,25,204,5230891,,,,,,,2025-07-14,1,,,,,バンドウケンチク,0
933,4170005007160,新規,0,2025-07-14,2025-07-14,社会福祉法人直心会,,その他の設立登記法人,和歌山県,紀の川市,貴志川町長山字荒子谷２７７番６８,,30,208,6400416,,,,,,,2025-07-14,1,,,,,ジキシンカイ,0
937,4180001167684,新規,0,2025-07-14,2025-07-14,株式会社Ｊａｌｏｕｃｒ,,株式会社,愛知県,名古屋市守山区,小幡千代田５番１１号,,23,113,4630053,,,,,,,2025-07-14,1,,,,,ジェルーク,0
938,4180001167692,新規,0,2025-07-14,2025-07-14,株式会社クレアトーレ,,株式会社,愛知県,一宮市,浅野字大西１２番地,,23,203,4910871,,,,,,,2025-07-14,1,,,,,クレアトーレ,0
939,4180001167726,新規,0,2025-07-14,2025-07-14,株式会社ハタモリ,,株式会社,愛知県,一宮市,明地字中屋敷１１番地６,,23,203,4940012,,,,,,,2025-07-14,1,,,,,ハタモリ,0
954,4240001065205,新規,0,2025-07-14,2025-07-14,株式会社平野食品,,株式会社,広島県,福山市,駅家町大字万能倉４５０番地７,,34,207,7201131,,,,,,,2025-07-14,1,,,,,ヒラノショクヒン,0
956,4260001040346,新規,0,2025-07-14,2025-07-14,株式会社ｆａｎｆａｒｅ,,株式会社,岡山県,岡山市北区,田中１４７番地１０１ビューティフル長瀬２０１,,33,101,7000951,,,,,,,2025-07-14,1,,,,,ファンファーレ,0
957,4260003005256,新規,0,2025-07-14,2025-07-14,中原電気管理事務部合同会社,,合同会社,岡山県,倉敷市,玉島長尾９０９－１,,33,202,7100251,,,,,,,2025-07-14,1,,,,,ナカハラデンキカンリジムブ,0
959,4270001009241,新規,0,2025-07-14,2025-07-14,株式会社ＡＯ,,株式会社,鳥取県,鳥取市,吉成４２番地１９,,31,201,6800864,,,,,,,2025-07-14,1,,,,,アオ,0
961,4290001110682,新規,0,2025-07-14,2025-07-14,瑞景株式会社,,株式会社,福岡県,福岡市中央区,大名２丁目９番３５号トウセン天神ビル９Ｆ,,40,133,8100041,,,,,,,2025-07-14,1,,,,,ズイケイ,0
962,4290001110699,新規,0,2025-07-14,2025-07-14,ＯＭＺＲ株式会社,,株式会社,福岡県,福岡市中央区,清川２丁目２－１８－２０５号室,,40,133,8100005,,,,,,,2025-07-14,1,,,,,オムズル,0
963,4290001110740,新規,0,2025-07-14,2025-07-14,株式会社ＦＬＡＮ,,株式会社,福岡県,福岡市中央区,六本松４丁目８番１２－１００３号,,40,133,8100044,,,,,,,2025-07-14,1,,,,,フラン,0
984,4340003004902,新規,0,2025-07-14,2025-07-14,合同会社ｉｎｄｉｇｏ,,合同会社,鹿児島県,鹿児島市,宇宿１丁目２６番２７－７０８号,,46,201,8900073,,,,,,,2025-07-14,1,,,,,インディゴ,0
986,4350001019653,新規,0,2025-07-14,2025-07-14,株式会社ＦＩＲＳＴ,,株式会社,宮崎県,宮崎市,大字田吉８４０番地１エミールシャラン２０３号,,45,201,8800911,,,,,,,2025-07-14,1,,,,,ファースト,0
987,4360001035484,新規,0,2025-07-14,2025-07-14,ＲＯＹ株式会社,,株式会社,沖縄県,浦添市,大平１丁目７番１０号２階,,47,208,9012113,,,,,,,2025-07-14,1,,,,,ロイ,0
988,4360003015088,新規,0,2025-07-14,2025-07-14,Ｎａｎａｎａ合同会社,,合同会社,沖縄県,沖縄市,園田１丁目３番３４号３Ｆ,,47,211,9040022,,,,,,,2025-07-14,1,,,,,ナナナ,0
989,4360003015096,新規,0,2025-07-14,2025-07-14,誠鉄工所合同会社,,合同会社,沖縄県,名護市,大北５丁目１９番３５号,,47,209,9050019,,,,,,,2025-07-14,1,,,,,マコトテッコウショ,0
990,4370001052792,新規,0,2025-07-14,2025-07-14,株式会社ｍａｎａｂｙ　ａｌｔ,,株式会社,宮城県,仙台市宮城野区,榴岡１丁目６番３０号ディーグランツ仙台ビル５階,,04,102,9830852,,,,,,,2025-07-14,1,,,,,マナビーオルト,0
991,4370001052826,新規,0,2025-07-14,2025-07-14,株式会社センチュリーファーム,,株式会社,宮城県,登米市,南方町大袋１８０番地１,,04,212,9870426,,,,,,,2025-07-14,1,,,,,センチュリーファーム,0
993,4380001035458,新規,0,2025-07-14,2025-07-14,株式会社トラジカ,,株式会社,福島県,いわき市,平字杉平１９番地２,,07,204,9708026,,,,,,,2025-07-14,1,,,,,トラジカ,0
999,4480003002289,新規,0,2025-07-14,2025-07-14,合同会社廣瀬会計事務所,,合同会社,徳島県,徳島市,住吉３丁目１番７号第４三宅ビル２０６号,,36,201,7700861,,,,,,,2025-07-14,1,,,,,ヒロセカイケイジムショ,0
1012,5010001256833,新規,0,2025-07-14,2025-07-14,タンデムスプリント株式会社,,株式会社,東京都,中央区,銀座１丁目１２－４Ｎ＆ＥＢＬＤ．７階,,13,102,1040061,,,,,,,2025-07-14,1,,,,,タンデムスプリント,0
1022,5010401191647,新規,0,2025-07-14,2025-07-14,株式会社リキッズ,,株式会社,東京都,港区,白金１丁目２８－１８Ｙビル２階,,13,103,1080072,,,,,,,2025-07-14,1,,,,,リキッズ,0
1027,5010501054398,新規,0,2025-07-14,2025-07-14,ＤＧエクスペリエンス株式会社,,株式会社,東京都,台東区,上野１丁目１１番９号イマスサニービル７階だれでもモバイル内,,13,106,1100005,,,,,,,2025-07-14,1,,,,,ディージーエクスペリエンス,0
1032,5010601067473,新規,0,2025-07-14,2025-07-14,株式会社ＭｉｉＡ,,株式会社,東京都,江東区,東雲１丁目９番４－４２１０号,,13,108,1350062,,,,,,,2025-07-14,1,,,,,ミーア,0
1038,5010905004800,新規,0,2025-07-14,2025-07-14,一般社団法人江戸熊手生産者協会,,その他の設立登記法人,東京都,世田谷区,下馬３丁目１４番２号,,13,112,1540002,,,,,,,2025-07-14,1,,,,,エドクマデセイサンシャキョウカイ,0
1052,5011001170660,新規,0,2025-07-14,2025-07-14,株式会社ｎｉｎｏ,,株式会社,東京都,渋谷区,神宮前６丁目２３番４号２Ｆ,,13,113,1500001,,,,,,,2025-07-14,1,,,,,ニノ,0
1053,5011001170677,新規,0,2025-07-14,2025-07-14,Ｐｒｏｃｒｅｗ株式会社,,株式会社,東京都,渋谷区,恵比寿南３丁目１－１恵比寿グリーングラス６階,,13,113,1500022,,,,,,,2025-07-14,1,,,,,プロクルー,0
1054,5011001170784,新規,0,2025-07-14,2025-07-14,Ａｎｙ　Ｘ株式会社,,株式会社,東京都,渋谷区,道玄坂１丁目１０番８号渋谷道玄坂東急ビル２Ｆ－Ｃ,,13,113,1500043,,,,,,,2025-07-14,1,,,,,エニーエックス,0
1055,5011001171139,新規,0,2025-07-14,2025-07-14,Ｅｍｂｌｏｏｍ株式会社,,株式会社,東京都,渋谷区,円山町５番３号ＭＩＥＵＸ渋谷ビル８階,,13,113,1500044,,,,,,,2025-07-14,1,,,,,エンブルーム,0
1061,5011003021944,新規,0,2025-07-14,2025-07-14,合同会社ＴＡＢＩＣＯ,,合同会社,東京都,渋谷区,道玄坂１丁目１０番８号渋谷道玄坂東急ビル２Ｆ－Ｃ,,13,113,1500043,,,,,,,2025-07-14,1,,,,,タビコ,0
1065,5011101112439,新規,0,2025-07-14,2025-07-14,株式会社ＣＩＴＯＲＯＮ,,株式会社,東京都,新宿区,西新宿５丁目５番１号ザ・パークハウス西新宿タワー６０,,13,104,1600023,,,,,,,2025-07-14,1,,,,,シトロン,0
1066,5011101112455,新規,0,2025-07-14,2025-07-14,メキメキメキシコ株式会社,,株式会社,東京都,新宿区,西新宿３丁目３番１３号西新宿水間ビル２階,,13,104,1600023,,,,,,,2025-07-14,1,,,,,メキメキメキシコ,0
1081,5012301014466,新規,0,2025-07-14,2025-07-14,株式会社匠企画,,株式会社,東京都,町田市,相原町３２２６番地１,,13,209,1940211,,,,,,,2025-07-14,1,,,,,タクミキカク,0
1083,5013101009747,新規,0,2025-07-14,2025-07-14,宇拓株式会社,,株式会社,東京都,福生市,南田園１丁目１３番１２号－２０２号室,,13,218,1970004,,,,,,,2025-07-14,1,,,,,ウタク,0
1088,5020001163822,新規,0,2025-07-14,2025-07-14,株式会社エヌ・ケー,,株式会社,神奈川県,横浜市金沢区,富岡東２丁目５番１４－３０２号,,14,108,2360051,,,,,,,2025-07-14,1,,,,,エヌケー,0
1089,5020001163839,新規,0,2025-07-14,2025-07-14,株式会社左合建設,,株式会社,神奈川県,川崎市高津区,北見方１丁目２６－７ル・コトリ２０１,,14,134,2130005,,,,,,,2025-07-14,1,,,,,サゴウケンセツ,0
1095,5020003028890,新規,0,2025-07-14,2025-07-14,合同会社ベル,,合同会社,神奈川県,横浜市中区,福富町西通１番地８ＩＭ桜木町ビル４－Ａ,,14,104,2310042,,,,,,,2025-07-14,1,,,,,ベル,0
1099,5021001085767,新規,0,2025-07-14,2025-07-14,株式会社Ｎａｇｉｓａ　Ｌａｂ,,株式会社,神奈川県,鎌倉市,材木座６丁目４番２１号,,14,204,2480013,,,,,,,2025-07-14,1,,,,,ナギサラボ,0
1100,5021003016266,新規,0,2025-07-14,2025-07-14,合同会社碧,,合同会社,神奈川県,秦野市,渋沢２３１８番地の３,,14,211,2591322,,,,,,,2025-07-14,1,,,,,アオイ,0
1109,5030001167582,新規,0,2025-07-14,2025-07-14,株式会社グランド,,株式会社,埼玉県,戸田市,下前１丁目１１番２０－３０６号,,11,224,3350016,,,,,,,2025-07-14,1,,,,,グランド,0
1110,5030001167632,新規,0,2025-07-14,2025-07-14,ステラゴルフ株式会社,,株式会社,埼玉県,所沢市,寿町２６番６－７０７号,,11,208,3591122,,,,,,,2025-07-14,1,,,,,ステラゴルフ,0
1116,5040001139572,新規,0,2025-07-14,2025-07-14,株式会社クルーズ,,株式会社,千葉県,山武市,美杉野１丁目３番地１５,,12,237,2891224,,,,,,,2025-07-14,1,,,,,クルーズ,0
1117,5040001139630,新規,0,2025-07-14,2025-07-14,株式会社ＫＳＫミュージック,,株式会社,千葉県,柏市,大室１４９９番地４９,,12,217,2770813,,,,,,,2025-07-14,1,,,,,ケイエスケイミュージック,0
1118,5040001139655,新規,0,2025-07-14,2025-07-14,株式会社ソルバンス,,株式会社,千葉県,市原市,五井中央西１丁目３３番地１５,,12,219,2900081,,,,,,,2025-07-14,1,,,,,ソルバンス,0
1119,5040001139663,新規,0,2025-07-14,2025-07-14,株式会社イチハラ住設,,株式会社,千葉県,千葉市若葉区,桜木３丁目２番１３号,,12,104,2640028,,,,,,,2025-07-14,1,,,,,イチハラジュウセツ,0
1124,5040003027973,新規,0,2025-07-14,2025-07-14,合同会社エフェリカ,,合同会社,千葉県,我孫子市,湖北台１丁目４－９,,12,222,2701132,,,,,,,2025-07-14,1,,,,,エフェリカ,0
1125,5040003028047,新規,0,2025-07-14,2025-07-14,合同会社ＴＯＢＩＲＡ,,合同会社,千葉県,船橋市,本町１丁目１１－１４－１０１,,12,204,2730005,,,,,,,2025-07-14,1,,,,,トビラ,0
1129,5050001056932,新規,0,2025-07-14,2025-07-14,ＨＨ　ＺＥＢ　ＴＲＡＤＥＲＳ株式会社,,株式会社,茨城県,下妻市,小島５５－１１,,08,210,3040051,,,,,,,2025-07-14,1,,,,,エイチエイチゼブトレーダース,0
1130,5050001056940,新規,0,2025-07-14,2025-07-14,株式会社Ｍｉｒａｎｉｘ　Ｈｏｌｄｉｎｇｓ,,株式会社,茨城県,ひたちなか市,十三奉行１９２８番地の１７,,08,221,3111205,,,,,,,2025-07-14,1,,,,,ミラニクスホールディングス,0
1132,5050003009426,新規,0,2025-07-14,2025-07-14,合同会社ＮＤＲ　Ｔｒａｄｉｎｇ　Ｃｏｍｐａｎｙ,,合同会社,茨城県,潮来市,辻１８３番地２アートビル１階,,08,223,3112421,,,,,,,2025-07-14,1,,,,,エヌディーアールトレーディングカンパニー,0
1135,5060003005639,新規,0,2025-07-14,2025-07-14,合同会社ガロン,,合同会社,栃木県,宇都宮市,峰１丁目１０－５りんごの家Ｇ棟,,09,201,3210942,,,,,,,2025-07-14,1,,,,,ガロン,0
1138,5080001027030,新規,0,2025-07-14,2025-07-14,株式会社３ｐｒｉｍａｒｙ,,株式会社,静岡県,静岡市葵区,秋山町６番１７号,,22,101,4200948,,,,,,,2025-07-14,1,,,,,スリープライマリー,0
1146,5100001038768,新規,0,2025-07-14,2025-07-14,株式会社ＭＳＴＨＤ,,株式会社,長野県,上伊那郡辰野町,大字樋口１３６５番地,,20,382,3990425,,,,,,,2025-07-14,1,,,,,エムエスティーホールディング,0
1147,5100003008273,新規,0,2025-07-14,2025-07-14,合同会社Ｓｉａｇｒｉｔ,,合同会社,長野県,長野市,篠ノ井会５番地１２,,20,201,3888004,,,,,,,2025-07-14,1,,,,,シアグリット,0
1158,5120001277604,新規,0,2025-07-14,2025-07-14,三墨株式会社,,株式会社,大阪府,大阪市都島区,都島中通１丁目１６番１５－６０２,,27,102,5340022,,,,,,,2025-07-14,1,,,,,ミスミ,0
1159,5120001277851,新規,0,2025-07-14,2025-07-14,暢宇株式会社,,株式会社,大阪府,大阪市中央区,谷町６丁目４－３４ＪＰアパートメント大阪谷町３０３号,,27,128,5420012,,,,,,,2025-07-14,1,,,,,ノウ,0
1162,5120003029994,新規,0,2025-07-14,2025-07-14,小喜猪トラベル合同会社,,合同会社,大阪府,大阪市西成区,萩之茶屋２丁目６番４号２１０号室,,27,122,5570004,,,,,,,2025-07-14,1,,,,,コキチョトラベル,0
1163,5120003030003,新規,0,2025-07-14,2025-07-14,つるむらさき合同会社,,合同会社,大阪府,大阪市生野区,巽北１丁目８－９アインス巽７０７,00139915,27,116,5440004,,,,,,,2025-07-14,1,,,,,ツルムラサキ,0
1167,5120903005756,新規,0,2025-07-14,2025-07-14,合同会社美姿声ボイスＬａｂ．,,合同会社,大阪府,箕面市,西小路３丁目１－１１－５０２ノースメイプル箕面,,27,220,5620003,,,,,,,2025-07-14,1,,,,,ビシセイボイスラボ,0
1170,5122001039414,新規,0,2025-07-14,2025-07-14,株式会社Ｔ・Ｋ,,株式会社,大阪府,東大阪市,西岩田３丁目５番２９第３ガーデンハイツＡ棟１１６号,,27,227,5780947,,,,,,,2025-07-14,1,,,,,ティーケー,0
1171,5122001039430,新規,0,2025-07-14,2025-07-14,株式会社ＯＺ‐Ｌｉｎｋ,,株式会社,大阪府,東大阪市,若江東町３丁目３番２８号,,27,227,5780935,,,,,,,2025-07-14,1,,,,,オズリンク,0
1187,5140001139224,新規,0,2025-07-14,2025-07-14,セイカテクノロジー株式会社,,株式会社,兵庫県,明石市,和坂１２番地の２山崎ビル３０５号室,,28,203,6730000,,,,,,,2025-07-14,1,,,,,セイカテクノロジー,0
1188,5140001139298,新規,0,2025-07-14,2025-07-14,株式会社福羅,,株式会社,兵庫県,神戸市灘区,灘南通１丁目３番２３号,,28,102,6570841,,,,,,,2025-07-14,1,,,,,フクラ,0
1192,5140005027557,新規,0,2025-07-14,2025-07-14,一般社団法人ここのは,,その他の設立登記法人,兵庫県,加西市,朝妻町１０１３番地の１,,28,220,6790105,,,,,,,2025-07-14,1,,,,,ココノハ,0
1195,5160001026874,新規,0,2025-07-14,2025-07-14,株式会社Ｏ．Ｍ．Ｊ,,株式会社,滋賀県,大津市,南小松字男松１０９５番５８,,25,201,5200502,,,,,,,2025-07-14,1,,,,,オーエムジェイ,0
1196,5160001026899,新規,0,2025-07-14,2025-07-14,株式会社冨安,,株式会社,滋賀県,大津市,南船路７０番地,,25,201,5200516,,,,,,,2025-07-14,1,,,,,トミヤス,0
1197,5160001026908,新規,0,2025-07-14,2025-07-14,フォープラス株式会社,,株式会社,滋賀県,彦根市,幸町７４番地１,,25,202,5220021,,,,,,,2025-07-14,1,,,,,フォープラス,0
1198,5160003003541,新規,0,2025-07-14,2025-07-14,合同会社ＳＴＯＲＹ　ＴＲＡＤＥＲ,,合同会社,滋賀県,草津市,野路７丁目１９番６－２０１号レーベンバンブーＩＩＩ,00139911,25,206,5250059,,,,,,,2025-07-14,1,,,,,ストーリートレーダー,0
1206,5180001167601,新規,0,2025-07-14,2025-07-14,株式会社Ｍｉｎｏｖａ,,株式会社,愛知県,名古屋市名東区,高間町３８番地２,,23,115,4650081,,,,,,,2025-07-14,1,,,,,ミノヴァ,0
1207,5180001167642,新規,0,2025-07-14,2025-07-14,株式会社Ｐエステート,,株式会社,愛知県,名古屋市東区,東桜２丁目３番７号,,23,102,4610005,,,,,,,2025-07-14,1,,,,,ピーエステート,0
1208,5180001167667,新規,0,2025-07-14,2025-07-14,株式会社Ｎテック,,株式会社,愛知県,半田市,仲田町２丁目３４番地の２グランドソレーユ１０５号,,23,205,4750929,,,,,,,2025-07-14,1,,,,,エヌテック,0
1209,5180001167683,新規,0,2025-07-14,2025-07-14,ＨＹＯ株式会社,,株式会社,愛知県,一宮市,笹野字宮西２９番地,,23,203,4910131,,,,,,,2025-07-14,1,,,,,エイチワイオー,0
1210,5180001167691,新規,0,2025-07-14,2025-07-14,株式会社オレンジ,,株式会社,愛知県,豊明市,西川町島原１１番地２０,,23,229,4701121,,,,,,,2025-07-14,1,,,,,オレンジ,0
1211,5180001167717,新規,0,2025-07-14,2025-07-14,株式会社マロシカ・クリエイション,,株式会社,愛知県,名古屋市港区,木場町６番地の７,,23,111,4550021,,,,,,,2025-07-14,1,,,,,マロシカクリエイション,0
1212,5180001167733,新規,0,2025-07-14,2025-07-14,株式会社Ａ’Ｓｈｕａ　Ｐａｒｔｎｅｒｓ,,株式会社,愛知県,名古屋市中区,栄３丁目３５番２１号,,23,106,4600008,,,,,,,2025-07-14,1,,,,,アシュアパートナーズ,0
1214,5180003028743,新規,0,2025-07-14,2025-07-14,ＡＬ　ＨＡＹＡＮＩ　ＴＲＡＤＩＮＧ合同会社,,合同会社,愛知県,海部郡蟹江町,舟入３丁目５２番地,,23,425,4970048,,,,,,,2025-07-14,1,,,,,アルハヤニトレーディング,0
1215,5180003028751,新規,0,2025-07-14,2025-07-14,合同会社ファーストステップ,,合同会社,愛知県,日進市,香久山３丁目１４０８番地,,23,230,4700134,,,,,,,2025-07-14,1,,,,,ファーストステップ,0
1217,5180301040012,新規,0,2025-07-14,2025-07-14,Ｃｏｌｏｒｓ経営オフィス株式会社,,株式会社,愛知県,安城市,桜井町下谷８５番地２,,23,212,4441154,,,,,,,2025-07-14,1,,,,,カラーズケイエイオフィス,0
1219,5180303006655,新規,0,2025-07-14,2025-07-14,ＮＥＸＴＶＥＲＳＥ　Ｅｓｔａｔｅ合同会社,,合同会社,愛知県,豊田市,曙町２丁目１６番地ＢＵＬＳ１６－１０３号,,23,211,4710835,,,,,,,2025-07-14,1,,,,,ネクストバースエステート,0
1221,5190001032390,新規,0,2025-07-14,2025-07-14,株式会社ヴィナイア,,株式会社,三重県,伊賀市,緑ケ丘本町１６４０番地の１,,24,216,5180836,,,,,,,2025-07-14,1,,,,,,0
1226,5190003005114,新規,0,2025-07-14,2025-07-14,合同会社まごころホーム三重桑名,,合同会社,三重県,桑名市,長島町赤地１５７番地１,,24,205,5111131,,,,,,,2025-07-14,1,,,,,マゴコロホームミエクワナ,0
1229,5200001044013,新規,0,2025-07-14,2025-07-14,愛殿株式会社,,株式会社,岐阜県,岐阜市,日野南４丁目１５番９号,,21,201,5008212,,,,,,,2025-07-14,1,,,,,アイデン,0
1242,5240001065220,新規,0,2025-07-14,2025-07-14,株式会社かたるデザイン,,株式会社,広島県,広島市中区,基町１２－５ｃｏ－ｂａｈｉｒｏｓｈｉｍａ内,,34,101,7300011,,,,,,,2025-07-14,1,,,,,カタルデザイン,0
1244,5240003007303,新規,0,2025-07-14,2025-07-14,合同会社Ｆｅａｔ．Ｃｏ,,合同会社,広島県,福山市,三吉町１丁目８－２７－４,,34,207,7200031,,,,,,,2025-07-14,1,,,,,フィーチャーコー,0
1252,5290001110673,新規,0,2025-07-14,2025-07-14,株式会社ＴＲＵＳＴ　ＯＮＥ,,株式会社,福岡県,福岡市博多区,博多駅前２丁目１９番１７号,,40,132,8120011,,,,,,,2025-07-14,1,,,,,トラストワン,0
1253,5290001110681,新規,0,2025-07-14,2025-07-14,株式会社Ｋ＆Ｎ,,株式会社,福岡県,大野城市,雑餉隈町１丁目５番２９号,,40,219,8160923,,,,,,,2025-07-14,1,,,,,ケーアンドエヌ,0
1254,5290001110707,新規,0,2025-07-14,2025-07-14,株式会社ＣｏｃｏＲｏｎｅ　Ｌｅａｆ,,株式会社,福岡県,福岡市中央区,笹丘３丁目２８番１２号,,40,133,8100034,,,,,,,2025-07-14,1,,,,,ココロネリーフ,0
1255,5290003017090,新規,0,2025-07-14,2025-07-14,合同会社２Ｚ,,合同会社,福岡県,福岡市南区,桧原７丁目５６番地１３号,,40,134,8111355,,,,,,,2025-07-14,1,,,,,ツゥーズィー,0
1259,5290803005105,新規,0,2025-07-14,2025-07-14,合同会社５３４,,合同会社,福岡県,北九州市小倉北区,白銀１丁目１１‐２９‐８０２,,40,106,8020074,,,,,,,2025-07-14,1,,,,,ゴーサンヨン,0
1265,5340001027499,新規,0,2025-07-14,2025-07-14,株式会社ＫＡＴＯＭＯ資源,,株式会社,鹿児島県,大島郡伊仙町,大字伊仙１３７５－２,,46,532,8918201,,,,,,,2025-07-14,1,,,,,カトモシゲン,0
1267,5350001019644,新規,0,2025-07-14,2025-07-14,株式会社ホイストクレーンサービス,,株式会社,宮崎県,延岡市,出北２丁目５番２号,,45,203,8820856,,,,,,,2025-07-14,1,,,,,ホイストクレーンサービス,0
1271,5360001035467,新規,0,2025-07-14,2025-07-14,株式会社ＭＹキムチ,,株式会社,沖縄県,中頭郡北中城村,字熱田３１番地２,,47,327,9012313,,,,,,,2025-07-14,1,,,,,マイキムチ,0
1272,5360001035475,新規,0,2025-07-14,2025-07-14,株式会社ワカサ,,株式会社,沖縄県,宮古島市,平良字下里５８番地１,,47,214,9060013,,,,,,,2025-07-14,1,,,,,ワカサ,0
1273,5360003015095,新規,0,2025-07-14,2025-07-14,かすみ草合同会社,,合同会社,沖縄県,那覇市,牧志２丁目１７番２７－４０１号,,47,201,9000013,,,,,,,2025-07-14,1,,,,,カスミソウ,0
1274,5370001052825,新規,0,2025-07-14,2025-07-14,ＹＢＪ株式会社,,株式会社,宮城県,宮城郡利府町,森郷字後楽西３０番地２,,04,406,9810103,,,,,,,2025-07-14,1,,,,,ワイビージェイ,0
1275,5370003007190,新規,0,2025-07-14,2025-07-14,ＭｏＭｏ合同会社,,合同会社,宮城県,仙台市宮城野区,原町３丁目８－７内海１０１号室,,04,102,9830841,,,,,,,2025-07-14,1,,,,,モモ,0
1280,5380001035457,新規,0,2025-07-14,2025-07-14,アーキハヤブサ株式会社,,株式会社,福島県,二本松市,永田２丁目３４２番地１,,07,210,9640029,,,,,,,2025-07-14,1,,,,,アーキハヤブサ,0
1289,5430003017836,新規,0,2025-07-14,2025-07-14,合同会社梅雅総業,,合同会社,北海道,札幌市豊平区,美園六条３丁目４－１７－１０２,,01,105,0620006,,,,,,,2025-07-14,1,,,,,ウメミヤビソウギョウ,0
1290,5440001009652,新規,0,2025-07-14,2025-07-14,株式会社京鵬ＪＡＰＡＮ,,株式会社,北海道,檜山郡上ノ国町,字原歌３７番地１,,01,362,0490602,,,,,,,2025-07-14,1,,,,,キョウホウジャパン,0
1294,5490001011109,新規,0,2025-07-14,2025-07-14,株式会社助広モータース,,株式会社,高知県,高知市,布師田３９３６番地１,,39,201,7815101,,,,,,,2025-07-14,1,,,,,スケヒロモータース,0
1300,6010001256808,新規,0,2025-07-14,2025-07-14,海宴恒昌資管株式会社,,株式会社,東京都,千代田区,永田町２丁目１７－１０サンハイム２０２号室,,13,101,1000014,,,,,,,2025-07-14,1,,,,,カイエンコウショウシカン,0
1307,6010401191679,新規,0,2025-07-14,2025-07-14,株式会社アセット,,株式会社,東京都,港区,白金１丁目２番１－Ｅ２３０２号,,13,103,1080072,,,,,,,2025-07-14,1,,,,,アセット,0
1308,6010401191745,新規,0,2025-07-14,2025-07-14,株式会社ＨＡＲＢＯＲ　ＬＩＧＨＴＳ,,株式会社,東京都,港区,北青山１丁目３番１号アールキューブ青山３階,,13,103,1070061,,,,,,,2025-07-14,1,,,,,ハーバーライツ,0
1317,6010601067588,新規,0,2025-07-14,2025-07-14,株式会社Ｍｅｌｌｏｗ　Ｐｌａｎｅｔ,,株式会社,東京都,江東区,富岡１丁目５番１０号千歳富岡ビル３Ｆ,,13,108,1350047,,,,,,,2025-07-14,1,,,,,メロープラネット,0
1318,6010601067596,新規,0,2025-07-14,2025-07-14,株式会社Ｓｈａｏｗ,,株式会社,東京都,墨田区,緑２丁目１６番２－１３０２号ライオンズプラザ両国,,13,107,1300021,,,,,,,2025-07-14,1,,,,,シャオ,0
1326,6010901057743,新規,0,2025-07-14,2025-07-14,株式会社ひぐま,,株式会社,東京都,世田谷区,玉川台１丁目５番３－２０１号,,13,112,1580096,,,,,,,2025-07-14,1,,,,,ヒグマ,0
1333,6011001170701,新規,0,2025-07-14,2025-07-14,株式会社ＯＮＥｃｙ,,株式会社,東京都,目黒区,大橋２丁目４番２１号池尻大橋グリーンランドビル４階,,13,110,1530044,,,,,,,2025-07-14,1,,,,,ワンシー,0
1334,6011001170734,新規,0,2025-07-14,2025-07-14,和済薬林株式会社,,株式会社,東京都,目黒区,目黒本町５丁目２０番７号ＫＯＫＩ武蔵小山ビル,,13,110,1520002,,,,,,,2025-07-14,1,,,,,ワサイヤクリン,0
1335,6011001170800,新規,0,2025-07-14,2025-07-14,株式会社ＳＹＮＡＰＴＩＫ,,株式会社,東京都,渋谷区,円山町５番５号Ｎａｖｉ渋谷Ｖ３階,,13,113,1500044,,,,,,,2025-07-14,1,,,,,シナプティック,0
1336,6011001170809,新規,0,2025-07-14,2025-07-14,エフ・イー・エム株式会社,,株式会社,東京都,渋谷区,大山町２３番６－３０１号,,13,113,1510065,,,,,,,2025-07-14,1,,,,,エフイーエム,0
1337,6011001170874,新規,0,2025-07-14,2025-07-14,教育経営デザイン株式会社,,株式会社,東京都,渋谷区,渋谷２丁目２０番１１号渋谷協和ビル１０階ＮｅｕｒｏＨｕｂ,,13,113,1500002,,,,,,,2025-07-14,1,,,,,キョウイクケイエイデザイン,0
1338,6011003021927,新規,0,2025-07-14,2025-07-14,ＫＵワーク合同会社,,合同会社,東京都,渋谷区,神南１丁目１１－４ＦＰＧリンクス神南５階,,13,113,1500041,,,,,,,2025-07-14,1,,,,,ケーユーワーク,0
1339,6011003021935,新規,0,2025-07-14,2025-07-14,Ｄｉｇ　ｐｉｒａｔｅ合同会社,,合同会社,東京都,渋谷区,神宮前６丁目３５番３号,,13,113,1500001,,,,,,,2025-07-14,1,,,,,ディグパイレーツ,0
1340,6011003021943,新規,0,2025-07-14,2025-07-14,ｇ９ｎ合同会社,,合同会社,東京都,渋谷区,恵比寿西２丁目４番８号ウィンド恵比寿ビル８Ｆ,,13,113,1500021,,,,,,,2025-07-14,1,,,,,ジーナイン,0
1346,6011101112405,新規,0,2025-07-14,2025-07-14,ギア少額短期準備株式会社,,株式会社,東京都,新宿区,新宿１丁目３１番１６号,,13,104,1600022,,,,,,,2025-07-14,1,,,,,ギアショウガクタンキジュンビ,0
1347,6011101112504,新規,0,2025-07-14,2025-07-14,ＴＯＳＥＩ　ＶＡＬＵＥ株式会社,,株式会社,東京都,新宿区,西新宿３丁目３番１３号西新宿水間ビル６階,,13,104,1600023,,,,,,,2025-07-14,1,,,,,トセイバリュー,0
1354,6011601028803,新規,0,2025-07-14,2025-07-14,クマノテ株式会社,,株式会社,東京都,練馬区,田柄１丁目１６番９号青豆ハウス００８,,13,120,1790073,,,,,,,2025-07-14,1,,,,,クマノテ,0
1370,6020001163763,新規,0,2025-07-14,2025-07-14,灯順広告株式会社,,株式会社,神奈川県,横浜市神奈川区,六角橋２丁目２５番２２号田中ビル１０１号,,14,102,2210802,,,,,,,2025-07-14,1,,,,,,0
1371,6020001163895,新規,0,2025-07-14,2025-07-14,カラフルクリエイツ株式会社,,株式会社,神奈川県,横浜市西区,北幸２丁目１０番４８号むつみビル３階,,14,103,2200004,,,,,,,2025-07-14,1,,,,,カラフルクリエイツ,0
1382,6030001167540,新規,0,2025-07-14,2025-07-14,Ｒｅｉ不動産株式会社,,株式会社,埼玉県,さいたま市大宮区,桜木町２丁目３番地,,11,103,3300854,,,,,,,2025-07-14,1,,,,,レイフドウサン,0
1387,6040003028038,新規,0,2025-07-14,2025-07-14,Ｙｕｍｅｉｎｏｃｈｉ合同会社,,合同会社,千葉県,八千代市,高津３９０－２１,,12,221,2760036,,,,,,,2025-07-14,1,,,,,ユメイノチ,0
1391,6050001056931,新規,0,2025-07-14,2025-07-14,筑南総合ホールディングス株式会社,,株式会社,茨城県,つくば市,上ノ室２０５３番地２,,08,220,3050023,,,,,,,2025-07-14,1,,,,,チクナンソウゴウホールディングス,0
1392,6050001056948,新規,0,2025-07-14,2025-07-14,株式会社六方嘉,,株式会社,茨城県,つくば市,吾妻１丁目５－７ダイワロイネットホテルつくばビル１Ｆ・２Ｆ,,08,220,3050031,,,,,,,2025-07-14,1,,,,,ロッポウヨシ,0
1401,6080001027038,新規,0,2025-07-14,2025-07-14,Ｃａｂｕｋｏ　Ａｓｓｅｔ　Ｍａｎａｇｅｍｅｎｔ株式会社,,株式会社,静岡県,焼津市,焼津３丁目６番６号,,22,212,4250026,,,,,,,2025-07-14,1,,,,,キャブコアセットマネージメント,0
1419,6120001277710,新規,0,2025-07-14,2025-07-14,株式会社ｃｌａｉｒ,,株式会社,大阪府,大阪市北区,天神橋７丁目１１番６－２４０６号,,27,127,5310041,,,,,,,2025-07-14,1,,,,,クレール,0
1420,6120001277850,新規,0,2025-07-14,2025-07-14,錦山株式会社,,株式会社,大阪府,大阪市淀川区,木川西４丁目２－１６朝日プラザ梅田北デラ・リブジェ４０９号,,27,123,5320013,,,,,,,2025-07-14,1,,,,,キンサン,0
1421,6120001277883,新規,0,2025-07-14,2025-07-14,株式会社ＩＰＰＯ,,株式会社,大阪府,大阪市北区,天神橋１丁目１８番２７号天神ビル４０４,,27,127,5300041,,,,,,,2025-07-14,1,,,,,イッポ,0
1430,6120903005755,新規,0,2025-07-14,2025-07-14,合同会社ＹＭｃｏｍｐａｎｙ,,合同会社,大阪府,摂津市,鳥飼中１丁目３３番１９号,,27,224,5660064,,,,,,,2025-07-14,1,,,,,ワイエムカンパニー,0
1432,6122001039421,新規,0,2025-07-14,2025-07-14,株式会社Ｌｉｎｏ　Ｄｅｃｏｒａｔｉｏｎ,,株式会社,大阪府,東大阪市,花園本町２丁目１１番２９－４０３号,,27,227,5780937,,,,,,,2025-07-14,1,,,,,リノデコレーション,0
1437,6130001080097,新規,0,2025-07-14,2025-07-14,ＣＩＮＣＹ精機株式会社,,株式会社,京都府,京都市山科区,御陵封ジ山町７－４６－２０６号室,,26,110,6078422,,,,,,,2025-07-14,1,,,,,シンシーセイキ,0
1443,6140001139231,新規,0,2025-07-14,2025-07-14,株式会社ｍｉｅｔｅｒｕ,,株式会社,兵庫県,芦屋市,春日町７番３号サンクレール芦屋２０２,00139914,28,206,6590021,,,,,,,2025-07-14,1,,,,,ミエテル,0
1444,6140001139248,新規,0,2025-07-14,2025-07-14,株式会社Ｔ‐ｍｉｎｉ,,株式会社,兵庫県,伊丹市,野間３丁目４番１９－２０２号,,28,207,6640873,,,,,,,2025-07-14,1,,,,,ティーミニ,0
1445,6140001139330,新規,0,2025-07-14,2025-07-14,未来橋株式会社,,株式会社,兵庫県,神戸市兵庫区,西多聞通２丁目２番８－４０１号,,28,105,6520035,,,,,,,2025-07-14,1,,,,,ミライバシ,0
1451,6160001026873,新規,0,2025-07-14,2025-07-14,株式会社ＹＡＭＡＩＣＨＩ,,株式会社,滋賀県,草津市,木川町４３１番地,,25,206,5250051,,,,,,,2025-07-14,1,,,,,ヤマイチ,0
1452,6160003003532,新規,0,2025-07-14,2025-07-14,近江翔進合同会社,,合同会社,滋賀県,草津市,南笠東４丁目８－７シャトレ岡田１０１,,25,206,5250071,,,,,,,2025-07-14,1,,,,,オウミショウシン,0
1464,6180001167674,新規,0,2025-07-14,2025-07-14,株式会社Ｉ　ＨＯＰＥ,,株式会社,愛知県,名古屋市千種区,月ケ丘３丁目７番３５号－１,,23,101,4640043,,,,,,,2025-07-14,1,,,,,アイホープ,0
1465,6180001167682,新規,0,2025-07-14,2025-07-14,株式会社ＭＴフィッシュマン,,株式会社,愛知県,名古屋市中区,新栄２丁目５番１０号,,23,106,4600007,,,,,,,2025-07-14,1,,,,,エムティフィッシュマン,0
1466,6180001167732,新規,0,2025-07-14,2025-07-14,株式会社ＳＳＢライン,,株式会社,愛知県,小牧市,間々本町２１３番地１,,23,219,4850048,,,,,,,2025-07-14,1,,,,,エスエスビーライン,0
1467,6180001167740,新規,0,2025-07-14,2025-07-14,ＭＯＫＥＩＬ株式会社,,株式会社,愛知県,名古屋市中村区,畑江通７丁目１１番地の１,,23,105,4530851,,,,,,,2025-07-14,1,,,,,モケイル,0
1468,6180001167773,新規,0,2025-07-14,2025-07-14,悠美肌株式会社,,株式会社,愛知県,名古屋市中村区,則武１丁目２６番２３号,,23,105,4530014,,,,,,,2025-07-14,1,,,,,ユウビハダ,0
1474,6180003028742,新規,0,2025-07-14,2025-07-14,合同会社アイシャトレーディング,,合同会社,愛知県,一宮市,浅野字青石２３番地３県営浅野住宅１棟２０７号,,23,203,4910871,,,,,,,2025-07-14,1,,,,,アイシャトレーディング,0
1485,6230001020984,新規,0,2025-07-14,2025-07-14,縁カンパニー株式会社,,株式会社,富山県,下新川郡朝日町,桜町１０４番地３,,16,343,9390714,,,,,,,2025-07-14,1,,,,,エニシカンパニー,0
1493,6290001110648,新規,0,2025-07-14,2025-07-14,株式会社Ｒｕｎｄｏｏｒ,,株式会社,福岡県,八女郡広川町,大字新代６３番地１,,40,544,8340115,,,,,,,2025-07-14,1,,,,,ランドア,0
1494,6290001110664,新規,0,2025-07-14,2025-07-14,Ｊｅ　ｍｅ　Ｓｏｕｖｉｅｎｓ株式会社,,株式会社,福岡県,福岡市中央区,白金２丁目４番２８号４階,,40,133,8100012,,,,,,,2025-07-14,1,,,,,ジュムスヴィヤン,0
1495,6290001110706,新規,0,2025-07-14,2025-07-14,株式会社ａｃｃｅｐｔ,,株式会社,福岡県,福岡市中央区,高砂２丁目１１番２４－８０３号,,40,133,8100011,,,,,,,2025-07-14,1,,,,,アクセプト,0
1496,6290001110739,新規,0,2025-07-14,2025-07-14,株式会社ＧＲＥＡＳ,,株式会社,福岡県,福岡市博多区,博多駅前４丁目３２番２１号,,40,132,8120011,,,,,,,2025-07-14,1,,,,,グリーズ,0
1497,6290001110747,新規,0,2025-07-14,2025-07-14,株式会社ｗｏｏｄ　ｖｉｎｔａｇｅ,,株式会社,福岡県,福岡市中央区,春吉２丁目１８番２９号,,40,133,8100003,,,,,,,2025-07-14,1,,,,,ウッドビンテージ,0
1500,6290801031713,新規,0,2025-07-14,2025-07-14,株式会社岩崎建工,00139912,株式会社,福岡県,北九州市八幡西区,本城東５丁目１１番１３－１０１号,,40,109,8070815,,,,,,,2025-07-14,1,,,,,イワサキケンコウ,0
1502,6290805009846,新規,0,2025-07-14,2025-07-14,能丸・松原税理士法人,,その他の設立登記法人,福岡県,北九州市八幡東区,西本町４丁目１４番１４－１０１号,,40,108,8050061,,,,,,,2025-07-14,1,,,,,ノウマルマツバラ,0
1507,6320003004704,新規,0,2025-07-14,2025-07-14,丸野電器商会合同会社,,合同会社,大分県,大分市,上田町２丁目３番６号,,44,201,8700886,,,,,,,2025-07-14,1,,,,,マルノデンキショウカイ,0
1508,6320003004720,新規,0,2025-07-14,2025-07-14,合同会社ＩＮ　ＴＨＥ　ＬＩＦＥ,,合同会社,大分県,大分市,法勝台１丁目１番３号明友モール２０２,,44,201,8700171,,,,,,,2025-07-14,1,,,,,インザライフ,0
1512,6340001027498,新規,0,2025-07-14,2025-07-14,西農機商会株式会社,,株式会社,鹿児島県,大島郡伊仙町,大字阿三１３９９番地２,,46,532,8918321,,,,,,,2025-07-14,1,,,,,ニシノウキショウカイ,0
1513,6340001027507,新規,0,2025-07-14,2025-07-14,チャーリーズカンパニー株式会社,,株式会社,鹿児島県,薩摩川内市,西向田町６番３３号旭ビル１Ｆ,,46,215,8950027,,,,,,,2025-07-14,1,,,,,チャーリーズカンパニー,0
1520,6360001035474,新規,0,2025-07-14,2025-07-14,Ｏｃｅａｎ　Ｒｏｐｅ株式会社,,株式会社,沖縄県,中頭郡読谷村,字比謝１９番地,,47,324,9040311,,,,,,,2025-07-14,1,,,,,オーシャンロープ,0
1521,6360001035482,新規,0,2025-07-14,2025-07-14,株式会社Ｔｈｅ　Ｐｅａｒｌ＆Ｗａｖｅ　Ｃｏ．,,株式会社,沖縄県,中頭郡読谷村,字大湾３１２番地１－１０３,,47,324,9040313,,,,,,,2025-07-14,1,,,,,ザパールアンドウェーブ,0
1522,6360001035490,新規,0,2025-07-14,2025-07-14,ｍｒｃ株式会社,,株式会社,沖縄県,宮古島市,平良字西里１８８０－１,,47,214,9060012,,,,,,,2025-07-14,1,,,,,エムアールシー,0
1523,6360005007255,新規,0,2025-07-14,2025-07-14,一般社団法人Ｕｎｃｈａｉｎｅｄ　Ｓｔａｃｋ　Ｆｏｕｎｄａｔｉｏｎ,,その他の設立登記法人,沖縄県,那覇市,おもろまち１丁目１番２５号,,47,201,9000006,,,,,,,2025-07-14,1,,,,,アンチェインドスタックファウンデーション,0
1524,6370001052824,新規,0,2025-07-14,2025-07-14,株式会社仙台小型流通,,株式会社,宮城県,仙台市宮城野区,福室２丁目５番８号アクロスタワー１４０５号,,04,102,9830005,,,,,,,2025-07-14,1,,,,,センダイコガタリュウツウ,0
1525,6370001052832,新規,0,2025-07-14,2025-07-14,株式会社キャットハンド,,株式会社,宮城県,仙台市青葉区,中央２丁目１１番１９号仙南ビル４階－Ａ,,04,101,9800021,,,,,,,2025-07-14,1,,,,,キャットハンド,0
1527,6380001035456,新規,0,2025-07-14,2025-07-14,株式会社カバデン,,株式会社,福島県,福島市,南矢野目字道上３１番地の２６,,07,201,9600112,,,,,,,2025-07-14,1,,,,,カバデン,0
1533,6410001014225,新規,0,2025-07-14,2025-07-14,心音ひまわり株式会社,,株式会社,秋田県,秋田市,寺内大畑２番１０号,,05,201,0110939,,,,,,,2025-07-14,1,,,,,ココネヒマワリ,0
1534,6410003004125,新規,0,2025-07-14,2025-07-14,合同会社ＦＴＳ,,合同会社,秋田県,秋田市,楢山登町３番５号,,05,201,0100021,,,,,,,2025-07-14,1,,,,,エフティーエス,0
1535,6420001019198,新規,0,2025-07-14,2025-07-14,株式会社ＧＬＥＮ＆Ｃｏ．,,株式会社,青森県,弘前市,大字御幸町２番地１４,,02,202,0368185,,,,,,,2025-07-14,1,,,,,グレンアンドコー,0
1538,6420003003159,新規,0,2025-07-14,2025-07-14,合同会社ＫＯＴＯＮＯＨＡ,,合同会社,青森県,八戸市,石堂１丁目１６番７号石堂パークタウンＯ号室,,02,203,0391165,,,,,,,2025-07-14,1,,,,,コトノハ,0
1542,6430001094827,新規,0,2025-07-14,2025-07-14,株式会社リクアス,,株式会社,北海道,札幌市手稲区,前田十一条１０丁目１５番１０号,,01,109,0060821,,,,,,,2025-07-14,1,,,,,リクアス,0
1552,6480001012890,新規,0,2025-07-14,2025-07-14,株式会社アルティメット,,株式会社,徳島県,徳島市,川内町上別宮北１３番地の７,,36,201,7710128,,,,,,,2025-07-14,1,,,,,アルティメット,0
1554,6480003002287,新規,0,2025-07-14,2025-07-14,デメルナ・ワークス合同会社,,合同会社,徳島県,海部郡海陽町,大里字白水９２番地１７,,36,388,7750203,,,,,,,2025-07-14,1,,,,,デメルナワークス,0
1555,6490001011108,新規,0,2025-07-14,2025-07-14,ＲＥＬＩＦＥ株式会社,,株式会社,高知県,高知市,北久保９番３２号６０１号室,,39,201,7810088,,,,,,,2025-07-14,1,,,,,リライフ,0
1565,7010001256773,新規,0,2025-07-14,2025-07-14,２１世紀不動産株式会社,,株式会社,東京都,千代田区,内神田１丁目８番９号福田ビル２階,,13,101,1010047,,,,,,,2025-07-14,1,,,,,ニジュウイッセイキフドウサン,0
1566,7010001256848,新規,0,2025-07-14,2025-07-14,株式会社松濤,,株式会社,東京都,千代田区,外神田５丁目４－２,,13,101,1010021,,,,,,,2025-07-14,1,,,,,ショウトウ,0
1567,7010001256864,新規,0,2025-07-14,2025-07-14,株式会社Ｓａｕｃｅｒ,,株式会社,東京都,中央区,銀座１丁目２２番１１号銀座大竹ビジデンス２Ｆ,,13,102,1040061,,,,,,,2025-07-14,1,,,,,ソーサー,0
1568,7010003047972,新規,0,2025-07-14,2025-07-14,合同会社ＣｅｅＤ,,合同会社,東京都,中央区,銀座１丁目１２－４Ｎ＆ＥＢＬＤ．６Ｆ,,13,102,1040061,,,,,,,2025-07-14,1,,,,,シード,0
1589,7010401191637,新規,0,2025-07-14,2025-07-14,Ｃｈｅｅｒｉｎａ株式会社,,株式会社,東京都,港区,六本木４丁目３番１１号六本木ユニハウス３０７,,13,103,1060032,,,,,,,2025-07-14,1,,,,,チアリーナ,0
1593,7010405024520,新規,0,2025-07-14,2025-07-14,特定非営利活動法人まなびあれんじ,,その他の設立登記法人,東京都,港区,浜松町２丁目２番１５号浜松町ダイヤビル２Ｆ,,13,103,1050013,,,,,,,2025-07-14,1,,,,,マナビアレンジ,0
1598,7010601067595,新規,0,2025-07-14,2025-07-14,株式会社ＡＩＲＳＴＹＬＥ,,株式会社,東京都,墨田区,東向島２丁目３６－１,,13,107,1310032,,,,,,,2025-07-14,1,,,,,エアスタイル,0
1599,7010601067620,新規,0,2025-07-14,2025-07-14,株式会社Ｔｉｍｅ　Ｆｌｉｅｓ,,株式会社,東京都,江東区,常盤２丁目８番４－１０４号,,13,108,1350006,,,,,,,2025-07-14,1,,,,,タイムフライズ,0
1600,7010603011675,新規,0,2025-07-14,2025-07-14,合同会社まるおん,,合同会社,東京都,江東区,扇橋１丁目１７番４号,,13,108,1350011,,,,,,,2025-07-14,1,,,,,マルオン,0
1611,7011001170691,新規,0,2025-07-14,2025-07-14,エスターＧ株式会社,,株式会社,東京都,渋谷区,神宮前６丁目１２番２５号３階,,13,113,1500001,,,,,,,2025-07-14,1,,,,,エスタージー,0
1612,7011001170799,新規,0,2025-07-14,2025-07-14,株式会社マーケットコンシェルジュ,,株式会社,東京都,渋谷区,渋谷２丁目１９番１９号ワコー宮益坂ビル５階,,13,113,1500002,,,,,,,2025-07-14,1,,,,,マーケットコンシェルジュ,0
1613,7011001170808,新規,0,2025-07-14,2025-07-14,株式会社ＲｏｚＬｉｏｎ,,株式会社,東京都,渋谷区,代々木４丁目５２番２１－２０９号代々木参宮橋テラス,,13,113,1510053,,,,,,,2025-07-14,1,,,,,ロズライオン,0
1614,7011001170980,新規,0,2025-07-14,2025-07-14,ディープラボ株式会社,,株式会社,東京都,渋谷区,東２丁目２３番３号,,13,113,1500011,,,,,,,2025-07-14,1,,,,,ディープラボ,0
1615,7011001171129,新規,0,2025-07-14,2025-07-14,株式会社Ｒｉｃａ,,株式会社,東京都,渋谷区,恵比寿４丁目５番２１号,,13,113,1500013,,,,,,,2025-07-14,1,,,,,リカ,0
1616,7011003021926,新規,0,2025-07-14,2025-07-14,合同会社Ｏｕｉ,,合同会社,東京都,渋谷区,恵比寿西２丁目８－４ＥＸ恵比寿西ビル５階,,13,113,1500021,,,,,,,2025-07-14,1,,,,,ウイ,0
1617,7011003021959,新規,0,2025-07-14,2025-07-14,合同会社ＮｅｗＨｙｐｅ,,合同会社,東京都,渋谷区,円山町５番３号ＭＩＥＵＸ渋谷ビル８階,,13,113,1500044,,,,,,,2025-07-14,1,,,,,ニューハイプ,0
1628,7011601028802,新規,0,2025-07-14,2025-07-14,株式会社ＥｌｅｖｅｎＢａｃｋ,,株式会社,東京都,練馬区,桜台６丁目３３番１７号,,13,120,1760002,,,,,,,2025-07-14,1,,,,,イレブンバック,0
1635,7013101009745,新規,0,2025-07-14,2025-07-14,日光電工株式会社,,株式会社,東京都,青梅市,今井２丁目６９２番地の５,,13,205,1980023,,,,,,,2025-07-14,1,,,,,ニッコウデンコウ,0
1639,7020001163845,新規,0,2025-07-14,2025-07-14,株式会社プラスシコー,,株式会社,神奈川県,川崎市高津区,新作６丁目６番２０－５０２号,,14,134,2130014,,,,,,,2025-07-14,1,,,,,プラスシコー,0
1640,7020001163853,新規,0,2025-07-14,2025-07-14,株式会社ＤＥＮ,,株式会社,神奈川県,横浜市金沢区,能見台３丁目３０番地１８,,14,108,2360057,,,,,,,2025-07-14,1,,,,,デン,0
1641,7020003028864,新規,0,2025-07-14,2025-07-14,合同会社シュリンプ,,合同会社,神奈川県,横浜市西区,みなとみらい３丁目３番１号ＫＤＸ横浜みなとみらいタワー８階,,14,103,2200012,,,,,,,2025-07-14,1,,,,,シュリンプ,0
1642,7020003028897,新規,0,2025-07-14,2025-07-14,合同会社尾崎悟,,合同会社,神奈川県,川崎市高津区,梶ケ谷６丁目５番地３１,,14,134,2130015,,,,,,,2025-07-14,1,,,,,オザキサトル,0
1643,7021001085740,新規,0,2025-07-14,2025-07-14,株式会社井上農園,,株式会社,神奈川県,小田原市,上町６７９番地,,14,206,2560805,,,,,,,2025-07-14,1,,,,,イノウエノウエン,0
1649,7030001167614,新規,0,2025-07-14,2025-07-14,株式会社大空テクノロジー,,株式会社,埼玉県,所沢市,くすのき台１丁目１０番地の７肥沼ビル３Ｆ,,11,208,3590037,,,,,,,2025-07-14,1,,,,,オオゾラテクノロジー,0
1650,7030001167647,新規,0,2025-07-14,2025-07-14,株式会社８４ＷＯＲＫＳ,,株式会社,埼玉県,北本市,高尾６丁目１４７番地３,,11,233,3640034,,,,,,,2025-07-14,1,,,,,ハチヨンワークス,0
1654,7030003027147,新規,0,2025-07-14,2025-07-14,合同会社アンシャンテ,,合同会社,埼玉県,上尾市,大字原市３３３６番地,,11,219,3620021,,,,,,,2025-07-14,1,,,,,アンシャンテ,0
1656,7040001139538,新規,0,2025-07-14,2025-07-14,株式会社メディカルポケット,,株式会社,千葉県,流山市,南流山６丁目２１番地の４－１０１号,,12,220,2700163,,,,,,,2025-07-14,1,,,,,メディカルポケット,0
1657,7040001139612,新規,0,2025-07-14,2025-07-14,株式会社フォルツ,,株式会社,千葉県,船橋市,松が丘３丁目１６番４－３号,,12,204,2740064,,,,,,,2025-07-14,1,,,,,フォルツ,0
1659,7040003027988,新規,0,2025-07-14,2025-07-14,合同会社アークス,,合同会社,千葉県,市川市,妙典５丁目１３番２４－７０７号,,12,203,2720111,,,,,,,2025-07-14,1,,,,,アークス,0
1665,7050005013663,新規,0,2025-07-14,2025-07-14,一般社団法人Ｄ＆Ｔ,,その他の設立登記法人,茨城県,日立市,滑川本町１丁目２２番１号,,08,202,3170051,,,,,,,2025-07-14,1,,,,,ディーアンドティー,0
1670,7070001043150,新規,0,2025-07-14,2025-07-14,株式会社ＧＭＣ,,株式会社,群馬県,高崎市,木部町１７２番地５,,10,202,3701212,,,,,,,2025-07-14,1,,,,,ジーエムシー,0
1672,7080003003507,新規,0,2025-07-14,2025-07-14,合同会社レモネード,,合同会社,静岡県,焼津市,坂本２９１番地の１,,22,212,4250004,,,,,,,2025-07-14,1,,,,,レモネード,0
1685,7110001039400,新規,0,2025-07-14,2025-07-14,株式会社ＭＩＫパートナー,,株式会社,新潟県,見附市,今町２丁目１４番９３号,,15,211,9540111,,,,,,,2025-07-14,1,,,,,ミックパートナー,0
1686,7110001039433,新規,0,2025-07-14,2025-07-14,株式会社Ｈｉｇｈ‐Ｃｌａｓｓ,,株式会社,新潟県,長岡市,雲出町１５６８番地１,,15,202,9402046,,,,,,,2025-07-14,1,,,,,ハイクラス,0
1694,7120001277602,新規,0,2025-07-14,2025-07-14,三行株式会社,,株式会社,大阪府,大阪市北区,梅田１丁目２番２号大阪駅前第２ビル１２階１２号室,,27,127,5300001,,,,,,,2025-07-14,1,,,,,サンコウ,0
1695,7120001277775,新規,0,2025-07-14,2025-07-14,株式会社カメチコ,,株式会社,大阪府,大阪市阿倍野区,西田辺町２丁目８番９号,,27,119,5450014,,,,,,,2025-07-14,1,,,,,カメチコ,0
1696,7120001277817,新規,0,2025-07-14,2025-07-14,株式会社七夕,,株式会社,大阪府,大阪市北区,梅田１丁目２番２号大阪駅前第２ビル１２－１２号,,27,127,5300001,,,,,,,2025-07-14,1,,,,,シチセキ,0
1697,7120001277833,新規,0,2025-07-14,2025-07-14,夢洲交通株式会社,,株式会社,大阪府,大阪市城東区,永田２丁目８番１６号,,27,118,5360022,,,,,,,2025-07-14,1,,,,,ユメシマコウツウ,0
1702,7120903005754,新規,0,2025-07-14,2025-07-14,合同会社ＭＡＲＥＲＲ,,合同会社,大阪府,吹田市,南吹田２丁目７番１号,,27,205,5640043,,,,,,,2025-07-14,1,,,,,マレー,0
1706,7122001039429,新規,0,2025-07-14,2025-07-14,株式会社Ｙ＆Ｙ,,株式会社,大阪府,四條畷市,岡山１丁目１７番１０号,,27,229,5750002,,,,,,,2025-07-14,1,,,,,ワイアンドワイ,0
1707,7122001039437,新規,0,2025-07-14,2025-07-14,株式会社Ｗｅｓｔ　Ｔａｉｌ,,株式会社,大阪府,東大阪市,若江西新町３丁目３番１４号,,27,227,5780944,,,,,,,2025-07-14,1,,,,,ウエストテール,0
1710,7130003010596,新規,0,2025-07-14,2025-07-14,合同会社ローク,,合同会社,京都府,京都市伏見区,桝屋町６２１番地,,26,109,6128322,,,,,,,2025-07-14,1,,,,,ローク,0
1715,7140001139164,新規,0,2025-07-14,2025-07-14,株式会社フェアレディ,,株式会社,兵庫県,三木市,志染町青山１丁目８番地の１６,,28,215,6730521,,,,,,,2025-07-14,1,,,,,フェアレディ,0
1716,7140001139214,新規,0,2025-07-14,2025-07-14,株式会社まごころ良品店,,株式会社,兵庫県,尼崎市,西昆陽２丁目９番１号２０２３,,28,202,6610047,,,,,,,2025-07-14,1,,,,,マゴコロリョウヒンテン,0
1717,7140001139239,新規,0,2025-07-14,2025-07-14,株式会社ＲＡＤＩＣＯＲＥ,,株式会社,兵庫県,加西市,北条町北条３８９番地の２１,,28,220,6752312,,,,,,,2025-07-14,1,,,,,ラディコア,0
1718,7140001139255,新規,0,2025-07-14,2025-07-14,株式会社東昇,,株式会社,兵庫県,神戸市兵庫区,南仲町１番５－１０１号,,28,105,6520841,,,,,,,2025-07-14,1,,,,,トウショウ,0
1719,7140001139338,新規,0,2025-07-14,2025-07-14,Ｓｍｉｌｅ　Ｈｉｖｅ株式会社,,株式会社,兵庫県,伊丹市,昆陽４丁目１７４番地,,28,207,6640881,,,,,,,2025-07-14,1,,,,,スマイルハイブ,0
1727,7150001028218,新規,0,2025-07-14,2025-07-14,株式会社まにらぼ,,株式会社,奈良県,奈良市,朱雀３丁目１０－８高の原ビル１Ｆ,,29,201,6310806,,,,,,,2025-07-14,1,,,,,マニラボ,0
1730,7160001026872,新規,0,2025-07-14,2025-07-14,株式会社ゼロワン,,株式会社,滋賀県,甲賀市,水口町北泉１丁目１３３,,25,209,5280058,,,,,,,2025-07-14,1,,,,,ゼロワン,0
1731,7160001026889,新規,0,2025-07-14,2025-07-14,株式会社こくねん,,株式会社,滋賀県,東近江市,平柳町１１９０番地,,25,213,5270102,,,,,,,2025-07-14,1,,,,,コクネン,0
1732,7160001026897,新規,0,2025-07-14,2025-07-14,ＳＡＫＵＲＡ　Ｄｅｓｉｇｎ　Ｓｔｕｄｉｏ株式会社,,株式会社,滋賀県,長浜市,神照町５０５番地,,25,203,5260015,,,,,,,2025-07-14,1,,,,,サクラデザインスタジオ,0
1736,7180001167673,新規,0,2025-07-14,2025-07-14,ＳＵＺＵデザイン株式会社,,株式会社,愛知県,津島市,中一色町寺前８４番地２,,23,208,4960025,,,,,,,2025-07-14,1,,,,,スズデザイン,0
1737,7180001167681,新規,0,2025-07-14,2025-07-14,株式会社ＳＥＶＥＮＳ,,株式会社,愛知県,名古屋市港区,東茶屋１丁目５８８番地の５,,23,111,4550851,,,,,,,2025-07-14,1,,,,,セブンス,0
1742,7180303006653,新規,0,2025-07-14,2025-07-14,エムケーエス合同会社,,合同会社,愛知県,岡崎市,日名南町１７番地７レジャービル３階ローグタウン４号室,,23,202,4440915,,,,,,,2025-07-14,1,,,,,エムケーエス,0
1743,7180305009704,新規,0,2025-07-14,2025-07-14,税理士法人米本会計,,その他の設立登記法人,愛知県,豊田市,御船町奥山畑１３番地３９,,23,211,4700371,,,,,,,2025-07-14,1,,,,,ヨネモトカイケイ,0
1745,7190005012057,新規,0,2025-07-14,2025-07-14,一般社団法人レジリエンス,,その他の設立登記法人,三重県,四日市市,伊坂台２丁目１３番,,24,202,5128066,,,,,,,2025-07-14,1,,,,,レジリエンス,0
1755,7260001040335,新規,0,2025-07-14,2025-07-14,株式会社炭そだち研究所,,株式会社,岡山県,津山市,宮部下５９０番地,,33,203,7094602,,,,,,,2025-07-14,1,,,,,スミソダチケンキュウショ,0
1756,7260001040351,新規,0,2025-07-14,2025-07-14,江本技研株式会社,,株式会社,岡山県,倉敷市,阿知１丁目７番２倉敷シティプラザ西ビル８階８０３号くらしきベンチャーオフィス３号室,,33,202,7100055,,,,,,,2025-07-14,1,,,,,エモトギケン,0
1767,7290001110713,新規,0,2025-07-14,2025-07-14,絆カンパニー株式会社,,株式会社,福岡県,福岡市東区,名子２丁目８番６号,,40,131,8130024,,,,,,,2025-07-14,1,,,,,キズナカンパニー,0
1768,7290001110721,新規,0,2025-07-14,2025-07-14,株式会社ドローンシフト,,株式会社,福岡県,大野城市,下大利３丁目２番２０号,,40,219,8160952,,,,,,,2025-07-14,1,,,,,,0
1769,7290001110746,新規,0,2025-07-14,2025-07-14,ちくでん土地建物株式会社,,株式会社,福岡県,久留米市,三潴町高三潴８９８番地２,,40,203,8300103,,,,,,,2025-07-14,1,,,,,チクデントチタテモノ,0
1772,7290003017048,新規,0,2025-07-14,2025-07-14,合同会社ハルネク,,合同会社,福岡県,福岡市博多区,博多駅南２丁目１９番６号,,40,132,8120016,,,,,,,2025-07-14,1,,,,,ハルネク,0
1773,7290003017106,新規,0,2025-07-14,2025-07-14,合同会社九州経理,,合同会社,福岡県,福岡市博多区,博多駅前１丁目２３番２号,,40,132,8120011,,,,,,,2025-07-14,1,,,,,キュウシュウケイリ,0
1774,7290803005103,新規,0,2025-07-14,2025-07-14,バレッタ合同会社,,合同会社,福岡県,北九州市小倉南区,下城野１丁目９番１号,,40,107,8020804,,,,,,,2025-07-14,1,,,,,バレッタ,0
1778,7320001021213,新規,0,2025-07-14,2025-07-14,株式会社Ｔ＆Ｓ,,株式会社,大分県,大分市,大字下宗方１２７４番地の１,,44,201,8701141,,,,,,,2025-07-14,1,,,,,ティーアンドエス,0
1780,7330001033364,新規,0,2025-07-14,2025-07-14,熊本フクスケ株式会社,,株式会社,熊本県,人吉市,下原田町字荒毛１４００番地,,43,203,8680086,,,,,,,2025-07-14,1,,,,,クマモトフクスケ,0
1785,7350003004964,新規,0,2025-07-14,2025-07-14,スプラ合同会社,,合同会社,宮崎県,宮崎市,高岡町内山２７８５番地５,,45,201,8802321,,,,,,,2025-07-14,1,,,,,スプラ,0
1786,7360001035465,新規,0,2025-07-14,2025-07-14,うちまる株式会社,,株式会社,沖縄県,うるま市,字宮里８３０番地１１,,47,213,9042243,,,,,,,2025-07-14,1,,,,,ウチマル,0
1787,7360001035473,新規,0,2025-07-14,2025-07-14,株式会社ＢＩＧ　ｔｒｅｅ,,株式会社,沖縄県,宮古島市,伊良部字国仲９７番地,,47,214,9060505,,,,,,,2025-07-14,1,,,,,ビックツリー,0
1788,7360001035481,新規,0,2025-07-14,2025-07-14,株式会社ＨＥＡＲＴ　ｔｏ　ＨＥＡＲＴ,,株式会社,沖縄県,那覇市,字仲井真３６９－３,,47,201,9020074,,,,,,,2025-07-14,1,,,,,ハートトゥハート,0
1790,7360003015085,新規,0,2025-07-14,2025-07-14,合同会社ＥＫＵＳＡＳ,,合同会社,沖縄県,中頭郡北谷町,桑江１丁目７番３３号ゴールドハイムＫＵＷＡＥ４０３,,47,326,9040103,,,,,,,2025-07-14,1,,,,,エクサス,0
1791,7360003015093,新規,0,2025-07-14,2025-07-14,ｍｏｍｏ合同会社,,合同会社,沖縄県,国頭郡今帰仁村,字平敷６７４番地,,47,306,9050423,,,,,,,2025-07-14,1,,,,,モモ,0
1795,7360005007254,新規,0,2025-07-14,2025-07-14,一般社団法人Ｋｕｋｕｒｕ　Ｉｓｌｅｓ,,その他の設立登記法人,沖縄県,那覇市,字上間５３５番地６,,47,201,9020073,,,,,,,2025-07-14,1,,,,,ククルアイルズ,0
1796,7370001052807,新規,0,2025-07-14,2025-07-14,株式会社ｂａｕ,,株式会社,宮城県,仙台市太白区,秋保町湯元字寺田原１番地の７,,04,104,9820241,,,,,,,2025-07-14,1,,,,,バウ,0
1797,7370001052831,新規,0,2025-07-14,2025-07-14,株式会社ＧｏｏｄＢａｓｅ,,株式会社,宮城県,仙台市青葉区,旭ケ丘２丁目２１番１４号,,04,101,9810904,,,,,,,2025-07-14,1,,,,,グットベース,0
1803,7380001035430,新規,0,2025-07-14,2025-07-14,株式会社渡部林業,,株式会社,福島県,南会津郡南会津町,永田字鳥居戸１８１６番地,,07,368,9670006,,,,,,,2025-07-14,1,,,,,ワタナベリンギョウ,0
1810,7410001014224,新規,0,2025-07-14,2025-07-14,株式会社マネーリンクス,,株式会社,秋田県,秋田市,中通４丁目１番２号秋田スクエアビル５Ｆ,,05,201,0100001,,,,,,,2025-07-14,1,,,,,マネーリンクス,0
1811,7420003003158,新規,0,2025-07-14,2025-07-14,合同会社アクシス,,合同会社,青森県,青森市,浪岡大字女鹿沢字東花岡５３番地３７,,02,201,0381331,,,,,,,2025-07-14,1,,,,,アクシス,0
1818,7470001020794,新規,0,2025-07-14,2025-07-14,株式会社ＷＥＺＥＮ,,株式会社,香川県,高松市,福岡町２丁目１９－８,,37,201,7600066,,,,,,,2025-07-14,1,,,,,,0
1824,7490001011107,新規,0,2025-07-14,2025-07-14,株式会社ナナイロ,,株式会社,高知県,高知市,長浜１５０５番地１８,,39,201,7810270,,,,,,,2025-07-14,1,,,,,ナナイロ,0
1841,8010001256665,新規,0,2025-07-14,2025-07-14,Ｆｏｒｍｕｌａ株式会社,,株式会社,東京都,千代田区,紀尾井町４番１号ニューオータニガーデンコート２８階,,13,101,1020094,,,,,,,2025-07-14,1,,,,,フォーミュラ,0
1842,8010001256723,新規,0,2025-07-14,2025-07-14,株式会社Ｏｎｅ　Ｔｅａｍ　Ｐｌｕｓ,,株式会社,東京都,千代田区,神田須田町１丁目７番８号ＶＯＲＴ秋葉原ＩＶ２Ｆ,00139908,13,101,1010041,,,,,,,2025-07-14,1,,,,,ワンチームプラス,0
1843,8010001256797,新規,0,2025-07-14,2025-07-14,株式会社福盛,,株式会社,東京都,文京区,湯島３丁目１３番８号不二ビル２Ｆ,,13,105,1130034,,,,,,,2025-07-14,1,,,,,フクセイ,0
1845,8010003047988,新規,0,2025-07-14,2025-07-14,合同会社Ｃａｐｕｃｉｎｅ,,合同会社,東京都,中央区,入舟２－１－６－６０９,,13,102,1030000,,,,,,,2025-07-14,1,,,,,カプシーヌ,0
1846,8010003048012,新規,0,2025-07-14,2025-07-14,中小ビジネスサポートラボ合同会社,,合同会社,東京都,文京区,白山３丁目４番１１号,,13,105,1120001,,,,,,,2025-07-14,1,,,,,チュウショウビジネスサポートラボ,0
1847,8010005040289,新規,0,2025-07-14,2025-07-14,グランドメゾン六番町管理組合法人,,その他の設立登記法人,東京都,千代田区,六番町６番地２０グランドメゾン六番町管理事務所,,13,101,1020085,,,,,,,2025-07-14,1,,,,,グランドメゾンロクバンチョウ,0
1848,8010101016762,新規,0,2025-07-14,2025-07-14,株式会社エステート澤井,,株式会社,東京都,八王子市,高月町１１１７番地,,13,201,1920002,,,,,,,2025-07-14,1,,,,,エステートサワイ,0
1857,8010401191677,新規,0,2025-07-14,2025-07-14,Ｕｐｐｅｒ　Ｆｉｅｌｄｓ株式会社,,株式会社,東京都,港区,六本木４丁目３番３５号パークマンション檜町公園２０７,,13,103,1060032,,,,,,,2025-07-14,1,,,,,アッパーフィールズ,0
1858,8010401191693,新規,0,2025-07-14,2025-07-14,株式会社ＴＯＴＯＮＯＵ,,株式会社,東京都,港区,南青山５丁目５番１０号,,13,103,1070062,,,,,,,2025-07-14,1,,,,,トトノウ,0
1859,8010401191719,新規,0,2025-07-14,2025-07-14,ビー・エックス・ジェイ・イー・ワン・ホールディング株式会社,,株式会社,東京都,港区,虎ノ門５丁目１番４号,,13,103,1050001,,,,,,,2025-07-14,1,,,,,ビーエックスジェイイーワンホールディング,0
1860,8010401191727,新規,0,2025-07-14,2025-07-14,株式会社Ｒｅｔａｉｌ‐ＣＩＸ,,株式会社,東京都,港区,港南１丁目２番７０号,,13,103,1080075,,,,,,,2025-07-14,1,,,,,リテールシックス,0
1862,8010403035584,新規,0,2025-07-14,2025-07-14,合同会社みなと００７,,合同会社,東京都,港区,虎ノ門３丁目２２番１０－２０１号,,13,103,1050001,,,,,,,2025-07-14,1,,,,,ミナトゼロゼロセブン,0
1865,8010603011682,新規,0,2025-07-14,2025-07-14,Ｑｕｅｅｎｉｘ合同会社,,合同会社,東京都,墨田区,文花１丁目１８－１３,,13,107,1310044,,,,,,,2025-07-14,1,,,,,クイニークス,0
1871,8010801036382,新規,0,2025-07-14,2025-07-14,株式会社デジタルコネクション,,株式会社,東京都,大田区,蒲田本町１丁目６番１７号パープルハウス２０５,,13,111,1440053,,,,,,,2025-07-14,1,,,,,デジタルコネクション,0
1873,8011001171160,新規,0,2025-07-14,2025-07-14,ＭＡＩＳＯＮ　ＬＩＲ株式会社,,株式会社,東京都,渋谷区,道玄坂１丁目１０番８号渋谷道玄坂東急ビル２Ｆ－Ｃ,,13,113,1500043,,,,,,,2025-07-14,1,,,,,メゾンリール,0
1876,8011003022130,新規,0,2025-07-14,2025-07-14,Ｐｒｏｃｅｄｕｒａ合同会社,,合同会社,東京都,渋谷区,道玄坂１丁目１０番８号渋谷道玄坂東急ビル２Ｆ－Ｃ,,13,113,1500043,,,,,,,2025-07-14,1,,,,,プロチェドゥラ,0
1881,8011101112386,新規,0,2025-07-14,2025-07-14,ＣＴＩ　Ｏｎｅ株式会社,,株式会社,東京都,新宿区,西新宿５丁目６番１－２６１２号,,13,104,1600023,,,,,,,2025-07-14,1,,,,,シーティーアイワン,0
1882,8011101112394,新規,0,2025-07-14,2025-07-14,株式会社ＭＥ’ＡＲ,,株式会社,東京都,新宿区,戸山１丁目１番１０号,,13,104,1620052,,,,,,,2025-07-14,1,,,,,メアー,0
1890,8011503006608,新規,0,2025-07-14,2025-07-14,ＳＯＲＡ合同会社,,合同会社,東京都,北区,中里１丁目１８番１－２０１号カゼッタ駒,,13,117,1140015,,,,,,,2025-07-14,1,,,,,ソラ,0
1895,8011801046462,新規,0,2025-07-14,2025-07-14,株式会社金久商事,,株式会社,東京都,足立区,梅田４丁目１１番９号,,13,121,1230851,,,,,,,2025-07-14,1,,,,,カネヒサショウジ,0
1896,8012301014455,新規,0,2025-07-14,2025-07-14,運がいい株式会社,,株式会社,東京都,町田市,山崎町１６６４番地１バレー・ヴィレッジ１０６,,13,209,1950074,,,,,,,2025-07-14,1,,,,,ウンガイイ,0
1897,8012401043346,新規,0,2025-07-14,2025-07-14,株式会社サンアロウ,,株式会社,東京都,府中市,片町１丁目９番地の９,,13,206,1830021,,,,,,,2025-07-14,1,,,,,サンアロウ,0
1899,8012405005136,新規,0,2025-07-14,2025-07-14,弁護士法人本間総合事務所,,その他の設立登記法人,東京都,多摩市,鶴牧１丁目２４番地１新都市センタービル２階,,13,224,2060034,,,,,,,2025-07-14,1,,,,,ホンマソウゴウジムショ,0
1909,8020001163712,新規,0,2025-07-14,2025-07-14,株式会社ＯＣＡ,,株式会社,神奈川県,横浜市神奈川区,二ツ谷町１４番４号－５Ｆ,,14,102,2210823,,,,,,,2025-07-14,1,,,,,,0
1910,8020003028896,新規,0,2025-07-14,2025-07-14,合同会社春暁,,合同会社,神奈川県,川崎市中原区,小杉町３丁目２５３番地１オーガスタ武蔵小杉１１０６,,14,133,2110063,,,,,,,2025-07-14,1,,,,,シュンギョウ,0
1911,8020003028913,新規,0,2025-07-14,2025-07-14,ミシマ合同会社,,合同会社,神奈川県,横浜市西区,北幸２丁目１０番４８号むつみビル３階,,14,103,2200004,,,,,,,2025-07-14,1,,,,,ミシマ,0
1915,8021001085673,新規,0,2025-07-14,2025-07-14,株式会社ＮＫアソシエーション,,株式会社,神奈川県,相模原市中央区,矢部４丁目５番１８号アベリア４１１,,14,152,2520232,,,,,,,2025-07-14,1,,,,,エヌケーアソシエーション,0
1917,8021003016172,新規,0,2025-07-14,2025-07-14,Ｒｅ‐Ｖａｌｕｅ合同会社,,合同会社,神奈川県,相模原市南区,御園３丁目２７―１０,,14,153,2520317,,,,,,,2025-07-14,1,,,,,リバリュー,0
1925,8030003027187,新規,0,2025-07-14,2025-07-14,啓冬合同会社,,合同会社,埼玉県,川口市,西川口４丁目１－１４－１０２号,,11,203,3320021,,,,,,,2025-07-14,1,,,,,ケイトウ,0
1930,8040001139628,新規,0,2025-07-14,2025-07-14,株式会社建巧ハウジング,,株式会社,千葉県,千葉市中央区,大森町４３３番地１,,12,101,2600811,,,,,,,2025-07-14,1,,,,,ケンコウハウジング,0
1931,8040001139644,新規,0,2025-07-14,2025-07-14,オトン株式会社,,株式会社,千葉県,八千代市,八千代台北１０丁目１１－２３,,12,221,2760031,,,,,,,2025-07-14,1,,,,,オトン,0
1936,8050001056938,新規,0,2025-07-14,2025-07-14,株式会社ブルーム・リンクス,,株式会社,茨城県,常総市,豊岡町丙３５３１番地１,,08,211,3030041,,,,,,,2025-07-14,1,,,,,ブルームリンクス,0
1937,8050003009423,新規,0,2025-07-14,2025-07-14,合同会社レグランド,,合同会社,茨城県,水戸市,栄町２丁目３番７号,,08,201,3100064,,,,,,,2025-07-14,1,,,,,レグランド,0
1942,8060001038407,新規,0,2025-07-14,2025-07-14,株式会社ＬＩＶ,,株式会社,栃木県,那須塩原市,埼玉字稲村６番地９７７,,09,213,3250033,,,,,,,2025-07-14,1,,,,,エルアイヴイ,0
1949,8080003003506,新規,0,2025-07-14,2025-07-14,合同会社ローフルコンサルタント,,合同会社,静岡県,静岡市清水区,木の下町１３１番地サニーヒル木の下２０３号室,,22,103,4240846,,,,,,,2025-07-14,1,,,,,ローフルコンサルタント,0
1954,8110001039432,新規,0,2025-07-14,2025-07-14,株式会社Ｕ‐ＲＥＰ,,株式会社,新潟県,新潟市北区,下早通６３番地２,,15,101,9503371,,,,,,,2025-07-14,1,,,,,ユーレップ,0
1955,8110001039440,新規,0,2025-07-14,2025-07-14,株式会社ｃｏｍａｃｈｉ,,株式会社,新潟県,妙高市,大字田口６４６－８,,15,217,9492106,,,,,,,2025-07-14,1,,,,,コマチ,0
1963,8120001277774,新規,0,2025-07-14,2025-07-14,株式会社高空,,株式会社,大阪府,大阪市天王寺区,勝山２丁目１７番１７号－４０５号,,27,109,5430043,,,,,,,2025-07-14,1,,,,,タカゾラ,0
1970,8120103006569,新規,0,2025-07-14,2025-07-14,合同会社内村,,合同会社,大阪府,和泉市,山荘町３丁目９番１６号,,27,219,5940021,,,,,,,2025-07-14,1,,,,,ウチムラ,0
1972,8120903005753,新規,0,2025-07-14,2025-07-14,合同会社ＥＴＴＯ,,合同会社,大阪府,豊中市,岡町南１丁目５－５４シャーメゾン岡町２０３,,27,203,5610883,,,,,,,2025-07-14,1,,,,,エット,0
1973,8120905006758,新規,0,2025-07-14,2025-07-14,医療法人むらい内科ハートクリニック,,その他の設立登記法人,大阪府,高槻市,郡家本町２５番２０号,,27,207,5691131,,,,,,,2025-07-14,1,,,,,ムライナイカハートクリニック,0
1977,8122001039428,新規,0,2025-07-14,2025-07-14,株式会社Ｋｓｔｙｌｅ,,株式会社,大阪府,大東市,緑が丘２丁目１１番１７号,,27,218,5740073,,,,,,,2025-07-14,1,,,,,ケースタイル,0
1979,8130003010595,新規,0,2025-07-14,2025-07-14,ａｓ　ＬＩＦＥ合同会社,,合同会社,京都府,京都市下京区,橘町３１－１ＴＡＣＨＩＢＡＮＡ３１,,26,106,6008157,,,,,,,2025-07-14,1,,,,,アズライフ,0
1985,8140001139246,新規,0,2025-07-14,2025-07-14,株式会社ｎｏｎａｍｅ　ＢＯＵＴＩＱＵＥ,,株式会社,兵庫県,姫路市,広畑区高浜町３丁目６９番地４,,28,201,6711153,,,,,,,2025-07-14,1,,,,,ノーネームブティック,0
1988,8150003003647,新規,0,2025-07-14,2025-07-14,合同会社ＴＨＥＲＥＡＬ,,合同会社,奈良県,生駒市,小瀬町８０３番地中辻マンション第３（２０２）,00139910,29,209,6300223,,,,,,,2025-07-14,1,,,,,ジリアル,0
1990,8160001026888,新規,0,2025-07-14,2025-07-14,株式会社谷昇,,株式会社,滋賀県,長浜市,東上坂町１１９６番地４,,25,203,5260802,,,,,,,2025-07-14,1,,,,,タニショウ,0
1991,8160001026921,新規,0,2025-07-14,2025-07-14,ケイアイ設備株式会社,,株式会社,滋賀県,大津市,小野１３０２,,25,201,5200525,,,,,,,2025-07-14,1,,,,,ケイアイセツビ,0
1996,8180001167598,新規,0,2025-07-14,2025-07-14,株式会社ＥＭ,,株式会社,愛知県,一宮市,東五城字若宮前１７７番地１,,23,203,4940008,,,,,,,2025-07-14,1,,,,,イーエム,0
1997,8180001167664,新規,0,2025-07-14,2025-07-14,ヴィヴィ株式会社,,株式会社,愛知県,弥富市,荷之上町権七走２６４６番地１,,23,235,4980011,,,,,,,2025-07-14,1,,,,,ヴィヴィ,0
1998,8180001167672,新規,0,2025-07-14,2025-07-14,株式会社彩栄工業,,株式会社,愛知県,半田市,上定光町１丁目４４番地,,23,205,4750009,,,,,,,2025-07-14,1,,,,,サイエイコウギョウ,0
1999,8180001167680,新規,0,2025-07-14,2025-07-14,ＮＡＧＯＹＡＢＯＸ株式会社,,株式会社,愛知県,名古屋市昭和区,田面町１丁目５７番地,,23,107,4660801,,,,,,,2025-07-14,1,,,,,ナゴヤボックス,0
2000,8180001167689,新規,0,2025-07-14,2025-07-14,株式会社Ｖｅｎｔｙ,,株式会社,愛知県,名古屋市東区,相生町７８番地主税ビル３Ａ,,23,102,4610012,,,,,,,2025-07-14,1,,,,,ベンティ,0
2001,8180001167697,新規,0,2025-07-14,2025-07-14,あきわＷｅｌｆａｒｅ株式会社,,株式会社,愛知県,名古屋市港区,明正２丁目４３番地明和ハイツ１Ｆ,,23,111,4550806,,,,,,,2025-07-14,1,,,,,アキワウェルフェア,0
2002,8180001167714,新規,0,2025-07-14,2025-07-14,株式会社Ｄ‐Ｂｌｕｅ,,株式会社,愛知県,名古屋市中区,栄３丁目８番２７号栄セレーネビル２階,,23,106,4600008,,,,,,,2025-07-14,1,,,,,ディーブルー,0
2003,8180001167722,新規,0,2025-07-14,2025-07-14,株式会社ＢＬＵＥＣＨＩＰ７７７,,株式会社,愛知県,常滑市,金山字上白田１３０,,23,216,4790003,,,,,,,2025-07-14,1,,,,,ブルーチップナナナナナナ,0
2004,8180001167730,新規,0,2025-07-14,2025-07-14,ここからフルネス株式会社,,株式会社,愛知県,岩倉市,大地町郷前２５番地１,,23,228,4820026,,,,,,,2025-07-14,1,,,,,ココカラフルネス,0
2010,8200001044035,新規,0,2025-07-14,2025-07-14,Ｙ‐ＴＥＣ株式会社,,株式会社,岐阜県,岐阜市,東鶉５丁目７７番地１,,21,201,5008281,,,,,,,2025-07-14,1,,,,,ワイテック,0
2017,8230001020982,新規,0,2025-07-14,2025-07-14,オークス物流センター株式会社,,株式会社,富山県,射水市,手崎３３０番地,,16,211,9390306,,,,,,,2025-07-14,1,,,,,オークスブツリュウセンター,0
2018,8240001065135,新規,0,2025-07-14,2025-07-14,株式会社ふかわの湯,,株式会社,広島県,広島市安佐北区,小河原町１０１９９番地,,34,106,7391754,,,,,,,2025-07-14,1,,,,,フカワノユ,0
2020,8240003007309,新規,0,2025-07-14,2025-07-14,合同会社ちのわ,,合同会社,広島県,広島市西区,天満町１８番２－６０２号,,34,104,7330022,,,,,,,2025-07-14,1,,,,,チノワ,0
2025,8260001040334,新規,0,2025-07-14,2025-07-14,津山コミュニティベースド株式会社,,株式会社,岡山県,津山市,押入４９８番地,,33,203,7081126,,,,,,,2025-07-14,1,,,,,ツヤマコミュニティベースド,0
2030,8290001110605,新規,0,2025-07-14,2025-07-14,株式会社佳園,,株式会社,福岡県,筑紫野市,塔原東１丁目１３番２０号,,40,217,8180059,,,,,,,2025-07-14,1,,,,,ケイエン,0
2031,8290001110670,新規,0,2025-07-14,2025-07-14,株式会社Ｃｅｎｔｅｒ　Ｐａｒｋ,,株式会社,福岡県,福岡市博多区,博多駅南６丁目４番１０号,,40,132,8120016,,,,,,,2025-07-14,1,,,,,センターパーク,0
2032,8290001110712,新規,0,2025-07-14,2025-07-14,株式会社Ｚｅａｌｌ　ｐｌｕｓ,,株式会社,福岡県,太宰府市,吉松１丁目１８番６号,,40,221,8180138,,,,,,,2025-07-14,1,,,,,ジールプラス,0
2033,8290001110778,新規,0,2025-07-14,2025-07-14,株式会社ケインテック,,株式会社,福岡県,久留米市,北野町稲数３１８番地１,,40,203,8301126,,,,,,,2025-07-14,1,,,,,ケインテック,0
2034,8290001110786,新規,0,2025-07-14,2025-07-14,株式会社Ｋ‐Ｐｌａｎｚ,,株式会社,福岡県,福岡市博多区,堅粕４丁目１１番２５－３０６号,,40,132,8120043,,,,,,,2025-07-14,1,,,,,ケイプランズ,0
2036,8290003017088,新規,0,2025-07-14,2025-07-14,シュクらん合同会社,,合同会社,福岡県,春日市,桜ヶ丘５丁目８３番地イトーピア井尻桜ケ丘公園６０５号,,40,218,8160872,,,,,,,2025-07-14,1,,,,,シュクラン,0
2037,8290803005093,新規,0,2025-07-14,2025-07-14,そえだパワー合同会社,,合同会社,福岡県,田川郡添田町,大字庄２４１４,,40,602,8240601,,,,,,,2025-07-14,1,,,,,ソエダパワー,0
2040,8310003005040,新規,0,2025-07-14,2025-07-14,合同会社ＲＡＫＩ,,合同会社,長崎県,佐世保市,赤崎町１４６３－８,,42,202,8570064,,,,,,,2025-07-14,1,,,,,ラキ,0
2045,8340001027505,新規,0,2025-07-14,2025-07-14,株式会社ＣＡＳＥホールディングス,,株式会社,鹿児島県,日置市,吹上町与倉４９５４番地１９,,46,216,8993309,,,,,,,2025-07-14,1,,,,,ケースホールディングス,0
2048,8360001035456,新規,0,2025-07-14,2025-07-14,物語ホールディングス株式会社,,株式会社,沖縄県,那覇市,久茂地１丁目１番１号パレットくもじ８階ｒｅｌａｒｋ那覇,,47,201,9000015,,,,,,,2025-07-14,1,,,,,モノガタリホールディングス,0
2049,8360001035497,新規,0,2025-07-14,2025-07-14,ぬちぐすい株式会社,,株式会社,沖縄県,那覇市,字安謝６１７番地の１９２沖縄管財ビル４０５号室,,47,201,9000003,,,,,,,2025-07-14,1,,,,,ヌチグスイ,0
2050,8360003015092,新規,0,2025-07-14,2025-07-14,合同会社パームツリー不動産,,合同会社,沖縄県,那覇市,東町８番１１号１０１,,47,201,9000034,,,,,,,2025-07-14,1,,,,,パームツリーフドウサン,0
2051,8360003015101,新規,0,2025-07-14,2025-07-14,合同会社ＨＭミヤギ,,合同会社,沖縄県,中頭郡西原町,字池田１８３番地の２０,,47,329,9030115,,,,,,,2025-07-14,1,,,,,エイチエムミヤギ,0
2054,8370001052830,新規,0,2025-07-14,2025-07-14,大崎エンタープライズ株式会社,,株式会社,宮城県,大崎市,三本木字善並田１０６番地,,04,215,9896321,,,,,,,2025-07-14,1,,,,,オオサキエンタープライズ,0
2057,8380001035454,新規,0,2025-07-14,2025-07-14,株式会社上野,,株式会社,福島県,郡山市,日和田町高倉字藤坦１番地の８,,07,203,9630531,,,,,,,2025-07-14,1,,,,,ウエノ,0
2062,8410001014223,新規,0,2025-07-14,2025-07-14,株式会社ＫＯＭＡＣＨＩ不動産管理,,株式会社,秋田県,秋田市,八橋新川向１６－２６,,05,201,0100965,,,,,,,2025-07-14,1,,,,,コマチフドウサンカンリ,0
2066,8430001094866,新規,0,2025-07-14,2025-07-14,株式会社Ｔｈｅ　Ａｎｓｗｅｒ,,株式会社,北海道,札幌市東区,北九条東８丁目２番１３号,,01,103,0650009,,,,,,,2025-07-14,1,,,,,ジアンサー,0
2068,8430005015265,新規,0,2025-07-14,2025-07-14,一般社団法人あかりな,,その他の設立登記法人,北海道,札幌市中央区,南十五条西７丁目１番７－１００２,,01,101,0640915,,,,,,,2025-07-14,1,,,,,アカリナ,0
2072,8490001011106,新規,0,2025-07-14,2025-07-14,株式会社シーテーブル,,株式会社,高知県,高知市,高須３丁目７番１号,,39,201,7818104,,,,,,,2025-07-14,1,,,,,シーテーブル,0
2086,9010001256838,新規,0,2025-07-14,2025-07-14,株式会社ＥＳＳマネジメント,,株式会社,東京都,中央区,日本橋茅場町１丁目１１番７号大成ビル５階,,13,102,1030025,,,,,,,2025-07-14,1,,,,,イーエスエスマネジメント,0
2087,9010003048011,新規,0,2025-07-14,2025-07-14,合同会社ＲＳパートナーズ,,合同会社,東京都,中央区,晴海５丁目６番５－１４０６号,,13,102,1040053,,,,,,,2025-07-14,1,,,,,アールエスパートナーズ,0
2096,9010401191635,新規,0,2025-07-14,2025-07-14,Ｔ株式会社,,株式会社,東京都,港区,新橋４丁目１４番１号新橋ＡＵＮＢＬＤＧ４階,,13,103,1050004,,,,,,,2025-07-14,1,,,,,ティー,0
2097,9010401191684,新規,0,2025-07-14,2025-07-14,株式会社雅,,株式会社,東京都,港区,虎ノ門４丁目１－１１－１６０１,,13,103,1050001,,,,,,,2025-07-14,1,,,,,ミヤビ,0
2098,9010401191692,新規,0,2025-07-14,2025-07-14,株式会社ＨＹＮＥＲ　Ｅｎｅｒｇｙ,,株式会社,東京都,港区,赤坂１丁目１４－５（３０２）,,13,103,1070052,,,,,,,2025-07-14,1,,,,,ハイナーエナジー,0
2099,9010401191701,新規,0,2025-07-14,2025-07-14,株式会社ＡＩＢＲＥ,,株式会社,東京都,港区,南青山２丁目２番１５号,,13,103,1070062,,,,,,,2025-07-14,1,,,,,アイブレ,0
2100,9010401191734,新規,0,2025-07-14,2025-07-14,株式会社ｔｈｅｑｏｏ　Ｍａｇａｚｉｎｅ,,株式会社,東京都,港区,赤坂６丁目４番１１号ドミ・エメロード４０１号室,,13,103,1070052,,,,,,,2025-07-14,1,,,,,ザクーマガジン,0
2101,9010401191759,新規,0,2025-07-14,2025-07-14,株式会社コテイ,,株式会社,東京都,港区,芝浦２丁目７番１１－１６０１号,,13,103,1080023,,,,,,,2025-07-14,1,,,,,コテイ,0
2105,9010403035575,新規,0,2025-07-14,2025-07-14,七八合同会社,,合同会社,東京都,港区,芝２丁目２６番７号,,13,103,1050014,,,,,,,2025-07-14,1,,,,,シチハチ,0
2106,9010403035583,新規,0,2025-07-14,2025-07-14,ＹａＣＫアドバイザリー合同会社,,合同会社,東京都,港区,白金２丁目５番１５号,,13,103,1080072,,,,,,,2025-07-14,1,,,,,ヤックアドバイザリー,0
2109,9010501054386,新規,0,2025-07-14,2025-07-14,株式会社都市再開発鑑定,,株式会社,東京都,台東区,柳橋１丁目２番１２号５Ｆ－ＡＢＳ－Ｄ－７号,,13,106,1110052,,,,,,,2025-07-14,1,,,,,トシサイカイハツカンテイ,0
2115,9010601067602,新規,0,2025-07-14,2025-07-14,新栄開発株式会社,,株式会社,東京都,江東区,亀戸１丁目３番６号,,13,108,1360071,,,,,,,2025-07-14,1,,,,,シンエイカイハツ,0
2118,9010603011673,新規,0,2025-07-14,2025-07-14,合同会社ダブルピーダッシュ,,合同会社,東京都,江東区,枝川２丁目２８番１０－９１５号,,13,108,1350051,,,,,,,2025-07-14,1,,,,,ダブルピーダッシュ,0
2129,9011001170608,新規,0,2025-07-14,2025-07-14,Ｕｓｅｄ　ｉｎ　Ｊａｐａｎ株式会社,,株式会社,東京都,渋谷区,神南１丁目１１番４号ＦＰＧリンクス神南５階,,13,113,1500041,,,,,,,2025-07-14,1,,,,,ユーズドインジャパン,0
2130,9011001170632,新規,0,2025-07-14,2025-07-14,株式会社アスク,,株式会社,東京都,渋谷区,恵比寿西２丁目８番４号ＥＸ恵比寿西ビル５階,,13,113,1500021,,,,,,,2025-07-14,1,,,,,アスク,0
2131,9011001170970,新規,0,2025-07-14,2025-07-14,株式会社そえる建築舎,,株式会社,東京都,目黒区,自由が丘３丁目５番１３号パーシモンワン１０２,,13,110,1520035,,,,,,,2025-07-14,1,,,,,ソエルケンチクシャ,0
2133,9011003021957,新規,0,2025-07-14,2025-07-14,合同会社Ｅｌｖａ,,合同会社,東京都,目黒区,八雲３丁目７番５号ソフィア八雲１Ｆ,,13,110,1520023,,,,,,,2025-07-14,1,,,,,エルヴァ,0
2134,9011003021973,新規,0,2025-07-14,2025-07-14,ＦＵＪＩアカウンティングアドバイザリー合同会社,,合同会社,東京都,渋谷区,宇田川町１番１２－２４１０号パークコート渋谷ザタワー,,13,113,1500042,,,,,,,2025-07-14,1,,,,,フジアカウンティングアドバイザリー,0
2142,9011103016130,新規,0,2025-07-14,2025-07-14,くらしメディアデザイン合同会社,,合同会社,東京都,新宿区,西新宿１丁目２５番１号,,13,104,1600023,,,,,,,2025-07-14,1,,,,,クラシメディアデザイン,0
2143,9011103016139,新規,0,2025-07-14,2025-07-14,合同会社Ｙｅｌｌｏｗ‐Ｗｏｒｋｓ,,合同会社,東京都,新宿区,西落合４丁目２１－２クレール１０５,,13,104,1610031,,,,,,,2025-07-14,1,,,,,イエローワークス,0
2158,9011803006926,新規,0,2025-07-14,2025-07-14,合同会社Ｆｕｔｕｒｅ　Ｅｎｇｌｉｓｈ　Ｅｄｕｃａｔｉｏｎ,,合同会社,東京都,足立区,西新井栄町１丁目１９－３１－１８０４,,13,121,1230843,,,,,,,2025-07-14,1,,,,,フューチャーイングリッシュエデュケーション,0
2162,9012301014462,新規,0,2025-07-14,2025-07-14,ＳＬＯＷ株式会社,,株式会社,東京都,町田市,本町田２４４番地２１,,13,209,1940032,,,,,,,2025-07-14,1,,,,,スロウ,0
2169,9020001163868,新規,0,2025-07-14,2025-07-14,株式会社ごきげん研究所,,株式会社,神奈川県,横浜市鶴見区,駒岡２丁目１６－５１－３０７,,14,101,2300071,,,,,,,2025-07-14,1,,,,,ゴキゲンケンキュウジョ,0
2175,9021001085739,新規,0,2025-07-14,2025-07-14,株式会社ｐｅｔ　ｆａｍｉｌｙ,,株式会社,神奈川県,相模原市中央区,水郷田名３丁目３番１号,,14,152,2520246,,,,,,,2025-07-14,1,,,,,ペットファミリー,0
2188,9030001167471,新規,0,2025-07-14,2025-07-14,株式会社ＺＥＮＫＡｉ,,株式会社,埼玉県,新座市,東北２丁目２番４号,,11,230,3520001,,,,,,,2025-07-14,1,,,,,ゼンカイ,0
2192,9030003027186,新規,0,2025-07-14,2025-07-14,合同会社新陽商事,,合同会社,埼玉県,越谷市,東越谷６丁目２０２番地２１,,11,222,3430023,,,,,,,2025-07-14,1,,,,,シンヨウショウジ,0
2199,9040001139593,新規,0,2025-07-14,2025-07-14,Ｌｉｆｅ　ｃｈａｎｇｅ株式会社,,株式会社,千葉県,木更津市,中央１丁目４‐１３ＫＴＫビル５Ｆ,,12,206,2920067,,,,,,,2025-07-14,1,,,,,ライフチェンジ,0
2200,9040001139684,新規,0,2025-07-14,2025-07-14,株式会社オオノインテリア,,株式会社,千葉県,千葉市中央区,椿森３丁目１１番２３号,,12,101,2600042,,,,,,,2025-07-14,1,,,,,オオノインテリア,0
2202,9050001056937,新規,0,2025-07-14,2025-07-14,株式会社コウユウ,,株式会社,茨城県,常総市,大生郷町４５３４番地１,,08,211,3002521,,,,,,,2025-07-14,1,,,,,コウユウ,0
2203,9050001056945,新規,0,2025-07-14,2025-07-14,株式会社ひかり,,株式会社,茨城県,石岡市,片岡１２０２番地,,08,205,3150113,,,,,,,2025-07-14,1,,,,,ヒカリ,0
2206,9050003009422,新規,0,2025-07-14,2025-07-14,合同会社ルミセラ,,合同会社,茨城県,土浦市,小岩田東１丁目８番３号シャーメゾンＹ・Ｃ棟１０１,,08,203,3000834,,,,,,,2025-07-14,1,,,,,ルミセラ,0
2207,9050003009430,新規,0,2025-07-14,2025-07-14,ＴＡＪ　ＴＲＡＤＩＮＧ合同会社,,合同会社,茨城県,常総市,本石下３８０９番地１,,08,211,3002707,,,,,,,2025-07-14,1,,,,,タージュトレーディング,0
2209,9060001038406,新規,0,2025-07-14,2025-07-14,株式会社６７９,,株式会社,栃木県,宇都宮市,本町８番１３号,,09,201,3200033,,,,,,,2025-07-14,1,,,,,ロクナナキュウ,0
2211,9060003005643,新規,0,2025-07-14,2025-07-14,ＳＴＡＲＳ　ＴＲＡＤＩＮＧ合同会社,,合同会社,栃木県,那須塩原市,西富山４２７番地３,,09,213,3292762,,,,,,,2025-07-14,1,,,,,スターズトレーディング,0
2213,9070001043149,新規,0,2025-07-14,2025-07-14,株式会社ＳｈａｒａＱ,,株式会社,群馬県,前橋市,西善町１８０番地４,,10,201,3792131,,,,,,,2025-07-14,1,,,,,シャラク,0
2232,9100001038748,新規,0,2025-07-14,2025-07-14,株式会社エー・トゥー・ゼット・スクール,,株式会社,長野県,松本市,高宮中１番３５号,,20,202,3900834,,,,,,,2025-07-14,1,,,,,エートゥーゼットスクール,0
2248,9120001277823,新規,0,2025-07-14,2025-07-14,東順記株式会社,,株式会社,大阪府,大阪市北区,黒崎町３－２６キャッスルマンション１Ｃ,,27,127,5300023,,,,,,,2025-07-14,1,,,,,トウジュンキ,0
2256,9120901051121,新規,0,2025-07-14,2025-07-14,株式会社南口ハートリズムセンター,,株式会社,大阪府,茨木市,南春日丘７丁目５番１－３１０号,,27,211,5670046,,,,,,,2025-07-14,1,,,,,ミナミグチハートリズムセンター,0
2257,9120901051170,新規,0,2025-07-14,2025-07-14,山商株式会社,,株式会社,大阪府,吹田市,千里山西１丁目１５番３４号,,27,205,5650851,,,,,,,2025-07-14,1,,,,,ヤマショウ,0
2258,9120901051187,新規,0,2025-07-14,2025-07-14,株式会社ＧＲＩＴ,,株式会社,大阪府,豊中市,東豊中町５丁目４番５－３０１,,27,203,5600003,,,,,,,2025-07-14,1,,,,,グリット,0
2264,9122001039427,新規,0,2025-07-14,2025-07-14,株式会社ｔｏ　ｂｅ,,株式会社,大阪府,東大阪市,荒川３丁目７番２２号,,27,227,5770843,,,,,,,2025-07-14,1,,,,,トゥービー,0
2265,9122001039435,新規,0,2025-07-14,2025-07-14,桜本食品株式会社,,株式会社,大阪府,東大阪市,足代３丁目２－７,,27,227,5770841,,,,,,,2025-07-14,1,,,,,サクラモトショクヒン,0
2270,9130001080061,新規,0,2025-07-14,2025-07-14,電子ＣＢ農法株式会社,,株式会社,京都府,京都市東山区,祇園町北側３４０番地マルトー１７ビル５０１,,26,105,6050073,,,,,,,2025-07-14,1,,,,,デンシシービーノウホウ,0
2272,9140001139261,新規,0,2025-07-14,2025-07-14,株式会社Ｎ‐ｏｆｆｉｃｅ,,株式会社,兵庫県,神戸市中央区,小野柄通５丁目１番２７号甲南アセット三宮ビル７階,,28,110,6510088,,,,,,,2025-07-14,1,,,,,エヌオフィス,0
2277,9140005027561,新規,0,2025-07-14,2025-07-14,ＮＰＯ法人地域づくりパートナーズ,,その他の設立登記法人,兵庫県,尼崎市,南塚口町２丁目２９番６号,,28,202,6610012,,,,,,,2025-07-14,1,,,,,チイキヅクリパートナーズ,0
2279,9160001026887,新規,0,2025-07-14,2025-07-14,株式会社Ｒａｙｅ,,株式会社,滋賀県,守山市,赤野井町１１１６番地,,25,207,5240061,,,,,,,2025-07-14,1,,,,,レイエ,0
2283,9180001167688,新規,0,2025-07-14,2025-07-14,株式会社ＬＯＶＡＲＩ,,株式会社,愛知県,名古屋市守山区,向台３丁目５０１番地の１,,23,113,4630036,,,,,,,2025-07-14,1,,,,,ロヴァリ,0
2284,9180001167696,新規,0,2025-07-14,2025-07-14,株式会社零章,,株式会社,愛知県,名古屋市中村区,名駅５丁目２番１７号フロンティア名駅１３Ｆ,,23,105,4500002,,,,,,,2025-07-14,1,,,,,ゼロショウ,0
2285,9180001167713,新規,0,2025-07-14,2025-07-14,株式会社ＳＡＫＵＲＡ,,株式会社,愛知県,稲沢市,増田西町１６５番地５,,23,220,4928429,,,,,,,2025-07-14,1,,,,,サクラ,0
2291,9190001032395,新規,0,2025-07-14,2025-07-14,サン・カントリー株式会社,,株式会社,三重県,鈴鹿市,北玉垣町１７７２番地の９,,24,207,5130813,,,,,,,2025-07-14,1,,,,,サンカントリー,0
2292,9190005012063,新規,0,2025-07-14,2025-07-14,医療法人ひかり,,その他の設立登記法人,三重県,津市,半田２０６－１,,24,201,5140823,,,,,,,2025-07-14,1,,,,,ヒカリ,0
2302,9220003004075,新規,0,2025-07-14,2025-07-14,合同会社Ｃｒｅａｔｅ　Ｍｉｒａｉ,,合同会社,石川県,金沢市,尾張町１丁目１１‐６,,17,201,9200902,,,,,,,2025-07-14,1,,,,,クリエイトミライ,0
2310,9260003005251,新規,0,2025-07-14,2025-07-14,合同会社ＶｅｒＦｏｕｒ’ｚ,,合同会社,岡山県,岡山市北区,北方１丁目６番２号,,33,101,7000803,,,,,,,2025-07-14,1,,,,,ヴェルフォース,0
2312,9290001110653,新規,0,2025-07-14,2025-07-14,株式会社文生,,株式会社,福岡県,福岡市博多区,昭南町３丁目１番９号シティハイム昭南２０１号,,40,132,8120876,,,,,,,2025-07-14,1,,,,,フミオ,0
2313,9290001110686,新規,0,2025-07-14,2025-07-14,株式会社Ｆ４,,株式会社,福岡県,久留米市,城島町浮島４８３番地,,40,203,8300221,,,,,,,2025-07-14,1,,,,,エフフォー,0
2314,9290001110744,新規,0,2025-07-14,2025-07-14,株式会社ＰＵＳＨ‐ＯＮＥ,,株式会社,福岡県,福岡市東区,御島崎２丁目６－１５－２０６,,40,131,8130005,,,,,,,2025-07-14,1,,,,,,0
2316,9290003017104,新規,0,2025-07-14,2025-07-14,合同会社ワンステップ,,合同会社,福岡県,久留米市,三潴町西牟田６３４４番地４１,,40,203,8300111,,,,,,,2025-07-14,1,,,,,ワンステップ,0
2317,9290003017129,新規,0,2025-07-14,2025-07-14,ＮｅｗＬｅｇａｃｙ合同会社,,合同会社,福岡県,太宰府市,五条６丁目１番４９号,,40,221,8180125,,,,,,,2025-07-14,1,,,,,ニューレガシー,0
2319,9300001014266,新規,0,2025-07-14,2025-07-14,株式会社シモカワ自動車,,株式会社,佐賀県,唐津市,浜玉町五反田２４９２番地３,,41,202,8495102,,,,,,,2025-07-14,1,,,,,シモカワジドウシャ,0
2325,9320003004718,新規,0,2025-07-14,2025-07-14,合同会社一来,,合同会社,大分県,大分市,城崎町３丁目３番３８号,,44,201,8700045,,,,,,,2025-07-14,1,,,,,イチライ,0
2327,9350001019649,新規,0,2025-07-14,2025-07-14,株式会社ＩＲＯＨＡ,,株式会社,宮崎県,西諸県郡高原町,大字広原６０８５番地,,45,361,8894411,,,,,,,2025-07-14,1,,,,,イロハ,0
2332,9360001035463,新規,0,2025-07-14,2025-07-14,株式会社Ｖａｌｕｅ　Ｏｒｃｈｅｓｔｒａホールディングス,,株式会社,沖縄県,宮古島市,平良字東仲宗根添１１８６番地１,,47,214,9060011,,,,,,,2025-07-14,1,,,,,バリューオーケストラホールディングス,0
2333,9360001035471,新規,0,2025-07-14,2025-07-14,バリキ株式会社,,株式会社,沖縄県,中頭郡北谷町,字吉原７２８番地６ワイズエステムコート北谷パークヒルズ１１０２,,47,326,9040105,,,,,,,2025-07-14,1,,,,,バリキ,0
2334,9360003015083,新規,0,2025-07-14,2025-07-14,合同会社アンビション,,合同会社,沖縄県,那覇市,安里２丁目６番２３－９０８号インペリアルハイム喜納,,47,201,9020067,,,,,,,2025-07-14,1,,,,,アンビション,0
2335,9360003015100,新規,0,2025-07-14,2025-07-14,合同会社琉成建設,,合同会社,沖縄県,宮古島市,上野字野原１１３６番地２,,47,214,9060201,,,,,,,2025-07-14,1,,,,,リュウセイケンセツ,0
2337,9370001052813,新規,0,2025-07-14,2025-07-14,株式会社ミレアルナ,,株式会社,宮城県,仙台市青葉区,中央２丁目１１番１９号仙南ビル４階－Ａ,,04,101,9800021,,,,,,,2025-07-14,1,,,,,ミレアルナ,0
2338,9370001052821,新規,0,2025-07-14,2025-07-14,株式会社福来建設,,株式会社,宮城県,塩竈市,本町２番４号徳酒ビル３０２,,04,203,9850052,,,,,,,2025-07-14,1,,,,,フクケンセツ,0
2340,9380001035453,新規,0,2025-07-14,2025-07-14,株式会社ユニバーサルプロモーション,,株式会社,福島県,白河市,大手町９番地７ＥＳ９ビル２０１号室,,07,205,9610908,,,,,,,2025-07-14,1,,,,,ユニバーサルプロモーション,0
2346,9410005006653,新規,0,2025-07-14,2025-07-14,特定非営利活動法人ｗｉｔｈ　ｇｒｅｅｎ,,その他の設立登記法人,秋田県,湯沢市,内町４番１６号,,05,207,0120843,,,,,,,2025-07-14,1,,,,,ウィズグリーン,0
2347,9430005015264,新規,0,2025-07-14,2025-07-14,一般社団法人楽恩会,,その他の設立登記法人,北海道,札幌市白石区,東札幌四条１丁目３－２５Ｂｌａｉｓｅ３階,,01,104,0030004,,,,,,,2025-07-14,1,,,,,ラクオンカイ,0
2353,9490001011105,新規,0,2025-07-14,2025-07-14,西部ガステック株式会社,,株式会社,高知県,高知市,神田１７３５番地１９,,39,201,7808040,,,,,,,2025-07-14,1,,,,,スピカデンキコウジ,0
