sequenceNumber,corporateNumber,process,correct,updateDate,changeDate,name,nameImageId,kind,prefectureName,cityName,streetNumber,addressImageId,prefectureCode,cityCode,postCode,addressOutside,addressOutsideImageId,closeDate,closeCause,successorCorporateNumber,changeCause,assignmentDate,latest,enName,enPrefectureName,enCityName,enAddressOutside,furigana,hihyoji
13,1010005012162,登記記録の閉鎖等,0,2022-09-16,2022-09-13,特定非営利活動法人少額短期保険募集人研修機構,,その他の設立登記法人,東京都,中央区,八丁堀３丁目１２番８号,,13,102,1040032,,,2022-09-13,清算の結了等,,,2015-10-05,1,,,,,ショウガクタンキホケンボシュウニンケンシュウキコウ,0
18,1010601055143,登記記録の閉鎖等,0,2022-09-16,2022-09-09,株式会社光,,株式会社,東京都,江東区,住吉２丁目２７番５号３階,,13,108,1350002,,,2022-09-09,清算の結了等,,,2019-03-07,1,,,,,ヒカリ,0
26,1011001003097,登記記録の閉鎖等,0,2022-09-16,2022-09-09,株式会社エミージュ,,株式会社,東京都,渋谷区,恵比寿南３丁目４番１６号,,13,113,1500022,,,2022-09-09,清算の結了等,,,2015-10-05,1,,,,,エミージュ,0
32,1011103009521,登記記録の閉鎖等,0,2022-09-16,2022-09-13,ブルーロジスティクス５合同会社,,合同会社,東京都,新宿区,四谷２丁目９番地１５東京ユナイテッド綜合事務所内,,13,104,1600004,,,2022-09-13,清算の結了等,,,2020-03-09,1,,,,,ブルーロジスティクスゴ,0
55,1020001031223,登記記録の閉鎖等,0,2022-09-16,2022-09-13,エフ・ジー・ジェイ株式会社,,株式会社,神奈川県,座間市,入谷西５丁目５７番２３号,,14,216,2520029,,,2022-09-13,合併による解散等,9020001046354,令和４年９月１日横浜市神奈川区東神奈川二丁目４７番地７日産プリンス神奈川販売株式会社（9020001046354）に合併し解散,2015-10-05,1,,,,,エフジージェイ,0
56,1020001065270,登記記録の閉鎖等,0,2022-09-16,2022-09-12,新百合丘住宅販売株式会社,,株式会社,神奈川県,川崎市麻生区,栗平１丁目５番３２号－１０３,,14,137,2150031,,,2022-09-12,清算の結了等,,,2015-10-05,1,,,,,シンユリガオカジュウタクハンバイ,0
63,1020002061995,登記記録の閉鎖等,0,2022-09-16,2022-09-13,有限会社エムズ・テクノロジー,,有限会社,神奈川県,横浜市保土ケ谷区,東川島町６２番地１セブンヒルズ２０４号,,14,106,2400041,,,2022-09-13,清算の結了等,,,2015-10-05,1,,,,,エムズテクノロジー,0
64,1020002062597,登記記録の閉鎖等,0,2022-09-16,2022-09-12,有限会社コジマテクノ,,有限会社,神奈川県,横浜市神奈川区,子安台１丁目８番１２号コープ子安台２０６号室,,14,102,2210012,,,2022-09-12,清算の結了等,,,2015-10-05,1,,,,,コジマテクノ,0
80,1030001060576,登記記録の閉鎖等,0,2022-09-16,2022-08-31,株式会社アジア通商,,株式会社,埼玉県,本庄市,児玉町金屋１８３番地２,,11,211,3670216,,,2022-08-31,合併による解散等,7030001060612,令和４年８月３０日埼玉県本庄市児玉町金屋２１５番地６株式会社倉林（7030001060612）に合併し解散,2015-10-05,1,,,,,アジアツウショウ,0
87,1030002100273,登記記録の閉鎖等,0,2022-09-16,2022-09-02,有限会社池田商店,,有限会社,埼玉県,川口市,領家３丁目１２番１４号,,11,203,3320004,,,2022-09-02,清算の結了等,,,2015-10-05,1,,,,,イケダショウテン,0
102,1070002015749,登記記録の閉鎖等,0,2022-09-16,2022-09-12,有限会社アイ開発,,有限会社,群馬県,高崎市,貝沢町４７１番地１,,10,202,3700042,,,2022-09-12,清算の結了等,,,2015-10-05,1,,,,,アイカイハツ,0
108,1080101012217,登記記録の閉鎖等,0,2022-09-16,2022-09-13,株式会社西富士食品,,株式会社,静岡県,富士宮市,淀川町９番１１号,,22,207,4180041,,,2022-09-13,清算の結了等,,,2015-10-05,1,,,,,ニシフジショクヒン,0
112,1100001011919,登記記録の閉鎖等,0,2022-09-16,2022-09-13,北信舗道株式会社,,株式会社,長野県,下水内郡栄村,大字北信３０９０番地１,,20,602,3892702,,,2022-09-13,清算の結了等,,,2015-10-05,1,,,,,ホクシンホドウ,0
130,1120002041005,登記記録の閉鎖等,0,2022-09-16,2022-09-12,有限会社石井特殊鋼,,有限会社,大阪府,大阪市浪速区,木津川２丁目３番１１７号,,27,111,5560027,,,2022-09-12,清算の結了等,,,2015-10-05,1,,,,,,0
157,1140002022449,登記記録の閉鎖等,0,2022-09-16,2022-09-05,有限会社関西エコファイバー普及会,,有限会社,兵庫県,神戸市東灘区,本山南町５丁目２番２２号,,28,101,6580015,,,2022-09-05,清算の結了等,,,2015-10-05,1,,,,,,0
190,1240002001541,登記記録の閉鎖等,0,2022-09-16,2022-09-14,有限会社伊原工業,,有限会社,広島県,広島市安佐北区,小河原町曲り田１４７５番地の４,,34,106,7391754,,,2022-09-14,清算の結了等,,,2015-10-05,1,,,,,イハラコウギョウ,0
210,1330002028245,登記記録の閉鎖等,0,2022-09-16,2022-09-12,牛深ソーイング有限会社,,有限会社,熊本県,天草市,久玉町１２５３番地の７,,43,215,8631902,,,2022-09-12,清算の結了等,,,2015-10-05,1,,,,,,0
213,1350002015159,登記記録の閉鎖等,0,2022-09-16,2022-09-09,有限会社宮崎不動産情報,,有限会社,宮崎県,都城市,郡元町２９２９番地４,,45,202,8850013,,,2022-09-09,清算の結了等,,,2015-10-05,1,,,,,ミヤザキフドウサンジョウホウ,0
255,1470001009967,登記記録の閉鎖等,0,2022-09-16,2022-09-12,株式会社鈴木工務店,,株式会社,香川県,観音寺市,本大町１６９８番地の２,,37,205,7680022,,,2022-09-12,清算の結了等,,,2015-10-05,1,,,,,スズキコウムテン,0
257,1480001008282,登記記録の閉鎖等,0,2022-09-16,2022-09-15,徳島食品株式会社,,株式会社,徳島県,阿南市,日開野町筒路１５番地１,,36,204,7740013,,,2022-09-15,清算の結了等,,,2015-10-05,1,,,,,トクシマショクヒン,0
261,1490002005658,登記記録の閉鎖等,0,2022-09-16,2022-09-12,有限会社ロイヤルエンタープライズ,,有限会社,高知県,高知市,唐人町１番２８号,,39,201,7800864,,,2022-09-12,清算の結了等,,,2015-10-05,1,,,,,ロイヤルエンタープライズ,0
272,2010005028323,登記記録の閉鎖等,0,2022-09-16,2022-09-08,弁護士法人ソーシャルワーカーズ,,その他の設立登記法人,東京都,千代田区,麹町３丁目１２番地６麹町グリーンビル２０２号,,13,101,1020083,,,2022-09-08,清算の結了等,,,2018-04-05,1,,,,,ソーシャルワーカーズ,0
308,2011802007799,登記記録の閉鎖等,0,2022-09-16,2022-09-13,有限会社モギー,,有限会社,東京都,葛飾区,堀切２丁目５７番１２号,,13,122,1240006,,,2022-09-13,清算の結了等,,,2015-10-05,1,,,,,モギー,0
319,2020001076176,登記記録の閉鎖等,0,2022-09-16,2022-09-07,プランツ株式会社,,株式会社,神奈川県,川崎市幸区,北加瀬１丁目７番１１号,,14,132,2120057,,,2022-09-07,清算の結了等,,,2022-06-16,1,,,,,プランツ,0
333,2021001011890,登記記録の閉鎖等,0,2022-09-16,2022-09-12,株式会社クリエーション,,株式会社,神奈川県,大和市,中央林間４丁目６番２０－１４０３号,,14,213,2420007,,,2022-09-12,清算の結了等,,,2015-10-05,1,,,,,クリエーション,0
361,2050001006213,登記記録の閉鎖等,0,2022-09-16,2022-09-12,ＴＮＢ株式会社,,株式会社,茨城県,那珂郡東海村,大字白方２２７番地１,,08,341,3191106,,,2022-09-12,清算の結了等,,,2015-10-05,1,,,,,ティエヌビー,0
371,2070003002043,登記記録の閉鎖等,0,2022-09-16,2022-09-09,合同会社原通信,,合同会社,群馬県,邑楽郡板倉町,朝日野２丁目４５７６番地３６,,10,521,3740112,,,2022-09-09,清算の結了等,,,2015-10-05,1,,,,,ハラツウシン,0
375,2080002011977,登記記録の閉鎖等,0,2022-09-16,2022-09-15,有限会社るる,,有限会社,静岡県,静岡市葵区,東千代田１丁目１９番１４号,,22,101,4200801,,,2022-09-15,清算の結了等,,,2015-10-05,1,,,,,ルル,0
399,2120103001955,登記記録の閉鎖等,0,2022-09-16,2022-09-15,トップモバイル合同会社,,合同会社,大阪府,堺市堺区,中瓦町２丁１番４号,,27,141,5900077,,,2022-09-15,清算の結了等,,,2015-10-05,1,,,,,トップモバイル,0
414,2140001033545,登記記録の閉鎖等,0,2022-09-16,2022-09-12,株式会社ウェッジ,,株式会社,兵庫県,神戸市須磨区,弥栄台３丁目６番地,,28,107,6540161,,,2022-09-12,清算の結了等,,,2015-10-05,1,,,,,ウェッジ,0
418,2140001092608,登記記録の閉鎖等,0,2022-09-16,2022-09-12,株式会社三田ＳＹＳゴルフリゾート,,株式会社,兵庫県,三田市,上本庄１２１５,,28,219,6691351,,,2022-09-12,清算の結了等,,,2015-10-05,1,,,,,サンダエスワイエスゴルフリゾート,0
422,2160001008685,登記記録の閉鎖等,0,2022-09-16,2022-09-14,株式会社ひだえん,,株式会社,滋賀県,彦根市,八坂町１９７５番地の１３,,25,202,5220057,,,2022-09-14,清算の結了等,,,2015-10-05,1,,,,,ヒダエン,0
430,2180302014109,登記記録の閉鎖等,0,2022-09-16,2022-09-06,有限会社メンズハウスコンパル,,有限会社,愛知県,豊川市,豊川栄町７番地,,23,207,4420036,,,2022-09-06,清算の結了等,,,2015-10-05,1,,,,,メンズハウスコンパル,0
440,2210002009900,登記記録の閉鎖等,0,2022-09-16,2022-09-13,有限会社山形ニット工場,,有限会社,福井県,勝山市,滝波町１丁目３３１番地,,18,206,9110034,,,2022-09-13,清算の結了等,,,2015-10-05,1,,,,,,0
463,2390001015659,登記記録の閉鎖等,0,2022-09-16,2022-09-12,株式会社シンセリティプラン,,株式会社,山形県,村山市,楯岡笛田１丁目２０番２７号,,06,208,9950024,,,2022-09-12,清算の結了等,,,2019-04-04,1,,,,,シンセリティプラン,0
465,2420002008963,登記記録の閉鎖等,0,2022-09-16,2022-09-09,みちのく産業有限会社,,有限会社,青森県,八戸市,大字妙字西ノ平７番地１,,02,203,0310814,,,2022-09-09,清算の結了等,,,2015-10-05,1,,,,,ミチノクサンギョウ,0
478,2500001009203,登記記録の閉鎖等,0,2022-09-16,2022-09-09,株式会社ヤマサンセンター,,株式会社,愛媛県,西条市,小松町明穂甲５７４番地,,38,206,7991107,,,2022-09-09,清算の結了等,,,2015-10-05,1,,,,,ヤマサンセンター,0
491,3010005027662,登記記録の閉鎖等,0,2022-09-16,2022-09-13,御成門特定目的会社,,その他の設立登記法人,東京都,千代田区,丸の内１丁目８番２号鉄鋼ビルディング４階,,13,101,1000005,,,2022-09-13,清算の結了等,,,2017-10-31,1,,,,,,0
503,3010602007620,登記記録の閉鎖等,0,2022-09-16,2022-09-09,有限会社前川商店,,有限会社,東京都,江東区,扇橋２丁目８番９号,,13,108,1350011,,,2022-09-09,清算の結了等,,,2015-10-05,1,,,,,マエカワショウテン,0
506,3010801002265,登記記録の閉鎖等,0,2022-09-16,2022-09-09,株式会社オグロ,,株式会社,東京都,大田区,蒲田４丁目３３番１２号,,13,111,1440052,,,2022-09-09,清算の結了等,,,2015-10-05,1,,,,,オグロ,0
508,3010805001296,登記記録の閉鎖等,0,2022-09-16,2022-09-13,特定非営利活動法人園芸療育環境アカデミー,,その他の設立登記法人,東京都,文京区,向丘１丁目１２番６号牧野コーポ２階,,13,105,1130023,,,2022-09-13,清算の結了等,,,2015-10-05,1,,,,,エンゲイリョウイクカンキョウアカデミー,0
510,3011001031906,登記記録の閉鎖等,0,2022-09-16,2022-09-02,三水電気株式会社,,株式会社,東京都,渋谷区,神宮前３丁目１０番２号,,13,113,1500001,,,2022-09-02,清算の結了等,,,2015-10-05,1,,,,,サンスイデンキ,0
519,3011002034008,登記記録の閉鎖等,0,2022-09-16,2022-09-02,有限会社インイタリアーノ,,有限会社,東京都,渋谷区,桜丘町２９番３３－７０２号,,13,113,1500031,,,2022-09-02,清算の結了等,,,2015-10-05,1,,,,,インイタリアーノ,0
534,3011601025976,登記記録の閉鎖等,0,2022-09-16,2022-09-13,株式会社ＯＳＰ,,株式会社,東京都,練馬区,北町２丁目２７番８号,,13,120,1790081,,,2022-09-13,清算の結了等,,,2022-05-25,1,,,,,オーエスピー,0
556,3020001122094,登記記録の閉鎖等,0,2022-09-16,2022-09-12,株式会社中建設,,株式会社,神奈川県,横浜市戸塚区,名瀬町２３７番地１,,14,110,2450051,,,2022-09-12,清算の結了等,,,2017-07-05,1,,,,,アタルケンセツ,0
561,3020002065961,登記記録の閉鎖等,0,2022-09-16,2022-09-12,横浜華裕貿易有限会社,,有限会社,神奈川県,横浜市都筑区,茅ケ崎南１丁目３番８－５０５号,,14,118,2240037,,,2022-09-12,清算の結了等,,,2015-10-05,1,,,,,ヨコハマカユウボウエキ,0
570,3021002018463,登記記録の閉鎖等,0,2022-09-16,2022-09-14,有限会社江成米店,,有限会社,神奈川県,相模原市中央区,星が丘３丁目１２番２７号,,14,152,2520238,,,2022-09-14,清算の結了等,,,2015-10-05,1,,,,,エナリコメテン,0
574,3021005006531,登記記録の閉鎖等,0,2022-09-16,2022-09-12,特定非営利活動法人弥生,,その他の設立登記法人,神奈川県,小田原市,曽我谷津７０９番地の６,,14,206,2500204,,,2022-09-12,清算の結了等,,,2015-10-05,1,,,,,ヤヨイ,0
575,3021005007182,登記記録の閉鎖等,0,2022-09-16,2022-09-13,特定非営利活動法人そだちサポートセンター,,その他の設立登記法人,神奈川県,平塚市,錦町５番１７号,,14,203,2540044,,,2022-09-13,清算の結了等,,,2015-10-05,1,,,,,ソダチサポートセンター,0
595,3040001105097,登記記録の閉鎖等,0,2022-09-16,2022-09-06,株式会社ＴＰＡ,,株式会社,千葉県,船橋市,大穴南４丁目８番３号,,12,204,2740067,,,2022-09-06,清算の結了等,,,2018-06-19,1,,,,,ティーピーエー,0
603,3050002001971,登記記録の閉鎖等,0,2022-09-16,2022-09-12,有限会社大吉瓦店,,有限会社,茨城県,水戸市,谷田町５９５番地の４,,08,201,3100825,,,2022-09-12,清算の結了等,,,2015-10-05,1,,,,,オオヨシカワラテン,0
613,3070001020806,登記記録の閉鎖等,0,2022-09-16,2022-09-08,吉田商運株式会社,,株式会社,群馬県,邑楽郡邑楽町,大字藤川１１４４番地の２,,10,525,3700605,,,2022-09-08,清算の結了等,,,2015-10-05,1,,,,,ヨシダショウウン,0
616,3070002022941,登記記録の閉鎖等,0,2022-09-16,2022-09-12,有限会社荻善人形店,,有限会社,群馬県,みどり市,大間々町大間々１２４４番地,,10,212,3760101,,,2022-09-12,清算の結了等,,,2015-10-05,1,,,,,オギゼンニンギョウテン,0
625,3110001005645,登記記録の閉鎖等,0,2022-09-16,2022-09-12,株式会社ヤマジュウ風間,,株式会社,新潟県,新潟市西区,流通センター３丁目１番地４,,15,107,9502031,,,2022-09-12,合併による解散等,3180001040207,令和４年９月１日名古屋市中区栄一丁目９番１６号株式会社福谷（3180001040207）に合併し解散,2015-10-05,1,,,,,ヤマジュウカザマ,0
626,3110001031071,登記記録の閉鎖等,0,2022-09-16,2022-09-13,デリジェンス株式会社,,株式会社,新潟県,柏崎市,駅前２丁目２番４１号,,15,205,9450055,,,2022-09-13,清算の結了等,,,2015-11-11,1,,,,,デリジェンス,0
655,3120103003694,登記記録の閉鎖等,0,2022-09-16,2022-09-12,合同会社スターオイル,,合同会社,大阪府,和泉市,小田町１丁目７番１７号,,27,219,5940074,,,2022-09-12,清算の結了等,,,2020-05-14,1,,,,,スターオイル,0
666,3140005004954,登記記録の閉鎖等,0,2022-09-16,2022-09-13,特定非営利活動法人チャレンジひがしなだ,,その他の設立登記法人,兵庫県,神戸市東灘区,御影本町８丁目１３番１４号グローリーハイツ御影１０１号,,28,101,6580046,,,2022-09-13,清算の結了等,,,2015-10-05,1,,,,,チャレンジヒガシナダ,0
676,3180301005223,登記記録の閉鎖等,0,2022-09-16,2022-09-06,株式会社大石商店,,株式会社,愛知県,豊橋市,新本町６５番地,,23,201,4400892,,,2022-09-06,清算の結了等,,,2015-10-05,1,,,,,オオイシショウテン,0
719,3360002012054,登記記録の閉鎖等,0,2022-09-16,2022-09-07,有限会社ティーズ,,有限会社,沖縄県,沖縄市,字松本９２２番地,,47,211,9042151,,,2022-09-07,清算の結了等,,,2015-10-05,1,,,,,ティーズ,0
723,3370002020238,登記記録の閉鎖等,0,2022-09-16,2022-09-08,有限会社トップパーツ,,有限会社,宮城県,黒川郡大郷町,味明字力田８番地の２,,04,422,9813513,,,2022-09-08,清算の結了等,,,2015-10-05,1,,,,,トップパーツ,0
735,3430001000457,登記記録の閉鎖等,0,2022-09-16,2022-09-06,株式会社秋山産商,,株式会社,北海道,札幌市中央区,南六条西２６丁目１番１９号,,01,101,0640806,,,2022-09-06,清算の結了等,,,2015-10-05,1,,,,,アキヤマサンショウ,0
740,3430001082636,登記記録の閉鎖等,0,2022-09-16,2022-09-08,大野農園株式会社,,株式会社,北海道,苫小牧市,新中野町２丁目２番４号,,01,213,0530006,,,2022-09-08,清算の結了等,,,2020-11-10,1,,,,,オオノノウエン,0
757,4010002029826,登記記録の閉鎖等,0,2022-09-16,2022-09-08,有限会社シー・エス・エス,,有限会社,東京都,中央区,日本橋堀留町２丁目７番２－６０３号,,13,102,1030012,,,2022-09-08,清算の結了等,,,2015-10-05,1,,,,,シーエスエス,0
763,4010401159083,登記記録の閉鎖等,0,2022-09-16,2022-09-01,株式会社ダイニチホールディングス,,株式会社,東京都,港区,芝浦４丁目１５番３３号,,13,103,1080023,,,2022-09-01,合併による解散等,6010401016670,令和４年９月１日東京都港区海岸三丁目２０番２０号大日商事株式会社（6010401016670）に合併し解散,2021-03-29,1,,,,,ダイニチホールディングス,0
765,4010405001976,登記記録の閉鎖等,0,2022-09-16,2022-09-01,関東厨房機器協同組合,,その他の設立登記法人,東京都,港区,東麻布１丁目２７番８号,,13,103,1060044,,,2022-09-01,清算の結了等,,,2015-10-05,1,,,,,カントウチュウボウキキ,0
773,4010702004277,登記記録の閉鎖等,0,2022-09-16,2022-09-13,有限会社末廣電材,,有限会社,東京都,品川区,荏原５丁目７番３号,,13,109,1420063,,,2022-09-13,清算の結了等,,,2015-10-05,1,,,,,スエヒロデンザイ,0
784,4010903006717,登記記録の閉鎖等,0,2022-09-16,2022-09-09,合同会社Ｔ２Ｙ　ＣＯＭＰＡＮＹ,,合同会社,東京都,世田谷区,上祖師谷５丁目３１－７,,13,112,1570065,,,2022-09-09,清算の結了等,,,2021-08-10,1,,,,,ティーツーワイカンパニー,0
793,4011001111442,登記記録の閉鎖等,0,2022-09-16,2022-09-09,株式会社Ｂ・Ｂ,,株式会社,東京都,渋谷区,宇田川町３６番２号ノア渋谷６０２,,13,113,1500042,,,2022-09-09,清算の結了等,,,2016-06-17,1,,,,,,0
811,4011801000927,登記記録の閉鎖等,0,2022-09-16,2022-09-14,カイセイ株式会社,,株式会社,東京都,葛飾区,新宿１丁目１２番１１号,,13,122,1250051,,,2022-09-14,清算の結了等,,,2015-10-05,1,,,,,カイセイ,0
829,4021001011914,登記記録の閉鎖等,0,2022-09-16,2022-09-12,クラフト株式会社,,株式会社,神奈川県,相模原市緑区,橋本台３丁目１４番２４号,,14,151,2520132,,,2022-09-12,合併による解散等,3430001015439,令和４年９月１日札幌市中央区南十条西八丁目４番地１株式会社プリプレス・センター（3430001015439）に合併し解散,2015-10-05,1,,,,,クラフト,0
831,4021001060399,登記記録の閉鎖等,0,2022-09-16,2022-09-14,株式会社コーデック,,株式会社,神奈川県,鎌倉市,七里ガ浜東４丁目８番１２号,,14,204,2480025,,,2022-09-14,清算の結了等,,,2016-10-11,1,,,,,コーデック,0
832,4021001070183,登記記録の閉鎖等,0,2022-09-16,2022-09-14,株式会社イレブン,,株式会社,神奈川県,藤沢市,鵠沼石上１丁目７番８号ビックライズビル５Ｆ,,14,205,2510025,,,2022-09-14,清算の結了等,,,2020-06-23,1,,,,,イレブン,0
839,4030001087930,登記記録の閉鎖等,0,2022-09-16,2022-09-05,株式会社八策,,株式会社,埼玉県,熊谷市,万吉２５０２番地８２,,11,202,3600161,,,2022-09-05,清算の結了等,,,2015-10-05,1,,,,,,0
855,4060002033567,登記記録の閉鎖等,0,2022-09-16,2022-09-12,小澤重機有限会社,,有限会社,栃木県,栃木市,藤岡町太田１４７９番地４,,09,203,3231108,,,2022-09-12,清算の結了等,,,2015-10-05,1,,,,,オザワジュウキ,0
856,4060003003569,登記記録の閉鎖等,0,2022-09-16,2022-09-12,光龍合同会社,,合同会社,栃木県,栃木市,薗部町１丁目１３番３３号ステートピアＡ２０１,,09,203,3280074,,,2022-09-12,清算の結了等,,,2021-01-12,1,,,,,コウリュウ,0
867,4110001017929,登記記録の閉鎖等,0,2022-09-16,2022-09-13,株式会社越後みずほ農園,,株式会社,新潟県,柏崎市,大字下方４５９番地,,15,205,9451104,,,2022-09-13,清算の結了等,,,2015-10-05,1,,,,,エチゴミズホノウエン,0
890,4140001007638,登記記録の閉鎖等,0,2022-09-16,2022-09-12,株式会社国際ツーリストビューロー,,株式会社,兵庫県,神戸市中央区,下山手通６丁目１番４号,,28,110,6500011,,,2022-09-12,清算の結了等,,,2015-10-05,1,,,,,,0
895,4140003002843,登記記録の閉鎖等,0,2022-09-16,2022-09-08,合資会社兵庫森永商店,,合資会社,兵庫県,神戸市兵庫区,七宮町１丁目５番５号,,28,105,6520831,,,2022-09-08,清算の結了等,,,2015-10-05,1,,,,,ヒョウゴモリナガショウテン,0
909,4180301034923,登記記録の閉鎖等,0,2022-09-16,2022-09-06,株式会社ケースタッフ,,株式会社,愛知県,みよし市,打越町新池浦１１２番地６,,23,236,4700213,,,2022-09-06,清算の結了等,,,2021-05-12,1,,,,,ケースタッフ,0
913,4200002011211,登記記録の閉鎖等,0,2022-09-16,2022-09-15,有限会社マルヨシ商店,,有限会社,岐阜県,羽島市,桑原町八神２０４７番地,,21,209,5016321,,,2022-09-15,清算の結了等,,,2015-10-05,1,,,,,マルヨシショウテン,0
923,4240001049868,登記記録の閉鎖等,0,2022-09-16,2022-09-13,株式会社ＫＴＫ　ＨＯＭＥ,,株式会社,広島県,福山市,芦田町大字福田９３９番地９,,34,207,7201264,,,2022-09-13,清算の結了等,,,2016-09-01,1,,,,,ケイティケイホウム,0
930,4250002014143,登記記録の閉鎖等,0,2022-09-16,2022-09-07,山陰産業有限会社,,有限会社,山口県,長門市,西深川７３３番地の１,,35,211,7594102,,,2022-09-07,清算の結了等,,,2021-01-18,1,,,,,,0
944,4290801010289,登記記録の閉鎖等,0,2022-09-16,2022-09-15,株式会社千代田,,株式会社,福岡県,北九州市八幡西区,浅川学園台３丁目２４番４号,,40,109,8070871,,,2022-09-15,清算の結了等,,,2015-10-05,1,,,,,,0
949,4310002002760,登記記録の閉鎖等,0,2022-09-16,2022-09-15,有限会社創栄住設,,有限会社,長崎県,長崎市,平山台２丁目５番１９号,,42,201,8500996,,,2022-09-15,清算の結了等,,,2015-10-05,1,,,,,ソウエイジュウセツ,0
956,4330003008301,登記記録の閉鎖等,0,2022-09-16,2022-09-09,Ｃａｌｆｓ合同会社,,合同会社,熊本県,熊本市西区,春日４丁目２０番地１０号,,43,103,8600047,,,2022-09-09,清算の結了等,,,2020-03-04,1,,,,,カーフス,0
972,4410005003052,登記記録の閉鎖等,0,2022-09-16,2022-09-13,農事組合法人畑沢農事組合,,その他の設立登記法人,秋田県,大館市,比内町八木橋字畑沢岱５９番地の２,,05,204,0185744,,,2022-09-13,清算の結了等,,,2015-10-05,1,,,,,ハタケサワノウジクミアイ,0
975,4430001034818,登記記録の閉鎖等,0,2022-09-16,2022-09-05,株式会社ジェイス,,株式会社,東京都,渋谷区,渋谷２丁目３番８号,,13,113,1500002,,,2022-09-05,清算の結了等,,,2015-10-05,1,,,,,ジェイス,0
1022,5011001122819,登記記録の閉鎖等,0,2022-09-16,2022-09-05,Ｄｉｒｅｃｔｉｏｎ＆Ｃｉｒｃｌｅ株式会社,,株式会社,東京都,渋谷区,南平台町１６番１７号,,13,113,1500036,,,2022-09-05,清算の結了等,,,2018-06-20,1,,,,,ディレクションアンドサークル,0
1056,5020002065893,登記記録の閉鎖等,0,2022-09-16,2022-09-12,横浜南菱貿易有限会社,,有限会社,神奈川県,横浜市青葉区,あざみ野４丁目３７番地９グリーンストリーム２０６号,,14,117,2250011,,,2022-09-12,清算の結了等,,,2015-10-05,1,,,,,ヨコハマナンリョウボウエキ,0
1061,5021001036308,登記記録の閉鎖等,0,2022-09-16,2022-09-14,株式会社神奈川中宣,,株式会社,神奈川県,平塚市,松風町２９番１１号,,14,203,2540812,,,2022-09-14,清算の結了等,,,2015-10-05,1,,,,,カナガワチュウセン,0
1091,5050001037998,登記記録の閉鎖等,0,2022-09-16,2022-09-12,株式会社タビーナ,,株式会社,茨城県,取手市,取手３丁目２番３７－１５０５号,,08,217,3020004,,,2022-09-12,清算の結了等,,,2015-10-05,1,,,,,タビーナ,0
1105,5080002012411,登記記録の閉鎖等,0,2022-09-16,2022-09-13,有限会社とまと,,有限会社,静岡県,静岡市葵区,音羽町４番５号,,22,101,4200834,,,2022-09-13,合併による解散等,7080001001306,令和４年９月１２日静岡市葵区上土二丁目１７番１２号株式会社クリアメディカル（7080001001306）に合併し解散,2015-10-05,1,,,,,トマト,0
1107,5080401010651,登記記録の閉鎖等,0,2022-09-16,2022-09-15,ダイワ機工株式会社,,株式会社,静岡県,浜松市北区,引佐町金指１５８０番地の２９,,22,135,4312213,,,2022-09-15,清算の結了等,,,2015-10-05,1,,,,,ダイワキコウ,0
1110,5100001022227,登記記録の閉鎖等,0,2022-09-16,2022-09-12,伊那開発株式会社,,株式会社,長野県,飯田市,久米６５２番地３,,20,205,3950241,,,2022-09-12,清算の結了等,,,2015-10-05,1,,,,,イナカイハツ,0
1114,5100002027984,登記記録の閉鎖等,0,2022-09-16,2022-09-13,有限会社金源金子海苔店,,有限会社,長野県,諏訪市,大字中洲２７６８番地,,20,206,3920015,,,2022-09-13,清算の結了等,,,2015-10-05,1,,,,,カネゲンカネコノリテン,0
1115,5110001013992,登記記録の閉鎖等,0,2022-09-16,2022-09-12,株式会社兼重,,株式会社,新潟県,三条市,柳川新田８８８番地２,,15,204,9550002,,,2022-09-12,清算の結了等,,,2015-10-05,1,,,,,,0
1119,5120001129573,登記記録の閉鎖等,0,2022-09-16,2022-09-12,株式会社マリブ,,株式会社,大阪府,大阪市北区,大淀南１丁目９番１９号エンパイアービル５０１号室,,27,127,5310075,,,2022-09-12,清算の結了等,,,2015-10-05,1,,,,,,0
1130,5120002027751,登記記録の閉鎖等,0,2022-09-16,2022-09-12,有限会社東洋冷機,,有限会社,大阪府,大阪市淀川区,新北野３丁目５番２０号,,27,123,5320025,,,2022-09-12,清算の結了等,,,2015-10-05,1,,,,,トウヨウレイキ,0
1134,5120005004285,登記記録の閉鎖等,0,2022-09-16,2022-09-13,ドーチカ商店街振興組合,,その他の設立登記法人,大阪府,大阪市北区,曾根崎新地１丁目３番１６号,,27,127,5300002,,,2022-09-13,清算の結了等,,,2015-10-05,1,,,,,ドーチカショウテンガイ,0
1135,5120005011331,登記記録の閉鎖等,0,2022-09-16,2022-09-13,特許業務法人新大阪国際特許事務所,,その他の設立登記法人,大阪府,大阪市淀川区,宮原５丁目１番３号,,27,123,5320003,,,2022-09-13,清算の結了等,,,2015-10-05,1,,,,,シンオオサカコクサイトッキョジムショ,0
1141,5120901020518,登記記録の閉鎖等,0,2022-09-16,2022-09-14,株式会社三神商会,,株式会社,大阪府,箕面市,今宮３丁目１０番１０号,,27,220,5620033,,,2022-09-14,清算の結了等,,,2015-10-05,1,,,,,サンシンショウカイ,0
1165,5190001027977,登記記録の閉鎖等,0,2022-09-16,2022-09-14,株式会社ＡＧｉＴＯ　ＰＲＯＭＯＴＩＯＮ,,株式会社,三重県,四日市市,南小松町３７３番地２,,24,202,5100971,,,2022-09-14,清算の結了等,,,2021-01-27,1,,,,,アギトプロモーション,0
1176,5240002001091,登記記録の閉鎖等,0,2022-09-16,2022-09-13,有限会社池紀,,有限会社,広島県,広島市南区,仁保４丁目１９番２号,,34,103,7340026,,,2022-09-13,清算の結了等,,,2015-10-05,1,,,,,イケノリ,0
1195,5290002048756,登記記録の閉鎖等,0,2022-09-16,2022-09-07,協同印刷有限会社,,有限会社,福岡県,久留米市,梅満町１７１６番地,,40,203,8300048,,,2022-09-07,合併による解散等,8290001017866,令和４年９月７日福岡県嘉麻市上山田２１１番地５１株式会社大野紙器（8290001017866）に合併し解散,2015-10-05,1,,,,,キョウドウインサツ,0
1213,5340005003216,登記記録の閉鎖等,0,2022-09-16,2022-09-14,特定非営利活動法人鹿児島ボランティアバンク,,その他の設立登記法人,鹿児島県,鹿児島市,新屋敷町１６番公社ビル３２４,,46,201,8920838,,,2022-09-14,清算の結了等,,,2015-10-05,1,,,,,,0
1214,5340005006350,登記記録の閉鎖等,0,2022-09-16,2022-09-14,特定非営利活動法人ＮＰＯエキスパートバンク,,その他の設立登記法人,鹿児島県,鹿児島市,東千石町５番６号１Ｆ,,46,201,8920842,,,2022-09-14,清算の結了等,,,2015-10-05,1,,,,,,0
1225,5370001019485,登記記録の閉鎖等,0,2022-09-16,2022-09-08,株式会社セイスグループ,,株式会社,宮城県,仙台市泉区,八乙女中央３丁目１０番８－１０１号,,04,105,9813135,,,2022-09-08,清算の結了等,,,2015-10-05,1,,,,,セイスグループ,0
1236,5390002001127,登記記録の閉鎖等,0,2022-09-16,2022-09-12,有限会社佐藤無線,,有限会社,山形県,山形市,寿町１３番２号,,06,201,9902414,,,2022-09-12,清算の結了等,,,2015-10-05,1,,,,,サトウムセン,0
1239,5420002002609,登記記録の閉鎖等,0,2022-09-16,2022-09-09,有限会社北斗,,有限会社,青森県,青森市,千刈１丁目１５番１９号,,02,201,0380015,,,2022-09-09,清算の結了等,,,2015-10-05,1,,,,,ホクト,0
1245,5430002061942,登記記録の閉鎖等,0,2022-09-16,2022-09-06,有限会社山際セントラルスタッド,,有限会社,北海道,日高郡新ひだか町,三石旭町９１番地,,01,610,0593107,,,2022-09-06,清算の結了等,,,2015-10-05,1,,,,,,0
1249,5450002011788,登記記録の閉鎖等,0,2022-09-16,2022-09-14,北日本商事有限会社,,有限会社,北海道,留萌市,南町３丁目４２番地の１,,01,212,0770014,,,2022-09-14,清算の結了等,,,2015-10-05,1,,,,,キタニホンショウジ,0
1255,5490001005515,登記記録の閉鎖等,0,2022-09-16,2022-09-13,協和石油株式会社,,株式会社,高知県,高岡郡越知町,越知甲１８７４番地,,39,403,7811301,,,2022-09-13,清算の結了等,,,2015-10-05,1,,,,,キョウワセキュウ,0
1267,6010005031174,登記記録の閉鎖等,0,2022-09-16,2022-09-01,ＫＩＣ越谷特定目的会社,,その他の設立登記法人,東京都,港区,南青山４丁目２１番２６号リュエル青山Ｃ棟Ｂ１細谷総合会計事務所内,,13,103,1070062,,,2022-09-01,清算の結了等,,,2019-12-09,1,,,,,ケーアイシーコシガヤ,0
1286,6010801027821,登記記録の閉鎖等,0,2022-09-16,2022-09-13,株式会社Ｇｅｏｍｅｒｌｉｎ　Ｓｙｓｔｅｍｓ,,株式会社,東京都,大田区,北馬込１丁目５番６号,,13,111,1430021,,,2022-09-13,清算の結了等,,,2017-05-31,1,,,,,ジオマーリンシステムズ,0
1291,6011001119228,登記記録の閉鎖等,0,2022-09-16,2022-09-01,ＦＧ　Ｉｎｔｅｒｎａｔｉｏｎａｌ株式会社,,株式会社,東京都,港区,北青山３丁目５番１４号６階,,13,103,1070061,,,2022-09-01,清算の結了等,,,2017-11-15,1,,,,,エフジーインターナショナル,0
1318,6012402002162,登記記録の閉鎖等,0,2022-09-16,2022-09-14,有限会社番場屋,,有限会社,東京都,府中市,宮西町４丁目２０番地の６,,13,206,1830022,,,2022-09-14,清算の結了等,,,2015-10-05,1,,,,,バンバヤ,0
1332,6020002030616,登記記録の閉鎖等,0,2022-09-16,2022-09-12,有限会社高橋建築設計事務所,,有限会社,神奈川県,横浜市南区,大橋町１丁目１４番地,,14,105,2320054,,,2022-09-12,清算の結了等,,,2015-10-05,1,,,,,タカハシケンチクセッケイジムショ,0
1348,6030001018289,登記記録の閉鎖等,0,2022-09-16,2022-09-06,依田工業株式会社,,株式会社,埼玉県,さいたま市岩槻区,大字釣上４４２番地,,11,110,3390024,,,2022-09-06,清算の結了等,,,2015-10-05,1,,,,,ヨダコウギョウ,0
1365,6030002028106,登記記録の閉鎖等,0,2022-09-16,2022-09-05,有限会社阿部ブロック建設工業,,有限会社,埼玉県,所沢市,三ケ島１丁目１４０番地の３,,11,208,3591164,,,2022-09-05,清算の結了等,,,2015-10-05,1,,,,,アベブロックケンセツコウギョウ,0
1367,6030002069496,登記記録の閉鎖等,0,2022-09-16,2022-09-02,有限会社ヤナイ部品,,有限会社,埼玉県,春日部市,豊町５丁目９番地５,,11,214,3440066,,,2022-09-02,清算の結了等,,,2015-10-05,1,,,,,ヤナイブヒン,0
1374,6040001065801,登記記録の閉鎖等,0,2022-09-16,2022-09-09,株式会社白鳥会館,,株式会社,千葉県,柏市,柏３丁目６番１３号,,12,217,2770005,,,2022-09-09,清算の結了等,,,2015-10-05,1,,,,,ハクチョウカイカン,0
1384,6070002028894,登記記録の閉鎖等,0,2022-09-16,2022-09-09,有限会社旭日,,有限会社,群馬県,太田市,鳥山町８９５番地の７,,10,205,3730053,,,2022-09-09,清算の結了等,,,2015-10-05,1,,,,,アサヒ,0
1385,6080101018952,登記記録の閉鎖等,0,2022-09-16,2022-09-13,株式会社共同作業,,株式会社,神奈川県,大和市,中央６丁目２番２５号Ｃ１０１号,,14,213,2420021,,,2022-09-13,清算の結了等,,,2016-03-09,1,,,,,キョウドウサギョウ,0
1387,6080402019419,登記記録の閉鎖等,0,2022-09-16,2022-09-14,有限会社榎本電気工業社,,有限会社,静岡県,磐田市,中泉１丁目８番地１４,,22,211,4380078,,,2022-09-14,清算の結了等,,,2015-10-05,1,,,,,エノモトデンキコウギョウシャ,0
1395,6110002003100,登記記録の閉鎖等,0,2022-09-16,2022-09-12,有限会社システムピーアンドデー,,有限会社,新潟県,新潟市東区,牡丹山６丁目１１番１２号,,15,102,9500872,,,2022-09-12,清算の結了等,,,2015-10-05,1,,,,,システムピーアンドデー,0
1406,6120002029747,登記記録の閉鎖等,0,2022-09-16,2022-09-12,有限会社大石屋,,有限会社,大阪府,大阪市北区,曾根崎新地１丁目８番３号遅ビル,,27,127,5300002,,,2022-09-12,清算の結了等,,,2015-10-05,1,,,,,オオイシヤ,0
1423,6140001065543,登記記録の閉鎖等,0,2022-09-16,2022-09-12,セルテック株式会社,,株式会社,兵庫県,姫路市,南条５７８－２,,28,201,6700952,,,2022-09-12,清算の結了等,,,2015-10-05,1,,,,,セルテック,0
1437,6210002003156,登記記録の閉鎖等,0,2022-09-16,2022-09-12,有限会社シェフ・ゼフィール,,有限会社,福井県,福井市,経田１丁目２０２番地の１,,18,201,9100011,,,2022-09-12,清算の結了等,,,2015-10-05,1,,,,,シェフゼフィール,0
1440,6230001014499,登記記録の閉鎖等,0,2022-09-16,2022-09-13,株式会社フィットピエナ,,株式会社,富山県,富山市,明輪町１番２４２－１００８号,,16,201,9300001,,,2022-09-13,清算の結了等,,,2015-10-05,1,,,,,フィットピエナ,0
1453,6360001022984,登記記録の閉鎖等,0,2022-09-16,2022-09-01,ＭＯＮＰＡ２株式会社,,株式会社,沖縄県,中頭郡北谷町,字美浜８番地１２,,47,326,9040115,,,2022-09-01,合併による解散等,1360001022964,令和４年９月１日沖縄県中頭郡北谷町字美浜８番地１２ＭＯＮＰＡホールディングス株式会社（1360001022964）に合併し解散,2017-10-06,1,,,,,モンパツー,0
1464,6390002015233,登記記録の閉鎖等,0,2022-09-16,2022-09-12,有限会社伊藤産業,,有限会社,山形県,西置賜郡飯豊町,大字高峰４５番地,,06,403,9991112,,,2022-09-12,清算の結了等,,,2015-10-05,1,,,,,イトウサンギョウ,0
1492,7010403011165,登記記録の閉鎖等,0,2022-09-16,2022-09-09,合同会社プロスペクト成田神崎,,合同会社,東京都,千代田区,内神田２丁目２番６号５階あすな会計事務所内,,13,101,1010047,,,2022-09-09,清算の結了等,,,2015-10-05,1,,,,,プロスペクトナリタコウザキ,0
1512,7011001120060,登記記録の閉鎖等,0,2022-09-16,2022-09-01,株式会社ｕｌｕｌａ,,株式会社,東京都,港区,麻布十番１丁目２番７号ラフィネ麻布十番７０１号室,,13,103,1060045,,,2022-09-01,合併による解散等,9010001176631,令和４年８月３１日東京都港区元赤坂一丁目７番１５号ＵＮＩｅｓ株式会社ＵＮＩｅｓ（9010001176631）に合併し解散,2018-01-11,1,,,,,ウルラ,0
1517,7011501001611,登記記録の閉鎖等,0,2022-09-16,2022-09-13,こめ不動産株式会社,,株式会社,東京都,北区,王子１丁目１７番１号,,13,117,1140002,,,2022-09-13,清算の結了等,,,2015-10-05,1,,,,,コメフドウサン,0
1518,7011503003449,登記記録の閉鎖等,0,2022-09-16,2022-09-12,青い風芸能事務所合同会社,,合同会社,東京都,北区,西ケ原１丁目６番９号,,13,117,1140024,,,2022-09-12,清算の結了等,,,2017-11-21,1,,,,,アオイカゼゲイノウジムショ,0
1519,7011603002689,登記記録の閉鎖等,0,2022-09-16,2022-09-14,合同会社白山,,合同会社,東京都,練馬区,練馬４丁目３１－１７,,13,120,1760001,,,2022-09-14,清算の結了等,,,2019-07-23,1,,,,,ハクサン,0
1525,7012802002158,登記記録の閉鎖等,0,2022-09-16,2022-09-08,有限会社まさや,,有限会社,東京都,立川市,錦町１丁目１１番９号,,13,202,1900022,,,2022-09-08,清算の結了等,,,2015-10-05,1,,,,,マサヤ,0
1528,7013201000232,登記記録の閉鎖等,0,2022-09-16,2022-09-05,株式会社飛鳥ゴルフ,,株式会社,東京都,目黒区,下目黒２丁目８番２号,,13,110,1530064,,,2022-09-05,清算の結了等,,,2015-10-05,1,,,,,アスカゴルフ,0
1539,7020002047816,登記記録の閉鎖等,0,2022-09-16,2022-09-12,有限会社ケイ・エム・シー,,有限会社,神奈川県,横浜市青葉区,大場町１５６番地６８,,14,117,2250023,,,2022-09-12,清算の結了等,,,2015-10-05,1,,,,,ケイエムシー,0
1553,7030001068192,登記記録の閉鎖等,0,2022-09-16,2022-09-12,株式会社サン,,株式会社,千葉県,野田市,木間ケ瀬４６４６番地２,,12,208,2700222,,,2022-09-12,清算の結了等,,,2015-10-05,1,,,,,サン,0
1554,7030001079859,登記記録の閉鎖等,0,2022-09-16,2022-09-13,株式会社Ｋ・Ｉドリーム,,株式会社,東京都,豊島区,池袋２丁目３１－１６,,13,116,1710014,,,2022-09-13,清算の結了等,,,2015-10-05,1,,,,,ケイアイドリーム,0
1555,7030001092944,登記記録の閉鎖等,0,2022-09-16,2022-09-02,株式会社しんしん丸,,株式会社,埼玉県,さいたま市南区,南浦和２丁目１８番５号,,11,108,3360017,,,2022-09-02,合併による解散等,6030001001831,令和４年９月１日埼玉県さいたま市南区南浦和二丁目１８番５号株式会社かんなん丸（6030001001831）に合併し解散,2015-10-05,1,,,,,シンシンマル,0
1573,7040001071658,登記記録の閉鎖等,0,2022-09-16,2022-09-08,株式会社セイワ建設,,株式会社,千葉県,野田市,関宿台町８８７番地２,,12,208,2700202,,,2022-09-08,清算の結了等,,,2015-10-05,1,,,,,,0
1589,7070002012261,登記記録の閉鎖等,0,2022-09-16,2022-09-09,有限会社三輪屋,,有限会社,群馬県,高崎市,寄合町２５番地,,10,202,3700822,,,2022-09-09,清算の結了等,,,2015-10-05,1,,,,,ミツワヤ,0
1592,7080101020412,登記記録の閉鎖等,0,2022-09-16,2022-09-15,静岡マジック株式会社,,株式会社,静岡県,静岡市葵区,常磐町１丁目５－４パレスビル４Ｆ,,22,101,4200034,,,2022-09-15,清算の結了等,,,2018-04-11,1,,,,,シズオカマジック,0
1596,7100001006145,登記記録の閉鎖等,0,2022-09-16,2022-09-13,株式会社コアビルメンテナンス,,株式会社,長野県,千曲市,大字八幡３６９０番地の２,,20,218,3870023,,,2022-09-13,清算の結了等,,,2015-10-05,1,,,,,コアビルメンテナンス,0
1624,7140002064056,登記記録の閉鎖等,0,2022-09-16,2022-09-12,丸森鉄筋有限会社,,有限会社,兵庫県,伊丹市,山田５丁目１６番１６号,,28,207,6640874,,,2022-09-12,清算の結了等,,,2015-10-05,1,,,,,マルモリテッキン,0
1638,7180301016019,登記記録の閉鎖等,0,2022-09-16,2022-09-12,株式会社イノアックミクセル,,株式会社,愛知県,安城市,今池町３丁目１番３６号,,23,212,4460071,,,2022-09-12,合併による解散等,9180001029475,令和４年９月１日名古屋市中村区名駅南二丁目１３番４号株式会社イノアックコーポレーション（9180001029475）に合併し解散,2015-10-05,1,,,,,イノアックミクセル,0
1639,7190001015311,登記記録の閉鎖等,0,2022-09-16,2022-09-06,株式会社セラミカ榮,,株式会社,三重県,四日市市,野田１丁目２番１２号,,24,202,5100815,,,2022-09-06,合併による解散等,6190001018546,令和４年９月１日三重県四日市市野田一丁目２番１２号株式会社ア・ラ・カルト（6190001018546）に合併し解散,2015-10-05,1,,,,,セラミカサカエ,0
1641,7230001014432,登記記録の閉鎖等,0,2022-09-16,2022-09-13,ｆａｃｅ－ｔｏ－ｆａｃｅ株式会社,,株式会社,富山県,富山市,東岩瀬村２５番地,,16,201,9318359,,,2022-09-13,清算の結了等,,,2015-10-05,1,,,,,,0
1658,7290001046494,登記記録の閉鎖等,0,2022-09-16,2022-09-07,株式会社ホーマ,,株式会社,福岡県,飯塚市,忠隈５３８番地３,,40,205,8200071,,,2022-09-07,清算の結了等,,,2015-10-05,1,,,,,ホーマ,0
1667,7290801025417,登記記録の閉鎖等,0,2022-09-16,2022-09-14,ＦＵＮ　ＬＡＮＤ株式会社,,株式会社,東京都,練馬区,平和台１丁目３６番１６号,,13,120,1790083,,,2022-09-14,清算の結了等,,,2019-04-09,1,,,,,ファンランド,0
1670,7290802021729,登記記録の閉鎖等,0,2022-09-16,2022-09-14,有限会社池尾農場,,有限会社,福岡県,豊前市,大字荒堀３７番地の９,,40,214,8280061,,,2022-09-14,清算の結了等,,,2015-10-05,1,,,,,イケオノウジョウ,0
1686,7360001011879,登記記録の閉鎖等,0,2022-09-16,2022-09-08,株式会社サン・ハーブス,,株式会社,沖縄県,那覇市,字国場１１９１番地５,,47,201,9020075,,,2022-09-08,清算の結了等,,,2015-10-05,1,,,,,,0
1688,7370002012850,登記記録の閉鎖等,0,2022-09-16,2022-09-08,有限会社ハピーカメラ,,有限会社,宮城県,仙台市青葉区,荒巻中央１６番１号,,04,101,9810964,,,2022-09-08,清算の結了等,,,2015-10-05,1,,,,,ハピーカメラ,0
1691,7380001024747,登記記録の閉鎖等,0,2022-09-16,2022-09-13,日精テクノ株式会社,,株式会社,福島県,郡山市,八山田５丁目７４番地,,07,203,9638052,,,2022-09-13,合併による解散等,3430001012659,令和４年９月１日札幌市中央区北二条東十一丁目２３番地日精機工株式会社（3430001012659）に合併し解散,2015-10-05,1,,,,,ニッセイテクノ,0
1694,7390002010282,登記記録の閉鎖等,0,2022-09-16,2022-09-12,有限会社成吉建設,,有限会社,山形県,東田川郡三川町,大字成田新田甲２１９番地内１号,,06,426,9971317,,,2022-09-12,清算の結了等,,,2015-10-05,1,,,,,ナリヨシケンセツ,0
1700,7430001012416,登記記録の閉鎖等,0,2022-09-16,2022-09-08,西川建具製作所株式会社,,株式会社,北海道,札幌市北区,篠路一条８丁目１番１３号,,01,102,0028021,,,2022-09-08,清算の結了等,,,2015-10-05,1,,,,,ニシカワタテグセイサクショ,0
1714,7500002002879,登記記録の閉鎖等,0,2022-09-16,2022-09-15,有限会社西條工業所,,有限会社,愛媛県,松山市,桜ケ丘７番２１号,,38,201,7918072,,,2022-09-15,清算の結了等,,,2015-10-05,1,,,,,サイジョウコウギョウショ,0
1717,7500005005961,登記記録の閉鎖等,0,2022-09-16,2022-09-14,四国中央カード事業協同組合,,その他の設立登記法人,愛媛県,四国中央市,金生町下分８６５番地,,38,213,7990111,,,2022-09-14,清算の結了等,,,2015-10-05,1,,,,,シコクチュウオウカード,0
1723,8010001201794,登記記録の閉鎖等,0,2022-09-16,2022-09-14,株式会社レンブラント・パートナーズ,,株式会社,神奈川県,厚木市,中町２丁目１３番１号,,14,212,2430018,,,2022-09-14,清算の結了等,,,2019-06-18,1,,,,,レンブラントパートナーズ,0
1742,8010601058016,登記記録の閉鎖等,0,2022-09-16,2022-09-13,ブリッジズ株式会社,,株式会社,東京都,江東区,青海２丁目７番４号ｔｈｅＳＯＨＯ１３１０,,13,108,1350064,,,2022-09-13,清算の結了等,,,2020-09-23,1,,,,,ブリッジズ,0
1753,8011001108344,登記記録の閉鎖等,0,2022-09-16,2022-09-12,株式会社ふらりーと,,株式会社,東京都,品川区,大崎１丁目１１番２号,,13,109,1410032,,,2022-09-12,清算の結了等,,,2015-11-24,1,,,,,フラリート,0
1761,8011101036668,登記記録の閉鎖等,0,2022-09-16,2022-09-14,株式会社ロージング,,株式会社,東京都,新宿区,市谷左内町２８番３号,,13,104,1620846,,,2022-09-14,清算の結了等,,,2015-10-05,1,,,,,ロージング,0
1772,8011401017236,登記記録の閉鎖等,0,2022-09-16,2022-09-06,大洲株式会社,,株式会社,埼玉県,蕨市,錦町１丁目６番５号サンピア中野１階Ｂ号室,,11,223,3350005,,,2022-09-06,清算の結了等,,,2015-10-05,1,,,,,タイシュウ,0
1788,8012702007347,登記記録の閉鎖等,0,2022-09-16,2022-09-07,有限会社マル周,,有限会社,東京都,東久留米市,中央町６丁目２番５号,,13,222,2030054,,,2022-09-07,清算の結了等,,,2015-10-05,1,,,,,マルシュウ,0
1791,8013201000041,登記記録の閉鎖等,0,2022-09-16,2022-09-05,株式会社今岡建築設計事務所,,株式会社,東京都,目黒区,緑が丘２丁目４番８号,,13,110,1520034,,,2022-09-05,清算の結了等,,,2015-10-05,1,,,,,イマオカケンチクセッケイジムショ,0
1800,8021001006266,登記記録の閉鎖等,0,2022-09-16,2022-09-14,小野寺建設株式会社,,株式会社,神奈川県,高座郡寒川町,倉見１３７０番地,,14,321,2530101,,,2022-09-14,清算の結了等,,,2015-10-05,1,,,,,オノデラケンセツ,0
1815,8030001137013,登記記録の閉鎖等,0,2022-09-16,2022-09-02,ＳＥＡＷＡＶＥＳＵＭＭ株式会社,,株式会社,埼玉県,越谷市,赤山町３丁目８４番地２３,,11,222,3430807,,,2022-09-02,清算の結了等,,,2020-06-26,1,,,,,シーウェイブサム,0
1818,8030002039398,登記記録の閉鎖等,0,2022-09-16,2022-09-12,有限会社寿老会,,有限会社,埼玉県,南埼玉郡宮代町,大字須賀１３００番地,,11,442,3450831,,,2022-09-12,合併による解散等,5010001129270,令和４年９月１日東京都中央区八重洲一丁目４番１６号グリーンライフ東日本株式会社（5010001129270）に合併し解散,2015-10-05,1,,,,,ジュロウカイ,0
1819,8030002047855,登記記録の閉鎖等,0,2022-09-16,2022-09-06,有限会社マッシーズ,,有限会社,埼玉県,八潮市,大字大曽根８７９番地４,,11,234,3400834,,,2022-09-06,清算の結了等,,,2015-10-05,1,,,,,マッシーズ,0
1822,8040001110621,登記記録の閉鎖等,0,2022-09-16,2022-09-09,株式会社森商事,,株式会社,千葉県,市川市,南行徳４丁目６番１３号,,12,203,2720138,,,2022-09-09,清算の結了等,,,2019-09-06,1,,,,,モリショウジ,0
1824,8040002051559,登記記録の閉鎖等,0,2022-09-16,2022-09-07,有限会社三幸工業,,有限会社,千葉県,流山市,東初石４丁目２０２番地の２,,12,220,2700114,,,2022-09-07,清算の結了等,,,2015-10-05,1,,,,,サンコウコウギョウ,0
1833,8060002007393,登記記録の閉鎖等,0,2022-09-16,2022-09-12,有限会社ハヤトオーエイシステム,,有限会社,栃木県,宇都宮市,幸町１３番１２号,,09,201,3200848,,,2022-09-12,清算の結了等,,,2015-10-05,1,,,,,,0
1880,8160001006915,登記記録の閉鎖等,0,2022-09-16,2022-09-14,ネクステージ株式会社,,株式会社,滋賀県,長浜市,平方町６６８番地,,25,203,5260033,,,2022-09-14,清算の結了等,,,2015-10-05,1,,,,,ネクステージ,0
1883,8170002003547,登記記録の閉鎖等,0,2022-09-16,2022-09-15,有限会社マルカ商店,,有限会社,和歌山県,和歌山市,北相生丁２３番地,,30,201,6408253,,,2022-09-15,清算の結了等,,,2015-10-05,1,,,,,マルカショウテン,0
1886,8180001129359,登記記録の閉鎖等,0,2022-09-16,2022-09-14,株式会社翔佳,,株式会社,愛知県,名古屋市千種区,今池５丁目２８番１０号（第１７オーシャンビル７０１号）,,23,101,4640850,,,2022-09-14,清算の結了等,,,2017-09-08,1,,,,,ショウカ,0
1891,8180302020225,登記記録の閉鎖等,0,2022-09-16,2022-09-06,有限会社碧南計算センター,,有限会社,愛知県,碧南市,相生町４丁目３番地,,23,209,4470862,,,2022-09-06,清算の結了等,,,2015-10-05,1,,,,,ヘキナンケイサンセンター,0
1901,8230001010273,登記記録の閉鎖等,0,2022-09-16,2022-09-13,株式会社創計画研究所,,株式会社,富山県,高岡市,野村１３７３番地の４,,16,202,9330014,,,2022-09-13,清算の結了等,,,2015-10-05,1,,,,,ソウケイカクケンキュウショ,0
1903,8240001047513,登記記録の閉鎖等,0,2022-09-16,2022-09-13,株式会社博多焼とり天羽,,株式会社,広島県,広島市西区,中広町１丁目７番１０－２０１号,,34,104,7330012,,,2022-09-13,清算の結了等,,,2015-10-05,1,,,,,ハカタヤキトリテンバ,0
1911,8290002014094,登記記録の閉鎖等,0,2022-09-16,2022-09-09,有限会社イケダ,,有限会社,福岡県,福岡市博多区,美野島３丁目１２番１４－３０３号,,40,132,8120017,,,2022-09-09,清算の結了等,,,2015-10-05,1,,,,,イケダ,0
1913,8290005001882,登記記録の閉鎖等,0,2022-09-16,2022-09-16,医療法人森永外科医院,,その他の設立登記法人,福岡県,福岡市南区,長丘４丁目９番５号,,40,134,8150075,,,2022-09-16,清算の結了等,,,2015-10-05,1,,,,,モリナガゲカイイン,0
1928,8350002007100,登記記録の閉鎖等,0,2022-09-16,2022-09-12,有限会社サフラン薬局,,有限会社,宮崎県,東諸県郡国富町,大字本庄２０５５番地１３,,45,382,8801101,,,2022-09-12,清算の結了等,,,2015-10-05,1,,,,,サフランヤッキョク,0
1935,8380001027195,登記記録の閉鎖等,0,2022-09-16,2022-09-14,株式会社マルイチ,,株式会社,福島県,郡山市,開成４丁目４－１８開南マンション１０３号室,,07,203,9638851,,,2022-09-14,清算の結了等,,,2016-08-05,1,,,,,マルイチ,0
1938,8430001036983,登記記録の閉鎖等,0,2022-09-16,2022-09-08,株式会社北川組,,株式会社,北海道,札幌市南区,南三十九条西１１丁目１番１号,,01,106,0050039,,,2022-09-08,清算の結了等,,,2015-10-05,1,,,,,キタガワグミ,0
1939,8430001078563,登記記録の閉鎖等,0,2022-09-16,2022-09-07,株式会社ベテル・マネージメント,,株式会社,北海道,札幌市手稲区,明日風５丁目９番１０号２０２号室,,01,109,0060861,,,2022-09-07,清算の結了等,,,2019-03-20,1,,,,,ベテルマネージメント,0
1946,8430005011636,登記記録の閉鎖等,0,2022-09-16,2022-09-09,特定非営利活動法人グリーンマイスター,,その他の設立登記法人,北海道,苫小牧市,船見町１丁目５番１号,,01,213,0530007,,,2022-09-09,清算の結了等,,,2015-10-05,1,,,,,グリーンマイスター,0
1953,9010001121067,登記記録の閉鎖等,0,2022-09-16,2022-09-05,株式会社プロシード,,株式会社,東京都,中央区,銀座２丁目１２番８号,,13,102,1040061,,,2022-09-05,清算の結了等,,,2015-10-05,1,,,,,プロシード,0
1960,9010005025090,登記記録の閉鎖等,0,2022-09-16,2022-09-14,一般社団法人日本地域活性化推進機構,,その他の設立登記法人,東京都,中央区,日本橋２丁目２番２号マルヒロ日本橋ビル７階,,13,102,1030027,,,2022-09-14,清算の結了等,,,2016-03-14,1,,,,,ニホンチイキカッセイカスイシンキコウ,0
2008,9011701007299,登記記録の閉鎖等,0,2022-09-16,2022-09-13,増田産業株式会社,,株式会社,東京都,江戸川区,南小岩７丁目３６番１８号,,13,123,1330056,,,2022-09-13,清算の結了等,,,2015-10-05,1,,,,,マスダサンギョウ,0
2010,9012301005916,登記記録の閉鎖等,0,2022-09-16,2022-09-13,株式会社システムシェフ,,株式会社,東京都,町田市,南大谷７０５番地６ユニヴェルシオール学園の丘４１１,,13,209,1940031,,,2022-09-13,清算の結了等,,,2015-10-05,1,,,,,システムシェフ,0
2014,9012701011811,登記記録の閉鎖等,0,2022-09-16,2022-09-08,株式会社ヤマジエンタープライズ,,株式会社,東京都,東村山市,秋津町４丁目２３番地２２,,13,213,1890001,,,2022-09-08,清算の結了等,,,2015-10-05,1,,,,,,0
2050,9030002090268,登記記録の閉鎖等,0,2022-09-16,2022-09-02,有限会社水巧舎,,有限会社,埼玉県,吉川市,大字土場１９５番地６,,11,243,3420026,,,2022-09-02,清算の結了等,,,2015-10-05,1,,,,,スイコウシャ,0
2066,9050002010851,登記記録の閉鎖等,0,2022-09-16,2022-09-12,有限会社岬鉄工所,,有限会社,茨城県,那珂郡東海村,大字村松３１１５番地１５,,08,341,3191112,,,2022-09-12,清算の結了等,,,2015-10-05,1,,,,,ミサキテッコウショ,0
2070,9070003003217,登記記録の閉鎖等,0,2022-09-16,2022-09-08,合同会社アルファンセレクト,,合同会社,群馬県,高崎市,寺尾町２３７８番地２,,10,202,3700865,,,2022-09-08,清算の結了等,,,2018-07-26,1,,,,,,0
2091,9120001236498,登記記録の閉鎖等,0,2022-09-16,2022-09-12,キミトツナグテ株式会社,,株式会社,大阪府,大阪市北区,梅田１丁目１１番４号大阪駅前第４ビル９階９２３・１５６２号,,27,127,5300001,,,2022-09-12,清算の結了等,,,2021-04-07,1,,,,,,0
2107,9130001028325,登記記録の閉鎖等,0,2022-09-16,2022-09-08,株式会社アリテックス,,株式会社,京都府,京都市左京区,高野上竹屋町１０番地の１４,,26,103,6068105,,,2022-09-08,清算の結了等,,,2015-10-05,1,,,,,アリテックス,0
2113,9140001007600,登記記録の閉鎖等,0,2022-09-16,2022-09-12,株式会社興和設計工業,,株式会社,兵庫県,神戸市中央区,相生町４丁目７番１６号柴平南ビル,,28,110,6500025,,,2022-09-12,清算の結了等,,,2015-10-05,1,,,,,,0
2115,9140001043422,登記記録の閉鎖等,0,2022-09-16,2022-09-12,株式会社播州建機,,株式会社,兵庫県,加古川市,加古川町備後１０９番地の３,,28,210,6750032,,,2022-09-12,清算の結了等,,,2022-05-25,1,,,,,,0
2122,9140005021861,登記記録の閉鎖等,0,2022-09-16,2022-09-13,一般社団法人トータルハーモニィ,,その他の設立登記法人,兵庫県,豊岡市,塩津町１番１４号,,28,209,6680054,,,2022-09-13,清算の結了等,,,2015-10-05,1,,,,,トータルハーモニィ,0
2130,9180002056915,登記記録の閉鎖等,0,2022-09-16,2022-09-12,有限会社ヤマナカ化成,,有限会社,愛知県,名古屋市港区,当知３丁目４０１番地,,23,111,4550804,,,2022-09-12,清算の結了等,,,2015-10-05,1,,,,,ヤマナカカセイ,0
2138,9190005005109,登記記録の閉鎖等,0,2022-09-16,2022-09-12,農事組合法人グリーンメイト切原,,その他の設立登記法人,三重県,度会郡南伊勢町,伊勢路３７７１番地,,24,472,5160112,,,2022-09-12,清算の結了等,,,2015-10-05,1,,,,,グリーンメイトキリハラ,0
2161,9310002010222,登記記録の閉鎖等,0,2022-09-16,2022-09-09,有限会社沢村住設サービス,,有限会社,長崎県,佐世保市,野中町９６番地１２,,42,202,8570142,,,2022-09-09,清算の結了等,,,2015-10-05,1,,,,,サワムラジュウセツサービス,0
2163,9330001020451,登記記録の閉鎖等,0,2022-09-16,2022-09-09,株式会社前田工業,,株式会社,熊本県,宇城市,松橋町竹崎１５３３番地１,,43,213,8690523,,,2022-09-09,清算の結了等,,,2015-10-05,1,,,,,マエダコウギョウ,0
2166,9350002012842,登記記録の閉鎖等,0,2022-09-16,2022-09-12,有限会社陽光商事,,有限会社,宮崎県,延岡市,三ツ瀬町１丁目１１番地５,,45,203,8820842,,,2022-09-12,清算の結了等,,,2015-10-05,1,,,,,ヨウコウショウジ,0
2173,9370001020811,登記記録の閉鎖等,0,2022-09-16,2022-09-06,株式会社キョーセイ,,株式会社,宮城県,仙台市泉区,泉ケ丘１丁目１２番２８号,,04,105,9813201,,,2022-09-06,清算の結了等,,,2015-10-05,1,,,,,キョーセイ,0
2177,9380001032178,登記記録の閉鎖等,0,2022-09-16,2022-09-12,株式会社ミライプレシジョン,,株式会社,福島県,伊達郡川俣町,大字羽田字畝歩内６番地１,,07,308,9601408,,,2022-09-12,合併による解散等,4140001062427,令和４年９月１日兵庫県姫路市夢前町杉之内１７番地ヒメジ理化株式会社（4140001062427）に合併し解散,2021-09-06,1,,,,,ミライプレシジョン,0
2184,9390002002906,登記記録の閉鎖等,0,2022-09-16,2022-09-12,有限会社山忠商事,,有限会社,山形県,山形市,城西町５丁目１３番１２号,,06,201,9900832,,,2022-09-12,清算の結了等,,,2015-10-05,1,,,,,ヤマチュウショウジ,0
2190,9430002025043,登記記録の閉鎖等,0,2022-09-16,2022-09-06,有限会社マルカツ工藤工務店,,有限会社,北海道,札幌市北区,新琴似四条１２丁目５番２３号,,01,102,0010904,,,2022-09-06,清算の結了等,,,2015-10-05,1,,,,,マルカツクドウコウムテン,0
