sequenceNumber,corporateNumber,process,correct,updateDate,changeDate,name,nameImageId,kind,prefectureName,cityName,streetNumber,addressImageId,prefectureCode,cityCode,postCode,addressOutside,addressOutsideImageId,closeDate,closeCause,successorCorporateNumber,changeCause,assignmentDate,latest,enName,enPrefectureName,enCityName,enAddressOutside,furigana,hihyoji
9,1010001252183,新規,0,2025-02-14,2025-02-14,株式会社ＭＴＲ,,株式会社,東京都,中央区,日本橋箱崎町４１番４－１００２号,,13,102,1030015,,,,,,,2025-02-14,1,,,,,エムティーアール,0
10,1010001252217,新規,0,2025-02-14,2025-02-14,株式会社セフィーロ・ワン,,株式会社,東京都,文京区,大塚６丁目１０番１１号,,13,105,1120012,,,,,,,2025-02-14,1,,,,,セフィーロワン,0
11,1010001252233,新規,0,2025-02-14,2025-02-14,ＳＵＳＨＩ　ＭＡＳＡ　ＴＯＫＹＯ　ＴＯＹＯＳＵ株式会社,,株式会社,東京都,中央区,晴海２丁目２－４２パークタワー晴海１４０６号,,13,102,1040053,,,,,,,2025-02-14,1,,,,,スシマサトウキョウトヨス,0
14,1010003046360,新規,0,2025-02-14,2025-02-14,Ｌｉｃｈｅｎ合同会社,,合同会社,東京都,中央区,新川１丁目７番１号天翔日本橋茅場町ビル２階２０６号室,,13,102,1040033,,,,,,,2025-02-14,1,,,,,リチェン,0
15,1010003046393,新規,0,2025-02-14,2025-02-14,ＹＡＧＥＯ　Ｈｏｌｄｉｎｇ　Ｊａｐａｎ合同会社,,合同会社,東京都,千代田区,西神田３丁目８番１号,,13,101,1010065,,,,,,,2025-02-14,1,,,,,ヤゲオホールディングジャパン,0
16,1010101016521,新規,0,2025-02-14,2025-02-14,株式会社Ｃｏｎｎｅｃｔ＆Ｃｈａｐｅｒｏｎｅ,,株式会社,東京都,八王子市,七国４丁目１３番８号,,13,201,1920919,,,,,,,2025-02-14,1,,,,,コネクトアンドシャロペン,0
27,1010401188044,新規,0,2025-02-14,2025-02-14,Ｍ＆Ｉホールディングス株式会社,,株式会社,東京都,港区,三田１丁目１１番２２号ＳＳＴビル１階,,13,103,1080073,,,,,,,2025-02-14,1,,,,,エムアンドアイホールディングス,0
28,1010401188168,新規,0,2025-02-14,2025-02-14,株式会社ＥＮＧＮＥ,,株式会社,東京都,港区,北青山１丁目３番１号アールキューブ青山３階,,13,103,1070061,,,,,,,2025-02-14,1,,,,,エンジン,0
29,1010401188218,新規,0,2025-02-14,2025-02-14,株式会社キャストグローバルビジネス,,株式会社,東京都,港区,虎ノ門３丁目４番１０号,,13,103,1050001,,,,,,,2025-02-14,1,,,,,キャストグローバルビジネス,0
35,1010403034394,新規,0,2025-02-14,2025-02-14,ＥＳ太陽光さくら合同会社,,合同会社,東京都,港区,六本木６丁目１０番１号六本木ヒルズ森タワー１５ＦＣＩＲＣＬＥｂｙＡＮＲＩ内,,13,103,1060032,,,,,,,2025-02-14,1,,,,,イーエスタイヨウコウサクラ,0
36,1010405024088,新規,0,2025-02-14,2025-02-14,一般社団法人ＥＳ太陽光さくら,,その他の設立登記法人,東京都,港区,六本木６丁目１０番１号六本木ヒルズ森タワー１５ＦＣＩＲＣＬＥｂｙＡＮＲＩ内,,13,103,1060032,,,,,,,2025-02-14,1,,,,,イーエスタイヨウコウサクラ,0
38,1010501053627,新規,0,2025-02-14,2025-02-14,株式会社ナルト商事,,株式会社,東京都,台東区,浅草６丁目２４番５－１０２号,,13,106,1110032,,,,,,,2025-02-14,1,,,,,ナルトショウジ,0
40,1010701047247,新規,0,2025-02-14,2025-02-14,株式会社コムソリューション,,株式会社,東京都,品川区,大崎１丁目２番２号アートヴィレッジ大崎セントラルタワー９階,,13,109,1410032,,,,,,,2025-02-14,1,,,,,コムソリューション,0
49,1011001167710,新規,0,2025-02-14,2025-02-14,株式会社ｏｎｅｍｙ,,株式会社,東京都,渋谷区,恵比寿１丁目１３番６－６０２号,,13,113,1500013,,,,,,,2025-02-14,1,,,,,ワンミー,0
51,1011003020909,新規,0,2025-02-14,2025-02-14,合同会社ＣＡＮＣＨＡＮ　ＳＴＡＹＳ,,合同会社,東京都,目黒区,下目黒１丁目１番１４号コノトラビル７Ｆ,,13,110,1530064,,,,,,,2025-02-14,1,,,,,カンチャンステイズ,0
52,1011003020917,新規,0,2025-02-14,2025-02-14,合同会社ＫＭＹ‐ＰＬＵＳ　ＥＮＴＥＲＰＲＩＳＥ,,合同会社,東京都,目黒区,祐天寺２丁目４番１３号３階,,13,110,1530052,,,,,,,2025-02-14,1,,,,,ケイエムワイプラスエンタープライズ,0
53,1011003020925,新規,0,2025-02-14,2025-02-14,合同会社ＡＦＴＷ,,合同会社,東京都,渋谷区,恵比寿南２丁目２８番８号レジディア恵比寿南４０２,,13,113,1500022,,,,,,,2025-02-14,1,,,,,エーエフティーダブリュー,0
62,1011201026121,新規,0,2025-02-14,2025-02-14,ＳＤＳ株式会社,,株式会社,東京都,中野区,弥生町１丁目４番１４－１０２号,,13,114,1640013,,,,,,,2025-02-14,1,,,,,エスディエス,0
63,1011301030353,新規,0,2025-02-14,2025-02-14,株式会社寒河江造園,,株式会社,東京都,杉並区,善福寺１丁目３１番１１号,,13,115,1670041,,,,,,,2025-02-14,1,,,,,サガエゾウエン,0
67,1011505002677,新規,0,2025-02-14,2025-02-14,一般社団法人ＳＫＴＰ,,その他の設立登記法人,東京都,北区,上十条１丁目２番１４号,,13,117,1140034,,,,,,,2025-02-14,1,,,,,エスケイテイピー,0
72,1011803006685,新規,0,2025-02-14,2025-02-14,合同会社Ｒ,,合同会社,東京都,足立区,東和５丁目３番２３号エステートピアＫ２０１,,13,121,1200003,,,,,,,2025-02-14,1,,,,,アール,0
87,1020001161276,新規,0,2025-02-14,2025-02-14,ＫＡ企画株式会社,,株式会社,神奈川県,横浜市鶴見区,東寺尾３丁目１番３２号,,14,101,2300077,,,,,,,2025-02-14,1,,,,,ケイエイキカク,0
88,1020001161334,新規,0,2025-02-14,2025-02-14,株式会社ＹＳＫ,,株式会社,神奈川県,横浜市青葉区,奈良４丁目１番地１ルクサージュあおば山の手台Ｃ－７０２号,,14,117,2270038,,,,,,,2025-02-14,1,,,,,ワイエスケイ,0
89,1020001161350,新規,0,2025-02-14,2025-02-14,株式会社ＬＡＲＧＥＳＳＥ　ＰＩＯＮＥＥＲ,,株式会社,神奈川県,横浜市泉区,和泉町７７４４番地１,,14,116,2450016,,,,,,,2025-02-14,1,,,,,,0
90,1020001161433,新規,0,2025-02-14,2025-02-14,ＰＯＳ事業分割準備株式会社,,株式会社,神奈川県,川崎市高津区,北見方２丁目６番１号,,14,134,2130005,,,,,,,2025-02-14,1,,,,,ポスジギョウブンカツジュンビ,0
93,1020003027797,新規,0,2025-02-14,2025-02-14,合同会社テラス社,,合同会社,神奈川県,横浜市港北区,菊名６丁目１３番５３号,,14,109,2220011,,,,,,,2025-02-14,1,,,,,テラスシャ,0
94,1020003027839,新規,0,2025-02-14,2025-02-14,合同会社ＵＰ,,合同会社,神奈川県,横浜市西区,浅間町１丁目４番３号ウィザードビル４０２,,14,103,2200072,,,,,,,2025-02-14,1,,,,,アップ,0
101,1021003015544,新規,0,2025-02-14,2025-02-14,うかのみたま自然農合同会社,,合同会社,神奈川県,藤沢市,辻堂太平台１丁目９番１６号,,14,205,2510044,,,,,,,2025-02-14,1,,,,,ウカノミタマシゼンノウ,0
102,1021003015560,新規,0,2025-02-14,2025-02-14,合同会社ＳＯＡ,,合同会社,神奈川県,大和市,林間２丁目３－７豊年カモミール１０６,,14,213,2420003,,,,,,,2025-02-14,1,,,,,エスオーエー,0
103,1021003015585,新規,0,2025-02-14,2025-02-14,合同会社ＭＡＭＡＭＡＬＵ,,合同会社,神奈川県,厚木市,泉町１番地１ミロード１Ａｇｏｒａ,,14,212,2430013,,,,,,,2025-02-14,1,,,,,マママルゥ,0
111,1030001164864,新規,0,2025-02-14,2025-02-14,株式会社ＦＲＣホールディングス,,株式会社,埼玉県,吉川市,中野３０１番地,,11,243,3420042,,,,,,,2025-02-14,1,,,,,エフアールシーホールディングス,0
112,1030001164872,新規,0,2025-02-14,2025-02-14,Ｗｉｌｌｏｗ　Ｈｏｕｓｅ株式会社,,株式会社,埼玉県,川越市,志多町２番地１,,11,201,3500051,,,,,,,2025-02-14,1,,,,,ウィローハウス,0
119,1030003026121,新規,0,2025-02-14,2025-02-14,響働ＩＣＴ合同会社,,合同会社,埼玉県,南埼玉郡宮代町,宮代１丁目１番１号センチュリー東武動物公園４０２号,,11,442,3450823,,,,,,,2025-02-14,1,,,,,キョウドウアイシーティー,0
131,1040003026855,新規,0,2025-02-14,2025-02-14,ＨＡＫＩＭＩ合同会社,,合同会社,千葉県,四街道市,和良比２６４番地１０,,12,228,2840044,,,,,,,2025-02-14,1,,,,,ハキミ,0
138,1070001042629,新規,0,2025-02-14,2025-02-14,そらの雲株式会社,,株式会社,群馬県,伊勢崎市,下触町８５９番地４,,10,204,3792214,,,,,,,2025-02-14,1,,,,,ソラノクモ,0
168,1120001272872,新規,0,2025-02-14,2025-02-14,結束バンド株式会社,,株式会社,大阪府,大阪市北区,角田町８－１大阪梅田ツインタワーズ・ノース１９階,,27,127,5300017,,,,,,,2025-02-14,1,,,,,ケッソクバンド,0
169,1120001272880,新規,0,2025-02-14,2025-02-14,株式会社リーパレット,,株式会社,大阪府,大阪市北区,梅田１丁目２番２号大阪駅前第２ビル１２－１２,,27,127,5300001,,,,,,,2025-02-14,1,,,,,リーパレット,0
170,1120001272889,新規,0,2025-02-14,2025-02-14,株式会社ＯＳセンター,,株式会社,大阪府,大阪市平野区,長吉六反１丁目３番４号,,27,126,5470012,,,,,,,2025-02-14,1,,,,,オーエスセンター,0
171,1120001272897,新規,0,2025-02-14,2025-02-14,ミリオン株式会社,,株式会社,大阪府,大阪市西成区,鶴見橋３丁目１０番３２号１Ｅ,,27,122,5570031,,,,,,,2025-02-14,1,,,,,ミリオン,0
172,1120001272939,新規,0,2025-02-14,2025-02-14,株式会社インヘリット,,株式会社,大阪府,大阪市天王寺区,味原町１３番１６号,,27,109,5430023,,,,,,,2025-02-14,1,,,,,インヘリット,0
173,1120003028579,新規,0,2025-02-14,2025-02-14,合同会社音と世界,,合同会社,大阪府,大阪市東成区,東小橋１丁目１－９,,27,115,5370024,,,,,,,2025-02-14,1,,,,,オトトセカイ,0
174,1120003028620,新規,0,2025-02-14,2025-02-14,合同会社日本ストレージ,,合同会社,大阪府,大阪市中央区,高麗橋４丁目３番７号淀屋橋総合会計内,,27,128,5410043,,,,,,,2025-02-14,1,,,,,ニホンストレージ,0
175,1120003028629,新規,0,2025-02-14,2025-02-14,ＯＮＬＩＳＥ合同会社,,合同会社,大阪府,大阪市北区,梅田１丁目２番２号大阪駅前第２ビル１２－１２,,27,127,5300001,,,,,,,2025-02-14,1,,,,,オンライズ,0
186,1122003003116,新規,0,2025-02-14,2025-02-14,合同会社Ｚｙｒｏ,,合同会社,大阪府,東大阪市,長田西２丁目６番２５－２１１号,,27,227,5770016,,,,,,,2025-02-14,1,,,,,ザイロ,0
191,1140001137413,新規,0,2025-02-14,2025-02-14,株式会社シェモア,,株式会社,兵庫県,伊丹市,中野西２丁目１７２番地,,28,207,6640023,,,,,,,2025-02-14,1,,,,,シェモア,0
194,1140003021623,新規,0,2025-02-14,2025-02-14,讃合同会社,,合同会社,兵庫県,尼崎市,三反田町１丁目４番１５号,,28,202,6610024,,,,,,,2025-02-14,1,,,,,サン,0
195,1140003021664,新規,0,2025-02-14,2025-02-14,ジーアール神戸合同会社,,合同会社,兵庫県,神戸市中央区,山本通４丁目１９番地８号エクセレント諏訪山２０３,,28,110,6500003,,,,,,,2025-02-14,1,,,,,ジーアールコウベ,0
206,1180001165402,新規,0,2025-02-14,2025-02-14,株式会社インフィニティー,,株式会社,愛知県,豊明市,新栄町１丁目３１番地藤和前後ホームズ４０１号,,23,229,4701154,,,,,,,2025-02-14,1,,,,,インフィニティー,0
207,1180001165410,新規,0,2025-02-14,2025-02-14,株式会社アーテック,,株式会社,愛知県,尾張旭市,旭ケ丘町山の手１８３番地５,,23,226,4880084,,,,,,,2025-02-14,1,,,,,アーテック,0
208,1180001165419,新規,0,2025-02-14,2025-02-14,株式会社ＴＲＡＮＳＮＯＶＡ,,株式会社,愛知県,知多市,旭桃台１３６,,23,224,4780044,,,,,,,2025-02-14,1,,,,,トランスノヴァ,0
209,1180001165443,新規,0,2025-02-14,2025-02-14,株式会社ＳＵＮＦＬＯＷＥＲ　ＩＮＴＥＲＮＡＴＩＯＮＡＬ,,株式会社,愛知県,岩倉市,鈴井町中島４２番地７,,23,228,4820035,,,,,,,2025-02-14,1,,,,,サンフラワーインターナショナル,0
229,1260005011445,新規,0,2025-02-14,2025-02-14,一般社団法人地域創生支援協会,,その他の設立登記法人,岡山県,加賀郡吉備中央町,吉川１１７４番地５,,33,681,7161241,,,,,,,2025-02-14,1,,,,,チイキソウセイシエンキョウカイ,0
235,1290001108969,新規,0,2025-02-14,2025-02-14,株式会社Ｆａｔｅｒｉｓｅ,,株式会社,福岡県,福岡市西区,学園通１丁目２３８７番地,,40,135,8190389,,,,,,,2025-02-14,1,,,,,ファテライズ,0
236,1290803004969,新規,0,2025-02-14,2025-02-14,合同会社ＴＥＡＭ,,合同会社,福岡県,田川郡香春町,大字高野１３１９　Ｃ４０１,,40,601,8221403,,,,,,,2025-02-14,1,,,,,チーム,0
242,1340001027115,新規,0,2025-02-14,2025-02-14,株式会社島結ファーム,,株式会社,鹿児島県,大島郡与論町,大字麦屋３２６６番地,,46,535,8919300,,,,,,,2025-02-14,1,,,,,シマユイファーム,0
244,1340003004748,新規,0,2025-02-14,2025-02-14,合同会社太洋工業,,合同会社,鹿児島県,阿久根市,脇本１３３８０番地４１,,46,206,8991131,,,,,,,2025-02-14,1,,,,,タイヨウコウギョウ,0
247,1360003014687,新規,0,2025-02-14,2025-02-14,合同会社ラクト,,合同会社,沖縄県,那覇市,樋川２丁目６－５,,47,201,9000022,,,,,,,2025-02-14,1,,,,,ラクト,0
254,1390001017879,新規,0,2025-02-14,2025-02-14,株式会社森農園,,株式会社,山形県,村山市,大字田沢１６２７番地,,06,208,9950051,,,,,,,2025-02-14,1,,,,,モリノウエン,0
256,1400001016937,新規,0,2025-02-14,2025-02-14,株式会社田端企画,,株式会社,岩手県,盛岡市,湯沢東１丁目５番１３号,,03,201,0200844,,,,,,,2025-02-14,1,,,,,タバタキカク,0
259,1410001014064,新規,0,2025-02-14,2025-02-14,株式会社どうらく,,株式会社,秋田県,にかほ市,象潟町字鳥の海７番地２０,,05,214,0180132,,,,,,,2025-02-14,1,,,,,ドウラク,0
265,1430001093676,新規,0,2025-02-14,2025-02-14,祇園貿易コンサルティング株式会社,,株式会社,北海道,札幌市清田区,美しが丘三条６丁目１０番４パシフィック美しが丘３０７号,,01,110,0040813,,,,,,,2025-02-14,1,,,,,ギオンボウエキコンサルティング,0
267,1470003002805,新規,0,2025-02-14,2025-02-14,ＣＹＣＬＥ　ＳＨＩＫＯＫＵ合同会社,,合同会社,香川県,高松市,庵治町４５００－２,,37,201,7610130,,,,,,,2025-02-14,1,,,,,サイクルシコク,0
268,1490005006975,新規,0,2025-02-14,2025-02-14,一般社団法人はたまるパートナーズ,,その他の設立登記法人,高知県,宿毛市,山奈町芳奈３番地１,,39,208,7880785,,,,,,,2025-02-14,1,,,,,ハタマルパートナーズ,0
275,2010001252216,新規,0,2025-02-14,2025-02-14,株式会社ＷＡ　ＧＬＯＢＡＬ,,株式会社,東京都,中央区,日本橋室町１丁目１１番地１２号日本橋水野ビル７階,,13,102,1030022,,,,,,,2025-02-14,1,,,,,ワグローバル,0
276,2010001252273,新規,0,2025-02-14,2025-02-14,Ｓａｐｉｅｎｓｕ　ＡＩ株式会社,,株式会社,東京都,千代田区,五番町１２番地７－２０４３,,13,101,1020076,,,,,,,2025-02-14,1,,,,,サピエンスーアイ,0
277,2010003046384,新規,0,2025-02-14,2025-02-14,Ｆａｍｉｅｌ合同会社,,合同会社,東京都,中央区,銀座８丁目５番６号,,13,102,1040061,,,,,,,2025-02-14,1,,,,,ファミール,0
278,2010003046392,新規,0,2025-02-14,2025-02-14,ＹＡＧＥＯ　Ｅｌｅｃｔｒｏｎｉｃｓ　Ｊａｐａｎ合同会社,,合同会社,東京都,千代田区,西神田３丁目８番１号,,13,101,1010065,,,,,,,2025-02-14,1,,,,,ヤゲオエレクトロニクスジャパン,0
279,2010003046401,新規,0,2025-02-14,2025-02-14,合同会社Ｖ京都,,合同会社,東京都,千代田区,霞が関３丁目２番５号,,13,101,1000013,,,,,,,2025-02-14,1,,,,,ブイキョウト,0
280,2010003046418,新規,0,2025-02-14,2025-02-14,Ｕ合同会社,,合同会社,東京都,中央区,銀座１丁目１２番４号Ｎ＆ＥＢＬＤ．６Ｆ,,13,102,1040061,,,,,,,2025-02-14,1,,,,,ユー,0
281,2010005039535,新規,0,2025-02-14,2025-02-14,一般社団法人知財・無形資産ガバナンス協会,,その他の設立登記法人,東京都,千代田区,丸の内１丁目６番５号丸の内北口ビル２１階大野総合法律事務所内,,13,101,1000005,,,,,,,2025-02-14,1,,,,,チザイムケイシサンガバナンスキョウカイ,0
282,2010101016520,新規,0,2025-02-14,2025-02-14,株式会社春風設備工業,,株式会社,東京都,八王子市,中野上町２丁目１５番５号３０５号,,13,201,1920041,,,,,,,2025-02-14,1,,,,,ハルカゼセツビコウギョウ,0
283,2010103002510,新規,0,2025-02-14,2025-02-14,凌暮堂合同会社,,合同会社,東京都,八王子市,東町１０番３号１階３０６号,,13,201,1920082,,,,,,,2025-02-14,1,,,,,リュウムウドウ,0
290,2010401187912,新規,0,2025-02-14,2025-02-14,プレミアムグリーンズ株式会社,,株式会社,東京都,港区,海岸１丁目６番１－８０８号,,13,103,1050022,,,,,,,2025-02-14,1,,,,,プレミアムグリーンズ,0
291,2010401188068,新規,0,2025-02-14,2025-02-14,株式会社ソニックエステート,,株式会社,東京都,港区,港南４丁目６番８－４００３号,,13,103,1080075,,,,,,,2025-02-14,1,,,,,ソニックエステート,0
292,2010401188266,新規,0,2025-02-14,2025-02-14,株式会社ＣｈａｔＪａｐａｎ,,株式会社,東京都,港区,浜松町２丁目２番１５号浜松町ダイヤビル２Ｆ,,13,103,1050013,,,,,,,2025-02-14,1,,,,,チャットジャパン,0
293,2010403034377,新規,0,2025-02-14,2025-02-14,Ｔｈｅ　Ａｎｆｉｅｌｄ合同会社,,合同会社,東京都,港区,東麻布２丁目２８番６号ＴＡＣ東麻布５０１号,,13,103,1060044,,,,,,,2025-02-14,1,,,,,ジアンフィールド,0
306,2010903009713,新規,0,2025-02-14,2025-02-14,合同会社きみおと,,合同会社,東京都,世田谷区,北沢２丁目２２番９－２０４号,,13,112,1550031,,,,,,,2025-02-14,1,,,,,キミオト,0
315,2011001167809,新規,0,2025-02-14,2025-02-14,株式会社ｅ．ｍ．,,株式会社,東京都,目黒区,中根１丁目２３番５号メゾン自由が丘１０３,,13,110,1520031,,,,,,,2025-02-14,1,,,,,イーエム,0
317,2011003020924,新規,0,2025-02-14,2025-02-14,合同会社恵比寿商事,,合同会社,東京都,渋谷区,代官山町１０番１８号,,13,113,1500034,,,,,,,2025-02-14,1,,,,,エビスショウジ,0
318,2011003021006,新規,0,2025-02-14,2025-02-14,カーボンバリュー・ソリューションズ合同会社,,合同会社,東京都,渋谷区,道玄坂１丁目１０番８号渋谷道玄坂東急ビル２Ｆ‐Ｃ,,13,113,1500043,,,,,,,2025-02-14,1,,,,,カーボンバリューソリューションズ,0
319,2011005010857,新規,0,2025-02-14,2025-02-14,一般財団法人シマダ未来財団,,その他の設立登記法人,東京都,渋谷区,代々木３丁目２２番７号新宿文化クイントビル１４階,,13,113,1510053,,,,,,,2025-02-14,1,,,,,シマダミライザイダン,0
320,2011005010865,新規,0,2025-02-14,2025-02-14,一般社団法人ＪＡＰＡＮＥＳＥ　ＰＲＩＤＥ,,その他の設立登記法人,東京都,渋谷区,渋谷２丁目１９番１５号宮益坂ビルディング６０９,,13,113,1500002,,,,,,,2025-02-14,1,,,,,ジャパニーズプライド,0
323,2011101110585,新規,0,2025-02-14,2025-02-14,株式会社ＢＡＴＴ　ＪＰ,,株式会社,東京都,新宿区,大久保１丁目２－１天翔東新宿ビル４０２号,,13,104,1690072,,,,,,,2025-02-14,1,,,,,バットジェイピー,0
324,2011101110593,新規,0,2025-02-14,2025-02-14,東京文易株式会社,,株式会社,東京都,新宿区,富久町３２－３東新富久町ビル１０６号室,,13,104,1620067,,,,,,,2025-02-14,1,,,,,トウキョウブンエキ,0
329,2011303005419,新規,0,2025-02-14,2025-02-14,合同会社Ｋａｉｋｅｉ　Ｆａｃｔｏｒｙ,,合同会社,東京都,杉並区,方南２丁目１５番２号コーポ西村３０２号,,13,115,1680062,,,,,,,2025-02-14,1,,,,,カイケイファクトリー,0
331,2011503006423,新規,0,2025-02-14,2025-02-14,合同会社広盛,,合同会社,東京都,北区,豊島５丁目５－９－４１１,,13,117,1140003,,,,,,,2025-02-14,1,,,,,ヒロモリ,0
333,2011603004608,新規,0,2025-02-14,2025-02-14,合同会社濱野友徳構造設計,,合同会社,東京都,練馬区,石神井町８丁目１８番１７－３０７号,,13,120,1770041,,,,,,,2025-02-14,1,,,,,ハマノトモノリコウゾウセッケイ,0
335,2011701028062,新規,0,2025-02-14,2025-02-14,株式会社東来,,株式会社,東京都,江戸川区,中葛西５丁目４１番２５－２０１号,,13,123,1340083,,,,,,,2025-02-14,1,,,,,トウライ,0
342,2011801045619,新規,0,2025-02-14,2025-02-14,ＹＧ・ＬＩＶＩＮＧ株式会社,,株式会社,東京都,葛飾区,東金町５丁目６番８号,,13,122,1250041,,,,,,,2025-02-14,1,,,,,ワイジーリビング,0
344,2011803006676,新規,0,2025-02-14,2025-02-14,都市・住宅・まちづくり研究所合同会社,,合同会社,東京都,足立区,梅島３丁目３番２４－１２０１号,,13,121,1210816,,,,,,,2025-02-14,1,,,,,トシジュウタクマチヅクリケンキュウジョ,0
345,2011803006684,新規,0,2025-02-14,2025-02-14,合同会社ＫＡＭＡＲＩ,,合同会社,東京都,足立区,谷中１丁目１番１－２０３号,,13,121,1200006,,,,,,,2025-02-14,1,,,,,カマリ,0
346,2012401042782,新規,0,2025-02-14,2025-02-14,株式会社克ッ,,株式会社,東京都,三鷹市,下連雀８丁目２―６メゾン・グローリー１０１,,13,204,1810013,,,,,,,2025-02-14,1,,,,,カツ,0
349,2013103001399,新規,0,2025-02-14,2025-02-14,ＡｓｉＡ合同会社,,合同会社,東京都,福生市,大字福生８８８番地５林ビル２階,,13,218,1970011,,,,,,,2025-02-14,1,,,,,アジア,0
354,2020001161416,新規,0,2025-02-14,2025-02-14,株式会社５５９,,株式会社,神奈川県,横浜市都筑区,早渕１丁目２４番１６号,,14,118,2240025,,,,,,,2025-02-14,1,,,,,ゴーゴーキュウ,0
355,2020001161432,新規,0,2025-02-14,2025-02-14,株式会社ＢｉｚＢｏｏｓｔｅｒ,,株式会社,神奈川県,横浜市西区,北幸２丁目１０番４８号　むつみビル３階,,14,103,2200004,,,,,,,2025-02-14,1,,,,,ビズブースター,0
359,2020003027796,新規,0,2025-02-14,2025-02-14,ＤＳＳコンサルティング合同会社,,合同会社,神奈川県,川崎市宮前区,梶ケ谷５番地１５,,14,136,2160034,,,,,,,2025-02-14,1,,,,,ディーエスエスコンサルティング,0
360,2020003027805,新規,0,2025-02-14,2025-02-14,ＹＲ合同会社,,合同会社,神奈川県,横浜市金沢区,谷津町３６４金沢文庫ビル５－Ｂ,,14,108,2360016,,,,,,,2025-02-14,1,,,,,ワイアール,0
361,2020005016707,新規,0,2025-02-14,2025-02-14,一般社団法人横浜弁護法律研究会,,その他の設立登記法人,神奈川県,横浜市西区,浅間町１丁目４番３号,,14,103,2200072,,,,,,,2025-02-14,1,,,,,ヨコハマベンゴホウリツケンキュウカイ,0
365,2021003015576,新規,0,2025-02-14,2025-02-14,合同会社ＣＤＭ,,合同会社,神奈川県,平塚市,東八幡２丁目９番２９号,,14,203,2540016,,,,,,,2025-02-14,1,,,,,シーディーエム,0
372,2030001164896,新規,0,2025-02-14,2025-02-14,株式会社ＳＷＡＮ,,株式会社,埼玉県,さいたま市北区,宮原町２丁目１１４番地４,,11,102,3310812,,,,,,,2025-02-14,1,,,,,スワン,0
375,2030003026120,新規,0,2025-02-14,2025-02-14,合同会社Ｌｉｂｅｒｏ,,合同会社,埼玉県,さいたま市西区,宮前町８０２－３,,11,101,3310046,,,,,,,2025-02-14,1,,,,,リベロ,0
376,2030005022027,新規,0,2025-02-14,2025-02-14,一般社団法人おひさま,,その他の設立登記法人,埼玉県,秩父市,寺尾２０４５番地,,11,207,3680056,,,,,,,2025-02-14,1,,,,,オヒサマ,0
381,2040001137372,新規,0,2025-02-14,2025-02-14,株式会社ＭＳワークス,,株式会社,千葉県,茂原市,東郷１５５８番地１,,12,210,2970017,,,,,,,2025-02-14,1,,,,,エムエスワークス,0
386,2040003026854,新規,0,2025-02-14,2025-02-14,合同会社筋理堂,,合同会社,千葉県,浦安市,北栄２丁目１９番地１号１０３号室,,12,227,2790002,,,,,,,2025-02-14,1,,,,,キンリドウ,0
408,2120001272913,新規,0,2025-02-14,2025-02-14,株式会社ＳＨＳ,,株式会社,大阪府,大阪市平野区,瓜破１丁目６番５号,,27,126,5470024,,,,,,,2025-02-14,1,,,,,エスエイチエス,0
409,2120001272938,新規,0,2025-02-14,2025-02-14,株式会社ＧｒｉＴ’ｓ,,株式会社,大阪府,大阪市北区,天満２丁目３－５－３０２号室,,27,127,5300043,,,,,,,2025-02-14,1,,,,,グリッティーズ,0
410,2120001272946,新規,0,2025-02-14,2025-02-14,株式会社ＥＸＯＤＵＳ,,株式会社,大阪府,大阪市天王寺区,逢阪２丁目３番４号,,27,109,5430062,,,,,,,2025-02-14,1,,,,,エクソダス,0
414,2120901050427,新規,0,2025-02-14,2025-02-14,株式会社Ｐｒｉｍｅｗｏｒｋｓ,,株式会社,大阪府,豊中市,東豊中町６丁目１３番１－３１９号,,27,203,5600003,,,,,,,2025-02-14,1,,,,,プライムワークス,0
418,2122003003115,新規,0,2025-02-14,2025-02-14,合同会社ＢＯＬＥＳＡＦ,,合同会社,大阪府,八尾市,弓削町南２丁目１２４番地の５ＲＩＨＩＴＯ八尾Ａ－１０１号,,27,212,5810034,,,,,,,2025-02-14,1,,,,,ボレサフ,0
420,2130001078987,新規,0,2025-02-14,2025-02-14,松坪株式会社,,株式会社,京都府,京都市右京区,西京極前田町２８－２メゾン・ブランシェ３０６,,26,108,6150823,,,,,,,2025-02-14,1,,,,,マツツボ,0
421,2130001078995,新規,0,2025-02-14,2025-02-14,株式会社ＫＴＴ,,株式会社,京都府,京都市東山区,東大路松原上る辰巳町９９番地,,26,105,6050855,,,,,,,2025-02-14,1,,,,,ケーティーティー,0
428,2140001137379,新規,0,2025-02-14,2025-02-14,ＦＵＪＩＸ株式会社,,株式会社,兵庫県,神戸市東灘区,向洋町中１丁目１０番地１０１号棟４００６号室,,28,101,6580032,,,,,,,2025-02-14,1,,,,,フジックス,0
431,2140003021655,新規,0,2025-02-14,2025-02-14,合同会社ＹＭ企画,,合同会社,兵庫県,姫路市,下手野３丁目４－２０,,28,201,6700063,,,,,,,2025-02-14,1,,,,,ワイエムキカク,0
432,2140003021663,新規,0,2025-02-14,2025-02-14,合同会社いろいろＰＬｕＳ,,合同会社,兵庫県,神戸市中央区,脇浜海岸通３丁目１－１８－１９０１,,28,110,6510073,,,,,,,2025-02-14,1,,,,,イロイロプラス,0
443,2180001165269,新規,0,2025-02-14,2025-02-14,株式会社クイーンズトラスト,,株式会社,愛知県,名古屋市中区,栄２丁目２番１号広小路伏見中駒ビル２Ｆ－９,,23,106,4600008,,,,,,,2025-02-14,1,,,,,クイーンズトラスト,0
444,2180001165392,新規,0,2025-02-14,2025-02-14,株式会社冨夢,,株式会社,愛知県,名古屋市西区,大野木４丁目２６番地,,23,104,4520803,,,,,,,2025-02-14,1,,,,,フム,0
447,2180003027970,新規,0,2025-02-14,2025-02-14,合同会社Ｆｕｋａｃｈａｎ,,合同会社,愛知県,名古屋市中村区,太閤１丁目２０番１０号名古屋プレミアム医療モール太閤４階,,23,105,4530801,,,,,,,2025-02-14,1,,,,,フカチャン,0
457,2230001020740,新規,0,2025-02-14,2025-02-14,株式会社Ｍ＆Ｔ,,株式会社,富山県,射水市,中野６６３‐１０,,16,211,9390273,,,,,,,2025-02-14,1,,,,,メディカルアンドセラピー,0
464,2240003007066,新規,0,2025-02-14,2025-02-14,合同会社ＯＢＣ,,合同会社,広島県,広島市佐伯区,美鈴が丘西５丁目１番５号,,34,108,7315114,,,,,,,2025-02-14,1,,,,,オービーシー,0
475,2290001108893,新規,0,2025-02-14,2025-02-14,株式会社嘉和,,株式会社,福岡県,福岡市東区,香椎駅前２丁目９番２２－１５０２号,,40,131,8130013,,,,,,,2025-02-14,1,,,,,カナ,0
476,2290001108984,新規,0,2025-02-14,2025-02-14,川下り竜聖株式会社,,株式会社,福岡県,柳川市,柳町５０番地４,,40,207,8320075,,,,,,,2025-02-14,1,,,,,カワクダリリュウセイ,0
484,2330001032882,新規,0,2025-02-14,2025-02-14,キャリアＡＩプラザ株式会社,,株式会社,熊本県,熊本市東区,健軍３丁目３９－１４－７０１,,43,102,8620911,,,,,,,2025-02-14,1,,,,,キャリアエーアイプラザ,0
496,2380003005956,新規,0,2025-02-14,2025-02-14,ＭＡＲＴＨ合同会社,,合同会社,福島県,東白川郡鮫川村,大字渡瀬字田苗下１０４番地,,07,484,9638405,,,,,,,2025-02-14,1,,,,,マース,0
497,2380005012918,新規,0,2025-02-14,2025-02-14,一般社団法人しょうわみらい,,その他の設立登記法人,福島県,大沼郡昭和村,大字大芦字上赤田３６９６番地の１,00138004,07,446,9680214,,,,,,,2025-02-14,1,,,,,ショウワミライ,0
499,2400003003395,新規,0,2025-02-14,2025-02-14,合同会社紀・コーデ,,合同会社,岩手県,盛岡市,永井７地割１４０番地１,,03,201,0200834,,,,,,,2025-02-14,1,,,,,キコーデ,0
502,2430001093675,新規,0,2025-02-14,2025-02-14,株式会社りゅっか,,株式会社,北海道,札幌市清田区,清田一条２丁目３番１２号,,01,110,0040841,,,,,,,2025-02-14,1,,,,,リュッカ,0
506,2460105002307,新規,0,2025-02-14,2025-02-14,一般社団法人音の輪,,その他の設立登記法人,北海道,帯広市,西十九条南３６丁目１番地５,,01,207,0800029,,,,,,,2025-02-14,1,,,,,オトノワ,0
507,2460301005278,新規,0,2025-02-14,2025-02-14,エムテック株式会社,,株式会社,北海道,北見市,東陵町１８９番地９６,,01,208,0900061,,,,,,,2025-02-14,1,,,,,エムテック,0
515,2490005006974,新規,0,2025-02-14,2025-02-14,一般社団法人スペースポート高知,,その他の設立登記法人,高知県,高知市,本町２丁目２－３１,,39,201,7800870,,,,,,,2025-02-14,1,,,,,,0
521,3010001252033,新規,0,2025-02-14,2025-02-14,株式会社Ｂｌｕｅ,,株式会社,東京都,中央区,日本橋大伝馬町１３－１０－８０４,,13,102,1030011,,,,,,,2025-02-14,1,,,,,ブルー,0
523,3010003046391,新規,0,2025-02-14,2025-02-14,合同会社ＣＯＲＶＯ,,合同会社,東京都,千代田区,神田須田町１丁目７番８号ＶＯＲＴ秋葉原ＩＶ２Ｆ,00137994,13,101,1010041,,,,,,,2025-02-14,1,,,,,コルボ,0
524,3010003046400,新規,0,2025-02-14,2025-02-14,合同会社Ｍｏｒｉｎｏｍｉｙａ,,合同会社,東京都,千代田区,霞が関３丁目２番５号,,13,101,1000013,,,,,,,2025-02-14,1,,,,,モリノミヤ,0
525,3010003046417,新規,0,2025-02-14,2025-02-14,合同会社ＧｏＤｏ,,合同会社,東京都,中央区,銀座１丁目１２－４Ｎ＆ＥＢＬＤ．７階,,13,102,1040061,,,,,,,2025-02-14,1,,,,,ゴードゥー,0
526,3010003046441,新規,0,2025-02-14,2025-02-14,合同会社日神１１,,合同会社,東京都,千代田区,霞が関３丁目２番５号,,13,101,1000013,,,,,,,2025-02-14,1,,,,,ニッシンイレブン,0
542,3010401188224,新規,0,2025-02-14,2025-02-14,ＬＬホールディングス株式会社,,株式会社,東京都,港区,浜松町２丁目４番１号,,13,103,1050013,,,,,,,2025-02-14,1,,,,,エルエルホールディングス,0
543,3010401188232,新規,0,2025-02-14,2025-02-14,株式会社ＴＸＡ,,株式会社,東京都,港区,北青山１丁目３番１号アールキューブ青山３階,,13,103,1070061,,,,,,,2025-02-14,1,,,,,ティーエックスエー,0
545,3010403034376,新規,0,2025-02-14,2025-02-14,合同会社ＳＨＩＲＯＫＵ,,合同会社,東京都,港区,三田１丁目６番３－１３０４号,,13,103,1080073,,,,,,,2025-02-14,1,,,,,シロク,0
549,3010603011373,新規,0,2025-02-14,2025-02-14,予安アドバイザリー合同会社,,合同会社,東京都,江東区,豊洲５丁目１番１３－４０１３号,,13,108,1350061,,,,,,,2025-02-14,1,,,,,ユアンアドバイザリー,0
553,3010801035843,新規,0,2025-02-14,2025-02-14,株式会社Ａｔｅｌｉｅｒ　Ｍｏｎａｄ,,株式会社,東京都,大田区,南六郷２丁目３２番４号アールコート南六郷３０４,,13,111,1440045,,,,,,,2025-02-14,1,,,,,アトリエモナド,0
564,3011001167048,新規,0,2025-02-14,2025-02-14,ＬＩＮＫＹ株式会社,,株式会社,東京都,渋谷区,道玄坂１丁目１０番８号渋谷道玄坂東急ビル２Ｆ－Ｃ,,13,113,1500043,,,,,,,2025-02-14,1,,,,,リンキー,0
565,3011001167535,新規,0,2025-02-14,2025-02-14,株式会社ＨＯＭＥＯＳＴＡＳＩＳ,,株式会社,東京都,渋谷区,神宮前６丁目３１－２１「ハラカド」ＤＭＺＷＯＲＫ－Ｘ０１株式会社ＨＯＭＥＯＳＴＡＳＩＳ,,13,113,1500001,,,,,,,2025-02-14,1,,,,,ホメオスタシス,0
567,3011003020923,新規,0,2025-02-14,2025-02-14,合同会社代官山商事,,合同会社,東京都,渋谷区,代官山町１０番１８号,,13,113,1500034,,,,,,,2025-02-14,1,,,,,ダイカンヤマショウジ,0
568,3011003020931,新規,0,2025-02-14,2025-02-14,合同会社ＫＢＴ　ｍａｎａｇｅｍｅｎｔ　ｇｒｏｕｐ,,合同会社,東京都,渋谷区,上原１丁目３－９,,13,113,1510064,,,,,,,2025-02-14,1,,,,,ケービーティーマネージメントグループ,0
575,3011101110584,新規,0,2025-02-14,2025-02-14,カメマンネンジャパン株式会社,,株式会社,東京都,新宿区,横寺町３０番地,,13,104,1620831,,,,,,,2025-02-14,1,,,,,カメマンネンジャパン,0
576,3011101110592,新規,0,2025-02-14,2025-02-14,株式会社聯和美瑞,,株式会社,東京都,新宿区,富久町３２－３東新富久町ビル２０２,,13,104,1620067,,,,,,,2025-02-14,1,,,,,レンワミズキ,0
577,3011103015526,新規,0,2025-02-14,2025-02-14,合同会社アトラス,,合同会社,東京都,新宿区,西新宿３丁目３番１３号西新宿水間ビル２Ｆ,,13,104,1600023,,,,,,,2025-02-14,1,,,,,アトラス,0
578,3011301030351,新規,0,2025-02-14,2025-02-14,株式会社ネーブル,,株式会社,東京都,杉並区,高井戸東３丁目２９－２０－１０８,,13,115,1680072,,,,,,,2025-02-14,1,,,,,ネーブル,0
580,3011401026811,新規,0,2025-02-14,2025-02-14,ＴＡＩ　ＬＯＮ株式会社,,株式会社,東京都,板橋区,高島平２丁目３３番７－１３２８号,,13,119,1750082,,,,,,,2025-02-14,1,,,,,タィンロン,0
581,3011403004617,新規,0,2025-02-14,2025-02-14,合同会社ＳＰＬＩＣＥ,,合同会社,東京都,板橋区,大谷口上町１３－７高橋ビル２階,,13,119,1730032,,,,,,,2025-02-14,1,,,,,スプライス,0
594,3011803006683,新規,0,2025-02-14,2025-02-14,合同会社志結工業,,合同会社,東京都,足立区,辰沼２丁目７番９号,,13,121,1210054,,,,,,,2025-02-14,1,,,,,シユウコウギョウ,0
595,3012401042773,新規,0,2025-02-14,2025-02-14,株式会社ＡＩＵＥＯ,,株式会社,東京都,府中市,本宿町２丁目５番地の４－８０２号,,13,206,1830032,,,,,,,2025-02-14,1,,,,,エーアイユーイーオー,0
596,3012403006974,新規,0,2025-02-14,2025-02-14,ＮＯＴ　ＭＥ合同会社,,合同会社,東京都,三鷹市,北野４丁目５－４１,,13,204,1810003,,,,,,,2025-02-14,1,,,,,ノットミー,0
598,3012703003201,新規,0,2025-02-14,2025-02-14,スプリングワーク合同会社,,合同会社,東京都,東久留米市,小山４丁目７－２０,,13,222,2030051,,,,,,,2025-02-14,1,,,,,スプリングワーク,0
604,3020001161308,新規,0,2025-02-14,2025-02-14,株式会社Ｌｉｆｔ,,株式会社,神奈川県,横浜市神奈川区,金港町５－１４クアドリフォリオ８階,,14,102,2210056,,,,,,,2025-02-14,1,,,,,リフト,0
605,3020001161415,新規,0,2025-02-14,2025-02-14,東進株式会社,,株式会社,神奈川県,横浜市鶴見区,栄町通３丁目３６番地２６,,14,101,2300038,,,,,,,2025-02-14,1,,,,,トウシン,0
606,3020001161456,新規,0,2025-02-14,2025-02-14,ＴａｂｉＭａｔｅ株式会社,,株式会社,神奈川県,横浜市中区,尾上町４丁目５７横浜尾上町ビルディング８Ｆ,,14,104,2310015,,,,,,,2025-02-14,1,,,,,タビメイト,0
611,3030001164870,新規,0,2025-02-14,2025-02-14,株式会社テクスパーク,,株式会社,埼玉県,朝霞市,栄町３丁目２－１シャリエ朝霞７０７,,11,227,3510012,,,,,,,2025-02-14,1,,,,,テクスパーク,0
615,3040001137306,新規,0,2025-02-14,2025-02-14,株式会社ヨロコビマン,,株式会社,千葉県,千葉市中央区,汐見丘町２４番７号汐見丘ビル１階,,12,101,2600034,,,,,,,2025-02-14,1,,,,,ヨロコビマン,0
616,3040001137371,新規,0,2025-02-14,2025-02-14,株式会社オルオルカンパニー,,株式会社,千葉県,佐倉市,井野１５２９番地１朝日パリオ勝田台１０３号,,12,212,2850855,,,,,,,2025-02-14,1,,,,,オルオルカンパニー,0
624,3090001019136,新規,0,2025-02-14,2025-02-14,株式会社マナハウス,,株式会社,山梨県,南都留郡富士河口湖町,小立２９１５番地１,,19,430,4010302,,,,,,,2025-02-14,1,,,,,マナハウス,0
627,3100003007970,新規,0,2025-02-14,2025-02-14,アルプスクリエーション合同会社,,合同会社,長野県,諏訪郡下諏訪町,湯田町３４３７番地１,,20,361,3930016,,,,,,,2025-02-14,1,,,,,アルプスクリエーション,0
628,3100003007979,新規,0,2025-02-14,2025-02-14,合同会社ナチュール,,合同会社,長野県,北安曇郡白馬村,大字北城１３９６－１,,20,485,3999301,,,,,,,2025-02-14,1,,,,,ナチュール,0
629,3100003007995,新規,0,2025-02-14,2025-02-14,合同会社マスノヤ,,合同会社,長野県,上伊那郡宮田村,３２５０番地,,20,388,3994301,,,,,,,2025-02-14,1,,,,,マスノヤ,0
644,3120001272838,新規,0,2025-02-14,2025-02-14,株式会社コヤマ,,株式会社,大阪府,大阪市北区,梅田１丁目２番２号大阪駅前第２ビル１２－１２,,27,127,5300001,,,,,,,2025-02-14,1,,,,,コヤマ,0
645,3120001272870,新規,0,2025-02-14,2025-02-14,来財株式会社,,株式会社,大阪府,大阪市西成区,萩之茶屋１丁目１２－７万葉ビル７０号室,,27,122,5570004,,,,,,,2025-02-14,1,,,,,ライザイ,0
646,3120001272879,新規,0,2025-02-14,2025-02-14,丹羽インベストメント株式会社,,株式会社,大阪府,大阪市西区,京町堀１丁目４番１６号,,27,106,5500003,,,,,,,2025-02-14,1,,,,,ニワインベストメント,0
647,3120001272887,新規,0,2025-02-14,2025-02-14,株式会社ＫＰ,,株式会社,大阪府,大阪市東淀川区,西淡路１丁目１４番３０－２０３号,,27,114,5330031,,,,,,,2025-02-14,1,,,,,ケーピー,0
648,3120001272895,新規,0,2025-02-14,2025-02-14,株式会社ＪＤ,,株式会社,大阪府,大阪市大正区,小林西２丁目１４－１０エース大阪ビル２階,,27,108,5510013,,,,,,,2025-02-14,1,,,,,ジェイディー,0
649,3120001272912,新規,0,2025-02-14,2025-02-14,株式会社Ｓｈｅｒｐａ,,株式会社,大阪府,大阪市中央区,東心斎橋２丁目５番１８号三原ビル２Ｆ,,27,128,5420083,,,,,,,2025-02-14,1,,,,,シェルパ,0
650,3120001272937,新規,0,2025-02-14,2025-02-14,ブルーモビリティ株式会社,,株式会社,大阪府,大阪市北区,梅田１丁目２番２号大阪駅前第２ビル１２－１２,,27,127,5300001,,,,,,,2025-02-14,1,,,,,ブルーモビリティ,0
656,3120003028593,新規,0,2025-02-14,2025-02-14,合同会社福永,,合同会社,大阪府,大阪市中央区,日本橋２丁目８番２２－２０１号,,27,128,5420073,,,,,,,2025-02-14,1,,,,,フクナガ,0
657,3120003028602,新規,0,2025-02-14,2025-02-14,ＡＫＩ＆ＲＡＭＩ合同会社,,合同会社,大阪府,守口市,日吉町１丁目５番５－３０３号,,27,209,5700081,,,,,,,2025-02-14,1,,,,,アキアンドラミ,0
658,3120003028610,新規,0,2025-02-14,2025-02-14,日昇合同会社,,合同会社,大阪府,大阪市生野区,小路２丁目１２番２２号アークティカ小路３階３０１号,,27,116,5440002,,,,,,,2025-02-14,1,,,,,ニッショウ,0
659,3120003028627,新規,0,2025-02-14,2025-02-14,合同会社ＮＮ２７,,合同会社,大阪府,大阪市北区,天満１丁目２６番２１－８０４号,,27,127,5300043,,,,,,,2025-02-14,1,,,,,エヌエヌニナナ,0
682,3140001137353,新規,0,2025-02-14,2025-02-14,株式会社ＭＫＹ,,株式会社,兵庫県,宝塚市,南口２丁目５番５４号宝塚シャンテリーハイツ１０１,,28,214,6650011,,,,,,,2025-02-14,1,,,,,エムケーワイ,0
683,3140001137403,新規,0,2025-02-14,2025-02-14,合匯株式会社,,株式会社,兵庫県,西宮市,大森町１８番３－４０４号,,28,204,6638023,,,,,,,2025-02-14,1,,,,,ゴウカイ,0
684,3140001137411,新規,0,2025-02-14,2025-02-14,株式会社ｉｕｄｅｒ,,株式会社,兵庫県,神戸市長田区,御屋敷通６丁目４番７号,,28,106,6530843,,,,,,,2025-02-14,1,,,,,イウダー,0
688,3150001027867,新規,0,2025-02-14,2025-02-14,株式会社あるくす,,株式会社,奈良県,橿原市,菖蒲町２丁目１３－２０,,29,205,6340042,,,,,,,2025-02-14,1,,,,,アルクス,0
693,3180001165425,新規,0,2025-02-14,2025-02-14,株式会社オータケ,,株式会社,愛知県,名古屋市緑区,鳴海町字上汐田１６２番地,,23,114,4580835,,,,,,,2025-02-14,1,,,,,オータケ,0
694,3180001165441,新規,0,2025-02-14,2025-02-14,株式会社Ｔ．Ｏ．,,株式会社,愛知県,名古屋市中村区,宮塚町１０３番地,,23,105,4530845,,,,,,,2025-02-14,1,,,,,ティーオー,0
698,3180003027994,新規,0,2025-02-14,2025-02-14,合同会社ＵＭＡＵＭＡ,,合同会社,愛知県,知多市,岡田字段戸坊１０番地の１（カサ・フェリス４０２）,,23,224,4780021,,,,,,,2025-02-14,1,,,,,ウマウマ,0
699,3180003028002,新規,0,2025-02-14,2025-02-14,Ｅ．Ｊ　ＢＡＳＥ合同会社,,合同会社,愛知県,小牧市,間々本町１２８名城元町ビル３Ｆ３０２,,23,219,4850048,,,,,,,2025-02-14,1,,,,,イージェイベース,0
700,3180301039519,新規,0,2025-02-14,2025-02-14,株式会社ＬＱＧ商事,,株式会社,愛知県,安城市,姫小川町姫西二丁目１７番地５,,23,212,4441161,,,,,,,2025-02-14,1,,,,,エルキュージーショウジ,0
707,3200001043421,新規,0,2025-02-14,2025-02-14,川口屋株式会社,,株式会社,岐阜県,瑞穂市,古橋１１２３番地１,,21,216,5010322,,,,,,,2025-02-14,1,,,,,カワグチヤ,0
727,3290001108983,新規,0,2025-02-14,2025-02-14,福岡不動産買取株式会社,,株式会社,福岡県,福岡市中央区,草香江２丁目１番１３－２０１号コスモ六本松シティフォルム,,40,133,8100045,,,,,,,2025-02-14,1,,,,,フクオカフドウサンカイトリ,0
728,3290001108991,新規,0,2025-02-14,2025-02-14,株式会社ＳｅａＲａｙｓ,,株式会社,福岡県,福岡市西区,今宿１丁目１番１０号,,40,135,8190167,,,,,,,2025-02-14,1,,,,,シーレイズ,0
732,3290003016409,新規,0,2025-02-14,2025-02-14,合同会社日門田,,合同会社,福岡県,糸島市,志摩久家１９９２番地８,,40,230,8191331,,,,,,,2025-02-14,1,,,,,ヒモンデ,0
741,3340001027121,新規,0,2025-02-14,2025-02-14,ＵＮＩＴＥ株式会社,,株式会社,鹿児島県,霧島市,国分福島２丁目３０番２０号,,46,218,8994322,,,,,,,2025-02-14,1,,,,,ユナイト,0
746,3360001034784,新規,0,2025-02-14,2025-02-14,株式会社イーエイチピー,,株式会社,沖縄県,中頭郡西原町,上原２丁目３番地の６（レーヴ西原エコールＩＩ１３０１号）,00137991,47,329,9030125,,,,,,,2025-02-14,1,,,,,イーエイチピー,0
747,3360003014685,新規,0,2025-02-14,2025-02-14,合同会社ＨＲＭ,,合同会社,沖縄県,石垣市,字大川３６４－２,,47,207,9070022,,,,,,,2025-02-14,1,,,,,エイチアールエム,0
749,3370001052232,新規,0,2025-02-14,2025-02-14,株式会社ＣＲＡＺＹ　ＦＩＶＥ,,株式会社,宮城県,仙台市青葉区,本町２丁目６番２２号ベルツビル３階,,04,101,9800014,,,,,,,2025-02-14,1,,,,,クレイジーファイブ,0
750,3370003006938,新規,0,2025-02-14,2025-02-14,合同会社Ｉｖｙ,,合同会社,宮城県,仙台市青葉区,水の森３丁目１番５号,,04,101,9810962,,,,,,,2025-02-14,1,,,,,アイビー,0
758,3390003002349,新規,0,2025-02-14,2025-02-14,合同会社智,,合同会社,山形県,東置賜郡川西町,大字洲島６７０番地の１,,06,382,9990211,,,,,,,2025-02-14,1,,,,,サトリ,0
764,3430001093682,新規,0,2025-02-14,2025-02-14,株式会社ＪＹＣ,,株式会社,北海道,札幌市白石区,平和通１丁目北１０番２２カースル２１Ｃ号室,,01,104,0030029,,,,,,,2025-02-14,1,,,,,ジェイワイシー,0
767,3460303000854,新規,0,2025-02-14,2025-02-14,クロスフィールド合同会社,,合同会社,北海道,北見市,端野町端野１６８番地４,,01,208,0992104,,,,,,,2025-02-14,1,,,,,クロスフィールド,0
768,3470001020583,新規,0,2025-02-14,2025-02-14,株式会社Ｎｅｘｕｓ　Ｇｒｉｄ,,株式会社,香川県,観音寺市,豊浜町姫浜９９０番地１,,37,205,7691601,,,,,,,2025-02-14,1,,,,,ネクサスグリッド,0
776,4010001252065,新規,0,2025-02-14,2025-02-14,株式会社前之園会計事務所,,株式会社,東京都,千代田区,丸の内１丁目８番１号丸の内トラストタワーＮ館１９階,,13,101,1000005,,,,,,,2025-02-14,1,,,,,マエノソノカイケイジムショ,0
777,4010001252172,新規,0,2025-02-14,2025-02-14,株式会社Ｔｏｎｉｘ　Ｌａｂ,,株式会社,東京都,千代田区,神田三崎町２丁目１０－１１（Ｐｅｇビル）５Ａ－６号室,,13,101,1010061,,,,,,,2025-02-14,1,,,,,トニックスラボ,0
778,4010001252189,新規,0,2025-02-14,2025-02-14,株式会社ランドネクスト設立準備会社,,株式会社,東京都,千代田区,内神田１丁目７番６号,,13,101,1010047,,,,,,,2025-02-14,1,,,,,ランドネクストセツリツジュンビガイシャ,0
779,4010001252197,新規,0,2025-02-14,2025-02-14,株式会社ＲＡＣヘルスケア・コーポレーション,,株式会社,東京都,千代田区,麹町１丁目５番地６,,13,101,1020083,,,,,,,2025-02-14,1,,,,,ラックヘルスケアコーポレーション,0
780,4010001252230,新規,0,2025-02-14,2025-02-14,株式会社ＡＩ　Ｔｏ‐Ｂｅ,,株式会社,東京都,中央区,銀座１丁目１２番４号Ｎ＆ＥＢＬＤ．６Ｆ,,13,102,1040061,,,,,,,2025-02-14,1,,,,,エーアイトゥービー,0
784,4010003046399,新規,0,2025-02-14,2025-02-14,合同会社ＨＣＳ１,,合同会社,東京都,千代田区,霞が関３丁目２番５号,,13,101,1000013,,,,,,,2025-02-14,1,,,,,エイチシーエスワン,0
785,4010003046408,新規,0,2025-02-14,2025-02-14,合同会社響,,合同会社,東京都,中央区,日本橋室町１丁目１１番１２号７Ｆ,,13,102,1030022,,,,,,,2025-02-14,1,,,,,ヒビキ,0
787,4010103002509,新規,0,2025-02-14,2025-02-14,弦影社合同会社,,合同会社,東京都,八王子市,明神町２丁目２５－３、２０３号,,13,201,1920046,,,,,,,2025-02-14,1,,,,,ゲンキシャ,0
793,4010403034391,新規,0,2025-02-14,2025-02-14,Ｌｉｇｈｔｓｏｕｒｃｅ　Ｒｅｎｅｗａｂｌｅ　Ｅｎｅｒｇｙ　Ｄｅｖｅｌｏｐｍｅｎｔ　Ｊａｐａｎ合同会社,,合同会社,東京都,港区,赤坂１丁目１１番４４号赤坂インターシティ５階Ｆｏｒｖｉｓ・Ｍａｚａｒｓ・Ｊａｐａｎ株式会社内,,13,103,1070052,,,,,,,2025-02-14,1,,,,,ライトソースリニューアブルエナジーデベロップメントジャパン,0
794,4010403034400,新規,0,2025-02-14,2025-02-14,ＰＳキャピタル２合同会社,,合同会社,東京都,港区,赤坂２丁目３番５号赤坂スターゲートプラザ１３階,,13,103,1070052,,,,,,,2025-02-14,1,,,,,ピーエスキャピタルツー,0
796,4010503007727,新規,0,2025-02-14,2025-02-14,合同会社ＭＩＲＡＩ,,合同会社,東京都,台東区,千束２丁目７番７－３０２号メインステージ浅草入谷ＩＩ,00137996,13,106,1110031,,,,,,,2025-02-14,1,,,,,ミライ,0
800,4010601066773,新規,0,2025-02-14,2025-02-14,フルーツトラスト株式会社,,株式会社,東京都,江東区,有明１丁目４番２０号,,13,108,1350063,,,,,,,2025-02-14,1,,,,,フルーツトラスト,0
806,4010903009711,新規,0,2025-02-14,2025-02-14,合同会社ユニコーン,,合同会社,東京都,世田谷区,大原１丁目６２番５号,,13,112,1560041,,,,,,,2025-02-14,1,,,,,ユニコーン,0
812,4011003020889,新規,0,2025-02-14,2025-02-14,ＮＪｏｕｒｎｅｙ合同会社,,合同会社,東京都,渋谷区,渋谷２丁目１９‐１５宮益坂ビルディング６０９,,13,113,1500002,,,,,,,2025-02-14,1,,,,,エヌジャーニー,0
813,4011003020922,新規,0,2025-02-14,2025-02-14,Ｔ２サミットソリューションズ合同会社,,合同会社,東京都,目黒区,自由が丘１丁目１６－１８,,13,110,1520035,,,,,,,2025-02-14,1,,,,,ティーツーサミットソリューションズ,0
815,4011101110542,新規,0,2025-02-14,2025-02-14,株式会社Ｕ＆Ｃｏ．,,株式会社,東京都,新宿区,西新宿３丁目３番１３号西新宿水間ビル６階,,13,104,1600023,,,,,,,2025-02-14,1,,,,,ユーアンドコー,0
816,4011101110591,新規,0,2025-02-14,2025-02-14,瑞＿株式会社,00137997,株式会社,東京都,新宿区,富久町３２－３東新富久町ビル２０１,,13,104,1620067,,,,,,,2025-02-14,1,,,,,ズイキン,0
817,4011101110609,新規,0,2025-02-14,2025-02-14,株式会社ライズアップ,,株式会社,東京都,新宿区,新宿２丁目１２番４号アコード新宿ビル４Ｆ,,13,104,1600022,,,,,,,2025-02-14,1,,,,,ライズアップ,0
818,4011101110617,新規,0,2025-02-14,2025-02-14,ＳｕｎＦｏｒｇｅ株式会社,,株式会社,東京都,新宿区,西新宿３丁目３番１３号西新宿水間ビル６階,,13,104,1600023,,,,,,,2025-02-14,1,,,,,サンフォージ,0
823,4011301030334,新規,0,2025-02-14,2025-02-14,株式会社ＮＥＷ　ＴＯＫＡＩ,,株式会社,東京都,杉並区,久我山４丁目４４番４号,,13,115,1680082,,,,,,,2025-02-14,1,,,,,ニュートウカイ,0
824,4011303005417,新規,0,2025-02-14,2025-02-14,日の丸Ｏｎｅ合同会社,,合同会社,東京都,杉並区,桃井２丁目１６番１１号,,13,115,1670034,,,,,,,2025-02-14,1,,,,,ヒノマルワン,0
827,4011403004616,新規,0,2025-02-14,2025-02-14,合同会社昭＿合,00137993,合同会社,東京都,板橋区,仲宿６３番７号ＯＥＯｆｆｉｃｅＢｌｄｇ．１０６号,,13,119,1730005,,,,,,,2025-02-14,1,,,,,ショウキンアイ,0
830,4011501031693,新規,0,2025-02-14,2025-02-14,イーステージ株式会社,,株式会社,東京都,北区,東田端１丁目１０番８号,,13,117,1140013,,,,,,,2025-02-14,1,,,,,イーステージ,0
831,4011501031702,新規,0,2025-02-14,2025-02-14,株式会社一心,,株式会社,東京都,北区,滝野川６丁目４１番５号,,13,117,1140023,,,,,,,2025-02-14,1,,,,,イッシン,0
833,4011601028425,新規,0,2025-02-14,2025-02-14,株式会社Ｋｕａｎａ,,株式会社,東京都,練馬区,桜台５丁目４０番１３号,,13,120,1760002,,,,,,,2025-02-14,1,,,,,クアナ,0
834,4011601028433,新規,0,2025-02-14,2025-02-14,株式会社ＹＸＢ,,株式会社,東京都,練馬区,大泉学園町４丁目２０番１１号,,13,120,1780061,,,,,,,2025-02-14,1,,,,,ワイエクスビー,0
838,4011703004118,新規,0,2025-02-14,2025-02-14,Ａｒｂｏｒｉｓ合同会社,,合同会社,東京都,江戸川区,平井５丁目４４番６－３０７号,,13,123,1320035,,,,,,,2025-02-14,1,,,,,アーボリス,0
840,4011801045609,新規,0,2025-02-14,2025-02-14,株式会社いすずＣＬ,,株式会社,東京都,葛飾区,西新小岩３丁目１２番７号,,13,122,1240025,,,,,,,2025-02-14,1,,,,,イスズシーエル,0
841,4011801045641,新規,0,2025-02-14,2025-02-14,グリーンフラッグ株式会社,,株式会社,東京都,足立区,梅田８丁目１２号７番梅島ビューハイツ５０５号室,,13,121,1230851,,,,,,,2025-02-14,1,,,,,グリーンフラッグ,0
845,4012403006973,新規,0,2025-02-14,2025-02-14,合同会社ｎｉｘｔｅｃｌｉａ,,合同会社,東京都,府中市,武蔵台１丁目３番７号カナディアンハイム,,13,206,1830042,,,,,,,2025-02-14,1,,,,,ニクステクリア,0
851,4020001161331,新規,0,2025-02-14,2025-02-14,株式会社松下建設,,株式会社,神奈川県,川崎市川崎区,川中島２丁目１０番１５号,,14,131,2100803,,,,,,,2025-02-14,1,,,,,マツシタケンセツ,0
852,4020001161430,新規,0,2025-02-14,2025-02-14,株式会社エムサポート,,株式会社,神奈川県,横浜市旭区,上白根３丁目３５－２－６０３,,14,112,2410002,,,,,,,2025-02-14,1,,,,,エムサポート,0
855,4020003027571,新規,0,2025-02-14,2025-02-14,合同会社戸塚会計事務所,,合同会社,神奈川県,横浜市中区,日本大通７,,14,104,2310021,,,,,,,2025-02-14,1,,,,,トツカカイケイジムショ,0
859,4021001084472,新規,0,2025-02-14,2025-02-14,株式会社定食屋しゃもじ,,株式会社,神奈川県,鎌倉市,長谷１丁目１５－２－１Ｆ,,14,204,2480016,,,,,,,2025-02-14,1,,,,,テイショクヤシャモジ,0
868,4030003026102,新規,0,2025-02-14,2025-02-14,Ｌ＆Ｂサポーター合同会社,,合同会社,埼玉県,熊谷市,相上１８５４－３,,11,202,3690106,,,,,,,2025-02-14,1,,,,,エルアンドビーサポーター,0
875,4040001137379,新規,0,2025-02-14,2025-02-14,ＨＯＰＥＥ　ＧＲＯＵＰ株式会社,,株式会社,千葉県,柏市,中十余二３９８－１中央１８２街区９プレシス柏の葉キャンパス９０５,,12,217,2770873,,,,,,,2025-02-14,1,,,,,,0
876,4040001137387,新規,0,2025-02-14,2025-02-14,株式会社イヤーワン,,株式会社,千葉県,袖ケ浦市,福王台２丁目１１番地１１,,12,229,2990261,,,,,,,2025-02-14,1,,,,,イヤーワン,0
885,4060001037908,新規,0,2025-02-14,2025-02-14,株式会社ｄｒｅａｍ,,株式会社,栃木県,宇都宮市,鐺山町２３７９番地,,09,201,3213235,,,,,,,2025-02-14,1,,,,,ドリーム,0
886,4070001042626,新規,0,2025-02-14,2025-02-14,株式会社シークエスト,,株式会社,群馬県,太田市,新田市野井町２９８番地３,,10,205,3700314,,,,,,,2025-02-14,1,,,,,シークエスト,0
887,4070003005795,新規,0,2025-02-14,2025-02-14,合同会社ｂｕｌｌ’ｓ‐ｅｙｅ,,合同会社,群馬県,前橋市,下佐鳥町４３８番地１,,10,201,3710815,,,,,,,2025-02-14,1,,,,,ブルズアイ,0
916,4120001272762,新規,0,2025-02-14,2025-02-14,株式会社ａｎｄ　ＣＯ,,株式会社,大阪府,大阪市住吉区,万代３丁目１１番１４号,,27,120,5580055,,,,,,,2025-02-14,1,,,,,アンドコー,0
917,4120001272886,新規,0,2025-02-14,2025-02-14,ＪＭ　ＥＮＧＩＮＥＥＲＩＮＧ株式会社,,株式会社,大阪府,大阪市北区,中崎２丁目６番５号,,27,127,5300016,,,,,,,2025-02-14,1,,,,,ジーエムエンジニアリング,0
918,4120001272894,新規,0,2025-02-14,2025-02-14,株式会社ＴＫ企画,,株式会社,大阪府,大阪市住之江区,北加賀屋４丁目５－１８,,27,125,5590011,,,,,,,2025-02-14,1,,,,,ティーケイキカク,0
919,4120001272936,新規,0,2025-02-14,2025-02-14,株式会社友昌,,株式会社,大阪府,大阪市西成区,山王２丁目１０番１３号,,27,122,5570001,,,,,,,2025-02-14,1,,,,,ユウショウ,0
920,4120003028634,新規,0,2025-02-14,2025-02-14,ＡＩＰ合同会社,,合同会社,大阪府,大阪市西区,阿波座２丁目２－２０オフィスポート本町ＷＥＳＴ９－Ｄ,,27,106,5500011,,,,,,,2025-02-14,1,,,,,エイアイピー,0
931,4122003003113,新規,0,2025-02-14,2025-02-14,ＡＨＯＮＧ合同会社,,合同会社,大阪府,東大阪市,水走１丁目３－４５－３０６室,,27,227,5780921,,,,,,,2025-02-14,1,,,,,アオホン,0
933,4130001078985,新規,0,2025-02-14,2025-02-14,株式会社２０５,,株式会社,京都府,京都市左京区,吉田上阿達町４２番地,,26,103,6068307,,,,,,,2025-02-14,1,,,,,ニイマルゴ,0
940,4140001137402,新規,0,2025-02-14,2025-02-14,株式会社エムサポート,,株式会社,兵庫県,姫路市,飾磨区構５丁目３４番地ハイツ竹っ娘１０１,,28,201,6728071,,,,,,,2025-02-14,1,,,,,エムサポート,0
944,4140003021653,新規,0,2025-02-14,2025-02-14,合同会社ＫＫ,,合同会社,兵庫県,神戸市中央区,琴ノ緒町２丁目３－５－１００３,,28,110,6510094,,,,,,,2025-02-14,1,,,,,ケーケー,0
945,4140003021661,新規,0,2025-02-14,2025-02-14,合同会社ゆとり研究所,,合同会社,兵庫県,神戸市中央区,磯辺通１丁目１番１８号カサベラ国際プラザビル７０７号室,,28,110,6510084,,,,,,,2025-02-14,1,,,,,ユトリケンキュウジョ,0
952,4180003027812,新規,0,2025-02-14,2025-02-14,Ｐｒｏｘｉｍａ合同会社,,合同会社,愛知県,名古屋市中村区,上石川町４丁目１９サンハイム和泉３０２号,,23,105,4530835,,,,,,,2025-02-14,1,,,,,プロキシマ,0
956,4190003004942,新規,0,2025-02-14,2025-02-14,合同会社Ｉ＆ｉ　ｌｉｎｋ,,合同会社,三重県,津市,一志町田尻３４６‐３３,,24,201,5152516,,,,,,,2025-02-14,1,,,,,アイアンドアイリンク,0
957,4190005012019,新規,0,2025-02-14,2025-02-14,一般社団法人ＭｉＲＡＩ,,その他の設立登記法人,三重県,鈴鹿市,東旭が丘７丁目１番地の７１,,24,207,5100211,,,,,,,2025-02-14,1,,,,,ミライ,0
958,4210003001887,新規,0,2025-02-14,2025-02-14,Ａｔｒｕｍ合同会社,,合同会社,福井県,鯖江市,入町第９号１番地５,,18,207,9160008,,,,,,,2025-02-14,1,,,,,アートルム,0
966,4260003005058,新規,0,2025-02-14,2025-02-14,合同会社エスエス企画,,合同会社,岡山県,岡山市北区,野田５丁目９番５号スキポール野田１号室,,33,101,7000971,,,,,,,2025-02-14,1,,,,,エスエスキカク,0
977,4290001108974,新規,0,2025-02-14,2025-02-14,株式会社ソリシア,,株式会社,福岡県,福岡市早良区,南庄２丁目８番８－４０７号,,40,137,8140031,,,,,,,2025-02-14,1,,,,,ソリシア,0
986,4330001032889,新規,0,2025-02-14,2025-02-14,誠天商事株式会社,,株式会社,熊本県,熊本市中央区,辛島町４－３５ラ・シック辛島１０階１０１０号室,,43,101,8600804,,,,,,,2025-02-14,1,,,,,セイテンショウジ,0
989,4330005010874,新規,0,2025-02-14,2025-02-14,司法書士法人鹿本しずか事務所,,その他の設立登記法人,熊本県,熊本市東区,西原１丁目１２番１１号,,43,102,8618029,,,,,,,2025-02-14,1,,,,,シカモトシズカジムショ,0
991,4340001027120,新規,0,2025-02-14,2025-02-14,株式会社リトル・ミラクル,,株式会社,鹿児島県,熊毛郡屋久島町,小瀬田８３５番地８１,,46,505,8914207,,,,,,,2025-02-14,1,,,,,リトルミラクル,0
1005,4430001093665,新規,0,2025-02-14,2025-02-14,株式会社テレ・マーカー,,株式会社,北海道,札幌市中央区,大通西５丁目１１番地１,,01,101,0600042,,,,,,,2025-02-14,1,,,,,テレマーカー,0
1006,4430001093681,新規,0,2025-02-14,2025-02-14,株式会社ＭＫ,,株式会社,北海道,札幌市豊平区,美園十二条７丁目３番１７号,,01,105,0620012,,,,,,,2025-02-14,1,,,,,エムケー,0
1027,5010001252015,新規,0,2025-02-14,2025-02-14,株式会社ＣＬＥＡＲ,,株式会社,東京都,中央区,銀座１丁目１２－４Ｎ＆ＥＢＬＤ．７階,,13,102,1040061,,,,,,,2025-02-14,1,,,,,クリア,0
1028,5010001252213,新規,0,2025-02-14,2025-02-14,株式会社さきわいみち,,株式会社,東京都,中央区,日本橋人形町１丁目５番１号,,13,102,1030013,,,,,,,2025-02-14,1,,,,,サキワイミチ,0
1029,5010001252221,新規,0,2025-02-14,2025-02-14,株式会社ＡＶＡＬＯＮ,,株式会社,東京都,中央区,銀座２丁目１３番１６－５０６号,,13,102,1040061,,,,,,,2025-02-14,1,,,,,アヴァロン,0
1030,5010001252238,新規,0,2025-02-14,2025-02-14,株式会社ＭＩＴＳＵＨＩＲＯ,,株式会社,東京都,千代田区,神田須田町１丁目２４－３０,,13,101,1010041,,,,,,,2025-02-14,1,,,,,ミツヒロ,0
1031,5010001252246,新規,0,2025-02-14,2025-02-14,株式会社ボンキュイエール,,株式会社,東京都,千代田区,内神田３丁目４番４号寿々木ビル１階,,13,101,1010047,,,,,,,2025-02-14,1,,,,,ボンキュイエール,0
1032,5010001252262,新規,0,2025-02-14,2025-02-14,株式会社フルーツキャピタル,,株式会社,東京都,中央区,勝どき５丁目３番１号,,13,102,1040054,,,,,,,2025-02-14,1,,,,,フルーツキャピタル,0
1034,5010003046398,新規,0,2025-02-14,2025-02-14,サリックス合同会社,,合同会社,東京都,中央区,勝どき１丁目１３番６‐４００５号,,13,102,1040054,,,,,,,2025-02-14,1,,,,,サリックス,0
1037,5010005039573,新規,0,2025-02-14,2025-02-14,一般社団法人京橋ＯＮＥ,,その他の設立登記法人,東京都,中央区,日本橋１丁目４番１号日本橋一丁目ビルディング,,13,102,1030027,,,,,,,2025-02-14,1,,,,,キョウバシワン,0
1044,5010401186738,新規,0,2025-02-14,2025-02-14,株式会社風雷,,株式会社,東京都,港区,南青山２丁目２番１５号ｗｉｎ青山５３１,,13,103,1070062,,,,,,,2025-02-14,1,,,,,フウライ,0
1045,5010401188115,新規,0,2025-02-14,2025-02-14,Ｉ＆Ｎ　Ｒｅｃｒｕｉｔｍｅｎｔ株式会社,,株式会社,東京都,港区,元赤坂１丁目２番７号,,13,103,1070051,,,,,,,2025-02-14,1,,,,,アイアンドエヌリクルートメント,0
1046,5010401188148,新規,0,2025-02-14,2025-02-14,株式会社どんぞこ,,株式会社,東京都,港区,六本木３丁目７番１－４２０号,,13,103,1060032,,,,,,,2025-02-14,1,,,,,ドンゾコ,0
1047,5010401188239,新規,0,2025-02-14,2025-02-14,株式会社ラバーダック,,株式会社,東京都,港区,白金台４丁目３番２号タカサゴ白金台３０２,,13,103,1080071,,,,,,,2025-02-14,1,,,,,ラバーダック,0
1052,5010403034390,新規,0,2025-02-14,2025-02-14,合同会社ラインヒル,,合同会社,東京都,港区,南青山４丁目１番６号,,13,103,1070062,,,,,,,2025-02-14,1,,,,,ラインヒル,0
1076,5011001167599,新規,0,2025-02-14,2025-02-14,株式会社鶴来屋,,株式会社,東京都,目黒区,鷹番１丁目１４番２２号,,13,110,1520004,,,,,,,2025-02-14,1,,,,,ツルギヤ,0
1078,5011101110624,新規,0,2025-02-14,2025-02-14,株式会社Ｇｉｎａｎ,,株式会社,東京都,新宿区,西新宿３丁目３－１３西新宿水間ビル２Ｆ,,13,104,1600023,,,,,,,2025-02-14,1,,,,,ギナン,0
1079,5011101110640,新規,0,2025-02-14,2025-02-14,株式会社トライデント,,株式会社,東京都,新宿区,市谷加賀町１丁目２番１－６０２号,,13,104,1620062,,,,,,,2025-02-14,1,,,,,トライデント,0
1080,5011101110657,新規,0,2025-02-14,2025-02-14,株式会社Ｔ　ＰＬＡＮ,,株式会社,東京都,新宿区,新宿１丁目２８－１７ライトテラス新宿御苑１５０４,,13,104,1600022,,,,,,,2025-02-14,1,,,,,ティープラン,0
1083,5011103015532,新規,0,2025-02-14,2025-02-14,あっとＮ合同会社,,合同会社,東京都,新宿区,西新宿３丁目３番１３号西新宿水間ビル６階,,13,104,1600023,,,,,,,2025-02-14,1,,,,,アットエヌ,0
1087,5011401026818,新規,0,2025-02-14,2025-02-14,アシカ株式会社,,株式会社,東京都,板橋区,板橋１丁目４５番１落合ビル３階,,13,119,1730004,,,,,,,2025-02-14,1,,,,,アシカ,0
1090,5011501031684,新規,0,2025-02-14,2025-02-14,株式会社ＣＡＣＴＵＳ,,株式会社,東京都,荒川区,西日暮里２丁目１６番３－４０３号パロス日暮里,,13,118,1160013,,,,,,,2025-02-14,1,,,,,カスタス,0
1097,5012801023743,新規,0,2025-02-14,2025-02-14,株式会社力山,,株式会社,東京都,昭島市,武蔵野３丁目３番４－６２０号,,13,207,1960021,,,,,,,2025-02-14,1,,,,,リキヤマ,0
1100,5013301053776,新規,0,2025-02-14,2025-02-14,アークテラス株式会社,,株式会社,東京都,豊島区,池袋２丁目３６番１号,,13,116,1710014,,,,,,,2025-02-14,1,,,,,アークテラス,0
1106,5020001161314,新規,0,2025-02-14,2025-02-14,セレントリップ株式会社,,株式会社,神奈川県,横浜市青葉区,青葉台１丁目５番地４青葉台サンクスビル３階,,14,117,2270062,,,,,,,2025-02-14,1,,,,,セレントリップ,0
1107,5020001161339,新規,0,2025-02-14,2025-02-14,株式会社ティーエス,,株式会社,神奈川県,横浜市磯子区,杉田３丁目３番３号,,14,107,2350033,,,,,,,2025-02-14,1,,,,,ティーエス,0
1112,5020003027777,新規,0,2025-02-14,2025-02-14,合同会社マツモトラボ,,合同会社,神奈川県,横浜市都筑区,南山田２丁目１番３－２０２号,,14,118,2240029,,,,,,,2025-02-14,1,,,,,マツモトラボ,0
1113,5020003027802,新規,0,2025-02-14,2025-02-14,合同会社ＹｏｓｓａｎＸ,,合同会社,神奈川県,横浜市神奈川区,金港町５－１４クアドリフォリオ８階,,14,102,2210056,,,,,,,2025-02-14,1,,,,,ヨッサンクス,0
1120,5021003015581,新規,0,2025-02-14,2025-02-14,合同会社Ｌｉｍｅ　ｊａｍ,,合同会社,神奈川県,足柄上郡中井町,藤沢９０５－１,,14,361,2590152,,,,,,,2025-02-14,1,,,,,ライムジャム,0
1122,5021005013278,新規,0,2025-02-14,2025-02-14,一般社団法人日本未来教育研究機構,,その他の設立登記法人,神奈川県,足柄上郡大井町,金手１００９番地３,,14,362,2580018,,,,,,,2025-02-14,1,,,,,ニホンミライキョウイクケンキュウキコウ,0
1129,5030001164852,新規,0,2025-02-14,2025-02-14,株式会社井田機工,,株式会社,埼玉県,熊谷市,伊勢町４６番地２,,11,202,3600821,,,,,,,2025-02-14,1,,,,,イダキコウ,0
1136,5040001137378,新規,0,2025-02-14,2025-02-14,クワダテマゼル株式会社,,株式会社,千葉県,柏市,中十余二３９８－１中央１８２街区９プレシス柏の葉キャンパス９０５号,,12,217,2770873,,,,,,,2025-02-14,1,,,,,タワダテマゼル,0
1142,5060001037907,新規,0,2025-02-14,2025-02-14,株式会社モンテベール,,株式会社,栃木県,宇都宮市,高砂町３番４号,,09,201,3210134,,,,,,,2025-02-14,1,,,,,モンテベール,0
1157,5100003007993,新規,0,2025-02-14,2025-02-14,Ｔｗｉｎ　Ｐｅａｋｓ合同会社,,合同会社,長野県,北安曇郡白馬村,大字神城２２２０３番地１５７,,20,485,3999211,,,,,,,2025-02-14,1,,,,,ツインピークス,0
1168,5120001272679,新規,0,2025-02-14,2025-02-14,株式会社ＩＳＳＨＩＮ,,株式会社,大阪府,大阪市西成区,松１丁目１０‐２９Ｋ２マンション２０５号,,27,122,5570034,,,,,,,2025-02-14,1,,,,,イッシン,0
1169,5120001272869,新規,0,2025-02-14,2025-02-14,晋陽株式会社,,株式会社,大阪府,大阪市東淀川区,下新庄４丁目２０－７－４０５,,27,114,5330021,,,,,,,2025-02-14,1,,,,,シンヨウ,0
1170,5120001272885,新規,0,2025-02-14,2025-02-14,株式会社アグリトリート,,株式会社,大阪府,大阪市東淀川区,東中島１丁目２０番４－９２０,,27,114,5330033,,,,,,,2025-02-14,1,,,,,アグリトリート,0
1171,5120001272935,新規,0,2025-02-14,2025-02-14,株式会社新芽,,株式会社,大阪府,大阪市生野区,林寺４丁目７番７号,,27,116,5440023,,,,,,,2025-02-14,1,,,,,シンメ,0
1177,5120003028591,新規,0,2025-02-14,2025-02-14,合同会社大平メディカル,,合同会社,大阪府,大阪市北区,梅田１丁目１－３大阪駅前第３ビル２９階１－１－１号室,,27,127,5300001,,,,,,,2025-02-14,1,,,,,オオヒラメディカル,0
1178,5120003028617,新規,0,2025-02-14,2025-02-14,玲瓏合同会社,,合同会社,大阪府,大阪市生野区,巽西３丁目１３番１０号３０２号室,00137992,27,116,5440012,,,,,,,2025-02-14,1,,,,,リンロン,0
1179,5120003028625,新規,0,2025-02-14,2025-02-14,セカロジ合同会社,,合同会社,大阪府,大阪市淀川区,西宮原３丁目３番５－４０２号,,27,123,5320004,,,,,,,2025-02-14,1,,,,,セカロジ,0
1180,5120003028633,新規,0,2025-02-14,2025-02-14,合同会社Ｋ‐Ｌｉｓｅｒ,,合同会社,大阪府,大阪市中央区,上汐２丁目４番２サンキビル４０３号,,27,128,5420064,,,,,,,2025-02-14,1,,,,,ケーライザー,0
1185,5122001038886,新規,0,2025-02-14,2025-02-14,アルハディ株式会社,,株式会社,大阪府,四條畷市,大字清瀧１０２２－１０,,27,229,5750063,,,,,,,2025-02-14,1,,,,,アルハディ,0
1186,5122001038894,新規,0,2025-02-14,2025-02-14,株式会社アスリートケア,,株式会社,大阪府,東大阪市,水走３丁目１２番７号,,27,227,5780921,,,,,,,2025-02-14,1,,,,,アスリートケア,0
1195,5140003021636,新規,0,2025-02-14,2025-02-14,Ａｐｅｘ合同会社,,合同会社,兵庫県,神戸市兵庫区,駅前通４丁目２番３号池田ビル西１０１号屋,,28,105,6520898,,,,,,,2025-02-14,1,,,,,アペックス,0
1200,5160001026544,新規,0,2025-02-14,2025-02-14,みらい指針株式会社,,株式会社,滋賀県,大津市,朝日が丘１丁目２４番１６－７０５号,,25,201,5200052,,,,,,,2025-02-14,1,,,,,ミライシシン,0
1206,5180001165398,新規,0,2025-02-14,2025-02-14,株式会社Ｌｕｍｉｎｅ,,株式会社,愛知県,愛西市,古瀬町郷内１０番地,,23,232,4968004,,,,,,,2025-02-14,1,,,,,ルミネ,0
1207,5180001165431,新規,0,2025-02-14,2025-02-14,株式会社ＲｅＧｕｉｌｄ,,株式会社,愛知県,名古屋市中区,大須２丁目２３番４１号グランドソレイユ大須白河１階,,23,106,4600011,,,,,,,2025-02-14,1,,,,,リギルド,0
1208,5180001165448,新規,0,2025-02-14,2025-02-14,株式会社Ｓｉｍｐｌｅ　Ｌｉｆｅ,,株式会社,愛知県,名古屋市西区,菊井２丁目１９番８号１０１２,,23,104,4510044,,,,,,,2025-02-14,1,,,,,シンプルライフ,0
1210,5180003027992,新規,0,2025-02-14,2025-02-14,合同会社ＳＡＮＭＩ,,合同会社,愛知県,名古屋市南区,柴田本通５丁目５番地カニエハイツ３０１号,,23,112,4570814,,,,,,,2025-02-14,1,,,,,サンミ,0
1237,5290003016407,新規,0,2025-02-14,2025-02-14,合同会社ｍｏｅ,,合同会社,福岡県,福岡市中央区,赤坂３丁目１－１０フローレンス桜坂３０１,,40,133,8100042,,,,,,,2025-02-14,1,,,,,モエ,0
1241,5310003004945,新規,0,2025-02-14,2025-02-14,合同会社つなぐ,,合同会社,長崎県,佐世保市,勝海町２６１番地８,,42,202,8593216,,,,,,,2025-02-14,1,,,,,ツナグ,0
1244,5330001032888,新規,0,2025-02-14,2025-02-14,ｍｅｉｎｅ株式会社,,株式会社,熊本県,熊本市西区,花園５丁目３１番７号,,43,103,8600072,,,,,,,2025-02-14,1,,,,,マイネ,0
1250,5360001034790,新規,0,2025-02-14,2025-02-14,信商事株式会社,,株式会社,沖縄県,那覇市,樋川１丁目３５番１号カンセイホーム樋川２－Ｆ,,47,201,9000022,,,,,,,2025-02-14,1,,,,,シンショウジ,0
1253,5370003006936,新規,0,2025-02-14,2025-02-14,合同会社三陸商産,,合同会社,宮城県,気仙沼市,唐桑町神の倉１２６番地３,,04,205,9880553,,,,,,,2025-02-14,1,,,,,サンリクショウサン,0
1259,5380001035077,新規,0,2025-02-14,2025-02-14,ＪＭＫホールディングス株式会社,,株式会社,福島県,二本松市,針道字佐勢ノ宮２２番地１,,07,210,9640202,,,,,,,2025-02-14,1,,,,,ジェーエムケーホールディングス,0
1264,5420001019018,新規,0,2025-02-14,2025-02-14,株式会社エアテラス,,株式会社,青森県,青森市,久須志２丁目１２－１－１０２,,02,201,0380013,,,,,,,2025-02-14,1,,,,,エアテラス,0
1266,5420003003069,新規,0,2025-02-14,2025-02-14,合同会社明王工業,,合同会社,青森県,上北郡六ヶ所村,大字泊字川原１５９番地,,02,411,0394301,,,,,,,2025-02-14,1,,,,,メイオウコウギョウ,0
1270,5430001093664,新規,0,2025-02-14,2025-02-14,株式会社タスクソリューション,,株式会社,北海道,札幌市中央区,南一条西６丁目１５番地１,,01,101,0600061,,,,,,,2025-02-14,1,,,,,タスクソリューション,0
1271,5430001093680,新規,0,2025-02-14,2025-02-14,株式会社ＯＲＯＣＨＩ,,株式会社,北海道,札幌市清田区,平岡四条３丁目２３番１５号,,01,110,0040874,,,,,,,2025-02-14,1,,,,,オロチ,0
1274,5430003017274,新規,0,2025-02-14,2025-02-14,合同会社千歳屋,,合同会社,北海道,千歳市,弥生３丁目１７番４号,,01,224,0660024,,,,,,,2025-02-14,1,,,,,チトセヤ,0
1275,5430003017282,新規,0,2025-02-14,2025-02-14,合同会社Ｍｏｕｎｔａｉｎ　Ｌａｂ．,,合同会社,北海道,浦河郡浦河町,字上杵臼９２６番地の２,,01,607,0570173,,,,,,,2025-02-14,1,,,,,ヤマラボ,0
1287,6010001251759,新規,0,2025-02-14,2025-02-14,ヒトヒカリキャリアリンク株式会社,,株式会社,東京都,千代田区,神田淡路町１丁目９番５号,,13,101,1010063,,,,,,,2025-02-14,1,,,,,ヒトヒカリキャリアリンク,0
1288,6010001252212,新規,0,2025-02-14,2025-02-14,エッジコンサルティング株式会社,,株式会社,東京都,中央区,日本橋室町１丁目１１番１２号日本橋水野ビル７階,,13,102,1030022,,,,,,,2025-02-14,1,,,,,エッジコンサルティング,0
1289,6010001252220,新規,0,2025-02-14,2025-02-14,ｎｏｓ株式会社,,株式会社,東京都,中央区,銀座１丁目１２番４号Ｎ＆ＥＢＬＤ．６Ｆ,,13,102,1040061,,,,,,,2025-02-14,1,,,,,ノス,0
1290,6010001252229,新規,0,2025-02-14,2025-02-14,クオルガ株式会社,,株式会社,東京都,千代田区,大手町１丁目６番１号大手町ビル６階Ｉｎｓｐｉｒｅｄｌａｂ,,13,101,1000004,,,,,,,2025-02-14,1,,,,,クオルガ,0
1291,6010001252253,新規,0,2025-02-14,2025-02-14,株式会社弥鑑定,,株式会社,東京都,中央区,日本橋人形町１丁目１０番３号,,13,102,1030013,,,,,,,2025-02-14,1,,,,,アマネカンテイ,0
1294,6010003046397,新規,0,2025-02-14,2025-02-14,合同会社Ｈ‐ｃｌｏｕｄ,,合同会社,東京都,中央区,銀座１丁目１２番４号Ｎ＆ＥＢＬＤ．６Ｆ,,13,102,1040061,,,,,,,2025-02-14,1,,,,,エイチクラウド,0
1304,6010401188031,新規,0,2025-02-14,2025-02-14,株式会社Ｏｍｕｓｕｂｉ　ＴｅｃＨ,,株式会社,東京都,港区,芝１丁目６番１０号芝ＳＩＡビル３Ｆ,,13,103,1050014,,,,,,,2025-02-14,1,,,,,オムスビテック,0
1305,6010401188139,新規,0,2025-02-14,2025-02-14,株式会社ＮＥＵＴＯＮＥ,,株式会社,東京都,港区,虎ノ門１丁目１番１２号－８０２,,13,103,1050001,,,,,,,2025-02-14,1,,,,,ノイトーン,0
1308,6010403034282,新規,0,2025-02-14,2025-02-14,Ｈｕａｌａｌａｉ　Ｆａｒｍｓ合同会社,,合同会社,東京都,港区,新橋２丁目１６－１ニュー新橋ビル９ＦＫｅｅｙｌｓＳｕｉｔｅ,,13,103,1050004,,,,,,,2025-02-14,1,,,,,フアラライファーム,0
1309,6010403034332,新規,0,2025-02-14,2025-02-14,合同会社Ｌｉｖｅ　Ｐｒｏｔｅｃｔｉｏｎ,,合同会社,東京都,港区,北青山１丁目３番１号アールキューブ青山３階,,13,103,1070061,,,,,,,2025-02-14,1,,,,,ライブプロテクション,0
1310,6010403034381,新規,0,2025-02-14,2025-02-14,合同会社ｗｏｏｄｓｈｉｐ,,合同会社,東京都,港区,虎ノ門３丁目１１番９号シュミット虎ノ門ビル３Ｆ,,13,103,1050001,,,,,,,2025-02-14,1,,,,,ウッドシップ,0
1311,6010405024050,新規,0,2025-02-14,2025-02-14,一般社団法人国際メイクアップタトゥー協会,,その他の設立登記法人,東京都,港区,南青山３丁目１番３６号青山丸竹ビル６Ｆ,,13,103,1070062,,,,,,,2025-02-14,1,,,,,コクサイメイクアップタトゥーキョウカイ,0
1322,6010701047250,新規,0,2025-02-14,2025-02-14,ＮｅｘＧｌｏｒｉ株式会社,,株式会社,東京都,品川区,東五反田１丁目１９番４号,,13,109,1410022,,,,,,,2025-02-14,1,,,,,ネクスグローリ,0
1326,6010703007566,新規,0,2025-02-14,2025-02-14,高卯合同会社,00137989,合同会社,東京都,品川区,東品川４丁目１０番１８号,,13,109,1400002,,,,,,,2025-02-14,1,,,,,タカウ,0
1339,6011003020912,新規,0,2025-02-14,2025-02-14,Ｅｖａｎｓ合同会社,,合同会社,東京都,渋谷区,神泉町３番５－４０１号,,13,113,1500045,,,,,,,2025-02-14,1,,,,,エバンス,0
1340,6011005010861,新規,0,2025-02-14,2025-02-14,一般財団法人海外医療萌芽支援財団,,その他の設立登記法人,東京都,渋谷区,恵比寿３丁目３番５号ドルミ恵比寿５０３,,13,113,1500013,,,,,,,2025-02-14,1,,,,,カイガイイリョウホウガシエンザイダン,0
1343,6011101110631,新規,0,2025-02-14,2025-02-14,株式会社ＳＳＪ,,株式会社,東京都,新宿区,西新宿５丁目５番１－１２１２号,,13,104,1600023,,,,,,,2025-02-14,1,,,,,エスエスジェー,0
1345,6011403004614,新規,0,2025-02-14,2025-02-14,合同会社Ｌｙｃｏｒｉｓ,,合同会社,東京都,板橋区,大山西町５３番１１号ロイジェント大山西町４０６,,13,119,1730033,,,,,,,2025-02-14,1,,,,,リコリス,0
1347,6011501031700,新規,0,2025-02-14,2025-02-14,株式会社ＴｏｔｏＫｅｌｌｙ,,株式会社,東京都,荒川区,南千住４丁目７番３号,,13,118,1160003,,,,,,,2025-02-14,1,,,,,トトケリー,0
1348,6011501031709,新規,0,2025-02-14,2025-02-14,株式会社ゼロワン,,株式会社,東京都,荒川区,東日暮里２丁目３１番３号ＣＯＣＯＣＵＢＥ東日暮里４０２,,13,118,1160014,,,,,,,2025-02-14,1,,,,,ゼロワン,0
1360,6012401042770,新規,0,2025-02-14,2025-02-14,株式会社ＨＹＫＥ,,株式会社,東京都,武蔵野市,西久保３丁目２３番１１号,,13,203,1800013,,,,,,,2025-02-14,1,,,,,ハイク,0
1361,6012801023750,新規,0,2025-02-14,2025-02-14,株式会社スケートタウン,,株式会社,東京都,立川市,高松町２丁目１１番１２号メゾンドカルムＡ２０１号,,13,202,1900011,,,,,,,2025-02-14,1,,,,,スケートタウン,0
1365,6020001161338,新規,0,2025-02-14,2025-02-14,Ｈ＆Ｋ不動産株式会社,,株式会社,神奈川県,川崎市宮前区,宮前平３丁目１２番地１７ヒルズ宮前平４０２,,14,136,2160006,,,,,,,2025-02-14,1,,,,,エイチアンドケーフドウサン,0
1366,6020001161362,新規,0,2025-02-14,2025-02-14,株式会社アクア・ダイレクト,,株式会社,神奈川県,横浜市西区,高島２丁目１１番２号スカイメナー横浜５１９,,14,103,2200011,,,,,,,2025-02-14,1,,,,,アクアダイレクト,0
1367,6020001161370,新規,0,2025-02-14,2025-02-14,株式会社ＰＭＡファーマシー,,株式会社,神奈川県,横浜市緑区,青砥町６３５番８７号,,14,113,2260022,,,,,,,2025-02-14,1,,,,,ピーエムエーファーマシー,0
1368,6020001161412,新規,0,2025-02-14,2025-02-14,株式会社Ｃｈｅｒｉｓｈ　ａｎｄ　Ｃｒａｆｔ,,株式会社,神奈川県,川崎市高津区,久本３丁目２番１－８０６号ウェルタワー,,14,134,2130011,,,,,,,2025-02-14,1,,,,,チェリッシュアンドクラフト,0
1369,6020001161437,新規,0,2025-02-14,2025-02-14,ＮＨ株式会社,,株式会社,神奈川県,川崎市川崎区,南町２番地２２エターナル川崎３０６,,14,131,2100015,,,,,,,2025-02-14,1,,,,,エヌエッチ,0
1370,6020001161478,新規,0,2025-02-14,2025-02-14,Ｏｐｔｉｗａｙ株式会社,,株式会社,神奈川県,横浜市中区,尾上町４丁目５７横浜尾上町ビルディング８階,,14,104,2310015,,,,,,,2025-02-14,1,,,,,オプティウェイ,0
1373,6020003027776,新規,0,2025-02-14,2025-02-14,合同会社ＢＰＭ,,合同会社,神奈川県,横浜市西区,浅間町１丁目４番３号ウィザードビル４０２,,14,103,2200072,,,,,,,2025-02-14,1,,,,,ビーピーエム,0
1374,6020003027784,新規,0,2025-02-14,2025-02-14,合同会社うたうたい,,合同会社,神奈川県,横浜市西区,北幸２丁目１０番４８号むつみビル３階,,14,103,2200004,,,,,,,2025-02-14,1,,,,,ウタウタイ,0
1375,6020003027842,新規,0,2025-02-14,2025-02-14,エイワ合同会社,,合同会社,神奈川県,横浜市戸塚区,汲沢町４２２番地６８,,14,110,2450062,,,,,,,2025-02-14,1,,,,,エイワ,0
1383,6021003015589,新規,0,2025-02-14,2025-02-14,合同会社ＦＩＬＭＹ,,合同会社,神奈川県,相模原市南区,東大沼４丁目２番６１号レオパレスカルマード１０３号室,,14,153,2520333,,,,,,,2025-02-14,1,,,,,フィルミー,0
1392,6030001164851,新規,0,2025-02-14,2025-02-14,株式会社エム・プラン,,株式会社,埼玉県,草加市,小山２丁目１５番１号,,11,221,3400045,,,,,,,2025-02-14,1,,,,,エムプラン,0
1393,6030001164892,新規,0,2025-02-14,2025-02-14,ＬＩＴ株式会社,,株式会社,埼玉県,朝霞市,三原４丁目１２－２４－１０２,,11,227,3510025,,,,,,,2025-02-14,1,,,,,リット,0
1404,6040001137377,新規,0,2025-02-14,2025-02-14,株式会社ＤＥＵＲＡＬＩ　ＩＮＴＥＲＮＡＴＩＯＮＡＬ,,株式会社,千葉県,市川市,行徳駅前３丁目５番１３号（さつきハイツ２０２号）,,12,203,2720133,,,,,,,2025-02-14,1,,,,,デウラリインターナショナル,0
1411,6060001037906,新規,0,2025-02-14,2025-02-14,株式会社ｙ　ＲＩＳＥ,,株式会社,栃木県,真岡市,亀山２３６１番地１,,09,209,3214363,,,,,,,2025-02-14,1,,,,,ワイライズ,0
1413,6060003005423,新規,0,2025-02-14,2025-02-14,合同会社らくす,,合同会社,栃木県,小山市,大字出井１１０６－６,,09,208,3230808,,,,,,,2025-02-14,1,,,,,ラクス,0
1420,6080403005194,新規,0,2025-02-14,2025-02-14,合資会社ひまわり,,合資会社,静岡県,御前崎市,御前崎７－４,,22,223,4371621,,,,,,,2025-02-14,1,,,,,ヒマワリ,0
1421,6080403005203,新規,0,2025-02-14,2025-02-14,合同会社ナツノキ,,合同会社,静岡県,浜松市中央区,三方原町１７６番地の１,,22,138,4338105,,,,,,,2025-02-14,1,,,,,ナツノキ,0
1443,6120001272744,新規,0,2025-02-14,2025-02-14,株式会社Ｖｉｓｉｏｎ,,株式会社,大阪府,大阪市天王寺区,生玉町１番３０号３０４Ｂ号室,,27,109,5430071,,,,,,,2025-02-14,1,,,,,ビジョン,0
1444,6120001272819,新規,0,2025-02-14,2025-02-14,株式会社Ｍｉｇｈｔｙ　Ｇｌｏｂａｌ,,株式会社,大阪府,大阪市東淀川区,北江口４丁目１２番１１号,,27,114,5330002,,,,,,,2025-02-14,1,,,,,マイティグローバル,0
1445,6120001272868,新規,0,2025-02-14,2025-02-14,株式会社ＲＥＧＯＬＩＴＨ　ＧＲＯＵＰ,,株式会社,大阪府,大阪市中央区,東心斎橋２丁目１－５ゴールデン第一プラザビル９Ｆ,,27,128,5420083,,,,,,,2025-02-14,1,,,,,レゴリスグループ,0
1446,6120001272876,新規,0,2025-02-14,2025-02-14,株式会社福林,,株式会社,大阪府,大阪市生野区,田島４丁目７番１５号,,27,116,5440011,,,,,,,2025-02-14,1,,,,,フクリン,0
1447,6120001272901,新規,0,2025-02-14,2025-02-14,株式会社アマミ工務店,,株式会社,大阪府,大阪市生野区,新今里７丁目１５番２０号,,27,116,5440001,,,,,,,2025-02-14,1,,,,,アマミコウムテン,0
1448,6120001272934,新規,0,2025-02-14,2025-02-14,株式会社ＪＪ　Ｅｎｔｅｒｐｒｉｓｅ,,株式会社,大阪府,大阪市淀川区,十三本町１丁目９－２０－４０５号室,,27,123,5320024,,,,,,,2025-02-14,1,,,,,ジェイジェイエンタプライズ,0
1453,6120003028616,新規,0,2025-02-14,2025-02-14,ＳＡＵＮＩＨＯＮ合同会社,,合同会社,大阪府,大阪市天王寺区,夕陽丘町４番２号,,27,109,5430075,,,,,,,2025-02-14,1,,,,,サウニホン,0
1458,6120903005549,新規,0,2025-02-14,2025-02-14,合同会社ＹＡＴ,,合同会社,大阪府,箕面市,桜ケ丘２丁目６番３３号,,27,220,5620046,,,,,,,2025-02-14,1,,,,,ワイエーティー,0
1461,6130001078991,新規,0,2025-02-14,2025-02-14,株式会社京都経営サポート,,株式会社,京都府,京都市上京区,中筋通石薬師上る大猪熊町３４８番地１御所東ｃｕｂｅ１Ｆ,,26,102,6020849,,,,,,,2025-02-14,1,,,,,キョウトケイエイサポート,0
1469,6140001137375,新規,0,2025-02-14,2025-02-14,株式会社ミツバ商事,,株式会社,兵庫県,神戸市垂水区,舞子坂３丁目２７番１０－２号,,28,108,6550044,,,,,,,2025-02-14,1,,,,,ミツバショウジ,0
1470,6140001137409,新規,0,2025-02-14,2025-02-14,株式会社高見進織布,,株式会社,兵庫県,加西市,河内町１０７３番地,,28,220,6752421,,,,,,,2025-02-14,1,,,,,タカミススムショクフ,0
1472,6150003003500,新規,0,2025-02-14,2025-02-14,合同会社ＨＯＲＩ　ＣＲＥＡＴＥ,,合同会社,奈良県,大和郡山市,筒井町１４０７番地,,29,203,6391123,,,,,,,2025-02-14,1,,,,,ホリクリエイト,0
1481,6180001165430,新規,0,2025-02-14,2025-02-14,株式会社ＫＩＫＡＳＥＬＬ,,株式会社,愛知県,名古屋市中区,錦３丁目８－１９－４０２,,23,106,4600003,,,,,,,2025-02-14,1,,,,,キカセル,0
1483,6180003027991,新規,0,2025-02-14,2025-02-14,合同会社Ｄ‐Ｓｔａｔｉｏｎ,,合同会社,愛知県,名古屋市中村区,名駅５丁目４番１４号花車ビル北館１Ｆ‐２Ｆ,,23,105,4500002,,,,,,,2025-02-14,1,,,,,ディーステーション,0
1491,6180303006456,新規,0,2025-02-14,2025-02-14,合同会社フク,,合同会社,愛知県,岡崎市,明大寺町字馬場東１６２番地５,,23,202,4440868,,,,,,,2025-02-14,1,,,,,フク,0
1496,6240001064519,新規,0,2025-02-14,2025-02-14,株式会社ＬＵＣＥＮＴ,,株式会社,広島県,広島市西区,南観音２丁目７番１４号オオシマびる２０４号室,,34,104,7330035,,,,,,,2025-02-14,1,,,,,ルーセント,0
1502,6290005019646,新規,0,2025-02-14,2025-02-14,医療法人春心会,,その他の設立登記法人,福岡県,大野城市,山田２丁目１３番３８号石川ビル２階,,40,219,8160922,,,,,,,2025-02-14,1,,,,,シュンシンカイ,0
1507,6330001032887,新規,0,2025-02-14,2025-02-14,株式会社ザ・セブン熊本,,株式会社,熊本県,熊本市中央区,通町２０番地１,,43,101,8600013,,,,,,,2025-02-14,1,,,,,ザセブンクマモト,0
1510,6340001027119,新規,0,2025-02-14,2025-02-14,株式会社Ａｄｅｌａｎｔｅ,,株式会社,鹿児島県,熊毛郡屋久島町,吉田３１５番地,,46,505,8914202,,,,,,,2025-02-14,1,,,,,アデランテ,0
1522,6370001052238,新規,0,2025-02-14,2025-02-14,株式会社メディモア,,株式会社,宮城県,大崎市,古川北町１丁目７番２６号,,04,215,9896171,,,,,,,2025-02-14,1,,,,,メディモア,0
1524,6370003006869,新規,0,2025-02-14,2025-02-14,Ｐｒｏｓｐｅｒ合同会社,,合同会社,宮城県,大崎市,古川十日町９番２８号菅原ビル１階,,04,215,9896165,,,,,,,2025-02-14,1,,,,,プロスパー,0
1534,6430001093663,新規,0,2025-02-14,2025-02-14,株式会社ＫＯＳＨＩＮ,,株式会社,北海道,苫小牧市,美原町１丁目２０番６号,,01,213,0591262,,,,,,,2025-02-14,1,,,,,コーシン,0
1535,6430001093671,新規,0,2025-02-14,2025-02-14,株式会社三浦産業,,株式会社,北海道,札幌市手稲区,西宮の沢四条３丁目１－２４－６０１,,01,109,0060004,,,,,,,2025-02-14,1,,,,,ミウラサンギョウ,0
1536,6430001093688,新規,0,2025-02-14,2025-02-14,株式会社アリマックス,,株式会社,北海道,余市郡余市町,黒川町１０丁目１番地３２,,01,408,0460003,,,,,,,2025-02-14,1,,,,,アリマックス,0
1541,6430003017273,新規,0,2025-02-14,2025-02-14,Ｅｎｖｙ　Ｅｎｅｒｇｙ　Ｊａｐａｎ合同会社,,合同会社,北海道,札幌市中央区,大通西１６丁目２‐２３‐３０２,,01,101,0600042,,,,,,,2025-02-14,1,,,,,エンビーエナジージャパン,0
1542,6430003017281,新規,0,2025-02-14,2025-02-14,合同会社ＲＦ　ｃｏｍｐａｎｙ,,合同会社,北海道,札幌市北区,麻生町７丁目３－１１メトロ麻生４１１号室,,01,102,0010045,,,,,,,2025-02-14,1,,,,,アールエフカンパニー,0
1545,6450003002604,新規,0,2025-02-14,2025-02-14,合同会社Ｎｏｕｒｉｓｈ,,合同会社,北海道,天塩郡豊富町,字豊富大通６丁目豊富ハーモニー内,,01,516,0984110,,,,,,,2025-02-14,1,,,,,ノウリッシュ,0
1558,7010001252211,新規,0,2025-02-14,2025-02-14,Ｎｕｌｌｓｃｈｏｏｌ　Ｔｅｃｈｎｏｌｏｇｉｅｓ株式会社,,株式会社,東京都,中央区,日本橋室町１丁目１１番１２号日本橋水野ビル７階,,13,102,1030022,,,,,,,2025-02-14,1,,,,,ナルスクールテクノロジーズ,0
1559,7010001252228,新規,0,2025-02-14,2025-02-14,株式会社Ｄａｉｓｅｉ　Ｔｅｃｈ,,株式会社,東京都,千代田区,平河町２丁目３番１０号,,13,101,1020093,,,,,,,2025-02-14,1,,,,,ダイセイテック,0
1560,7010001252236,新規,0,2025-02-14,2025-02-14,株式会社クラウドスイフト,,株式会社,東京都,中央区,日本橋本町４丁目８番１５号,,13,102,1030023,,,,,,,2025-02-14,1,,,,,クラウドスイフト,0
1561,7010003046388,新規,0,2025-02-14,2025-02-14,Ｔｈｅ　Ｏｎｅ　Ｐａｒｔｎｅｒｓ合同会社,,合同会社,東京都,中央区,銀座１丁目１２－４Ｎ＆ＥＢＬＤ．７階,,13,102,1040061,,,,,,,2025-02-14,1,,,,,ザワンパートナーズ,0
1562,7010005039571,新規,0,2025-02-14,2025-02-14,一般社団法人法令学習指導協会,,その他の設立登記法人,東京都,中央区,銀座１丁目１２番４号Ｎ＆Ｅ・ＢＬＤ．６Ｆ,,13,102,1040061,,,,,,,2025-02-14,1,,,,,ホウレイガクシュウシドウキョウカイ,0
1571,7010401187965,新規,0,2025-02-14,2025-02-14,Ａ．Ｐ．キャピタルグループ株式会社,,株式会社,東京都,港区,白金１丁目１７番２号白金タワーテラス棟１階フロントオフィスＢ０３,,13,103,1080072,,,,,,,2025-02-14,1,,,,,エーピーキャピタルグループ,0
1572,7010401188286,新規,0,2025-02-14,2025-02-14,アリアリスセラピューティクス・ジャパン株式会社,,株式会社,東京都,港区,南青山３丁目８番１４号,,13,103,1070062,,,,,,,2025-02-14,1,,,,,アリアリスセラピューティクスジャパン,0
1573,7010403034406,新規,0,2025-02-14,2025-02-14,合同会社Ｓ１,,合同会社,東京都,港区,赤坂３丁目２１番１７号,,13,103,1070052,,,,,,,2025-02-14,1,,,,,エスワン,0
1574,7010403034414,新規,0,2025-02-14,2025-02-14,一寸合同会社,,合同会社,東京都,港区,六本木３丁目１－３０Ａ・Ｂビル６階,,13,103,1060032,,,,,,,2025-02-14,1,,,,,イッスン,0
1579,7010601066713,新規,0,2025-02-14,2025-02-14,株式会社すみ卓,,株式会社,東京都,墨田区,文花１丁目１８－１３,,13,107,1310044,,,,,,,2025-02-14,1,,,,,スミタク,0
1582,7010701047241,新規,0,2025-02-14,2025-02-14,株式会社大宴海,,株式会社,東京都,品川区,旗の台６丁目３番９号,,13,109,1420064,,,,,,,2025-02-14,1,,,,,ダイエンカイ,0
1583,7010801035848,新規,0,2025-02-14,2025-02-14,株式会社アクト,,株式会社,東京都,大田区,蒲田５丁目４６番１号,,13,111,1440052,,,,,,,2025-02-14,1,,,,,アクト,0
1599,7011001167597,新規,0,2025-02-14,2025-02-14,ＵｓｅｒＲｅａｌ株式会社,,株式会社,東京都,渋谷区,円山町５番５号Ｎａｖｉ渋谷Ｖ３階,,13,113,1500044,,,,,,,2025-02-14,1,,,,,ユーザーリアル,0
1600,7011003020944,新規,0,2025-02-14,2025-02-14,Ｆｏｒｌａｇ合同会社,,合同会社,東京都,渋谷区,神宮前３丁目５番６－３０３号オープンレジデンシア表参道神宮前ザ・ハウス,,13,113,1500001,,,,,,,2025-02-14,1,,,,,フォラーグ,0
1602,7011101110606,新規,0,2025-02-14,2025-02-14,ＳＵＰＥＲ　ＯＣＥＡＮ株式会社,,株式会社,東京都,新宿区,赤城下町４５番地ＫＢＣ・Ｆ－８,,13,104,1620803,,,,,,,2025-02-14,1,,,,,スーパーオーシャン,0
1603,7011103015530,新規,0,2025-02-14,2025-02-14,合同会社ブルーリンクズ,,合同会社,東京都,新宿区,上落合２丁目１２－７－３０３号室,,13,104,1610034,,,,,,,2025-02-14,1,,,,,ブルーリンクズ,0
1607,7011301030356,新規,0,2025-02-14,2025-02-14,株式会社Ｖｉｇｒｏｏ,,株式会社,東京都,杉並区,下高井戸２丁目１０番２１－９０８号,,13,115,1680073,,,,,,,2025-02-14,1,,,,,ヴィグルー,0
1608,7011401026816,新規,0,2025-02-14,2025-02-14,株式会社Ｐｒｏｘｓｉ,,株式会社,東京都,板橋区,熊野町３７番１９－５０３,,13,119,1730025,,,,,,,2025-02-14,1,,,,,,0
1610,7011501031699,新規,0,2025-02-14,2025-02-14,株式会社ブロードリー,,株式会社,東京都,北区,滝野川７丁目３３番６号,,13,117,1140023,,,,,,,2025-02-14,1,,,,,ブロードリー,0
1615,7011801045622,新規,0,2025-02-14,2025-02-14,オリオンポート株式会社,,株式会社,東京都,葛飾区,東新小岩４丁目７番７号,,13,122,1240023,,,,,,,2025-02-14,1,,,,,オリオンポート,0
1618,7011803006688,新規,0,2025-02-14,2025-02-14,合同会社ｌｅａｐ,,合同会社,東京都,足立区,千住３丁目１４－４デュオメゾン北千住駅前１０１,,13,121,1200034,,,,,,,2025-02-14,1,,,,,リープ,0
1620,7012303002112,新規,0,2025-02-14,2025-02-14,合同会社幻窓舎,,合同会社,東京都,町田市,鶴川２丁目１４番地１７,,13,209,1950061,,,,,,,2025-02-14,1,,,,,ゲンソウシャ,0
1627,7012803003634,新規,0,2025-02-14,2025-02-14,ＡＲＩＫＡ合同会社,,合同会社,東京都,東大和市,南街２丁目４８番地の１小野ビル３０１号,,13,220,2070014,,,,,,,2025-02-14,1,,,,,アリカ,0
1630,7020001161345,新規,0,2025-02-14,2025-02-14,Ｆａｍｉｌｙ株式会社,,株式会社,神奈川県,横浜市中区,福富町仲通４－４,,14,104,2310043,,,,,,,2025-02-14,1,,,,,ファミリー,0
1631,7020001161353,新規,0,2025-02-14,2025-02-14,壮裕トラスト株式会社,,株式会社,神奈川県,横浜市磯子区,洋光台４丁目２７番１１号,,14,107,2350045,,,,,,,2025-02-14,1,,,,,ソウユウトラスト,0
1632,7020001161394,新規,0,2025-02-14,2025-02-14,株式会社Ｒ２,,株式会社,神奈川県,横浜市栄区,小菅ケ谷１丁目２６番１４号,,14,115,2470007,,,,,,,2025-02-14,1,,,,,アールツー,0
1634,7020003027767,新規,0,2025-02-14,2025-02-14,合同会社ＴＫ,,合同会社,神奈川県,横浜市西区,北幸２丁目１０番４８号むつみビル３階,,14,103,2200004,,,,,,,2025-02-14,1,,,,,ティーケー,0
1635,7020003027783,新規,0,2025-02-14,2025-02-14,ルミナスソリューションズ合同会社,,合同会社,神奈川県,横浜市港北区,綱島東４丁目１１番４７－４０２号,,14,109,2230052,,,,,,,2025-02-14,1,,,,,ルミナスソリューションズ,0
1636,7020003027791,新規,0,2025-02-14,2025-02-14,合同会社ＣＨＩＢＩＣＯ,,合同会社,神奈川県,川崎市川崎区,池上町７－２第二野村荘１Ｆ,,14,131,2100864,,,,,,,2025-02-14,1,,,,,チビコ,0
1637,7020003027800,新規,0,2025-02-14,2025-02-14,ＳＴＥＰＨＥＮ　ＩＮＴＥＲＮＡＴＩＯＮＡＬ合同会社,,合同会社,神奈川県,川崎市川崎区,大島１丁目２６番６－５０４号,,14,131,2100834,,,,,,,2025-02-14,1,,,,,スティブンインターナショナル,0
1638,7020003027809,新規,0,2025-02-14,2025-02-14,合同会社ｃｅｌｅｓｔｅ　ＢＬＵＥ,,合同会社,神奈川県,横浜市西区,北幸２丁目１０番４８号むつみビル３階,,14,103,2200004,,,,,,,2025-02-14,1,,,,,セレストブルー,0
1642,7021005013276,新規,0,2025-02-14,2025-02-14,一般社団法人日本空手道泊親会,,その他の設立登記法人,神奈川県,藤沢市,高倉２４９８番地の１３,,14,205,2520802,,,,,,,2025-02-14,1,,,,,ニホンカラテドウハクシンカイ,0
1645,7030001164842,新規,0,2025-02-14,2025-02-14,岩苑株式会社,,株式会社,埼玉県,坂戸市,中富町６８番地３パナハイツ中島２０２,,11,239,3500232,,,,,,,2025-02-14,1,,,,,イワエン,0
1646,7030001164850,新規,0,2025-02-14,2025-02-14,株式会社ＲＯＴＥＣＳ,,株式会社,埼玉県,加須市,戸崎１３６７番地１,,11,210,3470108,,,,,,,2025-02-14,1,,,,,ロテックス,0
1647,7030001164859,新規,0,2025-02-14,2025-02-14,株式会社サケクル,,株式会社,埼玉県,吉川市,美南３丁目５－１２ブリージョ１０５,,11,243,3420038,,,,,,,2025-02-14,1,,,,,サケクル,0
1654,7030003026108,新規,0,2025-02-14,2025-02-14,合同会社ＫＩＶ商会館入間,,合同会社,埼玉県,入間市,東藤沢３丁目２番１３号,,11,225,3580012,,,,,,,2025-02-14,1,,,,,ケーアイブイショウカイカンイルマ,0
1655,7030003026116,新規,0,2025-02-14,2025-02-14,ＳＨＩＮＩＮＧ合同会社,,合同会社,埼玉県,坂戸市,八幡１丁目１０番７号１０１号室シティパレス八幡２,,11,239,3500223,,,,,,,2025-02-14,1,,,,,シニング,0
1660,7040001137376,新規,0,2025-02-14,2025-02-14,Ｃｏｌｏｍｂａｇｅｓ株式会社,,株式会社,千葉県,柏市,関場町６番５１号,,12,217,2770028,,,,,,,2025-02-14,1,,,,,コロンバージュ,0
1664,7040003026858,新規,0,2025-02-14,2025-02-14,合同会社ｃａｔａｄｏｏｒ,,合同会社,千葉県,松戸市,小金きよしケ丘１丁目２番地の２０ヌーベルハイムマルシオ２０１号,,12,207,2700013,,,,,,,2025-02-14,1,,,,,カタドル,0
1665,7040003026866,新規,0,2025-02-14,2025-02-14,躍進総業合同会社,,合同会社,千葉県,八街市,八街に２２２番地２６,,12,230,2891103,,,,,,,2025-02-14,1,,,,,ヤクシンソウギョウ,0
1674,7070003005792,新規,0,2025-02-14,2025-02-14,合同会社ナチュリス,,合同会社,群馬県,高崎市,八千代町２丁目８番１９号,,10,202,3700861,,,,,,,2025-02-14,1,,,,,ナチュリス,0
1675,7080001026757,新規,0,2025-02-14,2025-02-14,陽春株式会社,,株式会社,静岡県,静岡市駿河区,池田９８０番地の２,,22,102,4228005,,,,,,,2025-02-14,1,,,,,ヨウシュン,0
1678,7090001019140,新規,0,2025-02-14,2025-02-14,リボーンサービス株式会社,,株式会社,山梨県,甲府市,小瀬町１１４―１,,19,201,4000836,,,,,,,2025-02-14,1,,,,,リボーンサービス,0
1682,7110003005664,新規,0,2025-02-14,2025-02-14,合同会社ルサーマ,,合同会社,新潟県,新潟市中央区,南笹口１丁目１番３８号コープオリンピア８０８,,15,103,9500912,,,,,,,2025-02-14,1,,,,,ルサーマ,0
1689,7120001272603,新規,0,2025-02-14,2025-02-14,東壹株式会社,,株式会社,大阪府,大阪市住之江区,御崎１丁目１１番１９－３１２号,,27,125,5590013,,,,,,,2025-02-14,1,,,,,トウイチ,0
1690,7120001272826,新規,0,2025-02-14,2025-02-14,株式会社Ａフィールド,,株式会社,大阪府,枚方市,岡本町２番２号,,27,210,5730031,,,,,,,2025-02-14,1,,,,,エーフィールド,0
1691,7120001272883,新規,0,2025-02-14,2025-02-14,株式会社Ｗ　Ｃａｒｅ．,,株式会社,大阪府,大阪市西区,北堀江１丁目５番８号ＳｔｏＲＫ北堀江５０３,,27,106,5500014,,,,,,,2025-02-14,1,,,,,ダブルケア,0
1692,7120001272891,新規,0,2025-02-14,2025-02-14,中実国際産業株式会社,,株式会社,大阪府,大阪市西成区,玉出東１丁目７番２３号１０４号室,,27,122,5570043,,,,,,,2025-02-14,1,,,,,チュウジツコクサイサンギョウ,0
1693,7120001272909,新規,0,2025-02-14,2025-02-14,悦成株式会社,,株式会社,大阪府,大阪市住吉区,長居４丁目１０番２６号クレスト４階４０８号室,,27,120,5580003,,,,,,,2025-02-14,1,,,,,エツセイ,0
1695,7120003028615,新規,0,2025-02-14,2025-02-14,合同会社最速,,合同会社,大阪府,大阪市中央区,東心斎橋１丁目８－１１アルグラッドザタワー心斎橋２００５,,27,128,5420083,,,,,,,2025-02-14,1,,,,,サイソク,0
1696,7120003028631,新規,0,2025-02-14,2025-02-14,合同会社ＳＥＩＳＨＩＲＯ,,合同会社,大阪府,大阪市阿倍野区,相生通１丁目９番１９号,,27,119,5450033,,,,,,,2025-02-14,1,,,,,セイシロウ,0
1698,7120005024793,新規,0,2025-02-14,2025-02-14,一般社団法人ｓｈｉｎｗａ　ｔｗｏ,,その他の設立登記法人,大阪府,大阪市中央区,今橋１丁目７番３号トラスティルグループ内,,27,128,5410042,,,,,,,2025-02-14,1,,,,,シンワツー,0
1705,7122001038892,新規,0,2025-02-14,2025-02-14,株式会社ｐｌｕｓ　ＴＭＳ,,株式会社,大阪府,東大阪市,日下町５丁目１番１７号,,27,227,5798003,,,,,,,2025-02-14,1,,,,,プラスティーエムエス,0
1717,7140001137399,新規,0,2025-02-14,2025-02-14,Ｋｉｙｏｍｉ　ｉｎｎｏｖａｔｉｏｎ株式会社,,株式会社,兵庫県,神戸市東灘区,魚崎南町５丁目１２番３号吉田ロイヤル１０３号,,28,101,6580025,,,,,,,2025-02-14,1,,,,,キヨミイノベーション,0
1726,7180001165421,新規,0,2025-02-14,2025-02-14,ジェーケー・グローバルホールディングス株式会社,,株式会社,愛知県,名古屋市守山区,幸心３丁目１３２１番地,,23,113,4630079,,,,,,,2025-02-14,1,,,,,ジェーケーグローバルホールディングス,0
1729,7180003027999,新規,0,2025-02-14,2025-02-14,合同会社Ｇライフパートナー,,合同会社,愛知県,小牧市,藤島町鏡池５９番地１,,23,219,4850063,,,,,,,2025-02-14,1,,,,,ジーライフパートナー,0
1732,7180301039515,新規,0,2025-02-14,2025-02-14,株式会社ＢＭＰ,,株式会社,愛知県,岡崎市,上地１丁目９番地１６ディレンテ１０５,,23,202,4440823,,,,,,,2025-02-14,1,,,,,ビーエムピー,0
1734,7200003006694,新規,0,2025-02-14,2025-02-14,合同会社ｒｅｌｉｆｅ,,合同会社,岐阜県,羽島郡笠松町,北及４２２ｅハウス３０２,,21,303,5016064,,,,,,,2025-02-14,1,,,,,リライフ,0
1737,7230001020744,新規,0,2025-02-14,2025-02-14,株式会社岡田,,株式会社,富山県,高岡市,福岡町矢部６９５番地２１,,16,202,9390125,,,,,,,2025-02-14,1,,,,,オカダ,0
1742,7250001021006,新規,0,2025-02-14,2025-02-14,株式会社エヌワイペイント,,株式会社,山口県,下関市,大字延行５６２番地１ＧＲＡＮＴＡＧＥ下関１０２号,,35,201,7510867,,,,,,,2025-02-14,1,,,,,エヌワイペイント,0
1749,7290001108963,新規,0,2025-02-14,2025-02-14,Ｔｏｍｏｒｒｏｗ　Ｇｒｏｗ株式会社,,株式会社,福岡県,糟屋郡篠栗町,大字若杉９８９－１,,40,342,8112411,,,,,,,2025-02-14,1,,,,,トゥモロウグロウ,0
1753,7290003016405,新規,0,2025-02-14,2025-02-14,合同会社フロレト,,合同会社,福岡県,福岡市東区,松島１丁目２２番９－２０２号,,40,131,8120062,,,,,,,2025-02-14,1,,,,,フロレト,0
1754,7290801031274,新規,0,2025-02-14,2025-02-14,株式会社ＬＯＵＤ,,株式会社,福岡県,北九州市若松区,鴨生田３丁目１６番２号,,40,103,8080105,,,,,,,2025-02-14,1,,,,,ラウド,0
1756,7290803004947,新規,0,2025-02-14,2025-02-14,合同会社ＨＡＲＭＯＮＩＯ,,合同会社,福岡県,鞍手郡小竹町,大字南良津２００６,,40,401,8201106,,,,,,,2025-02-14,1,,,,,ハーモニオ,0
1762,7320001020941,新規,0,2025-02-14,2025-02-14,Ｏａｋ　ＨＵＭＡＮ　ＳＵＰＰＯＲＴ株式会社,,株式会社,大分県,大分市,末広町１丁目５番１６号,,44,201,8700027,,,,,,,2025-02-14,1,,,,,オークヒューマンサポート,0
1764,7330001032886,新規,0,2025-02-14,2025-02-14,株式会社にのや本舗,,株式会社,熊本県,上天草市,松島町合津７９１５番地７４,,43,212,8616102,,,,,,,2025-02-14,1,,,,,ニノヤホンポ,0
1768,7340003004750,新規,0,2025-02-14,2025-02-14,合同会社こねくと,,合同会社,鹿児島県,霧島市,隼人町内山田４丁目１３番３２号,,46,218,8995106,,,,,,,2025-02-14,1,,,,,コネクト,0
1771,7350003004840,新規,0,2025-02-14,2025-02-14,オンライン合同会社,,合同会社,宮崎県,延岡市,土々呂町４丁目４０９０番地,,45,203,8890513,,,,,,,2025-02-14,1,,,,,オンライン,0
1777,7370001052237,新規,0,2025-02-14,2025-02-14,株式会社ＡＯＢＡ,,株式会社,宮城県,仙台市太白区,桜木町２３番１号,,04,104,9820835,,,,,,,2025-02-14,1,,,,,アオバ,0
1778,7370003006934,新規,0,2025-02-14,2025-02-14,合同会社夢家企画,,合同会社,宮城県,仙台市泉区,長命ケ丘４丁目１０番地の１１,,04,105,9813212,,,,,,,2025-02-14,1,,,,,ユメヤキカク,0
1789,7430001093679,新規,0,2025-02-14,2025-02-14,株式会社ＢＬＡＮＣ　ＷＯＲＫＳ,,株式会社,北海道,札幌市東区,本町二条１丁目１５－５,,01,103,0650042,,,,,,,2025-02-14,1,,,,,ブランワークス,0
1790,7430001093687,新規,0,2025-02-14,2025-02-14,ＶＥＲＮＡＬ　ＩＮＮＯＶＡＴＩＯＮ株式会社,,株式会社,北海道,札幌市西区,八軒六条西１丁目１番２０号,,01,107,0630846,,,,,,,2025-02-14,1,,,,,ヴァーナルイノベーション,0
1792,7440003001663,新規,0,2025-02-14,2025-02-14,ＳＡＩＫＯ　ＣＯＮＴＡＣＴ合同会社,,合同会社,北海道,函館市,亀田本町５５番１号,,01,202,0410813,,,,,,,2025-02-14,1,,,,,サイコーコンタクト,0
1794,7460103001685,新規,0,2025-02-14,2025-02-14,合同会社ドリーム,,合同会社,北海道,上川郡清水町,字羽帯北４線９２番地,,01,636,0890356,,,,,,,2025-02-14,1,,,,,ドリーム,0
1795,7470003002808,新規,0,2025-02-14,2025-02-14,合同会社Ｚ,,合同会社,香川県,善通寺市,弘田町１２３９－１－Ｂ１０３,,37,204,7650071,,,,,,,2025-02-14,1,,,,,,0
1796,7480003002229,新規,0,2025-02-14,2025-02-14,ＭＹ　Ｉｎｎｏｖａｔｅｃｈ合同会社,,合同会社,徳島県,徳島市,住吉３丁目９番１２号,,36,201,7700861,,,,,,,2025-02-14,1,,,,,エムワイイノバテック,0
1797,7480005007060,新規,0,2025-02-14,2025-02-14,行政書士法人ひとざい,,その他の設立登記法人,徳島県,徳島市,佐古六番町１１番８号,,36,201,7700026,,,,,,,2025-02-14,1,,,,,ヒトザイ,0
1798,7500001026128,新規,0,2025-02-14,2025-02-14,株式会社ＮｏｃｔｕＡＣＥ,,株式会社,愛媛県,松山市,衣山５丁目７６７番地４７,,38,201,7918025,,,,,,,2025-02-14,1,,,,,ノクトアス,0
1799,7500005008766,新規,0,2025-02-14,2025-02-14,税理士法人コム・タックス,,その他の設立登記法人,愛媛県,松山市,萱町２丁目２番地５,,38,201,7900813,,,,,,,2025-02-14,1,,,,,コムタックス,0
1814,8010001252219,新規,0,2025-02-14,2025-02-14,Ａｒｃｈｉｌｅｏｎ　Ｄｅｓｉｇｎ　Ｌａｂ株式会社,,株式会社,東京都,中央区,銀座１丁目１２－４Ｎ＆ＥＢＬＤ．７階,,13,102,1040061,,,,,,,2025-02-14,1,,,,,アーキレオンデザインラボ,0
1815,8010001252235,新規,0,2025-02-14,2025-02-14,株式会社タクスプラス,,株式会社,東京都,千代田区,六番町１０番地１グランスイート六番町４０４号,,13,101,1020085,,,,,,,2025-02-14,1,,,,,タクスプラス,0
1816,8010003046370,新規,0,2025-02-14,2025-02-14,合同会社ＳＴＯＮＥＦＬＯＷＥＲ,,合同会社,東京都,中央区,銀座１丁目１２－４Ｎ＆ＥＢＬＤ．７Ｆ,,13,102,1040061,,,,,,,2025-02-14,1,,,,,ストーンフラワー,0
1817,8010003046387,新規,0,2025-02-14,2025-02-14,合同会社プレイプライム・ジャパン,,合同会社,東京都,中央区,銀座１丁目１２番４号Ｎ＆ＥＢＬＤ．６Ｆ,,13,102,1040061,,,,,,,2025-02-14,1,,,,,プレイプライムジャパン,0
1818,8010003046395,新規,0,2025-02-14,2025-02-14,合同会社マナスルン,,合同会社,東京都,千代田区,神田須田町１丁目７番８号ＶＯＲＴ秋葉原ＩＶ２階,00137995,13,101,1010041,,,,,,,2025-02-14,1,,,,,マナスルン,0
1832,8010401188087,新規,0,2025-02-14,2025-02-14,Ｅｎｕｍｉａｚｅ株式会社,,株式会社,東京都,港区,南青山３丁目１番３６号青山丸竹ビル６Ｆ,,13,103,1070062,,,,,,,2025-02-14,1,,,,,エヌミアーゼ,0
1834,8010403034181,新規,0,2025-02-14,2025-02-14,Ｃｌｅａｎ　Ｃｌｅａｎ合同会社,,合同会社,東京都,港区,赤坂２丁目２１－４，＃４０５－Ｄ,,13,103,1070052,,,,,,,2025-02-14,1,,,,,クリーンクリーン,0
1835,8010403034413,新規,0,2025-02-14,2025-02-14,合同会社Ｎｏｒｔｈｒａｙ　Ｅｓｔａｔｅｓ,,合同会社,東京都,港区,西麻布４丁目１９－５,,13,103,1060031,,,,,,,2025-02-14,1,,,,,ノースレイエステート,0
1839,8010405024024,新規,0,2025-02-14,2025-02-14,一般社団法人マイノリティ市民人権フォーラム,,その他の設立登記法人,東京都,港区,虎ノ門５丁目１番５号メトロシティ神谷町５階,,13,103,1050001,,,,,,,2025-02-14,1,,,,,マイノリティシミンジンケンフォーラム,0
1845,8010701047240,新規,0,2025-02-14,2025-02-14,株式会社リアロジー,,株式会社,東京都,品川区,東五反田５丁目２６番６－５０２号,,13,109,1410022,,,,,,,2025-02-14,1,,,,,リアロジー,0
1850,8010801035839,新規,0,2025-02-14,2025-02-14,株式会社すかいすと,,株式会社,東京都,大田区,南蒲田２丁目１０番１７号,,13,111,1440035,,,,,,,2025-02-14,1,,,,,スカイスト,0
1862,8011001167563,新規,0,2025-02-14,2025-02-14,株式会社ＣＨＡＰ,,株式会社,東京都,渋谷区,恵比寿１丁目２３番１６号,,13,113,1500013,,,,,,,2025-02-14,1,,,,,チャップ,0
1863,8011001167794,新規,0,2025-02-14,2025-02-14,株式会社ジャストプロボイス,,株式会社,東京都,渋谷区,東２丁目２４番３号,,13,113,1500011,,,,,,,2025-02-14,1,,,,,ジャストプロボイス,0
1865,8011101110621,新規,0,2025-02-14,2025-02-14,株式会社Ｌｕｍｉｎａ　Ｍｕｓｅ,,株式会社,東京都,新宿区,榎町３４－３榎町ビル５階－１５室,,13,104,1620806,,,,,,,2025-02-14,1,,,,,ルミナミューズ,0
1868,8011301030355,新規,0,2025-02-14,2025-02-14,エーケーラボ株式会社,,株式会社,東京都,杉並区,宮前３丁目１５番２４－２１７号,,13,115,1680081,,,,,,,2025-02-14,1,,,,,エーケーラボ,0
1869,8011303005413,新規,0,2025-02-14,2025-02-14,合同会社Ｇｌｉｍｍｅｒ　Ｌａｂ．,,合同会社,東京都,杉並区,松庵１丁目３－３１,,13,115,1670054,,,,,,,2025-02-14,1,,,,,グリマーラボ,0
1871,8011401026798,新規,0,2025-02-14,2025-02-14,林吾株式会社,,株式会社,東京都,板橋区,仲宿６３番地７号ＯＥＯｆｆｉｃｅＢｌｄｇ．３０１,,13,119,1730005,,,,,,,2025-02-14,1,,,,,リンゴ,0
1872,8011501031673,新規,0,2025-02-14,2025-02-14,優優株式会社,,株式会社,東京都,北区,赤羽台１丁目３ヌーヴェル赤羽台９号棟６０３号室,,13,117,1150053,,,,,,,2025-02-14,1,,,,,,0
1873,8011501031698,新規,0,2025-02-14,2025-02-14,株式会社Ｓｏｌｅｒｉａ,,株式会社,東京都,北区,浮間２丁目１１番２２－４１１号ＡＺＥＳＴ浮間舟渡,,13,117,1150051,,,,,,,2025-02-14,1,,,,,ソレリア,0
1876,8011701028073,新規,0,2025-02-14,2025-02-14,ＤＲＡＧＯＮ株式会社,,株式会社,東京都,江戸川区,平井６丁目２８番８－２０１号サンハイツ,,13,123,1320035,,,,,,,2025-02-14,1,,,,,ドラゴン,0
1879,8011801045613,新規,0,2025-02-14,2025-02-14,株式会社信和商事,,株式会社,東京都,足立区,南花畑２丁目４２番２号,,13,121,1210062,,,,,,,2025-02-14,1,,,,,シンワショウジ,0
1882,8012401042777,新規,0,2025-02-14,2025-02-14,パンジット・ニッポントウシ株式会社,,株式会社,東京都,武蔵野市,吉祥寺本町１丁目３１－１１ＫＳビル６Ｆ６０６室,,13,203,1800004,,,,,,,2025-02-14,1,,,,,パンジットニッポントウシ,0
1888,8020001161286,新規,0,2025-02-14,2025-02-14,株式会社つなぐ,,株式会社,神奈川県,横浜市西区,北幸１丁目１－８エキニア横浜５階横浜セントラルオフィスＨａｍａＰｏｒｔ内,,14,103,2200004,,,,,,,2025-02-14,1,,,,,ツナグ,0
1889,8020001161311,新規,0,2025-02-14,2025-02-14,株式会社ＬＫＯ,,株式会社,神奈川県,川崎市多摩区,中野島３丁目９番１６－１号,,14,135,2140012,,,,,,,2025-02-14,1,,,,,エルケーオー,0
1890,8020001161328,新規,0,2025-02-14,2025-02-14,株式会社いやさか,,株式会社,神奈川県,川崎市宮前区,西野川３丁目３０番４０号,,14,136,2160044,,,,,,,2025-02-14,1,,,,,イヤサカ,0
1891,8020001161352,新規,0,2025-02-14,2025-02-14,株式会社ＫＡＴＳＵＫＩ,,株式会社,神奈川県,横浜市旭区,市沢町１１２０フロンティアＢ２０２,,14,112,2410014,,,,,,,2025-02-14,1,,,,,カツキ,0
1892,8020001161360,新規,0,2025-02-14,2025-02-14,株式会社ＢＭ企画,,株式会社,神奈川県,横浜市旭区,中白根２丁目６番１３号,,14,112,2410004,,,,,,,2025-02-14,1,,,,,ビイエムキカク,0
1893,8020001161427,新規,0,2025-02-14,2025-02-14,株式会社ｂｏｎｄ,,株式会社,神奈川県,横浜市旭区,本宿町５５番地１ロイヤル内田１０１号,,14,112,2410023,,,,,,,2025-02-14,1,,,,,ボンド,0
1899,8020003027799,新規,0,2025-02-14,2025-02-14,合同会社アルケミーシスターズ,,合同会社,神奈川県,横浜市神奈川区,三ツ沢下町２２番１１号,,14,102,2210852,,,,,,,2025-02-14,1,,,,,アルケミーシスターズ,0
1900,8020003027808,新規,0,2025-02-14,2025-02-14,トータルライフサポーター合同会社,,合同会社,神奈川県,横浜市磯子区,岡村６丁目１５番１６号,,14,107,2350021,,,,,,,2025-02-14,1,,,,,トータルライフサポーター,0
1913,8030001164874,新規,0,2025-02-14,2025-02-14,東瀛国際観光株式会社,,株式会社,埼玉県,戸田市,大字新曽７８４番地の３東急ドエルアルス戸田５０５号室,,11,224,3350021,,,,,,,2025-02-14,1,,,,,トウエイコクサイカンコウ,0
1917,8030003026024,新規,0,2025-02-14,2025-02-14,合同会社ＡＭＧＯ．ＡＩ,,合同会社,埼玉県,戸田市,南町３番１－６０９,,11,224,3350025,,,,,,,2025-02-14,1,,,,,アムゴエーアイ,0
1926,8040001137359,新規,0,2025-02-14,2025-02-14,ＳＧ株式会社,,株式会社,千葉県,松戸市,中矢切６２４番地の１アドグランデ松戸５０２号,,12,207,2710095,,,,,,,2025-02-14,1,,,,,エスジー,0
1927,8040001137375,新規,0,2025-02-14,2025-02-14,１０ｓ株式会社,,株式会社,千葉県,浦安市,高洲６丁目１番５号,,12,227,2790023,,,,,,,2025-02-14,1,,,,,テンズ,0
1931,8040003026857,新規,0,2025-02-14,2025-02-14,ジョイント合同会社,,合同会社,千葉県,千葉市緑区,あすみが丘東２丁目２６番地１グランヒルズ２０５号,,12,105,2670067,,,,,,,2025-02-14,1,,,,,ジョイント,0
1941,8090001019131,新規,0,2025-02-14,2025-02-14,株式会社ｎｏｉ,,株式会社,山梨県,富士吉田市,下吉田５丁目１番１号,,19,202,4030004,,,,,,,2025-02-14,1,,,,,ノイ,0
1943,8100001038303,新規,0,2025-02-14,2025-02-14,株式会社トーシン,,株式会社,長野県,上田市,大屋４９７番地３,,20,203,3860152,,,,,,,2025-02-14,1,,,,,トーシン,0
1946,8110003005663,新規,0,2025-02-14,2025-02-14,テトラパートナーズ合同会社,,合同会社,新潟県,南魚沼郡湯沢町,大字神立２７０４番地１８０４号室,,15,461,9496102,,,,,,,2025-02-14,1,,,,,テトラパートナーズ,0
1959,8120001272726,新規,0,2025-02-14,2025-02-14,株式会社Ｎｏｒｔｉｘ,,株式会社,大阪府,大阪市福島区,大開２丁目６－２０ＧｒａｎＥｂｉｓ７０４,,27,103,5530007,,,,,,,2025-02-14,1,,,,,ノーティックス,0
1960,8120001272817,新規,0,2025-02-14,2025-02-14,英光通商株式会社,,株式会社,大阪府,大阪市港区,弁天３丁目２４番８号,,27,107,5520007,,,,,,,2025-02-14,1,,,,,エイコウツウショウ,0
1961,8120001272825,新規,0,2025-02-14,2025-02-14,株式会社蓮コーポレーション,,株式会社,大阪府,枚方市,田口３丁目７番６号,,27,210,5731162,,,,,,,2025-02-14,1,,,,,ハスコーポレーション,0
1962,8120001272833,新規,0,2025-02-14,2025-02-14,株式会社ＲＩＧＥＬＵＳ,,株式会社,大阪府,大阪市西区,北堀江３丁目１０－１７－６１１,,27,106,5500014,,,,,,,2025-02-14,1,,,,,リゲルス,0
1963,8120001272858,新規,0,2025-02-14,2025-02-14,株式会社メディエッジ,,株式会社,大阪府,大阪市淀川区,東三国６丁目１番４１－４０２号,,27,123,5320002,,,,,,,2025-02-14,1,,,,,メディエッジ,0
1964,8120001272866,新規,0,2025-02-14,2025-02-14,三川株式会社,,株式会社,大阪府,大阪市住吉区,長居東４丁目１５－２１－４０３,,27,120,5580004,,,,,,,2025-02-14,1,,,,,ミカワ,0
1965,8120001272874,新規,0,2025-02-14,2025-02-14,株式会社ＯＣＥＡＮＢＬＩＮＫ,,株式会社,大阪府,大阪市中央区,南本町１丁目３番２１号トウマビル５０３号,,27,128,5410054,,,,,,,2025-02-14,1,,,,,オーシャンブリンク,0
1966,8120001272882,新規,0,2025-02-14,2025-02-14,芸裳文化伝媒株式会社,,株式会社,大阪府,大阪市阿倍野区,天王寺町南３丁目６番９－５０１号,,27,119,5450002,,,,,,,2025-02-14,1,,,,,ゲイショウブンカデンバイ,0
1967,8120001272890,新規,0,2025-02-14,2025-02-14,株式会社治る力研究所,,株式会社,大阪府,大阪市淀川区,十三東１丁目７－２０園田ビル１階,,27,123,5320023,,,,,,,2025-02-14,1,,,,,ナオルチカラケンキュウショ,0
1974,8120003028622,新規,0,2025-02-14,2025-02-14,合同会社静屋,,合同会社,大阪府,大阪市都島区,都島中通１丁目４番２号ジュネス中通３０１号,,27,102,5340022,,,,,,,2025-02-14,1,,,,,シズヤ,0
1994,8140003021658,新規,0,2025-02-14,2025-02-14,合同会社えむりい工芸,,合同会社,兵庫県,神戸市兵庫区,下沢通１丁目５番１４号福寿マンション３０１,,28,105,6520047,,,,,,,2025-02-14,1,,,,,エムリイ,0
2005,8180001165420,新規,0,2025-02-14,2025-02-14,株式会社フジドー,,株式会社,愛知県,稲沢市,小池２丁目２６番１８号,,23,220,4928144,,,,,,,2025-02-14,1,,,,,フジドー,0
2006,8180001165437,新規,0,2025-02-14,2025-02-14,株式会社旭グローバルパートナーズ,,株式会社,愛知県,あま市,七宝町伊福薬師１０６番地,,23,237,4970005,,,,,,,2025-02-14,1,,,,,アサヒグローバルパートナーズ,0
2010,8180003027998,新規,0,2025-02-14,2025-02-14,合同会社ＯＮＥ　ＬＩＦＥ,,合同会社,愛知県,名古屋市中区,千代田３丁目１１番３号１階,,23,106,4600012,,,,,,,2025-02-14,1,,,,,ワンライフ,0
2011,8180003028006,新規,0,2025-02-14,2025-02-14,マルコウ防水合同会社,,合同会社,愛知県,豊明市,新栄町２丁目４５番地,,23,229,4701154,,,,,,,2025-02-14,1,,,,,マルコウボウスイ,0
2019,8210005010180,新規,0,2025-02-14,2025-02-14,一般社団法人高浜みらい共創ファーム,,その他の設立登記法人,福井県,大飯郡高浜町,宮崎６５号６番地１ルミエール１０５,,18,481,9192225,,,,,,,2025-02-14,1,,,,,タカハマミライキョウソウファーム,0
2023,8240003007069,新規,0,2025-02-14,2025-02-14,合同会社グラシアス,,合同会社,広島県,安芸郡府中町,山田１丁目４番２号,,34,302,7350004,,,,,,,2025-02-14,1,,,,,グラシアス,0
2035,8290001108970,新規,0,2025-02-14,2025-02-14,株式会社ステップアーク,,株式会社,福岡県,福岡市博多区,上川端町１２番２０号,,40,132,8120026,,,,,,,2025-02-14,1,,,,,ステップアーク,0
2039,8290003016412,新規,0,2025-02-14,2025-02-14,合同会社ＣＫＫ,,合同会社,福岡県,太宰府市,水城３丁目１０番９号,,40,221,8180131,,,,,,,2025-02-14,1,,,,,シーケーケー,0
2040,8290005019644,新規,0,2025-02-14,2025-02-14,一般社団法人Ｌｉｆｅ　ｉｓ,,その他の設立登記法人,福岡県,糸島市,有田中央２丁目１番３６号,,40,230,8191127,,,,,,,2025-02-14,1,,,,,ライフイズ,0
2041,8290801031273,新規,0,2025-02-14,2025-02-14,株式会社ＪＡＭＡＤＡ　Ｇｒａｐｈｉｔｅ,,株式会社,福岡県,直方市,大字知古７９８－１,,40,204,8220022,,,,,,,2025-02-14,1,,,,,ジャマダグラファイト,0
2046,8290803004970,新規,0,2025-02-14,2025-02-14,リーヴルシャトー合同会社,,合同会社,福岡県,北九州市八幡西区,本城東３丁目６番１５－８号,,40,109,8070815,,,,,,,2025-02-14,1,,,,,リーヴルシャトー,0
2052,8340003004733,新規,0,2025-02-14,2025-02-14,ＨＩ　ＦＡＲＭ合同会社,,合同会社,鹿児島県,出水市,上鯖渕字上踊段２５５３番地,,46,208,8990203,,,,,,,2025-02-14,1,,,,,ハイファーム,0
2057,8360001034788,新規,0,2025-02-14,2025-02-14,株式会社ＳＵＮ　ＨＯＰＥ,,株式会社,沖縄県,宜野湾市,野嵩１丁目１７番９号,,47,205,9012203,,,,,,,2025-02-14,1,,,,,サンホープ,0
2058,8360003014689,新規,0,2025-02-14,2025-02-14,合同会社古謝,,合同会社,沖縄県,宮古島市,平良字西里１０１番地サザンハイツアグニ５０２号,,47,214,9060012,,,,,,,2025-02-14,1,,,,,コジャ,0
2060,8370001052228,新規,0,2025-02-14,2025-02-14,ＴＥＲＲＡ　ＥＳＴＡＴＥ株式会社,,株式会社,宮城県,仙台市太白区,柳生７丁目１１番地の８グリーンハイツＡ棟２０１,,04,104,9811106,,,,,,,2025-02-14,1,,,,,,0
2061,8370001052252,新規,0,2025-02-14,2025-02-14,奥羽グループ株式会社,,株式会社,宮城県,仙台市青葉区,中央２丁目２番３０号日興ビル４階,,04,101,9800021,,,,,,,2025-02-14,1,,,,,オウウグループ,0
2065,8380001035090,新規,0,2025-02-14,2025-02-14,日本特殊クリーン株式会社,,株式会社,福島県,郡山市,片平町字出磬森１番地の２６,,07,203,9630211,,,,,,,2025-02-14,1,,,,,ニホントクシュクリーン,0
2070,8410001014066,新規,0,2025-02-14,2025-02-14,株式会社Ｓｈｅｌｌｅｒ,,株式会社,秋田県,秋田市,南通築地３番１１号ドットビル２０１号室,,05,201,0100013,,,,,,,2025-02-14,1,,,,,シェラー,0
2071,8420001019015,新規,0,2025-02-14,2025-02-14,株式会社やまと大麻,,株式会社,青森県,むつ市,小川町１丁目１５番４０号,,02,208,0350071,,,,,,,2025-02-14,1,,,,,ヤマトタイマ,0
2075,8430001093686,新規,0,2025-02-14,2025-02-14,株式会社Ｆ‐Ｌａｂｏ,,株式会社,北海道,札幌市中央区,南五条西１５丁目２－３リズム医大前５０３,,01,101,0640805,,,,,,,2025-02-14,1,,,,,エフラボ,0
2081,8460101007667,新規,0,2025-02-14,2025-02-14,株式会社弘明工業,,株式会社,北海道,帯広市,西十六条北１丁目１３番地５４,,01,207,0800046,,,,,,,2025-02-14,1,,,,,コウメイコウギョウ,0
2096,9010001252201,新規,0,2025-02-14,2025-02-14,株式会社未来ラボ,,株式会社,東京都,中央区,晴海３丁目１３番１－５００４号,,13,102,1040053,,,,,,,2025-02-14,1,,,,,ミライラボ,0
2097,9010001252218,新規,0,2025-02-14,2025-02-14,株式会社クラリタス・パートナーズ,,株式会社,東京都,千代田区,丸の内１丁目１１番１号パシフィックセンチュリープレイス丸の内１３階,,13,101,1000005,,,,,,,2025-02-14,1,,,,,クラリタスパートナーズ,0
2098,9010001252226,新規,0,2025-02-14,2025-02-14,株式会社パワーレディ,,株式会社,東京都,中央区,入船１丁目９番地８号,,13,102,1040042,,,,,,,2025-02-14,1,,,,,パワーレディ,0
2099,9010001252275,新規,0,2025-02-14,2025-02-14,株式会社フードビジネスコンシェルジュ,,株式会社,東京都,中央区,銀座１丁目２２番１１号銀座大竹ビジデンス２Ｆ,,13,102,1040061,,,,,,,2025-02-14,1,,,,,フードビジネスコンシェルジュ,0
2101,9010003046394,新規,0,2025-02-14,2025-02-14,合同会社石嶋建設,,合同会社,東京都,千代田区,神田佐久間町２丁目１８番地１秋葉原ＳＴＮフロント１０階,,13,101,1010025,,,,,,,2025-02-14,1,,,,,イシジマケンセツ,0
2102,9010003046403,新規,0,2025-02-14,2025-02-14,合同会社Ｖ京都マネジメント,,合同会社,東京都,千代田区,霞が関３丁目２番５号,,13,101,1000013,,,,,,,2025-02-14,1,,,,,ブイキョウトマネジメント,0
2103,9010005039537,新規,0,2025-02-14,2025-02-14,飯田橋・神楽坂社会保険労務士法人,,その他の設立登記法人,東京都,千代田区,富士見１丁目３番１１号富士見デュープレックスＢ′ｓ,,13,101,1020071,,,,,,,2025-02-14,1,,,,,イイダバシカグラザカ,0
2111,9010401188128,新規,0,2025-02-14,2025-02-14,ハワイソーラー株式会社,,株式会社,東京都,港区,南青山２丁目２番１５号,,13,103,1070062,,,,,,,2025-02-14,1,,,,,ハワイソーラー,0
2112,9010401188210,新規,0,2025-02-14,2025-02-14,エスケイ株式会社,,株式会社,東京都,港区,浜松町２丁目２番１５号浜松町ダイヤビル２階,,13,103,1050013,,,,,,,2025-02-14,1,,,,,エスケイ,0
2122,9010603011384,新規,0,2025-02-14,2025-02-14,合同会社トレフル,,合同会社,東京都,墨田区,江東橋３丁目１１番２号ＹＳ錦糸町ビル２階,,13,107,1300022,,,,,,,2025-02-14,1,,,,,トレフル,0
2125,9010701047248,新規,0,2025-02-14,2025-02-14,株式会社Ｌｅｇａｔｕｓ,,株式会社,東京都,品川区,東品川１丁目３８番５号ストリーム品川イースト６０５,,13,109,1400002,,,,,,,2025-02-14,1,,,,,レガトゥス,0
2128,9010801035846,新規,0,2025-02-14,2025-02-14,スチームフーズ株式会社,,株式会社,東京都,大田区,新蒲田３丁目２－１３三光館１０１,,13,111,1440054,,,,,,,2025-02-14,1,,,,,スチームフーズ,0
2131,9010903009681,新規,0,2025-02-14,2025-02-14,合同会社ヤロク,,合同会社,東京都,世田谷区,梅丘２丁目２４番１４号マックハイツ梅丘１０２,,13,112,1540022,,,,,,,2025-02-14,1,,,,,ヤロク,0
2133,9011001167554,新規,0,2025-02-14,2025-02-14,株式会社Ｕ　ａｎｄ　Ｉ,,株式会社,東京都,渋谷区,東２丁目２０番１３‐２１８号,,13,113,1500011,,,,,,,2025-02-14,1,,,,,ユーアンドアイ,0
2134,9011001167579,新規,0,2025-02-14,2025-02-14,株式会社Ｓｗａｙｓ,,株式会社,東京都,渋谷区,桜丘町２３番１７号シティコート桜丘４０８,,13,113,1500031,,,,,,,2025-02-14,1,,,,,エスウェイズ,0
2136,9011003020926,新規,0,2025-02-14,2025-02-14,アート・アンド・ブックス合同会社,,合同会社,東京都,渋谷区,渋谷２丁目１９－１５宮益坂ビルディング６０９,,13,113,1500002,,,,,,,2025-02-14,1,,,,,アートアンドブックス,0
2137,9011003020934,新規,0,2025-02-14,2025-02-14,合同会社Ｓｕｐｅｒｐｅｏｐｌｅ,,合同会社,東京都,渋谷区,道玄坂１丁目１０番８号渋谷道玄坂東急ビル２Ｆ－Ｃ,,13,113,1500043,,,,,,,2025-02-14,1,,,,,スーパーピープル,0
2143,9011201026122,新規,0,2025-02-14,2025-02-14,ＴＡＫＩＴＡｂｌｅ株式会社,,株式会社,東京都,中野区,弥生町６丁目１０番１１号,,13,114,1640013,,,,,,,2025-02-14,1,,,,,タキタブル,0
2144,9011501031697,新規,0,2025-02-14,2025-02-14,株式会社ＥＭＡ,,株式会社,東京都,北区,田端２丁目４番１２号,,13,117,1140014,,,,,,,2025-02-14,1,,,,,イーエムエー,0
2145,9011503006425,新規,0,2025-02-14,2025-02-14,ＹＭＡＭ合同会社,,合同会社,東京都,荒川区,東日暮里５丁目４２番８－１１０６号,,13,118,1160014,,,,,,,2025-02-14,1,,,,,ワイエムエーエム,0
2155,9020001161335,新規,0,2025-02-14,2025-02-14,大有国際株式会社,,株式会社,神奈川県,横浜市港北区,新吉田東５丁目７０番１６号,,14,109,2230058,,,,,,,2025-02-14,1,,,,,ダユウコクサイ,0
2156,9020001161418,新規,0,2025-02-14,2025-02-14,株式会社ＫＤＳ,,株式会社,神奈川県,横浜市保土ケ谷区,仏向西３５番８号,,14,106,2400046,,,,,,,2025-02-14,1,,,,,ケーディーエス,0
2157,9020001161450,新規,0,2025-02-14,2025-02-14,株式会社シャイン,,株式会社,神奈川県,横浜市鶴見区,駒岡４丁目６番２９号,,14,101,2300071,,,,,,,2025-02-14,1,,,,,シャイン,0
2159,9020003027773,新規,0,2025-02-14,2025-02-14,ジャパン経済合同会社,,合同会社,神奈川県,横浜市中区,初音町３丁目５８－１マリオン伊勢佐木北８０４,,14,104,2310053,,,,,,,2025-02-14,1,,,,,ジャパンケイザイ,0
2163,9021003015586,新規,0,2025-02-14,2025-02-14,ＫＫＰＭＨ合同会社,,合同会社,神奈川県,横須賀市,湘南鷹取２丁目３４－４,,14,201,2370066,,,,,,,2025-02-14,1,,,,,ケーケーピーエムエイチ,0
2166,9030001164857,新規,0,2025-02-14,2025-02-14,株式会社Ｗｉｔｈ　ｅ,,株式会社,埼玉県,さいたま市大宮区,桜木町２丁目３番地大宮マルイ７階,,11,103,3300854,,,,,,,2025-02-14,1,,,,,ウィズイー,0
2167,9030001164873,新規,0,2025-02-14,2025-02-14,株式会社ｋｉｄｓｒｏｏｍ　ＴｉｎｋｅｒＢｅｌｌ,,株式会社,埼玉県,新座市,野火止４丁目１５番８号,,11,230,3520011,,,,,,,2025-02-14,1,,,,,キッズルームティンカーベル,0
2169,9030003026114,新規,0,2025-02-14,2025-02-14,合同会社ＧＦデリバリー,,合同会社,埼玉県,狭山市,狭山台１丁目１３－５－２０３,,11,215,3501304,,,,,,,2025-02-14,1,,,,,ジーエフデリバリー,0
2176,9040001137366,新規,0,2025-02-14,2025-02-14,株式会社山中企画,,株式会社,千葉県,野田市,山崎１０６５番地,,12,208,2780022,,,,,,,2025-02-14,1,,,,,ヤマナカキカク,0
2177,9040001137382,新規,0,2025-02-14,2025-02-14,日本国際教育集団株式会社,,株式会社,千葉県,木更津市,かずさ鎌足１丁目１番地１,,12,206,2920818,,,,,,,2025-02-14,1,,,,,ニホンコクサイキョウイクシューダン,0
2179,9040003026856,新規,0,2025-02-14,2025-02-14,合同会社旬菜工房,,合同会社,千葉県,茂原市,東部台１丁目７番地４号２０５号室,,12,210,2970015,,,,,,,2025-02-14,1,,,,,シュンサイコウボウ,0
2180,9040003026864,新規,0,2025-02-14,2025-02-14,合同会社山の巳,,合同会社,千葉県,東金市,日吉台３丁目３３番地７,,12,213,2830803,,,,,,,2025-02-14,1,,,,,ヤマノミ,0
2191,9110001039051,新規,0,2025-02-14,2025-02-14,株式会社トゥクサイト,,株式会社,新潟県,新潟市東区,津島屋３丁目６６番地３,,15,102,9500801,,,,,,,2025-02-14,1,,,,,トゥクサイト,0
2193,9110003005662,新規,0,2025-02-14,2025-02-14,合同会社Ｏｒｉｇａｍｉ　Ｃｒｅａｔｅ,,合同会社,新潟県,十日町市,姿甲３８９５－８,,15,210,9498561,,,,,,,2025-02-14,1,,,,,オリガミクリエイト,0
2198,9120001272824,新規,0,2025-02-14,2025-02-14,株式会社晃洋建設,,株式会社,大阪府,大阪市旭区,大宮４丁目２２番１５－５０７号,,27,117,5350002,,,,,,,2025-02-14,1,,,,,コウヨウケンセツ,0
2199,9120001272865,新規,0,2025-02-14,2025-02-14,ＫＩＫミラクルインベスト株式会社,,株式会社,大阪府,大阪市淀川区,新北野１丁目８番５号,,27,123,5320025,,,,,,,2025-02-14,1,,,,,ケイアイケイミラクルインベスト,0
2200,9120001272907,新規,0,2025-02-14,2025-02-14,株式会社ＸＴＹ,,株式会社,大阪府,大阪市都島区,中野町１丁目７番７号,,27,102,5340027,,,,,,,2025-02-14,1,,,,,エックスティーワイ,0
2201,9120001272956,新規,0,2025-02-14,2025-02-14,株式会社あかつき堂,,株式会社,大阪府,大阪市北区,梅田１丁目１‐３大阪駅前第３ビル２９階１‐１‐１号室,,27,127,5300001,,,,,,,2025-02-14,1,,,,,アカツキドウ,0
2209,9120003028571,新規,0,2025-02-14,2025-02-14,ＢＩＺ　ＥＩＧＨＴ合同会社,,合同会社,大阪府,大阪市西区,立売堀４丁目５番２７号シティビル阿波座９階,,27,106,5500012,,,,,,,2025-02-14,1,,,,,ビズエイト,0
2210,9120005024791,新規,0,2025-02-14,2025-02-14,社会保険労務士法人テミアス,,その他の設立登記法人,大阪府,大阪市西区,江戸堀１丁目２３－１９グラン・ビルド江戸堀５０１,,27,106,5500002,,,,,,,2025-02-14,1,,,,,テミアス,0
2229,9140001137372,新規,0,2025-02-14,2025-02-14,株式会社ＹＳ２コーポレーション,,株式会社,兵庫県,神戸市北区,京地４丁目６番地の６,,28,109,6511304,,,,,,,2025-02-14,1,,,,,ワイエスズコーポレーション,0
2230,9140001137389,新規,0,2025-02-14,2025-02-14,株式会社ＫＴ,,株式会社,兵庫県,尼崎市,武庫町１丁目３５番３－１０６号,,28,202,6610044,,,,,,,2025-02-14,1,,,,,ケーティー,0
2233,9140003021657,新規,0,2025-02-14,2025-02-14,Ｎメンテナンス合同会社,,合同会社,兵庫県,尼崎市,久々知西町２丁目６－２,,28,202,6610978,,,,,,,2025-02-14,1,,,,,エヌメンテナンス,0
2243,9180001165403,新規,0,2025-02-14,2025-02-14,株式会社弥栄,,株式会社,愛知県,名古屋市西区,香呑町３丁目９７番地ＷＩＬＬ・ＳＴＡＧＥ・ＢＩＨＯＵ６０２号,,23,104,4510015,,,,,,,2025-02-14,1,,,,,イヤサカ,0
2245,9180301039521,新規,0,2025-02-14,2025-02-14,株式会社ＭＩＹＡＢＩ,,株式会社,愛知県,岡崎市,中岡崎町５番地６,,23,202,4440921,,,,,,,2025-02-14,1,,,,,ミヤビ,0
2248,9180303006453,新規,0,2025-02-14,2025-02-14,合同会社ＳＡＴ,,合同会社,愛知県,田原市,西神戸町神明前４４番地１,,23,231,4413423,,,,,,,2025-02-14,1,,,,,サット,0
2259,9240001064524,新規,0,2025-02-14,2025-02-14,株式会社山陽セキュリティ,,株式会社,広島県,安芸郡府中町,青崎東４－８０－２０７,,34,302,7350015,,,,,,,2025-02-14,1,,,,,サンヨウセキュリティ,0
2269,9290001108978,新規,0,2025-02-14,2025-02-14,株式会社リヴェーラ,,株式会社,福岡県,福岡市博多区,博多駅東１丁目２－５日之出ビル博多駅前６０５,,40,132,8120013,,,,,,,2025-02-14,1,,,,,リヴェーラ,0
2270,9290001108994,新規,0,2025-02-14,2025-02-14,Ｂ＆Ｐ株式会社,,株式会社,福岡県,福岡市博多区,上呉服町１０番３０号富田ビル２階,,40,132,8120036,,,,,,,2025-02-14,1,,,,,ビーアンドピー,0
2271,9290003016386,新規,0,2025-02-14,2025-02-14,エリユヂカ・アール・イー合同会社,,合同会社,福岡県,福岡市中央区,舞鶴３丁目８－１０,,40,133,8100073,,,,,,,2025-02-14,1,,,,,エリユヂカアールイー,0
2272,9290005019651,新規,0,2025-02-14,2025-02-14,一般社団法人開運美文字塾,,その他の設立登記法人,福岡県,福岡市中央区,薬院３丁目３番２３号,,40,133,8100022,,,,,,,2025-02-14,1,,,,,カイウンビモジジュク,0
2273,9290801031272,新規,0,2025-02-14,2025-02-14,株式会社Ｈｉｌｏ,,株式会社,福岡県,直方市,大字植木３６４番地,,40,204,8220031,,,,,,,2025-02-14,1,,,,,ヒロ,0
2280,9320003004577,新規,0,2025-02-14,2025-02-14,ハウスエージェンシー合同会社,,合同会社,大分県,宇佐市,院内町原口４１０番地の７,,44,211,8720333,,,,,,,2025-02-14,1,,,,,ハウスエージェンシー,0
2281,9340001027116,新規,0,2025-02-14,2025-02-14,株式会社カシスト,,株式会社,鹿児島県,鹿児島市,石谷町２４１３番地１１,,46,201,8992701,,,,,,,2025-02-14,1,,,,,カシスト,0
2282,9340003004749,新規,0,2025-02-14,2025-02-14,ｍｉｋｅｎｏｎ合同会社,,合同会社,鹿児島県,姶良市,加治木町本町３０２番地,,46,225,8995215,,,,,,,2025-02-14,1,,,,,ミケノン,0
2283,9350001019392,新規,0,2025-02-14,2025-02-14,株式会社ＪＵＬＹ　ＥＴ　ＮＩＣＯ,,株式会社,宮崎県,都城市,乙房町１７９５番地１,,45,202,8850112,,,,,,,2025-02-14,1,,,,,ジュリエニコ,0
2285,9360001034787,新規,0,2025-02-14,2025-02-14,株式会社ハマダ,,株式会社,沖縄県,那覇市,前島２丁目７番１－２０３号まえむら２１,,47,201,9000016,,,,,,,2025-02-14,1,,,,,ハマダ,0
2289,9370001052235,新規,0,2025-02-14,2025-02-14,株式会社ＦｏｒＢｅｓｔコンサルティング,,株式会社,宮城県,仙台市青葉区,中央２丁目２－１０仙都会館ビル５階,,04,101,9800021,,,,,,,2025-02-14,1,,,,,,0
2291,9370003006940,新規,0,2025-02-14,2025-02-14,合同会社Ｂｅｂｏｐ,,合同会社,宮城県,宮城郡利府町,赤沼字中倉５１―５ＯＨＬＭ２管理棟,,04,406,9810101,,,,,,,2025-02-14,1,,,,,ビバップ,0
2298,9410001014065,新規,0,2025-02-14,2025-02-14,株式会社Ｓｏｉｌ,,株式会社,秋田県,秋田市,泉北１丁目１１番２５号,,05,201,0100916,,,,,,,2025-02-14,1,,,,,ソイル,0
2302,9450003002601,新規,0,2025-02-14,2025-02-14,合同会社ポムちゃんタクシー,,合同会社,北海道,増毛郡増毛町,永寿町４丁目５６番地,,01,481,0770201,,,,,,,2025-02-14,1,,,,,ポムチャンタクシー,0
2309,9700150129007,新規,0,2025-02-14,2025-02-14,ＧＯＬＤ　ＰＲＯＪＥＣＴ　ＨＯＬＤＩＮＧＳ　ＬＩＭＩＴＥＤ,,外国会社等,,,,,,,,Ｉｎｔｅｒｓｈｏｒｅ　Ｃｈａｍｂｅｒｓ，Ｒｏａｄ　Ｔｏｗｎ，Ｔｏｒｔｏｌａ，Ｂｒｉｔｉｓｈ　Ｖｉｒｇｉｎ　Ｉｓｌａｎｄｓ,,,,,,2025-02-14,1,,,,,ゴールドプロジエクトホールデイングスリミテツド,0
