sequenceNumber,corporateNumber,process,correct,updateDate,changeDate,name,nameImageId,kind,prefectureName,cityName,streetNumber,addressImageId,prefectureCode,cityCode,postCode,addressOutside,addressOutsideImageId,closeDate,closeCause,successorCorporateNumber,changeCause,assignmentDate,latest,enName,enPrefectureName,enCityName,enAddressOutside,furigana,hihyoji
2,1010001121264,登記記録の閉鎖等,0,2023-12-01,2023-11-28,株式会社ティック,,株式会社,埼玉県,越谷市,川柳町１丁目３２７番地３,,11,222,3430827,,,2023-11-28,清算の結了等,,,2015-10-05,1,,,,,ティック,0
24,1010801004552,登記記録の閉鎖等,0,2023-12-01,2023-11-28,株式会社佐川製作所,,株式会社,東京都,大田区,東六郷２丁目４番１８号,,13,111,1440046,,,2023-11-28,清算の結了等,,,2015-10-05,1,,,,,サガワセイサクショ,0
25,1010801033502,登記記録の閉鎖等,0,2023-12-01,2023-11-30,株式会社剛,,株式会社,東京都,大田区,西蒲田７丁目４８番１４号蒲田センタービル７階Ｅ号室,,13,111,1440051,,,2023-11-30,清算の結了等,,,2022-12-09,1,,,,,ゴウ,0
49,1011701014749,登記記録の閉鎖等,0,2023-12-01,2023-11-27,株式会社栄倫,,株式会社,東京都,江戸川区,中葛西５丁目３３番９－４０１号松本ビル,,13,123,1340083,,,2023-11-27,清算の結了等,,,2015-10-05,1,,,,,エイリン,0
55,1012802000877,登記記録の閉鎖等,0,2023-12-01,2023-11-28,有限会社壽商会,,有限会社,東京都,立川市,錦町３丁目１番１５号,,13,202,1900022,,,2023-11-28,清算の結了等,,,2015-10-05,1,,,,,コトブキショウカイ,0
65,1020001119638,登記記録の閉鎖等,0,2023-12-01,2023-11-29,株式会社エレキトリック,,株式会社,神奈川県,横浜市戸塚区,戸塚町４７５番地２レクセルヒルズ戸塚３０６号,,14,110,2440003,,,2023-11-29,清算の結了等,,,2017-01-24,1,,,,,エレキトリック,0
128,1120001070632,登記記録の閉鎖等,0,2023-12-01,2023-11-29,株式会社松本,,株式会社,大阪府,大阪市北区,曾根崎新地１丁目４番２５号,,27,127,5300002,,,2023-11-29,清算の結了等,,,2015-10-05,1,,,,,マツモト,0
139,1120002061432,登記記録の閉鎖等,0,2023-12-01,2023-11-27,有限会社感動セールスサポート,,有限会社,大阪府,大阪市都島区,善源寺町２丁目２番７－１３８,,27,102,5340015,,,2023-11-27,清算の結了等,,,2015-10-05,1,,,,,カンドウセールスサポート,0
143,1120101065607,登記記録の閉鎖等,0,2023-12-01,2023-11-28,株式会社オカムラＯｓａｋａ,,株式会社,大阪府,松原市,高見の里４丁目８－１６,,27,217,5800021,,,2023-11-28,合併による解散等,7013101000068,令和５年１１月２１日東京都福生市大字熊川８０１番地２０株式会社オカムラ（7013101000068）に合併し解散,2022-05-19,1,,,,,オカムラオオサカ,0
146,1122002005740,登記記録の閉鎖等,0,2023-12-01,2023-11-28,ダイワ企画有限会社,,有限会社,神奈川県,茅ヶ崎市,鶴が台１５番１－４０２号,,14,207,2530003,,,2023-11-28,清算の結了等,,,2015-10-05,1,,,,,ダイワキカク,0
154,1130003005024,登記記録の閉鎖等,0,2023-12-01,2023-11-29,合同会社Ｚｉｎ’ｓ　Ｙｏｕ，Ｂａｕｍ,,合同会社,京都府,福知山市,字天田１０９番地の１４,,26,201,6200000,,,2023-11-29,清算の結了等,,,2017-05-10,1,,,,,ジンズユーバウム,0
155,1130003007945,登記記録の閉鎖等,0,2023-12-01,2023-11-28,Ｇ‐ｃａｓｔ　ｃｏｍｐａｎｙ合同会社,,合同会社,京都府,京都市中京区,柿本町３８７－１浦上ビル３階,,26,104,6048173,,,2023-11-28,清算の結了等,,,2022-05-27,1,,,,,ジーキャストカンパニー,0
161,1140002068079,登記記録の閉鎖等,0,2023-12-01,2023-11-20,ロングライフメディカル株式会社,,株式会社,大阪府,大阪市北区,中崎西２丁目４番１２号梅田センタービル２５階,,27,127,5300015,,,2023-11-20,合併による解散等,9120001128258,令和５年１０月３１日大阪市北区中崎西二丁目４番１２号梅田センタービル２５階エルケア株式会社（9120001128258）に合併し解散,2015-10-05,1,,,,,ロングライフメディカル,0
166,1180001070437,登記記録の閉鎖等,0,2023-12-01,2023-11-29,株式会社ダイヤモンド・フィールド,,株式会社,愛知県,名古屋市中村区,名駅南１丁目７番１９号,,23,105,4500003,,,2023-11-29,清算の結了等,,,2015-10-05,1,,,,,ダイヤモンドフィールド,0
178,1180305003613,登記記録の閉鎖等,0,2023-12-01,2023-11-28,木曽御嶽本教豊川教会,,その他の設立登記法人,愛知県,豊川市,桜木通１丁目５１番地,,23,207,4420027,,,2023-11-28,清算の結了等,,,2015-10-05,1,,,,,キソオンタケホンキョウトヨカワキョウカイ,0
179,1190005010982,登記記録の閉鎖等,0,2023-12-01,2023-11-27,一般社団法人環境を考える会,,その他の設立登記法人,三重県,伊賀市,希望ヶ丘西１丁目２番９号,,24,216,5191423,,,2023-11-27,清算の結了等,,,2016-09-29,1,,,,,カンキョウヲカンガエルカイ,0
180,1200001006999,登記記録の閉鎖等,0,2023-12-01,2023-11-30,株式会社キクカワ,,株式会社,岐阜県,各務原市,那加新加納町２３４２番地の２,,21,213,5040958,,,2023-11-30,清算の結了等,,,2015-10-05,1,,,,,キクカワ,0
190,1260002029283,登記記録の閉鎖等,0,2023-12-01,2023-11-29,冨士飲料有限会社,,有限会社,岡山県,津山市,志戸部７０９番地,,33,203,7080825,,,2023-11-29,清算の結了等,,,2015-10-05,1,,,,,フジインリョウ,0
198,1290003001346,登記記録の閉鎖等,0,2023-12-01,2023-11-22,合資会社エフエックスラボ,,合資会社,福岡県,福岡市中央区,唐人町３丁目２番３７－６０３号,,40,133,8100063,,,2023-11-22,清算の結了等,,,2015-10-05,1,,,,,,0
217,1360005006294,登記記録の閉鎖等,0,2023-12-01,2023-11-29,一般社団法人リゾテックドライブ,,その他の設立登記法人,沖縄県,那覇市,松尾１丁目２番地３号,,47,201,9000014,,,2023-11-29,清算の結了等,,,2020-09-24,1,,,,,リゾテックドライブ,0
220,1370401000478,登記記録の閉鎖等,0,2023-12-01,2023-11-30,株式会社ジョイショッピングプラザ,,株式会社,宮城県,登米市,迫町佐沼字新大東８番地２,,04,212,9870511,,,2023-11-30,清算の結了等,,,2015-10-05,1,,,,,,0
238,2010002041989,登記記録の閉鎖等,0,2023-12-01,2023-11-27,有限会社モンキータウンプロダクション,,有限会社,東京都,千代田区,富士見１丁目５番１号,,13,101,1020071,,,2023-11-27,清算の結了等,,,2015-10-05,1,,,,,モンキータウンプロダクション,0
239,2010003039917,登記記録の閉鎖等,0,2023-12-01,2023-11-28,合同会社ＫＬＦ３,,合同会社,東京都,千代田区,内幸町２丁目１番６号,,13,101,1000011,,,2023-11-28,清算の結了等,,,2023-03-01,1,,,,,ケイエルエフスリー,0
243,2010401140953,登記記録の閉鎖等,0,2023-12-01,2023-11-21,Ｍｉｊｉｋａ株式会社,,株式会社,東京都,世田谷区,玉川１丁目１４番１号,,13,112,1580094,,,2023-11-21,清算の結了等,,,2018-09-20,1,,,,,ミジカ,0
248,2010401155563,登記記録の閉鎖等,0,2023-12-01,2023-11-29,株式会社ＤＩＧＩＴＡＬ　ＣＲＥＡＭ,,株式会社,東京都,新宿区,西新宿１丁目５番１２号ニューセントラルビル８０３号室,,13,104,1600023,,,2023-11-29,清算の結了等,,,2020-10-07,1,,,,,デジタルクリーム,0
259,2010702009815,登記記録の閉鎖等,0,2023-12-01,2023-11-29,有限会社サラ,,有限会社,東京都,品川区,東中延２丁目１０番１３号,,13,109,1420052,,,2023-11-29,清算の結了等,,,2015-10-05,1,,,,,サラ,0
266,2010901037294,登記記録の閉鎖等,0,2023-12-01,2023-11-27,株式会社新屋敷,,株式会社,東京都,世田谷区,北烏山３丁目２６番８号,,13,112,1570061,,,2023-11-27,合併による解散等,8010901005790,令和５年１１月２７日東京都世田谷区北烏山三丁目２６番８号株式会社新屋敷工務店（8010901005790）に合併し解散,2015-12-22,1,,,,,シンヤシキ,0
279,2011302006013,登記記録の閉鎖等,0,2023-12-01,2023-11-27,有限会社月星シューズ,,有限会社,東京都,杉並区,上荻１丁目９番１号,,13,115,1670043,,,2023-11-27,清算の結了等,,,2015-10-05,1,,,,,ツキボシシューズ,0
288,2011502001111,登記記録の閉鎖等,0,2023-12-01,2023-11-28,有限会社大垣塗装工業,,有限会社,東京都,北区,中十条１丁目３番１７号,,13,117,1140032,,,2023-11-28,清算の結了等,,,2015-10-05,1,,,,,オオガキトソウコウギョウ,0
292,2011801007098,登記記録の閉鎖等,0,2023-12-01,2023-11-28,共和産業株式会社,,株式会社,東京都,足立区,扇１丁目１７番１１号,,13,121,1230873,,,2023-11-28,清算の結了等,,,2015-10-05,1,,,,,キョウワサンギョウ,0
313,2020003014571,登記記録の閉鎖等,0,2023-12-01,2023-11-28,ＴＲエステート合同会社,,合同会社,神奈川県,横浜市磯子区,岡村３丁目６番３５号,,14,107,2350021,,,2023-11-28,清算の結了等,,,2018-07-05,1,,,,,ティーアールエステート,0
322,2021002072321,登記記録の閉鎖等,0,2023-12-01,2023-11-29,フォーレスト有限会社,,有限会社,神奈川県,相模原市緑区,名倉３１１４番地,,14,151,2520187,,,2023-11-29,清算の結了等,,,2015-10-05,1,,,,,フォーレスト,0
325,2030001118209,登記記録の閉鎖等,0,2023-12-01,2023-11-24,そうか家守センター株式会社,,株式会社,埼玉県,草加市,高砂２丁目１８番２６－１１０６号,,11,221,3400015,,,2023-11-24,清算の結了等,,,2017-01-19,1,,,,,ソウカヤモリセンター,0
363,2100001013212,登記記録の閉鎖等,0,2023-12-01,2023-11-27,信州塩業株式会社,,株式会社,長野県,松本市,庄内３丁目３番１２号,,20,202,3900828,,,2023-11-27,清算の結了等,,,2015-10-05,1,,,,,シンシュウエンギョウ,0
367,2110001021412,登記記録の閉鎖等,0,2023-12-01,2023-11-20,株式会社佐藤洋品店,,株式会社,新潟県,十日町市,宇都宮６０番地,,15,210,9480000,,,2023-11-20,清算の結了等,,,2015-10-05,1,,,,,サトウヨウヒンテン,0
373,2110002021097,登記記録の閉鎖等,0,2023-12-01,2023-11-29,有限会社和田鉄工所,,有限会社,新潟県,柏崎市,安政町２番５１号,,15,205,9450071,,,2023-11-29,清算の結了等,,,2015-10-05,1,,,,,ワダテッコウジョ,0
377,2120001157858,登記記録の閉鎖等,0,2023-12-01,2023-11-30,株式会社トーホー機械,,株式会社,大阪府,門真市,四宮６丁目１番３２号,,27,223,5710017,,,2023-11-30,清算の結了等,,,2015-10-05,1,,,,,トーホーキカイ,0
391,2120901035493,登記記録の閉鎖等,0,2023-12-01,2023-11-01,株式会社ＲｏｋｕｍｏｎＴｅｃｈ,,株式会社,京都府,京田辺市,同志社山手４丁目２番地８９,,26,211,6100315,,,2023-11-01,合併による解散等,1130001067537,令和５年１１月１日京都府京田辺市同志社山手四丁目２番地８９株式会社Ｋ２（1130001067537）に合併し解散,2015-10-05,1,,,,,ロクモンテック,0
392,2122002005698,登記記録の閉鎖等,0,2023-12-01,2023-11-30,有限会社三幸,,有限会社,大阪府,東大阪市,荒本北３丁目３番２１号,,27,227,5770011,,,2023-11-30,清算の結了等,,,2015-10-05,1,,,,,ミユキ,0
428,2240005003229,登記記録の閉鎖等,0,2023-12-01,2023-11-30,特定非営利活動法人二葉の里に桜並木を復活させる会,,その他の設立登記法人,広島県,広島市東区,温品６丁目２３番１４号,,34,102,7320033,,,2023-11-30,清算の結了等,,,2015-10-05,1,,,,,フタバノサトニサクラナミキヲフッカツサセルカイ,0
451,2310005007230,登記記録の閉鎖等,0,2023-12-01,2023-11-28,一般財団法人サンパーク吉井,,その他の設立登記法人,長崎県,佐世保市,吉井町吉元４５３番地,,42,202,8596324,,,2023-11-28,合併による解散等,9310005008701,令和５年１１月２８日長崎県佐世保市吉井町吉元４５３番地一般社団法人サンパーク吉井（9310005008701）に合併し解散,2015-10-05,1,,,,,サンパークヨシイ,0
458,2340001009632,登記記録の閉鎖等,0,2023-12-01,2023-11-29,株式会社アイラコム,,株式会社,鹿児島県,姶良市,平松２７００番地２１,,46,225,8995652,,,2023-11-29,清算の結了等,,,2015-10-05,1,,,,,アイラコム,0
470,2400001000097,登記記録の閉鎖等,0,2023-12-01,2023-11-28,株式会社アルファ・デザイン,,株式会社,岩手県,盛岡市,上田３丁目１１番２８号,,03,201,0200066,,,2023-11-28,清算の結了等,,,2015-10-05,1,,,,,アルファデザイン,0
505,3010001110307,登記記録の閉鎖等,0,2023-12-01,2023-11-29,株式会社マベリックトランスナショナル,,株式会社,東京都,千代田区,麹町２丁目１０番地１０号パレスサイドステージ１階,,13,101,1020083,,,2023-11-29,清算の結了等,,,2015-10-05,1,,,,,マベリックトランスナショナル,0
507,3010001136756,登記記録の閉鎖等,0,2023-12-01,2023-11-28,株式会社タイム,,株式会社,東京都,千代田区,九段北１丁目２番１号,,13,101,1020073,,,2023-11-28,清算の結了等,,,2015-10-05,1,,,,,タイム,0
516,3010002020554,登記記録の閉鎖等,0,2023-12-01,2023-11-27,有限会社島崎商事,,有限会社,東京都,中央区,日本橋３丁目８番１０号,,13,102,1030027,,,2023-11-27,清算の結了等,,,2015-10-05,1,,,,,シマザキショウジ,0
521,3010401013398,登記記録の閉鎖等,0,2023-12-01,2023-11-24,株式会社篠田企画,,株式会社,埼玉県,越谷市,蒲生３丁目４番２９号,,11,222,3430838,,,2023-11-24,清算の結了等,,,2015-10-05,1,,,,,シノダキカク,0
570,3011402000402,登記記録の閉鎖等,0,2023-12-01,2023-11-29,有限会社梓建設,,有限会社,東京都,板橋区,大谷口北町５０番５号,,13,119,1730031,,,2023-11-29,清算の結了等,,,2015-10-05,1,,,,,アズサケンセツ,0
591,3020002071885,登記記録の閉鎖等,0,2023-12-01,2023-11-28,有限会社翼ビジネス,,有限会社,神奈川県,横浜市都筑区,北山田３丁目８番２１号,,14,118,2240021,,,2023-11-28,清算の結了等,,,2015-10-05,1,,,,,ツバサビジネス,0
601,3021003000148,登記記録の閉鎖等,0,2023-12-01,2023-11-30,合資会社電協湘南,,合資会社,神奈川県,藤沢市,鵠沼石上３丁目１番１０号,,14,205,2510025,,,2023-11-30,清算の結了等,,,2015-10-05,1,,,,,デンキョウショウナン,0
606,3030001087774,登記記録の閉鎖等,0,2023-12-01,2023-11-29,アマノ電子株式会社,,株式会社,埼玉県,深谷市,岡１６３３番地,,11,218,3690201,,,2023-11-29,清算の結了等,,,2015-10-05,1,,,,,アマノデンシ,0
614,3030002055771,登記記録の閉鎖等,0,2023-12-01,2023-11-22,有限会社松月,,有限会社,埼玉県,桶川市,寿１丁目７番１２号,,11,231,3630016,,,2023-11-22,清算の結了等,,,2015-10-05,1,,,,,ショウゲツ,0
624,3040005017883,登記記録の閉鎖等,0,2023-12-01,2023-11-24,昭和電工マテリアルズ関連労働組合連合会,,その他の設立登記法人,千葉県,柏市,末広町７番３号,,12,217,2770842,,,2023-11-24,清算の結了等,,,2015-10-05,1,,,,,ショウワデンコウマテリアルズカンレンレンゴウカイ,0
627,3050002015773,登記記録の閉鎖等,0,2023-12-01,2023-11-27,有限会社花屋,,有限会社,茨城県,石岡市,府中２丁目７番６号,,08,205,3150013,,,2023-11-27,清算の結了等,,,2015-10-05,1,,,,,ハナヤ,0
631,3070001006805,登記記録の閉鎖等,0,2023-12-01,2023-11-28,黒沢薬業株式会社,,株式会社,群馬県,高崎市,栄町１４番１号,,10,202,3700841,,,2023-11-28,清算の結了等,,,2015-10-05,1,,,,,クロサワヤクギョウ,0
638,3080002014095,登記記録の閉鎖等,0,2023-12-01,2023-11-13,有限会社静岡木材防腐,,有限会社,静岡県,島田市,金谷河原１１１２番地の２,,22,209,4280021,,,2023-11-13,清算の結了等,,,2015-10-05,1,,,,,シズオカモクザイボウフ,0
642,3080402009637,登記記録の閉鎖等,0,2023-12-01,2023-11-29,有限会社浩緑園,,有限会社,静岡県,湖西市,新居町内山３６６番地の４９,,22,221,4310304,,,2023-11-29,清算の結了等,,,2015-10-05,1,,,,,コウリョクエン,0
647,3100003001998,登記記録の閉鎖等,0,2023-12-01,2023-11-27,合名会社上條薬局,,合名会社,長野県,安曇野市,穂高柏原９１２番地,,20,220,3998304,,,2023-11-27,清算の結了等,,,2015-10-05,1,,,,,カミジョウヤッキョク,0
650,3110001009753,登記記録の閉鎖等,0,2023-12-01,2023-11-29,株式会社　オーケーエー,,株式会社,新潟県,新潟市中央区,近江２丁目２０番３８号,,15,103,9500971,,,2023-11-29,清算の結了等,,,2015-10-05,1,,,,,オーケーエー,0
666,3122002003239,登記記録の閉鎖等,0,2023-12-01,2023-11-30,有限会社テラオ,,有限会社,大阪府,東大阪市,荒本北３丁目３番２１号,,27,227,5770011,,,2023-11-30,清算の結了等,,,2015-10-05,1,,,,,テラオ,0
696,3180001132771,登記記録の閉鎖等,0,2023-12-01,2023-11-29,株式会社Ａｖｅｓ,,株式会社,愛知県,名古屋市西区,名駅２丁目３４番１７号セントラル名古屋７１１,,23,104,4510045,,,2023-11-29,清算の結了等,,,2018-06-25,1,,,,,アウェス,0
710,3210002009882,登記記録の閉鎖等,0,2023-12-01,2023-11-27,有限会社マルコセンイ,,有限会社,福井県,勝山市,元町２丁目７番２９号,,18,206,9110804,,,2023-11-27,清算の結了等,,,2015-10-05,1,,,,,マルコセンイ,0
713,3220002007902,登記記録の閉鎖等,0,2023-12-01,2023-11-30,有限会社ヨシオカ自動車,,有限会社,石川県,金沢市,示野中町１丁目１４０番地,,17,201,9200058,,,2023-11-30,清算の結了等,,,2015-10-05,1,,,,,ヨシオカジドウシャ,0
722,3290001030650,登記記録の閉鎖等,0,2023-12-01,2023-11-22,株式会社レ・ムーブ,,株式会社,福岡県,福岡市中央区,桜坂３丁目８番１－３０２号,,40,133,8100024,,,2023-11-22,清算の結了等,,,2015-10-05,1,,,,,,0
731,3290003010527,登記記録の閉鎖等,0,2023-12-01,2023-11-20,ランド株式会社,,株式会社,福岡県,福岡市博多区,千代２丁目２２－８一豊ビル２０２,,40,132,8120044,,,2023-11-20,清算の結了等,,,2020-10-15,1,,,,,ランド,0
732,3290003010799,登記記録の閉鎖等,0,2023-12-01,2023-11-22,Ｓｕｎ　Ｃｈｅｍｉｃａｌ　Ｊａｐａｎ合同会社,,合同会社,福岡県,福岡市博多区,博多駅東２丁目５番１９号サンライフ第３ビル,,40,132,8120013,,,2023-11-22,清算の結了等,,,2021-01-12,1,,,,,サンケミカルジャパン,0
736,3290005014773,登記記録の閉鎖等,0,2023-12-01,2023-11-22,一般社団法人ブレナン・ヒーリング・サイエンス・プラクティショナー日本協会,,その他の設立登記法人,福岡県,久留米市,国分町８２８番地１,,40,203,8390863,,,2023-11-22,清算の結了等,,,2015-10-05,1,,,,,ブレナンヒーリングサイエンスプラクティショナーニホンキョウカイ,0
742,3320002020440,登記記録の閉鎖等,0,2023-12-01,2023-11-30,有限会社エスケイ工業,,有限会社,大分県,中津市,大字諸田６２６番地の２,,44,203,8790121,,,2023-11-30,清算の結了等,,,2015-10-05,1,,,,,エスケイコウギョウ,0
752,3350003002600,登記記録の閉鎖等,0,2023-12-01,2023-11-21,合同会社小田石油商会,,合同会社,宮崎県,宮崎市,田代町２２２番地３,,45,201,8800855,,,2023-11-21,清算の結了等,,,2015-10-23,1,,,,,オダセキユショウカイ,0
757,3370302003165,登記記録の閉鎖等,0,2023-12-01,2023-11-29,有限会社新栄興業,,有限会社,宮城県,石巻市,小船越字山畑２１１番地１,,04,202,9860132,,,2023-11-29,清算の結了等,,,2015-10-05,1,,,,,シンエイコウギョウ,0
765,3430001049478,登記記録の閉鎖等,0,2023-12-01,2023-11-17,株式会社川崎,,株式会社,北海道,札幌市中央区,南十一条西２０丁目１番２０号,,01,101,0640811,,,2023-11-17,清算の結了等,,,2015-10-05,1,,,,,カワサキ,0
771,3430005012738,登記記録の閉鎖等,0,2023-12-01,2023-11-27,医療法人あさひ整形外科,,その他の設立登記法人,北海道,北広島市,朝日町４丁目４番７号,,01,234,0611123,,,2023-11-27,清算の結了等,,,2016-03-15,1,,,,,,0
773,3450002008695,登記記録の閉鎖等,0,2023-12-01,2023-11-30,有限会社石井工建,,有限会社,北海道,旭川市,永山七条２丁目２番９号,,01,204,0798417,,,2023-11-30,清算の結了等,,,2015-10-05,1,,,,,イシイコウケン,0
799,4010601011317,登記記録の閉鎖等,0,2023-12-01,2023-11-16,株式会社ウエストシー,,株式会社,東京都,墨田区,両国４丁目７番１号,,13,107,1300026,,,2023-11-16,合併による解散等,9010601011122,令和５年１１月１日東京都墨田区両国四丁目７番１号株式会社サイカイ（9010601011122）に合併し解散,2015-10-05,1,,,,,ウエストシー,0
803,4010701021752,登記記録の閉鎖等,0,2023-12-01,2023-11-29,ボウアンドアロー株式会社,,株式会社,東京都,渋谷区,神南１丁目８番１８号,,13,113,1500041,,,2023-11-29,清算の結了等,,,2015-10-05,1,,,,,ボウアンドアロー,0
815,4011001052918,登記記録の閉鎖等,0,2023-12-01,2023-11-29,友野工業株式会社,,株式会社,東京都,渋谷区,西原１丁目６番６号,,13,113,1510066,,,2023-11-29,清算の結了等,,,2015-10-05,1,,,,,トモノコウギョウ,0
821,4011002003647,登記記録の閉鎖等,0,2023-12-01,2023-11-28,有限会社クライム,,有限会社,東京都,渋谷区,神宮前３丁目１番２４号,,13,113,1500001,,,2023-11-28,清算の結了等,,,2015-10-05,1,,,,,クライム,0
828,4011101088432,登記記録の閉鎖等,0,2023-12-01,2023-11-29,株式会社ファイナンシャルクリエイト,,株式会社,東京都,新宿区,西新宿８丁目１４番１７号,,13,104,1600023,,,2023-11-29,清算の結了等,,,2019-07-30,1,,,,,ファイナンシャルクリエイト,0
847,4020001064410,登記記録の閉鎖等,0,2023-12-01,2023-11-27,中和産業株式会社,,株式会社,東京都,品川区,上大崎３丁目１番１号目黒セントラルスクエア１５階,,13,109,1410021,,,2023-11-27,合併による解散等,9010703006838,令和５年１１月２５日東京都品川区上大崎三丁目１番１号目黒セントラルスクエア１５階中和産業ホールディングス合同会社（9010703006838）に合併し解散,2015-10-05,1,,,,,チュウワサンギョウ,0
859,4021002050052,登記記録の閉鎖等,0,2023-12-01,2023-11-28,有限会社澁谷鉄工所,,有限会社,神奈川県,足柄下郡湯河原町,中央４丁目２２番地４,,14,384,2590301,,,2023-11-28,清算の結了等,,,2015-10-05,1,,,,,シブヤテッコウジョ,0
861,4021005004443,登記記録の閉鎖等,0,2023-12-01,2023-11-29,特定非営利活動法人エコフォーラム２２,,その他の設立登記法人,神奈川県,秦野市,菩提２３６番地,,14,211,2591302,,,2023-11-29,清算の結了等,,,2015-10-05,1,,,,,エコフォーラムニジュウニ,0
881,4040001012185,登記記録の閉鎖等,0,2023-12-01,2023-11-24,株式会社あすみコーポレーション,,株式会社,千葉県,千葉市緑区,あすみが丘８丁目２３番地２,,12,105,2670066,,,2023-11-24,清算の結了等,,,2015-10-05,1,,,,,アスミコーポレーション,0
887,4040002071296,登記記録の閉鎖等,0,2023-12-01,2023-11-24,有限会社タマキ薬局,,有限会社,千葉県,富津市,上後２５９番地,,12,226,2991753,,,2023-11-24,清算の結了等,,,2015-10-05,1,,,,,タマキヤッキョク,0
924,4122002016768,登記記録の閉鎖等,0,2023-12-01,2023-11-30,有限会社光賞,,有限会社,大阪府,八尾市,上尾町２丁目２６番地の１,,27,212,5810851,,,2023-11-30,清算の結了等,,,2015-10-05,1,,,,,コウショウ,0
938,4140003010813,登記記録の閉鎖等,0,2023-12-01,2023-11-22,合同会社オレンジ,,合同会社,兵庫県,西脇市,西脇９０７番地２０２号室,,28,213,6770015,,,2023-11-22,清算の結了等,,,2015-10-05,1,,,,,オレンジ,0
989,4250002017674,登記記録の閉鎖等,0,2023-12-01,2023-11-22,有限会社インターオート,,有限会社,山口県,岩国市,保津町１丁目２４番３７号,,35,208,7400043,,,2023-11-22,清算の結了等,,,2015-10-05,1,,,,,インターオート,0
991,4260001000886,登記記録の閉鎖等,0,2023-12-01,2023-11-27,株式会社エム・アイ・ピー,,株式会社,岡山県,岡山市北区,西崎１丁目５番２２号,,33,101,7000055,,,2023-11-27,清算の結了等,,,2015-10-05,1,,,,,エムアイピー,0
1008,4330002022360,登記記録の閉鎖等,0,2023-12-01,2023-11-27,有限会社コンビニエンス玉名,,有限会社,熊本県,玉名市,山田２１４４番地１,,43,206,8650066,,,2023-11-27,清算の結了等,,,2015-10-05,1,,,,,コンビニエンスタマナ,0
1013,4340002003277,登記記録の閉鎖等,0,2023-12-01,2023-11-30,有限会社共立装工,,有限会社,鹿児島県,鹿児島市,原良町１８９１番地６,,46,201,8900025,,,2023-11-30,清算の結了等,,,2015-10-05,1,,,,,キョウリツソウコウ,0
1014,4350002001321,登記記録の閉鎖等,0,2023-12-01,2023-11-20,有限会社共栄経済メンテナンス,,有限会社,宮崎県,宮崎市,新別府町城元２３５番地,,45,201,8800834,,,2023-11-20,清算の結了等,,,2015-10-05,1,,,,,キョウエイケイザイメンテナンス,0
1016,4360001023860,登記記録の閉鎖等,0,2023-12-01,2023-11-29,株式会社Ｄ＆Ｇインターナショナル,,株式会社,沖縄県,中頭郡嘉手納町,字兼久８９番地２,,47,325,9040205,,,2023-11-29,清算の結了等,,,2018-04-24,1,,,,,ディーアンドジーインターナショナル,0
1020,4370001020964,登記記録の閉鎖等,0,2023-12-01,2023-11-30,株式会社アルゴノーツ,,株式会社,宮城県,仙台市若林区,遠見塚１丁目１８－１８アネックス遠見塚１０１号,,04,103,9840823,,,2023-11-30,清算の結了等,,,2015-10-05,1,,,,,アルゴノーツ,0
1025,4380002034203,登記記録の閉鎖等,0,2023-12-01,2023-11-28,有限会社廣木薬局,,有限会社,福島県,河沼郡会津坂下町,字市中三番甲３６７６番地,,07,421,9696547,,,2023-11-28,清算の結了等,,,2015-10-05,1,,,,,ヒロキヤッキョク,0
1033,4410001012107,登記記録の閉鎖等,0,2023-12-01,2023-11-27,アイセンチュリー株式会社,,株式会社,秋田県,潟上市,天王字上北野４番地５９２,,05,211,0100101,,,2023-11-27,合併による解散等,5410001003369,令和５年１１月２７日秋田県潟上市天王字追分１５番地１８アイホームプラザ株式会社（5410001003369）に合併し解散,2019-03-05,1,,,,,アイセンチュリー,0
1040,4430002023290,登記記録の閉鎖等,0,2023-12-01,2023-11-17,有限会社札幌造作センター,,有限会社,北海道,札幌市中央区,南十一条西６丁目２番１－４０１号,,01,101,0640811,,,2023-11-17,清算の結了等,,,2015-10-05,1,,,,,サッポロゾウサセンター,0
1062,5010401132766,登記記録の閉鎖等,0,2023-12-01,2023-11-27,株式会社ＮＥＯ－Ｆ,,株式会社,東京都,港区,芝４丁目３番１１号ＶＯＲＴ三田駅前ビル,,13,103,1080014,,,2023-11-27,清算の結了等,,,2017-08-02,1,,,,,ネオエフ,0
1094,5011102006573,登記記録の閉鎖等,0,2023-12-01,2023-11-29,有限会社白水,,有限会社,東京都,渋谷区,代々木３丁目３３番７号,,13,113,1510053,,,2023-11-29,清算の結了等,,,2015-10-05,1,,,,,ハクスイ,0
1102,5011605001245,登記記録の閉鎖等,0,2023-12-01,2023-11-28,医療法人社団仁木眼科医院,,その他の設立登記法人,東京都,練馬区,石神井町２丁目１７番１６号１階,,13,120,1770041,,,2023-11-28,清算の結了等,,,2015-10-05,1,,,,,ニキガンカイイン,0
1125,5030001043354,登記記録の閉鎖等,0,2023-12-01,2023-11-24,株式会社マルウオ,,株式会社,埼玉県,北足立郡伊奈町,大字小室４１４５番地１,,11,301,3620806,,,2023-11-24,清算の結了等,,,2015-10-05,1,,,,,マルウオ,0
1126,5030001073616,登記記録の閉鎖等,0,2023-12-01,2023-11-24,アムサ工業株式会社,,株式会社,埼玉県,川口市,弥平１丁目４番１６号,,11,203,3320002,,,2023-11-24,清算の結了等,,,2015-10-05,1,,,,,,0
1129,5030001115145,登記記録の閉鎖等,0,2023-12-01,2023-11-24,株式会社ａｕｒｏｒａ　Ｄｅｓｉｇｎ,,株式会社,埼玉県,さいたま市緑区,太田窪１丁目１３番７号,,11,109,3360936,,,2023-11-24,清算の結了等,,,2016-07-01,1,,,,,オウロラデザイン,0
1142,5030002092391,登記記録の閉鎖等,0,2023-12-01,2023-11-28,有限会社坂戸ビル,,有限会社,埼玉県,坂戸市,薬師町２８番１号,,11,239,3500229,,,2023-11-28,清算の結了等,,,2015-10-05,1,,,,,サカドビル,0
1193,5120003020210,登記記録の閉鎖等,0,2023-12-01,2023-11-30,はじまりフード合同会社,,合同会社,大阪府,大阪市住吉区,苅田２丁目３－１８,,27,120,5580011,,,2023-11-30,清算の結了等,,,2021-09-14,1,,,,,ハジマリフード,0
1196,5120102003116,登記記録の閉鎖等,0,2023-12-01,2023-11-30,有限会社田中設備興業,,有限会社,大阪府,堺市西区,太平寺４６６番地２,,27,144,5938314,,,2023-11-30,清算の結了等,,,2015-10-05,1,,,,,タナカセツビコウギョウ,0
1197,5120102021209,登記記録の閉鎖等,0,2023-12-01,2023-11-29,有限会社鈴木フロツキー,,有限会社,大阪府,岸和田市,八阪町２丁目１０番１４号,,27,202,5960049,,,2023-11-29,清算の結了等,,,2015-10-05,1,,,,,スズキフロツキー,0
1198,5120903004411,登記記録の閉鎖等,0,2023-12-01,2023-11-29,合同会社ナゾメキ,,合同会社,大阪府,大阪市北区,梅田１丁目２番２号大阪駅前第２ビル１２－１２,,27,127,5300001,,,2023-11-29,清算の結了等,,,2022-12-08,1,,,,,ナゾメキ,0
1200,5122002006082,登記記録の閉鎖等,0,2023-12-01,2023-11-29,キョウエイテック有限会社,,有限会社,大阪府,東大阪市,川田４丁目８番３２号,,27,227,5780905,,,2023-11-29,清算の結了等,,,2015-10-05,1,,,,,キョウエイテック,0
1215,5140001026307,登記記録の閉鎖等,0,2023-12-01,2023-11-24,株式会社ボディーエージェント,,株式会社,兵庫県,神戸市中央区,元町通２丁目３番２号ジェムビル４階Ｅ号室,,28,110,6500022,,,2023-11-24,清算の結了等,,,2015-10-05,1,,,,,ボディーエージェント,0
1223,5180001021510,登記記録の閉鎖等,0,2023-12-01,2023-11-28,株式会社イトウカメラ店,,株式会社,愛知県,名古屋市熱田区,伝馬１丁目３番８号,,23,109,4560034,,,2023-11-28,清算の結了等,,,2015-10-05,1,,,,,イトウカメラテン,0
1225,5180001039065,登記記録の閉鎖等,0,2023-12-01,2023-11-29,株式会社アサヒドーカメラ,,株式会社,三重県,四日市市,久保田１丁目６番８号,,24,202,5100821,,,2023-11-29,清算の結了等,,,2015-10-05,1,,,,,アサヒドーカメラ,0
1232,5180002016922,登記記録の閉鎖等,0,2023-12-01,2023-11-29,有限会社ミズホ,,有限会社,愛知県,名古屋市東区,葵３丁目２５１４番地,,23,102,4610004,,,2023-11-29,清算の結了等,,,2015-10-05,1,,,,,ミズホ,0
1239,5180003020320,登記記録の閉鎖等,0,2023-12-01,2023-11-29,ＴＢ－ＮＥＸＵＳ合同会社,,合同会社,愛知県,名古屋市南区,中割町２丁目３９番地フェニックス宝Ａ棟１０２号,,23,112,4570826,,,2023-11-29,清算の結了等,,,2019-09-04,1,,,,,ティービーネクサス,0
1240,5180005018107,登記記録の閉鎖等,0,2023-12-01,2023-11-29,一般社団法人美来メイクアカデミー,,その他の設立登記法人,愛知県,名古屋市千種区,内山１丁目８番８号,,23,101,4640075,,,2023-11-29,清算の結了等,,,2019-01-17,1,,,,,ミライメイクアカデミー,0
1242,5180302008074,登記記録の閉鎖等,0,2023-12-01,2023-11-27,有限会社スター商会,,有限会社,愛知県,豊橋市,西羽田町１２６番地,,23,201,4418081,,,2023-11-27,清算の結了等,,,2015-10-05,1,,,,,スターショウカイ,0
1243,5180303001128,登記記録の閉鎖等,0,2023-12-01,2023-11-27,合資会社ＴＫカンパニー,,合資会社,愛知県,岡崎市,東牧内町字堤外９１番地６,,23,202,4440934,,,2023-11-27,清算の結了等,,,2015-10-05,1,,,,,ティーケーカンパニー,0
1248,5200002022513,登記記録の閉鎖等,0,2023-12-01,2023-11-30,有限会社協和ジー・スキル,,有限会社,岐阜県,土岐市,泉神栄町１丁目８番,,21,212,5095133,,,2023-11-30,清算の結了等,,,2015-10-05,1,,,,,キョウワジースキル,0
1264,5270001002451,登記記録の閉鎖等,0,2023-12-01,2023-11-30,株式会社エフジー,,株式会社,鳥取県,鳥取市,千代水１丁目１２番地,,31,201,6800911,,,2023-11-30,清算の結了等,,,2015-10-05,1,,,,,エフジー,0
1265,5290001030624,登記記録の閉鎖等,0,2023-12-01,2023-11-22,株式会社Ｓ．Ｑ．Ｄ,,株式会社,福岡県,福岡市東区,多の津５丁目２１番２３号,,40,131,8130034,,,2023-11-22,清算の結了等,,,2015-10-05,1,,,,,,0
1269,5290001084232,登記記録の閉鎖等,0,2023-12-01,2023-11-20,株式会社匠ＨＩＲＯ,,株式会社,福岡県,福岡市中央区,笹丘１丁目２３番３５－６０３号ラプロス笹丘,,40,133,8100034,,,2023-11-20,清算の結了等,,,2019-02-13,1,,,,,タクミヒロ,0
1273,5290002029483,登記記録の閉鎖等,0,2023-12-01,2023-11-24,有限会社上野商店,,有限会社,福岡県,福岡市早良区,西入部２丁目１６番１４号,,40,137,8111121,,,2023-11-24,清算の結了等,,,2015-10-05,1,,,,,ウエノショウテン,0
1312,5430001063857,登記記録の閉鎖等,0,2023-12-01,2023-11-27,レボセンス株式会社,,株式会社,北海道,札幌市東区,北三十四条東２２丁目１番３５号,,01,103,0070834,,,2023-11-27,清算の結了等,,,2015-10-05,1,,,,,レボセンス,0
1324,5480002007263,登記記録の閉鎖等,0,2023-12-01,2023-11-30,有限会社近藤建設,,有限会社,徳島県,徳島市,北佐古二番町１番１６号,,36,201,7700012,,,2023-11-30,清算の結了等,,,2015-10-05,1,,,,,コンドウケンセツ,0
1338,6010003030582,登記記録の閉鎖等,0,2023-12-01,2023-11-27,ＣＲ－ＡＤＤ北鎌倉合同会社,,合同会社,東京都,千代田区,大手町１丁目６番１号,,13,101,1000004,,,2023-11-27,清算の結了等,,,2019-09-11,1,,,,,シーアールエーディーディーキタカマクラ,0
1355,6010403025752,登記記録の閉鎖等,0,2023-12-01,2023-11-28,ＲＢソーラースパイラル合同会社,,合同会社,東京都,港区,虎ノ門３丁目２２番１０－２０１号,,13,103,1050001,,,2023-11-28,清算の結了等,,,2021-07-20,1,,,,,アールビーソーラースパイラル,0
1433,6030002036653,登記記録の閉鎖等,0,2023-12-01,2023-11-29,有限会社日興テクノサービス,,有限会社,埼玉県,狭山市,祇園１９番３号,,11,215,3501307,,,2023-11-29,清算の結了等,,,2015-10-05,1,,,,,,0
1452,6040002067680,登記記録の閉鎖等,0,2023-12-01,2023-11-24,有限会社房總観光,00020549,有限会社,千葉県,木更津市,文京１丁目４番３０号,,12,206,2920804,,,2023-11-24,清算の結了等,,,2015-10-05,1,,,,,ボウソウカンコウ,0
1454,6040003018336,登記記録の閉鎖等,0,2023-12-01,2023-11-07,ＳＫＴ企画合同会社,,合同会社,千葉県,我孫子市,我孫子２丁目５番１２３０号,,12,222,2701166,,,2023-11-07,清算の結了等,,,2021-08-13,1,,,,,エスケイティーキカク,0
1469,6070003003203,登記記録の閉鎖等,0,2023-12-01,2023-11-21,合同会社Ｄｒｅａｍ　Ｈｏｕｓｅ,,合同会社,群馬県,高崎市,箕郷町上芝４３７番地９,,10,202,3703104,,,2023-11-21,清算の結了等,,,2018-07-03,1,,,,,ドリームハウス,0
1471,6080002002295,登記記録の閉鎖等,0,2023-12-01,2023-11-29,有限会社サンシャイン企画,,有限会社,静岡県,静岡市駿河区,大和１丁目５番１６号,,22,102,4228077,,,2023-11-29,清算の結了等,,,2015-10-05,1,,,,,サンシャインキカク,0
1484,6120001244248,登記記録の閉鎖等,0,2023-12-01,2023-11-29,株式会社ＫＩＺＵＮＡ,,株式会社,大阪府,枚方市,茄子作３丁目２０番５－１０１号,,27,210,5730071,,,2023-11-29,清算の結了等,,,2022-03-15,1,,,,,キズナ,0
1496,6120901026357,登記記録の閉鎖等,0,2023-12-01,2023-11-28,坂建設工事株式会社,,株式会社,大阪府,豊中市,小曽根１丁目１番１８号,,27,203,5610813,,,2023-11-28,清算の結了等,,,2015-10-05,1,,,,,サカケンセツコウジ,0
1500,6130001005310,登記記録の閉鎖等,0,2023-12-01,2023-11-20,株式会社英,,株式会社,京都府,京都市北区,紫竹下竹殿町４０番地,,26,101,6038412,,,2023-11-20,清算の結了等,,,2015-10-05,1,,,,,ハナフサ,0
1505,6130002010086,登記記録の閉鎖等,0,2023-12-01,2023-11-30,有限会社中川ゃ,,有限会社,京都府,京都市東山区,今熊野宝蔵町１３番地,,26,105,6050952,,,2023-11-30,清算の結了等,,,2015-10-05,1,,,,,ナカガワャ,0
1524,6180001035154,登記記録の閉鎖等,0,2023-12-01,2023-11-28,株式会社カンデイハウスナゴヤ,,株式会社,愛知県,名古屋市守山区,百合が丘１００２番地,,23,113,4630806,,,2023-11-28,清算の結了等,,,2015-10-05,1,,,,,カンデイハウスナゴヤ,0
1541,6180002052487,登記記録の閉鎖等,0,2023-12-01,2023-11-28,有限会社グリーンパック,,有限会社,愛知県,名古屋市守山区,花咲台１丁目１０１１番地,,23,113,4630808,,,2023-11-28,清算の結了等,,,2015-10-05,1,,,,,グリーンパック,0
1554,6210001010434,登記記録の閉鎖等,0,2023-12-01,2023-11-27,浅地デジタル彩図ファクトリー株式会社,,株式会社,福井県,あわら市,市姫２丁目３番１０号,,18,208,9190621,,,2023-11-27,清算の結了等,,,2015-10-05,1,,,,,アサジデジタルサイズファクトリー,0
1590,6370202005267,登記記録の閉鎖等,0,2023-12-01,2023-11-29,有限会社日友企画,,有限会社,宮城県,栗原市,栗駒稲屋敷上ノ山１０番地,,04,213,9895341,,,2023-11-29,清算の結了等,,,2015-10-05,1,,,,,ニチユウキカク,0
1592,6380002003916,登記記録の閉鎖等,0,2023-12-01,2023-11-29,有限会社米澤屋商店,,有限会社,福島県,福島市,飯坂町湯野字大水口２８番地,,07,201,9600211,,,2023-11-29,清算の結了等,,,2015-10-05,1,,,,,ヨネザワヤショウテン,0
1604,6460401001198,登記記録の閉鎖等,0,2023-12-01,2023-11-29,碧海水産株式会社,,株式会社,北海道,根室市,花咲港３７４番地１０,,01,223,0870032,,,2023-11-29,清算の結了等,,,2019-06-05,1,,,,,アオイスイサン,0
1617,7010001137404,登記記録の閉鎖等,0,2023-12-01,2023-11-28,ＰＰＣ株式会社,,株式会社,東京都,千代田区,神田小川町１丁目８番地３小川町北ビル４階,,13,101,1010052,,,2023-11-28,清算の結了等,,,2015-10-05,1,,,,,ピーピーシー,0
1621,7010001229655,登記記録の閉鎖等,0,2023-12-01,2023-11-28,四時株式会社,,株式会社,東京都,千代田区,四番町４番地９新東京国際リーガル内,,13,101,1020081,,,2023-11-28,清算の結了等,,,2022-09-26,1,,,,,ヨジ,0
1639,7010602020033,登記記録の閉鎖等,0,2023-12-01,2023-11-27,有限会社クリタオート,,有限会社,東京都,江東区,清澄２丁目５番６号,,13,108,1350024,,,2023-11-27,清算の結了等,,,2015-10-05,1,,,,,クリタオート,0
1667,7011803001994,登記記録の閉鎖等,0,2023-12-01,2023-11-29,Ｅｃｏ　Ｓｏｌａｒ　Ａｉｚｕ合同会社,,合同会社,東京都,港区,元赤坂１丁目１番７号,,13,103,1070051,,,2023-11-29,清算の結了等,,,2015-10-05,1,,,,,エコソーラーアイズ,0
1669,7012401017103,登記記録の閉鎖等,0,2023-12-01,2023-11-30,株式会社ヴィクトリーホーム,,株式会社,東京都,調布市,深大寺東町８丁目２１番地１４,,13,208,1820012,,,2023-11-30,清算の結了等,,,2015-10-05,1,,,,,ヴィクトリーホーム,0
1679,7020001124302,登記記録の閉鎖等,0,2023-12-01,2023-11-27,ＮＩＮＥ株式会社,,株式会社,神奈川県,横浜市神奈川区,大口通１３８甚兵衛ビル２階,,14,102,2210002,,,2023-11-27,清算の結了等,,,2017-12-21,1,,,,,ナイン,0
1705,7030002083083,登記記録の閉鎖等,0,2023-12-01,2023-11-27,有限会社新井電設,,有限会社,埼玉県,北本市,荒井４丁目２５番地,,11,233,3640026,,,2023-11-27,清算の結了等,,,2015-10-05,1,,,,,アライデンセツ,0
1714,7040002019929,登記記録の閉鎖等,0,2023-12-01,2023-11-24,有限会社プライム,,有限会社,千葉県,千葉市稲毛区,長沼町２９３番２５号,,12,103,2630005,,,2023-11-24,清算の結了等,,,2015-10-05,1,,,,,プライム,0
1721,7050001037121,登記記録の閉鎖等,0,2023-12-01,2023-11-28,ＪＡ北つくばアグリファーム株式会社,,株式会社,茨城県,桜川市,大国玉２５０１番地２,,08,231,3091244,,,2023-11-28,清算の結了等,,,2015-10-05,1,,,,,ジェーエーキタツクバアグリファーム,0
1742,7080005006103,登記記録の閉鎖等,0,2023-12-01,2023-11-27,税理士法人高木均税理士事務所,00067726,その他の設立登記法人,静岡県,静岡市清水区,高橋南町４番６号,,22,103,4240042,,,2023-11-27,清算の結了等,,,2015-10-05,1,,,,,タカギヒトシゼイリシジムショ,0
1749,7110001001970,登記記録の閉鎖等,0,2023-12-01,2023-11-29,株式会社小新竹材,,株式会社,新潟県,新潟市西区,真砂１丁目１２番１１号,,15,107,9502074,,,2023-11-29,清算の結了等,,,2015-10-05,1,,,,,コシンチクザイ,0
1766,7120902016959,登記記録の閉鎖等,0,2023-12-01,2023-11-28,有限会社マサゴコーポレーション,,有限会社,大阪府,豊中市,少路２丁目８番１８－７０２号,,27,203,5600004,,,2023-11-28,清算の結了等,,,2015-10-05,1,,,,,マサゴコーポレーション,0
1781,7150005007845,登記記録の閉鎖等,0,2023-12-01,2023-11-30,特定非営利活動法人総合福祉プロジェクトかかし,,その他の設立登記法人,奈良県,北葛城郡広陵町,大字南郷９８６番地の１５,,29,426,6350814,,,2023-11-30,清算の結了等,,,2015-10-05,1,,,,,,0
1796,7180301019764,登記記録の閉鎖等,0,2023-12-01,2023-11-29,株式会社ブーベ,,株式会社,愛知県,みよし市,莇生町曙５８番地,,23,236,4700206,,,2023-11-29,清算の結了等,,,2015-10-05,1,,,,,ブーベ,0
1804,7210002003592,登記記録の閉鎖等,0,2023-12-01,2023-11-24,有限会社ミヤモト工業,,有限会社,福井県,福井市,文京７丁目８番１号,,18,201,9100017,,,2023-11-24,清算の結了等,,,2015-10-05,1,,,,,ミヤモトコウギョウ,0
1811,7240002040352,登記記録の閉鎖等,0,2023-12-01,2023-11-28,有限会社倉田鉄工,,有限会社,広島県,福山市,本庄町中３丁目１３番１８号,,34,207,7200076,,,2023-11-28,清算の結了等,,,2015-10-05,1,,,,,クラタテッコウ,0
1817,7290001032453,登記記録の閉鎖等,0,2023-12-01,2023-11-24,株式会社ワイトレック,,株式会社,福岡県,福岡市南区,寺塚２丁目３番１０－２０２号,,40,134,8150074,,,2023-11-24,清算の結了等,,,2015-10-05,1,,,,,ワイトレック,0
1818,7290001044878,登記記録の閉鎖等,0,2023-12-01,2023-11-24,株式会社伸和,,株式会社,福岡県,福岡市博多区,麦野４丁目１５番３号,,40,132,8120882,,,2023-11-24,清算の結了等,,,2015-10-05,1,,,,,シンワ,0
1824,7310001000440,登記記録の閉鎖等,0,2023-12-01,2023-11-30,株式会社木原塗装,,株式会社,長崎県,長崎市,宝町６番１号,,42,201,8500045,,,2023-11-30,清算の結了等,,,2015-10-05,1,,,,,キハラトソウ,0
1825,7310003004266,登記記録の閉鎖等,0,2023-12-01,2023-11-29,合同会社ユアサ・カンパニー,,合同会社,長崎県,佐世保市,俵ケ浦町６２８番地１,,42,202,8571235,,,2023-11-29,清算の結了等,,,2022-01-31,1,,,,,ユアサカンパニー,0
1834,7350002007051,登記記録の閉鎖等,0,2023-12-01,2023-11-20,有限会社カミックス,,有限会社,宮崎県,東諸県郡国富町,大字本庄１９６５番地,,45,382,8801101,,,2023-11-20,清算の結了等,,,2015-10-05,1,,,,,カミックス,0
1838,7360005004433,登記記録の閉鎖等,0,2023-12-01,2023-11-02,一般社団法人ナカムラ不動産管理,,その他の設立登記法人,沖縄県,沖縄市,高原４丁目１７番１６号,,47,211,9042171,,,2023-11-02,清算の結了等,,,2015-10-05,1,,,,,ナカムラフドウサンカンリ,0
1840,7370802000435,登記記録の閉鎖等,0,2023-12-01,2023-11-29,有限会社チバコー,,有限会社,宮城県,名取市,植松字田野部１３０番地の１,,04,207,9811226,,,2023-11-29,清算の結了等,,,2015-10-05,1,,,,,チバコー,0
1841,7380001011893,登記記録の閉鎖等,0,2023-12-01,2023-11-30,株式会社カーライブ・カトウ,,株式会社,福島県,郡山市,安積町笹川字上ノ台１９番地１,,07,203,9630102,,,2023-11-30,清算の結了等,,,2015-10-05,1,,,,,カーライブカトウ,0
1843,7380002005746,登記記録の閉鎖等,0,2023-12-01,2023-11-30,有限会社シルクコバヤシ,,有限会社,福島県,伊達郡川俣町,字鉄炮町７３番地の３,,07,308,9601421,,,2023-11-30,清算の結了等,,,2015-10-05,1,,,,,シルクコバヤシ,0
1862,7490002003219,登記記録の閉鎖等,0,2023-12-01,2023-11-30,有限会社宝店,,有限会社,高知県,高知市,桜井町１丁目５番３４号,,39,201,7800821,,,2023-11-30,清算の結了等,,,2015-10-05,1,,,,,タカラテン,0
1891,8010601042069,登記記録の閉鎖等,0,2023-12-01,2023-11-15,インディゴ・ワン株式会社,,株式会社,千葉県,千葉市若葉区,大宮台１丁目１３番６号,,12,104,2640015,,,2023-11-15,合併による解散等,2040001077767,令和５年１１月１日千葉市若葉区大宮台一丁目１３番６号ナレッジ・ワン株式会社（2040001077767）に合併し解散,2015-10-05,1,,,,,インディゴワン,0
1893,8010602014686,登記記録の閉鎖等,0,2023-12-01,2023-11-16,有限会社西海,,有限会社,東京都,墨田区,両国４丁目７番１号,,13,107,1300026,,,2023-11-16,合併による解散等,9010601011122,令和５年１１月１日東京都墨田区両国四丁目７番１号株式会社サイカイ（9010601011122）に合併し解散,2015-10-05,1,,,,,ニシウミ,0
1897,8010802002152,登記記録の閉鎖等,0,2023-12-01,2023-11-28,有限会社エスエムジェイ,,有限会社,東京都,大田区,山王１丁目９番７号,,13,111,1430023,,,2023-11-28,清算の結了等,,,2015-10-05,1,,,,,エスエムジェイ,0
1901,8011001003875,登記記録の閉鎖等,0,2023-12-01,2023-11-28,ヱスラ産業株式会社,,株式会社,東京都,港区,元赤坂１丁目１番７－１００６号,,13,103,1070051,,,2023-11-28,清算の結了等,,,2015-10-05,1,,,,,エスラサンギョウ,0
1909,8011003005093,登記記録の閉鎖等,0,2023-12-01,2023-11-29,ソネデザイン合同会社,,合同会社,東京都,渋谷区,神宮前６丁目２８番９号東武ビル６階,,13,113,1500001,,,2023-11-29,清算の結了等,,,2015-10-05,1,,,,,ソネデザイン,0
1911,8011101010466,登記記録の閉鎖等,0,2023-12-01,2023-11-29,杉本興産株式会社,,株式会社,東京都,渋谷区,代々木３丁目３３番７号,,13,113,1510053,,,2023-11-29,清算の結了等,,,2015-10-05,1,,,,,スギモトコウサン,0
1923,8012301005859,登記記録の閉鎖等,0,2023-12-01,2023-12-01,株式会社アスクコーポレーション,,株式会社,和歌山県,和歌山市,吹上１丁目５番４号,,30,201,6408137,,,2023-12-01,清算の結了等,,,2015-10-05,1,,,,,アスクコーポレーション,0
1930,8013105001037,登記記録の閉鎖等,0,2023-12-01,2023-11-24,社団法人天ケ指共済会,,その他の設立登記法人,東京都,青梅市,成木３丁目４５３番地,,13,205,1980001,,,2023-11-24,清算の結了等,,,2015-10-05,1,,,,,アマガサスキョウサイカイ,0
1963,8030005019455,登記記録の閉鎖等,0,2023-12-01,2023-11-22,一般社団法人ＬｏｃａｌＬｉｎｋａｇｅ,,その他の設立登記法人,埼玉県,秩父市,熊木町６番１８号,,11,207,3680032,,,2023-11-22,清算の結了等,,,2019-05-14,1,,,,,ローカルリンケージ,0
1974,8050002026816,登記記録の閉鎖等,0,2023-12-01,2023-11-27,有限会社ポエム,,有限会社,茨城県,鹿嶋市,大字荒野１４９５番地９,,08,222,3112221,,,2023-11-27,清算の結了等,,,2015-10-05,1,,,,,ポエム,0
1977,8060002001652,登記記録の閉鎖等,0,2023-12-01,2023-11-29,有限会社上野建築,,有限会社,栃木県,宇都宮市,上桑島町１３６５番地３０,,09,201,3210913,,,2023-11-29,清算の結了等,,,2015-10-05,1,,,,,ウエノケンチク,0
1984,8070002017706,登記記録の閉鎖等,0,2023-12-01,2023-11-22,有限会社藤岡タイヤ商会,,有限会社,群馬県,藤岡市,藤岡８４３番地,,10,209,3750024,,,2023-11-22,清算の結了等,,,2015-10-05,1,,,,,フジオカタイヤショウカイ,0
1988,8080102014965,登記記録の閉鎖等,0,2023-12-01,2023-11-30,有限会社富士マルヨ塗装工業,,有限会社,静岡県,富士市,伝法２５０３番地の５,,22,210,4170061,,,2023-11-30,清算の結了等,,,2015-10-05,1,,,,,フジマルヨトソウコウギョウ,0
1989,8080102019790,登記記録の閉鎖等,0,2023-12-01,2023-11-30,有限会社小山テレビ商会,,有限会社,静岡県,伊東市,南町２丁目２番２２号,,22,208,4140035,,,2023-11-30,清算の結了等,,,2015-10-05,1,,,,,コヤマテレビショウカイ,0
1998,8110005005918,登記記録の閉鎖等,0,2023-12-01,2023-11-29,特定非営利活動法人フォー・ザ・フューチャー,,その他の設立登記法人,新潟県,加茂市,石川１丁目８番２５号,,15,209,9591312,,,2023-11-29,清算の結了等,,,2015-10-05,1,,,,,フォーザフューチャー,0
1999,8120001011200,登記記録の閉鎖等,0,2023-12-01,2023-11-30,村上油脂株式会社,,株式会社,大阪府,大阪市東住吉区,田辺１丁目８番４号,,27,121,5460031,,,2023-11-30,清算の結了等,,,2015-10-05,1,,,,,ムラカミユシ,0
2002,8120001119984,登記記録の閉鎖等,0,2023-12-01,2023-11-20,ロングライフダイニング株式会社,,株式会社,大阪府,大阪市北区,中崎西２丁目４番１２号梅田センタービル２５階,,27,127,5300015,,,2023-11-20,合併による解散等,9120001128258,令和５年１０月３１日大阪市北区中崎西二丁目４番１２号梅田センタービル２５階エルケア株式会社（9120001128258）に合併し解散,2015-10-05,1,,,,,ロングライフダイニング,0
2003,8120001134249,登記記録の閉鎖等,0,2023-12-01,2023-11-29,株式会社ＰＩＡＸ,,株式会社,大阪府,大阪市北区,梅田１丁目１番３号大阪駅前第３ビル２階２３－１号,,27,127,5300001,,,2023-11-29,清算の結了等,,,2015-10-05,1,,,,,,0
2040,8180002016721,登記記録の閉鎖等,0,2023-12-01,2023-11-29,有限会社福田エンジニアリング,,有限会社,愛知県,名古屋市北区,清水２丁目２４番１号,,23,103,4620844,,,2023-11-29,清算の結了等,,,2015-10-05,1,,,,,フクダエンジニアリング,0
2051,8200003005621,登記記録の閉鎖等,0,2023-12-01,2023-11-28,合同会社タカハシ,,合同会社,岐阜県,羽島市,福寿町平方３９１番地１,,21,209,5016257,,,2023-11-28,清算の結了等,,,2022-07-19,1,,,,,タカハシ,0
2064,8240002028297,登記記録の閉鎖等,0,2023-12-01,2023-11-21,有限会社フクトミ製作所,,有限会社,広島県,東広島市,福富町久芳３６８９番地の１,,34,212,7392303,,,2023-11-21,清算の結了等,,,2015-10-05,1,,,,,フクトミセイサクショ,0
2086,8350002007042,登記記録の閉鎖等,0,2023-12-01,2023-11-20,有限会社緒方鉄工,,有限会社,宮崎県,東諸県郡国富町,大字八代北俣２４８４番地３,,45,382,8801222,,,2023-11-20,清算の結了等,,,2015-10-05,1,,,,,オガタテッコウ,0
2096,8390002012609,登記記録の閉鎖等,0,2023-12-01,2023-11-28,有限会社猪口空調設備,,有限会社,山形県,米沢市,福田町１丁目２番７９号,,06,202,9920033,,,2023-11-28,清算の結了等,,,2015-10-05,1,,,,,イノクチクウチョウセツビ,0
2101,8430001067021,登記記録の閉鎖等,0,2023-12-01,2023-11-24,株式会社クリーン,,株式会社,北海道,札幌市豊平区,美園十一条５丁目２番３０－２０３号,,01,105,0620011,,,2023-11-24,清算の結了等,,,2015-10-05,1,,,,,クリーン,0
2117,9010001154447,登記記録の閉鎖等,0,2023-12-01,2023-11-27,フローレンス・ファッションズ・ジャパン株式会社,,株式会社,東京都,千代田区,二番町７番１号１００４号室,,13,101,1020084,,,2023-11-27,清算の結了等,,,2015-10-05,1,,,,,フローレンスファッションズジャパン,0
2174,9011301015933,登記記録の閉鎖等,0,2023-12-01,2023-11-27,株式会社Ｂｏｉｓ　Ｂｅａｕｔｙ,,株式会社,東京都,杉並区,荻窪５丁目２２番１号,,13,115,1670051,,,2023-11-27,清算の結了等,,,2015-10-05,1,,,,,ボイスビューティー,0
2194,9013301017141,登記記録の閉鎖等,0,2023-12-01,2023-11-24,ＪＴＣ株式会社,,株式会社,東京都,豊島区,西池袋５丁目５番２１号,,13,116,1710021,,,2023-11-24,清算の結了等,,,2015-10-05,1,,,,,ジェーティーシー,0
2196,9020001070552,登記記録の閉鎖等,0,2023-12-01,2023-11-28,市川工業株式会社,,株式会社,神奈川県,川崎市幸区,神明町２丁目９１番地,,14,132,2120022,,,2023-11-28,清算の結了等,,,2015-10-05,1,,,,,イチカワコウギョウ,0
2204,9020002038020,登記記録の閉鎖等,0,2023-12-01,2023-11-28,有限会社後藤動物病院,,有限会社,神奈川県,横浜市鶴見区,下末吉５丁目８番１１号,,14,101,2300012,,,2023-11-28,清算の結了等,,,2015-10-05,1,,,,,ゴトウドウブツビョウイン,0
2217,9030001111917,登記記録の閉鎖等,0,2023-12-01,2023-11-27,株式会社ＲｕｄｅＫｉｔｃｈｅｎ,,株式会社,埼玉県,飯能市,八幡町９番１６号,,11,209,3570033,,,2023-11-27,清算の結了等,,,2015-12-18,1,,,,,ルードキッチン,0
2225,9030002048506,登記記録の閉鎖等,0,2023-12-01,2023-11-28,有限会社大舘金型製作所,,有限会社,埼玉県,三郷市,彦糸２丁目３番地２,,11,237,3410001,,,2023-11-28,清算の結了等,,,2015-10-05,1,,,,,オオダテカナガタセイサクショ,0
2239,9040002036220,登記記録の閉鎖等,0,2023-12-01,2023-11-24,有限会社富有味里,,有限会社,千葉県,市川市,八幡５丁目８番１８号,,12,203,2720021,,,2023-11-24,清算の結了等,,,2015-10-05,1,,,,,,0
2240,9040002068189,登記記録の閉鎖等,0,2023-12-01,2023-11-24,有限会社イーストトレーディング,,有限会社,千葉県,袖ケ浦市,福王台４丁目２９番地の１５,,12,229,2990261,,,2023-11-24,清算の結了等,,,2015-10-05,1,,,,,イーストトレーディング,0
2241,9050002001652,登記記録の閉鎖等,0,2023-12-01,2023-11-29,有限会社直美総合事務所,,有限会社,茨城県,笠間市,寺崎１６９番地,,08,216,3091614,,,2023-11-29,清算の結了等,,,2015-10-05,1,,,,,ナオミソウゴウジムショ,0
2242,9060002001222,登記記録の閉鎖等,0,2023-12-01,2023-11-22,有限会社イズミヤ,,有限会社,栃木県,宇都宮市,兵庫塚３丁目３４番５号,,09,201,3210138,,,2023-11-22,清算の結了等,,,2015-10-05,1,,,,,イズミヤ,0
2244,9060002034065,登記記録の閉鎖等,0,2023-12-01,2023-11-29,有限会社誠和冷熱システム,,有限会社,栃木県,下都賀郡壬生町,大字壬生丁２２０番地３０,,09,361,3210216,,,2023-11-29,清算の結了等,,,2015-10-05,1,,,,,セイワレイネツシステム,0
2259,9100001001334,登記記録の閉鎖等,0,2023-12-01,2023-11-27,株式会社新栄社,,株式会社,長野県,長野市,大字大豆島５０６０番地１２,,20,201,3810022,,,2023-11-27,清算の結了等,,,2015-10-05,1,,,,,シンエイシャ,0
2266,9120001217291,登記記録の閉鎖等,0,2023-12-01,2023-11-29,株式会社誠和,,株式会社,大阪府,大阪市天王寺区,小宮町７番２－２８０２号,,27,109,5430036,,,2023-11-29,清算の結了等,,,2018-11-20,1,,,,,セイワ,0
2276,9120902008896,登記記録の閉鎖等,0,2023-12-01,2023-11-28,有限会社ツダ美研,,有限会社,大阪府,摂津市,庄屋１丁目１番５号,,27,224,5660012,,,2023-11-28,清算の結了等,,,2015-10-05,1,,,,,ツダビケン,0
2281,9140005003018,登記記録の閉鎖等,0,2023-12-01,2023-11-30,全日本ユーシーシー事業協同組合,,その他の設立登記法人,兵庫県,神戸市中央区,港島中町７丁目７番７,,28,110,6500046,,,2023-11-30,清算の結了等,,,2015-10-05,1,,,,,ゼンニホンユーシーシー,0
2303,9240001027332,登記記録の閉鎖等,0,2023-12-01,2023-11-28,株式会社原本工業,,株式会社,広島県,呉市,安浦町中央北２丁目５番５号,,34,202,7372515,,,2023-11-28,清算の結了等,,,2015-10-05,1,,,,,ハラモトコウギョウ,0
2341,9470005000907,登記記録の閉鎖等,0,2023-12-01,2023-11-29,全国コムソン農機商業協同組合,,その他の設立登記法人,香川県,高松市,林町２５４１番地８,,37,201,7610301,,,2023-11-29,清算の結了等,,,2015-10-05,1,,,,,ゼンコクコムソンノウキショウギョウ,0
