sequenceNumber,corporateNumber,process,correct,updateDate,changeDate,name,nameImageId,kind,prefectureName,cityName,streetNumber,addressImageId,prefectureCode,cityCode,postCode,addressOutside,addressOutsideImageId,closeDate,closeCause,successorCorporateNumber,changeCause,assignmentDate,latest,enName,enPrefectureName,enCityName,enAddressOutside,furigana,hihyoji
14,1010001241161,新規,0,2024-01-04,2024-01-04,株式会社ＴＲＩＣＯ．,,株式会社,東京都,中央区,銀座１丁目１２番４号Ｎ＆Ｅビル７階,,13,102,1040061,,,,,,,2024-01-04,1,,,,,トリコ,0
17,1010005037671,新規,0,2024-01-04,2024-01-04,一般社団法人日本木彫芸術文化協会,,その他の設立登記法人,東京都,文京区,目白台３丁目４番１１号ＧＦビル,,13,105,1120015,,,,,,,2024-01-04,1,,,,,ニホンモクチョウゲイジュツブンカキョウカイ,0
23,1010401179480,新規,0,2024-01-04,2024-01-04,株式会社エターナル,,株式会社,東京都,港区,南青山４丁目９番１３号,,13,103,1070062,,,,,,,2024-01-04,1,,,,,エターナル,0
24,1010401179497,新規,0,2024-01-04,2024-01-04,株式会社飲食商人,,株式会社,東京都,港区,高輪３丁目１７番２号,,13,103,1080074,,,,,,,2024-01-04,1,,,,,インショクショウニン,0
25,1010401179514,新規,0,2024-01-04,2024-01-04,オトサファリ株式会社,,株式会社,東京都,港区,南青山２丁目２番１５号ウィン青山９４２,,13,103,1070062,,,,,,,2024-01-04,1,,,,,オトサファリ,0
26,1010401179539,新規,0,2024-01-04,2024-01-04,ＸＹＺ株式会社,,株式会社,東京都,港区,六本木６丁目１０番１号,,13,103,1060032,,,,,,,2024-01-04,1,,,,,エックスワイゼット,0
27,1010401179555,新規,0,2024-01-04,2024-01-04,ＬＡＳＥＮ株式会社,,株式会社,東京都,港区,海岸３丁目７番１８号,,13,103,1080022,,,,,,,2024-01-04,1,,,,,ラセン,0
33,1010601064425,新規,0,2024-01-04,2024-01-04,株式会社浩達,,株式会社,東京都,江東区,東砂５丁目５番６－２１０号,,13,108,1360074,,,,,,,2024-01-04,1,,,,,ヒロタツ,0
34,1010603010550,新規,0,2024-01-04,2024-01-04,合同会社たかはし,,合同会社,東京都,江東区,有明２丁目１番２－３２０６号,,13,108,1350063,,,,,,,2024-01-04,1,,,,,タカハシ,0
36,1010901054464,新規,0,2024-01-04,2024-01-04,株式会社ライブロック,,株式会社,東京都,世田谷区,松原１丁目３８番２３－３０３号,,13,112,1560043,,,,,,,2024-01-04,1,,,,,ライブロック,0
38,1010903008699,新規,0,2024-01-04,2024-01-04,合同会社Ｍｏｎｅｌｌｏ,,合同会社,東京都,世田谷区,玉川２丁目２－１－３０１,,13,112,1580094,,,,,,,2024-01-04,1,,,,,モネロ,0
41,1011001159170,新規,0,2024-01-04,2024-01-04,株式会社ＦＴＧ　Ｈａｌａｌ,,株式会社,東京都,目黒区,中目黒３丁目６番１号千陽アポロンビル４Ｆ,,13,110,1530061,,,,,,,2024-01-04,1,,,,,エフティージーハラル,0
46,1011003018201,新規,0,2024-01-04,2024-01-04,合同会社ＭＮＭＬ,,合同会社,東京都,目黒区,碑文谷６丁目１番２０号ＡＲＥＡＭ－３Ｂ,,13,110,1520003,,,,,,,2024-01-04,1,,,,,ミニマル,0
47,1011003018218,新規,0,2024-01-04,2024-01-04,合同会社チューブ,,合同会社,東京都,目黒区,目黒１丁目１４番３号,,13,110,1530063,,,,,,,2024-01-04,1,,,,,チューブ,0
50,1011101105669,新規,0,2024-01-04,2024-01-04,アンドテイク株式会社,,株式会社,東京都,新宿区,歌舞伎町２丁目４２－１３アゼリア東広ビル４０３号室,,13,104,1600021,,,,,,,2024-01-04,1,,,,,アンドテイク,0
51,1011101105685,新規,0,2024-01-04,2024-01-04,株式会社ＡＬＯＨＡ,,株式会社,東京都,新宿区,歌舞伎町２丁目１３番４号第６金嶋本社ビル３階３０８号室,,13,104,1600021,,,,,,,2024-01-04,1,,,,,アロハ,0
52,1011101105702,新規,0,2024-01-04,2024-01-04,株式会社リライズ,,株式会社,東京都,新宿区,新宿４丁目３番１５号レイフラット新宿１Ｆ株式会社東京トランスポーター内,,13,104,1600022,,,,,,,2024-01-04,1,,,,,リライズ,0
60,1011203004273,新規,0,2024-01-04,2024-01-04,Ｃｉｅｌ合同会社,,合同会社,東京都,中野区,中野３丁目６番９号,,13,114,1640001,,,,,,,2024-01-04,1,,,,,シエル,0
62,1011501030161,新規,0,2024-01-04,2024-01-04,株式会社ＮＡＮＡＩＲＯ,,株式会社,東京都,荒川区,南千住４丁目７番３－３９０５号,,13,118,1160003,,,,,,,2024-01-04,1,,,,,ナナイロ,0
66,1011801043598,新規,0,2024-01-04,2024-01-04,株式会社赳渡組,,株式会社,東京都,葛飾区,東堀切２丁目２４－２１,,13,122,1240004,,,,,,,2024-01-04,1,,,,,キュウトグミ,0
67,1011803006025,新規,0,2024-01-04,2024-01-04,Ｆ‐ＴＩＥＲ合同会社,,合同会社,東京都,足立区,栗原４丁目２４番９ー３０３号,,13,121,1230842,,,,,,,2024-01-04,1,,,,,エフティア,0
68,1012703002881,新規,0,2024-01-04,2024-01-04,合同会社カイラス,,合同会社,東京都,東久留米市,八幡町１丁目９番２８号,,13,222,2030042,,,,,,,2024-01-04,1,,,,,カイラス,0
81,1020001155096,新規,0,2024-01-04,2024-01-04,株式会社ＩＷＴ,,株式会社,神奈川県,横浜市戸塚区,前田町１２９２番地ロイヤルアベニュー１０１号,,14,110,2440804,,,,,,,2024-01-04,1,,,,,アイダブルティー,0
82,1020001155113,新規,0,2024-01-04,2024-01-04,株式会社よしまるエステート,,株式会社,神奈川県,川崎市多摩区,生田３丁目１０番１－３号,,14,135,2140038,,,,,,,2024-01-04,1,,,,,ヨシマルエステート,0
83,1020001155121,新規,0,2024-01-04,2024-01-04,８ＡＣＥ株式会社,,株式会社,神奈川県,横浜市緑区,竹山２丁目２－４－２２０５－５５１,,14,113,2260005,,,,,,,2024-01-04,1,,,,,エイトエース,0
84,1020001155170,新規,0,2024-01-04,2024-01-04,株式会社Ｇａｌａｔｅａ　ｐａｒｔｎｅｒｓ,,株式会社,神奈川県,横浜市保土ケ谷区,常盤台１１番１号東興ハイツ６０２号室,,14,106,2400067,,,,,,,2024-01-04,1,,,,,ガラテアパートナーズ,0
88,1020003025272,新規,0,2024-01-04,2024-01-04,イチゴス合同会社,,合同会社,神奈川県,横浜市栄区,小山台２丁目３０番６号,,14,115,2470002,,,,,,,2024-01-04,1,,,,,イチゴス,0
91,1021001081126,新規,0,2024-01-04,2024-01-04,Ｏ．Ｎ．工業株式会社,,株式会社,神奈川県,平塚市,四之宮４丁目２０番２２－１号,,14,203,2540014,,,,,,,2024-01-04,1,,,,,オーエヌコウギョウ,0
92,1021001081142,新規,0,2024-01-04,2024-01-04,株式会社７ＡＲＣ,,株式会社,神奈川県,厚木市,水引２丁目１２番２４号,,14,212,2430004,,,,,,,2024-01-04,1,,,,,セブンアーク,0
98,1030001157901,新規,0,2024-01-04,2024-01-04,株式会社たかたん’ｓ,,株式会社,埼玉県,越谷市,越ヶ谷４丁目２番２５－１号,,11,222,3430813,,,,,,,2024-01-04,1,,,,,タカタンズ,0
102,1030003023325,新規,0,2024-01-04,2024-01-04,合同会社おもち,,合同会社,埼玉県,朝霞市,浜崎１丁目３‐２‐９０３,,11,227,3510033,,,,,,,2024-01-04,1,,,,,オモチ,0
103,1030003023333,新規,0,2024-01-04,2024-01-04,合同会社ＫＹインベストメント,,合同会社,埼玉県,上尾市,浅間台３丁目２６番４号,,11,219,3620073,,,,,,,2024-01-04,1,,,,,ケイワイインベストメント,0
117,1040001131590,新規,0,2024-01-04,2024-01-04,株式会社コトカ,,株式会社,千葉県,千葉市中央区,登戸１丁目２番３号日暮ビル１階,,12,101,2600032,,,,,,,2024-01-04,1,,,,,コトカ,0
122,1040003024025,新規,0,2024-01-04,2024-01-04,合同会社そのだ,,合同会社,千葉県,千葉市花見川区,長作町４６４番地８３,,12,102,2620044,,,,,,,2024-01-04,1,,,,,ソノダ,0
123,1040005022233,新規,0,2024-01-04,2024-01-04,特定非営利活動法人ハジマリ,,その他の設立登記法人,千葉県,匝瑳市,西小笹１５５６番地,,12,235,2892125,,,,,,,2024-01-04,1,,,,,ハジマリ,0
125,1050001054048,新規,0,2024-01-04,2024-01-04,ライフデザイン株式会社,,株式会社,茨城県,つくば市,古来１４２０番地１,,08,220,3050021,,,,,,,2024-01-04,1,,,,,ライフデザイン,0
126,1060001036680,新規,0,2024-01-04,2024-01-04,株式会社ｓｏｒａｈａｎａ,,株式会社,栃木県,那須塩原市,末広町７７番地１９５,,09,213,3250061,,,,,,,2024-01-04,1,,,,,ソラハナ,0
129,1080001026060,新規,0,2024-01-04,2024-01-04,株式会社ＫＭＴ,,株式会社,静岡県,静岡市葵区,大岩２丁目１７番９号,,22,101,4200886,,,,,,,2024-01-04,1,,,,,ケイエムティー,0
131,1080005007585,新規,0,2024-01-04,2024-01-04,茶のまち川根事業協同組合,,その他の設立登記法人,静岡県,島田市,川根町家山４１５３番地の６,,22,209,4280104,,,,,,,2024-01-04,1,,,,,チャノマチカワネジギョウ,0
132,1090001018486,新規,0,2024-01-04,2024-01-04,株式会社ＣＳＰ,,株式会社,山梨県,甲府市,中央１丁目１６番６号ＦＬ３ビル３Ｆ,,19,201,4000032,,,,,,,2024-01-04,1,,,,,シーエスピー,0
137,1100003007329,新規,0,2024-01-04,2024-01-04,グリーンフォレスト合同会社,,合同会社,長野県,北佐久郡軽井沢町,大字追分１４６６番地７,,20,321,3890115,,,,,,,2024-01-04,1,,,,,グリーンフォレスト,0
156,1120001260803,新規,0,2024-01-04,2024-01-04,株式会社ＸｔｏＸ,,株式会社,大阪府,大阪市西区,新町１丁目５－７四ツ橋ビルディング２Ｆ,,27,106,5500013,,,,,,,2024-01-04,1,,,,,エクストゥエクス,0
157,1120001261000,新規,0,2024-01-04,2024-01-04,嘉実諮詢株式会社,,株式会社,大阪府,大阪市浪速区,日本橋５丁目１４－２大協ビル,,27,111,5560005,,,,,,,2024-01-04,1,,,,,カジツシシュン,0
158,1120001261009,新規,0,2024-01-04,2024-01-04,株式会社Ｌｕｃｋ　Ｖｉｌｌａｇｅ,,株式会社,大阪府,門真市,大橋町３番２２－１０１号,,27,223,5710077,,,,,,,2024-01-04,1,,,,,ラックヴィレッジ,0
159,1120001261041,新規,0,2024-01-04,2024-01-04,株式会社まいどまいど,,株式会社,大阪府,大阪市北区,天神橋５丁目６番３３号,,27,127,5300041,,,,,,,2024-01-04,1,,,,,マイドマイド,0
160,1120001261058,新規,0,2024-01-04,2024-01-04,ＪＣＡ株式会社,,株式会社,大阪府,大阪市中央区,南船場３丁目２番２２号おおきに南船場ビル２０５,,27,128,5420081,,,,,,,2024-01-04,1,,,,,ジェイシーエー,0
161,1120001261099,新規,0,2024-01-04,2024-01-04,株式会社トライアングル,,株式会社,大阪府,大阪市東淀川区,下新庄５丁目４番８－３０１号,,27,114,5330021,,,,,,,2024-01-04,1,,,,,トライアングル,0
164,1120901048587,新規,0,2024-01-04,2024-01-04,株式会社ＯＫＯＴＡ９９,,株式会社,大阪府,池田市,空港１丁目１１番２号,,27,204,5630034,,,,,,,2024-01-04,1,,,,,オコタキュウジュウキュウ,0
170,1130001076042,新規,0,2024-01-04,2024-01-04,株式会社Ｃ＆Ｋ,,株式会社,京都府,京都市上京区,下長者町通浄福寺西入新御幸町２９番地の５,,26,102,6028161,,,,,,,2024-01-04,1,,,,,シーアンドケー,0
171,1130001076075,新規,0,2024-01-04,2024-01-04,株式会社ｇｏａｔ,,株式会社,京都府,京都市中京区,御幸町通三条下る海老屋町３２８番地シティプラザ御幸町２階,,26,104,6048076,,,,,,,2024-01-04,1,,,,,ゴート,0
173,1130003009223,新規,0,2024-01-04,2024-01-04,ケーニッヒ合同会社,,合同会社,京都府,京都市南区,吉祥院中河原里南町８－１レフィナード京都西大路Ｎ－６,,26,107,6018396,,,,,,,2024-01-04,1,,,,,ケーニッヒ,0
176,1140001132819,新規,0,2024-01-04,2024-01-04,株式会社ラソル,,株式会社,兵庫県,神戸市長田区,片山町３丁目１３番１１号,,28,106,6530805,,,,,,,2024-01-04,1,,,,,ラソル,0
177,1140001132827,新規,0,2024-01-04,2024-01-04,株式会社ＭＡＮＲＡＩ,,株式会社,兵庫県,神戸市西区,大津和３丁目３番地の１４,,28,111,6512112,,,,,,,2024-01-04,1,,,,,マンライ,0
178,1140001132835,新規,0,2024-01-04,2024-01-04,株式会社凜,,株式会社,兵庫県,西宮市,千歳町３番１７号,,28,204,6620046,,,,,,,2024-01-04,1,,,,,リン,0
179,1140003019997,新規,0,2024-01-04,2024-01-04,合同会社デジタルの窓口,,合同会社,兵庫県,姫路市,飾磨区今在家７丁目５７－６,,28,201,6728079,,,,,,,2024-01-04,1,,,,,デジタルノマドグチ,0
181,1140005026884,新規,0,2024-01-04,2024-01-04,医療法人社団いけだ歯科,,その他の設立登記法人,兵庫県,神戸市東灘区,住吉宮町５丁目１番３１号,,28,101,6580053,,,,,,,2024-01-04,1,,,,,イケダシカ,0
189,1180001159577,新規,0,2024-01-04,2024-01-04,株式会社シン,,株式会社,愛知県,小牧市,大字野口字神尾前２８７８番９,,23,219,4850806,,,,,,,2024-01-04,1,,,,,シン,0
190,1180001159602,新規,0,2024-01-04,2024-01-04,株式会社吉田組,,株式会社,愛知県,尾張旭市,井田町３丁目７３番地１,,23,226,4880024,,,,,,,2024-01-04,1,,,,,ヨシダグミ,0
191,1180001159627,新規,0,2024-01-04,2024-01-04,株式会社優維,,株式会社,愛知県,日進市,香久山１丁目２４０８番地３,,23,230,4700134,,,,,,,2024-01-04,1,,,,,ユイ,0
200,1200001042029,新規,0,2024-01-04,2024-01-04,株式会社Ｒｅ　Ｌｕｄｅｎｓ,,株式会社,岐阜県,各務原市,蘇原緑町１丁目３８番地,,21,213,5040902,,,,,,,2024-01-04,1,,,,,リルーデンス,0
205,1240001062568,新規,0,2024-01-04,2024-01-04,株式会社ＢＩＭホールディングス,,株式会社,広島県,広島市安佐北区,落合２丁目１９番５号,,34,106,7391731,,,,,,,2024-01-04,1,,,,,ビーアイエムホールディングス,0
211,1260001038624,新規,0,2024-01-04,2024-01-04,株式会社ＺＥＲＯ,,株式会社,岡山県,倉敷市,安江４６７番地１,,33,202,7100825,,,,,,,2024-01-04,1,,,,,ゼロ,0
220,1290001104241,新規,0,2024-01-04,2024-01-04,株式会社Ｗａｋｉｎｇ,,株式会社,福岡県,久留米市,中央町２９－１９,,40,203,8300023,,,,,,,2024-01-04,1,,,,,ウェイキング,0
223,1290801030182,新規,0,2024-01-04,2024-01-04,株式会社晃正,,株式会社,福岡県,北九州市小倉北区,熊本３丁目９番２０号,,40,106,8020044,,,,,,,2024-01-04,1,,,,,コウセイ,0
224,1290805009702,新規,0,2024-01-04,2024-01-04,一般社団法人オレンジママ,,その他の設立登記法人,福岡県,北九州市若松区,青葉台西２丁目１番１１号,,40,103,8080143,,,,,,,2024-01-04,1,,,,,オレンジママ,0
225,1300001013572,新規,0,2024-01-04,2024-01-04,株式会社福糧精米,,株式会社,佐賀県,鳥栖市,立石町１２番地１０２,,41,203,8410075,,,,,,,2024-01-04,1,,,,,フクリョウセイマイ,0
231,1330001031613,新規,0,2024-01-04,2024-01-04,株式会社ＷＩＮＧ,,株式会社,熊本県,熊本市中央区,帯山８丁目４番１号ウイングコートＡ１０２,,43,101,8620924,,,,,,,2024-01-04,1,,,,,ウイング,0
232,1340001026190,新規,0,2024-01-04,2024-01-04,郷原石油株式会社,,株式会社,鹿児島県,鹿屋市,今坂町１０１１８番地２,,46,203,8930057,,,,,,,2024-01-04,1,,,,,ゴウハラセキユ,0
235,1360001033004,新規,0,2024-01-04,2024-01-04,株式会社琉球ｇａｒｄｅｎ,,株式会社,沖縄県,糸満市,西崎１丁目２７－５福島マンション１階,,47,210,9010305,,,,,,,2024-01-04,1,,,,,リュウキュウガーデン,0
236,1360001033029,新規,0,2024-01-04,2024-01-04,株式会社アトラクト,,株式会社,沖縄県,那覇市,松山２丁目１０番６号ＷＡＴＥＲビル３階３－Ｂ,,47,201,9000032,,,,,,,2024-01-04,1,,,,,アトラクト,0
248,1400001016508,新規,0,2024-01-04,2024-01-04,アポロホールディングス株式会社,,株式会社,岩手県,盛岡市,大通１丁目６番１６金盛第一ビル５階,,03,201,0200022,,,,,,,2024-01-04,1,,,,,アポロホールディングス,0
250,1420003002859,新規,0,2024-01-04,2024-01-04,合同会社ＡＺ,,合同会社,青森県,八戸市,大字十三日町１ヴィアノヴァビル３Ｆ,,02,203,0310042,,,,,,,2024-01-04,1,,,,,アズ,0
252,1430001090764,新規,0,2024-01-04,2024-01-04,株式会社ＤＵＮｉＡ,,株式会社,北海道,札幌市中央区,南八条西１７丁目３番２６号,,01,101,0640808,,,,,,,2024-01-04,1,,,,,ドゥニア,0
253,1430001090780,新規,0,2024-01-04,2024-01-04,株式会社システムコンサルタント,,株式会社,北海道,石狩市,樽川七条２丁目１１７番地,,01,235,0613257,,,,,,,2024-01-04,1,,,,,システムコンサルタント,0
259,1500003003163,新規,0,2024-01-04,2024-01-04,合同会社ふかし,,合同会社,愛媛県,今治市,松本町２丁目３の２新田ビル１階,,38,202,7940041,,,,,,,2024-01-04,1,,,,,フカシ,0
260,1700150123198,新規,0,2024-01-04,2024-01-04,ＰＩＮＰＯＩＮＴ　ＭＵＳＩＣ　ＬＩＭＩＴＥＤ,,外国会社等,,,,,,,,ＲＯＯＭ　９．３／Ｅ．ＢＬＯＣＫ　Ａ．ＨＩ－ＴＥＣＨ　ＩＮＤＵＳＴＲＩＡＬ　ＣＥＮＴＲＥ．５－２１　ＰＡＫ　ＴＩＮ　ＰＡＲ　ＳＴＲＥＥＴ　ＴＳＵＥＮ　ＷＡＮ．Ｎ．Ｔ．ＨＯＮＧ　ＫＯＮＧ,,,,,,2024-01-04,1,,,,,ピンポイントミユージツクリミテツド,0
261,1700150123207,新規,0,2024-01-04,2024-01-04,Ｂｌｏｓｓｏｍ　Ｓｈｉｎｊｕｋｕ　Ｌｉｍｉｔｅｄ,,外国会社等,,,,,,,,英国領バージン諸島トルトラ島ロードタウンウッドボーン・ホール,,,,,,2024-01-04,1,,,,,ブロツサムシンジユクリミテツド,0
262,1700150123215,新規,0,2024-01-04,2024-01-04,ｓｕｚｈｏｕｈｕｉｓｈｉｋｅｄｉａｎｚｉｓｈａｎｇｗｕｙｏｕｘｉａｎｇｏｎｇｓｉ,,外国会社等,,,,,,,,ｋｕｎｓｈａｎｋａｉｆａｑｕｃｈｕａｎｇｙｅｌｕ６７２ｈａｏｊｉｔｉａｎｇｕｏｊｉｇｕａｎｇｃｈａｎｇ２１ｈａｏｌｏｕ１６１１ｓｈｉ,,,,,,2024-01-04,1,,,,,スージヨウフイシーコーデイエンズーシヤンウーヨウシエンゴンスー,0
263,1700150123223,新規,0,2024-01-04,2024-01-04,Ｎａｍｅｃｏ（Ｎｏ．１３７２）Ｌｉｍｉｔｅｄ,,外国会社等,東京都,千代田区,霞が関３丁目２－６東京倶楽部ビルディング６階　ロイズ・ジャパン株式会社内,,13,101,1000013,Ｏｎｅ　Ｌｉｍｅ　Ｓｔｒｅｅｔ，Ｌｏｎｄｏｎ　ＥＣ３Ｍ　７ＨＡ　ＵＫ,,,,,,2024-01-04,1,,,,,ネームコナンバーワンスリーセブンツーリミテツド,0
264,1700150123231,新規,0,2024-01-04,2024-01-04,Ｎｏｍｉｎａ　Ｎｏ　６０７　ＬＬＰ,,外国会社等,東京都,千代田区,霞が関３丁目２－６東京倶楽部ビルディング６階　ロイズ・ジャパン株式会社内,,13,101,1000013,Ｏｎｅ　Ｌｉｍｅ　Ｓｔｒｅｅｔ，Ｌｏｎｄｏｎ　ＥＣ３Ｍ　７ＨＡ　ＵＫ,,,,,,2024-01-04,1,,,,,ノナミナンバーシツクスゼロセブンエルエルピー,0
265,1700150123248,新規,0,2024-01-04,2024-01-04,ＹＹ　ＬＡＮＤ　ＰＴＥ．ＬＴＤ．,,外国会社等,,,,,,,,３４　ＬＡＫＥＳＨＯＲＥ　ＶＩＥＷ　ＳＩＮＧＡＰＯＲＥ,,,,,,2024-01-04,1,,,,,ワイワイランドピーテイーイーリミテツド,0
283,2010001240732,新規,0,2024-01-04,2024-01-04,株式会社テーミス,,株式会社,東京都,千代田区,大手町１丁目５－１,,13,101,1000004,,,,,,,2024-01-04,1,,,,,テーミス,0
284,2010001241160,新規,0,2024-01-04,2024-01-04,グローブペドテック株式会社,,株式会社,東京都,千代田区,神田多町２丁目８番地２０－１００５号,,13,101,1010046,,,,,,,2024-01-04,1,,,,,グローブペドテック,0
285,2010001241210,新規,0,2024-01-04,2024-01-04,株式会社ＴＹ　ＰＬＡＮＮＩＮＧ,,株式会社,東京都,中央区,日本橋中洲１番９－４１５号,,13,102,1030008,,,,,,,2024-01-04,1,,,,,ティワィプランニング,0
288,2010005037662,新規,0,2024-01-04,2024-01-04,ＮＰＯ法人ｉｃｈｉｈｉｍｅ,,その他の設立登記法人,東京都,中央区,勝どき６丁目３番１－４１１６号,,13,102,1040054,,,,,,,2024-01-04,1,,,,,イチヒメ,0
291,2010401179496,新規,0,2024-01-04,2024-01-04,株式会社つなぐプロダクション,,株式会社,東京都,港区,浜松町２丁目２番１５号浜松町ダイヤビル２Ｆ,,13,103,1050013,,,,,,,2024-01-04,1,,,,,ツナグプロダクション,0
292,2010401179505,新規,0,2024-01-04,2024-01-04,株式会社ＨＵＢ３,,株式会社,東京都,港区,南青山３丁目１番３６号青山丸竹ビル６Ｆ,,13,103,1070062,,,,,,,2024-01-04,1,,,,,ハブスリー,0
293,2010401179521,新規,0,2024-01-04,2024-01-04,株式会社ＲＦＲＦ,,株式会社,東京都,港区,赤坂６丁目７番１４－１０１号,,13,103,1070052,,,,,,,2024-01-04,1,,,,,アールエフアールエフ,0
296,2010403031663,新規,0,2024-01-04,2024-01-04,合同会社Ｌａｂｙｒｉｎｔｈ,,合同会社,東京都,港区,白金２丁目１番３８－３０２号,,13,103,1080072,,,,,,,2024-01-04,1,,,,,ラビリンス,0
297,2010403031671,新規,0,2024-01-04,2024-01-04,合同会社かくれがデザインスタジオ,,合同会社,東京都,港区,三田５丁目１０番２号はつせ三田５０３,,13,103,1080073,,,,,,,2024-01-04,1,,,,,カクレガデザインスタジオ,0
299,2010501051547,新規,0,2024-01-04,2024-01-04,野崎エコー産業株式会社,,株式会社,東京都,台東区,三筋２丁目２１－７レッツビュー仲御徒町３０１号室,,13,106,1110055,,,,,,,2024-01-04,1,,,,,ノザキエコーサンギョウ,0
303,2010603010533,新規,0,2024-01-04,2024-01-04,合同会社ＹＡＭＡ,,合同会社,東京都,江東区,永代２丁目１０‐６モノトーノ門前仲町２０８,,13,108,1350034,,,,,,,2024-01-04,1,,,,,ヤマ,0
309,2010901054463,新規,0,2024-01-04,2024-01-04,株式会社リンクス,,株式会社,東京都,世田谷区,松原１丁目３４番１６－７０６号,,13,112,1560043,,,,,,,2024-01-04,1,,,,,リンクス,0
311,2011001159137,新規,0,2024-01-04,2024-01-04,株式会社７ＴＯＯＬ,,株式会社,東京都,渋谷区,渋谷２丁目１９－１５宮益坂ビルディング６０９,,13,113,1500002,,,,,,,2024-01-04,1,,,,,セブンツール,0
314,2011003018092,新規,0,2024-01-04,2024-01-04,合同会社ＬＩＡ,,合同会社,東京都,渋谷区,道玄坂１丁目１０－８渋谷道玄坂東急ビル２Ｆ－Ｃ,,13,113,1500043,,,,,,,2024-01-04,1,,,,,エルアイエー,0
315,2011003018209,新規,0,2024-01-04,2024-01-04,合同会社ＤＵＮＥ,,合同会社,東京都,目黒区,中根１丁目６番１２号,,13,110,1520031,,,,,,,2024-01-04,1,,,,,デューン,0
321,2011103013919,新規,0,2024-01-04,2024-01-04,合同会社堀茂樹事務所,,合同会社,東京都,新宿区,神楽坂６丁目８文悠ビルＢ１,,13,104,1620825,,,,,,,2024-01-04,1,,,,,ホリシゲキジムショ,0
325,2011203004272,新規,0,2024-01-04,2024-01-04,Ｎｙｎｙｈｏｎ合同会社,,合同会社,東京都,中野区,中野５丁目４７番５号サボイア２Ｆ,,13,114,1640001,,,,,,,2024-01-04,1,,,,,ニニホン,0
331,2011501030160,新規,0,2024-01-04,2024-01-04,永聖ＭＤ株式会社,,株式会社,東京都,北区,昭和町１丁目３番６号ネオグランデ５０１号室,,13,117,1140011,,,,,,,2024-01-04,1,,,,,エイセイエムディ,0
332,2011503005904,新規,0,2024-01-04,2024-01-04,合同会社ＫＡＫＯ,,合同会社,東京都,荒川区,荒川１丁目３３番３号,,13,118,1160002,,,,,,,2024-01-04,1,,,,,カコ,0
337,2011701026891,新規,0,2024-01-04,2024-01-04,株式会社アルタイル,,株式会社,東京都,江戸川区,平井４丁目２５番２１号３０３号室,,13,123,1320035,,,,,,,2024-01-04,1,,,,,アルタイル,0
338,2012301013719,新規,0,2024-01-04,2024-01-04,株式会社モントレゾール,,株式会社,東京都,町田市,金井４丁目４番８号,,13,209,1950072,,,,,,,2024-01-04,1,,,,,モントレゾール,0
345,2013301051865,新規,0,2024-01-04,2024-01-04,ＴＥＩＥＮ株式会社,,株式会社,東京都,豊島区,東池袋４丁目２番１－３００３号,,13,116,1700013,,,,,,,2024-01-04,1,,,,,テイエン,0
356,2020001155104,新規,0,2024-01-04,2024-01-04,エールホールディングス株式会社,,株式会社,神奈川県,横浜市都筑区,茅ケ崎中央３０番地１６,,14,118,2240032,,,,,,,2024-01-04,1,,,,,エールホールディングス,0
357,2020001155112,新規,0,2024-01-04,2024-01-04,株式会社武藤設計,,株式会社,神奈川県,川崎市中原区,下小田中１丁目１５番３２号,,14,133,2110041,,,,,,,2024-01-04,1,,,,,ブトウセッケイ,0
358,2020001155120,新規,0,2024-01-04,2024-01-04,Ｓ．Ｇ，ＲＯＹＡＬ株式会社,,株式会社,神奈川県,川崎市川崎区,渡田東町１５番９号,,14,131,2100842,,,,,,,2024-01-04,1,,,,,エスジーロイヤル,0
359,2020001155129,新規,0,2024-01-04,2024-01-04,株式会社Ｌｉｂｅｒｔｙ,,株式会社,神奈川県,横浜市磯子区,岡村３丁目１２番３８号メゾン・エスポワール２０２号,,14,107,2350021,,,,,,,2024-01-04,1,,,,,リバティ,0
360,2020001155137,新規,0,2024-01-04,2024-01-04,株式会社ＴＩＡＭＡＴ,,株式会社,神奈川県,横浜市港北区,新横浜３丁目７番地１８日総第１８ビル６階,,14,109,2220033,,,,,,,2024-01-04,1,,,,,ティアマット,0
365,2020003025271,新規,0,2024-01-04,2024-01-04,合同会社シルワ,,合同会社,神奈川県,横浜市青葉区,元石川町４３２４番地１ｖｉｌｌａｇｒａｎｄｅ２０５,,14,117,2250004,,,,,,,2024-01-04,1,,,,,シルワ,0
368,2020005016244,新規,0,2024-01-04,2024-01-04,一般社団法人Ｊａｐａｎ　Ｗｅｌｌｎｅｓｓ　Ｐｒｏｄｕｃｔｓ　Ａｓｓｏｃｉａｔｉｏｎ,,その他の設立登記法人,神奈川県,川崎市宮前区,宮前平３丁目１２番３号,,14,136,2160006,,,,,,,2024-01-04,1,,,,,ジャパンウエルネスプロダクツアソシエーション,0
371,2021001081100,新規,0,2024-01-04,2024-01-04,濱ＴＥＣ株式会社,,株式会社,神奈川県,横須賀市,二葉２丁目１１番２０号,,14,201,2390814,,,,,,,2024-01-04,1,,,,,ハマテック,0
372,2021001081109,新規,0,2024-01-04,2024-01-04,株式会社エブリポス,,株式会社,神奈川県,伊勢原市,小稲葉１０８１－１１,,14,214,2591122,,,,,,,2024-01-04,1,,,,,エブリポス,0
373,2021001081133,新規,0,2024-01-04,2024-01-04,株式会社ハビタ,,株式会社,神奈川県,三浦郡葉山町,一色１３５１－１１,,14,301,2400111,,,,,,,2024-01-04,1,,,,,ハビタ,0
381,2040001131540,新規,0,2024-01-04,2024-01-04,悦品株式会社,,株式会社,千葉県,市川市,南八幡４丁目１６番１－２０５号（ユーコート本八幡）,,12,203,2720023,,,,,,,2024-01-04,1,,,,,エツヒン,0
386,2040003024016,新規,0,2024-01-04,2024-01-04,千葉の鍼灸合同会社,,合同会社,千葉県,千葉市中央区,弁天１丁目９番１号エクセレントシティ千葉弁天１０１号,,12,101,2600045,,,,,,,2024-01-04,1,,,,,チバノシンキュウ,0
387,2050001054039,新規,0,2024-01-04,2024-01-04,かたりはな株式会社,,株式会社,茨城県,那珂市,中里４３５番地１,,08,226,3192103,,,,,,,2024-01-04,1,,,,,カタリハナ,0
400,2070003005211,新規,0,2024-01-04,2024-01-04,合同会社ＨＡＳＨＩＲ　ＪＡＰＡＮ　ＴＲＡＤＩＮＧ,,合同会社,群馬県,館林市,小桑原町１０２４番地の１０２ハイツブルメリアＢ－２０５,,10,207,3740037,,,,,,,2024-01-04,1,,,,,ハーシルジャパントレーディング,0
410,2100001037095,新規,0,2024-01-04,2024-01-04,株式会社トライネクスト,,株式会社,長野県,佐久市,下越１４３番地,,20,217,3840414,,,,,,,2024-01-04,1,,,,,トライネクスト,0
413,2110003005248,新規,0,2024-01-04,2024-01-04,合同会社Ｐｕｒｐｏｉｒｅ,,合同会社,新潟県,新潟市西区,五十嵐２の町８０５０番地産学連携共同研究棟１号棟２階,,15,107,9502102,,,,,,,2024-01-04,1,,,,,プルポワール,0
421,2120001261016,新規,0,2024-01-04,2024-01-04,株式会社クラス,,株式会社,大阪府,大阪市北区,梅田１丁目２番２号大阪駅前第２ビル１２－１２,,27,127,5300001,,,,,,,2024-01-04,1,,,,,クラス,0
422,2120001261049,新規,0,2024-01-04,2024-01-04,ＴＫ　Ｔｒｅｅｓ株式会社,,株式会社,大阪府,大阪市天王寺区,生玉寺町三丁目５番地,,27,109,5430073,,,,,,,2024-01-04,1,,,,,ティーケーツリーズ,0
429,2120005024071,新規,0,2024-01-04,2024-01-04,一般社団法人関西産研,,その他の設立登記法人,大阪府,大阪市淀川区,宮原１丁目１の１新大阪阪急ビル３階,,27,123,5320003,,,,,,,2024-01-04,1,,,,,カンサイサンケン,0
432,2120901048586,新規,0,2024-01-04,2024-01-04,株式会社石川工務店,,株式会社,大阪府,豊中市,服部西町１丁目９番４３号マンション悟空１０３号室,,27,203,5610858,,,,,,,2024-01-04,1,,,,,イシカワコウムテン,0
436,2120903004983,新規,0,2024-01-04,2024-01-04,合同会社ケンシン,,合同会社,大阪府,箕面市,桜ケ丘４丁目１２番５８－３０２号,,27,220,5620046,,,,,,,2024-01-04,1,,,,,ケンシン,0
440,2130001076025,新規,0,2024-01-04,2024-01-04,株式会社ファースト,,株式会社,京都府,京都市右京区,嵯峨野千代ノ道町２１番地５,,26,108,6168321,,,,,,,2024-01-04,1,,,,,ファースト,0
441,2130003009222,新規,0,2024-01-04,2024-01-04,Ｔｏｕｒ　Ｋｙｏｔｏ合同会社,,合同会社,京都府,京都市中京区,山伏山町５４１番地エスリード四条室町３０５号,,26,104,6048156,,,,,,,2024-01-04,1,,,,,ツアーキョウト,0
442,2130005016968,新規,0,2024-01-04,2024-01-04,特定非営利活動法人ＡＮｉＰＡ,,その他の設立登記法人,京都府,京都市伏見区,深草大亀谷六躰町４５－５ラシーヌ藤森２０３,,26,109,6120851,,,,,,,2024-01-04,1,,,,,アニパ,0
444,2140001132850,新規,0,2024-01-04,2024-01-04,株式会社彩,,株式会社,兵庫県,神戸市中央区,中山手通７丁目１４番１－６２２号,,28,110,6500004,,,,,,,2024-01-04,1,,,,,イロドリ,0
445,2140001132875,新規,0,2024-01-04,2024-01-04,株式会社Ｇｒｅｅｎ・ｐａｒｔｎｅｒｓ,,株式会社,兵庫県,尼崎市,東難波町５丁目１番２号１階Ａ号室,,28,202,6600892,,,,,,,2024-01-04,1,,,,,グリーンパートナーズ,0
446,2140001132883,新規,0,2024-01-04,2024-01-04,株式会社ＲＳ,,株式会社,兵庫県,神戸市中央区,中町通３丁目１番１６号５０２号室,,28,110,6500027,,,,,,,2024-01-04,1,,,,,アールエス,0
451,2140003019996,新規,0,2024-01-04,2024-01-04,合同会社Ｈ＆Ｔマネジメント,,合同会社,兵庫県,神戸市西区,伊川谷町長坂９７７番地の９４,,28,111,6512104,,,,,,,2024-01-04,1,,,,,エイチアンドティーマネジメント,0
467,2180001159576,新規,0,2024-01-04,2024-01-04,株式会社ＣＬＡＷ,,株式会社,愛知県,名古屋市中川区,十番町５丁目８番１２号,,23,110,4540055,,,,,,,2024-01-04,1,,,,,クロー,0
468,2180001159592,新規,0,2024-01-04,2024-01-04,株式会社フラットフィールド,,株式会社,愛知県,瀬戸市,定光寺町６２０番地の１,,23,204,4801201,,,,,,,2024-01-04,1,,,,,フラットフィールド,0
469,2180001159618,新規,0,2024-01-04,2024-01-04,株式会社Ｃａｐｓｕｌｅ　Ｃｏｒｐｏｒａｔｉｏｎ,,株式会社,愛知県,名古屋市中区,栄４丁目９番１０号,,23,106,4600008,,,,,,,2024-01-04,1,,,,,カプセルコーポレーション,0
473,2180003026171,新規,0,2024-01-04,2024-01-04,合同会社ＰＩＴ　Ｋ２Ｋ,,合同会社,愛知県,海部郡大治町,大字八ツ屋字東田面１５,,23,424,4901133,,,,,,,2024-01-04,1,,,,,ピットケーツーケー,0
474,2180005020478,新規,0,2024-01-04,2024-01-04,特定非営利活動法人日本家庭動物愛護協会東海,,その他の設立登記法人,愛知県,名古屋市西区,十方町１２１番地,,23,104,4520837,,,,,,,2024-01-04,1,,,,,ニホンカテイドウブツアイゴキョウカイトウカイ,0
476,2180301038182,新規,0,2024-01-04,2024-01-04,株式会社Ｇｌｏｃａｌ　Ａｇｒｉ　Ｐａｒｋ,,株式会社,愛知県,豊橋市,富士見台４丁目２番地８,,23,201,4418135,,,,,,,2024-01-04,1,,,,,グローカルアグリパーク,0
484,2220001025757,新規,0,2024-01-04,2024-01-04,株式会社ＣｏｎｓｕｌｔＷｅａｐｏｎ,,株式会社,石川県,金沢市,寺町２丁目４番３号,,17,201,9218033,,,,,,,2024-01-04,1,,,,,コンサルウエポン,0
485,2230001020154,新規,0,2024-01-04,2024-01-04,株式会社Ｍ．Ｓ．Ｋ．,,株式会社,富山県,高岡市,福岡町上蓑５３０番地２,,16,202,9390127,,,,,,,2024-01-04,1,,,,,エムエスケー,0
490,2260001038623,新規,0,2024-01-04,2024-01-04,ＺＥＢ株式会社,,株式会社,岡山県,瀬戸内市,邑久町山田庄３１７－３ＶＩＳＢＹ（Ｄ－１）,,33,212,7014246,,,,,,,2024-01-04,1,,,,,ゼブ,0
498,2290001104249,新規,0,2024-01-04,2024-01-04,オートスタートレーディング株式会社,,株式会社,福岡県,嘉穂郡桂川町,大字九郎丸１９番地１エム・ボヌールＤ棟１０１号,,40,421,8200602,,,,,,,2024-01-04,1,,,,,オートスタートレーディング,0
506,2300005007173,新規,0,2024-01-04,2024-01-04,一般社団法人えふ,,その他の設立登記法人,佐賀県,唐津市,鎮西町打上３２０２番地,,41,202,8470322,,,,,,,2024-01-04,1,,,,,エフ,0
527,2400001016507,新規,0,2024-01-04,2024-01-04,ＭＫ商事株式会社,,株式会社,岩手県,盛岡市,大通１丁目６番１６金盛第一ビル５階,,03,201,0200022,,,,,,,2024-01-04,1,,,,,エムケイショウジ,0
535,2700150123197,新規,0,2024-01-04,2024-01-04,ｃｈｏｎｇｑｉｎｇｂｅｉｘｉｄｉａｎｚｉｓｈａｎｇｗｕｙｏｕｘｉａｎｚｅｒｅｎｇｏｎｇｓｉ,,外国会社等,,,,,,,,ｃｈｏｎｇｑｉｎｇｓｈｉｎａｎａｎｑｕｄａｎｚｉｓｈｉｉｉｅｄａｏｚｈｉｉｉｎｌｕ３９ｈａｏ　ｓａｎｄｏｎｇ１６－３ｈａｏ　ｃｈｏｎｇｑｉｎｇｓｈｉ　ｃｈｏｎｇｑｉｎｇ　４０００６１　ＣＮ,,,,,,2024-01-04,1,,,,,ジヨーンチーンベイチイデイエンズーシヤーンウーヨウシエンゾーアウレンゴーンスー,0
536,2700150123206,新規,0,2024-01-04,2024-01-04,ＮＹＴ　Ｄｉｇｉｔａｌ　ＬＬＣ,,外国会社等,東京都,中央区,築地５丁目３－２朝日新聞東京本社新館１４階,,13,102,1040045,６２０　Ｅｉｇｈｔｈ　Ａｖｅｎｕｅ，Ｎｅｗ　Ｙｏｒｋ，ＮＹ　１００１８，ＵＳＡ,,,,,,2024-01-04,1,,,,,エヌワイテイーデジタルエルエルシー,0
537,2700150123214,新規,0,2024-01-04,2024-01-04,Ｈｕｎａｎ　Ｙｕａｎ　Ｙｕｅ　ｅｃｏｍｍｅｒｃｅ　Ｃｏ．，ＬＴＤ,,外国会社等,,,,,,,,Ｎｏ．０１６，Ｇｒｏｕｐ　２，Ｐｉｎｇｓｈｕ　Ｖｉｌｌａｇｅ，Ｗｅｎｔｉａｎ　Ｔｏｗｎ，Ｘｉｎｈｕａ　Ｃｏｕｎｔｙ，Ｌｏｕｄｉ　Ｃｉｔｙ，Ｈｕｎａｎ　Ｐｒｏｖｉｎｃｅ,,,,,,2024-01-04,1,,,,,フーナンシヨンユエンユエデイエンズーシヤンウーヨウシエンゴンスー,0
538,2700150123222,新規,0,2024-01-04,2024-01-04,Ｈｕｎａｎ　Ｌｅｉｅｒ　ｅｌｅｃｔｒｏｎｉｃ　Ｔｅｃｈｎｏｌｏｇｙ　Ｃｏ．，ＬＴＤ,,外国会社等,,,,,,,,Ｎｏ．００９，Ｇｒｏｕｐ　３，Ｆａｎｇｚｈｕ　Ｖｉｌｌａｇｅ，Ｗｅｎｔｉａｎ　Ｔｏｗｎ，Ｘｉｎｈｕａ　Ｃｏｕｎｔｙ，Ｌｏｕｄｉ　Ｃｉｔｙ，Ｈｕｎａｎ　Ｐｒｏｖｉｎｃｅ,,,,,,2024-01-04,1,,,,,フーナンシヨンレイアーデイエンズーコージーヨウシエンゴンスー,0
539,2700150123230,新規,0,2024-01-04,2024-01-04,Ｎａｍｅｃｏ（Ｎｏ．１３８２）Ｌｉｍｉｔｅｄ,,外国会社等,東京都,千代田区,霞が関３丁目２－６東京倶楽部ビルディング６階　ロイズ・ジャパン株式会社内,,13,101,1000013,Ｏｎｅ　Ｌｉｍｅ　Ｓｔｒｅｅｔ，Ｌｏｎｄｏｎ　ＥＣ３Ｍ　７ＨＡ　ＵＫ,,,,,,2024-01-04,1,,,,,ネームコナンバーワンスリーエイトツーリミテツド,0
540,2700150123239,新規,0,2024-01-04,2024-01-04,荒野客（深セン）体育用品有限公司,,外国会社等,,,,,,,,中国広東省深セン市龍華区民治街道民治社区１９７０科技園３棟１０６－１,,,,,,2024-01-04,1,,,,,コウヤキヤクシンセンタイイクヨウヒンユウゲンコウシ,0
541,2700150123247,新規,0,2024-01-04,2024-01-04,Ｈｕｎａｎ　Ｐｒｏｖｉｎｃｅ　Ｓｉｚｈｅｎ　ｅｌｅｃｔｒｏｎｉｃ　Ｃｏｍｍｅｒｃｅ　Ｃｏ．，ＬＴＤ,,外国会社等,,,,,,,,Ｎｏ．０１４，Ｅｉｇｈｔｈ　ｖｉｌｌａｇｅｒ　Ｇｒｏｕｐ，Ｑｉａｏｐｉｎｇ　Ｖｉｌｌａｇｅ，Ｗｅｎｔｉａｎ　Ｔｏｗｎ，Ｘｉｎｈｕａ　Ｃｏｕｎｔｙ，Ｌｏｕｄｉ　Ｃｉｔｙ，Ｈｕｎａｎ　Ｐｒｏｖｉｎｃｅ,,,,,,2024-01-04,1,,,,,フーナンシヨンスージエンデイエンズーシヤンウーヨウシエンゴンスー,0
561,3010003042580,新規,0,2024-01-04,2024-01-04,Ｉｎｏ　Ｃａｎｔｏｎｅｓｅ日本橋たかせ合同会社,,合同会社,東京都,中央区,日本橋堀留町１丁目８－１１日本橋人形町スクエア１Ｆ,,13,102,1030012,,,,,,,2024-01-04,1,,,,,イノカントニーズニホンバシタカセ,0
563,3010101015950,新規,0,2024-01-04,2024-01-04,ウエストフィールド株式会社,,株式会社,東京都,八王子市,元横山町３丁目１５番１６号,,13,201,1920063,,,,,,,2024-01-04,1,,,,,ウエストフィールド,0
567,3010401179470,新規,0,2024-01-04,2024-01-04,Ｂｅｕ‐ｙｏｎｄ株式会社,,株式会社,東京都,港区,東麻布２丁目２４番１号ＨＥＲＥＮＣＩＡ７０１,,13,103,1060044,,,,,,,2024-01-04,1,,,,,ビューヨンド,0
568,3010401179479,新規,0,2024-01-04,2024-01-04,株式会社ＳＥＩホールディングス,,株式会社,東京都,港区,新橋３丁目７番３号ステージ新橋一階,,13,103,1050004,,,,,,,2024-01-04,1,,,,,エスイーアイホールディングス,0
569,3010401179487,新規,0,2024-01-04,2024-01-04,株式会社電脳組合,,株式会社,東京都,港区,六本木５丁目２－１ほうらいやビル７Ｆ,,13,103,1060032,,,,,,,2024-01-04,1,,,,,デンノウクミアイ,0
570,3010401179504,新規,0,2024-01-04,2024-01-04,株式会社ＭＡＲＩＡ,,株式会社,東京都,港区,六本木３丁目１６－１３,,13,103,1060032,,,,,,,2024-01-04,1,,,,,マリア,0
571,3010401179545,新規,0,2024-01-04,2024-01-04,株式会社ＲｏｂｏＤｉｇｉ,,株式会社,東京都,港区,六本木１丁目４番５号アークヒルズサウスタワー４階,,13,103,1060032,,,,,,,2024-01-04,1,,,,,ロボデジ,0
588,3010601064407,新規,0,2024-01-04,2024-01-04,株式会社Ｃｈｉｅｎｓ,,株式会社,東京都,江東区,豊洲３丁目４番１－４２０５号,,13,108,1350061,,,,,,,2024-01-04,1,,,,,シアンズ,0
589,3010601064431,新規,0,2024-01-04,2024-01-04,株式会社Ｖｉｓｉｏｎ,,株式会社,東京都,墨田区,立川４丁目３番７号ＡＬＴＥＲＮＡＫＩＫＵＫＡＷＡＩＩ７０１号室,00133168,13,107,1300023,,,,,,,2024-01-04,1,,,,,ビジョン,0
595,3010901054454,新規,0,2024-01-04,2024-01-04,株式会社アドバンス,,株式会社,東京都,世田谷区,弦巻４丁目３１番７号第３サンフレンド松本２０１,,13,112,1540016,,,,,,,2024-01-04,1,,,,,アドバンス,0
601,3011001159128,新規,0,2024-01-04,2024-01-04,株式会社ＮＩＫＩｔｅｒｒａｃｅ,,株式会社,東京都,渋谷区,神宮前５丁目２番１８号ＮＩＫＩＢｌｄｇ,,13,113,1500001,,,,,,,2024-01-04,1,,,,,ニキテラス,0
602,3011001159185,新規,0,2024-01-04,2024-01-04,株式会社Ｓｈｏｊｉ　Ｗａｔａｎａｂｅ,,株式会社,東京都,目黒区,中央町２丁目３６番８号,,13,110,1520001,,,,,,,2024-01-04,1,,,,,ショウジワタナベ,0
604,3011003018199,新規,0,2024-01-04,2024-01-04,合同会社アガスティア愛の家,,合同会社,東京都,渋谷区,富ヶ谷２丁目２６番１６号１０１号室,,13,113,1510063,,,,,,,2024-01-04,1,,,,,アガスティアアイノイエ,0
607,3011101105675,新規,0,2024-01-04,2024-01-04,日本東京医薬研究所株式会社,,株式会社,東京都,新宿区,百人町２丁目１番４５号赤煉瓦２４７,,13,104,1690073,,,,,,,2024-01-04,1,,,,,ニホントウキョウイヤクケンキュウショ,0
608,3011101105683,新規,0,2024-01-04,2024-01-04,株式会社Ｒ１,,株式会社,東京都,新宿区,歌舞伎町２丁目４１－８植木ビル４０１,,13,104,1600021,,,,,,,2024-01-04,1,,,,,アールワン,0
609,3011101105700,新規,0,2024-01-04,2024-01-04,ＫＨＯＯＲＹ＆ＫＳ株式会社,,株式会社,東京都,新宿区,四谷２丁目１４番地３７,,13,104,1600004,,,,,,,2024-01-04,1,,,,,クーリーアンドケーエス,0
613,3011503005903,新規,0,2024-01-04,2024-01-04,合同会社ＲＯＮＳＡＲＤ,,合同会社,東京都,北区,浮間３丁目５番１５－４１６号,,13,117,1150051,,,,,,,2024-01-04,1,,,,,ロンサール,0
620,3011805003324,新規,0,2024-01-04,2024-01-04,一般社団法人ロボットスポーツ協会,,その他の設立登記法人,東京都,足立区,千住旭町３８番１号４２３号室,,13,121,1200026,,,,,,,2024-01-04,1,,,,,ロボットスポーツキョウカイ,0
621,3012301013718,新規,0,2024-01-04,2024-01-04,株式会社カジュアルＣｌｅａｎ,,株式会社,東京都,町田市,三輪町７５番地６,,13,209,1950054,,,,,,,2024-01-04,1,,,,,カジュアルクリーン,0
624,3012401041370,新規,0,2024-01-04,2024-01-04,Ｉ．Ｓ．Ｓ．株式会社,,株式会社,東京都,三鷹市,大沢１丁目５番３５号,,13,204,1810015,,,,,,,2024-01-04,1,,,,,アイエスエス,0
635,3012701018011,新規,0,2024-01-04,2024-01-04,株式会社ＫＯＢＡ　ＧＹＭ,,株式会社,東京都,小平市,花小金井南町１丁目１２－１１Ｂ１Ｆ,,13,211,1870003,,,,,,,2024-01-04,1,,,,,コバジム,0
638,3012801022870,新規,0,2024-01-04,2024-01-04,ＭＳＫメンテック株式会社,,株式会社,東京都,立川市,幸町３丁目１６番地の１,,13,202,1900002,,,,,,,2024-01-04,1,,,,,エムエスケーメンテック,0
639,3013301051864,新規,0,2024-01-04,2024-01-04,株式会社ＲＡＶＩＳＳＡ,,株式会社,東京都,豊島区,高田１丁目１９番２４号,,13,116,1710033,,,,,,,2024-01-04,1,,,,,ラヴィッサ,0
640,3013303006940,新規,0,2024-01-04,2024-01-04,合同会社資源戦略研究所,,合同会社,東京都,豊島区,目白４丁目１９番２６号,,13,116,1710031,,,,,,,2024-01-04,1,,,,,シゲンセンリャクケンキュウショ,0
643,3020001155094,新規,0,2024-01-04,2024-01-04,株式会社峰,,株式会社,神奈川県,横浜市神奈川区,六角橋２丁目１７番５号,,14,102,2210802,,,,,,,2024-01-04,1,,,,,ミネ,0
646,3020003025262,新規,0,2024-01-04,2024-01-04,クロスシート合同会社,,合同会社,神奈川県,横浜市鶴見区,東寺尾中台２８番１‐６０２号,,14,101,2300017,,,,,,,2024-01-04,1,,,,,クロスシート,0
650,3021001081124,新規,0,2024-01-04,2024-01-04,株式会社坂本,,株式会社,神奈川県,三浦郡葉山町,堀内６６３番地,,14,301,2400112,,,,,,,2024-01-04,1,,,,,サカモト,0
651,3021001081140,新規,0,2024-01-04,2024-01-04,株式会社アルセ・アミゴ,,株式会社,神奈川県,足柄上郡開成町,吉田島１７０６番地,,14,366,2580021,,,,,,,2024-01-04,1,,,,,アルセアミゴ,0
655,3030001157924,新規,0,2024-01-04,2024-01-04,ＫＶＬ株式会社,,株式会社,埼玉県,さいたま市岩槻区,大字鹿室１３１２番地３,,11,110,3390001,,,,,,,2024-01-04,1,,,,,ケイブイエル,0
664,3040001131572,新規,0,2024-01-04,2024-01-04,さざんか福祉サービス株式会社,,株式会社,千葉県,習志野市,鷺沼５丁目８－７グリーンハイツ１０１号,,12,216,2750014,,,,,,,2024-01-04,1,,,,,サザンカフクシサービス,0
674,3050001054054,新規,0,2024-01-04,2024-01-04,ふるさわ株式会社,,株式会社,茨城県,下妻市,長塚２番地１,,08,210,3040056,,,,,,,2024-01-04,1,,,,,フルサワ,0
675,3050001054070,新規,0,2024-01-04,2024-01-04,株式会社伍建,,株式会社,茨城県,土浦市,中村西根２１３７番地４,,08,203,3000849,,,,,,,2024-01-04,1,,,,,,0
682,3080001026059,新規,0,2024-01-04,2024-01-04,フジメタル株式会社,,株式会社,静岡県,焼津市,中島１２４３番地,,22,212,4210214,,,,,,,2024-01-04,1,,,,,フジメタル,0
691,3100001037094,新規,0,2024-01-04,2024-01-04,株式会社ＵＳＡＧＩ　Ｅｄｕｃａｔｉｏｎ,,株式会社,長野県,安曇野市,穂高８６６４番地ウィステリアＡ２０３,,20,220,3998303,,,,,,,2024-01-04,1,,,,,ウサギエデュケーション,0
695,3110001038067,新規,0,2024-01-04,2024-01-04,株式会社ケーエスファクトリー,,株式会社,新潟県,刈羽郡刈羽村,大字刈羽４２７８番地３,,15,504,9450307,,,,,,,2024-01-04,1,,,,,ケーエスファクトリー,0
705,3120001260900,新規,0,2024-01-04,2024-01-04,タイニー・ワンダー・スタジオ株式会社,,株式会社,大阪府,大阪市中央区,南本町２丁目４番１０号,,27,128,5410054,,,,,,,2024-01-04,1,,,,,タイニーワンダースタジオ,0
706,3120001261007,新規,0,2024-01-04,2024-01-04,株式会社カンタン,,株式会社,大阪府,大阪市北区,梅田１丁目１番３号大阪駅前第３ビル２９階１－１－１号室,,27,127,5300001,,,,,,,2024-01-04,1,,,,,カンタン,0
707,3120001261015,新規,0,2024-01-04,2024-01-04,澄道株式会社,,株式会社,大阪府,大阪市東成区,深江北３丁目４番２１号エクラ深江橋２１５Ｂ,,27,115,5370001,,,,,,,2024-01-04,1,,,,,チョウドウ,0
708,3120001261023,新規,0,2024-01-04,2024-01-04,景途国際株式会社,,株式会社,大阪府,大阪市東成区,中本４丁目９番２３号,,27,115,5370022,,,,,,,2024-01-04,1,,,,,ケイトコクサイ,0
709,3120001261048,新規,0,2024-01-04,2024-01-04,株式会社Ｌｅｉｓｕｒｅｌｙ　ｈｏｍｅ,,株式会社,大阪府,大阪市生野区,勝山南４丁目５番２号４０１号,,27,116,5440021,,,,,,,2024-01-04,1,,,,,レジャリーホーム,0
710,3120001261056,新規,0,2024-01-04,2024-01-04,株式会社ピリカノプラス,,株式会社,大阪府,大阪市住之江区,南港北２丁目１－１０ＡＴＣビルＩＴＭ棟１０Ｆ,,27,125,5590034,,,,,,,2024-01-04,1,,,,,ピリカノプラス,0
711,3120001261064,新規,0,2024-01-04,2024-01-04,福盛株式会社,,株式会社,大阪府,大阪市生野区,新今里６丁目５番７－３０４号,,27,116,5440001,,,,,,,2024-01-04,1,,,,,フクモリ,0
712,3120001261080,新規,0,2024-01-04,2024-01-04,株式会社ＧＷ,,株式会社,大阪府,大阪市中央区,南本町３丁目３番２５－３２０１号,,27,128,5410054,,,,,,,2024-01-04,1,,,,,ジーダブリュー,0
717,3120003025590,新規,0,2024-01-04,2024-01-04,合同会社ＷＡＶＥ,,合同会社,大阪府,大阪市天王寺区,北河堀町７－１６グランカサ天王寺１Ｆ,,27,109,5430053,,,,,,,2024-01-04,1,,,,,ウェイブ,0
718,3120101068789,新規,0,2024-01-04,2024-01-04,株式会社さざなみ,,株式会社,大阪府,堺市西区,上野芝向ヶ丘町２丁１５番７８号,,27,144,5938303,,,,,,,2024-01-04,1,,,,,サザナミ,0
719,3120101068814,新規,0,2024-01-04,2024-01-04,株式会社Ｓｍｉｌｅ　Ｌｉｆｅ,,株式会社,大阪府,泉大津市,旭町１５番３号クオーレサカイ１０２,,27,206,5950025,,,,,,,2024-01-04,1,,,,,スマイルライフ,0
720,3120105009797,新規,0,2024-01-04,2024-01-04,司法書士法人田代事務所,,その他の設立登記法人,大阪府,堺市西区,鳳中町８丁３番地９,,27,144,5938327,,,,,,,2024-01-04,1,,,,,タシロジムショ,0
722,3120901048569,新規,0,2024-01-04,2024-01-04,株式会社南野コーポレーション,,株式会社,大阪府,豊中市,浜１丁目１６番１０号,,27,203,5610817,,,,,,,2024-01-04,1,,,,,ミナミノコーポレーション,0
723,3120901048585,新規,0,2024-01-04,2024-01-04,株式会社オーバル,,株式会社,大阪府,吹田市,春日３丁目２０－１５ギャレビアンコＩＩＩ２０２号室,00133173,27,205,5650853,,,,,,,2024-01-04,1,,,,,オーバル,0
731,3130001076016,新規,0,2024-01-04,2024-01-04,アリパートナーズ株式会社,,株式会社,京都府,京都市伏見区,醍醐南西裏町１８－５－２０１,,26,109,6011356,,,,,,,2024-01-04,1,,,,,アリパートナーズ,0
732,3130001076057,新規,0,2024-01-04,2024-01-04,つくね工房やまだ株式会社,,株式会社,京都府,京都市北区,大将軍西町１２１番地,,26,101,6038331,,,,,,,2024-01-04,1,,,,,ツクネコウボウヤマダ,0
737,3140001132817,新規,0,2024-01-04,2024-01-04,ＴＲＹ　ＣＲＯＳＳ株式会社,,株式会社,兵庫県,川西市,栄町１１番３－８０２号,,28,217,6660033,,,,,,,2024-01-04,1,,,,,,0
738,3140001132841,新規,0,2024-01-04,2024-01-04,株式会社Ｓ＆ＡＣＲＯＷＮ,,株式会社,兵庫県,神戸市北区,桂木３丁目４番１９号,,28,109,6511223,,,,,,,2024-01-04,1,,,,,エスアンドエークラウン,0
741,3140003019995,新規,0,2024-01-04,2024-01-04,合同会社はやぶさ,,合同会社,兵庫県,姫路市,飯田１丁目１５番地,,28,201,6700974,,,,,,,2024-01-04,1,,,,,ハヤブサ,0
752,3180001159410,新規,0,2024-01-04,2024-01-04,株式会社Ｅｑｖｏ,,株式会社,愛知県,名古屋市北区,中丸町２丁目６６番地,,23,103,4620056,,,,,,,2024-01-04,1,,,,,エクボ,0
753,3180001159550,新規,0,2024-01-04,2024-01-04,株式会社サンタール,,株式会社,愛知県,江南市,宮後町上河原３０－２,,23,217,4838044,,,,,,,2024-01-04,1,,,,,サンタール,0
754,3180001159559,新規,0,2024-01-04,2024-01-04,株式会社トップリーシング,,株式会社,愛知県,名古屋市名東区,本郷２丁目５３番地,,23,115,4650024,,,,,,,2024-01-04,1,,,,,トップリーシング,0
755,3180001159583,新規,0,2024-01-04,2024-01-04,株式会社夢,,株式会社,愛知県,名古屋市西区,比良３丁目１８７番地,,23,104,4520802,,,,,,,2024-01-04,1,,,,,ユメ,0
756,3180001159609,新規,0,2024-01-04,2024-01-04,株式会社合道,,株式会社,愛知県,名古屋市名東区,高針２丁目２４１８番地,,23,115,4650061,,,,,,,2024-01-04,1,,,,,ゴウドウ,0
757,3180001159617,新規,0,2024-01-04,2024-01-04,春田産業株式会社,,株式会社,愛知県,あま市,新居屋又屋敷８番地,,23,237,4901105,,,,,,,2024-01-04,1,,,,,ハルダサンギョウ,0
758,3180001159625,新規,0,2024-01-04,2024-01-04,株式会社コネクト,,株式会社,愛知県,名古屋市西区,名塚町４丁目６番地の３,,23,104,4510081,,,,,,,2024-01-04,1,,,,,コネクト,0
761,3180005020477,新規,0,2024-01-04,2024-01-04,医療法人野田医院,,その他の設立登記法人,愛知県,瀬戸市,菱野台２丁目２９番,,23,204,4890887,,,,,,,2024-01-04,1,,,,,ノダイイン,0
765,3180303005964,新規,0,2024-01-04,2024-01-04,合同会社ハートフル三浦,,合同会社,愛知県,岡崎市,大和町字鳥ケ城８７番地,,23,202,4440931,,,,,,,2024-01-04,1,,,,,ハートフルミウラ,0
766,3190001030990,新規,0,2024-01-04,2024-01-04,株式会社三輪電機工業,,株式会社,三重県,四日市市,楠町吉崎４１８番地４２,,24,202,5100102,,,,,,,2024-01-04,1,,,,,ミワデンキコウギョウ,0
791,3290003014817,新規,0,2024-01-04,2024-01-04,アイケアサミット合同会社,,合同会社,福岡県,福岡市南区,曰佐２丁目１７－１１－２０６,,40,134,8111313,,,,,,,2024-01-04,1,,,,,アイケアサミット,0
792,3290005019244,新規,0,2024-01-04,2024-01-04,一般社団法人よしだ,,その他の設立登記法人,福岡県,福岡市南区,井尻１丁目５番１号,,40,134,8111302,,,,,,,2024-01-04,1,,,,,ヨシダ,0
795,3300001013570,新規,0,2024-01-04,2024-01-04,株式会社福糧主食,,株式会社,佐賀県,鳥栖市,江島町３１６６番地１,,41,203,8410073,,,,,,,2024-01-04,1,,,,,フクリョウシュショク,0
796,3300005007172,新規,0,2024-01-04,2024-01-04,ＮＰＯ法人明日へ,,その他の設立登記法人,佐賀県,佐賀市,城内２丁目３番６号,,41,201,8400041,,,,,,,2024-01-04,1,,,,,,0
801,3330001031594,新規,0,2024-01-04,2024-01-04,株式会社ＡＧＩグループホールディングス,,株式会社,熊本県,荒尾市,高浜１９７８番地,,43,204,8640025,,,,,,,2024-01-04,1,,,,,エージーアイグループホールディングス,0
809,3370001050789,新規,0,2024-01-04,2024-01-04,株式会社中村工業,,株式会社,宮城県,仙台市若林区,なないろの里２丁目９番地の１３,,04,103,9840017,,,,,,,2024-01-04,1,,,,,ナカムラコウギョウ,0
815,3470001019964,新規,0,2024-01-04,2024-01-04,株式会社たまや,,株式会社,香川県,高松市,丸亀町４番地２,,37,201,7600029,,,,,,,2024-01-04,1,,,,,タマヤ,0
818,3490001010665,新規,0,2024-01-04,2024-01-04,株式会社南国ホールディングス,,株式会社,高知県,高岡郡四万十町,古市町９番３号,,39,412,7860007,,,,,,,2024-01-04,1,,,,,ナンゴクホールディングス,0
822,3700150123196,新規,0,2024-01-04,2024-01-04,ＵＮＩＣＯＲＮ　ＩＮＴＥＲＮＡＴＩＯＮＡＬ　ＴＲＡＤＩＮＧ　ＣＯ,,外国会社等,,,,,,,,ＦＬＡＴ／ＲＭ　２６０８　ＢＬＫ　Ｄ　２６／Ｆ　ＰＥＲＦＥＣＴ　ＭＯＵＮＴ　ＧＡＲＤＥＮＳ　ＳＨＡＵＫＥＩＷＡＮ　ＨＫ,,,,,,2024-01-04,1,,,,,ユニコーンイターナシヨナルトレーデイングカンパニー,0
823,3700150123205,新規,0,2024-01-04,2024-01-04,２４８８６４５　ＡＬＢＥＲＴＡ　ＬＴＤ．,,外国会社等,,,,,,,,３４００－３５０　７　ＡＶＥ　ＳＷ　ＣＡＬＧＡＲＹ　ＡＬＢＥＲＴＡ,,,,,,2024-01-04,1,,,,,ツーフオーエイトエイトシツクスフオーフアイヴアルバータリミテツド,0
824,3700150123213,新規,0,2024-01-04,2024-01-04,Ｈｕｎａｎ　ｄｏｕｂｌｅ　ｆｒｅｑｕｅｎｃｙ　ｅｌｅｃｔｒｏｎｉｃ　ｃｏｍｍｅｒｃｅ　Ｃｏ．，ＬＴＤ,,外国会社等,,,,,,,,Ｒｏｏｍ　１３０１３，１３ｔｈ　Ｆｌｏｏｒ，Ｆｉｌｍ　ａｎｄ　Ｔｅｌｅｖｉｓｉｏｎ　Ｉｎｔｅｒｎａｔｉｏｎａｌ　Ｂｕｓｉｎｅｓｓ　Ｃｅｎｔｅｒ　Ｂｕｉｌｄｉｎｇ，Ｓｔｉｉｄｕ　Ｍｉｄｄｌｅ　Ｒｏａｄ，Ｌｅｎｇｓｈｕｉｊｉａｎｇ　Ｓｔｒｅｅｔ，Ｌｅｎｇｓｈｕｉｊｉａｎｇ　Ｃｉｔｙ,,,,,,2024-01-04,1,,,,,フーナンシヨンベイピンデイエンズーシヤンウーヨウシエンゴンスー,0
825,3700150123221,新規,0,2024-01-04,2024-01-04,Ｈｕｎａｎ　Ｋａｉｋｕ　ｅｌｅｃｔｒｏｎｉｃ　Ｃｏｍｍｅｒｃｅ　Ｃｏ．，ＬＴＤ,,外国会社等,,,,,,,,Ｒｏｏｍ　１３１２１，１３ｔｈ　Ｆｌｏｏｒ，Ｆｉｌｍ　ａｎｄ　Ｔｅｌｅｖｉｓｉｏｎ　Ｉｎｔｅｒｎａｔｉｏｎａｌ　Ｂｕｓｉｎｅｓｓ　Ｃｅｎｔｅｒ　Ｂｕｉｌｄｉｎｇ，Ｓｔｉｉｄｕ　Ｍｉｄｄｌｅ　Ｒｏａｄ，Ｌｅｎｇｓｈｕｉｊｉａｎｇ　Ｓｔｒｅｅｔ，Ｌｅｎｇｓｈｕｉｊｉａｎｇ　Ｃｉｔｙ,,,,,,2024-01-04,1,,,,,フーナンシヨンカイジーデイエンズーシヤンウーヨウシエンゴンスー,0
826,3700150123238,新規,0,2024-01-04,2024-01-04,Ａｐｏｌｌｏ　Ｎｏ．１６　Ｌｉｍｉｔｅｄ,,外国会社等,東京都,千代田区,霞が関３丁目２－６東京倶楽部ビルディング６階　ロイズ・ジャパン株式会社内,,13,101,1000013,Ｏｎｅ　Ｌｉｍｅ　Ｓｔｒｅｅｔ，Ｌｏｎｄｏｎ　ＥＣ３Ｍ　７ＨＡ　ＵＫ,,,,,,2024-01-04,1,,,,,アポロナンバーワンシツクスリミテツド,0
827,3700150123246,新規,0,2024-01-04,2024-01-04,Ｈｕｎａｎ　Ｐｒｏｖｉｎｃｅ　Ｓｉｙｉｎｇ　ｅｃｏｍｍｅｒｃｅ　Ｃｏ．，ＬＴＤ,,外国会社等,,,,,,,,Ｒｏｏｍ　１３１６１７，１３ｔｈ　Ｆｌｏｏｒ，Ｆｉｌｍ　ａｎｄ　Ｔｅｌｅｖｉｓｉｏｎ　Ｉｎｔｅｒｎａｔｉｏｎａｌ　Ｂｕｓｉｎｅｓｓ　Ｃｅｎｔｅｒ　Ｂｕｉｌｄｉｎｇ，Ｓｔｉｉｄｕ　Ｍｉｄｄｌｅ　Ｒｏａｄ，Ｌｅｎｇｓｈｕｉｊｉａｎｇ　Ｓｔｒｅｅｔ，Ｌｅｎｇｓｈｕｉｊｉａｎｇ　Ｃｉｔｙ,,,,,,2024-01-04,1,,,,,フーナンシヨンスーインデイエンズーシヤンウーヨウシエンゴンスー,0
834,4010003042571,新規,0,2024-01-04,2024-01-04,合同会社グローススタート,,合同会社,東京都,中央区,銀座１丁目１２－４Ｎ＆ＥＢＬＤ．７階,,13,102,1040061,,,,,,,2024-01-04,1,,,,,グローススタート,0
836,4010005037677,新規,0,2024-01-04,2024-01-04,行政書士法人ハニー事務所,,その他の設立登記法人,東京都,千代田区,外神田２丁目２番３号,,13,101,1010021,,,,,,,2024-01-04,1,,,,,,0
845,4010401179478,新規,0,2024-01-04,2024-01-04,株式会社ＣＯＣＯＬＯ,,株式会社,東京都,港区,三田１丁目３番４０号天翔オフィス麻布十番８０２号,,13,103,1080073,,,,,,,2024-01-04,1,,,,,ココロ,0
846,4010401179494,新規,0,2024-01-04,2024-01-04,株式会社ＧｅａｒＸ,,株式会社,東京都,港区,港南２丁目１６番２号太陽生命品川ビル２８Ｆ,,13,103,1080075,,,,,,,2024-01-04,1,,,,,ギアエックス,0
847,4010401179503,新規,0,2024-01-04,2024-01-04,株式会社ＡＹＮＩＬメディカルアライアンス,,株式会社,東京都,港区,赤坂４丁目１１番２０号１階,,13,103,1070052,,,,,,,2024-01-04,1,,,,,アイニルメディカルアライアンス,0
848,4010401179536,新規,0,2024-01-04,2024-01-04,株式会社Ｃ３ＥＣ‐ＣＲＥＡＴＩＯＮＳ,,株式会社,東京都,港区,東麻布３丁目７番１０号,,13,103,1060044,,,,,,,2024-01-04,1,,,,,シーセッククリエーションズ,0
854,4010603010548,新規,0,2024-01-04,2024-01-04,ＢＺＰ合同会社,,合同会社,東京都,江東区,新大橋１丁目３－１１プライムメゾン森下ＷＥＳＴ４２４号,,13,108,1350007,,,,,,,2024-01-04,1,,,,,ビーゼットピー,0
859,4010901054445,新規,0,2024-01-04,2024-01-04,株式会社ＲＩＳＥ　ＯＮＥ,,株式会社,東京都,世田谷区,中町２丁目１５番５号,,13,112,1580091,,,,,,,2024-01-04,1,,,,,ライズワン,0
860,4010903008696,新規,0,2024-01-04,2024-01-04,合同会社ＰＬＥＴＨＯＲＡ　ＤＥＳＩＧＮ,,合同会社,東京都,世田谷区,弦巻３丁目１２番５号ヴィラ桜３０２,,13,112,1540016,,,,,,,2024-01-04,1,,,,,プレソラデザイン,0
865,4011001159176,新規,0,2024-01-04,2024-01-04,株式会社Ｒｉｔａ,,株式会社,東京都,渋谷区,渋谷２丁目１９番１５－６０９号宮益坂ビルディング,,13,113,1500002,,,,,,,2024-01-04,1,,,,,リタ,0
868,4011003018181,新規,0,2024-01-04,2024-01-04,合同会社まるみ,,合同会社,東京都,目黒区,中央町１丁目９－６－１０２,,13,110,1520001,,,,,,,2024-01-04,1,,,,,マルミ,0
869,4011003018198,新規,0,2024-01-04,2024-01-04,合同会社Ａｓｓｅｍｂｌｅ　Ｅｄｉｔ,,合同会社,東京都,渋谷区,道玄坂１丁目１０番８号渋谷道玄坂東急ビル２Ｆ－Ｃ,,13,113,1500043,,,,,,,2024-01-04,1,,,,,アッセンブルエディット,0
870,4011101105641,新規,0,2024-01-04,2024-01-04,株式会社Ｍｏｍｏウェルビーイング,,株式会社,東京都,新宿区,市谷八幡町１５番６号,,13,104,1620844,,,,,,,2024-01-04,1,,,,,モモウェルビーイング,0
871,4011101105658,新規,0,2024-01-04,2024-01-04,株式会社Ｋプランニング,,株式会社,東京都,新宿区,戸山１丁目１１番８号,,13,104,1620052,,,,,,,2024-01-04,1,,,,,ケープランニング,0
872,4011101105699,新規,0,2024-01-04,2024-01-04,株式会社アクア,,株式会社,東京都,新宿区,歌舞伎町１丁目２４－３浜野産業ビルＢ１Ｆ,,13,104,1600021,,,,,,,2024-01-04,1,,,,,アクア,0
874,4011103013917,新規,0,2024-01-04,2024-01-04,合同会社西浦精機ホールディングス,,合同会社,東京都,新宿区,矢来町１２０番地,,13,104,1620805,,,,,,,2024-01-04,1,,,,,ニシウラセイキホールディングス,0
878,4011501030150,新規,0,2024-01-04,2024-01-04,株式会社錦爍,,株式会社,東京都,荒川区,東日暮里２丁目３番２号,,13,118,1160014,,,,,,,2024-01-04,1,,,,,キンラク,0
879,4011501030159,新規,0,2024-01-04,2024-01-04,株式会社佳音,,株式会社,東京都,北区,中里１丁目２１番２号中里ビル１Ｆ,,13,117,1140015,,,,,,,2024-01-04,1,,,,,カイン,0
884,4012301013717,新規,0,2024-01-04,2024-01-04,株式会社千秋社,,株式会社,東京都,町田市,能ヶ谷５丁目１５番９号,,13,209,1950053,,,,,,,2024-01-04,1,,,,,センシュウシャ,0
885,4012303001918,新規,0,2024-01-04,2024-01-04,ＨｏｏｄＷｏｒｋｓＣｏｎｎｅｃｔｉｏｎ合同会社,,合同会社,東京都,町田市,中町４丁目１３番３号,,13,209,1940021,,,,,,,2024-01-04,1,,,,,,0
890,4013301051847,新規,0,2024-01-04,2024-01-04,株式会社Ｔｒｕｓｔｅｄ　Ａｇｅｎｔ,,株式会社,東京都,豊島区,東池袋３丁目１５番１４号,,13,116,1700013,,,,,,,2024-01-04,1,,,,,トラスティッドエージェント,0
908,4021001081115,新規,0,2024-01-04,2024-01-04,株式会社ライテックス,,株式会社,神奈川県,藤沢市,藤が岡２丁目７番１９号,,14,205,2510004,,,,,,,2024-01-04,1,,,,,ライテックス,0
909,4021001081131,新規,0,2024-01-04,2024-01-04,株式会社ｍｏｔｈｅｒｌｙ,,株式会社,神奈川県,横須賀市,久里浜２丁目２５番９－１０１号,,14,201,2390831,,,,,,,2024-01-04,1,,,,,マザリー,0
912,4021003013966,新規,0,2024-01-04,2024-01-04,合同会社Ｖｉｌｌａｇｅ　Ｒｏｏｆｅｒ,,合同会社,神奈川県,綾瀬市,深谷中１丁目１５番１５号,,14,218,2521107,,,,,,,2024-01-04,1,,,,,ビレッジルーファー,0
913,4021003013974,新規,0,2024-01-04,2024-01-04,合同会社ハチマル企画,,合同会社,神奈川県,三浦郡葉山町,一色１１０４番地の７,,14,301,2400111,,,,,,,2024-01-04,1,,,,,ハチマルキカク,0
919,4040001131530,新規,0,2024-01-04,2024-01-04,キーンカルチャー株式会社,,株式会社,千葉県,佐倉市,宮前３丁目２２番地４、２１６号室,,12,212,2850005,,,,,,,2024-01-04,1,,,,,キーンカルチャー,0
920,4040001131539,新規,0,2024-01-04,2024-01-04,株式会社グランディール,,株式会社,千葉県,市川市,八幡３丁目２３番５号カーサ・ビンタラ本八幡２階,,12,203,2720021,,,,,,,2024-01-04,1,,,,,グランディール,0
921,4040001131547,新規,0,2024-01-04,2024-01-04,株式会社ＬＥＣＯＴ,,株式会社,千葉県,長生郡長南町,千田１３４１番地６,,12,427,2970115,,,,,,,2024-01-04,1,,,,,レコット,0
922,4040001131563,新規,0,2024-01-04,2024-01-04,ＨＯＵＳＥ市場株式会社,,株式会社,千葉県,市原市,五井西４丁目２番地２,,12,219,2900038,,,,,,,2024-01-04,1,,,,,ハウスシジョウ,0
925,4040003024014,新規,0,2024-01-04,2024-01-04,合同会社ＳＡＣＨＩ,,合同会社,千葉県,我孫子市,中峠台３２番地３カトレヤ中峠２０２号,,12,222,2701128,,,,,,,2024-01-04,1,,,,,サチ,0
930,4050001054045,新規,0,2024-01-04,2024-01-04,株式会社リソシア,,株式会社,茨城県,古河市,東１丁目６番１号,,08,204,3060011,,,,,,,2024-01-04,1,,,,,リソシア,0
931,4050003008040,新規,0,2024-01-04,2024-01-04,合同会社美ｗｏｒｋｓ,,合同会社,茨城県,那珂市,菅谷１９４１番地２４０,,08,226,3110105,,,,,,,2024-01-04,1,,,,,ハルワークス,0
932,4060001036678,新規,0,2024-01-04,2024-01-04,株式会社中川商店,,株式会社,栃木県,真岡市,荒町４丁目９番地５,,09,209,3214305,,,,,,,2024-01-04,1,,,,,ナカガワショウテン,0
952,4120001260882,新規,0,2024-01-04,2024-01-04,嘉運通商株式会社,,株式会社,大阪府,大阪市浪速区,日本橋東３丁目７番２５－６０２号,,27,111,5560006,,,,,,,2024-01-04,1,,,,,カウンツウショウ,0
953,4120001261006,新規,0,2024-01-04,2024-01-04,株式会社アイルビー,,株式会社,大阪府,大阪市住吉区,帝塚山東３丁目７番９号,,27,120,5580054,,,,,,,2024-01-04,1,,,,,アイルビー,0
954,4120001261014,新規,0,2024-01-04,2024-01-04,図図株式会社,,株式会社,大阪府,大阪市都島区,中野町４丁目３番６号Ｈ２Ｈ大阪桜之宮邸２Ａ－１,,27,102,5340027,,,,,,,2024-01-04,1,,,,,ズズ,0
955,4120001261071,新規,0,2024-01-04,2024-01-04,株式会社マンションパートナーズ,,株式会社,大阪府,大阪市西区,西本町１丁目２番１４号,,27,106,5500005,,,,,,,2024-01-04,1,,,,,マンションパートナーズ,0
956,4120003025615,新規,0,2024-01-04,2024-01-04,ワイエヌコーポレーション合同会社,,合同会社,大阪府,大阪市中央区,北浜３丁目２番２５号京阪淀屋橋ビル９Ｆ,,27,128,5410041,,,,,,,2024-01-04,1,,,,,ワイエヌコーポレーション,0
961,4120901048576,新規,0,2024-01-04,2024-01-04,株式会社琴真,,株式会社,大阪府,吹田市,五月が丘東２番Ｃ－５０２号,,27,205,5650831,,,,,,,2024-01-04,1,,,,,コトシン,0
963,4122001037699,新規,0,2024-01-04,2024-01-04,株式会社Ｈａｎｄｓ　Ｏｎ,,株式会社,大阪府,柏原市,上市４丁目２番４－１１３号ライオンズ柏原駅前クラウンスクエア,,27,221,5820007,,,,,,,2024-01-04,1,,,,,ハンズオン,0
970,4130001076048,新規,0,2024-01-04,2024-01-04,株式会社湊創建,,株式会社,京都府,城陽市,久世荒内１３０番地５,,26,207,6100102,,,,,,,2024-01-04,1,,,,,ミナトソウケン,0
971,4130001076056,新規,0,2024-01-04,2024-01-04,大同株式会社,,株式会社,京都府,京都市上京区,葭屋町通出水上る亀屋町３２７番地シャトレーヌ葭屋２０２号室,,26,102,6028119,,,,,,,2024-01-04,1,,,,,ダイドウ,0
979,4140001132865,新規,0,2024-01-04,2024-01-04,株式会社スタートアップ,,株式会社,兵庫県,西宮市,城ケ堀町６－１１－２Ｆ,,28,204,6620856,,,,,,,2024-01-04,1,,,,,,0
980,4140001132873,新規,0,2024-01-04,2024-01-04,株式会社Ｋ８,,株式会社,兵庫県,西宮市,甲子園六石町１番５号,,28,204,6638164,,,,,,,2024-01-04,1,,,,,ケイエイト,0
989,4180001159558,新規,0,2024-01-04,2024-01-04,株式会社Ｂｌｏｏｍ　Ｗｏｒｌｄ,,株式会社,愛知県,名古屋市千種区,千代が丘１番１０３－１１０１号,,23,101,4640005,,,,,,,2024-01-04,1,,,,,ブルームワールド,0
992,4180305009541,新規,0,2024-01-04,2024-01-04,医療法人仁愛会,,その他の設立登記法人,愛知県,岡崎市,矢作町字北河原１０,,23,202,4440943,,,,,,,2024-01-04,1,,,,,ジンアイカイ,0
993,4200001042026,新規,0,2024-01-04,2024-01-04,ＬＩＴＴＬＥ　ＡＲＴＩＳＴ株式会社,,株式会社,岐阜県,大垣市,林町５丁目１８番地光和ビル３Ｆ,,21,202,5030015,,,,,,,2024-01-04,1,,,,,リトルアーティスト,0
1008,4290001104206,新規,0,2024-01-04,2024-01-04,株式会社ＡＲＡＳＨＩ,,株式会社,福岡県,福岡市早良区,西新３丁目２番３号レインボープラザ高橋５Ｆ,,40,137,8140002,,,,,,,2024-01-04,1,,,,,アラシ,0
1017,4310001018774,新規,0,2024-01-04,2024-01-04,株式会社なつめ,,株式会社,長崎県,長崎市,葉山１丁目３番１３号,,42,201,8528053,,,,,,,2024-01-04,1,,,,,,0
1018,4330001031610,新規,0,2024-01-04,2024-01-04,株式会社アイアムアイ,,株式会社,熊本県,熊本市中央区,坪井２丁目４番３号,,43,101,8600863,,,,,,,2024-01-04,1,,,,,アイアムアイ,0
1019,4330001031619,新規,0,2024-01-04,2024-01-04,株式会社Ｋ‐ＯＮ　ＥＮＴＥＲＴＡＩＮＭＥＮＴ,,株式会社,熊本県,熊本市東区,若葉３丁目６番１号コラージュ福山２０５,,43,102,8620903,,,,,,,2024-01-04,1,,,,,ケイオンエンターテインメント,0
1022,4340003004340,新規,0,2024-01-04,2024-01-04,太海産業合同会社,,合同会社,鹿児島県,鹿児島郡十島村,大字宝島７１,,46,304,8915301,,,,,,,2024-01-04,1,,,,,タイカイサンギョウ,0
1024,4360003013587,新規,0,2024-01-04,2024-01-04,合同会社ｔｒｉｐｏｋｉｎａｗａ,,合同会社,沖縄県,国頭郡恩納村,字恩納６１３１番地クレアシオン２０２号,,47,311,9040411,,,,,,,2024-01-04,1,,,,,トリップオキナワ,0
1028,4380001034220,新規,0,2024-01-04,2024-01-04,シャインコースト株式会社,,株式会社,福島県,双葉郡浪江町,大字幾世橋字芋頭３３番地１,,07,547,9791513,,,,,,,2024-01-04,1,,,,,シャインコースト,0
1040,4430001090729,新規,0,2024-01-04,2024-01-04,株式会社楽ＳＩＭＯ,,株式会社,北海道,小樽市,幸２丁目１６番４４号,,01,203,0470037,,,,,,,2024-01-04,1,,,,,タノシモ,0
1041,4430001090753,新規,0,2024-01-04,2024-01-04,オリーブシステムズ株式会社,,株式会社,北海道,札幌市中央区,大通西６丁目５番地４,,01,101,0600042,,,,,,,2024-01-04,1,,,,,オリーブシステムズ,0
1042,4430001090761,新規,0,2024-01-04,2024-01-04,株式会社ＡＳＥ,,株式会社,北海道,札幌市中央区,北一条西１０丁目１番１７号,,01,101,0600001,,,,,,,2024-01-04,1,,,,,エース,0
1043,4430001090778,新規,0,2024-01-04,2024-01-04,ＳＵＰＥＬＩＯＲＥ株式会社,,株式会社,北海道,札幌市北区,新琴似町９９８番地１４,,01,102,0010915,,,,,,,2024-01-04,1,,,,,スペリオーレ,0
1044,4430003015816,新規,0,2024-01-04,2024-01-04,合同会社プレジデント札幌,,合同会社,北海道,札幌市中央区,大通東２丁目８番５号プレジデント札幌ビル７０５,,01,101,0600041,,,,,,,2024-01-04,1,,,,,プレジデントサッポロ,0
1049,4700150123195,新規,0,2024-01-04,2024-01-04,Ｇｕａｎｇ　Ｚｈｏｕ　Ｊｉ　Ｆｅｉ　Ｈｕ　Ｗａｉ　Ｚｈｕａｎｇ　Ｂｅｉ　Ｙｏｕ　Ｘｉａｎ　Ｇｏｎｇ　Ｓｉ,,外国会社等,,,,,,,,Ｌｉ　Ｗａｎ　Ｑｕ，Ｒｏｎｇ　Ｘｉｎｇ　Ｌｕ，５　Ｈａｏ　Ｚｉ　Ｂｉａｎ　９０１　Ｆａｎｇ　Ｇｕａｎｇ　Ｚｈｏｕ　Ｇｕａｎｇ　Ｄｏｎｇ,,,,,,2024-01-04,1,,,,,コウシユウジフエイアウトドアヨウヒンカンパニリミテツド,0
1050,4700150123204,新規,0,2024-01-04,2024-01-04,ＣＯＢＳｎｏｗｂｉｒｄＰｒｏｐｅｒｔｉｅｓＬｉｍｉｔｅｄ,,外国会社等,,,,,,,,Ｐ．Ｏ．Ｂｏｘ　９５７，Ｏｆｆｓｈｏｒｅ　Ｉｎｃｏｒｐｏｒａｔｉｏｎｓ　Ｃｅｎｔｒｅ，Ｒｏａｄ　Ｔｏｗｎ，Ｔｏｒｔｏｌａ，Ｂｒｉｔｉｓｈ　Ｖｉｒｇｉｎ　Ｉｓｌａｎｄｓ,,,,,,2024-01-04,1,,,,,シーオービースノーバードプロパテイズ,0
1051,4700150123212,新規,0,2024-01-04,2024-01-04,Ｙｉｗｕ　Ｊｉａｈａｏ　Ｅｌｅｃｔｒｏｎｉｃ　Ｃｏｍｍｅｒｃｅ　Ｃｏ．，Ｌｔｄ．,,外国会社等,,,,,,,,Ｒｏｏｍ　３１２，Ｕｎｉｔ　１，Ｂｕｉｌｄｉｎｇ　６５，Ｈｅ　Ｍａ　Ｃｈｅ　Ｃｏｍｍｕｎｉｔｙ　Ｂｅｉｙｕａｎ　Ｓｔｒｅｅｔ，Ｙｉｗｕ　Ｃｉｔｙ　Ｊｉｎｈｕａ　Ｃｉｔｙ　Ｚｈｅｊｉａｎｇ　Ｐｒｏｖｉｎｃｅ,,,,,,2024-01-04,1,,,,,イーウーシージヤーハオデイエンズーシヤンウーヨウシエンゴンスー,0
1052,4700150123220,新規,0,2024-01-04,2024-01-04,Ｈｕｎａｎ　Ｓｈｕｎｔｏｎ　ｅｃｏｍｍｅｒｃｅ　Ｃｏ．，ＬＴＤ,,外国会社等,,,,,,,,Ｒｏｏｍ　１３０１７，１３ｔｈ　Ｆｌｏｏｒ，Ｆｉｌｍ　ａｎｄ　Ｔｅｌｅｖｉｓｉｏｎ　Ｉｎｔｅｒｎａｔｉｏｎａｌ　Ｂｕｓｉｎｅｓｓ　Ｃｅｎｔｅｒ　Ｂｕｉｌｄｉｎｇ，Ｓｔｉｉｄｕ　Ｍｉｄｄｌｅ　Ｒｏａｄ，Ｌｅｎｇｓｈｕｉｊｉａｎｇ　Ｓｔｒｅｅｔ，Ｌｅｎｇｓｈｕｉｊｉａｎｇ　Ｃｉｔｙ,,,,,,2024-01-04,1,,,,,フーナンシヨンシユンドウンデイエンズーシヤンウーヨウシエンゴンスー,0
1053,4700150123229,新規,0,2024-01-04,2024-01-04,Ｎａｍｅｃｏ（Ｎｏ．１３７３）Ｌｉｍｉｔｅｄ,,外国会社等,東京都,千代田区,霞が関３丁目２－６東京倶楽部ビルディング６階　ロイズ・ジャパン株式会社内,,13,101,1000013,Ｏｎｅ　Ｌｉｍｅ　Ｓｔｒｅｅｔ，Ｌｏｎｄｏｎ　ＥＣ３Ｍ　７ＨＡ　ＵＫ,,,,,,2024-01-04,1,,,,,ネームコナンバーワンスリーセブンスリーリミテツド,0
1054,4700150123237,新規,0,2024-01-04,2024-01-04,Ｎａｍｅｃｏ（Ｎｏ．１３７４）Ｌｉｍｉｔｅｄ,,外国会社等,東京都,千代田区,霞が関３丁目２－６東京倶楽部ビルディング６階　ロイズ・ジャパン株式会社内,,13,101,1000013,Ｏｎｅ　Ｌｉｍｅ　Ｓｔｒｅｅｔ，Ｌｏｎｄｏｎ　ＥＣ３Ｍ　７ＨＡ　ＵＫ,,,,,,2024-01-04,1,,,,,ネームコナンバーワンスリーセブンフオーリミテツド,0
1055,4700150123245,新規,0,2024-01-04,2024-01-04,Ｈｕｎａｎ　Ｓｉｗａｎｇ　ｅｌｅｃｔｒｏｎｉｃ　Ｔｅｃｈｎｏｌｏｇｙ　Ｃｏ．，ＬＴＤ,,外国会社等,,,,,,,,Ｎｏ．０２０，ｔｈｅ　ｔｈｉｒｄ　ｖｉｌｌａｇｅｒ　Ｇｒｏｕｐ，Ｓｈｉｙａｎ　Ｖｉｌｌａｇｅ，Ｗｅｎｔｉａｎ　Ｔｏｗｎ，Ｘｉｎｈｕａ　Ｃｏｕｎｔｙ，Ｌｏｕｄｉ　Ｃｉｔｙ，Ｈｕｎａｎ　Ｐｒｏｖｉｎｃｅ,,,,,,2024-01-04,1,,,,,フーナンシヨンスーワンデイエンズーコージーヨウシエンゴンスー,0
1063,5010001241174,新規,0,2024-01-04,2024-01-04,株式会社楽楽,,株式会社,東京都,中央区,築地１丁目７番１０号築地ＡＢＬビル６Ｆ,,13,102,1040045,,,,,,,2024-01-04,1,,,,,ララ,0
1064,5010001241182,新規,0,2024-01-04,2024-01-04,株式会社セーブブレーカー,,株式会社,東京都,千代田区,内神田３丁目１８番２号,,13,101,1010047,,,,,,,2024-01-04,1,,,,,セーブブレーカー,0
1067,5010005037684,新規,0,2024-01-04,2024-01-04,一般社団法人ＴＳＫａｉｇｉ　Ａｓｓｏｃｉａｔｉｏｎ,,その他の設立登記法人,東京都,中央区,東日本橋２丁目４番１０－７０１号,,13,102,1030004,,,,,,,2024-01-04,1,,,,,ティーエスカイギアソシエーション,0
1068,5010005037701,新規,0,2024-01-04,2024-01-04,一般社団法人ヴェルデ,,その他の設立登記法人,東京都,千代田区,丸の内３丁目１番１号東京共同会計事務所内,,13,101,1000005,,,,,,,2024-01-04,1,,,,,ヴェルデ,0
1069,5010101015949,新規,0,2024-01-04,2024-01-04,株式会社エムアールディー,,株式会社,東京都,八王子市,片倉町２１０１番地１,,13,201,1920914,,,,,,,2024-01-04,1,,,,,エムアールディー,0
1076,5010401179493,新規,0,2024-01-04,2024-01-04,株式会社ＴＹＭＨ,,株式会社,東京都,港区,高輪２丁目１５番３４－６０９号,,13,103,1080074,,,,,,,2024-01-04,1,,,,,ティーワイエムエイチ,0
1077,5010401179510,新規,0,2024-01-04,2024-01-04,株式会社Ｏｎｅ　ｆａｍ,,株式会社,東京都,港区,西新橋３丁目１７番７－２４０４号,,13,103,1050003,,,,,,,2024-01-04,1,,,,,ワンファム,0
1078,5010401179519,新規,0,2024-01-04,2024-01-04,携帯プリンタ日本株式会社,,株式会社,東京都,港区,白金台２丁目１８番９号,,13,103,1080071,,,,,,,2024-01-04,1,,,,,ケイタイプリンタニホン,0
1079,5010401179527,新規,0,2024-01-04,2024-01-04,ＧＲＩ６３株式会社,,株式会社,東京都,港区,虎ノ門１丁目１６番１１号,,13,103,1050001,,,,,,,2024-01-04,1,,,,,ジーアールアイロクジュウサン,0
1088,5010601064413,新規,0,2024-01-04,2024-01-04,株式会社ＮＳＨＤ,,株式会社,東京都,江東区,佐賀２丁目４番１号,,13,108,1350031,,,,,,,2024-01-04,1,,,,,エヌエスエイチディ,0
1089,5010703007006,新規,0,2024-01-04,2024-01-04,ＭＡＨＩＲＯＹ合同会社,,合同会社,東京都,品川区,豊町１丁目１－３,,13,109,1420042,,,,,,,2024-01-04,1,,,,,マヒロイ,0
1091,5010805003084,新規,0,2024-01-04,2024-01-04,一般社団法人東京青果健康増進社団,,その他の設立登記法人,東京都,大田区,東海３丁目２番１号,,13,111,1430001,,,,,,,2024-01-04,1,,,,,トウキョウセイカケンコウゾウシンシャダン,0
1093,5010901054477,新規,0,2024-01-04,2024-01-04,株式会社ライズエイト,,株式会社,東京都,世田谷区,上馬１丁目１５番１８号４０４号室,,13,112,1540011,,,,,,,2024-01-04,1,,,,,ライズエイト,0
1094,5010903008695,新規,0,2024-01-04,2024-01-04,合同会社エイチ,,合同会社,東京都,世田谷区,弦巻３丁目１２番５号ヴィラ桜３０２,,13,112,1540016,,,,,,,2024-01-04,1,,,,,エイチ,0
1100,5011003018057,新規,0,2024-01-04,2024-01-04,合同会社ミニ２,,合同会社,東京都,渋谷区,神泉町１２－５ジェイパーク渋谷神泉７０１,,13,113,1500045,,,,,,,2024-01-04,1,,,,,ミニツー,0
1101,5011003018172,新規,0,2024-01-04,2024-01-04,合同会社Ｈｏｎｕ,,合同会社,東京都,渋谷区,恵比寿１丁目２４番１４号,,13,113,1500013,,,,,,,2024-01-04,1,,,,,ホヌ,0
1102,5011003018197,新規,0,2024-01-04,2024-01-04,合同会社ｕｎｉｑｕｅ,,合同会社,東京都,渋谷区,道玄坂１丁目１０番８号渋谷道玄坂東急ビル２Ｆ－Ｃ,,13,113,1500043,,,,,,,2024-01-04,1,,,,,ユニーク,0
1103,5011005010326,新規,0,2024-01-04,2024-01-04,一般社団法人ＷＡＪＯＹ日本工芸の国際普及協会,,その他の設立登記法人,東京都,目黒区,東山３丁目５番２号田中興産ビル３階,,13,110,1530043,,,,,,,2024-01-04,1,,,,,ワジョイニホンコウゲイノコクサイフキュウキョウカイ,0
1108,5011103013916,新規,0,2024-01-04,2024-01-04,合同会社Ｐｅｒｆｏｒｍａｇｅ,,合同会社,東京都,新宿区,西新宿３丁目３番１３号西新宿水間ビル６階,,13,104,1600023,,,,,,,2024-01-04,1,,,,,パフォマージュ,0
1115,5011501030166,新規,0,2024-01-04,2024-01-04,Ｈｉｌｌｐｏｉｎｔ株式会社,,株式会社,東京都,北区,東田端２丁目９番１７号三協マンション２０５室,,13,117,1140013,,,,,,,2024-01-04,1,,,,,ヒルポイント,0
1116,5011601027418,新規,0,2024-01-04,2024-01-04,株式会社ａｒｕｇａｍａｍａ,,株式会社,東京都,練馬区,大泉学園町２丁目１番１５号大栄ビル１０３,,13,120,1780061,,,,,,,2024-01-04,1,,,,,アルガママ,0
1120,5012301013716,新規,0,2024-01-04,2024-01-04,株式会社ラフストーンズ,,株式会社,東京都,町田市,能ヶ谷１丁目７番１号ダイヤモンドビル４階,,13,209,1950053,,,,,,,2024-01-04,1,,,,,ラフストーンズ,0
1121,5012401041377,新規,0,2024-01-04,2024-01-04,株式会社トレゾール．ｃｏｍ,,株式会社,東京都,調布市,染地２丁目３２番地２０ミオカステーロ調布緑地公園５０８,,13,208,1820023,,,,,,,2024-01-04,1,,,,,トレゾールドットコム,0
1122,5012403006345,新規,0,2024-01-04,2024-01-04,合同会社Ｏｔｔｏ,,合同会社,東京都,府中市,府中町１丁目２８番地の８Ｐｉｎｏさくら通り０２０２,,13,206,1830055,,,,,,,2024-01-04,1,,,,,オット,0
1129,5013301051846,新規,0,2024-01-04,2024-01-04,Ｔｈｒｅｅ　Ｓｔｏｎｅｓｏｆｔ　Ｊａｐａｎ株式会社,,株式会社,東京都,豊島区,南大塚１丁目６０番２０号Ｓ７０３号室,,13,116,1700005,,,,,,,2024-01-04,1,,,,,スリーストーンソフトジャパン,0
1130,5013301051854,新規,0,2024-01-04,2024-01-04,アバライフ株式会社,,株式会社,東京都,豊島区,南大塚３丁目５０番８号,,13,116,1700005,,,,,,,2024-01-04,1,,,,,アバライフ,0
1138,5020001155118,新規,0,2024-01-04,2024-01-04,株式会社Ｄ‐ＭＯＢ,,株式会社,神奈川県,川崎市高津区,千年３０１番地１グランドコスモ千歳５０２,,14,134,2130022,,,,,,,2024-01-04,1,,,,,ディーモブ,0
1139,5020001155134,新規,0,2024-01-04,2024-01-04,株式会社絆助,,株式会社,神奈川県,川崎市川崎区,本町１丁目３－４ウィングテラス京急川崎９０４号室,,14,131,2100001,,,,,,,2024-01-04,1,,,,,バンスケ,0
1143,5021001081114,新規,0,2024-01-04,2024-01-04,株式会社アイストリーク,,株式会社,神奈川県,海老名市,中新田４丁目６番２０号,,14,215,2430422,,,,,,,2024-01-04,1,,,,,アイストリーク,0
1144,5021001081122,新規,0,2024-01-04,2024-01-04,ＲＴＣホールディングス株式会社,,株式会社,神奈川県,茅ヶ崎市,小桜町３番２５号,,14,207,2530016,,,,,,,2024-01-04,1,,,,,アールティーシーホールディングス,0
1145,5021001081130,新規,0,2024-01-04,2024-01-04,早川興業株式会社,,株式会社,神奈川県,相模原市中央区,上溝５丁目９番１号ハッピーリバー上溝４０２,,14,152,2520243,,,,,,,2024-01-04,1,,,,,ハヤカワコウギョウ,0
1146,5021001081139,新規,0,2024-01-04,2024-01-04,株式会社Ｔ‐ＧＲＯＵＰ,,株式会社,神奈川県,横須賀市,津久井１丁目１７番１６号,,14,201,2390843,,,,,,,2024-01-04,1,,,,,ティーグループ,0
1147,5021001081155,新規,0,2024-01-04,2024-01-04,株式会社湘南工業,,株式会社,神奈川県,高座郡寒川町,一之宮８丁目１５番２０号,,14,321,2530111,,,,,,,2024-01-04,1,,,,,ショウナンコウギョウ,0
1174,5050001054036,新規,0,2024-01-04,2024-01-04,ラウンドファーム株式会社,,株式会社,茨城県,筑西市,茂田１１８３番地３,,08,227,3080811,,,,,,,2024-01-04,1,,,,,ラウンドファーム,0
1175,5050001054044,新規,0,2024-01-04,2024-01-04,株式会社一蘭工業,,株式会社,茨城県,東茨城郡城里町,大字石塚６２９番地の２０,,08,310,3114303,,,,,,,2024-01-04,1,,,,,イチランコウギョウ,0
1176,5050001054069,新規,0,2024-01-04,2024-01-04,ＳＴＡＹ　ＨＩＧＨ株式会社,,株式会社,茨城県,ひたちなか市,表町３番６号,,08,221,3120047,,,,,,,2024-01-04,1,,,,,ステイハイ,0
1179,5060001036685,新規,0,2024-01-04,2024-01-04,株式会社義縁,,株式会社,栃木県,宇都宮市,東塙田２丁目２番１７号塙田テナント１－Ｓ,,09,201,3200021,,,,,,,2024-01-04,1,,,,,ヨシエン,0
1192,5110001038073,新規,0,2024-01-04,2024-01-04,株式会社エラヒＰＨジャパン,,株式会社,新潟県,長岡市,与板町本与板２１９３番地,,15,202,9402403,,,,,,,2024-01-04,1,,,,,エラヒピーエイチジャパン,0
1195,5120001260989,新規,0,2024-01-04,2024-01-04,未来株式会社,,株式会社,大阪府,大阪市西淀川区,姫島２丁目４番１０号パークアベニュー２階Ａ室,,27,113,5550033,,,,,,,2024-01-04,1,,,,,ミライ,0
1196,5120001261013,新規,0,2024-01-04,2024-01-04,Ｒｏｙａｌ　Ｌｉｎｋ株式会社,,株式会社,大阪府,大阪市東成区,深江北３丁目４番２１号エクラ深江橋１１０Ｂ,,27,115,5370001,,,,,,,2024-01-04,1,,,,,ロイヤルリンク,0
1197,5120001261046,新規,0,2024-01-04,2024-01-04,株式会社寿ことぶき,,株式会社,大阪府,大阪市生野区,小路東２丁目１３番１６号,,27,116,5440003,,,,,,,2024-01-04,1,,,,,ジュコトブキ,0
1198,5120001261054,新規,0,2024-01-04,2024-01-04,ＡＧＳホールディングス株式会社,,株式会社,大阪府,大阪市西区,靱本町２丁目６番１８号,,27,106,5500004,,,,,,,2024-01-04,1,,,,,エージーエスホールディングス,0
1199,5120001261062,新規,0,2024-01-04,2024-01-04,株式会社ＤＣ,,株式会社,大阪府,大阪市天王寺区,筆ケ崎町５－５２－２０６,,27,109,5430027,,,,,,,2024-01-04,1,,,,,ディーシー,0
1200,5120001261095,新規,0,2024-01-04,2024-01-04,株式会社ＡＴＴ　ＧＲＯＵＰ,,株式会社,大阪府,大阪市北区,中之島４丁目２番２８号,,27,127,5300005,,,,,,,2024-01-04,1,,,,,エーティーティーグループ,0
1201,5120001261161,新規,0,2024-01-04,2024-01-04,株式会社スピネル,,株式会社,大阪府,大阪市北区,曾根崎新地１丁目１１番１９号北新地スタービル９階９００号室,,27,127,5300002,,,,,,,2024-01-04,1,,,,,スピネル,0
1205,5120003025614,新規,0,2024-01-04,2024-01-04,ＧＥ合同会社,,合同会社,大阪府,大阪市西成区,鶴見橋１丁目４番３号ＦＤＳＬｉｂｅｒｔａ３０６号,,27,122,5570031,,,,,,,2024-01-04,1,,,,,ジーイー,0
1206,5120005024069,新規,0,2024-01-04,2024-01-04,司法書士法人押村事務所,,その他の設立登記法人,大阪府,大阪市西区,京町堀１丁目１２番１０号ＲＯ京町堀ビル７階,,27,106,5500003,,,,,,,2024-01-04,1,,,,,オシムラジムショ,0
1208,5120901048559,新規,0,2024-01-04,2024-01-04,ＮａｔｕｒｅＣｕｏｒｅ株式会社,,株式会社,大阪府,豊中市,庄内幸町３丁目１２番２２号１０３号,,27,203,5610833,,,,,,,2024-01-04,1,,,,,ナチュラクオーレ,0
1217,5130001076022,新規,0,2024-01-04,2024-01-04,ＥＮＣ株式会社,,株式会社,京都府,京都市西京区,山田平尾町４３番地１ダイアパレスロイヤル京都桂２０２,,26,111,6158256,,,,,,,2024-01-04,1,,,,,イーエヌシー,0
1218,5130001076055,新規,0,2024-01-04,2024-01-04,株式会社Ｈ．Ｃ．Ｌ,,株式会社,京都府,京都市南区,吉祥院定成町３２番地の１コスモ西大路４０１号,,26,107,6018322,,,,,,,2024-01-04,1,,,,,エイチシーエル,0
1227,5140005026880,新規,0,2024-01-04,2024-01-04,一般社団法人丸阿マネジメント,,その他の設立登記法人,兵庫県,尼崎市,東難波町３丁目５番２５号,,28,202,6600892,,,,,,,2024-01-04,1,,,,,マルアマネジメント,0
1235,5180001159516,新規,0,2024-01-04,2024-01-04,株式会社アクセスホームズ,,株式会社,愛知県,知多郡武豊町,字中狭８３－１,,23,447,4702315,,,,,,,2024-01-04,1,,,,,アクセスホームズ,0
1239,5180003026169,新規,0,2024-01-04,2024-01-04,合同会社ＯＬＩＶＥＩＲＡ,,合同会社,愛知県,名古屋市中区,栄１丁目１３番２４号,,23,106,4600008,,,,,,,2024-01-04,1,,,,,オリヴェイラ,0
1240,5180003026177,新規,0,2024-01-04,2024-01-04,合同会社マッキーマジック,,合同会社,愛知県,名古屋市南区,寺崎町１２番６号,,23,112,4570013,,,,,,,2024-01-04,1,,,,,マッキーマジック,0
1248,5190001030989,新規,0,2024-01-04,2024-01-04,株式会社ＡＭ‐１,,株式会社,三重県,伊勢市,有滝町２７４４番地,,24,203,5150501,,,,,,,2024-01-04,1,,,,,エーエムワン,0
1256,5220003003650,新規,0,2024-01-04,2024-01-04,金沢ドローンサービス合同会社,,合同会社,石川県,金沢市,田上の里１丁目１９６番地２,,17,201,9201156,,,,,,,2024-01-04,1,,,,,カナザワドローンサービス,0
1262,5250001020455,新規,0,2024-01-04,2024-01-04,株式会社やまぐち工務店,,株式会社,山口県,防府市,大字台道４０６２番地,,35,206,7471232,,,,,,,2024-01-04,1,,,,,ヤマグチコウムテン,0
1266,5280001009090,新規,0,2024-01-04,2024-01-04,ＳＬＣホールディングス株式会社,,株式会社,島根県,出雲市,白枝町１３９番地,,32,203,6930006,,,,,,,2024-01-04,1,,,,,エスエルシーホールディングス,0
1271,5290001104238,新規,0,2024-01-04,2024-01-04,株式会社ＬＩＭ　ＧＲＯＵＰ,,株式会社,福岡県,福岡市東区,箱崎１丁目３３番１２－１３０２号,,40,131,8120053,,,,,,,2024-01-04,1,,,,,リムグループ,0
1281,5290003014732,新規,0,2024-01-04,2024-01-04,合同会社レグルス,,合同会社,福岡県,久留米市,南薫西町１９５７－２,,40,203,8300006,,,,,,,2024-01-04,1,,,,,レグルス,0
1282,5290003014815,新規,0,2024-01-04,2024-01-04,ラックリップル合同会社,,合同会社,福岡県,福岡市南区,高宮２丁目１５番８号,,40,134,8150083,,,,,,,2024-01-04,1,,,,,ラックリップル,0
1291,5340001026187,新規,0,2024-01-04,2024-01-04,西橋産業株式会社,,株式会社,鹿児島県,熊毛郡屋久島町,平内３８番地１,,46,505,8914406,,,,,,,2024-01-04,1,,,,,ニシバシサンギョウ,0
1297,5400001016504,新規,0,2024-01-04,2024-01-04,株式会社月の光,,株式会社,岩手県,西磐井郡平泉町,長島字赤伏８番地,,03,402,0294101,,,,,,,2024-01-04,1,,,,,ツキノヒカリ,0
1301,5430001090760,新規,0,2024-01-04,2024-01-04,株式会社カトレア,,株式会社,北海道,伊達市,弄月町５５番地２３,,01,233,0520013,,,,,,,2024-01-04,1,,,,,カトレア,0
1304,5480003002065,新規,0,2024-01-04,2024-01-04,合同会社キミノ・チエブクロ,,合同会社,徳島県,阿南市,長生町恋田９番地１,,36,204,7740046,,,,,,,2024-01-04,1,,,,,キミノチエブクロ,0
1305,5700150123194,新規,0,2024-01-04,2024-01-04,ハンワンユージー（ホンコン）テクノロジーカンパニーリミテッド,,外国会社等,,,,,,,,ＦＬＡＴ／ＲＭ　１８５　Ｇ／Ｆ　ＨＡＮＧ　ＷＡＩ　ＩＮＤ　ＣＥＮＴＲＥ　ＮＯ．６　ＫＩＮ　ＴＡＩ　ＳＴ　ＴＵＥＮ　ＭＵＮ　Ｎ．Ｔ　ＨＫ,,,,,,2024-01-04,1,,,,,ハンワンユージーホンコンテクノロジーカンパニーリミテツド,0
1306,5700150123203,新規,0,2024-01-04,2024-01-04,ＭｉｃｈａｅｌＶａｎｄｅｒｆｉｅｌｄ＆Ａｓｓｏｃｉａｔｅｓ,,外国会社等,,,,,,,,ニューサウスウェールズ州シドニー　クイーンズクリッフパビリオン通り２Ｂ,,,,,,2024-01-04,1,,,,,マイケルバンダーフイールドアンドアソシエイツ,0
1307,5700150123211,新規,0,2024-01-04,2024-01-04,ＭＤＦ　ＩＮＳＴＲＵＭＥＮＴＳ　ＵＳＡ　ＬＬＣ,,外国会社等,,,,,,,,４０３　ｄｅｌ　Ｐａｒｑｕｅ　Ｓｔ　Ｆｌｏｏｒ　１５，ＳＡＮ　ＪＵＡＮ，ＰＲ，００９１２　ＵＳＡ,,,,,,2024-01-04,1,,,,,エムデイーエフインストルメンツユーエスエーエルエルシー,0
1308,5700150123228,新規,0,2024-01-04,2024-01-04,ＡＮＨＫ　Ｌｉｍｉｔｅｄ,,外国会社等,東京都,千代田区,霞が関３丁目２－６東京倶楽部ビルディング６階　ロイズ・ジャパン株式会社内,,13,101,1000013,Ｏｎｅ　Ｌｉｍｅ　Ｓｔｒｅｅｔ，Ｌｏｎｄｏｎ　ＥＣ３Ｍ　７ＨＡ　ＵＫ,,,,,,2024-01-04,1,,,,,エーエヌエツチケイリミテツド,0
1309,5700150123236,新規,0,2024-01-04,2024-01-04,Ｂｅａｚｌｅｙ　Ｃｏｒｐｏｒａｔｅ　Ｍｅｍｂｅｒ（Ｎｏ．３）Ｌｔｄ,,外国会社等,東京都,千代田区,霞が関３丁目２－６東京倶楽部ビルディング６階　ロイズ・ジャパン株式会社内,,13,101,1000013,Ｏｎｅ　Ｌｉｍｅ　Ｓｔｒｅｅｔ，Ｌｏｎｄｏｎ　ＥＣ３Ｍ　７ＨＡ　ＵＫ,,,,,,2024-01-04,1,,,,,ビーズリーコーポレートメンバーナンバースリーリミテツド,0
1310,5700150123244,新規,0,2024-01-04,2024-01-04,Ｈｕｎａｎ　Ｒｕｎｚｈｅｎ　ｅｃｏｍｍｅｒｃｅ　Ｃｏ．，ＬＴＤ,,外国会社等,,,,,,,,Ｎｏ．０３７，ｔｈｅ　ｔｈｉｒｄ　ｖｉｌｌａｇｅｒ　Ｇｒｏｕｐ，Ｍａｏｔｉａｎ　Ｖｉｌｌａｇｅ，Ｗｅｎｔｉａｎ　Ｔｏｗｎ，Ｘｉｎｈｕａ　Ｃｏｕｎｔｙ，Ｌｏｕｄｉ　Ｃｉｔｙ，Ｈｕｎａｎ　Ｐｒｏｖｉｎｃｅ,,,,,,2024-01-04,1,,,,,フーナンシヨンルンジエンデイエンズーシヤンウーヨウシエンゴンスー,0
1311,5700150123252,新規,0,2024-01-04,2024-01-04,Ｏｒｃｈｉｄ　Ｓａｋｕｒａ　Ｇｌｏｂａｌ　Ｌｉｍｉｔｅｄ,,外国会社等,,,,,,,,Ｗｏｏｄｂｏｕｒｎｅ　Ｈａｌｌ，Ｒｏａｄ　Ｔｏｗｎ，Ｔｏｒｔｏｌａ，Ｂｒｉｔｉｓｈ　Ｖｉｒｇｉｎ　Ｉｓｌａｎｄｓ,,,,,,2024-01-04,1,,,,,オーキツドサクラグローバルリミテツド,0
1315,6010001241165,新規,0,2024-01-04,2024-01-04,株式会社クローバーストン,,株式会社,東京都,千代田区,一番町２パークサイドハウス７Ｆ,,13,101,1020082,,,,,,,2024-01-04,1,,,,,クローバーストン,0
1317,6010101015948,新規,0,2024-01-04,2024-01-04,株式会社ＺＥＮ‐ＮＥＸＴ,,株式会社,東京都,八王子市,久保山町２丁目４９番地１６,,13,201,1920023,,,,,,,2024-01-04,1,,,,,ゼンネクスト,0
1325,6010401179468,新規,0,2024-01-04,2024-01-04,サイリーグホールディングス株式会社,,株式会社,東京都,港区,虎ノ門３丁目１７番１号,,13,103,1050001,,,,,,,2024-01-04,1,,,,,サイリーグホールディングス,0
1326,6010401179484,新規,0,2024-01-04,2024-01-04,ＶｘＴｅｃｈ株式会社,,株式会社,東京都,港区,北青山１丁目３番１号,,13,103,1070061,,,,,,,2024-01-04,1,,,,,ヴィーエックステック,0
1327,6010401179492,新規,0,2024-01-04,2024-01-04,株式会社Ｘ‐ＶＥＲＳＥ　ＰＬＵＳ,,株式会社,東京都,港区,六本木６丁目８番１０号,,13,103,1060032,,,,,,,2024-01-04,1,,,,,クロスバースプラス,0
1328,6010401179526,新規,0,2024-01-04,2024-01-04,マネックスアドバイザリー株式会社,,株式会社,東京都,港区,赤坂１丁目１２番３２号,,13,103,1070052,,,,,,,2024-01-04,1,,,,,マネックスアドバイザリー,0
1337,6010601064420,新規,0,2024-01-04,2024-01-04,株式会社ＥＮＬＩ,,株式会社,東京都,江東区,豊洲６丁目２番３１－６２０号,,13,108,1350061,,,,,,,2024-01-04,1,,,,,エンリ,0
1338,6010601064429,新規,0,2024-01-04,2024-01-04,Ｈａｎｊｉ株式会社,,株式会社,東京都,江東区,毛利１丁目１０番２－２０４号,,13,108,1350001,,,,,,,2024-01-04,1,,,,,ハンジ,0
1339,6010603010562,新規,0,2024-01-04,2024-01-04,合同会社ＫＩＢＩＴＯ,,合同会社,東京都,江東区,亀戸５丁目６番２１号ＵＩＷ９ＢＬＤＧ２階,,13,108,1360071,,,,,,,2024-01-04,1,,,,,キビト,0
1353,6011001159174,新規,0,2024-01-04,2024-01-04,株式会社表参道ＲＥＰＰ,,株式会社,東京都,渋谷区,神宮前２丁目１９番４－１０１号,,13,113,1500001,,,,,,,2024-01-04,1,,,,,オモテサンドウレップ,0
1354,6011003018196,新規,0,2024-01-04,2024-01-04,合同会社ＮＩＧＯ,,合同会社,東京都,渋谷区,笹塚３丁目４３番９－３０１号ＺＯＯＭ渋谷笹塚Ｓｅｃｏｎｄ,,13,113,1510073,,,,,,,2024-01-04,1,,,,,ニゴ,0
1363,6011203004269,新規,0,2024-01-04,2024-01-04,合同会社ａｉｌｅ,,合同会社,東京都,中野区,中央３丁目１５番５号,,13,114,1640011,,,,,,,2024-01-04,1,,,,,エール,0
1364,6011601027417,新規,0,2024-01-04,2024-01-04,株式会社ブロスホールディングス,,株式会社,東京都,練馬区,三原台２丁目７番３号,,13,120,1770031,,,,,,,2024-01-04,1,,,,,ブロスホールディングス,0
1370,6012801022868,新規,0,2024-01-04,2024-01-04,ＧＥＮＥＳＩＳ株式会社,,株式会社,東京都,立川市,柴崎町２丁目４番９号,,13,202,1900023,,,,,,,2024-01-04,1,,,,,ジェネシス,0
1371,6012801022876,新規,0,2024-01-04,2024-01-04,株式会社ヒューマン・アップ・モア,,株式会社,東京都,東大和市,清水２丁目８０１番地１,,13,220,2070004,,,,,,,2024-01-04,1,,,,,ヒューマンアップモア,0
1372,6013301051861,新規,0,2024-01-04,2024-01-04,株式会社フリーフォーカス,,株式会社,東京都,豊島区,巣鴨３丁目１番１号,,13,116,1700002,,,,,,,2024-01-04,1,,,,,フリーフォーカス,0
1374,6013303006938,新規,0,2024-01-04,2024-01-04,合同会社Ｇｒｏｗ　ｕｐ,,合同会社,東京都,豊島区,池袋本町４丁目２６番１３号フラットシェア北池袋ポート２０３号,,13,116,1700011,,,,,,,2024-01-04,1,,,,,グローアップ,0
1380,6020001155075,新規,0,2024-01-04,2024-01-04,株式会社ＳＴＡＲＫ,,株式会社,神奈川県,横浜市瀬谷区,阿久和南２丁目５番地４マイキャッスル三ツ境ＩＩ１０８号,00133166,14,114,2460026,,,,,,,2024-01-04,1,,,,,スターク,0
1381,6020001155091,新規,0,2024-01-04,2024-01-04,株式会社三吉,,株式会社,神奈川県,横浜市金沢区,柴町２５３番地,,14,108,2360012,,,,,,,2024-01-04,1,,,,,ミヨシ,0
1382,6020001155109,新規,0,2024-01-04,2024-01-04,株式会社アクアアシスト,,株式会社,神奈川県,横浜市中区,桜木町１丁目１番７号,,14,104,2310062,,,,,,,2024-01-04,1,,,,,アクアアシスト,0
1383,6020001155117,新規,0,2024-01-04,2024-01-04,株式会社ノラン,,株式会社,神奈川県,川崎市高津区,久本３丁目１２番３９号,,14,134,2130011,,,,,,,2024-01-04,1,,,,,ノラン,0
1384,6020001155125,新規,0,2024-01-04,2024-01-04,株式会社ＬＯＯＰ,,株式会社,神奈川県,横浜市泉区,和泉町７０９２－２クレール虹１０４,,14,116,2450016,,,,,,,2024-01-04,1,,,,,,0
1385,6020001155133,新規,0,2024-01-04,2024-01-04,株式会社あかりダイニング,,株式会社,神奈川県,横浜市中区,花咲町１丁目１０番地,,14,104,2310063,,,,,,,2024-01-04,1,,,,,アカリダイニング,0
1386,6020001155141,新規,0,2024-01-04,2024-01-04,株式会社島村電設,,株式会社,神奈川県,横浜市金沢区,柳町２７番地３,,14,108,2360026,,,,,,,2024-01-04,1,,,,,シマムラデンセツ,0
1393,6020003025276,新規,0,2024-01-04,2024-01-04,合同会社Ｐ．Ｂ,,合同会社,神奈川県,川崎市宮前区,平２丁目２０番９号サンワールド平２０５号,,14,136,2160022,,,,,,,2024-01-04,1,,,,,ピービー,0
1404,6030001157954,新規,0,2024-01-04,2024-01-04,株式会社こころの里防災,,株式会社,埼玉県,加須市,柳生２１５４番地１,,11,210,3491201,,,,,,,2024-01-04,1,,,,,ココロノサトボウサイ,0
1410,6040001131545,新規,0,2024-01-04,2024-01-04,ＣＦライフ株式会社,,株式会社,千葉県,習志野市,秋津４丁目１７番１５号,,12,216,2750025,,,,,,,2024-01-04,1,,,,,シーエフライフ,0
1415,6050003008039,新規,0,2024-01-04,2024-01-04,女方ジビエ合同会社,,合同会社,茨城県,筑西市,女方６９８番地１６,,08,227,3080854,,,,,,,2024-01-04,1,,,,,オザカタジビエ,0
1418,6070001041238,新規,0,2024-01-04,2024-01-04,株式会社Ｒｅｓｈａｏ,,株式会社,群馬県,高崎市,新保町２５２番地１－１０２,,10,202,3700018,,,,,,,2024-01-04,1,,,,,レシャオ,0
1419,6070001041246,新規,0,2024-01-04,2024-01-04,株式会社美殿城,,株式会社,群馬県,前橋市,広瀬町３丁目１４番地４,,10,201,3710812,,,,,,,2024-01-04,1,,,,,ミドノジョウ,0
1424,6080103002954,新規,0,2024-01-04,2024-01-04,合同会社一関メガソーラー発電所,,合同会社,静岡県,三島市,寿町９－２３ヴィラ武智寿町３０３,,22,206,4110039,,,,,,,2024-01-04,1,,,,,イチノセキメガソーラーハツデンショ,0
1425,6080403004931,新規,0,2024-01-04,2024-01-04,合同会社しるす,,合同会社,静岡県,浜松市浜名区,沼１３０－１メゾンフルール１０５,,22,139,4340037,,,,,,,2024-01-04,1,,,,,シルス,0
1440,6120001260955,新規,0,2024-01-04,2024-01-04,株式会社コマクサ建装,,株式会社,大阪府,大阪市中央区,上汐２丁目４番６号,,27,128,5420064,,,,,,,2024-01-04,1,,,,,コマクサケンソウ,0
1441,6120001260988,新規,0,2024-01-04,2024-01-04,非同凡響株式会社,,株式会社,大阪府,大阪市西淀川区,姫島２丁目４番１０号パークアベニュー２階Ａ室,,27,113,5550033,,,,,,,2024-01-04,1,,,,,ヒドウボンキョウ,0
1442,6120001261012,新規,0,2024-01-04,2024-01-04,湘＿株式会社,00133175,株式会社,大阪府,大阪市大正区,三軒家西３丁目４番１６号中山ビル１０５５,,27,108,5510001,,,,,,,2024-01-04,1,,,,,ショウイ,0
1443,6120001261029,新規,0,2024-01-04,2024-01-04,株式会社ＡＷＴ,,株式会社,大阪府,大阪市住之江区,北加賀屋５丁目６－５－２０６,,27,125,5590011,,,,,,,2024-01-04,1,,,,,エーダブルティー,0
1444,6120001261045,新規,0,2024-01-04,2024-01-04,株式会社Ｃｏｎｎｅｃｔ,,株式会社,大阪府,大阪市北区,中津１丁目６番２９－３０１２号,,27,127,5310071,,,,,,,2024-01-04,1,,,,,コネクト,0
1445,6120001261078,新規,0,2024-01-04,2024-01-04,株式会社音音,,株式会社,大阪府,大阪市中央区,松屋町３番２１号,,27,128,5420067,,,,,,,2024-01-04,1,,,,,オトネ,0
1446,6120001261103,新規,0,2024-01-04,2024-01-04,株式会社ｍａｐｓ　ａｃａｄｅｍｙ,,株式会社,大阪府,寝屋川市,新家２丁目６番２３－１０５号,,27,215,5720812,,,,,,,2024-01-04,1,,,,,マップスアカデミー,0
1450,6120005024068,新規,0,2024-01-04,2024-01-04,一般社団法人日本中国茶文化振興協会,,その他の設立登記法人,大阪府,大阪市北区,天満４丁目１２番１９号東麟Ｂｌｄｇ．,,27,127,5300043,,,,,,,2024-01-04,1,,,,,ニホンチュウゴクチャブンカシンコウキョウカイ,0
1460,6140001132855,新規,0,2024-01-04,2024-01-04,株式会社播州エンジニアリング,,株式会社,兵庫県,三木市,志染町西自由が丘１丁目９３番地の１２,,28,215,6730551,,,,,,,2024-01-04,1,,,,,バンシュウエンジニアリング,0
1461,6140003019992,新規,0,2024-01-04,2024-01-04,合同会社ＬＩＮＫｘ,,合同会社,兵庫県,神戸市中央区,磯上通８丁目１番２９号カサベラビルＣ＆Ｍ４０３号室,,28,110,6510086,,,,,,,2024-01-04,1,,,,,,0
1464,6180001159259,新規,0,2024-01-04,2024-01-04,株式会社ＧｒＬ,,株式会社,愛知県,知多郡東浦町,大字森岡字中町２３番地の１６,,23,442,4702101,,,,,,,2024-01-04,1,,,,,ジーアールエル,0
1465,6180001159556,新規,0,2024-01-04,2024-01-04,株式会社ライフテック,,株式会社,愛知県,半田市,有楽町１丁目１４０番地,,23,205,4750837,,,,,,,2024-01-04,1,,,,,ライフテック,0
1466,6180001159572,新規,0,2024-01-04,2024-01-04,株式会社ｎａｖｉ,,株式会社,愛知県,名古屋市東区,泉１丁目１０番２３号,,23,102,4610001,,,,,,,2024-01-04,1,,,,,ナビ,0
1467,6180001159580,新規,0,2024-01-04,2024-01-04,株式会社Ｂｌａｉｒ,,株式会社,愛知県,名古屋市中区,丸の内３丁目２２番８号,,23,106,4600002,,,,,,,2024-01-04,1,,,,,ブレア,0
1468,6180005020466,新規,0,2024-01-04,2024-01-04,医療法人ＳＤＯ,,その他の設立登記法人,愛知県,名古屋市天白区,元植田１丁目３００７－１,,23,116,4680009,,,,,,,2024-01-04,1,,,,,エスディーオー,0
1470,6190003004544,新規,0,2024-01-04,2024-01-04,ＴＲＵＳＴＫＯ合同会社,,合同会社,三重県,津市,高茶屋１丁目２２－８－１,,24,201,5140819,,,,,,,2024-01-04,1,,,,,トラストコ,0
1472,6200001042024,新規,0,2024-01-04,2024-01-04,株式会社エーセット,,株式会社,岐阜県,岐阜市,住田町２丁目１８番地ＹＯビル,,21,201,5008843,,,,,,,2024-01-04,1,,,,,エーセット,0
1473,6200001042032,新規,0,2024-01-04,2024-01-04,株式会社Ｎ．Ｆ　ＴＲＡＤＩＮＧ,,株式会社,岐阜県,岐阜市,北野東４３０番地九野アパート２０１号,,21,201,5012512,,,,,,,2024-01-04,1,,,,,エヌエフトレーディング,0
1487,6260003004537,新規,0,2024-01-04,2024-01-04,合同会社フジ建設,,合同会社,岡山県,岡山市東区,瀬戸町旭ヶ丘２丁目１番地６４,,33,103,7090853,,,,,,,2024-01-04,1,,,,,フジケンセツ,0
1488,6270001008902,新規,0,2024-01-04,2024-01-04,白うさぎ健康クラブ株式会社,,株式会社,鳥取県,鳥取市,国府町新通り２丁目３０７番地,,31,201,6808066,,,,,,,2024-01-04,1,,,,,シロウサギケンコウクラブ,0
1494,6290001104245,新規,0,2024-01-04,2024-01-04,すず株式会社,,株式会社,福岡県,福岡市城南区,樋井川７丁目１番６号,,40,136,8140153,,,,,,,2024-01-04,1,,,,,スズ,0
1499,6290003014806,新規,0,2024-01-04,2024-01-04,ズームＧ合同会社,,合同会社,福岡県,福岡市城南区,七隈１丁目７－１５,,40,136,8140133,,,,,,,2024-01-04,1,,,,,ズームグループ,0
1500,6290003014814,新規,0,2024-01-04,2024-01-04,合同会社Ｄａｉｄａ,,合同会社,福岡県,福岡市中央区,天神４丁目６－２８ファーストビル７階,,40,133,8100001,,,,,,,2024-01-04,1,,,,,ダイダ,0
1508,6340001026186,新規,0,2024-01-04,2024-01-04,株式会社ディープレックス,,株式会社,鹿児島県,鹿児島市,吉野３丁目３０－６,,46,201,8920877,,,,,,,2024-01-04,1,,,,,ディープレックス,0
1511,6350005006200,新規,0,2024-01-04,2024-01-04,一般社団法人いのちのはうす保護家,,その他の設立登記法人,宮崎県,東諸県郡国富町,大字八代北俣２５８１番地ハ,,45,382,8801222,,,,,,,2024-01-04,1,,,,,イノチノハウスホゴヤ,0
1520,6400003003193,新規,0,2024-01-04,2024-01-04,合同会社久慈山形グリーンパワー,,合同会社,岩手県,久慈市,山形町荷軽部第３地割１８番地,,03,207,0288603,,,,,,,2024-01-04,1,,,,,クジヤマガタグリーンパワー,0
1521,6430001090743,新規,0,2024-01-04,2024-01-04,株式会社１ｔｏ９,,株式会社,北海道,札幌市西区,宮の沢一条１丁目１０番１２号,,01,107,0630051,,,,,,,2024-01-04,1,,,,,ワントゥナイン,0
1523,6430003015806,新規,0,2024-01-04,2024-01-04,合同会社サポ・ゼミ,,合同会社,北海道,札幌市西区,西町南１３丁目３番１６号,,01,107,0630062,,,,,,,2024-01-04,1,,,,,サポゼミ,0
1524,6430003015814,新規,0,2024-01-04,2024-01-04,合同会社やまつみ工房,,合同会社,北海道,札幌市東区,中沼二条１丁目５番１３号,,01,103,0070002,,,,,,,2024-01-04,1,,,,,ヤマツミコウボウ,0
1527,6450001014188,新規,0,2024-01-04,2024-01-04,株式会社遊喜,,株式会社,北海道,士別市,西二条９丁目７０７番地１,,01,220,0950022,,,,,,,2024-01-04,1,,,,,ユウキ,0
1531,6700150123193,新規,0,2024-01-04,2024-01-04,ｚｈｕｈａｉｐｕｐｕｍａｏｙｉｙｏｕｘｉａｎｇｏｎｇｓｉ,,外国会社等,,,,,,,,９０１，Ｂｕｉｌｄｉｎｇ　２９，Ｈｕａｆａ　Ｆｅｎｇｓｈａｎｇ，Ｈｏｎｇｑｉａｏ　２ｎｄ　Ｒｏａｄ，Ｂａｉｓｈａｏ　Ｔｏｗｎ，Ｄｏｕｍｅｎ　Ｄｉｓｔｒｉｃｔ，Ｚｈｕｈａｉ，Ｃｈｉｎａ,,,,,,2024-01-04,1,,,,,チユーハイププトレーテイングカンパニリミテツド,0
1532,6700150123202,新規,0,2024-01-04,2024-01-04,Ｂａｙｋｏｓａ　ｉｎｖｅｓｔｍｅｎｔｓ　Ｌｔｄ,,外国会社等,,,,,,,,１５ＴＨ　ＦＬＯＯＲ，１０４０　ＷＥＳＴ　ＧＥＯＲＧＩＡ　ＳＴＲＥＥＴ　ＶＡＮＣＯＵＶＥＲ　ＢＣ　Ｖ６Ｅ　４Ｈ８,,,,,,2024-01-04,1,,,,,ベイコサインベストメンツリミテツド,0
1533,6700150123210,新規,0,2024-01-04,2024-01-04,Ｆａｓｔｂｏｎｄ　Ｉｎｔｅｒｎａｔｉｏｎａｌ　Ｌｉｍｉｔｅｄ,,外国会社等,,,,,,,,Ｐ．Ｏ．Ｂｏｘ　９５７　Ｏｆｆｓｈｏｒｅ　Ｉｎｃｏｒｐｏｒａｔｉｏｎｓ　Ｃｅｎｔｒｅ　Ｒｏａｄ　Ｔｏｗｎ　Ｔｏｒｔｏｌａ　Ｂ．Ｖ．Ｉ．,,,,,,2024-01-04,1,,,,,フアーストボンドインターナシヨナルリミテツド,0
1534,6700150123219,新規,0,2024-01-04,2024-01-04,Ｈｕｎａｎ　Ｙｉｊｉｎｇ　ｅｃｏｍｍｅｒｃｅ　Ｃｏ．，ＬＴＤ,,外国会社等,,,,,,,,Ｎｏ．０４６，ｔｈｅ　ｔｈｉｒｄ　ｖｉｌｌａｇｅｒ　ｇｒｏｕｐ，Ｌａｎｇｓｈａｎ　Ｖｉｌｌａｇｅ，Ｗｅｎｔｉａｎ　Ｔｏｗｎ，Ｘｉｎｈｕａ　Ｃｏｕｎｔｙ，Ｌｏｕｄｉ　Ｃｉｔｙ，Ｈｕｎａｎ　Ｐｒｏｖｉｎｃｅ,,,,,,2024-01-04,1,,,,,フーナンシヨンイージンデイエンズーシヤンウーヨウシエンゴンスー,0
1535,6700150123227,新規,0,2024-01-04,2024-01-04,ＲＭＬ　Ｎａｍｅｃｏ　Ｌｉｍｉｔｅｄ,,外国会社等,東京都,千代田区,霞が関３丁目２－６東京倶楽部ビルディング６階　ロイズ・ジャパン株式会社内,,13,101,1000013,Ｏｎｅ　Ｌｉｍｅ　Ｓｔｒｅｅｔ，Ｌｏｎｄｏｎ　ＥＣ３Ｍ　７ＨＡ　ＵＫ,,,,,,2024-01-04,1,,,,,アールエムエルネームコリミテツド,0
1536,6700150123235,新規,0,2024-01-04,2024-01-04,Ｎｅｐｈｉｌａ　Ｃｏｒｐｏｒａｔｅ　Ｍｅｍｂｅｒ（Ｎｏ．３）Ｌｔｄ,,外国会社等,東京都,千代田区,霞が関３丁目２－６東京倶楽部ビルディング６階　ロイズ・ジャパン株式会社内,,13,101,1000013,Ｏｎｅ　Ｌｉｍｅ　Ｓｔｒｅｅｔ，Ｌｏｎｄｏｎ　ＥＣ３Ｍ　７ＨＡ　ＵＫ,,,,,,2024-01-04,1,,,,,ネフイラコーポレートメンバーナンバースリーリミテツド,0
1537,6700150123243,新規,0,2024-01-04,2024-01-04,Ｈｕｎａｎ　Ｂｉｎｎｉｎｇ　ｅｌｅｃｔｒｏｎｉｃ　ｃｏｍｍｅｒｃｅ　Ｃｏ．，ＬＴＤ,,外国会社等,,,,,,,,Ｒｏｏｍ　１３０４，１３ｔｈ　Ｆｌｏｏｒ，Ｆｉｌｍ　ａｎｄ　Ｔｅｌｅｖｉｓｉｏｎ　Ｉｎｔｅｒｎａｔｉｏｎａｌ　Ｂｕｓｉｎｅｓｓ　Ｃｅｎｔｅｒ　Ｂｕｉｌｄｉｎｇ，Ｓｈｕｉｄｕ　Ｍｉｄｄｌｅ　Ｒｏａｄ，Ｌｅｎｇｓｈｕｉｊｉａｎｇ　Ｓｔｒｅｅｔ，Ｌｏｕｄｉ　Ｃｉｔｙ，Ｈｕｎａｎ　Ｐｒｏｖｉｎｃｅ,,,,,,2024-01-04,1,,,,,フーナンシヨンピンニンデイエンズーシヤンウーヨウシエンゴンスー,0
1538,6700150123251,新規,0,2024-01-04,2024-01-04,Ｊ＆ＶＤｅｖｅｌｏｐｍｅｎｔＬｉｍｉｔｅｄ,,外国会社等,,,,,,,,ＣＣＳＴｒｕｓｔｅｅｓＬｉｍｉｔｅｄＭａｎｄａｒＨｏｕｓｅ３ｒｄＦｌｏｏｒＪｏｈｎｓｏｎ’ｓＧｈｕｔＴｏｒｔｏＩａＢｒｉｔｉｓｈＶｉｒｇｉｎｌｓｌａｎｄｓ,,,,,,2024-01-04,1,,,,,ジエイアンドブイデベロツプメントリミテツド,0
1543,7010001241123,新規,0,2024-01-04,2024-01-04,株式会社ＦｕｔｕｒｅＷｏｒｋ研究室,,株式会社,東京都,中央区,銀座７丁目１５番８号タウンハイツ銀座４０６,,13,102,1040061,,,,,,,2024-01-04,1,,,,,フューチャーワークケンキュウシツ,0
1544,7010001241164,新規,0,2024-01-04,2024-01-04,ＳＡＭＵＲＡ　Ｊａｐａｎ　Ｔｒａｄｉｎｇ株式会社,,株式会社,東京都,中央区,日本橋２丁目２番３号ＲＩＳＨＥビルＵＣＦ４階,,13,102,1030027,,,,,,,2024-01-04,1,,,,,サムラジャパントレーディング,0
1545,7010001241180,新規,0,2024-01-04,2024-01-04,株式会社アールエスケイ,,株式会社,東京都,中央区,湊１丁目１１番６号,,13,102,1040043,,,,,,,2024-01-04,1,,,,,アールエスケイ,0
1548,7010101015947,新規,0,2024-01-04,2024-01-04,ジェイランディ株式会社,,株式会社,東京都,八王子市,明神町２丁目２６番４号アーバンプラザＩＺＵＭＩ６０６号,,13,201,1920046,,,,,,,2024-01-04,1,,,,,ジェイランディ,0
1557,7010401179483,新規,0,2024-01-04,2024-01-04,株式会社Ｗ,,株式会社,東京都,港区,六本木５丁目１６番５０号六本木デュープレックスＭ’ｓ４０７,,13,103,1060032,,,,,,,2024-01-04,1,,,,,ダブル,0
1558,7010401179509,新規,0,2024-01-04,2024-01-04,株式会社ＵＮＮＩＴＥ,,株式会社,東京都,港区,南青山２丁目２番１５号ウィン青山４３８号,,13,103,1070062,,,,,,,2024-01-04,1,,,,,ユナイト,0
1564,7010601064428,新規,0,2024-01-04,2024-01-04,株式会社Ｍ＆Ａサポート,,株式会社,東京都,墨田区,横川４丁目１番２－７０６号,,13,107,1300003,,,,,,,2024-01-04,1,,,,,エムアンドエーサポート,0
1567,7010703007004,新規,0,2024-01-04,2024-01-04,合同会社千早インベストメント,,合同会社,東京都,品川区,旗の台３丁目１５番１号ツバセスＰＡＲＴ９－３１９,,13,109,1420064,,,,,,,2024-01-04,1,,,,,チハヤインベスメント,0
1577,7011001159082,新規,0,2024-01-04,2024-01-04,株式会社ビビッドアーツ,,株式会社,東京都,渋谷区,神宮前２丁目３番２５－５０１号,,13,113,1500001,,,,,,,2024-01-04,1,,,,,ビビッドアーツ,0
1578,7011001159132,新規,0,2024-01-04,2024-01-04,株式会社ダブルインターナショナル,,株式会社,東京都,目黒区,祐天寺２丁目９番１２号,,13,110,1530052,,,,,,,2024-01-04,1,,,,,ダブルインターナショナル,0
1583,7011101105696,新規,0,2024-01-04,2024-01-04,株式会社ＷＩＣＯ,,株式会社,東京都,新宿区,歌舞伎町１丁目６番６号４Ｆ,,13,104,1600021,,,,,,,2024-01-04,1,,,,,ウィコ,0
1585,7011103013906,新規,0,2024-01-04,2024-01-04,ビスケーン合同会社,,合同会社,東京都,新宿区,西新宿６丁目１０番１号日土地西新宿ビル８階,,13,104,1600023,,,,,,,2024-01-04,1,,,,,ビスケーン,0
1586,7011103013922,新規,0,2024-01-04,2024-01-04,ドナルド・トランプ合同会社,,合同会社,東京都,新宿区,西早稲田３丁目１７番２３号サンファミール西早稲田９０４,,13,104,1690051,,,,,,,2024-01-04,1,,,,,ドナルドトランプ,0
1592,7011601027424,新規,0,2024-01-04,2024-01-04,株式会社いつでも,,株式会社,東京都,練馬区,上石神井４丁目２８番１４号,,13,120,1770044,,,,,,,2024-01-04,1,,,,,イツデモ,0
1603,7012303001923,新規,0,2024-01-04,2024-01-04,ニューストリート合同会社,,合同会社,東京都,町田市,金井ヶ丘２丁目３－２０,,13,209,1950076,,,,,,,2024-01-04,1,,,,,,0
1611,7012801022867,新規,0,2024-01-04,2024-01-04,株式会社舛石新聞店,,株式会社,東京都,昭島市,朝日町２丁目６番２２号,,13,207,1960025,,,,,,,2024-01-04,1,,,,,マスイシシンブンテン,0
1612,7012801022875,新規,0,2024-01-04,2024-01-04,株式会社ＦＥＲＡＮＴＲＡＣＩＮＧ,,株式会社,東京都,国分寺市,日吉町２丁目２５番地２０,,13,214,1850032,,,,,,,2024-01-04,1,,,,,フェラントレーシング,0
1614,7013301051852,新規,0,2024-01-04,2024-01-04,株式会社ＡＩ‐ＥＰＯＣＨ,,株式会社,東京都,豊島区,池袋２丁目４８番４号ＫＨＡビル４Ｆ,,13,116,1710014,,,,,,,2024-01-04,1,,,,,アイーエポック,0
1616,7013305003560,新規,0,2024-01-04,2024-01-04,税理士法人アウル,,その他の設立登記法人,東京都,豊島区,南池袋１丁目１６番１５号ダイヤゲート池袋５Ｆ,,13,116,1710022,,,,,,,2024-01-04,1,,,,,アウル,0
1620,7020001155099,新規,0,2024-01-04,2024-01-04,ビルドレノベイト株式会社,,株式会社,神奈川県,横浜市南区,大岡２丁目１５番２３号みなとビル２０１,,14,105,2320061,,,,,,,2024-01-04,1,,,,,ビルドレノベイト,0
1621,7020001155108,新規,0,2024-01-04,2024-01-04,株式会社ＳＵコンストラクション,,株式会社,神奈川県,横浜市瀬谷区,宮沢３丁目２４番地３３,,14,114,2460038,,,,,,,2024-01-04,1,,,,,エスユーコンストラクション,0
1622,7020001155116,新規,0,2024-01-04,2024-01-04,株式会社宝番匠,,株式会社,神奈川県,川崎市中原区,宮内３丁目１１番１９号,,14,133,2110051,,,,,,,2024-01-04,1,,,,,タカラバンショウ,0
1624,7020003025275,新規,0,2024-01-04,2024-01-04,合同会社Ｓｏｕｌ．Ｙ．Ｗｉｔｈ,,合同会社,神奈川県,横浜市青葉区,鴨志田町５６９番地１,,14,117,2270033,,,,,,,2024-01-04,1,,,,,ソウルワイウィズ,0
1627,7021001081095,新規,0,2024-01-04,2024-01-04,株式会社ＢＬＡＮＣＨＥ,,株式会社,神奈川県,藤沢市,鵠沼石上１丁目４番地１クオーレＡＳＣＡ１０２,00133163,14,205,2510025,,,,,,,2024-01-04,1,,,,,ブランシュ,0
1628,7021001081145,新規,0,2024-01-04,2024-01-04,株式会社ＳＨ,,株式会社,神奈川県,座間市,相模が丘４丁目２番３６号,,14,216,2520001,,,,,,,2024-01-04,1,,,,,エスエイチ,0
1631,7021003013963,新規,0,2024-01-04,2024-01-04,合同会社さがみのえほんや,,合同会社,神奈川県,相模原市中央区,富士見６丁目６－１－１１０号,,14,152,2520236,,,,,,,2024-01-04,1,,,,,サガミノエホンヤ,0
1632,7021003013971,新規,0,2024-01-04,2024-01-04,ひかりグループ合同会社,,合同会社,神奈川県,藤沢市,大鋸１２２６番地２階,,14,205,2510002,,,,,,,2024-01-04,1,,,,,ヒカリグループ,0
1639,7030001158019,新規,0,2024-01-04,2024-01-04,株式会社大畑,,株式会社,埼玉県,越谷市,大沢１５７９番地１４,,11,222,3430025,,,,,,,2024-01-04,1,,,,,オオハタ,0
1650,7040001131560,新規,0,2024-01-04,2024-01-04,株式会社ｒｅＦｉｎｅ　ｗｏｒｋｓ,,株式会社,千葉県,野田市,上花輪８２０番地の２５,,12,208,2780033,,,,,,,2024-01-04,1,,,,,リファインワークス,0
1657,7050001054034,新規,0,2024-01-04,2024-01-04,株式会社ＲＵＣＯＴＡ,,株式会社,茨城県,常総市,東野原１２５番地１４,,08,211,3002717,,,,,,,2024-01-04,1,,,,,ルコタ,0
1658,7050001054050,新規,0,2024-01-04,2024-01-04,株式会社エフォート,,株式会社,茨城県,ひたちなか市,笹野町１丁目１２番２－５０４号,,08,221,3120018,,,,,,,2024-01-04,1,,,,,エフォート,0
1663,7070001041237,新規,0,2024-01-04,2024-01-04,株式会社ヒルマ,,株式会社,群馬県,前橋市,総社町総社２１４９番地１,,10,201,3710852,,,,,,,2024-01-04,1,,,,,ヒルマ,0
1669,7080401026919,新規,0,2024-01-04,2024-01-04,株式会社ＣＴ,,株式会社,静岡県,浜松市中央区,鍛冶町１５番,,22,138,4300933,,,,,,,2024-01-04,1,,,,,シーティー,0
1683,7120001261028,新規,0,2024-01-04,2024-01-04,株式会社ディクマント大阪,,株式会社,大阪府,大阪市北区,天神橋１丁目１４番１６号丸宮ビルディング３Ｆ３０１号,,27,127,5300041,,,,,,,2024-01-04,1,,,,,ディクマントオオサカ,0
1684,7120001261077,新規,0,2024-01-04,2024-01-04,株式会社ｃｏｄｉｓｔ,,株式会社,大阪府,大阪市北区,西天満６丁目４番９－３０３号,,27,127,5300047,,,,,,,2024-01-04,1,,,,,コーディスト,0
1685,7120001261093,新規,0,2024-01-04,2024-01-04,織景澤株式会社,,株式会社,大阪府,大阪市生野区,新今里７丁目７番２－３０１号,,27,116,5440001,,,,,,,2024-01-04,1,,,,,オリカゲサワ,0
1689,7120003025595,新規,0,2024-01-04,2024-01-04,Ｇ・シーマ合同会社,,合同会社,大阪府,大阪市中央区,備後町３丁目１番２号－２ＦＧ,,27,128,5410051,,,,,,,2024-01-04,1,,,,,ジーシーマ,0
1690,7120003025604,新規,0,2024-01-04,2024-01-04,Ａｓｕ合同会社,,合同会社,大阪府,大阪市旭区,今市１丁目１４番４号ロイヤルハイツ今市１０５,,27,117,5350011,,,,,,,2024-01-04,1,,,,,エース,0
1691,7120003025612,新規,0,2024-01-04,2024-01-04,合同会社エヌ・コーポレーション,,合同会社,大阪府,門真市,野里町３２番２２号,,27,223,5710079,,,,,,,2024-01-04,1,,,,,エヌコーポレーション,0
1692,7120101068802,新規,0,2024-01-04,2024-01-04,ＹＭシステム企画株式会社,,株式会社,大阪府,堺市東区,日置荘田中町２４８番地,,27,143,5998113,,,,,,,2024-01-04,1,,,,,ワイエムシステムキカク,0
1693,7120101068810,新規,0,2024-01-04,2024-01-04,株式会社インテリアナカガワ,,株式会社,大阪府,羽曳野市,島泉７丁目１５番７号,,27,222,5830881,,,,,,,2024-01-04,1,,,,,インテリアナカガワ,0
1695,7120901048573,新規,0,2024-01-04,2024-01-04,株式会社ＦＣＧ’ｕｔ,,株式会社,大阪府,高槻市,登町２０番Ｂ２８－２０７号,,27,207,5690046,,,,,,,2024-01-04,1,,,,,エフシージー,0
1697,7120903004987,新規,0,2024-01-04,2024-01-04,合同会社５３と金,,合同会社,大阪府,摂津市,三島３丁目４番３０号,,27,224,5660022,,,,,,,2024-01-04,1,,,,,ゴサントキン,0
1699,7122001037696,新規,0,2024-01-04,2024-01-04,Ｖａｌｏｐ株式会社,,株式会社,大阪府,八尾市,西山本町１丁目１番１５号－３０３号,,27,212,5810868,,,,,,,2024-01-04,1,,,,,バロップ,0
1703,7130001076012,新規,0,2024-01-04,2024-01-04,Ｆｕｊｉ　Ｔｒａｖｅｌ株式会社,,株式会社,京都府,京都市右京区,嵯峨折戸町８－３２ＡｂｃｄｅＦｌａｔ嵯峨折戸町,,26,108,6168345,,,,,,,2024-01-04,1,,,,,フジトラベル,0
1704,7130003009218,新規,0,2024-01-04,2024-01-04,合同会社モデスポ,,合同会社,京都府,宇治市,琵琶台１丁目１５番地の１６,,26,204,6110024,,,,,,,2024-01-04,1,,,,,モデスポ,0
1714,7140001132854,新規,0,2024-01-04,2024-01-04,株式会社あいいち,,株式会社,兵庫県,尼崎市,西昆陽１丁目１番１０号,,28,202,6610047,,,,,,,2024-01-04,1,,,,,アイイチ,0
1715,7140001132862,新規,0,2024-01-04,2024-01-04,ＥＮＧＵＵ・ＥＮＧＵＵ株式会社,,株式会社,兵庫県,神戸市長田区,東尻池町７丁目９－９清雲荘４０３号室,,28,106,6530022,,,,,,,2024-01-04,1,,,,,エングーエングー,0
1717,7140003020000,新規,0,2024-01-04,2024-01-04,合同会社ナカニシ,,合同会社,兵庫県,丹波市,山南町太田２２１番地１,,28,223,6693113,,,,,,,2024-01-04,1,,,,,ナカニシ,0
1720,7170005007059,新規,0,2024-01-04,2024-01-04,一般社団法人セルフケア整体師育成協会,,その他の設立登記法人,和歌山県,橋本市,紀見ケ丘３丁目３番３１号,,30,203,6480092,,,,,,,2024-01-04,1,,,,,セルフケアセイタイシイクセイキョウカイ,0
1725,7180001159555,新規,0,2024-01-04,2024-01-04,株式会社Ｒｅｚｅ,,株式会社,愛知県,名古屋市中区,新栄２丁目１１番２５号エルミタージュ新栄８０４号,,23,106,4600007,,,,,,,2024-01-04,1,,,,,リゼ,0
1726,7180001159563,新規,0,2024-01-04,2024-01-04,株式会社ＲＮ,,株式会社,愛知県,小牧市,大字西之島２１７０番地３,,23,219,4850077,,,,,,,2024-01-04,1,,,,,アールエヌ,0
1727,7180001159571,新規,0,2024-01-04,2024-01-04,株式会社Ｇｏｏｄ　Ｌｅａｄ,,株式会社,愛知県,名古屋市南区,天白町５丁目１５番地,,23,112,4570803,,,,,,,2024-01-04,1,,,,,グッドリード,0
1728,7180001159596,新規,0,2024-01-04,2024-01-04,株式会社ＲＥＶＥ,,株式会社,愛知県,名古屋市名東区,高間町２１２番地の１プールヴァールＴＡＫＡＭＡ２０２号,,23,115,4650081,,,,,,,2024-01-04,1,,,,,レーヴ,0
1729,7180003026175,新規,0,2024-01-04,2024-01-04,ＰＥＡＣＥ　ＪＡＰＡＮ合同会社,,合同会社,愛知県,名古屋市中村区,名駅４丁目２４番５号第２森ビル４０１,,23,105,4500002,,,,,,,2024-01-04,1,,,,,ピースジャパン,0
1730,7180005020481,新規,0,2024-01-04,2024-01-04,医療法人桜楓会,,その他の設立登記法人,愛知県,稲沢市,平和町嫁振１２２番地２,,23,220,4901323,,,,,,,2024-01-04,1,,,,,オウフウカイ,0
1752,7260001038619,新規,0,2024-01-04,2024-01-04,株式会社神戸,,株式会社,岡山県,岡山市東区,目黒町６０番地,,33,103,7048171,,,,,,,2024-01-04,1,,,,,コウベ,0
1753,7260003004536,新規,0,2024-01-04,2024-01-04,ＫＡＳＨＩＳＨ合同会社,,合同会社,岡山県,岡山市北区,奥田本町１０番９号,,33,101,7000932,,,,,,,2024-01-04,1,,,,,カシス,0
1763,7290001104228,新規,0,2024-01-04,2024-01-04,株式会社Ｑ‐Ｐａｒｔｎｅｒｓ,,株式会社,福岡県,福岡市中央区,薬院１丁目１番１号,,40,133,8100022,,,,,,,2024-01-04,1,,,,,キューパートナーズ,0
1764,7290001104244,新規,0,2024-01-04,2024-01-04,株式会社若草商会,,株式会社,福岡県,春日市,若葉台東２丁目１２５番地３,,40,218,8160821,,,,,,,2024-01-04,1,,,,,ワカクサショウカイ,0
1771,7290803004575,新規,0,2024-01-04,2024-01-04,合同会社ＳＳＡリレーション,,合同会社,福岡県,北九州市小倉北区,鍛冶町１丁目６－８南国ビル１Ｆ,,40,106,8020004,,,,,,,2024-01-04,1,,,,,エスエスエーリレーション,0
1773,7300003002056,新規,0,2024-01-04,2024-01-04,合同会社Ｒｅｓｉｄｅｎｃｅ　Ｌａｂ,,合同会社,佐賀県,佐賀市,鍋島町大字蛎久９８番地１,,41,201,8490931,,,,,,,2024-01-04,1,,,,,レジデンスラボ,0
1775,7310003004704,新規,0,2024-01-04,2024-01-04,合同会社幸工機,,合同会社,長崎県,北松浦郡佐々町,野寄免４９０番地５エステートサザ１０１,,42,391,8570331,,,,,,,2024-01-04,1,,,,,,0
1777,7340001026177,新規,0,2024-01-04,2024-01-04,株式会社ＯＮＥ　ＳＴＥＰ,,株式会社,鹿児島県,大島郡喜界町,大字湾１２２番地,,46,529,8916202,,,,,,,2024-01-04,1,,,,,ワンステップ,0
1778,7340001026185,新規,0,2024-01-04,2024-01-04,株式会社西郷ミネラルサプライ,,株式会社,鹿児島県,鹿児島市,田上４丁目５番１７号,,46,201,8900034,,,,,,,2024-01-04,1,,,,,サイゴウミネラルサプライ,0
1783,7360001033015,新規,0,2024-01-04,2024-01-04,株式会社ありがとう,,株式会社,沖縄県,浦添市,経塚１丁目１５番７号,,47,208,9012111,,,,,,,2024-01-04,1,,,,,アリガトウ,0
1784,7360001033031,新規,0,2024-01-04,2024-01-04,株式会社Ｎｉｃｋ,,株式会社,沖縄県,沖縄市,室川１丁目４－７,,47,211,9040013,,,,,,,2024-01-04,1,,,,,ニック,0
1785,7360005006966,新規,0,2024-01-04,2024-01-04,一般社団法人しまぬわ,,その他の設立登記法人,沖縄県,中頭郡読谷村,字大湾４２３,,47,324,9040313,,,,,,,2024-01-04,1,,,,,シマヌワ,0
1798,7430001090750,新規,0,2024-01-04,2024-01-04,タイヤモビリティ北海道株式会社,,株式会社,北海道,札幌市手稲区,西宮の沢三条３丁目１－１,,01,109,0060003,,,,,,,2024-01-04,1,,,,,タイヤモビリティホッカイドウ,0
1799,7430001090759,新規,0,2024-01-04,2024-01-04,株式会社ＳｕｎＲｉｖｅｒ,,株式会社,北海道,札幌市豊平区,美園七条２丁目３番１３号２階右,,01,105,0620007,,,,,,,2024-01-04,1,,,,,サンリバー,0
1800,7430001090775,新規,0,2024-01-04,2024-01-04,株式会社ファースト,,株式会社,北海道,札幌市中央区,南八条西１丁目２番地４アンジュ・サンティエ３０２号,,01,101,0640808,,,,,,,2024-01-04,1,,,,,ファースト,0
1801,7430003015813,新規,0,2024-01-04,2024-01-04,合同会社ハレ,,合同会社,北海道,札幌市豊平区,福住一条９丁目７番１５号ＫＤマンション１０６号,,01,105,0620041,,,,,,,2024-01-04,1,,,,,ハレ,0
1805,7460101007478,新規,0,2024-01-04,2024-01-04,株式会社Ｔｒｕｅ　Ｎａｔｕｒｅ,,株式会社,北海道,中川郡幕別町,札内北栄町６番地の３,,01,643,0890537,,,,,,,2024-01-04,1,,,,,トゥルーネイチャー,0
1808,7700150123192,新規,0,2024-01-04,2024-01-04,Ｓｈｅｎ　ｚｈｅｎ　ｓｈｉ　ｋｅ　ｄｉ　ｓｈｉ　ｙｅ　ｙｏｕ　ｘｉａｎ　ｇｏｎｇ　ｓｉ,,外国会社等,,,,,,,,ｌｏｎｇｇａｎｇｑｕ　ｂａｎ　ｔｉａｎ　ｊｉｅ　ｄａｏ　ｗｕｈｅｄａｄａｏ，ｓｉ　ｊｉ　ｈｕａ　ｃｈｅｎｇ　ｚｉ　ｊｉｎｇ　ｙｕａｎ　Ｂｚｕｏ　３０２ｓｈｉ，ｓｈｅｎｚｈｅｎ，ｇｕａｎｇｄｏｎｇ,,,,,,2024-01-04,1,,,,,センセンシケデイインダストリーカンパニリミテツド,0
1809,7700150123201,新規,0,2024-01-04,2024-01-04,Ｓｈｅｎ　Ｚｈｅｎ　Ｓｈｉ　Ｌｏｎｇ　Ｔｅｎｇ　Ｔｅｃｈｎｏｌｏｇｙ　Ｃｏ．，Ｌｔｄ,,外国会社等,,,,,,,,Ｌｏｎｇｈｕａ　Ｘｉｎｑｕ　Ｍｉｎｚｈｉ　Ｊｉｅｄａｏ　Ｄｏｎｇｌｏｎｇ　Ｘｉｎｃｕｎ，Ｔｉｎｇｙｕａｎ　Ｇｏｎｇｙｕ　２Ｂ　Ｄｏｎｇ　５０５，Ｓｈｅｎｚｈｅｎｓｈｉ,,,,,,2024-01-04,1,,,,,シエンジエンシーローントウオンコーアジーヨウシエンゴーンスー,0
1810,7700150123218,新規,0,2024-01-04,2024-01-04,Ｈｕｎａｎ　Ｄｕｎ　Ｙｕｅ　ｅｃｏｍｍｅｒｃｅ　Ｃｏ．，ＬＴＤ,,外国会社等,,,,,,,,Ｎｏ．００８，ｔｈｅ　ｔｈｉｒｄ　ｖｉｌｌａｇｅｒ　Ｇｒｏｕｐ，Ｑｉａｏｐｉｎｇ　Ｖｉｌｌａｇｅ，Ｗｅｎｔｉａｎ　Ｔｏｗｎ，Ｘｉｎｈｕａ　Ｃｏｕｎｔｙ，Ｌｏｕｄｉ　Ｃｉｔｙ，Ｈｕｎａｎ　Ｐｒｏｖｉｎｃｅ,,,,,,2024-01-04,1,,,,,フーナンシヨンドウンユエデイエンズーシヤンウーヨウシエンゴンスー,0
1811,7700150123226,新規,0,2024-01-04,2024-01-04,Ｎａｍｅｃｏ（Ｎｏ．１３８１）Ｌｉｍｉｔｅｄ,,外国会社等,東京都,千代田区,霞が関３丁目２－６東京倶楽部ビルディング６階　ロイズ・ジャパン株式会社内,,13,101,1000013,Ｏｎｅ　Ｌｉｍｅ　Ｓｔｒｅｅｔ，Ｌｏｎｄｏｎ　ＥＣ３Ｍ　７ＨＡ　ＵＫ,,,,,,2024-01-04,1,,,,,ネームコナンバーワンスリーエイトワンリミテツド,0
1812,7700150123234,新規,0,2024-01-04,2024-01-04,Ｎｅｐｈｉｌａ　Ｃｏｒｐｏｒａｔｅ　Ｍｅｍｂｅｒ（Ｎｏ．２）Ｌｔｄ,,外国会社等,東京都,千代田区,霞が関３丁目２－６東京倶楽部ビルディング６階　ロイズ・ジャパン株式会社内,,13,101,1000013,Ｏｎｅ　Ｌｉｍｅ　Ｓｔｒｅｅｔ，Ｌｏｎｄｏｎ　ＥＣ３Ｍ　７ＨＡ　ＵＫ,,,,,,2024-01-04,1,,,,,ネフイラコーポレートメンバーナンバーツーリミテツド,0
1813,7700150123242,新規,0,2024-01-04,2024-01-04,Ｈｕｎａｎ　Ｌａｉｈｕｉ　ｅｌｅｃｔｒｏｎｉｃ　ｔｅｃｈｎｏｌｏｇｙ　Ｃｏ．，ＬＴＤ,,外国会社等,,,,,,,,Ｎｏ．０１９，Ｇｒｏｕｐ　３，Ｐｉｎｇｓｈｕ　Ｖｉｌｌａｇｅ，Ｗｅｎｔｉａｎ　Ｔｏｗｎ，Ｘｉｎｈｕａ　Ｃｏｕｎｔｙ，Ｌｏｕｄｉ　Ｃｉｔｙ，Ｈｕｎａｎ　Ｐｒｏｖｉｎｃｅ,,,,,,2024-01-04,1,,,,,フーナンシヨンライフイデイエンズーコージーヨウシエンゴンスー,0
1814,7700150123250,新規,0,2024-01-04,2024-01-04,Ａｌｌｒｉｃｈ　Ｉｎｖｅｓｔｍｅｎｔ　Ｉｎｃ．,,外国会社等,,,,,,,,Ｏｆｆｓｈｏｒｅ　Ｃｈａｍｂｅｒｓ，Ｐ．Ｏ．Ｂｏｘ２１７，Ａｐｉａ，Ｓａｍｏａ,,,,,,2024-01-04,1,,,,,オールリツチインベストメントインク,0
1820,8010001241163,新規,0,2024-01-04,2024-01-04,株式会社ＳＫＲ,,株式会社,東京都,中央区,日本橋蛎殻町１丁目１２番９号カモツル日本橋ビル６階,,13,102,1030014,,,,,,,2024-01-04,1,,,,,エスケーアール,0
1821,8010001241171,新規,0,2024-01-04,2024-01-04,ＡＩＲ３６０株式会社,,株式会社,東京都,千代田区,丸の内１丁目６番５号丸の内北口ビルディング９階,,13,101,1000005,,,,,,,2024-01-04,1,,,,,エアサンビャクロクジュウ,0
1824,8010005037673,新規,0,2024-01-04,2024-01-04,一般社団法人バイオリジェン,,その他の設立登記法人,東京都,中央区,銀座１丁目９番１３号プライム銀座柳通りビル９階,,13,102,1040061,,,,,,,2024-01-04,1,,,,,バイオリジェン,0
1828,8010101015946,新規,0,2024-01-04,2024-01-04,株式会社かとう住建,,株式会社,東京都,八王子市,南町１番１２－５０２号,,13,201,1920072,,,,,,,2024-01-04,1,,,,,カトウジュウケン,0
1834,8010401179458,新規,0,2024-01-04,2024-01-04,株式会社商倍販乗,,株式会社,東京都,港区,赤坂９丁目１番７－８３１号,,13,103,1070052,,,,,,,2024-01-04,1,,,,,ショウバイハンジョウ,0
1835,8010401179474,新規,0,2024-01-04,2024-01-04,株式会社ｖｅｖｅ,,株式会社,東京都,港区,浜松町１丁目１８番１３号高桑ビル３階,,13,103,1050013,,,,,,,2024-01-04,1,,,,,ベベ,0
1836,8010401179482,新規,0,2024-01-04,2024-01-04,瑞風ＬＬ株式会社,,株式会社,東京都,港区,芝２丁目２８番１１号,,13,103,1050014,,,,,,,2024-01-04,1,,,,,ズイフウーエルエル,0
1837,8010401179516,新規,0,2024-01-04,2024-01-04,雲笙株式会社,,株式会社,東京都,港区,芝浦４丁目５－１１－１０５,,13,103,1080023,,,,,,,2024-01-04,1,,,,,ウンショウ,0
1842,8010403031658,新規,0,2024-01-04,2024-01-04,Ｐｕｓｈ　ｏｎ合同会社,,合同会社,東京都,港区,芝２丁目３－２１,,13,103,1050014,,,,,,,2024-01-04,1,,,,,プッシュオン,0
1843,8010405022812,新規,0,2024-01-04,2024-01-04,一般社団法人日本スリランカアーユルヴェーダ協会,,その他の設立登記法人,東京都,港区,高輪２丁目１番５４号駐日スリランカ大使館内,,13,103,1080074,,,,,,,2024-01-04,1,,,,,ニホンスリランカアーユルヴェーダキョウカイ,0
1847,8010601064419,新規,0,2024-01-04,2024-01-04,株式会社ＨＴＭ,,株式会社,東京都,江東区,南砂７丁目１０番９－５２３号,,13,108,1360076,,,,,,,2024-01-04,1,,,,,エイチティエム,0
1848,8010601064427,新規,0,2024-01-04,2024-01-04,ＳＫＹ　ＪＡＰＡＮ株式会社,,株式会社,東京都,墨田区,菊川３丁目１５番２号－２Ｆ,,13,107,1300024,,,,,,,2024-01-04,1,,,,,スカイジャパン,0
1849,8010701045343,新規,0,2024-01-04,2024-01-04,株式会社ユライアーツ,,株式会社,東京都,品川区,大崎２丁目９番１－８０３号,,13,109,1410032,,,,,,,2024-01-04,1,,,,,ユライアーツ,0
1856,8010903008684,新規,0,2024-01-04,2024-01-04,合同会社ＰＰＲ,,合同会社,東京都,世田谷区,千歳台３丁目２８番１４号グランシティ千歳船橋６０１,,13,112,1570071,,,,,,,2024-01-04,1,,,,,ピーピーアール,0
1857,8010905004566,新規,0,2024-01-04,2024-01-04,一般社団法人マハロ・メディカル,,その他の設立登記法人,東京都,世田谷区,成城５丁目２３番１６号,,13,112,1570066,,,,,,,2024-01-04,1,,,,,マハロメディカル,0
1858,8011001159081,新規,0,2024-01-04,2024-01-04,晴海国際株式会社,,株式会社,東京都,渋谷区,道玄坂１丁目１０番８号渋谷道玄坂東急ビル２Ｆ－Ｃ,,13,113,1500043,,,,,,,2024-01-04,1,,,,,ハルミコクサイ,0
1859,8011001159164,新規,0,2024-01-04,2024-01-04,佶川株式会社,,株式会社,東京都,目黒区,八雲３丁目１０番３－５０１号,,13,110,1520023,,,,,,,2024-01-04,1,,,,,キツカワ,0
1860,8011001159172,新規,0,2024-01-04,2024-01-04,株式会社甘味処,,株式会社,東京都,渋谷区,渋谷２丁目１９－１５宮益坂ビルディング６０９,,13,113,1500002,,,,,,,2024-01-04,1,,,,,アマミドコロ,0
1861,8011003018186,新規,0,2024-01-04,2024-01-04,合同会社ＧＳＲ,,合同会社,東京都,渋谷区,渋谷２丁目１９－１５宮益坂ビルディング６０９,,13,113,1500002,,,,,,,2024-01-04,1,,,,,ジーエスアール,0
1862,8011003018194,新規,0,2024-01-04,2024-01-04,ｎｏｄｅ‐ｂｅｅ合同会社,,合同会社,東京都,渋谷区,道玄坂１丁目１０番８号渋谷道玄坂東急ビル２Ｆ－Ｃ,,13,113,1500043,,,,,,,2024-01-04,1,,,,,ノードビー,0
1863,8011003018211,新規,0,2024-01-04,2024-01-04,合同会社イリス,,合同会社,東京都,渋谷区,富ヶ谷１丁目２１番３号,,13,113,1510063,,,,,,,2024-01-04,1,,,,,イリス,0
1864,8011005010323,新規,0,2024-01-04,2024-01-04,一般社団法人ナラティヴ・アプローチ研究室,,その他の設立登記法人,東京都,渋谷区,恵比寿２丁目２８番１０号,,13,113,1500013,,,,,,,2024-01-04,1,,,,,ナラティヴアプローチケンキュウシツ,0
1869,8011103013913,新規,0,2024-01-04,2024-01-04,クラリス合同会社,,合同会社,東京都,新宿区,四谷４丁目３２番８号ＹＫＢサニービル６階,,13,104,1600004,,,,,,,2024-01-04,1,,,,,クラリス,0
1871,8011503005898,新規,0,2024-01-04,2024-01-04,合同会社ｉｗａｎｏ,,合同会社,東京都,荒川区,東尾久６丁目９番地２１－２０５号,,13,118,1160012,,,,,,,2024-01-04,1,,,,,イワノ,0
1873,8011801043600,新規,0,2024-01-04,2024-01-04,株式会社ライトカーゴ運送,,株式会社,東京都,足立区,興野２丁目４番５号ＬｉｇｈｔＷｉｎ１０１,,13,121,1230844,,,,,,,2024-01-04,1,,,,,ライトカーゴウンソウ,0
1885,8013301051851,新規,0,2024-01-04,2024-01-04,株式会社ＢｅＣｏｌｏｒｆｕｌ,,株式会社,東京都,豊島区,西池袋２丁目９番９号,,13,116,1710021,,,,,,,2024-01-04,1,,,,,ビーカラフル,0
1893,8020001155115,新規,0,2024-01-04,2024-01-04,株式会社ＴＡＪ　ＡＵＴＯ　ＴＲＡＤＩＮＧ　ＬＴＤ,,株式会社,神奈川県,横浜市中区,長者町５丁目７５番地１スクエア長者町７１３号室,,14,104,2310033,,,,,,,2024-01-04,1,,,,,ティーエージェイオートトレーディングエルティーディ,0
1894,8020001155131,新規,0,2024-01-04,2024-01-04,株式会社ソワレ東京,,株式会社,神奈川県,横浜市西区,楠町１４番地１９ＺＯＯＭ横浜９１０号,,14,103,2200003,,,,,,,2024-01-04,1,,,,,ソワレトウキョウ,0
1899,8021001081111,新規,0,2024-01-04,2024-01-04,あずき株式会社,,株式会社,神奈川県,鎌倉市,小町３丁目１２番３０－２号,,14,204,2480006,,,,,,,2024-01-04,1,,,,,アズキ,0
1900,8021001081128,新規,0,2024-01-04,2024-01-04,株式会社ＡＣＲＯＶＩＱ,,株式会社,神奈川県,南足柄市,壗下１００７－１０,,14,217,2500103,,,,,,,2024-01-04,1,,,,,アクロビック,0
1901,8021001081136,新規,0,2024-01-04,2024-01-04,株式会社ジャスティス,,株式会社,神奈川県,愛甲郡愛川町,中津５７１番地の１,,14,401,2430303,,,,,,,2024-01-04,1,,,,,ジャスティス,0
1905,8021003013962,新規,0,2024-01-04,2024-01-04,合同会社ｅｔａｇｅｒｅ,,合同会社,神奈川県,藤沢市,鵠沼石上１丁目５番９号メガサイエンスビル６Ｆ,,14,205,2510025,,,,,,,2024-01-04,1,,,,,エタジーレ,0
1906,8021003013979,新規,0,2024-01-04,2024-01-04,ＴＤＣ　ＧＲＯＵＰ合同会社,,合同会社,神奈川県,大和市,南林間１丁目８番２号,,14,213,2420006,,,,,,,2024-01-04,1,,,,,ティーディーシーグループ,0
1920,8050001054033,新規,0,2024-01-04,2024-01-04,株式会社イイズミ,,株式会社,茨城県,土浦市,真鍋６丁目１番１７号,,08,203,3000051,,,,,,,2024-01-04,1,,,,,イイズミ,0
1922,8050005013373,新規,0,2024-01-04,2024-01-04,一般社団法人ＡＶＡＮＴＩ,,その他の設立登記法人,茨城県,つくば市,田中１２８７番地,,08,220,3004244,,,,,,,2024-01-04,1,,,,,アヴァンティ,0
1923,8060001036682,新規,0,2024-01-04,2024-01-04,株式会社ＬＩＶＥ　ＬＩＶＥＬＹ,,株式会社,栃木県,那須塩原市,大原間１１９番地１０,,09,213,3293153,,,,,,,2024-01-04,1,,,,,リブライブリー,0
1950,8120001260689,新規,0,2024-01-04,2024-01-04,株式会社日宝,,株式会社,大阪府,門真市,常称寺町２０－２１,,27,223,5710063,,,,,,,2024-01-04,1,,,,,ニッポウ,0
1951,8120001261027,新規,0,2024-01-04,2024-01-04,匠心株式会社,,株式会社,大阪府,大阪市北区,本庄西３丁目６番２号ハイムリバーサイド４Ｂ,,27,127,5310073,,,,,,,2024-01-04,1,,,,,ショウシン,0
1952,8120001261035,新規,0,2024-01-04,2024-01-04,金＿株式会社,00133167,株式会社,大阪府,大阪市西成区,聖天下２丁目９－８,,27,122,5570012,,,,,,,2024-01-04,1,,,,,キンキン,0
1953,8120001261043,新規,0,2024-01-04,2024-01-04,株式会社クラルス,,株式会社,大阪府,大阪市西区,南堀江２丁目１０番１５号,,27,106,5500015,,,,,,,2024-01-04,1,,,,,クラルス,0
1954,8120001261068,新規,0,2024-01-04,2024-01-04,ムム株式会社,,株式会社,大阪府,大阪市生野区,小路東２丁目５番１５号,,27,116,5440003,,,,,,,2024-01-04,1,,,,,ムム,0
1955,8120001261084,新規,0,2024-01-04,2024-01-04,株式会社ベルンホーム,,株式会社,大阪府,大阪市天王寺区,六万体町５番２７号,,27,109,5430074,,,,,,,2024-01-04,1,,,,,ベルンホーム,0
1956,8120003025603,新規,0,2024-01-04,2024-01-04,ライノ合同会社,,合同会社,大阪府,大阪市東住吉区,照ケ丘矢田３丁目２２番６号,,27,121,5460021,,,,,,,2024-01-04,1,,,,,ライノ,0
1957,8120003025611,新規,0,2024-01-04,2024-01-04,合同会社野口工務店,,合同会社,大阪府,大阪市中央区,南本町２丁目３番１２号ＥＤＧＥ本町３－４Ｆ、ＴＨＥＣＯＤＥ大阪本町,,27,128,5410054,,,,,,,2024-01-04,1,,,,,ノグチコウムテン,0
1959,8120005024066,新規,0,2024-01-04,2024-01-04,一般社団法人みつばち,,その他の設立登記法人,大阪府,大阪市住之江区,南加賀屋４丁目７番２２号,,27,125,5590015,,,,,,,2024-01-04,1,,,,,ミツバチ,0
1961,8120101068818,新規,0,2024-01-04,2024-01-04,吉田商事株式会社,,株式会社,大阪府,泉南市,新家３５６４－２,,27,228,5900503,,,,,,,2024-01-04,1,,,,,ヨシダショウジ,0
1967,8120903004986,新規,0,2024-01-04,2024-01-04,合同会社マイキャッスル,,合同会社,大阪府,茨木市,学園南町５番１３号,,27,211,5670834,,,,,,,2024-01-04,1,,,,,マイキャッスル,0
1969,8130001076036,新規,0,2024-01-04,2024-01-04,株式会社ＨＡＲＵ,,株式会社,京都府,宇治市,開町６番地３,,26,204,6110026,,,,,,,2024-01-04,1,,,,,ハル,0
1970,8130001076044,新規,0,2024-01-04,2024-01-04,株式会社日創,,株式会社,京都府,城陽市,寺田深谷６４番地２１１,,26,207,6100121,,,,,,,2024-01-04,1,,,,,ニッソウ,0
1971,8130001076060,新規,0,2024-01-04,2024-01-04,株式会社ツバイ,,株式会社,京都府,京都市西京区,大枝沓掛町２６－３６０,,26,111,6101106,,,,,,,2024-01-04,1,,,,,ツバイ,0
1978,8140003019990,新規,0,2024-01-04,2024-01-04,合同会社ａｓａｃｈｉｂｏ,,合同会社,兵庫県,神戸市垂水区,五色山１丁目１番４５－４１１号,,28,108,6550035,,,,,,,2024-01-04,1,,,,,アサチボ,0
1980,8140005026886,新規,0,2024-01-04,2024-01-04,医療法人社団ＳＵＭＩＤＡ　ＤＥＮＴＡＬ　ＣＬＩＮＩＣ,,その他の設立登記法人,兵庫県,尼崎市,武庫之荘１丁目３７番１４号,,28,202,6610035,,,,,,,2024-01-04,1,,,,,スミダデンタルクリニック,0
1982,8150005009543,新規,0,2024-01-04,2024-01-04,特定非営利活動法人宇陀ジビエ推進協議会,,その他の設立登記法人,奈良県,宇陀市,室生田口元上田口１３９５番地,,29,212,6330424,,,,,,,2024-01-04,1,,,,,ウダジビエスイシンキョウギカイ,0
1987,8180001159546,新規,0,2024-01-04,2024-01-04,株式会社ｉｎｋｕ,,株式会社,愛知県,名古屋市中村区,名駅４丁目２４番５号第２森ビル４０１,,23,105,4500002,,,,,,,2024-01-04,1,,,,,インク,0
1988,8180001159570,新規,0,2024-01-04,2024-01-04,株式会社良洋,,株式会社,愛知県,名古屋市中区,千代田５丁目２２番９号,,23,106,4600012,,,,,,,2024-01-04,1,,,,,リョウヨウ,0
1989,8180001159579,新規,0,2024-01-04,2024-01-04,株式会社フェーズワン,,株式会社,愛知県,名古屋市中区,千代田１丁目１０番１６号ネスパルドイブ５０３,,23,106,4600012,,,,,,,2024-01-04,1,,,,,フェーズワン,0
1990,8180001159629,新規,0,2024-01-04,2024-01-04,株式会社貝モ,,株式会社,愛知県,名古屋市緑区,大高町字西千正坊１８番地の２,,23,114,4598001,,,,,,,2024-01-04,1,,,,,カイモ,0
1993,8180003026117,新規,0,2024-01-04,2024-01-04,ＨＩＲＡＮＯ　ＣＯＲＰＯＲＡＴＩＯＮ合同会社,,合同会社,愛知県,豊明市,二村台２丁目１３番地９,,23,229,4701131,,,,,,,2024-01-04,1,,,,,ヒラノコーポレーション,0
1998,8190001030978,新規,0,2024-01-04,2024-01-04,浦木本店株式会社,,株式会社,三重県,南牟婁郡紀宝町,成川８５６番地,,24,562,5195713,,,,,,,2024-01-04,1,,,,,ウラキホンテン,0
1999,8190001030994,新規,0,2024-01-04,2024-01-04,リフォーム工房ｈｍ株式会社,,株式会社,三重県,四日市市,大字西阿倉川１１３９番地７,,24,202,5100812,,,,,,,2024-01-04,1,,,,,リフォームコウボウエイチエム,0
2001,8200001042030,新規,0,2024-01-04,2024-01-04,株式会社ＥＤＩＳＯＮ,,株式会社,岐阜県,岐阜市,柳津町丸野２丁目２８番地１,,21,201,5016115,,,,,,,2024-01-04,1,,,,,エジソン,0
2003,8220003003648,新規,0,2024-01-04,2024-01-04,合同会社Ｒｅｔｕｒｎ,,合同会社,石川県,金沢市,間明町２丁目５５,,17,201,9218005,,,,,,,2024-01-04,1,,,,,リターン,0
2008,8260001038618,新規,0,2024-01-04,2024-01-04,株式会社しろ,,株式会社,岡山県,倉敷市,玉島黒崎新町２番地１８,,33,202,7138127,,,,,,,2024-01-04,1,,,,,シロ,0
2015,8290001104235,新規,0,2024-01-04,2024-01-04,株式会社フジキカイ,,株式会社,福岡県,柳川市,三橋町蒲船津字数珠丸４３５番９号,,40,207,8320827,,,,,,,2024-01-04,1,,,,,フジキカイ,0
2016,8290001104251,新規,0,2024-01-04,2024-01-04,株式会社ｅｂｉｓ,,株式会社,福岡県,福岡市中央区,平尾１丁目９番２－２０１号,,40,133,8100014,,,,,,,2024-01-04,1,,,,,エビス,0
2022,8290801030184,新規,0,2024-01-04,2024-01-04,株式会社音仁,,株式会社,福岡県,北九州市小倉北区,白銀２丁目１０番２号,,40,106,8020074,,,,,,,2024-01-04,1,,,,,オト,0
2023,8300001013574,新規,0,2024-01-04,2024-01-04,株式会社ロコワールド,,株式会社,佐賀県,小城市,三日月町金田１１７８番地１,,41,208,8450032,,,,,,,2024-01-04,1,,,,,ロコワールド,0
2036,8360003013583,新規,0,2024-01-04,2024-01-04,合同会社ＢＡＳＥ,,合同会社,沖縄県,那覇市,古波蔵２丁目３２番１７号,,47,201,9000024,,,,,,,2024-01-04,1,,,,,ベース,0
2042,8420001018537,新規,0,2024-01-04,2024-01-04,株式会社Ｉｎｄｉｇｏ　Ｍａｔｅｒｉａｌ,,株式会社,青森県,青森市,奥野４丁目１４番７号,,02,201,0300841,,,,,,,2024-01-04,1,,,,,インディゴマテリアル,0
2053,8500003003165,新規,0,2024-01-04,2024-01-04,合同会社スリー・エー・エヒメ,,合同会社,愛媛県,松山市,来住町１１７５番地１コーポラスＡＣ－Ｖ５０２号,00133174,38,201,7911102,,,,,,,2024-01-04,1,,,,,スリーエーエヒメ,0
2054,8700150123191,新規,0,2024-01-04,2024-01-04,ｓｈｅｎ　ｚｈｅｎ　ｓｈｉ　ｂｅｉｊｉａｅｒ　ｓｈｉ　ｙｅ　ｙｏｕ　ｘｉａｎ　ｇｏｎｇ　ｓｉ,,外国会社等,,,,,,,,ｓｈｅｎ　ｚｈｅｎ　ｓｈｉ　ｌｕｏ　ｈｕ　ｑｕ　ｈｕａｎｇ　ｂｅｉ　ｊｉｅ　ｄａｏ　ｗｅｎ　ｊｉｎ　ｎａｎ　ｌｕ　ｙｕ　ｆｅｎｇ　ｔｉｎｇ　１ｄｏｎｇ　１６０１ｓｈｉ，Ｓｈｅｎ　ｚｈｅｎ，Ｇｕａｎｇ　ｄｏｎｇ,,,,,,2024-01-04,1,,,,,シンセンシベイジヤアイインダストリーカンパニリミテツド,0
2055,8700150123200,新規,0,2024-01-04,2024-01-04,Ｓｈｅｎｚｈｅｎｓｈｉ　Ｓｈｉｌｉａｎ　Ｔｅｃｈｎｏｌｏｇｙ　Ｃｏ．，Ｌｔｄ．,,外国会社等,,,,,,,,Ｓｈｅｎｚｈｅｎ　Ｆｕｔｉａｎ　ｌｉａｎｈｕａｊｉｅｄａｏ　ｍｅｉｆｕｓｈｅｑｕｘｉｎｓｈｉｃｕｎ４７，４７－１ｈａｏ４７－１ｈａｏ１０１,,,,,,2024-01-04,1,,,,,シエンジエンシーシーリエンコーアジーヨウシエンゴーンスー,0
2056,8700150123209,新規,0,2024-01-04,2024-01-04,Ｇｉｎｋｇｏ　Ｔｒａｄｅ　Ｃｏ．Ｌｉｍｉｔｅｄ,,外国会社等,,,,,,,,Ｆｌａｔ／ＲＭ　１０１２Ａ　１０／Ｆ　Ｃｏｒｐｏｒａｔｉｏｎ　Ｐａｒｋ　１１　Ｏｎ　Ｌａｉ　Ｓｔｒｅｅｔ　Ｓｈａｔｉｎ　Ｈｏｎｇ　Ｋｏｎｇ,,,,,,2024-01-04,1,,,,,ギンクゴートレードコーポレーシヨンリミテツド,0
2057,8700150123217,新規,0,2024-01-04,2024-01-04,Ｈｕｎａｎ　Ｊｕｘｉａｎｇ　ｅｃｏｍｍｅｒｃｅ　Ｃｏ．，ＬＴＤ,,外国会社等,,,,,,,,Ａｎｔｉｍｏｎｙ　ｃｉｔｙ，Ｌｅｎｇｓｈｕｉｊｉａｎｇ　Ｓｔｒｅｅｔ，Ｌｅｎｇｓｈｕｉｊｉａｎｇ　Ｃｉｔｙ，Ｌｏｕｄｉ　Ｃｉｔｙ，Ｈｕｎａｎ　Ｐｒｏｖｉｎｃｅ　Ｒｏｏｍ　１３２１０５，１３ｔｈ　Ｆｌｏｏｒ，Ｆｉｌｍ　ａｎｄ　Ｔｅｌｅｖｉｓｉｏｎ　Ｉｎｔｅｒｎａｔｉｏｎａｌ　Ｂｕｓｉｎｅｓｓ　Ｃｅｎｔｅｒ　Ｂｕｉｌｄｉｎｇ　ａｒｅａ,,,,,,2024-01-04,1,,,,,フーナンシヨンジーシヤンデイエンズーシヤンウーヨウシエンゴンスー,0
2058,8700150123225,新規,0,2024-01-04,2024-01-04,ＫＩ　ＭＥＭＢＥＲ　ＬＩＭＩＴＥＤ,,外国会社等,東京都,千代田区,霞が関３丁目２－６東京倶楽部ビルディング６階　ロイズ・ジャパン株式会社内,,13,101,1000013,Ｏｎｅ　Ｌｉｍｅ　Ｓｔｒｅｅｔ，Ｌｏｎｄｏｎ　ＥＣ３Ｍ　７ＨＡ　ＵＫ,,,,,,2024-01-04,1,,,,,ケイアイメンバーリミテツド,0
2059,8700150123233,新規,0,2024-01-04,2024-01-04,Ｌａｋｅ　ＵＴＧ　Ｌｉｍｉｔｅｄ,,外国会社等,東京都,千代田区,霞が関３丁目２－６東京倶楽部ビルディング６階　ロイズ・ジャパン株式会社内,,13,101,1000013,Ｏｎｅ　Ｌｉｍｅ　Ｓｔｒｅｅｔ，Ｌｏｎｄｏｎ　ＥＣ３Ｍ　７ＨＡ　ＵＫ,,,,,,2024-01-04,1,,,,,レイクアンダーライテイングリミテツド,0
2060,8700150123241,新規,0,2024-01-04,2024-01-04,ＰＨＡＮＴＯＭ　ＨＯＬＤＩＮＧＳ　ＬＩＭＩＴＥＤ,,外国会社等,,,,,,,,香港クイーンズロードセントラル３７号ユウトゥサンビル４０９号室,,,,,,2024-01-04,1,,,,,フアントムホールデイングスカブシキガイシヤ,0
2063,9010001240800,新規,0,2024-01-04,2024-01-04,ラディックス株式会社,,株式会社,東京都,中央区,銀座１丁目２２番１１号銀座大竹ビジデンス２,,13,102,1040061,,,,,,,2024-01-04,1,,,,,ラディックス,0
2064,9010001241187,新規,0,2024-01-04,2024-01-04,株式会社ｔｅｔｏｗａ,,株式会社,東京都,文京区,千石２丁目１７番１１号,,13,105,1120011,,,,,,,2024-01-04,1,,,,,テトワ,0
2067,9010401179481,新規,0,2024-01-04,2024-01-04,株式会社７Ａ　ＰＬＵＳ,,株式会社,東京都,港区,南青山２丁目２番１５号ＷＩＮ青山５３１,,13,103,1070062,,,,,,,2024-01-04,1,,,,,セブンエープラス,0
2068,9010401179498,新規,0,2024-01-04,2024-01-04,株式会社ｂｅｃｏｍｐａｎｙ,,株式会社,東京都,港区,赤坂５丁目１番３４号クウォーターハウスビル地下１階,,13,103,1070052,,,,,,,2024-01-04,1,,,,,ビーカンパニー,0
2069,9010401179515,新規,0,2024-01-04,2024-01-04,徳迅日本集団株式会社,,株式会社,東京都,港区,六本木６丁目１０番１号六本木ヒルズ森タワー１６階１６４５,,13,103,1060032,,,,,,,2024-01-04,1,,,,,トクジンニホンシュウダン,0
2072,9010405022794,新規,0,2024-01-04,2024-01-04,一般社団法人ワールドイノベーションジャパン,,その他の設立登記法人,東京都,港区,虎ノ門３丁目１８番６号朝日虎ノ門マンション６１４号室,,13,103,1050001,,,,,,,2024-01-04,1,,,,,ワールドイノベーションジャパン,0
2075,9010601064426,新規,0,2024-01-04,2024-01-04,株式会社スミス,,株式会社,東京都,江東区,豊洲３丁目６番８－３２１０号,,13,108,1350061,,,,,,,2024-01-04,1,,,,,,0
2083,9010901054465,新規,0,2024-01-04,2024-01-04,株式会社クリオ,,株式会社,東京都,世田谷区,赤堤４丁目３番３号,,13,112,1560044,,,,,,,2024-01-04,1,,,,,クリオ,0
2085,9010903008700,新規,0,2024-01-04,2024-01-04,合同会社ｎｏ．２９,,合同会社,東京都,世田谷区,千歳台６丁目１４－２サンコート千歳台１０５,,13,112,1570071,,,,,,,2024-01-04,1,,,,,ナンバーニジュウキュウ,0
2086,9010905004565,新規,0,2024-01-04,2024-01-04,一般社団法人アンターミナル,,その他の設立登記法人,東京都,世田谷区,北沢３丁目２番１１号,,13,112,1550031,,,,,,,2024-01-04,1,,,,,アンターミナル,0
2095,9011001159072,新規,0,2024-01-04,2024-01-04,株式会社Ｔ＆Ｔ,,株式会社,東京都,渋谷区,恵比寿西２丁目４番８号ウィンド恵比寿ビル８Ｆ,,13,113,1500021,,,,,,,2024-01-04,1,,,,,ティーアンドティー,0
2096,9011001159089,新規,0,2024-01-04,2024-01-04,株式会社ａｌｖａｎａ,,株式会社,東京都,渋谷区,神宮前２丁目１４番７－３０１号,,13,113,1500001,,,,,,,2024-01-04,1,,,,,アルヴァナ,0
2099,9011101105678,新規,0,2024-01-04,2024-01-04,株式会社オフィスＢＢ,,株式会社,東京都,新宿区,西早稲田２丁目２０番５－１１０２号,,13,104,1690051,,,,,,,2024-01-04,1,,,,,オフィスビービー,0
2100,9011101105711,新規,0,2024-01-04,2024-01-04,ＷＥ　ＫＮＯＷ株式会社,,株式会社,東京都,新宿区,西新宿６丁目１６番６号新宿タツミビル１００２,,13,104,1600023,,,,,,,2024-01-04,1,,,,,ウィーノウ,0
2103,9011303005016,新規,0,2024-01-04,2024-01-04,合同会社ｉｋｏｉ　ｆｉｌｍｓ,,合同会社,東京都,杉並区,下高井戸２丁目２０番１４号,,13,115,1680073,,,,,,,2024-01-04,1,,,,,イコイフィルムズ,0
2106,9011401025741,新規,0,2024-01-04,2024-01-04,株式会社ブルーポート,,株式会社,東京都,板橋区,相生町１４番１－３１０号,,13,119,1740044,,,,,,,2024-01-04,1,,,,,ブルーポート,0
2108,9011501030154,新規,0,2024-01-04,2024-01-04,ＤｕａｌＤｅｐｔｈ株式会社,,株式会社,東京都,荒川区,南千住７丁目１８番６号,,13,118,1160003,,,,,,,2024-01-04,1,,,,,デュアルデプス,0
2109,9011501030170,新規,0,2024-01-04,2024-01-04,株式会社楊和,,株式会社,東京都,北区,東十条１丁目１５番１０号,,13,117,1140001,,,,,,,2024-01-04,1,,,,,ヨウワ,0
2113,9011701026893,新規,0,2024-01-04,2024-01-04,株式会社Ａ．Ｓ．Ｋ,,株式会社,東京都,江戸川区,西瑞江５丁目１７番地９３,,13,123,1340015,,,,,,,2024-01-04,1,,,,,エーエスケイ,0
2126,9020001155130,新規,0,2024-01-04,2024-01-04,株式会社ＡＸＩＡ,,株式会社,神奈川県,横浜市港北区,篠原東３丁目２４番１５号サンライフ峯岸Ａ－１０５,,14,109,2220022,,,,,,,2024-01-04,1,,,,,アクシア,0
2131,9020003025265,新規,0,2024-01-04,2024-01-04,合同会社みにはな,,合同会社,神奈川県,川崎市宮前区,鷺沼４丁目１７番地１鷺沼スカイマンション２０７,,14,136,2160004,,,,,,,2024-01-04,1,,,,,ミニハナ,0
2133,9021001081119,新規,0,2024-01-04,2024-01-04,ＴＯＹＡ株式会社,,株式会社,神奈川県,厚木市,宮の里２丁目３番８号,,14,212,2430216,,,,,,,2024-01-04,1,,,,,トオヤ,0
2134,9021001081135,新規,0,2024-01-04,2024-01-04,風早カンパニー株式会社,,株式会社,神奈川県,秦野市,平沢１８２番地１,,14,211,2570015,,,,,,,2024-01-04,1,,,,,カザハヤカンパニー,0
2135,9021001081151,新規,0,2024-01-04,2024-01-04,株式会社ＲＥＦＯＲＭ　ＲＥＸＥＬ,,株式会社,神奈川県,伊勢原市,伊勢原３丁目３２番３３号ガーデニアヒルズＩ２０５号,00133165,14,214,2591131,,,,,,,2024-01-04,1,,,,,リフォームレクセル,0
2139,9021003013961,新規,0,2024-01-04,2024-01-04,合同会社ＡＶＥ,,合同会社,神奈川県,鎌倉市,大船２０２８番地４７,,14,204,2470056,,,,,,,2024-01-04,1,,,,,エイヴィ,0
2150,9040001131559,新規,0,2024-01-04,2024-01-04,アリストペイント株式会社,,株式会社,千葉県,君津市,北子安３丁目１３番２号２０２,,12,225,2991161,,,,,,,2024-01-04,1,,,,,アリストペイント,0
2151,9040001131567,新規,0,2024-01-04,2024-01-04,喜彩りハウス株式会社,,株式会社,千葉県,野田市,船形１５６３番地の２,,12,208,2700233,,,,,,,2024-01-04,1,,,,,キイロドリハウス,0
2154,9040003024026,新規,0,2024-01-04,2024-01-04,合同会社ｖａｌｅｓ,,合同会社,千葉県,流山市,おおたかの森北３丁目３９番地の６,,12,220,2700119,,,,,,,2024-01-04,1,,,,,バルス,0
2156,9050001054065,新規,0,2024-01-04,2024-01-04,征和美装工業株式会社,,株式会社,茨城県,稲敷郡美浦村,大字信太２６５０番地,,08,442,3000414,,,,,,,2024-01-04,1,,,,,セイワビソウコウギョウ,0
2158,9060001036681,新規,0,2024-01-04,2024-01-04,株式会社ＡＲＫ,,株式会社,栃木県,宇都宮市,野沢町１８７番地１６１,,09,201,3200071,,,,,,,2024-01-04,1,,,,,アーク,0
2164,9070001041243,新規,0,2024-01-04,2024-01-04,株式会社ＲＡＺＡ　ＴＲＡＤＩＮＧ,,株式会社,群馬県,藤岡市,本郷４９５番１,,10,209,3750023,,,,,,,2024-01-04,1,,,,,ラザトレーディング,0
2166,9070003005221,新規,0,2024-01-04,2024-01-04,合同会社ファストリンク,,合同会社,群馬県,太田市,新田木崎町１１０２番地３,,10,205,3700321,,,,,,,2024-01-04,1,,,,,ファストリンク,0
2168,9080001026061,新規,0,2024-01-04,2024-01-04,株式会社カラフル,,株式会社,静岡県,静岡市駿河区,西脇１１４２番地の２,,22,102,4228044,,,,,,,2024-01-04,1,,,,,カラフル,0
2173,9100001037097,新規,0,2024-01-04,2024-01-04,株式会社榑木野ホールディングス,,株式会社,長野県,松本市,大字島立８５９番地,,20,202,3900852,,,,,,,2024-01-04,1,,,,,クレキノホールディングス,0
2191,9120001260985,新規,0,2024-01-04,2024-01-04,株式会社ＳＫＴ　ＩＮＴＥＲＮＡＴＩＯＮＡＬ,,株式会社,大阪府,大阪市北区,梅田１丁目２番２号大阪駅前第２ビル,,27,127,5300001,,,,,,,2024-01-04,1,,,,,エスケイティインターナショナル,0
2192,9120001261018,新規,0,2024-01-04,2024-01-04,株式会社グラシアス,,株式会社,大阪府,寝屋川市,打上高塚町１番３－１３３６,00133169,27,215,5720850,,,,,,,2024-01-04,1,,,,,グラシアス,0
2193,9120001261026,新規,0,2024-01-04,2024-01-04,株式会社ＡＧＲＥＥ,,株式会社,大阪府,大阪市北区,大淀中２丁目２番１８号グランステディ新梅田８０３号室,,27,127,5310076,,,,,,,2024-01-04,1,,,,,アグリー,0
2194,9120001261042,新規,0,2024-01-04,2024-01-04,株式会社Ｃｒｙｓｔａｌ,,株式会社,大阪府,守口市,河原町１４番地１２,,27,209,5700038,,,,,,,2024-01-04,1,,,,,クリスタル,0
2195,9120001261083,新規,0,2024-01-04,2024-01-04,株式会社ＭＧＰ,,株式会社,大阪府,大阪市中央区,平野町３丁目３番１１号,,27,128,5410046,,,,,,,2024-01-04,1,,,,,エムジーピー,0
2196,9120001261100,新規,0,2024-01-04,2024-01-04,秋一株式会社,,株式会社,大阪府,大阪市西成区,鶴見橋３丁目１０番３２号,,27,122,5570031,,,,,,,2024-01-04,1,,,,,アキイチ,0
2200,9120005024065,新規,0,2024-01-04,2024-01-04,一般社団法人ライツウィングス,,その他の設立登記法人,大阪府,大阪市鶴見区,諸口５丁目２番９号１階,,27,124,5380051,,,,,,,2024-01-04,1,,,,,ライツウィングス,0
2201,9120101068809,新規,0,2024-01-04,2024-01-04,株式会社Ｎアシスト,,株式会社,大阪府,堺市堺区,車之町西３丁１番１５号,,27,141,5900940,,,,,,,2024-01-04,1,,,,,エヌアシスト,0
2202,9120105009800,新規,0,2024-01-04,2024-01-04,一般社団法人泉佐野薬剤師会,,その他の設立登記法人,大阪府,泉佐野市,湊１丁目１番３０号泉佐野メディカルセンター内,,27,213,5980063,,,,,,,2024-01-04,1,,,,,イズミサノヤクザイシカイ,0
2204,9120901048588,新規,0,2024-01-04,2024-01-04,株式会社ウィング,,株式会社,大阪府,豊中市,上野東３丁目５番３号,,27,203,5600013,,,,,,,2024-01-04,1,,,,,ウィング,0
2206,9122003002762,新規,0,2024-01-04,2024-01-04,合同会社ノンポリ,,合同会社,大阪府,東大阪市,高井田中４丁目９番８号,,27,227,5770065,,,,,,,2024-01-04,1,,,,,ノンポリ,0
2208,9130001076019,新規,0,2024-01-04,2024-01-04,株式会社ＭＡＳＩＲＯ,,株式会社,京都府,京都市左京区,北白川瀬ノ内町２８－３,,26,103,6068253,,,,,,,2024-01-04,1,,,,,マシロ,0
2209,9130001076035,新規,0,2024-01-04,2024-01-04,株式会社Ｏｋｕｄａｌｏｈａ,,株式会社,京都府,城陽市,寺田北東西９７番地,,26,207,6100121,,,,,,,2024-01-04,1,,,,,オクロハ,0
2210,9130001076043,新規,0,2024-01-04,2024-01-04,株式会社名残工業,,株式会社,京都府,八幡市,八幡名残１番地の１,,26,210,6148023,,,,,,,2024-01-04,1,,,,,ナゴリコウギョウ,0
2211,9130001076051,新規,0,2024-01-04,2024-01-04,株式会社ＹＯＨＡＫＵ,,株式会社,京都府,京都市中京区,両替町通姉小路下る柿本町４１２番地,,26,104,6048173,,,,,,,2024-01-04,1,,,,,ヨハク,0
2212,9130001076076,新規,0,2024-01-04,2024-01-04,株式会社ディアリー,,株式会社,京都府,城陽市,寺田大谷１１５番地の２１２,,26,207,6100121,,,,,,,2024-01-04,1,,,,,ディアリー,0
2223,9140001132836,新規,0,2024-01-04,2024-01-04,ＬＥ株式会社,,株式会社,兵庫県,姫路市,丸尾町１２１番地１４・１Ｆ,,28,201,6700827,,,,,,,2024-01-04,1,,,,,リー,0
2226,9140003019998,新規,0,2024-01-04,2024-01-04,合同会社マツマイニ,,合同会社,兵庫県,神戸市長田区,片山町４丁目３番９号,,28,106,6530805,,,,,,,2024-01-04,1,,,,,マツマイニ,0
2229,9160001025600,新規,0,2024-01-04,2024-01-04,株式会社ｌｉｅｔｏ,,株式会社,滋賀県,彦根市,大堀町８８２番地５,,25,202,5220026,,,,,,,2024-01-04,1,,,,,リエート,0
2238,9180001159586,新規,0,2024-01-04,2024-01-04,株式会社Ｆｏｒｅｓｔ　Ｃａｔ,,株式会社,愛知県,稲沢市,祖父江町森上本郷三９１番地１,,23,220,4950011,,,,,,,2024-01-04,1,,,,,フォレストキャット,0
2239,9180001159594,新規,0,2024-01-04,2024-01-04,Ｃａｌｉｆｏｒｎｉａ　Ｓｋａｔｅｐａｒｋｓ株式会社,,株式会社,愛知県,名古屋市中村区,則武２丁目１４番１１号１３号室,,23,105,4530014,,,,,,,2024-01-04,1,,,,,カリフォルニアスケートパークス,0
2240,9180001159603,新規,0,2024-01-04,2024-01-04,ガイヘキランドリー株式会社,,株式会社,愛知県,名古屋市中村区,大秋町１丁目１番地,,23,105,4530042,,,,,,,2024-01-04,1,,,,,ガイヘキランドリー,0
2241,9180001159628,新規,0,2024-01-04,2024-01-04,株式会社レウト,,株式会社,愛知県,名古屋市中川区,新家３丁目１５１０番地,,23,110,4540972,,,,,,,2024-01-04,1,,,,,レウト,0
2250,9210001019588,新規,0,2024-01-04,2024-01-04,株式会社ＳＨＯＵＫＥＩ　ＧＲＯＵＰ３,,株式会社,福井県,福井市,文京３丁目３０番１３号,,18,201,9100017,,,,,,,2024-01-04,1,,,,,ショウケイグループスリー,0
2271,9290001104201,新規,0,2024-01-04,2024-01-04,株式会社ＳＹＮＥＲＧＹ,,株式会社,福岡県,福岡市中央区,大手門３丁目９番１２号１Ｆ,,40,133,8100074,,,,,,,2024-01-04,1,,,,,シナジー,0
2274,9330001031614,新規,0,2024-01-04,2024-01-04,株式会社ｃｒｏｓｓ．,,株式会社,熊本県,荒尾市,万田１１９８番地２,,43,204,8640002,,,,,,,2024-01-04,1,,,,,クロス,0
2275,9330001031622,新規,0,2024-01-04,2024-01-04,株式会社静花,,株式会社,熊本県,玉名市,中尾６番地１,,43,206,8650063,,,,,,,2024-01-04,1,,,,,シズカ,0
2280,9360001032964,新規,0,2024-01-04,2024-01-04,株式会社にほんのごはん,,株式会社,沖縄県,沖縄市,海邦２丁目２８番１７号,,47,211,9042162,,,,,,,2024-01-04,1,,,,,ニホンノゴハン,0
2281,9360001033021,新規,0,2024-01-04,2024-01-04,株式会社Ｍ＆Ｔ　ＨＯＬＤＩＮＧＳ,,株式会社,沖縄県,国頭郡金武町,字金武４３２３－１,,47,314,9041201,,,,,,,2024-01-04,1,,,,,エムアンドティーホールディングス,0
2288,9380003005652,新規,0,2024-01-04,2024-01-04,合同会社フォルテ,,合同会社,福島県,伊達郡川俣町,大字西福沢字檀ノ平１４―３,,07,308,9601404,,,,,,,2024-01-04,1,,,,,フォルテ,0
2292,9430001090749,新規,0,2024-01-04,2024-01-04,株式会社ＣＨＡＮＢＬＵＥ,,株式会社,北海道,札幌市中央区,北五条西１１丁目１５番地４ＢＹＹＡＲＤ,,01,101,0600005,,,,,,,2024-01-04,1,,,,,チェンブル,0
2293,9430001090773,新規,0,2024-01-04,2024-01-04,富樫組ホールディングス株式会社,,株式会社,北海道,三笠市,幾春別町４丁目２８４番地,,01,222,0682116,,,,,,,2024-01-04,1,,,,,トガシグミホールディングス,0
2300,9700150123199,新規,0,2024-01-04,2024-01-04,ｓｈｅｎｚｈｅｎｓｈｉｆｅｎｇｘｉｂａｏｋｅｊｉｙｏｕｘｉａｎｇｏｎｇｓｉ,,外国会社等,,,,,,,,Ｓｈｅｎｚｈｅｎｓｈｉｌｏｎｇｈｕａｑｕｌｏｎｇｈｕａｊｉｅｄａｏｓａｎｌｉａｎｓｈｅｑｕ　ｇｏｎｇｃｕｎｓｈｉｓａｎｘｉａｎｇ４ｈａｏ３０１　Ｓｈｅｎｚｈｅｎ　Ｇｕａｎｇｄｏｎｇ,,,,,,2024-01-04,1,,,,,シンセンシフオーシホウテクノロジーカンパニーリミテド,0
2301,9700150123208,新規,0,2024-01-04,2024-01-04,ＹＡＨＹＩＲＥＨ　ＰＴＥ　ＬＴＤ,,外国会社等,,,,,,,,８６１　Ｏｌｄ　Ｈｏｌｌａｎｄ　Ｒｏａｄ　＃０１－１３　Ｉｌｌｏｕｒａ　Ｓｉｎｇａｐｏｒｅ　２７８６８４,00133137,,,,,2024-01-04,1,,,,,ヤーイレピーテイーイーリミテツド,0
2302,9700150123216,新規,0,2024-01-04,2024-01-04,Ｈｕｎａｎ　ｆｒｅｑｕｅｎｃｙ　ｅｌｅｃｔｒｏｎｉｃ　ｃｏｍｍｅｒｃｅ　Ｃｏ．，ＬＴＤ,,外国会社等,,,,,,,,Ｎｏ．０１１，ｔｈｅ　ｔｈｉｒｄ　ｖｉｌｌａｇｅｒ　Ｇｒｏｕｐ，Ｗｅｎｔｉａｎ　Ｖｉｌｌａｇｅ，Ｗｅｎｔｉａｎ　Ｔｏｗｎ，Ｘｉｎｈｕａ　Ｃｏｕｎｔｙ，Ｌｏｕｄｉ　Ｃｉｔｙ，Ｈｕｎａｎ　Ｐｒｏｖｉｎｃｅ,,,,,,2024-01-04,1,,,,,フーナンシヨンピンジーデイエンズーシヤンウーヨウシエンゴンスー,0
2303,9700150123224,新規,0,2024-01-04,2024-01-04,ＳＩＬＯ　Ｃｏｒｐｏｒａｔｅ　Ｍｅｍｂｅｒ　Ｎｏ．１　Ｌｉｍｉｔｅｄ,,外国会社等,東京都,千代田区,霞が関３丁目２－６東京倶楽部ビルディング６階　ロイズ・ジャパン株式会社内,,13,101,1000013,Ｏｎｅ　Ｌｉｍｅ　Ｓｔｒｅｅｔ，Ｌｏｎｄｏｎ　ＥＣ３Ｍ　７ＨＡ　ＵＫ,,,,,,2024-01-04,1,,,,,エスアイエルオーコーポレートメンバーナンバーワンリミテツド,0
2304,9700150123232,新規,0,2024-01-04,2024-01-04,Ｎｅｐｈｉｌａ　Ｃｏｒｐｏｒａｔｅ　Ｍｅｍｂｅｒ（Ｎｏ．１）Ｌｔｄ,,外国会社等,東京都,千代田区,霞が関３丁目２－６東京倶楽部ビルディング６階　ロイズ・ジャパン株式会社内,,13,101,1000013,Ｏｎｅ　Ｌｉｍｅ　Ｓｔｒｅｅｔ，Ｌｏｎｄｏｎ　ＥＣ３Ｍ　７ＨＡ　ＵＫ,,,,,,2024-01-04,1,,,,,ネフイラコーポレートメンバーナンバーワンリミテツド,0
2305,9700150123240,新規,0,2024-01-04,2024-01-04,深セン市念恩貿易有限公司,,外国会社等,,,,,,,,中国深セン市龍崗区横崗街道横崗社区裕民街３６号５０６,,,,,,2024-01-04,1,,,,,シンセンシネンオンボウエキユウゲンコウシ,0
2306,9700150123249,新規,0,2024-01-04,2024-01-04,Ｈｅｓｕｎｇ　Ｉｎｎｏｖａｔｉｏｎ　Ｃｏｒｐ,,外国会社等,,,,,,,,３７７　Ｖａｌｌｅｙ　Ｒｄ，Ｕｎｉｔ　＃２６８６，Ｃｌｉｆｔｏｎ，ＮＪ，ＵＳ,,,,,,2024-01-04,1,,,,,ヘソンイノベーシヨンカブシキガイシヤ,0
