sequenceNumber,corporateNumber,process,correct,updateDate,changeDate,name,nameImageId,kind,prefectureName,cityName,streetNumber,addressImageId,prefectureCode,cityCode,postCode,addressOutside,addressOutsideImageId,closeDate,closeCause,successorCorporateNumber,changeCause,assignmentDate,latest,enName,enPrefectureName,enCityName,enAddressOutside,furigana,hihyoji
9,1010001236054,新規,0,2023-06-14,2023-06-14,シーエイチエムエレクトリカル株式会社,,株式会社,東京都,中央区,勝どき６丁目３番２－２１０８号,,13,102,1040054,,,,,,,2023-06-14,1,,,,,シーエイチエムエレクトリカル,0
12,1010101015688,新規,0,2023-06-14,2023-06-14,株式会社Ｓｕｎ・Ｇｒａｃｅ,,株式会社,東京都,八王子市,元本郷町３丁目１７番１２号庚辰ビル３０２,,13,201,1920051,,,,,,,2023-06-14,1,,,,,サングレイス,0
25,1010403030344,新規,0,2023-06-14,2023-06-14,Ａｇａｒｕｕ合同会社,,合同会社,東京都,港区,白金２丁目１番８号,,13,103,1080072,,,,,,,2023-06-14,1,,,,,アガルウ,0
28,1010601063253,新規,0,2023-06-14,2023-06-14,株式会社Ｂｌｕｅ　Ｒｏｃｋｅｔ,,株式会社,東京都,江東区,有明１丁目５番２号ブリリア有明シティタワー３１０３,,13,108,1350063,,,,,,,2023-06-14,1,,,,,ブルーロケット,0
35,1010803004575,新規,0,2023-06-14,2023-06-14,合同会社旭,,合同会社,東京都,大田区,大森西１丁目１４番１３号,,13,111,1430015,,,,,,,2023-06-14,1,,,,,アサヒ,0
43,1011001155070,新規,0,2023-06-14,2023-06-14,株式会社ＮＥＡＴ,,株式会社,東京都,目黒区,緑が丘２丁目１１番３号,,13,110,1520034,,,,,,,2023-06-14,1,,,,,ニート,0
46,1011003016997,新規,0,2023-06-14,2023-06-14,プラスエステ合同会社,,合同会社,東京都,渋谷区,道玄坂１丁目１０番８号渋谷道玄坂東急ビル２Ｆ－Ｃ,,13,113,1500043,,,,,,,2023-06-14,1,,,,,プラスエステ,0
47,1011003017013,新規,0,2023-06-14,2023-06-14,合同会社ＢＬＵＥ　ＲＩＶＥＲ,,合同会社,東京都,渋谷区,神泉町１０番１５号,,13,113,1500045,,,,,,,2023-06-14,1,,,,,ブルーリバー,0
52,1011101103078,新規,0,2023-06-14,2023-06-14,株式会社Ｆｒａｔｚ,,株式会社,東京都,新宿区,西早稲田２丁目１８－３２スケール５０１号室,,13,104,1690051,,,,,,,2023-06-14,1,,,,,フラッツ,0
54,1011203004109,新規,0,2023-06-14,2023-06-14,合同会社ＣＡＲＺ,,合同会社,東京都,中野区,丸山１丁目１９番６号,,13,114,1650021,,,,,,,2023-06-14,1,,,,,カーズ,0
55,1011301028785,新規,0,2023-06-14,2023-06-14,株式会社スタジオケイブ,,株式会社,東京都,杉並区,高円寺南４丁目２６番１６号芦野ビル２０１,,13,115,1660003,,,,,,,2023-06-14,1,,,,,スタジオケイブ,0
57,1011401025204,新規,0,2023-06-14,2023-06-14,株式会社ミナパ,,株式会社,東京都,板橋区,弥生町５８番１号,,13,119,1730021,,,,,,,2023-06-14,1,,,,,ミナパ,0
59,1011601026885,新規,0,2023-06-14,2023-06-14,株式会社Ｌａ　ＧＬＯＩＲＥ,,株式会社,東京都,練馬区,下石神井６丁目２８番２号Ｈ室,,13,120,1770042,,,,,,,2023-06-14,1,,,,,ラグロワール,0
60,1011601026893,新規,0,2023-06-14,2023-06-14,株式会社Ｔａｎｇｏ　Ｑｕｅｒｉｄｏ,,株式会社,東京都,練馬区,富士見台３丁目２２番１９号,,13,120,1770034,,,,,,,2023-06-14,1,,,,,タンゴケリード,0
71,1012403006027,新規,0,2023-06-14,2023-06-14,合同会社神倉,,合同会社,東京都,三鷹市,深大寺２丁目１２番７号,,13,204,1810016,,,,,,,2023-06-14,1,,,,,カミクラ,0
77,1012803003103,新規,0,2023-06-14,2023-06-14,合同会社櫟木商事,,合同会社,東京都,立川市,錦町４丁目１１番１２号,,13,202,1900022,,,,,,,2023-06-14,1,,,,,イチノキショウジ,0
84,1020001151970,新規,0,2023-06-14,2023-06-14,株式会社まちづくり研究所,,株式会社,神奈川県,川崎市川崎区,四谷下町２０番１９号１０３,,14,131,2100827,,,,,,,2023-06-14,1,,,,,,0
85,1020001152036,新規,0,2023-06-14,2023-06-14,株式会社八和建設,,株式会社,神奈川県,横浜市瀬谷区,下瀬谷２丁目１９番地７セジュール下瀬谷Ｅ１０１,,14,114,2460035,,,,,,,2023-06-14,1,,,,,ハチワケンセツ,0
86,1020001152060,新規,0,2023-06-14,2023-06-14,株式会社クロスウィズユー,,株式会社,神奈川県,川崎市川崎区,駅前本町１１番地２川崎フロンティアビル４階,,14,131,2100007,,,,,,,2023-06-14,1,,,,,クロスウィズユー,0
87,1020001152077,新規,0,2023-06-14,2023-06-14,株式会社ａｄｗｉｚ,,株式会社,神奈川県,横浜市中区,上野町１丁目２０番地９,,14,104,2310842,,,,,,,2023-06-14,1,,,,,アドウィズ,0
89,1020003024051,新規,0,2023-06-14,2023-06-14,合同会社ウエスト,,合同会社,神奈川県,横浜市旭区,中沢１丁目１４－１９,,14,112,2410814,,,,,,,2023-06-14,1,,,,,ウエスト,0
91,1021001079327,新規,0,2023-06-14,2023-06-14,横浜総合株式会社,,株式会社,神奈川県,大和市,福田１４１２番地９,,14,213,2420024,,,,,,,2023-06-14,1,,,,,ヨコハマソウゴウ,0
93,1021003013218,新規,0,2023-06-14,2023-06-14,ＡＢＥ合同会社,,合同会社,神奈川県,大和市,深見西１丁目３番３号ＲＡＲＡ大和第３－２０２,,14,213,2420018,,,,,,,2023-06-14,1,,,,,アベ,0
96,1030001154007,新規,0,2023-06-14,2023-06-14,株式会社Ｏｆｆｉｃｅ‐ＨＡＬ,,株式会社,埼玉県,上尾市,柏座３丁目２番６号フィーリア上尾１１５,,11,219,3620075,,,,,,,2023-06-14,1,,,,,オフィスハル,0
100,1030003021931,新規,0,2023-06-14,2023-06-14,合同会社ＭＵＲＡ　ＴＲＡＤＩＮＧ,,合同会社,埼玉県,行田市,持田１丁目１５番１８号サンハイツ持田３０３,,11,206,3610056,,,,,,,2023-06-14,1,,,,,ムラトレーディング,0
104,1040001128769,新規,0,2023-06-14,2023-06-14,ＩｔｏＲｙｏ株式会社,,株式会社,千葉県,白井市,桜台２丁目４番１０棟１０１号,,12,232,2701412,,,,,,,2023-06-14,1,,,,,イトリョー,0
105,1040001128827,新規,0,2023-06-14,2023-06-14,株式会社マクノウチ,,株式会社,千葉県,千葉市中央区,生実町８３２番地３Ｂ棟,,12,101,2600813,,,,,,,2023-06-14,1,,,,,マクノウチ,0
106,1040001128835,新規,0,2023-06-14,2023-06-14,株式会社グローイングアップ,,株式会社,千葉県,野田市,みずき２丁目２０番地７１,,12,208,2780027,,,,,,,2023-06-14,1,,,,,グローイングアップ,0
107,1040001128843,新規,0,2023-06-14,2023-06-14,株式会社ワールドウイング,,株式会社,千葉県,松戸市,西馬橋３２小林ビル３０２,,12,207,2700000,,,,,,,2023-06-14,1,,,,,ワールドウイング,0
113,1050001052984,新規,0,2023-06-14,2023-06-14,松崎財閥株式会社,,株式会社,茨城県,古河市,磯部２７番地ビレッジハウス総和２－５０２号,,08,204,3060225,,,,,,,2023-06-14,1,,,,,,0
114,1050001052992,新規,0,2023-06-14,2023-06-14,万盛商事株式会社,,株式会社,茨城県,筑西市,藤ケ谷１６７３番地２,,08,227,3080112,,,,,,,2023-06-14,1,,,,,バンセイショウジ,0
121,1050005013280,新規,0,2023-06-14,2023-06-14,税理士法人出口会計事務所,,その他の設立登記法人,茨城県,潮来市,日の出８丁目４番地１７,,08,223,3112423,,,,,,,2023-06-14,1,,,,,デグチカイケイジムショ,0
138,1080401026536,新規,0,2023-06-14,2023-06-14,株式会社フラットスリー,,株式会社,静岡県,浜松市北区,細江町中川７３４６番地,,22,135,4311304,,,,,,,2023-06-14,1,,,,,フラットスリー,0
147,1110001037608,新規,0,2023-06-14,2023-06-14,株式会社ＬＩＧＨＴＳＨＩＰ,,株式会社,新潟県,上越市,昭和町２丁目１７番１７号,,15,222,9430891,,,,,,,2023-06-14,1,,,,,ライトシップ,0
148,1110003005075,新規,0,2023-06-14,2023-06-14,合同会社Ｋ＆Ａプロジェクト,,合同会社,新潟県,新潟市東区,寺山１丁目８番４１号,,15,102,9500892,,,,,,,2023-06-14,1,,,,,ケーアンドエープロジェクト,0
157,1120001255670,新規,0,2023-06-14,2023-06-14,ゴールデンサン株式会社,,株式会社,大阪府,大阪市中央区,平野町２丁目５－８,,27,128,5410046,,,,,,,2023-06-14,1,,,,,ゴールデンサン,0
158,1120001255679,新規,0,2023-06-14,2023-06-14,株式会社エスプラスプロジェクト,,株式会社,大阪府,守口市,北斗町１２－８,,27,209,5700091,,,,,,,2023-06-14,1,,,,,エスプラスプロジェクト,0
159,1120001255720,新規,0,2023-06-14,2023-06-14,株式会社浪華,,株式会社,大阪府,大阪市中央区,内久宝寺町３丁目１番１４号アザリア８０１号室,,27,128,5400013,,,,,,,2023-06-14,1,,,,,ナニワ,0
160,1120001255737,新規,0,2023-06-14,2023-06-14,株式会社シューズ,,株式会社,大阪府,大阪市中央区,南本町２丁目１‐１本町サザンビル２Ｆ２０８号室,,27,128,5410054,,,,,,,2023-06-14,1,,,,,シューズ,0
162,1120003024280,新規,0,2023-06-14,2023-06-14,合同会社ＵｐｐｅｒＦｉｅｌｄ,,合同会社,大阪府,大阪市淀川区,西宮原２丁目７－２４－４０２,,27,123,5320004,,,,,,,2023-06-14,1,,,,,アッパーフィールド,0
163,1120005023677,新規,0,2023-06-14,2023-06-14,ＪＲ西日本プライベートリート投資法人,,その他の設立登記法人,大阪府,大阪市北区,中之島２丁目２番７号中之島セントラルタワー,,27,127,5300005,,,,,,,2023-06-14,1,,,,,ジェイアールニシニホンプライベートリート,0
165,1120103005271,新規,0,2023-06-14,2023-06-14,合同会社ひかりといろ,,合同会社,大阪府,松原市,東新町４丁目６番１５号,,27,217,5800024,,,,,,,2023-06-14,1,,,,,ヒカリトイロ,0
168,1122001037074,新規,0,2023-06-14,2023-06-14,株式会社住まいる,,株式会社,大阪府,四條畷市,大字岡山２３８番地の８,,27,229,5750004,,,,,,,2023-06-14,1,,,,,スマイル,0
183,1140001130500,新規,0,2023-06-14,2023-06-14,株式会社下岸製作所,,株式会社,兵庫県,宍粟市,山崎町岸田５７８番地,,28,227,6712527,,,,,,,2023-06-14,1,,,,,シモギシセイサクショ,0
184,1140001130509,新規,0,2023-06-14,2023-06-14,株式会社奥田重機,,株式会社,兵庫県,姫路市,飾磨区妻鹿１４９８番地１,,28,201,6728031,,,,,,,2023-06-14,1,,,,,オクダジュウキ,0
186,1140003019205,新規,0,2023-06-14,2023-06-14,合同会社ＫＯＥＩ,,合同会社,兵庫県,尼崎市,杭瀬南新町４丁目５番６－１１０１号,,28,202,6600822,,,,,,,2023-06-14,1,,,,,コウエイ,0
196,1180001156707,新規,0,2023-06-14,2023-06-14,洪田工業株式会社,,株式会社,愛知県,名古屋市中区,富士見町１３番１９号,,23,106,4600014,,,,,,,2023-06-14,1,,,,,コウタコウギョウ,0
197,1180001156731,新規,0,2023-06-14,2023-06-14,株式会社フライングサーカス,,株式会社,愛知県,名古屋市中区,千代田５丁目１１番３３号ＳＴ　ＰＬＡＺＡ　ＴＳＵＲＵＭＡＩ本館５Ａ,,23,106,4600012,,,,,,,2023-06-14,1,,,,,フライングサーカス,0
201,1180003025348,新規,0,2023-06-14,2023-06-14,合同会社ＴＲＹＳＥ,,合同会社,愛知県,愛西市,森川町百石山壱番割１６６３番地２４,,23,232,4960943,,,,,,,2023-06-14,1,,,,,トライズ,0
202,1180003025356,新規,0,2023-06-14,2023-06-14,合同会社ケアステーション・れい,,合同会社,愛知県,名古屋市中川区,春田３丁目５６番地マンションＧＡＩＡ２０３号室,,23,110,4540985,,,,,,,2023-06-14,1,,,,,ケアステーションレイ,0
226,1240001061644,新規,0,2023-06-14,2023-06-14,８ホールディングス株式会社,,株式会社,広島県,呉市,中央１丁目９番８号,,34,202,7370051,,,,,,,2023-06-14,1,,,,,エイトホールディングス,0
229,1240005015596,新規,0,2023-06-14,2023-06-14,社会保険労務士法人シャローム牛田,,その他の設立登記法人,広島県,広島市東区,牛田新町１丁目６番４２号ムラタビル２０２,,34,102,7320068,,,,,,,2023-06-14,1,,,,,シャロームウシタ,0
231,1250001020145,新規,0,2023-06-14,2023-06-14,株式会社ＲＩＴＡＲＩＴＡ,,株式会社,山口県,周南市,平和通２丁目２４番地,,35,215,7450015,,,,,,,2023-06-14,1,,,,,リタリタ,0
241,1290001101932,新規,0,2023-06-14,2023-06-14,株式会社カマクラ,,株式会社,福岡県,福岡市西区,拾六町５丁目１５番１号,,40,135,8190041,,,,,,,2023-06-14,1,,,,,カマクラ,0
242,1290001101940,新規,0,2023-06-14,2023-06-14,株式会社Ｗ,,株式会社,福岡県,福岡市早良区,百道３丁目５番６－１０２号,,40,137,8140006,,,,,,,2023-06-14,1,,,,,ダブル,0
243,1290801029613,新規,0,2023-06-14,2023-06-14,株式会社Ａｐｅｒｏ,,株式会社,福岡県,北九州市八幡東区,山路松尾町２７番８号,,40,108,8050033,,,,,,,2023-06-14,1,,,,,アペロ,0
250,1320003004106,新規,0,2023-06-14,2023-06-14,Ｎａｔｕｒａ合同会社,,合同会社,大分県,大分市,大字猪野６１番地の２,,44,201,8700134,,,,,,,2023-06-14,1,,,,,ナテュラ,0
259,1350001018410,新規,0,2023-06-14,2023-06-14,株式会社ミタカ,,株式会社,宮崎県,児湯郡都農町,大字川北５５２９番地１１,,45,406,8891201,,,,,,,2023-06-14,1,,,,,ミタカ,0
260,1360001032162,新規,0,2023-06-14,2023-06-14,株式会社Ｓｏｒｒｉｓｏ,,株式会社,沖縄県,那覇市,久米２丁目２１番１０号、１０５号,,47,201,9000033,,,,,,,2023-06-14,1,,,,,ソリッソ,0
264,1370005010642,新規,0,2023-06-14,2023-06-14,一般社団法人メディスマイル,,その他の設立登記法人,宮城県,仙台市青葉区,花京院１丁目４番２５号,,04,101,9800013,,,,,,,2023-06-14,1,,,,,メディスマイル,0
266,1380003005486,新規,0,2023-06-14,2023-06-14,合同会社ＮａｖｙＦｉｅｌｄ,,合同会社,福島県,福島市,方木田字水戸内５番地の１２,,07,201,9608163,,,,,,,2023-06-14,1,,,,,ネイビーフィールド,0
272,1420001018304,新規,0,2023-06-14,2023-06-14,株式会社東北共栄運輸,,株式会社,青森県,八戸市,大字長苗代字化石３４番地１,,02,203,0391103,,,,,,,2023-06-14,1,,,,,トウホクキョウエイウンユ,0
273,1430001089286,新規,0,2023-06-14,2023-06-14,株式会社フラット工業,,株式会社,北海道,江別市,大麻泉町３３番地の１１パークヒル１０４,,01,217,0690864,,,,,,,2023-06-14,1,,,,,フラットコウギョウ,0
274,1430001089336,新規,0,2023-06-14,2023-06-14,株式会社ＳｔａｒｔＬｉｎｅ,,株式会社,北海道,札幌市北区,東茨戸二条１丁目２５番８号,,01,102,0028042,,,,,,,2023-06-14,1,,,,,スタートライン,0
275,1430003015133,新規,0,2023-06-14,2023-06-14,合同会社自由帳,,合同会社,北海道,札幌市南区,澄川四条５丁目２番１６－１０２号,,01,106,0050004,,,,,,,2023-06-14,1,,,,,ジユウチョウ,0
276,1430003015141,新規,0,2023-06-14,2023-06-14,合同会社スリーエス,,合同会社,北海道,札幌市東区,北四十一条東４丁目２番１６号,,01,103,0070841,,,,,,,2023-06-14,1,,,,,スリーエス,0
282,1470001019660,新規,0,2023-06-14,2023-06-14,株式会社ＣＯＬＬＩＮＥＳ,,株式会社,香川県,高松市,三条町６４１番地,,37,201,7618072,,,,,,,2023-06-14,1,,,,,コリンズ,0
283,1470003002441,新規,0,2023-06-14,2023-06-14,ドルチ合同会社,,合同会社,香川県,善通寺市,吉原町１２９番地１,,37,204,7650061,,,,,,,2023-06-14,1,,,,,ドルチ,0
285,1700150025205,新規,0,2023-06-14,2015-10-09,ＮＸ・ＮＰロジスティクスユニオン,,その他,大阪府,摂津市,東別府３丁目２番６号,,27,224,5660042,,,,,,,2015-10-09,1,,,,,エヌエツクスエヌピーロジステイクスユニオン,0
286,1700150088251,新規,0,2023-06-14,2018-04-05,黒崎中央学童保育クラブ運営委員会,,その他,福岡県,北九州市八幡西区,藤田４丁目４番２４号,,40,109,8060022,,,,,,,2018-04-05,1,,,,,クロサキチユウオウガクドウホイククラブウンエイイインカイ,0
287,1700150117349,新規,0,2023-06-14,2023-06-14,Ｓｈｅｎ　Ｚｈｅｎ　Ｓｈｉ　Ｈａｉ　Ｓｅｎ　Ｒｕｉ　Ｋｅ　Ｊｉ　Ｙｏｕ　Ｘｉａｎ　Ｇｏｎｇ　Ｓｉ,,外国会社等,,,,,,,,Ｓｈｅｎ　Ｚｈｅｎ　Ｓｈｉ　Ｌｏｎｇ　Ｈｕａ　Ｑｕ　Ｆｕ　Ｃｈｅｎｇ　Ｊｉｅ　Ｄａｏ　Ｑｉａｎ　Ｋｅｎｇ　Ｓｈｅ　Ｑｕ　Ｋａｎｇ　Ｍｉｎｇ　Ｌｕ　５　Ｈａｏ　Ｈｅ　Ｆｕ　Ｄａ　Ｓｈａ　１００５,,,,,,2023-06-14,1,,,,,シンセンシハイセンルイケジユウゲンコウシ,0
288,1700150117357,新規,0,2023-06-14,2023-06-14,ｓｈｅｎｚｈｅｎｓｈｉ　ｊｉｋｅｍａｍａ　ｋｅｊｉ　ｙｏｕｘｉａｎｇｏｎｇｓｉ,,外国会社等,,,,,,,,Ｒｏｏｍ　５２０，５ｔｈ　Ｆｌｏｏｒｓ，Ｈｕａｌｅ　Ｂｕｉｌｄｉｎｇ，Ｎｏ．１１８，Ｚｈｅｎｈｕａ　Ｒｏａｄ，Ｈｕａｆｕ　Ｓｔｒｅｅｔ　Ｏｆｆｉｃｅ，Ｆｕｔｉａｎ　Ｄｉｓｔｒｉｃｔ，Ｓｈｅｎｚｈｅｎ　Ｇｕａｎｇｄｏｎｇ　ＣＮ,,,,,,2023-06-14,1,,,,,シェンゼェンシジケママケジユウゲンコウシ,0
289,1700150117415,新規,0,2023-06-14,2023-06-14,ｓｈｅｎｚｈｅｎｓｈｉｗｅｉｚｈｉｋｅｊｉｙｏｕｘｉａｎｇｏｎｇｓｉ,,外国会社等,,,,,,,,２１０５，Ｂｌｏｃｋ　Ａ，Ｒｏｎｇｃｈｕａｎｇ　Ｚｈｉｈｕｉ　Ｂｕｉｌｄｉｎｇ，Ｉｎｔｅｒｓｅｃｔｉｏｎ　ｏｆ　Ｌｏｎｇｓｈｅｎｇ　Ｒｏａｄ　ａｎｄ　Ｊｉｎｇｌｏｎｇ　Ｊｉａｎｓｈｅ　Ｒｏａｄ，Ｓｈａｎｇｆｅｎ　Ｃｏｍｍｕｎｉｔｙ，Ｍｉｎｚｈｉ　Ｓｔｒｅｅｔ，Ｌｏｎｇｈｕａ　Ｄｉｓｔｒｉｃｔ，Ｓｈｅｎｚｈｅｎ，Ｇｕｎａｇｄｏｎｇ,,,,,,2023-06-14,1,,,,,シンセンシビシテクノロジーカンパニーリミテツド,0
290,1700150117456,新規,0,2023-06-14,2023-06-14,三保造船健康保険組合,,その他,静岡県,静岡市清水区,三保３７９７番地,,22,103,4240901,,,,,,,2023-06-14,1,,,,,ミホゾウセンケンコウホケンクミアイ,0
301,2010001236012,新規,0,2023-06-14,2023-06-14,豐帆株式会社,,株式会社,東京都,中央区,日本橋本町１丁目６番３号日本橋ダイヤモンドマンション３０４号,,13,102,1030023,,,,,,,2023-06-14,1,,,,,フェンファン,0
302,2010001236061,新規,0,2023-06-14,2023-06-14,株式会社集英社ＴＯＯＮ　ＦＡＣＴＯＲＹ,,株式会社,東京都,千代田区,九段北１丁目８番１号,,13,101,1020073,,,,,,,2023-06-14,1,,,,,シュウエイシャトゥーンファクトリー,0
305,2010101015687,新規,0,2023-06-14,2023-06-14,株式会社ＭＦＡ,,株式会社,東京都,八王子市,東浅川町２４５番地１９,,13,201,1930834,,,,,,,2023-06-14,1,,,,,エムエフエー,0
318,2010501050598,新規,0,2023-06-14,2023-06-14,越境ＥＣ　ＷＫ株式会社,,株式会社,東京都,台東区,上野２丁目７番７号,,13,106,1100005,,,,,,,2023-06-14,1,,,,,エッキョウイーシーダブルケー,0
319,2010503007035,新規,0,2023-06-14,2023-06-14,合同会社フェニックスコンサルティング,,合同会社,東京都,台東区,上野６丁目１番６号御徒町グリーンハイツ１００５号,,13,106,1100005,,,,,,,2023-06-14,1,,,,,フェニックスコンサルティング,0
323,2010603010194,新規,0,2023-06-14,2023-06-14,合同会社青木畳店,,合同会社,東京都,江東区,深川２丁目１７番３号,,13,108,1350033,,,,,,,2023-06-14,1,,,,,アオキタタミテン,0
331,2010901053250,新規,0,2023-06-14,2023-06-14,株式会社ＭＥＲＡＫＩ,,株式会社,東京都,世田谷区,北烏山７丁目３１番１７号,,13,112,1570061,,,,,,,2023-06-14,1,,,,,メラキ,0
342,2011003017012,新規,0,2023-06-14,2023-06-14,合同会社ＬＩＦＥ　ＷＯＲＫ,,合同会社,東京都,渋谷区,渋谷２丁目１９番１５号,,13,113,1500002,,,,,,,2023-06-14,1,,,,,ライフワーク,0
343,2011003017020,新規,0,2023-06-14,2023-06-14,合同会社笹塚ダイワビル,,合同会社,東京都,渋谷区,笹塚２丁目１２番１号,,13,113,1510073,,,,,,,2023-06-14,1,,,,,ササヅカダイワビル,0
344,2011005010114,新規,0,2023-06-14,2023-06-14,ＮＰＯ法人生きテク,,その他の設立登記法人,東京都,渋谷区,神宮前６丁目２３番４号,,13,113,1500001,,,,,,,2023-06-14,1,,,,,イキテク,0
347,2011101103127,新規,0,2023-06-14,2023-06-14,Ｂ・Ｓ株式会社,,株式会社,東京都,新宿区,高田馬場４丁目９－１４ふみビル４階,,13,104,1690075,,,,,,,2023-06-14,1,,,,,ビーエス,0
348,2011101103250,新規,0,2023-06-14,2023-06-14,株式会社Ｅ’ＳＥＮＳＥ,,株式会社,東京都,新宿区,戸山１丁目１６番１６号,,13,104,1620052,,,,,,,2023-06-14,1,,,,,イーセンス,0
353,2011103013150,新規,0,2023-06-14,2023-06-14,合同会社ヘリオス,,合同会社,東京都,新宿区,歌舞伎町２丁目４５番４号ジェスト３０ビル５階,,13,104,1600021,,,,,,,2023-06-14,1,,,,,ヘリオス,0
360,2011301028776,新規,0,2023-06-14,2023-06-14,株式会社Ｎｏｒｔｈ　Ｗｅａｌｔｈ,,株式会社,東京都,杉並区,上荻４丁目１２番１７号,,13,115,1670043,,,,,,,2023-06-14,1,,,,,ノースウェルス,0
361,2011301028784,新規,0,2023-06-14,2023-06-14,株式会社ＧＴＯ,,株式会社,東京都,杉並区,下高井戸４丁目９－８,,13,115,1680073,,,,,,,2023-06-14,1,,,,,ジイティーオー,0
366,2011501029418,新規,0,2023-06-14,2023-06-14,フォーフロイデ株式会社,,株式会社,東京都,荒川区,西日暮里２丁目２０番１－２００２号,,13,118,1160013,,,,,,,2023-06-14,1,,,,,フォーフロイデ,0
367,2011501029426,新規,0,2023-06-14,2023-06-14,株式会社Ｍ２Ｆａｃｔｏｒｙ,,株式会社,東京都,荒川区,南千住３丁目３４番８－１００４号,,13,118,1160003,,,,,,,2023-06-14,1,,,,,エムツーファクトリー,0
378,2011701026330,新規,0,2023-06-14,2023-06-14,赤坂第二期株式会社,,株式会社,東京都,江戸川区,中葛西５丁目２０番９号ＳＵＮＧＩＯＩＡ　Ｎｏｒｔｈ１０１,,13,123,1340083,,,,,,,2023-06-14,1,,,,,アカサカダイニキ,0
381,2011801042574,新規,0,2023-06-14,2023-06-14,ＮＥＧＵＵＮ株式会社,,株式会社,東京都,足立区,花畑４丁目３４番６号笹原ビル２０２号,,13,121,1210061,,,,,,,2023-06-14,1,,,,,ネグーン,0
385,2012705002359,新規,0,2023-06-14,2023-06-14,一般社団法人東村山地域振興機構,,その他の設立登記法人,東京都,東村山市,本町２丁目６番地５,,13,213,1890014,,,,,,,2023-06-14,1,,,,,ヒガシムラヤマチイキシンコウキコウ,0
387,2012801022434,新規,0,2023-06-14,2023-06-14,株式会社日本国際観光,,株式会社,東京都,日野市,大字石田４３５－６７シャルマンハウス１号館１０１,,13,212,1910021,,,,,,,2023-06-14,1,,,,,ニホンコクサイカンコウ,0
390,2013301050909,新規,0,2023-06-14,2023-06-14,アスミ建設株式会社,,株式会社,東京都,豊島区,東池袋１丁目２８番１－４０２号,,13,116,1700013,,,,,,,2023-06-14,1,,,,,アスミケンセツ,0
398,2020001152035,新規,0,2023-06-14,2023-06-14,ＹＨＹ健康管理株式会社,,株式会社,神奈川県,川崎市川崎区,小川町１６－１７－４０９,,14,131,2100023,,,,,,,2023-06-14,1,,,,,ウィエイチウィケンコウカンリ,0
399,2020001152043,新規,0,2023-06-14,2023-06-14,株式会社Ｄ‐Ｃ‐Ｉ,,株式会社,神奈川県,横浜市南区,永田東２丁目３４番２７号,,14,105,2320072,,,,,,,2023-06-14,1,,,,,ディーシーアイ,0
400,2020001152051,新規,0,2023-06-14,2023-06-14,株式会社マロンコーポレーション,,株式会社,神奈川県,川崎市麻生区,高石６丁目１５番２３－２０３号アクエルド百合ヶ丘,,14,137,2150003,,,,,,,2023-06-14,1,,,,,マロンコーポレーション,0
403,2020003024042,新規,0,2023-06-14,2023-06-14,合同会社Ｍ＆Ｆカンパニー,,合同会社,神奈川県,横浜市中区,日ノ出町１丁目３６番地マンションアクロス６０４号室,,14,104,2310066,,,,,,,2023-06-14,1,,,,,,0
409,2021001079334,新規,0,2023-06-14,2023-06-14,株式会社サンブリッヂ,,株式会社,神奈川県,厚木市,愛甲１丁目１２番５号,,14,212,2430035,,,,,,,2023-06-14,1,,,,,サンブリッヂ,0
412,2021003013209,新規,0,2023-06-14,2023-06-14,合同会社ｂａｌｌｙｈｏｏ,,合同会社,神奈川県,小田原市,久野３５０８番地の１,,14,206,2500055,,,,,,,2023-06-14,1,,,,,バリーフー,0
418,2030001154385,新規,0,2023-06-14,2023-06-14,万恒株式会社,,株式会社,埼玉県,川口市,中青木４丁目８番１２号,,11,203,3320032,,,,,,,2023-06-14,1,,,,,マンツネ,0
419,2030001154410,新規,0,2023-06-14,2023-06-14,株式会社Ｂｉｚｆｕｌ,,株式会社,埼玉県,越谷市,蒲生茜町２５番地２２,,11,222,3430843,,,,,,,2023-06-14,1,,,,,ビズフル,0
428,2040001128826,新規,0,2023-06-14,2023-06-14,株式会社インナーコンパスキャリア,,株式会社,千葉県,市川市,福栄３丁目３番２０－２０８号,,12,203,2720137,,,,,,,2023-06-14,1,,,,,インナーコンパスキャリア,0
434,2040003022795,新規,0,2023-06-14,2023-06-14,合同会社ｓｙｎａｓｔａ,,合同会社,千葉県,松戸市,松飛台４６３番地の１１,,12,207,2702214,,,,,,,2023-06-14,1,,,,,シナスタ,0
436,2040005022034,新規,0,2023-06-14,2023-06-14,特定非営利活動法人ＥＳＤＧＺ　ＯＴＡＫＩ,,その他の設立登記法人,千葉県,夷隅郡大多喜町,大戸４３３番地,,12,441,2980225,,,,,,,2023-06-14,1,,,,,エスディージーズオオタキ,0
441,2050003007580,新規,0,2023-06-14,2023-06-14,ＺＡＶＩ　ＥＸＰＯＲＴＳ合同会社,,合同会社,茨城県,結城郡八千代町,大字粟野２３０－３,,08,521,3003535,,,,,,,2023-06-14,1,,,,,ザビエクスポーツ,0
449,2070001040532,新規,0,2023-06-14,2023-06-14,株式会社アーク不動産,,株式会社,群馬県,高崎市,倉賀野町１０６７番地１４,,10,202,3701201,,,,,,,2023-06-14,1,,,,,アークフドウサン,0
466,2120001255653,新規,0,2023-06-14,2023-06-14,株式会社Ａｌｌ　ＡｔｏＺ,,株式会社,大阪府,大阪市北区,梅田１丁目１－３大阪駅前第３ビル２９階１－１－１号室,,27,127,5300001,,,,,,,2023-06-14,1,,,,,オールエートゥーゼット,0
467,2120001255678,新規,0,2023-06-14,2023-06-14,株式会社ＪＴｔｒａｄｉｎｇ,,株式会社,大阪府,大阪市北区,梅田２丁目５番１３号桜橋第一ビル３０４号,,27,127,5300001,,,,,,,2023-06-14,1,,,,,ジェイティートレーディング,0
468,2120001255694,新規,0,2023-06-14,2023-06-14,株式会社ＰＲＯＳＰＥＣＴ,,株式会社,大阪府,大阪市福島区,福島７丁目２０番１８号,,27,103,5530003,,,,,,,2023-06-14,1,,,,,プロスペクト,0
469,2120001255769,新規,0,2023-06-14,2023-06-14,株式会社ＶＥＣＴＩＭ,,株式会社,大阪府,大阪市淀川区,東三国２丁目３８番１２号岸本第三ビル３０４号室,,27,123,5320002,,,,,,,2023-06-14,1,,,,,ベクティム,0
471,2120003024288,新規,0,2023-06-14,2023-06-14,コーンフラワー合同会社,,合同会社,大阪府,大阪市北区,梅田１丁目１番３号大阪駅前第３ビル２９階１－１－１号室,,27,127,5300001,,,,,,,2023-06-14,1,,,,,コーンフラワー,0
472,2120005023684,新規,0,2023-06-14,2023-06-14,一般社団法人エスプロ,,その他の設立登記法人,大阪府,大阪市淀川区,十八条１丁目１番３２号ザ・レジデンス東三国,,27,123,5320001,,,,,,,2023-06-14,1,,,,,エスプロ,0
477,2130001074532,新規,0,2023-06-14,2023-06-14,株式会社Ａｆｆｅｋｔ,,株式会社,京都府,福知山市,字天田９４番地の１３,,26,201,6200000,,,,,,,2023-06-14,1,,,,,アフェクト,0
478,2130001074540,新規,0,2023-06-14,2023-06-14,ＦＵＮＡＤＯ株式会社,,株式会社,京都府,京都市下京区,松原通東洞院東入本燈籠町７番地１ライオンズマンション東洞院８０５号,,26,106,6008086,,,,,,,2023-06-14,1,,,,,フナド,0
479,2130005016794,新規,0,2023-06-14,2023-06-14,一般社団法人ココカラスタジオ,,その他の設立登記法人,京都府,京都市伏見区,深草西浦町１丁目１０龍谷大学至心館３５９滋野正道研究室,,26,109,6120029,,,,,,,2023-06-14,1,,,,,ココカラスタジオ,0
487,2140001130516,新規,0,2023-06-14,2023-06-14,株式会社ＳＡｉＬ,,株式会社,兵庫県,神戸市垂水区,五色山７丁目５番３号ストラタハウス５号,,28,108,6550035,,,,,,,2023-06-14,1,,,,,セイル,0
492,2140003019204,新規,0,2023-06-14,2023-06-14,Ｍｕｈｏｏ合同会社,,合同会社,兵庫県,豊岡市,百合地１０７５番１号,,28,209,6680875,,,,,,,2023-06-14,1,,,,,ムホウ,0
494,2150001026481,新規,0,2023-06-14,2023-06-14,株式会社ＭＵＳＵＢＵ,,株式会社,奈良県,生駒市,桜ケ丘３番２１号,,29,209,6300211,,,,,,,2023-06-14,1,,,,,ムスブ,0
496,2160003002901,新規,0,2023-06-14,2023-06-14,マエストロ合同会社,,合同会社,滋賀県,高島市,拝戸１１７５番地１６,,25,212,5201132,,,,,,,2023-06-14,1,,,,,マエストロ,0
502,2180001156755,新規,0,2023-06-14,2023-06-14,バックロー株式会社,,株式会社,愛知県,名古屋市中川区,東かの里町１１０番地の１,,23,110,4540958,,,,,,,2023-06-14,1,,,,,バックロー,0
508,2180003025339,新規,0,2023-06-14,2023-06-14,ＲＳＫ合同会社,,合同会社,愛知県,名古屋市中村区,名駅３丁目４－１０アルティメイト名駅１ｓｔ２階,,23,105,4500002,,,,,,,2023-06-14,1,,,,,アールエスケー,0
509,2180003025363,新規,0,2023-06-14,2023-06-14,ＬＴＬ合同会社,,合同会社,愛知県,名古屋市中区,栄１丁目２２－２ライオンズ名古屋ビル４２８号室,,23,106,4600008,,,,,,,2023-06-14,1,,,,,エルティーエル,0
511,2190001030496,新規,0,2023-06-14,2023-06-14,株式会社ＡＩ　ＣＡＲＳ,,株式会社,三重県,四日市市,河原田町２２９０番地,,24,202,5100874,,,,,,,2023-06-14,1,,,,,アイカーズ,0
518,2240001061668,新規,0,2023-06-14,2023-06-14,株式会社エコネス,,株式会社,広島県,広島市安佐南区,相田２丁目１７番１０－３５号,,34,105,7310141,,,,,,,2023-06-14,1,,,,,,0
541,2320003004105,新規,0,2023-06-14,2023-06-14,合同会社ＴＦアセットマネジメント,,合同会社,大分県,大分市,日岡３丁目６番２７号,,44,201,8700914,,,,,,,2023-06-14,1,,,,,ティーエフアセットマネジメント,0
554,2380003005485,新規,0,2023-06-14,2023-06-14,合同会社ＳＴＲＩＤＥ,,合同会社,福島県,いわき市,平塩字古川８５番地の２,,07,204,9708022,,,,,,,2023-06-14,1,,,,,ストライド,0
556,2400001016283,新規,0,2023-06-14,2023-06-14,株式会社タキサワシステム,,株式会社,岩手県,盛岡市,緑が丘１丁目８番１５号,,03,201,0200117,,,,,,,2023-06-14,1,,,,,タキサワシステム,0
562,2430001089285,新規,0,2023-06-14,2023-06-14,株式会社充満貿易,,株式会社,北海道,夕張郡由仁町,本町２７３番地１,,01,427,0691206,,,,,,,2023-06-14,1,,,,,ジュウマンボウエキ,0
563,2430003015149,新規,0,2023-06-14,2023-06-14,北しりリゾートＤＭＣ合同会社,,合同会社,北海道,小樽市,築港５－７,,01,203,0470008,,,,,,,2023-06-14,1,,,,,キタシリリゾートディーエムシー,0
565,2450001014019,新規,0,2023-06-14,2023-06-14,株式会社Ｂｏｎ’ｚ,,株式会社,北海道,旭川市,末広東一条６丁目３番１２号,,01,204,0718121,,,,,,,2023-06-14,1,,,,,ボンズ,0
567,2460001005801,新規,0,2023-06-14,2023-06-14,株式会社カラークリエイト,,株式会社,北海道,釧路市,末広町１０丁目１番６号サンエス釧路駅前ビル４階,,01,206,0850014,,,,,,,2023-06-14,1,,,,,カラークリエイト,0
570,2480001012127,新規,0,2023-06-14,2023-06-14,株式会社セカンドライフ,,株式会社,徳島県,徳島市,佐古三番町１６番６－１１０３号,,36,201,7700023,,,,,,,2023-06-14,1,,,,,セカンドライフ,0
577,2700150109411,新規,0,2023-06-14,2022-06-10,フラメンコスタジオ　ＳＯＬ　Ｙ　ＳＯＭＢＲＡ,,その他,愛知県,刈谷市,山池町４丁目４０７－１,,23,210,4480036,,,,,,,2022-06-10,1,,,,,フラメンコスタジオソルイソンブラ,0
578,2700150115013,新規,0,2023-06-14,2023-03-28,大久保まちづくり協議会,,その他,兵庫県,明石市,大久保町大久保町４３０（大久保小学校コミセン内）,,28,203,6740067,,,,,,,2023-03-28,1,,,,,オオクボマチヅクリキヨウギカイ,0
579,2700150116837,新規,0,2023-06-14,2023-06-02,しょうないＲＥＫ,,その他,大阪府,豊中市,庄内幸町４丁目２９－１ショコラ内,,27,203,5610833,,,,,,,2023-06-02,1,,,,,シヨウナイレツク,0
580,2700150117348,新規,0,2023-06-14,2023-06-14,ｓｈｅｎｚｈｅｎｓｈｉ　ｂｅｉｌｅｉｋｅｍａｎ　ｋｅｊｉ　ｙｏｕｘｉａｎｇｏｎｇｓｉ,,外国会社等,,,,,,,,３１７，Ｂｕｉｌｄｉｎｇ　Ｃ，Ｈｅｘｉ　Ｈｕａｎｇｇａｎｇｌｉｎｇ　Ｉｎｄｕｓｔｒｉａｌ　Ｐａｒｋ，Ｈａｎｇｃｈｅｎｇ　Ｉｎｄｕｓｔｒｉａｌ　Ｚｏｎｅ，Ｔａｏｙｕａｎ　Ｃｏｍｍｕｎｉｔｙ，Ｘｉｘｉａｎｇ　Ｓｔｒｅｅｔ，Ｂａｏ’ａｎ　Ｄｉｓｔｒｉｃｔ，Ｓｈｅｎｚｈｅｎ，Ｇｕａｎｇｄｏｎｇ　Ｐｒｏｖｉｎｃｅ　ＣＮ,,,,,,2023-06-14,1,,,,,シェンゼェンシベイルイケマンケジユウゲンコウシ,0
581,2700150117356,新規,0,2023-06-14,2023-06-14,ＨＲＥ　ＴＲＡＤＩＮＧ　ＣＯＭＰＡＮＹ　ＬＩＭＩＴＥＤ,,外国会社等,,,,,,,,ＲＯＯＭ　６０５　６／Ｆ，ＦＡ　ＹＵＥＮ　ＣＯＭＭＥＲＣＩＡＬ　ＢＵＩＬＤＩＮＧ　７５－７７　ＦＡ　ＹＵＥＮ　ＳＴＲＥＥＴ　ＭＯＮＧＫＯＫ　ＫＬ，ＨＫ,,,,,,2023-06-14,1,,,,,エィチアァイートレーディングカンパニーリミテッド,0
582,2700150117414,新規,0,2023-06-14,2023-06-14,Ｙｕｎ　Ｔｉｎｇ　Ｓｈｅｎ　Ｚｈｅｎ　Ｋｅ　Ｊｉ　Ｙｏｕ　Ｘｉａｎ　Ｇｏｎｇ　Ｓｉ,,外国会社等,,,,,,,,６０５，Ｃｏｍｐｒｅｈｅｎｓｉｖｅ　Ｂｕｉｌｄｉｎｇ　３，Ｂａｏｙｕｎｄａ　Ｌｏｇｉｓｔｉｃｓ　Ｃｅｎｔｅｒ，Ｆｕｈｕａ　Ｃｏｍｍｕｎｉｔｙ，Ｘｉｘｉａｎｇ　Ｓｔｒｅｅｔ，Ｂａｏ’ａｎ　Ｄｉｓｔｒｉｃｔ，Ｇｕａｎｇｄｏｎｇ　Ｐｒｏｖｉｎｃｅ，Ｓｈｅｎｚｈｅｎ　Ｃｉｔｙ,,,,,,2023-06-14,1,,,,,ウンチヨウシンセンテクノロジーカンパニーリミテツド,0
587,3010001236003,新規,0,2023-06-14,2023-06-14,和惠康株式会社,,株式会社,東京都,千代田区,内幸町１丁目１番１号帝国ホテルタワー１５階１９号室,,13,101,1000011,,,,,,,2023-06-14,1,,,,,ワケイコウ,0
588,3010001236060,新規,0,2023-06-14,2023-06-14,日本宣馳株式会社,,株式会社,東京都,文京区,本郷４丁目１６番６号文京区本郷四丁目ビル天翔オフィス後楽園７階７０４号室,,13,105,1130033,,,,,,,2023-06-14,1,,,,,ニホンセンチ,0
589,3010003040849,新規,0,2023-06-14,2023-06-14,ＪＰＡ３合同会社,,合同会社,東京都,千代田区,丸の内３丁目１番１号東京共同会計事務所内,,13,101,1000005,,,,,,,2023-06-14,1,,,,,ジェイピーエースリー,0
590,3010003040873,新規,0,2023-06-14,2023-06-14,合同会社キャプションホテルマネジメント,,合同会社,東京都,千代田区,大手町１丁目７番２号東京サンケイビル１６階,,13,101,1000004,,,,,,,2023-06-14,1,,,,,キャプションホテルマネジメント,0
592,3010005036829,新規,0,2023-06-14,2023-06-14,一般社団法人ＮＮプロパティ・ワン,,その他の設立登記法人,東京都,千代田区,大手町２丁目２番２号アーバンネット大手町ビル,,13,101,1000004,,,,,,,2023-06-14,1,,,,,エヌエヌプロパティワン,0
593,3010101015686,新規,0,2023-06-14,2023-06-14,ザ・チェリー株式会社,,株式会社,東京都,八王子市,寺田町４３２番地６７－２０２号,,13,201,1930943,,,,,,,2023-06-14,1,,,,,ザチェリー,0
602,3010501050597,新規,0,2023-06-14,2023-06-14,越境ＥＣ　ＢＲ株式会社,,株式会社,東京都,台東区,上野２丁目７番７号,,13,106,1100005,,,,,,,2023-06-14,1,,,,,エッキョウイーシービーアール,0
603,3010601063268,新規,0,2023-06-14,2023-06-14,Ｃａｓｈｍａｌｌｏｗ　Ｊａｐａｎ株式会社,,株式会社,東京都,江東区,有明３丁目７番２６号有明フロンティアビルＢ棟９階,,13,108,1350063,,,,,,,2023-06-14,1,,,,,キャッシュマロージャパン,0
618,3011001154698,新規,0,2023-06-14,2023-06-14,株式会社トモニ,,株式会社,東京都,渋谷区,神泉町１２－７ＦｏｕｒＳ２Ｆ,,13,113,1500045,,,,,,,2023-06-14,1,,,,,トモニ,0
619,3011001154905,新規,0,2023-06-14,2023-06-14,Ｅｄｇｅ　Ｂａｓｅ株式会社,,株式会社,東京都,渋谷区,渋谷２丁目１９－１５宮益坂ビルディング６０９,,13,113,1500002,,,,,,,2023-06-14,1,,,,,エッジベース,0
621,3011005010105,新規,0,2023-06-14,2023-06-14,一般社団法人渋谷あそびば制作委員会,,その他の設立登記法人,東京都,渋谷区,桜丘町１番,,13,113,1500031,,,,,,,2023-06-14,1,,,,,シブヤアソビバセイサクイインカイ,0
622,3011005010113,新規,0,2023-06-14,2023-06-14,一般社団法人鳳施術協会,,その他の設立登記法人,東京都,渋谷区,道玄坂２丁目１５番１号,,13,113,1500043,,,,,,,2023-06-14,1,,,,,オオトリセジュツキョウカイ,0
631,3011601026891,新規,0,2023-06-14,2023-06-14,株式会社ＧＫ,,株式会社,東京都,練馬区,石神井台６丁目８番２号,,13,120,1770045,,,,,,,2023-06-14,1,,,,,ジーケー,0
633,3011603003955,新規,0,2023-06-14,2023-06-14,合同会社Ｅｌｉａｍ,,合同会社,東京都,練馬区,向山２丁目２２番１９号,,13,120,1760022,,,,,,,2023-06-14,1,,,,,エリアム,0
637,3011801042573,新規,0,2023-06-14,2023-06-14,舜和株式会社,,株式会社,東京都,足立区,東六月町７番３号,,13,121,1210071,,,,,,,2023-06-14,1,,,,,シュンワ,0
638,3011801042581,新規,0,2023-06-14,2023-06-14,株式会社ＷｏｒｋＮｙａｎ,,株式会社,東京都,足立区,足立１丁目８番１号メゾン・ラフィーネ５０２,,13,121,1200015,,,,,,,2023-06-14,1,,,,,ワークニャン,0
657,3020001152059,新規,0,2023-06-14,2023-06-14,隆盛株式会社,,株式会社,神奈川県,横浜市中区,太田町２丁目３１－１友盛ビル３Ｆ,,14,104,2310011,,,,,,,2023-06-14,1,,,,,,0
672,3030001154277,新規,0,2023-06-14,2023-06-14,株式会社ＹＳＲＭ　ｗｏｒｋｓ,,株式会社,埼玉県,川口市,大字安行領家１２２２番地の１－２０４号,,11,203,3340058,,,,,,,2023-06-14,1,,,,,イスリムワークス,0
678,3040001128833,新規,0,2023-06-14,2023-06-14,株式会社Ｔｒｙ　Ｍａｒｋｅｔ,,株式会社,千葉県,柏市,豊四季台２丁目１番１－１０８号デュオヒルズ柏,,12,217,2770845,,,,,,,2023-06-14,1,,,,,トライマーケット,0
679,3040001128841,新規,0,2023-06-14,2023-06-14,株式会社永順商会,,株式会社,千葉県,印西市,高西新田４０番地,,12,231,2701365,,,,,,,2023-06-14,1,,,,,エイジュンショウカイ,0
683,3040003022803,新規,0,2023-06-14,2023-06-14,合同会社Ｈｏｒｉｚｏｎ,,合同会社,千葉県,流山市,おおたかの森南３丁目１０番地の２１,,12,220,2700139,,,,,,,2023-06-14,1,,,,,ホライゾン,0
689,3050001052982,新規,0,2023-06-14,2023-06-14,株式会社ドンナワークス,,株式会社,茨城県,龍ケ崎市,藤ケ丘３丁目９番地１３,,08,208,3010855,,,,,,,2023-06-14,1,,,,,ドンナワークス,0
694,3060001036076,新規,0,2023-06-14,2023-06-14,成美アート工房株式会社,,株式会社,栃木県,宇都宮市,上欠町１２３１番地２６７,,09,201,3200855,,,,,,,2023-06-14,1,,,,,セイビアートコウボウ,0
725,3120001255586,新規,0,2023-06-14,2023-06-14,Ｓｕｎｎｙ　ｓｉｄｅ株式会社,,株式会社,大阪府,大阪市西成区,岸里東１丁目１４番１４号,,27,122,5570042,,,,,,,2023-06-14,1,,,,,サニーサイド,0
726,3120001255660,新規,0,2023-06-14,2023-06-14,株式会社ＡＰＬＵＳ,,株式会社,大阪府,大阪市城東区,関目６丁目１３番１２号,,27,118,5360008,,,,,,,2023-06-14,1,,,,,アプラス,0
727,3120001255710,新規,0,2023-06-14,2023-06-14,株式会社ＬＩＬＩＡ,,株式会社,大阪府,大阪市西区,北堀江１丁目２２番４号１４０２,,27,106,5500014,,,,,,,2023-06-14,1,,,,,リリア,0
729,3120003024287,新規,0,2023-06-14,2023-06-14,合同会社トラストスマイル,,合同会社,大阪府,大阪市城東区,放出西１丁目５番１６号,,27,118,5360011,,,,,,,2023-06-14,1,,,,,トラストスマイル,0
731,3120005023667,新規,0,2023-06-14,2023-06-14,Ｔ＆Ｕ税理士法人,,その他の設立登記法人,大阪府,大阪市西区,江戸堀１丁目２３番２６号西八千代ビル３Ｂ,,27,106,5500002,,,,,,,2023-06-14,1,,,,,ティーアンドユー,0
732,3120005023683,新規,0,2023-06-14,2023-06-14,一般社団法人日本グローバル文化交流協会,,その他の設立登記法人,大阪府,大阪市中央区,西心斎橋２丁目１番１３号,,27,128,5420086,,,,,,,2023-06-14,1,,,,,ニホングローバルブンカコウリュウキョウカイ,0
735,3120101067717,新規,0,2023-06-14,2023-06-14,サンテック株式会社,,株式会社,大阪府,堺市西区,浜寺船尾町西１丁２５２番地,,27,144,5928342,,,,,,,2023-06-14,1,,,,,サンテック,0
743,3120903004693,新規,0,2023-06-14,2023-06-14,Ｊ　Ｌｉｎｋ合同会社,,合同会社,大阪府,茨木市,山手台新町２丁目２番１９号,,27,211,5670010,,,,,,,2023-06-14,1,,,,,ジェイリンク,0
746,3122001037072,新規,0,2023-06-14,2023-06-14,ＪＩＰＲＯ株式会社,,株式会社,大阪府,東大阪市,五条町９番３０号シャルマンコーポ枚岡公園Ｂ棟４０５号,,27,227,5798042,,,,,,,2023-06-14,1,,,,,ジェイアイプロ,0
748,3130001074507,新規,0,2023-06-14,2023-06-14,株式会社アラジン,,株式会社,京都府,京都市右京区,梅津徳丸町７番地１１,,26,108,6150935,,,,,,,2023-06-14,1,,,,,アラジン,0
760,3140003019178,新規,0,2023-06-14,2023-06-14,合同会社至誠一貫,,合同会社,兵庫県,神戸市西区,伊川谷町有瀬１６７１－１６,,28,111,6512113,,,,,,,2023-06-14,1,,,,,シセイイッカン,0
761,3140003019203,新規,0,2023-06-14,2023-06-14,合同会社ＫＯＵ,,合同会社,兵庫県,明石市,大久保町大窪１９９２－１グラティチュード大久保１０３,,28,203,6740051,,,,,,,2023-06-14,1,,,,,コウ,0
765,3150003002983,新規,0,2023-06-14,2023-06-14,合同会社Ｈｏｎｅｙｃｏｍｂ,,合同会社,奈良県,奈良市,学園赤松町２４４５－７－１０１ノバカネイチ学園前二番館,,29,201,6310027,,,,,,,2023-06-14,1,,,,,ハニーカム,0
771,3180001156663,新規,0,2023-06-14,2023-06-14,日章ＲＥＸ株式会社,,株式会社,愛知県,名古屋市西区,見寄町１７２番,,23,104,4520839,,,,,,,2023-06-14,1,,,,,ニッショウレックス,0
772,3180001156762,新規,0,2023-06-14,2023-06-14,水上工芸株式会社,,株式会社,愛知県,名古屋市西区,南堀越１丁目１６番３号アメニティハイム１０３号,,23,104,4510054,,,,,,,2023-06-14,1,,,,,ミズカミコウゲイ,0
780,3180003025370,新規,0,2023-06-14,2023-06-14,合同会社フラット,,合同会社,愛知県,春日井市,中新町１丁目２７番地３,,23,206,4860956,,,,,,,2023-06-14,1,,,,,フラット,0
781,3180005020238,新規,0,2023-06-14,2023-06-14,一般社団法人はなゑみ,,その他の設立登記法人,愛知県,名古屋市南区,観音町３丁目８２,,23,112,4570845,,,,,,,2023-06-14,1,,,,,ハナエミ,0
782,3190001011272,新規,0,2023-06-14,2023-06-14,三和住宅株式会社,,株式会社,三重県,松阪市,嬉野中川町６０番地の４,,24,204,5152321,,,,,,,2023-06-14,1,,,,,,0
793,3200003005989,新規,0,2023-06-14,2023-06-14,合同会社Ｔｈｒｅｅ　Ｗａｙｓ,,合同会社,岐阜県,本巣市,文殊１３４番地１,,21,218,5011203,,,,,,,2023-06-14,1,,,,,スリーウェイズ,0
796,3210001019354,新規,0,2023-06-14,2023-06-14,株式会社あすわ,,株式会社,福井県,福井市,板垣５丁目１２０１番地,,18,201,9188104,,,,,,,2023-06-14,1,,,,,アスワ,0
803,3240001061675,新規,0,2023-06-14,2023-06-14,株式会社ＳＵＲＹＡ　ＳＡＮＧＡ,,株式会社,広島県,東広島市,西条栄町１０－３０東広島ＳｅａＰｌａｃｅ２０２,,34,212,7390015,,,,,,,2023-06-14,1,,,,,スーリアサンガ,0
815,3290001101930,新規,0,2023-06-14,2023-06-14,株式会社ＢＡＲＡＮＧＡＹ,,株式会社,福岡県,久留米市,合川町１７４３－１,,40,203,8390861,,,,,,,2023-06-14,1,,,,,バランガイ,0
817,3290003014024,新規,0,2023-06-14,2023-06-14,テーストマート合同会社,,合同会社,福岡県,福岡市博多区,博多駅前４丁目３３番１１－３０７号,,40,132,8120011,,,,,,,2023-06-14,1,,,,,テーストマート,0
818,3290005019062,新規,0,2023-06-14,2023-06-14,特定非営利活動法人ホームホスピスあいのさと,,その他の設立登記法人,福岡県,八女郡広川町,大字吉常５７８番地３,,40,544,8340104,,,,,,,2023-06-14,1,,,,,ホームホスピスアイノサト,0
821,3290805009659,新規,0,2023-06-14,2023-06-14,ＮＰＯ法人いっしょに,,その他の設立登記法人,福岡県,北九州市小倉北区,原町１丁目９番１－３０２号,,40,106,8030815,,,,,,,2023-06-14,1,,,,,エヌピーオーホウジンイッショニ,0
829,3320001019839,新規,0,2023-06-14,2023-06-14,都市開発サポート株式会社,,株式会社,大分県,大分市,大道町４丁目１番９号,,44,201,8700822,,,,,,,2023-06-14,1,,,,,トシカイハツサポート,0
831,3330003009878,新規,0,2023-06-14,2023-06-14,合同会社ｒｅｌａｔｉｏｎｓｈｉｐ　Ｑｕａｌｉｔｙ,,合同会社,熊本県,熊本市北区,八景水谷４丁目５番８８号,,43,105,8618064,,,,,,,2023-06-14,1,,,,,リレーションシップクオリティ,0
835,3350001018409,新規,0,2023-06-14,2023-06-14,株式会社いろはカンパニー,,株式会社,宮崎県,宮崎市,大塚町宮田２８５０番地３,,45,201,8800951,,,,,,,2023-06-14,1,,,,,イロハカンパニー,0
846,3380003005484,新規,0,2023-06-14,2023-06-14,合同会社トラストサポート,,合同会社,福島県,石川郡石川町,大字双里字桜町３７番地の１,,07,501,9637808,,,,,,,2023-06-14,1,,,,,トラストサポート,0
849,3400003003097,新規,0,2023-06-14,2023-06-14,合同会社和設備,,合同会社,岩手県,滝沢市,穴口２７５－８,,03,216,0200633,,,,,,,2023-06-14,1,,,,,ナゴミセツビ,0
852,3430003015148,新規,0,2023-06-14,2023-06-14,合同会社ＤＩＲＥＣＴＯＲＮＡＤＥ,,合同会社,北海道,札幌市南区,藤野四条８丁目１番４０号,,01,106,0612284,,,,,,,2023-06-14,1,,,,,ディレクトルネード,0
854,3460001005800,新規,0,2023-06-14,2023-06-14,株式会社エグチ工業,,株式会社,北海道,釧路市,新富士町５丁目２番４９号,,01,206,0840904,,,,,,,2023-06-14,1,,,,,エグチコウギョウ,0
857,3700150114930,新規,0,2023-06-14,2023-06-01,帝京大学医師会,,その他,東京都,板橋区,加賀２丁目１１－１,,13,119,1730003,,,,,,,2023-06-01,1,,,,,テイキヨウダイガクイシカイ,0
859,3700150117347,新規,0,2023-06-14,2023-06-14,ｓｈｅｎｚｈｅｎｓｈｉ　ｊｉｎｙｕａｎｌｉｍａｏｙｉ　ｙｏｕｘｉａｎｇｏｎｇｓｉ,,外国会社等,,,,,,,,ｌｏｎｇｈｕａｑｕｄａｌａｎｇｊｉｅｄａｏｄａｌａｎｇｓｈｅｑｕ　ｌｕｏｗｕｗｅｉｃｕｎ１７ｈａｏ６０３　ｓｈｅｎｚｈｅｎ　ｇｕａｎｇｄｏｎｇ　ＣＮ,,,,,,2023-06-14,1,,,,,シンセンシジンユェンリマオイユウゲンコウシ,0
860,3700150117355,新規,0,2023-06-14,2023-06-14,ＨＯＮＧＫＯＮＧ　ＲＥＶＯ　ＩＮＴＥＲＮＡＴＩＯＮＡＬ　ＴＲＡＤＥ　ＣＯ．，ＬＩＭＩＴＥＤ,,外国会社等,,,,,,,,１９Ｈ　Ｍａｘｇｒａｎｄ　Ｐｌａｚａ，Ｎｏ．３　Ｔａｉ　Ｙａｕ　Ｓｔｒｅｅｔ，Ｓａｎ　Ｐｏ　Ｋｏｎｇ，Ｋｏｗｌｏｏｎ,,,,,,2023-06-14,1,,,,,ホンコンレボインターナショナルトレードカンパニーリミテッド,0
861,3700150117413,新規,0,2023-06-14,2023-06-14,Ｓｈｅｎｚｈｅｎ　Ｇｒｅｅｎ　Ｅｌｅｃｔｒｉｃａｌ　Ａｐｐｌｉａｎｃｅ　Ｃｏ．，Ｌｔｄ,,外国会社等,,,,,,,,２０１，６　Ｂｕｉｌｄｉｎｇ，Ｍａｏｚｈｏｕ　Ｉｎｄｕｓｔｒｉａｌ　Ｚｏｎｅ，Ｌａｎｇｘｉａ　Ｃｏｍｍｕｎｉｔｙ，ＳｏｎｇＧａｎｇ，Ｂａｏａｎ　Ｄｉｓｔｒｉｃ，Ｓｈｅｎｚｈｅｎ，Ｇｕａｎｇｄｏｎｇ,,,,,,2023-06-14,1,,,,,シンセングリーンイレエクトリカルアプライアンスカンパニーリミテツド,0
872,4010003040831,新規,0,2023-06-14,2023-06-14,合同会社ＴＮＴ,,合同会社,東京都,千代田区,丸の内３丁目１番１号東京共同会計事務所内,,13,101,1000005,,,,,,,2023-06-14,1,,,,,ティエヌティ,0
873,4010003040872,新規,0,2023-06-14,2023-06-14,合同会社ＮＥＷ　ＰＥＲＩＯＤ,,合同会社,東京都,中央区,銀座１丁目１２番４号,,13,102,1040061,,,,,,,2023-06-14,1,,,,,ニューピリオド,0
880,4010103002161,新規,0,2023-06-14,2023-06-14,合同会社ＲＥＤ　ＢＥＡＮ,,合同会社,東京都,八王子市,小宮町１１８８番地３５,,13,201,1920031,,,,,,,2023-06-14,1,,,,,レッドビーン,0
888,4010401174958,新規,0,2023-06-14,2023-06-14,株式会社ハクトケ,,株式会社,東京都,港区,南青山２丁目２－１５,,13,103,1070062,,,,,,,2023-06-14,1,,,,,ハクトケ,0
895,4010801034043,新規,0,2023-06-14,2023-06-14,株式会社トラッシュエージェント,,株式会社,東京都,大田区,大森南１丁目１１番２号,,13,111,1430013,,,,,,,2023-06-14,1,,,,,トラッシュエージェント,0
909,4011101103109,新規,0,2023-06-14,2023-06-14,株式会社ＰＪＭ,,株式会社,東京都,新宿区,荒木町１３番地７,,13,104,1600007,,,,,,,2023-06-14,1,,,,,ピージェイエム,0
910,4011102008827,新規,0,2023-06-14,2023-06-14,有限会社カムグッド,,有限会社,東京都,板橋区,大和町２２番１８号,,13,119,1730012,,,,,,,2023-06-14,1,,,,,カムグッド,0
911,4011203004106,新規,0,2023-06-14,2023-06-14,合同会社ＢＡＣＣ,,合同会社,東京都,中野区,野方２丁目１３番６号,,13,114,1650027,,,,,,,2023-06-14,1,,,,,バック,0
914,4011501029424,新規,0,2023-06-14,2023-06-14,株式会社Ｅｎｔｅｒ　Ｗｏｒｔｈ,,株式会社,東京都,北区,滝野川７丁目４８番２－１００５号ＣＯＭＦＯＲＩＡ滝野川,,13,117,1140023,,,,,,,2023-06-14,1,,,,,エンターワース,0
918,4011703003499,新規,0,2023-06-14,2023-06-14,ＬＴ内装合同会社,,合同会社,東京都,江戸川区,南小岩７丁目６番５－８０２号,,13,123,1330056,,,,,,,2023-06-14,1,,,,,エルティーナイソウ,0
923,4012701017697,新規,0,2023-06-14,2023-06-14,株式会社ｋｅｙ　ｌａｂ,,株式会社,東京都,小平市,大沼町３丁目８番６号,,13,211,1870001,,,,,,,2023-06-14,1,,,,,キーラボ,0
926,4013101009194,新規,0,2023-06-14,2023-06-14,株式会社Ｚｅｓｔｙ　Ａｇｅｎｔ．,,株式会社,東京都,西多摩郡日の出町,大字平井２４０－９ルミナスハイム１０３,,13,305,1900182,,,,,,,2023-06-14,1,,,,,ゼストエージェント,0
931,4013303006659,新規,0,2023-06-14,2023-06-14,ＭＩＮＨ　ＫＨＡＮＧ合同会社,,合同会社,東京都,豊島区,要町３丁目２８番１号エクレールハイム２０１号,,13,116,1710043,,,,,,,2023-06-14,1,,,,,ミンカン,0
935,4020001152009,新規,0,2023-06-14,2023-06-14,株式会社ｉｄｅａｌ．Ｂｅ,,株式会社,神奈川県,川崎市高津区,千年８０番２号千年大藤ビル２０２,,14,134,2130022,,,,,,,2023-06-14,1,,,,,イデアルビー,0
936,4020001152033,新規,0,2023-06-14,2023-06-14,Ｔｅａｍ‐ｍａｔｅ株式会社,,株式会社,神奈川県,横浜市西区,浅間町１丁目４番３号ウィザードビル４０２,,14,103,2200072,,,,,,,2023-06-14,1,,,,,チームメイト,0
937,4020001152058,新規,0,2023-06-14,2023-06-14,株式会社浪漫商事,,株式会社,神奈川県,横浜市緑区,長津田町４１９６,,14,113,2260026,,,,,,,2023-06-14,1,,,,,ロマンショウジ,0
938,4020001152066,新規,0,2023-06-14,2023-06-14,株式会社林グループ,,株式会社,神奈川県,川崎市高津区,溝口５丁目６番３１号,,14,134,2130001,,,,,,,2023-06-14,1,,,,,ハヤシグループ,0
940,4020003024049,新規,0,2023-06-14,2023-06-14,合同会社ＮＥＥＤＳ,,合同会社,神奈川県,横浜市都筑区,新栄町１３－１８－４１０,,14,118,2240035,,,,,,,2023-06-14,1,,,,,ニーズ,0
941,4020003024057,新規,0,2023-06-14,2023-06-14,合同会社ＴＩＡＲＡ,,合同会社,神奈川県,横浜市西区,中央１丁目３７番１－３０７号,,14,103,2200051,,,,,,,2023-06-14,1,,,,,ティアラ,0
953,4021001079340,新規,0,2023-06-14,2023-06-14,株式会社ＣＥＮＤＲＥ,,株式会社,神奈川県,鎌倉市,大町５丁目１３－１４スタンザカマクラ２０２号室,,14,204,2480007,,,,,,,2023-06-14,1,,,,,サンドル,0
954,4021003013181,新規,0,2023-06-14,2023-06-14,３６９プロ合同会社,,合同会社,神奈川県,茅ヶ崎市,東海岸北５丁目１０番５０－３号,,14,207,2530053,,,,,,,2023-06-14,1,,,,,ミルクプロ,0
958,4030001154350,新規,0,2023-06-14,2023-06-14,株式会社伊豆,,株式会社,埼玉県,鴻巣市,吹上富士見４丁目１４番２０号,,11,217,3690121,,,,,,,2023-06-14,1,,,,,イズ,0
959,4030001154383,新規,0,2023-06-14,2023-06-14,株式会社ｎｉｃｏ,,株式会社,埼玉県,春日部市,西金野井４０３番地５,,11,214,3440112,,,,,,,2023-06-14,1,,,,,ニコ,0
968,4040001128816,新規,0,2023-06-14,2023-06-14,本草の物語株式会社,,株式会社,千葉県,我孫子市,湖北台３丁目７番１号,,12,222,2701132,,,,,,,2023-06-14,1,,,,,ホンゾウノモノガタリ,0
969,4040001128824,新規,0,2023-06-14,2023-06-14,株式会社ＫＡＺＵＨＡ,,株式会社,千葉県,八街市,八街ろ９２番地７,,12,230,2891144,,,,,,,2023-06-14,1,,,,,カズハ,0
970,4040001128849,新規,0,2023-06-14,2023-06-14,株式会社視覚デザインラボ,,株式会社,千葉県,浦安市,堀江３丁目６番１０号,,12,227,2790041,,,,,,,2023-06-14,1,,,,,シカクデザインラボ,0
973,4040003022777,新規,0,2023-06-14,2023-06-14,ＨＡＰＰＹ　ＡＵＴＯ　ＴＲＡＤＥＲＳ合同会社,,合同会社,千葉県,大網白里市,清水９５８番地１３,,12,239,2993212,,,,,,,2023-06-14,1,,,,,ハッピーオートトレーダーズ,0
974,4040003022793,新規,0,2023-06-14,2023-06-14,合同会社あしか荘,,合同会社,千葉県,銚子市,海鹿島町５２９０番地,,12,202,2880005,,,,,,,2023-06-14,1,,,,,アシカソウ,0
977,4050001052998,新規,0,2023-06-14,2023-06-14,三友株式会社,,株式会社,茨城県,つくば市,二の宮１丁目２－２,,08,220,3050051,,,,,,,2023-06-14,1,,,,,サンユウ,0
1000,4110001037605,新規,0,2023-06-14,2023-06-14,株式会社アルバライズ,,株式会社,新潟県,新潟市中央区,天神１丁目１番地,,15,103,9500917,,,,,,,2023-06-14,1,,,,,アルバライズ,0
1014,4120001255478,新規,0,2023-06-14,2023-06-14,株式会社縁,,株式会社,大阪府,大阪市東住吉区,桑津３丁目２９番４－１０５号,,27,121,5460041,,,,,,,2023-06-14,1,,,,,エニシ,0
1015,4120001255643,新規,0,2023-06-14,2023-06-14,竹起株式会社,,株式会社,大阪府,大阪市中央区,南船場１丁目３－１６グランドメゾン長堀橋６０３号,,27,128,5420081,,,,,,,2023-06-14,1,,,,,タケオキ,0
1016,4120001255668,新規,0,2023-06-14,2023-06-14,株式会社ＡＣＥ　ＰＲＩＤＥ,,株式会社,大阪府,大阪市中央区,島之内１丁目１９－１３山金ビル３階,,27,128,5420082,,,,,,,2023-06-14,1,,,,,エースプライド,0
1017,4120001255676,新規,0,2023-06-14,2023-06-14,株式会社エンブレース,,株式会社,大阪府,大阪市淀川区,十三元今里２丁目１２番２５号１０２室,,27,123,5320028,,,,,,,2023-06-14,1,,,,,エンブレース,0
1018,4120001255684,新規,0,2023-06-14,2023-06-14,ＮＥＷ　ＬＩＦＥ株式会社,,株式会社,大阪府,大阪市西成区,梅南２丁目２番２６－２０１号,,27,122,5570033,,,,,,,2023-06-14,1,,,,,ニューライフ,0
1022,4120003024294,新規,0,2023-06-14,2023-06-14,エスプラン合同会社,,合同会社,大阪府,大阪市北区,大淀南２丁目７－１,,27,127,5310075,,,,,,,2023-06-14,1,,,,,エスプラン,0
1024,4120101067716,新規,0,2023-06-14,2023-06-14,株式会社ＩＳＭ,,株式会社,大阪府,堺市堺区,新町３番４－４０３,,27,141,5900079,,,,,,,2023-06-14,1,,,,,アイエスエム,0
1027,4120103005244,新規,0,2023-06-14,2023-06-14,合同会社かいあお,,合同会社,大阪府,岸和田市,南町５７番１６号,,27,202,5960067,,,,,,,2023-06-14,1,,,,,カイアオ,0
1034,4130001074522,新規,0,2023-06-14,2023-06-14,株式会社雅京都観光,,株式会社,京都府,向日市,森本町天神森１６番地１,,26,208,6170003,,,,,,,2023-06-14,1,,,,,ミヤビキョウトカンコウ,0
1044,4140001130489,新規,0,2023-06-14,2023-06-14,株式会社ＡＳＴＹ,,株式会社,兵庫県,神戸市西区,池上１丁目１４－４,,28,111,6512111,,,,,,,2023-06-14,1,,,,,アスティー,0
1045,4140001130497,新規,0,2023-06-14,2023-06-14,京商自動車株式会社,,株式会社,兵庫県,神崎郡福崎町,山崎コモイケ１７３番地１,,28,443,6792211,,,,,,,2023-06-14,1,,,,,キョウショウジドウシャ,0
1046,4140001130506,新規,0,2023-06-14,2023-06-14,株式会社昴建設,,株式会社,兵庫県,姫路市,北条宮の町８８番地,,28,201,6700948,,,,,,,2023-06-14,1,,,,,スバルケンセツ,0
1047,4140001130514,新規,0,2023-06-14,2023-06-14,株式会社木村建設,,株式会社,兵庫県,明石市,二見町西二見８１０番地の１ライオンズマンション明石二見３０５号,,28,203,6740094,,,,,,,2023-06-14,1,,,,,キムラケンセツ,0
1048,4140001130530,新規,0,2023-06-14,2023-06-14,株式会社宝城,,株式会社,兵庫県,宝塚市,川面３丁目１６番１３号２Ｆ,,28,214,6650842,,,,,,,2023-06-14,1,,,,,ホウジョウ,0
1052,4140003019185,新規,0,2023-06-14,2023-06-14,合同会社スターボードシステム,,合同会社,兵庫県,神戸市中央区,磯辺通１丁目１番１８号カサベラ国際プラザビル７０７,,28,110,6510084,,,,,,,2023-06-14,1,,,,,スターボードシステム,0
1053,4140005026650,新規,0,2023-06-14,2023-06-14,みんなのＮＰＯ法人,,その他の設立登記法人,兵庫県,神戸市西区,神出町五百蔵１４２番地の１８３,,28,111,6512303,,,,,,,2023-06-14,1,,,,,ミンナノ,0
1054,4140005026659,新規,0,2023-06-14,2023-06-14,特定非営利活動法人ＫＯＢＥジュニアハイスクールクラブ,,その他の設立登記法人,兵庫県,神戸市垂水区,舞子坂３丁目９番２０号,,28,108,6550044,,,,,,,2023-06-14,1,,,,,コウベジュニアハイスクールクラブ,0
1064,4180001156695,新規,0,2023-06-14,2023-06-14,株式会社ＢａＢ,,株式会社,愛知県,名古屋市中区,丸の内３丁目２１－２１丸の内東桜ビル２０８号,,23,106,4600002,,,,,,,2023-06-14,1,,,,,バブ,0
1065,4180001156720,新規,0,2023-06-14,2023-06-14,株式会社イマケン,,株式会社,愛知県,一宮市,浅野字西屋敷１１０番地８,,23,203,4910871,,,,,,,2023-06-14,1,,,,,イマケン,0
1066,4180001156761,新規,0,2023-06-14,2023-06-14,ＷＥＬＬＦＯＲＣＥＳ　ＪＡＰＡＮ株式会社,,株式会社,愛知県,名古屋市東区,東桜２丁目３番５号,,23,102,4610005,,,,,,,2023-06-14,1,,,,,ウェルフォースジャパン,0
1073,4190001030494,新規,0,2023-06-14,2023-06-14,株式会社テクノス,,株式会社,三重県,桑名市,陽だまりの丘１丁目１００２番地モデルノＩＩ棟０２０２号室,00130836,24,205,5110867,,,,,,,2023-06-14,1,,,,,テクノス,0
1077,4210001019353,新規,0,2023-06-14,2023-06-14,株式会社Ｍａｈｋ,,株式会社,福井県,坂井市,春江町寄安第１０号４０番地４,,18,210,9190442,,,,,,,2023-06-14,1,,,,,マーク,0
1084,4240001061666,新規,0,2023-06-14,2023-06-14,株式会社アピアホールディングス,,株式会社,広島県,福山市,春日町７丁目２番３３号,,34,207,7210907,,,,,,,2023-06-14,1,,,,,アピアホールディングス,0
1085,4240003006181,新規,0,2023-06-14,2023-06-14,合同会社マウロア,,合同会社,広島県,福山市,神辺町大字上御領字金平７３１７,,34,207,7210000,,,,,,,2023-06-14,1,,,,,マウロア,0
1086,4250001020142,新規,0,2023-06-14,2023-06-14,岡邊建設株式会社,,株式会社,山口県,山口市,芝崎町９番１－４号,,35,203,7530025,,,,,,,2023-06-14,1,,,,,オカベケンセツ,0
1087,4250001020150,新規,0,2023-06-14,2023-06-14,ＦＲＡジャパン株式会社,,株式会社,山口県,周南市,大字栗屋１５６番地の３４,,35,215,7450802,,,,,,,2023-06-14,1,,,,,フラジャパン,0
1088,4270001008788,新規,0,2023-06-14,2023-06-14,株式会社Ｂ．Ｏ．Ｔ,,株式会社,鳥取県,日野郡日野町,下榎１３２番地１,,31,402,6894526,,,,,,,2023-06-14,1,,,,,ビーオーティー,0
1113,4420001018301,新規,0,2023-06-14,2023-06-14,株式会社ラッキーレンタカー,,株式会社,青森県,八戸市,青葉３丁目５番１８－１号,,02,203,0310804,,,,,,,2023-06-14,1,,,,,ラッキーレンタカー,0
1117,4430001089283,新規,0,2023-06-14,2023-06-14,株式会社澤田塗装,,株式会社,北海道,小樽市,銭函１丁目３５番２４号,,01,203,0470261,,,,,,,2023-06-14,1,,,,,サワダトソウ,0
1118,4430001089309,新規,0,2023-06-14,2023-06-14,株式会社まる京,,株式会社,北海道,札幌市中央区,宮の森二条１７丁目１３番３１号,,01,101,0640952,,,,,,,2023-06-14,1,,,,,マルキョウ,0
1122,4430003015130,新規,0,2023-06-14,2023-06-14,合同会社プラマーサービス,,合同会社,北海道,苫小牧市,拓勇東町７丁目４番２１号,,01,213,0591303,,,,,,,2023-06-14,1,,,,,プラマーサービス,0
1128,4470001019658,新規,0,2023-06-14,2023-06-14,株式会社真神,,株式会社,香川県,東かがわ市,松原２１４２番地,,37,207,7692702,,,,,,,2023-06-14,1,,,,,マガミ,0
1131,4700150116827,新規,0,2023-06-14,2023-06-02,宇都宮市多面的機能支払交付金広域協定運営委員会,,その他,栃木県,宇都宮市,旭１丁目１－５農業企画課内,,09,201,3200818,,,,,,,2023-06-02,1,,,,,ウツノミヤシタメンテキキノウシハライコウフキンコウイキキヨウテイウンエイイインカイ,0
1132,4700150117346,新規,0,2023-06-14,2023-06-14,Ｂｅｉｊｉｎｇ　Ｙｉｚｉｂａｉ　Ｔｒａｄｅ　Ｃｏ．，ＬＴＤ,,外国会社等,,,,,,,,５Ｃ－２－０８８　Ｂａｉｒｏｎｇ　Ｍａｌｌ　Ｎｏ．１０１　Ｙｏｎｇｄｉｎｇｍｅｎｗａｉ　Ｓｔｒｅｅｔ，Ｄｏｎｇｃｈｅｎｇ　Ｂｅｉｊｉｎｇ　Ｃｈｉｎａ,,,,,,2023-06-14,1,,,,,ベイジンイズバイトレードカンパニーリミテッド,0
1133,4700150117354,新規,0,2023-06-14,2023-06-14,Ｓｈｅｎｚｈｅｎ　Ｃｈａｎｇｓｈｅｎｇ　Ｔｅｃｈｎｏｌｏｇｙ　ＣＯ．，ＬＴＤ．,,外国会社等,,,,,,,,４０５，ｔｉａｎｊｉｚｕｏ，ＸｉｎｇｇａｎｇＴｏｎｇｃｈｕａｎｇｈｕｉ，Ｎｏ．６０９９　Ｂａｏａｎ　Ａｖｅｎｕｅ，ｑｉａｏｔｏｕｓｈｅｑｕ，ｆｕｈａｉｊｉｅｄａｏ，ｂａｏａｎｑｕ，ｓｈｅｎｚｈｅｎ　ｇｕａｎｇｄｏｎｇ,,,,,,2023-06-14,1,,,,,シェンゼェンチャンシェンテクノロジーカンパニーリミテッド,0
1134,4700150117362,新規,0,2023-06-14,2023-06-14,Ｈａｉｎａｎ　ｃａｉｈｅ　ｊｉｎｃｈｕｋｏｕ　ｍａｏｙｉ　ｙｏｕｘｉａｎｇｏｎｇｓｉ,,外国会社等,,,,,,,,Ｈａｉｄｉａｎ　Ｓｔｒｅｅｔ，Ｍｅｉｌａｎ　Ｄｉｓｔｒｉｃｔ　Ｒｏｏｍ　９０１，Ｂｕｉｌｄｉｎｇ　Ｂ，Ｈｏｎｇｆａ　Ｇｅ，Ｙｏｎｇｆａ　Ｃｏｍｍｕｎｉｔｙ　Ｈａｉｋｏｕ　Ｃｉｔｙ　Ｈａｉｎａｎ　Ｐｒｏｖｉｎｃｅ,,,,,,2023-06-14,1,,,,,ハイナンツアイヘジンチュコウマオイユウゲンコウシ,0
1135,4700150117412,新規,0,2023-06-14,2023-06-14,ＴＥＣＨＧＥＮＥＲＯ　ＳＯＬＵＴＩＯＮＳ　ＰＲＩＶＡＴＥ　ＬＩＭＩＴＥＤ,,外国会社等,,,,,,,,Ｇ－３０，Ｓｅｃｏｎｄ　Ｆｌｏｏｒ，Ｓｏｕｔｈ　Ｃｉｔｙ－２，Ｇｕｒｇａｏｎ，Ｈａｒｙａｎａ－１２２００１,,,,,,2023-06-14,1,,,,,テツクジエネロソリユーシヨンズプライベートリミテツド,0
1138,5010001236100,新規,0,2023-06-14,2023-06-14,株式会社ガガストロベリー,,株式会社,東京都,中央区,銀座１丁目１２番４号Ｎ＆ＥＢＬＤ．６Ｆ,,13,102,1040061,,,,,,,2023-06-14,1,,,,,ガガストロベリー,0
1141,5010101015684,新規,0,2023-06-14,2023-06-14,株式会社リープス,,株式会社,東京都,八王子市,鑓水２１０７番地７,,13,201,1920375,,,,,,,2023-06-14,1,,,,,リープス,0
1145,5010401174957,新規,0,2023-06-14,2023-06-14,ＭＨメディカルヘルス株式会社,,株式会社,東京都,港区,南青山２丁目２４番５号ビューロー青山２０４号,,13,103,1070062,,,,,,,2023-06-14,1,,,,,エムエイチメディカルヘルス,0
1146,5010401174973,新規,0,2023-06-14,2023-06-14,株式会社ファンダメンタルバリュー研究所,,株式会社,東京都,港区,北青山１丁目３番１－３号,,13,103,1070061,,,,,,,2023-06-14,1,,,,,ファンダメンタルバリューケンキュウショ,0
1147,5010401174998,新規,0,2023-06-14,2023-06-14,株式会社ＳＡＯ不動産,,株式会社,東京都,港区,赤坂２丁目１４番５号Ｄａｉｗａ赤坂ビル７階,,13,103,1070052,,,,,,,2023-06-14,1,,,,,エスエーオーフドウサン,0
1151,5010503007040,新規,0,2023-06-14,2023-06-14,合同会社シリウス,,合同会社,東京都,台東区,谷中２丁目１－１１,,13,106,1100001,,,,,,,2023-06-14,1,,,,,シリウス,0
1161,5011005010111,新規,0,2023-06-14,2023-06-14,一般財団法人野村芳光財団,,その他の設立登記法人,東京都,渋谷区,代官山町１３番８号,,13,113,1500034,,,,,,,2023-06-14,1,,,,,ノムラヨシミツザイダン,0
1166,5011101103248,新規,0,2023-06-14,2023-06-14,株式会社ホライズン,,株式会社,東京都,新宿区,西早稲田３丁目１８番１６号１Ｆ,,13,104,1690051,,,,,,,2023-06-14,1,,,,,ホライズン,0
1175,5011603003953,新規,0,2023-06-14,2023-06-14,合同会社まるふく,,合同会社,東京都,練馬区,関町南２丁目２５番３７号,,13,120,1770053,,,,,,,2023-06-14,1,,,,,マルフク,0
1176,5011605002532,新規,0,2023-06-14,2023-06-14,一般社団法人樹恵子サロン,,その他の設立登記法人,東京都,練馬区,桜台２丁目１６番２号,,13,120,1760002,,,,,,,2023-06-14,1,,,,,キエコサロン,0
1177,5011703003498,新規,0,2023-06-14,2023-06-14,イフジ合同会社,,合同会社,東京都,江戸川区,西葛西３丁目１３番１２－５０７号田中第２ビルツイン・コート,,13,123,1340088,,,,,,,2023-06-14,1,,,,,イフジ,0
1179,5011801042571,新規,0,2023-06-14,2023-06-14,株式会社エム・クリエイト,,株式会社,東京都,足立区,大谷田１丁目３９番１号シャイン・ハイム大谷田１０２,,13,121,1200001,,,,,,,2023-06-14,1,,,,,エムクリエイト,0
1190,5020001151942,新規,0,2023-06-14,2023-06-14,株式会社オフィス葉山,,株式会社,神奈川県,川崎市多摩区,登戸１８３１番地１デル・スールテラス１０１,,14,135,2140014,,,,,,,2023-06-14,1,,,,,オフィスハヤマ,0
1191,5020001152008,新規,0,2023-06-14,2023-06-14,株式会社カプール,,株式会社,神奈川県,横浜市鶴見区,尻手３丁目８－１２Ｃ－Ｆｉｒｓｔ１０２,,14,101,2300003,,,,,,,2023-06-14,1,,,,,カプール,0
1192,5020001152024,新規,0,2023-06-14,2023-06-14,株式会社Ｐｏｔａ,,株式会社,神奈川県,横浜市保土ケ谷区,宮田町２丁目１５５番地１８－３０５号,,14,106,2400002,,,,,,,2023-06-14,1,,,,,ポタ,0
1193,5020001152032,新規,0,2023-06-14,2023-06-14,株式会社パル,,株式会社,神奈川県,横浜市西区,北幸２丁目１０番地２８むつみビル３Ｆ,,14,103,2200004,,,,,,,2023-06-14,1,,,,,パル,0
1194,5020001152049,新規,0,2023-06-14,2023-06-14,ＮＯＴＯＹ株式会社,,株式会社,神奈川県,横浜市青葉区,荏田町４４９番地２９,,14,117,2250013,,,,,,,2023-06-14,1,,,,,ノトイ,0
1195,5020001152057,新規,0,2023-06-14,2023-06-14,株式会社ＩＴ　Ａｎｙｗｈｅｒｅ,,株式会社,神奈川県,横浜市戸塚区,前田町２１４番地１グランドメゾン東戸塚７番館４１１号,,14,110,2440804,,,,,,,2023-06-14,1,,,,,アイティーエニイホエア,0
1196,5020001152073,新規,0,2023-06-14,2023-06-14,株式会社オフィスツカサエンタープライズ,,株式会社,神奈川県,横浜市神奈川区,片倉１丁目３０番５号レオネクストフローラ片倉１０４号,,14,102,2210865,,,,,,,2023-06-14,1,,,,,オフィスツカサエンタープライズ,0
1197,5020001152081,新規,0,2023-06-14,2023-06-14,株式会社シーアイシステム,,株式会社,神奈川県,横浜市港北区,新吉田町５５２４番地６３,,14,109,2230056,,,,,,,2023-06-14,1,,,,,シーアイシステム,0
1200,5020003024048,新規,0,2023-06-14,2023-06-14,ラッキースムーズ合同会社,,合同会社,神奈川県,横浜市保土ケ谷区,藤塚町１１－１ロイヤルシャトー保土ヶ谷公園２０２,,14,106,2400031,,,,,,,2023-06-14,1,,,,,ラッキースムーズ,0
1201,5020003024064,新規,0,2023-06-14,2023-06-14,クリエイション合同会社,,合同会社,神奈川県,横浜市磯子区,磯子２丁目４番２０号,,14,107,2350016,,,,,,,2023-06-14,1,,,,,クリエイション,0
1206,5021001079323,新規,0,2023-06-14,2023-06-14,株式会社ＴＸＭ,,株式会社,神奈川県,中郡大磯町,西久保１９５番地６,,14,341,2590104,,,,,,,2023-06-14,1,,,,,ティーエックスエム,0
1220,5030001154201,新規,0,2023-06-14,2023-06-14,株式会社サン設備ホールディングス,,株式会社,埼玉県,川口市,上青木西３丁目６番３４号,,11,203,3330845,,,,,,,2023-06-14,1,,,,,サンセツビホールディングス,0
1221,5030001154291,新規,0,2023-06-14,2023-06-14,株式会社Ｍｙｋｏｎｏｓ,,株式会社,埼玉県,さいたま市浦和区,領家７丁目２２番６号,,11,107,3300072,,,,,,,2023-06-14,1,,,,,ミコノス,0
1237,5070001040538,新規,0,2023-06-14,2023-06-14,エンドスケープ株式会社,,株式会社,群馬県,高崎市,江木町９８３番地１ヤマタカシティビル１階,,10,202,3700046,,,,,,,2023-06-14,1,,,,,エンドスケープ,0
1238,5070003004986,新規,0,2023-06-14,2023-06-14,合同会社レフスタジオ,,合同会社,群馬県,前橋市,下小出町２丁目２２番２４号,,10,201,3710031,,,,,,,2023-06-14,1,,,,,,0
1242,5080003002997,新規,0,2023-06-14,2023-06-14,合同会社Ｒｉｎｇ,,合同会社,静岡県,静岡市清水区,長崎１１１７番地２サンライズ．アヴェニュー１０２号室,,22,103,4240065,,,,,,,2023-06-14,1,,,,,リング,0
1247,5090005007572,新規,0,2023-06-14,2023-06-14,一般社団法人いきいきライフ協会みのり,,その他の設立登記法人,山梨県,南都留郡山中湖村,平野５１９番地の８４の１０１,,19,425,4010502,,,,,,,2023-06-14,1,,,,,イキイキライフキョウカイミノリ,0
1263,5120001255510,新規,0,2023-06-14,2023-06-14,株式会社プロスペクトブリッジ,,株式会社,大阪府,大阪市阿倍野区,松崎町２丁目６番１４－４０４号,,27,119,5450053,,,,,,,2023-06-14,1,,,,,プロスペクトブリッジ,0
1264,5120001255700,新規,0,2023-06-14,2023-06-14,株式会社ＲＥＶＯ,,株式会社,大阪府,大阪市北区,梅田２丁目５番１３号桜橋第一ビル３０４号,,27,127,5300001,,,,,,,2023-06-14,1,,,,,レヴォ,0
1265,5120001255709,新規,0,2023-06-14,2023-06-14,株式会社ａｎｄ　ｍｏｒｅ,,株式会社,大阪府,守口市,大日東町４番Ａ８０１,,27,209,5700016,,,,,,,2023-06-14,1,,,,,アンドモア,0
1279,5120901047651,新規,0,2023-06-14,2023-06-14,メディカルプランナー株式会社,,株式会社,大阪府,池田市,城南３丁目５番２１－６０７号,,27,204,5630025,,,,,,,2023-06-14,1,,,,,メディカルプランナー,0
1281,5122001037070,新規,0,2023-06-14,2023-06-14,株式会社Ｃｕｏｒｅ,,株式会社,大阪府,八尾市,西山本町４丁目１５番８号,,27,212,5810868,,,,,,,2023-06-14,1,,,,,クオーレ,0
1284,5130001074521,新規,0,2023-06-14,2023-06-14,株式会社ＭＹ　Ｎｅｉｇｈｂｏｒｓ,,株式会社,京都府,相楽郡和束町,大字下島小字横枕１１番地１,,26,365,6191226,,,,,,,2023-06-14,1,,,,,マイネイバーズ,0
1285,5130001074546,新規,0,2023-06-14,2023-06-14,株式会社青葉堂,,株式会社,京都府,舞鶴市,浜町７－１０,,26,202,6250037,,,,,,,2023-06-14,1,,,,,アオバドウ,0
1302,5140001130488,新規,0,2023-06-14,2023-06-14,株式会社ＫＵＲＯＤＥＮ,,株式会社,兵庫県,尼崎市,塚口本町３丁目１９番３号,,28,202,6610001,,,,,,,2023-06-14,1,,,,,クロデン,0
1304,5140003019176,新規,0,2023-06-14,2023-06-14,但馬くらしのサポート合同会社,,合同会社,兵庫県,養父市,八鹿町八鹿１６５５番地４,,28,222,6670021,,,,,,,2023-06-14,1,,,,,タジマクラシノサポート,0
1310,5170003001882,新規,0,2023-06-14,2023-06-14,ＴＭインタミデーション合同会社,,合同会社,和歌山県,有田郡有田川町,大字徳田５２４番地,,30,366,6430801,,,,,,,2023-06-14,1,,,,,ティーエムインタミデーション,0
1317,5180001156728,新規,0,2023-06-14,2023-06-14,株式会社Ｗｅｂ３マイニング,,株式会社,愛知県,名古屋市中区,新栄１丁目４１番３０号ホームタウンビルディング１Ｆ,,23,106,4600007,,,,,,,2023-06-14,1,,,,,ウェブスリーマイニング,0
1318,5180001156744,新規,0,2023-06-14,2023-06-14,株式会社ＭＰ,,株式会社,愛知県,名古屋市昭和区,車田町２丁目１０１番地,,23,107,4660001,,,,,,,2023-06-14,1,,,,,エムピー,0
1321,5180003025369,新規,0,2023-06-14,2023-06-14,合同会社ダンディール,,合同会社,愛知県,瀬戸市,上之山町２丁目１７１番地の３６１,,23,204,4890964,,,,,,,2023-06-14,1,,,,,ダンディール,0
1340,5240003006180,新規,0,2023-06-14,2023-06-14,クリエイトバリュー合同会社,,合同会社,広島県,広島市中区,十日市町２丁目５番２９－２０２号,,34,101,7300805,,,,,,,2023-06-14,1,,,,,クリエイトバリュー,0
1342,5250003003292,新規,0,2023-06-14,2023-06-14,嘉興合同会社,,合同会社,山口県,防府市,開出西町３２番１１号,,35,206,7470054,,,,,,,2023-06-14,1,,,,,カキョウ,0
1362,5290003014022,新規,0,2023-06-14,2023-06-14,合同会社Ｕｐ　Ｓｔａｒｔ,,合同会社,福岡県,福岡市博多区,那珂３丁目７番９号,,40,132,8120893,,,,,,,2023-06-14,1,,,,,アップスタート,0
1363,5290003014030,新規,0,2023-06-14,2023-06-14,ＭＵＲＥ合同会社,,合同会社,福岡県,福岡市中央区,赤坂１丁目２番１５－９０１号,,40,133,8100042,,,,,,,2023-06-14,1,,,,,ムレ,0
1371,5320003004102,新規,0,2023-06-14,2023-06-14,合同会社Ｏｎｅ　Ｐｏｌｉｔｅ,,合同会社,大分県,中津市,大字下池永１９２－１１,,44,203,8710011,,,,,,,2023-06-14,1,,,,,ワンポライト,0
1372,5340005009618,新規,0,2023-06-14,2023-06-14,特定非営利活動法人春之会,,その他の設立登記法人,鹿児島県,鹿屋市,寿８丁目５番３５号,,46,203,8930014,,,,,,,2023-06-14,1,,,,,ハルノカイ,0
1377,5360001032150,新規,0,2023-06-14,2023-06-14,株式会社大翔土建,,株式会社,沖縄県,浦添市,前田３丁目１５９５番地１,,47,208,9012102,,,,,,,2023-06-14,1,,,,,タイショウドケン,0
1387,5400003003095,新規,0,2023-06-14,2023-06-14,合同会社Ｃｏｎｎｅｃｔ　Ｉ,,合同会社,岩手県,上閉伊郡大槌町,吉里々々第１１地割６４－１０,,03,461,0281101,,,,,,,2023-06-14,1,,,,,コネクトアイ,0
1388,5420001018300,新規,0,2023-06-14,2023-06-14,株式会社今匠建築,,株式会社,青森県,青森市,大字石江字江渡５２番地１０１,,02,201,0380003,,,,,,,2023-06-14,1,,,,,コンショウケンチク,0
1394,5430003015113,新規,0,2023-06-14,2023-06-14,合同会社ＳＦＩＤＡ,,合同会社,北海道,札幌市手稲区,曙四条１丁目２番３号エステートライフ曙４条２０２号,00130835,01,109,0060834,,,,,,,2023-06-14,1,,,,,スフィーダ,0
1395,5430003015121,新規,0,2023-06-14,2023-06-14,ＳｉＳｌａｂｏｒａｔｏｒｙ合同会社,,合同会社,北海道,余市郡余市町,美園町１９８番地２７,,01,408,0460014,,,,,,,2023-06-14,1,,,,,シスラボラトリー,0
1396,5430003015138,新規,0,2023-06-14,2023-06-14,合同会社ケイシン,,合同会社,北海道,札幌市厚別区,上野幌二条６丁目１０－５,,01,108,0040032,,,,,,,2023-06-14,1,,,,,ケイシン,0
1408,5700150117345,新規,0,2023-06-14,2023-06-14,Ｓｈｅｎｚｈｅｎｓｈｉ　ｈｕａｍｅｉｌｉａｎｘｕｎ　ｋｅｊｉ　ｙｏｕｘｉａｎｇｏｎｇｓｉ,,外国会社等,,,,,,,,Ｆｕｔｉａｎｑｕｈｕａｑｉａｎｇｂｅｉｊｉｅｄａｏｈｕａｑｉａｎｇｂｅｉｌｕ　Ｈｕａｑｉａｎｇｇｕａｎｇｃｈａｎｇｂｚｕｏ２２ｃｅｎｇ２２ｇｆａｎｇ　Ｓｈｅｎｚｈｅｎ　Ｇｕａｎｇｄｏｎｇ　ＣＮ,,,,,,2023-06-14,1,,,,,シェンゼェンシフアメイリャンシュンケジユウゲンコウシ,0
1409,5700150117353,新規,0,2023-06-14,2023-06-14,Ｓｈｅｎｚｈｅｎｓｈｉ　ｈｏｎｇｊｕｎｔａｎｇ　ｗｅｎｈｕａ　ｙｏｕｘｉａｎ　ｇｏｎｇｓｉ,,外国会社等,,,,,,,,Ｎｏ．０２６，１ｓｔ　Ｆｌｏｏｒ，Ｂｕｉｌｄｉｎｇ　Ｅ，Ｃｕｌｔｕｒａｌ　ａｎｄ　Ｃｒｅａｔｉｖｅ　Ｐａｒｋ　Ｎｏ．４００１，Ｆｕｑｉａｎｇ　Ｒｏａｄ，Ｓｈａｔｏｕ　Ｓｔｒｅｅｔ，Ｆｕｔｉａｎ　Ｄｉｓｔｒｉｃｔ　Ｓｈｅｎｚｈｅｎ　Ｇｕａｎｇｄｏｎｇ　ＣＮ,,,,,,2023-06-14,1,,,,,シンセンシホンジュンタンウェンホゥアユウゲンコウシ,0
1410,5700150117361,新規,0,2023-06-14,2023-06-14,Ｑｉｎｇｄａｏ　Ｚｈｅｎｇｔａｏ　Ｔｏｏｌ　Ｃｏ．，ＬＴＤ,,外国会社等,,,,,,,,Ｓｈａｎｊｉａｂｅｉ　Ｖｉｌｌａｇｅ　Ｎｏｒｔｈ，Ｚｈａｎｇｊｉａｌｏｕ　Ｔｏｗｎ，Ｈｕａｎｇｄａｏ　Ｄｉｓｔｒｉｃｔ　Ｑｉｎｇｄａｏ　Ｓｈａｎｄｏｎｇ,,,,,,2023-06-14,1,,,,,チンダオヂェンタオトゥールカンパニーリミテッド,0
1411,5700150117411,新規,0,2023-06-14,2023-06-14,Ｄｏｎｇｇｕａｎ　Ｓｉｌｉｎｇ　Ｔｅｃｈｎｏｌｏｇｙ　Ｃｏ．，Ｌｔｄ,,外国会社等,,,,,,,,Ｒｏｏｍ　５０３，Ｂｕｉｌｄｉｎｇ　２，５３　Ｇａｏｔａｎｇ　Ｒｏａｄ　Ｄｏｎｇｇｕａｎ　Ｃｉｔｙ　Ｔａｎｇｘｉａ　ｔｏｗｎ　Ｇｕａｎｇｄｏｎｇ　Ｐｒｏｖｉｎｃｅ　５２３７１６　ＣＮ,,,,,,2023-06-14,1,,,,,トウカンシシレイテクノロジーカンパニーリミテツド,0
1417,6010001236099,新規,0,2023-06-14,2023-06-14,ミュージック・コミックス株式会社,,株式会社,東京都,千代田区,内神田２丁目２番６号,,13,101,1010047,,,,,,,2023-06-14,1,,,,,ミュージックコミックス,0
1418,6010001236124,新規,0,2023-06-14,2023-06-14,株式会社レバ,,株式会社,東京都,千代田区,神田猿楽町２丁目１番２号鎌形ビル４階,,13,101,1010064,,,,,,,2023-06-14,1,,,,,レバ,0
1419,6010001236173,新規,0,2023-06-14,2023-06-14,株式会社トライムーン,,株式会社,東京都,文京区,小日向１丁目２２番７号,,13,105,1120006,,,,,,,2023-06-14,1,,,,,トライムーン,0
1420,6010003040846,新規,0,2023-06-14,2023-06-14,Ｄ・Ｐａｒｔｎｅｒｓ合同会社,,合同会社,東京都,中央区,日本橋兜町１－２,,13,102,1030026,,,,,,,2023-06-14,1,,,,,ディーパートナーズ,0
1433,6010401174956,新規,0,2023-06-14,2023-06-14,ＭＨ資産マネジメント株式会社,,株式会社,東京都,港区,南青山２丁目２４番５号ビューロー青山２０４号,,13,103,1070062,,,,,,,2023-06-14,1,,,,,エムエイチシサンマネジメント,0
1434,6010401174989,新規,0,2023-06-14,2023-06-14,株式会社ＳＡ　Ｊａｐａｎ,,株式会社,東京都,港区,南青山２丁目４番１５号天翔南青山ビルＳ－４１２,,13,103,1070062,,,,,,,2023-06-14,1,,,,,エスエイジャパン,0
1435,6010501050603,新規,0,2023-06-14,2023-06-14,森水株式会社,,株式会社,東京都,台東区,下谷２丁目２４－１１,,13,106,1100004,,,,,,,2023-06-14,1,,,,,モリミズ,0
1440,6010901053239,新規,0,2023-06-14,2023-06-14,株式会社ＵｐＳｉｄｅ,,株式会社,東京都,世田谷区,千歳台４丁目２１番３号,,13,112,1570071,,,,,,,2023-06-14,1,,,,,アップサイド,0
1452,6011003016968,新規,0,2023-06-14,2023-06-14,合同会社３ｒｄ　Ｓｔａｇｅ,,合同会社,東京都,渋谷区,道玄坂２丁目１５番１号ノア道玄坂１１９,,13,113,1500043,,,,,,,2023-06-14,1,,,,,サードステージ,0
1458,6011101103247,新規,0,2023-06-14,2023-06-14,株式会社ＲＡＦＴＥＬ　ＨＯＭＥ’Ｓ,,株式会社,東京都,新宿区,市谷本村町３番２０号新盛堂ビル別館５階,,13,104,1620845,,,,,,,2023-06-14,1,,,,,ラフテルホームズ,0
1459,6011101103255,新規,0,2023-06-14,2023-06-14,株式会社ｍｉｔａｒａｓｈｉ,,株式会社,東京都,新宿区,西新宿３丁目３番１３号西新宿水間ビル２Ｆ,,13,104,1600023,,,,,,,2023-06-14,1,,,,,ミタラシ,0
1463,6011301028780,新規,0,2023-06-14,2023-06-14,株式会社ＭＭ‐アドバイザリー,,株式会社,東京都,杉並区,成田東４丁目３番１－５０３号,,13,115,1660015,,,,,,,2023-06-14,1,,,,,エムエムアドバイザリー,0
1472,6011501029414,新規,0,2023-06-14,2023-06-14,中江株式会社,,株式会社,東京都,荒川区,東日暮里３丁目９番１４－４０４号,,13,118,1160014,,,,,,,2023-06-14,1,,,,,ナカエ,0
1476,6011605002531,新規,0,2023-06-14,2023-06-14,一般社団法人サニーデイズ,,その他の設立登記法人,東京都,練馬区,北町１丁目２１番１０号,,13,120,1790081,,,,,,,2023-06-14,1,,,,,サニーデイズ,0
1491,6020001152080,新規,0,2023-06-14,2023-06-14,株式会社ＳＢＣ湘南接骨院,,株式会社,神奈川県,横浜市戸塚区,上倉田町９０８番地,,14,110,2440816,,,,,,,2023-06-14,1,,,,,エスビーシーショウナンセッコツイン,0
1492,6020001152097,新規,0,2023-06-14,2023-06-14,株式会社クーレックス,,株式会社,神奈川県,横浜市磯子区,滝頭２丁目１９番８号,,14,107,2350012,,,,,,,2023-06-14,1,,,,,クーレックス,0
1504,6021001079330,新規,0,2023-06-14,2023-06-14,株式会社千羽がんす,,株式会社,神奈川県,平塚市,入野２５１番地の４,,14,203,2591216,,,,,,,2023-06-14,1,,,,,チバガンス,0
1506,6021003013213,新規,0,2023-06-14,2023-06-14,合同会社アモーレ,,合同会社,神奈川県,三浦郡葉山町,堀内２０５号,,14,301,2400112,,,,,,,2023-06-14,1,,,,,アモーレ,0
1508,6030001154407,新規,0,2023-06-14,2023-06-14,ＭＮ　ＥＮＴＥＲＰＲＩＳＥＳ株式会社,,株式会社,埼玉県,本庄市,東台１丁目２９９１番地４マロンハイツ２０３号室,,11,211,3670021,,,,,,,2023-06-14,1,,,,,エムエヌエンタープライゼス,0
1509,6030001154448,新規,0,2023-06-14,2023-06-14,Ｓｍａｌｔ株式会社,,株式会社,埼玉県,川口市,大字峯１０５７番地の６,,11,203,3340056,,,,,,,2023-06-14,1,,,,,スマルト,0
1518,6040001128814,新規,0,2023-06-14,2023-06-14,株式会社雅工業,,株式会社,千葉県,柏市,逆井２９０番地,,12,217,2770042,,,,,,,2023-06-14,1,,,,,ミヤビコウギョウ,0
1519,6040001128830,新規,0,2023-06-14,2023-06-14,株式会社ＲｉｎｇｓＣａｒｅ,,株式会社,千葉県,浦安市,日の出１丁目４番Ｈ－１３０２号ベイシティ浦安,,12,227,2790013,,,,,,,2023-06-14,1,,,,,リングスケア,0
1520,6040001128855,新規,0,2023-06-14,2023-06-14,株式会社ｗｏｒｍｗｏｏｄ,,株式会社,千葉県,佐倉市,中志津４丁目１－２２,,12,212,2850843,,,,,,,2023-06-14,1,,,,,ワームウッド,0
1522,6040003022791,新規,0,2023-06-14,2023-06-14,合同会社ボルドー,,合同会社,千葉県,浦安市,北栄１丁目１７番１５号浦安駅前ビル２階２０２号室,,12,227,2790002,,,,,,,2023-06-14,1,,,,,ボルドー,0
1525,6050001052955,新規,0,2023-06-14,2023-06-14,株式会社アレックス,,株式会社,茨城県,龍ケ崎市,若柴町１６９０,,08,208,3010041,,,,,,,2023-06-14,1,,,,,,0
1526,6050001052988,新規,0,2023-06-14,2023-06-14,株式会社ＫＯＩＺＵＭＩ,,株式会社,茨城県,土浦市,木田余東台１丁目１３番９号,,08,203,3000027,,,,,,,2023-06-14,1,,,,,コイズミ,0
1528,6050003007577,新規,0,2023-06-14,2023-06-14,Ｍ‐Ｓ　ＴＲＡＤＩＮＧ合同会社,,合同会社,茨城県,下妻市,黒駒１０５３番３,,08,210,3040007,,,,,,,2023-06-14,1,,,,,エムエストレーディング,0
1535,6080101024075,新規,0,2023-06-14,2023-06-14,株式会社ＰｌｕｓＯｎｅ,,株式会社,静岡県,沼津市,高島町１８－１２パスコグランドマンション３１０号室,,22,203,4100056,,,,,,,2023-06-14,1,,,,,プラスワン,0
1544,6090003002327,新規,0,2023-06-14,2023-06-14,合同会社アキラ・メルナ,,合同会社,山梨県,北杜市,高根町村山北割２９８４番地,,19,209,4080002,,,,,,,2023-06-14,1,,,,,アキラメルナ,0
1547,6110001037603,新規,0,2023-06-14,2023-06-14,株式会社江部建築設計事務所,,株式会社,新潟県,新潟市中央区,大島６０番地１,,15,103,9500953,,,,,,,2023-06-14,1,,,,,エベケンチクセッケイジムショ,0
1548,6110001037611,新規,0,2023-06-14,2023-06-14,株式会社新潟ハタラク不動産,,株式会社,新潟県,長岡市,中沢２丁目１０６３番１,,15,202,9400853,,,,,,,2023-06-14,1,,,,,ニイガタハタラクフドウサン,0
1549,6110003005087,新規,0,2023-06-14,2023-06-14,合同会社ＮＧＬ,,合同会社,新潟県,新潟市中央区,笹口１丁目２３番地９メゾンマルス１０２号,,15,103,9500911,,,,,,,2023-06-14,1,,,,,エヌジーエル,0
1559,6120001255609,新規,0,2023-06-14,2023-06-14,ＰＲＯ‐ＳＡＦＥ株式会社,,株式会社,大阪府,大阪市北区,梅田１丁目２番２号大阪駅前第２ビル１２－１２,,27,127,5300001,,,,,,,2023-06-14,1,,,,,プロセーフ,0
1560,6120003024292,新規,0,2023-06-14,2023-06-14,合同会社ＪＥカンパニー,,合同会社,大阪府,大阪市北区,梅田１丁目２番２号,,27,127,5300001,,,,,,,2023-06-14,1,,,,,ジェイイーカンパニー,0
1565,6120101067623,新規,0,2023-06-14,2023-06-14,株式会社デザインマルゴー,,株式会社,大阪府,泉南郡熊取町,大久保南５丁目１１番２号,,27,361,5900405,,,,,,,2023-06-14,1,,,,,デザインマルゴー,0
1566,6120101067714,新規,0,2023-06-14,2023-06-14,株式会社アップル,,株式会社,大阪府,堺市堺区,中瓦町２丁３－１８高砂屋ビル５階,,27,141,5900077,,,,,,,2023-06-14,1,,,,,アップル,0
1569,6120105009729,新規,0,2023-06-14,2023-06-14,Ｕ．Ａ．協同組合,,その他の設立登記法人,大阪府,松原市,上田２丁目７番２３号,,27,217,5800016,,,,,,,2023-06-14,1,,,,,ユーエー,0
1574,6122001037078,新規,0,2023-06-14,2023-06-14,株式会社ブラッサムワークス,,株式会社,大阪府,八尾市,光南町２丁目５番１４号,,27,212,5810007,,,,,,,2023-06-14,1,,,,,ブラッサムワークス,0
1576,6130001074545,新規,0,2023-06-14,2023-06-14,Ｔｒｅｎｄ　Ｃｏｍｐａｎｙ株式会社,,株式会社,京都府,京都市中京区,場之町５９６エスメラルダ７０４,,26,104,6048172,,,,,,,2023-06-14,1,,,,,トレンドカンパニー,0
1579,6130003008781,新規,0,2023-06-14,2023-06-14,京セラグリーンイノベーション合同会社,,合同会社,京都府,京都市伏見区,竹田鳥羽殿町６番地,,26,109,6128450,,,,,,,2023-06-14,1,,,,,キョウセラグリーンイノベーション,0
1596,6140001130504,新規,0,2023-06-14,2023-06-14,カシマ瓦工業株式会社,,株式会社,兵庫県,川西市,向陽台２丁目７番地の７８,,28,217,6660115,,,,,,,2023-06-14,1,,,,,カシマカワラコウギョウ,0
1597,6140001130529,新規,0,2023-06-14,2023-06-14,株式会社ＫＫＲこころ,,株式会社,兵庫県,神戸市中央区,北野町２丁目１６番６号,,28,110,6500002,,,,,,,2023-06-14,1,,,,,ケーケーアールココロ,0
1601,6140003019200,新規,0,2023-06-14,2023-06-14,合同会社ＦｉＥＬＤ　ＡＤＡＰＴ,,合同会社,兵庫県,川西市,緑台３丁目５番－１１３,,28,217,6660129,,,,,,,2023-06-14,1,,,,,フィールドアダプト,0
1616,6180001156751,新規,0,2023-06-14,2023-06-14,株式会社Ｍｏｄｅｒｎな木こりの工務店,,株式会社,愛知県,名古屋市昭和区,御器所４丁目１０番９号,,23,107,4660051,,,,,,,2023-06-14,1,,,,,モダンナキコリノコウムテン,0
1622,6180003025327,新規,0,2023-06-14,2023-06-14,合同会社フィールドハイ,,合同会社,愛知県,一宮市,北方町北方字狐塚郷３０番地,00130843,23,203,4938001,,,,,,,2023-06-14,1,,,,,,0
1623,6180003025351,新規,0,2023-06-14,2023-06-14,合同会社Ｓｕｎｐｏｓｉ,,合同会社,愛知県,尾張旭市,大塚町２丁目１番地１,,23,226,4880826,,,,,,,2023-06-14,1,,,,,サンポジ,0
1624,6180301037478,新規,0,2023-06-14,2023-06-14,ブリッジ運輸株式会社,,株式会社,愛知県,みよし市,東山台３３番地６,,23,236,4700212,,,,,,,2023-06-14,1,,,,,ブリッジウンユ,0
1625,6180303005747,新規,0,2023-06-14,2023-06-14,ＢＯＷＬＳ合同会社,,合同会社,愛知県,岡崎市,江口３丁目５番地１３,,23,202,4440843,,,,,,,2023-06-14,1,,,,,ボウルズ,0
1626,6190003004354,新規,0,2023-06-14,2023-06-14,新星商事合同会社,,合同会社,三重県,桑名郡木曽岬町,大字小和泉６８,,24,303,4980804,,,,,,,2023-06-14,1,,,,,シンセイショウジ,0
1643,6250003003291,新規,0,2023-06-14,2023-06-14,合同会社ユーグライコ,,合同会社,山口県,宇部市,あすとぴあ６丁目９番８号,,35,202,7550152,,,,,,,2023-06-14,1,,,,,ユーグライコ,0
1652,6290001101944,新規,0,2023-06-14,2023-06-14,株式会社ＡＴＡＬＬ,,株式会社,福岡県,福岡市中央区,天神２丁目２番１２号Ｔ＆Ｊビルディング７Ｆ,,40,133,8100001,,,,,,,2023-06-14,1,,,,,アットオール,0
1662,6350003004379,新規,0,2023-06-14,2023-06-14,赤松工業合同会社,,合同会社,宮崎県,児湯郡新富町,大字伊倉２１番地１１,,45,402,8891405,,,,,,,2023-06-14,1,,,,,アカマツコウギョウ,0
1676,6430003015153,新規,0,2023-06-14,2023-06-14,合同会社ユニオン,,合同会社,北海道,札幌市中央区,南二条東１丁目１番１２号,,01,101,0600052,,,,,,,2023-06-14,1,,,,,ユニオン,0
1678,6430005014731,新規,0,2023-06-14,2023-06-14,一般社団法人ＳＨＩＲＡＯＩ　ＰＲＯＪＥＣＴＳ,,その他の設立登記法人,北海道,白老郡白老町,大町３丁目８番１２号２階,,01,578,0590905,,,,,,,2023-06-14,1,,,,,シラオイプロジェクツ,0
1685,6500005008619,新規,0,2023-06-14,2023-06-14,税理士法人丸木会計事務所,,その他の設立登記法人,愛媛県,松山市,宮田町１３９番地１４,,38,201,7900066,,,,,,,2023-06-14,1,,,,,,0
1687,6700150117352,新規,0,2023-06-14,2023-06-14,ｙｉｗｕｓｈｉ　ｘｉｎｇｒｏｎｇ　ｚｈｉｎｅｎｇｋｅｊｉ　ｙｏｕｘｉａｎｇｏｎｇｓｉ,,外国会社等,,,,,,,,ｚｈｅ　ｊｉａｎｇ　ｓｈｅｎｇ　ｙｉ　ｗｕ　ｓｈｉ　ｃｈｏｕ　ｊｉａｎｇ　ｊｉｅ　ｄａｏ　ｌｏｎｇ　ｈｕｉ　ｙｉ　ｑｕ　２８　ｄｏｎｇ　５ｄａｎ　ｙｕａｎ　１　ｌｏｕ,,,,,,2023-06-14,1,,,,,イウシシンロンジネンケジユウゲンコウシ,0
1688,6700150117360,新規,0,2023-06-14,2023-06-14,ｌａｎｚｈｏｕ　ｐｅｎｇｃｈｅｎｇｊｉａｎｃａｉ　ｘｉａｏｓｈｏｕ　ｙｏｕｘｉａｎｇｏｎｇｓｉ,,外国会社等,,,,,,,,ｇａｎｓｕｓｈｅｎｇ　ｌａｎｚｈｏｕｓｈｉ　ｇａｏｌａｎｘｉａｎ　ｊｉｕｈｅｚｈｅｎｓａｎｐｉｎｇｃｕｎ１２０ｈａｏ,,,,,,2023-06-14,1,,,,,ランヂョウペンチェンジャンツァイシャオショウユウゲンコウシ,0
1689,6700150117410,新規,0,2023-06-14,2023-06-14,ｚｈａｏｑｉｎｇｓｈｉ　ａｏｊｉｗａｎｇｌｕｏｋｅｊｉ　ｙｏｕｘｉａｎｇｏｎｇｓｉ－ｙａｏｙｕｅ,,外国会社等,,,,,,,,ｄｕａｎｚｈｏｕｑｕｑｉａｎｊｉｎｎａｎｌｕ１８ｈａｏ　ｄｏｎｇｄｉｗａｎｄｉｓｈｉｗｕｚｈｕａｎｇ６０３ｆａｎｇ　ｚｈａｏｑｉｎｇｓｈｉ　ｇｕａｎｇｄｏｎｇｓｈｅｎｇ　５２６０００ＣＮ,,,,,,2023-06-14,1,,,,,ザァオチンシアオジワァンルォケジヨウシェンゴンスーーヤォユエ,0
1690,6700150117419,新規,0,2023-06-14,2023-06-14,Ｊｏｈｎｓｏｎ　Ｃｏｎｔｒｏｌｓ－Ｈｉｔａｃｈｉ　Ａｉｒ　Ｃｏｎｄｉｔｉｏｎｉｎｇ　Ｓｉｎｇａｐｏｒｅ　Ｐｔｅ．Ｌｔｄ．,,外国会社等,,,,,,,,２　Ｓｅｒａｎｇｏｏｎ　Ｎｏｒｔｈ　Ａｖｅｎｕｅ　５，＃０３－０１　Ｓｉｎｇａｐｏｒｅ,,,,,,2023-06-14,1,,,,,ジヨンソンコントロールズヒタチエアーコンデイシヨニングシンガポールプライベートリミテツド,0
1707,7010001236098,新規,0,2023-06-14,2023-06-14,株式会社フォルテ,,株式会社,東京都,文京区,本郷３丁目１６番６号,,13,105,1130033,,,,,,,2023-06-14,1,,,,,フォルテ,0
1708,7010003040829,新規,0,2023-06-14,2023-06-14,合同会社エルモス,,合同会社,東京都,中央区,銀座７丁目１３番６号サガミビル２階,,13,102,1040061,,,,,,,2023-06-14,1,,,,,エルモス,0
1709,7010003040853,新規,0,2023-06-14,2023-06-14,ＪＳＨＤ合同会社,,合同会社,東京都,千代田区,丸の内３丁目４番１号新国際ビル６階,,13,101,1000005,,,,,,,2023-06-14,1,,,,,ジェイエスエイチディー,0
1722,7010501050560,新規,0,2023-06-14,2023-06-14,株式会社ＣＨＣ　ＮＡＶＩＧＡＴＩＯＮ　ＪＡＰＡＮ,,株式会社,東京都,台東区,台東１丁目２４番９号ブライト秋葉原Ｂ１Ｆ,,13,106,1100016,,,,,,,2023-06-14,1,,,,,シーエイチシーナビゲーションジャパン,0
1728,7010801034049,新規,0,2023-06-14,2023-06-14,株式会社ｂｌａｎｃａ,,株式会社,東京都,大田区,蒲田５丁目４３番地１０号第二日比野ビル２階,,13,111,1440052,,,,,,,2023-06-14,1,,,,,ブランカ,0
1741,7011001154942,新規,0,2023-06-14,2023-06-14,株式会社ＳＯＧＯ建築設計,,株式会社,東京都,渋谷区,千駄ヶ谷３丁目１番１０号１０Ｆ,,13,113,1510051,,,,,,,2023-06-14,1,,,,,ソゴウケンチクセッケイ,0
1742,7011001155073,新規,0,2023-06-14,2023-06-14,株式会社ＳＢＣ,,株式会社,東京都,目黒区,青葉台３丁目１番１２号,,13,110,1530042,,,,,,,2023-06-14,1,,,,,エスビーシー,0
1757,7011301028771,新規,0,2023-06-14,2023-06-14,株式会社ＷＥＧＯＡＬ,,株式会社,東京都,杉並区,高井戸東２丁目３番８号クレストフォルム高井戸南３０８号室,,13,115,1680072,,,,,,,2023-06-14,1,,,,,ウィーゴール,0
1759,7011401025207,新規,0,2023-06-14,2023-06-14,エスダブルプラニング株式会社,,株式会社,東京都,板橋区,大山東町３０番９－４０７号,,13,119,1730014,,,,,,,2023-06-14,1,,,,,エスダブルプラニング,0
1761,7011603003951,新規,0,2023-06-14,2023-06-14,合同会社ラプラス,,合同会社,東京都,練馬区,旭丘１丁目５７番１３－３０３号,,13,120,1760005,,,,,,,2023-06-14,1,,,,,ラプラス,0
1765,7011701026326,新規,0,2023-06-14,2023-06-14,株式会社ウォータークラウン,,株式会社,東京都,江戸川区,北篠崎１丁目２番４号,,13,123,1330053,,,,,,,2023-06-14,1,,,,,ウォータークラウン,0
1766,7012401040625,新規,0,2023-06-14,2023-06-14,株式会社ブランカ,,株式会社,東京都,調布市,布田２丁目１７番地１,,13,208,1820024,,,,,,,2023-06-14,1,,,,,ブランカ,0
1767,7012801022438,新規,0,2023-06-14,2023-06-14,株式会社梨真,,株式会社,東京都,東大和市,芋窪１丁目１９９８番地の６７,,13,220,2070033,,,,,,,2023-06-14,1,,,,,リマ,0
1773,7013301050904,新規,0,2023-06-14,2023-06-14,株式会社Ｋｏａｌａｂ,,株式会社,東京都,豊島区,東池袋２丁目３８番４,,13,116,1700013,,,,,,,2023-06-14,1,,,,,コアラボ,0
1780,7020001151890,新規,0,2023-06-14,2023-06-14,株式会社ハイレバ,,株式会社,神奈川県,横浜市戸塚区,汲沢１丁目９－１２,,14,110,2450061,,,,,,,2023-06-14,1,,,,,ハイレバ,0
1781,7020001152047,新規,0,2023-06-14,2023-06-14,株式会社Ｇ・Ｓｕｎｓ,,株式会社,神奈川県,横浜市港南区,野庭町６２１番地野庭団地１棟１１５号,,14,111,2340056,,,,,,,2023-06-14,1,,,,,ジーサンズ,0
1783,7020003024046,新規,0,2023-06-14,2023-06-14,リリトレ合同会社,,合同会社,神奈川県,横浜市西区,浅間町１丁目４番３号ウィザードビル４０２,,14,103,2200072,,,,,,,2023-06-14,1,,,,,リリトレ,0
1796,7030001154380,新規,0,2023-06-14,2023-06-14,Ｌａｐｉｓ　Ｗｅｌｌｎｅｓｓ株式会社,,株式会社,埼玉県,さいたま市大宮区,仲町３丁目１０５番地鳥海ビル２０２室,,11,103,3300845,,,,,,,2023-06-14,1,,,,,ラピスウェルネス,0
1797,7030001154406,新規,0,2023-06-14,2023-06-14,新日田株式会社,,株式会社,埼玉県,さいたま市北区,別所町６２番地６ハッピースマイルベッショ２０１,,11,102,3310821,,,,,,,2023-06-14,1,,,,,シンニッタ,0
1798,7030001154422,新規,0,2023-06-14,2023-06-14,株式会社谷藤建機,,株式会社,埼玉県,児玉郡上里町,大字七本木３５５１番地２,,11,385,3690306,,,,,,,2023-06-14,1,,,,,タニフジケンキ,0
1804,7040001128813,新規,0,2023-06-14,2023-06-14,株式会社ＴＯＭＯＲＲＯＷ,,株式会社,千葉県,船橋市,習志野台２丁目５番１４号,,12,204,2740063,,,,,,,2023-06-14,1,,,,,トゥモロー,0
1805,7040001128838,新規,0,2023-06-14,2023-06-14,ＳＫＹ　ＬＩＮＫ　ＩＮＴＥＲＮＡＴＩＯＮＡＬ株式会社,,株式会社,千葉県,野田市,関宿江戸町１２０番地１,,12,208,2700205,,,,,,,2023-06-14,1,,,,,スカイリンクインターナショナル,0
1806,7040001128846,新規,0,2023-06-14,2023-06-14,株式会社ＭＫリフォーム,,株式会社,千葉県,松戸市,八ケ崎３丁目２９番１号,,12,207,2700023,,,,,,,2023-06-14,1,,,,,エムケイリフォーム,0
1811,7040003022790,新規,0,2023-06-14,2023-06-14,合同会社クローバー,,合同会社,千葉県,浦安市,北栄１丁目１７番１５号浦安駅前ビル２階２０１号室,,12,227,2790002,,,,,,,2023-06-14,1,,,,,クローバー,0
1816,7050001052979,新規,0,2023-06-14,2023-06-14,株式会社Ｌ‐ＭＯＷ,,株式会社,茨城県,つくば市,玉取２１８８番地１,,08,220,3003255,,,,,,,2023-06-14,1,,,,,エルモ,0
1817,7050001052987,新規,0,2023-06-14,2023-06-14,株式会社咲顔,,株式会社,茨城県,取手市,紫水３丁目９番地５,,08,217,3001508,,,,,,,2023-06-14,1,,,,,エガオ,0
1821,7060001036089,新規,0,2023-06-14,2023-06-14,ＨＡＲＡＭ　ＩＮＴＥＲＮＡＴＩＯＮＡＬ株式会社,,株式会社,栃木県,真岡市,熊倉１丁目１０番地３みどりヶ丘ハイツＶＩＩ２０５号室,00130844,09,209,3214369,,,,,,,2023-06-14,1,,,,,ハラムインターナショナル,0
1822,7060005010107,新規,0,2023-06-14,2023-06-14,特定非営利活動法人ＴＳＵＮＡＧＵ　ＭＯＫＡ,,その他の設立登記法人,栃木県,真岡市,台町２４８１番地,,09,209,3214306,,,,,,,2023-06-14,1,,,,,ツナグモオカ,0
1823,7070001040536,新規,0,2023-06-14,2023-06-14,株式会社ＡＩＬＬＩＯ,,株式会社,群馬県,高崎市,浜尻町７０７番地１３Ｅ棟,,10,202,3700005,,,,,,,2023-06-14,1,,,,,エーリオ,0
1828,7070003004984,新規,0,2023-06-14,2023-06-14,アンシャル合同会社,,合同会社,群馬県,高崎市,和田多中町３０３番地１,,10,202,3700844,,,,,,,2023-06-14,1,,,,,アンシャル,0
1833,7080101024074,新規,0,2023-06-14,2023-06-14,株式会社フリースタイル,,株式会社,静岡県,三島市,壱町田２６４番地の２,,22,206,4110025,,,,,,,2023-06-14,1,,,,,フリースタイル,0
1851,7120001255509,新規,0,2023-06-14,2023-06-14,ドットエイト株式会社,,株式会社,大阪府,大阪市北区,中津３丁目１１番２－９０２号,,27,127,5310071,,,,,,,2023-06-14,1,,,,,ドットエイト,0
1852,7120001255673,新規,0,2023-06-14,2023-06-14,株式会社ＰＡＧＥ‐ＯＮＥ,,株式会社,大阪府,大阪市東住吉区,住道矢田２丁目６番１５号,,27,121,5460022,,,,,,,2023-06-14,1,,,,,ページワン,0
1853,7120001255681,新規,0,2023-06-14,2023-06-14,株式会社平島商事,,株式会社,大阪府,大阪市中央区,島之内１丁目４番３０号２Ｆ,,27,128,5420082,,,,,,,2023-06-14,1,,,,,ヒラシマショウジ,0
1854,7120001255723,新規,0,2023-06-14,2023-06-14,Ｌ＆Ｐ株式会社,,株式会社,大阪府,大阪市生野区,鶴橋４丁目１０－２３,,27,116,5440031,,,,,,,2023-06-14,1,,,,,エルアンドピー,0
1855,7120001255756,新規,0,2023-06-14,2023-06-14,株式会社Ｉコーポレーション,,株式会社,大阪府,大阪市福島区,鷺洲５丁目１２番１－７１０号,,27,103,5530002,,,,,,,2023-06-14,1,,,,,アイコーポレーション,0
1857,7120003024291,新規,0,2023-06-14,2023-06-14,合同会社千帆,,合同会社,大阪府,大阪市浪速区,敷津西２丁目１３－２,,27,111,5560015,,,,,,,2023-06-14,1,,,,,センホウ,0
1859,7120101067713,新規,0,2023-06-14,2023-06-14,株式会社ＫＯＴＯＳＡ,,株式会社,大阪府,堺市西区,草部３３５番地３ハイローズオオトリＢ棟２０１号,,27,144,5938312,,,,,,,2023-06-14,1,,,,,コトサ,0
1862,7122001037069,新規,0,2023-06-14,2023-06-14,株式会社ＤＩＮＧ　ＭＩＮＧ,,株式会社,大阪府,東大阪市,長堂１丁目１０番２０号サンモール５２２,,27,227,5770056,,,,,,,2023-06-14,1,,,,,ディングミング,0
1864,7130001074528,新規,0,2023-06-14,2023-06-14,株式会社ｒａｉｓｅ．Ａ,,株式会社,京都府,京都市西京区,大枝南福西町２丁目１６番地６,,26,111,6101113,,,,,,,2023-06-14,1,,,,,レイズエース,0
1875,7140001130494,新規,0,2023-06-14,2023-06-14,株式会社アイケーエム,,株式会社,兵庫県,加古川市,野口町坂元北２丁目９０番地,,28,210,6750010,,,,,,,2023-06-14,1,,,,,アイケーエム,0
1876,7140001130503,新規,0,2023-06-14,2023-06-14,株式会社ｓｔｕｄｉｏ　Ｈ,,株式会社,兵庫県,姫路市,飾磨区清水６２番地の１,,28,201,6728051,,,,,,,2023-06-14,1,,,,,スタジオエイチ,0
1877,7140001130536,新規,0,2023-06-14,2023-06-14,オールスターキャスト株式会社,,株式会社,兵庫県,尼崎市,神田南通６丁目１８４番地１Ｆ,,28,202,6600885,,,,,,,2023-06-14,1,,,,,オールスターキャスト,0
1892,7180001156750,新規,0,2023-06-14,2023-06-14,株式会社ＡＳＳＹ,,株式会社,愛知県,長久手市,杁ケ池５０６番地３,,23,238,4801116,,,,,,,2023-06-14,1,,,,,アッシー,0
1898,7180003025334,新規,0,2023-06-14,2023-06-14,合同会社トリプルウィン,,合同会社,愛知県,春日井市,大留町５丁目３－１６,,23,206,4870024,,,,,,,2023-06-14,1,,,,,トリプルウィン,0
1901,7180303005746,新規,0,2023-06-14,2023-06-14,合同会社ＡＬＧＯ,,合同会社,愛知県,豊田市,千石町２丁目５２３番地プリムローズ１０２号,,23,211,4710016,,,,,,,2023-06-14,1,,,,,アルゴ,0
1914,7240001061671,新規,0,2023-06-14,2023-06-14,株式会社オールスター,,株式会社,広島県,広島市安佐南区,山本８丁目１番２－１７号,,34,105,7310137,,,,,,,2023-06-14,1,,,,,,0
1921,7290001101902,新規,0,2023-06-14,2023-06-14,株式会社Ａｓｕｍｉ,,株式会社,福岡県,福岡市南区,大橋１丁目２７番２０－２０３号,,40,134,8150033,,,,,,,2023-06-14,1,,,,,アスミ,0
1922,7290001101919,新規,0,2023-06-14,2023-06-14,ジュネイト株式会社,,株式会社,福岡県,飯塚市,平恒１１５番地５１,,40,205,8200073,,,,,,,2023-06-14,1,,,,,ジュネイト,0
1925,7290003014029,新規,0,2023-06-14,2023-06-14,合同会社ニホニウム,,合同会社,福岡県,福岡市博多区,冷泉町２－９クレアランドマーク３０５,,40,132,8120039,,,,,,,2023-06-14,1,,,,,ニホニウム,0
1926,7290005019067,新規,0,2023-06-14,2023-06-14,行政書士法人Ｒｏｗｉｎｇ,,その他の設立登記法人,福岡県,福岡市東区,多の津４丁目９番１－５０３号沖ビル,,40,131,8130034,,,,,,,2023-06-14,1,,,,,ローイング,0
1932,7290801029616,新規,0,2023-06-14,2023-06-14,株式会社ＤＣＴ,,株式会社,福岡県,遠賀郡遠賀町,遠賀川３丁目１１番１号シャーメゾンＭＫアッシュ２０１号,,40,384,8114307,,,,,,,2023-06-14,1,,,,,ディーシーティー,0
1936,7320001019835,新規,0,2023-06-14,2023-06-14,株式会社マ企画,,株式会社,大分県,別府市,田の湯町３番７号アライアンスタワーＺ４階,,44,202,8740909,,,,,,,2023-06-14,1,,,,,マキカク,0
1937,7340005009616,新規,0,2023-06-14,2023-06-14,一般社団法人川内薬剤師会,,その他の設立登記法人,鹿児島県,薩摩川内市,西向田町１７番１１号,,46,215,8950027,,,,,,,2023-06-14,1,,,,,センダイヤクザイシカイ,0
1938,7350003004378,新規,0,2023-06-14,2023-06-14,合同会社こんふぉた,,合同会社,宮崎県,宮崎市,大字大瀬町１５３８番地２,,45,201,8800045,,,,,,,2023-06-14,1,,,,,コンフォタ,0
1939,7360001032157,新規,0,2023-06-14,2023-06-14,株式会社ＫＩＴ,,株式会社,沖縄県,那覇市,古波蔵３丁目１番７－７０５号エテラ・クッカ古波蔵,,47,201,9000024,,,,,,,2023-06-14,1,,,,,ケーアイティー,0
1940,7360001032165,新規,0,2023-06-14,2023-06-14,株式会社ＭＵＮＩＱＵＥ,,株式会社,沖縄県,うるま市,字兼箇段３６２番地１７,,47,213,9042241,,,,,,,2023-06-14,1,,,,,ムニーク,0
1941,7360003013064,新規,0,2023-06-14,2023-06-14,合同会社宮城,,合同会社,沖縄県,名護市,大北４丁目２３番５－Ｂ－１号チャレンジハウス２００１,,47,209,9050019,,,,,,,2023-06-14,1,,,,,ミヤギ,0
1944,7370003006166,新規,0,2023-06-14,2023-06-14,合同会社ＡｏＳｏＬａ,,合同会社,宮城県,仙台市太白区,大野田４丁目６番地の１リバーサイド三樹１号館１０２－Ｂ,,04,104,9820014,,,,,,,2023-06-14,1,,,,,アオソラ,0
1964,7430001089280,新規,0,2023-06-14,2023-06-14,株式会社龍興,,株式会社,北海道,苫小牧市,大成町１丁目１２番１０号,,01,213,0530806,,,,,,,2023-06-14,1,,,,,リュウコウ,0
1965,7430001089306,新規,0,2023-06-14,2023-06-14,株式会社ヤマキエンジニアリング,,株式会社,北海道,札幌市南区,石山三条６丁目１０番５号,,01,106,0050843,,,,,,,2023-06-14,1,,,,,ヤマキエンジニアリング,0
1969,7430003015136,新規,0,2023-06-14,2023-06-14,Ｅｆｆｅｃｔ合同会社,,合同会社,北海道,千歳市,勇舞１丁目１０番４号,,01,224,0660078,,,,,,,2023-06-14,1,,,,,エフェクト,0
1970,7430003015144,新規,0,2023-06-14,2023-06-14,合同会社アクロス,,合同会社,北海道,札幌市豊平区,福住二条４丁目２番２１－２０６号,,01,105,0620042,,,,,,,2023-06-14,1,,,,,アクロス,0
1971,7430003015152,新規,0,2023-06-14,2023-06-14,エスドットエッチ合同会社,,合同会社,北海道,札幌市西区,八軒六条東１丁目４－１４,,01,107,0630866,,,,,,,2023-06-14,1,,,,,エスドットエッチ,0
1978,7700150115743,新規,0,2023-06-14,2023-04-26,箕面造園業組合,,その他,大阪府,箕面市,半町２丁目１３－２４,,27,220,5620044,,,,,,,2023-04-26,1,,,,,ミノオゾウエンギヨウクミアイ,0
1979,7700150116832,新規,0,2023-06-14,2023-06-02,令和京都博覧会実行委員会,,その他,京都府,京都市中京区,室町通三条上る役行者町３６８番地株式会社永楽屋内,,26,104,6048174,,,,,,,2023-06-02,1,,,,,レイワキヨウトハクランカイジツコウイインカイ,0
1980,7700150117351,新規,0,2023-06-14,2023-06-14,ＳＨＥＮＺＨＥＮＳＨＩ　ＨＡＩＳＨＡＮＧ　ＣＨＵＡＮＧＸＩＮＪＩＳＨＵ　ＹＯＵＸＩＡＮＧＯＮＧＳＩ,,外国会社等,,,,,,,,ＳＨＥＮＺＨＥＮＳＨＩ　ＢＡＯＡＮＱＵＦＵＨＡＩＪＩＥＤＡＯＱＩＡＯＴＯＵＳＨＥＱＵＢＡＯＡＮＤＡＤＡＯ６２９９ＨＡＯ　ＪＩＮＤＯＮＧＹＵＡＮＤＡＳＨＡ８１７　ＳＨＥＮＺＨＥＮ　ＧＵＡＮＧＤＯＮＧ,,,,,,2023-06-14,1,,,,,シェンゼェンシハイシャンチゥアンシンジシュユウゲンコウシ,0
1981,7700150117418,新規,0,2023-06-14,2023-06-14,ＫＵＲＥＨＡ　ＥＮＥＲＧＹ　ＳＯＬＵＴＩＯＮＳ　ＬＬＣ,,外国会社等,,,,,,,,３１５１　Ｂｒｉａｒｐａｒｋ　Ｄｒｉｖｅ，Ｓｕｉｔｅ　１０５０，Ｈｏｕｓｔｏｎ，Ｔｅｘａｓ　７７０４２,,,,,,2023-06-14,1,,,,,クレハエナジーソリユーシヨンズエルエルシー,0
1986,8010001236064,新規,0,2023-06-14,2023-06-14,Ｂｌｕｅｆｏｒｅｓｔ　Ｃａｐｉｔａｌ　Ｐａｒｔｎｅｒｓ株式会社,,株式会社,東京都,千代田区,飯田橋４丁目５－１６飯田橋コアビル５Ｆ,,13,101,1020072,,,,,,,2023-06-14,1,,,,,ブルーフォレストキャピタルパートナーズ,0
1987,8010001236155,新規,0,2023-06-14,2023-06-14,株式会社ＴＯＮＳＯＦＴ,,株式会社,東京都,中央区,銀座６丁目６番１号銀座風月堂ビル５階,,13,102,1040061,,,,,,,2023-06-14,1,,,,,ティーオーエヌソフト,0
1989,8010003040860,新規,0,2023-06-14,2023-06-14,合同会社ＫＫＣＨ,,合同会社,東京都,中央区,日本橋室町１丁目１１番１２号日本橋水野ビル７階,,13,102,1030022,,,,,,,2023-06-14,1,,,,,ケーケーシーエイチ,0
1990,8010005036824,新規,0,2023-06-14,2023-06-14,一般社団法人ＣＨＣＰ東京医科歯科大学未来医療推進機構,,その他の設立登記法人,東京都,千代田区,丸の内１丁目８番１号,,13,101,1000005,,,,,,,2023-06-14,1,,,,,シーエイチシーピートウキョウイカシカダイガクミライイリョウスイシンキコウ,0
1999,8010401175011,新規,0,2023-06-14,2023-06-14,株式会社あさい,,株式会社,東京都,港区,北青山２丁目１２番４号坂本ビル３階,,13,103,1070061,,,,,,,2023-06-14,1,,,,,アサイ,0
2004,8010601063271,新規,0,2023-06-14,2023-06-14,浩川株式会社,,株式会社,東京都,江東区,亀戸５丁目２５－９金沐荘２０３号,,13,108,1360071,,,,,,,2023-06-14,1,,,,,コウセン,0
2012,8010903008239,新規,0,2023-06-14,2023-06-14,シバハマ合同会社,,合同会社,東京都,世田谷区,野沢３丁目７番１１号オークス柿の木坂３０２,,13,112,1540003,,,,,,,2023-06-14,1,,,,,シバハマ,0
2016,8011001155064,新規,0,2023-06-14,2023-06-14,株式会社ＤＮエンタテインメント,,株式会社,東京都,渋谷区,上原２丁目２８番５号,,13,113,1510064,,,,,,,2023-06-14,1,,,,,ディーエヌエンタテインメント,0
2017,8011001155072,新規,0,2023-06-14,2023-06-14,株式会社３ＭＡ,,株式会社,東京都,目黒区,碑文谷５丁目９番１３号ヴェルデ学芸大学１０１,,13,110,1520003,,,,,,,2023-06-14,1,,,,,スリーエムエー,0
2018,8011001155089,新規,0,2023-06-14,2023-06-14,株式会社めいけん,,株式会社,東京都,渋谷区,神宮前６丁目２３番４号桑野ビル２階,,13,113,1500001,,,,,,,2023-06-14,1,,,,,メイケン,0
2019,8011003016966,新規,0,2023-06-14,2023-06-14,合同会社ボールキャッスル,,合同会社,東京都,渋谷区,神宮前６丁目２３番４号桑野ビル２階,,13,113,1500001,,,,,,,2023-06-14,1,,,,,ボールキャッスル,0
2020,8011003017007,新規,0,2023-06-14,2023-06-14,合同会社Ｄｏｒｏｔｈｙ,,合同会社,東京都,渋谷区,道玄坂１丁目１０番８号渋谷道玄坂東急ビル１階,,13,113,1500043,,,,,,,2023-06-14,1,,,,,ドロシー,0
2031,8011101103253,新規,0,2023-06-14,2023-06-14,株式会社ＤＲＥＡＭ　ＢＥＬＩＥＶＥＲ,,株式会社,東京都,新宿区,高田馬場１丁目３２番１０号,,13,104,1690075,,,,,,,2023-06-14,1,,,,,ドリームビリーバー,0
2039,8011401025206,新規,0,2023-06-14,2023-06-14,株式会社ミドリシャ,,株式会社,東京都,板橋区,若木２丁目２番１３号,,13,119,1740065,,,,,,,2023-06-14,1,,,,,ミドリシャ,0
2047,8011805003278,新規,0,2023-06-14,2023-06-14,特定非営利活動法人音楽で地域を元気にする会,,その他の設立登記法人,東京都,葛飾区,東金町３丁目３１番１６号古山ビル１階,,13,122,1250041,,,,,,,2023-06-14,1,,,,,オンガクデチイキヲゲンキニスルカイ,0
2049,8012405004872,新規,0,2023-06-14,2023-06-14,一般社団法人ＡＡＲＦｅｓ,,その他の設立登記法人,東京都,調布市,小島町１丁目１２番４号ハイツエンジェル１０１,,13,208,1820026,,,,,,,2023-06-14,1,,,,,エーエーアールフェス,0
2052,8012803003105,新規,0,2023-06-14,2023-06-14,合同会社Ｔｅａｃｈ　ｍｅ,,合同会社,東京都,立川市,錦町１丁目４－４立川サニーハイツ２０３［ＫＯＤＡＣＨＩ］,,13,202,1900022,,,,,,,2023-06-14,1,,,,,ティーチミー,0
2061,8020001151840,新規,0,2023-06-14,2023-06-14,株式会社浅田製作所,,株式会社,神奈川県,川崎市川崎区,渡田向町３－１３,,14,131,2100841,,,,,,,2023-06-14,1,,,,,アサダセイサクショ,0
2062,8020001152046,新規,0,2023-06-14,2023-06-14,華盛株式会社,,株式会社,神奈川県,横浜市中区,長者町２丁目６番地１ライフレビュー横濱関内スクエアＩＩ４０４号室,00130837,14,104,2310033,,,,,,,2023-06-14,1,,,,,カセイ,0
2063,8020001152062,新規,0,2023-06-14,2023-06-14,株式会社どすこい土俵,,株式会社,神奈川県,横浜市鶴見区,鶴見中央３丁目１番２７－８０２号,,14,101,2300051,,,,,,,2023-06-14,1,,,,,ドスコイドヒョウ,0
2068,8020003024053,新規,0,2023-06-14,2023-06-14,Ｓｔａｒｎｉ合同会社,,合同会社,神奈川県,横浜市港北区,綱島西５丁目４番５２号,,14,109,2230053,,,,,,,2023-06-14,1,,,,,スターニ,0
2075,8021001079337,新規,0,2023-06-14,2023-06-14,ＲＭＯグループ株式会社,,株式会社,神奈川県,藤沢市,鵠沼松が岡２丁目９番５号,,14,205,2510038,,,,,,,2023-06-14,1,,,,,アールエムオーグループ,0
2078,8021003013211,新規,0,2023-06-14,2023-06-14,合同会社ＬＡＮＴＡＮ,,合同会社,神奈川県,藤沢市,辻堂元町４丁目１７－８マグノリア湘南２０４,,14,205,2510043,,,,,,,2023-06-14,1,,,,,ランタン,0
2083,8030001154314,新規,0,2023-06-14,2023-06-14,株式会社ＰＯＰＯＲＯ,,株式会社,埼玉県,さいたま市大宮区,桜木町２丁目３番地大宮マルイ７階,,11,103,3300854,,,,,,,2023-06-14,1,,,,,ポポロ,0
2084,8030001154421,新規,0,2023-06-14,2023-06-14,株式会社奔,,株式会社,埼玉県,行田市,佐間２丁目３番２４号つくもハイツＢ棟１０２,,11,206,3610032,,,,,,,2023-06-14,1,,,,,ホン,0
2093,8040001128829,新規,0,2023-06-14,2023-06-14,株式会社トップクラス,,株式会社,千葉県,千葉市中央区,鵜の森町１２－１榎ビル１０１,,12,101,2600816,,,,,,,2023-06-14,1,,,,,トップクラス,0
2094,8040001128837,新規,0,2023-06-14,2023-06-14,不流月株式会社,,株式会社,千葉県,船橋市,印内２丁目３番１５号ＴＯＰ西船橋第一２０４,,12,204,2730039,,,,,,,2023-06-14,1,,,,,フリュウゲツ,0
2097,8050001052986,新規,0,2023-06-14,2023-06-14,株式会社Ｅスパイス,,株式会社,茨城県,古河市,横山町３丁目９番地９号,,08,204,3060022,,,,,,,2023-06-14,1,,,,,,0
2105,8050005013282,新規,0,2023-06-14,2023-06-14,一般社団法人フリージア,,その他の設立登記法人,茨城県,東茨城郡城里町,大字石塚２２５８番地の６,,08,310,3114303,,,,,,,2023-06-14,1,,,,,フリージア,0
2107,8060005010106,新規,0,2023-06-14,2023-06-14,一般社団法人なごみはなこ,,その他の設立登記法人,栃木県,小山市,大字乙女９５６番地３４,,09,208,3290214,,,,,,,2023-06-14,1,,,,,ナゴミハナコ,0
2108,8070001040543,新規,0,2023-06-14,2023-06-14,株式会社ＥＡＣＹ,,株式会社,群馬県,太田市,山之神町５３４番地２０,,10,205,3792302,,,,,,,2023-06-14,1,,,,,,0
2131,8120001255573,新規,0,2023-06-14,2023-06-14,三埔津和株式会社,,株式会社,大阪府,大阪市住之江区,安立２丁目１０番１４号三坂ビル３０１号室,,27,125,5590003,,,,,,,2023-06-14,1,,,,,サンポツワ,0
2132,8120001255615,新規,0,2023-06-14,2023-06-14,集賢堂株式会社,,株式会社,大阪府,大阪市大正区,三軒家西３丁目４番１６号中山ビル４０６Ａ,,27,108,5510001,,,,,,,2023-06-14,1,,,,,シュウケンドウ,0
2133,8120001255656,新規,0,2023-06-14,2023-06-14,ＵＣＰ株式会社,,株式会社,大阪府,大阪市中央区,安土町２丁目５番１号,,27,128,5410052,,,,,,,2023-06-14,1,,,,,ユーシーピー,0
2134,8120001255664,新規,0,2023-06-14,2023-06-14,パーツペディア株式会社,,株式会社,大阪府,大阪市淀川区,三津屋中２丁目１１番７号－４号,,27,123,5320036,,,,,,,2023-06-14,1,,,,,パーツペディア,0
2135,8120001255706,新規,0,2023-06-14,2023-06-14,株式会社星光,,株式会社,大阪府,大阪市城東区,鴫野西２丁目２番８号エステマール大阪城１０１号室,,27,118,5360014,,,,,,,2023-06-14,1,,,,,セイコウ,0
2136,8120001255714,新規,0,2023-06-14,2023-06-14,アクアサポート株式会社,,株式会社,大阪府,大阪市淀川区,三津屋北２丁目１４番２９号,,27,123,5320032,,,,,,,2023-06-14,1,,,,,アクアサポート,0
2138,8120101067662,新規,0,2023-06-14,2023-06-14,株式会社ＵＫＳＹ,,株式会社,大阪府,大阪狭山市,池尻中１丁目３３番１号,,27,231,5890007,,,,,,,2023-06-14,1,,,,,ユーケーエスワイ,0
2139,8120101067737,新規,0,2023-06-14,2023-06-14,株式会社ＳＨ,,株式会社,大阪府,河内長野市,木戸１丁目１４番４５－１０３号,,27,216,5860001,,,,,,,2023-06-14,1,,,,,エスエイチ,0
2145,8120901047632,新規,0,2023-06-14,2023-06-14,リーブイットラック株式会社,,株式会社,大阪府,茨木市,双葉町８番１４号エスポワール茨木５０１号,,27,211,5670829,,,,,,,2023-06-14,1,,,,,リーブイットトラック,0
2149,8130001074543,新規,0,2023-06-14,2023-06-14,ＫＯＭＡＩ　ＤＥＳＩＧＮ　ＡＲＴ株式会社,,株式会社,京都府,京都市北区,紫野下柳町５１－１,,26,101,6038174,,,,,,,2023-06-14,1,,,,,コマイデザインアート,0
2159,8140001130477,新規,0,2023-06-14,2023-06-14,株式会社ＯＮＥ　ＴＯＰ,,株式会社,兵庫県,尼崎市,額田町１７番１－８０９号,,28,202,6610962,,,,,,,2023-06-14,1,,,,,ワントップ,0
2160,8140001130493,新規,0,2023-06-14,2023-06-14,株式会社Ｓｔｒａｉｇｈｔ,,株式会社,兵庫県,三田市,富士が丘２丁目９番地１７,,28,219,6691547,,,,,,,2023-06-14,1,,,,,ストレート,0
2161,8140001130510,新規,0,2023-06-14,2023-06-14,株式会社クローバー,,株式会社,兵庫県,姫路市,白浜町甲４０２番地１３８,,28,201,6728023,,,,,,,2023-06-14,1,,,,,クローバー,0
2162,8140001130527,新規,0,2023-06-14,2023-06-14,いっしん株式会社,,株式会社,兵庫県,明石市,樽屋町１番２９号,,28,203,6730898,,,,,,,2023-06-14,1,,,,,イッシン,0
2163,8140001130543,新規,0,2023-06-14,2023-06-14,株式会社三位,,株式会社,兵庫県,西宮市,下大市東町３５番３－２０３号,,28,204,6638004,,,,,,,2023-06-14,1,,,,,ミツイ,0
2164,8140003019082,新規,0,2023-06-14,2023-06-14,合同会社至幸の魚,,合同会社,兵庫県,佐用郡佐用町,西徳久４８６番地８,,28,501,6795214,,,,,,,2023-06-14,1,,,,,シコウノサカナ,0
2165,8140005026647,新規,0,2023-06-14,2023-06-14,一般社団法人北兵庫労働安全協会,,その他の設立登記法人,兵庫県,豊岡市,城南町１番１号,,28,209,6680045,,,,,,,2023-06-14,1,,,,,キタヒョウゴロウドウアンゼンキョウカイ,0
2176,8180001156659,新規,0,2023-06-14,2023-06-14,株式会社Ｍ＆Ｍ,,株式会社,愛知県,名古屋市守山区,翠松園３丁目１１１３番地,,23,113,4630010,,,,,,,2023-06-14,1,,,,,エムアンドエム,0
2177,8180001156725,新規,0,2023-06-14,2023-06-14,株式会社モノリス,,株式会社,愛知県,東海市,富木島町伏見４丁目８番地１２,,23,222,4760012,,,,,,,2023-06-14,1,,,,,モノリス,0
2180,8180303005745,新規,0,2023-06-14,2023-06-14,合同会社ＭＩＲＯＫＵ,,合同会社,愛知県,安城市,篠目町童子２１０番地３,,23,212,4460073,,,,,,,2023-06-14,1,,,,,ミロク,0
2194,8250005008832,新規,0,2023-06-14,2023-06-14,一般社団法人古民家再生協会山口中央,,その他の設立登記法人,山口県,山口市,吉敷上東３丁目３番１６号,,35,203,7530818,,,,,,,2023-06-14,1,,,,,コミンカサイセイキョウカイヤマグチチュウオウ,0
2196,8280003001737,新規,0,2023-06-14,2023-06-14,合同会社ママン,,合同会社,島根県,大田市,温泉津町今浦ハ１２９７番地,,32,205,6992515,,,,,,,2023-06-14,1,,,,,ママン,0
2205,8290001101926,新規,0,2023-06-14,2023-06-14,株式会社Ｄｏｗｅｌｌ,,株式会社,福岡県,福岡市東区,松田３丁目１０番２０号,,40,131,8120064,,,,,,,2023-06-14,1,,,,,ドゥウェル,0
2206,8290001101942,新規,0,2023-06-14,2023-06-14,株式会社オオスギシゲキ,,株式会社,福岡県,飯塚市,相田７５－２０,,40,205,8200052,,,,,,,2023-06-14,1,,,,,オオスギシゲキ,0
2207,8290003014028,新規,0,2023-06-14,2023-06-14,合同会社ＦＥＳＴＡ,,合同会社,福岡県,福岡市博多区,中洲５丁目４番６－３０８号リバーフェイス博多,,40,132,8100801,,,,,,,2023-06-14,1,,,,,フェスタ,0
2212,8300001013335,新規,0,2023-06-14,2023-06-14,株式会社Ｒペイント,,株式会社,佐賀県,三養基郡みやき町,大字寄人１５８４番地８,,41,346,8401105,,,,,,,2023-06-14,1,,,,,アールペイント,0
2217,8330001030963,新規,0,2023-06-14,2023-06-14,株式会社庭づくり,,株式会社,熊本県,合志市,竹迫１８２６番地５,,43,216,8611114,,,,,,,2023-06-14,1,,,,,ニワヅクリ,0
2218,8340003004155,新規,0,2023-06-14,2023-06-14,合同会社ＡＣＴＩＶＡ,,合同会社,鹿児島県,鹿児島市,西田２丁目２８－６ＡＳＫＡＩＩ　５０５号,00130845,46,201,8900046,,,,,,,2023-06-14,1,,,,,アクティバ,0
2219,8370005010644,新規,0,2023-06-14,2023-06-14,医療法人八峯会,,その他の設立登記法人,宮城県,仙台市青葉区,八幡１丁目１０番１５号,,04,101,9800871,,,,,,,2023-06-14,1,,,,,ハッポウカイ,0
2235,8430001089288,新規,0,2023-06-14,2023-06-14,小西工業株式会社,,株式会社,北海道,札幌市北区,新琴似二条１３丁目２番６号,,01,102,0010902,,,,,,,2023-06-14,1,,,,,コニシコウギョウ,0
2236,8430001089296,新規,0,2023-06-14,2023-06-14,株式会社メディリンク,,株式会社,北海道,札幌市東区,北十六条東３丁目１番３１－１２０２号,,01,103,0650016,,,,,,,2023-06-14,1,,,,,メディリンク,0
2237,8430001089346,新規,0,2023-06-14,2023-06-14,株式会社余市ドリームス,,株式会社,北海道,余市郡余市町,黒川町４丁目１２２番,,01,408,0460003,,,,,,,2023-06-14,1,,,,,ヨイチドリームス,0
2239,8430003015119,新規,0,2023-06-14,2023-06-14,合同会社ＳＶＡＮ,,合同会社,北海道,恵庭市,美咲野６丁目８番２２号,,01,231,0611427,,,,,,,2023-06-14,1,,,,,シュヴァン,0
2240,8430003015127,新規,0,2023-06-14,2023-06-14,合同会社イーナエード,,合同会社,北海道,石狩郡当別町,六軒町６９番地２３,,01,303,0610231,,,,,,,2023-06-14,1,,,,,イーナエード,0
2241,8430003015143,新規,0,2023-06-14,2023-06-14,合同会社グッドチームモーターズ,,合同会社,北海道,札幌市中央区,南九条西２３丁目３番１－５０７号,,01,101,0640809,,,,,,,2023-06-14,1,,,,,グッドチームモーターズ,0
2242,8430003015151,新規,0,2023-06-14,2023-06-14,ＣＲＥＡ　ＺＥＲＯ合同会社,,合同会社,北海道,札幌市豊平区,平岸三条５丁目４番２２号平岸グランドビル３０２,,01,105,0620933,,,,,,,2023-06-14,1,,,,,クレアゼロ,0
2243,8450003002346,新規,0,2023-06-14,2023-06-14,合同会社夢明,,合同会社,北海道,紋別市,真砂町３丁目１－１,,01,219,0940002,,,,,,,2023-06-14,1,,,,,ムームン,0
2247,8460301005157,新規,0,2023-06-14,2023-06-14,株式会社Ｄａｎｄｅｌｉｏｎ,,株式会社,北海道,網走市,字豊郷１３１,,01,211,0993118,,,,,,,2023-06-14,1,,,,,ダンデライオン,0
2254,8700150117350,新規,0,2023-06-14,2023-06-14,ＱＩＮＧＤＡＯ　ＡＮＬＡＩＴＥ　ＭＡＯＹＩＹＯＵＸＩＡＮＧＯＮＧＳＩ,,外国会社等,,,,,,,,ｓｈａｎｄｏｎｇｓｈｅｎｇｑｉｎｇｄａｏｓｈｉｓｈｉｂｅｉｑｕｌｅｈｕａｎｌｕ８８ｈａｏ８１ｈａｏｌｏｕ２ｄａｎｙｕａｎ５０１ｈｕ,,,,,,2023-06-14,1,,,,,チンダオアンライテマオイユウゲンコウシ,0
2255,8700150117359,新規,0,2023-06-14,2023-06-14,Ｓｈｅｎｚｈｅｎ　Ｚｈｅｎ　Ｍｅｉ　Ｊｅｗｅｌｒｙ　Ｃｏ．，Ｌｔｄ,,外国会社等,,,,,,,,Ｘｉｘｉａｎｇ　Ｓｔｒｅｅｔ，Ｂａｏ’ａｎ　Ｄｉｓｔｒｉｃｔ　Ｒｏｏｍ　４０３，Ｌｉｎｅｎ　Ｖｉｌｌａｇｅ　Ｎｏ．９　Ｌａｎｅ　２　Ｓｈｅｎｚｈｅｎ　Ｇｕａｎｇｄｏｎｇ,,,,,,2023-06-14,1,,,,,シェンゼェンセェンメイジュエリーカンパニーリミテッド,0
2256,8700150117409,新規,0,2023-06-14,2023-06-14,ＷＩＮＮＥＲ　ＭＥＤＩＣＡＬ　ＣＯ　ＬＴＤ,,外国会社等,,,,,,,,４２／Ｆ，Ｂｕｉｌｄｉｎｇ　２，Ｈｕｉｌｏｎｇ　Ｂｕｓｉｎｅｓｓ　Ｃｅｎｔｅｒ，Ｂｅｉｚｈａｎ　Ｃｏｍｍｕｎｉｔｙ，Ｍｉｎｚｈｉ　Ｓｔ．，Ｌｏｎｇｈｕａ　Ｄｉｓｔ．Ｓｈｅｎｚｈｅｎ；Ｗｉｎｎｅｒ　Ｉｎｄｕｓｔｒｉａｌ　Ｐａｒｋ，Ｎｏ．６６０　Ｂｕｌｏｎｇ　Ｒｄ．，Ｌｏｎｇｈｕａ　Ｄｉｓｔ．，Ｓｈｅｎｚｈｅｎ　５１８１０９ＣＮ,,,,,,2023-06-14,1,,,,,ウィナーメディカルカンパニーリミテッド,0
2257,8700150117417,新規,0,2023-06-14,2023-06-14,ｈｅｃｈａｎｇｇｕａｎｌｉｚｉｘｕｎ（ｇｕａｎｇｚｈｏｕ）ｙｏｕｘｉａｎｇｏｎｇｓｉ,,外国会社等,,,,,,,,Ｒｏｏｍ　３００９，Ｎｏ．３０　Ｈｕａｘｉａ　Ｒｏａｄ，Ｔｉａｎｈｅ　Ｄｉｓｔｒｉｃｔ，Ｇｕａｎｇｚｈｏｕ,,,,,,2023-06-14,1,,,,,ワチヨウマネジメントインフオメーシヨンコウシユウユウゲンコウシ,0
2269,9010001235940,新規,0,2023-06-14,2023-06-14,エフトラスティ株式会社,,株式会社,東京都,中央区,八丁堀１丁目３番７号双鶴八重洲ビル３Ｆ,,13,102,1040032,,,,,,,2023-06-14,1,,,,,エフトラスティ,0
2270,9010001236014,新規,0,2023-06-14,2023-06-14,株式会社グローバルワンストップジャパン,,株式会社,東京都,千代田区,内幸町１丁目３番１号,,13,101,1000011,,,,,,,2023-06-14,1,,,,,グローバルワンストップジャパン,0
2271,9010001236170,新規,0,2023-06-14,2023-06-14,株式会社セブンクラウドハウス,,株式会社,東京都,千代田区,神田佐久間町２丁目１３－３３藤波ビル４Ｆ,,13,101,1010025,,,,,,,2023-06-14,1,,,,,セブンクラウドハウス,0
2273,9010005036831,新規,0,2023-06-14,2023-06-14,一般社団法人オーディエー,,その他の設立登記法人,東京都,中央区,日本橋茅場町１丁目９番２号第一稲村ビル７階,,13,102,1030025,,,,,,,2023-06-14,1,,,,,オーディエー,0
2280,9010403030329,新規,0,2023-06-14,2023-06-14,合同会社クリスティーン,,合同会社,東京都,港区,浜松町２丁目２番１５号,,13,103,1050013,,,,,,,2023-06-14,1,,,,,クリスティーン,0
2290,9010901053244,新規,0,2023-06-14,2023-06-14,株式会社タレントギア,,株式会社,東京都,世田谷区,経堂３丁目２８番１０号,,13,112,1560052,,,,,,,2023-06-14,1,,,,,タレントギア,0
2295,9011001155039,新規,0,2023-06-14,2023-06-14,株式会社エモロジックワン,,株式会社,東京都,渋谷区,渋谷３丁目１番９号,,13,113,1500002,,,,,,,2023-06-14,1,,,,,エモロジックワン,0
2296,9011001155071,新規,0,2023-06-14,2023-06-14,株式会社Ｍｉｒｒｏｒ,,株式会社,東京都,目黒区,上目黒４丁目１０番１３号,,13,110,1530051,,,,,,,2023-06-14,1,,,,,ミラー,0
2297,9011001155096,新規,0,2023-06-14,2023-06-14,株式会社ＮｅｘｔＧｅｎ　Ｓｏｌｕｔｉｏｎｓ,,株式会社,東京都,目黒区,緑が丘２丁目２４番１９号,,13,110,1520034,,,,,,,2023-06-14,1,,,,,ネクストジェンソリューションズ,0
2298,9011003017014,新規,0,2023-06-14,2023-06-14,合同会社ＲＥＤＳ,,合同会社,東京都,渋谷区,神泉町１０番１５号,,13,113,1500045,,,,,,,2023-06-14,1,,,,,レッズ,0
2299,9011005010108,新規,0,2023-06-14,2023-06-14,一般社団法人日本ガットフレイル会議,,その他の設立登記法人,東京都,渋谷区,上原１丁目３番９号,,13,113,1510064,,,,,,,2023-06-14,1,,,,,ニホンガットフレイルカイギ,0
2302,9011101103244,新規,0,2023-06-14,2023-06-14,株式会社ヨウタウン,,株式会社,東京都,新宿区,矢来町５０番地５,,13,104,1620805,,,,,,,2023-06-14,1,,,,,ヨウタウン,0
2303,9011101103260,新規,0,2023-06-14,2023-06-14,株式会社ＢＬＩＮＫ,,株式会社,東京都,新宿区,西新宿４丁目１番１０号東建ニューハイツ西新宿３０２,,13,104,1600023,,,,,,,2023-06-14,1,,,,,ブリンク,0
2308,9011301028786,新規,0,2023-06-14,2023-06-14,株式会社フォンテック大阪,,株式会社,東京都,杉並区,荻窪５丁目１８番１１－３０１号,,13,115,1670051,,,,,,,2023-06-14,1,,,,,フォンテックオオサカ,0
2310,9011403004025,新規,0,2023-06-14,2023-06-14,ＡＡＳＨＡ合同会社,,合同会社,東京都,板橋区,赤塚１丁目３２番１２－２０３号,,13,119,1750092,,,,,,,2023-06-14,1,,,,,アサ,0
2313,9011801042576,新規,0,2023-06-14,2023-06-14,株式会社ＧＯ　ＳＴＡＹ,,株式会社,東京都,葛飾区,鎌倉４丁目２８番７号,,13,122,1250053,,,,,,,2023-06-14,1,,,,,ゴースティ,0
2319,9012801022428,新規,0,2023-06-14,2023-06-14,株式会社Ｆｏｎｔ,,株式会社,東京都,国分寺市,南町３丁目１７番１号,,13,214,1850021,,,,,,,2023-06-14,1,,,,,フォント,0
2320,9012801022436,新規,0,2023-06-14,2023-06-14,株式会社武蔵,,株式会社,東京都,武蔵村山市,学園１丁目５３番地の５,,13,223,2080011,,,,,,,2023-06-14,1,,,,,ムサシ,0
2329,9020001152053,新規,0,2023-06-14,2023-06-14,株式会社ｗｉｔｈ　ＬＩＦＥ,,株式会社,神奈川県,横浜市鶴見区,馬場３丁目４番１８号,,14,101,2300076,,,,,,,2023-06-14,1,,,,,,0
2330,9020001152061,新規,0,2023-06-14,2023-06-14,株式会社Ｂｅｎｄ　Ｔｗｏ,,株式会社,神奈川県,横浜市瀬谷区,下瀬谷２丁目３７番地の２２,,14,114,2460035,,,,,,,2023-06-14,1,,,,,ベンドツー,0
2331,9020001152078,新規,0,2023-06-14,2023-06-14,株式会社アマテル,,株式会社,神奈川県,横浜市緑区,台村町１０３８番地４,,14,113,2260014,,,,,,,2023-06-14,1,,,,,アマテル,0
2332,9020001152086,新規,0,2023-06-14,2023-06-14,カワテク株式会社,,株式会社,神奈川県,川崎市川崎区,渡田新町３丁目４番２９号,,14,131,2100844,,,,,,,2023-06-14,1,,,,,カワテク,0
2335,9020003024044,新規,0,2023-06-14,2023-06-14,ナイツ合同会社,,合同会社,神奈川県,川崎市麻生区,高石３丁目１１―９大和ハイツ２０３,,14,137,2150003,,,,,,,2023-06-14,1,,,,,ナイツ,0
2339,9021001079328,新規,0,2023-06-14,2023-06-14,株式会社ＡＩＲ‐Ｄ　ＦＯＵＮＤＡＴＩＯＮ,,株式会社,神奈川県,茅ヶ崎市,中海岸４丁目１２９８６番地５２,,14,207,2530055,,,,,,,2023-06-14,1,,,,,エアディファウンデーション,0
2340,9021001079336,新規,0,2023-06-14,2023-06-14,株式会社源,,株式会社,神奈川県,愛甲郡愛川町,中津１１２４番地の８,,14,401,2430303,,,,,,,2023-06-14,1,,,,,ミナモト,0
2345,9030001154395,新規,0,2023-06-14,2023-06-14,株式会社土呂急配,,株式会社,埼玉県,さいたま市北区,本郷町１６０７番地４,,11,102,3310802,,,,,,,2023-06-14,1,,,,,トロキュウハイ,0
2348,9030003021924,新規,0,2023-06-14,2023-06-14,エステート・マネジメント合同会社,,合同会社,埼玉県,戸田市,笹目２丁目２番地の３－１０１号室,,11,224,3350034,,,,,,,2023-06-14,1,,,,,エステートマネジメント,0
2349,9030003021940,新規,0,2023-06-14,2023-06-14,ＡＤＲＩＥＬ　ＧＲＯＵＰ合同会社,,合同会社,埼玉県,羽生市,南７丁目５番地１３笈川コーポ１０２,,11,216,3480053,,,,,,,2023-06-14,1,,,,,アドリエルグループ,0
2353,9040001128836,新規,0,2023-06-14,2023-06-14,ステップワン貿易株式会社,,株式会社,千葉県,千葉市中央区,本町３丁目４番６号１Ｆ,,12,101,2600012,,,,,,,2023-06-14,1,,,,,ステップワンボウエキ,0
2370,9110001037609,新規,0,2023-06-14,2023-06-14,株式会社イコールシェア,,株式会社,新潟県,柏崎市,柳橋町９番３０－３０３号,,15,205,9450831,,,,,,,2023-06-14,1,,,,,イコールシェア,0
2372,9110005016955,新規,0,2023-06-14,2023-06-14,行政書士法人みらい法務会計,,その他の設立登記法人,新潟県,三条市,西裏館３丁目６番６９号,,15,204,9550082,,,,,,,2023-06-14,1,,,,,ミライホウムカイケイ,0
2381,9120001255671,新規,0,2023-06-14,2023-06-14,株式会社ＪＫグローバル,,株式会社,大阪府,大阪市生野区,桃谷４丁目１２番１８号,,27,116,5440034,,,,,,,2023-06-14,1,,,,,ジェイケイグローバル,0
2382,9120001255688,新規,0,2023-06-14,2023-06-14,株式会社ＬＩＦＩＸ,,株式会社,大阪府,大阪市西淀川区,佃５丁目１１番２０号,,27,113,5550001,,,,,,,2023-06-14,1,,,,,リフィックス,0
2383,9120001255713,新規,0,2023-06-14,2023-06-14,株式会社Ａｇａｋｉ,,株式会社,大阪府,大阪市中央区,南本町２丁目４番１６号本町デビスビル７階,,27,128,5410054,,,,,,,2023-06-14,1,,,,,アガキ,0
2386,9120103005272,新規,0,2023-06-14,2023-06-14,プレイス合同会社,,合同会社,大阪府,堺市西区,上野芝向ヶ丘町２丁２番１４号,,27,144,5938303,,,,,,,2023-06-14,1,,,,,プレイス,0
2393,9130001074534,新規,0,2023-06-14,2023-06-14,ＫＮ企画株式会社,,株式会社,京都府,宇治市,宇治弐番１６番地,,26,204,6110021,,,,,,,2023-06-14,1,,,,,ケーエヌキカク,0
2394,9130001074542,新規,0,2023-06-14,2023-06-14,株式会社壱乃家,,株式会社,京都府,舞鶴市,字余部下８１５番地,,26,202,6250087,,,,,,,2023-06-14,1,,,,,イチノヤ,0
2405,9140001130451,新規,0,2023-06-14,2023-06-14,株式会社勝健,,株式会社,兵庫県,神戸市東灘区,御影塚町４丁目１－４－５０２号,00130846,28,101,6580044,,,,,,,2023-06-14,1,,,,,ショウケン,0
2406,9140001130518,新規,0,2023-06-14,2023-06-14,株式会社吉田商店,,株式会社,兵庫県,神戸市灘区,城内通４丁目２番２２号,,28,102,6570836,,,,,,,2023-06-14,1,,,,,ヨシダショウテン,0
2407,9140001130526,新規,0,2023-06-14,2023-06-14,株式会社ディーシーエー,,株式会社,兵庫県,神戸市中央区,北野町２丁目５－２１,,28,110,6500002,,,,,,,2023-06-14,1,,,,,ディーシーエー,0
2413,9150001026483,新規,0,2023-06-14,2023-06-14,ＮＦＯ株式会社,,株式会社,奈良県,橿原市,雲梯町３４７番地１５,,29,205,6340834,,,,,,,2023-06-14,1,,,,,エヌエフオー,0
2421,9180001156724,新規,0,2023-06-14,2023-06-14,ＬＫ株式会社,,株式会社,愛知県,常滑市,久米字南沢２番地１,,23,216,4790002,,,,,,,2023-06-14,1,,,,,エルケー,0
2422,9180001156740,新規,0,2023-06-14,2023-06-14,株式会社Ｐｅａｃｅ　Ｇｒａｙ,,株式会社,愛知県,名古屋市天白区,御幸山２０１番地（アヴァンセテラス御幸山３０２号）,,23,116,4680075,,,,,,,2023-06-14,1,,,,,ピースグレイ,0
2423,9180001156757,新規,0,2023-06-14,2023-06-14,株式会社ＡＺｓｔｙｌｅ,,株式会社,愛知県,名古屋市中村区,上ノ宮町１丁目２８,,23,105,4530043,,,,,,,2023-06-14,1,,,,,アズスタイル,0
2424,9180001156765,新規,0,2023-06-14,2023-06-14,株式会社ＭＹＷ,,株式会社,愛知県,名古屋市緑区,横吹町４０１番地の２,,23,114,4580816,,,,,,,2023-06-14,1,,,,,エムワイダブリュ,0
2433,9180003025349,新規,0,2023-06-14,2023-06-14,合同会社鈴欣,,合同会社,愛知県,知多郡南知多町,大字日間賀島字一本松６番地,,23,445,4703504,,,,,,,2023-06-14,1,,,,,スズヨシ,0
2434,9180003025357,新規,0,2023-06-14,2023-06-14,合同会社ホームスクールニコニコ,,合同会社,愛知県,名古屋市東区,砂田橋３丁目２番１０２－１０１０号,,23,102,4610045,,,,,,,2023-06-14,1,,,,,ホームスクールニコニコ,0
2435,9180003025365,新規,0,2023-06-14,2023-06-14,ＮＩＨＯＮ　ＩＮＴＥＲＮＡＴＩＯＮＡＬ　ＳＥＶＥＮ　ＳＴＡＲ　ＭＡＣＨＩＮＥＲＹ合同会社,,合同会社,愛知県,名古屋市中村区,名駅５丁目４番１４号花車ビル北館,,23,105,4500002,,,,,,,2023-06-14,1,,,,,ニホンインターナショナルセブンスターマシナリー,0
2436,9180301037475,新規,0,2023-06-14,2023-06-14,ＷＥＥＴＥＣＨ株式会社,,株式会社,愛知県,知立市,牛田町東向山９９番地１,,23,225,4720007,,,,,,,2023-06-14,1,,,,,ウィーテック,0
2447,9230001019883,新規,0,2023-06-14,2023-06-14,株式会社Ｍ・ＰＯＷＥＲ,,株式会社,富山県,富山市,八尾町福島５丁目５１番地２,,16,201,9392376,,,,,,,2023-06-14,1,,,,,エムパワー,0
2451,9240001061678,新規,0,2023-06-14,2023-06-14,株式会社ＳＯＬＡ,,株式会社,広島県,大竹市,油見３丁目１９番１８号,,34,211,7390612,,,,,,,2023-06-14,1,,,,,ソラ,0
2454,9250003003289,新規,0,2023-06-14,2023-06-14,合同会社ＭＫコーポレーション,,合同会社,山口県,宇部市,相生町５番１０号,,35,202,7550043,,,,,,,2023-06-14,1,,,,,エムケイコーポレーション,0
2456,9280003001736,新規,0,2023-06-14,2023-06-14,合同会社Ａｄｏｔ,,合同会社,島根県,江津市,黒松町３６６－１２,,32,207,6992831,,,,,,,2023-06-14,1,,,,,アドット,0
2462,9290003014027,新規,0,2023-06-14,2023-06-14,合同会社ラディアント,,合同会社,福岡県,福岡市博多区,住吉３丁目１番２０－７０１号,,40,132,8120018,,,,,,,2023-06-14,1,,,,,ラディアント,0
2471,9320003004107,新規,0,2023-06-14,2023-06-14,合同会社田なべや,,合同会社,大分県,別府市,野口元町６番５号,,44,202,8740933,,,,,,,2023-06-14,1,,,,,タナベヤ,0
2473,9340003004154,新規,0,2023-06-14,2023-06-14,ユナイテッドワークス合同会社,,合同会社,鹿児島県,枕崎市,岩崎町３２２番地,,46,204,8980052,,,,,,,2023-06-14,1,,,,,ユナイテッドワークス,0
2477,9360001032155,新規,0,2023-06-14,2023-06-14,株式会社ＨＥＩＤＩ,,株式会社,沖縄県,那覇市,字安謝２５１番地１やしま産業ビル２０２号,,47,201,9000003,,,,,,,2023-06-14,1,,,,,ハイジ,0
2479,9360003013062,新規,0,2023-06-14,2023-06-14,夏陽合同会社,,合同会社,沖縄県,那覇市,安里１丁目１番５８号２階５号室,,47,201,9020067,,,,,,,2023-06-14,1,,,,,ナツヨウ,0
2480,9360005006865,新規,0,2023-06-14,2023-06-14,一般社団法人ユイマール塾,,その他の設立登記法人,沖縄県,那覇市,松川２丁目１６番１号シオンハウス２Ｆ,,47,201,9020062,,,,,,,2023-06-14,1,,,,,ユイマールジュク,0
2488,9380001033787,新規,0,2023-06-14,2023-06-14,株式会社カーグラスＧＬＵＥ,,株式会社,福島県,いわき市,常磐関船町３丁目７番地の２,,07,204,9728318,,,,,,,2023-06-14,1,,,,,カーグラスグルー,0
2493,9420001018296,新規,0,2023-06-14,2023-06-14,長内商事株式会社,,株式会社,青森県,青森市,浪館前田３丁目８番１６号,,02,201,0380024,,,,,,,2023-06-14,1,,,,,オサナイショウジ,0
2499,9430001089287,新規,0,2023-06-14,2023-06-14,株式会社明真,,株式会社,北海道,北広島市,北の里３８番地５,,01,234,0611111,,,,,,,2023-06-14,1,,,,,メイシン,0
2500,9430001089320,新規,0,2023-06-14,2023-06-14,株式会社Ａｓｔｅｒｉ,,株式会社,北海道,札幌市中央区,北十四条西１５丁目３－７,,01,101,0600014,,,,,,,2023-06-14,1,,,,,アステリ,0
2501,9430001089329,新規,0,2023-06-14,2023-06-14,レリーフホーム株式会社,,株式会社,北海道,札幌市白石区,平和通１７丁目北２－１０,,01,104,0030029,,,,,,,2023-06-14,1,,,,,レリーフホーム,0
2502,9430001089337,新規,0,2023-06-14,2023-06-14,株式会社リメイクスリー,,株式会社,北海道,札幌市東区,北四十一条東２丁目１－１５パラディーゾ４１２,,01,103,0070841,,,,,,,2023-06-14,1,,,,,リメイクスリー,0
2503,9430001089345,新規,0,2023-06-14,2023-06-14,株式会社ＣＬＩＭＢｉｌｄ’ｓ,,株式会社,北海道,札幌市白石区,川北一条１丁目４－２３,,01,104,0030851,,,,,,,2023-06-14,1,,,,,クライムビルズ,0
2507,9430003015150,新規,0,2023-06-14,2023-06-14,合同会社勇英,,合同会社,北海道,苫小牧市,大成町２丁目６番３－３０５号,,01,213,0530806,,,,,,,2023-06-14,1,,,,,ユウエイ,0
2509,9460301005156,新規,0,2023-06-14,2023-06-14,株式会社ウエストびら,,株式会社,北海道,網走市,字能取２４２番地の１５,,01,211,0930241,,,,,,,2023-06-14,1,,,,,ウエストビラ,0
2510,9490003001789,新規,0,2023-06-14,2023-06-14,合同会社ステラ,,合同会社,高知県,高知市,潮新町２丁目１０番１号,,39,201,7818008,,,,,,,2023-06-14,1,,,,,ステラ,0
2515,9700150116814,新規,0,2023-06-14,2023-06-02,武蔵野市体育協会,,その他,東京都,武蔵野市,吉祥寺北町５丁目１１－２０武蔵野総合体育館３Ｆ,,13,203,1800001,,,,,,,2023-06-02,1,,,,,ムサシノシタイイクキヨウカイ,0
2516,9700150116822,新規,0,2023-06-14,2023-06-02,ひまわり学童クラブ２組,,その他,大阪府,大阪市住吉区,清水丘１丁目２３－３,,27,120,5580033,,,,,,,2023-06-02,1,,,,,ヒマワリガクドウクラブニクミ,0
2517,9700150117358,新規,0,2023-06-14,2023-06-14,Ｓｈｅｎｚｈｅｎ　Ｍｉｎｇｙａｎｇ　Ｉｎｔｅｒｎａｔｉｏｎａｌ　Ｂｉｏｔｅｃｈ　Ｃｏ．，Ｌｔｄ,,外国会社等,,,,,,,,Ｄ１－２２０４　Ｌｏｎｇｇａｎｇ，Ｎａｎｗａｎｊｉｅｄａｏ，Ｙｕａｎｓｈａｎｗｏ　Ｔｏｎｇｊｉａｎｌｏｕ　Ｇｕａｎｇｄｏｎｇ，Ｓｈｅｎｚｈｅｎ　Ｃｉｔｙ,,,,,,2023-06-14,1,,,,,シェンゼェンミンヤンインターナショナルバイオテクカンパニーリミテッド,0
2518,9700150117416,新規,0,2023-06-14,2023-06-14,ｓｈｅｎｚｈｅｎｓｈｉｘｉｎｇｙｕｎｈｕｉｊｕｍａｏｙｉｙｏｕｘｉａｎｇｏｎｇｓｉ,,外国会社等,,,,,,,,ｂａｎｔｉａｎｊｉｅｄａｏ　ｇａｎｇｔｏｕｓｈｅｑｕ　ｊｉａｘｉａｎｌｕ２０００ｈａｏ　ｙｏｕｓｕｏｗｅｉｄａｓｈａ９０１－９１０　ｓｈｅｎｚｈｅｎｓｈｉ　ｌｏｎｇｇａｎｇｑｕ　ｇｕａｎｇｄｏｎｇｓｈｅｎｇ　Ｃｈｉｎａ,,,,,,2023-06-14,1,,,,,シンセンシコウウンイシユボウエキユウゲンコウシ,0
