sequenceNumber,corporateNumber,process,correct,updateDate,changeDate,name,nameImageId,kind,prefectureName,cityName,streetNumber,addressImageId,prefectureCode,cityCode,postCode,addressOutside,addressOutsideImageId,closeDate,closeCause,successorCorporateNumber,changeCause,assignmentDate,latest,enName,enPrefectureName,enCityName,enAddressOutside,furigana,hihyoji
4,1010001196769,登記記録の閉鎖等,0,2023-01-20,2023-01-12,ＯｎｅＦＩＮ株式会社,,株式会社,東京都,千代田区,神田西福田町４－１,,13,101,1010037,,,2023-01-12,清算の結了等,,,2018-11-30,1,,,,,ワンフィン,0
7,1010001208318,登記記録の閉鎖等,0,2023-01-20,2023-01-04,ＧＣＪＧ６株式会社,,株式会社,東京都,港区,六本木１丁目６番１号,,13,103,1060032,,,2023-01-04,合併による解散等,7010401167595,令和５年１月１日東京都港区六本木一丁目６番１号Ｙａｍａｔｏ６１株式会社（7010401167595）に合併し解散,2020-03-16,1,,,,,ジーシージェイジーシックス,0
25,1010501017887,登記記録の閉鎖等,0,2023-01-20,2023-01-20,株式会社プリズム,,株式会社,東京都,台東区,浅草６丁目３６番９号,,13,106,1110032,,,2023-01-20,登記官による閉鎖,,,2015-10-05,1,,,,,,0
26,1010501025196,登記記録の閉鎖等,0,2023-01-20,2023-01-20,エーエスシー株式会社,,株式会社,東京都,台東区,元浅草２丁目１１番６号,,13,106,1110041,,,2023-01-20,登記官による閉鎖,,,2015-10-05,1,,,,,,0
27,1010501027960,登記記録の閉鎖等,0,2023-01-20,2023-01-20,株式会社トライアップ,,株式会社,東京都,台東区,台東２丁目１番１号,,13,106,1100016,,,2023-01-20,登記官による閉鎖,,,2015-10-05,1,,,,,,0
28,1010501034222,登記記録の閉鎖等,0,2023-01-20,2023-01-20,株式会社ＲＡＯＮ,,株式会社,東京都,台東区,小島２丁目８番２号,,13,106,1110056,,,2023-01-20,登記官による閉鎖,,,2015-10-05,1,,,,,,0
30,1010502002376,登記記録の閉鎖等,0,2023-01-20,2023-01-20,有限会社小倉製帽所,,有限会社,東京都,台東区,浅草橋１丁目３６番１１号,,13,106,1110053,,,2023-01-20,登記官による閉鎖,,,2015-10-05,1,,,,,,0
31,1010502002905,登記記録の閉鎖等,0,2023-01-20,2023-01-20,有限会社釜めし田佐久,,有限会社,東京都,台東区,浅草１丁目１４番２号,,13,106,1110032,,,2023-01-20,登記官による閉鎖,,,2015-10-05,1,,,,,,0
32,1010502007879,登記記録の閉鎖等,0,2023-01-20,2023-01-20,有限会社ドライクリーニング大竹屋,,有限会社,東京都,台東区,今戸２丁目２０番４号,,13,106,1110024,,,2023-01-20,登記官による閉鎖,,,2015-10-05,1,,,,,,0
33,1010502008885,登記記録の閉鎖等,0,2023-01-20,2023-01-20,有限会社原製函木工所,,有限会社,東京都,台東区,蔵前４丁目１０番７号,,13,106,1110051,,,2023-01-20,登記官による閉鎖,,,2015-10-05,1,,,,,,0
34,1010502015493,登記記録の閉鎖等,0,2023-01-20,2023-01-20,有限会社小瀬商会,,有限会社,東京都,台東区,橋場２丁目１１番１４号,,13,106,1110023,,,2023-01-20,登記官による閉鎖,,,2015-10-05,1,,,,,,0
35,1010502020650,登記記録の閉鎖等,0,2023-01-20,2023-01-20,マーナ・マリー有限会社,,有限会社,東京都,台東区,雷門２丁目６番２号,,13,106,1110034,,,2023-01-20,登記官による閉鎖,,,2015-10-05,1,,,,,,0
36,1010503003588,登記記録の閉鎖等,0,2023-01-20,2023-01-20,ジャスティス合同会社,,合同会社,東京都,台東区,蔵前３丁目１７番３号蔵前ＳＩビル９階,,13,106,1110051,,,2023-01-20,登記官による閉鎖,,,2015-10-05,1,,,,,,0
64,1011501011186,登記記録の閉鎖等,0,2023-01-20,2023-01-16,アンヌ商事株式会社,,株式会社,東京都,荒川区,荒川６丁目４０番５号,,13,118,1160002,,,2023-01-16,清算の結了等,,,2015-10-05,1,,,,,,0
65,1011501016747,登記記録の閉鎖等,0,2023-01-20,2023-01-16,株式会社下谷寫眞製版社,,株式会社,東京都,荒川区,東日暮里２丁目１０番７号,,13,118,1160014,,,2023-01-16,清算の結了等,,,2015-10-05,1,,,,,,0
70,1011801015291,登記記録の閉鎖等,0,2023-01-20,2023-01-16,アイホーム株式会社,,株式会社,東京都,足立区,鹿浜６丁目３０番５号,,13,121,1230864,,,2023-01-16,清算の結了等,,,2015-10-05,1,,,,,アイホーム,0
71,1011801025357,登記記録の閉鎖等,0,2023-01-20,2023-01-17,株式会社ＧＵＣＦ,,株式会社,東京都,葛飾区,立石６丁目３５－１,,13,122,1240012,,,2023-01-17,合併による解散等,1010001142194,令和５年１月１日東京都文京区湯島三丁目１４番９号株式会社エクセス（1010001142194）に合併し解散,2015-10-05,1,,,,,ジーユーシーエフ,0
76,1012301006244,登記記録の閉鎖等,0,2023-01-20,2023-01-20,株式会社マッドブース,,株式会社,東京都,町田市,原町田４丁目１８番６号,,13,209,1940013,,,2023-01-20,登記官による閉鎖,,,2015-10-05,1,,,,,,0
77,1012302002176,登記記録の閉鎖等,0,2023-01-20,2023-01-20,有限会社五月建築設計事務所,,有限会社,東京都,町田市,木曽東４丁目４番１５号,,13,209,1940036,,,2023-01-20,登記官による閉鎖,,,2015-10-05,1,,,,,,0
80,1012305001407,登記記録の閉鎖等,0,2023-01-20,2023-01-20,特定非営利活動法人リリーフ・インターナショナル・ジャパン,,その他の設立登記法人,東京都,町田市,原町田６丁目１９番地９号,,13,209,1940013,,,2023-01-20,登記官による閉鎖,,,2015-10-05,1,,,,,,0
86,1013201014799,登記記録の閉鎖等,0,2023-01-20,2022-12-28,ＳＫＫ不動産株式会社,,株式会社,東京都,港区,赤坂２丁目１４番３２号,,13,103,1070052,,,2022-12-28,合併による解散等,9013201004454,令和４年１２月２６日東京都港区赤坂二丁目１４番３２号日昭株式会社（9013201004454）に合併し解散,2015-10-05,1,,,,,エスケイケイフドウサン,0
92,1020001080212,登記記録の閉鎖等,0,2023-01-20,2023-01-16,株式会社ワイズプランニング,,株式会社,神奈川県,川崎市宮前区,土橋２丁目１２番地５,,14,136,2160005,,,2023-01-16,清算の結了等,,,2015-10-05,1,,,,,ワイズプランニング,0
118,1030002025140,登記記録の閉鎖等,0,2023-01-20,2023-01-16,有限会社フレ・テック,,有限会社,埼玉県,戸田市,笹目２丁目５番１５号,,11,224,3350034,,,2023-01-16,清算の結了等,,,2015-10-05,1,,,,,フレテック,0
120,1040001026766,登記記録の閉鎖等,0,2023-01-20,2023-01-17,太陽住建株式会社,,株式会社,千葉県,市川市,大野町４丁目２７４１－１２,,12,203,2720805,,,2023-01-17,清算の結了等,,,2015-10-05,1,,,,,タイヨウジュウケン,0
131,1050002018308,登記記録の閉鎖等,0,2023-01-20,2023-01-12,有限会社イワサキ,,有限会社,茨城県,猿島郡境町,大字蛇池４１９番地,,08,546,3060403,,,2023-01-12,清算の結了等,,,2015-10-05,1,,,,,イワサキ,0
149,1100001016959,登記記録の閉鎖等,0,2023-01-20,2023-01-17,株式会社コレスト,,株式会社,長野県,安曇野市,穂高有明７３７２番地９１,,20,220,3998301,,,2023-01-17,清算の結了等,,,2015-10-05,1,,,,,コレスト,0
169,1120102017821,登記記録の閉鎖等,0,2023-01-20,2023-01-18,有限会社アドテック,,有限会社,大阪府,羽曳野市,伊賀１丁目１４番１号,,27,222,5830876,,,2023-01-18,清算の結了等,,,2015-10-05,1,,,,,アドテック,0
198,1180302010083,登記記録の閉鎖等,0,2023-01-20,2023-01-16,有限会社明成,,有限会社,愛知県,豊橋市,天伯町字八田平２７番地１２１,,23,201,4418122,,,2023-01-16,清算の結了等,,,2015-10-05,1,,,,,メイセイ,0
212,1240005006315,登記記録の閉鎖等,0,2023-01-20,2023-01-12,協同組合神田造船協力会,,その他の設立登記法人,広島県,呉市,川尻町東２丁目１４番２１号株式会社神田造船所内,,34,202,7372607,,,2023-01-12,清算の結了等,,,2015-10-05,1,,,,,,0
215,1270005005479,登記記録の閉鎖等,0,2023-01-20,2023-01-16,ＮＰＯ法人相談支援事業所てんとう虫,,その他の設立登記法人,鳥取県,米子市,博労町４丁目３５番地,,31,202,6830052,,,2023-01-16,清算の結了等,,,2021-10-05,1,,,,,ソウダンシエンジギョウショテントウムシ,0
240,1380001008631,登記記録の閉鎖等,0,2023-01-20,2023-01-20,株式会社ぱる工房,,株式会社,福島県,郡山市,富久山町八山田字柳池原１番地,,07,203,9638051,,,2023-01-20,登記官による閉鎖,,,2015-10-05,1,,,,,,0
241,1380001021213,登記記録の閉鎖等,0,2023-01-20,2023-01-20,フジホーム株式会社,,株式会社,福島県,須賀川市,八幡町２１番地７,,07,207,9620831,,,2023-01-20,登記官による閉鎖,,,2015-10-05,1,,,,,,0
242,1380002006106,登記記録の閉鎖等,0,2023-01-20,2023-01-20,有限会社赤井屋商店,,有限会社,福島県,伊達市,保原町上保原字無苦代内３７番地の４,,07,213,9600684,,,2023-01-20,登記官による閉鎖,,,2015-10-05,1,,,,,,0
244,1380002018563,登記記録の閉鎖等,0,2023-01-20,2023-01-20,有限会社山崎カーテン,,有限会社,福島県,白河市,葉ノ木平５８番地の８,,07,205,9610093,,,2023-01-20,登記官による閉鎖,,,2015-10-05,1,,,,,,0
245,1380002019859,登記記録の閉鎖等,0,2023-01-20,2023-01-20,有限会社佐浦物産,,有限会社,福島県,須賀川市,季の郷１５７番地,,07,207,9620405,,,2023-01-20,登記官による閉鎖,,,2015-10-05,1,,,,,,0
246,1380002035864,登記記録の閉鎖等,0,2023-01-20,2023-01-20,有限会社サン愛,,有限会社,福島県,石川郡石川町,大字塩沢字禿山２２番地,,07,501,9637836,,,2023-01-20,登記官による閉鎖,,,2015-10-05,1,,,,,,0
252,1430001050512,登記記録の閉鎖等,0,2023-01-20,2023-01-12,株式会社丸上ハヤシヤ,,株式会社,北海道,石狩市,花川南二条４丁目２７２番地,,01,235,0613202,,,2023-01-12,清算の結了等,,,2015-10-05,1,,,,,マルガミハヤシヤ,0
260,1440002010051,登記記録の閉鎖等,0,2023-01-20,2023-01-19,有限会社マルテンストア,,有限会社,北海道,寿都郡寿都町,字磯谷町横澗８９番地,,01,392,0480351,,,2023-01-19,登記官による閉鎖,,,2015-10-05,1,,,,,,0
275,2010001175986,登記記録の閉鎖等,0,2023-01-20,2023-01-12,株式会社鮪の山口,,株式会社,東京都,中央区,築地６丁目２６番１号,,13,102,1040045,,,2023-01-12,清算の結了等,,,2016-06-01,1,,,,,マグロノヤマグチ,0
303,2010501029213,登記記録の閉鎖等,0,2023-01-20,2023-01-20,株式会社ケネックス・ジャパン,,株式会社,東京都,台東区,蔵前１丁目８番３号,,13,106,1110051,,,2023-01-20,登記官による閉鎖,,,2015-10-05,1,,,,,,0
304,2010501031557,登記記録の閉鎖等,0,2023-01-20,2023-01-20,株式会社ＺＥＲＯ,,株式会社,東京都,台東区,上野７丁目１１番５号,,13,106,1100005,,,2023-01-20,登記官による閉鎖,,,2015-10-05,1,,,,,,0
305,2010501032118,登記記録の閉鎖等,0,2023-01-20,2023-01-20,株式会社リードトラスト,,株式会社,東京都,台東区,元浅草１丁目４番３号貝原ビル５階,,13,106,1110041,,,2023-01-20,登記官による閉鎖,,,2015-10-05,1,,,,,,0
308,2010502002978,登記記録の閉鎖等,0,2023-01-20,2023-01-20,有限会社木下商店,,有限会社,東京都,台東区,浅草２丁目２４番９号,,13,106,1110032,,,2023-01-20,登記官による閉鎖,,,2015-10-05,1,,,,,,0
309,2010502007275,登記記録の閉鎖等,0,2023-01-20,2023-01-20,有限会社司ビー・シー,,有限会社,東京都,台東区,駒形１丁目１２番１０－３０１号,,13,106,1110043,,,2023-01-20,登記官による閉鎖,,,2015-10-05,1,,,,,,0
310,2010502009726,登記記録の閉鎖等,0,2023-01-20,2023-01-20,有限会社富士建築設計事務所,,有限会社,東京都,台東区,台東４丁目２３番１０－８０３号,,13,106,1100016,,,2023-01-20,登記官による閉鎖,,,2015-10-05,1,,,,,,0
311,2010505001341,登記記録の閉鎖等,0,2023-01-20,2023-01-20,特定非営利活動法人日本イリドロジー協会,,その他の設立登記法人,東京都,台東区,元浅草２丁目６番６号東京日産台東ビル３階,,13,106,1110041,,,2023-01-20,登記官による閉鎖,,,2015-10-05,1,,,,,,0
314,2010703002513,登記記録の閉鎖等,0,2023-01-20,2022-12-28,甲斐太陽光第一合同会社,,合同会社,東京都,港区,六本木１丁目６番１号泉ガーデンタワー,,13,103,1060032,,,2022-12-28,清算の結了等,,,2015-10-05,1,,,,,カイタイヨウコウダイイチ,0
326,2011005006888,登記記録の閉鎖等,0,2023-01-20,2023-01-04,一般社団法人Ｒ５０１,,その他の設立登記法人,東京都,港区,六本木１丁目６番１号泉ガーデンタワー,,13,103,1060032,,,2023-01-04,清算の結了等,,,2016-08-23,1,,,,,アールゴーマルイチ,0
344,2012302002761,登記記録の閉鎖等,0,2023-01-20,2023-01-20,有限会社外崎商事,,有限会社,東京都,町田市,鶴間３丁目１３番地１２,,13,209,1940004,,,2023-01-20,登記官による閉鎖,,,2015-10-05,1,,,,,,0
345,2012302005475,登記記録の閉鎖等,0,2023-01-20,2023-01-20,有限会社ビーナス・コーポレーション,,有限会社,東京都,町田市,南大谷５２１番地,,13,209,1940031,,,2023-01-20,登記官による閉鎖,,,2015-10-05,1,,,,,,0
346,2012302008692,登記記録の閉鎖等,0,2023-01-20,2023-01-20,有限会社ヒッコリーファーム,,有限会社,東京都,町田市,玉川学園３丁目１６番１８号,,13,209,1940041,,,2023-01-20,登記官による閉鎖,,,2015-10-05,1,,,,,,0
348,2012402019103,登記記録の閉鎖等,0,2023-01-20,2023-01-17,有限会社全建社,,有限会社,東京都,三鷹市,上連雀７丁目３番６号,,13,204,1810012,,,2023-01-17,清算の結了等,,,2015-10-05,1,,,,,ゼンケンシャ,0
351,2020001031305,登記記録の閉鎖等,0,2023-01-20,2023-01-16,日本コイル工業株式会社,,株式会社,神奈川県,横浜市西区,楠町１０番地の１,,14,103,2200003,,,2023-01-16,清算の結了等,,,2015-10-05,1,,,,,,0
357,2020002004937,登記記録の閉鎖等,0,2023-01-20,2023-01-16,有限会社松村住宅サービス,,有限会社,神奈川県,横浜市緑区,鴨居７丁目２７番１９号,,14,113,2260003,,,2023-01-16,清算の結了等,,,2015-10-05,1,,,,,,0
361,2021001036327,登記記録の閉鎖等,0,2023-01-20,2023-01-16,株式会社加藤産業湘南,,株式会社,神奈川県,平塚市,河内１３９番地,,14,203,2540903,,,2023-01-16,清算の結了等,,,2015-10-05,1,,,,,カトウサンギョウショウナン,0
364,2021002021220,登記記録の閉鎖等,0,2023-01-20,2023-01-16,有限会社上州屋,,有限会社,神奈川県,愛甲郡愛川町,中津２０５４番地の９,,14,401,2430303,,,2023-01-16,清算の結了等,,,2015-10-05,1,,,,,ジョウシュウヤ,0
365,2021002059252,登記記録の閉鎖等,0,2023-01-20,2023-01-16,有限会社原商事,,有限会社,神奈川県,平塚市,御殿１丁目４番３７号,,14,203,2540061,,,2023-01-16,清算の結了等,,,2015-10-05,1,,,,,ハラショウジ,0
366,2030001063413,登記記録の閉鎖等,0,2023-01-20,2023-01-17,株式会社ＥＥＭ,,株式会社,埼玉県,ふじみ野市,南台２丁目７番５号ライオンズマンション上福岡６０５号,,11,245,3560036,,,2023-01-17,清算の結了等,,,2015-10-05,1,,,,,イーイーエム,0
398,2060001022077,登記記録の閉鎖等,0,2023-01-20,2023-01-16,ベジタブルフーズ株式会社,,株式会社,栃木県,下都賀郡壬生町,大字壬生甲３０７９番地２,,09,361,3210214,,,2023-01-16,清算の結了等,,,2015-10-05,1,,,,,ベジタブルフーズ,0
460,2140002038295,登記記録の閉鎖等,0,2023-01-20,2023-01-17,有限会社イシハラ産業,,有限会社,兵庫県,加古郡稲美町,国岡１丁目９８番地,,28,381,6751115,,,2023-01-17,清算の結了等,,,2015-10-05,1,,,,,,0
470,2180302000190,登記記録の閉鎖等,0,2023-01-20,2023-01-16,有限会社アンファン,,有限会社,愛知県,岡崎市,上地５丁目１番地２０,,23,202,4440823,,,2023-01-16,清算の結了等,,,2015-10-05,1,,,,,アンファン,0
473,2190001011447,登記記録の閉鎖等,0,2023-01-20,2023-01-19,農業屋ファーム株式会社,,株式会社,三重県,松阪市,嬉野黒野町９４６番地,,24,204,5152334,,,2023-01-19,清算の結了等,,,2015-10-05,1,,,,,,0
475,2230005002108,登記記録の閉鎖等,0,2023-01-20,2023-01-05,あいえす税理士法人,,その他の設立登記法人,富山県,富山市,問屋町２丁目３番７号,,16,201,9300834,,,2023-01-05,清算の結了等,,,2015-10-05,1,,,,,アイエス,0
478,2250001000328,登記記録の閉鎖等,0,2023-01-20,2023-01-16,スミダ食品株式会社,,株式会社,山口県,山口市,黒川１７３番地の３,,35,203,7530851,,,2023-01-16,清算の結了等,,,2015-10-05,1,,,,,スミダショクヒン,0
499,2370001043570,登記記録の閉鎖等,0,2023-01-20,2023-01-17,エスワークスプロジェクト株式会社,,株式会社,宮城県,仙台市泉区,南光台７丁目４０番２７号,,04,105,9818003,,,2023-01-17,清算の結了等,,,2018-10-04,1,,,,,エスワークスプロジェクト,0
500,2380002003523,登記記録の閉鎖等,0,2023-01-20,2023-01-20,有限会社丸正家具店,,有限会社,福島県,福島市,方木田字永樋１５番地の１０,00083468,07,201,9608163,,,2023-01-20,登記官による閉鎖,,,2015-10-05,1,,,,,,0
501,2380002017291,登記記録の閉鎖等,0,2023-01-20,2023-01-20,有限会社山興業,,有限会社,福島県,安達郡大玉村,大山字玉貫５番地の１,,07,322,9691301,,,2023-01-20,登記官による閉鎖,,,2015-10-05,1,,,,,,0
514,2440001001868,登記記録の閉鎖等,0,2023-01-20,2023-01-19,株式会社東山小柳,,株式会社,北海道,函館市,東山２丁目５番１９号,,01,202,0410835,,,2023-01-19,登記官による閉鎖,,,2015-10-05,1,,,,,,0
515,2440002002007,登記記録の閉鎖等,0,2023-01-20,2023-01-19,有限会社シーランドエンジニアリング,,有限会社,北海道,函館市,豊川町２０番５号,,01,202,0400065,,,2023-01-19,登記官による閉鎖,,,2015-10-05,1,,,,,,0
516,2440002002857,登記記録の閉鎖等,0,2023-01-20,2023-01-13,有限会社ＴＹ,,有限会社,北海道,函館市,陣川１丁目７番５号,,01,202,0410837,,,2023-01-13,清算の結了等,,,2015-10-05,1,,,,,ティーワイ,0
517,2440002009530,登記記録の閉鎖等,0,2023-01-20,2023-01-19,有限会社江差電化センター,,有限会社,北海道,檜山郡江差町,字茂尻町３２５番地,,01,361,0430052,,,2023-01-19,登記官による閉鎖,,,2015-10-05,1,,,,,,0
518,2440005001484,登記記録の閉鎖等,0,2023-01-20,2023-01-19,特定非営利活動法人やまのしずく,,その他の設立登記法人,北海道,亀田郡七飯町,字軍川１７番地９,,01,337,0411352,,,2023-01-19,登記官による閉鎖,,,2015-10-05,1,,,,,,0
533,3010001102106,登記記録の閉鎖等,0,2023-01-20,2023-01-13,キャピタランド・インターナショナル・ジャパン株式会社,,株式会社,東京都,千代田区,丸の内２丁目２番３号丸の内仲通りビル６階,,13,101,1000005,,,2023-01-13,合併による解散等,9010001071725,令和５年１月１日東京都千代田区丸の内二丁目２番３号丸の内仲通りビル６階キャピタランド・ジャパン株式会社（9010001071725）に合併し解散,2015-10-05,1,,,,,キャピタランドインターナショナルジャパン,0
535,3010001151623,登記記録の閉鎖等,0,2023-01-20,2023-01-12,ＩＣＳインベストメント株式会社,,株式会社,東京都,千代田区,丸の内１丁目８番３号,,13,101,1000005,,,2023-01-12,合併による解散等,8010001133757,令和５年１月１日東京都千代田区丸の内一丁目８番３号カルビー株式会社（8010001133757）に合併し解散,2015-10-05,1,,,,,アイシーエスインベストメント,0
539,3010001163453,登記記録の閉鎖等,0,2023-01-20,2023-01-11,未来創電松阪嬉野株式会社,,株式会社,東京都,千代田区,内幸町２丁目１番１号,,13,101,1000011,,,2023-01-11,清算の結了等,,,2015-10-05,1,,,,,ミライソウデンマツザカウレシノ,0
553,3010401067840,登記記録の閉鎖等,0,2023-01-20,2023-01-13,株式会社エンドウ・ユキ,,株式会社,茨城県,筑西市,中舘１４５番地１２,,08,227,3080005,,,2023-01-13,清算の結了等,,,2015-10-05,1,,,,,エンドウユキ,0
562,3010401148285,登記記録の閉鎖等,0,2023-01-20,2023-01-16,株式会社ＪＡＰＡＮリノベーション,,株式会社,神奈川県,横浜市中区,南仲通４丁目４６番１号ラパンビルＩＩ２階,00122777,14,104,2310006,,,2023-01-16,清算の結了等,,,2019-10-04,1,,,,,ジャパンリノベーション,0
568,3010405006191,登記記録の閉鎖等,0,2023-01-20,2023-01-04,医療法人社団慶緑会,,その他の設立登記法人,東京都,港区,新橋２丁目１９番１０号新橋マリンビル３階,,13,103,1050004,,,2023-01-04,清算の結了等,,,2015-10-05,1,,,,,ケイリョクカイ,0
569,3010501010353,登記記録の閉鎖等,0,2023-01-20,2023-01-20,新高建設興業株式会社,,株式会社,東京都,台東区,東上野１丁目１５番３号,,13,106,1100015,,,2023-01-20,登記官による閉鎖,,,2015-10-05,1,,,,,,0
571,3010501022621,登記記録の閉鎖等,0,2023-01-20,2023-01-20,株式会社マルス,,株式会社,東京都,台東区,根岸１丁目１番１７号,,13,106,1100003,,,2023-01-20,登記官による閉鎖,,,2015-10-05,1,,,,,,0
572,3010501030632,登記記録の閉鎖等,0,2023-01-20,2023-01-20,株式会社ＦＩＧ都心開発,,株式会社,東京都,台東区,元浅草２丁目１１番６－７０７号,,13,106,1110041,,,2023-01-20,登記官による閉鎖,,,2015-10-05,1,,,,,,0
573,3010501030681,登記記録の閉鎖等,0,2023-01-20,2023-01-20,三田ポリマー株式会社,,株式会社,東京都,台東区,三筋１丁目７番１号,,13,106,1110055,,,2023-01-20,登記官による閉鎖,,,2015-10-05,1,,,,,,0
574,3010501032546,登記記録の閉鎖等,0,2023-01-20,2023-01-20,株式会社ワールド,,株式会社,東京都,台東区,台東４丁目５番１２号ツバセスＰＡＲＴ１５御徒町２０８,,13,106,1100016,,,2023-01-20,登記官による閉鎖,,,2015-10-05,1,,,,,,0
577,3010502006961,登記記録の閉鎖等,0,2023-01-20,2023-01-20,俵家有限会社,,有限会社,東京都,台東区,蔵前１丁目１番８号ヴィラハイツ浅草橋３０２号,,13,106,1110051,,,2023-01-20,登記官による閉鎖,,,2015-10-05,1,,,,,,0
578,3010502009295,登記記録の閉鎖等,0,2023-01-20,2023-01-20,有限会社久乃園茶舗,,有限会社,東京都,台東区,東上野３丁目３５番１２号,,13,106,1100015,,,2023-01-20,登記官による閉鎖,,,2015-10-05,1,,,,,,0
579,3010502018791,登記記録の閉鎖等,0,2023-01-20,2023-01-20,天津万昇ジャパン有限会社,,有限会社,東京都,台東区,浅草橋３丁目３番１号,,13,106,1110053,,,2023-01-20,登記官による閉鎖,,,2015-10-05,1,,,,,,0
580,3010601018288,登記記録の閉鎖等,0,2023-01-20,2023-01-12,株式会社ビレッジカンパニー,,株式会社,東京都,江東区,三好２丁目８番１３号,,13,108,1350022,,,2023-01-12,清算の結了等,,,2015-10-05,1,,,,,ビレッジカンパニー,0
587,3011001056473,登記記録の閉鎖等,0,2023-01-20,2023-01-19,株式会社カキタ,,株式会社,広島県,広島市西区,庚午南１丁目９番２号,,34,104,7330823,,,2023-01-19,清算の結了等,,,2015-10-05,1,,,,,カキタ,0
616,3011802012377,登記記録の閉鎖等,0,2023-01-20,2023-01-16,庚申興業有限会社,,有限会社,東京都,足立区,扇３丁目３番１６号,,13,121,1230873,,,2023-01-16,清算の結了等,,,2015-10-05,1,,,,,コウシンコウギョウ,0
617,3012301002010,登記記録の閉鎖等,0,2023-01-20,2023-01-20,株式会社パルメイト,,株式会社,東京都,町田市,三輪町１６７番地１１,,13,209,1950054,,,2023-01-20,登記官による閉鎖,,,2015-10-05,1,,,,,,0
618,3012301006829,登記記録の閉鎖等,0,2023-01-20,2023-01-20,ニュークリエーション株式会社,,株式会社,東京都,町田市,玉川学園３丁目８番１７号,,13,209,1940041,,,2023-01-20,登記官による閉鎖,,,2015-10-05,1,,,,,,0
619,3012302005978,登記記録の閉鎖等,0,2023-01-20,2023-01-20,有限会社ザ・タスカル,,有限会社,東京都,町田市,原町田４丁目１７番１０号ヨシトモ商事ビル４－Ａ号室,,13,209,1940013,,,2023-01-20,登記官による閉鎖,,,2015-10-05,1,,,,,,0
620,3013102001622,登記記録の閉鎖等,0,2023-01-20,2023-01-17,有限会社青木農機具店,,有限会社,東京都,あきる野市,小川８２１番ロ号地,,13,228,1970821,,,2023-01-17,清算の結了等,,,2015-10-05,1,,,,,アオキノウキグテン,0
623,3013202007420,登記記録の閉鎖等,0,2023-01-20,2023-01-10,有限会社マーシィクリエーション,,有限会社,東京都,目黒区,青葉台１丁目２７番５号,,13,110,1530042,,,2023-01-10,清算の結了等,,,2015-10-05,1,,,,,マーシィクリエーション,0
626,3020001002395,登記記録の閉鎖等,0,2023-01-20,2023-01-16,北陽地所株式会社,,株式会社,神奈川県,横浜市緑区,鴨居７丁目２７番１９号,,14,113,2260003,,,2023-01-16,清算の結了等,,,2015-10-05,1,,,,,,0
629,3020001089086,登記記録の閉鎖等,0,2023-01-20,2023-01-16,株式会社新航建築事務所,,株式会社,神奈川県,横浜市中区,長者町５丁目７５－１スクエア長者町１００６,,14,104,2310033,,,2023-01-16,清算の結了等,,,2015-10-05,1,,,,,,0
641,3020002035840,登記記録の閉鎖等,0,2023-01-20,2023-01-18,有限会社マクト精密,,有限会社,神奈川県,横浜市港北区,樽町４丁目１８番２８号,,14,109,2220001,,,2023-01-18,清算の結了等,,,2015-10-05,1,,,,,マクトセイミツ,0
642,3020003019297,登記記録の閉鎖等,0,2023-01-20,2023-01-16,合同会社ベンコンサルタント,,合同会社,神奈川県,川崎市麻生区,高石４丁目３５番１１号,,14,137,2150003,,,2023-01-16,清算の結了等,,,2021-02-17,1,,,,,ベンコンサルタント,0
654,3030002005025,登記記録の閉鎖等,0,2023-01-20,2023-01-16,有限会社コイズミエンジニアリング,,有限会社,埼玉県,さいたま市中央区,上落合２丁目１２番４号,,11,105,3380001,,,2023-01-16,清算の結了等,,,2015-10-05,1,,,,,コイズミエンジニアリング,0
655,3030002011287,登記記録の閉鎖等,0,2023-01-20,2023-01-16,有限会社ＪＵＮＫＥＮ,,有限会社,埼玉県,さいたま市北区,土呂町２丁目１９番地１１,,11,102,3310804,,,2023-01-16,清算の結了等,,,2015-10-05,1,,,,,ジュンケン,0
671,3050001002095,登記記録の閉鎖等,0,2023-01-20,2023-01-13,株式会社樋口建設,00021858,株式会社,茨城県,水戸市,五軒町２丁目４番４７号,,08,201,3100063,,,2023-01-13,清算の結了等,,,2015-10-05,1,,,,,ヒグチケンセツ,0
676,3050002023743,登記記録の閉鎖等,0,2023-01-20,2023-01-16,有限会社一心,,有限会社,茨城県,古河市,大山１７０８番地の２,,08,204,3060052,,,2023-01-16,清算の結了等,,,2015-10-05,1,,,,,イッシン,0
683,3070001012464,登記記録の閉鎖等,0,2023-01-20,2023-01-17,株式会社千湯,,株式会社,群馬県,藤岡市,立石字北１５６５番地,,10,209,3750002,,,2023-01-17,清算の結了等,,,2015-10-05,1,,,,,セントウ,0
686,3080001017330,登記記録の閉鎖等,0,2023-01-20,2023-01-18,株式会社金買取センター,,株式会社,静岡県,藤枝市,瀬戸新屋１６４,,22,214,4260075,,,2023-01-18,清算の結了等,,,2015-10-05,1,,,,,キンカイトリセンター,0
694,3100002005307,登記記録の閉鎖等,0,2023-01-20,2023-01-16,有限会社ヤチヨ,,有限会社,長野県,長野市,大字川合新田１４５０番地２,,20,201,3800913,,,2023-01-16,清算の結了等,,,2015-10-05,1,,,,,ヤチヨ,0
753,3220002016184,登記記録の閉鎖等,0,2023-01-20,2023-01-18,ポップレース有限会社,,有限会社,石川県,珠洲市,正院町正院１９部１１４番地,,17,205,9271206,,,2023-01-18,清算の結了等,,,2015-10-05,1,,,,,ポップレース,0
763,3250003003047,登記記録の閉鎖等,0,2023-01-20,2023-01-16,はまでん合同会社,,合同会社,山口県,熊毛郡平生町,大字小郡２３１,,35,344,7421112,,,2023-01-16,清算の結了等,,,2022-04-25,1,,,,,ハマデン,0
767,3270001006982,登記記録の閉鎖等,0,2023-01-20,2023-01-18,株式会社松花,,株式会社,鳥取県,鳥取市,川端３丁目２２０番地,,31,201,6800036,,,2023-01-18,清算の結了等,,,2016-06-07,1,,,,,ショウカ,0
786,3360005005658,登記記録の閉鎖等,0,2023-01-20,2023-01-13,一般社団法人生命素粒子研究所,,その他の設立登記法人,沖縄県,那覇市,泊２丁目１番地２１尚平ビル４０３,,47,201,9000012,,,2023-01-13,清算の結了等,,,2017-08-04,1,,,,,セイメイソリュウシケンキュウジョ,0
794,3380001000388,登記記録の閉鎖等,0,2023-01-20,2023-01-20,共永商事株式会社,,株式会社,福島県,福島市,吉倉字竹ノ内９３番地,,07,201,9608165,,,2023-01-20,登記官による閉鎖,,,2015-10-05,1,,,,,,0
795,3380001013357,登記記録の閉鎖等,0,2023-01-20,2023-01-20,株式会社中央興産,,株式会社,福島県,いわき市,常磐下湯長谷町一町田６２番地の２７,,07,204,9728317,,,2023-01-20,登記官による閉鎖,,,2015-10-05,1,,,,,,0
796,3380002001526,登記記録の閉鎖等,0,2023-01-20,2023-01-20,有限会社佐藤土建工業所,,有限会社,福島県,福島市,飯坂町平野字道添３８番地,,07,201,9600231,,,2023-01-20,登記官による閉鎖,,,2015-10-05,1,,,,,,0
797,3380002003217,登記記録の閉鎖等,0,2023-01-20,2023-01-20,有限会社福島タイムズ社,,有限会社,福島県,福島市,御山字井戸上６４番地の５,,07,201,9608252,,,2023-01-20,登記官による閉鎖,,,2015-10-05,1,,,,,,0
798,3380002008067,登記記録の閉鎖等,0,2023-01-20,2023-01-20,有限会社梅津金属,,有限会社,福島県,郡山市,香久池１丁目５番１１号,,07,203,9638833,,,2023-01-20,登記官による閉鎖,,,2015-10-05,1,,,,,,0
799,3380002010766,登記記録の閉鎖等,0,2023-01-20,2023-01-20,有限会社大哲産業,,有限会社,福島県,郡山市,久留米５丁目６９番地の２,,07,203,9638846,,,2023-01-20,登記官による閉鎖,,,2015-10-05,1,,,,,,0
800,3380002021796,登記記録の閉鎖等,0,2023-01-20,2023-01-20,プライム・ピア有限会社,,有限会社,福島県,須賀川市,森宿字沖２７番地１,,07,207,9620001,,,2023-01-20,登記官による閉鎖,,,2015-10-05,1,,,,,,0
801,3380002030351,登記記録の閉鎖等,0,2023-01-20,2023-01-20,有限会社広野プロパン,,有限会社,福島県,双葉郡広野町,大字下北迫字苗代替１番地の５,,07,541,9790402,,,2023-01-20,登記官による閉鎖,,,2015-10-05,1,,,,,,0
802,3380003004008,登記記録の閉鎖等,0,2023-01-20,2023-01-20,鈴木商事合資会社,,合資会社,福島県,郡山市,麓山２丁目１３番２１号,,07,203,9638876,,,2023-01-20,登記官による閉鎖,,,2017-04-07,1,,,,,,0
803,3380005006043,登記記録の閉鎖等,0,2023-01-20,2023-01-20,協同組合ウッド技研,,その他の設立登記法人,福島県,いわき市,平上片寄字矢田ノ目９９番地,,07,204,9708011,,,2023-01-20,登記官による閉鎖,,,2015-10-05,1,,,,,,0
804,3380005010202,登記記録の閉鎖等,0,2023-01-20,2023-01-20,特定非営利活動法人ひとやすみ,,その他の設立登記法人,福島県,会津若松市,門田町大字飯寺字村西８４０番地１,,07,202,9650846,,,2023-01-20,登記官による閉鎖,,,2015-10-05,1,,,,,,0
813,3430001065450,登記記録の閉鎖等,0,2023-01-20,2023-01-19,株式会社モカプローテ,,株式会社,北海道,札幌市西区,西野四条７丁目８番３号,,01,107,0630034,,,2023-01-19,清算の結了等,,,2015-10-05,1,,,,,モカプローテ,0
818,3440001002270,登記記録の閉鎖等,0,2023-01-20,2023-01-19,株式会社新谷乳販,,株式会社,北海道,函館市,万代町１６番１８号,,01,202,0400075,,,2023-01-19,登記官による閉鎖,,,2015-10-05,1,,,,,,0
819,3440002002138,登記記録の閉鎖等,0,2023-01-20,2023-01-19,有限会社十字街みつか,,有限会社,北海道,函館市,末広町６番１１号,,01,202,0400053,,,2023-01-19,登記官による閉鎖,,,2015-10-05,1,,,,,,0
820,3440002002468,登記記録の閉鎖等,0,2023-01-20,2023-01-19,有限会社大幸商事,,有限会社,北海道,函館市,中道２丁目３９番６号,,01,202,0410853,,,2023-01-19,登記官による閉鎖,,,2015-10-05,1,,,,,,0
823,3490001007050,登記記録の閉鎖等,0,2023-01-20,2023-01-17,株式会社グリーンハイツ清水,,株式会社,高知県,土佐清水市,浦尻４１６番地１２,,39,209,7870310,,,2023-01-17,清算の結了等,,,2015-10-05,1,,,,,グリーンハイツシミズ,0
829,4010001043282,登記記録の閉鎖等,0,2023-01-20,2023-01-12,小池商事株式会社,,株式会社,東京都,中央区,月島１丁目１６番５号,,13,102,1040052,,,2023-01-12,清算の結了等,,,2015-10-05,1,,,,,コイケショウジ,0
840,4010001199364,登記記録の閉鎖等,0,2023-01-20,2023-01-16,城北コーポレーション株式会社,,株式会社,埼玉県,上尾市,中妻１丁目２番４号,,11,219,3620072,,,2023-01-16,清算の結了等,,,2019-03-18,1,,,,,ジョウホクコーポレーション,0
863,4010501004098,登記記録の閉鎖等,0,2023-01-20,2023-01-20,株式会社薫斉工房,,株式会社,東京都,台東区,元浅草１丁目１３番４号,,13,106,1110041,,,2023-01-20,登記官による閉鎖,,,2015-10-05,1,,,,,,0
864,4010501006499,登記記録の閉鎖等,0,2023-01-20,2023-01-20,ジヤパンカタログセンター株式会社,,株式会社,東京都,台東区,東上野１丁目２７番８号,,13,106,1100015,,,2023-01-20,登記官による閉鎖,,,2015-10-05,1,,,,,,0
865,4010501012349,登記記録の閉鎖等,0,2023-01-20,2023-01-20,株式会社細田商店,,株式会社,東京都,台東区,入谷１丁目２１番１０号,,13,106,1100013,,,2023-01-20,登記官による閉鎖,,,2015-10-05,1,,,,,,0
867,4010501026019,登記記録の閉鎖等,0,2023-01-20,2023-01-20,エリアトラスト株式会社,,株式会社,東京都,台東区,東上野５丁目７番３－４０３号,,13,106,1100015,,,2023-01-20,登記官による閉鎖,,,2015-10-05,1,,,,,,0
868,4010501027470,登記記録の閉鎖等,0,2023-01-20,2023-01-20,株式会社Ｊｏｙ’ｓコレクション,,株式会社,東京都,台東区,下谷２丁目２３番８号,,13,106,1100004,,,2023-01-20,登記官による閉鎖,,,2015-10-05,1,,,,,,0
869,4010501032512,登記記録の閉鎖等,0,2023-01-20,2023-01-20,株式会社クリエイション・ルネ,,株式会社,東京都,台東区,東上野２丁目５番９号,,13,106,1100015,,,2023-01-20,登記官による閉鎖,,,2015-10-05,1,,,,,,0
870,4010502004717,登記記録の閉鎖等,0,2023-01-20,2023-01-20,有限会社サンエス商会,,有限会社,東京都,台東区,三筋２丁目６番８号,,13,106,1110055,,,2023-01-20,登記官による閉鎖,,,2015-10-05,1,,,,,,0
871,4010502005780,登記記録の閉鎖等,0,2023-01-20,2023-01-20,有限会社スメル,,有限会社,東京都,台東区,浅草橋１丁目２４番２号,,13,106,1110053,,,2023-01-20,登記官による閉鎖,,,2015-10-05,1,,,,,,0
872,4010502017009,登記記録の閉鎖等,0,2023-01-20,2023-01-20,有限会社ビジュアルクリエイト,,有限会社,東京都,台東区,北上野１丁目１番１３号吉川ビル２階,,13,106,1100014,,,2023-01-20,登記官による閉鎖,,,2015-10-05,1,,,,,,0
873,4010502022594,登記記録の閉鎖等,0,2023-01-20,2023-01-20,有限会社サイキトレーディング,,有限会社,東京都,台東区,小島２丁目１４番５号,,13,106,1110056,,,2023-01-20,登記官による閉鎖,,,2015-10-05,1,,,,,,0
874,4010502022710,登記記録の閉鎖等,0,2023-01-20,2023-01-20,有限会社ブライト,,有限会社,東京都,台東区,東上野３丁目５番９号,,13,106,1100015,,,2023-01-20,登記官による閉鎖,,,2015-10-05,1,,,,,,0
875,4010503003692,登記記録の閉鎖等,0,2023-01-20,2023-01-20,合資会社ラフレシア,,合資会社,東京都,台東区,上野７丁目３－９アルベルゴ上野６２０号,,13,106,1100005,,,2023-01-20,登記官による閉鎖,,,2015-10-05,1,,,,,,0
876,4010505001471,登記記録の閉鎖等,0,2023-01-20,2023-01-20,日本土木建築協同組合,,その他の設立登記法人,東京都,台東区,松が谷１丁目１１番７号,,13,106,1110036,,,2023-01-20,登記官による閉鎖,,,2015-10-05,1,,,,,,0
877,4010603008922,登記記録の閉鎖等,0,2023-01-20,2023-01-12,合同会社ネクストドア,,合同会社,東京都,江東区,豊洲３丁目６番８－１８０３号,,13,108,1350061,,,2023-01-12,清算の結了等,,,2021-05-14,1,,,,,ネクストドア,0
881,4010801028243,登記記録の閉鎖等,0,2023-01-20,2023-01-11,株式会社クレオパトラの魔法,,株式会社,東京都,大田区,羽田５丁目３０番７号,,13,111,1440043,,,2023-01-11,清算の結了等,,,2017-10-18,1,,,,,,0
900,4011101047272,登記記録の閉鎖等,0,2023-01-20,2023-01-18,株式会社ＣＳＰほっとサービス,,株式会社,東京都,新宿区,西新宿２丁目４番１号新宿ＮＳビル,,13,104,1600023,,,2023-01-18,合併による解散等,8011101060536,令和５年１月１日東京都渋谷区代々木四丁目３１番６号株式会社ＣＳＰクリエイティブサービス（8011101060536）に合併し解散,2015-10-05,1,,,,,シーエスピーホットサービス,0
920,4012302004351,登記記録の閉鎖等,0,2023-01-20,2023-01-20,有限会社朴本商店,,有限会社,東京都,町田市,原町田１丁目７番２７号,,13,209,1940013,,,2023-01-20,登記官による閉鎖,,,2015-10-05,1,,,,,,0
923,4012302005845,登記記録の閉鎖等,0,2023-01-20,2023-01-20,有限会社セットアップ,,有限会社,東京都,町田市,能ヶ谷７丁目１３番１１号,,13,209,1950053,,,2023-01-20,登記官による閉鎖,,,2015-10-05,1,,,,,,0
926,4013103000820,登記記録の閉鎖等,0,2023-01-20,2023-01-18,合同会社武田エンタープライズ,,合同会社,東京都,あきる野市,野辺４８８番地１４,,13,228,1970823,,,2023-01-18,清算の結了等,,,2018-05-09,1,,,,,,0
931,4020001059204,登記記録の閉鎖等,0,2023-01-20,2023-01-16,株式会社太華,,株式会社,神奈川県,横浜市泉区,和泉が丘３丁目２３番３０号,,14,116,2450022,,,2023-01-16,清算の結了等,,,2015-10-05,1,,,,,タイカ,0
932,4020001061325,登記記録の閉鎖等,0,2023-01-20,2023-01-16,株式会社かぶと出版,,株式会社,神奈川県,横浜市中区,不老町３丁目１５番地１,,14,104,2310032,,,2023-01-16,清算の結了等,,,2015-10-05,1,,,,,,0
936,4020001130848,登記記録の閉鎖等,0,2023-01-20,2023-01-17,株式会社ＦＡＬＩＸ,,株式会社,東京都,品川区,南大井３丁目２６番５号,,13,109,1400013,,,2023-01-17,合併による解散等,6180001095875,令和５年１月１１日愛知県知立市宝町塩掻５８番地株式会社ロイヤル（6180001095875）に合併し解散,2019-04-22,1,,,,,ファリックス,0
940,4021002040409,登記記録の閉鎖等,0,2023-01-20,2023-01-17,有限会社荻原通信,,有限会社,神奈川県,大和市,福田１６３２番地の６,,14,213,2420024,,,2023-01-17,清算の結了等,,,2015-10-05,1,,,,,オギワラツウシン,0
954,4040002020484,登記記録の閉鎖等,0,2023-01-20,2023-01-16,有限会社伊佐司ビル,,有限会社,千葉県,船橋市,前原西３丁目５番１０号,,12,204,2740825,,,2023-01-16,清算の結了等,,,2015-10-05,1,,,,,イサジビル,0
957,4040003009386,登記記録の閉鎖等,0,2023-01-20,2023-01-16,合同会社新芽,,合同会社,千葉県,松戸市,本町１７番１１号芹澤ビル６階,,12,207,2710091,,,2023-01-16,清算の結了等,,,2016-11-30,1,,,,,シンメ,0
978,4100001024612,登記記録の閉鎖等,0,2023-01-20,2023-01-16,株式会社カシワテクノス,,株式会社,長野県,上水内郡信濃町,大字穂波２９９－４,,20,583,3891314,,,2023-01-16,清算の結了等,,,2015-10-05,1,,,,,カシワテクノス,0
981,4100002023241,登記記録の閉鎖等,0,2023-01-20,2023-01-16,有限会社有明,,有限会社,長野県,安曇野市,穂高有明５８９７番地,,20,220,3998301,,,2023-01-16,合併による解散等,7100001032447,令和５年１月１５日長野県安曇野市穂高有明５９１８番２７株式会社大天イワナ本舗（7100001032447）に合併し解散,2015-10-05,1,,,,,アリアケ,0
985,4120001044484,登記記録の閉鎖等,0,2023-01-20,2023-01-17,株式会社諏訪インダストリーズ,,株式会社,大阪府,大阪市西区,新町１丁目８番１号,,27,106,5500013,,,2023-01-17,清算の結了等,,,2015-10-05,1,,,,,スワインダストリーズ,0
994,4120102027660,登記記録の閉鎖等,0,2023-01-20,2023-01-18,有限会社筒井運送,,有限会社,大阪府,泉南市,樽井７丁目１８番１２号,,27,228,5900521,,,2023-01-18,清算の結了等,,,2015-10-05,1,,,,,ツツイウンソウ,0
1009,4140001094874,登記記録の閉鎖等,0,2023-01-20,2023-01-17,株式会社モーニング,,株式会社,兵庫県,芦屋市,朝日ケ丘町３１番９号,,28,206,6590012,,,2023-01-17,清算の結了等,,,2015-10-05,1,,,,,モーニング,0
1015,4150001012356,登記記録の閉鎖等,0,2023-01-20,2023-01-16,石田化学工業株式会社,,株式会社,奈良県,北葛城郡河合町,大字川合８８４番地の１,,29,427,6360051,,,2023-01-16,清算の結了等,,,2015-10-05,1,,,,,イシダカガクコウギョウ,0
1025,4180302019683,登記記録の閉鎖等,0,2023-01-20,2023-01-18,有限会社松原組,,有限会社,愛知県,知立市,西町西１０８番地８,,23,225,4720023,,,2023-01-18,清算の結了等,,,2015-10-05,1,,,,,マツバラグミ,0
1028,4180302028040,登記記録の閉鎖等,0,2023-01-20,2023-01-16,有限会社平田屋商店,,有限会社,愛知県,北設楽郡東栄町,大字下田字和手貝津２番地１,,23,562,4490206,,,2023-01-16,清算の結了等,,,2015-10-05,1,,,,,ヒラタヤショウテン,0
1035,4240001028120,登記記録の閉鎖等,0,2023-01-20,2023-01-18,株式会社ホッタ美工,,株式会社,広島県,廿日市市,佐方４丁目１０番１１号,,34,213,7380001,,,2023-01-18,清算の結了等,,,2015-10-05,1,,,,,ホッタビコウ,0
1052,4290001057247,登記記録の閉鎖等,0,2023-01-20,2023-01-17,株式会社九測,,株式会社,福岡県,福岡市中央区,天神５丁目９番２－４０９号,,40,133,8100001,,,2023-01-17,清算の結了等,,,2015-10-05,1,,,,,キュウソク,0
1059,4290801003037,登記記録の閉鎖等,0,2023-01-20,2023-01-19,八峯興産株式会社,,株式会社,福岡県,北九州市小倉北区,片野３丁目１番５号,,40,106,8020064,,,2023-01-19,清算の結了等,,,2015-10-05,1,,,,,,0
1084,4380001001996,登記記録の閉鎖等,0,2023-01-20,2023-01-20,ユニバース株式会社,,株式会社,福島県,福島市,豊田町１番４号,,07,201,9608104,,,2023-01-20,登記官による閉鎖,,,2015-10-05,1,,,,,,0
1085,4380002011219,登記記録の閉鎖等,0,2023-01-20,2023-01-20,有限会社中村商店,,有限会社,福島県,郡山市,安積町笹川字高瀬７９番地,,07,203,9630102,,,2023-01-20,登記官による閉鎖,,,2015-10-05,1,,,,,,0
1093,4430003010668,登記記録の閉鎖等,0,2023-01-20,2023-01-16,合同会社ワッカ,,合同会社,北海道,札幌市北区,新琴似九条２丁目３－２０－５０２,,01,102,0010909,,,2023-01-16,清算の結了等,,,2019-07-25,1,,,,,ワッカ,0
1094,4440002003622,登記記録の閉鎖等,0,2023-01-20,2023-01-19,有限会社花のや,,有限会社,北海道,函館市,湯川町１丁目１５番２３号,,01,202,0420932,,,2023-01-19,登記官による閉鎖,,,2015-10-05,1,,,,,,0
1110,5010001209007,登記記録の閉鎖等,0,2023-01-20,2023-01-12,株式会社ＨＣＤ,,株式会社,東京都,中央区,日本橋小網町１１－５リードシー日本橋小網町ビル８Ｆ,,13,102,1030016,,,2023-01-12,清算の結了等,,,2020-04-17,1,,,,,エイチシーディー,0
1130,5010402034210,登記記録の閉鎖等,0,2023-01-20,2023-01-04,株式会社エイマック,,株式会社,東京都,港区,新橋２丁目１９番１０号新橋マリンビル３Ｆ,,13,103,1050004,,,2023-01-04,清算の結了等,,,2015-10-05,1,,,,,,0
1131,5010501002316,登記記録の閉鎖等,0,2023-01-20,2023-01-20,扇通産株式会社,,株式会社,東京都,台東区,台東２丁目７番１号,,13,106,1100016,,,2023-01-20,登記官による閉鎖,,,2015-10-05,1,,,,,,0
1132,5010501006077,登記記録の閉鎖等,0,2023-01-20,2023-01-20,株式会社ジュエリー小島,,株式会社,東京都,台東区,上野１丁目１７番１０号,,13,106,1100005,,,2023-01-20,登記官による閉鎖,,,2015-10-05,1,,,,,,0
1133,5010501010698,登記記録の閉鎖等,0,2023-01-20,2023-01-20,株式会社芳賀商店,,株式会社,東京都,台東区,日本堤２丁目４番３号,,13,106,1110021,,,2023-01-20,登記官による閉鎖,,,2015-10-05,1,,,,,,0
1134,5010501017677,登記記録の閉鎖等,0,2023-01-20,2023-01-20,株式会社システムアプローチ,,株式会社,東京都,台東区,台東１丁目２２番４号,,13,106,1100016,,,2023-01-20,登記官による閉鎖,,,2015-10-05,1,,,,,,0
1135,5010501021431,登記記録の閉鎖等,0,2023-01-20,2023-01-20,ムデンアンテナ株式会社,,株式会社,東京都,台東区,台東２丁目５番４号,,13,106,1100016,,,2023-01-20,登記官による閉鎖,,,2015-10-05,1,,,,,,0
1136,5010501024896,登記記録の閉鎖等,0,2023-01-20,2023-01-20,株式会社ＭｏｃｏＲｏｓｅ,,株式会社,東京都,台東区,三ノ輪１丁目２２番２号,,13,106,1100011,,,2023-01-20,登記官による閉鎖,,,2015-10-05,1,,,,,,0
1138,5010502001515,登記記録の閉鎖等,0,2023-01-20,2023-01-20,有限会社牛家,,有限会社,東京都,台東区,西浅草３丁目２６番６号,,13,106,1110035,,,2023-01-20,登記官による閉鎖,,,2015-10-05,1,,,,,,0
1139,5010502002538,登記記録の閉鎖等,0,2023-01-20,2023-01-20,有限会社金井第一プレス,,有限会社,東京都,台東区,駒形１丁目９番７号,,13,106,1110043,,,2023-01-20,登記官による閉鎖,,,2015-10-05,1,,,,,,0
1140,5010502004708,登記記録の閉鎖等,0,2023-01-20,2023-01-20,有限会社サンクリスタル,,有限会社,東京都,台東区,下谷３丁目１８番４－２０１号,,13,106,1100004,,,2023-01-20,登記官による閉鎖,,,2015-10-05,1,,,,,,0
1141,5010502010053,登記記録の閉鎖等,0,2023-01-20,2023-01-20,有限会社誉建築設計事務所,,有限会社,東京都,台東区,根岸３丁目６番１号,,13,106,1100003,,,2023-01-20,登記官による閉鎖,,,2015-10-05,1,,,,,,0
1142,5010502010210,登記記録の閉鎖等,0,2023-01-20,2023-01-20,有限会社ホメロス,,有限会社,東京都,台東区,浅草１丁目３３番８号,,13,106,1110032,,,2023-01-20,登記官による閉鎖,,,2015-10-05,1,,,,,,0
1147,5010801000713,登記記録の閉鎖等,0,2023-01-20,2023-01-18,株式会社アレバアルファ,,株式会社,長野県,岡谷市,４７６９番地１６５,,20,204,3940091,,,2023-01-18,清算の結了等,,,2015-10-05,1,,,,,アレバアルファ,0
1181,5011501016248,登記記録の閉鎖等,0,2023-01-20,2023-01-17,株式会社スクロールコレクション,,株式会社,東京都,新宿区,新宿３丁目３５番４号ユーコービル１階,,13,104,1600022,,,2023-01-17,清算の結了等,,,2015-10-05,1,,,,,スクロールコレクション,0
1189,5012301007503,登記記録の閉鎖等,0,2023-01-20,2023-01-20,株式会社ＲＥ　ＯＮＥ,,株式会社,東京都,町田市,旭町３丁目１０番２号,,13,209,1940023,,,2023-01-20,登記官による閉鎖,,,2015-10-05,1,,,,,,0
1191,5012302003773,登記記録の閉鎖等,0,2023-01-20,2023-01-20,有限会社パパス三栄,,有限会社,東京都,町田市,原町田４丁目１番３号第３丸町ビル２Ｆ,,13,209,1940013,,,2023-01-20,登記官による閉鎖,,,2015-10-05,1,,,,,,0
1192,5012302005670,登記記録の閉鎖等,0,2023-01-20,2023-01-20,有限会社ホットコム,,有限会社,東京都,町田市,小川３丁目９番地３,,13,209,1940003,,,2023-01-20,登記官による閉鎖,,,2015-10-05,1,,,,,,0
1202,5020001104165,登記記録の閉鎖等,0,2023-01-20,2023-01-16,上海Ｎ・Ｈ・Ｍ設計技術株式会社,,株式会社,神奈川県,横浜市鶴見区,豊岡町２９－９豊岡中央ビル４０２号,,14,101,2300062,,,2023-01-16,清算の結了等,,,2015-10-05,1,,,,,,0
1218,5021005009994,登記記録の閉鎖等,0,2023-01-20,2023-01-12,一般社団法人ホワイトベース,,その他の設立登記法人,神奈川県,茅ヶ崎市,浜竹２丁目２番３７号,,14,207,2530021,,,2023-01-12,清算の結了等,,,2015-10-05,1,,,,,ホワイトベース,0
1227,5040001016697,登記記録の閉鎖等,0,2023-01-20,2023-01-12,石川造園土木株式会社,,株式会社,千葉県,船橋市,栄町１丁目２９番１８号,,12,204,2730018,,,2023-01-12,清算の結了等,,,2015-10-05,1,,,,,イシカワゾウエンドボク,0
1233,5040001098364,登記記録の閉鎖等,0,2023-01-20,2023-01-13,株式会社オルク・コンサルティング,,株式会社,千葉県,八千代市,大学町２丁目８番１８号,,12,221,2760003,,,2023-01-13,清算の結了等,,,2017-01-12,1,,,,,オルクコンサルティング,0
1254,5100002013704,登記記録の閉鎖等,0,2023-01-20,2023-01-18,有限会社エム・イー・システム,,有限会社,長野県,上田市,五加１２１６番地２,,20,203,3861324,,,2023-01-18,清算の結了等,,,2015-10-05,1,,,,,エムイーシステム,0
1259,5120001039921,登記記録の閉鎖等,0,2023-01-20,2023-01-18,株式会社前田船具店,,株式会社,大阪府,大阪市浪速区,立葉１丁目１番６号,,27,111,5560020,,,2023-01-18,清算の結了等,,,2015-10-05,1,,,,,マエダセングテン,0
1272,5120901010147,登記記録の閉鎖等,0,2023-01-20,2023-01-18,ヤマジ機械工業株式会社,,株式会社,大阪府,摂津市,新在家１丁目２５番２６号,,27,224,5660055,,,2023-01-18,清算の結了等,,,2015-10-05,1,,,,,ヤマジキカイコウギョウ,0
1284,5140001075790,登記記録の閉鎖等,0,2023-01-20,2023-01-17,萩原一株式会社,,株式会社,兵庫県,西脇市,西田町７８番地の２０,,28,213,6770003,,,2023-01-17,清算の結了等,,,2015-10-05,1,,,,,,0
1319,5220005004507,登記記録の閉鎖等,0,2023-01-20,2023-01-18,石川内装材事業協同組合,,その他の設立登記法人,石川県,白山市,横江町１５８０番地１,,17,210,9240011,,,2023-01-18,清算の結了等,,,2015-10-05,1,,,,,イシカワナイソウザイジギョウ,0
1335,5290001072402,登記記録の閉鎖等,0,2023-01-20,2023-01-16,株式会社Ｉ．Ｔ．ラボ,,株式会社,福岡県,福岡市中央区,草香江２丁目３番３４号,,40,133,8100045,,,2023-01-16,合併による解散等,7290001006283,令和５年１月１５日福岡市中央区草香江二丁目３番３２号井上通商株式会社（7290001006283）に合併し解散,2016-01-04,1,,,,,,0
1345,5300001005327,登記記録の閉鎖等,0,2023-01-20,2023-01-12,株式会社ワタヤ,,株式会社,佐賀県,嬉野市,嬉野町大字下宿乙７３８番地,,41,209,8430301,,,2023-01-12,清算の結了等,,,2015-10-05,1,,,,,ワタヤ,0
1352,5340005003777,登記記録の閉鎖等,0,2023-01-20,2023-01-19,公益社団法人串木野青年会議所,,その他の設立登記法人,鹿児島県,いちき串木野市,栄町１６番地,,46,219,8960013,,,2023-01-19,清算の結了等,,,2015-10-05,1,,,,,クシキノセイネンカイギショ,0
1355,5350005005104,登記記録の閉鎖等,0,2023-01-20,2023-01-10,特定非営利活動法人日南ウエルネスネットワーク,,その他の設立登記法人,宮崎県,日南市,大字大窪石ヶ野１３７８番地,,45,204,8893156,,,2023-01-10,清算の結了等,,,2015-10-05,1,,,,,ニチナンウェルネスネットワーク,0
1362,5380001005575,登記記録の閉鎖等,0,2023-01-20,2023-01-20,株式会社住まい工房,,株式会社,福島県,郡山市,片平町字鳴神１８番地の１,,07,203,9630211,,,2023-01-20,登記官による閉鎖,,,2015-10-05,1,,,,,,0
1363,5380001007720,登記記録の閉鎖等,0,2023-01-20,2023-01-20,株式会社ソザイエ・コーポレーション,,株式会社,福島県,郡山市,安積町日出山３丁目２４６番地の１,,07,203,9630101,,,2023-01-20,登記官による閉鎖,,,2015-10-05,1,,,,,,0
1366,5380002006283,登記記録の閉鎖等,0,2023-01-20,2023-01-20,有限会社高子電機,,有限会社,福島県,伊達市,保原町上保原字細田入１番地の３,,07,213,9600684,,,2023-01-20,登記官による閉鎖,,,2015-10-05,1,,,,,,0
1367,5380002008552,登記記録の閉鎖等,0,2023-01-20,2023-01-20,開成ハーネス有限会社,,有限会社,福島県,郡山市,字菜根屋敷２１番地３,,07,203,9638863,,,2023-01-20,登記官による閉鎖,,,2015-10-05,1,,,,,,0
1368,5380002021084,登記記録の閉鎖等,0,2023-01-20,2023-01-20,有限会社有建工業,,有限会社,福島県,石川郡石川町,大字形見字尾巻１２４番地,,07,501,9637807,,,2023-01-20,登記官による閉鎖,,,2015-10-05,1,,,,,,0
1369,5380005011891,登記記録の閉鎖等,0,2023-01-20,2023-01-20,下遠田農事実行組合,,その他の設立登記法人,福島県,喜多方市,塩川町遠田２７０７番地,,07,208,9693534,,,2023-01-20,登記官による閉鎖,,,2017-08-08,1,,,,,,0
1380,5430002058889,登記記録の閉鎖等,0,2023-01-20,2023-01-11,昭和自動車工業有限会社,,有限会社,北海道,白老郡白老町,字北吉原１６７番地の１,,01,578,0590923,,,2023-01-11,清算の結了等,,,2015-10-05,1,,,,,,0
1385,5440001001015,登記記録の閉鎖等,0,2023-01-20,2023-01-19,株式会社伸和産商,,株式会社,北海道,函館市,本通２丁目４番１５号,,01,202,0410851,,,2023-01-19,登記官による閉鎖,,,2015-10-05,1,,,,,,0
1386,5440002001336,登記記録の閉鎖等,0,2023-01-20,2023-01-19,有限会社京谷建機,,有限会社,北海道,函館市,美原５丁目３５番８号,,01,202,0410806,,,2023-01-19,登記官による閉鎖,,,2015-10-05,1,,,,,,0
1387,5440002004487,登記記録の閉鎖等,0,2023-01-20,2023-01-19,丸信本間商店有限会社,,有限会社,北海道,函館市,若松町９番９号,,01,202,0400063,,,2023-01-19,登記官による閉鎖,,,2015-10-05,1,,,,,,0
1388,5440002004909,登記記録の閉鎖等,0,2023-01-20,2023-01-19,有限会社森見電制工事,,有限会社,北海道,函館市,美原２丁目１２番１２号,,01,202,0410806,,,2023-01-19,登記官による閉鎖,,,2015-10-05,1,,,,,,0
1396,5500003000231,登記記録の閉鎖等,0,2023-01-20,2023-01-19,合資会社ライフブレイス,,合資会社,愛媛県,松山市,祝谷３丁目６番３０号,,38,201,7900833,,,2023-01-19,清算の結了等,,,2015-10-05,1,,,,,ライフブレイス,0
1416,6010003031465,登記記録の閉鎖等,0,2023-01-20,2023-01-13,合同会社ＡＬＥＲＯ４７,,合同会社,東京都,千代田区,神田錦町１丁目２１番１号,,13,101,1010054,,,2023-01-13,清算の結了等,,,2020-01-20,1,,,,,アレーロフォーティーセブン,0
1434,6010501010854,登記記録の閉鎖等,0,2023-01-20,2023-01-20,株式会社野口工務店,,株式会社,東京都,台東区,入谷１丁目１番５号,,13,106,1100013,,,2023-01-20,登記官による閉鎖,,,2015-10-05,1,,,,,,0
1435,6010501013188,登記記録の閉鎖等,0,2023-01-20,2023-01-20,株式会社マーシユ企画,,株式会社,東京都,台東区,三筋１丁目１０番４号,,13,106,1110055,,,2023-01-20,登記官による閉鎖,,,2015-10-05,1,,,,,,0
1436,6010501017965,登記記録の閉鎖等,0,2023-01-20,2023-01-20,エレメンツ株式会社,,株式会社,東京都,台東区,根岸２丁目１８番１１号ルー卜根岸第２ビル５階,,13,106,1100003,,,2023-01-20,登記官による閉鎖,,,2015-10-05,1,,,,,,0
1437,6010501021637,登記記録の閉鎖等,0,2023-01-20,2023-01-20,株式会社ディモデルジャパン,,株式会社,東京都,台東区,上野桜木２丁目１０番３号,,13,106,1100002,,,2023-01-20,登記官による閉鎖,,,2015-10-05,1,,,,,,0
1438,6010501023526,登記記録の閉鎖等,0,2023-01-20,2023-01-20,株式会社クライアント・アセット・マネージメント,,株式会社,東京都,台東区,台東１丁目２９番３号,,13,106,1100016,,,2023-01-20,登記官による閉鎖,,,2015-10-05,1,,,,,,0
1439,6010501025472,登記記録の閉鎖等,0,2023-01-20,2023-01-20,株式会社エスイーシージャパン,,株式会社,東京都,台東区,元浅草２丁目１１番６号,,13,106,1110041,,,2023-01-20,登記官による閉鎖,,,2015-10-05,1,,,,,,0
1440,6010501030299,登記記録の閉鎖等,0,2023-01-20,2023-01-20,株式会社エムツーアップ,,株式会社,東京都,台東区,松が谷２丁目２０番４号,,13,106,1110036,,,2023-01-20,登記官による閉鎖,,,2015-10-05,1,,,,,,0
1441,6010501032287,登記記録の閉鎖等,0,2023-01-20,2023-01-20,株式会社エア・リサイクル,,株式会社,東京都,台東区,上野５丁目１３番１１号,,13,106,1100005,,,2023-01-20,登記官による閉鎖,,,2015-10-05,1,,,,,,0
1443,6010502001910,登記記録の閉鎖等,0,2023-01-20,2023-01-20,有限会社榎本直正商店,,有限会社,東京都,台東区,今戸２丁目１６番１０号,,13,106,1110024,,,2023-01-20,登記官による閉鎖,,,2015-10-05,1,,,,,,0
1444,6010502019688,登記記録の閉鎖等,0,2023-01-20,2023-01-20,台東石井有限会社,,有限会社,東京都,台東区,鳥越２丁目２番２号,,13,106,1110054,,,2023-01-20,登記官による閉鎖,,,2015-10-05,1,,,,,,0
1445,6010505000991,登記記録の閉鎖等,0,2023-01-20,2023-01-20,東京サンダル卸商業組合,,その他の設立登記法人,東京都,台東区,花川戸２丁目８番１２号,,13,106,1110033,,,2023-01-20,登記官による閉鎖,,,2015-10-05,1,,,,,,0
1448,6010602008145,登記記録の閉鎖等,0,2023-01-20,2023-01-12,有限会社豊田スダレ店,,有限会社,東京都,江東区,新大橋１丁目３番９号,,13,108,1350007,,,2023-01-12,清算の結了等,,,2015-10-05,1,,,,,トヨタスダレテン,0
1458,6011001113387,登記記録の閉鎖等,0,2023-01-20,2023-01-13,Ｃｒｏｓｓ　ｍｅｄｉａ　ｃｒｅａｔｅ株式会社,,株式会社,兵庫県,神戸市中央区,下山手通９丁目５番５号,,28,110,6500011,,,2023-01-13,清算の結了等,,,2016-11-09,1,,,,,クロスメディアクリエイト,0
1462,6011101089924,登記記録の閉鎖等,0,2023-01-20,2023-01-16,株式会社ＫＢＣ,,株式会社,東京都,新宿区,高田馬場３丁目１番５号,,13,104,1690075,,,2023-01-16,清算の結了等,,,2019-12-23,1,,,,,ケービーシー,0
1471,6012301005497,登記記録の閉鎖等,0,2023-01-20,2023-01-20,八弘商事株式会社,,株式会社,東京都,町田市,成瀬２丁目２４番地２,,13,209,1940044,,,2023-01-20,登記官による閉鎖,,,2017-08-30,1,,,,,,0
1472,6012301008772,登記記録の閉鎖等,0,2023-01-20,2023-01-20,日本環境サービス株式会社,,株式会社,東京都,町田市,野津田町１３３７番地６,,13,209,1950063,,,2023-01-20,登記官による閉鎖,,,2015-10-05,1,,,,,,0
1473,6012302000753,登記記録の閉鎖等,0,2023-01-20,2023-01-20,有限会社エスアイエヌ電気設計事務所,,有限会社,東京都,町田市,中町１丁目３番１－５０４号,,13,209,1940021,,,2023-01-20,登記官による閉鎖,,,2015-10-05,1,,,,,,0
1474,6012302000761,登記記録の閉鎖等,0,2023-01-20,2023-01-20,有限会社エスケー製作所,,有限会社,東京都,町田市,鶴川５丁目３番地８の３０４,,13,209,1950061,,,2023-01-20,登記官による閉鎖,,,2015-10-05,1,,,,,,0
1475,6012302001347,登記記録の閉鎖等,0,2023-01-20,2023-01-20,有限会社加藤工業,,有限会社,東京都,町田市,旭町２丁目１１番２号,,13,209,1940023,,,2023-01-20,登記官による閉鎖,,,2015-10-05,1,,,,,,0
1476,6012302002171,登記記録の閉鎖等,0,2023-01-20,2023-01-20,有限会社境川薬品,,有限会社,東京都,町田市,下小山田町３３６８番地６２,,13,209,1940202,,,2023-01-20,登記官による閉鎖,,,2015-10-05,1,,,,,,0
1496,6020002103850,登記記録の閉鎖等,0,2023-01-20,2023-01-17,有限会社コラボ・Ｋ・オフィス,,有限会社,神奈川県,川崎市麻生区,上麻生７丁目８番２号,,14,137,2150021,,,2023-01-17,清算の結了等,,,2015-10-05,1,,,,,コラボケーオフィス,0
1501,6021002036966,登記記録の閉鎖等,0,2023-01-20,2023-01-16,有限会社エスワン企画,,有限会社,神奈川県,横浜市都筑区,川和台３５番６号,,14,118,2240056,,,2023-01-16,清算の結了等,,,2015-10-05,1,,,,,エスワンキカク,0
1522,6080101013821,登記記録の閉鎖等,0,2023-01-20,2023-01-18,株式会社山喜旅館,,株式会社,静岡県,伊東市,東松原町４番７号,,22,208,4140022,,,2023-01-18,清算の結了等,,,2015-10-05,1,,,,,ヤマキリョカン,0
1545,6120901009329,登記記録の閉鎖等,0,2023-01-20,2023-01-18,源八自動車株式会社,,株式会社,大阪府,摂津市,南別府町１５番２０号,,27,224,5660045,,,2023-01-18,清算の結了等,,,2015-10-05,1,,,,,ゲンパチジドウシャ,0
1548,6120905004490,登記記録の閉鎖等,0,2023-01-20,2023-01-17,ニューメゾン豊中管理組合法人,,その他の設立登記法人,大阪府,豊中市,玉井町２丁目１番１６－４０２号,,27,203,5600026,,,2023-01-17,清算の結了等,,,2015-10-05,1,,,,,ニューメゾントヨナカ,0
1569,6140002037525,登記記録の閉鎖等,0,2023-01-20,2023-01-18,有限会社公洋テック,,有限会社,兵庫県,加古郡播磨町,野添１６９９番地の１,,28,382,6750151,,,2023-01-18,清算の結了等,,,2015-10-05,1,,,,,コウヨウテック,0
1575,6150001022287,登記記録の閉鎖等,0,2023-01-20,2023-01-16,株式会社Ｍ’Ｓ　ＥＥＬ,,株式会社,奈良県,大和高田市,高砂町２番１号,,29,202,6350081,,,2023-01-16,清算の結了等,,,2018-05-18,1,,,,,エムズイール,0
1576,6150002003311,登記記録の閉鎖等,0,2023-01-20,2023-01-12,有限会社丸七運送,,有限会社,奈良県,奈良市,鳥見町１丁目１番４－４０６号,,29,201,6310065,,,2023-01-12,清算の結了等,,,2015-10-05,1,,,,,,0
1584,6180301017406,登記記録の閉鎖等,0,2023-01-20,2023-01-16,株式会社アムール,,株式会社,愛知県,安城市,花ノ木町１４番３号,,23,212,4460039,,,2023-01-16,清算の結了等,,,2015-10-05,1,,,,,アムール,0
1586,6180302015185,登記記録の閉鎖等,0,2023-01-20,2023-01-16,有限会社えのせん,,有限会社,愛知県,蒲郡市,御幸町３２番１１号,,23,214,4430042,,,2023-01-16,清算の結了等,,,2015-10-05,1,,,,,エノセン,0
1590,6190001028710,登記記録の閉鎖等,0,2023-01-20,2023-01-18,ＡＮＴＥＬＯＰＥ株式会社,,株式会社,三重県,四日市市,波木町１２８番地,,24,202,5100961,,,2023-01-18,清算の結了等,,,2021-09-29,1,,,,,アンテロープ,0
1604,6250001018003,登記記録の閉鎖等,0,2023-01-20,2023-01-16,株式会社トモヒロ,,株式会社,山口県,防府市,大字富海３６８１番地の１,,35,206,7471111,,,2023-01-16,清算の結了等,,,2019-11-19,1,,,,,トモヒロ,0
1613,6290001039895,登記記録の閉鎖等,0,2023-01-20,2023-01-16,株式会社アーウィン・フード・アドベンチャー,,株式会社,福岡県,福岡市中央区,西中洲３号２０,,40,133,8100002,,,2023-01-16,清算の結了等,,,2015-10-05,1,,,,,,0
1614,6290001041075,登記記録の閉鎖等,0,2023-01-20,2023-01-16,株式会社ハマコー,,株式会社,福岡県,大野城市,平野台４丁目１１番３号,,40,219,8160972,,,2023-01-16,清算の結了等,,,2015-10-05,1,,,,,ハマコー,0
1625,6290005006000,登記記録の閉鎖等,0,2023-01-20,2023-01-17,特定非営利活動法人ＺＩＰＡＮＧこが,,その他の設立登記法人,福岡県,古賀市,今の庄１丁目１番３４号,,40,223,8113117,,,2023-01-17,清算の結了等,,,2015-10-05,1,,,,,ジパングコガ,0
1631,6330002000595,登記記録の閉鎖等,0,2023-01-20,2023-01-19,有限会社有馬屋,,有限会社,熊本県,熊本市中央区,大江１丁目２０番２３号,,43,101,8620971,,,2023-01-19,清算の結了等,,,2015-10-05,1,,,,,アリマヤ,0
1637,6340002013010,登記記録の閉鎖等,0,2023-01-20,2023-01-18,有限会社三水社,,有限会社,鹿児島県,鹿児島市,山田町３４７６番地,,46,201,8910104,,,2023-01-18,清算の結了等,,,2015-10-05,1,,,,,サンスイシャ,0
1640,6370001016531,登記記録の閉鎖等,0,2023-01-20,2023-01-17,株式会社仙台トラスト交通,,株式会社,宮城県,仙台市若林区,卸町東５丁目２番７号,,04,103,9840002,,,2023-01-17,清算の結了等,,,2015-10-05,1,,,,,センダイトラストコウツウ,0
1647,6380001028212,登記記録の閉鎖等,0,2023-01-20,2023-01-20,松本建設株式会社,,株式会社,福島県,南相馬市,小高区片草字片草迫２１７番地の４,00110518,07,212,9792101,,,2023-01-20,登記官による閉鎖,,,2017-06-15,1,,,,,,0
1648,6380002017866,登記記録の閉鎖等,0,2023-01-20,2023-01-20,有限会社サンショーハウジング,,有限会社,福島県,西白河郡中島村,大字滑津字背戸原西１６番地１,,07,465,9610102,,,2023-01-20,登記官による閉鎖,,,2015-10-05,1,,,,,,0
1649,6380002021728,登記記録の閉鎖等,0,2023-01-20,2023-01-20,有限会社鏡通信工業,,有限会社,福島県,岩瀬郡鏡石町,境１０３番地２,,07,342,9690401,,,2023-01-20,登記官による閉鎖,,,2015-10-05,1,,,,,,0
1650,6380002035901,登記記録の閉鎖等,0,2023-01-20,2023-01-20,有限会社中村商店,,有限会社,福島県,郡山市,大槻町字下町３９番地,,07,203,9630201,,,2023-01-20,登記官による閉鎖,,,2015-10-05,1,,,,,,0
1651,6380005003839,登記記録の閉鎖等,0,2023-01-20,2023-01-20,特定非営利活動法人日本ドライフーズ普及協会,,その他の設立登記法人,福島県,田村市,滝根町菅谷字畑中２５９番地,,07,211,9633601,,,2023-01-20,登記官による閉鎖,,,2015-10-05,1,,,,,,0
1652,6380005004837,登記記録の閉鎖等,0,2023-01-20,2023-01-20,大＿牧野利用農業協同組合,00091644,その他の設立登記法人,福島県,東白川郡矢祭町,大字大＿字町２５番地,00091645,07,482,9635100,,,2023-01-20,登記官による閉鎖,,,2015-10-05,1,,,,,,0
1657,6420001009199,登記記録の閉鎖等,0,2023-01-20,2023-01-17,株式会社高松酒造店,,株式会社,青森県,弘前市,大字和徳町９５番地１号,,02,202,0368021,,,2023-01-17,清算の結了等,,,2015-10-05,1,,,,,タカマツシュゾウテン,0
1662,6440001006021,登記記録の閉鎖等,0,2023-01-20,2023-01-19,株式会社入金佐々木水産,,株式会社,北海道,二海郡八雲町,落部６００番地,,01,346,0492562,,,2023-01-19,登記官による閉鎖,,,2015-10-05,1,,,,,,0
1684,7010102005732,登記記録の閉鎖等,0,2023-01-20,2023-01-16,有限会社ひがの土地,,有限会社,東京都,八王子市,谷野町２４７番地の４,,13,201,1920016,,,2023-01-16,清算の結了等,,,2015-10-05,1,,,,,ヒガノトチ,0
1685,7010401043318,登記記録の閉鎖等,0,2023-01-20,2023-01-16,株式会社マナマナ,,株式会社,東京都,港区,南青山５丁目７番１７号９Ｆ,,13,103,1070062,,,2023-01-16,合併による解散等,9010001227954,令和５年１月１日東京都千代田区大手町一丁目９番２号株式会社マナマナ（9010001227954）に合併し解散,2015-10-05,1,,,,,マナマナ,0
1695,7010501003691,登記記録の閉鎖等,0,2023-01-20,2023-01-20,株式会社ケンツ,,株式会社,東京都,台東区,今戸１丁目５番５号,,13,106,1110024,,,2023-01-20,登記官による閉鎖,,,2015-10-05,1,,,,,,0
1696,7010501008443,登記記録の閉鎖等,0,2023-01-20,2023-01-20,株式会社テクノリード,,株式会社,東京都,台東区,根岸２丁目８番８号,,13,106,1100003,,,2023-01-20,登記官による閉鎖,,,2015-10-05,1,,,,,,0
1697,7010501012767,登記記録の閉鎖等,0,2023-01-20,2023-01-20,株式会社プルミエバッグ,,株式会社,東京都,台東区,柳橋２丁目１８番１３号,,13,106,1110052,,,2023-01-20,登記官による閉鎖,,,2015-10-05,1,,,,,,0
1699,7010501015976,登記記録の閉鎖等,0,2023-01-20,2023-01-20,株式会社クリエイトタケナカ,,株式会社,東京都,台東区,浅草橋１丁目３６番１１号,,13,106,1110053,,,2023-01-20,登記官による閉鎖,,,2015-10-05,1,,,,,,0
1700,7010501017980,登記記録の閉鎖等,0,2023-01-20,2023-01-20,株式会社レ・ミックスジャパン,,株式会社,東京都,台東区,橋場１丁目３３番９号,,13,106,1110023,,,2023-01-20,登記官による閉鎖,,,2015-10-05,1,,,,,,0
1701,7010501024639,登記記録の閉鎖等,0,2023-01-20,2023-01-20,株式会社セフティー,,株式会社,東京都,台東区,花川戸２丁目３番１１号インカビル４Ｆ,,13,106,1110033,,,2023-01-20,登記官による閉鎖,,,2015-10-05,1,,,,,,0
1702,7010501028301,登記記録の閉鎖等,0,2023-01-20,2023-01-20,株式会社ハッスル,,株式会社,東京都,台東区,上野７丁目９番１５号,,13,106,1100005,,,2023-01-20,登記官による閉鎖,,,2015-10-05,1,,,,,,0
1703,7010501030975,登記記録の閉鎖等,0,2023-01-20,2023-01-20,株式会社ＣＬＭ,,株式会社,東京都,台東区,元浅草１丁目６番１２号ツバセスＰＡＲＴ１６,,13,106,1110041,,,2023-01-20,登記官による閉鎖,,,2015-10-05,1,,,,,,0
1704,7010501032666,登記記録の閉鎖等,0,2023-01-20,2023-01-20,ＪＳＴ株式会社,,株式会社,東京都,台東区,下谷１丁目１１番１５号ソレイユ入谷４Ｆ２Ｂ,,13,106,1100004,,,2023-01-20,登記官による閉鎖,,,2015-10-05,1,,,,,,0
1705,7010501033020,登記記録の閉鎖等,0,2023-01-20,2023-01-20,ＪＣバディ株式会社,,株式会社,東京都,台東区,千束１丁目１０番５－２０３号,,13,106,1110031,,,2023-01-20,登記官による閉鎖,,,2015-10-05,1,,,,,,0
1707,7010502014399,登記記録の閉鎖等,0,2023-01-20,2023-01-20,有限会社　渡辺時計店,,有限会社,東京都,台東区,東上野３丁目１３番３号,,13,106,1100015,,,2023-01-20,登記官による閉鎖,,,2015-10-05,1,,,,,,0
1708,7010502019877,登記記録の閉鎖等,0,2023-01-20,2023-01-20,有限会社アローラック,,有限会社,東京都,台東区,浅草橋１丁目３５番７号,,13,106,1110053,,,2023-01-20,登記官による閉鎖,,,2015-10-05,1,,,,,,0
1709,7010505001106,登記記録の閉鎖等,0,2023-01-20,2023-01-20,中央宝飾事業協同組合,,その他の設立登記法人,東京都,台東区,上野５丁目８番１０号,,13,106,1100005,,,2023-01-20,登記官による閉鎖,,,2015-10-05,1,,,,,,0
1710,7010505001139,登記記録の閉鎖等,0,2023-01-20,2023-01-20,社団法人中央農業拓植基金協会,,その他の設立登記法人,東京都,台東区,上野７丁目１１番７号川村ビル３０３,,13,106,1100005,,,2023-01-20,登記官による閉鎖,,,2015-10-05,1,,,,,,0
1712,7010602030593,登記記録の閉鎖等,0,2023-01-20,2023-01-10,有限会社こだま企画,,有限会社,東京都,江東区,大島１丁目３番１－９０１号,,13,108,1360072,,,2023-01-10,清算の結了等,,,2015-10-05,1,,,,,コダマキカク,0
1735,7011103007057,登記記録の閉鎖等,0,2023-01-20,2023-01-16,合同会社ビーマ,,合同会社,東京都,新宿区,新宿２丁目１２番１３号新宿アントレサロンビル２階,,13,104,1600022,,,2023-01-16,清算の結了等,,,2017-05-12,1,,,,,ビーマ,0
1742,7011802029814,登記記録の閉鎖等,0,2023-01-20,2023-01-16,有限会社ペーズマジック,,有限会社,東京都,葛飾区,小菅２丁目３７番６号,,13,122,1240001,,,2023-01-16,清算の結了等,,,2015-10-05,1,,,,,,0
1743,7012301001628,登記記録の閉鎖等,0,2023-01-20,2023-01-20,テムテツク株式会社,,株式会社,東京都,町田市,玉川学園７丁目１０番３２号,,13,209,1940041,,,2023-01-20,登記官による閉鎖,,,2015-10-05,1,,,,,,0
1744,7012301007922,登記記録の閉鎖等,0,2023-01-20,2023-01-20,株式会社フロンティア,,株式会社,東京都,町田市,原町田６丁目１４番８号,,13,209,1940013,,,2023-01-20,登記官による閉鎖,,,2015-10-05,1,,,,,,0
1745,7012301008029,登記記録の閉鎖等,0,2023-01-20,2023-01-20,ＮＳＫ株式会社,,株式会社,東京都,町田市,相原町３１２５番地の１,,13,209,1940211,,,2023-01-20,登記官による閉鎖,,,2015-10-05,1,,,,,,0
1746,7012301008251,登記記録の閉鎖等,0,2023-01-20,2023-01-20,株式会社Ｔｒｕｓｔ,,株式会社,東京都,町田市,原町田６丁目１８番１７号,,13,209,1940013,,,2023-01-20,登記官による閉鎖,,,2015-10-05,1,,,,,,0
1747,7012302001189,登記記録の閉鎖等,0,2023-01-20,2023-01-20,有限会社小野路増田屋,,有限会社,東京都,町田市,小野路町１８６５番地１,,13,209,1950064,,,2023-01-20,登記官による閉鎖,,,2015-10-05,1,,,,,,0
1748,7012302008275,登記記録の閉鎖等,0,2023-01-20,2023-01-20,有限会社ＫＡＩＺＡＮ,,有限会社,東京都,町田市,原町田６丁目２９番４号寺田ビルディング１階Ｃ号室,,13,209,1940013,,,2023-01-20,登記官による閉鎖,,,2015-10-05,1,,,,,,0
1753,7013301030344,登記記録の閉鎖等,0,2023-01-20,2023-01-12,エヌアイシィ株式会社,,株式会社,東京都,新宿区,西新宿６丁目２４番１号,,13,104,1600023,,,2023-01-12,合併による解散等,6120001028592,令和５年１月１日大阪市西区京町堀一丁目１７番１６号エヌアイシィ株式会社（6120001028592）に合併し解散,2015-10-05,1,,,,,エヌアイシィ,0
1759,7020001091286,登記記録の閉鎖等,0,2023-01-20,2023-01-16,創建株式会社,,株式会社,神奈川県,横浜市緑区,長津田町５７２１番地９,,14,113,2260026,,,2023-01-16,清算の結了等,,,2015-10-05,1,,,,,,0
1796,7040005004878,登記記録の閉鎖等,0,2023-01-20,2023-01-04,特定非営利活動法人人身取引被害者サポートセンターライトハウス,,その他の設立登記法人,東京都,港区,芝４丁目７－１西山ビル４階,,13,103,1080014,,,2023-01-04,清算の結了等,,,2015-10-05,1,,,,,ジンシントリヒキヒガイシャサポートセンターライトハウス,0
1823,7120101040133,登記記録の閉鎖等,0,2023-01-20,2023-01-13,株式会社フジサニーライフ,,株式会社,大阪府,泉佐野市,住吉町１番地,,27,213,5980061,,,2023-01-13,合併による解散等,3120101053709,令和５年１月１日大阪府泉佐野市住吉町１番地不二製油株式会社（3120101053709）に合併し解散,2015-10-05,1,,,,,フジサニーライフ,0
1846,7140005021517,登記記録の閉鎖等,0,2023-01-20,2023-01-20,特定非営利活動法人ホリスティックケアセラピスト協会,,その他の設立登記法人,兵庫県,神戸市垂水区,桃山台７丁目１番地の８,,28,108,6550854,,,2023-01-20,清算の結了等,,,2015-10-05,1,,,,,ホリスティックケアセラピストキョウカイ,0
1847,7150001020942,登記記録の閉鎖等,0,2023-01-20,2023-01-12,株式会社Ｓｐｒｅａｄ,,株式会社,奈良県,奈良市,七条西町１丁目５８番６号,,29,201,6308054,,,2023-01-12,清算の結了等,,,2016-08-25,1,,,,,,0
1848,7150002008739,登記記録の閉鎖等,0,2023-01-20,2023-01-16,有限会社うな源,,有限会社,奈良県,大和高田市,高砂町２番１号,,29,202,6350081,,,2023-01-16,清算の結了等,,,2015-10-05,1,,,,,ウナゲン,0
1858,7180003023981,登記記録の閉鎖等,0,2023-01-20,2023-01-17,合同会社知多,,合同会社,愛知県,知多郡阿久比町,大字草木字上外六３番地の１,,23,441,4702211,,,2023-01-17,清算の結了等,,,2022-07-14,1,,,,,チタ,0
1863,7180301034433,登記記録の閉鎖等,0,2023-01-20,2023-01-16,ＳＯＲＡ株式会社,,株式会社,愛知県,豊橋市,神野新田町字タノ割６１番地５,,23,201,4418077,,,2023-01-16,清算の結了等,,,2020-12-18,1,,,,,ソラ,0
1864,7180302005846,登記記録の閉鎖等,0,2023-01-20,2023-01-19,中部ハウス販売有限会社,,有限会社,愛知県,額田郡幸田町,大字坂崎字平蔵脇３５番地,,23,501,4440104,,,2023-01-19,清算の結了等,,,2015-10-05,1,,,,,チュウブハウスハンバイ,0
1867,7180302019706,登記記録の閉鎖等,0,2023-01-20,2023-01-18,有限会社水建工業,,有限会社,愛知県,知立市,谷田町上空池７番地１３,,23,225,4720013,,,2023-01-18,清算の結了等,,,2015-10-05,1,,,,,スイケンコウギョウ,0
1871,7190001010824,登記記録の閉鎖等,0,2023-01-20,2023-01-19,株式会社ヤマムラ,,株式会社,三重県,松阪市,笠松町１０７番地,,24,204,5152103,,,2023-01-19,清算の結了等,,,2015-10-05,1,,,,,,0
1886,7240002014950,登記記録の閉鎖等,0,2023-01-20,2023-01-18,有限会社平和書房,,有限会社,広島県,広島市中区,千田町１丁目１３番６号,,34,101,7300052,,,2023-01-18,清算の結了等,,,2015-10-05,1,,,,,ヘイワショボウ,0
1888,7250005000352,登記記録の閉鎖等,0,2023-01-20,2023-01-17,山口第一バプテスト教会,00002866,その他の設立登記法人,山口県,山口市,道祖町１番３２号,,35,203,7530037,,,2023-01-17,清算の結了等,,,2015-10-05,1,,,,,ヤマグチダイイチバプテストキョウカイ,0
1899,7290003004491,登記記録の閉鎖等,0,2023-01-20,2023-01-17,合同会社別府市第一エナジー,,合同会社,福岡県,福岡市博多区,博多駅前４丁目４番２１号,,40,132,8120011,,,2023-01-17,清算の結了等,,,2015-10-05,1,,,,,ベップシダイイチエナジー,0
1902,7300002001397,登記記録の閉鎖等,0,2023-01-20,2023-01-18,有限会社ホテルシステムズ,,有限会社,佐賀県,佐賀市,鍋島３丁目３番２０号,,41,201,8490937,,,2023-01-18,清算の結了等,,,2015-10-05,1,,,,,ホテルシステムズ,0
1923,7370002006464,登記記録の閉鎖等,0,2023-01-20,2023-01-17,有限会社仙台都市観光,,有限会社,宮城県,仙台市若林区,卸町東５丁目２番３８号,,04,103,9840002,,,2023-01-17,清算の結了等,,,2015-10-05,1,,,,,センダイトシカンコウ,0
1927,7380001013345,登記記録の閉鎖等,0,2023-01-20,2023-01-20,株式会社たなべ書店,,株式会社,福島県,いわき市,錦町鶴ケ町２番地の１,,07,204,9748232,,,2023-01-20,登記官による閉鎖,,,2015-10-05,1,,,,,,0
1928,7380002005077,登記記録の閉鎖等,0,2023-01-20,2023-01-20,有限会社伊達産業倉庫,,有限会社,福島県,伊達市,長岡２９番地,,07,213,9600414,,,2023-01-20,登記官による閉鎖,,,2015-10-05,1,,,,,,0
1929,7380002022436,登記記録の閉鎖等,0,2023-01-20,2023-01-20,有限会社イルジリオエンタープライズ,,有限会社,福島県,いわき市,小川町上小川字根本４５番地の１,,07,204,9793124,,,2023-01-20,登記官による閉鎖,,,2015-10-05,1,,,,,,0
1930,7380002027179,登記記録の閉鎖等,0,2023-01-20,2023-01-20,有限会社丸文目澤,,有限会社,福島県,いわき市,小名浜大原字六反田７番地の９,,07,204,9718111,,,2023-01-20,登記官による閉鎖,,,2015-10-05,1,,,,,,0
1931,7380003000044,登記記録の閉鎖等,0,2023-01-20,2023-01-20,合資会社竹屋旅館,,合資会社,福島県,福島市,大町２番２８号,,07,201,9608041,,,2023-01-20,登記官による閉鎖,,,2015-10-05,1,,,,,,0
1933,7380005010371,登記記録の閉鎖等,0,2023-01-20,2023-01-20,特定非営利活動法人ＮＰＯ理音,,その他の設立登記法人,福島県,南相馬市,原町区日の出町４５番地の３（日の出町団地２９号室）,,07,212,9750038,,,2023-01-20,登記官による閉鎖,,,2015-10-05,1,,,,,,0
1934,7380005011898,登記記録の閉鎖等,0,2023-01-20,2023-01-20,保証責任都路信用販売購買組合,,その他の設立登記法人,福島県,田村市,都路町古道字新町３４番地,,07,211,9634701,,,2023-01-20,登記官による閉鎖,,,2017-09-01,1,,,,,,0
1935,7380005011948,登記記録の閉鎖等,0,2023-01-20,2023-01-20,馬場平開拓農業協同組合,,その他の設立登記法人,福島県,安達郡大玉村,玉井字馬場平１番地,,07,322,9640091,,,2023-01-20,登記官による閉鎖,,,2017-12-07,1,,,,,,0
1947,7440001005526,登記記録の閉鎖等,0,2023-01-20,2023-01-19,株式会社古仲商店,,株式会社,北海道,函館市,本通１丁目４８番３３号２０１号室,,01,202,0410851,,,2023-01-19,登記官による閉鎖,,,2015-10-05,1,,,,,,0
1950,7440002003891,登記記録の閉鎖等,0,2023-01-20,2023-01-19,有限会社筆村米穀店,,有限会社,北海道,函館市,富岡町１丁目１５番２９号,,01,202,0410811,,,2023-01-19,登記官による閉鎖,,,2015-10-05,1,,,,,,0
1951,7440002004213,登記記録の閉鎖等,0,2023-01-20,2023-01-19,有限会社前側商店,,有限会社,北海道,函館市,元町１３番４号,,01,202,0400054,,,2023-01-19,登記官による閉鎖,,,2015-10-05,1,,,,,,0
1952,7440003000062,登記記録の閉鎖等,0,2023-01-20,2023-01-19,合資会社はこだてみやげ,,合資会社,北海道,函館市,西桔梗町５８９番地の４６,,01,202,0410824,,,2023-01-19,登記官による閉鎖,,,2015-10-05,1,,,,,,0
1953,7440003000335,登記記録の閉鎖等,0,2023-01-20,2023-01-19,ビットリンクネットワークス合資会社,,合資会社,北海道,函館市,杉並町１０番１２－２０２号,,01,202,0400004,,,2023-01-19,登記官による閉鎖,,,2015-10-05,1,,,,,,0
1954,7440005001488,登記記録の閉鎖等,0,2023-01-20,2023-01-19,特定非営利活動法人函館学童保育支援センター,,その他の設立登記法人,北海道,函館市,美原４丁目３８番２１号Ｂ－１０２号,,01,202,0410806,,,2023-01-19,登記官による閉鎖,,,2015-10-05,1,,,,,,0
1970,8010001142163,登記記録の閉鎖等,0,2023-01-20,2023-01-16,株式会社ＫＩＴ,,株式会社,東京都,荒川区,町屋３丁目３１番６号,,13,118,1160001,,,2023-01-16,清算の結了等,,,2015-10-05,1,,,,,,0
1972,8010001168183,登記記録の閉鎖等,0,2023-01-20,2023-01-17,ケイエムジェイホールディングス株式会社,,株式会社,東京都,千代田区,丸の内２丁目１番１号,,13,101,1000005,,,2023-01-17,合併による解散等,2290001053784,令和５年１月１日福岡県大牟田市四山町８０番地ＫＭアルミニウム株式会社（2290001053784）に合併し解散,2015-10-05,1,,,,,ケイエムジェイホールディングス,0
1980,8010003033856,登記記録の閉鎖等,0,2023-01-20,2023-01-13,合同会社ディーレジデンス,,合同会社,東京都,千代田区,霞が関３丁目２番５号,,13,101,1000013,,,2023-01-13,清算の結了等,,,2021-01-18,1,,,,,ディーレジデンス,0
1982,8010401046872,登記記録の閉鎖等,0,2023-01-20,2023-01-16,クリアスウィフト株式会社,,株式会社,東京都,新宿区,西新宿３丁目７番１号新宿パークタワーＮ３０階,,13,104,1600023,,,2023-01-16,清算の結了等,,,2015-10-05,1,,,,,クリアスウィフト,0
1989,8010501011306,登記記録の閉鎖等,0,2023-01-20,2023-01-20,大永プランニング株式会社,,株式会社,東京都,台東区,寿４丁目１０番５号,,13,106,1110042,,,2023-01-20,登記官による閉鎖,,,2015-10-05,1,,,,,,0
1990,8010501014614,登記記録の閉鎖等,0,2023-01-20,2023-01-20,ユニック株式会社,,株式会社,東京都,台東区,東上野５丁目１９番８号,,13,106,1100015,,,2023-01-20,登記官による閉鎖,,,2015-10-05,1,,,,,,0
1991,8010501027640,登記記録の閉鎖等,0,2023-01-20,2023-01-20,株式会社寿コートピア,,株式会社,東京都,台東区,寿１丁目２番１０号,,13,106,1110042,,,2023-01-20,登記官による閉鎖,,,2015-10-05,1,,,,,,0
1992,8010501030355,登記記録の閉鎖等,0,2023-01-20,2023-01-20,ウーティン株式会社,,株式会社,東京都,台東区,蔵前４丁目２１番１０－１１０１号,,13,106,1110051,,,2023-01-20,登記官による閉鎖,,,2015-10-05,1,,,,,,0
1994,8010502006569,登記記録の閉鎖等,0,2023-01-20,2023-01-20,有限会社高橋板金工務店,,有限会社,東京都,台東区,浅草５丁目３１番９号,,13,106,1110032,,,2023-01-20,登記官による閉鎖,,,2015-10-05,1,,,,,,0
1998,8010701004002,登記記録の閉鎖等,0,2023-01-20,2023-01-13,三和金属工業株式会社,,株式会社,千葉県,浦安市,堀江１丁目１１番１－４０１号,,12,227,2790041,,,2023-01-13,清算の結了等,,,2015-10-05,1,,,,,サンワキンゾクコウギョウ,0
1999,8010701032523,登記記録の閉鎖等,0,2023-01-20,2023-01-10,ＬＯＯＰＳ　ＧＲＯＵＰ株式会社,,株式会社,東京都,立川市,曙町１丁目２１番１号,00120613,13,202,1900012,,,2023-01-10,清算の結了等,,,2016-06-06,1,,,,,ループスグループ,0
2003,8010702004686,登記記録の閉鎖等,0,2023-01-20,2023-01-12,有限会社染野精機,,有限会社,東京都,品川区,二葉２丁目２０番８号,,13,109,1420043,,,2023-01-12,清算の結了等,,,2015-10-05,1,,,,,ソメノセイキ,0
2006,8011001112817,登記記録の閉鎖等,0,2023-01-20,2023-01-19,株式会社ＭＤＣ,,株式会社,東京都,渋谷区,広尾１丁目１５番６号,,13,113,1500012,,,2023-01-19,清算の結了等,,,2016-09-23,1,,,,,,0
2029,8011402004150,登記記録の閉鎖等,0,2023-01-20,2023-01-18,有限会社サン薬局,,有限会社,東京都,板橋区,志村３丁目９番４号,,13,119,1740056,,,2023-01-18,合併による解散等,2010001012074,令和５年１月１日東京都文京区西片一丁目１５番１５号株式会社トモズ（2010001012074）に合併し解散,2015-10-05,1,,,,,,0
2034,8011801021845,登記記録の閉鎖等,0,2023-01-20,2023-01-16,株式会社Ｗｅｓｔ,,株式会社,東京都,葛飾区,新小岩２丁目６番２号,,13,122,1240024,,,2023-01-16,清算の結了等,,,2015-10-05,1,,,,,,0
2036,8012702005879,登記記録の閉鎖等,0,2023-01-20,2023-01-17,有限会社平田事務所,,有限会社,東京都,西東京市,田無町４丁目９番３号,,13,229,1880011,,,2023-01-17,清算の結了等,,,2015-10-05,1,,,,,ヒラタジムショ,0
2044,8020003006646,登記記録の閉鎖等,0,2023-01-20,2023-01-16,合同会社アンカーコミュニティーサポート,,合同会社,神奈川県,横浜市中区,元浜町３丁目２１番２号,,14,104,2310004,,,2023-01-16,清算の結了等,,,2015-10-05,1,,,,,アンカーコミュニティーサポート,0
2068,8040002021801,登記記録の閉鎖等,0,2023-01-20,2023-01-12,有限会社グリーンライフ石川,,有限会社,千葉県,船橋市,栄町１丁目２９番２号,,12,204,2730018,,,2023-01-12,清算の結了等,,,2015-10-05,1,,,,,,0
2085,8080102014189,登記記録の閉鎖等,0,2023-01-20,2023-01-13,有限会社鈴晃印刷,,有限会社,静岡県,富士市,岩本２５３番地の４,,22,210,4160901,,,2023-01-13,清算の結了等,,,2015-10-05,1,,,,,スズコウインサツ,0
2086,8090001014314,登記記録の閉鎖等,0,2023-01-20,2023-01-18,ＨＡＣＫ　ＵＦＢ株式会社,,株式会社,山梨県,甲府市,後屋町３６３番地,,19,201,4000045,,,2023-01-18,清算の結了等,,,2015-10-23,1,,,,,ハックユーエフビー,0
2119,8140001019720,登記記録の閉鎖等,0,2023-01-20,2023-01-16,株式会社トーワテクノ,,株式会社,兵庫県,神戸市中央区,磯辺通４丁目１番８号,,28,110,6510084,,,2023-01-16,清算の結了等,,,2015-10-05,1,,,,,トーワテクノ,0
2120,8140001093435,登記記録の閉鎖等,0,2023-01-20,2023-01-16,株式会社関西流通,,株式会社,兵庫県,西宮市,中島町９番２０号,,28,204,6638105,,,2023-01-16,清算の結了等,,,2015-10-05,1,,,,,カンサイリュウツウ,0
2125,8140002054147,登記記録の閉鎖等,0,2023-01-20,2023-01-17,有限会社ケイテック,,有限会社,兵庫県,姫路市,下手野４丁目６－５２,,28,201,6700063,,,2023-01-17,清算の結了等,,,2015-10-05,1,,,,,ケイテック,0
2126,8140002058206,登記記録の閉鎖等,0,2023-01-20,2023-01-13,有限会社吉井総業,,有限会社,兵庫県,西宮市,中島町１６番２６号,,28,204,6638105,,,2023-01-13,清算の結了等,,,2015-10-05,1,,,,,,0
2131,8150005008454,登記記録の閉鎖等,0,2023-01-20,2023-01-16,特定非営利活動法人ささやき,,その他の設立登記法人,奈良県,橿原市,曽我町８１０番地１,,29,205,6340831,,,2023-01-16,清算の結了等,,,2015-10-05,1,,,,,ササヤキ,0
2134,8180001115771,登記記録の閉鎖等,0,2023-01-20,2023-01-16,株式会社モリケンエステート,,株式会社,愛知県,一宮市,あずら２丁目３２番２号,,23,203,4910835,,,2023-01-16,清算の結了等,,,2015-10-05,1,,,,,モリケンエステート,0
2137,8180301009095,登記記録の閉鎖等,0,2023-01-20,2023-01-17,株式会社ＳＫ設計,,株式会社,愛知県,豊橋市,藤並町字新井島１９番地１,,23,201,4418114,,,2023-01-17,清算の結了等,,,2015-10-05,1,,,,,エスケーセッケイ,0
2138,8180301013213,登記記録の閉鎖等,0,2023-01-20,2023-01-18,株式会社野村トレス,,株式会社,愛知県,安城市,篠目町井原３番地２,,23,212,4460073,,,2023-01-18,清算の結了等,,,2015-10-05,1,,,,,ノムラトレス,0
2140,8180302026619,登記記録の閉鎖等,0,2023-01-20,2023-01-13,有限会社冨田住建,,有限会社,愛知県,西尾市,岡島町郷東２２８番地,,23,213,4450022,,,2023-01-13,清算の結了等,,,2015-10-05,1,,,,,トミタジュウケン,0
2150,8240002046836,登記記録の閉鎖等,0,2023-01-20,2023-01-18,有限会社山本工業,,有限会社,広島県,府中市,栗柄町３１２４番地の３,,34,208,7260023,,,2023-01-18,清算の結了等,,,2015-10-05,1,,,,,ヤマモトコウギョウ,0
2187,8330002017555,登記記録の閉鎖等,0,2023-01-20,2023-01-18,荒木タイヤ工業有限会社,,有限会社,熊本県,菊池市,野間口９０１番地１,,43,210,8611324,,,2023-01-18,清算の結了等,,,2015-10-05,1,,,,,アラキタイヤコウギョウ,0
2200,8370002016339,登記記録の閉鎖等,0,2023-01-20,2023-01-06,有限会社パルティール,,有限会社,宮城県,仙台市太白区,中田５丁目１３番６５号,,04,104,9811104,,,2023-01-06,合併による解散等,3370001012277,令和５年１月１日仙台市太白区中田五丁目１３番６５号株式会社志鴛（3370001012277）に合併し解散,2015-10-05,1,,,,,パルティール,0
2205,8380001010259,登記記録の閉鎖等,0,2023-01-20,2023-01-20,株式会社シャディおか,,株式会社,福島県,西白河郡矢吹町,中町２番地,,07,466,9690221,,,2023-01-20,登記官による閉鎖,,,2015-10-05,1,,,,,,0
2206,8380001015852,登記記録の閉鎖等,0,2023-01-20,2023-01-20,サンワインタック株式会社,,株式会社,福島県,相馬市,椎木字段ノ原１６８番地の７,,07,209,9760002,,,2023-01-20,登記官による閉鎖,,,2015-10-05,1,,,,,,0
2207,8380001015927,登記記録の閉鎖等,0,2023-01-20,2023-01-20,株式会社相馬宅地建物取引所,,株式会社,福島県,相馬市,中村１丁目８番地の２７,,07,209,9760042,,,2023-01-20,登記官による閉鎖,,,2015-10-05,1,,,,,,0
2208,8380002003889,登記記録の閉鎖等,0,2023-01-20,2023-01-20,有限会社エナジーライフ,,有限会社,福島県,福島市,豊田町１番４号,,07,201,9608104,,,2023-01-20,登記官による閉鎖,,,2015-10-05,1,,,,,,0
2209,8380002010844,登記記録の閉鎖等,0,2023-01-20,2023-01-20,有限会社圓谷呉服店,,有限会社,福島県,郡山市,清水台２丁目１番１４号,,07,203,9638005,,,2023-01-20,登記官による閉鎖,,,2015-10-05,1,,,,,,0
2210,8380002012741,登記記録の閉鎖等,0,2023-01-20,2023-01-20,有限会社焼肉赤べこ,,有限会社,福島県,郡山市,開成６丁目４７番地の１,,07,203,9638851,,,2023-01-20,登記官による閉鎖,,,2015-10-05,1,,,,,,0
2211,8380002016387,登記記録の閉鎖等,0,2023-01-20,2023-01-20,有限会社大成,,有限会社,福島県,二本松市,榎戸２丁目５０番地１,,07,210,9640937,,,2023-01-20,登記官による閉鎖,,,2015-10-05,1,,,,,,0
2212,8380002025207,登記記録の閉鎖等,0,2023-01-20,2023-01-20,有限会社長橋藥局,,有限会社,福島県,いわき市,平字長橋町５０番地,,07,204,9708026,,,2023-01-20,登記官による閉鎖,,,2017-10-19,1,,,,,,0
2213,8380003000919,登記記録の閉鎖等,0,2023-01-20,2023-01-20,合名会社遠藤商店,,合名会社,福島県,いわき市,平字菱川町５番地の８,,07,204,9708026,,,2023-01-20,登記官による閉鎖,,,2015-10-05,1,,,,,,0
2214,8380003001628,登記記録の閉鎖等,0,2023-01-20,2023-01-20,合資会社佐藤著作権研究所,,合資会社,福島県,相馬市,小泉字屋敷前３５１番地の４,,07,209,9760013,,,2023-01-20,登記官による閉鎖,,,2015-10-05,1,,,,,,0
2215,8380003003780,登記記録の閉鎖等,0,2023-01-20,2023-01-20,高橋合資会社,00108920,合資会社,福島県,喜多方市,山都町相川甲１３８番地,,07,208,9694107,,,2023-01-20,登記官による閉鎖,,,2017-01-17,1,,,,,,0
2220,8420002008495,登記記録の閉鎖等,0,2023-01-20,2023-01-17,有限会社日登工務店,,有限会社,青森県,八戸市,八太郎６丁目７番７号,,02,203,0391168,,,2023-01-17,清算の結了等,,,2015-10-05,1,,,,,ヒノボリコウムテン,0
2224,8430001080734,登記記録の閉鎖等,0,2023-01-20,2023-01-16,株式会社ｐｏｃｏ　Ａ　ｐｏｃｏ,,株式会社,北海道,札幌市厚別区,厚別中央三条３丁目２番１７号ヴィビ新さっぽろ１階,,01,108,0040053,,,2023-01-16,清算の結了等,,,2020-01-23,1,,,,,ポコアポコ,0
2225,8430002024574,登記記録の閉鎖等,0,2023-01-20,2023-01-16,有限会社北海道ネツトワーク,,有限会社,北海道,札幌市手稲区,前田三条４丁目３番２０号,,01,109,0060813,,,2023-01-16,清算の結了等,,,2015-10-05,1,,,,,ホッカイドウネットワーク,0
2230,8440001006903,登記記録の閉鎖等,0,2023-01-20,2023-01-19,株式会社クライム,,株式会社,北海道,函館市,柏木町４番２４号,,01,202,0420942,,,2023-01-19,登記官による閉鎖,,,2015-10-05,1,,,,,,0
2231,8440002001143,登記記録の閉鎖等,0,2023-01-20,2023-01-19,有限会社カワサキ,,有限会社,北海道,函館市,高丘町３４番２１号,,01,202,0420955,,,2023-01-19,登記官による閉鎖,,,2015-10-05,1,,,,,,0
2232,8440002004583,登記記録の閉鎖等,0,2023-01-20,2023-01-19,有限会社丸二平田商事,,有限会社,北海道,松前郡松前町,字福山５２番地,,01,331,0491512,,,2023-01-19,登記官による閉鎖,,,2015-10-05,1,,,,,,0
2233,8440002008064,登記記録の閉鎖等,0,2023-01-20,2023-01-19,有限会社サンリード,,有限会社,北海道,北斗市,追分３丁目６番１３号,,01,236,0490101,,,2023-01-19,登記官による閉鎖,,,2015-10-05,1,,,,,,0
2234,8440003000111,登記記録の閉鎖等,0,2023-01-20,2023-01-19,合名会社角二三上商店,00090485,合名会社,北海道,函館市,宝来町２番５号,,01,202,0400043,,,2023-01-19,登記官による閉鎖,,,2015-10-05,1,,,,,,0
2235,8440005001479,登記記録の閉鎖等,0,2023-01-20,2023-01-19,特定非営利活動法人北海道結婚支援連絡協議会,,その他の設立登記法人,北海道,函館市,本町２番３号,,01,202,0400011,,,2023-01-19,登記官による閉鎖,,,2015-10-05,1,,,,,,0
2239,8500002010625,登記記録の閉鎖等,0,2023-01-20,2023-01-19,有限会社松風,,有限会社,愛媛県,松山市,湊町８丁目９５番地,,38,201,7900012,,,2023-01-19,清算の結了等,,,2015-10-05,1,,,,,ショウフウ,0
2253,9010001092250,登記記録の閉鎖等,0,2023-01-20,2023-01-12,株式会社シーパァフォァ,,株式会社,東京都,文京区,本駒込１丁目１１番６号,,13,105,1130021,,,2023-01-12,清算の結了等,,,2015-10-05,1,,,,,シーパァフォァ,0
2279,9010501000266,登記記録の閉鎖等,0,2023-01-20,2023-01-20,株式会社アクセサリー山本,,株式会社,東京都,台東区,寿４丁目１０番１号,,13,106,1110042,,,2023-01-20,登記官による閉鎖,,,2015-10-05,1,,,,,,0
2280,9010501008887,登記記録の閉鎖等,0,2023-01-20,2023-01-20,株式会社タカスギ,,株式会社,東京都,台東区,花川戸１丁目７番４号,,13,106,1110033,,,2023-01-20,登記官による閉鎖,,,2017-10-25,1,,,,,,0
2281,9010501010629,登記記録の閉鎖等,0,2023-01-20,2023-01-20,株式会社林商店,,株式会社,東京都,台東区,浅草６丁目３２番７号,,13,106,1110032,,,2023-01-20,登記官による閉鎖,,,2015-10-05,1,,,,,,0
2283,9010501018515,登記記録の閉鎖等,0,2023-01-20,2023-01-20,オレンジコネクション株式会社,,株式会社,東京都,台東区,西浅草２丁目６番２号,,13,106,1110035,,,2023-01-20,登記官による閉鎖,,,2015-10-05,1,,,,,,0
2284,9010501031195,登記記録の閉鎖等,0,2023-01-20,2023-01-20,株式会社コスモスクリエイティブ,,株式会社,東京都,台東区,元浅草３丁目１０番７－４０３号コスモ元浅草,,13,106,1110041,,,2023-01-20,登記官による閉鎖,,,2015-10-05,1,,,,,,0
2285,9010502022350,登記記録の閉鎖等,0,2023-01-20,2023-01-20,有限会社グローバルビジネス,,有限会社,東京都,台東区,上野５丁目１５番１７号,,13,106,1100005,,,2023-01-20,登記官による閉鎖,,,2015-10-05,1,,,,,,0
2290,9010702004966,登記記録の閉鎖等,0,2023-01-20,2023-01-12,有限会社高塚精機,00051982,有限会社,東京都,品川区,二葉３丁目３番１４号,,13,109,1420043,,,2023-01-12,清算の結了等,,,2015-10-05,1,,,,,タカツカセイキ,0
2319,9012302003472,登記記録の閉鎖等,0,2023-01-20,2023-01-20,有限会社ナカデン,,有限会社,東京都,町田市,金森東１丁目１０番１６号,,13,209,1940015,,,2023-01-20,登記官による閉鎖,,,2015-10-05,1,,,,,,0
2320,9012302004280,登記記録の閉鎖等,0,2023-01-20,2023-01-20,有限会社ヘア・アート・プウペ,,有限会社,東京都,町田市,原町田６丁目２０番３号,,13,209,1940013,,,2023-01-20,登記官による閉鎖,,,2015-10-05,1,,,,,,0
2346,9021001011496,登記記録の閉鎖等,0,2023-01-20,2023-01-16,株式会社エル・アンド・エイツツミ,,株式会社,神奈川県,相模原市南区,麻溝台６丁目８番２号,,14,153,2520328,,,2023-01-16,清算の結了等,,,2015-10-05,1,,,,,エルアンドエイツツミ,0
2353,9021002002239,登記記録の閉鎖等,0,2023-01-20,2023-01-16,有限会社湘南印刷,,有限会社,神奈川県,藤沢市,藤沢１丁目１番５号,,14,205,2510052,,,2023-01-16,清算の結了等,,,2015-10-05,1,,,,,ショウナンインサツ,0
2355,9021003006569,登記記録の閉鎖等,0,2023-01-20,2023-01-16,合同会社エスティ企画,,合同会社,神奈川県,厚木市,森の里２丁目５番１６号,,14,212,2430122,,,2023-01-16,清算の結了等,,,2017-03-27,1,,,,,エスティキカク,0
2357,9021005011229,登記記録の閉鎖等,0,2023-01-20,2023-01-16,一般社団法人シンプルパフォーマンスセラピー協会,,その他の設立登記法人,神奈川県,鎌倉市,腰越３丁目１９番１７号,,14,204,2480033,,,2023-01-16,清算の結了等,,,2018-02-27,1,,,,,シンプルパフォーマンスセラピーキョウカイ,0
2359,9030001076986,登記記録の閉鎖等,0,2023-01-20,2023-01-17,福原商事株式会社,,株式会社,埼玉県,さいたま市南区,根岸１丁目１２番３号,,11,108,3360024,,,2023-01-17,清算の結了等,,,2015-10-05,1,,,,,フクハラショウジ,0
2371,9040001106081,登記記録の閉鎖等,0,2023-01-20,2023-01-16,株式会社Ｐｌｅｉａｄｅｓ,,株式会社,千葉県,千葉市花見川区,作新台１丁目２８－１０ラレーブ八千代台１１０,,12,102,2620045,,,2023-01-16,清算の結了等,,,2018-09-13,1,,,,,プレアデス,0
2392,9070001016996,登記記録の閉鎖等,0,2023-01-20,2023-01-16,株式会社フューチャーアンドスペース,,株式会社,群馬県,桐生市,相生町２丁目２８２番地１２,,10,203,3760011,,,2023-01-16,清算の結了等,,,2015-10-05,1,,,,,フューチャーアンドスペース,0
2416,9120102002642,登記記録の閉鎖等,0,2023-01-20,2023-01-18,有限会社泉北建設,,有限会社,大阪府,堺市南区,畑１８５番地,,27,145,5900124,,,2023-01-18,清算の結了等,,,2015-10-05,1,,,,,センボクケンセツ,0
2423,9140001045996,登記記録の閉鎖等,0,2023-01-20,2023-01-17,ベース株式会社,,株式会社,兵庫県,加古川市,加古川町寺家町６２－７セレッソコート加古川３０３号室,,28,210,6750066,,,2023-01-17,清算の結了等,,,2015-10-05,1,,,,,ベース,0
2427,9140001122936,登記記録の閉鎖等,0,2023-01-20,2023-01-17,Ｋ－ＮＩＮＥ株式会社,,株式会社,兵庫県,神戸市灘区,高尾通４丁目２番１７－２０３号,,28,102,6570813,,,2023-01-17,清算の結了等,,,2021-09-07,1,,,,,ケーナイン,0
2431,9150002000066,登記記録の閉鎖等,0,2023-01-20,2023-01-12,有限会社アスカ,,有限会社,奈良県,奈良市,百楽園１丁目８－１,,29,201,6310024,,,2023-01-12,清算の結了等,,,2015-10-05,1,,,,,,0
2439,9180302014382,登記記録の閉鎖等,0,2023-01-20,2023-01-18,有限会社マサミ工業,,有限会社,愛知県,豊川市,伊奈町縫殿５３番地１１３,,23,207,4410105,,,2023-01-18,清算の結了等,,,2023-01-12,1,,,,,マサミコウギョウ,0
2443,9220002005272,登記記録の閉鎖等,0,2023-01-20,2023-01-13,有限会社堀田商事,,有限会社,石川県,金沢市,二日市町へ１７７番地１,,17,201,9200107,,,2023-01-13,清算の結了等,,,2015-10-05,1,,,,,ホリタショウジ,0
2461,9290003003698,登記記録の閉鎖等,0,2023-01-20,2023-01-16,合同会社新撰組,00093723,合同会社,福岡県,福岡市城南区,片江５丁目１番５０号レイクコートサチ１０１,,40,136,8140142,,,2023-01-16,清算の結了等,,,2015-10-05,1,,,,,シンセングミ,0
2474,9380001028622,登記記録の閉鎖等,0,2023-01-20,2023-01-20,大塚建設株式会社,,株式会社,福島県,双葉郡浪江町,大字権現堂字新町６１番地,,07,547,9791521,,,2023-01-20,登記官による閉鎖,,,2017-11-16,1,,,,,,0
2475,9380002003640,登記記録の閉鎖等,0,2023-01-20,2023-01-20,有限会社都ずし,,有限会社,福島県,福島市,八島町５番５号,,07,201,9608136,,,2023-01-20,登記官による閉鎖,,,2015-10-05,1,,,,,,0
2476,9380002009745,登記記録の閉鎖等,0,2023-01-20,2023-01-20,有限会社サンマート熱海,,有限会社,福島県,郡山市,熱海町熱海１丁目２２７番地,,07,203,9631309,,,2023-01-20,登記官による閉鎖,,,2015-10-05,1,,,,,,0
2477,9380002010182,登記記録の閉鎖等,0,2023-01-20,2023-01-20,有限会社寿司勝,,有限会社,福島県,郡山市,香久池２丁目１２番２号,,07,203,9638833,,,2023-01-20,登記官による閉鎖,,,2015-10-05,1,,,,,,0
2478,9380002011148,登記記録の閉鎖等,0,2023-01-20,2023-01-20,有限会社東北テクノサービス,,有限会社,福島県,郡山市,日和田町字蛇ケ森３６番地の２０,,07,203,9630534,,,2023-01-20,登記官による閉鎖,,,2015-10-05,1,,,,,,0
2480,9380002025767,登記記録の閉鎖等,0,2023-01-20,2023-01-20,富士興産有限会社,,有限会社,福島県,いわき市,泉町下川字八合６１番地の４,,07,204,9718183,,,2023-01-20,登記官による閉鎖,,,2015-10-05,1,,,,,,0
2481,9380002030073,登記記録の閉鎖等,0,2023-01-20,2023-01-20,有限会社常磐電気工業,,有限会社,福島県,双葉郡楢葉町,大字井出字八石４２番地,,07,542,9790603,,,2023-01-20,登記官による閉鎖,,,2017-11-06,1,,,,,,0
2482,9380002032160,登記記録の閉鎖等,0,2023-01-20,2023-01-20,有限会社スタートレイディング,,有限会社,福島県,会津若松市,扇町８番地,,07,202,9650025,,,2023-01-20,登記官による閉鎖,,,2015-10-05,1,,,,,,0
2483,9380002036211,登記記録の閉鎖等,0,2023-01-20,2023-01-20,有限会社県境石油,,有限会社,福島県,西白河郡西郷村,大字小田倉字稗返３１６番地,,07,461,9618061,,,2023-01-20,登記官による閉鎖,,,2017-05-30,1,,,,,,0
2496,9430003013476,登記記録の閉鎖等,0,2023-01-20,2023-01-16,Ｅａｓｔｏｎ　Ｒｅａｌｔｙ合同会社,,合同会社,北海道,札幌市白石区,北郷九条７丁目１番２０号,,01,104,0030839,,,2023-01-16,清算の結了等,,,2021-12-23,1,,,,,イーストンリアルティ,0
2500,9440002001266,登記記録の閉鎖等,0,2023-01-20,2023-01-19,有限会社きのみや,,有限会社,北海道,函館市,中島町３番２２号,,01,202,0400014,,,2023-01-19,登記官による閉鎖,,,2015-10-05,1,,,,,,0
2501,9440005001296,登記記録の閉鎖等,0,2023-01-20,2023-01-19,特定非営利活動法人オゾン自然植物園,,その他の設立登記法人,北海道,亀田郡七飯町,字大沼町６８５番地,,01,337,0411354,,,2023-01-19,登記官による閉鎖,,,2015-10-05,1,,,,,,0
2502,9450001008402,登記記録の閉鎖等,0,2023-01-20,2023-01-16,株式会社稚内シーフードセンター,,株式会社,神奈川県,足柄下郡湯河原町,吉浜１１２８番地５,,14,384,2590312,,,2023-01-16,清算の結了等,,,2015-10-05,1,,,,,ワッカナイシーフードセンター,0
2503,9480002010461,登記記録の閉鎖等,0,2023-01-20,2023-01-19,有限会社栄鉄工所,,有限会社,徳島県,鳴門市,撫養町弁財天字派名３４番地２,,36,202,7720014,,,2023-01-19,清算の結了等,,,2015-10-05,1,,,,,サカエテッコウショ,0
