sequenceNumber,corporateNumber,process,correct,updateDate,changeDate,name,nameImageId,kind,prefectureName,cityName,streetNumber,addressImageId,prefectureCode,cityCode,postCode,addressOutside,addressOutsideImageId,closeDate,closeCause,successorCorporateNumber,changeCause,assignmentDate,latest,enName,enPrefectureName,enCityName,enAddressOutside,furigana,hihyoji
25,1010003041106,登記記録の閉鎖等,0,2024-11-18,2024-10-23,Ｗｏｍｅｎｔ合同会社,,合同会社,東京都,中央区,銀座１丁目２２番１１号銀座大竹ビジデンス２Ｆ,,13,102,1040061,,,2024-10-23,清算の結了等,,,2023-07-19,1,,,,,ウォメント,0
56,1010902004583,登記記録の閉鎖等,0,2024-11-18,2024-11-11,有限会社キッズプロデュース,,有限会社,東京都,世田谷区,奥沢１丁目２２番１０号ファミール奥沢３０２,,13,112,1580083,,,2024-11-11,清算の結了等,,,2015-10-05,1,,,,,キッズプロデュース,0
58,1011001065162,登記記録の閉鎖等,0,2024-11-18,2024-10-16,株式会社ブライトオンライン,,株式会社,東京都,渋谷区,道玄坂２丁目１４番１号三陽ビル１階,,13,113,1500043,,,2024-10-16,清算の結了等,,,2015-10-05,1,,,,,ブライトオンライン,0
63,1011002031213,登記記録の閉鎖等,0,2024-11-18,2024-10-18,有限会社アシスト,,有限会社,東京都,渋谷区,代々木２丁目１１番１５号新宿東京海上日動ビルディング９階,,13,113,1510053,,,2024-10-18,清算の結了等,,,2015-10-05,1,,,,,アシスト,0
66,1011101074848,登記記録の閉鎖等,0,2024-11-18,2024-11-05,株式会社３ｓｔａｒ　ｐｒｏｊｅｃｔ,,株式会社,東京都,渋谷区,渋谷１丁目２０番１７号,,13,113,1500002,,,2024-11-05,清算の結了等,,,2015-10-16,1,,,,,スリースタープロジェクト,0
67,1011101099688,登記記録の閉鎖等,0,2024-11-18,2024-11-11,株式会社Ｆｏｒ　ｌｉｆｅ,,株式会社,東京都,世田谷区,喜多見４丁目５－７ミドリハイツ２０２,,13,112,1570067,,,2024-11-11,清算の結了等,,,2022-08-03,1,,,,,フォーライフ,0
74,1011301008085,登記記録の閉鎖等,0,2024-11-18,2024-11-11,株式会社スタッツ,,株式会社,東京都,杉並区,善福寺１丁目９番２号,,13,115,1670041,,,2024-11-11,清算の結了等,,,2015-10-05,1,,,,,スタッツ,0
95,1020001075377,登記記録の閉鎖等,0,2024-11-18,2024-11-01,株式会社唐沢化学研究所,,株式会社,神奈川県,川崎市幸区,南加瀬４丁目３７番１６号,,14,132,2120055,,,2024-11-01,清算の結了等,,,2015-10-05,1,,,,,カラサワカガクケンキュウショ,0
117,1020003024877,登記記録の閉鎖等,0,2024-11-18,2024-10-28,合同会社ＳｕｚｕｋｉＳｅｃｕｒｉｔｙＳｙｓｔｅｍ,,合同会社,神奈川県,横浜市保土ケ谷区,和田２丁目５番２２－３号,,14,106,2400065,,,2024-10-28,清算の結了等,,,2023-10-31,1,,,,,スズキセキュリティシステム,0
128,1030001077050,登記記録の閉鎖等,0,2024-11-18,2024-11-12,株式会社フミタカ住宅,,株式会社,埼玉県,川口市,並木２丁目１１番９号,,11,203,3320034,,,2024-11-12,合併による解散等,1030001142044,令和６年１１月１２日埼玉県川口市並木二丁目１１番１４号株式会社北澤住建（1030001142044）に合併し解散,2015-10-05,1,,,,,フミタカジュウタク,0
133,1030002038043,登記記録の閉鎖等,0,2024-11-18,2024-11-12,有限会社佐藤縫製,,有限会社,埼玉県,久喜市,青毛１丁目１２番地１１,,11,232,3460011,,,2024-11-12,清算の結了等,,,2015-10-05,1,,,,,サトウホウセイ,0
146,1040002048339,登記記録の閉鎖等,0,2024-11-18,2024-11-13,有限会社富士ベア,,有限会社,千葉県,松戸市,常盤平陣屋前１７番地１７,,12,207,2702265,,,2024-11-13,清算の結了等,,,2015-10-05,1,,,,,フジベア,0
154,1060001013969,登記記録の閉鎖等,0,2024-11-18,2024-11-13,株式会社グラティア,,株式会社,栃木県,那須塩原市,下永田６丁目１２２９番地９８,,09,213,3292712,,,2024-11-13,清算の結了等,,,2015-10-05,1,,,,,グラティア,0
169,1100002027815,登記記録の閉鎖等,0,2024-11-18,2024-11-08,有限会社エヌ・エス・シー,,有限会社,長野県,諏訪市,大字四賀１６８４番地,,20,206,3920012,,,2024-11-08,清算の結了等,,,2015-10-05,1,,,,,エヌエスシー,0
171,1110001022774,登記記録の閉鎖等,0,2024-11-18,2024-11-08,株式会社ダイチュー,,株式会社,新潟県,長岡市,東蔵王２丁目３番５５号,,15,202,9400029,,,2024-11-08,清算の結了等,,,2015-10-05,1,,,,,ダイチュー,0
198,1150005009120,登記記録の閉鎖等,0,2024-11-18,2024-11-12,特定非営利活動法人ここなら,,その他の設立登記法人,奈良県,葛城市,疋田４９０番地９,,29,211,6392101,,,2024-11-12,清算の結了等,,,2019-10-04,1,,,,,ココナラ,0
199,1160002006854,登記記録の閉鎖等,0,2024-11-18,2024-11-14,有限会社野原新聞舖,,有限会社,滋賀県,米原市,米原５６２番地,,25,214,5210012,,,2024-11-14,清算の結了等,,,2015-10-05,1,,,,,ノハラシンブンホ,0
209,1180002046543,登記記録の閉鎖等,0,2024-11-18,2024-11-07,株式会社セントラル記帳代行サービス,,株式会社,愛知県,名古屋市中村区,中島町３丁目３番地,,23,105,4530022,,,2024-11-07,清算の結了等,,,2015-10-05,1,,,,,セントラルキチョウダイコウサービス,0
220,1200005001170,登記記録の閉鎖等,0,2024-11-18,2024-11-14,岐阜県美容用品卸商業協同組合,,その他の設立登記法人,岐阜県,岐阜市,光町１丁目２８番地,,21,201,5020901,,,2024-11-14,清算の結了等,,,2015-10-05,1,,,,,ギフケンビヨウヨウヒンオロシショウギョウ,0
227,1240005003238,登記記録の閉鎖等,0,2024-11-18,2024-11-15,特定非営利活動法人元気フォーラム,,その他の設立登記法人,広島県,東広島市,安芸津町小松原２１１（株）テクノパーク内,,34,212,7392405,,,2024-11-15,清算の結了等,,,2015-10-05,1,,,,,ゲンキフォーラム,0
232,1280001000862,登記記録の閉鎖等,0,2024-11-18,2024-11-14,株式会社新広商会,,株式会社,島根県,松江市,馬潟町３５０番地１３,,32,201,6900024,,,2024-11-14,清算の結了等,,,2015-10-05,1,,,,,シンコウショウカイ,0
233,1290001010332,登記記録の閉鎖等,0,2024-11-18,2024-10-15,株式会社平和楼,,株式会社,福岡県,福岡市中央区,天神２丁目６番４２号,,40,133,8100001,,,2024-10-15,清算の結了等,,,2015-10-05,1,,,,,ヘイワロウ,0
239,1290002041104,登記記録の閉鎖等,0,2024-11-18,2024-10-11,有限会社双葉米穀販売店,,有限会社,福岡県,春日市,紅葉ヶ丘東１丁目１番地,,40,218,8160833,,,2024-10-11,清算の結了等,,,2015-10-05,1,,,,,フタバベイコクハンバイテン,0
242,1290005004388,登記記録の閉鎖等,0,2024-11-18,2024-10-18,特定非営利活動法人障がい児・者の自立を援助するめだかの会,,その他の設立登記法人,福岡県,福岡市東区,香住ケ丘４丁目２２番６号,,40,131,8130003,,,2024-10-18,清算の結了等,,,2015-10-05,1,,,,,,0
248,1320001002020,登記記録の閉鎖等,0,2024-11-18,2024-11-15,中村産業株式会社,,株式会社,大分県,大分市,中津留２丁目３番２９号,,44,201,8700939,,,2024-11-15,清算の結了等,,,2015-10-05,1,,,,,ナカムラサンギョウ,0
257,1360001013550,登記記録の閉鎖等,0,2024-11-18,2024-11-13,株式会社ライム・ジャパン,,株式会社,沖縄県,石垣市,字伊原間２番地の７３６,,47,207,9070332,,,2024-11-13,清算の結了等,,,2015-10-05,1,,,,,ライムジャパン,0
258,1360003005546,登記記録の閉鎖等,0,2024-11-18,2024-11-07,合同会社芭蕉の木,,合同会社,沖縄県,石垣市,字平得２７１番地,,47,207,9070003,,,2024-11-07,清算の結了等,,,2015-10-05,1,,,,,バショウノキ,0
260,1370002017574,登記記録の閉鎖等,0,2024-11-18,2024-11-08,有限会社三共興産,,有限会社,宮城県,仙台市若林区,荒井６丁目３番地の４,,04,103,9840032,,,2024-11-08,清算の結了等,,,2015-10-05,1,,,,,サンキョウコウサン,0
268,1430001063662,登記記録の閉鎖等,0,2024-11-18,2024-11-14,株式会社クレアル,,株式会社,北海道,札幌市中央区,南四条東５丁目１番地２９,,01,101,0600054,,,2024-11-14,清算の結了等,,,2015-10-05,1,,,,,クレアル,0
285,2010001248131,登記記録の閉鎖等,0,2024-11-18,2024-11-12,株式会社中野不動産,,株式会社,東京都,千代田区,神田小川町３丁目２６番８号神田小川町三丁目ビル６階,,13,101,1010052,,,2024-11-12,合併による解散等,1011201004639,令和６年１１月６日東京都中野区中央三丁目４９番３号株式会社中野不動産（1011201004639）に合併し解散,2024-09-06,1,,,,,ナカノフドウサン,0
321,2010401122877,登記記録の閉鎖等,0,2024-11-18,2024-10-23,株式会社ケイアイエスジャパン,,株式会社,東京都,港区,芝浦４丁目１０番１－１１０５号,,13,103,1080023,,,2024-10-23,清算の結了等,,,2016-02-02,1,,,,,ケイアイエスジャパン,0
324,2010402030609,登記記録の閉鎖等,0,2024-11-18,2024-10-31,有限会社オリブ,,有限会社,東京都,港区,浜松町２丁目３番１号,,13,103,1050013,,,2024-10-31,清算の結了等,,,2015-10-05,1,,,,,オリブ,0
329,2010403026283,登記記録の閉鎖等,0,2024-11-18,2024-10-30,新御堂筋マネジメント合同会社,,合同会社,東京都,港区,六本木１丁目６番１号泉ガーデンタワー,,13,103,1060032,,,2024-10-30,清算の結了等,,,2021-10-07,1,,,,,シンミドウスジマネジメント,0
331,2010405013189,登記記録の閉鎖等,0,2024-11-18,2024-10-31,Ｄａｃｉａ一般社団法人,,その他の設立登記法人,東京都,港区,西新橋１丁目１番１号ＥＰコンサルティングサービス内,,13,103,1050003,,,2024-10-31,清算の結了等,,,2015-10-05,1,,,,,ダキア,0
334,2010502016879,登記記録の閉鎖等,0,2024-11-18,2024-11-14,有限会社レナウン・ヤマザキ,,有限会社,埼玉県,三郷市,釆女一丁目１７７番３号,,11,237,3410000,,,2024-11-14,清算の結了等,,,2015-10-05,1,,,,,レナウンヤマザキ,0
343,2010705003468,登記記録の閉鎖等,0,2024-11-18,2024-11-11,一般社団法人三晃化成,,その他の設立登記法人,東京都,品川区,上大崎３丁目１番１号目黒セントラルスクエア１５階,,13,109,1410021,,,2024-11-11,清算の結了等,,,2023-01-20,1,,,,,サンコウカセイ,0
346,2010902016405,登記記録の閉鎖等,0,2024-11-18,2024-11-11,有限会社リベラル,,有限会社,東京都,世田谷区,等々力６丁目３８番２号,,13,112,1580082,,,2024-11-11,清算の結了等,,,2015-10-05,1,,,,,リベラル,0
358,2011103006435,登記記録の閉鎖等,0,2024-11-18,2024-11-01,ＲＬＨファンド２合同会社,,合同会社,東京都,新宿区,四谷２丁目９番地１５あると綜合事務所内,,13,104,1600004,,,2024-11-01,清算の結了等,,,2016-08-05,1,,,,,エルアールエイチファンドツー,0
361,2011701015993,登記記録の閉鎖等,0,2024-11-18,2024-11-11,第一三共ＲＤノバーレ株式会社,,株式会社,東京都,江戸川区,北葛西１丁目１６番１３号,,13,123,1340081,,,2024-11-11,清算の結了等,,,2015-10-05,1,,,,,ダイイチサンキョウアールディーノバーレ,0
368,2012701015298,登記記録の閉鎖等,0,2024-11-18,2024-11-01,ｖｉｖｏ　Ｊａｐａｎ株式会社,,株式会社,東京都,小平市,花小金井６丁目３１番２１号,,13,211,1870002,,,2024-11-01,清算の結了等,,,2019-04-17,1,,,,,ヴィーヴォジャパン,0
373,2012802002484,登記記録の閉鎖等,0,2024-11-18,2024-10-31,有限会社ワイ・アンド・エムドリームリミテッド,,有限会社,東京都,立川市,錦町２丁目１番３２号ＹＳビル５Ｆ,,13,202,1900022,,,2024-10-31,清算の結了等,,,2015-10-05,1,,,,,ワイアンドエムドリームリミテッド,0
378,2020001015844,登記記録の閉鎖等,0,2024-11-18,2024-11-05,株式会社プチドゥル,,株式会社,神奈川県,横浜市西区,高島２丁目１１番２号,,14,103,2200011,,,2024-11-05,清算の結了等,,,2015-10-05,1,,,,,プチドウル,0
385,2020001110471,登記記録の閉鎖等,0,2024-11-18,2024-11-14,株式会社中工業,,株式会社,神奈川県,横浜市泉区,和泉町４０９０番地８グレイスマンション２０２号,,14,116,2450016,,,2024-11-14,清算の結了等,,,2015-10-05,1,,,,,,0
387,2020001156572,登記記録の閉鎖等,0,2024-11-18,2024-11-01,デジタルデバイスパートナーズ株式会社,,株式会社,神奈川県,横浜市西区,高島１丁目２番５号横濱ゲートタワー,,14,103,2200011,,,2024-11-01,清算の結了等,,,2024-04-08,1,,,,,デジタルデバイスパートナーズ,0
391,2020002007238,登記記録の閉鎖等,0,2024-11-18,2024-11-01,有限会社山田齊藤工務店,,有限会社,神奈川県,横浜市都筑区,南山田町４７０８番地,,14,118,2240026,,,2024-11-01,清算の結了等,,,2015-10-05,1,,,,,ヤマダサイトウコウムテン,0
393,2020002036484,登記記録の閉鎖等,0,2024-11-18,2024-10-29,有限会社吉沢合紙店,,有限会社,神奈川県,横浜市港北区,樽町４丁目１０－２８ラフィーネ港北１０４,,14,109,2220001,,,2024-10-29,清算の結了等,,,2015-10-05,1,,,,,,0
418,2030001090102,登記記録の閉鎖等,0,2024-11-18,2024-11-12,株式会社ＴＯＴＴＯ　Ｐ＆Ｍ,,株式会社,埼玉県,飯能市,美杉台４丁目３７番地９,,11,209,3570041,,,2024-11-12,清算の結了等,,,2015-10-05,1,,,,,トットピーアンドエム,0
423,2030002046581,登記記録の閉鎖等,0,2024-11-18,2024-11-14,有限会社エービーシー,,有限会社,埼玉県,八潮市,八潮２丁目１９番地１０,,11,234,3400815,,,2024-11-14,清算の結了等,,,2015-10-05,1,,,,,エービーシー,0
428,2030002102013,登記記録の閉鎖等,0,2024-11-18,2024-11-12,有限会社北沢住建,,有限会社,埼玉県,川口市,並木２丁目１１番９号,,11,203,3320034,,,2024-11-12,合併による解散等,1030001142044,令和６年１１月１２日埼玉県川口市並木二丁目１１番１４号株式会社北澤住建（1030001142044）に合併し解散,2015-10-05,1,,,,,キタザワジュウケン,0
429,2030002103184,登記記録の閉鎖等,0,2024-11-18,2024-11-12,有限会社佐藤技建,,有限会社,埼玉県,川口市,北園町３６番１６号,,11,203,3330862,,,2024-11-12,清算の結了等,,,2015-10-05,1,,,,,サトウギケン,0
445,2050002032415,登記記録の閉鎖等,0,2024-11-18,2024-11-11,有限会社サンワ設備,,有限会社,茨城県,北茨城市,磯原町上相田６２４番地の１,,08,215,3191544,,,2024-11-11,清算の結了等,,,2015-10-05,1,,,,,サンワセツビ,0
449,2060002039888,登記記録の閉鎖等,0,2024-11-18,2024-11-11,有限会社ツヤマベーク・コート,,有限会社,栃木県,佐野市,閑馬町８４８番地４,,09,204,3270321,,,2024-11-11,清算の結了等,,,2015-10-05,1,,,,,ツヤマベークコート,0
456,2080103002743,登記記録の閉鎖等,0,2024-11-18,2024-11-14,合同会社リゲル,,合同会社,静岡県,富士市,津田町１７９番１,,22,210,4170035,,,2024-11-14,合併による解散等,1180301038596,令和６年１１月１日愛知県岡崎市大平町字天神前８番地１株式会社アース（1180301038596）に合併し解散,2023-02-07,1,,,,,リゲル,0
465,2110002020272,登記記録の閉鎖等,0,2024-11-18,2024-11-08,有限会社イシカン,,有限会社,新潟県,柏崎市,大字茨目１８９７番地１２,00070875,15,205,9451341,,,2024-11-08,清算の結了等,,,2015-10-05,1,,,,,イシカン,0
469,2120001013144,登記記録の閉鎖等,0,2024-11-18,2024-11-13,トーヨーインダストリー株式会社,,株式会社,大阪府,大阪市東住吉区,東田辺２丁目３番１６号,,27,121,5460032,,,2024-11-13,清算の結了等,,,2015-10-05,1,,,,,トーヨーインダストリー,0
480,2120101054294,登記記録の閉鎖等,0,2024-11-18,2024-11-15,株式会社Ｋ’ｓ　Ｈｏｕｓｅ,,株式会社,大阪府,堺市堺区,中安井町３丁３番６号,,27,141,5900063,,,2024-11-15,清算の結了等,,,2016-02-05,1,,,,,ケーズハウス,0
495,2150005009136,登記記録の閉鎖等,0,2024-11-18,2024-11-14,未来フードソリューション協同組合,,その他の設立登記法人,奈良県,奈良市,松陽台３丁目１番２２号,,29,201,6310007,,,2024-11-14,清算の結了等,,,2019-12-27,1,,,,,ミライフードソリューション,0
497,2160002004163,登記記録の閉鎖等,0,2024-11-18,2024-11-14,有限会社木村建設,,有限会社,滋賀県,大津市,坂本５丁目２６番７号,,25,201,5200113,,,2024-11-14,清算の結了等,,,2015-10-05,1,,,,,キムラケンセツ,0
498,2160002013123,登記記録の閉鎖等,0,2024-11-18,2024-11-14,有限会社クニレーシングマネジメント,,有限会社,滋賀県,栗東市,御園１０６１番地１８,,25,208,5203005,,,2024-11-14,清算の結了等,,,2015-10-05,1,,,,,,0
502,2180001033376,登記記録の閉鎖等,0,2024-11-18,2024-11-05,株式会社ラオ,,株式会社,愛知県,名古屋市中村区,名駅５丁目１０番７号,,23,105,4500002,,,2024-11-05,清算の結了等,,,2015-10-05,1,,,,,ラオ,0
507,2180001113434,登記記録の閉鎖等,0,2024-11-18,2024-11-11,株式会社Ｗａｒａ　Ｆｕｋｕ,,株式会社,三重県,四日市市,北浜田町７番２０号,,24,202,5100062,,,2024-11-11,合併による解散等,1180001108567,令和６年１１月１０日三重県四日市市北浜田町７番２０号株式会社ＳＥＥＤ（1180001108567）に合併し解散,2015-10-05,1,,,,,ワラフク,0
514,2180002056376,登記記録の閉鎖等,0,2024-11-18,2024-11-06,株式会社エスウェル,,株式会社,愛知県,名古屋市中区,丸の内３丁目１８番２２号,,23,106,4600002,,,2024-11-06,合併による解散等,1180001072929,令和６年８月１日名古屋市中区丸の内三丁目１８番２２号株式会社リュックスソリューションズ（1180001072929）に合併し解散,2015-10-05,1,,,,,エスウェル,0
515,2180301037523,登記記録の閉鎖等,0,2024-11-18,2024-11-11,株式会社ＦＦＬ,,株式会社,愛知県,岡崎市,城南町３丁目２番地６,,23,202,4440835,,,2024-11-11,清算の結了等,,,2023-07-04,1,,,,,エフエフエル,0
526,2210001001800,登記記録の閉鎖等,0,2024-11-18,2024-11-13,株式会社千京組,,株式会社,福井県,福井市,宝永１丁目２８番１０号,,18,201,9100004,,,2024-11-13,清算の結了等,,,2015-10-05,1,,,,,センキョウグミ,0
531,2220002001955,登記記録の閉鎖等,0,2024-11-18,2024-11-13,有限会社かむら,,有限会社,石川県,金沢市,長町２丁目４番２４号,,17,201,9200865,,,2024-11-13,清算の結了等,,,2015-10-05,1,,,,,カムラ,0
538,2240002009088,登記記録の閉鎖等,0,2024-11-18,2024-11-14,有限会社ソシオ,,有限会社,広島県,広島市安佐南区,長束西５丁目１０番１４号,,34,105,7310136,,,2024-11-14,清算の結了等,,,2015-10-05,1,,,,,ソシオ,0
540,2250001013338,登記記録の閉鎖等,0,2024-11-18,2024-11-11,株式会社大辰,,株式会社,山口県,下関市,彦島西山町３丁目７番３４号,,35,201,7500093,,,2024-11-11,清算の結了等,,,2015-10-05,1,,,,,ダイシン,0
546,2280003001676,登記記録の閉鎖等,0,2024-11-18,2024-10-01,合同会社隠岐ゆらぎ,,合同会社,島根県,隠岐郡隠岐の島町,中町目貫の四９の６,,32,528,6850013,,,2024-10-01,合併による解散等,8280003001687,令和６年１０月１日島根県隠岐郡隠岐の島町中町目貫ノ四９－６合同会社ｎｏｃｈｉ（8280003001687）に合併し解散,2022-12-15,1,,,,,,0
547,2290001056548,登記記録の閉鎖等,0,2024-11-18,2024-10-21,株式会社ビアベルデ,,株式会社,福岡県,久留米市,六ツ門町２１番地２,,40,203,8300031,,,2024-10-21,清算の結了等,,,2015-10-05,1,,,,,ビアベルデ,0
558,2320001008735,登記記録の閉鎖等,0,2024-11-18,2024-11-15,株式会社ルミィナーレ,,株式会社,大分県,速見郡日出町,大字大神１１０１番地３,,44,341,8791504,,,2024-11-15,清算の結了等,,,2015-10-05,1,,,,,ルミィナーレ,0
561,2330002016653,登記記録の閉鎖等,0,2024-11-18,2024-11-01,有限会社イーグル,,有限会社,熊本県,菊池郡菊陽町,大字津久礼３０２７番地５,,43,404,8691101,,,2024-11-01,合併による解散等,6330001001339,令和６年１１月１日熊本市東区八反田一丁目３番７０号株式会社イーグル（6330001001339）に合併し解散,2015-10-05,1,,,,,イーグル,0
568,2380001010207,登記記録の閉鎖等,0,2024-11-18,2024-11-05,佐川エンジニアリングサービス株式会社,,株式会社,福島県,白河市,関辺上ノ原２７番地,,07,205,9610021,,,2024-11-05,清算の結了等,,,2015-10-05,1,,,,,サガワエンジニアリングサービス,0
569,2380001018927,登記記録の閉鎖等,0,2024-11-18,2024-10-31,株式会社エーエム物流,,株式会社,福島県,会津若松市,館脇町６番６号,,07,202,9650836,,,2024-10-31,清算の結了等,,,2015-10-05,1,,,,,エーエムブツリュウ,0
570,2380001029668,登記記録の閉鎖等,0,2024-11-18,2024-11-05,株式会社グリーン,,株式会社,福島県,いわき市,平字九品寺町１番地の１６コーポ松崎１０１号室,,07,204,9708026,,,2024-11-05,清算の結了等,,,2018-12-27,1,,,,,グリーン,0
576,2430001014805,登記記録の閉鎖等,0,2024-11-18,2024-11-13,北新アロー株式会社,,株式会社,北海道,札幌市豊平区,西岡五条２丁目１番２９号,,01,105,0620035,,,2024-11-13,清算の結了等,,,2015-10-05,1,,,,,ホクシンアロー,0
584,2450002010603,登記記録の閉鎖等,0,2024-11-18,2024-11-12,有限会社枝幸建設廃材処理場,,有限会社,北海道,枝幸郡枝幸町,新港町６２０６番地２,,01,514,0985808,,,2024-11-12,清算の結了等,,,2015-10-05,1,,,,,エサシケンセツハイザイショリジョウ,0
592,3010001101165,登記記録の閉鎖等,0,2024-11-18,2024-11-06,株式会社エム・アイ・シー,,株式会社,神奈川県,川崎市宮前区,神木本町４丁目７－１,,14,136,2160031,,,2024-11-06,清算の結了等,,,2015-10-05,1,,,,,エムアイシー,0
599,3010003018250,登記記録の閉鎖等,0,2024-11-18,2024-11-01,合同会社ＫＩＣインベストメント,,合同会社,東京都,千代田区,神田錦町３丁目１９番楠本第３ビル４階,,13,101,1010054,,,2024-11-01,合併による解散等,9010003027782,令和６年１１月１日東京都千代田区神田錦町三丁目１９番ＫＩＣホールディングス株式会社（9010003027782）に合併し解散,2015-10-05,1,,,,,ケイアイシーインベストメント,0
620,3010005004001,登記記録の閉鎖等,0,2024-11-18,2024-11-08,中央区土地開発公社,,その他の設立登記法人,東京都,中央区,築地１丁目１番１号中央区役所内,,13,102,1040045,,,2024-11-08,清算の結了等,,,2015-10-05,1,,,,,チュウオウク,0
623,3010102010439,登記記録の閉鎖等,0,2024-11-18,2024-11-13,有限会社菱山動物病院,,有限会社,東京都,八王子市,宇津木町７５０番地１,,13,201,1920024,,,2024-11-13,清算の結了等,,,2015-10-05,1,,,,,ヒシヤマドウブツビョウイン,0
638,3010403028378,登記記録の閉鎖等,0,2024-11-18,2024-10-31,合同会社ｎｕｎ,,合同会社,東京都,港区,芝浦４丁目２１番１－４８０４号,,13,103,1080023,,,2024-10-31,清算の結了等,,,2022-08-29,1,,,,,ナウン,0
641,3010405018179,登記記録の閉鎖等,0,2024-11-18,2024-10-30,一般社団法人ルークのおうち,,その他の設立登記法人,東京都,港区,芝１丁目２番１－１４１０号,,13,103,1050014,,,2024-10-30,清算の結了等,,,2019-11-05,1,,,,,ルークノオウチ,0
646,3010702002827,登記記録の閉鎖等,0,2024-11-18,2024-11-11,有限会社京浜でんき,,有限会社,東京都,品川区,東大井２丁目２３番１号,,13,109,1400011,,,2024-11-11,清算の結了等,,,2015-10-05,1,,,,,ケイヒンデンキ,0
651,3010802005176,登記記録の閉鎖等,0,2024-11-18,2024-11-07,有限会社コータス,,有限会社,東京都,大田区,西馬込２丁目１１番８号,,13,111,1430026,,,2024-11-07,清算の結了等,,,2015-10-05,1,,,,,コータス,0
658,3011001136580,登記記録の閉鎖等,0,2024-11-18,2024-10-17,アイ・タップ・テクノロジーズ株式会社,,株式会社,東京都,渋谷区,上原１丁目２２番３号,,13,113,1510064,,,2024-10-17,清算の結了等,,,2020-10-26,1,,,,,アイタップテクノロジーズ,0
707,3021003014354,登記記録の閉鎖等,0,2024-11-18,2024-11-01,合同会社ブルーオーシャン,,合同会社,神奈川県,川崎市宮前区,菅生３丁目４１－１４－１０２,,14,136,2160015,,,2024-11-01,清算の結了等,,,2024-04-16,1,,,,,ブルーオーシャン,0
716,3030001118034,登記記録の閉鎖等,0,2024-11-18,2024-11-13,株式会社サイホク,,株式会社,埼玉県,熊谷市,高柳１０４番地,,11,202,3600855,,,2024-11-13,清算の結了等,,,2017-01-12,1,,,,,サイホク,0
727,3040001118768,登記記録の閉鎖等,0,2024-11-18,2024-11-06,株式会社白ゆりヘルパーステーション,,株式会社,千葉県,鴨川市,横渚１５９８番地１,,12,223,2960001,,,2024-11-06,清算の結了等,,,2021-06-07,1,,,,,シラユリヘルパーステーション,0
732,3040003023487,登記記録の閉鎖等,0,2024-11-18,2024-11-12,合同会社ボーンキュアリング,,合同会社,千葉県,船橋市,藤原３丁目１２番１０号,,12,204,2730047,,,2024-11-12,清算の結了等,,,2023-10-10,1,,,,,ボーンキュアリング,0
733,3050001023166,登記記録の閉鎖等,0,2024-11-18,2024-11-08,株式会社小針,,株式会社,茨城県,日立市,留町１２７０番地の９３,,08,202,3191231,,,2024-11-08,清算の結了等,,,2015-10-05,1,,,,,コバリ,0
740,3070002011267,登記記録の閉鎖等,0,2024-11-18,2024-11-14,テルース有限会社,,有限会社,群馬県,高崎市,足門町１５０番地の１,,10,202,3703531,,,2024-11-14,清算の結了等,,,2015-10-05,1,,,,,テルース,0
742,3070002029037,登記記録の閉鎖等,0,2024-11-18,2024-11-14,有限会社栗原製作所,,有限会社,群馬県,太田市,新田中江田町２１９番地の３,,10,205,3700332,,,2024-11-14,清算の結了等,,,2015-10-05,1,,,,,クリバラセイサクジョ,0
743,3070003004179,登記記録の閉鎖等,0,2024-11-18,2024-11-15,ｒｅｌｕｘａ合同会社,,合同会社,群馬県,安中市,安中１丁目３－１１,,10,211,3790116,,,2024-11-15,清算の結了等,,,2021-07-14,1,,,,,リラクサ,0
760,3100002038678,登記記録の閉鎖等,0,2024-11-18,2024-11-13,株式会社菓音,,株式会社,東京都,世田谷区,南烏山５丁目１７番８号,,13,112,1570062,,,2024-11-13,合併による解散等,7100001023223,令和６年１１月１日長野県下伊那郡高森町下市田３１２３番地株式会社マツザワ（7100001023223）に合併し解散,2015-10-05,1,,,,,カノン,0
778,3120005000591,登記記録の閉鎖等,0,2024-11-18,2024-11-14,大淀丸三食糧企業組合,,その他の設立登記法人,大阪府,大阪市北区,長柄中３丁目６番１１号,,27,127,5310062,,,2024-11-14,清算の結了等,,,2015-10-05,1,,,,,オオヨドマルサンショクリョウ,0
780,3120101033710,登記記録の閉鎖等,0,2024-11-18,2024-11-12,株式会社協進社,,株式会社,大阪府,河内長野市,大矢船西町２－３－６０３,,27,216,5860073,,,2024-11-12,清算の結了等,,,2015-10-05,1,,,,,キョウシンシャ,0
785,3120902011311,登記記録の閉鎖等,0,2024-11-18,2024-11-12,有限会社ベストライン,,有限会社,大阪府,高槻市,野田３丁目２４番１号,,27,207,5690013,,,2024-11-12,清算の結了等,,,2015-10-05,1,,,,,ベストライン,0
786,3122003002388,登記記録の閉鎖等,0,2024-11-18,2024-11-13,合同会社山本造園石材,,合同会社,大阪府,東大阪市,日下町８丁目２番３１号,,27,227,5798003,,,2024-11-13,清算の結了等,,,2022-07-29,1,,,,,ヤマモトゾウエンセキザイ,0
799,3140002032140,登記記録の閉鎖等,0,2024-11-18,2024-11-11,有限会社石谷商会,,有限会社,兵庫県,揖保郡太子町,矢田部３６４番地の６,,28,464,6711522,,,2024-11-11,清算の結了等,,,2015-10-05,1,,,,,イシタニショウカイ,0
800,3140002034384,登記記録の閉鎖等,0,2024-11-18,2024-11-14,有限会社サンウッド住宅,,有限会社,兵庫県,相生市,汐見台６番地の５,,28,208,6780002,,,2024-11-14,清算の結了等,,,2015-10-05,1,,,,,サンウッドジュウタク,0
817,3180001141302,登記記録の閉鎖等,0,2024-11-18,2024-11-06,トーエイホールディングス株式会社,,株式会社,愛知県,知多郡東浦町,大字藤江字ヤンチャ２８番地の１,,23,442,4702105,,,2024-11-06,合併による解散等,8180001092838,令和６年１１月１日愛知県知多郡東浦町大字藤江字ヤンチャ２８番地の１トーエイ株式会社（8180001092838）に合併し解散,2020-05-25,1,,,,,トーエイホールディングス,0
833,3180301016740,登記記録の閉鎖等,0,2024-11-18,2024-11-12,株式会社ＣｒｅｓｔＬｉｆｅ,,株式会社,愛知県,安城市,御幸本町１６番２号,,23,212,4460032,,,2024-11-12,清算の結了等,,,2015-10-05,1,,,,,クレストライフ,0
834,3190001028416,登記記録の閉鎖等,0,2024-11-18,2024-11-13,株式会社農楽師事,,株式会社,三重県,伊賀市,玉瀧６０６８番地,,24,216,5181322,,,2024-11-13,清算の結了等,,,2021-06-14,1,,,,,ノウラクシジ,0
841,3240001049737,登記記録の閉鎖等,0,2024-11-18,2024-11-15,株式会社ケンジオ,,株式会社,広島県,広島市南区,松原町３番２－２８１０号,,34,103,7320822,,,2024-11-15,清算の結了等,,,2016-08-02,1,,,,,ケンジオ,0
861,3290003002747,登記記録の閉鎖等,0,2024-11-18,2024-10-10,合名会社松村商店,,合名会社,福岡県,久留米市,野中町８９２番地,,40,203,8390862,,,2024-10-10,清算の結了等,,,2015-10-05,1,,,,,マツムラショウテン,0
872,3310001009840,登記記録の閉鎖等,0,2024-11-18,2024-11-14,株式会社ソーイングパルカス,,株式会社,長崎県,島原市,有明町湯江丙５０３番地,,42,203,8591403,,,2024-11-14,清算の結了等,,,2015-10-05,1,,,,,ソーイングパルカス,0
875,3320001018709,登記記録の閉鎖等,0,2024-11-18,2024-11-14,株式会社チーズ,,株式会社,大分県,大分市,金池南１丁目５番１号,,44,201,8700839,,,2024-11-14,清算の結了等,,,2021-11-02,1,,,,,チーズ,0
876,3320005003335,登記記録の閉鎖等,0,2024-11-18,2024-10-31,農事組合法人拝田柑きつ園,,その他の設立登記法人,大分県,宇佐市,大字下拝田２２１番地,,44,211,8790465,,,2024-10-31,清算の結了等,,,2015-10-05,1,,,,,,0
893,3380002018280,登記記録の閉鎖等,0,2024-11-18,2024-11-01,有限会社昇企画建設,,有限会社,福島県,西白河郡泉崎村,大字関和久字八雲神社４番地４,,07,464,9690106,,,2024-11-01,清算の結了等,,,2015-10-05,1,,,,,ノボルキカクケンセツ,0
907,3450002001972,登記記録の閉鎖等,0,2024-11-18,2024-11-14,有限会社共同防災,,有限会社,北海道,旭川市,東光十三条８丁目１番１１号,,01,204,0788353,,,2024-11-14,清算の結了等,,,2015-10-05,1,,,,,キョウドウボウサイ,0
948,4010003043933,登記記録の閉鎖等,0,2024-11-18,2024-11-05,合同会社さくら,,合同会社,東京都,文京区,湯島１丁目２番７－１３０６号,,13,105,1130034,,,2024-11-05,清算の結了等,,,2024-06-06,1,,,,,サクラ,0
955,4010401096665,登記記録の閉鎖等,0,2024-11-18,2024-11-05,株式会社ソリア,,株式会社,神奈川県,横浜市青葉区,鴨志田町５３３番地,,14,117,2270033,,,2024-11-05,清算の結了等,,,2015-10-05,1,,,,,ソリア,0
956,4010401097473,登記記録の閉鎖等,0,2024-11-18,2024-10-30,株式会社シュトゥットガルト,,株式会社,東京都,港区,芝浦４丁目１６番２３号,,13,103,1080023,,,2024-10-30,清算の結了等,,,2015-10-05,1,,,,,シュトゥットガルト,0
965,4010403026109,登記記録の閉鎖等,0,2024-11-18,2024-10-30,新御堂筋インベストメンツ１合同会社,,合同会社,東京都,港区,六本木１丁目６番１号泉ガーデンタワー,,13,103,1060032,,,2024-10-30,清算の結了等,,,2021-09-14,1,,,,,シンミドウスジインベストメンツワン,0
967,4010601008296,登記記録の閉鎖等,0,2024-11-18,2024-11-14,アサヒ建装株式会社,,株式会社,東京都,墨田区,八広１丁目３５番２０号,,13,107,1310041,,,2024-11-14,清算の結了等,,,2015-10-05,1,,,,,,0
972,4010705003532,登記記録の閉鎖等,0,2024-11-18,2024-11-11,一般社団法人中和産業,,その他の設立登記法人,東京都,品川区,上大崎３丁目１番１号目黒セントラルスクエア１５階,,13,109,1410021,,,2024-11-11,清算の結了等,,,2023-08-25,1,,,,,チュウワサンギョウ,0
1003,4011801026542,登記記録の閉鎖等,0,2024-11-18,2024-11-11,株式会社ライフシェアワークス,,株式会社,東京都,足立区,千住２丁目４１番平村ビル３Ｆ,,13,121,1200034,,,2024-11-11,清算の結了等,,,2015-10-05,1,,,,,ライフシェアワークス,0
1015,4013202013814,登記記録の閉鎖等,0,2024-11-18,2024-10-21,有限会社スタジオフェイズ,,有限会社,東京都,目黒区,碑文谷１丁目１４番１３号,,13,110,1520003,,,2024-10-21,清算の結了等,,,2015-10-05,1,,,,,スタジオフェイズ,0
1024,4020001094754,登記記録の閉鎖等,0,2024-11-18,2024-10-07,住電オプコム株式会社,,株式会社,神奈川県,横浜市栄区,飯島町１１２番地,,14,115,2440842,,,2024-10-07,合併による解散等,2180001076318,令和６年１０月１日愛知県小牧市東一丁目２２６番地日本通信電材株式会社（2180001076318）に合併し解散,2015-10-05,1,,,,,スミデンオプコム,0
1036,4020002029404,登記記録の閉鎖等,0,2024-11-18,2024-10-30,有限会社大阪屋,,有限会社,神奈川県,横浜市南区,榎町１丁目２４番地１－６０７号,,14,105,2320044,,,2024-10-30,清算の結了等,,,2015-10-05,1,,,,,オオサカヤ,0
1037,4020002058576,登記記録の閉鎖等,0,2024-11-18,2024-11-05,有限会社アイ・アンド・アイ,,有限会社,神奈川県,横浜市西区,南幸２丁目２０番５号,,14,103,2200005,,,2024-11-05,清算の結了等,,,2015-10-05,1,,,,,アイアンドアイ,0
1038,4020003008786,登記記録の閉鎖等,0,2024-11-18,2024-11-01,合同会社ＵＭＥ,,合同会社,神奈川県,横浜市西区,浅間町３丁目１７６－１９,,14,103,2200072,,,2024-11-01,清算の結了等,,,2015-10-05,1,,,,,ユーエムイー,0
1055,4040002023280,登記記録の閉鎖等,0,2024-11-18,2024-11-11,第一興業有限会社,,有限会社,千葉県,船橋市,南本町２２番１０号,,12,204,2730004,,,2024-11-11,清算の結了等,,,2015-10-05,1,,,,,ダイイチコウギョウ,0
1067,4070003001968,登記記録の閉鎖等,0,2024-11-18,2024-11-14,合同会社アルテック,,合同会社,群馬県,高崎市,新町２２４６番地１コンフォート・ディアス新町２０１号,,10,202,3701301,,,2024-11-14,清算の結了等,,,2015-10-05,1,,,,,アルテック,0
1068,4080001010771,登記記録の閉鎖等,0,2024-11-18,2024-11-12,日静エンジニアリング株式会社,,株式会社,静岡県,静岡市駿河区,丸子芹が谷町１０番３０－１号,,22,102,4210104,,,2024-11-12,清算の結了等,,,2015-10-05,1,,,,,ニッセイエンジニアリング,0
1096,4120101042917,登記記録の閉鎖等,0,2024-11-18,2024-11-13,オオシロ株式会社,,株式会社,大阪府,泉北郡忠岡町,馬瀬２丁目１６番３号,,27,341,5950804,,,2024-11-13,清算の結了等,,,2015-10-05,1,,,,,オオシロ,0
1098,4120101046100,登記記録の閉鎖等,0,2024-11-18,2024-11-13,株式会社千勝堂,,株式会社,大阪府,岸和田市,小松里町２０３４番地,,27,202,5960821,,,2024-11-13,合併による解散等,7100001023223,令和６年１１月１日長野県下伊那郡高森町下市田３１２３番地株式会社マツザワ（7100001023223）に合併し解散,2015-10-05,1,,,,,センショウドウ,0
1099,4120101049937,登記記録の閉鎖等,0,2024-11-18,2024-11-14,株式会社Ｎ　Ｅ　ＰＲＯＪＥＣＴ,,株式会社,大阪府,堺市中区,深阪１丁１４番５２号,,27,142,5998253,,,2024-11-14,清算の結了等,,,2015-10-05,1,,,,,エヌイープロジェクト,0
1100,4120101051686,登記記録の閉鎖等,0,2024-11-18,2024-11-13,株式会社レールミューズ,,株式会社,大阪府,堺市堺区,宿屋町西３丁１－２７ポルト堺ＩＩ５０３,00125791,27,141,5900937,,,2024-11-13,清算の結了等,,,2015-10-05,1,,,,,レールミューズ,0
1103,4120901046118,登記記録の閉鎖等,0,2024-11-18,2024-11-11,株式会社ＣＬＩＰ,,株式会社,大阪府,豊中市,大島町３丁目５－２６－３０１,,27,203,5610824,,,2024-11-11,合併による解散等,5180001119362,令和６年１１月１日名古屋市守山区西川原町２２株式会社ｎｏｔｔｅ（5180001119362）に合併し解散,2022-06-16,1,,,,,クリップ,0
1109,4130001030070,登記記録の閉鎖等,0,2024-11-18,2024-11-13,株式会社小林商店,,株式会社,京都府,向日市,寺戸町東野辺１８番地の４,,26,208,6170002,,,2024-11-13,清算の結了等,,,2015-10-05,1,,,,,コバヤシショウテン,0
1114,4130002011763,登記記録の閉鎖等,0,2024-11-18,2024-11-13,京都貨物運輸有限会社,,有限会社,京都府,京都市南区,久世大藪町４４８番地の１７,,26,107,6010000,,,2024-11-13,清算の結了等,,,2015-10-05,1,,,,,キョウトカモツウンユ,0
1129,4160001020003,登記記録の閉鎖等,0,2024-11-18,2024-11-14,ＭＳＫ株式会社,,株式会社,滋賀県,米原市,能登瀬３８７番地,,25,214,5210082,,,2024-11-14,清算の結了等,,,2017-02-06,1,,,,,エムエスケイ,0
1133,4180001074906,登記記録の閉鎖等,0,2024-11-18,2024-11-12,株式会社ホーエイ,,株式会社,愛知県,春日井市,白山町５丁目２１番地の５,,23,206,4870034,,,2024-11-12,合併による解散等,7180301028922,令和６年１１月１日愛知県豊田市鴛鴨町向山１７３番地３ヤマトセラム株式会社（7180301028922）に合併し解散,2015-10-05,1,,,,,ホーエイ,0
1135,4180001081753,登記記録の閉鎖等,0,2024-11-18,2024-11-08,よつば警備株式会社,,株式会社,愛知県,春日井市,下条町１丁目３番地２３,,23,206,4860923,,,2024-11-08,清算の結了等,,,2015-10-05,1,,,,,ヨツバケイビ,0
1138,4180001103549,登記記録の閉鎖等,0,2024-11-18,2024-11-11,株式会社平和工業,,株式会社,愛知県,あま市,七宝町沖之島上折５１番地,,23,237,4970001,,,2024-11-11,清算の結了等,,,2015-10-05,1,,,,,ヘイワコウギョウ,0
1156,4220001018511,登記記録の閉鎖等,0,2024-11-18,2024-11-13,株式会社ジェイテクノス,,株式会社,石川県,白山市,鹿島町へ１３番地,,17,210,9290201,,,2024-11-13,清算の結了等,,,2015-10-05,1,,,,,ジェイテクノス,0
1157,4240002027732,登記記録の閉鎖等,0,2024-11-18,2024-11-14,有限会社重津電機,,有限会社,広島県,東広島市,黒瀬町市飯田８０４番地の２１,,34,212,7392626,,,2024-11-14,清算の結了等,,,2015-10-05,1,,,,,シゲツデンキ,0
1162,4250002004441,登記記録の閉鎖等,0,2024-11-18,2024-11-13,有限会社オートセンターブラザー,,有限会社,山口県,宇部市,恩田町５丁目２番３号,,35,202,7550023,,,2024-11-13,清算の結了等,,,2015-10-05,1,,,,,オートセンターブラザー,0
1166,4290001005247,登記記録の閉鎖等,0,2024-11-18,2024-10-30,株式会社エスエス商会,,株式会社,福岡県,福岡市早良区,賀茂２丁目３５番３４号,,40,137,8140164,,,2024-10-30,清算の結了等,,,2015-10-05,1,,,,,エスエスショウカイ,0
1182,4330002007378,登記記録の閉鎖等,0,2024-11-18,2024-10-29,有限会社冨永商店,,有限会社,熊本県,熊本市北区,弓削２丁目３番２８号,,43,105,8618002,,,2024-10-29,清算の結了等,,,2015-10-05,1,,,,,トミナガショウテン,0
1205,4430001067272,登記記録の閉鎖等,0,2024-11-18,2024-11-11,株式会社ＮＫトリム企画,,株式会社,北海道,登別市,中央町１丁目４番地１０,,01,230,0590012,,,2024-11-11,清算の結了等,,,2015-10-05,1,,,,,エヌケートリムキカク,0
1208,4430003015592,登記記録の閉鎖等,0,2024-11-18,2024-11-13,合同会社エビス,,合同会社,北海道,札幌市東区,北四十二条東１丁目４番１５－２０２号,,01,103,0070842,,,2024-11-13,清算の結了等,,,2023-11-02,1,,,,,エビス,0
1219,4500001020612,登記記録の閉鎖等,0,2024-11-18,2024-11-15,株式会社仙波精機,,株式会社,愛媛県,松山市,中野町甲３０４番地３,,38,201,7911121,,,2024-11-15,清算の結了等,,,2017-05-12,1,,,,,,0
1229,5010001140368,登記記録の閉鎖等,0,2024-11-18,2024-11-01,Ｊａｐａｎ　Ａｒｔ　Ｄｅａｌｅｒｓ　Ｅｎｔｅｒｐｒｉｓｅ株式会社,,株式会社,東京都,中央区,八丁堀３丁目１番７号永井ビル１階,,13,102,1040032,,,2024-11-01,合併による解散等,3010801030654,令和６年１１月１日東京都中央区京橋二丁目５番１号ＴＣＭビル１階鑑古堂株式会社（3010801030654）に合併し解散,2015-10-05,1,,,,,ジャパンアートディーラーズエンタープライズ,0
1291,5010701009623,登記記録の閉鎖等,0,2024-11-18,2024-11-11,株式会社明河商事,,株式会社,東京都,品川区,平塚２丁目１５番４号,,13,109,1420051,,,2024-11-11,清算の結了等,,,2015-10-05,1,,,,,アケガワショウジ,0
1298,5010801016750,登記記録の閉鎖等,0,2024-11-18,2024-11-11,株式会社八重洲組,,株式会社,東京都,練馬区,田柄２丁目２９番１７号アーバンタガラ１０５,,13,120,1790073,,,2024-11-11,清算の結了等,,,2015-10-05,1,,,,,ヤエスグミ,0
1303,5011001040260,登記記録の閉鎖等,0,2024-11-18,2024-10-21,株式会社コロプラニング,,株式会社,東京都,渋谷区,宇田川町２－１,,13,113,1500042,,,2024-10-21,清算の結了等,,,2015-10-05,1,,,,,コロプランニング,0
1333,5012701011484,登記記録の閉鎖等,0,2024-11-18,2024-11-05,東京信用保証株式会社,,株式会社,東京都,小平市,上水本町６丁目１９番３２号,,13,211,1870022,,,2024-11-05,清算の結了等,,,2015-10-05,1,,,,,トウキョウシンヨウホショウ,0
1355,5020002035260,登記記録の閉鎖等,0,2024-11-18,2024-10-30,有限会社パース工房,,有限会社,神奈川県,横浜市港北区,大曽根台２７番３号,,14,109,2220004,,,2024-10-30,清算の結了等,,,2015-10-05,1,,,,,パースコウボウ,0
1358,5020002057362,登記記録の閉鎖等,0,2024-11-18,2024-11-05,有限会社光峰,,有限会社,神奈川県,横浜市都筑区,牛久保西１丁目１０番１６号,,14,118,2240015,,,2024-11-05,清算の結了等,,,2015-10-05,1,,,,,コウホウ,0
1366,5021002044086,登記記録の閉鎖等,0,2024-11-18,2024-11-15,有限会社花富美,,有限会社,神奈川県,座間市,ひばりが丘１丁目２４番１１号,,14,216,2520003,,,2024-11-15,清算の結了等,,,2015-10-05,1,,,,,,0
1370,5030001015774,登記記録の閉鎖等,0,2024-11-18,2024-11-13,株式会社ブレスト,,株式会社,埼玉県,上尾市,大字瓦葺２４１７番地３,,11,219,3620022,,,2024-11-13,清算の結了等,,,2015-10-05,1,,,,,ブレスト,0
1371,5030001034741,登記記録の閉鎖等,0,2024-11-18,2024-11-13,株式会社エムシークラフト,,株式会社,埼玉県,草加市,松原２丁目４番１６－１００３号,,11,221,3400041,,,2024-11-13,清算の結了等,,,2015-10-05,1,,,,,エムシークラフト,0
1375,5030001154820,登記記録の閉鎖等,0,2024-11-18,2024-11-07,株式会社トウチュウカソウ,,株式会社,東京都,葛飾区,四つ木１丁目１５番７号,,13,122,1240011,,,2024-11-07,清算の結了等,,,2023-07-07,1,,,,,トウチュウカソウ,0
1384,5030002034740,登記記録の閉鎖等,0,2024-11-18,2024-11-12,有限会社浅見パンチング,,有限会社,埼玉県,入間市,大字仏子１２２４番地１,,11,225,3580053,,,2024-11-12,清算の結了等,,,2015-10-05,1,,,,,アサミパンチング,0
1390,5040001007548,登記記録の閉鎖等,0,2024-11-18,2024-11-12,安本エンジニアリング株式会社,,株式会社,千葉県,千葉市花見川区,横戸町８５５番地,,12,102,2620001,,,2024-11-12,清算の結了等,,,2015-10-05,1,,,,,ヤスモトエンジニアリング,0
1411,5060003003361,登記記録の閉鎖等,0,2024-11-18,2024-11-13,合同会社ＳｏＲａ,,合同会社,栃木県,那須烏山市,志鳥１番地,,09,215,3210501,,,2024-11-13,清算の結了等,,,2020-05-12,1,,,,,ソラ,0
1417,5080102004267,登記記録の閉鎖等,0,2024-11-18,2024-11-15,有限会社斉藤設備,,有限会社,静岡県,裾野市,茶畑１５７７番地の１７,,22,220,4101121,,,2024-11-15,清算の結了等,,,2015-10-05,1,,,,,サイトウセツビ,0
1418,5080403003447,登記記録の閉鎖等,0,2024-11-18,2024-11-15,アイエム商工合同会社,,合同会社,静岡県,磐田市,竜洋中島１１２０番地２７,,22,211,4380201,,,2024-11-15,清算の結了等,,,2017-05-22,1,,,,,アイエムショウコウ,0
1423,5100001006163,登記記録の閉鎖等,0,2024-11-18,2024-11-08,株式会社シーデー,,株式会社,長野県,千曲市,大字倉科字原１０５３番地１３,,20,218,3870004,,,2024-11-08,清算の結了等,,,2015-10-05,1,,,,,シーデー,0
1458,5140001004790,登記記録の閉鎖等,0,2024-11-18,2024-10-09,株式会社サンシャ,,株式会社,兵庫県,神戸市西区,南別府１丁目１番地の１,,28,111,6512116,,,2024-10-09,合併による解散等,6140001134397,令和６年１０月１日神戸市西区南別府一丁目１番地の１株式会社サンシャ（6140001134397）に合併し解散,2015-10-05,1,,,,,サンシャ,0
1460,5140001013536,登記記録の閉鎖等,0,2024-11-18,2024-11-13,高田住宅株式会社,,株式会社,兵庫県,神戸市兵庫区,水木通８丁目８番地,,28,105,6520802,,,2024-11-13,清算の結了等,,,2015-10-05,1,,,,,タカタジュウタク,0
1461,5140001047963,登記記録の閉鎖等,0,2024-11-18,2024-11-13,扇屋プラスチツク株式会社,,株式会社,兵庫県,尼崎市,戸ノ内町５丁目１番１号,,28,202,6610961,,,2024-11-13,清算の結了等,,,2015-10-05,1,,,,,,0
1466,5160002012832,登記記録の閉鎖等,0,2024-11-18,2024-11-12,有限会社ハヤショー,,有限会社,滋賀県,甲賀市,水口町松尾６６４番地３０,,25,209,5280074,,,2024-11-12,清算の結了等,,,2015-10-05,1,,,,,ハヤショー,0
1472,5180001093335,登記記録の閉鎖等,0,2024-11-18,2024-11-07,エレコン情報システム株式会社,,株式会社,愛知県,半田市,栄町２丁目４９番地,,23,205,4750846,,,2024-11-07,清算の結了等,,,2015-10-05,1,,,,,エレコンジョウホウシステム,0
1475,5180001128669,登記記録の閉鎖等,0,2024-11-18,2024-11-06,ハイパーコネクション株式会社,,株式会社,愛知県,名古屋市千種区,御影町２丁目２５番地の２御影ハウス１０５号,,23,101,4640014,,,2024-11-06,清算の結了等,,,2017-07-19,1,,,,,ハイパーコネクション,0
1490,5240002005869,登記記録の閉鎖等,0,2024-11-18,2024-11-12,有限会社向洋酒販,,有限会社,広島県,広島市南区,向洋新町２丁目１１番１号,,34,103,7340055,,,2024-11-12,清算の結了等,,,2015-10-05,1,,,,,コウヨウシュハン,0
1512,5350002013844,登記記録の閉鎖等,0,2024-11-18,2024-11-13,有限会社海老原ガラス工事店,,有限会社,宮崎県,都城市,都北町６０４１番地１,,45,202,8850004,,,2024-11-13,清算の結了等,,,2015-10-05,1,,,,,エビハラガラスコウジテン,0
1526,5450003000006,登記記録の閉鎖等,0,2024-11-18,2024-11-13,杉本合名会社,,合名会社,北海道,旭川市,三条通１２丁目右５号４５６番地,,01,204,0700033,,,2024-11-13,清算の結了等,,,2015-10-05,1,,,,,スギモト,0
1529,5490001010614,登記記録の閉鎖等,0,2024-11-18,2024-11-15,株式会社ＫＯＣＨＩ　ｎｏｉｅ,,株式会社,高知県,高知市,愛宕町２丁目１９番１０号ボアソルテ３０１,,39,201,7800051,,,2024-11-15,清算の結了等,,,2023-10-16,1,,,,,コウチノイエ,0
1539,6010002001733,登記記録の閉鎖等,0,2024-11-18,2024-11-01,有限会社キタノ,,有限会社,東京都,文京区,小石川１丁目１６番１２号,,13,105,1120002,,,2024-11-01,合併による解散等,7010001002062,令和６年１１月１日東京都文京区小石川一丁目１６番１２号株式会社北野屋（7010001002062）に合併し解散,2015-10-05,1,,,,,キタノ,0
1578,6010401171706,登記記録の閉鎖等,0,2024-11-18,2024-10-31,株式会社ポテンシャル,,株式会社,東京都,港区,麻布台１丁目３番１号,,13,103,1060041,,,2024-10-31,合併による解散等,8010401122459,令和６年１０月３１日東京都港区麻布台一丁目３番１号株式会社プロジェクトホールディングス（8010401122459）に合併し解散,2023-01-11,1,,,,,ポテンシャル,0
1607,6011001014676,登記記録の閉鎖等,0,2024-11-18,2024-10-16,株式会社テイスト,,株式会社,東京都,渋谷区,恵比寿西１丁目３６番６号,,13,113,1500021,,,2024-10-16,清算の結了等,,,2015-10-05,1,,,,,,0
1609,6011001060943,登記記録の閉鎖等,0,2024-11-18,2024-10-17,株式会社ニューワールドプラス,,株式会社,東京都,渋谷区,南平台町２番１２号南平台久保ビルＢ１,,13,113,1500036,,,2024-10-17,清算の結了等,,,2015-10-05,1,,,,,ニューワールドプラス,0
1624,6011605000337,登記記録の閉鎖等,0,2024-11-18,2024-11-11,医療法人社団康和会,,その他の設立登記法人,東京都,練馬区,谷原６丁目９番８号,,13,120,1770032,,,2024-11-11,清算の結了等,,,2015-10-05,1,,,,,コウワカイ,0
1626,6011801040723,登記記録の閉鎖等,0,2024-11-18,2024-11-13,株式会社ＴＡＬＭ,,株式会社,東京都,足立区,東保木間２丁目９番３号,,13,121,1210063,,,2024-11-13,清算の結了等,,,2022-05-20,1,,,,,タルム,0
1629,6012401019389,登記記録の閉鎖等,0,2024-11-18,2024-10-31,株式会社エバーウィン,,株式会社,東京都,国立市,中１丁目１８番４１号,,13,215,1860004,,,2024-10-31,清算の結了等,,,2015-10-05,1,,,,,エバーウィン,0
1630,6012702003711,登記記録の閉鎖等,0,2024-11-18,2024-10-31,有限会社山田サービス,,有限会社,東京都,東村山市,青葉町３丁目２０番６号,,13,213,1890002,,,2024-10-31,清算の結了等,,,2015-10-05,1,,,,,ヤマダサービス,0
1642,6020001021995,登記記録の閉鎖等,0,2024-11-18,2024-11-14,八洲商事株式会社,,株式会社,神奈川県,横浜市港北区,日吉本町６丁目２６番１号,,14,109,2230062,,,2024-11-14,清算の結了等,,,2015-10-05,1,,,,,,0
1670,6021001064497,登記記録の閉鎖等,0,2024-11-18,2024-11-11,トライリンク株式会社,,株式会社,神奈川県,大和市,下和田９００番地１２,,14,213,2420015,,,2024-11-11,合併による解散等,6021001028519,令和６年１１月１日神奈川県大和市下和田９００番地１２日本エートス株式会社（6021001028519）に合併し解散,2018-04-04,1,,,,,トライリンク,0
1673,6021002048838,登記記録の閉鎖等,0,2024-11-18,2024-11-15,有限会社ユビキタス・ＬＡＮ,,有限会社,神奈川県,綾瀬市,深谷中４丁目６番２５号,,14,218,2521107,,,2024-11-15,清算の結了等,,,2015-10-05,1,,,,,,0
1676,6021003012677,登記記録の閉鎖等,0,2024-11-18,2024-11-18,合同会社ＮＥＯＮ,,合同会社,神奈川県,藤沢市,片瀬海岸２丁目２０－１２オハナテラス２Ｆ,,14,205,2510035,,,2024-11-18,清算の結了等,,,2023-01-31,1,,,,,ネオン,0
1678,6030001050721,登記記録の閉鎖等,0,2024-11-18,2024-11-14,株式会社十宝建設工業,,株式会社,埼玉県,朝霞市,栄町５丁目７番５号,,11,227,3510012,,,2024-11-14,清算の結了等,,,2015-10-05,1,,,,,トウホウケンセツコウギョウ,0
1684,6030002042164,登記記録の閉鎖等,0,2024-11-18,2024-11-14,清水百貨有限会社,,有限会社,埼玉県,加須市,外田ケ谷８８２番地の１,,11,210,3470126,,,2024-11-14,清算の結了等,,,2015-10-05,1,,,,,シミズヒャッカ,0
1710,6080001002511,登記記録の閉鎖等,0,2024-11-18,2024-11-01,清和食品株式会社,,株式会社,静岡県,静岡市葵区,沓谷５丁目３番地の１,,22,101,4200816,,,2024-11-01,清算の結了等,,,2015-10-05,1,,,,,セイワショクヒン,0
1730,6120101050430,登記記録の閉鎖等,0,2024-11-18,2024-11-13,クレスト株式会社,,株式会社,大阪府,河内長野市,高向７７７番地の４,,27,216,5860036,,,2024-11-13,清算の結了等,,,2015-10-05,1,,,,,クレスト,0
1731,6120102025019,登記記録の閉鎖等,0,2024-11-18,2024-11-12,有限会社エガオヤ,,有限会社,大阪府,和泉市,府中町１５３１番地,,27,219,5940071,,,2024-11-12,清算の結了等,,,2023-03-09,1,,,,,エガオヤ,0
1732,6120901021267,登記記録の閉鎖等,0,2024-11-18,2024-11-11,株式会社平岡,,株式会社,大阪府,豊能郡能勢町,倉垣２３７番地,,27,322,5630113,,,2024-11-11,清算の結了等,,,2015-10-05,1,,,,,ヒラオカ,0
1737,6130001065619,登記記録の閉鎖等,0,2024-11-18,2024-11-13,株式会社ＮＳアグリ,,株式会社,京都府,福知山市,末広町１丁目１番地,,26,201,6200054,,,2024-11-13,清算の結了等,,,2019-11-08,1,,,,,エヌエスアグリ,0
1745,6140002044182,登記記録の閉鎖等,0,2024-11-18,2024-11-14,有限会社サンオーク,,有限会社,兵庫県,尼崎市,立花町１丁目４番１４号,,28,202,6610025,,,2024-11-14,清算の結了等,,,2015-10-05,1,,,,,サンオーク,0
1759,6180002070753,登記記録の閉鎖等,0,2024-11-18,2024-11-08,有限会社ＨＡＴテクノ,,有限会社,愛知県,春日井市,中央台７丁目２番地１４,,23,206,4870011,,,2024-11-08,清算の結了等,,,2015-10-05,1,,,,,エイチエイテイテクノ,0
1769,6200001016028,登記記録の閉鎖等,0,2024-11-18,2024-11-14,中日ヒューム管工業株式会社,,株式会社,岐阜県,安八郡神戸町,大字北一色４６８番地の１,,21,381,5032306,,,2024-11-14,清算の結了等,,,2015-10-05,1,,,,,チュウニチヒュームカンコウギョウ,0
1772,6230001013567,登記記録の閉鎖等,0,2024-11-18,2024-11-13,株式会社百声建機車両,,株式会社,富山県,氷見市,上田子６３番地１,,16,205,9350035,,,2024-11-13,清算の結了等,,,2015-10-05,1,,,,,ヒャクセイケンキシャリョウ,0
1776,6240003003292,登記記録の閉鎖等,0,2024-11-18,2024-11-15,ＭＴＳ合同会社,,合同会社,広島県,安芸郡府中町,浜田１丁目３番６号,,34,302,7350013,,,2024-11-15,清算の結了等,,,2016-05-30,1,,,,,,0
1788,6290001014725,登記記録の閉鎖等,0,2024-11-18,2024-10-11,テイー・ケイ・ケイ・ホーム株式会社,,株式会社,福岡県,福岡市博多区,博多駅南３丁目６番３０号,,40,132,8120016,,,2024-10-11,清算の結了等,,,2015-10-05,1,,,,,テイーケイケイホーム,0
1797,6290002052831,登記記録の閉鎖等,0,2024-11-18,2024-10-23,大京建宅有限会社,,有限会社,福岡県,久留米市,野中町２９１番地３,,40,203,8390862,,,2024-10-23,清算の結了等,,,2015-10-05,1,,,,,ダイキョウケンタク,0
1814,6360002016548,登記記録の閉鎖等,0,2024-11-18,2024-11-13,有限会社仲地建装,,有限会社,沖縄県,浦添市,西原１丁目６番１０号,,47,208,9012101,,,2024-11-13,清算の結了等,,,2015-10-05,1,,,,,ナカチケンソウ,0
1829,6450002002902,登記記録の閉鎖等,0,2024-11-18,2024-11-14,有限会社清野電設,,有限会社,北海道,旭川市,東四条１１丁目２番７号,,01,204,0700024,,,2024-11-14,清算の結了等,,,2015-10-05,1,,,,,セイノデンセツ,0
1844,7010003031002,登記記録の閉鎖等,0,2024-11-18,2024-11-01,合同会社クローバー２０２０,,合同会社,東京都,千代田区,丸の内３丁目１番１号東京共同会計事務所内,,13,101,1000005,,,2024-11-01,清算の結了等,,,2019-11-07,1,,,,,クローバーニセンニジュウ,0
1866,7010401117484,登記記録の閉鎖等,0,2024-11-18,2024-10-31,世界タクシー株式会社,,株式会社,東京都,港区,海岸１丁目７番１号,,13,103,1050022,,,2024-10-31,清算の結了等,,,2015-10-05,1,,,,,セカイタクシー,0
1875,7010405018539,登記記録の閉鎖等,0,2024-11-18,2024-10-30,新宿ホールディング２一般社団法人,,その他の設立登記法人,東京都,港区,虎ノ門３丁目２２番１０－２０１号,,13,103,1050001,,,2024-10-30,清算の結了等,,,2020-02-20,1,,,,,シンジュクホールディングツー,0
1876,7010405020560,登記記録の閉鎖等,0,2024-11-18,2024-10-31,ツルヤチョウ特定目的会社,,その他の設立登記法人,東京都,港区,赤坂２丁目１０番５号税理士法人赤坂国際会計事務所内,,13,103,1070052,,,2024-10-31,清算の結了等,,,2022-01-12,1,,,,,ツルヤチョウ,0
1884,7010902008050,登記記録の閉鎖等,0,2024-11-18,2024-11-11,有限会社菅田レヂデンス,,有限会社,東京都,世田谷区,新町３丁目８番４号,,13,112,1540014,,,2024-11-11,清算の結了等,,,2015-10-05,1,,,,,スゲタレヂデンス,0
1888,7011001100970,登記記録の閉鎖等,0,2024-11-18,2024-10-11,株式会社オートグラフィック＆パートナーズ,,株式会社,東京都,渋谷区,広尾３丁目１７番１号アピュー広尾３０１,,13,113,1500012,,,2024-10-11,清算の結了等,,,2015-10-05,1,,,,,オートグラフィックアンドパートナーズ,0
1893,7011003010045,登記記録の閉鎖等,0,2024-11-18,2024-10-17,ベスト・ドリーバーズ合同会社,,合同会社,東京都,渋谷区,神山町９番１０－４０２号,,13,113,1500047,,,2024-10-17,清算の結了等,,,2019-06-10,1,,,,,ベストドリーバーズ,0
1907,7011401002271,登記記録の閉鎖等,0,2024-11-18,2024-11-01,株式会社三枝,,株式会社,東京都,千代田区,神田三崎町２丁目１５番１０号,,13,101,1010061,,,2024-11-01,合併による解散等,9010001076047,令和６年１１月１日東京都千代田区神田駿河台三丁目１１番地１ＭＳＫ保険センター株式会社（9010001076047）に合併し解散,2015-10-05,1,,,,,サエグサ,0
1929,7020001111465,登記記録の閉鎖等,0,2024-11-18,2024-11-05,株式会社デュオ齋藤,,株式会社,神奈川県,横浜市都筑区,大熊町９１４番地,,14,118,2240042,,,2024-11-05,清算の結了等,,,2015-10-05,1,,,,,デュオサイトウ,0
1939,7020002079074,登記記録の閉鎖等,0,2024-11-18,2024-11-08,有限会社東京特殊金属,,有限会社,茨城県,古河市,桜町１８番１５号,,08,204,3060036,,,2024-11-08,清算の結了等,,,2015-10-05,1,,,,,トウキョウトクシュキンゾク,0
1948,7021002054645,登記記録の閉鎖等,0,2024-11-18,2024-11-14,有限会社尾野鉄工,,有限会社,神奈川県,南足柄市,沼田４５２番地２,,14,217,2500115,,,2024-11-14,清算の結了等,,,2015-10-05,1,,,,,オノテッコウ,0
1951,7030001071956,登記記録の閉鎖等,0,2024-11-18,2024-11-06,株式会社延穂,,株式会社,埼玉県,東松山市,松風台１０番地５５,,11,212,3550055,,,2024-11-06,清算の結了等,,,2015-10-05,1,,,,,エンホ,0
1977,7060001023310,登記記録の閉鎖等,0,2024-11-18,2024-11-11,光進建設株式会社,,株式会社,栃木県,小山市,城東５丁目２番２号,,09,208,3230807,,,2024-11-11,清算の結了等,,,2015-10-05,1,,,,,コウシンケンセツ,0
2002,7140001039042,登記記録の閉鎖等,0,2024-11-18,2024-11-12,宍東開発株式会社,,株式会社,兵庫県,宍粟市,山崎町須賀澤２４０番地の８,,28,227,6712500,,,2024-11-12,清算の結了等,,,2015-10-05,1,,,,,シトウカイハツ,0
2019,7180001041531,登記記録の閉鎖等,0,2024-11-18,2024-11-07,株式会社八木佐,,株式会社,愛知県,名古屋市千種区,松竹町２丁目２７番地,,23,101,4640823,,,2024-11-07,清算の結了等,,,2015-10-05,1,,,,,ヤギサ,0
2021,7180001140374,登記記録の閉鎖等,0,2024-11-18,2024-11-11,株式会社ドクターメイト,,株式会社,愛知県,名古屋市中川区,野田１丁目３３４番地,,23,110,4540912,,,2024-11-11,清算の結了等,,,2020-03-11,1,,,,,ドクターメイト,0
2032,7200003003196,登記記録の閉鎖等,0,2024-11-18,2024-11-11,合同会社寺田屋,,合同会社,岐阜県,岐阜市,栄枝町１４番地古田ビル２Ｆ,,21,201,5008872,,,2024-11-11,清算の結了等,,,2015-10-05,1,,,,,テラダヤ,0
2036,7230002014720,登記記録の閉鎖等,0,2024-11-18,2024-11-13,有限会社氷見園芸センター,,有限会社,富山県,氷見市,比美町９番７号,,16,205,9350012,,,2024-11-13,清算の結了等,,,2024-09-25,1,,,,,ヒミエンゲイセンター,0
2040,7260001014660,登記記録の閉鎖等,0,2024-11-18,2024-11-11,藤倉プレカット株式会社,,株式会社,岡山県,倉敷市,茶屋町１１８３番地,,33,202,7101101,,,2024-11-11,清算の結了等,,,2015-10-05,1,,,,,フジクラプレカット,0
2041,7270001005535,登記記録の閉鎖等,0,2024-11-18,2024-11-11,株式会社漁師中村,,株式会社,鳥取県,西伯郡大山町,樋口１４１番地,00004269,31,386,6893103,,,2024-11-11,清算の結了等,,,2015-10-05,1,,,,,リョウシナカムラ,0
2043,7290001082606,登記記録の閉鎖等,0,2024-11-18,2024-10-10,はるひ乃不動産株式会社,,株式会社,福岡県,大野城市,筒井３丁目１６番１号,,40,219,8160931,,,2024-10-10,清算の結了等,,,2018-08-28,1,,,,,ハルヒノフドウサン,0
2050,7290005013945,登記記録の閉鎖等,0,2024-11-18,2024-10-16,ＮＰＯ法人九州ひまわり旅ネット,,その他の設立登記法人,福岡県,福岡市博多区,綱場町１番１号,,40,132,8120024,,,2024-10-16,清算の結了等,,,2015-10-05,1,,,,,キュウシュウヒマワリタビネット,0
2064,7350001004371,登記記録の閉鎖等,0,2024-11-18,2024-11-12,株式会社インタープロ,,株式会社,宮崎県,宮崎市,瀬頭２丁目２番地１０号,,45,201,8800867,,,2024-11-12,合併による解散等,6340001000257,令和６年１１月１日鹿児島市千日町１３番１８号株式会社アンクス（6340001000257）に合併し解散,2015-10-05,1,,,,,,0
2068,7370001011762,登記記録の閉鎖等,0,2024-11-18,2024-11-08,株式会社アーキテクト仙台,,株式会社,宮城県,仙台市太白区,ひより台３０番３１号,,04,104,9820811,,,2024-11-08,清算の結了等,,,2015-10-05,1,,,,,アーキテクトセンダイ,0
2082,7420003002399,登記記録の閉鎖等,0,2024-11-18,2024-11-14,合同会社織姫,,合同会社,青森県,八戸市,南郷大字市野沢字石窪３２番地９,,02,203,0310111,,,2024-11-14,清算の結了等,,,2021-10-22,1,,,,,オリヒメ,0
2090,7430002039499,登記記録の閉鎖等,0,2024-11-18,2024-11-12,有限会社ＪＮＩ,,有限会社,北海道,札幌市南区,真駒内上町１丁目１番９号,,01,106,0050012,,,2024-11-12,清算の結了等,,,2015-10-05,1,,,,,ジェーエヌアイ,0
2096,7500001001700,登記記録の閉鎖等,0,2024-11-18,2024-11-15,三栄興産株式会社,,株式会社,愛媛県,松山市,錦町２番地２０,,38,201,7900877,,,2024-11-15,清算の結了等,,,2015-10-05,1,,,,,サンエイコウサン,0
2100,7500002020559,登記記録の閉鎖等,0,2024-11-18,2024-11-12,有限会社日浦工務店,,有限会社,愛媛県,越智郡上島町,弓削藤谷８１５番地２,,38,356,7942507,,,2024-11-12,清算の結了等,,,2015-10-05,1,,,,,ヒウラコウムテン,0
2140,8010005024663,登記記録の閉鎖等,0,2024-11-18,2024-11-11,一般社団法人飯田橋プロパティ,,その他の設立登記法人,東京都,中央区,日本橋１丁目４番１号,,13,102,1030027,,,2024-11-11,清算の結了等,,,2015-11-25,1,,,,,イイダバシプロパティ,0
2141,8010005032237,登記記録の閉鎖等,0,2024-11-18,2024-11-08,医療法人社団一颯会,,その他の設立登記法人,東京都,中央区,銀座７丁目３番７号ブランエスパ銀座２階,,13,102,1040061,,,2024-11-08,清算の結了等,,,2020-09-07,1,,,,,イッソウカイ,0
2147,8010401139148,登記記録の閉鎖等,0,2024-11-18,2024-10-31,株式会社クラブミューズ,,株式会社,東京都,港区,西麻布４丁目１番１号,,13,103,1060031,,,2024-10-31,合併による解散等,1010402018299,令和６年１０月３１日東京都港区西麻布四丁目１番１号株式会社松屋コーポレーション（1010402018299）に合併し解散,2018-06-25,1,,,,,クラブミューズ,0
2157,8010405018538,登記記録の閉鎖等,0,2024-11-18,2024-10-30,新宿ホールディング１一般社団法人,,その他の設立登記法人,東京都,港区,虎ノ門３丁目２２番１０－２０１号,,13,103,1050001,,,2024-10-30,清算の結了等,,,2020-02-20,1,,,,,シンジュクホールディングワン,0
2165,8010705003479,登記記録の閉鎖等,0,2024-11-18,2024-11-11,一般社団法人国土建設,,その他の設立登記法人,東京都,品川区,上大崎３丁目１番１号目黒セントラルスクエア１５階,,13,109,1410021,,,2024-11-11,清算の結了等,,,2023-02-24,1,,,,,コクドケンセツ,0
2168,8010901000692,登記記録の閉鎖等,0,2024-11-18,2024-11-11,株式会社アナライザー,,株式会社,東京都,世田谷区,北沢２丁目１２番１４号,,13,112,1550031,,,2024-11-11,清算の結了等,,,2015-10-05,1,,,,,アナライザー,0
2175,8011001102124,登記記録の閉鎖等,0,2024-11-18,2024-11-05,株式会社ＰＡＴＲＡ,,株式会社,東京都,渋谷区,神宮前６丁目２３番４号桑野ビル２階,,13,113,1500001,,,2024-11-05,清算の結了等,,,2015-10-05,1,,,,,パトラ,0
2190,8011301011818,登記記録の閉鎖等,0,2024-11-18,2024-11-05,株式会社興誠,,株式会社,東京都,杉並区,桃井３丁目１１番１－７０２号,,13,115,1670034,,,2024-11-05,清算の結了等,,,2015-10-05,1,,,,,コウセイ,0
2209,8020001009015,登記記録の閉鎖等,0,2024-11-18,2024-10-31,東洋工商株式会社,,株式会社,神奈川県,横浜市都筑区,大熊町３１番地２,,14,118,2240042,,,2024-10-31,清算の結了等,,,2015-10-05,1,,,,,トウヨウコウショウ,0
2225,8020003007982,登記記録の閉鎖等,0,2024-11-18,2024-11-01,Ｐｒｏｇｅｎｏｍｉｃｓ合同会社,,合同会社,神奈川県,横浜市神奈川区,橋本町２丁目５番地３ＢＷ－２４０７,,14,102,2210053,,,2024-11-01,清算の結了等,,,2015-10-05,1,,,,,プロジェノミクス,0
2226,8020003015317,登記記録の閉鎖等,0,2024-11-18,2024-11-05,チズトキョウ合同会社,,合同会社,神奈川県,川崎市高津区,坂戸３丁目２０番５号,,14,134,2130012,,,2024-11-05,清算の結了等,,,2018-12-18,1,,,,,チズトキョウ,0
2227,8020003017404,登記記録の閉鎖等,0,2024-11-18,2024-10-31,合同会社Ｎ,,合同会社,神奈川県,横浜市鶴見区,東寺尾５丁目１３番２号,,14,101,2300077,,,2024-10-31,清算の結了等,,,2020-02-19,1,,,,,エヌ,0
2234,8021001058984,登記記録の閉鎖等,0,2024-11-18,2024-11-11,プラスワンソフト株式会社,,株式会社,神奈川県,大和市,下和田９００番地１２,,14,213,2420015,,,2024-11-11,合併による解散等,6021001028519,令和６年１１月１日神奈川県大和市下和田９００番地１２日本エートス株式会社（6021001028519）に合併し解散,2016-04-06,1,,,,,プラスワンソフト,0
2248,8030001090245,登記記録の閉鎖等,0,2024-11-18,2024-11-13,ルーセット・ストラテジー株式会社,,株式会社,埼玉県,飯能市,大字岩沢４４３番地１０,,11,209,3570023,,,2024-11-13,清算の結了等,,,2015-10-05,1,,,,,ルーセットストラテジー,0
2253,8030002012644,登記記録の閉鎖等,0,2024-11-18,2024-11-14,有限会社丸モ魚店,,有限会社,埼玉県,さいたま市南区,文蔵２丁目２８番５号,,11,108,3360025,,,2024-11-14,清算の結了等,,,2015-10-05,1,,,,,マルモウオテン,0
2255,8030002020993,登記記録の閉鎖等,0,2024-11-18,2024-11-13,有限会社サンレイ興産,,有限会社,埼玉県,さいたま市岩槻区,本町６丁目２番１１号,,11,110,3390057,,,2024-11-13,清算の結了等,,,2015-10-05,1,,,,,サンレイコウサン,0
2258,8030003014053,登記記録の閉鎖等,0,2024-11-18,2024-11-14,合同会社こころえ,,合同会社,埼玉県,蓮田市,大字根金１５２２番地２,,11,238,3490131,,,2024-11-14,清算の結了等,,,2019-09-09,1,,,,,ココロエ,0
2266,8040002091670,登記記録の閉鎖等,0,2024-11-18,2024-11-11,有限会社松葉産業,,有限会社,千葉県,柏市,宿連寺４２６番地の６,,12,217,2770826,,,2024-11-11,清算の結了等,,,2015-10-05,1,,,,,マツバサンギョウ,0
2277,8060001032054,登記記録の閉鎖等,0,2024-11-18,2024-11-12,株式会社Ｖａｒｉ,,株式会社,栃木県,宇都宮市,鶴田２丁目５番２４号,,09,201,3200857,,,2024-11-12,清算の結了等,,,2019-11-06,1,,,,,ヴェアリ,0
2300,8100005009151,登記記録の閉鎖等,0,2024-11-18,2024-10-07,医療法人偕行会長野,,その他の設立登記法人,長野県,駒ヶ根市,赤穂４２６９番地,,20,210,3994117,,,2024-10-07,合併による解散等,6200005008946,令和６年１０月１日岐阜県中津川市駒場１６６６番地１１２２医療法人偕行会岐阜（6200005008946）に合併し解散,2015-10-05,1,,,,,カイコウカイナガノ,0
2301,8110001036215,登記記録の閉鎖等,0,2024-11-18,2024-11-11,新成産業株式会社,,株式会社,新潟県,新潟市南区,西白根１５９５番地１,,15,106,9501262,,,2024-11-11,清算の結了等,,,2021-11-24,1,,,,,シンセイサンギョウ,0
2305,8120001204605,登記記録の閉鎖等,0,2024-11-18,2024-11-12,株式会社アクティ,,株式会社,大阪府,守口市,梶町４丁目１番１７号,,27,209,5700015,,,2024-11-12,合併による解散等,8180001112067,令和６年１１月１日愛知県岩倉市新柳町一丁目５０番地ＡＧ岩倉ビル２Ｆ株式会社ケイピーエス（8180001112067）に合併し解散,2017-03-28,1,,,,,アクティ,0
2316,8140002035667,登記記録の閉鎖等,0,2024-11-18,2024-11-13,有限会社上荘モータース,,有限会社,兵庫県,加古川市,上荘町薬栗３３１番地,,28,210,6751217,,,2024-11-13,清算の結了等,,,2015-10-05,1,,,,,カミソウモータース,0
2318,8140002061754,登記記録の閉鎖等,0,2024-11-18,2024-11-12,有限会社誠和包装,,有限会社,兵庫県,西脇市,野中町３５１番地の４,,28,213,6770005,,,2024-11-12,清算の結了等,,,2015-10-05,1,,,,,セイワホウソウ,0
2322,8150001010091,登記記録の閉鎖等,0,2024-11-18,2024-11-13,株式会社明光榛原,,株式会社,奈良県,香芝市,瓦口２１８９番地,,29,210,6390225,,,2024-11-13,清算の結了等,,,2015-10-05,1,,,,,メイコウハイバラ,0
2324,8160002004372,登記記録の閉鎖等,0,2024-11-18,2024-11-14,有限会社ＩＴサポート,,有限会社,滋賀県,大津市,大平２丁目１２番２５号,,25,201,5200867,,,2024-11-14,清算の結了等,,,2015-10-05,1,,,,,アイティサポート,0
2334,8180001106878,登記記録の閉鎖等,0,2024-11-18,2024-11-07,中田商事株式会社,,株式会社,愛知県,名古屋市西区,名西２丁目１３番３号,,23,104,4510064,,,2024-11-07,清算の結了等,,,2015-10-05,1,,,,,ナカタショウジ,0
2338,8180002024922,登記記録の閉鎖等,0,2024-11-18,2024-11-08,モリーオフセット印刷有限会社,,有限会社,愛知県,名古屋市西区,円明町１５１番地の５,,23,104,4520831,,,2024-11-08,清算の結了等,,,2015-10-05,1,,,,,モリーオフセットインサツ,0
2350,8240002006385,登記記録の閉鎖等,0,2024-11-18,2024-11-14,有限会社サンワテクノ,,有限会社,広島県,広島市佐伯区,河内南１丁目１２番１６号,,34,108,7315153,,,2024-11-14,清算の結了等,,,2015-10-05,1,,,,,サンワテクノ,0
2353,8250002016565,登記記録の閉鎖等,0,2024-11-18,2024-11-12,有限会社カナダホーム山口,,有限会社,山口県,周南市,土井２丁目６番２３号,,35,215,7460011,,,2024-11-12,清算の結了等,,,2015-10-05,1,,,,,カナダホームヤマグチ,0
2368,8290801002142,登記記録の閉鎖等,0,2024-11-18,2024-11-05,株式会社武田や,,株式会社,福岡県,北九州市小倉南区,上葛原２丁目２１番１号,,40,107,8000255,,,2024-11-05,清算の結了等,,,2015-10-05,1,,,,,タケダヤ,0
2385,8370002005085,登記記録の閉鎖等,0,2024-11-18,2024-11-08,有限会社サンケイソイル,,有限会社,宮城県,仙台市若林区,六丁の目中町７番７３号,,04,103,9840012,,,2024-11-08,清算の結了等,,,2015-10-05,1,,,,,サンケイソイル,0
2391,8380001033466,登記記録の閉鎖等,0,2024-11-18,2024-10-31,株式会社住安工務店,,株式会社,福島県,郡山市,富久山町久保田字太郎殿前１１０第五田代コーポ１０１,,07,203,9638071,,,2024-10-31,清算の結了等,,,2023-02-08,1,,,,,スミヤスコウムテン,0
2393,8380002009886,登記記録の閉鎖等,0,2024-11-18,2024-11-05,有限会社シーズ,,有限会社,福島県,郡山市,富久山町八山田字勝池１０番地の１,,07,203,9638051,,,2024-11-05,清算の結了等,,,2015-10-05,1,,,,,シーズ,0
2413,9010001111919,登記記録の閉鎖等,0,2024-11-18,2024-11-12,株式会社ソリューションビジネスサポート,,株式会社,千葉県,千葉市緑区,あすみが丘７丁目３７番地６,,12,105,2670066,,,2024-11-12,清算の結了等,,,2015-10-05,1,,,,,ソリューションビジネスサポート,0
2439,9010102004427,登記記録の閉鎖等,0,2024-11-18,2024-11-11,有限会社地域開発エンジニアリング,,有限会社,東京都,八王子市,上柚木３丁目３番地３－９０６,,13,201,1920373,,,2024-11-11,清算の結了等,,,2015-10-05,1,,,,,チイキカイハツエンジニアリング,0
2443,9010105001710,登記記録の閉鎖等,0,2024-11-18,2024-11-12,一般社団法人ピーワンクリエイティブ,,その他の設立登記法人,東京都,八王子市,八日町８－１,,13,201,1920071,,,2024-11-12,清算の結了等,,,2015-10-05,1,,,,,ピーワンクリエイティブ,0
2446,9010401151457,登記記録の閉鎖等,0,2024-11-18,2024-10-04,デクワス株式会社,,株式会社,東京都,世田谷区,三軒茶屋２丁目１１番２２号,,13,112,1540024,,,2024-10-04,合併による解散等,3010701018824,令和６年１０月１日東京都世田谷区三軒茶屋二丁目１１番２２号ＺＥＴＡ株式会社（3010701018824）に合併し解散,2020-03-06,1,,,,,デクワス,0
2447,9010401163989,登記記録の閉鎖等,0,2024-11-18,2024-11-01,株式会社ＴＩＭＥ,,株式会社,東京都,千代田区,神田神保町２丁目１０番地４ＰＭＯ神保町１１階,,13,101,1010051,,,2024-11-01,合併による解散等,4010401163663,令和６年１１月１日東京都千代田区神田神保町二丁目１０番地４ＰＭＯ神保町１１階ＲＥＭＯＷ株式会社（4010401163663）に合併し解散,2021-11-24,1,,,,,タイム,0
2452,9010402012534,登記記録の閉鎖等,0,2024-11-18,2024-11-15,有限会社南青山エービービル,,有限会社,神奈川県,茅ヶ崎市,東海岸北２丁目２番５８号,,14,207,2530053,,,2024-11-15,清算の結了等,,,2015-10-05,1,,,,,ミナミアオヤマエービービル,0
2459,9010405023173,登記記録の閉鎖等,0,2024-11-18,2024-10-30,Ｎ８６一般社団法人,,その他の設立登記法人,東京都,港区,元赤坂１丁目１番８号株式会社赤坂国際会計内,,13,103,1070051,,,2024-10-30,清算の結了等,,,2024-04-17,1,,,,,エヌエイティーシックス,0
2482,9011302006709,登記記録の閉鎖等,0,2024-11-18,2024-11-11,有限会社ナガイ,,有限会社,東京都,杉並区,阿佐谷北１丁目８番２２－１０２号,,13,115,1660001,,,2024-11-11,清算の結了等,,,2015-10-05,1,,,,,ナガイ,0
2490,9011602000931,登記記録の閉鎖等,0,2024-11-18,2024-11-11,有限会社伊藤建具店,,有限会社,東京都,練馬区,東大泉２丁目６番１号,,13,120,1780063,,,2024-11-11,清算の結了等,,,2015-10-05,1,,,,,イトウタテグテン,0
2510,9020001046701,登記記録の閉鎖等,0,2024-11-18,2024-11-05,株式会社スカンジナビア,,株式会社,神奈川県,横浜市磯子区,洋光台２丁目１２番３８号,,14,107,2350045,,,2024-11-05,清算の結了等,,,2015-10-05,1,,,,,スカンジナビア,0
2516,9020001078315,登記記録の閉鎖等,0,2024-11-18,2024-11-05,ＳＤＳ株式会社,,株式会社,神奈川県,川崎市川崎区,観音１丁目１３番７号,,14,131,2100831,,,2024-11-05,清算の結了等,,,2015-10-05,1,,,,,エスディエス,0
2518,9020001092588,登記記録の閉鎖等,0,2024-11-18,2024-10-29,株式会社カニエ,,株式会社,神奈川県,川崎市宮前区,菅生１丁目２番１号,,14,136,2160015,,,2024-10-29,清算の結了等,,,2015-10-05,1,,,,,カニエ,0
2519,9020001098197,登記記録の閉鎖等,0,2024-11-18,2024-11-07,株式会社ジェイアンドシー,,株式会社,神奈川県,横浜市都筑区,荏田南４丁目２４番１０号,,14,118,2240007,,,2024-11-07,清算の結了等,,,2015-10-05,1,,,,,ジェイアンドシー,0
2520,9020001105688,登記記録の閉鎖等,0,2024-11-18,2024-11-11,株式会社沢田電設,,株式会社,神奈川県,横浜市鶴見区,鶴見中央３丁目２０番９号鶴見大栄ビル２階,,14,101,2300051,,,2024-11-11,清算の結了等,,,2015-10-05,1,,,,,サワダデンセツ,0
2532,9020005014092,登記記録の閉鎖等,0,2024-11-18,2024-11-05,特定非営利活動法人ベイシニアーズ横浜,,その他の設立登記法人,神奈川県,横浜市神奈川区,栄町１６番地１ヨコハマポートサイドアミティ横浜１２０４号,,14,102,2210052,,,2024-11-05,清算の結了等,,,2019-04-08,1,,,,,ベイシニアーズヨコハマ,0
2535,9021001068033,登記記録の閉鎖等,0,2024-11-18,2024-11-13,株式会社ミセイ,,株式会社,神奈川県,秦野市,曽屋５７７６－１０,,14,211,2570031,,,2024-11-13,清算の結了等,,,2019-08-27,1,,,,,ミセイ,0
2550,9030002018120,登記記録の閉鎖等,0,2024-11-18,2024-11-13,有限会社パウゼ,,有限会社,神奈川県,茅ヶ崎市,緑が浜９番１５－８０５号,,14,207,2530034,,,2024-11-13,清算の結了等,,,2015-10-05,1,,,,,パウゼ,0
2558,9040001038341,登記記録の閉鎖等,0,2024-11-18,2024-11-08,株式会社ハイマー,,株式会社,千葉県,流山市,駒木５７０番地５,,12,220,2700132,,,2024-11-08,清算の結了等,,,2015-10-05,1,,,,,ハイマー,0
2565,9040002074030,登記記録の閉鎖等,0,2024-11-18,2024-11-11,有限会社タカウラ,,有限会社,千葉県,市原市,八幡６９０番地３,,12,219,2900062,,,2024-11-11,清算の結了等,,,2015-10-05,1,,,,,タカウラ,0
2571,9050001019662,登記記録の閉鎖等,0,2024-11-18,2024-11-08,株式会社樋山精線,00022166,株式会社,茨城県,古河市,茶屋新田２２番地１,,08,204,3060051,,,2024-11-08,清算の結了等,,,2015-10-05,1,,,,,ヒヤマセイセン,0
2579,9070001010594,登記記録の閉鎖等,0,2024-11-18,2024-11-14,群信産業株式会社,,株式会社,群馬県,高崎市,新町１６５３番地１１,,10,202,3701301,,,2024-11-14,清算の結了等,,,2015-10-05,1,,,,,グンシンサンギョウ,0
2589,9090001007523,登記記録の閉鎖等,0,2024-11-18,2024-11-08,株式会社グローバルセーフティ,,株式会社,山梨県,甲府市,中小河原町５６８番地１,,19,201,4000854,,,2024-11-08,清算の結了等,,,2015-10-05,1,,,,,グローバルセーフティ,0
2603,9120102011908,登記記録の閉鎖等,0,2024-11-18,2024-11-12,有限会社甲斐町ケアサービス,,有限会社,大阪府,堺市堺区,甲斐町西２丁２番３５号,,27,141,5900950,,,2024-11-12,清算の結了等,,,2015-10-05,1,,,,,カイノチョウケアサービス,0
2615,9130002015058,登記記録の閉鎖等,0,2024-11-18,2024-11-13,みやこオートリース有限会社,,有限会社,京都府,京都市伏見区,羽束師古川町９２番地の１８,,26,109,6128486,,,2024-11-13,清算の結了等,,,2015-10-05,1,,,,,ミヤコオートリース,0
2627,9150001021344,登記記録の閉鎖等,0,2024-11-18,2024-11-15,レッスンバンク株式会社,,株式会社,奈良県,奈良市,西大寺栄町３番２３号サンローゼビル３階,,29,201,6310822,,,2024-11-15,清算の結了等,,,2017-03-13,1,,,,,レッスンバンク,0
2637,9180002004502,登記記録の閉鎖等,0,2024-11-18,2024-11-07,有限会社スペースデザインナック,,有限会社,愛知県,名古屋市北区,志賀本通１丁目２２番地,,23,103,4620853,,,2024-11-07,清算の結了等,,,2015-10-05,1,,,,,スペースデザインナック,0
2650,9240002030905,登記記録の閉鎖等,0,2024-11-18,2024-11-13,有限会社インテリア芸美,,有限会社,広島県,安芸高田市,吉田町川本８１６番地の３５,,34,214,7310524,,,2024-11-13,清算の結了等,,,2015-10-05,1,,,,,インテリアゲイビ,0
2659,9280002008063,登記記録の閉鎖等,0,2024-11-18,2024-11-14,有限会社アーバン,,有限会社,島根県,浜田市,熱田町１４４８番地,,32,202,6970062,,,2024-11-14,清算の結了等,,,2015-10-05,1,,,,,アーバン,0
2666,9290002010068,登記記録の閉鎖等,0,2024-11-18,2024-10-15,有限会社オクスン,,有限会社,福岡県,福岡市東区,箱崎７丁目２０番１－９０７号,,40,131,8120053,,,2024-10-15,清算の結了等,,,2015-10-05,1,,,,,,0
2668,9290005015700,登記記録の閉鎖等,0,2024-11-18,2024-10-24,一般社団法人九州・沖縄地区就労支援機構,,その他の設立登記法人,福岡県,小郡市,三沢４２２５番地３３,,40,216,8380106,,,2024-10-24,清算の結了等,,,2015-11-30,1,,,,,キュウシュウオキナワチクシュウロウシエンキコウ,0
2674,9310002009330,登記記録の閉鎖等,0,2024-11-18,2024-11-11,有限会社遠藤機工,,有限会社,長崎県,佐世保市,日野町１０２７番地,,42,202,8580923,,,2024-11-11,清算の結了等,,,2015-10-05,1,,,,,エンドウキコウ,0
2695,9370302001361,登記記録の閉鎖等,0,2024-11-18,2024-11-11,有限会社鈴木商店,,有限会社,宮城県,石巻市,桃生町神取字山下４５番地,,04,202,9860323,,,2024-11-11,清算の結了等,,,2015-10-05,1,,,,,スズキショウテン,0
