sequenceNumber,corporateNumber,process,correct,updateDate,changeDate,name,nameImageId,kind,prefectureName,cityName,streetNumber,addressImageId,prefectureCode,cityCode,postCode,addressOutside,addressOutsideImageId,closeDate,closeCause,successorCorporateNumber,changeCause,assignmentDate,latest,enName,enPrefectureName,enCityName,enAddressOutside,furigana,hihyoji
14,1010001236632,新規,0,2023-07-10,2023-07-10,株式会社濱田,,株式会社,東京都,千代田区,有楽町１丁目９番１号,,13,101,1000006,,,,,,,2023-07-10,1,,,,,ハマダ,0
15,1010001236640,新規,0,2023-07-10,2023-07-10,Ｓｏｌｅ株式会社,,株式会社,東京都,文京区,白山１丁目２５－１５－６０３号,,13,105,1130001,,,,,,,2023-07-10,1,,,,,ソーレ,0
20,1010003041023,新規,0,2023-07-10,2023-07-10,合同会社Ｂｒｉｄｇｅ　Ｃｏｍｐａｎｙ,,合同会社,東京都,中央区,銀座１丁目２２番１１号銀座大竹ビジデンス２Ｆ,,13,102,1040061,,,,,,,2023-07-10,1,,,,,ブリッジカンパニー,0
21,1010003041064,新規,0,2023-07-10,2023-07-10,合同会社ＫＯＦ,,合同会社,東京都,中央区,日本橋１丁目４番１号日本橋一丁目ビルディング,,13,102,1030027,,,,,,,2023-07-10,1,,,,,ケイオーエフ,0
25,1010005036913,新規,0,2023-07-10,2023-07-10,一般社団法人日本クレド,,その他の設立登記法人,東京都,中央区,京橋１丁目３番２号,,13,102,1040031,,,,,,,2023-07-10,1,,,,,ニホンクレド,0
28,1010401175447,新規,0,2023-07-10,2023-07-10,ウリリウジャパン株式会社,,株式会社,東京都,港区,六本木７丁目３番２４号,,13,103,1060032,,,,,,,2023-07-10,1,,,,,ウリリウジャパン,0
29,1010401175538,新規,0,2023-07-10,2023-07-10,株式会社ＭＥＤＩＲＯＭ　ＭＯＴＨＥＲ　Ｌａｂｓ,,株式会社,東京都,港区,台場２丁目３番１号,,13,103,1350091,,,,,,,2023-07-10,1,,,,,メディロムマザーラボ,0
30,1010401175579,新規,0,2023-07-10,2023-07-10,ラフテルジャパン株式会社,,株式会社,東京都,港区,虎ノ門５丁目１３番１号虎ノ門４０ＭＴビル７階,,13,103,1050001,,,,,,,2023-07-10,1,,,,,ラフテルジャパン,0
31,1010401175587,新規,0,2023-07-10,2023-07-10,プラステックジャパン株式会社,,株式会社,東京都,港区,三田１丁目２番１８号ＴＴＤビル,,13,103,1080073,,,,,,,2023-07-10,1,,,,,プラステックジャパン,0
32,1010401175612,新規,0,2023-07-10,2023-07-10,株式会社ＦＡ５号,,株式会社,東京都,港区,赤坂８丁目６－１７－５０１,,13,103,1070052,,,,,,,2023-07-10,1,,,,,エフエイゴゴウ,0
41,1010601063385,新規,0,2023-07-10,2023-07-10,大粤精工株式会社,,株式会社,東京都,墨田区,錦糸２丁目４－６ハローオフィス錦糸町５１１号室,,13,107,1300013,,,,,,,2023-07-10,1,,,,,オオエツセイコウ,0
42,1010603010237,新規,0,2023-07-10,2023-07-10,ほっこりケア合同会社,,合同会社,東京都,江東区,亀戸７丁目６１番地６－３０７号,,13,108,1360071,,,,,,,2023-07-10,1,,,,,ホッコリケア,0
57,1010901053383,新規,0,2023-07-10,2023-07-10,株式会社エス・マーク,,株式会社,東京都,世田谷区,千歳台５丁目６番３号,,13,112,1570071,,,,,,,2023-07-10,1,,,,,エスマーク,0
58,1010903008311,新規,0,2023-07-10,2023-07-10,ｆｒｅｑ　ａｕｄｉｏ合同会社,,合同会社,東京都,世田谷区,粕谷１丁目１１番２２号,,13,112,1570063,,,,,,,2023-07-10,1,,,,,フレックオーディオ,0
67,1011001155558,新規,0,2023-07-10,2023-07-10,株式会社ビイライフ,,株式会社,東京都,渋谷区,道玄坂１丁目１０番８号渋谷道玄坂東急ビル２Ｆ－Ｃ,,13,113,1500043,,,,,,,2023-07-10,1,,,,,ビイライフ,0
75,1011101103540,新規,0,2023-07-10,2023-07-10,干寶文化株式会社,,株式会社,東京都,新宿区,西新宿５丁目５番１－４１１２号,,13,104,1600023,,,,,,,2023-07-10,1,,,,,カンホウブンカ,0
76,1011103013234,新規,0,2023-07-10,2023-07-10,合同会社ホワイト,,合同会社,東京都,新宿区,西新宿３丁目３番１３号西新宿水間ビル２階,,13,104,1600023,,,,,,,2023-07-10,1,,,,,ホワイト,0
84,1011601026968,新規,0,2023-07-10,2023-07-10,株式会社石原制作所,,株式会社,東京都,練馬区,大泉町６丁目１０番２号,,13,120,1780062,,,,,,,2023-07-10,1,,,,,イシハラセイサクショ,0
86,1011801042682,新規,0,2023-07-10,2023-07-10,日の宮建設株式会社,,株式会社,東京都,葛飾区,亀有５丁目２８番１２号エヴァーグリーン参番館１Ｆ,,13,122,1250061,,,,,,,2023-07-10,1,,,,,ヒノミヤケンセツ,0
102,1020001152341,新規,0,2023-07-10,2023-07-10,株式会社ＦＩＸＥＲ,,株式会社,神奈川県,横浜市神奈川区,羽沢町５８３－３８,,14,102,2210863,,,,,,,2023-07-10,1,,,,,フィクサー,0
103,1020001152374,新規,0,2023-07-10,2023-07-10,Ｌａｔｔｅａ　Ａｃｃｏｕｎｔｉｎｇ株式会社,,株式会社,神奈川県,横浜市中区,桜木町２丁目２港陽ビル,,14,104,2310062,,,,,,,2023-07-10,1,,,,,ラッティアアカウンティング,0
104,1020001152382,新規,0,2023-07-10,2023-07-10,株式会社エヌヴィックス,,株式会社,神奈川県,横浜市旭区,東希望が丘１３番地１,,14,112,2410826,,,,,,,2023-07-10,1,,,,,エヌヴィックス,0
105,1020001152390,新規,0,2023-07-10,2023-07-10,ＮＡ　Ｇｒｏｕｐ株式会社,,株式会社,神奈川県,横浜市青葉区,美しが丘１丁目１３番地１０吉村ビル１０７－Ｇ,,14,117,2250002,,,,,,,2023-07-10,1,,,,,エヌエーグループ,0
106,1020001152399,新規,0,2023-07-10,2023-07-10,Ｏ株式会社,,株式会社,神奈川県,横浜市青葉区,あざみ野１丁目２３番地１６,,14,117,2250011,,,,,,,2023-07-10,1,,,,,オー,0
107,1020001152408,新規,0,2023-07-10,2023-07-10,リベルテコンサルティングス株式会社,,株式会社,神奈川県,横浜市南区,中里１丁目２１－１０,,14,105,2320063,,,,,,,2023-07-10,1,,,,,リベルテコンサルティングス,0
108,1020001152432,新規,0,2023-07-10,2023-07-10,株式会社ＨＡＳ,,株式会社,神奈川県,横浜市緑区,中山２丁目５番１号－３１７号,,14,113,2260019,,,,,,,2023-07-10,1,,,,,エイチエーエス,0
122,1030001154733,新規,0,2023-07-10,2023-07-10,ＴＭＹグループ株式会社,,株式会社,埼玉県,さいたま市南区,曲本３丁目１番１４号,,11,108,3360033,,,,,,,2023-07-10,1,,,,,ティーエムワイグループ,0
123,1030001154824,新規,0,2023-07-10,2023-07-10,株式会社永富設備,,株式会社,埼玉県,川口市,大字道合７１番地の３,,11,203,3330835,,,,,,,2023-07-10,1,,,,,ナガトミセツビ,0
124,1030003022070,新規,0,2023-07-10,2023-07-10,合同会社ディープラン,,合同会社,埼玉県,上尾市,小泉１丁目３－２,,11,219,3620063,,,,,,,2023-07-10,1,,,,,ディープラン,0
130,1040001129156,新規,0,2023-07-10,2023-07-10,株式会社ＤＩＳＨＷＥＬＬ,,株式会社,千葉県,流山市,おおたかの森西１丁目１０番地の６フェリシアおおたかの森５０３,,12,220,2700128,,,,,,,2023-07-10,1,,,,,ディッシュウェル,0
131,1040001129189,新規,0,2023-07-10,2023-07-10,株式会社恒信トレード,,株式会社,千葉県,松戸市,栄町西４丁目１１６３番地の３,,12,207,2710061,,,,,,,2023-07-10,1,,,,,コウシントレード,0
136,1040003022920,新規,0,2023-07-10,2023-07-10,合同会社ウエストテール,,合同会社,千葉県,我孫子市,中里１９４番地の８,,12,222,2701122,,,,,,,2023-07-10,1,,,,,ウエストテール,0
138,1050001053074,新規,0,2023-07-10,2023-07-10,ベルフルール株式会社,,株式会社,茨城県,神栖市,大野原中央２丁目１番３３号,,08,232,3140128,,,,,,,2023-07-10,1,,,,,ベルフルール,0
139,1050001053090,新規,0,2023-07-10,2023-07-10,株式会社日本自然物研究所,,株式会社,茨城県,かすみがうら市,加茂５３０３番地２７,,08,230,3000135,,,,,,,2023-07-10,1,,,,,ニホンシゼンブツケンキュウジョ,0
140,1050001053108,新規,0,2023-07-10,2023-07-10,株式会社倉持米穀店,,株式会社,茨城県,坂東市,小山４８番地１,,08,228,3060626,,,,,,,2023-07-10,1,,,,,クラモチベイコクテン,0
141,1060001036128,新規,0,2023-07-10,2023-07-10,吉川グループ株式会社,,株式会社,栃木県,佐野市,堀米町３６４３番地,,09,204,3270843,,,,,,,2023-07-10,1,,,,,ヨシカワグループ,0
143,1070001040624,新規,0,2023-07-10,2023-07-10,株式会社楽設,,株式会社,群馬県,前橋市,滝窪町４０２番地１,,10,201,3710235,,,,,,,2023-07-10,1,,,,,ラクセツ,0
145,1080101024113,新規,0,2023-07-10,2023-07-10,シー・エム・イー株式会社,,株式会社,静岡県,富士市,宇東川東町４番９号,,22,210,4170853,,,,,,,2023-07-10,1,,,,,シーエムイー,0
147,1080401026593,新規,0,2023-07-10,2023-07-10,ＢｉＡＫ株式会社,,株式会社,静岡県,浜松市東区,有玉南町１８６７－１,,22,132,4313122,,,,,,,2023-07-10,1,,,,,ビアク,0
149,1080405007557,新規,0,2023-07-10,2023-07-10,一条タウン西伊場団地管理組合法人,,その他の設立登記法人,静岡県,浜松市中区,西伊場町８３番２号,,22,131,4328038,,,,,,,2023-07-10,1,,,,,イチジョウタウンニシイバ,0
171,1120001256165,新規,0,2023-07-10,2023-07-10,天悦株式会社,,株式会社,大阪府,大阪市大正区,三軒家西３丁目４番１６号中山ビル２１７Ａ,,27,108,5510001,,,,,,,2023-07-10,1,,,,,テンエツ,0
172,1120001256173,新規,0,2023-07-10,2023-07-10,ＳＨＥＮＧＣＨＯＮＧ株式会社,,株式会社,大阪府,大阪市大正区,三軒家西３丁目４番１６号中山ビル３０２Ａ,,27,108,5510001,,,,,,,2023-07-10,1,,,,,シェングチョング,0
173,1120005023727,新規,0,2023-07-10,2023-07-10,医療法人ＹＳメディカル,,その他の設立登記法人,大阪府,大阪市都島区,中野町５丁目３番１８号,,27,102,5340027,,,,,,,2023-07-10,1,,,,,ワイエスメディカル,0
174,1120005023735,新規,0,2023-07-10,2023-07-10,医療法人石田クリニック,,その他の設立登記法人,大阪府,寝屋川市,香里南之町２７番３０号長楽ビル２階,,27,215,5720084,,,,,,,2023-07-10,1,,,,,イシダクリニック,0
179,1120103005313,新規,0,2023-07-10,2023-07-10,合同会社お魚の家ハルちゃん,,合同会社,大阪府,堺市西区,上野芝町３丁６－１２－５０６,,27,144,5938301,,,,,,,2023-07-10,1,,,,,オサカナノイエハルチャン,0
183,1120905006483,新規,0,2023-07-10,2023-07-10,医療法人照隅会,,その他の設立登記法人,大阪府,吹田市,長野東７番２４号グランドセンター千里丘２階,,27,205,5650816,,,,,,,2023-07-10,1,,,,,ショウグウカイ,0
195,1140001130756,新規,0,2023-07-10,2023-07-10,株式会社ＴＴＳ,,株式会社,兵庫県,姫路市,飾磨区妻鹿１６０番地ＮＪＳメゾネットＣ号,,28,201,6728031,,,,,,,2023-07-10,1,,,,,ティティエス,0
196,1140001130780,新規,0,2023-07-10,2023-07-10,株式会社永井水産,,株式会社,兵庫県,加古川市,東神吉町神吉１７１７番地の４,,28,210,6750057,,,,,,,2023-07-10,1,,,,,ナガイスイサン,0
203,1160001025145,新規,0,2023-07-10,2023-07-10,株式会社ＧＩＧＡ,,株式会社,滋賀県,彦根市,平田町１３４番地１タウンビル３Ｄ号,,25,202,5220041,,,,,,,2023-07-10,1,,,,,ギガ,0
207,1170001017678,新規,0,2023-07-10,2023-07-10,隼総建株式会社,,株式会社,和歌山県,和歌山市,内原９９２番地１０,,30,201,6410013,,,,,,,2023-07-10,1,,,,,ハヤブサソウケン,0
223,1180001156979,新規,0,2023-07-10,2023-07-10,株式会社ＳＫＭ　ｆａｃｔｏｒｙ,,株式会社,愛知県,清須市,朝日愛宕７６番地,,23,233,4520932,,,,,,,2023-07-10,1,,,,,エスケイエムファクトリー,0
224,1180001156987,新規,0,2023-07-10,2023-07-10,株式会社レンダリングヴァケイション,,株式会社,愛知県,名古屋市緑区,浦里１丁目８４番地の６,,23,114,4580847,,,,,,,2023-07-10,1,,,,,レンダリングヴァケイション,0
225,1180001157003,新規,0,2023-07-10,2023-07-10,エムズプラス株式会社,,株式会社,愛知県,名古屋市天白区,野並１丁目１１０番地の３,,23,116,4680045,,,,,,,2023-07-10,1,,,,,エムズプラス,0
226,1180001157028,新規,0,2023-07-10,2023-07-10,株式会社Ｓａｎｔｏ,,株式会社,愛知県,名古屋市南区,豊２丁目１３番２７号,,23,112,4570863,,,,,,,2023-07-10,1,,,,,サント,0
227,1180001157036,新規,0,2023-07-10,2023-07-10,株式会社ミライ創生,,株式会社,愛知県,名古屋市守山区,大谷町２番４７号エルフ杉の木３０２号,,23,113,4630041,,,,,,,2023-07-10,1,,,,,ミライソウセイ,0
229,1180003025439,新規,0,2023-07-10,2023-07-10,合同会社タイザン,,合同会社,愛知県,名古屋市名東区,丁田町８０番地の５,,23,115,4650027,,,,,,,2023-07-10,1,,,,,タイザン,0
236,1200003006007,新規,0,2023-07-10,2023-07-10,アンベリール合同会社,,合同会社,岐阜県,可児市,今渡２１２２番地１,,21,214,5090207,,,,,,,2023-07-10,1,,,,,アンベリール,0
245,1230003002052,新規,0,2023-07-10,2023-07-10,永栄ビークル合同会社,,合同会社,富山県,富山市,桜町１丁目５番１５－１３０６号プレミア富山駅前,,16,201,9300003,,,,,,,2023-07-10,1,,,,,ナガエビークル,0
246,1230005009319,新規,0,2023-07-10,2023-07-10,農事組合法人元新屋受託組合,,その他の設立登記法人,富山県,下新川郡入善町,新屋１６８番地,,16,342,9390637,,,,,,,2023-07-10,1,,,,,モトアラヤジュタククミアイ,0
248,1240001061768,新規,0,2023-07-10,2023-07-10,株式会社西国街道の駅,,株式会社,広島県,三原市,糸崎４丁目２１番１号,,34,204,7290324,,,,,,,2023-07-10,1,,,,,サイコクカイドウノエキ,0
253,1260001038112,新規,0,2023-07-10,2023-07-10,株式会社大塚屋,00131119,株式会社,岡山県,玉野市,田井５丁目３８番２５号,,33,204,7060001,,,,,,,2023-07-10,1,,,,,オオツカヤ,0
256,1280003001743,新規,0,2023-07-10,2023-07-10,合同会社スターダスト,,合同会社,島根県,出雲市,大津町２０２０番地３,,32,203,6930011,,,,,,,2023-07-10,1,,,,,スターダスト,0
262,1290001102170,新規,0,2023-07-10,2023-07-10,株式会社Ｌ’ｅｓｐｏｉｒ,,株式会社,福岡県,福岡市博多区,博多駅前１丁目２３番２号ＰａｒｋＦｒｏｎｔ博多駅前１丁目５Ｆ－Ｂ,,40,132,8120011,,,,,,,2023-07-10,1,,,,,レスポワール,0
263,1290001102195,新規,0,2023-07-10,2023-07-10,株式会社Ｇｏｅｚ,,株式会社,福岡県,福岡市博多区,博多駅前１丁目２３番２号ＰａｒｋＦｒｏｎｔ博多駅前１丁目５Ｆ－Ｂ,,40,132,8120011,,,,,,,2023-07-10,1,,,,,ゴーズ,0
265,1290003014091,新規,0,2023-07-10,2023-07-10,合同会社Ｋａｎｕｎｕ,,合同会社,福岡県,福岡市博多区,築港本町１‐９アクアヒルズ天神東９０３号,,40,132,8120021,,,,,,,2023-07-10,1,,,,,カヌヌ,0
269,1310003004602,新規,0,2023-07-10,2023-07-10,合同会社ナガデン,,合同会社,長崎県,諫早市,長野町１７５６番地２,,42,204,8540036,,,,,,,2023-07-10,1,,,,,ナガデン,0
272,1320001019873,新規,0,2023-07-10,2023-07-10,株式会社コレクションワーク,,株式会社,大分県,大分市,下郡南４丁目６番２３号ヴェルドミールＩＩＩ２０２,00131104,44,201,8700955,,,,,,,2023-07-10,1,,,,,コレクションワーク,0
278,1340001025696,新規,0,2023-07-10,2023-07-10,株式会社Ｋ‐ｓｔｙｌｅ,,株式会社,鹿児島県,肝属郡肝付町,前田３９１０番地３９,,46,492,8931206,,,,,,,2023-07-10,1,,,,,ケースタイル,0
279,1340001025713,新規,0,2023-07-10,2023-07-10,株式会社訪問理美容きずな,,株式会社,鹿児島県,鹿児島市,西谷山３丁目２番８号１０２号,,46,201,8910117,,,,,,,2023-07-10,1,,,,,ホウモンリビヨウキズナ,0
301,1500001025052,新規,0,2023-07-10,2023-07-10,株式会社ＨＡＮＤ,,株式会社,愛媛県,新居浜市,郷４丁目１６番２７号,,38,205,7920886,,,,,,,2023-07-10,1,,,,,ハンド,0
302,1500001025060,新規,0,2023-07-10,2023-07-10,株式会社クワタ設備,,株式会社,愛媛県,松山市,南梅本町甲１０８２番地１１,,38,201,7910245,,,,,,,2023-07-10,1,,,,,クワタセツビ,0
318,2010001236697,新規,0,2023-07-10,2023-07-10,高樹町ワイナリー株式会社,,株式会社,東京都,千代田区,霞が関３丁目２番５号,,13,101,1000013,,,,,,,2023-07-10,1,,,,,タカギチョウワイナリー,0
319,2010001236722,新規,0,2023-07-10,2023-07-10,株式会社エリンギ,,株式会社,東京都,千代田区,神田和泉町１番地６－１６ヤマトビル４０５,,13,101,1010024,,,,,,,2023-07-10,1,,,,,エリンギ,0
320,2010001236763,新規,0,2023-07-10,2023-07-10,株式会社アイオープン,,株式会社,東京都,中央区,銀座１丁目１２－４Ｎ＆ＥＢＬＤ．７階,,13,102,1040061,,,,,,,2023-07-10,1,,,,,アイオープン,0
321,2010001236771,新規,0,2023-07-10,2023-07-10,株式会社ＰＭＧ,,株式会社,東京都,千代田区,内幸町１丁目３－１幸ビルディング９Ｆ,,13,101,1000011,,,,,,,2023-07-10,1,,,,,ピーエムジー,0
323,2010003040965,新規,0,2023-07-10,2023-07-10,合同会社ＴＵＲＮＩＮＧＰＯＩＮＴ,,合同会社,東京都,中央区,京橋１丁目６－１３－６Ｆ,,13,102,1040031,,,,,,,2023-07-10,1,,,,,ターニングポイント,0
324,2010003041039,新規,0,2023-07-10,2023-07-10,合同会社ＳＳ,,合同会社,東京都,千代田区,丸の内３丁目１番１号東京共同会計事務所内,,13,101,1000005,,,,,,,2023-07-10,1,,,,,エスエス,0
325,2010101015712,新規,0,2023-07-10,2023-07-10,株式会社八王子ウェルネスサプライ,,株式会社,東京都,八王子市,七国５丁目２６番１１号,,13,201,1920919,,,,,,,2023-07-10,1,,,,,ウェルネスサプライ,0
336,2010401175470,新規,0,2023-07-10,2023-07-10,株式会社ＳａｙＳａｙ,,株式会社,東京都,港区,麻布台１丁目８番１０号,,13,103,1060041,,,,,,,2023-07-10,1,,,,,セイセイ,0
337,2010401175487,新規,0,2023-07-10,2023-07-10,株式会社うみ,,株式会社,東京都,港区,台場２丁目２－２,,13,103,1350091,,,,,,,2023-07-10,1,,,,,ウミ,0
338,2010401175512,新規,0,2023-07-10,2023-07-10,株式会社Ｓｐｅｌｌａ,,株式会社,東京都,港区,北青山１丁目３番１号アールキューブ青山３階,,13,103,1070061,,,,,,,2023-07-10,1,,,,,スペラ,0
339,2010401175553,新規,0,2023-07-10,2023-07-10,ＬＳＢ　ＨＯＬＤＩＮＧＳ株式会社,,株式会社,東京都,港区,六本木５丁目１６番５０号六本木デュープレックスエムズ４１２号室,,13,103,1060032,,,,,,,2023-07-10,1,,,,,エルエスビーホールディングス,0
342,2010403030434,新規,0,2023-07-10,2023-07-10,合同会社ヘルプ＆アシスト,,合同会社,東京都,港区,北青山１丁目３番１号アールキューブ青山３階,,13,103,1070061,,,,,,,2023-07-10,1,,,,,ヘルプアンドアシスト,0
343,2010403030459,新規,0,2023-07-10,2023-07-10,ＯＭＯＴＥＳＡＮＤＯ　ＫＯＦＦＥＥ　ＪＡＰＡＮ合同会社,,合同会社,東京都,港区,麻布台３丁目３番１２号Ｗ．Ｉ．Ｔビル３０１,,13,103,1060041,,,,,,,2023-07-10,1,,,,,オモテサンドウコーヒージャパン,0
346,2010601063384,新規,0,2023-07-10,2023-07-10,株式会社両国ごちそう研究所,,株式会社,東京都,墨田区,横網１丁目２番１６号両国ガイビル國技館前１Ｆ,,13,107,1300015,,,,,,,2023-07-10,1,,,,,リョウゴクゴチソウケンキュウジョ,0
352,2010701044540,新規,0,2023-07-10,2023-07-10,海洋測量株式会社,,株式会社,東京都,品川区,東五反田４丁目７番１９号,,13,109,1410022,,,,,,,2023-07-10,1,,,,,カイヨウソクリョウ,0
356,2010901053333,新規,0,2023-07-10,2023-07-10,株式会社スタジオアルク,,株式会社,東京都,世田谷区,玉川３丁目３３番８号ＢＬＯＯＭＴＡＭＡＧＡＷＡ４０２,,13,112,1580094,,,,,,,2023-07-10,1,,,,,スタジオアルク,0
357,2010901053382,新規,0,2023-07-10,2023-07-10,株式会社Ｄｅａｌ,,株式会社,東京都,世田谷区,北沢２丁目３３番１１号ＳＹ－Ｉ３Ｆ,00131117,13,112,1550031,,,,,,,2023-07-10,1,,,,,ディール,0
360,2010903008302,新規,0,2023-07-10,2023-07-10,合同会社ＳＹＳ,,合同会社,東京都,世田谷区,代田２丁目１２番１７号,,13,112,1550033,,,,,,,2023-07-10,1,,,,,エスワイエス,0
362,2011001155425,新規,0,2023-07-10,2023-07-10,ＥＳＧキャピタル株式会社,,株式会社,東京都,渋谷区,桜丘町９番１７ＡＮＤＦＩＲＳＴＢＬＤＧ．１階,,13,113,1500031,,,,,,,2023-07-10,1,,,,,イーエスジーキャピタル,0
371,2011101103507,新規,0,2023-07-10,2023-07-10,株式会社ＥＪ　ＪＡＰＡＮ,,株式会社,東京都,新宿区,大久保１丁目７番２６号,,13,104,1690072,,,,,,,2023-07-10,1,,,,,イジェイジャパン,0
373,2011103013233,新規,0,2023-07-10,2023-07-10,合同会社ＫＢＧ,,合同会社,東京都,新宿区,歌舞伎町２丁目２５番２号荒生ビル５階,,13,104,1600021,,,,,,,2023-07-10,1,,,,,ケービージー,0
376,2011203004124,新規,0,2023-07-10,2023-07-10,合同会社弦花,,合同会社,東京都,中野区,中野３丁目３４－３２－７０４,,13,114,1640001,,,,,,,2023-07-10,1,,,,,イトカ,0
382,2011401025260,新規,0,2023-07-10,2023-07-10,株式会社ＲＹＳＥ,,株式会社,東京都,板橋区,板橋１丁目４１番１４号,,13,119,1730004,,,,,,,2023-07-10,1,,,,,ライズ,0
387,2011701026405,新規,0,2023-07-10,2023-07-10,株式会社ＥＸＹ,,株式会社,東京都,江戸川区,篠崎町４丁目１０番１８号,,13,123,1330061,,,,,,,2023-07-10,1,,,,,エクシー,0
389,2012401040712,新規,0,2023-07-10,2023-07-10,株式会社ほっとＡｒｃ,,株式会社,東京都,三鷹市,下連雀３丁目３３番２０号三鷹第三ビル８０１,,13,204,1810013,,,,,,,2023-07-10,1,,,,,ホットアーク,0
390,2012403006050,新規,0,2023-07-10,2023-07-10,合同会社ｏｒｉｊｏｓ,,合同会社,東京都,武蔵野市,吉祥寺南町１丁目２３‐６,,13,203,1800003,,,,,,,2023-07-10,1,,,,,オリジョス,0
391,2012405004878,新規,0,2023-07-10,2023-07-10,司法書士法人海埜事務所,,その他の設立登記法人,東京都,調布市,小島町３丁目６６番地１モンレーヴ調布５０１,,13,208,1820026,,,,,,,2023-07-10,1,,,,,ウミノジムショ,0
396,2020001152324,新規,0,2023-07-10,2023-07-10,株式会社ＰＲＯＧＲＥＳＳ,,株式会社,神奈川県,横浜市旭区,南本宿町１５５番地２,,14,112,2410833,,,,,,,2023-07-10,1,,,,,プログレス,0
397,2020001152340,新規,0,2023-07-10,2023-07-10,ロマンクラフト株式会社,,株式会社,神奈川県,川崎市宮前区,有馬５丁目２３番６号ブールバールサギヌマ１０１,,14,136,2160003,,,,,,,2023-07-10,1,,,,,ロマンクラフト,0
398,2020001152349,新規,0,2023-07-10,2023-07-10,阿久津総合事務所株式会社,,株式会社,神奈川県,横浜市港北区,新横浜２丁目５番１４号ＷＩＳＥＮＥＸＴ新横浜５階,,14,109,2220033,,,,,,,2023-07-10,1,,,,,アクツソウゴウジムショ,0
399,2020001152381,新規,0,2023-07-10,2023-07-10,株式会社ワブタス,,株式会社,神奈川県,横浜市港北区,新羽町６２２－１クリオ新横浜北参番館２０６,,14,109,2230057,,,,,,,2023-07-10,1,,,,,ワブタス,0
400,2020001152398,新規,0,2023-07-10,2023-07-10,ｔｏ株式会社,,株式会社,神奈川県,横浜市青葉区,あざみ野１丁目２３番地１６,,14,117,2250011,,,,,,,2023-07-10,1,,,,,トゥー,0
401,2020001152415,新規,0,2023-07-10,2023-07-10,株式会社ＹＯＡＫＡＳＨＩ,,株式会社,神奈川県,横浜市保土ケ谷区,桜ケ丘２丁目２－５,,14,106,2400011,,,,,,,2023-07-10,1,,,,,ヨアカシ,0
402,2020001152431,新規,0,2023-07-10,2023-07-10,ヴィタリテ株式会社,,株式会社,神奈川県,川崎市中原区,小杉町３丁目２４－１０,,14,133,2110063,,,,,,,2023-07-10,1,,,,,ヴィタリテ,0
403,2020001152456,新規,0,2023-07-10,2023-07-10,株式会社クロフネチンタイ管理,,株式会社,神奈川県,横浜市鶴見区,上末吉４丁目１１番４号アネックス第一ハイムＡ棟１０２,,14,101,2300011,,,,,,,2023-07-10,1,,,,,クロフネチンタイカンリ,0
410,2021001079367,新規,0,2023-07-10,2023-07-10,一心株式会社,,株式会社,神奈川県,相模原市南区,相武台２丁目１８－１アレグリアＮ１０５号室,,14,153,2520324,,,,,,,2023-07-10,1,,,,,イッシン,0
411,2021001079532,新規,0,2023-07-10,2023-07-10,株式会社鎌倉ライフラボ,,株式会社,神奈川県,鎌倉市,御成町１１－２ヤノヤビル２Ｆ,,14,204,2480012,,,,,,,2023-07-10,1,,,,,カマクラライフラボ,0
419,2030001154798,新規,0,2023-07-10,2023-07-10,株式会社田崎圧送,00131109,株式会社,埼玉県,さいたま市岩槻区,南平野３丁目２７番地１５,,11,110,3390051,,,,,,,2023-07-10,1,,,,,タザキアッソウ,0
427,2040001129147,新規,0,2023-07-10,2023-07-10,株式会社協和商事,,株式会社,千葉県,千葉市稲毛区,長沼原町３３４番地,,12,103,2630001,,,,,,,2023-07-10,1,,,,,キョウワショウジ,0
428,2040001129155,新規,0,2023-07-10,2023-07-10,ＩＫ株式会社,,株式会社,千葉県,習志野市,実籾４丁目１３－１７－２０２,00131108,12,216,2750002,,,,,,,2023-07-10,1,,,,,アイケー,0
429,2040001129196,新規,0,2023-07-10,2023-07-10,株式会社板倉興業,,株式会社,千葉県,千葉市緑区,古市場町７５番地２,,12,105,2660026,,,,,,,2023-07-10,1,,,,,イタクラコウギョウ,0
432,2040003022911,新規,0,2023-07-10,2023-07-10,そらすかい合同会社,,合同会社,千葉県,我孫子市,我孫子４丁目３４番１２号,,12,222,2701166,,,,,,,2023-07-10,1,,,,,ソラスカイ,0
433,2040003022928,新規,0,2023-07-10,2023-07-10,合同会社ＮＥＷ　ＣＨＡＬＬＥＮＧＥ,,合同会社,千葉県,千葉市中央区,末広４丁目６番９号,,12,101,2600843,,,,,,,2023-07-10,1,,,,,ニューチャレンジ,0
434,2040003022936,新規,0,2023-07-10,2023-07-10,ＹＯＬＯ　ＤＥＳＩＧＮＷＯＲＫＳ合同会社,,合同会社,千葉県,柏市,手賀の杜１丁目２３番地９,,12,217,2701447,,,,,,,2023-07-10,1,,,,,ヨーローデザインワークス,0
436,2050001053073,新規,0,2023-07-10,2023-07-10,株式会社ＭＡＩ商事,,株式会社,茨城県,坂東市,逆井３６５９番地１,,08,228,3060501,,,,,,,2023-07-10,1,,,,,マイショウジ,0
437,2050001053098,新規,0,2023-07-10,2023-07-10,株式会社北陽,,株式会社,茨城県,鹿嶋市,大字下津１５３番地１,,08,222,3140004,,,,,,,2023-07-10,1,,,,,ホクヨウ,0
438,2050001053107,新規,0,2023-07-10,2023-07-10,株式会社はなまる,,株式会社,茨城県,古河市,関戸１７６０番地１１,,08,204,3060205,,,,,,,2023-07-10,1,,,,,ハナマル,0
443,2080405007556,新規,0,2023-07-10,2023-07-10,一般社団法人竜洋しらす鰻採捕団体,,その他の設立登記法人,静岡県,磐田市,駒場４１３５番地１,,22,211,4380233,,,,,,,2023-07-10,1,,,,,リュウヨウシラスウナギサイホダンタイ,0
449,2110003005108,新規,0,2023-07-10,2023-07-10,合同会社ジーフロウ,,合同会社,新潟県,新潟市中央区,天神１丁目１プラーカ３ＨｕｂｓｔａｔｉｏｎＫＡＮＴＯ内,,15,103,9500917,,,,,,,2023-07-10,1,,,,,,0
459,2120001256156,新規,0,2023-07-10,2023-07-10,瑞達株式会社,,株式会社,大阪府,大阪市西淀川区,御幣島１丁目１１－２,,27,113,5550012,,,,,,,2023-07-10,1,,,,,ズイタツ,0
460,2120001256247,新規,0,2023-07-10,2023-07-10,株式会社新日本サービス,,株式会社,大阪府,大阪市中央区,宗右衛門町３－３キャナルサイドビル４階,,27,128,5420084,,,,,,,2023-07-10,1,,,,,シンニホンサービス,0
461,2120001256338,新規,0,2023-07-10,2023-07-10,株式会社ファーストアンドトライ,,株式会社,大阪府,門真市,新橋町２４番６－１号,,27,223,5710048,,,,,,,2023-07-10,1,,,,,ファーストアンドトライ,0
465,2120005023718,新規,0,2023-07-10,2023-07-10,一般社団法人ペーパードライバー講習協会,,その他の設立登記法人,大阪府,門真市,新橋町２４番６－１号,,27,223,5710048,,,,,,,2023-07-10,1,,,,,ペーパードライバーコウシュウキョウカイ,0
466,2120005023734,新規,0,2023-07-10,2023-07-10,医療法人蒼風会,,その他の設立登記法人,大阪府,大阪市平野区,瓜破２丁目１番４号喜連瓜破メディカルモール２階,,27,126,5470024,,,,,,,2023-07-10,1,,,,,ソウフウカイ,0
472,2120901047761,新規,0,2023-07-10,2023-07-10,ヴァンガードジャパン販売株式会社,,株式会社,大阪府,豊中市,庄内幸町４丁目１８番８号,,27,203,5610833,,,,,,,2023-07-10,1,,,,,ヴァンガードジャパンハンバイ,0
475,2120905006482,新規,0,2023-07-10,2023-07-10,一般社団法人前立腺画像支援機構,,その他の設立登記法人,大阪府,吹田市,藤白台２丁目１番１６－２号,,27,205,5650873,,,,,,,2023-07-10,1,,,,,ゼンリツセンガゾウシエンキコウ,0
481,2130001074680,新規,0,2023-07-10,2023-07-10,株式会社竹トンボ,,株式会社,京都府,京都市北区,紫野上野町１２６番地３,,26,101,6038242,,,,,,,2023-07-10,1,,,,,タケトンボ,0
484,2130003008819,新規,0,2023-07-10,2023-07-10,合同会社ＭＡＫＡＳＥＴＥ,,合同会社,京都府,京都市下京区,綾小路通東洞院東入神明町２３３番地,,26,106,6008092,,,,,,,2023-07-10,1,,,,,マカセテ,0
485,2130003008843,新規,0,2023-07-10,2023-07-10,合同会社３ＹＭ,,合同会社,京都府,京都市中京区,堺町通御池下る丸木材木町６７１番地エクレーヌ御池６０８号,,26,104,6048106,,,,,,,2023-07-10,1,,,,,スリーワイエム,0
486,2130003008851,新規,0,2023-07-10,2023-07-10,京都つばめ不動産合同会社,,合同会社,京都府,宇治市,木幡平尾２７番地の５３８,,26,204,6110002,,,,,,,2023-07-10,1,,,,,キョウトツバメフドウサン,0
488,2130005016811,新規,0,2023-07-10,2023-07-10,医療法人彩友会,,その他の設立登記法人,京都府,京田辺市,河原御影３０番地５２,,26,211,6100361,,,,,,,2023-07-10,1,,,,,サイユウカイ,0
491,2140001130739,新規,0,2023-07-10,2023-07-10,株式会社泰永,,株式会社,兵庫県,神戸市灘区,篠原台１７番１２号,,28,102,6570016,,,,,,,2023-07-10,1,,,,,タエ,0
492,2140001130755,新規,0,2023-07-10,2023-07-10,株式会社キャタライズ,,株式会社,兵庫県,神戸市中央区,中山手通３丁目７番２８号８０５,,28,110,6500004,,,,,,,2023-07-10,1,,,,,キャタライズ,0
493,2140001130763,新規,0,2023-07-10,2023-07-10,株式会社あかねファーマシー,,株式会社,兵庫県,西脇市,野村町茜が丘１番地の２０,,28,213,6770057,,,,,,,2023-07-10,1,,,,,アカネファーマシー,0
494,2140001130805,新規,0,2023-07-10,2023-07-10,株式会社ＹＫホールディングス,,株式会社,兵庫県,神戸市中央区,熊内町５丁目９番６号,,28,110,6510056,,,,,,,2023-07-10,1,,,,,ワイケイホールディングス,0
498,2140003019278,新規,0,2023-07-10,2023-07-10,合同会社ゆうりん工房,,合同会社,兵庫県,神戸市中央区,磯辺通１丁目１番１８号カサベラ国際プラザビル７０７号室,,28,110,6510084,,,,,,,2023-07-10,1,,,,,ユウリンコウボウ,0
508,2180001156978,新規,0,2023-07-10,2023-07-10,株式会社Ｔ＆ＲＭファーマシー,,株式会社,愛知県,名古屋市中区,上前津２丁目１２番９号ユニロイヤル上前津６０１号,,23,106,4600013,,,,,,,2023-07-10,1,,,,,ティーアンドアールエムファーマシー,0
509,2180001157019,新規,0,2023-07-10,2023-07-10,株式会社立山工業,,株式会社,愛知県,稲沢市,祖父江町祖父江中屋敷１４５番地２－１０３,,23,220,4950001,,,,,,,2023-07-10,1,,,,,タテヤマコウギョウ,0
510,2180001157027,新規,0,2023-07-10,2023-07-10,ウェイマークコンサルティング株式会社,,株式会社,愛知県,名古屋市中区,栄３丁目１５番３３号栄ガスビル１３Ｆ,,23,106,4600008,,,,,,,2023-07-10,1,,,,,ウェイマークコンサルティング,0
513,2190001030570,新規,0,2023-07-10,2023-07-10,株式会社指勘建具工芸,,株式会社,三重県,三重郡菰野町,大字小島１５３７番地１,,24,341,5101323,,,,,,,2023-07-10,1,,,,,サシカンタテグコウゲイ,0
517,2200001041483,新規,0,2023-07-10,2023-07-10,Ａｍｉｈａ・Ｌｉｎｋ株式会社,,株式会社,岐阜県,岐阜市,菅生２丁目６番９号,,21,201,5020914,,,,,,,2023-07-10,1,,,,,アミハリンク,0
518,2200003006014,新規,0,2023-07-10,2023-07-10,合同会社マジック,,合同会社,岐阜県,岐阜市,長森本町２丁目５番１９－１号,,21,201,5008228,,,,,,,2023-07-10,1,,,,,マジック,0
525,2230005009318,新規,0,2023-07-10,2023-07-10,一般社団法人めざめの郷法雲三昧,,その他の設立登記法人,富山県,砺波市,大門７５番地,,16,208,9391316,,,,,,,2023-07-10,1,,,,,メザメノサトホウウンザンマイ,0
534,2280003001742,新規,0,2023-07-10,2023-07-10,共翔水産合同会社,,合同会社,島根県,大田市,静間町２１８番地１３,,32,205,6940031,,,,,,,2023-07-10,1,,,,,キョウショウスイサン,0
545,2300003001987,新規,0,2023-07-10,2023-07-10,靴工房レジェンド合同会社,,合同会社,佐賀県,佐賀市,光２丁目４番３０号,,41,201,8400033,,,,,,,2023-07-10,1,,,,,クツコウボウレジェンド,0
547,2310003004601,新規,0,2023-07-10,2023-07-10,合同会社ｋｅｒｏｌｉｎ,,合同会社,長崎県,諫早市,青葉台２２３番地,,42,204,8540068,,,,,,,2023-07-10,1,,,,,ケロリン,0
548,2320001019872,新規,0,2023-07-10,2023-07-10,株式会社ＦＩＲＳＴ　ＰＬＡＮ,,株式会社,大分県,大分市,大字鴛野９３３番地の１３,,44,201,8701121,,,,,,,2023-07-10,1,,,,,ファーストプラン,0
551,2330001031042,新規,0,2023-07-10,2023-07-10,オテテ株式会社,,株式会社,熊本県,熊本市西区,花園２丁目２番１号,,43,103,8600072,,,,,,,2023-07-10,1,,,,,オテテ,0
552,2340001025687,新規,0,2023-07-10,2023-07-10,株式会社ナイスワーク鹿児島,,株式会社,鹿児島県,日置市,伊集院町下谷口４６７７番地,,46,216,8992501,,,,,,,2023-07-10,1,,,,,ナイスワークカゴシマ,0
553,2340001025704,新規,0,2023-07-10,2023-07-10,株式会社Ｒ‐Ｓｐｉｒｉｔ,,株式会社,鹿児島県,姶良市,加治木町木田２３０８番地３,,46,225,8995241,,,,,,,2023-07-10,1,,,,,アールスピリット,0
554,2340005009629,新規,0,2023-07-10,2023-07-10,一般社団法人ＡＰＰＬＥ,,その他の設立登記法人,鹿児島県,鹿児島市,唐湊１丁目１５番２号,,46,201,8900081,,,,,,,2023-07-10,1,,,,,アップル,0
556,2360001032236,新規,0,2023-07-10,2023-07-10,Ｌｉｍｏ株式会社,,株式会社,沖縄県,那覇市,おもろまち２丁目５番３７号パルマビル３－Ｃ１,,47,201,9000006,,,,,,,2023-07-10,1,,,,,リーモ,0
558,2370003006195,新規,0,2023-07-10,2023-07-10,ＰｒｏＡｘｉａ合同会社,,合同会社,宮城県,遠田郡美里町,北浦字大口１３６番地５,,04,505,9870005,,,,,,,2023-07-10,1,,,,,プロアクシア,0
565,2400003003107,新規,0,2023-07-10,2023-07-10,合同会社あおぞら,,合同会社,岩手県,花巻市,西宮野目５地割２２４－２,,03,205,0250002,,,,,,,2023-07-10,1,,,,,アオゾラ,0
576,2430001089442,新規,0,2023-07-10,2023-07-10,株式会社ＮＯＤＡクリエイト,,株式会社,北海道,札幌市中央区,南二条西１２丁目３２３番地９,,01,101,0600062,,,,,,,2023-07-10,1,,,,,ノダクリエイト,0
580,2460103001541,新規,0,2023-07-10,2023-07-10,合同会社Ｊｕｎｔｏｓ,,合同会社,北海道,帯広市,大通南１８丁目２番地１,,01,207,0800010,,,,,,,2023-07-10,1,,,,,ジュントス,0
584,2470003002449,新規,0,2023-07-10,2023-07-10,大伸ＤＳ合同会社,,合同会社,香川県,高松市,香川町大野２１６３番地３４,,37,201,7611701,,,,,,,2023-07-10,1,,,,,ダイシンディーエス,0
589,2500001025051,新規,0,2023-07-10,2023-07-10,株式会社ＮＹテクノ,,株式会社,愛媛県,喜多郡内子町,知清３番地,,38,422,7913322,,,,,,,2023-07-10,1,,,,,エヌワイテクノ,0
615,3010001236696,新規,0,2023-07-10,2023-07-10,株式会社Ｔ‐Ｋｉｄｓ,,株式会社,東京都,千代田区,富士見２丁目１４番３６号,,13,101,1020071,,,,,,,2023-07-10,1,,,,,ティーキッズ,0
616,3010001236705,新規,0,2023-07-10,2023-07-10,なないろメディアパートナーズ株式会社,,株式会社,東京都,中央区,銀座１丁目１２番４号,,13,102,1040061,,,,,,,2023-07-10,1,,,,,ナナイロメディアパートナーズ,0
617,3010001236787,新規,0,2023-07-10,2023-07-10,ＳＥＴ株式会社,,株式会社,東京都,中央区,新富１丁目１５－１１マキプラザビル４０３号室,,13,102,1040041,,,,,,,2023-07-10,1,,,,,エスイーティー,0
619,3010003041062,新規,0,2023-07-10,2023-07-10,北広島系統用蓄電池合同会社,,合同会社,東京都,千代田区,大手町１丁目４番２号,,13,101,1000004,,,,,,,2023-07-10,1,,,,,キタヒロシマケイトウヨウチクデンチ,0
626,3010401175494,新規,0,2023-07-10,2023-07-10,株式会社電通アニメソリューションズ,,株式会社,東京都,港区,東新橋１丁目８番１号,,13,103,1050021,,,,,,,2023-07-10,1,,,,,デンツウアニメソリューションズ,0
627,3010401175511,新規,0,2023-07-10,2023-07-10,ｆｌｉｘｙ株式会社,,株式会社,東京都,港区,芝大門２丁目５番５号,,13,103,1050012,,,,,,,2023-07-10,1,,,,,フリクシー,0
628,3010401175569,新規,0,2023-07-10,2023-07-10,株式会社パレスホールディングス,,株式会社,東京都,港区,浜松町２丁目２－１５浜松町ダイヤビル２Ｆ,,13,103,1050013,,,,,,,2023-07-10,1,,,,,パレスホールディングス,0
635,3010403030441,新規,0,2023-07-10,2023-07-10,合同会社ＧＲＵＳ,,合同会社,東京都,港区,高輪４丁目１５番１６－３０７号,,13,103,1080074,,,,,,,2023-07-10,1,,,,,グルース,0
641,3010603010243,新規,0,2023-07-10,2023-07-10,リラ合同会社,,合同会社,東京都,江東区,塩浜２丁目１４番８号,,13,108,1350043,,,,,,,2023-07-10,1,,,,,リラ,0
652,3010901053407,新規,0,2023-07-10,2023-07-10,株式会社ＡＭＡ,,株式会社,東京都,世田谷区,羽根木２丁目４０番地２０東松原ニューハイツ３０１,,13,112,1560042,,,,,,,2023-07-10,1,,,,,アマ,0
659,3011001155457,新規,0,2023-07-10,2023-07-10,株式会社ＣＩＴＹ　ＰＯＣＫＥＴ,,株式会社,東京都,渋谷区,渋谷１丁目２３番２５号ＷＡＶＥ渋谷３Ｆ,,13,113,1500002,,,,,,,2023-07-10,1,,,,,シティポケット,0
660,3011001155572,新規,0,2023-07-10,2023-07-10,メリア株式会社,,株式会社,東京都,目黒区,自由が丘１丁目１７－１４ウィンディヒル１０１,,13,110,1520035,,,,,,,2023-07-10,1,,,,,メリア,0
661,3011003017143,新規,0,2023-07-10,2023-07-10,合同会社ＮｏｒｔｈＡＩ,,合同会社,東京都,渋谷区,道玄坂１丁目１０番８号渋谷道玄坂東急ビル２Ｆ－Ｃ,,13,113,1500043,,,,,,,2023-07-10,1,,,,,ノースエーアイ,0
671,3011203004123,新規,0,2023-07-10,2023-07-10,合同会社ＦＩＲＳＴ　ＣＬＡＳＳ,,合同会社,東京都,中野区,弥生町１丁目３３番１３－１０７号,,13,114,1640013,,,,,,,2023-07-10,1,,,,,ファーストクラス,0
687,3011601026966,新規,0,2023-07-10,2023-07-10,株式会社秀和,,株式会社,東京都,練馬区,高松１丁目９番７号,,13,120,1790075,,,,,,,2023-07-10,1,,,,,シュウワ,0
701,3013101009204,新規,0,2023-07-10,2023-07-10,株式会社キュア・サポートプラス,,株式会社,東京都,あきる野市,瀬戸岡１８０番地１,,13,228,1970803,,,,,,,2023-07-10,1,,,,,キュアサポートプラス,0
706,3013301050998,新規,0,2023-07-10,2023-07-10,ハルのおうち株式会社,,株式会社,東京都,豊島区,池袋本町４丁目４８番２１－７０２号,,13,116,1700011,,,,,,,2023-07-10,1,,,,,ハルノオウチ,0
711,3020001152372,新規,0,2023-07-10,2023-07-10,隼商事株式会社,,株式会社,神奈川県,横浜市西区,浅間町１丁目４番３号ウィザードビル４０２,,14,103,2200072,,,,,,,2023-07-10,1,,,,,ハヤブサショウジ,0
712,3020001152406,新規,0,2023-07-10,2023-07-10,株式会社ＧｒｅａｔＨｕｎｔｉｎｇ,,株式会社,神奈川県,横浜市港北区,菊名４丁目１３番１－１号,,14,109,2220011,,,,,,,2023-07-10,1,,,,,,0
713,3020001152414,新規,0,2023-07-10,2023-07-10,株式会社スリーエイト,,株式会社,神奈川県,横浜市西区,西平沼町４番１号,,14,103,2200024,,,,,,,2023-07-10,1,,,,,スリーエイト,0
714,3020001152430,新規,0,2023-07-10,2023-07-10,株式会社ラッキー・ムーン,,株式会社,神奈川県,横浜市神奈川区,台町１２番地３シルクハウス横浜３０３号室,,14,102,2210834,,,,,,,2023-07-10,1,,,,,ラッキームーン,0
719,3020003024165,新規,0,2023-07-10,2023-07-10,合同会社ＣＯＮＦＯＲ,,合同会社,神奈川県,横浜市戸塚区,名瀬町１８２７番地１アスティオンＤ棟１０２号,,14,110,2450051,,,,,,,2023-07-10,1,,,,,コンフォー,0
720,3020003024207,新規,0,2023-07-10,2023-07-10,合同会社森林作業道,,合同会社,神奈川県,横浜市鶴見区,岸谷４丁目３１―２５,,14,101,2300078,,,,,,,2023-07-10,1,,,,,シンリンサギョウドウ,0
723,3021003013298,新規,0,2023-07-10,2023-07-10,Ｎｉｈｏｎ　ｃａｒｓ合同会社,,合同会社,神奈川県,座間市,栗原中央５丁目２８番７号,,14,216,2520014,,,,,,,2023-07-10,1,,,,,ニホンカーズ,0
727,3030001154748,新規,0,2023-07-10,2023-07-10,株式会社ハブスク,,株式会社,埼玉県,さいたま市浦和区,上木崎１丁目２番２４号,,11,107,3300071,,,,,,,2023-07-10,1,,,,,ハブスク,0
728,3030001154797,新規,0,2023-07-10,2023-07-10,株式会社Ｊ‐ｃｌｅａｒｓｔ,,株式会社,埼玉県,さいたま市北区,吉野町１丁目４０９番地４０,,11,102,3310811,,,,,,,2023-07-10,1,,,,,ジェイクリスタ,0
736,3040001129179,新規,0,2023-07-10,2023-07-10,ＲＩＳＥ株式会社,,株式会社,千葉県,佐倉市,岩富９４５番地１Ｊ,,12,212,2850071,,,,,,,2023-07-10,1,,,,,ライズ,0
740,3040003022919,新規,0,2023-07-10,2023-07-10,スリースマイルズ合同会社,,合同会社,千葉県,習志野市,鷺沼３丁目１５－１８－３,,12,216,2750014,,,,,,,2023-07-10,1,,,,,スリースマイルズ,0
743,3050001053106,新規,0,2023-07-10,2023-07-10,株式会社レジリエント,,株式会社,茨城県,石岡市,南台３丁目２１－３６南台テナントＢ－１０１号室,,08,205,3150035,,,,,,,2023-07-10,1,,,,,レジリエント,0
746,3060003004642,新規,0,2023-07-10,2023-07-10,稲村アセットマネージメント合同会社,,合同会社,栃木県,足利市,福居町２１５６番地,,09,202,3260338,,,,,,,2023-07-10,1,,,,,イナムラアセットマネージメント,0
750,3070001040630,新規,0,2023-07-10,2023-07-10,株式会社ｍｏｒｅ　Ａｍｅｎｉｔｙ,,株式会社,群馬県,太田市,浜町５番地１３,,10,205,3730853,,,,,,,2023-07-10,1,,,,,モアアメニティ,0
760,3080401026583,新規,0,2023-07-10,2023-07-10,ウイングホーム株式会社,,株式会社,静岡県,菊川市,本所１１７１番地の４,,22,224,4390018,,,,,,,2023-07-10,1,,,,,ウイングホーム,0
761,3080401026591,新規,0,2023-07-10,2023-07-10,株式会社浜松家守舎キュウ,,株式会社,静岡県,浜松市中区,北田町１３０－２,,22,131,4300943,,,,,,,2023-07-10,1,,,,,ハママツヤモリシャキュウ,0
763,3080403004827,新規,0,2023-07-10,2023-07-10,合同会社Ｒｅ　Ｌｉｆｅ,,合同会社,静岡県,浜松市南区,三島町４５番地の３ピュアライフ三島２１１号,,22,134,4300853,,,,,,,2023-07-10,1,,,,,リライフ,0
766,3100003007087,新規,0,2023-07-10,2023-07-10,アニマ合同会社,,合同会社,長野県,小諸市,大字御影新田１９９５－３５,,20,208,3840808,,,,,,,2023-07-10,1,,,,,アニマ,0
781,3120001256171,新規,0,2023-07-10,2023-07-10,スパーク株式会社,,株式会社,大阪府,大阪市大正区,三軒家西３丁目４番１６号中山ビル３０３Ｄ,,27,108,5510001,,,,,,,2023-07-10,1,,,,,スパーク,0
782,3120001256262,新規,0,2023-07-10,2023-07-10,株式会社サンキオフィスサービス,,株式会社,大阪府,大阪市鶴見区,横堤１丁目５番３０号,,27,124,5380052,,,,,,,2023-07-10,1,,,,,サンキオフィスサービス,0
783,3120001256329,新規,0,2023-07-10,2023-07-10,株式会社Ｒ‐ＣＲＡＦＴ,,株式会社,大阪府,枚方市,禁野本町１丁目８番１６号禁野ハイツ２０１号,,27,210,5731197,,,,,,,2023-07-10,1,,,,,アールクラフト,0
784,3120001256337,新規,0,2023-07-10,2023-07-10,株式会社ＯＶＩＴＵＳ,,株式会社,大阪府,大阪市中央区,日本橋１丁目１７－１７ピカソ日本一ビル６０４,,27,128,5420073,,,,,,,2023-07-10,1,,,,,オビタス,0
788,3120003024444,新規,0,2023-07-10,2023-07-10,合同会社Ａｚｕｒ,,合同会社,大阪府,大阪市北区,梅田１丁目２番２号大阪駅前第２ビル１２－１２,,27,127,5300001,,,,,,,2023-07-10,1,,,,,アズール,0
793,3120101067849,新規,0,2023-07-10,2023-07-10,蘇安実業グループ株式会社,,株式会社,大阪府,泉大津市,東助松町３丁目２７３番地１の１０１室,,27,206,5950006,,,,,,,2023-07-10,1,,,,,リアンジツギョウグループ,0
796,3120901047760,新規,0,2023-07-10,2023-07-10,株式会社ＰＬＡＮ　ＨＯＬＩＣ,,株式会社,大阪府,箕面市,新稲６丁目４番７号,,27,220,5620005,,,,,,,2023-07-10,1,,,,,プランホリック,0
798,3122001037139,新規,0,2023-07-10,2023-07-10,株式会社ｅ‐ｓｙｓｔｅｍ,,株式会社,大阪府,大東市,寺川３丁目１番４５号,,27,218,5740014,,,,,,,2023-07-10,1,,,,,イーシステム,0
801,3130001074671,新規,0,2023-07-10,2023-07-10,株式会社エスワークス,,株式会社,京都府,八幡市,下奈良宮ノ道１９番地の１,,26,210,6148131,,,,,,,2023-07-10,1,,,,,エスワークス,0
802,3130001074696,新規,0,2023-07-10,2023-07-10,株式会社ＰｉｌｉＡＬＯＨＡ,,株式会社,京都府,亀岡市,大井町並河５丁目１１４番地,,26,206,6210013,,,,,,,2023-07-10,1,,,,,ピリアロハ,0
809,3140001130738,新規,0,2023-07-10,2023-07-10,株式会社グラッド,,株式会社,兵庫県,洲本市,栄町２丁目３番２８号,,28,205,6560026,,,,,,,2023-07-10,1,,,,,グラッド,0
810,3140001130746,新規,0,2023-07-10,2023-07-10,株式会社ジャポールコーポレーション,,株式会社,兵庫県,三田市,狭間が丘５丁目４番地６棟,,28,219,6691545,,,,,,,2023-07-10,1,,,,,ジャポールコーポレーション,0
811,3140001130754,新規,0,2023-07-10,2023-07-10,軒グローバル株式会社,,株式会社,兵庫県,神戸市東灘区,住吉山手７丁目９番６号,,28,101,6580063,,,,,,,2023-07-10,1,,,,,ケングローバル,0
812,3140001130762,新規,0,2023-07-10,2023-07-10,株式会社ティーアクト,,株式会社,兵庫県,豊岡市,下陰６９７番地の１,,28,209,6680012,,,,,,,2023-07-10,1,,,,,ティーアクト,0
813,3140001130779,新規,0,2023-07-10,2023-07-10,株式会社はるか,,株式会社,兵庫県,神戸市須磨区,衣掛町５丁目１－１７,,28,107,6540048,,,,,,,2023-07-10,1,,,,,ハルカ,0
822,3170003001892,新規,0,2023-07-10,2023-07-10,合同会社一門,,合同会社,和歌山県,田辺市,湊４１－３１ｎａｎｋａｉｒｏビル２Ｆ,,30,206,6460031,,,,,,,2023-07-10,1,,,,,イチモン,0
828,3180001156969,新規,0,2023-07-10,2023-07-10,株式会社ｉ’Ｍ,,株式会社,愛知県,名古屋市中区,錦１丁目１７番１３号２階,,23,106,4600003,,,,,,,2023-07-10,1,,,,,アイム,0
829,3180001156985,新規,0,2023-07-10,2023-07-10,株式会社大昇設備,,株式会社,愛知県,大府市,共和町３丁目８番地２クレスト共和６０３号室,,23,223,4740061,,,,,,,2023-07-10,1,,,,,ダイショウセツビ,0
830,3180001156993,新規,0,2023-07-10,2023-07-10,株式会社個別指導いなほ塾,,株式会社,愛知県,名古屋市瑞穂区,萩山町３丁目３３アビタシオンナルセ１０１号室,,23,108,4670011,,,,,,,2023-07-10,1,,,,,コベツシドウイナホジュク,0
831,3180001157026,新規,0,2023-07-10,2023-07-10,株式会社小川総建,,株式会社,愛知県,海部郡蟹江町,舟入１丁目５４９番地,,23,425,4970048,,,,,,,2023-07-10,1,,,,,オガワソウケン,0
832,3180001157034,新規,0,2023-07-10,2023-07-10,株式会社ＹＴＵ,,株式会社,愛知県,名古屋市名東区,牧の原２丁目７０３番地の１,,23,115,4650072,,,,,,,2023-07-10,1,,,,,ワイティユー,0
833,3180001157042,新規,0,2023-07-10,2023-07-10,ＧＣＴ株式会社,,株式会社,愛知県,名古屋市天白区,島田黒石６１１番地,,23,116,4680028,,,,,,,2023-07-10,1,,,,,ジーシーティー,0
834,3180001157059,新規,0,2023-07-10,2023-07-10,ＪＡＰＡＮ　ＭＥＤＩＣＡＬ株式会社,,株式会社,愛知県,大府市,長草町新池８８番地の１０５,,23,223,4740052,,,,,,,2023-07-10,1,,,,,ジャパンメディカル,0
837,3180003025453,新規,0,2023-07-10,2023-07-10,合同会社ＪＯＲＩＥ,,合同会社,愛知県,名古屋市天白区,表山１丁目１７２９番地の１,,23,116,4680069,,,,,,,2023-07-10,1,,,,,ジョリー,0
838,3180005020287,新規,0,2023-07-10,2023-07-10,医療法人ラフス,,その他の設立登記法人,愛知県,名古屋市千種区,四谷通１丁目１３番地ノア四ツ谷１Ｆ,,23,101,4640819,,,,,,,2023-07-10,1,,,,,ラフス,0
840,3180301037547,新規,0,2023-07-10,2023-07-10,株式会社ＩＣＯ,,株式会社,愛知県,岡崎市,日名南町１１番地１６佐野ビル２Ｅ,,23,202,4440915,,,,,,,2023-07-10,1,,,,,アイシーオー,0
842,3190001030561,新規,0,2023-07-10,2023-07-10,株式会社フロシキ,,株式会社,三重県,鈴鹿市,肥田町４６８番地,,24,207,5130819,,,,,,,2023-07-10,1,,,,,フロシキ,0
844,3210001019379,新規,0,2023-07-10,2023-07-10,株式会社ＢＯＮＡ,,株式会社,福井県,福井市,二の宮２丁目２番１０号,,18,201,9100015,,,,,,,2023-07-10,1,,,,,ボナ,0
861,3290001102210,新規,0,2023-07-10,2023-07-10,株式会社ＺＥＲＯＨＭ,,株式会社,福岡県,福岡市東区,松島１丁目３番２４－４０２号,,40,131,8120062,,,,,,,2023-07-10,1,,,,,ゼローム,0
862,3290001102227,新規,0,2023-07-10,2023-07-10,株式会社ノンベル,,株式会社,福岡県,福岡市博多区,博多駅前３丁目１３－４リアンプレミアム博多駅前ビル３Ｆ,,40,132,8120011,,,,,,,2023-07-10,1,,,,,ノンベル,0
863,3290003014123,新規,0,2023-07-10,2023-07-10,合同会社ＮＯＲＩ　ＰＯＷＥＲ,,合同会社,福岡県,福岡市東区,和白４丁目１０番４８－２０８号,,40,131,8110202,,,,,,,2023-07-10,1,,,,,ノリパワー,0
869,3320001019871,新規,0,2023-07-10,2023-07-10,株式会社Ａｖａｎｃａ,,株式会社,大分県,大分市,生石１丁目６番６号セゾンウエストコート３０２,,44,201,8700003,,,,,,,2023-07-10,1,,,,,,0
870,3330001031025,新規,0,2023-07-10,2023-07-10,株式会社ヘアファッションゆみ,,株式会社,熊本県,熊本市北区,弓削６丁目１２番１８号,,43,105,8618002,,,,,,,2023-07-10,1,,,,,ヘアファッションユミ,0
877,3350001018441,新規,0,2023-07-10,2023-07-10,株式会社心耕農園,,株式会社,宮崎県,宮崎市,大字有田３１６番地１,,45,201,8802102,,,,,,,2023-07-10,1,,,,,シンコウノウエン,0
879,3360001032235,新規,0,2023-07-10,2023-07-10,株式会社ＨａｐｐｙＣｉｔｙＯｋｉｎａｗａ,,株式会社,沖縄県,沖縄市,泡瀬３丁目８番６号デュプレックスオオバ３Ｆ,,47,211,9042172,,,,,,,2023-07-10,1,,,,,ハッピーシティーオキナワ,0
884,3370001050129,新規,0,2023-07-10,2023-07-10,株式会社山崎グループ,,株式会社,宮城県,本吉郡南三陸町,志津川字大沢１８６,,04,606,9860771,,,,,,,2023-07-10,1,,,,,ヤマザキグループ,0
885,3370001050137,新規,0,2023-07-10,2023-07-10,株式会社スマイル工業,,株式会社,宮城県,本吉郡南三陸町,志津川字沼田１４４番地２６,,04,606,9860725,,,,,,,2023-07-10,1,,,,,スマイルコウギョウ,0
891,3400003003106,新規,0,2023-07-10,2023-07-10,合同会社佑創チャンネル,,合同会社,岩手県,一関市,桜木町４番８号ツインハウスやまと１０２,,03,209,0210891,,,,,,,2023-07-10,1,,,,,ユウソウチャンネル,0
898,3430005014742,新規,0,2023-07-10,2023-07-10,弁護士法人田中・渡辺法律事務所,,その他の設立登記法人,北海道,札幌市中央区,南一条西１０丁目４番地,,01,101,0600061,,,,,,,2023-07-10,1,,,,,タナカワタナベホウリツジムショ,0
899,3460103001540,新規,0,2023-07-10,2023-07-10,合同会社カノープス,,合同会社,北海道,帯広市,大空町３丁目９－８,,01,207,0800838,,,,,,,2023-07-10,1,,,,,カノープス,0
911,4010001236407,新規,0,2023-07-10,2023-07-10,日本光和光学株式会社,,株式会社,東京都,文京区,本郷４丁目１６番６号,,13,105,1130033,,,,,,,2023-07-10,1,,,,,ニホンコウワコウガク,0
912,4010001236588,新規,0,2023-07-10,2023-07-10,株式会社ｍｅｗｋ,,株式会社,東京都,中央区,晴海３丁目１３番１号ＤＥＵＸＴＯＵＲＳＥＡＳＴＴＯＷＥＲ,,13,102,1040053,,,,,,,2023-07-10,1,,,,,ミューク,0
913,4010001236704,新規,0,2023-07-10,2023-07-10,株式会社プラトー,,株式会社,東京都,中央区,銀座１丁目２２番１１号銀座大竹ビジデンス２階,,13,102,1040061,,,,,,,2023-07-10,1,,,,,プラトー,0
914,4010001236720,新規,0,2023-07-10,2023-07-10,株式会社Ｆａｒ　Ｂａｍｂｏｏ,,株式会社,東京都,中央区,銀座１丁目２２番１１号銀座大竹ビジデンス２Ｆ,,13,102,1040061,,,,,,,2023-07-10,1,,,,,ファーバンブー,0
915,4010001236753,新規,0,2023-07-10,2023-07-10,ザ・グリーンショップ・アンド・カンパニー株式会社,,株式会社,東京都,中央区,東日本橋３丁目４番６号,,13,102,1030004,,,,,,,2023-07-10,1,,,,,ザグリーンショップアンドカンパニー,0
919,4010003041029,新規,0,2023-07-10,2023-07-10,ファナリシス合同会社,,合同会社,東京都,千代田区,富士見１丁目３番１１号富士見デュープレックスＢ’ｓ４Ｆ,,13,101,1020071,,,,,,,2023-07-10,1,,,,,ファナリシス,0
920,4010003041053,新規,0,2023-07-10,2023-07-10,合同会社Ｅｖｅ,,合同会社,東京都,中央区,銀座１丁目１２番４号Ｎ＆ＥＢＬＤ．６Ｆ,,13,102,1040061,,,,,,,2023-07-10,1,,,,,イヴ,0
932,4010401175493,新規,0,2023-07-10,2023-07-10,株式会社いろいろ,,株式会社,東京都,港区,虎ノ門４丁目３番１３号ヒューリック神谷町ビル,,13,103,1050001,,,,,,,2023-07-10,1,,,,,イロイロ,0
933,4010401175502,新規,0,2023-07-10,2023-07-10,真興交易株式会社,,株式会社,東京都,港区,南麻布２丁目８番１８号,,13,103,1060047,,,,,,,2023-07-10,1,,,,,シンコウコウエキ,0
934,4010401175527,新規,0,2023-07-10,2023-07-10,Ｊｕｎｉｐｅｒ　Ｊａｐａｎ株式会社,,株式会社,東京都,港区,元麻布３丁目１番６号,,13,103,1060046,,,,,,,2023-07-10,1,,,,,ジュニパージャパン,0
935,4010401175551,新規,0,2023-07-10,2023-07-10,株式会社ＪＧ２０,,株式会社,東京都,港区,虎ノ門１丁目３番１号,,13,103,1050001,,,,,,,2023-07-10,1,,,,,ジェージーニジュウ,0
936,4010401175576,新規,0,2023-07-10,2023-07-10,株式会社Ｐｈａｎｔｏｍ　Ｇｌｏｂａｌ　Ｐａｒｔｎｅｒｓ,,株式会社,東京都,港区,浜松町２丁目２番１５号浜松町ダイヤビル２Ｆ,,13,103,1050013,,,,,,,2023-07-10,1,,,,,ファントムグローバルパートナーズ,0
937,4010401175634,新規,0,2023-07-10,2023-07-10,グラストンキャピタル株式会社,,株式会社,東京都,港区,北青山３丁目６番７号青山パラシオタワー１１階,,13,103,1070061,,,,,,,2023-07-10,1,,,,,グラストンキャピタル,0
940,4010403030440,新規,0,2023-07-10,2023-07-10,合同会社ＣＯＲＡＺＯＮ,,合同会社,東京都,港区,六本木２丁目３番５－１２０１号,,13,103,1060032,,,,,,,2023-07-10,1,,,,,コラソン,0
941,4010403030465,新規,0,2023-07-10,2023-07-10,ＧＤｓＰＪ２合同会社,,合同会社,東京都,港区,芝公園２丁目２番１０号中和ビル３階,,13,103,1050011,,,,,,,2023-07-10,1,,,,,ジーディーズピージェーツー,0
943,4010501050720,新規,0,2023-07-10,2023-07-10,株式会社すみれ,,株式会社,東京都,台東区,浅草６丁目４４番４－７０４号,,13,106,1110032,,,,,,,2023-07-10,1,,,,,スミレ,0
947,4010601063374,新規,0,2023-07-10,2023-07-10,株式会社ＳＮサービス,,株式会社,東京都,墨田区,緑３丁目１７番１１号,,13,107,1300021,,,,,,,2023-07-10,1,,,,,エスエヌサービス,0
950,4010703006768,新規,0,2023-07-10,2023-07-10,スマートビジョンテックＡＩ合同会社,,合同会社,東京都,品川区,西大井３丁目１６番３８号,,13,109,1400015,,,,,,,2023-07-10,1,,,,,スマートビジョンテックエーアイ,0
951,4010803004597,新規,0,2023-07-10,2023-07-10,ＧＭＦ合同会社,,合同会社,東京都,大田区,西糀谷２丁目２２番２号,,13,111,1440034,,,,,,,2023-07-10,1,,,,,ジーエムエフ,0
953,4010901053389,新規,0,2023-07-10,2023-07-10,株式会社ＮＤＬ,,株式会社,東京都,世田谷区,弦巻５丁目１６番８号,,13,112,1540016,,,,,,,2023-07-10,1,,,,,エヌディーエル,0
957,4011001155539,新規,0,2023-07-10,2023-07-10,株式会社ＳＡＭＳＵＩ,,株式会社,東京都,渋谷区,富ヶ谷２丁目１６番１４号１０１号室,,13,113,1510063,,,,,,,2023-07-10,1,,,,,サムスイ,0
958,4011001155555,新規,0,2023-07-10,2023-07-10,デンタルドア株式会社,,株式会社,東京都,渋谷区,代官山町８番７号,,13,113,1500034,,,,,,,2023-07-10,1,,,,,デンタルドア,0
959,4011001155571,新規,0,2023-07-10,2023-07-10,Ａ株式会社,,株式会社,東京都,渋谷区,神宮前６丁目１９番１７号３階,,13,113,1500001,,,,,,,2023-07-10,1,,,,,エー,0
966,4011003017134,新規,0,2023-07-10,2023-07-10,ＤＥＵＲＡＬＩ合同会社,,合同会社,東京都,渋谷区,桜丘町２７番１正光ビル１階,,13,113,1500031,,,,,,,2023-07-10,1,,,,,デウラリ,0
968,4011101103521,新規,0,2023-07-10,2023-07-10,Ｋａｉ　Ａｎａｌｙｔｉｃｓ株式会社,,株式会社,東京都,新宿区,西新宿３丁目３番１３号西新宿水間ビル２Ｆ,,13,104,1600023,,,,,,,2023-07-10,1,,,,,カイアナリティクス,0
969,4011101103562,新規,0,2023-07-10,2023-07-10,株式会社アシンメトリ,,株式会社,東京都,新宿区,若葉１丁目２１番６－３０２号,,13,104,1600011,,,,,,,2023-07-10,1,,,,,アシンメトリ,0
970,4011103013231,新規,0,2023-07-10,2023-07-10,Ｂ．ｌａｂｏ合同会社,,合同会社,東京都,新宿区,百人町２丁目２６－１６－３０２号室,,13,104,1690073,,,,,,,2023-07-10,1,,,,,ビーラボ,0
971,4011203004122,新規,0,2023-07-10,2023-07-10,合同会社Ｍａｏｌｉｆｅ,,合同会社,東京都,中野区,中央５丁目８番２０号Ｇｒａｎｄｒｅａｍ３０１,,13,114,1640011,,,,,,,2023-07-10,1,,,,,マオリフ,0
978,4011403004046,新規,0,2023-07-10,2023-07-10,ホーリーベル合同会社,,合同会社,東京都,板橋区,四葉１丁目２番１５号,,13,119,1750084,,,,,,,2023-07-10,1,,,,,ホーリーベル,0
981,4011601026965,新規,0,2023-07-10,2023-07-10,株式会社ＳａｎｄＢｏｘ,,株式会社,東京都,練馬区,石神井町４丁目１９－１６,,13,120,1770041,,,,,,,2023-07-10,1,,,,,サンドボックス,0
982,4011703003524,新規,0,2023-07-10,2023-07-10,合同会社西村,,合同会社,東京都,江戸川区,西葛西５丁目８番３０号クレセント小坂部４０２,,13,123,1340088,,,,,,,2023-07-10,1,,,,,ニシムラ,0
988,4013101009203,新規,0,2023-07-10,2023-07-10,株式会社新栄設備,,株式会社,東京都,あきる野市,雨間５３１番地１１,,13,228,1970825,,,,,,,2023-07-10,1,,,,,シンエイセツビ,0
1000,4020001152322,新規,0,2023-07-10,2023-07-10,株式会社アフタースペース,,株式会社,神奈川県,横浜市中区,麦田町４丁目１１０番地６,,14,104,2310849,,,,,,,2023-07-10,1,,,,,アフタースペース,0
1001,4020001152363,新規,0,2023-07-10,2023-07-10,ＯＫＢインベストメント株式会社,,株式会社,神奈川県,横浜市保土ケ谷区,西久保町８４番地３,,14,106,2400022,,,,,,,2023-07-10,1,,,,,オーケービーインベストメント,0
1002,4020001152371,新規,0,2023-07-10,2023-07-10,株式会社ＣＯＭＳＥＥ,,株式会社,神奈川県,横浜市鶴見区,尻手３丁目８番１２号Ｃ－Ｆｉｒｓｔ１０１,,14,101,2300003,,,,,,,2023-07-10,1,,,,,コムシー,0
1003,4020001152388,新規,0,2023-07-10,2023-07-10,株式会社張摩工務店,,株式会社,神奈川県,横浜市都筑区,佐江戸町８３４番地６,,14,118,2240054,,,,,,,2023-07-10,1,,,,,ハリマコウムテン,0
1004,4020001152421,新規,0,2023-07-10,2023-07-10,日光株式会社,,株式会社,神奈川県,横浜市戸塚区,上倉田町１０７－８,,14,110,2440816,,,,,,,2023-07-10,1,,,,,ニッコウ,0
1011,4030001154739,新規,0,2023-07-10,2023-07-10,株式会社１０ｂｉｌｌｉｏｎ,,株式会社,埼玉県,所沢市,東狭山ケ丘３丁目２８５４番地の１４,,11,208,3591106,,,,,,,2023-07-10,1,,,,,テンビリオン,0
1012,4030001154788,新規,0,2023-07-10,2023-07-10,Ｌａｍｂ’ｓ　Ｄｅｓｉｇｎ株式会社,,株式会社,埼玉県,さいたま市浦和区,岸町４丁目１７－１－３０１,,11,107,3300064,,,,,,,2023-07-10,1,,,,,ラムズデザイン,0
1013,4030001154796,新規,0,2023-07-10,2023-07-10,株式会社Ｄ’ｓ建設,,株式会社,埼玉県,さいたま市北区,日進町２丁目１３１０番地５６,,11,102,3310823,,,,,,,2023-07-10,1,,,,,ディーズケンセツ,0
1018,4040001129153,新規,0,2023-07-10,2023-07-10,株式会社ＲＣ　ＴＥＣＨ,,株式会社,千葉県,四街道市,大日８９０－７,,12,228,2840001,,,,,,,2023-07-10,1,,,,,アールシーテック,0
1019,4040001129178,新規,0,2023-07-10,2023-07-10,株式会社かずさ,,株式会社,千葉県,千葉市中央区,浜野町７５１番地浜野インタープラザ１－２,,12,101,2600824,,,,,,,2023-07-10,1,,,,,カズサ,0
1024,4050001053121,新規,0,2023-07-10,2023-07-10,株式会社祐希組,,株式会社,茨城県,水戸市,見川町２５６３番地市営緑岡第１住宅８棟５０３号,,08,201,3100913,,,,,,,2023-07-10,1,,,,,,0
1025,4050003007620,新規,0,2023-07-10,2023-07-10,合同会社Ｃ．ＭＫ,,合同会社,茨城県,土浦市,大岩田１７１５番地３、２０８棟３０３室,,08,203,3000835,,,,,,,2023-07-10,1,,,,,シーエムケー,0
1030,4060003004641,新規,0,2023-07-10,2023-07-10,ＢＵＲＡＱ　ＴＲＡＤＩＮＧ合同会社,,合同会社,栃木県,栃木市,岩舟町新里１３０３番地２－４７号室,,09,203,3294316,,,,,,,2023-07-10,1,,,,,ブラクトレーディング,0
1037,4080101024110,新規,0,2023-07-10,2023-07-10,株式会社ＲＥＰＡＩＲ　ＴＥＣＨＮＩＣＡ,,株式会社,静岡県,富士宮市,人穴４００番地の２,,22,207,4180102,,,,,,,2023-07-10,1,,,,,リペアテクニカ,0
1038,4080401026590,新規,0,2023-07-10,2023-07-10,株式会社つなぐエステート,,株式会社,静岡県,浜松市中区,高林１丁目１番２９号ぷち蔵高林２０１,,22,131,4300907,,,,,,,2023-07-10,1,,,,,ツナグエステート,0
1069,4120001256121,新規,0,2023-07-10,2023-07-10,玖泰実業発展株式会社,,株式会社,大阪府,大阪市西成区,花園南１丁目１０番３－１０４号,,27,122,5570015,,,,,,,2023-07-10,1,,,,,クータイジツギョウハッテン,0
1070,4120001256146,新規,0,2023-07-10,2023-07-10,株式会社ＢＨＬ,,株式会社,大阪府,枚方市,桜丘町１８番１号,,27,210,5730018,,,,,,,2023-07-10,1,,,,,ビーエイチエル,0
1071,4120001256253,新規,0,2023-07-10,2023-07-10,株式会社オータム,,株式会社,大阪府,大阪市福島区,海老江７丁目６番３５号,,27,103,5530001,,,,,,,2023-07-10,1,,,,,オータム,0
1072,4120001256328,新規,0,2023-07-10,2023-07-10,ＮＥＸＴ‐ＩＮＮＯＶＡＴＩＯＮ株式会社,,株式会社,大阪府,交野市,妙見東４丁目１２番１４号,,27,230,5760012,,,,,,,2023-07-10,1,,,,,ネクストイノベーション,0
1082,4122001037138,新規,0,2023-07-10,2023-07-10,株式会社Ｚｏｏｌｏｇｉｑｕｅ,,株式会社,大阪府,四條畷市,南野１丁目７番２号,,27,229,5750021,,,,,,,2023-07-10,1,,,,,ズーロジック,0
1084,4122005003689,新規,0,2023-07-10,2023-07-10,みらいエネルギー事業協同組合,,その他の設立登記法人,大阪府,八尾市,北久宝寺３丁目１番１３号,,27,212,5810071,,,,,,,2023-07-10,1,,,,,ミライエネルギー,0
1087,4130001074704,新規,0,2023-07-10,2023-07-10,株式会社Ｌｕｐｉｎｕｓ,,株式会社,京都府,京都市上京区,中小川町２３２－１,,26,102,6020053,,,,,,,2023-07-10,1,,,,,ルピナス,0
1088,4130003008841,新規,0,2023-07-10,2023-07-10,合同会社ｙｏｕ’ｚ,,合同会社,京都府,京都市下京区,黒門通仏光寺下る今大黒町２１３番地,,26,106,6008384,,,,,,,2023-07-10,1,,,,,ユーズ,0
1103,4140001130720,新規,0,2023-07-10,2023-07-10,株式会社ひかり製作所,,株式会社,兵庫県,姫路市,青山３丁目３番１号,,28,201,6712222,,,,,,,2023-07-10,1,,,,,ヒカリセイサクショ,0
1104,4140001130753,新規,0,2023-07-10,2023-07-10,株式会社Ｍ＆Ｙ,,株式会社,兵庫県,神戸市垂水区,舞多聞西５丁目２－２９,,28,108,6550051,,,,,,,2023-07-10,1,,,,,エムアンドワイ,0
1105,4140001130761,新規,0,2023-07-10,2023-07-10,株式会社Ｙｕｌｍｅｒ,,株式会社,兵庫県,川西市,小花１丁目３番６号２階,,28,217,6660015,,,,,,,2023-07-10,1,,,,,ユルメル,0
1106,4140001130786,新規,0,2023-07-10,2023-07-10,株式会社ｄｉｖＡｃｅ’ｓ,,株式会社,兵庫県,神戸市北区,泉台３丁目２番地の６,,28,109,6511141,,,,,,,2023-07-10,1,,,,,ディバーシーズ,0
1117,4140003019268,新規,0,2023-07-10,2023-07-10,合同会社スリーパインズ,,合同会社,兵庫県,尼崎市,七松町１丁目３番１号,,28,202,6600052,,,,,,,2023-07-10,1,,,,,スリーパインズ,0
1130,4180001156968,新規,0,2023-07-10,2023-07-10,株式会社Ｄｉｍｅｎｓｉｏｎｗｏｒｋｓ,,株式会社,愛知県,あま市,上萱津銭神７番地２,,23,237,4901112,,,,,,,2023-07-10,1,,,,,ディメンションワークス,0
1131,4180001156984,新規,0,2023-07-10,2023-07-10,きびだんごｆａｍｉｌｙ株式会社,,株式会社,愛知県,名古屋市中区,大須１丁目７番１４号,,23,106,4600011,,,,,,,2023-07-10,1,,,,,キビダンゴファミリー,0
1132,4180001156992,新規,0,2023-07-10,2023-07-10,道風不動産株式会社,,株式会社,愛知県,春日井市,東野町５丁目１５番地１４,,23,206,4860817,,,,,,,2023-07-10,1,,,,,ミチカゼフドウサン,0
1133,4180001157000,新規,0,2023-07-10,2023-07-10,株式会社ＫＳＫ　ｉｎｔｅｒｉｏｒｓ,,株式会社,愛知県,名古屋市天白区,鴻の巣１丁目１０１９番地サーラサ鴻の巣１０２号,,23,116,4680003,,,,,,,2023-07-10,1,,,,,ケイエスケイインテリアズ,0
1134,4180001157025,新規,0,2023-07-10,2023-07-10,株式会社レックス・アイ,,株式会社,愛知県,名古屋市中区,錦３丁目６番１５号先名古屋テレビ塔３階,,23,106,4600003,,,,,,,2023-07-10,1,,,,,レックスアイ,0
1135,4180001157033,新規,0,2023-07-10,2023-07-10,株式会社ワークス,,株式会社,愛知県,海部郡大治町,大字八ツ屋字堤添８４番地の９,,23,424,4901133,,,,,,,2023-07-10,1,,,,,ワークス,0
1136,4180001157041,新規,0,2023-07-10,2023-07-10,株式会社Ｎｏｕｖｅｌｌｅｖａｇｕｅ,,株式会社,愛知県,一宮市,春明字東裏３３番地,,23,203,4910003,,,,,,,2023-07-10,1,,,,,ヌーベルバーグ,0
1139,4180301037554,新規,0,2023-07-10,2023-07-10,株式会社Ａｓ　ｉｓ,,株式会社,愛知県,岡崎市,六名３丁目５－１５,,23,202,4440856,,,,,,,2023-07-10,1,,,,,アズイズ,0
1140,4180303005749,新規,0,2023-07-10,2023-07-10,合同会社Ｃｏ．ｍｅｅｔ,,合同会社,愛知県,豊田市,八草町三本木９１３－１,,23,211,4700356,,,,,,,2023-07-10,1,,,,,コミート,0
1141,4180305009491,新規,0,2023-07-10,2023-07-10,特定非営利活動法人サークルオブスマイル,,その他の設立登記法人,愛知県,知立市,弘法町弘法山１９番地,,23,225,4720046,,,,,,,2023-07-10,1,,,,,サークルオブスマイル,0
1142,4190001030569,新規,0,2023-07-10,2023-07-10,ＳＯＬＩＳ　Ｄｒｏｎｅ株式会社,,株式会社,三重県,津市,藤方１８５８番地１,,24,201,5140815,,,,,,,2023-07-10,1,,,,,ソリスドローン,0
1153,4220001025490,新規,0,2023-07-10,2023-07-10,株式会社秋山商店,,株式会社,石川県,小松市,土居原町１９７番地２山清ビル２Ｆ,,17,203,9230921,,,,,,,2023-07-10,1,,,,,アキヤマショウテン,0
1157,4230005009316,新規,0,2023-07-10,2023-07-10,弁護士法人作井法律事務所,,その他の設立登記法人,富山県,高岡市,広小路１番２８号,,16,202,9330057,,,,,,,2023-07-10,1,,,,,サクイホウリツジムショ,0
1159,4250001020167,新規,0,2023-07-10,2023-07-10,株式会社コトフ,,株式会社,山口県,下関市,彦島山中町２丁目８番３１号,,35,201,7500082,,,,,,,2023-07-10,1,,,,,コトフ,0
1162,4280001008985,新規,0,2023-07-10,2023-07-10,株式会社太陽技研,,株式会社,島根県,松江市,大垣町１１４番地,,32,201,6900263,,,,,,,2023-07-10,1,,,,,タイヨウギケン,0
1169,4290001102184,新規,0,2023-07-10,2023-07-10,株式会社ＭＪＴ,,株式会社,福岡県,久留米市,三潴町玉満２３０１番地２,,40,203,8300112,,,,,,,2023-07-10,1,,,,,エムジェイティ,0
1180,4360001032242,新規,0,2023-07-10,2023-07-10,株式会社明和建設,,株式会社,沖縄県,島尻郡久米島町,字比嘉９９番地の１,,47,361,9013108,,,,,,,2023-07-10,1,,,,,メイワケンセツ,0
1186,4410003003822,新規,0,2023-07-10,2023-07-10,合同会社アクセス,,合同会社,秋田県,横手市,条里３丁目１１－１０,,05,203,0130060,,,,,,,2023-07-10,1,,,,,アクセス,0
1187,4420003002757,新規,0,2023-07-10,2023-07-10,Ｍｉｔｓｕｋｕｎｙ合同会社,,合同会社,青森県,青森市,桜川９丁目３番２０号,,02,201,0300945,,,,,,,2023-07-10,1,,,,,,0
1192,4430001089465,新規,0,2023-07-10,2023-07-10,株式会社ネットスカイ,,株式会社,北海道,札幌市中央区,北一条西３丁目３－３１古久根ビル４階,,01,101,0600001,,,,,,,2023-07-10,1,,,,,ネットスカイ,0
1197,4460301005160,新規,0,2023-07-10,2023-07-10,株式会社ライフ,,株式会社,北海道,網走市,鱒浦１丁目５番９号,,01,211,0993119,,,,,,,2023-07-10,1,,,,,ライフ,0
1204,4500001025058,新規,0,2023-07-10,2023-07-10,株式会社レモア,,株式会社,愛媛県,松山市,北土居５丁目３番４７号,,38,201,7911104,,,,,,,2023-07-10,1,,,,,レモア,0
1206,4500003003061,新規,0,2023-07-10,2023-07-10,合同会社ライトアップ,,合同会社,愛媛県,新居浜市,喜光地町１丁目１０－４２,,38,205,7920826,,,,,,,2023-07-10,1,,,,,ライトアップ,0
1222,5010001236645,新規,0,2023-07-10,2023-07-10,株式会社グリーンランド,,株式会社,東京都,中央区,銀座７丁目１７番１８号,,13,102,1040061,,,,,,,2023-07-10,1,,,,,グリーンランド,0
1223,5010001236694,新規,0,2023-07-10,2023-07-10,株式会社ＬＰＴ‐ＪＡＰＡＮ,,株式会社,東京都,千代田区,神田神保町２丁目３番１号,,13,101,1010051,,,,,,,2023-07-10,1,,,,,エルピーティージャパン,0
1224,5010001236736,新規,0,2023-07-10,2023-07-10,株式会社ＵＵＭＡ,,株式会社,東京都,文京区,根津１丁目１６番１３号,,13,105,1130031,,,,,,,2023-07-10,1,,,,,ウーマ,0
1225,5010001236752,新規,0,2023-07-10,2023-07-10,株式会社エリート,,株式会社,東京都,千代田区,神田和泉町１番地６－１６ヤマトビル４０５,,13,101,1010024,,,,,,,2023-07-10,1,,,,,エリート,0
1228,5010003041085,新規,0,2023-07-10,2023-07-10,文京本郷会計コンサルティング合同会社,,合同会社,東京都,文京区,本郷５丁目１番１１号ＫＩＩＨＯＵＳＥ２０２,,13,105,1130033,,,,,,,2023-07-10,1,,,,,ブンキョウホンゴウカイケイコンサルティング,0
1234,5010401175492,新規,0,2023-07-10,2023-07-10,リトルアスリート株式会社,,株式会社,東京都,港区,南麻布５丁目１５番２３号ピィクブラン佐々木ビル５階,,13,103,1060047,,,,,,,2023-07-10,1,,,,,リトルアスリート,0
1235,5010401175518,新規,0,2023-07-10,2023-07-10,株式会社Ａｌｔｉｓｓｉｍａ,,株式会社,東京都,港区,南青山３丁目１番３６号青山丸竹ビル６Ｆ,,13,103,1070062,,,,,,,2023-07-10,1,,,,,アルティシマ,0
1236,5010401175550,新規,0,2023-07-10,2023-07-10,ＮＨホールディングス株式会社,,株式会社,東京都,港区,虎ノ門１丁目３番１号,,13,103,1050001,,,,,,,2023-07-10,1,,,,,エヌエイチホールディングス,0
1237,5010401175633,新規,0,2023-07-10,2023-07-10,ｃｏｒｏ株式会社,,株式会社,東京都,港区,赤坂６丁目１８番１１－５０１号,,13,103,1070052,,,,,,,2023-07-10,1,,,,,コロ,0
1246,5010601063365,新規,0,2023-07-10,2023-07-10,株式会社コスモポリタン・クリエイティブ・ラボ,,株式会社,東京都,江東区,豊洲５丁目６番５２号,,13,108,1350061,,,,,,,2023-07-10,1,,,,,コスモポリタンクリエイティブラボ,0
1247,5010601063398,新規,0,2023-07-10,2023-07-10,ＳＴＲＣ株式会社,,株式会社,東京都,江東区,有明３丁目７－２６有明フロンティアビルＢ棟９階,,13,108,1350063,,,,,,,2023-07-10,1,,,,,エスティーアールシー,0
1258,5011001155570,新規,0,2023-07-10,2023-07-10,株式会社ｅｍｕ,,株式会社,東京都,目黒区,目黒本町４丁目２５番１９号,,13,110,1520002,,,,,,,2023-07-10,1,,,,,,0
1263,5011101103495,新規,0,2023-07-10,2023-07-10,株式会社Ｒｅａｃｔ,,株式会社,東京都,新宿区,西新宿６丁目１２番７号,,13,104,1600023,,,,,,,2023-07-10,1,,,,,リアクト,0
1264,5011101103529,新規,0,2023-07-10,2023-07-10,姚和株式会社,,株式会社,東京都,新宿区,西新宿３丁目３番１３号西新宿水間ビル６階,,13,104,1600023,,,,,,,2023-07-10,1,,,,,ヨウワ,0
1275,5011401025258,新規,0,2023-07-10,2023-07-10,Ｍ．Ｙ．Ｄ株式会社,,株式会社,東京都,板橋区,清水町３８番１－２０５号,,13,119,1740053,,,,,,,2023-07-10,1,,,,,エムワイディー,0
1277,5011403004045,新規,0,2023-07-10,2023-07-10,ナンキズム合同会社,,合同会社,東京都,板橋区,加賀２丁目９番１－８０８号,,13,119,1730003,,,,,,,2023-07-10,1,,,,,ナンキズム,0
1279,5011501029506,新規,0,2023-07-10,2023-07-10,株式会社ジャパンガーネット,,株式会社,東京都,北区,滝野川１丁目９０－８－７０４号朝日西巣鴨マンション,,13,117,1140023,,,,,,,2023-07-10,1,,,,,ジャパンガーネット,0
1281,5011601026964,新規,0,2023-07-10,2023-07-10,株式会社ｆｕｌｃｒｕｍ８,,株式会社,東京都,練馬区,羽沢１丁目２２番５号２Ｆ,,13,120,1760003,,,,,,,2023-07-10,1,,,,,フルクラムエイト,0
1283,5011701026369,新規,0,2023-07-10,2023-07-10,株式会社クレシェンド,,株式会社,東京都,江戸川区,中葛西８丁目２３－５第二宇田川ビル２０１室,,13,123,1340083,,,,,,,2023-07-10,1,,,,,クレシェンド,0
1284,5011701026402,新規,0,2023-07-10,2023-07-10,株式会社発酵さぎょう,,株式会社,東京都,江戸川区,平井３丁目２７番１３号,,13,123,1320035,,,,,,,2023-07-10,1,,,,,ハッコウサギョウ,0
1287,5012401040718,新規,0,2023-07-10,2023-07-10,株式会社ｊａｎｕｓ,,株式会社,東京都,調布市,布田１丁目２５番地２,,13,208,1820024,,,,,,,2023-07-10,1,,,,,ヤヌス,0
1288,5012403006064,新規,0,2023-07-10,2023-07-10,ＴＡＴＥＬＯＧコンサルティング合同会社,,合同会社,東京都,武蔵野市,吉祥寺北町３丁目８番３４号,,13,203,1800001,,,,,,,2023-07-10,1,,,,,タテログコンサルティング,0
1292,5013101009202,新規,0,2023-07-10,2023-07-10,株式会社西東京ウイング,,株式会社,東京都,青梅市,長淵４丁目２１５番地の１２,,13,205,1980052,,,,,,,2023-07-10,1,,,,,ニシトウキョウウイング,0
1297,5020001152305,新規,0,2023-07-10,2023-07-10,株式会社Ｔｒｕｅｓｉｇｈｔ　Ｊａｐａｎ,,株式会社,神奈川県,横浜市西区,みなとみらい３丁目７－１－８Ｆ,,14,103,2200012,,,,,,,2023-07-10,1,,,,,トゥルーサイトジャパン,0
1298,5020001152420,新規,0,2023-07-10,2023-07-10,株式会社アクシオンアセットデザインマネジメント,,株式会社,神奈川県,横浜市中区,相生町１丁目１７－１パークビュー横浜５０３号室,,14,104,2310012,,,,,,,2023-07-10,1,,,,,アクシオンアセットデザインマネジメント,0
1299,5020001152429,新規,0,2023-07-10,2023-07-10,株式会社スカイジャパン,,株式会社,神奈川県,川崎市宮前区,西野川１丁目２９番３９号,,14,136,2160044,,,,,,,2023-07-10,1,,,,,スカイジャパン,0
1300,5020001152445,新規,0,2023-07-10,2023-07-10,ＧＯＡＴ株式会社,,株式会社,神奈川県,川崎市宮前区,宮前平２丁目１０番地５プラウド宮前平５０８,,14,136,2160006,,,,,,,2023-07-10,1,,,,,ゴート,0
1303,5020003024155,新規,0,2023-07-10,2023-07-10,ＥＬＬＥ　ＦＯＲＭＥ合同会社,,合同会社,神奈川県,横浜市西区,みなとみらい２丁目２番１号横浜ランドマークプラザ５Ｆ,,14,103,2200012,,,,,,,2023-07-10,1,,,,,エルフォルム,0
1304,5020003024163,新規,0,2023-07-10,2023-07-10,いたばし合同会社,,合同会社,神奈川県,横浜市金沢区,釜利谷東３丁目４４－２７,,14,108,2360042,,,,,,,2023-07-10,1,,,,,イタバシ,0
1305,5020003024205,新規,0,2023-07-10,2023-07-10,合同会社東雲,,合同会社,神奈川県,横浜市戸塚区,原宿２丁目１２―３８,,14,110,2450063,,,,,,,2023-07-10,1,,,,,シノノメ,0
1313,5021001079538,新規,0,2023-07-10,2023-07-10,株式会社ヨシタニゴロー,,株式会社,神奈川県,藤沢市,南藤沢７番２号沢滝ビル,,14,205,2510055,,,,,,,2023-07-10,1,,,,,ヨシタニゴロー,0
1322,5030001154738,新規,0,2023-07-10,2023-07-10,Ｙ＆Ｘ　Ｗｏｒｋｓ株式会社,,株式会社,埼玉県,川越市,大塚２丁目９番地５,,11,201,3501129,,,,,,,2023-07-10,1,,,,,ワイアンドエックスワークス,0
1323,5030001154845,新規,0,2023-07-10,2023-07-10,株式会社カネシロ,,株式会社,埼玉県,八潮市,大字鶴ケ曽根１４６３番地２,,11,234,3400802,,,,,,,2023-07-10,1,,,,,カネシロ,0
1324,5030003022075,新規,0,2023-07-10,2023-07-10,合同会社大器晩成,,合同会社,埼玉県,川口市,元郷１丁目３２番４８,,11,203,3320011,,,,,,,2023-07-10,1,,,,,タイキバンセイ,0
1325,5030003022100,新規,0,2023-07-10,2023-07-10,合同会社芹澤マネジメントオフィス,,合同会社,埼玉県,ふじみ野市,鶴ケ岡１丁目１５番２８号,,11,245,3560045,,,,,,,2023-07-10,1,,,,,セリザワマネジメントオフィス,0
1330,5040001129086,新規,0,2023-07-10,2023-07-10,桂英商事株式会社,,株式会社,千葉県,柏市,柏７丁目５番１９号ハイツ山川１０３,,12,217,2770005,,,,,,,2023-07-10,1,,,,,ケイエイショウジ,0
1331,5040001129160,新規,0,2023-07-10,2023-07-10,株式会社アークス,,株式会社,千葉県,柏市,若葉町３－２８ニュー八千代ハイツ２０２,,12,217,2770024,,,,,,,2023-07-10,1,,,,,アークス,0
1332,5040001129169,新規,0,2023-07-10,2023-07-10,蒼株式会社,,株式会社,千葉県,千葉市稲毛区,小仲台１丁目５番２６号,,12,103,2630043,,,,,,,2023-07-10,1,,,,,アオイ,0
1333,5040001129193,新規,0,2023-07-10,2023-07-10,株式会社どり夢,,株式会社,千葉県,千葉市花見川区,浪花町８６３番地２,,12,102,2620024,,,,,,,2023-07-10,1,,,,,ドリム,0
1337,5050001053112,新規,0,2023-07-10,2023-07-10,株式会社ＫＹＫ,,株式会社,茨城県,日立市,滑川本町３丁目１８番２６号,,08,202,3170051,,,,,,,2023-07-10,1,,,,,ケイワイケイ,0
1341,5060003004632,新規,0,2023-07-10,2023-07-10,合同会社Ｕｎｉｃｏ,,合同会社,栃木県,小山市,大字乙女１１１９番地３,,09,208,3290214,,,,,,,2023-07-10,1,,,,,ウニコ,0
1343,5070001040604,新規,0,2023-07-10,2023-07-10,株式会社ホンダ企画,,株式会社,群馬県,高崎市,棟高町１８０２番地１１６,,10,202,3703521,,,,,,,2023-07-10,1,,,,,ホンダキカク,0
1344,5070001040620,新規,0,2023-07-10,2023-07-10,騰飛株式会社,,株式会社,群馬県,藤岡市,白石２３５９番地３,,10,209,3750055,,,,,,,2023-07-10,1,,,,,トウヒ,0
1355,5090001018202,新規,0,2023-07-10,2023-07-10,株式会社ＨＯＷＨＡＴ,,株式会社,山梨県,山梨市,牧丘町西保下１７４０,,19,205,4040004,,,,,,,2023-07-10,1,,,,,ホワット,0
1362,5110003005105,新規,0,2023-07-10,2023-07-10,合同会社柏刈改良土プラント,,合同会社,新潟県,柏崎市,荒浜２丁目１２番３２号,,15,205,9450017,,,,,,,2023-07-10,1,,,,,カシカリカイリョウドプラント,0
1378,5120001256260,新規,0,2023-07-10,2023-07-10,株式会社ＰｌｕｓＷｏｒｄ,,株式会社,大阪府,大阪市中央区,瓦町１丁目３番２号,,27,128,5410048,,,,,,,2023-07-10,1,,,,,プラスワード,0
1379,5120001256293,新規,0,2023-07-10,2023-07-10,一雲株式会社,,株式会社,大阪府,大阪市住之江区,東加賀屋３丁目１番２号,,27,125,5590012,,,,,,,2023-07-10,1,,,,,イツモ,0
1380,5120001256319,新規,0,2023-07-10,2023-07-10,株式会社エルニド,,株式会社,大阪府,大阪市北区,梅田２丁目４番９号ブリーゼタワー,,27,127,5300001,,,,,,,2023-07-10,1,,,,,エルニド,0
1385,5120003024483,新規,0,2023-07-10,2023-07-10,フォースシステム合同会社,,合同会社,大阪府,大阪市北区,梅田１丁目２番２号大阪駅前第２ビル１２‐１２,,27,127,5300001,,,,,,,2023-07-10,1,,,,,フォースシステム,0
1387,5120005023723,新規,0,2023-07-10,2023-07-10,一般社団法人Ｌ　Ｃｒｅａｔｅ,,その他の設立登記法人,大阪府,枚方市,上島東町１４－１ルファルひらかた社協５Ｆ,,27,210,5731126,,,,,,,2023-07-10,1,,,,,エルクリエイト,0
1388,5120005023731,新規,0,2023-07-10,2023-07-10,医療法人安立中野会,,その他の設立登記法人,大阪府,大阪市住之江区,安立４丁目４番７号,,27,125,5590003,,,,,,,2023-07-10,1,,,,,アンリュウナカノカイ,0
1399,5130001074645,新規,0,2023-07-10,2023-07-10,株式会社琥珀書房,,株式会社,京都府,京都市左京区,田中東高原町３４カルチャーハウス２０３,,26,103,6068243,,,,,,,2023-07-10,1,,,,,コハクショボウ,0
1400,5130001074678,新規,0,2023-07-10,2023-07-10,ＴＨＲＥＡＤＳ株式会社,,株式会社,京都府,京都市左京区,北白川久保田町８番地１,,26,103,6068266,,,,,,,2023-07-10,1,,,,,スレッズ,0
1405,5130003008840,新規,0,2023-07-10,2023-07-10,合同会社りんどう企画,,合同会社,京都府,京都市右京区,京北周山町上太田３４－１,,26,108,6010251,,,,,,,2023-07-10,1,,,,,リンドウキカク,0
1414,5140001130744,新規,0,2023-07-10,2023-07-10,株式会社フェイスピーチ,,株式会社,兵庫県,神戸市中央区,磯辺通１丁目１－５アーバネックス三宮磯部通１４０１号室,,28,110,6510084,,,,,,,2023-07-10,1,,,,,フェイスピーチ,0
1415,5140001130760,新規,0,2023-07-10,2023-07-10,株式会社ＮＩＫＡＩＤＯＵ,,株式会社,兵庫県,姫路市,飾磨区中島４１４番地４９４,,28,201,6728035,,,,,,,2023-07-10,1,,,,,ニカイドウ,0
1416,5140001130777,新規,0,2023-07-10,2023-07-10,株式会社翔マネジメント,,株式会社,兵庫県,宝塚市,山手台東５丁目２７番５号,,28,214,6650887,,,,,,,2023-07-10,1,,,,,カケルマネジメント,0
1417,5140001130785,新規,0,2023-07-10,2023-07-10,株式会社エスエヌコーポレーション,,株式会社,兵庫県,加古川市,別府町新野辺２０８８番地,,28,210,6750131,,,,,,,2023-07-10,1,,,,,エスエヌコーポレーション,0
1421,5140003019283,新規,0,2023-07-10,2023-07-10,合同会社ちいきと暮らす,,合同会社,兵庫県,神戸市中央区,多聞通２丁目３－１５山下ビル１Ｆ,,28,110,6500015,,,,,,,2023-07-10,1,,,,,チイキトクラス,0
1423,5150001026520,新規,0,2023-07-10,2023-07-10,株式会社果果,,株式会社,奈良県,香芝市,藤山１丁目１２番２３号,,29,210,6390243,,,,,,,2023-07-10,1,,,,,カカ,0
1427,5160003002923,新規,0,2023-07-10,2023-07-10,合同会社リムノラボ,,合同会社,滋賀県,大津市,打出浜１３番３５－１００３号,,25,201,5200806,,,,,,,2023-07-10,1,,,,,リムノラボ,0
1440,5180001156975,新規,0,2023-07-10,2023-07-10,株式会社エム鑑定,,株式会社,愛知県,常滑市,字古社３０番地の１１,,23,216,4790043,,,,,,,2023-07-10,1,,,,,エムカンテイ,0
1441,5180001157008,新規,0,2023-07-10,2023-07-10,株式会社ワキタ,,株式会社,愛知県,日進市,浅田平子３丁目２５３番地,,23,230,4700128,,,,,,,2023-07-10,1,,,,,ワキタ,0
1442,5180001157032,新規,0,2023-07-10,2023-07-10,株式会社名北メンテナンス,,株式会社,愛知県,清須市,阿原池之表１５３番地アクティブ近藤ＶＡ号室,00131120,23,233,4520901,,,,,,,2023-07-10,1,,,,,メイホクメンテナンス,0
1443,5180001157040,新規,0,2023-07-10,2023-07-10,株式会社ＮＳＤ,,株式会社,愛知県,豊明市,栄町南舘１７５番地,,23,229,4701168,,,,,,,2023-07-10,1,,,,,エヌエスディー,0
1444,5180001157057,新規,0,2023-07-10,2023-07-10,株式会社リトライズインク,,株式会社,愛知県,名古屋市中村区,名駅４丁目２４番５号第２森ビル４０１,,23,105,4500002,,,,,,,2023-07-10,1,,,,,リトライズインク,0
1446,5180003025451,新規,0,2023-07-10,2023-07-10,合同会社モアナ,,合同会社,愛知県,名古屋市東区,徳川１丁目９０１番地サンエース徳川ビル６階,,23,102,4610025,,,,,,,2023-07-10,1,,,,,モアナ,0
1447,5180303005764,新規,0,2023-07-10,2023-07-10,ＡｒｔＦｉｔ合同会社,,合同会社,愛知県,みよし市,明知町深狭間８７－７,,23,236,4700214,,,,,,,2023-07-10,1,,,,,アートフィット,0
1448,5190005011837,新規,0,2023-07-10,2023-07-10,特定非営利活動法人クリアーストリームリバー,,その他の設立登記法人,三重県,多気郡大台町,長ケ３３６番地２,,24,443,5192401,,,,,,,2023-07-10,1,,,,,クリアーストリームリバー,0
1459,5240001061780,新規,0,2023-07-10,2023-07-10,株式会社ＢＬＡＳＴ,,株式会社,広島県,広島市安芸区,船越３丁目１１番３０号,,34,107,7360081,,,,,,,2023-07-10,1,,,,,ブラスト,0
1464,5260001038100,新規,0,2023-07-10,2023-07-10,株式会社グリーンライフ,,株式会社,岡山県,岡山市中区,江並３０５番地３７,,33,102,7028004,,,,,,,2023-07-10,1,,,,,グリーンライフ,0
1465,5260001038109,新規,0,2023-07-10,2023-07-10,Ｍａｇｍｅｌｌ株式会社,,株式会社,岡山県,赤磐市,仁堀東３１８番地の１,,33,213,7012434,,,,,,,2023-07-10,1,,,,,マグメル,0
1467,5280001008984,新規,0,2023-07-10,2023-07-10,ＪＡ全農島根農機サポート株式会社,,株式会社,島根県,松江市,宍道町佐々布１９番地１,,32,201,6990406,,,,,,,2023-07-10,1,,,,,ジェイエイゼンノウシマネノウキサポート,0
1470,5290001102191,新規,0,2023-07-10,2023-07-10,株式会社ＹＴ電業,,株式会社,福岡県,飯塚市,大分１４４５番地２０,,40,205,8200712,,,,,,,2023-07-10,1,,,,,ワイティーデンギョウ,0
1471,5290001102200,新規,0,2023-07-10,2023-07-10,株式会社大智,,株式会社,福岡県,福岡市早良区,藤崎２丁目１－３３－４１２,,40,137,8140013,,,,,,,2023-07-10,1,,,,,ダイチ,0
1474,5290003014121,新規,0,2023-07-10,2023-07-10,合同会社イケウチ企画,,合同会社,福岡県,福岡市西区,野方１丁目１２番３０号,,40,135,8190043,,,,,,,2023-07-10,1,,,,,イケウチキカク,0
1476,5290801029683,新規,0,2023-07-10,2023-07-10,株式会社Ｇｕｉｌｄ,,株式会社,福岡県,北九州市若松区,大井戸町６番６号,,40,103,8080033,,,,,,,2023-07-10,1,,,,,ギルド,0
1481,5340001025692,新規,0,2023-07-10,2023-07-10,長田建築株式会社,,株式会社,鹿児島県,薩摩川内市,永利町１６５９番地,,46,215,8950005,,,,,,,2023-07-10,1,,,,,オサダケンチク,0
1486,5360001032233,新規,0,2023-07-10,2023-07-10,株式会社ヌード・トウキョウ,,株式会社,沖縄県,沖縄市,中央１丁目７番８号,,47,211,9040004,,,,,,,2023-07-10,1,,,,,ヌードトウキョウ,0
1488,5370001050151,新規,0,2023-07-10,2023-07-10,株式会社Ｎａｔｕｒａｌ　Ｐａｗ,,株式会社,宮城県,仙台市泉区,南光台７丁目４－１メゾンセフィラ９０２,,04,105,9818003,,,,,,,2023-07-10,1,,,,,ナチュラルパウ,0
1491,5370003006192,新規,0,2023-07-10,2023-07-10,合同会社ＧＲＡＣＥ,,合同会社,宮城県,仙台市青葉区,国分町１丁目７番１８号,,04,101,9800803,,,,,,,2023-07-10,1,,,,,グレイス,0
1499,5400001016314,新規,0,2023-07-10,2023-07-10,株式会社アラヤ商会,,株式会社,岩手県,北上市,和賀町横川目１２地割４２番地,,03,206,0240331,,,,,,,2023-07-10,1,,,,,アラヤショウカイ,0
1505,5420001018333,新規,0,2023-07-10,2023-07-10,ＬｉＳＴｉｅ株式会社,,株式会社,青森県,むつ市,若松町１２番２３号,,02,208,0350063,,,,,,,2023-07-10,1,,,,,リスティー,0
1507,5420003002756,新規,0,2023-07-10,2023-07-10,合同会社典雅,,合同会社,青森県,青森市,堤町２丁目５番１３号,,02,201,0300812,,,,,,,2023-07-10,1,,,,,テンガ,0
1516,5450003002357,新規,0,2023-07-10,2023-07-10,ＲＥ　ＡＣＥ　ＢＥＡＵＴＹ合同会社,,合同会社,北海道,旭川市,一条通２０丁目６６５番地の１,,01,204,0788211,,,,,,,2023-07-10,1,,,,,,0
1517,5460101007406,新規,0,2023-07-10,2023-07-10,株式会社ｅｆ　ｅｎｔｅｒｔａｉｎｍｅｎｔ,,株式会社,北海道,帯広市,西十七条北２丁目２７番３号,,01,207,0800047,,,,,,,2023-07-10,1,,,,,エフエンターテインメント,0
1525,5700150112676,新規,0,2023-07-10,2023-07-10,Ｈａｎｇｚｈｏｕ　Ｊｉ　ＺｈｕｏＨｏｎｇ　ＧａｒｍｅｎｔＣｏ,,外国会社等,,,,,,,,Ｂｉｎｇｊｉａｎｇ　Ｃｈａｎｇｈｅ　Ｒｏａｄ　Ｎｏ．４７５　１２０３　Ｓ２　Ｂｕｉｌｄｉｎｇ　１２　Ｆｌｏｏｒ　Ｈａｎｇ　Ｚｈｏｕ　Ｚｈｅ　Ｊｉａｎｇ　ＣＮ　３１００００,,,,,,2023-07-10,1,,,,,ハンジヨウジージユオホンガーメント,0
1536,6010001236636,新規,0,2023-07-10,2023-07-10,株式会社ソリッドキャピタル,,株式会社,東京都,千代田区,平河町１丁目８番２号,,13,101,1020093,,,,,,,2023-07-10,1,,,,,ソリッドキャピタル,0
1537,6010001236660,新規,0,2023-07-10,2023-07-10,株式会社ＥＮＭＡＮ,,株式会社,東京都,中央区,日本橋箱崎町３２番３－１１０１号,,13,102,1030015,,,,,,,2023-07-10,1,,,,,エンマン,0
1538,6010001236751,新規,0,2023-07-10,2023-07-10,株式会社スターユニバース,,株式会社,東京都,中央区,日本橋蛎殻町１丁目３番５号共同ビル２階２３号,,13,102,1030014,,,,,,,2023-07-10,1,,,,,スターユニバース,0
1553,6010401175228,新規,0,2023-07-10,2023-07-10,海外人材支援株式会社,,株式会社,東京都,港区,赤坂４丁目６番３号シャトー佐和４０３号,,13,103,1070052,,,,,,,2023-07-10,1,,,,,カイガイジンザイシエン,0
1554,6010401175491,新規,0,2023-07-10,2023-07-10,株式会社オトミツ・コーポレーション,,株式会社,東京都,港区,白金１丁目１２番１４－３０１号,,13,103,1080072,,,,,,,2023-07-10,1,,,,,オトミツコーポレーション,0
1555,6010401175517,新規,0,2023-07-10,2023-07-10,株式会社Ａｉｎｇ,,株式会社,東京都,港区,西麻布４丁目８－２２ＭＮ４８２２－３０２号室,,13,103,1060031,,,,,,,2023-07-10,1,,,,,エーイング,0
1558,6010403030430,新規,0,2023-07-10,2023-07-10,和諾家合同会社,,合同会社,東京都,港区,南青山２丁目２番１５号ウイン青山９４２,,13,103,1070062,,,,,,,2023-07-10,1,,,,,ワノタク,0
1562,6010503007080,新規,0,2023-07-10,2023-07-10,合同会社ニルスワンダー,,合同会社,東京都,台東区,谷中２丁目１番１２号カイラカラン根津１０３,,13,106,1100001,,,,,,,2023-07-10,1,,,,,ニルスワンダー,0
1567,6010601063397,新規,0,2023-07-10,2023-07-10,株式会社東京ロングライフ,,株式会社,東京都,江東区,南砂２丁目２５番７－１１０１号,,13,108,1360076,,,,,,,2023-07-10,1,,,,,トウキョウロングライフ,0
1571,6010701044545,新規,0,2023-07-10,2023-07-10,株式会社ＤＡＩＦＵＫＵ,,株式会社,東京都,品川区,東五反田３丁目１６－６－２０２,,13,109,1410022,,,,,,,2023-07-10,1,,,,,ダイフク,0
1576,6010901053404,新規,0,2023-07-10,2023-07-10,株式会社ＲＩＮＤＡ　ＨＲ,,株式会社,東京都,世田谷区,池尻３丁目１９番２４号,,13,112,1540001,,,,,,,2023-07-10,1,,,,,リンダエイチアール,0
1586,6011003017116,新規,0,2023-07-10,2023-07-10,合同会社ＳＷＥＥＰ　ＤＯＮＵＴＳ,,合同会社,東京都,渋谷区,道玄坂１丁目１０番８号渋谷道玄坂東急ビル２Ｆ－Ｃ,,13,113,1500043,,,,,,,2023-07-10,1,,,,,スイープドーナッツ,0
1587,6011003017140,新規,0,2023-07-10,2023-07-10,合同会社ボエムスタイル,,合同会社,東京都,目黒区,五本木２丁目１７番２号,,13,110,1530053,,,,,,,2023-07-10,1,,,,,ボエムスタイル,0
1592,6011103013238,新規,0,2023-07-10,2023-07-10,合同会社言語情報技術研究所,,合同会社,東京都,新宿区,新宿７丁目１２番１号新宿平和ビル１階,,13,104,1600022,,,,,,,2023-07-10,1,,,,,ゲンゴジョウホウギジュツケンキュウジョ,0
1594,6011203004120,新規,0,2023-07-10,2023-07-10,Ｖａｎ　Ａｎｈ合同会社,,合同会社,東京都,中野区,江古田２丁目４番１４号サンマリノ江古田２０１,,13,114,1650022,,,,,,,2023-07-10,1,,,,,ヴァンアイン,0
1597,6011401025265,新規,0,2023-07-10,2023-07-10,株式会社ＳＴＮＯＶＥ,,株式会社,東京都,板橋区,舟渡１丁目１２－１ＵＦビル３階,,13,119,1740041,,,,,,,2023-07-10,1,,,,,エスティーノーヴェ,0
1598,6011501029505,新規,0,2023-07-10,2023-07-10,Ｋ＆ＫＳＯＬＵＴＩＯＮ株式会社,,株式会社,東京都,荒川区,西日暮里６丁目６４番６号３階,,13,118,1160013,,,,,,,2023-07-10,1,,,,,ケーアンドケーソリューション,0
1599,6011601026963,新規,0,2023-07-10,2023-07-10,株式会社ＥＳＥマネージメント,,株式会社,東京都,練馬区,石神井町２丁目３４－２,,13,120,1770041,,,,,,,2023-07-10,1,,,,,イーエスイーマネージメント,0
1605,6011801042645,新規,0,2023-07-10,2023-07-10,仲井真商事株式会社,,株式会社,東京都,葛飾区,新小岩１丁目５１番１７号,,13,122,1240024,,,,,,,2023-07-10,1,,,,,ナカイマショウジ,0
1612,6012401040691,新規,0,2023-07-10,2023-07-10,株式会社ネビュラス,,株式会社,東京都,武蔵野市,吉祥寺南町３丁目３４－７,,13,203,1800003,,,,,,,2023-07-10,1,,,,,ネビュラス,0
1613,6012401040717,新規,0,2023-07-10,2023-07-10,株式会社アンスリー,,株式会社,東京都,小金井市,梶野町５丁目６番１０号,,13,210,1840002,,,,,,,2023-07-10,1,,,,,アンスリー,0
1615,6012405004882,新規,0,2023-07-10,2023-07-10,社会保険労務士法人吉祥寺ＨＲオフィス,,その他の設立登記法人,東京都,武蔵野市,吉祥寺本町１丁目１３番６号古谷ビル新館８０１,,13,203,1800004,,,,,,,2023-07-10,1,,,,,キチジョウジエイチアールオフィス,0
1630,6020001152337,新規,0,2023-07-10,2023-07-10,株式会社ＳｔｅａｄｙＵｐ,,株式会社,神奈川県,川崎市宮前区,西野川２丁目３６番１号プラシード２０３号室,,14,136,2160044,,,,,,,2023-07-10,1,,,,,ステディアップ,0
1631,6020001152345,新規,0,2023-07-10,2023-07-10,バイタルスタート株式会社,,株式会社,神奈川県,横浜市西区,北幸１丁目１１番１号水信ビル７階,,14,103,2200004,,,,,,,2023-07-10,1,,,,,バイタルスタート,0
1632,6020001152428,新規,0,2023-07-10,2023-07-10,義伽インターナショナルリソース株式会社,,株式会社,神奈川県,横浜市南区,堀ノ内町２丁目１３８番地１－２Ｆ,,14,105,2320042,,,,,,,2023-07-10,1,,,,,ギガインターナショナルリソース,0
1633,6020001152436,新規,0,2023-07-10,2023-07-10,株式会社Ｒｅｇｒｏｗ,,株式会社,神奈川県,横浜市磯子区,森３丁目１８番２５号ニイヤビル１階,,14,107,2350023,,,,,,,2023-07-10,1,,,,,リグロウ,0
1634,6020001152444,新規,0,2023-07-10,2023-07-10,株式会社Ｔ‐ＢＡＹ,,株式会社,神奈川県,横浜市都筑区,茅ケ崎東１丁目１番１０－３０２号,,14,118,2240033,,,,,,,2023-07-10,1,,,,,ティーベイ,0
1641,6020003024146,新規,0,2023-07-10,2023-07-10,ＴＣＶジャパン合同会社,,合同会社,神奈川県,横浜市都筑区,中川６丁目１番１０－８０８号,,14,118,2240001,,,,,,,2023-07-10,1,,,,,ティーシーヴィージャパン,0
1643,6021001079470,新規,0,2023-07-10,2023-07-10,株式会社ネクサス,,株式会社,神奈川県,座間市,ひばりが丘５丁目３８－５２,,14,216,2520003,,,,,,,2023-07-10,1,,,,,ネクサス,0
1644,6021001079537,新規,0,2023-07-10,2023-07-10,株式会社ＭＵＳＥ,,株式会社,神奈川県,平塚市,花水台３７番２７号,,14,203,2540824,,,,,,,2023-07-10,1,,,,,ミューズ,0
1646,6021003013295,新規,0,2023-07-10,2023-07-10,くろだ６合同会社,,合同会社,神奈川県,藤沢市,長後１１５２－１,,14,205,2520801,,,,,,,2023-07-10,1,,,,,クロダロク,0
1652,6030001154745,新規,0,2023-07-10,2023-07-10,株式会社大塚造園,,株式会社,埼玉県,三郷市,彦沢１丁目５６番地,,11,237,3410057,,,,,,,2023-07-10,1,,,,,オオツカゾウエン,0
1653,6030001154778,新規,0,2023-07-10,2023-07-10,株式会社光電機商会,,株式会社,埼玉県,川口市,新井町２番１７号,,11,203,3320005,,,,,,,2023-07-10,1,,,,,ヒカリデンキショウカイ,0
1661,6040001129168,新規,0,2023-07-10,2023-07-10,株式会社エム・エム・シー,,株式会社,千葉県,成田市,押畑７１３番地,,12,211,2860845,,,,,,,2023-07-10,1,,,,,エムエムシー,0
1668,6040003022924,新規,0,2023-07-10,2023-07-10,合同会社あめんぼす,,合同会社,千葉県,市原市,西広２丁目６－４,,12,219,2900022,,,,,,,2023-07-10,1,,,,,アメンボス,0
1669,6040003022932,新規,0,2023-07-10,2023-07-10,合同会社オシテエステートオフィス,,合同会社,千葉県,野田市,上花輪新町１６番９コンフォーティア２０２号室,,12,208,2780034,,,,,,,2023-07-10,1,,,,,オシテエステートオフィス,0
1670,6040005022063,新規,0,2023-07-10,2023-07-10,ＮＰＯ法人若草の会,,その他の設立登記法人,千葉県,鎌ケ谷市,南鎌ケ谷３丁目１番２２－９号,,12,224,2730106,,,,,,,2023-07-10,1,,,,,ワカクサノカイ,0
1672,6050001053078,新規,0,2023-07-10,2023-07-10,株式会社ヒーロープラス,,株式会社,茨城県,牛久市,中央５丁目２３番地１,,08,219,3001234,,,,,,,2023-07-10,1,,,,,ヒーロープラス,0
1673,6050001053094,新規,0,2023-07-10,2023-07-10,Ｓｕｍｍｙ株式会社,,株式会社,茨城県,猿島郡境町,大字西泉田１２０６番地１８,,08,546,3060431,,,,,,,2023-07-10,1,,,,,サミー,0
1675,6050003007627,新規,0,2023-07-10,2023-07-10,ぱんだ合同会社,,合同会社,茨城県,水戸市,中河内町２４６３番地,,08,201,3100002,,,,,,,2023-07-10,1,,,,,パンダ,0
1678,6070001040611,新規,0,2023-07-10,2023-07-10,株式会社ＷＡＹＲ,,株式会社,群馬県,前橋市,南町２丁目６８番地８,,10,201,3710805,,,,,,,2023-07-10,1,,,,,ウェイアール,0
1686,6080401026589,新規,0,2023-07-10,2023-07-10,心静株式会社,,株式会社,静岡県,磐田市,福田７８０番地２－２０１,,22,211,4371203,,,,,,,2023-07-10,1,,,,,シンセイ,0
1691,6110003005112,新規,0,2023-07-10,2023-07-10,合同会社森山事務所,,合同会社,新潟県,柏崎市,田中２７番１５－１０１号,,15,205,9450816,,,,,,,2023-07-10,1,,,,,モリヤマジムショ,0
1706,6120001256169,新規,0,2023-07-10,2023-07-10,震鴻医薬株式会社,,株式会社,大阪府,大阪市大正区,三軒家西３丁目４番１６号中山ビル４０９Ｂ,,27,108,5510001,,,,,,,2023-07-10,1,,,,,シンコウイヤク,0
1707,6120001256202,新規,0,2023-07-10,2023-07-10,株式会社サクシードコーポレーション,,株式会社,大阪府,大阪市中央区,道修町４丁目５番１６号Ｍ＆Ｍビル８Ｆ,,27,128,5410045,,,,,,,2023-07-10,1,,,,,サクシードコーポレーション,0
1708,6120001256318,新規,0,2023-07-10,2023-07-10,株式会社ヒト軸,,株式会社,大阪府,大阪市北区,梅田１丁目１番３号大阪駅前第３ビル２９階１－１－１号室,,27,127,5300001,,,,,,,2023-07-10,1,,,,,ヒトジク,0
1713,6120003024425,新規,0,2023-07-10,2023-07-10,合同会社ＨＡＲＩＹＡ,,合同会社,大阪府,大阪市西区,北堀江１丁目１６－２５ＹＳＳ３Ｆ,,27,106,5500014,,,,,,,2023-07-10,1,,,,,ハリヤ,0
1714,6120005023730,新規,0,2023-07-10,2023-07-10,医療法人実祈会,,その他の設立登記法人,大阪府,大阪市天王寺区,上本町６丁目４番１２号,,27,109,5430001,,,,,,,2023-07-10,1,,,,,ミノリカイ,0
1721,6120901047766,新規,0,2023-07-10,2023-07-10,株式会社いろどり,,株式会社,大阪府,茨木市,別院町６番４３号,,27,211,5670817,,,,,,,2023-07-10,1,,,,,イロドリ,0
1726,6120903004732,新規,0,2023-07-10,2023-07-10,合同会社住まいサポート,,合同会社,大阪府,吹田市,垂水町２丁目１２番３号,,27,205,5640062,,,,,,,2023-07-10,1,,,,,スマイサポート,0
1727,6122001037144,新規,0,2023-07-10,2023-07-10,キタムラ板金株式会社,,株式会社,大阪府,柏原市,太平寺２丁目８番２５号,,27,221,5820017,,,,,,,2023-07-10,1,,,,,キタムラバンキン,0
1732,6130001074702,新規,0,2023-07-10,2023-07-10,Ｃａｒａｄｉｃｈ＆Ｃｏ．株式会社,,株式会社,京都府,京都市中京区,室町御池上る御池之町３１０番地,,26,104,6040000,,,,,,,2023-07-10,1,,,,,カラディッチアンドシーオー,0
1740,6140001130743,新規,0,2023-07-10,2023-07-10,杏伸商事株式会社,,株式会社,兵庫県,尼崎市,道意町３丁目７－３,,28,202,6600083,,,,,,,2023-07-10,1,,,,,キョウシンショウジ,0
1741,6140001130768,新規,0,2023-07-10,2023-07-10,Ａｒｃｎｏ　Ｆｏｏｄｓ株式会社,,株式会社,兵庫県,神戸市須磨区,竜が台２丁目１番地３５号棟３０６号,,28,107,6540141,,,,,,,2023-07-10,1,,,,,アルクノフーヅ,0
1742,6140001130776,新規,0,2023-07-10,2023-07-10,株式会社トトロエコンサルティング,,株式会社,兵庫県,川西市,寺畑２丁目４番１０－３０８号,,28,217,6660034,,,,,,,2023-07-10,1,,,,,トトロエコンサルティング,0
1743,6140001130784,新規,0,2023-07-10,2023-07-10,株式会社バンシュ,,株式会社,兵庫県,加西市,笹倉町３３１番地の１,,28,220,6752443,,,,,,,2023-07-10,1,,,,,バンシュ,0
1744,6140001130801,新規,0,2023-07-10,2023-07-10,株式会社バリアスデザイン,,株式会社,兵庫県,神戸市中央区,生田町４丁目５番２４－３０３号,,28,110,6510092,,,,,,,2023-07-10,1,,,,,バリアスデザイン,0
1745,6140001130826,新規,0,2023-07-10,2023-07-10,株式会社アスボサービス,,株式会社,兵庫県,神戸市兵庫区,神田町２５番９号,,28,105,6520006,,,,,,,2023-07-10,1,,,,,アスボサービス,0
1749,6140003019266,新規,0,2023-07-10,2023-07-10,合同会社岡田薬局,,合同会社,兵庫県,美方郡新温泉町,湯１２９３番地,,28,586,6696821,,,,,,,2023-07-10,1,,,,,オカダヤッキョク,0
1750,6140003019282,新規,0,2023-07-10,2023-07-10,合同会社山下不動産,,合同会社,兵庫県,西宮市,堀切町２番２４号,,28,204,6620953,,,,,,,2023-07-10,1,,,,,ヤマシタフドウサン,0
1751,6140003019299,新規,0,2023-07-10,2023-07-10,星陵エステート合同会社,,合同会社,兵庫県,西宮市,和上町５－２９パラツィーナ和上３０５号,,28,204,6620971,,,,,,,2023-07-10,1,,,,,セイリョウエステート,0
1763,6170001017681,新規,0,2023-07-10,2023-07-10,株式会社はまさと,,株式会社,和歌山県,有田市,初島町浜１５３４,,30,204,6490306,,,,,,,2023-07-10,1,,,,,ハマサト,0
1764,6170003001898,新規,0,2023-07-10,2023-07-10,合同会社スマイル,,合同会社,和歌山県,岩出市,中黒５５５番地の５,,30,209,6496248,,,,,,,2023-07-10,1,,,,,スマイル,0
1774,6180001156982,新規,0,2023-07-10,2023-07-10,株式会社カワラバン,,株式会社,愛知県,名古屋市西区,那古野２丁目１４番１号,,23,104,4510042,,,,,,,2023-07-10,1,,,,,カワラバン,0
1775,6180001157007,新規,0,2023-07-10,2023-07-10,株式会社イシバシ,,株式会社,愛知県,名古屋市守山区,大字上志段味字大矢９２２番地の１,,23,113,4630001,,,,,,,2023-07-10,1,,,,,イシバシ,0
1776,6180001157048,新規,0,2023-07-10,2023-07-10,株式会社ピスティプラム,,株式会社,愛知県,名古屋市南区,鶴里町３丁目７２番地２‐３０３号,,23,112,4570021,,,,,,,2023-07-10,1,,,,,ピスティプラム,0
1780,6180003025450,新規,0,2023-07-10,2023-07-10,合同会社Ｒｉｔｚ　Ｄｅｓｉｇｎ,,合同会社,愛知県,名古屋市中村区,名駅４丁目２４番５号第２森ビル４０１,,23,105,4500002,,,,,,,2023-07-10,1,,,,,リッツデザイン,0
1782,6180301037544,新規,0,2023-07-10,2023-07-10,株式会社ＵＮＩＶＥＲＳＡＬ１,,株式会社,愛知県,岡崎市,明大寺町字東長峰４９番地２,,23,202,4440864,,,,,,,2023-07-10,1,,,,,ユニバーサルワン,0
1783,6180301037552,新規,0,2023-07-10,2023-07-10,株式会社レジリエンス,,株式会社,愛知県,刈谷市,泉田町宮下５５番地エルグランデ泉田フォレスタ７０３号,,23,210,4480004,,,,,,,2023-07-10,1,,,,,レジリエンス,0
1784,6180303005763,新規,0,2023-07-10,2023-07-10,ＲＥＭ合同会社,,合同会社,愛知県,豊橋市,吉川町１６番地,,23,201,4418002,,,,,,,2023-07-10,1,,,,,アールイーエム,0
1790,6190001030567,新規,0,2023-07-10,2023-07-10,株式会社飛来,,株式会社,三重県,松阪市,和屋町３０４番地９,,24,204,5150025,,,,,,,2023-07-10,1,,,,,ヒライ,0
1793,6200001041488,新規,0,2023-07-10,2023-07-10,ＲＡＤ株式会社,,株式会社,岐阜県,各務原市,前渡東町４丁目１７０番地,,21,213,5040922,,,,,,,2023-07-10,1,,,,,ラッド,0
1794,6200003006010,新規,0,2023-07-10,2023-07-10,合同会社知財の森,,合同会社,岐阜県,羽島市,福寿町平方２丁目５１番地３階,,21,209,5016257,,,,,,,2023-07-10,1,,,,,チザイノモリ,0
1799,6240001061763,新規,0,2023-07-10,2023-07-10,株式会社ＴＭＯ　ＳＴＯＮＥ,,株式会社,広島県,広島市安佐南区,高取北４丁目３２番５号,,34,105,7310144,,,,,,,2023-07-10,1,,,,,ティーエムオーストーン,0
1802,6260001038116,新規,0,2023-07-10,2023-07-10,株式会社ＳＫＫ,,株式会社,岡山県,倉敷市,水島東栄町５番地２号１Ｆ西,,33,202,7128033,,,,,,,2023-07-10,1,,,,,エスケイケイ,0
1819,6310001018509,新規,0,2023-07-10,2023-07-10,株式会社クラックレス,,株式会社,長崎県,長崎市,大浜町１５５７,,42,201,8500066,,,,,,,2023-07-10,1,,,,,クラックレス,0
1820,6330001031030,新規,0,2023-07-10,2023-07-10,株式会社古庄総合企画,,株式会社,熊本県,熊本市西区,田崎町４８４番地,,43,103,8600058,,,,,,,2023-07-10,1,,,,,フルショウソウゴウキカク,0
1828,6340001025691,新規,0,2023-07-10,2023-07-10,株式会社Ｅｘｔｅｒｉｏｒ　Ｍｉｙａｂｉ,,株式会社,鹿児島県,薩摩川内市,永利町５８番地３,,46,215,8950005,,,,,,,2023-07-10,1,,,,,エクステリアミヤビ,0
1829,6340001025709,新規,0,2023-07-10,2023-07-10,株式会社ＫＯＫＵＲＹＯ,,株式会社,鹿児島県,曽於郡大崎町,持留３０３番地２,,46,468,8997307,,,,,,,2023-07-10,1,,,,,コクリョウ,0
1836,6360003013107,新規,0,2023-07-10,2023-07-10,合同会社うるま旅クリエイト,,合同会社,沖縄県,うるま市,字塩屋３５１番地,,47,213,9042231,,,,,,,2023-07-10,1,,,,,ウルマタビクリエイト,0
1843,6390001017296,新規,0,2023-07-10,2023-07-10,株式会社ソウマ板金,,株式会社,山形県,鶴岡市,羽黒町川代字川代山５５８番地３７,,06,203,9970131,,,,,,,2023-07-10,1,,,,,ソウマバンキン,0
1856,6450005004375,新規,0,2023-07-10,2023-07-10,一般社団法人オホーツク西紋医療ケアネットワーク,,その他の設立登記法人,北海道,紋別市,落石町１丁目３番３７号,,01,219,0940007,,,,,,,2023-07-10,1,,,,,オホーツクニシモンイリョウケアネットワーク,0
1857,6460101007405,新規,0,2023-07-10,2023-07-10,株式会社ＳＩＥＮ’Ｓ　Ｈｅａｒｔ,,株式会社,北海道,帯広市,白樺十六条東１６丁目７番地,,01,207,0800050,,,,,,,2023-07-10,1,,,,,シエンズハート,0
1860,6500001025056,新規,0,2023-07-10,2023-07-10,株式会社神野工業,,株式会社,愛媛県,新居浜市,大生院５２６番地,,38,205,7920060,,,,,,,2023-07-10,1,,,,,ジンノコウギョウ,0
1876,7010001236619,新規,0,2023-07-10,2023-07-10,株式会社紫貴,,株式会社,東京都,中央区,銀座８丁目５番１８号コルティーレ銀座ＶＩビル２階,00131106,13,102,1040061,,,,,,,2023-07-10,1,,,,,シダカ,0
1877,7010001236635,新規,0,2023-07-10,2023-07-10,株式会社グロコネ,,株式会社,東京都,中央区,銀座１丁目１２番４号Ｎ＆ＥＢＬＤ．７階,,13,102,1040061,,,,,,,2023-07-10,1,,,,,グロコネ,0
1878,7010001236718,新規,0,2023-07-10,2023-07-10,株式会社造形社,,株式会社,東京都,中央区,銀座７丁目１３番６号サガミビル２階,,13,102,1040061,,,,,,,2023-07-10,1,,,,,ゾウケイシャ,0
1879,7010001236726,新規,0,2023-07-10,2023-07-10,レイスデジタルソリューションズ株式会社,,株式会社,東京都,中央区,京橋３丁目１番１号,,13,102,1040031,,,,,,,2023-07-10,1,,,,,レイスデジタルソリューションズ,0
1880,7010001236734,新規,0,2023-07-10,2023-07-10,ＬＰ，ｓ株式会社,,株式会社,東京都,中央区,八重洲１丁目５番１０号井門八重洲ビル１Ｆ,,13,102,1030028,,,,,,,2023-07-10,1,,,,,ラピース,0
1882,7010003041026,新規,0,2023-07-10,2023-07-10,エスティファンドファイブ合同会社,,合同会社,東京都,千代田区,丸の内３丁目１番１号東京共同会計事務所内,,13,101,1000005,,,,,,,2023-07-10,1,,,,,エスティファンドファイブ,0
1883,7010003041042,新規,0,2023-07-10,2023-07-10,アントレッド合同会社,,合同会社,東京都,中央区,銀座１丁目２２番１１号,,13,102,1040061,,,,,,,2023-07-10,1,,,,,アントレッド,0
1889,7010401175516,新規,0,2023-07-10,2023-07-10,株式会社バズアイ,,株式会社,東京都,港区,西麻布４丁目８－２２ＭＮ４８２２・３０２号室,,13,103,1060031,,,,,,,2023-07-10,1,,,,,バズアイ,0
1890,7010401175672,新規,0,2023-07-10,2023-07-10,株式会社コネクト,,株式会社,東京都,港区,北青山１丁目４－１ランジェ青山６１１,,13,103,1070061,,,,,,,2023-07-10,1,,,,,コネクト,0
1891,7010403030446,新規,0,2023-07-10,2023-07-10,テリーピクチャーズ合同会社,,合同会社,東京都,港区,南青山２丁目２番１５号ＷｉｎＡｏｙａｍａビルＵＣＦ６３５,,13,103,1070062,,,,,,,2023-07-10,1,,,,,テリーピクチャーズ,0
1892,7010501050602,新規,0,2023-07-10,2023-07-10,株式会社Ｄｉｖｅｒｓｉｏｎ,,株式会社,東京都,台東区,竜泉１丁目３３番９号,,13,106,1100012,,,,,,,2023-07-10,1,,,,,ディバージョン,0
1893,7010501050692,新規,0,2023-07-10,2023-07-10,株式会社アールタップ,,株式会社,東京都,台東区,柳橋２丁目２番７号,,13,106,1110052,,,,,,,2023-07-10,1,,,,,アールタップ,0
1897,7010601063396,新規,0,2023-07-10,2023-07-10,株式会社ＳＡＩ　ＩＺＵＭＩ　ＡＲＴ　ＷＯＲＫＳ,,株式会社,東京都,江東区,有明１丁目３番１４－１４１４号,,13,108,1350063,,,,,,,2023-07-10,1,,,,,サイイズミアートワークス,0
1904,7010701044544,新規,0,2023-07-10,2023-07-10,株式会社Ｔｓ,,株式会社,東京都,品川区,荏原３丁目７番１５－７０３号,,13,109,1420063,,,,,,,2023-07-10,1,,,,,ティーズ,0
1906,7010703006765,新規,0,2023-07-10,2023-07-10,シロクマ合同会社,,合同会社,東京都,品川区,西五反田３丁目１０番１８－１００３号,,13,109,1410031,,,,,,,2023-07-10,1,,,,,シロクマ,0
1921,7011101103543,新規,0,2023-07-10,2023-07-10,株式会社ウィンディー,,株式会社,東京都,新宿区,西新宿３丁目７－３０フロンティアグラン西新宿４Ｆ,,13,104,1600023,,,,,,,2023-07-10,1,,,,,,0
1923,7011105010703,新規,0,2023-07-10,2023-07-10,一般社団法人Ｅｘｃｉｔｉｎｇ　Ｃｈｒｉｓｔｉａｎ　Ａｓｓｏｃｉａｔｉｏｎ,,その他の設立登記法人,東京都,新宿区,西早稲田１丁目１６番３号古菅ビル３階ニューハーモニーチャーチ,,13,104,1690051,,,,,,,2023-07-10,1,,,,,エキサイティングクリスチャンアソシエイション,0
1924,7011201024763,新規,0,2023-07-10,2023-07-10,株式会社Ｂｌｕｅ　Ｄｉｎｏｓａｕｒ,,株式会社,東京都,中野区,東中野１丁目３１－１０アネックスＧ３０１,,13,114,1640003,,,,,,,2023-07-10,1,,,,,ブルーダイナソー,0
1926,7011305002913,新規,0,2023-07-10,2023-07-10,一般財団法人杉原千畝博愛基金協会,,その他の設立登記法人,東京都,杉並区,西荻北３丁目４３番１３号西荻オーク大崎２０３,,13,115,1670042,,,,,,,2023-07-10,1,,,,,スギハラチウネハクアイキキンキョウカイ,0
1929,7011601026962,新規,0,2023-07-10,2023-07-10,株式会社リテナ,,株式会社,東京都,練馬区,東大泉１丁目１１番１８号,,13,120,1780063,,,,,,,2023-07-10,1,,,,,リテナ,0
1930,7011801042660,新規,0,2023-07-10,2023-07-10,株式会社ユニバーサル・ノート,,株式会社,東京都,足立区,西新井本町１丁目２５番２４号,,13,121,1230845,,,,,,,2023-07-10,1,,,,,ユニバーサルノート,0
1931,7011801042677,新規,0,2023-07-10,2023-07-10,株式会社ＦＩＣＴＩＯＮ　ＷＯＲＬＤＷＩＤＥ,,株式会社,東京都,足立区,西新井本町５丁目９－７ドゥクルール２０２,,13,121,1230845,,,,,,,2023-07-10,1,,,,,フィクションワールドワイド,0
1936,7012401040724,新規,0,2023-07-10,2023-07-10,株式会社谷中商店ホールディングス,,株式会社,東京都,調布市,布田１丁目４３番地２,,13,208,1820024,,,,,,,2023-07-10,1,,,,,ヤナカショウテンホールディングス,0
1937,7012401040732,新規,0,2023-07-10,2023-07-10,株式会社ＴＰＣ,,株式会社,東京都,三鷹市,深大寺２丁目４０番１７号第一黒澤コーポ店舗１０１,,13,204,1810016,,,,,,,2023-07-10,1,,,,,ティーピーシー,0
1938,7012403006062,新規,0,2023-07-10,2023-07-10,合同会社サインサウンド,,合同会社,東京都,調布市,深大寺元町２丁目１番地２３,,13,208,1820017,,,,,,,2023-07-10,1,,,,,サインサウンド,0
1939,7012701017736,新規,0,2023-07-10,2023-07-10,株式会社レインボークリーニング,,株式会社,東京都,東村山市,富士見町１丁目２番地４６ファインシティ武蔵野富士見１１４,,13,213,1890024,,,,,,,2023-07-10,1,,,,,レインボークリーニング,0
1940,7012703002744,新規,0,2023-07-10,2023-07-10,ＦＬＡＴ合同会社,,合同会社,東京都,東村山市,美住町１丁目１０番地３５美住町一丁目アパート１０１,,13,213,1890023,,,,,,,2023-07-10,1,,,,,フラット,0
1942,7013301051010,新規,0,2023-07-10,2023-07-10,株式会社ＫＧ,,株式会社,東京都,豊島区,西池袋１丁目１０－２日高ビル２０２,,13,116,1710021,,,,,,,2023-07-10,1,,,,,ケイジー,0
1950,7020001152328,新規,0,2023-07-10,2023-07-10,株式会社デイプランニング,,株式会社,神奈川県,横浜市磯子区,原町２番１３－３０１号,,14,107,2350008,,,,,,,2023-07-10,1,,,,,デイプランニング,0
1951,7020001152377,新規,0,2023-07-10,2023-07-10,ＴＴＡパートナーズ株式会社,,株式会社,神奈川県,横浜市旭区,さちが丘１４８番地４－３１７,,14,112,2410822,,,,,,,2023-07-10,1,,,,,ティーティーエーパートナーズ,0
1952,7020001152393,新規,0,2023-07-10,2023-07-10,株式会社ＧＥＩＮＩＮ,,株式会社,神奈川県,横浜市神奈川区,松見町３丁目８９８,,14,102,2210005,,,,,,,2023-07-10,1,,,,,ゲイニン,0
1953,7020001152402,新規,0,2023-07-10,2023-07-10,株式会社新美,,株式会社,神奈川県,川崎市宮前区,有馬２丁目１１番１９－１０２号ライオンズマンション鷺沼東,,14,136,2160003,,,,,,,2023-07-10,1,,,,,シンビ,0
1954,7020001152419,新規,0,2023-07-10,2023-07-10,株式会社ＲＫ,,株式会社,神奈川県,横浜市緑区,東本郷２丁目２１番７号,,14,113,2260002,,,,,,,2023-07-10,1,,,,,アールケー,0
1958,7020003024178,新規,0,2023-07-10,2023-07-10,合同会社Ｄｅｓｐａｃｉｔｏ,,合同会社,神奈川県,横浜市旭区,万騎が原６８－３,,14,112,2410836,,,,,,,2023-07-10,1,,,,,デスパシート,0
1968,7021003013261,新規,0,2023-07-10,2023-07-10,青唐辛子合同会社,,合同会社,神奈川県,横須賀市,若松町１丁目３番地明香ビル１階,,14,201,2380007,,,,,,,2023-07-10,1,,,,,アオトウガラシ,0
1973,7030003022073,新規,0,2023-07-10,2023-07-10,合同会社Ｉ．Ｃ．Ｄ,,合同会社,埼玉県,春日部市,樋堀３９６番地４,,11,214,3440005,,,,,,,2023-07-10,1,,,,,アイシーディー,0
1977,7040001129150,新規,0,2023-07-10,2023-07-10,株式会社第四紀,,株式会社,千葉県,流山市,鰭ケ崎２丁目１番地の１２,,12,220,2700161,,,,,,,2023-07-10,1,,,,,ダイヨンキ,0
1978,7040001129167,新規,0,2023-07-10,2023-07-10,美華プライム株式会社,,株式会社,千葉県,松戸市,根本１１７番１号ＰＬＥＮＤＹ松戸２０３号室,,12,207,2710077,,,,,,,2023-07-10,1,,,,,ビカプライム,0
1979,7040003022907,新規,0,2023-07-10,2023-07-10,サクラジャパン合同会社,,合同会社,千葉県,我孫子市,中峠３０２６番地の６,,12,222,2701121,,,,,,,2023-07-10,1,,,,,サクラジャパン,0
1980,7040003022923,新規,0,2023-07-10,2023-07-10,合同会社藍倶楽部,,合同会社,千葉県,印西市,小林２４９２番地１６,,12,231,2701318,,,,,,,2023-07-10,1,,,,,アイクラブ,0
1981,7040003022931,新規,0,2023-07-10,2023-07-10,ｕｎｉｃｏ合同会社,,合同会社,千葉県,千葉市美浜区,打瀬３丁目７パティオス２１番街６２３号,,12,106,2610013,,,,,,,2023-07-10,1,,,,,ユニコ,0
1986,7050001053093,新規,0,2023-07-10,2023-07-10,株式会社リンクリース,,株式会社,茨城県,坂東市,鵠戸４３４番地３５,,08,228,3060641,,,,,,,2023-07-10,1,,,,,リンクリース,0
1987,7050001053102,新規,0,2023-07-10,2023-07-10,セカンドライフ株式会社,,株式会社,茨城県,常陸大宮市,根本２９７番地の７,,08,225,3192143,,,,,,,2023-07-10,1,,,,,セカンドライフ,0
1991,7060001036139,新規,0,2023-07-10,2023-07-10,ＤＡＲＯＣＨ　ＣＯＲＰＯＲＡＴＩＯＮ株式会社,,株式会社,栃木県,栃木市,岩舟町新里１３０４番地１１号室,,09,203,3294316,,,,,,,2023-07-10,1,,,,,ダロスコーポレーション,0
1996,7060005010115,新規,0,2023-07-10,2023-07-10,税理士法人サステナブレイン,,その他の設立登記法人,栃木県,宇都宮市,簗瀬３丁目３２番３号,,09,201,3210934,,,,,,,2023-07-10,1,,,,,サステナブレイン,0
2002,7070005010139,新規,0,2023-07-10,2023-07-10,一般社団法人ｎａｎａｉｒｏ　ｗｏｒｌｄ,,その他の設立登記法人,群馬県,前橋市,元総社町２丁目２９番地３,,10,201,3710846,,,,,,,2023-07-10,1,,,,,ナナイロワールド,0
2006,7080403004823,新規,0,2023-07-10,2023-07-10,合同会社アイエス,,合同会社,静岡県,浜松市中区,南浅田１丁目１０番８号,,22,131,4328044,,,,,,,2023-07-10,1,,,,,アイエス,0
2010,7110003005111,新規,0,2023-07-10,2023-07-10,合同会社きらめき損保,,合同会社,新潟県,東蒲原郡阿賀町,平堀１７６３番地,,15,385,9594403,,,,,,,2023-07-10,1,,,,,キラメキソンポ,0
2018,7120001256168,新規,0,2023-07-10,2023-07-10,ＣＥＮ氏株式会社,,株式会社,大阪府,大阪市東成区,深江北３丁目４番２１号エクラ深江橋７０６Ａ,,27,115,5370001,,,,,,,2023-07-10,1,,,,,ツンシ,0
2019,7120001256267,新規,0,2023-07-10,2023-07-10,株式会社ランドアートラボＷＥＳＴ,,株式会社,大阪府,大阪市中央区,西心斎橋２丁目１２－２２朝日プラザ心斎橋５０８号室,,27,128,5420086,,,,,,,2023-07-10,1,,,,,ランドアートラボウエスト,0
2020,7120001256275,新規,0,2023-07-10,2023-07-10,株式会社ジェイニー・ブルーム,,株式会社,大阪府,枚方市,招提大谷３丁目１番３６号,,27,210,5731153,,,,,,,2023-07-10,1,,,,,ジェイニーブルーム,0
2021,7120001256291,新規,0,2023-07-10,2023-07-10,八木株式会社,,株式会社,大阪府,大阪市浪速区,恵美須東１丁目２１番６号シャローム恵美須６０２号室,,27,111,5560002,,,,,,,2023-07-10,1,,,,,ヤギ,0
2022,7120001256366,新規,0,2023-07-10,2023-07-10,株式会社ＯＮＥホールディングス,,株式会社,大阪府,大阪市中央区,東心斎橋２丁目７番１８号暫ビル７階,,27,128,5420083,,,,,,,2023-07-10,1,,,,,ワンホールディングス,0
2026,7120003024424,新規,0,2023-07-10,2023-07-10,合同会社ＢａＢａ,,合同会社,大阪府,大阪市城東区,諏訪４丁目１０番２号,,27,118,5360021,,,,,,,2023-07-10,1,,,,,バーバ,0
2031,7120005023696,新規,0,2023-07-10,2023-07-10,一般社団法人有恒会,,その他の設立登記法人,大阪府,大阪市住吉区,杉本３丁目３番１３８号大阪公立大学田中記念館３階,,27,120,5580022,,,,,,,2023-07-10,1,,,,,ユウコウカイ,0
2034,7120901047765,新規,0,2023-07-10,2023-07-10,株式会社テリエ,,株式会社,大阪府,豊中市,玉井町２丁目２番３３号,,27,203,5600026,,,,,,,2023-07-10,1,,,,,テリエ,0
2035,7120903004731,新規,0,2023-07-10,2023-07-10,合同会社会高,,合同会社,大阪府,豊中市,上野西４丁目７番１３号１号室,,27,203,5600011,,,,,,,2023-07-10,1,,,,,エコウ,0
2037,7122001037143,新規,0,2023-07-10,2023-07-10,株式会社Ｓ　ＳＨＯＷＲＯＯＭ,,株式会社,大阪府,東大阪市,中石切町４丁目８番１７号,,27,227,5798014,,,,,,,2023-07-10,1,,,,,エスショールーム,0
2038,7122001037151,新規,0,2023-07-10,2023-07-10,スマートシンク株式会社,,株式会社,大阪府,東大阪市,今米２丁目６番３６号吉田アバンギャルド３０５,,27,227,5780903,,,,,,,2023-07-10,1,,,,,スマートシンク,0
2042,7130001074668,新規,0,2023-07-10,2023-07-10,株式会社和実,,株式会社,京都府,京都市伏見区,羽束師古川町２０５番地９２,,26,109,6128486,,,,,,,2023-07-10,1,,,,,カズミ,0
2043,7130001074684,新規,0,2023-07-10,2023-07-10,株式会社ＫＩＥＦＥＲ,,株式会社,京都府,綴喜郡宇治田原町,銘城台２３番地の１,,26,344,6100254,,,,,,,2023-07-10,1,,,,,キーファー,0
2045,7130003008847,新規,0,2023-07-10,2023-07-10,合同会社ちばり配送,,合同会社,京都府,京都市山科区,東野北井ノ上町９番地６１,,26,110,6078141,,,,,,,2023-07-10,1,,,,,チバリハイソウ,0
2051,7140001130742,新規,0,2023-07-10,2023-07-10,クアユナイト株式会社,,株式会社,兵庫県,神戸市北区,上津台２丁目２６番１６号,,28,109,6511515,,,,,,,2023-07-10,1,,,,,クアユナイト,0
2052,7140001130759,新規,0,2023-07-10,2023-07-10,Ｋ‐ＡＰＥＸ株式会社,,株式会社,兵庫県,姫路市,四郷町山脇３３９番地２,,28,201,6710248,,,,,,,2023-07-10,1,,,,,ケイアペックス,0
2053,7140001130767,新規,0,2023-07-10,2023-07-10,アロー電工株式会社,,株式会社,兵庫県,加古川市,加古川町粟津７１０番地の３アイランドビル１０１,,28,210,6750039,,,,,,,2023-07-10,1,,,,,アローデンコウ,0
2054,7140001130775,新規,0,2023-07-10,2023-07-10,株式会社マーベル,,株式会社,兵庫県,豊岡市,日高町鶴岡３７６番地,,28,209,6695313,,,,,,,2023-07-10,1,,,,,マーベル,0
2055,7140001130783,新規,0,2023-07-10,2023-07-10,株式会社高木水産,00131118,株式会社,兵庫県,たつの市,御津町室津１０３４番地４５,,28,229,6711332,,,,,,,2023-07-10,1,,,,,タカギスイサン,0
2056,7140001130800,新規,0,2023-07-10,2023-07-10,株式会社イマイ無線電器,,株式会社,兵庫県,丹波篠山市,郡家１３０番地１７,,28,221,6692341,,,,,,,2023-07-10,1,,,,,イマイムセンデンキ,0
2064,7140003019265,新規,0,2023-07-10,2023-07-10,合同会社先義後利,,合同会社,兵庫県,加古川市,尾上町安田１１３番地の６,,28,210,6750021,,,,,,,2023-07-10,1,,,,,センギコウリ,0
2067,7150005009494,新規,0,2023-07-10,2023-07-10,久安寺農事組合法人,,その他の設立登記法人,奈良県,生駒郡平群町,大字久安寺１２５３番地１,,29,342,6360924,,,,,,,2023-07-10,1,,,,,キュウアンジ,0
2070,7170001017672,新規,0,2023-07-10,2023-07-10,株式会社世介ＳＥＫＡＩ,,株式会社,和歌山県,岩出市,紀泉台３７４番地,,30,209,6496253,,,,,,,2023-07-10,1,,,,,セカイ,0
2071,7170001017680,新規,0,2023-07-10,2023-07-10,ミサキハウス株式会社,,株式会社,和歌山県,和歌山市,永穂７０番地,,30,201,6496333,,,,,,,2023-07-10,1,,,,,ミサキハウス,0
2073,7180001157047,新規,0,2023-07-10,2023-07-10,株式会社イクシム,,株式会社,愛知県,名古屋市中区,錦１丁目２０番２５号,,23,106,4600003,,,,,,,2023-07-10,1,,,,,イクシム,0
2081,7180003025482,新規,0,2023-07-10,2023-07-10,合同会社ＮａｔｕｒａｌＡｌｐｈａ,,合同会社,愛知県,名古屋市中村区,名駅４丁目２４番５号第２森ビル４０１,,23,105,4500002,,,,,,,2023-07-10,1,,,,,ナチュラルアルファ,0
2082,7180005020283,新規,0,2023-07-10,2023-07-10,一般社団法人日本タスポニー協会,,その他の設立登記法人,愛知県,名古屋市中区,大須４丁目１０番２６号,,23,106,4600011,,,,,,,2023-07-10,1,,,,,ニホンタスポニーキョウカイ,0
2085,7200001041479,新規,0,2023-07-10,2023-07-10,株式会社ＥＣｉｎｇ,,株式会社,岐阜県,瑞穂市,十九条４９４番地１,,21,216,5010235,,,,,,,2023-07-10,1,,,,,イーシーイング,0
2099,7260001038073,新規,0,2023-07-10,2023-07-10,あとだしじゃんけんワークス株式会社,,株式会社,岡山県,岡山市北区,今保３８０番地１０５号室,,33,101,7010145,,,,,,,2023-07-10,1,,,,,アトダシジャンケンワークス,0
2100,7260001038107,新規,0,2023-07-10,2023-07-10,株式会社クラウドナイン,,株式会社,岡山県,岡山市北区,日吉町４３８－４,,33,101,7000966,,,,,,,2023-07-10,1,,,,,クラウドナイン,0
2102,7260003004362,新規,0,2023-07-10,2023-07-10,合同会社ゲインラボ,,合同会社,岡山県,岡山市北区,富田町１丁目５番１２号,,33,101,7000816,,,,,,,2023-07-10,1,,,,,ゲインラボ,0
2110,7320001019876,新規,0,2023-07-10,2023-07-10,株式会社タマ冷機サービス,,株式会社,大分県,大分市,日岡３丁目２番５号,,44,201,8700914,,,,,,,2023-07-10,1,,,,,タマレイキサービス,0
2111,7320001019884,新規,0,2023-07-10,2023-07-10,株式会社ＴＭＢ,,株式会社,大分県,大分市,森町西１丁目１２番１８号,,44,201,8700140,,,,,,,2023-07-10,1,,,,,ティーエムビー,0
2113,7330005010673,新規,0,2023-07-10,2023-07-10,特定非営利活動法人富神ネット,,その他の設立登記法人,熊本県,下益城郡美里町,遠野４５番地１,,43,348,8614702,,,,,,,2023-07-10,1,,,,,,0
2117,7340003004180,新規,0,2023-07-10,2023-07-10,合同会社レモンバックス,,合同会社,鹿児島県,鹿児島市,東谷山５丁目１９番１号,,46,201,8910113,,,,,,,2023-07-10,1,,,,,レモンバックス,0
2118,7360001032215,新規,0,2023-07-10,2023-07-10,株式会社ＯＴＳインバウンドテック,,株式会社,沖縄県,那覇市,松山２丁目１番１２号,,47,201,9000032,,,,,,,2023-07-10,1,,,,,オーティーエスインバウンドテック,0
2126,7370005010653,新規,0,2023-07-10,2023-07-10,一般社団法人生涯サポート機構,,その他の設立登記法人,宮城県,仙台市太白区,泉崎１丁目３３番２０号,,04,104,9820031,,,,,,,2023-07-10,1,,,,,ショウガイサポートキコウ,0
2135,7420005007859,新規,0,2023-07-10,2023-07-10,特定非営利活動法人なんぶ民藝,,その他の設立登記法人,青森県,八戸市,大字田面木字上野平９１番地７,,02,203,0391104,,,,,,,2023-07-10,1,,,,,ナンブミンゲイ,0
2148,7480005006970,新規,0,2023-07-10,2023-07-10,一般社団法人ＷＡＫＡＭＥ,,その他の設立登記法人,徳島県,鳴門市,撫養町斎田字岩崎１８番地,,36,202,7720002,,,,,,,2023-07-10,1,,,,,ワカメ,0
2151,7500001025047,新規,0,2023-07-10,2023-07-10,株式会社Ｍ’ｓＢｕｄｄｙ,,株式会社,愛媛県,松山市,大可賀３丁目１４６１番地５,,38,201,7918057,,,,,,,2023-07-10,1,,,,,エムズバディ,0
2152,7500001025063,新規,0,2023-07-10,2023-07-10,株式会社ＳＴ‐ＴＥＣ,,株式会社,愛媛県,松山市,西垣生町２７６番地１３,,38,201,7918044,,,,,,,2023-07-10,1,,,,,エスティテック,0
2154,7700150113020,新規,0,2023-07-10,2023-07-10,ＤｅｅｐＬ　ＳＥ,,外国会社等,,,,,,,,Ｍａａｒｗｅｇ　１６５，５０８２５　Ｃｏｌｏｇｎｅ，Ｇｅｒｍａｎｙ,,,,,,2023-07-10,1,,,,,デイープエルエスエー,0
2165,8010001236584,新規,0,2023-07-10,2023-07-10,ｊｐｌｉｎｋ株式会社,,株式会社,東京都,中央区,日本橋人形町３丁目３番１３号,,13,102,1030013,,,,,,,2023-07-10,1,,,,,ジェイピーリンク,0
2166,8010001236691,新規,0,2023-07-10,2023-07-10,株式会社Ｔ＆Ｈ,,株式会社,東京都,千代田区,九段南１丁目５番６号りそな九段ビル５Ｆ－ＫＳフロア,,13,101,1020074,,,,,,,2023-07-10,1,,,,,ティーアンドエイチ,0
2167,8010001236733,新規,0,2023-07-10,2023-07-10,株式会社ＶＣトライデンツホールディングス,,株式会社,東京都,千代田区,丸の内１丁目１１番１号パシフィックセンチュリープレイス丸の内,,13,101,1000005,,,,,,,2023-07-10,1,,,,,ブイシートライデンツホールディングス,0
2168,8010001236758,新規,0,2023-07-10,2023-07-10,株式会社ＡＫＩＨＡＢＡＲＡ　ｔｒａｄｉｎｇ,,株式会社,東京都,千代田区,外神田５丁目１番地１０号１Ｆ,,13,101,1010021,,,,,,,2023-07-10,1,,,,,アキハバラトレーディング,0
2173,8010005036915,新規,0,2023-07-10,2023-07-10,一般社団法人Ｇａｌａホールディング,,その他の設立登記法人,東京都,千代田区,丸の内３丁目１番１号東京共同会計事務所内,,13,101,1000005,,,,,,,2023-07-10,1,,,,,ガーラホールディング,0
2183,8010401175507,新規,0,2023-07-10,2023-07-10,株式会社高田クレーン興業,00131105,株式会社,東京都,港区,海岸２丁目５番１－２３０４号,,13,103,1050022,,,,,,,2023-07-10,1,,,,,タカダクレーンコウギョウ,0
2187,8010403030437,新規,0,2023-07-10,2023-07-10,合同会社ＮＡＭＩＣＡ　ＷＡＴＣＨＥＳ　ＤＥＳＩＧＮ,,合同会社,東京都,港区,浜松町２丁目２番１５号浜松町ダイヤビル２Ｆ,,13,103,1050013,,,,,,,2023-07-10,1,,,,,ナミカウォッチズデザイン,0
2193,8010701044535,新規,0,2023-07-10,2023-07-10,株式会社Ｓｅｎｉｏｒ　Ｐａｒｔｎｅｒｓ,,株式会社,東京都,品川区,西品川１丁目１番１号住友不動産大崎ガーデンタワー９階トンネル東京,,13,109,1410033,,,,,,,2023-07-10,1,,,,,シニアパートナーズ,0
2194,8010701044543,新規,0,2023-07-10,2023-07-10,株式会社Ｂａｌｌ　ｆｏｒ　Ｓｍｉｌｅ,,株式会社,東京都,品川区,西五反田１丁目２６番２号サンハイツビルディング２階,,13,109,1410031,,,,,,,2023-07-10,1,,,,,ボールフォースマイル,0
2195,8010701044551,新規,0,2023-07-10,2023-07-10,株式会社まる庄,,株式会社,東京都,品川区,上大崎３丁目１２番１０号,,13,109,1410021,,,,,,,2023-07-10,1,,,,,マルショウ,0
2198,8010903008313,新規,0,2023-07-10,2023-07-10,合同会社ＳＷ,,合同会社,東京都,世田谷区,成城９丁目２８番８号,,13,112,1570066,,,,,,,2023-07-10,1,,,,,エスダブリュ,0
2199,8010905004500,新規,0,2023-07-10,2023-07-10,税理士法人新東京会計,,その他の設立登記法人,東京都,世田谷区,三軒茶屋２丁目１１番２４号サンタワーズＡ棟６０１号室,,13,112,1540024,,,,,,,2023-07-10,1,,,,,シントウキョウカイケイ,0
2204,8011001155519,新規,0,2023-07-10,2023-07-10,Ｔｈｅ　Ｔｈｉｒｄ　Ｓｔｒａｔｅｇｙ株式会社,,株式会社,東京都,渋谷区,幡ヶ谷２丁目１７番１号ドゥーエ幡ヶ谷１５０８,,13,113,1510072,,,,,,,2023-07-10,1,,,,,ザサードストラテジー,0
2207,8011003017139,新規,0,2023-07-10,2023-07-10,合同会社恵比寿綜合マネジメント,,合同会社,東京都,渋谷区,恵比寿西１丁目２０番２号,,13,113,1500021,,,,,,,2023-07-10,1,,,,,エビスソウゴウマネジメント,0
2217,8011101103534,新規,0,2023-07-10,2023-07-10,株式会社ココロウ,,株式会社,東京都,新宿区,西新宿３丁目３番１３号西新宿水間ビル６階,,13,104,1600023,,,,,,,2023-07-10,1,,,,,ココロウ,0
2219,8011103013211,新規,0,2023-07-10,2023-07-10,サクセニクス合同会社,,合同会社,東京都,新宿区,新宿１丁目３６－２新宿第七葉山ビル３Ｆ,,13,104,1600022,,,,,,,2023-07-10,1,,,,,サクセニクス,0
2227,8011401025247,新規,0,2023-07-10,2023-07-10,聿馳株式会社,,株式会社,東京都,板橋区,南常盤台１丁目２６－９常盤台ダイカンプラザシティ３１０号室,,13,119,1740072,,,,,,,2023-07-10,1,,,,,イチジ,0
2230,8011501029494,新規,0,2023-07-10,2023-07-10,日本藤原製薬株式会社,,株式会社,東京都,荒川区,南千住３丁目２７－２浅草ビル５０８,,13,118,1160003,,,,,,,2023-07-10,1,,,,,ニホンフジワラセイヤク,0
2232,8011603003983,新規,0,2023-07-10,2023-07-10,合同会社テルレジデンス,,合同会社,東京都,練馬区,大泉学園町３丁目１７番７２号,,13,120,1780061,,,,,,,2023-07-10,1,,,,,テルレジデンス,0
2234,8011801042676,新規,0,2023-07-10,2023-07-10,株式会社ｇｒａｃｉａｓ,,株式会社,東京都,足立区,扇１丁目４４番３号,,13,121,1230873,,,,,,,2023-07-10,1,,,,,グラシアス,0
2237,8012403006061,新規,0,2023-07-10,2023-07-10,ベアバレー合同会社,,合同会社,東京都,調布市,若葉町２丁目１１番地１－４１４,,13,208,1820003,,,,,,,2023-07-10,1,,,,,ベアバレー,0
2242,8013301051018,新規,0,2023-07-10,2023-07-10,株式会社コド,,株式会社,東京都,豊島区,目白１丁目３番１７号目白ガーデンヒルズＣ棟５０２号,,13,116,1710031,,,,,,,2023-07-10,1,,,,,コド,0
2252,8020001152293,新規,0,2023-07-10,2023-07-10,株式会社ＧＯＴ,,株式会社,神奈川県,横浜市鶴見区,菅沢町１５番１３号,,14,101,2300027,,,,,,,2023-07-10,1,,,,,ジーオーティー,0
2253,8020001152343,新規,0,2023-07-10,2023-07-10,株式会社ＫＭＯ興業,,株式会社,神奈川県,横浜市瀬谷区,下瀬谷２丁目４３－１４ロータスコーポ１０６号,,14,114,2460035,,,,,,,2023-07-10,1,,,,,ケーエムオーコウギョウ,0
2254,8020001152401,新規,0,2023-07-10,2023-07-10,株式会社ヨシコー,,株式会社,神奈川県,横浜市鶴見区,本町通４丁目１７１番地５０,,14,101,2300048,,,,,,,2023-07-10,1,,,,,ヨシコー,0
2255,8020001152418,新規,0,2023-07-10,2023-07-10,株式会社ＡＩＫＡ軽鉄,,株式会社,神奈川県,川崎市中原区,宮内３丁目１０番２２号２Ｆ,,14,133,2110051,,,,,,,2023-07-10,1,,,,,アイカケイテツ,0
2256,8020001152434,新規,0,2023-07-10,2023-07-10,株式会社Ｔｉｍｂｒｅ,,株式会社,神奈川県,横浜市港南区,日野中央２丁目２８番１１号,,14,111,2340053,,,,,,,2023-07-10,1,,,,,ティンブレ,0
2262,8020003024185,新規,0,2023-07-10,2023-07-10,合同会社Ｑｓｐａｃｅ,,合同会社,神奈川県,横浜市泉区,和泉中央北４丁目３１番１４号,,14,116,2450024,,,,,,,2023-07-10,1,,,,,キュースペース,0
2265,8021001079551,新規,0,2023-07-10,2023-07-10,和田商事株式会社,,株式会社,神奈川県,小田原市,国府津２丁目２番４５号,,14,206,2560812,,,,,,,2023-07-10,1,,,,,ワダショウジ,0
2267,8030001154776,新規,0,2023-07-10,2023-07-10,株式会社ｔｉｍｂｅｒｄｙ,,株式会社,埼玉県,戸田市,美女木２丁目１７番地の１（ファミール２７－４０１号室）,,11,224,3350031,,,,,,,2023-07-10,1,,,,,ティンバディー,0
2270,8030003022080,新規,0,2023-07-10,2023-07-10,ＬＩＦＥ・ＣＡＲＳ・ＭＡＲＫＥＴ合同会社,,合同会社,埼玉県,比企郡ときがわ町,大字五明８４７番地１,,11,349,3550343,,,,,,,2023-07-10,1,,,,,ライフカーズマーケット,0
2278,8050001053076,新規,0,2023-07-10,2023-07-10,ＮＩＳＨＩＯ　ＧＬＯＢＡＬ　ＴＲＡＤＩＮＧ株式会社,,株式会社,茨城県,結城市,新福寺１丁目７番地１１セジュールホーム１０１,,08,207,3070053,,,,,,,2023-07-10,1,,,,,ニシオグローバルレーディング,0
2279,8050001053092,新規,0,2023-07-10,2023-07-10,晨輝商事株式会社,,株式会社,茨城県,龍ケ崎市,小通幸谷町３８６番地５,,08,208,3010034,,,,,,,2023-07-10,1,,,,,シンキショウジ,0
2291,8080101024115,新規,0,2023-07-10,2023-07-10,デグチグループ株式会社,,株式会社,静岡県,富士市,青葉町８８番地,,22,210,4160952,,,,,,,2023-07-10,1,,,,,デグチグループ,0
2297,8110003005110,新規,0,2023-07-10,2023-07-10,合同会社ハイスピ,,合同会社,新潟県,長岡市,川崎１丁目２４９６‐３メゾン東山１０３,,15,202,9400864,,,,,,,2023-07-10,1,,,,,ハイスピ,0
2314,8120001256035,新規,0,2023-07-10,2023-07-10,大喜屋株式会社,,株式会社,大阪府,大阪市旭区,今市１丁目２－５カルム千林３０２号室,,27,117,5350011,,,,,,,2023-07-10,1,,,,,ダイキヤ,0
2315,8120001256266,新規,0,2023-07-10,2023-07-10,ＢＯＹＯ株式会社,,株式会社,大阪府,大阪市此花区,西九条３丁目６番４号,,27,104,5540012,,,,,,,2023-07-10,1,,,,,ボーヨー,0
2316,8120001256308,新規,0,2023-07-10,2023-07-10,株式会社Ｓ‐ｅｒｙ,,株式会社,大阪府,大阪市阿倍野区,松崎町２丁目３－５０,,27,119,5450053,,,,,,,2023-07-10,1,,,,,シェリー,0
2317,8120001256324,新規,0,2023-07-10,2023-07-10,株式会社ｒｅｎｅｗ　ｃａｒｅｅｒ,,株式会社,大阪府,大阪市中央区,南船場３丁目１１－１０,,27,128,5420081,,,,,,,2023-07-10,1,,,,,リニューキャリア,0
2323,8120005023729,新規,0,2023-07-10,2023-07-10,医療法人健清会,,その他の設立登記法人,大阪府,大阪市東住吉区,今川３丁目１２番１２号クリニックモール今川１階,,27,121,5460003,,,,,,,2023-07-10,1,,,,,ケンセイカイ,0
2336,8120901047756,新規,0,2023-07-10,2023-07-10,Ｄ’ｓＫ株式会社,,株式会社,大阪府,茨木市,彩都やまぶき２丁目４番４３－１３０４号,,27,211,5670086,,,,,,,2023-07-10,1,,,,,ディーズケー,0
2337,8120901047764,新規,0,2023-07-10,2023-07-10,ウェルヘルス株式会社,,株式会社,大阪府,吹田市,山田東１丁目７番１号セレナ７１０－３０２号室,,27,205,5650821,,,,,,,2023-07-10,1,,,,,ウェルヘルス,0
2338,8120903004714,新規,0,2023-07-10,2023-07-10,合同会社Ｌｉｇｈｔ　Ｗｉｎｄ　Ｓｔａｇｅ,,合同会社,大阪府,池田市,栄本町３番８－１４０５号,,27,204,5630058,,,,,,,2023-07-10,1,,,,,ライトウィンドステージ,0
2339,8120903004730,新規,0,2023-07-10,2023-07-10,合同会社オダ,,合同会社,大阪府,豊能郡豊能町,木代５７７番地６,,27,321,5630215,,,,,,,2023-07-10,1,,,,,オダ,0
2340,8122001037142,新規,0,2023-07-10,2023-07-10,株式会社ＫＴＥ,,株式会社,大阪府,大東市,大野１丁目１２番１７号,,27,218,5740042,,,,,,,2023-07-10,1,,,,,ケーティーイー,0
2350,8130005016806,新規,0,2023-07-10,2023-07-10,一般社団法人エンディングサポート,,その他の設立登記法人,京都府,向日市,鶏冠井町上古１番地の４９,,26,208,6170004,,,,,,,2023-07-10,1,,,,,エンディングサポート,0
2358,8140001130741,新規,0,2023-07-10,2023-07-10,株式会社グランドアーク,,株式会社,兵庫県,尼崎市,北城内４６番地の２メゾンボヌール１０３号,,28,202,6600826,,,,,,,2023-07-10,1,,,,,グランドアーク,0
2359,8140001130758,新規,0,2023-07-10,2023-07-10,株式会社ブルースター,,株式会社,兵庫県,神戸市西区,桜が丘中町５丁目９番地の７,,28,111,6512226,,,,,,,2023-07-10,1,,,,,ブルースター,0
2360,8140001130766,新規,0,2023-07-10,2023-07-10,オーティ株式会社ＴＯＧＥ,,株式会社,兵庫県,加古川市,野口町水足１２５６番地,,28,210,6750019,,,,,,,2023-07-10,1,,,,,オーティトウゲ,0
2361,8140001130799,新規,0,2023-07-10,2023-07-10,ムーブメント株式会社,,株式会社,兵庫県,神戸市中央区,磯上通４丁目１－１４三宮スカイビル７Ｆ１２０ＷＯＲＫＰＬＡＣＥＫＯＢＥ,,28,110,6510086,,,,,,,2023-07-10,1,,,,,ムーブメント,0
2363,8140003019248,新規,0,2023-07-10,2023-07-10,合同会社リジェネボーン,,合同会社,兵庫県,加西市,北条町横尾１２２９番地の３北条動物病院内,,28,220,6752311,,,,,,,2023-07-10,1,,,,,リジェネボーン,0
2364,8140003019280,新規,0,2023-07-10,2023-07-10,北六甲合同会社,,合同会社,兵庫県,西宮市,鳴尾町１丁目３番１６号,,28,204,6638184,,,,,,,2023-07-10,1,,,,,キタロッコウ,0
2369,8170001017671,新規,0,2023-07-10,2023-07-10,株式会社エネアーク和歌山,,株式会社,和歌山県,和歌山市,小倉４１１番地１０,,30,201,6496261,,,,,,,2023-07-10,1,,,,,エネアークワカヤマ,0
2375,8180001156980,新規,0,2023-07-10,2023-07-10,株式会社ＥｄｕＩＴ,,株式会社,愛知県,名古屋市中村区,名駅４丁目２４番５号第２森ビル４０１,,23,105,4500002,,,,,,,2023-07-10,1,,,,,エデュイット,0
2376,8180001157005,新規,0,2023-07-10,2023-07-10,株式会社Ｖｉｅ　Ｒｉｃｈｅ,,株式会社,愛知県,名古屋市中区,栄３丁目２７番７号,,23,106,4600008,,,,,,,2023-07-10,1,,,,,ヴィリッシュ,0
2377,8180001157054,新規,0,2023-07-10,2023-07-10,株式会社エスティネット,,株式会社,愛知県,半田市,青山１丁目３番地の７,,23,205,4750836,,,,,,,2023-07-10,1,,,,,エスティネット,0
2383,8180003025449,新規,0,2023-07-10,2023-07-10,合同会社セーフティ・デザイン,,合同会社,愛知県,名古屋市千種区,鹿子町５丁目８番地パルシオ本山鹿子町４０５号,,23,101,4640033,,,,,,,2023-07-10,1,,,,,セーフティデザイン,0
2393,8220003003549,新規,0,2023-07-10,2023-07-10,合同会社ＭＯＲＧＡＮＩＴＥ,,合同会社,石川県,金沢市,矢木３丁目２４２番地ローズコート矢木・ＩＩ号,00131116,17,201,9218066,,,,,,,2023-07-10,1,,,,,モルガナイト,0
2395,8240003006211,新規,0,2023-07-10,2023-07-10,Ｍｉｍｙ合同会社,,合同会社,広島県,安芸郡熊野町,萩原３丁目３番２９号,,34,307,7314213,,,,,,,2023-07-10,1,,,,,ミミィー,0
2401,8290801029664,新規,0,2023-07-10,2023-07-10,株式会社スターメゾン,,株式会社,福岡県,北九州市小倉北区,木町４丁目７番１０号,,40,106,8030851,,,,,,,2023-07-10,1,,,,,スターメゾン,0
2407,8320001019883,新規,0,2023-07-10,2023-07-10,株式会社ｇｒｏｗｔｈ,,株式会社,大分県,大分市,大字城原１７１７－１エグゼコート大在Ｉ３０４,00131110,44,201,8700267,,,,,,,2023-07-10,1,,,,,グロース,0
2408,8320003004124,新規,0,2023-07-10,2023-07-10,合同会社ひた農園,,合同会社,大分県,日田市,丸山２丁目１番６２号,,44,204,8770008,,,,,,,2023-07-10,1,,,,,ヒタノウエン,0
2409,8330001031029,新規,0,2023-07-10,2023-07-10,ベジフルコネクトセンター株式会社,,株式会社,熊本県,熊本市西区,田崎町４８４番地,,43,103,8600058,,,,,,,2023-07-10,1,,,,,ベジフルコネクトセンター,0
2412,8360001032222,新規,0,2023-07-10,2023-07-10,株式会社ブルームファーム,,株式会社,沖縄県,宮古島市,平良字西里２４０番地２琉球銀行ビル５Ｆ,,47,214,9060012,,,,,,,2023-07-10,1,,,,,ブルームファーム,0
2413,8360001032230,新規,0,2023-07-10,2023-07-10,株式会社アセット沖縄,,株式会社,沖縄県,沖縄市,上地２丁目５番３０号,,47,211,9040031,,,,,,,2023-07-10,1,,,,,アセットオキナワ,0
2414,8370001050149,新規,0,2023-07-10,2023-07-10,株式会社ＳＡＫＵＲＡ,,株式会社,宮城県,仙台市若林区,沖野２丁目２０番１２－４０３号,,04,103,9840831,,,,,,,2023-07-10,1,,,,,サクラ,0
2437,8400001016311,新規,0,2023-07-10,2023-07-10,古里フォレスト株式会社,,株式会社,岩手県,盛岡市,東見前６地割３７番地１,,03,201,0200832,,,,,,,2023-07-10,1,,,,,フルサトフォレスト,0
2439,8410003003819,新規,0,2023-07-10,2023-07-10,ＳＨＯＫＩ　Ｃａｒｅ合同会社,,合同会社,秋田県,秋田市,土崎港中央５丁目６番２９号,,05,201,0110946,,,,,,,2023-07-10,1,,,,,ショウキケア,0
2444,8430001089437,新規,0,2023-07-10,2023-07-10,株式会社ＮＩＳＡＤＥ　Ｓｅｒｖｉｃｅｓ,,株式会社,北海道,虻田郡倶知安町,ニセコひらふ一条３丁目４番１７号,,01,400,0440080,,,,,,,2023-07-10,1,,,,,ニセードサービシス,0
2445,8430001089445,新規,0,2023-07-10,2023-07-10,天元産業株式会社,,株式会社,北海道,白老郡白老町,緑町１０４１番５,,01,578,0590913,,,,,,,2023-07-10,1,,,,,テンゲンサンギョウ,0
2447,8430003015218,新規,0,2023-07-10,2023-07-10,合同会社アイムグッド不動産,,合同会社,北海道,江別市,東野幌本町３７番地の５,,01,217,0690824,,,,,,,2023-07-10,1,,,,,アイムグッドフドウサン,0
2459,8470003002451,新規,0,2023-07-10,2023-07-10,合同会社ＪＨＲ,,合同会社,香川県,綾歌郡宇多津町,浜九番丁１４９番地２２,,37,386,7690209,,,,,,,2023-07-10,1,,,,,ジェイエイチアール,0
2483,9010001236740,新規,0,2023-07-10,2023-07-10,まる株式会社,,株式会社,東京都,中央区,銀座８丁目１５番１０号,,13,102,1040061,,,,,,,2023-07-10,1,,,,,マル,0
2486,9010005036914,新規,0,2023-07-10,2023-07-10,一般社団法人ＫＴＡ,,その他の設立登記法人,東京都,千代田区,丸の内３丁目１番１号東京共同会計事務所内,,13,101,1000005,,,,,,,2023-07-10,1,,,,,ケーティーエー,0
2489,9010401175415,新規,0,2023-07-10,2023-07-10,ＦＵＮ　ＳＰＩＲＩＴＳ株式会社,,株式会社,東京都,港区,元麻布３丁目２－２０丸統麻布ビル３Ｆ,,13,103,1060046,,,,,,,2023-07-10,1,,,,,ファンスピリッツ,0
2490,9010401175480,新規,0,2023-07-10,2023-07-10,株式会社ＮＥＸＴ,,株式会社,東京都,港区,北青山１丁目３番１号アールキューブ青山３階,,13,103,1070061,,,,,,,2023-07-10,1,,,,,ネクスト,0
2491,9010401175497,新規,0,2023-07-10,2023-07-10,株式会社ＶＲグループ,,株式会社,東京都,港区,赤坂５丁目２番２０号,,13,103,1070052,,,,,,,2023-07-10,1,,,,,ブイアールグループ,0
2492,9010401175506,新規,0,2023-07-10,2023-07-10,ＧＬＯＢＡＬ　ＡＲＴ株式会社,,株式会社,東京都,港区,台場１丁目３番２号,,13,103,1350091,,,,,,,2023-07-10,1,,,,,グローバルアート,0
2493,9010401175530,新規,0,2023-07-10,2023-07-10,株式会社ＣＯＸ　Ｇｒｏｕｐ,,株式会社,東京都,港区,北青山１丁目３番１号アールキューブ青山３階,,13,103,1070061,,,,,,,2023-07-10,1,,,,,コックスグループ,0
2494,9010401175571,新規,0,2023-07-10,2023-07-10,ＳＯＦＡＲＳＯＬＡＲ　Ｊａｐａｎ株式会社,,株式会社,東京都,港区,芝大門１丁目１０番１１号芝大門センタービル１０階,,13,103,1050012,,,,,,,2023-07-10,1,,,,,ソーファーソーラージャパン,0
2495,9010401175662,新規,0,2023-07-10,2023-07-10,デジタルバリューチェーンパートナーズ株式会社,,株式会社,東京都,港区,北青山２丁目５番１号,,13,103,1070061,,,,,,,2023-07-10,1,,,,,デジタルバリューチェーンパートナーズ,0
2499,9010403030436,新規,0,2023-07-10,2023-07-10,ＮＣ留学合同会社,,合同会社,東京都,港区,麻布十番１丁目２番７号ラフィネ麻布十番７０１号室,,13,103,1060045,,,,,,,2023-07-10,1,,,,,エヌシーリュウガク,0
2504,9010601063386,新規,0,2023-07-10,2023-07-10,株式会社ゲートウェイアジア,,株式会社,東京都,江東区,豊洲２丁目５番２－２６１１号,,13,108,1350061,,,,,,,2023-07-10,1,,,,,ゲートウェイアジア,0
2514,9010801034105,新規,0,2023-07-10,2023-07-10,株式会社冠覧学院,,株式会社,東京都,大田区,西糀谷４丁目２０－１７,,13,111,1440034,,,,,,,2023-07-10,1,,,,,カンランガクイン,0
2520,9010903008312,新規,0,2023-07-10,2023-07-10,合同会社Ｈａｒｄ　Ｅｎｏｕｇｈ,,合同会社,東京都,世田谷区,世田谷２丁目１４番３号エクセル世田谷１Ｆ,,13,112,1540017,,,,,,,2023-07-10,1,,,,,ハードイナフ,0
2524,9011001155526,新規,0,2023-07-10,2023-07-10,ガリョウ株式会社,,株式会社,東京都,渋谷区,鶯谷町４番１号アバブ渋谷２階,,13,113,1500032,,,,,,,2023-07-10,1,,,,,ガリョウ,0
2529,9011103013227,新規,0,2023-07-10,2023-07-10,合同会社Ｍｅｌｖｉｅ,,合同会社,東京都,新宿区,北新宿４丁目１１－３朝日クレス・パリオ新宿１０９号,,13,104,1690074,,,,,,,2023-07-10,1,,,,,メルヴィー,0
2535,9011601026969,新規,0,2023-07-10,2023-07-10,株式会社石井技研,,株式会社,東京都,練馬区,豊玉南３丁目２１番８－４０３号,,13,120,1760014,,,,,,,2023-07-10,1,,,,,イシイギケン,0
2539,9012401040722,新規,0,2023-07-10,2023-07-10,株式会社ＭａａＳＢＡＳＥ,,株式会社,東京都,多摩市,貝取１４７４番地の２クリスタルマンション４０７号室,,13,224,2060012,,,,,,,2023-07-10,1,,,,,マースベース,0
2541,9012701017734,新規,0,2023-07-10,2023-07-10,株式会社課題解決プラットフォーム,,株式会社,東京都,西東京市,ひばりが丘北１丁目５－３,,13,229,2020002,,,,,,,2023-07-10,1,,,,,カダイカイケツプラットフォーム,0
2547,9013305003492,新規,0,2023-07-10,2023-07-10,司法書士法人そめいよしの総合法務,,その他の設立登記法人,東京都,豊島区,駒込６丁目３０番３号,,13,116,1700003,,,,,,,2023-07-10,1,,,,,ソメイヨシノソウゴウホウム,0
2560,9020001152391,新規,0,2023-07-10,2023-07-10,株式会社稲芳,,株式会社,神奈川県,川崎市麻生区,栗木台１丁目３番５号,,14,137,2150032,,,,,,,2023-07-10,1,,,,,イナヨシ,0
2561,9020001152417,新規,0,2023-07-10,2023-07-10,株式会社ＺＥＮ　ＳＬＥＡＴ,,株式会社,神奈川県,横浜市西区,北幸２丁目１０番２８号むつみビル３Ｆ,,14,103,2200004,,,,,,,2023-07-10,1,,,,,ゼンスリート,0
2562,9020001152425,新規,0,2023-07-10,2023-07-10,株式会社Ｃｈａｒａｂｉｎｅｒ,,株式会社,神奈川県,川崎市中原区,上丸子八幡町８０５番地７,,14,133,2110001,,,,,,,2023-07-10,1,,,,,カラビナ,0
2563,9020001152474,新規,0,2023-07-10,2023-07-10,株式会社匠,,株式会社,神奈川県,横浜市港北区,新横浜１丁目１４番２０号,,14,109,2220033,,,,,,,2023-07-10,1,,,,,タクミ,0
2574,9030001154742,新規,0,2023-07-10,2023-07-10,株式会社源住宅,,株式会社,埼玉県,川口市,大字安行慈林１０４４番地の３,,11,203,3340071,,,,,,,2023-07-10,1,,,,,ミナモトジュウタク,0
2578,9030005021328,新規,0,2023-07-10,2023-07-10,一般社団法人Ｒａｉｚ　Ｓｐｏｒｔｓ　Ｃｌｕｂ,,その他の設立登記法人,埼玉県,本庄市,沼和田３６５番地１,,11,211,3670072,,,,,,,2023-07-10,1,,,,,ハイズスポーツクラブ,0
2585,9040001129181,新規,0,2023-07-10,2023-07-10,株式会社アーキノート設計室,,株式会社,千葉県,千葉市中央区,道場南２丁目２番１６号,,12,101,2600005,,,,,,,2023-07-10,1,,,,,アーキノートセッケイシツ,0
2589,9050001053075,新規,0,2023-07-10,2023-07-10,株式会社大翔工業,,株式会社,茨城県,鹿嶋市,平井東３丁目５番地１－Ｂ２０１,,08,222,3140018,,,,,,,2023-07-10,1,,,,,ダイトコウギョウ,0
2590,9050001053091,新規,0,2023-07-10,2023-07-10,ＡＣ＆Ｐ株式会社,,株式会社,茨城県,つくば市,上横場２４５０番地２タウニー林１テナント１０２,,08,220,3050854,,,,,,,2023-07-10,1,,,,,エーシーアンドピー,0
2591,9050001053100,新規,0,2023-07-10,2023-07-10,大菅総建株式会社,,株式会社,茨城県,日立市,金沢町５丁目３番８号,,08,202,3160015,,,,,,,2023-07-10,1,,,,,オオスガソウケン,0
2594,9070001040609,新規,0,2023-07-10,2023-07-10,株式会社富田測量設計,,株式会社,群馬県,太田市,鶴生田町８１２番地６,,10,205,3730008,,,,,,,2023-07-10,1,,,,,トミタソクリョウセッケイ,0
2595,9080001025716,新規,0,2023-07-10,2023-07-10,株式会社１０,,株式会社,静岡県,静岡市駿河区,池田２３１３番地の１,,22,102,4228005,,,,,,,2023-07-10,1,,,,,ジュウ,0
2602,9080405007558,新規,0,2023-07-10,2023-07-10,一般社団法人御前崎しらす鰻,,その他の設立登記法人,静岡県,御前崎市,白羽６１７４番地の２７,,22,223,4371622,,,,,,,2023-07-10,1,,,,,オマエザキシラスウナギ,0
2605,9090001018198,新規,0,2023-07-10,2023-07-10,株式会社Ｍｔ．Ｆｕｊｉ　Ｎａｔｕｒｅ　Ｔｒａｖｅｌ,,株式会社,山梨県,南都留郡鳴沢村,字富士山１０４５３番２８５号,,19,429,4010320,,,,,,,2023-07-10,1,,,,,マウントフジネイチャートラベル,0
2609,9100001036545,新規,0,2023-07-10,2023-07-10,株式会社長野プランテーション,,株式会社,長野県,中野市,大字永江２８１１番地２,,20,211,3892104,,,,,,,2023-07-10,1,,,,,ナガノプランテーション,0
2615,9110001037682,新規,0,2023-07-10,2023-07-10,株式会社Ｅｎｔｅｒ,,株式会社,新潟県,新潟市中央区,沼垂西１丁目４番３号,,15,103,9500076,,,,,,,2023-07-10,1,,,,,エンター,0
2629,9120005023728,新規,0,2023-07-10,2023-07-10,医療法人ＤＡＹＬＩＧＨＴ,,その他の設立登記法人,大阪府,大阪市中央区,西心斎橋１丁目１３番２１号コーニッシュビル７階,,27,128,5420086,,,,,,,2023-07-10,1,,,,,デイライト,0
2630,9120005023736,新規,0,2023-07-10,2023-07-10,医療法人Ｕ,,その他の設立登記法人,大阪府,大阪市北区,太融寺町５番１５号梅田イーストビル２階,,27,127,5300051,,,,,,,2023-07-10,1,,,,,ユー,0
2633,9120101067835,新規,0,2023-07-10,2023-07-10,株式会社ＪＦＭ,,株式会社,大阪府,富田林市,若松町東１丁目５番２３号,,27,214,5840023,,,,,,,2023-07-10,1,,,,,ジェイエフエム,0
2634,9120101067851,新規,0,2023-07-10,2023-07-10,株式会社りんと,,株式会社,大阪府,堺市堺区,一条通１５番２４号,,27,141,5900048,,,,,,,2023-07-10,1,,,,,リント,0
2638,9120103005314,新規,0,2023-07-10,2023-07-10,合同会社ｓｍｏｏｔｈｌｙ,,合同会社,大阪府,富田林市,大字廿山３９８－１,,27,214,5840081,,,,,,,2023-07-10,1,,,,,スムーズ,0
2642,9120901047763,新規,0,2023-07-10,2023-07-10,株式会社茶子,,株式会社,大阪府,高槻市,大塚町２丁目３５番３号,,27,207,5690034,,,,,,,2023-07-10,1,,,,,チャコ,0
2644,9120905006484,新規,0,2023-07-10,2023-07-10,医療法人かきはらみずほクリニック,,その他の設立登記法人,大阪府,高槻市,白梅町５番２０号３０６ジオ高槻ミューズレジス３階,,27,207,5691116,,,,,,,2023-07-10,1,,,,,カキハラミズホクリニック,0
2645,9122001037141,新規,0,2023-07-10,2023-07-10,株式会社ビューティートランスポーター,,株式会社,大阪府,東大阪市,長田東３丁目３－４５,,27,227,5770012,,,,,,,2023-07-10,1,,,,,ビューティートランスポーター,0
2646,9122003002622,新規,0,2023-07-10,2023-07-10,ＫＡＩＨＯ合同会社,,合同会社,大阪府,八尾市,山城町５丁目２番３０号,,27,212,5810801,,,,,,,2023-07-10,1,,,,,カイホウ,0
2657,9140001130740,新規,0,2023-07-10,2023-07-10,株式会社エルミタージュ,,株式会社,兵庫県,芦屋市,岩園町４９番２３号,,28,206,6590013,,,,,,,2023-07-10,1,,,,,エルミタージュ,0
2658,9140001130757,新規,0,2023-07-10,2023-07-10,株式会社Ｆｕｒｎｉｔｕｒｅ　ｍｉｎｄ,,株式会社,兵庫県,尼崎市,神田南通３丁目６３番地の１,,28,202,6600885,,,,,,,2023-07-10,1,,,,,ファニチャーマインド,0
2659,9140001130765,新規,0,2023-07-10,2023-07-10,株式会社ＳＭＨ,,株式会社,兵庫県,宝塚市,逆瀬台１丁目７番１－１０１号,,28,214,6650024,,,,,,,2023-07-10,1,,,,,エスエムエイチ,0
2660,9140001130781,新規,0,2023-07-10,2023-07-10,株式会社一楓会,,株式会社,兵庫県,西宮市,老松町５番１４号,,28,204,6620085,,,,,,,2023-07-10,1,,,,,イブキカイ,0
2661,9140001130807,新規,0,2023-07-10,2023-07-10,株式会社ＲＥＡＰＲＥ,,株式会社,兵庫県,神戸市中央区,北野町１丁目５－２１,,28,110,6500002,,,,,,,2023-07-10,1,,,,,リープリ,0
2666,9140003019255,新規,0,2023-07-10,2023-07-10,合同会社ＤＲＥＡＭ,,合同会社,兵庫県,高砂市,曽根町９９５番地の１０,,28,216,6760082,,,,,,,2023-07-10,1,,,,,ドリーム,0
2667,9140003019263,新規,0,2023-07-10,2023-07-10,合同会社ＢＲＩＧＨＴ,,合同会社,兵庫県,神戸市中央区,磯辺通１丁目１番１８号,,28,110,6510084,,,,,,,2023-07-10,1,,,,,ブライト,0
2669,9150001026525,新規,0,2023-07-10,2023-07-10,株式会社Ａｒｃｈｉｔｅｃｔ　Ｊａｐａｎ,,株式会社,奈良県,奈良市,東向南町２番地パレスビル４Ｆ,,29,201,6308216,,,,,,,2023-07-10,1,,,,,アーキテクトジャパン,0
2674,9160005011209,新規,0,2023-07-10,2023-07-10,社会保険労務士法人ワン,,その他の設立登記法人,滋賀県,彦根市,旭町９番２５－７０２号,,25,202,5220073,,,,,,,2023-07-10,1,,,,,,0
2675,9170001017679,新規,0,2023-07-10,2023-07-10,株式会社津本鉄工所,,株式会社,和歌山県,和歌山市,島崎町４丁目１６番地,,30,201,6408125,,,,,,,2023-07-10,1,,,,,ツモトテッコウショ,0
2686,9180001156939,新規,0,2023-07-10,2023-07-10,孫助ホールディングス株式会社,,株式会社,愛知県,名古屋市熱田区,川並町２番２２号,,23,109,4560072,,,,,,,2023-07-10,1,,,,,マゴスケホールディングス,0
2687,9180001157029,新規,0,2023-07-10,2023-07-10,株式会社Ｃｈａｌｌｏ,,株式会社,愛知県,小牧市,中央３丁目９８番地１,,23,219,4850029,,,,,,,2023-07-10,1,,,,,チャロ,0
2688,9180001157045,新規,0,2023-07-10,2023-07-10,株式会社Ｂ　Ｙｏｕ,,株式会社,愛知県,名古屋市名東区,本郷２丁目１６０番地,,23,115,4650024,,,,,,,2023-07-10,1,,,,,ビーユー,0
2697,9180301037541,新規,0,2023-07-10,2023-07-10,株式会社レグロ,,株式会社,愛知県,豊橋市,東光町１２番地アップステーアビル２Ｆ,,23,201,4400036,,,,,,,2023-07-10,1,,,,,レグロ,0
2701,9190001030556,新規,0,2023-07-10,2023-07-10,株式会社インテリアマルヨシ,,株式会社,三重県,松阪市,久保町１８５５番地１６０６,,24,204,5150044,,,,,,,2023-07-10,1,,,,,インテリアマルヨシ,0
2703,9190003004368,新規,0,2023-07-10,2023-07-10,Ｖａｌｕｅ　Ｌｉｎｋ合同会社,,合同会社,三重県,四日市市,富田栄町６７－１ローレルコートライオンズ四日市富田１４０１,,24,202,5108025,,,,,,,2023-07-10,1,,,,,バリューリンク,0
2704,9200003006008,新規,0,2023-07-10,2023-07-10,合同会社Ｇプラント,,合同会社,岐阜県,加茂郡川辺町,石神４０１番,,21,503,5090303,,,,,,,2023-07-10,1,,,,,ジープラント,0
2716,9240001061802,新規,0,2023-07-10,2023-07-10,リトラコ株式会社,,株式会社,広島県,東広島市,八本松東２丁目２１－１東広島流通センター市場棟１階,,34,212,7390142,,,,,,,2023-07-10,1,,,,,リトラコ,0
2717,9240005015614,新規,0,2023-07-10,2023-07-10,弁護士法人晴,,その他の設立登記法人,広島県,呉市,西中央３丁目７番３７号グレイス寿３階,,34,202,7370811,,,,,,,2023-07-10,1,,,,,ハレ,0
2721,9260001038113,新規,0,2023-07-10,2023-07-10,株式会社なごみ,,株式会社,岡山県,岡山市北区,表町３丁目５番３２号（３Ｆ）,,33,101,7000822,,,,,,,2023-07-10,1,,,,,,0
2723,9280003001744,新規,0,2023-07-10,2023-07-10,合同会社Ｔｅｅｓｅ,,合同会社,島根県,出雲市,稲岡町３９８番地８,,32,203,6930071,,,,,,,2023-07-10,1,,,,,ティース,0
2727,9290001102114,新規,0,2023-07-10,2023-07-10,株式会社Ｇｌａｎｚ,,株式会社,福岡県,福岡市南区,向野２丁目２３番２０－４０５号,,40,134,8150035,,,,,,,2023-07-10,1,,,,,グランツ,0
2735,9320003004123,新規,0,2023-07-10,2023-07-10,合同会社Ｗｉｌｌ,,合同会社,大分県,中津市,大字相原３７９７番地３,,44,203,8710022,,,,,,,2023-07-10,1,,,,,ウイル,0
2737,9330001031028,新規,0,2023-07-10,2023-07-10,株式会社ダイリン,,株式会社,熊本県,玉名市,岱明町野口２０７番地２,,43,206,8690222,,,,,,,2023-07-10,1,,,,,ダイリン,0
2740,9340001025689,新規,0,2023-07-10,2023-07-10,株式会社なのはな不動産,,株式会社,鹿児島県,指宿市,大牟礼１丁目１２番８号,,46,210,8910401,,,,,,,2023-07-10,1,,,,,ナノハナフドウサン,0
2741,9340001025714,新規,0,2023-07-10,2023-07-10,株式会社ＡｉＮＥＸＴ,,株式会社,鹿児島県,鹿児島市,樋之口町８－２３ＢＢビル２０１,,46,201,8920845,,,,,,,2023-07-10,1,,,,,アイネクスト,0
2742,9340005009630,新規,0,2023-07-10,2023-07-10,一般社団法人ゆめいろ,,その他の設立登記法人,鹿児島県,鹿児島市,南林寺町６番８号,,46,201,8920834,,,,,,,2023-07-10,1,,,,,ユメイロ,0
2746,9370001050148,新規,0,2023-07-10,2023-07-10,株式会社ＦＯＲＳＭＩＬＥ,,株式会社,宮城県,名取市,愛島台１丁目１０１番地の５８,,04,207,9811251,,,,,,,2023-07-10,1,,,,,フォースマイル,0
2747,9370003006189,新規,0,2023-07-10,2023-07-10,合同会社ＣＯＮＮＥＣＴ,,合同会社,宮城県,仙台市宮城野区,平成２丁目１７番２９－２号,,04,102,9830037,,,,,,,2023-07-10,1,,,,,コネクト,0
2755,9400005008345,新規,0,2023-07-10,2023-07-10,岩手県コンクリート製品協同組合,,その他の設立登記法人,岩手県,一関市,字沢１６０番地,,03,209,0210852,,,,,,,2023-07-10,1,,,,,イワテケンコンクリートセイヒン,0
2765,9430001089444,新規,0,2023-07-10,2023-07-10,株式会社Ｈ・Ｗ　Ｃｏｎｎｅｃｔ,,株式会社,北海道,三笠市,美園町９番地４６,,01,222,0682106,,,,,,,2023-07-10,1,,,,,エイチダブルコネクト,0
2766,9430001089493,新規,0,2023-07-10,2023-07-10,株式会社ＥＶＡ,,株式会社,北海道,千歳市,稲穂３丁目７番９号,,01,224,0660029,,,,,,,2023-07-10,1,,,,,エヴァ,0
2775,9500001025053,新規,0,2023-07-10,2023-07-10,愛媛ロープ株式会社,,株式会社,愛媛県,西予市,宇和町明石５０５番地１,,38,214,7970007,,,,,,,2023-07-10,1,,,,,エヒメロープ,0
