sequenceNumber,corporateNumber,process,correct,updateDate,changeDate,name,nameImageId,kind,prefectureName,cityName,streetNumber,addressImageId,prefectureCode,cityCode,postCode,addressOutside,addressOutsideImageId,closeDate,closeCause,successorCorporateNumber,changeCause,assignmentDate,latest,enName,enPrefectureName,enCityName,enAddressOutside,furigana,hihyoji
2,1010001136436,登記記録の閉鎖等,0,2023-12-19,2023-12-07,株式会社青山ヒルズ,,株式会社,東京都,中央区,勝どき６丁目３番１号,,13,102,1040054,,,2023-12-07,合併による解散等,9010001134300,令和５年１２月７日東京都中央区勝どき六丁目３番１号株式会社ジャパンエステート（9010001134300）に合併し解散,2015-10-05,1,,,,,アオヤマヒルズ,0
18,1010101001374,登記記録の閉鎖等,0,2023-12-19,2023-12-15,三晃商栄株式会社,,株式会社,東京都,八王子市,元横山町３丁目１５番５号,,13,201,1920063,,,2023-12-15,清算の結了等,,,2015-10-05,1,,,,,サンコウショウエイ,0
28,1010501016303,登記記録の閉鎖等,0,2023-12-19,2023-12-14,株式会社秀栄社,,株式会社,東京都,台東区,元浅草１丁目１９番７号,,13,106,1110041,,,2023-12-14,清算の結了等,,,2015-10-05,1,,,,,シュウエイシャ,0
35,1010701036737,登記記録の閉鎖等,0,2023-12-19,2023-12-12,ＳＰＩＫＥ株式会社,,株式会社,神奈川県,横浜市中区,尾上町２丁目１８番地１ＹＳビル７Ｆ,,14,104,2310015,,,2023-12-12,清算の結了等,,,2018-11-15,1,,,,,スパイク,0
44,1011101077520,登記記録の閉鎖等,0,2023-12-19,2023-12-15,フォレスト・ホテル・マネジメント株式会社,,株式会社,東京都,新宿区,下落合２丁目６番２０号,,13,104,1610033,,,2023-12-15,清算の結了等,,,2016-07-11,1,,,,,フォレストホテルマネジメント,0
51,1011201004829,登記記録の閉鎖等,0,2023-12-19,2023-12-15,株式会社フロイデ,,株式会社,東京都,中野区,本町３丁目１番８号,,13,114,1640012,,,2023-12-15,清算の結了等,,,2015-10-05,1,,,,,フロイデ,0
55,1011302008308,登記記録の閉鎖等,0,2023-12-19,2023-12-14,有限会社ベネッセ九九,,有限会社,東京都,八王子市,めじろ台２丁目１番京王めじろ台マンションＡ棟２０３号室,,13,201,1930833,,,2023-12-14,清算の結了等,,,2015-10-05,1,,,,,ベネッセキュウキュウ,0
65,1011802030158,登記記録の閉鎖等,0,2023-12-19,2023-12-12,有限会社ノース・フィールド,,有限会社,東京都,足立区,伊興３丁目１７番１３号,,13,121,1210823,,,2023-12-12,清算の結了等,,,2015-10-05,1,,,,,ノースフィールド,0
76,1020001108707,登記記録の閉鎖等,0,2023-12-19,2023-12-12,株式会社新野プランニングオフィス,,株式会社,神奈川県,横浜市都筑区,荏田東３丁目４番１号,,14,118,2240006,,,2023-12-12,清算の結了等,,,2015-10-05,1,,,,,ニイノプランニングオフィス,0
94,1030002098847,登記記録の閉鎖等,0,2023-12-19,2023-12-12,有限会社熊井不動産,,有限会社,埼玉県,川口市,南鳩ヶ谷２丁目７番１７号,,11,203,3340013,,,2023-12-12,清算の結了等,,,2015-10-05,1,,,,,クマイフドウサン,0
117,1070002024345,登記記録の閉鎖等,0,2023-12-19,2023-12-14,有限会社西桐生薬局,,有限会社,群馬県,桐生市,堤町２丁目５番２０号,,10,203,3760042,,,2023-12-14,清算の結了等,,,2015-10-05,1,,,,,ニシキリュウヤッキョク,0
122,1100003000556,登記記録の閉鎖等,0,2023-12-19,2023-12-13,合同会社ＣＥＥＤ,,合同会社,長野県,長野市,大字栗田２２７４番地,,20,201,3800921,,,2023-12-13,清算の結了等,,,2015-10-05,1,,,,,シード,0
123,1110003001925,登記記録の閉鎖等,0,2023-12-19,2023-12-15,合資会社鍋忠商店,,合資会社,新潟県,長岡市,大手通１丁目５番地１０,,15,202,9400062,,,2023-12-15,清算の結了等,,,2015-10-05,1,,,,,ナベチュウショウテン,0
128,1120001122326,登記記録の閉鎖等,0,2023-12-19,2023-12-11,ＩＳファシリティーズ株式会社,,株式会社,大阪府,大阪市旭区,大宮２丁目１７番３０号,,27,117,5350002,,,2023-12-11,清算の結了等,,,2015-10-05,1,,,,,アイエスファシリティーズ,0
130,1120001162545,登記記録の閉鎖等,0,2023-12-19,2023-12-14,株式会社グリーンアップル,,株式会社,大阪府,大阪市東住吉区,住道矢田５丁目９番２３号,,27,121,5460022,,,2023-12-14,清算の結了等,,,2015-10-05,1,,,,,グリーンアップル,0
136,1120001206145,登記記録の閉鎖等,0,2023-12-19,2023-12-13,株式会社ラウンドクオリティ,,株式会社,大阪府,大阪市阿倍野区,文の里１丁目８番２１号アークビル,,27,119,5450004,,,2023-12-13,合併による解散等,3010001160161,令和５年１２月１日東京都豊島区南大塚三丁目４２番１３号寺岡ビル３階株式会社ティータイム（3010001160161）に合併し解散,2017-06-01,1,,,,,ラウンドクオリティ,0
144,1120002071365,登記記録の閉鎖等,0,2023-12-19,2023-12-13,有限会社松本精工,,有限会社,大阪府,大阪市平野区,加美北７丁目７番９号,,27,126,5470001,,,2023-12-13,清算の結了等,,,2015-10-05,1,,,,,マツモトセイコウ,0
153,1120902019769,登記記録の閉鎖等,0,2023-12-19,2023-12-14,有限会社マーチハウス,,有限会社,大阪府,豊中市,緑丘２丁目１１番１４号,,27,203,5600002,,,2023-12-14,清算の結了等,,,2015-10-05,1,,,,,マーチハウス,0
154,1122001030657,登記記録の閉鎖等,0,2023-12-19,2023-12-15,アロイ特殊鋳造株式会社,,株式会社,大阪府,八尾市,太田新町６丁目１５９番地１,,27,212,5810039,,,2023-12-15,清算の結了等,,,2017-06-07,1,,,,,アロイトクシュチュウゾウ,0
160,1140001047686,登記記録の閉鎖等,0,2023-12-19,2023-12-04,株式会社イチノセインク,,株式会社,兵庫県,尼崎市,南武庫之荘９丁目１１番３６号,,28,202,6610033,,,2023-12-04,合併による解散等,1140001050153,令和５年１２月１日兵庫県尼崎市南武庫之荘九丁目１１番３６号株式会社東伸エンジニアリング（1140001050153）に合併し解散,2015-10-05,1,,,,,イチノセインク,0
162,1140001072552,登記記録の閉鎖等,0,2023-12-19,2023-12-13,株式会社プルミエール,,株式会社,兵庫県,西宮市,新甲陽町８番１６号,,28,204,6620013,,,2023-12-13,清算の結了等,,,2015-10-05,1,,,,,プルミエール,0
173,1160002011895,登記記録の閉鎖等,0,2023-12-19,2023-12-15,有限会社インターナショナルサービスシステムズ,,有限会社,滋賀県,守山市,石田町７３１,,25,207,5240014,,,2023-12-15,清算の結了等,,,2015-10-05,1,,,,,インターナショナルサービスシステムズ,0
186,1190003004103,登記記録の閉鎖等,0,2023-12-19,2023-12-15,合同会社ＡＹＡ,,合同会社,三重県,津市,香良洲町５９５１番地１,,24,201,5140315,,,2023-12-15,清算の結了等,,,2022-10-06,1,,,,,アヤ,0
190,1200003005842,登記記録の閉鎖等,0,2023-12-19,2023-12-18,合同会社ヒダセ,,合同会社,岐阜県,関市,肥田瀬３２６７―１,,21,205,5013911,,,2023-12-18,清算の結了等,,,2023-02-28,1,,,,,ヒダセ,0
196,1240002043336,登記記録の閉鎖等,0,2023-12-19,2023-12-13,有限会社宮崎建設,00001471,有限会社,広島県,福山市,芦田町大字福田１８５７番地の２,00001472,34,207,7201264,,,2023-12-13,清算の結了等,,,2015-10-05,1,,,,,ミヤザキケンセツ,0
210,1300002005825,登記記録の閉鎖等,0,2023-12-19,2023-12-15,有限会社井手口建設,,有限会社,佐賀県,武雄市,武雄町大字富岡９３９６番地,,41,206,8430024,,,2023-12-15,清算の結了等,,,2015-10-05,1,,,,,イデグチケンセツ,0
211,1310001012607,登記記録の閉鎖等,0,2023-12-19,2023-12-18,フロンティアＳＰＳジャパン株式会社,,株式会社,長崎県,長崎市,五島町５番３８号中村ビル３Ｆ,,42,201,8500036,,,2023-12-18,清算の結了等,,,2015-10-05,1,,,,,フロンティアエスピーエスジャパン,0
214,1330001007076,登記記録の閉鎖等,0,2023-12-19,2023-12-13,株式会社ＣＨＣ,,株式会社,熊本県,熊本市中央区,安政町１番２号,,43,101,8600801,,,2023-12-13,合併による解散等,5330001006660,令和５年１２月１３日熊本市中央区安政町１番２号株式会社カリーノホールディングス（5330001006660）に合併し解散,2015-10-05,1,,,,,シーエイチシー,0
217,1340002011101,登記記録の閉鎖等,0,2023-12-19,2023-12-15,有限会社イーフィールド,,有限会社,鹿児島県,鹿児島市,中町４－１６,,46,201,8920827,,,2023-12-15,清算の結了等,,,2015-10-05,1,,,,,イーフィールド,0
223,1370002011263,登記記録の閉鎖等,0,2023-12-19,2023-12-14,有限会社佐竹測量設計事務所,,有限会社,宮城県,仙台市青葉区,二日町６番１３－３０２号,,04,101,9800802,,,2023-12-14,清算の結了等,,,2015-10-05,1,,,,,サタケソクリョウセッケイジムショ,0
236,1450001005571,登記記録の閉鎖等,0,2023-12-19,2023-12-15,株式会社エキスパンド,,株式会社,北海道,旭川市,緑が丘東二条３丁目８番１３号,,01,204,0788802,,,2023-12-15,清算の結了等,,,2015-10-05,1,,,,,,0
243,1470001007046,登記記録の閉鎖等,0,2023-12-19,2023-12-18,Ｍスペース株式会社,,株式会社,香川県,木田郡三木町,大字井戸４３０７番地,,37,341,7610823,,,2023-12-18,清算の結了等,,,2015-10-05,1,,,,,,0
253,2010001132517,登記記録の閉鎖等,0,2023-12-19,2023-12-13,株式会社ＢＣＨ・ジャパン,,株式会社,東京都,千代田区,外神田４丁目１４番１号,,13,101,1010021,,,2023-12-13,清算の結了等,,,2015-10-05,1,,,,,ビーシーエイチジャパン,0
277,2010405017719,登記記録の閉鎖等,0,2023-12-19,2023-12-13,Ｈａｎｚｏｍｏｎ一般社団法人,,その他の設立登記法人,東京都,港区,虎ノ門５丁目１番４号,,13,103,1050001,,,2023-12-13,清算の結了等,,,2019-05-16,1,,,,,ハンゾウモン,0
280,2010801021753,登記記録の閉鎖等,0,2023-12-19,2023-12-13,株式会社アシストＡＺ,,株式会社,東京都,大田区,鵜の木３丁目１３番９号,,13,111,1460091,,,2023-12-13,清算の結了等,,,2015-10-05,1,,,,,アシストエーヅィー,0
292,2010902004351,登記記録の閉鎖等,0,2023-12-19,2023-12-11,有限会社烏山電化,,有限会社,東京都,世田谷区,南烏山６丁目７番１５号,,13,112,1570062,,,2023-12-11,清算の結了等,,,2015-10-05,1,,,,,カラスヤマデンカ,0
305,2011105006037,登記記録の閉鎖等,0,2023-12-19,2023-12-14,特定非営利活動法人無縁社会をなくす会,,その他の設立登記法人,東京都,新宿区,北新宿１丁目１３番２号,,13,104,1690074,,,2023-12-14,清算の結了等,,,2015-10-05,1,,,,,ムエンシャカイヲナクスカイ,0
306,2011401018925,登記記録の閉鎖等,0,2023-12-19,2023-12-06,株式会社ネクストステージ,,株式会社,東京都,豊島区,池袋２丁目６２番１－８０１号,,13,116,1710014,,,2023-12-06,清算の結了等,,,2015-10-05,1,,,,,ネクストステージ,0
312,2011701015011,登記記録の閉鎖等,0,2023-12-19,2023-12-13,株式会社ジュピター,,株式会社,宮崎県,都城市,南横市町４０２３番地１０南横市ロイヤルハイツ１０１,,45,202,8850092,,,2023-12-13,清算の結了等,,,2015-10-05,1,,,,,ジュピター,0
330,2021001024629,登記記録の閉鎖等,0,2023-12-19,2023-12-15,弁慶ワークス株式会社,,株式会社,神奈川県,藤沢市,遠藤６１９０番地,,14,205,2520816,,,2023-12-15,清算の結了等,,,2015-10-05,1,,,,,ベンケイワークス,0
338,2030001017220,登記記録の閉鎖等,0,2023-12-19,2023-12-12,株式会社埼玉標準紙工,,株式会社,埼玉県,さいたま市中央区,上落合２丁目１１番７－３００４号,,11,105,3380001,,,2023-12-12,清算の結了等,,,2015-10-05,1,,,,,サイタマヒョウジュンシコウ,0
341,2030001084351,登記記録の閉鎖等,0,2023-12-19,2023-12-13,株式会社アテンションフーズ,,株式会社,埼玉県,ふじみ野市,川崎５３８,,11,245,3560001,,,2023-12-13,清算の結了等,,,2015-10-05,1,,,,,アテンションフーズ,0
347,2030002034371,登記記録の閉鎖等,0,2023-12-19,2023-12-13,有限会社ポートベローロンドン,,有限会社,埼玉県,狭山市,大字東三ツ木２番地の１６,,11,215,3501302,,,2023-12-13,清算の結了等,,,2015-10-05,1,,,,,ポートベローロンドン,0
348,2030002042234,登記記録の閉鎖等,0,2023-12-19,2023-12-12,有限会社メモリアルアート鎌田,,有限会社,埼玉県,加須市,正能１７番地５,,11,210,3470107,,,2023-12-12,清算の結了等,,,2015-10-05,1,,,,,メモリアルアートカマタ,0
349,2030002080399,登記記録の閉鎖等,0,2023-12-19,2023-12-13,有限会社阪神ステンレス,,有限会社,埼玉県,川越市,富士見町３１番地２１,,11,201,3500033,,,2023-12-13,清算の結了等,,,2015-10-05,1,,,,,ハンシンステンレス,0
361,2050002006113,登記記録の閉鎖等,0,2023-12-19,2023-12-12,有限会社ベルーガ,,有限会社,茨城県,水戸市,田野町４５５番４,,08,201,3100901,,,2023-12-12,清算の結了等,,,2015-10-05,1,,,,,ベルーガ,0
363,2060001018934,登記記録の閉鎖等,0,2023-12-19,2023-12-14,トキタ商事株式会社,,株式会社,栃木県,足利市,家富町２１５３番地,,09,202,3260803,,,2023-12-14,清算の結了等,,,2015-10-05,1,,,,,トキタショウジ,0
364,2060001027514,登記記録の閉鎖等,0,2023-12-19,2023-12-13,株式会社Ｋａｔｓｕｍｉ　Ｉｎｔｅｒｎａｔｉｏｎａｌ,,株式会社,栃木県,芳賀郡芳賀町,大字下高根沢１１３７番地３,,09,345,3213321,,,2023-12-13,清算の結了等,,,2015-10-05,1,,,,,カツミインターナショナル,0
374,2080002006432,登記記録の閉鎖等,0,2023-12-19,2023-12-15,有限会社リース畳センター,,有限会社,静岡県,静岡市葵区,駿府町１番５３号,,22,101,4200856,,,2023-12-15,清算の結了等,,,2015-10-05,1,,,,,リースタタミセンター,0
375,2080102017767,登記記録の閉鎖等,0,2023-12-19,2023-12-13,有限会社サノコウハン,,有限会社,静岡県,富士宮市,下条１４６番地,,22,207,4180114,,,2023-12-13,清算の結了等,,,2015-10-05,1,,,,,サノコウハン,0
381,2080405004966,登記記録の閉鎖等,0,2023-12-19,2023-12-12,浜岡製茶農業協同組合,,その他の設立登記法人,静岡県,御前崎市,新野５０１０番地の２,,22,223,4371611,,,2023-12-12,清算の結了等,,,2015-10-05,1,,,,,ハマオカセイチャ,0
408,2120101045822,登記記録の閉鎖等,0,2023-12-19,2023-12-13,株式会社ランドウィル,,株式会社,兵庫県,伊丹市,伊丹１丁目８番１７－１２０７号,,28,207,6640846,,,2023-12-13,清算の結了等,,,2015-10-05,1,,,,,ランドウィル,0
414,2130001005495,登記記録の閉鎖等,0,2023-12-19,2023-12-13,丸八商運株式会社,,株式会社,京都府,京都市北区,大宮東脇台町９番地,,26,101,6038431,,,2023-12-13,清算の結了等,,,2015-10-05,1,,,,,マルハチショウウン,0
429,2140001082253,登記記録の閉鎖等,0,2023-12-19,2023-12-12,株式会社グローバルフーズ,,株式会社,兵庫県,宝塚市,口谷西３丁目１番２１号,,28,214,6650813,,,2023-12-12,清算の結了等,,,2015-10-05,1,,,,,グローバルフーズ,0
446,2150001023818,登記記録の閉鎖等,0,2023-12-19,2023-12-18,株式会社美Ｔｈａｎｋｓ上迫,,株式会社,奈良県,香芝市,下田西１丁目１１番１８号,,29,210,6390231,,,2023-12-18,清算の結了等,,,2020-06-08,1,,,,,ビサンクスウエサコ,0
448,2160001022793,登記記録の閉鎖等,0,2023-12-19,2023-12-15,京滋テック株式会社,,株式会社,滋賀県,湖南市,下田９２０番地５８,,25,211,5203201,,,2023-12-15,清算の結了等,,,2020-10-07,1,,,,,ケイジテック,0
453,2180002067134,登記記録の閉鎖等,0,2023-12-19,2023-12-07,福井電気設備有限会社,,有限会社,愛知県,春日井市,東野町１丁目８番地の１０,,23,206,4860817,,,2023-12-07,清算の結了等,,,2015-10-05,1,,,,,フクイデンキセツビ,0
459,2200001015990,登記記録の閉鎖等,0,2023-12-19,2023-12-15,株式会社サンシャイン春日,,株式会社,岐阜県,揖斐郡揖斐川町,春日六合３４２９番地,,21,401,5032502,,,2023-12-15,清算の結了等,,,2015-10-05,1,,,,,サンシャインカスガ,0
462,2200002004968,登記記録の閉鎖等,0,2023-12-19,2023-12-18,有限会社山嶋工業,,有限会社,岐阜県,岐阜市,粟野西１丁目１６７番地,,21,201,5020006,,,2023-12-18,清算の結了等,,,2015-10-05,1,,,,,ヤマシマコウギョウ,0
463,2200002005636,登記記録の閉鎖等,0,2023-12-19,2023-12-18,有限会社カルテル,,有限会社,岐阜県,岐阜市,日野北２丁目６番１７,,21,201,5008207,,,2023-12-18,清算の結了等,,,2015-10-05,1,,,,,カルテル,0
468,2240002002258,登記記録の閉鎖等,0,2023-12-19,2023-12-14,有限会社エスシーサービス,,有限会社,広島県,広島市西区,山手町３番１４号,,34,104,7330804,,,2023-12-14,清算の結了等,,,2015-10-05,1,,,,,エスシーサービス,0
490,2320003001102,登記記録の閉鎖等,0,2023-12-19,2023-12-18,小林米穀合名会社,,合名会社,大分県,竹田市,大字竹田町５５８番地,,44,208,8780012,,,2023-12-18,清算の結了等,,,2015-10-05,1,,,,,コバヤシベイコク,0
512,2420002018277,登記記録の閉鎖等,0,2023-12-19,2023-12-13,有限会社勝田測量,,有限会社,青森県,上北郡七戸町,字倉越９３番地２,,02,402,0392522,,,2023-12-13,清算の結了等,,,2015-10-05,1,,,,,カツタソクリョウ,0
514,2430001054727,登記記録の閉鎖等,0,2023-12-19,2023-12-11,株式会社ノース・マリン,,株式会社,北海道,苫小牧市,木場町３丁目１３番１１号,,01,213,0530033,,,2023-12-11,清算の結了等,,,2015-10-05,1,,,,,ノースマリン,0
526,3010001217408,登記記録の閉鎖等,0,2023-12-19,2023-12-14,株式会社スキル,,株式会社,東京都,台東区,上野３丁目１６番２号天翔上野末広町ビル５階５０５－Ｃ号室,,13,106,1100005,,,2023-12-14,清算の結了等,,,2021-04-21,1,,,,,スキル,0
531,3010005018422,登記記録の閉鎖等,0,2023-12-19,2023-12-14,一般社団法人次世代不動産業支援機構,,その他の設立登記法人,東京都,中央区,築地２丁目１１番１２号,,13,102,1040045,,,2023-12-14,清算の結了等,,,2015-10-05,1,,,,,ジセダイフドウサンギョウシエンキコウ,0
535,3010401074548,登記記録の閉鎖等,0,2023-12-19,2023-12-13,株式会社アイシネンアジア・パシフィック,,株式会社,神奈川県,川崎市川崎区,南渡田町１番１１号Ｔｈｉｎｋ２号館１階,,14,131,2100855,,,2023-12-13,清算の結了等,,,2015-10-05,1,,,,,アイシネンアジアパシフィック,0
540,3010401149630,登記記録の閉鎖等,0,2023-12-19,2023-10-06,株式会社ＹＺＡコンサルティング,,株式会社,東京都,港区,浜松町２丁目２番１５号,,13,103,1050013,,,2023-10-06,清算の結了等,,,2019-12-05,1,,,,,ワイズエーコンサルティング,0
550,3010501003844,登記記録の閉鎖等,0,2023-12-19,2023-12-14,株式会社小林真太郎商店,,株式会社,東京都,台東区,上野５丁目１６番１０号,,13,106,1100005,,,2023-12-14,清算の結了等,,,2015-10-05,1,,,,,コバヤシシンタロウショウテン,0
560,3010902009762,登記記録の閉鎖等,0,2023-12-19,2023-12-12,有限会社ＫＯＨＡＤＡ,,有限会社,東京都,世田谷区,等々力７丁目１９番１７号,,13,112,1580082,,,2023-12-12,清算の結了等,,,2015-10-05,1,,,,,ハコダ,0
579,3012402000136,登記記録の閉鎖等,0,2023-12-19,2023-12-14,有限会社あさひ建装,,有限会社,東京都,府中市,若松町２丁目６番地の６,,13,206,1830005,,,2023-12-14,清算の結了等,,,2015-10-05,1,,,,,アサヒケンソウ,0
585,3020001063396,登記記録の閉鎖等,0,2023-12-19,2023-12-12,株式会社横浜フードサポート,,株式会社,神奈川県,横浜市青葉区,梅が丘７番地２５,,14,117,2270052,,,2023-12-12,清算の結了等,,,2015-10-05,1,,,,,ヨコハマフードサポート,0
601,3030001035378,登記記録の閉鎖等,0,2023-12-19,2023-12-12,株式会社長島工業,,株式会社,埼玉県,草加市,青柳３丁目１２番２６号,,11,221,3400002,,,2023-12-12,清算の結了等,,,2015-10-05,1,,,,,ナガシマコウギョウ,0
629,3070001011838,登記記録の閉鎖等,0,2023-12-19,2023-12-15,株式会社東原製作所,,株式会社,群馬県,富岡市,富岡１３７０番地,,10,210,3702316,,,2023-12-15,清算の結了等,,,2015-10-05,1,,,,,トウハラセイサクショ,0
650,3110001018168,登記記録の閉鎖等,0,2023-12-19,2023-12-14,株式会社テルサグループ,,株式会社,新潟県,村上市,飯野３丁目１１番６１号,,15,212,9580857,,,2023-12-14,清算の結了等,,,2015-10-05,1,,,,,テルサグループ,0
651,3110002002451,登記記録の閉鎖等,0,2023-12-19,2023-12-12,有限会社小竹商事,,有限会社,新潟県,新潟市中央区,紫竹山３丁目１１番４０号,,15,103,9500914,,,2023-12-12,清算の結了等,,,2015-10-05,1,,,,,コタケショウジ,0
676,3140001088869,登記記録の閉鎖等,0,2023-12-19,2023-12-18,会社格安センター株式会社,,株式会社,兵庫県,神戸市中央区,八幡通４丁目２番１４号トロア神戸ビル４階,,28,110,6510085,,,2023-12-18,清算の結了等,,,2015-10-05,1,,,,,カイシャカクヤスセンター,0
685,3160002008865,登記記録の閉鎖等,0,2023-12-19,2023-12-14,有限会社大喜建築,,有限会社,滋賀県,愛知郡愛荘町,蚊野１５０９番地,,25,425,5291206,,,2023-12-14,清算の結了等,,,2015-10-05,1,,,,,ダイキケンチク,0
687,3170005004217,登記記録の閉鎖等,0,2023-12-19,2023-12-15,日高地区生コンクリート協同組合,,その他の設立登記法人,和歌山県,御坊市,湯川町財部字東新田１０５７番２,,30,205,6440011,,,2023-12-15,清算の結了等,,,2015-10-05,1,,,,,ヒダカチクナマコンクリート,0
693,3180002072447,登記記録の閉鎖等,0,2023-12-19,2023-12-12,有限会社横山鍍金工業所,,有限会社,愛知県,瀬戸市,平町３丁目１３３番地,,23,204,4890916,,,2023-12-12,清算の結了等,,,2015-10-05,1,,,,,ヨコヤマメッキコウギョウショ,0
701,3190002023143,登記記録の閉鎖等,0,2023-12-19,2023-12-14,有限会社みのりフーズ,,有限会社,三重県,四日市市,あかつき台１丁目２番地１５０,,24,202,5128046,,,2023-12-14,清算の結了等,,,2015-10-05,1,,,,,ミノリフーズ,0
707,3230005009143,登記記録の閉鎖等,0,2023-12-19,2023-12-15,一般社団法人マイルドカーニバル,,その他の設立登記法人,富山県,黒部市,三日市３３３６番地,,16,207,9380031,,,2023-12-15,清算の結了等,,,2021-06-01,1,,,,,マイルドカーニバル,0
709,3240003002776,登記記録の閉鎖等,0,2023-12-19,2023-12-14,ＳＡＣＨＩ合同会社,,合同会社,広島県,東広島市,高屋町郷１１２３番地１０２,,34,212,7392124,,,2023-12-14,清算の結了等,,,2015-10-05,1,,,,,サチ,0
719,3290001035419,登記記録の閉鎖等,0,2023-12-19,2023-12-11,株式会社フラット,,株式会社,福岡県,大野城市,南大利１丁目８番１２号,,40,219,8160956,,,2023-12-11,清算の結了等,,,2015-10-05,1,,,,,フラット,0
721,3290001045260,登記記録の閉鎖等,0,2023-12-19,2023-12-11,株式会社サイム,,株式会社,福岡県,飯塚市,大分２６５２番地１,,40,205,8200712,,,2023-12-11,清算の結了等,,,2015-10-05,1,,,,,サイム,0
732,3320001001739,登記記録の閉鎖等,0,2023-12-19,2023-12-18,株式会社たちばな,,株式会社,大分県,大分市,中央町３丁目６番３号,,44,201,8700035,,,2023-12-18,清算の結了等,,,2015-10-05,1,,,,,,0
734,3330001015143,登記記録の閉鎖等,0,2023-12-19,2023-12-13,株式会社ガトーエンゼル,,株式会社,熊本県,天草市,中央新町１８番４号,,43,215,8630023,,,2023-12-13,清算の結了等,,,2015-10-05,1,,,,,ガトーエンゼル,0
757,3380001026128,登記記録の閉鎖等,0,2023-12-19,2023-12-14,株式会社八城,,株式会社,福島県,いわき市,明治団地５２番地の７,,07,204,9708035,,,2023-12-14,清算の結了等,,,2015-11-10,1,,,,,ヤシロ,0
763,3390005006661,登記記録の閉鎖等,0,2023-12-19,2023-12-15,新田生産森林組合,,その他の設立登記法人,山形県,南陽市,新田６２２番地の１,,06,213,9992205,,,2023-12-15,清算の結了等,,,2015-10-05,1,,,,,シンデン,0
768,3430001050956,登記記録の閉鎖等,0,2023-12-19,2023-12-11,大江石油株式会社,,株式会社,北海道,余市郡仁木町,大江２丁目１番地,,01,407,0482402,,,2023-12-11,清算の結了等,,,2015-10-05,1,,,,,オオエセキユ,0
786,4010001213323,登記記録の閉鎖等,0,2023-12-19,2023-12-13,紀尾井洋上風力発電株式会社,,株式会社,東京都,中央区,築地２丁目１５番１９号ミレニアム築地７階,,13,102,1040045,,,2023-12-13,清算の結了等,,,2020-10-29,1,,,,,キオイヨウジョウフウリョクハツデン,0
792,4010003020998,登記記録の閉鎖等,0,2023-12-19,2023-12-14,日光１７２パラッツォ・アファシナンテ合同会社,,合同会社,東京都,千代田区,丸の内３丁目１番１号東京共同会計事務所内,,13,101,1000005,,,2023-12-14,清算の結了等,,,2015-10-05,1,,,,,ニッコウワンハンドレッドセブンティーツーパラッツォアファシナンテ,0
798,4010101002907,登記記録の閉鎖等,0,2023-12-19,2023-12-15,日本ツール株式会社,,株式会社,東京都,八王子市,北野台２丁目１番２号,,13,201,1920913,,,2023-12-15,清算の結了等,,,2015-10-05,1,,,,,ニホンツール,0
807,4010502006300,登記記録の閉鎖等,0,2023-12-19,2023-12-14,有限会社竹内糊店,,有限会社,東京都,台東区,寿３丁目１４番９号,,13,106,1110042,,,2023-12-14,清算の結了等,,,2015-10-05,1,,,,,タケウチノリテン,0
813,4010602011852,登記記録の閉鎖等,0,2023-12-19,2023-12-13,有限会社佐野屋商店,,有限会社,東京都,墨田区,業平２丁目１７番９号,,13,107,1300002,,,2023-12-13,清算の結了等,,,2015-10-05,1,,,,,サノヤショウテン,0
815,4010801004558,登記記録の閉鎖等,0,2023-12-19,2023-12-13,桜田鋲螺工業株式会社,,株式会社,東京都,大田区,西糀谷３丁目２９番３号,,13,111,1440034,,,2023-12-13,清算の結了等,,,2015-10-05,1,,,,,サクラダビョウラコウギョウ,0
816,4010802001892,登記記録の閉鎖等,0,2023-12-19,2023-12-14,有限会社浦井製作所,,有限会社,東京都,大田区,久が原２丁目１２番４号,,13,111,1460085,,,2023-12-14,清算の結了等,,,2015-10-05,1,,,,,ウライセイサクショ,0
836,4011201014404,登記記録の閉鎖等,0,2023-12-19,2023-12-06,株式会社ＥＦＣ,,株式会社,東京都,中野区,鷺宮６丁目１８番１４号,,13,114,1650032,,,2023-12-06,清算の結了等,,,2015-10-05,1,,,,,イーエフシー,0
848,4011802016253,登記記録の閉鎖等,0,2023-12-19,2023-12-07,有限会社東青建工,00057469,有限会社,東京都,足立区,古千谷本町２丁目２３番３０－１０５号,,13,121,1210832,,,2023-12-07,清算の結了等,,,2015-10-05,1,,,,,トウセイケンコウ,0
855,4013201002297,登記記録の閉鎖等,0,2023-12-19,2023-12-14,株式会社ザ・クリエイトハウス,,株式会社,東京都,目黒区,中目黒３丁目６番２号中目黒Ｆ・Ｓビル５階,,13,110,1530061,,,2023-12-14,清算の結了等,,,2015-10-05,1,,,,,ザクリエイトハウス,0
885,4030001036540,登記記録の閉鎖等,0,2023-12-19,2023-12-11,株式会社浦川カルチャーカレッヂ,,株式会社,埼玉県,三郷市,早稲田２丁目１８番地４,,11,237,3410018,,,2023-12-11,清算の結了等,,,2015-10-05,1,,,,,ウラカワカルチャーカレッヂ,0
903,4040001015023,登記記録の閉鎖等,0,2023-12-19,2023-12-11,高砂谷産業株式会社,00018851,株式会社,千葉県,習志野市,大久保１丁目２５番１５－１００１号,,12,216,2750011,,,2023-12-11,清算の結了等,,,2015-10-05,1,,,,,タカサゴヤサンギョウ,0
904,4040001040558,登記記録の閉鎖等,0,2023-12-19,2023-12-12,株式会社アイアイシー,,株式会社,千葉県,流山市,大字西平井５５６番地の６,,12,220,2700156,,,2023-12-12,清算の結了等,,,2015-10-05,1,,,,,アイアイシー,0
912,4040002073648,登記記録の閉鎖等,0,2023-12-19,2023-12-18,有限会社島崎商店,,有限会社,千葉県,市原市,桜台３丁目３１番１号,,12,219,2990127,,,2023-12-18,清算の結了等,,,2015-10-05,1,,,,,シマザキショウテン,0
918,4060001024856,登記記録の閉鎖等,0,2023-12-19,2023-12-13,株式会社八東組,,株式会社,栃木県,下野市,石橋９７９番地４,,09,216,3290511,,,2023-12-13,清算の結了等,,,2015-10-05,1,,,,,ハットウグミ,0
919,4060001034921,登記記録の閉鎖等,0,2023-12-19,2023-12-13,ＳＡＧＡＳＵ株式会社,,株式会社,栃木県,宇都宮市,駅前通り１丁目１番１２号２階,,09,201,3210964,,,2023-12-13,清算の結了等,,,2022-05-31,1,,,,,サガス,0
933,4080002015596,登記記録の閉鎖等,0,2023-12-19,2023-12-15,有限会社梅原工業,,有限会社,静岡県,焼津市,越後島１２０番地,,22,212,4250092,,,2023-12-15,清算の結了等,,,2015-10-05,1,,,,,ウメハラコウギョウ,0
943,4110001021930,登記記録の閉鎖等,0,2023-12-19,2023-12-15,株式会社アビライフ,,株式会社,新潟県,上越市,藤巻４番１９号,,15,222,9430817,,,2023-12-15,清算の結了等,,,2015-10-05,1,,,,,,0
961,4120101043403,登記記録の閉鎖等,0,2023-12-19,2023-12-15,三鈴建設株式会社,,株式会社,大阪府,和泉市,三林町１０９０番地の１,,27,219,5941112,,,2023-12-15,清算の結了等,,,2015-10-05,1,,,,,サンレイケンセツ,0
968,4122001008766,登記記録の閉鎖等,0,2023-12-19,2023-12-15,東大阪ブラザー販売株式会社,,株式会社,大阪府,東大阪市,足代北２丁目５番１号,,27,227,5770058,,,2023-12-15,清算の結了等,,,2015-10-05,1,,,,,ヒガシオオサカブラザーハンバイ,0
981,4140002058597,登記記録の閉鎖等,0,2023-12-19,2023-12-13,有限会社ヒシミツゴルフ,,有限会社,兵庫県,西宮市,北六甲台１丁目２４番３号,,28,204,6511413,,,2023-12-13,清算の結了等,,,2015-10-05,1,,,,,ヒシミツゴルフ,0
988,4160001006885,登記記録の閉鎖等,0,2023-12-19,2023-12-14,長浜シティガス株式会社,,株式会社,滋賀県,長浜市,殿町５番１号,,25,203,5260064,,,2023-12-14,清算の結了等,,,2015-10-05,1,,,,,ナガハマシティガス,0
991,4180001025454,登記記録の閉鎖等,0,2023-12-19,2023-12-13,財馬冷熱工業株式会社,,株式会社,愛知県,名古屋市西区,清里町６９番地の６２,,23,104,4520801,,,2023-12-13,清算の結了等,,,2015-10-05,1,,,,,サイマレイネツコウギョウ,0
996,4180003012888,登記記録の閉鎖等,0,2023-12-19,2023-12-13,山西サイジング合資会社,,合資会社,愛知県,半田市,亀崎町５丁目２３０番地,,23,205,4750023,,,2023-12-13,清算の結了等,,,2015-10-05,1,,,,,ヤマニシサイジング,0
1004,4200005013031,登記記録の閉鎖等,0,2023-12-19,2023-12-18,一般社団法人Ｉｔｏｓｈｉｒｏ　Ｃｏｍｍｏｎｓ,,その他の設立登記法人,岐阜県,郡上市,白鳥町石徹白第７号１００番地,,21,219,5015231,,,2023-12-18,清算の結了等,,,2020-03-11,1,,,,,イトシロコモンズ,0
1008,4230001009526,登記記録の閉鎖等,0,2023-12-19,2023-12-13,株式会社テー・シー・ツザワ,,株式会社,富山県,小矢部市,蓑輪１５８番地１,,16,209,9320124,,,2023-12-13,清算の結了等,,,2015-10-05,1,,,,,テーシーツザワ,0
1015,4240002020638,登記記録の閉鎖等,0,2023-12-19,2023-12-14,有限会社大元商店,,有限会社,広島県,広島市安佐北区,可部南３丁目１７番３２号,,34,106,7310223,,,2023-12-14,清算の結了等,,,2015-10-05,1,,,,,オオモトショウテン,0
1019,4250002004697,登記記録の閉鎖等,0,2023-12-19,2023-12-15,有限会社コスモフーズ,,有限会社,山口県,宇部市,床波２丁目８番１５号,,35,202,7550153,,,2023-12-15,清算の結了等,,,2015-10-05,1,,,,,コスモフーズ,0
1024,4290002042719,登記記録の閉鎖等,0,2023-12-19,2023-12-08,有限会社松芳産業,,有限会社,福岡県,太宰府市,吉松４丁目３番２３号,,40,221,8180138,,,2023-12-08,合併による解散等,3290001040848,令和５年１２月８日福岡県太宰府市吉松四丁目２番８号大和興産株式会社（3290001040848）に合併し解散,2015-10-05,1,,,,,マツヨシサンギョウ,0
1027,4310001012843,登記記録の閉鎖等,0,2023-12-19,2023-12-18,株式会社涼エンジニアリング,,株式会社,長崎県,長崎市,琴海戸根町１２６４番地３６－２Ｆ,,42,201,8513103,,,2023-12-18,清算の結了等,,,2015-10-05,1,,,,,リョウエンジニアリング,0
1041,4400502000577,登記記録の閉鎖等,0,2023-12-19,2023-12-11,平泉観光開発有限会社,,有限会社,岩手県,一関市,駅前４０番地,,03,209,0210867,,,2023-12-11,清算の結了等,,,2015-10-05,1,,,,,ヒライズミカンコウカイハツ,0
1044,4430002046432,登記記録の閉鎖等,0,2023-12-19,2023-12-08,有限会社高橋工業,,有限会社,北海道,石狩郡当別町,字蕨岱２６６７番地,,01,303,0610214,,,2023-12-08,清算の結了等,,,2015-10-05,1,,,,,タカハシコウギョウ,0
1045,4430005010385,登記記録の閉鎖等,0,2023-12-19,2023-12-11,一般社団法人北海道市場協会,,その他の設立登記法人,北海道,札幌市中央区,北三条西７丁目１番地,,01,101,0600003,,,2023-12-11,清算の結了等,,,2015-10-05,1,,,,,ホッカイドウイチバキョウカイ,0
1048,4470002009542,登記記録の閉鎖等,0,2023-12-19,2023-12-18,有限会社藤沢建築鉄工,,有限会社,香川県,高松市,香川町大野１７４１番地,,37,201,7611701,,,2023-12-18,清算の結了等,,,2015-10-05,1,,,,,,0
1051,4480005003624,登記記録の閉鎖等,0,2023-12-19,2023-12-18,医療法人板東整形外科（社団）,,その他の設立登記法人,徳島県,板野郡藍住町,東中富字権現傍示５１番地１,,36,403,7711220,,,2023-12-18,清算の結了等,,,2015-10-05,1,,,,,バンドウセイケイゲカ,0
1064,5010003037967,登記記録の閉鎖等,0,2023-12-19,2023-12-12,ザ・ホテリエ・グループ嬬恋合同会社,,合同会社,東京都,千代田区,丸の内１丁目１１番１号パシフィックセンチュリープレイス丸の内１７階,,13,101,1000005,,,2023-12-12,清算の結了等,,,2022-06-27,1,,,,,ザホテリエグループツマゴイ,0
1078,5010403017387,登記記録の閉鎖等,0,2023-12-19,2023-12-13,合同会社ｎｏ－ｌｉｍｉｔ,,合同会社,東京都,品川区,上大崎２丁目１４番９号目黒東誠ビル６階,,13,109,1410021,,,2023-12-13,清算の結了等,,,2017-10-17,1,,,,,ノーリミット,0
1082,5010602018905,登記記録の閉鎖等,0,2023-12-19,2023-12-07,有限会社桐生商店,,有限会社,東京都,墨田区,墨田２丁目９番９号,,13,107,1310031,,,2023-12-07,清算の結了等,,,2015-10-05,1,,,,,キリュウショウテン,0
1096,5010902001668,登記記録の閉鎖等,0,2023-12-19,2023-12-11,有限会社インテレクト佐藤,,有限会社,東京都,世田谷区,世田谷４丁目１４番１０号,,13,112,1540017,,,2023-12-11,清算の結了等,,,2015-10-05,1,,,,,インテレクトサトウ,0
1120,5012401016255,登記記録の閉鎖等,0,2023-12-19,2023-12-14,株式会社スィンク,,株式会社,東京都,府中市,片町２丁目７番地２,,13,206,1830021,,,2023-12-14,清算の結了等,,,2015-10-05,1,,,,,スィンク,0
1121,5012401034298,登記記録の閉鎖等,0,2023-12-19,2023-12-11,Ｗａｉ　Ｎｅｘｔ株式会社,,株式会社,東京都,町田市,鶴川４丁目４１番地５４,,13,209,1950061,,,2023-12-11,清算の結了等,,,2018-08-06,1,,,,,ワイネクスト,0
1125,5013301012336,登記記録の閉鎖等,0,2023-12-19,2023-12-12,株式会社林光商店,,株式会社,東京都,豊島区,要町１丁目１１番１３号,,13,116,1710043,,,2023-12-12,清算の結了等,,,2015-10-05,1,,,,,ハヤシミツショウテン,0
1141,5020001118124,登記記録の閉鎖等,0,2023-12-19,2023-12-13,株式会社トリニティーズ不動産,,株式会社,神奈川県,横浜市旭区,二俣川１丁目４５番地９５号七番館ビル３０１号,,14,112,2410821,,,2023-12-13,清算の結了等,,,2016-10-07,1,,,,,トリニティーズフドウサン,0
1148,5020003020682,登記記録の閉鎖等,0,2023-12-19,2023-12-13,ＳｇＳｔ合同会社,,合同会社,神奈川県,川崎市中原区,下沼部１７７３番地４２,,14,133,2110011,,,2023-12-13,清算の結了等,,,2021-10-19,1,,,,,エスジーエスティー,0
1186,5080401018380,登記記録の閉鎖等,0,2023-12-19,2023-12-12,株式会社ワイズプランニング,,株式会社,静岡県,浜松市中区,早出町字大日１０２７番地２,,22,131,4350054,,,2023-12-12,清算の結了等,,,2015-10-05,1,,,,,ワイズプランニング,0
1190,5090002006726,登記記録の閉鎖等,0,2023-12-19,2023-12-15,有限会社ユーエイ,,有限会社,山梨県,甲斐市,島上条７０５－１,,19,210,4000123,,,2023-12-15,清算の結了等,,,2015-10-05,1,,,,,ユーエイ,0
1196,5110002005584,登記記録の閉鎖等,0,2023-12-19,2023-12-15,有限会社藤崎工業所,,有限会社,新潟県,新潟市中央区,南万代町１２番１２号,,15,103,9500902,,,2023-12-15,清算の結了等,,,2015-10-05,1,,,,,フジサキコウギョウショ,0
1201,5120001068144,登記記録の閉鎖等,0,2023-12-19,2023-12-15,株式会社ナイスエコー,,株式会社,大阪府,大阪市北区,鶴野町４番１６号,,27,127,5300014,,,2023-12-15,清算の結了等,,,2015-10-05,1,,,,,ナイスエコー,0
1208,5120001239653,登記記録の閉鎖等,0,2023-12-19,2023-12-15,宇直株式会社,,株式会社,大阪府,大阪市港区,市岡元町２丁目６番１１号－３０５,,27,107,5520002,,,2023-12-15,清算の結了等,,,2021-08-12,1,,,,,ウチョク,0
1224,5130002008098,登記記録の閉鎖等,0,2023-12-19,2023-12-15,有限会社ヤマックス,,有限会社,京都府,京都市下京区,中堂寺庄ノ内町６番地の４０,,26,106,6008814,,,2023-12-15,清算の結了等,,,2015-10-05,1,,,,,ヤマックス,0
1229,5140001088215,登記記録の閉鎖等,0,2023-12-19,2023-12-13,株式会社ＧＲＡＣＥ,,株式会社,兵庫県,神戸市垂水区,平磯４丁目４－７ジョイフル垂水１Ｆ,,28,108,6550892,,,2023-12-13,清算の結了等,,,2015-10-05,1,,,,,,0
1231,5140001104731,登記記録の閉鎖等,0,2023-12-19,2023-12-08,株式会社フェリコットクラフトジャパン,,株式会社,兵庫県,伊丹市,行基町２丁目３９番地,,28,207,6640857,,,2023-12-08,合併による解散等,5140001079098,令和５年１２月８日兵庫県伊丹市行基町二丁目３９番地和光食品株式会社（5140001079098）に合併し解散,2017-01-17,1,,,,,フェリコットクラフトジャパン,0
1236,5140002044662,登記記録の閉鎖等,0,2023-12-19,2023-12-15,有限会社日神畜産,,有限会社,兵庫県,尼崎市,武庫元町２丁目１７番１５号,,28,202,6610043,,,2023-12-15,清算の結了等,,,2015-10-05,1,,,,,ニッシンチクサン,0
1243,5180002072461,登記記録の閉鎖等,0,2023-12-19,2023-12-14,有限会社四葉,,有限会社,愛知県,名古屋市千種区,千代田橋１丁目１番１３－２３１号,,23,101,4640011,,,2023-12-14,清算の結了等,,,2015-10-05,1,,,,,ヨツバ,0
1250,5210003000640,登記記録の閉鎖等,0,2023-12-19,2023-12-11,合資会社相馬タクシー,,合資会社,福井県,鯖江市,西山町１番２号,,18,207,9160023,,,2023-12-11,清算の結了等,,,2015-10-05,1,,,,,ソウマタクシー,0
1266,5290802019114,登記記録の閉鎖等,0,2023-12-19,2023-12-13,有限会社菅工務店,,有限会社,福岡県,北九州市若松区,赤島町１３番３４号,,40,103,8080073,,,2023-12-13,清算の結了等,,,2015-10-05,1,,,,,スガコウムテン,0
1271,5320002010992,登記記録の閉鎖等,0,2023-12-19,2023-12-15,有限会社大分テクニカルセンター,,有限会社,大分県,別府市,大字鶴見２７４２番地の３,,44,202,8740840,,,2023-12-15,清算の結了等,,,2015-10-05,1,,,,,,0
1273,5340001008986,登記記録の閉鎖等,0,2023-12-19,2023-12-13,株式会社センターフーズ,,株式会社,鹿児島県,いちき串木野市,西薩町１７番地４,,46,219,8960046,,,2023-12-13,清算の結了等,,,2015-10-05,1,,,,,センターフーズ,0
1274,5340001025742,登記記録の閉鎖等,0,2023-12-19,2023-12-15,株式会社やなせホールディングス,,株式会社,鹿児島県,出水市,平和町１８８２番地,,46,208,8990217,,,2023-12-15,合併による解散等,9340002022999,令和５年１２月１日鹿児島県出水市平和町１８８２番地株式会社やなせ（9340002022999）に合併し解散,2023-07-21,1,,,,,ヤナセホールディングス,0
1284,5380005010778,登記記録の閉鎖等,0,2023-12-19,2023-12-15,一般社団法人福島エンジニアリング協会,,その他の設立登記法人,福島県,福島市,南矢野目字向原２３番地の１２,,07,201,9600112,,,2023-12-15,清算の結了等,,,2015-10-05,1,,,,,フクシマエンジニアリングキョウカイ,0
1286,5410001002230,登記記録の閉鎖等,0,2023-12-19,2023-12-15,富士製粉産業株式会社,,株式会社,秋田県,秋田市,新屋鳥木町１番６２号,,05,201,0101633,,,2023-12-15,清算の結了等,,,2015-10-05,1,,,,,フジセイフンサンギョウ,0
1293,5430002043180,登記記録の閉鎖等,0,2023-12-19,2023-12-12,有限会社井口建機工業,,有限会社,北海道,石狩市,花川南十条２丁目１３９番地,,01,235,0613210,,,2023-12-12,清算の結了等,,,2015-10-05,1,,,,,イグチケンキコウギョウ,0
1298,5470002000748,登記記録の閉鎖等,0,2023-12-19,2023-12-18,有限会社阿部,,有限会社,香川県,高松市,西の丸町５番１０号,,37,201,7600021,,,2023-12-18,清算の結了等,,,2015-10-05,1,,,,,アベ,0
1308,6010001122027,登記記録の閉鎖等,0,2023-12-19,2023-12-13,株式会社ベルビック,,株式会社,東京都,千代田区,鍛冶町２丁目５番１５号,,13,101,1010044,,,2023-12-13,清算の結了等,,,2015-10-05,1,,,,,ベルビック,0
1309,6010001171742,登記記録の閉鎖等,0,2023-12-19,2023-12-13,株式会社白山オステオパシー,,株式会社,東京都,文京区,白山１丁目３１番７号,,13,105,1130001,,,2023-12-13,清算の結了等,,,2015-11-17,1,,,,,ハクサンオステオパシー,0
1312,6010002050053,登記記録の閉鎖等,0,2023-12-19,2023-12-12,有限会社エムサット,,有限会社,東京都,千代田区,神田猿楽町２丁目３番１号,,13,101,1010064,,,2023-12-12,清算の結了等,,,2015-10-05,1,,,,,エムサット,0
1314,6010003021128,登記記録の閉鎖等,0,2023-12-19,2023-12-14,日光７２パラッツォオッティモ合同会社,,合同会社,東京都,千代田区,丸の内３丁目１番１号東京共同会計事務所内,,13,101,1000005,,,2023-12-14,清算の結了等,,,2015-10-05,1,,,,,ニッコウセブンティーツーパラッツォオッティモ,0
1336,6011001124715,登記記録の閉鎖等,0,2023-12-19,2023-12-12,藤本商事株式会社,,株式会社,東京都,港区,芝５丁目１１番５号エムコート１０１,,13,103,1080014,,,2023-12-12,清算の結了等,,,2018-10-17,1,,,,,フジモトショウジ,0
1349,6011201021068,登記記録の閉鎖等,0,2023-12-19,2023-11-08,株式会社ＮＥＸＴ　ＬＥＡＤＥＲＳ,,株式会社,神奈川県,川崎市中原区,上小田中２丁目２４番６５号,,14,133,2110053,,,2023-11-08,清算の結了等,,,2019-01-08,1,,,,,ネクストリーダーズ,0
1353,6011402009028,登記記録の閉鎖等,0,2023-12-19,2023-12-14,有限会社ヤク井畜産,,有限会社,東京都,板橋区,栄町８番１７号,,13,119,1730015,,,2023-12-14,清算の結了等,,,2015-10-05,1,,,,,ヤクイチクサン,0
1355,6011501018045,登記記録の閉鎖等,0,2023-12-19,2023-12-13,株式会社ネクストモバイル,,株式会社,宮崎県,宮崎市,大字恒久４９５４番地３Ｍ－ｃｉｔｙ恒久７０５号,,45,201,8800916,,,2023-12-13,清算の結了等,,,2015-10-05,1,,,,,ネクストモバイル,0
1369,6013201016774,登記記録の閉鎖等,0,2023-12-19,2023-12-14,株式会社くらす処,,株式会社,東京都,目黒区,目黒本町３丁目１７番１１号,,13,110,1520002,,,2023-12-14,清算の結了等,,,2015-10-05,1,,,,,クラスドコロ,0
1372,6020001093936,登記記録の閉鎖等,0,2023-12-19,2023-12-12,株式会社ＳＡＲＴＯＲＥ,,株式会社,神奈川県,横浜市中区,日本大通７番地日本大通７ビル４階,,14,104,2310021,,,2023-12-12,清算の結了等,,,2015-10-05,1,,,,,サルトーレ,0
1394,6030002000106,登記記録の閉鎖等,0,2023-12-19,2023-12-12,有限会社一燈画廊,,有限会社,埼玉県,さいたま市南区,南本町２丁目１８番１０号,,11,108,3360018,,,2023-12-12,清算の結了等,,,2015-10-05,1,,,,,イットウガロウ,0
1413,6050002033153,登記記録の閉鎖等,0,2023-12-19,2023-12-14,有限会社小泉建装,,有限会社,茨城県,龍ケ崎市,馴柴町８２０番地の２,,08,208,3010007,,,2023-12-14,清算の結了等,,,2015-10-05,1,,,,,コイズミケンソウ,0
1415,6060001004393,登記記録の閉鎖等,0,2023-12-19,2023-12-14,株式会社睦美設計,,株式会社,栃木県,宇都宮市,宮本町１９番１０号,,09,201,3210163,,,2023-12-14,清算の結了等,,,2015-10-05,1,,,,,ムツミセッケイ,0
1420,6080002011577,登記記録の閉鎖等,0,2023-12-19,2023-12-15,有限会社吉田船舶板金工業所,,有限会社,静岡県,静岡市清水区,港町２丁目５番３号,,22,103,4240943,,,2023-12-15,清算の結了等,,,2015-10-05,1,,,,,ヨシダセンパクバンキンコウギョウジョ,0
1422,6080401000247,登記記録の閉鎖等,0,2023-12-19,2023-12-13,足立総業株式会社,,株式会社,静岡県,浜松市中区,木戸町４番５５号,,22,131,4300806,,,2023-12-13,清算の結了等,,,2015-10-05,1,,,,,アダチソウギョウ,0
1428,6100002005923,登記記録の閉鎖等,0,2023-12-19,2023-12-13,有限会社アリスエック,,有限会社,長野県,長野市,吉田５丁目３１番５－９号,,20,201,3810043,,,2023-12-13,清算の結了等,,,2015-10-05,1,,,,,アリスエック,0
1435,6120001014857,登記記録の閉鎖等,0,2023-12-19,2023-12-18,株式会社小柳印刷所,,株式会社,大阪府,大阪市城東区,野江４丁目８番１０号,,27,118,5360006,,,2023-12-18,清算の結了等,,,2015-10-05,1,,,,,コナヤギインサツショ,0
1436,6120001131537,登記記録の閉鎖等,0,2023-12-19,2023-12-13,株式会社ＭＥＧＡＢＡＣＫＳ,,株式会社,大阪府,大阪市北区,紅梅町５番５号,,27,127,5300038,,,2023-12-13,清算の結了等,,,2015-10-05,1,,,,,,0
1439,6120001162862,登記記録の閉鎖等,0,2023-12-19,2023-12-15,株式会社ライズ建築設計,,株式会社,大阪府,寝屋川市,池田１丁目１４番１８号,,27,215,5720039,,,2023-12-15,清算の結了等,,,2015-10-05,1,,,,,ライズケンチクセッケイ,0
1461,6140001062301,登記記録の閉鎖等,0,2023-12-19,2023-10-16,リアルホーム株式会社,,株式会社,兵庫県,姫路市,田寺６１８番地３,,28,201,,,,2023-10-16,清算の結了等,,,2015-10-05,1,,,,,,1
1462,6140001079849,登記記録の閉鎖等,0,2023-12-19,2023-12-12,株式会社アサヒホームテック,,株式会社,兵庫県,川西市,東畦野２丁目６番８号,,28,217,6660117,,,2023-12-12,清算の結了等,,,2015-10-05,1,,,,,アサヒホームテック,0
1466,6140002064032,登記記録の閉鎖等,0,2023-12-19,2023-12-14,有限会社松澤興産,,有限会社,兵庫県,伊丹市,鴻池７丁目１番４５号,,28,207,6640006,,,2023-12-14,合併による解散等,2140001078929,令和５年１２月９日東京都渋谷区神宮前二丁目１３番７号本州ビル３Ａ松沢商事株式会社（2140001078929）に合併し解散,2015-10-05,1,,,,,マツザワコウサン,0
1469,6160001001926,登記記録の閉鎖等,0,2023-12-19,2023-12-15,株式会社村上世今堂,00044193,株式会社,滋賀県,大津市,長等２丁目３番３３号,,25,201,5200046,,,2023-12-15,清算の結了等,,,2015-10-05,1,,,,,,0
1474,6180002067948,登記記録の閉鎖等,0,2023-12-19,2023-12-18,有限会社ケーツーエイチ,,有限会社,愛知県,名古屋市天白区,保呂町２１１４番地,,23,116,4680041,,,2023-12-18,清算の結了等,,,2015-10-05,1,,,,,ケーツーエイチ,0
1478,6190001010164,登記記録の閉鎖等,0,2023-12-19,2023-12-13,ＫＤ株式会社,,株式会社,大阪府,大阪市中央区,道修町１丁目６番７号ＪＭＦビル北浜０１（９階）,,27,128,5410045,,,2023-12-13,清算の結了等,,,2015-10-05,1,,,,,ケーディー,0
1479,6190001029659,登記記録の閉鎖等,0,2023-12-19,2023-12-12,株式会社フォレストホールディングス,,株式会社,三重県,伊勢市,中島２丁目１番２４号,,24,203,5160067,,,2023-12-12,清算の結了等,,,2022-08-03,1,,,,,フォレストホールディングス,0
1481,6200001002143,登記記録の閉鎖等,0,2023-12-19,2023-12-18,株式会社三景設計,,株式会社,岐阜県,岐阜市,花ノ木町２丁目１７番地,,21,201,5020824,,,2023-12-18,清算の結了等,,,2015-10-05,1,,,,,サンケイセッケイ,0
1483,6200001029715,登記記録の閉鎖等,0,2023-12-19,2023-12-15,瑞養建設株式会社,,株式会社,岐阜県,瑞穂市,七崎４０９番地３,,21,216,5010301,,,2023-12-15,清算の結了等,,,2015-10-05,1,,,,,ミズヨウケンセツ,0
1486,6200003004245,登記記録の閉鎖等,0,2023-12-19,2023-12-12,合同会社ピクセル,,合同会社,岐阜県,高山市,神明町４丁目７番地,,21,203,5060821,,,2023-12-12,合併による解散等,8370001016975,令和５年１２月１日仙台市宮城野区幸町五丁目１２番１２号ヒューネッツジャパン株式会社（8370001016975）に合併し解散,2018-07-25,1,,,,,,0
1487,6200005004078,登記記録の閉鎖等,0,2023-12-19,2023-12-15,大垣テクノメタル協同組合,,その他の設立登記法人,岐阜県,大垣市,野口３丁目１番地１号,,21,202,5030985,,,2023-12-15,清算の結了等,,,2015-10-05,1,,,,,オオガキテクノメタル,0
1488,6200005008310,登記記録の閉鎖等,0,2023-12-19,2023-12-14,東濃米穀協同組合,,その他の設立登記法人,岐阜県,土岐市,土岐津町土岐口１９５８番地の１,,21,212,5095122,,,2023-12-14,清算の結了等,,,2015-10-05,1,,,,,トウノウベイコク,0
1490,6210002009830,登記記録の閉鎖等,0,2023-12-19,2023-12-12,有限会社道関工業所,,有限会社,福井県,勝山市,滝波町３丁目７０５番地,,18,206,9110034,,,2023-12-12,清算の結了等,,,2015-10-05,1,,,,,ドウセキコウギョウショ,0
1502,6290801001237,登記記録の閉鎖等,0,2023-12-19,2023-12-15,株式会社グランド室町,,株式会社,福岡県,北九州市小倉北区,室町２丁目２番１５号,,40,106,8030812,,,2023-12-15,清算の結了等,,,2015-10-05,1,,,,,グランドムロマチ,0
1513,6360002004107,登記記録の閉鎖等,0,2023-12-19,2023-12-14,有限会社マックス運送,,有限会社,沖縄県,那覇市,曙１丁目１７番１号ポートハイム新９０２号,,47,201,9000002,,,2023-12-14,清算の結了等,,,2015-10-05,1,,,,,マツクスウンソウ,0
1514,6360002011771,登記記録の閉鎖等,0,2023-12-19,2023-12-13,有限会社山和建設,,有限会社,沖縄県,沖縄市,宮里２丁目１４番７号,,47,211,9042165,,,2023-12-13,清算の結了等,,,2015-10-05,1,,,,,サンワケンセツ,0
1521,6370302002668,登記記録の閉鎖等,0,2023-12-19,2023-12-15,有限会社龍神丸石油,,有限会社,宮城県,石巻市,北上町十三浜字白浜３６番地１,,04,202,9860201,,,2023-12-15,清算の結了等,,,2015-10-05,1,,,,,リュウジンマルセキユ,0
1527,6390002009301,登記記録の閉鎖等,0,2023-12-19,2023-12-15,有限会社工作部,,有限会社,山形県,鶴岡市,西目字斎藤１０８番地８,,06,203,9997541,,,2023-12-15,清算の結了等,,,2015-10-05,1,,,,,コウサクブ,0
1532,6420001007632,登記記録の閉鎖等,0,2023-12-19,2023-12-12,株式会社ビナーレ,,株式会社,埼玉県,所沢市,緑町２丁目８番６号,,11,208,3591111,,,2023-12-12,清算の結了等,,,2015-10-05,1,,,,,ビナーレ,0
1540,6440001000759,登記記録の閉鎖等,0,2023-12-19,2023-12-14,株式会社工藤タイル商会,,株式会社,北海道,函館市,山の手３丁目３２番５号,,01,202,0410836,,,2023-12-14,清算の結了等,,,2015-10-05,1,,,,,クドウタイルショウカイ,0
1545,6490002010364,登記記録の閉鎖等,0,2023-12-19,2023-12-15,有限会社ジェイアンドケイベジタブルフード,,有限会社,高知県,土佐市,高岡町甲４１番地１,,39,205,7811101,,,2023-12-15,清算の結了等,,,2015-10-05,1,,,,,ジェイアンドケイベジタブルフード,0
1554,7010003037965,登記記録の閉鎖等,0,2023-12-19,2023-12-12,ザ・ホテリエ・グループ志賀高原合同会社,,合同会社,東京都,千代田区,丸の内１丁目１１番１号パシフィックセンチュリープレイス丸の内１７階,,13,101,1000005,,,2023-12-12,清算の結了等,,,2022-06-27,1,,,,,ザホテリエグループシガコウゲン,0
1555,7010003037981,登記記録の閉鎖等,0,2023-12-19,2023-12-12,ザ・ホテリエ・グループ池袋合同会社,,合同会社,東京都,千代田区,丸の内１丁目１１番１号パシフィックセンチュリープレイス丸の内１７階,,13,101,1000005,,,2023-12-12,清算の結了等,,,2022-06-27,1,,,,,ザホテリエグループイケブクロ,0
1558,7010401092133,登記記録の閉鎖等,0,2023-12-19,2023-12-13,株式会社マリフォーチュン,,株式会社,宮崎県,宮崎市,大字本郷北方２１９２番地２ミオ・アルカサールＡ棟１０５号,,45,201,8800925,,,2023-12-13,清算の結了等,,,2015-10-05,1,,,,,マリフォーチュン,0
1570,7010403021271,登記記録の閉鎖等,0,2023-12-19,2023-12-15,合同会社ＩＳ鳥栖開発１号,,合同会社,東京都,千代田区,霞が関３丁目２番５号,,13,101,1000013,,,2023-12-15,清算の結了等,,,2019-08-15,1,,,,,アイエストスカイハツイチゴウ,0
1574,7010502011272,登記記録の閉鎖等,0,2023-12-19,2023-12-13,有限会社道間染革,,有限会社,東京都,台東区,千束４丁目３９番１２号,,13,106,1110031,,,2023-12-13,清算の結了等,,,2015-10-05,1,,,,,ミチマセンカク,0
1578,7010801020239,登記記録の閉鎖等,0,2023-12-19,2023-12-12,株式会社弘福印刷,,株式会社,東京都,大田区,大森南１丁目１９番１６号,,13,111,1430013,,,2023-12-12,清算の結了等,,,2015-10-05,1,,,,,コウフクインサツ,0
1582,7011001117271,登記記録の閉鎖等,0,2023-12-19,2023-12-13,グロウスター株式会社,,株式会社,東京都,渋谷区,渋谷３丁目１０番１９号渋谷ＭＪ－ＩＩビル６階,00110801,13,113,1500002,,,2023-12-13,清算の結了等,,,2017-07-11,1,,,,,ダロウスター,0
1589,7011101102421,登記記録の閉鎖等,0,2023-12-19,2023-12-11,株式会社Ｐｅｎｇｕｉｎｓｏｕｎｄｓ,,株式会社,東京都,新宿区,西新宿３丁目３番１３号西新宿水間ビル６階,,13,104,1600023,,,2023-12-11,清算の結了等,,,2023-04-06,1,,,,,ペンギンサウンズ,0
1595,7011302005316,登記記録の閉鎖等,0,2023-12-19,2023-12-14,有限会社セブン・エイト翔,,有限会社,東京都,八王子市,めじろ台２丁目１番京王めじろ台マンションＡ棟２０３号室,,13,201,1930833,,,2023-12-14,清算の結了等,,,2015-10-05,1,,,,,セブンエイトショウ,0
1602,7012301006404,登記記録の閉鎖等,0,2023-12-19,2023-12-12,株式会社森谷クラシックバレエ,,株式会社,東京都,町田市,大蔵町２９５９番地６,,13,209,1950062,,,2023-12-12,清算の結了等,,,2015-10-05,1,,,,,モリヤクラシックバレエ,0
1616,7020002021671,登記記録の閉鎖等,0,2023-12-19,2023-12-12,千丸自動車有限会社,,有限会社,神奈川県,横浜市旭区,川井本町９１番地,,14,112,2410803,,,2023-12-12,清算の結了等,,,2015-10-05,1,,,,,センマルジドウシャ,0
1619,7020003016506,登記記録の閉鎖等,0,2023-12-19,2023-12-12,合同会社ＨａｓｈＴａｇ,,合同会社,神奈川県,川崎市麻生区,はるひ野２丁目２－３,,14,137,2150036,,,2023-12-12,清算の結了等,,,2019-08-27,1,,,,,ハッシュタグ,0
1640,7050001027931,登記記録の閉鎖等,0,2023-12-19,2023-12-12,株式会社中藤,,株式会社,茨城県,取手市,中内５８２番地,,08,217,3001543,,,2023-12-12,清算の結了等,,,2015-10-05,1,,,,,ナカフジ,0
1652,7060002018004,登記記録の閉鎖等,0,2023-12-19,2023-12-13,有限会社岩下太平商店,,有限会社,栃木県,芳賀郡益子町,大字益子１６７０番地,,09,342,3214217,,,2023-12-13,清算の結了等,,,2015-10-05,1,,,,,イワシタタヘイショウテン,0
1657,7070002034850,登記記録の閉鎖等,0,2023-12-19,2023-12-14,有限会社清水不動産サービス,,有限会社,群馬県,沼田市,栄町４７番地２,,10,206,3780014,,,2023-12-14,清算の結了等,,,2015-10-05,1,,,,,シミズフドウサンサービス,0
1659,7080003002723,登記記録の閉鎖等,0,2023-12-19,2023-12-15,合同会社フェリークプラナスペルシカ,,合同会社,静岡県,静岡市清水区,西大曲町９－３６,,22,103,4240046,,,2023-12-15,清算の結了等,,,2022-01-18,1,,,,,フェリークプラナスペルシカ,0
1699,7140001104671,登記記録の閉鎖等,0,2023-12-19,2023-12-15,日本ホームズ株式会社,,株式会社,大阪府,豊中市,桜の町６丁目１６番１８号,,27,203,5600054,,,2023-12-15,清算の結了等,,,2017-01-16,1,,,,,ニッポンホームズ,0
1707,7140002041939,登記記録の閉鎖等,0,2023-12-19,2023-12-15,有限会社ななつぼし,,有限会社,兵庫県,尼崎市,南武庫之荘３丁目５番１１号,,28,202,6610033,,,2023-12-15,清算の結了等,,,2015-10-05,1,,,,,ナナツボシ,0
1713,7160002001222,登記記録の閉鎖等,0,2023-12-19,2023-12-13,有限会社鶴屋益光,,有限会社,滋賀県,大津市,坂本４丁目１１番４３号,,25,201,5200113,,,2023-12-13,清算の結了等,,,2015-10-05,1,,,,,ツルヤマスミツ,0
1718,7180001049491,登記記録の閉鎖等,0,2023-12-19,2023-12-13,株式会社巴里ブティック,,株式会社,愛知県,日進市,岩崎台１丁目２２０７番地,,23,230,4700135,,,2023-12-13,合併による解散等,4180001066787,令和５年１２月１３日愛知県日進市岩崎台一丁目２２０７番地カネマツ株式会社（4180001066787）に合併し解散,2015-10-05,1,,,,,パリブティック,0
1731,7180301012554,登記記録の閉鎖等,0,2023-12-19,2023-12-11,安城交通株式会社,,株式会社,愛知県,安城市,御幸本町１７番５号,,23,212,4460032,,,2023-12-11,清算の結了等,,,2015-10-05,1,,,,,アンジョウコウツウ,0
1740,7220001006810,登記記録の閉鎖等,0,2023-12-19,2023-12-15,株式会社三崎ストアー,,株式会社,石川県,金沢市,弥勒町ロ７１番地,,17,201,9203115,,,2023-12-15,清算の結了等,,,2015-10-05,1,,,,,ミサキストアー,0
1742,7230001002189,登記記録の閉鎖等,0,2023-12-19,2023-12-14,富山物産株式会社,,株式会社,富山県,富山市,西番３３番地の４,,16,201,9398104,,,2023-12-14,清算の結了等,,,2015-10-05,1,,,,,トヤマブッサン,0
1750,7260005003461,登記記録の閉鎖等,0,2023-12-19,2023-12-18,新和クリーナー協業組合,,その他の設立登記法人,岡山県,倉敷市,連島町連島６３番地,,33,202,7128011,,,2023-12-18,清算の結了等,,,2015-10-05,1,,,,,,0
1763,7320001017112,登記記録の閉鎖等,0,2023-12-19,2023-12-19,株式会社姫野水産,,株式会社,大分県,大分市,大字三芳４６７番地の２,,44,201,8700030,,,2023-12-19,清算の結了等,,,2019-06-05,1,,,,,ヒメノスイサン,0
1766,7360005001315,登記記録の閉鎖等,0,2023-12-19,2023-12-13,特定非営利活動法人ニューウィンズ,,その他の設立登記法人,沖縄県,豊見城市,字真玉橋３８８番地山里方,,47,212,9010201,,,2023-12-13,清算の結了等,,,2015-10-05,1,,,,,ニューウィンズ,0
1777,7380001028970,登記記録の閉鎖等,0,2023-12-19,2023-12-13,ＱＳ技研株式会社,,株式会社,福島県,安達郡大玉村,大山字仲北１６９番地１７,,07,322,9691301,,,2023-12-13,清算の結了等,,,2018-04-06,1,,,,,キューエスギケン,0
1784,7410002010404,登記記録の閉鎖等,0,2023-12-19,2023-12-08,東北無線有限会社,,有限会社,秋田県,能代市,畠町１０番１号,,05,202,0160821,,,2023-12-08,清算の結了等,,,2015-10-05,1,,,,,トウホクムセン,0
1785,7410002012235,登記記録の閉鎖等,0,2023-12-19,2023-12-13,有限会社ペアーショップ,,有限会社,秋田県,大仙市,刈和野字小野５５番地の１,,05,212,0192112,,,2023-12-13,清算の結了等,,,2015-10-05,1,,,,,ペアーショップ,0
1794,7490001000571,登記記録の閉鎖等,0,2023-12-19,2023-12-14,株式会社ゲンボク市場,,株式会社,高知県,高知市,丸ノ内２丁目１番２３号,,39,201,7800850,,,2023-12-14,清算の結了等,,,2015-10-05,1,,,,,ゲンボクイチバ,0
1800,8010001062329,登記記録の閉鎖等,0,2023-12-19,2023-12-13,日本データサービス株式会社,,株式会社,東京都,中央区,銀座１丁目１８番２号,,13,102,1040061,,,2023-12-13,清算の結了等,,,2015-10-05,1,,,,,ニホンデータサービス,0
1815,8010401146598,登記記録の閉鎖等,0,2023-12-19,2023-12-15,花鈿谷株式会社,,株式会社,東京都,渋谷区,恵比寿西２丁目１９－９フランセスビル１階,,13,113,1500021,,,2023-12-15,清算の結了等,,,2019-07-04,1,,,,,カデンコク,0
1816,8010401161250,登記記録の閉鎖等,0,2023-12-19,2023-12-12,株式会社アストレイク,,株式会社,東京都,港区,南青山１丁目１番１号新青山ビル西館７階,,13,103,1070062,,,2023-12-12,清算の結了等,,,2021-07-05,1,,,,,アストレイク,0
1819,8010403023275,登記記録の閉鎖等,0,2023-12-19,2023-12-12,デジタル・インダストリー・キャピタル合同会社,,合同会社,東京都,港区,港南１丁目６番３４号,,13,103,1080075,,,2023-12-12,清算の結了等,,,2020-07-17,1,,,,,デジタルインダストリーキャピタル,0
1823,8010901022646,登記記録の閉鎖等,0,2023-12-19,2023-12-11,株式会社ＱｕｒｅＣｒａｆｔ,,株式会社,東京都,世田谷区,代田６丁目８番３３号,,13,112,1550033,,,2023-12-11,清算の結了等,,,2015-10-05,1,,,,,キュアクラフト,0
1858,8013301032793,登記記録の閉鎖等,0,2023-12-19,2023-12-13,株式会社モイスト,,株式会社,宮崎県,宮崎市,大字恒久４９５４番地３Ｍ－ｃｉｔｙ恒久６０２号,,45,201,8800916,,,2023-12-13,清算の結了等,,,2015-10-05,1,,,,,モイスト,0
1877,8021002038382,登記記録の閉鎖等,0,2023-12-19,2023-12-15,有限会社竹原建築,,有限会社,神奈川県,秦野市,室町３番１１号,,14,211,2570033,,,2023-12-15,清算の結了等,,,2015-10-05,1,,,,,タケハラケンチク,0
1889,8040005001602,登記記録の閉鎖等,0,2023-12-19,2023-12-12,特定非営利活動法人人間未来二十一,,その他の設立登記法人,千葉県,千葉市美浜区,中瀬２丁目６番ワールドビジネスガーデン西館３１階株式会社コスメルシィジャパン内,,12,106,2610023,,,2023-12-12,清算の結了等,,,2015-10-05,1,,,,,ニンゲンミライニジュウイチ,0
1892,8060001013376,登記記録の閉鎖等,0,2023-12-19,2023-12-13,株式会社綜研,,株式会社,栃木県,矢板市,富田５４８番地４４,,09,211,3292145,,,2023-12-13,清算の結了等,,,2015-10-05,1,,,,,ソウケン,0
1896,8080001019082,登記記録の閉鎖等,0,2023-12-19,2023-12-15,株式会社花見茶屋,,株式会社,静岡県,藤枝市,下藪田４０８番地の１,,22,214,4260201,,,2023-12-15,清算の結了等,,,2015-10-05,1,,,,,ハナミチャヤ,0
1897,8080003002078,登記記録の閉鎖等,0,2023-12-19,2023-12-15,合同会社みやこ,,合同会社,静岡県,静岡市葵区,一番町１２番地,,22,101,4200071,,,2023-12-15,清算の結了等,,,2018-01-29,1,,,,,ミヤコ,0
1899,8080102008819,登記記録の閉鎖等,0,2023-12-19,2023-12-14,有限会社ヤマセミ企画,,有限会社,静岡県,伊豆市,下白岩３７１番地の７,,22,222,4102501,,,2023-12-14,清算の結了等,,,2015-10-05,1,,,,,ヤマセミキカク,0
1900,8080401014212,登記記録の閉鎖等,0,2023-12-19,2023-12-13,海老原製茶株式会社,,株式会社,静岡県,掛川市,中央２丁目９番地の８,,22,213,4360056,,,2023-12-13,清算の結了等,,,2015-10-05,1,,,,,エビハラセイチャ,0
1903,8080402001787,登記記録の閉鎖等,0,2023-12-19,2023-12-14,有限会社岡本工房,,有限会社,静岡県,浜松市南区,恩地町３４９番地の１,,22,134,4300814,,,2023-12-14,清算の結了等,,,2015-10-05,1,,,,,オカモトコウボウ,0
1918,8120001061451,登記記録の閉鎖等,0,2023-12-19,2023-12-13,エンドル商事株式会社,,株式会社,大阪府,大阪市北区,堂島２丁目２番２２号,,27,127,5300003,,,2023-12-13,清算の結了等,,,2015-10-05,1,,,,,エンドルショウジ,0
1934,8120003006859,登記記録の閉鎖等,0,2023-12-19,2023-12-13,合同会社マーレ,,合同会社,大阪府,大阪市旭区,新森４丁目２３番１０号,,27,117,5350022,,,2023-12-13,清算の結了等,,,2015-10-05,1,,,,,マーレ,0
1939,8120902008947,登記記録の閉鎖等,0,2023-12-19,2023-12-14,有限会社虎丸,,有限会社,大阪府,吹田市,南吹田２丁目１０番５号,,27,205,5640043,,,2023-12-14,清算の結了等,,,2015-10-05,1,,,,,トラマル,0
1950,8140002021849,登記記録の閉鎖等,0,2023-12-19,2023-12-13,有限会社コネット,,有限会社,兵庫県,神戸市西区,月が丘１丁目４番２５号,,28,111,6512217,,,2023-12-13,清算の結了等,,,2015-10-05,1,,,,,コネット,0
1951,8140003009273,登記記録の閉鎖等,0,2023-12-19,2023-12-14,合同会社パソコン教室かめちゃん,,合同会社,兵庫県,姫路市,勝原区山戸２２１番地２,,28,201,6711214,,,2023-12-14,清算の結了等,,,2015-10-05,1,,,,,パソコンキョウシツカメチャン,0
1961,8190001016093,登記記録の閉鎖等,0,2023-12-19,2023-12-14,株式会社フジマネジメントセンター,,株式会社,三重県,四日市市,昌栄町１３番６号,,24,202,5100057,,,2023-12-14,清算の結了等,,,2015-10-05,1,,,,,フジマネジメントセンター,0
1967,8200002011678,登記記録の閉鎖等,0,2023-12-19,2023-12-15,有限会社アック,,有限会社,岐阜県,羽島市,福寿町本郷１４９９番地１,,21,209,5016254,,,2023-12-15,清算の結了等,,,2015-10-05,1,,,,,アック,0
1970,8220001015182,登記記録の閉鎖等,0,2023-12-19,2023-12-18,株式会社榊産業医事務所,00078350,株式会社,石川県,金沢市,伏見台１丁目２番３１号,,17,201,9218177,,,2023-12-18,清算の結了等,,,2015-10-05,1,,,,,サカキサンギョウイジムショ,0
1980,8260001016557,登記記録の閉鎖等,0,2023-12-19,2023-12-18,株式会社サンクスＤ＆Ａ,,株式会社,岡山県,倉敷市,連島町連島６３番地,,33,202,7128011,,,2023-12-18,清算の結了等,,,2015-10-05,1,,,,,サンクスディアンドエー,0
1985,8280005007146,登記記録の閉鎖等,0,2023-12-19,2023-12-15,特定非営利活動法人らとこんた,,その他の設立登記法人,島根県,隠岐郡隠岐の島町,西町名田の五１番地５,,32,528,6850014,,,2023-12-15,清算の結了等,,,2016-11-02,1,,,,,ラトコンタ,0
1994,8330001011740,登記記録の閉鎖等,0,2023-12-19,2023-12-12,日本テック株式会社,,株式会社,熊本県,玉名郡和水町,津田３１１５番地１,,43,369,8610921,,,2023-12-12,清算の結了等,,,2015-10-05,1,,,,,ニホンテック,0
2009,8380001014557,登記記録の閉鎖等,0,2023-12-19,2023-12-14,いわき文化交流パートナーズ株式会社,,株式会社,福島県,いわき市,平字大町７番地の１,,07,204,9708026,,,2023-12-14,清算の結了等,,,2015-10-05,1,,,,,イワキブンカコウリュウパートナーズ,0
2011,8410002007093,登記記録の閉鎖等,0,2023-12-19,2023-12-13,有限会社今野薬品,,有限会社,秋田県,由利本荘市,岩谷町字川端１０２番地の１,,05,210,0180711,,,2023-12-13,清算の結了等,,,2015-10-05,1,,,,,コンノヤクヒン,0
2013,8420002008297,登記記録の閉鎖等,0,2023-12-19,2023-12-13,有限会社八戸ダイドー自販機,,有限会社,青森県,八戸市,沼館２丁目１２番５号,,02,203,0310071,,,2023-12-13,清算の結了等,,,2015-10-05,1,,,,,ハチノヘダイドージハンキ,0
2014,8430001020590,登記記録の閉鎖等,0,2023-12-19,2023-12-07,株式会社中央広版社,,株式会社,北海道,札幌市中央区,北六条西２８丁目３番１６号,,01,101,0640826,,,2023-12-07,清算の結了等,,,2015-10-05,1,,,,,チュウオウコウハンシャ,0
2015,8430001038014,登記記録の閉鎖等,0,2023-12-19,2023-12-11,株式会社マドハン,,株式会社,北海道,札幌市北区,篠路町太平２３７－１,,01,102,0028051,,,2023-12-11,清算の結了等,,,2015-10-05,1,,,,,マドハン,0
2017,8430005009184,登記記録の閉鎖等,0,2023-12-19,2023-12-08,特定非営利活動法人さくら,,その他の設立登記法人,北海道,苫小牧市,字錦岡２７０番地の２９７,,01,213,0591275,,,2023-12-08,清算の結了等,,,2015-10-05,1,,,,,サクラ,0
2020,8460305001697,登記記録の閉鎖等,0,2023-12-19,2023-12-15,道東読売会事業協同組合,,その他の設立登記法人,北海道,斜里郡斜里町,文光町６０番地８,,01,545,0994116,,,2023-12-15,清算の結了等,,,2015-10-05,1,,,,,ドウトウヨミウリカイ,0
2021,8500002000007,登記記録の閉鎖等,0,2023-12-19,2023-12-15,有限会社一柳石油店,,有限会社,愛媛県,松山市,小浜１０５５番地３,,38,201,7914502,,,2023-12-15,清算の結了等,,,2015-10-05,1,,,,,イチリュウセキユテン,0
2042,9010701023934,登記記録の閉鎖等,0,2023-12-19,2023-12-13,ミスティック・ワークス株式会社,,株式会社,宮崎県,都城市,宮丸町３１３１番地２７宮丸マンションきはらＢ２０１,,45,202,8850078,,,2023-12-13,清算の結了等,,,2015-10-05,1,,,,,ミスティックワークス,0
2047,9010802012282,登記記録の閉鎖等,0,2023-12-19,2023-12-13,有限会社富士標識製作所,,有限会社,東京都,大田区,池上３丁目６番１４号,,13,111,1460082,,,2023-12-13,清算の結了等,,,2015-10-05,1,,,,,フジヒョウシキセイサクショ,0
2048,9010805000615,登記記録の閉鎖等,0,2023-12-19,2023-12-12,医療法人社団健晴会,,その他の設立登記法人,東京都,大田区,上池台２丁目３２番１号小林ビル３階,,13,111,1450064,,,2023-12-12,清算の結了等,,,2015-10-05,1,,,,,ケンセイカイ,0
2067,9011501026838,登記記録の閉鎖等,0,2023-12-19,2023-12-15,森田優株式会社,,株式会社,東京都,板橋区,熊野町１４－２プリオール熊野町６０１号,,13,119,1730025,,,2023-12-15,清算の結了等,,,2021-04-15,1,,,,,モリタユウ,0
2076,9012801016413,登記記録の閉鎖等,0,2023-12-19,2023-12-13,ＴＢＯＮプランニング株式会社,,株式会社,東京都,品川区,戸越５丁目１８番６号セレニティ戸越２Ｆ,,13,109,1420041,,,2023-12-13,清算の結了等,,,2015-10-05,1,,,,,ティーボンプランニング,0
2084,9020001013890,登記記録の閉鎖等,0,2023-12-19,2023-12-12,株式会社森鉄工所,,株式会社,神奈川県,横浜市南区,堀ノ内町２丁目１３８番地の１,,14,105,2320042,,,2023-12-12,清算の結了等,,,2015-10-05,1,,,,,モリテッコウショ,0
2091,9020002031578,登記記録の閉鎖等,0,2023-12-19,2023-12-13,有限会社丸十冷機,,有限会社,神奈川県,横浜市南区,別所６丁目９番３号,,14,105,2320064,,,2023-12-13,清算の結了等,,,2015-10-05,1,,,,,マルジュウレイキ,0
2092,9020002063852,登記記録の閉鎖等,0,2023-12-19,2023-11-20,有限会社トヨシマ保険企画,,有限会社,神奈川県,横浜市緑区,中山町８２２番地３８,,14,113,2260011,,,2023-11-20,清算の結了等,,,2015-10-05,1,,,,,,0
2129,9070005007463,登記記録の閉鎖等,0,2023-12-19,2023-12-12,弁護士法人井坂法律事務所,,その他の設立登記法人,群馬県,高崎市,中居町１丁目１７番地３２リベルタス２０１号,,10,202,3700852,,,2023-12-12,清算の結了等,,,2015-10-05,1,,,,,イサカホウリツジムショ,0
2143,9080402021355,登記記録の閉鎖等,0,2023-12-19,2023-12-13,有限会社ＳＨＩ車検センター,,有限会社,静岡県,磐田市,新島８９２番地２,,22,211,4380062,,,2023-12-13,清算の結了等,,,2015-10-05,1,,,,,エスエイチアイシャケンセンター,0
2144,9080403002288,登記記録の閉鎖等,0,2023-12-19,2023-12-13,ＡＢＳ合資会社,,合資会社,静岡県,浜松市北区,新都田３丁目１０番４号,,22,135,4312103,,,2023-12-13,清算の結了等,,,2015-10-05,1,,,,,エービーエス,0
2149,9110002019977,登記記録の閉鎖等,0,2023-12-19,2023-12-15,有限会社星幸金型,,有限会社,新潟県,燕市,花見１０６８番地,,15,213,9591280,,,2023-12-15,清算の結了等,,,2015-10-05,1,,,,,ホシコウカナガタ,0
2150,9110002027311,登記記録の閉鎖等,0,2023-12-19,2023-12-15,有限会社かねはち,,有限会社,新潟県,長岡市,長町１丁目１６７２番地１,,15,202,9400053,,,2023-12-15,清算の結了等,,,2015-10-05,1,,,,,カネハチ,0
2154,9120001165375,登記記録の閉鎖等,0,2023-12-19,2023-12-11,株式会社世紀工業,,株式会社,大阪府,大阪市生野区,中川西２丁目２番２６号,,27,116,5440032,,,2023-12-11,清算の結了等,,,2015-10-05,1,,,,,セイキコウギョウ,0
2157,9120001198037,登記記録の閉鎖等,0,2023-12-19,2023-12-13,西日本電源株式会社,,株式会社,大阪府,大阪市中央区,淡路町３丁目１番８号,,27,128,5410047,,,2023-12-13,清算の結了等,,,2016-05-06,1,,,,,ニシニホンデンゲン,0
2158,9120001247413,登記記録の閉鎖等,0,2023-12-19,2023-12-18,株式会社ＴＲＹＡＮＧＬＥ,,株式会社,大阪府,大阪市北区,曾根崎新地１丁目３番３０号北新地幸田ビル４０４,,27,127,5300002,,,2023-12-18,清算の結了等,,,2022-07-19,1,,,,,トライアングル,0
2167,9120002007246,登記記録の閉鎖等,0,2023-12-19,2023-12-18,有限会社東野,,有限会社,奈良県,生駒市,小瀬町５０６番地２４,,29,209,6300223,,,2023-12-18,清算の結了等,,,2015-10-05,1,,,,,ヒガシノ,0
2199,9160002011789,登記記録の閉鎖等,0,2023-12-19,2023-12-13,有限会社前川住設,,有限会社,滋賀県,高島市,新旭町熊野本１丁目１６番地５,,25,212,5201532,,,2023-12-13,清算の結了等,,,2015-10-05,1,,,,,マエガワジュウセツ,0
2203,9180002092282,登記記録の閉鎖等,0,2023-12-19,2023-12-14,有限会社ぎふ初寿司七宝分店,,有限会社,愛知県,あま市,七宝町下田江西１１番地の５,,23,237,4970012,,,2023-12-14,清算の結了等,,,2015-10-05,1,,,,,ギフハツズシシッポウブンテン,0
2209,9180301013922,登記記録の閉鎖等,0,2023-12-19,2023-12-11,黒野工業株式会社,,株式会社,愛知県,刈谷市,司町５丁目７０番地,,23,210,4480834,,,2023-12-11,清算の結了等,,,2015-10-05,1,,,,,クロノコウギョウ,0
2213,9190003004211,登記記録の閉鎖等,0,2023-12-19,2023-12-14,合同会社佑成農園,,合同会社,三重県,度会郡玉城町,日向１８３番地３,,24,461,5190405,,,2023-12-14,清算の結了等,,,2023-01-27,1,,,,,ユウセイノウエン,0
2217,9210001017823,登記記録の閉鎖等,0,2023-12-19,2023-12-14,株式会社メイカ,,株式会社,福井県,福井市,宝永２丁目４番３号,,18,201,9100004,,,2023-12-14,清算の結了等,,,2019-12-12,1,,,,,メイカ,0
2218,9210001018251,登記記録の閉鎖等,0,2023-12-19,2023-12-14,グローバルトレード株式会社,,株式会社,福井県,福井市,宝永２丁目４番３号,,18,201,9100004,,,2023-12-14,清算の結了等,,,2020-12-16,1,,,,,グローバルトレード,0
2221,9230001017210,登記記録の閉鎖等,0,2023-12-19,2023-12-15,株式会社ネクストエコプラン,,株式会社,富山県,富山市,桜橋通り３－１富山電気ビルディング本館２Ｆ,,16,201,9300004,,,2023-12-15,清算の結了等,,,2017-12-04,1,,,,,ネクストエコプラン,0
2226,9250003001763,登記記録の閉鎖等,0,2023-12-19,2023-12-18,合同会社みのり,,合同会社,山口県,下関市,宮田町１丁目７番１８号,,35,201,7500002,,,2023-12-18,清算の結了等,,,2015-10-05,1,,,,,ミノリ,0
2227,9260001035622,登記記録の閉鎖等,0,2023-12-19,2023-12-18,ＭＯＴＨＥＲ　ＬＵＣＫＳ株式会社,,株式会社,岡山県,井原市,高屋町３丁目２番地５,,33,207,7150024,,,2023-12-18,清算の結了等,,,2021-06-07,1,,,,,マザーラックス,0
2235,9290001081754,登記記録の閉鎖等,0,2023-12-19,2023-12-08,仲道建設株式会社,,株式会社,福岡県,朝倉郡東峰村,大字福井３４０番地,,40,448,8381702,,,2023-12-08,清算の結了等,,,2018-06-08,1,,,,,ナカミチケンセツ,0
2248,9310001015858,登記記録の閉鎖等,0,2023-12-19,2023-12-18,株式会社ＡＲＩＴＡ,,株式会社,長崎県,長崎市,畝刈町１６１３番地３１８,,42,201,8512212,,,2023-12-18,清算の結了等,,,2018-12-04,1,,,,,,0
2252,9310002014891,登記記録の閉鎖等,0,2023-12-19,2023-12-18,株式会社諫早観光ホテル,,株式会社,長崎県,諫早市,金谷町８番７号,,42,204,8540004,,,2023-12-18,清算の結了等,,,2015-10-05,1,,,,,,0
2256,9330002017785,登記記録の閉鎖等,0,2023-12-19,2023-12-13,有限会社志満さき,,有限会社,熊本県,菊池市,隈府９４６番地,,43,210,8611331,,,2023-12-13,清算の結了等,,,2015-10-05,1,,,,,シマサキ,0
2258,9330005009326,登記記録の閉鎖等,0,2023-12-19,2023-12-12,ＮＰＯ法人子すも・どるふぃん,,その他の設立登記法人,熊本県,天草市,有明町大浦６８３番地,,43,215,8617203,,,2023-12-12,清算の結了等,,,2015-10-05,1,,,,,コスモドルフィン,0
2263,9370001038597,登記記録の閉鎖等,0,2023-12-19,2023-12-14,株式会社グッドプランシステム,,株式会社,宮城県,仙台市太白区,人来田２丁目７番６号,,04,104,9820222,,,2023-12-14,清算の結了等,,,2015-10-05,1,,,,,,0
2267,9370401000529,登記記録の閉鎖等,0,2023-12-19,2023-12-13,株式会社ティーエスピー,,株式会社,宮城県,登米市,中田町石森字野元３０番地,,04,212,9870601,,,2023-12-13,清算の結了等,,,2015-10-05,1,,,,,ティーエスピー,0
2277,9400502000135,登記記録の閉鎖等,0,2023-12-19,2023-12-06,有限会社一関歯研,,有限会社,岩手県,一関市,三関字仲田２５番地３,,03,209,0210821,,,2023-12-06,清算の結了等,,,2015-10-05,1,,,,,イチノセキシケン,0
2278,9400502001315,登記記録の閉鎖等,0,2023-12-19,2023-12-11,有限会社北進冷蔵,,有限会社,岩手県,一関市,千厩町千厩字下駒場３０２番地６,00085863,03,209,0290803,,,2023-12-11,清算の結了等,,,2015-10-05,1,,,,,ホクシンレイゾウ,0
2279,9410001006913,登記記録の閉鎖等,0,2023-12-19,2023-12-15,株式会社万成酵素,,株式会社,東京都,八王子市,北野町５８４番地１ネオコーポ八王子８０８号,,13,201,1920906,,,2023-12-15,清算の結了等,,,2015-10-05,1,,,,,バンセイコウソ,0
