sequenceNumber,corporateNumber,process,correct,updateDate,changeDate,name,nameImageId,kind,prefectureName,cityName,streetNumber,addressImageId,prefectureCode,cityCode,postCode,addressOutside,addressOutsideImageId,closeDate,closeCause,successorCorporateNumber,changeCause,assignmentDate,latest,enName,enPrefectureName,enCityName,enAddressOutside,furigana,hihyoji
4,1010001258627,新規,0,2025-09-29,2025-09-29,ＪＸＧＯ株式会社,,株式会社,東京都,文京区,千石４丁目１４番９号,,13,105,1120011,,,,,,,2025-09-29,1,,,,,ジェイエックスジーオー,0
5,1010001258668,新規,0,2025-09-29,2025-09-29,株式会社アイプレット,,株式会社,東京都,千代田区,麹町１丁目４番４号２Ｆ,,13,101,1020083,,,,,,,2025-09-29,1,,,,,アイプレット,0
6,1010001258676,新規,0,2025-09-29,2025-09-29,株式会社まちとも,,株式会社,東京都,中央区,銀座１丁目１２番４号Ｎ＆ＥＢＬＤ．６Ｆ,,13,102,1040061,,,,,,,2025-09-29,1,,,,,マチトモ,0
7,1010001258726,新規,0,2025-09-29,2025-09-29,瑞陽院株式会社,,株式会社,東京都,千代田区,平河町１丁目６番１５号ＵＳビル８Ｆ,,13,101,1020093,,,,,,,2025-09-29,1,,,,,ズイヨウイン,0
8,1010001258742,新規,0,2025-09-29,2025-09-29,Ａｌｐｈａ　Ｓｑｕａｒｅｄ　Ｇｒｏｕｐ　Ｊａｐａｎ株式会社,,株式会社,東京都,千代田区,丸の内１丁目４番１号丸の内永楽ビルディング２６階,,13,101,1000005,,,,,,,2025-09-29,1,,,,,アルファスクエアドグループジャパン,0
9,1010001258775,新規,0,2025-09-29,2025-09-29,君檸株式会社,,株式会社,東京都,中央区,東日本橋３丁目９番１０号ＤＩＮＯ日本橋ビル,,13,102,1030004,,,,,,,2025-09-29,1,,,,,クンネイ,0
10,1010001258800,新規,0,2025-09-29,2025-09-29,ＩＮＯＶＡ株式会社,,株式会社,東京都,中央区,日本橋蛎殻町２丁目１５番１号ＴＲＵＳＴＶＡＬＵＥＩＩ４Ｆ,00140840,13,102,1030014,,,,,,,2025-09-29,1,,,,,イノヴァ,0
11,1010001258890,新規,0,2025-09-29,2025-09-29,株式会社ＢＴ,,株式会社,東京都,千代田区,丸の内１丁目６番１号,,13,101,1000005,,,,,,,2025-09-29,1,,,,,ビーティー,0
12,1010001258899,新規,0,2025-09-29,2025-09-29,ねこねこパラダイス株式会社,,株式会社,東京都,千代田区,外神田５丁目１－１０千住ビルＢ１Ｆ／２Ｆ,,13,101,1010021,,,,,,,2025-09-29,1,,,,,ネコネコパラダイス,0
13,1010003048828,新規,0,2025-09-29,2025-09-29,宮崎ホテルマネジメント合同会社,,合同会社,東京都,千代田区,霞が関３丁目２番１号,,13,101,1000013,,,,,,,2025-09-29,1,,,,,ミヤザキホテルマネジメント,0
24,1010403036143,新規,0,2025-09-29,2025-09-29,合同会社伊達ゴールデンＤＣ,,合同会社,東京都,港区,新橋４丁目２４番３号エムエフ新橋９０１号,,13,103,1050004,,,,,,,2025-09-29,1,,,,,ダテゴールデンディーシー,0
25,1010403036151,新規,0,2025-09-29,2025-09-29,ＵＩＢ　Ｋｏｔｏ　ＭＬ合同会社,,合同会社,東京都,港区,元赤坂１丁目１番７号,,13,103,1070051,,,,,,,2025-09-29,1,,,,,ユーアイビーコウトウエムエル,0
27,1010601068013,新規,0,2025-09-29,2025-09-29,妙奇設計株式会社,,株式会社,東京都,墨田区,両国１丁目１２番１２号塚田ビル３階,,13,107,1300026,,,,,,,2025-09-29,1,,,,,ミョウキセッケイ,0
28,1010603011813,新規,0,2025-09-29,2025-09-29,華彩合同会社,,合同会社,東京都,墨田区,業平２丁目１２－３プティアムススカイツリー前１０１号室,,13,107,1300002,,,,,,,2025-09-29,1,,,,,カサイ,0
34,1011001171910,新規,0,2025-09-29,2025-09-29,ＡＣＸＥＲＡ株式会社,,株式会社,東京都,渋谷区,広尾１丁目２番地１号ヒカリビル４階,,13,113,1500012,,,,,,,2025-09-29,1,,,,,アクセラ,0
35,1011001172719,新規,0,2025-09-29,2025-09-29,エーシン通商株式会社,,株式会社,東京都,目黒区,目黒本町５丁目２０番７号ＫＯＫＩ武蔵小山ビル,,13,110,1520002,,,,,,,2025-09-29,1,,,,,エーシンツウショウ,0
38,1011003022442,新規,0,2025-09-29,2025-09-29,ＮｅｘＣｏｒｅ合同会社,,合同会社,東京都,渋谷区,道玄坂１丁目１０番８号渋谷道玄坂東急ビル２Ｆ－Ｃ,,13,113,1500043,,,,,,,2025-09-29,1,,,,,ネクスコア,0
39,1011101113291,新規,0,2025-09-29,2025-09-29,ＬＩＮＮ株式会社,,株式会社,東京都,新宿区,下落合２丁目２番２－１１９号,,13,104,1610033,,,,,,,2025-09-29,1,,,,,リン,0
40,1011101113300,新規,0,2025-09-29,2025-09-29,株式会社ＩＬ　ＣＵＯＲＥ,,株式会社,東京都,新宿区,新小川町９番１９号,,13,104,1620814,,,,,,,2025-09-29,1,,,,,イルクオーレ,0
41,1011101113341,新規,0,2025-09-29,2025-09-29,株式会社ｍｏｇｕｍｏｇｕ　ｓｔｕｄｉｏ,,株式会社,東京都,新宿区,早稲田鶴巻町５２０番地１０新宿早稲田レーベル５０２,,13,104,1620041,,,,,,,2025-09-29,1,,,,,モグモグスタジオ,0
42,1011101113374,新規,0,2025-09-29,2025-09-29,ＭＡＫＯＴＯ株式会社,,株式会社,東京都,新宿区,新宿２丁目１２番１６号セントフォービル４０２－Ｄ,,13,104,1600022,,,,,,,2025-09-29,1,,,,,マコト,0
43,1011103016410,新規,0,2025-09-29,2025-09-29,合同会社アルオリ,,合同会社,東京都,新宿区,西新宿３丁目３－１３水間ビル６階,,13,104,1600023,,,,,,,2025-09-29,1,,,,,アルオリ,0
44,1011103016451,新規,0,2025-09-29,2025-09-29,ＴＯＰＤＯＧ合同会社,,合同会社,東京都,新宿区,西新宿６丁目５番１号新宿アイランドタワー２階,,13,104,1600023,,,,,,,2025-09-29,1,,,,,トップドッグ,0
51,1011601029005,新規,0,2025-09-29,2025-09-29,自得琴社株式会社,,株式会社,東京都,練馬区,石神井台４丁目１０番２０－２１８号,,13,120,1770045,,,,,,,2025-09-29,1,,,,,ジトクコトシャ,0
52,1011601029021,新規,0,2025-09-29,2025-09-29,株式会社ＡＬＬ　ＩＮ,,株式会社,東京都,練馬区,春日町６丁目１８番２２号,,13,120,1790074,,,,,,,2025-09-29,1,,,,,オールイン,0
54,1011603004856,新規,0,2025-09-29,2025-09-29,合同会社ＭＹホールディングス,,合同会社,東京都,練馬区,大泉学園町５丁目３０番９号,,13,120,1780061,,,,,,,2025-09-29,1,,,,,エムワイホールディングス,0
55,1011603004864,新規,0,2025-09-29,2025-09-29,ＰｌｕｓＯｎｅ　Ｅｎｇｉｎｅｅｒｉｎｇ合同会社,,合同会社,東京都,練馬区,関町北５丁目１０番２８号,,13,120,1770051,,,,,,,2025-09-29,1,,,,,プラスワンエンジニアリング,0
57,1011801046790,新規,0,2025-09-29,2025-09-29,株式会社Ｂｌｉｓｅ,,株式会社,東京都,足立区,千住桜木１丁目２番３号,,13,121,1200045,,,,,,,2025-09-29,1,,,,,ブライズ,0
58,1011801046808,新規,0,2025-09-29,2025-09-29,楽生株式会社,,株式会社,東京都,足立区,足立２丁目２０－１２－３０２号室,,13,121,1200015,,,,,,,2025-09-29,1,,,,,ラクセイ,0
59,1011805003482,新規,0,2025-09-29,2025-09-29,一般社団法人ＹＥＬＬ　ｆｏｒ　ＡＬＬ,,その他の設立登記法人,東京都,葛飾区,小菅２丁目３２番５号,,13,122,1240001,,,,,,,2025-09-29,1,,,,,エールフォーオール,0
60,1012301014544,新規,0,2025-09-29,2025-09-29,株式会社Ｃａｌｉｃｏｆａｎ,,株式会社,東京都,町田市,南町田３丁目３０番１－５０２号,,13,209,1940005,,,,,,,2025-09-29,1,,,,,キャリコファン,0
70,1020001164816,新規,0,2025-09-29,2025-09-29,株式会社Ｂｅａｕｔｙ　Ｄｉａｍｏｎｄｓ,,株式会社,神奈川県,川崎市幸区,下平間８４－３,,14,132,2120053,,,,,,,2025-09-29,1,,,,,ビューティーダイヤモンズ,0
71,1020001164849,新規,0,2025-09-29,2025-09-29,ルミナ株式会社,,株式会社,神奈川県,川崎市川崎区,田町２丁目４－１４ＩＶ棟７０４号,00140832,14,131,2100822,,,,,,,2025-09-29,1,,,,,ルミナ,0
72,1020001164964,新規,0,2025-09-29,2025-09-29,株式会社セールス・バリューコネクト,,株式会社,神奈川県,横浜市磯子区,森６丁目５－４ハーミットクラブハウスリアンＡ棟２０２,,14,107,2350023,,,,,,,2025-09-29,1,,,,,セールスバリューコネクト,0
75,1030001168618,新規,0,2025-09-29,2025-09-29,スカイ貿易株式会社,,株式会社,埼玉県,北葛飾郡杉戸町,大字大塚１９１－１,,11,464,3450022,,,,,,,2025-09-29,1,,,,,スカイボウエキ,0
76,1030001168832,新規,0,2025-09-29,2025-09-29,Ａｙｚｅｌ　Ｔｒａｄｉｎｇ株式会社,,株式会社,埼玉県,久喜市,菖蒲町小林３１４２－３,,11,232,3460115,,,,,,,2025-09-29,1,,,,,アゼルトレーディング,0
82,1030003027680,新規,0,2025-09-29,2025-09-29,合同会社まるみリフォーム不動産,,合同会社,埼玉県,川越市,大字今福１４５７番地２５,,11,201,3501151,,,,,,,2025-09-29,1,,,,,マルミリフォームフドウサン,0
83,1030003027697,新規,0,2025-09-29,2025-09-29,合同会社ａｉｍ,,合同会社,埼玉県,越谷市,越ヶ谷３丁目３－１６－２Ｆ,,11,222,3430813,,,,,,,2025-09-29,1,,,,,エイム,0
86,1040001140641,新規,0,2025-09-29,2025-09-29,株式会社メリーヤ,,株式会社,千葉県,鎌ケ谷市,くぬぎ山４丁目３－１ニューコートくぬぎ山１０４,,12,224,2730128,,,,,,,2025-09-29,1,,,,,メリーヤ,0
89,1040003028587,新規,0,2025-09-29,2025-09-29,グレイモーターズ合同会社,,合同会社,千葉県,野田市,東金野井１０１０番地の６－１Ｆ,,12,208,2700236,,,,,,,2025-09-29,1,,,,,グレイモーターズ,0
90,1040003028604,新規,0,2025-09-29,2025-09-29,合同会社加勢糸満プロジェクト,,合同会社,千葉県,船橋市,本町２丁目１０番１４号,,12,204,2730005,,,,,,,2025-09-29,1,,,,,カセイイトマンプロジェクト,0
91,1040003028629,新規,0,2025-09-29,2025-09-29,合同会社浦安シーサイドレジデンス,,合同会社,千葉県,浦安市,北栄３丁目３７番３号－２０８,,12,227,2790002,,,,,,,2025-09-29,1,,,,,ウラヤスシーサイドレジデンス,0
93,1050001057364,新規,0,2025-09-29,2025-09-29,株式会社ＷＨＡＴＳ,,株式会社,茨城県,つくばみらい市,富士見ヶ丘１丁目２４番地１０,,08,235,3002417,,,,,,,2025-09-29,1,,,,,ワッツ,0
97,1060001038611,新規,0,2025-09-29,2025-09-29,株式会社サブザワリートレーディング,,株式会社,栃木県,栃木市,岩舟町静和１０番地１,,09,203,3294304,,,,,,,2025-09-29,1,,,,,サブザワリートレーディング,0
98,1060003005774,新規,0,2025-09-29,2025-09-29,ＡＭＡＴＵＬＬＡＨ合同会社,,合同会社,栃木県,佐野市,久保町５７－２,,09,204,3270845,,,,,,,2025-09-29,1,,,,,アマトゥッラ,0
99,1060003005782,新規,0,2025-09-29,2025-09-29,合同会社エーワンコーポレーション,,合同会社,栃木県,小山市,大字間々田２４３６－１６,,09,208,3290205,,,,,,,2025-09-29,1,,,,,エーワンコーポレーション,0
100,1070001043379,新規,0,2025-09-29,2025-09-29,株式会社ＭＯＯＮ,,株式会社,群馬県,渋川市,渋川２６０９番地７,,10,208,3770008,,,,,,,2025-09-29,1,,,,,ムーン,0
105,1100001038978,新規,0,2025-09-29,2025-09-29,アリモータース株式会社,,株式会社,長野県,小諸市,大字森山１４３番地２グランドール２０３,,20,208,3840085,,,,,,,2025-09-29,1,,,,,アリモータース,0
106,1100001038986,新規,0,2025-09-29,2025-09-29,株式会社ＬＩＣＴ,,株式会社,長野県,佐久市,下平尾１３６０番地２,,20,217,3850003,,,,,,,2025-09-29,1,,,,,リクト,0
108,1100003008392,新規,0,2025-09-29,2025-09-29,Ｌｅｏｃａｄｉｏ　Ｎａｇａｎｏ合同会社,,合同会社,長野県,北安曇郡白馬村,大字神城字二ツ屋２７７２１番地５７５,,20,485,3999211,,,,,,,2025-09-29,1,,,,,レオカディオナガノ,0
113,1120001280000,新規,0,2025-09-29,2025-09-29,スマートロジス株式会社,,株式会社,大阪府,大阪市阿倍野区,丸山通１丁目２番４５、ハウス佑１０８,,27,119,5450042,,,,,,,2025-09-29,1,,,,,スマートロジス,0
114,1120001280041,新規,0,2025-09-29,2025-09-29,株式会社Ｉ　ＴＲＩＰ,,株式会社,大阪府,大阪市西区,北堀江２丁目４番１１号サンライズビル８Ｆ,,27,106,5500014,,,,,,,2025-09-29,1,,,,,アイトリップ,0
115,1120001280058,新規,0,2025-09-29,2025-09-29,株式会社Ｃｒｏｗ会計,,株式会社,大阪府,大阪市北区,西天満６丁目８－７ＤＫビル７０１,,27,127,5300047,,,,,,,2025-09-29,1,,,,,クロウカイケイ,0
116,1120001280074,新規,0,2025-09-29,2025-09-29,澤熙株式会社,,株式会社,大阪府,大阪市阿倍野区,松虫通１丁目３－１１プレアール松虫１０３号室,,27,119,5450043,,,,,,,2025-09-29,1,,,,,サワキ,0
117,1120001280099,新規,0,2025-09-29,2025-09-29,暁株式会社,,株式会社,大阪府,寝屋川市,河北中町２６番５号,,27,215,5720816,,,,,,,2025-09-29,1,,,,,アカツキ,0
118,1120001280108,新規,0,2025-09-29,2025-09-29,明輝株式会社,,株式会社,大阪府,大阪市中央区,上町１丁目２番２８－１７０２号,,27,128,5400005,,,,,,,2025-09-29,1,,,,,メイキ,0
119,1120001280140,新規,0,2025-09-29,2025-09-29,アイカレエアイテック株式会社,,株式会社,大阪府,大阪市港区,港晴１丁目１番２７号,,27,107,5520023,,,,,,,2025-09-29,1,,,,,アイカレエアイテック,0
120,1120001280363,新規,0,2025-09-29,2025-09-29,株式会社ＳＩＤＥＫ　ＯＳＡＫＡ,,株式会社,大阪府,大阪市中央区,宗右衛門町７番９号東京都市開発宗右衛門町ビルＢ１,,27,128,5420084,,,,,,,2025-09-29,1,,,,,サイドケーオオサカ,0
121,1120001280388,新規,0,2025-09-29,2025-09-29,株式会社新栄ファンド,,株式会社,大阪府,大阪市東成区,深江南２丁目４番２３号,,27,115,5370002,,,,,,,2025-09-29,1,,,,,シンエイファンド,0
122,1120003030667,新規,0,2025-09-29,2025-09-29,合同会社ＳＨＴｅａｍ,,合同会社,大阪府,大阪市平野区,加美鞍作２丁目９－１７,,27,126,5470004,,,,,,,2025-09-29,1,,,,,エスエイティーム,0
123,1120003030675,新規,0,2025-09-29,2025-09-29,頑楽築夢合同会社,,合同会社,大阪府,大阪市住吉区,苅田３丁目８番２１－１０５号,,27,120,5580011,,,,,,,2025-09-29,1,,,,,ガンラクチクユメ,0
124,1120003030691,新規,0,2025-09-29,2025-09-29,合同会社Ｙ’ｓサポートプランニング,,合同会社,大阪府,大阪市中央区,日本橋１丁目１７番１８号日本一福岡ビル５階,,27,128,5420073,,,,,,,2025-09-29,1,,,,,ワイズサポートプランニング,0
125,1120003030709,新規,0,2025-09-29,2025-09-29,盛和合同会社,,合同会社,大阪府,大阪市淀川区,三津屋南２丁目５番１５号,,27,123,5320035,,,,,,,2025-09-29,1,,,,,セイワ,0
126,1120003030725,新規,0,2025-09-29,2025-09-29,ＴＨ９９合同会社,,合同会社,大阪府,大阪市西成区,千本北２丁目１６番３号千本北二丁目ハウス１０２号室,,27,122,5570053,,,,,,,2025-09-29,1,,,,,ティーエイチキュウキュウ,0
127,1120003030733,新規,0,2025-09-29,2025-09-29,合同会社喜楽,,合同会社,大阪府,大阪市北区,同心１丁目９－７－５０３,,27,127,5300035,,,,,,,2025-09-29,1,,,,,キラク,0
132,1120005025178,新規,0,2025-09-29,2025-09-29,一般社団法人金継ぎクリスチャン教会,,その他の設立登記法人,大阪府,大阪市東成区,中道２丁目２１番１０号,,27,115,5370025,,,,,,,2025-09-29,1,,,,,キンツギクリスチャンキョウカイ,0
135,1120101072421,新規,0,2025-09-29,2025-09-29,株式会社ＡＣＣＡ,,株式会社,大阪府,泉大津市,東豊中町１丁目８番１号,,27,206,5950021,,,,,,,2025-09-29,1,,,,,アッカ,0
144,1122001039665,新規,0,2025-09-29,2025-09-29,株式会社ＮＥＸＴ　ＧＥＭ,,株式会社,大阪府,東大阪市,横沼町３丁目３番６号,,27,227,5770808,,,,,,,2025-09-29,1,,,,,ネクストジェム,0
150,1130001080622,新規,0,2025-09-29,2025-09-29,ＭＹＴＲＹＫ　Ｈｅａｌｔｈ株式会社,,株式会社,京都府,京都市西京区,大枝北沓掛町７丁目１２番地８,,26,111,6101101,,,,,,,2025-09-29,1,,,,,マイトリックヘルス,0
162,1180001168768,新規,0,2025-09-29,2025-09-29,ＭＡ　ｍｏｔｏｒｓ株式会社,,株式会社,愛知県,一宮市,浅野字南之川７番地１,,23,203,4910871,,,,,,,2025-09-29,1,,,,,エムエーモータース,0
163,1180001168792,新規,0,2025-09-29,2025-09-29,株式会社ＫＭソリューション,,株式会社,愛知県,名古屋市中川区,八熊２丁目１番５号,,23,110,4540013,,,,,,,2025-09-29,1,,,,,ケイエムソリューション,0
171,1200003007070,新規,0,2025-09-29,2025-09-29,合同会社岐阜土地建物,,合同会社,岐阜県,岐阜市,戎町２丁目１１,,21,201,5008149,,,,,,,2025-09-29,1,,,,,ギフトチタテモノ,0
172,1210001020322,新規,0,2025-09-29,2025-09-29,株式会社ｐｅｅｒ　ｃｏｃｏａ,,株式会社,福井県,越前市,北小山町第４８号３番地の２,,18,209,9150021,,,,,,,2025-09-29,1,,,,,ピアココア,0
173,1220001026938,新規,0,2025-09-29,2025-09-29,株式会社ｒｉｐｐｌｅｓ,,株式会社,石川県,小松市,若杉町子２番地３２,,17,203,9230832,,,,,,,2025-09-29,1,,,,,リプレス,0
175,1220003004124,新規,0,2025-09-29,2025-09-29,スカイジャンプ合同会社,,合同会社,石川県,金沢市,此花町２番３－２号,,17,201,9200852,,,,,,,2025-09-29,1,,,,,スカイジャンプ,0
179,1230001021104,新規,0,2025-09-29,2025-09-29,ＡＵＴＯ　ＤＲＩＶＥ株式会社,,株式会社,富山県,射水市,桜町１番１６号,,16,211,9340015,,,,,,,2025-09-29,1,,,,,オートドライブ,0
189,1290001111411,新規,0,2025-09-29,2025-09-29,株式会社ライサ,,株式会社,福岡県,福岡市西区,姪浜駅南３丁目１１番２２号,,40,135,8190006,,,,,,,2025-09-29,1,,,,,ライサ,0
190,1290001111460,新規,0,2025-09-29,2025-09-29,Ｌｕｏｎａ株式会社,,株式会社,福岡県,福岡市博多区,吉塚３丁目２番１０号,,40,132,8120041,,,,,,,2025-09-29,1,,,,,ルオナ,0
191,1290001111502,新規,0,2025-09-29,2025-09-29,株式会社サニテル,,株式会社,福岡県,大川市,大字鐘ケ江１６３番地５,,40,212,8310008,,,,,,,2025-09-29,1,,,,,サニテル,0
195,1290803005166,新規,0,2025-09-29,2025-09-29,ｄａｗｎ　ｂｅｌｌ合同会社,,合同会社,福岡県,行橋市,大字矢留１９５番地８,,40,213,8240037,,,,,,,2025-09-29,1,,,,,ダウンベル,0
197,1300005007265,新規,0,2025-09-29,2025-09-29,一般社団法人狛犬プロジェクト,,その他の設立登記法人,佐賀県,唐津市,佐志中通３９９１番地第１,,41,202,8470114,,,,,,,2025-09-29,1,,,,,コマイヌプロジェクト,0
205,1330003011233,新規,0,2025-09-29,2025-09-29,ＳＳＧ　ＴＲＡＤＩＮＧ合同会社,,合同会社,熊本県,荒尾市,平山２５６３番地３,,43,204,8640015,,,,,,,2025-09-29,1,,,,,エスエスジトレーディング,0
214,1410005006660,新規,0,2025-09-29,2025-09-29,一般社団法人美ＬＩＦＥおおだて,,その他の設立登記法人,秋田県,大館市,花岡町字大森山下６７番地,,05,204,0170005,,,,,,,2025-09-29,1,,,,,ビライフオオダテ,0
215,1420001019285,新規,0,2025-09-29,2025-09-29,株式会社乙巳神商店,,株式会社,青森県,青森市,大字油川字大浜６８番地１６２,,02,201,0380059,,,,,,,2025-09-29,1,,,,,キノトミジンショウテン,0
219,1430001095251,新規,0,2025-09-29,2025-09-29,株式会社原田電工,,株式会社,北海道,札幌市厚別区,もみじ台東２丁目３番１１号,,01,108,0040011,,,,,,,2025-09-29,1,,,,,ハラダデンコウ,0
221,1430003018111,新規,0,2025-09-29,2025-09-29,合同会社月華,,合同会社,北海道,札幌市中央区,南六条西１４丁目２番１８－４０１号,,01,101,0640806,,,,,,,2025-09-29,1,,,,,ゲッカ,0
222,1440001009689,新規,0,2025-09-29,2025-09-29,株式会社ＩＺＵＭＩ,,株式会社,北海道,檜山郡上ノ国町,字大崎２４９番地５,,01,362,0490603,,,,,,,2025-09-29,1,,,,,イズミ,0
223,1480001012961,新規,0,2025-09-29,2025-09-29,株式会社ベジノワ海陽,,株式会社,徳島県,海部郡海陽町,富田字南澤１７５番地１,,36,388,7750309,,,,,,,2025-09-29,1,,,,,ベジノワカイヨウ,0
224,1480003002325,新規,0,2025-09-29,2025-09-29,合同会社テクノワークス,,合同会社,徳島県,徳島市,幸町３丁目１４番（２Ｆ）,,36,201,7700847,,,,,,,2025-09-29,1,,,,,テクノワークス,0
226,1500003003601,新規,0,2025-09-29,2025-09-29,合同会社エクシード・ジャパン,,合同会社,愛媛県,松山市,堀江町甲２１１２－１,,38,201,7992651,,,,,,,2025-09-29,1,,,,,エクシードジャパン,0
236,2010001258601,新規,0,2025-09-29,2025-09-29,株式会社ＲＥ‐ＷＡＲＰ,,株式会社,東京都,千代田区,内神田３丁目１７番１０号タケダビル３階,,13,101,1010047,,,,,,,2025-09-29,1,,,,,リワープ,0
237,2010001258626,新規,0,2025-09-29,2025-09-29,Ｎｉｐｐｏｎ　Ｒｕｇｂｙ　Ｖｅｎｔｕｒｅｓ株式会社,,株式会社,東京都,千代田区,六番町６番地２０－２０６,,13,101,1020085,,,,,,,2025-09-29,1,,,,,ニッポンラグビーベンチャーズ,0
238,2010001258675,新規,0,2025-09-29,2025-09-29,株式会社メディソリューション,,株式会社,東京都,中央区,晴海３丁目１３番１－８０１号,,13,102,1040053,,,,,,,2025-09-29,1,,,,,メディソリューション,0
239,2010001258782,新規,0,2025-09-29,2025-09-29,株式会社座久,,株式会社,東京都,中央区,銀座２丁目１４番５号ＴＷＧ銀座イースト７階,,13,102,1040061,,,,,,,2025-09-29,1,,,,,ザク,0
241,2010003048777,新規,0,2025-09-29,2025-09-29,ＰｗＣ　ＴＳ　Ｊａｐａｎ合同会社,,合同会社,東京都,千代田区,大手町１丁目２番１号,,13,101,1000004,,,,,,,2025-09-29,1,,,,,ピーダブリューシーティーエス,0
242,2010003048793,新規,0,2025-09-29,2025-09-29,合同会社ワーカーズホテル２号,,合同会社,東京都,中央区,京橋２丁目１２番６号ＡＯＪ税理士法人内,,13,102,1040031,,,,,,,2025-09-29,1,,,,,ワーカーズホテルニゴウ,0
252,2010401193101,新規,0,2025-09-29,2025-09-29,Ｇｏｏｄ　Ｄａｙ　Ｐｌｕｓ株式会社,,株式会社,東京都,港区,三田１丁目２番１８号ＴＴＤビル,,13,103,1080073,,,,,,,2025-09-29,1,,,,,グッドデイプラス,0
253,2010401193159,新規,0,2025-09-29,2025-09-29,プリズムキャピタル株式会社,,株式会社,東京都,港区,南青山１丁目１－１新青山ビル東館７Ｆ,,13,103,1070062,,,,,,,2025-09-29,1,,,,,プリズムキャピタル,0
254,2010401193349,新規,0,2025-09-29,2025-09-29,株式会社Ｍｕｋｕ　Ｍａｒｉｓｓａ,,株式会社,東京都,港区,麻布十番１丁目３番９号ＴＢＣ麻布４０３,,13,103,1060045,,,,,,,2025-09-29,1,,,,,ムクマリッサ,0
258,2010601067996,新規,0,2025-09-29,2025-09-29,株式会社ディープシー,,株式会社,東京都,江東区,亀戸３丁目６０－８－１Ｆ,,13,108,1360071,,,,,,,2025-09-29,1,,,,,ディープシー,0
263,2011001172230,新規,0,2025-09-29,2025-09-29,株式会社アーキネクト,,株式会社,東京都,渋谷区,恵比寿南１丁目１番１号ＨｕｍａｘＥｂｉｓｕビル８Ｆ,,13,113,1500022,,,,,,,2025-09-29,1,,,,,アーキネクト,0
264,2011001172478,新規,0,2025-09-29,2025-09-29,株式会社ＴＨＥ　ＡＮＯＴＨＥＲ　ＬＡＮＤ,,株式会社,東京都,目黒区,青葉台３丁目１５番１７号ＦＡＲＯ中目黒１階,,13,110,1530042,,,,,,,2025-09-29,1,,,,,ザアナザーランド,0
265,2011001172718,新規,0,2025-09-29,2025-09-29,ＡＩブレインパートナーズ株式会社,,株式会社,東京都,渋谷区,渋谷２丁目１９番１５号宮益坂ビルディング６０９,,13,113,1500002,,,,,,,2025-09-29,1,,,,,エーアイブレインパートナーズ,0
266,2011003022375,新規,0,2025-09-29,2025-09-29,合同会社東京マサラ研究所,,合同会社,東京都,渋谷区,神南１丁目１１－４ＦＰＧリンクス神南５階,,13,113,1500041,,,,,,,2025-09-29,1,,,,,トウキョウマサラケンキュウジョ,0
267,2011003022648,新規,0,2025-09-29,2025-09-29,マナテル合同会社,,合同会社,東京都,渋谷区,神宮前６丁目２３番４号桑野ビル２階,,13,113,1500001,,,,,,,2025-09-29,1,,,,,マナテル,0
272,2011101113340,新規,0,2025-09-29,2025-09-29,株式会社ＪＡＰＡＮ,,株式会社,東京都,新宿区,歌舞伎町２丁目４１番８号第二下村ビル８階,,13,104,1600021,,,,,,,2025-09-29,1,,,,,ジャパン,0
273,2011101113349,新規,0,2025-09-29,2025-09-29,株式会社ＴＫＳコーポレーション,,株式会社,東京都,新宿区,西新宿４丁目３２－１１新宿セントビラ永谷６０３,,13,104,1600023,,,,,,,2025-09-29,1,,,,,ティーケーエスコーポレーション,0
275,2011103016434,新規,0,2025-09-29,2025-09-29,Ｎｉｈｏｎ　Ｊｏｕｒｎｅｙ合同会社,,合同会社,東京都,新宿区,高田馬場３丁目２－１４天翔高田馬場ビル２１２号室,,13,104,1690075,,,,,,,2025-09-29,1,,,,,ニホンジャーニー,0
276,2011103016467,新規,0,2025-09-29,2025-09-29,ＫＤＷｅｌｌ　Ｐａｒｔｎｅｒｓ合同会社,,合同会社,東京都,新宿区,新宿６丁目２７番２９－２３１０号,,13,104,1600022,,,,,,,2025-09-29,1,,,,,ケイディウェルパートナーズ,0
277,2011103016475,新規,0,2025-09-29,2025-09-29,合同会社ｍｚ,,合同会社,東京都,新宿区,高田馬場２丁目１９－８ダイヤモンドビル１０４号室,,13,104,1690075,,,,,,,2025-09-29,1,,,,,エムゼット,0
280,2011701028772,新規,0,2025-09-29,2025-09-29,株式会社ウィズネット,,株式会社,東京都,江戸川区,上篠崎４丁目１６番８号,,13,123,1330054,,,,,,,2025-09-29,1,,,,,ウィズネット,0
283,2011801046666,新規,0,2025-09-29,2025-09-29,株式会社山崎工業,00140833,株式会社,東京都,足立区,梅島３丁目３番１８号,,13,121,1210816,,,,,,,2025-09-29,1,,,,,ヤマザキコウギョウ,0
284,2011803007096,新規,0,2025-09-29,2025-09-29,合同会社ＯＮＯ,,合同会社,東京都,足立区,扇１丁目４５番５号１０２号室,,13,121,1230873,,,,,,,2025-09-29,1,,,,,オーエヌオー,0
285,2011803007105,新規,0,2025-09-29,2025-09-29,合同会社魅徳,,合同会社,東京都,葛飾区,東四つ木３丁目３４番４号,,13,122,1240014,,,,,,,2025-09-29,1,,,,,ミトク,0
287,2012701019092,新規,0,2025-09-29,2025-09-29,株式会社ココロ,,株式会社,東京都,西東京市,芝久保町５丁目６番６－４号,,13,229,1880014,,,,,,,2025-09-29,1,,,,,ココロ,0
291,2013301055024,新規,0,2025-09-29,2025-09-29,株式会社ホテル十和田荘,,株式会社,東京都,豊島区,西池袋２丁目４３番５－２０１号,,13,116,1710021,,,,,,,2025-09-29,1,,,,,ホテルトワダソウ,0
298,2020001164996,新規,0,2025-09-29,2025-09-29,株式会社早川電気設備,,株式会社,神奈川県,横浜市旭区,若葉台４丁目１１番９０４号,,14,112,2410801,,,,,,,2025-09-29,1,,,,,ハヤカワデンキセツビ,0
299,2020003029363,新規,0,2025-09-29,2025-09-29,合同会社Ｇ,,合同会社,神奈川県,横浜市金沢区,泥亀２丁目１－１０,,14,108,2360021,,,,,,,2025-09-29,1,,,,,,0
302,2021001086330,新規,0,2025-09-29,2025-09-29,株式会社ファイナル,,株式会社,神奈川県,厚木市,温水１９９４番地４,,14,212,2430033,,,,,,,2025-09-29,1,,,,,ファイナル,0
303,2021001086339,新規,0,2025-09-29,2025-09-29,株式会社ジャパンロボティクス,,株式会社,神奈川県,海老名市,中央３丁目３番２８－２１３号,,14,215,2430432,,,,,,,2025-09-29,1,,,,,ジャパンロボティクス,0
308,2030003027688,新規,0,2025-09-29,2025-09-29,合同会社ＭＲ,,合同会社,埼玉県,北葛飾郡杉戸町,大字宮前１３７－５９,,11,464,3450004,,,,,,,2025-09-29,1,,,,,エムアール,0
309,2030003027713,新規,0,2025-09-29,2025-09-29,合同会社ミライノート,,合同会社,埼玉県,川口市,本町１丁目２‐１０‐８,,11,203,3320012,,,,,,,2025-09-29,1,,,,,ミライノート,0
312,2040001140624,新規,0,2025-09-29,2025-09-29,ＢＴ　Ｐｒｉｍｅ　Ｌｉｎｋ株式会社,,株式会社,千葉県,成田市,囲護台２丁目１番地２,,12,211,2860035,,,,,,,2025-09-29,1,,,,,ビーティープライムリンク,0
313,2040001140640,新規,0,2025-09-29,2025-09-29,三木株式会社,,株式会社,千葉県,千葉市中央区,新宿２丁目２－５藤ビル６階Ｅ号室,,12,101,2600021,,,,,,,2025-09-29,1,,,,,ミツキ,0
318,2040003028586,新規,0,2025-09-29,2025-09-29,グローバル企業グループ合同会社,,合同会社,千葉県,山武郡横芝光町,新井６６３番地２,,12,410,2891707,,,,,,,2025-09-29,1,,,,,グローバルキギョウグループ,0
325,2060003005781,新規,0,2025-09-29,2025-09-29,ＺＺ　ＴＲＡＤＩＮＧ合同会社,,合同会社,栃木県,小山市,大字平和１５３番地１シマノハイツ２０１号,,09,208,3290212,,,,,,,2025-09-29,1,,,,,ゼットゼットトレーディング,0
328,2070001043378,新規,0,2025-09-29,2025-09-29,ＣＹＳ株式会社,,株式会社,群馬県,高崎市,末広町２６２－８,,10,202,3700065,,,,,,,2025-09-29,1,,,,,シーワイエス,0
329,2070001043386,新規,0,2025-09-29,2025-09-29,群馬選別株式会社,,株式会社,群馬県,桐生市,広沢町２丁目３０２２番地の７,,10,203,3760013,,,,,,,2025-09-29,1,,,,,グンマセンベツ,0
331,2080001027157,新規,0,2025-09-29,2025-09-29,新井コーポレーション株式会社,,株式会社,静岡県,藤枝市,滝沢６３,,22,214,4260134,,,,,,,2025-09-29,1,,,,,アライコーポレーション,0
332,2080101025804,新規,0,2025-09-29,2025-09-29,株式会社ＯＲＩＥＮＴＡ　ＡＵＴＯ,,株式会社,静岡県,沼津市,植田２７９－１６,,22,203,4100316,,,,,,,2025-09-29,1,,,,,オリエンタオート,0
334,2100001038985,新規,0,2025-09-29,2025-09-29,株式会社Ｏｂｒｉ　Ｇｕａｒｄ,,株式会社,長野県,佐久市,猿久保７８６番地１,,20,217,3850011,,,,,,,2025-09-29,1,,,,,オブリガード,0
342,2120001279776,新規,0,2025-09-29,2025-09-29,ＥＮ　Ｌｉｖｉｎｇ株式会社,,株式会社,大阪府,大阪市中央区,博労町３丁目６－１４－６０２,,27,128,5410059,,,,,,,2025-09-29,1,,,,,エンリビング,0
343,2120001279999,新規,0,2025-09-29,2025-09-29,ＪＤ株式会社,,株式会社,大阪府,大阪市北区,黒崎町３－２６－２Ａ,,27,127,5300023,,,,,,,2025-09-29,1,,,,,ジェーディー,0
344,2120001280024,新規,0,2025-09-29,2025-09-29,ＫＡＮＳＡＩ　ＨＯＵＳＥ株式会社,,株式会社,大阪府,大阪市西区,江之子島１丁目７－３奥内阿波座駅前ビル１５０７,,27,106,5500006,,,,,,,2025-09-29,1,,,,,カンサイハウス,0
345,2120001280040,新規,0,2025-09-29,2025-09-29,株式会社チョココ,,株式会社,大阪府,大阪市西区,立売堀１丁目６－１３南本町天祥ビル２号館３１１室,,27,106,5500012,,,,,,,2025-09-29,1,,,,,チョココ,0
346,2120001280065,新規,0,2025-09-29,2025-09-29,Ｃｌｏｕｄｂｅｒｒｙ株式会社,,株式会社,大阪府,大阪市港区,市岡１丁目１２－１３－１０２号室,,27,107,5520012,,,,,,,2025-09-29,1,,,,,クラウドベリー,0
347,2120001280073,新規,0,2025-09-29,2025-09-29,株式会社ＷＩＬＳＯＮ,,株式会社,大阪府,大阪市港区,市岡３丁目１７番８号２Ｆ,,27,107,5520012,,,,,,,2025-09-29,1,,,,,ウィルソン,0
348,2120001280107,新規,0,2025-09-29,2025-09-29,Ｐ＆Ｃ株式会社,,株式会社,大阪府,大阪市淀川区,西中島４丁目４－２５,,27,123,5320011,,,,,,,2025-09-29,1,,,,,ピーアンドシー,0
349,2120001280148,新規,0,2025-09-29,2025-09-29,中和商事株式会社,,株式会社,大阪府,大阪市住之江区,南港北１丁目３０番３０－２５０４号,,27,125,5590034,,,,,,,2025-09-29,1,,,,,チュウワショウジ,0
350,2120001280239,新規,0,2025-09-29,2025-09-29,ｅ‐Ｆｕｔｕｒｅ　Ｍｏｂｉｌｉｔｙ　ＪＡＰＡＮ株式会社,,株式会社,大阪府,大阪市中央区,本町３丁目１番１０号,,27,128,5410053,,,,,,,2025-09-29,1,,,,,イーフューチャーモビリティジャパン,0
351,2120001280354,新規,0,2025-09-29,2025-09-29,東禾株式会社,,株式会社,大阪府,大阪市中央区,谷町６丁目４番３４号ＪＰアパートメント大阪谷町３０４号室,,27,128,5420012,,,,,,,2025-09-29,1,,,,,トウカ,0
354,2120003030699,新規,0,2025-09-29,2025-09-29,合同会社オーテイク,,合同会社,大阪府,大阪市天王寺区,上本町８丁目１番１６－２０１号,,27,109,5430001,,,,,,,2025-09-29,1,,,,,オーテイク,0
355,2120003030716,新規,0,2025-09-29,2025-09-29,ＤＶＭ　Ｍｅｄｉａ合同会社,,合同会社,大阪府,大阪市阿倍野区,阪南町５丁目４番２８号,,27,119,5450021,,,,,,,2025-09-29,1,,,,,ディーブイエムメディア,0
356,2120003030732,新規,0,2025-09-29,2025-09-29,合同会社１７８,,合同会社,大阪府,大阪市城東区,関目１丁目２４番１０－９０１号,,27,118,5360008,,,,,,,2025-09-29,1,,,,,イチナナハチ,0
357,2120003030740,新規,0,2025-09-29,2025-09-29,合同会社なごみ,,合同会社,大阪府,大阪市生野区,巽北１丁目２２番７号,00140842,27,116,5440004,,,,,,,2025-09-29,1,,,,,ナゴミ,0
366,2130003010816,新規,0,2025-09-29,2025-09-29,静和合同会社,,合同会社,京都府,綴喜郡宇治田原町,大字立川小字立川６５番地１,,26,344,6100231,,,,,,,2025-09-29,1,,,,,セイワ,0
369,2140001140135,新規,0,2025-09-29,2025-09-29,永嘉華株式会社,,株式会社,兵庫県,神戸市須磨区,妙法寺字ぬめり石１番９永興ロジスティクス２１１,,28,107,6540121,,,,,,,2025-09-29,1,,,,,エイカカ,0
370,2150001028420,新規,0,2025-09-29,2025-09-29,株式会社Ｃｏｎｃｅｐｔ　Ｈｏｕｓｅ,,株式会社,奈良県,橿原市,曽我町９２番地の２,,29,205,6340831,,,,,,,2025-09-29,1,,,,,コンセプトハウス,0
372,2160001027074,新規,0,2025-09-29,2025-09-29,さくら商事株式会社,,株式会社,滋賀県,犬上郡豊郷町,大字三ツ池１２－１,,25,441,5291177,,,,,,,2025-09-29,1,,,,,サクラショウジ,0
387,2190003005190,新規,0,2025-09-29,2025-09-29,合同会社ＬＡＴＩＦ　ＩＮＴＥＲＮＡＴＩＯＮＡＬ,,合同会社,三重県,いなべ市,員弁町平古２８６番地１,,24,214,5110212,,,,,,,2025-09-29,1,,,,,ラティーフインターナショナル,0
389,2200001044271,新規,0,2025-09-29,2025-09-29,エムケイアセットマネジメント株式会社,,株式会社,岐阜県,揖斐郡大野町,大字黒野５４７番地９,,21,403,5010521,,,,,,,2025-09-29,1,,,,,エムケイアセットマネジメント,0
390,2210001020321,新規,0,2025-09-29,2025-09-29,株式会社ＷＥＬＬＮＩＣＡ,,株式会社,福井県,越前市,北府３丁目１２番５０号,,18,209,9150802,,,,,,,2025-09-29,1,,,,,ウェルニカ,0
392,2220003004123,新規,0,2025-09-29,2025-09-29,合同会社能登しるくの会,,合同会社,石川県,羽咋郡志賀町,仏木にの９番地１,,17,384,9250205,,,,,,,2025-09-29,1,,,,,ノトシルクノカイ,0
397,2240003007421,新規,0,2025-09-29,2025-09-29,合同会社ＷｉｌｌｏｗＬｉｆｅ,,合同会社,広島県,広島市東区,牛田本町２丁目１番２－１３０１号,,34,102,7320066,,,,,,,2025-09-29,1,,,,,ウィローライフ,0
404,2260001040587,新規,0,2025-09-29,2025-09-29,山田養蜂場＆ソフィアシステムズ株式会社,,株式会社,岡山県,岡山市北区,蕃山町３番７－７０１号,,33,101,7000818,,,,,,,2025-09-29,1,,,,,ヤマダヨウホウジョウアンドソフィアシステムズ,0
406,2260003005357,新規,0,2025-09-29,2025-09-29,合同会社ＡＳＪ　ＩＮＴＥＲＮＡＴＩＯＮＡＬ,,合同会社,岡山県,岡山市北区,津島京町３丁目６番２０号サンライズ津島京町３０５,,33,101,7000087,,,,,,,2025-09-29,1,,,,,エーエスジェイインターナショナル,0
415,2290001111360,新規,0,2025-09-29,2025-09-29,田島不動産株式会社,,株式会社,福岡県,久留米市,国分町１２０３番地２,,40,203,8390863,,,,,,,2025-09-29,1,,,,,タジマフドウサン,0
416,2290001111377,新規,0,2025-09-29,2025-09-29,Ｔｈｅ　Ｔｒｕｅ　Ｔｒａｎｓｌａｔｅ株式会社,,株式会社,福岡県,福岡市中央区,天神２丁目２番１２号７階,,40,133,8100001,,,,,,,2025-09-29,1,,,,,ザトゥルートランスレート,0
417,2290001111476,新規,0,2025-09-29,2025-09-29,株式会社泰利和,,株式会社,福岡県,福岡市博多区,博多駅東１丁目５番１０号朝日プラザ博多ＩＩＩ６０４号室,00140839,40,132,8120013,,,,,,,2025-09-29,1,,,,,タイリワ,0
418,2290001111600,新規,0,2025-09-29,2025-09-29,株式会社Ｅ３,,株式会社,福岡県,大野城市,雑餉隈町１丁目８番２８号メゾン池田Ｂ棟１０１号,,40,219,8160923,,,,,,,2025-09-29,1,,,,,イースリー,0
420,2290003017473,新規,0,2025-09-29,2025-09-29,ＴｕＴ合同会社,,合同会社,福岡県,福岡市中央区,港３丁目３番１４号,,40,133,8100075,,,,,,,2025-09-29,1,,,,,トゥットゥ,0
425,2320003004781,新規,0,2025-09-29,2025-09-29,合同会社Ｑｕｅｓｔｉａ,,合同会社,大分県,豊後大野市,緒方町馬場３１番地１,,44,212,8796601,,,,,,,2025-09-29,1,,,,,クエスティア,0
426,2330001033609,新規,0,2025-09-29,2025-09-29,株式会社杉本建設,,株式会社,熊本県,宇城市,豊野町糸石１８５０番地１,,43,213,8614301,,,,,,,2025-09-29,1,,,,,スギモトケンセツ,0
429,2340001027675,新規,0,2025-09-29,2025-09-29,ｍａｒｕｃｏ　ｐａｒｔｓ株式会社,,株式会社,鹿児島県,鹿児島市,城山１丁目３０番１５号,,46,201,8900013,,,,,,,2025-09-29,1,,,,,マルコパーツ,0
433,2360001035825,新規,0,2025-09-29,2025-09-29,株式会社安恵,,株式会社,沖縄県,宜野湾市,大謝名１丁目７番１プレミスト宜野湾大謝名１４０１号,,47,205,9012225,,,,,,,2025-09-29,1,,,,,アンケイ,0
438,2370003007301,新規,0,2025-09-29,2025-09-29,蒼麗合同会社,,合同会社,宮城県,仙台市泉区,泉中央南１２番地の８泉中央南市営住宅８１１,,04,105,9813126,,,,,,,2025-09-29,1,,,,,ソウレイ,0
449,2430001095267,新規,0,2025-09-29,2025-09-29,株式会社Ｌｉｖｅｌｙａ,,株式会社,北海道,札幌市中央区,南一条西２４丁目１－１１ＬＥＡＤビル３０２,,01,101,0640801,,,,,,,2025-09-29,1,,,,,ライブリア,0
452,2470003002985,新規,0,2025-09-29,2025-09-29,三連星会計合同会社,,合同会社,香川県,丸亀市,飯山町東坂元１６５２番地３５,,37,202,7620081,,,,,,,2025-09-29,1,,,,,サンレンセイカイケイ,0
453,2480003002324,新規,0,2025-09-29,2025-09-29,合同会社Ｗｉｔｈ,,合同会社,徳島県,徳島市,国府町井戸字門道地３番地の８,,36,201,7793118,,,,,,,2025-09-29,1,,,,,ウィズ,0
464,3010001258625,新規,0,2025-09-29,2025-09-29,悟隠弘道株式会社,,株式会社,東京都,文京区,本郷６丁目１９－７離合社ビル３０３,,13,105,1130033,,,,,,,2025-09-29,1,,,,,ゴインコウドウ,0
465,3010001258674,新規,0,2025-09-29,2025-09-29,Ｌｕｎｏｖａ　Ｐａｒｔｎｅｒｓ株式会社,,株式会社,東京都,中央区,日本橋蛎殻町１丁目２２番１－１１０５号,,13,102,1030014,,,,,,,2025-09-29,1,,,,,ルノヴァパートナーズ,0
466,3010001258773,新規,0,2025-09-29,2025-09-29,ＷＧ　ＴＥＣＨ　ＪＡＰＡＮ株式会社,,株式会社,東京都,千代田区,九段北１丁目６番６号,,13,101,1020073,,,,,,,2025-09-29,1,,,,,ダブリュージーテックジャパン,0
467,3010001258889,新規,0,2025-09-29,2025-09-29,株式会社ＢＴホールディングス,,株式会社,東京都,千代田区,丸の内１丁目６番１号,,13,101,1000005,,,,,,,2025-09-29,1,,,,,ビーティーホールディングス,0
468,3010003048784,新規,0,2025-09-29,2025-09-29,ＤｅｅｐＴｒｅｅｓ合同会社,,合同会社,東京都,中央区,勝どき１丁目３番１－３５０７号,,13,102,1040054,,,,,,,2025-09-29,1,,,,,ディープツリーズ,0
469,3010003048818,新規,0,2025-09-29,2025-09-29,合同会社西淀川インベストメント,,合同会社,東京都,中央区,日本橋１丁目４番１号日本橋一丁目ビルディング,,13,102,1030027,,,,,,,2025-09-29,1,,,,,ニシヨドガワインベストメント,0
470,3010003048859,新規,0,2025-09-29,2025-09-29,シンセティック・スタジオ合同会社,,合同会社,東京都,中央区,日本橋３丁目７番７号日本橋アーバンビルヂング４階,,13,102,1030027,,,,,,,2025-09-29,1,,,,,シンセティックスタジオ,0
473,3010103002658,新規,0,2025-09-29,2025-09-29,サラ合同会社,,合同会社,東京都,八王子市,緑町２９第１１緑荘１０２号,,13,201,1930932,,,,,,,2025-09-29,1,,,,,サラ,0
475,3010401193133,新規,0,2025-09-29,2025-09-29,株式会社大耀商会,,株式会社,東京都,港区,港南４丁目６番１号－２８０３号,,13,103,1080075,,,,,,,2025-09-29,1,,,,,ダイヨウショウカイ,0
477,3010405024697,新規,0,2025-09-29,2025-09-29,一般社団法人Ｔｓｕｃｈｉ,,その他の設立登記法人,東京都,港区,高輪２丁目１番１３－９０３号,,13,103,1080074,,,,,,,2025-09-29,1,,,,,ツチ,0
478,3010501054747,新規,0,2025-09-29,2025-09-29,株式会社松風,,株式会社,東京都,台東区,浅草３丁目１９番２号,,13,106,1110032,,,,,,,2025-09-29,1,,,,,マツカゼ,0
479,3010601067995,新規,0,2025-09-29,2025-09-29,株式会社ＴＯＢ,,株式会社,東京都,江東区,東陽６丁目３番２８号豊住ビル１０１,,13,108,1350016,,,,,,,2025-09-29,1,,,,,ティーオービー,0
480,3010601068011,新規,0,2025-09-29,2025-09-29,株式会社ＭＹＵ,,株式会社,東京都,江東区,富岡２丁目７番１０号第６芙蓉ハイツ１０２号室,,13,108,1350047,,,,,,,2025-09-29,1,,,,,ミュー,0
485,3010905004843,新規,0,2025-09-29,2025-09-29,医療法人社団ＤＷＯＲＫＳ,,その他の設立登記法人,東京都,世田谷区,奥沢２丁目３８番９号自由が丘月瀬ビル２階,,13,112,1580083,,,,,,,2025-09-29,1,,,,,ディーワークス,0
491,3011001172700,新規,0,2025-09-29,2025-09-29,株式会社ＦＯＲＣＥ,,株式会社,東京都,目黒区,下目黒１丁目１番１４号コノトラビル７Ｆ,,13,110,1530064,,,,,,,2025-09-29,1,,,,,フォース,0
493,3011003022457,新規,0,2025-09-29,2025-09-29,合同会社アイクロン,,合同会社,東京都,渋谷区,恵比寿西２丁目８番４号ＥＸ恵比寿西ビル５階,,13,113,1500021,,,,,,,2025-09-29,1,,,,,アイクロン,0
494,3011003022639,新規,0,2025-09-29,2025-09-29,Ｂａｓｅｍｅｎｔ　ｓｎｏｗ合同会社,,合同会社,東京都,目黒区,下目黒２丁目２０－２３－１００２,,13,110,1530064,,,,,,,2025-09-29,1,,,,,ベースメントスノー,0
496,3011101113348,新規,0,2025-09-29,2025-09-29,株式会社ＭＯＴＡ,,株式会社,東京都,新宿区,新宿６丁目２７番５２号メイクスデザイン東新宿８０１,,13,104,1600022,,,,,,,2025-09-29,1,,,,,モタ,0
497,3011103016433,新規,0,2025-09-29,2025-09-29,まえ田合同会社,,合同会社,東京都,新宿区,四谷４丁目２１番地パームハイツ１０１,,13,104,1600004,,,,,,,2025-09-29,1,,,,,マエダ,0
498,3011105011597,新規,0,2025-09-29,2025-09-29,一般社団法人全国不動産相談協会,,その他の設立登記法人,東京都,新宿区,四谷２丁目１４番３７号,,13,104,1600004,,,,,,,2025-09-29,1,,,,,ゼンコクフドウサンソウダンキョウカイ,0
502,3011601029011,新規,0,2025-09-29,2025-09-29,花時間株式会社,,株式会社,東京都,練馬区,春日町６丁目１６番１１号フォーチュン光が丘２１７,,13,120,1790074,,,,,,,2025-09-29,1,,,,,ハナジカン,0
503,3011603004846,新規,0,2025-09-29,2025-09-29,ワンダフル合同会社,,合同会社,東京都,練馬区,旭丘１丁目６５－１７小坂ビルＢ１－１０３,,13,120,1760005,,,,,,,2025-09-29,1,,,,,ワンダフル,0
504,3011703004399,新規,0,2025-09-29,2025-09-29,日本サービス合同会社,,合同会社,東京都,江戸川区,平井５丁目８－２ハイツラフィーネ２０３,,13,123,1320035,,,,,,,2025-09-29,1,,,,,ニホンサービス,0
507,3011803007120,新規,0,2025-09-29,2025-09-29,合同会社Ｓａｋｕｒａ　Ｅｎｅｒｇｙ,,合同会社,東京都,足立区,平野３丁目２０－１３,,13,121,1210076,,,,,,,2025-09-29,1,,,,,サクラエナジー,0
508,3012303002223,新規,0,2025-09-29,2025-09-29,つみ木工務店合同会社,,合同会社,東京都,町田市,上小山田町１８４番地７,,13,209,1940201,,,,,,,2025-09-29,1,,,,,ツミキコウムテン,0
512,3020001164847,新規,0,2025-09-29,2025-09-29,株式会社ＡＲＣＴＩＭＥ,,株式会社,神奈川県,川崎市高津区,子母口９７４－７グリーンコープ子母口２０１号,,14,134,2130023,,,,,,,2025-09-29,1,,,,,アークタイム,0
513,3020001164970,新規,0,2025-09-29,2025-09-29,昌楽興業株式会社,,株式会社,神奈川県,横浜市南区,南太田１丁目２８ー１８山口ビル３０１Ａ,,14,105,2320006,,,,,,,2025-09-29,1,,,,,ショウラクコウギョウ,0
515,3020003029478,新規,0,2025-09-29,2025-09-29,オルタクリエイティブ合同会社,,合同会社,神奈川県,横浜市南区,六ツ川３丁目３３番地１,,14,105,2320066,,,,,,,2025-09-29,1,,,,,オルタクリエイティブ,0
519,3021003016557,新規,0,2025-09-29,2025-09-29,ＴＨＩＥＮ　ＡＮ　ＧＲＯＵＰ合同会社,,合同会社,神奈川県,相模原市南区,東林間７丁目３０番１２号テラス林間２０３,,14,153,2520311,,,,,,,2025-09-29,1,,,,,ティエンアングループ,0
520,3021003016573,新規,0,2025-09-29,2025-09-29,合同会社ＡＤＥＲＡＩＤＡ　ＣＬＥＡＮ,,合同会社,神奈川県,座間市,相模が丘１丁目１７－４７,,14,216,2520001,,,,,,,2025-09-29,1,,,,,アデライダクリーン,0
521,3021003016581,新規,0,2025-09-29,2025-09-29,ＰＤＣＭ合同会社,,合同会社,神奈川県,伊勢原市,東富岡２６３番地の２,,14,214,2591112,,,,,,,2025-09-29,1,,,,,ピーディーシーエム,0
524,3030001168888,新規,0,2025-09-29,2025-09-29,株式会社スペースオアシス,,株式会社,埼玉県,さいたま市中央区,円阿弥５丁目９番１１号,,11,105,3380007,,,,,,,2025-09-29,1,,,,,スペースオアシス,0
532,3030003027687,新規,0,2025-09-29,2025-09-29,ＮＴＤ合同会社,,合同会社,埼玉県,所沢市,東住吉９－１Ａ－ｍｏｄｅ所沢１階１－３号室,,11,208,3591124,,,,,,,2025-09-29,1,,,,,エヌティーディー,0
533,3030003027695,新規,0,2025-09-29,2025-09-29,合同会社ＭｏＴｒａＱｕｅｓｔ,,合同会社,埼玉県,さいたま市大宮区,桜木町２丁目３番地大宮マルイ７階,,11,103,3300854,,,,,,,2025-09-29,1,,,,,モトラクエスト,0
542,3040001140623,新規,0,2025-09-29,2025-09-29,株式会社咲みらいと,,株式会社,千葉県,八千代市,萱田町９１９番地４２,,12,221,2760044,,,,,,,2025-09-29,1,,,,,エミライト,0
543,3040001140631,新規,0,2025-09-29,2025-09-29,アピチェエステート株式会社,,株式会社,千葉県,船橋市,夏見台１丁目２番１棟２０６号,,12,204,2730866,,,,,,,2025-09-29,1,,,,,アピチェエステート,0
545,3040003028602,新規,0,2025-09-29,2025-09-29,合同会社かずさ不動産鑑定,,合同会社,千葉県,千葉市中央区,市場町６－８クリスタルスクエアＩＮＯＨＡＮＡ１０３,,12,101,2600855,,,,,,,2025-09-29,1,,,,,カズサフドウサンカンテイ,0
546,3040003028619,新規,0,2025-09-29,2025-09-29,ＪＡＰＡＮ　ＯＣＥＡＮＳ合同会社,,合同会社,千葉県,市原市,柏原１９８番地１,,12,219,2990105,,,,,,,2025-09-29,1,,,,,ジャパンオーシャンズ,0
547,3040003028643,新規,0,2025-09-29,2025-09-29,津田沼ＩＴソリューション合同会社,,合同会社,千葉県,習志野市,津田沼５丁目１１番８号土屋ビル２０１,,12,216,2750016,,,,,,,2025-09-29,1,,,,,ツダヌマアイティーソリューション,0
552,3060001038618,新規,0,2025-09-29,2025-09-29,株式会社中一,,株式会社,栃木県,宇都宮市,西一の沢町１６番１５号,,09,201,3200046,,,,,,,2025-09-29,1,,,,,ナカイチ,0
553,3070001043385,新規,0,2025-09-29,2025-09-29,株式会社Ｂｉｌｌｉｏｎａｉｒｅ　Ｇｌｏｂａｌ　Ｔｒａｄｉｎｇ,,株式会社,群馬県,館林市,松原２丁目１４番８,,10,207,3740016,,,,,,,2025-09-29,1,,,,,ビリオネアグローバルトレーディング,0
565,3120001279866,新規,0,2025-09-29,2025-09-29,寧成株式会社,,株式会社,大阪府,大阪市都島区,東野田町４丁目１－５吉升ビル４０２号,,27,102,5340024,,,,,,,2025-09-29,1,,,,,ネイセイ,0
566,3120001279949,新規,0,2025-09-29,2025-09-29,豊和株式会社,,株式会社,大阪府,大阪市生野区,巽中２丁目４番１５－４０２号,00140831,27,116,5440013,,,,,,,2025-09-29,1,,,,,ホウワ,0
567,3120001280048,新規,0,2025-09-29,2025-09-29,日本富屋資本株式会社,,株式会社,大阪府,大阪市旭区,中宮２丁目１９－５ルベール公園前２０３号,,27,117,5350003,,,,,,,2025-09-29,1,,,,,ニホントミヤシホン,0
568,3120001280064,新規,0,2025-09-29,2025-09-29,祥和国際株式会社,,株式会社,大阪府,大阪市西区,京町堀３丁目１－１２－４０３,,27,106,5500003,,,,,,,2025-09-29,1,,,,,ショウワコクサイ,0
569,3120001280072,新規,0,2025-09-29,2025-09-29,株式会社ｅｕｒｏＤＡＯ　Ｊａｐａｎ,,株式会社,大阪府,大阪市中央区,東心斎橋１丁目３番５号グラントピア長堀橋３０７,,27,128,5420083,,,,,,,2025-09-29,1,,,,,ユーロダオジャパン,0
570,3120001280097,新規,0,2025-09-29,2025-09-29,株式会社長安,,株式会社,大阪府,大阪市西区,西本町３丁目１－５３靭壱番館９０１号室,,27,106,5500005,,,,,,,2025-09-29,1,,,,,チョウアン,0
571,3120001280114,新規,0,2025-09-29,2025-09-29,株式会社ＫＲＨ,,株式会社,大阪府,大阪市中央区,内平野町１丁目２番９号７０６,,27,128,5400037,,,,,,,2025-09-29,1,,,,,ケーアールエイチ,0
572,3120001280139,新規,0,2025-09-29,2025-09-29,創生株式会社,,株式会社,大阪府,大阪市北区,万歳町３番１２号萬栄ビル（Ｒｅ：ＺＯＮＥ梅田０１）３０３号室,,27,127,5300028,,,,,,,2025-09-29,1,,,,,ソウセイ,0
573,3120001280205,新規,0,2025-09-29,2025-09-29,Ｆｏｎｔｅ株式会社,,株式会社,大阪府,大阪市北区,大淀南２丁目２番９－１５０４号,,27,127,5310075,,,,,,,2025-09-29,1,,,,,フォンテ,0
574,3120001280246,新規,0,2025-09-29,2025-09-29,株式会社ソア・イグニス,,株式会社,大阪府,大阪市平野区,長吉川辺３丁目１０番１９－３０３号,,27,126,5470014,,,,,,,2025-09-29,1,,,,,ソアイグニス,0
575,3120001280353,新規,0,2025-09-29,2025-09-29,杰西株式会社,,株式会社,大阪府,大阪市中央区,瓦屋町２丁目１０番１４号第三天偉ビル３階Ｆ号室,,27,128,5420066,,,,,,,2025-09-29,1,,,,,ケッサイ,0
576,3120003030608,新規,0,2025-09-29,2025-09-29,ＬＯＣ　ＤＵＹＥＮ合同会社,,合同会社,大阪府,大阪市西成区,萩之茶屋２丁目６－４ニューかめや２８３号室,,27,122,5570004,,,,,,,2025-09-29,1,,,,,ロックズェン,0
577,3120003030723,新規,0,2025-09-29,2025-09-29,Ｓｅｅｄ　Ａｃａｄｅｍｙ合同会社,,合同会社,大阪府,大阪市西成区,松１丁目６－３－２０２,,27,122,5570034,,,,,,,2025-09-29,1,,,,,シードアカデミー,0
578,3120003030797,新規,0,2025-09-29,2025-09-29,合同会社Ｒｉｉｍ＆ｎ,,合同会社,大阪府,大阪市淀川区,西中島５丁目１番８号,,27,123,5320011,,,,,,,2025-09-29,1,,,,,リームアン,0
583,3130001080595,新規,0,2025-09-29,2025-09-29,株式会社双辰商事,,株式会社,京都府,京都市山科区,小山谷田町１８番地３１,,26,110,6078104,,,,,,,2025-09-29,1,,,,,ソウシンショウジ,0
584,3130001080620,新規,0,2025-09-29,2025-09-29,株式会社閑趣,,株式会社,京都府,京都市北区,平野桜木町１２番地７,,26,101,6038364,,,,,,,2025-09-29,1,,,,,カンシュ,0
585,3130001080629,新規,0,2025-09-29,2025-09-29,株式会社下鴨地所,,株式会社,京都府,京都市左京区,下鴨高木町３３番地,,26,103,6060864,,,,,,,2025-09-29,1,,,,,シモガモジショ,0
586,3130001080637,新規,0,2025-09-29,2025-09-29,株式会社Ｄｏ　Ｌｕｃｋ,,株式会社,京都府,京都市伏見区,深草勧進橋町５６番地,,26,109,6128405,,,,,,,2025-09-29,1,,,,,ドゥラック,0
588,3140001140134,新規,0,2025-09-29,2025-09-29,株式会社ルミナス,,株式会社,兵庫県,神戸市灘区,桜ケ丘町１６番１号,,28,102,6570021,,,,,,,2025-09-29,1,,,,,ルミナス,0
589,3140001140167,新規,0,2025-09-29,2025-09-29,株式会社六甲トラベル,,株式会社,兵庫県,神戸市東灘区,向洋町中７丁目２番地の１、９番館７０４号,,28,101,6580032,,,,,,,2025-09-29,1,,,,,ロッコウトラベル,0
595,3160001027073,新規,0,2025-09-29,2025-09-29,株式会社ブライトシード,,株式会社,滋賀県,大津市,打出浜２－１コラボしが２１１階ＢｉｚＢａｓｅコラボ２１Ｂ２０,,25,201,5200806,,,,,,,2025-09-29,1,,,,,ブライトシード,0
600,3180001168733,新規,0,2025-09-29,2025-09-29,株式会社ＬＫＬ,,株式会社,愛知県,名古屋市西区,名駅２丁目１２番２１号,,23,104,4510045,,,,,,,2025-09-29,1,,,,,エルケーエル,0
607,3180003029116,新規,0,2025-09-29,2025-09-29,ＪＭ合同会社,,合同会社,愛知県,名古屋市中村区,賑町１０番地１２,,23,105,4530025,,,,,,,2025-09-29,1,,,,,ゼイエム,0
613,3210001020320,新規,0,2025-09-29,2025-09-29,株式会社ＰＲＥＳＩＤＥＮＴ,,株式会社,福井県,福井市,文京７丁目１８番２８号フクオカビル１階南側,,18,201,9100017,,,,,,,2025-09-29,1,,,,,プレジデント,0
615,3230001021102,新規,0,2025-09-29,2025-09-29,株式会社一建,,株式会社,富山県,射水市,黒河新１０１番地３,,16,211,9390311,,,,,,,2025-09-29,1,,,,,イチケン,0
617,3240001065536,新規,0,2025-09-29,2025-09-29,株式会社ｙａｂａｌｉｖｅ,,株式会社,広島県,広島市南区,大州５丁目５番３１号３階,,34,103,7320802,,,,,,,2025-09-29,1,,,,,ヤバライブ,0
621,3260001040586,新規,0,2025-09-29,2025-09-29,株式会社高松ファーム,,株式会社,岡山県,岡山市北区,加茂４７３番地,,33,101,7011342,,,,,,,2025-09-29,1,,,,,タカマツファーム,0
623,3260003005356,新規,0,2025-09-29,2025-09-29,合同会社ＨＭＣ　ＴＲＡＤＩＮＧ,,合同会社,岡山県,岡山市中区,浜１丁目６番２２号メゾン司Ａ４０１,,33,102,7038256,,,,,,,2025-09-29,1,,,,,エイチエムシートレーディング,0
628,3290001111491,新規,0,2025-09-29,2025-09-29,株式会社エムドット,,株式会社,福岡県,福岡市博多区,中洲５丁目３－８アクア博多５Ｆ,,40,132,8100801,,,,,,,2025-09-29,1,,,,,エムドット,0
629,3290001111541,新規,0,2025-09-29,2025-09-29,秦泰環境システム株式会社,,株式会社,福岡県,福岡市中央区,小笹３丁目１４番１号ＪＧＭヴェルデコレクション小笹館８０４号,,40,133,8100033,,,,,,,2025-09-29,1,,,,,シンタイカンキョウシステム,0
630,3290001111590,新規,0,2025-09-29,2025-09-29,Ｃｏｍｍｖｉａ株式会社,,株式会社,福岡県,福岡市中央区,天神２丁目１１－１福岡ＰＡＲＣＯ新館５階ＴｈｅＣｏｍｐａｎｙ福岡ＰＡＲＣＯ,,40,133,8100001,,,,,,,2025-09-29,1,,,,,コンフィア,0
639,3290803005164,新規,0,2025-09-29,2025-09-29,スマイルプレイス合同会社,,合同会社,福岡県,北九州市小倉北区,泉台２丁目５番１１号,,40,106,8030842,,,,,,,2025-09-29,1,,,,,スマイルプレイス,0
645,3340003004960,新規,0,2025-09-29,2025-09-29,合同会社ＯＲＩ人,,合同会社,鹿児島県,霧島市,国分上小川７４８番地１,,46,218,8994316,,,,,,,2025-09-29,1,,,,,オリジン,0
647,3360001035824,新規,0,2025-09-29,2025-09-29,株式会社パルタージュ,,株式会社,沖縄県,那覇市,字小禄６９８番地,,47,201,9010152,,,,,,,2025-09-29,1,,,,,パルタージュ,0
649,3360003015205,新規,0,2025-09-29,2025-09-29,合同会社Ｂｒｉｄｇｅ　ｏｆ　Ｗｏｒｌｄ,,合同会社,沖縄県,中頭郡読谷村,字瀬名波９４０プルミエエトワール３０３,,47,324,9040325,,,,,,,2025-09-29,1,,,,,ブリッジオブワールド,0
650,3360003015279,新規,0,2025-09-29,2025-09-29,合同会社リペア９,,合同会社,沖縄県,浦添市,西原１丁目４４番８号,,47,208,9012101,,,,,,,2025-09-29,1,,,,,リペアナイン,0
651,3370003007300,新規,0,2025-09-29,2025-09-29,合同会社信成,,合同会社,宮城県,仙台市宮城野区,榴ケ岡１０８番地の２０メゾンフルール榴岡４０２,,04,102,9830851,,,,,,,2025-09-29,1,,,,,シンセイ,0
655,3390001018116,新規,0,2025-09-29,2025-09-29,ＰｌａｙＧａｔｅ株式会社,,株式会社,山形県,長井市,屋城町１－４０,,06,209,9930002,,,,,,,2025-09-29,1,,,,,,0
658,3420001019283,新規,0,2025-09-29,2025-09-29,株式会社Ａｃｔｉｖｅ　Ｓｅｒｖｉｃｅ,,株式会社,青森県,青森市,港町１丁目１１番３号,,02,201,0300901,,,,,,,2025-09-29,1,,,,,アクティブサービス,0
663,3430001095274,新規,0,2025-09-29,2025-09-29,株式会社ＳＡＶＲＵＳＴ,,株式会社,北海道,札幌市豊平区,豊平八条９丁目１番８号オッジオ学園前２０１,,01,105,0620908,,,,,,,2025-09-29,1,,,,,サブラスト,0
666,3430003018142,新規,0,2025-09-29,2025-09-29,合同会社Ｐｏｎｏ　Ｗｅｌｌｎｅｓｓ,,合同会社,北海道,札幌市東区,北二十条東１丁目１番２号,,01,103,0650020,,,,,,,2025-09-29,1,,,,,ポノウェルネス,0
667,3460001006039,新規,0,2025-09-29,2025-09-29,株式会社令和断熱,,株式会社,北海道,釧路市,星が浦大通２丁目１番３０号,,01,206,0840912,,,,,,,2025-09-29,1,,,,,レイワダンネツ,0
676,4010001258616,新規,0,2025-09-29,2025-09-29,株式会社ｂａｋｕｔａｎ,,株式会社,東京都,中央区,銀座１丁目１２－４Ｎ＆ＥＢＬＤ．７階,,13,102,1040061,,,,,,,2025-09-29,1,,,,,バクタン,0
677,4010001258632,新規,0,2025-09-29,2025-09-29,株式会社セマンティックベース,,株式会社,東京都,中央区,京橋３丁目３－１３,,13,102,1040031,,,,,,,2025-09-29,1,,,,,セマンティックベース,0
678,4010001258640,新規,0,2025-09-29,2025-09-29,ライフアンドルミエル株式会社,,株式会社,東京都,千代田区,二番町１番２号番町ハイム,,13,101,1020084,,,,,,,2025-09-29,1,,,,,ライフアンドルミエル,0
679,4010001258748,新規,0,2025-09-29,2025-09-29,家楽商事株式会社,,株式会社,東京都,千代田区,神田須田町２丁目１５番地３,,13,101,1010041,,,,,,,2025-09-29,1,,,,,カラクショウジ,0
680,4010001258814,新規,0,2025-09-29,2025-09-29,株式会社Ｖｉｓｉｏｎｓ,,株式会社,東京都,中央区,銀座７丁目１３番１号松沢ビル５Ｆ,,13,102,1040061,,,,,,,2025-09-29,1,,,,,ビジョンズ,0
681,4010001258839,新規,0,2025-09-29,2025-09-29,ＢＩＡＮＣＡ　ＳＵＰＰＯＲＴ株式会社,,株式会社,東京都,中央区,銀座１丁目８番１９号１２階,,13,102,1040061,,,,,,,2025-09-29,1,,,,,ビアンカサポート,0
683,4010005040697,新規,0,2025-09-29,2025-09-29,一般社団法人日本キルギス経済交流協会,,その他の設立登記法人,東京都,千代田区,霞が関３丁目６番１４号三久ビル８階,,13,101,1000013,,,,,,,2025-09-29,1,,,,,ニホンキルギスケイザイコウリュウキョウカイ,0
689,4010401193371,新規,0,2025-09-29,2025-09-29,株式会社Ｏ　Ｂｒｏｔｈｅｒｓ,,株式会社,東京都,港区,赤坂２丁目１７番５０－４１１号,,13,103,1070052,,,,,,,2025-09-29,1,,,,,オーブラザーズ,0
690,4010401193438,新規,0,2025-09-29,2025-09-29,株式会社ＲＡＶＩ,,株式会社,東京都,港区,北青山１丁目３番１号アールキューブ青山３階,,13,103,1070061,,,,,,,2025-09-29,1,,,,,ラビ,0
699,4010601068002,新規,0,2025-09-29,2025-09-29,株式会社Ｃｏｄｅｎｃｅ,,株式会社,東京都,江東区,亀戸６丁目５６番８－６０３号,,13,108,1360071,,,,,,,2025-09-29,1,,,,,コーデンス,0
700,4010601068010,新規,0,2025-09-29,2025-09-29,カチアゲ・ジャパン株式会社,,株式会社,東京都,墨田区,京島３丁目２１番地６号１０４,,13,107,1310046,,,,,,,2025-09-29,1,,,,,カチアゲジャパン,0
701,4010601068019,新規,0,2025-09-29,2025-09-29,株式会社仲介ランド,,株式会社,東京都,墨田区,太平４丁目１１番４号,,13,107,1300012,,,,,,,2025-09-29,1,,,,,チュウカイランド,0
702,4010603011810,新規,0,2025-09-29,2025-09-29,ＴＨＫカンパニー合同会社,,合同会社,東京都,江東区,豊洲４丁目１１－２０－９０１,,13,108,1350061,,,,,,,2025-09-29,1,,,,,,0
705,4010701048341,新規,0,2025-09-29,2025-09-29,株式会社ＪＩＮ　ＤＩＮ　ＲＯＵホールディングス,,株式会社,東京都,品川区,上大崎２丁目１４番９号,,13,109,1410021,,,,,,,2025-09-29,1,,,,,ジンディンロウホールディングス,0
706,4010801036626,新規,0,2025-09-29,2025-09-29,株式会社Ｉｔｔｅｒａ,,株式会社,東京都,大田区,北千束２丁目５１番７号,,13,111,1450062,,,,,,,2025-09-29,1,,,,,イッテラ,0
709,4010901058165,新規,0,2025-09-29,2025-09-29,株式会社ＲＡ　Ｓｔｒａｔｅｇｏｓ,,株式会社,東京都,世田谷区,太子堂４丁目１８番１５号マガザン三軒茶屋２・３Ｆ－３,,13,112,1540004,,,,,,,2025-09-29,1,,,,,アールエーストラテゴス,0
712,4010903010280,新規,0,2025-09-29,2025-09-29,合同会社ｏｎｅ　ｒｅｂｅｌ,,合同会社,東京都,世田谷区,中町２丁目２２－１０－２０９,,13,112,1580091,,,,,,,2025-09-29,1,,,,,ワンレベル,0
717,4011001172121,新規,0,2025-09-29,2025-09-29,株式会社ＦＣＴ,,株式会社,東京都,目黒区,下目黒１丁目１－１４コノトラビル７Ｆ,,13,110,1530064,,,,,,,2025-09-29,1,,,,,エフシーティー,0
718,4011001172154,新規,0,2025-09-29,2025-09-29,株式会社Ａｊｕｌｉｙ,,株式会社,東京都,渋谷区,道玄坂１丁目１０番８号渋谷道玄坂東急ビル２Ｆ－Ｃ,,13,113,1500043,,,,,,,2025-09-29,1,,,,,アジュリー,0
719,4011003022407,新規,0,2025-09-29,2025-09-29,合同会社マルイ,,合同会社,東京都,渋谷区,千駄ヶ谷５丁目１３－１８－２１３リビオ新宿御苑,,13,113,1510051,,,,,,,2025-09-29,1,,,,,マルイ,0
722,4011101112539,新規,0,2025-09-29,2025-09-29,株式会社ＳＡＫＵＲＡ　ＣＯＮＮＥＣＴ,,株式会社,東京都,新宿区,西新宿３丁目３番１３号西新宿水間ビル６階,,13,104,1600023,,,,,,,2025-09-29,1,,,,,サクラコネクト,0
723,4011101113116,新規,0,2025-09-29,2025-09-29,株式会社ＳｃｏｏｔＶｉｓｉｏｎ,,株式会社,東京都,新宿区,新宿６丁目２５番１５号,,13,104,1600022,,,,,,,2025-09-29,1,,,,,スクートビジョン,0
724,4011101113306,新規,0,2025-09-29,2025-09-29,ＭＡ　ＰＯＥ株式会社,,株式会社,東京都,新宿区,百人町２丁目１８番１０号コーポフラワー１０２,,13,104,1690073,,,,,,,2025-09-29,1,,,,,マポー,0
725,4011101113322,新規,0,2025-09-29,2025-09-29,盛源株式会社,,株式会社,東京都,新宿区,百人町２丁目５－４土屋ビル２Ｆ　ＬｉｎｋＳｐａｃｅＳ０７号室,,13,104,1690073,,,,,,,2025-09-29,1,,,,,セイゲン,0
726,4011101113355,新規,0,2025-09-29,2025-09-29,株式会社ＭｅｍｏｒｉＣａｌ,,株式会社,東京都,新宿区,山吹町３４１番地４博龍ビル２階,,13,104,1620801,,,,,,,2025-09-29,1,,,,,メモリカル,0
727,4011101113388,新規,0,2025-09-29,2025-09-29,日本惟農バイオテック株式会社,,株式会社,東京都,新宿区,西新宿６丁目１６番６号新宿タツミビル１００２,,13,104,1600023,,,,,,,2025-09-29,1,,,,,ニホンイーノウバイオテック,0
728,4011101113413,新規,0,2025-09-29,2025-09-29,ＴＴＴ株式会社,,株式会社,東京都,新宿区,高田馬場３丁目１４番２号佐成屋ビル３階,,13,104,1690075,,,,,,,2025-09-29,1,,,,,ティーティーティー,0
729,4011103016408,新規,0,2025-09-29,2025-09-29,Ｒｉｓｅ　Ｒｅｄｅｍｐｔｉｏｎ合同会社,,合同会社,東京都,新宿区,富久町３番２２号ＨｏｎｅｓｔＨｉｒｏｍｉ２０２,,13,104,1620067,,,,,,,2025-09-29,1,,,,,ライズリデンプション,0
730,4011103016440,新規,0,2025-09-29,2025-09-29,合同会社コンパス,,合同会社,東京都,新宿区,西新宿６丁目５番１号新宿アイランドタワー２階,,13,104,1600023,,,,,,,2025-09-29,1,,,,,コンパス,0
731,4011103016449,新規,0,2025-09-29,2025-09-29,合同会社インフォレックス,,合同会社,東京都,新宿区,西新宿３丁目３番１３号西新宿水間ビル６階,,13,104,1600023,,,,,,,2025-09-29,1,,,,,インフォレックス,0
735,4011301030920,新規,0,2025-09-29,2025-09-29,フリーダーＨＤ株式会社,,株式会社,東京都,杉並区,方南２丁目４番６号,,13,115,1680062,,,,,,,2025-09-29,1,,,,,フリーダーホールディングス,0
736,4011301030929,新規,0,2025-09-29,2025-09-29,株式会社ＭＯＴＩＯＮ　ＳＹＳＴＥＭ,,株式会社,東京都,杉並区,西荻北２丁目２５－４－３０５,,13,115,1670042,,,,,,,2025-09-29,1,,,,,モーションシステム,0
737,4011401027437,新規,0,2025-09-29,2025-09-29,株式会社ダンミ,,株式会社,東京都,板橋区,赤塚２丁目１番１２号２１１号,,13,119,1750092,,,,,,,2025-09-29,1,,,,,ダンミ,0
740,4011601029019,新規,0,2025-09-29,2025-09-29,無限株式会社,,株式会社,東京都,練馬区,春日町６丁目１６番１１－２３７号,,13,120,1790074,,,,,,,2025-09-29,1,,,,,ムゲン,0
741,4011603004853,新規,0,2025-09-29,2025-09-29,マーテル合同会社,,合同会社,東京都,練馬区,富士見台２丁目１７番１３号,,13,120,1770034,,,,,,,2025-09-29,1,,,,,マーテル,0
745,4011803007111,新規,0,2025-09-29,2025-09-29,オリジナルソース合同会社,,合同会社,東京都,足立区,千住緑町１丁目２１番１０号ジャパンステイ千住１１２号室,,13,121,1200044,,,,,,,2025-09-29,1,,,,,オリジナルソース,0
748,4012701019090,新規,0,2025-09-29,2025-09-29,株式会社Ｗｉｌｌ　Ｄｏ　Ｆｉｎｅ‐Ｎｅｘｔ,,株式会社,東京都,東久留米市,本町２丁目３番２４号ビューハイツアルカンシェル５０８号,,13,222,2030053,,,,,,,2025-09-29,1,,,,,ウィルドゥファインネクスト,0
749,4012805003370,新規,0,2025-09-29,2025-09-29,医療法人社団虹希会,,その他の設立登記法人,東京都,立川市,曙町１丁目４番７号,00140829,13,202,1900012,,,,,,,2025-09-29,1,,,,,コウキカイ,0
753,4013301055022,新規,0,2025-09-29,2025-09-29,ＭＩ　ＭＩＮ　ＭＹＡＴ株式会社,,株式会社,東京都,豊島区,巣鴨４丁目２３番４号サルーンハイツ７号館２０２号,,13,116,1700002,,,,,,,2025-09-29,1,,,,,ミミンミャッ,0
754,4013301055030,新規,0,2025-09-29,2025-09-29,株式会社加藤商事,,株式会社,東京都,豊島区,東池袋１丁目３１番１６号東商ビル５階,,13,116,1700013,,,,,,,2025-09-29,1,,,,,カトウショウジ,0
756,4013303007896,新規,0,2025-09-29,2025-09-29,ＳＡＥＳＵＲ合同会社,,合同会社,東京都,豊島区,巣鴨３丁目１３番６号みすず荘１０３号,,13,116,1700002,,,,,,,2025-09-29,1,,,,,シィサ,0
761,4020001164482,新規,0,2025-09-29,2025-09-29,株式会社ＪＡＰＡＮ　ＢＥＳＴ,,株式会社,神奈川県,横浜市西区,浅間町１丁目４番３号ウィザードビル４０２,,14,103,2200072,,,,,,,2025-09-29,1,,,,,ジャパンベスト,0
762,4020001164821,新規,0,2025-09-29,2025-09-29,新栄建設工業株式会社,,株式会社,神奈川県,横浜市都筑区,新栄町２０番２２－２号,,14,118,2240035,,,,,,,2025-09-29,1,,,,,シンエイケンセツコウギョウ,0
765,4020003029378,新規,0,2025-09-29,2025-09-29,合同会社アフト,,合同会社,神奈川県,横浜市泉区,上飯田町３３５－３プランヴェールＡ１０３,,14,116,2450018,,,,,,,2025-09-29,1,,,,,アフト,0
766,4020003029452,新規,0,2025-09-29,2025-09-29,Ｍ＆Ｈインベストメント合同会社,,合同会社,神奈川県,横浜市中区,吉田町４番地９,,14,104,2310041,,,,,,,2025-09-29,1,,,,,エムアンドエイチインベストメント,0
767,4020003029477,新規,0,2025-09-29,2025-09-29,ＢＡＢＡ合同会社,,合同会社,神奈川県,横浜市神奈川区,大口通１２８番地５新田ビル４０３号,,14,102,2210002,,,,,,,2025-09-29,1,,,,,ババ,0
777,4030001168838,新規,0,2025-09-29,2025-09-29,株式会社イーストセル,,株式会社,埼玉県,さいたま市浦和区,常盤９丁目２６番３号,,11,107,3300061,,,,,,,2025-09-29,1,,,,,イーストセル,0
781,4030003027694,新規,0,2025-09-29,2025-09-29,合同会社ＧＬＯＢＡＬ　ＪＰＡＮ　ＭＯＴＯＲＳ,,合同会社,埼玉県,春日部市,六軒町１９番地Ｃ３,,11,214,3440012,,,,,,,2025-09-29,1,,,,,グローバルジャパンモーターズ,0
786,4040001140556,新規,0,2025-09-29,2025-09-29,株式会社東久味食品,,株式会社,千葉県,千葉市稲毛区,山王町３５－１ヒューマンスクエア千葉山王７０２,,12,103,2630002,,,,,,,2025-09-29,1,,,,,トキュウミショクヒン,0
787,4040001140614,新規,0,2025-09-29,2025-09-29,株式会社桜梅堂,,株式会社,千葉県,松戸市,六実６丁目３４番地の７,,12,207,2702204,,,,,,,2025-09-29,1,,,,,オウメイドウ,0
788,4040001140639,新規,0,2025-09-29,2025-09-29,秋本享志事務所株式会社,,株式会社,千葉県,白井市,白井３９７番地,,12,232,2701421,,,,,,,2025-09-29,1,,,,,アキモトミチユキジムショ,0
789,4040001140647,新規,0,2025-09-29,2025-09-29,ＭＡＥ　Ｇｌｏｂａｌ　Ｂｒｉｄｇｅ株式会社,,株式会社,千葉県,習志野市,谷津６丁目１９番２７－８０２号,,12,216,2750026,,,,,,,2025-09-29,1,,,,,マエグローバルブリッジ,0
790,4040001140671,新規,0,2025-09-29,2025-09-29,株式会社乗風,,株式会社,千葉県,千葉市若葉区,桜木８丁目８－１３－２０５号,,12,104,2640028,,,,,,,2025-09-29,1,,,,,ノリカゼ,0
794,4040003028584,新規,0,2025-09-29,2025-09-29,アイホールディング合同会社,,合同会社,千葉県,浦安市,高洲８丁目１番Ｃ－１３２６号,,12,227,2790023,,,,,,,2025-09-29,1,,,,,アイホールディング,0
795,4040003028592,新規,0,2025-09-29,2025-09-29,ＳＬＴ合同会社,,合同会社,千葉県,野田市,桐ケ作３１９番地１Ａ,,12,208,2700213,,,,,,,2025-09-29,1,,,,,エスエルティー,0
796,4040003028659,新規,0,2025-09-29,2025-09-29,合同会社総合診療産業医事務所,,合同会社,千葉県,千葉市中央区,中央２丁目２番１６号－２９０４号,,12,101,2600013,,,,,,,2025-09-29,1,,,,,ソウゴウシンリョウサンギョウイジムショ,0
798,4060001038609,新規,0,2025-09-29,2025-09-29,株式会社エネルエアサービス,,株式会社,栃木県,小山市,大字福良３８２番地３,,09,208,3230155,,,,,,,2025-09-29,1,,,,,エネルエアサービス,0
803,4080401028182,新規,0,2025-09-29,2025-09-29,株式会社Ｒａｉｎｍａｋｅｓ,,株式会社,静岡県,浜松市中央区,有玉南町１８６７番地の１,,22,138,4313122,,,,,,,2025-09-29,1,,,,,レインメイクス,0
823,4120001279948,新規,0,2025-09-29,2025-09-29,Ｉｎｆｉｎｉｔｙ株式会社,,株式会社,大阪府,大阪市生野区,巽南１丁目１２－５アイビーフラット２１１室,00140841,27,116,5440015,,,,,,,2025-09-29,1,,,,,インフィニティ,0
824,4120001280006,新規,0,2025-09-29,2025-09-29,帝森株式会社,,株式会社,大阪府,大阪市旭区,生江３丁目４－２２－１Ｂ号,,27,117,5350004,,,,,,,2025-09-29,1,,,,,テイモリ,0
825,4120001280014,新規,0,2025-09-29,2025-09-29,株式会社ソリッドストラテジーズ,,株式会社,大阪府,交野市,星田５丁目２８－７－１１,,27,230,5760016,,,,,,,2025-09-29,1,,,,,ソリッドストラテジーズ,0
826,4120001280047,新規,0,2025-09-29,2025-09-29,沐陽株式会社,,株式会社,大阪府,大阪市都島区,毛馬町１丁目１３番１号,,27,102,5340001,,,,,,,2025-09-29,1,,,,,モクヨウ,0
827,4120001280063,新規,0,2025-09-29,2025-09-29,一泰株式会社,,株式会社,大阪府,大阪市中央区,島之内２丁目５番５－６０１号,,27,128,5420082,,,,,,,2025-09-29,1,,,,,イチタイ,0
828,4120001280187,新規,0,2025-09-29,2025-09-29,株式会社安発フーズ,,株式会社,大阪府,大阪市平野区,喜連４丁目８番８１号,,27,126,5470027,,,,,,,2025-09-29,1,,,,,アンハツフーズ,0
829,4120001280245,新規,0,2025-09-29,2025-09-29,鵬達株式会社,,株式会社,大阪府,大阪市東住吉区,湯里５丁目１６番地５号２Ｆ－Ｆ,,27,121,5460013,,,,,,,2025-09-29,1,,,,,ホウタツ,0
830,4120001280303,新規,0,2025-09-29,2025-09-29,旭坤株式会社,,株式会社,大阪府,大阪市東住吉区,中野４丁目１番１６号リベラルオリエンテ中野５０５Ａ,,27,121,5460012,,,,,,,2025-09-29,1,,,,,キョクコン,0
831,4120001280336,新規,0,2025-09-29,2025-09-29,大阪馬上好車情報技術株式会社,,株式会社,大阪府,大阪市東住吉区,杭全１丁目１７番１７号Ｔｉｎａ天王寺東ビル５０３号室,,27,121,5460002,,,,,,,2025-09-29,1,,,,,オオサカバジョウコウシャジョウホウギジュツ,0
832,4120001280369,新規,0,2025-09-29,2025-09-29,ＴＯＫＹＯ　ＴＲＡＤＩＮＧ株式会社,,株式会社,大阪府,枚方市,枚方元町４－３０枚方パークアイランド１２５－４０６,,27,210,5730052,,,,,,,2025-09-29,1,,,,,トウキョウトレーディング,0
835,4120003030656,新規,0,2025-09-29,2025-09-29,南方之路合同会社,,合同会社,大阪府,大阪市西淀川区,姫島２丁目４番１０号パークアベニュー２階Ａ室,,27,113,5550033,,,,,,,2025-09-29,1,,,,,ナンポウノミチ,0
836,4120003030722,新規,0,2025-09-29,2025-09-29,合同会社わかば,,合同会社,大阪府,大阪市北区,梅田１丁目１－３大阪駅前第３ビル２９階１－１－１号室,,27,127,5300001,,,,,,,2025-09-29,1,,,,,ワカバ,0
837,4120003030747,新規,0,2025-09-29,2025-09-29,ＭＡＮＨ　ＨＩＥＵ合同会社,,合同会社,大阪府,大阪市生野区,新今里３丁目５－１８ＳＥＩＫＡビル５０３号室,,27,116,5440001,,,,,,,2025-09-29,1,,,,,マインヒエウ,0
841,4120103006738,新規,0,2025-09-29,2025-09-29,ＨＬ合同会社,,合同会社,大阪府,堺市西区,北条町１丁２８－１５,,27,144,5938302,,,,,,,2025-09-29,1,,,,,エイチエル,0
846,4130001080561,新規,0,2025-09-29,2025-09-29,株式会社ｌｏｃａ,,株式会社,京都府,京都市中京区,亀屋町１４６,,26,104,6048253,,,,,,,2025-09-29,1,,,,,ロカ,0
854,4140003022619,新規,0,2025-09-29,2025-09-29,ＸｙｚＡ　ｐｌａｎｎｉｎｇ合同会社,,合同会社,兵庫県,高砂市,荒井町小松原３丁目２番３－５号,,28,216,6760011,,,,,,,2025-09-29,1,,,,,サイザプランニング,0
856,4150003003709,新規,0,2025-09-29,2025-09-29,合同会社Ｃａｓｓｉｓ　Ｔｒｅｅ,,合同会社,奈良県,北葛城郡王寺町,明神４丁目１番７２号,,29,425,6360022,,,,,,,2025-09-29,1,,,,,カシスツリー,0
859,4170001018797,新規,0,2025-09-29,2025-09-29,株式会社藤川,,株式会社,和歌山県,日高郡日高川町,大字小熊２５５０番地２,,30,392,6491323,,,,,,,2025-09-29,1,,,,,フジカワ,0
860,4170003002312,新規,0,2025-09-29,2025-09-29,ＶＦＳ合同会社,,合同会社,和歌山県,西牟婁郡白浜町,堅田２５７８－９８,,30,401,6492201,,,,,,,2025-09-29,1,,,,,ヴィエフエス,0
866,4180001168765,新規,0,2025-09-29,2025-09-29,ＧＹＮＣ株式会社,,株式会社,愛知県,春日井市,下市場町３丁目７番地６,,23,206,4860852,,,,,,,2025-09-29,1,,,,,ジンク,0
869,4180003029107,新規,0,2025-09-29,2025-09-29,禄記合同会社,,合同会社,愛知県,名古屋市千種区,今池３丁目３２番３号,,23,101,4640850,,,,,,,2025-09-29,1,,,,,ロクキ,0
870,4180301040244,新規,0,2025-09-29,2025-09-29,仁和板金工業株式会社,,株式会社,愛知県,豊川市,下野川町２丁目１６番地の２,,23,207,4420877,,,,,,,2025-09-29,1,,,,,ジンワバンキンコウギョウ,0
879,4220005009003,新規,0,2025-09-29,2025-09-29,一般社団法人ＭＡＴＣＨ　ＢＡＫＯ,,その他の設立登記法人,石川県,野々市市,押野４丁目１９２番地１,,17,212,9218802,,,,,,,2025-09-29,1,,,,,マッチバコ,0
880,4230001021101,新規,0,2025-09-29,2025-09-29,株式会社ＳＨＥＩＫＨ　ＴＲＡＤＩＮＧ,,株式会社,富山県,高岡市,山下３２番地１,,16,202,9391262,,,,,,,2025-09-29,1,,,,,シェイクトレーディング,0
881,4240001065543,新規,0,2025-09-29,2025-09-29,株式会社ＳＰＩＫＥ３,,株式会社,広島県,広島市中区,宝町４番２４－１５０５号,,34,101,7300044,,,,,,,2025-09-29,1,,,,,スパイクスリー,0
883,4250003003822,新規,0,2025-09-29,2025-09-29,合同会社アグリ麻郷,,合同会社,山口県,熊毛郡田布施町,大字麻郷１２８６番地１,,35,343,7421513,,,,,,,2025-09-29,1,,,,,アグリオゴウ,0
886,4260003005355,新規,0,2025-09-29,2025-09-29,ＣＨＥＥＭＡ　ＴＲＡＤＩＮＧ合同会社,,合同会社,岡山県,瀬戸内市,長船町福岡５６４番地３,,33,212,7014265,,,,,,,2025-09-29,1,,,,,チーマトレーディング,0
887,4270001009290,新規,0,2025-09-29,2025-09-29,株式会社ＶＳホールディングス,,株式会社,鳥取県,鳥取市,西円通寺４７番地,,31,201,6801145,,,,,,,2025-09-29,1,,,,,ブイエスホールディングス,0
900,4290001111474,新規,0,2025-09-29,2025-09-29,ウラカミプレスメンテナンス株式会社,,株式会社,福岡県,古賀市,青柳町１１９番地１,,40,223,8113133,,,,,,,2025-09-29,1,,,,,ウラカミプレスメンテナンス,0
901,4290001111482,新規,0,2025-09-29,2025-09-29,株式会社Ｄｒ．らぐな,,株式会社,福岡県,福岡市中央区,黒門３－１９,,40,133,8100055,,,,,,,2025-09-29,1,,,,,ドクターラグナ,0
902,4290001111499,新規,0,2025-09-29,2025-09-29,澄嘉豊源株式会社,,株式会社,福岡県,福岡市中央区,白金１丁目１７番１８号井上コーポ４０３号室,,40,133,8100012,,,,,,,2025-09-29,1,,,,,チョウカホウゲン,0
903,4290001111516,新規,0,2025-09-29,2025-09-29,ＳＥＮ株式会社,,株式会社,福岡県,福岡市博多区,吉塚１丁目４１－５－２０２,,40,132,8120041,,,,,,,2025-09-29,1,,,,,セン,0
907,4290003017447,新規,0,2025-09-29,2025-09-29,合同会社ＮＥＳＳ,,合同会社,福岡県,福岡市早良区,西入部４丁目２６－１１,,40,137,8111121,,,,,,,2025-09-29,1,,,,,ネス,0
908,4290003017455,新規,0,2025-09-29,2025-09-29,スマイルパック合同会社,,合同会社,福岡県,福岡市南区,桧原５丁目２４番１２－２０１号ピュアグリーン壱番館,,40,134,8111355,,,,,,,2025-09-29,1,,,,,スマイルパック,0
909,4290003017463,新規,0,2025-09-29,2025-09-29,益均芸術合同会社,,合同会社,福岡県,福岡市南区,大橋１丁目１９番１７号ラルジュ・ボン１０３号室,,40,134,8150033,,,,,,,2025-09-29,1,,,,,イキンゲイジュツ,0
911,4290005019838,新規,0,2025-09-29,2025-09-29,一般社団法人おとわ,,その他の設立登記法人,福岡県,春日市,惣利６丁目８３番地,,40,218,8160813,,,,,,,2025-09-29,1,,,,,オトワ,0
912,4290005019846,新規,0,2025-09-29,2025-09-29,税理士法人えふ,,その他の設立登記法人,福岡県,福岡市城南区,茶山１丁目９番１４号ＯＰＵＳ・ＳＥＮＥＩ２０３号室,,40,136,8140111,,,,,,,2025-09-29,1,,,,,エフ,0
918,4330001033607,新規,0,2025-09-29,2025-09-29,株式会社オメガライフエステート,,株式会社,熊本県,熊本市中央区,水前寺４丁目２０番３５号,,43,101,8620950,,,,,,,2025-09-29,1,,,,,オメガライフエステート,0
924,4360003015261,新規,0,2025-09-29,2025-09-29,合同会社アトリエ野設,,合同会社,沖縄県,那覇市,松尾１丁目１０－２４ホークシティ那覇ビル１ＦオフィスＳ－０２,,47,201,9000014,,,,,,,2025-09-29,1,,,,,アトリエヤセツ,0
933,4380003006143,新規,0,2025-09-29,2025-09-29,合同会社アステル,,合同会社,福島県,郡山市,緑町９番１２号,,07,203,9638023,,,,,,,2025-09-29,1,,,,,アステル,0
935,4390001018115,新規,0,2025-09-29,2025-09-29,金号商事株式会社,,株式会社,山形県,山形市,十日町１丁目７番３１号大原マンション４０３号室,,06,201,9900031,,,,,,,2025-09-29,1,,,,,キンゴウショウジ,0
938,4430003018109,新規,0,2025-09-29,2025-09-29,合同会社ＦＬａＴ,,合同会社,北海道,札幌市西区,西野七条４丁目５－１３,,01,107,0630037,,,,,,,2025-09-29,1,,,,,フラット,0
944,4470001020905,新規,0,2025-09-29,2025-09-29,株式会社ＡＢＥ　ＮＥＷ,,株式会社,香川県,高松市,太田上町７４０番地７,,37,201,7618074,,,,,,,2025-09-29,1,,,,,アベニュー,0
947,4480003002322,新規,0,2025-09-29,2025-09-29,合同会社宙ノ彩,,合同会社,徳島県,名西郡石井町,高原字東高原５４８番地２,,36,341,7793205,,,,,,,2025-09-29,1,,,,,ソラノイロ,0
955,5010001258524,新規,0,2025-09-29,2025-09-29,株式会社エイシー,,株式会社,東京都,千代田区,神田須田町１丁目７番８号ＶＯＲＴ秋葉原ＩＶ２Ｆ,00140846,13,101,1010041,,,,,,,2025-09-29,1,,,,,エイシー,0
956,5010001258730,新規,0,2025-09-29,2025-09-29,星岳国際トレード株式会社,,株式会社,東京都,文京区,白山１丁目６番４－２２１,,13,105,1130001,,,,,,,2025-09-29,1,,,,,セイガクコクサイトレード,0
957,5010001258771,新規,0,2025-09-29,2025-09-29,株式会社Ｆｅｒａｚ,,株式会社,東京都,文京区,湯島２丁目３２番４号,,13,105,1130034,,,,,,,2025-09-29,1,,,,,フェラーズ,0
958,5010003048816,新規,0,2025-09-29,2025-09-29,合同会社ＪＡＰＡＮ　ＩＮＮＯＶＡＴＯＲＳ１,,合同会社,東京都,千代田区,五番町６番地２,,13,101,1020076,,,,,,,2025-09-29,1,,,,,ジャパンイノベーターズワン,0
959,5010003048840,新規,0,2025-09-29,2025-09-29,徳源泰合同会社,,合同会社,東京都,千代田区,神田錦町３丁目１５番地錦精社神田ビル天翔オフィス大手町竹橋６階６５８号室,,13,101,1010054,,,,,,,2025-09-29,1,,,,,トクゲンタイ,0
961,5010005040713,新規,0,2025-09-29,2025-09-29,一般社団法人ＳＦＳ,,その他の設立登記法人,東京都,中央区,京橋２丁目１２番６号ＡＯＪ税理士法人内,,13,102,1040031,,,,,,,2025-09-29,1,,,,,エスエフエス,0
968,5010401192967,新規,0,2025-09-29,2025-09-29,株式会社ＬＡＺＹＷＨＩＺ,,株式会社,東京都,港区,南麻布３丁目２０－１Ｄａｉｗａ麻布テラス５Ｆ,,13,103,1060047,,,,,,,2025-09-29,1,,,,,レイジウィズ,0
969,5010401193164,新規,0,2025-09-29,2025-09-29,株式会社共創研究所,,株式会社,東京都,港区,北青山１丁目３番１号アールキューブ青山３階,,13,103,1070061,,,,,,,2025-09-29,1,,,,,キョウソウケンキュウジョ,0
970,5010401193230,新規,0,2025-09-29,2025-09-29,株式会社Ａｒｇｏｎａｕｔ,,株式会社,東京都,港区,北青山１丁目３番１号アールキューブ青山３階,,13,103,1070061,,,,,,,2025-09-29,1,,,,,アルゴノート,0
971,5010403036131,新規,0,2025-09-29,2025-09-29,タグエネルギー開発ジャパン合同会社,,合同会社,東京都,港区,赤坂１丁目１２番３２号アーク森ビル東京国際法律事務所内,,13,103,1070052,,,,,,,2025-09-29,1,,,,,タグエネルギーカイハツジャパン,0
975,5010701048357,新規,0,2025-09-29,2025-09-29,株式会社ｉｓｓａｉ,,株式会社,東京都,品川区,上大崎２丁目１３番３５号ＫＩビル４０１,,13,109,1410021,,,,,,,2025-09-29,1,,,,,イッサイ,0
977,5010703007930,新規,0,2025-09-29,2025-09-29,五分の四合同会社,,合同会社,東京都,品川区,東品川２丁目２番４号天王洲ファーストタワー７階７１６８号室,,13,109,1400002,,,,,,,2025-09-29,1,,,,,ゴブンノヨン,0
979,5010805003209,新規,0,2025-09-29,2025-09-29,一般社団法人アルタイル,,その他の設立登記法人,東京都,大田区,北馬込１丁目１２番２号,,13,111,1430021,,,,,,,2025-09-29,1,,,,,アルタイル,0
982,5010901058156,新規,0,2025-09-29,2025-09-29,株式会社ミキエステイトジャパン,,株式会社,東京都,世田谷区,奥沢１丁目４番３号,,13,112,1580083,,,,,,,2025-09-29,1,,,,,ミキエステイトジャパン,0
987,5011001172161,新規,0,2025-09-29,2025-09-29,株式会社ｂａｌｕｂｏ,,株式会社,東京都,渋谷区,神宮前６丁目２３番４号桑野ビル２階,,13,113,1500001,,,,,,,2025-09-29,1,,,,,バルボ,0
988,5011001172748,新規,0,2025-09-29,2025-09-29,株式会社Ｍｅｄ‐Ｃｌｏｔｈｅｓ１３,,株式会社,東京都,渋谷区,代官山町１７番１号代官山アドレスザ・タワー２１０３号室,,13,113,1500034,,,,,,,2025-09-29,1,,,,,メドークロウズサーティーン,0
989,5011003022629,新規,0,2025-09-29,2025-09-29,合同会社Ｔ‐ＰＭ,,合同会社,東京都,渋谷区,神泉町１０番１５号アネックス神泉３０１,,13,113,1500045,,,,,,,2025-09-29,1,,,,,ティピーエム,0
994,5011101112752,新規,0,2025-09-29,2025-09-29,株式会社ｏｎｈａｓ,,株式会社,東京都,新宿区,富久町１５－１－４８１６,,13,104,1620067,,,,,,,2025-09-29,1,,,,,オンハス,0
995,5011101113313,新規,0,2025-09-29,2025-09-29,ＤＲＣ医薬ホールディングス株式会社,,株式会社,東京都,新宿区,西新宿６丁目５番１号新宿アイランドタワー４階,,13,104,1600023,,,,,,,2025-09-29,1,,,,,ディーアールシーイヤクホールディングス,0
996,5011101113379,新規,0,2025-09-29,2025-09-29,株式会社プラスケイ,,株式会社,東京都,新宿区,四谷本塩町７－９,,13,104,1600003,,,,,,,2025-09-29,1,,,,,プラスケイ,0
997,5011101113387,新規,0,2025-09-29,2025-09-29,株式会社３Ｌ．ｉｎｔ,,株式会社,東京都,新宿区,新宿７丁目２７番１２－８１１号,,13,104,1600022,,,,,,,2025-09-29,1,,,,,スリーエル,0
998,5011101113429,新規,0,2025-09-29,2025-09-29,株式会社シーティーエス,,株式会社,東京都,新宿区,西新宿６丁目５番１号新宿アイランドタワー２階,,13,104,1600023,,,,,,,2025-09-29,1,,,,,シーティーエス,0
1000,5011103016448,新規,0,2025-09-29,2025-09-29,合同会社ａｎｄＡ,,合同会社,東京都,新宿区,西新宿３丁目３番１３号西新宿水間ビル６Ｆ,,13,104,1600023,,,,,,,2025-09-29,1,,,,,アンドエー,0
1001,5011103016464,新規,0,2025-09-29,2025-09-29,ＡｕｒａＬｉｎｋ合同会社,,合同会社,東京都,新宿区,四谷４丁目２４－２６御苑ハイム７階７０３号室,,13,104,1600004,,,,,,,2025-09-29,1,,,,,オーラリンク,0
1010,5011603004860,新規,0,2025-09-29,2025-09-29,心正合同会社,,合同会社,東京都,練馬区,土支田３丁目２３番９号,,13,120,1790076,,,,,,,2025-09-29,1,,,,,シンショウ,0
1011,5011803007102,新規,0,2025-09-29,2025-09-29,合同会社アセットツリー,,合同会社,東京都,葛飾区,堀切１丁目２６－２ハイツベイルリ２０６,,13,122,1240006,,,,,,,2025-09-29,1,,,,,アセットツリー,0
1012,5011803007110,新規,0,2025-09-29,2025-09-29,福華合同会社,,合同会社,東京都,足立区,青井６丁目３－１２青井第三宏和ハイツ１０３,,13,121,1210012,,,,,,,2025-09-29,1,,,,,フクカ,0
1017,5013301055005,新規,0,2025-09-29,2025-09-29,ＺＩＮ株式会社,,株式会社,東京都,豊島区,上池袋１丁目２７番７－３０４号,,13,116,1700012,,,,,,,2025-09-29,1,,,,,ゼットアイエヌ,0
1018,5013303007904,新規,0,2025-09-29,2025-09-29,合同会社トシマラボ,,合同会社,東京都,豊島区,池袋３丁目３４－７ビジネスパーク池袋２階,,13,116,1710014,,,,,,,2025-09-29,1,,,,,トシマラボ,0
1020,5020001164944,新規,0,2025-09-29,2025-09-29,慶和＆ＫＷ株式会社,,株式会社,神奈川県,川崎市幸区,戸手４丁目９－１－８０１号,,14,132,2120005,,,,,,,2025-09-29,1,,,,,ケイワアンドケイダブリュー,0
1022,5020003029427,新規,0,2025-09-29,2025-09-29,合同会社Ｊａｎｅ　Ａｒｔ　Ｗｏｒｋｓ,,合同会社,神奈川県,横浜市港北区,下田町４丁目５－１０メゾンきじま２０１号室,,14,109,2230064,,,,,,,2025-09-29,1,,,,,ジェーンアートワークス,0
1025,5021001086328,新規,0,2025-09-29,2025-09-29,株式会社サンシーゴー,,株式会社,神奈川県,藤沢市,辻堂元町２丁目１－１２,,14,205,2510043,,,,,,,2025-09-29,1,,,,,サンシーゴー,0
1031,5030001168829,新規,0,2025-09-29,2025-09-29,春吉株式会社,,株式会社,埼玉県,羽生市,大字羽生１４７－１－３０８,,11,216,3480055,,,,,,,2025-09-29,1,,,,,ハルヨシ,0
1032,5030001168853,新規,0,2025-09-29,2025-09-29,盛夏株式会社,,株式会社,埼玉県,羽生市,大字羽生１４７－１－３０７,,11,216,3480055,,,,,,,2025-09-29,1,,,,,セイカ,0
1036,5030003027685,新規,0,2025-09-29,2025-09-29,合同会社Ｙ’Ｓ建設,,合同会社,埼玉県,羽生市,大字神戸６８６番地７,,11,216,3480024,,,,,,,2025-09-29,1,,,,,ワイズケンセツ,0
1041,5040001140646,新規,0,2025-09-29,2025-09-29,ＧＦＪ株式会社,,株式会社,千葉県,松戸市,西馬橋５丁目２４７番地,,12,207,2710044,,,,,,,2025-09-29,1,,,,,ジーエフジェイ,0
1042,5040003028583,新規,0,2025-09-29,2025-09-29,Ｇｒｅｅｎ　Ｆａｒｍ合同会社,,合同会社,千葉県,浦安市,高洲３丁目１４番５号,,12,227,2790023,,,,,,,2025-09-29,1,,,,,グリーンファーム,0
1051,5070001043383,新規,0,2025-09-29,2025-09-29,株式会社メディケアーチ,,株式会社,群馬県,前橋市,川曲町５７０番地１８,,10,201,3710823,,,,,,,2025-09-29,1,,,,,メディケアーチ,0
1052,5070003006108,新規,0,2025-09-29,2025-09-29,合同会社イスミジャパン,,合同会社,群馬県,館林市,足次町１２１０－２大原ハイツ１階１１９号室,,10,207,3740073,,,,,,,2025-09-29,1,,,,,イスミジャパン,0
1053,5090005007738,新規,0,2025-09-29,2025-09-29,特定非営利活動法人ｅｓｔフットボールクラブ,,その他の設立登記法人,山梨県,上野原市,コモアしおつ４丁目２７番３号,,19,212,4090126,,,,,,,2025-09-29,1,,,,,エストフットボールクラブ,0
1054,5100001038990,新規,0,2025-09-29,2025-09-29,ＥＲＷＡＮ株式会社,,株式会社,長野県,長野市,大字鶴賀権堂町２２８３番地コーポビルＭ＆Ｙ,,20,201,3800833,,,,,,,2025-09-29,1,,,,,エルワン,0
1064,5120001279906,新規,0,2025-09-29,2025-09-29,株式会社ＮＥＫＯＲＡＮＧＥ,,株式会社,大阪府,大阪市中央区,本町２丁目３番４号アソルティ本町４階,,27,128,5410053,,,,,,,2025-09-29,1,,,,,ネコレンジ,0
1065,5120001279914,新規,0,2025-09-29,2025-09-29,株式会社ＧＩＦＴ,,株式会社,大阪府,大阪市浪速区,幸町２丁目３番２６－３０８号,,27,111,5560021,,,,,,,2025-09-29,1,,,,,ギフト,0
1066,5120001280021,新規,0,2025-09-29,2025-09-29,株式会社Ｓｈｉｍｕｒｏ,,株式会社,大阪府,大阪市中央区,淡路町２丁目６番１１号淡路パークビル５階,,27,128,5410047,,,,,,,2025-09-29,1,,,,,シムロ,0
1067,5120001280046,新規,0,2025-09-29,2025-09-29,大成株式会社,,株式会社,大阪府,大阪市西成区,梅南１丁目３番２１－２０２号,,27,122,5570033,,,,,,,2025-09-29,1,,,,,タイセイ,0
1068,5120001280070,新規,0,2025-09-29,2025-09-29,株式会社栄和,,株式会社,大阪府,大阪市都島区,東野田町４丁目１－５－４０３,,27,102,5340024,,,,,,,2025-09-29,1,,,,,エイワ,0
1069,5120001280095,新規,0,2025-09-29,2025-09-29,京應商事株式会社,,株式会社,大阪府,大阪市淀川区,十三元今里２丁目６番６号,,27,123,5320028,,,,,,,2025-09-29,1,,,,,ケイオウショウジ,0
1070,5120001280203,新規,0,2025-09-29,2025-09-29,ルオッタムス不動産株式会社,,株式会社,大阪府,大阪市淀川区,塚本２丁目１６番１４号リーガルタワー塚本１３０２,,27,123,5320026,,,,,,,2025-09-29,1,,,,,ルオッタムスフドウサン,0
1071,5120001280236,新規,0,2025-09-29,2025-09-29,Ｉ’ｍ　ｆｕｎ．株式会社,,株式会社,大阪府,大阪市城東区,諏訪４丁目１３－２１－４０１号室,,27,118,5360021,,,,,,,2025-09-29,1,,,,,アイムファン,0
1072,5120001280244,新規,0,2025-09-29,2025-09-29,鴻運株式会社,,株式会社,大阪府,大阪市住吉区,清水丘２丁目２０－１４,,27,120,5580033,,,,,,,2025-09-29,1,,,,,コウウン,0
1073,5120001280302,新規,0,2025-09-29,2025-09-29,恒久貿易株式会社,,株式会社,大阪府,大阪市東住吉区,中野４丁目１番１６号リベラルオリエンテ中野４０８Ａ,,27,121,5460012,,,,,,,2025-09-29,1,,,,,コウキュウボウエキ,0
1074,5120001280327,新規,0,2025-09-29,2025-09-29,ＢＯＴホールディングス株式会社,,株式会社,大阪府,大阪市平野区,加美北５丁目１０番６号,,27,126,5470001,,,,,,,2025-09-29,1,,,,,ビーオーティーホールディングス,0
1079,5120003030721,新規,0,2025-09-29,2025-09-29,合同会社御結び,,合同会社,大阪府,枚方市,南中振２丁目６９番１１号,,27,210,5730094,,,,,,,2025-09-29,1,,,,,オムスビ,0
1080,5120003030746,新規,0,2025-09-29,2025-09-29,合同会社ＭＯＵＮＴＡＩＮ,,合同会社,大阪府,大阪市北区,松ケ枝町１番２６号,,27,127,5300037,,,,,,,2025-09-29,1,,,,,マウンテン,0
1081,5120101072533,新規,0,2025-09-29,2025-09-29,株式会社ＲｅＢｅｙｏｎ,,株式会社,大阪府,河内長野市,向野町１４９番地１６,,27,216,5860013,,,,,,,2025-09-29,1,,,,,リビヨン,0
1098,5140001140132,新規,0,2025-09-29,2025-09-29,プライムエステート株式会社,,株式会社,兵庫県,加古川市,尾上町旭１丁目２９番地の２,,28,210,6750026,,,,,,,2025-09-29,1,,,,,プライムエステート,0
1110,5180003029114,新規,0,2025-09-29,2025-09-29,ＣＡＲ　ＰＲＯ　ＴＲＡＤＩＮＧ合同会社,,合同会社,愛知県,一宮市,瀬部字墓之腰９１番地１,,23,203,4910001,,,,,,,2025-09-29,1,,,,,カープロトレーディング,0
1111,5180003029122,新規,0,2025-09-29,2025-09-29,合同会社ＭＭ,,合同会社,愛知県,名古屋市中村区,名駅４丁目１４－１０柳橋フードマーケット７Ｆ,,23,105,4500002,,,,,,,2025-09-29,1,,,,,エムエム,0
1112,5180003029130,新規,0,2025-09-29,2025-09-29,Ｒｅｂｉｋａ合同会社,,合同会社,愛知県,名古屋市東区,筒井１丁目３番２９号,,23,102,4610003,,,,,,,2025-09-29,1,,,,,レビカ,0
1114,5190003005188,新規,0,2025-09-29,2025-09-29,合同会社集,,合同会社,三重県,いなべ市,北勢町其原７７８－１１ＢＡＳＥＳＯＮＯＨＡＲＡ、Ｃ棟,,24,214,5110426,,,,,,,2025-09-29,1,,,,,シュウ,0
1119,5210001020319,新規,0,2025-09-29,2025-09-29,ヤル気スタッフ株式会社,,株式会社,福井県,鯖江市,上鯖江１丁目１０－４３,,18,207,9160055,,,,,,,2025-09-29,1,,,,,ヤルキスタッフ,0
1121,5230001021109,新規,0,2025-09-29,2025-09-29,株式会社縁と縁,,株式会社,富山県,富山市,本郷町２７４番地９,,16,201,9398045,,,,,,,2025-09-29,1,,,,,エントユカリ,0
1136,5290001111614,新規,0,2025-09-29,2025-09-29,佳盛株式会社,,株式会社,福岡県,福岡市博多区,博多駅中央街５番１１号,,40,132,8120012,,,,,,,2025-09-29,1,,,,,カセイ,0
1138,5290003017529,新規,0,2025-09-29,2025-09-29,Ｄ‐ロジコム合同会社,,合同会社,福岡県,太宰府市,観世音寺１丁目１８番３１号,,40,221,8180101,,,,,,,2025-09-29,1,,,,,ディーロジコム,0
1148,5330001033606,新規,0,2025-09-29,2025-09-29,Ｄ＆Ｂ株式会社,,株式会社,熊本県,熊本市南区,近見３丁目１番３０号２Ｆ,,43,104,8614101,,,,,,,2025-09-29,1,,,,,ディーアンドビー,0
1153,5340003004959,新規,0,2025-09-29,2025-09-29,合同会社清砂工業,,合同会社,鹿児島県,霧島市,国分川原８４４番地,,46,218,8994303,,,,,,,2025-09-29,1,,,,,セイサコウギョウ,0
1155,5350003005031,新規,0,2025-09-29,2025-09-29,合同会社ＡＬＧＯ,,合同会社,宮崎県,延岡市,野田２丁目８番地５,,45,203,8820805,,,,,,,2025-09-29,1,,,,,アルゴ,0
1158,5360001035806,新規,0,2025-09-29,2025-09-29,株式会社ワールドオキナワ,,株式会社,沖縄県,浦添市,内間１丁目１番地１４号ベアーズコート内間４０５,,47,208,9012121,,,,,,,2025-09-29,1,,,,,ワールドオキナワ,0
1164,5430001095256,新規,0,2025-09-29,2025-09-29,ＢＩＢＡＩＮＯＴＥ株式会社,,株式会社,北海道,美唄市,大通東一条南２丁目２番３号,,01,215,0720011,,,,,,,2025-09-29,1,,,,,ビバイノオト,0
1165,5430001095264,新規,0,2025-09-29,2025-09-29,株式会社ポップライフ,,株式会社,北海道,日高郡新ひだか町,静内末広町３丁目４番２２号,,01,610,0560026,,,,,,,2025-09-29,1,,,,,ポップライフ,0
1166,5430001095289,新規,0,2025-09-29,2025-09-29,株式会社ＡＬＬ　ＡＣＣＥＳＳ,,株式会社,北海道,札幌市白石区,北郷四条２丁目７番８号,,01,104,0030834,,,,,,,2025-09-29,1,,,,,オールアクセス,0
1167,5430003018099,新規,0,2025-09-29,2025-09-29,合同会社ｙ．ａｒｍｅｒｉａ,,合同会社,北海道,苫小牧市,錦町２丁目５番９号,,01,213,0530023,,,,,,,2025-09-29,1,,,,,ワイドットアルメリア,0
1168,5430003018108,新規,0,2025-09-29,2025-09-29,合同会社オートコレクト,,合同会社,北海道,札幌市東区,東苗穂七条３丁目６－２６,,01,103,0070807,,,,,,,2025-09-29,1,,,,,オートコレクト,0
1183,6010001258564,新規,0,2025-09-29,2025-09-29,株式会社Ｌｉｗｅｎｅｘｕｓｓ,,株式会社,東京都,中央区,銀座１丁目２２番１１号銀座大竹ビジデンス２Ｆ,,13,102,1040061,,,,,,,2025-09-29,1,,,,,リネクス,0
1184,6010001258597,新規,0,2025-09-29,2025-09-29,株式会社プットバック,,株式会社,東京都,中央区,銀座１丁目２２番１１号銀座大竹ビジデンス２階,,13,102,1040061,,,,,,,2025-09-29,1,,,,,プットバック,0
1185,6010001258721,新規,0,2025-09-29,2025-09-29,株式会社みらい結び,,株式会社,東京都,中央区,銀座１丁目１６番７号銀座大栄ビル,,13,102,1040061,,,,,,,2025-09-29,1,,,,,ミライムスビ,0
1186,6010001258770,新規,0,2025-09-29,2025-09-29,株式会社ＬＯＮＧ,,株式会社,東京都,文京区,小日向２丁目９番８－２０４号,,13,105,1120006,,,,,,,2025-09-29,1,,,,,ロン,0
1187,6010001258795,新規,0,2025-09-29,2025-09-29,株式会社築地Ｍ・Ｖ,,株式会社,東京都,千代田区,神田須田町１丁目７番８号ＶＯＲＴ秋葉原ＩＶ２階,00140844,13,101,1010041,,,,,,,2025-09-29,1,,,,,ツキジエムブイ,0
1188,6010001258804,新規,0,2025-09-29,2025-09-29,株式会社ジュシパートナーズ,,株式会社,東京都,千代田区,神田和泉町１番地６－１６ヤマトビル４０５,,13,101,1010024,,,,,,,2025-09-29,1,,,,,ジュシパートナーズ,0
1189,6010003048880,新規,0,2025-09-29,2025-09-29,ファミリーリンク合同会社,,合同会社,東京都,中央区,日本橋室町１丁目１１番１２号日本橋水野ビル７階,,13,102,1030022,,,,,,,2025-09-29,1,,,,,ファミリーリンク,0
1192,6010105002348,新規,0,2025-09-29,2025-09-29,一般社団法人マザーｉＬＡＮＤ１８９,,その他の設立登記法人,東京都,八王子市,散田町１丁目９番１１号,,13,201,1930832,,,,,,,2025-09-29,1,,,,,マザーアイランドイチハチキュウ,0
1196,6010401193171,新規,0,2025-09-29,2025-09-29,Ｍａｎｉｔａ株式会社,,株式会社,東京都,港区,北青山１丁目３－１アールキューブ青山３Ｆ,,13,103,1070061,,,,,,,2025-09-29,1,,,,,マニータ,0
1198,6010501054785,新規,0,2025-09-29,2025-09-29,和融環球株式会社,,株式会社,東京都,台東区,松が谷２丁目１５番８号浅草Ｋ２ビル３１０号室,,13,106,1110036,,,,,,,2025-09-29,1,,,,,ワユウカンキュウ,0
1200,6010601068017,新規,0,2025-09-29,2025-09-29,ＦＡＨＲ　ＪＡＰＡＮ株式会社,,株式会社,東京都,墨田区,立花４丁目１９番５号－１階,,13,107,1310043,,,,,,,2025-09-29,1,,,,,ファルジャパン,0
1204,6010803005560,新規,0,2025-09-29,2025-09-29,合同会社Ｖｅｒｔｅｘ,,合同会社,東京都,大田区,西蒲田４丁目１４番１１号１０６,,13,111,1440051,,,,,,,2025-09-29,1,,,,,バーテックス,0
1206,6010901058106,新規,0,2025-09-29,2025-09-29,株式会社やさしいせかい,,株式会社,東京都,世田谷区,用賀３丁目２１番地１号,,13,112,1580097,,,,,,,2025-09-29,1,,,,,ヤサシイセカイ,0
1207,6010901058155,新規,0,2025-09-29,2025-09-29,株式会社マロンクリエイト,,株式会社,東京都,世田谷区,成城９丁目３１番２０号,,13,112,1570066,,,,,,,2025-09-29,1,,,,,マロンクリエイト,0
1208,6010903010279,新規,0,2025-09-29,2025-09-29,合同会社ＡｌｔＤｉｎｅｒ,,合同会社,東京都,世田谷区,若林３丁目６番１３号ドレッセ世田谷松陰神社２０８,,13,112,1540023,,,,,,,2025-09-29,1,,,,,オルトダイナー,0
1213,6011001171996,新規,0,2025-09-29,2025-09-29,株式会社Ｓｔａｒｔ　Ｉｔ　Ａｇａｉｎ,,株式会社,東京都,渋谷区,神泉町２０番１５号神泉モンドビル２Ｆ,,13,113,1500045,,,,,,,2025-09-29,1,,,,,スタートイットアゲイン,0
1214,6011001172219,新規,0,2025-09-29,2025-09-29,ＬｅａｄＣａｓｔ株式会社,,株式会社,東京都,渋谷区,道玄坂１丁目１０番８号渋谷道玄坂東急ビル２Ｆ－Ｃ,,13,113,1500043,,,,,,,2025-09-29,1,,,,,リードキャスト,0
1219,6011101113089,新規,0,2025-09-29,2025-09-29,株式会社ファーサン・ジャパン,,株式会社,東京都,新宿区,西新宿６丁目１０－１日土地西新宿ビル８階,,13,104,1600023,,,,,,,2025-09-29,1,,,,,ファーサンジャパン,0
1220,6011101113287,新規,0,2025-09-29,2025-09-29,ＣＳＨ株式会社,,株式会社,東京都,新宿区,西新宿６丁目１５番１号ラ・トゥール新宿５０５,,13,104,1600023,,,,,,,2025-09-29,1,,,,,シーエスエイチ,0
1221,6011101113312,新規,0,2025-09-29,2025-09-29,株式会社ＫＡＮＢＵ,,株式会社,東京都,新宿区,西新宿２丁目４番１号,,13,104,1600023,,,,,,,2025-09-29,1,,,,,カンブ,0
1222,6011101113320,新規,0,2025-09-29,2025-09-29,エニースコープ株式会社,,株式会社,東京都,新宿区,西新宿３丁目３番１３号西新宿水間ビル２Ｆ,,13,104,1600023,,,,,,,2025-09-29,1,,,,,エニースコープ,0
1223,6011101113337,新規,0,2025-09-29,2025-09-29,株式会社ＴｒｉＴｏｎ,,株式会社,東京都,新宿区,上落合３丁目２７番８号アーバンプレイス落合Ｗ２０３号室,,13,104,1610034,,,,,,,2025-09-29,1,,,,,トリトン,0
1224,6011101113361,新規,0,2025-09-29,2025-09-29,ＥＯＴＯＡＩ株式会社,,株式会社,東京都,新宿区,西新宿６丁目１６番６号新宿タツミビル１００２,,13,104,1600023,,,,,,,2025-09-29,1,,,,,エオトエーアイ,0
1225,6011101113378,新規,0,2025-09-29,2025-09-29,Ｓｎｏｗｓｅｎｓｅｉ　ｇｒｏｕｐ　Ｊａｐａｎ株式会社,,株式会社,東京都,新宿区,高田馬場３丁目１４番２号佐成屋ビル３階,,13,104,1690075,,,,,,,2025-09-29,1,,,,,スノーセンセイグループジャパン,0
1226,6011103016380,新規,0,2025-09-29,2025-09-29,Ａｓｔｒｏｖｉａ合同会社,,合同会社,東京都,新宿区,西新宿３丁目３番１３号西新宿水間ビル６階,,13,104,1600023,,,,,,,2025-09-29,1,,,,,アストロヴィア,0
1227,6011103016397,新規,0,2025-09-29,2025-09-29,合同会社狸千代,,合同会社,東京都,新宿区,西新宿３丁目３番１３号西新宿水間ビル２Ｆ,,13,104,1600023,,,,,,,2025-09-29,1,,,,,タヌチヨ,0
1228,6011103016406,新規,0,2025-09-29,2025-09-29,合同会社Ｕｎｏ,,合同会社,東京都,新宿区,西新宿３丁目３番１３号西新宿水間ビル２Ｆ,,13,104,1600023,,,,,,,2025-09-29,1,,,,,ウーノ,0
1229,6011103016439,新規,0,2025-09-29,2025-09-29,ＲＯＯＭ合同会社,,合同会社,東京都,新宿区,四谷三栄町１０番１号三栄杉本ビル１階,,13,104,1600008,,,,,,,2025-09-29,1,,,,,ルーム,0
1230,6011103016447,新規,0,2025-09-29,2025-09-29,Ｓｋｉｌｌ　Ｇｒｏｗｔｈ合同会社,,合同会社,東京都,新宿区,西新宿３丁目３－１３西新宿水間ビル６階,,13,104,1600023,,,,,,,2025-09-29,1,,,,,スキルグロース,0
1232,6011203004830,新規,0,2025-09-29,2025-09-29,Ａｕｒｔｈｍ合同会社,,合同会社,東京都,中野区,中央２丁目５９番１５号Ｓｆｉｄａ・Ｋ６０１号室,,13,114,1640011,,,,,,,2025-09-29,1,,,,,オーリズム,0
1235,6011501032624,新規,0,2025-09-29,2025-09-29,株式会社金華堂,,株式会社,東京都,北区,西ケ原１丁目４３番４号,,13,117,1140024,,,,,,,2025-09-29,1,,,,,キンカドウ,0
1237,6011601029009,新規,0,2025-09-29,2025-09-29,仲間東京株式会社,,株式会社,東京都,練馬区,北町５丁目５－７かぼちゃの馬車平和台Ｖ２０５号室,00140834,13,120,1790081,,,,,,,2025-09-29,1,,,,,ナカマトウキョウ,0
1240,6011605002671,新規,0,2025-09-29,2025-09-29,一般社団法人ぱぷりか,,その他の設立登記法人,東京都,練馬区,豊玉北６丁目１４番２－７０２,,13,120,1760012,,,,,,,2025-09-29,1,,,,,パプリカ,0
1242,6011803007101,新規,0,2025-09-29,2025-09-29,ＰＨＵＯＮＧ　ＬＡＭ合同会社,,合同会社,東京都,葛飾区,西新小岩４丁目２３－５,,13,122,1240025,,,,,,,2025-09-29,1,,,,,フォンラム,0
1243,6012301014548,新規,0,2025-09-29,2025-09-29,ＵｎｉｔｅｄＭａｃｈｉｎｅＰａｒｔｎｅｒｓ株式会社,,株式会社,東京都,町田市,金井６丁目４５番１３号,,13,209,1950072,,,,,,,2025-09-29,1,,,,,ユナイテッドマシンパートナーズ,0
1244,6012305002152,新規,0,2025-09-29,2025-09-29,一般社団法人プリズム美容医療協会,,その他の設立登記法人,東京都,町田市,原町田６丁目２１番３２号Ｍａｃｈｉｄａｅｘ４階,,13,209,1940013,,,,,,,2025-09-29,1,,,,,プリズムビヨウイリョウキョウカイ,0
1245,6012401043629,新規,0,2025-09-29,2025-09-29,株式会社フジアセット,,株式会社,東京都,狛江市,和泉本町３丁目３９‐３,,13,219,2010003,,,,,,,2025-09-29,1,,,,,フジアセット,0
1251,6013301055012,新規,0,2025-09-29,2025-09-29,株式会社華南‐ＨＡＮＡ,,株式会社,東京都,豊島区,南大塚１丁目４２番１５号,,13,116,1700005,,,,,,,2025-09-29,1,,,,,ハナ,0
1252,6013301055020,新規,0,2025-09-29,2025-09-29,ＲｅＭｉｒｅ株式会社,,株式会社,東京都,豊島区,長崎３丁目１３番１３号,,13,116,1710051,,,,,,,2025-09-29,1,,,,,リミレ,0
1260,6020001165009,新規,0,2025-09-29,2025-09-29,株式会社ＭＲＥ,,株式会社,神奈川県,横浜市港南区,日限山１丁目６０番４２号,,14,111,2330015,,,,,,,2025-09-29,1,,,,,エムアールイー,0
1261,6020001165041,新規,0,2025-09-29,2025-09-29,株式会社ＳＰＡＺＩＯ創建,,株式会社,神奈川県,横浜市港北区,日吉７丁目５番８号,,14,109,2230061,,,,,,,2025-09-29,1,,,,,スパジオソウケン,0
1266,6020003029368,新規,0,2025-09-29,2025-09-29,大丸合同会社,,合同会社,神奈川県,川崎市宮前区,野川本町２丁目１０番２９号,,14,136,2160041,,,,,,,2025-09-29,1,,,,,オオマル,0
1267,6020003029376,新規,0,2025-09-29,2025-09-29,衆嘉合同会社,,合同会社,神奈川県,横浜市南区,中里１丁目２０－２５スターホームズ弘明寺１０２,,14,105,2320063,,,,,,,2025-09-29,1,,,,,シュウカ,0
1268,6020003029475,新規,0,2025-09-29,2025-09-29,ＯＬＥＤＷｏｒｋｓ　Ｊａｐａｎ合同会社,,合同会社,神奈川県,川崎市麻生区,栗木台３丁目７番５号,,14,137,2150032,,,,,,,2025-09-29,1,,,,,オーレッドワークスジャパン,0
1270,6021003016579,新規,0,2025-09-29,2025-09-29,ＥＺＤＨＡＮ　ＩＮＴＥＲＮＡＴＩＯＮＡＬ合同会社,,合同会社,神奈川県,愛甲郡愛川町,田代９７３－２,,14,401,2430306,,,,,,,2025-09-29,1,,,,,エズダンインターナショナル,0
1274,6030001168852,新規,0,2025-09-29,2025-09-29,株式会社水田興業,,株式会社,埼玉県,三郷市,中央２丁目１６番地２,,11,237,3410038,,,,,,,2025-09-29,1,,,,,ミズタコウギョウ,0
1277,6030003027676,新規,0,2025-09-29,2025-09-29,合同会社オーダー情報,,合同会社,埼玉県,さいたま市大宮区,大原７丁目３番１号６－４０３,,11,103,3300836,,,,,,,2025-09-29,1,,,,,オーダージョウホウ,0
1278,6030003027692,新規,0,2025-09-29,2025-09-29,合同会社ＩＲＩＳ,,合同会社,埼玉県,蕨市,中央３丁目５番６号蕨ハイリーハイツ１０３号室,,11,223,3350004,,,,,,,2025-09-29,1,,,,,アイリス,0
1282,6040001140620,新規,0,2025-09-29,2025-09-29,ＰＢＨ人材サポート株式会社,,株式会社,千葉県,船橋市,本町２丁目１３番１６－２０２号,,12,204,2730005,,,,,,,2025-09-29,1,,,,,ピービーエイチジンザイサポート,0
1283,6040001140777,新規,0,2025-09-29,2025-09-29,ワンアップホーム株式会社,,株式会社,千葉県,船橋市,前貝塚町２５５番地１６１,,12,204,2730042,,,,,,,2025-09-29,1,,,,,ワンアップホーム,0
1284,6040003028599,新規,0,2025-09-29,2025-09-29,ＮＥＹＡＺＡＩ　ＴＲＡＤＩＮＧ合同会社,,合同会社,千葉県,野田市,関宿台町３８７０－１５７関宿台町賃家ＭＡ,,12,208,2700202,,,,,,,2025-09-29,1,,,,,ネヤザイトレーディング,0
1285,6040003028608,新規,0,2025-09-29,2025-09-29,ＭＥＥＲ　ＡＵＴＯ合同会社,,合同会社,千葉県,袖ケ浦市,神納１０９番地６,,12,229,2990257,,,,,,,2025-09-29,1,,,,,ミールオート,0
1288,6060001038598,新規,0,2025-09-29,2025-09-29,株式会社ススバ,,株式会社,栃木県,足利市,福居町１９３４番地１,,09,202,3260338,,,,,,,2025-09-29,1,,,,,ススバ,0
1289,6060001038615,新規,0,2025-09-29,2025-09-29,株式会社五月女農場,,株式会社,栃木県,大田原市,町島３４１番地,,09,210,3240063,,,,,,,2025-09-29,1,,,,,ソウトメノウジョウ,0
1291,6080401028180,新規,0,2025-09-29,2025-09-29,株式会社ＷＥＥＤ,,株式会社,静岡県,袋井市,方丈６丁目８番地の７グリーンベルＩ－１０２,00140830,22,216,4370022,,,,,,,2025-09-29,1,,,,,ウィード,0
1294,6090001019521,新規,0,2025-09-29,2025-09-29,株式会社Ｇｒｅｅｎｆｌａｍｅ　Ｔｅｒｒａ　Ｊｅｗｅｌｒｙ　Ｃａｓｃａｄｅ,,株式会社,山梨県,甲府市,東光寺２丁目３５０番地９５,,19,201,4000807,,,,,,,2025-09-29,1,,,,,グリーンフレイムテラジュエリーカスケード,0
1305,6120001279847,新規,0,2025-09-29,2025-09-29,ｉｗａｆｕ株式会社,,株式会社,大阪府,大阪市港区,八幡屋２丁目４番１７号,,27,107,5520014,,,,,,,2025-09-29,1,,,,,ワフ,0
1306,6120001279863,新規,0,2025-09-29,2025-09-29,深瞳テクノロジー株式会社,,株式会社,大阪府,大阪市都島区,東野田町４丁目１－５吉升ビル３０４号,,27,102,5340024,,,,,,,2025-09-29,1,,,,,シントウテクノロジー,0
1307,6120001279921,新規,0,2025-09-29,2025-09-29,株式会社ロレインアイ,,株式会社,大阪府,大阪市北区,大深町１－１ＷｅＷｏｒｋ・ＬＩＮＫＳ・ＵＭＥＤＡ,,27,127,5300011,,,,,,,2025-09-29,1,,,,,ロレインアイ,0
1308,6120001280012,新規,0,2025-09-29,2025-09-29,株式会社Ｒｅｖｉａ,,株式会社,大阪府,大阪市中央区,淡路町２丁目６番１１号淡路パークビル５階,,27,128,5410047,,,,,,,2025-09-29,1,,,,,レヴィア,0
1309,6120001280029,新規,0,2025-09-29,2025-09-29,クラアパス株式会社,,株式会社,大阪府,大阪市都島区,都島北通１丁目１番４号Ａｑｕａ都島３０７号室,,27,102,5340014,,,,,,,2025-09-29,1,,,,,クラアパス,0
1310,6120001280045,新規,0,2025-09-29,2025-09-29,株式会社マコトコマース,,株式会社,大阪府,大阪市阿倍野区,丸山通１丁目２番４５号ハウス佑１１１号室,,27,119,5450042,,,,,,,2025-09-29,1,,,,,マコトコマース,0
1311,6120001280169,新規,0,2025-09-29,2025-09-29,株式会社三本の矢,,株式会社,大阪府,大阪市淀川区,西中島３丁目１５番７号新大阪プリンスビル,,27,123,5320011,,,,,,,2025-09-29,1,,,,,サンボンノヤ,0
1312,6120001280292,新規,0,2025-09-29,2025-09-29,株式会社ＳｕＢｉｒ,,株式会社,大阪府,枚方市,翠香園町１６番１号,00140835,27,210,5730095,,,,,,,2025-09-29,1,,,,,スビール,0
1313,6120001280301,新規,0,2025-09-29,2025-09-29,華龍株式会社,,株式会社,大阪府,大阪市東住吉区,中野４丁目１番１６号リベラルオリエンテ中野５０６Ａ,,27,121,5460012,,,,,,,2025-09-29,1,,,,,カリュウ,0
1314,6120001280359,新規,0,2025-09-29,2025-09-29,六藝株式会社,,株式会社,大阪府,大阪市西成区,千本南１丁目４番１１号プリンスハイツ３０７号室,,27,122,5570055,,,,,,,2025-09-29,1,,,,,ロクゲイ,0
1316,6120003030679,新規,0,2025-09-29,2025-09-29,国璽芸術事業合同会社,,合同会社,大阪府,大阪市西成区,萩之茶屋２丁目６番４号ニューかめや１３６号室,,27,122,5570004,,,,,,,2025-09-29,1,,,,,コクジゲイジュツジギョウ,0
1317,6120003030687,新規,0,2025-09-29,2025-09-29,ＦＡＭ合同会社,,合同会社,大阪府,大阪市住吉区,帝塚山東１丁目７－１９帝塚山松寿庵３０２号,,27,120,5580054,,,,,,,2025-09-29,1,,,,,ファム,0
1318,6120003030695,新規,0,2025-09-29,2025-09-29,合同会社エンタメ動画制作,,合同会社,大阪府,大阪市中央区,松屋町３番２３－６０６号,,27,128,5420067,,,,,,,2025-09-29,1,,,,,エンタメドウガセイサク,0
1319,6120003030729,新規,0,2025-09-29,2025-09-29,ＡＮＨ合同会社,,合同会社,大阪府,大阪市東住吉区,湯里２丁目１３番地２－５０２号室,,27,121,5460013,,,,,,,2025-09-29,1,,,,,アイン,0
1321,6120005025173,新規,0,2025-09-29,2025-09-29,農事組合法人近畿ファームテクノパーク,,その他の設立登記法人,大阪府,守口市,八雲中町２丁目７番３３号,,27,209,5700005,,,,,,,2025-09-29,1,,,,,キンキファームテクノパーク,0
1328,6120903005870,新規,0,2025-09-29,2025-09-29,合同会社ＳＵＮＷＯＲＬＤ,,合同会社,大阪府,吹田市,中の島町４番５６中の島サンプラザ３０３,,27,205,5640035,,,,,,,2025-09-29,1,,,,,サンワールド,0
1331,6130001080634,新規,0,2025-09-29,2025-09-29,株式会社瑞傑,,株式会社,京都府,八幡市,欽明台中央２９番地７,,26,210,6148295,,,,,,,2025-09-29,1,,,,,ミズケツ,0
1333,6130003010820,新規,0,2025-09-29,2025-09-29,合同会社香,,合同会社,京都府,京都市東山区,清水４丁目１７１番地８,,26,105,6050862,,,,,,,2025-09-29,1,,,,,コウ,0
1347,6180001168763,新規,0,2025-09-29,2025-09-29,若美国際株式会社,,株式会社,愛知県,名古屋市東区,白壁３丁目３番３０号ラ・モヴェール白壁鈴木５０３号,,23,102,4610011,,,,,,,2025-09-29,1,,,,,ワカビコクサイ,0
1352,6190001032563,新規,0,2025-09-29,2025-09-29,ＮＡ　ＡＵＴＯ株式会社,,株式会社,三重県,桑名郡木曽岬町,大字富田子字三の割３１０番地２２,,24,303,4980813,,,,,,,2025-09-29,1,,,,,エヌエーオート,0
1354,6190003005195,新規,0,2025-09-29,2025-09-29,合同会社ＳｍｉｌｅＣｌｅａｎ,,合同会社,三重県,志摩市,大王町船越２１０５番地６,,24,215,5170604,,,,,,,2025-09-29,1,,,,,スマイルクリーン,0
1359,6220003004128,新規,0,2025-09-29,2025-09-29,合同会社愛,,合同会社,石川県,鳳珠郡能登町,字宮犬１２字８番地３,,17,463,9270615,,,,,,,2025-09-29,1,,,,,メグミ,0
1360,6220005009001,新規,0,2025-09-29,2025-09-29,一般社団法人ミラクルデザイン,,その他の設立登記法人,石川県,金沢市,桜町２１番２０号,,17,201,9200923,,,,,,,2025-09-29,1,,,,,ミラクルデザイン,0
1361,6230001021108,新規,0,2025-09-29,2025-09-29,ＴＡＪＡＰ株式会社,,株式会社,富山県,富山市,太郎丸本町１丁目４番地９太郎丸フラッシュビル３階,,16,201,9398272,,,,,,,2025-09-29,1,,,,,タジャプ,0
1362,6230003002510,新規,0,2025-09-29,2025-09-29,ＡＵＴＯ　ＴＲＡＤＥ　ＪＡＰＡＮ合同会社,,合同会社,富山県,高岡市,伏木古府１丁目１０番１７号,,16,202,9330114,,,,,,,2025-09-29,1,,,,,オートトレードジャパン,0
1366,6240001065558,新規,0,2025-09-29,2025-09-29,美容院美容室株式会社,,株式会社,広島県,広島市中区,袋町１番２１号３階,,34,101,7300036,,,,,,,2025-09-29,1,,,,,ビヨウインビヨウシツ,0
1369,6250003003820,新規,0,2025-09-29,2025-09-29,合同会社フリースカイ,,合同会社,山口県,宇部市,大字善和２３９番地１,,35,202,7590134,,,,,,,2025-09-29,1,,,,,フリースカイ,0
1379,6270001009280,新規,0,2025-09-29,2025-09-29,シカノックス株式会社,,株式会社,鳥取県,鳥取市,鹿野町中園字屋敷通１６６番,,31,201,6890423,,,,,,,2025-09-29,1,,,,,シカノックス,0
1385,6290001111506,新規,0,2025-09-29,2025-09-29,株式会社Ｒｉｚ,,株式会社,福岡県,福岡市博多区,博多駅前１丁目２３番２号ＰａｒｋＦｒｏｎｔ博多駅前１丁目５Ｆ－Ｂ,,40,132,8120011,,,,,,,2025-09-29,1,,,,,リズ,0
1395,6350003005030,新規,0,2025-09-29,2025-09-29,合同会社天乃結喜商店,,合同会社,宮崎県,宮崎市,高岡町浦之名４７７９番地,,45,201,8802323,,,,,,,2025-09-29,1,,,,,アマノユウキショウテン,0
1398,6370001053070,新規,0,2025-09-29,2025-09-29,株式会社Ｂｒｉａｌｌａｎｔｅ,,株式会社,宮城県,仙台市太白区,郡山２丁目１１番６－３号,,04,104,9820003,,,,,,,2025-09-29,1,,,,,ブリアランテ,0
1403,6380001035596,新規,0,2025-09-29,2025-09-29,株式会社ＹＭ　Ｄｏｇａｒ　ｔｒａｄｉｎｇ,,株式会社,福島県,白河市,関辺松並２２番地１１９,,07,205,9610021,,,,,,,2025-09-29,1,,,,,ワイエムドガートレーディング,0
1412,6430001095271,新規,0,2025-09-29,2025-09-29,株式会社ＳＫＳ,,株式会社,北海道,札幌市白石区,東米里２１８９番地３５,,01,104,0030876,,,,,,,2025-09-29,1,,,,,エスケーエス,0
1420,6500001026525,新規,0,2025-09-29,2025-09-29,株式会社ホワイト,,株式会社,愛媛県,四国中央市,三島宮川３丁目６番１０号,,38,213,7990404,,,,,,,2025-09-29,1,,,,,ホワイト,0
1421,6700150032948,新規,0,2025-09-29,2015-10-09,全水道函館水道労働組合,,その他,北海道,函館市,末広町５－１４函館市企業局庁舎２階,,01,202,0400053,,,,,,,2015-10-09,1,,,,,ゼンスイドウハコダテスイドウロウドウクミアイ,0
1427,7010001258596,新規,0,2025-09-29,2025-09-29,光ゼニス株式会社,,株式会社,東京都,文京区,大塚５丁目８番１３－３０３号,,13,105,1120012,,,,,,,2025-09-29,1,,,,,ヒカリゼニス,0
1428,7010001258605,新規,0,2025-09-29,2025-09-29,株式会社Ｐｌｕｍ　Ｌｉｆｅ,,株式会社,東京都,千代田区,神田紺屋町４６番地双川ビル５階,,13,101,1010035,,,,,,,2025-09-29,1,,,,,プラムライフ,0
1429,7010001258704,新規,0,2025-09-29,2025-09-29,ＳＴＯＶＡＣ　ＪＡＰＡＮ株式会社,,株式会社,東京都,中央区,新川１丁目２７番８号新川大原ビル８階,,13,102,1040033,,,,,,,2025-09-29,1,,,,,ストバックジャパン,0
1430,7010001258745,新規,0,2025-09-29,2025-09-29,小林商事株式会社,,株式会社,東京都,千代田区,飯田橋２丁目１７番９－４０１号,,13,101,1020072,,,,,,,2025-09-29,1,,,,,コバヤシショウジ,0
1431,7010003048780,新規,0,2025-09-29,2025-09-29,合同会社デットファンド第一号,,合同会社,東京都,千代田区,丸の内１丁目８番２号＿鋼ビルディング１２Ｆ,00140838,13,101,1000005,,,,,,,2025-09-29,1,,,,,デットファンドダイイチゴウ,0
1432,7010003048797,新規,0,2025-09-29,2025-09-29,ＢＤＣ合同会社,,合同会社,東京都,中央区,銀座８丁目１１番１３－４０１号,,13,102,1040061,,,,,,,2025-09-29,1,,,,,ビーディーシー,0
1433,7010003048839,新規,0,2025-09-29,2025-09-29,合同会社ＤＯＬＯＳ．ａｒｔ,,合同会社,東京都,千代田区,神田三崎町３丁目５番９号天翔水道橋ビル,,13,101,1010061,,,,,,,2025-09-29,1,,,,,ドロスアート,0
1441,7010401193385,新規,0,2025-09-29,2025-09-29,田村町商事株式会社,,株式会社,東京都,港区,西新橋３丁目１１番１号,,13,103,1050003,,,,,,,2025-09-29,1,,,,,タムラチョウショウジ,0
1445,7010503008020,新規,0,2025-09-29,2025-09-29,合同会社タイムコード,,合同会社,東京都,台東区,寿２丁目１番６号アイステージ寿２０１号,,13,106,1110042,,,,,,,2025-09-29,1,,,,,タイムコード,0
1450,7010703007929,新規,0,2025-09-29,2025-09-29,ＧＨＫ合同会社,,合同会社,東京都,品川区,東五反田３丁目２１番６号アルテシモピトレ７０１,,13,109,1410022,,,,,,,2025-09-29,1,,,,,ジーエイチケー,0
1451,7010801036631,新規,0,2025-09-29,2025-09-29,耀和商事株式会社,,株式会社,東京都,大田区,西蒲田１丁目２０番１３号メゾンシンシ１０２,,13,111,1440051,,,,,,,2025-09-29,1,,,,,ヨウワショウジ,0
1459,7011001171731,新規,0,2025-09-29,2025-09-29,Ｔｅｂｌａ株式会社,,株式会社,東京都,渋谷区,道玄坂１丁目１０番８号渋谷道玄坂東急ビル２Ｆ－Ｃ,,13,113,1500043,,,,,,,2025-09-29,1,,,,,テブラ,0
1465,7011101113179,新規,0,2025-09-29,2025-09-29,株式会社シルバーブレット,,株式会社,東京都,新宿区,百人町２丁目２１番７号河本マンション２０２,,13,104,1690073,,,,,,,2025-09-29,1,,,,,シルバーブレット,0
1466,7011103016454,新規,0,2025-09-29,2025-09-29,花道合同会社,,合同会社,東京都,新宿区,西新宿６丁目５番１号新宿アイランドタワー２階,,13,104,1600023,,,,,,,2025-09-29,1,,,,,ハナドウ,0
1467,7011103016462,新規,0,2025-09-29,2025-09-29,ＢＬＵＥＬＥＡＦ合同会社,,合同会社,東京都,新宿区,西新宿４丁目２３番１号サクラハウス西新宿２―１０１,,13,104,1600023,,,,,,,2025-09-29,1,,,,,ブルーリーフ,0
1470,7011401027434,新規,0,2025-09-29,2025-09-29,ＳＤ　ＦＡＲＭ株式会社,,株式会社,東京都,板橋区,板橋２丁目４１番１２号大森ビル,,13,119,1730004,,,,,,,2025-09-29,1,,,,,エスディファーム,0
1472,7011501032623,新規,0,2025-09-29,2025-09-29,株式会社ライズ,,株式会社,東京都,北区,赤羽北１丁目７番１５－２０１号,,13,117,1150052,,,,,,,2025-09-29,1,,,,,ライズ,0
1475,7012401043611,新規,0,2025-09-29,2025-09-29,株式会社ＭＣ,,株式会社,東京都,狛江市,岩戸南４丁目３０番３号,,13,219,2010005,,,,,,,2025-09-29,1,,,,,エムシー,0
1482,7013301055028,新規,0,2025-09-29,2025-09-29,株式会社ネクストライブ,,株式会社,東京都,豊島区,東池袋２丁目６２番８号ＢＩＧオフィスプラザ池袋１２０６,,13,116,1700013,,,,,,,2025-09-29,1,,,,,ネクストライブ,0
1483,7013303007893,新規,0,2025-09-29,2025-09-29,合同会社将,,合同会社,東京都,豊島区,南大塚２丁目１１番１０号ミモザビル３Ｆ,,13,116,1700005,,,,,,,2025-09-29,1,,,,,ショウ,0
1486,7020001164819,新規,0,2025-09-29,2025-09-29,縁志株式会社,,株式会社,神奈川県,川崎市高津区,末長４丁目１３番２－５０３号セルアージュ武蔵新城ルクール,,14,134,2130013,,,,,,,2025-09-29,1,,,,,エニシ,0
1487,7020001164959,新規,0,2025-09-29,2025-09-29,株式会社ヒューストン,,株式会社,神奈川県,横浜市港北区,新横浜３丁目８－２－１３０５,,14,109,2220033,,,,,,,2025-09-29,1,,,,,ヒューストン,0
1488,7020003029375,新規,0,2025-09-29,2025-09-29,隆盛堂合同会社,,合同会社,神奈川県,横浜市西区,北幸２丁目１０番地４８号むつみビル３階,,14,103,2200004,,,,,,,2025-09-29,1,,,,,リュウセイドウ,0
1489,7020003029433,新規,0,2025-09-29,2025-09-29,合同会社Ｒｏｎｄｉｎｏ,,合同会社,神奈川県,横浜市青葉区,美しが丘１丁目１３番１０号,,14,117,2250002,,,,,,,2025-09-29,1,,,,,ロンディーノ,0
1493,7021003016644,新規,0,2025-09-29,2025-09-29,合同会社Ｌｅｓｅ,,合同会社,神奈川県,平塚市,代官町１番６１―２０２号ＬＵＡＮＡ湘南,,14,203,2540807,,,,,,,2025-09-29,1,,,,,レーゼ,0
1497,7030001168785,新規,0,2025-09-29,2025-09-29,株式会社ＢＵＳＩＮＥＳＳ　ＤＥＳＩＧＮ,,株式会社,埼玉県,さいたま市桜区,田島５丁目９番１１号フェリオ西浦和３０２,,11,106,3380837,,,,,,,2025-09-29,1,,,,,ビジネスデザイン,0
1498,7030001168843,新規,0,2025-09-29,2025-09-29,株式会社ＺＫ　ＴＲＡＤＩＮＧ,,株式会社,埼玉県,羽生市,南羽生３丁目１２番７－１０１号,,11,216,3480071,,,,,,,2025-09-29,1,,,,,ゼットケートレーディング,0
1503,7040001140644,新規,0,2025-09-29,2025-09-29,国新源株式会社,,株式会社,千葉県,浦安市,北栄１丁目３番５号豊ハイツ４０６号室,,12,227,2790002,,,,,,,2025-09-29,1,,,,,コクシンゲン,0
1504,7040001140710,新規,0,2025-09-29,2025-09-29,株式会社Ｏ‐ＨＡＬ,,株式会社,千葉県,松戸市,常盤平１丁目５番地の２６,,12,207,2702261,,,,,,,2025-09-29,1,,,,,オーハル,0
1507,7040003028607,新規,0,2025-09-29,2025-09-29,ＨＡＭＤＡＮ　ＴＲＡＤＩＮＧ合同会社,,合同会社,千葉県,袖ケ浦市,川原井２０３３番地１０,,12,229,2990201,,,,,,,2025-09-29,1,,,,,ハムダントレーディング,0
1508,7040003028615,新規,0,2025-09-29,2025-09-29,合同会社３ＡＬ　ＡＵＴＯ　ＶＥＮＴＵＲＥ,,合同会社,千葉県,成田市,一坪田１１７番地１０,,12,211,2870227,,,,,,,2025-09-29,1,,,,,スリーエーエルオートベンチャー,0
1511,7050003009622,新規,0,2025-09-29,2025-09-29,合同会社幸鈴,,合同会社,茨城県,ひたちなか市,大字東石川３５９８番地８９,,08,221,3120052,,,,,,,2025-09-29,1,,,,,コウリン,0
1514,7070001043381,新規,0,2025-09-29,2025-09-29,株式会社ＳＨＩＢＡＫＥＮ,,株式会社,群馬県,渋川市,中郷４５９番地６８,,10,208,3770202,,,,,,,2025-09-29,1,,,,,シバケン,0
1515,7070003006114,新規,0,2025-09-29,2025-09-29,ＩＧＮＩＴＥ合同会社,,合同会社,群馬県,高崎市,南大類町７１０－５ブレスユービル４階,,10,202,3700036,,,,,,,2025-09-29,1,,,,,,0
1517,7070005010428,新規,0,2025-09-29,2025-09-29,特定非営利活動法人ＥＹＥ愛,,その他の設立登記法人,群馬県,伊勢崎市,田中島町１４７１番地４,,10,204,3720802,,,,,,,2025-09-29,1,,,,,アイアイ,0
1520,7080003003564,新規,0,2025-09-29,2025-09-29,ＳＵＮＲＩＳＥ　ＩＮＴＥＲＮＡＴＩＯＮＡＬ合同会社,,合同会社,静岡県,静岡市駿河区,曲金２丁目７番７１号２階,,22,102,4228006,,,,,,,2025-09-29,1,,,,,サンライズインターナショナル,0
1525,7100001038980,新規,0,2025-09-29,2025-09-29,株式会社モックモック,,株式会社,長野県,飯田市,座光寺４５２０番地３６,,20,205,3950001,,,,,,,2025-09-29,1,,,,,モックモック,0
1537,7120001279895,新規,0,2025-09-29,2025-09-29,連通サプライチェーン管理株式会社,,株式会社,大阪府,大阪市西成区,玉出西２丁目８－９－４０６号,,27,122,5570045,,,,,,,2025-09-29,1,,,,,レンツウサプライチェーンカンリ,0
1538,7120001280044,新規,0,2025-09-29,2025-09-29,新一商事株式会社,,株式会社,大阪府,大阪市天王寺区,空堀町９番２９号,,27,109,5430012,,,,,,,2025-09-29,1,,,,,シンイチショウジ,0
1539,7120001280069,新規,0,2025-09-29,2025-09-29,朝陽株式会社,,株式会社,大阪府,大阪市西成区,天下茶屋２丁目２１－６－１０５号室,,27,122,5570014,,,,,,,2025-09-29,1,,,,,チョウヨウ,0
1540,7120001280119,新規,0,2025-09-29,2025-09-29,余永株式会社,,株式会社,大阪府,大阪市住吉区,長居３丁目６番２０－２ｄ,,27,120,5580003,,,,,,,2025-09-29,1,,,,,ヨエイ,0
1545,7120003030604,新規,0,2025-09-29,2025-09-29,合同会社肉ぶくろ,,合同会社,大阪府,大阪市東淀川区,豊新４丁目１２番９号クリアコートＵ,,27,114,5330014,,,,,,,2025-09-29,1,,,,,ニクブクロ,0
1546,7120003030703,新規,0,2025-09-29,2025-09-29,日源企業合同会社,,合同会社,大阪府,大阪市西成区,萩之茶屋２丁目６番４号ニューかめや１３２号室,,27,122,5570004,,,,,,,2025-09-29,1,,,,,ニチゲンキギョウ,0
1547,7120003030728,新規,0,2025-09-29,2025-09-29,合同会社ＮＱＡＴ,,合同会社,大阪府,大阪市生野区,新今里３丁目５－１８,,27,116,5440001,,,,,,,2025-09-29,1,,,,,エヌキューエーティー,0
1567,7140003022624,新規,0,2025-09-29,2025-09-29,合同会社ＡＮＨ　ＡＮＨ,,合同会社,兵庫県,神戸市兵庫区,門口町１－４－５０１号室,,28,105,6520814,,,,,,,2025-09-29,1,,,,,アインアイン,0
1571,7160001027078,新規,0,2025-09-29,2025-09-29,株式会社フラット,,株式会社,滋賀県,大津市,仰木の里東８丁目１９番２３号,,25,201,5200248,,,,,,,2025-09-29,1,,,,,フラット,0
1576,7180001168647,新規,0,2025-09-29,2025-09-29,株式会社ＳＥＥＤ,,株式会社,愛知県,名古屋市名東区,よもぎ台３丁目９０２番地よもぎ台パーク・ホームズ１０４号,,23,115,4650091,,,,,,,2025-09-29,1,,,,,シード,0
1577,7180001168754,新規,0,2025-09-29,2025-09-29,株式会社英誠,,株式会社,愛知県,名古屋市名東区,本郷３丁目７３番地,,23,115,4650024,,,,,,,2025-09-29,1,,,,,エイセイ,0
1582,7190001032562,新規,0,2025-09-29,2025-09-29,株式会社Ｂａｂｙ　Ｌａｂｏ,,株式会社,三重県,津市,久居射場町６５番地２,,24,201,5141108,,,,,,,2025-09-29,1,,,,,ベイビーラボ,0
1583,7190003005194,新規,0,2025-09-29,2025-09-29,ＯｔａＭａｆｉａ合同会社,,合同会社,三重県,松阪市,嬉野八田町４５６－２７,,24,204,5152352,,,,,,,2025-09-29,1,,,,,オタマフィア,0
1585,7200003007065,新規,0,2025-09-29,2025-09-29,合同会社ＧＫＳ,,合同会社,岐阜県,岐阜市,西川手９丁目５６番地,,21,201,5008258,,,,,,,2025-09-29,1,,,,,ジーケーエス,0
1586,7220003004127,新規,0,2025-09-29,2025-09-29,合同会社ＳＵＮＮＹ,,合同会社,石川県,野々市市,粟田３丁目３番地１,,17,212,9218823,,,,,,,2025-09-29,1,,,,,サニー,0
1587,7230001021107,新規,0,2025-09-29,2025-09-29,株式会社金子,,株式会社,富山県,高岡市,羽広２００番地８,,16,202,9330844,,,,,,,2025-09-29,1,,,,,カネコ,0
1589,7250001021344,新規,0,2025-09-29,2025-09-29,株式会社夢希叶工業,,株式会社,山口県,防府市,清水町１９－３２,,35,206,7470842,,,,,,,2025-09-29,1,,,,,ユノカコウギョウ,0
1593,7260001040582,新規,0,2025-09-29,2025-09-29,株式会社ヴォーラ・ディスカー,,株式会社,岡山県,岡山市中区,平井６丁目１３番１４－１号,,33,102,7038282,,,,,,,2025-09-29,1,,,,,ヴォーラディスカー,0
1594,7270001009288,新規,0,2025-09-29,2025-09-29,株式会社赤間組,,株式会社,鳥取県,境港市,幸神町２５０番地,,31,204,6840056,,,,,,,2025-09-29,1,,,,,アカマグミ,0
1595,7270003001796,新規,0,2025-09-29,2025-09-29,フィールドＳＫ合同会社,,合同会社,鳥取県,米子市,永江１１４６番地,,31,202,6830014,,,,,,,2025-09-29,1,,,,,フィールドエスケイ,0
1597,7280001009510,新規,0,2025-09-29,2025-09-29,株式会社ＯＮＲＩＮＫ,,株式会社,島根県,松江市,上乃木１丁目１６‐６０,,32,201,6900015,,,,,,,2025-09-29,1,,,,,オンリンク,0
1600,7290001111414,新規,0,2025-09-29,2025-09-29,株式会社Ｇｌｏｂａｎｃｅ,,株式会社,福岡県,福岡市博多区,博多駅南４丁目１２番２７,,40,132,8120016,,,,,,,2025-09-29,1,,,,,グローバンス,0
1601,7290001111620,新規,0,2025-09-29,2025-09-29,万宏株式会社,,株式会社,福岡県,福岡市博多区,吉塚７丁目２番２０－１０５号カサベラ,,40,132,8120041,,,,,,,2025-09-29,1,,,,,バンコウ,0
1605,7290003017452,新規,0,2025-09-29,2025-09-29,合同会社Ａｓｓｉｓｔ,,合同会社,福岡県,福岡市博多区,博多駅前４丁目３７番１号Ｊステーションプラザ１Ｆ,,40,132,8120011,,,,,,,2025-09-29,1,,,,,アシスト,0
1610,7300001014359,新規,0,2025-09-29,2025-09-29,毛利貿易株式会社,,株式会社,佐賀県,佐賀市,本庄町大字鹿子５７７番地,,41,201,8400025,,,,,,,2025-09-29,1,,,,,モウリボウエキ,0
1612,7320001021361,新規,0,2025-09-29,2025-09-29,株式会社Ｏｎ　ｔｈｅ　ｆｉｅｌｄ,,株式会社,大分県,大分市,萩原３丁目９番１１号,,44,201,8700921,,,,,,,2025-09-29,1,,,,,オンザフィールド,0
1616,7340003004957,新規,0,2025-09-29,2025-09-29,合同会社Ｌｏｇａｎｉ,,合同会社,鹿児島県,鹿児島市,伊敷２丁目１６番１３号,,46,201,8900008,,,,,,,2025-09-29,1,,,,,ロガニ,0
1619,7360001035820,新規,0,2025-09-29,2025-09-29,株式会社デンタルピュア,,株式会社,沖縄県,宜野湾市,大謝名１丁目７番１－１１０２号プレミスト宜野湾大謝名,,47,205,9012225,,,,,,,2025-09-29,1,,,,,デンタルピュア,0
1620,7360001035829,新規,0,2025-09-29,2025-09-29,ＧＲＯＷＴＨ　ＣＨＩＬＤ株式会社,,株式会社,沖縄県,浦添市,西原１丁目４番１６－３０１号松建第二ビル,,47,208,9012101,,,,,,,2025-09-29,1,,,,,グロースチャイルド,0
1629,7390001018112,新規,0,2025-09-29,2025-09-29,株式会社ふずり,,株式会社,山形県,東根市,神町西１丁目１番４４－２号,,06,211,9993766,,,,,,,2025-09-29,1,,,,,フズリ,0
1632,7430001095262,新規,0,2025-09-29,2025-09-29,株式会社アークリッシュ,,株式会社,北海道,札幌市中央区,南四条西１２丁目１２９５番地６南４条セントラルハイツ４０３号,,01,101,0640804,,,,,,,2025-09-29,1,,,,,アークリッシュ,0
1633,7430001095295,新規,0,2025-09-29,2025-09-29,株式会社ＬＩＦＴ　ＪＡＰＡＮ,,株式会社,北海道,苫小牧市,ウトナイ南６丁目３番７号,,01,213,0591307,,,,,,,2025-09-29,1,,,,,リフトジャパン,0
1634,7430001095337,新規,0,2025-09-29,2025-09-29,スタイリッシュ株式会社,,株式会社,北海道,小樽市,長橋３丁目４番１０号,,01,203,0470036,,,,,,,2025-09-29,1,,,,,スタイリッシュ,0
1637,7430003018122,新規,0,2025-09-29,2025-09-29,雪と山合同会社,,合同会社,北海道,虻田郡喜茂別町,字喜茂別２６８－１,,01,398,0440201,,,,,,,2025-09-29,1,,,,,ユキトヤマ,0
1638,7460305002028,新規,0,2025-09-29,2025-09-29,無限責任斜里村猿間負債整理組合,,その他の設立登記法人,北海道,斜里郡斜里町,大字斜里村字斜里原野,,01,545,0994100,,,,,,,2025-09-29,1,,,,,,0
1643,7500001026532,新規,0,2025-09-29,2025-09-29,株式会社Ｎｂ,,株式会社,愛媛県,松山市,三番町５丁目７番地２オフィスＭ２階,,38,201,7900003,,,,,,,2025-09-29,1,,,,,エヌビー,0
1652,8010001258546,新規,0,2025-09-29,2025-09-29,フロスペクト株式会社,,株式会社,東京都,千代田区,東神田３丁目４番１２号,,13,101,1010031,,,,,,,2025-09-29,1,,,,,フロスペクト,0
1653,8010001258595,新規,0,2025-09-29,2025-09-29,Ｐａｎ　Ｎａｔｉｏｎ　Ｊａｐａｎ株式会社,,株式会社,東京都,中央区,銀座６丁目１３番１６号銀座ＷａｌｌビルＵＣＦ５０１,,13,102,1040061,,,,,,,2025-09-29,1,,,,,パンネーションジャパン,0
1654,8010001258752,新規,0,2025-09-29,2025-09-29,ｓｕｒｅ　ｅｓｐｒｅｓｓｏ株式会社,,株式会社,東京都,千代田区,神田錦町３丁目１５,,13,101,1010054,,,,,,,2025-09-29,1,,,,,シュアエスプレッソ,0
1655,8010003048771,新規,0,2025-09-29,2025-09-29,ＫＯＭＩＣＨＩ合同会社,,合同会社,東京都,中央区,日本橋箱崎町２７－９,,13,102,1030015,,,,,,,2025-09-29,1,,,,,コミチ,0
1664,8010401193104,新規,0,2025-09-29,2025-09-29,株式会社ブランダル,,株式会社,東京都,港区,北青山１丁目３番１号アールキューブ青山３階,,13,103,1070061,,,,,,,2025-09-29,1,,,,,ブランダル,0
1668,8010501054767,新規,0,2025-09-29,2025-09-29,Ｐａｙｆｕｓｉｏｎ株式会社,,株式会社,東京都,台東区,今戸１丁目２番１３－９０１号東京マンション,,13,106,1110024,,,,,,,2025-09-29,1,,,,,,0
1669,8010501054783,新規,0,2025-09-29,2025-09-29,一貫株式会社,,株式会社,東京都,台東区,松が谷２丁目１５番８号浅草Ｋ２ビル３０９号室,,13,106,1110036,,,,,,,2025-09-29,1,,,,,イッカン,0
1670,8010601068023,新規,0,2025-09-29,2025-09-29,エガール青嵐株式会社,,株式会社,東京都,江東区,北砂３丁目２８番１号不動コーポ３０６,,13,108,1360073,,,,,,,2025-09-29,1,,,,,エガールセイラン,0
1680,8010901058095,新規,0,2025-09-29,2025-09-29,ファイブスター株式会社,,株式会社,東京都,世田谷区,深沢７丁目１３番１５号,,13,112,1580081,,,,,,,2025-09-29,1,,,,,ファイブスター,0
1681,8010901058104,新規,0,2025-09-29,2025-09-29,キラ美人株式会社,,株式会社,東京都,世田谷区,成城２丁目３４番１３号,,13,112,1570066,,,,,,,2025-09-29,1,,,,,キラビト,0
1682,8010901058153,新規,0,2025-09-29,2025-09-29,株式会社テイストプラス,,株式会社,東京都,世田谷区,代田４丁目１３番９号,,13,112,1550033,,,,,,,2025-09-29,1,,,,,テイストプラス,0
1693,8011101113327,新規,0,2025-09-29,2025-09-29,ＡＵＴＯＮＡＭＩ株式会社,,株式会社,東京都,新宿区,富久町１６－１２パルセ富久１１０２,,13,104,1620067,,,,,,,2025-09-29,1,,,,,オートナミー,0
1694,8011101113384,新規,0,2025-09-29,2025-09-29,デキルアセット株式会社,,株式会社,東京都,新宿区,百人町２丁目４番６号,,13,104,1690073,,,,,,,2025-09-29,1,,,,,デキルアセット,0
1695,8011101113418,新規,0,2025-09-29,2025-09-29,株式会社ａｘ,,株式会社,東京都,新宿区,新宿２丁目８番１７号新宿ＳＹビル７０１,,13,104,1600022,,,,,,,2025-09-29,1,,,,,エーエックス,0
1696,8011103016420,新規,0,2025-09-29,2025-09-29,アクシオンテクノロジーズ合同会社,,合同会社,東京都,新宿区,舟町７番地４０ＡＣＮ四谷三丁目ビル,,13,104,1600006,,,,,,,2025-09-29,1,,,,,アクシオンテクノロジーズ,0
1697,8011103016429,新規,0,2025-09-29,2025-09-29,合同会社ＬＩＧＨＴＳＥＥＫＥＲ　ＧＡＭＥＳ,,合同会社,東京都,新宿区,西新宿３丁目３番１３号西新宿水間ビル６階,,13,104,1600023,,,,,,,2025-09-29,1,,,,,ライトシーカーゲームス,0
1698,8011103016453,新規,0,2025-09-29,2025-09-29,シャフル合同会社,,合同会社,東京都,新宿区,西新宿６丁目５番１号新宿アイランドタワー２階,,13,104,1600023,,,,,,,2025-09-29,1,,,,,シャフル,0
1702,8011401027441,新規,0,2025-09-29,2025-09-29,株式会社オーラム,,株式会社,東京都,板橋区,小茂根１丁目３０番８号ＡＳＪビル１０３,,13,119,1730037,,,,,,,2025-09-29,1,,,,,オーラム,0
1703,8011503006698,新規,0,2025-09-29,2025-09-29,幸合同会社,,合同会社,東京都,北区,堀船２丁目１９番６の２,,13,117,1140004,,,,,,,2025-09-29,1,,,,,サチ,0
1704,8011601028999,新規,0,2025-09-29,2025-09-29,妃蔓国際株式会社,,株式会社,東京都,練馬区,春日町６丁目１６番１１フォーチュン光が丘２５６号室,,13,120,1790074,,,,,,,2025-09-29,1,,,,,ヒマンコクサイ,0
1705,8011601029007,新規,0,2025-09-29,2025-09-29,ＹＥＣ株式会社,,株式会社,東京都,練馬区,春日町６丁目１６番１１フォーチュン光が丘２６１号室,,13,120,1790074,,,,,,,2025-09-29,1,,,,,ワイイーシー,0
1706,8011703004394,新規,0,2025-09-29,2025-09-29,合同会社ネオ,,合同会社,東京都,江戸川区,東小松川１丁目１２番１号,,13,123,1320033,,,,,,,2025-09-29,1,,,,,ネオ,0
1710,8011801046784,新規,0,2025-09-29,2025-09-29,Ｃ‐ｃｒｅｔ１株式会社,,株式会社,東京都,葛飾区,西亀有３丁目１３番１１号,,13,122,1250002,,,,,,,2025-09-29,1,,,,,シークレットワン,0
1711,8011801046801,新規,0,2025-09-29,2025-09-29,アンガド商会株式会社,,株式会社,東京都,足立区,栗原３丁目２６番１号２Ｆ,,13,121,1230842,,,,,,,2025-09-29,1,,,,,アンガドショウカイ,0
1712,8012403007357,新規,0,2025-09-29,2025-09-29,ａｆｆｅｃｔｉｏｎ　ｇｒｏｕｐ合同会社,,合同会社,東京都,稲城市,平尾３丁目１－１－３５－１０３,,13,225,2060823,,,,,,,2025-09-29,1,,,,,,0
1714,8012703003378,新規,0,2025-09-29,2025-09-29,ＪＥＮＩＳＨ合同会社,,合同会社,東京都,小平市,花小金井南町１丁目２７－１０,,13,211,1870003,,,,,,,2025-09-29,1,,,,,ジェニス,0
1718,8013301055027,新規,0,2025-09-29,2025-09-29,Ｒｏｓｅ株式会社,,株式会社,東京都,豊島区,北大塚２丁目１７番４号,,13,116,1700004,,,,,,,2025-09-29,1,,,,,ローズ,0
1720,8020003029424,新規,0,2025-09-29,2025-09-29,ＣＬＡＲＩＶＥＩＬ合同会社,,合同会社,神奈川県,川崎市中原区,市ノ坪２２８番地メゾンアヴニール２０２,,14,133,2110016,,,,,,,2025-09-29,1,,,,,クラリヴェイル,0
1721,8020003029498,新規,0,2025-09-29,2025-09-29,アーツイノベイト合同会社,,合同会社,神奈川県,川崎市多摩区,登戸３０３８番地９,,14,135,2140014,,,,,,,2025-09-29,1,,,,,アーツイノベイト,0
1731,8030001168834,新規,0,2025-09-29,2025-09-29,ＣＲＯＳＳ・ＢＲＡＩＮ株式会社,,株式会社,埼玉県,さいたま市大宮区,桜木町２丁目３番地大宮マルイ７階,,11,103,3300854,,,,,,,2025-09-29,1,,,,,クロスブレイン,0
1732,8030001168842,新規,0,2025-09-29,2025-09-29,株式会社ＳＡＡＤ＆ＣＯＭＰＡＮＹ,,株式会社,埼玉県,深谷市,下手計１２０３番地３,,11,218,3660002,,,,,,,2025-09-29,1,,,,,サードアンドカンパニー,0
1741,8040001140569,新規,0,2025-09-29,2025-09-29,ＱＣＬ株式会社,,株式会社,千葉県,船橋市,若松１丁目１－２１ドラゴンマンション南船橋壱番館１２０２号室,,12,204,2730013,,,,,,,2025-09-29,1,,,,,キューシーエル,0
1742,8040001140635,新規,0,2025-09-29,2025-09-29,夕哲ルモラウェルネス株式会社,00140828,株式会社,千葉県,佐倉市,染井野３丁目１３番地１５,,12,212,2850831,,,,,,,2025-09-29,1,,,,,シジェルモラウェルネス,0
1743,8040001140643,新規,0,2025-09-29,2025-09-29,株式会社Ｐｒｏ　ｍｅｏｗ,,株式会社,千葉県,松戸市,新松戸６丁目２５５番地の１パラダイス・ラ・ポールＢ－１０２号,,12,207,2700034,,,,,,,2025-09-29,1,,,,,プロミャウ,0
1751,8050001057374,新規,0,2025-09-29,2025-09-29,株式会社まちいろ,,株式会社,茨城県,つくば市,吾妻１丁目５－７ダイワロイネットホテルつくばビル２Ｆ,,08,220,3050031,,,,,,,2025-09-29,1,,,,,マチイロ,0
1756,8060001038613,新規,0,2025-09-29,2025-09-29,株式会社華建設,,株式会社,栃木県,栃木市,薗部町２丁目２番９号,,09,203,3280074,,,,,,,2025-09-29,1,,,,,ハナケンセツ,0
1757,8070001043364,新規,0,2025-09-29,2025-09-29,関越流通ホールディングス株式会社,,株式会社,群馬県,佐波郡玉村町,大字宇貫４００番地,,10,464,3701126,,,,,,,2025-09-29,1,,,,,カンエツリュウツウホールディングス,0
1758,8080103003430,新規,0,2025-09-29,2025-09-29,Ｙｏｕｒ　Ｓｐａｃｅ合同会社,,合同会社,静岡県,富士市,水戸島元町８番１号,,22,210,4160922,,,,,,,2025-09-29,1,,,,,ユアスペース,0
1767,8120001279894,新規,0,2025-09-29,2025-09-29,益達株式会社,,株式会社,大阪府,大阪市東住吉区,湯里５丁目１６番地５号２Ｆ－Ｃ,,27,121,5460013,,,,,,,2025-09-29,1,,,,,エキタツ,0
1768,8120001279903,新規,0,2025-09-29,2025-09-29,祥瑞商事株式会社,,株式会社,大阪府,大阪市住之江区,新北島１丁目４番１５,,27,125,5590024,,,,,,,2025-09-29,1,,,,,ショウズイショウジ,0
1769,8120001279952,新規,0,2025-09-29,2025-09-29,宏泰株式会社,,株式会社,大阪府,大阪市浪速区,下寺３丁目１－１４エクレール夕陽ヶ丘５号２１３室,,27,111,5560001,,,,,,,2025-09-29,1,,,,,ヒロヤス,0
1770,8120001279985,新規,0,2025-09-29,2025-09-29,通天無相株式会社,,株式会社,大阪府,大阪市西成区,岸里３丁目５－１２,,27,122,5570041,,,,,,,2025-09-29,1,,,,,ツウテンムソウ,0
1771,8120001280019,新規,0,2025-09-29,2025-09-29,株式会社アルカス,,株式会社,大阪府,大阪市中央区,安土町１丁目７番２０号新トヤマビル新館４階,,27,128,5410052,,,,,,,2025-09-29,1,,,,,アルカス,0
1772,8120001280051,新規,0,2025-09-29,2025-09-29,一日株式会社,,株式会社,大阪府,大阪市大正区,平尾４丁目１１番７号（Ｂ１）,,27,108,5510012,,,,,,,2025-09-29,1,,,,,イチニチ,0
1773,8120001280068,新規,0,2025-09-29,2025-09-29,東南株式会社,,株式会社,大阪府,大阪市西成区,玉出西２丁目８－９－４０４号室,,27,122,5570045,,,,,,,2025-09-29,1,,,,,トウナン,0
1774,8120001280118,新規,0,2025-09-29,2025-09-29,羽項株式会社,,株式会社,大阪府,大阪市城東区,中浜３丁目２５番１５－４０３号,,27,118,5360024,,,,,,,2025-09-29,1,,,,,ユシャン,0
1775,8120001280134,新規,0,2025-09-29,2025-09-29,ＴＥＲＡＦＹ株式会社,,株式会社,大阪府,大阪市西区,新町１丁目１４番２１―５２０３号,,27,106,5500013,,,,,,,2025-09-29,1,,,,,テラフィ,0
1776,8120001280233,新規,0,2025-09-29,2025-09-29,大成株式会社,,株式会社,大阪府,大阪市平野区,加美正覚寺１丁目５番３号－２Ｃ号室,,27,126,5470006,,,,,,,2025-09-29,1,,,,,タイセイ,0
1777,8120001280274,新規,0,2025-09-29,2025-09-29,株式会社香,,株式会社,大阪府,大阪市浪速区,日本橋東２丁目２番３－１２１０号,,27,111,5560006,,,,,,,2025-09-29,1,,,,,カオリ,0
1778,8120001280357,新規,0,2025-09-29,2025-09-29,卓君株式会社,,株式会社,大阪府,大阪市中央区,瓦屋町２丁目１０番１４号第三天偉ビル３階Ｃ号室,,27,128,5420066,,,,,,,2025-09-29,1,,,,,タックン,0
1780,8120003030669,新規,0,2025-09-29,2025-09-29,Ｌｕｍｉｎａｒｙ合同会社,,合同会社,大阪府,大阪市西成区,萩之茶屋２丁目６番４号ニューかめや２６１号室,,27,122,5570004,,,,,,,2025-09-29,1,,,,,ルミナリ,0
1781,8120003030710,新規,0,2025-09-29,2025-09-29,富栄合同会社,,合同会社,大阪府,大阪市福島区,吉野１丁目１２番２２号,,27,103,5530006,,,,,,,2025-09-29,1,,,,,フエイ,0
1782,8120003030719,新規,0,2025-09-29,2025-09-29,星澤設計合同会社,,合同会社,大阪府,大阪市西成区,萩之茶屋２丁目６番４号ニューかめや２６３号室,,27,122,5570004,,,,,,,2025-09-29,1,,,,,ホシザワセッケイ,0
1783,8120003030735,新規,0,2025-09-29,2025-09-29,ＭＯＫＴＡＮ　ＥＮＴＥＲＰＲＩＳＥＳ合同会社,,合同会社,大阪府,大阪市東淀川区,菅原７丁目６番３２－３１０号,,27,114,5330022,,,,,,,2025-09-29,1,,,,,モクタンエンタープライセス,0
1788,8120903005860,新規,0,2025-09-29,2025-09-29,合同会社Ｌｉｇｈｔ＆Ｅｓｓｅｎｃｅ,,合同会社,大阪府,箕面市,桜井３丁目１番２４号澤マンション２０２,,27,220,5620043,,,,,,,2025-09-29,1,,,,,ライトアンドエッセンス,0
1789,8120903005869,新規,0,2025-09-29,2025-09-29,Ｍｏｂｅｘ合同会社,,合同会社,大阪府,高槻市,東五百住町１丁目２２番１６号稲荷の森ハイツ２０６号,,27,207,5690811,,,,,,,2025-09-29,1,,,,,モベックス,0
1790,8122001039675,新規,0,2025-09-29,2025-09-29,株式会社ＴＹＡＫ,,株式会社,大阪府,東大阪市,玉串元町２丁目８番８号,,27,227,5780933,,,,,,,2025-09-29,1,,,,,チャック,0
1796,8130001080640,新規,0,2025-09-29,2025-09-29,岡村精機株式会社,,株式会社,京都府,八幡市,上奈良宮ノ東２番地の８,,26,210,6148161,,,,,,,2025-09-29,1,,,,,オカムラセイキ,0
1803,8140001140039,新規,0,2025-09-29,2025-09-29,Ｔ・Ｔ・Ｐグローバル株式会社,,株式会社,兵庫県,西脇市,黒田庄町船町２２６番地の１,,28,213,6790304,,,,,,,2025-09-29,1,,,,,ティーティーピーグローバル,0
1804,8140001140121,新規,0,2025-09-29,2025-09-29,株式会社どんなときも,,株式会社,兵庫県,神戸市兵庫区,大開通５丁目１番３－５号カサフォルチュナ３０２号,,28,105,6520803,,,,,,,2025-09-29,1,,,,,ドンナトキモ,0
1808,8160003003613,新規,0,2025-09-29,2025-09-29,合同会社Ｃｏｚｙ不動産ラボ,,合同会社,滋賀県,大津市,清風町１６番１号,,25,201,5200225,,,,,,,2025-09-29,1,,,,,コージーフドウサンラボ,0
1809,8170001018802,新規,0,2025-09-29,2025-09-29,株式会社マルケイ商事,,株式会社,和歌山県,西牟婁郡白浜町,堅田２３９６番地の６３,,30,401,6492201,,,,,,,2025-09-29,1,,,,,マルケイショウジ,0
1816,8180003029128,新規,0,2025-09-29,2025-09-29,合同会社さくら医療サービス,,合同会社,愛知県,名古屋市昭和区,塩付通７丁目１３番地,,23,107,4660022,,,,,,,2025-09-29,1,,,,,サクライリョウサービス,0
1819,8190001032561,新規,0,2025-09-29,2025-09-29,株式会社ＴＳエンジニアリング,,株式会社,三重県,鈴鹿市,柳町１７０６番地１,,24,207,5130811,,,,,,,2025-09-29,1,,,,,ティーエスエンジニアリング,0
1822,8200001044274,新規,0,2025-09-29,2025-09-29,Ｐｒｏ　Ｃｒａｆｔ　ＪＰ株式会社,,株式会社,岐阜県,美濃市,２６４６番地５,,21,207,5013701,,,,,,,2025-09-29,1,,,,,プロクラフトジェーピー,0
1823,8210003001958,新規,0,2025-09-29,2025-09-29,合同会社ＭＡ企画,,合同会社,福井県,坂井市,三国町下野第４６号３８番地,,18,210,9130033,,,,,,,2025-09-29,1,,,,,エムエーキカク,0
1826,8220003004126,新規,0,2025-09-29,2025-09-29,合同会社ｗａｖｅ森下,,合同会社,石川県,金沢市,泉野出町１丁目９番１４号,,17,201,9218116,,,,,,,2025-09-29,1,,,,,ウェーブモリシタ,0
1828,8230003002509,新規,0,2025-09-29,2025-09-29,貴新合同会社,,合同会社,富山県,富山市,水橋金尾新２３３番地,,16,201,9393536,,,,,,,2025-09-29,1,,,,,キシン,0
1831,8240001065548,新規,0,2025-09-29,2025-09-29,平和スタッフパートナーズ株式会社,,株式会社,広島県,広島市西区,観音本町１丁目２２番２５号ＣＤＫ観音ビル６Ｆ,,34,104,7330033,,,,,,,2025-09-29,1,,,,,ヘイワスタッフパートナーズ,0
1833,8250001021343,新規,0,2025-09-29,2025-09-29,株式会社シャイン,,株式会社,山口県,下関市,熊野西町８番２０号,,35,201,7510851,,,,,,,2025-09-29,1,,,,,シャイン,0
1835,8260001040581,新規,0,2025-09-29,2025-09-29,株式会社Ｍｅｔｅａ,,株式会社,岡山県,岡山市北区,磨屋町９番２４号ルミナス磨屋町,,33,101,7000826,,,,,,,2025-09-29,1,,,,,ミティア,0
1842,8290001111413,新規,0,2025-09-29,2025-09-29,株式会社Ｆ企画,,株式会社,福岡県,嘉穂郡桂川町,大字瀬戸１３３番地１,,40,421,8200604,,,,,,,2025-09-29,1,,,,,エフキカク,0
1843,8290001111470,新規,0,2025-09-29,2025-09-29,中銀株式会社,,株式会社,福岡県,福岡市中央区,平尾１丁目１１－６－３１２,,40,133,8100014,,,,,,,2025-09-29,1,,,,,チュウギン,0
1844,8290001111504,新規,0,2025-09-29,2025-09-29,株式会社Ｒｉｒｅ　Ｆｅｌｉｃｅ,,株式会社,福岡県,福岡市博多区,住吉５丁目１９番９－１００３号,,40,132,8120018,,,,,,,2025-09-29,1,,,,,リルフェリーチェ,0
1845,8290001111512,新規,0,2025-09-29,2025-09-29,株式会社ＭＩＺＥＮ,,株式会社,福岡県,福岡市南区,野多目５丁目１５番４－２０３号ＯＡＫＶＩＬＬＡ野多目レジデンス,,40,134,8111347,,,,,,,2025-09-29,1,,,,,ミゼン,0
1846,8290001111561,新規,0,2025-09-29,2025-09-29,ノンパレイル株式会社,,株式会社,福岡県,福岡市中央区,天神２丁目１１番１号福岡ＰＡＲＣＯ新館５階ＴｈｅＣｏｍｐａｎｙ福岡ＰＡＲＣＯ,,40,133,8100001,,,,,,,2025-09-29,1,,,,,ノンパレイル,0
1855,8300001014358,新規,0,2025-09-29,2025-09-29,株式会社Ｏｃｅａｎ　Ｗｈａｌｅｓ,,株式会社,佐賀県,鹿島市,大字井手３３８番地９,,41,207,8491302,,,,,,,2025-09-29,1,,,,,オーシャンウェールズ,0
1860,8340003004956,新規,0,2025-09-29,2025-09-29,Ａｌｐｈａ　Ｏｍｅｇａ　Ｓｏｌｕｔｉｏｎ合同会社,,合同会社,鹿児島県,熊毛郡屋久島町,安房６５９－１１３,,46,505,8914311,,,,,,,2025-09-29,1,,,,,アルファオメガソリューション,0
1865,8360001035836,新規,0,2025-09-29,2025-09-29,Ｅｒｉｋａ’ｓ　ＥｎｔｅｒｔａｉｎｍｅｎｔＥｎｔｅｒｐｒｉｓｅ株式会社,,株式会社,沖縄県,那覇市,具志３丁目３５番１５号ｃｏｒａｌｇｒａｃｅ２０１,,47,201,9010146,,,,,,,2025-09-29,1,,,,,エリカズエンターテインメントエンタープライズ,0
1867,8370003007304,新規,0,2025-09-29,2025-09-29,合同会社仙台オートケア,,合同会社,宮城県,黒川郡大郷町,粕川字丸山１５番地の１,,04,422,9813502,,,,,,,2025-09-29,1,,,,,センダイオートケア,0
1871,8390003002451,新規,0,2025-09-29,2025-09-29,Ｌ．Ｋ　Ｃｏｒｐｏｒａｔｉｏｎ合同会社,,合同会社,山形県,西村山郡河北町,谷地字十二堂８番地の２０メゾングレイス２１－２０５号,,06,321,9993511,,,,,,,2025-09-29,1,,,,,エルケーコーポレーション,0
1873,8420001019287,新規,0,2025-09-29,2025-09-29,株式会社ココデン,,株式会社,青森県,弘前市,大字自由ケ丘１丁目１５番地１７,,02,202,0368266,,,,,,,2025-09-29,1,,,,,ココデン,0
1875,8430001095261,新規,0,2025-09-29,2025-09-29,株式会社ＳＥＥＱ,,株式会社,北海道,札幌市西区,発寒七条１２丁目１番１５－２０１号,,01,107,0630827,,,,,,,2025-09-29,1,,,,,シーク,0
1897,9010001258628,新規,0,2025-09-29,2025-09-29,株式会社ＪＰｆａｎｓ,,株式会社,東京都,文京区,千石４丁目１４番９号,,13,105,1120011,,,,,,,2025-09-29,1,,,,,ジェイピーファンズ,0
1898,9010001258652,新規,0,2025-09-29,2025-09-29,株式会社かちうむ,,株式会社,東京都,千代田区,神田錦町３丁目２１－１１２１,,13,101,1010054,,,,,,,2025-09-29,1,,,,,カチウム,0
1899,9010001258801,新規,0,2025-09-29,2025-09-29,Ｃａｄｅｎｚａ・Ａｒｔｓ株式会社,,株式会社,東京都,中央区,勝どき４丁目６番２号パークタワー勝どきミッド１０２７,,13,102,1040054,,,,,,,2025-09-29,1,,,,,カデンツァアーツ,0
1900,9010001258826,新規,0,2025-09-29,2025-09-29,ＭＹＣ株式会社,,株式会社,東京都,千代田区,神田須田町１丁目７番地８ＶＯＲＴ秋葉原ＩＶ２Ｆ,00140845,13,101,1010041,,,,,,,2025-09-29,1,,,,,エムワイシー,0
1901,9010003048770,新規,0,2025-09-29,2025-09-29,合同会社トラスト,,合同会社,東京都,千代田区,神田佐久間町１丁目１６大橋ビル５０３,,13,101,1010025,,,,,,,2025-09-29,1,,,,,トラスト,0
1902,9010003048779,新規,0,2025-09-29,2025-09-29,合同会社ＬＨＪ,,合同会社,東京都,中央区,日本橋室町１丁目１１番１２号日本橋水野ビル７階,,13,102,1030022,,,,,,,2025-09-29,1,,,,,エルエイチジェー,0
1903,9010003048853,新規,0,2025-09-29,2025-09-29,合同会社ＳＦＳ,,合同会社,東京都,中央区,京橋２丁目１２番６号ＡＯＪ税理士法人内,,13,102,1040031,,,,,,,2025-09-29,1,,,,,エスエフエス,0
1911,9010401193103,新規,0,2025-09-29,2025-09-29,Ａｐｅｘ　Ｃｈｏｉｃｅ　Ｊａｐａｎ株式会社,,株式会社,東京都,港区,三田１丁目２番１８号ＴＴＤビル,,13,103,1080073,,,,,,,2025-09-29,1,,,,,エーペックスチョイスジャパン,0
1912,9010401193144,新規,0,2025-09-29,2025-09-29,パウダーベース苗場株式会社,,株式会社,東京都,港区,赤坂２丁目２３番１号アークヒルズ・フロントタワーＩｎＣｏｎｔｒｏｌ内,,13,103,1070052,,,,,,,2025-09-29,1,,,,,パウダーベースナエバ,0
1913,9010401193169,新規,0,2025-09-29,2025-09-29,芝の徳株式会社,,株式会社,東京都,港区,芝大門２丁目６－１０ポートハウス２階,,13,103,1050012,,,,,,,2025-09-29,1,,,,,シバノトク,0
1915,9010403036152,新規,0,2025-09-29,2025-09-29,ＵＩＢ　Ｋｏｔｏ合同会社,,合同会社,東京都,港区,元赤坂１丁目１番７号,,13,103,1070051,,,,,,,2025-09-29,1,,,,,ユーアイビーコウトウ,0
1916,9010403036160,新規,0,2025-09-29,2025-09-29,ＰＲＯＴＩＭＯ合同会社,,合同会社,東京都,港区,六本木７丁目１５番７号,,13,103,1060032,,,,,,,2025-09-29,1,,,,,プロティモ,0
1922,9010701048337,新規,0,2025-09-29,2025-09-29,株式会社オーダーネクスト,,株式会社,東京都,品川区,上大崎２丁目１５番１９号ＭＧ目黒駅前ビル６０９,,13,109,1410021,,,,,,,2025-09-29,1,,,,,オーダーネクスト,0
1927,9010901058136,新規,0,2025-09-29,2025-09-29,株式会社ＢｕｎＢｕ　Ｇｒｏｕｐ,,株式会社,東京都,世田谷区,北沢５丁目３９番１２号,,13,112,1550031,,,,,,,2025-09-29,1,,,,,ブンブグループ,0
1934,9011003022567,新規,0,2025-09-29,2025-09-29,合同会社凪,,合同会社,東京都,渋谷区,道玄坂１丁目１０番８号渋谷道玄坂東急ビル２Ｆ―Ｃ,,13,113,1500043,,,,,,,2025-09-29,1,,,,,ナギ,0
1935,9011101113301,新規,0,2025-09-29,2025-09-29,株式会社Ｍｉｒａｉｔｏ,,株式会社,東京都,新宿区,百人町１丁目１８番８大久保カドビルＬｉｎｋＳｐａｃｅ百人町Ｃ０８号室,,13,104,1690073,,,,,,,2025-09-29,1,,,,,ミライト,0
1936,9011101113326,新規,0,2025-09-29,2025-09-29,蘭溪商事株式会社,,株式会社,東京都,新宿区,高田馬場１丁目３１番８の４０７号,,13,104,1690075,,,,,,,2025-09-29,1,,,,,ランケイショウジ,0
1937,9011101113367,新規,0,2025-09-29,2025-09-29,株式会社Ｂｅｍｏｒｅ,,株式会社,東京都,新宿区,西新宿３丁目３番１３号西新宿水間ビル２Ｆ,,13,104,1600023,,,,,,,2025-09-29,1,,,,,ビーモア,0
1938,9011101113375,新規,0,2025-09-29,2025-09-29,株式会社ＴＲＭＳ,,株式会社,東京都,新宿区,西新宿３丁目３番１３号西新宿水間ビル２Ｆ,,13,104,1600023,,,,,,,2025-09-29,1,,,,,ティーアールエムエス,0
1939,9011101113383,新規,0,2025-09-29,2025-09-29,株式会社ａｒｋ,,株式会社,東京都,新宿区,西新宿１丁目２５－１新宿センタービル４９階＋ＯＵＲＳ新宿内,,13,104,1600023,,,,,,,2025-09-29,1,,,,,アーク,0
1940,9011101113400,新規,0,2025-09-29,2025-09-29,東和株式会社,,株式会社,東京都,新宿区,市谷台町１３番２号３０６号室,,13,104,1620066,,,,,,,2025-09-29,1,,,,,トウワ,0
1941,9011101113417,新規,0,2025-09-29,2025-09-29,株式会社ａｎ,,株式会社,東京都,新宿区,新宿２丁目８番１７号新宿ＳＹビル７０１,,13,104,1600022,,,,,,,2025-09-29,1,,,,,エーエヌ,0
1944,9011103016444,新規,0,2025-09-29,2025-09-29,ＳＨＥＲＴＯＮ合同会社,,合同会社,東京都,新宿区,新宿６丁目２４－２２リレント新宿１００１,,13,104,1600022,,,,,,,2025-09-29,1,,,,,シェルトン,0
1945,9011103016452,新規,0,2025-09-29,2025-09-29,ヘクセンハウス合同会社,,合同会社,東京都,新宿区,西新宿６丁目５番１号新宿アイランドタワー２階,,13,104,1600023,,,,,,,2025-09-29,1,,,,,ヘクセンハウス,0
1947,9011401027440,新規,0,2025-09-29,2025-09-29,株式会社チップイン,,株式会社,東京都,板橋区,南町６番６号,,13,119,1730027,,,,,,,2025-09-29,1,,,,,チップイン,0
1949,9011501032621,新規,0,2025-09-29,2025-09-29,株式会社エムフィールド,,株式会社,東京都,北区,上十条２丁目３０番２号,,13,117,1140034,,,,,,,2025-09-29,1,,,,,エムフィールド,0
1950,9011601028998,新規,0,2025-09-29,2025-09-29,株式会社ＧＳＨデータソリューション,,株式会社,東京都,練馬区,春日町６丁目１６－１１フォーチュン光が丘２３６号室,,13,120,1790074,,,,,,,2025-09-29,1,,,,,ジーエスエイチデータソリューション,0
1951,9011601029006,新規,0,2025-09-29,2025-09-29,貞晴株式会社,,株式会社,東京都,練馬区,春日町６丁目１６番１１フォーチュン光が丘２５８号室,,13,120,1790074,,,,,,,2025-09-29,1,,,,,テイセイ,0
1952,9011601029014,新規,0,2025-09-29,2025-09-29,株式会社Ｍｕｖｉａｒ　Ｔ．Ｋ．,,株式会社,東京都,練馬区,南田中５丁目１５番１１号マグノリア石神井公園１０２号室,,13,120,1770035,,,,,,,2025-09-29,1,,,,,ムビアーティーケー,0
1953,9011603004857,新規,0,2025-09-29,2025-09-29,ミミカゾク合同会社,,合同会社,東京都,練馬区,春日町６丁目１６番１１号フォーチュン光が丘２２２号室,,13,120,1790074,,,,,,,2025-09-29,1,,,,,ミミカゾク,0
1954,9011803007098,新規,0,2025-09-29,2025-09-29,ＭＵＨＡＭＭＡＤＩ　ＴＲＡＤＩＮＧ合同会社,,合同会社,東京都,足立区,島根４丁目２７番１０－１０１号,,13,121,1210815,,,,,,,2025-09-29,1,,,,,ムハンマディトレーディング,0
1958,9012403007348,新規,0,2025-09-29,2025-09-29,ＭＩＲＡＩ　ＡＩ合同会社,,合同会社,東京都,稲城市,矢野口１６７４－７－１０８号,,13,225,2060812,,,,,,,2025-09-29,1,,,,,ミライアイ,0
1960,9013103001491,新規,0,2025-09-29,2025-09-29,ＳＩＮＧＨ　ＴＲＡＤＩＮＧ合同会社,,合同会社,東京都,福生市,本町６８番地１古矢アパート１０２号室,,13,218,1970022,,,,,,,2025-09-29,1,,,,,シントレイディング,0
1964,9013301055026,新規,0,2025-09-29,2025-09-29,トレジャートローブ株式会社,,株式会社,東京都,豊島区,池袋２丁目５７－６－２０５,,13,116,1710014,,,,,,,2025-09-29,1,,,,,トレジャートローブ,0
1969,9020001164817,新規,0,2025-09-29,2025-09-29,Ｂｒｉｄｇｉａ株式会社,,株式会社,神奈川県,横浜市西区,南軽井沢５５番地７５,,14,103,2200002,,,,,,,2025-09-29,1,,,,,ブリジア,0
1972,9021001086340,新規,0,2025-09-29,2025-09-29,ＬＩＮＣ株式会社,,株式会社,神奈川県,相模原市緑区,中野４４８番地１３,,14,151,2520157,,,,,,,2025-09-29,1,,,,,リンク,0
1974,9021003016576,新規,0,2025-09-29,2025-09-29,Ｌｕｍｉｎａｄｅａ合同会社,,合同会社,神奈川県,藤沢市,鵠沼海岸３丁目１３番９号,,14,205,2510037,,,,,,,2025-09-29,1,,,,,ルミナデア,0
1981,9030001168841,新規,0,2025-09-29,2025-09-29,株式会社ＨＢ　ＩＮＴＥＲＮＡＴＩＯＮＡＬ,,株式会社,埼玉県,行田市,大字北河原４１９番地１,,11,206,3610001,,,,,,,2025-09-29,1,,,,,エッチビーインターナショナル,0
1984,9030003027657,新規,0,2025-09-29,2025-09-29,みらいオート商事合同会社,,合同会社,埼玉県,ふじみ野市,大井字小田久保１２５３－１１,,11,245,3560053,,,,,,,2025-09-29,1,,,,,ミライオートショウジ,0
1985,9030003027681,新規,0,2025-09-29,2025-09-29,崎原ＩＴサービス合同会社,,合同会社,埼玉県,さいたま市中央区,大戸６丁目３番９号サンハイム東亜１０１,,11,105,3380012,,,,,,,2025-09-29,1,,,,,サキハラアイティーサービス,0
1986,9030003027707,新規,0,2025-09-29,2025-09-29,ＺＥＸＯ　ＡＩ合同会社,,合同会社,埼玉県,越谷市,蒲生西町２丁目１３－４ライフピア山王１０１,,11,222,3430835,,,,,,,2025-09-29,1,,,,,ゼクソエーアイ,0
1992,9040001140634,新規,0,2025-09-29,2025-09-29,ＣＨＩＢＡ　ＴＲＡＤＩＮＧ株式会社,,株式会社,千葉県,八街市,富山１３１４番地２９１０,,12,230,2891141,,,,,,,2025-09-29,1,,,,,チバトレーディング,0
1993,9040001140683,新規,0,2025-09-29,2025-09-29,株式会社ＣＯＬＯＲＳ,,株式会社,千葉県,千葉市中央区,仁戸名町３７６番地１９,,12,101,2600801,,,,,,,2025-09-29,1,,,,,カラーズ,0
1995,9040003028605,新規,0,2025-09-29,2025-09-29,Ｕｚｅｎｉｘ合同会社,,合同会社,千葉県,富里市,七栄１１１－１０５,,12,233,2860221,,,,,,,2025-09-29,1,,,,,ウゼニックズ,0
2000,9050003009595,新規,0,2025-09-29,2025-09-29,合同会社つくば自然農研究所,,合同会社,茨城県,牛久市,女化町１０９８番４,,08,219,3001214,,,,,,,2025-09-29,1,,,,,ツクバシゼンノウケンキュウショ,0
2002,9070003006112,新規,0,2025-09-29,2025-09-29,合同会社ＲＭ　Ｔｒａｄｉｎｇ,,合同会社,群馬県,太田市,下浜田町１０８７番地２８,,10,205,3730821,,,,,,,2025-09-29,1,,,,,アールエムトレーディング,0
2010,9100001038987,新規,0,2025-09-29,2025-09-29,株式会社お宝軒,,株式会社,長野県,小県郡青木村,大字田澤１９５３番地３,,20,349,3861600,,,,,,,2025-09-29,1,,,,,オタカラケン,0
2019,9120001279893,新規,0,2025-09-29,2025-09-29,仁真株式会社,,株式会社,大阪府,大阪市西成区,萩之茶屋１丁目１２－７万葉ビル６０号室,,27,122,5570004,,,,,,,2025-09-29,1,,,,,ジンシン,0
2020,9120001279902,新規,0,2025-09-29,2025-09-29,羽株式会社,,株式会社,大阪府,大阪市住之江区,新北島１丁目４番１５,,27,125,5590024,,,,,,,2025-09-29,1,,,,,ハネ,0
2021,9120001280026,新規,0,2025-09-29,2025-09-29,エックス未来株式会社,,株式会社,大阪府,大阪市西淀川区,佃２丁目１０番２５号ポントワーズ千舟２０７号,,27,113,5550001,,,,,,,2025-09-29,1,,,,,エックスミライ,0
2022,9120001280067,新規,0,2025-09-29,2025-09-29,株式会社大和ＬＩＮＫＳ,,株式会社,大阪府,大阪市港区,弁天１丁目６番３５ＳＫＳビル２階Ｂ号,,27,107,5520007,,,,,,,2025-09-29,1,,,,,ヤマトリンクス,0
2023,9120001280083,新規,0,2025-09-29,2025-09-29,ｓｉｎｏ　ｍｅｉｒ株式会社,,株式会社,大阪府,大阪市西淀川区,福町２丁目３番９号サニーＭＳビル福町３０２,,27,113,5550034,,,,,,,2025-09-29,1,,,,,シノメイル,0
2024,9120001280265,新規,0,2025-09-29,2025-09-29,Ｄｅｅｐｗｅｌｌ株式会社,,株式会社,大阪府,大阪市東淀川区,東中島１丁目１７番５－５２５号,,27,114,5330033,,,,,,,2025-09-29,1,,,,,ディープウェル,0
2029,9120003030610,新規,0,2025-09-29,2025-09-29,ＬｏｌｉＧｒｏｕｐ合同会社,,合同会社,大阪府,大阪市西成区,千本北２丁目９－１２タカオカマンション２０２号室,,27,122,5570053,,,,,,,2025-09-29,1,,,,,ロリグループ,0
2030,9120003030643,新規,0,2025-09-29,2025-09-29,リバティーコール合同会社,,合同会社,大阪府,大阪市西区,川口３丁目３番２６号７０４,,27,106,5500021,,,,,,,2025-09-29,1,,,,,リバティーコール,0
2031,9120003030684,新規,0,2025-09-29,2025-09-29,静斎合同会社,,合同会社,大阪府,大阪市北区,長柄中２丁目５番３０号,,27,127,5310062,,,,,,,2025-09-29,1,,,,,セイサイ,0
2032,9120003030718,新規,0,2025-09-29,2025-09-29,奥悦貿易合同会社,,合同会社,大阪府,大阪市西成区,萩之茶屋２丁目６番４号ニューかめや２５２号室,,27,122,5570004,,,,,,,2025-09-29,1,,,,,オウエツボウエキ,0
2033,9120003030726,新規,0,2025-09-29,2025-09-29,望遠合同会社,,合同会社,大阪府,大阪市港区,磯路２丁目７番１０号弁天町ビル２０２号室,,27,107,5520003,,,,,,,2025-09-29,1,,,,,ボウエン,0
2034,9120003030734,新規,0,2025-09-29,2025-09-29,合同会社ハルカス,,合同会社,大阪府,大阪市西成区,花園北２丁目１３番１６号シルバー花園２０５,,27,122,5570016,,,,,,,2025-09-29,1,,,,,ハルカス,0
2039,9120903005868,新規,0,2025-09-29,2025-09-29,合同会社Ｒｉｎｇ,,合同会社,大阪府,高槻市,芝谷町３５番３０号,,27,207,5691025,,,,,,,2025-09-29,1,,,,,リング,0
2040,9122001039674,新規,0,2025-09-29,2025-09-29,株式会社ＮＡＯＳＵライフサポート,,株式会社,大阪府,東大阪市,吉田４丁目５番５号コムプラザカネカＤ号,,27,227,5780924,,,,,,,2025-09-29,1,,,,,ナオスライフサポート,0
2046,9130003010818,新規,0,2025-09-29,2025-09-29,合同会社ファミリア,,合同会社,京都府,京都市右京区,嵯峨野嵯峨ノ段町１番地２コーポ嵯峨野２０８,,26,108,6168311,,,,,,,2025-09-29,1,,,,,ファミリア,0
2051,9140005027636,新規,0,2025-09-29,2025-09-29,社会保険労務士法人タックスブレイン,,その他の設立登記法人,兵庫県,加西市,北条町横尾１１０７番地,,28,220,6752311,,,,,,,2025-09-29,1,,,,,タックスブレイン,0
2052,9160001027076,新規,0,2025-09-29,2025-09-29,瑞豊貿易株式会社,,株式会社,滋賀県,彦根市,肥田町９８１－１－２０５号室,,25,202,5211123,,,,,,,2025-09-29,1,,,,,ズイホウボウエキ,0
2062,9180005021247,新規,0,2025-09-29,2025-09-29,一般社団法人プロフェッショナル・サポート協会,,その他の設立登記法人,愛知県,名古屋市中村区,名駅３丁目８番６号,,23,105,4500002,,,,,,,2025-09-29,1,,,,,プロフェッショナルサポートキョウカイ,0
2065,9190003005192,新規,0,2025-09-29,2025-09-29,ＮＴ工業合同会社,,合同会社,三重県,名張市,八幡１４２６番地２,,24,208,5180605,,,,,,,2025-09-29,1,,,,,エヌティ,0
2066,9200001044265,新規,0,2025-09-29,2025-09-29,株式会社ＫＭＧＭ,,株式会社,岐阜県,岐阜市,吉野町６丁目３１番地ザ・ライオンズ一条タワー岐阜１４０２号室,,21,201,5008844,,,,,,,2025-09-29,1,,,,,ケーエムジーエム,0
2068,9210001020323,新規,0,2025-09-29,2025-09-29,株式会社ライジング,,株式会社,福井県,福井市,三留町７２字１０番地,,18,201,9103608,,,,,,,2025-09-29,1,,,,,ライジング,0
2073,9220003004125,新規,0,2025-09-29,2025-09-29,エス合同会社,,合同会社,石川県,金沢市,杉浦町１６番地ＰＡＣＨＡ１０１,,17,201,9200972,,,,,,,2025-09-29,1,,,,,エス,0
2075,9240001065547,新規,0,2025-09-29,2025-09-29,株式会社Ａプラン土木設計事務所,,株式会社,広島県,東広島市,西条西本町１１番１－Ａ５０１号,,34,212,7390043,,,,,,,2025-09-29,1,,,,,エイプランドボクセッケイジムショ,0
2076,9240001065555,新規,0,2025-09-29,2025-09-29,株式会社静碧工業,,株式会社,広島県,安芸郡熊野町,中溝６丁目２番２１号,,34,307,7314214,,,,,,,2025-09-29,1,,,,,セイコウコウギョウ,0
2098,9330003011226,新規,0,2025-09-29,2025-09-29,ＯＲＩＶＡ合同会社,,合同会社,熊本県,山鹿市,長坂５９１－２,,43,208,8610534,,,,,,,2025-09-29,1,,,,,オリバ,0
2106,9430001095269,新規,0,2025-09-29,2025-09-29,Ｒｏａｍｉ国際サービス株式会社,,株式会社,北海道,江別市,野幌代々木町１５－３４,,01,217,0690817,,,,,,,2025-09-29,1,,,,,ロアミコクサイサービス,0
2110,9470003002987,新規,0,2025-09-29,2025-09-29,合同会社ＦＤサービス,,合同会社,香川県,高松市,三谷町２３４３番地２,,37,201,7610450,,,,,,,2025-09-29,1,,,,,,0
2111,9480001012962,新規,0,2025-09-29,2025-09-29,株式会社よしたかいじ,,株式会社,徳島県,那賀郡那賀町,平谷字平谷向へ１９番地,,36,368,7716321,,,,,,,2025-09-29,1,,,,,ヨシタカイジ,0
