sequenceNumber,corporateNumber,process,correct,updateDate,changeDate,name,nameImageId,kind,prefectureName,cityName,streetNumber,addressImageId,prefectureCode,cityCode,postCode,addressOutside,addressOutsideImageId,closeDate,closeCause,successorCorporateNumber,changeCause,assignmentDate,latest,enName,enPrefectureName,enCityName,enAddressOutside,furigana,hihyoji
27,1010601040657,登記記録の閉鎖等,0,2025-01-17,2024-12-25,ＩＴコミュニケーションズ株式会社,,株式会社,東京都,千代田区,神田美倉町９番地,,13,101,1010038,,,2024-12-25,清算の結了等,,,2015-10-05,1,,,,,アイティコミュニケーションズ,0
30,1010703005640,登記記録の閉鎖等,0,2025-01-17,2024-12-19,ＡＪＰ　Ｇａｍｍａ３合同会社,,合同会社,東京都,港区,虎ノ門３丁目２２番１０－２０１号,,13,103,1050001,,,2024-12-19,清算の結了等,,,2021-02-26,1,,,,,エイジェイピィガンマサン,0
31,1010705003122,登記記録の閉鎖等,0,2025-01-17,2024-12-19,一般社団法人ＡＪＰ　Ｇａｍｍａ２,,その他の設立登記法人,東京都,港区,虎ノ門３丁目２２番１０－２０１号,,13,103,1050001,,,2024-12-19,清算の結了等,,,2020-10-02,1,,,,,エイジェイピィガンマニ,0
34,1010901019789,登記記録の閉鎖等,0,2025-01-17,2025-01-07,株式会社エヴァグリーン,,株式会社,東京都,世田谷区,北沢３丁目３４番６号,,13,112,1550031,,,2025-01-07,清算の結了等,,,2015-10-05,1,,,,,エヴァグリーン,0
44,1011301028579,登記記録の閉鎖等,0,2025-01-17,2025-01-09,株式会社Ａｄｖａｎｃｅ,,株式会社,東京都,杉並区,高円寺北２丁目３４番７号マリオン高円寺３０３,,13,115,1660002,,,2025-01-09,清算の結了等,,,2023-03-31,1,,,,,アドバンス,0
51,1011501002615,登記記録の閉鎖等,0,2025-01-17,2024-12-26,大善工業株式会社,,株式会社,東京都,北区,神谷３丁目１０番８－３０７号,,13,117,1150043,,,2024-12-26,清算の結了等,,,2015-10-05,1,,,,,ダイゼンコウギョウ,0
69,1020002001613,登記記録の閉鎖等,0,2025-01-17,2025-01-15,有限会社第一薬局,,有限会社,神奈川県,藤沢市,藤沢４７番地の８,,14,205,2510052,,,2025-01-15,清算の結了等,,,2015-10-05,1,,,,,ダイイチヤッキョク,0
101,1050001023829,登記記録の閉鎖等,0,2025-01-17,2025-01-08,株式会社ロータリーコーポレーション,,株式会社,茨城県,日立市,西成沢町１丁目３５番２８号,,08,202,3160032,,,2025-01-08,清算の結了等,,,2015-10-05,1,,,,,ロータリーコーポレーション,0
103,1050002000488,登記記録の閉鎖等,0,2025-01-17,2025-01-10,有限会社うりなみ印刷,,有限会社,茨城県,水戸市,元吉田町３７６番地の１３,,08,201,3100836,,,2025-01-10,清算の結了等,,,2015-10-05,1,,,,,ウリナミインサツ,0
108,1070001001898,登記記録の閉鎖等,0,2025-01-17,2025-01-17,第一食品株式会社,,株式会社,群馬県,前橋市,上青梨子町１０３番地３,,10,201,3703572,,,2025-01-17,登記官による閉鎖,,,2015-10-05,1,,,,,,0
109,1070001018372,登記記録の閉鎖等,0,2025-01-17,2025-01-17,バイオテック・マーケティング株式会社,,株式会社,群馬県,渋川市,金井１２６４番地５,,10,208,3770027,,,2025-01-17,登記官による閉鎖,,,2015-10-05,1,,,,,,0
110,1070001021847,登記記録の閉鎖等,0,2025-01-17,2025-01-17,株式会社武川,,株式会社,群馬県,館林市,大街道１丁目５番１１号,,10,207,3740066,,,2025-01-17,登記官による閉鎖,,,2015-10-05,1,,,,,,0
111,1070001029064,登記記録の閉鎖等,0,2025-01-17,2025-01-17,株式会社福伊知不動産,,株式会社,群馬県,伊勢崎市,田中島町１４４９番地５,,10,204,3720802,,,2025-01-17,登記官による閉鎖,,,2015-10-05,1,,,,,,0
112,1070002001096,登記記録の閉鎖等,0,2025-01-17,2025-01-15,有限会社大野商店,,有限会社,群馬県,前橋市,住吉町２丁目３番２４号,,10,201,3710021,,,2025-01-15,清算の結了等,,,2015-10-05,1,,,,,,0
113,1070002001352,登記記録の閉鎖等,0,2025-01-17,2025-01-17,有限会社加藤工務店,,有限会社,群馬県,前橋市,石倉町５丁目１９番地の１２,,10,201,3710841,,,2025-01-17,登記官による閉鎖,,,2015-10-05,1,,,,,,0
114,1070002011806,登記記録の閉鎖等,0,2025-01-17,2025-01-17,有限会社富士久,,有限会社,群馬県,高崎市,柳川町２５番地,,10,202,3700815,,,2025-01-17,登記官による閉鎖,,,2015-10-05,1,,,,,,0
115,1070002024378,登記記録の閉鎖等,0,2025-01-17,2025-01-17,有限会社丹羽刺繍,00025760,有限会社,群馬県,桐生市,東２丁目１５番１２号,,10,203,3760034,,,2025-01-17,登記官による閉鎖,,,2015-10-05,1,,,,,,0
116,1070002036415,登記記録の閉鎖等,0,2025-01-17,2025-01-17,有限会社コウムテン,,有限会社,群馬県,吾妻郡中之条町,大字入山１６２０番地,,10,421,3771701,,,2025-01-17,登記官による閉鎖,,,2015-10-05,1,,,,,,0
117,1070005005268,登記記録の閉鎖等,0,2025-01-17,2025-01-17,特定非営利活動法人たんぽぽ,,その他の設立登記法人,群馬県,みどり市,笠懸町阿左美乙３３２６番地,,10,212,3792311,,,2025-01-17,登記官による閉鎖,,,2015-10-05,1,,,,,,0
118,1070005008031,登記記録の閉鎖等,0,2025-01-17,2025-01-17,特定非営利活動法人凌心,,その他の設立登記法人,群馬県,前橋市,青柳町９４番地６,,10,201,3710056,,,2025-01-17,登記官による閉鎖,,,2015-10-05,1,,,,,,0
120,1080101014015,登記記録の閉鎖等,0,2025-01-17,2025-01-14,株式会社大正屋メンテナンス,,株式会社,静岡県,伊東市,中央町１２番４号,,22,208,4140003,,,2025-01-14,清算の結了等,,,2015-10-05,1,,,,,タイショウヤメンテナンス,0
143,1120001189712,登記記録の閉鎖等,0,2025-01-17,2025-01-08,株式会社甲陽音楽学院,,株式会社,大阪府,大阪市中央区,島之内１丁目１０番１５号,,27,128,5420082,,,2025-01-08,合併による解散等,8120001079329,令和７年１月１日大阪市中央区島之内一丁目１０番１５号株式会社国際教育センター（8120001079329）に合併し解散,2015-10-05,1,,,,,コウヨウオンガクガクイン,0
154,1120002067859,登記記録の閉鎖等,0,2025-01-17,2025-01-14,有限会社クリエイション,,有限会社,大阪府,大阪市東住吉区,住道矢田６丁目１１番２５号,,27,121,5460022,,,2025-01-14,合併による解散等,6013301005594,令和７年１月１日東京都北区田端六丁目１番１号株式会社アイピーエス（6013301005594）に合併し解散,2015-10-05,1,,,,,クリエイション,0
171,1122001003596,登記記録の閉鎖等,0,2025-01-17,2025-01-06,真和工業株式会社,,株式会社,大阪府,東大阪市,玉串町東３丁目６番３号,,27,227,5780932,,,2025-01-06,合併による解散等,6122001026808,令和７年１月１日大阪府東大阪市玉串町東三丁目６番３号株式会社シンワテクノ（6122001026808）に合併し解散,2015-10-05,1,,,,,シンワコウギョウ,0
173,1130001046540,登記記録の閉鎖等,0,2025-01-17,2025-01-14,株式会社菊岡夫婦社,,株式会社,京都府,京都市西京区,山田平尾町５１番地５０桂坂山荘６０７号,,26,111,6158256,,,2025-01-14,清算の結了等,,,2015-10-05,1,,,,,キクオカフウフシャ,0
174,1130001050303,登記記録の閉鎖等,0,2025-01-17,2025-01-14,株式会社グローサーフ,,株式会社,京都府,京都市西京区,樫原上池田町１８番地２９,,26,111,6158176,,,2025-01-14,清算の結了等,,,2015-10-05,1,,,,,,0
178,1140001072750,登記記録の閉鎖等,0,2025-01-17,2025-01-14,株式会社ワイズコーポレーション,,株式会社,兵庫県,西宮市,樋之池町２２番３２号,,28,204,6620084,,,2025-01-14,清算の結了等,,,2015-10-05,1,,,,,,0
190,1150001021203,登記記録の閉鎖等,0,2025-01-17,2025-01-16,株式会社毎度,,株式会社,奈良県,北葛城郡河合町,大字穴闇２０４番地６,,29,427,6360054,,,2025-01-16,清算の結了等,,,2017-01-12,1,,,,,マイド,0
191,1150001027687,登記記録の閉鎖等,0,2025-01-17,2025-01-16,株式会社清水組建設,,株式会社,奈良県,大和郡山市,東岡町２８番地の１１,,29,203,6391137,,,2025-01-16,清算の結了等,,,2024-12-10,1,,,,,シミズグミケンセツ,0
192,1150003002746,登記記録の閉鎖等,0,2025-01-17,2025-01-14,ＣＡ　ｗｅｉｄ合同会社,,合同会社,奈良県,奈良市,松陽台２丁目１２番８号,,29,201,6310007,,,2025-01-14,清算の結了等,,,2022-08-08,1,,,,,シーエーウェイド,0
193,1180001012967,登記記録の閉鎖等,0,2025-01-17,2025-01-16,名古屋淡路交通株式会社,,株式会社,愛知県,名古屋市北区,会所町８１番地,,23,103,4620061,,,2025-01-16,合併による解散等,2140001084547,令和７年１月１日兵庫県洲本市宇山一丁目４番３９号淡路交通株式会社（2140001084547）に合併し解散,2015-10-05,1,,,,,ナゴヤアワジコウツウ,0
201,1180302018449,登記記録の閉鎖等,0,2025-01-17,2025-01-08,有限会社鈴木漆工芸,,有限会社,愛知県,刈谷市,大正町７丁目６０２番地,,23,210,4480855,,,2025-01-08,清算の結了等,,,2015-10-05,1,,,,,スズキウルシコウゲイ,0
218,1240001004776,登記記録の閉鎖等,0,2025-01-17,2025-01-14,新広島興業株式会社,,株式会社,広島県,広島市東区,牛田本町１丁目７番１８号,,34,102,7320066,,,2025-01-14,清算の結了等,,,2015-10-05,1,,,,,シンヒロシマコウギョウ,0
219,1240001044319,登記記録の閉鎖等,0,2025-01-17,2025-01-15,プランＫ株式会社,,株式会社,広島県,三原市,大和町平坂５４６,,34,204,7291213,,,2025-01-15,清算の結了等,,,2015-10-05,1,,,,,プランケー,0
236,1320001017365,登記記録の閉鎖等,0,2025-01-17,2025-01-14,株式会社タクミカンパニー,,株式会社,大分県,別府市,北浜３丁目１番３号,,44,202,8740920,,,2025-01-14,合併による解散等,9320001015535,令和７年１月１１日大分県別府市上原町８番１８号株式会社温恵（9320001015535）に合併し解散,2019-10-24,1,,,,,タクミカンパニー,0
243,1370002006247,登記記録の閉鎖等,0,2025-01-17,2025-01-08,有限会社湯目写植工芸,,有限会社,宮城県,仙台市若林区,沖野２丁目２５番３号,,04,103,9840831,,,2025-01-08,清算の結了等,,,2015-10-05,1,,,,,ユノメシャショクコウゲイ,0
248,1380001017541,登記記録の閉鎖等,0,2025-01-17,2025-01-06,総合不動産株式会社,,株式会社,福島県,会津若松市,慶山１丁目９番３０号,,07,202,9650812,,,2025-01-06,清算の結了等,,,2015-10-05,1,,,,,ソウゴウフドウサン,0
259,1430001070832,登記記録の閉鎖等,0,2025-01-17,2025-01-10,コアリアルティ株式会社,,株式会社,北海道,札幌市中央区,大通西１２丁目４番地,,01,101,0600042,,,2025-01-10,清算の結了等,,,2016-02-09,1,,,,,コアリアルティ,0
260,1430002045255,登記記録の閉鎖等,0,2025-01-17,2025-01-10,有限会社あおい,,有限会社,北海道,江別市,野幌町４１番地,,01,217,0690813,,,2025-01-10,合併による解散等,9430001042535,令和７年１月１日北海道江別市野幌町４１番地大十企業株式会社（9430001042535）に合併し解散,2015-10-05,1,,,,,アオイ,0
266,1480001008828,登記記録の閉鎖等,0,2025-01-17,2025-01-16,株式会社ＮＥＯ－ＴＥＣＨＡ,,株式会社,徳島県,徳島市,昭和町８丁目２７番地,,36,201,7700942,,,2025-01-16,登記官による閉鎖,,,2015-10-05,1,,,,,,0
270,1480002000552,登記記録の閉鎖等,0,2025-01-17,2025-01-16,有限会社エンジェル企画,,有限会社,徳島県,徳島市,大原町千代ケ丸山１番地２,,36,201,7708012,,,2025-01-16,登記官による閉鎖,,,2015-10-05,1,,,,,,0
272,1480002004660,登記記録の閉鎖等,0,2025-01-17,2025-01-16,有限会社丸紅,,有限会社,徳島県,徳島市,徳島本町２丁目４０番地,,36,201,7700854,,,2025-01-16,登記官による閉鎖,,,2015-10-05,1,,,,,,0
273,1480002007548,登記記録の閉鎖等,0,2025-01-17,2025-01-16,梅本食品有限会社,,有限会社,徳島県,小松島市,横須町１３番６６号,,36,203,7730006,,,2025-01-16,登記官による閉鎖,,,2015-10-05,1,,,,,,0
274,1480002009197,登記記録の閉鎖等,0,2025-01-17,2025-01-16,有限会社杉村組,,有限会社,徳島県,吉野川市,山川町山路１１０番地の３,,36,205,7793402,,,2025-01-16,登記官による閉鎖,,,2015-10-05,1,,,,,,0
275,1480002009734,登記記録の閉鎖等,0,2025-01-17,2025-01-16,有限会社笠井工務店,,有限会社,徳島県,阿波市,阿波町下喜来２９３番地,,36,206,7711701,,,2025-01-16,登記官による閉鎖,,,2015-10-05,1,,,,,,0
276,1480002011228,登記記録の閉鎖等,0,2025-01-17,2025-01-16,有限会社大安,,有限会社,徳島県,板野郡北島町,江尻字小分３１番地２,,36,402,7710205,,,2025-01-16,登記官による閉鎖,,,2015-10-05,1,,,,,,0
277,1480002012928,登記記録の閉鎖等,0,2025-01-17,2025-01-16,有限会社公方さま本舗,,有限会社,徳島県,阿南市,羽ノ浦町中庄原婦知３番地,,36,204,7791101,,,2025-01-16,登記官による閉鎖,,,2015-10-05,1,,,,,クボウサマホンポ,0
278,1480002015583,登記記録の閉鎖等,0,2025-01-17,2025-01-16,有限会社シャローム,,有限会社,徳島県,三好市,池田町シンマチ１５２９番地７,,36,208,7780004,,,2025-01-16,登記官による閉鎖,,,2015-10-05,1,,,,,,0
279,1480005000228,登記記録の閉鎖等,0,2025-01-17,2025-01-16,財団法人島田保育園,,その他の設立登記法人,徳島県,徳島市,中島田町３丁目１８番地,,36,201,7700052,,,2025-01-16,登記官による閉鎖,,,2015-10-05,1,,,,,,0
280,1480005000351,登記記録の閉鎖等,0,2025-01-17,2025-01-16,医療法人徳島矯正歯科診療所,,その他の設立登記法人,徳島県,徳島市,佐古二番町９番１６号,,36,201,7700022,,,2025-01-16,登記官による閉鎖,,,2015-10-05,1,,,,,,0
281,1500001004956,登記記録の閉鎖等,0,2025-01-17,2025-01-16,株式会社リープ,,株式会社,愛媛県,伊予郡松前町,大字大溝５６５番地,,38,401,7913153,,,2025-01-16,登記官による閉鎖,,,2015-10-05,1,,,,,,0
283,1500001009939,登記記録の閉鎖等,0,2025-01-17,2025-01-16,株式会社四国青果協同連合会,,株式会社,愛媛県,新居浜市,庄内町４丁目６番３１号,,38,205,7920811,,,2025-01-16,登記官による閉鎖,,,2015-10-05,1,,,,,,0
284,1500002008188,登記記録の閉鎖等,0,2025-01-17,2025-01-16,有限会社タイセイ建設,,有限会社,愛媛県,伊予市,上吾川甲２３３番地６,,38,210,7993112,,,2025-01-16,登記官による閉鎖,,,2015-10-05,1,,,,,,0
285,1500002016868,登記記録の閉鎖等,0,2025-01-17,2025-01-16,有限会社ナショナル渡商事,,有限会社,愛媛県,新居浜市,若水町２丁目６番３５号,,38,205,7920017,,,2025-01-16,登記官による閉鎖,,,2015-10-05,1,,,,,,0
288,1500002021455,登記記録の閉鎖等,0,2025-01-17,2025-01-16,大谷商事有限会社,,有限会社,愛媛県,四国中央市,金生町下分１０６０番地９,,38,213,7990111,,,2025-01-16,登記官による閉鎖,,,2015-10-05,1,,,,,,0
289,1500002023427,登記記録の閉鎖等,0,2025-01-17,2025-01-16,有限会社冨永ゴルフ,,有限会社,愛媛県,宇和島市,三間町曽根２８３番地２,,38,203,7981104,,,2025-01-16,登記官による閉鎖,,,2015-10-05,1,,,,,,0
290,1500002023823,登記記録の閉鎖等,0,2025-01-17,2025-01-16,有限会社児島建設,,有限会社,愛媛県,南宇和郡愛南町,須ノ川１０５９番地,,38,506,7983703,,,2025-01-16,登記官による閉鎖,,,2015-10-05,1,,,,,,0
291,1500002024326,登記記録の閉鎖等,0,2025-01-17,2025-01-16,有限会社鳥生商事,,有限会社,愛媛県,今治市,北鳥生町３丁目３番１号,,38,202,7940803,,,2025-01-16,登記官による閉鎖,,,2015-10-05,1,,,,,,0
293,1500005005463,登記記録の閉鎖等,0,2025-01-17,2025-01-16,財団法人馬越親郷會,,その他の設立登記法人,愛媛県,今治市,伯方町有津甲９２７番地の４,,38,202,7942301,,,2025-01-16,登記官による閉鎖,,,2015-10-05,1,,,,,,0
299,2010001196108,登記記録の閉鎖等,0,2025-01-17,2025-01-10,鈴木ホールディングス株式会社,,株式会社,東京都,千代田区,神田須田町１丁目５番地,,13,101,1010041,,,2025-01-10,合併による解散等,9011801029375,令和７年１月１日東京都足立区栗原一丁目４番２４－２０６号ＴＡＦアドバイザリー株式会社（9011801029375）に合併し解散,2018-11-06,1,,,,,スズキホールディングス,0
325,2010705003121,登記記録の閉鎖等,0,2025-01-17,2024-12-19,一般社団法人ＡＪＰ　Ｇａｍｍａ１,,その他の設立登記法人,東京都,港区,虎ノ門３丁目２２番１０－２０１号,,13,103,1050001,,,2024-12-19,清算の結了等,,,2020-10-02,1,,,,,エイジェイピィガンマイチ,0
327,2010801030044,登記記録の閉鎖等,0,2025-01-17,2025-01-07,株式会社５０５０,,株式会社,東京都,大田区,大森西４丁目２番５号,,13,111,1430015,,,2025-01-07,清算の結了等,,,2019-07-19,1,,,,,フィフティーフィフティー,0
330,2010903007551,登記記録の閉鎖等,0,2025-01-17,2025-01-06,ＶＤＭ‐Ｅ合同会社,,合同会社,東京都,世田谷区,用賀１丁目１３番２３－４０４号,,13,112,1580097,,,2025-01-06,清算の結了等,,,2022-08-01,1,,,,,ブイディエムイー,0
362,2013402003039,登記記録の閉鎖等,0,2025-01-17,2025-01-15,有限会社モンサラット,,有限会社,東京都,多摩市,落合６丁目１２番地１０,,13,224,2060033,,,2025-01-15,清算の結了等,,,2015-10-05,1,,,,,モンサラット,0
366,2020001145906,登記記録の閉鎖等,0,2025-01-17,2025-01-14,株式会社ＧＯ,,株式会社,神奈川県,藤沢市,菖蒲沢１２１５－１ルーフハウスＢ２０１,,14,205,2520823,,,2025-01-14,清算の結了等,,,2022-04-01,1,,,,,ジーオー,0
372,2020003023705,登記記録の閉鎖等,0,2025-01-17,2024-12-26,合同会社ＣＦＪエナジー,,合同会社,神奈川県,川崎市川崎区,貝塚１丁目３番１９号,,14,131,2100014,,,2024-12-26,清算の結了等,,,2023-04-13,1,,,,,シーエフジェーエナジー,0
378,2021001076273,登記記録の閉鎖等,0,2025-01-17,2025-01-15,ＯＳＫ株式会社,,株式会社,神奈川県,座間市,小松原２丁目４４番１号,,14,216,2520002,,,2025-01-15,清算の結了等,,,2022-06-16,1,,,,,オーエスケー,0
414,2050001034271,登記記録の閉鎖等,0,2025-01-17,2025-01-09,株式会社Ｔ．Ｓグループ,,株式会社,茨城県,北茨城市,磯原町磯原４丁目８０番地,,08,215,3191541,,,2025-01-09,清算の結了等,,,2015-10-05,1,,,,,ティーエスグループ,0
420,2060005010177,登記記録の閉鎖等,0,2025-01-17,2024-12-26,特定非営利活動法人生活福祉機構,,その他の設立登記法人,栃木県,下都賀郡野木町,大字友沼６４２７番地１５,,09,364,3290101,,,2024-12-26,清算の結了等,,,2024-03-15,1,,,,,セイカツフクシキコウ,0
421,2070001013273,登記記録の閉鎖等,0,2025-01-17,2025-01-17,群馬流通株式会社,,株式会社,群馬県,伊勢崎市,北千木町１４３２番地２,,10,204,3720032,,,2025-01-17,登記官による閉鎖,,,2015-10-05,1,,,,,,0
422,2070001020170,登記記録の閉鎖等,0,2025-01-17,2025-01-17,株式会社松本,,株式会社,群馬県,邑楽郡大泉町,西小泉４丁目１１番２２号,,10,524,3700517,,,2025-01-17,登記官による閉鎖,,,2015-10-05,1,,,,,,0
423,2070001021400,登記記録の閉鎖等,0,2025-01-17,2025-01-17,ＩＺＵＭＩ株式会社,,株式会社,群馬県,邑楽郡大泉町,西小泉２丁目１２番１号,,10,524,3700517,,,2025-01-17,登記官による閉鎖,,,2015-10-05,1,,,,,,0
424,2070001021540,登記記録の閉鎖等,0,2025-01-17,2025-01-17,コミュホールディングス株式会社,,株式会社,群馬県,太田市,飯塚町１３５２番地,,10,205,3730817,,,2025-01-17,登記官による閉鎖,,,2015-10-05,1,,,,,コミュホールディングス,0
425,2070001022786,登記記録の閉鎖等,0,2025-01-17,2025-01-17,株式会社セナール,,株式会社,群馬県,太田市,内ケ島町７１５番地１,,10,205,3730813,,,2025-01-17,登記官による閉鎖,,,2015-10-05,1,,,,,,0
426,2070001023719,登記記録の閉鎖等,0,2025-01-17,2025-01-17,北軽井沢エス・シー開発株式会社,,株式会社,群馬県,吾妻郡長野原町,大字北軽井沢１９８８番地８３,,10,424,3771412,,,2025-01-17,登記官による閉鎖,,,2015-10-05,1,,,,,,0
427,2070001025252,登記記録の閉鎖等,0,2025-01-17,2025-01-17,株式会社アクセル,,株式会社,群馬県,高崎市,上並榎町５９５番地１２,,10,202,3700801,,,2025-01-17,登記官による閉鎖,,,2015-10-05,1,,,,,,0
428,2070001029030,登記記録の閉鎖等,0,2025-01-17,2025-01-17,株式会社あゆみ,,株式会社,群馬県,前橋市,大友町３丁目９番２号第２伸栄ビル２－５号室,,10,201,3710847,,,2025-01-17,登記官による閉鎖,,,2015-10-05,1,,,,,,0
431,2070002001566,登記記録の閉鎖等,0,2025-01-17,2025-01-17,有限会社きーとん珈琲販売,,有限会社,群馬県,前橋市,古市町１丁目１番地８,,10,201,3710844,,,2025-01-17,登記官による閉鎖,,,2015-10-05,1,,,,,,0
432,2070002009097,登記記録の閉鎖等,0,2025-01-17,2025-01-17,有限会社オートサービス,,有限会社,群馬県,高崎市,上並榎町１５５番地４,,10,202,3700801,,,2025-01-17,登記官による閉鎖,,,2015-10-05,1,,,,,,0
433,2070002015509,登記記録の閉鎖等,0,2025-01-17,2025-01-17,有限会社アルル,,有限会社,群馬県,高崎市,新町２７９３番地の３,,10,202,3701301,,,2025-01-17,登記官による閉鎖,,,2015-10-05,1,,,,,,0
434,2070002016746,登記記録の閉鎖等,0,2025-01-17,2025-01-17,有限会社リョウ設計,,有限会社,群馬県,富岡市,下黒岩２９２番地１,,10,210,3702341,,,2025-01-17,登記官による閉鎖,,,2015-10-05,1,,,,,,0
435,2070002023627,登記記録の閉鎖等,0,2025-01-17,2025-01-17,猿山染工有限会社,,有限会社,群馬県,桐生市,錦町３丁目３番１号,,10,203,3760023,,,2025-01-17,登記官による閉鎖,,,2015-10-05,1,,,,,,0
436,2070002026142,登記記録の閉鎖等,0,2025-01-17,2025-01-17,有限会社岸林業,,有限会社,群馬県,渋川市,金井１９５５番地の６,,10,208,3770027,,,2025-01-17,登記官による閉鎖,,,2015-10-05,1,,,,,,0
437,2070002028956,登記記録の閉鎖等,0,2025-01-17,2025-01-17,群邦衣料加工有限会社,,有限会社,群馬県,太田市,内ケ島町１６２６番地の６,,10,205,3730813,,,2025-01-17,登記官による閉鎖,,,2015-10-05,1,,,,,,0
438,2070002030235,登記記録の閉鎖等,0,2025-01-17,2025-01-17,富岡工業有限会社,,有限会社,群馬県,邑楽郡大泉町,城之内３丁目３０番１１号,,10,524,3700518,,,2025-01-17,登記官による閉鎖,,,2015-10-05,1,,,,,,0
439,2070002031010,登記記録の閉鎖等,0,2025-01-17,2025-01-17,有限会社松本,,有限会社,群馬県,太田市,小舞木町４３５番地,,10,205,3730818,,,2025-01-17,登記官による閉鎖,,,2015-10-05,1,,,,,,0
441,2070003000030,登記記録の閉鎖等,0,2025-01-17,2025-01-17,合資会社岩崎商会,,合資会社,群馬県,前橋市,南町２丁目６６番地の６,,10,201,3710805,,,2025-01-17,登記官による閉鎖,,,2015-10-05,1,,,,,,0
442,2070005001679,登記記録の閉鎖等,0,2025-01-17,2025-01-17,企業組合ユーフーズ,,その他の設立登記法人,群馬県,前橋市,池端町５６５番地,,10,201,3703571,,,2025-01-17,登記官による閉鎖,,,2015-10-05,1,,,,,,0
443,2070005001761,登記記録の閉鎖等,0,2025-01-17,2025-01-17,特定非営利活動法人夢のゴンドラ・マンドリーノ,,その他の設立登記法人,群馬県,前橋市,若宮町３丁目１番６号,,10,201,3710032,,,2025-01-17,登記官による閉鎖,,,2015-10-05,1,,,,,,0
444,2070005004640,登記記録の閉鎖等,0,2025-01-17,2025-01-17,特定非営利活動法人環境フォーラム群馬,,その他の設立登記法人,群馬県,伊勢崎市,宮前町１６５番地２,,10,204,3720026,,,2025-01-17,登記官による閉鎖,,,2015-10-05,1,,,,,,0
448,2080101023460,登記記録の閉鎖等,0,2025-01-17,2025-01-14,株式会社ＭＥＬ,,株式会社,静岡県,駿東郡清水町,徳倉２７０６番地,,22,341,4110917,,,2025-01-14,清算の結了等,,,2022-08-02,1,,,,,エムイーエル,0
449,2080102012900,登記記録の閉鎖等,0,2025-01-17,2025-01-10,有限会社求人情報,,有限会社,静岡県,三島市,富士ビレッジ３０番１９号,,22,206,4110028,,,2025-01-10,清算の結了等,,,2015-10-05,1,,,,,キュウジンジョウホウ,0
450,2080402015099,登記記録の閉鎖等,0,2025-01-17,2025-01-15,有限会社新宏工業,,有限会社,静岡県,浜松市浜名区,新原３８７８番地,,22,139,4340003,,,2025-01-15,清算の結了等,,,2015-10-05,1,,,,,シンコウコウギョウ,0
455,2100003004052,登記記録の閉鎖等,0,2025-01-17,2025-01-08,合同会社ＫＤハウス,,合同会社,東京都,大田区,池上６丁目４２番５号,,13,111,1460082,,,2025-01-08,清算の結了等,,,2015-10-05,1,,,,,ケーディハウス,0
457,2110001004318,登記記録の閉鎖等,0,2025-01-17,2025-01-14,株式会社渡辺商会,,株式会社,新潟県,新発田市,蔵光２７９２番地,,15,206,9592521,,,2025-01-14,清算の結了等,,,2015-10-05,1,,,,,ワタナベショウカイ,0
500,2130001048008,登記記録の閉鎖等,0,2025-01-17,2025-01-14,株式会社鱧壱,,株式会社,京都府,京都市中京区,錦柳馬場東入東魚屋町１７１,,26,104,6040000,,,2025-01-14,清算の結了等,,,2015-10-05,1,,,,,,0
512,2140002023537,登記記録の閉鎖等,0,2025-01-17,2025-01-10,有限会社インテリアレガーロ,,有限会社,兵庫県,西宮市,南越木岩町１０番５－２０１号,,28,204,6620075,,,2025-01-10,清算の結了等,,,2015-10-05,1,,,,,インテリアレガーロ,0
546,2180302008952,登記記録の閉鎖等,0,2025-01-17,2025-01-10,有限会社中野呉服店,,有限会社,愛知県,豊橋市,牛川通５丁目１１番地１３,,23,201,4400011,,,2025-01-10,清算の結了等,,,2015-10-05,1,,,,,ナカノゴフクテン,0
549,2200001004481,登記記録の閉鎖等,0,2025-01-17,2025-01-16,株式会社ブーケ大阪屋,,株式会社,岐阜県,岐阜市,神室町１丁目２６番地,,21,201,5008878,,,2025-01-16,清算の結了等,,,2015-10-05,1,,,,,ブーケオオサカヤ,0
552,2200001042804,登記記録の閉鎖等,0,2025-01-17,2025-01-09,松久コンクリート工業株式会社,,株式会社,岐阜県,岐阜市,椿洞１１６１番地,,21,201,5020801,,,2025-01-09,清算の結了等,,,2024-09-05,1,,,,,マツヒサコンクリートコウギョウ,0
554,2200002009034,登記記録の閉鎖等,0,2025-01-17,2025-01-14,有限会社デルタ,,有限会社,岐阜県,羽島市,小熊町外粟野１丁目２３番地６,,21,209,5016261,,,2025-01-14,清算の結了等,,,2015-10-05,1,,,,,デルタ,0
559,2210001018670,登記記録の閉鎖等,0,2025-01-17,2025-01-15,株式会社ＳＯＬ,,株式会社,福井県,越前市,本多１丁目２番８号,,18,209,9150811,,,2025-01-15,清算の結了等,,,2021-10-28,1,,,,,ソウ,0
570,2230002004271,登記記録の閉鎖等,0,2025-01-17,2025-01-10,有限会社アミュー,,有限会社,富山県,富山市,城川原３丁目３番３４号,,16,201,9318325,,,2025-01-10,清算の結了等,,,2015-10-05,1,,,,,アミュー,0
571,2240001050051,登記記録の閉鎖等,0,2025-01-17,2025-01-16,アクト装飾株式会社,,株式会社,広島県,広島市安佐南区,長楽寺３丁目３５番１０号,,34,105,7310143,,,2025-01-16,清算の結了等,,,2016-10-07,1,,,,,アクトソウショク,0
575,2240002027577,登記記録の閉鎖等,0,2025-01-17,2025-01-15,有限会社ケイアイ医療,,有限会社,広島県,東広島市,八本松町正力２１４７番地の２,,34,212,7390132,,,2025-01-15,清算の結了等,,,2015-10-05,1,,,,,ケイアイイリョウ,0
576,2240002031942,登記記録の閉鎖等,0,2025-01-17,2025-01-15,有限会社菜園荘,,有限会社,広島県,広島市西区,三篠町３丁目２４番５号,,34,104,7330003,,,2025-01-15,清算の結了等,,,2015-10-05,1,,,,,サイエンソウ,0
577,2240003003536,登記記録の閉鎖等,0,2025-01-17,2025-01-15,合同会社４Ｕ　Ｉｎｔｅｒｎａｔｉｏｎａｌ,,合同会社,広島県,広島市中区,中町７番３５号,,34,101,7300037,,,2025-01-15,清算の結了等,,,2017-03-29,1,,,,,フォーユーインターナショナル,0
579,2280002000530,登記記録の閉鎖等,0,2025-01-17,2025-01-16,有限会社景山構造設計事務所,,有限会社,島根県,松江市,宍道町東来待９９４番地４９,,32,201,6990404,,,2025-01-16,清算の結了等,,,2015-10-05,1,,,,,カゲヤマコウゾウセッケイジムショ,0
586,2310001004925,登記記録の閉鎖等,0,2025-01-17,2025-01-10,株式会社敬天,,株式会社,長崎県,長崎市,江戸町２番３１号,,42,201,8500861,,,2025-01-10,清算の結了等,,,2015-10-05,1,,,,,ケイテン,0
589,2320001017810,登記記録の閉鎖等,0,2025-01-17,2025-01-10,株式会社Ｇｅｏ　Ｐｏｗｅｒ　Ｉｎｎｏｖａｔｉｏｎ,,株式会社,大分県,大分市,中央町２丁目９番２６号,,44,201,8700035,,,2025-01-10,清算の結了等,,,2020-07-15,1,,,,,ジオパワーイノベーション,0
590,2330001011201,登記記録の閉鎖等,0,2025-01-17,2025-01-06,株式会社吉角,,株式会社,熊本県,上益城郡益城町,大字安永１０５６番地６,,43,443,8612231,,,2025-01-06,合併による解散等,4330001026890,令和７年１月１日熊本県上益城郡益城町大字安永１０５６番地７株式会社コーンテック（4330001026890）に合併し解散,2015-10-05,1,,,,,ヨシカド,0
591,2330001027180,登記記録の閉鎖等,0,2025-01-17,2025-01-06,株式会社ＴＫ　ＨＡＣＫ,,株式会社,熊本県,熊本市中央区,本山１丁目８番１２号,,43,101,8600821,,,2025-01-06,清算の結了等,,,2020-02-04,1,,,,,ティーケイハック,0
605,2402702000094,登記記録の閉鎖等,0,2025-01-17,2025-01-06,有限会社カーコーナー・コタニ,,有限会社,岩手県,大船渡市,大船渡町字笹崎５８番地４,,03,203,0220002,,,2025-01-06,清算の結了等,,,2015-10-05,1,,,,,カーコーナーコタニ,0
624,2480001006384,登記記録の閉鎖等,0,2025-01-17,2025-01-16,サンフーズ岩田株式会社,,株式会社,徳島県,徳島市,鮎喰町２丁目７４番地１,,36,201,7700046,,,2025-01-16,登記官による閉鎖,,,2015-10-05,1,,,,,,0
625,2480001008835,登記記録の閉鎖等,0,2025-01-17,2025-01-16,株式会社ネクストステージ,,株式会社,徳島県,板野郡藍住町,徳命字名田２７４番地,,36,403,7711210,,,2025-01-16,登記官による閉鎖,,,2015-10-05,1,,,,,,0
627,2480002009659,登記記録の閉鎖等,0,2025-01-17,2025-01-16,有限会社新見シーリング,,有限会社,徳島県,阿波市,土成町土成字大法寺６５番地２,,36,206,7711506,,,2025-01-16,登記官による閉鎖,,,2015-10-05,1,,,,,,0
628,2480002010047,登記記録の閉鎖等,0,2025-01-17,2025-01-16,有限会社ドクターケイ開発研究所,,有限会社,徳島県,吉野川市,山川町諏訪２９０番地１,,36,205,7793403,,,2025-01-16,登記官による閉鎖,,,2015-10-05,1,,,,,,0
629,2480002015525,登記記録の閉鎖等,0,2025-01-17,2025-01-16,有限会社小西物産,,有限会社,徳島県,三好市,井川町御領田１５番地,,36,208,7794802,,,2025-01-16,登記官による閉鎖,,,2015-10-05,1,,,,,,0
631,2490003001829,登記記録の閉鎖等,0,2025-01-17,2025-01-15,合同会社城北地質,,合同会社,高知県,高知市,小津町３番３５号,,39,201,7800915,,,2025-01-15,清算の結了等,,,2023-10-23,1,,,,,ジョウホクチシツ,0
632,2500001004451,登記記録の閉鎖等,0,2025-01-17,2025-01-16,株式会社ロバのパン,,株式会社,愛媛県,松山市,東石井１丁目５番２６号,,38,201,7900932,,,2025-01-16,登記官による閉鎖,,,2015-10-05,1,,,,,,0
633,2500001012215,登記記録の閉鎖等,0,2025-01-17,2025-01-16,広川海運株式会社,,株式会社,愛媛県,今治市,波止浜４番地,,38,202,7992118,,,2025-01-16,登記官による閉鎖,,,2015-10-05,1,,,,,,0
635,2500002001951,登記記録の閉鎖等,0,2025-01-17,2025-01-16,有限会社観光堂,,有限会社,愛媛県,松山市,清水町２丁目３番地５,,38,201,7900823,,,2025-01-16,登記官による閉鎖,,,2015-10-05,1,,,,,,0
636,2500002004830,登記記録の閉鎖等,0,2025-01-17,2025-01-16,有限会社朋不動産,,有限会社,愛媛県,松山市,南久米町１２５番地１０,,38,201,7900924,,,2025-01-16,登記官による閉鎖,,,2015-10-05,1,,,,,,0
637,2500002023203,登記記録の閉鎖等,0,2025-01-17,2025-01-16,有限会社ムーサイン工房,,有限会社,愛媛県,宇和島市,和霊元町３丁目４番２９号,,38,203,7980015,,,2025-01-16,登記官による閉鎖,,,2015-10-05,1,,,,,,0
638,2500005007277,登記記録の閉鎖等,0,2025-01-17,2025-01-16,砥部町農業会,,その他の設立登記法人,愛媛県,伊予郡砥部町,大字大南甲２１８番地の１,,38,402,7912100,,,2025-01-16,登記官による閉鎖,,,2015-10-05,1,,,,,トベチョウノウギョウカイ,0
645,3010001034142,登記記録の閉鎖等,0,2025-01-17,2024-12-19,東京弘報商事株式会社,,株式会社,東京都,千代田区,神田三崎町２丁目１２番１０号,,13,101,1010061,,,2024-12-19,合併による解散等,7010001034147,令和６年１２月１９日東京都千代田区神田三崎町二丁目１２番１０号株式会社東京弘報社（7010001034147）に合併し解散,2015-10-05,1,,,,,トウキョウコウホウショウジ,0
685,3011001098557,登記記録の閉鎖等,0,2025-01-17,2025-01-06,株式会社Ｂｌｏｏｍｈｅａｒｔ,,株式会社,東京都,世田谷区,玉川３丁目１番１６－７０１号,,13,112,1580094,,,2025-01-06,清算の結了等,,,2015-10-05,1,,,,,ブルームハート,0
700,3011202001600,登記記録の閉鎖等,0,2025-01-17,2025-01-15,有限会社カメラ昭栄堂,,有限会社,東京都,中野区,中野３丁目３４番３２号,,13,114,1640001,,,2025-01-15,清算の結了等,,,2015-10-05,1,,,,,カメラショウエイドウ,0
704,3011401017752,登記記録の閉鎖等,0,2025-01-17,2025-01-06,株式会社ゴールドエクスペリエンス,,株式会社,東京都,板橋区,赤塚新町１丁目２１番１２号シオノビル１階,,13,119,1750093,,,2025-01-06,清算の結了等,,,2015-10-05,1,,,,,ゴールドエクスペリエンス,0
737,3030001080531,登記記録の閉鎖等,0,2025-01-17,2025-01-09,株式会社松島工業,,株式会社,埼玉県,川口市,大字石神６６８番地の９,,11,203,3330823,,,2025-01-09,清算の結了等,,,2015-10-05,1,,,,,マツシマコウギョウ,0
758,3040005001160,登記記録の閉鎖等,0,2025-01-17,2025-01-10,医療法人社団雄翔会,,その他の設立登記法人,東京都,中央区,銀座３丁目７番２号オーク銀座３Ｆ,,13,102,1040061,,,2025-01-10,清算の結了等,,,2015-10-05,1,,,,,,0
763,3070001006722,登記記録の閉鎖等,0,2025-01-17,2025-01-17,群馬物産株式会社,,株式会社,群馬県,高崎市,栄町５番１５号,,10,202,3700841,,,2025-01-17,登記官による閉鎖,,,2015-10-05,1,,,,,,0
764,3070001008537,登記記録の閉鎖等,0,2025-01-17,2025-01-17,株式会社宮原建設,,株式会社,群馬県,高崎市,石原町１６１１番地の９,,10,202,3700864,,,2025-01-17,登記官による閉鎖,,,2015-10-05,1,,,,,,0
765,3070001009089,登記記録の閉鎖等,0,2025-01-17,2025-01-17,株式会社貴水,,株式会社,群馬県,高崎市,上中居町１６０１番地２,,10,202,3700851,,,2025-01-17,登記官による閉鎖,,,2015-10-05,1,,,,,,0
766,3070001010204,登記記録の閉鎖等,0,2025-01-17,2025-01-17,株式会社ＣＷＭコンサルティング・オフィス,,株式会社,群馬県,高崎市,高関町４４１番地９,,10,202,3700043,,,2025-01-17,登記官による閉鎖,,,2015-10-05,1,,,,,,0
767,3070001023131,登記記録の閉鎖等,0,2025-01-17,2025-01-17,片品測量株式会社,,株式会社,群馬県,利根郡片品村,大字鎌田４０１１番地２,,10,443,3780415,,,2025-01-17,登記官による閉鎖,,,2015-10-05,1,,,,,,0
768,3070001028790,登記記録の閉鎖等,0,2025-01-17,2025-01-17,光建設計株式会社,,株式会社,群馬県,みどり市,笠懸町鹿３０８９番地１,,10,212,3792313,,,2025-01-17,登記官による閉鎖,,,2015-10-05,1,,,,,,0
769,3070002008750,登記記録の閉鎖等,0,2025-01-17,2025-01-17,有限会社インターナショナルハウス,,有限会社,群馬県,高崎市,成田町１２番地,,10,202,3700812,,,2025-01-17,登記官による閉鎖,,,2018-03-29,1,,,,,インターナショナルハウス,0
770,3070002010533,登記記録の閉鎖等,0,2025-01-17,2025-01-15,有限会社スポーツロフト,,有限会社,群馬県,前橋市,箱田町５９４番地２リュミエールＡ－１２３号,,10,201,3710837,,,2025-01-15,清算の結了等,,,2015-10-05,1,,,,,,0
771,3070002015367,登記記録の閉鎖等,0,2025-01-17,2025-01-17,有限会社吉和商事,,有限会社,群馬県,高崎市,中泉町６０１番地１４,,10,202,3703524,,,2025-01-17,登記官による閉鎖,,,2015-10-05,1,,,,,,0
772,3070002023642,登記記録の閉鎖等,0,2025-01-17,2025-01-17,有限会社椎名石油瓦斯,,有限会社,群馬県,桐生市,天神町１丁目４番３号,,10,203,3760052,,,2025-01-17,登記官による閉鎖,,,2015-10-05,1,,,,,,0
773,3070002025003,登記記録の閉鎖等,0,2025-01-17,2025-01-17,有限会社八百廣本店,,有限会社,群馬県,みどり市,大間々町大間々１０４６番地,,10,212,3760101,,,2025-01-17,登記官による閉鎖,,,2015-10-05,1,,,,,,0
774,3070002026125,登記記録の閉鎖等,0,2025-01-17,2025-01-17,有限会社木村商店,,有限会社,群馬県,渋川市,中村２８７番地の１,,10,208,3770002,,,2025-01-17,登記官による閉鎖,,,2015-10-05,1,,,,,,0
775,3070002026760,登記記録の閉鎖等,0,2025-01-17,2025-01-17,有限会社廣田産業,00025797,有限会社,群馬県,渋川市,八木原５３７番地１,,10,208,3770003,,,2025-01-17,登記官による閉鎖,,,2015-10-05,1,,,,,,0
776,3070002031067,登記記録の閉鎖等,0,2025-01-17,2025-01-17,有限会社丸忠化成,,有限会社,群馬県,太田市,東別所町３５７番地の１,,10,205,3730815,,,2025-01-17,登記官による閉鎖,,,2015-10-05,1,,,,,,0
778,3070005000077,登記記録の閉鎖等,0,2025-01-17,2025-01-17,群馬県菓子問屋商業組合,,その他の設立登記法人,群馬県,沼田市,硯田町１０９番地１,,10,206,3780032,,,2025-01-17,登記官による閉鎖,,,2015-10-05,1,,,,,,0
779,3070005005225,登記記録の閉鎖等,0,2025-01-17,2025-01-17,特定非営利活動法人ルピナス,,その他の設立登記法人,群馬県,桐生市,新里町山上１３８７番地８,,10,203,3760125,,,2025-01-17,登記官による閉鎖,,,2015-10-05,1,,,,,,0
780,3070005005588,登記記録の閉鎖等,0,2025-01-17,2025-01-17,特定非営利活動法人ささ波丸松会サンホーム,,その他の設立登記法人,群馬県,北群馬郡榛東村,大字広馬場下前５１番地１,,10,344,3703504,,,2025-01-17,登記官による閉鎖,,,2015-10-05,1,,,,,,0
782,3090001006943,登記記録の閉鎖等,0,2025-01-17,2025-01-10,株式会社三共消毒,,株式会社,山梨県,甲斐市,島上条２９７番地１,,19,210,4000123,,,2025-01-10,清算の結了等,,,2015-10-05,1,,,,,サンキョウショウドク,0
813,3130001045697,登記記録の閉鎖等,0,2025-01-17,2025-01-14,株式会社京料理玉家,,株式会社,京都府,京都市伏見区,深草北鍵屋町９９５番地１,,26,109,6120041,,,2025-01-14,清算の結了等,,,2015-10-05,1,,,,,キョウリョウリタマヤ,0
816,3130001054228,登記記録の閉鎖等,0,2025-01-17,2025-01-09,新京都タクシー株式会社,,株式会社,京都府,亀岡市,余部町大塚２４番地の１,,26,206,6210806,,,2025-01-09,合併による解散等,2120001103259,令和６年１２月３１日京都府亀岡市余部町大塚２４番地の１京都タクシー株式会社（2120001103259）に合併し解散,2015-10-05,1,,,,,シンキョウトタクシー,0
817,3130001061422,登記記録の閉鎖等,0,2025-01-17,2025-01-14,カミキ株式会社,,株式会社,京都府,京都市中京区,山伏山町５５８三洋室町ビル６０５,,26,104,6048156,,,2025-01-14,清算の結了等,,,2018-01-30,1,,,,,カミキ,0
827,3140002030318,登記記録の閉鎖等,0,2025-01-17,2025-01-14,有限会社メリディアン,,有限会社,兵庫県,明石市,和坂稲荷町５５番地の１,,28,203,6730013,,,2025-01-14,清算の結了等,,,2015-10-05,1,,,,,メリディアン,0
828,3140002043559,登記記録の閉鎖等,0,2025-01-17,2025-01-06,有限会社阪神デジコム,,有限会社,兵庫県,尼崎市,竹谷町３丁目１０９番地の４,,28,202,6600876,,,2025-01-06,清算の結了等,,,2015-10-05,1,,,,,ハンシンデジコム,0
831,3140003014798,登記記録の閉鎖等,0,2025-01-17,2025-01-10,合同会社ＭＩＲＯ,,合同会社,兵庫県,宝塚市,仁川高丸２丁目６番６号,,28,214,6650063,,,2025-01-10,清算の結了等,,,2020-03-13,1,,,,,ミロ,0
842,3180001015258,登記記録の閉鎖等,0,2025-01-17,2024-12-27,日本スチール家具株式会社,,株式会社,愛知県,名古屋市南区,元柴田西町２丁目９番地,,23,112,4570817,,,2024-12-27,清算の結了等,,,2015-10-05,1,,,,,ニホンスチールカグ,0
846,3180001133398,登記記録の閉鎖等,0,2025-01-17,2025-01-06,ＡＩ　Ａｓｓｉｓｔ株式会社,,株式会社,愛知県,名古屋市東区,東桜２丁目１７番６号,,23,102,4610005,,,2025-01-06,合併による解散等,2180001016694,令和７年１月１日名古屋市東区東桜二丁目１７番６号三栄商事株式会社（2180001016694）に合併し解散,2018-08-13,1,,,,,エーアイアシスト,0
852,3180002008112,登記記録の閉鎖等,0,2025-01-17,2025-01-06,有限会社ジェネレイション,,有限会社,愛知県,名古屋市昭和区,滝子通１丁目２番地２シティーコーポ滝子通,,23,107,4660055,,,2025-01-06,清算の結了等,,,2015-10-05,1,,,,,ジェネレイション,0
854,3180002089524,登記記録の閉鎖等,0,2025-01-17,2024-12-27,吉原興業有限会社,,有限会社,愛知県,津島市,西愛宕町２丁目９２番地３,,23,208,4960037,,,2024-12-27,清算の結了等,,,2015-10-05,1,,,,,ヨシワラコウギョウ,0
855,3180301012905,登記記録の閉鎖等,0,2025-01-17,2025-01-09,三協燃料株式会社,,株式会社,愛知県,安城市,大東町１６番１０号,,23,212,4460065,,,2025-01-09,清算の結了等,,,2015-10-05,1,,,,,サンキョウネンリョウ,0
863,3200001032102,登記記録の閉鎖等,0,2025-01-17,2025-01-14,株式会社エムズ,,株式会社,岐阜県,岐阜市,白木町４１番地,,21,201,5008085,,,2025-01-14,清算の結了等,,,2015-10-05,1,,,,,,0
865,3200001037539,登記記録の閉鎖等,0,2025-01-17,2025-01-14,株式会社ＴＲＦ,,株式会社,岐阜県,大垣市,難波野町５４８番地１,,21,202,5030844,,,2025-01-14,清算の結了等,,,2020-06-23,1,,,,,ティーアールエフ,0
872,3220002004189,登記記録の閉鎖等,0,2025-01-17,2025-01-15,有限会社直江自動車工業,,有限会社,石川県,金沢市,畝田中４丁目２５番地,,17,201,9200343,,,2025-01-15,清算の結了等,,,2015-10-05,1,,,,,ナオエジドウシャコウギョウ,0
887,3290003014222,登記記録の閉鎖等,0,2025-01-17,2024-12-25,合同会社アクア未来福祉会,,合同会社,福岡県,福岡市東区,馬出３丁目１５番２５－３１１号,,40,131,8120054,,,2024-12-25,清算の結了等,,,2023-08-14,1,,,,,アクアミライフクシカイ,0
889,3290801002964,登記記録の閉鎖等,0,2025-01-17,2025-01-15,西日本電話工事株式会社,,株式会社,福岡県,北九州市戸畑区,東大谷１丁目１４番１８号,,40,105,8040031,,,2025-01-15,合併による解散等,3290001024396,令和７年１月１日福岡市南区玉川町７番８号株式会社ＤＥＮＫＥＮ（3290001024396）に合併し解散,2015-10-05,1,,,,,ニシニホンデンワコウジ,0
890,3290802018456,登記記録の閉鎖等,0,2025-01-17,2025-01-16,有限会社神社前薬局,,有限会社,福岡県,北九州市若松区,東二島４丁目９番２号,,40,103,8080102,,,2025-01-16,清算の結了等,,,2015-10-05,1,,,,,ジンジャマエヤッキョク,0
905,3380005010128,登記記録の閉鎖等,0,2025-01-17,2025-01-06,特定非営利活動法人若年者就業意識改革支援機構,,その他の設立登記法人,福島県,西白河郡泉崎村,大字泉崎字上狐山２番地１,,07,464,9690101,,,2025-01-06,清算の結了等,,,2015-10-05,1,,,,,ジャクネンシャシュウギョウイシキカイカクシエンキコウ,0
921,3470001001716,登記記録の閉鎖等,0,2025-01-17,2025-01-14,株式会社ティーエム,,株式会社,香川県,高松市,東ハゼ町８３１番地,,37,201,7618054,,,2025-01-14,清算の結了等,,,2015-10-05,1,,,,,ティーエム,0
923,3480002001499,登記記録の閉鎖等,0,2025-01-17,2025-01-16,有限会社かんざき,,有限会社,徳島県,徳島市,栄町５丁目４８番地,,36,201,7700921,,,2025-01-16,登記官による閉鎖,,,2015-10-05,1,,,,,,0
924,3480002007686,登記記録の閉鎖等,0,2025-01-17,2025-01-16,有限会社グローバル開発,,有限会社,徳島県,小松島市,櫛渕町字太田４３番地の１,00005945,36,203,7730018,,,2025-01-16,登記官による閉鎖,,,2015-10-05,1,,,,,,0
925,3480002008395,登記記録の閉鎖等,0,2025-01-17,2025-01-16,有限会社三宅建築,,有限会社,徳島県,板野郡松茂町,広島字宮ノ後４０番地の２４,,36,401,7710220,,,2025-01-16,登記官による閉鎖,,,2015-10-05,1,,,,,,0
926,3480002009022,登記記録の閉鎖等,0,2025-01-17,2025-01-16,鴨島木材有限会社,,有限会社,徳島県,吉野川市,鴨島町上下島８５番地の５,,36,205,7760013,,,2025-01-16,登記官による閉鎖,,,2015-10-05,1,,,,,,0
927,3480002012769,登記記録の閉鎖等,0,2025-01-17,2025-01-16,有限会社おおさかベスト,,有限会社,徳島県,阿南市,那賀川町中島１７０番地の１,,36,204,7791245,,,2025-01-16,登記官による閉鎖,,,2015-10-05,1,,,,,,0
928,3480002015573,登記記録の閉鎖等,0,2025-01-17,2025-01-16,有限会社七田土建,,有限会社,徳島県,三好郡東みよし町,加茂１４４３番地の２,,36,489,7794701,,,2025-01-16,登記官による閉鎖,,,2015-10-05,1,,,,,,0
929,3480005005357,登記記録の閉鎖等,0,2025-01-17,2025-01-16,財団法人脇町愛の町,,その他の設立登記法人,徳島県,美馬市,脇町大字猪尻字東分３０番地,,36,207,7793602,,,2025-01-16,登記官による閉鎖,,,2015-10-05,1,,,,,,0
933,3500001006389,登記記録の閉鎖等,0,2025-01-17,2025-01-16,株式会社ロイヤルコーポレーション,,株式会社,愛媛県,松山市,立花２丁目２番３７号,,38,201,7900966,,,2025-01-16,登記官による閉鎖,,,2015-10-05,1,,,,,,0
934,3500001008484,登記記録の閉鎖等,0,2025-01-17,2025-01-16,株式会社吉見製材所,,株式会社,愛媛県,八幡浜市,１５６９番地第１０,,38,204,7960088,,,2025-01-16,登記官による閉鎖,,,2015-10-05,1,,,,,,0
935,3500001009474,登記記録の閉鎖等,0,2025-01-17,2025-01-16,株式会社蒼栄,,株式会社,愛媛県,西条市,三芳１２５４番地１,,38,206,7991301,,,2025-01-16,登記官による閉鎖,,,2015-10-05,1,,,,,ソウエイ,0
938,3500002002478,登記記録の閉鎖等,0,2025-01-17,2025-01-16,有限会社グレイルワークス,,有限会社,愛媛県,松山市,喜与町１丁目６番地１０,,38,201,7900802,,,2025-01-16,登記官による閉鎖,,,2015-10-05,1,,,,,,0
940,3500002009985,登記記録の閉鎖等,0,2025-01-17,2025-01-16,有限会社久保田商店,,有限会社,愛媛県,松山市,西長戸町１０１番地４,,38,201,7918017,,,2025-01-16,登記官による閉鎖,,,2015-10-05,1,,,,,,0
941,3500002011363,登記記録の閉鎖等,0,2025-01-17,2025-01-16,有限会社ヘルパーステーションともとも,,有限会社,愛媛県,東温市,西岡５９９番地２９,,38,215,7910205,,,2025-01-16,登記官による閉鎖,,,2015-10-05,1,,,,,,0
942,3500002015793,登記記録の閉鎖等,0,2025-01-17,2025-01-16,有限会社愛電,,有限会社,愛媛県,新居浜市,萩生２４１１番地の６４,,38,205,7920050,,,2025-01-16,登記官による閉鎖,,,2015-10-05,1,,,,,,0
944,3500002019588,登記記録の閉鎖等,0,2025-01-17,2025-01-16,有限会社今治計装,,有限会社,愛媛県,今治市,中寺１０９６番地８,,38,202,7940840,,,2025-01-16,登記官による閉鎖,,,2015-10-05,1,,,,,,0
945,3500002021908,登記記録の閉鎖等,0,2025-01-17,2025-01-16,有限会社ミクシー,,有限会社,愛媛県,四国中央市,川之江町３２２４番地５,,38,213,7990101,,,2025-01-16,登記官による閉鎖,,,2015-10-05,1,,,,,,0
946,3500002022740,登記記録の閉鎖等,0,2025-01-17,2025-01-16,有限会社サウンドショップサカモト,,有限会社,愛媛県,宇和島市,新町１丁目４番５号,,38,203,7980035,,,2025-01-16,登記官による閉鎖,,,2015-10-05,1,,,,,,0
947,3500005001915,登記記録の閉鎖等,0,2025-01-17,2025-01-16,特定非営利活動法人地域共創研究所ＮＯＲＡ,,その他の設立登記法人,愛媛県,松山市,鉄砲町１番地７,,38,201,7900827,,,2025-01-16,登記官による閉鎖,,,2015-10-05,1,,,,,,0
948,3500005003580,登記記録の閉鎖等,0,2025-01-17,2025-01-16,伊方杜氏協同組合,,その他の設立登記法人,愛媛県,西宇和郡伊方町,川永田甲１５３４番地６,,38,442,7960312,,,2025-01-16,登記官による閉鎖,,,2015-10-05,1,,,,,,0
981,4010403024327,登記記録の閉鎖等,0,2025-01-17,2024-12-16,トゥルム合同会社,,合同会社,東京都,港区,六本木５丁目９番２０－８０１号,,13,103,1060032,,,2024-12-16,合併による解散等,1010401121764,令和６年１２月１２日東京都港区六本木五丁目９番２０－８０１号株式会社Ｓｔａｙ　Ｐｌｕｓ（1010401121764）に合併し解散,2020-12-14,1,,,,,トゥルム,0
992,4010701040018,登記記録の閉鎖等,0,2025-01-17,2024-12-19,Ａｍａｒｅｎｃｏ　Ｊａｐａｎ　Ｓｅｒｖｉｃｅ株式会社,,株式会社,東京都,港区,虎ノ門３丁目２２番１０－２０１号,,13,103,1050001,,,2024-12-19,清算の結了等,,,2020-10-27,1,,,,,アマレンコジャパンサービス,0
1008,4011502011380,登記記録の閉鎖等,0,2025-01-17,2025-01-10,有限会社みほろ医科器械製作所,,有限会社,東京都,荒川区,西尾久１丁目１８番５号,,13,118,1160011,,,2025-01-10,清算の結了等,,,2015-10-05,1,,,,,,0
1011,4011801000497,登記記録の閉鎖等,0,2025-01-17,2025-01-08,株式会社魚次三,,株式会社,東京都,葛飾区,新小岩１丁目４０番７号,,13,122,1240024,,,2025-01-08,清算の結了等,,,2015-10-05,1,,,,,ウオジサ,0
1032,4021002057337,登記記録の閉鎖等,0,2025-01-17,2025-01-14,関東設備有限会社,,有限会社,神奈川県,平塚市,田村４丁目１９番２０号,,14,203,2540013,,,2025-01-14,清算の結了等,,,2015-10-05,1,,,,,カントウセツビ,0
1036,4030001014835,登記記録の閉鎖等,0,2025-01-17,2025-01-10,株式会社バート,,株式会社,東京都,新宿区,西新宿６丁目５番１号,,13,104,1600023,,,2025-01-10,合併による解散等,7011101011259,令和７年１月１日東京都新宿区西新宿六丁目５番１号株式会社ゼネテック（7011101011259）に合併し解散,2015-10-05,1,,,,,バート,0
1053,4040001068764,登記記録の閉鎖等,0,2025-01-17,2025-01-08,株式会社山路,,株式会社,千葉県,柏市,藤ケ谷新田５４番地,,12,217,2770932,,,2025-01-08,清算の結了等,,,2015-10-05,1,,,,,ヤマジ,0
1064,4060001022158,登記記録の閉鎖等,0,2025-01-17,2025-01-06,ザ・カンパニー株式会社,,株式会社,栃木県,足利市,南町４２５４番地１,,09,202,3260821,,,2025-01-06,合併による解散等,2060001018703,令和７年１月１日栃木県足利市南町４２５４番地１志賀産業株式会社（2060001018703）に合併し解散,2015-10-05,1,,,,,ザカンパニー,0
1069,4070001010616,登記記録の閉鎖等,0,2025-01-17,2025-01-17,株式会社Ａ＆Ｐ,,株式会社,群馬県,安中市,鷺宮１２３番地１,,10,211,3790124,,,2025-01-17,登記官による閉鎖,,,2015-10-05,1,,,,,,0
1070,4070001015672,登記記録の閉鎖等,0,2025-01-17,2025-01-17,株式会社エムアンドエム・インターナショナル,,株式会社,群馬県,桐生市,菱町２丁目３５１０番地２,,10,203,3760001,,,2025-01-17,登記官による閉鎖,,,2015-10-05,1,,,,,,0
1071,4070001016539,登記記録の閉鎖等,0,2025-01-17,2025-01-17,株式会社平和堂薬品,,株式会社,群馬県,桐生市,末広町１番７号,,10,203,3760045,,,2025-01-17,登記官による閉鎖,,,2015-10-05,1,,,,,,0
1072,4070001019459,登記記録の閉鎖等,0,2025-01-17,2025-01-17,株式会社集華堂,,株式会社,群馬県,太田市,本町４番１５号,,10,205,3730057,,,2025-01-17,登記官による閉鎖,,,2015-10-05,1,,,,,,0
1073,4070001019509,登記記録の閉鎖等,0,2025-01-17,2025-01-17,株式会社鈴木製作所,,株式会社,群馬県,太田市,世良田町１５２４番地の１,,10,205,3700426,,,2025-01-17,登記官による閉鎖,,,2015-10-05,1,,,,,,0
1074,4070001026604,登記記録の閉鎖等,0,2025-01-17,2025-01-17,果実企画株式会社,,株式会社,群馬県,太田市,浜町５２番８号,,10,205,3730853,,,2025-01-17,登記官による閉鎖,,,2015-10-05,1,,,,,,0
1075,4070001027734,登記記録の閉鎖等,0,2025-01-17,2025-01-17,明藤株式会社,,株式会社,群馬県,藤岡市,中大塚５８１番地１,,10,209,3750053,,,2025-01-17,登記官による閉鎖,,,2015-10-05,1,,,,,,0
1076,4070002001845,登記記録の閉鎖等,0,2025-01-17,2025-01-17,有限会社公田商事,,有限会社,群馬県,前橋市,公田町４６９番地の１,,10,201,3792146,,,2025-01-17,登記官による閉鎖,,,2015-10-05,1,,,,,,0
1078,4070002005565,登記記録の閉鎖等,0,2025-01-17,2025-01-17,有限会社山田左官,,有限会社,群馬県,前橋市,小坂子町１４９６番地の１,,10,201,3710122,,,2025-01-17,登記官による閉鎖,,,2015-10-05,1,,,,,,0
1079,4070002005730,登記記録の閉鎖等,0,2025-01-17,2025-01-17,有限会社四ッ木屋,,有限会社,群馬県,前橋市,箱田町３９５番地３,,10,201,3710837,,,2025-01-17,登記官による閉鎖,,,2015-10-05,1,,,,,,0
1080,4070002006043,登記記録の閉鎖等,0,2025-01-17,2025-01-17,有限会社茂木組,,有限会社,群馬県,前橋市,三俣町１丁目２６番地の１,,10,201,3710018,,,2025-01-17,登記官による閉鎖,,,2015-10-05,1,,,,,,0
1082,4070002009129,登記記録の閉鎖等,0,2025-01-17,2025-01-17,大村有限会社,,有限会社,群馬県,高崎市,あら町７８番地,,10,202,3700831,,,2025-01-17,登記官による閉鎖,,,2015-10-05,1,,,,,,0
1083,4070002011571,登記記録の閉鎖等,0,2025-01-17,2025-01-17,有限会社鉢金製作所,,有限会社,群馬県,高崎市,吉井町小串４１６番地の３,,10,202,3702111,,,2025-01-17,登記官による閉鎖,,,2015-10-05,1,,,,,,0
1084,4070002015911,登記記録の閉鎖等,0,2025-01-17,2025-01-17,有限会社ロック,,有限会社,群馬県,安中市,磯部４丁目１７番８号,,10,211,3790127,,,2025-01-17,登記官による閉鎖,,,2015-10-05,1,,,,,,0
1085,4070002019631,登記記録の閉鎖等,0,2025-01-17,2025-01-17,有限会社フェロン電子,,有限会社,群馬県,伊勢崎市,波志江町１８６３番地４,,10,204,3720001,,,2025-01-17,登記官による閉鎖,,,2015-10-05,1,,,,,,0
1086,4070002028830,登記記録の閉鎖等,0,2025-01-17,2025-01-17,有限会社城代プラスチツク工業所,,有限会社,群馬県,太田市,飯田町１４８番地の２,,10,205,3730851,,,2025-01-17,登記官による閉鎖,,,2015-10-05,1,,,,,,0
1087,4070002031256,登記記録の閉鎖等,0,2025-01-17,2025-01-17,有限会社茂木鉄工所,,有限会社,群馬県,太田市,龍舞町３８６１番地の１,,10,205,3730806,,,2025-01-17,登記官による閉鎖,,,2015-10-05,1,,,,,,0
1088,4070002035050,登記記録の閉鎖等,0,2025-01-17,2025-01-17,有限会社野村商店,,有限会社,群馬県,沼田市,下之町８７２番地,,10,206,3780044,,,2025-01-17,登記官による閉鎖,,,2015-10-05,1,,,,,,0
1089,4070005003310,登記記録の閉鎖等,0,2025-01-17,2025-01-17,群馬県豆腐商工組合,,その他の設立登記法人,群馬県,高崎市,井出町７０９番地,,10,202,3703534,,,2025-01-17,登記官による閉鎖,,,2015-10-05,1,,,,,,0
1090,4070005003450,登記記録の閉鎖等,0,2025-01-17,2025-01-17,特定非営利活動法人国際文化協力機構,,その他の設立登記法人,群馬県,高崎市,栄町１３番１５号,,10,202,3700841,,,2025-01-17,登記官による閉鎖,,,2015-10-05,1,,,,,,0
1091,4070005006412,登記記録の閉鎖等,0,2025-01-17,2025-01-17,特定非営利活動法人ふれあい広場おおた,,その他の設立登記法人,群馬県,太田市,新田木崎町１０９７番地,,10,205,3700321,,,2025-01-17,登記官による閉鎖,,,2015-10-05,1,,,,,,0
1092,4070005009456,登記記録の閉鎖等,0,2025-01-17,2025-01-14,一般社団法人Ｓａｋｕｒａ,,その他の設立登記法人,群馬県,高崎市,緑町２丁目１６番地４,,10,202,3700073,,,2025-01-14,清算の結了等,,,2018-04-10,1,,,,,サクラ,0
1108,4110001028100,登記記録の閉鎖等,0,2025-01-17,2025-01-14,株式会社Ｇ・Ｍ・Ｈ,,株式会社,新潟県,新潟市西区,寺地６７０番地７,,15,107,9501104,,,2025-01-14,清算の結了等,,,2015-10-05,1,,,,,ジーエムエイチ,0
1124,4120002081675,登記記録の閉鎖等,0,2025-01-17,2025-01-07,有限会社オールブルー,,有限会社,大阪府,守口市,八雲中町１丁目１３番９号,,27,209,5700005,,,2025-01-07,清算の結了等,,,2015-10-05,1,,,,,オールブルー,0
1126,4120005013865,登記記録の閉鎖等,0,2025-01-17,2025-01-08,未来都ハイタク株式会社,,株式会社,大阪府,守口市,八雲東町１丁目８番２号,,27,209,5700021,,,2025-01-08,合併による解散等,2120001159689,令和６年１２月３１日大阪府門真市殿島町１１番６号株式会社未来都（2120001159689）に合併し解散,2015-10-05,1,,,,,ミライトハイタク,0
1145,4140001083258,登記記録の閉鎖等,0,2025-01-17,2025-01-08,株式会社ＴａｎＴａｎ,,株式会社,兵庫県,川西市,久代６丁目２番２－６０３号,,28,217,6660024,,,2025-01-08,清算の結了等,,,2015-10-05,1,,,,,タンタン,0
1149,4140002036017,登記記録の閉鎖等,0,2025-01-17,2025-01-10,誠水エンタープライズ有限会社,,有限会社,兵庫県,加古川市,東神吉町升田１１８,,28,210,6750051,,,2025-01-10,清算の結了等,,,2015-10-05,1,,,,,セイスイエンタープライズ,0
1158,4180001020620,登記記録の閉鎖等,0,2025-01-17,2025-01-06,株式会社八進電機製作所,,株式会社,愛知県,名古屋市中川区,中郷３丁目４０３番地の１,,23,110,4540921,,,2025-01-06,清算の結了等,,,2015-10-05,1,,,,,ハッシンデンキセイサクショ,0
1170,4180003021377,登記記録の閉鎖等,0,2025-01-17,2025-01-06,合同会社三陸屋,,合同会社,愛知県,名古屋市昭和区,円上町１３番１９号円上アイリス４０１号,,23,107,4660054,,,2025-01-06,合併による解散等,4180001110586,令和６年１２月３１日名古屋市中区大須三丁目３４番１１号株式会社みちのく屋（4180001110586）に合併し解散,2020-07-13,1,,,,,サンリクヤ,0
1171,4180301015873,登記記録の閉鎖等,0,2025-01-17,2025-01-09,株式会社伴价モーターサービス,,株式会社,愛知県,高浜市,碧海町３丁目７番地２７,,23,227,4441324,,,2025-01-09,清算の結了等,,,2015-10-05,1,,,,,バンスケモーターサービス,0
1177,4190002002600,登記記録の閉鎖等,0,2025-01-17,2025-01-08,株式会社エフ・アイシー,,株式会社,大阪府,大阪市東住吉区,湯里１丁目１１番２３号,,27,121,5460013,,,2025-01-08,清算の結了等,,,2015-10-05,1,,,,,エフアイシー,0
1186,4210001017027,登記記録の閉鎖等,0,2025-01-17,2025-01-15,株式会社ドリームディッシュ,,株式会社,福井県,福井市,春日２丁目２番４号,,18,201,9188108,,,2025-01-15,清算の結了等,,,2018-02-15,1,,,,,ドリームディッシュ,0
1200,4290002023297,登記記録の閉鎖等,0,2025-01-17,2024-12-25,有限会社アンカー,,有限会社,福岡県,福岡市東区,千早５丁目４番３号,,40,131,8130044,,,2024-12-25,清算の結了等,,,2015-10-05,1,,,,,アンカー,0
1203,4290801003821,登記記録の閉鎖等,0,2025-01-17,2025-01-06,株式会社ヤマモト商事,,株式会社,福岡県,福岡市博多区,神屋町４番１６号,,40,132,8120022,,,2025-01-06,合併による解散等,7290001002209,令和７年１月１日福岡市博多区神屋町４番１６号株式会社フューチャーオフィス福岡（7290001002209）に合併し解散,2015-10-05,1,,,,,ヤマモトショウジ,0
1210,4320002003279,登記記録の閉鎖等,0,2025-01-17,2025-01-15,有限会社重石商事,,有限会社,大分県,大分市,賀来北１丁目９番５号,,44,201,8700848,,,2025-01-15,清算の結了等,,,2015-10-05,1,,,,,,0
1218,4370001007318,登記記録の閉鎖等,0,2025-01-17,2025-01-06,株式会社エムジェイキュー,,株式会社,宮城県,仙台市太白区,鹿野２丁目１９番２０号,,04,104,9820023,,,2025-01-06,清算の結了等,,,2015-10-05,1,,,,,エムジェイキュー,0
1228,4400003003286,登記記録の閉鎖等,0,2025-01-17,2025-01-07,創造起業テサラ合同会社,,合同会社,岩手県,釜石市,野田町２丁目１８番６号,,03,211,0260054,,,2025-01-07,清算の結了等,,,2024-06-12,1,,,,,ソウゾウキギョウテサラ,0
1244,4470001002250,登記記録の閉鎖等,0,2025-01-17,2025-01-14,株式会社スマイル,,株式会社,香川県,高松市,香南町西庄２０３５番地,,37,201,7611406,,,2025-01-14,合併による解散等,5010501004601,令和７年１月１日東京都千代田区岩本町三丁目２番４号株式会社ｆｕｎｂｏｘ（5010501004601）に合併し解散,2015-10-05,1,,,,,スマイル,0
1246,4480001005211,登記記録の閉鎖等,0,2025-01-17,2025-01-16,株式会社吉崎建設工業,00005810,株式会社,徳島県,鳴門市,大津町大幸字平塚６番地の１,,36,202,7720044,,,2025-01-16,登記官による閉鎖,,,2015-10-05,1,,,,,,0
1247,4480001008016,登記記録の閉鎖等,0,2025-01-17,2025-01-16,株式会社桝田新聞店,,株式会社,徳島県,海部郡美波町,奥河内字本村８５番地１,,36,387,7792305,,,2025-01-16,登記官による閉鎖,,,2015-10-05,1,,,,,,0
1249,4480002004303,登記記録の閉鎖等,0,2025-01-17,2025-01-16,有限会社藤江会計事務所,,有限会社,徳島県,徳島市,南仲之町３丁目９番地,,36,201,7700933,,,2025-01-16,登記官による閉鎖,,,2015-10-05,1,,,,,,0
1250,4480002005111,登記記録の閉鎖等,0,2025-01-17,2025-01-16,有限会社米沢不動産,,有限会社,徳島県,徳島市,佐古六番町７番９号,,36,201,7700026,,,2025-01-16,登記官による閉鎖,,,2015-10-05,1,,,,,,0
1251,4480002008923,登記記録の閉鎖等,0,2025-01-17,2025-01-16,有限会社井出酒販本店,,有限会社,徳島県,吉野川市,鴨島町中島２３５番地,,36,205,7760004,,,2025-01-16,登記官による閉鎖,,,2015-10-05,1,,,,,,0
1252,4480002009764,登記記録の閉鎖等,0,2025-01-17,2025-01-16,有限会社篠原建設,,有限会社,徳島県,阿波市,阿波町桜ノ岡１０８番地の２,,36,206,7711705,,,2025-01-16,登記官による閉鎖,,,2015-10-05,1,,,,,,0
1253,4480002013551,登記記録の閉鎖等,0,2025-01-17,2025-01-16,有限会社久積温水器サービス,,有限会社,徳島県,阿南市,桑野町中野１６６番地の４,,36,204,7791402,,,2025-01-16,登記官による閉鎖,,,2015-10-05,1,,,,,,0
1254,4500001003245,登記記録の閉鎖等,0,2025-01-17,2025-01-16,株式会社セディッチ,,株式会社,愛媛県,松山市,大街道１丁目６番地４,,38,201,7900004,,,2025-01-16,登記官による閉鎖,,,2015-10-05,1,,,,,,0
1255,4500001006000,登記記録の閉鎖等,0,2025-01-17,2025-01-16,株式会社エーシーイー,,株式会社,愛媛県,松山市,星岡３丁目１０番３２号,,38,201,7900922,,,2025-01-16,登記官による閉鎖,,,2015-10-05,1,,,,,,0
1256,4500001010729,登記記録の閉鎖等,0,2025-01-17,2025-01-16,株式会社レボリューション,,株式会社,愛媛県,新居浜市,東田２丁目甲１７６６番地６,,38,205,7920852,,,2025-01-16,登記官による閉鎖,,,2015-10-05,1,,,,,,0
1257,4500001011248,登記記録の閉鎖等,0,2025-01-17,2025-01-07,栄邦汽船株式会社,,株式会社,愛媛県,今治市,小浦町２丁目２番２４号,,38,202,7992111,,,2025-01-07,合併による解散等,9500001011722,令和７年１月１日愛媛県今治市小浦町一丁目４番５２号正栄汽船株式会社（9500001011722）に合併し解散,2015-10-05,1,,,,,エイホウキセン,0
1258,4500001013558,登記記録の閉鎖等,0,2025-01-17,2025-01-16,ＨＩミックス工業株式会社,,株式会社,愛媛県,松山市,森松町４６１番地１,,38,201,7911113,,,2025-01-16,登記官による閉鎖,,,2015-10-05,1,,,,,,0
1260,4500001014201,登記記録の閉鎖等,0,2025-01-17,2025-01-16,株式会社井川乾物,,株式会社,愛媛県,四国中央市,三島宮川４丁目５番６号,,38,213,7990404,,,2025-01-16,登記官による閉鎖,,,2015-10-05,1,,,,,,0
1261,4500001015728,登記記録の閉鎖等,0,2025-01-17,2025-01-16,株式会社中尾水産,,株式会社,愛媛県,南宇和郡愛南町,平碆７４番地,,38,506,7983704,,,2025-01-16,登記官による閉鎖,,,2015-10-05,1,,,,,,0
1262,4500002002460,登記記録の閉鎖等,0,2025-01-17,2025-01-16,有限会社クレアシオン,,有限会社,愛媛県,松山市,祝谷２丁目１２番１９号,,38,201,7900833,,,2025-01-16,登記官による閉鎖,,,2015-10-05,1,,,,,,0
1263,4500002018135,登記記録の閉鎖等,0,2025-01-17,2025-01-16,有限会社協立不動産,,有限会社,愛媛県,今治市,玉川町八幡甲３４番地２,,38,202,7940114,,,2025-01-16,登記官による閉鎖,,,2015-10-05,1,,,,,,0
1264,4500002021147,登記記録の閉鎖等,0,2025-01-17,2025-01-16,有限会社杉尾木工所,,有限会社,愛媛県,四国中央市,寒川町２６７４番地,,38,213,7990431,,,2025-01-16,登記官による閉鎖,,,2015-10-05,1,,,,,,0
1265,4500002022855,登記記録の閉鎖等,0,2025-01-17,2025-01-16,有限会社高鍋設備工業,,有限会社,愛媛県,宇和島市,川内甲１９４７番地１,,38,203,7980075,,,2025-01-16,登記官による閉鎖,,,2015-10-05,1,,,,,,0
1300,5010601033566,登記記録の閉鎖等,0,2025-01-17,2025-01-14,浅新産業株式会社,,株式会社,東京都,墨田区,本所４丁目２５番７号,,13,107,1300004,,,2025-01-14,清算の結了等,,,2015-10-05,1,,,,,センシンサンギョウ,0
1332,5011602004861,登記記録の閉鎖等,0,2025-01-17,2025-01-06,有限会社篠崎畜産,,有限会社,東京都,練馬区,大泉町２丁目２２番１号,,13,120,1780062,,,2025-01-06,清算の結了等,,,2015-10-05,1,,,,,シノザキチクサン,0
1351,5021001075339,登記記録の閉鎖等,0,2025-01-17,2025-01-15,株式会社ｍｏｒｅｌｉｋｅ,,株式会社,神奈川県,三浦郡葉山町,堀内５９５番地の６,,14,301,2400112,,,2025-01-15,清算の結了等,,,2022-03-04,1,,,,,モアライク,0
1357,5030002037495,登記記録の閉鎖等,0,2025-01-17,2025-01-17,株式会社軽井沢牧場,,株式会社,群馬県,藤岡市,森新田８２番地１,,10,209,3750006,,,2025-01-17,登記官による閉鎖,,,2015-10-05,1,,,,,,0
1369,5040001017729,登記記録の閉鎖等,0,2025-01-17,2025-01-08,株式会社第一中央鑑定所,,株式会社,千葉県,船橋市,本町５丁目１２番１２号,,12,204,2730005,,,2025-01-08,清算の結了等,,,2015-10-05,1,,,,,ダイイチチュウオウカンテイジョ,0
1382,5050002018246,登記記録の閉鎖等,0,2025-01-17,2025-01-08,トラベルアルファサークル有限会社,,有限会社,茨城県,猿島郡境町,大字塚崎２６０３番地,,08,546,3060405,,,2025-01-08,清算の結了等,,,2015-10-05,1,,,,,トラベルアルファサービス,0
1383,5050002029400,登記記録の閉鎖等,0,2025-01-17,2024-12-25,桂木商事有限会社,,有限会社,茨城県,鉾田市,塔ケ崎１０１７番地１,,08,234,3111522,,,2024-12-25,清算の結了等,,,2015-10-05,1,,,,,,0
1387,5060001019979,登記記録の閉鎖等,0,2025-01-17,2025-01-17,株式会社共栄,,株式会社,群馬県,伊勢崎市,中央町３０番１３号２Ｆ北,,10,204,3720042,,,2025-01-17,登記官による閉鎖,,,2015-10-05,1,,,,,,0
1391,5070001016447,登記記録の閉鎖等,0,2025-01-17,2025-01-17,蜂須興業株式会社,,株式会社,群馬県,みどり市,東町荻原２２５番地の８,,10,212,3760306,,,2025-01-17,登記官による閉鎖,,,2015-10-05,1,,,,,,0
1392,5070001019383,登記記録の閉鎖等,0,2025-01-17,2025-01-17,サンワ建設株式会社,,株式会社,群馬県,太田市,大原町２９８番地３,,10,205,3792304,,,2025-01-17,登記官による閉鎖,,,2015-10-05,1,,,,,,0
1393,5070001022750,登記記録の閉鎖等,0,2025-01-17,2025-01-17,株式会社マルタカ,,株式会社,群馬県,太田市,新田市野井町２６０９番地,,10,205,3700314,,,2025-01-17,登記官による閉鎖,,,2015-10-05,1,,,,,,0
1394,5070001024565,登記記録の閉鎖等,0,2025-01-17,2025-01-17,株式会社エーアールアイ,,株式会社,群馬県,前橋市,富士見町赤城山１７８８番地６０,,10,201,3710101,,,2025-01-17,登記官による閉鎖,,,2015-10-05,1,,,,,,0
1395,5070001025365,登記記録の閉鎖等,0,2025-01-17,2025-01-17,株式会社Ｎ．Ｉ．Ｃ,,株式会社,群馬県,太田市,南矢島町４４８番地１,,10,205,3730861,,,2025-01-17,登記官による閉鎖,,,2015-10-05,1,,,,,,0
1396,5070001028178,登記記録の閉鎖等,0,2025-01-17,2025-01-17,株式会社ワイズグループ,,株式会社,群馬県,前橋市,天川大島町４３番地ＣＡＳＡセフィーロ１Ｄ,,10,201,3792154,,,2025-01-17,登記官による閉鎖,,,2015-10-05,1,,,,,,0
1398,5070002004351,登記記録の閉鎖等,0,2025-01-17,2025-01-17,有限会社早部製作所,,有限会社,群馬県,前橋市,西片貝町２丁目２３０番地,,10,201,3710013,,,2025-01-17,登記官による閉鎖,,,2015-10-05,1,,,,,,0
1399,5070002005374,登記記録の閉鎖等,0,2025-01-17,2025-01-17,有限会社明斗電機,,有限会社,群馬県,前橋市,宮地町１９０番地,,10,201,3710814,,,2025-01-17,登記官による閉鎖,,,2015-10-05,1,,,,,,0
1400,5070002013336,登記記録の閉鎖等,0,2025-01-17,2025-01-17,有限会社ライズ,,有限会社,群馬県,高崎市,下小鳥町９２番地１ヴィレッジムロオカ１０３号,,10,202,3700074,,,2025-01-17,登記官による閉鎖,,,2015-10-05,1,,,,,,0
1401,5070002023137,登記記録の閉鎖等,0,2025-01-17,2025-01-17,カワシマニット有限会社,,有限会社,群馬県,桐生市,広沢町６丁目９４９番地,,10,203,3760013,,,2025-01-17,登記官による閉鎖,,,2015-10-05,1,,,,,,0
1402,5070002030736,登記記録の閉鎖等,0,2025-01-17,2025-01-17,有限会社深田樹脂,,有限会社,群馬県,太田市,藤阿久町６０４番地,,10,205,3730034,,,2025-01-17,登記官による閉鎖,,,2015-10-05,1,,,,,,0
1403,5070002033292,登記記録の閉鎖等,0,2025-01-17,2025-01-17,有限会社一建設,,有限会社,群馬県,館林市,大谷町１０５９番地,,10,207,3740054,,,2025-01-17,登記官による閉鎖,,,2015-10-05,1,,,,,,0
1404,5070002034951,登記記録の閉鎖等,0,2025-01-17,2025-01-17,有限会社大輪オート,,有限会社,群馬県,沼田市,硯田町５７４番地１,,10,206,3780032,,,2025-01-17,登記官による閉鎖,,,2015-10-05,1,,,,,,0
1405,5070005002658,登記記録の閉鎖等,0,2025-01-17,2025-01-17,群馬県在宅福祉サービス協同組合,,その他の設立登記法人,群馬県,高崎市,緑町２丁目７番地７,,10,202,3700073,,,2025-01-17,登記官による閉鎖,,,2015-10-05,1,,,,,,0
1406,5070005006493,登記記録の閉鎖等,0,2025-01-17,2025-01-17,特定非営利活動法人再チャレンジワーク群馬,,その他の設立登記法人,群馬県,太田市,岩瀬川町４３８番地５ハイツルミエールＡ－１０７号,,10,205,3730841,,,2025-01-17,登記官による閉鎖,,,2015-10-05,1,,,,,,0
1413,5080401004174,登記記録の閉鎖等,0,2025-01-17,2025-01-10,浜松宝石株式会社,,株式会社,静岡県,浜松市中央区,板屋町２シティタワー浜松１１０３,,22,138,4300928,,,2025-01-10,清算の結了等,,,2015-10-05,1,,,,,ハママツホウセキ,0
1414,5080401013679,登記記録の閉鎖等,0,2025-01-17,2025-01-16,株式会社五常建設,,株式会社,静岡県,浜松市中央区,富塚町２１５６番地の４７,,22,138,4328002,,,2025-01-16,清算の結了等,,,2015-10-05,1,,,,,,0
1420,5090001002197,登記記録の閉鎖等,0,2025-01-17,2025-01-10,株式会社山梨光学,,株式会社,山梨県,甲府市,住吉３丁目１８番８号,,19,201,4000851,,,2025-01-10,清算の結了等,,,2015-10-05,1,,,,,ヤマナシコウガク,0
1464,5130001028163,登記記録の閉鎖等,0,2025-01-17,2025-01-14,株式会社角川保険事務所,00036040,株式会社,京都府,京都市山科区,小野高芝町４８番地１,,26,110,6078254,,,2025-01-14,清算の結了等,,,2015-10-05,1,,,,,スミカワホケンジムショ,0
1475,5140001067425,登記記録の閉鎖等,0,2025-01-17,2025-01-14,株式会社ｃａｃｔｕｓ,,株式会社,兵庫県,神戸市灘区,中郷町１丁目２番３０号六甲パークヒル６０４号,,28,102,6570032,,,2025-01-14,清算の結了等,,,2015-10-05,1,,,,,カクタス,0
1476,5140001104970,登記記録の閉鎖等,0,2025-01-17,2025-01-09,株式会社ヨネテックシステム,,株式会社,兵庫県,三田市,相生町２４番２８号,,28,219,6691526,,,2025-01-09,清算の結了等,,,2017-02-06,1,,,,,ヨネテックシステム,0
1480,5150003002503,登記記録の閉鎖等,0,2025-01-17,2025-01-14,合同会社ｎｉｎｉｇｉ,,合同会社,奈良県,香芝市,下田東４丁目３－３７,,29,210,6390232,,,2025-01-14,清算の結了等,,,2021-10-04,1,,,,,ニニギ,0
1481,5160001019044,登記記録の閉鎖等,0,2025-01-17,2025-01-14,Ｐｒｅｓｅｎｔ　Ｆｏｒ株式会社,,株式会社,京都府,京都市中京区,山伏山町５５８三洋室町ビル６０５,,26,104,6048156,,,2025-01-14,清算の結了等,,,2015-10-14,1,,,,,プレゼントフォー,0
1501,5180302001252,登記記録の閉鎖等,0,2025-01-17,2024-12-27,こやま石材有限会社,,有限会社,愛知県,岡崎市,上佐々木町字中切４８番地,,23,202,4440936,,,2024-12-27,清算の結了等,,,2015-10-05,1,,,,,コヤマセキザイ,0
1504,5190002021269,登記記録の閉鎖等,0,2025-01-17,2025-01-10,有限会社豊明,,有限会社,三重県,四日市市,日永３丁目２番１４号,,24,202,5100885,,,2025-01-10,清算の結了等,,,2015-10-05,1,,,,,ホウメイ,0
1544,5330002007939,登記記録の閉鎖等,0,2025-01-17,2025-01-06,有限会社慈音,,有限会社,熊本県,熊本市東区,新生２丁目１番１５号,,43,102,8620908,,,2025-01-06,清算の結了等,,,2015-10-05,1,,,,,ジオン,0
1548,5360001033925,登記記録の閉鎖等,0,2025-01-17,2025-01-06,株式会社石川保安商会,,株式会社,沖縄県,うるま市,石川赤崎１丁目２番２５号,,47,213,9041103,,,2025-01-06,合併による解散等,7360001033824,令和７年１月１日沖縄県うるま市石川赤崎一丁目２番２５号株式会社Ｊ‐ＦＵＮ１３（7360001033824）に合併し解散,2024-07-17,1,,,,,イシカワホアンショウカイ,0
1559,5400002011438,登記記録の閉鎖等,0,2025-01-17,2025-01-06,株式会社リードアイ,,株式会社,岩手県,釜石市,新町８番２１号,,03,211,0260043,,,2025-01-06,清算の結了等,,,2015-10-05,1,,,,,リードアイ,0
1561,5410002010777,登記記録の閉鎖等,0,2025-01-17,2025-01-10,有限会社嶋忠,,有限会社,秋田県,山本郡三種町,森岳字木戸沢９１番地１,,05,348,0182303,,,2025-01-10,清算の結了等,,,2015-10-05,1,,,,,,0
1580,5480001002570,登記記録の閉鎖等,0,2025-01-17,2025-01-16,大洋電工株式会社,,株式会社,徳島県,名西郡石井町,高原字関１番地６,,36,341,7793202,,,2025-01-16,登記官による閉鎖,,,2015-10-05,1,,,,,,0
1581,5480001007512,登記記録の閉鎖等,0,2025-01-17,2025-01-16,サンライズ商事株式会社,,株式会社,徳島県,三好市,池田町マチ２１８３番地,,36,208,7780002,,,2025-01-16,登記官による閉鎖,,,2015-10-05,1,,,,,,0
1582,5480001008089,登記記録の閉鎖等,0,2025-01-17,2025-01-16,株式会社アイエーネット,,株式会社,徳島県,徳島市,応神町吉成字前須２３番地１,,36,201,7711153,,,2025-01-16,登記官による閉鎖,,,2015-10-05,1,,,,,,0
1583,5480002001761,登記記録の閉鎖等,0,2025-01-17,2025-01-16,有限会社コンタクト研究所,,有限会社,徳島県,徳島市,中通町２丁目３２番地,,36,201,7700844,,,2025-01-16,登記官による閉鎖,,,2015-10-05,1,,,,,,0
1584,5480002004145,登記記録の閉鎖等,0,2025-01-17,2025-01-16,有限会社ナグラ・フードサービス・エージエンシー,,有限会社,徳島県,徳島市,北矢三町２丁目９番６４号,,36,201,7700006,,,2025-01-16,登記官による閉鎖,,,2015-10-05,1,,,,,,0
1585,5480002009838,登記記録の閉鎖等,0,2025-01-17,2025-01-16,山善建設有限会社,,有限会社,徳島県,阿波市,阿波町医王寺３２８番地の１６,,36,206,7711705,,,2025-01-16,登記官による閉鎖,,,2015-10-05,1,,,,,,0
1586,5480002016033,登記記録の閉鎖等,0,2025-01-17,2025-01-16,有限会社大西農園,,有限会社,徳島県,三好市,三野町太刀野山１８３１番地,,36,208,7712306,,,2025-01-16,登記官による閉鎖,,,2015-10-05,1,,,,,,0
1587,5480005002055,登記記録の閉鎖等,0,2025-01-17,2025-01-16,社団法人徳島縣獵友会,00008996,その他の設立登記法人,徳島県,徳島市,南仲町四丁目１５番地ノ２,,36,201,7700000,,,2025-01-16,登記官による閉鎖,,,2015-10-05,1,,,,,,0
1588,5480005003292,登記記録の閉鎖等,0,2025-01-17,2025-01-16,特定非営利活動法人動物福祉活動,,その他の設立登記法人,徳島県,徳島市,金沢２丁目１－１２７－２９,,36,201,7700871,,,2025-01-16,登記官による閉鎖,,,2015-10-05,1,,,,,,0
1590,5500001010348,登記記録の閉鎖等,0,2025-01-17,2025-01-16,明成建設株式会社,,株式会社,愛媛県,新居浜市,土橋１丁目１番２６号,,38,205,7920043,,,2025-01-16,登記官による閉鎖,,,2015-10-05,1,,,,,,0
1591,5500001015875,登記記録の閉鎖等,0,2025-01-17,2025-01-16,株式会社興森,,株式会社,愛媛県,宇和島市,和霊元町２丁目４番２７号,,38,203,7980015,,,2025-01-16,登記官による閉鎖,,,2015-10-05,1,,,,,,0
1592,5500001024868,登記記録の閉鎖等,0,2025-01-17,2025-01-16,株式会社ティ・アイ・ケイ,,株式会社,愛媛県,四国中央市,川之江町長須２９３番地の１,,38,213,7990102,,,2025-01-16,登記官による閉鎖,,,2023-04-13,1,,,,,ティアイケイ,0
1593,5500002000934,登記記録の閉鎖等,0,2025-01-17,2025-01-16,有限会社伊須建設,,有限会社,愛媛県,松山市,南高井町１４０９番地６,,38,201,7911112,,,2025-01-16,登記官による閉鎖,,,2015-10-05,1,,,,,,0
1594,5500002001478,登記記録の閉鎖等,0,2025-01-17,2025-01-16,有限会社エコートラベル,,有限会社,愛媛県,松山市,北久米町５３８番地の２,,38,201,7900923,,,2025-01-16,登記官による閉鎖,,,2015-10-05,1,,,,,,0
1595,5500002001734,登記記録の閉鎖等,0,2025-01-17,2025-01-16,有限会社大政ガス,,有限会社,愛媛県,松山市,恵原町甲９２８番地の１１,,38,201,7911134,,,2025-01-16,登記官による閉鎖,,,2015-10-05,1,,,,,,0
1596,5500002008201,登記記録の閉鎖等,0,2025-01-17,2025-01-16,有限会社大王商会,,有限会社,愛媛県,伊予郡砥部町,八倉５９番地３,,38,402,7912111,,,2025-01-16,登記官による閉鎖,,,2015-10-05,1,,,,,,0
1597,5500002017912,登記記録の閉鎖等,0,2025-01-17,2025-01-16,有限会社大亀食料品店,,有限会社,愛媛県,今治市,常盤町１丁目５番地３,,38,202,7940015,,,2025-01-16,登記官による閉鎖,,,2015-10-05,1,,,,,,0
1598,5500002022499,登記記録の閉鎖等,0,2025-01-17,2025-01-16,有限会社宇和海タクシー,,有限会社,愛媛県,宇和島市,下波１２６１番地の４,,38,203,7980104,,,2025-01-16,登記官による閉鎖,,,2015-10-05,1,,,,,,0
1599,5500002024248,登記記録の閉鎖等,0,2025-01-17,2025-01-16,有限会社であい,,有限会社,愛媛県,宇和島市,吉田町白浦２０６番地,,38,203,7993741,,,2025-01-16,登記官による閉鎖,,,2015-10-05,1,,,,,,0
1600,5500005001343,登記記録の閉鎖等,0,2025-01-17,2025-01-16,社団法人愛媛教育厚生協会,00009085,その他の設立登記法人,愛媛県,松山市,西堀端町１４番地,,38,201,7910000,,,2025-01-16,登記官による閉鎖,,,2015-10-05,1,,,,,,1
1601,5500005008594,登記記録の閉鎖等,0,2025-01-17,2025-01-16,天満農事實行組合,,その他の設立登記法人,愛媛県,大洲市,田口,,38,207,7950063,,,2025-01-16,登記官による閉鎖,,,2023-04-05,1,,,,,テンマノウギョウジッコウクミアイ,0
1608,6010001186014,登記記録の閉鎖等,0,2025-01-17,2025-01-10,Ｊｅｄａｘ　Ｊａｐａｎ株式会社,,株式会社,栃木県,那須塩原市,清住町９４番２９号,,09,213,3250067,,,2025-01-10,清算の結了等,,,2017-09-04,1,,,,,ジェダックスジャパン,0
1627,6010603007716,登記記録の閉鎖等,0,2025-01-17,2025-01-08,レオ合同会社,,合同会社,東京都,江東区,北砂２丁目８番５号ルナパレス２０２,,13,108,1360073,,,2025-01-08,合併による解散等,3010603007826,令和７年１月１日東京都江東区北砂二丁目８番５号ルナパレス２０２ライア合同会社（3010603007826）に合併し解散,2019-03-13,1,,,,,レオ,0
1655,6011302004789,登記記録の閉鎖等,0,2025-01-17,2025-01-14,有限会社純企画,,有限会社,東京都,杉並区,高円寺北２丁目１２番６号,,13,115,1660002,,,2025-01-14,清算の結了等,,,2015-10-05,1,,,,,,0
1674,6012702013974,登記記録の閉鎖等,0,2025-01-17,2025-01-06,有限会社イーエム・コミュニケーションズ,,有限会社,東京都,東村山市,萩山町３丁目１２番地５６,,13,213,1890012,,,2025-01-06,清算の結了等,,,2015-10-05,1,,,,,,0
1712,6040002025655,登記記録の閉鎖等,0,2025-01-17,2025-01-08,有限会社みどり総業,,有限会社,千葉県,船橋市,松が丘１丁目１２番１６号,,12,204,2740064,,,2025-01-08,清算の結了等,,,2015-10-05,1,,,,,ミソリソウギョウ,0
1716,6060002027939,登記記録の閉鎖等,0,2025-01-17,2025-01-10,有限会社江田新聞店,,有限会社,栃木県,小山市,城山町２丁目２番２号,,09,208,3230025,,,2025-01-10,清算の結了等,,,2015-10-05,1,,,,,エダシンブンテン,0
1717,6070001001695,登記記録の閉鎖等,0,2025-01-17,2025-01-17,株式会社昭和建設,,株式会社,群馬県,前橋市,南町２丁目４３番地の２,,10,201,3710805,,,2025-01-17,登記官による閉鎖,,,2015-10-05,1,,,,,,0
1718,6070001001935,登記記録の閉鎖等,0,2025-01-17,2025-01-17,大藤工業株式会社,,株式会社,群馬県,前橋市,下小出町１丁目２６番地１,,10,201,3710031,,,2025-01-17,登記官による閉鎖,,,2015-10-05,1,,,,,,0
1719,6070001006513,登記記録の閉鎖等,0,2025-01-17,2025-01-17,株式会社カサハラ,,株式会社,群馬県,高崎市,剣崎町９９９番地５,,10,202,3700883,,,2025-01-17,登記官による閉鎖,,,2015-10-05,1,,,,,,0
1720,6070001006678,登記記録の閉鎖等,0,2025-01-17,2025-01-17,群馬損保ビジネス株式会社,,株式会社,群馬県,高崎市,栄町５番１５号,,10,202,3700841,,,2025-01-17,登記官による閉鎖,,,2015-10-05,1,,,,,,0
1721,6070001006959,登記記録の閉鎖等,0,2025-01-17,2025-01-17,株式会社サークル,,株式会社,群馬県,高崎市,問屋町西１丁目８番地１,,10,202,3700007,,,2025-01-17,登記官による閉鎖,,,2015-10-05,1,,,,,,0
1723,6070001010531,登記記録の閉鎖等,0,2025-01-17,2025-01-17,株式会社キョプル,,株式会社,群馬県,高崎市,八島町５８番地１高崎アーバンホテル１００１号,,10,202,3700849,,,2025-01-17,登記官による閉鎖,,,2015-10-05,1,,,,,,0
1724,6070001010762,登記記録の閉鎖等,0,2025-01-17,2025-01-17,株式会社テレサービス,,株式会社,群馬県,高崎市,寺尾町２６５０番地４,,10,202,3700865,,,2025-01-17,登記官による閉鎖,,,2015-10-05,1,,,,,,0
1728,6070002004219,登記記録の閉鎖等,0,2025-01-17,2025-01-17,芳賀興業有限会社,,有限会社,群馬県,前橋市,小坂子町６３７番地,,10,201,3710122,,,2025-01-17,登記官による閉鎖,,,2015-10-05,1,,,,,,0
1731,6070002008888,登記記録の閉鎖等,0,2025-01-17,2025-01-17,有限会社臼田工業,,有限会社,群馬県,高崎市,吉井町塩１６６番地６,,10,202,3702124,,,2025-01-17,登記官による閉鎖,,,2015-10-05,1,,,,,,0
1732,6070002009473,登記記録の閉鎖等,0,2025-01-17,2025-01-17,有限会社キタムラ,,有限会社,群馬県,高崎市,問屋町１丁目２番地の１０,,10,202,3700006,,,2025-01-17,登記官による閉鎖,,,2015-10-05,1,,,,,,0
1733,6070002010737,登記記録の閉鎖等,0,2025-01-17,2025-01-17,有限会社大都開発,,有限会社,群馬県,高崎市,飯塚町３３１番地１４,,10,202,3700069,,,2025-01-17,登記官による閉鎖,,,2015-10-05,1,,,,,,0
1734,6070002017220,登記記録の閉鎖等,0,2025-01-17,2025-01-17,有限会社井野合成,,有限会社,群馬県,藤岡市,森新田２８６番地１,,10,209,3750006,,,2025-01-17,登記官による閉鎖,,,2015-10-05,1,,,,,,0
1735,6070002019381,登記記録の閉鎖等,0,2025-01-17,2025-01-17,有限会社デンキのクリハラ,,有限会社,群馬県,伊勢崎市,山王町７１４番地,,10,204,3720831,,,2025-01-17,登記官による閉鎖,,,2015-10-05,1,,,,,,0
1736,6070002019729,登記記録の閉鎖等,0,2025-01-17,2025-01-17,有限会社北星工業,,有限会社,群馬県,伊勢崎市,連取町１３９２番地５,,10,204,3720812,,,2025-01-17,登記官による閉鎖,,,2015-10-05,1,,,,,,0
1737,6070002022583,登記記録の閉鎖等,0,2025-01-17,2025-01-17,有限会社アラキ,,有限会社,群馬県,みどり市,大間々町高津戸７７２番地６,,10,212,3760113,,,2025-01-17,登記官による閉鎖,,,2015-10-05,1,,,,,,0
1738,6070002023689,登記記録の閉鎖等,0,2025-01-17,2025-01-17,有限会社霜善織物工場,,有限会社,群馬県,桐生市,東５丁目６番１８号,,10,203,3760034,,,2025-01-17,登記官による閉鎖,,,2015-10-05,1,,,,,,0
1740,6070002026849,登記記録の閉鎖等,0,2025-01-17,2025-01-17,有限会社ホームケアサービス・トシコー,,有限会社,群馬県,渋川市,川島１６６８番地,,10,208,3770025,,,2025-01-17,登記官による閉鎖,,,2015-10-05,1,,,,,,0
1741,6070002027847,登記記録の閉鎖等,0,2025-01-17,2025-01-17,有限会社秋本材木店,,有限会社,群馬県,太田市,植木野町７３５番地の３,,10,205,3730014,,,2025-01-17,登記官による閉鎖,,,2015-10-05,1,,,,,,0
1742,6070002030314,登記記録の閉鎖等,0,2025-01-17,2025-01-17,仲野商事有限会社,,有限会社,群馬県,太田市,東別所町３７０番地の２５,,10,205,3730815,,,2025-01-17,登記官による閉鎖,,,2015-10-05,1,,,,,,0
1743,6070002035643,登記記録の閉鎖等,0,2025-01-17,2025-01-17,有限会社もちや旅館,,有限会社,群馬県,利根郡みなかみ町,湯桧曽１２番地,,10,449,3791728,,,2025-01-17,登記官による閉鎖,,,2015-10-05,1,,,,,,0
1745,6070005002640,登記記録の閉鎖等,0,2025-01-17,2025-01-17,群馬ビル経営事業協同組合,,その他の設立登記法人,群馬県,高崎市,飯塚町３２番地１,,10,202,3700069,,,2025-01-17,登記官による閉鎖,,,2015-10-05,1,,,,,,0
1746,6070005002715,登記記録の閉鎖等,0,2025-01-17,2025-01-17,特定非営利活動法人たかさき女性墾話会,,その他の設立登記法人,群馬県,高崎市,成田町１番地,,10,202,3700812,,,2025-01-17,登記官による閉鎖,,,2015-10-05,1,,,,,,0
1747,6070005004711,登記記録の閉鎖等,0,2025-01-17,2025-01-17,特定非営利活動法人文化交流ネットワーク群馬,,その他の設立登記法人,群馬県,伊勢崎市,上諏訪町２１１１番地６号,,10,204,3720021,,,2025-01-17,登記官による閉鎖,,,2015-10-05,1,,,,,,0
1748,6070005008010,登記記録の閉鎖等,0,2025-01-17,2025-01-17,特定非営利活動法人優尽会,,その他の設立登記法人,群馬県,前橋市,箱田町１６５２番地,,10,201,3710837,,,2025-01-17,登記官による閉鎖,,,2015-10-05,1,,,,,,0
1760,6110003005525,登記記録の閉鎖等,0,2025-01-17,2025-01-14,ＴＭＣ　ＡＩ合同会社,,合同会社,新潟県,新潟市中央区,南笹口１丁目１番３８号コープオリンピア８０８,,15,103,9500912,,,2025-01-14,清算の結了等,,,2024-09-26,1,,,,,ティーエムシーエーアイ,0
1788,6120005022435,登記記録の閉鎖等,0,2025-01-17,2024-12-26,特定非営利活動法人座談会,,その他の設立登記法人,大阪府,大阪市中央区,北久宝寺町１丁目２－１オーセンティック東船場５０３号室,,27,128,5410057,,,2024-12-26,清算の結了等,,,2021-08-13,1,,,,,ザダンカイ,0
1799,6130005005356,登記記録の閉鎖等,0,2025-01-17,2025-01-15,特定非営利活動法人京都若杉会,,その他の設立登記法人,京都府,京都市北区,紫野中柏野町３９番地,,26,101,6038312,,,2025-01-15,清算の結了等,,,2015-10-05,1,,,,,キョウトワカスギカイ,0
1804,6140001072440,登記記録の閉鎖等,0,2025-01-17,2025-01-10,Ｌｃｃ株式会社,,株式会社,兵庫県,西宮市,羽衣町４番２３号パークハイム２０８号,,28,204,6620051,,,2025-01-10,清算の結了等,,,2015-10-05,1,,,,,エルシーシー,0
1809,6140003011479,登記記録の閉鎖等,0,2025-01-17,2025-01-14,日本ハイジ株式会社,,株式会社,兵庫県,神戸市中央区,中町通３丁目１－１６サンビル５０２,,28,110,6500027,,,2025-01-14,清算の結了等,,,2016-06-30,1,,,,,ニホンハイジ,0
1823,6180301000270,登記記録の閉鎖等,0,2025-01-17,2025-01-14,株式会社一心工業会,,株式会社,愛知県,岡崎市,細川町字徳林７０番地６,,23,202,4442149,,,2025-01-14,清算の結了等,,,2015-10-05,1,,,,,イッシンコウギョウカイ,0
1824,6180301017769,登記記録の閉鎖等,0,2025-01-17,2025-01-16,株式会社アイサン,,株式会社,愛知県,豊田市,白山町二ツ坂２２番地２,,23,211,4710056,,,2025-01-16,清算の結了等,,,2015-10-05,1,,,,,アイサン,0
1831,6200002007488,登記記録の閉鎖等,0,2025-01-17,2025-01-09,有限会社伸幸工業,,有限会社,岐阜県,各務原市,各務西町６丁目２５１番地,,21,213,5090106,,,2025-01-09,清算の結了等,,,2015-10-05,1,,,,,シンコウコウギョウ,0
1846,6290002012455,登記記録の閉鎖等,0,2025-01-17,2024-12-23,有限会社八幡不動産,,有限会社,福岡県,福岡市中央区,輝国２丁目２４番３３号,,40,133,8100032,,,2024-12-23,清算の結了等,,,2015-10-05,1,,,,,ヤハタフドウサン,0
1850,6290003001052,登記記録の閉鎖等,0,2025-01-17,2025-01-06,合名会社みのりカンパニー,,合名会社,福岡県,福岡市南区,市崎１丁目１５番１号,,40,134,8150084,,,2025-01-06,合併による解散等,8290001012818,令和７年１月１日福岡市中央区大名二丁目４番２２号株式会社クイック福岡（8290001012818）に合併し解散,2015-10-05,1,,,,,ミノリカンパニー,0
1867,6380001018601,登記記録の閉鎖等,0,2025-01-17,2025-01-06,大岩建設工業株式会社,,株式会社,福島県,喜多方市,岩月町橿野字中堀１７３９番地の１２,,07,208,9660003,,,2025-01-06,清算の結了等,,,2015-10-05,1,,,,,オオイワケンセツコウギョウ,0
1870,6380003004599,登記記録の閉鎖等,0,2025-01-17,2025-01-06,合同会社ＯＶＥＲＭＡＮ,,合同会社,福島県,郡山市,安積荒井３丁目４９７カーサカルテットＣ号室,,07,203,9630117,,,2025-01-06,清算の結了等,,,2020-02-05,1,,,,,,0
1878,6430002037421,登記記録の閉鎖等,0,2025-01-17,2025-01-14,有限会社小畑ダクト工業,,有限会社,北海道,札幌市東区,丘珠町６４２番地,,01,103,0070880,,,2025-01-14,清算の結了等,,,2015-10-05,1,,,,,オバタダクトコウギョウ,0
1885,6450002010491,登記記録の閉鎖等,0,2025-01-17,2025-01-14,有限会社美好屋,,有限会社,北海道,士別市,大通西７丁目７１１番地の２４,,01,220,0950029,,,2025-01-14,清算の結了等,,,2015-10-05,1,,,,,ミヨシヤ,0
1886,6460102004070,登記記録の閉鎖等,0,2025-01-17,2025-01-10,有限会社リサイクルカミシマ,,有限会社,北海道,帯広市,西十二条北１丁目５番地１,,01,207,0800042,,,2025-01-10,清算の結了等,,,2015-10-05,1,,,,,リサイクルカミシマ,0
1889,6480001003295,登記記録の閉鎖等,0,2025-01-17,2025-01-16,アワノーサン株式会社,,株式会社,徳島県,徳島市,佐古六番町１２番８号,,36,201,7700026,,,2025-01-16,登記官による閉鎖,,,2015-10-05,1,,,,,,0
1890,6480001008625,登記記録の閉鎖等,0,2025-01-17,2025-01-16,株式会社賃貸住宅建物管理,,株式会社,徳島県,板野郡北島町,鯛浜字西ノ須６４番地１１,,36,402,7710204,,,2025-01-16,登記官による閉鎖,,,2015-10-05,1,,,,,,0
1891,6480002000432,登記記録の閉鎖等,0,2025-01-17,2025-01-16,有限会社荒川ベニヤ板製造所,,有限会社,徳島県,徳島市,北佐古二番町３番１８号,,36,201,7700012,,,2025-01-16,登記官による閉鎖,,,2015-10-05,1,,,,,,0
1892,6480002000647,登記記録の閉鎖等,0,2025-01-17,2025-01-16,有限会社一番町電化,,有限会社,徳島県,徳島市,国府町井戸字高輪地４１番地の４,,36,201,7793118,,,2025-01-16,登記官による閉鎖,,,2015-10-05,1,,,,,,0
1893,6480002003583,登記記録の閉鎖等,0,2025-01-17,2025-01-16,有限会社ハンクアーロン,,有限会社,徳島県,徳島市,北田宮３丁目２番８号,,36,201,7700003,,,2025-01-16,登記官による閉鎖,,,2015-10-05,1,,,,,,0
1894,6480002007865,登記記録の閉鎖等,0,2025-01-17,2025-01-16,有限会社高橋布帛工業,,有限会社,徳島県,小松島市,大林町字森ノ本２３番地１０,,36,203,7730022,,,2025-01-16,登記官による閉鎖,,,2015-10-05,1,,,,,,0
1896,6480002008970,登記記録の閉鎖等,0,2025-01-17,2025-01-16,有限会社江本事務所,,有限会社,徳島県,吉野川市,鴨島町鴨島３６６番地,,36,205,7760010,,,2025-01-16,登記官による閉鎖,,,2015-10-05,1,,,,,,0
1897,6480002010084,登記記録の閉鎖等,0,2025-01-17,2025-01-16,有限会社阿波建商,,有限会社,徳島県,吉野川市,鴨島町飯尾４０７番地,,36,205,7760033,,,2025-01-16,登記官による閉鎖,,,2015-10-05,1,,,,,,0
1900,6480002015587,登記記録の閉鎖等,0,2025-01-17,2025-01-16,有限会社ショーコープロパン,,有限会社,徳島県,三好市,池田町イケミナミ１９４２番地,,36,208,7780012,,,2025-01-16,登記官による閉鎖,,,2015-10-05,1,,,,,,0
1901,6480005005841,登記記録の閉鎖等,0,2025-01-17,2025-01-16,特定非営利活動法人四国Ｃ　ＩＮ　Ｃ,,その他の設立登記法人,徳島県,三好市,池田町シンマチ１４６６番地,,36,208,7780004,,,2025-01-16,登記官による閉鎖,,,2015-10-05,1,,,,,,0
1902,6500001004357,登記記録の閉鎖等,0,2025-01-17,2025-01-16,株式会社和光コンストラクション,,株式会社,愛媛県,松山市,東石井６丁目１４番２０号,,38,201,7900932,,,2025-01-16,登記官による閉鎖,,,2015-10-05,1,,,,,,0
1903,6500001007871,登記記録の閉鎖等,0,2025-01-17,2025-01-16,株式会社松本材木店,,株式会社,愛媛県,大洲市,長浜甲５８２番地の１,,38,207,7993401,,,2025-01-16,登記官による閉鎖,,,2015-10-05,1,,,,,,0
1905,6500001013985,登記記録の閉鎖等,0,2025-01-17,2025-01-16,株式会社ＲＯＵＴＥ３４,,株式会社,愛媛県,松山市,枝松６丁目１０番６号,,38,201,7900962,,,2025-01-16,登記官による閉鎖,,,2015-10-05,1,,,,,,0
1906,6500001014901,登記記録の閉鎖等,0,2025-01-17,2025-01-16,土居電子株式会社,,株式会社,愛媛県,四国中央市,土居町土居２２８７番地１,,38,213,7990711,,,2025-01-16,登記官による閉鎖,,,2015-10-05,1,,,,,,0
1907,6500001015131,登記記録の閉鎖等,0,2025-01-17,2025-01-16,ワールド・ボックス株式会社,,株式会社,愛媛県,四国中央市,寒川町８５０番１,,38,213,7990431,,,2025-01-16,登記官による閉鎖,,,2015-10-05,1,,,,,,0
1908,6500001016732,登記記録の閉鎖等,0,2025-01-17,2025-01-16,株式会社松山美装,,株式会社,愛媛県,松山市,居相４丁目８番２６号,,38,201,7900934,,,2025-01-16,登記官による閉鎖,,,2015-10-05,1,,,,,,0
1909,6500002000149,登記記録の閉鎖等,0,2025-01-17,2025-01-16,有限会社芥子堂,,有限会社,愛媛県,松山市,味酒町１丁目２番地３,,38,201,7900814,,,2025-01-16,登記官による閉鎖,,,2015-10-05,1,,,,,,0
1910,6500002015048,登記記録の閉鎖等,0,2025-01-17,2025-01-16,有限会社武田祥文堂,,有限会社,愛媛県,西条市,三芳１６６番地２,,38,206,7991301,,,2025-01-16,登記官による閉鎖,,,2015-10-05,1,,,,,,0
1918,7010001134657,登記記録の閉鎖等,0,2025-01-17,2025-01-10,ＳＡＭＵＲＡＩ　ＴＥＣＨＮＯＬＯＧＹ株式会社,,株式会社,東京都,中央区,東日本橋３丁目７番１９号,,13,102,1030004,,,2025-01-10,合併による解散等,8200001006381,令和７年１月１日岐阜市鏡島精華一丁目３番１７号株式会社ソフテル（8200001006381）に合併し解散,2015-10-05,1,,,,,サムライテクノロジー,0
1951,7010802005404,登記記録の閉鎖等,0,2025-01-17,2025-01-07,有限会社小島製作所,,有限会社,東京都,大田区,仲池上２丁目１８番１０号,,13,111,1460081,,,2025-01-07,清算の結了等,,,2015-10-05,1,,,,,コジマセイサクジョ,0
1952,7010901043560,登記記録の閉鎖等,0,2025-01-17,2025-01-07,株式会社ＡＮＯＴＨＥＲ,,株式会社,東京都,世田谷区,松原１丁目１２番８号,,13,112,1560043,,,2025-01-07,清算の結了等,,,2019-01-28,1,,,,,アナザー,0
1970,7011102015110,登記記録の閉鎖等,0,2025-01-17,2025-01-06,有限会社ケーニッヒ,,有限会社,東京都,新宿区,西落合４丁目２３番２号,,13,104,1610031,,,2025-01-06,清算の結了等,,,2015-10-05,1,,,,,ケーニッヒ,0
1971,7011103013930,登記記録の閉鎖等,0,2025-01-17,2025-01-06,合同会社しろくまメディカル,,合同会社,東京都,新宿区,若松町２５番１７－７０４号,,13,104,1620056,,,2025-01-06,清算の結了等,,,2024-01-10,1,,,,,シロクマメデイカル,0
1972,7011301024481,登記記録の閉鎖等,0,2025-01-17,2025-01-10,ビヨンド株式会社,,株式会社,東京都,杉並区,阿佐谷南１丁目３６番１６号,,13,115,1660004,,,2025-01-10,清算の結了等,,,2018-09-25,1,,,,,ビヨンド,0
2007,7030001041075,登記記録の閉鎖等,0,2025-01-17,2025-01-09,株式会社ＡＩＭＯ,,株式会社,埼玉県,三郷市,後谷８６番地,,11,237,3410014,,,2025-01-09,清算の結了等,,,2015-10-05,1,,,,,アイモ,0
2008,7030001089511,登記記録の閉鎖等,0,2025-01-17,2025-01-09,株式会社日新木材,,株式会社,埼玉県,飯能市,美杉台２丁目１２番地５,,11,209,3570041,,,2025-01-09,清算の結了等,,,2015-10-05,1,,,,,ニッシンモクザイ,0
2021,7040002058506,登記記録の閉鎖等,0,2025-01-17,2025-01-07,有限会社藤ライフサポート,,有限会社,千葉県,成田市,玉造６丁目９番地１０,,12,211,2860011,,,2025-01-07,清算の結了等,,,2015-10-05,1,,,,,フジライフサポート,0
2033,7070001010101,登記記録の閉鎖等,0,2025-01-17,2025-01-17,株式会社みなみ家具,,株式会社,群馬県,安中市,安中４丁目１２番２５号,,10,211,3790116,,,2025-01-17,登記官による閉鎖,,,2015-10-05,1,,,,,,0
2034,7070001011611,登記記録の閉鎖等,0,2025-01-17,2025-01-17,株式会社浅香製作所,,株式会社,群馬県,甘楽郡甘楽町,大字秋畑１５１５番地,,10,384,3702204,,,2025-01-17,登記官による閉鎖,,,2015-10-05,1,,,,,,0
2035,7070001015777,登記記録の閉鎖等,0,2025-01-17,2025-01-17,株式会社金仙,,株式会社,群馬県,みどり市,笠懸町阿左美２７６１番地１,,10,212,3792311,,,2025-01-17,登記官による閉鎖,,,2015-10-05,1,,,,,,0
2036,7070001021676,登記記録の閉鎖等,0,2025-01-17,2025-01-17,株式会社群馬栄光,,株式会社,群馬県,館林市,堀工町９８８番地の２,,10,207,3740033,,,2025-01-17,登記官による閉鎖,,,2015-10-05,1,,,,,,0
2039,7070001029232,登記記録の閉鎖等,0,2025-01-17,2025-01-17,株式会社前橋博品舘,00026762,株式会社,群馬県,前橋市,桑町４８番地,,10,201,3710000,,,2025-01-17,登記官による閉鎖,,,2015-10-05,1,,,,,,1
2041,7070002000794,登記記録の閉鎖等,0,2025-01-17,2025-01-17,有限会社うちやま,,有限会社,群馬県,前橋市,青柳町６６９番地の３,,10,201,3710056,,,2025-01-17,登記官による閉鎖,,,2015-10-05,1,,,,,,0
2042,7070002001149,登記記録の閉鎖等,0,2025-01-17,2025-01-17,小方塗装有限会社,,有限会社,群馬県,前橋市,日吉町３丁目２２番地１,,10,201,3710017,,,2025-01-17,登記官による閉鎖,,,2015-10-05,1,,,,,,0
2043,7070002002114,登記記録の閉鎖等,0,2025-01-17,2025-01-17,有限会社後藤通信,,有限会社,群馬県,前橋市,青梨子町１４９３番地の１０,,10,201,3703573,,,2025-01-17,登記官による閉鎖,,,2015-10-05,1,,,,,,0
2044,7070002002683,登記記録の閉鎖等,0,2025-01-17,2025-01-17,有限会社真藤鉄筋工業,,有限会社,群馬県,前橋市,粕川町深津１３３９番地,,10,201,3710215,,,2025-01-17,登記官による閉鎖,,,2015-10-05,1,,,,,,0
2045,7070002006486,登記記録の閉鎖等,0,2025-01-17,2025-01-17,有限会社小林電設,,有限会社,群馬県,前橋市,西片貝町３丁目９２番地４,,10,201,3710013,,,2025-01-17,登記官による閉鎖,,,2015-10-05,1,,,,,,0
2046,7070002006619,登記記録の閉鎖等,0,2025-01-17,2025-01-17,有限会社六三四倶楽部,,有限会社,群馬県,前橋市,天川大島町１丁目５番１１号,,10,201,3792154,,,2025-01-17,登記官による閉鎖,,,2015-10-05,1,,,,,,0
2047,7070002008961,登記記録の閉鎖等,0,2025-01-17,2025-01-17,有限会社エス・アール・ジー,,有限会社,群馬県,高崎市,柳川町２３番地９,,10,202,3700815,,,2025-01-17,登記官による閉鎖,,,2015-10-05,1,,,,,,0
2048,7070002010034,登記記録の閉鎖等,0,2025-01-17,2025-01-17,有限会社斎藤鉄工所,,有限会社,群馬県,高崎市,吉井町岩井７４３番地の２,,10,202,3702103,,,2025-01-17,登記官による閉鎖,,,2015-10-05,1,,,,,,0
2049,7070002020512,登記記録の閉鎖等,0,2025-01-17,2025-01-17,有限会社ネギシ工機,,有限会社,群馬県,伊勢崎市,境保泉１９０６番地８,,10,204,3700128,,,2025-01-17,登記官による閉鎖,,,2015-10-05,1,,,,,,0
2050,7070002024901,登記記録の閉鎖等,0,2025-01-17,2025-01-17,有限会社宮本天幕商会,,有限会社,群馬県,桐生市,末広町７番１３号,,10,203,3760045,,,2025-01-17,登記官による閉鎖,,,2015-10-05,1,,,,,,0
2051,7070003001651,登記記録の閉鎖等,0,2025-01-17,2025-01-17,合同会社ＭＳＡ,,合同会社,群馬県,高崎市,下之城町９７３番地９,,10,202,3700854,,,2025-01-17,登記官による閉鎖,,,2015-10-05,1,,,,,,0
2052,7070005003373,登記記録の閉鎖等,0,2025-01-17,2025-01-17,特定非営利活動法人夢,,その他の設立登記法人,群馬県,前橋市,富士見町石井７３８番地２０,,10,201,3710105,,,2025-01-17,登記官による閉鎖,,,2015-10-05,1,,,,,,0
2053,7070005005254,登記記録の閉鎖等,0,2025-01-17,2025-01-17,特定非営利活動法人セキュリティープロジェクト,,その他の設立登記法人,群馬県,桐生市,堤町１丁目６番２３号,,10,203,3760042,,,2025-01-17,登記官による閉鎖,,,2015-10-05,1,,,,,,0
2054,7070005008703,登記記録の閉鎖等,0,2025-01-17,2025-01-17,農事組合法人天一陽光,,その他の設立登記法人,群馬県,前橋市,千代田町３丁目２番２６号,,10,201,3710022,,,2025-01-17,登記官による閉鎖,,,2015-10-05,1,,,,,,0
2056,7080002010504,登記記録の閉鎖等,0,2025-01-17,2025-01-14,有限会社大洋化成,,有限会社,静岡県,静岡市清水区,興津中町１０８９番地の３,,22,103,4240204,,,2025-01-14,清算の結了等,,,2015-10-05,1,,,,,タイヨウカセイ,0
2075,7110001009238,登記記録の閉鎖等,0,2025-01-17,2025-01-14,株式会社永和工業,,株式会社,新潟県,新潟市北区,木崎１８１６番地,,15,101,9503304,,,2025-01-14,清算の結了等,,,2015-10-05,1,,,,,,0
2077,7120001001986,登記記録の閉鎖等,0,2025-01-17,2025-01-08,株式会社新興,,株式会社,大阪府,守口市,八雲東町１丁目８番２号,,27,209,5700021,,,2025-01-08,合併による解散等,2120001159689,令和６年１２月３１日大阪府門真市殿島町１１番６号株式会社未来都（2120001159689）に合併し解散,2015-10-05,1,,,,,シンコウ,0
2079,7120001225206,登記記録の閉鎖等,0,2025-01-17,2025-01-15,グッドラック株式会社,,株式会社,大阪府,守口市,南寺方東通６丁目２０－１５,,27,209,5700043,,,2025-01-15,清算の結了等,,,2019-11-15,1,,,,,グッドラック,0
2081,7120001234909,登記記録の閉鎖等,0,2025-01-17,2025-01-14,株式会社ＥＳＴＧ－ＭＩＲＡＩ,,株式会社,大阪府,大阪市中央区,道修町１丁目４番６号,,27,128,5410045,,,2025-01-14,合併による解散等,3120001240646,令和６年１２月３１日大阪市中央区道修町一丁目４番６号株式会社ＥＳ－ＭＩＲＡＩ（3120001240646）に合併し解散,2021-02-02,1,,,,,イーエスティージーミライ,0
2083,7120001236665,登記記録の閉鎖等,0,2025-01-17,2025-01-14,株式会社ＥＳＥＮ－ＭＩＲＡＩ,,株式会社,大阪府,大阪市中央区,道修町１丁目４番６号,,27,128,5410045,,,2025-01-14,合併による解散等,3120001240646,令和６年１２月３１日大阪市中央区道修町一丁目４番６号株式会社ＥＳ－ＭＩＲＡＩ（3120001240646）に合併し解散,2021-04-12,1,,,,,イーエスイーエヌミライ,0
2127,7180001015007,登記記録の閉鎖等,0,2025-01-17,2025-01-06,株式会社東海サンド工業所,,株式会社,愛知県,名古屋市南区,星崎２丁目８５番地,,23,112,4570064,,,2025-01-06,清算の結了等,,,2015-10-05,1,,,,,トウカイサンドコウギョウショ,0
2139,7180002086906,登記記録の閉鎖等,0,2025-01-17,2025-01-06,有限会社半田リアル・エステート,,有限会社,愛知県,半田市,亀崎町９丁目１１１番地,,23,205,4750023,,,2025-01-06,清算の結了等,,,2015-10-05,1,,,,,ハンダリアルエステート,0
2143,7180301001342,登記記録の閉鎖等,0,2025-01-17,2025-01-14,株式会社ティンクル,,株式会社,愛知県,岡崎市,中島町字新町１８番地,,23,202,4440226,,,2025-01-14,清算の結了等,,,2015-10-05,1,,,,,ティンクル,0
2144,7180301024129,登記記録の閉鎖等,0,2025-01-17,2025-01-10,下平建設株式会社,,株式会社,愛知県,新城市,名号字居沢１８番地,,23,221,4411603,,,2025-01-10,清算の結了等,,,2015-10-05,1,,,,,シモヒラケンセツ,0
2150,7190001021516,登記記録の閉鎖等,0,2025-01-17,2025-01-10,株式会社エスサポート,,株式会社,三重県,四日市市,霞２丁目１－１ポートビル３階,,24,202,5100011,,,2025-01-10,清算の結了等,,,2015-10-05,1,,,,,エスサポート,0
2153,7200001001177,登記記録の閉鎖等,0,2025-01-17,2025-01-15,河村輪業株式会社,,株式会社,岐阜県,岐阜市,徹明通３丁目１４番地,,21,201,5008879,,,2025-01-15,清算の結了等,,,2015-10-05,1,,,,,カワムラリンギョウ,0
2165,7220001023070,登記記録の閉鎖等,0,2025-01-17,2025-01-16,株式会社ベスト・サービス,,株式会社,石川県,金沢市,城南２丁目４４番２号豆屋敷ビル２０１号,,17,201,9200966,,,2025-01-16,清算の結了等,,,2019-08-26,1,,,,,ベストサービス,0
2191,7320002012005,登記記録の閉鎖等,0,2025-01-17,2025-01-15,有限会社中村眼鏡,,有限会社,大分県,別府市,青山町１番８号,,44,202,8740902,,,2025-01-15,清算の結了等,,,2015-10-05,1,,,,,,0
2200,7360003001267,登記記録の閉鎖等,0,2025-01-17,2025-01-14,合資会社前田額装商会,,合資会社,沖縄県,那覇市,松尾２丁目７番２９号,,47,201,9000014,,,2025-01-14,清算の結了等,,,2015-10-05,1,,,,,マエダガクソウ,0
2202,7380001029944,登記記録の閉鎖等,0,2025-01-17,2025-01-07,タクトウ工業株式会社,,株式会社,福島県,いわき市,四倉町上仁井田字南細谷２３番地の１コーポサンライズ３号室,,07,204,9790202,,,2025-01-07,清算の結了等,,,2019-04-17,1,,,,,タクトウコウギョウ,0
2206,7420002009593,登記記録の閉鎖等,0,2025-01-17,2025-01-10,有限会社五戸富士電気,,有限会社,青森県,三戸郡五戸町,字新町２８番地,,02,442,0391548,,,2025-01-10,清算の結了等,,,2015-10-05,1,,,,,ゴノヘフジデンキ,0
2212,7430002022463,登記記録の閉鎖等,0,2025-01-17,2025-01-16,有限会社サンエスコーポレーション,,有限会社,北海道,札幌市豊平区,月寒東五条１１丁目６番１２号リッチタウン栄通壱番館,,01,105,0620055,,,2025-01-16,清算の結了等,,,2015-10-05,1,,,,,サンエスコーポレーション,0
2213,7430002023676,登記記録の閉鎖等,0,2025-01-17,2025-01-14,有限会社札幌ロードサービス,,有限会社,北海道,札幌市西区,発寒六条１４丁目４９９番地４７,,01,107,0630826,,,2025-01-14,清算の結了等,,,2015-10-05,1,,,,,サッポロロードサービス,0
2225,7480001001050,登記記録の閉鎖等,0,2025-01-17,2025-01-16,株式会社谷電機商会,,株式会社,徳島県,徳島市,西新浜町１丁目４番７０号,,36,201,7708008,,,2025-01-16,登記官による閉鎖,,,2015-10-05,1,,,,,,0
2226,7480002002072,登記記録の閉鎖等,0,2025-01-17,2025-01-16,有限会社新栄,,有限会社,徳島県,徳島市,万代町５丁目１番地７,,36,201,7700941,,,2025-01-16,登記官による閉鎖,,,2015-10-05,1,,,,,,0
2227,7480002012468,登記記録の閉鎖等,0,2025-01-17,2025-01-16,吉野川クリーン有限会社,,有限会社,徳島県,板野郡上板町,西分字キ々木１０番地,,36,405,7711330,,,2025-01-16,登記官による閉鎖,,,2015-10-05,1,,,,,,0
2228,7480002014621,登記記録の閉鎖等,0,2025-01-17,2025-01-16,有限会社大前,,有限会社,徳島県,美馬市,美馬町字駅１０７番地,,36,207,7712105,,,2025-01-16,登記官による閉鎖,,,2015-10-05,1,,,,,,0
2229,7480005005023,登記記録の閉鎖等,0,2025-01-17,2025-01-16,協同組合マリンサークル,,その他の設立登記法人,徳島県,阿南市,福井町吉谷１２２番地１,,36,204,7791620,,,2025-01-16,登記官による閉鎖,,,2015-10-05,1,,,,,,0
2231,7490005002614,登記記録の閉鎖等,0,2025-01-17,2025-01-15,本町商店街振興組合,,その他の設立登記法人,高知県,宿毛市,中央７丁目４番２６号,,39,208,7880001,,,2025-01-15,清算の結了等,,,2015-10-05,1,,,,,ホンマチ,0
2232,7500001001196,登記記録の閉鎖等,0,2025-01-17,2025-01-16,株式会社カクテルファスト,,株式会社,愛媛県,松山市,大街道１丁目６番地４,,38,201,7900004,,,2025-01-16,登記官による閉鎖,,,2015-10-05,1,,,,,,0
2233,7500001003358,登記記録の閉鎖等,0,2025-01-17,2025-01-16,株式会社林鮮魚,,株式会社,愛媛県,松山市,会津町６番１０号,,38,201,7918076,,,2025-01-16,登記官による閉鎖,,,2015-10-05,1,,,,,,0
2234,7500001008076,登記記録の閉鎖等,0,2025-01-17,2025-01-16,三瓶観光株式会社,,株式会社,愛媛県,西予市,三瓶町長早４番耕地１４８番地２,,38,214,7960902,,,2025-01-16,登記官による閉鎖,,,2015-10-05,1,,,,,ミカメカンコウ,0
2235,7500001010164,登記記録の閉鎖等,0,2025-01-17,2025-01-16,新居浜進級テスト株式会社,,株式会社,愛媛県,新居浜市,港町４番３２号藤田ビル２階２０２号,,38,205,7920016,,,2025-01-16,登記官による閉鎖,,,2015-10-05,1,,,,,,0
2236,7500001012929,登記記録の閉鎖等,0,2025-01-17,2025-01-16,村上建設株式会社,,株式会社,愛媛県,今治市,吉海町本庄９４６番地,,38,202,7942112,,,2025-01-16,登記官による閉鎖,,,2015-10-05,1,,,,,,0
2238,7500002002813,登記記録の閉鎖等,0,2025-01-17,2025-01-16,有限会社小林組,,有限会社,愛媛県,松山市,堀江町甲７６６番地１０２,,38,201,7992651,,,2025-01-16,登記官による閉鎖,,,2015-10-05,1,,,,,,0
2239,7500002006112,登記記録の閉鎖等,0,2025-01-17,2025-01-16,松山エルピー有限会社,,有限会社,愛媛県,松山市,余戸中６丁目９番４１号,,38,201,7900045,,,2025-01-16,登記官による閉鎖,,,2015-10-05,1,,,,,,0
2240,7500002007416,登記記録の閉鎖等,0,2025-01-17,2025-01-16,有限会社渡辺事務所,,有限会社,愛媛県,松山市,辻町８番３６号,00007823,38,201,7900063,,,2025-01-16,登記官による閉鎖,,,2015-10-05,1,,,,,,0
2241,7500002023652,登記記録の閉鎖等,0,2025-01-17,2025-01-16,有限会社鬼北調査設計,,有限会社,愛媛県,北宇和郡松野町,大字吉野２５５６番地,,38,484,7982111,,,2025-01-16,登記官による閉鎖,,,2015-10-05,1,,,,,,0
2244,8010001047627,登記記録の閉鎖等,0,2025-01-17,2024-12-26,スキンメディカル株式会社,,株式会社,東京都,中央区,日本橋小舟町９番１０号,,13,102,1030024,,,2024-12-26,清算の結了等,,,2015-10-05,1,,,,,スキンメディカル,0
2245,8010001145091,登記記録の閉鎖等,0,2025-01-17,2025-01-17,株式会社グリーン・アイ,,株式会社,群馬県,高崎市,大橋町１３０番地２,,10,202,3700803,,,2025-01-17,登記官による閉鎖,,,2015-10-05,1,,,,,,0
2274,8010701035344,登記記録の閉鎖等,0,2025-01-17,2024-12-27,株式会社アレイズ,,株式会社,東京都,品川区,南品川３丁目５番６号,,13,109,1400004,,,2024-12-27,清算の結了等,,,2018-02-15,1,,,,,アレイズ,0
2309,8012801017759,登記記録の閉鎖等,0,2025-01-17,2024-12-27,株式会社ｓｏａｒ,,株式会社,福岡県,福岡市中央区,赤坂１丁目８番２３号,,40,133,8100042,,,2024-12-27,清算の結了等,,,2017-02-02,1,,,,,ソア,0
2310,8013102007862,登記記録の閉鎖等,0,2025-01-17,2025-01-07,有限会社三祐,,有限会社,東京都,小平市,学園東町１丁目３番２０号,,13,211,1870043,,,2025-01-07,清算の結了等,,,2015-10-05,1,,,,,サンユウ,0
2315,8013301049664,登記記録の閉鎖等,0,2025-01-17,2024-12-27,株式会社Ａ＆Ｋ　ＳＵＰＰＯＲＴ,,株式会社,東京都,豊島区,東池袋２丁目６３番１号東池袋パレス１１０６号,,13,116,1700013,,,2024-12-27,清算の結了等,,,2022-09-21,1,,,,,エーアンドケーサポート,0
2328,8030001076938,登記記録の閉鎖等,0,2025-01-17,2025-01-14,富士ビジネスフォーム株式会社,,株式会社,埼玉県,上尾市,仲町１丁目９番１８号コスモ上尾ロイヤルステージ２０９,,11,219,3620035,,,2025-01-14,清算の結了等,,,2015-10-05,1,,,,,フジビジネスフォーム,0
2338,8030002052005,登記記録の閉鎖等,0,2025-01-17,2025-01-09,有限会社東豊物流,,有限会社,埼玉県,草加市,青柳８丁目１６番１３号ガレージ１０５号,,11,221,3400002,,,2025-01-09,清算の結了等,,,2015-10-05,1,,,,,トウホウブツリュウ,0
2359,8060002038422,登記記録の閉鎖等,0,2025-01-17,2025-01-09,有限会社管財サービス足利,,有限会社,栃木県,足利市,樺崎町１８７３番地,,09,202,3260004,,,2025-01-09,清算の結了等,,,2015-10-05,1,,,,,カンザイサービスアシカガ,0
2360,8070001002601,登記記録の閉鎖等,0,2025-01-17,2025-01-17,阪東工業株式会社,,株式会社,群馬県,前橋市,東金丸町５９番地３,,10,201,3710234,,,2025-01-17,登記官による閉鎖,,,2015-10-05,1,,,,,,0
2361,8070001024463,登記記録の閉鎖等,0,2025-01-17,2025-01-17,株式会社ケイ・アンド・アイ,,株式会社,群馬県,伊勢崎市,市場町２丁目１１４１番地,,10,204,3792211,,,2025-01-17,登記官による閉鎖,,,2015-10-05,1,,,,,,0
2362,8070001025890,登記記録の閉鎖等,0,2025-01-17,2025-01-17,株式会社原風景,,株式会社,群馬県,桐生市,相生町５丁目２８４番地５０,,10,203,3760011,,,2025-01-17,登記官による閉鎖,,,2015-10-05,1,,,,,,0
2363,8070002014934,登記記録の閉鎖等,0,2025-01-17,2025-01-17,有限会社高橋土木造園,,有限会社,群馬県,安中市,松井田町新堀４５９番地,,10,211,3790221,,,2025-01-17,登記官による閉鎖,,,2015-10-05,1,,,,,,0
2364,8070002016443,登記記録の閉鎖等,0,2025-01-17,2025-01-17,勅使河原建設有限会社,,有限会社,群馬県,富岡市,上黒岩１８９０番地,,10,210,3702345,,,2025-01-17,登記官による閉鎖,,,2015-10-05,1,,,,,,0
2365,8070002020791,登記記録の閉鎖等,0,2025-01-17,2025-01-17,有限会社須藤商事,,有限会社,群馬県,佐波郡玉村町,大字樋越４００番地１１,,10,464,3701103,,,2025-01-17,登記官による閉鎖,,,2015-10-05,1,,,,,,0
2366,8070002025287,登記記録の閉鎖等,0,2025-01-17,2025-01-17,有限会社魚善,,有限会社,群馬県,桐生市,新宿３丁目１番４号,,10,203,3760006,,,2025-01-17,登記官による閉鎖,,,2015-10-05,1,,,,,,0
2368,8070002027952,登記記録の閉鎖等,0,2025-01-17,2025-01-17,歩工業有限会社,,有限会社,群馬県,邑楽郡邑楽町,大字石打１８００番地の１,,10,525,3700604,,,2025-01-17,登記官による閉鎖,,,2015-10-05,1,,,,,,0
2369,8070002028042,登記記録の閉鎖等,0,2025-01-17,2025-01-17,有限会社石橋工務店,,有限会社,群馬県,邑楽郡千代田町,大字赤岩１１５０番地の２,,10,523,3700503,,,2025-01-17,登記官による閉鎖,,,2015-10-05,1,,,,,,0
2370,8070002029882,登記記録の閉鎖等,0,2025-01-17,2025-01-17,有限会社武井新聞店,,有限会社,群馬県,邑楽郡邑楽町,大字明野４５番地の６,,10,525,3700602,,,2025-01-17,登記官による閉鎖,,,2015-10-05,1,,,,,,0
2371,8070002030007,登記記録の閉鎖等,0,2025-01-17,2025-01-17,有限会社辰美,,有限会社,群馬県,邑楽郡邑楽町,大字石打１１７０番地,,10,525,3700604,,,2025-01-17,登記官による閉鎖,,,2015-10-05,1,,,,,,0
2372,8070002033901,登記記録の閉鎖等,0,2025-01-17,2025-01-17,有限会社ホンゴー,,有限会社,群馬県,館林市,大島町３７０１番地２,,10,207,3740001,,,2025-01-17,登記官による閉鎖,,,2015-10-05,1,,,,,,0
2373,8070002034610,登記記録の閉鎖等,0,2025-01-17,2025-01-17,有限会社飯田商店,,有限会社,群馬県,沼田市,鍛冶町９５５番地,,10,206,3780018,,,2025-01-17,登記官による閉鎖,,,2015-10-05,1,,,,,,0
2374,8070002034791,登記記録の閉鎖等,0,2025-01-17,2025-01-17,有限会社工房あいや,,有限会社,群馬県,沼田市,柳町２５４１番地６,,10,206,3780055,,,2025-01-17,登記官による閉鎖,,,2015-10-05,1,,,,,,0
2375,8070005001665,登記記録の閉鎖等,0,2025-01-17,2025-01-17,特定非営利活動法人日本医療福祉協議会,,その他の設立登記法人,群馬県,前橋市,西片貝町３丁目３７９番地１,,10,201,3710013,,,2025-01-17,登記官による閉鎖,,,2015-10-05,1,,,,,,0
2376,8070005002977,登記記録の閉鎖等,0,2025-01-17,2025-01-17,特定非営利活動法人ソレイユぐんま,,その他の設立登記法人,群馬県,高崎市,棟高町１９２８番地２８９,,10,202,3703521,,,2025-01-17,登記官による閉鎖,,,2015-10-05,1,,,,,,0
2377,8070005004718,登記記録の閉鎖等,0,2025-01-17,2025-01-17,特定非営利活動法人ぐんま食と観光ねっと,,その他の設立登記法人,群馬県,伊勢崎市,西久保町２丁目１４９５,,10,204,3792204,,,2025-01-17,登記官による閉鎖,,,2015-10-05,1,,,,,,0
2382,8080402005227,登記記録の閉鎖等,0,2025-01-17,2025-01-16,有限会社テキスタイルマエダ,,有限会社,静岡県,浜松市中央区,村櫛町３２９４番地,,22,138,4311207,,,2025-01-16,清算の結了等,,,2015-10-05,1,,,,,,0
2388,8120001053201,登記記録の閉鎖等,0,2025-01-17,2025-01-08,株式会社淀川,,株式会社,大阪府,大阪市東淀川区,井高野２丁目５番１５号,,27,114,5330001,,,2025-01-08,合併による解散等,2120001159689,令和６年１２月３１日大阪府門真市殿島町１１番６号株式会社未来都（2120001159689）に合併し解散,2015-10-05,1,,,,,ヨドガワ,0
2390,8120001132954,登記記録の閉鎖等,0,2025-01-17,2025-01-09,株式会社ゴッドバンク,,株式会社,大阪府,大阪市港区,八幡屋３丁目６番２５号,,27,107,5520014,,,2025-01-09,清算の結了等,,,2015-10-05,1,,,,,ゴッドバンク,0
2415,8120905005784,登記記録の閉鎖等,0,2025-01-17,2025-01-09,税理士法人えがお未来,,その他の設立登記法人,大阪府,高槻市,西面中２丁目１５番１４号,,27,207,5690842,,,2025-01-09,清算の結了等,,,2018-10-05,1,,,,,エガオミライ,0
2432,8140005018982,登記記録の閉鎖等,0,2025-01-17,2025-01-10,特定非営利活動法人宝塚成年後見センター,,その他の設立登記法人,兵庫県,宝塚市,売布東の町１２番９号,,28,214,6650867,,,2025-01-10,清算の結了等,,,2015-10-05,1,,,,,タカラヅカセイネンコウケンセンター,0
2438,8180001155405,登記記録の閉鎖等,0,2025-01-17,2025-01-06,株式会社ＤＨＳＳ,,株式会社,愛知県,名古屋市千種区,小松町７丁目２２番地の２,,23,101,4640853,,,2025-01-06,清算の結了等,,,2023-03-16,1,,,,,ディーエイチエスエス,0
2444,8180002038096,登記記録の閉鎖等,0,2025-01-17,2024-12-27,有限会社福岡新聞店,,有限会社,愛知県,名古屋市名東区,西里町１丁目４２番地,,23,115,4650084,,,2024-12-27,清算の結了等,,,2015-10-05,1,,,,,フクオカシンブンテン,0
2447,8180302008740,登記記録の閉鎖等,0,2025-01-17,2025-01-10,有限会社トヨワ調査,,有限会社,愛知県,豊橋市,牛川町字西側８番地,,23,201,4400016,,,2025-01-10,清算の結了等,,,2015-10-05,1,,,,,トヨワチョウサ,0
2462,8230001010769,登記記録の閉鎖等,0,2025-01-17,2025-01-10,株式会社富士工業所,,株式会社,富山県,高岡市,明野町３番５号,,16,202,9330905,,,2025-01-10,合併による解散等,9070001007839,令和７年１月１日群馬県高崎市問屋町三丁目５番地の７巴産業株式会社（9070001007839）に合併し解散,2015-10-05,1,,,,,フジコウギョウショ,0
2466,8240001014281,登記記録の閉鎖等,0,2025-01-17,2025-01-14,株式会社相続総合研究所,,株式会社,広島県,広島市中区,上幟町１１番１５－１１０１号,,34,101,7300014,,,2025-01-14,清算の結了等,,,2015-10-05,1,,,,,ソウゾクソウゴウケンキュウショ,0
2468,8240002001683,登記記録の閉鎖等,0,2025-01-17,2025-01-14,有限会社ウエイ,,有限会社,広島県,広島市東区,戸坂惣田２丁目９番２４号,,34,102,7320001,,,2025-01-14,清算の結了等,,,2015-10-05,1,,,,,ウエイ,0
2469,8240002045937,登記記録の閉鎖等,0,2025-01-17,2025-01-15,ハート福祉サービス有限会社,,有限会社,広島県,福山市,草戸町１丁目１３番２０－２０２号,,34,207,7200831,,,2025-01-15,清算の結了等,,,2015-10-05,1,,,,,ハートフクシサービス,0
2518,8380005012219,登記記録の閉鎖等,0,2025-01-17,2025-01-07,ＩＣＦＪ協同組合,,その他の設立登記法人,福島県,郡山市,田村町桜ケ丘２丁目３１８番地,,07,203,9630723,,,2025-01-07,清算の結了等,,,2019-10-17,1,,,,,,0
2521,8410001009165,登記記録の閉鎖等,0,2025-01-17,2025-01-10,株式会社内藤,,株式会社,秋田県,横手市,増田町増田字中町７５番地,,05,203,0190701,,,2025-01-10,清算の結了等,,,2015-10-05,1,,,,,,0
2531,8480001005232,登記記録の閉鎖等,0,2025-01-17,2025-01-16,アサヒ機械工業株式会社,,株式会社,徳島県,板野郡松茂町,住吉字住吉開拓９７番地２,,36,401,7710218,,,2025-01-16,登記官による閉鎖,,,2015-10-05,1,,,,,,0
2532,8480001006965,登記記録の閉鎖等,0,2025-01-17,2025-01-16,大二木材株式会社,,株式会社,徳島県,海部郡牟岐町,大字中村字本村４６番地の１,,36,383,7750006,,,2025-01-16,登記官による閉鎖,,,2015-10-05,1,,,,,,0
2533,8480002000711,登記記録の閉鎖等,0,2025-01-17,2025-01-16,有限会社今村器械店,,有限会社,徳島県,徳島市,南島田町４丁目４２番地の１３,,36,201,7700053,,,2025-01-16,登記官による閉鎖,,,2015-10-05,1,,,,,,0
2534,8480002005487,登記記録の閉鎖等,0,2025-01-17,2025-01-16,有限会社シコー,,有限会社,徳島県,名西郡石井町,高原字中須１１０番地,,36,341,7793201,,,2025-01-16,登記官による閉鎖,,,2015-10-05,1,,,,,,0
2535,8480005000295,登記記録の閉鎖等,0,2025-01-17,2025-01-16,財団法人みずほ保育園,,その他の設立登記法人,徳島県,徳島市,南昭和町７丁目９番地の１５,,36,201,7700944,,,2025-01-16,登記官による閉鎖,,,2015-10-05,1,,,,,,0
2536,8480005002333,登記記録の閉鎖等,0,2025-01-17,2025-01-16,農事組合法人勝浦ファーム,,その他の設立登記法人,徳島県,勝浦郡勝浦町,大字三溪字立川１３１番地１,,36,301,7714307,,,2025-01-16,登記官による閉鎖,,,2015-10-05,1,,,,,,0
2537,8480005003224,登記記録の閉鎖等,0,2025-01-17,2025-01-16,財団法人浩然社,,その他の設立登記法人,徳島県,阿波市,市場町山野上字末広１６７番地,,36,206,7711624,,,2025-01-16,登記官による閉鎖,,,2015-10-05,1,,,,,,0
2538,8480005003950,登記記録の閉鎖等,0,2025-01-17,2025-01-16,特定非営利活動法人徳島県マスターズ水泳協会,,その他の設立登記法人,徳島県,鳴門市,撫養町斎田字西発７１番地１,,36,202,7720002,,,2025-01-16,登記官による閉鎖,,,2015-10-05,1,,,,,,0
2540,8500001001278,登記記録の閉鎖等,0,2025-01-17,2025-01-16,株式会社神岡建築,,株式会社,愛媛県,松山市,喜与町１丁目６番地１２,,38,201,7900802,,,2025-01-16,登記官による閉鎖,,,2015-10-05,1,,,,,,0
2541,8500001003679,登記記録の閉鎖等,0,2025-01-17,2025-01-16,株式会社ホテルアムール,,株式会社,愛媛県,松山市,来住町１３５５番地１,,38,201,7911102,,,2025-01-16,登記官による閉鎖,,,2015-10-05,1,,,,,,0
2542,8500001009635,登記記録の閉鎖等,0,2025-01-17,2025-01-16,伊予建工株式会社,,株式会社,愛媛県,新居浜市,中須賀町２丁目７番１５号,,38,205,7920012,,,2025-01-16,登記官による閉鎖,,,2015-10-05,1,,,,,,0
2543,8500001012721,登記記録の閉鎖等,0,2025-01-17,2025-01-16,株式会社オフイスサンヨー,,株式会社,愛媛県,今治市,別宮町３丁目７番地２,,38,202,7940026,,,2025-01-16,登記官による閉鎖,,,2019-12-16,1,,,,,オフイスサンヨー,0
2545,8500001015542,登記記録の閉鎖等,0,2025-01-17,2025-01-16,明倫産業株式会社,,株式会社,愛媛県,宇和島市,柿原甲１７２９番地９,,38,203,7980027,,,2025-01-16,登記官による閉鎖,,,2015-10-05,1,,,,,,0
2547,8500002000089,登記記録の閉鎖等,0,2025-01-17,2025-01-16,有限会社浦田商事,,有限会社,愛媛県,松山市,土手内１２４番地の４,,38,201,7992432,,,2025-01-16,登記官による閉鎖,,,2015-10-05,1,,,,,,0
2548,8500002001384,登記記録の閉鎖等,0,2025-01-17,2025-01-16,有限会社愛媛ハロー,,有限会社,愛媛県,松山市,別府町３４７番地８,,38,201,7918056,,,2025-01-16,登記官による閉鎖,,,2015-10-05,1,,,,,,0
2549,8500002005245,登記記録の閉鎖等,0,2025-01-17,2025-01-15,有限会社野本板金工業,,有限会社,愛媛県,松山市,新立町１番９号,,38,201,7900865,,,2025-01-15,清算の結了等,,,2015-10-05,1,,,,,ノモトバンキンコウギョウ,0
2550,8500002006482,登記記録の閉鎖等,0,2025-01-17,2025-01-16,有限会社マルタマ米穀店,,有限会社,愛媛県,松山市,和気町１丁目８番地の３,,38,201,7992656,,,2025-01-16,登記官による閉鎖,,,2015-10-05,1,,,,,,0
2551,8500002012919,登記記録の閉鎖等,0,2025-01-17,2025-01-16,有限会社キャンパスラブ,,有限会社,愛媛県,西予市,三瓶町朝立７番耕地１１２番地１,,38,214,7960907,,,2025-01-16,登記官による閉鎖,,,2015-10-05,1,,,,,,0
2552,8500002014592,登記記録の閉鎖等,0,2025-01-17,2025-01-16,有限会社ロンドン薬局,,有限会社,愛媛県,西条市,本町１の８番地,,38,206,7930022,,,2025-01-16,登記官による閉鎖,,,2015-10-05,1,,,,,,0
2553,8500002016110,登記記録の閉鎖等,0,2025-01-17,2025-01-16,有限会社きいち,,有限会社,愛媛県,新居浜市,西泉町３番４０号,,38,205,7920832,,,2025-01-16,登記官による閉鎖,,,2015-10-05,1,,,,,,0
2554,8500002021333,登記記録の閉鎖等,0,2025-01-17,2025-01-16,有限会社三島テレビサービスセンター,,有限会社,愛媛県,四国中央市,妻鳥町２１７０番地１,,38,213,7990113,,,2025-01-16,登記官による閉鎖,,,2015-10-05,1,,,,,ミシマテレビサービスセンター,0
2555,8500002022926,登記記録の閉鎖等,0,2025-01-17,2025-01-16,有限会社土居衣裳店,,有限会社,愛媛県,宇和島市,御幸町１丁目２番７号,,38,203,7980013,,,2025-01-16,登記官による閉鎖,,,2015-10-05,1,,,,,,0
2556,8500002023321,登記記録の閉鎖等,0,2025-01-17,2025-01-16,奥南真珠有限会社,,有限会社,愛媛県,宇和島市,吉田町奥浦甲２２３番地,,38,203,7993772,,,2025-01-16,登記官による閉鎖,,,2015-10-05,1,,,,,オクナシンジュ,0
2557,8500002023370,登記記録の閉鎖等,0,2025-01-17,2025-01-16,有限会社高木農園,,有限会社,愛媛県,宇和島市,吉田町立間１番耕地２２５３番地,,38,203,7993730,,,2025-01-16,登記官による閉鎖,,,2019-05-08,1,,,,,タカギノウエン,0
2558,8500002023924,登記記録の閉鎖等,0,2025-01-17,2025-01-16,有限会社宮本瓦工業,,有限会社,愛媛県,南宇和郡愛南町,御荘平山１３１２番地,,38,506,7984102,,,2025-01-16,登記官による閉鎖,,,2015-10-05,1,,,,,,0
2559,8500002024162,登記記録の閉鎖等,0,2025-01-17,2025-01-16,有限会社寿バーナー,,有限会社,愛媛県,宇和島市,寿町１丁目６番１２号,,38,203,7980007,,,2025-01-16,登記官による閉鎖,,,2015-10-05,1,,,,,,0
2560,8500002024492,登記記録の閉鎖等,0,2025-01-17,2025-01-16,有限会社川上ミシン電業社,,有限会社,愛媛県,西条市,大町１０５９番地,,38,206,7930030,,,2025-01-16,登記官による閉鎖,,,2023-07-03,1,,,,,カワカミミシンデンギョウシャ,0
2561,8500003001227,登記記録の閉鎖等,0,2025-01-17,2025-01-16,Ｓｍａｒｔ　Ｐｒｏｊｅｃｔ合同会社,,合同会社,愛媛県,松山市,土居田町８１６番地２セントラルパーク４０５号,,38,201,7900056,,,2025-01-16,登記官による閉鎖,,,2015-10-05,1,,,,,,0
2562,8500005001357,登記記録の閉鎖等,0,2025-01-17,2025-01-16,社団法人愛媛山林會,,その他の設立登記法人,愛媛県,松山市,大字一番町１１番地愛媛縣廳内,,38,201,7910000,,,2025-01-16,登記官による閉鎖,,,2015-10-05,1,,,,,,0
2563,8500005001860,登記記録の閉鎖等,0,2025-01-17,2025-01-16,松山ロープウェー北商店街振興組合,,その他の設立登記法人,愛媛県,松山市,大街道３丁目８番地２３,,38,201,7900004,,,2025-01-16,登記官による閉鎖,,,2015-10-05,1,,,,,,0
2564,8500005004244,登記記録の閉鎖等,0,2025-01-17,2025-01-16,財団法人周桑郡奨農会,,その他の設立登記法人,愛媛県,西条市,壬生川１２７番地の２,,38,206,7991341,,,2025-01-16,登記官による閉鎖,,,2015-10-05,1,,,,,,0
2565,8500005004673,登記記録の閉鎖等,0,2025-01-17,2025-01-16,無限責任垣生村字山端負債整理組合,,その他の設立登記法人,愛媛県,新居浜市,垣生２２０番地の１,,38,205,7920873,,,2025-01-16,登記官による閉鎖,,,2015-10-05,1,,,,,,0
2590,9010602007763,登記記録の閉鎖等,0,2025-01-17,2025-01-10,有限会社構溶社,,有限会社,東京都,江東区,大島９丁目１番２３号,,13,108,1360072,,,2025-01-10,清算の結了等,,,2015-10-05,1,,,,,コウヨウシャ,0
2594,9010802001418,登記記録の閉鎖等,0,2025-01-17,2025-01-07,有限会社出水,,有限会社,東京都,大田区,南馬込３丁目２２番１７号,,13,111,1430025,,,2025-01-07,清算の結了等,,,2015-10-05,1,,,,,イズミ,0
2615,9011101071706,登記記録の閉鎖等,0,2025-01-17,2024-12-26,Ｈｏｐｅｒａｔｉｏｎ　ＩＢＵ株式会社,,株式会社,東京都,千代田区,富士見２丁目２番１１号井上ビル１Ｆ,,13,101,1020071,,,2024-12-26,清算の結了等,,,2015-10-05,1,,,,,ホペレーションアイビーユー,0
2624,9011203001899,登記記録の閉鎖等,0,2025-01-17,2025-01-16,合同会社ありがとうございます,,合同会社,東京都,中野区,野方４丁目４５番４号,,13,114,1650027,,,2025-01-16,清算の結了等,,,2015-10-05,1,,,,,,0
2625,9011301019042,登記記録の閉鎖等,0,2025-01-17,2025-01-14,オフィスエンジン株式会社,,株式会社,東京都,杉並区,清水２丁目６番９－３０４号モア・クレスト荻窪,,13,115,1670033,,,2025-01-14,清算の結了等,,,2015-10-05,1,,,,,オフィスエンジン,0
2626,9011301027318,登記記録の閉鎖等,0,2025-01-17,2025-01-14,株式会社ＧＬＯＲＹ　Ｕ’ｓ,,株式会社,東京都,杉並区,上井草１丁目２４－１９クレスト杉並１０１,,13,115,1670023,,,2025-01-14,清算の結了等,,,2021-11-04,1,,,,,グローリーユーズ,0
2664,9021001017485,登記記録の閉鎖等,0,2025-01-17,2025-01-14,株式会社宝禄,,株式会社,神奈川県,相模原市南区,大野台２丁目３１－２１ＦＳ大野台ハイツ１－Ａ号室,,14,153,2520331,,,2025-01-14,清算の結了等,,,2015-10-05,1,,,,,タカロク,0
2684,9040001032922,登記記録の閉鎖等,0,2025-01-17,2025-01-06,株式会社正洋,,株式会社,千葉県,市川市,北方２丁目３１番４号,,12,203,2720815,,,2025-01-06,清算の結了等,,,2015-10-05,1,,,,,ショウヨウ,0
2695,9050003001949,登記記録の閉鎖等,0,2025-01-17,2025-01-09,合同会社ハリーテック,,合同会社,茨城県,牛久市,ひたち野東１丁目３２番地６,,08,219,3001207,,,2025-01-09,清算の結了等,,,2015-10-05,1,,,,,ハリーテック,0
2698,9060002005768,登記記録の閉鎖等,0,2025-01-17,2025-01-09,有限会社高穂商事,,有限会社,栃木県,宇都宮市,大塚町１５番２８号,,09,201,3210161,,,2025-01-09,清算の結了等,,,2015-10-05,1,,,,,タカホショウジ,0
2700,9070001000950,登記記録の閉鎖等,0,2025-01-17,2025-01-17,群馬飼料株式会社,,株式会社,群馬県,前橋市,文京町１丁目３１番１６号,,10,201,3710801,,,2025-01-17,登記官による閉鎖,,,2015-10-05,1,,,,,,0
2702,9070001024917,登記記録の閉鎖等,0,2025-01-17,2025-01-17,株式会社バーテックス,,株式会社,群馬県,渋川市,行幸田３７８番地３,,10,208,3770006,,,2025-01-17,登記官による閉鎖,,,2015-10-05,1,,,,,,0
2704,9070002002087,登記記録の閉鎖等,0,2025-01-17,2025-01-17,有限会社小杉木工所,,有限会社,群馬県,前橋市,西片貝町１丁目２９５番地１,,10,201,3710013,,,2025-01-17,登記官による閉鎖,,,2015-10-05,1,,,,,,0
2705,9070002006212,登記記録の閉鎖等,0,2025-01-17,2025-01-17,株式会社田村技研,,株式会社,群馬県,前橋市,滝窪町１２５２番地９,,10,201,3710235,,,2025-01-17,登記官による閉鎖,,,2015-10-05,1,,,,,,0
2706,9070002010206,登記記録の閉鎖等,0,2025-01-17,2025-01-17,有限会社シークレスト,,有限会社,群馬県,高崎市,岩押町３４番１５号,,10,202,3700044,,,2025-01-17,登記官による閉鎖,,,2015-10-05,1,,,,,,0
2707,9070002011278,登記記録の閉鎖等,0,2025-01-17,2025-01-17,有限会社成錠,,有限会社,群馬県,高崎市,引間町７８８番地５,,10,202,3703517,,,2025-01-17,登記官による閉鎖,,,2015-10-05,1,,,,,,0
2708,9070002013084,登記記録の閉鎖等,0,2025-01-17,2025-01-17,有限会社龍,,有限会社,群馬県,高崎市,石原町３３１６番地１,,10,202,3700864,,,2025-01-17,登記官による閉鎖,,,2015-10-05,1,,,,,,0
2709,9070002013415,登記記録の閉鎖等,0,2025-01-17,2025-01-17,有限会社マルカ・インターナショナル・フーズ,,有限会社,群馬県,高崎市,筑縄町５番地１２,,10,202,3700075,,,2025-01-17,登記官による閉鎖,,,2015-10-05,1,,,,,,0
2710,9070002018455,登記記録の閉鎖等,0,2025-01-17,2025-01-17,有限会社インテルエンジニアリング,,有限会社,群馬県,伊勢崎市,八斗島町１６１７番地２,,10,204,3720827,,,2025-01-17,登記官による閉鎖,,,2015-10-05,1,,,,,,0
2711,9070002026029,登記記録の閉鎖等,0,2025-01-17,2025-01-17,有限会社小野上砕石,,有限会社,群馬県,渋川市,小野子３５３３番地,,10,208,3770312,,,2025-01-17,登記官による閉鎖,,,2015-10-05,1,,,,,,0
2712,9070002028669,登記記録の閉鎖等,0,2025-01-17,2025-01-17,有限会社嘉登屋,,有限会社,群馬県,邑楽郡大泉町,大字吉田３２６０番地,,10,524,3700523,,,2025-01-17,登記官による閉鎖,,,2015-10-05,1,,,,,,0
2713,9070002030047,登記記録の閉鎖等,0,2025-01-17,2025-01-17,有限会社チサン,,有限会社,群馬県,太田市,小舞木町５７４番地の２,,10,205,3730818,,,2025-01-17,登記官による閉鎖,,,2015-10-05,1,,,,,,0
2714,9070002032407,登記記録の閉鎖等,0,2025-01-17,2025-01-17,有限会社ら・ふろーらる,,有限会社,群馬県,太田市,藪塚町２６９８番地３,00026854,10,205,3792301,,,2025-01-17,登記官による閉鎖,,,2015-10-05,1,,,,,,0
2715,9070002034353,登記記録の閉鎖等,0,2025-01-17,2025-01-17,有限会社プロトン,,有限会社,群馬県,邑楽郡板倉町,大字大曲１０７７番地,,10,521,3740105,,,2025-01-17,登記官による閉鎖,,,2015-10-05,1,,,,,,0
2716,9070002035450,登記記録の閉鎖等,0,2025-01-17,2025-01-17,佐藤土建有限会社,,有限会社,群馬県,利根郡みなかみ町,後閑８７７番地,,10,449,3791305,,,2025-01-17,登記官による閉鎖,,,2015-10-05,1,,,,,,0
2717,9070005005038,登記記録の閉鎖等,0,2025-01-17,2025-01-17,医療法人社団萠歯会,,その他の設立登記法人,群馬県,桐生市,相生町５丁目６６８番地の２,,10,203,3760011,,,2025-01-17,登記官による閉鎖,,,2015-10-05,1,,,,,,0
2718,9070005006820,登記記録の閉鎖等,0,2025-01-17,2025-01-17,特定非営利活動法人楓,,その他の設立登記法人,群馬県,太田市,飯塚町８３８番地１,,10,205,3730817,,,2025-01-17,登記官による閉鎖,,,2015-10-05,1,,,,,,0
2719,9070005006837,登記記録の閉鎖等,0,2025-01-17,2025-01-17,特定非営利活動法人ビックハートママ,,その他の設立登記法人,群馬県,太田市,東別所町１０１番地３,,10,205,3730815,,,2025-01-17,登記官による閉鎖,,,2015-10-05,1,,,,,,0
2722,9080401009780,登記記録の閉鎖等,0,2025-01-17,2025-01-14,株式会社プロス,,株式会社,静岡県,浜松市中央区,板屋町１１１番地の２,,22,138,4300928,,,2025-01-14,合併による解散等,5100001012979,令和７年１月１日長野県松本市大字和田４０１０番１０キッセイコムテック株式会社（5100001012979）に合併し解散,2015-10-05,1,,,,,プロス,0
2723,9080401021926,登記記録の閉鎖等,0,2025-01-17,2025-01-14,株式会社制服のワタナベ,,株式会社,静岡県,浜松市中央区,上西町２１番地の２,,22,138,4350048,,,2025-01-14,合併による解散等,3260001027781,令和７年１月１日岡山県倉敷市児島田の口一丁目３番４４号株式会社明石スクールユニフォームカンパニー（3260001027781）に合併し解散,2017-01-04,1,,,,,セイフクノワタナベ,0
2731,9110001017684,登記記録の閉鎖等,0,2025-01-17,2025-01-14,株式会社レッツウエノ,,株式会社,新潟県,柏崎市,長浜町１番３３号,,15,205,9450042,,,2025-01-14,清算の結了等,,,2015-10-05,1,,,,,レッツウエノ,0
2734,9120001128084,登記記録の閉鎖等,0,2025-01-17,2025-01-14,サンマシナリー株式会社,,株式会社,神奈川県,厚木市,中依知３３３番地３,,14,212,2430805,,,2025-01-14,合併による解散等,5120001085494,令和７年１月１日大阪市中央区北久宝寺町二丁目４番１号東洋商事株式会社（5120001085494）に合併し解散,2015-10-05,1,,,,,サンマシナリー,0
2757,9130001021833,登記記録の閉鎖等,0,2025-01-17,2025-01-14,富田建設株式会社,,株式会社,京都府,京都市中京区,小川通丸太町下る中之町８８,,26,104,6040086,,,2025-01-14,清算の結了等,,,2015-10-05,1,,,,,トミタケンセツ,0
2764,9140001105610,登記記録の閉鎖等,0,2025-01-17,2025-01-07,株式会社キムラコーポレーション,,株式会社,兵庫県,西宮市,甲子園口２丁目９番２米田ビル１０２号,,28,204,6638113,,,2025-01-07,清算の結了等,,,2017-04-05,1,,,,,キムラコーポレーション,0
2780,9180001090213,登記記録の閉鎖等,0,2025-01-17,2025-01-06,株式会社菓子本舗ながい,,株式会社,愛知県,名古屋市北区,西味鋺１丁目８０２番地,,23,103,4620016,,,2025-01-06,清算の結了等,,,2015-10-05,1,,,,,カシホンポナガイ,0
2784,9180002051214,登記記録の閉鎖等,0,2025-01-17,2025-01-06,有限会社ハイテクノ,,有限会社,愛知県,名古屋市緑区,大高町字己新田１６１番地の２,,23,114,4598001,,,2025-01-06,清算の結了等,,,2015-10-05,1,,,,,ハイテクノ,0
2788,9180003017759,登記記録の閉鎖等,0,2025-01-17,2025-01-07,マチュアライフ合同会社,,合同会社,愛知県,愛西市,落合町下河原１８３４番地,,23,232,4960909,,,2025-01-07,清算の結了等,,,2017-03-07,1,,,,,マチュアライフ,0
2800,9210002003748,登記記録の閉鎖等,0,2025-01-17,2025-01-10,有限会社ユアーズ・ワコー,,有限会社,福井県,福井市,南四ツ居１丁目３番１０号,,18,201,9188204,,,2025-01-10,清算の結了等,,,2015-10-05,1,,,,,ユアーズワコー,0
2818,9320001018364,登記記録の閉鎖等,0,2025-01-17,2025-01-14,株式会社ＡＮＤＲＹＵ,,株式会社,大分県,別府市,上原町８番１８号,,44,202,8740829,,,2025-01-14,合併による解散等,9320001015535,令和７年１月１１日大分県別府市上原町８番１８号株式会社温恵（9320001015535）に合併し解散,2021-05-21,1,,,,,アンドリュー,0
2825,9380002005331,登記記録の閉鎖等,0,2025-01-17,2025-01-07,有限会社協栄測量設計,,有限会社,福島県,伊達郡国見町,大字森山字太田川２７番地,,07,303,9691731,,,2025-01-07,清算の結了等,,,2015-10-05,1,,,,,キョウエイソクリョウセッケイ,0
2831,9420003002430,登記記録の閉鎖等,0,2025-01-17,2025-01-14,合同会社小坂車輌,,合同会社,青森県,十和田市,西四番町７－５５,,02,206,0340084,,,2025-01-14,清算の結了等,,,2022-01-18,1,,,,,コサカシャリョウ,0
2840,9470002007574,登記記録の閉鎖等,0,2025-01-17,2025-01-14,有限会社ワイズ・カンパニー,,有限会社,香川県,高松市,小村町５０番地８,,37,201,7610431,,,2025-01-14,清算の結了等,,,2015-10-05,1,,,,,,0
2841,9480001000570,登記記録の閉鎖等,0,2025-01-17,2025-01-16,クラウン商事株式会社,,株式会社,徳島県,徳島市,南矢三町１丁目１２番１１－４号,,36,201,7700005,,,2025-01-16,登記官による閉鎖,,,2015-10-05,1,,,,,,0
2842,9480001002071,登記記録の閉鎖等,0,2025-01-17,2025-01-16,株式会社芳川堂印刷所,,株式会社,徳島県,徳島市,西新浜町２丁目２番７６号,,36,201,7708008,,,2025-01-16,登記官による閉鎖,,,2015-10-05,1,,,,,,0
2843,9480002000834,登記記録の閉鎖等,0,2025-01-17,2025-01-16,有限会社大峰,,有限会社,徳島県,徳島市,大道１丁目８番地,,36,201,7700923,,,2025-01-16,登記官による閉鎖,,,2015-10-05,1,,,,,,0
2844,9480002004983,登記記録の閉鎖等,0,2025-01-17,2025-01-16,メナード化粧品徳島販売有限会社,,有限会社,徳島県,徳島市,西新町５丁目３４番地２,,36,201,7700902,,,2025-01-16,登記官による閉鎖,,,2015-10-05,1,,,,,,0
2845,9480002007912,登記記録の閉鎖等,0,2025-01-17,2025-01-16,有限会社田中農園,,有限会社,徳島県,勝浦郡勝浦町,大字星谷字中奥７５番地,,36,301,7714304,,,2025-01-16,登記官による閉鎖,,,2015-10-05,1,,,,,,0
2846,9480002011278,登記記録の閉鎖等,0,2025-01-17,2025-01-16,有限会社浜村水産,,有限会社,徳島県,板野郡松茂町,長原４１９番地２,,36,401,7710216,,,2025-01-16,登記官による閉鎖,,,2015-10-05,1,,,,,,0
2847,9480002012350,登記記録の閉鎖等,0,2025-01-17,2025-01-16,真空産業有限会社,,有限会社,徳島県,板野郡藍住町,笠木字東野１４番地７,,36,403,7711261,,,2025-01-16,登記官による閉鎖,,,2015-10-05,1,,,,,,0
2848,9480005002332,登記記録の閉鎖等,0,2025-01-17,2025-01-16,農事組合法人四国発酵微研,,その他の設立登記法人,徳島県,勝浦郡勝浦町,大字三溪字立川１３１番地１,,36,301,7714307,,,2025-01-16,登記官による閉鎖,,,2015-10-05,1,,,,,,0
2849,9480005003900,登記記録の閉鎖等,0,2025-01-17,2025-01-16,社団法人撫養奨学會,,その他の設立登記法人,徳島県,鳴門市,撫養町斎田字岩崎１４５番地,,36,202,7720002,,,2025-01-16,登記官による閉鎖,,,2015-10-05,1,,,,,,0
2851,9500001003026,登記記録の閉鎖等,0,2025-01-17,2025-01-16,中屋食品株式会社,,株式会社,愛媛県,松山市,柳井町２丁目１３番地１,,38,201,7900014,,,2025-01-16,登記官による閉鎖,,,2015-10-05,1,,,,,,0
2852,9500001007555,登記記録の閉鎖等,0,2025-01-17,2025-01-16,株式会社ＨＹＯ－ＤＥＮ,,株式会社,愛媛県,松山市,東長戸４丁目２番２８号,,38,201,7918005,,,2025-01-16,登記官による閉鎖,,,2015-10-05,1,,,,,,0
2853,9500001008462,登記記録の閉鎖等,0,2025-01-17,2025-01-16,八幡浜海産物株式会社,,株式会社,愛媛県,八幡浜市,１５１０番地の１７,,38,204,7960088,,,2025-01-16,登記官による閉鎖,,,2015-10-05,1,,,,,,0
2855,9500001015888,登記記録の閉鎖等,0,2025-01-17,2025-01-16,株式会社男山建設,,株式会社,愛媛県,北宇和郡鬼北町,大字東仲８１０番地１,,38,488,7981366,,,2025-01-16,登記官による閉鎖,,,2015-10-05,1,,,,,,0
2856,9500001015896,登記記録の閉鎖等,0,2025-01-17,2025-01-16,株式会社パシフィックパール,,株式会社,愛媛県,宇和島市,吉田町奥浦甲１４８番地,,38,203,7993772,,,2025-01-16,登記官による閉鎖,,,2015-10-05,1,,,,,,0
2858,9500002003909,登記記録の閉鎖等,0,2025-01-17,2025-01-16,有限会社ソノベ,,有限会社,愛媛県,松山市,東石井６丁目１１番１０号,,38,201,7900932,,,2025-01-16,登記官による閉鎖,,,2015-10-05,1,,,,,,0
2859,9500002011993,登記記録の閉鎖等,0,2025-01-17,2025-01-16,有限会社清水建設,,有限会社,愛媛県,喜多郡内子町,川中１９１５番地,,38,422,7913321,,,2025-01-16,登記官による閉鎖,,,2015-10-05,1,,,,,,0
2860,9500002012141,登記記録の閉鎖等,0,2025-01-17,2025-01-16,有限会社喜多製蝋所,,有限会社,愛媛県,大洲市,長浜甲１０２４番地の９,,38,207,7993401,,,2025-01-16,登記官による閉鎖,,,2015-10-05,1,,,,,,0
2861,9500002022842,登記記録の閉鎖等,0,2025-01-17,2025-01-16,有限会社たくみ工業,,有限会社,愛媛県,宇和島市,保田甲９３６番地１,,38,203,7980077,,,2025-01-16,登記官による閉鎖,,,2015-10-05,1,,,,,,0
