sequenceNumber,corporateNumber,process,correct,updateDate,changeDate,name,nameImageId,kind,prefectureName,cityName,streetNumber,addressImageId,prefectureCode,cityCode,postCode,addressOutside,addressOutsideImageId,closeDate,closeCause,successorCorporateNumber,changeCause,assignmentDate,latest,enName,enPrefectureName,enCityName,enAddressOutside,furigana,hihyoji
9,1010001251433,新規,0,2025-01-21,2025-01-21,株式会社エクセルリンク,,株式会社,東京都,中央区,新川１丁目７番１－６０４号,,13,102,1040033,,,,,,,2025-01-21,1,,,,,エクセルリンク,0
13,1010003046121,新規,0,2025-01-21,2025-01-21,Ｋｏｔｏ‐ｔｅｃｈｎｏ合同会社,,合同会社,東京都,中央区,銀座１丁目２２番１１号銀座大竹ビジデンス２Ｆ,,13,102,1040061,,,,,,,2025-01-21,1,,,,,コトテクノ,0
16,1010401187450,新規,0,2025-01-21,2025-01-21,株式会社ｓｕｉｍｙａｋｕ,,株式会社,東京都,港区,南青山５丁目４－４１グラッセリア青山２階,,13,103,1070062,,,,,,,2025-01-21,1,,,,,スイミャク,0
17,1010401187673,新規,0,2025-01-21,2025-01-21,株式会社Ｔｏｔａｌ　Ｆｏｏｄｓ　Ｄｅｓｉｇｎ,,株式会社,東京都,港区,芝３丁目５番３号金子ビル１Ｆ,,13,103,1050014,,,,,,,2025-01-21,1,,,,,トータルフーズデザイン,0
19,1010405023949,新規,0,2025-01-21,2025-01-21,一般社団法人日本太陽光エネルギー推進協会,,その他の設立登記法人,東京都,港区,南青山５丁目１０番１１号第一菅谷ビル３０１,,13,103,1070062,,,,,,,2025-01-21,1,,,,,ニホンタイヨウコウエネルギースイシンキョウカイ,0
21,1010501053503,新規,0,2025-01-21,2025-01-21,大和薬品株式会社,,株式会社,東京都,台東区,上野３丁目２２番１号ＲｅＡｘｅｓ－Ｂｌｄｇ．４Ｆ,,13,106,1100005,,,,,,,2025-01-21,1,,,,,ダイワヤクヒン,0
26,1010701047107,新規,0,2025-01-21,2025-01-21,株式会社ミライマム,,株式会社,東京都,品川区,西五反田３丁目７番６号レジディアタワー目黒不動前１５０６,,13,109,1410031,,,,,,,2025-01-21,1,,,,,ミライマム,0
28,1010801035770,新規,0,2025-01-21,2025-01-21,株式会社フォレントストーリーイソベ,,株式会社,東京都,大田区,西六郷１丁目４０番１６号,,13,111,1440056,,,,,,,2025-01-21,1,,,,,フォレントストーリーイソベ,0
29,1010803005243,新規,0,2025-01-21,2025-01-21,ＪＮＤ　Ｓａｌｅｓ合同会社,,合同会社,東京都,大田区,池上４丁目２７－１４池上四丁目ビル３０１号,,13,111,1460082,,,,,,,2025-01-21,1,,,,,ジェイエヌディセールス,0
30,1010803005251,新規,0,2025-01-21,2025-01-21,ジャパンマテリアルソリューションズ合同会社,,合同会社,東京都,大田区,久が原４丁目２５－１３,,13,111,1460085,,,,,,,2025-01-21,1,,,,,ジャパンマテリアルソリューションズ,0
47,1011001167041,新規,0,2025-01-21,2025-01-21,株式会社てがる,,株式会社,東京都,渋谷区,渋谷２丁目１９番１９号ワコー宮益坂ビル５階,,13,113,1500002,,,,,,,2025-01-21,1,,,,,テガル,0
48,1011001167074,新規,0,2025-01-21,2025-01-21,ＧＳＫ株式会社,,株式会社,東京都,渋谷区,渋谷２丁目１９－１５宮益坂ビルディング６０９,,13,113,1500002,,,,,,,2025-01-21,1,,,,,ジーエスケイ,0
49,1011001167099,新規,0,2025-01-21,2025-01-21,株式会社ｂｙ　ｍ,,株式会社,東京都,渋谷区,幡ヶ谷２丁目８番９号渋谷ＵＰＪビル６階,,13,113,1510072,,,,,,,2025-01-21,1,,,,,バイエム,0
50,1011001167248,新規,0,2025-01-21,2025-01-21,ハロ株式会社,,株式会社,東京都,渋谷区,道玄坂１丁目１０番８号渋谷道玄坂東急ビル２Ｆ－Ｃ,,13,113,1500043,,,,,,,2025-01-21,1,,,,,ハロ,0
51,1011001167280,新規,0,2025-01-21,2025-01-21,株式会社Ｌｉｂｅｒｈａｕｔ,,株式会社,東京都,渋谷区,神泉町２２番３－７０１号,,13,113,1500045,,,,,,,2025-01-21,1,,,,,リバーオー,0
67,1011303005394,新規,0,2025-01-21,2025-01-21,合同会社タクミシステム,,合同会社,東京都,杉並区,上井草４丁目１番５号,,13,115,1670023,,,,,,,2025-01-21,1,,,,,タクミシステム,0
75,1011801045462,新規,0,2025-01-21,2025-01-21,株式会社中小企業経営研究所,,株式会社,東京都,足立区,西新井１丁目１－１５－６０３,,13,121,1230841,,,,,,,2025-01-21,1,,,,,チュウショウキギョウケイエイケンキュウジョ,0
92,1020001160872,新規,0,2025-01-21,2025-01-21,株式会社昌技研,,株式会社,神奈川県,横浜市戸塚区,下倉田町１７５６番地２９１,,14,110,2440815,,,,,,,2025-01-21,1,,,,,サカエギケン,0
95,1020003027533,新規,0,2025-01-21,2025-01-21,合同会社Ｔ＆Ｖ,,合同会社,神奈川県,横浜市港南区,上大岡東２丁目２１番９号２０３,,14,111,2330001,,,,,,,2025-01-21,1,,,,,ティーアンドヴィー,0
96,1020003027599,新規,0,2025-01-21,2025-01-21,１‐Ｍｉｌｅ　Ｓｏｕｎｄ　Ｃｏｎｓｕｌｔｉｎｇ合同会社,,合同会社,神奈川県,川崎市宮前区,菅生６丁目６番２４－１号,,14,136,2160015,,,,,,,2025-01-21,1,,,,,イチマイルサウンドコンサルティング,0
102,1021001084236,新規,0,2025-01-21,2025-01-21,ＢＲＡＰＵ日本株式会社,,株式会社,神奈川県,秦野市,南矢名２２２３番地の４東海ビル２０５Ａ,,14,211,2570003,,,,,,,2025-01-21,1,,,,,ビラプニホン,0
103,1021001084277,新規,0,2025-01-21,2025-01-21,株式会社ＨＩＧＨ　ＵＰ,,株式会社,神奈川県,平塚市,明石町１８番１２号,,14,203,2540042,,,,,,,2025-01-21,1,,,,,ハイアップ,0
105,1021003015486,新規,0,2025-01-21,2025-01-21,アプルサップ１２合同会社,,合同会社,神奈川県,藤沢市,鵠沼松が岡３丁目４番１６号,00137715,14,205,2510038,,,,,,,2025-01-21,1,,,,,アプルサップトゥエルブ,0
109,1030001164501,新規,0,2025-01-21,2025-01-21,株式会社トップハウス建設,,株式会社,埼玉県,川口市,三ツ和１丁目５番地の１中一ビル２階,,11,203,3340011,,,,,,,2025-01-21,1,,,,,トップハウスケンセツ,0
113,1030003025775,新規,0,2025-01-21,2025-01-21,宇宙合同会社,,合同会社,埼玉県,さいたま市桜区,南元宿１丁目３番３号元宿ストアＣ号室,,11,106,3380831,,,,,,,2025-01-21,1,,,,,ソラ,0
119,1040001137076,新規,0,2025-01-21,2025-01-21,株式会社クボ電設,,株式会社,千葉県,松戸市,高塚新田５８７番地の８６,,12,207,2702222,,,,,,,2025-01-21,1,,,,,クボデンセツ,0
120,1040001137092,新規,0,2025-01-21,2025-01-21,株式会社ＣＡＬＭＦ,,株式会社,千葉県,印西市,大森２３１７番地１,,12,231,2701327,,,,,,,2025-01-21,1,,,,,カームフ,0
121,1040003026616,新規,0,2025-01-21,2025-01-21,合同会社ＷＧ,,合同会社,千葉県,松戸市,小金上総町２２番地の３２,,12,207,2700015,,,,,,,2025-01-21,1,,,,,ダブルジー,0
122,1040003026624,新規,0,2025-01-21,2025-01-21,ＴＶＢ合同会社,,合同会社,千葉県,八千代市,大和田９２０番地４１,,12,221,2760045,,,,,,,2025-01-21,1,,,,,テビビ,0
123,1050001056044,新規,0,2025-01-21,2025-01-21,株式会社ライドリンク,,株式会社,茨城県,守谷市,松並１６０１番地１,,08,224,3020108,,,,,,,2025-01-21,1,,,,,ライドリンク,0
125,1070001042562,新規,0,2025-01-21,2025-01-21,株式会社堀内,,株式会社,群馬県,前橋市,上泉町６８２番地１７,,10,201,3710007,,,,,,,2025-01-21,1,,,,,ホリウチ,0
133,1080401027690,新規,0,2025-01-21,2025-01-21,株式会社橘不動産,,株式会社,静岡県,浜松市中央区,常盤町１３３番地の１２,,22,138,4300917,,,,,,,2025-01-21,1,,,,,タチバナフドウサン,0
144,1100001038152,新規,0,2025-01-21,2025-01-21,株式会社西澤酒店,,株式会社,長野県,長野市,川中島町四ツ屋７６番地３,,20,201,3812231,,,,,,,2025-01-21,1,,,,,ニシザワサケテン,0
156,1120001272022,新規,0,2025-01-21,2025-01-21,ａｕｒｏｒａ株式会社,,株式会社,大阪府,大阪市東住吉区,矢田４丁目９番１５－３０１号,,27,121,5460023,,,,,,,2025-01-21,1,,,,,オーロラ,0
157,1120001272071,新規,0,2025-01-21,2025-01-21,株式会社黒川商店,,株式会社,大阪府,大阪市鶴見区,鶴見１丁目６番９８号,,27,124,5380053,,,,,,,2025-01-21,1,,,,,クロカワショウテン,0
158,1120001272088,新規,0,2025-01-21,2025-01-21,松煕株式会社,,株式会社,大阪府,大阪市港区,市岡元町２丁目６番１１号１０２号室,,27,107,5520002,,,,,,,2025-01-21,1,,,,,マツキ,0
159,1120001272113,新規,0,2025-01-21,2025-01-21,株式会社Ｇ＆Ｍ,,株式会社,大阪府,大阪市中央区,大手前１丁目７番３１号ＯＭＭビル１６階Ｈ－１号室,,27,128,5400008,,,,,,,2025-01-21,1,,,,,ジーアンドエム,0
160,1120001272121,新規,0,2025-01-21,2025-01-21,株式会社スタッフホールディングス,,株式会社,大阪府,門真市,新橋町１番４号,,27,223,5710048,,,,,,,2025-01-21,1,,,,,スタッフホールディングス,0
161,1120001272179,新規,0,2025-01-21,2025-01-21,株式会社７ｕｐ,,株式会社,大阪府,大阪市中央区,西心斎橋２丁目９－３６カサドマートビル１Ｆ,,27,128,5420086,,,,,,,2025-01-21,1,,,,,セブンアップ,0
164,1120003028430,新規,0,2025-01-21,2025-01-21,合同会社ＯＵＲＬＩＦＥ,,合同会社,大阪府,大阪市淀川区,加島４丁目３番２２号,,27,123,5320031,,,,,,,2025-01-21,1,,,,,アウアライフ,0
167,1120101070929,新規,0,2025-01-21,2025-01-21,株式会社ＢｅａｕｔｙＶｅｎｕｓ,,株式会社,大阪府,泉大津市,旭町２２番６７マヒナイズミ１Ｆ,,27,206,5950025,,,,,,,2025-01-21,1,,,,,ビューティービーナス,0
168,1120101070937,新規,0,2025-01-21,2025-01-21,株式会社ＬＡＴＴＩＥ,,株式会社,大阪府,河内長野市,汐の宮町２番１６号,,27,216,5860011,,,,,,,2025-01-21,1,,,,,ラティ,0
169,1120103006245,新規,0,2025-01-21,2025-01-21,ＴＵＭＵＧＩ合同会社,,合同会社,大阪府,松原市,天美北２丁目９番１８号,,27,217,5800031,,,,,,,2025-01-21,1,,,,,ツムギ,0
171,1120901050320,新規,0,2025-01-21,2025-01-21,株式会社ＪＥＷＥＬＲＹ陽善,,株式会社,大阪府,高槻市,奈佐原２丁目１４番１５－３１０号,,27,207,5691041,,,,,,,2025-01-21,1,,,,,ジュエリーハルゼン,0
172,1120903005512,新規,0,2025-01-21,2025-01-21,Ａｏｇｉｒｉ　Ｆｏｒｅｓｔ合同会社,,合同会社,大阪府,吹田市,青葉丘北７番２号,,27,205,5650801,,,,,,,2025-01-21,1,,,,,アオギリフォレスト,0
173,1120905006673,新規,0,2025-01-21,2025-01-21,一般社団法人なごみ会,,その他の設立登記法人,大阪府,摂津市,一津屋３丁目８番２－９号,,27,224,5660043,,,,,,,2025-01-21,1,,,,,ナゴミカイ,0
174,1122001038808,新規,0,2025-01-21,2025-01-21,株式会社ＭＩＨＡＹＡ,,株式会社,大阪府,八尾市,久宝園２丁目４４番地の１シャーメゾン綺羅２０３号,,27,212,5810817,,,,,,,2025-01-21,1,,,,,ミハヤ,0
175,1122001038816,新規,0,2025-01-21,2025-01-21,株式会社Ｒｅｖｉｖｅ,,株式会社,大阪府,八尾市,高美町１丁目４番２１号２Ｆ,,27,212,5810017,,,,,,,2025-01-21,1,,,,,リバイブ,0
179,1130001078807,新規,0,2025-01-21,2025-01-21,如齋株式会社,,株式会社,京都府,京都市右京区,山ノ内北ノ口町１９番地１－４Ｆ,,26,108,6150094,,,,,,,2025-01-21,1,,,,,ジョサイ,0
180,1130001078831,新規,0,2025-01-21,2025-01-21,ＭｉｇａｋＵコンサルティングオフィス株式会社,,株式会社,京都府,向日市,寺戸町北野１番地の１０,,26,208,6170002,,,,,,,2025-01-21,1,,,,,ミガクコンサルティングオフィス,0
181,1130003010148,新規,0,2025-01-21,2025-01-21,ＲａｂｂｉｔＲｏａｄコンサル合同会社,,合同会社,京都府,宇治市,六地蔵柿ノ木町１７番地１プレアール京都六地蔵２０６号室,,26,204,6110001,,,,,,,2025-01-21,1,,,,,ラビットロードコンサル,0
182,1130003010156,新規,0,2025-01-21,2025-01-21,合同会社観芙,,合同会社,京都府,相楽郡精華町,大字山田小字下条９１番地２,,26,366,6190231,,,,,,,2025-01-21,1,,,,,ミフ,0
192,1140001137132,新規,0,2025-01-21,2025-01-21,株式会社西日本設備,,株式会社,兵庫県,神戸市兵庫区,松原通５丁目１番１号,,28,105,6520881,,,,,,,2025-01-21,1,,,,,ニシニホンセツビ,0
194,1140003021557,新規,0,2025-01-21,2025-01-21,アミセックジャパン合同会社,,合同会社,兵庫県,西宮市,若松町６番１０号,,28,204,6620035,,,,,,,2025-01-21,1,,,,,アミセックジャパン,0
195,1140005027354,新規,0,2025-01-21,2025-01-21,一般社団法人カムカムコウベ,,その他の設立登記法人,兵庫県,神戸市灘区,篠原北町３丁目１１番１５号,,28,102,6570068,,,,,,,2025-01-21,1,,,,,カムカムコウベ,0
211,1180001165030,新規,0,2025-01-21,2025-01-21,株式会社アールＰＰ,,株式会社,愛知県,名古屋市中区,大須２丁目３０番６号,,23,106,4600011,,,,,,,2025-01-21,1,,,,,アールピーピー,0
212,1180001165055,新規,0,2025-01-21,2025-01-21,Ｓ．Ｎ　ＣＡＲＥ株式会社,,株式会社,愛知県,岩倉市,東町掛目１２４サープラス３石黒Ｂ棟１０３号,,23,228,4820041,,,,,,,2025-01-21,1,,,,,エスエヌケア,0
213,1180001165063,新規,0,2025-01-21,2025-01-21,株式会社ＹＭＤ,,株式会社,愛知県,名古屋市西区,児玉２丁目１１番１号,,23,104,4510066,,,,,,,2025-01-21,1,,,,,ワイエムディー,0
219,1180005020917,新規,0,2025-01-21,2025-01-21,一般社団法人Ｍａｊｌｉｓ　Ａｎｓａｒｕｌｌａｈ　Ｊａｐａｎ,,その他の設立登記法人,愛知県,津島市,蛭間町字宮重５２６番地１,,23,208,4960004,,,,,,,2025-01-21,1,,,,,マジョリスアンサルーラージャパン,0
224,1200001043349,新規,0,2025-01-21,2025-01-21,株式会社創志工業,,株式会社,岐阜県,可児市,今渡２２８７番地１,,21,214,5090207,,,,,,,2025-01-21,1,,,,,ソウシコウギョウ,0
225,1200001043357,新規,0,2025-01-21,2025-01-21,株式会社ＮＧＴオーガナイゼーション,,株式会社,岐阜県,岐阜市,東金宝町１丁目１５番地５１５号,,21,201,5008167,,,,,,,2025-01-21,1,,,,,エヌジーティーオーガナイゼーション,0
228,1200003006667,新規,0,2025-01-21,2025-01-21,合同会社ねぎたん屋,,合同会社,岐阜県,岐阜市,東栄町３丁目１番地５,,21,201,5008144,,,,,,,2025-01-21,1,,,,,ネギタンヤ,0
232,1220001026434,新規,0,2025-01-21,2025-01-21,株式会社みすぎ建設,,株式会社,石川県,金沢市,小坂町北７番地２,,17,201,9200811,,,,,,,2025-01-21,1,,,,,ミスギケンセツ,0
233,1220001026442,新規,0,2025-01-21,2025-01-21,株式会社Ｈｉｂｉｍｉｃｈｉ,,株式会社,石川県,金沢市,鈴見台４丁目１０－１３,,17,201,9201161,,,,,,,2025-01-21,1,,,,,ヒビミチ,0
241,1270001009129,新規,0,2025-01-21,2025-01-21,株式会社西村木材,,株式会社,鳥取県,米子市,旗ヶ崎４丁目３番４１号,,31,202,6830845,,,,,,,2025-01-21,1,,,,,ニシムラモクザイ,0
258,1340001027065,新規,0,2025-01-21,2025-01-21,株式会社水制御テック,,株式会社,鹿児島県,鹿児島市,本名町５１６番地９,,46,201,8911304,,,,,,,2025-01-21,1,,,,,ミズセイギョテック,0
259,1340003004723,新規,0,2025-01-21,2025-01-21,合同会社信倫,,合同会社,鹿児島県,鹿児島市,原良７丁目３４番１号,,46,201,8900026,,,,,,,2025-01-21,1,,,,,シンリン,0
262,1360001034679,新規,0,2025-01-21,2025-01-21,株式会社ＣＯＮＴＯＵＲ,,株式会社,沖縄県,那覇市,牧志２丁目１７番２７号,,47,201,9000013,,,,,,,2025-01-21,1,,,,,コントゥア,0
263,1360003014605,新規,0,2025-01-21,2025-01-21,合同会社ＴＭフーズ,,合同会社,沖縄県,那覇市,宮城１丁目１６番１２号,,47,201,9010147,,,,,,,2025-01-21,1,,,,,ティーエムフーズ,0
266,1370001052143,新規,0,2025-01-21,2025-01-21,株式会社Ｐａｒａｌｌｅｌ　Ｃｒｅａｔｉｏｎ’ｓ,,株式会社,宮城県,白石市,大平中目字威徳寺前２４－４,00137717,04,206,9890216,,,,,,,2025-01-21,1,,,,,パラレルクリエイションズ,0
267,1370001052151,新規,0,2025-01-21,2025-01-21,株式会社ニード,,株式会社,宮城県,仙台市青葉区,一番町２丁目６番１号シティハウス一番町中央２Ｆ,,04,101,9800811,,,,,,,2025-01-21,1,,,,,ニード,0
268,1370003006898,新規,0,2025-01-21,2025-01-21,合同会社Ｆｏｒ　Ｂｅｔ,,合同会社,宮城県,仙台市宮城野区,二の森１２番３０－１０１号,,04,102,9830838,,,,,,,2025-01-21,1,,,,,フォーベット,0
272,1400001016912,新規,0,2025-01-21,2025-01-21,株式会社いろどり,,株式会社,岩手県,和賀郡西和賀町,沢内字貝沢４地割６９－１,,03,366,0295703,,,,,,,2025-01-21,1,,,,,イロドリ,0
276,1430001093478,新規,0,2025-01-21,2025-01-21,株式会社ゼロ,,株式会社,北海道,室蘭市,宮の森町２丁目１０６番地９,,01,205,0500073,,,,,,,2025-01-21,1,,,,,ゼロ,0
279,1450005004438,新規,0,2025-01-21,2025-01-21,特定非営利活動法人いろはにこんぺいとう,,その他の設立登記法人,北海道,旭川市,緑が丘二条１丁目２番地の１９,,01,204,0788302,,,,,,,2025-01-21,1,,,,,イロハニコンペイトウ,0
288,1490001010948,新規,0,2025-01-21,2025-01-21,株式会社希建設,,株式会社,高知県,南国市,緑ケ丘１丁目１１１０番地ウェルネスハイツ１０３,,39,204,7830086,,,,,,,2025-01-21,1,,,,,,0
289,1500001026100,新規,0,2025-01-21,2025-01-21,リノシッピングエージェンシーズ株式会社,,株式会社,愛媛県,西条市,大町７２５番地４石川マンションＩ１０８号,00137712,38,206,7930030,,,,,,,2025-01-21,1,,,,,リノシッピングエージェンシーズ,0
292,1700150128866,新規,0,2025-01-21,2025-01-21,ＺＨＩＸＩＮ　ＧＯＮＧＹＩＮＧＬＩＡＮ　ＧＵＡＮＬＩ　ＨＵＩＺＨＯＵ　ＹＯＵＸＩＡＮ　ＧＯＮＧＳＩ,,外国会社等,,,,,,,,１ｓｔ　Ｆｌｏｏｒ，Ｎｏ．２，Ｗｅｓｔ　２ｎｄ　Ｌａｎｅ，Ｇｕｈｕ　Ｒｏａｄ，Ｃｈｅｎｊｉａｎｇ　Ｓｔｒｅｅｔ，Ｚｈｏｎｇｋａｉ　Ｈｉｇｈ－ｔｅｃｈ　Ｚｏｎｅ，Ｈｕｉｚｈｏｕ　Ｃｉｔｙ，Ｇｕａｎｇｄｏｎｇ　Ｐｒｏｖｉｎｃｅ,,,,,,2025-01-21,1,,,,,ジーシンゴンインリエングワンリーフイジョウヨウシエンゴンスー,0
293,1700150128874,新規,0,2025-01-21,2025-01-21,ｔａｏｔａｏｂｕｊｕｅｂｅｉｊｉｎｇｄｉａｎｚｉｓｈａｎｇｗｕｙｏｕｘｉａｎｇｏｎｇｓｉ,,外国会社等,,,,,,,,ｂｅｉｊｉｎｇｓｈｉｃｈａｏｙａｎｇｑｕｚｈａｏｙａｎｇｌｕ７１ｈａｏ１３ｃｅｎｇ１６０２,,,,,,2025-01-21,1,,,,,タオタオブージュエベイジンディエンズーシャンウーヨウシエンゴンスー,0
306,2010401187581,新規,0,2025-01-21,2025-01-21,株式会社ボルクラフト,,株式会社,東京都,港区,北青山１丁目３番１号アールキューブ青山３階,,13,103,1070061,,,,,,,2025-01-21,1,,,,,ボルクラフト,0
307,2010401187648,新規,0,2025-01-21,2025-01-21,株式会社Ｍ,,株式会社,東京都,港区,六本木６丁目１０番１号六本木ヒルズ森タワー２３階,,13,103,1060032,,,,,,,2025-01-21,1,,,,,エム,0
313,2010701047097,新規,0,2025-01-21,2025-01-21,株式会社ビックジャパン,,株式会社,東京都,品川区,西品川１丁目１番１号住友不動産大崎ガーデンタワー９階トンネル東京,,13,109,1410033,,,,,,,2025-01-21,1,,,,,ビックジャパン,0
323,2011001167024,新規,0,2025-01-21,2025-01-21,株式会社ＭＴＮ,,株式会社,東京都,渋谷区,幡ヶ谷２丁目３３－７－８０２,,13,113,1510072,,,,,,,2025-01-21,1,,,,,エムティーエヌ,0
324,2011001167040,新規,0,2025-01-21,2025-01-21,株式会社ゾーンプレス,,株式会社,東京都,渋谷区,道玄坂１丁目１６番６号二葉ビル８ｂ,,13,113,1500043,,,,,,,2025-01-21,1,,,,,ゾーンプレス,0
326,2011003020783,新規,0,2025-01-21,2025-01-21,合同会社Ｓ．Ｋ．Ｃ,,合同会社,東京都,渋谷区,渋谷２丁目１９－１５宮益坂ビルディング６０９,,13,113,1500002,,,,,,,2025-01-21,1,,,,,,0
327,2011003020833,新規,0,2025-01-21,2025-01-21,Ｅｎｄｏ＆Ｋｏｃｈ合同会社,,合同会社,東京都,渋谷区,道玄坂１丁目１０番８号渋谷道玄坂東急ビル２Ｆ―Ｃ,,13,113,1500043,,,,,,,2025-01-21,1,,,,,エンドウアンドコッホ,0
337,2011301030303,新規,0,2025-01-21,2025-01-21,ＨＡＮＡＬＡＮＤ株式会社,,株式会社,東京都,杉並区,井草１丁目１１－１４サエラ井草２０２,,13,115,1670021,,,,,,,2025-01-21,1,,,,,ハナランド,0
339,2011501031596,新規,0,2025-01-21,2025-01-21,株式会社ＲＥＩ,,株式会社,東京都,荒川区,荒川７丁目２０番１号,,13,118,1160002,,,,,,,2025-01-21,1,,,,,アールイーアイ,0
346,2011801045478,新規,0,2025-01-21,2025-01-21,株式会社山祥,,株式会社,東京都,葛飾区,東金町３丁目１７番１０号ＫＢＳ－Ｆ－１４号,,13,122,1250041,,,,,,,2025-01-21,1,,,,,ヤマショウ,0
358,2020001160847,新規,0,2025-01-21,2025-01-21,株式会社ホトスル,,株式会社,神奈川県,横浜市都筑区,北山田７丁目４番６号,,14,118,2240021,,,,,,,2025-01-21,1,,,,,ホトスル,0
359,2020001160871,新規,0,2025-01-21,2025-01-21,株式会社横浜インテリアサポートセンター,,株式会社,神奈川県,横浜市中区,相生町２丁目５２泰生ポーチ４０３号室,,14,104,2310012,,,,,,,2025-01-21,1,,,,,ヨコハマインテリアサポートセンター,0
360,2020001160921,新規,0,2025-01-21,2025-01-21,株式会社エメリート．,,株式会社,神奈川県,横浜市都筑区,東山田２丁目２８番５号,,14,118,2240023,,,,,,,2025-01-21,1,,,,,エメリート,0
363,2020003027549,新規,0,2025-01-21,2025-01-21,合同会社ＯＬＬＩＥ,,合同会社,神奈川県,横浜市旭区,上川井町２０５８番地５２,,14,112,2410802,,,,,,,2025-01-21,1,,,,,オーリー,0
369,2021001084268,新規,0,2025-01-21,2025-01-21,Ｌｉｎｋｓ株式会社,,株式会社,神奈川県,厚木市,毛利台２丁目３－１０,,14,212,2430037,,,,,,,2025-01-21,1,,,,,リンクス,0
377,2030003025907,新規,0,2025-01-21,2025-01-21,Ｆｏｒｏｄｉｎ合同会社,,合同会社,埼玉県,東松山市,大字東平１２６６番地５,,11,212,3550002,,,,,,,2025-01-21,1,,,,,フォロディン,0
383,2040001136952,新規,0,2025-01-21,2025-01-21,株式会社アトラス,,株式会社,千葉県,市川市,塩焼３丁目２１番５号（エスポワール参番館１０２号）,,12,203,2720114,,,,,,,2025-01-21,1,,,,,アトラス,0
384,2040001137075,新規,0,2025-01-21,2025-01-21,株式会社ＳＯＳＨＵ．,,株式会社,千葉県,千葉市中央区,花輪町４６番地１８１,,12,101,2600803,,,,,,,2025-01-21,1,,,,,ソウシュウ,0
385,2040001137091,新規,0,2025-01-21,2025-01-21,株式会社ＡＩｐｏｓｓ,,株式会社,千葉県,松戸市,馬橋２２７６番地の１,,12,207,2710051,,,,,,,2025-01-21,1,,,,,アイポス,0
394,2050001056043,新規,0,2025-01-21,2025-01-21,ＥＴＨＣ株式会社,,株式会社,茨城県,水戸市,酒門町４３１２－３酒門工場（７）１０１,,08,201,3100841,,,,,,,2025-01-21,1,,,,,イスン,0
397,2050003008950,新規,0,2025-01-21,2025-01-21,フェイタルベイル合同会社,,合同会社,茨城県,行方市,繁昌８０４番地,,08,233,3111712,,,,,,,2025-01-21,1,,,,,フェイタルベイル,0
398,2070001042545,新規,0,2025-01-21,2025-01-21,株式会社維創金型工業,,株式会社,群馬県,桐生市,境野町７丁目１８６３番地５,,10,203,3760002,,,,,,,2025-01-21,1,,,,,イソウカナガタコウギョウ,0
404,2090001019104,新規,0,2025-01-21,2025-01-21,株式会社土地のはなわ,,株式会社,山梨県,甲斐市,万才３５０番地２,,19,210,4000114,,,,,,,2025-01-21,1,,,,,トチノハナワ,0
414,2100005013282,新規,0,2025-01-21,2025-01-21,一般社団法人信大ＢＳ８‐９協議会,,その他の設立登記法人,長野県,伊那市,西箕輪２７２７番地２,,20,209,3994501,,,,,,,2025-01-21,1,,,,,シンダイビーエスハチノキュウキョウギカイ,0
434,2120001272021,新規,0,2025-01-21,2025-01-21,株式会社ライズ・アカウンティング,,株式会社,大阪府,大阪市中央区,道修町２丁目２番１４号ＪＵＳＴＩＣＥ北浜,,27,128,5410045,,,,,,,2025-01-21,1,,,,,ライズアカウンティング,0
435,2120001272070,新規,0,2025-01-21,2025-01-21,株式会社ｔｒｉｌｌｉｏｎｘ,,株式会社,大阪府,大阪市北区,梅田１丁目２番２号大阪駅前第２ビル１２－１２,,27,127,5300001,,,,,,,2025-01-21,1,,,,,トリリオン,0
436,2120001272145,新規,0,2025-01-21,2025-01-21,株式会社Ｐｉｓｃｏ,,株式会社,大阪府,大阪市北区,梅田１丁目２番２号大阪駅前第２ビル１２－１２,,27,127,5300001,,,,,,,2025-01-21,1,,,,,ピスコ,0
437,2120001272178,新規,0,2025-01-21,2025-01-21,株式会社Ｂ．Ｓ．Ｔ,,株式会社,大阪府,大阪市中央区,南船場１丁目１５番５号ミストラビル１Ｆ,,27,128,5420081,,,,,,,2025-01-21,1,,,,,ビーエスティー,0
439,2120003028388,新規,0,2025-01-21,2025-01-21,コズモス合同会社,,合同会社,大阪府,大阪市中央区,谷町６丁目５番５－１２０６号ローレルアイ谷町六丁目,,27,128,5420012,,,,,,,2025-01-21,1,,,,,コズモス,0
440,2120003028413,新規,0,2025-01-21,2025-01-21,リカヒス合同会社,,合同会社,大阪府,大阪市北区,曾根崎２丁目１－６太洋ビル２階,,27,127,5300057,,,,,,,2025-01-21,1,,,,,リカヒス,0
441,2120003028421,新規,0,2025-01-21,2025-01-21,東緲合同会社,,合同会社,大阪府,大阪市住吉区,杉本２丁目１番３５号,,27,120,5580022,,,,,,,2025-01-21,1,,,,,トウビョウ,0
442,2120003028438,新規,0,2025-01-21,2025-01-21,合同会社藍,,合同会社,大阪府,大阪市住吉区,沢之町２丁目５番２７号ロイヤルレジデンス住吉沢之町ＰａｒｔＩ３０１号,00137716,27,120,5580031,,,,,,,2025-01-21,1,,,,,アオイ,0
443,2120005024732,新規,0,2025-01-21,2025-01-21,医療法人一誠会,,その他の設立登記法人,大阪府,大阪市平野区,長吉六反４丁目６番１３号長吉六反クリニックビル２階,,27,126,5470012,,,,,,,2025-01-21,1,,,,,イッセイカイ,0
449,2130001078789,新規,0,2025-01-21,2025-01-21,Ｈｅｔｅｒｏ　Ｆｕｓｉｏｎ株式会社,,株式会社,京都府,京都市下京区,朱雀宝蔵町４４番地協栄ビル２階京都朱雀スタジオ,,26,106,6008846,,,,,,,2025-01-21,1,,,,,ヘテロフュージョン,0
450,2130001078822,新規,0,2025-01-21,2025-01-21,株式会社ＡＣＳＡ,,株式会社,京都府,京都市左京区,下鴨宮崎町１１９番地１,,26,103,6060802,,,,,,,2025-01-21,1,,,,,エーシーエスエー,0
456,2140001137024,新規,0,2025-01-21,2025-01-21,株式会社ファーストホーム,,株式会社,兵庫県,尼崎市,浜田町２丁目６５番地の３,,28,202,6600062,,,,,,,2025-01-21,1,,,,,ファーストホーム,0
460,2150001027827,新規,0,2025-01-21,2025-01-21,株式会社Ｐｒｏｇｒｅｓｓ,,株式会社,奈良県,生駒郡三郷町,立野南２丁目６番５号,,29,343,6360822,,,,,,,2025-01-21,1,,,,,プログレス,0
470,2180001165062,新規,0,2025-01-21,2025-01-21,株式会社未來,,株式会社,愛知県,名古屋市北区,新堀町３５番地の５ラ・メゾンパシフィック新堀町１０１,,23,103,4620801,,,,,,,2025-01-21,1,,,,,ミライ,0
471,2180001165079,新規,0,2025-01-21,2025-01-21,株式会社ＬＡＶＩＥ,,株式会社,愛知県,名古屋市名東区,明が丘２８番地の２アスカビル１０２号,,23,115,4650033,,,,,,,2025-01-21,1,,,,,ラヴィー,0
480,2180003027896,新規,0,2025-01-21,2025-01-21,合同会社ケアハンド,,合同会社,愛知県,一宮市,小信中島字郷北３３１１番地１,,23,203,4940007,,,,,,,2025-01-21,1,,,,,ケアハンド,0
484,2180301039445,新規,0,2025-01-21,2025-01-21,株式会社ピカブ・ジャパン,,株式会社,愛知県,岡崎市,橋目町字勘介屋敷７５番地２オフィスユリオウ２０２,,23,202,4440908,,,,,,,2025-01-21,1,,,,,ピカブジャパン,0
486,2200001043356,新規,0,2025-01-21,2025-01-21,株式会社ＥｉｒＦｏｒＵ,,株式会社,岐阜県,岐阜市,日置江３丁目６６番地１,,21,201,5016133,,,,,,,2025-01-21,1,,,,,エイルフォーユー,0
488,2200003006666,新規,0,2025-01-21,2025-01-21,合同会社ハートフル・ネットワーク,,合同会社,岐阜県,岐阜市,下奈良３丁目３番５号,,21,201,5008385,,,,,,,2025-01-21,1,,,,,ハートフルネットワーク,0
492,2240001064407,新規,0,2025-01-21,2025-01-21,エイシン通商株式会社,,株式会社,広島県,福山市,曙町１丁目８番２号,,34,207,7210952,,,,,,,2025-01-21,1,,,,,エイシンツウショウ,0
498,2260001039828,新規,0,2025-01-21,2025-01-21,株式会社成遂建設,,株式会社,岡山県,津山市,小田中９８２番地８,,33,203,7080006,,,,,,,2025-01-21,1,,,,,ナルトケンセツ,0
500,2260003005035,新規,0,2025-01-21,2025-01-21,合同会社いろはにほへと,,合同会社,岡山県,岡山市北区,首部３３２番地１ピュアパルク津島西４０１号,,33,101,7011201,,,,,,,2025-01-21,1,,,,,イロハニホヘト,0
501,2270001009128,新規,0,2025-01-21,2025-01-21,エンビト株式会社,,株式会社,鳥取県,西伯郡日吉津村,大字日吉津２１８番地６,,31,384,6893553,,,,,,,2025-01-21,1,,,,,エンビト,0
506,2290001108704,新規,0,2025-01-21,2025-01-21,ワイエスプランニング株式会社,,株式会社,福岡県,福岡市早良区,野芥８丁目２５－１１,,40,137,8140171,,,,,,,2025-01-21,1,,,,,ワイエスプランニング,0
508,2290003016310,新規,0,2025-01-21,2025-01-21,合同会社Ｌａｇｏｍ,,合同会社,福岡県,大牟田市,本町４丁目８番地６コスモスコート５０３号,,40,202,8360046,,,,,,,2025-01-21,1,,,,,ラーゴム,0
509,2290801031205,新規,0,2025-01-21,2025-01-21,株式会社エイユウ工業,,株式会社,福岡県,北九州市若松区,東二島３丁目１０番３５号,,40,103,8080102,,,,,,,2025-01-21,1,,,,,エイユウコウギョウ,0
511,2300001014058,新規,0,2025-01-21,2025-01-21,株式会社葡萄の木,,株式会社,佐賀県,佐賀市,鍋島町大字八戸溝２１４番地７,,41,201,8490932,,,,,,,2025-01-21,1,,,,,ブドウノキ,0
515,2320003004559,新規,0,2025-01-21,2025-01-21,合同会社平洋,,合同会社,大分県,日田市,元町１９番２５号,,44,204,8770013,,,,,,,2025-01-21,1,,,,,ヘイヨウ,0
518,2340003004722,新規,0,2025-01-21,2025-01-21,合同会社クリエイトケア,,合同会社,鹿児島県,枕崎市,中央町８２５番地,,46,204,8980051,,,,,,,2025-01-21,1,,,,,クリエイトケア,0
519,2340005009802,新規,0,2025-01-21,2025-01-21,労働者協同組合かごしま,,その他の設立登記法人,鹿児島県,鹿屋市,王子町４１４６番地１,,46,203,8930012,,,,,,,2025-01-21,1,,,,,カゴシマ,0
524,2360001034686,新規,0,2025-01-21,2025-01-21,株式会社ｙｏｋａｔｔａ,,株式会社,沖縄県,名護市,字宮里１００４番地,,47,209,9050011,,,,,,,2025-01-21,1,,,,,ヨカッタ,0
527,2360003014612,新規,0,2025-01-21,2025-01-21,ａｒｏｍａｎｏ合同会社,,合同会社,沖縄県,那覇市,久茂地２丁目１３－１４－２Ｆ,,47,201,9000015,,,,,,,2025-01-21,1,,,,,アロマノ,0
531,2370005010897,新規,0,2025-01-21,2025-01-21,医療法人社団誠和会,,その他の設立登記法人,宮城県,岩沼市,中央２丁目４番１１号,,04,211,9892432,,,,,,,2025-01-21,1,,,,,シャダンセイワカイ,0
533,2390003002333,新規,0,2025-01-21,2025-01-21,合同会社Ｍｅｄｉｖｅｒｙ,,合同会社,山形県,寒河江市,七日町５番１号,,06,206,9910022,,,,,,,2025-01-21,1,,,,,メディバリー,0
536,2430001093502,新規,0,2025-01-21,2025-01-21,株式会社アイビックソリューションズ,,株式会社,北海道,札幌市東区,北十条東１丁目１番１１号,,01,103,0650010,,,,,,,2025-01-21,1,,,,,アイビックソリューションズ,0
559,2500001026099,新規,0,2025-01-21,2025-01-21,株式会社ｐａｚｕｌｕ,,株式会社,愛媛県,今治市,神宮甲１４６－４,,38,202,7940074,,,,,,,2025-01-21,1,,,,,パズル,0
560,2700150128865,新規,0,2025-01-21,2025-01-21,ＨＥ　ＢＥＩ　ＡＩ　ＬＩＮ　ＪＩＡＮ　ＣＡＩ　ＹＯＵ　ＸＩＡＮ　ＧＯＮＧ　ＳＩ,,外国会社等,,,,,,,,ＡＮ　ＰＩＮＧ　ＸＩＡＮ　ＧＡＯ　ＸＩＮ　ＱＵ　ＪＩＮＧ　ＷＵ　ＬＵ　１２　ＨＡＯ,,,,,,2025-01-21,1,,,,,ホーベイアイリンジエンツァイヨウシエンゴンスー,0
561,2700150128873,新規,0,2025-01-21,2025-01-21,ＳＨＥＮＺＨＥＮ　ＱＵＮＹＩ　ＣＬＯＵＤ　ＩＮＴＥＬＬＩＧＥＮＣＥ　ＴＥＣＨＮＯＬＯＧＹ　ＣＯ．，ＬＴＤ,,外国会社等,,,,,,,,Ｇｕａｎｇｄｏｎｇ　Ｓｈｅｎｚｈｅｎ　Ｌｏｎｇｇａｎｇ　６０１，Ｂｕｉｌｄｉｎｇ　２，１９７０　Ｓｃｉｅｎｃｅ　ａｎｄ　Ｔｅｃｈｎｏｌｏｇｙ　Ｐａｒｋ，Ｍｉｎｋａｎｇ　Ｃｏｍｍｕｎｉｔｙ，Ｍｉｎｚｈｉ　Ｓｔｒｅｅｔ，Ｌｏｎｇｈｕａ　Ｄｉｓｔｒｉｃｔ,,,,,,2025-01-21,1,,,,,シェンジェンシーチンイーインジーノンコージーヨウシエンゴンスー,0
566,3010001251497,新規,0,2025-01-21,2025-01-21,株式会社ｋａｊｕｒｅ,,株式会社,東京都,中央区,銀座１丁目２２番１１号銀座大竹ビジデンス２階,,13,102,1040061,,,,,,,2025-01-21,1,,,,,カジュレ,0
567,3010001251539,新規,0,2025-01-21,2025-01-21,Ｔｏｗａｒｄ　Ｃｒｅａｔｉｏｎ株式会社,,株式会社,東京都,中央区,銀座１丁目１２番４号Ｎ＆ＥＢＬＤ．６Ｆ,,13,102,1040061,,,,,,,2025-01-21,1,,,,,トワードクリエーション,0
582,3010503007703,新規,0,2025-01-21,2025-01-21,オブノ合同会社,,合同会社,東京都,台東区,根津１－２１－６,,13,106,1100000,,,,,,,2025-01-21,1,,,,,オブノ,0
585,3010701047055,新規,0,2025-01-21,2025-01-21,株式会社アベルタ,,株式会社,東京都,品川区,東五反田２丁目２１－１１ＤＩＫ五反田マンション３１２号室,,13,109,1410022,,,,,,,2025-01-21,1,,,,,アベルタ,0
596,3011001167015,新規,0,2025-01-21,2025-01-21,株式会社ライタリウム,,株式会社,東京都,渋谷区,恵比寿西２丁目４番８号ウィンド恵比寿ビル８Ｆ,,13,113,1500021,,,,,,,2025-01-21,1,,,,,ライタリウム,0
597,3011001167106,新規,0,2025-01-21,2025-01-21,株式会社ＳＡＬＴ,,株式会社,東京都,目黒区,下目黒１丁目１番１４号コノトラビル７Ｆ,,13,110,1530064,,,,,,,2025-01-21,1,,,,,ソルト,0
598,3011001167279,新規,0,2025-01-21,2025-01-21,ユニバースブリッジキャピタル株式会社,,株式会社,東京都,目黒区,中央町１丁目１２番１６号サンティエ目黒１０１,,13,110,1520001,,,,,,,2025-01-21,1,,,,,ユニバースブリッジキャピタル,0
599,3011003020799,新規,0,2025-01-21,2025-01-21,合同会社Ｓｏｌｖａｎｃｅ,,合同会社,東京都,渋谷区,渋谷２丁目１９番地１５宮益坂ビルディング６０９,,13,113,1500002,,,,,,,2025-01-21,1,,,,,ソルバンス,0
604,3011101110337,新規,0,2025-01-21,2025-01-21,ＭＯＢＩＤＯＯ　ＪＡＰＡＮ株式会社,,株式会社,東京都,新宿区,新宿１丁目９番４号,,13,104,1600022,,,,,,,2025-01-21,1,,,,,モビドジャパン,0
607,3011301030293,新規,0,2025-01-21,2025-01-21,株式会社ｍｅｏｗｓ,,株式会社,東京都,杉並区,和泉２丁目３９番１６号アイルプレミアム笹塚ウエスト４０５,,13,115,1680063,,,,,,,2025-01-21,1,,,,,ミューズ,0
608,3011301030302,新規,0,2025-01-21,2025-01-21,株式会社ブランドブリッジ東京,,株式会社,東京都,杉並区,方南２丁目２５番１７号,,13,115,1680062,,,,,,,2025-01-21,1,,,,,ブランドブリッジトウキョウ,0
610,3011403004600,新規,0,2025-01-21,2025-01-21,ネクストブリッジ合同会社,,合同会社,東京都,板橋区,前野町５丁目２３－１－４０８,,13,119,1740063,,,,,,,2025-01-21,1,,,,,ネクストブリッジ,0
618,3011603004581,新規,0,2025-01-21,2025-01-21,ツムギカンパニー合同会社,,合同会社,東京都,練馬区,練馬４丁目１８番１９－１２０３号,,13,120,1760001,,,,,,,2025-01-21,1,,,,,ツムギカンパニー,0
621,3011701027988,新規,0,2025-01-21,2025-01-21,株式会社大翔,,株式会社,東京都,江戸川区,松島４丁目４６番１４号Ｓｕｐｒｅｍｅ新小岩６０４号室,,13,123,1320031,,,,,,,2025-01-21,1,,,,,ヤマト,0
625,3012301014229,新規,0,2025-01-21,2025-01-21,株式会社Ｍ＆Ｋ　Ｃｒｅａｔｉｏｎｓ,,株式会社,東京都,町田市,旭町２丁目２番２６号旭町ティーエスベイ３０５,,13,209,1940023,,,,,,,2025-01-21,1,,,,,エムアンドケイクリエーションズ,0
635,3020001160895,新規,0,2025-01-21,2025-01-21,株式会社マロンズ,,株式会社,神奈川県,横浜市鶴見区,鶴見中央１丁目３番１８号三富ビル３階,,14,101,2300051,,,,,,,2025-01-21,1,,,,,マロンズ,0
641,3021005013263,新規,0,2025-01-21,2025-01-21,一般社団法人ＭｉｌｋｙＷａｙ,,その他の設立登記法人,神奈川県,小田原市,寿町５丁目１６番１３号,,14,206,2500002,,,,,,,2025-01-21,1,,,,,ミルキーウェイ,0
656,3030001164508,新規,0,2025-01-21,2025-01-21,株式会社ＥＤＵＣＥ,,株式会社,埼玉県,さいたま市大宮区,桜木町１丁目３４０番地７０３号,,11,103,3300854,,,,,,,2025-01-21,1,,,,,エデュース,0
664,3030003025906,新規,0,2025-01-21,2025-01-21,合同会社Ｂｅｌｌ　Ｇａｔｅ　Ｇａｒｄｅｎ,,合同会社,埼玉県,川口市,戸塚南５丁目２３番２４号,,11,203,3330817,,,,,,,2025-01-21,1,,,,,ベルゲートガーデン,0
669,3040001137074,新規,0,2025-01-21,2025-01-21,株式会社川島新聞店,,株式会社,千葉県,船橋市,習志野台６丁目２５番１８号,,12,204,2740063,,,,,,,2025-01-21,1,,,,,カワシマシンブンテン,0
674,3040003026655,新規,0,2025-01-21,2025-01-21,合同会社リラックスモータース,,合同会社,千葉県,山武市,木原１０７５,,12,237,2891212,,,,,,,2025-01-21,1,,,,,リラックスモータース,0
680,3050003008958,新規,0,2025-01-21,2025-01-21,合同会社クラフトカイゴ,,合同会社,茨城県,筑西市,関本上１３７４番地４,,08,227,3080122,,,,,,,2025-01-21,1,,,,,クラフトカイゴ,0
682,3060001037842,新規,0,2025-01-21,2025-01-21,アップライズ株式会社,,株式会社,栃木県,宇都宮市,陽東３丁目１２番１２号,,09,201,3210904,,,,,,,2025-01-21,1,,,,,アップライズ,0
684,3070001042560,新規,0,2025-01-21,2025-01-21,株式会社ＷＰＬ研究室,,株式会社,群馬県,高崎市,萩原町４８６番地７,,10,202,3700013,,,,,,,2025-01-21,1,,,,,ダブリュウピーエルケンキュウシツ,0
686,3080001026728,新規,0,2025-01-21,2025-01-21,株式会社ａｎｃａｒ,,株式会社,静岡県,静岡市駿河区,東新田２丁目２番２２－１号,,22,102,4210112,,,,,,,2025-01-21,1,,,,,アンカー,0
689,3080105006477,新規,0,2025-01-21,2025-01-21,一般社団法人ＲｅＨｅａｒｔ,,その他の設立登記法人,静岡県,伊豆市,柏久保６２１－１７,,22,222,4102407,,,,,,,2025-01-21,1,,,,,,0
696,3090001019103,新規,0,2025-01-21,2025-01-21,株式会社人材派遣ＪＯＩＮＴ　ＴＯＷＮ,,株式会社,山梨県,甲府市,中町２５３番地１,,19,201,4000844,,,,,,,2025-01-21,1,,,,,ジンザイハケンジョイントタウン,0
706,3100003007946,新規,0,2025-01-21,2025-01-21,羅管理合同会社,,合同会社,長野県,下高井郡木島平村,大字上木島３７８３番地１０,,20,562,3892303,,,,,,,2025-01-21,1,,,,,ラカンリ,0
707,3100003007962,新規,0,2025-01-21,2025-01-21,ＯＭＩＭＯ合同会社,,合同会社,長野県,東筑摩郡麻績村,麻３８２９,,20,446,3997701,,,,,,,2025-01-21,1,,,,,オミモ,0
712,3110003005643,新規,0,2025-01-21,2025-01-21,合同会社ＣＨＥＥＭＡ・ＭＯＴＯＲＳ,,合同会社,新潟県,上越市,大潟区米倉新田９３番地,,15,222,9493132,,,,,,,2025-01-21,1,,,,,チーマモータース,0
724,3120001272111,新規,0,2025-01-21,2025-01-21,株式会社ＥＲＫＴ,,株式会社,大阪府,大阪市北区,中崎３丁目３番２５－６０４号,,27,127,5300016,,,,,,,2025-01-21,1,,,,,イーアールケーティー,0
725,3120001272169,新規,0,2025-01-21,2025-01-21,株式会社ＯＲＡＮＧＥ　ＣＡＲＥ,,株式会社,大阪府,大阪市中央区,安堂寺町２丁目６番１５－１３０２号,,27,128,5420061,,,,,,,2025-01-21,1,,,,,オレンジケア,0
726,3120001272193,新規,0,2025-01-21,2025-01-21,祖龍株式会社,,株式会社,大阪府,大阪市東住吉区,鷹合４丁目１３番２１の４０２,,27,121,5460014,,,,,,,2025-01-21,1,,,,,ソリュウ,0
728,3120003028395,新規,0,2025-01-21,2025-01-21,合同会社ストーリー,,合同会社,大阪府,枚方市,交北１丁目２０－１７,,27,210,5731161,,,,,,,2025-01-21,1,,,,,ストーリー,0
729,3120003028404,新規,0,2025-01-21,2025-01-21,秋商事合同会社,,合同会社,大阪府,大阪市中央区,平野町１丁目８番１３号平野町八千代ビル３階,,27,128,5410046,,,,,,,2025-01-21,1,,,,,アキショウジ,0
730,3120003028420,新規,0,2025-01-21,2025-01-21,合同会社プラリネ,,合同会社,大阪府,大阪市北区,梅田１丁目２番２号大阪駅前第２ビル１２－１２,,27,127,5300001,,,,,,,2025-01-21,1,,,,,プラリネ,0
731,3120003028429,新規,0,2025-01-21,2025-01-21,ＬＯＴＡＹＡ合同会社,,合同会社,大阪府,大阪市生野区,勝山北１丁目５番６号,,27,116,5440033,,,,,,,2025-01-21,1,,,,,ロタヤ,0
741,3122001038806,新規,0,2025-01-21,2025-01-21,株式会社ＩＫＥＤＡ,,株式会社,大阪府,東大阪市,玉串町東１丁目７番２１－７０５号,,27,227,5780932,,,,,,,2025-01-21,1,,,,,イケダ,0
742,3122001038814,新規,0,2025-01-21,2025-01-21,株式会社さぼてん,,株式会社,大阪府,東大阪市,長田西１丁目２－２１,,27,227,5770016,,,,,,,2025-01-21,1,,,,,サボテン,0
743,3122003003097,新規,0,2025-01-21,2025-01-21,合同会社エレクルー,,合同会社,大阪府,八尾市,八尾木北２丁目４７番地の２,,27,212,5810016,,,,,,,2025-01-21,1,,,,,エレクルー,0
748,3130003010154,新規,0,2025-01-21,2025-01-21,合同会社ケーファイブアンドカンパニー,,合同会社,京都府,長岡京市,長法寺南野２番地１,,26,209,6170812,,,,,,,2025-01-21,1,,,,,ケーファイブアンドカンパニー,0
751,3140001137171,新規,0,2025-01-21,2025-01-21,株式会社ひめじ電力,,株式会社,兵庫県,姫路市,呉服町２７番地,,28,201,6700923,,,,,,,2025-01-21,1,,,,,ヒメジデンリョク,0
756,3150003003478,新規,0,2025-01-21,2025-01-21,合同会社ブエナビスタ,,合同会社,奈良県,香芝市,高山台２丁目２７番地１２,,29,210,6390256,,,,,,,2025-01-21,1,,,,,ブエナビスタ,0
760,3160003003386,新規,0,2025-01-21,2025-01-21,合同会社いえのふもと,,合同会社,滋賀県,守山市,勝部５丁目７番３１－８０４号,,25,207,5240041,,,,,,,2025-01-21,1,,,,,イエノフモト,0
766,3180001165045,新規,0,2025-01-21,2025-01-21,ＡＵＴＯＳＰＥＣ　ＴＲＡＤＥ株式会社,,株式会社,愛知県,一宮市,乾町６０－４,,23,203,4910061,,,,,,,2025-01-21,1,,,,,オートスペックトレード,0
767,3180001165053,新規,0,2025-01-21,2025-01-21,Ｓｅｒｅｎｉｔｙ　Ｈｅａｌｔｈ　Ｓｃｉｅｎｃｅｓ株式会社,,株式会社,愛知県,名古屋市中区,丸の内３丁目２１番１９号（ザ・ファインタワー久屋大通２１０４号）,,23,106,4600002,,,,,,,2025-01-21,1,,,,,セレニティヘルスサイエンシィス,0
768,3180001165078,新規,0,2025-01-21,2025-01-21,株式会社ＤＢＲ,,株式会社,愛知県,名古屋市港区,九番町１丁目１番地の１九番団地５棟４０３号,,23,111,4550008,,,,,,,2025-01-21,1,,,,,ディービーアール,0
773,3180003027895,新規,0,2025-01-21,2025-01-21,合同会社つかさ,,合同会社,愛知県,名古屋市名東区,社台３丁目２１６番地（パールマンション社台３０５号）,,23,115,4650092,,,,,,,2025-01-21,1,,,,,ツカサ,0
774,3180005020923,新規,0,2025-01-21,2025-01-21,ＨＡＮＳ社会保険労務士法人,,その他の設立登記法人,愛知県,名古屋市中村区,竹橋町１３番１８号,,23,105,4530016,,,,,,,2025-01-21,1,,,,,ハンズ,0
775,3180301039452,新規,0,2025-01-21,2025-01-21,株式会社小笠原農園,,株式会社,愛知県,西尾市,花蔵寺町西島９１番地,,23,213,4450035,,,,,,,2025-01-21,1,,,,,オガサワラノウエン,0
777,3200001043347,新規,0,2025-01-21,2025-01-21,株式会社ＲＥＶＡＮＴＥ,,株式会社,岐阜県,各務原市,那加石山町２丁目３７番地３,,21,213,5040044,,,,,,,2025-01-21,1,,,,,レバンテ,0
780,3220003003933,新規,0,2025-01-21,2025-01-21,ＧＣ　Ｂｉｏｔｅｃｈ合同会社,,合同会社,石川県,金沢市,若松町１５５番地,,17,201,9201165,,,,,,,2025-01-21,1,,,,,ジーシーバイオテック,0
787,3240001064406,新規,0,2025-01-21,2025-01-21,株式会社成徳,,株式会社,広島県,福山市,本町７番２５号,,34,207,7200056,,,,,,,2025-01-21,1,,,,,セイトク,0
788,3240001064414,新規,0,2025-01-21,2025-01-21,ＧＯＬＤ　ＣＲＥＡＴＵＲＥ株式会社,,株式会社,広島県,広島市南区,荒神町４番１３号,,34,103,7320807,,,,,,,2025-01-21,1,,,,,ゴールドクリーチャー,0
790,3240003007024,新規,0,2025-01-21,2025-01-21,合同会社ＬＯＧＩＣＡＬ,,合同会社,広島県,広島市中区,東白島町１５番５号,,34,101,7300004,,,,,,,2025-01-21,1,,,,,ロジカル,0
795,3290001108661,新規,0,2025-01-21,2025-01-21,株式会社ＥＬＶｅｓｔ,,株式会社,福岡県,那珂川市,片縄北７丁目１５－２フォレストメゾンやよい坂Ｂ－１,,40,231,8111203,,,,,,,2025-01-21,1,,,,,,0
796,3290003016301,新規,0,2025-01-21,2025-01-21,Ｇｏ庄屋合同会社,,合同会社,福岡県,うきは市,吉井町長栖４９１－２,,40,225,8391344,,,,,,,2025-01-21,1,,,,,ゴショウヤ,0
797,3290803004950,新規,0,2025-01-21,2025-01-21,卓勝国際合同会社,,合同会社,福岡県,北九州市小倉北区,小文字１丁目２番５３号,,40,106,8020037,,,,,,,2025-01-21,1,,,,,タクショウコクサイ,0
803,3310003004930,新規,0,2025-01-21,2025-01-21,合同会社フリラ・プラス,,合同会社,長崎県,佐世保市,権常寺町１３０９－６,,42,202,8593213,,,,,,,2025-01-21,1,,,,,フリラプラス,0
809,3360001034677,新規,0,2025-01-21,2025-01-21,株式会社ＵＰ・ＭＯＯＲ,,株式会社,沖縄県,豊見城市,字豊崎１番地１２０５,,47,212,9010225,,,,,,,2025-01-21,1,,,,,アップムーア,0
811,3360005007159,新規,0,2025-01-21,2025-01-21,一般社団法人島尻青年会議所,,その他の設立登記法人,沖縄県,島尻郡南風原町,字兼城１２８番地エンネグランデ３０１号室,,47,350,9011111,,,,,,,2025-01-21,1,,,,,シマジリセイネンカイギショ,0
816,3380003005939,新規,0,2025-01-21,2025-01-21,合同会社ＹＰ,,合同会社,福島県,郡山市,深沢２丁目８番７号関根コーポ１０１号,,07,203,9638874,,,,,,,2025-01-21,1,,,,,ワイピー,0
823,3420001018987,新規,0,2025-01-21,2025-01-21,株式会社たか虎,,株式会社,青森県,弘前市,大字大清水３丁目７番地３,,02,202,0368161,,,,,,,2025-01-21,1,,,,,タカトラ,0
827,3430001093492,新規,0,2025-01-21,2025-01-21,株式会社プレジャーネットワーク,,株式会社,北海道,札幌市東区,伏古十二条２丁目４番１０号,,01,103,0070872,,,,,,,2025-01-21,1,,,,,プレジャーネットワーク,0
836,3480003002224,新規,0,2025-01-21,2025-01-21,合同会社ＴＷＯ,,合同会社,徳島県,小松島市,櫛渕町字中田１３１番地,00137721,36,203,7730018,,,,,,,2025-01-21,1,,,,,ツー,0
837,3490001010946,新規,0,2025-01-21,2025-01-21,株式会社東富商店,,株式会社,高知県,高知市,城見町８番２５号,,39,201,7800824,,,,,,,2025-01-21,1,,,,,トウトミショウテン,0
841,3700150128864,新規,0,2025-01-21,2025-01-21,Ｆｕｊｉａｎｓｈｅｎｇ　Ｚｈｅｎｇｈｅｚｈｅｎｇｙｕａｎ　Ｚｈｕｍｕｚｈｉｐｉｎ　ｃｏ．，Ｌｔｄ,,外国会社等,,,,,,,,ｆｕｊｉａｎｓｈｅｎｇｚｈｅｎｇｈｅｘｉａｎｓｈｉｔｕｎｚｈｅｎｈｕｄｉｅｊｉｅ６２ｈａｏ,,,,,,2025-01-21,1,,,,,フージエンションジョンホージョンユエンジュームージーピンヨウシエンゴンスー,0
842,3700150128872,新規,0,2025-01-21,2025-01-21,Ｕｚｕｏ（Ｓｈａｎｇｈａｉ）Ｉｎｔｅｒｎａｔｉｏｎａｌ　Ｔｒａｄｅ　Ｃｏ．，Ｌｔｄ,,外国会社等,,,,,,,,Ｂｕｉｌｄｉｎｇ　１，Ｎｏ．１０３６　Ｘｉｚｈａ　Ｒｏａｄ，Ｆｅｎｇｘｉａｎ　Ｄｉｓｔｒｉｃｔ，Ｓｈａｎｇｈａｉ,,,,,,2025-01-21,1,,,,,ヨウズオシャンハイグオジーマオイーヨウシエンゴンスー,0
848,4010001251513,新規,0,2025-01-21,2025-01-21,株式会社みくらプライム,,株式会社,東京都,御蔵島村,無番地,,13,382,1001301,,,,,,,2025-01-21,1,,,,,ミクラプライム,0
849,4010001251538,新規,0,2025-01-21,2025-01-21,レジン株式会社,,株式会社,東京都,千代田区,麹町３丁目５番地２,,13,101,1020083,,,,,,,2025-01-21,1,,,,,レジン,0
850,4010001251546,新規,0,2025-01-21,2025-01-21,株式会社ＧＳＩ,,株式会社,東京都,中央区,銀座１丁目１２番４号Ｎ＆ＥＢＬＤ．６Ｆ,,13,102,1040061,,,,,,,2025-01-21,1,,,,,ジーエスアイ,0
857,4010005039418,新規,0,2025-01-21,2025-01-21,一般社団法人ヴィレッジナイン,,その他の設立登記法人,東京都,中央区,日本橋１丁目４番１号,,13,102,1030027,,,,,,,2025-01-21,1,,,,,ヴィレッジナイン,0
858,4010005039434,新規,0,2025-01-21,2025-01-21,渋谷西開発特定目的会社,,その他の設立登記法人,東京都,中央区,日本橋１丁目４番１号,,13,102,1030027,,,,,,,2025-01-21,1,,,,,シブヤニシカイハツ,0
865,4010401187555,新規,0,2025-01-21,2025-01-21,デイドリーマージャパン株式会社,,株式会社,東京都,港区,新橋４丁目２１番３号新橋東急ビル２Ｆ・３Ｆ,,13,103,1050004,,,,,,,2025-01-21,1,,,,,,0
866,4010601066617,新規,0,2025-01-21,2025-01-21,株式会社ＫＭＹ,,株式会社,東京都,墨田区,立川３丁目８番８号,,13,107,1300023,,,,,,,2025-01-21,1,,,,,ケイエムワイ,0
867,4010601066625,新規,0,2025-01-21,2025-01-21,株式会社一二三,,株式会社,東京都,江東区,亀戸１丁目８番５号小林ビルディング６階,,13,108,1360071,,,,,,,2025-01-21,1,,,,,ヒフミ,0
869,4010801035768,新規,0,2025-01-21,2025-01-21,株式会社インターナショナルブルースター,,株式会社,東京都,大田区,北糀谷１丁目４番８号,,13,111,1440032,,,,,,,2025-01-21,1,,,,,インターナショナルブルースター,0
872,4010901056664,新規,0,2025-01-21,2025-01-21,株式会社のちはれ,,株式会社,東京都,世田谷区,深沢５丁目３０番８号,,13,112,1580081,,,,,,,2025-01-21,1,,,,,ノチハレ,0
873,4010901056680,新規,0,2025-01-21,2025-01-21,株式会社５１０,,株式会社,東京都,世田谷区,砧７丁目８番８号,,13,112,1570073,,,,,,,2025-01-21,1,,,,,ゴーイチマル,0
874,4010903009653,新規,0,2025-01-21,2025-01-21,コンセプティエ・ジャパン合同会社,,合同会社,東京都,世田谷区,経堂２丁目３１番１４号,,13,112,1560052,,,,,,,2025-01-21,1,,,,,コンセプティエジャパン,0
878,4011001167195,新規,0,2025-01-21,2025-01-21,株式会社ＬＩＭＩＴＥＤ　ＥＮＴＥＲＴＡＩＮＭＥＮＴ,,株式会社,東京都,渋谷区,松濤１丁目２６番１９,,13,113,1500046,,,,,,,2025-01-21,1,,,,,,0
879,4011001167245,新規,0,2025-01-21,2025-01-21,株式会社ＺＥＮＳＨＩＮ,,株式会社,東京都,渋谷区,神南１丁目１１番４号ＦＰＧリンクス神南５階,,13,113,1500041,,,,,,,2025-01-21,1,,,,,ゼンシン,0
880,4011003020823,新規,0,2025-01-21,2025-01-21,合同会社ディアーク,,合同会社,東京都,渋谷区,道玄坂１丁目１０番８号渋谷道玄坂東急ビル２Ｆ―Ｃ,,13,113,1500043,,,,,,,2025-01-21,1,,,,,ディアーク,0
887,4011101110303,新規,0,2025-01-21,2025-01-21,大盛株式会社,,株式会社,東京都,新宿区,原町２丁目５番地ＫＥＮ２１ビル６階,,13,104,1620053,,,,,,,2025-01-21,1,,,,,オオセイ,0
888,4011103015426,新規,0,2025-01-21,2025-01-21,合同会社世界タロットリーディング協会,,合同会社,東京都,新宿区,北新宿３丁目２８－１６－１０２,,13,104,1690074,,,,,,,2025-01-21,1,,,,,セカイタロットリーディングキョウカイ,0
906,4011801045468,新規,0,2025-01-21,2025-01-21,パレア株式会社,,株式会社,東京都,足立区,千住１丁目４番１号東京芸術センター１７０９,,13,121,1200034,,,,,,,2025-01-21,1,,,,,パレア,0
907,4012403006924,新規,0,2025-01-21,2025-01-21,合同会社Ｓｏｌａｒｉｓ,,合同会社,東京都,小金井市,貫井南町１丁目２３番１９号,,13,210,1840014,,,,,,,2025-01-21,1,,,,,ソラリス,0
908,4012701018662,新規,0,2025-01-21,2025-01-21,株式会社ＲＥＤ,,株式会社,東京都,西東京市,ひばりが丘北３丁目３番１８号並木ビル２Ｆ,,13,229,2020002,,,,,,,2025-01-21,1,,,,,レッド,0
921,4020001160911,新規,0,2025-01-21,2025-01-21,株式会社Ｏｄｄ　ＡＩ,,株式会社,神奈川県,横浜市西区,浅間町１丁目４番３号ウィザードビル４０２,,14,103,2200072,,,,,,,2025-01-21,1,,,,,オッドアイ,0
923,4020003027588,新規,0,2025-01-21,2025-01-21,ザワアセットマネジメント合同会社,,合同会社,神奈川県,横浜市西区,浅間町１丁目４－３ウィザードビル４０２,,14,103,2200072,,,,,,,2025-01-21,1,,,,,ザワアセットマネジメント,0
927,4021003015491,新規,0,2025-01-21,2025-01-21,合同会社湘南ｌａｂ,,合同会社,神奈川県,逗子市,久木１丁目５－９－１Ｆ,,14,208,2490001,,,,,,,2025-01-21,1,,,,,ショウナンラボ,0
928,4021005013246,新規,0,2025-01-21,2025-01-21,一般社団法人厚木大学,,その他の設立登記法人,神奈川県,厚木市,三田南１丁目１３番５３号,,14,212,2430217,,,,,,,2025-01-21,1,,,,,アツギダイガク,0
929,4021005013262,新規,0,2025-01-21,2025-01-21,一般財団法人浄土寺護持会,,その他の設立登記法人,神奈川県,横須賀市,西逸見町１丁目１１番地,,14,201,2380046,,,,,,,2025-01-21,1,,,,,ジョウドジゴジカイ,0
933,4030001164481,新規,0,2025-01-21,2025-01-21,株式会社ＡｎＢインテリア,,株式会社,埼玉県,蕨市,南町１丁目１６－１１－１０１,,11,223,3350003,,,,,,,2025-01-21,1,,,,,アンビインテリア,0
937,4030003025921,新規,0,2025-01-21,2025-01-21,合同会社アイエムエクステリア,,合同会社,埼玉県,久喜市,青葉５丁目２番地７ジェネシス１０５号,,11,232,3460013,,,,,,,2025-01-21,1,,,,,アイエムエクステリア,0
943,4040001137024,新規,0,2025-01-21,2025-01-21,株式会社笹が瀬リゾート,,株式会社,千葉県,木更津市,請西８３３番地５,,12,206,2920801,,,,,,,2025-01-21,1,,,,,ササガセリゾート,0
944,4040001137073,新規,0,2025-01-21,2025-01-21,協榮ホールディングス株式会社,,株式会社,千葉県,八街市,山田台７８０番地,,12,230,2891124,,,,,,,2025-01-21,1,,,,,キョウエイホールディングス,0
946,4040003026654,新規,0,2025-01-21,2025-01-21,合同会社Ｓｐｒｅｅ,,合同会社,千葉県,千葉市美浜区,高洲３丁目２２番３－１３０４号,,12,106,2610004,,,,,,,2025-01-21,1,,,,,スプリー,0
947,4040003026662,新規,0,2025-01-21,2025-01-21,合同会社ｗａｎソリューション,,合同会社,千葉県,山武郡九十九里町,西野１４０４番地６３,,12,403,2830116,,,,,,,2025-01-21,1,,,,,ワンソリューション,0
948,4040003026670,新規,0,2025-01-21,2025-01-21,合同会社ＲＹ,,合同会社,千葉県,柏市,明原２丁目７番２―６号,,12,217,2770843,,,,,,,2025-01-21,1,,,,,アールワイ,0
949,4040005022627,新規,0,2025-01-21,2025-01-21,なかがわ社会保険労務士法人,,その他の設立登記法人,千葉県,柏市,柏２丁目７－２３コササビル２Ｆ,,12,217,2770005,,,,,,,2025-01-21,1,,,,,ナカガワ,0
951,4050001056041,新規,0,2025-01-21,2025-01-21,茨城太陽光管理株式会社,,株式会社,茨城県,行方市,麻生１２４９番地１,,08,233,3113832,,,,,,,2025-01-21,1,,,,,イバラキタイヨウコウカンリ,0
952,4050003008949,新規,0,2025-01-21,2025-01-21,Ｓ．Ｇ．Ｈ．ＴＲＡＤＩＮＧ合同会社,,合同会社,茨城県,結城郡八千代町,大字東蕗田６８４－４－２０１号,,08,521,3003545,,,,,,,2025-01-21,1,,,,,エスジーエイチトレーディング,0
960,4080401027688,新規,0,2025-01-21,2025-01-21,スリーウィンズ株式会社,,株式会社,静岡県,磐田市,新貝１丁目３２番地５,,22,211,4380025,,,,,,,2025-01-21,1,,,,,スリーウィンズ,0
965,4090001019102,新規,0,2025-01-21,2025-01-21,株式会社山梨ユーティー,,株式会社,山梨県,甲府市,上今井町２１４２番地６,,19,201,4000845,,,,,,,2025-01-21,1,,,,,ヤマナシユーティー,0
975,4110003005642,新規,0,2025-01-21,2025-01-21,合同会社リープ,,合同会社,新潟県,新潟市北区,太田甲５７８８番地１８,,15,101,9503313,,,,,,,2025-01-21,1,,,,,リープ,0
982,4120001271995,新規,0,2025-01-21,2025-01-21,玉佳株式会社,,株式会社,大阪府,大阪市生野区,巽北１丁目１番１号２Ｆ－Ｈ,00137711,27,116,5440004,,,,,,,2025-01-21,1,,,,,タマヨシ,0
983,4120001272044,新規,0,2025-01-21,2025-01-21,ＥＫＣ株式会社,,株式会社,大阪府,大阪市中央区,船場中央３丁目１－７船場センタービル７号館,,27,128,5410055,,,,,,,2025-01-21,1,,,,,イーケイシー,0
984,4120001272060,新規,0,2025-01-21,2025-01-21,株式会社ファーマシーアップ,,株式会社,大阪府,交野市,森北１丁目３７番６号,,27,230,5760036,,,,,,,2025-01-21,1,,,,,ファーマシーアップ,0
985,4120001272069,新規,0,2025-01-21,2025-01-21,株式会社人と手,,株式会社,大阪府,大阪市中央区,博労町４丁目７番３号,,27,128,5410059,,,,,,,2025-01-21,1,,,,,ヒトトテ,0
986,4120001272077,新規,0,2025-01-21,2025-01-21,澤圓株式会社,,株式会社,大阪府,大阪市中央区,松屋町９番２０号ローレルステート松屋町５０６Ａ,,27,128,5420067,,,,,,,2025-01-21,1,,,,,タクエン,0
987,4120001272102,新規,0,2025-01-21,2025-01-21,薬麹研究所株式会社,,株式会社,大阪府,大阪市住吉区,西今川三丁目３３番２０号１０５室,,27,120,5580000,,,,,,,2025-01-21,1,,,,,ヤクコウジケンキュウジョ,0
988,4120001272151,新規,0,2025-01-21,2025-01-21,株式会社レオンコーポレーション,,株式会社,大阪府,大阪市中央区,難波４丁目３－２３,,27,128,5420076,,,,,,,2025-01-21,1,,,,,レオンコーポレーション,0
991,4120101070918,新規,0,2025-01-21,2025-01-21,株式会社三幸マネジメント,,株式会社,大阪府,堺市中区,土師町２丁３０番２７号,,27,142,5998238,,,,,,,2025-01-21,1,,,,,サンコウマネジメント,0
992,4120101070934,新規,0,2025-01-21,2025-01-21,エムイットシステム株式会社,,株式会社,大阪府,堺市堺区,北三国ヶ丘町８丁５－５－３,,27,141,5900021,,,,,,,2025-01-21,1,,,,,エムイットシステム,0
999,4122003003096,新規,0,2025-01-21,2025-01-21,ＴＨＲＥＡＤ合同会社,,合同会社,大阪府,東大阪市,岩田町３丁目５番２号,,27,227,5780941,,,,,,,2025-01-21,1,,,,,スレッド,0
1001,4130001078812,新規,0,2025-01-21,2025-01-21,株式会社ＳＥＮＴＥＯ,,株式会社,京都府,京都市中京区,麩屋町通三条下る白壁町４４１番地１,,26,104,6048075,,,,,,,2025-01-21,1,,,,,センテオ,0
1014,4140001137113,新規,0,2025-01-21,2025-01-21,株式会社ワイエス,,株式会社,兵庫県,神戸市北区,菖蒲が丘２丁目１１番地の６,,28,109,6511306,,,,,,,2025-01-21,1,,,,,ワイエス,0
1015,4140001137121,新規,0,2025-01-21,2025-01-21,株式会社ルックみらいＪａｐａｎ,,株式会社,兵庫県,尼崎市,瓦宮１丁目７番３－１号,,28,202,6610971,,,,,,,2025-01-21,1,,,,,ルックミライジャパン,0
1016,4140001137138,新規,0,2025-01-21,2025-01-21,株式会社ｗｏｎｄｅｒｆｕｌ　ｔｈｉｎｇ,,株式会社,兵庫県,神戸市長田区,日吉町４丁目１番１号マル井ビル２－Ｂ,,28,106,6530039,,,,,,,2025-01-21,1,,,,,ワンダフルシング,0
1022,4150003003477,新規,0,2025-01-21,2025-01-21,合同会社セローム,,合同会社,奈良県,奈良市,丸山２丁目４４９８番地の４６,,29,201,6310056,,,,,,,2025-01-21,1,,,,,セローム,0
1023,4160001026495,新規,0,2025-01-21,2025-01-21,藤井電工株式会社,,株式会社,滋賀県,長浜市,末広町１番３８号,,25,203,5260063,,,,,,,2025-01-21,1,,,,,フジイデンコウ,0
1030,4180001165077,新規,0,2025-01-21,2025-01-21,シャイニーアン株式会社,,株式会社,愛知県,名古屋市中区,松原２丁目１０番７号１階,,23,106,4600017,,,,,,,2025-01-21,1,,,,,シャイニーアン,0
1031,4180001165085,新規,0,2025-01-21,2025-01-21,株式会社知多機工,,株式会社,愛知県,知多郡武豊町,大字東大高字北浜田４５番地２,,23,447,4702521,,,,,,,2025-01-21,1,,,,,チタキコウ,0
1032,4180001165093,新規,0,2025-01-21,2025-01-21,株式会社Ｕ＆Ｉ,,株式会社,愛知県,津島市,百島町字居屋敷６６番地,,23,208,4960019,,,,,,,2025-01-21,1,,,,,ユーアンドアイ,0
1033,4180001165102,新規,0,2025-01-21,2025-01-21,プログレクト株式会社,,株式会社,愛知県,名古屋市中区,錦１丁目７番２６号,,23,106,4600003,,,,,,,2025-01-21,1,,,,,プログレクト,0
1036,4180003027878,新規,0,2025-01-21,2025-01-21,合同会社レンショー,,合同会社,愛知県,一宮市,奥町字薬師４９番地６,,23,203,4910201,,,,,,,2025-01-21,1,,,,,レンショー,0
1040,4180303006425,新規,0,2025-01-21,2025-01-21,ジェネラス合同会社,,合同会社,愛知県,豊橋市,西羽田町１５４番地１ＦＩＮＥＨＯＭＥＷ,,23,201,4418081,,,,,,,2025-01-21,1,,,,,ジェネラス,0
1051,4230001020714,新規,0,2025-01-21,2025-01-21,株式会社ＦＫメタル,,株式会社,富山県,富山市,下番３３０番地１,,16,201,9301305,,,,,,,2025-01-21,1,,,,,エフケーメタル,0
1052,4240001064405,新規,0,2025-01-21,2025-01-21,Ｌｉｆｅ不動産株式会社,,株式会社,広島県,尾道市,高須町５１３０番地２,,34,205,7290141,,,,,,,2025-01-21,1,,,,,ライフフドウサン,0
1054,4240003007023,新規,0,2025-01-21,2025-01-21,合同会社ｈｅｐｐｏ,,合同会社,広島県,大竹市,防鹿３３２７番地,,34,211,7390631,,,,,,,2025-01-21,1,,,,,ヘッポ,0
1060,4250005008976,新規,0,2025-01-21,2025-01-21,一般社団法人権利擁護支援センター・えん,,その他の設立登記法人,山口県,萩市,大字堀内３７３番地１１,,35,204,7580057,,,,,,,2025-01-21,1,,,,,ケンリヨウゴシエンセンターエン,0
1061,4260003005033,新規,0,2025-01-21,2025-01-21,エリオス合同会社,,合同会社,岡山県,勝田郡勝央町,岡３７番地,,33,622,7094311,,,,,,,2025-01-21,1,,,,,エリオス,0
1065,4290801031203,新規,0,2025-01-21,2025-01-21,株式会社田田田,,株式会社,福岡県,直方市,大字山部４０３番地４,,40,204,8220034,,,,,,,2025-01-21,1,,,,,サンタ,0
1066,4290801031211,新規,0,2025-01-21,2025-01-21,ＯＮＥＸ株式会社,,株式会社,福岡県,北九州市若松区,二島５丁目１３－１２,,40,103,8080103,,,,,,,2025-01-21,1,,,,,,0
1072,4310005008821,新規,0,2025-01-21,2025-01-21,一般社団法人西海海域振興推進機構,,その他の設立登記法人,長崎県,西海市,大瀬戸町瀬戸福島郷１４３２番地２,,42,212,8572307,,,,,,,2025-01-21,1,,,,,サイカイカイイキシンコウスイシンキコウ,0
1074,4320001020894,新規,0,2025-01-21,2025-01-21,株式会社カーペンターＯＮＯ,,株式会社,大分県,日田市,天瀬町女子畑２６７９番地,,44,204,8794123,,,,,,,2025-01-21,1,,,,,カーペンターオノ,0
1075,4320003004557,新規,0,2025-01-21,2025-01-21,合同会社大分ヘリテイジマネジメント,,合同会社,大分県,臼杵市,大字臼杵３２３番地,,44,206,8750041,,,,,,,2025-01-21,1,,,,,オオイタヘリテイジマネジメント,0
1082,4360001034668,新規,0,2025-01-21,2025-01-21,株式会社もぐもぐぐれいす,,株式会社,沖縄県,国頭郡東村,字慶佐次３８２,,47,303,9051205,,,,,,,2025-01-21,1,,,,,モグモググレイス,0
1083,4360001034676,新規,0,2025-01-21,2025-01-21,株式会社大成興業,,株式会社,沖縄県,石垣市,字登野城７８０番地１,,47,207,9070004,,,,,,,2025-01-21,1,,,,,タイセイコウギョウ,0
1085,4360003014610,新規,0,2025-01-21,2025-01-21,合同会社Ｔａｒａｋａｎ．Ｓｈｉｎｊｉｎ,,合同会社,沖縄県,宮古郡多良間村,字仲筋１４０番地,,47,375,9060602,,,,,,,2025-01-21,1,,,,,タラカンドットシンジン,0
1086,4370001052090,新規,0,2025-01-21,2025-01-21,株式会社Ｔ’ｓｍｉｌｅ,,株式会社,宮城県,仙台市青葉区,中央１丁目２番３号仙台マークワン１９Ｆ,,04,101,9800021,,,,,,,2025-01-21,1,,,,,ティースマイル,0
1089,4380001035037,新規,0,2025-01-21,2025-01-21,株式会社Ｔ・Ａ・Ｄ,,株式会社,福島県,いわき市,泉町黒須野字江越２４６－１７,,07,204,9718184,,,,,,,2025-01-21,1,,,,,ティーエーディー,0
1097,4430001093500,新規,0,2025-01-21,2025-01-21,株式会社ＲＥＯ,,株式会社,北海道,札幌市中央区,南五条東２丁目３番地ＭＯＤＥＮＡ　ＦＩＮＥＳＴ１２０３号,,01,101,0600055,,,,,,,2025-01-21,1,,,,,レオ,0
1099,4460001005964,新規,0,2025-01-21,2025-01-21,株式会社一番,,株式会社,北海道,釧路市,昭和中央４丁目２番１４号,,01,206,0840910,,,,,,,2025-01-21,1,,,,,イチバン,0
1109,4480003002223,新規,0,2025-01-21,2025-01-21,合同会社プラザ,,合同会社,徳島県,徳島市,論田町本浦中１１７番地の２プラシード本浦Ａ１０２,,36,201,7708011,,,,,,,2025-01-21,1,,,,,プラザ,0
1111,4700150128871,新規,0,2025-01-21,2025-01-21,Ｓｈｅｎｚｈｅｎ　Ｋａｎｇｙａ　Ｔｅｃｈｎｏｌｏｇｙ　Ｃｏ．，Ｌｔｄ,,外国会社等,,,,,,,,ＮＯ．２１３　２／Ｆ，Ｈｕａｆｅｎｇ　Ｎｅｗ　Ｅｎｅｒｇｙ　Ｔｅｃｈｎｏｌｏｇｙ　ＩｎｄｕｓｔｒｉａｌＢｕｉｌｄｉｎｇ，Ｘｉｘｉａｎｇ　Ｓｔｒｅｅｔ，Ｂａｏａｎ　ＤｉｓｔｒｉｃｔＳＨＥＮＺＨＥＮ　ＧＵＡＮＧＤＯＮＧ,,,,,,2025-01-21,1,,,,,シェンジェンシーカンヤーコージーヨウシエンゴンスー,0
1118,5010001251529,新規,0,2025-01-21,2025-01-21,モッドアステラ株式会社,,株式会社,東京都,中央区,日本橋茅場町１丁目８番１号,,13,102,1030025,,,,,,,2025-01-21,1,,,,,モッドアステラ,0
1119,5010001251660,新規,0,2025-01-21,2025-01-21,株式会社Ａｒｔｅｖｉａ,,株式会社,東京都,中央区,銀座１丁目１２－４Ｎ＆ＥＢＬＤ．７階,,13,102,1040061,,,,,,,2025-01-21,1,,,,,アルテヴィア,0
1128,5010401187546,新規,0,2025-01-21,2025-01-21,Ｉｒｉｅ株式会社,,株式会社,東京都,港区,南麻布３丁目２０－１Ｄａｉｗａ麻布テラス５階,,13,103,1060047,,,,,,,2025-01-21,1,,,,,アイリー,0
1129,5010401187554,新規,0,2025-01-21,2025-01-21,株式会社ＲｏｓｓｏＶｅｒｓｅ,,株式会社,東京都,港区,芝浦２丁目９番１－２９０９号,,13,103,1080023,,,,,,,2025-01-21,1,,,,,ロッソバース,0
1130,5010401187678,新規,0,2025-01-21,2025-01-21,株式会社ＲＵＦＯＤ,,株式会社,東京都,港区,南青山２丁目４番１２号,,13,103,1070062,,,,,,,2025-01-21,1,,,,,ルフォード,0
1134,5010601066608,新規,0,2025-01-21,2025-01-21,株式会社ネクストビズ,,株式会社,東京都,江東区,有明３丁目７－２６有明フロンティアビルＢ棟９階,,13,108,1350063,,,,,,,2025-01-21,1,,,,,ネクストビズ,0
1135,5010601066624,新規,0,2025-01-21,2025-01-21,星の龍株式会社,,株式会社,東京都,江東区,亀戸４丁目３０番１０号,,13,108,1360071,,,,,,,2025-01-21,1,,,,,ホシノリュウ,0
1140,5010701047094,新規,0,2025-01-21,2025-01-21,株式会社ピアバンス,,株式会社,東京都,品川区,上大崎３丁目１番１１号,,13,109,1410021,,,,,,,2025-01-21,1,,,,,ピアバンス,0
1156,5011001166849,新規,0,2025-01-21,2025-01-21,株式会社ナヌカ,,株式会社,東京都,渋谷区,神泉町１０番１０号,,13,113,1500045,,,,,,,2025-01-21,1,,,,,ナヌカ,0
1157,5011001167038,新規,0,2025-01-21,2025-01-21,株式会社ユニィ,,株式会社,東京都,渋谷区,広尾１丁目８番９号,,13,113,1500012,,,,,,,2025-01-21,1,,,,,ユニイ,0
1158,5011001167120,新規,0,2025-01-21,2025-01-21,株式会社ＳＯＦＵ,,株式会社,東京都,目黒区,自由が丘３丁目６番１１号ハウスプチ１階店舗２号室,,13,110,1520035,,,,,,,2025-01-21,1,,,,,ソフ,0
1165,5011101110285,新規,0,2025-01-21,2025-01-21,株式会社Ｌｏｖｌｕｍｅ,,株式会社,東京都,新宿区,西新宿８丁目３‐１西新宿ＧＦビル１‐４ＦＴＨＥＨＵＢ西新宿,,13,104,1600023,,,,,,,2025-01-21,1,,,,,ラブルーム,0
1166,5011303005390,新規,0,2025-01-21,2025-01-21,ｍａｒｅ　ａｚｚｕｒｒｏ合同会社,,合同会社,東京都,杉並区,高円寺北１丁目２６番３号,,13,115,1660002,,,,,,,2025-01-21,1,,,,,マーレアズーロ,0
1176,5011701027994,新規,0,2025-01-21,2025-01-21,ＳＵＧＰ株式会社,,株式会社,東京都,江戸川区,東小岩４丁目１３番１１号,,13,123,1330052,,,,,,,2025-01-21,1,,,,,エスユージーピー,0
1178,5011803006649,新規,0,2025-01-21,2025-01-21,合同会社Ａｍ,,合同会社,東京都,足立区,梅島３丁目２９－９ＶＩＰマンション１Ｆ,,13,121,1210816,,,,,,,2025-01-21,1,,,,,アム,0
1180,5012403006915,新規,0,2025-01-21,2025-01-21,合同会社アーク,,合同会社,東京都,調布市,西つつじケ丘１丁目４０番地４,,13,208,1820006,,,,,,,2025-01-21,1,,,,,アーク,0
1183,5013301053628,新規,0,2025-01-21,2025-01-21,ベネフィット株式会社,,株式会社,東京都,豊島区,南大塚３丁目５２番１０号,,13,116,1700005,,,,,,,2025-01-21,1,,,,,ベネフィット,0
1189,5020001160852,新規,0,2025-01-21,2025-01-21,富士株式会社,,株式会社,神奈川県,横浜市中区,伊勢佐木町７丁目１５５－７神奈川ファニチャーセンター２Ｆ,,14,104,2310045,,,,,,,2025-01-21,1,,,,,フジ,0
1190,5020001160910,新規,0,2025-01-21,2025-01-21,株式会社トータル・ペイント,,株式会社,神奈川県,横浜市磯子区,滝頭３丁目３番１６号,,14,107,2350012,,,,,,,2025-01-21,1,,,,,トータルペイント,0
1191,5020001160919,新規,0,2025-01-21,2025-01-21,株式会社ＡＵＴＨＥＮＴＩＣＷＯＲＫ,,株式会社,神奈川県,横浜市西区,北幸２丁目１０－４８むつみビル３階,,14,103,2200004,,,,,,,2025-01-21,1,,,,,オーセンティックワーク,0
1192,5020001160935,新規,0,2025-01-21,2025-01-21,株式会社ＣＲＡＮＮＥ,,株式会社,神奈川県,横浜市泉区,岡津町１０１５番地６,,14,116,2450003,,,,,,,2025-01-21,1,,,,,,0
1193,5020001161074,新規,0,2025-01-21,2025-01-21,株式会社ＶＥＮＳ,,株式会社,神奈川県,横浜市西区,北幸２丁目１０番４８号,,14,103,2200004,,,,,,,2025-01-21,1,,,,,ヴェンス,0
1198,5021001084281,新規,0,2025-01-21,2025-01-21,株式会社湘南ＦＡ会計,,株式会社,神奈川県,藤沢市,鵠沼石上１丁目５－９メガサンエスビル６階,00137714,14,205,2510025,,,,,,,2025-01-21,1,,,,,ショウナンエフエーカイケイ,0
1209,5030001164448,新規,0,2025-01-21,2025-01-21,株式会社誠介住建,,株式会社,埼玉県,入間郡三芳町,大字北永井８４５番地３０,,11,324,3540044,,,,,,,2025-01-21,1,,,,,セイカイジュウケン,0
1210,5030001164456,新規,0,2025-01-21,2025-01-21,株式会社逸工業,,株式会社,埼玉県,上尾市,壱丁目北１４番地１９,,11,219,3620081,,,,,,,2025-01-21,1,,,,,イツコウギョウ,0
1211,5030001164480,新規,0,2025-01-21,2025-01-21,株式会社東洋未来,,株式会社,埼玉県,川口市,西川口４丁目４番２３－２号,,11,203,3320021,,,,,,,2025-01-21,1,,,,,トウヨウミライ,0
1212,5030001164489,新規,0,2025-01-21,2025-01-21,株式会社エフィートリザルティング,,株式会社,埼玉県,さいたま市浦和区,北浦和１丁目２０番９号大谷ビル３０１,,11,107,3300074,,,,,,,2025-01-21,1,,,,,エフィートリザルティング,0
1213,5030001164506,新規,0,2025-01-21,2025-01-21,株式会社アージュ,,株式会社,埼玉県,吉川市,中央２丁目４４番地１４,,11,243,3420061,,,,,,,2025-01-21,1,,,,,アージュ,0
1216,5030003025904,新規,0,2025-01-21,2025-01-21,合同会社ｍｂｒｉｄｇｅ,,合同会社,埼玉県,さいたま市大宮区,桜木町２丁目３番地大宮マルイ７階,,11,103,3300854,,,,,,,2025-01-21,1,,,,,エムブリッジ,0
1221,5040001137080,新規,0,2025-01-21,2025-01-21,株式会社東日本リサイクル事業,,株式会社,千葉県,松戸市,西馬橋蔵元町１９１シティハイツ１０２ａ,,12,207,2710046,,,,,,,2025-01-21,1,,,,,ヒガシニホンリサイクルジギョウ,0
1226,5050001056016,新規,0,2025-01-21,2025-01-21,株式会社海星会,,株式会社,茨城県,龍ケ崎市,羽原町１９１８番地１,,08,208,3010843,,,,,,,2025-01-21,1,,,,,カイセイカイ,0
1227,5050001056049,新規,0,2025-01-21,2025-01-21,株式会社金賀商事,,株式会社,茨城県,鹿嶋市,緑ヶ丘２丁目１０番地２,,08,222,3140039,,,,,,,2025-01-21,1,,,,,カネガショウジ,0
1228,5050003008956,新規,0,2025-01-21,2025-01-21,合同会社スカイラビッツ,,合同会社,茨城県,水戸市,内原町６１８－１,,08,201,3190315,,,,,,,2025-01-21,1,,,,,スカイラビッツ,0
1233,5080001026726,新規,0,2025-01-21,2025-01-21,株式会社Ｔ‐ＲＥＣ,,株式会社,静岡県,静岡市葵区,平和１丁目２番５号,,22,101,4200876,,,,,,,2025-01-21,1,,,,,ティーレック,0
1235,5080105006483,新規,0,2025-01-21,2025-01-21,特定非営利活動法人アクティブすその,,その他の設立登記法人,静岡県,裾野市,佐野１０５９番地裾野市役所内学校教育課,,22,220,4101118,,,,,,,2025-01-21,1,,,,,,0
1236,5080401027687,新規,0,2025-01-21,2025-01-21,ＹＦＫ株式会社,,株式会社,静岡県,浜松市中央区,葵西６丁目３番３７号,,22,138,4338111,,,,,,,2025-01-21,1,,,,,ワイエフケィ,0
1251,5100001038215,新規,0,2025-01-21,2025-01-21,株式会社ヒューマンザクエスト,,株式会社,長野県,上田市,別所温泉５３番地１,,20,203,3861431,,,,,,,2025-01-21,1,,,,,ヒューマンザクエスト,0
1254,5110001039006,新規,0,2025-01-21,2025-01-21,株式会社ＲＩＪＳＴ,,株式会社,新潟県,上越市,国府４丁目２番８号,,15,222,9420082,,,,,,,2025-01-21,1,,,,,レイスト,0
1267,5120001271482,新規,0,2025-01-21,2025-01-21,株式会社夢叶開発,,株式会社,大阪府,大阪市北区,梅田１丁目３番１号大阪駅前第１ビル８階５号,,27,127,5300001,,,,,,,2025-01-21,1,,,,,ムトカイハツ,0
1268,5120001271937,新規,0,2025-01-21,2025-01-21,優創株式会社,,株式会社,大阪府,大阪市西成区,橘１丁目１１－２８オフィスポート橘５０４号室,,27,122,5570051,,,,,,,2025-01-21,1,,,,,ユウソウ,0
1269,5120001271994,新規,0,2025-01-21,2025-01-21,啓悦祥投資株式会社,,株式会社,大阪府,大阪市生野区,巽南２丁目８－２９－２０１,00137710,27,116,5440015,,,,,,,2025-01-21,1,,,,,ケイエツショウトウシ,0
1270,5120001272068,新規,0,2025-01-21,2025-01-21,株式会社ＩＫＥＧＡＭＩ,,株式会社,大阪府,大阪市此花区,酉島１丁目１４番５号,,27,104,5540051,,,,,,,2025-01-21,1,,,,,イケガミ,0
1271,5120001272076,新規,0,2025-01-21,2025-01-21,亜特株式会社,,株式会社,大阪府,大阪市中央区,日本橋２丁目１４番５号ホーユウパレス日本橋１００１,,27,128,5420073,,,,,,,2025-01-21,1,,,,,アトク,0
1284,5122003003095,新規,0,2025-01-21,2025-01-21,合同会社永光園,,合同会社,大阪府,柏原市,玉手町１４番１０号,,27,221,5820028,,,,,,,2025-01-21,1,,,,,エイコウエン,0
1287,5130001078811,新規,0,2025-01-21,2025-01-21,株式会社ＲＥＶＩＶＥ,,株式会社,京都府,京都市右京区,山ノ内宮脇町１５－１クエスト御池ビルディング２階,,26,108,6150092,,,,,,,2025-01-21,1,,,,,リヴァイヴ,0
1300,5160001026494,新規,0,2025-01-21,2025-01-21,株式会社萬栄,,株式会社,滋賀県,米原市,寺倉字御所立４４１番１,,25,214,5210093,,,,,,,2025-01-21,1,,,,,マンエイ,0
1306,5180001165051,新規,0,2025-01-21,2025-01-21,株式会社すてっぷ,,株式会社,愛知県,稲沢市,稲島９丁目６番地,,23,220,4928229,,,,,,,2025-01-21,1,,,,,ステップ,0
1319,5200001043353,新規,0,2025-01-21,2025-01-21,孝工業株式会社,,株式会社,岐阜県,各務原市,川島渡町１６６番地１,,21,213,5016028,,,,,,,2025-01-21,1,,,,,タカコウギョウ,0
1331,5250003003631,新規,0,2025-01-21,2025-01-21,松本窓合同会社,,合同会社,山口県,岩国市,御庄１丁目１０８番地９Ｃ－１０１,,35,208,7410083,,,,,,,2025-01-21,1,,,,,マツモトマド,0
1337,5270001009125,新規,0,2025-01-21,2025-01-21,多面体人財再点火反転攻勢株式会社,,株式会社,鳥取県,鳥取市,南栄町１５番地,,31,201,6891121,,,,,,,2025-01-21,1,,,,,タメンタイジンザイサイテンカハンテンコウセイ,0
1340,5290001108651,新規,0,2025-01-21,2025-01-21,スリーリンク株式会社,,株式会社,福岡県,福岡市博多区,住吉４丁目５番１６号Ｔ’ＳＳＱＵＡＲＥ住吉８０２号室,,40,132,8120018,,,,,,,2025-01-21,1,,,,,スリーリンク,0
1341,5290003016308,新規,0,2025-01-21,2025-01-21,合同会社キプロス,,合同会社,福岡県,福岡市博多区,対馬小路一丁目１９－３０２,,40,132,8120020,,,,,,,2025-01-21,1,,,,,キプロス,0
1342,5290003016316,新規,0,2025-01-21,2025-01-21,合同会社曙,,合同会社,福岡県,福岡市南区,桧原３丁目１４番２２号,,40,134,8111355,,,,,,,2025-01-21,1,,,,,,0
1358,5360001034667,新規,0,2025-01-21,2025-01-21,株式会社幸生農園,,株式会社,沖縄県,国頭郡東村,字慶佐次３８２,,47,303,9051205,,,,,,,2025-01-21,1,,,,,ユキオノウエン,0
1386,5430003017191,新規,0,2025-01-21,2025-01-21,グローリー合同会社,,合同会社,北海道,札幌市北区,北九条西４丁目２６番地クリオ札幌ステーション１４０１号,,01,102,0600809,,,,,,,2025-01-21,1,,,,,グローリー,0
1391,5470001020540,新規,0,2025-01-21,2025-01-21,Ｄ．Ｐｒｉｄｅ株式会社,,株式会社,香川県,高松市,番町５丁目６番１１号,,37,201,7600017,,,,,,,2025-01-21,1,,,,,ディプライド,0
1397,5700150128458,新規,0,2025-01-21,2025-01-21,ＨＬＬ　ＣＯＭＰＡＮＹ　ＬＴＤ,,外国会社等,,,,,,,,Ｕｎｉｔ　２５，２ｎｄ　Ｆｌｏｏｒ，Ｎｉａ　Ｍａｌｌ，Ｓａｌｅｕｆｉ　Ｓｔｒｅｅｔ，Ａｐｉａ，Ｓａｍｏａ,,,,,,2025-01-21,1,,,,,エイチエルエルカンパニーリミテツド,0
1398,5700150128854,新規,0,2025-01-21,2025-01-21,日野市上台土地区画整理組合,,その他,東京都,日野市,大字日野４９５－２,,13,212,1910012,,,,,,,2025-01-21,1,,,,,ヒノシウワダイトチクカクセイリクミアイ,0
1399,5700150128870,新規,0,2025-01-21,2025-01-21,Ｗｅｎｚｈｏｕ　Ｓａｎｙｉ　Ｅｃｏｍｍｅｒｃｅ　Ｃｏ．，Ｌｔｄ,,外国会社等,,,,,,,,Ｒｏｏｍ　１５０３，Ｂｕｉｌｄｉｎｇ　３，Ａｎｄｅｊｉａｙｕａｎ，Ｌｏｕｑｉａｎ　Ｒｅｓｉｄｅｎｔｉａｌ　Ａｒｅａ，Ｌｏｕｑｉａｏ　Ｓｔｒｅｅｔ，Ｏｕｈａｉ　Ｄｉｓｔｒｉｃｔ，Ｗｅｎｚｈｏｕ　Ｃｉｔｙ，Ｚｈｅｊｉａｎｇ　Ｐｒｏｖｉｎｃｅ,,,,,,2025-01-21,1,,,,,ウェンジョウサンイーディエンズーシャンウーヨウシエンゴンスー,0
1406,6010001251552,新規,0,2025-01-21,2025-01-21,株式会社ＹＭＳＫ　Ｐａｒｔｎｅｒｓ,,株式会社,東京都,千代田区,永田町２丁目１７番１１－４０３,,13,101,1000014,,,,,,,2025-01-21,1,,,,,ワイエムエスケーパートナーズ,0
1409,6010003045952,新規,0,2025-01-21,2025-01-21,トラベルデザイン合同会社,,合同会社,東京都,中央区,銀座１丁目１２番４号Ｎ＆Ｅビル６階,,13,102,1040061,,,,,,,2025-01-21,1,,,,,トラベルデザイン,0
1410,6010003046091,新規,0,2025-01-21,2025-01-21,合同会社Ｍｉｘ　Ｓａｎｄ　Ｈｉｔａｃｈｉ　ＭＬ００３,,合同会社,東京都,千代田区,霞が関３丁目２番５号,,13,101,1000013,,,,,,,2025-01-21,1,,,,,ミックスサンドヒタチエムエルゼロゼロスリー,0
1411,6010003046109,新規,0,2025-01-21,2025-01-21,日本橋伊達ソーラー合同会社,,合同会社,東京都,中央区,日本橋室町１丁目１１番１２号日本橋水野ビル７階,,13,102,1030022,,,,,,,2025-01-21,1,,,,,ニホンバシダテソーラー,0
1412,6010003046125,新規,0,2025-01-21,2025-01-21,合同会社ＲＵＮＣＨ,,合同会社,東京都,中央区,銀座１丁目１２番４号Ｎ＆ＥＢＬＤ．６Ｆ,,13,102,1040061,,,,,,,2025-01-21,1,,,,,ランチ,0
1413,6010005039432,新規,0,2025-01-21,2025-01-21,一般社団法人空家等対策連合会,,その他の設立登記法人,東京都,中央区,築地２丁目１番２秀和築地レジデンス６１１号,,13,102,1040045,,,,,,,2025-01-21,1,,,,,アキヤタイサクトウレンゴウカイ,0
1422,6010401187462,新規,0,2025-01-21,2025-01-21,ＫＣＭｐａｒｔｎｅｒｓ株式会社,,株式会社,東京都,港区,高輪３丁目１０－２グラスプラス高輪９Ｆ,,13,103,1080074,,,,,,,2025-01-21,1,,,,,ケーシーエムパートナーズ,0
1423,6010401187520,新規,0,2025-01-21,2025-01-21,株式会社ｍｉｍｉｍｉ,,株式会社,東京都,港区,高輪２丁目１１番２１－２０７号,,13,103,1080074,,,,,,,2025-01-21,1,,,,,ミミミ,0
1424,6010401187553,新規,0,2025-01-21,2025-01-21,ルーサーコンサルティング株式会社,,株式会社,東京都,港区,浜松町２丁目２番１５号浜松町ダイヤビル２Ｆ,,13,103,1050013,,,,,,,2025-01-21,1,,,,,ルーサーコンサルティング,0
1427,6010405023969,新規,0,2025-01-21,2025-01-21,一般社団法人国際ビジネス連結機構,,その他の設立登記法人,東京都,港区,南麻布２丁目８番２１号ＳＮＵＧＭＩＮＡＭＩ－ＡＺＡＢＵ６Ｆ,,13,103,1060047,,,,,,,2025-01-21,1,,,,,コクサイビジネスレンケツキコウ,0
1429,6010503007709,新規,0,2025-01-21,2025-01-21,合同会社奏,,合同会社,東京都,台東区,千束４丁目１４番４号,,13,106,1110031,,,,,,,2025-01-21,1,,,,,メロ,0
1432,6010601066623,新規,0,2025-01-21,2025-01-21,ＭｉｎｄＸ株式会社,,株式会社,東京都,江東区,亀戸４丁目３０番１０号,,13,108,1360071,,,,,,,2025-01-21,1,,,,,マインドエックス,0
1437,6010703007541,新規,0,2025-01-21,2025-01-21,ＷｅｌｌＮｅｓｔ合同会社,,合同会社,東京都,品川区,上大崎３丁目８番３号,,13,109,1410021,,,,,,,2025-01-21,1,,,,,ウェルネスト,0
1439,6010801035766,新規,0,2025-01-21,2025-01-21,株式会社スリーワイズ企画,,株式会社,東京都,大田区,池上４丁目３１番２号,,13,111,1460082,,,,,,,2025-01-21,1,,,,,スリーワイズキカク,0
1440,6010803005247,新規,0,2025-01-21,2025-01-21,合同会社ＧＲ財務ザムライ,,合同会社,東京都,大田区,多摩川２丁目６－８ルヴェール多摩川１０１,,13,111,1460095,,,,,,,2025-01-21,1,,,,,ジーアールザイムザムライ,0
1446,6011001167284,新規,0,2025-01-21,2025-01-21,株式会社ＢＴＭＡＩＺ,,株式会社,東京都,渋谷区,神泉町９番１号,,13,113,1500045,,,,,,,2025-01-21,1,,,,,ビーティーエムアイズ,0
1448,6011003020821,新規,0,2025-01-21,2025-01-21,ＮｅｋｏＢｙｔｅ合同会社,,合同会社,東京都,渋谷区,桜丘町２３番１７号シティコート桜丘４０８,,13,113,1500031,,,,,,,2025-01-21,1,,,,,ネコバイト,0
1449,6011101110169,新規,0,2025-01-21,2025-01-21,株式会社士業ｃｏｎｎｅｃｔ,,株式会社,東京都,新宿区,西新宿７丁目２番５号ＴＨ西新宿ビル６階,,13,104,1600023,,,,,,,2025-01-21,1,,,,,シギョウコネクト,0
1450,6011101110276,新規,0,2025-01-21,2025-01-21,ミダシー株式会社,,株式会社,東京都,新宿区,新宿５丁目１０番１５号ＴｈｅＣｏｒｎｅｒＳＨＩＮＪＵＫＵ４Ｆ,,13,104,1600022,,,,,,,2025-01-21,1,,,,,ミダシー,0
1465,6011701027993,新規,0,2025-01-21,2025-01-21,マルタ通商株式会社,,株式会社,東京都,江戸川区,南小岩３丁目１番１４号プランドールＭ１０８号室,,13,123,1330056,,,,,,,2025-01-21,1,,,,,マルタツウショウ,0
1467,6011801045474,新規,0,2025-01-21,2025-01-21,株式会社小雪,,株式会社,東京都,足立区,小台１丁目６番３号,,13,121,1200046,,,,,,,2025-01-21,1,,,,,コユキ,0
1476,6013103001395,新規,0,2025-01-21,2025-01-21,合同会社Ｄｈａｒｍａ,,合同会社,東京都,青梅市,仲町２７２番地の１,,13,205,1980082,,,,,,,2025-01-21,1,,,,,ダーマ,0
1485,6020001160918,新規,0,2025-01-21,2025-01-21,株式会社Ｓ‐ＰＯＲＴ,,株式会社,神奈川県,横浜市神奈川区,台町１６－６不二セーヌ１０２号室,,14,102,2210834,,,,,,,2025-01-21,1,,,,,エスポート,0
1488,6020003027561,新規,0,2025-01-21,2025-01-21,合同会社横浜港,,合同会社,神奈川県,横浜市港南区,上永谷３丁目１－６８,,14,111,2330012,,,,,,,2025-01-21,1,,,,,ヨコハマミナト,0
1489,6020003027660,新規,0,2025-01-21,2025-01-21,ＹＤＫホールディングス合同会社,,合同会社,神奈川県,川崎市多摩区,登戸２５５７－１－４０１,,14,135,2140014,,,,,,,2025-01-21,1,,,,,ワイディーケーホールディングス,0
1504,6030001164447,新規,0,2025-01-21,2025-01-21,ＫＨＯＸ　Ｌｉｎｋ株式会社,,株式会社,埼玉県,川口市,榛松２丁目１４番１４号,,11,203,3340062,,,,,,,2025-01-21,1,,,,,コックスリンク,0
1505,6030001164463,新規,0,2025-01-21,2025-01-21,株式会社フクシマ,,株式会社,埼玉県,行田市,大字斉条７６番地１,,11,206,3610000,,,,,,,2025-01-21,1,,,,,フクシマ,0
1513,6040001137071,新規,0,2025-01-21,2025-01-21,株式会社ＴＥＣＨＮＯ　ＦＡＲＭ,,株式会社,千葉県,千葉市花見川区,幕張町３丁目１１０７－４６エステートピア小川２０６,,12,102,2620032,,,,,,,2025-01-21,1,,,,,テクノファーム,0
1523,6070005010346,新規,0,2025-01-21,2025-01-21,一般社団法人ＲＴＣ,,その他の設立登記法人,群馬県,前橋市,朝倉町９１番地１,,10,201,3710811,,,,,,,2025-01-21,1,,,,,アールティーシー,0
1525,6080003003375,新規,0,2025-01-21,2025-01-21,合同会社ＲＳ‐ＳＨＯＷＡ,,合同会社,静岡県,藤枝市,大手２丁目３番５号,,22,214,4260017,,,,,,,2025-01-21,1,,,,,アールエスショウワ,0
1536,6110001038980,新規,0,2025-01-21,2025-01-21,株式会社ネクスワイズ,,株式会社,新潟県,燕市,八王寺１７８番地２,,15,213,9591264,,,,,,,2025-01-21,1,,,,,ネクスワイズ,0
1537,6110001039005,新規,0,2025-01-21,2025-01-21,株式会社Ｅｍｍａ,,株式会社,新潟県,村上市,下助渕１５１５番地８,,15,212,9593406,,,,,,,2025-01-21,1,,,,,エマ,0
1546,6120001271762,新規,0,2025-01-21,2025-01-21,株式会社ＲＯＭ４６ｍ,,株式会社,大阪府,大阪市阿倍野区,昭和町１丁目３番２８号森田ビル３０１号,,27,119,5450011,,,,,,,2025-01-21,1,,,,,ロムヨンロクエム,0
1547,6120001272026,新規,0,2025-01-21,2025-01-21,八一零株式会社,,株式会社,大阪府,大阪市中央区,松屋町９番２０号ローレルステート松屋町１２０８Ａ,,27,128,5420067,,,,,,,2025-01-21,1,,,,,ハチイチゼロ,0
1548,6120001272059,新規,0,2025-01-21,2025-01-21,富川株式会社,,株式会社,大阪府,大阪市淀川区,西中島６丁目８番２３号ビープラスビル８０１,,27,123,5320011,,,,,,,2025-01-21,1,,,,,トミカワ,0
1549,6120001272083,新規,0,2025-01-21,2025-01-21,一見株式会社,,株式会社,大阪府,大阪市住吉区,万代東１丁目３番２２号メゾン東和１０５号室,,27,120,5580056,,,,,,,2025-01-21,1,,,,,イッケン,0
1550,6120001272091,新規,0,2025-01-21,2025-01-21,東成株式会社,,株式会社,大阪府,大阪市北区,西天満１丁目９番１３号－５０５号,,27,127,5300047,,,,,,,2025-01-21,1,,,,,トウセイ,0
1551,6120001272100,新規,0,2025-01-21,2025-01-21,株式会社千姿美和,,株式会社,大阪府,大阪市中央区,南本町３丁目３番２３号３０８号室,,27,128,5410054,,,,,,,2025-01-21,1,,,,,センシミワ,0
1554,6120003028351,新規,0,2025-01-21,2025-01-21,合同会社Ｋｉｉｔｏｓ,,合同会社,大阪府,枚方市,村野東町７番１６号,,27,210,5730015,,,,,,,2025-01-21,1,,,,,キートス,0
1555,6120005024720,新規,0,2025-01-21,2025-01-21,コーケン協同組合,,その他の設立登記法人,大阪府,枚方市,甲斐田新町２１番１号,,27,210,5731163,,,,,,,2025-01-21,1,,,,,コーケン,0
1557,6120103006224,新規,0,2025-01-21,2025-01-21,合同会社ＭＯ,,合同会社,大阪府,堺市中区,深井水池町３１９０アルミック３０１,,27,142,5998237,,,,,,,2025-01-21,1,,,,,エムオー,0
1560,6122001038811,新規,0,2025-01-21,2025-01-21,株式会社ＮＥＸＴリノベーション,,株式会社,大阪府,大東市,御領３丁目６番５号,,27,218,5740064,,,,,,,2025-01-21,1,,,,,ネクストリノベーション,0
1561,6122003003086,新規,0,2025-01-21,2025-01-21,合同会社ｏｓｋ,,合同会社,大阪府,八尾市,東山本新町１丁目１１番１３号,,27,212,5810866,,,,,,,2025-01-21,1,,,,,オーエスケー,0
1566,6130001078777,新規,0,2025-01-21,2025-01-21,株式会社橙十,,株式会社,京都府,京都市下京区,朱雀宝蔵町４４番地協栄ビル２階京都朱雀スタジオ,,26,106,6008846,,,,,,,2025-01-21,1,,,,,トウ,0
1567,6130001078802,新規,0,2025-01-21,2025-01-21,株式会社都六商店,,株式会社,京都府,京都市伏見区,深草加賀屋敷町１１番地加賀屋敷市営住宅２棟９０６,,26,109,6128434,,,,,,,2025-01-21,1,,,,,トロクショウテン,0
1568,6130001078810,新規,0,2025-01-21,2025-01-21,株式会社Ｍａｓａ＆Ｃｏ．,,株式会社,京都府,京都市山科区,御陵平林町１番地４９シャリエ京都山科１０１,,26,110,6078406,,,,,,,2025-01-21,1,,,,,マサアンドカンパニー,0
1569,6130001078819,新規,0,2025-01-21,2025-01-21,株式会社Ｍｕｕ,,株式会社,京都府,京都市中京区,御池通堀川西入俵屋町２０５－１二条城御池ビル３Ｆ,,26,104,6040000,,,,,,,2025-01-21,1,,,,,ムウ,0
1571,6130003010151,新規,0,2025-01-21,2025-01-21,合同会社総務経理サポート,,合同会社,京都府,京都市中京区,西洞院通錦小路上る古西町４３６興和セントラルビル６０３,,26,104,6048227,,,,,,,2025-01-21,1,,,,,ソウムケイリサポート,0
1578,6140001137094,新規,0,2025-01-21,2025-01-21,株式会社ＯＳクリエート,,株式会社,兵庫県,神戸市西区,水谷３丁目３番６号,,28,111,6512121,,,,,,,2025-01-21,1,,,,,オーエスクリエート,0
1581,6160003003383,新規,0,2025-01-21,2025-01-21,合同会社Ｙ’ｓ　Ｃｏｍｐａｎｙ,,合同会社,滋賀県,東近江市,鋳物師町２８４９番地,,25,213,5291522,,,,,,,2025-01-21,1,,,,,ワイズカンパニー,0
1591,6180001165091,新規,0,2025-01-21,2025-01-21,明星ロジサービス株式会社,,株式会社,愛知県,小牧市,大字舟津字久保寺８７３番地,,23,219,4850073,,,,,,,2025-01-21,1,,,,,メイセイロジサービス,0
1592,6180001165100,新規,0,2025-01-21,2025-01-21,株式会社安田会,,株式会社,愛知県,北名古屋市,熊之庄石原９８番地,,23,234,4810006,,,,,,,2025-01-21,1,,,,,ヤスダカイ,0
1595,6180003027901,新規,0,2025-01-21,2025-01-21,合同会社Ｓｅｃｏｎｄ　Ｆｉｅｌｄ,,合同会社,愛知県,名古屋市中区,錦３丁目１４番４号シャインアルファ錦ビル８０１号室,,23,106,4600003,,,,,,,2025-01-21,1,,,,,セカンドフィールド,0
1604,6200003006662,新規,0,2025-01-21,2025-01-21,合同会社ＫＡＭＡＮＡ,,合同会社,岐阜県,岐阜市,則武東４丁目３０番６号,,21,201,5020929,,,,,,,2025-01-21,1,,,,,カマナ,0
1605,6220001026438,新規,0,2025-01-21,2025-01-21,株式会社緋梅,,株式会社,石川県,金沢市,田上本町２丁目７９番地２,,17,201,9201155,,,,,,,2025-01-21,1,,,,,アケウメ,0
1619,6260001039824,新規,0,2025-01-21,2025-01-21,株式会社オーテック,,株式会社,岡山県,倉敷市,早高２９番地,,33,202,7100022,,,,,,,2025-01-21,1,,,,,オーテック,0
1624,6270001009132,新規,0,2025-01-21,2025-01-21,株式会社あまくら,,株式会社,鳥取県,鳥取市,福部町海士１６７番地１,,31,201,6890106,,,,,,,2025-01-21,1,,,,,アマクラ,0
1641,6320001020901,新規,0,2025-01-21,2025-01-21,昇陽工業株式会社,,株式会社,大分県,臼杵市,大字臼杵２の１０７番地の７２２,,44,206,8750041,,,,,,,2025-01-21,1,,,,,ショウヨウコウギョウ,0
1648,6340001027060,新規,0,2025-01-21,2025-01-21,ｃｒｕｎｋｙもも株式会社,,株式会社,鹿児島県,いちき串木野市,美住町１４２番地,,46,219,8960024,,,,,,,2025-01-21,1,,,,,クランキーモモ,0
1652,6360001034682,新規,0,2025-01-21,2025-01-21,ガジュマル水産株式会社,,株式会社,沖縄県,浦添市,字経塚５０４番地１７・１Ｆ,,47,208,9012111,,,,,,,2025-01-21,1,,,,,ガジュマルスイサン,0
1654,6360003014559,新規,0,2025-01-21,2025-01-21,合同会社秀栄サービス,,合同会社,沖縄県,宮古島市,下地字洲鎌２８３－２,,47,214,9060303,,,,,,,2025-01-21,1,,,,,シュウエイサービス,0
1655,6360003014609,新規,0,2025-01-21,2025-01-21,合同会社ＳｍｉｌｅＴｒｅｅ,,合同会社,沖縄県,沖縄市,泡瀬６丁目８番４１号,,47,211,9042172,,,,,,,2025-01-21,1,,,,,スマイルツリー,0
1658,6370001052163,新規,0,2025-01-21,2025-01-21,株式会社アライフ,,株式会社,宮城県,仙台市泉区,市名坂字鳥井原５８番地の１サーカスタウン市名坂１１１,,04,105,9813117,,,,,,,2025-01-21,1,,,,,アライフ,0
1662,6380001035010,新規,0,2025-01-21,2025-01-21,株式会社大熊警備隊,,株式会社,福島県,双葉郡大熊町,大字下野上字清水２０３,,07,545,9791308,,,,,,,2025-01-21,1,,,,,オオクマケイビタイ,0
1665,6430001093507,新規,0,2025-01-21,2025-01-21,ＡＭ株式会社,,株式会社,北海道,札幌市中央区,南四条西４丁目１６恵愛ビル８階,,01,101,0640804,,,,,,,2025-01-21,1,,,,,エーエム,0
1668,6430003017190,新規,0,2025-01-21,2025-01-21,合同会社ＮＫ　ｐｌａｎｎｉｎｇ,,合同会社,北海道,恵庭市,恵み野南４丁目１６－１１,,01,231,0611372,,,,,,,2025-01-21,1,,,,,エヌケイプランニング,0
1670,6462501001020,新規,0,2025-01-21,2025-01-21,株式会社セカンドサービス,,株式会社,北海道,野付郡別海町,中春別２番地１,,01,691,0860654,,,,,,,2025-01-21,1,,,,,セカンドサービス,0
1685,6500003003415,新規,0,2025-01-21,2025-01-21,合同会社ともに,,合同会社,愛媛県,八幡浜市,大平２番耕地１１４９番地２,,38,204,7960003,,,,,,,2025-01-21,1,,,,,トモニ,0
1686,6700150128878,新規,0,2025-01-21,2025-01-21,ｓｈｅｎｚｈｅｎｓｈｉｃｈｅｎｓｈａｎｇｓｈｉｙｅｆａｚｈａｎｙｏｕｘｉａｎｇｏｎｇｓｉ,,外国会社等,,,,,,,,ｓｈｅｎｚｈｅｎｓｈｉｂａｏａｎｑｕｘｉｎｑｉａｏｊｉｅｄａｏｓｈａｎｇｌｉａｏｓｈｅｑｕｇｕａｎｇｓｈｅｎｌｕｓｈａｊｉｎｇｄｕａｎ１２０ｈａｏｊｕｎｙｅｄａｓｈａｓｉｃｅｎｇ,,,,,,2025-01-21,1,,,,,シンセンシチェンシャンシイエファザンユウゲンコウシ,0
1702,7010001251411,新規,0,2025-01-21,2025-01-21,ＪＯＹ株式会社,,株式会社,東京都,文京区,向丘１丁目９番１８号平山ビル２Ｅ,,13,105,1130023,,,,,,,2025-01-21,1,,,,,ジョイ,0
1703,7010001251618,新規,0,2025-01-21,2025-01-21,株式会社ムゲンアセットマネジメント,,株式会社,東京都,千代田区,大手町１丁目９番７号,,13,101,1000004,,,,,,,2025-01-21,1,,,,,ムゲンアセットマネジメント,0
1706,7010003045951,新規,0,2025-01-21,2025-01-21,泰造総合研究所合同会社,,合同会社,東京都,中央区,銀座１丁目１２番４号Ｎ＆Ｅビル６階,,13,102,1040061,,,,,,,2025-01-21,1,,,,,タイゾウソウゴウケンキュウジョ,0
1707,7010003046090,新規,0,2025-01-21,2025-01-21,合同会社Ｍｉｘ　Ｓａｎｄ　Ｈｉｔａｃｈｉ００３,,合同会社,東京都,千代田区,霞が関３丁目２番５号,,13,101,1000013,,,,,,,2025-01-21,1,,,,,ミックスサンドヒタチゼロゼロスリー,0
1708,7010003046108,新規,0,2025-01-21,2025-01-21,日本橋安平ソーラー合同会社,,合同会社,東京都,中央区,日本橋室町１丁目１１番１２号日本橋水野ビル７階,,13,102,1030022,,,,,,,2025-01-21,1,,,,,ニホンバシアビラソーラー,0
1713,7010101016490,新規,0,2025-01-21,2025-01-21,株式会社川戸不動産,,株式会社,東京都,八王子市,めじろ台２丁目３５番地６,,13,201,1930833,,,,,,,2025-01-21,1,,,,,カワトフドウサン,0
1720,7010401187627,新規,0,2025-01-21,2025-01-21,ＴＳＭコンサルティング株式会社,,株式会社,東京都,港区,六本木４丁目１番４号黒崎ビル３階,,13,103,1060032,,,,,,,2025-01-21,1,,,,,ティーエスエムコンサルティング,0
1723,7010501053497,新規,0,2025-01-21,2025-01-21,アルカディア株式会社,,株式会社,東京都,台東区,浅草橋１丁目３番１５－２０２号リバーサイド浅草橋,,13,106,1110053,,,,,,,2025-01-21,1,,,,,アルカディア,0
1729,7010703007540,新規,0,2025-01-21,2025-01-21,旭和投資合同会社,,合同会社,東京都,品川区,大崎２丁目９番１号,,13,109,1410032,,,,,,,2025-01-21,1,,,,,キョクワトウシ,0
1730,7010801035765,新規,0,2025-01-21,2025-01-21,株式会社サエグサ建物管理,,株式会社,東京都,大田区,池上４丁目２７番７号,,13,111,1460082,,,,,,,2025-01-21,1,,,,,サエグサタテモノカンリ,0
1735,7011001167135,新規,0,2025-01-21,2025-01-21,株式会社ＫＯＴＯＢＵＫＩ,,株式会社,東京都,渋谷区,恵比寿３丁目９－２９シェビア恵比寿２階ＲｅｌｉｃＳＱＵＡＲＥＺＥＲＯ,,13,113,1500013,,,,,,,2025-01-21,1,,,,,コトブキ,0
1736,7011001167259,新規,0,2025-01-21,2025-01-21,Ｎｅｗｌｏｎ株式会社,,株式会社,東京都,渋谷区,道玄坂１丁目１０番８号渋谷道玄坂東急ビル２Ｆ－Ｃ,,13,113,1500043,,,,,,,2025-01-21,1,,,,,ニューロン,0
1737,7011001167300,新規,0,2025-01-21,2025-01-21,ＣＡＴＬＡＮＴＩＳ株式会社,,株式会社,東京都,渋谷区,桜丘町２６番１号セルリアンタワー１５階,,13,113,1500031,,,,,,,2025-01-21,1,,,,,キャットランティス,0
1742,7011301030307,新規,0,2025-01-21,2025-01-21,ＢａｓｅＥ株式会社,,株式会社,東京都,杉並区,宮前４丁目２１番３１－４０７号,,13,115,1680081,,,,,,,2025-01-21,1,,,,,ベースイー,0
1751,7011701027984,新規,0,2025-01-21,2025-01-21,株式会社ＣＬＩＦ　ＳＴＹＬＥ,,株式会社,東京都,江戸川区,西葛西６丁目１３－１４丸清ビル２Ｆ－Ｈ,,13,123,1340088,,,,,,,2025-01-21,1,,,,,クリフスタイル,0
1762,7012703003180,新規,0,2025-01-21,2025-01-21,岩戸不動産合同会社,,合同会社,東京都,東村山市,秋津町４丁目３４－２秋津町四丁目ハウス２０１号,,13,213,1890001,,,,,,,2025-01-21,1,,,,,イワトフドウサン,0
1773,7020001160850,新規,0,2025-01-21,2025-01-21,株式会社Ｒｅｓｏｌ,,株式会社,神奈川県,横浜市青葉区,すすき野３丁目５番地１４,,14,117,2250021,,,,,,,2025-01-21,1,,,,,レゾル,0
1774,7020001160883,新規,0,2025-01-21,2025-01-21,株式会社シンクタンクたんぽぽ,,株式会社,神奈川県,横浜市鶴見区,平安町１丁目１－１・１－７０８,,14,101,2300031,,,,,,,2025-01-21,1,,,,,シンクタンクタンポポ,0
1775,7020001160909,新規,0,2025-01-21,2025-01-21,大誉商事株式会社,,株式会社,神奈川県,横浜市南区,浦舟町１丁目１－１３,,14,105,2320024,,,,,,,2025-01-21,1,,,,,ダイヨショウジ,0
1776,7020001161114,新規,0,2025-01-21,2025-01-21,株式会社あってなＲ＆Ｄ,,株式会社,神奈川県,川崎市多摩区,中野島６丁目２１番２７号,,14,135,2140012,,,,,,,2025-01-21,1,,,,,アッテナアールアンドディー,0
1778,7020003027585,新規,0,2025-01-21,2025-01-21,合同会社ＫＫＭＣ,,合同会社,神奈川県,川崎市高津区,下作延１丁目５番２７号,,14,134,2130033,,,,,,,2025-01-21,1,,,,,ケイケイエムシイ,0
1786,7021001084255,新規,0,2025-01-21,2025-01-21,ゆたかな未来株式会社,,株式会社,神奈川県,藤沢市,片瀬２丁目１９番３１号,,14,205,2510032,,,,,,,2025-01-21,1,,,,,ユタカナミライ,0
1791,7030003025927,新規,0,2025-01-21,2025-01-21,合同会社野本事務所,,合同会社,埼玉県,熊谷市,押切２６５１番地２,,11,202,3600111,,,,,,,2025-01-21,1,,,,,ノモトジムショ,0
1801,7040003026635,新規,0,2025-01-21,2025-01-21,ＶＩＮ９９合同会社,,合同会社,千葉県,八千代市,大和田９２０番地４１,,12,221,2760045,,,,,,,2025-01-21,1,,,,,ビンキュウキュウ,0
1805,7050003008946,新規,0,2025-01-21,2025-01-21,合同会社ＫＵＲＡＴＯ,,合同会社,茨城県,水戸市,中原町９９１番地の２,,08,201,3190305,,,,,,,2025-01-21,1,,,,,クラト,0
1807,7070001042565,新規,0,2025-01-21,2025-01-21,株式会社中尾将園,,株式会社,群馬県,吾妻郡長野原町,大字応桑１５４３番地３３４,,10,424,3771411,,,,,,,2025-01-21,1,,,,,ナカオショウエン,0
1834,7120001272033,新規,0,2025-01-21,2025-01-21,株式会社ＭＥＳＨＩＡＴＳＵ,,株式会社,大阪府,大阪市西区,南堀江２丁目１２番１４号３０２,,27,106,5500015,,,,,,,2025-01-21,1,,,,,メシアツ,0
1835,7120001272058,新規,0,2025-01-21,2025-01-21,株式会社Ｅ‐ＨＯＭＥ,,株式会社,大阪府,枚方市,三栗１丁目４番１号ガレージスペース枚方三栗２号,,27,210,5731171,,,,,,,2025-01-21,1,,,,,イーホーム,0
1836,7120001272099,新規,0,2025-01-21,2025-01-21,株式会社ａｌｌ　ｕｓｅ,,株式会社,大阪府,大阪市此花区,梅香１丁目１２番１７－１０３号,,27,104,5540013,,,,,,,2025-01-21,1,,,,,オールユース,0
1842,7120003028383,新規,0,2025-01-21,2025-01-21,合同会社創,,合同会社,大阪府,大阪市平野区,瓜破東２丁目１番１２号７階７０１号室,,27,126,5470022,,,,,,,2025-01-21,1,,,,,ソウ,0
1843,7120005024728,新規,0,2025-01-21,2025-01-21,医療法人詠仁会,,その他の設立登記法人,大阪府,大阪市淀川区,西三国２丁目８番１７号タカスビル２階,,27,123,5320006,,,,,,,2025-01-21,1,,,,,エイジンカイ,0
1849,7120101070923,新規,0,2025-01-21,2025-01-21,株式会社Ｊクリサービス,,株式会社,大阪府,松原市,天美我堂６丁目５番４１号,,27,217,5800026,,,,,,,2025-01-21,1,,,,,ジェイクリサービス,0
1853,7120901050315,新規,0,2025-01-21,2025-01-21,株式会社フォレストサイド,,株式会社,大阪府,高槻市,別所本町５番１３号,,27,207,5691112,,,,,,,2025-01-21,1,,,,,フォレストサイド,0
1854,7120901050323,新規,0,2025-01-21,2025-01-21,株式会社ＡＮＳ　ＦＡＣＴＯＲＹ,,株式会社,大阪府,摂津市,東正雀１５－１２,,27,224,5660025,,,,,,,2025-01-21,1,,,,,アンズファクトリー,0
1858,7122001038819,新規,0,2025-01-21,2025-01-21,株式会社Ｂｒｉｇｈｔ　Ｒｅａｃｈ,,株式会社,大阪府,東大阪市,高井田元町２丁目９番２２－４０４号,,27,227,5770054,,,,,,,2025-01-21,1,,,,,ブライトリーチ,0
1859,7122003003085,新規,0,2025-01-21,2025-01-21,合同会社ＥｎＭＩＮＤ,,合同会社,大阪府,八尾市,西山本町１丁目８番１１号,,27,212,5810868,,,,,,,2025-01-21,1,,,,,エンマインド,0
1861,7130001078818,新規,0,2025-01-21,2025-01-21,株式会社テナントアテンド,,株式会社,京都府,京都市中京区,釜座町２２ストークビル三条烏丸３０９,,26,104,6048241,,,,,,,2025-01-21,1,,,,,テナントアテンド,0
1862,7130003010142,新規,0,2025-01-21,2025-01-21,ティロワール合同会社,,合同会社,京都府,綾部市,高津町古屋敷２２番地,,26,203,6230045,,,,,,,2025-01-21,1,,,,,ティロワール,0
1884,7180001165033,新規,0,2025-01-21,2025-01-21,令和電設株式会社,,株式会社,愛知県,北名古屋市,弥勒寺東４丁目１１魚住住宅Ａ棟,,23,234,4810031,,,,,,,2025-01-21,1,,,,,レイワデンセツ,0
1885,7180001165066,新規,0,2025-01-21,2025-01-21,株式会社Ｂｌｉｓｓ,,株式会社,愛知県,名古屋市西区,城西４丁目１４番５号,,23,104,4510031,,,,,,,2025-01-21,1,,,,,ブリス,0
1886,7180001165099,新規,0,2025-01-21,2025-01-21,カワイホールディングス株式会社,,株式会社,愛知県,名古屋市中区,丸の内３丁目６番３３号２１０４,,23,106,4600002,,,,,,,2025-01-21,1,,,,,カワイホールディングス,0
1891,7180003027900,新規,0,2025-01-21,2025-01-21,合同会社ＹＴＭＣ,,合同会社,愛知県,大府市,桜木町２丁目１９２番地,,23,223,4740044,,,,,,,2025-01-21,1,,,,,ワイテイエムシイ,0
1895,7180301039440,新規,0,2025-01-21,2025-01-21,株式会社ＬＳＳ,,株式会社,愛知県,岡崎市,中島町字遂分７番地１Ｂ１０１,,23,202,4440226,,,,,,,2025-01-21,1,,,,,エルエスエス,0
1899,7180303006422,新規,0,2025-01-21,2025-01-21,合同会社ライジング,,合同会社,愛知県,豊川市,八幡町東赤土８３番地の８,,23,207,4420857,,,,,,,2025-01-21,1,,,,,ライジング,0
1903,7200001043351,新規,0,2025-01-21,2025-01-21,丸鍛株式会社,,株式会社,岐阜県,安八郡安八町,城４丁目３番地,,21,383,5030127,,,,,,,2025-01-21,1,,,,,マルタン,0
1905,7240001064402,新規,0,2025-01-21,2025-01-21,株式会社ヒナタ,,株式会社,広島県,安芸郡熊野町,川角１丁目１番１ー１３号,,34,307,7314223,,,,,,,2025-01-21,1,,,,,ヒナタ,0
1911,7290003016306,新規,0,2025-01-21,2025-01-21,ＨＶ　ＧＲＯＵＰ合同会社,,合同会社,福岡県,久留米市,梅満町３４３番地１スクエアコートＩ－１０２号,00137720,40,203,8300048,,,,,,,2025-01-21,1,,,,,エイチヴィーグループ,0
1912,7290003016314,新規,0,2025-01-21,2025-01-21,合同会社オフィスＳ,,合同会社,福岡県,福岡市城南区,金山団地１７番４０３号,,40,136,8140114,,,,,,,2025-01-21,1,,,,,オフィスエス,0
1914,7290801031209,新規,0,2025-01-21,2025-01-21,株式会社フクオカベバレッジ,,株式会社,福岡県,遠賀郡岡垣町,大字内浦５４４,,40,383,8114203,,,,,,,2025-01-21,1,,,,,フクオカベバレッジ,0
1915,7290801031217,新規,0,2025-01-21,2025-01-21,株式会社ＳＵＮ　ＳＴＥＰ,,株式会社,福岡県,宮若市,磯光１５９４番地１２Ｋ－ＢＬＤＮｏ．０３,,40,226,8230004,,,,,,,2025-01-21,1,,,,,サンステップ,0
1924,7340001027068,新規,0,2025-01-21,2025-01-21,株式会社みやこ温泉,,株式会社,鹿児島県,鹿児島市,上竜尾町５番２８号,,46,201,8920851,,,,,,,2025-01-21,1,,,,,ミヤコオンセン,0
1929,7370001052138,新規,0,2025-01-21,2025-01-21,株式会社Ｓｔａｔｉｃ　Ｙｉｅｌｄ,,株式会社,宮城県,仙台市青葉区,国見６丁目１番１０号,,04,101,9810943,,,,,,,2025-01-21,1,,,,,スタティックイールド,0
1939,7430001093506,新規,0,2025-01-21,2025-01-21,旭日株式会社,,株式会社,北海道,札幌市中央区,大通東８丁目１番地２１５ＫＭビル１階,,01,101,0600041,,,,,,,2025-01-21,1,,,,,アサヒ,0
1942,7462503000226,新規,0,2025-01-21,2025-01-21,合同会社サファリ,,合同会社,北海道,野付郡別海町,床丹１番地の４１,,01,691,0860521,,,,,,,2025-01-21,1,,,,,,0
1954,7700150128869,新規,0,2025-01-21,2025-01-21,Ｓｈｅｎｚｈｅｎ　Ｐｕｃｈｕａｎｄｅｎｇ　Ｔｅｃｈｎｏｌｏｇｙ　Ｃｏ．，Ｌｔｄ,,外国会社等,,,,,,,,ｌｏｎｇｇａｎｇｊｉｅｄａｏｗｕｌｉａｎｓｈｅｑｕｌａｉｎｘｉｎｌｕ１ｈａｏｂａｏｄａｙｕｄｕｈｕａｙｕａｎ２ｄｏｎｇＡ，ｓｈｅｎｚｈｅｎｓｈｉ，Ｇｕａｎｇｄｏｎｇ,,,,,,2025-01-21,1,,,,,シェンジェンシープーチュワンドンコージーヨウシエンゴンスー,0
1955,7700150128877,新規,0,2025-01-21,2025-01-21,ｓｈｅｎｚｈｅｎａｎｘｉｎｔａｉｈｅｋｅｊｉｙｏｕｘｉａｎｇｏｎｇｓｉ,,外国会社等,,,,,,,,ｓｈｅｎｚｈｅｎｓｈｉ　ｌｏｎｇｈｕａｑｕ　ｄａｌａｎｇｊｉｅｄａｏ　ｌｏｎｇｐｉｎｇｓｈｅｑｕｂｕｊｉｕｗｏｂａｏ　ｌｏｎｇｊｕｎｇｏｎｇｙｅｑｕ　７ｈａｏ　２０１,,,,,,2025-01-21,1,,,,,シンセンシンタイヘカギユウゲンコウシ,0
1966,8010001251121,新規,0,2025-01-21,2025-01-21,Ｈａｒｍｏｎｉａ　Ｐａｒｔｎｅｒｓ株式会社,,株式会社,東京都,中央区,銀座１丁目２２番１１号銀座大竹ビジデンス２Ｆ,,13,102,1040061,,,,,,,2025-01-21,1,,,,,ハルモニアパートナーズ,0
1967,8010001251311,新規,0,2025-01-21,2025-01-21,悦栄株式会社,,株式会社,東京都,文京区,音羽１丁目２３番１２号第一晃和堂ビル４０３号室,,13,105,1120013,,,,,,,2025-01-21,1,,,,,エツエイ,0
1968,8010001251526,新規,0,2025-01-21,2025-01-21,株式会社ＴＨＯＭＰＳＯＮ,,株式会社,東京都,中央区,築地６丁目２番１２号アトラス築地１０２,,13,102,1040045,,,,,,,2025-01-21,1,,,,,トンプソン,0
1972,8010003046131,新規,0,2025-01-21,2025-01-21,合同会社Ｓｈｉｚｕｋｕ,,合同会社,東京都,中央区,日本橋室町１丁目１１番１２号日本橋水野ビル７階,,13,102,1030022,,,,,,,2025-01-21,1,,,,,シズク,0
1974,8010005039430,新規,0,2025-01-21,2025-01-21,司法書士法人ビスポーク,,その他の設立登記法人,東京都,中央区,日本橋小網町８番２号ＢＩＺＭＡＲＫＳ日本橋茅場町４０２,,13,102,1030016,,,,,,,2025-01-21,1,,,,,ビスポーク,0
1983,8010401187551,新規,0,2025-01-21,2025-01-21,株式会社コネクトヒーロー,,株式会社,東京都,港区,六本木２丁目２番２号,,13,103,1060032,,,,,,,2025-01-21,1,,,,,コネクトヒーロー,0
1984,8010401187642,新規,0,2025-01-21,2025-01-21,株式会社トラビック,,株式会社,東京都,港区,芝２丁目２２番９－１１０５号,,13,103,1050014,,,,,,,2025-01-21,1,,,,,トラビック,0
1985,8010401187683,新規,0,2025-01-21,2025-01-21,アンノット株式会社,,株式会社,東京都,港区,南麻布１丁目４番１６－１１０１号,,13,103,1060047,,,,,,,2025-01-21,1,,,,,アンノット,0
1991,8010403034165,新規,0,2025-01-21,2025-01-21,ストーンフォレスト合同会社,,合同会社,東京都,港区,赤坂９丁目１－２７－１００１,,13,103,1070052,,,,,,,2025-01-21,1,,,,,ストーンフォレスト,0
1998,8010603011328,新規,0,2025-01-21,2025-01-21,合同会社ＫＯＴＯＢＵＫＩアドバイザリー,,合同会社,東京都,江東区,白河３丁目１２番１－３１０１号,,13,108,1350021,,,,,,,2025-01-21,1,,,,,コトブキアドバイザリー,0
2006,8010801035764,新規,0,2025-01-21,2025-01-21,ＳＡＭＵＲＡＩ株式会社,,株式会社,東京都,大田区,山王２丁目１番８号山王アーバンライフ３０２号,,13,111,1430023,,,,,,,2025-01-21,1,,,,,,0
2015,8010903009658,新規,0,2025-01-21,2025-01-21,Ｔ＆Ｗ龍合同会社,,合同会社,東京都,世田谷区,松原１丁目３２番８号,,13,112,1560043,,,,,,,2025-01-21,1,,,,,ティーアンドダブリューリュウ,0
2020,8011001167225,新規,0,2025-01-21,2025-01-21,株式会社スターク・アドバイザリー,,株式会社,東京都,渋谷区,代官山町１７番１－１９０２号,,13,113,1500034,,,,,,,2025-01-21,1,,,,,,0
2021,8011001167308,新規,0,2025-01-21,2025-01-21,株式会社スカイトークン,,株式会社,東京都,渋谷区,渋谷２丁目１９番１５号宮益坂ビルディング６０９,,13,113,1500002,,,,,,,2025-01-21,1,,,,,スカイトークン,0
2022,8011003020786,新規,0,2025-01-21,2025-01-21,合同会社ＹＯＫＩＮＩ,,合同会社,東京都,目黒区,東山３丁目２２－７ベルメゾン３０３,,13,110,1530043,,,,,,,2025-01-21,1,,,,,ヨキニ,0
2023,8011003020811,新規,0,2025-01-21,2025-01-21,ＴＹ　ＣＯＮＳＵＬＴＩＮＧ合同会社,,合同会社,東京都,渋谷区,道玄坂１丁目１０番８号渋谷道玄坂東急ビル２Ｆ－Ｃ,,13,113,1500043,,,,,,,2025-01-21,1,,,,,ティーワイコンサルティング,0
2028,8011201026065,新規,0,2025-01-21,2025-01-21,東京時豊株式会社,,株式会社,東京都,中野区,本町１丁目３２番２４－１００２号,,13,114,1640012,,,,,,,2025-01-21,1,,,,,トウキョウジホウ,0
2029,8011301030289,新規,0,2025-01-21,2025-01-21,巨金湾株式会社,,株式会社,東京都,杉並区,堀ノ内３丁目１６番３５号１０１室,,13,115,1660013,,,,,,,2025-01-21,1,,,,,キョキンワン,0
2042,8011703004097,新規,0,2025-01-21,2025-01-21,合同会社Ｈ１,,合同会社,東京都,江戸川区,南小岩６丁目１０―４,,13,123,1330056,,,,,,,2025-01-21,1,,,,,エイチワン,0
2043,8011801045448,新規,0,2025-01-21,2025-01-21,株式会社成新工業,,株式会社,東京都,葛飾区,東新小岩３丁目１１番１６‐３０１号,,13,122,1240023,,,,,,,2025-01-21,1,,,,,セイシンコウギョウ,0
2044,8011801045472,新規,0,2025-01-21,2025-01-21,株式会社シンホン,,株式会社,東京都,葛飾区,堀切７丁目６番１３号,,13,122,1240006,,,,,,,2025-01-21,1,,,,,シンホン,0
2045,8011801045480,新規,0,2025-01-21,2025-01-21,春龍株式会社,,株式会社,東京都,足立区,保木間４丁目３２番４号,,13,121,1210064,,,,,,,2025-01-21,1,,,,,シュンリュウ,0
2047,8012403006920,新規,0,2025-01-21,2025-01-21,スカイピア合同会社,,合同会社,東京都,多摩市,関戸２丁目２４番地２６号加瀬ビル１１７－７階,,13,224,2060011,,,,,,,2025-01-21,1,,,,,スカイピア,0
2050,8013105001862,新規,0,2025-01-21,2025-01-21,一般社団法人つむぐまちづくり奥多摩,,その他の設立登記法人,東京都,西多摩郡奥多摩町,小丹波４９２,,13,308,1980105,,,,,,,2025-01-21,1,,,,,ツムグマチヅクリオクタマ,0
2057,8020001160866,新規,0,2025-01-21,2025-01-21,株式会社Ｒ,,株式会社,神奈川県,横浜市神奈川区,金港町５番地１４クアドリフォリオ８階,,14,102,2210056,,,,,,,2025-01-21,1,,,,,アール,0
2064,8020003027601,新規,0,2025-01-21,2025-01-21,ひろなる合同会社,,合同会社,神奈川県,横浜市保土ケ谷区,川島町５６９番地,,14,106,2400045,,,,,,,2025-01-21,1,,,,,ヒロナル,0
2066,8021001084254,新規,0,2025-01-21,2025-01-21,株式会社虹色,,株式会社,神奈川県,横須賀市,太田和２丁目１１番３６号,,14,201,2380311,,,,,,,2025-01-21,1,,,,,ニジイロ,0
2074,8040003026568,新規,0,2025-01-21,2025-01-21,合同会社Ｒａｄｉａｒａ,,合同会社,千葉県,千葉市緑区,あすみが丘２丁目２０番地１エスポワールＢ棟１０３号,,12,105,2670066,,,,,,,2025-01-21,1,,,,,ラディアナ,0
2075,8050001056054,新規,0,2025-01-21,2025-01-21,ＳＩシステム株式会社,,株式会社,茨城県,古河市,上大野１９２３番地３,,08,204,3060201,,,,,,,2025-01-21,1,,,,,ソーシャルイノベーションシステム,0
2077,8060001037846,新規,0,2025-01-21,2025-01-21,株式会社Ｂａｔｕｇｕｎ,,株式会社,栃木県,宇都宮市,山本３丁目１３番４号ＵｔｓｕｎｏｍｉｙａＨｉｌｌｓＣ,,09,201,3200012,,,,,,,2025-01-21,1,,,,,バツグン,0
2095,8100001038212,新規,0,2025-01-21,2025-01-21,株式会社ライフヤード,,株式会社,長野県,松本市,波田１４７２番地４,,20,202,3901401,,,,,,,2025-01-21,1,,,,,ライフヤード,0
2096,8100001038229,新規,0,2025-01-21,2025-01-21,株式会社築宅不動産,,株式会社,長野県,長野市,若穂綿内６３６３番地１８,,20,201,3810101,,,,,,,2025-01-21,1,,,,,チクタクフドウサン,0
2099,8110001039003,新規,0,2025-01-21,2025-01-21,株式会社ｃｉｖｉｃｈｕｂ,,株式会社,新潟県,加茂市,上町１－１５,,15,209,9591352,,,,,,,2025-01-21,1,,,,,シビックハブ,0
2109,8120001272016,新規,0,2025-01-21,2025-01-21,企鵝株式会社,,株式会社,大阪府,大阪市生野区,巽中２丁目１３－１５タツミビル西２Ｆｏｆｆｉｃｅｐａｒｋ巽２０９,,27,116,5440013,,,,,,,2025-01-21,1,,,,,キガ,0
2110,8120001272032,新規,0,2025-01-21,2025-01-21,株式会社チモシー,,株式会社,大阪府,大阪市浪速区,難波中２丁目８－６５,,27,111,5560011,,,,,,,2025-01-21,1,,,,,チモシー,0
2111,8120001272073,新規,0,2025-01-21,2025-01-21,株式会社エコライフパートナーズ,,株式会社,大阪府,大阪市北区,西天満６丁目７番２号新日本梅新ビル４階Ｄ１,,27,127,5300047,,,,,,,2025-01-21,1,,,,,エコライフパートナーズ,0
2112,8120001272180,新規,0,2025-01-21,2025-01-21,ＤＲＥＡＭ　ＭＥＩＳＴＥＲＳ株式会社,,株式会社,大阪府,大阪市中央区,森ノ宮中央２丁目１２番１２号,,27,128,5400003,,,,,,,2025-01-21,1,,,,,ドリームマイスターズ,0
2117,8120003028390,新規,0,2025-01-21,2025-01-21,合同会社ＨＩＬＯ,,合同会社,大阪府,大阪市浪速区,元町１丁目１０番２０号,,27,111,5560016,,,,,,,2025-01-21,1,,,,,ヒーロー,0
2118,8120003028416,新規,0,2025-01-21,2025-01-21,ＮＯＸＦＬＯＳ合同会社,,合同会社,大阪府,大阪市北区,梅田１丁目２－２大阪駅前第２ビル１２－１２,,27,127,5300001,,,,,,,2025-01-21,1,,,,,ノックスフロース,0
2119,8120005024735,新規,0,2025-01-21,2025-01-21,医療法人凛青会,,その他の設立登記法人,大阪府,大阪市西区,南堀江４丁目１０番１４号,,27,106,5500015,,,,,,,2025-01-21,1,,,,,リンセイカイ,0
2128,8120903005514,新規,0,2025-01-21,2025-01-21,合同会社絆瑛舎,,合同会社,大阪府,摂津市,正雀３丁目１１番１０号,,27,224,5660023,,,,,,,2025-01-21,1,,,,,バンエイシャ,0
2130,8122001038801,新規,0,2025-01-21,2025-01-21,ＮＯＡＮＳ株式会社,,株式会社,大阪府,柏原市,国分西１丁目２番２４号メゾン大邦国分５０２号,,27,221,5820025,,,,,,,2025-01-21,1,,,,,ノアンズ,0
2131,8122001038818,新規,0,2025-01-21,2025-01-21,株式会社ｏｆｆｉｃｅ　ａｐｒｉｃｏｔ,,株式会社,大阪府,東大阪市,源氏ケ丘４番１８号,,27,227,5770822,,,,,,,2025-01-21,1,,,,,オフィスアプリコット,0
2132,8122003003101,新規,0,2025-01-21,2025-01-21,Ｎｅｂｕｌａ　Ｓｔｕｄｉｏ合同会社,,合同会社,大阪府,東大阪市,出雲井本町４番８号,,27,227,5798034,,,,,,,2025-01-21,1,,,,,ネブラスタジオ,0
2136,8130001078825,新規,0,2025-01-21,2025-01-21,晴軒株式会社,,株式会社,京都府,京都市中京区,天神山町２８０番地石勘ビル５－１４室,,26,104,6048221,,,,,,,2025-01-21,1,,,,,セイケン,0
2141,8140001137076,新規,0,2025-01-21,2025-01-21,フォトン・バイオ・アイ株式会社,,株式会社,兵庫県,姫路市,飾磨区都倉２丁目７５番地２,,28,201,6728046,,,,,,,2025-01-21,1,,,,,フォトンバイオアイ,0
2151,8160001026491,新規,0,2025-01-21,2025-01-21,エスイーテック株式会社,,株式会社,滋賀県,甲賀市,水口町朝日が丘４番３２号,,25,209,5280072,,,,,,,2025-01-21,1,,,,,エスイーテック,0
2159,8180001165024,新規,0,2025-01-21,2025-01-21,株式会社Ｖｉｆ,,株式会社,愛知県,半田市,花園町４丁目２番地の２,,23,205,4750833,,,,,,,2025-01-21,1,,,,,ヴィフ,0
2160,8180001165081,新規,0,2025-01-21,2025-01-21,株式会社リファラル,,株式会社,愛知県,大府市,柊山町６丁目８０番地の６,,23,223,4740053,,,,,,,2025-01-21,1,,,,,リファラル,0
2162,8180003027899,新規,0,2025-01-21,2025-01-21,フォーシーズン合同会社,,合同会社,愛知県,春日井市,高蔵寺町４丁目９－１２,,23,206,4870013,,,,,,,2025-01-21,1,,,,,フォーシーズン,0
2169,8240001064401,新規,0,2025-01-21,2025-01-21,株式会社ＰＲＩＤＥ　ＬＡＮＤ,,株式会社,広島県,広島市中区,西平塚町６番５号西平塚セピア３０３,,34,101,7300024,,,,,,,2025-01-21,1,,,,,プライドランド,0
2176,8280003001910,新規,0,2025-01-21,2025-01-21,合同会社くいしんぼ,,合同会社,島根県,益田市,赤城町１０番３号,,32,204,6980034,,,,,,,2025-01-21,1,,,,,クイシンボ,0
2182,8290001108673,新規,0,2025-01-21,2025-01-21,株式会社ｍｉｚｕｉｒｏｔｉｍｅ,,株式会社,福岡県,久留米市,津福本町３３７番地５,,40,203,8300047,,,,,,,2025-01-21,1,,,,,ミズイロタイム,0
2184,8290003016305,新規,0,2025-01-21,2025-01-21,ＨＳ　Ｃｌｏｔｈｉｎｇ合同会社,,合同会社,福岡県,嘉穂郡桂川町,大字豆田５２－５中嶋アパート２１３号,,40,421,8200608,,,,,,,2025-01-21,1,,,,,エイチエスクロージング,0
2186,8290801031208,新規,0,2025-01-21,2025-01-21,株式会社彩工房,,株式会社,福岡県,北九州市小倉北区,今町２丁目１８番７－２０５号,,40,106,8030862,,,,,,,2025-01-21,1,,,,,イロドリコウボウ,0
2187,8290801031216,新規,0,2025-01-21,2025-01-21,株式会社ＮＫｗｏｒｋｓ,,株式会社,福岡県,北九州市八幡西区,沖田３丁目１１番７号,,40,109,8070077,,,,,,,2025-01-21,1,,,,,エヌケイワークス,0
2209,8430001093505,新規,0,2025-01-21,2025-01-21,株式会社ＳａｍｏＸ,,株式会社,北海道,空知郡南幌町,東町４丁目６番１号,,01,423,0690233,,,,,,,2025-01-21,1,,,,,サモックス,0
2211,8460101007659,新規,0,2025-01-21,2025-01-21,ファームコミットメント株式会社,,株式会社,北海道,帯広市,西十五条南２９丁目２番地８ＴＯＷＮ南町東１Ｈ号室,,01,207,0800025,,,,,,,2025-01-21,1,,,,,ファームコミットメント,0
2217,8470001020538,新規,0,2025-01-21,2025-01-21,３ｏｎＢａｓｅ株式会社,,株式会社,香川県,高松市,番町５丁目６番１１号,,37,201,7600017,,,,,,,2025-01-21,1,,,,,スリーオンベース,0
2224,8480001012716,新規,0,2025-01-21,2025-01-21,光和カーボンクラフト株式会社,,株式会社,徳島県,美馬郡つるぎ町,半田字田井１３０番地,,36,468,7794402,,,,,,,2025-01-21,1,,,,,コウワカーボンクラフト,0
2226,8700150128868,新規,0,2025-01-21,2025-01-21,ＴＣＥＬＬ　Ｔｅｃｈｎｏｌｏｇｙ　ＣＯ．，ＬＴＤ,,外国会社等,,,,,,,,１３Ｆ－２，Ｎｏ．２８７，Ｓｅｃ．２，Ｋｕａｎｇ－Ｆｕ　Ｒｄ，Ｅａｓｔ　Ｄｉｓｔ．，Ｈｓｉｎｃｈｕ　ｃｉｔｙ，Ｔａｉｗａｎ（Ｒ．Ｏ．Ｃ）,,,,,,2025-01-21,1,,,,,グワンユエンコージーグーフェンヨウシエンゴンスー,0
2227,8700150128876,新規,0,2025-01-21,2025-01-21,Ｓｋｙｌｉｎｅ　Ｐａｃｉｆｉｃ　Ｔｒａｄｉｎｇ　Ｌｉｍｉｔｅｄ,,外国会社等,,,,,,,,ＵＮＩＴ　１３０７，ＢＥＶＥＲＬＥＹ　ＣＯＭＭ　ＣＥＮＴＲＥ，８７－１０５　ＣＨＡＴＨＡＭ　ＲＤ　ＳＯＵＴＨ，ＴＳＩＭ　ＳＨＡ　ＴＳＵＩ　ＨＯＮＧ　ＫＯＮＧ,,,,,,2025-01-21,1,,,,,シャンガンフワーヌオシュエンマオイーヨウシエンゴンスー,0
2236,9010001251608,新規,0,2025-01-21,2025-01-21,株式会社エスコーポレートソリューションズ,,株式会社,東京都,千代田区,丸の内２丁目７番２号ＪＰタワー２３階,,13,101,1000005,,,,,,,2025-01-21,1,,,,,エスコーポレートソリューションズ,0
2238,9010101016489,新規,0,2025-01-21,2025-01-21,燈データアナリティクス株式会社,,株式会社,東京都,八王子市,椚田町１２１２番地２４カーザ・フォレスタ８０６号,,13,201,1930942,,,,,,,2025-01-21,1,,,,,トモシビデータアナリティクス,0
2248,9010401187253,新規,0,2025-01-21,2025-01-21,株式会社ＭＯＧＵ,,株式会社,東京都,港区,三田５丁目２－１８三田ハウス１１０１,,13,103,1080073,,,,,,,2025-01-21,1,,,,,モグ,0
2249,9010401187641,新規,0,2025-01-21,2025-01-21,株式会社ＰＩＥＢＲＵ,,株式会社,東京都,港区,北青山１丁目３番１号アールキューブ青山３階,,13,103,1070061,,,,,,,2025-01-21,1,,,,,ピエブル,0
2250,9010401187682,新規,0,2025-01-21,2025-01-21,株式会社一休,,株式会社,東京都,港区,芝２丁目２８番１１－５０８号,,13,103,1050014,,,,,,,2025-01-21,1,,,,,イッキュウ,0
2256,9010605004403,新規,0,2025-01-21,2025-01-21,一般社団法人日本儒友会,,その他の設立登記法人,東京都,江東区,北砂６丁目２５－４,,13,108,1360073,,,,,,,2025-01-21,1,,,,,ニホンジュユウカイ,0
2260,9010701047116,新規,0,2025-01-21,2025-01-21,株式会社ＭＹ　ＧＲＡＮ,,株式会社,東京都,品川区,東五反田５丁目１１番１７－２０１号,,13,109,1410022,,,,,,,2025-01-21,1,,,,,マイグラン,0
2263,9010801035763,新規,0,2025-01-21,2025-01-21,株式会社テテ,,株式会社,東京都,大田区,南馬込３丁目３８－１５,,13,111,1430025,,,,,,,2025-01-21,1,,,,,テテ,0
2264,9010801035771,新規,0,2025-01-21,2025-01-21,株式会社ＦｏｕｎｔａｉｎＬｏｇｉｃ,,株式会社,東京都,大田区,西嶺町３２番４号,,13,111,1450075,,,,,,,2025-01-21,1,,,,,ファウンテンロジック,0
2277,9011001167059,新規,0,2025-01-21,2025-01-21,株式会社ＢＡＮＤＡＩ　ＴＲＡＮＳＰＯＲＴ,,株式会社,東京都,目黒区,下目黒３丁目１７番６号Ｇフォレスト目黒不動３０１,,13,110,1530064,,,,,,,2025-01-21,1,,,,,バンダイトランスポート,0
2278,9011001167133,新規,0,2025-01-21,2025-01-21,ＳＡＯＮＯ　ＮＡＫＡ株式会社,,株式会社,東京都,渋谷区,代々木５丁目２９番８号,,13,113,1510053,,,,,,,2025-01-21,1,,,,,サオノナカ,0
2281,9011003020777,新規,0,2025-01-21,2025-01-21,安善酵素研究所合同会社,,合同会社,東京都,渋谷区,道玄坂１丁目１０－８渋谷道玄坂東急ビル２Ｆ－Ｃ,,13,113,1500043,,,,,,,2025-01-21,1,,,,,,0
2282,9011003020785,新規,0,2025-01-21,2025-01-21,ＢａＭ　Ｐｒｏｄｕｃｔｉｏｎｓ　Ｔｏｋｙｏ合同会社,,合同会社,東京都,渋谷区,恵比寿西２丁目８番４号ＥＸ恵比寿西ビル５階,,13,113,1500021,,,,,,,2025-01-21,1,,,,,バムプロダクションズトウキョウ,0
2289,9011101110323,新規,0,2025-01-21,2025-01-21,ジョシ株式会社,,株式会社,東京都,新宿区,西新宿３丁目３番１３号西新宿水間ビル６階,,13,104,1600023,,,,,,,2025-01-21,1,,,,,ジョシ,0
2290,9011101110356,新規,0,2025-01-21,2025-01-21,株式会社ＳｅｌｆＲｉｓｅ,,株式会社,東京都,新宿区,西新宿３丁目３番１３号西新宿水間ビル２Ｆ,,13,104,1600023,,,,,,,2025-01-21,1,,,,,セルフライズ,0
2294,9011201026064,新規,0,2025-01-21,2025-01-21,株式会社ＳＨＰ,,株式会社,東京都,中野区,中央２丁目７番１７号,,13,114,1640011,,,,,,,2025-01-21,1,,,,,エスエイチピー,0
2311,9011701027990,新規,0,2025-01-21,2025-01-21,株式会社ＳＩＳＩ,,株式会社,東京都,江戸川区,西小岩４丁目２番９号ＮＴＴ小岩ビル１Ｆ,,13,123,1330057,,,,,,,2025-01-21,1,,,,,シシ,0
2313,9011801045463,新規,0,2025-01-21,2025-01-21,株式会社シードラボ,,株式会社,東京都,葛飾区,水元５丁目５番２－１０３号,,13,122,1250032,,,,,,,2025-01-21,1,,,,,シードラボ,0
2327,9020001160873,新規,0,2025-01-21,2025-01-21,ＢｒａｎｄＢｏｏｓｔＭｅｄｉａ株式会社,,株式会社,神奈川県,横浜市旭区,上川井町２０３７番地,,14,112,2410802,,,,,,,2025-01-21,1,,,,,ブランドブーストメディア,0
2328,9020001160989,新規,0,2025-01-21,2025-01-21,Ｖｉｔａｌｉｔｙ株式会社,,株式会社,神奈川県,横浜市西区,浅間町１丁目４番３号ウィザードビル４０２,,14,103,2200072,,,,,,,2025-01-21,1,,,,,バイタリティ,0
2336,9021001084237,新規,0,2025-01-21,2025-01-21,百利得株式会社,,株式会社,神奈川県,秦野市,南矢名２２２３番地の４東海ビル２０３Ｂ,,14,211,2570003,,,,,,,2025-01-21,1,,,,,ヒャクリトク,0
2343,9030001164428,新規,0,2025-01-21,2025-01-21,大和産業株式会社,,株式会社,埼玉県,ふじみ野市,霞ケ丘３丁目４－１ライオンズガーデン上福岡２２９号室,,11,245,3560006,,,,,,,2025-01-21,1,,,,,ダイワサンギョウ,0
2344,9030001164436,新規,0,2025-01-21,2025-01-21,ティーエイチ工業株式会社,,株式会社,埼玉県,吉川市,美南４丁目１番地１パレスラウレア２０７,,11,243,3420038,,,,,,,2025-01-21,1,,,,,ティーエイチコウギョウ,0
2345,9030001164477,新規,0,2025-01-21,2025-01-21,株式会社Ｖａｌｏｒ　Ｃｏｎｎｅｃｔ,,株式会社,埼玉県,越谷市,レイクタウン１丁目７番地５,,11,222,3430828,,,,,,,2025-01-21,1,,,,,バロールコネクト,0
2346,9030001164485,新規,0,2025-01-21,2025-01-21,株式会社ＮｓＩＤＥＡ,,株式会社,埼玉県,さいたま市大宮区,桜木町１丁目３９８番地１アドグレイス大宮７階,,11,103,3300854,,,,,,,2025-01-21,1,,,,,エヌズアイデア,0
2347,9030003025909,新規,0,2025-01-21,2025-01-21,合同会社ｕｐｗｏｒｋＳ,,合同会社,埼玉県,越谷市,大字南荻島６１６番地２５,,11,222,3430804,,,,,,,2025-01-21,1,,,,,アップワークス,0
2363,9080001026722,新規,0,2025-01-21,2025-01-21,株式会社静岡ＴａａＳトラベル,,株式会社,静岡県,静岡市葵区,沓谷５丁目１４－９不二ビル２階,,22,101,4200816,,,,,,,2025-01-21,1,,,,,シズオカターストラベル,0
2365,9080401027691,新規,0,2025-01-21,2025-01-21,富士山ベジタブル株式会社,,株式会社,静岡県,浜松市中央区,安松町６６番地の９,,22,138,4350034,,,,,,,2025-01-21,1,,,,,フジサンベジタブル,0
2367,9080403005183,新規,0,2025-01-21,2025-01-21,合同会社フルウェル,,合同会社,静岡県,湖西市,吉美１０６１－８,,22,221,4310441,,,,,,,2025-01-21,1,,,,,フルウェル,0
2378,9090003002720,新規,0,2025-01-21,2025-01-21,合同会社トワラック,,合同会社,山梨県,甲府市,屋形３丁目８番１６号,,19,201,4000017,,,,,,,2025-01-21,1,,,,,トワラック,0
2381,9100001038194,新規,0,2025-01-21,2025-01-21,株式会社クボタ園芸,,株式会社,長野県,飯田市,上郷別府１４４番地３,,20,205,3950003,,,,,,,2025-01-21,1,,,,,クボタエンゲイ,0
2397,9120001271982,新規,0,2025-01-21,2025-01-21,騰騏資源株式会社,,株式会社,大阪府,大阪市東淀川区,瑞光１丁目２－１１Ｒｅ：ＺＯＮＥ上新庄０１－４０５号室,,27,114,5330005,,,,,,,2025-01-21,1,,,,,トウキシゲン,0
2398,9120001272015,新規,0,2025-01-21,2025-01-21,株式会社ＵｐＬｉｎｋＸ,,株式会社,大阪府,大阪市住吉区,庭井２丁目１３番２号,,27,120,5580012,,,,,,,2025-01-21,1,,,,,アップリンクス,0
2399,9120001272056,新規,0,2025-01-21,2025-01-21,株式会社Ｃｕｒｅ　Ｆｏｒｃｅ,,株式会社,大阪府,大阪市鶴見区,安田３丁目１８番６号,,27,124,5380032,,,,,,,2025-01-21,1,,,,,キュアフォース,0
2400,9120001272064,新規,0,2025-01-21,2025-01-21,Ｎ・Ｋホールディングス株式会社,,株式会社,大阪府,大阪市平野区,瓜破３丁目２番４０号,,27,126,5470024,,,,,,,2025-01-21,1,,,,,エヌケイホールディングス,0
2401,9120001272155,新規,0,2025-01-21,2025-01-21,株式会社ｓｔａｒ‐ＣＯＡ,,株式会社,大阪府,大阪市北区,角田町８－１大阪梅田ツインタワーズ・ノース１９Ｆ,,27,127,5300017,,,,,,,2025-01-21,1,,,,,スターコア,0
2406,9120003028398,新規,0,2025-01-21,2025-01-21,ＴＨＯＣ合同会社,,合同会社,大阪府,大阪市西成区,鶴見橋３丁目１０番３１号,,27,122,5570031,,,,,,,2025-01-21,1,,,,,トック,0
2407,9120005024726,新規,0,2025-01-21,2025-01-21,医療法人晴羽会,,その他の設立登記法人,大阪府,大阪市北区,天神橋２丁目４番１６号大研ビル３階,,27,127,5300041,,,,,,,2025-01-21,1,,,,,セイワカイ,0
2410,9120101070938,新規,0,2025-01-21,2025-01-21,株式会社ｏｎｅ　ｓｕｐｐｏｒｔ,,株式会社,大阪府,堺市北区,東浅香山町１丁６５番地１シャーメゾンポラリスＡ２０３号,,27,146,5918008,,,,,,,2025-01-21,1,,,,,ワンサポート,0
2411,9120103006246,新規,0,2025-01-21,2025-01-21,合同会社Ｃ．ｌｉｌｙ,,合同会社,大阪府,泉佐野市,日根野１１５０番地の１１,,27,213,5980021,,,,,,,2025-01-21,1,,,,,カラーリリィ,0
2412,9120105009957,新規,0,2025-01-21,2025-01-21,医療法人ひとし会,,その他の設立登記法人,大阪府,堺市西区,鳳東町１丁７０番地１ＷＩＳＴＥＲＩＡＢＬＤＧ２階,,27,144,5938324,,,,,,,2025-01-21,1,,,,,ヒトシカイ,0
2414,9120903005513,新規,0,2025-01-21,2025-01-21,合同会社サンティエアセット＆Ｔ,,合同会社,大阪府,茨木市,春日３丁目１６－２７,,27,211,5670031,,,,,,,2025-01-21,1,,,,,サンティエアセットアンドティー,0
2423,9130001078816,新規,0,2025-01-21,2025-01-21,オクトカーボンワークス株式会社,,株式会社,京都府,八幡市,下奈良榊６番地の１,,26,210,6148132,,,,,,,2025-01-21,1,,,,,オクトカーボンワークス,0
2424,9130001078824,新規,0,2025-01-21,2025-01-21,株式会社ＬＩＮＫＴＨ,,株式会社,京都府,宇治市,木幡北島２０番地の１４,,26,204,6110002,,,,,,,2025-01-21,1,,,,,リンクス,0
2425,9130001078832,新規,0,2025-01-21,2025-01-21,株式会社Ｃｒｙｏ　Ｍｏｕｎｔｄｙｎｅ,,株式会社,京都府,京都市上京区,宮垣町９１－１０２,,26,102,6020853,,,,,,,2025-01-21,1,,,,,クライオマウントダイン,0
2435,9180001165023,新規,0,2025-01-21,2025-01-21,株式会社ＷＡＮＧ　ＷＡＮＧ　ＣＲＥＡＴＥＳ,,株式会社,愛知県,名古屋市緑区,ほら貝２丁目２４３番地,,23,114,4580013,,,,,,,2025-01-21,1,,,,,ワンワンクリエイツ,0
2436,9180001165056,新規,0,2025-01-21,2025-01-21,Ｋｉｗｉ　Ｃｈｅａｐ　Ｃａｒｓ株式会社,,株式会社,愛知県,弥富市,五斗山３丁目１０８番地４,,23,235,4901402,,,,,,,2025-01-21,1,,,,,キウィチープカーズ,0
2443,9180301039447,新規,0,2025-01-21,2025-01-21,株式会社グランエステート,,株式会社,愛知県,豊田市,西町６丁目３番地７ＫＫビル１Ｆ,,23,211,4710025,,,,,,,2025-01-21,1,,,,,グランエステート,0
2444,9180301039455,新規,0,2025-01-21,2025-01-21,株式会社ハルミチプロ,,株式会社,愛知県,豊橋市,牟呂町字内田４番地,,23,201,4418087,,,,,,,2025-01-21,1,,,,,ハルミチプロ,0
2445,9190001031950,新規,0,2025-01-21,2025-01-21,株式会社エースライト,,株式会社,三重県,鈴鹿市,東磯山１丁目３８番１号,,24,207,5100257,,,,,,,2025-01-21,1,,,,,エースライト,0
2446,9200003006668,新規,0,2025-01-21,2025-01-21,ａｓｏｂｉｇｕｓａ合同会社,,合同会社,岐阜県,可児市,下切１７６８番地８,,21,214,5090245,,,,,,,2025-01-21,1,,,,,アソビグサ,0
2447,9210003001882,新規,0,2025-01-21,2025-01-21,合同会社テイストメディア,,合同会社,福井県,福井市,西谷２丁目８１７番地２,,18,201,9188023,,,,,,,2025-01-21,1,,,,,テイストメディア,0
2457,9260001039821,新規,0,2025-01-21,2025-01-21,株式会社ＧＥＮＫＩ,,株式会社,岡山県,倉敷市,宮前４１８－３,,33,202,7100065,,,,,,,2025-01-21,1,,,,,ゲンキ,0
2459,9260003005037,新規,0,2025-01-21,2025-01-21,合同会社ＭＯＲＩカンパニー,,合同会社,岡山県,真庭市,日名９６番地,,33,214,7193116,,,,,,,2025-01-21,1,,,,,モリカンパニー,0
2464,9290001108607,新規,0,2025-01-21,2025-01-21,株式会社ＫＡＭＯＮｉｔｙ,,株式会社,福岡県,糟屋郡粕屋町,長者原西１丁目１１番２５号,,40,349,8112316,,,,,,,2025-01-21,1,,,,,カモニティ,0
2465,9290001108672,新規,0,2025-01-21,2025-01-21,ＯＰＥＮ．Ｘ株式会社,,株式会社,福岡県,福岡市東区,香椎照葉６丁目２番５１－１９０７号,,40,131,8130017,,,,,,,2025-01-21,1,,,,,オープンクロス,0
2470,9290801031207,新規,0,2025-01-21,2025-01-21,株式会社唐原ファーム,,株式会社,福岡県,築上郡上毛町,大字上唐原２０１２番地,,40,646,8710924,,,,,,,2025-01-21,1,,,,,トウバルファーム,0
2473,9310001019421,新規,0,2025-01-21,2025-01-21,株式会社マルシマ,,株式会社,長崎県,長崎市,銅座町７番９号,,42,201,8500841,,,,,,,2025-01-21,1,,,,,マルシマ,0
2477,9320001020898,新規,0,2025-01-21,2025-01-21,株式会社ＳＯＣＴＯ地建,,株式会社,大分県,大分市,府内町３丁目４番２０号４階,,44,201,8700021,,,,,,,2025-01-21,1,,,,,ソクトチケン,0
2489,9360001034671,新規,0,2025-01-21,2025-01-21,株式会社Ｇ＆Ｐ琉球レンタカー,,株式会社,沖縄県,浦添市,仲西３丁目１２番１号,,47,208,9012125,,,,,,,2025-01-21,1,,,,,ジーアンドピーリュウキュウレンタカー,0
2490,9360001034688,新規,0,2025-01-21,2025-01-21,Ｒｅ　Ｌｉｇｈｔ株式会社,,株式会社,沖縄県,那覇市,泊１丁目４番１３号福琉ビル３０４号室,,47,201,9000012,,,,,,,2025-01-21,1,,,,,リライト,0
2492,9360003014606,新規,0,2025-01-21,2025-01-21,合同会社ふわりクリエイト,,合同会社,沖縄県,中頭郡中城村,字伊集１２４番地２,,47,328,9012417,,,,,,,2025-01-21,1,,,,,フワリクリエイト,0
2495,9380001035049,新規,0,2025-01-21,2025-01-21,エスエスメディカル株式会社,,株式会社,福島県,いわき市,小島町２丁目９番２０号トモハイム１階東,,07,204,9738411,,,,,,,2025-01-21,1,,,,,エスエスメディカル,0
2502,9420003003057,新規,0,2025-01-21,2025-01-21,合同会社Ｋ・ＰＡＩＮＴ,,合同会社,青森県,青森市,大字石江字江渡１０６番地２００,,02,201,0380003,,,,,,,2025-01-21,1,,,,,ケーペイント,0
2504,9430003017188,新規,0,2025-01-21,2025-01-21,合同会社ハンナクリエイティブカンパニー,,合同会社,北海道,札幌市豊平区,美園八条７丁目２番２２－４０１号,,01,105,0620008,,,,,,,2025-01-21,1,,,,,ハンナクリエイティブカンパニー,0
2505,9430005015140,新規,0,2025-01-21,2025-01-21,一般社団法人田島管理,,その他の設立登記法人,北海道,札幌市白石区,南郷通６丁目北３番１２号,,01,104,0030023,,,,,,,2025-01-21,1,,,,,タジマカンリ,0
2506,9450001014499,新規,0,2025-01-21,2025-01-21,株式会社いくガス,,株式会社,北海道,上川郡当麻町,宇園別２区,,01,454,0781332,,,,,,,2025-01-21,1,,,,,イクガス,0
2507,9460103001675,新規,0,2025-01-21,2025-01-21,Ｆｅｌｉｚ合同会社,,合同会社,北海道,河東郡音更町,緑陽台仲区２番地７,,01,631,0800317,,,,,,,2025-01-21,1,,,,,フェリス,0
2518,9480001012715,新規,0,2025-01-21,2025-01-21,株式会社大串建工,,株式会社,徳島県,阿波市,土成町吉田字中小路１６番地,,36,206,7711507,,,,,,,2025-01-21,1,,,,,オオグシケンコウ,0
2524,9700150128867,新規,0,2025-01-21,2025-01-21,ｓｈｅｎｚｈｅｎｓｈｉ　ｌｕｋｅｓｉｗａｎｇｌｕｏ　ｙｏｕｘｉａｎｇｏｎｇｓｉ,,外国会社等,,,,,,,,ｌｏｎｇｈｕａｑｕ　ｄａｌａｎｇｊｉｅｄａｏ　ｇａｏｆｅｎｇｓｈｅｑｕ　ｌｏｎｇｇｕａｎｘｉｌｕ９９ｈａｏｓｈｕｎｔａｉｚｈｏｎｇｓｈｅｎｇｄａｓｈａ　１ｄｏｎｇ　１ｄａｎｙｕａｎ　２３０５Ｓｈｅｎｚｈｅｎｓｈｉ　Ｇｕａｎｇｄｏｎｇｓｈｅｎｇ,,,,,,2025-01-21,1,,,,,シェンジェンシールーコースーワンルオヨウシエンゴンスー,0
2525,9700150128875,新規,0,2025-01-21,2025-01-21,ｔａｉｚｈｏｕｓｈｉｊｉｎｌａｉｄｉａｎｚｉｓｈａｎｇｗｕｙｏｕｘｉａｎｚｅｒｅｎｇｏｎｇｓｉ,,外国会社等,,,,,,,,ｚｈｅｊｉａｎｇｓｈｅｎｇｔａｉｚｈｏｕｓｈｉｈｕａｎｇｙａｎｑｕｄｏｎｇｃｈｅｎｇｊｉｅｄａｏｘｉｎｙａｎｇｈｕａｙｕａｎ４ｚｈｕａｎｇ１ｄａｎｙｕａｎ１０１ｓｈｉ,,,,,,2025-01-21,1,,,,,タイジョウシージンライディエンズーシャンウーヨウシエンゾーレンゴンスー,0
